openbareruimtenaam,huisnummer,huisletter,huisnummertoevoeging,postcode,woonplaatsnaam,gemeentenaam,provincienaam,typeadresseerbaarobject,longitude,latitude
Lagedijk,1,,,1145PL,Katwoude,Waterland,Noord-Holland,VBO,5.032052,52.467990
Lagedijk,2,,,1145PL,Katwoude,Waterland,Noord-Holland,VBO,5.031997,52.468255
Lagedijk,3,,,1145PL,Katwoude,Waterland,Noord-Holland,VBO,5.031197,52.468074
Lagedijk,5,,,1145PL,Katwoude,Waterland,Noord-Holland,VBO,5.029979,52.469028
Lagedijk,6,,,1145PL,Katwoude,Waterland,Noord-Holland,VBO,5.029508,52.469184
Lagedijk,7,,,1145PL,Katwoude,Waterland,Noord-Holland,VBO,5.028206,52.469713
Lagedijk,8,,,1145PL,Katwoude,Waterland,Noord-Holland,VBO,5.027017,52.469678
Lagedijk,9,A,,1145PL,Katwoude,Waterland,Noord-Holland,VBO,5.025800,52.470542
Lagedijk,9,,,1145PL,Katwoude,Waterland,Noord-Holland,VBO,5.026511,52.470279
Lagedijk,10,,WS,1145PL,Katwoude,Waterland,Noord-Holland,LIG,5.024585,52.470455
Lagedijk,11,,,1145PL,Katwoude,Waterland,Noord-Holland,VBO,5.024708,52.470882
Lagedijk,12,,,1145PL,Katwoude,Waterland,Noord-Holland,VBO,5.023960,52.470682
Lagedijk,13,,,1145PL,Katwoude,Waterland,Noord-Holland,VBO,5.023347,52.471072
Lagedijk,14,,,1145PL,Katwoude,Waterland,Noord-Holland,VBO,5.022912,52.471009
Lagedijk,15,,,1145PL,Katwoude,Waterland,Noord-Holland,VBO,5.022524,52.470501
Lagedijk,16,,,1145PL,Katwoude,Waterland,Noord-Holland,VBO,5.021026,52.470964
Hoogedijk,1,,,1145PM,Katwoude,Waterland,Noord-Holland,VBO,5.033353,52.468120
Hoogedijk,2,,,1145PM,Katwoude,Waterland,Noord-Holland,VBO,5.035072,52.467582
Hoogedijk,4,A,,1145PM,Katwoude,Waterland,Noord-Holland,VBO,5.037935,52.467102
Hoogedijk,4,,,1145PM,Katwoude,Waterland,Noord-Holland,VBO,5.036437,52.467360
Hoogedijk,5,,,1145PM,Katwoude,Waterland,Noord-Holland,VBO,5.039051,52.466543
Hoogedijk,6,,,1145PM,Katwoude,Waterland,Noord-Holland,VBO,5.039455,52.465915
Hoogedijk,7,A,,1145PM,Katwoude,Waterland,Noord-Holland,VBO,5.041480,52.465755
Hoogedijk,7,B,,1145PM,Katwoude,Waterland,Noord-Holland,VBO,5.041359,52.465771
Hoogedijk,7,,,1145PM,Katwoude,Waterland,Noord-Holland,VBO,5.040212,52.465656
Hoogedijk,8,,,1145PM,Katwoude,Waterland,Noord-Holland,VBO,5.041593,52.466439
Hoogedijk,9,,,1145PM,Katwoude,Waterland,Noord-Holland,VBO,5.042036,52.466549
Hoogedijk,10,,,1145PM,Katwoude,Waterland,Noord-Holland,VBO,5.042338,52.466586
Hoogedijk,11,,,1145PM,Katwoude,Waterland,Noord-Holland,VBO,5.042801,52.466958
Hoogedijk,15,,,1145PM,Katwoude,Waterland,Noord-Holland,VBO,5.043331,52.467063
Hoogedijk,16,,,1145PM,Katwoude,Waterland,Noord-Holland,VBO,5.044217,52.467224
Hoogedijk,17,,,1145PM,Katwoude,Waterland,Noord-Holland,VBO,5.044634,52.467579
Hoogedijk,18,,,1145PM,Katwoude,Waterland,Noord-Holland,VBO,5.045558,52.467837
Hoogedijk,19,,,1145PM,Katwoude,Waterland,Noord-Holland,VBO,5.045788,52.467917
Hoogedijk,20,,,1145PN,Katwoude,Waterland,Noord-Holland,VBO,5.046091,52.467990
Hoogedijk,21,,,1145PN,Katwoude,Waterland,Noord-Holland,VBO,5.046230,52.468050
Hoogedijk,22,,,1145PN,Katwoude,Waterland,Noord-Holland,VBO,5.046376,52.468112
Hoogedijk,23,,,1145PN,Katwoude,Waterland,Noord-Holland,VBO,5.046758,52.468233
Hoogedijk,24,,,1145PN,Katwoude,Waterland,Noord-Holland,VBO,5.047079,52.468389
Hoogedijk,27,,,1145PN,Katwoude,Waterland,Noord-Holland,VBO,5.047772,52.468665
Hoogedijk,28,,,1145PN,Katwoude,Waterland,Noord-Holland,VBO,5.047981,52.468732
Hoogedijk,30,,,1145PN,Katwoude,Waterland,Noord-Holland,VBO,5.048434,52.468869
Hoogedijk,31,,,1145PN,Katwoude,Waterland,Noord-Holland,VBO,5.048517,52.468905
Hoogedijk,32,,,1145PN,Katwoude,Waterland,Noord-Holland,VBO,5.048691,52.468995
Hoogedijk,34,,,1145PN,Katwoude,Waterland,Noord-Holland,VBO,5.048826,52.468653
Hoogedijk,35,,,1145PN,Katwoude,Waterland,Noord-Holland,VBO,5.049115,52.468735
Hoogedijk,36,,,1145PP,Katwoude,Waterland,Noord-Holland,VBO,5.049046,52.469162
Hoogedijk,37,,,1145PP,Katwoude,Waterland,Noord-Holland,VBO,5.049435,52.469458
Hoogedijk,38,,,1145PP,Katwoude,Waterland,Noord-Holland,VBO,5.050064,52.469550
Hoogedijk,40,,,1145PP,Katwoude,Waterland,Noord-Holland,VBO,5.051405,52.469783
Hoogedijk,41,,,1145PP,Katwoude,Waterland,Noord-Holland,VBO,5.051933,52.469576
Hoogedijk,42,,,1145PP,Katwoude,Waterland,Noord-Holland,VBO,5.052407,52.469466
Hoogedijk,43,,,1145PP,Katwoude,Waterland,Noord-Holland,VBO,5.053345,52.469902
Hoogedijk,44,,,1145PP,Katwoude,Waterland,Noord-Holland,VBO,5.054528,52.468955
Hoogedijk,45,,,1145PP,Katwoude,Waterland,Noord-Holland,VBO,5.057227,52.468484
Hoogedijk,46,,,1145PP,Katwoude,Waterland,Noord-Holland,VBO,5.058136,52.468460
Hoogedijk,47,,,1145PP,Katwoude,Waterland,Noord-Holland,VBO,5.062664,52.468216
Hoogedijk,48,,,1145PP,Katwoude,Waterland,Noord-Holland,VBO,5.063971,52.468320
Hoogedijk,49,,,1145PP,Katwoude,Waterland,Noord-Holland,VBO,5.065929,52.468561
Hoogedijk,50,,,1145PR,Katwoude,Waterland,Noord-Holland,VBO,5.065538,52.472287
Hoogedijk,51,,,1145PR,Katwoude,Waterland,Noord-Holland,VBO,5.059133,52.475538
Hoogedijk,52,,,1145PR,Katwoude,Waterland,Noord-Holland,VBO,5.059769,52.476910
Hoogedijk,53,,,1145PR,Katwoude,Waterland,Noord-Holland,VBO,5.059604,52.477823
Hoogedijk,54,,,1145PR,Katwoude,Waterland,Noord-Holland,VBO,5.059141,52.478106
Hoogedijk,55,A,,1145PR,Katwoude,Waterland,Noord-Holland,VBO,5.058406,52.479331
Hoogedijk,55,,,1145PR,Katwoude,Waterland,Noord-Holland,VBO,5.058618,52.479346
Hoogedijk,56,A,,1145PR,Katwoude,Waterland,Noord-Holland,VBO,5.058307,52.481459
Hoogedijk,56,,,1145PR,Katwoude,Waterland,Noord-Holland,VBO,5.057977,52.480455
Hoogedijk,57,,,1145PR,Katwoude,Waterland,Noord-Holland,VBO,5.058244,52.482939
Hoogedijk,58,,,1145PR,Katwoude,Waterland,Noord-Holland,VBO,5.057378,52.484443
Hoogedijk,59,,,1145PR,Katwoude,Waterland,Noord-Holland,VBO,5.058381,52.485188
Hoogedijk,60,,,1145PR,Katwoude,Waterland,Noord-Holland,VBO,5.058720,52.487709
Hoogedijk,61,,,1145PR,Katwoude,Waterland,Noord-Holland,VBO,5.058695,52.488031
Molenkade,2,,,1145PS,Katwoude,Waterland,Noord-Holland,VBO,5.030297,52.475095
Jaagweg,1,,,1145PT,Katwoude,Waterland,Noord-Holland,VBO,5.031767,52.476186
Zedde,1,,,1145PV,Katwoude,Waterland,Noord-Holland,VBO,5.029418,52.482476
Zedde,2,,,1145PV,Katwoude,Waterland,Noord-Holland,VBO,5.029387,52.482664
Zedde,3,,,1145PV,Katwoude,Waterland,Noord-Holland,VBO,5.028519,52.482608
Zedde,4,,,1145PV,Katwoude,Waterland,Noord-Holland,VBO,5.028077,52.482687
Zedde,5,,,1145PV,Katwoude,Waterland,Noord-Holland,VBO,5.027709,52.482695
Zedde,6,,,1145PV,Katwoude,Waterland,Noord-Holland,VBO,5.027355,52.482730
Zedde,7,,,1145PV,Katwoude,Waterland,Noord-Holland,VBO,5.026810,52.482755
Zedde,8,,,1145PV,Katwoude,Waterland,Noord-Holland,VBO,5.026442,52.482808
Wagenweg,1,,,1145PW,Katwoude,Waterland,Noord-Holland,VBO,5.032494,52.486938
Wagenweg,2,,,1145PW,Katwoude,Waterland,Noord-Holland,VBO,5.032714,52.486444
Wagenweg,3,,,1145PW,Katwoude,Waterland,Noord-Holland,VBO,5.032201,52.485998
Wagenweg,4,,,1145PW,Katwoude,Waterland,Noord-Holland,VBO,5.032153,52.485837
Wagenweg,5,,,1145PW,Katwoude,Waterland,Noord-Holland,VBO,5.032186,52.485709
Wagenweg,6,,,1145PW,Katwoude,Waterland,Noord-Holland,VBO,5.032134,52.485546
Wagenweg,7,,,1145PW,Katwoude,Waterland,Noord-Holland,VBO,5.032169,52.485424
Wagenweg,8,,,1145PW,Katwoude,Waterland,Noord-Holland,VBO,5.032120,52.485259
Wagenweg,9,,,1145PW,Katwoude,Waterland,Noord-Holland,VBO,5.031942,52.485078
Wagenweg,11,,,1145PW,Katwoude,Waterland,Noord-Holland,VBO,5.032789,52.482718
Achterdichting,1,,,1145PX,Katwoude,Waterland,Noord-Holland,VBO,5.057784,52.490476
Achterdichting,2,,,1145PX,Katwoude,Waterland,Noord-Holland,VBO,5.057108,52.490375
Achterdichting,3,A,,1145PX,Katwoude,Waterland,Noord-Holland,VBO,5.048893,52.488956
Achterdichting,3,,,1145PX,Katwoude,Waterland,Noord-Holland,VBO,5.052523,52.489230
Achterdichting,4,,,1145PX,Katwoude,Waterland,Noord-Holland,VBO,5.047315,52.488703
Achterdichting,5,A,,1145PX,Katwoude,Waterland,Noord-Holland,VBO,5.044574,52.488465
Achterdichting,5,,,1145PX,Katwoude,Waterland,Noord-Holland,VBO,5.044563,52.488515
Achterdichting,6,,,1145PX,Katwoude,Waterland,Noord-Holland,VBO,5.038034,52.487930
