openbareruimtenaam,huisnummer,huisletter,huisnummertoevoeging,postcode,woonplaatsnaam,gemeentenaam,provincienaam,typeadresseerbaarobject,longitude,latitude
Nieuwe Kalfjeslaan,7,,,1182AA,Amstelveen,Amstelveen,Noord-Holland,VBO,4.856806,52.321386
Nieuwe Kalfjeslaan,9,A,,1182AA,Amstelveen,Amstelveen,Noord-Holland,VBO,4.856013,52.321465
Nieuwe Kalfjeslaan,9,,,1182AA,Amstelveen,Amstelveen,Noord-Holland,VBO,4.856311,52.321347
Nieuwe Kalfjeslaan,11,,,1182AA,Amstelveen,Amstelveen,Noord-Holland,VBO,4.854790,52.321248
Nieuwe Kalfjeslaan,13,,,1182AA,Amstelveen,Amstelveen,Noord-Holland,VBO,4.854691,52.321249
Nieuwe Kalfjeslaan,15,,,1182AA,Amstelveen,Amstelveen,Noord-Holland,VBO,4.854591,52.321247
Nieuwe Kalfjeslaan,17,A,,1182AA,Amstelveen,Amstelveen,Noord-Holland,VBO,4.854603,52.321076
Nieuwe Kalfjeslaan,17,B,,1182AA,Amstelveen,Amstelveen,Noord-Holland,VBO,4.854692,52.321091
Nieuwe Kalfjeslaan,17,C,,1182AA,Amstelveen,Amstelveen,Noord-Holland,VBO,4.854774,52.321094
Nieuwe Kalfjeslaan,17,D,,1182AA,Amstelveen,Amstelveen,Noord-Holland,VBO,4.854874,52.321121
Nieuwe Kalfjeslaan,17,E,,1182AA,Amstelveen,Amstelveen,Noord-Holland,VBO,4.854904,52.321100
Nieuwe Kalfjeslaan,17,F,,1182AA,Amstelveen,Amstelveen,Noord-Holland,VBO,4.854993,52.321089
Nieuwe Kalfjeslaan,17,G,,1182AA,Amstelveen,Amstelveen,Noord-Holland,VBO,4.855020,52.321071
Nieuwe Kalfjeslaan,17,H,,1182AA,Amstelveen,Amstelveen,Noord-Holland,VBO,4.855075,52.320965
Nieuwe Kalfjeslaan,17,K,,1182AA,Amstelveen,Amstelveen,Noord-Holland,VBO,4.855280,52.320584
Nieuwe Kalfjeslaan,17,L,,1182AA,Amstelveen,Amstelveen,Noord-Holland,VBO,4.855273,52.320526
Nieuwe Kalfjeslaan,17,M,,1182AA,Amstelveen,Amstelveen,Noord-Holland,VBO,4.855274,52.320431
Nieuwe Kalfjeslaan,17,N,,1182AA,Amstelveen,Amstelveen,Noord-Holland,VBO,4.855267,52.320370
Nieuwe Kalfjeslaan,17,,,1182AA,Amstelveen,Amstelveen,Noord-Holland,VBO,4.854122,52.320031
Nieuwe Kalfjeslaan,19,A,,1182AA,Amstelveen,Amstelveen,Noord-Holland,VBO,4.851695,52.320742
Nieuwe Kalfjeslaan,19,B,,1182AA,Amstelveen,Amstelveen,Noord-Holland,VBO,4.848499,52.321422
Nieuwe Kalfjeslaan,19,,,1182AA,Amstelveen,Amstelveen,Noord-Holland,VBO,4.852189,52.320089
Nieuwe Kalfjeslaan,21,A,,1182AA,Amstelveen,Amstelveen,Noord-Holland,VBO,4.850436,52.319158
Nieuwe Kalfjeslaan,21,B,,1182AA,Amstelveen,Amstelveen,Noord-Holland,VBO,4.850527,52.319055
Nieuwe Kalfjeslaan,21,C,,1182AA,Amstelveen,Amstelveen,Noord-Holland,VBO,4.849581,52.317427
Nieuwe Kalfjeslaan,21,,,1182AA,Amstelveen,Amstelveen,Noord-Holland,VBO,4.848376,52.320878
Nieuwe Kalfjeslaan,23,,,1182AA,Amstelveen,Amstelveen,Noord-Holland,VBO,4.845699,52.317930
Nieuwe Kalfjeslaan,25,,,1182AA,Amstelveen,Amstelveen,Noord-Holland,VBO,4.841910,52.317837
Nieuwe Kalfjeslaan,27,,,1182AA,Amstelveen,Amstelveen,Noord-Holland,VBO,4.841237,52.317641
Nieuwe Kalfjeslaan,8,,,1182AB,Amstelveen,Amstelveen,Noord-Holland,VBO,4.848557,52.324333
Jan Tooropplantsoen,1,,,1182AC,Amstelveen,Amstelveen,Noord-Holland,VBO,4.855737,52.320752
Jan Tooropplantsoen,2,,,1182AC,Amstelveen,Amstelveen,Noord-Holland,VBO,4.855649,52.320795
Jan Tooropplantsoen,3,,,1182AC,Amstelveen,Amstelveen,Noord-Holland,VBO,4.855518,52.320863
Jan Tooropplantsoen,4,,,1182AC,Amstelveen,Amstelveen,Noord-Holland,VBO,4.855437,52.320907
Jan Tooropplantsoen,5,,,1182AC,Amstelveen,Amstelveen,Noord-Holland,VBO,4.855256,52.320991
Jan Tooropplantsoen,6,,,1182AC,Amstelveen,Amstelveen,Noord-Holland,VBO,4.855224,52.321139
Jan Tooropplantsoen,7,,,1182AC,Amstelveen,Amstelveen,Noord-Holland,VBO,4.855221,52.321206
Jan Tooropplantsoen,8,,,1182AC,Amstelveen,Amstelveen,Noord-Holland,VBO,4.855218,52.321261
Jan Tooropplantsoen,9,,,1182AC,Amstelveen,Amstelveen,Noord-Holland,VBO,4.855211,52.321670
Jan Tooropplantsoen,10,,,1182AC,Amstelveen,Amstelveen,Noord-Holland,VBO,4.855208,52.321733
Jan Tooropplantsoen,11,,,1182AC,Amstelveen,Amstelveen,Noord-Holland,VBO,4.855212,52.321792
Jan Tooropplantsoen,12,,,1182AC,Amstelveen,Amstelveen,Noord-Holland,VBO,4.855261,52.321922
Jan Tooropplantsoen,13,,,1182AC,Amstelveen,Amstelveen,Noord-Holland,VBO,4.855461,52.321981
Jan Tooropplantsoen,14,,,1182AC,Amstelveen,Amstelveen,Noord-Holland,VBO,4.855529,52.322015
Jan Tooropplantsoen,15,,,1182AC,Amstelveen,Amstelveen,Noord-Holland,VBO,4.855692,52.322085
Jan Tooropplantsoen,16,,,1182AC,Amstelveen,Amstelveen,Noord-Holland,VBO,4.855795,52.322111
Jan Tooropplantsoen,17,A,,1182AC,Amstelveen,Amstelveen,Noord-Holland,VBO,4.855512,52.322518
Jan Tooropplantsoen,17,B,,1182AC,Amstelveen,Amstelveen,Noord-Holland,VBO,4.854907,52.322518
Jan Tooropplantsoen,17,,,1182AC,Amstelveen,Amstelveen,Noord-Holland,VBO,4.855499,52.323359
Grote Speelweide,5,,,1182AD,Amstelveen,Amstelveen,Noord-Holland,VBO,4.827185,52.320274
Jan Tooroplaan,44,,,1182AE,Amstelveen,Amstelveen,Noord-Holland,VBO,4.851728,52.318644
Jan Tooroplaan,46,,,1182AE,Amstelveen,Amstelveen,Noord-Holland,VBO,4.852567,52.318259
Jan Tooroplaan,48,,,1182AE,Amstelveen,Amstelveen,Noord-Holland,VBO,4.854593,52.318291
Jan Tooroplaan,50,,,1182AE,Amstelveen,Amstelveen,Noord-Holland,VBO,4.855768,52.320337
Jan Tooroplaan,51,,,1182AE,Amstelveen,Amstelveen,Noord-Holland,VBO,4.855784,52.320460
Jan Tooroplaan,52,,,1182AE,Amstelveen,Amstelveen,Noord-Holland,VBO,4.855783,52.320524
Jan Tooroplaan,53,,,1182AE,Amstelveen,Amstelveen,Noord-Holland,VBO,4.855787,52.320588
Bosbaan,2,A,,1182AG,Amstelveen,Amstelveen,Noord-Holland,VBO,4.853480,52.329301
Bosbaan,2,,,1182AG,Amstelveen,Amstelveen,Noord-Holland,VBO,4.853656,52.328653
Bosbaan,4,,,1182AG,Amstelveen,Amstelveen,Noord-Holland,VBO,4.853998,52.329038
Bosbaan,6,,,1182AG,Amstelveen,Amstelveen,Noord-Holland,VBO,4.853829,52.328273
Bosbaan,8,,,1182AG,Amstelveen,Amstelveen,Noord-Holland,VBO,4.849555,52.328932
Bosbaan,10,,,1182AG,Amstelveen,Amstelveen,Noord-Holland,VBO,4.850117,52.329016
Schipholdijk,1,,,1182AH,Amstelveen,Amstelveen,Noord-Holland,VBO,4.817129,52.311053
Schipholdijk,2,,,1182AH,Amstelveen,Amstelveen,Noord-Holland,VBO,4.817156,52.311104
Schipholdijk,3,A,,1182AH,Amstelveen,Amstelveen,Noord-Holland,VBO,4.817304,52.311270
Schipholdijk,3,,,1182AH,Amstelveen,Amstelveen,Noord-Holland,VBO,4.817182,52.311155
Schipholdijk,4,,,1182AH,Amstelveen,Amstelveen,Noord-Holland,VBO,4.817595,52.311971
Schipholdijk,5,A,,1182AH,Amstelveen,Amstelveen,Noord-Holland,VBO,4.818448,52.311874
Schipholdijk,5,,,1182AH,Amstelveen,Amstelveen,Noord-Holland,VBO,4.818292,52.311885
Schipholdijk,6,,,1182AH,Amstelveen,Amstelveen,Noord-Holland,LIG,4.816477,52.313478
Schipholdijk,7,,,1182AH,Amstelveen,Amstelveen,Noord-Holland,LIG,4.816542,52.313690
Schipholdijk,8,,,1182AH,Amstelveen,Amstelveen,Noord-Holland,LIG,4.816609,52.313913
Schipholdijk,10,,,1182AH,Amstelveen,Amstelveen,Noord-Holland,LIG,4.816688,52.314173
Schipholdijk,11,,,1182AH,Amstelveen,Amstelveen,Noord-Holland,LIG,4.816653,52.314418
Schipholdijk,12,,,1182AH,Amstelveen,Amstelveen,Noord-Holland,LIG,4.816721,52.314427
Schipholdijk,13,A,,1182AH,Amstelveen,Amstelveen,Noord-Holland,LIG,4.816551,52.314860
Schipholdijk,13,,,1182AH,Amstelveen,Amstelveen,Noord-Holland,LIG,4.816612,52.314693
Schipholdijk,14,,,1182AH,Amstelveen,Amstelveen,Noord-Holland,LIG,4.816565,52.315103
Schipholdijk,15,,,1182AH,Amstelveen,Amstelveen,Noord-Holland,LIG,4.816625,52.315097
Schipholdijk,16,,,1182AH,Amstelveen,Amstelveen,Noord-Holland,LIG,4.816679,52.315364
Koenenkade,25,,,1182AK,Amstelveen,Amstelveen,Noord-Holland,VBO,4.844438,52.329659
Burgemeester A. Colijnweg,2,A,,1182AL,Amstelveen,Amstelveen,Noord-Holland,VBO,4.846052,52.303648
Burgemeester A. Colijnweg,2,B,,1182AL,Amstelveen,Amstelveen,Noord-Holland,VBO,4.846052,52.303648
Burgemeester A. Colijnweg,2,C,,1182AL,Amstelveen,Amstelveen,Noord-Holland,VBO,4.845924,52.303822
Burgemeester A. Colijnweg,2,,,1182AL,Amstelveen,Amstelveen,Noord-Holland,VBO,4.845966,52.303806
Burgemeester A. Colijnweg,4,A,,1182AL,Amstelveen,Amstelveen,Noord-Holland,VBO,4.845846,52.303830
Burgemeester A. Colijnweg,4,B,,1182AL,Amstelveen,Amstelveen,Noord-Holland,VBO,4.845846,52.303830
Burgemeester A. Colijnweg,4,C,,1182AL,Amstelveen,Amstelveen,Noord-Holland,VBO,4.845846,52.303830
Burgemeester A. Colijnweg,4,D,,1182AL,Amstelveen,Amstelveen,Noord-Holland,VBO,4.845846,52.303830
Burgemeester A. Colijnweg,4,E,,1182AL,Amstelveen,Amstelveen,Noord-Holland,VBO,4.845846,52.303830
Burgemeester A. Colijnweg,4,F,,1182AL,Amstelveen,Amstelveen,Noord-Holland,VBO,4.845846,52.303830
Burgemeester A. Colijnweg,4,G,,1182AL,Amstelveen,Amstelveen,Noord-Holland,VBO,4.845846,52.303830
Burgemeester A. Colijnweg,4,H,,1182AL,Amstelveen,Amstelveen,Noord-Holland,VBO,4.845846,52.303830
Burgemeester A. Colijnweg,4,J,,1182AL,Amstelveen,Amstelveen,Noord-Holland,VBO,4.845846,52.303830
Burgemeester A. Colijnweg,4,K,,1182AL,Amstelveen,Amstelveen,Noord-Holland,VBO,4.845846,52.303830
Burgemeester A. Colijnweg,4,L,,1182AL,Amstelveen,Amstelveen,Noord-Holland,VBO,4.845846,52.303830
Burgemeester A. Colijnweg,4,M,,1182AL,Amstelveen,Amstelveen,Noord-Holland,VBO,4.845846,52.303830
Burgemeester A. Colijnweg,4,N,,1182AL,Amstelveen,Amstelveen,Noord-Holland,VBO,4.845846,52.303830
Burgemeester A. Colijnweg,4,P,,1182AL,Amstelveen,Amstelveen,Noord-Holland,VBO,4.845846,52.303830
Burgemeester A. Colijnweg,4,,,1182AL,Amstelveen,Amstelveen,Noord-Holland,VBO,4.845846,52.303830
Burgemeester A. Colijnweg,6,,,1182AL,Amstelveen,Amstelveen,Noord-Holland,VBO,4.845324,52.303901
Burgemeester A. Colijnweg,8,,,1182AL,Amstelveen,Amstelveen,Noord-Holland,VBO,4.845400,52.303892
Burgemeester A. Colijnweg,200,,,1182AL,Amstelveen,Amstelveen,Noord-Holland,VBO,4.838253,52.304130
Emmakade,1,A,,1182AM,Amstelveen,Amstelveen,Noord-Holland,VBO,4.848515,52.316723
Emmakade,1,B,,1182AM,Amstelveen,Amstelveen,Noord-Holland,VBO,4.848614,52.316717
Emmakade,1,,,1182AM,Amstelveen,Amstelveen,Noord-Holland,VBO,4.847883,52.316665
Emmakade,2,A,,1182AM,Amstelveen,Amstelveen,Noord-Holland,VBO,4.848803,52.316705
Emmakade,2,,,1182AM,Amstelveen,Amstelveen,Noord-Holland,VBO,4.848709,52.316712
Emmakade,3,,,1182AM,Amstelveen,Amstelveen,Noord-Holland,VBO,4.848898,52.316700
Emmakade,4,,,1182AM,Amstelveen,Amstelveen,Noord-Holland,VBO,4.848997,52.316695
Emmakade,5,,,1182AM,Amstelveen,Amstelveen,Noord-Holland,VBO,4.849100,52.316682
Emmakade,6,,,1182AM,Amstelveen,Amstelveen,Noord-Holland,VBO,4.849191,52.316669
Emmakade,7,,,1182AM,Amstelveen,Amstelveen,Noord-Holland,VBO,4.849283,52.316656
Emmakade,8,,,1182AM,Amstelveen,Amstelveen,Noord-Holland,VBO,4.849371,52.316642
Emmakade,9,,,1182AM,Amstelveen,Amstelveen,Noord-Holland,VBO,4.849462,52.316630
Emmakade,10,,,1182AM,Amstelveen,Amstelveen,Noord-Holland,VBO,4.849543,52.316617
Emmakade,11,,,1182AM,Amstelveen,Amstelveen,Noord-Holland,VBO,4.849635,52.316603
Emmakade,12,,,1182AM,Amstelveen,Amstelveen,Noord-Holland,VBO,4.849729,52.316588
Emmakade,13,,,1182AM,Amstelveen,Amstelveen,Noord-Holland,VBO,4.849808,52.316576
Emmakade,14,,,1182AM,Amstelveen,Amstelveen,Noord-Holland,VBO,4.849897,52.316563
Emmakade,15,,,1182AM,Amstelveen,Amstelveen,Noord-Holland,VBO,4.850204,52.316525
Emmakade,16,,,1182AM,Amstelveen,Amstelveen,Noord-Holland,VBO,4.850293,52.316512
Emmakade,17,,,1182AM,Amstelveen,Amstelveen,Noord-Holland,VBO,4.850382,52.316499
Emmakade,18,,,1182AM,Amstelveen,Amstelveen,Noord-Holland,VBO,4.850472,52.316487
Emmakade,19,,,1182AM,Amstelveen,Amstelveen,Noord-Holland,VBO,4.850561,52.316474
Emmakade,20,,,1182AM,Amstelveen,Amstelveen,Noord-Holland,VBO,4.850650,52.316461
Emmakade,21,,,1182AM,Amstelveen,Amstelveen,Noord-Holland,VBO,4.850740,52.316448
Emmakade,22,,,1182AN,Amstelveen,Amstelveen,Noord-Holland,VBO,4.851044,52.316425
Emmakade,23,,,1182AN,Amstelveen,Amstelveen,Noord-Holland,VBO,4.851117,52.316414
Emmakade,24,,,1182AN,Amstelveen,Amstelveen,Noord-Holland,VBO,4.851198,52.316403
Emmakade,25,,,1182AN,Amstelveen,Amstelveen,Noord-Holland,VBO,4.851337,52.316354
Emmakade,26,,,1182AN,Amstelveen,Amstelveen,Noord-Holland,VBO,4.851415,52.316343
Emmakade,27,,,1182AN,Amstelveen,Amstelveen,Noord-Holland,VBO,4.851501,52.316331
Emmakade,28,,,1182AN,Amstelveen,Amstelveen,Noord-Holland,VBO,4.851585,52.316319
Emmakade,29,,,1182AN,Amstelveen,Amstelveen,Noord-Holland,VBO,4.851740,52.316324
Emmakade,30,,,1182AN,Amstelveen,Amstelveen,Noord-Holland,VBO,4.851824,52.316311
Emmakade,31,,,1182AN,Amstelveen,Amstelveen,Noord-Holland,VBO,4.851914,52.316298
Emmakade,32,,,1182AN,Amstelveen,Amstelveen,Noord-Holland,VBO,4.852229,52.316285
Emmakade,33,,BV,1182AN,Amstelveen,Amstelveen,Noord-Holland,VBO,4.852319,52.316277
Emmakade,33,,HS,1182AN,Amstelveen,Amstelveen,Noord-Holland,VBO,4.852319,52.316277
Emmakade,34,,BV,1182AN,Amstelveen,Amstelveen,Noord-Holland,VBO,4.852415,52.316274
Emmakade,34,,HS,1182AN,Amstelveen,Amstelveen,Noord-Holland,VBO,4.852415,52.316274
Emmakade,35,,BV,1182AN,Amstelveen,Amstelveen,Noord-Holland,VBO,4.852511,52.316272
Emmakade,35,,HS,1182AN,Amstelveen,Amstelveen,Noord-Holland,VBO,4.852511,52.316272
Emmakade,36,,BV,1182AN,Amstelveen,Amstelveen,Noord-Holland,VBO,4.852607,52.316269
Emmakade,36,,HS,1182AN,Amstelveen,Amstelveen,Noord-Holland,VBO,4.852607,52.316269
Emmakade,37,,BV,1182AN,Amstelveen,Amstelveen,Noord-Holland,VBO,4.852703,52.316266
Emmakade,37,,HS,1182AN,Amstelveen,Amstelveen,Noord-Holland,VBO,4.852703,52.316266
Emmakade,38,,BV,1182AP,Amstelveen,Amstelveen,Noord-Holland,VBO,4.853097,52.316259
Emmakade,38,,HS,1182AP,Amstelveen,Amstelveen,Noord-Holland,VBO,4.853097,52.316259
Emmakade,39,,BV,1182AP,Amstelveen,Amstelveen,Noord-Holland,VBO,4.853258,52.316257
Emmakade,39,,HS,1182AP,Amstelveen,Amstelveen,Noord-Holland,VBO,4.853258,52.316257
Emmakade,40,,BV,1182AP,Amstelveen,Amstelveen,Noord-Holland,VBO,4.853385,52.316252
Emmakade,40,,HS,1182AP,Amstelveen,Amstelveen,Noord-Holland,VBO,4.853385,52.316252
Emmakade,41,,BV,1182AP,Amstelveen,Amstelveen,Noord-Holland,VBO,4.853480,52.316251
Emmakade,41,,HS,1182AP,Amstelveen,Amstelveen,Noord-Holland,VBO,4.853480,52.316251
Emmakade,42,,BV,1182AP,Amstelveen,Amstelveen,Noord-Holland,VBO,4.853576,52.316250
Emmakade,42,,HS,1182AP,Amstelveen,Amstelveen,Noord-Holland,VBO,4.853576,52.316250
Emmakade,43,,BV,1182AP,Amstelveen,Amstelveen,Noord-Holland,VBO,4.853671,52.316248
Emmakade,43,,HS,1182AP,Amstelveen,Amstelveen,Noord-Holland,VBO,4.853671,52.316248
Emmakade,47,,,1182AP,Amstelveen,Amstelveen,Noord-Holland,VBO,4.853841,52.316245
Emmakade,48,,,1182AP,Amstelveen,Amstelveen,Noord-Holland,VBO,4.853943,52.316243
Emmakade,49,,,1182AP,Amstelveen,Amstelveen,Noord-Holland,VBO,4.854038,52.316242
Emmakade,50,,,1182AR,Amstelveen,Amstelveen,Noord-Holland,VBO,4.854361,52.316208
Emmakade,51,,,1182AR,Amstelveen,Amstelveen,Noord-Holland,VBO,4.854430,52.316201
Emmakade,52,,,1182AR,Amstelveen,Amstelveen,Noord-Holland,VBO,4.854513,52.316201
Emmakade,53,,,1182AR,Amstelveen,Amstelveen,Noord-Holland,VBO,4.854701,52.316215
Emmakade,54,,,1182AR,Amstelveen,Amstelveen,Noord-Holland,VBO,4.854781,52.316218
Emmakade,55,,,1182AR,Amstelveen,Amstelveen,Noord-Holland,VBO,4.855051,52.316194
Emmakade,56,,,1182AR,Amstelveen,Amstelveen,Noord-Holland,VBO,4.855064,52.316131
Emmakade,57,,,1182AR,Amstelveen,Amstelveen,Noord-Holland,VBO,4.855051,52.316091
Emmakade,58,,,1182AR,Amstelveen,Amstelveen,Noord-Holland,VBO,4.855010,52.316028
Emmakade,59,,,1182AR,Amstelveen,Amstelveen,Noord-Holland,VBO,4.855002,52.315981
Emmakade,60,,,1182AR,Amstelveen,Amstelveen,Noord-Holland,VBO,4.854981,52.315929
Emmakade,61,,,1182AR,Amstelveen,Amstelveen,Noord-Holland,VBO,4.854958,52.315878
Koninginnelaan,1,,,1182AS,Amstelveen,Amstelveen,Noord-Holland,VBO,4.853978,52.315971
Koninginnelaan,2,,,1182AS,Amstelveen,Amstelveen,Noord-Holland,VBO,4.854205,52.315894
Koninginnelaan,3,,,1182AS,Amstelveen,Amstelveen,Noord-Holland,VBO,4.854026,52.316027
Koninginnelaan,4,,,1182AS,Amstelveen,Amstelveen,Noord-Holland,VBO,4.854250,52.315939
Koninginnelaan,5,,,1182AS,Amstelveen,Amstelveen,Noord-Holland,VBO,4.854074,52.316068
Koninginnelaan,6,,,1182AS,Amstelveen,Amstelveen,Noord-Holland,VBO,4.854283,52.315991
Koninginnelaan,7,,,1182AS,Amstelveen,Amstelveen,Noord-Holland,VBO,4.854134,52.316233
Koninginnelaan,8,,,1182AS,Amstelveen,Amstelveen,Noord-Holland,VBO,4.854321,52.316030
Julianapark,1,,,1182AT,Amstelveen,Amstelveen,Noord-Holland,VBO,4.853352,52.315749
Julianapark,3,,,1182AT,Amstelveen,Amstelveen,Noord-Holland,VBO,4.853441,52.315752
Julianapark,4,,,1182AT,Amstelveen,Amstelveen,Noord-Holland,VBO,4.853528,52.315751
Julianapark,5,,,1182AT,Amstelveen,Amstelveen,Noord-Holland,VBO,4.853614,52.315750
Julianapark,6,,,1182AT,Amstelveen,Amstelveen,Noord-Holland,VBO,4.853704,52.315749
Julianapark,7,,,1182AT,Amstelveen,Amstelveen,Noord-Holland,VBO,4.853793,52.315747
Julianapark,8,,,1182AT,Amstelveen,Amstelveen,Noord-Holland,VBO,4.853832,52.315795
Koningslaan,1,,,1182AV,Amstelveen,Amstelveen,Noord-Holland,VBO,4.852913,52.315938
Koningslaan,2,A,,1182AV,Amstelveen,Amstelveen,Noord-Holland,VBO,4.853249,52.315935
Koningslaan,2,B,,1182AV,Amstelveen,Amstelveen,Noord-Holland,VBO,4.853272,52.315911
Koningslaan,2,C,,1182AV,Amstelveen,Amstelveen,Noord-Holland,VBO,4.853293,52.315889
Koningslaan,2,D,,1182AV,Amstelveen,Amstelveen,Noord-Holland,VBO,4.853316,52.315865
Koningslaan,2,,,1182AV,Amstelveen,Amstelveen,Noord-Holland,VBO,4.853179,52.315978
Koningslaan,3,,,1182AV,Amstelveen,Amstelveen,Noord-Holland,VBO,4.852868,52.315987
Koningslaan,4,,,1182AV,Amstelveen,Amstelveen,Noord-Holland,VBO,4.853133,52.316027
Koningslaan,5,,,1182AV,Amstelveen,Amstelveen,Noord-Holland,VBO,4.852822,52.316037
Koningslaan,6,,,1182AV,Amstelveen,Amstelveen,Noord-Holland,VBO,4.853088,52.316077
Rijksweg A9,1,,,1182AW,Amstelveen,Amstelveen,Noord-Holland,VBO,4.836156,52.305953
Rijksweg A9,2,,,1182AW,Amstelveen,Amstelveen,Noord-Holland,VBO,4.837358,52.305079
Stadhouderslaan,1,,,1182AX,Amstelveen,Amstelveen,Noord-Holland,VBO,4.851879,52.316050
Stadhouderslaan,2,,,1182AX,Amstelveen,Amstelveen,Noord-Holland,VBO,4.852131,52.316002
Stadhouderslaan,3,,,1182AX,Amstelveen,Amstelveen,Noord-Holland,VBO,4.851913,52.316108
Stadhouderslaan,4,,BV,1182AX,Amstelveen,Amstelveen,Noord-Holland,VBO,4.852166,52.316058
Stadhouderslaan,4,,HS,1182AX,Amstelveen,Amstelveen,Noord-Holland,VBO,4.852166,52.316058
Nassaupark,1,,,1182AZ,Amstelveen,Amstelveen,Noord-Holland,VBO,4.851129,52.315853
Nassaupark,2,,,1182AZ,Amstelveen,Amstelveen,Noord-Holland,VBO,4.851225,52.315857
Nassaupark,3,,,1182AZ,Amstelveen,Amstelveen,Noord-Holland,VBO,4.851326,52.315862
Nassaupark,4,,,1182AZ,Amstelveen,Amstelveen,Noord-Holland,VBO,4.851400,52.315860
Nassaupark,5,,,1182AZ,Amstelveen,Amstelveen,Noord-Holland,VBO,4.851474,52.315863
Nassaupark,6,,,1182AZ,Amstelveen,Amstelveen,Noord-Holland,VBO,4.851547,52.315867
Nassaupark,7,,,1182AZ,Amstelveen,Amstelveen,Noord-Holland,VBO,4.851653,52.315880
Nassaupark,8,,,1182AZ,Amstelveen,Amstelveen,Noord-Holland,VBO,4.851748,52.315885
Nassaulaan,2,,,1182BA,Amstelveen,Amstelveen,Noord-Holland,VBO,4.851039,52.316055
Nassaulaan,4,,,1182BA,Amstelveen,Amstelveen,Noord-Holland,VBO,4.851017,52.316108
Nassaulaan,6,,,1182BA,Amstelveen,Amstelveen,Noord-Holland,VBO,4.850994,52.316162
Nassaulaan,8,,,1182BA,Amstelveen,Amstelveen,Noord-Holland,VBO,4.850971,52.316215
Mauritslaan,1,A,,1182BB,Amstelveen,Amstelveen,Noord-Holland,VBO,4.848147,52.316544
Mauritslaan,1,B,,1182BB,Amstelveen,Amstelveen,Noord-Holland,VBO,4.848169,52.316487
Mauritslaan,1,,,1182BB,Amstelveen,Amstelveen,Noord-Holland,VBO,4.849910,52.315983
Mauritslaan,3,,,1182BB,Amstelveen,Amstelveen,Noord-Holland,VBO,4.849993,52.315961
Mauritslaan,5,,,1182BB,Amstelveen,Amstelveen,Noord-Holland,VBO,4.850075,52.315940
Mauritslaan,7,A,,1182BB,Amstelveen,Amstelveen,Noord-Holland,VBO,4.850300,52.315873
Mauritslaan,7,,,1182BB,Amstelveen,Amstelveen,Noord-Holland,VBO,4.850157,52.315918
Mauritslaan,2,,BV,1182BC,Amstelveen,Amstelveen,Noord-Holland,VBO,4.848633,52.316442
Mauritslaan,2,,HS,1182BC,Amstelveen,Amstelveen,Noord-Holland,VBO,4.848633,52.316442
Mauritslaan,4,,,1182BC,Amstelveen,Amstelveen,Noord-Holland,VBO,4.848695,52.316396
Mauritslaan,6,,BV,1182BC,Amstelveen,Amstelveen,Noord-Holland,VBO,4.848980,52.316312
Mauritslaan,6,,HS,1182BC,Amstelveen,Amstelveen,Noord-Holland,VBO,4.848980,52.316312
Mauritslaan,8,,,1182BC,Amstelveen,Amstelveen,Noord-Holland,VBO,4.849077,52.316314
Mauritslaan,10,,BV,1182BC,Amstelveen,Amstelveen,Noord-Holland,VBO,4.849165,52.316317
Mauritslaan,10,,HS,1182BC,Amstelveen,Amstelveen,Noord-Holland,VBO,4.849165,52.316317
Mauritslaan,12,,BV,1182BC,Amstelveen,Amstelveen,Noord-Holland,VBO,4.849263,52.316319
Mauritslaan,12,,HS,1182BC,Amstelveen,Amstelveen,Noord-Holland,VBO,4.849263,52.316319
Mauritslaan,14,,BV,1182BC,Amstelveen,Amstelveen,Noord-Holland,VBO,4.849473,52.316310
Mauritslaan,14,,HS,1182BC,Amstelveen,Amstelveen,Noord-Holland,VBO,4.849473,52.316310
Mauritslaan,16,,,1182BC,Amstelveen,Amstelveen,Noord-Holland,VBO,4.849566,52.316295
Mauritslaan,18,A,,1182BD,Amstelveen,Amstelveen,Noord-Holland,VBO,4.849672,52.316304
Mauritslaan,18,,,1182BD,Amstelveen,Amstelveen,Noord-Holland,VBO,4.849659,52.316279
Mauritslaan,20,,,1182BD,Amstelveen,Amstelveen,Noord-Holland,VBO,4.849753,52.316263
Mauritslaan,22,,BV,1182BD,Amstelveen,Amstelveen,Noord-Holland,VBO,4.850046,52.316187
Mauritslaan,22,,HS,1182BD,Amstelveen,Amstelveen,Noord-Holland,VBO,4.850046,52.316187
Mauritslaan,24,,BV,1182BD,Amstelveen,Amstelveen,Noord-Holland,VBO,4.850143,52.316161
Mauritslaan,24,,HS,1182BD,Amstelveen,Amstelveen,Noord-Holland,VBO,4.850143,52.316161
Mauritslaan,26,,BV,1182BD,Amstelveen,Amstelveen,Noord-Holland,VBO,4.850377,52.316130
Mauritslaan,26,,HS,1182BD,Amstelveen,Amstelveen,Noord-Holland,VBO,4.850377,52.316130
Mauritslaan,28,,BV,1182BD,Amstelveen,Amstelveen,Noord-Holland,VBO,4.850474,52.316132
Mauritslaan,28,,HS,1182BD,Amstelveen,Amstelveen,Noord-Holland,VBO,4.850474,52.316132
Mauritslaan,30,,BV,1182BD,Amstelveen,Amstelveen,Noord-Holland,VBO,4.850570,52.316134
Mauritslaan,30,,HS,1182BD,Amstelveen,Amstelveen,Noord-Holland,VBO,4.850570,52.316134
Mauritslaan,32,,BV,1182BD,Amstelveen,Amstelveen,Noord-Holland,VBO,4.850667,52.316136
Mauritslaan,32,,HS,1182BD,Amstelveen,Amstelveen,Noord-Holland,VBO,4.850667,52.316136
Prins Bernhardlaan,1,,,1182BE,Amstelveen,Amstelveen,Noord-Holland,VBO,4.847473,52.315963
Prins Bernhardlaan,2,A,,1182BE,Amstelveen,Amstelveen,Noord-Holland,VBO,4.846329,52.316046
Prins Bernhardlaan,2,,,1182BE,Amstelveen,Amstelveen,Noord-Holland,VBO,4.846618,52.315955
Prins Bernhardlaan,3,,,1182BE,Amstelveen,Amstelveen,Noord-Holland,VBO,4.847473,52.315963
Prins Bernhardlaan,4,,,1182BE,Amstelveen,Amstelveen,Noord-Holland,VBO,4.846572,52.316160
Prins Bernhardlaan,5,,,1182BE,Amstelveen,Amstelveen,Noord-Holland,VBO,4.847473,52.315963
Prins Bernhardlaan,6,,,1182BE,Amstelveen,Amstelveen,Noord-Holland,VBO,4.846574,52.316322
Prins Bernhardlaan,7,,,1182BE,Amstelveen,Amstelveen,Noord-Holland,VBO,4.847473,52.315963
Prins Bernhardlaan,8,,,1182BE,Amstelveen,Amstelveen,Noord-Holland,VBO,4.846577,52.316521
Prins Bernhardlaan,9,,,1182BE,Amstelveen,Amstelveen,Noord-Holland,VBO,4.847473,52.315963
Prins Bernhardlaan,11,,,1182BE,Amstelveen,Amstelveen,Noord-Holland,VBO,4.847473,52.315963
Prins Bernhardlaan,15,,,1182BE,Amstelveen,Amstelveen,Noord-Holland,VBO,4.847473,52.315963
Prins Bernhardlaan,17,,,1182BE,Amstelveen,Amstelveen,Noord-Holland,VBO,4.847473,52.315963
Prins Bernhardlaan,19,,,1182BE,Amstelveen,Amstelveen,Noord-Holland,VBO,4.847473,52.315963
Prins Bernhardlaan,21,,,1182BE,Amstelveen,Amstelveen,Noord-Holland,VBO,4.847473,52.315963
Prins Bernhardlaan,23,,,1182BE,Amstelveen,Amstelveen,Noord-Holland,VBO,4.847463,52.316181
Prins Bernhardlaan,25,,,1182BE,Amstelveen,Amstelveen,Noord-Holland,VBO,4.847463,52.316181
Prins Bernhardlaan,27,,,1182BE,Amstelveen,Amstelveen,Noord-Holland,VBO,4.847463,52.316181
Prins Bernhardlaan,29,,,1182BE,Amstelveen,Amstelveen,Noord-Holland,VBO,4.847463,52.316181
Prins Bernhardlaan,33,,,1182BE,Amstelveen,Amstelveen,Noord-Holland,VBO,4.847463,52.316181
Prins Bernhardlaan,35,,,1182BE,Amstelveen,Amstelveen,Noord-Holland,VBO,4.847463,52.316181
Prins Bernhardlaan,37,,,1182BE,Amstelveen,Amstelveen,Noord-Holland,VBO,4.847450,52.316499
Prins Bernhardlaan,39,,,1182BE,Amstelveen,Amstelveen,Noord-Holland,VBO,4.847499,52.316634
Prinses Margrietlaan,1,,,1182BG,Amstelveen,Amstelveen,Noord-Holland,VBO,4.845325,52.315017
Prinses Margrietlaan,2,,,1182BG,Amstelveen,Amstelveen,Noord-Holland,VBO,4.846053,52.314692
Prinses Margrietlaan,3,,,1182BG,Amstelveen,Amstelveen,Noord-Holland,VBO,4.845416,52.315329
Prinses Margrietlaan,4,,,1182BG,Amstelveen,Amstelveen,Noord-Holland,VBO,4.845955,52.315046
Prinses Margrietlaan,5,,,1182BG,Amstelveen,Amstelveen,Noord-Holland,VBO,4.845553,52.315898
Prinses Margrietlaan,7,,,1182BG,Amstelveen,Amstelveen,Noord-Holland,VBO,4.845524,52.316283
Prinses Margrietlaan,16,,,1182BG,Amstelveen,Amstelveen,Noord-Holland,VBO,4.845944,52.316181
Prinses Margrietlaan,18,,,1182BG,Amstelveen,Amstelveen,Noord-Holland,VBO,4.845942,52.316355
Prinses Beatrixlaan,1,,,1182BH,Amstelveen,Amstelveen,Noord-Holland,VBO,4.845998,52.315385
Prinses Beatrixlaan,4,,,1182BH,Amstelveen,Amstelveen,Noord-Holland,VBO,4.846102,52.315872
Prinses Beatrixlaan,5,,,1182BH,Amstelveen,Amstelveen,Noord-Holland,VBO,4.844065,52.315379
Prinses Beatrixlaan,7,A,,1182BH,Amstelveen,Amstelveen,Noord-Holland,VBO,4.842980,52.315402
Prinses Beatrixlaan,7,,,1182BH,Amstelveen,Amstelveen,Noord-Holland,VBO,4.843574,52.315374
Prinses Beatrixlaan,8,,,1182BH,Amstelveen,Amstelveen,Noord-Holland,VBO,4.843595,52.315723
Prinses Beatrixlaan,9,,,1182BH,Amstelveen,Amstelveen,Noord-Holland,VBO,4.842623,52.315401
Prinses Beatrixlaan,10,,,1182BH,Amstelveen,Amstelveen,Noord-Holland,VBO,4.843084,52.315711
Prinses Beatrixlaan,12,,,1182BH,Amstelveen,Amstelveen,Noord-Holland,VBO,4.842562,52.315710
Prinses Irenelaan,1,,,1182BJ,Amstelveen,Amstelveen,Noord-Holland,VBO,4.844327,52.315769
Prinses Irenelaan,2,,,1182BJ,Amstelveen,Amstelveen,Noord-Holland,VBO,4.844855,52.316082
Prinses Irenelaan,3,,,1182BJ,Amstelveen,Amstelveen,Noord-Holland,VBO,4.844251,52.315994
Prinses Irenelaan,4,A,,1182BJ,Amstelveen,Amstelveen,Noord-Holland,VBO,4.841668,52.315951
Prinses Irenelaan,4,,,1182BJ,Amstelveen,Amstelveen,Noord-Holland,VBO,4.842072,52.315902
Prinses Irenelaan,5,,,1182BJ,Amstelveen,Amstelveen,Noord-Holland,VBO,4.843649,52.315987
Prinses Irenelaan,6,,,1182BJ,Amstelveen,Amstelveen,Noord-Holland,VBO,4.841976,52.315578
Prinses Irenelaan,7,,,1182BJ,Amstelveen,Amstelveen,Noord-Holland,VBO,4.843173,52.315977
Prinses Irenelaan,8,,,1182BJ,Amstelveen,Amstelveen,Noord-Holland,VBO,4.841998,52.315022
Prinses Irenelaan,10,,,1182BJ,Amstelveen,Amstelveen,Noord-Holland,VBO,4.842042,52.314707
Prinses Marijkelaan,1,,,1182BK,Amstelveen,Amstelveen,Noord-Holland,VBO,4.843564,52.314654
Prinses Marijkelaan,2,A,,1182BK,Amstelveen,Amstelveen,Noord-Holland,VBO,4.844923,52.314877
Prinses Marijkelaan,2,,,1182BK,Amstelveen,Amstelveen,Noord-Holland,VBO,4.844436,52.314870
Prinses Marijkelaan,3,,,1182BK,Amstelveen,Amstelveen,Noord-Holland,VBO,4.842974,52.314667
Prinses Marijkelaan,4,,,1182BK,Amstelveen,Amstelveen,Noord-Holland,VBO,4.843981,52.314905
Prinses Marijkelaan,6,,,1182BK,Amstelveen,Amstelveen,Noord-Holland,VBO,4.843367,52.314960
Prinses Marijkelaan,10,,,1182BK,Amstelveen,Amstelveen,Noord-Holland,VBO,4.842647,52.315012
Spoorlaan,1,,,1182BL,Amstelveen,Amstelveen,Noord-Holland,VBO,4.850113,52.308601
Spoorlaan,2,,,1182BL,Amstelveen,Amstelveen,Noord-Holland,VBO,4.850112,52.308708
Spoorlaan,3,,,1182BL,Amstelveen,Amstelveen,Noord-Holland,VBO,4.850112,52.308762
Spoorlaan,4,,,1182BL,Amstelveen,Amstelveen,Noord-Holland,VBO,4.850113,52.308817
Spoorlaan,5,,,1182BL,Amstelveen,Amstelveen,Noord-Holland,VBO,4.850113,52.308871
Spoorlaan,6,,,1182BL,Amstelveen,Amstelveen,Noord-Holland,VBO,4.850113,52.308926
Spoorlaan,7,,,1182BL,Amstelveen,Amstelveen,Noord-Holland,VBO,4.850114,52.308980
Spoorlaan,8,,,1182BL,Amstelveen,Amstelveen,Noord-Holland,VBO,4.850114,52.309034
Spoorlaan,9,,,1182BL,Amstelveen,Amstelveen,Noord-Holland,VBO,4.850114,52.309089
Spoorlaan,10,,,1182BL,Amstelveen,Amstelveen,Noord-Holland,VBO,4.850115,52.309136
Spoorlaan,11,,,1182BL,Amstelveen,Amstelveen,Noord-Holland,VBO,4.850113,52.309230
Spoorlaan,12,,,1182BL,Amstelveen,Amstelveen,Noord-Holland,VBO,4.850114,52.309283
Spoorlaan,13,,,1182BL,Amstelveen,Amstelveen,Noord-Holland,VBO,4.850114,52.309337
Spoorlaan,14,,,1182BL,Amstelveen,Amstelveen,Noord-Holland,VBO,4.850115,52.309390
Spoorlaan,15,,,1182BL,Amstelveen,Amstelveen,Noord-Holland,VBO,4.850115,52.309444
Spoorlaan,16,,,1182BL,Amstelveen,Amstelveen,Noord-Holland,VBO,4.850116,52.309497
Spoorlaan,17,,,1182BL,Amstelveen,Amstelveen,Noord-Holland,VBO,4.850116,52.309550
Spoorlaan,18,,,1182BL,Amstelveen,Amstelveen,Noord-Holland,VBO,4.850117,52.309610
Spoorlaan,19,,,1182BM,Amstelveen,Amstelveen,Noord-Holland,VBO,4.850182,52.310058
Spoorlaan,20,,,1182BM,Amstelveen,Amstelveen,Noord-Holland,VBO,4.850187,52.310108
Spoorlaan,21,,,1182BM,Amstelveen,Amstelveen,Noord-Holland,VBO,4.850192,52.310157
Spoorlaan,22,,,1182BM,Amstelveen,Amstelveen,Noord-Holland,VBO,4.850197,52.310207
Spoorlaan,23,,,1182BM,Amstelveen,Amstelveen,Noord-Holland,VBO,4.850202,52.310256
Spoorlaan,24,,,1182BM,Amstelveen,Amstelveen,Noord-Holland,VBO,4.850122,52.310486
Spoorlaan,25,,,1182BM,Amstelveen,Amstelveen,Noord-Holland,VBO,4.850128,52.310540
Spoorlaan,26,,,1182BM,Amstelveen,Amstelveen,Noord-Holland,VBO,4.850134,52.310594
Nieuwe Karselaan,1,,,1182BN,Amstelveen,Amstelveen,Noord-Holland,VBO,4.847560,52.311069
Nieuwe Karselaan,3,,,1182BN,Amstelveen,Amstelveen,Noord-Holland,VBO,4.847560,52.311069
Nieuwe Karselaan,5,,,1182BN,Amstelveen,Amstelveen,Noord-Holland,VBO,4.847560,52.311069
Nieuwe Karselaan,9,A,,1182BN,Amstelveen,Amstelveen,Noord-Holland,VBO,4.847734,52.311011
Nieuwe Karselaan,9,,,1182BN,Amstelveen,Amstelveen,Noord-Holland,VBO,4.847732,52.311036
Nieuwe Karselaan,11,,,1182BN,Amstelveen,Amstelveen,Noord-Holland,VBO,4.847827,52.311033
Nieuwe Karselaan,13,,,1182BN,Amstelveen,Amstelveen,Noord-Holland,VBO,4.847990,52.311031
Nieuwe Karselaan,15,,,1182BN,Amstelveen,Amstelveen,Noord-Holland,VBO,4.848065,52.311029
Nieuwe Karselaan,17,,,1182BN,Amstelveen,Amstelveen,Noord-Holland,VBO,4.848141,52.311026
Nieuwe Karselaan,19,,,1182BN,Amstelveen,Amstelveen,Noord-Holland,VBO,4.848216,52.311024
Nieuwe Karselaan,21,,,1182BN,Amstelveen,Amstelveen,Noord-Holland,VBO,4.848291,52.311021
Nieuwe Karselaan,23,,,1182BN,Amstelveen,Amstelveen,Noord-Holland,VBO,4.848366,52.311019
Nieuwe Karselaan,25,,,1182BN,Amstelveen,Amstelveen,Noord-Holland,VBO,4.848442,52.311016
Nieuwe Karselaan,27,,,1182BN,Amstelveen,Amstelveen,Noord-Holland,VBO,4.848517,52.311014
Nieuwe Karselaan,29,,,1182BN,Amstelveen,Amstelveen,Noord-Holland,VBO,4.848635,52.311010
Nieuwe Karselaan,31,,,1182BN,Amstelveen,Amstelveen,Noord-Holland,VBO,4.848710,52.311007
Nieuwe Karselaan,33,,,1182BN,Amstelveen,Amstelveen,Noord-Holland,VBO,4.848785,52.311005
Nieuwe Karselaan,35,,,1182BP,Amstelveen,Amstelveen,Noord-Holland,VBO,4.848861,52.311002
Nieuwe Karselaan,37,,,1182BP,Amstelveen,Amstelveen,Noord-Holland,VBO,4.848936,52.311000
Nieuwe Karselaan,39,,,1182BP,Amstelveen,Amstelveen,Noord-Holland,VBO,4.849011,52.310997
Nieuwe Karselaan,41,,,1182BP,Amstelveen,Amstelveen,Noord-Holland,VBO,4.849086,52.310995
Nieuwe Karselaan,43,,,1182BP,Amstelveen,Amstelveen,Noord-Holland,VBO,4.849162,52.310992
Nieuwe Karselaan,45,,,1182BP,Amstelveen,Amstelveen,Noord-Holland,VBO,4.849281,52.310988
Nieuwe Karselaan,47,,,1182BP,Amstelveen,Amstelveen,Noord-Holland,VBO,4.849356,52.310986
Nieuwe Karselaan,49,,,1182BP,Amstelveen,Amstelveen,Noord-Holland,VBO,4.849431,52.310983
Nieuwe Karselaan,51,,,1182BP,Amstelveen,Amstelveen,Noord-Holland,VBO,4.849507,52.310981
Nieuwe Karselaan,53,,,1182BP,Amstelveen,Amstelveen,Noord-Holland,VBO,4.849582,52.310978
Nieuwe Karselaan,55,,,1182BP,Amstelveen,Amstelveen,Noord-Holland,VBO,4.849657,52.310976
Nieuwe Karselaan,57,,,1182BP,Amstelveen,Amstelveen,Noord-Holland,VBO,4.849733,52.310973
Nieuwe Karselaan,59,,,1182BP,Amstelveen,Amstelveen,Noord-Holland,VBO,4.849808,52.310971
Nieuwe Karselaan,61,A,,1182BP,Amstelveen,Amstelveen,Noord-Holland,VBO,4.849956,52.310773
Nieuwe Karselaan,61,,,1182BP,Amstelveen,Amstelveen,Noord-Holland,VBO,4.849966,52.310985
Nieuwe Karselaan,63,,,1182BP,Amstelveen,Amstelveen,Noord-Holland,VBO,4.850035,52.310983
Nieuwe Karselaan,65,,,1182BP,Amstelveen,Amstelveen,Noord-Holland,VBO,4.850035,52.310964
Nieuwe Karselaan,67,A,,1182BP,Amstelveen,Amstelveen,Noord-Holland,VBO,4.850118,52.310767
Nieuwe Karselaan,67,,,1182BP,Amstelveen,Amstelveen,Noord-Holland,VBO,4.850108,52.310980
Nieuwe Karselaan,69,,,1182BP,Amstelveen,Amstelveen,Noord-Holland,VBO,4.850177,52.310978
Nieuwe Karselaan,4,,,1182BR,Amstelveen,Amstelveen,Noord-Holland,VBO,4.847226,52.311234
Nieuwe Karselaan,6,,,1182BR,Amstelveen,Amstelveen,Noord-Holland,VBO,4.847342,52.311230
Nieuwe Karselaan,8,,,1182BR,Amstelveen,Amstelveen,Noord-Holland,VBO,4.847417,52.311227
Nieuwe Karselaan,10,,,1182BR,Amstelveen,Amstelveen,Noord-Holland,VBO,4.847482,52.311225
Nieuwe Karselaan,12,,,1182BR,Amstelveen,Amstelveen,Noord-Holland,VBO,4.847557,52.311222
Nieuwe Karselaan,14,,,1182BR,Amstelveen,Amstelveen,Noord-Holland,VBO,4.847632,52.311219
Nieuwe Karselaan,16,,,1182BR,Amstelveen,Amstelveen,Noord-Holland,VBO,4.847707,52.311216
Nieuwe Karselaan,18,,,1182BR,Amstelveen,Amstelveen,Noord-Holland,VBO,4.847826,52.311211
Nieuwe Karselaan,20,,,1182BR,Amstelveen,Amstelveen,Noord-Holland,VBO,4.847901,52.311208
Nieuwe Karselaan,22,,,1182BR,Amstelveen,Amstelveen,Noord-Holland,VBO,4.847976,52.311205
Nieuwe Karselaan,24,,,1182BR,Amstelveen,Amstelveen,Noord-Holland,VBO,4.848052,52.311202
Nieuwe Karselaan,26,A,,1182BR,Amstelveen,Amstelveen,Noord-Holland,VBO,4.848224,52.311376
Nieuwe Karselaan,26,,,1182BR,Amstelveen,Amstelveen,Noord-Holland,VBO,4.848127,52.311199
Nieuwe Karselaan,30,,,1182BR,Amstelveen,Amstelveen,Noord-Holland,VBO,4.848466,52.311211
Nieuwe Karselaan,34,,,1182BR,Amstelveen,Amstelveen,Noord-Holland,VBO,4.848648,52.311420
Nieuwe Karselaan,36,,,1182BR,Amstelveen,Amstelveen,Noord-Holland,VBO,4.848749,52.311175
Nieuwe Karselaan,38,,,1182BR,Amstelveen,Amstelveen,Noord-Holland,VBO,4.848879,52.311173
Nieuwe Karselaan,42,,,1182BR,Amstelveen,Amstelveen,Noord-Holland,VBO,4.848892,52.311311
Nieuwe Karselaan,44,,,1182BR,Amstelveen,Amstelveen,Noord-Holland,VBO,4.849046,52.311164
Nieuwe Karselaan,46,,,1182BR,Amstelveen,Amstelveen,Noord-Holland,VBO,4.849046,52.311164
Nieuwe Karselaan,48,,,1182BR,Amstelveen,Amstelveen,Noord-Holland,VBO,4.849103,52.311162
Nieuwe Karselaan,50,,,1182BS,Amstelveen,Amstelveen,Noord-Holland,VBO,4.849165,52.311160
Nieuwe Karselaan,52,,,1182BS,Amstelveen,Amstelveen,Noord-Holland,VBO,4.849223,52.311158
Nieuwe Karselaan,54,,,1182BS,Amstelveen,Amstelveen,Noord-Holland,VBO,4.849284,52.311156
Nieuwe Karselaan,56,A,,1182BS,Amstelveen,Amstelveen,Noord-Holland,VBO,4.849386,52.311174
Nieuwe Karselaan,56,,,1182BS,Amstelveen,Amstelveen,Noord-Holland,VBO,4.849384,52.311153
Nieuwe Karselaan,58,,,1182BS,Amstelveen,Amstelveen,Noord-Holland,VBO,4.849453,52.311150
Nieuwe Karselaan,60,,,1182BS,Amstelveen,Amstelveen,Noord-Holland,VBO,4.849515,52.311148
Nieuwe Karselaan,62,,,1182BS,Amstelveen,Amstelveen,Noord-Holland,VBO,4.849577,52.311146
Nieuwe Karselaan,64,,,1182BS,Amstelveen,Amstelveen,Noord-Holland,VBO,4.849638,52.311144
Nieuwe Karselaan,66,,,1182BS,Amstelveen,Amstelveen,Noord-Holland,VBO,4.849699,52.311143
Nieuwe Karselaan,68,,,1182BS,Amstelveen,Amstelveen,Noord-Holland,VBO,4.849758,52.311141
Nieuwe Karselaan,70,,,1182BS,Amstelveen,Amstelveen,Noord-Holland,VBO,4.849822,52.311139
Nieuwe Karselaan,72,,,1182BS,Amstelveen,Amstelveen,Noord-Holland,VBO,4.849885,52.311136
Nieuwe Karselaan,74,,,1182BS,Amstelveen,Amstelveen,Noord-Holland,VBO,4.849945,52.311135
Nieuwe Karselaan,76,,,1182BS,Amstelveen,Amstelveen,Noord-Holland,VBO,4.850003,52.311133
Nieuwe Karselaan,78,,,1182BS,Amstelveen,Amstelveen,Noord-Holland,VBO,4.850070,52.311131
Nieuwe Karselaan,80,,,1182BS,Amstelveen,Amstelveen,Noord-Holland,VBO,4.850128,52.311129
Nieuwe Karselaan,82,,,1182BS,Amstelveen,Amstelveen,Noord-Holland,VBO,4.850219,52.311169
Patrimoniumlaan,1,,,1182BT,Amstelveen,Amstelveen,Noord-Holland,VBO,4.847809,52.310157
Patrimoniumlaan,3,,,1182BT,Amstelveen,Amstelveen,Noord-Holland,VBO,4.847815,52.310207
Patrimoniumlaan,5,,,1182BT,Amstelveen,Amstelveen,Noord-Holland,VBO,4.847820,52.310256
Patrimoniumlaan,7,,,1182BT,Amstelveen,Amstelveen,Noord-Holland,VBO,4.847826,52.310306
Patrimoniumlaan,9,,,1182BT,Amstelveen,Amstelveen,Noord-Holland,VBO,4.847831,52.310355
Patrimoniumlaan,11,,,1182BT,Amstelveen,Amstelveen,Noord-Holland,VBO,4.847863,52.310410
Patrimoniumlaan,13,,,1182BT,Amstelveen,Amstelveen,Noord-Holland,VBO,4.848187,52.310398
Patrimoniumlaan,15,,,1182BT,Amstelveen,Amstelveen,Noord-Holland,VBO,4.848227,52.310333
Patrimoniumlaan,17,,,1182BT,Amstelveen,Amstelveen,Noord-Holland,VBO,4.848222,52.310284
Patrimoniumlaan,19,,,1182BT,Amstelveen,Amstelveen,Noord-Holland,VBO,4.848217,52.310234
Patrimoniumlaan,21,,,1182BT,Amstelveen,Amstelveen,Noord-Holland,VBO,4.848212,52.310185
Patrimoniumlaan,23,,,1182BT,Amstelveen,Amstelveen,Noord-Holland,VBO,4.848207,52.310135
Patrimoniumlaan,25,,,1182BT,Amstelveen,Amstelveen,Noord-Holland,VBO,4.848469,52.310125
Patrimoniumlaan,27,,,1182BT,Amstelveen,Amstelveen,Noord-Holland,VBO,4.848474,52.310175
Patrimoniumlaan,29,,,1182BT,Amstelveen,Amstelveen,Noord-Holland,VBO,4.848479,52.310224
Patrimoniumlaan,31,,,1182BT,Amstelveen,Amstelveen,Noord-Holland,VBO,4.848484,52.310274
Patrimoniumlaan,33,,,1182BT,Amstelveen,Amstelveen,Noord-Holland,VBO,4.848489,52.310323
Patrimoniumlaan,35,,,1182BT,Amstelveen,Amstelveen,Noord-Holland,VBO,4.848521,52.310385
Patrimoniumlaan,37,,,1182BT,Amstelveen,Amstelveen,Noord-Holland,VBO,4.848848,52.310372
Patrimoniumlaan,39,,,1182BT,Amstelveen,Amstelveen,Noord-Holland,VBO,4.848886,52.310307
Patrimoniumlaan,41,,,1182BT,Amstelveen,Amstelveen,Noord-Holland,VBO,4.848880,52.310258
Patrimoniumlaan,43,,,1182BT,Amstelveen,Amstelveen,Noord-Holland,VBO,4.848875,52.310209
Patrimoniumlaan,45,,,1182BV,Amstelveen,Amstelveen,Noord-Holland,VBO,4.848870,52.310159
Patrimoniumlaan,47,,,1182BV,Amstelveen,Amstelveen,Noord-Holland,VBO,4.848865,52.310110
Patrimoniumlaan,49,,,1182BV,Amstelveen,Amstelveen,Noord-Holland,VBO,4.849127,52.310099
Patrimoniumlaan,51,,,1182BV,Amstelveen,Amstelveen,Noord-Holland,VBO,4.849132,52.310149
Patrimoniumlaan,53,,,1182BV,Amstelveen,Amstelveen,Noord-Holland,VBO,4.849137,52.310198
Patrimoniumlaan,55,,,1182BV,Amstelveen,Amstelveen,Noord-Holland,VBO,4.849143,52.310248
Patrimoniumlaan,57,,,1182BV,Amstelveen,Amstelveen,Noord-Holland,VBO,4.849148,52.310297
Patrimoniumlaan,59,,,1182BV,Amstelveen,Amstelveen,Noord-Holland,VBO,4.849178,52.310360
Patrimoniumlaan,61,,,1182BV,Amstelveen,Amstelveen,Noord-Holland,VBO,4.849507,52.310347
Patrimoniumlaan,63,,,1182BV,Amstelveen,Amstelveen,Noord-Holland,VBO,4.849544,52.310282
Patrimoniumlaan,65,,,1182BV,Amstelveen,Amstelveen,Noord-Holland,VBO,4.849539,52.310232
Patrimoniumlaan,67,,,1182BV,Amstelveen,Amstelveen,Noord-Holland,VBO,4.849534,52.310183
Patrimoniumlaan,69,,,1182BV,Amstelveen,Amstelveen,Noord-Holland,VBO,4.849528,52.310133
Patrimoniumlaan,71,,,1182BV,Amstelveen,Amstelveen,Noord-Holland,VBO,4.849523,52.310084
Patrimoniumlaan,73,,,1182BV,Amstelveen,Amstelveen,Noord-Holland,VBO,4.849785,52.310074
Patrimoniumlaan,75,,,1182BV,Amstelveen,Amstelveen,Noord-Holland,VBO,4.849790,52.310123
Patrimoniumlaan,77,,,1182BV,Amstelveen,Amstelveen,Noord-Holland,VBO,4.849796,52.310173
Patrimoniumlaan,79,,,1182BV,Amstelveen,Amstelveen,Noord-Holland,VBO,4.849801,52.310222
Patrimoniumlaan,81,,,1182BV,Amstelveen,Amstelveen,Noord-Holland,VBO,4.849806,52.310272
Patrimoniumlaan,83,,,1182BV,Amstelveen,Amstelveen,Noord-Holland,VBO,4.849840,52.310334
Patrimoniumlaan,85,,,1182BV,Amstelveen,Amstelveen,Noord-Holland,VBO,4.850160,52.310321
Patrimoniumlaan,2,A,,1182BW,Amstelveen,Amstelveen,Noord-Holland,VBO,4.847345,52.310254
Patrimoniumlaan,2,,,1182BW,Amstelveen,Amstelveen,Noord-Holland,VBO,4.847317,52.310255
Patrimoniumlaan,4,A,,1182BW,Amstelveen,Amstelveen,Noord-Holland,VBO,4.847277,52.310516
Patrimoniumlaan,4,,,1182BW,Amstelveen,Amstelveen,Noord-Holland,VBO,4.847482,52.310418
Patrimoniumlaan,6,,,1182BW,Amstelveen,Amstelveen,Noord-Holland,VBO,4.847516,52.310468
Patrimoniumlaan,8,A,,1182BW,Amstelveen,Amstelveen,Noord-Holland,VBO,4.847463,52.310592
Patrimoniumlaan,8,B,,1182BW,Amstelveen,Amstelveen,Noord-Holland,VBO,4.847466,52.310613
Patrimoniumlaan,8,C,,1182BW,Amstelveen,Amstelveen,Noord-Holland,VBO,4.847469,52.310633
Patrimoniumlaan,8,D,,1182BW,Amstelveen,Amstelveen,Noord-Holland,VBO,4.847471,52.310655
Patrimoniumlaan,8,E,,1182BW,Amstelveen,Amstelveen,Noord-Holland,VBO,4.847486,52.310708
Patrimoniumlaan,8,F,,1182BW,Amstelveen,Amstelveen,Noord-Holland,VBO,4.847567,52.310711
Patrimoniumlaan,8,G,,1182BW,Amstelveen,Amstelveen,Noord-Holland,VBO,4.847611,52.310710
Patrimoniumlaan,8,H,,1182BW,Amstelveen,Amstelveen,Noord-Holland,VBO,4.847654,52.310709
Patrimoniumlaan,8,,,1182BW,Amstelveen,Amstelveen,Noord-Holland,VBO,4.847551,52.310518
Patrimoniumlaan,10,,,1182BW,Amstelveen,Amstelveen,Noord-Holland,VBO,4.847692,52.310581
Patrimoniumlaan,12,,,1182BW,Amstelveen,Amstelveen,Noord-Holland,VBO,4.847778,52.310578
Patrimoniumlaan,14,,,1182BW,Amstelveen,Amstelveen,Noord-Holland,VBO,4.847864,52.310574
Patrimoniumlaan,16,,,1182BW,Amstelveen,Amstelveen,Noord-Holland,VBO,4.847952,52.310571
Patrimoniumlaan,18,,,1182BW,Amstelveen,Amstelveen,Noord-Holland,VBO,4.848037,52.310568
Patrimoniumlaan,20,,,1182BW,Amstelveen,Amstelveen,Noord-Holland,VBO,4.848123,52.310564
Patrimoniumlaan,22,,,1182BW,Amstelveen,Amstelveen,Noord-Holland,VBO,4.848216,52.310561
Patrimoniumlaan,24,A,,1182BW,Amstelveen,Amstelveen,Noord-Holland,VBO,4.848353,52.310683
Patrimoniumlaan,24,,,1182BW,Amstelveen,Amstelveen,Noord-Holland,VBO,4.848298,52.310561
Patrimoniumlaan,26,A,,1182BW,Amstelveen,Amstelveen,Noord-Holland,VBO,4.848413,52.310680
Patrimoniumlaan,26,,,1182BW,Amstelveen,Amstelveen,Noord-Holland,VBO,4.848435,52.310552
Patrimoniumlaan,28,,,1182BW,Amstelveen,Amstelveen,Noord-Holland,VBO,4.848514,52.310549
Patrimoniumlaan,30,,,1182BX,Amstelveen,Amstelveen,Noord-Holland,VBO,4.848600,52.310546
Patrimoniumlaan,32,,,1182BX,Amstelveen,Amstelveen,Noord-Holland,VBO,4.848686,52.310542
Patrimoniumlaan,34,,,1182BX,Amstelveen,Amstelveen,Noord-Holland,VBO,4.848771,52.310539
Patrimoniumlaan,36,,,1182BX,Amstelveen,Amstelveen,Noord-Holland,VBO,4.848857,52.310536
Patrimoniumlaan,38,,,1182BX,Amstelveen,Amstelveen,Noord-Holland,VBO,4.848943,52.310532
Patrimoniumlaan,40,,,1182BX,Amstelveen,Amstelveen,Noord-Holland,VBO,4.849029,52.310529
Patrimoniumlaan,42,A,,1182BX,Amstelveen,Amstelveen,Noord-Holland,VBO,4.849173,52.310654
Patrimoniumlaan,42,,,1182BX,Amstelveen,Amstelveen,Noord-Holland,VBO,4.849114,52.310525
Patrimoniumlaan,44,A,,1182BX,Amstelveen,Amstelveen,Noord-Holland,VBO,4.849232,52.310652
Patrimoniumlaan,44,,,1182BX,Amstelveen,Amstelveen,Noord-Holland,VBO,4.849255,52.310520
Patrimoniumlaan,46,,,1182BX,Amstelveen,Amstelveen,Noord-Holland,VBO,4.849333,52.310517
Patrimoniumlaan,48,,,1182BX,Amstelveen,Amstelveen,Noord-Holland,VBO,4.849418,52.310514
Patrimoniumlaan,50,,,1182BX,Amstelveen,Amstelveen,Noord-Holland,VBO,4.849504,52.310510
Patrimoniumlaan,52,,,1182BX,Amstelveen,Amstelveen,Noord-Holland,VBO,4.849589,52.310507
Patrimoniumlaan,54,,,1182BX,Amstelveen,Amstelveen,Noord-Holland,VBO,4.849675,52.310504
Patrimoniumlaan,56,,,1182BX,Amstelveen,Amstelveen,Noord-Holland,VBO,4.849761,52.310500
Patrimoniumlaan,58,A,,1182BX,Amstelveen,Amstelveen,Noord-Holland,VBO,4.849943,52.310505
Patrimoniumlaan,58,,,1182BX,Amstelveen,Amstelveen,Noord-Holland,VBO,4.849845,52.310497
Vijverlaan,1,A,,1182BZ,Amstelveen,Amstelveen,Noord-Holland,VBO,4.847340,52.309839
Vijverlaan,1,B,,1182BZ,Amstelveen,Amstelveen,Noord-Holland,VBO,4.847340,52.309839
Vijverlaan,1,C,,1182BZ,Amstelveen,Amstelveen,Noord-Holland,VBO,4.847340,52.309839
Vijverlaan,1,D,,1182BZ,Amstelveen,Amstelveen,Noord-Holland,VBO,4.847340,52.309839
Vijverlaan,1,E,,1182BZ,Amstelveen,Amstelveen,Noord-Holland,VBO,4.847340,52.309839
Vijverlaan,1,F,,1182BZ,Amstelveen,Amstelveen,Noord-Holland,VBO,4.847346,52.309773
Vijverlaan,2,A,,1182BZ,Amstelveen,Amstelveen,Noord-Holland,VBO,4.847447,52.309546
Vijverlaan,2,B,,1182BZ,Amstelveen,Amstelveen,Noord-Holland,VBO,4.847443,52.309519
Vijverlaan,2,C,,1182BZ,Amstelveen,Amstelveen,Noord-Holland,VBO,4.847440,52.309493
Vijverlaan,2,D,,1182BZ,Amstelveen,Amstelveen,Noord-Holland,VBO,4.847436,52.309467
Vijverlaan,2,E,,1182BZ,Amstelveen,Amstelveen,Noord-Holland,VBO,4.847430,52.309441
Vijverlaan,2,,,1182BZ,Amstelveen,Amstelveen,Noord-Holland,VBO,4.847923,52.309450
Vijverlaan,3,A,,1182BZ,Amstelveen,Amstelveen,Noord-Holland,VBO,4.847884,52.309097
Vijverlaan,3,,,1182BZ,Amstelveen,Amstelveen,Noord-Holland,VBO,4.847619,52.309241
Vijverlaan,4,,,1182BZ,Amstelveen,Amstelveen,Noord-Holland,VBO,4.847523,52.309807
Vijverlaan,5,,,1182BZ,Amstelveen,Amstelveen,Noord-Holland,VBO,4.847607,52.309802
Vijverlaan,6,,,1182BZ,Amstelveen,Amstelveen,Noord-Holland,VBO,4.847691,52.309798
Vijverlaan,7,,,1182BZ,Amstelveen,Amstelveen,Noord-Holland,VBO,4.847841,52.309776
Vijverlaan,8,,,1182BZ,Amstelveen,Amstelveen,Noord-Holland,VBO,4.847838,52.309748
Vijverlaan,9,A,,1182BZ,Amstelveen,Amstelveen,Noord-Holland,VBO,4.847929,52.309743
Vijverlaan,9,,,1182BZ,Amstelveen,Amstelveen,Noord-Holland,VBO,4.847931,52.309771
Vijverlaan,10,,,1182BZ,Amstelveen,Amstelveen,Noord-Holland,VBO,4.848020,52.309766
Vijverlaan,11,,,1182BZ,Amstelveen,Amstelveen,Noord-Holland,VBO,4.848016,52.309737
Vijverlaan,12,A,,1182BZ,Amstelveen,Amstelveen,Noord-Holland,VBO,4.848105,52.309733
Vijverlaan,12,,,1182BZ,Amstelveen,Amstelveen,Noord-Holland,VBO,4.848109,52.309760
Vijverlaan,13,A,,1182BZ,Amstelveen,Amstelveen,Noord-Holland,VBO,4.848194,52.309727
Vijverlaan,13,,,1182BZ,Amstelveen,Amstelveen,Noord-Holland,VBO,4.848198,52.309755
Vijverlaan,14,,,1182BZ,Amstelveen,Amstelveen,Noord-Holland,VBO,4.848289,52.309750
Vijverlaan,15,,,1182BZ,Amstelveen,Amstelveen,Noord-Holland,VBO,4.848286,52.309722
Vijverlaan,16,A,,1182CA,Amstelveen,Amstelveen,Noord-Holland,VBO,4.848739,52.309700
Vijverlaan,16,,,1182CA,Amstelveen,Amstelveen,Noord-Holland,VBO,4.848742,52.309727
Vijverlaan,17,,,1182CA,Amstelveen,Amstelveen,Noord-Holland,VBO,4.848824,52.309722
Vijverlaan,18,,,1182CA,Amstelveen,Amstelveen,Noord-Holland,VBO,4.848822,52.309694
Vijverlaan,19,A,,1182CA,Amstelveen,Amstelveen,Noord-Holland,VBO,4.848901,52.309690
Vijverlaan,19,,,1182CA,Amstelveen,Amstelveen,Noord-Holland,VBO,4.848905,52.309717
Vijverlaan,20,,,1182CA,Amstelveen,Amstelveen,Noord-Holland,VBO,4.848987,52.309712
Vijverlaan,21,,,1182CA,Amstelveen,Amstelveen,Noord-Holland,VBO,4.848983,52.309684
Vijverlaan,22,A,,1182CA,Amstelveen,Amstelveen,Noord-Holland,VBO,4.849065,52.309680
Vijverlaan,22,,,1182CA,Amstelveen,Amstelveen,Noord-Holland,VBO,4.849069,52.309707
Vijverlaan,23,,,1182CA,Amstelveen,Amstelveen,Noord-Holland,VBO,4.849151,52.309703
Vijverlaan,24,,,1182CA,Amstelveen,Amstelveen,Noord-Holland,VBO,4.849148,52.309674
Vijverlaan,25,A,,1182CA,Amstelveen,Amstelveen,Noord-Holland,VBO,4.849663,52.309632
Vijverlaan,25,,,1182CA,Amstelveen,Amstelveen,Noord-Holland,VBO,4.849664,52.309660
Vijverlaan,26,,,1182CA,Amstelveen,Amstelveen,Noord-Holland,VBO,4.849746,52.309655
Vijverlaan,27,,,1182CA,Amstelveen,Amstelveen,Noord-Holland,VBO,4.849742,52.309627
Vijverlaan,28,,,1182CA,Amstelveen,Amstelveen,Noord-Holland,VBO,4.849828,52.309650
Vijverlaan,29,,,1182CA,Amstelveen,Amstelveen,Noord-Holland,VBO,4.849825,52.309622
Amstellandlaan,17,,,1182CB,Amstelveen,Amstelveen,Noord-Holland,VBO,4.849097,52.308779
Amstellandlaan,19,,,1182CB,Amstelveen,Amstelveen,Noord-Holland,VBO,4.849105,52.308831
Amstellandlaan,21,,,1182CB,Amstelveen,Amstelveen,Noord-Holland,VBO,4.849114,52.308883
Amstellandlaan,23,,,1182CB,Amstelveen,Amstelveen,Noord-Holland,VBO,4.849122,52.308936
Amstellandlaan,25,,,1182CB,Amstelveen,Amstelveen,Noord-Holland,VBO,4.849141,52.309074
Amstellandlaan,27,,,1182CB,Amstelveen,Amstelveen,Noord-Holland,VBO,4.849141,52.309074
Amstellandlaan,29,,,1182CB,Amstelveen,Amstelveen,Noord-Holland,VBO,4.849141,52.309074
Amstellandlaan,31,,,1182CB,Amstelveen,Amstelveen,Noord-Holland,VBO,4.849154,52.309156
Amstellandlaan,33,,,1182CB,Amstelveen,Amstelveen,Noord-Holland,VBO,4.849154,52.309156
Amstellandlaan,35,,,1182CC,Amstelveen,Amstelveen,Noord-Holland,VBO,4.849154,52.309156
Amstellandlaan,37,,,1182CC,Amstelveen,Amstelveen,Noord-Holland,VBO,4.849166,52.309234
Amstellandlaan,39,,,1182CC,Amstelveen,Amstelveen,Noord-Holland,VBO,4.849166,52.309234
Amstellandlaan,41,,,1182CC,Amstelveen,Amstelveen,Noord-Holland,VBO,4.849166,52.309234
Amstellandlaan,43,,,1182CC,Amstelveen,Amstelveen,Noord-Holland,VBO,4.849180,52.309323
Amstellandlaan,45,,,1182CC,Amstelveen,Amstelveen,Noord-Holland,VBO,4.849180,52.309323
Amstellandlaan,47,,,1182CC,Amstelveen,Amstelveen,Noord-Holland,VBO,4.849180,52.309323
Amstellandlaan,49,,,1182CC,Amstelveen,Amstelveen,Noord-Holland,VBO,4.849194,52.309412
Amstellandlaan,51,,,1182CC,Amstelveen,Amstelveen,Noord-Holland,VBO,4.849194,52.309412
Amstellandlaan,53,,,1182CC,Amstelveen,Amstelveen,Noord-Holland,VBO,4.849194,52.309412
Amstellandlaan,55,,,1182CC,Amstelveen,Amstelveen,Noord-Holland,VBO,4.849209,52.309502
Amstellandlaan,57,,,1182CC,Amstelveen,Amstelveen,Noord-Holland,VBO,4.849209,52.309502
Amstellandlaan,59,,,1182CC,Amstelveen,Amstelveen,Noord-Holland,VBO,4.849209,52.309502
Amstellandlaan,61,,,1182CC,Amstelveen,Amstelveen,Noord-Holland,VBO,4.849240,52.309655
Amstellandlaan,63,,,1182CC,Amstelveen,Amstelveen,Noord-Holland,VBO,4.849248,52.309697
Amstellandlaan,16,,,1182CD,Amstelveen,Amstelveen,Noord-Holland,VBO,4.849430,52.308652
Amstellandlaan,18,,,1182CD,Amstelveen,Amstelveen,Noord-Holland,VBO,4.849446,52.308752
Amstellandlaan,20,,,1182CD,Amstelveen,Amstelveen,Noord-Holland,VBO,4.849455,52.308805
Amstellandlaan,22,,,1182CD,Amstelveen,Amstelveen,Noord-Holland,VBO,4.849464,52.308858
Amstellandlaan,24,,,1182CD,Amstelveen,Amstelveen,Noord-Holland,VBO,4.849473,52.308911
Amstellandlaan,26,,,1182CD,Amstelveen,Amstelveen,Noord-Holland,VBO,4.849496,52.309029
Amstellandlaan,28,,,1182CD,Amstelveen,Amstelveen,Noord-Holland,VBO,4.849496,52.309029
Amstellandlaan,30,,,1182CD,Amstelveen,Amstelveen,Noord-Holland,VBO,4.849496,52.309029
Amstellandlaan,32,,,1182CD,Amstelveen,Amstelveen,Noord-Holland,VBO,4.849510,52.309119
Amstellandlaan,34,,,1182CE,Amstelveen,Amstelveen,Noord-Holland,VBO,4.849510,52.309119
Amstellandlaan,36,,,1182CE,Amstelveen,Amstelveen,Noord-Holland,VBO,4.849510,52.309119
Amstellandlaan,38,,,1182CE,Amstelveen,Amstelveen,Noord-Holland,VBO,4.849525,52.309209
Amstellandlaan,40,,,1182CE,Amstelveen,Amstelveen,Noord-Holland,VBO,4.849525,52.309209
Amstellandlaan,42,,,1182CE,Amstelveen,Amstelveen,Noord-Holland,VBO,4.849525,52.309209
Amstellandlaan,44,,,1182CE,Amstelveen,Amstelveen,Noord-Holland,VBO,4.849539,52.309298
Amstellandlaan,46,,,1182CE,Amstelveen,Amstelveen,Noord-Holland,VBO,4.849539,52.309298
Amstellandlaan,48,,,1182CE,Amstelveen,Amstelveen,Noord-Holland,VBO,4.849539,52.309298
Amstellandlaan,50,,,1182CE,Amstelveen,Amstelveen,Noord-Holland,VBO,4.849553,52.309388
Amstellandlaan,52,,,1182CE,Amstelveen,Amstelveen,Noord-Holland,VBO,4.849553,52.309388
Amstellandlaan,54,,,1182CE,Amstelveen,Amstelveen,Noord-Holland,VBO,4.849553,52.309388
Amstellandlaan,56,,,1182CE,Amstelveen,Amstelveen,Noord-Holland,VBO,4.849568,52.309478
Amstellandlaan,58,,,1182CE,Amstelveen,Amstelveen,Noord-Holland,VBO,4.849568,52.309478
Amstellandlaan,60,,,1182CE,Amstelveen,Amstelveen,Noord-Holland,VBO,4.849568,52.309478
Amstellandlaan,62,,,1182CE,Amstelveen,Amstelveen,Noord-Holland,VBO,4.849579,52.309619
Amstellandlaan,64,,,1182CE,Amstelveen,Amstelveen,Noord-Holland,VBO,4.849591,52.309665
Sint Josephlaan,1,,,1182CG,Amstelveen,Amstelveen,Noord-Holland,VBO,4.848174,52.308896
Sint Josephlaan,3,A,,1182CG,Amstelveen,Amstelveen,Noord-Holland,VBO,4.847938,52.308911
Sint Josephlaan,3,,,1182CG,Amstelveen,Amstelveen,Noord-Holland,VBO,4.848174,52.308896
Sint Josephlaan,5,,,1182CG,Amstelveen,Amstelveen,Noord-Holland,VBO,4.848174,52.308896
Sint Josephlaan,7,,,1182CG,Amstelveen,Amstelveen,Noord-Holland,VBO,4.848189,52.308989
Sint Josephlaan,9,,,1182CG,Amstelveen,Amstelveen,Noord-Holland,VBO,4.848189,52.308989
Sint Josephlaan,11,,,1182CG,Amstelveen,Amstelveen,Noord-Holland,VBO,4.848189,52.308989
Sint Josephlaan,13,,,1182CG,Amstelveen,Amstelveen,Noord-Holland,VBO,4.848203,52.309081
Sint Josephlaan,15,,,1182CG,Amstelveen,Amstelveen,Noord-Holland,VBO,4.848203,52.309081
Sint Josephlaan,17,,,1182CG,Amstelveen,Amstelveen,Noord-Holland,VBO,4.848203,52.309081
Sint Josephlaan,19,,,1182CG,Amstelveen,Amstelveen,Noord-Holland,VBO,4.848218,52.309173
Sint Josephlaan,21,A,,1182CG,Amstelveen,Amstelveen,Noord-Holland,VBO,4.848010,52.309247
Sint Josephlaan,21,,,1182CG,Amstelveen,Amstelveen,Noord-Holland,VBO,4.848218,52.309173
Sint Josephlaan,23,,,1182CG,Amstelveen,Amstelveen,Noord-Holland,VBO,4.848218,52.309173
Sint Josephlaan,25,,,1182CG,Amstelveen,Amstelveen,Noord-Holland,VBO,4.848243,52.309334
Sint Josephlaan,27,A,,1182CG,Amstelveen,Amstelveen,Noord-Holland,VBO,4.848018,52.309292
Sint Josephlaan,27,,,1182CG,Amstelveen,Amstelveen,Noord-Holland,VBO,4.848243,52.309334
Sint Josephlaan,29,,,1182CG,Amstelveen,Amstelveen,Noord-Holland,VBO,4.848243,52.309334
Sint Josephlaan,31,,,1182CG,Amstelveen,Amstelveen,Noord-Holland,VBO,4.848259,52.309432
Sint Josephlaan,33,,,1182CG,Amstelveen,Amstelveen,Noord-Holland,VBO,4.848259,52.309432
Sint Josephlaan,35,,,1182CG,Amstelveen,Amstelveen,Noord-Holland,VBO,4.848259,52.309432
Sint Josephlaan,37,,,1182CG,Amstelveen,Amstelveen,Noord-Holland,VBO,4.848273,52.309518
Sint Josephlaan,39,A,,1182CG,Amstelveen,Amstelveen,Noord-Holland,VBO,4.848232,52.309587
Sint Josephlaan,39,,,1182CG,Amstelveen,Amstelveen,Noord-Holland,VBO,4.848273,52.309518
Sint Josephlaan,41,,,1182CG,Amstelveen,Amstelveen,Noord-Holland,VBO,4.848273,52.309518
Sint Josephlaan,2,,,1182CH,Amstelveen,Amstelveen,Noord-Holland,VBO,4.848507,52.308705
Sint Josephlaan,4,A,,1182CH,Amstelveen,Amstelveen,Noord-Holland,VBO,4.848533,52.308637
Sint Josephlaan,4,,,1182CH,Amstelveen,Amstelveen,Noord-Holland,VBO,4.848507,52.308705
Sint Josephlaan,6,,,1182CH,Amstelveen,Amstelveen,Noord-Holland,VBO,4.848507,52.308705
Sint Josephlaan,8,,,1182CH,Amstelveen,Amstelveen,Noord-Holland,VBO,4.848521,52.308798
Sint Josephlaan,10,,,1182CH,Amstelveen,Amstelveen,Noord-Holland,VBO,4.848521,52.308798
Sint Josephlaan,12,,,1182CH,Amstelveen,Amstelveen,Noord-Holland,VBO,4.848521,52.308798
Sint Josephlaan,14,,,1182CH,Amstelveen,Amstelveen,Noord-Holland,VBO,4.848536,52.308891
Sint Josephlaan,16,,,1182CH,Amstelveen,Amstelveen,Noord-Holland,VBO,4.848536,52.308891
Sint Josephlaan,18,,,1182CH,Amstelveen,Amstelveen,Noord-Holland,VBO,4.848536,52.308891
Sint Josephlaan,20,,,1182CH,Amstelveen,Amstelveen,Noord-Holland,VBO,4.848550,52.308983
Sint Josephlaan,22,A,,1182CH,Amstelveen,Amstelveen,Noord-Holland,VBO,4.848790,52.308957
Sint Josephlaan,22,,,1182CH,Amstelveen,Amstelveen,Noord-Holland,VBO,4.848550,52.308983
Sint Josephlaan,24,,,1182CH,Amstelveen,Amstelveen,Noord-Holland,VBO,4.848550,52.308983
Sint Josephlaan,26,,,1182CH,Amstelveen,Amstelveen,Noord-Holland,VBO,4.848573,52.309130
Sint Josephlaan,28,A,,1182CH,Amstelveen,Amstelveen,Noord-Holland,VBO,4.848818,52.309125
Sint Josephlaan,28,,,1182CH,Amstelveen,Amstelveen,Noord-Holland,VBO,4.848573,52.309130
Sint Josephlaan,30,,,1182CH,Amstelveen,Amstelveen,Noord-Holland,VBO,4.848573,52.309130
Sint Josephlaan,32,,,1182CH,Amstelveen,Amstelveen,Noord-Holland,VBO,4.848588,52.309222
Sint Josephlaan,34,,,1182CJ,Amstelveen,Amstelveen,Noord-Holland,VBO,4.848588,52.309222
Sint Josephlaan,36,,,1182CJ,Amstelveen,Amstelveen,Noord-Holland,VBO,4.848588,52.309222
Sint Josephlaan,38,,,1182CJ,Amstelveen,Amstelveen,Noord-Holland,VBO,4.848602,52.309315
Sint Josephlaan,40,,,1182CJ,Amstelveen,Amstelveen,Noord-Holland,VBO,4.848602,52.309315
Sint Josephlaan,42,,,1182CJ,Amstelveen,Amstelveen,Noord-Holland,VBO,4.848602,52.309315
Sint Josephlaan,44,,,1182CJ,Amstelveen,Amstelveen,Noord-Holland,VBO,4.848617,52.309408
Sint Josephlaan,46,,,1182CJ,Amstelveen,Amstelveen,Noord-Holland,VBO,4.848617,52.309408
Sint Josephlaan,48,,,1182CJ,Amstelveen,Amstelveen,Noord-Holland,VBO,4.848617,52.309408
Sint Josephlaan,50,,,1182CJ,Amstelveen,Amstelveen,Noord-Holland,VBO,4.848632,52.309500
Sint Josephlaan,52,A,,1182CJ,Amstelveen,Amstelveen,Noord-Holland,VBO,4.848678,52.309562
Sint Josephlaan,52,,,1182CJ,Amstelveen,Amstelveen,Noord-Holland,VBO,4.848632,52.309500
Sint Josephlaan,54,,,1182CJ,Amstelveen,Amstelveen,Noord-Holland,VBO,4.848632,52.309500
Sint Josephlaan,56,,,1182CJ,Amstelveen,Amstelveen,Noord-Holland,VBO,4.848655,52.309687
Sint Josephlaan,58,,,1182CJ,Amstelveen,Amstelveen,Noord-Holland,VBO,4.848662,52.309729
Molenweg,1,,,1182CK,Amstelveen,Amstelveen,Noord-Holland,VBO,4.847743,52.308172
Molenweg,3,,,1182CK,Amstelveen,Amstelveen,Noord-Holland,VBO,4.847878,52.308164
Molenweg,5,,,1182CK,Amstelveen,Amstelveen,Noord-Holland,VBO,4.848016,52.308155
Molenweg,7,A,,1182CK,Amstelveen,Amstelveen,Noord-Holland,VBO,4.848270,52.308145
Molenweg,7,,,1182CK,Amstelveen,Amstelveen,Noord-Holland,VBO,4.848149,52.308147
Molenweg,9,,,1182CK,Amstelveen,Amstelveen,Noord-Holland,VBO,4.848426,52.308135
Molenweg,11,,,1182CK,Amstelveen,Amstelveen,Noord-Holland,VBO,4.848523,52.308129
Molenweg,13,,,1182CK,Amstelveen,Amstelveen,Noord-Holland,VBO,4.848630,52.308122
Molenweg,15,,,1182CK,Amstelveen,Amstelveen,Noord-Holland,VBO,4.848737,52.308115
Molenweg,17,,,1182CK,Amstelveen,Amstelveen,Noord-Holland,VBO,4.848869,52.308102
Molenweg,19,A,,1182CK,Amstelveen,Amstelveen,Noord-Holland,VBO,4.848204,52.307838
Molenweg,19,,,1182CK,Amstelveen,Amstelveen,Noord-Holland,VBO,4.847976,52.307781
Molenweg,21,,,1182CK,Amstelveen,Amstelveen,Noord-Holland,VBO,4.848374,52.307604
Molenweg,23,,,1182CK,Amstelveen,Amstelveen,Noord-Holland,VBO,4.849402,52.308055
Molenweg,27,,,1182CK,Amstelveen,Amstelveen,Noord-Holland,VBO,4.849556,52.308051
Molenweg,29,,,1182CK,Amstelveen,Amstelveen,Noord-Holland,VBO,4.849632,52.308046
Molenweg,31,,,1182CK,Amstelveen,Amstelveen,Noord-Holland,VBO,4.849766,52.308044
Molenweg,33,,,1182CK,Amstelveen,Amstelveen,Noord-Holland,VBO,4.849851,52.308038
Molenweg,35,,,1182CK,Amstelveen,Amstelveen,Noord-Holland,VBO,4.849936,52.308032
Molenweg,37,,,1182CK,Amstelveen,Amstelveen,Noord-Holland,VBO,4.850020,52.308026
Molenweg,39,,,1182CK,Amstelveen,Amstelveen,Noord-Holland,VBO,4.850105,52.308021
Molenweg,2,A,,1182CL,Amstelveen,Amstelveen,Noord-Holland,VBO,4.847619,52.308863
Molenweg,2,,,1182CL,Amstelveen,Amstelveen,Noord-Holland,VBO,4.847467,52.308515
Molenweg,4,,,1182CL,Amstelveen,Amstelveen,Noord-Holland,VBO,4.847553,52.308509
Molenweg,6,,,1182CL,Amstelveen,Amstelveen,Noord-Holland,VBO,4.847639,52.308504
Molenweg,8,,,1182CL,Amstelveen,Amstelveen,Noord-Holland,VBO,4.847726,52.308499
Molenweg,10,,,1182CL,Amstelveen,Amstelveen,Noord-Holland,VBO,4.847930,52.308492
Molenweg,12,A,,1182CL,Amstelveen,Amstelveen,Noord-Holland,VBO,4.847999,52.308635
Molenweg,12,,,1182CL,Amstelveen,Amstelveen,Noord-Holland,VBO,4.847991,52.308603
Molenweg,14,,,1182CL,Amstelveen,Amstelveen,Noord-Holland,VBO,4.847984,52.308524
Molenweg,16,C,,1182CL,Amstelveen,Amstelveen,Noord-Holland,VBO,4.847955,52.308667
Molenweg,16,D,,1182CL,Amstelveen,Amstelveen,Noord-Holland,VBO,4.848067,52.308662
Molenweg,16,,,1182CL,Amstelveen,Amstelveen,Noord-Holland,VBO,4.847988,52.308563
Molenweg,18,,,1182CL,Amstelveen,Amstelveen,Noord-Holland,VBO,4.848473,52.308457
Molenweg,20,,,1182CL,Amstelveen,Amstelveen,Noord-Holland,VBO,4.848591,52.308450
Molenweg,22,,,1182CL,Amstelveen,Amstelveen,Noord-Holland,VBO,4.848668,52.308445
Molenweg,24,,,1182CL,Amstelveen,Amstelveen,Noord-Holland,VBO,4.848746,52.308438
Molenweg,26,,,1182CL,Amstelveen,Amstelveen,Noord-Holland,VBO,4.848921,52.308438
Molenweg,28,,,1182CL,Amstelveen,Amstelveen,Noord-Holland,VBO,4.849009,52.308425
Molenweg,30,,,1182CL,Amstelveen,Amstelveen,Noord-Holland,VBO,4.849405,52.308401
Molenweg,32,,,1182CL,Amstelveen,Amstelveen,Noord-Holland,VBO,4.849521,52.308394
Molenweg,34,,,1182CL,Amstelveen,Amstelveen,Noord-Holland,VBO,4.849636,52.308387
Molenweg,36,,,1182CL,Amstelveen,Amstelveen,Noord-Holland,VBO,4.849829,52.308372
Molenweg,38,,,1182CL,Amstelveen,Amstelveen,Noord-Holland,VBO,4.849931,52.308366
Molenweg,40,,,1182CL,Amstelveen,Amstelveen,Noord-Holland,VBO,4.850033,52.308360
Oude Karselaan,3,,,1182CM,Amstelveen,Amstelveen,Noord-Holland,VBO,4.846464,52.311159
Oude Karselaan,5,,,1182CM,Amstelveen,Amstelveen,Noord-Holland,VBO,4.846333,52.311167
Oude Karselaan,7,,,1182CM,Amstelveen,Amstelveen,Noord-Holland,VBO,4.846258,52.311170
Oude Karselaan,9,,,1182CM,Amstelveen,Amstelveen,Noord-Holland,VBO,4.846182,52.311173
Oude Karselaan,11,,,1182CM,Amstelveen,Amstelveen,Noord-Holland,VBO,4.846096,52.311176
Oude Karselaan,13,,,1182CM,Amstelveen,Amstelveen,Noord-Holland,VBO,4.846021,52.311179
Oude Karselaan,15,,,1182CM,Amstelveen,Amstelveen,Noord-Holland,VBO,4.845946,52.311182
Oude Karselaan,17,,,1182CM,Amstelveen,Amstelveen,Noord-Holland,VBO,4.845827,52.311186
Oude Karselaan,19,,,1182CM,Amstelveen,Amstelveen,Noord-Holland,VBO,4.845752,52.311189
Oude Karselaan,21,,,1182CM,Amstelveen,Amstelveen,Noord-Holland,VBO,4.845677,52.311192
Oude Karselaan,23,,,1182CM,Amstelveen,Amstelveen,Noord-Holland,VBO,4.845602,52.311195
Oude Karselaan,27,,,1182CM,Amstelveen,Amstelveen,Noord-Holland,VBO,4.845451,52.311201
Oude Karselaan,29,,,1182CM,Amstelveen,Amstelveen,Noord-Holland,VBO,4.845616,52.310928
Oude Karselaan,31,,,1182CM,Amstelveen,Amstelveen,Noord-Holland,VBO,4.845339,52.311195
Oude Karselaan,33,,,1182CM,Amstelveen,Amstelveen,Noord-Holland,VBO,4.845270,52.311197
Oude Karselaan,37,,,1182CM,Amstelveen,Amstelveen,Noord-Holland,VBO,4.845131,52.311214
Oude Karselaan,39,,,1182CM,Amstelveen,Amstelveen,Noord-Holland,VBO,4.845040,52.311205
Oude Karselaan,41,,,1182CN,Amstelveen,Amstelveen,Noord-Holland,VBO,4.844633,52.311221
Oude Karselaan,43,,,1182CN,Amstelveen,Amstelveen,Noord-Holland,VBO,4.844531,52.311226
Oude Karselaan,45,,,1182CN,Amstelveen,Amstelveen,Noord-Holland,VBO,4.844369,52.311232
Oude Karselaan,47,,,1182CN,Amstelveen,Amstelveen,Noord-Holland,VBO,4.844275,52.311236
Oude Karselaan,63,,,1182CN,Amstelveen,Amstelveen,Noord-Holland,VBO,4.844116,52.311213
Oude Karselaan,65,,,1182CN,Amstelveen,Amstelveen,Noord-Holland,VBO,4.844026,52.311216
Oude Karselaan,67,,,1182CN,Amstelveen,Amstelveen,Noord-Holland,VBO,4.843936,52.311218
Oude Karselaan,69,,,1182CN,Amstelveen,Amstelveen,Noord-Holland,VBO,4.843795,52.311223
Oude Karselaan,71,,,1182CN,Amstelveen,Amstelveen,Noord-Holland,VBO,4.843705,52.311225
Oude Karselaan,73,,,1182CN,Amstelveen,Amstelveen,Noord-Holland,VBO,4.843615,52.311228
Oude Karselaan,75,,,1182CN,Amstelveen,Amstelveen,Noord-Holland,VBO,4.843525,52.311230
Oude Karselaan,77,,,1182CN,Amstelveen,Amstelveen,Noord-Holland,VBO,4.843416,52.311270
Oude Karselaan,79,,,1182CN,Amstelveen,Amstelveen,Noord-Holland,VBO,4.843350,52.311273
Oude Karselaan,81,,,1182CN,Amstelveen,Amstelveen,Noord-Holland,VBO,4.843350,52.311273
Oude Karselaan,83,,,1182CN,Amstelveen,Amstelveen,Noord-Holland,VBO,4.843233,52.311278
Oude Karselaan,85,,,1182CP,Amstelveen,Amstelveen,Noord-Holland,VBO,4.843168,52.311281
Oude Karselaan,87,,,1182CP,Amstelveen,Amstelveen,Noord-Holland,VBO,4.843108,52.311283
Oude Karselaan,89,,,1182CP,Amstelveen,Amstelveen,Noord-Holland,VBO,4.843048,52.311287
Oude Karselaan,91,,,1182CP,Amstelveen,Amstelveen,Noord-Holland,VBO,4.842989,52.311293
Oude Karselaan,93,,,1182CP,Amstelveen,Amstelveen,Noord-Holland,VBO,4.842926,52.311291
Oude Karselaan,95,,,1182CP,Amstelveen,Amstelveen,Noord-Holland,VBO,4.842869,52.311293
Oude Karselaan,97,,,1182CP,Amstelveen,Amstelveen,Noord-Holland,VBO,4.842810,52.311295
Oude Karselaan,99,A,,1182CP,Amstelveen,Amstelveen,Noord-Holland,VBO,4.842751,52.311264
Oude Karselaan,99,,,1182CP,Amstelveen,Amstelveen,Noord-Holland,VBO,4.842746,52.311298
Oude Karselaan,101,,,1182CP,Amstelveen,Amstelveen,Noord-Holland,VBO,4.842605,52.311196
Oude Karselaan,103,,,1182CP,Amstelveen,Amstelveen,Noord-Holland,VBO,4.842377,52.311315
Oude Karselaan,105,A,,1182CP,Amstelveen,Amstelveen,Noord-Holland,VBO,4.842238,52.311313
Oude Karselaan,105,,,1182CP,Amstelveen,Amstelveen,Noord-Holland,VBO,4.842238,52.311324
Oude Karselaan,107,,,1182CP,Amstelveen,Amstelveen,Noord-Holland,VBO,4.842174,52.311325
Oude Karselaan,109,,,1182CP,Amstelveen,Amstelveen,Noord-Holland,VBO,4.842134,52.311325
Oude Karselaan,111,A,,1182CP,Amstelveen,Amstelveen,Noord-Holland,VBO,4.841899,52.311332
Oude Karselaan,111,,,1182CP,Amstelveen,Amstelveen,Noord-Holland,VBO,4.842053,52.311328
Oude Karselaan,115,,,1182CP,Amstelveen,Amstelveen,Noord-Holland,VBO,4.841752,52.311336
Oude Karselaan,117,,,1182CP,Amstelveen,Amstelveen,Noord-Holland,VBO,4.841419,52.311295
Oude Karselaan,119,,,1182CP,Amstelveen,Amstelveen,Noord-Holland,VBO,4.841419,52.311272
Oude Karselaan,121,,,1182CP,Amstelveen,Amstelveen,Noord-Holland,VBO,4.841418,52.311188
Oude Karselaan,123,,,1182CP,Amstelveen,Amstelveen,Noord-Holland,VBO,4.841418,52.311164
Oude Karselaan,125,,,1182CP,Amstelveen,Amstelveen,Noord-Holland,VBO,4.841418,52.311080
Oude Karselaan,127,,,1182CP,Amstelveen,Amstelveen,Noord-Holland,VBO,4.841418,52.311057
Oude Karselaan,2,,,1182CR,Amstelveen,Amstelveen,Noord-Holland,VBO,4.846373,52.311462
Oude Karselaan,4,,,1182CR,Amstelveen,Amstelveen,Noord-Holland,VBO,4.846366,52.311418
Oude Karselaan,6,,,1182CR,Amstelveen,Amstelveen,Noord-Holland,VBO,4.846291,52.311420
Oude Karselaan,8,,,1182CR,Amstelveen,Amstelveen,Noord-Holland,VBO,4.846215,52.311423
Oude Karselaan,10,,,1182CR,Amstelveen,Amstelveen,Noord-Holland,VBO,4.846129,52.311427
Oude Karselaan,12,,,1182CR,Amstelveen,Amstelveen,Noord-Holland,VBO,4.846059,52.311430
Oude Karselaan,14,,,1182CR,Amstelveen,Amstelveen,Noord-Holland,VBO,4.845978,52.311433
Oude Karselaan,16,,,1182CR,Amstelveen,Amstelveen,Noord-Holland,VBO,4.845839,52.311451
Oude Karselaan,18,,,1182CR,Amstelveen,Amstelveen,Noord-Holland,VBO,4.845758,52.311454
Oude Karselaan,20,,,1182CR,Amstelveen,Amstelveen,Noord-Holland,VBO,4.845678,52.311457
Oude Karselaan,22,,,1182CR,Amstelveen,Amstelveen,Noord-Holland,VBO,4.845597,52.311460
Oude Karselaan,24,,,1182CR,Amstelveen,Amstelveen,Noord-Holland,VBO,4.845467,52.311462
Oude Karselaan,26,,,1182CR,Amstelveen,Amstelveen,Noord-Holland,VBO,4.845376,52.311465
Oude Karselaan,28,,,1182CR,Amstelveen,Amstelveen,Noord-Holland,VBO,4.845284,52.311469
Oude Karselaan,30,,,1182CR,Amstelveen,Amstelveen,Noord-Holland,VBO,4.845193,52.311472
Oude Karselaan,32,,,1182CR,Amstelveen,Amstelveen,Noord-Holland,VBO,4.845034,52.311473
Oude Karselaan,36,,,1182CR,Amstelveen,Amstelveen,Noord-Holland,VBO,4.844883,52.311480
Oude Karselaan,38,,,1182CR,Amstelveen,Amstelveen,Noord-Holland,VBO,4.844808,52.311483
Oude Karselaan,40,,,1182CR,Amstelveen,Amstelveen,Noord-Holland,VBO,4.844733,52.311486
Oude Karselaan,42,A,,1182CS,Amstelveen,Amstelveen,Noord-Holland,VBO,4.844636,52.311735
Oude Karselaan,42,,,1182CS,Amstelveen,Amstelveen,Noord-Holland,VBO,4.844590,52.311551
Oude Karselaan,44,,,1182CS,Amstelveen,Amstelveen,Noord-Holland,VBO,4.844515,52.311554
Oude Karselaan,46,,,1182CS,Amstelveen,Amstelveen,Noord-Holland,VBO,4.844441,52.311557
Oude Karselaan,48,,,1182CS,Amstelveen,Amstelveen,Noord-Holland,VBO,4.844366,52.311559
Oude Karselaan,50,,,1182CS,Amstelveen,Amstelveen,Noord-Holland,VBO,4.844233,52.311565
Oude Karselaan,52,,,1182CS,Amstelveen,Amstelveen,Noord-Holland,VBO,4.844159,52.311568
Oude Karselaan,54,,,1182CS,Amstelveen,Amstelveen,Noord-Holland,VBO,4.844084,52.311571
Oude Karselaan,56,,,1182CS,Amstelveen,Amstelveen,Noord-Holland,VBO,4.844010,52.311574
Oude Karselaan,58,,,1182CS,Amstelveen,Amstelveen,Noord-Holland,VBO,4.843876,52.311579
Oude Karselaan,60,,,1182CS,Amstelveen,Amstelveen,Noord-Holland,VBO,4.843801,52.311582
Oude Karselaan,62,,,1182CS,Amstelveen,Amstelveen,Noord-Holland,VBO,4.843727,52.311585
Oude Karselaan,64,,,1182CS,Amstelveen,Amstelveen,Noord-Holland,VBO,4.843652,52.311587
Oude Karselaan,66,,,1182CS,Amstelveen,Amstelveen,Noord-Holland,VBO,4.843527,52.311592
Oude Karselaan,68,,,1182CS,Amstelveen,Amstelveen,Noord-Holland,VBO,4.843442,52.311596
Oude Karselaan,70,,,1182CS,Amstelveen,Amstelveen,Noord-Holland,VBO,4.843367,52.311599
Oude Karselaan,72,,,1182CS,Amstelveen,Amstelveen,Noord-Holland,VBO,4.843293,52.311602
Oude Karselaan,74,,,1182CS,Amstelveen,Amstelveen,Noord-Holland,VBO,4.843159,52.311607
Oude Karselaan,76,,,1182CS,Amstelveen,Amstelveen,Noord-Holland,VBO,4.843084,52.311610
Oude Karselaan,78,,,1182CT,Amstelveen,Amstelveen,Noord-Holland,VBO,4.843009,52.311613
Oude Karselaan,80,,,1182CT,Amstelveen,Amstelveen,Noord-Holland,VBO,4.842935,52.311616
Oude Karselaan,82,,,1182CT,Amstelveen,Amstelveen,Noord-Holland,VBO,4.842804,52.311622
Oude Karselaan,84,,,1182CT,Amstelveen,Amstelveen,Noord-Holland,VBO,4.842729,52.311624
Oude Karselaan,86,,,1182CT,Amstelveen,Amstelveen,Noord-Holland,VBO,4.842655,52.311627
Oude Karselaan,88,,,1182CT,Amstelveen,Amstelveen,Noord-Holland,VBO,4.842585,52.311630
Oude Karselaan,90,,,1182CT,Amstelveen,Amstelveen,Noord-Holland,VBO,4.842429,52.311586
Oude Karselaan,92,,,1182CT,Amstelveen,Amstelveen,Noord-Holland,VBO,4.842354,52.311589
Oude Karselaan,94,,,1182CT,Amstelveen,Amstelveen,Noord-Holland,VBO,4.842278,52.311593
Oude Karselaan,96,,,1182CT,Amstelveen,Amstelveen,Noord-Holland,VBO,4.842203,52.311596
Oude Karselaan,98,,,1182CT,Amstelveen,Amstelveen,Noord-Holland,VBO,4.842128,52.311600
Oude Karselaan,100,,,1182CT,Amstelveen,Amstelveen,Noord-Holland,VBO,4.842024,52.311605
Oude Karselaan,102,,,1182CT,Amstelveen,Amstelveen,Noord-Holland,VBO,4.841949,52.311608
Oude Karselaan,104,,,1182CT,Amstelveen,Amstelveen,Noord-Holland,VBO,4.841873,52.311612
Oude Karselaan,106,,,1182CT,Amstelveen,Amstelveen,Noord-Holland,VBO,4.841798,52.311615
Oude Karselaan,108,,,1182CT,Amstelveen,Amstelveen,Noord-Holland,VBO,4.841723,52.311618
Oude Karselaan,110,,,1182CT,Amstelveen,Amstelveen,Noord-Holland,VBO,4.841399,52.311657
Oude Karselaan,112,,,1182CT,Amstelveen,Amstelveen,Noord-Holland,VBO,4.841399,52.311680
Oude Karselaan,114,,,1182CT,Amstelveen,Amstelveen,Noord-Holland,VBO,4.841400,52.311779
Oude Karselaan,116,,,1182CT,Amstelveen,Amstelveen,Noord-Holland,VBO,4.841379,52.311805
Oude Karselaan,118,,,1182CT,Amstelveen,Amstelveen,Noord-Holland,VBO,4.841319,52.311885
Oude Karselaan,120,,,1182CT,Amstelveen,Amstelveen,Noord-Holland,VBO,4.841303,52.311906
Landscheidingskade,41,,,1182CX,Amstelveen,Amstelveen,Noord-Holland,LIG,4.841724,52.308627
Landscheidingskade,42,,,1182CX,Amstelveen,Amstelveen,Noord-Holland,VBO,4.842122,52.308702
Landscheidingskade,43,,,1182CX,Amstelveen,Amstelveen,Noord-Holland,VBO,4.842115,52.308759
Landscheidingskade,44,,,1182CX,Amstelveen,Amstelveen,Noord-Holland,VBO,4.842095,52.309000
Landscheidingskade,45,,,1182CX,Amstelveen,Amstelveen,Noord-Holland,VBO,4.842089,52.309056
Landscheidingskade,46,,,1182CX,Amstelveen,Amstelveen,Noord-Holland,VBO,4.842083,52.309113
Landscheidingskade,47,,,1182CX,Amstelveen,Amstelveen,Noord-Holland,VBO,4.842077,52.309167
Landscheidingskade,48,,,1182CX,Amstelveen,Amstelveen,Noord-Holland,VBO,4.842070,52.309226
Landscheidingskade,49,,,1182CX,Amstelveen,Amstelveen,Noord-Holland,VBO,4.842064,52.309282
Landscheidingskade,50,,,1182CX,Amstelveen,Amstelveen,Noord-Holland,VBO,4.842058,52.309339
Landscheidingskade,51,,,1182CX,Amstelveen,Amstelveen,Noord-Holland,VBO,4.842047,52.309431
Landscheidingskade,52,,,1182CX,Amstelveen,Amstelveen,Noord-Holland,VBO,4.842041,52.309487
Landscheidingskade,53,,,1182CX,Amstelveen,Amstelveen,Noord-Holland,VBO,4.842034,52.309544
Landscheidingskade,54,,,1182CX,Amstelveen,Amstelveen,Noord-Holland,VBO,4.842028,52.309600
Landscheidingskade,55,,,1182CX,Amstelveen,Amstelveen,Noord-Holland,VBO,4.842021,52.309657
Landscheidingskade,56,,,1182CX,Amstelveen,Amstelveen,Noord-Holland,VBO,4.842015,52.309713
Landscheidingskade,57,,,1182CX,Amstelveen,Amstelveen,Noord-Holland,VBO,4.842009,52.309770
Landscheidingskade,58,,,1182CX,Amstelveen,Amstelveen,Noord-Holland,VBO,4.841973,52.310022
Landscheidingskade,59,,,1182CX,Amstelveen,Amstelveen,Noord-Holland,VBO,4.841967,52.310078
Landscheidingskade,60,A,,1182CX,Amstelveen,Amstelveen,Noord-Holland,LIG,4.841639,52.310250
Landscheidingskade,60,,,1182CX,Amstelveen,Amstelveen,Noord-Holland,VBO,4.841960,52.310135
Landscheidingskade,61,,,1182CX,Amstelveen,Amstelveen,Noord-Holland,VBO,4.841930,52.310442
Landscheidingskade,62,,,1182CX,Amstelveen,Amstelveen,Noord-Holland,VBO,4.841924,52.310500
Landscheidingskade,63,,,1182CX,Amstelveen,Amstelveen,Noord-Holland,VBO,4.841855,52.310803
Landscheidingskade,64,,,1182CX,Amstelveen,Amstelveen,Noord-Holland,VBO,4.841850,52.310858
Bosbaanweg,1,,,1182DA,Amstelveen,Amstelveen,Noord-Holland,VBO,4.856158,52.328089
Bosbaanweg,3,,,1182DA,Amstelveen,Amstelveen,Noord-Holland,VBO,4.856163,52.327508
Bosbaanweg,5,,,1182DA,Amstelveen,Amstelveen,Noord-Holland,VBO,4.854971,52.327432
Bosbaanweg,7,,,1182DA,Amstelveen,Amstelveen,Noord-Holland,VBO,4.855642,52.327294
Nieuwe Meerlaan,3,,,1182DB,Amstelveen,Amstelveen,Noord-Holland,VBO,4.820161,52.311690
Nieuwe Meerlaan,4,,,1182DB,Amstelveen,Amstelveen,Noord-Holland,VBO,4.824694,52.312866
Nieuwe Meerlaan,5,,,1182DB,Amstelveen,Amstelveen,Noord-Holland,VBO,4.819458,52.315651
Nieuwe Meerlaan,6,,,1182DB,Amstelveen,Amstelveen,Noord-Holland,VBO,4.822117,52.316611
Nieuwe Meerlaan,7,,,1182DB,Amstelveen,Amstelveen,Noord-Holland,VBO,4.818337,52.318448
Nieuwe Meerlaan,9,,,1182DB,Amstelveen,Amstelveen,Noord-Holland,VBO,4.818487,52.318637
De Duizendmeterweg,2,,,1182DC,Amstelveen,Amstelveen,Noord-Holland,VBO,4.832353,52.322526
De Duizendmeterweg,4,,,1182DC,Amstelveen,Amstelveen,Noord-Holland,VBO,4.827195,52.322439
De Duizendmeterweg,6,A,,1182DC,Amstelveen,Amstelveen,Noord-Holland,VBO,4.826325,52.321456
De Duizendmeterweg,6,,,1182DC,Amstelveen,Amstelveen,Noord-Holland,VBO,4.826276,52.321345
De Duizendmeterweg,7,,,1182DC,Amstelveen,Amstelveen,Noord-Holland,VBO,4.825903,52.321716
Bleekerskade,4,,,1182EA,Amstelveen,Amstelveen,Noord-Holland,VBO,4.839515,52.312927
Bilderdijklaan,1,,,1182EB,Amstelveen,Amstelveen,Noord-Holland,VBO,4.844485,52.310134
Bilderdijklaan,3,,,1182EB,Amstelveen,Amstelveen,Noord-Holland,VBO,4.844491,52.310188
Bilderdijklaan,5,,,1182EB,Amstelveen,Amstelveen,Noord-Holland,VBO,4.844506,52.310311
Bilderdijklaan,7,,,1182EB,Amstelveen,Amstelveen,Noord-Holland,VBO,4.844513,52.310364
Bilderdijklaan,9,,,1182EB,Amstelveen,Amstelveen,Noord-Holland,VBO,4.844520,52.310416
Bilderdijklaan,11,,,1182EB,Amstelveen,Amstelveen,Noord-Holland,VBO,4.844605,52.310730
Bilderdijklaan,13,,,1182EB,Amstelveen,Amstelveen,Noord-Holland,VBO,4.844610,52.310778
Bilderdijklaan,15,,,1182EB,Amstelveen,Amstelveen,Noord-Holland,VBO,4.844615,52.310832
Bilderdijklaan,17,,,1182EB,Amstelveen,Amstelveen,Noord-Holland,VBO,4.844621,52.310885
Bilderdijklaan,19,,,1182EB,Amstelveen,Amstelveen,Noord-Holland,VBO,4.844626,52.310939
Bilderdijklaan,21,,,1182EB,Amstelveen,Amstelveen,Noord-Holland,VBO,4.844631,52.310987
Bilderdijklaan,2,A,,1182EC,Amstelveen,Amstelveen,Noord-Holland,VBO,4.845331,52.310158
Bilderdijklaan,2,B,,1182EC,Amstelveen,Amstelveen,Noord-Holland,VBO,4.845374,52.310157
Bilderdijklaan,2,C,,1182EC,Amstelveen,Amstelveen,Noord-Holland,VBO,4.845416,52.310155
Bilderdijklaan,2,D,,1182EC,Amstelveen,Amstelveen,Noord-Holland,VBO,4.845459,52.310154
Bilderdijklaan,2,E,,1182EC,Amstelveen,Amstelveen,Noord-Holland,VBO,4.845501,52.310152
Bilderdijklaan,2,F,,1182EC,Amstelveen,Amstelveen,Noord-Holland,VBO,4.845544,52.310151
Bilderdijklaan,2,G,,1182EC,Amstelveen,Amstelveen,Noord-Holland,VBO,4.845587,52.310149
Bilderdijklaan,2,H,,1182EC,Amstelveen,Amstelveen,Noord-Holland,VBO,4.845629,52.310147
Bilderdijklaan,2,K,,1182EC,Amstelveen,Amstelveen,Noord-Holland,VBO,4.845672,52.310146
Bilderdijklaan,2,L,,1182EC,Amstelveen,Amstelveen,Noord-Holland,VBO,4.845715,52.310144
Bilderdijklaan,2,M,,1182EC,Amstelveen,Amstelveen,Noord-Holland,VBO,4.845757,52.310143
Bilderdijklaan,2,N,,1182EC,Amstelveen,Amstelveen,Noord-Holland,VBO,4.845800,52.310141
Bilderdijklaan,2,P,,1182EC,Amstelveen,Amstelveen,Noord-Holland,VBO,4.845842,52.310139
Bilderdijklaan,2,R,,1182EC,Amstelveen,Amstelveen,Noord-Holland,VBO,4.845902,52.310107
Bilderdijklaan,2,S,,1182EC,Amstelveen,Amstelveen,Noord-Holland,VBO,4.845900,52.310076
Bilderdijklaan,2,,,1182EC,Amstelveen,Amstelveen,Noord-Holland,VBO,4.844962,52.310146
Bilderdijklaan,4,,,1182EC,Amstelveen,Amstelveen,Noord-Holland,VBO,4.844968,52.310208
Bilderdijklaan,6,,,1182EC,Amstelveen,Amstelveen,Noord-Holland,VBO,4.844974,52.310270
Bilderdijklaan,8,,,1182EC,Amstelveen,Amstelveen,Noord-Holland,VBO,4.844980,52.310332
Bilderdijklaan,10,,,1182EC,Amstelveen,Amstelveen,Noord-Holland,VBO,4.844986,52.310387
Bilderdijklaan,12,,,1182EC,Amstelveen,Amstelveen,Noord-Holland,VBO,4.844954,52.310653
Bilderdijklaan,14,,,1182EC,Amstelveen,Amstelveen,Noord-Holland,VBO,4.844961,52.310725
Bilderdijklaan,16,,,1182EC,Amstelveen,Amstelveen,Noord-Holland,VBO,4.844968,52.310797
Bilderdijklaan,18,,,1182EC,Amstelveen,Amstelveen,Noord-Holland,VBO,4.844977,52.310904
Da Costalaan,1,,,1182ED,Amstelveen,Amstelveen,Noord-Holland,VBO,4.846509,52.310365
Da Costalaan,3,,,1182ED,Amstelveen,Amstelveen,Noord-Holland,VBO,4.846386,52.310350
Da Costalaan,5,G,,1182ED,Amstelveen,Amstelveen,Noord-Holland,VBO,4.845911,52.310136
Da Costalaan,5,H,,1182ED,Amstelveen,Amstelveen,Noord-Holland,VBO,4.845917,52.310161
Da Costalaan,5,,,1182ED,Amstelveen,Amstelveen,Noord-Holland,VBO,4.846300,52.310353
Da Costalaan,7,,,1182ED,Amstelveen,Amstelveen,Noord-Holland,VBO,4.846169,52.310358
Da Costalaan,9,,,1182ED,Amstelveen,Amstelveen,Noord-Holland,VBO,4.846085,52.310361
Da Costalaan,11,,,1182ED,Amstelveen,Amstelveen,Noord-Holland,VBO,4.845990,52.310365
Da Costalaan,13,,,1182ED,Amstelveen,Amstelveen,Noord-Holland,VBO,4.845907,52.310368
Da Costalaan,15,,,1182ED,Amstelveen,Amstelveen,Noord-Holland,VBO,4.845823,52.310371
Da Costalaan,17,,,1182ED,Amstelveen,Amstelveen,Noord-Holland,VBO,4.845739,52.310374
Da Costalaan,19,,,1182ED,Amstelveen,Amstelveen,Noord-Holland,VBO,4.845596,52.310379
Da Costalaan,21,,,1182ED,Amstelveen,Amstelveen,Noord-Holland,VBO,4.845512,52.310383
Da Costalaan,23,,,1182ED,Amstelveen,Amstelveen,Noord-Holland,VBO,4.845428,52.310386
Da Costalaan,25,,,1182ED,Amstelveen,Amstelveen,Noord-Holland,VBO,4.845344,52.310389
Da Costalaan,27,,,1182ED,Amstelveen,Amstelveen,Noord-Holland,VBO,4.845260,52.310392
Da Costalaan,29,,,1182ED,Amstelveen,Amstelveen,Noord-Holland,VBO,4.845176,52.310396
Da Costalaan,31,,,1182EE,Amstelveen,Amstelveen,Noord-Holland,VBO,4.844209,52.310431
Da Costalaan,33,,,1182EE,Amstelveen,Amstelveen,Noord-Holland,VBO,4.844125,52.310435
Da Costalaan,35,,,1182EE,Amstelveen,Amstelveen,Noord-Holland,VBO,4.844040,52.310438
Da Costalaan,37,,,1182EE,Amstelveen,Amstelveen,Noord-Holland,VBO,4.843955,52.310441
Da Costalaan,39,,,1182EE,Amstelveen,Amstelveen,Noord-Holland,VBO,4.843870,52.310444
Da Costalaan,41,,,1182EE,Amstelveen,Amstelveen,Noord-Holland,VBO,4.843726,52.310432
Da Costalaan,43,,,1182EE,Amstelveen,Amstelveen,Noord-Holland,VBO,4.843641,52.310436
Da Costalaan,45,,,1182EE,Amstelveen,Amstelveen,Noord-Holland,VBO,4.843557,52.310439
Da Costalaan,47,,,1182EE,Amstelveen,Amstelveen,Noord-Holland,VBO,4.843472,52.310442
Da Costalaan,49,,,1182EE,Amstelveen,Amstelveen,Noord-Holland,VBO,4.843387,52.310446
Da Costalaan,51,,,1182EE,Amstelveen,Amstelveen,Noord-Holland,VBO,4.843303,52.310449
Da Costalaan,53,,,1182EE,Amstelveen,Amstelveen,Noord-Holland,VBO,4.843160,52.310454
Da Costalaan,55,,,1182EE,Amstelveen,Amstelveen,Noord-Holland,VBO,4.843075,52.310457
Da Costalaan,57,,,1182EE,Amstelveen,Amstelveen,Noord-Holland,VBO,4.842991,52.310460
Da Costalaan,59,,,1182EE,Amstelveen,Amstelveen,Noord-Holland,VBO,4.842906,52.310463
Da Costalaan,61,,,1182EE,Amstelveen,Amstelveen,Noord-Holland,VBO,4.842822,52.310466
Da Costalaan,63,,,1182EE,Amstelveen,Amstelveen,Noord-Holland,VBO,4.842737,52.310469
Da Costalaan,65,,,1182EE,Amstelveen,Amstelveen,Noord-Holland,VBO,4.842597,52.310491
Da Costalaan,67,,,1182EE,Amstelveen,Amstelveen,Noord-Holland,VBO,4.842511,52.310495
Da Costalaan,69,,,1182EE,Amstelveen,Amstelveen,Noord-Holland,VBO,4.842427,52.310498
Da Costalaan,71,,,1182EE,Amstelveen,Amstelveen,Noord-Holland,VBO,4.842342,52.310501
Da Costalaan,73,,,1182EE,Amstelveen,Amstelveen,Noord-Holland,VBO,4.842258,52.310504
Da Costalaan,75,,,1182EE,Amstelveen,Amstelveen,Noord-Holland,VBO,4.842173,52.310507
Da Costalaan,2,,,1182EG,Amstelveen,Amstelveen,Noord-Holland,VBO,4.846421,52.310558
Da Costalaan,4,,,1182EG,Amstelveen,Amstelveen,Noord-Holland,VBO,4.846336,52.310566
Da Costalaan,6,,,1182EG,Amstelveen,Amstelveen,Noord-Holland,VBO,4.846250,52.310571
Da Costalaan,8,,,1182EG,Amstelveen,Amstelveen,Noord-Holland,VBO,4.846153,52.310592
Da Costalaan,10,,,1182EG,Amstelveen,Amstelveen,Noord-Holland,VBO,4.846052,52.310596
Da Costalaan,12,,,1182EG,Amstelveen,Amstelveen,Noord-Holland,VBO,4.845962,52.310599
Da Costalaan,14,,,1182EG,Amstelveen,Amstelveen,Noord-Holland,VBO,4.845872,52.310603
Da Costalaan,16,,,1182EG,Amstelveen,Amstelveen,Noord-Holland,VBO,4.845781,52.310606
Da Costalaan,18,,,1182EG,Amstelveen,Amstelveen,Noord-Holland,VBO,4.845691,52.310609
Da Costalaan,20,,,1182EG,Amstelveen,Amstelveen,Noord-Holland,VBO,4.845593,52.310613
Da Costalaan,22,,,1182EG,Amstelveen,Amstelveen,Noord-Holland,VBO,4.845507,52.310620
Da Costalaan,24,,,1182EG,Amstelveen,Amstelveen,Noord-Holland,VBO,4.845418,52.310622
Da Costalaan,26,,,1182EG,Amstelveen,Amstelveen,Noord-Holland,VBO,4.845331,52.310624
Da Costalaan,28,,,1182EG,Amstelveen,Amstelveen,Noord-Holland,VBO,4.845245,52.310626
Da Costalaan,30,,,1182EG,Amstelveen,Amstelveen,Noord-Holland,VBO,4.845145,52.310629
Da Costalaan,32,,,1182EH,Amstelveen,Amstelveen,Noord-Holland,VBO,4.844316,52.310653
Da Costalaan,34,,,1182EH,Amstelveen,Amstelveen,Noord-Holland,VBO,4.844229,52.310656
Da Costalaan,36,,,1182EH,Amstelveen,Amstelveen,Noord-Holland,VBO,4.844142,52.310659
Da Costalaan,38,,,1182EH,Amstelveen,Amstelveen,Noord-Holland,VBO,4.844055,52.310662
Da Costalaan,40,,,1182EH,Amstelveen,Amstelveen,Noord-Holland,VBO,4.843967,52.310664
Da Costalaan,42,,BV,1182EH,Amstelveen,Amstelveen,Noord-Holland,VBO,4.843923,52.310662
Da Costalaan,44,,,1182EH,Amstelveen,Amstelveen,Noord-Holland,VBO,4.843748,52.310687
Da Costalaan,46,,,1182EH,Amstelveen,Amstelveen,Noord-Holland,VBO,4.843649,52.310691
Da Costalaan,48,,BV,1182EH,Amstelveen,Amstelveen,Noord-Holland,VBO,4.843562,52.310694
Da Costalaan,48,,HS,1182EH,Amstelveen,Amstelveen,Noord-Holland,VBO,4.843562,52.310694
Da Costalaan,50,,,1182EH,Amstelveen,Amstelveen,Noord-Holland,VBO,4.843474,52.310697
Da Costalaan,52,,,1182EH,Amstelveen,Amstelveen,Noord-Holland,VBO,4.843387,52.310701
Da Costalaan,54,,,1182EH,Amstelveen,Amstelveen,Noord-Holland,VBO,4.843300,52.310704
Da Costalaan,56,,BV,1182EJ,Amstelveen,Amstelveen,Noord-Holland,VBO,4.843162,52.310712
Da Costalaan,56,,HS,1182EJ,Amstelveen,Amstelveen,Noord-Holland,VBO,4.843162,52.310712
Da Costalaan,58,,,1182EJ,Amstelveen,Amstelveen,Noord-Holland,VBO,4.843067,52.310713
Da Costalaan,60,,BV,1182EJ,Amstelveen,Amstelveen,Noord-Holland,VBO,4.842980,52.310716
Da Costalaan,60,,HS,1182EJ,Amstelveen,Amstelveen,Noord-Holland,VBO,4.842980,52.310716
Da Costalaan,62,,,1182EJ,Amstelveen,Amstelveen,Noord-Holland,VBO,4.842893,52.310719
Da Costalaan,64,,,1182EJ,Amstelveen,Amstelveen,Noord-Holland,VBO,4.842805,52.310722
Da Costalaan,66,,,1182EJ,Amstelveen,Amstelveen,Noord-Holland,VBO,4.842718,52.310725
Da Costalaan,68,,,1182EJ,Amstelveen,Amstelveen,Noord-Holland,VBO,4.842572,52.310711
Da Costalaan,70,,BV,1182EJ,Amstelveen,Amstelveen,Noord-Holland,VBO,4.842484,52.310721
Da Costalaan,70,,HS,1182EJ,Amstelveen,Amstelveen,Noord-Holland,VBO,4.842484,52.310721
Da Costalaan,72,,,1182EJ,Amstelveen,Amstelveen,Noord-Holland,VBO,4.842397,52.310719
Da Costalaan,74,,,1182EJ,Amstelveen,Amstelveen,Noord-Holland,VBO,4.842310,52.310728
Da Costalaan,76,,BV,1182EJ,Amstelveen,Amstelveen,Noord-Holland,VBO,4.842222,52.310731
Da Costalaan,76,,HS,1182EJ,Amstelveen,Amstelveen,Noord-Holland,VBO,4.842222,52.310731
Da Costalaan,78,,,1182EJ,Amstelveen,Amstelveen,Noord-Holland,VBO,4.842135,52.310727
Talmastraat,1,,,1182EK,Amstelveen,Amstelveen,Noord-Holland,VBO,4.846277,52.309643
Talmastraat,3,,,1182EK,Amstelveen,Amstelveen,Noord-Holland,VBO,4.846193,52.309646
Talmastraat,5,,,1182EK,Amstelveen,Amstelveen,Noord-Holland,VBO,4.846114,52.309658
Talmastraat,7,,,1182EK,Amstelveen,Amstelveen,Noord-Holland,VBO,4.846037,52.309661
Talmastraat,9,,,1182EK,Amstelveen,Amstelveen,Noord-Holland,VBO,4.845960,52.309664
Talmastraat,11,,,1182EK,Amstelveen,Amstelveen,Noord-Holland,VBO,4.845884,52.309666
Talmastraat,13,,,1182EK,Amstelveen,Amstelveen,Noord-Holland,VBO,4.845807,52.309669
Talmastraat,15,,,1182EK,Amstelveen,Amstelveen,Noord-Holland,VBO,4.845731,52.309672
Talmastraat,17,,,1182EK,Amstelveen,Amstelveen,Noord-Holland,VBO,4.845649,52.309665
Talmastraat,19,,,1182EK,Amstelveen,Amstelveen,Noord-Holland,VBO,4.845565,52.309668
Talmastraat,21,,,1182EK,Amstelveen,Amstelveen,Noord-Holland,VBO,4.845186,52.309700
Talmastraat,23,,,1182EK,Amstelveen,Amstelveen,Noord-Holland,VBO,4.845121,52.309725
Talmastraat,25,,,1182EK,Amstelveen,Amstelveen,Noord-Holland,VBO,4.845056,52.309751
Talmastraat,27,,,1182EK,Amstelveen,Amstelveen,Noord-Holland,VBO,4.844991,52.309776
Talmastraat,29,,,1182EK,Amstelveen,Amstelveen,Noord-Holland,VBO,4.844914,52.309795
Talmastraat,31,,,1182EK,Amstelveen,Amstelveen,Noord-Holland,VBO,4.844843,52.309822
Talmastraat,41,,,1182EK,Amstelveen,Amstelveen,Noord-Holland,VBO,4.843964,52.309737
Talmastraat,43,,,1182EK,Amstelveen,Amstelveen,Noord-Holland,VBO,4.843884,52.309740
Talmastraat,45,,,1182EK,Amstelveen,Amstelveen,Noord-Holland,VBO,4.843803,52.309743
Talmastraat,47,,,1182EL,Amstelveen,Amstelveen,Noord-Holland,VBO,4.843584,52.309752
Talmastraat,49,,,1182EL,Amstelveen,Amstelveen,Noord-Holland,VBO,4.843504,52.309755
Talmastraat,51,A,,1182EL,Amstelveen,Amstelveen,Noord-Holland,VBO,4.843355,52.309761
Talmastraat,51,,,1182EL,Amstelveen,Amstelveen,Noord-Holland,VBO,4.843424,52.309758
Talmastraat,53,,,1182EL,Amstelveen,Amstelveen,Noord-Holland,VBO,4.843228,52.309769
Talmastraat,55,,,1182EL,Amstelveen,Amstelveen,Noord-Holland,VBO,4.843146,52.309772
Talmastraat,57,,,1182EL,Amstelveen,Amstelveen,Noord-Holland,VBO,4.843065,52.309775
Talmastraat,59,,,1182EL,Amstelveen,Amstelveen,Noord-Holland,VBO,4.842984,52.309778
Talmastraat,61,,,1182EL,Amstelveen,Amstelveen,Noord-Holland,VBO,4.842902,52.309781
Talmastraat,63,,,1182EL,Amstelveen,Amstelveen,Noord-Holland,VBO,4.842821,52.309784
Talmastraat,65,,,1182EL,Amstelveen,Amstelveen,Noord-Holland,VBO,4.842695,52.309788
Talmastraat,67,,,1182EL,Amstelveen,Amstelveen,Noord-Holland,VBO,4.842610,52.309792
Talmastraat,69,,,1182EL,Amstelveen,Amstelveen,Noord-Holland,VBO,4.842525,52.309795
Talmastraat,71,,,1182EL,Amstelveen,Amstelveen,Noord-Holland,VBO,4.842440,52.309798
Talmastraat,73,,,1182EL,Amstelveen,Amstelveen,Noord-Holland,VBO,4.842355,52.309801
Talmastraat,75,,,1182EL,Amstelveen,Amstelveen,Noord-Holland,VBO,4.842270,52.309804
Talmastraat,2,,,1182EM,Amstelveen,Amstelveen,Noord-Holland,VBO,4.846240,52.309846
Talmastraat,4,,,1182EM,Amstelveen,Amstelveen,Noord-Holland,VBO,4.846164,52.309849
Talmastraat,6,,,1182EM,Amstelveen,Amstelveen,Noord-Holland,VBO,4.846089,52.309852
Talmastraat,8,,,1182EM,Amstelveen,Amstelveen,Noord-Holland,VBO,4.846013,52.309854
Talmastraat,10,,,1182EM,Amstelveen,Amstelveen,Noord-Holland,VBO,4.845926,52.309858
Talmastraat,12,,,1182EM,Amstelveen,Amstelveen,Noord-Holland,VBO,4.845830,52.309857
Talmastraat,14,,,1182EM,Amstelveen,Amstelveen,Noord-Holland,VBO,4.845753,52.309859
Talmastraat,16,,,1182EM,Amstelveen,Amstelveen,Noord-Holland,VBO,4.845677,52.309862
Talmastraat,18,,,1182EM,Amstelveen,Amstelveen,Noord-Holland,VBO,4.845600,52.309865
Talmastraat,20,,,1182EM,Amstelveen,Amstelveen,Noord-Holland,VBO,4.845524,52.309867
Talmastraat,22,,,1182EM,Amstelveen,Amstelveen,Noord-Holland,VBO,4.845447,52.309870
Talmastraat,24,,,1182EM,Amstelveen,Amstelveen,Noord-Holland,VBO,4.845277,52.309893
Talmastraat,26,,,1182EM,Amstelveen,Amstelveen,Noord-Holland,VBO,4.845212,52.309918
Talmastraat,28,,,1182EM,Amstelveen,Amstelveen,Noord-Holland,VBO,4.845147,52.309944
Talmastraat,30,,,1182EM,Amstelveen,Amstelveen,Noord-Holland,VBO,4.845082,52.309969
Talmastraat,34,,,1182EN,Amstelveen,Amstelveen,Noord-Holland,VBO,4.844269,52.310005
Talmastraat,36,,,1182EN,Amstelveen,Amstelveen,Noord-Holland,VBO,4.844183,52.309977
Talmastraat,38,,,1182EN,Amstelveen,Amstelveen,Noord-Holland,VBO,4.844110,52.309955
Talmastraat,40,,,1182EN,Amstelveen,Amstelveen,Noord-Holland,VBO,4.844038,52.309932
Talmastraat,42,,,1182EN,Amstelveen,Amstelveen,Noord-Holland,VBO,4.843849,52.309942
Talmastraat,44,,,1182EN,Amstelveen,Amstelveen,Noord-Holland,VBO,4.843770,52.309945
Talmastraat,46,,,1182EN,Amstelveen,Amstelveen,Noord-Holland,VBO,4.843690,52.309948
Talmastraat,48,,,1182EN,Amstelveen,Amstelveen,Noord-Holland,VBO,4.843610,52.309951
Talmastraat,50,,,1182EN,Amstelveen,Amstelveen,Noord-Holland,VBO,4.843530,52.309954
Talmastraat,52,,,1182EN,Amstelveen,Amstelveen,Noord-Holland,VBO,4.843451,52.309957
Talmastraat,54,,,1182EP,Amstelveen,Amstelveen,Noord-Holland,VBO,4.843371,52.309960
Talmastraat,56,,,1182EP,Amstelveen,Amstelveen,Noord-Holland,VBO,4.843269,52.309951
Talmastraat,58,,,1182EP,Amstelveen,Amstelveen,Noord-Holland,VBO,4.843179,52.309955
Talmastraat,60,,,1182EP,Amstelveen,Amstelveen,Noord-Holland,VBO,4.843097,52.309958
Talmastraat,62,,,1182EP,Amstelveen,Amstelveen,Noord-Holland,VBO,4.843016,52.309961
Talmastraat,64,,,1182EP,Amstelveen,Amstelveen,Noord-Holland,VBO,4.842935,52.309964
Talmastraat,66,,,1182EP,Amstelveen,Amstelveen,Noord-Holland,VBO,4.842854,52.309967
Talmastraat,68,,,1182EP,Amstelveen,Amstelveen,Noord-Holland,VBO,4.842728,52.309971
Talmastraat,70,,,1182EP,Amstelveen,Amstelveen,Noord-Holland,VBO,4.842643,52.309974
Talmastraat,72,,,1182EP,Amstelveen,Amstelveen,Noord-Holland,VBO,4.842559,52.309977
Talmastraat,74,,,1182EP,Amstelveen,Amstelveen,Noord-Holland,VBO,4.842475,52.309980
Talmastraat,76,,,1182EP,Amstelveen,Amstelveen,Noord-Holland,VBO,4.842390,52.309984
Talmastraat,78,,,1182EP,Amstelveen,Amstelveen,Noord-Holland,VBO,4.842306,52.309987
Talmastraat,80,,,1182EP,Amstelveen,Amstelveen,Noord-Holland,VBO,4.842221,52.309990
Wilhelminaplein,1,,,1182ER,Amstelveen,Amstelveen,Noord-Holland,VBO,4.844891,52.309137
Wilhelminaplein,2,,,1182ER,Amstelveen,Amstelveen,Noord-Holland,VBO,4.844822,52.309117
Wilhelminaplein,3,,,1182ER,Amstelveen,Amstelveen,Noord-Holland,VBO,4.844753,52.309096
Wilhelminaplein,4,,,1182ER,Amstelveen,Amstelveen,Noord-Holland,VBO,4.844684,52.309075
Wilhelminaplein,5,,,1182ER,Amstelveen,Amstelveen,Noord-Holland,VBO,4.844615,52.309055
Wilhelminaplein,6,,,1182ER,Amstelveen,Amstelveen,Noord-Holland,VBO,4.844546,52.309034
Wilhelminaplein,7,,,1182ER,Amstelveen,Amstelveen,Noord-Holland,VBO,4.844437,52.308957
Wilhelminaplein,8,,,1182ER,Amstelveen,Amstelveen,Noord-Holland,VBO,4.844391,52.308913
Wilhelminaplein,9,,,1182ER,Amstelveen,Amstelveen,Noord-Holland,VBO,4.844345,52.308870
Wilhelminaplein,10,,,1182ER,Amstelveen,Amstelveen,Noord-Holland,VBO,4.844298,52.308826
Wilhelminaplein,11,,,1182ER,Amstelveen,Amstelveen,Noord-Holland,VBO,4.844159,52.308907
Wilhelminaplein,12,,,1182ER,Amstelveen,Amstelveen,Noord-Holland,VBO,4.844202,52.308949
Wilhelminaplein,13,,,1182ER,Amstelveen,Amstelveen,Noord-Holland,VBO,4.844246,52.308990
Wilhelminaplein,14,,,1182ER,Amstelveen,Amstelveen,Noord-Holland,VBO,4.844308,52.309094
Wilhelminaplein,15,,,1182ER,Amstelveen,Amstelveen,Noord-Holland,VBO,4.844313,52.309143
Wilhelminaplein,16,,,1182ER,Amstelveen,Amstelveen,Noord-Holland,VBO,4.844313,52.309191
Wilhelminaplein,17,,,1182ER,Amstelveen,Amstelveen,Noord-Holland,VBO,4.844317,52.309239
Wilhelminaplein,18,,,1182ER,Amstelveen,Amstelveen,Noord-Holland,VBO,4.844282,52.309313
Wilhelminaplein,19,,,1182ER,Amstelveen,Amstelveen,Noord-Holland,VBO,4.844282,52.309313
Wilhelminaplein,20,,,1182ER,Amstelveen,Amstelveen,Noord-Holland,VBO,4.844282,52.309313
Wilhelminaplein,21,,,1182ER,Amstelveen,Amstelveen,Noord-Holland,VBO,4.844282,52.309313
Wilhelminaplein,22,,,1182ER,Amstelveen,Amstelveen,Noord-Holland,VBO,4.844331,52.309386
Wilhelminaplein,23,,,1182ER,Amstelveen,Amstelveen,Noord-Holland,VBO,4.844336,52.309433
Wilhelminaplein,24,,,1182ER,Amstelveen,Amstelveen,Noord-Holland,VBO,4.844340,52.309481
Wilhelminaplein,25,,,1182ER,Amstelveen,Amstelveen,Noord-Holland,VBO,4.844349,52.309528
Wilhelminaplein,26,,,1182ER,Amstelveen,Amstelveen,Noord-Holland,VBO,4.844305,52.309625
Wilhelminaplein,27,,,1182ER,Amstelveen,Amstelveen,Noord-Holland,VBO,4.844268,52.309670
Wilhelminaplein,28,,,1182ER,Amstelveen,Amstelveen,Noord-Holland,VBO,4.844230,52.309719
Wilhelminaplein,29,,,1182ER,Amstelveen,Amstelveen,Noord-Holland,VBO,4.844390,52.309787
Wilhelminaplein,30,,,1182ER,Amstelveen,Amstelveen,Noord-Holland,VBO,4.844428,52.309740
Wilhelminaplein,31,,,1182ER,Amstelveen,Amstelveen,Noord-Holland,VBO,4.844466,52.309686
Wilhelminaplein,32,,,1182ER,Amstelveen,Amstelveen,Noord-Holland,VBO,4.844466,52.309686
Wilhelminaplein,33,,,1182ER,Amstelveen,Amstelveen,Noord-Holland,VBO,4.844590,52.309564
Wilhelminaplein,34,,,1182ER,Amstelveen,Amstelveen,Noord-Holland,VBO,4.844654,52.309539
Wilhelminaplein,35,,,1182ER,Amstelveen,Amstelveen,Noord-Holland,VBO,4.844719,52.309514
Wilhelminaplein,36,,,1182ER,Amstelveen,Amstelveen,Noord-Holland,VBO,4.844784,52.309488
Wilhelminaplein,37,,,1182ER,Amstelveen,Amstelveen,Noord-Holland,VBO,4.844848,52.309463
Wilhelminaplein,38,,,1182ER,Amstelveen,Amstelveen,Noord-Holland,VBO,4.844913,52.309438
Wilhelminastraat,1,,,1182ES,Amstelveen,Amstelveen,Noord-Holland,VBO,4.846229,52.309128
Wilhelminastraat,3,,,1182ES,Amstelveen,Amstelveen,Noord-Holland,VBO,4.846145,52.309131
Wilhelminastraat,5,,,1182ES,Amstelveen,Amstelveen,Noord-Holland,VBO,4.846061,52.309139
Wilhelminastraat,7,,,1182ES,Amstelveen,Amstelveen,Noord-Holland,VBO,4.845977,52.309142
Wilhelminastraat,9,,,1182ES,Amstelveen,Amstelveen,Noord-Holland,VBO,4.845892,52.309145
Wilhelminastraat,11,,,1182ES,Amstelveen,Amstelveen,Noord-Holland,VBO,4.845808,52.309148
Wilhelminastraat,13,,,1182ES,Amstelveen,Amstelveen,Noord-Holland,VBO,4.845724,52.309151
Wilhelminastraat,15,,,1182ES,Amstelveen,Amstelveen,Noord-Holland,VBO,4.845640,52.309154
Wilhelminastraat,17,,,1182ES,Amstelveen,Amstelveen,Noord-Holland,VBO,4.845555,52.309157
Wilhelminastraat,19,,,1182ES,Amstelveen,Amstelveen,Noord-Holland,VBO,4.845471,52.309159
Wilhelminastraat,21,,,1182ES,Amstelveen,Amstelveen,Noord-Holland,VBO,4.845383,52.309158
Wilhelminastraat,23,,,1182ES,Amstelveen,Amstelveen,Noord-Holland,VBO,4.845301,52.309161
Wilhelminastraat,2,,,1182ET,Amstelveen,Amstelveen,Noord-Holland,VBO,4.846250,52.309351
Wilhelminastraat,4,,,1182ET,Amstelveen,Amstelveen,Noord-Holland,VBO,4.846166,52.309354
Wilhelminastraat,6,,,1182ET,Amstelveen,Amstelveen,Noord-Holland,VBO,4.846081,52.309353
Wilhelminastraat,8,,,1182ET,Amstelveen,Amstelveen,Noord-Holland,VBO,4.845997,52.309356
Wilhelminastraat,10,,,1182ET,Amstelveen,Amstelveen,Noord-Holland,VBO,4.845913,52.309359
Wilhelminastraat,12,,,1182ET,Amstelveen,Amstelveen,Noord-Holland,VBO,4.845828,52.309362
Wilhelminastraat,14,,,1182ET,Amstelveen,Amstelveen,Noord-Holland,VBO,4.845744,52.309365
Wilhelminastraat,16,,,1182ET,Amstelveen,Amstelveen,Noord-Holland,VBO,4.845659,52.309368
Wilhelminastraat,18,,,1182ET,Amstelveen,Amstelveen,Noord-Holland,VBO,4.845575,52.309371
Wilhelminastraat,20,,,1182ET,Amstelveen,Amstelveen,Noord-Holland,VBO,4.845490,52.309374
Wilhelminastraat,22,,,1182ET,Amstelveen,Amstelveen,Noord-Holland,VBO,4.845407,52.309381
Wilhelminastraat,24,,,1182ET,Amstelveen,Amstelveen,Noord-Holland,VBO,4.845323,52.309384
Hovystraat,1,,,1182EV,Amstelveen,Amstelveen,Noord-Holland,VBO,4.843493,52.309098
Hovystraat,3,,,1182EV,Amstelveen,Amstelveen,Noord-Holland,VBO,4.843497,52.309147
Hovystraat,5,,,1182EV,Amstelveen,Amstelveen,Noord-Holland,VBO,4.843502,52.309196
Hovystraat,7,,,1182EV,Amstelveen,Amstelveen,Noord-Holland,VBO,4.843507,52.309245
Hovystraat,9,,,1182EV,Amstelveen,Amstelveen,Noord-Holland,VBO,4.843512,52.309294
Hovystraat,17,,,1182EV,Amstelveen,Amstelveen,Noord-Holland,VBO,4.843520,52.309381
Hovystraat,19,,,1182EV,Amstelveen,Amstelveen,Noord-Holland,VBO,4.843525,52.309430
Hovystraat,21,,,1182EV,Amstelveen,Amstelveen,Noord-Holland,VBO,4.843529,52.309479
Hovystraat,23,,,1182EV,Amstelveen,Amstelveen,Noord-Holland,VBO,4.843534,52.309528
Hovystraat,25,,,1182EV,Amstelveen,Amstelveen,Noord-Holland,VBO,4.843538,52.309577
Hovystraat,2,,,1182EW,Amstelveen,Amstelveen,Noord-Holland,VBO,4.843792,52.309194
Hovystraat,4,,,1182EW,Amstelveen,Amstelveen,Noord-Holland,VBO,4.843872,52.309191
Hovystraat,6,,,1182EW,Amstelveen,Amstelveen,Noord-Holland,VBO,4.843952,52.309189
Hovystraat,8,,,1182EW,Amstelveen,Amstelveen,Noord-Holland,VBO,4.844032,52.309186
Hovystraat,10,,,1182EW,Amstelveen,Amstelveen,Noord-Holland,VBO,4.844046,52.309447
Hovystraat,12,,,1182EW,Amstelveen,Amstelveen,Noord-Holland,VBO,4.843966,52.309450
Hovystraat,14,,,1182EW,Amstelveen,Amstelveen,Noord-Holland,VBO,4.843886,52.309453
Hovystraat,16,,,1182EW,Amstelveen,Amstelveen,Noord-Holland,VBO,4.843806,52.309455
Katerstraat,3,,,1182EX,Amstelveen,Amstelveen,Noord-Holland,VBO,4.846179,52.308615
Katerstraat,5,,,1182EX,Amstelveen,Amstelveen,Noord-Holland,VBO,4.846095,52.308620
Katerstraat,7,,,1182EX,Amstelveen,Amstelveen,Noord-Holland,VBO,4.846012,52.308624
Katerstraat,9,,,1182EX,Amstelveen,Amstelveen,Noord-Holland,VBO,4.845927,52.308627
Katerstraat,11,,,1182EX,Amstelveen,Amstelveen,Noord-Holland,VBO,4.845842,52.308630
Katerstraat,13,,,1182EX,Amstelveen,Amstelveen,Noord-Holland,VBO,4.845758,52.308633
Katerstraat,15,,,1182EX,Amstelveen,Amstelveen,Noord-Holland,VBO,4.845639,52.308637
Katerstraat,17,,,1182EX,Amstelveen,Amstelveen,Noord-Holland,VBO,4.845563,52.308640
Katerstraat,19,,,1182EX,Amstelveen,Amstelveen,Noord-Holland,VBO,4.845486,52.308642
Katerstraat,21,,,1182EX,Amstelveen,Amstelveen,Noord-Holland,VBO,4.845409,52.308645
Katerstraat,23,,,1182EX,Amstelveen,Amstelveen,Noord-Holland,VBO,4.845332,52.308652
Katerstraat,25,,,1182EX,Amstelveen,Amstelveen,Noord-Holland,VBO,4.845155,52.308635
Katerstraat,27,,,1182EX,Amstelveen,Amstelveen,Noord-Holland,VBO,4.845086,52.308615
Katerstraat,29,,,1182EX,Amstelveen,Amstelveen,Noord-Holland,VBO,4.845016,52.308594
Katerstraat,31,,,1182EX,Amstelveen,Amstelveen,Noord-Holland,VBO,4.844947,52.308573
Katerstraat,35,,,1182EX,Amstelveen,Amstelveen,Noord-Holland,VBO,4.844155,52.308604
Katerstraat,37,,,1182EX,Amstelveen,Amstelveen,Noord-Holland,VBO,4.844069,52.308639
Katerstraat,39,,,1182EZ,Amstelveen,Amstelveen,Noord-Holland,VBO,4.843998,52.308668
Katerstraat,41,,,1182EZ,Amstelveen,Amstelveen,Noord-Holland,VBO,4.843932,52.308694
Katerstraat,43,,,1182EZ,Amstelveen,Amstelveen,Noord-Holland,VBO,4.843729,52.308708
Katerstraat,45,,,1182EZ,Amstelveen,Amstelveen,Noord-Holland,VBO,4.843650,52.308711
Katerstraat,47,,,1182EZ,Amstelveen,Amstelveen,Noord-Holland,VBO,4.843570,52.308714
Katerstraat,49,,,1182EZ,Amstelveen,Amstelveen,Noord-Holland,VBO,4.843490,52.308717
Katerstraat,51,,,1182EZ,Amstelveen,Amstelveen,Noord-Holland,VBO,4.843411,52.308720
Katerstraat,53,,,1182EZ,Amstelveen,Amstelveen,Noord-Holland,VBO,4.843331,52.308722
Katerstraat,55,,,1182EZ,Amstelveen,Amstelveen,Noord-Holland,VBO,4.843251,52.308725
Katerstraat,57,,,1182EZ,Amstelveen,Amstelveen,Noord-Holland,VBO,4.843144,52.308744
Katerstraat,59,,,1182EZ,Amstelveen,Amstelveen,Noord-Holland,VBO,4.843063,52.308747
Katerstraat,61,,,1182EZ,Amstelveen,Amstelveen,Noord-Holland,VBO,4.842981,52.308750
Katerstraat,63,,,1182EZ,Amstelveen,Amstelveen,Noord-Holland,VBO,4.842900,52.308753
Katerstraat,65,,,1182EZ,Amstelveen,Amstelveen,Noord-Holland,VBO,4.842777,52.308758
Katerstraat,67,,,1182EZ,Amstelveen,Amstelveen,Noord-Holland,VBO,4.842692,52.308761
Katerstraat,69,,,1182EZ,Amstelveen,Amstelveen,Noord-Holland,VBO,4.842609,52.308764
Katerstraat,71,,,1182EZ,Amstelveen,Amstelveen,Noord-Holland,VBO,4.842528,52.308766
Katerstraat,73,,,1182EZ,Amstelveen,Amstelveen,Noord-Holland,VBO,4.842437,52.308769
Katerstraat,2,,,1182GA,Amstelveen,Amstelveen,Noord-Holland,VBO,4.846200,52.308816
Katerstraat,4,,,1182GA,Amstelveen,Amstelveen,Noord-Holland,VBO,4.846116,52.308819
Katerstraat,6,,,1182GA,Amstelveen,Amstelveen,Noord-Holland,VBO,4.846035,52.308812
Katerstraat,8,,,1182GA,Amstelveen,Amstelveen,Noord-Holland,VBO,4.845958,52.308814
Katerstraat,10,,,1182GA,Amstelveen,Amstelveen,Noord-Holland,VBO,4.845882,52.308817
Katerstraat,12,,,1182GA,Amstelveen,Amstelveen,Noord-Holland,VBO,4.845805,52.308820
Katerstraat,14,,,1182GA,Amstelveen,Amstelveen,Noord-Holland,VBO,4.845728,52.308822
Katerstraat,16,,,1182GA,Amstelveen,Amstelveen,Noord-Holland,VBO,4.845652,52.308825
Katerstraat,18,,,1182GA,Amstelveen,Amstelveen,Noord-Holland,VBO,4.845573,52.308838
Katerstraat,20,,,1182GA,Amstelveen,Amstelveen,Noord-Holland,VBO,4.845488,52.308841
Katerstraat,22,,,1182GA,Amstelveen,Amstelveen,Noord-Holland,VBO,4.845127,52.308841
Katerstraat,24,,,1182GA,Amstelveen,Amstelveen,Noord-Holland,VBO,4.845057,52.308821
Katerstraat,26,,,1182GA,Amstelveen,Amstelveen,Noord-Holland,VBO,4.844988,52.308800
Katerstraat,28,,,1182GA,Amstelveen,Amstelveen,Noord-Holland,VBO,4.844919,52.308779
Katerstraat,30,,,1182GA,Amstelveen,Amstelveen,Noord-Holland,VBO,4.844839,52.308766
Katerstraat,32,,,1182GA,Amstelveen,Amstelveen,Noord-Holland,VBO,4.844763,52.308744
Katerstraat,42,,,1182GA,Amstelveen,Amstelveen,Noord-Holland,VBO,4.843882,52.308903
Katerstraat,44,,,1182GA,Amstelveen,Amstelveen,Noord-Holland,VBO,4.843801,52.308906
Katerstraat,46,,,1182GA,Amstelveen,Amstelveen,Noord-Holland,VBO,4.843721,52.308909
Katerstraat,48,,,1182GB,Amstelveen,Amstelveen,Noord-Holland,VBO,4.843501,52.308917
Katerstraat,50,,,1182GB,Amstelveen,Amstelveen,Noord-Holland,VBO,4.843427,52.308919
Katerstraat,52,A,,1182GB,Amstelveen,Amstelveen,Noord-Holland,VBO,4.843271,52.308925
Katerstraat,52,,,1182GB,Amstelveen,Amstelveen,Noord-Holland,VBO,4.843341,52.308923
Katerstraat,54,,,1182GB,Amstelveen,Amstelveen,Noord-Holland,VBO,4.843159,52.308928
Katerstraat,56,,,1182GB,Amstelveen,Amstelveen,Noord-Holland,VBO,4.843077,52.308931
Katerstraat,58,,,1182GB,Amstelveen,Amstelveen,Noord-Holland,VBO,4.842996,52.308934
Katerstraat,60,,,1182GB,Amstelveen,Amstelveen,Noord-Holland,VBO,4.842915,52.308937
Katerstraat,62,,,1182GB,Amstelveen,Amstelveen,Noord-Holland,VBO,4.842834,52.308939
Katerstraat,64,,,1182GB,Amstelveen,Amstelveen,Noord-Holland,VBO,4.842752,52.308942
Katerstraat,66,,,1182GB,Amstelveen,Amstelveen,Noord-Holland,VBO,4.842631,52.308943
Katerstraat,68,,,1182GB,Amstelveen,Amstelveen,Noord-Holland,VBO,4.842543,52.308946
Katerstraat,70,,,1182GB,Amstelveen,Amstelveen,Noord-Holland,VBO,4.842464,52.308947
Katerstraat,72,,,1182GB,Amstelveen,Amstelveen,Noord-Holland,VBO,4.842377,52.308950
Smeenklaan,1,A,,1182GC,Amstelveen,Amstelveen,Noord-Holland,VBO,4.846088,52.308276
Smeenklaan,1,,,1182GC,Amstelveen,Amstelveen,Noord-Holland,VBO,4.846184,52.308092
Smeenklaan,2,,,1182GC,Amstelveen,Amstelveen,Noord-Holland,VBO,4.846038,52.308053
Smeenklaan,3,,,1182GC,Amstelveen,Amstelveen,Noord-Holland,VBO,4.845937,52.308061
Smeenklaan,4,,,1182GC,Amstelveen,Amstelveen,Noord-Holland,VBO,4.845832,52.308068
Smeenklaan,5,,,1182GC,Amstelveen,Amstelveen,Noord-Holland,VBO,4.845731,52.308075
Smeenklaan,6,,,1182GC,Amstelveen,Amstelveen,Noord-Holland,VBO,4.845628,52.308082
Smeenklaan,7,,,1182GC,Amstelveen,Amstelveen,Noord-Holland,VBO,4.845525,52.308089
Smeenklaan,8,,,1182GC,Amstelveen,Amstelveen,Noord-Holland,VBO,4.845423,52.308097
Smeenklaan,9,,,1182GC,Amstelveen,Amstelveen,Noord-Holland,VBO,4.845320,52.308125
Smeenklaan,10,,,1182GC,Amstelveen,Amstelveen,Noord-Holland,VBO,4.845202,52.308134
Smeenklaan,11,,,1182GC,Amstelveen,Amstelveen,Noord-Holland,VBO,4.845097,52.308140
Smeenklaan,66,,,1182GC,Amstelveen,Amstelveen,Noord-Holland,VBO,4.844719,52.308215
Smeenklaan,67,,,1182GC,Amstelveen,Amstelveen,Noord-Holland,VBO,4.844708,52.308152
Smeenklaan,68,,,1182GC,Amstelveen,Amstelveen,Noord-Holland,VBO,4.844696,52.308087
Smeenklaan,69,,,1182GC,Amstelveen,Amstelveen,Noord-Holland,VBO,4.844684,52.308024
Smeenklaan,70,,,1182GC,Amstelveen,Amstelveen,Noord-Holland,VBO,4.844671,52.307961
Smeenklaan,71,,,1182GC,Amstelveen,Amstelveen,Noord-Holland,VBO,4.844659,52.307899
Smeenklaan,72,,,1182GC,Amstelveen,Amstelveen,Noord-Holland,VBO,4.844422,52.307788
Smeenklaan,73,,,1182GC,Amstelveen,Amstelveen,Noord-Holland,VBO,4.844525,52.307780
Smeenklaan,74,,,1182GC,Amstelveen,Amstelveen,Noord-Holland,VBO,4.844628,52.307773
Smeenklaan,75,,,1182GC,Amstelveen,Amstelveen,Noord-Holland,VBO,4.844729,52.307766
Smeenklaan,76,,,1182GC,Amstelveen,Amstelveen,Noord-Holland,VBO,4.844832,52.307759
Smeenklaan,77,,,1182GC,Amstelveen,Amstelveen,Noord-Holland,VBO,4.844932,52.307752
Smeenklaan,78,,,1182GC,Amstelveen,Amstelveen,Noord-Holland,VBO,4.845031,52.307745
Smeenklaan,79,,,1182GC,Amstelveen,Amstelveen,Noord-Holland,VBO,4.845132,52.307738
Smeenklaan,80,,,1182GC,Amstelveen,Amstelveen,Noord-Holland,VBO,4.845238,52.307730
Smeenklaan,12,,,1182GD,Amstelveen,Amstelveen,Noord-Holland,VBO,4.846009,52.308037
Smeenklaan,13,,,1182GD,Amstelveen,Amstelveen,Noord-Holland,VBO,4.845938,52.308042
Smeenklaan,14,,,1182GD,Amstelveen,Amstelveen,Noord-Holland,VBO,4.845834,52.308049
Smeenklaan,15,,,1182GD,Amstelveen,Amstelveen,Noord-Holland,VBO,4.845732,52.308056
Smeenklaan,16,,,1182GD,Amstelveen,Amstelveen,Noord-Holland,VBO,4.845630,52.308063
Smeenklaan,17,,,1182GD,Amstelveen,Amstelveen,Noord-Holland,VBO,4.845526,52.308070
Smeenklaan,18,,,1182GD,Amstelveen,Amstelveen,Noord-Holland,VBO,4.845425,52.308078
Smeenklaan,19,,,1182GD,Amstelveen,Amstelveen,Noord-Holland,VBO,4.845323,52.308106
Smeenklaan,20,,,1182GD,Amstelveen,Amstelveen,Noord-Holland,VBO,4.845214,52.308114
Smeenklaan,21,,,1182GD,Amstelveen,Amstelveen,Noord-Holland,VBO,4.845127,52.308119
Smeenklaan,22,,,1182GD,Amstelveen,Amstelveen,Noord-Holland,VBO,4.845023,52.308127
Smeenklaan,23,,,1182GD,Amstelveen,Amstelveen,Noord-Holland,VBO,4.844926,52.308134
Smeenklaan,24,,,1182GD,Amstelveen,Amstelveen,Noord-Holland,VBO,4.844648,52.308212
Smeenklaan,25,,,1182GD,Amstelveen,Amstelveen,Noord-Holland,VBO,4.844648,52.308167
Smeenklaan,26,,,1182GD,Amstelveen,Amstelveen,Noord-Holland,VBO,4.844635,52.308102
Smeenklaan,27,,,1182GD,Amstelveen,Amstelveen,Noord-Holland,VBO,4.844622,52.308038
Smeenklaan,28,,,1182GD,Amstelveen,Amstelveen,Noord-Holland,VBO,4.844613,52.307974
Smeenklaan,29,,,1182GD,Amstelveen,Amstelveen,Noord-Holland,VBO,4.844597,52.307922
Smeenklaan,30,,,1182GD,Amstelveen,Amstelveen,Noord-Holland,VBO,4.844429,52.307754
Smeenklaan,31,,,1182GD,Amstelveen,Amstelveen,Noord-Holland,VBO,4.844531,52.307746
Smeenklaan,32,,,1182GD,Amstelveen,Amstelveen,Noord-Holland,VBO,4.844635,52.307740
Smeenklaan,33,,,1182GD,Amstelveen,Amstelveen,Noord-Holland,VBO,4.844737,52.307733
Smeenklaan,34,,,1182GD,Amstelveen,Amstelveen,Noord-Holland,VBO,4.844841,52.307725
Smeenklaan,35,,,1182GD,Amstelveen,Amstelveen,Noord-Holland,VBO,4.844942,52.307718
Smeenklaan,36,,,1182GD,Amstelveen,Amstelveen,Noord-Holland,VBO,4.845039,52.307710
Smeenklaan,37,,,1182GD,Amstelveen,Amstelveen,Noord-Holland,VBO,4.845140,52.307704
Smeenklaan,38,,,1182GD,Amstelveen,Amstelveen,Noord-Holland,VBO,4.845234,52.307693
Smeenklaan,39,,,1182GE,Amstelveen,Amstelveen,Noord-Holland,VBO,4.846010,52.308019
Smeenklaan,40,,,1182GE,Amstelveen,Amstelveen,Noord-Holland,VBO,4.845936,52.308024
Smeenklaan,41,,,1182GE,Amstelveen,Amstelveen,Noord-Holland,VBO,4.845829,52.308032
Smeenklaan,42,,,1182GE,Amstelveen,Amstelveen,Noord-Holland,VBO,4.845729,52.308039
Smeenklaan,43,,,1182GE,Amstelveen,Amstelveen,Noord-Holland,VBO,4.845626,52.308046
Smeenklaan,44,,,1182GE,Amstelveen,Amstelveen,Noord-Holland,VBO,4.845524,52.308053
Smeenklaan,45,,,1182GE,Amstelveen,Amstelveen,Noord-Holland,VBO,4.845422,52.308061
Smeenklaan,46,,,1182GE,Amstelveen,Amstelveen,Noord-Holland,VBO,4.845320,52.308088
Smeenklaan,47,,,1182GE,Amstelveen,Amstelveen,Noord-Holland,VBO,4.845212,52.308097
Smeenklaan,48,,,1182GE,Amstelveen,Amstelveen,Noord-Holland,VBO,4.845123,52.308099
Smeenklaan,49,,,1182GE,Amstelveen,Amstelveen,Noord-Holland,VBO,4.845019,52.308106
Smeenklaan,50,,,1182GE,Amstelveen,Amstelveen,Noord-Holland,VBO,4.844923,52.308110
Smeenklaan,51,,,1182GE,Amstelveen,Amstelveen,Noord-Holland,VBO,4.844687,52.308208
Smeenklaan,52,,,1182GE,Amstelveen,Amstelveen,Noord-Holland,VBO,4.844680,52.308164
Smeenklaan,53,,,1182GE,Amstelveen,Amstelveen,Noord-Holland,VBO,4.844668,52.308099
Smeenklaan,54,,,1182GE,Amstelveen,Amstelveen,Noord-Holland,VBO,4.844655,52.308036
Smeenklaan,55,,,1182GE,Amstelveen,Amstelveen,Noord-Holland,VBO,4.844642,52.307973
Smeenklaan,56,,,1182GE,Amstelveen,Amstelveen,Noord-Holland,VBO,4.844630,52.307920
Smeenklaan,57,,,1182GE,Amstelveen,Amstelveen,Noord-Holland,VBO,4.844435,52.307771
Smeenklaan,58,,,1182GE,Amstelveen,Amstelveen,Noord-Holland,VBO,4.844539,52.307764
Smeenklaan,59,,,1182GE,Amstelveen,Amstelveen,Noord-Holland,VBO,4.844643,52.307757
Smeenklaan,60,,,1182GE,Amstelveen,Amstelveen,Noord-Holland,VBO,4.844742,52.307749
Smeenklaan,61,,,1182GE,Amstelveen,Amstelveen,Noord-Holland,VBO,4.844844,52.307742
Smeenklaan,62,,,1182GE,Amstelveen,Amstelveen,Noord-Holland,VBO,4.844945,52.307735
Smeenklaan,63,,,1182GE,Amstelveen,Amstelveen,Noord-Holland,VBO,4.845044,52.307728
Smeenklaan,64,,,1182GE,Amstelveen,Amstelveen,Noord-Holland,VBO,4.845146,52.307721
Smeenklaan,65,,,1182GE,Amstelveen,Amstelveen,Noord-Holland,VBO,4.845236,52.307710
Smeenklaan,81,,,1182GG,Amstelveen,Amstelveen,Noord-Holland,VBO,4.844326,52.308179
Smeenklaan,82,,,1182GG,Amstelveen,Amstelveen,Noord-Holland,VBO,4.844203,52.308174
Smeenklaan,83,,,1182GG,Amstelveen,Amstelveen,Noord-Holland,VBO,4.844085,52.308169
Smeenklaan,84,,,1182GG,Amstelveen,Amstelveen,Noord-Holland,VBO,4.843962,52.308160
Smeenklaan,85,,,1182GG,Amstelveen,Amstelveen,Noord-Holland,VBO,4.844116,52.307921
Smeenklaan,86,,,1182GG,Amstelveen,Amstelveen,Noord-Holland,VBO,4.844078,52.307853
Smeenklaan,87,,,1182GG,Amstelveen,Amstelveen,Noord-Holland,VBO,4.844035,52.307784
Smeenklaan,88,,,1182GG,Amstelveen,Amstelveen,Noord-Holland,VBO,4.843865,52.307834
Smeenklaan,89,,,1182GG,Amstelveen,Amstelveen,Noord-Holland,VBO,4.843758,52.307859
Smeenklaan,90,,,1182GG,Amstelveen,Amstelveen,Noord-Holland,VBO,4.843641,52.307880
Smeenklaan,91,,,1182GG,Amstelveen,Amstelveen,Noord-Holland,VBO,4.843529,52.307905
Smeenklaan,92,,,1182GG,Amstelveen,Amstelveen,Noord-Holland,VBO,4.843796,52.307972
Smeenklaan,93,,,1182GG,Amstelveen,Amstelveen,Noord-Holland,VBO,4.843792,52.308044
Smeenklaan,94,,,1182GG,Amstelveen,Amstelveen,Noord-Holland,VBO,4.843784,52.308116
Smeenklaan,95,A,,1182GG,Amstelveen,Amstelveen,Noord-Holland,VBO,4.843748,52.308257
Smeenklaan,95,B,,1182GG,Amstelveen,Amstelveen,Noord-Holland,VBO,4.843709,52.308260
Smeenklaan,95,C,,1182GG,Amstelveen,Amstelveen,Noord-Holland,VBO,4.843670,52.308263
Smeenklaan,95,,,1182GG,Amstelveen,Amstelveen,Noord-Holland,VBO,4.843774,52.308189
Smeenklaan,96,A,,1182GG,Amstelveen,Amstelveen,Noord-Holland,VBO,4.843551,52.308271
Smeenklaan,96,B,,1182GG,Amstelveen,Amstelveen,Noord-Holland,VBO,4.843591,52.308268
Smeenklaan,96,C,,1182GG,Amstelveen,Amstelveen,Noord-Holland,VBO,4.843630,52.308266
Smeenklaan,96,,,1182GG,Amstelveen,Amstelveen,Noord-Holland,VBO,4.843457,52.308242
Smeenklaan,97,,,1182GG,Amstelveen,Amstelveen,Noord-Holland,VBO,4.843344,52.308235
Smeenklaan,98,,,1182GG,Amstelveen,Amstelveen,Noord-Holland,VBO,4.843220,52.308232
Smeenklaan,99,,,1182GG,Amstelveen,Amstelveen,Noord-Holland,VBO,4.843100,52.308222
Smeenklaan,100,,,1182GG,Amstelveen,Amstelveen,Noord-Holland,VBO,4.843254,52.307990
Smeenklaan,101,,,1182GG,Amstelveen,Amstelveen,Noord-Holland,VBO,4.843212,52.307925
Smeenklaan,102,,,1182GG,Amstelveen,Amstelveen,Noord-Holland,VBO,4.843179,52.307854
Smeenklaan,103,,,1182GG,Amstelveen,Amstelveen,Noord-Holland,VBO,4.843013,52.307896
Smeenklaan,104,,,1182GG,Amstelveen,Amstelveen,Noord-Holland,VBO,4.842900,52.307918
Smeenklaan,105,,,1182GH,Amstelveen,Amstelveen,Noord-Holland,VBO,4.842788,52.307938
Smeenklaan,106,,,1182GH,Amstelveen,Amstelveen,Noord-Holland,VBO,4.842666,52.307965
Smeenklaan,107,,,1182GH,Amstelveen,Amstelveen,Noord-Holland,VBO,4.842932,52.308038
Smeenklaan,108,,,1182GH,Amstelveen,Amstelveen,Noord-Holland,VBO,4.842920,52.308110
Smeenklaan,109,,,1182GH,Amstelveen,Amstelveen,Noord-Holland,VBO,4.842916,52.308183
Smeenklaan,110,A,,1182GH,Amstelveen,Amstelveen,Noord-Holland,VBO,4.842885,52.308317
Smeenklaan,110,B,,1182GH,Amstelveen,Amstelveen,Noord-Holland,VBO,4.842845,52.308320
Smeenklaan,110,C,,1182GH,Amstelveen,Amstelveen,Noord-Holland,VBO,4.842806,52.308323
Smeenklaan,110,,,1182GH,Amstelveen,Amstelveen,Noord-Holland,VBO,4.842907,52.308257
Smeenklaan,111,A,,1182GH,Amstelveen,Amstelveen,Noord-Holland,VBO,4.842688,52.308331
Smeenklaan,111,B,,1182GH,Amstelveen,Amstelveen,Noord-Holland,VBO,4.842727,52.308328
Smeenklaan,111,C,,1182GH,Amstelveen,Amstelveen,Noord-Holland,VBO,4.842767,52.308326
Smeenklaan,111,,,1182GH,Amstelveen,Amstelveen,Noord-Holland,VBO,4.842604,52.308305
Smeenklaan,112,,,1182GH,Amstelveen,Amstelveen,Noord-Holland,VBO,4.842486,52.308298
Smeenklaan,113,,,1182GH,Amstelveen,Amstelveen,Noord-Holland,VBO,4.842363,52.308294
Smeenklaan,114,,,1182GH,Amstelveen,Amstelveen,Noord-Holland,VBO,4.842247,52.308284
Smeenklaan,115,,,1182GH,Amstelveen,Amstelveen,Noord-Holland,VBO,4.842387,52.308053
Smeenklaan,116,,,1182GH,Amstelveen,Amstelveen,Noord-Holland,VBO,4.842345,52.307984
Smeenklaan,117,,,1182GH,Amstelveen,Amstelveen,Noord-Holland,VBO,4.842313,52.307914
Smeenklaan,118,,,1182GH,Amstelveen,Amstelveen,Noord-Holland,VBO,4.842144,52.307960
Smeenklaan,119,,,1182GH,Amstelveen,Amstelveen,Noord-Holland,VBO,4.842031,52.307982
Smeenklaan,120,,,1182GH,Amstelveen,Amstelveen,Noord-Holland,VBO,4.841920,52.308005
Smeenklaan,121,,,1182GH,Amstelveen,Amstelveen,Noord-Holland,VBO,4.842075,52.308100
Smeenklaan,122,,,1182GH,Amstelveen,Amstelveen,Noord-Holland,VBO,4.842066,52.308172
Smeenklaan,123,,,1182GH,Amstelveen,Amstelveen,Noord-Holland,VBO,4.842056,52.308246
Smeenklaan,124,,,1182GH,Amstelveen,Amstelveen,Noord-Holland,VBO,4.842045,52.308319
Parklaan,2,,,1182GJ,Amstelveen,Amstelveen,Noord-Holland,VBO,4.847323,52.305596
Parklaan,3,,,1182GJ,Amstelveen,Amstelveen,Noord-Holland,VBO,4.847501,52.305346
Parklaan,4,,,1182GJ,Amstelveen,Amstelveen,Noord-Holland,VBO,4.847875,52.305278
Parklaan,5,,,1182GJ,Amstelveen,Amstelveen,Noord-Holland,VBO,4.848046,52.305175
Parklaan,6,,,1182GJ,Amstelveen,Amstelveen,Noord-Holland,VBO,4.848264,52.305101
Parklaan,7,,,1182GJ,Amstelveen,Amstelveen,Noord-Holland,VBO,4.848360,52.305100
Parklaan,8,,,1182GJ,Amstelveen,Amstelveen,Noord-Holland,VBO,4.848640,52.305098
Parklaan,9,,,1182GK,Amstelveen,Amstelveen,Noord-Holland,VBO,4.849153,52.305157
Parklaan,10,,,1182GK,Amstelveen,Amstelveen,Noord-Holland,VBO,4.849324,52.305183
Parklaan,11,,,1182GK,Amstelveen,Amstelveen,Noord-Holland,VBO,4.849420,52.305181
Parklaan,12,,,1182GK,Amstelveen,Amstelveen,Noord-Holland,VBO,4.849636,52.305186
Parklaan,13,,,1182GK,Amstelveen,Amstelveen,Noord-Holland,VBO,4.849935,52.305159
Parklaan,14,,,1182GK,Amstelveen,Amstelveen,Noord-Holland,VBO,4.849933,52.305107
Parklaan,15,,,1182GK,Amstelveen,Amstelveen,Noord-Holland,VBO,4.849925,52.304949
Parklaan,16,,,1182GK,Amstelveen,Amstelveen,Noord-Holland,VBO,4.849922,52.304892
Parklaan,17,,,1182GK,Amstelveen,Amstelveen,Noord-Holland,VBO,4.849919,52.304835
Parklaan,18,,,1182GK,Amstelveen,Amstelveen,Noord-Holland,VBO,4.849906,52.304656
Parklaan,19,,,1182GK,Amstelveen,Amstelveen,Noord-Holland,VBO,4.849899,52.304550
Bolwerk,1,,,1182GL,Amstelveen,Amstelveen,Noord-Holland,VBO,4.841219,52.305397
Bolwerk,4,,,1182GL,Amstelveen,Amstelveen,Noord-Holland,VBO,4.846165,52.305634
Bolwerk,6,,,1182GL,Amstelveen,Amstelveen,Noord-Holland,VBO,4.845684,52.305619
Dr. Schaepmanlaan,1,,,1182GM,Amstelveen,Amstelveen,Noord-Holland,VBO,4.848637,52.304304
Dr. Schaepmanlaan,2,,,1182GM,Amstelveen,Amstelveen,Noord-Holland,VBO,4.849004,52.304243
Dr. Schaepmanlaan,3,,,1182GM,Amstelveen,Amstelveen,Noord-Holland,VBO,4.848666,52.304364
Dr. Schaepmanlaan,4,,,1182GM,Amstelveen,Amstelveen,Noord-Holland,VBO,4.849202,52.304444
Dr. Schaepmanlaan,5,,,1182GM,Amstelveen,Amstelveen,Noord-Holland,VBO,4.848059,52.304447
Dr. Schaepmanlaan,7,A,,1182GM,Amstelveen,Amstelveen,Noord-Holland,VBO,4.847715,52.304702
Dr. Schaepmanlaan,7,,,1182GM,Amstelveen,Amstelveen,Noord-Holland,VBO,4.848617,52.304659
Dr. Schaepmanlaan,9,,,1182GM,Amstelveen,Amstelveen,Noord-Holland,VBO,4.848712,52.304905
Dr. Schaepmanlaan,10,,,1182GM,Amstelveen,Amstelveen,Noord-Holland,VBO,4.849062,52.304690
Dr. Schaepmanlaan,12,,,1182GM,Amstelveen,Amstelveen,Noord-Holland,VBO,4.849080,52.304835
Amsterdamseweg,51,,,1182GP,Amstelveen,Amstelveen,Noord-Holland,VBO,4.846386,52.305832
Amsterdamseweg,53,,,1182GP,Amstelveen,Amstelveen,Noord-Holland,VBO,4.844917,52.305388
Amsterdamseweg,55,,,1182GP,Amstelveen,Amstelveen,Noord-Holland,VBO,4.842740,52.306814
Amsterdamseweg,61,,,1182GP,Amstelveen,Amstelveen,Noord-Holland,VBO,4.845819,52.306642
Amsterdamseweg,63,,,1182GP,Amstelveen,Amstelveen,Noord-Holland,VBO,4.845977,52.306639
Amsterdamseweg,65,,,1182GP,Amstelveen,Amstelveen,Noord-Holland,VBO,4.846132,52.306636
Amsterdamseweg,71,A,,1182GP,Amstelveen,Amstelveen,Noord-Holland,VBO,4.846258,52.306938
Amsterdamseweg,71,,,1182GP,Amstelveen,Amstelveen,Noord-Holland,VBO,4.846340,52.306865
Amsterdamseweg,73,A,,1182GP,Amstelveen,Amstelveen,Noord-Holland,VBO,4.846346,52.307057
Amsterdamseweg,73,,,1182GP,Amstelveen,Amstelveen,Noord-Holland,VBO,4.846357,52.307090
Amsterdamseweg,75,A,,1182GP,Amstelveen,Amstelveen,Noord-Holland,VBO,4.846369,52.307213
Amsterdamseweg,75,B,,1182GP,Amstelveen,Amstelveen,Noord-Holland,VBO,4.846372,52.307266
Amsterdamseweg,75,,,1182GP,Amstelveen,Amstelveen,Noord-Holland,VBO,4.846364,52.307155
Amsterdamseweg,79,,,1182GP,Amstelveen,Amstelveen,Noord-Holland,VBO,4.846462,52.307375
Amsterdamseweg,81,,,1182GP,Amstelveen,Amstelveen,Noord-Holland,VBO,4.846471,52.307421
Amsterdamseweg,83,,,1182GP,Amstelveen,Amstelveen,Noord-Holland,VBO,4.846479,52.307467
Amsterdamseweg,85,,,1182GR,Amstelveen,Amstelveen,Noord-Holland,VBO,4.846085,52.307539
Amsterdamseweg,87,,,1182GR,Amstelveen,Amstelveen,Noord-Holland,VBO,4.846492,52.307601
Amsterdamseweg,99,,,1182GR,Amstelveen,Amstelveen,Noord-Holland,VBO,4.846564,52.307776
Amsterdamseweg,117,,,1182GR,Amstelveen,Amstelveen,Noord-Holland,VBO,4.846541,52.308351
Amsterdamseweg,119,,,1182GR,Amstelveen,Amstelveen,Noord-Holland,VBO,4.846525,52.308412
Amsterdamseweg,121,,,1182GR,Amstelveen,Amstelveen,Noord-Holland,VBO,4.846527,52.308530
Amsterdamseweg,123,,,1182GR,Amstelveen,Amstelveen,Noord-Holland,VBO,4.846533,52.308608
Amsterdamseweg,127,,,1182GS,Amstelveen,Amstelveen,Noord-Holland,VBO,4.846516,52.308819
Amsterdamseweg,129,A,,1182GS,Amstelveen,Amstelveen,Noord-Holland,VBO,4.846518,52.308916
Amsterdamseweg,129,,,1182GS,Amstelveen,Amstelveen,Noord-Holland,VBO,4.846516,52.308864
Amsterdamseweg,131,,,1182GS,Amstelveen,Amstelveen,Noord-Holland,VBO,4.846524,52.308968
Amsterdamseweg,133,,,1182GS,Amstelveen,Amstelveen,Noord-Holland,VBO,4.846514,52.309020
Amsterdamseweg,135,,,1182GS,Amstelveen,Amstelveen,Noord-Holland,VBO,4.846519,52.309072
Amsterdamseweg,137,,,1182GS,Amstelveen,Amstelveen,Noord-Holland,VBO,4.846549,52.309395
Amsterdamseweg,139,A,,1182GS,Amstelveen,Amstelveen,Noord-Holland,VBO,4.846558,52.309498
Amsterdamseweg,139,,,1182GS,Amstelveen,Amstelveen,Noord-Holland,VBO,4.846553,52.309446
Amsterdamseweg,141,,,1182GS,Amstelveen,Amstelveen,Noord-Holland,VBO,4.846563,52.309550
Amsterdamseweg,143,,,1182GS,Amstelveen,Amstelveen,Noord-Holland,VBO,4.846568,52.309602
Amsterdamseweg,145,,,1182GS,Amstelveen,Amstelveen,Noord-Holland,VBO,4.846573,52.309654
Amsterdamseweg,147,A,,1182GT,Amstelveen,Amstelveen,Noord-Holland,VBO,4.846482,52.309819
Amsterdamseweg,147,,,1182GT,Amstelveen,Amstelveen,Noord-Holland,VBO,4.846563,52.309835
Amsterdamseweg,149,,,1182GT,Amstelveen,Amstelveen,Noord-Holland,VBO,4.846556,52.309881
Amsterdamseweg,151,,,1182GT,Amstelveen,Amstelveen,Noord-Holland,VBO,4.846561,52.309927
Amsterdamseweg,153,A,,1182GT,Amstelveen,Amstelveen,Noord-Holland,VBO,4.846494,52.309971
Amsterdamseweg,153,B,,1182GT,Amstelveen,Amstelveen,Noord-Holland,VBO,4.846530,52.309970
Amsterdamseweg,153,C,,1182GT,Amstelveen,Amstelveen,Noord-Holland,VBO,4.846567,52.309970
Amsterdamseweg,155,,,1182GT,Amstelveen,Amstelveen,Noord-Holland,VBO,4.846570,52.310020
Amsterdamseweg,157,,,1182GT,Amstelveen,Amstelveen,Noord-Holland,VBO,4.846544,52.310124
Amsterdamseweg,159,,,1182GT,Amstelveen,Amstelveen,Noord-Holland,VBO,4.846550,52.310183
Amsterdamseweg,161,,,1182GT,Amstelveen,Amstelveen,Noord-Holland,VBO,4.846556,52.310242
Amsterdamseweg,163,A,,1182GT,Amstelveen,Amstelveen,Noord-Holland,VBO,4.846510,52.310303
Amsterdamseweg,163,,,1182GT,Amstelveen,Amstelveen,Noord-Holland,VBO,4.846561,52.310292
Amsterdamseweg,165,,,1182GT,Amstelveen,Amstelveen,Noord-Holland,VBO,4.846561,52.310352
Amsterdamseweg,171,,,1182GT,Amstelveen,Amstelveen,Noord-Holland,VBO,4.846551,52.310607
Amsterdamseweg,173,,,1182GV,Amstelveen,Amstelveen,Noord-Holland,VBO,4.846557,52.310663
Amsterdamseweg,175,A,,1182GV,Amstelveen,Amstelveen,Noord-Holland,VBO,4.846529,52.310719
Amsterdamseweg,175,,,1182GV,Amstelveen,Amstelveen,Noord-Holland,VBO,4.846562,52.310717
Amsterdamseweg,177,A,,1182GV,Amstelveen,Amstelveen,Noord-Holland,VBO,4.846527,52.310773
Amsterdamseweg,177,,,1182GV,Amstelveen,Amstelveen,Noord-Holland,VBO,4.846567,52.310771
Amsterdamseweg,179,A,,1182GV,Amstelveen,Amstelveen,Noord-Holland,VBO,4.846164,52.310778
Amsterdamseweg,179,B,,1182GV,Amstelveen,Amstelveen,Noord-Holland,VBO,4.846087,52.310780
Amsterdamseweg,179,C,,1182GV,Amstelveen,Amstelveen,Noord-Holland,VBO,4.846024,52.310780
Amsterdamseweg,179,D,,1182GV,Amstelveen,Amstelveen,Noord-Holland,VBO,4.845980,52.310782
Amsterdamseweg,179,E,,1182GV,Amstelveen,Amstelveen,Noord-Holland,VBO,4.845936,52.310782
Amsterdamseweg,179,F,,1182GV,Amstelveen,Amstelveen,Noord-Holland,VBO,4.845892,52.310784
Amsterdamseweg,179,G,,1182GV,Amstelveen,Amstelveen,Noord-Holland,VBO,4.845848,52.310787
Amsterdamseweg,179,H,,1182GV,Amstelveen,Amstelveen,Noord-Holland,VBO,4.845804,52.310789
Amsterdamseweg,179,K,,1182GV,Amstelveen,Amstelveen,Noord-Holland,VBO,4.845737,52.310793
Amsterdamseweg,179,L,,1182GV,Amstelveen,Amstelveen,Noord-Holland,VBO,4.845672,52.310794
Amsterdamseweg,179,M,,1182GV,Amstelveen,Amstelveen,Noord-Holland,VBO,4.845628,52.310798
Amsterdamseweg,179,N,,1182GV,Amstelveen,Amstelveen,Noord-Holland,VBO,4.845424,52.310864
Amsterdamseweg,179,P,,1182GV,Amstelveen,Amstelveen,Noord-Holland,VBO,4.845686,52.310940
Amsterdamseweg,179,R,,1182GV,Amstelveen,Amstelveen,Noord-Holland,VBO,4.845750,52.310937
Amsterdamseweg,179,S,,1182GV,Amstelveen,Amstelveen,Noord-Holland,VBO,4.845892,52.310932
Amsterdamseweg,179,T,,1182GV,Amstelveen,Amstelveen,Noord-Holland,VBO,4.846058,52.310925
Amsterdamseweg,179,V,,1182GV,Amstelveen,Amstelveen,Noord-Holland,VBO,4.846153,52.310922
Amsterdamseweg,179,,,1182GV,Amstelveen,Amstelveen,Noord-Holland,VBO,4.846573,52.310825
Amsterdamseweg,181,,,1182GV,Amstelveen,Amstelveen,Noord-Holland,VBO,4.846584,52.310908
Amsterdamseweg,183,,,1182GV,Amstelveen,Amstelveen,Noord-Holland,VBO,4.846589,52.310965
Amsterdamseweg,185,,,1182GV,Amstelveen,Amstelveen,Noord-Holland,VBO,4.846595,52.311024
Amsterdamseweg,187,,,1182GV,Amstelveen,Amstelveen,Noord-Holland,VBO,4.846550,52.311091
Amsterdamseweg,189,,,1182GV,Amstelveen,Amstelveen,Noord-Holland,VBO,4.846597,52.311090
Amsterdamseweg,191,,,1182GV,Amstelveen,Amstelveen,Noord-Holland,VBO,4.846606,52.311146
Amsterdamseweg,193,,,1182GW,Amstelveen,Amstelveen,Noord-Holland,VBO,4.846633,52.311419
Amsterdamseweg,199,,,1182GW,Amstelveen,Amstelveen,Noord-Holland,VBO,4.846647,52.311570
Amsterdamseweg,201,,,1182GW,Amstelveen,Amstelveen,Noord-Holland,VBO,4.846655,52.311633
Amsterdamseweg,203,,,1182GW,Amstelveen,Amstelveen,Noord-Holland,VBO,4.846661,52.311686
Amsterdamseweg,205,,,1182GW,Amstelveen,Amstelveen,Noord-Holland,VBO,4.846666,52.311737
Amsterdamseweg,207,,,1182GW,Amstelveen,Amstelveen,Noord-Holland,VBO,4.846675,52.311806
Amsterdamseweg,209,A,,1182GW,Amstelveen,Amstelveen,Noord-Holland,VBO,4.845443,52.312119
Amsterdamseweg,209,B,,1182GW,Amstelveen,Amstelveen,Noord-Holland,VBO,4.845532,52.312320
Amsterdamseweg,209,C,,1182GW,Amstelveen,Amstelveen,Noord-Holland,VBO,4.845730,52.312184
Amsterdamseweg,209,,,1182GW,Amstelveen,Amstelveen,Noord-Holland,VBO,4.846373,52.312157
Amsterdamseweg,211,,,1182GW,Amstelveen,Amstelveen,Noord-Holland,VBO,4.846622,52.312494
Amsterdamseweg,213,,,1182GW,Amstelveen,Amstelveen,Noord-Holland,VBO,4.846629,52.312551
Amsterdamseweg,215,,,1182GW,Amstelveen,Amstelveen,Noord-Holland,VBO,4.846636,52.312607
Amsterdamseweg,217,,,1182GW,Amstelveen,Amstelveen,Noord-Holland,VBO,4.846649,52.312714
Amsterdamseweg,219,,,1182GW,Amstelveen,Amstelveen,Noord-Holland,VBO,4.846656,52.312771
Amsterdamseweg,221,,,1182GX,Amstelveen,Amstelveen,Noord-Holland,VBO,4.846664,52.312828
Amsterdamseweg,223,,,1182GX,Amstelveen,Amstelveen,Noord-Holland,VBO,4.846670,52.312939
Amsterdamseweg,225,,,1182GX,Amstelveen,Amstelveen,Noord-Holland,VBO,4.846671,52.313002
Amsterdamseweg,227,,,1182GX,Amstelveen,Amstelveen,Noord-Holland,VBO,4.846672,52.313110
Amsterdamseweg,229,,,1182GX,Amstelveen,Amstelveen,Noord-Holland,VBO,4.846673,52.313173
Amsterdamseweg,231,,,1182GX,Amstelveen,Amstelveen,Noord-Holland,VBO,4.846653,52.313391
Amsterdamseweg,233,,,1182GX,Amstelveen,Amstelveen,Noord-Holland,VBO,4.846655,52.313450
Amsterdamseweg,235,,,1182GX,Amstelveen,Amstelveen,Noord-Holland,VBO,4.846616,52.313553
Amsterdamseweg,237,,,1182GX,Amstelveen,Amstelveen,Noord-Holland,VBO,4.846616,52.313611
Amsterdamseweg,239,,,1182GX,Amstelveen,Amstelveen,Noord-Holland,VBO,4.846680,52.313732
Amsterdamseweg,241,,,1182GX,Amstelveen,Amstelveen,Noord-Holland,VBO,4.846681,52.313790
Amsterdamseweg,243,,,1182GZ,Amstelveen,Amstelveen,Noord-Holland,VBO,4.846682,52.313848
Amsterdamseweg,247,,,1182GZ,Amstelveen,Amstelveen,Noord-Holland,VBO,4.844533,52.313297
Amsterdamseweg,251,,,1182GZ,Amstelveen,Amstelveen,Noord-Holland,VBO,4.843727,52.313764
Amsterdamseweg,253,,,1182GZ,Amstelveen,Amstelveen,Noord-Holland,VBO,4.843724,52.313687
Amsterdamseweg,271,,,1182GZ,Amstelveen,Amstelveen,Noord-Holland,VBO,4.845559,52.314195
Amsterdamseweg,273,,,1182GZ,Amstelveen,Amstelveen,Noord-Holland,VBO,4.846482,52.314223
Amsterdamseweg,277,,,1182GZ,Amstelveen,Amstelveen,Noord-Holland,VBO,4.846666,52.314568
Amsterdamseweg,279,,,1182GZ,Amstelveen,Amstelveen,Noord-Holland,VBO,4.846672,52.314755
Amsterdamseweg,281,,,1182GZ,Amstelveen,Amstelveen,Noord-Holland,VBO,4.846678,52.314983
Amsterdamseweg,283,,,1182GZ,Amstelveen,Amstelveen,Noord-Holland,VBO,4.846665,52.315275
Amsterdamseweg,285,,,1182HA,Amstelveen,Amstelveen,Noord-Holland,VBO,4.847912,52.315826
Amsterdamseweg,287,,,1182HA,Amstelveen,Amstelveen,Noord-Holland,VBO,4.847912,52.315826
Amsterdamseweg,289,,,1182HA,Amstelveen,Amstelveen,Noord-Holland,VBO,4.847912,52.315826
Amsterdamseweg,291,,,1182HA,Amstelveen,Amstelveen,Noord-Holland,VBO,4.847912,52.315826
Amsterdamseweg,293,,,1182HA,Amstelveen,Amstelveen,Noord-Holland,VBO,4.847912,52.315826
Amsterdamseweg,295,,,1182HA,Amstelveen,Amstelveen,Noord-Holland,VBO,4.847912,52.315826
Amsterdamseweg,297,,,1182HA,Amstelveen,Amstelveen,Noord-Holland,VBO,4.847912,52.315826
Amsterdamseweg,311,,,1182HA,Amstelveen,Amstelveen,Noord-Holland,VBO,4.849634,52.315635
Amsterdamseweg,351,,BV,1182HB,Amstelveen,Amstelveen,Noord-Holland,VBO,4.849850,52.315636
Amsterdamseweg,351,,HS,1182HB,Amstelveen,Amstelveen,Noord-Holland,VBO,4.849850,52.315636
Amsterdamseweg,353,A,,1182HB,Amstelveen,Amstelveen,Noord-Holland,VBO,4.849945,52.315664
Amsterdamseweg,353,,,1182HB,Amstelveen,Amstelveen,Noord-Holland,VBO,4.849946,52.315641
Amsterdamseweg,355,,,1182HB,Amstelveen,Amstelveen,Noord-Holland,VBO,4.850042,52.315645
Amsterdamseweg,357,,BV,1182HB,Amstelveen,Amstelveen,Noord-Holland,VBO,4.850137,52.315650
Amsterdamseweg,357,,HS,1182HB,Amstelveen,Amstelveen,Noord-Holland,VBO,4.850137,52.315650
Amsterdamseweg,359,,BV,1182HB,Amstelveen,Amstelveen,Noord-Holland,VBO,4.850233,52.315655
Amsterdamseweg,359,,HS,1182HB,Amstelveen,Amstelveen,Noord-Holland,VBO,4.850233,52.315655
Amsterdamseweg,361,,,1182HB,Amstelveen,Amstelveen,Noord-Holland,VBO,4.850329,52.315659
Amsterdamseweg,363,,BV,1182HB,Amstelveen,Amstelveen,Noord-Holland,VBO,4.850579,52.315668
Amsterdamseweg,363,,HS,1182HB,Amstelveen,Amstelveen,Noord-Holland,VBO,4.850579,52.315668
Amsterdamseweg,365,,,1182HB,Amstelveen,Amstelveen,Noord-Holland,VBO,4.850673,52.315679
Amsterdamseweg,367,,BV,1182HB,Amstelveen,Amstelveen,Noord-Holland,VBO,4.850769,52.315679
Amsterdamseweg,367,,HS,1182HB,Amstelveen,Amstelveen,Noord-Holland,VBO,4.850769,52.315679
Amsterdamseweg,369,A,,1182HB,Amstelveen,Amstelveen,Noord-Holland,VBO,4.850862,52.315705
Amsterdamseweg,369,,,1182HB,Amstelveen,Amstelveen,Noord-Holland,VBO,4.850866,52.315684
Amsterdamseweg,371,,,1182HC,Amstelveen,Amstelveen,Noord-Holland,VBO,4.852009,52.315702
Amsterdamseweg,373,,,1182HC,Amstelveen,Amstelveen,Noord-Holland,VBO,4.852103,52.315697
Amsterdamseweg,375,,,1182HC,Amstelveen,Amstelveen,Noord-Holland,VBO,4.852256,52.315688
Amsterdamseweg,377,,,1182HC,Amstelveen,Amstelveen,Noord-Holland,VBO,4.852350,52.315683
Amsterdamseweg,379,,,1182HC,Amstelveen,Amstelveen,Noord-Holland,VBO,4.852503,52.315674
Amsterdamseweg,381,,,1182HC,Amstelveen,Amstelveen,Noord-Holland,VBO,4.852597,52.315667
Amsterdamseweg,383,,,1182HC,Amstelveen,Amstelveen,Noord-Holland,VBO,4.852734,52.315657
Amsterdamseweg,385,,,1182HC,Amstelveen,Amstelveen,Noord-Holland,VBO,4.852828,52.315651
Amsterdamseweg,387,,,1182HC,Amstelveen,Amstelveen,Noord-Holland,VBO,4.852965,52.315641
Amsterdamseweg,389,,,1182HC,Amstelveen,Amstelveen,Noord-Holland,VBO,4.853059,52.315635
Amsterdamseweg,391,,,1182HC,Amstelveen,Amstelveen,Noord-Holland,VBO,4.854067,52.315620
Amsterdamseweg,393,,,1182HC,Amstelveen,Amstelveen,Noord-Holland,VBO,4.854162,52.315621
Amsterdamseweg,395,,,1182HC,Amstelveen,Amstelveen,Noord-Holland,VBO,4.854315,52.315622
Amsterdamseweg,397,,,1182HC,Amstelveen,Amstelveen,Noord-Holland,VBO,4.854410,52.315623
Amsterdamseweg,399,,,1182HC,Amstelveen,Amstelveen,Noord-Holland,VBO,4.854655,52.315640
Amsterdamseweg,401,,,1182HC,Amstelveen,Amstelveen,Noord-Holland,VBO,4.854727,52.315676
Amsterdamseweg,403,,,1182HC,Amstelveen,Amstelveen,Noord-Holland,VBO,4.854800,52.315711
Amsterdamseweg,405,,,1182HC,Amstelveen,Amstelveen,Noord-Holland,VBO,4.854866,52.315742
Amsterdamseweg,20,,,1182HD,Amstelveen,Amstelveen,Noord-Holland,VBO,4.847021,52.304490
Amsterdamseweg,22,,,1182HD,Amstelveen,Amstelveen,Noord-Holland,VBO,4.847035,52.304658
Amsterdamseweg,24,,,1182HD,Amstelveen,Amstelveen,Noord-Holland,VBO,4.846977,52.305048
Amsterdamseweg,26,,,1182HD,Amstelveen,Amstelveen,Noord-Holland,VBO,4.846913,52.305180
Amsterdamseweg,28,,,1182HD,Amstelveen,Amstelveen,Noord-Holland,VBO,4.846920,52.305290
Amsterdamseweg,30,,,1182HD,Amstelveen,Amstelveen,Noord-Holland,VBO,4.846993,52.305351
Amsterdamseweg,40,,,1182HE,Amstelveen,Amstelveen,Noord-Holland,VBO,4.846928,52.305661
Amsterdamseweg,42,,,1182HE,Amstelveen,Amstelveen,Noord-Holland,VBO,4.846922,52.305795
Amsterdamseweg,44,,,1182HE,Amstelveen,Amstelveen,Noord-Holland,VBO,4.846922,52.305948
Amsterdamseweg,60,,,1182HE,Amstelveen,Amstelveen,Noord-Holland,VBO,4.846950,52.306583
Amsterdamseweg,62,,,1182HE,Amstelveen,Amstelveen,Noord-Holland,VBO,4.846952,52.306641
Amsterdamseweg,64,,,1182HE,Amstelveen,Amstelveen,Noord-Holland,VBO,4.846956,52.306751
Amsterdamseweg,66,,,1182HE,Amstelveen,Amstelveen,Noord-Holland,VBO,4.846959,52.306810
Amsterdamseweg,80,,,1182HE,Amstelveen,Amstelveen,Noord-Holland,VBO,4.847001,52.307058
Amsterdamseweg,82,,,1182HG,Amstelveen,Amstelveen,Noord-Holland,VBO,4.847131,52.307284
Amsterdamseweg,86,,,1182HG,Amstelveen,Amstelveen,Noord-Holland,VBO,4.847068,52.307439
Amsterdamseweg,88,,,1182HG,Amstelveen,Amstelveen,Noord-Holland,VBO,4.847073,52.307500
Amsterdamseweg,90,,,1182HG,Amstelveen,Amstelveen,Noord-Holland,VBO,4.847078,52.307561
Amsterdamseweg,92,,,1182HG,Amstelveen,Amstelveen,Noord-Holland,VBO,4.847082,52.307622
Amsterdamseweg,94,,,1182HG,Amstelveen,Amstelveen,Noord-Holland,VBO,4.847087,52.307683
Amsterdamseweg,96,,,1182HG,Amstelveen,Amstelveen,Noord-Holland,VBO,4.847092,52.307744
Amsterdamseweg,100,,,1182HG,Amstelveen,Amstelveen,Noord-Holland,VBO,4.847105,52.308015
Amsterdamseweg,102,,,1182HG,Amstelveen,Amstelveen,Noord-Holland,VBO,4.847113,52.308067
Amsterdamseweg,104,A,,1182HG,Amstelveen,Amstelveen,Noord-Holland,VBO,4.847275,52.308248
Amsterdamseweg,104,B,,1182HG,Amstelveen,Amstelveen,Noord-Holland,VBO,4.847183,52.308176
Amsterdamseweg,104,,,1182HG,Amstelveen,Amstelveen,Noord-Holland,VBO,4.847127,52.308180
Amsterdamseweg,106,,,1182HH,Amstelveen,Amstelveen,Noord-Holland,VBO,4.847069,52.308547
Amsterdamseweg,108,,,1182HH,Amstelveen,Amstelveen,Noord-Holland,VBO,4.847073,52.308655
Amsterdamseweg,110,,,1182HH,Amstelveen,Amstelveen,Noord-Holland,VBO,4.847073,52.308655
Amsterdamseweg,114,,,1182HH,Amstelveen,Amstelveen,Noord-Holland,VBO,4.847063,52.308832
Amsterdamseweg,116,A,,1182HH,Amstelveen,Amstelveen,Noord-Holland,VBO,4.847131,52.309060
Amsterdamseweg,116,,,1182HH,Amstelveen,Amstelveen,Noord-Holland,VBO,4.847055,52.309001
Amsterdamseweg,118,,,1182HH,Amstelveen,Amstelveen,Noord-Holland,VBO,4.847047,52.309145
Amsterdamseweg,120,,,1182HH,Amstelveen,Amstelveen,Noord-Holland,VBO,4.847048,52.309184
Amsterdamseweg,122,,,1182HH,Amstelveen,Amstelveen,Noord-Holland,VBO,4.847048,52.309224
Amsterdamseweg,124,A,,1182HH,Amstelveen,Amstelveen,Noord-Holland,VBO,4.847385,52.309255
Amsterdamseweg,124,,,1182HH,Amstelveen,Amstelveen,Noord-Holland,VBO,4.847048,52.309263
Amsterdamseweg,126,,,1182HH,Amstelveen,Amstelveen,Noord-Holland,VBO,4.847047,52.309392
Amsterdamseweg,128,A,,1182HH,Amstelveen,Amstelveen,Noord-Holland,VBO,4.847298,52.309536
Amsterdamseweg,128,B,,1182HH,Amstelveen,Amstelveen,Noord-Holland,VBO,4.847100,52.309515
Amsterdamseweg,128,,,1182HH,Amstelveen,Amstelveen,Noord-Holland,VBO,4.847052,52.309509
Amsterdamseweg,130,,,1182HJ,Amstelveen,Amstelveen,Noord-Holland,VBO,4.847052,52.309570
Amsterdamseweg,132,A,,1182HJ,Amstelveen,Amstelveen,Noord-Holland,VBO,4.847111,52.309631
Amsterdamseweg,132,,,1182HJ,Amstelveen,Amstelveen,Noord-Holland,VBO,4.847068,52.309631
Amsterdamseweg,134,A,,1182HJ,Amstelveen,Amstelveen,Noord-Holland,VBO,4.847068,52.309686
Amsterdamseweg,136,,,1182HJ,Amstelveen,Amstelveen,Noord-Holland,VBO,4.847054,52.309832
Amsterdamseweg,138,,,1182HJ,Amstelveen,Amstelveen,Noord-Holland,VBO,4.847057,52.309970
Amsterdamseweg,148,A,,1182HJ,Amstelveen,Amstelveen,Noord-Holland,VBO,4.847095,52.310275
Amsterdamseweg,148,,,1182HJ,Amstelveen,Amstelveen,Noord-Holland,VBO,4.847055,52.310269
Amsterdamseweg,150,A,,1182HJ,Amstelveen,Amstelveen,Noord-Holland,VBO,4.847093,52.310344
Amsterdamseweg,150,,,1182HJ,Amstelveen,Amstelveen,Noord-Holland,VBO,4.847055,52.310330
Amsterdamseweg,152,A,,1182HJ,Amstelveen,Amstelveen,Noord-Holland,VBO,4.847099,52.310403
Amsterdamseweg,152,,,1182HJ,Amstelveen,Amstelveen,Noord-Holland,VBO,4.847060,52.310401
Amsterdamseweg,154,A,,1182HJ,Amstelveen,Amstelveen,Noord-Holland,VBO,4.847094,52.310458
Amsterdamseweg,154,,,1182HJ,Amstelveen,Amstelveen,Noord-Holland,VBO,4.847053,52.310455
Amsterdamseweg,156,A,,1182HK,Amstelveen,Amstelveen,Noord-Holland,VBO,4.847094,52.310514
Amsterdamseweg,156,,,1182HK,Amstelveen,Amstelveen,Noord-Holland,VBO,4.847053,52.310514
Amsterdamseweg,158,A,,1182HK,Amstelveen,Amstelveen,Noord-Holland,VBO,4.847343,52.310608
Amsterdamseweg,158,B,,1182HK,Amstelveen,Amstelveen,Noord-Holland,VBO,4.847093,52.310576
Amsterdamseweg,158,,,1182HK,Amstelveen,Amstelveen,Noord-Holland,VBO,4.847052,52.310575
Amsterdamseweg,160,A,,1182HK,Amstelveen,Amstelveen,Noord-Holland,VBO,4.847098,52.310697
Amsterdamseweg,160,,,1182HK,Amstelveen,Amstelveen,Noord-Holland,VBO,4.847061,52.310698
Amsterdamseweg,162,,,1182HK,Amstelveen,Amstelveen,Noord-Holland,VBO,4.847056,52.310824
Amsterdamseweg,164,A,,1182HK,Amstelveen,Amstelveen,Noord-Holland,VBO,4.847151,52.310771
Amsterdamseweg,164,,,1182HK,Amstelveen,Amstelveen,Noord-Holland,VBO,4.847150,52.310782
Amsterdamseweg,166,A,,1182HK,Amstelveen,Amstelveen,Noord-Holland,VBO,4.847135,52.310907
Amsterdamseweg,166,B,,1182HK,Amstelveen,Amstelveen,Noord-Holland,VBO,4.847262,52.310902
Amsterdamseweg,166,,SOUS,1182HK,Amstelveen,Amstelveen,Noord-Holland,VBO,4.847065,52.310914
Amsterdamseweg,166,,,1182HK,Amstelveen,Amstelveen,Noord-Holland,VBO,4.847065,52.310914
Amsterdamseweg,168,,,1182HK,Amstelveen,Amstelveen,Noord-Holland,VBO,4.847070,52.310959
Amsterdamseweg,170,,,1182HK,Amstelveen,Amstelveen,Noord-Holland,VBO,4.847074,52.311004
Amsterdamseweg,172,,,1182HK,Amstelveen,Amstelveen,Noord-Holland,VBO,4.847079,52.311049
Amsterdamseweg,174,A,,1182HK,Amstelveen,Amstelveen,Noord-Holland,VBO,4.847121,52.311093
Amsterdamseweg,174,B,,1182HK,Amstelveen,Amstelveen,Noord-Holland,VBO,4.847063,52.311095
Amsterdamseweg,174,C,,1182HK,Amstelveen,Amstelveen,Noord-Holland,VBO,4.847147,52.311092
Amsterdamseweg,174,D,,1182HK,Amstelveen,Amstelveen,Noord-Holland,VBO,4.847040,52.311094
Amsterdamseweg,174,E,,1182HK,Amstelveen,Amstelveen,Noord-Holland,VBO,4.847457,52.311080
Amsterdamseweg,174,G,,1182HK,Amstelveen,Amstelveen,Noord-Holland,VBO,4.847237,52.311094
Amsterdamseweg,174,H,,1182HK,Amstelveen,Amstelveen,Noord-Holland,VBO,4.847335,52.311064
Amsterdamseweg,174,K,,1182HK,Amstelveen,Amstelveen,Noord-Holland,VBO,4.847433,52.311073
Amsterdamseweg,174,L,,1182HK,Amstelveen,Amstelveen,Noord-Holland,VBO,4.847191,52.311100
Amsterdamseweg,174,,,1182HK,Amstelveen,Amstelveen,Noord-Holland,VBO,4.847083,52.311094
Amsterdamseweg,176,,,1182HL,Amstelveen,Amstelveen,Noord-Holland,VBO,4.847086,52.311264
Amsterdamseweg,178,,,1182HL,Amstelveen,Amstelveen,Noord-Holland,VBO,4.847092,52.311312
Amsterdamseweg,180,,,1182HL,Amstelveen,Amstelveen,Noord-Holland,VBO,4.847095,52.311346
Amsterdamseweg,182,,,1182HL,Amstelveen,Amstelveen,Noord-Holland,VBO,4.847099,52.311393
Amsterdamseweg,184,A,,1182HL,Amstelveen,Amstelveen,Noord-Holland,VBO,4.847141,52.311442
Amsterdamseweg,184,B,,1182HL,Amstelveen,Amstelveen,Noord-Holland,VBO,4.847136,52.311388
Amsterdamseweg,184,C,,1182HL,Amstelveen,Amstelveen,Noord-Holland,VBO,4.847182,52.311441
Amsterdamseweg,184,D,,1182HL,Amstelveen,Amstelveen,Noord-Holland,VBO,4.847176,52.311386
Amsterdamseweg,184,,,1182HL,Amstelveen,Amstelveen,Noord-Holland,VBO,4.847099,52.311393
Amsterdamseweg,186,,,1182HL,Amstelveen,Amstelveen,Noord-Holland,VBO,4.847110,52.311496
Amsterdamseweg,188,,,1182HL,Amstelveen,Amstelveen,Noord-Holland,VBO,4.847568,52.311625
Amsterdamseweg,194,A,,1182HL,Amstelveen,Amstelveen,Noord-Holland,VBO,4.847179,52.311901
Amsterdamseweg,194,,,1182HL,Amstelveen,Amstelveen,Noord-Holland,VBO,4.847133,52.311901
Amsterdamseweg,196,A,,1182HL,Amstelveen,Amstelveen,Noord-Holland,VBO,4.847178,52.311952
Amsterdamseweg,196,,,1182HL,Amstelveen,Amstelveen,Noord-Holland,VBO,4.847133,52.311952
Amsterdamseweg,198,A,,1182HL,Amstelveen,Amstelveen,Noord-Holland,VBO,4.847176,52.312003
Amsterdamseweg,198,,,1182HL,Amstelveen,Amstelveen,Noord-Holland,VBO,4.847130,52.312003
Amsterdamseweg,200,A,,1182HL,Amstelveen,Amstelveen,Noord-Holland,VBO,4.847175,52.312054
Amsterdamseweg,200,,,1182HL,Amstelveen,Amstelveen,Noord-Holland,VBO,4.847132,52.312056
Amsterdamseweg,202,,,1182HL,Amstelveen,Amstelveen,Noord-Holland,VBO,4.847130,52.312121
Amsterdamseweg,204,A,,1182HL,Amstelveen,Amstelveen,Noord-Holland,VBO,4.850301,52.311907
Amsterdamseweg,204,,,1182HL,Amstelveen,Amstelveen,Noord-Holland,VBO,4.849040,52.312730
Amsterdamseweg,206,,,1182HL,Amstelveen,Amstelveen,Noord-Holland,VBO,4.851680,52.312866
Amsterdamseweg,212,,,1182HM,Amstelveen,Amstelveen,Noord-Holland,VBO,4.847242,52.313659
Amsterdamseweg,214,,,1182HM,Amstelveen,Amstelveen,Noord-Holland,VBO,4.847243,52.313712
Amsterdamseweg,216,,,1182HM,Amstelveen,Amstelveen,Noord-Holland,VBO,4.847244,52.313793
Amsterdamseweg,218,,,1182HM,Amstelveen,Amstelveen,Noord-Holland,VBO,4.847245,52.313846
Amsterdamseweg,220,,,1182HM,Amstelveen,Amstelveen,Noord-Holland,VBO,4.847220,52.313928
Amsterdamseweg,222,,,1182HM,Amstelveen,Amstelveen,Noord-Holland,VBO,4.847215,52.313979
Amsterdamseweg,224,,,1182HM,Amstelveen,Amstelveen,Noord-Holland,VBO,4.847209,52.314031
Amsterdamseweg,226,,,1182HM,Amstelveen,Amstelveen,Noord-Holland,VBO,4.847203,52.314083
Amsterdamseweg,228,,,1182HM,Amstelveen,Amstelveen,Noord-Holland,VBO,4.847193,52.314170
Amsterdamseweg,230,,,1182HM,Amstelveen,Amstelveen,Noord-Holland,VBO,4.847187,52.314222
Amsterdamseweg,232,,,1182HM,Amstelveen,Amstelveen,Noord-Holland,VBO,4.847181,52.314273
Amsterdamseweg,234,,,1182HM,Amstelveen,Amstelveen,Noord-Holland,VBO,4.847174,52.314325
Amsterdamseweg,236,,,1182HM,Amstelveen,Amstelveen,Noord-Holland,VBO,4.847204,52.314439
Amsterdamseweg,238,,,1182HM,Amstelveen,Amstelveen,Noord-Holland,VBO,4.847210,52.314484
Amsterdamseweg,240,,,1182HM,Amstelveen,Amstelveen,Noord-Holland,VBO,4.847274,52.314541
Amsterdamseweg,242,,,1182HM,Amstelveen,Amstelveen,Noord-Holland,VBO,4.847334,52.314597
Amsterdamseweg,244,,,1182HN,Amstelveen,Amstelveen,Noord-Holland,VBO,4.847342,52.314650
Amsterdamseweg,252,A,,1182HN,Amstelveen,Amstelveen,Noord-Holland,VBO,4.847608,52.315094
Amsterdamseweg,252,B,,1182HN,Amstelveen,Amstelveen,Noord-Holland,VBO,4.847649,52.315093
Amsterdamseweg,252,C,,1182HN,Amstelveen,Amstelveen,Noord-Holland,VBO,4.847700,52.315058
Amsterdamseweg,252,D,,1182HN,Amstelveen,Amstelveen,Noord-Holland,VBO,4.847693,52.314968
Amsterdamseweg,252,,,1182HN,Amstelveen,Amstelveen,Noord-Holland,VBO,4.847300,52.315103
Amsterdamseweg,254,,,1182HN,Amstelveen,Amstelveen,Noord-Holland,VBO,4.847304,52.315159
Amsterdamseweg,256,,,1182HN,Amstelveen,Amstelveen,Noord-Holland,VBO,4.847308,52.315216
Amsterdamseweg,258,,,1182HN,Amstelveen,Amstelveen,Noord-Holland,VBO,4.847348,52.315302
Amsterdamseweg,260,,,1182HN,Amstelveen,Amstelveen,Noord-Holland,VBO,4.847394,52.315352
Amsterdamseweg,262,,,1182HN,Amstelveen,Amstelveen,Noord-Holland,VBO,4.847566,52.315456
Amsterdamseweg,264,,,1182HN,Amstelveen,Amstelveen,Noord-Holland,VBO,4.847652,52.315472
Amsterdamseweg,266,,,1182HN,Amstelveen,Amstelveen,Noord-Holland,VBO,4.847917,52.315478
Amsterdamseweg,268,,,1182HN,Amstelveen,Amstelveen,Noord-Holland,VBO,4.847996,52.315479
Amsterdamseweg,270,,,1182HN,Amstelveen,Amstelveen,Noord-Holland,VBO,4.848215,52.315482
Amsterdamseweg,272,,,1182HN,Amstelveen,Amstelveen,Noord-Holland,VBO,4.848278,52.315478
Amsterdamseweg,274,,,1182HN,Amstelveen,Amstelveen,Noord-Holland,VBO,4.848484,52.315457
Amsterdamseweg,276,,,1182HN,Amstelveen,Amstelveen,Noord-Holland,VBO,4.848546,52.315449
Amsterdamseweg,278,,,1182HN,Amstelveen,Amstelveen,Noord-Holland,VBO,4.848730,52.315424
Amsterdamseweg,280,,,1182HN,Amstelveen,Amstelveen,Noord-Holland,VBO,4.848822,52.315411
Amsterdamseweg,282,,,1182HN,Amstelveen,Amstelveen,Noord-Holland,VBO,4.849010,52.315389
Amsterdamseweg,284,,,1182HN,Amstelveen,Amstelveen,Noord-Holland,VBO,4.849102,52.315378
Amsterdamseweg,286,,,1182HN,Amstelveen,Amstelveen,Noord-Holland,VBO,4.849572,52.315329
Amsterdamseweg,288,,,1182HN,Amstelveen,Amstelveen,Noord-Holland,VBO,4.849843,52.315307
Amsterdamseweg,290,,,1182HP,Amstelveen,Amstelveen,Noord-Holland,VBO,4.849921,52.315309
Amsterdamseweg,292,,,1182HP,Amstelveen,Amstelveen,Noord-Holland,VBO,4.850000,52.315312
Amsterdamseweg,294,,,1182HP,Amstelveen,Amstelveen,Noord-Holland,VBO,4.850078,52.315315
Amsterdamseweg,296,,,1182HP,Amstelveen,Amstelveen,Noord-Holland,VBO,4.850157,52.315318
Amsterdamseweg,298,,,1182HP,Amstelveen,Amstelveen,Noord-Holland,VBO,4.850235,52.315321
Amsterdamseweg,300,,,1182HP,Amstelveen,Amstelveen,Noord-Holland,VBO,4.850399,52.315336
Amsterdamseweg,302,,,1182HP,Amstelveen,Amstelveen,Noord-Holland,VBO,4.850487,52.315341
Amsterdamseweg,306,,,1182HP,Amstelveen,Amstelveen,Noord-Holland,VBO,4.850641,52.315351
Amsterdamseweg,308,,,1182HP,Amstelveen,Amstelveen,Noord-Holland,VBO,4.850785,52.315360
Amsterdamseweg,310,,,1182HP,Amstelveen,Amstelveen,Noord-Holland,VBO,4.850873,52.315365
Amsterdamseweg,312,,,1182HP,Amstelveen,Amstelveen,Noord-Holland,VBO,4.850960,52.315370
Amsterdamseweg,314,,,1182HP,Amstelveen,Amstelveen,Noord-Holland,VBO,4.851048,52.315375
Amsterdamseweg,316,,,1182HR,Amstelveen,Amstelveen,Noord-Holland,VBO,4.851200,52.315385
Amsterdamseweg,318,,,1182HR,Amstelveen,Amstelveen,Noord-Holland,VBO,4.851279,52.315389
Amsterdamseweg,320,,,1182HR,Amstelveen,Amstelveen,Noord-Holland,VBO,4.851358,52.315393
Amsterdamseweg,322,,,1182HR,Amstelveen,Amstelveen,Noord-Holland,VBO,4.851436,52.315398
Amsterdamseweg,324,,,1182HR,Amstelveen,Amstelveen,Noord-Holland,VBO,4.851599,52.315409
Amsterdamseweg,326,,,1182HR,Amstelveen,Amstelveen,Noord-Holland,VBO,4.851676,52.315410
Amsterdamseweg,328,,,1182HR,Amstelveen,Amstelveen,Noord-Holland,VBO,4.851754,52.315410
Amsterdamseweg,330,,,1182HR,Amstelveen,Amstelveen,Noord-Holland,VBO,4.851832,52.315411
Amsterdamseweg,332,,,1182HR,Amstelveen,Amstelveen,Noord-Holland,VBO,4.852021,52.315383
Amsterdamseweg,336,,,1182HR,Amstelveen,Amstelveen,Noord-Holland,VBO,4.852419,52.315388
Amsterdamseweg,338,,,1182HR,Amstelveen,Amstelveen,Noord-Holland,VBO,4.852504,52.315382
Amsterdamseweg,340,,,1182HR,Amstelveen,Amstelveen,Noord-Holland,VBO,4.852575,52.315378
Amsterdamseweg,342,,,1182HR,Amstelveen,Amstelveen,Noord-Holland,VBO,4.852747,52.315356
Amsterdamseweg,344,,,1182HR,Amstelveen,Amstelveen,Noord-Holland,VBO,4.852833,52.315352
Amsterdamseweg,346,,,1182HR,Amstelveen,Amstelveen,Noord-Holland,VBO,4.852918,52.315348
Amsterdamseweg,348,,,1182HR,Amstelveen,Amstelveen,Noord-Holland,VBO,4.853003,52.315344
Amsterdamseweg,350,,,1182HS,Amstelveen,Amstelveen,Noord-Holland,VBO,4.853155,52.315337
Amsterdamseweg,352,,,1182HS,Amstelveen,Amstelveen,Noord-Holland,VBO,4.853246,52.315334
Amsterdamseweg,354,,,1182HS,Amstelveen,Amstelveen,Noord-Holland,VBO,4.853337,52.315331
Amsterdamseweg,356,,,1182HS,Amstelveen,Amstelveen,Noord-Holland,VBO,4.853424,52.315328
Amsterdamseweg,358,,,1182HS,Amstelveen,Amstelveen,Noord-Holland,VBO,4.853685,52.315323
Amsterdamseweg,360,,,1182HS,Amstelveen,Amstelveen,Noord-Holland,VBO,4.853774,52.315324
Amsterdamseweg,362,,,1182HS,Amstelveen,Amstelveen,Noord-Holland,VBO,4.853862,52.315325
Amsterdamseweg,364,,,1182HS,Amstelveen,Amstelveen,Noord-Holland,VBO,4.854014,52.315330
Amsterdamseweg,366,,,1182HS,Amstelveen,Amstelveen,Noord-Holland,VBO,4.854105,52.315332
Amsterdamseweg,368,,,1182HS,Amstelveen,Amstelveen,Noord-Holland,VBO,4.854197,52.315333
Amsterdamseweg,370,,,1182HS,Amstelveen,Amstelveen,Noord-Holland,VBO,4.854278,52.315334
Amsterdamseweg,372,,,1182HS,Amstelveen,Amstelveen,Noord-Holland,VBO,4.854423,52.315335
Amsterdamseweg,374,,,1182HS,Amstelveen,Amstelveen,Noord-Holland,VBO,4.854511,52.315336
Amsterdamseweg,376,,,1182HS,Amstelveen,Amstelveen,Noord-Holland,VBO,4.854599,52.315337
Amsterdamseweg,378,,,1182HS,Amstelveen,Amstelveen,Noord-Holland,VBO,4.854689,52.315338
Amsterdamseweg,380,A,,1182HS,Amstelveen,Amstelveen,Noord-Holland,VBO,4.855788,52.315299
Amsterdamseweg,380,,,1182HS,Amstelveen,Amstelveen,Noord-Holland,VBO,4.855062,52.315298
Smedemanstraat,2,,,1182HT,Amstelveen,Amstelveen,Noord-Holland,VBO,4.848487,52.303358
Smedemanstraat,4,,,1182HT,Amstelveen,Amstelveen,Noord-Holland,VBO,4.848511,52.303409
Smedemanplein,1,,,1182HV,Amstelveen,Amstelveen,Noord-Holland,VBO,4.847489,52.302940
Smedemanplein,2,,,1182HV,Amstelveen,Amstelveen,Noord-Holland,VBO,4.847515,52.302996
Smedemanplein,3,,,1182HV,Amstelveen,Amstelveen,Noord-Holland,VBO,4.847541,52.303051
Smedemanplein,4,,,1182HV,Amstelveen,Amstelveen,Noord-Holland,VBO,4.847567,52.303107
Smedemanplein,5,A,,1182HV,Amstelveen,Amstelveen,Noord-Holland,VBO,4.847615,52.303230
Smedemanplein,5,,,1182HV,Amstelveen,Amstelveen,Noord-Holland,VBO,4.847594,52.303162
Smedemanplein,6,,,1182HV,Amstelveen,Amstelveen,Noord-Holland,VBO,4.848039,52.303429
Smedemanplein,7,,,1182HV,Amstelveen,Amstelveen,Noord-Holland,VBO,4.848130,52.303413
Smedemanplein,8,,,1182HV,Amstelveen,Amstelveen,Noord-Holland,VBO,4.848221,52.303397
Smedemanplein,9,A,,1182HV,Amstelveen,Amstelveen,Noord-Holland,VBO,4.848503,52.303301
Smedemanplein,9,B,,1182HV,Amstelveen,Amstelveen,Noord-Holland,VBO,4.848543,52.303288
Smedemanplein,9,C,,1182HV,Amstelveen,Amstelveen,Noord-Holland,VBO,4.848589,52.303286
Smedemanplein,9,,,1182HV,Amstelveen,Amstelveen,Noord-Holland,VBO,4.848500,52.303298
Smedemanplein,10,A,,1182HV,Amstelveen,Amstelveen,Noord-Holland,VBO,4.848469,52.303220
Smedemanplein,10,B,,1182HV,Amstelveen,Amstelveen,Noord-Holland,VBO,4.848514,52.303230
Smedemanplein,10,C,,1182HV,Amstelveen,Amstelveen,Noord-Holland,VBO,4.848547,52.303207
Smedemanplein,10,,,1182HV,Amstelveen,Amstelveen,Noord-Holland,VBO,4.848465,52.303233
Smedemanplein,11,,,1182HV,Amstelveen,Amstelveen,Noord-Holland,VBO,4.848409,52.303197
Smedemanplein,12,,,1182HV,Amstelveen,Amstelveen,Noord-Holland,VBO,4.848373,52.303125
Smedemanplein,13,,,1182HV,Amstelveen,Amstelveen,Noord-Holland,VBO,4.848355,52.303095
Smedemanplein,14,,,1182HV,Amstelveen,Amstelveen,Noord-Holland,VBO,4.848333,52.303036
Smedemanplein,15,,,1182HV,Amstelveen,Amstelveen,Noord-Holland,VBO,4.848302,52.302973
Smedemanplein,16,,,1182HV,Amstelveen,Amstelveen,Noord-Holland,VBO,4.848312,52.302805
Smedemanplein,17,,,1182HV,Amstelveen,Amstelveen,Noord-Holland,VBO,4.848221,52.302821
Smedemanplein,18,,,1182HV,Amstelveen,Amstelveen,Noord-Holland,VBO,4.848130,52.302838
Smedemanplein,19,,,1182HV,Amstelveen,Amstelveen,Noord-Holland,VBO,4.848040,52.302860
Smedemanplein,20,,,1182HV,Amstelveen,Amstelveen,Noord-Holland,VBO,4.847949,52.302870
Smedemanplein,21,,,1182HV,Amstelveen,Amstelveen,Noord-Holland,VBO,4.847859,52.302886
Smedemanplein,22,,,1182HV,Amstelveen,Amstelveen,Noord-Holland,VBO,4.847768,52.302903
Roemerdorpstraat,1,,,1182HW,Amstelveen,Amstelveen,Noord-Holland,VBO,4.848441,52.302587
Roemerdorpstraat,2,,,1182HW,Amstelveen,Amstelveen,Noord-Holland,VBO,4.848490,52.302623
Roemerdorpstraat,3,,,1182HW,Amstelveen,Amstelveen,Noord-Holland,VBO,4.848539,52.302660
Roemerdorpstraat,4,,,1182HW,Amstelveen,Amstelveen,Noord-Holland,VBO,4.848588,52.302696
Roemerdorpstraat,5,,,1182HW,Amstelveen,Amstelveen,Noord-Holland,VBO,4.848638,52.302732
Roemerdorpstraat,6,,,1182HW,Amstelveen,Amstelveen,Noord-Holland,VBO,4.848713,52.302849
Roemerdorpstraat,7,,,1182HW,Amstelveen,Amstelveen,Noord-Holland,VBO,4.848772,52.302887
Roemerdorpstraat,8,,,1182HW,Amstelveen,Amstelveen,Noord-Holland,VBO,4.848793,52.302932
Roemerdorpstraat,9,,,1182HW,Amstelveen,Amstelveen,Noord-Holland,VBO,4.848814,52.302977
Roemerdorpstraat,10,,,1182HW,Amstelveen,Amstelveen,Noord-Holland,VBO,4.848794,52.303023
Roemerdorpstraat,11,,,1182HW,Amstelveen,Amstelveen,Noord-Holland,VBO,4.848847,52.303122
Middeldorpstraat,1,,,1182HX,Amstelveen,Amstelveen,Noord-Holland,VBO,4.846743,52.303494
Middeldorpstraat,3,,,1182HX,Amstelveen,Amstelveen,Noord-Holland,VBO,4.847034,52.303451
Middeldorpstraat,5,A,,1182HX,Amstelveen,Amstelveen,Noord-Holland,VBO,4.847182,52.303272
Middeldorpstraat,5,,,1182HX,Amstelveen,Amstelveen,Noord-Holland,VBO,4.847144,52.303431
Middeldorpstraat,7,,,1182HX,Amstelveen,Amstelveen,Noord-Holland,VBO,4.847379,52.303380
Middeldorpstraat,9,,,1182HX,Amstelveen,Amstelveen,Noord-Holland,VBO,4.847455,52.303365
Middeldorpstraat,11,,,1182HX,Amstelveen,Amstelveen,Noord-Holland,VBO,4.847528,52.303351
Middeldorpstraat,13,,,1182HX,Amstelveen,Amstelveen,Noord-Holland,VBO,4.847614,52.303335
Middeldorpstraat,17,A,,1182HX,Amstelveen,Amstelveen,Noord-Holland,VBO,4.848948,52.303087
Middeldorpstraat,17,,,1182HX,Amstelveen,Amstelveen,Noord-Holland,VBO,4.849014,52.303096
Middeldorpstraat,19,,,1182HX,Amstelveen,Amstelveen,Noord-Holland,VBO,4.849076,52.303059
Middeldorpstraat,21,,,1182HX,Amstelveen,Amstelveen,Noord-Holland,VBO,4.849149,52.303047
Middeldorpstraat,23,,,1182HX,Amstelveen,Amstelveen,Noord-Holland,VBO,4.849222,52.303034
Middeldorpstraat,25,,,1182HX,Amstelveen,Amstelveen,Noord-Holland,VBO,4.849307,52.303044
Middeldorpstraat,2,,,1182HZ,Amstelveen,Amstelveen,Noord-Holland,VBO,4.846771,52.303710
Middeldorpstraat,10,,,1182HZ,Amstelveen,Amstelveen,Noord-Holland,VBO,4.847269,52.303567
Middeldorpstraat,12,,,1182HZ,Amstelveen,Amstelveen,Noord-Holland,VBO,4.847360,52.303550
Middeldorpstraat,14,,,1182HZ,Amstelveen,Amstelveen,Noord-Holland,VBO,4.847451,52.303534
Middeldorpstraat,16,,,1182HZ,Amstelveen,Amstelveen,Noord-Holland,VBO,4.847542,52.303518
Middeldorpstraat,18,,,1182HZ,Amstelveen,Amstelveen,Noord-Holland,VBO,4.847628,52.303503
Middeldorpstraat,20,,,1182HZ,Amstelveen,Amstelveen,Noord-Holland,VBO,4.847724,52.303486
Middeldorpstraat,22,,,1182HZ,Amstelveen,Amstelveen,Noord-Holland,VBO,4.848902,52.303265
Middeldorpstraat,24,,,1182HZ,Amstelveen,Amstelveen,Noord-Holland,VBO,4.848976,52.303252
Middeldorpstraat,26,,,1182HZ,Amstelveen,Amstelveen,Noord-Holland,VBO,4.849049,52.303239
Middeldorpstraat,28,,,1182HZ,Amstelveen,Amstelveen,Noord-Holland,VBO,4.849123,52.303226
Middeldorpstraat,30,,,1182HZ,Amstelveen,Amstelveen,Noord-Holland,VBO,4.849196,52.303213
Middeldorpstraat,32,,,1182HZ,Amstelveen,Amstelveen,Noord-Holland,VBO,4.849270,52.303200
Middeldorpstraat,34,,,1182HZ,Amstelveen,Amstelveen,Noord-Holland,VBO,4.849343,52.303187
Middeldorpstraat,36,,,1182HZ,Amstelveen,Amstelveen,Noord-Holland,VBO,4.849417,52.303173
Dorpsstraat,19,,,1182JA,Amstelveen,Amstelveen,Noord-Holland,VBO,4.846394,52.303091
Dorpsstraat,21,,,1182JA,Amstelveen,Amstelveen,Noord-Holland,VBO,4.846397,52.303002
Dorpsstraat,23,,,1182JA,Amstelveen,Amstelveen,Noord-Holland,VBO,4.846428,52.302832
Dorpsstraat,25,,,1182JA,Amstelveen,Amstelveen,Noord-Holland,VBO,4.846443,52.302728
Dorpsstraat,27,A,,1182JA,Amstelveen,Amstelveen,Noord-Holland,VBO,4.846442,52.302780
Dorpsstraat,27,,,1182JA,Amstelveen,Amstelveen,Noord-Holland,VBO,4.846402,52.302758
Dorpsstraat,29,,,1182JA,Amstelveen,Amstelveen,Noord-Holland,VBO,4.846439,52.302669
Dorpsstraat,31,,,1182JA,Amstelveen,Amstelveen,Noord-Holland,VBO,4.846427,52.302611
Dorpsstraat,33,,,1182JA,Amstelveen,Amstelveen,Noord-Holland,VBO,4.846410,52.302564
Dorpsstraat,35,,,1182JB,Amstelveen,Amstelveen,Noord-Holland,VBO,4.846369,52.302355
Dorpsstraat,43,,,1182JB,Amstelveen,Amstelveen,Noord-Holland,VBO,4.846342,52.302259
Dorpsstraat,45,,,1182JB,Amstelveen,Amstelveen,Noord-Holland,VBO,4.846323,52.302198
Dorpsstraat,47,,,1182JB,Amstelveen,Amstelveen,Noord-Holland,VBO,4.846306,52.302142
Dorpsstraat,49,,,1182JB,Amstelveen,Amstelveen,Noord-Holland,VBO,4.846289,52.302087
Dorpsstraat,51,,,1182JB,Amstelveen,Amstelveen,Noord-Holland,VBO,4.846272,52.302032
Dorpsstraat,53,,,1182JB,Amstelveen,Amstelveen,Noord-Holland,VBO,4.846255,52.301976
Dorpsstraat,55,,,1182JB,Amstelveen,Amstelveen,Noord-Holland,VBO,4.846238,52.301921
Dorpsstraat,57,,,1182JC,Amstelveen,Amstelveen,Noord-Holland,VBO,4.846221,52.301865
Dorpsstraat,63,,,1182JC,Amstelveen,Amstelveen,Noord-Holland,VBO,4.846170,52.301699
Dorpsstraat,65,,,1182JC,Amstelveen,Amstelveen,Noord-Holland,VBO,4.846170,52.301643
Dorpsstraat,75,,,1182JC,Amstelveen,Amstelveen,Noord-Holland,VBO,4.846041,52.301274
Dorpsstraat,2,A,,1182JD,Amstelveen,Amstelveen,Noord-Holland,VBO,4.846771,52.303710
Dorpsstraat,2,B,,1182JD,Amstelveen,Amstelveen,Noord-Holland,VBO,4.846771,52.303710
Dorpsstraat,2,C,,1182JD,Amstelveen,Amstelveen,Noord-Holland,VBO,4.846771,52.303710
Dorpsstraat,2,D,,1182JD,Amstelveen,Amstelveen,Noord-Holland,VBO,4.846771,52.303710
Dorpsstraat,2,E,,1182JD,Amstelveen,Amstelveen,Noord-Holland,VBO,4.846771,52.303710
Dorpsstraat,2,F,,1182JD,Amstelveen,Amstelveen,Noord-Holland,VBO,4.846771,52.303710
Dorpsstraat,2,,,1182JD,Amstelveen,Amstelveen,Noord-Holland,VBO,4.847974,52.303724
Dorpsstraat,4,,,1182JD,Amstelveen,Amstelveen,Noord-Holland,VBO,4.846652,52.303468
Dorpsstraat,6,,,1182JD,Amstelveen,Amstelveen,Noord-Holland,VBO,4.846652,52.303420
Dorpsstraat,8,,,1182JD,Amstelveen,Amstelveen,Noord-Holland,VBO,4.846717,52.303336
Dorpsstraat,10,,,1182JD,Amstelveen,Amstelveen,Noord-Holland,VBO,4.846743,52.303218
Dorpsstraat,12,,,1182JD,Amstelveen,Amstelveen,Noord-Holland,VBO,4.846701,52.303121
Dorpsstraat,24,A,,1182JD,Amstelveen,Amstelveen,Noord-Holland,VBO,4.846891,52.303030
Dorpsstraat,24,,,1182JD,Amstelveen,Amstelveen,Noord-Holland,VBO,4.846737,52.302826
Dorpsstraat,26,,,1182JD,Amstelveen,Amstelveen,Noord-Holland,VBO,4.846882,52.302797
Dorpsstraat,28,,,1182JD,Amstelveen,Amstelveen,Noord-Holland,VBO,4.847016,52.302769
Dorpsstraat,30,,,1182JE,Amstelveen,Amstelveen,Noord-Holland,VBO,4.847149,52.302743
Dorpsstraat,32,,,1182JE,Amstelveen,Amstelveen,Noord-Holland,VBO,4.847350,52.302749
Dorpsstraat,34,,,1182JE,Amstelveen,Amstelveen,Noord-Holland,VBO,4.847712,52.302503
Dorpsstraat,36,,,1182JE,Amstelveen,Amstelveen,Noord-Holland,VBO,4.846992,52.302481
Dorpsstraat,38,,,1182JE,Amstelveen,Amstelveen,Noord-Holland,VBO,4.847414,52.302254
Dorpsstraat,40,,,1182JE,Amstelveen,Amstelveen,Noord-Holland,VBO,4.847260,52.302223
Dorpsstraat,44,,,1182JE,Amstelveen,Amstelveen,Noord-Holland,VBO,4.847176,52.302243
Dorpsstraat,48,,,1182JE,Amstelveen,Amstelveen,Noord-Holland,VBO,4.846847,52.302307
Dorpsstraat,50,,,1182JE,Amstelveen,Amstelveen,Noord-Holland,VBO,4.846701,52.302348
Dorpsstraat,54,,,1182JE,Amstelveen,Amstelveen,Noord-Holland,VBO,4.846581,52.302287
Dorpsstraat,64,A,,1182JE,Amstelveen,Amstelveen,Noord-Holland,VBO,4.846540,52.302137
Dorpsstraat,64,B,,1182JE,Amstelveen,Amstelveen,Noord-Holland,VBO,4.846519,52.302057
Dorpsstraat,64,,,1182JE,Amstelveen,Amstelveen,Noord-Holland,VBO,4.846498,52.302140
Dorpsstraat,66,,,1182JG,Amstelveen,Amstelveen,Noord-Holland,VBO,4.846506,52.302009
Dorpsstraat,68,,,1182JG,Amstelveen,Amstelveen,Noord-Holland,VBO,4.846470,52.302013
Dorpsstraat,70,A,,1182JG,Amstelveen,Amstelveen,Noord-Holland,VBO,4.846447,52.301955
Dorpsstraat,70,,,1182JG,Amstelveen,Amstelveen,Noord-Holland,VBO,4.846440,52.301959
Dorpsstraat,72,,,1182JG,Amstelveen,Amstelveen,Noord-Holland,VBO,4.846448,52.301945
Dorpsstraat,74,,,1182JG,Amstelveen,Amstelveen,Noord-Holland,VBO,4.846414,52.301913
Dorpsstraat,76,,,1182JG,Amstelveen,Amstelveen,Noord-Holland,VBO,4.846403,52.301868
Dorpsstraat,78,,,1182JG,Amstelveen,Amstelveen,Noord-Holland,VBO,4.846372,52.301656
Dorpsstraat,80,,,1182JG,Amstelveen,Amstelveen,Noord-Holland,VBO,4.846356,52.301590
Dorpsstraat,82,,,1182JG,Amstelveen,Amstelveen,Noord-Holland,VBO,4.846352,52.301517
Dorpsstraat,84,,,1182JG,Amstelveen,Amstelveen,Noord-Holland,VBO,4.846343,52.301467
Dorpsstraat,86,,,1182JG,Amstelveen,Amstelveen,Noord-Holland,VBO,4.846335,52.301416
Dorpsstraat,88,,,1182JG,Amstelveen,Amstelveen,Noord-Holland,VBO,4.846322,52.301366
Dorpsstraat,90,,,1182JH,Amstelveen,Amstelveen,Noord-Holland,VBO,4.846307,52.301325
Dorpsstraat,96,,,1182JH,Amstelveen,Amstelveen,Noord-Holland,VBO,4.846249,52.301208
Dorpsstraat,98,A,,1182JH,Amstelveen,Amstelveen,Noord-Holland,VBO,4.846398,52.301137
Dorpsstraat,98,B,,1182JH,Amstelveen,Amstelveen,Noord-Holland,VBO,4.846362,52.301092
Dorpsstraat,98,,,1182JH,Amstelveen,Amstelveen,Noord-Holland,VBO,4.846287,52.301172
Dorpsstraat,100,,,1182JH,Amstelveen,Amstelveen,Noord-Holland,VBO,4.846243,52.301011
Dorpsstraat,102,A,,1182JH,Amstelveen,Amstelveen,Noord-Holland,VBO,4.846225,52.300950
Dorpsstraat,102,,,1182JH,Amstelveen,Amstelveen,Noord-Holland,VBO,4.846178,52.300938
Dorpsstraat,104,A,,1182JH,Amstelveen,Amstelveen,Noord-Holland,VBO,4.846295,52.300779
Dorpsstraat,104,,,1182JH,Amstelveen,Amstelveen,Noord-Holland,VBO,4.846180,52.300861
Dorpsstraat,106,A,,1182JH,Amstelveen,Amstelveen,Noord-Holland,VBO,4.846192,52.300706
Dorpsstraat,106,B,,1182JH,Amstelveen,Amstelveen,Noord-Holland,VBO,4.846378,52.300689
Dorpsstraat,106,C,,1182JH,Amstelveen,Amstelveen,Noord-Holland,VBO,4.846357,52.300602
Dorpsstraat,106,D,,1182JH,Amstelveen,Amstelveen,Noord-Holland,VBO,4.846176,52.300618
Dorpsstraat,106,E,,1182JH,Amstelveen,Amstelveen,Noord-Holland,VBO,4.846229,52.300702
Dorpsstraat,106,F,,1182JH,Amstelveen,Amstelveen,Noord-Holland,VBO,4.846416,52.300685
Dorpsstraat,106,G,,1182JH,Amstelveen,Amstelveen,Noord-Holland,VBO,4.846394,52.300599
Dorpsstraat,106,H,,1182JH,Amstelveen,Amstelveen,Noord-Holland,VBO,4.846213,52.300615
Dorpsstraat,106,J,,1182JH,Amstelveen,Amstelveen,Noord-Holland,VBO,4.846189,52.300663
Dorpsstraat,106,K,,1182JH,Amstelveen,Amstelveen,Noord-Holland,VBO,4.846378,52.300647
Dorpsstraat,106,,,1182JH,Amstelveen,Amstelveen,Noord-Holland,VBO,4.846212,52.300737
Dorpsstraat,108,A,,1182JH,Amstelveen,Amstelveen,Noord-Holland,VBO,4.846133,52.300488
Dorpsstraat,108,B,,1182JH,Amstelveen,Amstelveen,Noord-Holland,VBO,4.846114,52.300416
Dorpsstraat,108,,,1182JH,Amstelveen,Amstelveen,Noord-Holland,VBO,4.846079,52.300461
Badlaan,1,A,,1182JJ,Amstelveen,Amstelveen,Noord-Holland,VBO,4.846328,52.302380
Badlaan,1,B,,1182JJ,Amstelveen,Amstelveen,Noord-Holland,VBO,4.846245,52.302394
Badlaan,1,,BIS,1182JJ,Amstelveen,Amstelveen,Noord-Holland,VBO,4.846057,52.302358
Badlaan,1,,,1182JJ,Amstelveen,Amstelveen,Noord-Holland,VBO,4.846057,52.302424
Badlaan,3,,,1182JJ,Amstelveen,Amstelveen,Noord-Holland,VBO,4.845687,52.302491
Badlaan,5,,,1182JJ,Amstelveen,Amstelveen,Noord-Holland,VBO,4.845600,52.302510
Badlaan,7,,,1182JJ,Amstelveen,Amstelveen,Noord-Holland,VBO,4.845513,52.302530
Badlaan,9,,,1182JJ,Amstelveen,Amstelveen,Noord-Holland,VBO,4.845373,52.302561
Badlaan,11,,,1182JJ,Amstelveen,Amstelveen,Noord-Holland,VBO,4.845284,52.302584
Badlaan,15,,,1182JJ,Amstelveen,Amstelveen,Noord-Holland,VBO,4.845196,52.302601
Badlaan,23,,,1182JJ,Amstelveen,Amstelveen,Noord-Holland,VBO,4.846225,52.303009
Badlaan,25,,,1182JJ,Amstelveen,Amstelveen,Noord-Holland,VBO,4.846225,52.303009
Badlaan,27,,,1182JJ,Amstelveen,Amstelveen,Noord-Holland,VBO,4.846225,52.303009
Badlaan,29,,,1182JJ,Amstelveen,Amstelveen,Noord-Holland,VBO,4.846225,52.303009
Badlaan,31,,,1182JJ,Amstelveen,Amstelveen,Noord-Holland,VBO,4.846225,52.303009
Badlaan,33,,,1182JJ,Amstelveen,Amstelveen,Noord-Holland,VBO,4.846225,52.303009
Badlaan,35,,,1182JJ,Amstelveen,Amstelveen,Noord-Holland,VBO,4.846225,52.303009
Badlaan,37,,,1182JJ,Amstelveen,Amstelveen,Noord-Holland,VBO,4.846225,52.303009
Badlaan,2,A,,1182JK,Amstelveen,Amstelveen,Noord-Holland,VBO,4.846072,52.302605
Badlaan,2,,,1182JK,Amstelveen,Amstelveen,Noord-Holland,VBO,4.846281,52.302553
Badlaan,4,,,1182JK,Amstelveen,Amstelveen,Noord-Holland,VBO,4.845981,52.302625
Badlaan,6,,,1182JK,Amstelveen,Amstelveen,Noord-Holland,VBO,4.845844,52.302670
Badlaan,8,,,1182JK,Amstelveen,Amstelveen,Noord-Holland,VBO,4.845753,52.302690
Badlaan,10,,,1182JK,Amstelveen,Amstelveen,Noord-Holland,VBO,4.845563,52.302742
Badlaan,12,,,1182JK,Amstelveen,Amstelveen,Noord-Holland,VBO,4.845292,52.302796
Badlaan,14,,,1182JK,Amstelveen,Amstelveen,Noord-Holland,VBO,4.845452,52.303020
Badlaan,16,,,1182JK,Amstelveen,Amstelveen,Noord-Holland,VBO,4.845614,52.302987
Badlaan,18,,,1182JK,Amstelveen,Amstelveen,Noord-Holland,VBO,4.845830,52.302937
Badlaan,20,,,1182JK,Amstelveen,Amstelveen,Noord-Holland,VBO,4.845966,52.302914
Badlaan,22,,,1182JK,Amstelveen,Amstelveen,Noord-Holland,VBO,4.846033,52.302901
Badlaan,24,,,1182JK,Amstelveen,Amstelveen,Noord-Holland,VBO,4.846084,52.302891
Badlaan,26,,,1182JK,Amstelveen,Amstelveen,Noord-Holland,VBO,4.846428,52.302832
Doorweg,2,A,,1182JL,Amstelveen,Amstelveen,Noord-Holland,STA,4.843443,52.303374
Doorweg,2,,,1182JL,Amstelveen,Amstelveen,Noord-Holland,STA,4.843588,52.303336
Doorweg,4,,,1182JL,Amstelveen,Amstelveen,Noord-Holland,STA,4.843297,52.303412
Doorweg,6,,,1182JL,Amstelveen,Amstelveen,Noord-Holland,STA,4.843098,52.303444
Doorweg,8,,,1182JL,Amstelveen,Amstelveen,Noord-Holland,STA,4.842939,52.303439
Doorweg,10,,,1182JL,Amstelveen,Amstelveen,Noord-Holland,STA,4.842799,52.303456
Doorweg,12,,,1182JL,Amstelveen,Amstelveen,Noord-Holland,STA,4.842667,52.303490
Doorweg,14,,,1182JL,Amstelveen,Amstelveen,Noord-Holland,STA,4.842537,52.303525
Doorweg,16,,,1182JL,Amstelveen,Amstelveen,Noord-Holland,STA,4.842407,52.303559
Doorweg,18,,,1182JL,Amstelveen,Amstelveen,Noord-Holland,STA,4.842277,52.303592
Doorweg,20,,,1182JL,Amstelveen,Amstelveen,Noord-Holland,STA,4.842145,52.303626
Doorweg,21,,,1182JL,Amstelveen,Amstelveen,Noord-Holland,VBO,4.841994,52.303419
Doorweg,22,,,1182JL,Amstelveen,Amstelveen,Noord-Holland,STA,4.842014,52.303660
Doorweg,24,,,1182JL,Amstelveen,Amstelveen,Noord-Holland,STA,4.841883,52.303694
Doorweg,25,,,1182JL,Amstelveen,Amstelveen,Noord-Holland,VBO,4.839877,52.303954
Doorweg,26,,,1182JL,Amstelveen,Amstelveen,Noord-Holland,STA,4.841752,52.303728
Doorweg,28,,,1182JL,Amstelveen,Amstelveen,Noord-Holland,STA,4.841621,52.303762
Doorweg,30,,,1182JL,Amstelveen,Amstelveen,Noord-Holland,STA,4.841489,52.303797
Doorweg,32,,,1182JL,Amstelveen,Amstelveen,Noord-Holland,VBO,4.840935,52.303945
Doorweg,34,,,1182JL,Amstelveen,Amstelveen,Noord-Holland,VBO,4.840608,52.304021
Doorweg,36,,,1182JL,Amstelveen,Amstelveen,Noord-Holland,VBO,4.840196,52.304162
Stationsstraat,1,,,1182JM,Amstelveen,Amstelveen,Noord-Holland,VBO,4.846375,52.301690
Stationsstraat,3,,,1182JM,Amstelveen,Amstelveen,Noord-Holland,VBO,4.846443,52.301679
Stationsstraat,5,,,1182JM,Amstelveen,Amstelveen,Noord-Holland,VBO,4.846532,52.301657
Stationsstraat,7,,,1182JM,Amstelveen,Amstelveen,Noord-Holland,VBO,4.846685,52.301621
Stationsstraat,15,,,1182JM,Amstelveen,Amstelveen,Noord-Holland,VBO,4.846894,52.301547
Stationsstraat,17,,,1182JM,Amstelveen,Amstelveen,Noord-Holland,VBO,4.847092,52.301553
Stationsstraat,19,,,1182JM,Amstelveen,Amstelveen,Noord-Holland,VBO,4.847172,52.301472
Stationsstraat,2,A,,1182JN,Amstelveen,Amstelveen,Noord-Holland,VBO,4.846580,52.301833
Stationsstraat,2,,,1182JN,Amstelveen,Amstelveen,Noord-Holland,VBO,4.846525,52.301872
Stationsstraat,4,,,1182JN,Amstelveen,Amstelveen,Noord-Holland,VBO,4.846619,52.301825
Stationsstraat,10,,,1182JN,Amstelveen,Amstelveen,Noord-Holland,VBO,4.846753,52.301795
Stationsstraat,14,,,1182JN,Amstelveen,Amstelveen,Noord-Holland,VBO,4.846871,52.301770
Stationsstraat,16,,,1182JN,Amstelveen,Amstelveen,Noord-Holland,VBO,4.846900,52.301763
Stationsstraat,18,,,1182JN,Amstelveen,Amstelveen,Noord-Holland,VBO,4.846949,52.301752
Stationsstraat,20,,,1182JN,Amstelveen,Amstelveen,Noord-Holland,VBO,4.846998,52.301742
Stationsstraat,22,,,1182JN,Amstelveen,Amstelveen,Noord-Holland,VBO,4.847125,52.301715
Stationsstraat,24,,,1182JN,Amstelveen,Amstelveen,Noord-Holland,VBO,4.847241,52.301682
Stationsstraat,26,,,1182JN,Amstelveen,Amstelveen,Noord-Holland,VBO,4.847340,52.301664
Stationsstraat,28,,,1182JN,Amstelveen,Amstelveen,Noord-Holland,VBO,4.847721,52.301625
Stationsstraat,30,,,1182JN,Amstelveen,Amstelveen,Noord-Holland,VBO,4.847721,52.301625
Tempelhof,1,,,1182JP,Amstelveen,Amstelveen,Noord-Holland,VBO,4.847356,52.301420
Tempelhof,2,,,1182JP,Amstelveen,Amstelveen,Noord-Holland,VBO,4.847356,52.301420
Tempelhof,3,,,1182JP,Amstelveen,Amstelveen,Noord-Holland,VBO,4.847356,52.301420
Tempelhof,4,,,1182JP,Amstelveen,Amstelveen,Noord-Holland,VBO,4.847356,52.301420
Tempelhof,5,,,1182JP,Amstelveen,Amstelveen,Noord-Holland,VBO,4.847356,52.301420
Tempelhof,6,,,1182JP,Amstelveen,Amstelveen,Noord-Holland,VBO,4.847356,52.301420
Tempelhof,7,,,1182JP,Amstelveen,Amstelveen,Noord-Holland,VBO,4.847356,52.301420
Tempelhof,8,,,1182JP,Amstelveen,Amstelveen,Noord-Holland,VBO,4.847356,52.301420
Tempelhof,9,,,1182JP,Amstelveen,Amstelveen,Noord-Holland,VBO,4.847356,52.301420
Tempelhof,10,,,1182JP,Amstelveen,Amstelveen,Noord-Holland,VBO,4.847356,52.301420
Tempelhof,11,,,1182JP,Amstelveen,Amstelveen,Noord-Holland,VBO,4.847356,52.301420
Tempelhof,12,,,1182JP,Amstelveen,Amstelveen,Noord-Holland,VBO,4.847356,52.301420
Tempelhof,13,,,1182JP,Amstelveen,Amstelveen,Noord-Holland,VBO,4.847356,52.301420
Tempelhof,14,,,1182JP,Amstelveen,Amstelveen,Noord-Holland,VBO,4.847356,52.301420
Tempelhof,15,,,1182JP,Amstelveen,Amstelveen,Noord-Holland,VBO,4.847356,52.301420
Tempelhof,16,,,1182JP,Amstelveen,Amstelveen,Noord-Holland,VBO,4.847356,52.301420
Tempelhof,17,,,1182JP,Amstelveen,Amstelveen,Noord-Holland,VBO,4.847356,52.301420
Tempelhof,18,,,1182JP,Amstelveen,Amstelveen,Noord-Holland,VBO,4.847356,52.301420
Tempelhof,19,,,1182JP,Amstelveen,Amstelveen,Noord-Holland,VBO,4.847356,52.301420
Tempelhof,20,,,1182JP,Amstelveen,Amstelveen,Noord-Holland,VBO,4.847356,52.301420
Tempelhof,21,,,1182JP,Amstelveen,Amstelveen,Noord-Holland,VBO,4.847356,52.301420
Tempelhof,22,,,1182JP,Amstelveen,Amstelveen,Noord-Holland,VBO,4.847019,52.301018
Tempelhof,23,,,1182JP,Amstelveen,Amstelveen,Noord-Holland,VBO,4.846902,52.301058
Tempelhof,24,,,1182JP,Amstelveen,Amstelveen,Noord-Holland,VBO,4.846783,52.301098
Tempelhof,25,,,1182JP,Amstelveen,Amstelveen,Noord-Holland,VBO,4.846662,52.301138
Tempelhof,26,,,1182JP,Amstelveen,Amstelveen,Noord-Holland,VBO,4.846620,52.301360
Tempelhof,27,,,1182JP,Amstelveen,Amstelveen,Noord-Holland,VBO,4.846620,52.301360
Tempelhof,28,,,1182JP,Amstelveen,Amstelveen,Noord-Holland,VBO,4.846620,52.301360
Tempelhof,29,,,1182JP,Amstelveen,Amstelveen,Noord-Holland,VBO,4.846620,52.301360
Tempelhof,30,,,1182JP,Amstelveen,Amstelveen,Noord-Holland,VBO,4.846620,52.301360
Tempelhof,31,,,1182JP,Amstelveen,Amstelveen,Noord-Holland,VBO,4.846620,52.301360
Tempelhof,32,,,1182JP,Amstelveen,Amstelveen,Noord-Holland,VBO,4.846709,52.301531
Tempelhof,33,,,1182JP,Amstelveen,Amstelveen,Noord-Holland,VBO,4.846656,52.301550
Tempelhof,34,,,1182JP,Amstelveen,Amstelveen,Noord-Holland,VBO,4.846604,52.301564
Laan Nieuwer-Amstel,1,A,,1182JR,Amstelveen,Amstelveen,Noord-Holland,VBO,4.843742,52.302054
Laan Nieuwer-Amstel,1,,,1182JR,Amstelveen,Amstelveen,Noord-Holland,VBO,4.844607,52.301016
Laan Nieuwer-Amstel,3,,,1182JR,Amstelveen,Amstelveen,Noord-Holland,VBO,4.844886,52.301779
Laan Nieuwer-Amstel,5,,,1182JR,Amstelveen,Amstelveen,Noord-Holland,VBO,4.844638,52.301806
Laan Nieuwer-Amstel,7,,,1182JR,Amstelveen,Amstelveen,Noord-Holland,VBO,4.844638,52.301806
Laan Nieuwer-Amstel,9,,,1182JR,Amstelveen,Amstelveen,Noord-Holland,VBO,4.844638,52.301806
Laan Nieuwer-Amstel,11,,,1182JR,Amstelveen,Amstelveen,Noord-Holland,VBO,4.844638,52.301806
Laan Nieuwer-Amstel,25,,,1182JR,Amstelveen,Amstelveen,Noord-Holland,VBO,4.844387,52.302340
Laan Nieuwer-Amstel,4,A,,1182JT,Amstelveen,Amstelveen,Noord-Holland,VBO,4.845833,52.301246
Laan Nieuwer-Amstel,4,B,,1182JT,Amstelveen,Amstelveen,Noord-Holland,VBO,4.845344,52.301451
Laan Nieuwer-Amstel,4,C,,1182JT,Amstelveen,Amstelveen,Noord-Holland,VBO,4.845370,52.301541
Laan Nieuwer-Amstel,8,,,1182JT,Amstelveen,Amstelveen,Noord-Holland,VBO,4.845355,52.301959
Laan Nieuwer-Amstel,10,,,1182JT,Amstelveen,Amstelveen,Noord-Holland,VBO,4.845312,52.302002
Laan Nieuwer-Amstel,12,,,1182JT,Amstelveen,Amstelveen,Noord-Holland,VBO,4.845268,52.302041
Laan Nieuwer-Amstel,14,,,1182JT,Amstelveen,Amstelveen,Noord-Holland,VBO,4.845223,52.302084
Laan Nieuwer-Amstel,16,,,1182JT,Amstelveen,Amstelveen,Noord-Holland,VBO,4.845169,52.302129
Laan Nieuwer-Amstel,18,,,1182JT,Amstelveen,Amstelveen,Noord-Holland,VBO,4.845108,52.302185
Laan Nieuwer-Amstel,20,,,1182JT,Amstelveen,Amstelveen,Noord-Holland,VBO,4.845076,52.302214
Laan Nieuwer-Amstel,22,,,1182JT,Amstelveen,Amstelveen,Noord-Holland,VBO,4.845009,52.302257
Laan Nieuwer-Amstel,24,,,1182JT,Amstelveen,Amstelveen,Noord-Holland,VBO,4.844963,52.302298
Laan Nieuwer-Amstel,26,,,1182JT,Amstelveen,Amstelveen,Noord-Holland,VBO,4.844917,52.302339
Laan Nieuwer-Amstel,28,,,1182JT,Amstelveen,Amstelveen,Noord-Holland,VBO,4.844871,52.302380
Laan Nieuwer-Amstel,30,,,1182JT,Amstelveen,Amstelveen,Noord-Holland,VBO,4.844812,52.302452
Laan Nieuwer-Amstel,32,,,1182JT,Amstelveen,Amstelveen,Noord-Holland,VBO,4.844791,52.302497
Laan Nieuwer-Amstel,34,,,1182JT,Amstelveen,Amstelveen,Noord-Holland,VBO,4.844824,52.302589
Laan Nieuwer-Amstel,36,,,1182JT,Amstelveen,Amstelveen,Noord-Holland,VBO,4.844848,52.302636
Laan Nieuwer-Amstel,38,,,1182JT,Amstelveen,Amstelveen,Noord-Holland,VBO,4.844871,52.302684
Laan Nieuwer-Amstel,40,,,1182JV,Amstelveen,Amstelveen,Noord-Holland,VBO,4.844889,52.302821
Laan Nieuwer-Amstel,42,,,1182JV,Amstelveen,Amstelveen,Noord-Holland,VBO,4.844913,52.302867
Laan Nieuwer-Amstel,44,,,1182JV,Amstelveen,Amstelveen,Noord-Holland,VBO,4.844936,52.302915
Laan Nieuwer-Amstel,46,,,1182JV,Amstelveen,Amstelveen,Noord-Holland,VBO,4.844959,52.302961
Laan Nieuwer-Amstel,48,,,1182JV,Amstelveen,Amstelveen,Noord-Holland,VBO,4.844960,52.303010
Laan Nieuwer-Amstel,50,,,1182JV,Amstelveen,Amstelveen,Noord-Holland,VBO,4.844986,52.303064
Laan Nieuwer-Amstel,52,,,1182JV,Amstelveen,Amstelveen,Noord-Holland,VBO,4.845010,52.303112
Laan Nieuwer-Amstel,54,,,1182JV,Amstelveen,Amstelveen,Noord-Holland,VBO,4.845031,52.303155
Laan Nieuwer-Amstel,56,,,1182JV,Amstelveen,Amstelveen,Noord-Holland,VBO,4.845053,52.303199
Laan Nieuwer-Amstel,58,,,1182JV,Amstelveen,Amstelveen,Noord-Holland,VBO,4.845160,52.303297
Laan Nieuwer-Amstel,60,,,1182JV,Amstelveen,Amstelveen,Noord-Holland,VBO,4.845234,52.303320
Veenplaats,1,,,1182JW,Amstelveen,Amstelveen,Noord-Holland,VBO,4.845574,52.301561
Veenplaats,2,,,1182JW,Amstelveen,Amstelveen,Noord-Holland,VBO,4.845574,52.301561
Veenplaats,3,,,1182JW,Amstelveen,Amstelveen,Noord-Holland,VBO,4.845574,52.301561
Veenplaats,4,,,1182JW,Amstelveen,Amstelveen,Noord-Holland,VBO,4.845574,52.301561
Veenplaats,5,,,1182JW,Amstelveen,Amstelveen,Noord-Holland,VBO,4.845574,52.301561
Veenplaats,6,,,1182JW,Amstelveen,Amstelveen,Noord-Holland,VBO,4.845574,52.301561
Veenplaats,7,,,1182JW,Amstelveen,Amstelveen,Noord-Holland,VBO,4.845574,52.301561
Veenplaats,8,,,1182JW,Amstelveen,Amstelveen,Noord-Holland,VBO,4.845574,52.301561
Veenplaats,9,,,1182JW,Amstelveen,Amstelveen,Noord-Holland,VBO,4.845574,52.301561
Veenplaats,10,,,1182JW,Amstelveen,Amstelveen,Noord-Holland,VBO,4.845574,52.301561
Veenplaats,11,,,1182JW,Amstelveen,Amstelveen,Noord-Holland,VBO,4.845574,52.301561
Veenplaats,12,,,1182JW,Amstelveen,Amstelveen,Noord-Holland,VBO,4.845574,52.301561
Veenplaats,13,,,1182JW,Amstelveen,Amstelveen,Noord-Holland,VBO,4.845574,52.301561
Veenplaats,14,,,1182JW,Amstelveen,Amstelveen,Noord-Holland,VBO,4.845574,52.301561
Veenplaats,15,,,1182JW,Amstelveen,Amstelveen,Noord-Holland,VBO,4.845574,52.301561
Veenplaats,16,,,1182JW,Amstelveen,Amstelveen,Noord-Holland,VBO,4.845574,52.301561
Veenplaats,17,,,1182JW,Amstelveen,Amstelveen,Noord-Holland,VBO,4.845574,52.301561
Veenplaats,19,,,1182JW,Amstelveen,Amstelveen,Noord-Holland,VBO,4.845896,52.301420
Zetveld,1,,,1182JX,Amstelveen,Amstelveen,Noord-Holland,VBO,4.845823,52.301764
Zetveld,2,,,1182JX,Amstelveen,Amstelveen,Noord-Holland,VBO,4.845823,52.301764
Zetveld,3,,,1182JX,Amstelveen,Amstelveen,Noord-Holland,VBO,4.845823,52.301764
Zetveld,4,,,1182JX,Amstelveen,Amstelveen,Noord-Holland,VBO,4.845823,52.301764
Zetveld,5,,,1182JX,Amstelveen,Amstelveen,Noord-Holland,VBO,4.845823,52.301764
Zetveld,6,,,1182JX,Amstelveen,Amstelveen,Noord-Holland,VBO,4.845823,52.301764
Zetveld,7,,,1182JX,Amstelveen,Amstelveen,Noord-Holland,VBO,4.845683,52.301673
Zetveld,8,,,1182JX,Amstelveen,Amstelveen,Noord-Holland,VBO,4.845683,52.301673
Zetveld,9,,,1182JX,Amstelveen,Amstelveen,Noord-Holland,VBO,4.845683,52.301673
Zetveld,10,,,1182JX,Amstelveen,Amstelveen,Noord-Holland,VBO,4.845683,52.301673
Zetveld,11,,,1182JX,Amstelveen,Amstelveen,Noord-Holland,VBO,4.845683,52.301673
Zetveld,12,,,1182JX,Amstelveen,Amstelveen,Noord-Holland,VBO,4.845683,52.301673
Zetveld,13,,,1182JX,Amstelveen,Amstelveen,Noord-Holland,VBO,4.845530,52.301691
Zetveld,14,,,1182JX,Amstelveen,Amstelveen,Noord-Holland,VBO,4.845530,52.301691
Zetveld,15,,,1182JX,Amstelveen,Amstelveen,Noord-Holland,VBO,4.845530,52.301691
Zetveld,16,,,1182JX,Amstelveen,Amstelveen,Noord-Holland,VBO,4.845530,52.301691
Zetveld,17,,,1182JX,Amstelveen,Amstelveen,Noord-Holland,VBO,4.845530,52.301691
Zetveld,18,,,1182JX,Amstelveen,Amstelveen,Noord-Holland,VBO,4.845530,52.301691
Zetveld,19,,,1182JX,Amstelveen,Amstelveen,Noord-Holland,VBO,4.845530,52.301691
Zetveld,20,,,1182JX,Amstelveen,Amstelveen,Noord-Holland,VBO,4.845530,52.301691
Zetveld,21,,,1182JZ,Amstelveen,Amstelveen,Noord-Holland,VBO,4.845431,52.301791
Zetveld,22,,,1182JZ,Amstelveen,Amstelveen,Noord-Holland,VBO,4.845431,52.301791
Zetveld,23,,,1182JZ,Amstelveen,Amstelveen,Noord-Holland,VBO,4.845431,52.301791
Zetveld,24,,,1182JZ,Amstelveen,Amstelveen,Noord-Holland,VBO,4.845431,52.301791
Zetveld,25,,,1182JZ,Amstelveen,Amstelveen,Noord-Holland,VBO,4.845431,52.301791
Zetveld,26,,,1182JZ,Amstelveen,Amstelveen,Noord-Holland,VBO,4.845431,52.301791
Zetveld,27,,,1182JZ,Amstelveen,Amstelveen,Noord-Holland,VBO,4.845431,52.301791
Zetveld,28,,,1182JZ,Amstelveen,Amstelveen,Noord-Holland,VBO,4.845431,52.301791
Zetveld,29,,,1182JZ,Amstelveen,Amstelveen,Noord-Holland,VBO,4.845459,52.301893
Zetveld,30,,,1182JZ,Amstelveen,Amstelveen,Noord-Holland,VBO,4.845459,52.301893
Zetveld,31,,,1182JZ,Amstelveen,Amstelveen,Noord-Holland,VBO,4.845459,52.301893
Zetveld,32,,,1182JZ,Amstelveen,Amstelveen,Noord-Holland,VBO,4.845459,52.301893
Zetveld,33,,,1182JZ,Amstelveen,Amstelveen,Noord-Holland,VBO,4.845459,52.301893
Zetveld,34,,,1182JZ,Amstelveen,Amstelveen,Noord-Holland,VBO,4.845459,52.301893
Zetveld,35,,,1182JZ,Amstelveen,Amstelveen,Noord-Holland,VBO,4.845459,52.301893
Zetveld,36,,,1182JZ,Amstelveen,Amstelveen,Noord-Holland,VBO,4.845459,52.301893
Burgemeester A. Colijnweg,17,,,1182KA,Amstelveen,Amstelveen,Noord-Holland,VBO,4.846204,52.303144
Burgemeester A. Colijnweg,19,,,1182KA,Amstelveen,Amstelveen,Noord-Holland,VBO,4.846135,52.303146
Burgemeester A. Colijnweg,21,,,1182KB,Amstelveen,Amstelveen,Noord-Holland,VBO,4.846019,52.303196
Burgemeester A. Colijnweg,23,,,1182KB,Amstelveen,Amstelveen,Noord-Holland,VBO,4.845943,52.303210
Burgemeester A. Colijnweg,25,,,1182KB,Amstelveen,Amstelveen,Noord-Holland,VBO,4.845867,52.303224
Burgemeester A. Colijnweg,27,,,1182KB,Amstelveen,Amstelveen,Noord-Holland,VBO,4.845792,52.303238
Burgemeester A. Colijnweg,29,,,1182KB,Amstelveen,Amstelveen,Noord-Holland,VBO,4.845722,52.303264
Burgemeester A. Colijnweg,31,,,1182KB,Amstelveen,Amstelveen,Noord-Holland,VBO,4.845645,52.303279
Burgemeester A. Colijnweg,33,,,1182KB,Amstelveen,Amstelveen,Noord-Holland,VBO,4.845568,52.303293
Burgemeester A. Colijnweg,35,,,1182KB,Amstelveen,Amstelveen,Noord-Holland,VBO,4.845491,52.303307
Burgemeester A. Colijnweg,37,,,1182KB,Amstelveen,Amstelveen,Noord-Holland,VBO,4.845414,52.303321
Zetveld,37,,,1182KE,Amstelveen,Amstelveen,Noord-Holland,VBO,4.846075,52.301808
Zetveld,38,,,1182KE,Amstelveen,Amstelveen,Noord-Holland,VBO,4.846075,52.301808
Zetveld,39,,,1182KE,Amstelveen,Amstelveen,Noord-Holland,VBO,4.846075,52.301808
Zetveld,40,A,,1182KE,Amstelveen,Amstelveen,Noord-Holland,VBO,4.846065,52.301985
Zetveld,40,B,,1182KE,Amstelveen,Amstelveen,Noord-Holland,VBO,4.846154,52.301958
Zetveld,40,,,1182KE,Amstelveen,Amstelveen,Noord-Holland,VBO,4.846075,52.301808
Zetveld,41,,,1182KE,Amstelveen,Amstelveen,Noord-Holland,VBO,4.846127,52.302054
Zetveld,42,,,1182KE,Amstelveen,Amstelveen,Noord-Holland,VBO,4.846142,52.302103
Zetveld,43,,,1182KE,Amstelveen,Amstelveen,Noord-Holland,VBO,4.846156,52.302156
Zetveld,44,,,1182KE,Amstelveen,Amstelveen,Noord-Holland,VBO,4.846173,52.302215
Zetveld,45,,,1182KE,Amstelveen,Amstelveen,Noord-Holland,VBO,4.846323,52.302198
Bouwensland,1,,,1182KG,Amstelveen,Amstelveen,Noord-Holland,VBO,4.847663,52.301897
Bouwensland,2,,,1182KG,Amstelveen,Amstelveen,Noord-Holland,VBO,4.847689,52.301911
Bouwensland,3,,,1182KG,Amstelveen,Amstelveen,Noord-Holland,VBO,4.847716,52.301925
Bouwensland,4,,,1182KG,Amstelveen,Amstelveen,Noord-Holland,VBO,4.847744,52.301940
Bouwensland,5,,,1182KG,Amstelveen,Amstelveen,Noord-Holland,VBO,4.847777,52.301955
Bouwensland,6,,,1182KG,Amstelveen,Amstelveen,Noord-Holland,VBO,4.847816,52.301975
Bouwensland,7,,,1182KG,Amstelveen,Amstelveen,Noord-Holland,VBO,4.847852,52.301993
Bouwensland,8,,,1182KG,Amstelveen,Amstelveen,Noord-Holland,VBO,4.847884,52.302012
Bouwensland,9,,,1182KG,Amstelveen,Amstelveen,Noord-Holland,VBO,4.847917,52.302029
Bouwensland,10,,,1182KG,Amstelveen,Amstelveen,Noord-Holland,VBO,4.847956,52.302049
Bouwensland,11,,,1182KG,Amstelveen,Amstelveen,Noord-Holland,VBO,4.847994,52.302071
Bouwensland,12,,,1182KG,Amstelveen,Amstelveen,Noord-Holland,VBO,4.848044,52.302095
Bouwensland,13,,,1182KG,Amstelveen,Amstelveen,Noord-Holland,VBO,4.848085,52.302118
Bouwensland,14,,,1182KG,Amstelveen,Amstelveen,Noord-Holland,VBO,4.848210,52.302227
Bouwensland,15,,,1182KG,Amstelveen,Amstelveen,Noord-Holland,VBO,4.848221,52.302255
Bouwensland,16,,,1182KG,Amstelveen,Amstelveen,Noord-Holland,VBO,4.848233,52.302284
Bouwensland,17,,,1182KG,Amstelveen,Amstelveen,Noord-Holland,VBO,4.848246,52.302318
Bouwensland,18,,,1182KG,Amstelveen,Amstelveen,Noord-Holland,VBO,4.848261,52.302347
Bouwensland,19,,,1182KG,Amstelveen,Amstelveen,Noord-Holland,VBO,4.848272,52.302374
Bouwensland,20,,,1182KG,Amstelveen,Amstelveen,Noord-Holland,VBO,4.848285,52.302405
Bouwensland,21,,,1182KG,Amstelveen,Amstelveen,Noord-Holland,VBO,4.848298,52.302434
Bouwensland,22,,,1182KG,Amstelveen,Amstelveen,Noord-Holland,VBO,4.848308,52.302462
Bouwensland,23,,,1182KG,Amstelveen,Amstelveen,Noord-Holland,VBO,4.846687,52.302026
Princesselaan,1,A,,1182MA,Amstelveen,Amstelveen,Noord-Holland,VBO,4.850556,52.314590
Princesselaan,1,,,1182MA,Amstelveen,Amstelveen,Noord-Holland,VBO,4.850909,52.314841
Princesselaan,2,,,1182MA,Amstelveen,Amstelveen,Noord-Holland,VBO,4.851620,52.314800
Princesselaan,3,,,1182MA,Amstelveen,Amstelveen,Noord-Holland,VBO,4.852492,52.314780
Princesselaan,4,,,1182MA,Amstelveen,Amstelveen,Noord-Holland,VBO,4.853230,52.314867
Princesselaan,5,,,1182MA,Amstelveen,Amstelveen,Noord-Holland,VBO,4.853570,52.314848
Princesselaan,6,,,1182MA,Amstelveen,Amstelveen,Noord-Holland,VBO,4.853881,52.314551
