openbareruimtenaam,huisnummer,huisletter,huisnummertoevoeging,postcode,woonplaatsnaam,gemeentenaam,provincienaam,typeadresseerbaarobject,longitude,latitude
Markerkant 10,1,,,1316AA,Almere,Almere,Flevoland,VBO,5.217076,52.385943
Markerkant 10,3,,,1316AA,Almere,Almere,Flevoland,VBO,5.217151,52.386112
Markerkant 10,5,,,1316AA,Almere,Almere,Flevoland,VBO,5.217427,52.385660
Markerkant 10,7,,,1316AA,Almere,Almere,Flevoland,VBO,5.218217,52.386080
Markerkant 10,11,A,,1316AA,Almere,Almere,Flevoland,VBO,5.218836,52.386592
Markerkant 10,11,B,,1316AA,Almere,Almere,Flevoland,VBO,5.218728,52.386613
Markerkant 10,11,C,,1316AA,Almere,Almere,Flevoland,VBO,5.218623,52.386638
Markerkant 10,11,D,,1316AA,Almere,Almere,Flevoland,VBO,5.218512,52.386660
Markerkant 10,11,E,,1316AA,Almere,Almere,Flevoland,VBO,5.218402,52.386683
Markerkant 10,11,F,,1316AA,Almere,Almere,Flevoland,VBO,5.218302,52.386703
Markerkant 10,11,G,,1316AA,Almere,Almere,Flevoland,VBO,5.218197,52.386727
Markerkant 10,13,A,,1316AA,Almere,Almere,Flevoland,VBO,5.218831,52.386689
Markerkant 10,13,B,,1316AA,Almere,Almere,Flevoland,VBO,5.218669,52.386719
Markerkant 10,13,C,,1316AA,Almere,Almere,Flevoland,VBO,5.218563,52.386742
Markerkant 10,13,D,,1316AA,Almere,Almere,Flevoland,VBO,5.218455,52.386767
Markerkant 10,13,E,,1316AA,Almere,Almere,Flevoland,VBO,5.218346,52.386790
Markerkant 10,13,F,,1316AA,Almere,Almere,Flevoland,VBO,5.218244,52.386811
Markerkant 10,17,,,1316AB,Almere,Almere,Flevoland,VBO,5.218905,52.387165
Markerkant 10,19,,,1316AB,Almere,Almere,Flevoland,VBO,5.218256,52.387606
Markerkant 10,21,,,1316AB,Almere,Almere,Flevoland,VBO,5.218263,52.387932
Markerkant 10,23,,,1316AB,Almere,Almere,Flevoland,VBO,5.218422,52.388208
Markerkant 10,25,,,1316AB,Almere,Almere,Flevoland,VBO,5.218728,52.388474
Markerkant 10,2,,,1316AC,Almere,Almere,Flevoland,VBO,5.216814,52.385228
Markerkant 10,4,,,1316AC,Almere,Almere,Flevoland,VBO,5.216915,52.384978
Markerkant 10,6,,,1316AC,Almere,Almere,Flevoland,VBO,5.217530,52.385380
Markerkant 10,10,,,1316AC,Almere,Almere,Flevoland,VBO,5.218925,52.385646
Markerkant 10,12,,,1316AC,Almere,Almere,Flevoland,VBO,5.219212,52.385584
Markerkant 10,14,,,1316AD,Almere,Almere,Flevoland,VBO,5.219314,52.385561
Markerkant 10,16,,,1316AD,Almere,Almere,Flevoland,VBO,5.219425,52.385540
Markerkant 10,18,,,1316AD,Almere,Almere,Flevoland,VBO,5.219521,52.385508
Markerkant 10,20,,,1316AD,Almere,Almere,Flevoland,VBO,5.219626,52.385484
Markerkant 10,22,A,,1316AD,Almere,Almere,Flevoland,VBO,5.219668,52.385409
Markerkant 10,22,B,,1316AD,Almere,Almere,Flevoland,VBO,5.219739,52.385306
Markerkant 10,22,,,1316AD,Almere,Almere,Flevoland,VBO,5.219740,52.385466
Markerkant 10,24,,,1316AD,Almere,Almere,Flevoland,VBO,5.219092,52.385592
Markerkant 10,26,,,1316AD,Almere,Almere,Flevoland,VBO,5.218948,52.385619
Markerkant 10,30,,,1316AD,Almere,Almere,Flevoland,VBO,5.219445,52.385848
Markerkant 11,11,,,1316AE,Almere,Almere,Flevoland,VBO,5.219096,52.385481
Markerkant 11,13,,,1316AE,Almere,Almere,Flevoland,VBO,5.218934,52.385303
Markerkant 11,15,,,1316AE,Almere,Almere,Flevoland,VBO,5.218697,52.385255
Markerkant 11,17,,,1316AE,Almere,Almere,Flevoland,VBO,5.218537,52.385226
Markerkant 11,19,,,1316AE,Almere,Almere,Flevoland,VBO,5.218392,52.385207
Markerkant 11,21,,,1316AE,Almere,Almere,Flevoland,VBO,5.218206,52.385178
Markerkant 11,8,,,1316AG,Almere,Almere,Flevoland,VBO,5.217507,52.385054
Markerkant 11,10,,,1316AG,Almere,Almere,Flevoland,VBO,5.217664,52.384744
Markerkant 11,12,,,1316AG,Almere,Almere,Flevoland,VBO,5.217424,52.384713
Markerkant 11,14,,,1316AH,Almere,Almere,Flevoland,VBO,5.217084,52.384652
Markerkant 11,16,,,1316AH,Almere,Almere,Flevoland,VBO,5.217637,52.384659
Markerkant 11,18,,,1316AH,Almere,Almere,Flevoland,VBO,5.217667,52.384590
Markerkant 11,20,,,1316AH,Almere,Almere,Flevoland,VBO,5.217769,52.384500
Markerkant 11,22,,,1316AH,Almere,Almere,Flevoland,VBO,5.217880,52.384353
Markerkant 11,24,,,1316AH,Almere,Almere,Flevoland,VBO,5.217669,52.384322
Markerkant 11,26,,,1316AH,Almere,Almere,Flevoland,VBO,5.217434,52.384286
Markerkant 11,28,,,1316AH,Almere,Almere,Flevoland,VBO,5.217188,52.384233
Markerkant 11,30,,,1316AH,Almere,Almere,Flevoland,VBO,5.217267,52.384395
Markerkant 11,34,,,1316AH,Almere,Almere,Flevoland,VBO,5.217464,52.384044
Markerkant 10,42,,,1316AJ,Almere,Almere,Flevoland,VBO,5.219408,52.386429
Markerkant 10,44,,,1316AJ,Almere,Almere,Flevoland,VBO,5.219380,52.386388
Markerkant 10,46,,,1316AJ,Almere,Almere,Flevoland,VBO,5.219509,52.386396
Markerkant 10,48,,,1316AJ,Almere,Almere,Flevoland,VBO,5.219622,52.386370
Markerkant 10,50,,,1316AJ,Almere,Almere,Flevoland,VBO,5.219738,52.386346
Markerkant 10,52,,,1316AJ,Almere,Almere,Flevoland,VBO,5.219853,52.386325
Markerkant 10,54,,,1316AJ,Almere,Almere,Flevoland,VBO,5.219972,52.386302
Markerkant 10,56,,,1316AJ,Almere,Almere,Flevoland,VBO,5.220089,52.386278
Markerkant 10,58,,,1316AJ,Almere,Almere,Flevoland,VBO,5.220121,52.386354
Markerkant 10,60,,,1316AJ,Almere,Almere,Flevoland,VBO,5.220017,52.386378
Markerkant 10,62,,,1316AJ,Almere,Almere,Flevoland,VBO,5.219900,52.386401
Markerkant 10,64,,,1316AJ,Almere,Almere,Flevoland,VBO,5.219783,52.386428
Markerkant 10,66,,,1316AJ,Almere,Almere,Flevoland,VBO,5.219663,52.386457
Markerkant 10,68,,,1316AJ,Almere,Almere,Flevoland,VBO,5.219553,52.386479
Markerkant 10,70,,,1316AJ,Almere,Almere,Flevoland,VBO,5.219465,52.386542
Markerkant 10,72,,,1316AJ,Almere,Almere,Flevoland,VBO,5.219433,52.386486
Markerkant 10,74,,,1316AJ,Almere,Almere,Flevoland,VBO,5.219663,52.386713
Markerkant 10,76,,,1316AJ,Almere,Almere,Flevoland,VBO,5.219775,52.386685
Markerkant 10,78,,,1316AJ,Almere,Almere,Flevoland,VBO,5.219891,52.386647
Markerkant 10,80,,,1316AJ,Almere,Almere,Flevoland,VBO,5.220018,52.386617
Markerkant 10,82,,,1316AJ,Almere,Almere,Flevoland,VBO,5.220141,52.386595
Markerkant 10,84,,,1316AJ,Almere,Almere,Flevoland,VBO,5.220242,52.386581
Markerkant 10,86,,,1316AJ,Almere,Almere,Flevoland,VBO,5.220320,52.386695
Markerkant 10,88,,,1316AJ,Almere,Almere,Flevoland,VBO,5.220204,52.386716
Markerkant 10,90,,,1316AJ,Almere,Almere,Flevoland,VBO,5.220088,52.386741
Markerkant 10,92,,,1316AJ,Almere,Almere,Flevoland,VBO,5.219965,52.386772
Markerkant 10,94,,,1316AJ,Almere,Almere,Flevoland,VBO,5.219850,52.386793
Markerkant 10,96,,,1316AJ,Almere,Almere,Flevoland,VBO,5.219730,52.386816
Markerkant 10,98,,,1316AJ,Almere,Almere,Flevoland,VBO,5.219748,52.387067
Markerkant 11,23,,,1316AK,Almere,Almere,Flevoland,VBO,5.218089,52.385451
Markerkant 10,100,,,1316AL,Almere,Almere,Flevoland,VBO,5.219715,52.387016
Markerkant 10,102,,,1316AL,Almere,Almere,Flevoland,VBO,5.219845,52.387016
Markerkant 10,104,,,1316AL,Almere,Almere,Flevoland,VBO,5.219976,52.386992
Markerkant 10,106,,,1316AL,Almere,Almere,Flevoland,VBO,5.220102,52.386973
Markerkant 10,108,,,1316AL,Almere,Almere,Flevoland,VBO,5.220218,52.386949
Markerkant 10,110,,,1316AL,Almere,Almere,Flevoland,VBO,5.220345,52.386917
Markerkant 10,112,,,1316AL,Almere,Almere,Flevoland,VBO,5.220449,52.386892
Markerkant 10,114,,,1316AL,Almere,Almere,Flevoland,VBO,5.220501,52.386995
Markerkant 10,116,,,1316AL,Almere,Almere,Flevoland,VBO,5.220397,52.387024
Markerkant 10,118,,,1316AL,Almere,Almere,Flevoland,VBO,5.220277,52.387047
Markerkant 10,120,,,1316AL,Almere,Almere,Flevoland,VBO,5.220150,52.387074
Markerkant 10,122,,,1316AL,Almere,Almere,Flevoland,VBO,5.220027,52.387097
Markerkant 10,124,,,1316AL,Almere,Almere,Flevoland,VBO,5.219897,52.387112
Markerkant 10,126,,,1316AL,Almere,Almere,Flevoland,VBO,5.219792,52.387178
Markerkant 10,128,,,1316AL,Almere,Almere,Flevoland,VBO,5.219763,52.387124
Markerkant 10,132,A,,1316AL,Almere,Almere,Flevoland,VBO,5.219595,52.387505
Markerkant 10,132,B,,1316AL,Almere,Almere,Flevoland,VBO,5.219654,52.387632
Markerkant 10,132,C,,1316AL,Almere,Almere,Flevoland,VBO,5.219727,52.387754
Markerkant 10,132,D,,1316AL,Almere,Almere,Flevoland,VBO,5.219805,52.387878
Markerkant 10,132,E,,1316AL,Almere,Almere,Flevoland,VBO,5.220004,52.387848
Markerkant 10,132,F,,1316AL,Almere,Almere,Flevoland,VBO,5.219938,52.387711
Markerkant 10,132,G,,1316AL,Almere,Almere,Flevoland,VBO,5.219865,52.387589
Markerkant 10,132,H,,1316AL,Almere,Almere,Flevoland,VBO,5.219780,52.387460
Markerkant 10,136,A,,1316AL,Almere,Almere,Flevoland,VBO,5.220299,52.387360
Markerkant 10,136,B,,1316AL,Almere,Almere,Flevoland,VBO,5.220351,52.387479
Markerkant 10,136,C,,1316AL,Almere,Almere,Flevoland,VBO,5.220416,52.387602
Markerkant 10,136,D,,1316AL,Almere,Almere,Flevoland,VBO,5.220494,52.387737
Markerkant 10,136,E,,1316AL,Almere,Almere,Flevoland,VBO,5.220701,52.387701
Markerkant 10,136,F,,1316AL,Almere,Almere,Flevoland,VBO,5.220634,52.387575
Markerkant 10,136,G,,1316AL,Almere,Almere,Flevoland,VBO,5.220558,52.387439
Markerkant 10,136,H,,1316AL,Almere,Almere,Flevoland,VBO,5.220486,52.387319
Markerkant 10,142,,,1316AL,Almere,Almere,Flevoland,VBO,5.220339,52.388118
Markerkant 11,31,,,1316AN,Almere,Almere,Flevoland,VBO,5.219311,52.384985
Markerkant 11,33,,,1316AN,Almere,Almere,Flevoland,VBO,5.218537,52.384924
Markerkant 11,39,,,1316AN,Almere,Almere,Flevoland,VBO,5.218613,52.384597
Markerkant 11,43,,,1316AN,Almere,Almere,Flevoland,VBO,5.219057,52.384651
Markerkant 16,1,,,1316AZ,Almere,Almere,Flevoland,VBO,5.218499,52.382796
Randstad 22,147,,,1316BM,Almere,Almere,Flevoland,VBO,5.229100,52.377825
Randstad 22,149,,,1316BM,Almere,Almere,Flevoland,VBO,5.229180,52.377836
Randstad 22,151,,,1316BM,Almere,Almere,Flevoland,VBO,5.229244,52.377846
Randstad 22,153,,,1316BM,Almere,Almere,Flevoland,VBO,5.229317,52.378170
Randstad 22,155,,,1316BM,Almere,Almere,Flevoland,VBO,5.229382,52.378178
Randstad 22,157,,,1316BM,Almere,Almere,Flevoland,VBO,5.229425,52.378185
Randstad 22,159,,,1316BM,Almere,Almere,Flevoland,VBO,5.229474,52.378193
Randstad 22,161,,,1316BM,Almere,Almere,Flevoland,VBO,5.229808,52.377936
Randstad 22,163,,,1316BM,Almere,Almere,Flevoland,VBO,5.229897,52.377949
Randstad 22,165,,,1316BM,Almere,Almere,Flevoland,VBO,5.229957,52.377958
Randstad 22,167,,,1316BM,Almere,Almere,Flevoland,VBO,5.229325,52.377238
Randstad 22,169,,,1316BM,Almere,Almere,Flevoland,VBO,5.229400,52.377249
Randstad 22,171,,,1316BM,Almere,Almere,Flevoland,VBO,5.229467,52.377258
Randstad 22,173,,,1316BM,Almere,Almere,Flevoland,VBO,5.229567,52.377583
Randstad 22,175,,,1316BM,Almere,Almere,Flevoland,VBO,5.229621,52.377590
Randstad 22,177,,,1316BM,Almere,Almere,Flevoland,VBO,5.229670,52.377599
Randstad 22,179,,,1316BM,Almere,Almere,Flevoland,VBO,5.229725,52.377607
Randstad 22,181,,,1316BM,Almere,Almere,Flevoland,VBO,5.230050,52.377345
Randstad 22,183,,,1316BM,Almere,Almere,Flevoland,VBO,5.230135,52.377360
Randstad 22,185,,,1316BM,Almere,Almere,Flevoland,VBO,5.230204,52.377371
Randstad 22,1,,,1316BN,Almere,Almere,Flevoland,VBO,5.227980,52.377623
Randstad 22,9,,,1316BN,Almere,Almere,Flevoland,VBO,5.227218,52.377737
Randstad 22,11,,,1316BN,Almere,Almere,Flevoland,VBO,5.227189,52.377734
Randstad 22,13,,,1316BN,Almere,Almere,Flevoland,VBO,5.227155,52.377731
Randstad 22,15,,,1316BN,Almere,Almere,Flevoland,VBO,5.227117,52.377728
Randstad 22,17,,,1316BP,Almere,Almere,Flevoland,VBO,5.226748,52.377572
Randstad 22,19,,,1316BP,Almere,Almere,Flevoland,VBO,5.226518,52.377526
Randstad 22,21,,,1316BP,Almere,Almere,Flevoland,VBO,5.226334,52.377494
Randstad 22,23,,,1316BP,Almere,Almere,Flevoland,VBO,5.226122,52.377469
Randstad 22,25,,,1316BP,Almere,Almere,Flevoland,VBO,5.225849,52.377450
Randstad 22,27,,,1316BP,Almere,Almere,Flevoland,VBO,5.225868,52.377402
Randstad 22,29,,,1316BP,Almere,Almere,Flevoland,VBO,5.225888,52.377352
Randstad 22,31,,,1316BR,Almere,Almere,Flevoland,VBO,5.226106,52.377928
Randstad 22,33,,,1316BR,Almere,Almere,Flevoland,VBO,5.225149,52.377804
Randstad 22,35,A,,1316BR,Almere,Almere,Flevoland,VBO,5.224976,52.378396
Randstad 22,35,B,,1316BR,Almere,Almere,Flevoland,VBO,5.225146,52.378546
Randstad 22,35,C,,1316BR,Almere,Almere,Flevoland,VBO,5.225117,52.378649
Randstad 22,35,D,,1316BR,Almere,Almere,Flevoland,VBO,5.224964,52.378566
Randstad 22,39,,,1316BR,Almere,Almere,Flevoland,VBO,5.224631,52.379074
Randstad 22,41,,,1316BR,Almere,Almere,Flevoland,VBO,5.224554,52.379369
Randstad 22,43,,,1316BS,Almere,Almere,Flevoland,VBO,5.225193,52.379552
Randstad 22,51,,,1316BS,Almere,Almere,Flevoland,VBO,5.225923,52.379700
Randstad 22,53,,,1316BS,Almere,Almere,Flevoland,VBO,5.225952,52.379564
Randstad 22,55,,,1316BS,Almere,Almere,Flevoland,VBO,5.226387,52.379735
Randstad 22,57,,,1316BS,Almere,Almere,Flevoland,VBO,5.226439,52.379623
Randstad 22,61,,,1316BT,Almere,Almere,Flevoland,VBO,5.226977,52.379569
Randstad 22,63,,,1316BT,Almere,Almere,Flevoland,VBO,5.226933,52.379660
Randstad 22,65,,,1316BT,Almere,Almere,Flevoland,VBO,5.226904,52.379744
Randstad 22,67,,,1316BT,Almere,Almere,Flevoland,VBO,5.226864,52.379834
Randstad 22,101,,,1316BW,Almere,Almere,Flevoland,VBO,5.227855,52.379763
Randstad 22,113,A,,1316BW,Almere,Almere,Flevoland,VBO,5.228060,52.379884
Randstad 22,113,B,,1316BW,Almere,Almere,Flevoland,VBO,5.228666,52.379765
Randstad 22,115,,,1316BW,Almere,Almere,Flevoland,VBO,5.228313,52.379205
Randstad 22,117,,,1316BW,Almere,Almere,Flevoland,VBO,5.228624,52.379252
Randstad 22,119,,,1316BW,Almere,Almere,Flevoland,VBO,5.228922,52.379296
Randstad 22,121,,,1316BW,Almere,Almere,Flevoland,VBO,5.229228,52.379344
Randstad 22,123,,,1316BW,Almere,Almere,Flevoland,VBO,5.229300,52.379053
Randstad 22,125,,,1316BW,Almere,Almere,Flevoland,VBO,5.229002,52.379009
Randstad 22,127,,,1316BW,Almere,Almere,Flevoland,VBO,5.228693,52.378954
Randstad 22,129,,,1316BW,Almere,Almere,Flevoland,VBO,5.228424,52.378943
Randstad 22,131,,,1316BW,Almere,Almere,Flevoland,VBO,5.228497,52.378758
Randstad 22,133,,,1316BW,Almere,Almere,Flevoland,VBO,5.228759,52.378820
Randstad 22,135,,,1316BW,Almere,Almere,Flevoland,VBO,5.229062,52.378865
Randstad 22,137,,,1316BW,Almere,Almere,Flevoland,VBO,5.229359,52.378912
Randstad 22,139,,,1316BW,Almere,Almere,Flevoland,VBO,5.229519,52.378633
Randstad 22,141,,,1316BW,Almere,Almere,Flevoland,VBO,5.229215,52.378585
Randstad 22,143,,,1316BW,Almere,Almere,Flevoland,VBO,5.228905,52.378542
Randstad 22,145,,,1316BW,Almere,Almere,Flevoland,VBO,5.228604,52.378490
Randstad 22,2,,,1316BX,Almere,Almere,Flevoland,VBO,5.227729,52.378530
Randstad 22,4,,,1316BX,Almere,Almere,Flevoland,VBO,5.227350,52.378326
Randstad 22,8,,,1316BX,Almere,Almere,Flevoland,VBO,5.227009,52.378269
Randstad 22,10,,,1316BX,Almere,Almere,Flevoland,VBO,5.226400,52.378488
Randstad 22,12,,,1316BX,Almere,Almere,Flevoland,VBO,5.227213,52.378545
Randstad 22,14,,,1316BX,Almere,Almere,Flevoland,VBO,5.227093,52.378755
Randstad 22,16,,,1316BX,Almere,Almere,Flevoland,VBO,5.226931,52.378902
Randstad 22,20,,,1316BZ,Almere,Almere,Flevoland,VBO,5.226897,52.378991
Randstad 22,24,,,1316BZ,Almere,Almere,Flevoland,VBO,5.227202,52.378941
Randstad 22,32,,,1316BZ,Almere,Almere,Flevoland,VBO,5.225905,52.378779
Randstad 22,44,,,1316BZ,Almere,Almere,Flevoland,VBO,5.227762,52.379138
Randstad 22,46,,,1316BZ,Almere,Almere,Flevoland,VBO,5.227383,52.379076
Randstad 22,48,,,1316BZ,Almere,Almere,Flevoland,VBO,5.227479,52.378825
Randstad 22,50,,,1316BZ,Almere,Almere,Flevoland,VBO,5.227867,52.378888
Raamstraat,1,,,1316CA,Almere,Almere,Flevoland,VBO,5.223998,52.382081
Raamstraat,2,,,1316CA,Almere,Almere,Flevoland,VBO,5.223974,52.382036
Raamstraat,3,,,1316CA,Almere,Almere,Flevoland,VBO,5.223954,52.381998
Raamstraat,4,,,1316CA,Almere,Almere,Flevoland,VBO,5.223923,52.381950
Raamstraat,5,,,1316CA,Almere,Almere,Flevoland,VBO,5.223899,52.381908
Raamstraat,6,,,1316CA,Almere,Almere,Flevoland,VBO,5.223879,52.381868
Raamstraat,7,,,1316CB,Almere,Almere,Flevoland,VBO,5.223731,52.381606
Raamstraat,8,,,1316CB,Almere,Almere,Flevoland,VBO,5.223711,52.381559
Raamstraat,9,,,1316CB,Almere,Almere,Flevoland,VBO,5.223684,52.381511
Raamstraat,10,,,1316CB,Almere,Almere,Flevoland,VBO,5.223659,52.381473
Leijhof,1,,,1316CC,Almere,Almere,Flevoland,VBO,5.222585,52.381912
Leijhof,2,,,1316CC,Almere,Almere,Flevoland,VBO,5.222554,52.381866
Leijhof,3,,,1316CC,Almere,Almere,Flevoland,VBO,5.222537,52.381828
Leijhof,4,,,1316CC,Almere,Almere,Flevoland,VBO,5.222516,52.381785
Leijhof,5,,,1316CC,Almere,Almere,Flevoland,VBO,5.222491,52.381743
Leijhof,6,,,1316CC,Almere,Almere,Flevoland,VBO,5.222463,52.381694
Leijhof,7,,,1316CC,Almere,Almere,Flevoland,VBO,5.222376,52.381639
Leijhof,8,,,1316CC,Almere,Almere,Flevoland,VBO,5.222355,52.381592
Leijhof,9,,,1316CC,Almere,Almere,Flevoland,VBO,5.222330,52.381553
Leijhof,10,,,1316CC,Almere,Almere,Flevoland,VBO,5.222305,52.381509
Leijhof,11,,,1316CC,Almere,Almere,Flevoland,VBO,5.222282,52.381466
Leijhof,12,,,1316CC,Almere,Almere,Flevoland,VBO,5.222257,52.381425
Leijhof,13,,,1316CE,Almere,Almere,Flevoland,VBO,5.222510,52.381367
Leijhof,14,,,1316CE,Almere,Almere,Flevoland,VBO,5.222581,52.381352
Leijhof,15,,,1316CE,Almere,Almere,Flevoland,VBO,5.222656,52.381339
Leijhof,16,,,1316CE,Almere,Almere,Flevoland,VBO,5.222724,52.381325
Leijhof,17,,,1316CE,Almere,Almere,Flevoland,VBO,5.222791,52.381311
Leijhof,18,,,1316CE,Almere,Almere,Flevoland,VBO,5.222869,52.381293
Leijhof,19,,,1316CE,Almere,Almere,Flevoland,VBO,5.222938,52.381198
Leijhof,20,,,1316CE,Almere,Almere,Flevoland,VBO,5.223005,52.381182
Leijhof,21,,,1316CE,Almere,Almere,Flevoland,VBO,5.223079,52.381167
Leijhof,22,,,1316CE,Almere,Almere,Flevoland,VBO,5.223153,52.381151
Leijhof,23,,,1316CE,Almere,Almere,Flevoland,VBO,5.223212,52.381137
Leijhof,24,,,1316CE,Almere,Almere,Flevoland,VBO,5.223294,52.381121
Leijhof,27,,,1316CG,Almere,Almere,Flevoland,VBO,5.223393,52.381193
Leijhof,28,,,1316CG,Almere,Almere,Flevoland,VBO,5.223418,52.381237
Leijhof,29,,,1316CG,Almere,Almere,Flevoland,VBO,5.223443,52.381283
Leijhof,30,,,1316CG,Almere,Almere,Flevoland,VBO,5.223467,52.381324
Leijhof,31,,,1316CG,Almere,Almere,Flevoland,VBO,5.223484,52.381361
Leijhof,32,,,1316CG,Almere,Almere,Flevoland,VBO,5.223514,52.381412
Amerhof,1,,,1316CH,Almere,Almere,Flevoland,VBO,5.222663,52.382052
Amerhof,2,,,1316CH,Almere,Almere,Flevoland,VBO,5.222684,52.382089
Amerhof,3,,,1316CH,Almere,Almere,Flevoland,VBO,5.222709,52.382136
Amerhof,4,,,1316CH,Almere,Almere,Flevoland,VBO,5.222733,52.382179
Amerhof,5,,,1316CH,Almere,Almere,Flevoland,VBO,5.222759,52.382227
Amerhof,6,,,1316CH,Almere,Almere,Flevoland,VBO,5.222780,52.382269
Amerhof,7,,,1316CH,Almere,Almere,Flevoland,VBO,5.222778,52.382362
Amerhof,8,,,1316CH,Almere,Almere,Flevoland,VBO,5.222797,52.382401
Amerhof,9,,,1316CH,Almere,Almere,Flevoland,VBO,5.222826,52.382445
Amerhof,10,,,1316CH,Almere,Almere,Flevoland,VBO,5.222853,52.382490
Amerhof,11,,,1316CH,Almere,Almere,Flevoland,VBO,5.222871,52.382531
Amerhof,12,,,1316CH,Almere,Almere,Flevoland,VBO,5.222896,52.382578
Amerhof,13,,,1316CH,Almere,Almere,Flevoland,VBO,5.222924,52.382623
Amerhof,14,,,1316CH,Almere,Almere,Flevoland,VBO,5.222944,52.382666
Amerhof,15,,,1316CJ,Almere,Almere,Flevoland,VBO,5.222963,52.382770
Amerhof,16,,,1316CJ,Almere,Almere,Flevoland,VBO,5.223027,52.382753
Amerhof,17,,,1316CJ,Almere,Almere,Flevoland,VBO,5.223101,52.382739
Amerhof,18,,,1316CJ,Almere,Almere,Flevoland,VBO,5.223178,52.382722
Amerhof,19,,,1316CJ,Almere,Almere,Flevoland,VBO,5.223248,52.382708
Amerhof,20,,,1316CJ,Almere,Almere,Flevoland,VBO,5.223319,52.382693
Amerhof,21,,,1316CJ,Almere,Almere,Flevoland,VBO,5.223383,52.382677
Amerhof,22,,,1316CJ,Almere,Almere,Flevoland,VBO,5.223456,52.382664
Amerhof,23,,,1316CJ,Almere,Almere,Flevoland,VBO,5.223528,52.382651
Amerhof,24,,,1316CJ,Almere,Almere,Flevoland,VBO,5.223689,52.382655
Amerhof,25,,,1316CJ,Almere,Almere,Flevoland,VBO,5.223764,52.382638
Amerhof,26,,,1316CJ,Almere,Almere,Flevoland,VBO,5.223834,52.382627
Amerhof,27,,,1316CJ,Almere,Almere,Flevoland,VBO,5.223902,52.382610
Amerhof,28,,,1316CJ,Almere,Almere,Flevoland,VBO,5.223973,52.382596
Amerhof,29,,,1316CJ,Almere,Almere,Flevoland,VBO,5.224045,52.382581
Amerhof,30,,,1316CJ,Almere,Almere,Flevoland,VBO,5.224108,52.382569
Amerhof,31,,,1316CJ,Almere,Almere,Flevoland,VBO,5.224181,52.382551
Amerhof,32,,,1316CJ,Almere,Almere,Flevoland,VBO,5.224251,52.382529
Amerhof,34,,,1316CK,Almere,Almere,Flevoland,VBO,5.224138,52.382436
Amerhof,35,,,1316CK,Almere,Almere,Flevoland,VBO,5.224113,52.382391
Amerhof,36,,,1316CK,Almere,Almere,Flevoland,VBO,5.224090,52.382349
Amerhof,37,,,1316CK,Almere,Almere,Flevoland,VBO,5.224060,52.382303
Amerhof,38,,,1316CK,Almere,Almere,Flevoland,VBO,5.224044,52.382268
Amerhof,39,,,1316CK,Almere,Almere,Flevoland,VBO,5.224015,52.382215
Amerhof,40,,,1316CK,Almere,Almere,Flevoland,VBO,5.223988,52.382172
Amerhof,41,,,1316CL,Almere,Almere,Flevoland,VBO,5.223717,52.382182
Amerhof,42,,,1316CL,Almere,Almere,Flevoland,VBO,5.223646,52.382200
Amerhof,43,,,1316CL,Almere,Almere,Flevoland,VBO,5.223573,52.382212
Amerhof,44,,,1316CL,Almere,Almere,Flevoland,VBO,5.223489,52.382229
Amerhof,45,,,1316CL,Almere,Almere,Flevoland,VBO,5.223429,52.382243
Amerhof,46,,,1316CL,Almere,Almere,Flevoland,VBO,5.223355,52.382259
Amerhof,47,,,1316CL,Almere,Almere,Flevoland,VBO,5.223279,52.382271
Amerhof,48,,,1316CL,Almere,Almere,Flevoland,VBO,5.223210,52.382288
Amerhof,49,,,1316CL,Almere,Almere,Flevoland,VBO,5.223100,52.382308
Amerhof,50,,,1316CL,Almere,Almere,Flevoland,VBO,5.223073,52.382271
Lingestraat,1,,,1316CN,Almere,Almere,Flevoland,VBO,5.223655,52.381696
Lingestraat,5,,,1316CN,Almere,Almere,Flevoland,VBO,5.223450,52.381709
Lingestraat,7,,,1316CN,Almere,Almere,Flevoland,VBO,5.223378,52.381725
Lingestraat,9,,,1316CN,Almere,Almere,Flevoland,VBO,5.223301,52.381739
Lingestraat,11,,,1316CN,Almere,Almere,Flevoland,VBO,5.223220,52.381754
Lingestraat,13,,,1316CN,Almere,Almere,Flevoland,VBO,5.223161,52.381768
Lingestraat,15,,,1316CN,Almere,Almere,Flevoland,VBO,5.223093,52.381783
Lingestraat,17,,,1316CN,Almere,Almere,Flevoland,VBO,5.223020,52.381798
Lingestraat,19,,,1316CN,Almere,Almere,Flevoland,VBO,5.222943,52.381813
Lingestraat,21,,,1316CP,Almere,Almere,Flevoland,VBO,5.221882,52.382394
Lingestraat,23,,,1316CP,Almere,Almere,Flevoland,VBO,5.221802,52.382409
Lingestraat,25,,,1316CP,Almere,Almere,Flevoland,VBO,5.221728,52.382424
Lingestraat,27,,,1316CP,Almere,Almere,Flevoland,VBO,5.221664,52.382438
Lingestraat,29,,,1316CP,Almere,Almere,Flevoland,VBO,5.221594,52.382452
Lingestraat,31,,,1316CP,Almere,Almere,Flevoland,VBO,5.221518,52.382467
Lingestraat,33,,,1316CP,Almere,Almere,Flevoland,VBO,5.221444,52.382482
Lingestraat,35,,,1316CP,Almere,Almere,Flevoland,VBO,5.221376,52.382497
Lingestraat,37,,,1316CP,Almere,Almere,Flevoland,VBO,5.221296,52.382515
Lingestraat,2,,,1316CR,Almere,Almere,Flevoland,VBO,5.223727,52.381818
Lingestraat,6,,,1316CR,Almere,Almere,Flevoland,VBO,5.223550,52.381889
Lingestraat,8,,,1316CR,Almere,Almere,Flevoland,VBO,5.223474,52.381903
Lingestraat,10,,,1316CR,Almere,Almere,Flevoland,VBO,5.223400,52.381918
Lingestraat,12,,,1316CR,Almere,Almere,Flevoland,VBO,5.223334,52.381931
Lingestraat,14,,,1316CR,Almere,Almere,Flevoland,VBO,5.223261,52.381948
Lingestraat,16,,,1316CR,Almere,Almere,Flevoland,VBO,5.223188,52.381963
Lingestraat,18,,,1316CR,Almere,Almere,Flevoland,VBO,5.223113,52.381977
Lingestraat,20,,,1316CR,Almere,Almere,Flevoland,VBO,5.223049,52.381992
Lingestraat,22,,,1316CS,Almere,Almere,Flevoland,VBO,5.222093,52.382169
Lingestraat,24,,,1316CS,Almere,Almere,Flevoland,VBO,5.222116,52.382208
Lingestraat,26,,,1316CS,Almere,Almere,Flevoland,VBO,5.222143,52.382252
Lingestraat,28,,,1316CS,Almere,Almere,Flevoland,VBO,5.222166,52.382297
Lingestraat,30,,,1316CS,Almere,Almere,Flevoland,VBO,5.222187,52.382339
Lingestraat,32,,,1316CS,Almere,Almere,Flevoland,VBO,5.222218,52.382384
Lingestraat,34,,,1316CS,Almere,Almere,Flevoland,VBO,5.222090,52.382769
Lingestraat,36,,,1316CS,Almere,Almere,Flevoland,VBO,5.222638,52.382911
Lingestraat,38,,,1316CS,Almere,Almere,Flevoland,VBO,5.221478,52.382799
Neerhof,1,,,1316CT,Almere,Almere,Flevoland,VBO,5.222021,52.382033
Neerhof,2,,,1316CT,Almere,Almere,Flevoland,VBO,5.221996,52.381989
Neerhof,3,,,1316CT,Almere,Almere,Flevoland,VBO,5.221969,52.381945
Neerhof,4,,,1316CT,Almere,Almere,Flevoland,VBO,5.221947,52.381897
Neerhof,5,,,1316CT,Almere,Almere,Flevoland,VBO,5.221922,52.381855
Neerhof,6,,,1316CT,Almere,Almere,Flevoland,VBO,5.221899,52.381811
Neerhof,7,,,1316CT,Almere,Almere,Flevoland,VBO,5.221875,52.381773
Neerhof,8,,,1316CT,Almere,Almere,Flevoland,VBO,5.221846,52.381725
Neerhof,9,,,1316CV,Almere,Almere,Flevoland,VBO,5.221818,52.381618
Neerhof,10,,,1316CV,Almere,Almere,Flevoland,VBO,5.221745,52.381637
Neerhof,11,,,1316CV,Almere,Almere,Flevoland,VBO,5.221677,52.381651
Neerhof,12,,,1316CV,Almere,Almere,Flevoland,VBO,5.221598,52.381664
Neerhof,13,,,1316CV,Almere,Almere,Flevoland,VBO,5.221523,52.381679
Neerhof,14,,,1316CV,Almere,Almere,Flevoland,VBO,5.221459,52.381695
Neerhof,15,,,1316CV,Almere,Almere,Flevoland,VBO,5.221382,52.381709
Neerhof,16,,,1316CV,Almere,Almere,Flevoland,VBO,5.221273,52.381755
Neerhof,17,,,1316CV,Almere,Almere,Flevoland,VBO,5.221189,52.381769
Neerhof,18,,,1316CV,Almere,Almere,Flevoland,VBO,5.221130,52.381782
Neerhof,19,,,1316CV,Almere,Almere,Flevoland,VBO,5.221052,52.381796
Neerhof,20,,,1316CV,Almere,Almere,Flevoland,VBO,5.220981,52.381813
Neerhof,21,,,1316CV,Almere,Almere,Flevoland,VBO,5.220907,52.381828
Neerhof,22,,,1316CX,Almere,Almere,Flevoland,VBO,5.221207,52.382195
Neerhof,23,,,1316CX,Almere,Almere,Flevoland,VBO,5.221273,52.382182
Neerhof,24,,,1316CX,Almere,Almere,Flevoland,VBO,5.221349,52.382163
Neerhof,25,,,1316CX,Almere,Almere,Flevoland,VBO,5.221431,52.382153
Neerhof,26,,,1316CX,Almere,Almere,Flevoland,VBO,5.221499,52.382137
Neerhof,27,,,1316CX,Almere,Almere,Flevoland,VBO,5.221561,52.382123
Neerhof,28,,,1316CX,Almere,Almere,Flevoland,VBO,5.221641,52.382107
Neerhof,29,,,1316CX,Almere,Almere,Flevoland,VBO,5.221708,52.382091
Maaspad,1,,,1316EA,Almere,Almere,Flevoland,VBO,5.221031,52.382485
Maaspad,3,,,1316EA,Almere,Almere,Flevoland,VBO,5.221008,52.382444
Maaspad,5,,,1316EA,Almere,Almere,Flevoland,VBO,5.220981,52.382398
Maaspad,7,,,1316EA,Almere,Almere,Flevoland,VBO,5.220958,52.382357
Maaspad,9,,,1316EA,Almere,Almere,Flevoland,VBO,5.220933,52.382313
Maaspad,11,,,1316EA,Almere,Almere,Flevoland,VBO,5.220909,52.382270
Maaspad,13,,,1316EA,Almere,Almere,Flevoland,VBO,5.220886,52.382226
Maaspad,15,,,1316EA,Almere,Almere,Flevoland,VBO,5.220868,52.382145
Maaspad,17,,,1316EA,Almere,Almere,Flevoland,VBO,5.220840,52.382102
Maaspad,19,,,1316EA,Almere,Almere,Flevoland,VBO,5.220816,52.382053
Maaspad,21,,,1316EA,Almere,Almere,Flevoland,VBO,5.220787,52.382010
Maaspad,23,,,1316EA,Almere,Almere,Flevoland,VBO,5.220771,52.381968
Maaspad,25,,,1316EA,Almere,Almere,Flevoland,VBO,5.220743,52.381927
Maaspad,27,,,1316EA,Almere,Almere,Flevoland,VBO,5.220749,52.381856
Maaspad,2,,,1316EB,Almere,Almere,Flevoland,VBO,5.221095,52.383094
Maaspad,4,,,1316EB,Almere,Almere,Flevoland,VBO,5.221069,52.383046
Maaspad,6,,,1316EB,Almere,Almere,Flevoland,VBO,5.221045,52.383003
Maaspad,8,,,1316EB,Almere,Almere,Flevoland,VBO,5.221017,52.382960
Maaspad,10,,,1316EB,Almere,Almere,Flevoland,VBO,5.220999,52.382921
Maaspad,12,,,1316EB,Almere,Almere,Flevoland,VBO,5.220974,52.382876
Maaspad,14,,,1316EB,Almere,Almere,Flevoland,VBO,5.220946,52.382830
Maaspad,16,,,1316EB,Almere,Almere,Flevoland,VBO,5.220924,52.382784
Maaspad,18,,,1316EB,Almere,Almere,Flevoland,VBO,5.220872,52.382756
Maaspad,20,,,1316EC,Almere,Almere,Flevoland,VBO,5.220788,52.382538
Maaspad,22,,,1316EC,Almere,Almere,Flevoland,VBO,5.220760,52.382494
Maaspad,24,,,1316EC,Almere,Almere,Flevoland,VBO,5.220738,52.382451
Maaspad,26,,,1316EC,Almere,Almere,Flevoland,VBO,5.220714,52.382405
Maaspad,28,,,1316EC,Almere,Almere,Flevoland,VBO,5.220691,52.382367
Maaspad,30,,,1316EC,Almere,Almere,Flevoland,VBO,5.220666,52.382322
Maaspad,32,,,1316EC,Almere,Almere,Flevoland,VBO,5.220623,52.382245
Maaspad,34,,,1316EC,Almere,Almere,Flevoland,VBO,5.220595,52.382196
Maaspad,36,,,1316EC,Almere,Almere,Flevoland,VBO,5.220569,52.382152
Maaspad,38,,,1316EC,Almere,Almere,Flevoland,VBO,5.220545,52.382111
Maaspad,40,,,1316EC,Almere,Almere,Flevoland,VBO,5.220523,52.382069
Maaspad,42,,,1316EC,Almere,Almere,Flevoland,VBO,5.220505,52.382028
Maaspad,44,,,1316EC,Almere,Almere,Flevoland,VBO,5.220424,52.381910
Spuihof,1,,,1316EE,Almere,Almere,Flevoland,VBO,5.219822,52.382923
Spuihof,2,,,1316EE,Almere,Almere,Flevoland,VBO,5.219798,52.382884
Spuihof,3,,,1316EE,Almere,Almere,Flevoland,VBO,5.219771,52.382837
Spuihof,4,,,1316EE,Almere,Almere,Flevoland,VBO,5.219746,52.382794
Spuihof,5,,,1316EE,Almere,Almere,Flevoland,VBO,5.219727,52.382753
Spuihof,6,,,1316EE,Almere,Almere,Flevoland,VBO,5.219698,52.382706
Spuihof,7,,,1316EE,Almere,Almere,Flevoland,VBO,5.219677,52.382666
Spuihof,8,,,1316EE,Almere,Almere,Flevoland,VBO,5.219654,52.382621
Spuihof,9,,,1316EE,Almere,Almere,Flevoland,VBO,5.219610,52.382541
Spuihof,10,,,1316EE,Almere,Almere,Flevoland,VBO,5.219586,52.382500
Spuihof,11,,,1316EE,Almere,Almere,Flevoland,VBO,5.219564,52.382458
Spuihof,12,,,1316EE,Almere,Almere,Flevoland,VBO,5.219540,52.382414
Spuihof,13,,,1316EE,Almere,Almere,Flevoland,VBO,5.219506,52.382368
Spuihof,14,,,1316EE,Almere,Almere,Flevoland,VBO,5.219486,52.382327
Spuihof,15,,,1316EE,Almere,Almere,Flevoland,VBO,5.219470,52.382290
Spuihof,16,,,1316EE,Almere,Almere,Flevoland,VBO,5.219436,52.382235
Spuihof,17,,,1316EG,Almere,Almere,Flevoland,VBO,5.219306,52.382161
Spuihof,18,,,1316EG,Almere,Almere,Flevoland,VBO,5.219384,52.382144
Spuihof,19,,,1316EG,Almere,Almere,Flevoland,VBO,5.219459,52.382132
Spuihof,20,,,1316EG,Almere,Almere,Flevoland,VBO,5.219530,52.382114
Spuihof,21,,,1316EG,Almere,Almere,Flevoland,VBO,5.219598,52.382098
Spuihof,22,,,1316EG,Almere,Almere,Flevoland,VBO,5.219672,52.382088
Spuihof,23,,,1316EG,Almere,Almere,Flevoland,VBO,5.219739,52.382069
Spuihof,24,,,1316EG,Almere,Almere,Flevoland,VBO,5.219819,52.382054
Spuihof,25,,,1316EG,Almere,Almere,Flevoland,VBO,5.219942,52.382009
Spuihof,26,,,1316EG,Almere,Almere,Flevoland,VBO,5.220011,52.381994
Spuihof,27,,,1316EG,Almere,Almere,Flevoland,VBO,5.220085,52.381982
Spuihof,28,,,1316EG,Almere,Almere,Flevoland,VBO,5.220145,52.381967
Spuihof,29,,,1316EG,Almere,Almere,Flevoland,VBO,5.220217,52.381955
Spuihof,30,,,1316EG,Almere,Almere,Flevoland,VBO,5.220291,52.381936
Spuihof,31,,,1316EH,Almere,Almere,Flevoland,VBO,5.220362,52.382380
Spuihof,32,,,1316EH,Almere,Almere,Flevoland,VBO,5.220285,52.382396
Spuihof,33,,,1316EH,Almere,Almere,Flevoland,VBO,5.220213,52.382412
Spuihof,34,,,1316EH,Almere,Almere,Flevoland,VBO,5.220136,52.382426
Spuihof,35,,,1316EH,Almere,Almere,Flevoland,VBO,5.220074,52.382438
Spuihof,36,,,1316EH,Almere,Almere,Flevoland,VBO,5.220003,52.382455
Merwedehof,1,,,1316EJ,Almere,Almere,Flevoland,VBO,5.220701,52.382637
Merwedehof,3,,,1316EJ,Almere,Almere,Flevoland,VBO,5.220532,52.382692
Merwedehof,4,,,1316EJ,Almere,Almere,Flevoland,VBO,5.220451,52.382708
Merwedehof,5,,,1316EJ,Almere,Almere,Flevoland,VBO,5.220386,52.382721
Merwedehof,6,,,1316EJ,Almere,Almere,Flevoland,VBO,5.220315,52.382736
Merwedehof,7,,,1316EJ,Almere,Almere,Flevoland,VBO,5.220247,52.382749
Merwedehof,8,,,1316EJ,Almere,Almere,Flevoland,VBO,5.220173,52.382765
Merwedehof,9,,,1316EK,Almere,Almere,Flevoland,VBO,5.219828,52.383017
Merwedehof,10,,,1316EK,Almere,Almere,Flevoland,VBO,5.219850,52.383063
Merwedehof,11,,,1316EK,Almere,Almere,Flevoland,VBO,5.219873,52.383104
Merwedehof,12,,,1316EK,Almere,Almere,Flevoland,VBO,5.219898,52.383149
Merwedehof,13,,,1316EK,Almere,Almere,Flevoland,VBO,5.219922,52.383199
Merwedehof,14,,,1316EK,Almere,Almere,Flevoland,VBO,5.219947,52.383237
Merwedehof,15,,,1316EK,Almere,Almere,Flevoland,VBO,5.219971,52.383277
Merwedehof,16,,,1316EK,Almere,Almere,Flevoland,VBO,5.219994,52.383324
Merwedehof,17,,,1316EL,Almere,Almere,Flevoland,VBO,5.219982,52.383432
Merwedehof,18,,,1316EL,Almere,Almere,Flevoland,VBO,5.220049,52.383418
Merwedehof,19,,,1316EL,Almere,Almere,Flevoland,VBO,5.220120,52.383405
Merwedehof,20,,,1316EL,Almere,Almere,Flevoland,VBO,5.220185,52.383391
Merwedehof,21,,,1316EL,Almere,Almere,Flevoland,VBO,5.220262,52.383375
Merwedehof,22,,,1316EL,Almere,Almere,Flevoland,VBO,5.220337,52.383361
Merwedehof,23,,,1316EL,Almere,Almere,Flevoland,VBO,5.220402,52.383348
Merwedehof,24,,,1316EL,Almere,Almere,Flevoland,VBO,5.220476,52.383334
Merwedehof,25,,,1316EL,Almere,Almere,Flevoland,VBO,5.220613,52.383291
Merwedehof,26,,,1316EL,Almere,Almere,Flevoland,VBO,5.220687,52.383277
Merwedehof,27,,,1316EL,Almere,Almere,Flevoland,VBO,5.220756,52.383264
Merwedehof,28,,,1316EL,Almere,Almere,Flevoland,VBO,5.220825,52.383250
Merwedehof,29,,,1316EL,Almere,Almere,Flevoland,VBO,5.220897,52.383235
Merwedehof,30,,,1316EL,Almere,Almere,Flevoland,VBO,5.220964,52.383219
Merwedehof,31,,,1316EL,Almere,Almere,Flevoland,VBO,5.221041,52.383205
Merwedehof,32,,,1316EL,Almere,Almere,Flevoland,VBO,5.221105,52.383191
Lekstraat,2,,,1316EM,Almere,Almere,Flevoland,VBO,5.226142,52.384098
Rijnweg,10,,,1316EP,Almere,Almere,Flevoland,VBO,5.224945,52.383552
Waalstraat,1,,,1316ER,Almere,Almere,Flevoland,VBO,5.224177,52.383074
Waalstraat,3,,,1316ER,Almere,Almere,Flevoland,VBO,5.224102,52.383090
Waalstraat,5,,,1316ER,Almere,Almere,Flevoland,VBO,5.224026,52.383106
Waalstraat,7,,,1316ER,Almere,Almere,Flevoland,VBO,5.223951,52.383121
Waalstraat,9,,,1316ER,Almere,Almere,Flevoland,VBO,5.223875,52.383138
Waalstraat,11,,,1316ER,Almere,Almere,Flevoland,VBO,5.223798,52.383152
Waalstraat,13,,,1316ER,Almere,Almere,Flevoland,VBO,5.223726,52.383167
Waalstraat,15,,,1316ER,Almere,Almere,Flevoland,VBO,5.223650,52.383183
Waalstraat,17,,,1316ER,Almere,Almere,Flevoland,VBO,5.223575,52.383200
Waalstraat,19,,,1316ER,Almere,Almere,Flevoland,VBO,5.223500,52.383214
Waalstraat,21,,,1316ER,Almere,Almere,Flevoland,VBO,5.223421,52.383231
Waalstraat,23,,,1316ER,Almere,Almere,Flevoland,VBO,5.223345,52.383246
Waalstraat,25,,,1316ER,Almere,Almere,Flevoland,VBO,5.223270,52.383261
Waalstraat,27,,,1316ER,Almere,Almere,Flevoland,VBO,5.223191,52.383278
Waalstraat,29,,,1316ER,Almere,Almere,Flevoland,VBO,5.223121,52.383293
Waalstraat,31,,,1316ER,Almere,Almere,Flevoland,VBO,5.223046,52.383309
Waalstraat,33,,,1316ES,Almere,Almere,Flevoland,VBO,5.222878,52.383340
Waalstraat,35,,,1316ES,Almere,Almere,Flevoland,VBO,5.222798,52.383356
Waalstraat,37,,,1316ES,Almere,Almere,Flevoland,VBO,5.222726,52.383372
Waalstraat,39,,,1316ES,Almere,Almere,Flevoland,VBO,5.222651,52.383388
Waalstraat,41,,,1316ES,Almere,Almere,Flevoland,VBO,5.222576,52.383403
Waalstraat,43,,,1316ES,Almere,Almere,Flevoland,VBO,5.222502,52.383418
Waalstraat,45,,,1316ES,Almere,Almere,Flevoland,VBO,5.222425,52.383434
Waalstraat,47,,,1316ES,Almere,Almere,Flevoland,VBO,5.222347,52.383450
Waalstraat,49,,,1316ES,Almere,Almere,Flevoland,VBO,5.222273,52.383466
Waalstraat,51,,,1316ES,Almere,Almere,Flevoland,VBO,5.222195,52.383482
Waalstraat,53,,,1316ES,Almere,Almere,Flevoland,VBO,5.222122,52.383497
Waalstraat,55,,,1316ES,Almere,Almere,Flevoland,VBO,5.222046,52.383511
Waalstraat,57,,,1316ES,Almere,Almere,Flevoland,VBO,5.221970,52.383528
Waalstraat,59,,,1316ES,Almere,Almere,Flevoland,VBO,5.221897,52.383544
Waalstraat,61,,,1316ES,Almere,Almere,Flevoland,VBO,5.221825,52.383559
Waalstraat,63,,,1316ES,Almere,Almere,Flevoland,VBO,5.221744,52.383575
Waalstraat,65,,,1316ES,Almere,Almere,Flevoland,VBO,5.221613,52.383612
Waalstraat,67,,,1316ES,Almere,Almere,Flevoland,VBO,5.221562,52.383518
Waalstraat,71,,,1316ET,Almere,Almere,Flevoland,VBO,5.221396,52.383556
Waalstraat,75,,,1316ET,Almere,Almere,Flevoland,VBO,5.221453,52.383653
Waalstraat,79,,,1316ET,Almere,Almere,Flevoland,VBO,5.221312,52.383670
Waalstraat,81,,,1316ET,Almere,Almere,Flevoland,VBO,5.221234,52.383685
Waalstraat,83,,,1316ET,Almere,Almere,Flevoland,VBO,5.221156,52.383701
Waalstraat,85,,,1316ET,Almere,Almere,Flevoland,VBO,5.221086,52.383718
Waalstraat,87,,,1316ET,Almere,Almere,Flevoland,VBO,5.221008,52.383732
Waalstraat,89,,,1316ET,Almere,Almere,Flevoland,VBO,5.220937,52.383748
Waalstraat,91,,,1316ET,Almere,Almere,Flevoland,VBO,5.220862,52.383763
Waalstraat,93,,,1316ET,Almere,Almere,Flevoland,VBO,5.220787,52.383778
Waalstraat,95,,,1316ET,Almere,Almere,Flevoland,VBO,5.220712,52.383793
Waalstraat,97,,,1316ET,Almere,Almere,Flevoland,VBO,5.220640,52.383809
Waalstraat,99,,,1316ET,Almere,Almere,Flevoland,VBO,5.220560,52.383826
Waalstraat,101,,,1316ET,Almere,Almere,Flevoland,VBO,5.220489,52.383841
Waalstraat,107,,,1316EV,Almere,Almere,Flevoland,VBO,5.220238,52.383902
Waalstraat,111,,,1316EV,Almere,Almere,Flevoland,VBO,5.220361,52.383944
Waalstraat,113,,,1316EV,Almere,Almere,Flevoland,VBO,5.220384,52.383990
Waalstraat,115,,,1316EV,Almere,Almere,Flevoland,VBO,5.220413,52.384036
Waalstraat,117,,,1316EV,Almere,Almere,Flevoland,VBO,5.220438,52.384081
Waalstraat,119,,,1316EV,Almere,Almere,Flevoland,VBO,5.220462,52.384127
Waalstraat,121,,,1316EV,Almere,Almere,Flevoland,VBO,5.220487,52.384175
Waalstraat,123,,,1316EV,Almere,Almere,Flevoland,VBO,5.220507,52.384225
Waalstraat,125,,,1316EV,Almere,Almere,Flevoland,VBO,5.220529,52.384270
Waalstraat,127,,,1316EV,Almere,Almere,Flevoland,VBO,5.220558,52.384319
Waalstraat,129,,,1316EV,Almere,Almere,Flevoland,VBO,5.220586,52.384367
Waalstraat,131,,,1316EV,Almere,Almere,Flevoland,VBO,5.220612,52.384412
Waalstraat,133,,,1316EV,Almere,Almere,Flevoland,VBO,5.220635,52.384459
Waalstraat,135,,,1316EV,Almere,Almere,Flevoland,VBO,5.220662,52.384506
Waalstraat,137,,,1316EV,Almere,Almere,Flevoland,VBO,5.220691,52.384551
Waalstraat,139,,,1316EV,Almere,Almere,Flevoland,VBO,5.220713,52.384596
Waalstraat,141,,,1316EV,Almere,Almere,Flevoland,VBO,5.220742,52.384636
Waalstraat,143,,,1316EW,Almere,Almere,Flevoland,VBO,5.220826,52.384791
Waalstraat,145,,,1316EW,Almere,Almere,Flevoland,VBO,5.220899,52.384812
Waalstraat,147,,,1316EW,Almere,Almere,Flevoland,VBO,5.220968,52.384834
Waalstraat,149,,,1316EW,Almere,Almere,Flevoland,VBO,5.221039,52.384857
Waalstraat,151,,,1316EW,Almere,Almere,Flevoland,VBO,5.221112,52.384877
Waalstraat,153,,,1316EW,Almere,Almere,Flevoland,VBO,5.221182,52.384898
Waalstraat,155,,,1316EW,Almere,Almere,Flevoland,VBO,5.221251,52.384920
Waalstraat,157,,,1316EW,Almere,Almere,Flevoland,VBO,5.221326,52.384942
Waalstraat,159,,,1316EX,Almere,Almere,Flevoland,VBO,5.221530,52.385050
Waalstraat,161,,,1316EX,Almere,Almere,Flevoland,VBO,5.221605,52.385072
Waalstraat,163,,,1316EX,Almere,Almere,Flevoland,VBO,5.221672,52.385091
Waalstraat,165,,,1316EX,Almere,Almere,Flevoland,VBO,5.221743,52.385114
Waalstraat,167,,,1316EX,Almere,Almere,Flevoland,VBO,5.221812,52.385135
Waalstraat,169,,,1316EX,Almere,Almere,Flevoland,VBO,5.221886,52.385158
Waalstraat,171,,,1316EX,Almere,Almere,Flevoland,VBO,5.221953,52.385177
Waalstraat,173,,,1316EX,Almere,Almere,Flevoland,VBO,5.222025,52.385199
Waalstraat,175,,,1316EX,Almere,Almere,Flevoland,VBO,5.222102,52.385220
Waalstraat,177,,,1316EX,Almere,Almere,Flevoland,VBO,5.222168,52.385241
Waalstraat,179,,,1316EX,Almere,Almere,Flevoland,VBO,5.222241,52.385265
Waalstraat,181,,,1316EX,Almere,Almere,Flevoland,VBO,5.222313,52.385286
Waalstraat,183,,,1316EX,Almere,Almere,Flevoland,VBO,5.222385,52.385308
Waalstraat,185,,,1316EX,Almere,Almere,Flevoland,VBO,5.222456,52.385330
Waalstraat,187,,,1316EX,Almere,Almere,Flevoland,VBO,5.222529,52.385351
Waalstraat,189,,,1316EX,Almere,Almere,Flevoland,VBO,5.222601,52.385373
Waalstraat,191,,,1316EZ,Almere,Almere,Flevoland,VBO,5.222710,52.385472
Waalstraat,193,,,1316EZ,Almere,Almere,Flevoland,VBO,5.222829,52.385507
Waalstraat,195,,,1316EZ,Almere,Almere,Flevoland,VBO,5.222934,52.385540
Waalstraat,197,,,1316EZ,Almere,Almere,Flevoland,VBO,5.223044,52.385573
Waalstraat,199,,,1316EZ,Almere,Almere,Flevoland,VBO,5.223152,52.385605
Waalstraat,201,,,1316EZ,Almere,Almere,Flevoland,VBO,5.223263,52.385641
Waalstraat,203,,,1316EZ,Almere,Almere,Flevoland,VBO,5.223382,52.385675
Waalstraat,205,,,1316EZ,Almere,Almere,Flevoland,VBO,5.223491,52.385710
Waalstraat,207,,,1316EZ,Almere,Almere,Flevoland,VBO,5.223595,52.385739
Waalstraat,209,,,1316EZ,Almere,Almere,Flevoland,VBO,5.223717,52.385776
Waalstraat,2,,,1316GA,Almere,Almere,Flevoland,VBO,5.224166,52.383339
Waalstraat,4,,,1316GA,Almere,Almere,Flevoland,VBO,5.224048,52.383363
Waalstraat,6,,,1316GA,Almere,Almere,Flevoland,VBO,5.223936,52.383387
Waalstraat,8,,,1316GA,Almere,Almere,Flevoland,VBO,5.223821,52.383411
Waalstraat,10,,,1316GB,Almere,Almere,Flevoland,VBO,5.223505,52.383585
Waalstraat,12,,,1316GB,Almere,Almere,Flevoland,VBO,5.223398,52.383608
Waalstraat,14,,,1316GB,Almere,Almere,Flevoland,VBO,5.223283,52.383633
Waalstraat,16,,,1316GB,Almere,Almere,Flevoland,VBO,5.223163,52.383657
Waalstraat,18,,,1316GC,Almere,Almere,Flevoland,VBO,5.222748,52.383634
Waalstraat,20,,,1316GC,Almere,Almere,Flevoland,VBO,5.222631,52.383658
Waalstraat,22,,,1316GC,Almere,Almere,Flevoland,VBO,5.222521,52.383681
Waalstraat,24,,,1316GC,Almere,Almere,Flevoland,VBO,5.222398,52.383707
Waalstraat,26,,,1316GE,Almere,Almere,Flevoland,VBO,5.221228,52.383961
Waalstraat,28,,,1316GE,Almere,Almere,Flevoland,VBO,5.221089,52.383991
Waalstraat,30,,,1316GE,Almere,Almere,Flevoland,VBO,5.220973,52.384014
Waalstraat,32,,,1316GE,Almere,Almere,Flevoland,VBO,5.220873,52.384034
Waalstraat,34,,,1316GG,Almere,Almere,Flevoland,VBO,5.220963,52.384233
Waalstraat,36,,,1316GG,Almere,Almere,Flevoland,VBO,5.220993,52.384282
Waalstraat,38,,,1316GG,Almere,Almere,Flevoland,VBO,5.221018,52.384326
Waalstraat,40,,,1316GG,Almere,Almere,Flevoland,VBO,5.221043,52.384370
Waalstraat,42,,,1316GG,Almere,Almere,Flevoland,VBO,5.221069,52.384414
Waalstraat,44,,,1316GG,Almere,Almere,Flevoland,VBO,5.221094,52.384460
Waalstraat,46,,,1316GG,Almere,Almere,Flevoland,VBO,5.221119,52.384505
Waalstraat,48,,,1316GG,Almere,Almere,Flevoland,VBO,5.221147,52.384554
Waalstraat,50,,,1316GH,Almere,Almere,Flevoland,VBO,5.221881,52.384855
Waalstraat,52,,,1316GH,Almere,Almere,Flevoland,VBO,5.221991,52.384888
Waalstraat,54,,,1316GH,Almere,Almere,Flevoland,VBO,5.222100,52.384921
Waalstraat,56,,,1316GH,Almere,Almere,Flevoland,VBO,5.222214,52.384956
Waalstraat,58,,,1316GJ,Almere,Almere,Flevoland,VBO,5.222550,52.385057
Waalstraat,60,,,1316GJ,Almere,Almere,Flevoland,VBO,5.222663,52.385091
Waalstraat,62,,,1316GJ,Almere,Almere,Flevoland,VBO,5.222765,52.385121
Waalstraat,64,,,1316GJ,Almere,Almere,Flevoland,VBO,5.222881,52.385158
Waalstraat,66,,,1316GK,Almere,Almere,Flevoland,VBO,5.223177,52.385270
Waalstraat,68,,,1316GK,Almere,Almere,Flevoland,VBO,5.223256,52.385295
Waalstraat,70,,,1316GK,Almere,Almere,Flevoland,VBO,5.223326,52.385315
Waalstraat,72,,,1316GK,Almere,Almere,Flevoland,VBO,5.223397,52.385337
Waalstraat,74,,,1316GK,Almere,Almere,Flevoland,VBO,5.223466,52.385357
Waalstraat,76,,,1316GK,Almere,Almere,Flevoland,VBO,5.223539,52.385379
Waalstraat,78,,,1316GK,Almere,Almere,Flevoland,VBO,5.223609,52.385401
Waalstraat,80,,,1316GK,Almere,Almere,Flevoland,VBO,5.223679,52.385422
Vechtstraat,1,,,1316GL,Almere,Almere,Flevoland,VBO,5.224322,52.383525
Vechtstraat,2,,,1316GL,Almere,Almere,Flevoland,VBO,5.224346,52.383571
Vechtstraat,3,,,1316GL,Almere,Almere,Flevoland,VBO,5.224371,52.383616
Vechtstraat,4,,,1316GL,Almere,Almere,Flevoland,VBO,5.224396,52.383661
Vechtstraat,5,,,1316GL,Almere,Almere,Flevoland,VBO,5.224422,52.383710
Vechtstraat,6,,,1316GL,Almere,Almere,Flevoland,VBO,5.224447,52.383753
Vechtstraat,7,,,1316GL,Almere,Almere,Flevoland,VBO,5.224472,52.383798
Vechtstraat,8,,,1316GL,Almere,Almere,Flevoland,VBO,5.224500,52.383846
Waverstraat,1,,,1316GN,Almere,Almere,Flevoland,VBO,5.223669,52.383767
Waverstraat,3,,,1316GN,Almere,Almere,Flevoland,VBO,5.223694,52.383812
Waverstraat,5,,,1316GN,Almere,Almere,Flevoland,VBO,5.223720,52.383857
Waverstraat,7,,,1316GN,Almere,Almere,Flevoland,VBO,5.223743,52.383904
Waverstraat,9,,,1316GN,Almere,Almere,Flevoland,VBO,5.223770,52.383950
Waverstraat,11,,,1316GN,Almere,Almere,Flevoland,VBO,5.223795,52.383995
Waverstraat,13,,,1316GN,Almere,Almere,Flevoland,VBO,5.223821,52.384043
Waverstraat,15,,,1316GN,Almere,Almere,Flevoland,VBO,5.223848,52.384091
Waverstraat,2,,,1316GP,Almere,Almere,Flevoland,VBO,5.223893,52.383613
Waverstraat,4,,,1316GP,Almere,Almere,Flevoland,VBO,5.223920,52.383659
Waverstraat,6,,,1316GP,Almere,Almere,Flevoland,VBO,5.223947,52.383706
Waverstraat,8,,,1316GP,Almere,Almere,Flevoland,VBO,5.223970,52.383749
Waverstraat,10,,,1316GP,Almere,Almere,Flevoland,VBO,5.223995,52.383796
Waverstraat,12,,,1316GP,Almere,Almere,Flevoland,VBO,5.224023,52.383842
Waverstraat,14,,,1316GP,Almere,Almere,Flevoland,VBO,5.224048,52.383888
Waverstraat,16,,,1316GP,Almere,Almere,Flevoland,VBO,5.224074,52.383936
Aarstraat,1,,,1316GR,Almere,Almere,Flevoland,VBO,5.222903,52.383817
Aarstraat,3,,,1316GR,Almere,Almere,Flevoland,VBO,5.222927,52.383862
Aarstraat,5,,,1316GR,Almere,Almere,Flevoland,VBO,5.222954,52.383911
Aarstraat,7,,,1316GR,Almere,Almere,Flevoland,VBO,5.222979,52.383954
Aarstraat,9,,,1316GR,Almere,Almere,Flevoland,VBO,5.223004,52.384003
Aarstraat,11,,,1316GR,Almere,Almere,Flevoland,VBO,5.223030,52.384048
Aarstraat,13,,,1316GR,Almere,Almere,Flevoland,VBO,5.223055,52.384095
Aarstraat,15,,,1316GR,Almere,Almere,Flevoland,VBO,5.223083,52.384144
Aarstraat,2,,,1316GS,Almere,Almere,Flevoland,VBO,5.223234,52.383863
Aarstraat,4,,,1316GS,Almere,Almere,Flevoland,VBO,5.223259,52.383909
Aarstraat,6,,,1316GS,Almere,Almere,Flevoland,VBO,5.223284,52.383954
Aarstraat,8,,,1316GS,Almere,Almere,Flevoland,VBO,5.223310,52.384001
Aarstraat,10,,,1316GS,Almere,Almere,Flevoland,VBO,5.223337,52.384047
Aarstraat,12,,,1316GS,Almere,Almere,Flevoland,VBO,5.223360,52.384092
Aarstraat,14,,,1316GS,Almere,Almere,Flevoland,VBO,5.223388,52.384137
Aarstraat,16,,,1316GS,Almere,Almere,Flevoland,VBO,5.223413,52.384184
Amstelplantsoen,1,,,1316GT,Almere,Almere,Flevoland,VBO,5.221509,52.383927
Amstelplantsoen,3,,,1316GT,Almere,Almere,Flevoland,VBO,5.221532,52.383975
Amstelplantsoen,5,,,1316GT,Almere,Almere,Flevoland,VBO,5.221559,52.384020
Amstelplantsoen,7,,,1316GT,Almere,Almere,Flevoland,VBO,5.221581,52.384066
Amstelplantsoen,9,,,1316GT,Almere,Almere,Flevoland,VBO,5.221608,52.384113
Amstelplantsoen,11,,,1316GT,Almere,Almere,Flevoland,VBO,5.221637,52.384160
Amstelplantsoen,13,,,1316GT,Almere,Almere,Flevoland,VBO,5.221661,52.384203
Amstelplantsoen,15,,,1316GT,Almere,Almere,Flevoland,VBO,5.221688,52.384253
Amstelplantsoen,2,,,1316GV,Almere,Almere,Flevoland,VBO,5.222473,52.383913
Amstelplantsoen,4,,,1316GV,Almere,Almere,Flevoland,VBO,5.222498,52.383958
Amstelplantsoen,6,,,1316GV,Almere,Almere,Flevoland,VBO,5.222525,52.384005
Amstelplantsoen,8,,,1316GV,Almere,Almere,Flevoland,VBO,5.222551,52.384049
Amstelplantsoen,10,,,1316GV,Almere,Almere,Flevoland,VBO,5.222576,52.384096
Amstelplantsoen,12,,,1316GV,Almere,Almere,Flevoland,VBO,5.222602,52.384144
Amstelplantsoen,14,,,1316GV,Almere,Almere,Flevoland,VBO,5.222628,52.384187
Amstelplantsoen,16,,,1316GV,Almere,Almere,Flevoland,VBO,5.222653,52.384234
Amstelplantsoen,18,,,1316GV,Almere,Almere,Flevoland,VBO,5.222750,52.384336
Amstelplantsoen,20,,,1316GV,Almere,Almere,Flevoland,VBO,5.222800,52.384326
Eemplein,1,,,1316GX,Almere,Almere,Flevoland,VBO,5.225128,52.384373
Eemplein,2,,,1316GX,Almere,Almere,Flevoland,VBO,5.225056,52.384350
Eemplein,3,,,1316GX,Almere,Almere,Flevoland,VBO,5.225111,52.384390
Eemplein,4,,,1316GX,Almere,Almere,Flevoland,VBO,5.225038,52.384373
Eemplein,5,,,1316GX,Almere,Almere,Flevoland,VBO,5.224985,52.384328
Eemplein,6,,,1316GX,Almere,Almere,Flevoland,VBO,5.224915,52.384308
Eemplein,7,,,1316GX,Almere,Almere,Flevoland,VBO,5.224969,52.384348
Eemplein,8,,,1316GX,Almere,Almere,Flevoland,VBO,5.224895,52.384329
Eemplein,15,,,1316GX,Almere,Almere,Flevoland,VBO,5.224679,52.384266
Eemplein,16,,,1316GX,Almere,Almere,Flevoland,VBO,5.224609,52.384247
Eemplein,17,,,1316GX,Almere,Almere,Flevoland,VBO,5.224559,52.384201
Eemplein,18,,,1316GX,Almere,Almere,Flevoland,VBO,5.224488,52.384181
Eemplein,19,,,1316GX,Almere,Almere,Flevoland,VBO,5.224541,52.384225
Eemplein,20,,,1316GX,Almere,Almere,Flevoland,VBO,5.224467,52.384205
Eemplein,21,,,1316GX,Almere,Almere,Flevoland,VBO,5.224204,52.384281
Eemplein,22,,,1316GX,Almere,Almere,Flevoland,VBO,5.224169,52.384323
Eemplein,29,,,1316GX,Almere,Almere,Flevoland,VBO,5.224062,52.384453
Eemplein,30,,,1316GX,Almere,Almere,Flevoland,VBO,5.224031,52.384494
Eemplein,31,,,1316GX,Almere,Almere,Flevoland,VBO,5.224096,52.384467
Eemplein,32,,,1316GX,Almere,Almere,Flevoland,VBO,5.224059,52.384507
Eemplein,33,,,1316GX,Almere,Almere,Flevoland,VBO,5.223994,52.384540
Eemplein,34,,,1316GX,Almere,Almere,Flevoland,VBO,5.223962,52.384583
Eemplein,35,,,1316GX,Almere,Almere,Flevoland,VBO,5.224026,52.384553
Eemplein,36,,,1316GX,Almere,Almere,Flevoland,VBO,5.223993,52.384597
Eemplein,43,,,1316GX,Almere,Almere,Flevoland,VBO,5.224662,52.384770
Eemplein,44,,,1316GX,Almere,Almere,Flevoland,VBO,5.224695,52.384726
Eemplein,45,,,1316GX,Almere,Almere,Flevoland,VBO,5.224775,52.384695
Eemplein,46,,,1316GX,Almere,Almere,Flevoland,VBO,5.224807,52.384651
Eemplein,47,,,1316GX,Almere,Almere,Flevoland,VBO,5.224741,52.384687
Eemplein,48,,,1316GX,Almere,Almere,Flevoland,VBO,5.224773,52.384641
Eemplein,9,,,1316GZ,Almere,Almere,Flevoland,VBO,5.224845,52.384288
Eemplein,10,,,1316GZ,Almere,Almere,Flevoland,VBO,5.224775,52.384266
Eemplein,11,,,1316GZ,Almere,Almere,Flevoland,VBO,5.224826,52.384310
Eemplein,12,,,1316GZ,Almere,Almere,Flevoland,VBO,5.224749,52.384293
Eemplein,13,,,1316GZ,Almere,Almere,Flevoland,VBO,5.224700,52.384245
Eemplein,14,,,1316GZ,Almere,Almere,Flevoland,VBO,5.224631,52.384224
Eemplein,23,,,1316GZ,Almere,Almere,Flevoland,VBO,5.224236,52.384293
Eemplein,24,,,1316GZ,Almere,Almere,Flevoland,VBO,5.224201,52.384334
Eemplein,25,,,1316GZ,Almere,Almere,Flevoland,VBO,5.224134,52.384366
Eemplein,26,,,1316GZ,Almere,Almere,Flevoland,VBO,5.224099,52.384408
Eemplein,27,,,1316GZ,Almere,Almere,Flevoland,VBO,5.224166,52.384381
Eemplein,28,,,1316GZ,Almere,Almere,Flevoland,VBO,5.224127,52.384420
Eemplein,37,,,1316GZ,Almere,Almere,Flevoland,VBO,5.223925,52.384623
Eemplein,38,,,1316GZ,Almere,Almere,Flevoland,VBO,5.223889,52.384669
Eemplein,39,,,1316GZ,Almere,Almere,Flevoland,VBO,5.223957,52.384640
Eemplein,40,,,1316GZ,Almere,Almere,Flevoland,VBO,5.223926,52.384685
Eemplein,41,,,1316GZ,Almere,Almere,Flevoland,VBO,5.224703,52.384782
Eemplein,42,,,1316GZ,Almere,Almere,Flevoland,VBO,5.224739,52.384739
Eemplein,49,,,1316GZ,Almere,Almere,Flevoland,VBO,5.224848,52.384611
Eemplein,50,,,1316GZ,Almere,Almere,Flevoland,VBO,5.224880,52.384563
Eemplein,51,,,1316GZ,Almere,Almere,Flevoland,VBO,5.224805,52.384597
Eemplein,52,,,1316GZ,Almere,Almere,Flevoland,VBO,5.224837,52.384551
Geinplein,1,,,1316HA,Almere,Almere,Flevoland,VBO,5.224011,52.385515
Geinplein,3,,,1316HA,Almere,Almere,Flevoland,VBO,5.224062,52.385451
Geinplein,5,,,1316HA,Almere,Almere,Flevoland,VBO,5.224400,52.385683
Geinplein,6,,,1316HA,Almere,Almere,Flevoland,VBO,5.224435,52.385640
Geinplein,7,,,1316HA,Almere,Almere,Flevoland,VBO,5.224471,52.385597
Geinplein,8,,,1316HA,Almere,Almere,Flevoland,VBO,5.224504,52.385556
Geinplein,9,,,1316HA,Almere,Almere,Flevoland,VBO,5.224540,52.385511
Geinplein,10,,,1316HA,Almere,Almere,Flevoland,VBO,5.224573,52.385468
Geinplein,11,,,1316HA,Almere,Almere,Flevoland,VBO,5.224611,52.385423
Geinplein,12,,,1316HA,Almere,Almere,Flevoland,VBO,5.224644,52.385382
Geinplein,32,,,1316HC,Almere,Almere,Flevoland,VBO,5.224111,52.384907
Geinplein,38,,,1316HC,Almere,Almere,Flevoland,VBO,5.223917,52.385328
Liedestraat,1,,,1316HE,Almere,Almere,Flevoland,VBO,5.223318,52.385088
Liedestraat,3,,,1316HE,Almere,Almere,Flevoland,VBO,5.223353,52.385045
Liedestraat,5,,,1316HE,Almere,Almere,Flevoland,VBO,5.223385,52.385001
Liedestraat,7,,,1316HE,Almere,Almere,Flevoland,VBO,5.223418,52.384961
Liedestraat,9,,,1316HE,Almere,Almere,Flevoland,VBO,5.223455,52.384915
Liedestraat,11,,,1316HE,Almere,Almere,Flevoland,VBO,5.223489,52.384875
Liedestraat,13,,,1316HE,Almere,Almere,Flevoland,VBO,5.223525,52.384829
Liedestraat,15,,,1316HE,Almere,Almere,Flevoland,VBO,5.223559,52.384786
Liedestraat,2,,,1316HG,Almere,Almere,Flevoland,VBO,5.223053,52.385011
Liedestraat,4,,,1316HG,Almere,Almere,Flevoland,VBO,5.223089,52.384966
Liedestraat,6,,,1316HG,Almere,Almere,Flevoland,VBO,5.223120,52.384924
Liedestraat,8,,,1316HG,Almere,Almere,Flevoland,VBO,5.223155,52.384881
Liedestraat,10,,,1316HG,Almere,Almere,Flevoland,VBO,5.223190,52.384839
Liedestraat,12,,,1316HG,Almere,Almere,Flevoland,VBO,5.223226,52.384794
Liedestraat,14,,,1316HG,Almere,Almere,Flevoland,VBO,5.223261,52.384751
Liedestraat,16,,,1316HG,Almere,Almere,Flevoland,VBO,5.223298,52.384705
Spaarnestraat,1,,,1316HH,Almere,Almere,Flevoland,VBO,5.222633,52.384885
Spaarnestraat,3,,,1316HH,Almere,Almere,Flevoland,VBO,5.222670,52.384840
Spaarnestraat,5,,,1316HH,Almere,Almere,Flevoland,VBO,5.222704,52.384798
Spaarnestraat,7,,,1316HH,Almere,Almere,Flevoland,VBO,5.222738,52.384755
Spaarnestraat,9,,,1316HH,Almere,Almere,Flevoland,VBO,5.222772,52.384712
Spaarnestraat,11,,,1316HH,Almere,Almere,Flevoland,VBO,5.222806,52.384671
Spaarnestraat,13,,,1316HH,Almere,Almere,Flevoland,VBO,5.222844,52.384626
Spaarnestraat,15,,,1316HH,Almere,Almere,Flevoland,VBO,5.222878,52.384583
Spaarnestraat,2,,,1316HJ,Almere,Almere,Flevoland,VBO,5.222381,52.384805
Spaarnestraat,4,,,1316HJ,Almere,Almere,Flevoland,VBO,5.222418,52.384762
Spaarnestraat,6,,,1316HJ,Almere,Almere,Flevoland,VBO,5.222452,52.384719
Spaarnestraat,8,,,1316HJ,Almere,Almere,Flevoland,VBO,5.222486,52.384678
Spaarnestraat,10,,,1316HJ,Almere,Almere,Flevoland,VBO,5.222522,52.384632
Spaarnestraat,12,,,1316HJ,Almere,Almere,Flevoland,VBO,5.222555,52.384592
Spaarnestraat,14,,,1316HJ,Almere,Almere,Flevoland,VBO,5.222591,52.384547
Spaarnestraat,16,,,1316HJ,Almere,Almere,Flevoland,VBO,5.222626,52.384504
IJsselpad,1,,,1316HK,Almere,Almere,Flevoland,VBO,5.221748,52.384385
IJsselpad,3,,,1316HK,Almere,Almere,Flevoland,VBO,5.221693,52.384456
IJsselpad,5,,,1316HK,Almere,Almere,Flevoland,VBO,5.221641,52.384519
IJsselpad,7,,,1316HK,Almere,Almere,Flevoland,VBO,5.221588,52.384586
IJsselpad,9,,,1316HK,Almere,Almere,Flevoland,VBO,5.221534,52.384654
IJsselpad,11,,,1316HK,Almere,Almere,Flevoland,VBO,5.221481,52.384718
IJsselpad,2,,,1316HL,Almere,Almere,Flevoland,VBO,5.222209,52.384373
IJsselpad,4,,,1316HL,Almere,Almere,Flevoland,VBO,5.222175,52.384418
IJsselpad,6,,,1316HL,Almere,Almere,Flevoland,VBO,5.222140,52.384462
IJsselpad,8,,,1316HL,Almere,Almere,Flevoland,VBO,5.222104,52.384507
IJsselpad,10,,,1316HL,Almere,Almere,Flevoland,VBO,5.222069,52.384551
IJsselpad,12,,,1316HL,Almere,Almere,Flevoland,VBO,5.222032,52.384594
IJsselpad,14,,,1316HL,Almere,Almere,Flevoland,VBO,5.222000,52.384637
IJsselpad,16,,,1316HL,Almere,Almere,Flevoland,VBO,5.221963,52.384680
Sarsvenstraat,1,,,1316HN,Almere,Almere,Flevoland,VBO,5.223375,52.386197
Sarsvenstraat,3,,,1316HN,Almere,Almere,Flevoland,VBO,5.223268,52.386164
Sarsvenstraat,5,,,1316HN,Almere,Almere,Flevoland,VBO,5.223148,52.386130
Sarsvenstraat,7,,,1316HN,Almere,Almere,Flevoland,VBO,5.223033,52.386093
Sarsvenstraat,9,,,1316HN,Almere,Almere,Flevoland,VBO,5.222927,52.386064
Sarsvenstraat,11,,,1316HN,Almere,Almere,Flevoland,VBO,5.222814,52.386029
Sarsvenstraat,13,,,1316HN,Almere,Almere,Flevoland,VBO,5.222710,52.385997
Sarsvenstraat,15,,,1316HN,Almere,Almere,Flevoland,VBO,5.222588,52.385959
Sarsvenstraat,17,,,1316HN,Almere,Almere,Flevoland,VBO,5.222484,52.385930
Sarsvenstraat,19,,,1316HN,Almere,Almere,Flevoland,VBO,5.222376,52.385895
Sarsvenstraat,21,,,1316HP,Almere,Almere,Flevoland,VBO,5.222189,52.385908
Sarsvenstraat,23,,,1316HP,Almere,Almere,Flevoland,VBO,5.222102,52.385885
Sarsvenstraat,25,,,1316HP,Almere,Almere,Flevoland,VBO,5.222037,52.385864
Sarsvenstraat,27,,,1316HP,Almere,Almere,Flevoland,VBO,5.221963,52.385841
Sarsvenstraat,29,,,1316HP,Almere,Almere,Flevoland,VBO,5.221889,52.385820
Sarsvenstraat,31,,,1316HP,Almere,Almere,Flevoland,VBO,5.221817,52.385797
Sarsvenstraat,33,,,1316HP,Almere,Almere,Flevoland,VBO,5.221746,52.385779
Sarsvenstraat,35,,,1316HP,Almere,Almere,Flevoland,VBO,5.221680,52.385756
Sarsvenstraat,37,,,1316HP,Almere,Almere,Flevoland,VBO,5.221607,52.385734
Sarsvenstraat,39,,,1316HP,Almere,Almere,Flevoland,VBO,5.221541,52.385714
Sarsvenstraat,41,,,1316HP,Almere,Almere,Flevoland,VBO,5.221470,52.385692
Sarsvenstraat,43,,,1316HP,Almere,Almere,Flevoland,VBO,5.221384,52.385667
Sarsvenstraat,45,,,1316HP,Almere,Almere,Flevoland,VBO,5.221327,52.385649
Sarsvenstraat,47,,,1316HP,Almere,Almere,Flevoland,VBO,5.221243,52.385626
Sarsvenstraat,49,,,1316HP,Almere,Almere,Flevoland,VBO,5.221186,52.385608
Sarsvenstraat,51,,,1316HP,Almere,Almere,Flevoland,VBO,5.221107,52.385584
Sarsvenstraat,2,,,1316HR,Almere,Almere,Flevoland,VBO,5.223122,52.386384
Sarsvenstraat,4,,,1316HR,Almere,Almere,Flevoland,VBO,5.223000,52.386344
Sarsvenstraat,6,,,1316HR,Almere,Almere,Flevoland,VBO,5.222894,52.386314
Sarsvenstraat,8,,,1316HR,Almere,Almere,Flevoland,VBO,5.222778,52.386278
Sarsvenstraat,10,,,1316HR,Almere,Almere,Flevoland,VBO,5.222450,52.386180
Sarsvenstraat,12,,,1316HR,Almere,Almere,Flevoland,VBO,5.222325,52.386144
Sarsvenstraat,14,,,1316HR,Almere,Almere,Flevoland,VBO,5.222215,52.386111
Sarsvenstraat,16,,,1316HR,Almere,Almere,Flevoland,VBO,5.222111,52.386077
Sarsvenstraat,18,,,1316HR,Almere,Almere,Flevoland,VBO,5.221614,52.385975
Sarsvenstraat,20,,,1316HR,Almere,Almere,Flevoland,VBO,5.221497,52.385938
Sarsvenstraat,22,,,1316HR,Almere,Almere,Flevoland,VBO,5.221381,52.385904
Sarsvenstraat,24,,,1316HR,Almere,Almere,Flevoland,VBO,5.221279,52.385871
Beuvenstraat,1,,,1316HS,Almere,Almere,Flevoland,VBO,5.221722,52.386175
Beuvenstraat,3,,,1316HS,Almere,Almere,Flevoland,VBO,5.221667,52.386248
Beuvenstraat,5,,,1316HS,Almere,Almere,Flevoland,VBO,5.221613,52.386306
Beuvenstraat,7,,,1316HS,Almere,Almere,Flevoland,VBO,5.221562,52.386374
Beuvenstraat,2,,,1316HT,Almere,Almere,Flevoland,VBO,5.221884,52.386221
Beuvenstraat,4,,,1316HT,Almere,Almere,Flevoland,VBO,5.221843,52.386264
Beuvenstraat,6,,,1316HT,Almere,Almere,Flevoland,VBO,5.221814,52.386305
Beuvenstraat,8,,,1316HT,Almere,Almere,Flevoland,VBO,5.221781,52.386351
Beuvenstraat,10,,,1316HT,Almere,Almere,Flevoland,VBO,5.221747,52.386395
Beuvenstraat,12,,,1316HT,Almere,Almere,Flevoland,VBO,5.221713,52.386438
Beuvenstraat,14,,,1316HT,Almere,Almere,Flevoland,VBO,5.221678,52.386479
Beuvenstraat,16,,,1316HT,Almere,Almere,Flevoland,VBO,5.221639,52.386526
Plakke Venstraat,1,,,1316HV,Almere,Almere,Flevoland,VBO,5.222398,52.386373
Plakke Venstraat,3,,,1316HV,Almere,Almere,Flevoland,VBO,5.222362,52.386416
Plakke Venstraat,5,,,1316HV,Almere,Almere,Flevoland,VBO,5.222330,52.386460
Plakke Venstraat,7,,,1316HV,Almere,Almere,Flevoland,VBO,5.222290,52.386503
Plakke Venstraat,9,,,1316HV,Almere,Almere,Flevoland,VBO,5.222254,52.386544
Plakke Venstraat,11,,,1316HV,Almere,Almere,Flevoland,VBO,5.222223,52.386590
Plakke Venstraat,13,,,1316HV,Almere,Almere,Flevoland,VBO,5.222190,52.386632
Plakke Venstraat,15,,,1316HV,Almere,Almere,Flevoland,VBO,5.222154,52.386679
Plakke Venstraat,2,,,1316HX,Almere,Almere,Flevoland,VBO,5.222564,52.386424
Plakke Venstraat,4,,,1316HX,Almere,Almere,Flevoland,VBO,5.222530,52.386466
Plakke Venstraat,6,,,1316HX,Almere,Almere,Flevoland,VBO,5.222504,52.386511
Plakke Venstraat,8,,,1316HX,Almere,Almere,Flevoland,VBO,5.222460,52.386553
Plakke Venstraat,10,,,1316HX,Almere,Almere,Flevoland,VBO,5.222426,52.386598
Plakke Venstraat,12,,,1316HX,Almere,Almere,Flevoland,VBO,5.222394,52.386637
Plakke Venstraat,14,,,1316HX,Almere,Almere,Flevoland,VBO,5.222358,52.386683
Plakke Venstraat,16,,,1316HX,Almere,Almere,Flevoland,VBO,5.222321,52.386729
Nieuwe Diepstraat,1,,,1316JC,Almere,Almere,Flevoland,VBO,5.224137,52.386743
Nieuwe Diepstraat,3,,,1316JC,Almere,Almere,Flevoland,VBO,5.224099,52.386792
Nieuwe Diepstraat,5,,,1316JC,Almere,Almere,Flevoland,VBO,5.224067,52.386834
Nieuwe Diepstraat,7,,,1316JC,Almere,Almere,Flevoland,VBO,5.224029,52.386880
Nieuwe Diepstraat,9,,,1316JC,Almere,Almere,Flevoland,VBO,5.224028,52.386993
Nieuwe Diepstraat,11,,,1316JC,Almere,Almere,Flevoland,VBO,5.224094,52.387015
Nieuwe Diepstraat,13,,,1316JC,Almere,Almere,Flevoland,VBO,5.224164,52.387032
Nieuwe Diepstraat,15,,,1316JC,Almere,Almere,Flevoland,VBO,5.224237,52.387059
Nieuwe Diepstraat,17,,,1316JC,Almere,Almere,Flevoland,VBO,5.224306,52.387077
Nieuwe Diepstraat,19,,,1316JC,Almere,Almere,Flevoland,VBO,5.224366,52.387095
Nieuwe Diepstraat,21,,,1316JC,Almere,Almere,Flevoland,VBO,5.224435,52.387113
Nieuwe Diepstraat,23,,,1316JC,Almere,Almere,Flevoland,VBO,5.224500,52.387135
Nieuwe Diepstraat,25,,,1316JE,Almere,Almere,Flevoland,VBO,5.224642,52.387177
Nieuwe Diepstraat,27,,,1316JE,Almere,Almere,Flevoland,VBO,5.224704,52.387196
Nieuwe Diepstraat,29,,,1316JE,Almere,Almere,Flevoland,VBO,5.224776,52.387219
Nieuwe Diepstraat,31,,,1316JE,Almere,Almere,Flevoland,VBO,5.224846,52.387240
Nieuwe Diepstraat,33,,,1316JE,Almere,Almere,Flevoland,VBO,5.224906,52.387256
Nieuwe Diepstraat,35,,,1316JE,Almere,Almere,Flevoland,VBO,5.224975,52.387279
Nieuwe Diepstraat,37,,,1316JE,Almere,Almere,Flevoland,VBO,5.225051,52.387304
Nieuwe Diepstraat,39,,,1316JE,Almere,Almere,Flevoland,VBO,5.225106,52.387319
Nieuwe Diepstraat,41,,,1316JE,Almere,Almere,Flevoland,VBO,5.225259,52.387252
Nieuwe Diepstraat,43,,,1316JE,Almere,Almere,Flevoland,VBO,5.225296,52.387203
Nieuwe Diepstraat,45,,,1316JE,Almere,Almere,Flevoland,VBO,5.225328,52.387165
Nieuwe Diepstraat,47,,,1316JE,Almere,Almere,Flevoland,VBO,5.225371,52.387110
Nieuwe Diepstraat,2,,,1316JG,Almere,Almere,Flevoland,VBO,5.223691,52.386365
Nieuwe Diepstraat,4,,,1316JG,Almere,Almere,Flevoland,VBO,5.223776,52.386391
Nieuwe Diepstraat,6,,,1316JG,Almere,Almere,Flevoland,VBO,5.223846,52.386413
Nieuwe Diepstraat,8,,,1316JG,Almere,Almere,Flevoland,VBO,5.223919,52.386432
Nieuwe Diepstraat,10,,,1316JG,Almere,Almere,Flevoland,VBO,5.223998,52.386457
Nieuwe Diepstraat,12,,,1316JG,Almere,Almere,Flevoland,VBO,5.224071,52.386478
Nieuwe Diepstraat,14,,,1316JG,Almere,Almere,Flevoland,VBO,5.224151,52.386501
Nieuwe Diepstraat,16,,,1316JG,Almere,Almere,Flevoland,VBO,5.224224,52.386524
Nieuwe Diepstraat,18,,,1316JG,Almere,Almere,Flevoland,VBO,5.224299,52.386545
Nieuwe Diepstraat,20,,,1316JG,Almere,Almere,Flevoland,VBO,5.224372,52.386568
Nieuwe Diepstraat,22,,,1316JH,Almere,Almere,Flevoland,VBO,5.224525,52.386590
Nieuwe Diepstraat,24,,,1316JH,Almere,Almere,Flevoland,VBO,5.224602,52.386611
Nieuwe Diepstraat,26,,,1316JH,Almere,Almere,Flevoland,VBO,5.224673,52.386634
Nieuwe Diepstraat,28,,,1316JH,Almere,Almere,Flevoland,VBO,5.224752,52.386658
Nieuwe Diepstraat,30,,,1316JH,Almere,Almere,Flevoland,VBO,5.224824,52.386682
Nieuwe Diepstraat,32,,,1316JH,Almere,Almere,Flevoland,VBO,5.224902,52.386703
Nieuwe Diepstraat,34,,,1316JH,Almere,Almere,Flevoland,VBO,5.224971,52.386722
Nieuwe Diepstraat,36,,,1316JH,Almere,Almere,Flevoland,VBO,5.225048,52.386747
Nieuwe Diepstraat,38,,,1316JH,Almere,Almere,Flevoland,VBO,5.225125,52.386771
Nieuwe Diepstraat,40,,,1316JH,Almere,Almere,Flevoland,VBO,5.225194,52.386794
Nieuwe Diepstraat,42,,,1316JH,Almere,Almere,Flevoland,VBO,5.225276,52.386817
Nieuwe Diepstraat,44,,,1316JH,Almere,Almere,Flevoland,VBO,5.225355,52.386843
Nieuwe Diepstraat,46,,,1316JH,Almere,Almere,Flevoland,VBO,5.225461,52.386898
Nieuwe Diepstraat,48,,,1316JH,Almere,Almere,Flevoland,VBO,5.225541,52.386923
Nieuwe Diepstraat,50,,,1316JH,Almere,Almere,Flevoland,VBO,5.225618,52.386945
Nieuwe Diepstraat,52,,,1316JH,Almere,Almere,Flevoland,VBO,5.225693,52.386967
Norremeerstraat,1,,,1316JK,Almere,Almere,Flevoland,VBO,5.224256,52.387707
Norremeerstraat,3,,,1316JK,Almere,Almere,Flevoland,VBO,5.224336,52.387730
Norremeerstraat,5,,,1316JK,Almere,Almere,Flevoland,VBO,5.224422,52.387757
Norremeerstraat,7,,,1316JK,Almere,Almere,Flevoland,VBO,5.224499,52.387781
Norremeerstraat,9,,,1316JK,Almere,Almere,Flevoland,VBO,5.224580,52.387806
Norremeerstraat,11,,,1316JK,Almere,Almere,Flevoland,VBO,5.224654,52.387828
Norremeerstraat,13,,,1316JK,Almere,Almere,Flevoland,VBO,5.224728,52.387849
Norremeerstraat,15,,,1316JK,Almere,Almere,Flevoland,VBO,5.224812,52.387876
Norremeerstraat,2,,,1316JL,Almere,Almere,Flevoland,VBO,5.223956,52.387342
Norremeerstraat,4,,,1316JL,Almere,Almere,Flevoland,VBO,5.224033,52.387364
Norremeerstraat,6,,,1316JL,Almere,Almere,Flevoland,VBO,5.224106,52.387389
Norremeerstraat,8,,,1316JL,Almere,Almere,Flevoland,VBO,5.224185,52.387412
Norremeerstraat,10,,,1316JL,Almere,Almere,Flevoland,VBO,5.224255,52.387431
Norremeerstraat,12,,,1316JL,Almere,Almere,Flevoland,VBO,5.224408,52.387480
Norremeerstraat,14,,,1316JL,Almere,Almere,Flevoland,VBO,5.224486,52.387503
Norremeerstraat,16,,,1316JL,Almere,Almere,Flevoland,VBO,5.224557,52.387524
Norremeerstraat,18,,,1316JL,Almere,Almere,Flevoland,VBO,5.224630,52.387545
Norremeerstraat,20,,,1316JL,Almere,Almere,Flevoland,VBO,5.224707,52.387568
Norremeerstraat,22,,,1316JL,Almere,Almere,Flevoland,VBO,5.224778,52.387592
Norremeerstraat,24,,,1316JL,Almere,Almere,Flevoland,VBO,5.224858,52.387618
Norremeerstraat,26,,,1316JL,Almere,Almere,Flevoland,VBO,5.224934,52.387636
Norremeerstraat,28,,,1316JL,Almere,Almere,Flevoland,VBO,5.225008,52.387660
Norremeerstraat,30,,,1316JL,Almere,Almere,Flevoland,VBO,5.225161,52.387752
Norremeerstraat,32,,,1316JL,Almere,Almere,Flevoland,VBO,5.225237,52.387773
Norremeerstraat,34,,,1316JL,Almere,Almere,Flevoland,VBO,5.225320,52.387799
Norremeerstraat,36,,,1316JL,Almere,Almere,Flevoland,VBO,5.225392,52.387821
Boven Wijde,1,,,1316JN,Almere,Almere,Flevoland,VBO,5.225792,52.387697
Boven Wijde,3,,,1316JN,Almere,Almere,Flevoland,VBO,5.225825,52.387651
Boven Wijde,5,,,1316JN,Almere,Almere,Flevoland,VBO,5.225858,52.387612
Boven Wijde,7,,,1316JN,Almere,Almere,Flevoland,VBO,5.225890,52.387574
Boven Wijde,9,,,1316JN,Almere,Almere,Flevoland,VBO,5.225925,52.387534
Boven Wijde,11,,,1316JN,Almere,Almere,Flevoland,VBO,5.225956,52.387491
Boven Wijde,13,,,1316JN,Almere,Almere,Flevoland,VBO,5.225992,52.387445
Boven Wijde,15,,,1316JN,Almere,Almere,Flevoland,VBO,5.226024,52.387406
Boven Wijde,17,,,1316JN,Almere,Almere,Flevoland,VBO,5.226057,52.387369
Boven Wijde,19,,,1316JN,Almere,Almere,Flevoland,VBO,5.226085,52.387331
Boven Wijde,21,,,1316JN,Almere,Almere,Flevoland,VBO,5.226275,52.387096
Boven Wijde,23,,,1316JN,Almere,Almere,Flevoland,VBO,5.226310,52.387055
Boven Wijde,25,,,1316JN,Almere,Almere,Flevoland,VBO,5.226339,52.387012
Boven Wijde,27,,,1316JN,Almere,Almere,Flevoland,VBO,5.226372,52.386973
Boven Wijde,2,,,1316JP,Almere,Almere,Flevoland,VBO,5.225567,52.387630
Boven Wijde,4,,,1316JP,Almere,Almere,Flevoland,VBO,5.225601,52.387588
Boven Wijde,6,,,1316JP,Almere,Almere,Flevoland,VBO,5.225633,52.387548
Boven Wijde,8,,,1316JP,Almere,Almere,Flevoland,VBO,5.225668,52.387510
Boven Wijde,10,,,1316JP,Almere,Almere,Flevoland,VBO,5.225704,52.387466
Boven Wijde,12,,,1316JP,Almere,Almere,Flevoland,VBO,5.225735,52.387424
Boven Wijde,14,,,1316JP,Almere,Almere,Flevoland,VBO,5.225764,52.387384
Boven Wijde,16,,,1316JP,Almere,Almere,Flevoland,VBO,5.225800,52.387345
Boven Wijde,18,,,1316JP,Almere,Almere,Flevoland,VBO,5.225834,52.387303
Boven Wijde,20,,,1316JP,Almere,Almere,Flevoland,VBO,5.225868,52.387259
Boven Wijde,22,,,1316JP,Almere,Almere,Flevoland,VBO,5.226055,52.387029
Boven Wijde,24,,,1316JP,Almere,Almere,Flevoland,VBO,5.226089,52.386989
Boven Wijde,26,,,1316JP,Almere,Almere,Flevoland,VBO,5.226124,52.386945
Boven Wijde,28,,,1316JP,Almere,Almere,Flevoland,VBO,5.226152,52.386907
Belter Wijdestraat,1,,,1316JR,Almere,Almere,Flevoland,VBO,5.226614,52.387491
Belter Wijdestraat,3,,,1316JR,Almere,Almere,Flevoland,VBO,5.226572,52.387543
Belter Wijdestraat,5,,,1316JR,Almere,Almere,Flevoland,VBO,5.226536,52.387580
Belter Wijdestraat,7,,,1316JR,Almere,Almere,Flevoland,VBO,5.226505,52.387625
Belter Wijdestraat,9,,,1316JR,Almere,Almere,Flevoland,VBO,5.226558,52.387738
Belter Wijdestraat,11,,,1316JR,Almere,Almere,Flevoland,VBO,5.226626,52.387757
Belter Wijdestraat,13,,,1316JR,Almere,Almere,Flevoland,VBO,5.226692,52.387775
Belter Wijdestraat,15,,,1316JR,Almere,Almere,Flevoland,VBO,5.226763,52.387800
Belter Wijdestraat,17,,,1316JR,Almere,Almere,Flevoland,VBO,5.226834,52.387821
Belter Wijdestraat,19,,,1316JR,Almere,Almere,Flevoland,VBO,5.226900,52.387840
Belter Wijdestraat,21,,,1316JR,Almere,Almere,Flevoland,VBO,5.226968,52.387861
Belter Wijdestraat,23,,,1316JR,Almere,Almere,Flevoland,VBO,5.227029,52.387879
Belter Wijdestraat,25,,,1316JS,Almere,Almere,Flevoland,VBO,5.227168,52.387922
Belter Wijdestraat,27,,,1316JS,Almere,Almere,Flevoland,VBO,5.227233,52.387941
Belter Wijdestraat,29,,,1316JS,Almere,Almere,Flevoland,VBO,5.227302,52.387962
Belter Wijdestraat,31,,,1316JS,Almere,Almere,Flevoland,VBO,5.227367,52.387981
Belter Wijdestraat,33,,,1316JS,Almere,Almere,Flevoland,VBO,5.227438,52.388004
Belter Wijdestraat,35,,,1316JS,Almere,Almere,Flevoland,VBO,5.227503,52.388024
Belter Wijdestraat,37,,,1316JS,Almere,Almere,Flevoland,VBO,5.227578,52.388045
Belter Wijdestraat,39,,,1316JS,Almere,Almere,Flevoland,VBO,5.227637,52.388063
Belter Wijdestraat,41,,,1316JS,Almere,Almere,Flevoland,VBO,5.227804,52.388024
Belter Wijdestraat,43,,,1316JS,Almere,Almere,Flevoland,VBO,5.227840,52.387981
Belter Wijdestraat,45,,,1316JS,Almere,Almere,Flevoland,VBO,5.227887,52.387935
Belter Wijdestraat,47,,,1316JS,Almere,Almere,Flevoland,VBO,5.227915,52.387891
Belter Wijdestraat,49,,,1316JS,Almere,Almere,Flevoland,VBO,5.227952,52.387840
Belter Wijdestraat,2,,,1316JT,Almere,Almere,Flevoland,VBO,5.226541,52.387225
Belter Wijdestraat,4,,,1316JT,Almere,Almere,Flevoland,VBO,5.226611,52.387245
Belter Wijdestraat,6,,,1316JT,Almere,Almere,Flevoland,VBO,5.226690,52.387270
Belter Wijdestraat,8,,,1316JT,Almere,Almere,Flevoland,VBO,5.226757,52.387291
Belter Wijdestraat,10,,,1316JT,Almere,Almere,Flevoland,VBO,5.226842,52.387317
Belter Wijdestraat,12,,,1316JT,Almere,Almere,Flevoland,VBO,5.226909,52.387336
Belter Wijdestraat,14,,,1316JT,Almere,Almere,Flevoland,VBO,5.227062,52.387355
Belter Wijdestraat,16,,,1316JT,Almere,Almere,Flevoland,VBO,5.227131,52.387375
Belter Wijdestraat,18,,,1316JT,Almere,Almere,Flevoland,VBO,5.227210,52.387399
Belter Wijdestraat,20,,,1316JT,Almere,Almere,Flevoland,VBO,5.227284,52.387422
Belter Wijdestraat,22,,,1316JT,Almere,Almere,Flevoland,VBO,5.227359,52.387448
Belter Wijdestraat,24,,,1316JT,Almere,Almere,Flevoland,VBO,5.227432,52.387467
Belter Wijdestraat,26,,,1316JT,Almere,Almere,Flevoland,VBO,5.227511,52.387492
Belter Wijdestraat,28,,,1316JT,Almere,Almere,Flevoland,VBO,5.227581,52.387514
Belter Wijdestraat,30,,,1316JT,Almere,Almere,Flevoland,VBO,5.227663,52.387538
Belter Wijdestraat,32,,,1316JT,Almere,Almere,Flevoland,VBO,5.227733,52.387559
Belter Wijdestraat,34,,,1316JT,Almere,Almere,Flevoland,VBO,5.227811,52.387582
Belter Wijdestraat,36,,,1316JT,Almere,Almere,Flevoland,VBO,5.227883,52.387604
Belter Wijdestraat,38,,,1316JV,Almere,Almere,Flevoland,VBO,5.227997,52.387662
Belter Wijdestraat,40,,,1316JV,Almere,Almere,Flevoland,VBO,5.228068,52.387687
Belter Wijdestraat,42,,,1316JV,Almere,Almere,Flevoland,VBO,5.228149,52.387709
Belter Wijdestraat,44,,,1316JV,Almere,Almere,Flevoland,VBO,5.228221,52.387733
Belter Wijdestraat,46,,,1316JV,Almere,Almere,Flevoland,VBO,5.228296,52.387755
Belter Wijdestraat,48,,,1316JV,Almere,Almere,Flevoland,VBO,5.228366,52.387775
Belter Wijdestraat,50,,,1316JV,Almere,Almere,Flevoland,VBO,5.228448,52.387800
Belter Wijdestraat,52,,,1316JV,Almere,Almere,Flevoland,VBO,5.228517,52.387819
Vennemeerstraat,1,,,1316KB,Almere,Almere,Flevoland,VBO,5.223476,52.388236
Vennemeerstraat,3,,,1316KB,Almere,Almere,Flevoland,VBO,5.223562,52.388261
Vennemeerstraat,5,,,1316KB,Almere,Almere,Flevoland,VBO,5.223642,52.388284
Vennemeerstraat,7,,,1316KB,Almere,Almere,Flevoland,VBO,5.223720,52.388306
Vennemeerstraat,9,,,1316KB,Almere,Almere,Flevoland,VBO,5.223801,52.388333
Vennemeerstraat,11,,,1316KB,Almere,Almere,Flevoland,VBO,5.223880,52.388355
Vennemeerstraat,13,,,1316KB,Almere,Almere,Flevoland,VBO,5.223980,52.388385
Vennemeerstraat,2,,,1316KC,Almere,Almere,Flevoland,VBO,5.223640,52.388071
Vennemeerstraat,6,,,1316KC,Almere,Almere,Flevoland,VBO,5.223900,52.388151
Vennemeerstraat,8,,,1316KC,Almere,Almere,Flevoland,VBO,5.223980,52.388173
Vennemeerstraat,10,,,1316KC,Almere,Almere,Flevoland,VBO,5.224054,52.388196
Vennemeerstraat,12,,,1316KC,Almere,Almere,Flevoland,VBO,5.224137,52.388221
Vennemeerstraat,14,,,1316KC,Almere,Almere,Flevoland,VBO,5.224213,52.388244
Vennemeerstraat,16,,,1316KC,Almere,Almere,Flevoland,VBO,5.224291,52.388269
Madisonpad,7,,,1316KG,Almere,Almere,Flevoland,VBO,5.222583,52.390082
Wijde Blik,2,,,1316KH,Almere,Almere,Flevoland,VBO,5.222980,52.388652
Wijde Blik,4,,,1316KH,Almere,Almere,Flevoland,VBO,5.223049,52.388633
Wijde Blik,6,,,1316KH,Almere,Almere,Flevoland,VBO,5.223227,52.388597
Wijde Blik,8,,,1316KH,Almere,Almere,Flevoland,VBO,5.223323,52.388579
Wijde Blik,10,,,1316KH,Almere,Almere,Flevoland,VBO,5.223500,52.388632
Wijde Blik,12,,,1316KH,Almere,Almere,Flevoland,VBO,5.223528,52.388685
Wijde Blik,14,,,1316KH,Almere,Almere,Flevoland,VBO,5.223430,52.388786
Wijde Blik,16,,,1316KH,Almere,Almere,Flevoland,VBO,5.223337,52.388803
Wijde Blik,18,,,1316KH,Almere,Almere,Flevoland,VBO,5.223109,52.389031
Wijde Blik,20,,,1316KH,Almere,Almere,Flevoland,VBO,5.223142,52.389085
Wijde Blik,22,,,1316KH,Almere,Almere,Flevoland,VBO,5.223199,52.389188
Wijde Blik,24,,,1316KH,Almere,Almere,Flevoland,VBO,5.223229,52.389237
Wijde Blik,26,,,1316KH,Almere,Almere,Flevoland,VBO,5.223287,52.389344
Wijde Blik,28,,,1316KH,Almere,Almere,Flevoland,VBO,5.223314,52.389394
Wijde Blik,30,,,1316KJ,Almere,Almere,Flevoland,VBO,5.223849,52.389572
Wijde Blik,32,,,1316KJ,Almere,Almere,Flevoland,VBO,5.223922,52.389591
Wijde Blik,34,,,1316KJ,Almere,Almere,Flevoland,VBO,5.224091,52.389645
Wijde Blik,36,,,1316KJ,Almere,Almere,Flevoland,VBO,5.224169,52.389667
Wijde Blik,38,,,1316KJ,Almere,Almere,Flevoland,VBO,5.224326,52.389714
Wijde Blik,40,,,1316KJ,Almere,Almere,Flevoland,VBO,5.224403,52.389738
Wijde Blik,42,,,1316KJ,Almere,Almere,Flevoland,VBO,5.224694,52.389824
Wijde Blik,44,,,1316KJ,Almere,Almere,Flevoland,VBO,5.224771,52.389849
Wijde Blik,46,,,1316KJ,Almere,Almere,Flevoland,VBO,5.224940,52.389900
Wijde Blik,48,,,1316KJ,Almere,Almere,Flevoland,VBO,5.225022,52.389924
Wijde Blik,50,,,1316KJ,Almere,Almere,Flevoland,VBO,5.225185,52.389977
Wijde Blik,52,,,1316KJ,Almere,Almere,Flevoland,VBO,5.225261,52.389997
Wasmeerstraat,1,,,1316KK,Almere,Almere,Flevoland,VBO,5.223916,52.389360
Wasmeerstraat,3,,,1316KK,Almere,Almere,Flevoland,VBO,5.223957,52.389316
Wasmeerstraat,5,,,1316KK,Almere,Almere,Flevoland,VBO,5.223996,52.389272
Wasmeerstraat,7,,,1316KK,Almere,Almere,Flevoland,VBO,5.224037,52.389216
Wasmeerstraat,9,,,1316KK,Almere,Almere,Flevoland,VBO,5.224071,52.389172
Wasmeerstraat,11,,,1316KK,Almere,Almere,Flevoland,VBO,5.224118,52.389124
Wasmeerstraat,2,,,1316KL,Almere,Almere,Flevoland,VBO,5.223728,52.389154
Wasmeerstraat,4,,,1316KL,Almere,Almere,Flevoland,VBO,5.223762,52.389107
Wasmeerstraat,6,,,1316KL,Almere,Almere,Flevoland,VBO,5.223805,52.389057
Wasmeerstraat,8,,,1316KL,Almere,Almere,Flevoland,VBO,5.223842,52.389008
Wasmeerstraat,10,,,1316KL,Almere,Almere,Flevoland,VBO,5.223886,52.388959
Wasmeerstraat,12,,,1316KL,Almere,Almere,Flevoland,VBO,5.223923,52.388917
Weegje,1,,,1316KN,Almere,Almere,Flevoland,VBO,5.224861,52.389651
Weegje,3,,,1316KN,Almere,Almere,Flevoland,VBO,5.224898,52.389601
Weegje,5,,,1316KN,Almere,Almere,Flevoland,VBO,5.224946,52.389554
Weegje,7,,,1316KN,Almere,Almere,Flevoland,VBO,5.224983,52.389505
Weegje,9,,,1316KN,Almere,Almere,Flevoland,VBO,5.225020,52.389456
Weegje,11,,,1316KN,Almere,Almere,Flevoland,VBO,5.225063,52.389406
Weegje,2,,,1316KP,Almere,Almere,Flevoland,VBO,5.224529,52.389549
Weegje,4,,,1316KP,Almere,Almere,Flevoland,VBO,5.224569,52.389498
Weegje,6,,,1316KP,Almere,Almere,Flevoland,VBO,5.224605,52.389452
Weegje,8,,,1316KP,Almere,Almere,Flevoland,VBO,5.224644,52.389403
Weegje,10,,,1316KP,Almere,Almere,Flevoland,VBO,5.224683,52.389356
Weegje,12,,,1316KP,Almere,Almere,Flevoland,VBO,5.224723,52.389307
Slufterplantsoen,25,,,1316KR,Almere,Almere,Flevoland,VBO,5.227591,52.388434
Slufterplantsoen,27,,,1316KR,Almere,Almere,Flevoland,VBO,5.227517,52.388410
Slufterplantsoen,29,,,1316KR,Almere,Almere,Flevoland,VBO,5.227449,52.388391
Slufterplantsoen,31,,,1316KR,Almere,Almere,Flevoland,VBO,5.227377,52.388368
Slufterplantsoen,33,,,1316KR,Almere,Almere,Flevoland,VBO,5.227297,52.388343
Slufterplantsoen,35,,,1316KR,Almere,Almere,Flevoland,VBO,5.227223,52.388323
Slufterplantsoen,37,,,1316KR,Almere,Almere,Flevoland,VBO,5.227146,52.388297
Slufterplantsoen,39,,,1316KR,Almere,Almere,Flevoland,VBO,5.227068,52.388276
Slufterplantsoen,41,,,1316KR,Almere,Almere,Flevoland,VBO,5.226995,52.388252
Slufterplantsoen,43,,,1316KR,Almere,Almere,Flevoland,VBO,5.226925,52.388229
Slufterplantsoen,45,,,1316KR,Almere,Almere,Flevoland,VBO,5.226778,52.388186
Slufterplantsoen,47,,,1316KR,Almere,Almere,Flevoland,VBO,5.226700,52.388163
Slufterplantsoen,49,,,1316KR,Almere,Almere,Flevoland,VBO,5.226621,52.388140
Slufterplantsoen,51,,,1316KR,Almere,Almere,Flevoland,VBO,5.226549,52.388119
Slufterplantsoen,53,,,1316KR,Almere,Almere,Flevoland,VBO,5.226471,52.388094
Slufterplantsoen,55,,,1316KR,Almere,Almere,Flevoland,VBO,5.226399,52.388071
Slufterplantsoen,57,,,1316KR,Almere,Almere,Flevoland,VBO,5.226328,52.388051
Slufterplantsoen,59,,,1316KR,Almere,Almere,Flevoland,VBO,5.226252,52.388027
Slufterplantsoen,61,,,1316KR,Almere,Almere,Flevoland,VBO,5.226176,52.388005
Slufterplantsoen,63,,,1316KR,Almere,Almere,Flevoland,VBO,5.226097,52.387984
Slufterplantsoen,65,,,1316KR,Almere,Almere,Flevoland,VBO,5.225886,52.387969
Slufterplantsoen,67,,,1316KR,Almere,Almere,Flevoland,VBO,5.225814,52.387946
Slufterplantsoen,69,,,1316KR,Almere,Almere,Flevoland,VBO,5.225734,52.387924
Slufterplantsoen,71,,,1316KR,Almere,Almere,Flevoland,VBO,5.225665,52.387903
Slufterplantsoen,73,,,1316KS,Almere,Almere,Flevoland,VBO,5.225167,52.388057
Slufterplantsoen,75,,,1316KS,Almere,Almere,Flevoland,VBO,5.225124,52.388106
Slufterplantsoen,77,,,1316KS,Almere,Almere,Flevoland,VBO,5.225086,52.388157
Slufterplantsoen,79,,,1316KS,Almere,Almere,Flevoland,VBO,5.225045,52.388205
Slufterplantsoen,81,,,1316KS,Almere,Almere,Flevoland,VBO,5.224827,52.388427
Slufterplantsoen,83,,,1316KS,Almere,Almere,Flevoland,VBO,5.224742,52.388402
Slufterplantsoen,85,,,1316KS,Almere,Almere,Flevoland,VBO,5.224671,52.388381
Slufterplantsoen,87,,,1316KS,Almere,Almere,Flevoland,VBO,5.224593,52.388359
Slufterplantsoen,89,,,1316KS,Almere,Almere,Flevoland,VBO,5.224512,52.388333
Slufterplantsoen,91,,,1316KS,Almere,Almere,Flevoland,VBO,5.224430,52.388309
Slufterplantsoen,93,,,1316KT,Almere,Almere,Flevoland,VBO,5.224262,52.388495
Slufterplantsoen,95,,,1316KT,Almere,Almere,Flevoland,VBO,5.224225,52.388544
Slufterplantsoen,97,,,1316KT,Almere,Almere,Flevoland,VBO,5.224186,52.388589
Slufterplantsoen,99,,,1316KT,Almere,Almere,Flevoland,VBO,5.224144,52.388639
Slufterplantsoen,101,,,1316KT,Almere,Almere,Flevoland,VBO,5.224112,52.388682
Slufterplantsoen,103,,,1316KT,Almere,Almere,Flevoland,VBO,5.224067,52.388736
Slufterplantsoen,105,,,1316KT,Almere,Almere,Flevoland,VBO,5.224031,52.388783
Slufterplantsoen,107,,,1316KT,Almere,Almere,Flevoland,VBO,5.223989,52.388833
Slufterplantsoen,109,,,1316KT,Almere,Almere,Flevoland,VBO,5.224290,52.388936
Slufterplantsoen,111,,,1316KT,Almere,Almere,Flevoland,VBO,5.224382,52.388965
Slufterplantsoen,113,,,1316KT,Almere,Almere,Flevoland,VBO,5.224454,52.388982
Slufterplantsoen,115,,,1316KT,Almere,Almere,Flevoland,VBO,5.224542,52.389002
Slufterplantsoen,117,,,1316KT,Almere,Almere,Flevoland,VBO,5.224622,52.389037
Slufterplantsoen,119,,,1316KT,Almere,Almere,Flevoland,VBO,5.224700,52.389060
Slufterplantsoen,121,,,1316KT,Almere,Almere,Flevoland,VBO,5.224771,52.389083
Slufterplantsoen,123,,,1316KT,Almere,Almere,Flevoland,VBO,5.224854,52.389104
Slufterplantsoen,125,,,1316KV,Almere,Almere,Flevoland,VBO,5.225249,52.389222
Slufterplantsoen,127,,,1316KV,Almere,Almere,Flevoland,VBO,5.225334,52.389250
Slufterplantsoen,129,,,1316KV,Almere,Almere,Flevoland,VBO,5.225412,52.389272
Slufterplantsoen,131,,,1316KV,Almere,Almere,Flevoland,VBO,5.225489,52.389297
Slufterplantsoen,133,,,1316KV,Almere,Almere,Flevoland,VBO,5.225561,52.389320
Slufterplantsoen,135,,,1316KV,Almere,Almere,Flevoland,VBO,5.225644,52.389345
Slufterplantsoen,137,,,1316KV,Almere,Almere,Flevoland,VBO,5.225726,52.389369
Slufterplantsoen,139,,,1316KV,Almere,Almere,Flevoland,VBO,5.225805,52.389392
Slufterplantsoen,141,,,1316KV,Almere,Almere,Flevoland,VBO,5.225671,52.389594
Slufterplantsoen,143,,,1316KV,Almere,Almere,Flevoland,VBO,5.225626,52.389645
Slufterplantsoen,145,,,1316KV,Almere,Almere,Flevoland,VBO,5.225590,52.389687
Slufterplantsoen,147,,,1316KV,Almere,Almere,Flevoland,VBO,5.225550,52.389738
Slufterplantsoen,149,,,1316KV,Almere,Almere,Flevoland,VBO,5.225518,52.389784
Slufterplantsoen,151,,,1316KV,Almere,Almere,Flevoland,VBO,5.225474,52.389836
Slufterplantsoen,2,,,1316KX,Almere,Almere,Flevoland,VBO,5.225617,52.388249
Slufterplantsoen,10,,,1316KX,Almere,Almere,Flevoland,VBO,5.225584,52.388947
Haringvlietstraat,1,,,1316LA,Almere,Almere,Flevoland,VBO,5.224223,52.385886
Haringvlietstraat,2,,,1316LA,Almere,Almere,Flevoland,VBO,5.224296,52.385907
Haringvlietstraat,3,,,1316LA,Almere,Almere,Flevoland,VBO,5.224367,52.385928
Haringvlietstraat,4,,,1316LA,Almere,Almere,Flevoland,VBO,5.224436,52.385949
Haringvlietstraat,5,,,1316LA,Almere,Almere,Flevoland,VBO,5.224507,52.385971
Haringvlietstraat,6,,,1316LA,Almere,Almere,Flevoland,VBO,5.224576,52.385991
Haringvlietstraat,7,,,1316LA,Almere,Almere,Flevoland,VBO,5.224651,52.386015
Haringvlietstraat,8,,,1316LA,Almere,Almere,Flevoland,VBO,5.224721,52.386035
Haringvlietstraat,9,,,1316LB,Almere,Almere,Flevoland,VBO,5.225071,52.386139
Haringvlietstraat,10,,,1316LB,Almere,Almere,Flevoland,VBO,5.225146,52.386160
Haringvlietstraat,11,,,1316LB,Almere,Almere,Flevoland,VBO,5.225215,52.386182
Haringvlietstraat,12,,,1316LB,Almere,Almere,Flevoland,VBO,5.225284,52.386202
Haringvlietstraat,13,,,1316LB,Almere,Almere,Flevoland,VBO,5.225345,52.386220
Haringvlietstraat,14,,,1316LB,Almere,Almere,Flevoland,VBO,5.225416,52.386242
Haringvlietstraat,15,,,1316LB,Almere,Almere,Flevoland,VBO,5.225487,52.386263
Haringvlietstraat,16,,,1316LB,Almere,Almere,Flevoland,VBO,5.225563,52.386286
Haringvlietstraat,17,,,1316LB,Almere,Almere,Flevoland,VBO,5.225902,52.386388
Haringvlietstraat,18,,,1316LB,Almere,Almere,Flevoland,VBO,5.225976,52.386411
Haringvlietstraat,19,,,1316LB,Almere,Almere,Flevoland,VBO,5.226046,52.386433
Haringvlietstraat,20,,,1316LB,Almere,Almere,Flevoland,VBO,5.226118,52.386453
Haringvlietstraat,21,,,1316LC,Almere,Almere,Flevoland,VBO,5.226977,52.386711
Haringvlietstraat,22,,,1316LC,Almere,Almere,Flevoland,VBO,5.227050,52.386733
Haringvlietstraat,23,,,1316LC,Almere,Almere,Flevoland,VBO,5.227115,52.386753
Haringvlietstraat,24,,,1316LC,Almere,Almere,Flevoland,VBO,5.227188,52.386775
Haringvlietstraat,25,,,1316LC,Almere,Almere,Flevoland,VBO,5.227516,52.386879
Haringvlietstraat,26,,,1316LC,Almere,Almere,Flevoland,VBO,5.227590,52.386902
Haringvlietstraat,27,,,1316LC,Almere,Almere,Flevoland,VBO,5.227668,52.386923
Haringvlietstraat,28,,,1316LC,Almere,Almere,Flevoland,VBO,5.227750,52.386948
Haringvlietstraat,29,,,1316LC,Almere,Almere,Flevoland,VBO,5.227820,52.386970
Haringvlietstraat,30,,,1316LC,Almere,Almere,Flevoland,VBO,5.227894,52.386993
Haringvlietstraat,31,,,1316LC,Almere,Almere,Flevoland,VBO,5.227967,52.387014
Haringvlietstraat,32,,,1316LC,Almere,Almere,Flevoland,VBO,5.228043,52.387036
Haringvlietstraat,34,,,1316LC,Almere,Almere,Flevoland,VBO,5.228508,52.387110
Haringvlietstraat,36,,,1316LC,Almere,Almere,Flevoland,VBO,5.228660,52.387174
Haringvlietstraat,38,,,1316LC,Almere,Almere,Flevoland,VBO,5.228825,52.387025
Haringvlietstraat,40,,,1316LC,Almere,Almere,Flevoland,VBO,5.228972,52.387093
Krammerstraat,1,,,1316LE,Almere,Almere,Flevoland,VBO,5.225249,52.385940
Krammerstraat,3,,,1316LE,Almere,Almere,Flevoland,VBO,5.225286,52.385898
Krammerstraat,5,,,1316LE,Almere,Almere,Flevoland,VBO,5.225320,52.385854
Krammerstraat,7,,,1316LE,Almere,Almere,Flevoland,VBO,5.225354,52.385810
Krammerstraat,9,,,1316LE,Almere,Almere,Flevoland,VBO,5.225393,52.385765
Krammerstraat,11,,,1316LE,Almere,Almere,Flevoland,VBO,5.225425,52.385724
Krammerstraat,13,,,1316LE,Almere,Almere,Flevoland,VBO,5.225460,52.385681
Krammerstraat,15,,,1316LE,Almere,Almere,Flevoland,VBO,5.225496,52.385637
Krammerstraat,17,,,1316LE,Almere,Almere,Flevoland,VBO,5.225532,52.385593
Krammerstraat,19,,,1316LE,Almere,Almere,Flevoland,VBO,5.225568,52.385547
Krammerstraat,21,,,1316LE,Almere,Almere,Flevoland,VBO,5.225606,52.385503
Krammerstraat,23,,,1316LE,Almere,Almere,Flevoland,VBO,5.225634,52.385464
Krammerstraat,25,,,1316LE,Almere,Almere,Flevoland,VBO,5.225672,52.385418
Krammerstraat,27,,,1316LG,Almere,Almere,Flevoland,VBO,5.225811,52.385248
Krammerstraat,29,,,1316LG,Almere,Almere,Flevoland,VBO,5.225847,52.385205
Krammerstraat,31,,,1316LG,Almere,Almere,Flevoland,VBO,5.225879,52.385164
Krammerstraat,33,,,1316LG,Almere,Almere,Flevoland,VBO,5.225916,52.385120
Krammerstraat,35,,,1316LG,Almere,Almere,Flevoland,VBO,5.225952,52.385075
Krammerstraat,37,,,1316LG,Almere,Almere,Flevoland,VBO,5.225983,52.385036
Krammerstraat,39,,,1316LG,Almere,Almere,Flevoland,VBO,5.226018,52.384991
Krammerstraat,41,,,1316LG,Almere,Almere,Flevoland,VBO,5.226054,52.384948
Krammerstraat,2,,,1316LH,Almere,Almere,Flevoland,VBO,5.224871,52.385832
Krammerstraat,4,,,1316LH,Almere,Almere,Flevoland,VBO,5.224905,52.385788
Krammerstraat,6,,,1316LH,Almere,Almere,Flevoland,VBO,5.224940,52.385744
Krammerstraat,8,,,1316LH,Almere,Almere,Flevoland,VBO,5.224976,52.385700
Krammerstraat,10,,,1316LH,Almere,Almere,Flevoland,VBO,5.225006,52.385660
Krammerstraat,12,,,1316LH,Almere,Almere,Flevoland,VBO,5.225045,52.385615
Krammerstraat,14,,,1316LH,Almere,Almere,Flevoland,VBO,5.225078,52.385573
Krammerstraat,16,,,1316LH,Almere,Almere,Flevoland,VBO,5.225111,52.385527
Krammerpad,2,,,1316LJ,Almere,Almere,Flevoland,VBO,5.225350,52.384486
Krammerpad,4,,,1316LJ,Almere,Almere,Flevoland,VBO,5.225369,52.384458
Krammerpad,6,,,1316LJ,Almere,Almere,Flevoland,VBO,5.225469,52.384488
Krammerpad,8,,,1316LJ,Almere,Almere,Flevoland,VBO,5.225542,52.384510
Krammerpad,10,,,1316LJ,Almere,Almere,Flevoland,VBO,5.225612,52.384531
Krammerpad,12,,,1316LJ,Almere,Almere,Flevoland,VBO,5.225687,52.384553
Krammerpad,14,,,1316LJ,Almere,Almere,Flevoland,VBO,5.225761,52.384576
Krammerpad,16,,,1316LJ,Almere,Almere,Flevoland,VBO,5.225831,52.384596
Krammerpad,18,,,1316LJ,Almere,Almere,Flevoland,VBO,5.225907,52.384620
Krammerpad,20,,,1316LJ,Almere,Almere,Flevoland,VBO,5.225446,52.384514
Krammerpad,22,,,1316LJ,Almere,Almere,Flevoland,VBO,5.225520,52.384536
Krammerpad,24,,,1316LJ,Almere,Almere,Flevoland,VBO,5.225591,52.384558
Krammerpad,26,,,1316LJ,Almere,Almere,Flevoland,VBO,5.225665,52.384580
Krammerpad,28,,,1316LJ,Almere,Almere,Flevoland,VBO,5.225738,52.384602
Krammerpad,30,,,1316LJ,Almere,Almere,Flevoland,VBO,5.225808,52.384623
Krammerpad,32,,,1316LJ,Almere,Almere,Flevoland,VBO,5.225888,52.384647
Zijpestraat,1,,,1316LK,Almere,Almere,Flevoland,VBO,5.226067,52.386229
Zijpestraat,3,,,1316LK,Almere,Almere,Flevoland,VBO,5.226102,52.386187
Zijpestraat,5,,,1316LK,Almere,Almere,Flevoland,VBO,5.226138,52.386143
Zijpestraat,7,,,1316LK,Almere,Almere,Flevoland,VBO,5.226171,52.386100
Zijpestraat,9,,,1316LK,Almere,Almere,Flevoland,VBO,5.226208,52.386057
Zijpestraat,11,,,1316LK,Almere,Almere,Flevoland,VBO,5.226242,52.386013
Zijpestraat,13,,,1316LK,Almere,Almere,Flevoland,VBO,5.226277,52.385969
Zijpestraat,15,,,1316LL,Almere,Almere,Flevoland,VBO,5.226800,52.385301
Zijpestraat,17,,,1316LL,Almere,Almere,Flevoland,VBO,5.226836,52.385256
Zijpestraat,19,,,1316LL,Almere,Almere,Flevoland,VBO,5.226874,52.385210
Zijpestraat,21,,,1316LL,Almere,Almere,Flevoland,VBO,5.226910,52.385166
Zijpestraat,23,,,1316LL,Almere,Almere,Flevoland,VBO,5.226951,52.385117
Zijpestraat,25,,,1316LL,Almere,Almere,Flevoland,VBO,5.226987,52.385073
Zijpestraat,27,,,1316LL,Almere,Almere,Flevoland,VBO,5.227023,52.385028
Zijpestraat,29,,,1316LL,Almere,Almere,Flevoland,VBO,5.227058,52.384982
Zijpestraat,2,,,1316LN,Almere,Almere,Flevoland,VBO,5.225715,52.386080
Zijpestraat,4,,,1316LN,Almere,Almere,Flevoland,VBO,5.225747,52.386038
Zijpestraat,6,,,1316LN,Almere,Almere,Flevoland,VBO,5.225781,52.385994
Zijpestraat,8,,,1316LN,Almere,Almere,Flevoland,VBO,5.225814,52.385952
Zijpestraat,10,,,1316LN,Almere,Almere,Flevoland,VBO,5.225850,52.385909
Zijpestraat,12,,,1316LN,Almere,Almere,Flevoland,VBO,5.225885,52.385868
Zijpestraat,14,,,1316LN,Almere,Almere,Flevoland,VBO,5.225920,52.385822
Zijpestraat,16,,,1316LN,Almere,Almere,Flevoland,VBO,5.225956,52.385778
Zijpestraat,18,,,1316LN,Almere,Almere,Flevoland,VBO,5.225991,52.385734
Zijpestraat,20,,,1316LN,Almere,Almere,Flevoland,VBO,5.226026,52.385691
Zijpestraat,22,,,1316LN,Almere,Almere,Flevoland,VBO,5.226060,52.385650
Zijpestraat,24,,,1316LN,Almere,Almere,Flevoland,VBO,5.226097,52.385605
Zijpestraat,26,,,1316LN,Almere,Almere,Flevoland,VBO,5.226132,52.385560
Zijpestraat,28,,,1316LP,Almere,Almere,Flevoland,VBO,5.226270,52.385393
Zijpestraat,30,,,1316LP,Almere,Almere,Flevoland,VBO,5.226305,52.385350
Zijpestraat,32,,,1316LP,Almere,Almere,Flevoland,VBO,5.226338,52.385306
Zijpestraat,34,,,1316LP,Almere,Almere,Flevoland,VBO,5.226371,52.385264
Zijpestraat,36,,,1316LP,Almere,Almere,Flevoland,VBO,5.226411,52.385219
Zijpestraat,38,,,1316LP,Almere,Almere,Flevoland,VBO,5.226446,52.385175
Zijpestraat,40,,,1316LP,Almere,Almere,Flevoland,VBO,5.226479,52.385134
Zijpestraat,42,,,1316LP,Almere,Almere,Flevoland,VBO,5.226514,52.385089
Volkerakpad,1,,,1316LR,Almere,Almere,Flevoland,VBO,5.226706,52.386638
Volkerakpad,3,,,1316LR,Almere,Almere,Flevoland,VBO,5.226745,52.386592
Volkerakpad,5,,,1316LR,Almere,Almere,Flevoland,VBO,5.226776,52.386551
Volkerakpad,7,,,1316LR,Almere,Almere,Flevoland,VBO,5.226811,52.386506
Volkerakpad,9,,,1316LR,Almere,Almere,Flevoland,VBO,5.226845,52.386464
Volkerakpad,11,,,1316LR,Almere,Almere,Flevoland,VBO,5.226881,52.386420
Volkerakpad,13,,,1316LR,Almere,Almere,Flevoland,VBO,5.226916,52.386377
Volkerakpad,15,,,1316LR,Almere,Almere,Flevoland,VBO,5.226950,52.386334
Volkerakpad,17,,,1316LR,Almere,Almere,Flevoland,VBO,5.226986,52.386290
Volkerakpad,19,,,1316LR,Almere,Almere,Flevoland,VBO,5.227021,52.386246
Volkerakpad,21,,,1316LR,Almere,Almere,Flevoland,VBO,5.227055,52.386204
Volkerakpad,23,,,1316LS,Almere,Almere,Flevoland,VBO,5.227588,52.385535
Volkerakpad,25,,,1316LS,Almere,Almere,Flevoland,VBO,5.227625,52.385487
Volkerakpad,27,,,1316LS,Almere,Almere,Flevoland,VBO,5.227662,52.385444
Volkerakpad,29,,,1316LS,Almere,Almere,Flevoland,VBO,5.227696,52.385400
Volkerakpad,31,,,1316LS,Almere,Almere,Flevoland,VBO,5.227738,52.385351
Volkerakpad,33,,,1316LS,Almere,Almere,Flevoland,VBO,5.227770,52.385309
Volkerakpad,35,,,1316LS,Almere,Almere,Flevoland,VBO,5.227808,52.385262
Volkerakpad,37,,,1316LS,Almere,Almere,Flevoland,VBO,5.227845,52.385215
Volkerakpad,2,,,1316LT,Almere,Almere,Flevoland,VBO,5.226390,52.386546
Volkerakpad,4,,,1316LT,Almere,Almere,Flevoland,VBO,5.226424,52.386500
Volkerakpad,6,,,1316LT,Almere,Almere,Flevoland,VBO,5.226457,52.386460
Volkerakpad,8,,,1316LT,Almere,Almere,Flevoland,VBO,5.226492,52.386417
Volkerakpad,10,,,1316LT,Almere,Almere,Flevoland,VBO,5.226527,52.386374
Volkerakpad,12,,,1316LT,Almere,Almere,Flevoland,VBO,5.226563,52.386330
Volkerakpad,14,,,1316LT,Almere,Almere,Flevoland,VBO,5.226599,52.386285
Volkerakpad,16,,,1316LT,Almere,Almere,Flevoland,VBO,5.226633,52.386242
Volkerakpad,18,,,1316LT,Almere,Almere,Flevoland,VBO,5.226668,52.386198
Volkerakpad,20,,,1316LT,Almere,Almere,Flevoland,VBO,5.226704,52.386155
Volkerakpad,22,,,1316LT,Almere,Almere,Flevoland,VBO,5.226739,52.386111
Volkerakpad,24,,,1316LV,Almere,Almere,Flevoland,VBO,5.227280,52.385446
Volkerakpad,26,,,1316LV,Almere,Almere,Flevoland,VBO,5.227315,52.385401
Volkerakpad,28,,,1316LV,Almere,Almere,Flevoland,VBO,5.227352,52.385356
Volkerakpad,30,,,1316LV,Almere,Almere,Flevoland,VBO,5.227390,52.385310
Volkerakpad,32,,,1316LV,Almere,Almere,Flevoland,VBO,5.227426,52.385264
Volkerakpad,34,,,1316LV,Almere,Almere,Flevoland,VBO,5.227463,52.385219
Volkerakpad,36,,,1316LV,Almere,Almere,Flevoland,VBO,5.227503,52.385170
Volkerakpad,38,,,1316LV,Almere,Almere,Flevoland,VBO,5.227538,52.385126
Ketenstraat,1,,,1316LX,Almere,Almere,Flevoland,VBO,5.227683,52.386688
Ketenstraat,3,,,1316LX,Almere,Almere,Flevoland,VBO,5.227721,52.386639
Ketenstraat,5,,,1316LX,Almere,Almere,Flevoland,VBO,5.227758,52.386596
Ketenstraat,7,,,1316LX,Almere,Almere,Flevoland,VBO,5.227794,52.386549
Ketenstraat,9,,,1316LX,Almere,Almere,Flevoland,VBO,5.227832,52.386504
Ketenstraat,11,,,1316LX,Almere,Almere,Flevoland,VBO,5.227869,52.386459
Ketenstraat,13,,,1316LX,Almere,Almere,Flevoland,VBO,5.227905,52.386414
Ketenstraat,15,,,1316LX,Almere,Almere,Flevoland,VBO,5.227942,52.386367
Ketenstraat,17,,,1316LX,Almere,Almere,Flevoland,VBO,5.227982,52.386320
Ketenstraat,19,,,1316LX,Almere,Almere,Flevoland,VBO,5.228017,52.386275
Ketenstraat,21,,,1316LX,Almere,Almere,Flevoland,VBO,5.228053,52.386231
Ketenstraat,23,,,1316LX,Almere,Almere,Flevoland,VBO,5.228095,52.386180
Ketenstraat,25,,,1316NA,Almere,Almere,Flevoland,VBO,5.228215,52.386035
Ketenstraat,27,,,1316NA,Almere,Almere,Flevoland,VBO,5.228252,52.385988
Ketenstraat,29,,,1316NA,Almere,Almere,Flevoland,VBO,5.228289,52.385942
Ketenstraat,31,,,1316NA,Almere,Almere,Flevoland,VBO,5.228327,52.385898
Ketenstraat,33,,,1316NA,Almere,Almere,Flevoland,VBO,5.228362,52.385852
Ketenstraat,35,,,1316NA,Almere,Almere,Flevoland,VBO,5.228401,52.385806
Ketenstraat,37,,,1316NA,Almere,Almere,Flevoland,VBO,5.228436,52.385762
Ketenstraat,39,,,1316NA,Almere,Almere,Flevoland,VBO,5.228470,52.385718
Ketenstraat,41,,,1316NA,Almere,Almere,Flevoland,VBO,5.228510,52.385670
Ketenstraat,2,,,1316NB,Almere,Almere,Flevoland,VBO,5.227306,52.386606
Ketenstraat,4,,,1316NB,Almere,Almere,Flevoland,VBO,5.227342,52.386562
Ketenstraat,6,,,1316NB,Almere,Almere,Flevoland,VBO,5.227377,52.386518
Ketenstraat,8,,,1316NB,Almere,Almere,Flevoland,VBO,5.227411,52.386475
Ketenstraat,10,,,1316NB,Almere,Almere,Flevoland,VBO,5.227445,52.386432
Ketenstraat,12,,,1316NB,Almere,Almere,Flevoland,VBO,5.227480,52.386392
Ketenstraat,14,,,1316NB,Almere,Almere,Flevoland,VBO,5.227515,52.386348
Ketenstraat,16,,,1316NC,Almere,Almere,Flevoland,VBO,5.228057,52.385679
Ketenstraat,18,,,1316NC,Almere,Almere,Flevoland,VBO,5.228095,52.385632
Ketenstraat,20,,,1316NC,Almere,Almere,Flevoland,VBO,5.228129,52.385588
Ketenstraat,22,,,1316NC,Almere,Almere,Flevoland,VBO,5.228169,52.385541
Ketenstraat,24,,,1316NC,Almere,Almere,Flevoland,VBO,5.228204,52.385496
Ketenstraat,26,,,1316NC,Almere,Almere,Flevoland,VBO,5.228241,52.385451
Ketenstraat,28,,,1316NC,Almere,Almere,Flevoland,VBO,5.228278,52.385404
Ketenstraat,30,,,1316NC,Almere,Almere,Flevoland,VBO,5.228314,52.385358
Grevelingenpad,1,,,1316NE,Almere,Almere,Flevoland,VBO,5.228315,52.386946
Grevelingenpad,2,,,1316NH,Almere,Almere,Flevoland,VBO,5.228192,52.386840
Grevelingenpad,4,,,1316NH,Almere,Almere,Flevoland,VBO,5.228230,52.386792
Grevelingenpad,6,,,1316NH,Almere,Almere,Flevoland,VBO,5.228265,52.386748
Grevelingenpad,8,,,1316NH,Almere,Almere,Flevoland,VBO,5.228304,52.386700
Grevelingenpad,10,,,1316NH,Almere,Almere,Flevoland,VBO,5.228339,52.386653
Grevelingenpad,12,,,1316NH,Almere,Almere,Flevoland,VBO,5.228376,52.386607
Grevelingenpad,14,,,1316NH,Almere,Almere,Flevoland,VBO,5.228411,52.386563
Grevelingenpad,16,,,1316NH,Almere,Almere,Flevoland,VBO,5.228449,52.386518
Grevelingenpad,18,,,1316NH,Almere,Almere,Flevoland,VBO,5.228487,52.386472
Grevelingenpad,20,,,1316NH,Almere,Almere,Flevoland,VBO,5.228523,52.386426
Grevelingenpad,22,,,1316NH,Almere,Almere,Flevoland,VBO,5.228558,52.386383
Grevelingenpad,24,,,1316NH,Almere,Almere,Flevoland,VBO,5.228597,52.386333
Grevelingenpad,26,,,1316NJ,Almere,Almere,Flevoland,VBO,5.228713,52.386189
Grevelingenpad,28,,,1316NJ,Almere,Almere,Flevoland,VBO,5.228752,52.386143
Grevelingenpad,30,,,1316NJ,Almere,Almere,Flevoland,VBO,5.228786,52.386100
Grevelingenpad,32,,,1316NJ,Almere,Almere,Flevoland,VBO,5.228826,52.386052
Grevelingenpad,34,,,1316NJ,Almere,Almere,Flevoland,VBO,5.228859,52.386007
Grevelingenpad,36,,,1316NJ,Almere,Almere,Flevoland,VBO,5.228897,52.385962
Grevelingenpad,38,,,1316NJ,Almere,Almere,Flevoland,VBO,5.228937,52.385914
Grevelingenpad,40,,,1316NJ,Almere,Almere,Flevoland,VBO,5.228973,52.385870
Grevelingenpad,42,,,1316NJ,Almere,Almere,Flevoland,VBO,5.229009,52.385822
Mastgatpad,1,,,1316NK,Almere,Almere,Flevoland,VBO,5.224765,52.385215
Mastgatpad,3,,,1316NK,Almere,Almere,Flevoland,VBO,5.224839,52.385238
Mastgatpad,5,,,1316NK,Almere,Almere,Flevoland,VBO,5.224908,52.385258
Mastgatpad,7,,,1316NK,Almere,Almere,Flevoland,VBO,5.224981,52.385280
Mastgatpad,9,,,1316NK,Almere,Almere,Flevoland,VBO,5.225055,52.385302
Mastgatpad,11,,,1316NK,Almere,Almere,Flevoland,VBO,5.225125,52.385323
Mastgatpad,13,,,1316NK,Almere,Almere,Flevoland,VBO,5.225195,52.385344
Mastgatpad,15,,,1316NK,Almere,Almere,Flevoland,VBO,5.225269,52.385366
Mastgatpad,17,,,1316NL,Almere,Almere,Flevoland,VBO,5.226402,52.385790
Mastgatpad,19,,,1316NL,Almere,Almere,Flevoland,VBO,5.226474,52.385811
Mastgatpad,21,,,1316NL,Almere,Almere,Flevoland,VBO,5.226546,52.385833
Mastgatpad,23,,,1316NL,Almere,Almere,Flevoland,VBO,5.226619,52.385855
Mastgatpad,25,,,1316NL,Almere,Almere,Flevoland,VBO,5.226690,52.385877
Mastgatpad,27,,,1316NL,Almere,Almere,Flevoland,VBO,5.226760,52.385898
Mastgatpad,29,,,1316NL,Almere,Almere,Flevoland,VBO,5.226832,52.385920
Mastgatpad,31,,,1316NL,Almere,Almere,Flevoland,VBO,5.226904,52.385942
Mastgatpad,33,,,1316NN,Almere,Almere,Flevoland,VBO,5.227170,52.386019
Mastgatpad,35,,,1316NN,Almere,Almere,Flevoland,VBO,5.227243,52.386042
Mastgatpad,37,,,1316NN,Almere,Almere,Flevoland,VBO,5.227317,52.386063
Mastgatpad,39,,,1316NN,Almere,Almere,Flevoland,VBO,5.227381,52.386083
Mastgatpad,41,,,1316NN,Almere,Almere,Flevoland,VBO,5.227455,52.386104
Mastgatpad,43,,,1316NN,Almere,Almere,Flevoland,VBO,5.227526,52.386127
Mastgatpad,45,,,1316NN,Almere,Almere,Flevoland,VBO,5.227597,52.386148
Mastgatpad,47,,,1316NN,Almere,Almere,Flevoland,VBO,5.227669,52.386170
Mastgatpad,2,,,1316NP,Almere,Almere,Flevoland,VBO,5.224937,52.384981
Mastgatpad,18,,,1316NR,Almere,Almere,Flevoland,VBO,5.226651,52.385460
Mastgatpad,20,,,1316NR,Almere,Almere,Flevoland,VBO,5.226729,52.385484
Mastgatpad,22,,,1316NR,Almere,Almere,Flevoland,VBO,5.226801,52.385505
Mastgatpad,24,,,1316NR,Almere,Almere,Flevoland,VBO,5.226879,52.385529
Mastgatpad,26,,,1316NR,Almere,Almere,Flevoland,VBO,5.226952,52.385551
Mastgatpad,28,,,1316NR,Almere,Almere,Flevoland,VBO,5.227027,52.385574
Mastgatpad,30,,,1316NR,Almere,Almere,Flevoland,VBO,5.227102,52.385596
Mastgatpad,32,,,1316NR,Almere,Almere,Flevoland,VBO,5.227175,52.385618
Mastgatpad,34,,,1316NS,Almere,Almere,Flevoland,VBO,5.227416,52.385694
Mastgatpad,36,,,1316NS,Almere,Almere,Flevoland,VBO,5.227494,52.385717
Mastgatpad,38,,,1316NS,Almere,Almere,Flevoland,VBO,5.227567,52.385739
Mastgatpad,40,,,1316NS,Almere,Almere,Flevoland,VBO,5.227642,52.385762
Mastgatpad,42,,,1316NS,Almere,Almere,Flevoland,VBO,5.227715,52.385785
Mastgatpad,44,,,1316NS,Almere,Almere,Flevoland,VBO,5.227792,52.385807
Mastgatpad,46,,,1316NS,Almere,Almere,Flevoland,VBO,5.227870,52.385831
Mastgatpad,48,,,1316NS,Almere,Almere,Flevoland,VBO,5.227945,52.385854
Mastgatpad,50,,,1316NS,Almere,Almere,Flevoland,VBO,5.227873,52.386002
Lekstraat,17,,,1316NV,Almere,Almere,Flevoland,VBO,5.226176,52.384777
Lekstraat,19,,,1316NV,Almere,Almere,Flevoland,VBO,5.226245,52.384798
Lekstraat,21,,,1316NV,Almere,Almere,Flevoland,VBO,5.226313,52.384822
Lekstraat,23,,,1316NV,Almere,Almere,Flevoland,VBO,5.226386,52.384843
Lekstraat,25,,,1316NV,Almere,Almere,Flevoland,VBO,5.226453,52.384864
Lekstraat,27,,,1316NV,Almere,Almere,Flevoland,VBO,5.226528,52.384885
Lekstraat,29,,,1316NV,Almere,Almere,Flevoland,VBO,5.226599,52.384907
Lekstraat,31,,,1316NV,Almere,Almere,Flevoland,VBO,5.226672,52.384929
Lekstraat,33,,,1316NX,Almere,Almere,Flevoland,VBO,5.227179,52.384799
Lekstraat,35,,,1316NX,Almere,Almere,Flevoland,VBO,5.227257,52.384825
Lekstraat,37,,,1316NX,Almere,Almere,Flevoland,VBO,5.227328,52.384846
Lekstraat,39,,,1316NX,Almere,Almere,Flevoland,VBO,5.227400,52.384868
Lekstraat,41,,,1316NX,Almere,Almere,Flevoland,VBO,5.227483,52.384893
Lekstraat,43,,,1316NX,Almere,Almere,Flevoland,VBO,5.227552,52.384913
Lekstraat,45,,,1316NX,Almere,Almere,Flevoland,VBO,5.227631,52.384937
Lekstraat,47,,,1316PA,Almere,Almere,Flevoland,VBO,5.228030,52.385062
Lekstraat,49,,,1316PA,Almere,Almere,Flevoland,VBO,5.228106,52.385084
Lekstraat,51,,,1316PA,Almere,Almere,Flevoland,VBO,5.228180,52.385106
Lekstraat,53,,,1316PA,Almere,Almere,Flevoland,VBO,5.228251,52.385128
Lekstraat,55,,,1316PA,Almere,Almere,Flevoland,VBO,5.228330,52.385152
Lekstraat,57,,,1316PA,Almere,Almere,Flevoland,VBO,5.228403,52.385173
Lekstraat,59,,,1316PA,Almere,Almere,Flevoland,VBO,5.228482,52.385196
Lekstraat,61,,,1316PB,Almere,Almere,Flevoland,VBO,5.228622,52.385516
Lekstraat,63,,,1316PB,Almere,Almere,Flevoland,VBO,5.228697,52.385538
Lekstraat,65,,,1316PB,Almere,Almere,Flevoland,VBO,5.228772,52.385560
Lekstraat,67,,,1316PB,Almere,Almere,Flevoland,VBO,5.228845,52.385582
Lekstraat,69,,,1316PB,Almere,Almere,Flevoland,VBO,5.228920,52.385605
Lekstraat,71,,,1316PB,Almere,Almere,Flevoland,VBO,5.228997,52.385627
Lekstraat,73,,,1316PB,Almere,Almere,Flevoland,VBO,5.229073,52.385650
Lekstraat,75,,,1316PB,Almere,Almere,Flevoland,VBO,5.229151,52.385674
Braakmankreek,1,,,1316RA,Almere,Almere,Flevoland,VBO,5.222514,52.387090
Braakmankreek,2,,,1316RA,Almere,Almere,Flevoland,VBO,5.222435,52.387065
Braakmankreek,3,,,1316RA,Almere,Almere,Flevoland,VBO,5.222530,52.387067
Braakmankreek,4,,,1316RA,Almere,Almere,Flevoland,VBO,5.222452,52.387042
Braakmankreek,5,,,1316RA,Almere,Almere,Flevoland,VBO,5.222366,52.387045
Braakmankreek,6,,,1316RA,Almere,Almere,Flevoland,VBO,5.222295,52.387024
Braakmankreek,7,,,1316RA,Almere,Almere,Flevoland,VBO,5.222379,52.387024
Braakmankreek,8,,,1316RA,Almere,Almere,Flevoland,VBO,5.222308,52.387003
Braakmankreek,9,,,1316RA,Almere,Almere,Flevoland,VBO,5.222224,52.387003
Braakmankreek,10,,,1316RA,Almere,Almere,Flevoland,VBO,5.222151,52.386981
Braakmankreek,11,,,1316RA,Almere,Almere,Flevoland,VBO,5.222235,52.386985
Braakmankreek,12,,,1316RA,Almere,Almere,Flevoland,VBO,5.222161,52.386962
Braakmankreek,13,,,1316RB,Almere,Almere,Flevoland,VBO,5.221936,52.386813
Braakmankreek,14,,,1316RB,Almere,Almere,Flevoland,VBO,5.221905,52.386860
Braakmankreek,15,,,1316RB,Almere,Almere,Flevoland,VBO,5.221916,52.386809
Braakmankreek,16,,,1316RB,Almere,Almere,Flevoland,VBO,5.221879,52.386854
Braakmankreek,17,,,1316RB,Almere,Almere,Flevoland,VBO,5.221866,52.386901
Braakmankreek,18,,,1316RB,Almere,Almere,Flevoland,VBO,5.221835,52.386947
Braakmankreek,19,,,1316RB,Almere,Almere,Flevoland,VBO,5.221837,52.386896
Braakmankreek,20,,,1316RB,Almere,Almere,Flevoland,VBO,5.221809,52.386938
Braakmankreek,21,,,1316RB,Almere,Almere,Flevoland,VBO,5.221796,52.386990
Braakmankreek,22,,,1316RB,Almere,Almere,Flevoland,VBO,5.221762,52.387036
Braakmankreek,23,,,1316RB,Almere,Almere,Flevoland,VBO,5.221769,52.386986
Braakmankreek,24,,,1316RB,Almere,Almere,Flevoland,VBO,5.221735,52.387027
Braakmankreek,25,,,1316RC,Almere,Almere,Flevoland,VBO,5.221775,52.387121
Braakmankreek,26,,,1316RC,Almere,Almere,Flevoland,VBO,5.221804,52.387169
Braakmankreek,27,,,1316RC,Almere,Almere,Flevoland,VBO,5.221752,52.387128
Braakmankreek,28,,,1316RC,Almere,Almere,Flevoland,VBO,5.221776,52.387174
Braakmankreek,29,,,1316RC,Almere,Almere,Flevoland,VBO,5.221828,52.387215
Braakmankreek,30,,,1316RC,Almere,Almere,Flevoland,VBO,5.221856,52.387262
Braakmankreek,31,,,1316RC,Almere,Almere,Flevoland,VBO,5.221805,52.387219
Braakmankreek,32,,,1316RC,Almere,Almere,Flevoland,VBO,5.221829,52.387265
Braakmankreek,33,,,1316RC,Almere,Almere,Flevoland,VBO,5.221884,52.387311
Braakmankreek,34,,,1316RC,Almere,Almere,Flevoland,VBO,5.221909,52.387354
Braakmankreek,35,,,1316RC,Almere,Almere,Flevoland,VBO,5.221853,52.387315
Braakmankreek,36,,,1316RC,Almere,Almere,Flevoland,VBO,5.221877,52.387355
Braakmankreek,37,,,1316RE,Almere,Almere,Flevoland,VBO,5.221946,52.387430
Braakmankreek,38,,,1316RE,Almere,Almere,Flevoland,VBO,5.221973,52.387479
Braakmankreek,39,,,1316RE,Almere,Almere,Flevoland,VBO,5.221927,52.387436
Braakmankreek,40,,,1316RE,Almere,Almere,Flevoland,VBO,5.221946,52.387482
Braakmankreek,41,,,1316RE,Almere,Almere,Flevoland,VBO,5.222001,52.387522
Braakmankreek,42,,,1316RE,Almere,Almere,Flevoland,VBO,5.222024,52.387571
Braakmankreek,43,,,1316RE,Almere,Almere,Flevoland,VBO,5.221972,52.387529
Braakmankreek,44,,,1316RE,Almere,Almere,Flevoland,VBO,5.222000,52.387576
Braakmankreek,45,,,1316RE,Almere,Almere,Flevoland,VBO,5.222050,52.387619
Braakmankreek,46,,,1316RE,Almere,Almere,Flevoland,VBO,5.222076,52.387662
Braakmankreek,47,,,1316RE,Almere,Almere,Flevoland,VBO,5.222027,52.387622
Braakmankreek,48,,,1316RE,Almere,Almere,Flevoland,VBO,5.222050,52.387666
Braakmankreek,60,,,1316RG,Almere,Almere,Flevoland,VBO,5.222710,52.387218
IJsselmeerweg,15,,,1316RH,Almere,Almere,Flevoland,VBO,5.222797,52.388288
IJsselmeerweg,17,,,1316RH,Almere,Almere,Flevoland,VBO,5.222886,52.388269
IJsselmeerweg,19,,,1316RH,Almere,Almere,Flevoland,VBO,5.222973,52.388252
IJsselmeerweg,21,,,1316RH,Almere,Almere,Flevoland,VBO,5.223048,52.388235
IJsselmeerweg,23,,,1316RH,Almere,Almere,Flevoland,VBO,5.223138,52.388218
IJsselmeerweg,25,,,1316RH,Almere,Almere,Flevoland,VBO,5.223219,52.388201
IJsselmeerweg,27,,,1316RH,Almere,Almere,Flevoland,VBO,5.223624,52.387958
IJsselmeerweg,29,,,1316RH,Almere,Almere,Flevoland,VBO,5.223666,52.387909
IJsselmeerweg,31,,,1316RH,Almere,Almere,Flevoland,VBO,5.223704,52.387859
IJsselmeerweg,33,,,1316RH,Almere,Almere,Flevoland,VBO,5.223739,52.387813
IJsselmeerweg,35,,,1316RH,Almere,Almere,Flevoland,VBO,5.223780,52.387765
IJsselmeerweg,37,,,1316RH,Almere,Almere,Flevoland,VBO,5.223819,52.387716
IJsselmeerweg,39,,,1316RH,Almere,Almere,Flevoland,VBO,5.223858,52.387668
IJsselmeerweg,41,,,1316RH,Almere,Almere,Flevoland,VBO,5.223895,52.387620
IJsselmeerweg,43,,,1316RJ,Almere,Almere,Flevoland,VBO,5.223879,52.387319
IJsselmeerweg,45,,,1316RJ,Almere,Almere,Flevoland,VBO,5.223815,52.387300
IJsselmeerweg,47,,,1316RJ,Almere,Almere,Flevoland,VBO,5.223741,52.387277
IJsselmeerweg,49,,,1316RJ,Almere,Almere,Flevoland,VBO,5.223663,52.387253
IJsselmeerweg,51,,,1316RJ,Almere,Almere,Flevoland,VBO,5.223587,52.387230
IJsselmeerweg,53,,,1316RJ,Almere,Almere,Flevoland,VBO,5.223394,52.387173
IJsselmeerweg,55,,,1316RJ,Almere,Almere,Flevoland,VBO,5.223320,52.387149
IJsselmeerweg,57,,,1316RJ,Almere,Almere,Flevoland,VBO,5.223246,52.387126
IJsselmeerweg,59,,,1316RJ,Almere,Almere,Flevoland,VBO,5.223175,52.387105
IJsselmeerweg,61,,,1316RJ,Almere,Almere,Flevoland,VBO,5.223237,52.386898
IJsselmeerweg,63,,,1316RJ,Almere,Almere,Flevoland,VBO,5.223265,52.386858
IJsselmeerweg,65,,,1316RJ,Almere,Almere,Flevoland,VBO,5.223297,52.386818
IJsselmeerweg,67,,,1316RJ,Almere,Almere,Flevoland,VBO,5.223328,52.386776
IJsselmeerweg,69,,,1316RJ,Almere,Almere,Flevoland,VBO,5.223365,52.386730
IJsselmeerweg,71,,,1316RJ,Almere,Almere,Flevoland,VBO,5.223398,52.386691
IJsselmeerweg,73,,,1316RJ,Almere,Almere,Flevoland,VBO,5.223566,52.386693
IJsselmeerweg,75,,,1316RJ,Almere,Almere,Flevoland,VBO,5.223613,52.386642
IJsselmeerweg,48,,,1316RK,Almere,Almere,Flevoland,VBO,5.222539,52.387933
IJsselmeerweg,58,,,1316RL,Almere,Almere,Flevoland,VBO,5.222816,52.386880
IJsselmeerweg,60,,,1316RL,Almere,Almere,Flevoland,VBO,5.222851,52.386833
IJsselmeerweg,62,,,1316RL,Almere,Almere,Flevoland,VBO,5.222886,52.386792
IJsselmeerweg,64,,,1316RL,Almere,Almere,Flevoland,VBO,5.222924,52.386744
IJsselmeerweg,66,,,1316RL,Almere,Almere,Flevoland,VBO,5.222955,52.386702
IJsselmeerweg,68,,,1316RL,Almere,Almere,Flevoland,VBO,5.222993,52.386658
IJsselmeerweg,70,,,1316RL,Almere,Almere,Flevoland,VBO,5.223022,52.386615
IJsselmeerweg,72,,,1316RL,Almere,Almere,Flevoland,VBO,5.223060,52.386572
Slingebeekstraat,1,,,1316SB,Almere,Almere,Flevoland,VBO,5.224937,52.381151
Slingebeekstraat,3,,,1316SB,Almere,Almere,Flevoland,VBO,5.224881,52.381084
Slingebeekstraat,5,,,1316SB,Almere,Almere,Flevoland,VBO,5.224819,52.381021
Slingebeekstraat,7,,,1316SB,Almere,Almere,Flevoland,VBO,5.224751,52.380962
Slingebeekstraat,9,,,1316SB,Almere,Almere,Flevoland,VBO,5.224669,52.380892
Slingebeekstraat,11,,,1316SB,Almere,Almere,Flevoland,VBO,5.224592,52.380825
Slingebeekstraat,13,,,1316SB,Almere,Almere,Flevoland,VBO,5.224510,52.380763
Slingebeekstraat,15,,,1316SB,Almere,Almere,Flevoland,VBO,5.224423,52.380704
Slingebeekstraat,17,,,1316SB,Almere,Almere,Flevoland,VBO,5.224346,52.380628
Slingebeekstraat,19,,,1316SB,Almere,Almere,Flevoland,VBO,5.224726,52.380517
Slingebeekstraat,21,,,1316SB,Almere,Almere,Flevoland,VBO,5.224833,52.380549
Slingebeekstraat,23,,,1316SB,Almere,Almere,Flevoland,VBO,5.224950,52.380581
Slingebeekstraat,25,,,1316SB,Almere,Almere,Flevoland,VBO,5.225055,52.380609
Slingebeekstraat,27,,,1316SB,Almere,Almere,Flevoland,VBO,5.225191,52.380640
Slingebeekstraat,29,,,1316SC,Almere,Almere,Flevoland,VBO,5.226331,52.380810
Slingebeekstraat,31,,,1316SC,Almere,Almere,Flevoland,VBO,5.226429,52.380815
Slingebeekstraat,33,,,1316SC,Almere,Almere,Flevoland,VBO,5.226590,52.380822
Slingebeekstraat,35,,,1316SC,Almere,Almere,Flevoland,VBO,5.226676,52.380820
Slingebeekstraat,37,,,1316SC,Almere,Almere,Flevoland,VBO,5.226859,52.380829
Slingebeekstraat,39,,,1316SC,Almere,Almere,Flevoland,VBO,5.226949,52.380833
Slingebeekstraat,41,,,1316SC,Almere,Almere,Flevoland,VBO,5.227181,52.380881
Slingebeekstraat,43,,,1316SC,Almere,Almere,Flevoland,VBO,5.227248,52.380912
Slingebeekstraat,45,,,1316SC,Almere,Almere,Flevoland,VBO,5.227415,52.381030
Slingebeekstraat,47,,,1316SC,Almere,Almere,Flevoland,VBO,5.227449,52.381075
Slingebeekstraat,2,,,1316SG,Almere,Almere,Flevoland,VBO,5.224721,52.381421
Slingebeekstraat,4,,,1316SG,Almere,Almere,Flevoland,VBO,5.224693,52.381368
Slingebeekstraat,6,,,1316SG,Almere,Almere,Flevoland,VBO,5.224637,52.381275
Slingebeekstraat,8,,,1316SG,Almere,Almere,Flevoland,VBO,5.224599,52.381222
Slingebeekstraat,10,,,1316SG,Almere,Almere,Flevoland,VBO,5.224526,52.381135
Slingebeekstraat,12,,,1316SG,Almere,Almere,Flevoland,VBO,5.224482,52.381087
Slingebeekstraat,14,,,1316SG,Almere,Almere,Flevoland,VBO,5.224370,52.380996
Slingebeekstraat,16,,,1316SG,Almere,Almere,Flevoland,VBO,5.224324,52.380960
Slingebeekstraat,18,,,1316SG,Almere,Almere,Flevoland,VBO,5.224186,52.380878
Slingebeekstraat,20,,,1316SG,Almere,Almere,Flevoland,VBO,5.224130,52.380846
Slingebeekstraat,26,,,1316SG,Almere,Almere,Flevoland,VBO,5.223980,52.380744
Slingebeekstraat,28,,,1316SG,Almere,Almere,Flevoland,VBO,5.223956,52.380685
Slingebeekstraat,30,,,1316SG,Almere,Almere,Flevoland,VBO,5.223967,52.380601
Slingebeekstraat,32,,,1316SG,Almere,Almere,Flevoland,VBO,5.224009,52.380544
Slingebeekstraat,34,,,1316SG,Almere,Almere,Flevoland,VBO,5.224065,52.380479
Slingebeekstraat,36,,,1316SG,Almere,Almere,Flevoland,VBO,5.224114,52.380426
Slingebeekstraat,38,,,1316SG,Almere,Almere,Flevoland,VBO,5.224190,52.380367
Slingebeekstraat,40,,,1316SG,Almere,Almere,Flevoland,VBO,5.224260,52.380324
Slingebeekstraat,42,,,1316SH,Almere,Almere,Flevoland,VBO,5.224450,52.380264
Slingebeekstraat,44,,,1316SH,Almere,Almere,Flevoland,VBO,5.224561,52.380256
Slingebeekstraat,46,,,1316SH,Almere,Almere,Flevoland,VBO,5.224686,52.380263
Slingebeekstraat,48,,,1316SH,Almere,Almere,Flevoland,VBO,5.224791,52.380287
Slingebeekstraat,50,,,1316SH,Almere,Almere,Flevoland,VBO,5.224902,52.380319
Slingebeekstraat,52,,,1316SH,Almere,Almere,Flevoland,VBO,5.224995,52.380345
Slingebeekstraat,54,,,1316SH,Almere,Almere,Flevoland,VBO,5.225095,52.380374
Slingebeekstraat,56,,,1316SH,Almere,Almere,Flevoland,VBO,5.225200,52.380401
Slingebeekstraat,58,,,1316SH,Almere,Almere,Flevoland,VBO,5.225299,52.380426
Slingebeekstraat,60,,,1316SH,Almere,Almere,Flevoland,VBO,5.225401,52.380450
Slingebeekstraat,62,,,1316SH,Almere,Almere,Flevoland,VBO,5.225506,52.380471
Slingebeekstraat,64,,,1316SH,Almere,Almere,Flevoland,VBO,5.225617,52.380491
Slingebeekstraat,66,,,1316SJ,Almere,Almere,Flevoland,VBO,5.225994,52.380551
Slingebeekstraat,68,,,1316SJ,Almere,Almere,Flevoland,VBO,5.226103,52.380563
Slingebeekstraat,70,,,1316SJ,Almere,Almere,Flevoland,VBO,5.226214,52.380573
Slingebeekstraat,72,,,1316SJ,Almere,Almere,Flevoland,VBO,5.226334,52.380582
Slingebeekstraat,74,,,1316SJ,Almere,Almere,Flevoland,VBO,5.226436,52.380588
Slingebeekstraat,76,,,1316SJ,Almere,Almere,Flevoland,VBO,5.226552,52.380593
Slingebeekstraat,78,,,1316SJ,Almere,Almere,Flevoland,VBO,5.226660,52.380599
Slingebeekstraat,80,,,1316SJ,Almere,Almere,Flevoland,VBO,5.226768,52.380600
Slingebeekstraat,82,,,1316SJ,Almere,Almere,Flevoland,VBO,5.226880,52.380604
Slingebeekstraat,84,,,1316SJ,Almere,Almere,Flevoland,VBO,5.226989,52.380610
Slingebeekstraat,86,,,1316SJ,Almere,Almere,Flevoland,VBO,5.227103,52.380622
Slingebeekstraat,88,,,1316SJ,Almere,Almere,Flevoland,VBO,5.227210,52.380645
Slingebeekstraat,90,,,1316SJ,Almere,Almere,Flevoland,VBO,5.227317,52.380673
Slingebeekstraat,92,,,1316SJ,Almere,Almere,Flevoland,VBO,5.227410,52.380710
Slingebeekstraat,94,,,1316SJ,Almere,Almere,Flevoland,VBO,5.227507,52.380749
Slingebeekstraat,96,,,1316SJ,Almere,Almere,Flevoland,VBO,5.227590,52.380794
Slingebeekstraat,98,,,1316SJ,Almere,Almere,Flevoland,VBO,5.227661,52.380849
Slingebeekstraat,100,,,1316SJ,Almere,Almere,Flevoland,VBO,5.227722,52.380906
Slingebeekstraat,102,,,1316SJ,Almere,Almere,Flevoland,VBO,5.227775,52.380971
Slingebeekstraat,104,,,1316SJ,Almere,Almere,Flevoland,VBO,5.227813,52.381027
Berkelstraat,1,,,1316SK,Almere,Almere,Flevoland,VBO,5.224812,52.381686
Berkelstraat,3,,,1316SK,Almere,Almere,Flevoland,VBO,5.224857,52.381831
Berkelstraat,5,,,1316SK,Almere,Almere,Flevoland,VBO,5.224911,52.382012
Berkelstraat,7,,,1316SK,Almere,Almere,Flevoland,VBO,5.224978,52.382139
Berkelstraat,9,,,1316SK,Almere,Almere,Flevoland,VBO,5.225059,52.382289
Berkelstraat,11,,,1316SK,Almere,Almere,Flevoland,VBO,5.225130,52.382424
Berkelstraat,31,,,1316SL,Almere,Almere,Flevoland,VBO,5.226746,52.382731
Berkelstraat,33,,,1316SL,Almere,Almere,Flevoland,VBO,5.226965,52.382711
Berkelstraat,35,,,1316SL,Almere,Almere,Flevoland,VBO,5.227238,52.382689
Berkelstraat,37,,,1316SL,Almere,Almere,Flevoland,VBO,5.227410,52.382642
Berkelstraat,43,,,1316SL,Almere,Almere,Flevoland,VBO,5.227590,52.382579
Berkelstraat,45,,,1316SL,Almere,Almere,Flevoland,VBO,5.227838,52.382457
Berkelstraat,49,,,1316SL,Almere,Almere,Flevoland,VBO,5.227956,52.382265
Berkelstraat,53,,,1316SL,Almere,Almere,Flevoland,VBO,5.227964,52.382095
Berkelstraat,55,,,1316SL,Almere,Almere,Flevoland,VBO,5.227981,52.381945
Berkelstraat,57,,,1316SL,Almere,Almere,Flevoland,VBO,5.227970,52.381721
Berkelstraat,59,,,1316SL,Almere,Almere,Flevoland,VBO,5.227935,52.381569
Berkelstraat,61,,,1316SL,Almere,Almere,Flevoland,VBO,5.227868,52.381297
Berkelstraat,2,,,1316SM,Almere,Almere,Flevoland,VBO,5.225159,52.381624
Berkelstraat,4,,,1316SM,Almere,Almere,Flevoland,VBO,5.225197,52.381760
Berkelstraat,6,,,1316SM,Almere,Almere,Flevoland,VBO,5.225245,52.381925
Berkelstraat,8,,,1316SM,Almere,Almere,Flevoland,VBO,5.225345,52.382116
Berkelstraat,12,,,1316SM,Almere,Almere,Flevoland,VBO,5.225419,52.382267
Berkelstraat,16,,,1316SM,Almere,Almere,Flevoland,VBO,5.225593,52.382524
Berkelstraat,18,,,1316SM,Almere,Almere,Flevoland,VBO,5.225853,52.382515
Berkelstraat,20,,,1316SM,Almere,Almere,Flevoland,VBO,5.226100,52.382523
Berkelstraat,22,,,1316SM,Almere,Almere,Flevoland,VBO,5.226339,52.382521
Berkelstraat,24,,,1316SN,Almere,Almere,Flevoland,VBO,5.226761,52.382513
Berkelstraat,26,,,1316SN,Almere,Almere,Flevoland,VBO,5.226939,52.382499
Berkelstraat,28,,,1316SN,Almere,Almere,Flevoland,VBO,5.227174,52.382461
Berkelstraat,30,,,1316SN,Almere,Almere,Flevoland,VBO,5.227514,52.382313
Berkelstraat,32,,,1316SN,Almere,Almere,Flevoland,VBO,5.227593,52.382103
Berkelstraat,34,,,1316SN,Almere,Almere,Flevoland,VBO,5.227634,52.381952
Berkelstraat,36,,,1316SN,Almere,Almere,Flevoland,VBO,5.227619,52.381757
Berkelstraat,38,,,1316SN,Almere,Almere,Flevoland,VBO,5.227594,52.381630
Berkelstraat,40,,,1316SN,Almere,Almere,Flevoland,VBO,5.227569,52.381527
Berkelstraat,42,,,1316SN,Almere,Almere,Flevoland,VBO,5.227535,52.381402
Schipbeekstraat,2,,,1316SR,Almere,Almere,Flevoland,VBO,5.225132,52.381404
Schipbeekstraat,4,,,1316SR,Almere,Almere,Flevoland,VBO,5.225188,52.381401
Schipbeekstraat,6,,,1316SR,Almere,Almere,Flevoland,VBO,5.225405,52.381380
Schipbeekstraat,8,,,1316SR,Almere,Almere,Flevoland,VBO,5.225457,52.381376
Schipbeekstraat,10,,,1316SR,Almere,Almere,Flevoland,VBO,5.225618,52.381363
Schipbeekstraat,12,,,1316SR,Almere,Almere,Flevoland,VBO,5.225984,52.381307
Schipbeekstraat,14,,,1316SR,Almere,Almere,Flevoland,VBO,5.226091,52.381299
Schipbeekstraat,16,,,1316SR,Almere,Almere,Flevoland,VBO,5.226242,52.381293
Schipbeekstraat,18,,,1316SR,Almere,Almere,Flevoland,VBO,5.226320,52.381295
Schipbeekstraat,20,,,1316SR,Almere,Almere,Flevoland,VBO,5.226517,52.381288
Schipbeekstraat,22,,,1316SR,Almere,Almere,Flevoland,VBO,5.226594,52.381284
Schipbeekstraat,24,,,1316SR,Almere,Almere,Flevoland,VBO,5.226767,52.381267
Schipbeekstraat,26,,,1316SR,Almere,Almere,Flevoland,VBO,5.226868,52.381255
Schipbeekstraat,28,,,1316SR,Almere,Almere,Flevoland,VBO,5.227030,52.381228
Schipbeekstraat,30,,,1316SR,Almere,Almere,Flevoland,VBO,5.227122,52.381212
Dinkelstraat,1,,,1316ST,Almere,Almere,Flevoland,VBO,5.225855,52.381035
Dinkelstraat,3,,,1316ST,Almere,Almere,Flevoland,VBO,5.225845,52.380982
Dinkelstraat,5,,,1316ST,Almere,Almere,Flevoland,VBO,5.225853,52.380855
Dinkelstraat,7,,,1316ST,Almere,Almere,Flevoland,VBO,5.225872,52.380802
Dinkelstraat,2,,,1316SV,Almere,Almere,Flevoland,VBO,5.225558,52.381081
Dinkelstraat,4,,,1316SV,Almere,Almere,Flevoland,VBO,5.225552,52.381054
Dinkelstraat,6,,,1316SV,Almere,Almere,Flevoland,VBO,5.225545,52.380931
Dinkelstraat,8,,,1316SV,Almere,Almere,Flevoland,VBO,5.225543,52.380903
Dinkelstraat,10,,,1316SV,Almere,Almere,Flevoland,VBO,5.225564,52.380778
Dinkelstraat,12,,,1316SV,Almere,Almere,Flevoland,VBO,5.225568,52.380748
Reggeplantsoen,1,,,1316SW,Almere,Almere,Flevoland,VBO,5.225712,52.381561
Reggeplantsoen,3,,,1316SW,Almere,Almere,Flevoland,VBO,5.225760,52.381692
Reggeplantsoen,5,,,1316SW,Almere,Almere,Flevoland,VBO,5.225810,52.381828
Reggeplantsoen,7,,,1316SW,Almere,Almere,Flevoland,VBO,5.225890,52.381964
Reggeplantsoen,9,,,1316SW,Almere,Almere,Flevoland,VBO,5.226051,52.382147
Reggeplantsoen,11,,,1316SW,Almere,Almere,Flevoland,VBO,5.226207,52.382265
Reggeplantsoen,2,,,1316SX,Almere,Almere,Flevoland,VBO,5.226969,52.381449
Reggeplantsoen,4,,,1316SX,Almere,Almere,Flevoland,VBO,5.226947,52.381609
Reggeplantsoen,6,,,1316SX,Almere,Almere,Flevoland,VBO,5.227006,52.381777
Reggeplantsoen,10,,,1316SX,Almere,Almere,Flevoland,VBO,5.226871,52.382017
Reggeplantsoen,12,,,1316SX,Almere,Almere,Flevoland,VBO,5.226816,52.382105
Reggeplantsoen,14,,,1316SX,Almere,Almere,Flevoland,VBO,5.226774,52.382222
De Realiteit,7,,,1316TA,Almere,Almere,Flevoland,VBO,5.218207,52.392454
De Realiteit,9,,,1316TA,Almere,Almere,Flevoland,VBO,5.218397,52.392286
De Realiteit,11,,,1316TA,Almere,Almere,Flevoland,VBO,5.218535,52.392098
De Realiteit,13,,,1316TA,Almere,Almere,Flevoland,VBO,5.218186,52.392025
De Realiteit,15,,,1316TA,Almere,Almere,Flevoland,VBO,5.218014,52.391928
De Realiteit,17,,,1316TA,Almere,Almere,Flevoland,VBO,5.217715,52.391864
De Realiteit,19,,,1316TA,Almere,Almere,Flevoland,VBO,5.217505,52.391815
De Realiteit,21,,,1316TA,Almere,Almere,Flevoland,VBO,5.217265,52.391728
De Realiteit,23,,,1316TA,Almere,Almere,Flevoland,VBO,5.217038,52.391656
De Realiteit,25,,,1316TA,Almere,Almere,Flevoland,VBO,5.216792,52.391585
De Realiteit,27,,,1316TA,Almere,Almere,Flevoland,VBO,5.216456,52.391416
De Realiteit,8,,,1316TB,Almere,Almere,Flevoland,VBO,5.217756,52.392212
De Realiteit,10,,,1316TB,Almere,Almere,Flevoland,VBO,5.217505,52.392126
De Realiteit,12,,,1316TB,Almere,Almere,Flevoland,VBO,5.217266,52.392072
De Realiteit,14,,,1316TB,Almere,Almere,Flevoland,VBO,5.217029,52.391950
De Realiteit,16,,,1316TB,Almere,Almere,Flevoland,VBO,5.216799,52.391853
De Realiteit,18,,,1316TB,Almere,Almere,Flevoland,VBO,5.216563,52.391828
Von Draisweg,15,,,1316TE,Almere,Almere,Flevoland,VBO,5.220175,52.392939
Bakboord,1,,,1316VA,Almere,Almere,Flevoland,VBO,5.200789,52.389707
Bakboord,2,,,1316VA,Almere,Almere,Flevoland,VBO,5.201254,52.389745
Bakboord,3,,,1316VA,Almere,Almere,Flevoland,VBO,5.200768,52.389783
Bakboord,4,,,1316VA,Almere,Almere,Flevoland,VBO,5.201229,52.389827
Bakboord,5,,,1316VA,Almere,Almere,Flevoland,VBO,5.200742,52.389943
Bakboord,6,,,1316VA,Almere,Almere,Flevoland,VBO,5.201214,52.389911
Bakboord,7,,,1316VA,Almere,Almere,Flevoland,VBO,5.200715,52.390027
Bakboord,8,,,1316VA,Almere,Almere,Flevoland,VBO,5.201225,52.390042
Bakboord,9,,,1316VA,Almere,Almere,Flevoland,VBO,5.200310,52.390054
Bakboord,10,,,1316VA,Almere,Almere,Flevoland,VBO,5.201204,52.390119
Bakboord,11,,,1316VA,Almere,Almere,Flevoland,VBO,5.200159,52.390214
Bakboord,12,,,1316VA,Almere,Almere,Flevoland,VBO,5.201209,52.390282
Bakboord,13,,,1316VA,Almere,Almere,Flevoland,VBO,5.200232,52.390369
Bakboord,14,,,1316VA,Almere,Almere,Flevoland,VBO,5.201056,52.390432
Bakboord,15,,,1316VA,Almere,Almere,Flevoland,VBO,5.200497,52.390465
Bakboord,16,,,1316VA,Almere,Almere,Flevoland,VBO,5.200761,52.390487
Overstag,1,,,1316VB,Almere,Almere,Flevoland,VBO,5.202087,52.389814
Overstag,2,,,1316VB,Almere,Almere,Flevoland,VBO,5.202553,52.389849
Overstag,3,,,1316VB,Almere,Almere,Flevoland,VBO,5.202070,52.389894
Overstag,4,,,1316VB,Almere,Almere,Flevoland,VBO,5.202539,52.389926
Overstag,5,,,1316VB,Almere,Almere,Flevoland,VBO,5.202050,52.389978
Overstag,6,,,1316VB,Almere,Almere,Flevoland,VBO,5.202528,52.390010
Overstag,7,,,1316VB,Almere,Almere,Flevoland,VBO,5.201999,52.390099
Overstag,8,,,1316VB,Almere,Almere,Flevoland,VBO,5.202528,52.390150
Overstag,9,,,1316VB,Almere,Almere,Flevoland,VBO,5.201967,52.390190
Overstag,10,,,1316VB,Almere,Almere,Flevoland,VBO,5.202520,52.390226
Overstag,11,,,1316VB,Almere,Almere,Flevoland,VBO,5.201930,52.390317
Overstag,12,,,1316VB,Almere,Almere,Flevoland,VBO,5.202498,52.390318
Overstag,13,,,1316VB,Almere,Almere,Flevoland,VBO,5.201924,52.390398
Overstag,14,,,1316VB,Almere,Almere,Flevoland,VBO,5.202476,52.390447
Overstag,15,,,1316VB,Almere,Almere,Flevoland,VBO,5.201933,52.390585
Overstag,16,,,1316VB,Almere,Almere,Flevoland,VBO,5.202453,52.390518
Overstag,17,,,1316VB,Almere,Almere,Flevoland,VBO,5.201806,52.390835
Overstag,18,,,1316VB,Almere,Almere,Flevoland,VBO,5.202392,52.390696
Overstag,19,,,1316VB,Almere,Almere,Flevoland,VBO,5.202071,52.390903
Overstag,20,,,1316VB,Almere,Almere,Flevoland,VBO,5.202361,52.390978
Stuurboord,1,,,1316VC,Almere,Almere,Flevoland,VBO,5.203429,52.389915
Stuurboord,2,,,1316VC,Almere,Almere,Flevoland,VBO,5.203890,52.389950
Stuurboord,3,,,1316VC,Almere,Almere,Flevoland,VBO,5.203409,52.389999
Stuurboord,4,,,1316VC,Almere,Almere,Flevoland,VBO,5.203871,52.390041
Stuurboord,5,,,1316VC,Almere,Almere,Flevoland,VBO,5.203384,52.390079
Stuurboord,6,,,1316VC,Almere,Almere,Flevoland,VBO,5.203863,52.390113
Stuurboord,7,,,1316VC,Almere,Almere,Flevoland,VBO,5.203363,52.390156
Stuurboord,8,,,1316VC,Almere,Almere,Flevoland,VBO,5.203862,52.390250
Stuurboord,9,,,1316VC,Almere,Almere,Flevoland,VBO,5.203302,52.390286
Stuurboord,10,,,1316VC,Almere,Almere,Flevoland,VBO,5.203854,52.390337
Stuurboord,11,,,1316VC,Almere,Almere,Flevoland,VBO,5.203284,52.390357
Stuurboord,12,,,1316VC,Almere,Almere,Flevoland,VBO,5.203825,52.390467
Stuurboord,13,,,1316VC,Almere,Almere,Flevoland,VBO,5.203252,52.390498
Stuurboord,14,,,1316VC,Almere,Almere,Flevoland,VBO,5.203804,52.390542
Stuurboord,15,,,1316VC,Almere,Almere,Flevoland,VBO,5.203244,52.390573
Stuurboord,16,,,1316VC,Almere,Almere,Flevoland,VBO,5.203735,52.390856
Stuurboord,17,,,1316VC,Almere,Almere,Flevoland,VBO,5.203214,52.390713
Stuurboord,18,,,1316VC,Almere,Almere,Flevoland,VBO,5.203863,52.391016
Stuurboord,19,,,1316VC,Almere,Almere,Flevoland,VBO,5.203190,52.390791
Stuurboord,20,,,1316VC,Almere,Almere,Flevoland,VBO,5.203737,52.391194
Stuurboord,21,,,1316VC,Almere,Almere,Flevoland,VBO,5.203112,52.390992
Stuurboord,22,,,1316VC,Almere,Almere,Flevoland,VBO,5.203461,52.391266
Stuurboord,23,,,1316VC,Almere,Almere,Flevoland,VBO,5.203170,52.391175
Loefzijde,1,,,1316VD,Almere,Almere,Flevoland,VBO,5.205113,52.390022
Loefzijde,3,,,1316VD,Almere,Almere,Flevoland,VBO,5.205092,52.390096
Loefzijde,5,,,1316VD,Almere,Almere,Flevoland,VBO,5.205064,52.390237
Loefzijde,7,,,1316VD,Almere,Almere,Flevoland,VBO,5.205048,52.390302
Loefzijde,9,,,1316VD,Almere,Almere,Flevoland,VBO,5.205026,52.390446
Loefzijde,11,,,1316VD,Almere,Almere,Flevoland,VBO,5.205006,52.390517
Loefzijde,13,,,1316VD,Almere,Almere,Flevoland,VBO,5.204976,52.390659
Loefzijde,15,,,1316VD,Almere,Almere,Flevoland,VBO,5.204958,52.390727
Loefzijde,17,,,1316VD,Almere,Almere,Flevoland,VBO,5.204931,52.390872
Loefzijde,19,,,1316VD,Almere,Almere,Flevoland,VBO,5.204913,52.390938
Loefzijde,21,,,1316VD,Almere,Almere,Flevoland,VBO,5.204883,52.391077
Loefzijde,23,,,1316VD,Almere,Almere,Flevoland,VBO,5.204866,52.391147
Loefzijde,25,,,1316VD,Almere,Almere,Flevoland,VBO,5.204841,52.391298
Loefzijde,27,,,1316VD,Almere,Almere,Flevoland,VBO,5.204817,52.391370
Loefzijde,29,,,1316VD,Almere,Almere,Flevoland,VBO,5.204631,52.391582
Loefzijde,31,,,1316VD,Almere,Almere,Flevoland,VBO,5.204911,52.391656
Loefzijde,33,,,1316VD,Almere,Almere,Flevoland,VBO,5.205208,52.391733
Loefzijde,2,,,1316VE,Almere,Almere,Flevoland,VBO,5.205645,52.390056
Loefzijde,4,,,1316VE,Almere,Almere,Flevoland,VBO,5.205622,52.390126
Loefzijde,6,,,1316VE,Almere,Almere,Flevoland,VBO,5.205602,52.390240
Loefzijde,8,,,1316VE,Almere,Almere,Flevoland,VBO,5.205588,52.390309
Loefzijde,10,,,1316VE,Almere,Almere,Flevoland,VBO,5.205566,52.390428
Loefzijde,12,,,1316VE,Almere,Almere,Flevoland,VBO,5.205552,52.390494
Loefzijde,14,,,1316VE,Almere,Almere,Flevoland,VBO,5.205520,52.390612
Loefzijde,16,,,1316VE,Almere,Almere,Flevoland,VBO,5.205507,52.390682
Loefzijde,18,,,1316VE,Almere,Almere,Flevoland,VBO,5.205478,52.390796
Loefzijde,20,,,1316VE,Almere,Almere,Flevoland,VBO,5.205466,52.390866
Loefzijde,22,,,1316VE,Almere,Almere,Flevoland,VBO,5.205445,52.390983
Loefzijde,24,,,1316VE,Almere,Almere,Flevoland,VBO,5.205426,52.391047
Loefzijde,26,,,1316VE,Almere,Almere,Flevoland,VBO,5.205400,52.391166
Loefzijde,28,,,1316VE,Almere,Almere,Flevoland,VBO,5.205386,52.391242
Loefzijde,30,,,1316VE,Almere,Almere,Flevoland,VBO,5.205359,52.391365
Loefzijde,32,,,1316VE,Almere,Almere,Flevoland,VBO,5.205344,52.391421
Loefzijde,34,,,1316VE,Almere,Almere,Flevoland,VBO,5.205492,52.391807
Lijzijde,1,,,1316VG,Almere,Almere,Flevoland,VBO,5.206506,52.390165
Lijzijde,3,,,1316VG,Almere,Almere,Flevoland,VBO,5.206468,52.390269
Lijzijde,5,,,1316VG,Almere,Almere,Flevoland,VBO,5.206449,52.390373
Lijzijde,7,,,1316VG,Almere,Almere,Flevoland,VBO,5.206420,52.390474
Lijzijde,9,,,1316VG,Almere,Almere,Flevoland,VBO,5.206405,52.390575
Lijzijde,11,,,1316VG,Almere,Almere,Flevoland,VBO,5.206391,52.390679
Lijzijde,13,,,1316VG,Almere,Almere,Flevoland,VBO,5.206367,52.390783
Lijzijde,15,,,1316VG,Almere,Almere,Flevoland,VBO,5.206347,52.390889
Lijzijde,17,,,1316VG,Almere,Almere,Flevoland,VBO,5.206307,52.391051
Lijzijde,19,,,1316VG,Almere,Almere,Flevoland,VBO,5.206293,52.391154
Lijzijde,21,,,1316VG,Almere,Almere,Flevoland,VBO,5.206267,52.391258
Lijzijde,23,,,1316VG,Almere,Almere,Flevoland,VBO,5.206244,52.391363
Lijzijde,25,,,1316VG,Almere,Almere,Flevoland,VBO,5.206227,52.391455
Lijzijde,27,,,1316VG,Almere,Almere,Flevoland,VBO,5.206204,52.391559
Lijzijde,29,,,1316VG,Almere,Almere,Flevoland,VBO,5.206190,52.391669
Lijzijde,31,,,1316VG,Almere,Almere,Flevoland,VBO,5.205967,52.391935
Lijzijde,33,,,1316VG,Almere,Almere,Flevoland,VBO,5.206250,52.392017
Lijzijde,35,,,1316VG,Almere,Almere,Flevoland,VBO,5.206530,52.392096
Lijzijde,2,,,1316VH,Almere,Almere,Flevoland,VBO,5.207047,52.390190
Lijzijde,4,,,1316VH,Almere,Almere,Flevoland,VBO,5.207031,52.390257
Lijzijde,6,,,1316VH,Almere,Almere,Flevoland,VBO,5.207004,52.390395
Lijzijde,8,,,1316VH,Almere,Almere,Flevoland,VBO,5.206987,52.390473
Lijzijde,10,,,1316VH,Almere,Almere,Flevoland,VBO,5.206957,52.390608
Lijzijde,12,,,1316VH,Almere,Almere,Flevoland,VBO,5.206938,52.390686
Lijzijde,14,,,1316VH,Almere,Almere,Flevoland,VBO,5.206914,52.390818
Lijzijde,16,,,1316VH,Almere,Almere,Flevoland,VBO,5.206897,52.390889
Lijzijde,18,,,1316VH,Almere,Almere,Flevoland,VBO,5.206857,52.391039
Lijzijde,20,,,1316VH,Almere,Almere,Flevoland,VBO,5.206846,52.391109
Lijzijde,22,,,1316VH,Almere,Almere,Flevoland,VBO,5.206816,52.391252
Lijzijde,24,,,1316VH,Almere,Almere,Flevoland,VBO,5.206805,52.391317
Lijzijde,26,,,1316VH,Almere,Almere,Flevoland,VBO,5.206775,52.391463
Lijzijde,28,,,1316VH,Almere,Almere,Flevoland,VBO,5.206753,52.391536
Lijzijde,30,,,1316VH,Almere,Almere,Flevoland,VBO,5.206721,52.391675
Lijzijde,32,,,1316VH,Almere,Almere,Flevoland,VBO,5.206707,52.391746
Lijzijde,34,,,1316VH,Almere,Almere,Flevoland,VBO,5.206801,52.392191
Land in Zicht,1,,,1316VJ,Almere,Almere,Flevoland,VBO,5.207906,52.392194
Land in Zicht,3,,,1316VJ,Almere,Almere,Flevoland,VBO,5.207751,52.392231
Land in Zicht,5,,,1316VJ,Almere,Almere,Flevoland,VBO,5.207645,52.392300
Land in Zicht,7,,,1316VJ,Almere,Almere,Flevoland,VBO,5.207591,52.392387
Land in Zicht,9,,,1316VJ,Almere,Almere,Flevoland,VBO,5.207591,52.392490
Land in Zicht,11,,,1316VJ,Almere,Almere,Flevoland,VBO,5.207659,52.392579
Land in Zicht,13,,,1316VJ,Almere,Almere,Flevoland,VBO,5.207888,52.392684
Land in Zicht,15,,,1316VJ,Almere,Almere,Flevoland,VBO,5.207978,52.392747
Land in Zicht,17,,,1316VJ,Almere,Almere,Flevoland,VBO,5.208236,52.392884
Land in Zicht,19,,,1316VJ,Almere,Almere,Flevoland,VBO,5.208329,52.392941
Land in Zicht,21,,,1316VJ,Almere,Almere,Flevoland,VBO,5.208561,52.393086
Land in Zicht,23,,,1316VJ,Almere,Almere,Flevoland,VBO,5.208660,52.393145
Land in Zicht,25,,,1316VJ,Almere,Almere,Flevoland,VBO,5.208894,52.393284
Land in Zicht,27,,,1316VJ,Almere,Almere,Flevoland,VBO,5.209000,52.393346
Land in Zicht,29,,,1316VJ,Almere,Almere,Flevoland,VBO,5.209241,52.393489
Land in Zicht,31,,,1316VJ,Almere,Almere,Flevoland,VBO,5.209342,52.393543
Land in Zicht,33,,,1316VJ,Almere,Almere,Flevoland,VBO,5.209551,52.393653
Land in Zicht,35,,,1316VJ,Almere,Almere,Flevoland,VBO,5.209688,52.393916
Land in Zicht,37,,,1316VJ,Almere,Almere,Flevoland,VBO,5.209871,52.393848
Land in Zicht,39,,,1316VJ,Almere,Almere,Flevoland,VBO,5.210037,52.393763
Land in Zicht,2,,,1316VK,Almere,Almere,Flevoland,VBO,5.208194,52.392424
Land in Zicht,4,,,1316VK,Almere,Almere,Flevoland,VBO,5.208259,52.392466
Land in Zicht,6,,,1316VK,Almere,Almere,Flevoland,VBO,5.208340,52.392515
Land in Zicht,8,,,1316VK,Almere,Almere,Flevoland,VBO,5.208436,52.392563
Land in Zicht,10,,,1316VK,Almere,Almere,Flevoland,VBO,5.208501,52.392613
Land in Zicht,12,,,1316VK,Almere,Almere,Flevoland,VBO,5.208606,52.392672
Land in Zicht,14,,,1316VK,Almere,Almere,Flevoland,VBO,5.208758,52.392759
Land in Zicht,16,,,1316VK,Almere,Almere,Flevoland,VBO,5.208835,52.392813
Land in Zicht,18,,,1316VK,Almere,Almere,Flevoland,VBO,5.208919,52.392859
Land in Zicht,20,,,1316VK,Almere,Almere,Flevoland,VBO,5.208990,52.392899
Land in Zicht,22,,,1316VK,Almere,Almere,Flevoland,VBO,5.209071,52.392948
Land in Zicht,24,,,1316VK,Almere,Almere,Flevoland,VBO,5.209155,52.392998
Land in Zicht,26,,,1316VK,Almere,Almere,Flevoland,VBO,5.209331,52.393104
Land in Zicht,28,,,1316VK,Almere,Almere,Flevoland,VBO,5.209402,52.393145
Land in Zicht,30,,,1316VK,Almere,Almere,Flevoland,VBO,5.209486,52.393190
Land in Zicht,32,,,1316VK,Almere,Almere,Flevoland,VBO,5.209563,52.393238
Land in Zicht,34,,,1316VK,Almere,Almere,Flevoland,VBO,5.209658,52.393280
Land in Zicht,36,,,1316VK,Almere,Almere,Flevoland,VBO,5.209726,52.393333
Land in Zicht,38,,,1316VK,Almere,Almere,Flevoland,VBO,5.209878,52.393429
Land in Zicht,40,,,1316VK,Almere,Almere,Flevoland,VBO,5.210272,52.393542
Land in Zicht,42,,,1316VK,Almere,Almere,Flevoland,VBO,5.210171,52.393664
Aan de Wind,1,,,1316VL,Almere,Almere,Flevoland,VBO,5.208347,52.391367
Aan de Wind,3,,,1316VL,Almere,Almere,Flevoland,VBO,5.208192,52.391297
Aan de Wind,5,,,1316VL,Almere,Almere,Flevoland,VBO,5.207977,52.391297
Aan de Wind,7,,,1316VL,Almere,Almere,Flevoland,VBO,5.207813,52.391375
Aan de Wind,9,,,1316VL,Almere,Almere,Flevoland,VBO,5.207769,52.391495
Aan de Wind,11,,,1316VL,Almere,Almere,Flevoland,VBO,5.207987,52.391655
Aan de Wind,13,,,1316VL,Almere,Almere,Flevoland,VBO,5.208099,52.391705
Aan de Wind,15,,,1316VL,Almere,Almere,Flevoland,VBO,5.208204,52.391769
Aan de Wind,17,,,1316VL,Almere,Almere,Flevoland,VBO,5.208593,52.391974
Aan de Wind,19,,,1316VL,Almere,Almere,Flevoland,VBO,5.208694,52.392025
Aan de Wind,21,,,1316VL,Almere,Almere,Flevoland,VBO,5.208790,52.392079
Aan de Wind,23,,,1316VL,Almere,Almere,Flevoland,VBO,5.208989,52.392180
Aan de Wind,25,,,1316VL,Almere,Almere,Flevoland,VBO,5.209094,52.392229
Aan de Wind,27,,,1316VL,Almere,Almere,Flevoland,VBO,5.209202,52.392286
Aan de Wind,29,,,1316VL,Almere,Almere,Flevoland,VBO,5.209295,52.392341
Aan de Wind,31,,,1316VL,Almere,Almere,Flevoland,VBO,5.209486,52.392441
Aan de Wind,33,,,1316VL,Almere,Almere,Flevoland,VBO,5.209589,52.392494
Aan de Wind,35,,,1316VL,Almere,Almere,Flevoland,VBO,5.209692,52.392549
Aan de Wind,37,,,1316VL,Almere,Almere,Flevoland,VBO,5.209793,52.392596
Aan de Wind,39,,,1316VL,Almere,Almere,Flevoland,VBO,5.209895,52.392654
Aan de Wind,41,,,1316VL,Almere,Almere,Flevoland,VBO,5.210005,52.392715
Aan de Wind,43,,,1316VL,Almere,Almere,Flevoland,VBO,5.210199,52.392956
Aan de Wind,45,,,1316VL,Almere,Almere,Flevoland,VBO,5.210386,52.392881
Aan de Wind,47,,,1316VL,Almere,Almere,Flevoland,VBO,5.210542,52.392784
Aan de Wind,2,,,1316VM,Almere,Almere,Flevoland,VBO,5.208841,52.391610
Aan de Wind,4,,,1316VM,Almere,Almere,Flevoland,VBO,5.208932,52.391661
Aan de Wind,6,,,1316VM,Almere,Almere,Flevoland,VBO,5.209138,52.391767
Aan de Wind,8,,,1316VM,Almere,Almere,Flevoland,VBO,5.209237,52.391825
Aan de Wind,10,,,1316VM,Almere,Almere,Flevoland,VBO,5.209337,52.391881
Aan de Wind,12,,,1316VM,Almere,Almere,Flevoland,VBO,5.209436,52.391935
Aan de Wind,14,,,1316VM,Almere,Almere,Flevoland,VBO,5.209640,52.392042
Aan de Wind,16,,,1316VM,Almere,Almere,Flevoland,VBO,5.209734,52.392098
Aan de Wind,18,,,1316VM,Almere,Almere,Flevoland,VBO,5.209842,52.392148
Aan de Wind,20,,,1316VM,Almere,Almere,Flevoland,VBO,5.209945,52.392205
Aan de Wind,22,,,1316VM,Almere,Almere,Flevoland,VBO,5.210043,52.392268
Aan de Wind,24,,,1316VM,Almere,Almere,Flevoland,VBO,5.210136,52.392321
Aan de Wind,26,,,1316VM,Almere,Almere,Flevoland,VBO,5.210247,52.392376
Aan de Wind,28,,,1316VM,Almere,Almere,Flevoland,VBO,5.210349,52.392429
Aan de Wind,30,,,1316VM,Almere,Almere,Flevoland,VBO,5.210759,52.392568
Aan de Wind,32,,,1316VM,Almere,Almere,Flevoland,VBO,5.210679,52.392684
Op Koers,1,,,1316VN,Almere,Almere,Flevoland,VBO,5.208607,52.390515
Op Koers,3,,,1316VN,Almere,Almere,Flevoland,VBO,5.208447,52.390519
Op Koers,5,,,1316VN,Almere,Almere,Flevoland,VBO,5.208286,52.390547
Op Koers,7,,,1316VN,Almere,Almere,Flevoland,VBO,5.208155,52.390596
Op Koers,9,,,1316VN,Almere,Almere,Flevoland,VBO,5.208056,52.390658
Op Koers,11,,,1316VN,Almere,Almere,Flevoland,VBO,5.207983,52.390744
Op Koers,13,,,1316VN,Almere,Almere,Flevoland,VBO,5.207933,52.390837
Op Koers,15,,,1316VN,Almere,Almere,Flevoland,VBO,5.208461,52.390875
Op Koers,17,,,1316VN,Almere,Almere,Flevoland,VBO,5.208561,52.390883
Op Koers,19,,,1316VN,Almere,Almere,Flevoland,VBO,5.209090,52.391041
Op Koers,21,,,1316VN,Almere,Almere,Flevoland,VBO,5.209196,52.391099
Op Koers,23,,,1316VN,Almere,Almere,Flevoland,VBO,5.209292,52.391149
Op Koers,25,,,1316VN,Almere,Almere,Flevoland,VBO,5.209386,52.391206
Op Koers,27,,,1316VN,Almere,Almere,Flevoland,VBO,5.209480,52.391258
Op Koers,29,,,1316VN,Almere,Almere,Flevoland,VBO,5.209579,52.391313
Op Koers,31,,,1316VN,Almere,Almere,Flevoland,VBO,5.209678,52.391372
Op Koers,33,,,1316VN,Almere,Almere,Flevoland,VBO,5.209777,52.391426
Op Koers,35,,,1316VN,Almere,Almere,Flevoland,VBO,5.209876,52.391482
Op Koers,37,,,1316VN,Almere,Almere,Flevoland,VBO,5.209972,52.391532
Op Koers,39,,,1316VN,Almere,Almere,Flevoland,VBO,5.210074,52.391587
Op Koers,41,,,1316VN,Almere,Almere,Flevoland,VBO,5.210175,52.391642
Op Koers,43,,,1316VN,Almere,Almere,Flevoland,VBO,5.210257,52.391693
Op Koers,45,,,1316VN,Almere,Almere,Flevoland,VBO,5.210677,52.392034
Op Koers,47,,,1316VN,Almere,Almere,Flevoland,VBO,5.210771,52.391921
Op Koers,49,,,1316VN,Almere,Almere,Flevoland,VBO,5.210867,52.391801
Op Koers,2,,,1316VP,Almere,Almere,Flevoland,VBO,5.209086,52.390591
Op Koers,4,,,1316VP,Almere,Almere,Flevoland,VBO,5.209181,52.390619
Op Koers,6,,,1316VP,Almere,Almere,Flevoland,VBO,5.209355,52.390721
Op Koers,8,,,1316VP,Almere,Almere,Flevoland,VBO,5.209445,52.390756
Op Koers,10,,,1316VP,Almere,Almere,Flevoland,VBO,5.209605,52.390861
Op Koers,12,,,1316VP,Almere,Almere,Flevoland,VBO,5.209688,52.390899
Op Koers,14,,,1316VP,Almere,Almere,Flevoland,VBO,5.209861,52.390997
Op Koers,16,,,1316VP,Almere,Almere,Flevoland,VBO,5.209945,52.391042
Op Koers,18,,,1316VP,Almere,Almere,Flevoland,VBO,5.210112,52.391136
Op Koers,20,,,1316VP,Almere,Almere,Flevoland,VBO,5.210181,52.391183
Op Koers,22,,,1316VP,Almere,Almere,Flevoland,VBO,5.210365,52.391283
Op Koers,24,,,1316VP,Almere,Almere,Flevoland,VBO,5.210434,52.391329
Op Koers,30,,,1316VP,Almere,Almere,Flevoland,VBO,5.211237,52.391661
Op Koers,32,,,1316VP,Almere,Almere,Flevoland,VBO,5.211053,52.391728
Noorderplassenweg,20,,,1316VS,Almere,Almere,Flevoland,VBO,5.216127,52.393613
Noorderplassenweg,22,,,1316VS,Almere,Almere,Flevoland,VBO,5.216361,52.393512
Noorderplassenweg,24,,,1316VS,Almere,Almere,Flevoland,VBO,5.216259,52.393476
Noorderplassenweg,26,,,1316VS,Almere,Almere,Flevoland,VBO,5.216361,52.393521
Noorderplassenweg,28,,,1316VS,Almere,Almere,Flevoland,VBO,5.216259,52.393485
Noorderplassenweg,30,,,1316VS,Almere,Almere,Flevoland,VBO,5.216347,52.393530
Noorderplassenweg,32,,,1316VS,Almere,Almere,Flevoland,VBO,5.216244,52.393494
Noorderplassenweg,34,,,1316VS,Almere,Almere,Flevoland,VBO,5.216347,52.393539
Noorderplassenweg,36,,,1316VS,Almere,Almere,Flevoland,VBO,5.216229,52.393503
Noorderplassenweg,38,,,1316VS,Almere,Almere,Flevoland,VBO,5.216229,52.393512
Noorderplassenweg,40,,,1316VS,Almere,Almere,Flevoland,VBO,5.216258,52.393727
Noorderplassenweg,42,,,1316VS,Almere,Almere,Flevoland,VBO,5.216126,52.393682
Noorderplassenweg,44,,,1316VS,Almere,Almere,Flevoland,VBO,5.216243,52.393736
Noorderplassenweg,46,,,1316VS,Almere,Almere,Flevoland,VBO,5.216111,52.393691
Noorderplassenweg,48,,,1316VS,Almere,Almere,Flevoland,VBO,5.216228,52.393745
Noorderplassenweg,50,,,1316VS,Almere,Almere,Flevoland,VBO,5.216096,52.393700
Noorderplassenweg,52,,,1316VS,Almere,Almere,Flevoland,VBO,5.216228,52.393754
Noorderplassenweg,54,,,1316VS,Almere,Almere,Flevoland,VBO,5.216096,52.393709
Noorderplassenweg,56,,,1316VS,Almere,Almere,Flevoland,VBO,5.216214,52.393772
Noorderplassenweg,58,,,1316VS,Almere,Almere,Flevoland,VBO,5.216081,52.393727
Noorderplassenweg,60,,,1316VS,Almere,Almere,Flevoland,VBO,5.216067,52.393736
Noorderplassenweg,62,,,1316VT,Almere,Almere,Flevoland,VBO,5.215488,52.394322
Noorderplassenweg,64,,,1316VT,Almere,Almere,Flevoland,VBO,5.215742,52.394221
Noorderplassenweg,66,,,1316VT,Almere,Almere,Flevoland,VBO,5.215624,52.394185
Noorderplassenweg,68,,,1316VT,Almere,Almere,Flevoland,VBO,5.215727,52.394230
Noorderplassenweg,70,,,1316VT,Almere,Almere,Flevoland,VBO,5.215610,52.394194
Noorderplassenweg,72,,,1316VT,Almere,Almere,Flevoland,VBO,5.215712,52.394239
Noorderplassenweg,74,,,1316VT,Almere,Almere,Flevoland,VBO,5.215595,52.394203
Noorderplassenweg,76,,,1316VT,Almere,Almere,Flevoland,VBO,5.215712,52.394257
Noorderplassenweg,78,,,1316VT,Almere,Almere,Flevoland,VBO,5.215595,52.394212
Noorderplassenweg,80,,,1316VT,Almere,Almere,Flevoland,VBO,5.215580,52.394221
Noorderplassenweg,82,,,1316VT,Almere,Almere,Flevoland,VBO,5.215623,52.394436
Noorderplassenweg,84,,,1316VT,Almere,Almere,Flevoland,VBO,5.215477,52.394382
Noorderplassenweg,86,,,1316VT,Almere,Almere,Flevoland,VBO,5.215609,52.394445
Noorderplassenweg,88,,,1316VT,Almere,Almere,Flevoland,VBO,5.215462,52.394400
Noorderplassenweg,90,,,1316VT,Almere,Almere,Flevoland,VBO,5.215594,52.394463
Noorderplassenweg,92,,,1316VT,Almere,Almere,Flevoland,VBO,5.215462,52.394409
Noorderplassenweg,94,,,1316VT,Almere,Almere,Flevoland,VBO,5.215594,52.394472
Noorderplassenweg,96,,,1316VT,Almere,Almere,Flevoland,VBO,5.215447,52.394418
Noorderplassenweg,98,,,1316VT,Almere,Almere,Flevoland,VBO,5.215579,52.394481
Noorderplassenweg,100,,,1316VT,Almere,Almere,Flevoland,VBO,5.215432,52.394436
Noorderplassenweg,102,,,1316VT,Almere,Almere,Flevoland,VBO,5.215418,52.394445
Noorderplassenweg,104,,,1316VV,Almere,Almere,Flevoland,VBO,5.214847,52.395030
Noorderplassenweg,106,,,1316VV,Almere,Almere,Flevoland,VBO,5.215107,52.394930
Noorderplassenweg,108,,,1316VV,Almere,Almere,Flevoland,VBO,5.214960,52.394885
Noorderplassenweg,110,,,1316VV,Almere,Almere,Flevoland,VBO,5.215092,52.394939
Noorderplassenweg,112,,,1316VV,Almere,Almere,Flevoland,VBO,5.214946,52.394894
Noorderplassenweg,114,,,1316VV,Almere,Almere,Flevoland,VBO,5.215078,52.394948
Noorderplassenweg,116,,,1316VV,Almere,Almere,Flevoland,VBO,5.214946,52.394903
Noorderplassenweg,118,,,1316VV,Almere,Almere,Flevoland,VBO,5.215078,52.394966
Noorderplassenweg,120,,,1316VV,Almere,Almere,Flevoland,VBO,5.214931,52.394921
Noorderplassenweg,122,,,1316VV,Almere,Almere,Flevoland,VBO,5.214916,52.394930
Noorderplassenweg,124,,,1316VV,Almere,Almere,Flevoland,VBO,5.214989,52.395155
Noorderplassenweg,126,,,1316VV,Almere,Almere,Flevoland,VBO,5.214827,52.395091
Noorderplassenweg,128,,,1316VV,Almere,Almere,Flevoland,VBO,5.214989,52.395164
Noorderplassenweg,130,,,1316VV,Almere,Almere,Flevoland,VBO,5.214827,52.395109
Noorderplassenweg,132,,,1316VV,Almere,Almere,Flevoland,VBO,5.214974,52.395172
Noorderplassenweg,134,,,1316VV,Almere,Almere,Flevoland,VBO,5.214813,52.395118
Noorderplassenweg,136,,,1316VV,Almere,Almere,Flevoland,VBO,5.214959,52.395181
Noorderplassenweg,138,,,1316VV,Almere,Almere,Flevoland,VBO,5.214798,52.395127
Noorderplassenweg,140,,,1316VV,Almere,Almere,Flevoland,VBO,5.214959,52.395199
Noorderplassenweg,142,,,1316VV,Almere,Almere,Flevoland,VBO,5.214798,52.395145
Noorderplassenweg,144,,,1316VV,Almere,Almere,Flevoland,VBO,5.214783,52.395154
Noorderplassenweg,150,,,1316VV,Almere,Almere,Flevoland,VBO,5.212370,52.395511
