openbareruimtenaam,huisnummer,huisletter,huisnummertoevoeging,postcode,woonplaatsnaam,gemeentenaam,provincienaam,typeadresseerbaarobject,longitude,latitude
Paradijsvogelweg,1,,,1349CA,Almere,Almere,Flevoland,VBO,5.324960,52.346205
Paradijsvogelweg,3,,,1349CA,Almere,Almere,Flevoland,VBO,5.324641,52.346417
Paradijsvogelweg,5,,,1349CA,Almere,Almere,Flevoland,VBO,5.324369,52.346645
Paradijsvogelweg,7,,,1349CA,Almere,Almere,Flevoland,VBO,5.324219,52.346877
Paradijsvogelweg,9,,,1349CA,Almere,Almere,Flevoland,VBO,5.323987,52.347042
Paradijsvogelweg,11,,,1349CA,Almere,Almere,Flevoland,VBO,5.323776,52.347236
Paradijsvogelweg,13,,,1349CA,Almere,Almere,Flevoland,VBO,5.323526,52.347439
Paradijsvogelweg,15,,,1349CA,Almere,Almere,Flevoland,VBO,5.323309,52.347604
Paradijsvogelweg,17,,,1349CA,Almere,Almere,Flevoland,VBO,5.323127,52.347775
Paradijsvogelweg,19,,,1349CA,Almere,Almere,Flevoland,VBO,5.322925,52.347966
Paradijsvogelweg,27,,,1349CA,Almere,Almere,Flevoland,VBO,5.322757,52.348130
Paradijsvogelweg,29,,,1349CA,Almere,Almere,Flevoland,VBO,5.322411,52.348405
Paradijsvogelweg,31,,,1349CA,Almere,Almere,Flevoland,VBO,5.322155,52.348643
Paradijsvogelweg,2,,,1349CB,Almere,Almere,Flevoland,VBO,5.323487,52.349095
Paradijsvogelweg,4,,,1349CB,Almere,Almere,Flevoland,VBO,5.322717,52.349196
Paradijsvogelweg,6,,,1349CB,Almere,Almere,Flevoland,VBO,5.318287,52.353738
Paradijsvogelweg,8,,,1349CB,Almere,Almere,Flevoland,VBO,5.311140,52.360668
Paradijsvogelweg,12,,,1349CB,Almere,Almere,Flevoland,VBO,5.306946,52.365325
Goudplevierweg,1,,,1349CC,Almere,Almere,Flevoland,VBO,5.331170,52.342380
Goudplevierweg,5,,,1349CC,Almere,Almere,Flevoland,VBO,5.336081,52.338037
Auguste Comteweg,6,,,1349CD,Almere,Almere,Flevoland,VBO,5.319064,52.338798
Auguste Comteweg,12,,,1349CD,Almere,Almere,Flevoland,VBO,5.319429,52.338951
Auguste Comteweg,15,,,1349CD,Almere,Almere,Flevoland,VBO,5.319249,52.339344
Auguste Comteweg,18,,,1349CD,Almere,Almere,Flevoland,VBO,5.319806,52.339092
Auguste Comteweg,21,,,1349CD,Almere,Almere,Flevoland,VBO,5.319682,52.339511
Auguste Comteweg,24,,,1349CD,Almere,Almere,Flevoland,VBO,5.320196,52.339252
Auguste Comteweg,29,,,1349CD,Almere,Almere,Flevoland,VBO,5.320191,52.339664
Auguste Comteweg,30,,,1349CD,Almere,Almere,Flevoland,VBO,5.320569,52.339425
Auguste Comteweg,37,,,1349CD,Almere,Almere,Flevoland,VBO,5.320697,52.339857
Auguste Comteweg,38,,,1349CD,Almere,Almere,Flevoland,VBO,5.320926,52.339595
Auguste Comteweg,44,,,1349CD,Almere,Almere,Flevoland,VBO,5.321293,52.339711
Auguste Comteweg,48,,,1349CD,Almere,Almere,Flevoland,VBO,5.321812,52.339642
Auguste Comteweg,49,,,1349CD,Almere,Almere,Flevoland,VBO,5.321575,52.340260
Auguste Comteweg,56,,,1349CD,Almere,Almere,Flevoland,VBO,5.322379,52.339746
Auguste Comteweg,64,,,1349CD,Almere,Almere,Flevoland,VBO,5.322713,52.339923
Auguste Comteweg,67,,,1349CD,Almere,Almere,Flevoland,VBO,5.322437,52.340386
Auguste Comteweg,68,,,1349CD,Almere,Almere,Flevoland,VBO,5.322976,52.340063
Auguste Comteweg,76,,,1349CD,Almere,Almere,Flevoland,VBO,5.323366,52.340240
Auguste Comteweg,79,,,1349CD,Almere,Almere,Flevoland,VBO,5.323298,52.340582
Auguste Comteweg,86,,,1349CD,Almere,Almere,Flevoland,VBO,5.324032,52.340456
Auguste Comteweg,89,,,1349CD,Almere,Almere,Flevoland,VBO,5.323847,52.340881
Auguste Comteweg,94,,,1349CD,Almere,Almere,Flevoland,VBO,5.324529,52.340721
Auguste Comteweg,100,,,1349CD,Almere,Almere,Flevoland,VBO,5.324970,52.340850
Auguste Comteweg,103,,,1349CD,Almere,Almere,Flevoland,VBO,5.324707,52.341295
Auguste Comteweg,123,,,1349CD,Almere,Almere,Flevoland,VBO,5.325641,52.341972
Emile Durkheimweg,22,,,1349CE,Almere,Almere,Flevoland,VBO,5.318632,52.337126
Emile Durkheimweg,73,,,1349CE,Almere,Almere,Flevoland,VBO,5.316185,52.335146
Emile Durkheimweg,89,,,1349CE,Almere,Almere,Flevoland,VBO,5.315178,52.334728
Emile Durkheimweg,111,,,1349CE,Almere,Almere,Flevoland,VBO,5.313430,52.334001
Emile Durkheimweg,111,,,1349CE,Almere,Almere,Flevoland,VBO,5.314065,52.333889
Emile Durkheimweg,147,,,1349CE,Almere,Almere,Flevoland,VBO,5.311510,52.333545
Emile Durkheimweg,153,,,1349CE,Almere,Almere,Flevoland,VBO,5.311203,52.333809
Emile Durkheimweg,163,,,1349CE,Almere,Almere,Flevoland,VBO,5.310787,52.334211
Emile Durkheimweg,167,,,1349CE,Almere,Almere,Flevoland,VBO,5.310667,52.334306
Emile Durkheimweg,169,,,1349CE,Almere,Almere,Flevoland,VBO,5.310573,52.334383
Emile Durkheimweg,171,,,1349CE,Almere,Almere,Flevoland,VBO,5.310459,52.334481
Emile Durkheimweg,175,,,1349CE,Almere,Almere,Flevoland,VBO,5.310323,52.334580
Emile Durkheimweg,177,,,1349CE,Almere,Almere,Flevoland,VBO,5.310193,52.334689
Emile Durkheimweg,181,,,1349CE,Almere,Almere,Flevoland,VBO,5.310078,52.334799
Emile Durkheimweg,183,,,1349CE,Almere,Almere,Flevoland,VBO,5.309945,52.334911
Emile Durkheimweg,187,,,1349CE,Almere,Almere,Flevoland,VBO,5.309809,52.335023
Prieelvogelweg,1,,,1349CG,Almere,Almere,Flevoland,VBO,5.323472,52.345142
Prieelvogelweg,2,,,1349CG,Almere,Almere,Flevoland,VBO,5.323808,52.345614
Prieelvogelweg,3,,,1349CG,Almere,Almere,Flevoland,VBO,5.323176,52.345442
Prieelvogelweg,4,,,1349CG,Almere,Almere,Flevoland,VBO,5.323363,52.346016
Prieelvogelweg,5,,,1349CG,Almere,Almere,Flevoland,VBO,5.322876,52.345655
Prieelvogelweg,6,,,1349CG,Almere,Almere,Flevoland,VBO,5.323641,52.346189
Prieelvogelweg,9,,,1349CG,Almere,Almere,Flevoland,VBO,5.322109,52.346102
Prieelvogelweg,12,,,1349CG,Almere,Almere,Flevoland,VBO,5.322920,52.346428
Prieelvogelweg,13,,,1349CG,Almere,Almere,Flevoland,VBO,5.321548,52.346079
Prieelvogelweg,14,,,1349CG,Almere,Almere,Flevoland,VBO,5.323212,52.346510
Prieelvogelweg,15,,,1349CG,Almere,Almere,Flevoland,VBO,5.321669,52.346699
Prieelvogelweg,16,,,1349CG,Almere,Almere,Flevoland,VBO,5.322726,52.346660
Prieelvogelweg,17,,,1349CG,Almere,Almere,Flevoland,VBO,5.321287,52.346595
Prieelvogelweg,18,,,1349CG,Almere,Almere,Flevoland,VBO,5.323072,52.346887
Prieelvogelweg,19,,,1349CG,Almere,Almere,Flevoland,VBO,5.321490,52.346821
Prieelvogelweg,20,,,1349CG,Almere,Almere,Flevoland,VBO,5.322399,52.346869
Prieelvogelweg,21,,,1349CG,Almere,Almere,Flevoland,VBO,5.321078,52.346698
Prieelvogelweg,22,A,,1349CG,Almere,Almere,Flevoland,VBO,5.322149,52.347075
Prieelvogelweg,22,,,1349CG,Almere,Almere,Flevoland,VBO,5.322392,52.347239
Prieelvogelweg,24,,,1349CG,Almere,Almere,Flevoland,VBO,5.321819,52.347261
Prieelvogelweg,26,,,1349CG,Almere,Almere,Flevoland,VBO,5.322307,52.347541
Paradijsvogelweg,33,,,1349CH,Almere,Almere,Flevoland,VBO,5.321529,52.349047
Paradijsvogelweg,35,,,1349CH,Almere,Almere,Flevoland,VBO,5.321378,52.349259
Paradijsvogelweg,37,,,1349CH,Almere,Almere,Flevoland,VBO,5.321256,52.349476
Paradijsvogelweg,39,,,1349CH,Almere,Almere,Flevoland,VBO,5.321079,52.349605
Paradijsvogelweg,41,,,1349CH,Almere,Almere,Flevoland,VBO,5.320814,52.349752
Paradijsvogelweg,43,,,1349CH,Almere,Almere,Flevoland,VBO,5.320639,52.349946
Paradijsvogelweg,45,,,1349CH,Almere,Almere,Flevoland,VBO,5.320472,52.350106
Paradijsvogelweg,47,,,1349CH,Almere,Almere,Flevoland,VBO,5.320330,52.350284
Paradijsvogelweg,49,,,1349CH,Almere,Almere,Flevoland,VBO,5.320135,52.350473
Paradijsvogelweg,51,,,1349CH,Almere,Almere,Flevoland,VBO,5.319973,52.350623
Paradijsvogelweg,53,,,1349CH,Almere,Almere,Flevoland,VBO,5.319785,52.350807
Paradijsvogelweg,55,,,1349CH,Almere,Almere,Flevoland,VBO,5.319462,52.351090
Paradijsvogelweg,57,,,1349CH,Almere,Almere,Flevoland,VBO,5.319316,52.351243
Paradijsvogelweg,59,,,1349CH,Almere,Almere,Flevoland,VBO,5.319121,52.351426
Paradijsvogelweg,61,,,1349CH,Almere,Almere,Flevoland,VBO,5.318890,52.351589
Paradijsvogelweg,63,,,1349CH,Almere,Almere,Flevoland,VBO,5.318722,52.351755
Paradijsvogelweg,65,,,1349CH,Almere,Almere,Flevoland,VBO,5.318545,52.351927
Paradijsvogelweg,67,,,1349CH,Almere,Almere,Flevoland,VBO,5.318323,52.352099
Paradijsvogelweg,69,,,1349CH,Almere,Almere,Flevoland,VBO,5.318151,52.352224
Paradijsvogelweg,71,,,1349CH,Almere,Almere,Flevoland,VBO,5.317937,52.352415
Paradijsvogelweg,73,,,1349CH,Almere,Almere,Flevoland,VBO,5.317625,52.352540
Prieelvogelweg,23,,,1349CJ,Almere,Almere,Flevoland,VBO,5.321357,52.347029
Prieelvogelweg,25,,,1349CJ,Almere,Almere,Flevoland,VBO,5.320799,52.346821
Prieelvogelweg,27,,,1349CJ,Almere,Almere,Flevoland,VBO,5.321224,52.347167
Prieelvogelweg,28,,,1349CJ,Almere,Almere,Flevoland,VBO,5.321575,52.347518
Prieelvogelweg,29,,,1349CJ,Almere,Almere,Flevoland,VBO,5.320620,52.346919
Prieelvogelweg,30,,,1349CJ,Almere,Almere,Flevoland,VBO,5.322093,52.347726
Prieelvogelweg,35,,,1349CJ,Almere,Almere,Flevoland,VBO,5.319956,52.347402
Prieelvogelweg,36,,,1349CJ,Almere,Almere,Flevoland,VBO,5.321406,52.347628
Prieelvogelweg,37,,,1349CJ,Almere,Almere,Flevoland,VBO,5.320599,52.347658
Prieelvogelweg,38,,,1349CJ,Almere,Almere,Flevoland,VBO,5.321595,52.347780
Prieelvogelweg,39,,,1349CJ,Almere,Almere,Flevoland,VBO,5.320219,52.347835
Prieelvogelweg,40,,,1349CJ,Almere,Almere,Flevoland,VBO,5.321236,52.347774
Prieelvogelweg,42,,,1349CJ,Almere,Almere,Flevoland,VBO,5.321030,52.347951
Prieelvogelweg,44,,,1349CJ,Almere,Almere,Flevoland,VBO,5.320877,52.348092
Prieelvogelweg,46,,,1349CJ,Almere,Almere,Flevoland,VBO,5.321205,52.348300
Max Weberweg,6,,,1349CK,Almere,Almere,Flevoland,VBO,5.314404,52.334896
Max Weberweg,9,,,1349CK,Almere,Almere,Flevoland,VBO,5.313439,52.334590
Max Weberweg,12,,,1349CK,Almere,Almere,Flevoland,VBO,5.314113,52.335111
Max Weberweg,15,,,1349CK,Almere,Almere,Flevoland,VBO,5.313283,52.334888
Max Weberweg,18,,,1349CK,Almere,Almere,Flevoland,VBO,5.313709,52.335297
Max Weberweg,21,,,1349CK,Almere,Almere,Flevoland,VBO,5.313068,52.335159
Max Weberweg,27,,,1349CK,Almere,Almere,Flevoland,VBO,5.312741,52.335351
Max Weberweg,28,,,1349CK,Almere,Almere,Flevoland,VBO,5.313346,52.335641
Max Weberweg,33,,,1349CK,Almere,Almere,Flevoland,VBO,5.312504,52.335586
Max Weberweg,34,,,1349CK,Almere,Almere,Flevoland,VBO,5.313120,52.335867
Max Weberweg,39,,,1349CK,Almere,Almere,Flevoland,VBO,5.312242,52.335744
Max Weberweg,40,,,1349CK,Almere,Almere,Flevoland,VBO,5.312803,52.336049
Max Weberweg,45,,,1349CK,Almere,Almere,Flevoland,VBO,5.311947,52.335989
Max Weberweg,46,,,1349CK,Almere,Almere,Flevoland,VBO,5.312643,52.336289
Norbert Eliasweg,5,,,1349CL,Almere,Almere,Flevoland,VBO,5.312196,52.333929
Norbert Eliasweg,8,,,1349CL,Almere,Almere,Flevoland,VBO,5.312768,52.334305
Norbert Eliasweg,11,,,1349CL,Almere,Almere,Flevoland,VBO,5.311930,52.334152
Norbert Eliasweg,14,,,1349CL,Almere,Almere,Flevoland,VBO,5.312380,52.334495
Norbert Eliasweg,19,,,1349CL,Almere,Almere,Flevoland,VBO,5.311638,52.334392
Norbert Eliasweg,22,,,1349CL,Almere,Almere,Flevoland,VBO,5.312096,52.334733
Norbert Eliasweg,25,,,1349CL,Almere,Almere,Flevoland,VBO,5.311387,52.334637
Norbert Eliasweg,28,,,1349CL,Almere,Almere,Flevoland,VBO,5.311813,52.334970
Norbert Eliasweg,31,,,1349CL,Almere,Almere,Flevoland,VBO,5.311116,52.334879
Norbert Eliasweg,34,,,1349CL,Almere,Almere,Flevoland,VBO,5.311592,52.335237
Norbert Eliasweg,39,,,1349CL,Almere,Almere,Flevoland,VBO,5.310832,52.335116
Norbert Eliasweg,40,,,1349CL,Almere,Almere,Flevoland,VBO,5.311370,52.335499
Norbert Eliasweg,45,,,1349CL,Almere,Almere,Flevoland,VBO,5.310519,52.335316
Norbert Eliasweg,46,,,1349CL,Almere,Almere,Flevoland,VBO,5.311109,52.335681
Hannah Arendtweg,10,,,1349CM,Almere,Almere,Flevoland,VBO,5.312137,52.333092
Hannah Arendtweg,23,,,1349CM,Almere,Almere,Flevoland,VBO,5.314292,52.333305
Hannah Arendtweg,26,,,1349CM,Almere,Almere,Flevoland,VBO,5.313435,52.332745
Hannah Arendtweg,37,,,1349CM,Almere,Almere,Flevoland,VBO,5.314638,52.332639
Hannah Arendtweg,44,,,1349CM,Almere,Almere,Flevoland,VBO,5.313867,52.331944
Hannah Arendtweg,52,,,1349CM,Almere,Almere,Flevoland,VBO,5.314820,52.331941
Hannah Arendtweg,60,A,,1349CM,Almere,Almere,Flevoland,VBO,5.314103,52.331302
Hannah Arendtweg,60,,,1349CM,Almere,Almere,Flevoland,VBO,5.313936,52.331630
Hannah Arendtweg,70,,,1349CM,Almere,Almere,Flevoland,VBO,5.314531,52.331132
Hannah Arendtweg,78,,,1349CM,Almere,Almere,Flevoland,VBO,5.315239,52.330920
Hannah Arendtweg,84,,,1349CM,Almere,Almere,Flevoland,VBO,5.315591,52.330857
Hannah Arendtweg,90,,,1349CM,Almere,Almere,Flevoland,VBO,5.315897,52.330349
Hannah Arendtweg,92,,,1349CM,Almere,Almere,Flevoland,VBO,5.315894,52.330183
Frederik van Eedenweg,6,,,1349CN,Almere,Almere,Flevoland,VBO,5.308197,52.362018
Frederik van Eedenweg,7,,,1349CN,Almere,Almere,Flevoland,VBO,5.308494,52.361654
Frederik van Eedenweg,12,,,1349CN,Almere,Almere,Flevoland,VBO,5.307541,52.362155
Frederik van Eedenweg,13,,,1349CN,Almere,Almere,Flevoland,VBO,5.308237,52.361504
Frederik van Eedenweg,16,,,1349CN,Almere,Almere,Flevoland,VBO,5.307788,52.361692
Frederik van Eedenweg,34,,,1349CN,Almere,Almere,Flevoland,VBO,5.306632,52.361800
Frederik van Eedenweg,80,,,1349CN,Almere,Almere,Flevoland,VBO,5.308684,52.360362
Buitenplaats Oosterwold,14,,,1349CP,Almere,Almere,Flevoland,VBO,5.319274,52.335960
Buitenplaats Oosterwold,17,,,1349CP,Almere,Almere,Flevoland,VBO,5.319018,52.336314
Buitenplaats Oosterwold,22,,,1349CP,Almere,Almere,Flevoland,VBO,5.319608,52.336038
Buitenplaats Oosterwold,23,,,1349CP,Almere,Almere,Flevoland,VBO,5.319471,52.336467
Buitenplaats Oosterwold,25,,,1349CP,Almere,Almere,Flevoland,VBO,5.319747,52.336577
Buitenplaats Oosterwold,27,,,1349CP,Almere,Almere,Flevoland,VBO,5.320088,52.336687
Buitenplaats Oosterwold,29,,,1349CP,Almere,Almere,Flevoland,VBO,5.320410,52.336544
Buitenplaats Oosterwold,30,,,1349CP,Almere,Almere,Flevoland,VBO,5.320012,52.336024
Buitenplaats Oosterwold,33,,,1349CP,Almere,Almere,Flevoland,VBO,5.320521,52.336313
Buitenplaats Oosterwold,36,,,1349CP,Almere,Almere,Flevoland,VBO,5.320334,52.335854
Buitenplaats Oosterwold,37,,,1349CP,Almere,Almere,Flevoland,VBO,5.320916,52.336073
Buitenplaats Oosterwold,45,,,1349CP,Almere,Almere,Flevoland,VBO,5.321049,52.335879
Buitenplaats Oosterwold,55,,,1349CP,Almere,Almere,Flevoland,VBO,5.321550,52.335533
Buitenplaats Oosterwold,56,,,1349CP,Almere,Almere,Flevoland,VBO,5.320002,52.335267
Buitenplaats Oosterwold,62,,,1349CP,Almere,Almere,Flevoland,VBO,5.319549,52.335477
Buitenplaats Oosterwold,64,,,1349CP,Almere,Almere,Flevoland,VBO,5.319109,52.335254
Buitenplaats Oosterwold,68,,,1349CP,Almere,Almere,Flevoland,VBO,5.319253,52.334933
Buitenplaats Oosterwold,69,,,1349CP,Almere,Almere,Flevoland,VBO,5.322182,52.334955
Buitenplaats Oosterwold,71,,,1349CP,Almere,Almere,Flevoland,VBO,5.322272,52.334685
Buitenplaats Oosterwold,78,,,1349CP,Almere,Almere,Flevoland,VBO,5.319623,52.334582
Buitenplaats Oosterwold,88,,,1349CP,Almere,Almere,Flevoland,VBO,5.320286,52.334879
Buitenplaats Oosterwold,111,,,1349CP,Almere,Almere,Flevoland,VBO,5.319358,52.333536
Buitenplaats Oosterwold,113,,,1349CP,Almere,Almere,Flevoland,VBO,5.319095,52.333718
Buitenplaats Oosterwold,114,,,1349CP,Almere,Almere,Flevoland,VBO,5.320903,52.335353
Buitenplaats Oosterwold,121,,,1349CP,Almere,Almere,Flevoland,VBO,5.318742,52.334026
Buitenplaats Oosterwold,125,,,1349CP,Almere,Almere,Flevoland,VBO,5.318479,52.334159
Buitenplaats Oosterwold,132,,,1349CP,Almere,Almere,Flevoland,VBO,5.321497,52.334866
Buitenplaats Oosterwold,133,,,1349CP,Almere,Almere,Flevoland,VBO,5.318138,52.334351
Buitenplaats Oosterwold,137,,,1349CP,Almere,Almere,Flevoland,VBO,5.317921,52.334597
Buitenplaats Oosterwold,143,,,1349CP,Almere,Almere,Flevoland,VBO,5.317662,52.334850
Buitenplaats Oosterwold,149,,,1349CP,Almere,Almere,Flevoland,VBO,5.317312,52.335153
Buitenplaats Oosterwold,151,,,1349CP,Almere,Almere,Flevoland,VBO,5.316979,52.335396
Buitenplaats Oosterwold,153,,,1349CP,Almere,Almere,Flevoland,VBO,5.317497,52.335518
Buitenplaats Oosterwold,156,,,1349CP,Almere,Almere,Flevoland,VBO,5.320324,52.334281
Buitenplaats Oosterwold,161,,,1349CP,Almere,Almere,Flevoland,VBO,5.317823,52.335748
Buitenplaats Oosterwold,182,,,1349CP,Almere,Almere,Flevoland,VBO,5.318877,52.334447
Buitenplaats Oosterwold,196,,,1349CP,Almere,Almere,Flevoland,VBO,5.318385,52.334772
Buitenplaats Oosterwold,202,,,1349CP,Almere,Almere,Flevoland,VBO,5.318247,52.335041
Buitenplaats Oosterwold,214,,,1349CP,Almere,Almere,Flevoland,VBO,5.318286,52.335323
Buitenplaats Oosterwold,222,,,1349CP,Almere,Almere,Flevoland,VBO,5.318551,52.335614
Rachel Carsonhof,7,,,1349CR,Almere,Almere,Flevoland,VBO,5.315395,52.335339
Rachel Carsonhof,13,,,1349CR,Almere,Almere,Flevoland,VBO,5.315104,52.335539
Rachel Carsonhof,19,,,1349CR,Almere,Almere,Flevoland,VBO,5.314848,52.335725
Rachel Carsonhof,25,,,1349CR,Almere,Almere,Flevoland,VBO,5.314583,52.335917
Rachel Carsonhof,29,,,1349CR,Almere,Almere,Flevoland,VBO,5.314318,52.336110
Rachel Carsonhof,35,,,1349CR,Almere,Almere,Flevoland,VBO,5.314090,52.336331
Rachel Carsonhof,39,,,1349CR,Almere,Almere,Flevoland,VBO,5.313968,52.336607
Rachel Carsonhof,41,,,1349CR,Almere,Almere,Flevoland,VBO,5.314090,52.336828
Rachel Carsonhof,45,,,1349CR,Almere,Almere,Flevoland,VBO,5.314455,52.336812
Rachel Carsonhof,49,,,1349CR,Almere,Almere,Flevoland,VBO,5.314826,52.336663
Rachel Carsonhof,55,,,1349CR,Almere,Almere,Flevoland,VBO,5.315155,52.336397
Rachel Carsonhof,61,,,1349CR,Almere,Almere,Flevoland,VBO,5.315378,52.336186
Rachel Carsonhof,67,,,1349CR,Almere,Almere,Flevoland,VBO,5.315580,52.335985
Rachel Carsonhof,71,,,1349CR,Almere,Almere,Flevoland,VBO,5.315818,52.335761
Rachel Carsonhof,77,,,1349CR,Almere,Almere,Flevoland,VBO,5.316031,52.335554
Eugene Odumhof,7,,,1349CS,Almere,Almere,Flevoland,VBO,5.317320,52.336135
Eugene Odumhof,11,,,1349CS,Almere,Almere,Flevoland,VBO,5.317120,52.336282
Eugene Odumhof,17,,,1349CS,Almere,Almere,Flevoland,VBO,5.316725,52.336535
Eugene Odumhof,25,,,1349CS,Almere,Almere,Flevoland,VBO,5.316529,52.336705
Eugene Odumhof,31,,,1349CS,Almere,Almere,Flevoland,VBO,5.316273,52.336902
Eugene Odumhof,35,,,1349CS,Almere,Almere,Flevoland,VBO,5.315955,52.337180
Eugene Odumhof,39,,,1349CS,Almere,Almere,Flevoland,VBO,5.315881,52.337347
Eugene Odumhof,41,,,1349CS,Almere,Almere,Flevoland,VBO,5.315933,52.337571
Eugene Odumhof,43,,,1349CS,Almere,Almere,Flevoland,VBO,5.316313,52.337655
Eugene Odumhof,47,,,1349CS,Almere,Almere,Flevoland,VBO,5.316601,52.337549
Eugene Odumhof,53,,,1349CS,Almere,Almere,Flevoland,VBO,5.317012,52.337328
Eugene Odumhof,57,,,1349CS,Almere,Almere,Flevoland,VBO,5.317178,52.337088
Eugene Odumhof,65,,,1349CS,Almere,Almere,Flevoland,VBO,5.317445,52.336841
Eugene Odumhof,71,,,1349CS,Almere,Almere,Flevoland,VBO,5.317652,52.336635
Eugene Odumhof,75,,,1349CS,Almere,Almere,Flevoland,VBO,5.317867,52.336425
Eugene Odumhof,77,,,1349CS,Almere,Almere,Flevoland,VBO,5.317996,52.336341
Eugene Odumhof,79,,,1349CS,Almere,Almere,Flevoland,VBO,5.317937,52.336321
Henri Bergsonweg,10,,,1349CT,Almere,Almere,Flevoland,VBO,5.315285,52.331513
Henri Bergsonweg,14,,,1349CT,Almere,Almere,Flevoland,VBO,5.315500,52.331517
Henri Bergsonweg,16,,,1349CT,Almere,Almere,Flevoland,VBO,5.315719,52.331519
Henri Bergsonweg,20,,,1349CT,Almere,Almere,Flevoland,VBO,5.315938,52.331517
Henri Bergsonweg,22,,,1349CT,Almere,Almere,Flevoland,VBO,5.316154,52.331517
Henri Bergsonweg,26,,,1349CT,Almere,Almere,Flevoland,VBO,5.316373,52.331516
Henri Bergsonweg,28,,,1349CT,Almere,Almere,Flevoland,VBO,5.316588,52.331518
Henri Bergsonweg,32,,,1349CT,Almere,Almere,Flevoland,VBO,5.316781,52.331518
Henri Bergsonweg,34,,,1349CT,Almere,Almere,Flevoland,VBO,5.316974,52.331518
Zeebodemkolonistenweg,4,,,1349CV,Almere,Almere,Flevoland,VBO,5.329912,52.342018
Zeebodemkolonistenweg,5,,,1349CV,Almere,Almere,Flevoland,VBO,5.330228,52.341732
Zeebodemkolonistenweg,11,,,1349CV,Almere,Almere,Flevoland,VBO,5.329867,52.341585
Zeebodemkolonistenweg,12,,,1349CV,Almere,Almere,Flevoland,VBO,5.329654,52.341775
Baron van Keverbergweg,29,,,1349CW,Almere,Almere,Flevoland,VBO,5.318587,52.337965
Baron van Keverbergweg,35,,,1349CW,Almere,Almere,Flevoland,VBO,5.318307,52.338199
Baron van Keverbergweg,39,,,1349CW,Almere,Almere,Flevoland,VBO,5.318113,52.338355
Baron van Keverbergweg,43,,,1349CW,Almere,Almere,Flevoland,VBO,5.317947,52.338494
Baron van Keverbergweg,47,,,1349CW,Almere,Almere,Flevoland,VBO,5.317741,52.338668
Tureluurweg,55,,,1349CX,Almere,Almere,Flevoland,VBO,5.347889,52.314433
Tureluurweg,56,,,1349CZ,Almere,Almere,Flevoland,VBO,5.350516,52.314419
Tureluurweg,58,,,1349CZ,Almere,Almere,Flevoland,VBO,5.368612,52.314520
David Humeweg,20,,,1349DA,Almere,Almere,Flevoland,VBO,5.312726,52.345393
Titus Brandsmalaan,7,,,1349DB,Almere,Almere,Flevoland,VBO,5.314768,52.355423
Spinozalaan,33,,,1349DC,Almere,Almere,Flevoland,VBO,5.309761,52.349155
Spinozalaan,47,,,1349DC,Almere,Almere,Flevoland,VBO,5.310608,52.349406
Spinozalaan,61,,,1349DC,Almere,Almere,Flevoland,VBO,5.311499,52.349746
Spinozalaan,71,,,1349DC,Almere,Almere,Flevoland,VBO,5.312084,52.350045
John Lockeweg,2,,,1349DD,Almere,Almere,Flevoland,VBO,5.305318,52.365093
John Lockeweg,3,,,1349DD,Almere,Almere,Flevoland,VBO,5.305714,52.364797
John Lockeweg,7,,,1349DD,Almere,Almere,Flevoland,VBO,5.305078,52.364589
John Lockeweg,11,,,1349DD,Almere,Almere,Flevoland,VBO,5.304799,52.364442
John Lockeweg,13,,,1349DD,Almere,Almere,Flevoland,VBO,5.304529,52.364301
Vrije Vogellaan,7,,,1349EA,Almere,Almere,Flevoland,VBO,5.326217,52.332005
Vrije Vogellaan,8,,,1349EA,Almere,Almere,Flevoland,VBO,5.325851,52.332316
Vrije Vogellaan,17,,,1349EA,Almere,Almere,Flevoland,VBO,5.325734,52.331773
Vrije Vogellaan,26,,,1349EA,Almere,Almere,Flevoland,VBO,5.324951,52.331677
Vrije Vogellaan,32,,,1349EA,Almere,Almere,Flevoland,VBO,5.324693,52.331555
Vrije Vogellaan,33,,,1349EA,Almere,Almere,Flevoland,VBO,5.324969,52.331400
Vrije Vogellaan,38,,,1349EA,Almere,Almere,Flevoland,VBO,5.324400,52.331517
Vrije Vogellaan,39,,,1349EA,Almere,Almere,Flevoland,VBO,5.324213,52.331274
Vrije Vogellaan,42,,,1349EA,Almere,Almere,Flevoland,VBO,5.324011,52.331550
Vrije Vogellaan,59,,,1349EA,Almere,Almere,Flevoland,VBO,5.323220,52.331039
Vrije Vogellaan,66,,,1349EA,Almere,Almere,Flevoland,VBO,5.324348,52.331884
Vrije Vogellaan,68,,,1349EA,Almere,Almere,Flevoland,VBO,5.324192,52.332009
Vrije Vogellaan,70,,,1349EA,Almere,Almere,Flevoland,VBO,5.323999,52.331917
Vrije Vogellaan,74,,,1349EA,Almere,Almere,Flevoland,VBO,5.323723,52.331784
Vrije Vogellaan,75,,,1349EA,Almere,Almere,Flevoland,VBO,5.322179,52.330588
Vrije Vogellaan,78,,,1349EA,Almere,Almere,Flevoland,VBO,5.323460,52.331750
Vrije Vogellaan,85,,,1349EA,Almere,Almere,Flevoland,VBO,5.321604,52.330256
Vrije Vogellaan,95,,,1349EA,Almere,Almere,Flevoland,VBO,5.320862,52.330067
Vrije Vogellaan,111,,,1349EA,Almere,Almere,Flevoland,VBO,5.319908,52.329640
Vrije Vogellaan,119,,,1349EA,Almere,Almere,Flevoland,VBO,5.319563,52.329357
Vrije Vogellaan,124,,,1349EA,Almere,Almere,Flevoland,VBO,5.321150,52.330542
Vrije Vogellaan,132,,,1349EA,Almere,Almere,Flevoland,VBO,5.320571,52.330323
Vrije Vogellaan,142,,,1349EA,Almere,Almere,Flevoland,VBO,5.319954,52.330133
Vrije Vogellaan,143,,,1349EA,Almere,Almere,Flevoland,VBO,5.319027,52.328773
Vrije Vogellaan,145,,,1349EA,Almere,Almere,Flevoland,VBO,5.318617,52.328642
Vrije Vogellaan,152,,,1349EA,Almere,Almere,Flevoland,VBO,5.319392,52.329888
Vrije Vogellaan,158,,,1349EA,Almere,Almere,Flevoland,VBO,5.319042,52.329628
Vrije Vogellaan,173,,,1349EA,Almere,Almere,Flevoland,VBO,5.317812,52.328524
Vrije Vogellaan,174,,,1349EA,Almere,Almere,Flevoland,VBO,5.318271,52.329206
Rumilaan,6,,,1349EB,Almere,Almere,Flevoland,VBO,5.315643,52.334814
Rumilaan,12,,,1349EB,Almere,Almere,Flevoland,VBO,5.316039,52.334579
Rumilaan,22,,,1349EB,Almere,Almere,Flevoland,VBO,5.316344,52.334168
Rumilaan,30,,,1349EB,Almere,Almere,Flevoland,VBO,5.316765,52.333951
Rumilaan,46,,,1349EB,Almere,Almere,Flevoland,VBO,5.316829,52.333197
Rumilaan,50,,,1349EB,Almere,Almere,Flevoland,VBO,5.317413,52.333238
Emmanuel Levinaslaan,20,,,1349EC,Almere,Almere,Flevoland,VBO,5.317057,52.334702
Emmanuel Levinaslaan,34,,,1349EC,Almere,Almere,Flevoland,VBO,5.317716,52.334221
Emmanuel Levinaslaan,40,,,1349EC,Almere,Almere,Flevoland,VBO,5.318006,52.333916
Emmanuel Levinaslaan,48,,,1349EC,Almere,Almere,Flevoland,VBO,5.318260,52.333603
Emmanuel Levinaslaan,50,,,1349EC,Almere,Almere,Flevoland,VBO,5.318322,52.333562
Emmanuel Levinaslaan,52,,,1349EC,Almere,Almere,Flevoland,VBO,5.318401,52.333574
Emmanuel Levinaslaan,58,,,1349EC,Almere,Almere,Flevoland,VBO,5.318758,52.333288
Platoweg,12,,,1349ED,Almere,Almere,Flevoland,VBO,5.323223,52.334182
Karl Marxweg,33,,,1349EE,Almere,Almere,Flevoland,VBO,5.335551,52.335491
Karl Marxweg,45,,,1349EE,Almere,Almere,Flevoland,VBO,5.334710,52.335466
Goethelaan,20,,,1349EG,Almere,Almere,Flevoland,VBO,5.326296,52.333979
Goethelaan,48,,,1349EG,Almere,Almere,Flevoland,VBO,5.327934,52.334721
Goethelaan,58,,,1349EG,Almere,Almere,Flevoland,VBO,5.328470,52.334978
Goethelaan,68,,,1349EG,Almere,Almere,Flevoland,VBO,5.329085,52.335238
Goethelaan,146,,,1349EG,Almere,Almere,Flevoland,VBO,5.333786,52.337263
Ubuntulaan,7,,,1349EH,Almere,Almere,Flevoland,VBO,5.314639,52.334399
Ubuntulaan,15,,,1349EH,Almere,Almere,Flevoland,VBO,5.315112,52.334061
Ubuntulaan,22,,,1349EH,Almere,Almere,Flevoland,VBO,5.314901,52.333631
Ubuntulaan,30,,,1349EH,Almere,Almere,Flevoland,VBO,5.315286,52.333335
Ubuntulaan,31,,,1349EH,Almere,Almere,Flevoland,VBO,5.315787,52.333546
Ubuntulaan,47,,,1349EH,Almere,Almere,Flevoland,VBO,5.316426,52.332845
Ubuntulaan,51,,,1349EH,Almere,Almere,Flevoland,VBO,5.316455,52.332640
Vuursteenhof,9,,,1349EJ,Almere,Almere,Flevoland,VBO,5.320257,52.337760
Vuursteenhof,18,,,1349EJ,Almere,Almere,Flevoland,VBO,5.320476,52.338414
Vuursteenhof,42,,,1349EJ,Almere,Almere,Flevoland,VBO,5.320583,52.338821
Vuursteenhof,47,,,1349EJ,Almere,Almere,Flevoland,VBO,5.320721,52.339110
Vuursteenhof,48,,,1349EJ,Almere,Almere,Flevoland,VBO,5.320868,52.338933
Vuursteenhof,51,,,1349EJ,Almere,Almere,Flevoland,VBO,5.321202,52.339076
Vuursteenhof,63,,,1349EJ,Almere,Almere,Flevoland,VBO,5.321703,52.338622
Vuursteenhof,65,,,1349EJ,Almere,Almere,Flevoland,VBO,5.321919,52.338465
Vuursteenhof,72,,,1349EJ,Almere,Almere,Flevoland,VBO,5.321068,52.338338
Vuursteenhof,73,,,1349EJ,Almere,Almere,Flevoland,VBO,5.321312,52.338201
Tureluurdwarsstraat,34,,,1349EK,Almere,Almere,Flevoland,VBO,5.329257,52.332870
Bostuin,10,,,1349EL,Almere,Almere,Flevoland,VBO,5.317653,52.329119
Bostuin,11,,,1349EL,Almere,Almere,Flevoland,VBO,5.317257,52.328898
Bostuin,12,,,1349EL,Almere,Almere,Flevoland,VBO,5.317565,52.329234
Bostuin,14,,,1349EL,Almere,Almere,Flevoland,VBO,5.317551,52.329339
Bostuin,15,,,1349EL,Almere,Almere,Flevoland,VBO,5.317016,52.328762
Bostuin,16,,,1349EL,Almere,Almere,Flevoland,VBO,5.317327,52.329546
Bostuin,17,,,1349EL,Almere,Almere,Flevoland,VBO,5.316677,52.328668
Bostuin,18,,,1349EL,Almere,Almere,Flevoland,VBO,5.317155,52.329634
Bostuin,19,,,1349EL,Almere,Almere,Flevoland,VBO,5.316275,52.328924
Bostuin,20,,,1349EL,Almere,Almere,Flevoland,VBO,5.317071,52.329717
Bostuin,22,,,1349EL,Almere,Almere,Flevoland,VBO,5.316753,52.329847
Bostuin,26,,,1349EL,Almere,Almere,Flevoland,VBO,5.316130,52.329521
Bostuin,28,,,1349EL,Almere,Almere,Flevoland,VBO,5.315935,52.329475
Bostuin,30,,,1349EL,Almere,Almere,Flevoland,VBO,5.315763,52.329469
Kathedralenpad,43,,,1349JA,Almere,Almere,Flevoland,VBO,5.328156,52.329109
Kathedralenpad,55,,,1349JA,Almere,Almere,Flevoland,VBO,5.327269,52.329019
Kathedralenpad,59,,,1349JA,Almere,Almere,Flevoland,VBO,5.326969,52.328644
Kathedralenpad,61,,,1349JA,Almere,Almere,Flevoland,VBO,5.326795,52.328869
Kathedralenpad,71,,,1349JA,Almere,Almere,Flevoland,VBO,5.326275,52.328491
Kathedralenpad,85,,,1349JA,Almere,Almere,Flevoland,VBO,5.325447,52.328247
Kathedralenpad,93,,,1349JA,Almere,Almere,Flevoland,VBO,5.324942,52.327991
Kathedralenpad,165,,,1349JA,Almere,Almere,Flevoland,VBO,5.320913,52.326352
Kathedralenpad,167,,,1349JA,Almere,Almere,Flevoland,VBO,5.320599,52.326289
Kathedralenpad,171,,,1349JA,Almere,Almere,Flevoland,VBO,5.320474,52.326095
Kathedralenpad,179,,,1349JA,Almere,Almere,Flevoland,VBO,5.320776,52.325319
Kathedralenpad,189,,,1349JA,Almere,Almere,Flevoland,VBO,5.319738,52.325600
Kathedralenpad,191,,,1349JA,Almere,Almere,Flevoland,VBO,5.319642,52.325600
Kathedralenpad,193,,,1349JA,Almere,Almere,Flevoland,VBO,5.319526,52.325598
Kathedralenpad,195,,,1349JA,Almere,Almere,Flevoland,VBO,5.319531,52.325510
Reimslaan,39,,,1349JB,Almere,Almere,Flevoland,VBO,5.323034,52.325868
Reimslaan,55,,,1349JB,Almere,Almere,Flevoland,VBO,5.321218,52.325090
Kluutweg,3,,,1349RA,Almere,Almere,Flevoland,VBO,5.356983,52.323240
Kluutweg,5,,,1349RA,Almere,Almere,Flevoland,VBO,5.361475,52.324923
Kluutweg,7,,,1349RA,Almere,Almere,Flevoland,VBO,5.353270,52.335094
Kluutweg,6,,,1349RB,Almere,Almere,Flevoland,VBO,5.359976,52.323081
