openbareruimtenaam,huisnummer,huisletter,huisnummertoevoeging,postcode,woonplaatsnaam,gemeentenaam,provincienaam,typeadresseerbaarobject,longitude,latitude
de Horn,1,A,,1396HT,Baambrugge,De Ronde Venen,Utrecht,VBO,4.980116,52.252036
de Horn,1,,ws,1396HT,Baambrugge,De Ronde Venen,Utrecht,LIG,4.974108,52.261401
de Horn,1,,,1396HT,Baambrugge,De Ronde Venen,Utrecht,VBO,4.978567,52.252760
de Horn,2,A,,1396HT,Baambrugge,De Ronde Venen,Utrecht,VBO,4.978105,52.254062
de Horn,2,,ws,1396HT,Baambrugge,De Ronde Venen,Utrecht,LIG,4.974155,52.261270
de Horn,2,,,1396HT,Baambrugge,De Ronde Venen,Utrecht,VBO,4.978169,52.252853
de Horn,3,,ws,1396HT,Baambrugge,De Ronde Venen,Utrecht,LIG,4.974255,52.261167
de Horn,3,,,1396HT,Baambrugge,De Ronde Venen,Utrecht,VBO,4.981492,52.255314
de Horn,4,,ws,1396HT,Baambrugge,De Ronde Venen,Utrecht,LIG,4.974203,52.261019
de Horn,4,,,1396HT,Baambrugge,De Ronde Venen,Utrecht,VBO,4.981549,52.256520
de Horn,5,,ws,1396HT,Baambrugge,De Ronde Venen,Utrecht,LIG,4.974392,52.261066
de Horn,6,,ws,1396HT,Baambrugge,De Ronde Venen,Utrecht,LIG,4.974257,52.260961
de Horn,6,,,1396HT,Baambrugge,De Ronde Venen,Utrecht,VBO,4.979453,52.259081
de Horn,7,B,,1396HT,Baambrugge,De Ronde Venen,Utrecht,VBO,4.972705,52.261586
de Horn,7,,ws,1396HT,Baambrugge,De Ronde Venen,Utrecht,LIG,4.974458,52.260994
de Horn,7,,,1396HT,Baambrugge,De Ronde Venen,Utrecht,VBO,4.972383,52.261737
de Horn,8,,ws,1396HT,Baambrugge,De Ronde Venen,Utrecht,LIG,4.974295,52.260880
de Horn,8,,,1396HT,Baambrugge,De Ronde Venen,Utrecht,LIG,4.973987,52.261755
de Horn,9,,ws,1396HT,Baambrugge,De Ronde Venen,Utrecht,LIG,4.974525,52.260923
de Horn,10,,ws,1396HT,Baambrugge,De Ronde Venen,Utrecht,LIG,4.974305,52.260785
de Horn,11,,ws,1396HT,Baambrugge,De Ronde Venen,Utrecht,LIG,4.974546,52.260834
de Horn,12,,ws,1396HT,Baambrugge,De Ronde Venen,Utrecht,LIG,4.974567,52.260720
de Horn,13,,ws,1396HT,Baambrugge,De Ronde Venen,Utrecht,LIG,4.974603,52.260629
de Horn,14,,ws,1396HT,Baambrugge,De Ronde Venen,Utrecht,LIG,4.974716,52.260523
de Horn,15,,ws,1396HT,Baambrugge,De Ronde Venen,Utrecht,LIG,4.974701,52.260380
de Horn,16,,ws,1396HT,Baambrugge,De Ronde Venen,Utrecht,LIG,4.974909,52.260458
de Horn,17,,ws,1396HT,Baambrugge,De Ronde Venen,Utrecht,LIG,4.974937,52.260323
de Horn,18,,ws,1396HT,Baambrugge,De Ronde Venen,Utrecht,LIG,4.974996,52.260164
Kleiweg,1,,,1396HV,Baambrugge,De Ronde Venen,Utrecht,VBO,4.988954,52.246444
Kleiweg,3,,,1396HV,Baambrugge,De Ronde Venen,Utrecht,VBO,4.988729,52.246542
Kleiweg,5,,,1396HV,Baambrugge,De Ronde Venen,Utrecht,VBO,4.988635,52.246590
Kleiweg,7,,,1396HV,Baambrugge,De Ronde Venen,Utrecht,VBO,4.988506,52.246655
Kleiweg,9,,,1396HV,Baambrugge,De Ronde Venen,Utrecht,VBO,4.988401,52.246709
Kleiweg,11,,,1396HV,Baambrugge,De Ronde Venen,Utrecht,VBO,4.988272,52.246780
Kleiweg,13,,,1396HV,Baambrugge,De Ronde Venen,Utrecht,VBO,4.988169,52.246835
Kleiweg,15,,,1396HV,Baambrugge,De Ronde Venen,Utrecht,VBO,4.988052,52.246896
Kleiweg,17,,,1396HV,Baambrugge,De Ronde Venen,Utrecht,VBO,4.987955,52.246949
Kleiweg,19,,,1396HV,Baambrugge,De Ronde Venen,Utrecht,VBO,4.987820,52.247019
Kleiweg,21,,,1396HV,Baambrugge,De Ronde Venen,Utrecht,VBO,4.987724,52.247072
Kleiweg,23,,,1396HV,Baambrugge,De Ronde Venen,Utrecht,VBO,4.987548,52.247190
Kleiweg,2,A,,1396HW,Baambrugge,De Ronde Venen,Utrecht,VBO,4.989605,52.246574
Kleiweg,2,,,1396HW,Baambrugge,De Ronde Venen,Utrecht,VBO,4.989780,52.246495
Kleiweg,4,,,1396HW,Baambrugge,De Ronde Venen,Utrecht,VBO,4.989387,52.246724
Kleiweg,12,,,1396HW,Baambrugge,De Ronde Venen,Utrecht,VBO,4.989059,52.246800
Kleiweg,14,,,1396HW,Baambrugge,De Ronde Venen,Utrecht,VBO,4.988897,52.246908
Kleiweg,24,,,1396HW,Baambrugge,De Ronde Venen,Utrecht,VBO,4.988555,52.247036
Kleiweg,25,,,1396HW,Baambrugge,De Ronde Venen,Utrecht,VBO,4.986853,52.247672
Kleiweg,27,A,,1396HW,Baambrugge,De Ronde Venen,Utrecht,VBO,4.986089,52.248709
Kleiweg,27,,,1396HW,Baambrugge,De Ronde Venen,Utrecht,VBO,4.986895,52.248619
Kleiweg,28,,,1396HX,Baambrugge,De Ronde Venen,Utrecht,VBO,4.988495,52.247151
Kleiweg,30,,,1396HX,Baambrugge,De Ronde Venen,Utrecht,VBO,4.988163,52.247221
Kleiweg,32,A,,1396HX,Baambrugge,De Ronde Venen,Utrecht,VBO,4.987531,52.247635
Kleiweg,32,,,1396HX,Baambrugge,De Ronde Venen,Utrecht,VBO,4.987882,52.247484
Kleiweg,34,A,,1396HX,Baambrugge,De Ronde Venen,Utrecht,VBO,4.987427,52.247815
Kleiweg,34,,,1396HX,Baambrugge,De Ronde Venen,Utrecht,VBO,4.987177,52.247996
Kleiweg,36,,,1396HX,Baambrugge,De Ronde Venen,Utrecht,VBO,4.987131,52.248113
Kleiweg,38,,,1396HX,Baambrugge,De Ronde Venen,Utrecht,VBO,4.987109,52.248213
Zand- en Jaagpad,1,,,1396JA,Baambrugge,De Ronde Venen,Utrecht,VBO,4.989931,52.246917
Zand- en Jaagpad,2,,,1396JA,Baambrugge,De Ronde Venen,Utrecht,VBO,4.989779,52.246997
Zand- en Jaagpad,3,,,1396JA,Baambrugge,De Ronde Venen,Utrecht,VBO,4.989678,52.247122
Zand- en Jaagpad,4,,,1396JA,Baambrugge,De Ronde Venen,Utrecht,VBO,4.989310,52.247253
Zand- en Jaagpad,5,A,,1396JA,Baambrugge,De Ronde Venen,Utrecht,VBO,4.988572,52.247623
Zand- en Jaagpad,5,,,1396JA,Baambrugge,De Ronde Venen,Utrecht,VBO,4.989028,52.247446
Zand- en Jaagpad,6,,,1396JA,Baambrugge,De Ronde Venen,Utrecht,VBO,4.988299,52.247789
Zand- en Jaagpad,7,,,1396JA,Baambrugge,De Ronde Venen,Utrecht,VBO,4.988127,52.247892
Zand- en Jaagpad,8,,,1396JA,Baambrugge,De Ronde Venen,Utrecht,VBO,4.988045,52.247968
Zand- en Jaagpad,9,,,1396JA,Baambrugge,De Ronde Venen,Utrecht,VBO,4.988002,52.248064
Zand- en Jaagpad,10,,,1396JA,Baambrugge,De Ronde Venen,Utrecht,VBO,4.987881,52.248147
Zand- en Jaagpad,11,,,1396JA,Baambrugge,De Ronde Venen,Utrecht,VBO,4.987952,52.248315
Zand- en Jaagpad,12,,,1396JA,Baambrugge,De Ronde Venen,Utrecht,VBO,4.988077,52.248331
Zand- en Jaagpad,13,,,1396JA,Baambrugge,De Ronde Venen,Utrecht,VBO,4.988259,52.248384
Zand- en Jaagpad,14,,,1396JA,Baambrugge,De Ronde Venen,Utrecht,VBO,4.988333,52.248405
Zand- en Jaagpad,15,,,1396JA,Baambrugge,De Ronde Venen,Utrecht,VBO,4.988471,52.248426
Zand- en Jaagpad,16,,,1396JA,Baambrugge,De Ronde Venen,Utrecht,VBO,4.988547,52.248441
Zand- en Jaagpad,17,,,1396JA,Baambrugge,De Ronde Venen,Utrecht,VBO,4.988712,52.248459
Zand- en Jaagpad,18,,,1396JA,Baambrugge,De Ronde Venen,Utrecht,VBO,4.988795,52.248477
Zand- en Jaagpad,19,,,1396JA,Baambrugge,De Ronde Venen,Utrecht,VBO,4.988929,52.248499
Zand- en Jaagpad,20,,,1396JA,Baambrugge,De Ronde Venen,Utrecht,VBO,4.989026,52.248515
Zand- en Jaagpad,21,,,1396JB,Baambrugge,De Ronde Venen,Utrecht,VBO,4.989164,52.248536
Zand- en Jaagpad,22,A,,1396JB,Baambrugge,De Ronde Venen,Utrecht,VBO,4.989404,52.248223
Zand- en Jaagpad,22,,,1396JB,Baambrugge,De Ronde Venen,Utrecht,VBO,4.989313,52.248521
Zand- en Jaagpad,23,,,1396JB,Baambrugge,De Ronde Venen,Utrecht,VBO,4.989563,52.248587
Zand- en Jaagpad,24,,,1396JB,Baambrugge,De Ronde Venen,Utrecht,VBO,4.989596,52.248609
Zand- en Jaagpad,25,,,1396JB,Baambrugge,De Ronde Venen,Utrecht,VBO,4.989738,52.248620
Zand- en Jaagpad,26,,,1396JB,Baambrugge,De Ronde Venen,Utrecht,VBO,4.989900,52.248631
Zand- en Jaagpad,27,,,1396JB,Baambrugge,De Ronde Venen,Utrecht,VBO,4.990015,52.248665
Zand- en Jaagpad,28,,,1396JB,Baambrugge,De Ronde Venen,Utrecht,VBO,4.990147,52.248686
Zand- en Jaagpad,29,,,1396JB,Baambrugge,De Ronde Venen,Utrecht,VBO,4.990237,52.248723
Zand- en Jaagpad,30,,,1396JB,Baambrugge,De Ronde Venen,Utrecht,VBO,4.990375,52.248763
Zand- en Jaagpad,31,,,1396JB,Baambrugge,De Ronde Venen,Utrecht,VBO,4.990449,52.248784
Zand- en Jaagpad,32,,,1396JB,Baambrugge,De Ronde Venen,Utrecht,VBO,4.990783,52.248850
Zand- en Jaagpad,33,,,1396JB,Baambrugge,De Ronde Venen,Utrecht,VBO,4.990924,52.248916
Zand- en Jaagpad,34,A,,1396JB,Baambrugge,De Ronde Venen,Utrecht,VBO,4.991319,52.249014
Zand- en Jaagpad,34,B,,1396JB,Baambrugge,De Ronde Venen,Utrecht,VBO,4.991426,52.249049
Zand- en Jaagpad,34,,,1396JB,Baambrugge,De Ronde Venen,Utrecht,VBO,4.991094,52.248904
Zand- en Jaagpad,35,,,1396JB,Baambrugge,De Ronde Venen,Utrecht,VBO,4.992008,52.249416
Zand- en Jaagpad,36,,,1396JB,Baambrugge,De Ronde Venen,Utrecht,VBO,4.992295,52.249533
Zand- en Jaagpad,37,,,1396JB,Baambrugge,De Ronde Venen,Utrecht,VBO,4.992435,52.249565
Zand- en Jaagpad,38,,,1396JB,Baambrugge,De Ronde Venen,Utrecht,VBO,4.992527,52.249626
Zand- en Jaagpad,39,,,1396JB,Baambrugge,De Ronde Venen,Utrecht,VBO,4.992642,52.249676
Zand- en Jaagpad,41,,,1396JB,Baambrugge,De Ronde Venen,Utrecht,VBO,4.992819,52.249728
Zand- en Jaagpad,42,,,1396JB,Baambrugge,De Ronde Venen,Utrecht,VBO,4.992916,52.249794
Rijksstraatweg,1,A,,1396JC,Baambrugge,De Ronde Venen,Utrecht,VBO,4.988494,52.258938
Rijksstraatweg,1,B,,1396JC,Baambrugge,De Ronde Venen,Utrecht,VBO,4.989305,52.258600
Rijksstraatweg,1,,,1396JC,Baambrugge,De Ronde Venen,Utrecht,VBO,4.987960,52.259115
Rijksstraatweg,3,,,1396JC,Baambrugge,De Ronde Venen,Utrecht,VBO,4.990212,52.257753
Rijksstraatweg,5,,,1396JC,Baambrugge,De Ronde Venen,Utrecht,VBO,4.990442,52.257814
Rijksstraatweg,7,A,,1396JC,Baambrugge,De Ronde Venen,Utrecht,VBO,4.990271,52.257550
Rijksstraatweg,7,,,1396JC,Baambrugge,De Ronde Venen,Utrecht,VBO,4.990287,52.257513
Rijksstraatweg,9,A,,1396JC,Baambrugge,De Ronde Venen,Utrecht,VBO,4.990870,52.257463
Rijksstraatweg,9,D,,1396JC,Baambrugge,De Ronde Venen,Utrecht,VBO,4.991339,52.257743
Rijksstraatweg,9,,,1396JC,Baambrugge,De Ronde Venen,Utrecht,VBO,4.990599,52.257494
Rijksstraatweg,11,A,,1396JC,Baambrugge,De Ronde Venen,Utrecht,VBO,4.991170,52.257462
Rijksstraatweg,11,B,,1396JC,Baambrugge,De Ronde Venen,Utrecht,VBO,4.991452,52.257533
Rijksstraatweg,11,,,1396JC,Baambrugge,De Ronde Venen,Utrecht,VBO,4.990968,52.257379
Rijksstraatweg,13,,,1396JC,Baambrugge,De Ronde Venen,Utrecht,VBO,4.992298,52.257613
Rijksstraatweg,15,,,1396JC,Baambrugge,De Ronde Venen,Utrecht,VBO,4.992544,52.257627
Rijksstraatweg,17,,,1396JC,Baambrugge,De Ronde Venen,Utrecht,VBO,4.991898,52.256988
Rijksstraatweg,19,A,,1396JC,Baambrugge,De Ronde Venen,Utrecht,VBO,4.992885,52.256922
Rijksstraatweg,19,,,1396JC,Baambrugge,De Ronde Venen,Utrecht,VBO,4.991946,52.256926
Rijksstraatweg,21,,,1396JC,Baambrugge,De Ronde Venen,Utrecht,VBO,4.993329,52.256463
Rijksstraatweg,23,,,1396JC,Baambrugge,De Ronde Venen,Utrecht,VBO,4.992513,52.256118
Rijksstraatweg,25,A,,1396JD,Baambrugge,De Ronde Venen,Utrecht,VBO,4.993966,52.255490
Rijksstraatweg,25,,,1396JD,Baambrugge,De Ronde Venen,Utrecht,VBO,4.992699,52.255257
Rijksstraatweg,27,,,1396JD,Baambrugge,De Ronde Venen,Utrecht,VBO,4.993751,52.255174
Rijksstraatweg,29,,,1396JD,Baambrugge,De Ronde Venen,Utrecht,VBO,4.994122,52.255222
Rijksstraatweg,31,,,1396JD,Baambrugge,De Ronde Venen,Utrecht,VBO,4.994285,52.254976
Rijksstraatweg,33,,,1396JD,Baambrugge,De Ronde Venen,Utrecht,VBO,4.994566,52.254972
Rijksstraatweg,39,,,1396JD,Baambrugge,De Ronde Venen,Utrecht,VBO,4.992989,52.254649
Rijksstraatweg,41,A,,1396JD,Baambrugge,De Ronde Venen,Utrecht,VBO,4.994464,52.251457
Rijksstraatweg,41,,,1396JD,Baambrugge,De Ronde Venen,Utrecht,VBO,4.993468,52.253533
Rijksstraatweg,43,A,,1396JD,Baambrugge,De Ronde Venen,Utrecht,VBO,4.994577,52.250730
Rijksstraatweg,43,,,1396JD,Baambrugge,De Ronde Venen,Utrecht,VBO,4.994034,52.251122
Rijksstraatweg,45,,,1396JD,Baambrugge,De Ronde Venen,Utrecht,VBO,4.994217,52.250405
Rijksstraatweg,47,,,1396JD,Baambrugge,De Ronde Venen,Utrecht,VBO,4.994005,52.250136
Rijksstraatweg,51,,,1396JD,Baambrugge,De Ronde Venen,Utrecht,VBO,4.994283,52.249758
Rijksstraatweg,53,,,1396JD,Baambrugge,De Ronde Venen,Utrecht,VBO,4.993831,52.249762
Rijksstraatweg,55,A,,1396JE,Baambrugge,De Ronde Venen,Utrecht,VBO,4.991477,52.247883
Rijksstraatweg,55,,,1396JE,Baambrugge,De Ronde Venen,Utrecht,VBO,4.991518,52.247695
Rijksstraatweg,57,,,1396JE,Baambrugge,De Ronde Venen,Utrecht,VBO,4.991155,52.247524
Rijksstraatweg,61,,,1396JE,Baambrugge,De Ronde Venen,Utrecht,VBO,4.990908,52.247383
Rijksstraatweg,63,A,,1396JE,Baambrugge,De Ronde Venen,Utrecht,VBO,4.990683,52.247179
Rijksstraatweg,63,,,1396JE,Baambrugge,De Ronde Venen,Utrecht,VBO,4.990880,52.247252
Rijksstraatweg,65,,,1396JE,Baambrugge,De Ronde Venen,Utrecht,VBO,4.990471,52.247124
Rijksstraatweg,67,,,1396JE,Baambrugge,De Ronde Venen,Utrecht,VBO,4.990845,52.247110
Rijksstraatweg,69,,,1396JE,Baambrugge,De Ronde Venen,Utrecht,VBO,4.990392,52.246842
Rijksstraatweg,75,,,1396JE,Baambrugge,De Ronde Venen,Utrecht,VBO,4.990612,52.246683
Rijksstraatweg,77,,,1396JE,Baambrugge,De Ronde Venen,Utrecht,VBO,4.990779,52.246559
Rijksstraatweg,79,,,1396JE,Baambrugge,De Ronde Venen,Utrecht,VBO,4.990912,52.246518
Rijksstraatweg,81,A,,1396JG,Baambrugge,De Ronde Venen,Utrecht,VBO,4.991814,52.246163
Rijksstraatweg,81,,,1396JG,Baambrugge,De Ronde Venen,Utrecht,VBO,4.991456,52.246017
Rijksstraatweg,83,,,1396JG,Baambrugge,De Ronde Venen,Utrecht,VBO,4.991664,52.245946
Rijksstraatweg,85,A,,1396JG,Baambrugge,De Ronde Venen,Utrecht,VBO,4.992144,52.245211
Rijksstraatweg,85,,,1396JG,Baambrugge,De Ronde Venen,Utrecht,VBO,4.992192,52.245825
Rijksstraatweg,87,A,,1396JG,Baambrugge,De Ronde Venen,Utrecht,VBO,4.993984,52.243382
Rijksstraatweg,87,,,1396JG,Baambrugge,De Ronde Venen,Utrecht,VBO,4.993912,52.243476
Rijksstraatweg,91,A,,1396JG,Baambrugge,De Ronde Venen,Utrecht,VBO,4.995122,52.242834
Rijksstraatweg,91,,,1396JG,Baambrugge,De Ronde Venen,Utrecht,VBO,4.994711,52.242765
Rijksstraatweg,93,A,,1396JG,Baambrugge,De Ronde Venen,Utrecht,VBO,4.996079,52.243037
Rijksstraatweg,93,,,1396JG,Baambrugge,De Ronde Venen,Utrecht,VBO,4.995447,52.242785
Rijksstraatweg,95,,,1396JG,Baambrugge,De Ronde Venen,Utrecht,VBO,4.995190,52.242423
Rijksstraatweg,97,,,1396JG,Baambrugge,De Ronde Venen,Utrecht,VBO,4.995984,52.241917
Rijksstraatweg,99,,,1396JG,Baambrugge,De Ronde Venen,Utrecht,VBO,4.996271,52.241818
Rijksstraatweg,103,,,1396JH,Baambrugge,De Ronde Venen,Utrecht,VBO,4.997616,52.241368
Rijksstraatweg,105,A,,1396JH,Baambrugge,De Ronde Venen,Utrecht,VBO,4.998129,52.241777
Rijksstraatweg,105,B,,1396JH,Baambrugge,De Ronde Venen,Utrecht,VBO,4.998507,52.241816
Rijksstraatweg,105,C,,1396JH,Baambrugge,De Ronde Venen,Utrecht,VBO,4.998791,52.241678
Rijksstraatweg,105,D,,1396JH,Baambrugge,De Ronde Venen,Utrecht,VBO,4.998727,52.241924
Rijksstraatweg,105,E,,1396JH,Baambrugge,De Ronde Venen,Utrecht,VBO,4.998791,52.242000
Rijksstraatweg,105,F,1,1396JH,Baambrugge,De Ronde Venen,Utrecht,VBO,4.999081,52.241872
Rijksstraatweg,105,F,2,1396JH,Baambrugge,De Ronde Venen,Utrecht,VBO,4.998963,52.241930
Rijksstraatweg,105,F,,1396JH,Baambrugge,De Ronde Venen,Utrecht,VBO,4.998999,52.241808
Rijksstraatweg,105,,,1396JH,Baambrugge,De Ronde Venen,Utrecht,VBO,4.998168,52.241695
Rijksstraatweg,107,A,,1396JH,Baambrugge,De Ronde Venen,Utrecht,VBO,5.000602,52.240940
Rijksstraatweg,107,B,,1396JH,Baambrugge,De Ronde Venen,Utrecht,VBO,5.000767,52.241616
Rijksstraatweg,107,,,1396JH,Baambrugge,De Ronde Venen,Utrecht,VBO,5.000302,52.240963
Rijksstraatweg,109,A,,1396JH,Baambrugge,De Ronde Venen,Utrecht,VBO,5.001596,52.240883
Rijksstraatweg,109,B,,1396JH,Baambrugge,De Ronde Venen,Utrecht,VBO,5.001192,52.240833
Rijksstraatweg,109,,,1396JH,Baambrugge,De Ronde Venen,Utrecht,VBO,5.001714,52.241079
Rijksstraatweg,111,A,,1396JH,Baambrugge,De Ronde Venen,Utrecht,VBO,5.001687,52.240660
Rijksstraatweg,111,,,1396JH,Baambrugge,De Ronde Venen,Utrecht,VBO,5.001546,52.240603
Rijksstraatweg,113,A,,1396JH,Baambrugge,De Ronde Venen,Utrecht,VBO,5.002989,52.239889
Rijksstraatweg,113,B,,1396JH,Baambrugge,De Ronde Venen,Utrecht,VBO,5.003469,52.239803
Rijksstraatweg,113,,,1396JH,Baambrugge,De Ronde Venen,Utrecht,VBO,5.002422,52.240195
Rijksstraatweg,115,A,,1396JH,Baambrugge,De Ronde Venen,Utrecht,VBO,5.003494,52.239152
Rijksstraatweg,115,B,,1396JH,Baambrugge,De Ronde Venen,Utrecht,VBO,5.003112,52.239587
Rijksstraatweg,115,,,1396JH,Baambrugge,De Ronde Venen,Utrecht,VBO,5.003307,52.239561
Rijksstraatweg,117,A,,1396JJ,Baambrugge,De Ronde Venen,Utrecht,VBO,5.003471,52.238766
Rijksstraatweg,117,,,1396JJ,Baambrugge,De Ronde Venen,Utrecht,VBO,5.003336,52.238815
Rijksstraatweg,119,,,1396JJ,Baambrugge,De Ronde Venen,Utrecht,VBO,5.003414,52.238039
Rijksstraatweg,121,A,,1396JJ,Baambrugge,De Ronde Venen,Utrecht,VBO,5.002889,52.237136
Rijksstraatweg,121,B,,1396JJ,Baambrugge,De Ronde Venen,Utrecht,VBO,5.003207,52.237469
Rijksstraatweg,121,,,1396JJ,Baambrugge,De Ronde Venen,Utrecht,VBO,5.003011,52.237169
Rijksstraatweg,123,,,1396JJ,Baambrugge,De Ronde Venen,Utrecht,VBO,5.003043,52.237069
Rijksstraatweg,125,,,1396JJ,Baambrugge,De Ronde Venen,Utrecht,VBO,5.002045,52.236946
Rijksstraatweg,127,,,1396JJ,Baambrugge,De Ronde Venen,Utrecht,VBO,5.000879,52.236790
Rijksstraatweg,129,A,,1396JJ,Baambrugge,De Ronde Venen,Utrecht,VBO,5.000536,52.236518
Rijksstraatweg,129,,,1396JJ,Baambrugge,De Ronde Venen,Utrecht,VBO,5.000444,52.236617
Rijksstraatweg,131,,,1396JJ,Baambrugge,De Ronde Venen,Utrecht,VBO,4.999386,52.235781
Rijksstraatweg,133,,,1396JJ,Baambrugge,De Ronde Venen,Utrecht,VBO,4.999387,52.235830
Rijksstraatweg,135,A,,1396JK,Baambrugge,De Ronde Venen,Utrecht,VBO,4.993697,52.235295
Rijksstraatweg,135,,,1396JK,Baambrugge,De Ronde Venen,Utrecht,VBO,4.995006,52.235607
Rijksstraatweg,137,,,1396JK,Baambrugge,De Ronde Venen,Utrecht,VBO,4.992696,52.234807
Rijksstraatweg,139,,,1396JK,Baambrugge,De Ronde Venen,Utrecht,VBO,4.992707,52.234265
Rijksstraatweg,141,,,1396JK,Baambrugge,De Ronde Venen,Utrecht,VBO,4.994551,52.234266
Rijksstraatweg,143,,,1396JK,Baambrugge,De Ronde Venen,Utrecht,VBO,4.994911,52.233979
Rijksstraatweg,145,,,1396JK,Baambrugge,De Ronde Venen,Utrecht,VBO,4.994936,52.233900
Rijksstraatweg,147,,,1396JK,Baambrugge,De Ronde Venen,Utrecht,VBO,4.994935,52.232800
Rijksstraatweg,151,,,1396JK,Baambrugge,De Ronde Venen,Utrecht,VBO,4.995238,52.232667
Rijksstraatweg,153,A,,1396JK,Baambrugge,De Ronde Venen,Utrecht,VBO,4.997512,52.231644
Rijksstraatweg,153,,,1396JK,Baambrugge,De Ronde Venen,Utrecht,VBO,4.997408,52.231898
Rijksstraatweg,155,A,,1396JK,Baambrugge,De Ronde Venen,Utrecht,VBO,4.998509,52.231517
Rijksstraatweg,155,,,1396JK,Baambrugge,De Ronde Venen,Utrecht,VBO,4.997514,52.231516
Rijksstraatweg,157,,,1396JK,Baambrugge,De Ronde Venen,Utrecht,VBO,4.997702,52.231145
Rijksstraatweg,159,,,1396JK,Baambrugge,De Ronde Venen,Utrecht,VBO,4.997790,52.231069
Rijksstraatweg,163,,,1396JK,Baambrugge,De Ronde Venen,Utrecht,VBO,4.998104,52.230973
Rijksstraatweg,2,,,1396JL,Baambrugge,De Ronde Venen,Utrecht,VBO,4.986218,52.258438
Rijksstraatweg,4,,,1396JL,Baambrugge,De Ronde Venen,Utrecht,VBO,4.989564,52.256977
Rijksstraatweg,6,A,,1396JL,Baambrugge,De Ronde Venen,Utrecht,VBO,4.990943,52.256309
Rijksstraatweg,6,B,,1396JL,Baambrugge,De Ronde Venen,Utrecht,VBO,4.990901,52.256160
Rijksstraatweg,8,,,1396JL,Baambrugge,De Ronde Venen,Utrecht,VBO,4.992404,52.252782
Rijksstraatweg,10,,,1396JL,Baambrugge,De Ronde Venen,Utrecht,VBO,4.992505,52.252908
Rijksstraatweg,12,,,1396JM,Baambrugge,De Ronde Venen,Utrecht,VBO,4.993214,52.249904
Rijksstraatweg,14,,,1396JM,Baambrugge,De Ronde Venen,Utrecht,VBO,4.993135,52.249858
Rijksstraatweg,18,,,1396JM,Baambrugge,De Ronde Venen,Utrecht,VBO,4.992686,52.249640
Rijksstraatweg,20,,,1396JM,Baambrugge,De Ronde Venen,Utrecht,VBO,4.992244,52.249297
Rijksstraatweg,22,,,1396JM,Baambrugge,De Ronde Venen,Utrecht,VBO,4.992188,52.249249
Rijksstraatweg,24,,,1396JM,Baambrugge,De Ronde Venen,Utrecht,VBO,4.992100,52.249155
Rijksstraatweg,26,,,1396JM,Baambrugge,De Ronde Venen,Utrecht,VBO,4.992032,52.249102
Rijksstraatweg,28,,,1396JM,Baambrugge,De Ronde Venen,Utrecht,VBO,4.991967,52.249043
Rijksstraatweg,30,,,1396JM,Baambrugge,De Ronde Venen,Utrecht,VBO,4.991849,52.248985
Rijksstraatweg,32,,,1396JM,Baambrugge,De Ronde Venen,Utrecht,VBO,4.991825,52.248925
Rijksstraatweg,34,A,,1396JM,Baambrugge,De Ronde Venen,Utrecht,VBO,4.991698,52.248795
Rijksstraatweg,34,,,1396JM,Baambrugge,De Ronde Venen,Utrecht,VBO,4.991755,52.248854
Rijksstraatweg,36,,,1396JM,Baambrugge,De Ronde Venen,Utrecht,VBO,4.989494,52.247386
Rijksstraatweg,38,,,1396JM,Baambrugge,De Ronde Venen,Utrecht,VBO,4.990042,52.247186
Rijksstraatweg,40,,,1396JM,Baambrugge,De Ronde Venen,Utrecht,VBO,4.989876,52.247031
C. Pieter van der Leestraat,1,,,1396JP,Baambrugge,De Ronde Venen,Utrecht,VBO,4.991245,52.246599
C. Pieter van der Leestraat,3,,,1396JP,Baambrugge,De Ronde Venen,Utrecht,VBO,4.991333,52.246629
C. Pieter van der Leestraat,5,,,1396JP,Baambrugge,De Ronde Venen,Utrecht,VBO,4.991423,52.246645
C. Pieter van der Leestraat,6,,,1396JP,Baambrugge,De Ronde Venen,Utrecht,VBO,4.991635,52.246420
C. Pieter van der Leestraat,7,,,1396JP,Baambrugge,De Ronde Venen,Utrecht,VBO,4.991483,52.246667
C. Pieter van der Leestraat,8,,,1396JP,Baambrugge,De Ronde Venen,Utrecht,VBO,4.991804,52.246495
C. Pieter van der Leestraat,9,,,1396JP,Baambrugge,De Ronde Venen,Utrecht,VBO,4.991626,52.246728
C. Pieter van der Leestraat,10,,,1396JP,Baambrugge,De Ronde Venen,Utrecht,VBO,4.991908,52.246526
C. Pieter van der Leestraat,11,,,1396JP,Baambrugge,De Ronde Venen,Utrecht,VBO,4.991717,52.246764
C. Pieter van der Leestraat,12,,,1396JP,Baambrugge,De Ronde Venen,Utrecht,VBO,4.991989,52.246557
C. Pieter van der Leestraat,14,,,1396JP,Baambrugge,De Ronde Venen,Utrecht,VBO,4.992063,52.246583
C. Pieter van der Leestraat,16,,,1396JP,Baambrugge,De Ronde Venen,Utrecht,VBO,4.992138,52.246611
C. Pieter van der Leestraat,18,,,1396JP,Baambrugge,De Ronde Venen,Utrecht,VBO,4.992210,52.246632
C. Pieter van der Leestraat,20,,,1396JP,Baambrugge,De Ronde Venen,Utrecht,VBO,4.992367,52.246685
C. Pieter van der Leestraat,22,,,1396JP,Baambrugge,De Ronde Venen,Utrecht,VBO,4.992442,52.246707
C. Pieter van der Leestraat,24,,,1396JP,Baambrugge,De Ronde Venen,Utrecht,VBO,4.992525,52.246728
C. Pieter van der Leestraat,26,,,1396JP,Baambrugge,De Ronde Venen,Utrecht,VBO,4.992606,52.246749
C. Pieter van der Leestraat,28,,,1396JP,Baambrugge,De Ronde Venen,Utrecht,VBO,4.992762,52.246767
C. Pieter van der Leestraat,30,,,1396JP,Baambrugge,De Ronde Venen,Utrecht,VBO,4.992862,52.246810
C. Pieter van der Leestraat,32,,,1396JP,Baambrugge,De Ronde Venen,Utrecht,VBO,4.992917,52.246822
C. Pieter van der Leestraat,34,,,1396JP,Baambrugge,De Ronde Venen,Utrecht,VBO,4.993122,52.246891
C. Pieter van der Leestraat,36,,,1396JP,Baambrugge,De Ronde Venen,Utrecht,VBO,4.993566,52.246986
C. Pieter van der Leestraat,38,,,1396JP,Baambrugge,De Ronde Venen,Utrecht,VBO,4.993977,52.247133
C. Pieter van der Leestraat,40,,,1396JP,Baambrugge,De Ronde Venen,Utrecht,VBO,4.994233,52.247248
W. Baron Straalmanstraat,1,,,1396JR,Baambrugge,De Ronde Venen,Utrecht,VBO,4.991552,52.246883
W. Baron Straalmanstraat,2,,,1396JR,Baambrugge,De Ronde Venen,Utrecht,VBO,4.992049,52.246815
W. Baron Straalmanstraat,3,,,1396JR,Baambrugge,De Ronde Venen,Utrecht,VBO,4.991497,52.246952
W. Baron Straalmanstraat,4,,,1396JR,Baambrugge,De Ronde Venen,Utrecht,VBO,4.991988,52.246870
W. Baron Straalmanstraat,5,,,1396JR,Baambrugge,De Ronde Venen,Utrecht,VBO,4.991442,52.247007
W. Baron Straalmanstraat,6,,,1396JR,Baambrugge,De Ronde Venen,Utrecht,VBO,4.991950,52.246916
W. Baron Straalmanstraat,7,,,1396JR,Baambrugge,De Ronde Venen,Utrecht,VBO,4.991384,52.247055
W. Baron Straalmanstraat,8,,,1396JR,Baambrugge,De Ronde Venen,Utrecht,VBO,4.991906,52.246963
W. Baron Straalmanstraat,9,,,1396JR,Baambrugge,De Ronde Venen,Utrecht,VBO,4.991315,52.247125
W. Baron Straalmanstraat,10,,,1396JR,Baambrugge,De Ronde Venen,Utrecht,VBO,4.991818,52.247049
W. Baron Straalmanstraat,11,,,1396JR,Baambrugge,De Ronde Venen,Utrecht,VBO,4.991247,52.247194
W. Baron Straalmanstraat,12,,,1396JR,Baambrugge,De Ronde Venen,Utrecht,VBO,4.991756,52.247093
Groeneveltstraat,2,,,1396JS,Baambrugge,De Ronde Venen,Utrecht,VBO,4.991652,52.247235
Groeneveltstraat,4,,,1396JS,Baambrugge,De Ronde Venen,Utrecht,VBO,4.991726,52.247264
Groeneveltstraat,6,,,1396JS,Baambrugge,De Ronde Venen,Utrecht,VBO,4.991827,52.247285
Groeneveltstraat,8,,,1396JS,Baambrugge,De Ronde Venen,Utrecht,VBO,4.991893,52.247325
Groeneveltstraat,10,,,1396JS,Baambrugge,De Ronde Venen,Utrecht,VBO,4.991989,52.247349
C.P. de Grootstraat,1,,,1396JT,Baambrugge,De Ronde Venen,Utrecht,VBO,4.992360,52.246930
C.P. de Grootstraat,2,,,1396JT,Baambrugge,De Ronde Venen,Utrecht,VBO,4.992667,52.247048
C.P. de Grootstraat,3,,,1396JT,Baambrugge,De Ronde Venen,Utrecht,VBO,4.992326,52.246997
C.P. de Grootstraat,4,,,1396JT,Baambrugge,De Ronde Venen,Utrecht,VBO,4.992630,52.247091
C.P. de Grootstraat,5,,,1396JT,Baambrugge,De Ronde Venen,Utrecht,VBO,4.992288,52.247058
C.P. de Grootstraat,6,,,1396JT,Baambrugge,De Ronde Venen,Utrecht,VBO,4.992570,52.247161
C.P. de Grootstraat,7,,,1396JT,Baambrugge,De Ronde Venen,Utrecht,VBO,4.992238,52.247112
C.P. de Grootstraat,8,,,1396JT,Baambrugge,De Ronde Venen,Utrecht,VBO,4.992525,52.247209
C.P. de Grootstraat,9,,,1396JT,Baambrugge,De Ronde Venen,Utrecht,VBO,4.992188,52.247166
C.P. de Grootstraat,10,,,1396JT,Baambrugge,De Ronde Venen,Utrecht,VBO,4.992452,52.247294
C.P. de Grootstraat,11,,,1396JT,Baambrugge,De Ronde Venen,Utrecht,VBO,4.992145,52.247198
C.P. de Grootstraat,12,,,1396JT,Baambrugge,De Ronde Venen,Utrecht,VBO,4.992407,52.247361
C.P. de Grootstraat,14,,,1396JT,Baambrugge,De Ronde Venen,Utrecht,VBO,4.992307,52.247439
C.P. de Grootstraat,16,,,1396JT,Baambrugge,De Ronde Venen,Utrecht,VBO,4.992250,52.247510
Brugstraat,1,A,,1396JV,Baambrugge,De Ronde Venen,Utrecht,VBO,4.989984,52.246517
Brugstraat,1,,,1396JV,Baambrugge,De Ronde Venen,Utrecht,VBO,4.989918,52.246485
Brugstraat,2,,,1396JV,Baambrugge,De Ronde Venen,Utrecht,VBO,4.990099,52.246390
Brugstraat,3,,,1396JV,Baambrugge,De Ronde Venen,Utrecht,VBO,4.990037,52.246563
Brugstraat,4,,,1396JV,Baambrugge,De Ronde Venen,Utrecht,VBO,4.990152,52.246439
Brugstraat,6,A,,1396JV,Baambrugge,De Ronde Venen,Utrecht,VBO,4.990260,52.246484
Brugstraat,6,B,,1396JV,Baambrugge,De Ronde Venen,Utrecht,VBO,4.990235,52.246461
Brugstraat,6,,,1396JV,Baambrugge,De Ronde Venen,Utrecht,VBO,4.990211,52.246485
Prinses Margrietstraat,1,,,1396JW,Baambrugge,De Ronde Venen,Utrecht,VBO,4.988407,52.245859
Prinses Margrietstraat,3,,,1396JW,Baambrugge,De Ronde Venen,Utrecht,VBO,4.988328,52.245843
Prinses Margrietstraat,5,,,1396JW,Baambrugge,De Ronde Venen,Utrecht,VBO,4.988260,52.245804
Prinses Margrietstraat,7,,,1396JW,Baambrugge,De Ronde Venen,Utrecht,VBO,4.988182,52.245782
Prinses Margrietstraat,9,,,1396JW,Baambrugge,De Ronde Venen,Utrecht,VBO,4.988113,52.245750
Prinses Margrietstraat,11,,,1396JW,Baambrugge,De Ronde Venen,Utrecht,VBO,4.988001,52.245701
Prinses Margrietstraat,13,,,1396JW,Baambrugge,De Ronde Venen,Utrecht,VBO,4.988312,52.245608
Prinses Margrietstraat,15,,,1396JW,Baambrugge,De Ronde Venen,Utrecht,VBO,4.988373,52.245570
Prinses Margrietstraat,17,,,1396JW,Baambrugge,De Ronde Venen,Utrecht,VBO,4.988424,52.245522
Prinses Margrietstraat,19,,,1396JW,Baambrugge,De Ronde Venen,Utrecht,VBO,4.988475,52.245475
Prinses Margrietstraat,21,,,1396JW,Baambrugge,De Ronde Venen,Utrecht,VBO,4.988526,52.245428
Prinses Margrietstraat,23,,,1396JW,Baambrugge,De Ronde Venen,Utrecht,VBO,4.988567,52.245360
Prinses Margrietstraat,25,,,1396JW,Baambrugge,De Ronde Venen,Utrecht,VBO,4.987932,52.245382
Prinses Margrietstraat,27,,,1396JW,Baambrugge,De Ronde Venen,Utrecht,VBO,4.987959,52.245432
Prinses Margrietstraat,29,,,1396JW,Baambrugge,De Ronde Venen,Utrecht,VBO,4.987918,52.245469
Prinses Margrietstraat,31,,,1396JW,Baambrugge,De Ronde Venen,Utrecht,VBO,4.987837,52.245492
Prinses Margrietstraat,33,,,1396JW,Baambrugge,De Ronde Venen,Utrecht,VBO,4.987804,52.245532
Prinses Margrietstraat,35,,,1396JW,Baambrugge,De Ronde Venen,Utrecht,VBO,4.987728,52.245569
Prinses Margrietstraat,37,,,1396JW,Baambrugge,De Ronde Venen,Utrecht,VBO,4.987495,52.245502
Prinses Margrietstraat,39,,,1396JW,Baambrugge,De Ronde Venen,Utrecht,VBO,4.987427,52.245480
Prinses Margrietstraat,41,,,1396JW,Baambrugge,De Ronde Venen,Utrecht,VBO,4.987350,52.245456
Prinses Margrietstraat,43,,,1396JW,Baambrugge,De Ronde Venen,Utrecht,VBO,4.987263,52.245409
Prinses Margrietstraat,2,,,1396JX,Baambrugge,De Ronde Venen,Utrecht,VBO,4.988669,52.246362
Prinses Margrietstraat,10,A,,1396JX,Baambrugge,De Ronde Venen,Utrecht,VBO,4.987885,52.246169
Prinses Margrietstraat,10,,,1396JX,Baambrugge,De Ronde Venen,Utrecht,VBO,4.987738,52.245987
Prinses Margrietstraat,12,,,1396JX,Baambrugge,De Ronde Venen,Utrecht,VBO,4.987184,52.245717
Prinses Margrietstraat,14,,,1396JX,Baambrugge,De Ronde Venen,Utrecht,VBO,4.987158,52.245772
Prinses Margrietstraat,16,,,1396JX,Baambrugge,De Ronde Venen,Utrecht,VBO,4.987107,52.245818
Prinses Margrietstraat,18,,,1396JX,Baambrugge,De Ronde Venen,Utrecht,VBO,4.987057,52.245863
Prinses Margrietstraat,20,,,1396JX,Baambrugge,De Ronde Venen,Utrecht,VBO,4.987006,52.245908
Prinses Margrietstraat,22,,,1396JX,Baambrugge,De Ronde Venen,Utrecht,VBO,4.986959,52.245953
Prinses Margrietstraat,24,,,1396JX,Baambrugge,De Ronde Venen,Utrecht,VBO,4.986980,52.245628
Prinses Margrietstraat,26,,,1396JX,Baambrugge,De Ronde Venen,Utrecht,VBO,4.986938,52.245607
Prinses Margrietstraat,28,,,1396JX,Baambrugge,De Ronde Venen,Utrecht,VBO,4.986859,52.245574
Prinses Margrietstraat,30,,,1396JX,Baambrugge,De Ronde Venen,Utrecht,VBO,4.986760,52.245538
Prins Mauritsstraat,2,,,1396JZ,Baambrugge,De Ronde Venen,Utrecht,VBO,4.988716,52.245759
Prins Mauritsstraat,4,,,1396JZ,Baambrugge,De Ronde Venen,Utrecht,VBO,4.988618,52.245703
Prins Mauritsstraat,5,,,1396JZ,Baambrugge,De Ronde Venen,Utrecht,VBO,4.989871,52.245661
Prins Mauritsstraat,6,,,1396JZ,Baambrugge,De Ronde Venen,Utrecht,VBO,4.989015,52.245635
Prins Mauritsstraat,7,,,1396JZ,Baambrugge,De Ronde Venen,Utrecht,VBO,4.989755,52.245537
Prins Mauritsstraat,8,,,1396JZ,Baambrugge,De Ronde Venen,Utrecht,VBO,4.989176,52.245622
Prins Mauritsstraat,10,,,1396JZ,Baambrugge,De Ronde Venen,Utrecht,VBO,4.989221,52.245578
Prins Mauritsstraat,12,,,1396JZ,Baambrugge,De Ronde Venen,Utrecht,VBO,4.989250,52.245518
Prins Mauritsstraat,14,,,1396JZ,Baambrugge,De Ronde Venen,Utrecht,VBO,4.988896,52.245389
Prins Mauritsstraat,16,,,1396JZ,Baambrugge,De Ronde Venen,Utrecht,VBO,4.988855,52.245444
Prins Mauritsstraat,18,,,1396JZ,Baambrugge,De Ronde Venen,Utrecht,VBO,4.988805,52.245482
Prins Mauritsstraat,20,,,1396JZ,Baambrugge,De Ronde Venen,Utrecht,VBO,4.988754,52.245529
Prins Johan Frisostraat,11,,,1396KA,Baambrugge,De Ronde Venen,Utrecht,VBO,4.987549,52.246509
Prins Johan Frisostraat,13,,,1396KA,Baambrugge,De Ronde Venen,Utrecht,VBO,4.987495,52.246491
Prins Johan Frisostraat,15,,,1396KA,Baambrugge,De Ronde Venen,Utrecht,VBO,4.987394,52.246450
Prins Johan Frisostraat,17,,,1396KA,Baambrugge,De Ronde Venen,Utrecht,VBO,4.987298,52.246427
Prins Johan Frisostraat,19,,,1396KA,Baambrugge,De Ronde Venen,Utrecht,VBO,4.987196,52.246367
Prins Johan Frisostraat,21,,,1396KA,Baambrugge,De Ronde Venen,Utrecht,VBO,4.986663,52.246067
Prins Johan Frisostraat,23,,,1396KA,Baambrugge,De Ronde Venen,Utrecht,VBO,4.986582,52.246053
Prins Johan Frisostraat,25,,,1396KA,Baambrugge,De Ronde Venen,Utrecht,VBO,4.986527,52.246013
Prins Johan Frisostraat,27,,,1396KA,Baambrugge,De Ronde Venen,Utrecht,VBO,4.986429,52.245968
Prins Johan Frisostraat,29,,,1396KA,Baambrugge,De Ronde Venen,Utrecht,VBO,4.986334,52.245933
Prins Johan Frisostraat,2,,,1396KB,Baambrugge,De Ronde Venen,Utrecht,VBO,4.988434,52.246274
Prins Johan Frisostraat,4,,,1396KB,Baambrugge,De Ronde Venen,Utrecht,VBO,4.988342,52.246342
Prins Johan Frisostraat,6,,,1396KB,Baambrugge,De Ronde Venen,Utrecht,VBO,4.988196,52.246424
Prins Johan Frisostraat,8,,,1396KB,Baambrugge,De Ronde Venen,Utrecht,VBO,4.988128,52.246483
Prins Johan Frisostraat,12,,,1396KB,Baambrugge,De Ronde Venen,Utrecht,VBO,4.987976,52.246569
Prins Johan Frisostraat,14,,,1396KB,Baambrugge,De Ronde Venen,Utrecht,VBO,4.987906,52.246616
Prins Johan Frisostraat,16,,,1396KB,Baambrugge,De Ronde Venen,Utrecht,VBO,4.987842,52.246666
Prins Johan Frisostraat,18,,,1396KB,Baambrugge,De Ronde Venen,Utrecht,VBO,4.987790,52.246708
Prins Johan Frisostraat,20,,,1396KB,Baambrugge,De Ronde Venen,Utrecht,VBO,4.987500,52.246771
Prins Johan Frisostraat,22,,,1396KB,Baambrugge,De Ronde Venen,Utrecht,VBO,4.987438,52.246746
Prins Johan Frisostraat,24,,,1396KB,Baambrugge,De Ronde Venen,Utrecht,VBO,4.987352,52.246708
Prins Johan Frisostraat,26,,,1396KB,Baambrugge,De Ronde Venen,Utrecht,VBO,4.987240,52.246676
Prins Johan Frisostraat,28,,,1396KB,Baambrugge,De Ronde Venen,Utrecht,VBO,4.987143,52.246644
Prins Johan Frisostraat,30,,,1396KB,Baambrugge,De Ronde Venen,Utrecht,VBO,4.987028,52.246573
Prins Johan Frisostraat,32,,,1396KB,Baambrugge,De Ronde Venen,Utrecht,VBO,4.986917,52.246539
Prins Johan Frisostraat,34,,,1396KB,Baambrugge,De Ronde Venen,Utrecht,VBO,4.986849,52.246510
Prins Johan Frisostraat,36,,,1396KB,Baambrugge,De Ronde Venen,Utrecht,VBO,4.986777,52.246478
Prins Johan Frisostraat,38,,,1396KB,Baambrugge,De Ronde Venen,Utrecht,VBO,4.986666,52.246446
Prins Johan Frisostraat,40,,,1396KB,Baambrugge,De Ronde Venen,Utrecht,VBO,4.986414,52.246279
Prins Johan Frisostraat,42,,,1396KB,Baambrugge,De Ronde Venen,Utrecht,VBO,4.986366,52.246339
Prins Johan Frisostraat,44,,,1396KB,Baambrugge,De Ronde Venen,Utrecht,VBO,4.986315,52.246386
Prins Johan Frisostraat,46,,,1396KB,Baambrugge,De Ronde Venen,Utrecht,VBO,4.986241,52.246448
Prins Willem-Alexanderstraat,1,,,1396KC,Baambrugge,De Ronde Venen,Utrecht,VBO,4.985815,52.246258
Prins Willem-Alexanderstraat,2,,,1396KC,Baambrugge,De Ronde Venen,Utrecht,VBO,4.984578,52.246287
Prins Willem-Alexanderstraat,3,,,1396KC,Baambrugge,De Ronde Venen,Utrecht,VBO,4.985849,52.246200
Prins Willem-Alexanderstraat,4,,,1396KC,Baambrugge,De Ronde Venen,Utrecht,VBO,4.984759,52.246106
Prins Willem-Alexanderstraat,5,,,1396KC,Baambrugge,De Ronde Venen,Utrecht,VBO,4.985916,52.246141
Prins Willem-Alexanderstraat,6,,,1396KC,Baambrugge,De Ronde Venen,Utrecht,VBO,4.985441,52.246111
Prins Willem-Alexanderstraat,7,,,1396KC,Baambrugge,De Ronde Venen,Utrecht,VBO,4.985988,52.246095
Prins Willem-Alexanderstraat,8,,,1396KC,Baambrugge,De Ronde Venen,Utrecht,VBO,4.985559,52.246002
Prins Willem-Alexanderstraat,9,,,1396KC,Baambrugge,De Ronde Venen,Utrecht,VBO,4.986569,52.245800
Prins Willem-Alexanderstraat,10,,,1396KC,Baambrugge,De Ronde Venen,Utrecht,VBO,4.985668,52.245894
Prins Willem-Alexanderstraat,11,,,1396KC,Baambrugge,De Ronde Venen,Utrecht,VBO,4.986589,52.245756
Prins Willem-Alexanderstraat,12,,,1396KC,Baambrugge,De Ronde Venen,Utrecht,VBO,4.985793,52.245780
Prins Willem-Alexanderstraat,13,,,1396KC,Baambrugge,De Ronde Venen,Utrecht,VBO,4.986641,52.245716
Prins Willem-Alexanderstraat,14,,,1396KC,Baambrugge,De Ronde Venen,Utrecht,VBO,4.986129,52.245732
Prins Willem-Alexanderstraat,16,,,1396KC,Baambrugge,De Ronde Venen,Utrecht,VBO,4.986202,52.245599
Prins Willem-Alexanderstraat,18,,,1396KC,Baambrugge,De Ronde Venen,Utrecht,VBO,4.986325,52.245530
Prins Willem-Alexanderstraat,20,,,1396KC,Baambrugge,De Ronde Venen,Utrecht,VBO,4.986388,52.245476
Prins Willem-Alexanderstraat,22,,,1396KC,Baambrugge,De Ronde Venen,Utrecht,VBO,4.986451,52.245422
Prins Willem-Alexanderstraat,24,,,1396KC,Baambrugge,De Ronde Venen,Utrecht,VBO,4.986487,52.245364
Prinses Beatrixstraat,7,,,1396KD,Baambrugge,De Ronde Venen,Utrecht,VBO,4.987287,52.247109
Prinses Beatrixstraat,9,,,1396KD,Baambrugge,De Ronde Venen,Utrecht,VBO,4.987189,52.247101
Prinses Beatrixstraat,11,,,1396KD,Baambrugge,De Ronde Venen,Utrecht,VBO,4.987118,52.247046
Prinses Beatrixstraat,13,,,1396KD,Baambrugge,De Ronde Venen,Utrecht,VBO,4.986958,52.246976
Prinses Beatrixstraat,15,,,1396KD,Baambrugge,De Ronde Venen,Utrecht,VBO,4.986861,52.246939
Prinses Beatrixstraat,17,,,1396KD,Baambrugge,De Ronde Venen,Utrecht,VBO,4.986711,52.246870
Prinses Beatrixstraat,19,,,1396KD,Baambrugge,De Ronde Venen,Utrecht,VBO,4.986621,52.246839
Prinses Beatrixstraat,21,,,1396KD,Baambrugge,De Ronde Venen,Utrecht,VBO,4.986461,52.246770
Prinses Beatrixstraat,23,,,1396KD,Baambrugge,De Ronde Venen,Utrecht,VBO,4.986366,52.246765
Prinses Beatrixstraat,25,,,1396KD,Baambrugge,De Ronde Venen,Utrecht,VBO,4.986307,52.246720
Prinses Beatrixstraat,27,,,1396KD,Baambrugge,De Ronde Venen,Utrecht,VBO,4.986045,52.246603
Prinses Beatrixstraat,29,,,1396KD,Baambrugge,De Ronde Venen,Utrecht,VBO,4.985913,52.246575
Prinses Beatrixstraat,31,,,1396KD,Baambrugge,De Ronde Venen,Utrecht,VBO,4.985863,52.246528
Prinses Beatrixstraat,33,,,1396KD,Baambrugge,De Ronde Venen,Utrecht,VBO,4.985700,52.246456
Prinses Beatrixstraat,35,,,1396KD,Baambrugge,De Ronde Venen,Utrecht,VBO,4.985600,52.246418
Prinses Beatrixstraat,8,,,1396KE,Baambrugge,De Ronde Venen,Utrecht,VBO,4.986836,52.247282
Prinses Beatrixstraat,10,,,1396KE,Baambrugge,De Ronde Venen,Utrecht,VBO,4.986630,52.247184
Prinses Beatrixstraat,12,,,1396KE,Baambrugge,De Ronde Venen,Utrecht,VBO,4.986528,52.247148
Prinses Beatrixstraat,14,,,1396KE,Baambrugge,De Ronde Venen,Utrecht,VBO,4.986386,52.247082
Prinses Beatrixstraat,16,,,1396KE,Baambrugge,De Ronde Venen,Utrecht,VBO,4.986285,52.247048
Prinses Beatrixstraat,18,,,1396KE,Baambrugge,De Ronde Venen,Utrecht,VBO,4.986138,52.246981
Prinses Beatrixstraat,20,,,1396KE,Baambrugge,De Ronde Venen,Utrecht,VBO,4.986045,52.246949
Prinses Beatrixstraat,22,,,1396KE,Baambrugge,De Ronde Venen,Utrecht,VBO,4.985895,52.246881
Prinses Beatrixstraat,24,,,1396KE,Baambrugge,De Ronde Venen,Utrecht,VBO,4.985803,52.246847
Prinses Beatrixstraat,26,,,1396KE,Baambrugge,De Ronde Venen,Utrecht,VBO,4.985554,52.246725
Prinses Beatrixstraat,28,,,1396KE,Baambrugge,De Ronde Venen,Utrecht,VBO,4.985459,52.246687
Prinses Beatrixstraat,30,,,1396KE,Baambrugge,De Ronde Venen,Utrecht,VBO,4.985301,52.246624
Prinses Beatrixstraat,32,,,1396KE,Baambrugge,De Ronde Venen,Utrecht,VBO,4.985214,52.246588
Dorpsstraat,1,,,1396KG,Baambrugge,De Ronde Venen,Utrecht,VBO,4.990196,52.246318
Dorpsstraat,3,,,1396KG,Baambrugge,De Ronde Venen,Utrecht,VBO,4.990273,52.246260
Dorpsstraat,5,,,1396KG,Baambrugge,De Ronde Venen,Utrecht,VBO,4.990324,52.246214
Dorpsstraat,9,,,1396KG,Baambrugge,De Ronde Venen,Utrecht,VBO,4.990518,52.246299
Dorpsstraat,11,,,1396KG,Baambrugge,De Ronde Venen,Utrecht,VBO,4.990586,52.246325
Dorpsstraat,15,,,1396KG,Baambrugge,De Ronde Venen,Utrecht,VBO,4.990460,52.246078
Dorpsstraat,17,,,1396KG,Baambrugge,De Ronde Venen,Utrecht,VBO,4.990514,52.246019
Dorpsstraat,23,,,1396KG,Baambrugge,De Ronde Venen,Utrecht,VBO,4.990658,52.245879
Dorpsstraat,27,,,1396KG,Baambrugge,De Ronde Venen,Utrecht,VBO,4.990805,52.245740
Dorpsstraat,29,,,1396KH,Baambrugge,De Ronde Venen,Utrecht,VBO,4.990857,52.245669
Dorpsstraat,31,,,1396KH,Baambrugge,De Ronde Venen,Utrecht,VBO,4.990922,52.245588
Dorpsstraat,33,,,1396KH,Baambrugge,De Ronde Venen,Utrecht,VBO,4.990962,52.245533
Dorpsstraat,35,,,1396KH,Baambrugge,De Ronde Venen,Utrecht,VBO,4.991035,52.245472
Dorpsstraat,39,,,1396KH,Baambrugge,De Ronde Venen,Utrecht,VBO,4.991072,52.245384
Dorpsstraat,41,,,1396KH,Baambrugge,De Ronde Venen,Utrecht,VBO,4.991231,52.245288
Dorpsstraat,43,,,1396KH,Baambrugge,De Ronde Venen,Utrecht,VBO,4.991200,52.245145
Dorpsstraat,45,,,1396KH,Baambrugge,De Ronde Venen,Utrecht,VBO,4.991250,52.245074
Dorpsstraat,2,,,1396KJ,Baambrugge,De Ronde Venen,Utrecht,VBO,4.989916,52.246285
Dorpsstraat,4,,,1396KJ,Baambrugge,De Ronde Venen,Utrecht,VBO,4.989326,52.245963
Dorpsstraat,6,,,1396KJ,Baambrugge,De Ronde Venen,Utrecht,VBO,4.990004,52.246030
Dorpsstraat,8,,,1396KJ,Baambrugge,De Ronde Venen,Utrecht,VBO,4.989893,52.245985
Dorpsstraat,10,,,1396KJ,Baambrugge,De Ronde Venen,Utrecht,VBO,4.990187,52.246103
Dorpsstraat,12,,,1396KJ,Baambrugge,De Ronde Venen,Utrecht,VBO,4.990226,52.246064
Dorpsstraat,14,,,1396KJ,Baambrugge,De Ronde Venen,Utrecht,VBO,4.990309,52.246025
Dorpsstraat,16,,,1396KJ,Baambrugge,De Ronde Venen,Utrecht,VBO,4.990360,52.245809
Dorpsstraat,20,,,1396KJ,Baambrugge,De Ronde Venen,Utrecht,VBO,4.990473,52.245689
Dorpsstraat,22,,,1396KJ,Baambrugge,De Ronde Venen,Utrecht,VBO,4.990578,52.245717
Dorpsstraat,24,,,1396KJ,Baambrugge,De Ronde Venen,Utrecht,VBO,4.990653,52.245640
Dorpsstraat,28,,,1396KK,Baambrugge,De Ronde Venen,Utrecht,VBO,4.990797,52.245504
Dorpsstraat,34,,,1396KK,Baambrugge,De Ronde Venen,Utrecht,VBO,4.990803,52.245347
Dorpsstraat,36,,,1396KK,Baambrugge,De Ronde Venen,Utrecht,VBO,4.990921,52.245272
Zuwe,1,A,,1396KL,Baambrugge,De Ronde Venen,Utrecht,VBO,4.990696,52.245460
Zuwe,1,,,1396KL,Baambrugge,De Ronde Venen,Utrecht,VBO,4.990615,52.245425
Zuwe,3,,,1396KL,Baambrugge,De Ronde Venen,Utrecht,VBO,4.990529,52.245389
Zuwe,5,,,1396KL,Baambrugge,De Ronde Venen,Utrecht,VBO,4.990440,52.245347
Zuwe,6,,,1396KL,Baambrugge,De Ronde Venen,Utrecht,VBO,4.990234,52.245429
Zuwe,7,,,1396KL,Baambrugge,De Ronde Venen,Utrecht,VBO,4.990334,52.245305
Zuwe,8,,,1396KL,Baambrugge,De Ronde Venen,Utrecht,VBO,4.990140,52.245395
Zuwe,9,,,1396KL,Baambrugge,De Ronde Venen,Utrecht,VBO,4.990249,52.245274
Zuwe,10,,,1396KL,Baambrugge,De Ronde Venen,Utrecht,VBO,4.989983,52.245337
Zuwe,11,,,1396KL,Baambrugge,De Ronde Venen,Utrecht,VBO,4.990158,52.245242
Zuwe,13,A,,1396KL,Baambrugge,De Ronde Venen,Utrecht,VBO,4.989841,52.245091
Zuwe,13,,,1396KL,Baambrugge,De Ronde Venen,Utrecht,VBO,4.989939,52.245126
Zuwe,15,,,1396KL,Baambrugge,De Ronde Venen,Utrecht,VBO,4.989692,52.245065
Zuwe,17,,,1396KL,Baambrugge,De Ronde Venen,Utrecht,VBO,4.989598,52.245027
Zuwe,19,,,1396KL,Baambrugge,De Ronde Venen,Utrecht,VBO,4.989486,52.244977
Binnenweg,1,,,1396KM,Baambrugge,De Ronde Venen,Utrecht,VBO,4.991525,52.244843
Binnenweg,2,,,1396KM,Baambrugge,De Ronde Venen,Utrecht,VBO,4.990925,52.244994
Binnenweg,4,,,1396KM,Baambrugge,De Ronde Venen,Utrecht,VBO,4.990903,52.244884
Binnenweg,5,,,1396KM,Baambrugge,De Ronde Venen,Utrecht,VBO,4.991745,52.244514
Binnenweg,6,,,1396KM,Baambrugge,De Ronde Venen,Utrecht,VBO,4.991774,52.243824
Binnenweg,7,,,1396KM,Baambrugge,De Ronde Venen,Utrecht,VBO,4.991797,52.244461
Binnenweg,8,,,1396KM,Baambrugge,De Ronde Venen,Utrecht,VBO,4.991787,52.243709
Binnenweg,9,,,1396KM,Baambrugge,De Ronde Venen,Utrecht,VBO,4.991807,52.244407
Binnenweg,10,,,1396KM,Baambrugge,De Ronde Venen,Utrecht,VBO,4.993330,52.242752
Binnenweg,12,,,1396KM,Baambrugge,De Ronde Venen,Utrecht,VBO,4.993157,52.242567
Binnenweg,13,,,1396KM,Baambrugge,De Ronde Venen,Utrecht,VBO,4.992186,52.244157
Binnenweg,14,,,1396KM,Baambrugge,De Ronde Venen,Utrecht,VBO,4.993619,52.242314
Binnenweg,18,A,,1396KM,Baambrugge,De Ronde Venen,Utrecht,VBO,4.994207,52.242066
Binnenweg,18,,,1396KM,Baambrugge,De Ronde Venen,Utrecht,VBO,4.993996,52.242114
Binnenweg,20,,,1396KM,Baambrugge,De Ronde Venen,Utrecht,VBO,4.995732,52.241094
Binnenweg,22,,,1396KM,Baambrugge,De Ronde Venen,Utrecht,VBO,4.996336,52.241106
Binnenweg,24,,,1396KM,Baambrugge,De Ronde Venen,Utrecht,VBO,4.996459,52.240929
Binnenweg,26,,,1396KM,Baambrugge,De Ronde Venen,Utrecht,VBO,4.997663,52.240303
Wethouder van Oostveenstraat,1,,,1396KR,Baambrugge,De Ronde Venen,Utrecht,VBO,4.989453,52.245300
Wethouder van Oostveenstraat,3,,,1396KR,Baambrugge,De Ronde Venen,Utrecht,VBO,4.989387,52.245279
Wethouder van Oostveenstraat,5,,,1396KR,Baambrugge,De Ronde Venen,Utrecht,VBO,4.989320,52.245259
Wethouder van Oostveenstraat,7,,,1396KR,Baambrugge,De Ronde Venen,Utrecht,VBO,4.989252,52.245235
Wethouder van Oostveenstraat,9,,,1396KR,Baambrugge,De Ronde Venen,Utrecht,VBO,4.989169,52.245163
Wethouder van Oostveenstraat,11,,,1396KR,Baambrugge,De Ronde Venen,Utrecht,VBO,4.989110,52.245160
Wethouder van Oostveenstraat,13,,,1396KR,Baambrugge,De Ronde Venen,Utrecht,VBO,4.989043,52.245132
Wethouder van Oostveenstraat,15,,,1396KR,Baambrugge,De Ronde Venen,Utrecht,VBO,4.988964,52.245089
Wethouder van Oostveenstraat,17,,,1396KR,Baambrugge,De Ronde Venen,Utrecht,VBO,4.988708,52.244995
Wethouder van Oostveenstraat,19,,,1396KR,Baambrugge,De Ronde Venen,Utrecht,VBO,4.988669,52.245037
Wethouder van Oostveenstraat,21,,,1396KR,Baambrugge,De Ronde Venen,Utrecht,VBO,4.988621,52.245083
Wethouder van Oostveenstraat,23,,,1396KR,Baambrugge,De Ronde Venen,Utrecht,VBO,4.988575,52.245124
Wethouder van Oostveenstraat,25,,,1396KR,Baambrugge,De Ronde Venen,Utrecht,VBO,4.988200,52.244975
Wethouder van Oostveenstraat,27,,,1396KR,Baambrugge,De Ronde Venen,Utrecht,VBO,4.988255,52.244939
Wethouder van Oostveenstraat,29,,,1396KR,Baambrugge,De Ronde Venen,Utrecht,VBO,4.988330,52.244904
Wethouder van Oostveenstraat,31,,,1396KR,Baambrugge,De Ronde Venen,Utrecht,VBO,4.988342,52.244850
Wethouder van Oostveenstraat,2,,,1396KS,Baambrugge,De Ronde Venen,Utrecht,VBO,4.988150,52.245248
Wethouder van Oostveenstraat,4,,,1396KS,Baambrugge,De Ronde Venen,Utrecht,VBO,4.988111,52.245214
Wethouder van Oostveenstraat,6,,,1396KS,Baambrugge,De Ronde Venen,Utrecht,VBO,4.988057,52.245173
Wethouder van Oostveenstraat,8,,,1396KS,Baambrugge,De Ronde Venen,Utrecht,VBO,4.987955,52.245167
Wethouder van Oostveenstraat,10,,,1396KS,Baambrugge,De Ronde Venen,Utrecht,VBO,4.987703,52.245095
Wethouder van Oostveenstraat,12,,,1396KS,Baambrugge,De Ronde Venen,Utrecht,VBO,4.987660,52.245123
Wethouder van Oostveenstraat,14,,,1396KS,Baambrugge,De Ronde Venen,Utrecht,VBO,4.987629,52.245189
Wethouder van Oostveenstraat,16,,,1396KS,Baambrugge,De Ronde Venen,Utrecht,VBO,4.987558,52.245216
Wethouder van Oostveenstraat,18,,,1396KS,Baambrugge,De Ronde Venen,Utrecht,VBO,4.987509,52.245249
Wethouder van Oostveenstraat,20,,,1396KS,Baambrugge,De Ronde Venen,Utrecht,VBO,4.987461,52.245291
Wethouder van Oostveenstraat,33,,,1396KT,Baambrugge,De Ronde Venen,Utrecht,VBO,4.987982,52.244626
Wethouder van Oostveenstraat,35,,,1396KT,Baambrugge,De Ronde Venen,Utrecht,VBO,4.987954,52.244674
Wethouder van Oostveenstraat,37,,,1396KT,Baambrugge,De Ronde Venen,Utrecht,VBO,4.987907,52.244718
Wethouder van Oostveenstraat,39,,,1396KT,Baambrugge,De Ronde Venen,Utrecht,VBO,4.987847,52.244747
Wethouder van Oostveenstraat,41,,,1396KT,Baambrugge,De Ronde Venen,Utrecht,VBO,4.987795,52.244804
Wethouder van Oostveenstraat,43,,,1396KT,Baambrugge,De Ronde Venen,Utrecht,VBO,4.987679,52.244504
Wethouder van Oostveenstraat,45,,,1396KT,Baambrugge,De Ronde Venen,Utrecht,VBO,4.987653,52.244549
Wethouder van Oostveenstraat,47,,,1396KT,Baambrugge,De Ronde Venen,Utrecht,VBO,4.987609,52.244590
Wethouder van Oostveenstraat,49,,,1396KT,Baambrugge,De Ronde Venen,Utrecht,VBO,4.987566,52.244638
Wethouder van Oostveenstraat,51,,,1396KT,Baambrugge,De Ronde Venen,Utrecht,VBO,4.987521,52.244672
Wethouder van Oostveenstraat,53,,,1396KT,Baambrugge,De Ronde Venen,Utrecht,VBO,4.987466,52.244704
Wethouder van Oostveenstraat,55,,,1396KT,Baambrugge,De Ronde Venen,Utrecht,VBO,4.987388,52.244787
Wethouder van Oostveenstraat,57,,,1396KT,Baambrugge,De Ronde Venen,Utrecht,VBO,4.987351,52.244847
Wethouder van Oostveenstraat,59,,,1396KT,Baambrugge,De Ronde Venen,Utrecht,VBO,4.987312,52.244894
Wethouder van Oostveenstraat,61,,,1396KT,Baambrugge,De Ronde Venen,Utrecht,VBO,4.987285,52.244939
Wethouder van Oostveenstraat,63,,,1396KT,Baambrugge,De Ronde Venen,Utrecht,VBO,4.987230,52.244978
Wethouder van Oostveenstraat,65,,,1396KT,Baambrugge,De Ronde Venen,Utrecht,VBO,4.987168,52.245025
Wethouder van Oostveenstraat,67,,,1396KT,Baambrugge,De Ronde Venen,Utrecht,VBO,4.987006,52.245153
Wethouder van Oostveenstraat,69,,,1396KT,Baambrugge,De Ronde Venen,Utrecht,VBO,4.986938,52.245186
Wethouder van Oostveenstraat,71,,,1396KT,Baambrugge,De Ronde Venen,Utrecht,VBO,4.986907,52.245239
Wethouder van Oostveenstraat,73,A,,1396KT,Baambrugge,De Ronde Venen,Utrecht,VBO,4.986468,52.245128
Wethouder van Oostveenstraat,73,,,1396KT,Baambrugge,De Ronde Venen,Utrecht,VBO,4.986856,52.245283
Indijkweg,1,,,1396LA,Baambrugge,De Ronde Venen,Utrecht,VBO,5.004562,52.249580
Indijkweg,3,,,1396LA,Baambrugge,De Ronde Venen,Utrecht,VBO,5.001658,52.252908
Indijkweg,4,,,1396LA,Baambrugge,De Ronde Venen,Utrecht,VBO,4.998090,52.257140
Indijkweg,6,,,1396LA,Baambrugge,De Ronde Venen,Utrecht,VBO,4.993941,52.261200
Indijkweg,7,A,,1396LA,Baambrugge,De Ronde Venen,Utrecht,VBO,4.991236,52.263792
Indijkweg,7,,,1396LA,Baambrugge,De Ronde Venen,Utrecht,VBO,4.991710,52.263468
Grevenstukstraat,1,,,1396LB,Baambrugge,De Ronde Venen,Utrecht,VBO,4.991906,52.247945
Grevenstukstraat,2,,,1396LB,Baambrugge,De Ronde Venen,Utrecht,VBO,4.991941,52.248012
Grevenstukstraat,3,,,1396LB,Baambrugge,De Ronde Venen,Utrecht,VBO,4.992101,52.248061
Grevenstukstraat,4,,,1396LB,Baambrugge,De Ronde Venen,Utrecht,VBO,4.992184,52.248083
Grevenstukstraat,5,,,1396LB,Baambrugge,De Ronde Venen,Utrecht,VBO,4.992260,52.248102
Grevenstukstraat,6,,,1396LB,Baambrugge,De Ronde Venen,Utrecht,VBO,4.992331,52.248129
Grevenstukstraat,7,,,1396LB,Baambrugge,De Ronde Venen,Utrecht,VBO,4.992392,52.248161
Grevenstukstraat,8,,,1396LB,Baambrugge,De Ronde Venen,Utrecht,VBO,4.992787,52.247995
Grevenstukstraat,9,,,1396LB,Baambrugge,De Ronde Venen,Utrecht,VBO,4.992702,52.247979
Grevenstukstraat,10,,,1396LB,Baambrugge,De Ronde Venen,Utrecht,VBO,4.992595,52.247949
Grevenstukstraat,11,,,1396LB,Baambrugge,De Ronde Venen,Utrecht,VBO,4.992481,52.247906
Grevenstukstraat,12,,,1396LB,Baambrugge,De Ronde Venen,Utrecht,VBO,4.992334,52.247868
Grevenstukstraat,13,,,1396LB,Baambrugge,De Ronde Venen,Utrecht,VBO,4.992270,52.247851
Grevenstukstraat,14,,,1396LB,Baambrugge,De Ronde Venen,Utrecht,VBO,4.992192,52.247832
Grevenstukstraat,15,,,1396LB,Baambrugge,De Ronde Venen,Utrecht,VBO,4.992100,52.247808
Doorloper,1,,,1396LC,Baambrugge,De Ronde Venen,Utrecht,VBO,4.992565,52.248207
Doorloper,2,,,1396LC,Baambrugge,De Ronde Venen,Utrecht,VBO,4.992700,52.248235
Doorloper,3,,,1396LC,Baambrugge,De Ronde Venen,Utrecht,VBO,4.993044,52.248343
Doorloper,4,,,1396LC,Baambrugge,De Ronde Venen,Utrecht,VBO,4.993070,52.248291
Doorloper,5,,,1396LC,Baambrugge,De Ronde Venen,Utrecht,VBO,4.993103,52.248233
Doorloper,6,,,1396LC,Baambrugge,De Ronde Venen,Utrecht,VBO,4.993156,52.248199
Doorloper,7,,,1396LC,Baambrugge,De Ronde Venen,Utrecht,VBO,4.993177,52.248149
IJsbaan,1,,,1396LD,Baambrugge,De Ronde Venen,Utrecht,VBO,4.993421,52.247816
IJsbaan,2,,,1396LD,Baambrugge,De Ronde Venen,Utrecht,VBO,4.993502,52.247840
IJsbaan,3,,,1396LD,Baambrugge,De Ronde Venen,Utrecht,VBO,4.993591,52.247854
IJsbaan,4,,,1396LD,Baambrugge,De Ronde Venen,Utrecht,VBO,4.993659,52.247880
IJsbaan,5,,,1396LD,Baambrugge,De Ronde Venen,Utrecht,VBO,4.993736,52.247909
IJsbaan,6,,,1396LD,Baambrugge,De Ronde Venen,Utrecht,VBO,4.994303,52.248386
Elfstedenplantsoen,1,,,1396LE,Baambrugge,De Ronde Venen,Utrecht,VBO,4.993200,52.247136
Elfstedenplantsoen,2,,,1396LE,Baambrugge,De Ronde Venen,Utrecht,VBO,4.993102,52.247190
Elfstedenplantsoen,3,,,1396LE,Baambrugge,De Ronde Venen,Utrecht,VBO,4.993115,52.247231
Elfstedenplantsoen,4,,,1396LE,Baambrugge,De Ronde Venen,Utrecht,VBO,4.993071,52.247267
Elfstedenplantsoen,5,,,1396LE,Baambrugge,De Ronde Venen,Utrecht,VBO,4.992990,52.247319
Elfstedenplantsoen,6,,,1396LE,Baambrugge,De Ronde Venen,Utrecht,VBO,4.992912,52.247408
Elfstedenplantsoen,7,,,1396LE,Baambrugge,De Ronde Venen,Utrecht,VBO,4.992872,52.247460
Elfstedenplantsoen,8,,,1396LE,Baambrugge,De Ronde Venen,Utrecht,VBO,4.992814,52.247576
Elfstedenplantsoen,9,,,1396LE,Baambrugge,De Ronde Venen,Utrecht,VBO,4.992780,52.247635
Elfstedenplantsoen,10,,,1396LE,Baambrugge,De Ronde Venen,Utrecht,VBO,4.993602,52.247575
Elfstedenplantsoen,11,,,1396LE,Baambrugge,De Ronde Venen,Utrecht,VBO,4.993707,52.247456
Elfstedenplantsoen,12,,,1396LE,Baambrugge,De Ronde Venen,Utrecht,VBO,4.993813,52.247340
Toertocht,1,,,1396LG,Baambrugge,De Ronde Venen,Utrecht,VBO,4.994368,52.247540
Toertocht,2,,,1396LG,Baambrugge,De Ronde Venen,Utrecht,VBO,4.994319,52.247602
Toertocht,3,,,1396LG,Baambrugge,De Ronde Venen,Utrecht,VBO,4.994276,52.247681
Toertocht,4,,,1396LG,Baambrugge,De Ronde Venen,Utrecht,VBO,4.994215,52.247740
Toertocht,5,,,1396LG,Baambrugge,De Ronde Venen,Utrecht,VBO,4.993960,52.247990
Toertocht,6,,,1396LG,Baambrugge,De Ronde Venen,Utrecht,VBO,4.993988,52.247969
Toertocht,7,,,1396LG,Baambrugge,De Ronde Venen,Utrecht,VBO,4.993988,52.247954
Toertocht,8,,,1396LG,Baambrugge,De Ronde Venen,Utrecht,VBO,4.993928,52.247946
Toertocht,9,,,1396LG,Baambrugge,De Ronde Venen,Utrecht,VBO,4.993978,52.247937
Toertocht,10,,,1396LG,Baambrugge,De Ronde Venen,Utrecht,VBO,4.994086,52.247904
Toertocht,11,,,1396LG,Baambrugge,De Ronde Venen,Utrecht,VBO,4.993935,52.247922
Toertocht,12,,,1396LG,Baambrugge,De Ronde Venen,Utrecht,VBO,4.994068,52.247890
Toertocht,13,,,1396LG,Baambrugge,De Ronde Venen,Utrecht,VBO,4.994077,52.247871
Toertocht,14,,,1396LG,Baambrugge,De Ronde Venen,Utrecht,VBO,4.994102,52.247853
Toertocht,15,,,1396LG,Baambrugge,De Ronde Venen,Utrecht,VBO,4.993864,52.247983
Toertocht,16,,,1396LG,Baambrugge,De Ronde Venen,Utrecht,VBO,4.993990,52.248008
Toertocht,17,,,1396LG,Baambrugge,De Ronde Venen,Utrecht,VBO,4.993953,52.247910
Toertocht,18,,,1396LG,Baambrugge,De Ronde Venen,Utrecht,VBO,4.994092,52.247831
Toertocht,19,,,1396LG,Baambrugge,De Ronde Venen,Utrecht,VBO,4.994035,52.247923
Donkervlietse Binnenweg,1,A,,1396LN,Baambrugge,De Ronde Venen,Utrecht,VBO,4.993900,52.236732
Donkervlietse Binnenweg,1,,,1396LN,Baambrugge,De Ronde Venen,Utrecht,VBO,4.994064,52.236174
Donkervlietse Binnenweg,2,,,1396LN,Baambrugge,De Ronde Venen,Utrecht,VBO,4.994021,52.236289
Donkervlietse Binnenweg,3,,,1396LN,Baambrugge,De Ronde Venen,Utrecht,VBO,4.993664,52.236114
Donkervlietse Binnenweg,4,,,1396LN,Baambrugge,De Ronde Venen,Utrecht,VBO,4.992841,52.235926
Donkervlietse Binnenweg,5,,,1396LN,Baambrugge,De Ronde Venen,Utrecht,VBO,4.992668,52.235844
Donkervlietse Binnenweg,6,,,1396LN,Baambrugge,De Ronde Venen,Utrecht,VBO,4.991501,52.234139
Donkervlietse Binnenweg,7,,,1396LN,Baambrugge,De Ronde Venen,Utrecht,VBO,4.991958,52.233749
Donkervlietse Binnenweg,8,,,1396LN,Baambrugge,De Ronde Venen,Utrecht,VBO,4.992496,52.233251
Donkervlietse Binnenweg,9,,,1396LN,Baambrugge,De Ronde Venen,Utrecht,VBO,4.992403,52.232966
Donkervlietse Binnenweg,10,,,1396LN,Baambrugge,De Ronde Venen,Utrecht,VBO,4.993239,52.233077
Donkervlietse Binnenweg,11,,,1396LN,Baambrugge,De Ronde Venen,Utrecht,VBO,4.993236,52.232835
Donkervlietse Binnenweg,12,,,1396LN,Baambrugge,De Ronde Venen,Utrecht,VBO,4.993839,52.232439
Donkervlietse Binnenweg,13,,,1396LN,Baambrugge,De Ronde Venen,Utrecht,VBO,4.992912,52.232087
