openbareruimtenaam,huisnummer,huisletter,huisnummertoevoeging,postcode,woonplaatsnaam,gemeentenaam,provincienaam,typeadresseerbaarobject,longitude,latitude
Kwadijk,1,,,1471CA,Kwadijk,Zeevang,Noord-Holland,VBO,4.959937,52.533380
Kwadijk,2,,,1471CA,Kwadijk,Zeevang,Noord-Holland,VBO,4.961084,52.532785
Kwadijk,3,,,1471CA,Kwadijk,Zeevang,Noord-Holland,VBO,4.962161,52.533077
Kwadijk,4,,,1471CA,Kwadijk,Zeevang,Noord-Holland,VBO,4.962029,52.532508
Kwadijk,5,a,,1471CA,Kwadijk,Zeevang,Noord-Holland,VBO,4.964426,52.532235
Kwadijk,5,,,1471CA,Kwadijk,Zeevang,Noord-Holland,VBO,4.964299,52.532271
Kwadijk,6,,,1471CA,Kwadijk,Zeevang,Noord-Holland,VBO,4.965845,52.534699
Kwadijk,7,a,,1471CA,Kwadijk,Zeevang,Noord-Holland,VBO,4.965384,52.531350
Kwadijk,7,,,1471CA,Kwadijk,Zeevang,Noord-Holland,VBO,4.965736,52.531776
Kwadijk,8,a,,1471CA,Kwadijk,Zeevang,Noord-Holland,VBO,4.966703,52.531584
Kwadijk,8,,,1471CA,Kwadijk,Zeevang,Noord-Holland,VBO,4.965993,52.531256
Kwadijk,9,,,1471CA,Kwadijk,Zeevang,Noord-Holland,VBO,4.966769,52.531043
Kwadijk,10,a,,1471CA,Kwadijk,Zeevang,Noord-Holland,VBO,4.967987,52.531072
Kwadijk,10,,,1471CA,Kwadijk,Zeevang,Noord-Holland,VBO,4.967478,52.531233
Kwadijk,11,,,1471CA,Kwadijk,Zeevang,Noord-Holland,VBO,4.967400,52.530904
Kwadijk,12,,,1471CA,Kwadijk,Zeevang,Noord-Holland,VBO,4.968523,52.530925
Kwadijk,13,,,1471CA,Kwadijk,Zeevang,Noord-Holland,VBO,4.968546,52.530477
Kwadijk,14,,,1471CA,Kwadijk,Zeevang,Noord-Holland,VBO,4.968887,52.530361
Kwadijk,15,,,1471CA,Kwadijk,Zeevang,Noord-Holland,VBO,4.969522,52.530584
Kwadijk,16,,,1471CA,Kwadijk,Zeevang,Noord-Holland,VBO,4.969401,52.530007
Kwadijk,17,,,1471CA,Kwadijk,Zeevang,Noord-Holland,VBO,4.969643,52.530423
Kwadijk,18,,,1471CA,Kwadijk,Zeevang,Noord-Holland,VBO,4.969753,52.530380
Kwadijk,19,,,1471CA,Kwadijk,Zeevang,Noord-Holland,VBO,4.969990,52.530031
Kwadijk,20,,,1471CA,Kwadijk,Zeevang,Noord-Holland,VBO,4.970391,52.530276
Kwadijk,21,,,1471CA,Kwadijk,Zeevang,Noord-Holland,VBO,4.970766,52.530270
Kwadijk,22,,,1471CB,Kwadijk,Zeevang,Noord-Holland,VBO,4.970385,52.529922
Kwadijk,23,a,,1471CB,Kwadijk,Zeevang,Noord-Holland,VBO,4.971012,52.530081
Kwadijk,23,b,,1471CB,Kwadijk,Zeevang,Noord-Holland,VBO,4.971103,52.530054
Kwadijk,23,c,,1471CB,Kwadijk,Zeevang,Noord-Holland,VBO,4.971341,52.530404
Kwadijk,23,d,,1471CB,Kwadijk,Zeevang,Noord-Holland,VBO,4.971443,52.530377
Kwadijk,23,,,1471CB,Kwadijk,Zeevang,Noord-Holland,VBO,4.971133,52.530133
Kwadijk,24,,,1471CB,Kwadijk,Zeevang,Noord-Holland,VBO,4.970929,52.529735
Kwadijk,25,a,,1471CB,Kwadijk,Zeevang,Noord-Holland,VBO,4.971960,52.529876
Kwadijk,25,,,1471CB,Kwadijk,Zeevang,Noord-Holland,VBO,4.971445,52.529926
Kwadijk,26,,,1471CB,Kwadijk,Zeevang,Noord-Holland,VBO,4.972715,52.529348
Kwadijk,27,,,1471CB,Kwadijk,Zeevang,Noord-Holland,VBO,4.973221,52.529277
Kwadijk,28,,,1471CB,Kwadijk,Zeevang,Noord-Holland,VBO,4.973357,52.529663
Kwadijk,29,,,1471CB,Kwadijk,Zeevang,Noord-Holland,VBO,4.973862,52.529652
Kwadijk,30,,,1471CB,Kwadijk,Zeevang,Noord-Holland,VBO,4.973541,52.529235
Kwadijk,31,,,1471CB,Kwadijk,Zeevang,Noord-Holland,VBO,4.973627,52.529209
Kwadijk,32,,,1471CB,Kwadijk,Zeevang,Noord-Holland,VBO,4.973816,52.529156
Kwadijk,33,,,1471CB,Kwadijk,Zeevang,Noord-Holland,VBO,4.974216,52.529489
Kwadijk,34,a,,1471CB,Kwadijk,Zeevang,Noord-Holland,VBO,4.974624,52.529020
Kwadijk,34,b,,1471CB,Kwadijk,Zeevang,Noord-Holland,VBO,4.974898,52.528995
Kwadijk,34,,,1471CB,Kwadijk,Zeevang,Noord-Holland,VBO,4.974272,52.528990
Kwadijk,35,,,1471CB,Kwadijk,Zeevang,Noord-Holland,VBO,4.974708,52.529528
Kwadijk,36,,,1471CB,Kwadijk,Zeevang,Noord-Holland,VBO,4.974981,52.529465
Kwadijk,37,,,1471CB,Kwadijk,Zeevang,Noord-Holland,VBO,4.975142,52.529275
Kwadijk,38,,,1471CB,Kwadijk,Zeevang,Noord-Holland,VBO,4.975534,52.529275
Kwadijk,39,,,1471CB,Kwadijk,Zeevang,Noord-Holland,VBO,4.975394,52.528652
Kwadijk,40,,,1471CB,Kwadijk,Zeevang,Noord-Holland,VBO,4.975888,52.529228
Kwadijk,42,,,1471CB,Kwadijk,Zeevang,Noord-Holland,VBO,4.976252,52.529188
Kwadijk,44,,,1471CB,Kwadijk,Zeevang,Noord-Holland,VBO,4.976601,52.529131
Kwadijk,46,,,1471CB,Kwadijk,Zeevang,Noord-Holland,VBO,4.977367,52.529026
Kwadijk,41,,,1471CC,Kwadijk,Zeevang,Noord-Holland,VBO,4.975695,52.528546
Kwadijk,43,a,,1471CC,Kwadijk,Zeevang,Noord-Holland,VBO,4.976545,52.528689
Kwadijk,43,,,1471CC,Kwadijk,Zeevang,Noord-Holland,VBO,4.976455,52.528710
Kwadijk,45,,,1471CC,Kwadijk,Zeevang,Noord-Holland,VBO,4.977105,52.528564
Kwadijk,47,,,1471CC,Kwadijk,Zeevang,Noord-Holland,VBO,4.977590,52.528597
Kwadijk,48,,,1471CC,Kwadijk,Zeevang,Noord-Holland,VBO,4.978003,52.528652
Kwadijk,50,a,,1471CC,Kwadijk,Zeevang,Noord-Holland,VBO,4.978337,52.528996
Kwadijk,50,,,1471CC,Kwadijk,Zeevang,Noord-Holland,VBO,4.978332,52.528885
Kwadijk,51,,,1471CC,Kwadijk,Zeevang,Noord-Holland,VBO,4.978283,52.528612
Kwadijk,52,,,1471CC,Kwadijk,Zeevang,Noord-Holland,VBO,4.978375,52.528587
Kwadijk,53,,,1471CC,Kwadijk,Zeevang,Noord-Holland,VBO,4.978624,52.528913
Kwadijk,54,,,1471CC,Kwadijk,Zeevang,Noord-Holland,VBO,4.978600,52.528582
Kwadijk,55,,,1471CC,Kwadijk,Zeevang,Noord-Holland,VBO,4.978760,52.528571
Kwadijk,56,,,1471CC,Kwadijk,Zeevang,Noord-Holland,VBO,4.978919,52.528874
Kwadijk,57,,,1471CC,Kwadijk,Zeevang,Noord-Holland,VBO,4.979022,52.528550
Kwadijk,58,,,1471CC,Kwadijk,Zeevang,Noord-Holland,VBO,4.979123,52.528541
Kwadijk,59,,,1471CC,Kwadijk,Zeevang,Noord-Holland,VBO,4.979444,52.528814
Kwadijk,60,,,1471CD,Kwadijk,Zeevang,Noord-Holland,VBO,4.979522,52.528509
Kwadijk,61,,,1471CD,Kwadijk,Zeevang,Noord-Holland,VBO,4.979640,52.528498
Kwadijk,62,,,1471CD,Kwadijk,Zeevang,Noord-Holland,VBO,4.980000,52.528686
Kwadijk,63,,,1471CD,Kwadijk,Zeevang,Noord-Holland,VBO,4.979986,52.528427
Kwadijk,64,,,1471CD,Kwadijk,Zeevang,Noord-Holland,VBO,4.980270,52.528435
Kwadijk,65,,,1471CD,Kwadijk,Zeevang,Noord-Holland,VBO,4.980404,52.528401
Kwadijk,66,,,1471CD,Kwadijk,Zeevang,Noord-Holland,VBO,4.980648,52.528347
Kwadijk,67,,,1471CD,Kwadijk,Zeevang,Noord-Holland,VBO,4.980248,52.528721
Kwadijk,68,,,1471CD,Kwadijk,Zeevang,Noord-Holland,VBO,4.980369,52.528712
Kwadijk,69,,,1471CD,Kwadijk,Zeevang,Noord-Holland,VBO,4.980596,52.528676
Kwadijk,70,,,1471CD,Kwadijk,Zeevang,Noord-Holland,VBO,4.980692,52.528671
Kwadijk,71,a,,1471CD,Kwadijk,Zeevang,Noord-Holland,VBO,4.981259,52.528380
Kwadijk,71,,,1471CD,Kwadijk,Zeevang,Noord-Holland,VBO,4.981003,52.528407
Kwadijk,72,,,1471CD,Kwadijk,Zeevang,Noord-Holland,VBO,4.980918,52.528656
Kwadijk,73,,,1471CD,Kwadijk,Zeevang,Noord-Holland,VBO,4.981033,52.528647
Kwadijk,74,,,1471CD,Kwadijk,Zeevang,Noord-Holland,VBO,4.981255,52.528627
Kwadijk,75,,,1471CD,Kwadijk,Zeevang,Noord-Holland,VBO,4.981351,52.528615
Kwadijk,76,,,1471CD,Kwadijk,Zeevang,Noord-Holland,VBO,4.981605,52.528259
Kwadijk,77,,,1471CD,Kwadijk,Zeevang,Noord-Holland,VBO,4.981636,52.528635
Kwadijk,78,,,1471CD,Kwadijk,Zeevang,Noord-Holland,VBO,4.981862,52.528607
Kwadijk,79,,,1471CD,Kwadijk,Zeevang,Noord-Holland,VBO,4.982030,52.528592
Kwadijk,80,,,1471CE,Kwadijk,Zeevang,Noord-Holland,VBO,4.982075,52.528134
Kwadijk,81,,,1471CE,Kwadijk,Zeevang,Noord-Holland,VBO,4.982248,52.528585
Kwadijk,82,,,1471CE,Kwadijk,Zeevang,Noord-Holland,VBO,4.982438,52.528474
Kwadijk,83,,,1471CE,Kwadijk,Zeevang,Noord-Holland,VBO,4.982682,52.528436
Kwadijk,84,,,1471CE,Kwadijk,Zeevang,Noord-Holland,VBO,4.982394,52.528035
Kwadijk,85,,,1471CE,Kwadijk,Zeevang,Noord-Holland,VBO,4.982483,52.528007
Kwadijk,86,,,1471CE,Kwadijk,Zeevang,Noord-Holland,VBO,4.982946,52.528262
Kwadijk,87,,,1471CE,Kwadijk,Zeevang,Noord-Holland,VBO,4.982464,52.527761
Kwadijk,90,,,1471CE,Kwadijk,Zeevang,Noord-Holland,VBO,4.981410,52.526240
Kwadijk,91,,,1471CE,Kwadijk,Zeevang,Noord-Holland,VBO,4.982225,52.526652
Kwadijk,92,a,,1471CE,Kwadijk,Zeevang,Noord-Holland,VBO,4.982301,52.527193
Kwadijk,92,,,1471CE,Kwadijk,Zeevang,Noord-Holland,VBO,4.982263,52.527435
Kwadijk,93,,,1471CE,Kwadijk,Zeevang,Noord-Holland,VBO,4.982519,52.527513
Kwadijk,94,a,,1471CE,Kwadijk,Zeevang,Noord-Holland,VBO,4.983054,52.527686
Kwadijk,94,b,,1471CE,Kwadijk,Zeevang,Noord-Holland,VBO,4.983202,52.527642
Kwadijk,94,c,,1471CE,Kwadijk,Zeevang,Noord-Holland,VBO,4.983316,52.527614
Kwadijk,94,,,1471CE,Kwadijk,Zeevang,Noord-Holland,VBO,4.983051,52.528135
Kwadijk,95,,,1471CE,Kwadijk,Zeevang,Noord-Holland,VBO,4.983366,52.527930
Kwadijk,96,,,1471CE,Kwadijk,Zeevang,Noord-Holland,VBO,4.983558,52.527880
Kwadijk,98,,,1471CE,Kwadijk,Zeevang,Noord-Holland,VBO,4.983808,52.527783
Kwadijk,99,a,,1471CE,Kwadijk,Zeevang,Noord-Holland,VBO,4.983518,52.527521
Kwadijk,99,b,,1471CE,Kwadijk,Zeevang,Noord-Holland,VBO,4.983707,52.527445
Kwadijk,100,,,1471CG,Kwadijk,Zeevang,Noord-Holland,VBO,4.983987,52.527728
Kwadijk,101,,,1471CG,Kwadijk,Zeevang,Noord-Holland,VBO,4.984135,52.527652
Kwadijk,102,,,1471CG,Kwadijk,Zeevang,Noord-Holland,VBO,4.984482,52.527482
Kwadijk,103,,,1471CG,Kwadijk,Zeevang,Noord-Holland,VBO,4.984252,52.527250
Kwadijk,104,a,,1471CG,Kwadijk,Zeevang,Noord-Holland,VBO,4.984232,52.526947
Kwadijk,104,,,1471CG,Kwadijk,Zeevang,Noord-Holland,VBO,4.984283,52.527191
Kwadijk,105,,,1471CG,Kwadijk,Zeevang,Noord-Holland,VBO,4.984935,52.527092
Kwadijk,106,,,1471CG,Kwadijk,Zeevang,Noord-Holland,VBO,4.984509,52.526827
Kwadijk,107,,,1471CG,Kwadijk,Zeevang,Noord-Holland,VBO,4.984499,52.526795
Kwadijk,108,,,1471CG,Kwadijk,Zeevang,Noord-Holland,VBO,4.984664,52.526765
Kwadijk,109,,,1471CG,Kwadijk,Zeevang,Noord-Holland,VBO,4.984861,52.526742
Kwadijk,110,,,1471CG,Kwadijk,Zeevang,Noord-Holland,VBO,4.984973,52.526717
Kwadijk,111,,,1471CG,Kwadijk,Zeevang,Noord-Holland,VBO,4.985136,52.526680
Kwadijk,112,,,1471CG,Kwadijk,Zeevang,Noord-Holland,VBO,4.985246,52.526655
Kwadijk,113,,,1471CG,Kwadijk,Zeevang,Noord-Holland,VBO,4.985138,52.527046
Kwadijk,114,,,1471CG,Kwadijk,Zeevang,Noord-Holland,VBO,4.985336,52.526999
Kwadijk,115,,,1471CG,Kwadijk,Zeevang,Noord-Holland,VBO,4.985531,52.526858
Kwadijk,116,,,1471CG,Kwadijk,Zeevang,Noord-Holland,VBO,4.985514,52.526576
Kwadijk,117,,,1471CG,Kwadijk,Zeevang,Noord-Holland,VBO,4.985802,52.526777
Kwadijk,118,,,1471CG,Kwadijk,Zeevang,Noord-Holland,VBO,4.986194,52.526677
Kwadijk,119,,,1471CG,Kwadijk,Zeevang,Noord-Holland,VBO,4.985854,52.526349
Oude Gouw,1,,,1471CG,Kwadijk,Zeevang,Noord-Holland,VBO,4.985672,52.526132
Kwadijk,120,,,1471CH,Kwadijk,Zeevang,Noord-Holland,VBO,4.986576,52.526343
Kwadijk,121,,,1471CH,Kwadijk,Zeevang,Noord-Holland,VBO,4.986764,52.526333
Kwadijk,122,,,1471CH,Kwadijk,Zeevang,Noord-Holland,VBO,4.987032,52.526130
Kwadijk,123,,,1471CH,Kwadijk,Zeevang,Noord-Holland,VBO,4.987031,52.526054
Kwadijk,124,,,1471CH,Kwadijk,Zeevang,Noord-Holland,VBO,4.987138,52.525934
Kwadijk,125,a,,1471CH,Kwadijk,Zeevang,Noord-Holland,VBO,4.986698,52.525835
Kwadijk,125,,,1471CH,Kwadijk,Zeevang,Noord-Holland,VBO,4.987175,52.525843
Kwadijk,126,,,1471CH,Kwadijk,Zeevang,Noord-Holland,VBO,4.986903,52.525552
Kwadijk,127,,,1471CH,Kwadijk,Zeevang,Noord-Holland,VBO,4.987418,52.525892
Kwadijk,128,a,,1471CH,Kwadijk,Zeevang,Noord-Holland,VBO,4.987324,52.525299
Kwadijk,128,,,1471CH,Kwadijk,Zeevang,Noord-Holland,VBO,4.987635,52.525800
Kwadijk,129,,,1471CH,Kwadijk,Zeevang,Noord-Holland,VBO,4.987761,52.525331
Kwadijk,130,,,1471CH,Kwadijk,Zeevang,Noord-Holland,VBO,4.987944,52.525613
Kwadijk,131,,,1471CH,Kwadijk,Zeevang,Noord-Holland,VBO,4.988171,52.525593
Kwadijk,132,,,1471CH,Kwadijk,Zeevang,Noord-Holland,VBO,4.988434,52.525153
Kwadijk,133,,,1471CH,Kwadijk,Zeevang,Noord-Holland,VBO,4.988835,52.525464
Kwadijk,134,,,1471CH,Kwadijk,Zeevang,Noord-Holland,VBO,4.989041,52.525351
Kwadijk,135,,,1471CH,Kwadijk,Zeevang,Noord-Holland,VBO,4.988986,52.524967
Kwadijk,136,,,1471CH,Kwadijk,Zeevang,Noord-Holland,VBO,4.989117,52.525226
Kwadijk,137,,,1471CH,Kwadijk,Zeevang,Noord-Holland,VBO,4.989244,52.525217
Kwadijk,138,,,1471CH,Kwadijk,Zeevang,Noord-Holland,VBO,4.989686,52.525123
Kwadijk,139,a,,1471CH,Kwadijk,Zeevang,Noord-Holland,VBO,4.990621,52.525045
Kwadijk,139,,,1471CH,Kwadijk,Zeevang,Noord-Holland,VBO,4.989994,52.524951
Kwadijk,140,,,1471CJ,Kwadijk,Zeevang,Noord-Holland,VBO,4.990789,52.524713
Kwadijk,141,,,1471CJ,Kwadijk,Zeevang,Noord-Holland,VBO,4.991137,52.524361
Kwadijk,142,,,1471CJ,Kwadijk,Zeevang,Noord-Holland,VBO,4.991443,52.524269
Kwadijk,143,a,,1471CJ,Kwadijk,Zeevang,Noord-Holland,VBO,4.992231,52.523990
Kwadijk,143,,,1471CJ,Kwadijk,Zeevang,Noord-Holland,VBO,4.991752,52.524022
Kwadijk,144,,,1471CJ,Kwadijk,Zeevang,Noord-Holland,VBO,4.991480,52.523781
Kwadijk,145,,,1471CJ,Kwadijk,Zeevang,Noord-Holland,VBO,4.991824,52.523725
Kwadijk,146,,,1471CJ,Kwadijk,Zeevang,Noord-Holland,VBO,4.992451,52.523855
Kwadijk,147,,,1471CJ,Kwadijk,Zeevang,Noord-Holland,VBO,4.992658,52.523740
Kwadijk,148,,,1471CJ,Kwadijk,Zeevang,Noord-Holland,VBO,4.992727,52.523687
Kwadijk,149,,,1471CJ,Kwadijk,Zeevang,Noord-Holland,VBO,4.992885,52.523608
Kwadijk,150,a,,1471CJ,Kwadijk,Zeevang,Noord-Holland,VBO,4.993242,52.523835
Kwadijk,150,,,1471CJ,Kwadijk,Zeevang,Noord-Holland,VBO,4.993371,52.523929
Kwadijk,151,,,1471CJ,Kwadijk,Zeevang,Noord-Holland,VBO,4.993173,52.523422
Kwadijk,152,,,1471CJ,Kwadijk,Zeevang,Noord-Holland,VBO,4.993575,52.523363
Kwadijk,153,,,1471CJ,Kwadijk,Zeevang,Noord-Holland,VBO,4.993781,52.523210
Kwadijk,155,,,1471CJ,Kwadijk,Zeevang,Noord-Holland,VBO,4.993879,52.523130
Kwadijk,156,,,1471CJ,Kwadijk,Zeevang,Noord-Holland,VBO,4.993999,52.523081
Kwadijk,157,,,1471CJ,Kwadijk,Zeevang,Noord-Holland,VBO,4.994157,52.523012
Kwadijk,158,,,1471CJ,Kwadijk,Zeevang,Noord-Holland,VBO,4.994339,52.522940
Kwadijk,159,,,1471CJ,Kwadijk,Zeevang,Noord-Holland,VBO,4.994508,52.522920
Kwadijk,160,a,,1471CK,Kwadijk,Zeevang,Noord-Holland,VBO,4.994970,52.522764
Kwadijk,160,,,1471CK,Kwadijk,Zeevang,Noord-Holland,VBO,4.994875,52.522885
Kwadijk,161,,,1471CK,Kwadijk,Zeevang,Noord-Holland,VBO,4.995147,52.522680
Kwadijk,164,,,1471CK,Kwadijk,Zeevang,Noord-Holland,VBO,4.995626,52.522441
Kwadijk,165,,,1471CK,Kwadijk,Zeevang,Noord-Holland,VBO,4.995734,52.522351
Kwadijk,166,,,1471CK,Kwadijk,Zeevang,Noord-Holland,VBO,4.994201,52.521421
Kwadijk,168,,,1471CK,Kwadijk,Zeevang,Noord-Holland,VBO,4.995530,52.521972
Stationsweg,1,,,1471CL,Kwadijk,Zeevang,Noord-Holland,VBO,4.994788,52.522490
Stationsweg,2,,,1471CL,Kwadijk,Zeevang,Noord-Holland,VBO,4.994394,52.522576
Stationsweg,3,,,1471CL,Kwadijk,Zeevang,Noord-Holland,VBO,4.994684,52.522362
Stationsweg,4,,,1471CL,Kwadijk,Zeevang,Noord-Holland,VBO,4.994563,52.522307
Stationsweg,5,,,1471CL,Kwadijk,Zeevang,Noord-Holland,VBO,4.994451,52.522260
Stationsweg,6,,,1471CL,Kwadijk,Zeevang,Noord-Holland,VBO,4.994406,52.522199
Stationsweg,7,,,1471CL,Kwadijk,Zeevang,Noord-Holland,VBO,4.994193,52.522419
Stationsweg,9,,,1471CL,Kwadijk,Zeevang,Noord-Holland,VBO,4.994022,52.522338
Stationsweg,10,,,1471CL,Kwadijk,Zeevang,Noord-Holland,VBO,4.994320,52.522136
Stationsweg,11,,,1471CL,Kwadijk,Zeevang,Noord-Holland,VBO,4.994243,52.522070
Stationsweg,12,,,1471CL,Kwadijk,Zeevang,Noord-Holland,VBO,4.993870,52.522153
Stationsweg,13,,,1471CL,Kwadijk,Zeevang,Noord-Holland,VBO,4.994121,52.521999
Stationsweg,14,,,1471CL,Kwadijk,Zeevang,Noord-Holland,VBO,4.994055,52.521961
Stationsweg,15,,,1471CL,Kwadijk,Zeevang,Noord-Holland,VBO,4.994003,52.521931
Stationsweg,16,,,1471CM,Kwadijk,Zeevang,Noord-Holland,VBO,4.993890,52.521854
Stationsweg,17,,,1471CM,Kwadijk,Zeevang,Noord-Holland,VBO,4.993811,52.521800
Stationsweg,18,,,1471CM,Kwadijk,Zeevang,Noord-Holland,VBO,4.993748,52.521762
Stationsweg,19,,,1471CM,Kwadijk,Zeevang,Noord-Holland,VBO,4.993649,52.521689
Stationsweg,20,,,1471CM,Kwadijk,Zeevang,Noord-Holland,VBO,4.993576,52.521632
Stationsweg,21,,,1471CM,Kwadijk,Zeevang,Noord-Holland,VBO,4.993492,52.521577
Stationsweg,22,,,1471CM,Kwadijk,Zeevang,Noord-Holland,VBO,4.993417,52.521537
Stationsweg,23,,,1471CM,Kwadijk,Zeevang,Noord-Holland,VBO,4.993312,52.521468
Stationsweg,24,,,1471CM,Kwadijk,Zeevang,Noord-Holland,VBO,4.993227,52.521412
Stationsweg,25,,,1471CM,Kwadijk,Zeevang,Noord-Holland,VBO,4.993173,52.521255
Stationsweg,57,,,1471CM,Kwadijk,Zeevang,Noord-Holland,VBO,4.992085,52.520552
Stationsweg,58,,,1471CM,Kwadijk,Zeevang,Noord-Holland,VBO,4.991905,52.520431
Stationsweg,59,a,,1471CM,Kwadijk,Zeevang,Noord-Holland,VBO,4.992117,52.520542
Stationsweg,59,b,,1471CM,Kwadijk,Zeevang,Noord-Holland,VBO,4.992086,52.520531
Stationsweg,59,c,,1471CM,Kwadijk,Zeevang,Noord-Holland,VBO,4.992065,52.520514
Stationsweg,59,d,,1471CM,Kwadijk,Zeevang,Noord-Holland,VBO,4.992047,52.520496
Stationsweg,60,,,1471CM,Kwadijk,Zeevang,Noord-Holland,VBO,4.991868,52.520401
Stationsweg,61,,,1471CM,Kwadijk,Zeevang,Noord-Holland,VBO,4.992022,52.520507
Stationsweg,62,,,1471CM,Kwadijk,Zeevang,Noord-Holland,VBO,4.991830,52.520371
Stationsweg,63,,,1471CM,Kwadijk,Zeevang,Noord-Holland,VBO,4.991759,52.520298
Stationsweg,64,,,1471CM,Kwadijk,Zeevang,Noord-Holland,VBO,4.991655,52.520157
Reinoud van Brederodestraat,1,a,,1471CN,Kwadijk,Zeevang,Noord-Holland,VBO,4.980162,52.528208
Reinoud van Brederodestraat,1,,,1471CN,Kwadijk,Zeevang,Noord-Holland,VBO,4.979052,52.528334
Reinoud van Brederodestraat,3,,,1471CN,Kwadijk,Zeevang,Noord-Holland,VBO,4.979013,52.528277
Reinoud van Brederodestraat,5,,,1471CN,Kwadijk,Zeevang,Noord-Holland,VBO,4.979003,52.528223
Reinoud van Brederodestraat,7,,,1471CN,Kwadijk,Zeevang,Noord-Holland,VBO,4.979010,52.528155
Reinoud van Brederodestraat,9,,,1471CN,Kwadijk,Zeevang,Noord-Holland,VBO,4.978655,52.527043
Reinoud van Brederodestraat,2,,,1471CP,Kwadijk,Zeevang,Noord-Holland,VBO,4.979423,52.528226
Reinoud van Brederodestraat,4,,,1471CP,Kwadijk,Zeevang,Noord-Holland,VBO,4.979425,52.528164
Reinoud van Brederodestraat,6,,,1471CP,Kwadijk,Zeevang,Noord-Holland,VBO,4.979413,52.528114
Reinoud van Brederodestraat,8,,,1471CP,Kwadijk,Zeevang,Noord-Holland,VBO,4.979398,52.528065
Reinoud van Brederodestraat,10,,,1471CP,Kwadijk,Zeevang,Noord-Holland,VBO,4.979303,52.527600
Reinoud van Brederodestraat,12,,,1471CP,Kwadijk,Zeevang,Noord-Holland,VBO,4.979265,52.527524
Reinoud van Brederodestraat,14,,,1471CP,Kwadijk,Zeevang,Noord-Holland,VBO,4.979257,52.527476
Reinoud van Brederodestraat,16,,,1471CP,Kwadijk,Zeevang,Noord-Holland,VBO,4.979263,52.527423
Reinoud van Brederodestraat,18,,,1471CP,Kwadijk,Zeevang,Noord-Holland,VBO,4.979163,52.527202
Reinoud van Brederodestraat,20,,,1471CP,Kwadijk,Zeevang,Noord-Holland,VBO,4.979279,52.527193
Reinoud van Brederodestraat,22,,,1471CP,Kwadijk,Zeevang,Noord-Holland,VBO,4.979374,52.527185
Reinoud van Brederodestraat,24,,,1471CP,Kwadijk,Zeevang,Noord-Holland,VBO,4.979448,52.527179
Reinoud van Brederodestraat,26,,,1471CP,Kwadijk,Zeevang,Noord-Holland,VBO,4.979647,52.527231
Reinoud van Brederodestraat,28,,,1471CP,Kwadijk,Zeevang,Noord-Holland,VBO,4.979760,52.527222
Reinoud van Brederodestraat,30,,,1471CP,Kwadijk,Zeevang,Noord-Holland,VBO,4.979857,52.527214
Reinoud van Brederodestraat,32,,,1471CP,Kwadijk,Zeevang,Noord-Holland,VBO,4.979938,52.527207
Reinoud van Brederodestraat,34,,,1471CP,Kwadijk,Zeevang,Noord-Holland,VBO,4.980121,52.527261
Reinoud van Brederodestraat,36,,,1471CP,Kwadijk,Zeevang,Noord-Holland,VBO,4.980236,52.527253
Reinoud van Brederodestraat,38,,,1471CP,Kwadijk,Zeevang,Noord-Holland,VBO,4.980323,52.527242
Reinoud van Brederodestraat,40,,,1471CP,Kwadijk,Zeevang,Noord-Holland,VBO,4.980405,52.527238
Jan Dignumszstraat,1,,,1471CR,Kwadijk,Zeevang,Noord-Holland,VBO,4.978208,52.528008
Jan Dignumszstraat,3,,,1471CR,Kwadijk,Zeevang,Noord-Holland,VBO,4.978286,52.527998
Jan Dignumszstraat,5,,,1471CR,Kwadijk,Zeevang,Noord-Holland,VBO,4.978402,52.527987
Jan Dignumszstraat,7,,,1471CR,Kwadijk,Zeevang,Noord-Holland,VBO,4.978523,52.527978
Jan Dignumszstraat,9,,,1471CR,Kwadijk,Zeevang,Noord-Holland,VBO,4.978674,52.527911
Jan Dignumszstraat,11,,,1471CR,Kwadijk,Zeevang,Noord-Holland,VBO,4.978760,52.527930
Jan Dignumszstraat,13,,,1471CR,Kwadijk,Zeevang,Noord-Holland,VBO,4.978841,52.527919
Jan Dignumszstraat,15,,,1471CR,Kwadijk,Zeevang,Noord-Holland,VBO,4.978980,52.527882
Jan Dignumszstraat,17,,,1471CR,Kwadijk,Zeevang,Noord-Holland,VBO,4.979338,52.527800
Jan Dignumszstraat,19,,,1471CR,Kwadijk,Zeevang,Noord-Holland,VBO,4.979395,52.527793
Jan Dignumszstraat,21,,,1471CR,Kwadijk,Zeevang,Noord-Holland,VBO,4.979512,52.527786
Jan Dignumszstraat,23,,,1471CR,Kwadijk,Zeevang,Noord-Holland,VBO,4.979632,52.527775
Jan Dignumszstraat,25,,,1471CR,Kwadijk,Zeevang,Noord-Holland,VBO,4.979808,52.527697
Jan Dignumszstraat,27,,,1471CR,Kwadijk,Zeevang,Noord-Holland,VBO,4.979889,52.527692
Jan Dignumszstraat,29,,,1471CR,Kwadijk,Zeevang,Noord-Holland,VBO,4.979979,52.527685
Jan Dignumszstraat,31,,,1471CR,Kwadijk,Zeevang,Noord-Holland,VBO,4.980085,52.527673
Jan Dignumszstraat,33,,,1471CR,Kwadijk,Zeevang,Noord-Holland,VBO,4.980241,52.527601
Jan Dignumszstraat,35,,,1471CR,Kwadijk,Zeevang,Noord-Holland,VBO,4.980310,52.527591
Jan Dignumszstraat,37,,,1471CR,Kwadijk,Zeevang,Noord-Holland,VBO,4.980401,52.527582
Jan Dignumszstraat,39,,,1471CR,Kwadijk,Zeevang,Noord-Holland,VBO,4.980528,52.527577
Jan Dignumszstraat,2,,,1471CS,Kwadijk,Zeevang,Noord-Holland,VBO,4.977980,52.528321
Jan Dignumszstraat,4,,,1471CS,Kwadijk,Zeevang,Noord-Holland,VBO,4.978102,52.528314
Jan Dignumszstraat,6,,,1471CS,Kwadijk,Zeevang,Noord-Holland,VBO,4.978181,52.528308
Jan Dignumszstraat,8,,,1471CS,Kwadijk,Zeevang,Noord-Holland,VBO,4.978279,52.528300
Jan Dignumszstraat,10,,,1471CS,Kwadijk,Zeevang,Noord-Holland,VBO,4.978348,52.528288
Jan Dignumszstraat,12,,,1471CS,Kwadijk,Zeevang,Noord-Holland,VBO,4.978460,52.528232
Jan Dignumszstraat,14,,,1471CS,Kwadijk,Zeevang,Noord-Holland,VBO,4.978583,52.528225
Jan Dignumszstraat,16,,,1471CS,Kwadijk,Zeevang,Noord-Holland,VBO,4.978695,52.528215
Jan Dignumszstraat,18,,,1471CS,Kwadijk,Zeevang,Noord-Holland,VBO,4.978741,52.528206
Jan Dignumszstraat,20,,,1471CS,Kwadijk,Zeevang,Noord-Holland,VBO,4.979637,52.528024
Jan Dignumszstraat,22,,,1471CS,Kwadijk,Zeevang,Noord-Holland,VBO,4.979725,52.528012
Jan Dignumszstraat,24,,,1471CS,Kwadijk,Zeevang,Noord-Holland,VBO,4.979841,52.528004
Jan Dignumszstraat,26,,,1471CS,Kwadijk,Zeevang,Noord-Holland,VBO,4.979955,52.527999
Jan Dignumszstraat,28,,,1471CS,Kwadijk,Zeevang,Noord-Holland,VBO,4.980005,52.527991
Jan Dignumszstraat,30,a,,1471CS,Kwadijk,Zeevang,Noord-Holland,VBO,4.980606,52.528062
Jan Dignumszstraat,30,b,,1471CS,Kwadijk,Zeevang,Noord-Holland,VBO,4.980554,52.528054
Jan Dignumszstraat,30,c,,1471CS,Kwadijk,Zeevang,Noord-Holland,VBO,4.980518,52.528061
Jan Dignumszstraat,30,d,,1471CS,Kwadijk,Zeevang,Noord-Holland,VBO,4.980474,52.528066
Jan Dignumszstraat,30,e,,1471CS,Kwadijk,Zeevang,Noord-Holland,VBO,4.980427,52.528068
Jan Dignumszstraat,30,f,,1471CS,Kwadijk,Zeevang,Noord-Holland,VBO,4.980384,52.528073
Jan Dignumszstraat,30,g,,1471CS,Kwadijk,Zeevang,Noord-Holland,VBO,4.980334,52.528081
Jan Dignumszstraat,30,h,,1471CS,Kwadijk,Zeevang,Noord-Holland,VBO,4.980291,52.528089
Jan Dignumszstraat,30,i,,1471CS,Kwadijk,Zeevang,Noord-Holland,VBO,4.980244,52.528101
Jan Dignumszstraat,30,j,,1471CS,Kwadijk,Zeevang,Noord-Holland,VBO,4.980156,52.528120
Jan Dignumszstraat,30,k,,1471CS,Kwadijk,Zeevang,Noord-Holland,VBO,4.980156,52.528148
Jan Dignumszstraat,30,l,,1471CS,Kwadijk,Zeevang,Noord-Holland,VBO,4.980163,52.528177
Jan Dignumszstraat,30,,,1471CS,Kwadijk,Zeevang,Noord-Holland,VBO,4.980109,52.527916
Jan Dignumszstraat,32,,,1471CS,Kwadijk,Zeevang,Noord-Holland,VBO,4.980220,52.527909
Jan Dignumszstraat,34,,,1471CS,Kwadijk,Zeevang,Noord-Holland,VBO,4.980312,52.527903
Jan Dignumszstraat,36,,,1471CS,Kwadijk,Zeevang,Noord-Holland,VBO,4.980397,52.527892
Jan Dignumszstraat,38,,,1471CS,Kwadijk,Zeevang,Noord-Holland,VBO,4.980499,52.527828
Jan Dignumszstraat,40,,,1471CS,Kwadijk,Zeevang,Noord-Holland,VBO,4.980613,52.527818
Jan Dignumszstraat,42,,,1471CS,Kwadijk,Zeevang,Noord-Holland,VBO,4.980718,52.527813
Jan Dignumszstraat,44,,,1471CS,Kwadijk,Zeevang,Noord-Holland,VBO,4.980808,52.527804
Jan Dignumszstraat,46,,,1471CS,Kwadijk,Zeevang,Noord-Holland,VBO,4.980886,52.527795
Hollandia-plantsoen,1,,,1471CT,Kwadijk,Zeevang,Noord-Holland,VBO,4.981082,52.528173
Hollandia-plantsoen,2,,,1471CT,Kwadijk,Zeevang,Noord-Holland,VBO,4.981040,52.528111
Hollandia-plantsoen,3,,,1471CT,Kwadijk,Zeevang,Noord-Holland,VBO,4.981031,52.528064
Hollandia-plantsoen,4,a,,1471CT,Kwadijk,Zeevang,Noord-Holland,VBO,4.980953,52.527941
Hollandia-plantsoen,4,,,1471CT,Kwadijk,Zeevang,Noord-Holland,VBO,4.981001,52.528004
Hollandia-plantsoen,5,,,1471CT,Kwadijk,Zeevang,Noord-Holland,VBO,4.980797,52.527527
Hollandia-plantsoen,6,,,1471CT,Kwadijk,Zeevang,Noord-Holland,VBO,4.980778,52.527440
Hollandia-plantsoen,7,,,1471CT,Kwadijk,Zeevang,Noord-Holland,VBO,4.980760,52.527362
Hollandia-plantsoen,8,,,1471CT,Kwadijk,Zeevang,Noord-Holland,VBO,4.980740,52.527275
Hollandia-plantsoen,9,a,,1471CT,Kwadijk,Zeevang,Noord-Holland,VBO,4.981822,52.527197
Hollandia-plantsoen,9,,,1471CT,Kwadijk,Zeevang,Noord-Holland,VBO,4.981283,52.527288
Hollandia-plantsoen,10,,,1471CT,Kwadijk,Zeevang,Noord-Holland,VBO,4.981774,52.527571
Hollandia-plantsoen,11,,,1471CT,Kwadijk,Zeevang,Noord-Holland,VBO,4.981716,52.527642
Hollandia-plantsoen,12,,,1471CT,Kwadijk,Zeevang,Noord-Holland,VBO,4.981702,52.527714
Hollandia-plantsoen,13,,,1471CT,Kwadijk,Zeevang,Noord-Holland,VBO,4.981704,52.527802
Hollandia-plantsoen,14,,,1471CT,Kwadijk,Zeevang,Noord-Holland,VBO,4.981691,52.527867
Hollandia-plantsoen,15,,,1471CT,Kwadijk,Zeevang,Noord-Holland,VBO,4.981735,52.527962
Zeevangsdijkje,1,,,1471EA,Kwadijk,Zeevang,Noord-Holland,VBO,5.006569,52.527794
Zeevangsdijkje,2,,,1471EA,Kwadijk,Zeevang,Noord-Holland,VBO,5.006089,52.527804
Zeevangsdijkje,3,,,1471EA,Kwadijk,Zeevang,Noord-Holland,VBO,5.005657,52.527685
Zeevangsdijkje,4,a,,1471EA,Kwadijk,Zeevang,Noord-Holland,VBO,4.999726,52.527746
Zeevangsdijkje,4,b,,1471EA,Kwadijk,Zeevang,Noord-Holland,VBO,4.998119,52.527907
Zeevangsdijkje,4,,,1471EA,Kwadijk,Zeevang,Noord-Holland,VBO,4.999945,52.527752
Zeevangsdijkje,5,,,1471EA,Kwadijk,Zeevang,Noord-Holland,VBO,5.000242,52.527245
Zeevangsdijkje,6,,,1471EA,Kwadijk,Zeevang,Noord-Holland,VBO,4.999679,52.527207
Zeevangsdijkje,7,,,1471EA,Kwadijk,Zeevang,Noord-Holland,VBO,4.998775,52.524673
Zeevangsdijkje,8,a,,1471EA,Kwadijk,Zeevang,Noord-Holland,VBO,4.998248,52.523791
Zeevangsdijkje,8,,,1471EA,Kwadijk,Zeevang,Noord-Holland,VBO,4.997722,52.524459
Zeevangsdijkje,8,,,1471EA,Kwadijk,Zeevang,Noord-Holland,VBO,4.998119,52.524565
Zeevangsdijkje,9,,,1471EA,Kwadijk,Zeevang,Noord-Holland,VBO,4.997953,52.523502
Zeevangsdijkje,10,,,1471EA,Kwadijk,Zeevang,Noord-Holland,VBO,4.997660,52.523210
Zeevangsdijkje,11,,,1471EA,Kwadijk,Zeevang,Noord-Holland,VBO,4.997155,52.522957
Zeevangsdijkje,12,,,1471EA,Kwadijk,Zeevang,Noord-Holland,VBO,4.997131,52.522853
Zeevangsdijkje,13,,,1471EA,Kwadijk,Zeevang,Noord-Holland,VBO,4.996845,52.522660
Zeevangsdijkje,14,,,1471EA,Kwadijk,Zeevang,Noord-Holland,VBO,4.996680,52.522502
Zeevangsdijkje,15,,,1471EA,Kwadijk,Zeevang,Noord-Holland,VBO,4.996127,52.522455
Zeevangsdijkje,18,,,1471EA,Kwadijk,Zeevang,Noord-Holland,VBO,4.996119,52.522208
Fortweg,1,,,1471EB,Kwadijk,Zeevang,Noord-Holland,VBO,5.001781,52.527678
Fortweg,2,,,1471EB,Kwadijk,Zeevang,Noord-Holland,VBO,5.001762,52.528589
Fortweg,3,,,1471EB,Kwadijk,Zeevang,Noord-Holland,VBO,5.001057,52.529203
Kleenweg,1,,,1471ED,Kwadijk,Zeevang,Noord-Holland,VBO,4.995914,52.532340
Durkweg,1,,,1471EE,Kwadijk,Zeevang,Noord-Holland,VBO,4.987190,52.536227
Durkweg,2,,,1471EE,Kwadijk,Zeevang,Noord-Holland,VBO,4.986970,52.536313
Durkweg,3,,,1471EE,Kwadijk,Zeevang,Noord-Holland,VBO,4.982827,52.538508
Durkweg,4,,,1471EE,Kwadijk,Zeevang,Noord-Holland,VBO,4.981209,52.539431
Durkweg,5,,,1471EE,Kwadijk,Zeevang,Noord-Holland,VBO,4.979622,52.540255
