openbareruimtenaam,huisnummer,huisletter,huisnummertoevoeging,postcode,woonplaatsnaam,gemeentenaam,provincienaam,typeadresseerbaarobject,longitude,latitude
Oostdijkje,1,,,1483AA,De Rijp,Alkmaar,Noord-Holland,VBO,4.857981,52.559941
Oostdijkje,2,,,1483AA,De Rijp,Alkmaar,Noord-Holland,VBO,4.858638,52.560304
Oostdijkje,4,,,1483AA,De Rijp,Alkmaar,Noord-Holland,VBO,4.858894,52.560408
Oostdijkje,5,,,1483AA,De Rijp,Alkmaar,Noord-Holland,VBO,4.858262,52.560205
Oostdijkje,7,,,1483AA,De Rijp,Alkmaar,Noord-Holland,VBO,4.862211,52.565561
Oostdijkje,8,a,,1483AA,De Rijp,Alkmaar,Noord-Holland,VBO,4.859295,52.560562
Oostdijkje,10,,,1483AA,De Rijp,Alkmaar,Noord-Holland,VBO,4.859234,52.560910
Oostdijkje,12,,,1483AA,De Rijp,Alkmaar,Noord-Holland,VBO,4.860015,52.561776
Oostdijkje,14,,,1483AA,De Rijp,Alkmaar,Noord-Holland,VBO,4.861065,52.562878
Oosteinde,1,,,1483AB,De Rijp,Alkmaar,Noord-Holland,VBO,4.854903,52.559670
Oosteinde,3,,,1483AB,De Rijp,Alkmaar,Noord-Holland,VBO,4.855109,52.559722
Oosteinde,5,,,1483AB,De Rijp,Alkmaar,Noord-Holland,VBO,4.855248,52.559660
Oosteinde,7,,,1483AB,De Rijp,Alkmaar,Noord-Holland,VBO,4.855363,52.559657
Oosteinde,9,,,1483AB,De Rijp,Alkmaar,Noord-Holland,VBO,4.855455,52.560006
Oosteinde,11,,,1483AB,De Rijp,Alkmaar,Noord-Holland,VBO,4.855634,52.559649
Oosteinde,13,,,1483AB,De Rijp,Alkmaar,Noord-Holland,VBO,4.855722,52.559646
Oosteinde,15,,,1483AB,De Rijp,Alkmaar,Noord-Holland,VBO,4.855880,52.559641
Oosteinde,17,,,1483AC,De Rijp,Alkmaar,Noord-Holland,VBO,4.856058,52.559636
Oosteinde,19,,,1483AC,De Rijp,Alkmaar,Noord-Holland,VBO,4.856201,52.559633
Oosteinde,21,,,1483AC,De Rijp,Alkmaar,Noord-Holland,VBO,4.856309,52.559630
Oosteinde,23,,,1483AC,De Rijp,Alkmaar,Noord-Holland,VBO,4.856450,52.559624
Oosteinde,25,,,1483AC,De Rijp,Alkmaar,Noord-Holland,VBO,4.856555,52.559621
Oosteinde,27,,,1483AC,De Rijp,Alkmaar,Noord-Holland,VBO,4.856650,52.559662
Oosteinde,29,,,1483AC,De Rijp,Alkmaar,Noord-Holland,VBO,4.856762,52.559658
Oosteinde,31,,,1483AC,De Rijp,Alkmaar,Noord-Holland,VBO,4.856943,52.559658
Oosteinde,33,a,,1483AC,De Rijp,Alkmaar,Noord-Holland,VBO,4.857232,52.559911
Oosteinde,33,,,1483AC,De Rijp,Alkmaar,Noord-Holland,VBO,4.857041,52.559658
Oosteinde,35,,,1483AC,De Rijp,Alkmaar,Noord-Holland,VBO,4.857188,52.559649
Oosteinde,37,,,1483AC,De Rijp,Alkmaar,Noord-Holland,VBO,4.857318,52.559648
Oosteinde,41,,,1483AC,De Rijp,Alkmaar,Noord-Holland,VBO,4.857707,52.559656
Oosteinde,43,,,1483AC,De Rijp,Alkmaar,Noord-Holland,VBO,4.857908,52.559678
Oosteinde,45,,,1483AC,De Rijp,Alkmaar,Noord-Holland,VBO,4.858021,52.559672
Oosteinde,47,,,1483AC,De Rijp,Alkmaar,Noord-Holland,VBO,4.858132,52.559662
Oosteinde,49,,,1483AC,De Rijp,Alkmaar,Noord-Holland,VBO,4.858236,52.559640
Oosteinde,51,,,1483AC,De Rijp,Alkmaar,Noord-Holland,VBO,4.858362,52.559646
Oosteinde,53,,,1483AC,De Rijp,Alkmaar,Noord-Holland,VBO,4.858487,52.559745
Oosteinde,55,,,1483AC,De Rijp,Alkmaar,Noord-Holland,VBO,4.858525,52.559689
Oosteinde,2,,,1483AD,De Rijp,Alkmaar,Noord-Holland,VBO,4.854970,52.559568
Oosteinde,4,,,1483AD,De Rijp,Alkmaar,Noord-Holland,VBO,4.855219,52.559572
Oosteinde,6,,,1483AD,De Rijp,Alkmaar,Noord-Holland,VBO,4.855343,52.559557
Oosteinde,8,,,1483AD,De Rijp,Alkmaar,Noord-Holland,VBO,4.855423,52.559556
Oosteinde,10,,,1483AD,De Rijp,Alkmaar,Noord-Holland,VBO,4.855521,52.559554
Oosteinde,12,,,1483AD,De Rijp,Alkmaar,Noord-Holland,VBO,4.855588,52.559552
Oosteinde,14,,,1483AD,De Rijp,Alkmaar,Noord-Holland,VBO,4.855667,52.559550
Oosteinde,16,,,1483AD,De Rijp,Alkmaar,Noord-Holland,VBO,4.855733,52.559523
Oosteinde,18,,,1483AD,De Rijp,Alkmaar,Noord-Holland,VBO,4.855908,52.559542
Oosteinde,20,,,1483AD,De Rijp,Alkmaar,Noord-Holland,VBO,4.855987,52.559540
Oosteinde,24,,,1483AD,De Rijp,Alkmaar,Noord-Holland,VBO,4.856041,52.559433
Oosteinde,26,,,1483AD,De Rijp,Alkmaar,Noord-Holland,VBO,4.856246,52.559534
Oosteinde,28,a,,1483AD,De Rijp,Alkmaar,Noord-Holland,VBO,4.856343,52.559388
Oosteinde,28,,,1483AD,De Rijp,Alkmaar,Noord-Holland,VBO,4.856359,52.559527
Oosteinde,30,,,1483AE,De Rijp,Alkmaar,Noord-Holland,VBO,4.856531,52.559519
Oosteinde,32,,,1483AE,De Rijp,Alkmaar,Noord-Holland,VBO,4.856785,52.559517
Oosteinde,34,,,1483AE,De Rijp,Alkmaar,Noord-Holland,VBO,4.856888,52.559514
Oosteinde,36,,,1483AE,De Rijp,Alkmaar,Noord-Holland,VBO,4.856993,52.559510
Oosteinde,38,,,1483AE,De Rijp,Alkmaar,Noord-Holland,VBO,4.857096,52.559507
Oosteinde,40,,,1483AE,De Rijp,Alkmaar,Noord-Holland,VBO,4.857186,52.559505
Oosteinde,42,,,1483AE,De Rijp,Alkmaar,Noord-Holland,VBO,4.857340,52.559506
Oosteinde,44,,,1483AE,De Rijp,Alkmaar,Noord-Holland,VBO,4.857468,52.559497
Oosteinde,46,,,1483AE,De Rijp,Alkmaar,Noord-Holland,VBO,4.857696,52.559488
Oosteinde,48,,,1483AE,De Rijp,Alkmaar,Noord-Holland,VBO,4.857833,52.559482
Oosteinde,50,,,1483AE,De Rijp,Alkmaar,Noord-Holland,VBO,4.857927,52.559482
Oosteinde,52,,,1483AE,De Rijp,Alkmaar,Noord-Holland,VBO,4.858192,52.559474
't Achterom,1,,,1483AG,De Rijp,Alkmaar,Noord-Holland,VBO,4.856011,52.559768
't Achterom,2,,,1483AG,De Rijp,Alkmaar,Noord-Holland,VBO,4.856192,52.559794
't Achterom,3,,,1483AG,De Rijp,Alkmaar,Noord-Holland,VBO,4.856356,52.559784
't Achterom,4,,,1483AG,De Rijp,Alkmaar,Noord-Holland,VBO,4.856587,52.559893
Kralingergracht,1,,,1483AH,De Rijp,Alkmaar,Noord-Holland,VBO,4.854781,52.559357
Kralingergracht,4,,,1483AH,De Rijp,Alkmaar,Noord-Holland,VBO,4.854978,52.559339
Kralingergracht,5,,,1483AH,De Rijp,Alkmaar,Noord-Holland,VBO,4.855073,52.559323
Kralingergracht,6,,,1483AH,De Rijp,Alkmaar,Noord-Holland,VBO,4.855262,52.559294
Kralingergracht,8,,,1483AH,De Rijp,Alkmaar,Noord-Holland,VBO,4.855490,52.559237
Kralingergracht,10,,,1483AH,De Rijp,Alkmaar,Noord-Holland,VBO,4.855615,52.559220
Kralingergracht,11,,,1483AH,De Rijp,Alkmaar,Noord-Holland,VBO,4.855718,52.559175
Kralingergracht,12,,,1483AH,De Rijp,Alkmaar,Noord-Holland,VBO,4.855846,52.559135
Kralingergracht,13,,,1483AH,De Rijp,Alkmaar,Noord-Holland,VBO,4.856221,52.559160
Kralingergracht,15,,,1483AH,De Rijp,Alkmaar,Noord-Holland,VBO,4.856330,52.559015
Kralingergracht,16,,,1483AH,De Rijp,Alkmaar,Noord-Holland,VBO,4.856274,52.558795
Kralingerbuurt,2,,,1483AJ,De Rijp,Alkmaar,Noord-Holland,VBO,4.855208,52.559011
Kralingerbuurt,4,,,1483AJ,De Rijp,Alkmaar,Noord-Holland,VBO,4.855163,52.558959
Kralingerbuurt,6,,,1483AJ,De Rijp,Alkmaar,Noord-Holland,VBO,4.855167,52.558911
Havenstraat,1,,,1483AK,De Rijp,Alkmaar,Noord-Holland,VBO,4.854733,52.558866
Havenstraat,2,,,1483AK,De Rijp,Alkmaar,Noord-Holland,VBO,4.854885,52.558860
Havenstraat,3,,,1483AK,De Rijp,Alkmaar,Noord-Holland,VBO,4.855012,52.558903
Havenstraat,4,,,1483AK,De Rijp,Alkmaar,Noord-Holland,VBO,4.855154,52.558852
Havenstraat,5,,,1483AK,De Rijp,Alkmaar,Noord-Holland,VBO,4.855474,52.558848
Havenstraat,6,,,1483AK,De Rijp,Alkmaar,Noord-Holland,VBO,4.855590,52.558835
Havenstraat,7,,,1483AK,De Rijp,Alkmaar,Noord-Holland,VBO,4.855916,52.558815
Gashouderstraat,24,,,1483AL,De Rijp,Alkmaar,Noord-Holland,LIG,4.850283,52.558139
Oosterpark,1,,,1483AM,De Rijp,Alkmaar,Noord-Holland,VBO,4.855944,52.558479
Oosterpark,2,,,1483AM,De Rijp,Alkmaar,Noord-Holland,VBO,4.855432,52.558559
Oosterpark,3,,,1483AM,De Rijp,Alkmaar,Noord-Holland,VBO,4.855743,52.558243
Oosterpark,4,,,1483AM,De Rijp,Alkmaar,Noord-Holland,VBO,4.855298,52.558455
Oosterpark,5,,,1483AM,De Rijp,Alkmaar,Noord-Holland,VBO,4.855317,52.558153
Oosterpark,6,,,1483AM,De Rijp,Alkmaar,Noord-Holland,VBO,4.854839,52.558461
Oosterpark,7,,,1483AM,De Rijp,Alkmaar,Noord-Holland,VBO,4.854895,52.558144
Oosterpark,8,,,1483AM,De Rijp,Alkmaar,Noord-Holland,VBO,4.854852,52.558606
Oosterpark,9,,,1483AM,De Rijp,Alkmaar,Noord-Holland,VBO,4.854688,52.558178
Oosterpark,10,,,1483AM,De Rijp,Alkmaar,Noord-Holland,VBO,4.854343,52.558539
Oosterpark,11,,,1483AM,De Rijp,Alkmaar,Noord-Holland,VBO,4.854563,52.558210
Oosterpark,12,,,1483AM,De Rijp,Alkmaar,Noord-Holland,VBO,4.853859,52.558390
Oosterpark,13,,,1483AM,De Rijp,Alkmaar,Noord-Holland,VBO,4.854473,52.558212
Oosterpark,15,,,1483AM,De Rijp,Alkmaar,Noord-Holland,VBO,4.854250,52.558207
Oosterpark,17,,,1483AM,De Rijp,Alkmaar,Noord-Holland,VBO,4.853900,52.558218
Rolderspad,1,,,1483AN,De Rijp,Alkmaar,Noord-Holland,VBO,4.854623,52.559281
Rolderspad,2,,,1483AN,De Rijp,Alkmaar,Noord-Holland,VBO,4.854508,52.558889
Rolderspad,4,,,1483AN,De Rijp,Alkmaar,Noord-Holland,VBO,4.854337,52.558864
Rolderspad,5,,,1483AN,De Rijp,Alkmaar,Noord-Holland,VBO,4.854613,52.558884
Tuingracht,1,,,1483AP,De Rijp,Alkmaar,Noord-Holland,VBO,4.854535,52.559354
Tuingracht,2,,,1483AP,De Rijp,Alkmaar,Noord-Holland,VBO,4.854408,52.559340
Tuingracht,3,,,1483AP,De Rijp,Alkmaar,Noord-Holland,VBO,4.854353,52.559351
Tuingracht,4,,,1483AP,De Rijp,Alkmaar,Noord-Holland,VBO,4.854229,52.559350
Tuingracht,5,,,1483AP,De Rijp,Alkmaar,Noord-Holland,VBO,4.854135,52.559350
Tuingracht,6,,,1483AP,De Rijp,Alkmaar,Noord-Holland,VBO,4.854051,52.559350
Tuingracht,7,,,1483AP,De Rijp,Alkmaar,Noord-Holland,VBO,4.853895,52.559320
Tuingracht,9,,,1483AP,De Rijp,Alkmaar,Noord-Holland,VBO,4.853711,52.559228
Tuingracht,10,,,1483AP,De Rijp,Alkmaar,Noord-Holland,VBO,4.853623,52.559336
Tuingracht,11,,,1483AP,De Rijp,Alkmaar,Noord-Holland,VBO,4.853506,52.559339
Tuingracht,12,,,1483AP,De Rijp,Alkmaar,Noord-Holland,VBO,4.853414,52.559340
Tuingracht,13,,,1483AP,De Rijp,Alkmaar,Noord-Holland,VBO,4.853218,52.559355
Tuingracht,14,,,1483AP,De Rijp,Alkmaar,Noord-Holland,VBO,4.853091,52.559359
Tuingracht,15,,,1483AP,De Rijp,Alkmaar,Noord-Holland,VBO,4.852993,52.559362
Tuingracht,16,a,,1483AP,De Rijp,Alkmaar,Noord-Holland,VBO,4.852751,52.559260
Tuingracht,16,,,1483AP,De Rijp,Alkmaar,Noord-Holland,VBO,4.852867,52.559259
Tuingracht,17,,,1483AP,De Rijp,Alkmaar,Noord-Holland,VBO,4.852610,52.559378
Tuingracht,18,,,1483AR,De Rijp,Alkmaar,Noord-Holland,VBO,4.852506,52.559383
Tuingracht,19,,,1483AR,De Rijp,Alkmaar,Noord-Holland,VBO,4.852423,52.559387
Tuingracht,21,,,1483AR,De Rijp,Alkmaar,Noord-Holland,VBO,4.852304,52.559392
Tuingracht,22,,,1483AR,De Rijp,Alkmaar,Noord-Holland,VBO,4.852164,52.559399
Tuingracht,24,,,1483AR,De Rijp,Alkmaar,Noord-Holland,VBO,4.851901,52.559403
Tuingracht,25,,,1483AR,De Rijp,Alkmaar,Noord-Holland,VBO,4.851815,52.559407
Tuingracht,26,,,1483AR,De Rijp,Alkmaar,Noord-Holland,VBO,4.851733,52.559411
Tuingracht,27,,,1483AR,De Rijp,Alkmaar,Noord-Holland,VBO,4.851614,52.559415
Tuingracht,28,a,,1483AR,De Rijp,Alkmaar,Noord-Holland,VBO,4.851380,52.559396
Tuingracht,28,,,1483AR,De Rijp,Alkmaar,Noord-Holland,VBO,4.851499,52.559419
Tuingracht,29,,,1483AR,De Rijp,Alkmaar,Noord-Holland,VBO,4.851192,52.559357
Tuingracht,30,,,1483AR,De Rijp,Alkmaar,Noord-Holland,VBO,4.851194,52.558977
Tuingracht,31,,,1483AR,De Rijp,Alkmaar,Noord-Holland,VBO,4.851045,52.559381
Tuingracht,32,,,1483AR,De Rijp,Alkmaar,Noord-Holland,VBO,4.850843,52.559407
Tuingracht,34,,,1483AR,De Rijp,Alkmaar,Noord-Holland,VBO,4.850593,52.559425
Tuingracht,35,,,1483AR,De Rijp,Alkmaar,Noord-Holland,VBO,4.850395,52.559436
Tuingracht,36,,,1483AR,De Rijp,Alkmaar,Noord-Holland,VBO,4.850394,52.559363
Tuingracht,37,,,1483AR,De Rijp,Alkmaar,Noord-Holland,VBO,4.850508,52.559216
Sint Jacobsbuurt,1,,,1483AS,De Rijp,Alkmaar,Noord-Holland,VBO,4.850166,52.558842
Sint Jacobsbuurt,3,,,1483AS,De Rijp,Alkmaar,Noord-Holland,VBO,4.850249,52.558835
Sint Jacobsbuurt,5,,,1483AS,De Rijp,Alkmaar,Noord-Holland,VBO,4.850318,52.558826
Sint Jacobsbuurt,7,,,1483AS,De Rijp,Alkmaar,Noord-Holland,VBO,4.850412,52.558822
Sint Jacobsbuurt,9,,,1483AS,De Rijp,Alkmaar,Noord-Holland,VBO,4.850488,52.558847
Sint Jacobsbuurt,11,,,1483AS,De Rijp,Alkmaar,Noord-Holland,VBO,4.850482,52.558797
Sint Jacobsbuurt,13,,,1483AS,De Rijp,Alkmaar,Noord-Holland,VBO,4.850474,52.558757
Sint Jacobsbuurt,15,,,1483AS,De Rijp,Alkmaar,Noord-Holland,VBO,4.850479,52.558698
De Meelzak,1,,,1483AV,De Rijp,Alkmaar,Noord-Holland,VBO,4.850688,52.558751
De Meelzak,2,b,,1483AV,De Rijp,Alkmaar,Noord-Holland,VBO,4.850496,52.558198
De Meelzak,2,,,1483AV,De Rijp,Alkmaar,Noord-Holland,VBO,4.850598,52.558553
De Meelzak,3,,,1483AV,De Rijp,Alkmaar,Noord-Holland,VBO,4.850835,52.558741
De Meelzak,7,,,1483AV,De Rijp,Alkmaar,Noord-Holland,VBO,4.851075,52.558689
De Meelzak,12,,,1483AV,De Rijp,Alkmaar,Noord-Holland,LIG,4.852410,52.558371
De Meelzak,14,,,1483AV,De Rijp,Alkmaar,Noord-Holland,VBO,4.852372,52.558204
De Meelzak,16,,,1483AV,De Rijp,Alkmaar,Noord-Holland,VBO,4.851754,52.558053
De Meelzak,18,,,1483AV,De Rijp,Alkmaar,Noord-Holland,LIG,4.853485,52.558055
Zeilmakerspad,1,,,1483AX,De Rijp,Alkmaar,Noord-Holland,VBO,4.856168,52.558996
Zeilmakerspad,2,,,1483AX,De Rijp,Alkmaar,Noord-Holland,VBO,4.855734,52.558836
Rietbuurt,1,,,1483AZ,De Rijp,Alkmaar,Noord-Holland,VBO,4.846293,52.559387
Rietbuurt,2,,,1483AZ,De Rijp,Alkmaar,Noord-Holland,VBO,4.846251,52.559420
Rietbuurt,3,,,1483AZ,De Rijp,Alkmaar,Noord-Holland,VBO,4.846182,52.559426
Rietbuurt,4,,,1483AZ,De Rijp,Alkmaar,Noord-Holland,VBO,4.846112,52.559436
Rietbuurt,5,,,1483AZ,De Rijp,Alkmaar,Noord-Holland,VBO,4.846155,52.559474
Rietbuurt,6,,,1483AZ,De Rijp,Alkmaar,Noord-Holland,VBO,4.846167,52.559513
Rietbuurt,7,,,1483AZ,De Rijp,Alkmaar,Noord-Holland,VBO,4.846196,52.559587
Rietbuurt,8,,,1483AZ,De Rijp,Alkmaar,Noord-Holland,VBO,4.846133,52.559595
Rietbuurt,9,,,1483AZ,De Rijp,Alkmaar,Noord-Holland,VBO,4.846042,52.559581
Rietbuurt,10,,,1483AZ,De Rijp,Alkmaar,Noord-Holland,VBO,4.846009,52.559610
Rietbuurt,11,,,1483AZ,De Rijp,Alkmaar,Noord-Holland,VBO,4.845895,52.559624
Rietbuurt,12,,,1483AZ,De Rijp,Alkmaar,Noord-Holland,VBO,4.845821,52.559630
Rietbuurt,13,,,1483AZ,De Rijp,Alkmaar,Noord-Holland,VBO,4.845754,52.559634
Rietbuurt,14,,,1483AZ,De Rijp,Alkmaar,Noord-Holland,VBO,4.845679,52.559645
Rietbuurt,15,,,1483AZ,De Rijp,Alkmaar,Noord-Holland,VBO,4.845658,52.559592
Rietbuurt,16,,,1483AZ,De Rijp,Alkmaar,Noord-Holland,VBO,4.845639,52.559548
Rietbuurt,17,,,1483AZ,De Rijp,Alkmaar,Noord-Holland,VBO,4.845629,52.559507
Rietbuurt,18,,,1483AZ,De Rijp,Alkmaar,Noord-Holland,VBO,4.845612,52.559464
Rietbuurt,19,,,1483AZ,De Rijp,Alkmaar,Noord-Holland,VBO,4.845599,52.559422
Rietbuurt,20,,,1483AZ,De Rijp,Alkmaar,Noord-Holland,VBO,4.845341,52.559448
Rietbuurt,21,,,1483AZ,De Rijp,Alkmaar,Noord-Holland,VBO,4.845354,52.559491
Rietbuurt,22,,,1483AZ,De Rijp,Alkmaar,Noord-Holland,VBO,4.845370,52.559537
Rietbuurt,23,,,1483AZ,De Rijp,Alkmaar,Noord-Holland,VBO,4.845394,52.559574
Rechtestraat,1,,,1483BA,De Rijp,Alkmaar,Noord-Holland,VBO,4.854442,52.559583
Rechtestraat,3,,,1483BA,De Rijp,Alkmaar,Noord-Holland,VBO,4.854357,52.559585
Rechtestraat,5,,,1483BA,De Rijp,Alkmaar,Noord-Holland,VBO,4.854115,52.559592
Rechtestraat,7,,,1483BA,De Rijp,Alkmaar,Noord-Holland,VBO,4.853978,52.559592
Rechtestraat,9,,,1483BA,De Rijp,Alkmaar,Noord-Holland,VBO,4.853878,52.559594
Rechtestraat,11,,,1483BA,De Rijp,Alkmaar,Noord-Holland,VBO,4.853661,52.559596
Rechtestraat,17,,,1483BA,De Rijp,Alkmaar,Noord-Holland,VBO,4.853359,52.559600
Rechtestraat,19,,,1483BA,De Rijp,Alkmaar,Noord-Holland,VBO,4.853281,52.559601
Rechtestraat,21,,,1483BA,De Rijp,Alkmaar,Noord-Holland,VBO,4.853170,52.559602
Rechtestraat,23,,,1483BA,De Rijp,Alkmaar,Noord-Holland,VBO,4.853045,52.559605
Rechtestraat,25,,,1483BA,De Rijp,Alkmaar,Noord-Holland,VBO,4.852965,52.559606
Rechtestraat,27,,,1483BA,De Rijp,Alkmaar,Noord-Holland,VBO,4.852890,52.559608
Rechtestraat,29,,,1483BA,De Rijp,Alkmaar,Noord-Holland,VBO,4.852789,52.559612
Rechtestraat,31,,,1483BA,De Rijp,Alkmaar,Noord-Holland,VBO,4.852687,52.559616
Rechtestraat,33,,,1483BA,De Rijp,Alkmaar,Noord-Holland,VBO,4.852603,52.559619
Rechtestraat,35,,,1483BB,De Rijp,Alkmaar,Noord-Holland,VBO,4.852381,52.559628
Rechtestraat,37,,,1483BB,De Rijp,Alkmaar,Noord-Holland,VBO,4.852248,52.559632
Rechtestraat,39,,,1483BB,De Rijp,Alkmaar,Noord-Holland,VBO,4.852053,52.559613
Rechtestraat,41,,,1483BB,De Rijp,Alkmaar,Noord-Holland,VBO,4.851860,52.559651
Rechtestraat,43,,,1483BB,De Rijp,Alkmaar,Noord-Holland,VBO,4.851645,52.559662
Rechtestraat,45,,,1483BB,De Rijp,Alkmaar,Noord-Holland,VBO,4.851490,52.559669
Rechtestraat,47,,,1483BB,De Rijp,Alkmaar,Noord-Holland,VBO,4.851351,52.559675
Rechtestraat,49,,,1483BB,De Rijp,Alkmaar,Noord-Holland,VBO,4.851203,52.559665
Rechtestraat,51,a,,1483BB,De Rijp,Alkmaar,Noord-Holland,VBO,4.851081,52.559647
Rechtestraat,51,,,1483BB,De Rijp,Alkmaar,Noord-Holland,VBO,4.851112,52.559682
Rechtestraat,53,,,1483BB,De Rijp,Alkmaar,Noord-Holland,VBO,4.850857,52.559693
Rechtestraat,55,,,1483BB,De Rijp,Alkmaar,Noord-Holland,VBO,4.850583,52.559702
Rechtestraat,57,,,1483BB,De Rijp,Alkmaar,Noord-Holland,VBO,4.850540,52.559702
Rechtestraat,59,a,,1483BB,De Rijp,Alkmaar,Noord-Holland,VBO,4.850308,52.559700
Rechtestraat,59,,,1483BB,De Rijp,Alkmaar,Noord-Holland,VBO,4.850446,52.559706
Rechtestraat,61,,,1483BB,De Rijp,Alkmaar,Noord-Holland,VBO,4.850263,52.559683
Rechtestraat,63,,,1483BB,De Rijp,Alkmaar,Noord-Holland,VBO,4.850155,52.559688
Rechtestraat,65,,,1483BB,De Rijp,Alkmaar,Noord-Holland,VBO,4.850025,52.559694
Rechtestraat,67,,,1483BC,De Rijp,Alkmaar,Noord-Holland,VBO,4.849313,52.559773
Rechtestraat,71,,,1483BC,De Rijp,Alkmaar,Noord-Holland,VBO,4.849055,52.559824
Rechtestraat,73,,,1483BC,De Rijp,Alkmaar,Noord-Holland,VBO,4.848889,52.559859
Rechtestraat,75,a,,1483BC,De Rijp,Alkmaar,Noord-Holland,VBO,4.848779,52.559888
Rechtestraat,75,,,1483BC,De Rijp,Alkmaar,Noord-Holland,VBO,4.848855,52.559874
Rechtestraat,79,,,1483BC,De Rijp,Alkmaar,Noord-Holland,VBO,4.848311,52.559962
Rechtestraat,81,,,1483BC,De Rijp,Alkmaar,Noord-Holland,VBO,4.847296,52.560050
Rechtestraat,83,,,1483BC,De Rijp,Alkmaar,Noord-Holland,VBO,4.847210,52.560086
Rechtestraat,85,,,1483BC,De Rijp,Alkmaar,Noord-Holland,VBO,4.847114,52.560078
Rechtestraat,87,,,1483BC,De Rijp,Alkmaar,Noord-Holland,VBO,4.846974,52.560079
Rechtestraat,89,,,1483BC,De Rijp,Alkmaar,Noord-Holland,VBO,4.846909,52.560084
Rechtestraat,91,,,1483BC,De Rijp,Alkmaar,Noord-Holland,VBO,4.846742,52.560112
Rechtestraat,93,,,1483BC,De Rijp,Alkmaar,Noord-Holland,VBO,4.845911,52.560170
Rechtestraat,95,,,1483BC,De Rijp,Alkmaar,Noord-Holland,VBO,4.845758,52.560214
Rechtestraat,97,,,1483BC,De Rijp,Alkmaar,Noord-Holland,VBO,4.845601,52.560210
Rechtestraat,2,,,1483BD,De Rijp,Alkmaar,Noord-Holland,VBO,4.854764,52.559673
Rechtestraat,4,,,1483BD,De Rijp,Alkmaar,Noord-Holland,VBO,4.854673,52.559675
Rechtestraat,6,,,1483BD,De Rijp,Alkmaar,Noord-Holland,VBO,4.854586,52.559678
Rechtestraat,8,,,1483BD,De Rijp,Alkmaar,Noord-Holland,VBO,4.854513,52.559679
Rechtestraat,10,,,1483BD,De Rijp,Alkmaar,Noord-Holland,VBO,4.854395,52.559756
Rechtestraat,12,,,1483BD,De Rijp,Alkmaar,Noord-Holland,VBO,4.854315,52.559758
Rechtestraat,14,,,1483BD,De Rijp,Alkmaar,Noord-Holland,VBO,4.854232,52.559761
Rechtestraat,20,,,1483BD,De Rijp,Alkmaar,Noord-Holland,VBO,4.853957,52.559692
Rechtestraat,22,,,1483BD,De Rijp,Alkmaar,Noord-Holland,VBO,4.853853,52.559694
Rechtestraat,24,,,1483BD,De Rijp,Alkmaar,Noord-Holland,VBO,4.853734,52.559696
Rechtestraat,26,,,1483BD,De Rijp,Alkmaar,Noord-Holland,VBO,4.853633,52.559698
Rechtestraat,28,,,1483BD,De Rijp,Alkmaar,Noord-Holland,VBO,4.853525,52.559699
Rechtestraat,30,,,1483BD,De Rijp,Alkmaar,Noord-Holland,VBO,4.853440,52.559702
Rechtestraat,32,,,1483BD,De Rijp,Alkmaar,Noord-Holland,VBO,4.853345,52.559703
Rechtestraat,34,,,1483BD,De Rijp,Alkmaar,Noord-Holland,VBO,4.853250,52.559701
Rechtestraat,36,,,1483BD,De Rijp,Alkmaar,Noord-Holland,VBO,4.853163,52.559700
Rechtestraat,38,,,1483BD,De Rijp,Alkmaar,Noord-Holland,VBO,4.853093,52.559702
Rechtestraat,40,,,1483BD,De Rijp,Alkmaar,Noord-Holland,VBO,4.853003,52.559710
Rechtestraat,42,,,1483BD,De Rijp,Alkmaar,Noord-Holland,VBO,4.852900,52.559693
Rechtestraat,44,,,1483BD,De Rijp,Alkmaar,Noord-Holland,VBO,4.852791,52.559712
Rechtestraat,46,a,,1483BD,De Rijp,Alkmaar,Noord-Holland,VBO,4.852821,52.560057
Rechtestraat,46,,,1483BD,De Rijp,Alkmaar,Noord-Holland,VBO,4.852734,52.559715
Rechtestraat,48,,,1483BD,De Rijp,Alkmaar,Noord-Holland,VBO,4.852649,52.559717
Rechtestraat,50,,,1483BE,De Rijp,Alkmaar,Noord-Holland,VBO,4.852529,52.559721
Rechtestraat,52,,,1483BE,De Rijp,Alkmaar,Noord-Holland,VBO,4.852439,52.559722
Rechtestraat,54,,,1483BE,De Rijp,Alkmaar,Noord-Holland,VBO,4.852328,52.559731
Rechtestraat,56,,,1483BE,De Rijp,Alkmaar,Noord-Holland,VBO,4.852136,52.559745
Rechtestraat,58,,,1483BE,De Rijp,Alkmaar,Noord-Holland,VBO,4.852048,52.559751
Rechtestraat,60,,,1483BE,De Rijp,Alkmaar,Noord-Holland,VBO,4.851941,52.559817
Rechtestraat,64,,,1483BE,De Rijp,Alkmaar,Noord-Holland,VBO,4.851829,52.559763
Rechtestraat,66,,,1483BE,De Rijp,Alkmaar,Noord-Holland,VBO,4.851719,52.559764
Rechtestraat,68,,,1483BE,De Rijp,Alkmaar,Noord-Holland,VBO,4.851494,52.559853
Rechtestraat,70,A,,1483BE,De Rijp,Alkmaar,Noord-Holland,VBO,4.851450,52.560195
Rechtestraat,70,,,1483BE,De Rijp,Alkmaar,Noord-Holland,VBO,4.851331,52.559783
Rechtestraat,72,,,1483BE,De Rijp,Alkmaar,Noord-Holland,VBO,4.851239,52.559786
Rechtestraat,74,,,1483BE,De Rijp,Alkmaar,Noord-Holland,VBO,4.851147,52.559789
Rechtestraat,76,,,1483BE,De Rijp,Alkmaar,Noord-Holland,VBO,4.851046,52.559793
Rechtestraat,78,,,1483BE,De Rijp,Alkmaar,Noord-Holland,VBO,4.850919,52.559798
Rechtestraat,80,,,1483BE,De Rijp,Alkmaar,Noord-Holland,VBO,4.850825,52.559822
Rechtestraat,82,,,1483BE,De Rijp,Alkmaar,Noord-Holland,VBO,4.850754,52.559840
Rechtestraat,92,,,1483BE,De Rijp,Alkmaar,Noord-Holland,VBO,4.850516,52.559837
Rechtestraat,94,,,1483BE,De Rijp,Alkmaar,Noord-Holland,VBO,4.850444,52.559840
Rechtestraat,96,,,1483BE,De Rijp,Alkmaar,Noord-Holland,VBO,4.850344,52.559849
Rechtestraat,98,,,1483BE,De Rijp,Alkmaar,Noord-Holland,VBO,4.850245,52.559857
Rechtestraat,100,,,1483BE,De Rijp,Alkmaar,Noord-Holland,VBO,4.850141,52.559931
Rechtestraat,106,,,1483BE,De Rijp,Alkmaar,Noord-Holland,VBO,4.849854,52.559895
Rechtestraat,108,,,1483BG,De Rijp,Alkmaar,Noord-Holland,VBO,4.849690,52.559854
Rechtestraat,110,,,1483BG,De Rijp,Alkmaar,Noord-Holland,VBO,4.849623,52.559883
Rechtestraat,112,,,1483BG,De Rijp,Alkmaar,Noord-Holland,VBO,4.849548,52.559991
Rechtestraat,114,,,1483BG,De Rijp,Alkmaar,Noord-Holland,VBO,4.849447,52.559925
Rechtestraat,116,,,1483BG,De Rijp,Alkmaar,Noord-Holland,VBO,4.849305,52.559941
Rechtestraat,118,a,,1483BG,De Rijp,Alkmaar,Noord-Holland,VBO,4.849151,52.559968
Rechtestraat,118,b,,1483BG,De Rijp,Alkmaar,Noord-Holland,VBO,4.849151,52.559946
Rechtestraat,118,,,1483BG,De Rijp,Alkmaar,Noord-Holland,VBO,4.849171,52.560026
Rechtestraat,120,,,1483BG,De Rijp,Alkmaar,Noord-Holland,VBO,4.848972,52.560001
Rechtestraat,124,,,1483BG,De Rijp,Alkmaar,Noord-Holland,VBO,4.848906,52.560049
Rechtestraat,126,,,1483BG,De Rijp,Alkmaar,Noord-Holland,VBO,4.848803,52.560103
Rechtestraat,128,,,1483BG,De Rijp,Alkmaar,Noord-Holland,VBO,4.848686,52.560107
Rechtestraat,132,,,1483BG,De Rijp,Alkmaar,Noord-Holland,VBO,4.848572,52.560126
Rechtestraat,136,,,1483BG,De Rijp,Alkmaar,Noord-Holland,VBO,4.848395,52.560140
Rechtestraat,138,,,1483BG,De Rijp,Alkmaar,Noord-Holland,VBO,4.848305,52.560115
Rechtestraat,140,,,1483BG,De Rijp,Alkmaar,Noord-Holland,VBO,4.848368,52.560297
Rechtestraat,142,,,1483BG,De Rijp,Alkmaar,Noord-Holland,VBO,4.848051,52.560130
Rechtestraat,144,,,1483BG,De Rijp,Alkmaar,Noord-Holland,VBO,4.847940,52.560142
Rechtestraat,146,,,1483BG,De Rijp,Alkmaar,Noord-Holland,VBO,4.847763,52.560213
Rechtestraat,148,a,,1483BH,De Rijp,Alkmaar,Noord-Holland,VBO,4.847433,52.560381
Rechtestraat,148,,,1483BH,De Rijp,Alkmaar,Noord-Holland,VBO,4.847387,52.560228
Rechtestraat,150,,,1483BH,De Rijp,Alkmaar,Noord-Holland,VBO,4.847259,52.560312
Rechtestraat,152,,,1483BH,De Rijp,Alkmaar,Noord-Holland,VBO,4.847498,52.560553
Rechtestraat,154,a,,1483BH,De Rijp,Alkmaar,Noord-Holland,VBO,4.847128,52.560646
Rechtestraat,156,,,1483BH,De Rijp,Alkmaar,Noord-Holland,VBO,4.847136,52.560210
Rechtestraat,158,a,,1483BH,De Rijp,Alkmaar,Noord-Holland,VBO,4.846987,52.560304
Rechtestraat,158,,,1483BH,De Rijp,Alkmaar,Noord-Holland,VBO,4.846838,52.560243
Rechtestraat,160,,,1483BH,De Rijp,Alkmaar,Noord-Holland,VBO,4.846743,52.560248
Rechtestraat,162,,,1483BH,De Rijp,Alkmaar,Noord-Holland,VBO,4.846580,52.560263
Rechtestraat,164,a,,1483BH,De Rijp,Alkmaar,Noord-Holland,VBO,4.846127,52.560549
Rechtestraat,164,,,1483BH,De Rijp,Alkmaar,Noord-Holland,VBO,4.846407,52.560404
Rechtestraat,166,,,1483BH,De Rijp,Alkmaar,Noord-Holland,VBO,4.846048,52.560340
Rechtestraat,168,,,1483BH,De Rijp,Alkmaar,Noord-Holland,VBO,4.845905,52.560300
Rechtestraat,170,,,1483BH,De Rijp,Alkmaar,Noord-Holland,VBO,4.845766,52.560303
Rechtestraat,172,,,1483BH,De Rijp,Alkmaar,Noord-Holland,VBO,4.845671,52.560297
Rechtestraat,174,,,1483BH,De Rijp,Alkmaar,Noord-Holland,VBO,4.845550,52.560317
Rechtestraat,176,,,1483BH,De Rijp,Alkmaar,Noord-Holland,VBO,4.845459,52.560341
Kleine Dam,1,,,1483BJ,De Rijp,Alkmaar,Noord-Holland,VBO,4.849858,52.559705
Kleine Dam,2,,,1483BJ,De Rijp,Alkmaar,Noord-Holland,VBO,4.849487,52.559758
Kleine Dam,4,,,1483BJ,De Rijp,Alkmaar,Noord-Holland,VBO,4.849469,52.559704
Grote Dam,1,,,1483BK,De Rijp,Alkmaar,Noord-Holland,VBO,4.849307,52.559566
Grote Dam,2,,,1483BK,De Rijp,Alkmaar,Noord-Holland,VBO,4.849269,52.559502
Grote Dam,3,,,1483BK,De Rijp,Alkmaar,Noord-Holland,VBO,4.849204,52.559342
Grote Dam,4,,,1483BK,De Rijp,Alkmaar,Noord-Holland,VBO,4.849189,52.559243
Grote Dam,5,a,,1483BK,De Rijp,Alkmaar,Noord-Holland,VBO,4.849150,52.559135
Grote Dam,5,b,,1483BK,De Rijp,Alkmaar,Noord-Holland,VBO,4.849082,52.559144
Grote Dam,5,,,1483BK,De Rijp,Alkmaar,Noord-Holland,VBO,4.849168,52.559184
Grote Dam,6,,,1483BK,De Rijp,Alkmaar,Noord-Holland,VBO,4.849758,52.559380
Grote Dam,7,,,1483BK,De Rijp,Alkmaar,Noord-Holland,VBO,4.849559,52.559091
Jan Boonplein,1,a,,1483BL,De Rijp,Alkmaar,Noord-Holland,VBO,4.849292,52.559097
Jan Boonplein,1,,,1483BL,De Rijp,Alkmaar,Noord-Holland,VBO,4.849283,52.559051
Jan Boonplein,2,,,1483BL,De Rijp,Alkmaar,Noord-Holland,VBO,4.849273,52.559000
Jan Boonplein,3,,,1483BL,De Rijp,Alkmaar,Noord-Holland,VBO,4.849223,52.558936
Jan Boonplein,5,,,1483BL,De Rijp,Alkmaar,Noord-Holland,VBO,4.849111,52.558823
Jan Boonplein,6,,,1483BL,De Rijp,Alkmaar,Noord-Holland,VBO,4.849226,52.558766
Jan Boonplein,7,,,1483BL,De Rijp,Alkmaar,Noord-Holland,VBO,4.849200,52.558679
Jan Boonplein,8,,,1483BL,De Rijp,Alkmaar,Noord-Holland,VBO,4.849423,52.558643
Jan Boonplein,10,,,1483BL,De Rijp,Alkmaar,Noord-Holland,VBO,4.849740,52.558543
Jan Boonplein,12,,,1483BL,De Rijp,Alkmaar,Noord-Holland,VBO,4.849854,52.558578
Jan Boonplein,17,,,1483BL,De Rijp,Alkmaar,Noord-Holland,VBO,4.850031,52.558874
Jan Boonplein,18,,,1483BL,De Rijp,Alkmaar,Noord-Holland,VBO,4.849870,52.558829
Jan Boonplein,19,,,1483BL,De Rijp,Alkmaar,Noord-Holland,VBO,4.849664,52.558875
Jan Boonplein,20,,,1483BL,De Rijp,Alkmaar,Noord-Holland,VBO,4.849514,52.559045
Kerkstraat,1,,,1483BM,De Rijp,Alkmaar,Noord-Holland,VBO,4.848932,52.559297
Kerkstraat,3,,,1483BM,De Rijp,Alkmaar,Noord-Holland,VBO,4.848768,52.559317
Kerkstraat,5,,,1483BM,De Rijp,Alkmaar,Noord-Holland,VBO,4.848654,52.559334
Kerkstraat,7,,,1483BM,De Rijp,Alkmaar,Noord-Holland,VBO,4.848558,52.559339
Kerkstraat,9,,,1483BM,De Rijp,Alkmaar,Noord-Holland,VBO,4.848459,52.559345
Kerkstraat,11,,,1483BM,De Rijp,Alkmaar,Noord-Holland,VBO,4.848206,52.559359
Kerkstraat,13,,,1483BM,De Rijp,Alkmaar,Noord-Holland,VBO,4.848045,52.559295
Kerkstraat,15,,,1483BM,De Rijp,Alkmaar,Noord-Holland,VBO,4.847934,52.559413
Kerkstraat,17,,,1483BM,De Rijp,Alkmaar,Noord-Holland,VBO,4.847663,52.559398
Kerkstraat,19,,,1483BM,De Rijp,Alkmaar,Noord-Holland,VBO,4.847457,52.559429
Kerkstraat,21,,,1483BM,De Rijp,Alkmaar,Noord-Holland,VBO,4.847193,52.559455
Kerkstraat,23,,,1483BM,De Rijp,Alkmaar,Noord-Holland,VBO,4.847084,52.559475
Kerkstraat,25,,,1483BM,De Rijp,Alkmaar,Noord-Holland,VBO,4.846933,52.559516
Kerkstraat,27,,,1483BM,De Rijp,Alkmaar,Noord-Holland,VBO,4.846898,52.559502
Kerkstraat,29,,,1483BM,De Rijp,Alkmaar,Noord-Holland,VBO,4.846677,52.559459
Kerkstraat,2,,,1483BN,De Rijp,Alkmaar,Noord-Holland,VBO,4.848890,52.559383
Kerkstraat,4,,,1483BN,De Rijp,Alkmaar,Noord-Holland,VBO,4.848794,52.559396
Kerkstraat,6,a,,1483BN,De Rijp,Alkmaar,Noord-Holland,VBO,4.848610,52.559542
Kerkstraat,6,,,1483BN,De Rijp,Alkmaar,Noord-Holland,VBO,4.848677,52.559411
Kerkstraat,8,,,1483BN,De Rijp,Alkmaar,Noord-Holland,VBO,4.848468,52.559439
Kerkstraat,10,,,1483BN,De Rijp,Alkmaar,Noord-Holland,VBO,4.848342,52.559456
Kerkstraat,12,,,1483BN,De Rijp,Alkmaar,Noord-Holland,VBO,4.848180,52.559469
Kerkstraat,14,,,1483BN,De Rijp,Alkmaar,Noord-Holland,VBO,4.848100,52.559571
Kerkstraat,16,,,1483BN,De Rijp,Alkmaar,Noord-Holland,VBO,4.847956,52.559493
Kerkstraat,18,,,1483BN,De Rijp,Alkmaar,Noord-Holland,VBO,4.847888,52.559500
Kerkstraat,20,,,1483BN,De Rijp,Alkmaar,Noord-Holland,VBO,4.847721,52.559508
Kerkstraat,24,,,1483BN,De Rijp,Alkmaar,Noord-Holland,VBO,4.847025,52.559593
Kerkstraat,26,,,1483BN,De Rijp,Alkmaar,Noord-Holland,VBO,4.846920,52.559624
Kerkstraat,28,,,1483BN,De Rijp,Alkmaar,Noord-Holland,VBO,4.846848,52.559630
Kerkstraat,30,,,1483BN,De Rijp,Alkmaar,Noord-Holland,VBO,4.846740,52.559640
Kerkstraat,32,,,1483BN,De Rijp,Alkmaar,Noord-Holland,VBO,4.846003,52.559919
Kerkstraat,36,,,1483BN,De Rijp,Alkmaar,Noord-Holland,VBO,4.845400,52.559750
Langebrugspad,1,,,1483BP,De Rijp,Alkmaar,Noord-Holland,VBO,4.846837,52.559864
Langebrugspad,2,,,1483BP,De Rijp,Alkmaar,Noord-Holland,VBO,4.846634,52.559767
Langebrugspad,4,,,1483BP,De Rijp,Alkmaar,Noord-Holland,VBO,4.846592,52.559641
Nieuwland,1,,,1483BR,De Rijp,Alkmaar,Noord-Holland,VBO,4.847921,52.559135
Nieuwland,3,,,1483BR,De Rijp,Alkmaar,Noord-Holland,VBO,4.847925,52.559032
Nieuwland,4,,,1483BR,De Rijp,Alkmaar,Noord-Holland,VBO,4.847759,52.559774
Nieuwland,5,,,1483BR,De Rijp,Alkmaar,Noord-Holland,VBO,4.847797,52.558972
Nieuwland,6,,,1483BR,De Rijp,Alkmaar,Noord-Holland,VBO,4.847761,52.559557
Nieuwland,8,,,1483BR,De Rijp,Alkmaar,Noord-Holland,VBO,4.847630,52.559047
Nieuwland,10,,,1483BR,De Rijp,Alkmaar,Noord-Holland,VBO,4.847518,52.558925
Nieuwland,12,,,1483BR,De Rijp,Alkmaar,Noord-Holland,VBO,4.847529,52.558827
Nieuwland,14,,,1483BR,De Rijp,Alkmaar,Noord-Holland,VBO,4.847474,52.558753
Vlaander,1,,,1483BS,De Rijp,Alkmaar,Noord-Holland,VBO,4.847248,52.558812
Vlaander,2,,,1483BS,De Rijp,Alkmaar,Noord-Holland,VBO,4.847544,52.559104
Vlaander,4,,,1483BS,De Rijp,Alkmaar,Noord-Holland,VBO,4.847429,52.559075
Vlaander,6,,,1483BS,De Rijp,Alkmaar,Noord-Holland,VBO,4.847338,52.559079
Vlaander,7,,,1483BS,De Rijp,Alkmaar,Noord-Holland,VBO,4.846897,52.558885
Vlaander,8,,,1483BS,De Rijp,Alkmaar,Noord-Holland,VBO,4.847102,52.559114
Vlaander,9,,,1483BS,De Rijp,Alkmaar,Noord-Holland,VBO,4.846703,52.558866
Vlaander,10,,,1483BS,De Rijp,Alkmaar,Noord-Holland,VBO,4.846816,52.559038
Snorderspad,1,,,1483BT,De Rijp,Alkmaar,Noord-Holland,VBO,4.846605,52.558529
Venbuurt,2,,,1483BV,De Rijp,Alkmaar,Noord-Holland,VBO,4.846608,52.559082
Venbuurt,3,,,1483BV,De Rijp,Alkmaar,Noord-Holland,VBO,4.846423,52.558894
Venbuurt,4,,,1483BV,De Rijp,Alkmaar,Noord-Holland,VBO,4.846496,52.559038
Venbuurt,5,,,1483BV,De Rijp,Alkmaar,Noord-Holland,VBO,4.846328,52.558938
Venbuurt,6,,,1483BV,De Rijp,Alkmaar,Noord-Holland,VBO,4.846352,52.559092
Venbuurt,7,,,1483BV,De Rijp,Alkmaar,Noord-Holland,VBO,4.846198,52.558900
Venbuurt,8,,,1483BV,De Rijp,Alkmaar,Noord-Holland,VBO,4.846205,52.559061
Venbuurt,10,,,1483BV,De Rijp,Alkmaar,Noord-Holland,VBO,4.845932,52.559090
Venbuurt,11,,,1483BV,De Rijp,Alkmaar,Noord-Holland,VBO,4.845902,52.558923
Venbuurt,12,,,1483BV,De Rijp,Alkmaar,Noord-Holland,VBO,4.845775,52.559106
Venbuurt,13,,,1483BV,De Rijp,Alkmaar,Noord-Holland,VBO,4.845739,52.558938
Venbuurt,14,,,1483BV,De Rijp,Alkmaar,Noord-Holland,VBO,4.845507,52.559162
Venbuurt,15,,,1483BV,De Rijp,Alkmaar,Noord-Holland,VBO,4.845618,52.558971
Venbuurt,16,,,1483BV,De Rijp,Alkmaar,Noord-Holland,VBO,4.844961,52.559252
Venbuurt,17,,,1483BV,De Rijp,Alkmaar,Noord-Holland,VBO,4.845456,52.558966
Venbuurt,18,,,1483BV,De Rijp,Alkmaar,Noord-Holland,VBO,4.844783,52.558780
Venbuurt,20,,,1483BV,De Rijp,Alkmaar,Noord-Holland,VBO,4.844621,52.558621
Keizerbuurt,1,,,1483BW,De Rijp,Alkmaar,Noord-Holland,VBO,4.848269,52.558633
Keizerbuurt,2,,,1483BW,De Rijp,Alkmaar,Noord-Holland,VBO,4.848780,52.558708
Keizerbuurt,4,,,1483BW,De Rijp,Alkmaar,Noord-Holland,VBO,4.848575,52.558717
Keizerbuurt,8,,,1483BW,De Rijp,Alkmaar,Noord-Holland,VBO,4.848427,52.558738
Keizerbuurt,10,,,1483BW,De Rijp,Alkmaar,Noord-Holland,VBO,4.848314,52.558745
Keizerbuurt,12,,,1483BW,De Rijp,Alkmaar,Noord-Holland,VBO,4.848100,52.558731
Keizerbuurt,16,,,1483BW,De Rijp,Alkmaar,Noord-Holland,VBO,4.847855,52.558722
Keizerbuurt,18,,,1483BW,De Rijp,Alkmaar,Noord-Holland,VBO,4.847870,52.558792
Lievelandsbuurt,1,a,,1483BX,De Rijp,Alkmaar,Noord-Holland,VBO,4.848793,52.558232
Lievelandsbuurt,1,b,,1483BX,De Rijp,Alkmaar,Noord-Holland,VBO,4.848505,52.558260
Lievelandsbuurt,1,,,1483BX,De Rijp,Alkmaar,Noord-Holland,VBO,4.847810,52.558320
Lievelandsbuurt,2,,,1483BX,De Rijp,Alkmaar,Noord-Holland,VBO,4.848881,52.558402
Lievelandsbuurt,3,,,1483BX,De Rijp,Alkmaar,Noord-Holland,VBO,4.847018,52.558394
Lievelandsbuurt,4,,,1483BX,De Rijp,Alkmaar,Noord-Holland,VBO,4.848786,52.558408
Lievelandsbuurt,6,,,1483BX,De Rijp,Alkmaar,Noord-Holland,VBO,4.848680,52.558466
Lievelandsbuurt,10,,,1483BX,De Rijp,Alkmaar,Noord-Holland,VBO,4.848294,52.558451
Lievelandsbuurt,12,,,1483BX,De Rijp,Alkmaar,Noord-Holland,VBO,4.848164,52.558470
Lievelandsbuurt,16,,,1483BX,De Rijp,Alkmaar,Noord-Holland,VBO,4.847914,52.558431
Lievelandsbuurt,18,,,1483BX,De Rijp,Alkmaar,Noord-Holland,VBO,4.847803,52.558414
Lievelandsbuurt,20,,,1483BX,De Rijp,Alkmaar,Noord-Holland,VBO,4.847394,52.558537
Zuideinde,1,,,1483BZ,De Rijp,Alkmaar,Noord-Holland,VBO,4.849357,52.558572
Zuideinde,2,,,1483BZ,De Rijp,Alkmaar,Noord-Holland,VBO,4.849193,52.558632
Zuideinde,3,,,1483BZ,De Rijp,Alkmaar,Noord-Holland,VBO,4.849297,52.558438
Zuideinde,4,a,,1483BZ,De Rijp,Alkmaar,Noord-Holland,VBO,4.849171,52.558584
Zuideinde,4,,,1483BZ,De Rijp,Alkmaar,Noord-Holland,VBO,4.849172,52.558535
Zuideinde,5,a,,1483BZ,De Rijp,Alkmaar,Noord-Holland,VBO,4.849287,52.558312
Zuideinde,5,,,1483BZ,De Rijp,Alkmaar,Noord-Holland,VBO,4.849289,52.558372
Zuideinde,9,,,1483BZ,De Rijp,Alkmaar,Noord-Holland,VBO,4.849173,52.558092
Zuideinde,11,,,1483BZ,De Rijp,Alkmaar,Noord-Holland,VBO,4.849417,52.558013
Zuideinde,15,,,1483BZ,De Rijp,Alkmaar,Noord-Holland,VBO,4.849134,52.557957
Zuideinde,17,,,1483BZ,De Rijp,Alkmaar,Noord-Holland,VBO,4.849041,52.557876
Zuideinde,21,,,1483BZ,De Rijp,Alkmaar,Noord-Holland,VBO,4.849078,52.557721
Zuideinde,23,,,1483BZ,De Rijp,Alkmaar,Noord-Holland,VBO,4.848986,52.557604
Zuideinde,25,,,1483BZ,De Rijp,Alkmaar,Noord-Holland,VBO,4.848926,52.557556
Zuideinde,27,,,1483BZ,De Rijp,Alkmaar,Noord-Holland,VBO,4.848967,52.557488
Zuideinde,29,,,1483BZ,De Rijp,Alkmaar,Noord-Holland,VBO,4.848867,52.557368
Zuideinde,31,,,1483BZ,De Rijp,Alkmaar,Noord-Holland,VBO,4.848845,52.557303
Zuideinde,33,,,1483BZ,De Rijp,Alkmaar,Noord-Holland,VBO,4.848762,52.557210
Zuideinde,35,,,1483BZ,De Rijp,Alkmaar,Noord-Holland,VBO,4.848795,52.557146
Zuideinde,37,,,1483BZ,De Rijp,Alkmaar,Noord-Holland,VBO,4.848749,52.557080
Zuideinde,41,,,1483BZ,De Rijp,Alkmaar,Noord-Holland,VBO,4.848677,52.556961
Zuideinde,43,a,,1483BZ,De Rijp,Alkmaar,Noord-Holland,VBO,4.848658,52.556788
Zuideinde,43,,,1483BZ,De Rijp,Alkmaar,Noord-Holland,VBO,4.848650,52.556899
Zuideinde,45,,,1483BZ,De Rijp,Alkmaar,Noord-Holland,VBO,4.848670,52.556640
Marten Michielshof,1,,,1483CA,De Rijp,Alkmaar,Noord-Holland,VBO,4.846806,52.557536
Marten Michielshof,3,,,1483CA,De Rijp,Alkmaar,Noord-Holland,VBO,4.846811,52.557480
Marten Michielshof,5,,,1483CA,De Rijp,Alkmaar,Noord-Holland,VBO,4.846816,52.557430
Marten Michielshof,7,,,1483CA,De Rijp,Alkmaar,Noord-Holland,VBO,4.846817,52.557380
Marten Michielshof,9,,,1483CA,De Rijp,Alkmaar,Noord-Holland,VBO,4.846500,52.557171
Marten Michielshof,11,,,1483CA,De Rijp,Alkmaar,Noord-Holland,VBO,4.846521,52.557112
Marten Michielshof,13,,,1483CA,De Rijp,Alkmaar,Noord-Holland,VBO,4.846498,52.557070
Marten Michielshof,15,,,1483CA,De Rijp,Alkmaar,Noord-Holland,VBO,4.846463,52.557026
Marten Michielshof,17,,,1483CA,De Rijp,Alkmaar,Noord-Holland,VBO,4.846443,52.556983
Marten Michielshof,19,,,1483CA,De Rijp,Alkmaar,Noord-Holland,VBO,4.846411,52.556926
Marten Michielshof,21,,,1483CA,De Rijp,Alkmaar,Noord-Holland,VBO,4.846406,52.556876
Marten Michielshof,23,,,1483CA,De Rijp,Alkmaar,Noord-Holland,VBO,4.846431,52.556816
Marten Michielshof,25,,,1483CB,De Rijp,Alkmaar,Noord-Holland,VBO,4.845387,52.556791
Marten Michielshof,27,,,1483CB,De Rijp,Alkmaar,Noord-Holland,VBO,4.845393,52.556837
Marten Michielshof,29,,,1483CB,De Rijp,Alkmaar,Noord-Holland,VBO,4.845392,52.556896
Marten Michielshof,31,,,1483CB,De Rijp,Alkmaar,Noord-Holland,VBO,4.845387,52.556948
Marten Michielshof,33,,,1483CB,De Rijp,Alkmaar,Noord-Holland,VBO,4.845407,52.557003
Marten Michielshof,35,,,1483CB,De Rijp,Alkmaar,Noord-Holland,VBO,4.845407,52.557247
Marten Michielshof,37,,,1483CB,De Rijp,Alkmaar,Noord-Holland,VBO,4.845412,52.557299
Marten Michielshof,39,,,1483CB,De Rijp,Alkmaar,Noord-Holland,VBO,4.845414,52.557351
Marten Michielshof,41,,,1483CB,De Rijp,Alkmaar,Noord-Holland,VBO,4.845421,52.557404
Marten Michielshof,43,,,1483CB,De Rijp,Alkmaar,Noord-Holland,VBO,4.845518,52.557451
Marten Michielshof,45,,,1483CB,De Rijp,Alkmaar,Noord-Holland,VBO,4.845528,52.557505
Marten Michielshof,47,,,1483CB,De Rijp,Alkmaar,Noord-Holland,VBO,4.845525,52.557555
Marten Michielshof,49,,,1483CB,De Rijp,Alkmaar,Noord-Holland,VBO,4.845522,52.557604
Marten Michielshof,51,,,1483CB,De Rijp,Alkmaar,Noord-Holland,VBO,4.845532,52.557654
Marten Michielshof,53,,,1483CB,De Rijp,Alkmaar,Noord-Holland,VBO,4.845545,52.557709
Marten Michielshof,55,,,1483CB,De Rijp,Alkmaar,Noord-Holland,VBO,4.845724,52.557858
Marten Michielshof,57,,,1483CB,De Rijp,Alkmaar,Noord-Holland,VBO,4.845727,52.557905
Marten Michielshof,59,,,1483CB,De Rijp,Alkmaar,Noord-Holland,VBO,4.845729,52.557959
Marten Michielshof,61,,,1483CB,De Rijp,Alkmaar,Noord-Holland,VBO,4.845730,52.558014
Marten Michielshof,63,,,1483CB,De Rijp,Alkmaar,Noord-Holland,VBO,4.845740,52.558062
Marten Michielshof,65,,,1483CB,De Rijp,Alkmaar,Noord-Holland,VBO,4.845747,52.558107
Marten Michielshof,2,,,1483CC,De Rijp,Alkmaar,Noord-Holland,VBO,4.846421,52.558107
Marten Michielshof,4,,,1483CC,De Rijp,Alkmaar,Noord-Holland,VBO,4.846410,52.558048
Marten Michielshof,6,,,1483CC,De Rijp,Alkmaar,Noord-Holland,VBO,4.846410,52.557984
Marten Michielshof,8,,,1483CC,De Rijp,Alkmaar,Noord-Holland,VBO,4.846465,52.557581
Marten Michielshof,10,,,1483CC,De Rijp,Alkmaar,Noord-Holland,VBO,4.846453,52.557533
Marten Michielshof,12,,,1483CC,De Rijp,Alkmaar,Noord-Holland,VBO,4.846441,52.557477
Marten Michielshof,14,,,1483CC,De Rijp,Alkmaar,Noord-Holland,VBO,4.846459,52.557433
Marten Michielshof,16,,,1483CC,De Rijp,Alkmaar,Noord-Holland,VBO,4.846436,52.557382
Marten Michielshof,18,,,1483CC,De Rijp,Alkmaar,Noord-Holland,VBO,4.846438,52.557312
Marten Michielshof,20,,,1483CC,De Rijp,Alkmaar,Noord-Holland,VBO,4.846055,52.556929
Marten Michielshof,22,,,1483CC,De Rijp,Alkmaar,Noord-Holland,VBO,4.846043,52.556879
Marten Michielshof,24,,,1483CC,De Rijp,Alkmaar,Noord-Holland,VBO,4.846039,52.556825
Marten Michielshof,26,,,1483CC,De Rijp,Alkmaar,Noord-Holland,VBO,4.846040,52.556773
Marten Michielshof,28,,,1483CC,De Rijp,Alkmaar,Noord-Holland,VBO,4.846048,52.556720
Marten Michielshof,30,,,1483CD,De Rijp,Alkmaar,Noord-Holland,VBO,4.845739,52.557104
Marten Michielshof,32,,,1483CD,De Rijp,Alkmaar,Noord-Holland,VBO,4.845747,52.557161
Marten Michielshof,34,,,1483CD,De Rijp,Alkmaar,Noord-Holland,VBO,4.845750,52.557213
Marten Michielshof,36,,,1483CD,De Rijp,Alkmaar,Noord-Holland,VBO,4.845755,52.557262
Marten Michielshof,38,,,1483CD,De Rijp,Alkmaar,Noord-Holland,VBO,4.845853,52.557401
Marten Michielshof,40,,,1483CD,De Rijp,Alkmaar,Noord-Holland,VBO,4.845850,52.557464
Marten Michielshof,42,,,1483CD,De Rijp,Alkmaar,Noord-Holland,VBO,4.845864,52.557516
Marten Michielshof,44,,,1483CD,De Rijp,Alkmaar,Noord-Holland,VBO,4.845868,52.557560
Marten Michielshof,46,,,1483CD,De Rijp,Alkmaar,Noord-Holland,VBO,4.846052,52.557769
Marten Michielshof,48,,,1483CD,De Rijp,Alkmaar,Noord-Holland,VBO,4.846079,52.557802
Marten Michielshof,50,,,1483CD,De Rijp,Alkmaar,Noord-Holland,VBO,4.846061,52.557869
Marten Michielshof,52,,,1483CD,De Rijp,Alkmaar,Noord-Holland,VBO,4.846065,52.557925
Marten Michielshof,54,,,1483CD,De Rijp,Alkmaar,Noord-Holland,VBO,4.846070,52.557971
Beatrixstraat,27,,,1483CE,De Rijp,Alkmaar,Noord-Holland,VBO,4.845653,52.556253
Beatrixstraat,29,,,1483CE,De Rijp,Alkmaar,Noord-Holland,VBO,4.845629,52.556202
Beatrixstraat,31,,,1483CE,De Rijp,Alkmaar,Noord-Holland,VBO,4.845592,52.556151
Beatrixstraat,33,,,1483CE,De Rijp,Alkmaar,Noord-Holland,VBO,4.845569,52.556098
Beatrixstraat,35,,,1483CE,De Rijp,Alkmaar,Noord-Holland,VBO,4.845497,52.556015
Beatrixstraat,36,,,1483CE,De Rijp,Alkmaar,Noord-Holland,VBO,4.845320,52.556295
Beatrixstraat,37,,,1483CE,De Rijp,Alkmaar,Noord-Holland,VBO,4.845469,52.555964
Beatrixstraat,38,,,1483CE,De Rijp,Alkmaar,Noord-Holland,VBO,4.845286,52.556240
Beatrixstraat,39,,,1483CE,De Rijp,Alkmaar,Noord-Holland,VBO,4.845444,52.555908
Beatrixstraat,40,,,1483CE,De Rijp,Alkmaar,Noord-Holland,VBO,4.845220,52.556146
Beatrixstraat,41,,,1483CE,De Rijp,Alkmaar,Noord-Holland,VBO,4.845411,52.555856
Beatrixstraat,42,,,1483CE,De Rijp,Alkmaar,Noord-Holland,VBO,4.845183,52.556093
Beatrixstraat,43,,,1483CE,De Rijp,Alkmaar,Noord-Holland,VBO,4.845361,52.555766
Beatrixstraat,44,,,1483CE,De Rijp,Alkmaar,Noord-Holland,VBO,4.845134,52.555994
Beatrixstraat,45,,,1483CE,De Rijp,Alkmaar,Noord-Holland,VBO,4.845337,52.555720
Beatrixstraat,46,,,1483CE,De Rijp,Alkmaar,Noord-Holland,VBO,4.845099,52.555943
Beatrixstraat,47,,,1483CE,De Rijp,Alkmaar,Noord-Holland,VBO,4.845304,52.555669
Beatrixstraat,48,,,1483CE,De Rijp,Alkmaar,Noord-Holland,VBO,4.845045,52.555839
Beatrixstraat,49,,,1483CE,De Rijp,Alkmaar,Noord-Holland,VBO,4.845282,52.555621
Beatrixstraat,50,,,1483CE,De Rijp,Alkmaar,Noord-Holland,VBO,4.845016,52.555790
Beatrixstraat,52,,,1483CE,De Rijp,Alkmaar,Noord-Holland,VBO,4.844971,52.555685
Beatrixstraat,54,,,1483CE,De Rijp,Alkmaar,Noord-Holland,VBO,4.844934,52.555635
Beatrixstraat,56,,,1483CE,De Rijp,Alkmaar,Noord-Holland,VBO,4.844885,52.555533
Beatrixstraat,58,,,1483CE,De Rijp,Alkmaar,Noord-Holland,VBO,4.844854,52.555482
Bernhardstraat,1,,,1483CG,De Rijp,Alkmaar,Noord-Holland,VBO,4.847266,52.556198
Bernhardstraat,2,,,1483CG,De Rijp,Alkmaar,Noord-Holland,VBO,4.847454,52.556380
Bernhardstraat,3,,,1483CG,De Rijp,Alkmaar,Noord-Holland,VBO,4.847164,52.556219
Bernhardstraat,4,,,1483CG,De Rijp,Alkmaar,Noord-Holland,VBO,4.847334,52.556403
Bernhardstraat,5,,,1483CG,De Rijp,Alkmaar,Noord-Holland,VBO,4.847083,52.556233
Bernhardstraat,6,,,1483CG,De Rijp,Alkmaar,Noord-Holland,VBO,4.847192,52.556451
Bernhardstraat,7,,,1483CG,De Rijp,Alkmaar,Noord-Holland,VBO,4.846976,52.556258
Bernhardstraat,8,,,1483CG,De Rijp,Alkmaar,Noord-Holland,VBO,4.847114,52.556459
Bernhardstraat,9,,,1483CG,De Rijp,Alkmaar,Noord-Holland,VBO,4.846831,52.556287
Bernhardstraat,10,,,1483CG,De Rijp,Alkmaar,Noord-Holland,VBO,4.847036,52.556466
Bernhardstraat,11,,,1483CG,De Rijp,Alkmaar,Noord-Holland,VBO,4.846761,52.556303
Bernhardstraat,12,,,1483CG,De Rijp,Alkmaar,Noord-Holland,VBO,4.846962,52.556482
Bernhardstraat,13,,,1483CG,De Rijp,Alkmaar,Noord-Holland,VBO,4.846265,52.556371
Bernhardstraat,14,,,1483CG,De Rijp,Alkmaar,Noord-Holland,VBO,4.846817,52.556559
Bernhardstraat,15,,,1483CG,De Rijp,Alkmaar,Noord-Holland,VBO,4.846103,52.556401
Bernhardstraat,16,,,1483CG,De Rijp,Alkmaar,Noord-Holland,VBO,4.846844,52.556495
Bernhardstraat,17,,,1483CG,De Rijp,Alkmaar,Noord-Holland,VBO,4.846005,52.556416
Bernhardstraat,18,,,1483CG,De Rijp,Alkmaar,Noord-Holland,VBO,4.846832,52.556511
Bernhardstraat,19,,,1483CG,De Rijp,Alkmaar,Noord-Holland,VBO,4.845869,52.556440
Bernhardstraat,20,,,1483CG,De Rijp,Alkmaar,Noord-Holland,VBO,4.846817,52.556549
Bernhardstraat,21,,,1483CG,De Rijp,Alkmaar,Noord-Holland,VBO,4.845777,52.556457
Bernhardstraat,22,,,1483CG,De Rijp,Alkmaar,Noord-Holland,VBO,4.846818,52.556525
Bernhardstraat,23,,,1483CG,De Rijp,Alkmaar,Noord-Holland,VBO,4.845423,52.556485
Bernhardstraat,24,,,1483CG,De Rijp,Alkmaar,Noord-Holland,VBO,4.846811,52.556580
Bernhardstraat,25,,,1483CG,De Rijp,Alkmaar,Noord-Holland,VBO,4.845348,52.556497
Bernhardstraat,26,,,1483CG,De Rijp,Alkmaar,Noord-Holland,VBO,4.846817,52.556596
Bernhardstraat,27,,,1483CG,De Rijp,Alkmaar,Noord-Holland,VBO,4.845171,52.556495
Bernhardstraat,28,,,1483CG,De Rijp,Alkmaar,Noord-Holland,VBO,4.846818,52.556537
Fluytschip,1,,,1483CH,De Rijp,Alkmaar,Noord-Holland,VBO,4.844632,52.556653
Fluytschip,3,,,1483CH,De Rijp,Alkmaar,Noord-Holland,VBO,4.844515,52.556564
Fluytschip,5,,,1483CH,De Rijp,Alkmaar,Noord-Holland,VBO,4.844543,52.556436
Fluytschip,7,,,1483CH,De Rijp,Alkmaar,Noord-Holland,VBO,4.844483,52.556390
Fluytschip,9,,,1483CH,De Rijp,Alkmaar,Noord-Holland,VBO,4.844457,52.556346
Fluytschip,11,,,1483CH,De Rijp,Alkmaar,Noord-Holland,VBO,4.844486,52.556296
Fluytschip,13,,,1483CH,De Rijp,Alkmaar,Noord-Holland,VBO,4.844464,52.556251
Fluytschip,15,,,1483CH,De Rijp,Alkmaar,Noord-Holland,VBO,4.844448,52.556203
Fluytschip,17,,,1483CH,De Rijp,Alkmaar,Noord-Holland,VBO,4.844432,52.556159
Fluytschip,19,,,1483CH,De Rijp,Alkmaar,Noord-Holland,VBO,4.844466,52.556104
Fluytschip,21,,,1483CH,De Rijp,Alkmaar,Noord-Holland,VBO,4.844448,52.556026
Fluytschip,23,,,1483CH,De Rijp,Alkmaar,Noord-Holland,VBO,4.844426,52.555979
Fluytschip,25,,,1483CH,De Rijp,Alkmaar,Noord-Holland,VBO,4.844406,52.555933
Fluytschip,27,,,1483CH,De Rijp,Alkmaar,Noord-Holland,VBO,4.844388,52.555887
Fluytschip,29,,,1483CH,De Rijp,Alkmaar,Noord-Holland,VBO,4.844370,52.555840
Fluytschip,31,,,1483CH,De Rijp,Alkmaar,Noord-Holland,VBO,4.844354,52.555791
Fluytschip,33,,,1483CH,De Rijp,Alkmaar,Noord-Holland,VBO,4.844326,52.555744
Fluytschip,35,,,1483CH,De Rijp,Alkmaar,Noord-Holland,VBO,4.844270,52.555650
Fluytschip,37,,,1483CH,De Rijp,Alkmaar,Noord-Holland,VBO,4.844147,52.555472
Fluytschip,39,,,1483CH,De Rijp,Alkmaar,Noord-Holland,VBO,4.844016,52.555297
Fluytschip,41,,,1483CJ,De Rijp,Alkmaar,Noord-Holland,VBO,4.843819,52.555548
Fluytschip,43,,,1483CJ,De Rijp,Alkmaar,Noord-Holland,VBO,4.843826,52.555603
Fluytschip,45,,,1483CJ,De Rijp,Alkmaar,Noord-Holland,VBO,4.843833,52.555679
Fluytschip,47,,,1483CJ,De Rijp,Alkmaar,Noord-Holland,VBO,4.843845,52.555725
Fluytschip,49,,,1483CJ,De Rijp,Alkmaar,Noord-Holland,VBO,4.843865,52.555773
Fluytschip,51,,,1483CJ,De Rijp,Alkmaar,Noord-Holland,VBO,4.843889,52.555817
Fluytschip,53,,,1483CJ,De Rijp,Alkmaar,Noord-Holland,VBO,4.843909,52.555865
Fluytschip,55,,,1483CJ,De Rijp,Alkmaar,Noord-Holland,VBO,4.843925,52.555912
Fluytschip,57,,,1483CJ,De Rijp,Alkmaar,Noord-Holland,VBO,4.844017,52.555951
Fluytschip,59,,,1483CJ,De Rijp,Alkmaar,Noord-Holland,VBO,4.844037,52.555994
Fluytschip,61,,,1483CJ,De Rijp,Alkmaar,Noord-Holland,VBO,4.844060,52.556044
Fluytschip,63,,,1483CJ,De Rijp,Alkmaar,Noord-Holland,VBO,4.844071,52.556091
Fluytschip,65,,,1483CJ,De Rijp,Alkmaar,Noord-Holland,VBO,4.844159,52.556262
Fluytschip,67,,,1483CJ,De Rijp,Alkmaar,Noord-Holland,VBO,4.844077,52.556275
Fluytschip,69,,,1483CJ,De Rijp,Alkmaar,Noord-Holland,VBO,4.843921,52.556311
Fluytschip,71,,,1483CJ,De Rijp,Alkmaar,Noord-Holland,VBO,4.843836,52.556307
Fluytschip,73,,,1483CJ,De Rijp,Alkmaar,Noord-Holland,VBO,4.843757,52.556305
Fluytschip,75,,,1483CJ,De Rijp,Alkmaar,Noord-Holland,VBO,4.843675,52.556305
Fluytschip,2,,,1483CK,De Rijp,Alkmaar,Noord-Holland,VBO,4.844576,52.556858
Fluytschip,4,,,1483CK,De Rijp,Alkmaar,Noord-Holland,VBO,4.844574,52.556900
Fluytschip,6,,,1483CK,De Rijp,Alkmaar,Noord-Holland,VBO,4.844599,52.556940
Fluytschip,8,,,1483CK,De Rijp,Alkmaar,Noord-Holland,VBO,4.844600,52.556989
Fluytschip,10,,,1483CK,De Rijp,Alkmaar,Noord-Holland,VBO,4.844606,52.557034
Fluytschip,12,,,1483CK,De Rijp,Alkmaar,Noord-Holland,VBO,4.844601,52.557088
Fluytschip,14,,,1483CK,De Rijp,Alkmaar,Noord-Holland,VBO,4.844591,52.557136
Fluytschip,16,,,1483CK,De Rijp,Alkmaar,Noord-Holland,VBO,4.844646,52.557189
Fluytschip,18,,,1483CK,De Rijp,Alkmaar,Noord-Holland,VBO,4.844663,52.557231
Fluytschip,20,,,1483CK,De Rijp,Alkmaar,Noord-Holland,VBO,4.844690,52.557294
Fluytschip,22,,,1483CK,De Rijp,Alkmaar,Noord-Holland,VBO,4.844670,52.557350
Fluytschip,24,,,1483CK,De Rijp,Alkmaar,Noord-Holland,VBO,4.844704,52.557383
Fluytschip,26,,,1483CK,De Rijp,Alkmaar,Noord-Holland,VBO,4.844675,52.557499
Fluytschip,28,,,1483CK,De Rijp,Alkmaar,Noord-Holland,VBO,4.844322,52.557551
Fluytschip,30,,,1483CK,De Rijp,Alkmaar,Noord-Holland,VBO,4.844282,52.557449
Fluytschip,32,,,1483CK,De Rijp,Alkmaar,Noord-Holland,VBO,4.844233,52.557368
Fluytschip,34,,,1483CK,De Rijp,Alkmaar,Noord-Holland,VBO,4.844196,52.557272
Fluytschip,36,,,1483CL,De Rijp,Alkmaar,Noord-Holland,VBO,4.843760,52.557500
Fluytschip,38,,,1483CL,De Rijp,Alkmaar,Noord-Holland,VBO,4.843753,52.557457
Fluytschip,40,,,1483CL,De Rijp,Alkmaar,Noord-Holland,VBO,4.843751,52.557409
Fluytschip,42,,,1483CL,De Rijp,Alkmaar,Noord-Holland,VBO,4.843756,52.557354
Fluytschip,44,,,1483CL,De Rijp,Alkmaar,Noord-Holland,VBO,4.843761,52.557312
Fluytschip,46,,,1483CL,De Rijp,Alkmaar,Noord-Holland,VBO,4.843775,52.557254
Fluytschip,48,,,1483CL,De Rijp,Alkmaar,Noord-Holland,VBO,4.843683,52.557076
Fluytschip,50,,,1483CL,De Rijp,Alkmaar,Noord-Holland,VBO,4.843766,52.557064
Fluytschip,52,,,1483CL,De Rijp,Alkmaar,Noord-Holland,VBO,4.843832,52.557053
Fluytschip,54,,,1483CL,De Rijp,Alkmaar,Noord-Holland,VBO,4.843992,52.557096
Fluytschip,56,,,1483CL,De Rijp,Alkmaar,Noord-Holland,VBO,4.844067,52.557083
Fluytschip,58,,,1483CL,De Rijp,Alkmaar,Noord-Holland,VBO,4.844148,52.557071
Fluytschip,60,,,1483CL,De Rijp,Alkmaar,Noord-Holland,VBO,4.844226,52.557058
Fluytschip,62,,,1483CL,De Rijp,Alkmaar,Noord-Holland,VBO,4.844077,52.556827
Fluytschip,64,,,1483CL,De Rijp,Alkmaar,Noord-Holland,VBO,4.844057,52.556788
Fluytschip,66,,,1483CL,De Rijp,Alkmaar,Noord-Holland,VBO,4.844042,52.556745
Fluytschip,68,,,1483CL,De Rijp,Alkmaar,Noord-Holland,VBO,4.843953,52.556706
Fluytschip,70,,,1483CL,De Rijp,Alkmaar,Noord-Holland,VBO,4.843937,52.556661
Fluytschip,72,,,1483CL,De Rijp,Alkmaar,Noord-Holland,VBO,4.843915,52.556610
Fluytschip,74,,,1483CL,De Rijp,Alkmaar,Noord-Holland,VBO,4.843886,52.556562
Haringbuis,1,,,1483CP,De Rijp,Alkmaar,Noord-Holland,VBO,4.842730,52.556816
Haringbuis,3,,,1483CP,De Rijp,Alkmaar,Noord-Holland,VBO,4.842638,52.556831
Haringbuis,5,,,1483CP,De Rijp,Alkmaar,Noord-Holland,VBO,4.842563,52.556842
Haringbuis,7,,,1483CP,De Rijp,Alkmaar,Noord-Holland,VBO,4.842482,52.556852
Haringbuis,9,,,1483CP,De Rijp,Alkmaar,Noord-Holland,VBO,4.842228,52.556834
Haringbuis,11,,,1483CP,De Rijp,Alkmaar,Noord-Holland,VBO,4.842262,52.556882
Haringbuis,13,,,1483CP,De Rijp,Alkmaar,Noord-Holland,VBO,4.842252,52.556930
Haringbuis,15,,,1483CP,De Rijp,Alkmaar,Noord-Holland,VBO,4.842270,52.556977
Haringbuis,17,,,1483CP,De Rijp,Alkmaar,Noord-Holland,VBO,4.842291,52.557019
Haringbuis,19,,,1483CP,De Rijp,Alkmaar,Noord-Holland,VBO,4.842313,52.557070
Haringbuis,21,,,1483CP,De Rijp,Alkmaar,Noord-Holland,VBO,4.842345,52.557141
Haringbuis,41,,,1483CP,De Rijp,Alkmaar,Noord-Holland,VBO,4.842715,52.556490
Haringbuis,43,,,1483CP,De Rijp,Alkmaar,Noord-Holland,VBO,4.842594,52.556511
Haringbuis,45,,,1483CP,De Rijp,Alkmaar,Noord-Holland,VBO,4.842517,52.556518
Haringbuis,47,,,1483CP,De Rijp,Alkmaar,Noord-Holland,VBO,4.842426,52.556531
Haringbuis,51,,,1483CR,De Rijp,Alkmaar,Noord-Holland,VBO,4.842032,52.556027
Haringbuis,53,,,1483CR,De Rijp,Alkmaar,Noord-Holland,VBO,4.841970,52.556037
Haringbuis,55,,,1483CR,De Rijp,Alkmaar,Noord-Holland,VBO,4.841913,52.556045
Haringbuis,57,,,1483CR,De Rijp,Alkmaar,Noord-Holland,VBO,4.841980,52.555911
Haringbuis,59,,,1483CR,De Rijp,Alkmaar,Noord-Holland,VBO,4.842298,52.555751
Haringbuis,65,,,1483CR,De Rijp,Alkmaar,Noord-Holland,VBO,4.842355,52.556173
Haringbuis,67,,,1483CR,De Rijp,Alkmaar,Noord-Holland,VBO,4.842303,52.556134
Haringbuis,69,,,1483CR,De Rijp,Alkmaar,Noord-Holland,VBO,4.842347,52.556099
Haringbuis,71,,,1483CR,De Rijp,Alkmaar,Noord-Holland,VBO,4.842396,52.556059
Haringbuis,73,,,1483CR,De Rijp,Alkmaar,Noord-Holland,VBO,4.842454,52.556027
Haringbuis,75,,,1483CR,De Rijp,Alkmaar,Noord-Holland,VBO,4.842511,52.555993
Haringbuis,77,,,1483CR,De Rijp,Alkmaar,Noord-Holland,VBO,4.842568,52.555959
Haringbuis,79,,,1483CR,De Rijp,Alkmaar,Noord-Holland,VBO,4.842620,52.555924
Haringbuis,81,,,1483CR,De Rijp,Alkmaar,Noord-Holland,VBO,4.842671,52.555888
Haringbuis,83,,,1483CR,De Rijp,Alkmaar,Noord-Holland,VBO,4.843126,52.556360
Haringbuis,85,,,1483CR,De Rijp,Alkmaar,Noord-Holland,VBO,4.843058,52.556271
Haringbuis,87,,,1483CR,De Rijp,Alkmaar,Noord-Holland,VBO,4.843060,52.556229
Haringbuis,89,,,1483CR,De Rijp,Alkmaar,Noord-Holland,VBO,4.843061,52.556178
Haringbuis,91,,,1483CS,De Rijp,Alkmaar,Noord-Holland,VBO,4.843068,52.556131
Haringbuis,93,,,1483CS,De Rijp,Alkmaar,Noord-Holland,VBO,4.843075,52.556083
Haringbuis,95,,,1483CS,De Rijp,Alkmaar,Noord-Holland,VBO,4.843077,52.556036
Haringbuis,97,,,1483CS,De Rijp,Alkmaar,Noord-Holland,VBO,4.843086,52.555987
Haringbuis,99,,,1483CS,De Rijp,Alkmaar,Noord-Holland,VBO,4.843078,52.555942
Haringbuis,101,,,1483CS,De Rijp,Alkmaar,Noord-Holland,VBO,4.843207,52.555785
Haringbuis,103,,,1483CS,De Rijp,Alkmaar,Noord-Holland,VBO,4.843166,52.555818
Haringbuis,105,,,1483CS,De Rijp,Alkmaar,Noord-Holland,VBO,4.843034,52.555849
Haringbuis,107,,,1483CS,De Rijp,Alkmaar,Noord-Holland,VBO,4.843024,52.555810
Haringbuis,109,,,1483CS,De Rijp,Alkmaar,Noord-Holland,VBO,4.843008,52.555771
Haringbuis,111,,,1483CS,De Rijp,Alkmaar,Noord-Holland,VBO,4.843262,52.555599
Haringbuis,113,,,1483CS,De Rijp,Alkmaar,Noord-Holland,VBO,4.843191,52.555608
Haringbuis,115,,,1483CS,De Rijp,Alkmaar,Noord-Holland,VBO,4.843124,52.555617
Haringbuis,117,,,1483CS,De Rijp,Alkmaar,Noord-Holland,VBO,4.843053,52.555628
Haringbuis,119,,,1483CS,De Rijp,Alkmaar,Noord-Holland,VBO,4.842983,52.555639
Haringbuis,121,,,1483CS,De Rijp,Alkmaar,Noord-Holland,VBO,4.842859,52.555463
Haringbuis,123,,,1483CS,De Rijp,Alkmaar,Noord-Holland,VBO,4.842851,52.555402
Haringbuis,125,,,1483CS,De Rijp,Alkmaar,Noord-Holland,VBO,4.842919,52.555408
Haringbuis,127,,,1483CS,De Rijp,Alkmaar,Noord-Holland,VBO,4.842995,52.555397
Haringbuis,129,,,1483CS,De Rijp,Alkmaar,Noord-Holland,VBO,4.843099,52.555383
Haringbuis,131,,,1483CS,De Rijp,Alkmaar,Noord-Holland,VBO,4.843184,52.555379
Haringbuis,133,,,1483CS,De Rijp,Alkmaar,Noord-Holland,VBO,4.843290,52.555380
Haringbuis,2,,,1483CT,De Rijp,Alkmaar,Noord-Holland,VBO,4.842989,52.556574
Haringbuis,4,a,,1483CT,De Rijp,Alkmaar,Noord-Holland,VBO,4.843040,52.556685
Haringbuis,4,,,1483CT,De Rijp,Alkmaar,Noord-Holland,VBO,4.843003,52.556616
Haringbuis,6,,,1483CT,De Rijp,Alkmaar,Noord-Holland,VBO,4.842980,52.556741
Haringbuis,8,,,1483CT,De Rijp,Alkmaar,Noord-Holland,VBO,4.843010,52.556788
Haringbuis,10,,,1483CT,De Rijp,Alkmaar,Noord-Holland,VBO,4.843031,52.556838
Haringbuis,12,,,1483CT,De Rijp,Alkmaar,Noord-Holland,VBO,4.843042,52.556910
Haringbuis,14,,,1483CT,De Rijp,Alkmaar,Noord-Holland,VBO,4.843029,52.556978
Haringbuis,16,,,1483CT,De Rijp,Alkmaar,Noord-Holland,VBO,4.843024,52.557024
Haringbuis,18,,,1483CT,De Rijp,Alkmaar,Noord-Holland,VBO,4.842999,52.557078
Haringbuis,20,,,1483CT,De Rijp,Alkmaar,Noord-Holland,VBO,4.843103,52.557079
Haringbuis,22,,,1483CT,De Rijp,Alkmaar,Noord-Holland,VBO,4.843094,52.557256
Haringbuis,24,,,1483CT,De Rijp,Alkmaar,Noord-Holland,VBO,4.843008,52.557242
Haringbuis,26,,,1483CT,De Rijp,Alkmaar,Noord-Holland,VBO,4.842932,52.557234
Haringbuis,28,,,1483CT,De Rijp,Alkmaar,Noord-Holland,VBO,4.842837,52.557220
Haringbuis,30,,,1483CT,De Rijp,Alkmaar,Noord-Holland,VBO,4.842741,52.557183
Haringbuis,32,,,1483CT,De Rijp,Alkmaar,Noord-Holland,VBO,4.842660,52.557153
Haringbuis,34,,,1483CT,De Rijp,Alkmaar,Noord-Holland,VBO,4.842587,52.557145
Haringbuis,36,,,1483CT,De Rijp,Alkmaar,Noord-Holland,VBO,4.842496,52.557134
Haringbuis,42,,,1483CV,De Rijp,Alkmaar,Noord-Holland,VBO,4.842198,52.556606
Haringbuis,44,,,1483CV,De Rijp,Alkmaar,Noord-Holland,VBO,4.842094,52.556646
Haringbuis,46,,,1483CV,De Rijp,Alkmaar,Noord-Holland,VBO,4.842131,52.556567
Haringbuis,48,,,1483CV,De Rijp,Alkmaar,Noord-Holland,VBO,4.842114,52.556518
Haringbuis,50,,,1483CV,De Rijp,Alkmaar,Noord-Holland,VBO,4.842097,52.556475
Haringbuis,52,,,1483CV,De Rijp,Alkmaar,Noord-Holland,VBO,4.842069,52.556423
Haringbuis,54,,,1483CV,De Rijp,Alkmaar,Noord-Holland,VBO,4.842049,52.556349
Haringbuis,56,,,1483CV,De Rijp,Alkmaar,Noord-Holland,VBO,4.842032,52.556302
Haringbuis,58,,,1483CV,De Rijp,Alkmaar,Noord-Holland,VBO,4.842016,52.556252
Haringbuis,60,,,1483CV,De Rijp,Alkmaar,Noord-Holland,VBO,4.841986,52.556206
Haringbuis,62,,,1483CV,De Rijp,Alkmaar,Noord-Holland,VBO,4.841974,52.556159
Haringbuis,64,,,1483CV,De Rijp,Alkmaar,Noord-Holland,VBO,4.841942,52.556107
Haringbuis,66,,,1483CV,De Rijp,Alkmaar,Noord-Holland,VBO,4.841992,52.555954
Haringbuis,68,,,1483CV,De Rijp,Alkmaar,Noord-Holland,VBO,4.842086,52.555899
Haringbuis,70,,,1483CV,De Rijp,Alkmaar,Noord-Holland,VBO,4.842147,52.555891
Haringbuis,72,,,1483CV,De Rijp,Alkmaar,Noord-Holland,VBO,4.842214,52.555881
Haringbuis,74,,,1483CV,De Rijp,Alkmaar,Noord-Holland,VBO,4.842285,52.555873
Haringbuis,76,,,1483CV,De Rijp,Alkmaar,Noord-Holland,VBO,4.842357,52.555811
Haringbuis,78,,,1483CV,De Rijp,Alkmaar,Noord-Holland,VBO,4.842341,52.555767
Haringbuis,80,,,1483CV,De Rijp,Alkmaar,Noord-Holland,VBO,4.842428,52.555717
Haringbuis,82,,,1483CV,De Rijp,Alkmaar,Noord-Holland,VBO,4.842497,52.555707
Haringbuis,84,,,1483CV,De Rijp,Alkmaar,Noord-Holland,VBO,4.842567,52.555696
Haringbuis,86,,,1483CV,De Rijp,Alkmaar,Noord-Holland,VBO,4.842636,52.555687
Haringbuis,92,,,1483CW,De Rijp,Alkmaar,Noord-Holland,VBO,4.842681,52.556343
Haringbuis,94,,,1483CW,De Rijp,Alkmaar,Noord-Holland,VBO,4.842667,52.556296
Haringbuis,96,,,1483CW,De Rijp,Alkmaar,Noord-Holland,VBO,4.842653,52.556249
Haringbuis,98,,,1483CW,De Rijp,Alkmaar,Noord-Holland,VBO,4.842630,52.556201
Haringbuis,100,,,1483CW,De Rijp,Alkmaar,Noord-Holland,VBO,4.842609,52.556159
Haringbuis,102,,,1483CW,De Rijp,Alkmaar,Noord-Holland,VBO,4.842493,52.555570
Haringbuis,104,,,1483CW,De Rijp,Alkmaar,Noord-Holland,VBO,4.842542,52.555518
Haringbuis,106,,,1483CW,De Rijp,Alkmaar,Noord-Holland,VBO,4.842522,52.555472
Haringbuis,108,,,1483CW,De Rijp,Alkmaar,Noord-Holland,VBO,4.842501,52.555423
Haringbuis,110,,,1483CW,De Rijp,Alkmaar,Noord-Holland,VBO,4.842470,52.555347
Haringbuis,112,,,1483CW,De Rijp,Alkmaar,Noord-Holland,VBO,4.842446,52.555298
Haringbuis,114,a,,1483CW,De Rijp,Alkmaar,Noord-Holland,VBO,4.842391,52.555211
Haringbuis,114,,,1483CW,De Rijp,Alkmaar,Noord-Holland,VBO,4.842327,52.555194
Haringbuis,116,a,,1483CW,De Rijp,Alkmaar,Noord-Holland,VBO,4.842550,52.555196
Haringbuis,116,,,1483CW,De Rijp,Alkmaar,Noord-Holland,VBO,4.842445,52.555178
Haringbuis,118,,,1483CW,De Rijp,Alkmaar,Noord-Holland,VBO,4.842671,52.555177
Haringbuis,120,,,1483CW,De Rijp,Alkmaar,Noord-Holland,VBO,4.842754,52.555166
Haringbuis,122,,,1483CW,De Rijp,Alkmaar,Noord-Holland,VBO,4.842829,52.555154
Haringbuis,124,,,1483CW,De Rijp,Alkmaar,Noord-Holland,VBO,4.842912,52.555145
Haringbuis,126,,,1483CW,De Rijp,Alkmaar,Noord-Holland,VBO,4.842991,52.555136
Haringbuis,128,,,1483CW,De Rijp,Alkmaar,Noord-Holland,VBO,4.843066,52.555130
Haringbuis,130,,,1483CW,De Rijp,Alkmaar,Noord-Holland,VBO,4.843155,52.555122
Haringbuis,132,,,1483CW,De Rijp,Alkmaar,Noord-Holland,VBO,4.843232,52.555113
Haringbuis,134,,,1483CW,De Rijp,Alkmaar,Noord-Holland,VBO,4.843313,52.555103
Haringbuis,136,,,1483CW,De Rijp,Alkmaar,Noord-Holland,VBO,4.843408,52.555085
Haringbuis,138,,,1483CW,De Rijp,Alkmaar,Noord-Holland,VBO,4.843513,52.555106
Looijerspad,1,,,1483CX,De Rijp,Alkmaar,Noord-Holland,VBO,4.850594,52.560005
Looijerspad,3,,,1483CX,De Rijp,Alkmaar,Noord-Holland,VBO,4.850598,52.560101
Looijerspad,5,,,1483CX,De Rijp,Alkmaar,Noord-Holland,VBO,4.850636,52.560263
Westeinde,1,,,1483EA,De Rijp,Alkmaar,Noord-Holland,VBO,4.844138,52.560313
Westeinde,3,a,,1483EA,De Rijp,Alkmaar,Noord-Holland,VBO,4.841371,52.560358
Westeinde,3,,,1483EA,De Rijp,Alkmaar,Noord-Holland,VBO,4.841271,52.560393
Westeinde,4,,,1483EA,De Rijp,Alkmaar,Noord-Holland,VBO,4.845020,52.560433
Westeinde,6,,,1483EA,De Rijp,Alkmaar,Noord-Holland,VBO,4.844848,52.560392
Westeinde,10,,,1483EA,De Rijp,Alkmaar,Noord-Holland,VBO,4.844604,52.560419
Westeinde,12,,,1483EA,De Rijp,Alkmaar,Noord-Holland,VBO,4.844454,52.560424
Westeinde,14,,,1483EA,De Rijp,Alkmaar,Noord-Holland,VBO,4.844336,52.560425
Westeinde,20,,,1483EA,De Rijp,Alkmaar,Noord-Holland,VBO,4.843922,52.561018
Westeinde,22,,,1483EA,De Rijp,Alkmaar,Noord-Holland,VBO,4.843835,52.560478
Westeinde,24,,,1483EA,De Rijp,Alkmaar,Noord-Holland,VBO,4.843725,52.560482
Westeinde,26,,,1483EA,De Rijp,Alkmaar,Noord-Holland,VBO,4.843643,52.560485
Westeinde,28,,,1483EA,De Rijp,Alkmaar,Noord-Holland,VBO,4.843471,52.560455
Westeinde,30,,,1483EB,De Rijp,Alkmaar,Noord-Holland,VBO,4.843333,52.560452
Westeinde,32,,,1483EB,De Rijp,Alkmaar,Noord-Holland,VBO,4.843208,52.560460
Westeinde,34,,,1483EB,De Rijp,Alkmaar,Noord-Holland,VBO,4.843044,52.560453
Westeinde,36,,,1483EB,De Rijp,Alkmaar,Noord-Holland,VBO,4.842848,52.560517
Westeinde,38,,,1483EB,De Rijp,Alkmaar,Noord-Holland,VBO,4.842736,52.560524
Westeinde,40,,,1483EB,De Rijp,Alkmaar,Noord-Holland,VBO,4.842582,52.560500
Westeinde,42,,,1483EB,De Rijp,Alkmaar,Noord-Holland,VBO,4.842354,52.560516
Westeinde,44,,,1483EB,De Rijp,Alkmaar,Noord-Holland,VBO,4.842100,52.560522
Westeinde,46,,,1483EB,De Rijp,Alkmaar,Noord-Holland,VBO,4.841976,52.560528
Westeinde,48,,,1483EB,De Rijp,Alkmaar,Noord-Holland,VBO,4.841858,52.560544
Westeinde,50,,,1483EB,De Rijp,Alkmaar,Noord-Holland,VBO,4.841769,52.560545
Westeinde,52,,,1483EB,De Rijp,Alkmaar,Noord-Holland,VBO,4.841647,52.560552
Westeinde,54,,,1483EB,De Rijp,Alkmaar,Noord-Holland,VBO,4.841546,52.560549
Westeinde,56,,,1483EB,De Rijp,Alkmaar,Noord-Holland,VBO,4.841432,52.560554
Westeinde,58,,,1483EB,De Rijp,Alkmaar,Noord-Holland,VBO,4.841331,52.560557
Westeinde,60,,,1483EB,De Rijp,Alkmaar,Noord-Holland,VBO,4.841222,52.560563
Westeinde,62,,,1483EB,De Rijp,Alkmaar,Noord-Holland,VBO,4.841116,52.560550
De Volger,1,,,1483GA,De Rijp,Alkmaar,Noord-Holland,VBO,4.847873,52.550735
De Volger,2,,,1483GA,De Rijp,Alkmaar,Noord-Holland,VBO,4.846625,52.551278
De Volger,3,,,1483GA,De Rijp,Alkmaar,Noord-Holland,VBO,4.847281,52.550591
De Volger,5,,,1483GA,De Rijp,Alkmaar,Noord-Holland,VBO,4.847046,52.550329
De Volger,6,,,1483GA,De Rijp,Alkmaar,Noord-Holland,VBO,4.846148,52.551028
De Volger,7,a,,1483GA,De Rijp,Alkmaar,Noord-Holland,VBO,4.847497,52.550119
De Volger,7,,,1483GA,De Rijp,Alkmaar,Noord-Holland,VBO,4.846878,52.550160
De Volger,8,,,1483GA,De Rijp,Alkmaar,Noord-Holland,VBO,4.845938,52.550632
De Volger,9,,,1483GA,De Rijp,Alkmaar,Noord-Holland,VBO,4.847192,52.549795
De Volger,10,a,,1483GA,De Rijp,Alkmaar,Noord-Holland,VBO,4.846622,52.550575
De Volger,10,,,1483GA,De Rijp,Alkmaar,Noord-Holland,VBO,4.846188,52.550628
De Volger,11,,,1483GA,De Rijp,Alkmaar,Noord-Holland,VBO,4.846873,52.549608
De Volger,13,a,,1483GA,De Rijp,Alkmaar,Noord-Holland,VBO,4.846421,52.549566
De Volger,13,b,,1483GA,De Rijp,Alkmaar,Noord-Holland,VBO,4.846499,52.549525
De Volger,13,c,,1483GA,De Rijp,Alkmaar,Noord-Holland,VBO,4.846556,52.549496
De Volger,13,d,,1483GA,De Rijp,Alkmaar,Noord-Holland,VBO,4.846612,52.549467
De Volger,13,e,,1483GA,De Rijp,Alkmaar,Noord-Holland,VBO,4.846668,52.549438
De Volger,13,f,,1483GA,De Rijp,Alkmaar,Noord-Holland,VBO,4.846725,52.549409
De Volger,14,,,1483GA,De Rijp,Alkmaar,Noord-Holland,VBO,4.846128,52.550329
De Volger,16,,,1483GA,De Rijp,Alkmaar,Noord-Holland,VBO,4.846027,52.550109
De Volger,20,a,,1483GA,De Rijp,Alkmaar,Noord-Holland,VBO,4.845663,52.550384
De Volger,20,,,1483GA,De Rijp,Alkmaar,Noord-Holland,VBO,4.845501,52.550181
De Volger,22,A,,1483GA,De Rijp,Alkmaar,Noord-Holland,VBO,4.845398,52.549861
De Volger,22,,,1483GA,De Rijp,Alkmaar,Noord-Holland,VBO,4.845178,52.549878
De Volger,22,,,1483GA,De Rijp,Alkmaar,Noord-Holland,VBO,4.845459,52.549826
De Volger,24,,,1483GA,De Rijp,Alkmaar,Noord-Holland,VBO,4.845801,52.549873
De Volger,25,,,1483GA,De Rijp,Alkmaar,Noord-Holland,VBO,4.845897,52.549225
De Volger,26,,,1483GA,De Rijp,Alkmaar,Noord-Holland,VBO,4.846077,52.549786
De Volger,35,a,,1483GA,De Rijp,Alkmaar,Noord-Holland,VBO,4.845419,52.548985
De Volger,35,b,,1483GA,De Rijp,Alkmaar,Noord-Holland,VBO,4.844969,52.548964
De Volger,35,,,1483GA,De Rijp,Alkmaar,Noord-Holland,VBO,4.845137,52.548938
De Volger,36,,,1483GA,De Rijp,Alkmaar,Noord-Holland,VBO,4.844584,52.548514
De Volger,37,,,1483GA,De Rijp,Alkmaar,Noord-Holland,VBO,4.845845,52.548864
De Volger,38,a,,1483GA,De Rijp,Alkmaar,Noord-Holland,VBO,4.844966,52.548437
De Volger,38,,,1483GA,De Rijp,Alkmaar,Noord-Holland,VBO,4.845246,52.548419
De Volger,40,,,1483GA,De Rijp,Alkmaar,Noord-Holland,VBO,4.844213,52.547921
De Volger,41,,,1483GA,De Rijp,Alkmaar,Noord-Holland,VBO,4.844490,52.548265
De Volger,42,,,1483GA,De Rijp,Alkmaar,Noord-Holland,VBO,4.844566,52.547812
De Volger,43,,,1483GA,De Rijp,Alkmaar,Noord-Holland,VBO,4.844784,52.548055
M.C. van Voordenstraat,2,,,1483GB,De Rijp,Alkmaar,Noord-Holland,VBO,4.843481,52.548067
M.C. van Voordenstraat,3,,,1483GB,De Rijp,Alkmaar,Noord-Holland,VBO,4.842870,52.548388
M.C. van Voordenstraat,4,,,1483GB,De Rijp,Alkmaar,Noord-Holland,VBO,4.843470,52.548047
M.C. van Voordenstraat,5,,,1483GB,De Rijp,Alkmaar,Noord-Holland,VBO,4.842737,52.548409
M.C. van Voordenstraat,6,,,1483GB,De Rijp,Alkmaar,Noord-Holland,VBO,4.843208,52.548080
M.C. van Voordenstraat,7,,,1483GB,De Rijp,Alkmaar,Noord-Holland,VBO,4.842163,52.548543
M.C. van Voordenstraat,8,,,1483GB,De Rijp,Alkmaar,Noord-Holland,VBO,4.843029,52.548096
M.C. van Voordenstraat,9,,,1483GB,De Rijp,Alkmaar,Noord-Holland,VBO,4.842007,52.548552
M.C. van Voordenstraat,10,,,1483GB,De Rijp,Alkmaar,Noord-Holland,VBO,4.842862,52.548112
M.C. van Voordenstraat,12,,,1483GB,De Rijp,Alkmaar,Noord-Holland,VBO,4.842848,52.548077
M.C. van Voordenstraat,14,,,1483GB,De Rijp,Alkmaar,Noord-Holland,VBO,4.842166,52.548167
M.C. van Voordenstraat,15,,,1483GB,De Rijp,Alkmaar,Noord-Holland,VBO,4.841440,52.548718
M.C. van Voordenstraat,16,,,1483GB,De Rijp,Alkmaar,Noord-Holland,VBO,4.842060,52.548206
M.C. van Voordenstraat,17,,,1483GB,De Rijp,Alkmaar,Noord-Holland,VBO,4.841295,52.548671
M.C. van Voordenstraat,18,,,1483GB,De Rijp,Alkmaar,Noord-Holland,VBO,4.841946,52.548223
M.C. van Voordenstraat,20,,,1483GB,De Rijp,Alkmaar,Noord-Holland,VBO,4.841828,52.548235
M.C. van Voordenstraat,22,,,1483GB,De Rijp,Alkmaar,Noord-Holland,VBO,4.841714,52.548252
J.P. Poelstraat,1,,,1483GC,De Rijp,Alkmaar,Noord-Holland,VBO,4.842373,52.549084
J.P. Poelstraat,2,,,1483GC,De Rijp,Alkmaar,Noord-Holland,VBO,4.843117,52.548772
J.P. Poelstraat,3,,,1483GC,De Rijp,Alkmaar,Noord-Holland,VBO,4.842346,52.548639
J.P. Poelstraat,4,,,1483GC,De Rijp,Alkmaar,Noord-Holland,VBO,4.843111,52.548712
J.P. Poelstraat,5,,,1483GC,De Rijp,Alkmaar,Noord-Holland,VBO,4.842308,52.548528
J.P. Poelstraat,6,,,1483GC,De Rijp,Alkmaar,Noord-Holland,VBO,4.843080,52.548637
J.P. Poelstraat,8,,,1483GC,De Rijp,Alkmaar,Noord-Holland,VBO,4.843060,52.548571
S. Visserstraat,1,,,1483GD,De Rijp,Alkmaar,Noord-Holland,VBO,4.841166,52.548675
S. Visserstraat,3,,,1483GD,De Rijp,Alkmaar,Noord-Holland,VBO,4.841192,52.548734
S. Visserstraat,5,,,1483GD,De Rijp,Alkmaar,Noord-Holland,VBO,4.841217,52.548790
S. Visserstraat,7,,,1483GD,De Rijp,Alkmaar,Noord-Holland,VBO,4.841333,52.548757
S. Visserstraat,9,,,1483GD,De Rijp,Alkmaar,Noord-Holland,VBO,4.841284,52.548924
S. Visserstraat,11,,,1483GD,De Rijp,Alkmaar,Noord-Holland,VBO,4.841413,52.548908
S. Visserstraat,13,,,1483GD,De Rijp,Alkmaar,Noord-Holland,VBO,4.841512,52.548891
S. Visserstraat,15,,,1483GD,De Rijp,Alkmaar,Noord-Holland,VBO,4.841327,52.549022
G.G. Schipperstraat,1,,,1483GE,De Rijp,Alkmaar,Noord-Holland,VBO,4.842270,52.549562
G.G. Schipperstraat,2,,,1483GE,De Rijp,Alkmaar,Noord-Holland,VBO,4.843925,52.548873
G.G. Schipperstraat,3,,,1483GE,De Rijp,Alkmaar,Noord-Holland,VBO,4.842098,52.549569
G.G. Schipperstraat,4,,,1483GE,De Rijp,Alkmaar,Noord-Holland,VBO,4.843729,52.548912
G.G. Schipperstraat,6,,,1483GE,De Rijp,Alkmaar,Noord-Holland,VBO,4.843874,52.548609
G.G. Schipperstraat,7,,,1483GE,De Rijp,Alkmaar,Noord-Holland,VBO,4.841474,52.549669
G.G. Schipperstraat,8,,,1483GE,De Rijp,Alkmaar,Noord-Holland,VBO,4.843791,52.548638
G.G. Schipperstraat,9,,,1483GE,De Rijp,Alkmaar,Noord-Holland,VBO,4.840979,52.549704
G.G. Schipperstraat,10,,,1483GE,De Rijp,Alkmaar,Noord-Holland,VBO,4.843690,52.548656
G.G. Schipperstraat,12,,,1483GE,De Rijp,Alkmaar,Noord-Holland,VBO,4.843620,52.548673
G.G. Schipperstraat,14,,,1483GE,De Rijp,Alkmaar,Noord-Holland,VBO,4.843570,52.548708
G.G. Schipperstraat,16,,,1483GE,De Rijp,Alkmaar,Noord-Holland,VBO,4.843430,52.548736
G.G. Schipperstraat,18,,,1483GE,De Rijp,Alkmaar,Noord-Holland,VBO,4.843373,52.548985
G.G. Schipperstraat,20,,,1483GE,De Rijp,Alkmaar,Noord-Holland,VBO,4.843227,52.549009
G.G. Schipperstraat,22,,,1483GE,De Rijp,Alkmaar,Noord-Holland,VBO,4.843066,52.549033
G.G. Schipperstraat,24,,,1483GE,De Rijp,Alkmaar,Noord-Holland,VBO,4.842030,52.549110
G.G. Schipperstraat,26,,,1483GE,De Rijp,Alkmaar,Noord-Holland,VBO,4.841675,52.549154
G.G. Schipperstraat,28,,,1483GE,De Rijp,Alkmaar,Noord-Holland,VBO,4.841411,52.549192
Sloep,1,,,1483HA,De Rijp,Alkmaar,Noord-Holland,VBO,4.843662,52.558346
Sloep,3,,,1483HA,De Rijp,Alkmaar,Noord-Holland,VBO,4.844147,52.558322
Sloep,5,A,,1483HA,De Rijp,Alkmaar,Noord-Holland,VBO,4.844322,52.558404
Sloep,5,,,1483HA,De Rijp,Alkmaar,Noord-Holland,VBO,4.844372,52.558343
Sloep,5,,,1483HA,De Rijp,Alkmaar,Noord-Holland,VBO,4.844385,52.558406
Sloep,7,,,1483HA,De Rijp,Alkmaar,Noord-Holland,VBO,4.843932,52.558014
De Eendracht,1,,,1483HB,De Rijp,Alkmaar,Noord-Holland,VBO,4.858204,52.559888
De Eendracht,2,,,1483HB,De Rijp,Alkmaar,Noord-Holland,VBO,4.858672,52.559838
De Eendracht,3,,,1483HB,De Rijp,Alkmaar,Noord-Holland,VBO,4.858240,52.559928
De Eendracht,4,,,1483HB,De Rijp,Alkmaar,Noord-Holland,VBO,4.858714,52.559888
De Eendracht,5,,,1483HB,De Rijp,Alkmaar,Noord-Holland,VBO,4.858281,52.559967
De Eendracht,6,,,1483HB,De Rijp,Alkmaar,Noord-Holland,VBO,4.858770,52.559940
De Eendracht,7,,,1483HB,De Rijp,Alkmaar,Noord-Holland,VBO,4.858326,52.560005
De Eendracht,8,,,1483HB,De Rijp,Alkmaar,Noord-Holland,VBO,4.858808,52.559983
De Eendracht,9,,,1483HB,De Rijp,Alkmaar,Noord-Holland,VBO,4.858361,52.560044
De Eendracht,10,,,1483HB,De Rijp,Alkmaar,Noord-Holland,VBO,4.858875,52.560032
De Eendracht,11,,,1483HB,De Rijp,Alkmaar,Noord-Holland,VBO,4.858429,52.560067
De Eendracht,12,,,1483HB,De Rijp,Alkmaar,Noord-Holland,VBO,4.858920,52.560076
De Eendracht,13,,,1483HB,De Rijp,Alkmaar,Noord-Holland,VBO,4.858436,52.560116
De Eendracht,14,,,1483HB,De Rijp,Alkmaar,Noord-Holland,VBO,4.858943,52.560186
De Eendracht,15,,,1483HB,De Rijp,Alkmaar,Noord-Holland,VBO,4.858474,52.560155
Zuiddijk,1,,,1483MA,De Rijp,Alkmaar,Noord-Holland,VBO,4.848424,52.551089
Zuiddijk,2,a,,1483MA,De Rijp,Alkmaar,Noord-Holland,VBO,4.843837,52.551439
Zuiddijk,2,d,,1483MA,De Rijp,Alkmaar,Noord-Holland,VBO,4.844589,52.551032
Zuiddijk,2,e,,1483MA,De Rijp,Alkmaar,Noord-Holland,VBO,4.844606,52.551006
Zuiddijk,2,f,,1483MA,De Rijp,Alkmaar,Noord-Holland,VBO,4.842689,52.550363
Zuiddijk,2,H,,1483MA,De Rijp,Alkmaar,Noord-Holland,VBO,4.845485,52.551447
Zuiddijk,2,,,1483MA,De Rijp,Alkmaar,Noord-Holland,VBO,4.844676,52.550492
Zuiddijk,3,,,1483MA,De Rijp,Alkmaar,Noord-Holland,VBO,4.843782,52.547418
Zuiddijk,4,,,1483MA,De Rijp,Alkmaar,Noord-Holland,VBO,4.844252,52.549668
Zuiddijk,5,,,1483MA,De Rijp,Alkmaar,Noord-Holland,VBO,4.842363,52.547312
Zuiddijk,6,,,1483MA,De Rijp,Alkmaar,Noord-Holland,VBO,4.842134,52.547830
Zuiddijk,7,,,1483MA,De Rijp,Alkmaar,Noord-Holland,VBO,4.839635,52.547482
Zuiddijk,8,,,1483MA,De Rijp,Alkmaar,Noord-Holland,VBO,4.841390,52.547892
Zuiddijk,9,,,1483MA,De Rijp,Alkmaar,Noord-Holland,VBO,4.838876,52.547124
Zuiddijk,10,,,1483MA,De Rijp,Alkmaar,Noord-Holland,VBO,4.840613,52.547881
Zuiddijk,11,,,1483MA,De Rijp,Alkmaar,Noord-Holland,VBO,4.838918,52.547524
Zuiddijk,12,a,,1483MA,De Rijp,Alkmaar,Noord-Holland,VBO,4.840026,52.548165
Zuiddijk,12,,,1483MA,De Rijp,Alkmaar,Noord-Holland,VBO,4.840031,52.548105
Zuiddijk,14,,,1483MA,De Rijp,Alkmaar,Noord-Holland,VBO,4.839640,52.548024
Zuiddijk,15,,,1483MA,De Rijp,Alkmaar,Noord-Holland,VBO,4.838050,52.547626
Zuiddijk,16,,,1483MA,De Rijp,Alkmaar,Noord-Holland,VBO,4.839412,52.548048
Zuiddijk,18,,,1483MA,De Rijp,Alkmaar,Noord-Holland,VBO,4.839151,52.548098
Zuiddijk,20,,,1483MA,De Rijp,Alkmaar,Noord-Holland,VBO,4.838172,52.548199
Zuiddijk,22,,,1483MA,De Rijp,Alkmaar,Noord-Holland,VBO,4.837206,52.548237
Zuiddijk,32,,,1483MA,De Rijp,Alkmaar,Noord-Holland,VBO,4.834135,52.548509
Zuiddijk,34,,,1483MA,De Rijp,Alkmaar,Noord-Holland,VBO,4.833882,52.548429
Zuiddijk,36,,,1483MA,De Rijp,Alkmaar,Noord-Holland,VBO,4.834003,52.545823
Zuiddijk,38,,,1483MA,De Rijp,Alkmaar,Noord-Holland,VBO,4.833935,52.545154
Zuiddijk,40,,,1483MA,De Rijp,Alkmaar,Noord-Holland,VBO,4.833928,52.543114
Zuiddijk,42,,,1483MA,De Rijp,Alkmaar,Noord-Holland,VBO,4.834019,52.541519
Aggelenstraat,1,,,1483TA,De Rijp,Alkmaar,Noord-Holland,VBO,4.843014,52.554128
Aggelenstraat,2,,,1483TA,De Rijp,Alkmaar,Noord-Holland,VBO,4.843044,52.554174
Aggelenstraat,3,,,1483TA,De Rijp,Alkmaar,Noord-Holland,VBO,4.843047,52.554214
Aggelenstraat,4,,,1483TA,De Rijp,Alkmaar,Noord-Holland,VBO,4.843079,52.554266
Aggelenstraat,5,,,1483TA,De Rijp,Alkmaar,Noord-Holland,VBO,4.843068,52.554311
Aggelenstraat,6,,,1483TA,De Rijp,Alkmaar,Noord-Holland,VBO,4.843091,52.554348
Aggelenstraat,7,,,1483TA,De Rijp,Alkmaar,Noord-Holland,VBO,4.843198,52.554439
Aggelenstraat,8,,,1483TA,De Rijp,Alkmaar,Noord-Holland,VBO,4.843208,52.554480
Aggelenstraat,9,,,1483TA,De Rijp,Alkmaar,Noord-Holland,VBO,4.843231,52.554529
Aggelenstraat,10,b,,1483TA,De Rijp,Alkmaar,Noord-Holland,VBO,4.843615,52.554275
Aggelenstraat,10,c,,1483TA,De Rijp,Alkmaar,Noord-Holland,VBO,4.843654,52.554349
Aggelenstraat,10,,,1483TA,De Rijp,Alkmaar,Noord-Holland,VBO,4.843240,52.554558
Aggelenstraat,11,,,1483TA,De Rijp,Alkmaar,Noord-Holland,VBO,4.843632,52.554443
Aggelenstraat,12,,,1483TA,De Rijp,Alkmaar,Noord-Holland,VBO,4.843646,52.554484
Aggelenstraat,13,,,1483TA,De Rijp,Alkmaar,Noord-Holland,VBO,4.843660,52.554531
Aggelenstraat,14,,,1483TA,De Rijp,Alkmaar,Noord-Holland,VBO,4.843674,52.554577
Aggelenstraat,15,,,1483TA,De Rijp,Alkmaar,Noord-Holland,VBO,4.843694,52.554620
Aggelenstraat,16,,,1483TA,De Rijp,Alkmaar,Noord-Holland,VBO,4.843708,52.554666
Aggelenstraat,17,,,1483TA,De Rijp,Alkmaar,Noord-Holland,VBO,4.843724,52.554708
Aggelenstraat,18,,,1483TA,De Rijp,Alkmaar,Noord-Holland,VBO,4.843724,52.554754
Aggelenstraat,19,,,1483TA,De Rijp,Alkmaar,Noord-Holland,VBO,4.843406,52.554769
Aggelenstraat,20,,,1483TA,De Rijp,Alkmaar,Noord-Holland,VBO,4.843316,52.554781
Aggelenstraat,21,,,1483TA,De Rijp,Alkmaar,Noord-Holland,VBO,4.843235,52.554790
Aggelenstraat,22,,,1483TA,De Rijp,Alkmaar,Noord-Holland,VBO,4.843151,52.554800
Aggelenstraat,23,,,1483TA,De Rijp,Alkmaar,Noord-Holland,VBO,4.843066,52.554813
Aggelenstraat,24,,,1483TA,De Rijp,Alkmaar,Noord-Holland,VBO,4.842978,52.554823
Aggelenstraat,25,,,1483TB,De Rijp,Alkmaar,Noord-Holland,VBO,4.842812,52.554798
Aggelenstraat,26,,,1483TB,De Rijp,Alkmaar,Noord-Holland,VBO,4.842712,52.554806
Aggelenstraat,27,,,1483TB,De Rijp,Alkmaar,Noord-Holland,VBO,4.842574,52.554830
Aggelenstraat,28,,,1483TB,De Rijp,Alkmaar,Noord-Holland,VBO,4.842467,52.554839
Aggelenstraat,29,,,1483TB,De Rijp,Alkmaar,Noord-Holland,VBO,4.842291,52.554857
Aggelenstraat,30,,,1483TB,De Rijp,Alkmaar,Noord-Holland,VBO,4.842049,52.554888
Aggelenstraat,31,,,1483TB,De Rijp,Alkmaar,Noord-Holland,VBO,4.842193,52.554723
Aggelenstraat,32,,,1483TB,De Rijp,Alkmaar,Noord-Holland,VBO,4.842183,52.554676
Aggelenstraat,33,,,1483TB,De Rijp,Alkmaar,Noord-Holland,VBO,4.842171,52.554632
Aggelenstraat,34,,,1483TB,De Rijp,Alkmaar,Noord-Holland,VBO,4.842156,52.554585
Aggelenstraat,35,,,1483TB,De Rijp,Alkmaar,Noord-Holland,VBO,4.842135,52.554541
Aggelenstraat,36,,,1483TB,De Rijp,Alkmaar,Noord-Holland,VBO,4.842119,52.554507
Aggelenstraat,37,,,1483TB,De Rijp,Alkmaar,Noord-Holland,VBO,4.842152,52.554398
Aggelenstraat,38,,,1483TB,De Rijp,Alkmaar,Noord-Holland,VBO,4.842138,52.554356
Aggelenstraat,39,,,1483TB,De Rijp,Alkmaar,Noord-Holland,VBO,4.842120,52.554310
Aggelenstraat,40,,,1483TB,De Rijp,Alkmaar,Noord-Holland,VBO,4.842104,52.554270
Aggelenstraat,41,,,1483TB,De Rijp,Alkmaar,Noord-Holland,VBO,4.841513,52.554283
Aggelenstraat,42,,,1483TB,De Rijp,Alkmaar,Noord-Holland,VBO,4.841513,52.554317
Aggelenstraat,43,,,1483TB,De Rijp,Alkmaar,Noord-Holland,VBO,4.841533,52.554360
Aggelenstraat,44,,,1483TB,De Rijp,Alkmaar,Noord-Holland,VBO,4.841554,52.554405
Aggelenstraat,45,,,1483TC,De Rijp,Alkmaar,Noord-Holland,VBO,4.841693,52.554483
Aggelenstraat,46,,,1483TC,De Rijp,Alkmaar,Noord-Holland,VBO,4.841685,52.554530
Aggelenstraat,47,,,1483TC,De Rijp,Alkmaar,Noord-Holland,VBO,4.841744,52.554580
Aggelenstraat,48,,,1483TC,De Rijp,Alkmaar,Noord-Holland,VBO,4.841713,52.554620
Aggelenstraat,49,,,1483TC,De Rijp,Alkmaar,Noord-Holland,VBO,4.841725,52.554666
Aggelenstraat,50,,,1483TC,De Rijp,Alkmaar,Noord-Holland,VBO,4.841739,52.554706
Morgenstraat,1,,,1483TD,De Rijp,Alkmaar,Noord-Holland,VBO,4.840258,52.555072
Morgenstraat,3,,,1483TD,De Rijp,Alkmaar,Noord-Holland,VBO,4.840342,52.555061
Morgenstraat,5,,,1483TD,De Rijp,Alkmaar,Noord-Holland,VBO,4.840525,52.555081
Morgenstraat,7,,,1483TD,De Rijp,Alkmaar,Noord-Holland,VBO,4.840604,52.555071
Morgenstraat,9,,,1483TD,De Rijp,Alkmaar,Noord-Holland,VBO,4.840682,52.555059
Morgenstraat,11,,,1483TD,De Rijp,Alkmaar,Noord-Holland,VBO,4.840763,52.555051
Morgenstraat,13,,,1483TD,De Rijp,Alkmaar,Noord-Holland,VBO,4.840839,52.555039
Morgenstraat,15,,,1483TD,De Rijp,Alkmaar,Noord-Holland,VBO,4.840919,52.555028
Morgenstraat,17,,,1483TD,De Rijp,Alkmaar,Noord-Holland,VBO,4.841109,52.554964
Morgenstraat,19,,,1483TD,De Rijp,Alkmaar,Noord-Holland,VBO,4.841268,52.554952
Morgenstraat,21,,,1483TD,De Rijp,Alkmaar,Noord-Holland,VBO,4.841383,52.554937
Morgenstraat,23,,,1483TD,De Rijp,Alkmaar,Noord-Holland,VBO,4.841516,52.554918
Morgenstraat,25,,,1483TD,De Rijp,Alkmaar,Noord-Holland,VBO,4.841635,52.554903
Morgenstraat,27,,,1483TD,De Rijp,Alkmaar,Noord-Holland,VBO,4.841812,52.554915
Morgenstraat,2,,,1483TE,De Rijp,Alkmaar,Noord-Holland,VBO,4.840312,52.554846
Morgenstraat,4,,,1483TE,De Rijp,Alkmaar,Noord-Holland,VBO,4.840300,52.554801
Morgenstraat,6,,,1483TE,De Rijp,Alkmaar,Noord-Holland,VBO,4.840283,52.554757
Morgenstraat,8,,,1483TE,De Rijp,Alkmaar,Noord-Holland,VBO,4.840265,52.554712
Morgenstraat,10,,,1483TE,De Rijp,Alkmaar,Noord-Holland,VBO,4.840248,52.554670
Morgenstraat,12,,,1483TE,De Rijp,Alkmaar,Noord-Holland,VBO,4.840226,52.554613
Morgenstraat,14,,,1483TE,De Rijp,Alkmaar,Noord-Holland,VBO,4.840252,52.554520
Morgenstraat,16,,,1483TE,De Rijp,Alkmaar,Noord-Holland,VBO,4.840238,52.554481
Morgenstraat,18,,,1483TE,De Rijp,Alkmaar,Noord-Holland,VBO,4.840253,52.554437
Morgenstraat,20,,,1483TE,De Rijp,Alkmaar,Noord-Holland,VBO,4.840243,52.554397
Morgenstraat,22,,,1483TE,De Rijp,Alkmaar,Noord-Holland,VBO,4.840646,52.554546
Morgenstraat,24,,,1483TE,De Rijp,Alkmaar,Noord-Holland,VBO,4.840664,52.554585
Morgenstraat,26,,,1483TE,De Rijp,Alkmaar,Noord-Holland,VBO,4.840679,52.554631
Morgenstraat,28,,,1483TE,De Rijp,Alkmaar,Noord-Holland,VBO,4.840693,52.554674
Morgenstraat,30,,,1483TE,De Rijp,Alkmaar,Noord-Holland,VBO,4.840710,52.554719
Morgenstraat,32,,,1483TE,De Rijp,Alkmaar,Noord-Holland,VBO,4.840726,52.554767
Morgenstraat,34,,,1483TE,De Rijp,Alkmaar,Noord-Holland,VBO,4.840741,52.554810
Morgenstraat,36,,,1483TE,De Rijp,Alkmaar,Noord-Holland,VBO,4.840753,52.554862
Boeijerstraat,1,,,1483TG,De Rijp,Alkmaar,Noord-Holland,VBO,4.839880,52.555529
Boeijerstraat,3,,,1483TG,De Rijp,Alkmaar,Noord-Holland,VBO,4.839584,52.555511
Boeijerstraat,5,,,1483TG,De Rijp,Alkmaar,Noord-Holland,VBO,4.839600,52.555639
Boeijerstraat,7,,,1483TG,De Rijp,Alkmaar,Noord-Holland,VBO,4.839622,52.555786
Boeijerstraat,9,,,1483TG,De Rijp,Alkmaar,Noord-Holland,VBO,4.839710,52.555918
Boeijerstraat,11,,,1483TG,De Rijp,Alkmaar,Noord-Holland,VBO,4.839811,52.556057
Boeijerstraat,13,,,1483TG,De Rijp,Alkmaar,Noord-Holland,VBO,4.839842,52.556206
Boeijerstraat,15,,,1483TG,De Rijp,Alkmaar,Noord-Holland,VBO,4.839847,52.556386
Boeijerstraat,17,,,1483TG,De Rijp,Alkmaar,Noord-Holland,VBO,4.839905,52.556535
Boeijerstraat,19,,,1483TG,De Rijp,Alkmaar,Noord-Holland,VBO,4.840153,52.556664
Boeijerstraat,21,,,1483TG,De Rijp,Alkmaar,Noord-Holland,VBO,4.840384,52.556629
Boeijerstraat,23,,,1483TG,De Rijp,Alkmaar,Noord-Holland,VBO,4.840607,52.556625
Boeijerstraat,25,,,1483TG,De Rijp,Alkmaar,Noord-Holland,VBO,4.840856,52.556651
Boeijerstraat,27,,,1483TG,De Rijp,Alkmaar,Noord-Holland,VBO,4.841219,52.556595
Boeijerstraat,29,,,1483TG,De Rijp,Alkmaar,Noord-Holland,VBO,4.841218,52.556657
Boeijerstraat,31,,,1483TG,De Rijp,Alkmaar,Noord-Holland,VBO,4.841270,52.556745
Boeijerstraat,33,,,1483TG,De Rijp,Alkmaar,Noord-Holland,VBO,4.841270,52.556810
Boeijerstraat,2,,,1483TH,De Rijp,Alkmaar,Noord-Holland,VBO,4.840334,52.555378
Boeijerstraat,4,,,1483TH,De Rijp,Alkmaar,Noord-Holland,VBO,4.840351,52.555420
Boeijerstraat,6,,,1483TH,De Rijp,Alkmaar,Noord-Holland,VBO,4.840369,52.555471
Boeijerstraat,8,,,1483TH,De Rijp,Alkmaar,Noord-Holland,VBO,4.840379,52.555503
Boeijerstraat,10,,,1483TH,De Rijp,Alkmaar,Noord-Holland,VBO,4.840409,52.555569
Boeijerstraat,12,,,1483TH,De Rijp,Alkmaar,Noord-Holland,VBO,4.840432,52.555613
Boeijerstraat,14,a,,1483TH,De Rijp,Alkmaar,Noord-Holland,VBO,4.840785,52.555731
Boeijerstraat,14,,,1483TH,De Rijp,Alkmaar,Noord-Holland,VBO,4.841093,52.555475
Boeijerstraat,16,,,1483TH,De Rijp,Alkmaar,Noord-Holland,VBO,4.841596,52.555296
Boeijerstraat,18,,,1483TH,De Rijp,Alkmaar,Noord-Holland,VBO,4.841683,52.555286
Boeijerstraat,20,,,1483TH,De Rijp,Alkmaar,Noord-Holland,VBO,4.841747,52.555286
Boeijerstraat,22,,,1483TH,De Rijp,Alkmaar,Noord-Holland,VBO,4.841835,52.555289
Boeijerstraat,24,,,1483TH,De Rijp,Alkmaar,Noord-Holland,VBO,4.841918,52.555293
Boeijerstraat,26,,,1483TH,De Rijp,Alkmaar,Noord-Holland,VBO,4.842019,52.555280
Boeijerstraat,28,,,1483TJ,De Rijp,Alkmaar,Noord-Holland,VBO,4.842010,52.555557
Boeijerstraat,30,,,1483TJ,De Rijp,Alkmaar,Noord-Holland,VBO,4.841962,52.555586
Boeijerstraat,32,,,1483TJ,De Rijp,Alkmaar,Noord-Holland,VBO,4.841867,52.555641
Boeijerstraat,34,,,1483TJ,De Rijp,Alkmaar,Noord-Holland,VBO,4.841804,52.555677
Boeijerstraat,36,,,1483TJ,De Rijp,Alkmaar,Noord-Holland,VBO,4.841750,52.555710
Boeijerstraat,38,,,1483TJ,De Rijp,Alkmaar,Noord-Holland,VBO,4.841695,52.555740
Boeijerstraat,40,,,1483TJ,De Rijp,Alkmaar,Noord-Holland,VBO,4.841597,52.555791
Boeijerstraat,42,,,1483TJ,De Rijp,Alkmaar,Noord-Holland,VBO,4.841559,52.555844
Boeijerstraat,44,,,1483TJ,De Rijp,Alkmaar,Noord-Holland,VBO,4.841496,52.555881
Boeijerstraat,46,,,1483TJ,De Rijp,Alkmaar,Noord-Holland,VBO,4.841381,52.555984
Boeijerstraat,48,,,1483TJ,De Rijp,Alkmaar,Noord-Holland,VBO,4.841326,52.556014
Boeijerstraat,50,,,1483TJ,De Rijp,Alkmaar,Noord-Holland,VBO,4.841265,52.556048
Boeijerstraat,52,,,1483TJ,De Rijp,Alkmaar,Noord-Holland,VBO,4.841208,52.556079
Boeijerstraat,54,,,1483TJ,De Rijp,Alkmaar,Noord-Holland,VBO,4.841147,52.556119
Boeijerstraat,56,,,1483TK,De Rijp,Alkmaar,Noord-Holland,VBO,4.840961,52.556171
Boeijerstraat,58,,,1483TK,De Rijp,Alkmaar,Noord-Holland,VBO,4.840879,52.556169
Boeijerstraat,60,,,1483TK,De Rijp,Alkmaar,Noord-Holland,VBO,4.840800,52.556168
Boeijerstraat,62,,,1483TK,De Rijp,Alkmaar,Noord-Holland,VBO,4.840719,52.556169
Boeijerstraat,64,,,1483TK,De Rijp,Alkmaar,Noord-Holland,VBO,4.840577,52.556083
Boeijerstraat,66,,,1483TK,De Rijp,Alkmaar,Noord-Holland,VBO,4.840560,52.556031
Boeijerstraat,68,,,1483TK,De Rijp,Alkmaar,Noord-Holland,VBO,4.840540,52.555983
Boeijerstraat,70,,,1483TK,De Rijp,Alkmaar,Noord-Holland,VBO,4.840525,52.555937
Boeijerstraat,72,,,1483TK,De Rijp,Alkmaar,Noord-Holland,VBO,4.840370,52.555800
Boeijerstraat,74,,,1483TK,De Rijp,Alkmaar,Noord-Holland,VBO,4.840300,52.555810
Boeijerstraat,76,,,1483TK,De Rijp,Alkmaar,Noord-Holland,VBO,4.840222,52.555819
Boeijerstraat,78,,,1483TK,De Rijp,Alkmaar,Noord-Holland,VBO,4.840147,52.555827
Boeijerstraat,80,,,1483TK,De Rijp,Alkmaar,Noord-Holland,VBO,4.840065,52.555841
Boeijerstraat,82,,,1483TK,De Rijp,Alkmaar,Noord-Holland,VBO,4.840168,52.556026
Boeijerstraat,84,,,1483TK,De Rijp,Alkmaar,Noord-Holland,VBO,4.840186,52.556082
Boeijerstraat,86,,,1483TK,De Rijp,Alkmaar,Noord-Holland,VBO,4.840210,52.556141
Boeijerstraat,88,,,1483TK,De Rijp,Alkmaar,Noord-Holland,VBO,4.840232,52.556199
Boeijerstraat,90,,,1483TK,De Rijp,Alkmaar,Noord-Holland,VBO,4.840252,52.556257
Boeijerstraat,92,,,1483TK,De Rijp,Alkmaar,Noord-Holland,VBO,4.840266,52.556323
Boeijerstraat,94,,,1483TK,De Rijp,Alkmaar,Noord-Holland,VBO,4.840501,52.556409
Boeijerstraat,96,,,1483TL,De Rijp,Alkmaar,Noord-Holland,VBO,4.840589,52.556413
Boeijerstraat,98,,,1483TL,De Rijp,Alkmaar,Noord-Holland,VBO,4.840671,52.556412
Boeijerstraat,100,,,1483TL,De Rijp,Alkmaar,Noord-Holland,VBO,4.840757,52.556413
Boeijerstraat,102,,,1483TL,De Rijp,Alkmaar,Noord-Holland,VBO,4.840839,52.556414
Boeijerstraat,104,,,1483TL,De Rijp,Alkmaar,Noord-Holland,VBO,4.840918,52.556415
Boeijerstraat,106,,,1483TL,De Rijp,Alkmaar,Noord-Holland,VBO,4.840996,52.556416
Boeijerstraat,108,,,1483TL,De Rijp,Alkmaar,Noord-Holland,VBO,4.841145,52.556369
Boeijerstraat,110,,,1483TL,De Rijp,Alkmaar,Noord-Holland,VBO,4.841228,52.556373
Boeijerstraat,112,,,1483TL,De Rijp,Alkmaar,Noord-Holland,VBO,4.841307,52.556372
Boeijerstraat,114,,,1483TL,De Rijp,Alkmaar,Noord-Holland,VBO,4.841394,52.556371
Boeijerstraat,116,,,1483TL,De Rijp,Alkmaar,Noord-Holland,VBO,4.841468,52.556373
Boeijerstraat,118,,,1483TL,De Rijp,Alkmaar,Noord-Holland,VBO,4.841561,52.556375
Boeijerstraat,120,,,1483TL,De Rijp,Alkmaar,Noord-Holland,VBO,4.841643,52.556488
Boeijerstraat,122,,,1483TL,De Rijp,Alkmaar,Noord-Holland,VBO,4.841661,52.556534
Boeijerstraat,124,,,1483TL,De Rijp,Alkmaar,Noord-Holland,VBO,4.841679,52.556580
Boeijerstraat,126,,,1483TL,De Rijp,Alkmaar,Noord-Holland,VBO,4.841695,52.556631
Boeijerstraat,128,,,1483TL,De Rijp,Alkmaar,Noord-Holland,VBO,4.841711,52.556677
Boeijerstraat,130,,,1483TL,De Rijp,Alkmaar,Noord-Holland,VBO,4.841738,52.556725
Boeijerstraat,132,,,1483TL,De Rijp,Alkmaar,Noord-Holland,VBO,4.841717,52.556830
Boeijerstraat,134,,,1483TL,De Rijp,Alkmaar,Noord-Holland,VBO,4.841734,52.556878
Boeijerstraat,136,,,1483TL,De Rijp,Alkmaar,Noord-Holland,VBO,4.841754,52.556925
Boeijerstraat,138,,,1483TL,De Rijp,Alkmaar,Noord-Holland,VBO,4.841770,52.556971
Boeijerstraat,140,,,1483TL,De Rijp,Alkmaar,Noord-Holland,VBO,4.841789,52.557020
Galjoen,1,,,1483TM,De Rijp,Alkmaar,Noord-Holland,VBO,4.841953,52.557827
Galjoen,3,,,1483TM,De Rijp,Alkmaar,Noord-Holland,VBO,4.841947,52.557774
Galjoen,5,,,1483TM,De Rijp,Alkmaar,Noord-Holland,VBO,4.841948,52.557723
Galjoen,7,,,1483TM,De Rijp,Alkmaar,Noord-Holland,VBO,4.841939,52.557669
Galjoen,9,,,1483TM,De Rijp,Alkmaar,Noord-Holland,VBO,4.841940,52.557567
Galjoen,11,,,1483TM,De Rijp,Alkmaar,Noord-Holland,VBO,4.841922,52.557504
Galjoen,13,,,1483TM,De Rijp,Alkmaar,Noord-Holland,VBO,4.841908,52.557459
Galjoen,15,,,1483TM,De Rijp,Alkmaar,Noord-Holland,VBO,4.841888,52.557411
Galjoen,17,,,1483TM,De Rijp,Alkmaar,Noord-Holland,VBO,4.841868,52.557366
Galjoen,19,,,1483TM,De Rijp,Alkmaar,Noord-Holland,VBO,4.841847,52.557320
Galjoen,21,,,1483TM,De Rijp,Alkmaar,Noord-Holland,VBO,4.841835,52.557270
Galjoen,23,,,1483TM,De Rijp,Alkmaar,Noord-Holland,VBO,4.841318,52.557298
Galjoen,25,,,1483TM,De Rijp,Alkmaar,Noord-Holland,VBO,4.841232,52.557310
Galjoen,27,,,1483TM,De Rijp,Alkmaar,Noord-Holland,VBO,4.841038,52.557317
Galjoen,29,,,1483TM,De Rijp,Alkmaar,Noord-Holland,VBO,4.840788,52.557343
Galjoen,31,,,1483TM,De Rijp,Alkmaar,Noord-Holland,VBO,4.840551,52.557363
Galjoen,33,,,1483TM,De Rijp,Alkmaar,Noord-Holland,VBO,4.840138,52.557367
Galjoen,35,,,1483TM,De Rijp,Alkmaar,Noord-Holland,VBO,4.840208,52.557554
Galjoen,37,,,1483TM,De Rijp,Alkmaar,Noord-Holland,VBO,4.840233,52.557688
Galjoen,39,,,1483TM,De Rijp,Alkmaar,Noord-Holland,VBO,4.840261,52.557838
Galjoen,41,,,1483TM,De Rijp,Alkmaar,Noord-Holland,VBO,4.840319,52.557978
Galjoen,2,,,1483TN,De Rijp,Alkmaar,Noord-Holland,VBO,4.841205,52.557860
Galjoen,4,,,1483TN,De Rijp,Alkmaar,Noord-Holland,VBO,4.841204,52.557798
Galjoen,6,,,1483TN,De Rijp,Alkmaar,Noord-Holland,VBO,4.841199,52.557750
Galjoen,8,,,1483TN,De Rijp,Alkmaar,Noord-Holland,VBO,4.841196,52.557702
Galjoen,10,,,1483TN,De Rijp,Alkmaar,Noord-Holland,VBO,4.841189,52.557653
Galjoen,12,,,1483TN,De Rijp,Alkmaar,Noord-Holland,VBO,4.841182,52.557603
Galjoen,14,,,1483TN,De Rijp,Alkmaar,Noord-Holland,VBO,4.841182,52.557543
Galjoen,16,,,1483TN,De Rijp,Alkmaar,Noord-Holland,VBO,4.840639,52.557592
Galjoen,18,,,1483TN,De Rijp,Alkmaar,Noord-Holland,VBO,4.840657,52.557638
Galjoen,20,,,1483TN,De Rijp,Alkmaar,Noord-Holland,VBO,4.840677,52.557684
Galjoen,22,,,1483TN,De Rijp,Alkmaar,Noord-Holland,VBO,4.840698,52.557733
Galjoen,24,,,1483TN,De Rijp,Alkmaar,Noord-Holland,VBO,4.840712,52.557781
Galjoen,26,,,1483TN,De Rijp,Alkmaar,Noord-Holland,VBO,4.840730,52.557829
Galjoen,28,,,1483TN,De Rijp,Alkmaar,Noord-Holland,VBO,4.840749,52.557876
Galjoen,30,,,1483TN,De Rijp,Alkmaar,Noord-Holland,VBO,4.840773,52.557921
Galjoen,32,,,1483TN,De Rijp,Alkmaar,Noord-Holland,VBO,4.840783,52.557975
Schoener,2,,,1483TP,De Rijp,Alkmaar,Noord-Holland,VBO,4.842763,52.557988
Bellehof,1,,,1483TR,De Rijp,Alkmaar,Noord-Holland,VBO,4.843566,52.554250
Bellehof,2,,,1483TR,De Rijp,Alkmaar,Noord-Holland,VBO,4.843550,52.554205
Bellehof,3,,,1483TR,De Rijp,Alkmaar,Noord-Holland,VBO,4.843450,52.554118
Bellehof,4,,,1483TR,De Rijp,Alkmaar,Noord-Holland,VBO,4.843519,52.554109
Bellehof,5,,,1483TR,De Rijp,Alkmaar,Noord-Holland,VBO,4.843588,52.554101
Bellehof,6,,,1483TR,De Rijp,Alkmaar,Noord-Holland,VBO,4.843658,52.554092
Bellehof,7,,,1483TR,De Rijp,Alkmaar,Noord-Holland,VBO,4.843727,52.554084
Bellehof,8,,,1483TR,De Rijp,Alkmaar,Noord-Holland,VBO,4.843825,52.554102
Bellehof,9,,,1483TR,De Rijp,Alkmaar,Noord-Holland,VBO,4.843878,52.554096
Bellehof,10,,,1483TR,De Rijp,Alkmaar,Noord-Holland,VBO,4.843817,52.554077
Bellehof,11,,,1483TR,De Rijp,Alkmaar,Noord-Holland,VBO,4.843867,52.554072
Bellehof,12,,,1483TR,De Rijp,Alkmaar,Noord-Holland,VBO,4.843808,52.554051
Bellehof,13,,,1483TR,De Rijp,Alkmaar,Noord-Holland,VBO,4.843862,52.554043
Klipper,1,,,1483TS,De Rijp,Alkmaar,Noord-Holland,VBO,4.841513,52.558494
Klipper,3,,,1483TS,De Rijp,Alkmaar,Noord-Holland,VBO,4.841608,52.558467
Klipper,5,,,1483TS,De Rijp,Alkmaar,Noord-Holland,VBO,4.841689,52.558459
Klipper,7,,,1483TS,De Rijp,Alkmaar,Noord-Holland,VBO,4.841764,52.558446
Klipper,9,,,1483TS,De Rijp,Alkmaar,Noord-Holland,VBO,4.841842,52.558440
Klipper,11,,,1483TS,De Rijp,Alkmaar,Noord-Holland,VBO,4.841923,52.558429
Klipper,13,,,1483TS,De Rijp,Alkmaar,Noord-Holland,VBO,4.842009,52.558618
Klipper,15,,,1483TS,De Rijp,Alkmaar,Noord-Holland,VBO,4.842019,52.558659
Klipper,17,,,1483TS,De Rijp,Alkmaar,Noord-Holland,VBO,4.842029,52.558707
Klipper,19,,,1483TS,De Rijp,Alkmaar,Noord-Holland,VBO,4.842051,52.558756
Klipper,21,,,1483TS,De Rijp,Alkmaar,Noord-Holland,VBO,4.842003,52.558811
Klipper,23,,,1483TS,De Rijp,Alkmaar,Noord-Holland,VBO,4.842011,52.558860
Klipper,25,,,1483TS,De Rijp,Alkmaar,Noord-Holland,VBO,4.842029,52.558906
Klipper,27,,,1483TS,De Rijp,Alkmaar,Noord-Holland,VBO,4.842044,52.558951
Klipper,29,,,1483TS,De Rijp,Alkmaar,Noord-Holland,VBO,4.842068,52.558999
Klipper,31,,,1483TS,De Rijp,Alkmaar,Noord-Holland,VBO,4.842080,52.559052
Klipper,33,,,1483TT,De Rijp,Alkmaar,Noord-Holland,VBO,4.841641,52.559080
Klipper,35,,,1483TT,De Rijp,Alkmaar,Noord-Holland,VBO,4.841626,52.559034
Klipper,37,,,1483TT,De Rijp,Alkmaar,Noord-Holland,VBO,4.841606,52.558983
Klipper,39,,,1483TT,De Rijp,Alkmaar,Noord-Holland,VBO,4.841579,52.558939
Klipper,41,,,1483TT,De Rijp,Alkmaar,Noord-Holland,VBO,4.841564,52.558889
Klipper,43,,,1483TT,De Rijp,Alkmaar,Noord-Holland,VBO,4.841568,52.558840
Klipper,45,,,1483TT,De Rijp,Alkmaar,Noord-Holland,VBO,4.841555,52.558790
Klipper,47,,,1483TT,De Rijp,Alkmaar,Noord-Holland,VBO,4.841537,52.558744
Klipper,49,,,1483TT,De Rijp,Alkmaar,Noord-Holland,VBO,4.841372,52.558807
Klipper,51,,,1483TT,De Rijp,Alkmaar,Noord-Holland,VBO,4.841289,52.558812
Klipper,53,,,1483TT,De Rijp,Alkmaar,Noord-Holland,VBO,4.841208,52.558812
Klipper,55,,,1483TT,De Rijp,Alkmaar,Noord-Holland,VBO,4.841135,52.558815
Klipper,57,,,1483TT,De Rijp,Alkmaar,Noord-Holland,VBO,4.841049,52.558820
Klipper,59,,,1483TT,De Rijp,Alkmaar,Noord-Holland,VBO,4.840986,52.558536
Klipper,61,,,1483TT,De Rijp,Alkmaar,Noord-Holland,VBO,4.841069,52.558533
Klipper,63,,,1483TT,De Rijp,Alkmaar,Noord-Holland,VBO,4.841156,52.558530
Klipper,65,,,1483TT,De Rijp,Alkmaar,Noord-Holland,VBO,4.841228,52.558528
Klipper,67,,,1483TT,De Rijp,Alkmaar,Noord-Holland,VBO,4.841298,52.558525
Klipper,42,,,1483TV,De Rijp,Alkmaar,Noord-Holland,VBO,4.842567,52.559089
Klipper,44,,,1483TV,De Rijp,Alkmaar,Noord-Holland,VBO,4.842595,52.559191
Klipper,48,,,1483TV,De Rijp,Alkmaar,Noord-Holland,VBO,4.842561,52.559316
Klipper,50,,,1483TV,De Rijp,Alkmaar,Noord-Holland,VBO,4.842310,52.559280
Klipper,52,,,1483TV,De Rijp,Alkmaar,Noord-Holland,VBO,4.842219,52.559293
Klipper,54,,,1483TV,De Rijp,Alkmaar,Noord-Holland,VBO,4.842051,52.559310
Klipper,56,,,1483TV,De Rijp,Alkmaar,Noord-Holland,VBO,4.841961,52.559323
Klipper,58,,,1483TV,De Rijp,Alkmaar,Noord-Holland,VBO,4.841796,52.559342
Klipper,60,,,1483TV,De Rijp,Alkmaar,Noord-Holland,VBO,4.841697,52.559356
Klipper,62,,,1483TV,De Rijp,Alkmaar,Noord-Holland,VBO,4.841495,52.559360
Klipper,64,,,1483TV,De Rijp,Alkmaar,Noord-Holland,VBO,4.841395,52.559376
Klipper,66,,,1483TV,De Rijp,Alkmaar,Noord-Holland,VBO,4.841166,52.559366
Klipper,68,,,1483TV,De Rijp,Alkmaar,Noord-Holland,VBO,4.841068,52.559342
Klipper,70,,,1483TV,De Rijp,Alkmaar,Noord-Holland,VBO,4.840907,52.559287
Klipper,72,,,1483TV,De Rijp,Alkmaar,Noord-Holland,VBO,4.840807,52.559254
Klipper,2,a,,1483TW,De Rijp,Alkmaar,Noord-Holland,VBO,4.841587,52.558178
Klipper,2,,,1483TW,De Rijp,Alkmaar,Noord-Holland,VBO,4.841517,52.558181
Klipper,4,a,,1483TW,De Rijp,Alkmaar,Noord-Holland,VBO,4.841718,52.558172
Klipper,4,,,1483TW,De Rijp,Alkmaar,Noord-Holland,VBO,4.841634,52.558178
Klipper,6,a,,1483TW,De Rijp,Alkmaar,Noord-Holland,VBO,4.841845,52.558132
Klipper,6,,,1483TW,De Rijp,Alkmaar,Noord-Holland,VBO,4.841770,52.558136
Klipper,8,a,,1483TW,De Rijp,Alkmaar,Noord-Holland,VBO,4.841972,52.558129
Klipper,8,,,1483TW,De Rijp,Alkmaar,Noord-Holland,VBO,4.841897,52.558131
Klipper,10,a,,1483TW,De Rijp,Alkmaar,Noord-Holland,VBO,4.842152,52.558123
Klipper,10,,,1483TW,De Rijp,Alkmaar,Noord-Holland,VBO,4.842013,52.558140
Klipper,14,,,1483TW,De Rijp,Alkmaar,Noord-Holland,VBO,4.842353,52.558164
Klipper,16,,,1483TW,De Rijp,Alkmaar,Noord-Holland,VBO,4.842281,52.558323
Klipper,18,,,1483TW,De Rijp,Alkmaar,Noord-Holland,VBO,4.842314,52.558386
Klipper,20,,,1483TW,De Rijp,Alkmaar,Noord-Holland,VBO,4.842326,52.558427
Klipper,22,,,1483TW,De Rijp,Alkmaar,Noord-Holland,VBO,4.842339,52.558477
Klipper,24,,,1483TW,De Rijp,Alkmaar,Noord-Holland,VBO,4.842355,52.558523
Klipper,26,,,1483TW,De Rijp,Alkmaar,Noord-Holland,VBO,4.842368,52.558569
Klipper,28,,,1483TW,De Rijp,Alkmaar,Noord-Holland,VBO,4.842388,52.558620
Klipper,30,,,1483TW,De Rijp,Alkmaar,Noord-Holland,VBO,4.842406,52.558669
Klipper,32,,,1483TW,De Rijp,Alkmaar,Noord-Holland,VBO,4.842425,52.558734
Klipper,34,,,1483TW,De Rijp,Alkmaar,Noord-Holland,VBO,4.842473,52.558850
Klipper,36,,,1483TW,De Rijp,Alkmaar,Noord-Holland,VBO,4.842484,52.558891
Klipper,38,,,1483TW,De Rijp,Alkmaar,Noord-Holland,VBO,4.842500,52.558942
Klipper,40,,,1483TW,De Rijp,Alkmaar,Noord-Holland,VBO,4.842517,52.558995
Klipper,74,,,1483TX,De Rijp,Alkmaar,Noord-Holland,VBO,4.840651,52.559153
Klipper,76,,,1483TX,De Rijp,Alkmaar,Noord-Holland,VBO,4.840635,52.559139
Klipper,78,,,1483TX,De Rijp,Alkmaar,Noord-Holland,VBO,4.840618,52.559103
Klipper,80,,,1483TX,De Rijp,Alkmaar,Noord-Holland,VBO,4.840613,52.559080
Klipper,82,,,1483TX,De Rijp,Alkmaar,Noord-Holland,VBO,4.840593,52.559039
Klipper,84,,,1483TX,De Rijp,Alkmaar,Noord-Holland,VBO,4.840573,52.559022
Klipper,86,a,,1483TX,De Rijp,Alkmaar,Noord-Holland,VBO,4.840448,52.558930
Klipper,86,,,1483TX,De Rijp,Alkmaar,Noord-Holland,VBO,4.840556,52.558994
Klipper,88,,,1483TX,De Rijp,Alkmaar,Noord-Holland,VBO,4.840542,52.558977
Klipper,90,,,1483TX,De Rijp,Alkmaar,Noord-Holland,VBO,4.840527,52.558859
Klipper,92,,,1483TX,De Rijp,Alkmaar,Noord-Holland,VBO,4.840530,52.558849
Klipper,94,,,1483TX,De Rijp,Alkmaar,Noord-Holland,VBO,4.840510,52.558799
Klipper,96,,,1483TX,De Rijp,Alkmaar,Noord-Holland,VBO,4.840515,52.558775
Klipper,98,,,1483TX,De Rijp,Alkmaar,Noord-Holland,VBO,4.840513,52.558744
Klipper,100,,,1483TX,De Rijp,Alkmaar,Noord-Holland,VBO,4.840519,52.558724
Klipper,102,,,1483TX,De Rijp,Alkmaar,Noord-Holland,VBO,4.840485,52.558686
Klipper,104,,,1483TX,De Rijp,Alkmaar,Noord-Holland,VBO,4.840492,52.558662
Klipper,108,,,1483TZ,De Rijp,Alkmaar,Noord-Holland,VBO,4.840385,52.558404
Klipper,110,,,1483TZ,De Rijp,Alkmaar,Noord-Holland,VBO,4.840561,52.558330
Klipper,112,,,1483TZ,De Rijp,Alkmaar,Noord-Holland,VBO,4.840662,52.558305
Klipper,114,,,1483TZ,De Rijp,Alkmaar,Noord-Holland,VBO,4.840793,52.558278
Klipper,116,,,1483TZ,De Rijp,Alkmaar,Noord-Holland,VBO,4.840927,52.558246
Klipper,118,,,1483TZ,De Rijp,Alkmaar,Noord-Holland,VBO,4.841110,52.558234
Willem Pzn. Lakemanstraat,3,,,1483VA,De Rijp,Alkmaar,Noord-Holland,VBO,4.848533,52.558067
Willem Pzn. Lakemanstraat,4,,,1483VA,De Rijp,Alkmaar,Noord-Holland,VBO,4.848418,52.557791
Willem Pzn. Lakemanstraat,5,,,1483VA,De Rijp,Alkmaar,Noord-Holland,VBO,4.848378,52.557737
Willem Pzn. Lakemanstraat,6,,,1483VA,De Rijp,Alkmaar,Noord-Holland,VBO,4.848373,52.557632
Willem Pzn. Lakemanstraat,7,,,1483VA,De Rijp,Alkmaar,Noord-Holland,VBO,4.848360,52.557582
Willem Pzn. Lakemanstraat,8,,,1483VA,De Rijp,Alkmaar,Noord-Holland,VBO,4.848250,52.557297
Willem Pzn. Lakemanstraat,9,,,1483VA,De Rijp,Alkmaar,Noord-Holland,VBO,4.848228,52.557249
Willem Pzn. Lakemanstraat,10,,,1483VA,De Rijp,Alkmaar,Noord-Holland,VBO,4.848175,52.557130
Willem Pzn. Lakemanstraat,11,,,1483VA,De Rijp,Alkmaar,Noord-Holland,VBO,4.847993,52.556814
Willem Pzn. Lakemanstraat,12,,,1483VA,De Rijp,Alkmaar,Noord-Holland,VBO,4.847882,52.556732
Willem Pzn. Lakemanstraat,13,,,1483VA,De Rijp,Alkmaar,Noord-Holland,VBO,4.847847,52.556687
Willem Pzn. Lakemanstraat,14,,,1483VA,De Rijp,Alkmaar,Noord-Holland,VBO,4.847794,52.556588
Willem Pzn. Lakemanstraat,15,,,1483VA,De Rijp,Alkmaar,Noord-Holland,VBO,4.847779,52.556526
Willem Pzn. Lakemanstraat,16,,,1483VA,De Rijp,Alkmaar,Noord-Holland,VBO,4.847673,52.556425
Willem Pzn. Lakemanstraat,17,,,1483VA,De Rijp,Alkmaar,Noord-Holland,VBO,4.847662,52.556107
Willem Pzn. Lakemanstraat,18,,,1483VA,De Rijp,Alkmaar,Noord-Holland,VBO,4.847606,52.555981
Willem Pzn. Lakemanstraat,19,,,1483VA,De Rijp,Alkmaar,Noord-Holland,VBO,4.847528,52.555853
Auwel Pzn. Prinsstraat,1,,,1483VB,De Rijp,Alkmaar,Noord-Holland,VBO,4.848450,52.557845
Auwel Pzn. Prinsstraat,2,,,1483VB,De Rijp,Alkmaar,Noord-Holland,VBO,4.848495,52.558013
Auwel Pzn. Prinsstraat,3,,,1483VB,De Rijp,Alkmaar,Noord-Holland,VBO,4.848149,52.557876
Auwel Pzn. Prinsstraat,4,,,1483VB,De Rijp,Alkmaar,Noord-Holland,VBO,4.848123,52.558083
Auwel Pzn. Prinsstraat,5,,,1483VB,De Rijp,Alkmaar,Noord-Holland,VBO,4.848065,52.557891
Auwel Pzn. Prinsstraat,7,,,1483VB,De Rijp,Alkmaar,Noord-Holland,VBO,4.847984,52.557902
Auwel Pzn. Prinsstraat,9,,,1483VB,De Rijp,Alkmaar,Noord-Holland,VBO,4.847901,52.557912
Auwel Pzn. Prinsstraat,11,,,1483VB,De Rijp,Alkmaar,Noord-Holland,VBO,4.847742,52.557930
Auwel Pzn. Prinsstraat,13,,,1483VB,De Rijp,Alkmaar,Noord-Holland,VBO,4.847664,52.557939
Auwel Pzn. Prinsstraat,15,,,1483VB,De Rijp,Alkmaar,Noord-Holland,VBO,4.847593,52.557950
Leeghwaterstraat,1,,,1483VC,De Rijp,Alkmaar,Noord-Holland,VBO,4.848280,52.557346
Leeghwaterstraat,2,,,1483VC,De Rijp,Alkmaar,Noord-Holland,VBO,4.848335,52.557530
Leeghwaterstraat,3,,,1483VC,De Rijp,Alkmaar,Noord-Holland,VBO,4.848006,52.557393
Leeghwaterstraat,4,a,,1483VC,De Rijp,Alkmaar,Noord-Holland,VBO,4.848083,52.557562
Leeghwaterstraat,4,,,1483VC,De Rijp,Alkmaar,Noord-Holland,VBO,4.848000,52.557570
Leeghwaterstraat,5,,,1483VC,De Rijp,Alkmaar,Noord-Holland,VBO,4.847894,52.557408
Leeghwaterstraat,6,a,,1483VC,De Rijp,Alkmaar,Noord-Holland,VBO,4.847885,52.557611
Leeghwaterstraat,6,,,1483VC,De Rijp,Alkmaar,Noord-Holland,VBO,4.847942,52.557586
Leeghwaterstraat,7,,,1483VC,De Rijp,Alkmaar,Noord-Holland,VBO,4.847782,52.557423
Leeghwaterstraat,8,,,1483VC,De Rijp,Alkmaar,Noord-Holland,VBO,4.847732,52.557605
Leeghwaterstraat,9,,,1483VC,De Rijp,Alkmaar,Noord-Holland,VBO,4.847607,52.557460
Leeghwaterstraat,10,,,1483VC,De Rijp,Alkmaar,Noord-Holland,VBO,4.847588,52.557623
Leeghwaterstraat,11,,,1483VC,De Rijp,Alkmaar,Noord-Holland,VBO,4.847475,52.557474
Leeghwaterstraat,12,,,1483VC,De Rijp,Alkmaar,Noord-Holland,VBO,4.847469,52.557638
Leeghwaterstraat,13,,,1483VC,De Rijp,Alkmaar,Noord-Holland,VBO,4.847340,52.557495
Leeghwaterstraat,14,,,1483VC,De Rijp,Alkmaar,Noord-Holland,VBO,4.847334,52.557659
Jan Cornelisz. Rijpstraat,1,,,1483VD,De Rijp,Alkmaar,Noord-Holland,VBO,4.848026,52.556885
Jan Cornelisz. Rijpstraat,2,,,1483VD,De Rijp,Alkmaar,Noord-Holland,VBO,4.848157,52.557079
Jan Cornelisz. Rijpstraat,3,,,1483VD,De Rijp,Alkmaar,Noord-Holland,VBO,4.847655,52.556947
Jan Cornelisz. Rijpstraat,4,,,1483VD,De Rijp,Alkmaar,Noord-Holland,VBO,4.847935,52.557107
Jan Cornelisz. Rijpstraat,5,,,1483VD,De Rijp,Alkmaar,Noord-Holland,VBO,4.847573,52.556958
Jan Cornelisz. Rijpstraat,6,,,1483VD,De Rijp,Alkmaar,Noord-Holland,VBO,4.847823,52.557124
Jan Cornelisz. Rijpstraat,7,,,1483VD,De Rijp,Alkmaar,Noord-Holland,VBO,4.847488,52.556971
Jan Cornelisz. Rijpstraat,8,,,1483VD,De Rijp,Alkmaar,Noord-Holland,VBO,4.847680,52.557147
Jan Cornelisz. Rijpstraat,9,,,1483VD,De Rijp,Alkmaar,Noord-Holland,VBO,4.847402,52.556986
Jan Cornelisz. Rijpstraat,10,,,1483VD,De Rijp,Alkmaar,Noord-Holland,VBO,4.847544,52.557168
Jan Cornelisz. Rijpstraat,12,,,1483VD,De Rijp,Alkmaar,Noord-Holland,VBO,4.847442,52.557184
Jan Cornelisz. Rijpstraat,14,,,1483VD,De Rijp,Alkmaar,Noord-Holland,VBO,4.847278,52.557221
Julianalaan,1,,,1483VE,De Rijp,Alkmaar,Noord-Holland,VBO,4.847249,52.557295
Julianalaan,2,a,,1483VE,De Rijp,Alkmaar,Noord-Holland,VBO,4.846943,52.558078
Julianalaan,2,b,,1483VE,De Rijp,Alkmaar,Noord-Holland,VBO,4.846933,52.558034
Julianalaan,2,c,,1483VE,De Rijp,Alkmaar,Noord-Holland,VBO,4.846921,52.558015
Julianalaan,2,d,,1483VE,De Rijp,Alkmaar,Noord-Holland,VBO,4.846918,52.557991
Julianalaan,2,e,,1483VE,De Rijp,Alkmaar,Noord-Holland,VBO,4.846915,52.557962
Julianalaan,3,,,1483VE,De Rijp,Alkmaar,Noord-Holland,VBO,4.847122,52.557031
Julianalaan,5,,,1483VE,De Rijp,Alkmaar,Noord-Holland,VBO,4.847095,52.556982
Julianalaan,7,,,1483VE,De Rijp,Alkmaar,Noord-Holland,VBO,4.847068,52.556941
Julianalaan,9,,,1483VE,De Rijp,Alkmaar,Noord-Holland,VBO,4.847017,52.556856
Julianalaan,11,,,1483VE,De Rijp,Alkmaar,Noord-Holland,VBO,4.846978,52.556798
Julianalaan,13,,,1483VE,De Rijp,Alkmaar,Noord-Holland,VBO,4.846952,52.556748
Julianalaan,15,,,1483VE,De Rijp,Alkmaar,Noord-Holland,VBO,4.846676,52.556049
Julianalaan,17,,,1483VE,De Rijp,Alkmaar,Noord-Holland,VBO,4.846642,52.555987
Julianalaan,19,,,1483VE,De Rijp,Alkmaar,Noord-Holland,VBO,4.846593,52.555900
Julianalaan,21,,,1483VE,De Rijp,Alkmaar,Noord-Holland,VBO,4.846559,52.555838
Julianalaan,23,,,1483VE,De Rijp,Alkmaar,Noord-Holland,VBO,4.846511,52.555752
Julianalaan,25,,,1483VE,De Rijp,Alkmaar,Noord-Holland,VBO,4.846477,52.555690
Julianalaan,27,,,1483VE,De Rijp,Alkmaar,Noord-Holland,VBO,4.846423,52.555593
Julianalaan,29,,,1483VE,De Rijp,Alkmaar,Noord-Holland,VBO,4.846391,52.555535
Julianalaan,31,,,1483VE,De Rijp,Alkmaar,Noord-Holland,VBO,4.846343,52.555448
Julianalaan,33,,,1483VE,De Rijp,Alkmaar,Noord-Holland,VBO,4.846310,52.555389
Julianalaan,35,,,1483VE,De Rijp,Alkmaar,Noord-Holland,VBO,4.846260,52.555299
Julianalaan,37,,,1483VE,De Rijp,Alkmaar,Noord-Holland,VBO,4.846228,52.555241
Julianalaan,39,,,1483VG,De Rijp,Alkmaar,Noord-Holland,VBO,4.846065,52.554902
Julianalaan,41,,,1483VG,De Rijp,Alkmaar,Noord-Holland,VBO,4.846040,52.554849
Julianalaan,43,,,1483VG,De Rijp,Alkmaar,Noord-Holland,VBO,4.846008,52.554796
Julianalaan,45,,,1483VG,De Rijp,Alkmaar,Noord-Holland,VBO,4.846590,52.554433
Julianalaan,47,,,1483VG,De Rijp,Alkmaar,Noord-Holland,VBO,4.846502,52.554451
Julianalaan,49,,,1483VG,De Rijp,Alkmaar,Noord-Holland,VBO,4.846418,52.554468
Julianalaan,51,,,1483VG,De Rijp,Alkmaar,Noord-Holland,VBO,4.846331,52.554487
Julianalaan,53,,,1483VG,De Rijp,Alkmaar,Noord-Holland,VBO,4.846239,52.554504
Julianalaan,55,,,1483VG,De Rijp,Alkmaar,Noord-Holland,VBO,4.846147,52.554523
Julianalaan,57,,,1483VG,De Rijp,Alkmaar,Noord-Holland,VBO,4.846055,52.554541
Julianalaan,59,,,1483VG,De Rijp,Alkmaar,Noord-Holland,VBO,4.845963,52.554556
Julianalaan,61,,,1483VG,De Rijp,Alkmaar,Noord-Holland,VBO,4.845867,52.554573
Julianalaan,63,,,1483VG,De Rijp,Alkmaar,Noord-Holland,VBO,4.846639,52.554136
Julianalaan,65,,,1483VG,De Rijp,Alkmaar,Noord-Holland,VBO,4.846537,52.554150
Julianalaan,67,,,1483VG,De Rijp,Alkmaar,Noord-Holland,VBO,4.846453,52.554165
Julianalaan,69,,,1483VG,De Rijp,Alkmaar,Noord-Holland,VBO,4.846366,52.554176
Julianalaan,71,,,1483VG,De Rijp,Alkmaar,Noord-Holland,VBO,4.846263,52.554196
Julianalaan,73,,,1483VG,De Rijp,Alkmaar,Noord-Holland,VBO,4.846172,52.554207
Julianalaan,75,,,1483VG,De Rijp,Alkmaar,Noord-Holland,VBO,4.846084,52.554223
Julianalaan,77,,,1483VH,De Rijp,Alkmaar,Noord-Holland,VBO,4.845778,52.554373
Julianalaan,79,,,1483VH,De Rijp,Alkmaar,Noord-Holland,VBO,4.845748,52.554324
Julianalaan,81,,,1483VH,De Rijp,Alkmaar,Noord-Holland,VBO,4.845722,52.554270
Julianalaan,83,,,1483VH,De Rijp,Alkmaar,Noord-Holland,VBO,4.845695,52.554221
Julianalaan,85,,,1483VH,De Rijp,Alkmaar,Noord-Holland,VBO,4.845671,52.554179
Julianalaan,87,,,1483VH,De Rijp,Alkmaar,Noord-Holland,VBO,4.846292,52.553834
Julianalaan,89,,,1483VH,De Rijp,Alkmaar,Noord-Holland,VBO,4.846221,52.553840
Julianalaan,91,,,1483VH,De Rijp,Alkmaar,Noord-Holland,VBO,4.846117,52.553856
Julianalaan,93,,,1483VH,De Rijp,Alkmaar,Noord-Holland,VBO,4.846031,52.553871
Julianalaan,95,,,1483VH,De Rijp,Alkmaar,Noord-Holland,VBO,4.845942,52.553881
Julianalaan,97,,,1483VH,De Rijp,Alkmaar,Noord-Holland,VBO,4.845841,52.553901
Julianalaan,99,,,1483VH,De Rijp,Alkmaar,Noord-Holland,VBO,4.845760,52.553909
Julianalaan,101,,,1483VH,De Rijp,Alkmaar,Noord-Holland,VBO,4.845650,52.553928
Julianalaan,103,,,1483VH,De Rijp,Alkmaar,Noord-Holland,VBO,4.845562,52.553945
Julianalaan,105,,,1483VH,De Rijp,Alkmaar,Noord-Holland,VBO,4.846381,52.553525
Julianalaan,107,,,1483VH,De Rijp,Alkmaar,Noord-Holland,VBO,4.846282,52.553534
Julianalaan,109,,,1483VH,De Rijp,Alkmaar,Noord-Holland,VBO,4.846186,52.553542
Julianalaan,111,,,1483VH,De Rijp,Alkmaar,Noord-Holland,VBO,4.846086,52.553555
Julianalaan,113,,,1483VH,De Rijp,Alkmaar,Noord-Holland,VBO,4.845992,52.553566
Julianalaan,115,,,1483VH,De Rijp,Alkmaar,Noord-Holland,VBO,4.845903,52.553577
Julianalaan,117,,,1483VH,De Rijp,Alkmaar,Noord-Holland,VBO,4.845817,52.553584
Julianalaan,119,,,1483VJ,De Rijp,Alkmaar,Noord-Holland,VBO,4.845497,52.553741
Julianalaan,121,,,1483VJ,De Rijp,Alkmaar,Noord-Holland,VBO,4.845485,52.553687
Julianalaan,123,,,1483VJ,De Rijp,Alkmaar,Noord-Holland,VBO,4.845473,52.553634
Julianalaan,125,,,1483VJ,De Rijp,Alkmaar,Noord-Holland,VBO,4.845461,52.553579
Julianalaan,127,,,1483VJ,De Rijp,Alkmaar,Noord-Holland,VBO,4.845449,52.553531
Julianalaan,129,,,1483VJ,De Rijp,Alkmaar,Noord-Holland,VBO,4.846117,52.553211
Julianalaan,131,,,1483VJ,De Rijp,Alkmaar,Noord-Holland,VBO,4.846026,52.553213
Julianalaan,133,,,1483VJ,De Rijp,Alkmaar,Noord-Holland,VBO,4.845932,52.553221
Julianalaan,135,,,1483VJ,De Rijp,Alkmaar,Noord-Holland,VBO,4.845836,52.553232
Julianalaan,137,,,1483VJ,De Rijp,Alkmaar,Noord-Holland,VBO,4.845740,52.553239
Julianalaan,139,,,1483VJ,De Rijp,Alkmaar,Noord-Holland,VBO,4.845655,52.553250
Julianalaan,141,,,1483VJ,De Rijp,Alkmaar,Noord-Holland,VBO,4.845550,52.553260
Julianalaan,143,,,1483VJ,De Rijp,Alkmaar,Noord-Holland,VBO,4.845456,52.553272
Julianalaan,145,,,1483VJ,De Rijp,Alkmaar,Noord-Holland,VBO,4.845375,52.553283
Julianalaan,147,,,1483VJ,De Rijp,Alkmaar,Noord-Holland,VBO,4.846146,52.552923
Julianalaan,149,,,1483VJ,De Rijp,Alkmaar,Noord-Holland,VBO,4.846064,52.552926
Julianalaan,151,,,1483VJ,De Rijp,Alkmaar,Noord-Holland,VBO,4.845983,52.552931
Julianalaan,153,,,1483VJ,De Rijp,Alkmaar,Noord-Holland,VBO,4.845891,52.552937
Julianalaan,155,,,1483VJ,De Rijp,Alkmaar,Noord-Holland,VBO,4.845800,52.552946
Julianalaan,157,,,1483VJ,De Rijp,Alkmaar,Noord-Holland,VBO,4.845712,52.552952
Julianalaan,159,,,1483VK,De Rijp,Alkmaar,Noord-Holland,VBO,4.845345,52.553090
Julianalaan,161,,,1483VK,De Rijp,Alkmaar,Noord-Holland,VBO,4.845340,52.553030
Julianalaan,163,,,1483VK,De Rijp,Alkmaar,Noord-Holland,VBO,4.845332,52.552980
Julianalaan,165,,,1483VK,De Rijp,Alkmaar,Noord-Holland,VBO,4.845285,52.552848
Julianalaan,167,,,1483VK,De Rijp,Alkmaar,Noord-Holland,VBO,4.845275,52.552789
Julianalaan,169,,,1483VK,De Rijp,Alkmaar,Noord-Holland,VBO,4.845805,52.552524
Julianalaan,171,,,1483VK,De Rijp,Alkmaar,Noord-Holland,VBO,4.845640,52.552540
Julianalaan,173,,,1483VK,De Rijp,Alkmaar,Noord-Holland,VBO,4.845544,52.552546
Julianalaan,175,,,1483VK,De Rijp,Alkmaar,Noord-Holland,VBO,4.845367,52.552555
Julianalaan,177,,,1483VK,De Rijp,Alkmaar,Noord-Holland,VBO,4.845253,52.552561
Julianalaan,4,a,,1483VL,De Rijp,Alkmaar,Noord-Holland,VBO,4.846876,52.557907
Julianalaan,4,b,,1483VL,De Rijp,Alkmaar,Noord-Holland,VBO,4.846873,52.557926
Julianalaan,4,c,,1483VL,De Rijp,Alkmaar,Noord-Holland,VBO,4.846892,52.557886
Julianalaan,4,d,,1483VL,De Rijp,Alkmaar,Noord-Holland,VBO,4.846912,52.557874
Julianalaan,4,e,,1483VL,De Rijp,Alkmaar,Noord-Holland,VBO,4.846914,52.557859
Julianalaan,4,f,,1483VL,De Rijp,Alkmaar,Noord-Holland,VBO,4.846923,52.557838
Julianalaan,6,a,,1483VL,De Rijp,Alkmaar,Noord-Holland,VBO,4.846928,52.557818
Julianalaan,6,b,,1483VL,De Rijp,Alkmaar,Noord-Holland,VBO,4.846950,52.557798
Julianalaan,6,c,,1483VL,De Rijp,Alkmaar,Noord-Holland,VBO,4.846925,52.557782
Julianalaan,6,d,,1483VL,De Rijp,Alkmaar,Noord-Holland,VBO,4.846869,52.557768
Julianalaan,6,e,,1483VL,De Rijp,Alkmaar,Noord-Holland,VBO,4.846890,52.557752
Julianalaan,6,f,,1483VL,De Rijp,Alkmaar,Noord-Holland,VBO,4.846897,52.557745
Julianalaan,26,,,1483VL,De Rijp,Alkmaar,Noord-Holland,VBO,4.846107,52.556140
Julianalaan,28,,,1483VL,De Rijp,Alkmaar,Noord-Holland,VBO,4.846070,52.556091
Julianalaan,30,,,1483VL,De Rijp,Alkmaar,Noord-Holland,VBO,4.846042,52.556041
Julianalaan,32,,,1483VL,De Rijp,Alkmaar,Noord-Holland,VBO,4.846017,52.555978
Julianalaan,34,,,1483VL,De Rijp,Alkmaar,Noord-Holland,VBO,4.845990,52.555892
Julianalaan,36,,,1483VL,De Rijp,Alkmaar,Noord-Holland,VBO,4.845958,52.555828
Julianalaan,38,,,1483VL,De Rijp,Alkmaar,Noord-Holland,VBO,4.845903,52.555719
Julianalaan,40,,,1483VL,De Rijp,Alkmaar,Noord-Holland,VBO,4.845862,52.555666
Julianalaan,42,,,1483VL,De Rijp,Alkmaar,Noord-Holland,VBO,4.845811,52.555559
Julianalaan,44,,,1483VL,De Rijp,Alkmaar,Noord-Holland,VBO,4.845779,52.555496
Julianalaan,50,,,1483VM,De Rijp,Alkmaar,Noord-Holland,VBO,4.844832,52.553647
Julianalaan,52,,,1483VM,De Rijp,Alkmaar,Noord-Holland,VBO,4.844792,52.553542
Julianalaan,54,,,1483VM,De Rijp,Alkmaar,Noord-Holland,VBO,4.844774,52.553483
Julianalaan,56,,,1483VM,De Rijp,Alkmaar,Noord-Holland,VBO,4.844748,52.553377
Julianalaan,58,,,1483VM,De Rijp,Alkmaar,Noord-Holland,VBO,4.844734,52.553318
Julianalaan,60,,,1483VM,De Rijp,Alkmaar,Noord-Holland,VBO,4.844702,52.553214
Julianalaan,62,,,1483VM,De Rijp,Alkmaar,Noord-Holland,VBO,4.844687,52.553151
Julianalaan,64,,,1483VM,De Rijp,Alkmaar,Noord-Holland,VBO,4.844662,52.553049
Julianalaan,66,,,1483VM,De Rijp,Alkmaar,Noord-Holland,VBO,4.844658,52.552982
Julianalaan,68,,,1483VM,De Rijp,Alkmaar,Noord-Holland,VBO,4.844636,52.552881
Julianalaan,70,,,1483VM,De Rijp,Alkmaar,Noord-Holland,VBO,4.844629,52.552815
Julianalaan,72,,,1483VM,De Rijp,Alkmaar,Noord-Holland,VBO,4.844612,52.552712
Julianalaan,74,,,1483VM,De Rijp,Alkmaar,Noord-Holland,VBO,4.844612,52.552651
Julianalaan,76,,,1483VM,De Rijp,Alkmaar,Noord-Holland,VBO,4.844319,52.552558
Julianalaan,78,,,1483VM,De Rijp,Alkmaar,Noord-Holland,VBO,4.844225,52.552567
Julianalaan,80,,,1483VM,De Rijp,Alkmaar,Noord-Holland,VBO,4.844123,52.552572
Margrietstraat,2,,,1483VN,De Rijp,Alkmaar,Noord-Holland,VBO,4.847409,52.555624
Margrietstraat,3,,,1483VN,De Rijp,Alkmaar,Noord-Holland,VBO,4.847301,52.555360
Margrietstraat,4,,,1483VN,De Rijp,Alkmaar,Noord-Holland,VBO,4.847317,52.555645
Margrietstraat,5,,,1483VN,De Rijp,Alkmaar,Noord-Holland,VBO,4.847188,52.555381
Margrietstraat,6,,,1483VN,De Rijp,Alkmaar,Noord-Holland,VBO,4.847227,52.555660
Margrietstraat,7,,,1483VN,De Rijp,Alkmaar,Noord-Holland,VBO,4.847119,52.555396
Margrietstraat,8,,,1483VN,De Rijp,Alkmaar,Noord-Holland,VBO,4.847135,52.555679
Margrietstraat,9,,,1483VN,De Rijp,Alkmaar,Noord-Holland,VBO,4.847019,52.555415
Margrietstraat,10,,,1483VN,De Rijp,Alkmaar,Noord-Holland,VBO,4.847044,52.555697
Margrietstraat,11,,,1483VN,De Rijp,Alkmaar,Noord-Holland,VBO,4.846937,52.555433
Margrietstraat,12,,,1483VN,De Rijp,Alkmaar,Noord-Holland,VBO,4.846948,52.555716
Margrietstraat,13,,,1483VN,De Rijp,Alkmaar,Noord-Holland,VBO,4.846858,52.555450
Oranjestraat,1,,,1483VP,De Rijp,Alkmaar,Noord-Holland,VBO,4.846907,52.554736
Oranjestraat,2,,,1483VP,De Rijp,Alkmaar,Noord-Holland,VBO,4.847126,52.555118
Oranjestraat,3,,,1483VP,De Rijp,Alkmaar,Noord-Holland,VBO,4.846817,52.554753
Oranjestraat,4,,,1483VP,De Rijp,Alkmaar,Noord-Holland,VBO,4.847038,52.555134
Oranjestraat,5,,,1483VP,De Rijp,Alkmaar,Noord-Holland,VBO,4.846734,52.554773
Oranjestraat,6,,,1483VP,De Rijp,Alkmaar,Noord-Holland,VBO,4.846955,52.555154
Oranjestraat,7,,,1483VP,De Rijp,Alkmaar,Noord-Holland,VBO,4.846646,52.554790
Oranjestraat,8,,,1483VP,De Rijp,Alkmaar,Noord-Holland,VBO,4.846859,52.555169
Oranjestraat,9,,,1483VP,De Rijp,Alkmaar,Noord-Holland,VBO,4.846571,52.554804
Oranjestraat,10,,,1483VP,De Rijp,Alkmaar,Noord-Holland,VBO,4.846784,52.555184
Oranjestraat,11,,,1483VP,De Rijp,Alkmaar,Noord-Holland,VBO,4.846485,52.554821
Oranjestraat,12,,,1483VP,De Rijp,Alkmaar,Noord-Holland,VBO,4.846698,52.555203
Oranjestraat,13,,,1483VP,De Rijp,Alkmaar,Noord-Holland,VBO,4.846404,52.554836
Oranjestraat,14,,,1483VP,De Rijp,Alkmaar,Noord-Holland,VBO,4.845634,52.555328
Oranjestraat,16,,,1483VP,De Rijp,Alkmaar,Noord-Holland,VBO,4.845567,52.555342
Oranjestraat,18,,,1483VP,De Rijp,Alkmaar,Noord-Holland,VBO,4.845482,52.555359
Oranjestraat,20,,,1483VP,De Rijp,Alkmaar,Noord-Holland,VBO,4.845394,52.555374
Oranjestraat,22,,,1483VP,De Rijp,Alkmaar,Noord-Holland,VBO,4.845300,52.555393
Oranjestraat,24,,,1483VP,De Rijp,Alkmaar,Noord-Holland,VBO,4.845217,52.555412
Jan Ploegerlaan,1,a,,1483VR,De Rijp,Alkmaar,Noord-Holland,VBO,4.848335,52.554124
Jan Ploegerlaan,1,b,,1483VR,De Rijp,Alkmaar,Noord-Holland,VBO,4.848689,52.553956
Jan Ploegerlaan,1,c,,1483VR,De Rijp,Alkmaar,Noord-Holland,VBO,4.848159,52.554053
Jan Ploegerlaan,1,d,,1483VR,De Rijp,Alkmaar,Noord-Holland,VBO,4.848100,52.554061
Jan Ploegerlaan,1,e,,1483VR,De Rijp,Alkmaar,Noord-Holland,VBO,4.848138,52.553839
Jan Ploegerlaan,1,,,1483VR,De Rijp,Alkmaar,Noord-Holland,VBO,4.847779,52.553156
Jan Ploegerlaan,2,,,1483VR,De Rijp,Alkmaar,Noord-Holland,VBO,4.849448,52.554460
Jan Ploegerlaan,3,,,1483VR,De Rijp,Alkmaar,Noord-Holland,VBO,4.849862,52.554372
Jan Ploegerlaan,4,,,1483VR,De Rijp,Alkmaar,Noord-Holland,VBO,4.849542,52.554830
De Reiger,1,,,1483VS,De Rijp,Alkmaar,Noord-Holland,VBO,4.848949,52.555951
De Reiger,2,,,1483VS,De Rijp,Alkmaar,Noord-Holland,VBO,4.848944,52.555773
De Reiger,3,,,1483VS,De Rijp,Alkmaar,Noord-Holland,VBO,4.848938,52.555622
De Reiger,4,,,1483VS,De Rijp,Alkmaar,Noord-Holland,VBO,4.848878,52.555481
De Reiger,5,,,1483VS,De Rijp,Alkmaar,Noord-Holland,VBO,4.848842,52.555324
De Reiger,6,,,1483VS,De Rijp,Alkmaar,Noord-Holland,VBO,4.848836,52.555170
De Reiger,7,,,1483VS,De Rijp,Alkmaar,Noord-Holland,VBO,4.848781,52.554992
De Reiger,8,,,1483VS,De Rijp,Alkmaar,Noord-Holland,VBO,4.848574,52.554843
De Reiger,9,,,1483VS,De Rijp,Alkmaar,Noord-Holland,VBO,4.848344,52.554845
De Reiger,10,,,1483VS,De Rijp,Alkmaar,Noord-Holland,VBO,4.847893,52.554957
De Reiger,11,,,1483VS,De Rijp,Alkmaar,Noord-Holland,VBO,4.848078,52.555089
De Reiger,12,,,1483VS,De Rijp,Alkmaar,Noord-Holland,VBO,4.848142,52.555263
De Reiger,13,,,1483VS,De Rijp,Alkmaar,Noord-Holland,VBO,4.848215,52.555420
De Reiger,14,,,1483VS,De Rijp,Alkmaar,Noord-Holland,VBO,4.848309,52.555604
De Reiger,15,,,1483VS,De Rijp,Alkmaar,Noord-Holland,VBO,4.848364,52.555771
De Reiger,16,,,1483VS,De Rijp,Alkmaar,Noord-Holland,VBO,4.848583,52.555893
De Dillenburg,1,,,1483VT,De Rijp,Alkmaar,Noord-Holland,VBO,4.845406,52.555089
De Dillenburg,2,,,1483VT,De Rijp,Alkmaar,Noord-Holland,VBO,4.845375,52.555020
De Dillenburg,3,,,1483VT,De Rijp,Alkmaar,Noord-Holland,VBO,4.845345,52.554962
De Dillenburg,4,,,1483VT,De Rijp,Alkmaar,Noord-Holland,VBO,4.845317,52.554893
De Dillenburg,5,,,1483VT,De Rijp,Alkmaar,Noord-Holland,VBO,4.845295,52.554821
De Dillenburg,6,,,1483VT,De Rijp,Alkmaar,Noord-Holland,VBO,4.845255,52.554756
De Dillenburg,7,,,1483VT,De Rijp,Alkmaar,Noord-Holland,VBO,4.845217,52.554701
De Dillenburg,8,,,1483VT,De Rijp,Alkmaar,Noord-Holland,VBO,4.845199,52.554532
De Dillenburg,9,,,1483VT,De Rijp,Alkmaar,Noord-Holland,VBO,4.845015,52.554549
De Dillenburg,10,,,1483VT,De Rijp,Alkmaar,Noord-Holland,VBO,4.844891,52.554692
De Dillenburg,11,,,1483VT,De Rijp,Alkmaar,Noord-Holland,VBO,4.844804,52.554777
De Dillenburg,12,,,1483VT,De Rijp,Alkmaar,Noord-Holland,VBO,4.844730,52.554850
De Dillenburg,13,,,1483VT,De Rijp,Alkmaar,Noord-Holland,VBO,4.844778,52.554984
De Dillenburg,14,,,1483VT,De Rijp,Alkmaar,Noord-Holland,VBO,4.844804,52.555060
De Dillenburg,15,,,1483VT,De Rijp,Alkmaar,Noord-Holland,VBO,4.844850,52.555132
De Dillenburg,16,,,1483VT,De Rijp,Alkmaar,Noord-Holland,VBO,4.844871,52.555187
De Dillenburg,17,,,1483VT,De Rijp,Alkmaar,Noord-Holland,VBO,4.845473,52.555057
De Dillenburg,18,,,1483VT,De Rijp,Alkmaar,Noord-Holland,VBO,4.845426,52.554992
De Dillenburg,19,,,1483VT,De Rijp,Alkmaar,Noord-Holland,VBO,4.845421,52.554945
De Dillenburg,20,,,1483VT,De Rijp,Alkmaar,Noord-Holland,VBO,4.845385,52.554880
De Dillenburg,21,,,1483VT,De Rijp,Alkmaar,Noord-Holland,VBO,4.845352,52.554810
De Dillenburg,22,,,1483VT,De Rijp,Alkmaar,Noord-Holland,VBO,4.845307,52.554750
De Dillenburg,23,,,1483VT,De Rijp,Alkmaar,Noord-Holland,VBO,4.845273,52.554685
De Dillenburg,24,,,1483VT,De Rijp,Alkmaar,Noord-Holland,VBO,4.845190,52.554501
De Dillenburg,25,,,1483VT,De Rijp,Alkmaar,Noord-Holland,VBO,4.845016,52.554519
De Dillenburg,26,,,1483VT,De Rijp,Alkmaar,Noord-Holland,VBO,4.844848,52.554662
De Dillenburg,27,,,1483VT,De Rijp,Alkmaar,Noord-Holland,VBO,4.844745,52.554742
De Dillenburg,28,,,1483VT,De Rijp,Alkmaar,Noord-Holland,VBO,4.844675,52.554836
De Dillenburg,29,,,1483VT,De Rijp,Alkmaar,Noord-Holland,VBO,4.844726,52.555002
De Dillenburg,30,,,1483VT,De Rijp,Alkmaar,Noord-Holland,VBO,4.844761,52.555084
De Dillenburg,31,,,1483VT,De Rijp,Alkmaar,Noord-Holland,VBO,4.844799,52.555151
De Dillenburg,32,,,1483VT,De Rijp,Alkmaar,Noord-Holland,VBO,4.844834,52.555219
De Dillenburg,33,,,1483VT,De Rijp,Alkmaar,Noord-Holland,VBO,4.845536,52.555042
De Dillenburg,34,,,1483VT,De Rijp,Alkmaar,Noord-Holland,VBO,4.845487,52.554976
De Dillenburg,35,,,1483VT,De Rijp,Alkmaar,Noord-Holland,VBO,4.845467,52.554930
De Dillenburg,36,,,1483VT,De Rijp,Alkmaar,Noord-Holland,VBO,4.845437,52.554868
De Dillenburg,37,,,1483VT,De Rijp,Alkmaar,Noord-Holland,VBO,4.845398,52.554797
De Dillenburg,38,,,1483VT,De Rijp,Alkmaar,Noord-Holland,VBO,4.845372,52.554734
De Dillenburg,39,,,1483VT,De Rijp,Alkmaar,Noord-Holland,VBO,4.845329,52.554670
De Dillenburg,40,,,1483VT,De Rijp,Alkmaar,Noord-Holland,VBO,4.845145,52.554451
De Dillenburg,41,,,1483VT,De Rijp,Alkmaar,Noord-Holland,VBO,4.844999,52.554484
De Dillenburg,42,,,1483VT,De Rijp,Alkmaar,Noord-Holland,VBO,4.844769,52.554627
De Dillenburg,43,,,1483VT,De Rijp,Alkmaar,Noord-Holland,VBO,4.844690,52.554716
De Dillenburg,44,,,1483VT,De Rijp,Alkmaar,Noord-Holland,VBO,4.844622,52.554816
De Dillenburg,45,,,1483VT,De Rijp,Alkmaar,Noord-Holland,VBO,4.844657,52.555029
De Dillenburg,46,,,1483VT,De Rijp,Alkmaar,Noord-Holland,VBO,4.844708,52.555103
De Dillenburg,47,,,1483VT,De Rijp,Alkmaar,Noord-Holland,VBO,4.844720,52.555165
De Dillenburg,48,,,1483VT,De Rijp,Alkmaar,Noord-Holland,VBO,4.844760,52.555208
Baanakker,1,,,1483VV,De Rijp,Alkmaar,Noord-Holland,VBO,4.849865,52.555814
Baanakker,2,,,1483VV,De Rijp,Alkmaar,Noord-Holland,VBO,4.849733,52.555630
Baanakker,3,,,1483VV,De Rijp,Alkmaar,Noord-Holland,VBO,4.849942,52.555799
Baanakker,4,,,1483VV,De Rijp,Alkmaar,Noord-Holland,VBO,4.849963,52.555585
Baanakker,5,,,1483VV,De Rijp,Alkmaar,Noord-Holland,VBO,4.850018,52.555785
Baanakker,6,,,1483VV,De Rijp,Alkmaar,Noord-Holland,VBO,4.850134,52.555572
Baanakker,7,,,1483VV,De Rijp,Alkmaar,Noord-Holland,VBO,4.850096,52.555770
Baanakker,8,,,1483VV,De Rijp,Alkmaar,Noord-Holland,VBO,4.850211,52.555557
Baanakker,9,,,1483VV,De Rijp,Alkmaar,Noord-Holland,VBO,4.850251,52.555760
Baanakker,10,,,1483VV,De Rijp,Alkmaar,Noord-Holland,VBO,4.850288,52.555544
Baanakker,11,,,1483VV,De Rijp,Alkmaar,Noord-Holland,VBO,4.850447,52.555752
Baanakker,12,,,1483VV,De Rijp,Alkmaar,Noord-Holland,VBO,4.850365,52.555528
Baanakker,13,,,1483VV,De Rijp,Alkmaar,Noord-Holland,VBO,4.850567,52.555728
Baanakker,14,,,1483VV,De Rijp,Alkmaar,Noord-Holland,VBO,4.850489,52.555451
Baanakker,15,,,1483VV,De Rijp,Alkmaar,Noord-Holland,VBO,4.850743,52.555663
Baanakker,16,,,1483VV,De Rijp,Alkmaar,Noord-Holland,VBO,4.850610,52.555427
Baanakker,17,,,1483VV,De Rijp,Alkmaar,Noord-Holland,VBO,4.850950,52.555622
Baanakker,18,,,1483VV,De Rijp,Alkmaar,Noord-Holland,VBO,4.850783,52.555444
Baanakker,20,,,1483VV,De Rijp,Alkmaar,Noord-Holland,VBO,4.850861,52.555429
Baanakker,22,,,1483VV,De Rijp,Alkmaar,Noord-Holland,VBO,4.850936,52.555414
Baanakker,24,,,1483VV,De Rijp,Alkmaar,Noord-Holland,VBO,4.851013,52.555401
Baanakker,26,,,1483VV,De Rijp,Alkmaar,Noord-Holland,VBO,4.851084,52.555374
Baanakker,28,,,1483VV,De Rijp,Alkmaar,Noord-Holland,VBO,4.851249,52.555298
Baanakker,30,,,1483VV,De Rijp,Alkmaar,Noord-Holland,VBO,4.851346,52.555541
Baanakker,32,,,1483VV,De Rijp,Alkmaar,Noord-Holland,VBO,4.851561,52.555498
Baanakker,34,,,1483VV,De Rijp,Alkmaar,Noord-Holland,VBO,4.851333,52.555516
Baanakker,36,,,1483VV,De Rijp,Alkmaar,Noord-Holland,VBO,4.851548,52.555475
Baanakker,38,,,1483VV,De Rijp,Alkmaar,Noord-Holland,VBO,4.851321,52.555487
Baanakker,40,,,1483VV,De Rijp,Alkmaar,Noord-Holland,VBO,4.851539,52.555449
Baanakker,42,,,1483VV,De Rijp,Alkmaar,Noord-Holland,VBO,4.851680,52.555717
Baanakker,44,,,1483VV,De Rijp,Alkmaar,Noord-Holland,VBO,4.851517,52.555736
Driemaster,1,,,1483WB,De Rijp,Alkmaar,Noord-Holland,VBO,4.843660,52.559162
Driemaster,3,,,1483WB,De Rijp,Alkmaar,Noord-Holland,VBO,4.843947,52.559223
Driemaster,5,A,,1483WB,De Rijp,Alkmaar,Noord-Holland,VBO,4.844092,52.559043
Driemaster,5,,,1483WB,De Rijp,Alkmaar,Noord-Holland,VBO,4.843917,52.559078
Driemaster,7,,,1483WB,De Rijp,Alkmaar,Noord-Holland,VBO,4.844377,52.559320
Driemaster,9,,,1483WB,De Rijp,Alkmaar,Noord-Holland,VBO,4.844500,52.559213
Driemaster,11,,,1483WB,De Rijp,Alkmaar,Noord-Holland,VBO,4.844479,52.559066
Driemaster,13,,,1483WB,De Rijp,Alkmaar,Noord-Holland,VBO,4.844264,52.558975
Driemaster,2,,,1483WC,De Rijp,Alkmaar,Noord-Holland,VBO,4.842874,52.558283
Tjalk,1,,,1483WD,De Rijp,Alkmaar,Noord-Holland,VBO,4.842989,52.557803
Tjalk,3,,,1483WD,De Rijp,Alkmaar,Noord-Holland,VBO,4.843000,52.557755
Tjalk,5,,,1483WD,De Rijp,Alkmaar,Noord-Holland,VBO,4.842998,52.557717
Tjalk,7,,,1483WD,De Rijp,Alkmaar,Noord-Holland,VBO,4.843005,52.557675
Tjalk,9,,,1483WD,De Rijp,Alkmaar,Noord-Holland,VBO,4.843010,52.557636
Tjalk,11,,,1483WD,De Rijp,Alkmaar,Noord-Holland,VBO,4.843010,52.557594
Tjalk,13,,,1483WD,De Rijp,Alkmaar,Noord-Holland,VBO,4.843015,52.557556
Tjalk,15,,,1483WD,De Rijp,Alkmaar,Noord-Holland,VBO,4.843011,52.557519
Tjalk,2,,,1483WE,De Rijp,Alkmaar,Noord-Holland,VBO,4.842609,52.557795
Tjalk,4,,,1483WE,De Rijp,Alkmaar,Noord-Holland,VBO,4.842586,52.557727
Tjalk,6,,,1483WE,De Rijp,Alkmaar,Noord-Holland,VBO,4.842548,52.557648
Tjalk,8,,,1483WE,De Rijp,Alkmaar,Noord-Holland,VBO,4.842528,52.557570
Tjalk,10,,,1483WE,De Rijp,Alkmaar,Noord-Holland,VBO,4.842514,52.557496
Tjalk,12,,,1483WE,De Rijp,Alkmaar,Noord-Holland,VBO,4.842491,52.557410
Wollandje,1,,,1483WG,De Rijp,Alkmaar,Noord-Holland,VBO,4.843913,52.559619
Bellesloot,1,,,1483XA,De Rijp,Alkmaar,Noord-Holland,VBO,4.844553,52.553713
Bellesloot,3,,,1483XA,De Rijp,Alkmaar,Noord-Holland,VBO,4.844440,52.553719
Bellesloot,5,,,1483XA,De Rijp,Alkmaar,Noord-Holland,VBO,4.844353,52.553725
Bellesloot,7,,,1483XA,De Rijp,Alkmaar,Noord-Holland,VBO,4.844259,52.553733
Bellesloot,9,,,1483XA,De Rijp,Alkmaar,Noord-Holland,VBO,4.844163,52.553744
Bellesloot,11,,,1483XA,De Rijp,Alkmaar,Noord-Holland,VBO,4.844076,52.553754
Bellesloot,13,,,1483XA,De Rijp,Alkmaar,Noord-Holland,VBO,4.843986,52.553760
Bellesloot,15,,,1483XA,De Rijp,Alkmaar,Noord-Holland,VBO,4.843895,52.553771
Bellesloot,17,,,1483XA,De Rijp,Alkmaar,Noord-Holland,VBO,4.843725,52.553742
Bellesloot,19,,,1483XA,De Rijp,Alkmaar,Noord-Holland,VBO,4.843631,52.553745
Bellesloot,21,,,1483XA,De Rijp,Alkmaar,Noord-Holland,VBO,4.843538,52.553750
Bellesloot,23,,,1483XA,De Rijp,Alkmaar,Noord-Holland,VBO,4.843454,52.553759
Bellesloot,25,,,1483XA,De Rijp,Alkmaar,Noord-Holland,VBO,4.843377,52.553772
Bellesloot,27,,,1483XB,De Rijp,Alkmaar,Noord-Holland,VBO,4.842676,52.553851
Bellesloot,29,,,1483XB,De Rijp,Alkmaar,Noord-Holland,VBO,4.842598,52.553857
Bellesloot,31,,,1483XB,De Rijp,Alkmaar,Noord-Holland,VBO,4.842534,52.553865
Bellesloot,33,,,1483XB,De Rijp,Alkmaar,Noord-Holland,VBO,4.842463,52.553872
Bellesloot,35,,,1483XB,De Rijp,Alkmaar,Noord-Holland,VBO,4.842390,52.553878
Bellesloot,37,,,1483XB,De Rijp,Alkmaar,Noord-Holland,VBO,4.842321,52.553882
Bellesloot,39,,,1483XB,De Rijp,Alkmaar,Noord-Holland,VBO,4.842252,52.553890
Bellesloot,41,,,1483XB,De Rijp,Alkmaar,Noord-Holland,VBO,4.842177,52.553899
Bellesloot,43,,,1483XB,De Rijp,Alkmaar,Noord-Holland,VBO,4.842107,52.553905
Bellesloot,45,,,1483XB,De Rijp,Alkmaar,Noord-Holland,VBO,4.842035,52.553910
Bellesloot,47,,,1483XB,De Rijp,Alkmaar,Noord-Holland,VBO,4.841871,52.553906
Bellesloot,49,,,1483XB,De Rijp,Alkmaar,Noord-Holland,VBO,4.841804,52.553910
Bellesloot,51,,,1483XB,De Rijp,Alkmaar,Noord-Holland,VBO,4.841737,52.553914
Bellesloot,53,,,1483XB,De Rijp,Alkmaar,Noord-Holland,VBO,4.841649,52.553880
Bellesloot,55,,,1483XB,De Rijp,Alkmaar,Noord-Holland,VBO,4.841584,52.553885
Bellesloot,57,,,1483XB,De Rijp,Alkmaar,Noord-Holland,VBO,4.841514,52.553890
Bellesloot,59,,,1483XC,De Rijp,Alkmaar,Noord-Holland,VBO,4.840840,52.554057
Bellesloot,61,,,1483XC,De Rijp,Alkmaar,Noord-Holland,VBO,4.840750,52.554064
Bellesloot,63,,,1483XC,De Rijp,Alkmaar,Noord-Holland,VBO,4.840659,52.554073
Bellesloot,65,,,1483XC,De Rijp,Alkmaar,Noord-Holland,VBO,4.840575,52.554080
Bellesloot,67,,,1483XC,De Rijp,Alkmaar,Noord-Holland,VBO,4.840481,52.554091
Bellesloot,69,,,1483XC,De Rijp,Alkmaar,Noord-Holland,VBO,4.840394,52.554100
Bellesloot,71,,,1483XC,De Rijp,Alkmaar,Noord-Holland,VBO,4.840301,52.554109
Bellesloot,73,,,1483XC,De Rijp,Alkmaar,Noord-Holland,VBO,4.840210,52.554123
Bellesloot,75,,,1483XC,De Rijp,Alkmaar,Noord-Holland,VBO,4.840022,52.554087
Bellesloot,77,,,1483XC,De Rijp,Alkmaar,Noord-Holland,VBO,4.839937,52.554094
Bellesloot,79,,,1483XC,De Rijp,Alkmaar,Noord-Holland,VBO,4.839838,52.554104
Bellesloot,81,,,1483XC,De Rijp,Alkmaar,Noord-Holland,VBO,4.839755,52.554116
Bellesloot,83,,,1483XC,De Rijp,Alkmaar,Noord-Holland,VBO,4.839653,52.554131
Bellesloot,85,,,1483XC,De Rijp,Alkmaar,Noord-Holland,VBO,4.839536,52.554529
Bellesloot,87,,,1483XC,De Rijp,Alkmaar,Noord-Holland,VBO,4.839427,52.554540
Bellesloot,89,,,1483XC,De Rijp,Alkmaar,Noord-Holland,VBO,4.839327,52.554547
Bellesloot,91,,,1483XC,De Rijp,Alkmaar,Noord-Holland,VBO,4.839176,52.554524
Bellesloot,93,,,1483XC,De Rijp,Alkmaar,Noord-Holland,VBO,4.839683,52.554748
Bellesloot,95,,,1483XC,De Rijp,Alkmaar,Noord-Holland,VBO,4.839727,52.554874
Bellesloot,97,,,1483XC,De Rijp,Alkmaar,Noord-Holland,VBO,4.839782,52.554994
Bellesloot,99,,,1483XC,De Rijp,Alkmaar,Noord-Holland,VBO,4.839794,52.555113
Bellesloot,101,,,1483XC,De Rijp,Alkmaar,Noord-Holland,VBO,4.839772,52.555201
Bellesloot,103,,,1483XC,De Rijp,Alkmaar,Noord-Holland,VBO,4.839468,52.555275
Bellesloot,105,,,1483XC,De Rijp,Alkmaar,Noord-Holland,VBO,4.839460,52.555155
Bellesloot,107,,,1483XC,De Rijp,Alkmaar,Noord-Holland,VBO,4.839395,52.555046
Bellesloot,109,,,1483XC,De Rijp,Alkmaar,Noord-Holland,VBO,4.839387,52.554915
Bellesloot,111,,,1483XC,De Rijp,Alkmaar,Noord-Holland,VBO,4.839279,52.554823
Bellesloot,10,,,1483XD,De Rijp,Alkmaar,Noord-Holland,VBO,4.841133,52.554384
Bellesloot,12,,,1483XD,De Rijp,Alkmaar,Noord-Holland,VBO,4.841035,52.554396
Bellesloot,14,,,1483XD,De Rijp,Alkmaar,Noord-Holland,VBO,4.840867,52.554361
Bellesloot,16,,,1483XD,De Rijp,Alkmaar,Noord-Holland,VBO,4.840784,52.554373
Bellesloot,18,,,1483XD,De Rijp,Alkmaar,Noord-Holland,VBO,4.840610,52.554394
Bellesloot,20,,,1483XD,De Rijp,Alkmaar,Noord-Holland,VBO,4.840534,52.554400
Heikeshof,1,,,1483XE,De Rijp,Alkmaar,Noord-Holland,VBO,4.842977,52.553811
Heikeshof,2,,,1483XE,De Rijp,Alkmaar,Noord-Holland,VBO,4.842968,52.553768
Heikeshof,3,,,1483XE,De Rijp,Alkmaar,Noord-Holland,VBO,4.842956,52.553726
Heikeshof,4,,,1483XE,De Rijp,Alkmaar,Noord-Holland,VBO,4.842948,52.553685
Heikeshof,5,,,1483XE,De Rijp,Alkmaar,Noord-Holland,VBO,4.842936,52.553641
Heikeshof,6,,,1483XE,De Rijp,Alkmaar,Noord-Holland,VBO,4.842932,52.553599
Heikeshof,7,,,1483XE,De Rijp,Alkmaar,Noord-Holland,VBO,4.842924,52.553549
Heikeshof,8,,,1483XE,De Rijp,Alkmaar,Noord-Holland,VBO,4.842892,52.553470
Heikeshof,9,,,1483XE,De Rijp,Alkmaar,Noord-Holland,VBO,4.842880,52.553430
Heikeshof,10,,,1483XE,De Rijp,Alkmaar,Noord-Holland,VBO,4.842870,52.553386
Heikeshof,11,,,1483XE,De Rijp,Alkmaar,Noord-Holland,VBO,4.842862,52.553339
Heikeshof,12,,,1483XE,De Rijp,Alkmaar,Noord-Holland,VBO,4.842852,52.553298
Heikeshof,13,,,1483XE,De Rijp,Alkmaar,Noord-Holland,VBO,4.842856,52.553254
Heikeshof,14,,,1483XE,De Rijp,Alkmaar,Noord-Holland,VBO,4.842844,52.553145
Heikeshof,15,,,1483XE,De Rijp,Alkmaar,Noord-Holland,VBO,4.842838,52.553102
Heikeshof,16,,,1483XE,De Rijp,Alkmaar,Noord-Holland,VBO,4.842830,52.553059
Heikeshof,17,,,1483XE,De Rijp,Alkmaar,Noord-Holland,VBO,4.842818,52.553014
Heikeshof,18,,,1483XE,De Rijp,Alkmaar,Noord-Holland,VBO,4.842815,52.552974
Heikeshof,19,,,1483XE,De Rijp,Alkmaar,Noord-Holland,VBO,4.842794,52.552923
Heikeshof,20,,,1483XE,De Rijp,Alkmaar,Noord-Holland,VBO,4.842776,52.552848
Heikeshof,21,,,1483XE,De Rijp,Alkmaar,Noord-Holland,VBO,4.842768,52.552795
Heikeshof,22,,,1483XE,De Rijp,Alkmaar,Noord-Holland,VBO,4.842763,52.552754
Heikeshof,23,,,1483XE,De Rijp,Alkmaar,Noord-Holland,VBO,4.842757,52.552711
Heikeshof,24,,,1483XE,De Rijp,Alkmaar,Noord-Holland,VBO,4.842747,52.552664
Heikeshof,25,,,1483XE,De Rijp,Alkmaar,Noord-Holland,VBO,4.842744,52.552617
Heikeshof,26,,,1483XG,De Rijp,Alkmaar,Noord-Holland,VBO,4.843146,52.552839
Heikeshof,27,,,1483XG,De Rijp,Alkmaar,Noord-Holland,VBO,4.843215,52.552480
Heikeshof,28,,,1483XG,De Rijp,Alkmaar,Noord-Holland,VBO,4.843231,52.552835
Heikeshof,29,,,1483XG,De Rijp,Alkmaar,Noord-Holland,VBO,4.843335,52.552520
Heikeshof,30,,,1483XG,De Rijp,Alkmaar,Noord-Holland,VBO,4.843323,52.552828
Heikeshof,31,,,1483XG,De Rijp,Alkmaar,Noord-Holland,VBO,4.843474,52.552516
Heikeshof,32,,,1483XG,De Rijp,Alkmaar,Noord-Holland,VBO,4.843419,52.552819
Heikeshof,33,,,1483XG,De Rijp,Alkmaar,Noord-Holland,VBO,4.843604,52.552511
Heikeshof,34,,,1483XG,De Rijp,Alkmaar,Noord-Holland,VBO,4.843521,52.552810
Heikeshof,35,,,1483XG,De Rijp,Alkmaar,Noord-Holland,VBO,4.843768,52.552492
Heikeshof,36,,,1483XG,De Rijp,Alkmaar,Noord-Holland,VBO,4.843600,52.552809
Heikeshof,38,,,1483XG,De Rijp,Alkmaar,Noord-Holland,VBO,4.843698,52.552801
Heikeshof,40,,,1483XG,De Rijp,Alkmaar,Noord-Holland,VBO,4.843785,52.552798
Heikeshof,41,,,1483XG,De Rijp,Alkmaar,Noord-Holland,VBO,4.844215,52.552786
Heikeshof,42,,,1483XG,De Rijp,Alkmaar,Noord-Holland,VBO,4.844226,52.552839
Heikeshof,43,,,1483XG,De Rijp,Alkmaar,Noord-Holland,VBO,4.844238,52.552895
Heikeshof,44,,,1483XG,De Rijp,Alkmaar,Noord-Holland,VBO,4.844246,52.552950
Heikeshof,45,,,1483XG,De Rijp,Alkmaar,Noord-Holland,VBO,4.844258,52.553006
Heikeshof,46,,,1483XG,De Rijp,Alkmaar,Noord-Holland,VBO,4.844265,52.553066
Heikeshof,47,,,1483XG,De Rijp,Alkmaar,Noord-Holland,VBO,4.844277,52.553120
Heikeshof,48,,,1483XG,De Rijp,Alkmaar,Noord-Holland,VBO,4.844291,52.553180
Heikeshof,49,,,1483XG,De Rijp,Alkmaar,Noord-Holland,VBO,4.844301,52.553233
Heikeshof,50,,,1483XG,De Rijp,Alkmaar,Noord-Holland,VBO,4.844310,52.553291
Heikeshof,51,,,1483XG,De Rijp,Alkmaar,Noord-Holland,VBO,4.844301,52.553349
Heikeshof,52,,,1483XH,De Rijp,Alkmaar,Noord-Holland,VBO,4.843876,52.553081
Heikeshof,53,,,1483XH,De Rijp,Alkmaar,Noord-Holland,VBO,4.844160,52.553420
Heikeshof,54,,,1483XH,De Rijp,Alkmaar,Noord-Holland,VBO,4.843791,52.553084
Heikeshof,55,,,1483XH,De Rijp,Alkmaar,Noord-Holland,VBO,4.844062,52.553427
Heikeshof,56,,,1483XH,De Rijp,Alkmaar,Noord-Holland,VBO,4.843699,52.553089
Heikeshof,57,,,1483XH,De Rijp,Alkmaar,Noord-Holland,VBO,4.843973,52.553433
Heikeshof,58,,,1483XH,De Rijp,Alkmaar,Noord-Holland,VBO,4.843601,52.553097
Heikeshof,59,,,1483XH,De Rijp,Alkmaar,Noord-Holland,VBO,4.843879,52.553442
Heikeshof,60,,,1483XH,De Rijp,Alkmaar,Noord-Holland,VBO,4.843510,52.553102
Heikeshof,61,,,1483XH,De Rijp,Alkmaar,Noord-Holland,VBO,4.843784,52.553454
Heikeshof,62,,,1483XH,De Rijp,Alkmaar,Noord-Holland,VBO,4.843418,52.553108
Heikeshof,63,,,1483XH,De Rijp,Alkmaar,Noord-Holland,VBO,4.843612,52.553403
Heikeshof,64,,,1483XH,De Rijp,Alkmaar,Noord-Holland,VBO,4.843326,52.553115
Heikeshof,65,,,1483XH,De Rijp,Alkmaar,Noord-Holland,VBO,4.843527,52.553410
Heikeshof,66,,,1483XH,De Rijp,Alkmaar,Noord-Holland,VBO,4.843246,52.553122
Heikeshof,67,,,1483XH,De Rijp,Alkmaar,Noord-Holland,VBO,4.843433,52.553416
Heikeshof,69,,,1483XH,De Rijp,Alkmaar,Noord-Holland,VBO,4.843341,52.553425
Heikeshof,71,,,1483XH,De Rijp,Alkmaar,Noord-Holland,VBO,4.843246,52.553435
Wevershof,1,,,1483XJ,De Rijp,Alkmaar,Noord-Holland,VBO,4.841131,52.553997
Wevershof,2,,,1483XJ,De Rijp,Alkmaar,Noord-Holland,VBO,4.841113,52.553932
Wevershof,3,,,1483XJ,De Rijp,Alkmaar,Noord-Holland,VBO,4.841102,52.553874
Wevershof,4,,,1483XJ,De Rijp,Alkmaar,Noord-Holland,VBO,4.841088,52.553821
Wevershof,5,,,1483XJ,De Rijp,Alkmaar,Noord-Holland,VBO,4.841070,52.553768
Wevershof,6,,,1483XJ,De Rijp,Alkmaar,Noord-Holland,VBO,4.841059,52.553711
Wevershof,7,,,1483XJ,De Rijp,Alkmaar,Noord-Holland,VBO,4.841045,52.553657
Wevershof,8,,,1483XJ,De Rijp,Alkmaar,Noord-Holland,VBO,4.841034,52.553600
Wevershof,9,,,1483XJ,De Rijp,Alkmaar,Noord-Holland,VBO,4.841019,52.553547
Wevershof,10,,,1483XJ,De Rijp,Alkmaar,Noord-Holland,VBO,4.841005,52.553494
Wevershof,11,,,1483XJ,De Rijp,Alkmaar,Noord-Holland,VBO,4.840991,52.553427
Wevershof,12,,,1483XJ,De Rijp,Alkmaar,Noord-Holland,VBO,4.840960,52.553316
Wevershof,13,,,1483XJ,De Rijp,Alkmaar,Noord-Holland,VBO,4.840941,52.553264
Wevershof,14,,,1483XJ,De Rijp,Alkmaar,Noord-Holland,VBO,4.840931,52.553210
Wevershof,15,,,1483XJ,De Rijp,Alkmaar,Noord-Holland,VBO,4.840910,52.553160
Wevershof,16,,,1483XJ,De Rijp,Alkmaar,Noord-Holland,VBO,4.840896,52.553102
Wevershof,17,,,1483XJ,De Rijp,Alkmaar,Noord-Holland,VBO,4.840882,52.553047
Wevershof,18,,,1483XJ,De Rijp,Alkmaar,Noord-Holland,VBO,4.840870,52.552992
Wevershof,19,,,1483XJ,De Rijp,Alkmaar,Noord-Holland,VBO,4.840856,52.552938
Wevershof,20,,,1483XJ,De Rijp,Alkmaar,Noord-Holland,VBO,4.840841,52.552884
Wevershof,21,,,1483XJ,De Rijp,Alkmaar,Noord-Holland,VBO,4.840825,52.552825
Wevershof,22,,,1483XJ,De Rijp,Alkmaar,Noord-Holland,VBO,4.840814,52.552776
Wevershof,23,,,1483XJ,De Rijp,Alkmaar,Noord-Holland,VBO,4.840791,52.552713
Wevershof,24,,,1483XK,De Rijp,Alkmaar,Noord-Holland,VBO,4.841257,52.552973
Wevershof,25,,,1483XK,De Rijp,Alkmaar,Noord-Holland,VBO,4.841260,52.552640
Wevershof,26,,,1483XK,De Rijp,Alkmaar,Noord-Holland,VBO,4.841329,52.552967
Wevershof,27,,,1483XK,De Rijp,Alkmaar,Noord-Holland,VBO,4.841355,52.552634
Wevershof,28,,,1483XK,De Rijp,Alkmaar,Noord-Holland,VBO,4.841395,52.552960
Wevershof,29,,,1483XK,De Rijp,Alkmaar,Noord-Holland,VBO,4.841524,52.552608
Wevershof,30,,,1483XK,De Rijp,Alkmaar,Noord-Holland,VBO,4.841467,52.552951
Wevershof,31,,,1483XK,De Rijp,Alkmaar,Noord-Holland,VBO,4.841612,52.552599
Wevershof,32,,,1483XK,De Rijp,Alkmaar,Noord-Holland,VBO,4.841535,52.552946
Wevershof,33,,,1483XK,De Rijp,Alkmaar,Noord-Holland,VBO,4.841790,52.552556
Wevershof,34,,,1483XK,De Rijp,Alkmaar,Noord-Holland,VBO,4.841609,52.552944
Wevershof,35,,,1483XK,De Rijp,Alkmaar,Noord-Holland,VBO,4.841869,52.552552
Wevershof,36,,,1483XK,De Rijp,Alkmaar,Noord-Holland,VBO,4.841679,52.552938
Wevershof,38,,,1483XK,De Rijp,Alkmaar,Noord-Holland,VBO,4.841748,52.552933
Wevershof,40,,,1483XK,De Rijp,Alkmaar,Noord-Holland,VBO,4.841821,52.552929
Wevershof,42,,,1483XK,De Rijp,Alkmaar,Noord-Holland,VBO,4.841894,52.552920
Wevershof,43,,,1483XL,De Rijp,Alkmaar,Noord-Holland,VBO,4.842298,52.552668
Wevershof,44,,,1483XL,De Rijp,Alkmaar,Noord-Holland,VBO,4.842309,52.552712
Wevershof,45,,,1483XL,De Rijp,Alkmaar,Noord-Holland,VBO,4.842321,52.552756
Wevershof,46,,,1483XL,De Rijp,Alkmaar,Noord-Holland,VBO,4.842330,52.552798
Wevershof,47,,,1483XL,De Rijp,Alkmaar,Noord-Holland,VBO,4.842338,52.552843
Wevershof,48,,,1483XL,De Rijp,Alkmaar,Noord-Holland,VBO,4.842349,52.552885
Wevershof,49,,,1483XL,De Rijp,Alkmaar,Noord-Holland,VBO,4.842377,52.552984
Wevershof,50,,,1483XL,De Rijp,Alkmaar,Noord-Holland,VBO,4.842385,52.553027
Wevershof,51,,,1483XL,De Rijp,Alkmaar,Noord-Holland,VBO,4.842393,52.553072
Wevershof,52,,,1483XL,De Rijp,Alkmaar,Noord-Holland,VBO,4.842407,52.553114
Wevershof,53,,,1483XL,De Rijp,Alkmaar,Noord-Holland,VBO,4.842415,52.553161
Wevershof,54,,,1483XL,De Rijp,Alkmaar,Noord-Holland,VBO,4.842424,52.553206
Wevershof,55,,,1483XL,De Rijp,Alkmaar,Noord-Holland,VBO,4.842436,52.553311
Wevershof,56,,,1483XL,De Rijp,Alkmaar,Noord-Holland,VBO,4.842446,52.553351
Wevershof,57,,,1483XL,De Rijp,Alkmaar,Noord-Holland,VBO,4.842460,52.553395
Wevershof,58,,,1483XL,De Rijp,Alkmaar,Noord-Holland,VBO,4.842456,52.553422
Wevershof,59,,,1483XL,De Rijp,Alkmaar,Noord-Holland,VBO,4.842470,52.553463
Wevershof,60,,,1483XM,De Rijp,Alkmaar,Noord-Holland,VBO,4.841991,52.553172
Wevershof,61,,,1483XM,De Rijp,Alkmaar,Noord-Holland,VBO,4.842291,52.553612
Wevershof,62,,,1483XM,De Rijp,Alkmaar,Noord-Holland,VBO,4.841918,52.553178
Wevershof,63,,,1483XM,De Rijp,Alkmaar,Noord-Holland,VBO,4.842218,52.553616
Wevershof,64,,,1483XM,De Rijp,Alkmaar,Noord-Holland,VBO,4.841847,52.553184
Wevershof,65,,,1483XM,De Rijp,Alkmaar,Noord-Holland,VBO,4.842148,52.553622
Wevershof,66,,,1483XM,De Rijp,Alkmaar,Noord-Holland,VBO,4.841776,52.553189
Wevershof,67,,,1483XM,De Rijp,Alkmaar,Noord-Holland,VBO,4.842075,52.553628
Wevershof,68,,,1483XM,De Rijp,Alkmaar,Noord-Holland,VBO,4.841714,52.553194
Wevershof,69,,,1483XM,De Rijp,Alkmaar,Noord-Holland,VBO,4.842010,52.553634
Wevershof,70,,,1483XM,De Rijp,Alkmaar,Noord-Holland,VBO,4.841632,52.553205
Wevershof,71,,,1483XM,De Rijp,Alkmaar,Noord-Holland,VBO,4.841930,52.553637
Wevershof,72,,,1483XM,De Rijp,Alkmaar,Noord-Holland,VBO,4.841573,52.553210
Wevershof,73,,,1483XM,De Rijp,Alkmaar,Noord-Holland,VBO,4.841749,52.553568
Wevershof,74,,,1483XM,De Rijp,Alkmaar,Noord-Holland,VBO,4.841492,52.553216
Wevershof,75,,,1483XM,De Rijp,Alkmaar,Noord-Holland,VBO,4.841685,52.553573
Wevershof,76,,,1483XM,De Rijp,Alkmaar,Noord-Holland,VBO,4.841424,52.553222
Wevershof,77,,,1483XM,De Rijp,Alkmaar,Noord-Holland,VBO,4.841615,52.553580
Wevershof,78,,,1483XM,De Rijp,Alkmaar,Noord-Holland,VBO,4.841361,52.553228
Wevershof,79,,,1483XM,De Rijp,Alkmaar,Noord-Holland,VBO,4.841549,52.553586
Wevershof,81,,,1483XM,De Rijp,Alkmaar,Noord-Holland,VBO,4.841473,52.553593
Wevershof,83,,,1483XM,De Rijp,Alkmaar,Noord-Holland,VBO,4.841401,52.553600
Driekoningenhof,1,,,1483XN,De Rijp,Alkmaar,Noord-Holland,VBO,4.839136,52.554271
Driekoningenhof,2,,,1483XN,De Rijp,Alkmaar,Noord-Holland,VBO,4.839149,52.554173
Driekoningenhof,3,,,1483XN,De Rijp,Alkmaar,Noord-Holland,VBO,4.839148,52.554094
Driekoningenhof,4,,,1483XN,De Rijp,Alkmaar,Noord-Holland,VBO,4.839110,52.553983
Driekoningenhof,5,,,1483XN,De Rijp,Alkmaar,Noord-Holland,VBO,4.839068,52.553930
Driekoningenhof,6,,,1483XN,De Rijp,Alkmaar,Noord-Holland,VBO,4.839037,52.553861
Driekoningenhof,7,,,1483XN,De Rijp,Alkmaar,Noord-Holland,VBO,4.839008,52.553770
Driekoningenhof,8,,,1483XN,De Rijp,Alkmaar,Noord-Holland,VBO,4.838965,52.553648
Driekoningenhof,9,,,1483XN,De Rijp,Alkmaar,Noord-Holland,VBO,4.838888,52.553554
Driekoningenhof,10,,,1483XN,De Rijp,Alkmaar,Noord-Holland,VBO,4.838848,52.553449
Driekoningenhof,11,,,1483XN,De Rijp,Alkmaar,Noord-Holland,VBO,4.838886,52.553341
Driekoningenhof,12,,,1483XN,De Rijp,Alkmaar,Noord-Holland,VBO,4.838877,52.553284
Driekoningenhof,13,,,1483XN,De Rijp,Alkmaar,Noord-Holland,VBO,4.838824,52.553186
Driekoningenhof,14,,,1483XN,De Rijp,Alkmaar,Noord-Holland,VBO,4.838817,52.553116
Driekoningenhof,15,,,1483XN,De Rijp,Alkmaar,Noord-Holland,VBO,4.838689,52.553011
Driekoningenhof,16,,,1483XN,De Rijp,Alkmaar,Noord-Holland,VBO,4.838656,52.552885
Driekoningenhof,24,,,1483XP,De Rijp,Alkmaar,Noord-Holland,VBO,4.839216,52.553175
Driekoningenhof,25,,,1483XP,De Rijp,Alkmaar,Noord-Holland,VBO,4.839259,52.552942
Driekoningenhof,26,,,1483XP,De Rijp,Alkmaar,Noord-Holland,VBO,4.839311,52.553164
Driekoningenhof,27,,,1483XP,De Rijp,Alkmaar,Noord-Holland,VBO,4.839322,52.552826
Driekoningenhof,28,,,1483XP,De Rijp,Alkmaar,Noord-Holland,VBO,4.839402,52.553153
Driekoningenhof,29,,,1483XP,De Rijp,Alkmaar,Noord-Holland,VBO,4.839495,52.552897
Driekoningenhof,30,,,1483XP,De Rijp,Alkmaar,Noord-Holland,VBO,4.839491,52.553140
Driekoningenhof,31,,,1483XP,De Rijp,Alkmaar,Noord-Holland,VBO,4.839551,52.552790
Driekoningenhof,32,,,1483XP,De Rijp,Alkmaar,Noord-Holland,VBO,4.839582,52.553130
Driekoningenhof,33,,,1483XP,De Rijp,Alkmaar,Noord-Holland,VBO,4.839738,52.552870
Driekoningenhof,34,,,1483XP,De Rijp,Alkmaar,Noord-Holland,VBO,4.839674,52.553119
Driekoningenhof,35,,,1483XP,De Rijp,Alkmaar,Noord-Holland,VBO,4.839808,52.552765
Driekoningenhof,36,,,1483XP,De Rijp,Alkmaar,Noord-Holland,VBO,4.839765,52.553106
Driekoningenhof,37,,,1483XP,De Rijp,Alkmaar,Noord-Holland,VBO,4.840051,52.552860
Driekoningenhof,38,,,1483XP,De Rijp,Alkmaar,Noord-Holland,VBO,4.839850,52.553093
Driekoningenhof,40,,,1483XP,De Rijp,Alkmaar,Noord-Holland,VBO,4.839932,52.553087
Driekoningenhof,41,,,1483XR,De Rijp,Alkmaar,Noord-Holland,VBO,4.840289,52.552787
Driekoningenhof,42,,,1483XR,De Rijp,Alkmaar,Noord-Holland,VBO,4.840318,52.552844
Driekoningenhof,43,,,1483XR,De Rijp,Alkmaar,Noord-Holland,VBO,4.840335,52.552896
Driekoningenhof,44,,,1483XR,De Rijp,Alkmaar,Noord-Holland,VBO,4.840353,52.552951
Driekoningenhof,45,,,1483XR,De Rijp,Alkmaar,Noord-Holland,VBO,4.840377,52.553001
Driekoningenhof,46,,,1483XR,De Rijp,Alkmaar,Noord-Holland,VBO,4.840399,52.553057
Driekoningenhof,47,,,1483XR,De Rijp,Alkmaar,Noord-Holland,VBO,4.840415,52.553111
Driekoningenhof,48,,,1483XR,De Rijp,Alkmaar,Noord-Holland,VBO,4.840440,52.553167
Driekoningenhof,49,,,1483XR,De Rijp,Alkmaar,Noord-Holland,VBO,4.840460,52.553223
Driekoningenhof,50,,,1483XR,De Rijp,Alkmaar,Noord-Holland,VBO,4.840476,52.553276
Driekoningenhof,51,,,1483XR,De Rijp,Alkmaar,Noord-Holland,VBO,4.840493,52.553332
Driekoningenhof,52,,,1483XR,De Rijp,Alkmaar,Noord-Holland,VBO,4.840502,52.553383
Driekoningenhof,53,,,1483XR,De Rijp,Alkmaar,Noord-Holland,VBO,4.840541,52.553490
Driekoningenhof,54,,,1483XR,De Rijp,Alkmaar,Noord-Holland,VBO,4.840559,52.553539
Driekoningenhof,55,,,1483XR,De Rijp,Alkmaar,Noord-Holland,VBO,4.840581,52.553596
Driekoningenhof,56,,,1483XR,De Rijp,Alkmaar,Noord-Holland,VBO,4.840595,52.553645
Driekoningenhof,57,,,1483XR,De Rijp,Alkmaar,Noord-Holland,VBO,4.840615,52.553696
Driekoningenhof,58,,,1483XS,De Rijp,Alkmaar,Noord-Holland,VBO,4.840072,52.553356
Driekoningenhof,59,,,1483XS,De Rijp,Alkmaar,Noord-Holland,VBO,4.840496,52.553765
Driekoningenhof,60,,,1483XS,De Rijp,Alkmaar,Noord-Holland,VBO,4.839983,52.553366
Driekoningenhof,61,,,1483XS,De Rijp,Alkmaar,Noord-Holland,VBO,4.840409,52.553776
Driekoningenhof,62,,,1483XS,De Rijp,Alkmaar,Noord-Holland,VBO,4.839897,52.553377
Driekoningenhof,63,,,1483XS,De Rijp,Alkmaar,Noord-Holland,VBO,4.840318,52.553790
Driekoningenhof,64,,,1483XS,De Rijp,Alkmaar,Noord-Holland,VBO,4.839803,52.553388
Driekoningenhof,65,,,1483XS,De Rijp,Alkmaar,Noord-Holland,VBO,4.840231,52.553803
Driekoningenhof,66,,,1483XS,De Rijp,Alkmaar,Noord-Holland,VBO,4.839708,52.553399
Driekoningenhof,67,,,1483XS,De Rijp,Alkmaar,Noord-Holland,VBO,4.840144,52.553814
Driekoningenhof,68,,,1483XS,De Rijp,Alkmaar,Noord-Holland,VBO,4.839629,52.553410
Driekoningenhof,69,,,1483XS,De Rijp,Alkmaar,Noord-Holland,VBO,4.840077,52.553822
Driekoningenhof,70,,,1483XS,De Rijp,Alkmaar,Noord-Holland,VBO,4.839538,52.553422
Driekoningenhof,71,,,1483XS,De Rijp,Alkmaar,Noord-Holland,VBO,4.839875,52.553763
Driekoningenhof,72,,,1483XS,De Rijp,Alkmaar,Noord-Holland,VBO,4.839456,52.553433
Driekoningenhof,73,,,1483XS,De Rijp,Alkmaar,Noord-Holland,VBO,4.839788,52.553774
Driekoningenhof,74,,,1483XS,De Rijp,Alkmaar,Noord-Holland,VBO,4.839362,52.553447
Driekoningenhof,75,,,1483XS,De Rijp,Alkmaar,Noord-Holland,VBO,4.839693,52.553785
Driekoningenhof,77,,,1483XS,De Rijp,Alkmaar,Noord-Holland,VBO,4.839602,52.553797
Driekoningenhof,79,,,1483XS,De Rijp,Alkmaar,Noord-Holland,VBO,4.839512,52.553808
Driekoningenhof,81,,,1483XS,De Rijp,Alkmaar,Noord-Holland,VBO,4.839434,52.553820
