openbareruimtenaam,huisnummer,huisletter,huisnummertoevoeging,postcode,woonplaatsnaam,gemeentenaam,provincienaam,typeadresseerbaarobject,longitude,latitude
Westeinde,1,,,1636VB,Schermerhorn,Schermer,Noord-Holland,VBO,4.889114,52.601277
Westeinde,3,,,1636VB,Schermerhorn,Schermer,Noord-Holland,VBO,4.888997,52.601205
Westeinde,5,,,1636VB,Schermerhorn,Schermer,Noord-Holland,VBO,4.888793,52.601264
Westeinde,7,,,1636VB,Schermerhorn,Schermer,Noord-Holland,VBO,4.888627,52.601266
Westeinde,9,,,1636VB,Schermerhorn,Schermer,Noord-Holland,VBO,4.888495,52.601211
Westeinde,11,,,1636VB,Schermerhorn,Schermer,Noord-Holland,VBO,4.888362,52.601229
Westeinde,15,,,1636VB,Schermerhorn,Schermer,Noord-Holland,VBO,4.888126,52.601246
Westeinde,17,,,1636VB,Schermerhorn,Schermer,Noord-Holland,VBO,4.888022,52.601254
Westeinde,19,,,1636VB,Schermerhorn,Schermer,Noord-Holland,VBO,4.887903,52.601335
Westeinde,21,,,1636VB,Schermerhorn,Schermer,Noord-Holland,VBO,4.887727,52.601262
Westeinde,25,,,1636VB,Schermerhorn,Schermer,Noord-Holland,VBO,4.887653,52.601253
Westeinde,27,,,1636VB,Schermerhorn,Schermer,Noord-Holland,VBO,4.887455,52.601557
Westeinde,29,,,1636VB,Schermerhorn,Schermer,Noord-Holland,VBO,4.887429,52.601282
Westeinde,31,,,1636VB,Schermerhorn,Schermer,Noord-Holland,VBO,4.887328,52.601251
Westeinde,33,,,1636VB,Schermerhorn,Schermer,Noord-Holland,VBO,4.887195,52.601287
Westeinde,35,,,1636VB,Schermerhorn,Schermer,Noord-Holland,VBO,4.887062,52.601286
Westeinde,37,,,1636VB,Schermerhorn,Schermer,Noord-Holland,VBO,4.886945,52.601259
Westeinde,39,,,1636VB,Schermerhorn,Schermer,Noord-Holland,VBO,4.886855,52.601312
Westeinde,41,,,1636VC,Schermerhorn,Schermer,Noord-Holland,VBO,4.886708,52.601321
Westeinde,43,,,1636VC,Schermerhorn,Schermer,Noord-Holland,VBO,4.886531,52.601302
Westeinde,45,,,1636VC,Schermerhorn,Schermer,Noord-Holland,VBO,4.886388,52.601318
Westeinde,47,,,1636VC,Schermerhorn,Schermer,Noord-Holland,VBO,4.886250,52.601319
Westeinde,49,,,1636VC,Schermerhorn,Schermer,Noord-Holland,VBO,4.886088,52.601318
Westeinde,51,,,1636VC,Schermerhorn,Schermer,Noord-Holland,VBO,4.885985,52.601300
Westeinde,53,,,1636VC,Schermerhorn,Schermer,Noord-Holland,VBO,4.885763,52.601308
Westeinde,55,,,1636VC,Schermerhorn,Schermer,Noord-Holland,VBO,4.885645,52.601325
Westeinde,57,,,1636VC,Schermerhorn,Schermer,Noord-Holland,VBO,4.885512,52.601343
Westeinde,59,,,1636VC,Schermerhorn,Schermer,Noord-Holland,VBO,4.885305,52.601333
Westeinde,61,,,1636VC,Schermerhorn,Schermer,Noord-Holland,VBO,4.885128,52.601368
Westeinde,65,,,1636VC,Schermerhorn,Schermer,Noord-Holland,VBO,4.884817,52.601394
Westeinde,67,,,1636VC,Schermerhorn,Schermer,Noord-Holland,VBO,4.884625,52.601438
Westeinde,69,,,1636VC,Schermerhorn,Schermer,Noord-Holland,VBO,4.884462,52.601500
Westeinde,71,,,1636VC,Schermerhorn,Schermer,Noord-Holland,VBO,4.884241,52.601481
Westeinde,73,A,,1636VC,Schermerhorn,Schermer,Noord-Holland,VBO,4.883798,52.601470
Westeinde,73,,,1636VC,Schermerhorn,Schermer,Noord-Holland,VBO,4.884020,52.601453
Westeinde,75,,,1636VC,Schermerhorn,Schermer,Noord-Holland,VBO,4.883635,52.601515
Westeinde,77,,,1636VC,Schermerhorn,Schermer,Noord-Holland,VBO,4.883532,52.601496
Westeinde,81,,,1636VD,Schermerhorn,Schermer,Noord-Holland,VBO,4.883311,52.601495
Westeinde,83,,,1636VD,Schermerhorn,Schermer,Noord-Holland,VBO,4.883192,52.601540
Westeinde,85,T,,1636VD,Schermerhorn,Schermer,Noord-Holland,VBO,4.882896,52.601628
Westeinde,85,,,1636VD,Schermerhorn,Schermer,Noord-Holland,VBO,4.882911,52.601583
Westeinde,87,,,1636VD,Schermerhorn,Schermer,Noord-Holland,VBO,4.882760,52.601562
Westeinde,89,A,,1636VD,Schermerhorn,Schermer,Noord-Holland,VBO,4.882320,52.601617
Westeinde,89,B,,1636VD,Schermerhorn,Schermer,Noord-Holland,VBO,4.882128,52.601625
Westeinde,89,C,,1636VD,Schermerhorn,Schermer,Noord-Holland,VBO,4.881875,52.601633
Westeinde,89,,,1636VD,Schermerhorn,Schermer,Noord-Holland,VBO,4.882542,52.601564
Westeinde,91,,,1636VD,Schermerhorn,Schermer,Noord-Holland,VBO,4.881875,52.601633
Westeinde,93,,,1636VD,Schermerhorn,Schermer,Noord-Holland,VBO,4.881211,52.601709
Westeinde,95,,,1636VD,Schermerhorn,Schermer,Noord-Holland,VBO,4.881020,52.601702
Westeinde,97,,,1636VD,Schermerhorn,Schermer,Noord-Holland,VBO,4.880858,52.601718
Westeinde,99,,,1636VD,Schermerhorn,Schermer,Noord-Holland,VBO,4.880666,52.601682
Westeinde,101,,,1636VD,Schermerhorn,Schermer,Noord-Holland,VBO,4.880680,52.601754
Westeinde,103,,,1636VD,Schermerhorn,Schermer,Noord-Holland,VBO,4.880356,52.601716
Westeinde,105,A,,1636VD,Schermerhorn,Schermer,Noord-Holland,VBO,4.880163,52.601814
Westeinde,105,B,,1636VD,Schermerhorn,Schermer,Noord-Holland,VBO,4.879839,52.601795
Westeinde,105,C,,1636VD,Schermerhorn,Schermer,Noord-Holland,VBO,4.879676,52.601794
Westeinde,105,,,1636VD,Schermerhorn,Schermer,Noord-Holland,VBO,4.880282,52.601725
Westeinde,107,,,1636VD,Schermerhorn,Schermer,Noord-Holland,VBO,4.879381,52.601802
Westeinde,109,,,1636VD,Schermerhorn,Schermer,Noord-Holland,VBO,4.879101,52.601792
Westeinde,2,,,1636VE,Schermerhorn,Schermer,Noord-Holland,VBO,4.889014,52.600998
Westeinde,4,,,1636VE,Schermerhorn,Schermer,Noord-Holland,VBO,4.888837,52.601015
Westeinde,6,,,1636VE,Schermerhorn,Schermer,Noord-Holland,VBO,4.888748,52.601033
Westeinde,8,,,1636VE,Schermerhorn,Schermer,Noord-Holland,VBO,4.888600,52.601023
Westeinde,12,,,1636VE,Schermerhorn,Schermer,Noord-Holland,VBO,4.888320,52.601049
Westeinde,14,,,1636VE,Schermerhorn,Schermer,Noord-Holland,VBO,4.888216,52.601058
Westeinde,16,,,1636VE,Schermerhorn,Schermer,Noord-Holland,VBO,4.888025,52.601039
Westeinde,18,,,1636VE,Schermerhorn,Schermer,Noord-Holland,VBO,4.887876,52.601110
Westeinde,20,,,1636VE,Schermerhorn,Schermer,Noord-Holland,VBO,4.887773,52.601137
Westeinde,22,,,1636VE,Schermerhorn,Schermer,Noord-Holland,VBO,4.887757,52.601074
Westeinde,24,,,1636VE,Schermerhorn,Schermer,Noord-Holland,VBO,4.887621,52.600943
Westeinde,26,,,1636VE,Schermerhorn,Schermer,Noord-Holland,VBO,4.887448,52.601081
Westeinde,28,A,,1636VE,Schermerhorn,Schermer,Noord-Holland,VBO,4.887277,52.600937
Westeinde,28,,,1636VE,Schermerhorn,Schermer,Noord-Holland,VBO,4.887286,52.601090
Westeinde,32,A,,1636VG,Schermerhorn,Schermer,Noord-Holland,VBO,4.886791,52.600913
Westeinde,32,B,,1636VG,Schermerhorn,Schermer,Noord-Holland,VBO,4.886788,52.600884
Westeinde,32,C,,1636VG,Schermerhorn,Schermer,Noord-Holland,VBO,4.886785,52.600855
Westeinde,32,D,,1636VG,Schermerhorn,Schermer,Noord-Holland,VBO,4.886782,52.600827
Westeinde,32,E,,1636VG,Schermerhorn,Schermer,Noord-Holland,VBO,4.886780,52.600799
Westeinde,32,,,1636VG,Schermerhorn,Schermer,Noord-Holland,VBO,4.886689,52.601094
Westeinde,34,A,,1636VG,Schermerhorn,Schermer,Noord-Holland,VBO,4.886356,52.601131
Westeinde,34,,,1636VG,Schermerhorn,Schermer,Noord-Holland,VBO,4.886539,52.601133
Westeinde,36,,,1636VG,Schermerhorn,Schermer,Noord-Holland,VBO,4.886119,52.601148
Westeinde,38,,,1636VG,Schermerhorn,Schermer,Noord-Holland,VBO,4.885898,52.601165
Westeinde,40,,,1636VG,Schermerhorn,Schermer,Noord-Holland,VBO,4.885735,52.601164
Westeinde,42,,,1636VG,Schermerhorn,Schermer,Noord-Holland,VBO,4.885572,52.601208
Westeinde,44,,,1636VG,Schermerhorn,Schermer,Noord-Holland,VBO,4.885233,52.601198
Westeinde,46,,,1636VG,Schermerhorn,Schermer,Noord-Holland,VBO,4.885115,52.601224
Westeinde,50,,,1636VG,Schermerhorn,Schermer,Noord-Holland,VBO,4.884967,52.601197
Westeinde,52,,,1636VG,Schermerhorn,Schermer,Noord-Holland,VBO,4.884737,52.601222
Westeinde,54,,,1636VG,Schermerhorn,Schermer,Noord-Holland,VBO,4.884509,52.601240
Westeinde,56,,,1636VG,Schermerhorn,Schermer,Noord-Holland,VBO,4.884420,52.601275
Westeinde,58,A,,1636VG,Schermerhorn,Schermer,Noord-Holland,VBO,4.884110,52.601265
Westeinde,58,B,,1636VG,Schermerhorn,Schermer,Noord-Holland,VBO,4.884007,52.601273
Westeinde,58,,,1636VG,Schermerhorn,Schermer,Noord-Holland,VBO,4.884272,52.601293
Westeinde,60,,,1636VG,Schermerhorn,Schermer,Noord-Holland,VBO,4.883830,52.601291
Westeinde,62,,,1636VG,Schermerhorn,Schermer,Noord-Holland,VBO,4.883652,52.601317
Westeinde,66,,,1636VG,Schermerhorn,Schermer,Noord-Holland,VBO,4.883401,52.601352
Westeinde,68,,,1636VG,Schermerhorn,Schermer,Noord-Holland,VBO,4.883239,52.601342
Westeinde,70,,,1636VH,Schermerhorn,Schermer,Noord-Holland,VBO,4.883032,52.601323
Westeinde,72,A,,1636VH,Schermerhorn,Schermer,Noord-Holland,VBO,4.882707,52.601376
Westeinde,72,,,1636VH,Schermerhorn,Schermer,Noord-Holland,VBO,4.882825,52.601367
Westeinde,74,,,1636VH,Schermerhorn,Schermer,Noord-Holland,VBO,4.882589,52.601366
Westeinde,76,,,1636VH,Schermerhorn,Schermer,Noord-Holland,VBO,4.882442,52.601330
Westeinde,78,A,,1636VH,Schermerhorn,Schermer,Noord-Holland,VBO,4.882044,52.601220
Westeinde,78,,,1636VH,Schermerhorn,Schermer,Noord-Holland,VBO,4.882294,52.601311
Westeinde,80,,,1636VH,Schermerhorn,Schermer,Noord-Holland,VBO,4.882027,52.601436
Westeinde,82,,,1636VH,Schermerhorn,Schermer,Noord-Holland,VBO,4.881865,52.601444
Westeinde,84,,,1636VH,Schermerhorn,Schermer,Noord-Holland,VBO,4.881681,52.601444
Westeinde,86,A,,1636VH,Schermerhorn,Schermer,Noord-Holland,VBO,4.881600,52.601398
Westeinde,86,,,1636VH,Schermerhorn,Schermer,Noord-Holland,VBO,4.881336,52.601430
Westeinde,88,,,1636VH,Schermerhorn,Schermer,Noord-Holland,VBO,4.881168,52.601337
Westeinde,90,,,1636VH,Schermerhorn,Schermer,Noord-Holland,VBO,4.881058,52.601492
Westeinde,92,,,1636VH,Schermerhorn,Schermer,Noord-Holland,VBO,4.880935,52.601440
Westeinde,94,,,1636VH,Schermerhorn,Schermer,Noord-Holland,VBO,4.880684,52.601457
Westeinde,96,,,1636VH,Schermerhorn,Schermer,Noord-Holland,VBO,4.880491,52.601555
Westeinde,98,,,1636VH,Schermerhorn,Schermer,Noord-Holland,VBO,4.880343,52.601554
Westeinde,100,,,1636VH,Schermerhorn,Schermer,Noord-Holland,VBO,4.880195,52.601590
Westeinde,102,,,1636VH,Schermerhorn,Schermer,Noord-Holland,VBO,4.880136,52.601572
Westeinde,104,,,1636VH,Schermerhorn,Schermer,Noord-Holland,VBO,4.880033,52.601562
Westeinde,106,,,1636VH,Schermerhorn,Schermer,Noord-Holland,VBO,4.879708,52.601597
Westeinde,108,,,1636VH,Schermerhorn,Schermer,Noord-Holland,VBO,4.879502,52.601506
Westeinde,110,A,,1636VH,Schermerhorn,Schermer,Noord-Holland,VBO,4.879015,52.601531
Westeinde,110,,,1636VH,Schermerhorn,Schermer,Noord-Holland,VBO,4.879325,52.601550
Westeinde,112,,,1636VH,Schermerhorn,Schermer,Noord-Holland,VBO,4.878559,52.601421
Zwartedijk,1,,,1636VJ,Schermerhorn,Schermer,Noord-Holland,VBO,4.878516,52.601277
Zwartedijk,2,,,1636VJ,Schermerhorn,Schermer,Noord-Holland,VBO,4.878472,52.601223
Zwartedijk,3,,,1636VJ,Schermerhorn,Schermer,Noord-Holland,VBO,4.878355,52.601177
Zwartedijk,4,,,1636VJ,Schermerhorn,Schermer,Noord-Holland,VBO,4.878311,52.601123
Zwartedijk,5,,,1636VJ,Schermerhorn,Schermer,Noord-Holland,VBO,4.878224,52.601042
Zwartedijk,6,,,1636VJ,Schermerhorn,Schermer,Noord-Holland,VBO,4.878194,52.601006
Zwartedijk,7,A,,1636VJ,Schermerhorn,Schermer,Noord-Holland,VBO,4.877875,52.600555
Zwartedijk,7,,,1636VJ,Schermerhorn,Schermer,Noord-Holland,VBO,4.878080,52.600727
Zwartedijk,8,,,1636VJ,Schermerhorn,Schermer,Noord-Holland,VBO,4.877760,52.600294
Molendijk,4,,,1636VK,Schermerhorn,Schermer,Noord-Holland,VBO,4.870715,52.595599
Molendijk,5,,,1636VK,Schermerhorn,Schermer,Noord-Holland,VBO,4.870723,52.596211
Molendijk,6,,,1636VK,Schermerhorn,Schermer,Noord-Holland,VBO,4.875321,52.599358
Molendijk,7,A,,1636VK,Schermerhorn,Schermer,Noord-Holland,VBO,4.877089,52.602116
Molendijk,7,,,1636VK,Schermerhorn,Schermer,Noord-Holland,VBO,4.877178,52.602143
Molendijk,8,,,1636VK,Schermerhorn,Schermer,Noord-Holland,VBO,4.883440,52.605666
Molendijk,9,A,,1636VK,Schermerhorn,Schermer,Noord-Holland,VBO,4.883422,52.606924
Molendijk,9,,,1636VK,Schermerhorn,Schermer,Noord-Holland,VBO,4.883458,52.606690
Molendijk,10,,,1636VK,Schermerhorn,Schermer,Noord-Holland,VBO,4.881941,52.607709
Molendijk,11,A,,1636VK,Schermerhorn,Schermer,Noord-Holland,VBO,4.881813,52.609847
Molendijk,11,,,1636VK,Schermerhorn,Schermer,Noord-Holland,VBO,4.881861,52.609452
Noordervaart,1,,,1636VL,Schermerhorn,Schermer,Noord-Holland,VBO,4.871741,52.601284
Noordervaart,2,A,,1636VL,Schermerhorn,Schermer,Noord-Holland,VBO,4.873951,52.599986
Noordervaart,2,,,1636VL,Schermerhorn,Schermer,Noord-Holland,VBO,4.873415,52.600125
Noordervaart,3,,,1636VL,Schermerhorn,Schermer,Noord-Holland,VBO,4.869194,52.601956
Noordervaart,4,,,1636VL,Schermerhorn,Schermer,Noord-Holland,VBO,4.871336,52.600590
Noordervaart,5,,,1636VL,Schermerhorn,Schermer,Noord-Holland,VBO,4.868616,52.602178
Noordervaart,6,,,1636VL,Schermerhorn,Schermer,Noord-Holland,VBO,4.866882,52.601505
Noordervaart,7,,,1636VL,Schermerhorn,Schermer,Noord-Holland,VBO,4.864384,52.603040
Noordervaart,8,,,1636VL,Schermerhorn,Schermer,Noord-Holland,VBO,4.866319,52.601647
Noordervaart,9,,,1636VL,Schermerhorn,Schermer,Noord-Holland,VBO,4.863156,52.603304
Noordervaart,10,,,1636VL,Schermerhorn,Schermer,Noord-Holland,VBO,4.865535,52.601796
Noordervaart,11,,,1636VL,Schermerhorn,Schermer,Noord-Holland,VBO,4.861677,52.603504
Noordervaart,12,,,1636VL,Schermerhorn,Schermer,Noord-Holland,VBO,4.863664,52.602104
Noordervaart,13,,,1636VL,Stompetoren,Schermer,Noord-Holland,VBO,4.858021,52.604315
Noordervaart,14,A,,1636VL,Schermerhorn,Schermer,Noord-Holland,VBO,4.862746,52.601867
Noordervaart,14,,,1636VL,Schermerhorn,Schermer,Noord-Holland,VBO,4.863022,52.602126
Noordervaart,16,,,1636VL,Schermerhorn,Schermer,Noord-Holland,VBO,4.859882,52.602984
Noordervaart,18,A,,1636VL,Schermerhorn,Schermer,Noord-Holland,VBO,4.858686,52.603085
Noordervaart,18,B,,1636VL,Schermerhorn,Schermer,Noord-Holland,VBO,4.858466,52.602492
Noordervaart,18,C,,1636VL,Schermerhorn,Schermer,Noord-Holland,VBO,4.858898,52.602551
Noordervaart,18,,,1636VL,Schermerhorn,Schermer,Noord-Holland,VBO,4.858700,52.603078
Noordervaart,20,,,1636VL,Schermerhorn,Schermer,Noord-Holland,VBO,4.856829,52.601291
Noordervaart,22,,,1636VL,Schermerhorn,Schermer,Noord-Holland,VBO,4.856928,52.600912
Over de Leij,1,,,1636VM,Schermerhorn,Schermer,Noord-Holland,VBO,4.887013,52.600414
Over de Leij,2,,,1636VM,Schermerhorn,Schermer,Noord-Holland,VBO,4.886821,52.600458
Over de Leij,3,,,1636VM,Schermerhorn,Schermer,Noord-Holland,VBO,4.887160,52.600442
Over de Leij,4,,,1636VM,Schermerhorn,Schermer,Noord-Holland,VBO,4.886688,52.600422
Over de Leij,5,,,1636VM,Schermerhorn,Schermer,Noord-Holland,VBO,4.887279,52.600389
Over de Leij,6,,,1636VM,Schermerhorn,Schermer,Noord-Holland,VBO,4.886378,52.600484
Over de Leij,7,,,1636VM,Schermerhorn,Schermer,Noord-Holland,VBO,4.887368,52.600344
Over de Leij,8,,,1636VM,Schermerhorn,Schermer,Noord-Holland,VBO,4.886379,52.600367
Over de Leij,9,,,1636VM,Schermerhorn,Schermer,Noord-Holland,VBO,4.887619,52.600345
Over de Leij,10,,,1636VM,Schermerhorn,Schermer,Noord-Holland,VBO,4.886705,52.600242
Over de Leij,11,,,1636VM,Schermerhorn,Schermer,Noord-Holland,VBO,4.887708,52.600336
Over de Leij,12,,,1636VM,Schermerhorn,Schermer,Noord-Holland,VBO,4.886942,52.600207
Over de Leij,14,,,1636VM,Schermerhorn,Schermer,Noord-Holland,VBO,4.887179,52.600136
Over de Leij,16,,,1636VM,Schermerhorn,Schermer,Noord-Holland,VBO,4.887356,52.600128
Over de Leij,18,,,1636VM,Schermerhorn,Schermer,Noord-Holland,VBO,4.887533,52.600120
Over de Leij,20,,,1636VM,Schermerhorn,Schermer,Noord-Holland,VBO,4.887710,52.600103
Gert de Reuspad,1,,,1636VN,Schermerhorn,Schermer,Noord-Holland,VBO,4.886315,52.600834
Gert de Reuspad,2,,,1636VN,Schermerhorn,Schermer,Noord-Holland,VBO,4.886078,52.600914
Oostmijzerdijk,1,A,,1636WC,Schermerhorn,Schermer,Noord-Holland,VBO,4.889845,52.601882
Oostmijzerdijk,1,,,1636WC,Schermerhorn,Schermer,Noord-Holland,VBO,4.889594,52.601917
Oostmijzerdijk,2,,,1636WC,Schermerhorn,Schermer,Noord-Holland,VBO,4.889979,52.601838
Oostmijzerdijk,4,,,1636WC,Schermerhorn,Schermer,Noord-Holland,VBO,4.890980,52.602040
Oostmijzerdijk,5,,,1636WC,Schermerhorn,Schermer,Noord-Holland,VBO,4.893243,52.601581
Oostmijzerdijk,6,A,,1636WC,Schermerhorn,Schermer,Noord-Holland,VBO,4.893952,52.601571
Oostmijzerdijk,6,,,1636WC,Schermerhorn,Schermer,Noord-Holland,VBO,4.893965,52.601765
Oostmijzerdijk,7,,,1636WC,Schermerhorn,Schermer,Noord-Holland,VBO,4.894811,52.601427
Oostmijzerdijk,8,,,1636WC,Schermerhorn,Schermer,Noord-Holland,VBO,4.895208,52.601491
Oostmijzerdijk,9,,,1636WC,Schermerhorn,Schermer,Noord-Holland,VBO,4.896301,52.601429
Oostmijzerdijk,10,,,1636WC,Schermerhorn,Schermer,Noord-Holland,VBO,4.899279,52.602389
Oostmijzerdijk,11,,,1636WC,Schermerhorn,Schermer,Noord-Holland,VBO,4.900725,52.603096
Oostmijzerdijk,12,,,1636WC,Schermerhorn,Schermer,Noord-Holland,VBO,4.902048,52.603667
Oostmijzerdijk,13,,,1636WC,Schermerhorn,Schermer,Noord-Holland,VBO,4.915129,52.608959
Oostmijzerdijk,14,,,1636WC,Schermerhorn,Schermer,Noord-Holland,VBO,4.915491,52.609581
Oostmijzerdijk,15,,,1636WC,Schermerhorn,Schermer,Noord-Holland,VBO,4.923478,52.608219
Vrouwenweg,1,,,1636WD,Schermerhorn,Schermer,Noord-Holland,VBO,4.901446,52.608680
Vrouwenweg,2,,,1636WD,Schermerhorn,Schermer,Noord-Holland,VBO,4.899871,52.609590
Vrouwenweg,3,,,1636WD,Schermerhorn,Schermer,Noord-Holland,VBO,4.901219,52.609227
Vrouwenweg,4,,,1636WD,Schermerhorn,Schermer,Noord-Holland,VBO,4.903600,52.610153
Westmijzerdijk,1,A,,1636WE,Schermerhorn,Schermer,Noord-Holland,VBO,4.886921,52.602005
Westmijzerdijk,1,B,,1636WE,Schermerhorn,Schermer,Noord-Holland,VBO,4.886464,52.602012
Westmijzerdijk,1,C,,1636WE,Schermerhorn,Schermer,Noord-Holland,VBO,4.886257,52.602011
Westmijzerdijk,1,D,,1636WE,Schermerhorn,Schermer,Noord-Holland,VBO,4.886036,52.601992
Westmijzerdijk,1,,,1636WE,Schermerhorn,Schermer,Noord-Holland,VBO,4.888544,52.602074
Westmijzerdijk,2,,,1636WE,Schermerhorn,Schermer,Noord-Holland,VBO,4.885770,52.601991
Westmijzerdijk,3,,,1636WE,Schermerhorn,Schermer,Noord-Holland,VBO,4.885372,52.601953
Westmijzerdijk,4,,,1636WE,Schermerhorn,Schermer,Noord-Holland,VBO,4.884840,52.602023
Westmijzerdijk,5,,,1636WE,Schermerhorn,Schermer,Noord-Holland,VBO,4.883217,52.609664
Oosternotweg,1,,,1636WG,Schermerhorn,Schermer,Noord-Holland,VBO,4.869599,52.602685
Oosternotweg,3,,,1636WG,Schermerhorn,Schermer,Noord-Holland,VBO,4.873607,52.609632
Oosternotweg,5,,,1636WG,Schermerhorn,Schermer,Noord-Holland,VBO,4.873650,52.609713
Oosternotweg,7,,,1636WG,Schermerhorn,Schermer,Noord-Holland,VBO,4.872621,52.613151
Rustenburgerweg,12,,,1636WH,Ursem gem. S,Schermer,Noord-Holland,VBO,4.864857,52.616036
Groeneweg,1,,,1636XA,Schermerhorn,Schermer,Noord-Holland,VBO,4.889044,52.598374
Groeneweg,2,,,1636XA,Schermerhorn,Schermer,Noord-Holland,VBO,4.889030,52.598302
Groeneweg,7,,,1636XA,Schermerhorn,Schermer,Noord-Holland,VBO,4.888945,52.597933
Groeneweg,8,,,1636XA,Schermerhorn,Schermer,Noord-Holland,VBO,4.888931,52.597888
Groeneweg,9,A,,1636XA,Schermerhorn,Schermer,Noord-Holland,VBO,4.888702,52.597206
Groeneweg,9,,,1636XA,Schermerhorn,Schermer,Noord-Holland,VBO,4.888702,52.597206
Zuidje,1,,,1636XB,Schermerhorn,Schermer,Noord-Holland,VBO,4.888855,52.600656
Zuidje,3,,,1636XB,Schermerhorn,Schermer,Noord-Holland,VBO,4.888918,52.600306
Zuidje,5,,,1636XB,Schermerhorn,Schermer,Noord-Holland,VBO,4.888905,52.600216
Zuidje,7,,,1636XB,Schermerhorn,Schermer,Noord-Holland,VBO,4.888375,52.600088
Zuidje,9,,,1636XB,Schermerhorn,Schermer,Noord-Holland,VBO,4.888863,52.599973
Zuidje,11,A,,1636XB,Schermerhorn,Schermer,Noord-Holland,VBO,4.888782,52.599557
Zuidje,11,,,1636XB,Schermerhorn,Schermer,Noord-Holland,VBO,4.888853,52.599613
Zuidje,13,,,1636XB,Schermerhorn,Schermer,Noord-Holland,VBO,4.888810,52.599424
Zuidje,15,,,1636XB,Schermerhorn,Schermer,Noord-Holland,VBO,4.888767,52.599316
Zuidje,17,,,1636XB,Schermerhorn,Schermer,Noord-Holland,VBO,4.888756,52.598993
Zuidje,19,,,1636XB,Schermerhorn,Schermer,Noord-Holland,VBO,4.888846,52.598921
Zuidje,2,A,,1636XC,Schermerhorn,Schermer,Noord-Holland,VBO,4.889238,52.600738
Zuidje,2,,,1636XC,Schermerhorn,Schermer,Noord-Holland,VBO,4.889239,52.600666
Zuidje,4,,,1636XC,Schermerhorn,Schermer,Noord-Holland,VBO,4.889269,52.600595
Zuidje,8,,,1636XC,Schermerhorn,Schermer,Noord-Holland,VBO,4.889213,52.600388
Zuidje,10,A,,1636XC,Schermerhorn,Schermer,Noord-Holland,VBO,4.890037,52.600242
Zuidje,12,,,1636XC,Schermerhorn,Schermer,Noord-Holland,VBO,4.889217,52.600055
Zuidje,14,,,1636XC,Schermerhorn,Schermer,Noord-Holland,VBO,4.889114,52.599974
Zuidje,16,,,1636XC,Schermerhorn,Schermer,Noord-Holland,VBO,4.889288,52.599923
Zuidje,22,,,1636XC,Schermerhorn,Schermer,Noord-Holland,VBO,4.889142,52.599438
Zuidje,26,,,1636XC,Schermerhorn,Schermer,Noord-Holland,VBO,4.889094,52.599120
Zuidje,28,,,1636XC,Schermerhorn,Schermer,Noord-Holland,VBO,4.889154,52.599030
Zuidje,30,,,1636XC,Schermerhorn,Schermer,Noord-Holland,VBO,4.889096,52.598985
Zuidje,32,,,1636XC,Schermerhorn,Schermer,Noord-Holland,VBO,4.889230,52.598878
Oosterweidestraat,7,,,1636XD,Schermerhorn,Schermer,Noord-Holland,VBO,4.891370,52.599283
Oosterweidestraat,9,,,1636XD,Schermerhorn,Schermer,Noord-Holland,VBO,4.891438,52.599399
Oosterweidestraat,11,,,1636XD,Schermerhorn,Schermer,Noord-Holland,VBO,4.891527,52.599355
Oosterweidestraat,13,,,1636XD,Schermerhorn,Schermer,Noord-Holland,VBO,4.891616,52.599403
Oosterweidestraat,15,,,1636XD,Schermerhorn,Schermer,Noord-Holland,VBO,4.891733,52.599410
Oosterweidestraat,17,,,1636XD,Schermerhorn,Schermer,Noord-Holland,VBO,4.891851,52.599419
Oosterweidestraat,19,,,1636XD,Schermerhorn,Schermer,Noord-Holland,VBO,4.891925,52.599428
Oosterweidestraat,21,,,1636XD,Schermerhorn,Schermer,Noord-Holland,VBO,4.891998,52.599429
Oosterweidestraat,23,,,1636XD,Schermerhorn,Schermer,Noord-Holland,VBO,4.892088,52.599357
Oosterweidestraat,25,,,1636XD,Schermerhorn,Schermer,Noord-Holland,VBO,4.892427,52.599421
Oosterweidestraat,27,,,1636XD,Schermerhorn,Schermer,Noord-Holland,VBO,4.892501,52.599404
Oosterweidestraat,29,,,1636XD,Schermerhorn,Schermer,Noord-Holland,VBO,4.892589,52.599413
Oosterweidestraat,31,,,1636XD,Schermerhorn,Schermer,Noord-Holland,VBO,4.892678,52.599351
Oosterweidestraat,33,,,1636XD,Schermerhorn,Schermer,Noord-Holland,VBO,4.892825,52.599423
Oosterweidestraat,35,,,1636XD,Schermerhorn,Schermer,Noord-Holland,VBO,4.892899,52.599423
Oosterweidestraat,37,,,1636XD,Schermerhorn,Schermer,Noord-Holland,VBO,4.892987,52.599424
Oosterweidestraat,39,,,1636XD,Schermerhorn,Schermer,Noord-Holland,VBO,4.893062,52.599370
Oosterweidestraat,41,,,1636XD,Schermerhorn,Schermer,Noord-Holland,VBO,4.893386,52.599398
Oosterweidestraat,43,,,1636XD,Schermerhorn,Schermer,Noord-Holland,VBO,4.893475,52.599390
Oosterweidestraat,45,,,1636XD,Schermerhorn,Schermer,Noord-Holland,VBO,4.893563,52.599390
Oosterweidestraat,47,,,1636XD,Schermerhorn,Schermer,Noord-Holland,VBO,4.893652,52.599355
Oosterweidestraat,49,,,1636XD,Schermerhorn,Schermer,Noord-Holland,VBO,4.893694,52.599615
Oosterweidestraat,51,,,1636XD,Schermerhorn,Schermer,Noord-Holland,VBO,4.893723,52.599616
Oosterweidestraat,53,,,1636XD,Schermerhorn,Schermer,Noord-Holland,VBO,4.893753,52.599616
Oosterweidestraat,55,,,1636XD,Schermerhorn,Schermer,Noord-Holland,VBO,4.893768,52.599616
Oosterweidestraat,57,,,1636XD,Schermerhorn,Schermer,Noord-Holland,VBO,4.893797,52.599607
Oosterweidestraat,59,,,1636XD,Schermerhorn,Schermer,Noord-Holland,VBO,4.893827,52.599607
Oosterweidestraat,61,,,1636XD,Schermerhorn,Schermer,Noord-Holland,VBO,4.893856,52.599607
Oosterweidestraat,63,,,1636XD,Schermerhorn,Schermer,Noord-Holland,VBO,4.893886,52.599607
Oosterweidestraat,65,,,1636XD,Schermerhorn,Schermer,Noord-Holland,VBO,4.893901,52.599598
Oosterweidestraat,67,,,1636XD,Schermerhorn,Schermer,Noord-Holland,VBO,4.893930,52.599598
Oosterweidestraat,69,,,1636XD,Schermerhorn,Schermer,Noord-Holland,VBO,4.893960,52.599599
Hornplein,1,,,1636XE,Schermerhorn,Schermer,Noord-Holland,VBO,4.890924,52.599651
Hornplein,2,,,1636XE,Schermerhorn,Schermer,Noord-Holland,VBO,4.890750,52.600046
Hornplein,3,,,1636XE,Schermerhorn,Schermer,Noord-Holland,VBO,4.890423,52.599562
Hornplein,4,,,1636XE,Schermerhorn,Schermer,Noord-Holland,VBO,4.890750,52.600046
Hornplein,5,,,1636XE,Schermerhorn,Schermer,Noord-Holland,VBO,4.890427,52.599580
Hornplein,6,,,1636XE,Schermerhorn,Schermer,Noord-Holland,VBO,4.890750,52.600046
Hornplein,7,,,1636XE,Schermerhorn,Schermer,Noord-Holland,VBO,4.890431,52.599598
Hornplein,8,,,1636XE,Schermerhorn,Schermer,Noord-Holland,VBO,4.890750,52.600046
Hornplein,9,,,1636XE,Schermerhorn,Schermer,Noord-Holland,VBO,4.890434,52.599616
Hornplein,10,,,1636XE,Schermerhorn,Schermer,Noord-Holland,VBO,4.890750,52.600046
Hornplein,11,,,1636XE,Schermerhorn,Schermer,Noord-Holland,VBO,4.890438,52.599634
Hornplein,12,,,1636XE,Schermerhorn,Schermer,Noord-Holland,VBO,4.890750,52.600046
Hornplein,13,,,1636XE,Schermerhorn,Schermer,Noord-Holland,VBO,4.890441,52.599652
Hornplein,14,,,1636XE,Schermerhorn,Schermer,Noord-Holland,VBO,4.890750,52.600046
Hornplein,15,,,1636XE,Schermerhorn,Schermer,Noord-Holland,VBO,4.890445,52.599670
Hornplein,16,,,1636XE,Schermerhorn,Schermer,Noord-Holland,VBO,4.890750,52.600046
Hornplein,17,,,1636XE,Schermerhorn,Schermer,Noord-Holland,VBO,4.890448,52.599687
Hornplein,18,,,1636XE,Schermerhorn,Schermer,Noord-Holland,VBO,4.890750,52.600046
Hornplein,19,,,1636XE,Schermerhorn,Schermer,Noord-Holland,VBO,4.890452,52.599705
Hornplein,20,,,1636XE,Schermerhorn,Schermer,Noord-Holland,VBO,4.890750,52.600046
Hornplein,21,,,1636XE,Schermerhorn,Schermer,Noord-Holland,VBO,4.890455,52.599723
Hornplein,22,,,1636XE,Schermerhorn,Schermer,Noord-Holland,VBO,4.890750,52.600046
Hornplein,23,,,1636XE,Schermerhorn,Schermer,Noord-Holland,VBO,4.890459,52.599741
Hornplein,24,,,1636XE,Schermerhorn,Schermer,Noord-Holland,VBO,4.890750,52.600046
Hornplein,25,,,1636XE,Schermerhorn,Schermer,Noord-Holland,VBO,4.890462,52.599759
Hornplein,26,,,1636XE,Schermerhorn,Schermer,Noord-Holland,VBO,4.890750,52.600046
Hornplein,27,,,1636XE,Schermerhorn,Schermer,Noord-Holland,VBO,4.890466,52.599777
Hornplein,28,,,1636XE,Schermerhorn,Schermer,Noord-Holland,VBO,4.890750,52.600046
Hornplein,29,,,1636XE,Schermerhorn,Schermer,Noord-Holland,VBO,4.890469,52.599794
Hornplein,30,,,1636XE,Schermerhorn,Schermer,Noord-Holland,VBO,4.890750,52.600046
Hornplein,31,,,1636XE,Schermerhorn,Schermer,Noord-Holland,VBO,4.890476,52.599806
Hornplein,32,,,1636XE,Schermerhorn,Schermer,Noord-Holland,VBO,4.890750,52.600046
Hornplein,34,,,1636XE,Schermerhorn,Schermer,Noord-Holland,VBO,4.890750,52.600046
Hornplein,36,,,1636XE,Schermerhorn,Schermer,Noord-Holland,VBO,4.890750,52.600046
Hornplein,38,,,1636XE,Schermerhorn,Schermer,Noord-Holland,VBO,4.890750,52.600046
Hornplein,40,,,1636XE,Schermerhorn,Schermer,Noord-Holland,VBO,4.890750,52.600046
Hornplein,42,,,1636XE,Schermerhorn,Schermer,Noord-Holland,VBO,4.890750,52.600046
Hornplein,44,,,1636XE,Schermerhorn,Schermer,Noord-Holland,VBO,4.890750,52.600046
Hornplein,46,,,1636XE,Schermerhorn,Schermer,Noord-Holland,VBO,4.890750,52.600046
Hornplein,48,,,1636XE,Schermerhorn,Schermer,Noord-Holland,VBO,4.890750,52.600046
Hornplein,50,,,1636XE,Schermerhorn,Schermer,Noord-Holland,VBO,4.890750,52.600046
Hornplein,52,,,1636XE,Schermerhorn,Schermer,Noord-Holland,VBO,4.890750,52.600046
Hornplein,54,,,1636XE,Schermerhorn,Schermer,Noord-Holland,VBO,4.890750,52.600046
Hornplein,56,,,1636XE,Schermerhorn,Schermer,Noord-Holland,VBO,4.890750,52.600046
Hornplein,58,,,1636XE,Schermerhorn,Schermer,Noord-Holland,VBO,4.890750,52.600046
Oosterweidestraat,46,A,,1636XG,Schermerhorn,Schermer,Noord-Holland,VBO,4.891547,52.599988
Oosterweidestraat,46,,,1636XG,Schermerhorn,Schermer,Noord-Holland,VBO,4.891547,52.599988
Oosterweidestraat,48,,,1636XG,Schermerhorn,Schermer,Noord-Holland,VBO,4.891796,52.599953
Oosterweidestraat,50,,,1636XG,Schermerhorn,Schermer,Noord-Holland,VBO,4.891827,52.600255
Oosterweidestraat,52,,,1636XG,Schermerhorn,Schermer,Noord-Holland,VBO,4.891872,52.600255
Oosterweidestraat,54,,,1636XG,Schermerhorn,Schermer,Noord-Holland,VBO,4.891960,52.600249
Oosterweidestraat,56,,,1636XG,Schermerhorn,Schermer,Noord-Holland,VBO,4.892049,52.600160
Oosterweidestraat,58,,,1636XG,Schermerhorn,Schermer,Noord-Holland,VBO,4.892049,52.600160
Oosterweidestraat,60,,,1636XG,Schermerhorn,Schermer,Noord-Holland,VBO,4.892123,52.600157
Oosterweidestraat,62,,,1636XG,Schermerhorn,Schermer,Noord-Holland,VBO,4.892212,52.600140
Oosterweidestraat,64,,,1636XG,Schermerhorn,Schermer,Noord-Holland,VBO,4.892346,52.600023
Oosterweidestraat,66,,,1636XG,Schermerhorn,Schermer,Noord-Holland,VBO,4.892346,52.599996
Oosterweidestraat,68,,,1636XG,Schermerhorn,Schermer,Noord-Holland,VBO,4.892214,52.599956
Oosterweidestraat,70,,,1636XG,Schermerhorn,Schermer,Noord-Holland,VBO,4.892200,52.599906
Oosterweidestraat,72,,,1636XG,Schermerhorn,Schermer,Noord-Holland,VBO,4.892465,52.599907
Oosterweidestraat,74,,,1636XG,Schermerhorn,Schermer,Noord-Holland,VBO,4.892539,52.599907
Oosterweidestraat,76,,,1636XG,Schermerhorn,Schermer,Noord-Holland,VBO,4.892523,52.600078
Oosterweidestraat,78,,,1636XG,Schermerhorn,Schermer,Noord-Holland,VBO,4.892477,52.600150
Oosterweidestraat,80,,,1636XG,Schermerhorn,Schermer,Noord-Holland,VBO,4.892521,52.600186
Oosterweidestraat,82,,,1636XG,Schermerhorn,Schermer,Noord-Holland,VBO,4.892788,52.600106
Oosterweidestraat,84,,,1636XG,Schermerhorn,Schermer,Noord-Holland,VBO,4.892877,52.600061
Oosterweidestraat,86,A,,1636XG,Schermerhorn,Schermer,Noord-Holland,VBO,4.893097,52.599974
Oosterweidestraat,86,B,,1636XG,Schermerhorn,Schermer,Noord-Holland,VBO,4.893092,52.599949
Oosterweidestraat,86,,,1636XG,Schermerhorn,Schermer,Noord-Holland,VBO,4.892980,52.600053
Oosterweidestraat,92,,,1636XG,Schermerhorn,Schermer,Noord-Holland,VBO,4.892954,52.599908
Oosterweidestraat,94,,,1636XG,Schermerhorn,Schermer,Noord-Holland,VBO,4.892938,52.599855
Oosterweidestraat,96,,,1636XG,Schermerhorn,Schermer,Noord-Holland,VBO,4.893189,52.599838
Oosterweidestraat,98,,,1636XG,Schermerhorn,Schermer,Noord-Holland,VBO,4.893263,52.599856
Oosterweidestraat,100,,,1636XG,Schermerhorn,Schermer,Noord-Holland,VBO,4.893231,52.600045
Oosterweidestraat,102,,,1636XG,Schermerhorn,Schermer,Noord-Holland,VBO,4.893231,52.600108
Oosterweidestraat,104,,,1636XH,Schermerhorn,Schermer,Noord-Holland,VBO,4.893497,52.600028
Oosterweidestraat,106,,,1636XH,Schermerhorn,Schermer,Noord-Holland,VBO,4.893586,52.600019
Oosterweidestraat,108,,,1636XH,Schermerhorn,Schermer,Noord-Holland,VBO,4.893674,52.600029
Oosterweidestraat,110,,,1636XH,Schermerhorn,Schermer,Noord-Holland,VBO,4.893763,52.600011
Oosterweidestraat,114,,,1636XH,Schermerhorn,Schermer,Noord-Holland,VBO,4.893691,52.599867
Oosterweidestraat,116,,,1636XH,Schermerhorn,Schermer,Noord-Holland,VBO,4.893677,52.599813
Oosterweidestraat,118,,,1636XH,Schermerhorn,Schermer,Noord-Holland,VBO,4.893942,52.599814
Oosterweidestraat,120,,,1636XH,Schermerhorn,Schermer,Noord-Holland,VBO,4.894016,52.599832
Oosterweidestraat,122,A,,1636XH,Schermerhorn,Schermer,Noord-Holland,VBO,4.894475,52.599754
Oosterweidestraat,122,B,,1636XH,Schermerhorn,Schermer,Noord-Holland,VBO,4.894548,52.599754
Oosterweidestraat,122,C,,1636XH,Schermerhorn,Schermer,Noord-Holland,VBO,4.894622,52.599763
Oosterweidestraat,124,,,1636XH,Schermerhorn,Schermer,Noord-Holland,VBO,4.894800,52.599719
Oosterweidestraat,126,,,1636XH,Schermerhorn,Schermer,Noord-Holland,VBO,4.894888,52.599719
Oosterweidestraat,128,,,1636XH,Schermerhorn,Schermer,Noord-Holland,VBO,4.894962,52.599693
Oosterweidestraat,130,,,1636XH,Schermerhorn,Schermer,Noord-Holland,VBO,4.895051,52.599684
Oosterweidestraat,132,,,1636XH,Schermerhorn,Schermer,Noord-Holland,VBO,4.895139,52.599693
Oosterweidestraat,134,,,1636XH,Schermerhorn,Schermer,Noord-Holland,VBO,4.895228,52.599667
Oosterweidestraat,136,,,1636XH,Schermerhorn,Schermer,Noord-Holland,VBO,4.895509,52.599677
Oosterweidestraat,138,,,1636XH,Schermerhorn,Schermer,Noord-Holland,VBO,4.895597,52.599677
Oosterweidestraat,140,,,1636XH,Schermerhorn,Schermer,Noord-Holland,VBO,4.895671,52.599678
Oosterweidestraat,142,,,1636XH,Schermerhorn,Schermer,Noord-Holland,VBO,4.895745,52.599669
Oosterweidestraat,144,,,1636XH,Schermerhorn,Schermer,Noord-Holland,VBO,4.895834,52.599633
Zwetstraat,1,,,1636XJ,Schermerhorn,Schermer,Noord-Holland,VBO,4.890980,52.599442
Zwetstraat,2,,,1636XJ,Schermerhorn,Schermer,Noord-Holland,VBO,4.891532,52.600227
Zwetstraat,3,,,1636XJ,Schermerhorn,Schermer,Noord-Holland,VBO,4.890980,52.599397
Zwetstraat,4,,,1636XJ,Schermerhorn,Schermer,Noord-Holland,VBO,4.891533,52.600155
Zwetstraat,5,,,1636XJ,Schermerhorn,Schermer,Noord-Holland,VBO,4.890981,52.599335
Zwetstraat,6,,,1636XJ,Schermerhorn,Schermer,Noord-Holland,VBO,4.891518,52.600119
Zwetstraat,7,,,1636XJ,Schermerhorn,Schermer,Noord-Holland,VBO,4.890967,52.599281
Zwetstraat,9,,,1636XJ,Schermerhorn,Schermer,Noord-Holland,VBO,4.890953,52.599191
Zwetstraat,11,,,1636XJ,Schermerhorn,Schermer,Noord-Holland,VBO,4.890928,52.599142
Zwetstraat,13,,,1636XJ,Schermerhorn,Schermer,Noord-Holland,VBO,4.890940,52.599083
Pinksterblomstraat,1,A,,1636XK,Schermerhorn,Schermer,Noord-Holland,VBO,4.889896,52.599600
Pinksterblomstraat,1,,,1636XK,Schermerhorn,Schermer,Noord-Holland,VBO,4.889962,52.599438
Pinksterblomstraat,3,,,1636XK,Schermerhorn,Schermer,Noord-Holland,VBO,4.889967,52.599393
Pinksterblomstraat,5,,,1636XK,Schermerhorn,Schermer,Noord-Holland,VBO,4.889963,52.599339
Pinksterblomstraat,7,,,1636XK,Schermerhorn,Schermer,Noord-Holland,VBO,4.889948,52.599285
Pinksterblomstraat,9,,,1636XK,Schermerhorn,Schermer,Noord-Holland,VBO,4.889949,52.599204
Pinksterblomstraat,11,,,1636XK,Schermerhorn,Schermer,Noord-Holland,VBO,4.889980,52.599133
Pinksterblomstraat,13,A,,1636XK,Schermerhorn,Schermer,Noord-Holland,VBO,4.889567,52.599054
Pinksterblomstraat,13,,,1636XK,Schermerhorn,Schermer,Noord-Holland,VBO,4.889921,52.599078
Pinksterblomstraat,15,A,,1636XK,Schermerhorn,Schermer,Noord-Holland,VBO,4.889553,52.599014
Pinksterblomstraat,15,B,,1636XK,Schermerhorn,Schermer,Noord-Holland,VBO,4.889542,52.598984
Pinksterblomstraat,15,,,1636XK,Schermerhorn,Schermer,Noord-Holland,VBO,4.889945,52.599021
Pinksterblomstraat,17,,,1636XK,Schermerhorn,Schermer,Noord-Holland,VBO,4.889922,52.598971
Pinksterblomstraat,19,,,1636XK,Schermerhorn,Schermer,Noord-Holland,VBO,4.889923,52.598935
Pinksterblomstraat,21,,,1636XK,Schermerhorn,Schermer,Noord-Holland,VBO,4.889909,52.598863
Pinksterblomstraat,23,,,1636XK,Schermerhorn,Schermer,Noord-Holland,VBO,4.890294,52.598922
Pinksterblomstraat,25,,,1636XK,Schermerhorn,Schermer,Noord-Holland,VBO,4.890322,52.598873
Pinksterblomstraat,27,,,1636XK,Schermerhorn,Schermer,Noord-Holland,VBO,4.890338,52.598811
Pinksterblomstraat,29,,,1636XK,Schermerhorn,Schermer,Noord-Holland,VBO,4.890338,52.598757
Pinksterblomstraat,31,,,1636XK,Schermerhorn,Schermer,Noord-Holland,VBO,4.890339,52.598694
Pinksterblomstraat,33,,,1636XK,Schermerhorn,Schermer,Noord-Holland,VBO,4.890633,52.598830
Pinksterblomstraat,35,,,1636XK,Schermerhorn,Schermer,Noord-Holland,VBO,4.890721,52.598830
Pinksterblomstraat,37,,,1636XK,Schermerhorn,Schermer,Noord-Holland,VBO,4.890810,52.598831
Pinksterblomstraat,39,,,1636XK,Schermerhorn,Schermer,Noord-Holland,VBO,4.890898,52.598831
Pinksterblomstraat,41,,,1636XK,Schermerhorn,Schermer,Noord-Holland,VBO,4.890987,52.598831
Pinksterblomstraat,43,,,1636XL,Schermerhorn,Schermer,Noord-Holland,VBO,4.891311,52.598905
Pinksterblomstraat,45,,,1636XL,Schermerhorn,Schermer,Noord-Holland,VBO,4.891311,52.598869
Pinksterblomstraat,47,,,1636XL,Schermerhorn,Schermer,Noord-Holland,VBO,4.891327,52.598806
Pinksterblomstraat,49,,,1636XL,Schermerhorn,Schermer,Noord-Holland,VBO,4.891327,52.598752
Pinksterblomstraat,51,,,1636XL,Schermerhorn,Schermer,Noord-Holland,VBO,4.891328,52.598689
Pinksterblomstraat,53,,,1636XL,Schermerhorn,Schermer,Noord-Holland,VBO,4.891666,52.598834
Pinksterblomstraat,55,,,1636XL,Schermerhorn,Schermer,Noord-Holland,VBO,4.891740,52.598807
Pinksterblomstraat,57,,,1636XL,Schermerhorn,Schermer,Noord-Holland,VBO,4.891814,52.598808
Pinksterblomstraat,59,,,1636XL,Schermerhorn,Schermer,Noord-Holland,VBO,4.891887,52.598808
Pinksterblomstraat,61,,,1636XL,Schermerhorn,Schermer,Noord-Holland,VBO,4.891990,52.598835
Pinksterblomstraat,63,,,1636XL,Schermerhorn,Schermer,Noord-Holland,VBO,4.892314,52.598918
Pinksterblomstraat,65,,,1636XL,Schermerhorn,Schermer,Noord-Holland,VBO,4.892330,52.598846
Pinksterblomstraat,67,,,1636XL,Schermerhorn,Schermer,Noord-Holland,VBO,4.892330,52.598792
Pinksterblomstraat,69,,,1636XL,Schermerhorn,Schermer,Noord-Holland,VBO,4.892331,52.598738
Pinksterblomstraat,71,,,1636XL,Schermerhorn,Schermer,Noord-Holland,VBO,4.892331,52.598711
Pinksterblomstraat,73,,,1636XL,Schermerhorn,Schermer,Noord-Holland,VBO,4.892655,52.598829
Pinksterblomstraat,75,,,1636XL,Schermerhorn,Schermer,Noord-Holland,VBO,4.892714,52.598829
Pinksterblomstraat,77,,,1636XL,Schermerhorn,Schermer,Noord-Holland,VBO,4.892803,52.598785
Pinksterblomstraat,79,,,1636XL,Schermerhorn,Schermer,Noord-Holland,VBO,4.892891,52.598821
Pinksterblomstraat,81,,,1636XL,Schermerhorn,Schermer,Noord-Holland,VBO,4.893010,52.598806
Pinksterblomstraat,83,,,1636XM,Schermerhorn,Schermer,Noord-Holland,VBO,4.893316,52.598911
Pinksterblomstraat,85,,,1636XM,Schermerhorn,Schermer,Noord-Holland,VBO,4.893318,52.598849
Pinksterblomstraat,87,,,1636XM,Schermerhorn,Schermer,Noord-Holland,VBO,4.893304,52.598795
Pinksterblomstraat,89,,,1636XM,Schermerhorn,Schermer,Noord-Holland,VBO,4.893322,52.598740
Pinksterblomstraat,91,,,1636XM,Schermerhorn,Schermer,Noord-Holland,VBO,4.893321,52.598675
Pinksterblomstraat,93,,,1636XM,Schermerhorn,Schermer,Noord-Holland,VBO,4.893598,52.598804
Pinksterblomstraat,95,,,1636XM,Schermerhorn,Schermer,Noord-Holland,VBO,4.893703,52.598816
Pinksterblomstraat,97,,,1636XM,Schermerhorn,Schermer,Noord-Holland,VBO,4.893806,52.598816
Pinksterblomstraat,99,,,1636XM,Schermerhorn,Schermer,Noord-Holland,VBO,4.893895,52.598816
Pinksterblomstraat,101,A,,1636XM,Schermerhorn,Schermer,Noord-Holland,VBO,4.894307,52.598863
Pinksterblomstraat,101,,,1636XM,Schermerhorn,Schermer,Noord-Holland,VBO,4.893983,52.598817
Pinksterblomstraat,103,A,,1636XM,Schermerhorn,Schermer,Noord-Holland,VBO,4.894408,52.599097
Pinksterblomstraat,103,,,1636XM,Schermerhorn,Schermer,Noord-Holland,VBO,4.894424,52.599007
Pinksterblomstraat,105,A,,1636XM,Schermerhorn,Schermer,Noord-Holland,VBO,4.894420,52.599394
Pinksterblomstraat,105,,,1636XM,Schermerhorn,Schermer,Noord-Holland,VBO,4.894480,52.599223
Pinksterblomstraat,107,,,1636XM,Schermerhorn,Schermer,Noord-Holland,VBO,4.894473,52.599906
Pinksterblomstraat,109,,,1636XM,Schermerhorn,Schermer,Noord-Holland,VBO,4.894487,52.599978
Pinksterblomstraat,111,,,1636XM,Schermerhorn,Schermer,Noord-Holland,VBO,4.894516,52.600023
Pinksterblomstraat,113,,,1636XM,Schermerhorn,Schermer,Noord-Holland,VBO,4.894530,52.600086
Pinksterblomstraat,115,,,1636XM,Schermerhorn,Schermer,Noord-Holland,VBO,4.894544,52.600140
Pinksterblomstraat,2,,,1636XN,Schermerhorn,Schermer,Noord-Holland,VBO,4.890472,52.599475
Pinksterblomstraat,4,,,1636XN,Schermerhorn,Schermer,Noord-Holland,VBO,4.890404,52.599422
Pinksterblomstraat,6,,,1636XN,Schermerhorn,Schermer,Noord-Holland,VBO,4.890390,52.599368
Pinksterblomstraat,8,,,1636XN,Schermerhorn,Schermer,Noord-Holland,VBO,4.890391,52.599314
Pinksterblomstraat,10,,,1636XN,Schermerhorn,Schermer,Noord-Holland,VBO,4.890342,52.599132
Pinksterblomstraat,12,,,1636XN,Schermerhorn,Schermer,Noord-Holland,VBO,4.890393,52.599125
Pinksterblomstraat,14,,,1636XN,Schermerhorn,Schermer,Noord-Holland,VBO,4.890511,52.599151
Pinksterblomstraat,16,,,1636XN,Schermerhorn,Schermer,Noord-Holland,VBO,4.890570,52.599126
Pinksterblomstraat,18,,,1636XN,Schermerhorn,Schermer,Noord-Holland,VBO,4.890688,52.599136
Pinksterblomstraat,20,,,1636XN,Schermerhorn,Schermer,Noord-Holland,VBO,4.891382,52.599121
Pinksterblomstraat,22,,,1636XN,Schermerhorn,Schermer,Noord-Holland,VBO,4.891456,52.599112
Pinksterblomstraat,24,,,1636XN,Schermerhorn,Schermer,Noord-Holland,VBO,4.891544,52.599139
Pinksterblomstraat,26,,,1636XN,Schermerhorn,Schermer,Noord-Holland,VBO,4.891633,52.599113
Pinksterblomstraat,28,,,1636XN,Schermerhorn,Schermer,Noord-Holland,VBO,4.891707,52.599122
Pinksterblomstraat,30,,,1636XN,Schermerhorn,Schermer,Noord-Holland,VBO,4.892032,52.599051
Pinksterblomstraat,32,,,1636XN,Schermerhorn,Schermer,Noord-Holland,VBO,4.892031,52.599123
Pinksterblomstraat,34,,,1636XN,Schermerhorn,Schermer,Noord-Holland,VBO,4.892031,52.599177
Pinksterblomstraat,36,,,1636XN,Schermerhorn,Schermer,Noord-Holland,VBO,4.892030,52.599240
Pinksterblomstraat,38,,,1636XP,Schermerhorn,Schermer,Noord-Holland,VBO,4.892342,52.599098
Pinksterblomstraat,40,,,1636XP,Schermerhorn,Schermer,Noord-Holland,VBO,4.892401,52.599098
Pinksterblomstraat,42,,,1636XP,Schermerhorn,Schermer,Noord-Holland,VBO,4.892518,52.599077
Pinksterblomstraat,44,,,1636XP,Schermerhorn,Schermer,Noord-Holland,VBO,4.892607,52.599117
Pinksterblomstraat,46,,,1636XP,Schermerhorn,Schermer,Noord-Holland,VBO,4.892696,52.599108
Pinksterblomstraat,48,,,1636XP,Schermerhorn,Schermer,Noord-Holland,VBO,4.893021,52.599055
Pinksterblomstraat,50,,,1636XP,Schermerhorn,Schermer,Noord-Holland,VBO,4.893020,52.599127
Pinksterblomstraat,52,,,1636XP,Schermerhorn,Schermer,Noord-Holland,VBO,4.892957,52.599197
Pinksterblomstraat,54,,,1636XP,Schermerhorn,Schermer,Noord-Holland,VBO,4.893019,52.599235
Pinksterblomstraat,56,,,1636XP,Schermerhorn,Schermer,Noord-Holland,VBO,4.893330,52.599111
Pinksterblomstraat,58,,,1636XP,Schermerhorn,Schermer,Noord-Holland,VBO,4.893419,52.599111
Pinksterblomstraat,60,,,1636XP,Schermerhorn,Schermer,Noord-Holland,VBO,4.893508,52.599111
Pinksterblomstraat,62,,,1636XP,Schermerhorn,Schermer,Noord-Holland,VBO,4.893581,52.599112
Pinksterblomstraat,64,,,1636XP,Schermerhorn,Schermer,Noord-Holland,VBO,4.893670,52.599112
Pinksterblomstraat,66,,,1636XP,Schermerhorn,Schermer,Noord-Holland,VBO,4.893966,52.599059
Pinksterblomstraat,68,,,1636XP,Schermerhorn,Schermer,Noord-Holland,VBO,4.893965,52.599113
Pinksterblomstraat,70,,,1636XP,Schermerhorn,Schermer,Noord-Holland,VBO,4.893964,52.599185
Pinksterblomstraat,72,,,1636XP,Schermerhorn,Schermer,Noord-Holland,VBO,4.893964,52.599248
Pinksterblomstraat,74,,,1636XP,Schermerhorn,Schermer,Noord-Holland,VBO,4.893963,52.599275
Pinksterblomstraat,76,,,1636XP,Schermerhorn,Schermer,Noord-Holland,VBO,4.893948,52.599329
Pinksterblomstraat,78,,,1636XP,Schermerhorn,Schermer,Noord-Holland,VBO,4.893947,52.599410
Pinksterblomstraat,80,T,,1636XP,Schermerhorn,Schermer,Noord-Holland,VBO,4.893914,52.600083
Pinksterblomstraat,82,,,1636XP,Schermerhorn,Schermer,Noord-Holland,VBO,4.894099,52.600171
Pinksterblomstraat,84,,,1636XP,Schermerhorn,Schermer,Noord-Holland,VBO,4.894099,52.600171
Pinksterblomstraat,86,,,1636XP,Schermerhorn,Schermer,Noord-Holland,VBO,4.894099,52.600171
Pinksterblomstraat,88,,,1636XP,Schermerhorn,Schermer,Noord-Holland,VBO,4.894099,52.600171
Pinksterblomstraat,90,,,1636XP,Schermerhorn,Schermer,Noord-Holland,VBO,4.894099,52.600171
Pinksterblomstraat,92,,,1636XP,Schermerhorn,Schermer,Noord-Holland,VBO,4.894099,52.600171
Oosteinde,1,,,1636XR,Schermerhorn,Schermer,Noord-Holland,VBO,4.889252,52.600801
Oosteinde,3,,,1636XR,Schermerhorn,Schermer,Noord-Holland,VBO,4.889680,52.600819
Oosteinde,5,,,1636XR,Schermerhorn,Schermer,Noord-Holland,VBO,4.889902,52.600777
Oosteinde,7,A,,1636XR,Schermerhorn,Schermer,Noord-Holland,VBO,4.890331,52.600743
Oosteinde,7,,,1636XR,Schermerhorn,Schermer,Noord-Holland,VBO,4.890242,52.600760
Oosteinde,9,,,1636XR,Schermerhorn,Schermer,Noord-Holland,VBO,4.890479,52.600707
Oosteinde,13,,,1636XR,Schermerhorn,Schermer,Noord-Holland,VBO,4.890656,52.600708
Oosteinde,15,,,1636XR,Schermerhorn,Schermer,Noord-Holland,VBO,4.890788,52.600718
Oosteinde,17,A,,1636XR,Schermerhorn,Schermer,Noord-Holland,VBO,4.890983,52.600521
Oosteinde,17,,,1636XR,Schermerhorn,Schermer,Noord-Holland,VBO,4.890921,52.600709
Oosteinde,19,,,1636XR,Schermerhorn,Schermer,Noord-Holland,VBO,4.891143,52.600674
Oosteinde,21,,,1636XR,Schermerhorn,Schermer,Noord-Holland,VBO,4.891276,52.600666
Oosteinde,23,,,1636XS,Schermerhorn,Schermer,Noord-Holland,VBO,4.891720,52.600542
Oosteinde,25,,,1636XS,Schermerhorn,Schermer,Noord-Holland,VBO,4.891912,52.600534
Oosteinde,27,,,1636XS,Schermerhorn,Schermer,Noord-Holland,VBO,4.892060,52.600534
Oosteinde,29,,,1636XS,Schermerhorn,Schermer,Noord-Holland,VBO,4.892208,52.600472
Oosteinde,33,,,1636XS,Schermerhorn,Schermer,Noord-Holland,VBO,4.892296,52.600499
Oosteinde,35,,,1636XS,Schermerhorn,Schermer,Noord-Holland,VBO,4.892489,52.600455
Oosteinde,37,A,,1636XS,Schermerhorn,Schermer,Noord-Holland,VBO,4.892695,52.600456
Oosteinde,37,,,1636XS,Schermerhorn,Schermer,Noord-Holland,VBO,4.892667,52.600402
Oosteinde,39,,,1636XS,Schermerhorn,Schermer,Noord-Holland,VBO,4.892858,52.600412
Oosteinde,41,,,1636XS,Schermerhorn,Schermer,Noord-Holland,VBO,4.893001,52.600360
Oosteinde,43,,,1636XS,Schermerhorn,Schermer,Noord-Holland,VBO,4.893220,52.600306
Oosteinde,45,,,1636XS,Schermerhorn,Schermer,Noord-Holland,VBO,4.893390,52.600342
Oosteinde,47,,,1636XS,Schermerhorn,Schermer,Noord-Holland,VBO,4.893567,52.600370
Oosteinde,49,,,1636XS,Schermerhorn,Schermer,Noord-Holland,VBO,4.893656,52.600352
Oosteinde,51,,,1636XS,Schermerhorn,Schermer,Noord-Holland,VBO,4.893730,52.600344
Oosteinde,53,,,1636XS,Schermerhorn,Schermer,Noord-Holland,VBO,4.893878,52.600317
Oosteinde,57,,,1636XT,Schermerhorn,Schermer,Noord-Holland,VBO,4.894833,52.599992
Oosteinde,59,,,1636XT,Schermerhorn,Schermer,Noord-Holland,VBO,4.894915,52.599980
Oosteinde,61,,,1636XT,Schermerhorn,Schermer,Noord-Holland,VBO,4.895004,52.599935
Oosteinde,63,,,1636XT,Schermerhorn,Schermer,Noord-Holland,VBO,4.895151,52.599954
Oosteinde,65,,,1636XT,Schermerhorn,Schermer,Noord-Holland,VBO,4.895240,52.599945
Oosteinde,67,,,1636XT,Schermerhorn,Schermer,Noord-Holland,VBO,4.895329,52.599928
Oosteinde,69,,,1636XT,Schermerhorn,Schermer,Noord-Holland,VBO,4.895756,52.599966
Oosteinde,71,,,1636XT,Schermerhorn,Schermer,Noord-Holland,VBO,4.895845,52.599957
Oosteinde,73,,,1636XT,Schermerhorn,Schermer,Noord-Holland,VBO,4.895919,52.599939
Oosteinde,75,,,1636XT,Schermerhorn,Schermer,Noord-Holland,VBO,4.896008,52.599931
Oosteinde,77,,,1636XT,Schermerhorn,Schermer,Noord-Holland,VBO,4.896096,52.599922
Oosteinde,2,,,1636XV,Schermerhorn,Schermer,Noord-Holland,VBO,4.889455,52.601144
Oosteinde,6,,,1636XV,Schermerhorn,Schermer,Noord-Holland,VBO,4.890181,52.600958
Oosteinde,8,,,1636XV,Schermerhorn,Schermer,Noord-Holland,VBO,4.890359,52.600960
Oosteinde,10,,,1636XV,Schermerhorn,Schermer,Noord-Holland,VBO,4.890476,52.600966
Oosteinde,12,,,1636XV,Schermerhorn,Schermer,Noord-Holland,VBO,4.890510,52.600894
Oosteinde,14,A,,1636XV,Schermerhorn,Schermer,Noord-Holland,VBO,4.890836,52.601049
Oosteinde,14,B,,1636XV,Schermerhorn,Schermer,Noord-Holland,VBO,4.890821,52.600868
Oosteinde,14,,,1636XV,Schermerhorn,Schermer,Noord-Holland,VBO,4.890639,52.600888
Oosteinde,16,,,1636XV,Schermerhorn,Schermer,Noord-Holland,VBO,4.891010,52.600965
Oosteinde,18,,,1636XV,Schermerhorn,Schermer,Noord-Holland,VBO,4.891068,52.600809
Oosteinde,20,A,,1636XV,Schermerhorn,Schermer,Noord-Holland,VBO,4.891304,52.600810
Oosteinde,20,,,1636XV,Schermerhorn,Schermer,Noord-Holland,VBO,4.891259,52.600899
Oosteinde,22,,,1636XV,Schermerhorn,Schermer,Noord-Holland,VBO,4.891422,52.600792
Oosteinde,24,,,1636XV,Schermerhorn,Schermer,Noord-Holland,VBO,4.891480,52.600873
Oosteinde,26,A,,1636XV,Schermerhorn,Schermer,Noord-Holland,VBO,4.891573,52.600812
Oosteinde,26,B,,1636XV,Schermerhorn,Schermer,Noord-Holland,VBO,4.891573,52.600812
Oosteinde,26,,,1636XV,Schermerhorn,Schermer,Noord-Holland,VBO,4.891573,52.600812
Oosteinde,28,A,,1636XV,Schermerhorn,Schermer,Noord-Holland,VBO,4.891657,52.600793
Oosteinde,28,B,,1636XV,Schermerhorn,Schermer,Noord-Holland,VBO,4.891657,52.600793
Oosteinde,28,,,1636XV,Schermerhorn,Schermer,Noord-Holland,VBO,4.891657,52.600793
Oosteinde,30,A,,1636XV,Schermerhorn,Schermer,Noord-Holland,VBO,4.891910,52.600713
Oosteinde,30,,,1636XV,Schermerhorn,Schermer,Noord-Holland,VBO,4.891792,52.600731
Oosteinde,32,,,1636XV,Schermerhorn,Schermer,Noord-Holland,VBO,4.892029,52.600687
Oosteinde,34,,,1636XW,Schermerhorn,Schermer,Noord-Holland,VBO,4.892190,52.600760
Oosteinde,36,,,1636XW,Schermerhorn,Schermer,Noord-Holland,VBO,4.892279,52.600697
Oosteinde,38,,,1636XW,Schermerhorn,Schermer,Noord-Holland,VBO,4.892398,52.600644
Oosteinde,40,,,1636XW,Schermerhorn,Schermer,Noord-Holland,VBO,4.892487,52.600626
Oosteinde,42,,,1636XW,Schermerhorn,Schermer,Noord-Holland,VBO,4.892649,52.600690
Oosteinde,44,A,,1636XW,Schermerhorn,Schermer,Noord-Holland,VBO,4.892915,52.600664
Oosteinde,44,B,,1636XW,Schermerhorn,Schermer,Noord-Holland,VBO,4.892915,52.600628
Oosteinde,44,C,,1636XW,Schermerhorn,Schermer,Noord-Holland,VBO,4.892989,52.600619
Oosteinde,44,D,,1636XW,Schermerhorn,Schermer,Noord-Holland,VBO,4.892915,52.600628
Oosteinde,44,E,,1636XW,Schermerhorn,Schermer,Noord-Holland,VBO,4.892989,52.600619
Oosteinde,44,F,,1636XW,Schermerhorn,Schermer,Noord-Holland,VBO,4.893002,52.600745
Oosteinde,44,G,,1636XW,Schermerhorn,Schermer,Noord-Holland,VBO,4.893002,52.600745
Oosteinde,44,,,1636XW,Schermerhorn,Schermer,Noord-Holland,VBO,4.893002,52.600745
Oosteinde,46,A,,1636XW,Schermerhorn,Schermer,Noord-Holland,VBO,4.893181,52.600611
Oosteinde,46,B,,1636XW,Schermerhorn,Schermer,Noord-Holland,VBO,4.893344,52.600549
Oosteinde,48,A,,1636XW,Schermerhorn,Schermer,Noord-Holland,VBO,4.893874,52.600616
Oosteinde,48,,,1636XW,Schermerhorn,Schermer,Noord-Holland,VBO,4.893699,52.600496
Oosteinde,50,,,1636XW,Schermerhorn,Schermer,Noord-Holland,VBO,4.893963,52.600501
Oosteinde,52,,,1636XW,Schermerhorn,Schermer,Noord-Holland,VBO,4.894142,52.600453
Oosteinde,54,,,1636XW,Schermerhorn,Schermer,Noord-Holland,VBO,4.894438,52.600418
Oosteinde,56,,,1636XW,Schermerhorn,Schermer,Noord-Holland,VBO,4.894615,52.600410
Oosteinde,58,,,1636XW,Schermerhorn,Schermer,Noord-Holland,VBO,4.894910,52.600375
Oosteinde,60,,,1636XW,Schermerhorn,Schermer,Noord-Holland,VBO,4.895088,52.600331
Oosteinde,62,,,1636XW,Schermerhorn,Schermer,Noord-Holland,VBO,4.895177,52.600305
Oosteinde,64,,,1636XW,Schermerhorn,Schermer,Noord-Holland,VBO,4.895413,52.600288
Oosteinde,66,,,1636XW,Schermerhorn,Schermer,Noord-Holland,VBO,4.895664,52.600298
Oosteinde,68,,,1636XW,Schermerhorn,Schermer,Noord-Holland,VBO,4.896078,52.600263
Oosteinde,70,,,1636XW,Schermerhorn,Schermer,Noord-Holland,VBO,4.896551,52.600211
Oosteinde,72,,,1636XW,Schermerhorn,Schermer,Noord-Holland,VBO,4.896388,52.600238
Tames Visserstraat,1,,,1636XX,Schermerhorn,Schermer,Noord-Holland,VBO,4.889411,52.599574
Tames Visserstraat,2,,,1636XX,Schermerhorn,Schermer,Noord-Holland,VBO,4.889565,52.600000
Tames Visserstraat,3,,,1636XX,Schermerhorn,Schermer,Noord-Holland,VBO,4.889896,52.599600
Tames Visserstraat,4,,,1636XX,Schermerhorn,Schermer,Noord-Holland,VBO,4.889775,52.599972
Tames Visserstraat,6,A,,1636XX,Schermerhorn,Schermer,Noord-Holland,VBO,4.890011,52.599940
Tames Visserstraat,6,B,,1636XX,Schermerhorn,Schermer,Noord-Holland,VBO,4.890011,52.599940
Tames Visserstraat,6,,,1636XX,Schermerhorn,Schermer,Noord-Holland,VBO,4.890011,52.599940
Tames Visserstraat,8,,,1636XX,Schermerhorn,Schermer,Noord-Holland,VBO,4.889565,52.600000
Tames Visserstraat,10,,,1636XX,Schermerhorn,Schermer,Noord-Holland,VBO,4.889775,52.599972
Tames Visserstraat,12,,,1636XX,Schermerhorn,Schermer,Noord-Holland,VBO,4.889775,52.599972
Tames Visserstraat,14,,,1636XX,Schermerhorn,Schermer,Noord-Holland,VBO,4.889565,52.600000
Tames Visserstraat,16,,,1636XX,Schermerhorn,Schermer,Noord-Holland,VBO,4.889775,52.599972
Tames Visserstraat,18,,,1636XX,Schermerhorn,Schermer,Noord-Holland,VBO,4.889775,52.599972
Tuinderspad,1,,,1636XZ,Schermerhorn,Schermer,Noord-Holland,VBO,4.889018,52.599326
Tuinderspad,2,,,1636XZ,Schermerhorn,Schermer,Noord-Holland,VBO,4.889151,52.599327
Tuinderspad,3,,,1636XZ,Schermerhorn,Schermer,Noord-Holland,VBO,4.889254,52.599327
Tuinderspad,4,,,1636XZ,Schermerhorn,Schermer,Noord-Holland,VBO,4.889329,52.599274
Tuinderspad,5,,,1636XZ,Schermerhorn,Schermer,Noord-Holland,VBO,4.889491,52.599256
