openbareruimtenaam,huisnummer,huisletter,huisnummertoevoeging,postcode,woonplaatsnaam,gemeentenaam,provincienaam,typeadresseerbaarobject,longitude,latitude
Bongerdlaan,3,,,1747CA,Tuitjenhorn,Schagen,Noord-Holland,VBO,4.774042,52.735231
Bongerdlaan,5,,,1747CA,Tuitjenhorn,Schagen,Noord-Holland,VBO,4.772545,52.735381
Noorderlicht,2,,,1747EA,Tuitjenhorn,Schagen,Noord-Holland,VBO,4.755768,52.733688
Noorderlicht,4,,,1747EA,Tuitjenhorn,Schagen,Noord-Holland,VBO,4.755738,52.733551
Noorderlicht,6,,,1747EA,Tuitjenhorn,Schagen,Noord-Holland,VBO,4.755696,52.733429
Noorderlicht,8,,,1747EA,Tuitjenhorn,Schagen,Noord-Holland,VBO,4.755622,52.733128
Noorderlicht,10,,,1747EA,Tuitjenhorn,Schagen,Noord-Holland,VBO,4.755605,52.733065
Noorderlicht,12,,,1747EA,Tuitjenhorn,Schagen,Noord-Holland,VBO,4.755568,52.732927
Noorderlicht,14,,,1747EA,Tuitjenhorn,Schagen,Noord-Holland,VBO,4.755552,52.732874
Halo,1,,,1747EB,Tuitjenhorn,Schagen,Noord-Holland,VBO,4.755571,52.732575
Halo,2,,,1747EB,Tuitjenhorn,Schagen,Noord-Holland,VBO,4.755196,52.732863
Halo,3,,,1747EB,Tuitjenhorn,Schagen,Noord-Holland,VBO,4.755489,52.732584
Halo,4,,,1747EB,Tuitjenhorn,Schagen,Noord-Holland,VBO,4.755111,52.732871
Halo,5,,,1747EB,Tuitjenhorn,Schagen,Noord-Holland,VBO,4.755278,52.732603
Halo,6,,,1747EB,Tuitjenhorn,Schagen,Noord-Holland,VBO,4.755025,52.732880
Halo,7,,,1747EB,Tuitjenhorn,Schagen,Noord-Holland,VBO,4.755190,52.732612
Halo,8,,,1747EB,Tuitjenhorn,Schagen,Noord-Holland,VBO,4.754942,52.732887
Halo,10,,,1747EB,Tuitjenhorn,Schagen,Noord-Holland,VBO,4.754791,52.732902
Halo,12,,,1747EB,Tuitjenhorn,Schagen,Noord-Holland,VBO,4.754716,52.732909
Halo,14,,,1747EB,Tuitjenhorn,Schagen,Noord-Holland,VBO,4.754641,52.732916
Halo,16,,,1747EB,Tuitjenhorn,Schagen,Noord-Holland,VBO,4.754556,52.732924
Halo,18,,,1747EB,Tuitjenhorn,Schagen,Noord-Holland,VBO,4.754407,52.732939
Halo,20,,,1747EB,Tuitjenhorn,Schagen,Noord-Holland,VBO,4.754332,52.732946
Halo,22,,,1747EB,Tuitjenhorn,Schagen,Noord-Holland,VBO,4.754246,52.732953
Halo,24,,,1747EB,Tuitjenhorn,Schagen,Noord-Holland,VBO,4.754180,52.732960
Morgenrood,1,,,1747EC,Tuitjenhorn,Schagen,Noord-Holland,VBO,4.754800,52.732648
Morgenrood,2,,,1747EC,Tuitjenhorn,Schagen,Noord-Holland,VBO,4.754391,52.732281
Morgenrood,3,,,1747EC,Tuitjenhorn,Schagen,Noord-Holland,VBO,4.754772,52.732515
Morgenrood,4,,,1747EC,Tuitjenhorn,Schagen,Noord-Holland,VBO,4.754292,52.732121
Morgenrood,5,,,1747EC,Tuitjenhorn,Schagen,Noord-Holland,VBO,4.754602,52.731950
Morgenrood,6,,,1747EC,Tuitjenhorn,Schagen,Noord-Holland,VBO,4.754261,52.731991
Windhoos,2,,,1747ED,Tuitjenhorn,Schagen,Noord-Holland,VBO,4.754713,52.732154
Windhoos,4,,,1747ED,Tuitjenhorn,Schagen,Noord-Holland,VBO,4.755073,52.732152
Windhoos,6,,,1747ED,Tuitjenhorn,Schagen,Noord-Holland,VBO,4.755058,52.732025
Windhoos,8,,,1747ED,Tuitjenhorn,Schagen,Noord-Holland,VBO,4.754999,52.731902
De Dijken,1,a,,1747EE,Tuitjenhorn,Schagen,Noord-Holland,VBO,4.777277,52.731078
De Dijken,1,,,1747EE,Tuitjenhorn,Schagen,Noord-Holland,VBO,4.777281,52.730790
De Dijken,3,,,1747EE,Tuitjenhorn,Schagen,Noord-Holland,VBO,4.776432,52.730522
De Dijken,5,a,,1747EE,Tuitjenhorn,Schagen,Noord-Holland,VBO,4.776957,52.730437
De Dijken,5,b,,1747EE,Tuitjenhorn,Schagen,Noord-Holland,VBO,4.776957,52.730437
De Dijken,5,c,,1747EE,Tuitjenhorn,Schagen,Noord-Holland,VBO,4.776985,52.730440
De Dijken,5,d,,1747EE,Tuitjenhorn,Schagen,Noord-Holland,VBO,4.776985,52.730440
De Dijken,5,e,,1747EE,Tuitjenhorn,Schagen,Noord-Holland,VBO,4.777004,52.730453
De Dijken,5,f,,1747EE,Tuitjenhorn,Schagen,Noord-Holland,VBO,4.777006,52.730453
De Dijken,7,a,,1747EE,Tuitjenhorn,Schagen,Noord-Holland,VBO,4.777437,52.730395
De Dijken,7,b,,1747EE,Tuitjenhorn,Schagen,Noord-Holland,VBO,4.777437,52.730395
De Dijken,7,c,,1747EE,Tuitjenhorn,Schagen,Noord-Holland,VBO,4.777466,52.730398
De Dijken,7,d,,1747EE,Tuitjenhorn,Schagen,Noord-Holland,VBO,4.777466,52.730398
De Dijken,7,e,,1747EE,Tuitjenhorn,Schagen,Noord-Holland,VBO,4.777485,52.730411
De Dijken,7,f,,1747EE,Tuitjenhorn,Schagen,Noord-Holland,VBO,4.777487,52.730411
De Dijken,7,,,1747EE,Tuitjenhorn,Schagen,Noord-Holland,VBO,4.777356,52.730500
De Dijken,11,,,1747EE,Tuitjenhorn,Schagen,Noord-Holland,VBO,4.777545,52.730097
De Dijken,13,,,1747EE,Tuitjenhorn,Schagen,Noord-Holland,VBO,4.776955,52.729942
De Dijken,15,,,1747EE,Tuitjenhorn,Schagen,Noord-Holland,VBO,4.776618,52.729976
De Dijken,17,a,,1747EE,Tuitjenhorn,Schagen,Noord-Holland,VBO,4.776339,52.730123
De Dijken,17,b,,1747EE,Tuitjenhorn,Schagen,Noord-Holland,VBO,4.776299,52.730022
De Dijken,17,,,1747EE,Tuitjenhorn,Schagen,Noord-Holland,VBO,4.776360,52.730189
De Dijken,19,,,1747EE,Tuitjenhorn,Schagen,Noord-Holland,VBO,4.776279,52.729932
De Dijken,21,a,,1747EE,Tuitjenhorn,Schagen,Noord-Holland,VBO,4.776209,52.729719
De Dijken,21,,,1747EE,Tuitjenhorn,Schagen,Noord-Holland,VBO,4.776233,52.729807
De Dijken,23,a,,1747EE,Tuitjenhorn,Schagen,Noord-Holland,VBO,4.776159,52.729548
De Dijken,23,b,,1747EE,Tuitjenhorn,Schagen,Noord-Holland,VBO,4.776389,52.729542
De Dijken,23,,,1747EE,Tuitjenhorn,Schagen,Noord-Holland,VBO,4.776186,52.729634
De Dijken,25,,,1747EE,Tuitjenhorn,Schagen,Noord-Holland,VBO,4.776591,52.729549
De Dijken,27,,,1747EE,Tuitjenhorn,Schagen,Noord-Holland,VBO,4.776937,52.729512
De Dijken,29,a,,1747EE,Tuitjenhorn,Schagen,Noord-Holland,VBO,4.777255,52.729326
De Dijken,29,b,,1747EE,Tuitjenhorn,Schagen,Noord-Holland,VBO,4.777374,52.729318
De Dijken,29,c,,1747EE,Tuitjenhorn,Schagen,Noord-Holland,VBO,4.777493,52.729310
De Dijken,29,d,,1747EE,Tuitjenhorn,Schagen,Noord-Holland,VBO,4.777611,52.729301
De Dijken,29,e,,1747EE,Tuitjenhorn,Schagen,Noord-Holland,VBO,4.777730,52.729293
De Dijken,29,f,,1747EE,Tuitjenhorn,Schagen,Noord-Holland,VBO,4.777584,52.729094
De Dijken,29,g,,1747EE,Tuitjenhorn,Schagen,Noord-Holland,VBO,4.777556,52.729031
De Dijken,29,h,,1747EE,Tuitjenhorn,Schagen,Noord-Holland,VBO,4.777542,52.728959
De Dijken,29,i,,1747EE,Tuitjenhorn,Schagen,Noord-Holland,VBO,4.777365,52.728904
De Dijken,29,j,,1747EE,Tuitjenhorn,Schagen,Noord-Holland,VBO,4.777246,52.728922
De Dijken,31,a,,1747EE,Tuitjenhorn,Schagen,Noord-Holland,VBO,4.777104,52.729094
De Dijken,31,b,,1747EE,Tuitjenhorn,Schagen,Noord-Holland,VBO,4.776933,52.729073
De Dijken,31,c,,1747EE,Tuitjenhorn,Schagen,Noord-Holland,VBO,4.777080,52.729016
De Dijken,31,,,1747EE,Tuitjenhorn,Schagen,Noord-Holland,VBO,4.776847,52.729147
De Dijken,33,a,,1747EE,Tuitjenhorn,Schagen,Noord-Holland,VBO,4.776451,52.729089
De Dijken,33,b,,1747EE,Tuitjenhorn,Schagen,Noord-Holland,VBO,4.776529,52.729156
De Dijken,33,,,1747EE,Tuitjenhorn,Schagen,Noord-Holland,VBO,4.776692,52.729159
De Dijken,35,,,1747EE,Tuitjenhorn,Schagen,Noord-Holland,VBO,4.776224,52.729107
De Dijken,37,,,1747EE,Tuitjenhorn,Schagen,Noord-Holland,VBO,4.776108,52.729258
De Dijken,39,,,1747EE,Tuitjenhorn,Schagen,Noord-Holland,VBO,4.776077,52.729152
De Dijken,41,t,,1747EE,Tuitjenhorn,Schagen,Noord-Holland,VBO,4.775868,52.729061
De Dijken,41,,,1747EE,Tuitjenhorn,Schagen,Noord-Holland,VBO,4.776034,52.728995
Kromwater,5,,,1747EG,Tuitjenhorn,Schagen,Noord-Holland,VBO,4.767082,52.731079
Cumulus,1,,,1747EH,Tuitjenhorn,Schagen,Noord-Holland,VBO,4.755138,52.731326
Cumulus,2,,,1747EH,Tuitjenhorn,Schagen,Noord-Holland,VBO,4.755031,52.731646
Cumulus,3,,,1747EH,Tuitjenhorn,Schagen,Noord-Holland,VBO,4.755007,52.731343
Cumulus,4,,,1747EH,Tuitjenhorn,Schagen,Noord-Holland,VBO,4.754757,52.731666
Cumulus,5,,,1747EH,Tuitjenhorn,Schagen,Noord-Holland,VBO,4.754868,52.731404
Cumulus,6,,,1747EH,Tuitjenhorn,Schagen,Noord-Holland,VBO,4.754504,52.731688
Cumulus,7,,,1747EH,Tuitjenhorn,Schagen,Noord-Holland,VBO,4.754727,52.731422
Cumulus,8,,,1747EH,Tuitjenhorn,Schagen,Noord-Holland,VBO,4.754182,52.731782
Cumulus,9,,,1747EH,Tuitjenhorn,Schagen,Noord-Holland,VBO,4.754548,52.731371
Cumulus,10,,,1747EH,Tuitjenhorn,Schagen,Noord-Holland,VBO,4.753985,52.731693
Cumulus,11,,,1747EH,Tuitjenhorn,Schagen,Noord-Holland,VBO,4.754415,52.731389
Cumulus,12,,,1747EH,Tuitjenhorn,Schagen,Noord-Holland,VBO,4.754019,52.731618
Cumulus,13,,,1747EH,Tuitjenhorn,Schagen,Noord-Holland,VBO,4.754395,52.731204
Cumulus,14,,,1747EH,Tuitjenhorn,Schagen,Noord-Holland,VBO,4.753994,52.731515
Cumulus,15,,,1747EH,Tuitjenhorn,Schagen,Noord-Holland,VBO,4.754395,52.731068
Cumulus,16,,,1747EH,Tuitjenhorn,Schagen,Noord-Holland,VBO,4.753981,52.731461
Cumulus,17,,,1747EH,Tuitjenhorn,Schagen,Noord-Holland,VBO,4.754333,52.730955
Cumulus,18,,,1747EH,Tuitjenhorn,Schagen,Noord-Holland,VBO,4.753958,52.731367
Cumulus,20,,,1747EH,Tuitjenhorn,Schagen,Noord-Holland,VBO,4.753944,52.731309
Cumulus,22,,,1747EH,Tuitjenhorn,Schagen,Noord-Holland,VBO,4.753933,52.731191
Cumulus,24,,,1747EH,Tuitjenhorn,Schagen,Noord-Holland,VBO,4.753918,52.731067
Cumulus,26,,,1747EH,Tuitjenhorn,Schagen,Noord-Holland,VBO,4.753914,52.730921
Corona,2,,,1747EJ,Tuitjenhorn,Schagen,Noord-Holland,VBO,4.754995,52.731118
Corona,4,,,1747EJ,Tuitjenhorn,Schagen,Noord-Holland,VBO,4.754940,52.730986
Corona,6,,,1747EJ,Tuitjenhorn,Schagen,Noord-Holland,VBO,4.754913,52.730839
Rietkraag,1,,,1747EL,Tuitjenhorn,Schagen,Noord-Holland,VBO,4.751124,52.739080
Rietkraag,3,,,1747EL,Tuitjenhorn,Schagen,Noord-Holland,VBO,4.751107,52.739035
Rietkraag,5,,,1747EL,Tuitjenhorn,Schagen,Noord-Holland,VBO,4.751090,52.738981
Rietkraag,7,,,1747EL,Tuitjenhorn,Schagen,Noord-Holland,VBO,4.751073,52.738916
Rietkraag,9,,,1747EL,Tuitjenhorn,Schagen,Noord-Holland,VBO,4.751046,52.738854
Rietkraag,11,,,1747EL,Tuitjenhorn,Schagen,Noord-Holland,VBO,4.751015,52.738790
Rietkraag,13,,,1747EL,Tuitjenhorn,Schagen,Noord-Holland,VBO,4.750904,52.738525
Rietkraag,15,,,1747EL,Tuitjenhorn,Schagen,Noord-Holland,VBO,4.750875,52.738457
Rietkraag,17,,,1747EL,Tuitjenhorn,Schagen,Noord-Holland,VBO,4.750848,52.738397
Rietkraag,19,,,1747EL,Tuitjenhorn,Schagen,Noord-Holland,VBO,4.750816,52.738322
Rietkraag,21,,,1747EL,Tuitjenhorn,Schagen,Noord-Holland,VBO,4.750832,52.738243
Rietkraag,23,,,1747EL,Tuitjenhorn,Schagen,Noord-Holland,VBO,4.750839,52.738190
Rietkraag,25,,,1747EL,Tuitjenhorn,Schagen,Noord-Holland,VBO,4.750847,52.738125
Rietkraag,27,,,1747EL,Tuitjenhorn,Schagen,Noord-Holland,VBO,4.750856,52.738055
Rietkraag,29,,,1747EL,Tuitjenhorn,Schagen,Noord-Holland,VBO,4.751135,52.738168
Rietkraag,31,,,1747EL,Tuitjenhorn,Schagen,Noord-Holland,VBO,4.751222,52.738172
Rietkraag,33,,,1747EL,Tuitjenhorn,Schagen,Noord-Holland,VBO,4.751449,52.738143
Rietkraag,35,,,1747EL,Tuitjenhorn,Schagen,Noord-Holland,VBO,4.751533,52.738133
Rietkraag,37,,,1747EL,Tuitjenhorn,Schagen,Noord-Holland,VBO,4.751695,52.738112
Rietkraag,39,,,1747EL,Tuitjenhorn,Schagen,Noord-Holland,VBO,4.751785,52.738103
Rietkraag,41,,,1747EL,Tuitjenhorn,Schagen,Noord-Holland,VBO,4.752272,52.738070
Rietkraag,43,,,1747EL,Tuitjenhorn,Schagen,Noord-Holland,VBO,4.752258,52.738033
Rietkraag,45,,,1747EL,Tuitjenhorn,Schagen,Noord-Holland,VBO,4.752222,52.737930
Rietkraag,47,,,1747EL,Tuitjenhorn,Schagen,Noord-Holland,VBO,4.752202,52.737872
Rietkraag,49,,,1747EL,Tuitjenhorn,Schagen,Noord-Holland,VBO,4.752143,52.737757
Rietkraag,51,,,1747EL,Tuitjenhorn,Schagen,Noord-Holland,VBO,4.752149,52.737709
Rietkraag,53,,,1747EL,Tuitjenhorn,Schagen,Noord-Holland,VBO,4.752149,52.737595
Rietkraag,55,,,1747EL,Tuitjenhorn,Schagen,Noord-Holland,VBO,4.752148,52.737555
Rietkraag,6,,,1747EM,Tuitjenhorn,Schagen,Noord-Holland,VBO,4.750594,52.738832
Rietkraag,8,,,1747EM,Tuitjenhorn,Schagen,Noord-Holland,VBO,4.750576,52.738779
Rietkraag,10,a,,1747EM,Tuitjenhorn,Schagen,Noord-Holland,VBO,4.750172,52.737974
Rietkraag,10,,,1747EM,Tuitjenhorn,Schagen,Noord-Holland,VBO,4.750688,52.737795
Rietkraag,12,,,1747EM,Tuitjenhorn,Schagen,Noord-Holland,VBO,4.750919,52.737802
Rietkraag,14,,,1747EM,Tuitjenhorn,Schagen,Noord-Holland,VBO,4.751092,52.737799
Rietkraag,16,,,1747EM,Tuitjenhorn,Schagen,Noord-Holland,VBO,4.751179,52.737804
Rietkraag,18,,,1747EM,Tuitjenhorn,Schagen,Noord-Holland,VBO,4.751349,52.737842
Rietkraag,20,,,1747EM,Tuitjenhorn,Schagen,Noord-Holland,VBO,4.751415,52.737845
Rietkraag,22,,,1747EM,Tuitjenhorn,Schagen,Noord-Holland,VBO,4.751752,52.737867
Rietkraag,24,,,1747EM,Tuitjenhorn,Schagen,Noord-Holland,VBO,4.751758,52.737821
Rietkraag,26,,,1747EM,Tuitjenhorn,Schagen,Noord-Holland,VBO,4.751791,52.737710
Rietkraag,28,,,1747EM,Tuitjenhorn,Schagen,Noord-Holland,VBO,4.751796,52.737666
Zwanebloem,1,,,1747EN,Tuitjenhorn,Schagen,Noord-Holland,VBO,4.751314,52.738720
Zwanebloem,2,,,1747EN,Tuitjenhorn,Schagen,Noord-Holland,VBO,4.751252,52.738486
Zwanebloem,3,,,1747EN,Tuitjenhorn,Schagen,Noord-Holland,VBO,4.751414,52.738706
Zwanebloem,4,,,1747EN,Tuitjenhorn,Schagen,Noord-Holland,VBO,4.751337,52.738474
Zwanebloem,5,,,1747EN,Tuitjenhorn,Schagen,Noord-Holland,VBO,4.751572,52.738680
Zwanebloem,6,,,1747EN,Tuitjenhorn,Schagen,Noord-Holland,VBO,4.751541,52.738449
Zwanebloem,7,,,1747EN,Tuitjenhorn,Schagen,Noord-Holland,VBO,4.751655,52.738668
Zwanebloem,8,,,1747EN,Tuitjenhorn,Schagen,Noord-Holland,VBO,4.751628,52.738413
Zwanebloem,9,,,1747EN,Tuitjenhorn,Schagen,Noord-Holland,VBO,4.752015,52.738621
Zwanebloem,10,,,1747EN,Tuitjenhorn,Schagen,Noord-Holland,VBO,4.751825,52.738387
Zwanebloem,11,,,1747EN,Tuitjenhorn,Schagen,Noord-Holland,VBO,4.752103,52.738610
Zwanebloem,12,,,1747EN,Tuitjenhorn,Schagen,Noord-Holland,VBO,4.751924,52.738404
Zwanebloem,13,,,1747EN,Tuitjenhorn,Schagen,Noord-Holland,VBO,4.752263,52.738588
Zwanebloem,14,,,1747EN,Tuitjenhorn,Schagen,Noord-Holland,VBO,4.752286,52.738324
Zwanebloem,15,,,1747EN,Tuitjenhorn,Schagen,Noord-Holland,VBO,4.752354,52.738574
Zwanebloem,16,,,1747EN,Tuitjenhorn,Schagen,Noord-Holland,VBO,4.752417,52.738285
Zwanebloem,18,,,1747EN,Tuitjenhorn,Schagen,Noord-Holland,VBO,4.752501,52.738275
Zwanebloem,20,,,1747EN,Tuitjenhorn,Schagen,Noord-Holland,VBO,4.752668,52.738255
Zwanebloem,22,,,1747EN,Tuitjenhorn,Schagen,Noord-Holland,VBO,4.752753,52.738245
Zwanebloem,24,,,1747EN,Tuitjenhorn,Schagen,Noord-Holland,VBO,4.752866,52.738274
Pastoor Meijndersstraat,1,,,1747ER,Tuitjenhorn,Schagen,Noord-Holland,VBO,4.755096,52.740181
Pastoor Meijndersstraat,2,,,1747ER,Tuitjenhorn,Schagen,Noord-Holland,VBO,4.754794,52.740385
Pastoor Meijndersstraat,3,,,1747ER,Tuitjenhorn,Schagen,Noord-Holland,VBO,4.755027,52.740135
Pastoor Meijndersstraat,4,,,1747ER,Tuitjenhorn,Schagen,Noord-Holland,VBO,4.754291,52.740336
Pastoor Meijndersstraat,5,,,1747ER,Tuitjenhorn,Schagen,Noord-Holland,VBO,4.754902,52.740046
Pastoor Meijndersstraat,6,,,1747ER,Tuitjenhorn,Schagen,Noord-Holland,VBO,4.754277,52.740291
Pastoor Meijndersstraat,7,,,1747ER,Tuitjenhorn,Schagen,Noord-Holland,VBO,4.754833,52.739998
Pastoor Meijndersstraat,8,,,1747ER,Tuitjenhorn,Schagen,Noord-Holland,VBO,4.754255,52.740229
Pastoor Meijndersstraat,9,,,1747ER,Tuitjenhorn,Schagen,Noord-Holland,VBO,4.754718,52.739913
Pastoor Meijndersstraat,10,,,1747ER,Tuitjenhorn,Schagen,Noord-Holland,VBO,4.754238,52.740178
Pastoor Meijndersstraat,11,,,1747ER,Tuitjenhorn,Schagen,Noord-Holland,VBO,4.754642,52.739861
Pastoor Meijndersstraat,12,,,1747ER,Tuitjenhorn,Schagen,Noord-Holland,VBO,4.754151,52.740116
Pastoor Meijndersstraat,14,,,1747ER,Tuitjenhorn,Schagen,Noord-Holland,VBO,4.754165,52.740044
Pastoor Meijndersstraat,15,,,1747ER,Tuitjenhorn,Schagen,Noord-Holland,VBO,4.753696,52.738760
Pastoor Meijndersstraat,16,,,1747ER,Tuitjenhorn,Schagen,Noord-Holland,VBO,4.754145,52.739994
Pastoor Meijndersstraat,17,,,1747ER,Tuitjenhorn,Schagen,Noord-Holland,VBO,4.753498,52.738756
Pastoor Meijndersstraat,18,,,1747ER,Tuitjenhorn,Schagen,Noord-Holland,VBO,4.754067,52.739953
Pastoor Meijndersstraat,19,,,1747ER,Tuitjenhorn,Schagen,Noord-Holland,VBO,4.753254,52.738754
Pastoor Meijndersstraat,20,,,1747ER,Tuitjenhorn,Schagen,Noord-Holland,VBO,4.754116,52.739832
Pastoor Meijndersstraat,21,,,1747ER,Tuitjenhorn,Schagen,Noord-Holland,VBO,4.752470,52.738907
Pastoor Meijndersstraat,22,,,1747ER,Tuitjenhorn,Schagen,Noord-Holland,VBO,4.754101,52.739786
Pastoor Meijndersstraat,23,,,1747ER,Tuitjenhorn,Schagen,Noord-Holland,VBO,4.752343,52.738912
Pastoor Meijndersstraat,24,,,1747ER,Tuitjenhorn,Schagen,Noord-Holland,VBO,4.754083,52.739730
Pastoor Meijndersstraat,25,,,1747ER,Tuitjenhorn,Schagen,Noord-Holland,VBO,4.752233,52.738925
Pastoor Meijndersstraat,26,,,1747ER,Tuitjenhorn,Schagen,Noord-Holland,VBO,4.754068,52.739685
Pastoor Meijndersstraat,27,,,1747ER,Tuitjenhorn,Schagen,Noord-Holland,VBO,4.752125,52.738946
Pastoor Meijndersstraat,28,,,1747ER,Tuitjenhorn,Schagen,Noord-Holland,VBO,4.754062,52.739635
Pastoor Meijndersstraat,29,,,1747ER,Tuitjenhorn,Schagen,Noord-Holland,VBO,4.751807,52.738985
Pastoor Meijndersstraat,30,,,1747ER,Tuitjenhorn,Schagen,Noord-Holland,VBO,4.753845,52.739066
Pastoor Meijndersstraat,31,,,1747ER,Tuitjenhorn,Schagen,Noord-Holland,VBO,4.751670,52.739001
Pastoor Meijndersstraat,32,,,1747ER,Tuitjenhorn,Schagen,Noord-Holland,VBO,4.753756,52.739057
Pastoor Meijndersstraat,33,,,1747ER,Tuitjenhorn,Schagen,Noord-Holland,VBO,4.751541,52.739038
Pastoor Meijndersstraat,34,,,1747ER,Tuitjenhorn,Schagen,Noord-Holland,VBO,4.753698,52.739052
Pastoor Meijndersstraat,35,,,1747ER,Tuitjenhorn,Schagen,Noord-Holland,VBO,4.751452,52.739038
Pastoor Meijndersstraat,36,,,1747ER,Tuitjenhorn,Schagen,Noord-Holland,VBO,4.753422,52.739030
Pastoor Meijndersstraat,38,,,1747ER,Tuitjenhorn,Schagen,Noord-Holland,VBO,4.753193,52.739066
Pastoor Meijndersstraat,40,,,1747ER,Tuitjenhorn,Schagen,Noord-Holland,VBO,4.752964,52.739109
Pastoor Meijndersstraat,41,,,1747ER,Tuitjenhorn,Schagen,Noord-Holland,VBO,4.750197,52.739399
Pastoor Meijndersstraat,42,,,1747ER,Tuitjenhorn,Schagen,Noord-Holland,VBO,4.752718,52.739129
Pastoor Meijndersstraat,43,,,1747ER,Tuitjenhorn,Schagen,Noord-Holland,VBO,4.750183,52.739285
Pastoor Meijndersstraat,48,,,1747ER,Tuitjenhorn,Schagen,Noord-Holland,VBO,4.750030,52.739649
De Snoekbaars,1,,,1747ES,Tuitjenhorn,Schagen,Noord-Holland,VBO,4.754959,52.739275
De Snoekbaars,2,,,1747ES,Tuitjenhorn,Schagen,Noord-Holland,VBO,4.754744,52.739544
De Snoekbaars,3,,,1747ES,Tuitjenhorn,Schagen,Noord-Holland,VBO,4.754695,52.739308
De Snoekbaars,4,,,1747ES,Tuitjenhorn,Schagen,Noord-Holland,VBO,4.754529,52.739593
De Snoekbaars,5,,,1747ES,Tuitjenhorn,Schagen,Noord-Holland,VBO,4.754436,52.739338
De Snoekbaars,7,,,1747ES,Tuitjenhorn,Schagen,Noord-Holland,VBO,4.753967,52.739351
De Snoekbaars,9,,,1747ES,Tuitjenhorn,Schagen,Noord-Holland,VBO,4.753874,52.739402
De Snoekbaars,11,,,1747ES,Tuitjenhorn,Schagen,Noord-Holland,VBO,4.753801,52.739410
De Snoekbaars,13,,,1747ES,Tuitjenhorn,Schagen,Noord-Holland,VBO,4.753588,52.739456
De Snoekbaars,15,,,1747ES,Tuitjenhorn,Schagen,Noord-Holland,VBO,4.753385,52.739471
De Snoekbaars,17,,,1747ES,Tuitjenhorn,Schagen,Noord-Holland,VBO,4.753119,52.739502
De Snoekbaars,19,,,1747ES,Tuitjenhorn,Schagen,Noord-Holland,VBO,4.752874,52.739525
De Zeelt,1,,,1747ET,Tuitjenhorn,Schagen,Noord-Holland,VBO,4.754981,52.738629
De Zeelt,2,,,1747ET,Tuitjenhorn,Schagen,Noord-Holland,VBO,4.755525,52.739991
De Zeelt,3,,,1747ET,Tuitjenhorn,Schagen,Noord-Holland,VBO,4.754734,52.738633
De Zeelt,4,,,1747ET,Tuitjenhorn,Schagen,Noord-Holland,VBO,4.755482,52.739878
De Zeelt,5,,,1747ET,Tuitjenhorn,Schagen,Noord-Holland,VBO,4.754548,52.738666
De Zeelt,6,,,1747ET,Tuitjenhorn,Schagen,Noord-Holland,VBO,4.755339,52.739774
De Zeelt,7,,,1747ET,Tuitjenhorn,Schagen,Noord-Holland,VBO,4.754345,52.738692
De Zeelt,8,,,1747ET,Tuitjenhorn,Schagen,Noord-Holland,VBO,4.755242,52.739664
De Zeelt,9,,,1747ET,Tuitjenhorn,Schagen,Noord-Holland,VBO,4.754125,52.738717
De Zeelt,10,,,1747ET,Tuitjenhorn,Schagen,Noord-Holland,VBO,4.755124,52.739533
De Zeelt,11,,,1747ET,Tuitjenhorn,Schagen,Noord-Holland,VBO,4.753911,52.738744
De Zeelt,12,,,1747ET,Tuitjenhorn,Schagen,Noord-Holland,VBO,4.755031,52.738903
De Zeelt,14,,,1747ET,Tuitjenhorn,Schagen,Noord-Holland,VBO,4.754923,52.738898
De Zeelt,16,,,1747ET,Tuitjenhorn,Schagen,Noord-Holland,VBO,4.754691,52.738915
De Zeelt,18,,,1747ET,Tuitjenhorn,Schagen,Noord-Holland,VBO,4.754598,52.738923
De Zeelt,20,,,1747ET,Tuitjenhorn,Schagen,Noord-Holland,VBO,4.754366,52.738949
De Zeelt,22,,,1747ET,Tuitjenhorn,Schagen,Noord-Holland,VBO,4.754269,52.738962
De Zon,1,,,1747EX,Tuitjenhorn,Schagen,Noord-Holland,VBO,4.747501,52.734387
De Zon,2,,,1747EX,Tuitjenhorn,Schagen,Noord-Holland,VBO,4.749325,52.733926
De Zon,3,,,1747EX,Tuitjenhorn,Schagen,Noord-Holland,VBO,4.747570,52.734575
De Zon,4,,,1747EX,Tuitjenhorn,Schagen,Noord-Holland,VBO,4.749526,52.733927
De Zon,5,,,1747EX,Tuitjenhorn,Schagen,Noord-Holland,VBO,4.747665,52.734659
De Zon,6,,,1747EX,Tuitjenhorn,Schagen,Noord-Holland,VBO,4.749494,52.733870
De Zon,7,,,1747EX,Tuitjenhorn,Schagen,Noord-Holland,VBO,4.747779,52.734713
De Zon,8,,,1747EX,Tuitjenhorn,Schagen,Noord-Holland,VBO,4.749594,52.733896
De Zon,9,,,1747EX,Tuitjenhorn,Schagen,Noord-Holland,VBO,4.747600,52.734378
De Zon,10,,,1747EX,Tuitjenhorn,Schagen,Noord-Holland,VBO,4.749689,52.733888
De Zon,11,,,1747EX,Tuitjenhorn,Schagen,Noord-Holland,VBO,4.747618,52.734478
De Zon,12,,,1747EX,Tuitjenhorn,Schagen,Noord-Holland,VBO,4.749584,52.733839
De Zon,13,,,1747EX,Tuitjenhorn,Schagen,Noord-Holland,VBO,4.747641,52.734557
De Zon,14,,,1747EX,Tuitjenhorn,Schagen,Noord-Holland,VBO,4.749677,52.733839
De Zon,15,,,1747EX,Tuitjenhorn,Schagen,Noord-Holland,VBO,4.747726,52.734626
De Zon,16,,,1747EX,Tuitjenhorn,Schagen,Noord-Holland,VBO,4.749656,52.733596
De Zon,17,,,1747EX,Tuitjenhorn,Schagen,Noord-Holland,VBO,4.747823,52.734676
De Zon,19,,,1747EX,Tuitjenhorn,Schagen,Noord-Holland,VBO,4.747694,52.734378
De Zon,21,,,1747EX,Tuitjenhorn,Schagen,Noord-Holland,VBO,4.747695,52.734477
De Zon,23,,,1747EX,Tuitjenhorn,Schagen,Noord-Holland,VBO,4.747721,52.734535
De Zon,25,,,1747EX,Tuitjenhorn,Schagen,Noord-Holland,VBO,4.747793,52.734593
De Zon,27,,,1747EX,Tuitjenhorn,Schagen,Noord-Holland,VBO,4.747804,52.734376
De Zon,29,,,1747EX,Tuitjenhorn,Schagen,Noord-Holland,VBO,4.748583,52.734226
De Zon,31,,,1747EX,Tuitjenhorn,Schagen,Noord-Holland,VBO,4.748584,52.734287
De Zon,33,,,1747EX,Tuitjenhorn,Schagen,Noord-Holland,VBO,4.748594,52.734392
De Zon,35,,,1747EX,Tuitjenhorn,Schagen,Noord-Holland,VBO,4.748606,52.734453
De Zon,37,,,1747EX,Tuitjenhorn,Schagen,Noord-Holland,VBO,4.749096,52.734434
De Zon,39,,,1747EX,Tuitjenhorn,Schagen,Noord-Holland,VBO,4.749089,52.734377
De Zon,41,,,1747EX,Tuitjenhorn,Schagen,Noord-Holland,VBO,4.749065,52.734272
De Zon,43,,,1747EX,Tuitjenhorn,Schagen,Noord-Holland,VBO,4.749060,52.734214
De Zon,45,,,1747EX,Tuitjenhorn,Schagen,Noord-Holland,VBO,4.749405,52.734347
De Zon,47,,,1747EX,Tuitjenhorn,Schagen,Noord-Holland,VBO,4.749615,52.734323
De Zon,49,,,1747EX,Tuitjenhorn,Schagen,Noord-Holland,VBO,4.749820,52.734299
De Zon,51,,,1747EX,Tuitjenhorn,Schagen,Noord-Holland,VBO,4.750024,52.734277
De Zon,53,,,1747EX,Tuitjenhorn,Schagen,Noord-Holland,VBO,4.750202,52.734159
De Zon,55,,,1747EX,Tuitjenhorn,Schagen,Noord-Holland,VBO,4.750158,52.733997
Oostwal,2,,,1747EZ,Tuitjenhorn,Schagen,Noord-Holland,VBO,4.745790,52.734644
Oostwal,4,,,1747EZ,Tuitjenhorn,Schagen,Noord-Holland,VBO,4.745122,52.734027
Oostwal,6,,,1747EZ,Tuitjenhorn,Schagen,Noord-Holland,VBO,4.744914,52.733501
Oostwal,21,,,1747EZ,Tuitjenhorn,Schagen,Noord-Holland,VBO,4.747559,52.733905
Oostwal,25,,,1747EZ,Tuitjenhorn,Schagen,Noord-Holland,VBO,4.747300,52.733236
Delftweg,1,,,1747GA,Tuitjenhorn,Schagen,Noord-Holland,VBO,4.748895,52.734848
Delftweg,2,a,,1747GA,Tuitjenhorn,Schagen,Noord-Holland,VBO,4.748754,52.735147
Delftweg,2,,,1747GA,Tuitjenhorn,Schagen,Noord-Holland,VBO,4.748903,52.735136
Delftweg,3,,,1747GA,Tuitjenhorn,Schagen,Noord-Holland,VBO,4.748706,52.734836
Delftweg,4,,,1747GA,Tuitjenhorn,Schagen,Noord-Holland,VBO,4.748562,52.735128
Delftweg,5,,,1747GA,Tuitjenhorn,Schagen,Noord-Holland,VBO,4.748470,52.734832
Delftweg,6,,,1747GA,Tuitjenhorn,Schagen,Noord-Holland,VBO,4.748339,52.735177
Delftweg,7,,,1747GA,Tuitjenhorn,Schagen,Noord-Holland,VBO,4.748189,52.734822
Delftweg,8,,,1747GA,Tuitjenhorn,Schagen,Noord-Holland,VBO,4.748095,52.735166
Delftweg,10,,,1747GA,Tuitjenhorn,Schagen,Noord-Holland,VBO,4.747577,52.735195
Delftweg,12,,,1747GA,Tuitjenhorn,Schagen,Noord-Holland,VBO,4.747376,52.735242
Delftweg,14,,,1747GA,Tuitjenhorn,Schagen,Noord-Holland,VBO,4.747118,52.735248
Delftweg,15,,,1747GA,Tuitjenhorn,Schagen,Noord-Holland,VBO,4.744269,52.735134
Delftweg,16,a,,1747GA,Tuitjenhorn,Schagen,Noord-Holland,VBO,4.746177,52.735468
Delftweg,16,,,1747GA,Tuitjenhorn,Schagen,Noord-Holland,VBO,4.746446,52.735347
Delftweg,17,,,1747GA,Tuitjenhorn,Schagen,Noord-Holland,VBO,4.743595,52.735240
Delftweg,20,,,1747GA,Tuitjenhorn,Schagen,Noord-Holland,VBO,4.742326,52.735841
Bogaersstraat,1,,,1747GB,Tuitjenhorn,Schagen,Noord-Holland,VBO,4.747690,52.735410
Bogaersstraat,2,,,1747GB,Tuitjenhorn,Schagen,Noord-Holland,VBO,4.748091,52.735465
Bogaersstraat,3,,,1747GB,Tuitjenhorn,Schagen,Noord-Holland,VBO,4.747684,52.735544
Bogaersstraat,4,,,1747GB,Tuitjenhorn,Schagen,Noord-Holland,VBO,4.748090,52.735599
Bogaersstraat,5,,,1747GB,Tuitjenhorn,Schagen,Noord-Holland,VBO,4.747674,52.735666
Bogaersstraat,6,,,1747GB,Tuitjenhorn,Schagen,Noord-Holland,VBO,4.748071,52.735723
Bogaersstraat,7,,,1747GB,Tuitjenhorn,Schagen,Noord-Holland,VBO,4.747648,52.735798
Bogaersstraat,8,,,1747GB,Tuitjenhorn,Schagen,Noord-Holland,VBO,4.748116,52.735848
Bogaersstraat,9,,,1747GB,Tuitjenhorn,Schagen,Noord-Holland,VBO,4.747627,52.735914
Bogaersstraat,10,,,1747GB,Tuitjenhorn,Schagen,Noord-Holland,VBO,4.748100,52.735979
Bogaersstraat,11,,,1747GB,Tuitjenhorn,Schagen,Noord-Holland,VBO,4.747581,52.736059
Bogaersstraat,12,,,1747GB,Tuitjenhorn,Schagen,Noord-Holland,VBO,4.748099,52.736094
Bogaersstraat,13,,,1747GB,Tuitjenhorn,Schagen,Noord-Holland,VBO,4.747621,52.736166
Bogaersstraat,14,,,1747GB,Tuitjenhorn,Schagen,Noord-Holland,VBO,4.748132,52.736250
Bogaersstraat,15,,,1747GB,Tuitjenhorn,Schagen,Noord-Holland,VBO,4.747624,52.736302
Koorndijk,7,,,1747GC,Tuitjenhorn,Schagen,Noord-Holland,VBO,4.760185,52.733018
Koorndijk,9,,,1747GC,Tuitjenhorn,Schagen,Noord-Holland,VBO,4.759942,52.733074
Koorndijk,15,,,1747GC,Tuitjenhorn,Schagen,Noord-Holland,VBO,4.758502,52.733335
Koorndijk,19,,,1747GC,Tuitjenhorn,Schagen,Noord-Holland,VBO,4.756905,52.733434
Koorndijk,23,,,1747GC,Tuitjenhorn,Schagen,Noord-Holland,VBO,4.755227,52.733822
Koorndijk,25,,,1747GC,Tuitjenhorn,Schagen,Noord-Holland,VBO,4.755040,52.733848
Koorndijk,27,,,1747GC,Tuitjenhorn,Schagen,Noord-Holland,VBO,4.754832,52.733877
Koorndijk,29,,,1747GC,Tuitjenhorn,Schagen,Noord-Holland,VBO,4.754539,52.733823
Koorndijk,31,a,,1747GC,Tuitjenhorn,Schagen,Noord-Holland,VBO,4.753951,52.733889
Koorndijk,31,,,1747GC,Tuitjenhorn,Schagen,Noord-Holland,VBO,4.754232,52.733833
Koorndijk,33,,,1747GC,Tuitjenhorn,Schagen,Noord-Holland,VBO,4.753382,52.733889
Koorndijk,35,,,1747GC,Tuitjenhorn,Schagen,Noord-Holland,VBO,4.751838,52.734100
Koorndijk,37,,,1747GC,Tuitjenhorn,Schagen,Noord-Holland,VBO,4.751606,52.734124
Koorndijk,39,a,,1747GC,Tuitjenhorn,Schagen,Noord-Holland,VBO,4.750984,52.734278
Koorndijk,39,,,1747GC,Tuitjenhorn,Schagen,Noord-Holland,VBO,4.751240,52.734246
Koorndijk,41,,,1747GC,Tuitjenhorn,Schagen,Noord-Holland,VBO,4.750747,52.734452
Koorndijk,43,,,1747GC,Tuitjenhorn,Schagen,Noord-Holland,VBO,4.750356,52.734445
Koorndijk,45,a,,1747GC,Tuitjenhorn,Schagen,Noord-Holland,VBO,4.749804,52.734600
Koorndijk,45,,,1747GC,Tuitjenhorn,Schagen,Noord-Holland,VBO,4.750036,52.734561
Koorndijk,47,a,,1747GC,Tuitjenhorn,Schagen,Noord-Holland,VBO,4.749461,52.734740
Koorndijk,47,,,1747GC,Tuitjenhorn,Schagen,Noord-Holland,VBO,4.749616,52.734659
Koorndijk,49,t,,1747GC,Tuitjenhorn,Schagen,Noord-Holland,VBO,4.749194,52.734776
Koorndijk,49,,,1747GC,Tuitjenhorn,Schagen,Noord-Holland,VBO,4.749379,52.734817
Koorndijk,2,,,1747GD,Tuitjenhorn,Schagen,Noord-Holland,VBO,4.761830,52.733040
Koorndijk,4,,,1747GD,Tuitjenhorn,Schagen,Noord-Holland,VBO,4.761372,52.733072
Koorndijk,6,,,1747GD,Tuitjenhorn,Schagen,Noord-Holland,VBO,4.761164,52.733098
Koorndijk,8,,,1747GD,Tuitjenhorn,Schagen,Noord-Holland,VBO,4.760893,52.733080
Koorndijk,10,,,1747GD,Tuitjenhorn,Schagen,Noord-Holland,VBO,4.760697,52.733119
Koorndijk,14,,,1747GD,Tuitjenhorn,Schagen,Noord-Holland,VBO,4.759510,52.733561
Koorndijk,16,a,,1747GD,Tuitjenhorn,Schagen,Noord-Holland,VBO,4.758835,52.733767
Koorndijk,16,b,,1747GD,Tuitjenhorn,Schagen,Noord-Holland,VBO,4.759052,52.733506
Koorndijk,16,,,1747GD,Tuitjenhorn,Schagen,Noord-Holland,VBO,4.758777,52.733564
Koorndijk,18,,,1747GD,Tuitjenhorn,Schagen,Noord-Holland,VBO,4.758436,52.733613
Koorndijk,20,,,1747GD,Tuitjenhorn,Schagen,Noord-Holland,VBO,4.758249,52.733636
Koorndijk,24,a,,1747GD,Tuitjenhorn,Schagen,Noord-Holland,VBO,4.757200,52.733846
Koorndijk,24,,,1747GD,Tuitjenhorn,Schagen,Noord-Holland,VBO,4.757636,52.733713
Koorndijk,26,,,1747GD,Tuitjenhorn,Schagen,Noord-Holland,VBO,4.756709,52.733937
Koorndijk,28,,,1747GD,Tuitjenhorn,Schagen,Noord-Holland,VBO,4.755550,52.734062
Koorndijk,30,,,1747GD,Tuitjenhorn,Schagen,Noord-Holland,VBO,4.755019,52.734074
Koorndijk,32,,,1747GD,Tuitjenhorn,Schagen,Noord-Holland,VBO,4.754945,52.734082
Koorndijk,34,,,1747GD,Tuitjenhorn,Schagen,Noord-Holland,VBO,4.754758,52.734104
Koorndijk,36,,,1747GD,Tuitjenhorn,Schagen,Noord-Holland,VBO,4.754685,52.734113
Koorndijk,38,,,1747GD,Tuitjenhorn,Schagen,Noord-Holland,VBO,4.754470,52.734137
Koorndijk,66,,,1747GD,Tuitjenhorn,Schagen,Noord-Holland,VBO,4.751931,52.734518
Koorndijk,68,,,1747GD,Tuitjenhorn,Schagen,Noord-Holland,VBO,4.751694,52.734559
Koorndijk,70,,,1747GD,Tuitjenhorn,Schagen,Noord-Holland,VBO,4.751483,52.734591
Koorndijk,72,,,1747GD,Tuitjenhorn,Schagen,Noord-Holland,VBO,4.751244,52.734620
Koorndijk,74,,,1747GD,Tuitjenhorn,Schagen,Noord-Holland,VBO,4.751015,52.734624
Koorndijk,76,,,1747GD,Tuitjenhorn,Schagen,Noord-Holland,VBO,4.750803,52.734678
Koorndijk,78,,,1747GD,Tuitjenhorn,Schagen,Noord-Holland,VBO,4.750539,52.734686
Koorndijk,80,,,1747GD,Tuitjenhorn,Schagen,Noord-Holland,VBO,4.750351,52.734725
Koorndijk,82,t,,1747GD,Tuitjenhorn,Schagen,Noord-Holland,VBO,4.749941,52.734849
Koorndijk,82,,,1747GD,Tuitjenhorn,Schagen,Noord-Holland,VBO,4.750149,52.734798
Koorndijk,84,a,,1747GD,Tuitjenhorn,Schagen,Noord-Holland,VBO,4.749652,52.735063
Koorndijk,84,,,1747GD,Tuitjenhorn,Schagen,Noord-Holland,VBO,4.749708,52.734885
Kalverdijkerlaantje,3,,,1747GE,Tuitjenhorn,Schagen,Noord-Holland,VBO,4.759933,52.739199
Kalverdijkerlaantje,5,,,1747GE,Tuitjenhorn,Schagen,Noord-Holland,VBO,4.759812,52.738909
Kalverdijkerlaantje,7,,,1747GE,Tuitjenhorn,Schagen,Noord-Holland,VBO,4.759813,52.738594
Kalverdijkerlaantje,9,a,,1747GE,Tuitjenhorn,Schagen,Noord-Holland,VBO,4.761321,52.737284
Kalverdijkerlaantje,9,,,1747GE,Tuitjenhorn,Schagen,Noord-Holland,VBO,4.761155,52.736972
Kalverdijkerlaantje,21,,,1747GE,Tuitjenhorn,Schagen,Noord-Holland,VBO,4.761032,52.734732
Kalverdijkerlaantje,23,,,1747GE,Tuitjenhorn,Schagen,Noord-Holland,VBO,4.761058,52.734673
Kalverdijkerlaantje,27,a,,1747GE,Tuitjenhorn,Schagen,Noord-Holland,VBO,4.761868,52.734045
Kalverdijkerlaantje,27,,,1747GE,Tuitjenhorn,Schagen,Noord-Holland,VBO,4.761423,52.734156
Kalverdijkerlaantje,31,,,1747GE,Tuitjenhorn,Schagen,Noord-Holland,VBO,4.761873,52.733628
Kalverdijkerlaantje,33,,,1747GE,Tuitjenhorn,Schagen,Noord-Holland,VBO,4.762009,52.733376
Kalverdijkerlaantje,35,,,1747GE,Tuitjenhorn,Schagen,Noord-Holland,VBO,4.762287,52.733150
Kalverdijkerlaantje,2,,,1747GG,Tuitjenhorn,Schagen,Noord-Holland,VBO,4.759026,52.739236
Kalverdijkerlaantje,4,,,1747GG,Tuitjenhorn,Schagen,Noord-Holland,VBO,4.759407,52.739272
Kalverdijkerlaantje,6,,,1747GG,Tuitjenhorn,Schagen,Noord-Holland,VBO,4.759473,52.738954
Kalverdijkerlaantje,10,a,,1747GG,Tuitjenhorn,Schagen,Noord-Holland,VBO,4.759020,52.738785
Kalverdijkerlaantje,10,,,1747GG,Tuitjenhorn,Schagen,Noord-Holland,VBO,4.759271,52.738760
Kalverdijkerlaantje,14,,,1747GG,Tuitjenhorn,Schagen,Noord-Holland,VBO,4.759542,52.738184
Kalverdijkerlaantje,16,,,1747GG,Tuitjenhorn,Schagen,Noord-Holland,VBO,4.759837,52.738192
Kalverdijkerlaantje,20,,,1747GG,Tuitjenhorn,Schagen,Noord-Holland,VBO,4.760172,52.738153
Kalverdijkerlaantje,30,,,1747GG,Tuitjenhorn,Schagen,Noord-Holland,VBO,4.760121,52.736091
Kalverdijkerlaantje,34,,,1747GG,Tuitjenhorn,Schagen,Noord-Holland,VBO,4.760992,52.733959
Kalverdijkerlaantje,36,,,1747GG,Tuitjenhorn,Schagen,Noord-Holland,VBO,4.761092,52.733764
Kalverdijkerlaantje,38,,,1747GG,Tuitjenhorn,Schagen,Noord-Holland,VBO,4.761235,52.733605
Kalverdijkerlaantje,40,,,1747GG,Tuitjenhorn,Schagen,Noord-Holland,VBO,4.761308,52.733468
Kalverdijkerlaantje,42,,,1747GG,Tuitjenhorn,Schagen,Noord-Holland,VBO,4.761602,52.733130
Kalverdijk,1,a,,1747GH,Tuitjenhorn,Schagen,Noord-Holland,VBO,4.776840,52.731582
Kalverdijk,1,,,1747GH,Tuitjenhorn,Schagen,Noord-Holland,VBO,4.776483,52.731885
Kalverdijk,3,,,1747GH,Tuitjenhorn,Schagen,Noord-Holland,VBO,4.776113,52.731896
Kalverdijk,5,,,1747GH,Tuitjenhorn,Schagen,Noord-Holland,VBO,4.775798,52.731899
Kalverdijk,7,,,1747GH,Tuitjenhorn,Schagen,Noord-Holland,VBO,4.775563,52.731914
Kalverdijk,9,,,1747GH,Tuitjenhorn,Schagen,Noord-Holland,VBO,4.775294,52.731919
Kalverdijk,11,,,1747GH,Tuitjenhorn,Schagen,Noord-Holland,VBO,4.774563,52.731834
Kalverdijk,13,,,1747GH,Tuitjenhorn,Schagen,Noord-Holland,VBO,4.774322,52.731853
Kalverdijk,15,,,1747GH,Tuitjenhorn,Schagen,Noord-Holland,VBO,4.774067,52.731848
Kalverdijk,17,,,1747GH,Tuitjenhorn,Schagen,Noord-Holland,VBO,4.773698,52.731932
Kalverdijk,19,,,1747GH,Tuitjenhorn,Schagen,Noord-Holland,VBO,4.773585,52.731928
Kalverdijk,21,,,1747GH,Tuitjenhorn,Schagen,Noord-Holland,VBO,4.773373,52.731956
Kalverdijk,23,,,1747GH,Tuitjenhorn,Schagen,Noord-Holland,VBO,4.773223,52.731933
Kalverdijk,25,,,1747GH,Tuitjenhorn,Schagen,Noord-Holland,VBO,4.772978,52.731856
Kalverdijk,27,,,1747GH,Tuitjenhorn,Schagen,Noord-Holland,VBO,4.772757,52.731796
Kalverdijk,29,,,1747GH,Tuitjenhorn,Schagen,Noord-Holland,VBO,4.772490,52.731797
Kalverdijk,31,,,1747GH,Tuitjenhorn,Schagen,Noord-Holland,VBO,4.772151,52.731795
Kalverdijk,33,,,1747GH,Tuitjenhorn,Schagen,Noord-Holland,VBO,4.771866,52.731875
Kalverdijk,37,,,1747GJ,Tuitjenhorn,Schagen,Noord-Holland,VBO,4.771419,52.731914
Kalverdijk,41,,,1747GJ,Tuitjenhorn,Schagen,Noord-Holland,VBO,4.771218,52.731937
Kalverdijk,43,,,1747GJ,Tuitjenhorn,Schagen,Noord-Holland,VBO,4.771085,52.731962
Kalverdijk,45,,,1747GJ,Tuitjenhorn,Schagen,Noord-Holland,VBO,4.771003,52.731979
Kalverdijk,47,,,1747GJ,Tuitjenhorn,Schagen,Noord-Holland,VBO,4.770709,52.732020
Kalverdijk,49,,,1747GJ,Tuitjenhorn,Schagen,Noord-Holland,VBO,4.770565,52.732041
Kalverdijk,51,,,1747GJ,Tuitjenhorn,Schagen,Noord-Holland,VBO,4.770333,52.732061
Kalverdijk,55,,,1747GJ,Tuitjenhorn,Schagen,Noord-Holland,VBO,4.770171,52.732063
Kalverdijk,57,a,,1747GJ,Tuitjenhorn,Schagen,Noord-Holland,VBO,4.769930,52.731981
Kalverdijk,57,,,1747GJ,Tuitjenhorn,Schagen,Noord-Holland,VBO,4.769894,52.732154
Kalverdijk,59,,,1747GJ,Tuitjenhorn,Schagen,Noord-Holland,VBO,4.769721,52.732195
Kalverdijk,61,,,1747GJ,Tuitjenhorn,Schagen,Noord-Holland,VBO,4.769617,52.732212
Kalverdijk,63,,,1747GJ,Tuitjenhorn,Schagen,Noord-Holland,VBO,4.769300,52.732285
Kalverdijk,67,,,1747GJ,Tuitjenhorn,Schagen,Noord-Holland,VBO,4.769056,52.732406
Kalverdijk,69,,,1747GJ,Tuitjenhorn,Schagen,Noord-Holland,VBO,4.768975,52.732421
Kalverdijk,71,,,1747GJ,Tuitjenhorn,Schagen,Noord-Holland,VBO,4.768839,52.732433
Kalverdijk,73,,,1747GJ,Tuitjenhorn,Schagen,Noord-Holland,VBO,4.768757,52.732450
Kalverdijk,75,,,1747GJ,Tuitjenhorn,Schagen,Noord-Holland,VBO,4.768641,52.732474
Kalverdijk,77,,,1747GJ,Tuitjenhorn,Schagen,Noord-Holland,VBO,4.768405,52.732471
Kalverdijk,79,,,1747GJ,Tuitjenhorn,Schagen,Noord-Holland,VBO,4.768344,52.732478
Kalverdijk,81,a,,1747GK,Tuitjenhorn,Schagen,Noord-Holland,VBO,4.768188,52.732249
Kalverdijk,81,,,1747GK,Tuitjenhorn,Schagen,Noord-Holland,VBO,4.768106,52.732464
Kalverdijk,83,,,1747GK,Tuitjenhorn,Schagen,Noord-Holland,VBO,4.768000,52.732510
Kalverdijk,85,,,1747GK,Tuitjenhorn,Schagen,Noord-Holland,VBO,4.767776,52.732533
Kalverdijk,87,,,1747GK,Tuitjenhorn,Schagen,Noord-Holland,VBO,4.767361,52.732558
Kalverdijk,91,,,1747GK,Tuitjenhorn,Schagen,Noord-Holland,VBO,4.766737,52.732437
Kalverdijk,93,,,1747GK,Tuitjenhorn,Schagen,Noord-Holland,VBO,4.766006,52.732427
Kalverdijk,95,,,1747GK,Tuitjenhorn,Schagen,Noord-Holland,VBO,4.765897,52.732427
Kalverdijk,97,,,1747GK,Tuitjenhorn,Schagen,Noord-Holland,VBO,4.765696,52.732402
Kalverdijk,99,,,1747GK,Tuitjenhorn,Schagen,Noord-Holland,VBO,4.765602,52.732428
Kalverdijk,101,,,1747GK,Tuitjenhorn,Schagen,Noord-Holland,VBO,4.765479,52.732399
Kalverdijk,103,,,1747GK,Tuitjenhorn,Schagen,Noord-Holland,VBO,4.765359,52.732463
Kalverdijk,105,,,1747GK,Tuitjenhorn,Schagen,Noord-Holland,VBO,4.765236,52.732454
Kalverdijk,107,,,1747GK,Tuitjenhorn,Schagen,Noord-Holland,VBO,4.765106,52.732481
Kalverdijk,109,,,1747GK,Tuitjenhorn,Schagen,Noord-Holland,VBO,4.764902,52.732500
Kalverdijk,111,,,1747GK,Tuitjenhorn,Schagen,Noord-Holland,VBO,4.764691,52.732524
Kalverdijk,113,,,1747GK,Tuitjenhorn,Schagen,Noord-Holland,VBO,4.764588,52.732530
Kalverdijk,115,,,1747GK,Tuitjenhorn,Schagen,Noord-Holland,VBO,4.764517,52.732541
Kalverdijk,117,a,,1747GK,Tuitjenhorn,Schagen,Noord-Holland,VBO,4.764346,52.732463
Kalverdijk,119,,,1747GK,Tuitjenhorn,Schagen,Noord-Holland,VBO,4.764227,52.732572
Kalverdijk,121,,,1747GK,Tuitjenhorn,Schagen,Noord-Holland,VBO,4.763839,52.732587
Kalverdijk,123,,,1747GK,Tuitjenhorn,Schagen,Noord-Holland,VBO,4.762874,52.732335
Kalverdijk,125,,,1747GK,Tuitjenhorn,Schagen,Noord-Holland,VBO,4.762193,52.732551
Kalverdijk,2,a,,1747GL,Tuitjenhorn,Schagen,Noord-Holland,VBO,4.776583,52.732350
Kalverdijk,2,b,,1747GL,Tuitjenhorn,Schagen,Noord-Holland,VBO,4.776688,52.732347
Kalverdijk,2,,,1747GL,Tuitjenhorn,Schagen,Noord-Holland,VBO,4.776677,52.732289
Kalverdijk,4,,,1747GL,Tuitjenhorn,Schagen,Noord-Holland,VBO,4.776336,52.732219
Kalverdijk,12,,,1747GL,Tuitjenhorn,Schagen,Noord-Holland,VBO,4.772670,52.732053
Kalverdijk,14,,,1747GL,Tuitjenhorn,Schagen,Noord-Holland,VBO,4.772096,52.732108
Kalverdijk,18,,,1747GL,Tuitjenhorn,Schagen,Noord-Holland,VBO,4.769365,52.732714
Kalverdijk,20,,,1747GM,Tuitjenhorn,Schagen,Noord-Holland,VBO,4.768530,52.732730
Kalverdijk,24,,,1747GM,Tuitjenhorn,Schagen,Noord-Holland,VBO,4.767552,52.732675
Kalverdijk,28,,,1747GM,Tuitjenhorn,Schagen,Noord-Holland,VBO,4.767079,52.732735
Kalverdijk,30,a,,1747GM,Tuitjenhorn,Schagen,Noord-Holland,VBO,4.766674,52.732753
Kalverdijk,30,,,1747GM,Tuitjenhorn,Schagen,Noord-Holland,VBO,4.766960,52.732740
Kalverdijk,32,,,1747GM,Tuitjenhorn,Schagen,Noord-Holland,VBO,4.766425,52.732811
Kalverdijk,34,,,1747GM,Tuitjenhorn,Schagen,Noord-Holland,VBO,4.766285,52.732804
Kalverdijk,36,,,1747GM,Tuitjenhorn,Schagen,Noord-Holland,VBO,4.766082,52.732719
Kalverdijk,38,,,1747GM,Tuitjenhorn,Schagen,Noord-Holland,VBO,4.765619,52.732664
Kalverdijk,40,,,1747GM,Tuitjenhorn,Schagen,Noord-Holland,VBO,4.765439,52.732686
Kalverdijk,44,a,,1747GM,Tuitjenhorn,Schagen,Noord-Holland,VBO,4.765074,52.733030
Kalverdijk,44,,,1747GM,Tuitjenhorn,Schagen,Noord-Holland,VBO,4.764999,52.732809
Kalverdijk,46,,,1747GM,Tuitjenhorn,Schagen,Noord-Holland,VBO,4.764822,52.732785
Kalverdijk,48,a,,1747GM,Tuitjenhorn,Schagen,Noord-Holland,VBO,4.764659,52.732987
Kalverdijk,48,t,,1747GM,Tuitjenhorn,Schagen,Noord-Holland,VBO,4.764547,52.733008
Kalverdijk,48,,,1747GM,Tuitjenhorn,Schagen,Noord-Holland,VBO,4.764607,52.732813
Kalverdijk,52,a,,1747GM,Tuitjenhorn,Schagen,Noord-Holland,VBO,4.763801,52.732862
Kalverdijk,52,b,,1747GM,Tuitjenhorn,Schagen,Noord-Holland,VBO,4.763858,52.733102
Kalverdijk,52,,,1747GM,Tuitjenhorn,Schagen,Noord-Holland,VBO,4.764087,52.732870
Kalverdijk,54,a,,1747GM,Tuitjenhorn,Schagen,Noord-Holland,VBO,4.763174,52.732984
Kalverdijk,54,,,1747GM,Tuitjenhorn,Schagen,Noord-Holland,VBO,4.763220,52.732780
Kalverdijk,56,a,,1747GM,Tuitjenhorn,Schagen,Noord-Holland,VBO,4.762935,52.732821
Kalverdijk,56,b,,1747GM,Tuitjenhorn,Schagen,Noord-Holland,VBO,4.762895,52.733057
Kalverdijk,56,,,1747GM,Tuitjenhorn,Schagen,Noord-Holland,VBO,4.763049,52.732800
Kalverdijk,58,,,1747GM,Tuitjenhorn,Schagen,Noord-Holland,VBO,4.762633,52.732824
Kalverdijk,60,,,1747GM,Tuitjenhorn,Schagen,Noord-Holland,VBO,4.762475,52.732890
Ambachtsdijk,2,,,1747GN,Tuitjenhorn,Schagen,Noord-Holland,VBO,4.777163,52.731713
Ambachtsdijk,6,a,,1747GN,Dirkshorn,Schagen,Noord-Holland,VBO,4.793823,52.720224
Ambachtsdijk,7,,,1747GN,Tuitjenhorn,Schagen,Noord-Holland,VBO,4.781496,52.730009
Kerkbuurt,1,,,1747GP,Tuitjenhorn,Schagen,Noord-Holland,VBO,4.758100,52.740447
Kerkbuurt,2,,,1747GP,Tuitjenhorn,Schagen,Noord-Holland,VBO,4.757877,52.740373
Kerkbuurt,3,,,1747GP,Tuitjenhorn,Schagen,Noord-Holland,VBO,4.758390,52.740432
Kerkbuurt,4,,,1747GP,Tuitjenhorn,Schagen,Noord-Holland,VBO,4.757812,52.740183
Kerkbuurt,5,a,,1747GP,Tuitjenhorn,Schagen,Noord-Holland,VBO,4.758790,52.740354
Kerkbuurt,5,,,1747GP,Tuitjenhorn,Schagen,Noord-Holland,VBO,4.758640,52.740382
Kerkbuurt,9,,,1747GP,Tuitjenhorn,Schagen,Noord-Holland,VBO,4.759064,52.740327
Kerkbuurt,10,,,1747GP,Tuitjenhorn,Schagen,Noord-Holland,VBO,4.757876,52.740015
Kerkbuurt,11,,,1747GP,Tuitjenhorn,Schagen,Noord-Holland,VBO,4.758931,52.740212
Kerkbuurt,12,,,1747GP,Tuitjenhorn,Schagen,Noord-Holland,VBO,4.757901,52.739864
Kerkbuurt,13,,,1747GP,Tuitjenhorn,Schagen,Noord-Holland,VBO,4.758753,52.740117
Kerkbuurt,14,,,1747GP,Tuitjenhorn,Schagen,Noord-Holland,VBO,4.758221,52.739967
Kerkbuurt,15,,,1747GP,Tuitjenhorn,Schagen,Noord-Holland,VBO,4.758960,52.739922
Kerkbuurt,16,,,1747GP,Tuitjenhorn,Schagen,Noord-Holland,VBO,4.758446,52.739876
Kerkbuurt,17,,,1747GP,Tuitjenhorn,Schagen,Noord-Holland,VBO,4.759137,52.739846
Kerkbuurt,18,,,1747GP,Tuitjenhorn,Schagen,Noord-Holland,VBO,4.758606,52.739675
Kerkbuurt,19,a,,1747GP,Tuitjenhorn,Schagen,Noord-Holland,VBO,4.760266,52.739839
Kerkbuurt,19,,,1747GP,Tuitjenhorn,Schagen,Noord-Holland,VBO,4.759240,52.739776
Kerkbuurt,20,,,1747GP,Tuitjenhorn,Schagen,Noord-Holland,VBO,4.758848,52.739657
Kerkbuurt,21,a,,1747GP,Tuitjenhorn,Schagen,Noord-Holland,VBO,4.760925,52.740032
Kerkbuurt,21,,,1747GP,Tuitjenhorn,Schagen,Noord-Holland,VBO,4.760673,52.739734
Kerkbuurt,22,,,1747GP,Tuitjenhorn,Schagen,Noord-Holland,VBO,4.759108,52.739574
Kerkbuurt,24,,,1747GP,Tuitjenhorn,Schagen,Noord-Holland,VBO,4.759265,52.739480
Sportlaan,1,a,,1747GR,Tuitjenhorn,Schagen,Noord-Holland,VBO,4.749429,52.741580
Sportlaan,1,b,,1747GR,Tuitjenhorn,Schagen,Noord-Holland,VBO,4.749493,52.741675
Sportlaan,1,,,1747GR,Tuitjenhorn,Schagen,Noord-Holland,VBO,4.749636,52.741560
Sportlaan,3,a,,1747GR,Tuitjenhorn,Schagen,Noord-Holland,VBO,4.750172,52.741512
Sportlaan,3,b,,1747GR,Tuitjenhorn,Schagen,Noord-Holland,VBO,4.750342,52.741459
Sportlaan,3,c,,1747GR,Tuitjenhorn,Schagen,Noord-Holland,VBO,4.750520,52.741426
Sportlaan,3,,,1747GR,Tuitjenhorn,Schagen,Noord-Holland,VBO,4.749881,52.741485
Sportlaan,5,A,,1747GR,Tuitjenhorn,Schagen,Noord-Holland,VBO,4.750853,52.741389
Sportlaan,5,,,1747GR,Tuitjenhorn,Schagen,Noord-Holland,VBO,4.750700,52.741448
Sportlaan,7,,,1747GR,Tuitjenhorn,Schagen,Noord-Holland,VBO,4.751018,52.741427
Sportlaan,9,,,1747GR,Tuitjenhorn,Schagen,Noord-Holland,VBO,4.751153,52.741399
Sportlaan,11,a,,1747GR,Tuitjenhorn,Schagen,Noord-Holland,VBO,4.751596,52.741330
Sportlaan,11,b,,1747GR,Tuitjenhorn,Schagen,Noord-Holland,VBO,4.751759,52.741874
Sportlaan,11,,,1747GR,Tuitjenhorn,Schagen,Noord-Holland,VBO,4.751436,52.741354
Sportlaan,13,a,,1747GR,Tuitjenhorn,Schagen,Noord-Holland,VBO,4.751928,52.741293
Sportlaan,13,,,1747GR,Tuitjenhorn,Schagen,Noord-Holland,VBO,4.751780,52.741301
Sportlaan,15,,,1747GR,Tuitjenhorn,Schagen,Noord-Holland,VBO,4.752128,52.741253
Sportlaan,17,,,1747GR,Tuitjenhorn,Schagen,Noord-Holland,VBO,4.752323,52.741237
Sportlaan,19,,,1747GR,Tuitjenhorn,Schagen,Noord-Holland,VBO,4.752577,52.741154
Sportlaan,21,,,1747GR,Tuitjenhorn,Schagen,Noord-Holland,VBO,4.752874,52.741095
Sportlaan,25,a,,1747GR,Tuitjenhorn,Schagen,Noord-Holland,VBO,4.753403,52.741116
Sportlaan,25,,,1747GR,Tuitjenhorn,Schagen,Noord-Holland,VBO,4.753095,52.741085
Sportlaan,29,a,,1747GR,Tuitjenhorn,Schagen,Noord-Holland,VBO,4.754883,52.740960
Sportlaan,29,,,1747GR,Tuitjenhorn,Schagen,Noord-Holland,VBO,4.754399,52.741029
Sportlaan,31,,,1747GR,Tuitjenhorn,Schagen,Noord-Holland,VBO,4.755066,52.740939
Sportlaan,33,,,1747GR,Tuitjenhorn,Schagen,Noord-Holland,VBO,4.755261,52.740921
Sportlaan,35,,,1747GR,Tuitjenhorn,Schagen,Noord-Holland,VBO,4.755464,52.740898
Sportlaan,37,,,1747GR,Tuitjenhorn,Schagen,Noord-Holland,VBO,4.755709,52.740883
Sportlaan,39,,,1747GR,Tuitjenhorn,Schagen,Noord-Holland,VBO,4.756018,52.740877
Sportlaan,41,,,1747GR,Tuitjenhorn,Schagen,Noord-Holland,VBO,4.756297,52.740827
Sportlaan,43,,,1747GR,Tuitjenhorn,Schagen,Noord-Holland,VBO,4.756699,52.740860
Sportlaan,47,a,,1747GR,Tuitjenhorn,Schagen,Noord-Holland,VBO,4.757941,52.740745
Sportlaan,47,,,1747GR,Tuitjenhorn,Schagen,Noord-Holland,VBO,4.757489,52.740734
Sportlaan,2,,,1747GS,Tuitjenhorn,Schagen,Noord-Holland,VBO,4.750079,52.740692
Sportlaan,4,,,1747GS,Tuitjenhorn,Schagen,Noord-Holland,VBO,4.750435,52.741109
Sportlaan,6,,,1747GS,Tuitjenhorn,Schagen,Noord-Holland,VBO,4.753240,52.740760
Sportlaan,8,,,1747GS,Tuitjenhorn,Schagen,Noord-Holland,VBO,4.753240,52.740760
Sportlaan,10,,,1747GS,Tuitjenhorn,Schagen,Noord-Holland,VBO,4.753240,52.740760
Sportlaan,12,,,1747GS,Tuitjenhorn,Schagen,Noord-Holland,VBO,4.753240,52.740760
Sportlaan,14,,,1747GS,Tuitjenhorn,Schagen,Noord-Holland,VBO,4.753240,52.740760
Sportlaan,16,,,1747GS,Tuitjenhorn,Schagen,Noord-Holland,VBO,4.753240,52.740760
Sportlaan,18,,,1747GS,Tuitjenhorn,Schagen,Noord-Holland,VBO,4.753240,52.740760
Sportlaan,20,,,1747GS,Tuitjenhorn,Schagen,Noord-Holland,VBO,4.753240,52.740760
Sportlaan,22,,,1747GS,Tuitjenhorn,Schagen,Noord-Holland,VBO,4.753796,52.740703
Sportlaan,24,,,1747GS,Tuitjenhorn,Schagen,Noord-Holland,VBO,4.753796,52.740703
Sportlaan,26,,,1747GS,Tuitjenhorn,Schagen,Noord-Holland,VBO,4.753796,52.740703
Sportlaan,28,,,1747GS,Tuitjenhorn,Schagen,Noord-Holland,VBO,4.753796,52.740703
Sportlaan,30,,,1747GS,Tuitjenhorn,Schagen,Noord-Holland,VBO,4.753796,52.740703
Sportlaan,32,,,1747GS,Tuitjenhorn,Schagen,Noord-Holland,VBO,4.753796,52.740703
Sportlaan,34,,,1747GS,Tuitjenhorn,Schagen,Noord-Holland,VBO,4.753796,52.740703
Sportlaan,36,,,1747GS,Tuitjenhorn,Schagen,Noord-Holland,VBO,4.753796,52.740703
Sportlaan,38,,,1747GS,Tuitjenhorn,Schagen,Noord-Holland,VBO,4.754147,52.740672
Sportlaan,40,a,,1747GS,Tuitjenhorn,Schagen,Noord-Holland,VBO,4.754665,52.740692
Sportlaan,40,b,,1747GS,Tuitjenhorn,Schagen,Noord-Holland,VBO,4.754967,52.740644
Sportlaan,40,,,1747GS,Tuitjenhorn,Schagen,Noord-Holland,VBO,4.754470,52.740704
Sportlaan,42,a,,1747GS,Tuitjenhorn,Schagen,Noord-Holland,VBO,4.755733,52.740585
Sportlaan,42,,,1747GS,Tuitjenhorn,Schagen,Noord-Holland,VBO,4.755481,52.740620
Sportlaan,44,a,,1747GS,Tuitjenhorn,Schagen,Noord-Holland,VBO,4.756157,52.740539
Sportlaan,44,b,,1747GS,Tuitjenhorn,Schagen,Noord-Holland,VBO,4.756650,52.740456
Sportlaan,44,,,1747GS,Tuitjenhorn,Schagen,Noord-Holland,VBO,4.755932,52.740566
Sportlaan,46,,,1747GS,Tuitjenhorn,Schagen,Noord-Holland,VBO,4.757030,52.740440
Sportlaan,50,,,1747GS,Tuitjenhorn,Schagen,Noord-Holland,VBO,4.757691,52.740439
Terpweg,2,,,1747GT,Tuitjenhorn,Schagen,Noord-Holland,VBO,4.755176,52.741341
Terpweg,7,,,1747GT,Sint Maarten,Schagen,Noord-Holland,VBO,4.755055,52.743535
Terpweg,10,,,1747GT,Sint Maarten,Schagen,Noord-Holland,VBO,4.756593,52.746077
De Regenboog,1,,,1747GV,Tuitjenhorn,Schagen,Noord-Holland,VBO,4.752757,52.734021
De Regenboog,3,b,,1747GV,Tuitjenhorn,Schagen,Noord-Holland,VBO,4.752732,52.733891
De Regenboog,3,,,1747GV,Tuitjenhorn,Schagen,Noord-Holland,VBO,4.752693,52.733822
De Regenboog,7,,,1747GV,Tuitjenhorn,Schagen,Noord-Holland,VBO,4.753937,52.733670
De Regenboog,2,,,1747GW,Tuitjenhorn,Schagen,Noord-Holland,VBO,4.752257,52.734048
De Regenboog,4,,,1747GW,Tuitjenhorn,Schagen,Noord-Holland,VBO,4.752212,52.733930
De Regenboog,6,,,1747GW,Tuitjenhorn,Schagen,Noord-Holland,VBO,4.752116,52.733814
De Regenboog,8,,,1747GW,Tuitjenhorn,Schagen,Noord-Holland,VBO,4.752093,52.733756
De Regenboog,10,,,1747GW,Tuitjenhorn,Schagen,Noord-Holland,VBO,4.751699,52.733787
De Regenboog,12,,,1747GW,Tuitjenhorn,Schagen,Noord-Holland,VBO,4.751615,52.733793
De Regenboog,14,a,,1747GW,Tuitjenhorn,Schagen,Noord-Holland,VBO,4.751197,52.733978
De Regenboog,14,b,,1747GW,Tuitjenhorn,Schagen,Noord-Holland,VBO,4.750969,52.734000
De Regenboog,14,c,,1747GW,Tuitjenhorn,Schagen,Noord-Holland,VBO,4.750686,52.734160
De Regenboog,14,d,,1747GW,Tuitjenhorn,Schagen,Noord-Holland,VBO,4.750609,52.734044
De Regenboog,14,,,1747GW,Tuitjenhorn,Schagen,Noord-Holland,VBO,4.751548,52.733801
De Regenboog,16,,,1747GW,Tuitjenhorn,Schagen,Noord-Holland,VBO,4.750615,52.733830
De Regenboog,18,,,1747GW,Tuitjenhorn,Schagen,Noord-Holland,VBO,4.750641,52.733698
De Regenboog,20,,,1747GW,Tuitjenhorn,Schagen,Noord-Holland,VBO,4.750627,52.733595
De Regenboog,22,,,1747GW,Tuitjenhorn,Schagen,Noord-Holland,VBO,4.750944,52.733678
De Regenboog,24,,,1747GW,Tuitjenhorn,Schagen,Noord-Holland,VBO,4.751031,52.733669
De Regenboog,26,a,,1747GW,Tuitjenhorn,Schagen,Noord-Holland,VBO,4.751336,52.733599
De Regenboog,26,,,1747GW,Tuitjenhorn,Schagen,Noord-Holland,VBO,4.751183,52.733610
De Regenboog,28,,,1747GW,Tuitjenhorn,Schagen,Noord-Holland,VBO,4.751817,52.733540
De Regenboog,30,,,1747GW,Tuitjenhorn,Schagen,Noord-Holland,VBO,4.751798,52.733479
De Regenboog,50,,,1747GW,Tuitjenhorn,Schagen,Noord-Holland,VBO,4.752198,52.733122
De Regenboog,58,,,1747GX,Tuitjenhorn,Schagen,Noord-Holland,VBO,4.752401,52.733401
De Regenboog,62,,,1747GX,Tuitjenhorn,Schagen,Noord-Holland,VBO,4.752536,52.733410
De Regenboog,66,,,1747GX,Tuitjenhorn,Schagen,Noord-Holland,VBO,4.752670,52.733420
De Regenboog,68,,,1747GX,Tuitjenhorn,Schagen,Noord-Holland,VBO,4.752742,52.733425
De Regenboog,70,,,1747GX,Tuitjenhorn,Schagen,Noord-Holland,VBO,4.752974,52.733446
De Regenboog,72,,,1747GX,Tuitjenhorn,Schagen,Noord-Holland,VBO,4.753055,52.733437
De Regenboog,74,,,1747GX,Tuitjenhorn,Schagen,Noord-Holland,VBO,4.753214,52.733419
De Regenboog,76,,,1747GX,Tuitjenhorn,Schagen,Noord-Holland,VBO,4.753293,52.733410
De Regenboog,78,,,1747GX,Tuitjenhorn,Schagen,Noord-Holland,VBO,4.753434,52.733396
De Regenboog,80,,,1747GX,Tuitjenhorn,Schagen,Noord-Holland,VBO,4.753534,52.733387
De Regenboog,82,,,1747GX,Tuitjenhorn,Schagen,Noord-Holland,VBO,4.753729,52.733362
De Regenboog,84,,,1747GX,Tuitjenhorn,Schagen,Noord-Holland,VBO,4.753821,52.733347
De Regenboog,86,,,1747GX,Tuitjenhorn,Schagen,Noord-Holland,VBO,4.754015,52.733339
De Regenboog,88,,,1747GX,Tuitjenhorn,Schagen,Noord-Holland,VBO,4.754132,52.733318
De Regenboog,90,,,1747GX,Tuitjenhorn,Schagen,Noord-Holland,VBO,4.754303,52.733318
De Regenboog,92,,,1747GX,Tuitjenhorn,Schagen,Noord-Holland,VBO,4.754397,52.733306
De Regenboog,94,,,1747GX,Tuitjenhorn,Schagen,Noord-Holland,VBO,4.754472,52.733298
De Regenboog,96,,,1747GX,Tuitjenhorn,Schagen,Noord-Holland,VBO,4.754549,52.733294
De Regenboog,98,,,1747GX,Tuitjenhorn,Schagen,Noord-Holland,VBO,4.754757,52.733263
De Regenboog,100,,,1747GX,Tuitjenhorn,Schagen,Noord-Holland,VBO,4.754836,52.733259
De Regenboog,102,,,1747GX,Tuitjenhorn,Schagen,Noord-Holland,VBO,4.754928,52.733244
De Regenboog,104,,,1747GX,Tuitjenhorn,Schagen,Noord-Holland,VBO,4.754993,52.733237
De Regenboog,106,,,1747GX,Tuitjenhorn,Schagen,Noord-Holland,VBO,4.755186,52.733238
De Regenboog,108,,,1747GZ,Tuitjenhorn,Schagen,Noord-Holland,VBO,4.755294,52.733222
Dorpsstraat,1,,,1747HA,Tuitjenhorn,Schagen,Noord-Holland,VBO,4.748869,52.735412
Dorpsstraat,3,,,1747HA,Tuitjenhorn,Schagen,Noord-Holland,VBO,4.748851,52.735481
Dorpsstraat,5,,,1747HA,Tuitjenhorn,Schagen,Noord-Holland,VBO,4.748785,52.735581
Dorpsstraat,7,,,1747HA,Tuitjenhorn,Schagen,Noord-Holland,VBO,4.748804,52.735725
Dorpsstraat,11,,,1747HA,Tuitjenhorn,Schagen,Noord-Holland,VBO,4.748785,52.735889
Dorpsstraat,13,,,1747HA,Tuitjenhorn,Schagen,Noord-Holland,VBO,4.748776,52.736015
Dorpsstraat,15,,,1747HA,Tuitjenhorn,Schagen,Noord-Holland,VBO,4.748757,52.736167
Dorpsstraat,17,,,1747HA,Tuitjenhorn,Schagen,Noord-Holland,VBO,4.748689,52.736560
Dorpsstraat,25,,,1747HA,Tuitjenhorn,Schagen,Noord-Holland,VBO,4.748647,52.736703
Dorpsstraat,27,,,1747HA,Tuitjenhorn,Schagen,Noord-Holland,VBO,4.748631,52.736771
Dorpsstraat,29,a,,1747HA,Tuitjenhorn,Schagen,Noord-Holland,VBO,4.748591,52.736922
Dorpsstraat,29,,,1747HA,Tuitjenhorn,Schagen,Noord-Holland,VBO,4.748570,52.736892
Dorpsstraat,33,a,,1747HA,Tuitjenhorn,Schagen,Noord-Holland,VBO,4.748321,52.737262
Dorpsstraat,33,,,1747HA,Tuitjenhorn,Schagen,Noord-Holland,VBO,4.748621,52.737039
Dorpsstraat,35,,,1747HA,Tuitjenhorn,Schagen,Noord-Holland,VBO,4.748693,52.737860
Dorpsstraat,37,,,1747HA,Tuitjenhorn,Schagen,Noord-Holland,VBO,4.748764,52.738189
Dorpsstraat,39,,,1747HA,Tuitjenhorn,Schagen,Noord-Holland,VBO,4.748380,52.738640
Dorpsstraat,41,,,1747HA,Tuitjenhorn,Schagen,Noord-Holland,VBO,4.748551,52.738788
Dorpsstraat,45,a,,1747HB,Tuitjenhorn,Schagen,Noord-Holland,VBO,4.748943,52.739703
Dorpsstraat,45,,,1747HB,Tuitjenhorn,Schagen,Noord-Holland,VBO,4.749071,52.739703
Dorpsstraat,49,a,,1747HB,Tuitjenhorn,Schagen,Noord-Holland,VBO,4.749001,52.739847
Dorpsstraat,49,b,,1747HB,Tuitjenhorn,Schagen,Noord-Holland,VBO,4.749059,52.739845
Dorpsstraat,51,,,1747HB,Tuitjenhorn,Schagen,Noord-Holland,VBO,4.749174,52.739875
Dorpsstraat,53,,,1747HB,Tuitjenhorn,Schagen,Noord-Holland,VBO,4.749150,52.740007
Dorpsstraat,55,,,1747HB,Tuitjenhorn,Schagen,Noord-Holland,VBO,4.749146,52.740064
Dorpsstraat,57,,,1747HB,Tuitjenhorn,Schagen,Noord-Holland,VBO,4.749129,52.740133
Dorpsstraat,59,,,1747HB,Tuitjenhorn,Schagen,Noord-Holland,VBO,4.749151,52.740198
Dorpsstraat,61,,,1747HB,Tuitjenhorn,Schagen,Noord-Holland,VBO,4.749125,52.740325
Dorpsstraat,63,a,,1747HB,Tuitjenhorn,Schagen,Noord-Holland,VBO,4.748773,52.740844
Dorpsstraat,65,a,,1747HB,Tuitjenhorn,Schagen,Noord-Holland,VBO,4.748716,52.740953
Dorpsstraat,65,,,1747HB,Tuitjenhorn,Schagen,Noord-Holland,VBO,4.748701,52.741036
Dorpsstraat,67,a,,1747HB,Tuitjenhorn,Schagen,Noord-Holland,VBO,4.748494,52.741228
Dorpsstraat,67,b,,1747HB,Tuitjenhorn,Schagen,Noord-Holland,VBO,4.748376,52.741221
Dorpsstraat,67,,,1747HB,Tuitjenhorn,Schagen,Noord-Holland,VBO,4.748741,52.741171
Dorpsstraat,69,,,1747HB,Tuitjenhorn,Schagen,Noord-Holland,VBO,4.748715,52.741393
Dorpsstraat,71,a,,1747HB,Tuitjenhorn,Schagen,Noord-Holland,VBO,4.748694,52.741574
Dorpsstraat,71,,,1747HB,Tuitjenhorn,Schagen,Noord-Holland,VBO,4.748704,52.741513
Dorpsstraat,73,a,,1747HB,Tuitjenhorn,Schagen,Noord-Holland,VBO,4.748663,52.741747
Dorpsstraat,73,,,1747HB,Tuitjenhorn,Schagen,Noord-Holland,VBO,4.748669,52.741676
Dorpsstraat,75,,,1747HB,Tuitjenhorn,Schagen,Noord-Holland,VBO,4.748615,52.741922
Dorpsstraat,77,a,,1747HB,Tuitjenhorn,Schagen,Noord-Holland,VBO,4.748400,52.742225
Dorpsstraat,77,,,1747HB,Tuitjenhorn,Schagen,Noord-Holland,VBO,4.748471,52.742218
Dorpsstraat,79,a,,1747HB,Tuitjenhorn,Schagen,Noord-Holland,VBO,4.748156,52.742267
Dorpsstraat,79,,,1747HB,Tuitjenhorn,Schagen,Noord-Holland,VBO,4.748294,52.742233
Dorpsstraat,81,a,,1747HB,Tuitjenhorn,Schagen,Noord-Holland,VBO,4.747977,52.742285
Dorpsstraat,81,,,1747HB,Tuitjenhorn,Schagen,Noord-Holland,VBO,4.748052,52.742278
Dorpsstraat,83,,,1747HB,Tuitjenhorn,Schagen,Noord-Holland,VBO,4.747880,52.742294
Dorpsstraat,85,,,1747HC,Tuitjenhorn,Schagen,Noord-Holland,VBO,4.747475,52.742354
Dorpsstraat,87,,,1747HC,Tuitjenhorn,Schagen,Noord-Holland,VBO,4.747371,52.742361
Dorpsstraat,89,,,1747HC,Tuitjenhorn,Schagen,Noord-Holland,VBO,4.747177,52.742381
Dorpsstraat,91,,,1747HC,Tuitjenhorn,Schagen,Noord-Holland,VBO,4.747047,52.742392
Dorpsstraat,93,,,1747HC,Tuitjenhorn,Schagen,Noord-Holland,VBO,4.746877,52.742409
Dorpsstraat,95,,,1747HC,Tuitjenhorn,Schagen,Noord-Holland,VBO,4.746775,52.742421
Dorpsstraat,101,,,1747HC,Tuitjenhorn,Schagen,Noord-Holland,VBO,4.744481,52.742846
Dorpsstraat,103,,,1747HC,Tuitjenhorn,Schagen,Noord-Holland,VBO,4.744268,52.742888
Dorpsstraat,105,,,1747HC,Tuitjenhorn,Schagen,Noord-Holland,VBO,4.743972,52.742921
Dorpsstraat,107,,,1747HC,Tuitjenhorn,Schagen,Noord-Holland,VBO,4.743812,52.742934
Dorpsstraat,109,a,,1747HC,Tuitjenhorn,Schagen,Noord-Holland,VBO,4.742676,52.743060
Dorpsstraat,109,,,1747HC,Tuitjenhorn,Schagen,Noord-Holland,VBO,4.743246,52.742994
Dorpsstraat,111,a,,1747HC,Tuitjenhorn,Schagen,Noord-Holland,VBO,4.742264,52.743097
Dorpsstraat,111,,,1747HC,Tuitjenhorn,Schagen,Noord-Holland,VBO,4.742238,52.743229
Dorpsstraat,113,,,1747HC,Tuitjenhorn,Schagen,Noord-Holland,VBO,4.742026,52.743266
Dorpsstraat,115,,,1747HC,Tuitjenhorn,Schagen,Noord-Holland,VBO,4.741928,52.743296
Dorpsstraat,117,,,1747HC,Tuitjenhorn,Schagen,Noord-Holland,VBO,4.741744,52.743284
Dorpsstraat,119,A,,1747HC,Tuitjenhorn,Schagen,Noord-Holland,VBO,4.741471,52.743397
Dorpsstraat,119,B,,1747HC,Tuitjenhorn,Schagen,Noord-Holland,VBO,4.741339,52.743410
Dorpsstraat,119,,,1747HC,Tuitjenhorn,Schagen,Noord-Holland,VBO,4.741464,52.743329
Dorpsstraat,121,,,1747HC,Tuitjenhorn,Schagen,Noord-Holland,VBO,4.740799,52.743447
Dorpsstraat,123,,,1747HC,Tuitjenhorn,Schagen,Noord-Holland,VBO,4.740562,52.743433
Dorpsstraat,125,a,,1747HC,Tuitjenhorn,Schagen,Noord-Holland,VBO,4.739942,52.743338
Dorpsstraat,125,,,1747HC,Tuitjenhorn,Schagen,Noord-Holland,VBO,4.740326,52.743487
Dorpsstraat,127,,,1747HC,Tuitjenhorn,Schagen,Noord-Holland,VBO,4.740049,52.743614
Dorpsstraat,129,,,1747HC,Tuitjenhorn,Schagen,Noord-Holland,VBO,4.739712,52.743648
Dorpsstraat,2,a,,1747HD,Tuitjenhorn,Schagen,Noord-Holland,VBO,4.749446,52.735320
Dorpsstraat,2,b,,1747HD,Tuitjenhorn,Schagen,Noord-Holland,VBO,4.749413,52.735461
Dorpsstraat,2,c,,1747HD,Tuitjenhorn,Schagen,Noord-Holland,VBO,4.749323,52.735603
Dorpsstraat,2,,,1747HD,Tuitjenhorn,Schagen,Noord-Holland,VBO,4.749432,52.735177
Dorpsstraat,4,,,1747HD,Tuitjenhorn,Schagen,Noord-Holland,VBO,4.749247,52.735797
Dorpsstraat,6,a,,1747HD,Tuitjenhorn,Schagen,Noord-Holland,VBO,4.749372,52.735965
Dorpsstraat,6,b,,1747HD,Tuitjenhorn,Schagen,Noord-Holland,VBO,4.749178,52.736127
Dorpsstraat,6,,,1747HD,Tuitjenhorn,Schagen,Noord-Holland,VBO,4.749209,52.735982
Dorpsstraat,8,,,1747HD,Tuitjenhorn,Schagen,Noord-Holland,VBO,4.749113,52.736345
Dorpsstraat,12,,,1747HD,Tuitjenhorn,Schagen,Noord-Holland,VBO,4.749089,52.736672
Dorpsstraat,14,a,,1747HD,Tuitjenhorn,Schagen,Noord-Holland,VBO,4.749041,52.736798
Dorpsstraat,14,b,,1747HD,Tuitjenhorn,Schagen,Noord-Holland,VBO,4.749067,52.736983
Dorpsstraat,14,c,,1747HD,Tuitjenhorn,Schagen,Noord-Holland,VBO,4.749288,52.736844
Dorpsstraat,14,d,,1747HD,Tuitjenhorn,Schagen,Noord-Holland,VBO,4.749382,52.736847
Dorpsstraat,14,e,,1747HD,Tuitjenhorn,Schagen,Noord-Holland,VBO,4.749488,52.736850
Dorpsstraat,14,,,1747HD,Tuitjenhorn,Schagen,Noord-Holland,VBO,4.749107,52.736913
Dorpsstraat,18,a,,1747HD,Tuitjenhorn,Schagen,Noord-Holland,VBO,4.749216,52.737259
Dorpsstraat,18,,,1747HD,Tuitjenhorn,Schagen,Noord-Holland,VBO,4.749032,52.737255
Dorpsstraat,20,a,,1747HD,Tuitjenhorn,Schagen,Noord-Holland,VBO,4.749117,52.737440
Dorpsstraat,20,,,1747HD,Tuitjenhorn,Schagen,Noord-Holland,VBO,4.749144,52.737537
Dorpsstraat,22,,,1747HD,Tuitjenhorn,Schagen,Noord-Holland,VBO,4.749143,52.737705
Dorpsstraat,24,,,1747HD,Tuitjenhorn,Schagen,Noord-Holland,VBO,4.749343,52.737807
Dorpsstraat,26,a,,1747HD,Tuitjenhorn,Schagen,Noord-Holland,VBO,4.749365,52.737917
Dorpsstraat,26,b,,1747HD,Tuitjenhorn,Schagen,Noord-Holland,VBO,4.749357,52.737862
Dorpsstraat,26,,,1747HD,Tuitjenhorn,Schagen,Noord-Holland,VBO,4.749411,52.737905
Dorpsstraat,28,,,1747HD,Tuitjenhorn,Schagen,Noord-Holland,VBO,4.749431,52.737991
Dorpsstraat,30,,,1747HD,Tuitjenhorn,Schagen,Noord-Holland,VBO,4.749407,52.738084
Dorpsstraat,32,,,1747HD,Tuitjenhorn,Schagen,Noord-Holland,VBO,4.749452,52.738190
Dorpsstraat,38,,,1747HD,Tuitjenhorn,Schagen,Noord-Holland,VBO,4.749335,52.738396
Dorpsstraat,40,a,,1747HD,Tuitjenhorn,Schagen,Noord-Holland,VBO,4.749123,52.738633
Dorpsstraat,40,,,1747HD,Tuitjenhorn,Schagen,Noord-Holland,VBO,4.749160,52.738547
Dorpsstraat,42,,,1747HE,Tuitjenhorn,Schagen,Noord-Holland,VBO,4.749279,52.738810
Dorpsstraat,44,a,,1747HE,Tuitjenhorn,Schagen,Noord-Holland,VBO,4.749073,52.738804
Dorpsstraat,44,,,1747HE,Tuitjenhorn,Schagen,Noord-Holland,VBO,4.749071,52.738851
Dorpsstraat,46,,,1747HE,Tuitjenhorn,Schagen,Noord-Holland,VBO,4.749042,52.738928
Dorpsstraat,48,,,1747HE,Tuitjenhorn,Schagen,Noord-Holland,VBO,4.749029,52.739012
Dorpsstraat,50,a,,1747HE,Tuitjenhorn,Schagen,Noord-Holland,VBO,4.749951,52.738898
Dorpsstraat,50,,,1747HE,Tuitjenhorn,Schagen,Noord-Holland,VBO,4.749040,52.739123
Dorpsstraat,52,a,,1747HE,Tuitjenhorn,Schagen,Noord-Holland,VBO,4.749161,52.739300
Dorpsstraat,52,,,1747HE,Tuitjenhorn,Schagen,Noord-Holland,VBO,4.749139,52.739246
Dorpsstraat,54,,,1747HE,Tuitjenhorn,Schagen,Noord-Holland,VBO,4.749293,52.739422
Dorpsstraat,58,,,1747HE,Tuitjenhorn,Schagen,Noord-Holland,VBO,4.749501,52.739775
Dorpsstraat,60,a,,1747HE,Tuitjenhorn,Schagen,Noord-Holland,VBO,4.749646,52.740336
Dorpsstraat,60,,,1747HE,Tuitjenhorn,Schagen,Noord-Holland,VBO,4.749639,52.740080
Dorpsstraat,62,a,,1747HE,Tuitjenhorn,Schagen,Noord-Holland,VBO,4.749643,52.740935
Dorpsstraat,62,,,1747HE,Tuitjenhorn,Schagen,Noord-Holland,VBO,4.749627,52.740612
Dorpsstraat,64,a,,1747HE,Tuitjenhorn,Schagen,Noord-Holland,VBO,4.749049,52.741707
Dorpsstraat,64,,,1747HE,Tuitjenhorn,Schagen,Noord-Holland,VBO,4.749103,52.741602
Dorpsstraat,66,,,1747HE,Tuitjenhorn,Schagen,Noord-Holland,VBO,4.748996,52.741817
Dorpsstraat,68,,,1747HE,Tuitjenhorn,Schagen,Noord-Holland,VBO,4.748954,52.741978
Dorpsstraat,70,,,1747HE,Tuitjenhorn,Schagen,Noord-Holland,VBO,4.748916,52.742089
Dorpsstraat,72,,,1747HE,Tuitjenhorn,Schagen,Noord-Holland,VBO,4.748878,52.742257
Dorpsstraat,74,a,,1747HE,Tuitjenhorn,Schagen,Noord-Holland,VBO,4.748475,52.742511
Dorpsstraat,74,b,,1747HE,Tuitjenhorn,Schagen,Noord-Holland,VBO,4.748619,52.742598
Dorpsstraat,74,,,1747HE,Tuitjenhorn,Schagen,Noord-Holland,VBO,4.748751,52.742434
Dorpsstraat,76,,,1747HE,Tuitjenhorn,Schagen,Noord-Holland,VBO,4.748284,52.742509
Dorpsstraat,78,,,1747HE,Tuitjenhorn,Schagen,Noord-Holland,VBO,4.748189,52.742521
Dorpsstraat,80,a,,1747HE,Tuitjenhorn,Schagen,Noord-Holland,VBO,4.747928,52.742546
Dorpsstraat,82,,,1747HE,Tuitjenhorn,Schagen,Noord-Holland,VBO,4.747785,52.742551
Dorpsstraat,84,,,1747HG,Tuitjenhorn,Schagen,Noord-Holland,VBO,4.747467,52.742572
Dorpsstraat,86,,,1747HG,Tuitjenhorn,Schagen,Noord-Holland,VBO,4.747231,52.742618
Dorpsstraat,88,b,,1747HG,Tuitjenhorn,Schagen,Noord-Holland,VBO,4.746736,52.742936
Dorpsstraat,88,,,1747HG,Tuitjenhorn,Schagen,Noord-Holland,VBO,4.746866,52.742683
Dorpsstraat,92,,,1747HG,Tuitjenhorn,Schagen,Noord-Holland,VBO,4.746277,52.742774
Dorpsstraat,94,,,1747HG,Tuitjenhorn,Schagen,Noord-Holland,VBO,4.745802,52.742875
Dorpsstraat,96,a,,1747HG,Tuitjenhorn,Schagen,Noord-Holland,VBO,4.744816,52.743025
Dorpsstraat,96,,,1747HG,Tuitjenhorn,Schagen,Noord-Holland,VBO,4.745105,52.742931
Dorpsstraat,100,,,1747HG,Tuitjenhorn,Schagen,Noord-Holland,VBO,4.744108,52.743118
Dorpsstraat,104,,,1747HG,Tuitjenhorn,Schagen,Noord-Holland,VBO,4.743364,52.743523
Dorpsstraat,106,a,,1747HG,Tuitjenhorn,Schagen,Noord-Holland,VBO,4.742924,52.743509
Dorpsstraat,106,,,1747HG,Tuitjenhorn,Schagen,Noord-Holland,VBO,4.742658,52.743578
Veilingweg,1,,,1747HG,Tuitjenhorn,Schagen,Noord-Holland,VBO,4.741328,52.743351
Veilingweg,9,,,1747HG,Tuitjenhorn,Schagen,Noord-Holland,VBO,4.740592,52.739582
Veilingweg,19,,,1747HG,Tuitjenhorn,Schagen,Noord-Holland,VBO,4.739122,52.734521
Veilingweg,20,r,,1747HG,Warmenhuizen,Schagen,Noord-Holland,VBO,4.736843,52.729923
Veilingweg,20,,,1747HG,Tuitjenhorn,Schagen,Noord-Holland,VBO,4.738085,52.734309
Kuiperstraat,2,a,,1747HH,Tuitjenhorn,Schagen,Noord-Holland,VBO,4.748223,52.736572
Kuiperstraat,2,,,1747HH,Tuitjenhorn,Schagen,Noord-Holland,VBO,4.748546,52.736619
Kuiperstraat,4,,,1747HH,Tuitjenhorn,Schagen,Noord-Holland,VBO,4.748008,52.736587
Kuiperstraat,6,,,1747HH,Tuitjenhorn,Schagen,Noord-Holland,VBO,4.747790,52.736638
Kuiperstraat,8,,,1747HH,Tuitjenhorn,Schagen,Noord-Holland,VBO,4.747575,52.736685
Kuiperstraat,10,,,1747HH,Tuitjenhorn,Schagen,Noord-Holland,VBO,4.747277,52.736698
Bladstraat,2,,,1747HJ,Tuitjenhorn,Schagen,Noord-Holland,VBO,4.748311,52.737549
Bladstraat,3,,,1747HJ,Tuitjenhorn,Schagen,Noord-Holland,VBO,4.747985,52.737225
Bladstraat,4,,,1747HJ,Tuitjenhorn,Schagen,Noord-Holland,VBO,4.748133,52.737521
Bladstraat,5,,,1747HJ,Tuitjenhorn,Schagen,Noord-Holland,VBO,4.747719,52.737211
Bladstraat,6,t,,1747HJ,Tuitjenhorn,Schagen,Noord-Holland,VBO,4.747855,52.737522
Bladstraat,6,,,1747HJ,Tuitjenhorn,Schagen,Noord-Holland,VBO,4.747724,52.737481
Bladstraat,7,,,1747HJ,Tuitjenhorn,Schagen,Noord-Holland,VBO,4.747543,52.737216
Bladstraat,8,a,,1747HJ,Tuitjenhorn,Schagen,Noord-Holland,VBO,4.747279,52.737437
Bladstraat,8,,,1747HJ,Tuitjenhorn,Schagen,Noord-Holland,VBO,4.747533,52.737459
Bladstraat,9,,,1747HJ,Tuitjenhorn,Schagen,Noord-Holland,VBO,4.747442,52.737202
Bladstraat,11,,,1747HJ,Tuitjenhorn,Schagen,Noord-Holland,VBO,4.747288,52.737188
Bladstraat,13,,,1747HJ,Tuitjenhorn,Schagen,Noord-Holland,VBO,4.747158,52.737169
Sint Jozefpark,1,,,1747HK,Tuitjenhorn,Schagen,Noord-Holland,VBO,4.747652,52.739546
Sint Jozefpark,2,,,1747HK,Tuitjenhorn,Schagen,Noord-Holland,VBO,4.748658,52.739534
Sint Jozefpark,3,,,1747HK,Tuitjenhorn,Schagen,Noord-Holland,VBO,4.747652,52.739546
Sint Jozefpark,4,,,1747HK,Tuitjenhorn,Schagen,Noord-Holland,VBO,4.747652,52.739546
Sint Jozefpark,5,,,1747HK,Tuitjenhorn,Schagen,Noord-Holland,VBO,4.747652,52.739546
Sint Jozefpark,7,,,1747HK,Tuitjenhorn,Schagen,Noord-Holland,VBO,4.747652,52.739546
Sint Jozefpark,8,,,1747HK,Tuitjenhorn,Schagen,Noord-Holland,VBO,4.747652,52.739546
Sint Jozefpark,9,,,1747HK,Tuitjenhorn,Schagen,Noord-Holland,VBO,4.747652,52.739546
Sint Jozefpark,10,,,1747HK,Tuitjenhorn,Schagen,Noord-Holland,VBO,4.747652,52.739546
Sint Jozefpark,11,,,1747HK,Tuitjenhorn,Schagen,Noord-Holland,VBO,4.747652,52.739546
Sint Jozefpark,12,,,1747HK,Tuitjenhorn,Schagen,Noord-Holland,VBO,4.747652,52.739546
Sint Jozefpark,13,,,1747HK,Tuitjenhorn,Schagen,Noord-Holland,VBO,4.747652,52.739546
Sint Jozefpark,119,,,1747HK,Tuitjenhorn,Schagen,Noord-Holland,VBO,4.747758,52.739568
Sint Jozefpark,120,,,1747HK,Tuitjenhorn,Schagen,Noord-Holland,VBO,4.747758,52.739568
Sint Jozefpark,121,,,1747HK,Tuitjenhorn,Schagen,Noord-Holland,VBO,4.747758,52.739568
Sint Jozefpark,122,,,1747HK,Tuitjenhorn,Schagen,Noord-Holland,VBO,4.747758,52.739568
Sint Jozefpark,123,,,1747HK,Tuitjenhorn,Schagen,Noord-Holland,VBO,4.747758,52.739568
Sint Jozefpark,124,,,1747HK,Tuitjenhorn,Schagen,Noord-Holland,VBO,4.747758,52.739568
Sint Jozefpark,125,,,1747HK,Tuitjenhorn,Schagen,Noord-Holland,VBO,4.747758,52.739568
Sint Jozefpark,126,,,1747HK,Tuitjenhorn,Schagen,Noord-Holland,VBO,4.747758,52.739568
Sint Jozefpark,127,,,1747HK,Tuitjenhorn,Schagen,Noord-Holland,VBO,4.747758,52.739568
Sint Jozefpark,128,,,1747HK,Tuitjenhorn,Schagen,Noord-Holland,VBO,4.747758,52.739568
Sint Jozefpark,129,,,1747HK,Tuitjenhorn,Schagen,Noord-Holland,VBO,4.747758,52.739568
Sint Jozefpark,130,,,1747HK,Tuitjenhorn,Schagen,Noord-Holland,VBO,4.747758,52.739568
Sint Jozefpark,131,,,1747HK,Tuitjenhorn,Schagen,Noord-Holland,VBO,4.747758,52.739568
Sint Jozefpark,132,,,1747HK,Tuitjenhorn,Schagen,Noord-Holland,VBO,4.747758,52.739568
Sint Jozefpark,133,,,1747HK,Tuitjenhorn,Schagen,Noord-Holland,VBO,4.747758,52.739568
Sint Jozefpark,134,,,1747HK,Tuitjenhorn,Schagen,Noord-Holland,VBO,4.747758,52.739568
Sint Jozefpark,135,,,1747HK,Tuitjenhorn,Schagen,Noord-Holland,VBO,4.747758,52.739568
Sint Jozefpark,136,,,1747HK,Tuitjenhorn,Schagen,Noord-Holland,VBO,4.747758,52.739568
Sint Jozefpark,137,,,1747HK,Tuitjenhorn,Schagen,Noord-Holland,VBO,4.747758,52.739568
Sint Jozefpark,138,,,1747HK,Tuitjenhorn,Schagen,Noord-Holland,VBO,4.747758,52.739568
Sint Jozefpark,139,,,1747HK,Tuitjenhorn,Schagen,Noord-Holland,VBO,4.747758,52.739568
Sint Jozefpark,140,,,1747HK,Tuitjenhorn,Schagen,Noord-Holland,VBO,4.747758,52.739568
Sint Jozefpark,141,,,1747HK,Tuitjenhorn,Schagen,Noord-Holland,VBO,4.747758,52.739568
Sint Jozefpark,142,,,1747HK,Tuitjenhorn,Schagen,Noord-Holland,VBO,4.747758,52.739568
Sint Jozefpark,143,,,1747HK,Tuitjenhorn,Schagen,Noord-Holland,VBO,4.747758,52.739568
Sint Jozefpark,144,,,1747HK,Tuitjenhorn,Schagen,Noord-Holland,VBO,4.747758,52.739568
Sint Jozefpark,14,,,1747HL,Tuitjenhorn,Schagen,Noord-Holland,VBO,4.747652,52.739546
Sint Jozefpark,15,,,1747HL,Tuitjenhorn,Schagen,Noord-Holland,VBO,4.747652,52.739546
Sint Jozefpark,16,,,1747HL,Tuitjenhorn,Schagen,Noord-Holland,VBO,4.747652,52.739546
Sint Jozefpark,17,,,1747HL,Tuitjenhorn,Schagen,Noord-Holland,VBO,4.747652,52.739546
Sint Jozefpark,18,,,1747HL,Tuitjenhorn,Schagen,Noord-Holland,VBO,4.747652,52.739546
Sint Jozefpark,19,,,1747HL,Tuitjenhorn,Schagen,Noord-Holland,VBO,4.747652,52.739546
Sint Jozefpark,20,,,1747HL,Tuitjenhorn,Schagen,Noord-Holland,VBO,4.747652,52.739546
Sint Jozefpark,21,,,1747HL,Tuitjenhorn,Schagen,Noord-Holland,VBO,4.747652,52.739546
Sint Jozefpark,22,,,1747HL,Tuitjenhorn,Schagen,Noord-Holland,VBO,4.747652,52.739546
Sint Jozefpark,23,,,1747HL,Tuitjenhorn,Schagen,Noord-Holland,VBO,4.747652,52.739546
Sint Jozefpark,24,,,1747HL,Tuitjenhorn,Schagen,Noord-Holland,VBO,4.747652,52.739546
Sint Jozefpark,239,,,1747HL,Tuitjenhorn,Schagen,Noord-Holland,VBO,4.747794,52.739520
Sint Jozefpark,240,,,1747HL,Tuitjenhorn,Schagen,Noord-Holland,VBO,4.747842,52.739517
Sint Jozefpark,241,,,1747HL,Tuitjenhorn,Schagen,Noord-Holland,VBO,4.747900,52.739511
Sint Jozefpark,242,,,1747HL,Tuitjenhorn,Schagen,Noord-Holland,VBO,4.747941,52.739508
Sint Jozefpark,243,,,1747HL,Tuitjenhorn,Schagen,Noord-Holland,VBO,4.747977,52.739503
Sint Jozefpark,244,,,1747HL,Tuitjenhorn,Schagen,Noord-Holland,VBO,4.748027,52.739500
Sint Jozefpark,245,,,1747HL,Tuitjenhorn,Schagen,Noord-Holland,VBO,4.748073,52.739498
Sint Jozefpark,246,,,1747HL,Tuitjenhorn,Schagen,Noord-Holland,VBO,4.748105,52.739491
Sint Jozefpark,247,,,1747HL,Tuitjenhorn,Schagen,Noord-Holland,VBO,4.748142,52.739491
Sint Jozefpark,248,,,1747HL,Tuitjenhorn,Schagen,Noord-Holland,VBO,4.748177,52.739489
Sint Jozefpark,249,,,1747HL,Tuitjenhorn,Schagen,Noord-Holland,VBO,4.748208,52.739486
Sint Jozefpark,250,,,1747HL,Tuitjenhorn,Schagen,Noord-Holland,VBO,4.748244,52.739483
Sint Jozefpark,251,,,1747HL,Tuitjenhorn,Schagen,Noord-Holland,VBO,4.748246,52.739529
Sint Jozefpark,252,,,1747HL,Tuitjenhorn,Schagen,Noord-Holland,VBO,4.748205,52.739533
Sint Jozefpark,253,,,1747HL,Tuitjenhorn,Schagen,Noord-Holland,VBO,4.748162,52.739538
Sint Jozefpark,254,,,1747HL,Tuitjenhorn,Schagen,Noord-Holland,VBO,4.748121,52.739542
Sint Jozefpark,255,,,1747HL,Tuitjenhorn,Schagen,Noord-Holland,VBO,4.748072,52.739545
Sint Jozefpark,256,,,1747HL,Tuitjenhorn,Schagen,Noord-Holland,VBO,4.748020,52.739549
Sint Jozefpark,257,,,1747HL,Tuitjenhorn,Schagen,Noord-Holland,VBO,4.747975,52.739555
Sint Jozefpark,30,p,1,1747HM,Tuitjenhorn,Schagen,Noord-Holland,VBO,4.747189,52.739637
Sint Jozefpark,30,p,10,1747HM,Tuitjenhorn,Schagen,Noord-Holland,VBO,4.747305,52.739350
Sint Jozefpark,30,p,11,1747HM,Tuitjenhorn,Schagen,Noord-Holland,VBO,4.747283,52.739284
Sint Jozefpark,30,p,2,1747HM,Tuitjenhorn,Schagen,Noord-Holland,VBO,4.747253,52.739639
Sint Jozefpark,30,p,3,1747HM,Tuitjenhorn,Schagen,Noord-Holland,VBO,4.747294,52.739637
Sint Jozefpark,30,p,4,1747HM,Tuitjenhorn,Schagen,Noord-Holland,VBO,4.747346,52.739495
Sint Jozefpark,30,p,5,1747HM,Tuitjenhorn,Schagen,Noord-Holland,VBO,4.747337,52.739470
Sint Jozefpark,30,p,6,1747HM,Tuitjenhorn,Schagen,Noord-Holland,VBO,4.747329,52.739445
Sint Jozefpark,30,p,7,1747HM,Tuitjenhorn,Schagen,Noord-Holland,VBO,4.747329,52.739422
Sint Jozefpark,30,p,8,1747HM,Tuitjenhorn,Schagen,Noord-Holland,VBO,4.747317,52.739395
Sint Jozefpark,30,p,9,1747HM,Tuitjenhorn,Schagen,Noord-Holland,VBO,4.747317,52.739378
Sint Jozefpark,30,,,1747HM,Tuitjenhorn,Schagen,Noord-Holland,VBO,4.746879,52.739612
Sint Jozefpark,31,,,1747HM,Tuitjenhorn,Schagen,Noord-Holland,VBO,4.746782,52.739621
Sint Jozefpark,32,,,1747HM,Tuitjenhorn,Schagen,Noord-Holland,VBO,4.746684,52.739631
Sint Jozefpark,33,,,1747HM,Tuitjenhorn,Schagen,Noord-Holland,VBO,4.746587,52.739640
Sint Jozefpark,34,,,1747HM,Tuitjenhorn,Schagen,Noord-Holland,VBO,4.746490,52.739650
Sint Jozefpark,35,,,1747HM,Tuitjenhorn,Schagen,Noord-Holland,VBO,4.746393,52.739659
Sint Jozefpark,37,,,1747HM,Tuitjenhorn,Schagen,Noord-Holland,VBO,4.746487,52.740213
Sint Jozefpark,38,,,1747HM,Tuitjenhorn,Schagen,Noord-Holland,VBO,4.746475,52.740148
Sint Jozefpark,39,,,1747HM,Tuitjenhorn,Schagen,Noord-Holland,VBO,4.746466,52.740092
Sint Jozefpark,40,,,1747HM,Tuitjenhorn,Schagen,Noord-Holland,VBO,4.746454,52.740028
Sint Jozefpark,41,,,1747HM,Tuitjenhorn,Schagen,Noord-Holland,VBO,4.746519,52.739837
Sint Jozefpark,42,,,1747HM,Tuitjenhorn,Schagen,Noord-Holland,VBO,4.746619,52.739828
Sint Jozefpark,43,,,1747HM,Tuitjenhorn,Schagen,Noord-Holland,VBO,4.746718,52.739818
Sint Jozefpark,44,,,1747HM,Tuitjenhorn,Schagen,Noord-Holland,VBO,4.746818,52.739809
Sint Jozefpark,45,,,1747HM,Tuitjenhorn,Schagen,Noord-Holland,VBO,4.746917,52.739799
Sint Jozefpark,46,,,1747HM,Tuitjenhorn,Schagen,Noord-Holland,VBO,4.747017,52.739789
Sint Jozefpark,47,,,1747HN,Tuitjenhorn,Schagen,Noord-Holland,VBO,4.747237,52.739953
Sint Jozefpark,48,,,1747HN,Tuitjenhorn,Schagen,Noord-Holland,VBO,4.747336,52.739944
Sint Jozefpark,49,,,1747HN,Tuitjenhorn,Schagen,Noord-Holland,VBO,4.747436,52.739934
Sint Jozefpark,50,,,1747HN,Tuitjenhorn,Schagen,Noord-Holland,VBO,4.747535,52.739925
Sint Jozefpark,51,,,1747HN,Tuitjenhorn,Schagen,Noord-Holland,VBO,4.747634,52.739915
Sint Jozefpark,52,,,1747HN,Tuitjenhorn,Schagen,Noord-Holland,VBO,4.747738,52.739907
Sint Jozefpark,53,,,1747HN,Tuitjenhorn,Schagen,Noord-Holland,VBO,4.748185,52.739762
Sint Jozefpark,54,,,1747HN,Tuitjenhorn,Schagen,Noord-Holland,VBO,4.748285,52.739752
Sint Jozefpark,55,,,1747HN,Tuitjenhorn,Schagen,Noord-Holland,VBO,4.748385,52.739743
Sint Jozefpark,56,t,,1747HN,Tuitjenhorn,Schagen,Noord-Holland,VBO,4.748595,52.739715
Sint Jozefpark,56,,,1747HN,Tuitjenhorn,Schagen,Noord-Holland,VBO,4.748485,52.739733
Sint Jozefpark,57,,,1747HN,Tuitjenhorn,Schagen,Noord-Holland,VBO,4.748549,52.739867
Sint Jozefpark,58,,,1747HN,Tuitjenhorn,Schagen,Noord-Holland,VBO,4.748570,52.739949
Sint Jozefpark,59,,,1747HN,Tuitjenhorn,Schagen,Noord-Holland,VBO,4.748227,52.740079
Sint Jozefpark,60,,,1747HN,Tuitjenhorn,Schagen,Noord-Holland,VBO,4.748128,52.740091
Sint Jozefpark,61,,,1747HN,Tuitjenhorn,Schagen,Noord-Holland,VBO,4.748029,52.740103
Sint Jozefpark,62,,,1747HN,Tuitjenhorn,Schagen,Noord-Holland,VBO,4.747921,52.740113
Sint Jozefpark,63,,,1747HN,Tuitjenhorn,Schagen,Noord-Holland,VBO,4.747721,52.740138
Sint Jozefpark,64,,,1747HN,Tuitjenhorn,Schagen,Noord-Holland,VBO,4.747622,52.740147
Sint Jozefpark,65,,,1747HN,Tuitjenhorn,Schagen,Noord-Holland,VBO,4.747524,52.740155
Sint Jozefpark,66,,,1747HN,Tuitjenhorn,Schagen,Noord-Holland,VBO,4.747430,52.740159
Stiegerstraat,1,,,1747HP,Tuitjenhorn,Schagen,Noord-Holland,VBO,4.748817,52.740434
Stiegerstraat,3,,,1747HP,Tuitjenhorn,Schagen,Noord-Holland,VBO,4.748693,52.740442
Stiegerstraat,5,,,1747HP,Tuitjenhorn,Schagen,Noord-Holland,VBO,4.748564,52.740455
Stiegerstraat,7,,,1747HP,Tuitjenhorn,Schagen,Noord-Holland,VBO,4.748442,52.740458
Stiegerstraat,9,,,1747HP,Tuitjenhorn,Schagen,Noord-Holland,VBO,4.748297,52.740468
Stiegerstraat,11,,,1747HP,Tuitjenhorn,Schagen,Noord-Holland,VBO,4.748218,52.740475
Stiegerstraat,13,,,1747HP,Tuitjenhorn,Schagen,Noord-Holland,VBO,4.748008,52.740460
Stiegerstraat,15,,,1747HP,Tuitjenhorn,Schagen,Noord-Holland,VBO,4.747831,52.740494
Stiegerstraat,17,,,1747HP,Tuitjenhorn,Schagen,Noord-Holland,VBO,4.747700,52.740500
Stiegerstraat,19,,,1747HP,Tuitjenhorn,Schagen,Noord-Holland,VBO,4.747534,52.740496
Stiegerstraat,21,,,1747HP,Tuitjenhorn,Schagen,Noord-Holland,VBO,4.747419,52.740506
Stiegerstraat,23,,,1747HP,Tuitjenhorn,Schagen,Noord-Holland,VBO,4.747263,52.740523
Stiegerstraat,25,,,1747HP,Tuitjenhorn,Schagen,Noord-Holland,VBO,4.747148,52.740534
Stiegerstraat,27,,,1747HP,Tuitjenhorn,Schagen,Noord-Holland,VBO,4.746975,52.740551
Stiegerstraat,29,,,1747HP,Tuitjenhorn,Schagen,Noord-Holland,VBO,4.746867,52.740561
Stiegerstraat,31,,,1747HP,Tuitjenhorn,Schagen,Noord-Holland,VBO,4.746508,52.740590
Stiegerstraat,2,,,1747HR,Tuitjenhorn,Schagen,Noord-Holland,VBO,4.748715,52.740732
Stiegerstraat,4,,,1747HR,Tuitjenhorn,Schagen,Noord-Holland,VBO,4.748312,52.740710
Stiegerstraat,6,,,1747HR,Tuitjenhorn,Schagen,Noord-Holland,VBO,4.748216,52.740715
Stiegerstraat,8,,,1747HR,Tuitjenhorn,Schagen,Noord-Holland,VBO,4.748056,52.740720
Stiegerstraat,10,,,1747HR,Tuitjenhorn,Schagen,Noord-Holland,VBO,4.747921,52.740731
Stiegerstraat,12,,,1747HR,Tuitjenhorn,Schagen,Noord-Holland,VBO,4.747745,52.740777
Stiegerstraat,14,,,1747HR,Tuitjenhorn,Schagen,Noord-Holland,VBO,4.747556,52.740789
Stiegerstraat,16,,,1747HR,Tuitjenhorn,Schagen,Noord-Holland,VBO,4.747128,52.740805
Stiegerstraat,18,,,1747HR,Tuitjenhorn,Schagen,Noord-Holland,VBO,4.747004,52.740814
Stiegerstraat,20,,,1747HR,Tuitjenhorn,Schagen,Noord-Holland,VBO,4.746838,52.740832
Stiegerstraat,22,,,1747HR,Tuitjenhorn,Schagen,Noord-Holland,VBO,4.746746,52.740844
Stiegerstraat,24,,,1747HR,Tuitjenhorn,Schagen,Noord-Holland,VBO,4.746556,52.740858
Stiegerstraat,26,,,1747HR,Tuitjenhorn,Schagen,Noord-Holland,VBO,4.746450,52.740871
Noletstraat,1,,,1747HS,Tuitjenhorn,Schagen,Noord-Holland,VBO,4.747197,52.741054
Noletstraat,3,,,1747HS,Tuitjenhorn,Schagen,Noord-Holland,VBO,4.747197,52.741180
Noletstraat,5,,,1747HS,Tuitjenhorn,Schagen,Noord-Holland,VBO,4.747190,52.741275
Noletstraat,7,,,1747HS,Tuitjenhorn,Schagen,Noord-Holland,VBO,4.747203,52.741333
Noletstraat,9,,,1747HS,Tuitjenhorn,Schagen,Noord-Holland,VBO,4.747206,52.741409
Noletstraat,11,,,1747HS,Tuitjenhorn,Schagen,Noord-Holland,VBO,4.747220,52.741501
Noletstraat,13,,,1747HS,Tuitjenhorn,Schagen,Noord-Holland,VBO,4.747227,52.741550
Noletstraat,15,,,1747HS,Tuitjenhorn,Schagen,Noord-Holland,VBO,4.747239,52.741606
Noletstraat,17,,,1747HS,Tuitjenhorn,Schagen,Noord-Holland,VBO,4.747252,52.741725
Noletstraat,19,,,1747HS,Tuitjenhorn,Schagen,Noord-Holland,VBO,4.747263,52.741766
Noletstraat,21,,,1747HS,Tuitjenhorn,Schagen,Noord-Holland,VBO,4.747265,52.741833
Noletstraat,23,,,1747HS,Tuitjenhorn,Schagen,Noord-Holland,VBO,4.747325,52.741937
Noletstraat,25,,,1747HS,Tuitjenhorn,Schagen,Noord-Holland,VBO,4.747331,52.741993
Noletstraat,27,,,1747HS,Tuitjenhorn,Schagen,Noord-Holland,VBO,4.747345,52.742048
Noletstraat,29,,,1747HS,Tuitjenhorn,Schagen,Noord-Holland,VBO,4.747367,52.742103
Noletstraat,2,,,1747HT,Tuitjenhorn,Schagen,Noord-Holland,VBO,4.747631,52.740991
Noletstraat,4,,,1747HT,Tuitjenhorn,Schagen,Noord-Holland,VBO,4.747642,52.741067
Noletstraat,6,,,1747HT,Tuitjenhorn,Schagen,Noord-Holland,VBO,4.747650,52.741124
Noletstraat,8,,,1747HT,Tuitjenhorn,Schagen,Noord-Holland,VBO,4.747657,52.741171
Noletstraat,10,,,1747HT,Tuitjenhorn,Schagen,Noord-Holland,VBO,4.747718,52.741261
Noletstraat,12,,,1747HT,Tuitjenhorn,Schagen,Noord-Holland,VBO,4.747728,52.741342
Noletstraat,14,,,1747HT,Tuitjenhorn,Schagen,Noord-Holland,VBO,4.747735,52.741395
Noletstraat,16,,,1747HT,Tuitjenhorn,Schagen,Noord-Holland,VBO,4.747740,52.741440
Noletstraat,18,,,1747HT,Tuitjenhorn,Schagen,Noord-Holland,VBO,4.747750,52.741526
Noletstraat,20,,,1747HT,Tuitjenhorn,Schagen,Noord-Holland,VBO,4.747766,52.741607
Noletstraat,22,,,1747HT,Tuitjenhorn,Schagen,Noord-Holland,VBO,4.747755,52.741650
Noletstraat,24,,,1747HT,Tuitjenhorn,Schagen,Noord-Holland,VBO,4.747785,52.741696
Noletstraat,26,,,1747HT,Tuitjenhorn,Schagen,Noord-Holland,VBO,4.747792,52.741799
Noletstraat,28,,,1747HT,Tuitjenhorn,Schagen,Noord-Holland,VBO,4.747805,52.741870
Noletstraat,30,,,1747HT,Tuitjenhorn,Schagen,Noord-Holland,VBO,4.747812,52.741908
Noletstraat,32,,,1747HT,Tuitjenhorn,Schagen,Noord-Holland,VBO,4.747755,52.742018
Noletstraat,34,,,1747HT,Tuitjenhorn,Schagen,Noord-Holland,VBO,4.747775,52.742096
Bogtmanweg,5,a,,1747HV,Tuitjenhorn,Schagen,Noord-Holland,VBO,4.746096,52.737154
Bogtmanweg,5,b,,1747HV,Tuitjenhorn,Schagen,Noord-Holland,VBO,4.744741,52.737182
Bogtmanweg,5,c,,1747HV,Tuitjenhorn,Schagen,Noord-Holland,VBO,4.743093,52.737228
Bogtmanweg,5,,,1747HV,Tuitjenhorn,Schagen,Noord-Holland,VBO,4.746310,52.736682
Bogtmanweg,7,a,,1747HV,Tuitjenhorn,Schagen,Noord-Holland,VBO,4.745640,52.737835
Bogtmanweg,7,,,1747HV,Tuitjenhorn,Schagen,Noord-Holland,VBO,4.745885,52.737644
Bogtmanweg,9,,,1747HV,Tuitjenhorn,Schagen,Noord-Holland,VBO,4.745981,52.741088
Bogtmanweg,2,,,1747HX,Tuitjenhorn,Schagen,Noord-Holland,VBO,4.747113,52.735464
Bogtmanweg,4,,,1747HX,Tuitjenhorn,Schagen,Noord-Holland,VBO,4.747114,52.735516
Bogtmanweg,6,,,1747HX,Tuitjenhorn,Schagen,Noord-Holland,VBO,4.747106,52.735575
Bogtmanweg,8,,,1747HX,Tuitjenhorn,Schagen,Noord-Holland,VBO,4.747076,52.735666
Bogtmanweg,10,,,1747HX,Tuitjenhorn,Schagen,Noord-Holland,VBO,4.747062,52.735741
Bogtmanweg,12,,,1747HX,Tuitjenhorn,Schagen,Noord-Holland,VBO,4.747051,52.735797
Bogtmanweg,14,,,1747HX,Tuitjenhorn,Schagen,Noord-Holland,VBO,4.747042,52.735843
Bogtmanweg,16,,,1747HX,Tuitjenhorn,Schagen,Noord-Holland,VBO,4.747020,52.735966
Bogtmanweg,18,,,1747HX,Tuitjenhorn,Schagen,Noord-Holland,VBO,4.747010,52.736025
Bogtmanweg,20,,,1747HX,Tuitjenhorn,Schagen,Noord-Holland,VBO,4.747002,52.736075
Bogtmanweg,22,,,1747HX,Tuitjenhorn,Schagen,Noord-Holland,VBO,4.746993,52.736125
Bogtmanweg,24,,,1747HX,Tuitjenhorn,Schagen,Noord-Holland,VBO,4.746984,52.736232
Bogtmanweg,26,,,1747HX,Tuitjenhorn,Schagen,Noord-Holland,VBO,4.746971,52.736288
Bogtmanweg,28,,,1747HX,Tuitjenhorn,Schagen,Noord-Holland,VBO,4.746963,52.736340
Bogtmanweg,30,,,1747HX,Tuitjenhorn,Schagen,Noord-Holland,VBO,4.746953,52.736392
Bogtmanweg,32,,,1747HX,Tuitjenhorn,Schagen,Noord-Holland,VBO,4.746874,52.736704
Bogtmanweg,34,,,1747HX,Tuitjenhorn,Schagen,Noord-Holland,VBO,4.746863,52.736757
Bogtmanweg,36,,,1747HX,Tuitjenhorn,Schagen,Noord-Holland,VBO,4.746824,52.736879
Bogtmanweg,38,,,1747HX,Tuitjenhorn,Schagen,Noord-Holland,VBO,4.746809,52.736936
Bogtmanweg,40,,,1747HX,Tuitjenhorn,Schagen,Noord-Holland,VBO,4.746767,52.737058
Bogtmanweg,42,,,1747HX,Tuitjenhorn,Schagen,Noord-Holland,VBO,4.746743,52.737122
Bogtmanweg,46,,,1747HZ,Tuitjenhorn,Schagen,Noord-Holland,VBO,4.747036,52.737919
Bogtmanweg,56,,,1747HZ,Tuitjenhorn,Schagen,Noord-Holland,VBO,4.746382,52.740435
Bogtmanweg,58,,,1747HZ,Tuitjenhorn,Schagen,Noord-Holland,VBO,4.746397,52.740503
Bogtmanweg,60,,,1747HZ,Tuitjenhorn,Schagen,Noord-Holland,VBO,4.746504,52.741142
Bogtmanweg,62,,,1747HZ,Tuitjenhorn,Schagen,Noord-Holland,VBO,4.746528,52.741271
Bogtmanweg,64,,,1747HZ,Tuitjenhorn,Schagen,Noord-Holland,VBO,4.746574,52.741396
Bogtmanweg,66,,,1747HZ,Tuitjenhorn,Schagen,Noord-Holland,VBO,4.746639,52.741522
Bogtmanweg,68,,,1747HZ,Tuitjenhorn,Schagen,Noord-Holland,VBO,4.746623,52.741647
Bogtmanweg,70,,,1747HZ,Tuitjenhorn,Schagen,Noord-Holland,VBO,4.746628,52.741778
Bogtmanweg,72,,,1747HZ,Tuitjenhorn,Schagen,Noord-Holland,VBO,4.746662,52.741908
Bogtmanweg,74,,,1747HZ,Tuitjenhorn,Schagen,Noord-Holland,VBO,4.746659,52.742032
Bogtmanweg,76,,,1747HZ,Tuitjenhorn,Schagen,Noord-Holland,VBO,4.746721,52.742185
Willem Dekkerstraat,1,,,1747JA,Tuitjenhorn,Schagen,Noord-Holland,VBO,4.749636,52.736698
Willem Dekkerstraat,2,a,,1747JA,Tuitjenhorn,Schagen,Noord-Holland,VBO,4.749431,52.736464
Willem Dekkerstraat,2,,,1747JA,Tuitjenhorn,Schagen,Noord-Holland,VBO,4.749613,52.736486
Willem Dekkerstraat,3,,,1747JA,Tuitjenhorn,Schagen,Noord-Holland,VBO,4.749730,52.736703
Willem Dekkerstraat,4,,,1747JA,Tuitjenhorn,Schagen,Noord-Holland,VBO,4.749699,52.736486
Willem Dekkerstraat,5,,,1747JA,Tuitjenhorn,Schagen,Noord-Holland,VBO,4.749810,52.736707
Willem Dekkerstraat,6,,,1747JA,Tuitjenhorn,Schagen,Noord-Holland,VBO,4.749776,52.736432
Willem Dekkerstraat,7,,,1747JA,Tuitjenhorn,Schagen,Noord-Holland,VBO,4.749891,52.736711
Willem Dekkerstraat,8,,,1747JA,Tuitjenhorn,Schagen,Noord-Holland,VBO,4.749863,52.736437
Willem Dekkerstraat,9,,,1747JA,Tuitjenhorn,Schagen,Noord-Holland,VBO,4.749983,52.736709
Willem Dekkerstraat,10,,,1747JA,Tuitjenhorn,Schagen,Noord-Holland,VBO,4.749961,52.736442
Willem Dekkerstraat,12,,,1747JA,Tuitjenhorn,Schagen,Noord-Holland,VBO,4.750037,52.736446
Manusveert,1,,,1747JB,Tuitjenhorn,Schagen,Noord-Holland,VBO,4.749905,52.736916
Manusveert,3,,,1747JB,Tuitjenhorn,Schagen,Noord-Holland,VBO,4.749925,52.736977
Manusveert,5,,,1747JB,Tuitjenhorn,Schagen,Noord-Holland,VBO,4.749940,52.737023
Manusveert,7,,,1747JB,Tuitjenhorn,Schagen,Noord-Holland,VBO,4.749955,52.737070
Manusveert,9,,,1747JB,Tuitjenhorn,Schagen,Noord-Holland,VBO,4.749972,52.737122
Manusveert,11,,,1747JB,Tuitjenhorn,Schagen,Noord-Holland,VBO,4.749986,52.737162
Manusveert,13,,,1747JB,Tuitjenhorn,Schagen,Noord-Holland,VBO,4.750182,52.737269
Manusveert,15,,,1747JB,Tuitjenhorn,Schagen,Noord-Holland,VBO,4.750197,52.737322
Manusveert,17,,,1747JB,Tuitjenhorn,Schagen,Noord-Holland,VBO,4.750223,52.737400
Manusveert,19,,,1747JB,Tuitjenhorn,Schagen,Noord-Holland,VBO,4.750244,52.737467
Manusveert,21,,,1747JB,Tuitjenhorn,Schagen,Noord-Holland,VBO,4.750297,52.737551
Manusveert,23,,,1747JB,Tuitjenhorn,Schagen,Noord-Holland,VBO,4.750325,52.737631
Manusveert,25,,,1747JB,Tuitjenhorn,Schagen,Noord-Holland,VBO,4.750544,52.737475
Manusveert,27,,,1747JB,Tuitjenhorn,Schagen,Noord-Holland,VBO,4.750603,52.737470
Manusveert,29,,,1747JB,Tuitjenhorn,Schagen,Noord-Holland,VBO,4.750669,52.737461
Manusveert,31,,,1747JB,Tuitjenhorn,Schagen,Noord-Holland,VBO,4.750755,52.737448
Manusveert,33,,,1747JB,Tuitjenhorn,Schagen,Noord-Holland,VBO,4.750895,52.737404
Manusveert,35,,,1747JB,Tuitjenhorn,Schagen,Noord-Holland,VBO,4.750951,52.737397
Manusveert,37,,,1747JB,Tuitjenhorn,Schagen,Noord-Holland,VBO,4.751031,52.737387
Manusveert,39,,,1747JB,Tuitjenhorn,Schagen,Noord-Holland,VBO,4.751099,52.737379
Manusveert,41,,,1747JB,Tuitjenhorn,Schagen,Noord-Holland,VBO,4.751178,52.737369
Manusveert,43,,,1747JB,Tuitjenhorn,Schagen,Noord-Holland,VBO,4.751246,52.737361
Manusveert,45,,,1747JB,Tuitjenhorn,Schagen,Noord-Holland,VBO,4.751333,52.737350
Manusveert,47,,,1747JB,Tuitjenhorn,Schagen,Noord-Holland,VBO,4.751556,52.737309
Manusveert,49,,,1747JB,Tuitjenhorn,Schagen,Noord-Holland,VBO,4.751569,52.737350
Manusveert,51,,,1747JB,Tuitjenhorn,Schagen,Noord-Holland,VBO,4.751582,52.737390
Manusveert,53,,,1747JB,Tuitjenhorn,Schagen,Noord-Holland,VBO,4.751595,52.737431
Manusveert,55,t,,1747JB,Tuitjenhorn,Schagen,Noord-Holland,VBO,4.751769,52.737264
Manusveert,55,,,1747JB,Tuitjenhorn,Schagen,Noord-Holland,VBO,4.751612,52.737483
Manusveert,57,,,1747JB,Tuitjenhorn,Schagen,Noord-Holland,VBO,4.752942,52.737202
Manusveert,59,,,1747JB,Tuitjenhorn,Schagen,Noord-Holland,VBO,4.753016,52.737207
Manusveert,61,,,1747JB,Tuitjenhorn,Schagen,Noord-Holland,VBO,4.753427,52.737405
Manusveert,63,,,1747JB,Tuitjenhorn,Schagen,Noord-Holland,VBO,4.753415,52.737516
Manusveert,65,,,1747JB,Tuitjenhorn,Schagen,Noord-Holland,VBO,4.753064,52.737600
Manusveert,116,,,1747JC,Tuitjenhorn,Schagen,Noord-Holland,VBO,4.753961,52.737342
Manusveert,118,,,1747JC,Tuitjenhorn,Schagen,Noord-Holland,VBO,4.753962,52.737481
Manusveert,120,,,1747JC,Tuitjenhorn,Schagen,Noord-Holland,VBO,4.753965,52.737629
Manusveert,122,,,1747JC,Tuitjenhorn,Schagen,Noord-Holland,VBO,4.753770,52.737699
Manusveert,124,,,1747JC,Tuitjenhorn,Schagen,Noord-Holland,VBO,4.753529,52.737785
Manusveert,126,,,1747JC,Tuitjenhorn,Schagen,Noord-Holland,VBO,4.753336,52.737850
Manusveert,128,,,1747JC,Tuitjenhorn,Schagen,Noord-Holland,VBO,4.753094,52.737915
Manusveert,130,,,1747JC,Tuitjenhorn,Schagen,Noord-Holland,VBO,4.752782,52.738063
Manusveert,132,,,1747JC,Tuitjenhorn,Schagen,Noord-Holland,VBO,4.752740,52.737990
Manusveert,134,,,1747JC,Tuitjenhorn,Schagen,Noord-Holland,VBO,4.752715,52.737899
Manusveert,136,,,1747JC,Tuitjenhorn,Schagen,Noord-Holland,VBO,4.752719,52.737849
Manusveert,138,,,1747JC,Tuitjenhorn,Schagen,Noord-Holland,VBO,4.752704,52.737743
Manusveert,140,,,1747JC,Tuitjenhorn,Schagen,Noord-Holland,VBO,4.752667,52.737621
Manusveert,142,,,1747JC,Tuitjenhorn,Schagen,Noord-Holland,VBO,4.752634,52.737493
Manusveert,2,,,1747JD,Tuitjenhorn,Schagen,Noord-Holland,VBO,4.750299,52.736366
Manusveert,4,,,1747JD,Tuitjenhorn,Schagen,Noord-Holland,VBO,4.750388,52.736375
Manusveert,6,,,1747JD,Tuitjenhorn,Schagen,Noord-Holland,VBO,4.750491,52.736385
Manusveert,8,,,1747JD,Tuitjenhorn,Schagen,Noord-Holland,VBO,4.750580,52.736385
Manusveert,10,,,1747JD,Tuitjenhorn,Schagen,Noord-Holland,VBO,4.750535,52.736466
Manusveert,12,,,1747JD,Tuitjenhorn,Schagen,Noord-Holland,VBO,4.750549,52.736520
Manusveert,14,,,1747JD,Tuitjenhorn,Schagen,Noord-Holland,VBO,4.750533,52.736565
Manusveert,16,,,1747JD,Tuitjenhorn,Schagen,Noord-Holland,VBO,4.750532,52.736619
Manusveert,18,,,1747JD,Tuitjenhorn,Schagen,Noord-Holland,VBO,4.750517,52.736664
Manusveert,20,,,1747JD,Tuitjenhorn,Schagen,Noord-Holland,VBO,4.750516,52.736717
Manusveert,22,,,1747JD,Tuitjenhorn,Schagen,Noord-Holland,VBO,4.750315,52.736330
Manusveert,24,,,1747JD,Tuitjenhorn,Schagen,Noord-Holland,VBO,4.750403,52.736339
Manusveert,26,,,1747JD,Tuitjenhorn,Schagen,Noord-Holland,VBO,4.750522,52.736340
Manusveert,28,,,1747JD,Tuitjenhorn,Schagen,Noord-Holland,VBO,4.750596,52.736349
Manusveert,30,,,1747JD,Tuitjenhorn,Schagen,Noord-Holland,VBO,4.750609,52.736475
Manusveert,32,,,1747JD,Tuitjenhorn,Schagen,Noord-Holland,VBO,4.750593,52.736529
Manusveert,34,,,1747JD,Tuitjenhorn,Schagen,Noord-Holland,VBO,4.750577,52.736574
Manusveert,36,,,1747JD,Tuitjenhorn,Schagen,Noord-Holland,VBO,4.750577,52.736628
Manusveert,38,,,1747JD,Tuitjenhorn,Schagen,Noord-Holland,VBO,4.750561,52.736673
Manusveert,40,,,1747JD,Tuitjenhorn,Schagen,Noord-Holland,VBO,4.750560,52.736727
Manusveert,42,,,1747JE,Tuitjenhorn,Schagen,Noord-Holland,VBO,4.750417,52.736800
Manusveert,44,,,1747JE,Tuitjenhorn,Schagen,Noord-Holland,VBO,4.750421,52.736851
Manusveert,46,,,1747JE,Tuitjenhorn,Schagen,Noord-Holland,VBO,4.750424,52.736896
Manusveert,48,,,1747JE,Tuitjenhorn,Schagen,Noord-Holland,VBO,4.750427,52.736947
Manusveert,50,,,1747JE,Tuitjenhorn,Schagen,Noord-Holland,VBO,4.750431,52.736999
Manusveert,52,,,1747JE,Tuitjenhorn,Schagen,Noord-Holland,VBO,4.750434,52.737043
Manusveert,54,,,1747JE,Tuitjenhorn,Schagen,Noord-Holland,VBO,4.750475,52.737253
Manusveert,56,,,1747JE,Tuitjenhorn,Schagen,Noord-Holland,VBO,4.750567,52.737241
Manusveert,58,,,1747JE,Tuitjenhorn,Schagen,Noord-Holland,VBO,4.750638,52.737234
Manusveert,60,,,1747JE,Tuitjenhorn,Schagen,Noord-Holland,VBO,4.750733,52.737223
Manusveert,62,,,1747JE,Tuitjenhorn,Schagen,Noord-Holland,VBO,4.750797,52.737213
Manusveert,64,,,1747JE,Tuitjenhorn,Schagen,Noord-Holland,VBO,4.750906,52.737156
Manusveert,66,,,1747JE,Tuitjenhorn,Schagen,Noord-Holland,VBO,4.750988,52.737146
Manusveert,68,,,1747JE,Tuitjenhorn,Schagen,Noord-Holland,VBO,4.751059,52.737137
Manusveert,70,,,1747JE,Tuitjenhorn,Schagen,Noord-Holland,VBO,4.751141,52.737127
Manusveert,72,,,1747JE,Tuitjenhorn,Schagen,Noord-Holland,VBO,4.751222,52.737118
Manusveert,74,,,1747JE,Tuitjenhorn,Schagen,Noord-Holland,VBO,4.751283,52.737110
Manusveert,76,,,1747JE,Tuitjenhorn,Schagen,Noord-Holland,VBO,4.751595,52.737100
Manusveert,78,,,1747JE,Tuitjenhorn,Schagen,Noord-Holland,VBO,4.751697,52.737087
Manusveert,80,,,1747JE,Tuitjenhorn,Schagen,Noord-Holland,VBO,4.751781,52.737076
Manusveert,82,,,1747JE,Tuitjenhorn,Schagen,Noord-Holland,VBO,4.751866,52.737065
Manusveert,84,,,1747JE,Tuitjenhorn,Schagen,Noord-Holland,VBO,4.751934,52.737056
Manusveert,86,,,1747JE,Tuitjenhorn,Schagen,Noord-Holland,VBO,4.752084,52.737056
Manusveert,88,,,1747JE,Tuitjenhorn,Schagen,Noord-Holland,VBO,4.752196,52.737044
Manusveert,90,,,1747JE,Tuitjenhorn,Schagen,Noord-Holland,VBO,4.752374,52.737021
Manusveert,92,,,1747JE,Tuitjenhorn,Schagen,Noord-Holland,VBO,4.752452,52.737012
Manusveert,94,,,1747JE,Tuitjenhorn,Schagen,Noord-Holland,VBO,4.752658,52.736993
Manusveert,96,,,1747JE,Tuitjenhorn,Schagen,Noord-Holland,VBO,4.752752,52.736997
Manusveert,98,,,1747JE,Tuitjenhorn,Schagen,Noord-Holland,VBO,4.752814,52.737001
Manusveert,100,,,1747JE,Tuitjenhorn,Schagen,Noord-Holland,VBO,4.753183,52.736971
Manusveert,102,,,1747JE,Tuitjenhorn,Schagen,Noord-Holland,VBO,4.753327,52.736978
Manusveert,104,,,1747JE,Tuitjenhorn,Schagen,Noord-Holland,VBO,4.753426,52.736976
Manusveert,106,,,1747JE,Tuitjenhorn,Schagen,Noord-Holland,VBO,4.753577,52.736992
Manusveert,108,,,1747JE,Tuitjenhorn,Schagen,Noord-Holland,VBO,4.753698,52.737020
Manusveert,110,,,1747JE,Tuitjenhorn,Schagen,Noord-Holland,VBO,4.753839,52.737029
Manusveert,112,,,1747JE,Tuitjenhorn,Schagen,Noord-Holland,VBO,4.753970,52.737038
Manusveert,114,,,1747JE,Tuitjenhorn,Schagen,Noord-Holland,VBO,4.754097,52.737045
Buttersloot,2,,,1747JG,Tuitjenhorn,Schagen,Noord-Holland,VBO,4.751228,52.736153
Buttersloot,4,,,1747JG,Tuitjenhorn,Schagen,Noord-Holland,VBO,4.751240,52.736191
Buttersloot,6,,,1747JG,Tuitjenhorn,Schagen,Noord-Holland,VBO,4.751255,52.736239
Buttersloot,8,,,1747JG,Tuitjenhorn,Schagen,Noord-Holland,VBO,4.751269,52.736282
Buttersloot,10,,,1747JG,Tuitjenhorn,Schagen,Noord-Holland,VBO,4.751323,52.736337
Buttersloot,12,,,1747JG,Tuitjenhorn,Schagen,Noord-Holland,VBO,4.751339,52.736387
Buttersloot,14,,,1747JG,Tuitjenhorn,Schagen,Noord-Holland,VBO,4.751353,52.736432
Buttersloot,16,,,1747JG,Tuitjenhorn,Schagen,Noord-Holland,VBO,4.751361,52.736468
Buttersloot,18,,,1747JG,Tuitjenhorn,Schagen,Noord-Holland,VBO,4.752460,52.736357
Buttersloot,20,,,1747JG,Tuitjenhorn,Schagen,Noord-Holland,VBO,4.752537,52.736364
Buttersloot,22,,,1747JG,Tuitjenhorn,Schagen,Noord-Holland,VBO,4.752795,52.736381
Buttersloot,24,,,1747JG,Tuitjenhorn,Schagen,Noord-Holland,VBO,4.752869,52.736384
Buttersloot,26,,,1747JG,Tuitjenhorn,Schagen,Noord-Holland,VBO,4.753306,52.736397
Buttersloot,28,,,1747JG,Tuitjenhorn,Schagen,Noord-Holland,VBO,4.753383,52.736403
Buttersloot,30,,,1747JG,Tuitjenhorn,Schagen,Noord-Holland,VBO,4.753554,52.736413
Buttersloot,32,,,1747JG,Tuitjenhorn,Schagen,Noord-Holland,VBO,4.753644,52.736422
Buttersloot,34,,,1747JG,Tuitjenhorn,Schagen,Noord-Holland,VBO,4.753797,52.736429
Buttersloot,36,,,1747JG,Tuitjenhorn,Schagen,Noord-Holland,VBO,4.753883,52.736434
Buttersloot,1,,,1747JH,Tuitjenhorn,Schagen,Noord-Holland,VBO,4.750973,52.736430
Buttersloot,3,,,1747JH,Tuitjenhorn,Schagen,Noord-Holland,VBO,4.750984,52.736464
Buttersloot,5,,,1747JH,Tuitjenhorn,Schagen,Noord-Holland,VBO,4.750998,52.736505
Buttersloot,7,,,1747JH,Tuitjenhorn,Schagen,Noord-Holland,VBO,4.751016,52.736557
Buttersloot,9,,,1747JH,Tuitjenhorn,Schagen,Noord-Holland,VBO,4.750998,52.736633
Buttersloot,11,,,1747JH,Tuitjenhorn,Schagen,Noord-Holland,VBO,4.751012,52.736676
Buttersloot,13,,,1747JH,Tuitjenhorn,Schagen,Noord-Holland,VBO,4.751029,52.736727
Buttersloot,15,,,1747JH,Tuitjenhorn,Schagen,Noord-Holland,VBO,4.751046,52.736777
Buttersloot,17,,,1747JH,Tuitjenhorn,Schagen,Noord-Holland,VBO,4.751060,52.736820
Buttersloot,19,,,1747JH,Tuitjenhorn,Schagen,Noord-Holland,VBO,4.751076,52.736870
Buttersloot,21,,,1747JH,Tuitjenhorn,Schagen,Noord-Holland,VBO,4.751500,52.736686
Buttersloot,23,,,1747JH,Tuitjenhorn,Schagen,Noord-Holland,VBO,4.751562,52.736679
Buttersloot,25,,,1747JH,Tuitjenhorn,Schagen,Noord-Holland,VBO,4.751644,52.736669
Buttersloot,27,,,1747JH,Tuitjenhorn,Schagen,Noord-Holland,VBO,4.751726,52.736660
Buttersloot,29,,,1747JH,Tuitjenhorn,Schagen,Noord-Holland,VBO,4.751798,52.736652
Buttersloot,31,,,1747JH,Tuitjenhorn,Schagen,Noord-Holland,VBO,4.751881,52.736643
Buttersloot,33,,,1747JH,Tuitjenhorn,Schagen,Noord-Holland,VBO,4.752029,52.736610
Buttersloot,35,,,1747JH,Tuitjenhorn,Schagen,Noord-Holland,VBO,4.752092,52.736603
Buttersloot,37,,,1747JH,Tuitjenhorn,Schagen,Noord-Holland,VBO,4.752175,52.736593
Buttersloot,39,,,1747JH,Tuitjenhorn,Schagen,Noord-Holland,VBO,4.752258,52.736584
Buttersloot,41,,,1747JH,Tuitjenhorn,Schagen,Noord-Holland,VBO,4.752331,52.736575
Buttersloot,43,,,1747JH,Tuitjenhorn,Schagen,Noord-Holland,VBO,4.752414,52.736565
Buttersloot,45,,,1747JH,Tuitjenhorn,Schagen,Noord-Holland,VBO,4.753912,52.736661
Buttersloot,47,,,1747JH,Tuitjenhorn,Schagen,Noord-Holland,VBO,4.753902,52.736725
Buttersloot,49,,,1747JH,Tuitjenhorn,Schagen,Noord-Holland,VBO,4.753895,52.736776
Buttersloot,51,,,1747JH,Tuitjenhorn,Schagen,Noord-Holland,VBO,4.753888,52.736820
Smidsloot,1,,,1747JJ,Tuitjenhorn,Schagen,Noord-Holland,VBO,4.751857,52.736069
Smidsloot,3,,,1747JJ,Tuitjenhorn,Schagen,Noord-Holland,VBO,4.751871,52.736111
Smidsloot,5,,,1747JJ,Tuitjenhorn,Schagen,Noord-Holland,VBO,4.751889,52.736156
Smidsloot,7,,,1747JJ,Tuitjenhorn,Schagen,Noord-Holland,VBO,4.751907,52.736208
Smidsloot,9,,,1747JJ,Tuitjenhorn,Schagen,Noord-Holland,VBO,4.751952,52.736249
Smidsloot,11,,,1747JJ,Tuitjenhorn,Schagen,Noord-Holland,VBO,4.751968,52.736295
Smidsloot,13,,,1747JJ,Tuitjenhorn,Schagen,Noord-Holland,VBO,4.751983,52.736337
Smidsloot,15,,,1747JJ,Tuitjenhorn,Schagen,Noord-Holland,VBO,4.752001,52.736387
Kerksloot,1,,,1747JK,Tuitjenhorn,Schagen,Noord-Holland,VBO,4.752898,52.736610
Kerksloot,2,,,1747JK,Tuitjenhorn,Schagen,Noord-Holland,VBO,4.753342,52.736017
Kerksloot,3,,,1747JK,Tuitjenhorn,Schagen,Noord-Holland,VBO,4.752889,52.736663
Kerksloot,4,,,1747JK,Tuitjenhorn,Schagen,Noord-Holland,VBO,4.753318,52.736140
Kerksloot,5,,,1747JK,Tuitjenhorn,Schagen,Noord-Holland,VBO,4.752881,52.736716
Kerksloot,7,,,1747JK,Tuitjenhorn,Schagen,Noord-Holland,VBO,4.752873,52.736770
Bansloot,1,,,1747JL,Tuitjenhorn,Schagen,Noord-Holland,VBO,4.752457,52.736037
Bansloot,3,,,1747JL,Tuitjenhorn,Schagen,Noord-Holland,VBO,4.752541,52.736038
Bansloot,5,,,1747JL,Tuitjenhorn,Schagen,Noord-Holland,VBO,4.752770,52.736031
Bansloot,7,,,1747JL,Tuitjenhorn,Schagen,Noord-Holland,VBO,4.752854,52.736032
Bansloot,9,,,1747JL,Tuitjenhorn,Schagen,Noord-Holland,VBO,4.753720,52.736026
Bansloot,11,,,1747JL,Tuitjenhorn,Schagen,Noord-Holland,VBO,4.753901,52.736005
Ligthof,1,,,1747KA,Tuitjenhorn,Schagen,Noord-Holland,VBO,4.738821,52.743649
Ligthof,2,,,1747KA,Tuitjenhorn,Schagen,Noord-Holland,VBO,4.738750,52.743573
Ligthof,3,,,1747KA,Tuitjenhorn,Schagen,Noord-Holland,VBO,4.738664,52.743489
Ligthof,4,,,1747KA,Tuitjenhorn,Schagen,Noord-Holland,VBO,4.738621,52.743368
Ligthof,5,,,1747KA,Tuitjenhorn,Schagen,Noord-Holland,VBO,4.738767,52.743371
Ligthof,6,,,1747KA,Tuitjenhorn,Schagen,Noord-Holland,VBO,4.738918,52.743399
Ligthof,7,,,1747KA,Tuitjenhorn,Schagen,Noord-Holland,VBO,4.739085,52.743644
Ligthof,8,,,1747KA,Tuitjenhorn,Schagen,Noord-Holland,VBO,4.739099,52.743554
Ligthof,9,,,1747KA,Tuitjenhorn,Schagen,Noord-Holland,VBO,4.739128,52.743466
Ligthof,10,,,1747KA,Tuitjenhorn,Schagen,Noord-Holland,VBO,4.739394,52.743317
Ligthof,11,,,1747KA,Tuitjenhorn,Schagen,Noord-Holland,VBO,4.739413,52.743218
Ligthof,12,,,1747KA,Tuitjenhorn,Schagen,Noord-Holland,VBO,4.739570,52.743061
Ligthof,13,,,1747KA,Tuitjenhorn,Schagen,Noord-Holland,VBO,4.739421,52.743046
Ligthof,14,,,1747KA,Tuitjenhorn,Schagen,Noord-Holland,VBO,4.739271,52.743035
Ligthof,15,,,1747KA,Tuitjenhorn,Schagen,Noord-Holland,VBO,4.739147,52.743080
Ligthof,16,,,1747KA,Tuitjenhorn,Schagen,Noord-Holland,VBO,4.739007,52.743129
Ligthof,17,,,1747KA,Tuitjenhorn,Schagen,Noord-Holland,VBO,4.738809,52.743052
Ligthof,18,,,1747KA,Tuitjenhorn,Schagen,Noord-Holland,VBO,4.738674,52.743097
Ligthof,19,,,1747KA,Tuitjenhorn,Schagen,Noord-Holland,VBO,4.738548,52.743146
Ligthof,20,,,1747KA,Tuitjenhorn,Schagen,Noord-Holland,VBO,4.738411,52.743195
Ligthof,21,,,1747KA,Tuitjenhorn,Schagen,Noord-Holland,VBO,4.738207,52.743115
Ligthof,22,,,1747KA,Tuitjenhorn,Schagen,Noord-Holland,VBO,4.738073,52.743157
Ligthof,23,,,1747KA,Tuitjenhorn,Schagen,Noord-Holland,VBO,4.737942,52.743207
Ligthof,24,,,1747KA,Tuitjenhorn,Schagen,Noord-Holland,VBO,4.737810,52.743251
Ligthof,25,,,1747KA,Tuitjenhorn,Schagen,Noord-Holland,VBO,4.737609,52.743184
Ligthof,26,,,1747KA,Tuitjenhorn,Schagen,Noord-Holland,VBO,4.737470,52.743229
Ligthof,27,,,1747KA,Tuitjenhorn,Schagen,Noord-Holland,VBO,4.737349,52.743275
Ligthof,28,,,1747KA,Tuitjenhorn,Schagen,Noord-Holland,VBO,4.738278,52.743608
Ligthof,29,,,1747KA,Tuitjenhorn,Schagen,Noord-Holland,VBO,4.738193,52.743529
Ligthof,30,,,1747KA,Tuitjenhorn,Schagen,Noord-Holland,VBO,4.738132,52.743452
Ligthof,31,,,1747KA,Tuitjenhorn,Schagen,Noord-Holland,VBO,4.738054,52.743371
Ligthof,32,,,1747KA,Tuitjenhorn,Schagen,Noord-Holland,VBO,4.737876,52.743631
Ligthof,33,,,1747KA,Tuitjenhorn,Schagen,Noord-Holland,VBO,4.737786,52.743553
Ligthof,34,,,1747KA,Tuitjenhorn,Schagen,Noord-Holland,VBO,4.737719,52.743479
Ligthof,35,,,1747KA,Tuitjenhorn,Schagen,Noord-Holland,VBO,4.737491,52.743655
Ligthof,36,,,1747KA,Tuitjenhorn,Schagen,Noord-Holland,VBO,4.737415,52.743573
Ligthof,37,,,1747KA,Tuitjenhorn,Schagen,Noord-Holland,VBO,4.737354,52.743495
Park Oase,1,p,1,1747KB,Tuitjenhorn,Schagen,Noord-Holland,VBO,4.740434,52.742849
Park Oase,1,p,2,1747KB,Tuitjenhorn,Schagen,Noord-Holland,VBO,4.740469,52.742845
Park Oase,1,p,3,1747KB,Tuitjenhorn,Schagen,Noord-Holland,VBO,4.740524,52.742842
Park Oase,1,p,4,1747KB,Tuitjenhorn,Schagen,Noord-Holland,VBO,4.740569,52.742835
Park Oase,1,p,5,1747KB,Tuitjenhorn,Schagen,Noord-Holland,VBO,4.740615,52.742835
Park Oase,1,,,1747KB,Tuitjenhorn,Schagen,Noord-Holland,VBO,4.740222,52.742477
Park Oase,2,,,1747KB,Tuitjenhorn,Schagen,Noord-Holland,VBO,4.740051,52.742366
Park Oase,3,,,1747KB,Tuitjenhorn,Schagen,Noord-Holland,VBO,4.740035,52.742218
Park Oase,4,,,1747KB,Tuitjenhorn,Schagen,Noord-Holland,VBO,4.739762,52.742264
Park Oase,5,,,1747KB,Tuitjenhorn,Schagen,Noord-Holland,VBO,4.739719,52.742454
Park Oase,6,,,1747KB,Tuitjenhorn,Schagen,Noord-Holland,VBO,4.739842,52.742541
Park Oase,7,,,1747KB,Tuitjenhorn,Schagen,Noord-Holland,VBO,4.740229,52.742953
Park Oase,8,,,1747KB,Tuitjenhorn,Schagen,Noord-Holland,VBO,4.740197,52.742821
Park Oase,9,,,1747KB,Tuitjenhorn,Schagen,Noord-Holland,VBO,4.740176,52.742645
Park Oase,10,,,1747KB,Tuitjenhorn,Schagen,Noord-Holland,VBO,4.739780,52.742684
Park Oase,11,,,1747KB,Tuitjenhorn,Schagen,Noord-Holland,VBO,4.739844,52.742825
Park Oase,12,,,1747KB,Tuitjenhorn,Schagen,Noord-Holland,VBO,4.739958,52.742984
Park Oase,13,,,1747KB,Tuitjenhorn,Schagen,Noord-Holland,VBO,4.739559,52.742524
Park Oase,14,,,1747KB,Tuitjenhorn,Schagen,Noord-Holland,VBO,4.739502,52.742359
Park Oase,15,,,1747KB,Tuitjenhorn,Schagen,Noord-Holland,VBO,4.739295,52.742318
Park Oase,16,,,1747KB,Tuitjenhorn,Schagen,Noord-Holland,VBO,4.739050,52.742408
Park Oase,17,,,1747KB,Tuitjenhorn,Schagen,Noord-Holland,VBO,4.739078,52.742579
Park Oase,18,,,1747KB,Tuitjenhorn,Schagen,Noord-Holland,VBO,4.739374,52.742547
Park Oase,19,,,1747KB,Tuitjenhorn,Schagen,Noord-Holland,VBO,4.738876,52.742427
Park Oase,20,,,1747KB,Tuitjenhorn,Schagen,Noord-Holland,VBO,4.738695,52.742450
Park Oase,21,,,1747KB,Tuitjenhorn,Schagen,Noord-Holland,VBO,4.738522,52.742469
Park Oase,22,,,1747KB,Tuitjenhorn,Schagen,Noord-Holland,VBO,4.739454,52.742702
Park Oase,23,,,1747KB,Tuitjenhorn,Schagen,Noord-Holland,VBO,4.739279,52.742728
Park Oase,24,,,1747KB,Tuitjenhorn,Schagen,Noord-Holland,VBO,4.739109,52.742750
Park Oase,25,,,1747KB,Tuitjenhorn,Schagen,Noord-Holland,VBO,4.738916,52.742792
Park Oase,26,,,1747KB,Tuitjenhorn,Schagen,Noord-Holland,VBO,4.738639,52.742812
Park Oase,27,,,1747KB,Tuitjenhorn,Schagen,Noord-Holland,VBO,4.738361,52.742846
Park Oase,28,,,1747KB,Tuitjenhorn,Schagen,Noord-Holland,VBO,4.738377,52.742726
Park Oase,29,,,1747KB,Tuitjenhorn,Schagen,Noord-Holland,VBO,4.738240,52.742588
Park Oase,30,,,1747KB,Tuitjenhorn,Schagen,Noord-Holland,VBO,4.737976,52.742618
Park Oase,31,,,1747KB,Tuitjenhorn,Schagen,Noord-Holland,VBO,4.738006,52.742772
Park Oase,32,,,1747KB,Tuitjenhorn,Schagen,Noord-Holland,VBO,4.738110,52.742891
Park Oase,33,,,1747KB,Tuitjenhorn,Schagen,Noord-Holland,VBO,4.737871,52.742900
Park Oase,34,,,1747KB,Tuitjenhorn,Schagen,Noord-Holland,VBO,4.737823,52.742749
Park Oase,35,,,1747KB,Tuitjenhorn,Schagen,Noord-Holland,VBO,4.737690,52.742654
Park Oase,36,,,1747KB,Tuitjenhorn,Schagen,Noord-Holland,VBO,4.737358,52.742696
Park Oase,37,,,1747KB,Tuitjenhorn,Schagen,Noord-Holland,VBO,4.737430,52.742824
Park Oase,38,,,1747KB,Tuitjenhorn,Schagen,Noord-Holland,VBO,4.737413,52.742962
Park Oase,39,,,1747KB,Tuitjenhorn,Schagen,Noord-Holland,VBO,4.737706,52.742934
Park Oase,40,,,1747KB,Tuitjenhorn,Schagen,Noord-Holland,VBO,4.738307,52.742436
Park Oase,41,,,1747KB,Tuitjenhorn,Schagen,Noord-Holland,VBO,4.738023,52.742469
Park Oase,42,,,1747KB,Tuitjenhorn,Schagen,Noord-Holland,VBO,4.737758,52.742500
Park Oase,43,,,1747KB,Tuitjenhorn,Schagen,Noord-Holland,VBO,4.737478,52.742537
Park Oase,44,,,1747KB,Tuitjenhorn,Schagen,Noord-Holland,VBO,4.737204,52.742576
Park Westerweide,1,,,1747KC,Tuitjenhorn,Schagen,Noord-Holland,VBO,4.740200,52.741823
Park Westerweide,2,,,1747KC,Tuitjenhorn,Schagen,Noord-Holland,VBO,4.740154,52.741909
Park Westerweide,3,,,1747KC,Tuitjenhorn,Schagen,Noord-Holland,VBO,4.740138,52.741992
Park Westerweide,4,,,1747KC,Tuitjenhorn,Schagen,Noord-Holland,VBO,4.739865,52.741892
Park Westerweide,5,,,1747KC,Tuitjenhorn,Schagen,Noord-Holland,VBO,4.739848,52.741979
Park Westerweide,6,,,1747KC,Tuitjenhorn,Schagen,Noord-Holland,VBO,4.739834,52.742060
Park Westerweide,7,,,1747KC,Tuitjenhorn,Schagen,Noord-Holland,VBO,4.739459,52.741866
Park Westerweide,8,,,1747KC,Tuitjenhorn,Schagen,Noord-Holland,VBO,4.739530,52.741947
Park Westerweide,9,,,1747KC,Tuitjenhorn,Schagen,Noord-Holland,VBO,4.739489,52.742028
Park Westerweide,10,,,1747KC,Tuitjenhorn,Schagen,Noord-Holland,VBO,4.739484,52.742111
Park Westerweide,11,,,1747KC,Tuitjenhorn,Schagen,Noord-Holland,VBO,4.740173,52.741607
Park Westerweide,12,,,1747KC,Tuitjenhorn,Schagen,Noord-Holland,VBO,4.740026,52.741597
Park Westerweide,13,,,1747KC,Tuitjenhorn,Schagen,Noord-Holland,VBO,4.739868,52.741591
Park Westerweide,14,,,1747KC,Tuitjenhorn,Schagen,Noord-Holland,VBO,4.739698,52.741657
Park Westerweide,15,,,1747KC,Tuitjenhorn,Schagen,Noord-Holland,VBO,4.739542,52.741652
Park Westerweide,16,,,1747KC,Tuitjenhorn,Schagen,Noord-Holland,VBO,4.739379,52.741645
Park Westerweide,17,,,1747KC,Tuitjenhorn,Schagen,Noord-Holland,VBO,4.739219,52.741694
Park Westerweide,18,,,1747KC,Tuitjenhorn,Schagen,Noord-Holland,VBO,4.739066,52.741728
Park Westerweide,19,,,1747KC,Tuitjenhorn,Schagen,Noord-Holland,VBO,4.738916,52.741773
Park Westerweide,20,,,1747KC,Tuitjenhorn,Schagen,Noord-Holland,VBO,4.738776,52.741821
Park Westerweide,21,,,1747KC,Tuitjenhorn,Schagen,Noord-Holland,VBO,4.738655,52.741867
Park Westerweide,22,,,1747KC,Tuitjenhorn,Schagen,Noord-Holland,VBO,4.738347,52.741920
Park Westerweide,23,,,1747KC,Tuitjenhorn,Schagen,Noord-Holland,VBO,4.738277,52.741851
Park Westerweide,24,,,1747KC,Tuitjenhorn,Schagen,Noord-Holland,VBO,4.738302,52.741761
Park Westerweide,25,,,1747KC,Tuitjenhorn,Schagen,Noord-Holland,VBO,4.738232,52.741693
Park Westerweide,26,,,1747KC,Tuitjenhorn,Schagen,Noord-Holland,VBO,4.738955,52.742098
Park Westerweide,27,,,1747KC,Tuitjenhorn,Schagen,Noord-Holland,VBO,4.738789,52.742087
Park Westerweide,28,,,1747KC,Tuitjenhorn,Schagen,Noord-Holland,VBO,4.738637,52.742072
Park Westerweide,29,,,1747KC,Tuitjenhorn,Schagen,Noord-Holland,VBO,4.738496,52.742121
Park Westerweide,30,,,1747KC,Tuitjenhorn,Schagen,Noord-Holland,VBO,4.738122,52.742003
Park Westerweide,31,,,1747KC,Tuitjenhorn,Schagen,Noord-Holland,VBO,4.738177,52.742091
Park Westerweide,32,,,1747KC,Tuitjenhorn,Schagen,Noord-Holland,VBO,4.738241,52.742175
Park Westerweide,33,,,1747KC,Tuitjenhorn,Schagen,Noord-Holland,VBO,4.738301,52.742252
Park Westerweide,34,,,1747KC,Tuitjenhorn,Schagen,Noord-Holland,VBO,4.737716,52.742053
Park Westerweide,35,,,1747KC,Tuitjenhorn,Schagen,Noord-Holland,VBO,4.737699,52.742153
Park Westerweide,36,,,1747KC,Tuitjenhorn,Schagen,Noord-Holland,VBO,4.737679,52.742243
Park Westerweide,37,,,1747KC,Tuitjenhorn,Schagen,Noord-Holland,VBO,4.737662,52.742321
Park Westerweide,38,,,1747KC,Tuitjenhorn,Schagen,Noord-Holland,VBO,4.737415,52.742220
Park Westerweide,39,,,1747KC,Tuitjenhorn,Schagen,Noord-Holland,VBO,4.737283,52.742269
Park Westerweide,40,,,1747KC,Tuitjenhorn,Schagen,Noord-Holland,VBO,4.737139,52.742310
Park Westerweide,41,,,1747KC,Tuitjenhorn,Schagen,Noord-Holland,VBO,4.736985,52.742298
Park Westerweide,42,,,1747KC,Tuitjenhorn,Schagen,Noord-Holland,VBO,4.736835,52.742290
Park Westerweide,43,,,1747KC,Tuitjenhorn,Schagen,Noord-Holland,VBO,4.737758,52.741903
Park Westerweide,44,,,1747KC,Tuitjenhorn,Schagen,Noord-Holland,VBO,4.737590,52.741890
Park Westerweide,45,,,1747KC,Tuitjenhorn,Schagen,Noord-Holland,VBO,4.737467,52.741933
Park Westerweide,46,,,1747KC,Tuitjenhorn,Schagen,Noord-Holland,VBO,4.737350,52.741986
Park Westerweide,47,,,1747KC,Tuitjenhorn,Schagen,Noord-Holland,VBO,4.737168,52.741968
Park Westerweide,48,,,1747KC,Tuitjenhorn,Schagen,Noord-Holland,VBO,4.736956,52.742146
Park Westerweide,49,,,1747KC,Tuitjenhorn,Schagen,Noord-Holland,VBO,4.736895,52.742076
Park Westerweide,50,,,1747KC,Tuitjenhorn,Schagen,Noord-Holland,VBO,4.736818,52.741994
Park Westerweide,51,,,1747KC,Tuitjenhorn,Schagen,Noord-Holland,VBO,4.736840,52.741903
Park Westerweide,52,,,1747KC,Tuitjenhorn,Schagen,Noord-Holland,VBO,4.736855,52.741813
Roockershuys,1,,,1747SB,Tuitjenhorn,Schagen,Noord-Holland,VBO,4.758315,52.736588
Roockershuys,2,,,1747SB,Tuitjenhorn,Schagen,Noord-Holland,VBO,4.758806,52.736581
Roockershuys,3,,,1747SB,Tuitjenhorn,Schagen,Noord-Holland,VBO,4.758338,52.736658
Roockershuys,4,,,1747SB,Tuitjenhorn,Schagen,Noord-Holland,VBO,4.758881,52.736675
Roockershuys,5,,,1747SB,Tuitjenhorn,Schagen,Noord-Holland,VBO,4.758359,52.736724
Roockershuys,6,,,1747SB,Tuitjenhorn,Schagen,Noord-Holland,VBO,4.758831,52.736903
Roockershuys,7,,,1747SB,Tuitjenhorn,Schagen,Noord-Holland,VBO,4.758424,52.736926
Roockershuys,8,,,1747SB,Tuitjenhorn,Schagen,Noord-Holland,VBO,4.758868,52.737057
Roockershuys,9,,,1747SB,Tuitjenhorn,Schagen,Noord-Holland,VBO,4.758269,52.736962
Roockershuys,10,,,1747SB,Tuitjenhorn,Schagen,Noord-Holland,VBO,4.758930,52.737216
Roockershuys,11,,,1747SB,Tuitjenhorn,Schagen,Noord-Holland,VBO,4.758262,52.736929
Roockershuys,12,,,1747SB,Tuitjenhorn,Schagen,Noord-Holland,VBO,4.757784,52.737271
Roockershuys,13,,,1747SB,Tuitjenhorn,Schagen,Noord-Holland,VBO,4.758171,52.736968
Roockershuys,14,,,1747SB,Tuitjenhorn,Schagen,Noord-Holland,VBO,4.757784,52.737271
Roockershuys,15,,,1747SB,Tuitjenhorn,Schagen,Noord-Holland,VBO,4.758163,52.736928
Roockershuys,16,,,1747SB,Tuitjenhorn,Schagen,Noord-Holland,VBO,4.757784,52.737271
Roockershuys,17,,,1747SB,Tuitjenhorn,Schagen,Noord-Holland,VBO,4.758080,52.736977
Roockershuys,18,,,1747SB,Tuitjenhorn,Schagen,Noord-Holland,VBO,4.757784,52.737271
Roockershuys,19,,,1747SB,Tuitjenhorn,Schagen,Noord-Holland,VBO,4.758074,52.736940
Roockershuys,20,,,1747SB,Tuitjenhorn,Schagen,Noord-Holland,VBO,4.757784,52.737271
Roockershuys,21,,,1747SB,Tuitjenhorn,Schagen,Noord-Holland,VBO,4.757995,52.736990
Roockershuys,22,,,1747SB,Tuitjenhorn,Schagen,Noord-Holland,VBO,4.757784,52.737271
Roockershuys,23,,,1747SB,Tuitjenhorn,Schagen,Noord-Holland,VBO,4.757988,52.736956
Roockershuys,24,,,1747SB,Tuitjenhorn,Schagen,Noord-Holland,VBO,4.756355,52.737400
Roockershuys,25,,,1747SB,Tuitjenhorn,Schagen,Noord-Holland,VBO,4.757658,52.737005
Roockershuys,26,,,1747SB,Tuitjenhorn,Schagen,Noord-Holland,VBO,4.756157,52.737441
Roockershuys,27,,,1747SB,Tuitjenhorn,Schagen,Noord-Holland,VBO,4.757569,52.737017
Roockershuys,29,,,1747SB,Tuitjenhorn,Schagen,Noord-Holland,VBO,4.757485,52.737026
Roockershuys,31,,,1747SB,Tuitjenhorn,Schagen,Noord-Holland,VBO,4.757403,52.737036
Roockershuys,33,,,1747SB,Tuitjenhorn,Schagen,Noord-Holland,VBO,4.757333,52.737045
Roockershuys,35,,,1747SB,Tuitjenhorn,Schagen,Noord-Holland,VBO,4.757156,52.737076
Roockershuys,37,,,1747SB,Tuitjenhorn,Schagen,Noord-Holland,VBO,4.757079,52.737085
Roockershuys,39,,,1747SB,Tuitjenhorn,Schagen,Noord-Holland,VBO,4.756888,52.737110
Roockershuys,41,,,1747SB,Tuitjenhorn,Schagen,Noord-Holland,VBO,4.756810,52.737127
Roockershuys,43,,,1747SB,Tuitjenhorn,Schagen,Noord-Holland,VBO,4.756630,52.737150
Roockershuys,45,,,1747SB,Tuitjenhorn,Schagen,Noord-Holland,VBO,4.756542,52.737165
Roockershuys,47,,,1747SB,Tuitjenhorn,Schagen,Noord-Holland,VBO,4.756365,52.737188
Roockershuys,49,,,1747SB,Tuitjenhorn,Schagen,Noord-Holland,VBO,4.756278,52.737206
Roockershuys,51,,,1747SB,Tuitjenhorn,Schagen,Noord-Holland,VBO,4.756010,52.737273
Roockershuys,53,,,1747SB,Tuitjenhorn,Schagen,Noord-Holland,VBO,4.755781,52.737332
Roockershuys,55,,,1747SB,Tuitjenhorn,Schagen,Noord-Holland,VBO,4.755547,52.737422
Kuileweid,1,,,1747SC,Tuitjenhorn,Schagen,Noord-Holland,VBO,4.758699,52.736266
Kuileweid,2,,,1747SC,Tuitjenhorn,Schagen,Noord-Holland,VBO,4.757558,52.736695
Kuileweid,3,,,1747SC,Tuitjenhorn,Schagen,Noord-Holland,VBO,4.758628,52.736275
Kuileweid,4,,,1747SC,Tuitjenhorn,Schagen,Noord-Holland,VBO,4.757478,52.736704
Kuileweid,5,,,1747SC,Tuitjenhorn,Schagen,Noord-Holland,VBO,4.758553,52.736283
Kuileweid,6,,,1747SC,Tuitjenhorn,Schagen,Noord-Holland,VBO,4.757399,52.736714
Kuileweid,7,,,1747SC,Tuitjenhorn,Schagen,Noord-Holland,VBO,4.758480,52.736292
Kuileweid,8,,,1747SC,Tuitjenhorn,Schagen,Noord-Holland,VBO,4.757319,52.736723
Kuileweid,9,,,1747SC,Tuitjenhorn,Schagen,Noord-Holland,VBO,4.758406,52.736301
Kuileweid,10,,,1747SC,Tuitjenhorn,Schagen,Noord-Holland,VBO,4.757231,52.736734
Kuileweid,11,,,1747SC,Tuitjenhorn,Schagen,Noord-Holland,VBO,4.758337,52.736309
Kuileweid,12,,,1747SC,Tuitjenhorn,Schagen,Noord-Holland,VBO,4.757025,52.736745
Kuileweid,13,,,1747SC,Tuitjenhorn,Schagen,Noord-Holland,VBO,4.758265,52.736318
Kuileweid,14,,,1747SC,Tuitjenhorn,Schagen,Noord-Holland,VBO,4.756940,52.736757
Kuileweid,15,,,1747SC,Tuitjenhorn,Schagen,Noord-Holland,VBO,4.758184,52.736328
Kuileweid,16,,,1747SC,Tuitjenhorn,Schagen,Noord-Holland,VBO,4.756696,52.736772
Kuileweid,17,,,1747SC,Tuitjenhorn,Schagen,Noord-Holland,VBO,4.758100,52.736342
Kuileweid,18,,,1747SC,Tuitjenhorn,Schagen,Noord-Holland,VBO,4.756612,52.736787
Kuileweid,19,,,1747SC,Tuitjenhorn,Schagen,Noord-Holland,VBO,4.757976,52.736314
Kuileweid,20,,,1747SC,Tuitjenhorn,Schagen,Noord-Holland,VBO,4.756413,52.736871
Kuileweid,21,,,1747SC,Tuitjenhorn,Schagen,Noord-Holland,VBO,4.757976,52.736314
Kuileweid,22,,,1747SC,Tuitjenhorn,Schagen,Noord-Holland,VBO,4.756336,52.736886
Kuileweid,23,,,1747SC,Tuitjenhorn,Schagen,Noord-Holland,VBO,4.757976,52.736314
Kuileweid,24,,,1747SC,Tuitjenhorn,Schagen,Noord-Holland,VBO,4.756259,52.736902
Kuileweid,25,,,1747SC,Tuitjenhorn,Schagen,Noord-Holland,VBO,4.757976,52.736314
Kuileweid,26,,,1747SC,Tuitjenhorn,Schagen,Noord-Holland,VBO,4.756182,52.736917
Kuileweid,27,,,1747SC,Tuitjenhorn,Schagen,Noord-Holland,VBO,4.757976,52.736314
Kuileweid,28,,,1747SC,Tuitjenhorn,Schagen,Noord-Holland,VBO,4.756105,52.736933
Kuileweid,29,,,1747SC,Tuitjenhorn,Schagen,Noord-Holland,VBO,4.757473,52.736458
Kuileweid,30,,,1747SC,Tuitjenhorn,Schagen,Noord-Holland,VBO,4.755874,52.737001
Kuileweid,31,,,1747SC,Tuitjenhorn,Schagen,Noord-Holland,VBO,4.757389,52.736468
Kuileweid,32,,,1747SC,Tuitjenhorn,Schagen,Noord-Holland,VBO,4.755660,52.737047
Kuileweid,33,,,1747SC,Tuitjenhorn,Schagen,Noord-Holland,VBO,4.757223,52.736488
Kuileweid,34,,,1747SC,Tuitjenhorn,Schagen,Noord-Holland,VBO,4.755435,52.737106
Kuileweid,35,,,1747SC,Tuitjenhorn,Schagen,Noord-Holland,VBO,4.757137,52.736499
Kuileweid,37,,,1747SC,Tuitjenhorn,Schagen,Noord-Holland,VBO,4.756971,52.736519
Kuileweid,39,,,1747SC,Tuitjenhorn,Schagen,Noord-Holland,VBO,4.756890,52.736530
Kuileweid,41,,,1747SC,Tuitjenhorn,Schagen,Noord-Holland,VBO,4.756651,52.736567
Kuileweid,43,,,1747SC,Tuitjenhorn,Schagen,Noord-Holland,VBO,4.756577,52.736580
Kuileweid,45,,,1747SC,Tuitjenhorn,Schagen,Noord-Holland,VBO,4.756404,52.736607
Kuileweid,47,,,1747SC,Tuitjenhorn,Schagen,Noord-Holland,VBO,4.756333,52.736624
Groteblok,1,,,1747SE,Tuitjenhorn,Schagen,Noord-Holland,VBO,4.758996,52.735672
Groteblok,2,,,1747SE,Tuitjenhorn,Schagen,Noord-Holland,VBO,4.758621,52.735993
Groteblok,3,,,1747SE,Tuitjenhorn,Schagen,Noord-Holland,VBO,4.758780,52.735702
Groteblok,4,,,1747SE,Tuitjenhorn,Schagen,Noord-Holland,VBO,4.758547,52.736002
Groteblok,5,,,1747SE,Tuitjenhorn,Schagen,Noord-Holland,VBO,4.758612,52.735725
Groteblok,6,,,1747SE,Tuitjenhorn,Schagen,Noord-Holland,VBO,4.758473,52.736011
Groteblok,7,,,1747SE,Tuitjenhorn,Schagen,Noord-Holland,VBO,4.758408,52.735754
Groteblok,8,,,1747SE,Tuitjenhorn,Schagen,Noord-Holland,VBO,4.758399,52.736020
Groteblok,9,,,1747SE,Tuitjenhorn,Schagen,Noord-Holland,VBO,4.757286,52.735880
Groteblok,10,,,1747SE,Tuitjenhorn,Schagen,Noord-Holland,VBO,4.758316,52.736030
Groteblok,11,,,1747SE,Tuitjenhorn,Schagen,Noord-Holland,VBO,4.757226,52.735905
Groteblok,12,,,1747SE,Tuitjenhorn,Schagen,Noord-Holland,VBO,4.758242,52.736039
Groteblok,13,,,1747SE,Tuitjenhorn,Schagen,Noord-Holland,VBO,4.757150,52.735914
Groteblok,14,,,1747SE,Tuitjenhorn,Schagen,Noord-Holland,VBO,4.758168,52.736047
Groteblok,15,,,1747SE,Tuitjenhorn,Schagen,Noord-Holland,VBO,4.757072,52.735921
Groteblok,16,,,1747SE,Tuitjenhorn,Schagen,Noord-Holland,VBO,4.757890,52.736150
Groteblok,17,,,1747SE,Tuitjenhorn,Schagen,Noord-Holland,VBO,4.756991,52.735934
Groteblok,18,,,1747SE,Tuitjenhorn,Schagen,Noord-Holland,VBO,4.757890,52.736150
Groteblok,19,,,1747SE,Tuitjenhorn,Schagen,Noord-Holland,VBO,4.756813,52.735948
Groteblok,20,,,1747SE,Tuitjenhorn,Schagen,Noord-Holland,VBO,4.757890,52.736150
Groteblok,21,,,1747SE,Tuitjenhorn,Schagen,Noord-Holland,VBO,4.756724,52.735961
Groteblok,22,,,1747SE,Tuitjenhorn,Schagen,Noord-Holland,VBO,4.757890,52.736150
Groteblok,23,,,1747SE,Tuitjenhorn,Schagen,Noord-Holland,VBO,4.756513,52.735989
Groteblok,24,,,1747SE,Tuitjenhorn,Schagen,Noord-Holland,VBO,4.757890,52.736150
Groteblok,25,,,1747SE,Tuitjenhorn,Schagen,Noord-Holland,VBO,4.756430,52.736003
Groteblok,26,,,1747SE,Tuitjenhorn,Schagen,Noord-Holland,VBO,4.757890,52.736150
Groteblok,27,,,1747SE,Tuitjenhorn,Schagen,Noord-Holland,VBO,4.756220,52.736040
Groteblok,28,,,1747SE,Tuitjenhorn,Schagen,Noord-Holland,VBO,4.757890,52.736150
Groteblok,29,,,1747SE,Tuitjenhorn,Schagen,Noord-Holland,VBO,4.756139,52.736055
Groteblok,30,,,1747SE,Tuitjenhorn,Schagen,Noord-Holland,VBO,4.757354,52.736109
Groteblok,31,,,1747SE,Tuitjenhorn,Schagen,Noord-Holland,VBO,4.755964,52.736086
Groteblok,32,,,1747SE,Tuitjenhorn,Schagen,Noord-Holland,VBO,4.757270,52.736120
Groteblok,33,,,1747SE,Tuitjenhorn,Schagen,Noord-Holland,VBO,4.755894,52.736102
Groteblok,34,,,1747SE,Tuitjenhorn,Schagen,Noord-Holland,VBO,4.757113,52.736152
Groteblok,35,,,1747SE,Tuitjenhorn,Schagen,Noord-Holland,VBO,4.755816,52.736119
Groteblok,36,,,1747SE,Tuitjenhorn,Schagen,Noord-Holland,VBO,4.757027,52.736162
Groteblok,37,,,1747SE,Tuitjenhorn,Schagen,Noord-Holland,VBO,4.755744,52.736135
Groteblok,38,,,1747SE,Tuitjenhorn,Schagen,Noord-Holland,VBO,4.756822,52.736184
Groteblok,39,,,1747SE,Tuitjenhorn,Schagen,Noord-Holland,VBO,4.755660,52.736151
Groteblok,40,,,1747SE,Tuitjenhorn,Schagen,Noord-Holland,VBO,4.756737,52.736197
Groteblok,42,,,1747SE,Tuitjenhorn,Schagen,Noord-Holland,VBO,4.756543,52.736233
Groteblok,44,,,1747SE,Tuitjenhorn,Schagen,Noord-Holland,VBO,4.756453,52.736249
Groteblok,46,,,1747SE,Tuitjenhorn,Schagen,Noord-Holland,VBO,4.756253,52.736281
Groteblok,48,,,1747SE,Tuitjenhorn,Schagen,Noord-Holland,VBO,4.756176,52.736297
Watering,1,,,1747SG,Tuitjenhorn,Schagen,Noord-Holland,VBO,4.755231,52.736072
Watering,2,,,1747SG,Tuitjenhorn,Schagen,Noord-Holland,VBO,4.759056,52.735316
Watering,3,,,1747SG,Tuitjenhorn,Schagen,Noord-Holland,VBO,4.755311,52.736198
Watering,4,,,1747SG,Tuitjenhorn,Schagen,Noord-Holland,VBO,4.758809,52.735352
Watering,5,,,1747SG,Tuitjenhorn,Schagen,Noord-Holland,VBO,4.755407,52.736365
Watering,6,,,1747SG,Tuitjenhorn,Schagen,Noord-Holland,VBO,4.758557,52.735374
Watering,8,,,1747SG,Tuitjenhorn,Schagen,Noord-Holland,VBO,4.758287,52.735401
Watering,10,,,1747SG,Tuitjenhorn,Schagen,Noord-Holland,VBO,4.757932,52.735440
Watering,12,,,1747SG,Tuitjenhorn,Schagen,Noord-Holland,VBO,4.757853,52.735450
Watering,14,,,1747SG,Tuitjenhorn,Schagen,Noord-Holland,VBO,4.757774,52.735459
Watering,16,,,1747SG,Tuitjenhorn,Schagen,Noord-Holland,VBO,4.757695,52.735469
Watering,18,,,1747SG,Tuitjenhorn,Schagen,Noord-Holland,VBO,4.757615,52.735478
Watering,20,,,1747SG,Tuitjenhorn,Schagen,Noord-Holland,VBO,4.757532,52.735488
Watering,22,,,1747SG,Tuitjenhorn,Schagen,Noord-Holland,VBO,4.757126,52.735563
Watering,24,,,1747SG,Tuitjenhorn,Schagen,Noord-Holland,VBO,4.756872,52.735588
Watering,26,,,1747SG,Tuitjenhorn,Schagen,Noord-Holland,VBO,4.756610,52.735590
Watering,28,,,1747SG,Tuitjenhorn,Schagen,Noord-Holland,VBO,4.756343,52.735603
Watering,30,,,1747SG,Tuitjenhorn,Schagen,Noord-Holland,VBO,4.756113,52.735634
Watering,32,,,1747SG,Tuitjenhorn,Schagen,Noord-Holland,VBO,4.755851,52.735674
Watering,34,,,1747SG,Tuitjenhorn,Schagen,Noord-Holland,VBO,4.755646,52.735744
Watering,36,,,1747SG,Tuitjenhorn,Schagen,Noord-Holland,VBO,4.755433,52.735783
Watering,38,,,1747SG,Tuitjenhorn,Schagen,Noord-Holland,VBO,4.755891,52.736378
Watering,40,,,1747SG,Tuitjenhorn,Schagen,Noord-Holland,VBO,4.755924,52.736539
Watering,42,,,1747SG,Tuitjenhorn,Schagen,Noord-Holland,VBO,4.756021,52.736671
De Posten,1,,,1747SH,Tuitjenhorn,Schagen,Noord-Holland,VBO,4.756702,52.734839
De Posten,3,,,1747SH,Tuitjenhorn,Schagen,Noord-Holland,VBO,4.756900,52.734861
De Posten,5,,,1747SH,Tuitjenhorn,Schagen,Noord-Holland,VBO,4.756967,52.735158
De Posten,6,,,1747SH,Tuitjenhorn,Schagen,Noord-Holland,VBO,4.757229,52.734527
De Posten,8,,,1747SH,Tuitjenhorn,Schagen,Noord-Holland,VBO,4.757245,52.734572
De Posten,10,,,1747SH,Tuitjenhorn,Schagen,Noord-Holland,VBO,4.757265,52.734627
De Posten,12,,,1747SH,Tuitjenhorn,Schagen,Noord-Holland,VBO,4.757279,52.734671
De Posten,14,,,1747SH,Tuitjenhorn,Schagen,Noord-Holland,VBO,4.757296,52.734717
De Posten,16,,,1747SH,Tuitjenhorn,Schagen,Noord-Holland,VBO,4.757323,52.734806
De Posten,18,,,1747SH,Tuitjenhorn,Schagen,Noord-Holland,VBO,4.757343,52.734866
De Posten,20,,,1747SH,Tuitjenhorn,Schagen,Noord-Holland,VBO,4.757355,52.734906
De Posten,22,,,1747SH,Tuitjenhorn,Schagen,Noord-Holland,VBO,4.757373,52.734955
De Posten,24,,,1747SH,Tuitjenhorn,Schagen,Noord-Holland,VBO,4.757385,52.734998
De Posten,26,,,1747SH,Tuitjenhorn,Schagen,Noord-Holland,VBO,4.757422,52.735128
De Posten,28,,,1747SH,Tuitjenhorn,Schagen,Noord-Holland,VBO,4.757560,52.735727
De Posten,30,,,1747SH,Tuitjenhorn,Schagen,Noord-Holland,VBO,4.757576,52.735775
De Posten,32,,,1747SH,Tuitjenhorn,Schagen,Noord-Holland,VBO,4.757592,52.735823
De Posten,34,,,1747SH,Tuitjenhorn,Schagen,Noord-Holland,VBO,4.757607,52.735871
De Posten,36,,,1747SH,Tuitjenhorn,Schagen,Noord-Holland,VBO,4.757623,52.735920
De Posten,38,,,1747SH,Tuitjenhorn,Schagen,Noord-Holland,VBO,4.757844,52.736595
De Posten,40,,,1747SH,Tuitjenhorn,Schagen,Noord-Holland,VBO,4.757860,52.736644
De Posten,42,,,1747SH,Tuitjenhorn,Schagen,Noord-Holland,VBO,4.757876,52.736692
De Posten,44,,,1747SH,Tuitjenhorn,Schagen,Noord-Holland,VBO,4.757891,52.736740
De Posten,46,,,1747SH,Tuitjenhorn,Schagen,Noord-Holland,VBO,4.757907,52.736788
Munnickewerff,1,,,1747SJ,Tuitjenhorn,Schagen,Noord-Holland,VBO,4.758030,52.735671
Munnickewerff,3,,,1747SJ,Tuitjenhorn,Schagen,Noord-Holland,VBO,4.758066,52.735745
Munnickewerff,5,,,1747SJ,Tuitjenhorn,Schagen,Noord-Holland,VBO,4.758081,52.735814
De Punter,1,,,1747SK,Tuitjenhorn,Schagen,Noord-Holland,VBO,4.756012,52.733953
De Punter,2,,,1747SK,Tuitjenhorn,Schagen,Noord-Holland,VBO,4.756595,52.734862
De Punter,3,,,1747SK,Tuitjenhorn,Schagen,Noord-Holland,VBO,4.756054,52.734094
De Punter,4,,,1747SK,Tuitjenhorn,Schagen,Noord-Holland,VBO,4.756432,52.734916
De Punter,5,,,1747SK,Tuitjenhorn,Schagen,Noord-Holland,VBO,4.756097,52.734235
De Punter,6,,,1747SK,Tuitjenhorn,Schagen,Noord-Holland,VBO,4.756334,52.734929
De Punter,7,,,1747SK,Tuitjenhorn,Schagen,Noord-Holland,VBO,4.756140,52.734376
De Punter,8,,,1747SK,Tuitjenhorn,Schagen,Noord-Holland,VBO,4.756174,52.735016
De Punter,9,,,1747SK,Tuitjenhorn,Schagen,Noord-Holland,VBO,4.756182,52.734517
De Punter,10,,,1747SK,Tuitjenhorn,Schagen,Noord-Holland,VBO,4.756050,52.735033
De Punter,11,,,1747SK,Tuitjenhorn,Schagen,Noord-Holland,VBO,4.756225,52.734659
De Punter,12,,,1747SK,Tuitjenhorn,Schagen,Noord-Holland,VBO,4.755908,52.735121
De Punter,14,,,1747SK,Tuitjenhorn,Schagen,Noord-Holland,VBO,4.755782,52.735143
Mosterdpot,1,,,1747SL,Tuitjenhorn,Schagen,Noord-Holland,VBO,4.757728,52.734458
Mosterdpot,2,,,1747SL,Tuitjenhorn,Schagen,Noord-Holland,VBO,4.756783,52.734340
Mosterdpot,3,,,1747SL,Tuitjenhorn,Schagen,Noord-Holland,VBO,4.757761,52.734569
Mosterdpot,4,,,1747SL,Tuitjenhorn,Schagen,Noord-Holland,VBO,4.756950,52.734325
Mosterdpot,5,,,1747SL,Tuitjenhorn,Schagen,Noord-Holland,VBO,4.757772,52.734615
Mosterdpot,6,,,1747SL,Tuitjenhorn,Schagen,Noord-Holland,VBO,4.757189,52.734325
Mosterdpot,7,,,1747SL,Tuitjenhorn,Schagen,Noord-Holland,VBO,4.757825,52.734717
Mosterdpot,8,,,1747SL,Tuitjenhorn,Schagen,Noord-Holland,VBO,4.757275,52.734315
Mosterdpot,9,,,1747SL,Tuitjenhorn,Schagen,Noord-Holland,VBO,4.757841,52.734767
Mosterdpot,10,,,1747SL,Tuitjenhorn,Schagen,Noord-Holland,VBO,4.757348,52.734307
Mosterdpot,11,,,1747SL,Tuitjenhorn,Schagen,Noord-Holland,VBO,4.757879,52.734860
Mosterdpot,12,,,1747SL,Tuitjenhorn,Schagen,Noord-Holland,VBO,4.757431,52.734299
Mosterdpot,13,,,1747SL,Tuitjenhorn,Schagen,Noord-Holland,VBO,4.757893,52.734910
Mosterdpot,14,,,1747SL,Tuitjenhorn,Schagen,Noord-Holland,VBO,4.757504,52.734290
Mosterdpot,15,,,1747SL,Tuitjenhorn,Schagen,Noord-Holland,VBO,4.757911,52.735021
Mosterdpot,16,,,1747SL,Tuitjenhorn,Schagen,Noord-Holland,VBO,4.757585,52.734282
Mosterdpot,18,,,1747SL,Tuitjenhorn,Schagen,Noord-Holland,VBO,4.757660,52.734272
Mosterdpot,20,,,1747SL,Tuitjenhorn,Schagen,Noord-Holland,VBO,4.757739,52.734263
Mosterdpot,22,,,1747SL,Tuitjenhorn,Schagen,Noord-Holland,VBO,4.757870,52.734023
Mosterdpot,24,,,1747SL,Tuitjenhorn,Schagen,Noord-Holland,VBO,4.757968,52.734009
Mosterdpot,26,,,1747SL,Tuitjenhorn,Schagen,Noord-Holland,VBO,4.758054,52.734016
Mosterdpot,28,,,1747SL,Tuitjenhorn,Schagen,Noord-Holland,VBO,4.758124,52.733980
Mosterdpot,30,,,1747SL,Tuitjenhorn,Schagen,Noord-Holland,VBO,4.758209,52.733992
Mosterdpot,32,,,1747SL,Tuitjenhorn,Schagen,Noord-Holland,VBO,4.758278,52.733964
Mosterdpot,34,,,1747SL,Tuitjenhorn,Schagen,Noord-Holland,VBO,4.758199,52.734363
Mosterdpot,36,,,1747SL,Tuitjenhorn,Schagen,Noord-Holland,VBO,4.758171,52.734433
Mosterdpot,38,,,1747SL,Tuitjenhorn,Schagen,Noord-Holland,VBO,4.758240,52.734533
Mosterdpot,40,,,1747SL,Tuitjenhorn,Schagen,Noord-Holland,VBO,4.758257,52.734579
Mosterdpot,42,,,1747SL,Tuitjenhorn,Schagen,Noord-Holland,VBO,4.758290,52.734682
Mosterdpot,44,,,1747SL,Tuitjenhorn,Schagen,Noord-Holland,VBO,4.758301,52.734730
Mosterdpot,46,,,1747SL,Tuitjenhorn,Schagen,Noord-Holland,VBO,4.758332,52.734834
Mosterdpot,48,,,1747SL,Tuitjenhorn,Schagen,Noord-Holland,VBO,4.758346,52.734885
Mosterdpot,50,,,1747SL,Tuitjenhorn,Schagen,Noord-Holland,VBO,4.758424,52.735022
De Kloet,1,,,1747TA,Tuitjenhorn,Schagen,Noord-Holland,VBO,4.752363,52.734826
De Kloet,3,,,1747TA,Tuitjenhorn,Schagen,Noord-Holland,VBO,4.752154,52.734850
De Kloet,5,,,1747TA,Tuitjenhorn,Schagen,Noord-Holland,VBO,4.751798,52.734898
De Kloet,7,,,1747TA,Tuitjenhorn,Schagen,Noord-Holland,VBO,4.751728,52.734907
De Kloet,9,,,1747TA,Tuitjenhorn,Schagen,Noord-Holland,VBO,4.751641,52.734919
De Kloet,11,,,1747TA,Tuitjenhorn,Schagen,Noord-Holland,VBO,4.751571,52.734928
De Kloet,13,,,1747TA,Tuitjenhorn,Schagen,Noord-Holland,VBO,4.751483,52.734940
De Kloet,15,,,1747TA,Tuitjenhorn,Schagen,Noord-Holland,VBO,4.751359,52.734932
De Kloet,17,,,1747TA,Tuitjenhorn,Schagen,Noord-Holland,VBO,4.751264,52.734944
De Kloet,19,,,1747TA,Tuitjenhorn,Schagen,Noord-Holland,VBO,4.751178,52.734955
De Kloet,21,,,1747TA,Tuitjenhorn,Schagen,Noord-Holland,VBO,4.751085,52.734965
De Kloet,23,,,1747TA,Tuitjenhorn,Schagen,Noord-Holland,VBO,4.750974,52.735000
De Kloet,25,,,1747TA,Tuitjenhorn,Schagen,Noord-Holland,VBO,4.750901,52.735009
De Kloet,27,,,1747TA,Tuitjenhorn,Schagen,Noord-Holland,VBO,4.750810,52.735020
De Kloet,29,,,1747TA,Tuitjenhorn,Schagen,Noord-Holland,VBO,4.750719,52.735031
De Kloet,31,,,1747TA,Tuitjenhorn,Schagen,Noord-Holland,VBO,4.750625,52.735043
De Kloet,2,,,1747TB,Tuitjenhorn,Schagen,Noord-Holland,VBO,4.752471,52.735055
De Kloet,4,,,1747TB,Tuitjenhorn,Schagen,Noord-Holland,VBO,4.752307,52.735110
De Kloet,6,,,1747TB,Tuitjenhorn,Schagen,Noord-Holland,VBO,4.752176,52.735124
De Kloet,8,,,1747TB,Tuitjenhorn,Schagen,Noord-Holland,VBO,4.751967,52.735118
De Kloet,10,,,1747TB,Tuitjenhorn,Schagen,Noord-Holland,VBO,4.751853,52.735134
De Flint,1,a,,1747TC,Tuitjenhorn,Schagen,Noord-Holland,VBO,4.750469,52.734945
De Flint,1,b,,1747TC,Tuitjenhorn,Schagen,Noord-Holland,VBO,4.750429,52.734954
De Flint,1,c,,1747TC,Tuitjenhorn,Schagen,Noord-Holland,VBO,4.750385,52.734955
De Flint,1,d,,1747TC,Tuitjenhorn,Schagen,Noord-Holland,VBO,4.750349,52.734958
De Flint,1,e,,1747TC,Tuitjenhorn,Schagen,Noord-Holland,VBO,4.750320,52.734962
De Flint,1,,,1747TC,Tuitjenhorn,Schagen,Noord-Holland,VBO,4.750360,52.735074
De Flint,3,,,1747TC,Tuitjenhorn,Schagen,Noord-Holland,VBO,4.750348,52.735129
De Flint,5,,,1747TC,Tuitjenhorn,Schagen,Noord-Holland,VBO,4.750365,52.735178
De Flint,7,,,1747TC,Tuitjenhorn,Schagen,Noord-Holland,VBO,4.750392,52.735235
De Flint,9,,,1747TC,Tuitjenhorn,Schagen,Noord-Holland,VBO,4.750329,52.735315
De Flint,11,,,1747TC,Tuitjenhorn,Schagen,Noord-Holland,VBO,4.750308,52.735350
De Flint,13,,,1747TC,Tuitjenhorn,Schagen,Noord-Holland,VBO,4.750325,52.735403
De Flint,15,,,1747TC,Tuitjenhorn,Schagen,Noord-Holland,VBO,4.750340,52.735450
De Flint,17,,,1747TC,Tuitjenhorn,Schagen,Noord-Holland,VBO,4.750356,52.735496
De Flint,19,,,1747TC,Tuitjenhorn,Schagen,Noord-Holland,VBO,4.750334,52.735586
De Flint,21,,,1747TC,Tuitjenhorn,Schagen,Noord-Holland,VBO,4.750311,52.735629
De Flint,23,,,1747TC,Tuitjenhorn,Schagen,Noord-Holland,VBO,4.750328,52.735681
De Flint,25,,,1747TC,Tuitjenhorn,Schagen,Noord-Holland,VBO,4.750343,52.735727
De Flint,27,,,1747TC,Tuitjenhorn,Schagen,Noord-Holland,VBO,4.750360,52.735782
De Flint,2,,,1747TD,Tuitjenhorn,Schagen,Noord-Holland,VBO,4.750776,52.735260
De Flint,4,,,1747TD,Tuitjenhorn,Schagen,Noord-Holland,VBO,4.750797,52.735316
De Flint,6,,,1747TD,Tuitjenhorn,Schagen,Noord-Holland,VBO,4.750812,52.735360
De Flint,8,,,1747TD,Tuitjenhorn,Schagen,Noord-Holland,VBO,4.750764,52.735424
De Flint,10,,,1747TD,Tuitjenhorn,Schagen,Noord-Holland,VBO,4.750784,52.735485
De Flint,12,,,1747TD,Tuitjenhorn,Schagen,Noord-Holland,VBO,4.750798,52.735530
De Flint,14,,,1747TD,Tuitjenhorn,Schagen,Noord-Holland,VBO,4.750785,52.735585
De Flint,16,,,1747TD,Tuitjenhorn,Schagen,Noord-Holland,VBO,4.750806,52.735652
De Flint,18,,,1747TD,Tuitjenhorn,Schagen,Noord-Holland,VBO,4.750821,52.735697
De Flint,20,,,1747TD,Tuitjenhorn,Schagen,Noord-Holland,VBO,4.750838,52.735750
De Flint,22,,,1747TD,Tuitjenhorn,Schagen,Noord-Holland,VBO,4.750846,52.735798
De Helt,1,,,1747TE,Tuitjenhorn,Schagen,Noord-Holland,VBO,4.752339,52.734506
De Helt,3,,,1747TE,Tuitjenhorn,Schagen,Noord-Holland,VBO,4.752363,52.734574
De Helt,5,,,1747TE,Tuitjenhorn,Schagen,Noord-Holland,VBO,4.752503,52.735322
De Helt,7,,,1747TE,Tuitjenhorn,Schagen,Noord-Holland,VBO,4.752552,52.735432
De Helt,9,,,1747TE,Tuitjenhorn,Schagen,Noord-Holland,VBO,4.752494,52.735548
De Helt,11,,,1747TE,Tuitjenhorn,Schagen,Noord-Holland,VBO,4.752494,52.735588
De Helt,13,,,1747TE,Tuitjenhorn,Schagen,Noord-Holland,VBO,4.752509,52.735636
De Helt,2,,,1747TG,Tuitjenhorn,Schagen,Noord-Holland,VBO,4.752867,52.734686
De Helt,4,,,1747TG,Tuitjenhorn,Schagen,Noord-Holland,VBO,4.752895,52.734730
De Helt,6,,,1747TG,Tuitjenhorn,Schagen,Noord-Holland,VBO,4.752911,52.734785
De Helt,8,,,1747TG,Tuitjenhorn,Schagen,Noord-Holland,VBO,4.752937,52.734858
De Helt,12,,,1747TG,Tuitjenhorn,Schagen,Noord-Holland,VBO,4.752895,52.734960
De Helt,14,,,1747TG,Tuitjenhorn,Schagen,Noord-Holland,VBO,4.752917,52.735027
De Helt,16,,,1747TG,Tuitjenhorn,Schagen,Noord-Holland,VBO,4.752933,52.735072
De Helt,18,,,1747TG,Tuitjenhorn,Schagen,Noord-Holland,VBO,4.752932,52.735162
De Helt,20,,,1747TG,Tuitjenhorn,Schagen,Noord-Holland,VBO,4.752949,52.735216
De Helt,22,,,1747TG,Tuitjenhorn,Schagen,Noord-Holland,VBO,4.752966,52.735270
De Helt,24,,,1747TG,Tuitjenhorn,Schagen,Noord-Holland,VBO,4.752981,52.735318
De Helt,26,,,1747TG,Tuitjenhorn,Schagen,Noord-Holland,VBO,4.752998,52.735371
De Helt,28,,,1747TG,Tuitjenhorn,Schagen,Noord-Holland,VBO,4.753467,52.735415
De Piek,1,,,1747TH,Tuitjenhorn,Schagen,Noord-Holland,VBO,4.751447,52.735199
De Piek,3,,,1747TH,Tuitjenhorn,Schagen,Noord-Holland,VBO,4.751460,52.735244
De Piek,5,,,1747TH,Tuitjenhorn,Schagen,Noord-Holland,VBO,4.751482,52.735303
De Piek,7,,,1747TH,Tuitjenhorn,Schagen,Noord-Holland,VBO,4.751430,52.735368
De Piek,9,,,1747TH,Tuitjenhorn,Schagen,Noord-Holland,VBO,4.751442,52.735407
De Piek,11,,,1747TH,Tuitjenhorn,Schagen,Noord-Holland,VBO,4.751456,52.735452
De Piek,13,,,1747TH,Tuitjenhorn,Schagen,Noord-Holland,VBO,4.751472,52.735501
De Piek,15,,,1747TH,Tuitjenhorn,Schagen,Noord-Holland,VBO,4.751466,52.735594
De Piek,17,,,1747TH,Tuitjenhorn,Schagen,Noord-Holland,VBO,4.751477,52.735633
De Piek,19,,,1747TH,Tuitjenhorn,Schagen,Noord-Holland,VBO,4.751491,52.735681
De Piek,21,,,1747TH,Tuitjenhorn,Schagen,Noord-Holland,VBO,4.751510,52.735745
De Piek,2,,,1747TJ,Tuitjenhorn,Schagen,Noord-Holland,VBO,4.751837,52.735360
De Piek,4,,,1747TJ,Tuitjenhorn,Schagen,Noord-Holland,VBO,4.751859,52.735422
De Piek,6,,,1747TJ,Tuitjenhorn,Schagen,Noord-Holland,VBO,4.751876,52.735470
De Piek,8,,,1747TJ,Tuitjenhorn,Schagen,Noord-Holland,VBO,4.751892,52.735513
De Praam,1,,,1747TK,Tuitjenhorn,Schagen,Noord-Holland,VBO,4.753864,52.734709
De Praam,2,,,1747TK,Tuitjenhorn,Schagen,Noord-Holland,VBO,4.752728,52.734424
De Praam,3,,,1747TK,Tuitjenhorn,Schagen,Noord-Holland,VBO,4.753926,52.734700
De Praam,4,,,1747TK,Tuitjenhorn,Schagen,Noord-Holland,VBO,4.752917,52.734417
De Praam,5,,,1747TK,Tuitjenhorn,Schagen,Noord-Holland,VBO,4.754094,52.734698
De Praam,6,,,1747TK,Tuitjenhorn,Schagen,Noord-Holland,VBO,4.753001,52.734408
De Praam,7,,,1747TK,Tuitjenhorn,Schagen,Noord-Holland,VBO,4.754161,52.734689
De Praam,8,,,1747TK,Tuitjenhorn,Schagen,Noord-Holland,VBO,4.753182,52.734388
De Praam,9,,,1747TK,Tuitjenhorn,Schagen,Noord-Holland,VBO,4.754348,52.734668
De Praam,10,,,1747TK,Tuitjenhorn,Schagen,Noord-Holland,VBO,4.753279,52.734377
De Praam,11,,,1747TK,Tuitjenhorn,Schagen,Noord-Holland,VBO,4.754423,52.734657
De Praam,12,a,,1747TK,Tuitjenhorn,Schagen,Noord-Holland,VBO,4.753588,52.734407
De Praam,12,,,1747TK,Tuitjenhorn,Schagen,Noord-Holland,VBO,4.753654,52.734364
De Praam,13,,,1747TK,Tuitjenhorn,Schagen,Noord-Holland,VBO,4.754607,52.734670
De Praam,14,,,1747TK,Tuitjenhorn,Schagen,Noord-Holland,VBO,4.753998,52.734228
De Praam,15,,,1747TK,Tuitjenhorn,Schagen,Noord-Holland,VBO,4.754684,52.734661
De Praam,16,,,1747TK,Tuitjenhorn,Schagen,Noord-Holland,VBO,4.754055,52.734301
De Praam,17,,,1747TK,Tuitjenhorn,Schagen,Noord-Holland,VBO,4.755190,52.734659
De Praam,18,,,1747TK,Tuitjenhorn,Schagen,Noord-Holland,VBO,4.754070,52.734355
De Praam,19,,,1747TK,Tuitjenhorn,Schagen,Noord-Holland,VBO,4.755177,52.734769
De Praam,20,,,1747TK,Tuitjenhorn,Schagen,Noord-Holland,VBO,4.754089,52.734399
De Praam,21,,,1747TK,Tuitjenhorn,Schagen,Noord-Holland,VBO,4.755184,52.734840
De Praam,22,,,1747TK,Tuitjenhorn,Schagen,Noord-Holland,VBO,4.754106,52.734441
De Praam,23,,,1747TK,Tuitjenhorn,Schagen,Noord-Holland,VBO,4.755175,52.734876
De Praam,24,,,1747TK,Tuitjenhorn,Schagen,Noord-Holland,VBO,4.754124,52.734486
De Praam,25,,,1747TK,Tuitjenhorn,Schagen,Noord-Holland,VBO,4.755175,52.734923
De Praam,26,,,1747TK,Tuitjenhorn,Schagen,Noord-Holland,VBO,4.754589,52.734439
De Praam,27,,,1747TK,Tuitjenhorn,Schagen,Noord-Holland,VBO,4.755174,52.734975
De Praam,28,,,1747TK,Tuitjenhorn,Schagen,Noord-Holland,VBO,4.754785,52.734430
De Praam,30,,,1747TK,Tuitjenhorn,Schagen,Noord-Holland,VBO,4.754863,52.734420
De Praam,32,,,1747TK,Tuitjenhorn,Schagen,Noord-Holland,VBO,4.755049,52.734406
De Praam,34,,,1747TK,Tuitjenhorn,Schagen,Noord-Holland,VBO,4.755131,52.734399
De Praam,36,,,1747TK,Tuitjenhorn,Schagen,Noord-Holland,VBO,4.755666,52.734822
De Praam,38,,,1747TK,Tuitjenhorn,Schagen,Noord-Holland,VBO,4.755652,52.734777
De Praam,40,,,1747TK,Tuitjenhorn,Schagen,Noord-Holland,VBO,4.755638,52.734732
De Praam,42,,,1747TK,Tuitjenhorn,Schagen,Noord-Holland,VBO,4.755624,52.734687
De Praam,44,,,1747TK,Tuitjenhorn,Schagen,Noord-Holland,VBO,4.755610,52.734642
De Praam,46,,,1747TK,Tuitjenhorn,Schagen,Noord-Holland,VBO,4.755596,52.734597
De Praam,48,,,1747TK,Tuitjenhorn,Schagen,Noord-Holland,VBO,4.755581,52.734552
De Praam,50,,,1747TK,Tuitjenhorn,Schagen,Noord-Holland,VBO,4.755567,52.734507
De Praam,52,,,1747TK,Tuitjenhorn,Schagen,Noord-Holland,VBO,4.755553,52.734462
De Praam,54,,,1747TK,Tuitjenhorn,Schagen,Noord-Holland,VBO,4.755539,52.734417
De Praam,56,,,1747TK,Tuitjenhorn,Schagen,Noord-Holland,VBO,4.755525,52.734372
De Praam,58,,,1747TK,Tuitjenhorn,Schagen,Noord-Holland,VBO,4.755511,52.734327
De Vlet,1,,,1747TL,Tuitjenhorn,Schagen,Noord-Holland,VBO,4.753477,52.734614
De Vlet,3,,,1747TL,Tuitjenhorn,Schagen,Noord-Holland,VBO,4.753490,52.734655
De Vlet,5,,,1747TL,Tuitjenhorn,Schagen,Noord-Holland,VBO,4.753504,52.734702
De Vlet,7,,,1747TL,Tuitjenhorn,Schagen,Noord-Holland,VBO,4.753519,52.734750
De Vlet,9,,,1747TL,Tuitjenhorn,Schagen,Noord-Holland,VBO,4.753531,52.734791
De Vlet,11,,,1747TL,Tuitjenhorn,Schagen,Noord-Holland,VBO,4.753544,52.734831
De Vlet,13,,,1747TL,Tuitjenhorn,Schagen,Noord-Holland,VBO,4.753536,52.734923
De Vlet,15,,,1747TL,Tuitjenhorn,Schagen,Noord-Holland,VBO,4.753549,52.734964
De Vlet,17,,,1747TL,Tuitjenhorn,Schagen,Noord-Holland,VBO,4.753564,52.735012
De Vlet,19,,,1747TL,Tuitjenhorn,Schagen,Noord-Holland,VBO,4.753543,52.735063
De Vlet,21,,,1747TL,Tuitjenhorn,Schagen,Noord-Holland,VBO,4.753559,52.735106
De Vlet,23,,,1747TL,Tuitjenhorn,Schagen,Noord-Holland,VBO,4.753572,52.735155
De Vlet,25,a,,1747TL,Tuitjenhorn,Schagen,Noord-Holland,VBO,4.753639,52.735339
De Vlet,25,,,1747TL,Tuitjenhorn,Schagen,Noord-Holland,VBO,4.753614,52.735205
De Vlet,27,,,1747TL,Tuitjenhorn,Schagen,Noord-Holland,VBO,4.753767,52.735324
De Vlet,29,,,1747TL,Tuitjenhorn,Schagen,Noord-Holland,VBO,4.753842,52.735314
De Vlet,31,,,1747TL,Tuitjenhorn,Schagen,Noord-Holland,VBO,4.753915,52.735294
De Vlet,33,,,1747TL,Tuitjenhorn,Schagen,Noord-Holland,VBO,4.753985,52.735284
De Vlet,35,,,1747TL,Tuitjenhorn,Schagen,Noord-Holland,VBO,4.754061,52.735277
De Vlet,37,,,1747TL,Tuitjenhorn,Schagen,Noord-Holland,VBO,4.754266,52.735252
De Vlet,39,,,1747TL,Tuitjenhorn,Schagen,Noord-Holland,VBO,4.754399,52.735084
De Vlet,41,,,1747TL,Tuitjenhorn,Schagen,Noord-Holland,VBO,4.754380,52.735027
De Vlet,43,,,1747TL,Tuitjenhorn,Schagen,Noord-Holland,VBO,4.754362,52.734971
De Vlet,45,,,1747TL,Tuitjenhorn,Schagen,Noord-Holland,VBO,4.754336,52.734920
't Skuitje,2,,,1747TM,Tuitjenhorn,Schagen,Noord-Holland,VBO,4.754791,52.736374
't Skuitje,4,a,,1747TM,Tuitjenhorn,Schagen,Noord-Holland,VBO,4.754843,52.736689
't Skuitje,4,,,1747TM,Tuitjenhorn,Schagen,Noord-Holland,VBO,4.754817,52.736587
't Skuitje,6,,,1747TM,Tuitjenhorn,Schagen,Noord-Holland,VBO,4.754936,52.737289
't Skuitje,8,,,1747TM,Tuitjenhorn,Schagen,Noord-Holland,VBO,4.755022,52.737497
't Skuitje,10,,,1747TM,Tuitjenhorn,Schagen,Noord-Holland,VBO,4.754066,52.738322
't Skuitje,11,t,,1747TM,Tuitjenhorn,Schagen,Noord-Holland,VBO,4.755467,52.735239
't Skuitje,12,,,1747TM,Tuitjenhorn,Schagen,Noord-Holland,VBO,4.753981,52.738333
't Skuitje,13,,,1747TM,Tuitjenhorn,Schagen,Noord-Holland,VBO,4.755054,52.735127
't Skuitje,14,,,1747TM,Tuitjenhorn,Schagen,Noord-Holland,VBO,4.753740,52.738362
't Skuitje,15,,,1747TM,Tuitjenhorn,Schagen,Noord-Holland,VBO,4.754968,52.735140
't Skuitje,16,,,1747TM,Tuitjenhorn,Schagen,Noord-Holland,VBO,4.753645,52.738374
't Skuitje,17,,,1747TM,Tuitjenhorn,Schagen,Noord-Holland,VBO,4.754880,52.735160
't Skuitje,18,,,1747TM,Tuitjenhorn,Schagen,Noord-Holland,VBO,4.753408,52.738446
't Skuitje,19,,,1747TM,Tuitjenhorn,Schagen,Noord-Holland,VBO,4.754816,52.735175
't Skuitje,20,,,1747TM,Tuitjenhorn,Schagen,Noord-Holland,VBO,4.753329,52.738479
't Skuitje,21,,,1747TM,Tuitjenhorn,Schagen,Noord-Holland,VBO,4.754646,52.735253
't Skuitje,23,,,1747TM,Tuitjenhorn,Schagen,Noord-Holland,VBO,4.754491,52.735347
't Skuitje,25,,,1747TM,Tuitjenhorn,Schagen,Noord-Holland,VBO,4.754338,52.735963
't Skuitje,27,,,1747TM,Tuitjenhorn,Schagen,Noord-Holland,VBO,4.754360,52.736020
't Skuitje,29,,,1747TM,Tuitjenhorn,Schagen,Noord-Holland,VBO,4.754377,52.736148
't Skuitje,31,,,1747TM,Tuitjenhorn,Schagen,Noord-Holland,VBO,4.754383,52.736193
't Skuitje,33,,,1747TM,Tuitjenhorn,Schagen,Noord-Holland,VBO,4.754365,52.736343
't Skuitje,35,,,1747TM,Tuitjenhorn,Schagen,Noord-Holland,VBO,4.754355,52.736390
't Skuitje,37,,,1747TM,Tuitjenhorn,Schagen,Noord-Holland,VBO,4.754520,52.736752
't Skuitje,39,,,1747TM,Tuitjenhorn,Schagen,Noord-Holland,VBO,4.754510,52.736801
't Skuitje,41,,,1747TM,Tuitjenhorn,Schagen,Noord-Holland,VBO,4.754496,52.736906
't Skuitje,43,,,1747TM,Tuitjenhorn,Schagen,Noord-Holland,VBO,4.754489,52.736961
't Skuitje,45,,,1747TM,Tuitjenhorn,Schagen,Noord-Holland,VBO,4.754493,52.737071
't Skuitje,47,,,1747TM,Tuitjenhorn,Schagen,Noord-Holland,VBO,4.754503,52.737116
't Skuitje,49,,,1747TN,Tuitjenhorn,Schagen,Noord-Holland,VBO,4.754513,52.737254
't Skuitje,51,,,1747TN,Tuitjenhorn,Schagen,Noord-Holland,VBO,4.754549,52.737371
't Skuitje,53,,,1747TN,Tuitjenhorn,Schagen,Noord-Holland,VBO,4.754585,52.737502
't Skuitje,55,,,1747TN,Tuitjenhorn,Schagen,Noord-Holland,VBO,4.754516,52.737751
't Skuitje,57,,,1747TN,Tuitjenhorn,Schagen,Noord-Holland,VBO,4.754226,52.737868
't Skuitje,61,,,1747TN,Tuitjenhorn,Schagen,Noord-Holland,VBO,4.753954,52.737983
't Skuitje,63,,,1747TN,Tuitjenhorn,Schagen,Noord-Holland,VBO,4.753765,52.738064
't Skuitje,65,,,1747TN,Tuitjenhorn,Schagen,Noord-Holland,VBO,4.753575,52.738116
't Skuitje,67,,,1747TN,Tuitjenhorn,Schagen,Noord-Holland,VBO,4.753323,52.738169
't Skuitje,69,,,1747TN,Tuitjenhorn,Schagen,Noord-Holland,VBO,4.753154,52.738193
't Skuitje,71,,,1747TN,Tuitjenhorn,Schagen,Noord-Holland,VBO,4.752693,52.738553
't Skuitje,73,,,1747TN,Tuitjenhorn,Schagen,Noord-Holland,VBO,4.752729,52.738708
't Skuitje,75,,,1747TN,Tuitjenhorn,Schagen,Noord-Holland,VBO,4.752769,52.738840
