openbareruimtenaam,huisnummer,huisletter,huisnummertoevoeging,postcode,woonplaatsnaam,gemeentenaam,provincienaam,typeadresseerbaarobject,longitude,latitude
Pettemerweg,2,,,1755KK,Petten,Schagen,Noord-Holland,VBO,4.667597,52.758750
Pettemerweg,4,a,,1755KK,Petten,Schagen,Noord-Holland,VBO,4.663097,52.759772
Pettemerweg,4,b,,1755KK,Petten,Schagen,Noord-Holland,VBO,4.663009,52.759793
Pettemerweg,4,,h1,1755KK,Petten,Schagen,Noord-Holland,VBO,4.664874,52.760066
Pettemerweg,4,,h10,1755KK,Petten,Schagen,Noord-Holland,VBO,4.666433,52.759777
Pettemerweg,4,,h11,1755KK,Petten,Schagen,Noord-Holland,VBO,4.666612,52.759721
Pettemerweg,4,,h12,1755KK,Petten,Schagen,Noord-Holland,VBO,4.666792,52.759666
Pettemerweg,4,,h13,1755KK,Petten,Schagen,Noord-Holland,VBO,4.666972,52.759611
Pettemerweg,4,,h14,1755KK,Petten,Schagen,Noord-Holland,VBO,4.667151,52.759556
Pettemerweg,4,,h15,1755KK,Petten,Schagen,Noord-Holland,VBO,4.667330,52.759501
Pettemerweg,4,,h16,1755KK,Petten,Schagen,Noord-Holland,VBO,4.665104,52.759968
Pettemerweg,4,,h17,1755KK,Petten,Schagen,Noord-Holland,VBO,4.665292,52.759911
Pettemerweg,4,,h18,1755KK,Petten,Schagen,Noord-Holland,VBO,4.665477,52.759854
Pettemerweg,4,,h19,1755KK,Petten,Schagen,Noord-Holland,VBO,4.665663,52.759797
Pettemerweg,4,,h2,1755KK,Petten,Schagen,Noord-Holland,VBO,4.664999,52.760217
Pettemerweg,4,,h20,1755KK,Petten,Schagen,Noord-Holland,VBO,4.665845,52.759740
Pettemerweg,4,,h21,1755KK,Petten,Schagen,Noord-Holland,VBO,4.666031,52.759683
Pettemerweg,4,,h22,1755KK,Petten,Schagen,Noord-Holland,VBO,4.666216,52.759626
Pettemerweg,4,,h23,1755KK,Petten,Schagen,Noord-Holland,VBO,4.666626,52.759501
Pettemerweg,4,,h24,1755KK,Petten,Schagen,Noord-Holland,VBO,4.666812,52.759444
Pettemerweg,4,,h25,1755KK,Petten,Schagen,Noord-Holland,VBO,4.666997,52.759387
Pettemerweg,4,,h26,1755KK,Petten,Schagen,Noord-Holland,VBO,4.667181,52.759330
Pettemerweg,4,,h27,1755KK,Petten,Schagen,Noord-Holland,VBO,4.664977,52.759816
Pettemerweg,4,,h28,1755KK,Petten,Schagen,Noord-Holland,VBO,4.665164,52.759758
Pettemerweg,4,,h29,1755KK,Petten,Schagen,Noord-Holland,VBO,4.665351,52.759702
Pettemerweg,4,,h3,1755KK,Petten,Schagen,Noord-Holland,VBO,4.665177,52.760162
Pettemerweg,4,,h30,1755KK,Petten,Schagen,Noord-Holland,VBO,4.665535,52.759645
Pettemerweg,4,,h31,1755KK,Petten,Schagen,Noord-Holland,VBO,4.665719,52.759588
Pettemerweg,4,,h32,1755KK,Petten,Schagen,Noord-Holland,VBO,4.665904,52.759531
Pettemerweg,4,,h33,1755KK,Petten,Schagen,Noord-Holland,VBO,4.666087,52.759473
Pettemerweg,4,,h34,1755KK,Petten,Schagen,Noord-Holland,VBO,4.666474,52.759319
Pettemerweg,4,,h35,1755KK,Petten,Schagen,Noord-Holland,VBO,4.666660,52.759262
Pettemerweg,4,,h36,1755KK,Petten,Schagen,Noord-Holland,VBO,4.666844,52.759205
Pettemerweg,4,,h37,1755KK,Petten,Schagen,Noord-Holland,VBO,4.667029,52.759148
Pettemerweg,4,,h38,1755KK,Petten,Schagen,Noord-Holland,VBO,4.664813,52.759615
Pettemerweg,4,,h39,1755KK,Petten,Schagen,Noord-Holland,VBO,4.664998,52.759559
Pettemerweg,4,,h4,1755KK,Petten,Schagen,Noord-Holland,VBO,4.665357,52.760106
Pettemerweg,4,,h40,1755KK,Petten,Schagen,Noord-Holland,VBO,4.665183,52.759500
Pettemerweg,4,,h41,1755KK,Petten,Schagen,Noord-Holland,VBO,4.665367,52.759444
Pettemerweg,4,,h42,1755KK,Petten,Schagen,Noord-Holland,VBO,4.665552,52.759388
Pettemerweg,4,,h43,1755KK,Petten,Schagen,Noord-Holland,VBO,4.665737,52.759331
Pettemerweg,4,,h44,1755KK,Petten,Schagen,Noord-Holland,VBO,4.665921,52.759274
Pettemerweg,4,,h45,1755KK,Petten,Schagen,Noord-Holland,VBO,4.666339,52.759158
Pettemerweg,4,,h46,1755KK,Petten,Schagen,Noord-Holland,VBO,4.666523,52.759100
Pettemerweg,4,,h47,1755KK,Petten,Schagen,Noord-Holland,VBO,4.666708,52.759042
Pettemerweg,4,,h48,1755KK,Petten,Schagen,Noord-Holland,VBO,4.666895,52.758986
Pettemerweg,4,,h49,1755KK,Petten,Schagen,Noord-Holland,VBO,4.664666,52.759445
Pettemerweg,4,,h5,1755KK,Petten,Schagen,Noord-Holland,VBO,4.665537,52.760053
Pettemerweg,4,,h50,1755KK,Petten,Schagen,Noord-Holland,VBO,4.664855,52.759387
Pettemerweg,4,,h51,1755KK,Petten,Schagen,Noord-Holland,VBO,4.665038,52.759329
Pettemerweg,4,,h52,1755KK,Petten,Schagen,Noord-Holland,VBO,4.665225,52.759273
Pettemerweg,4,,h53,1755KK,Petten,Schagen,Noord-Holland,VBO,4.665409,52.759216
Pettemerweg,4,,h54,1755KK,Petten,Schagen,Noord-Holland,VBO,4.665593,52.759159
Pettemerweg,4,,h55,1755KK,Petten,Schagen,Noord-Holland,VBO,4.665778,52.759102
Pettemerweg,4,,h56,1755KK,Petten,Schagen,Noord-Holland,VBO,4.665964,52.759046
Pettemerweg,4,,h57,1755KK,Petten,Schagen,Noord-Holland,VBO,4.666156,52.758986
Pettemerweg,4,,h58,1755KK,Petten,Schagen,Noord-Holland,VBO,4.666348,52.758927
Pettemerweg,4,,h59,1755KK,Petten,Schagen,Noord-Holland,VBO,4.666542,52.758867
Pettemerweg,4,,h6,1755KK,Petten,Schagen,Noord-Holland,VBO,4.665716,52.759997
Pettemerweg,4,,h60,1755KK,Petten,Schagen,Noord-Holland,VBO,4.666734,52.758808
Pettemerweg,4,,h7,1755KK,Petten,Schagen,Noord-Holland,VBO,4.665895,52.759942
Pettemerweg,4,,h8,1755KK,Petten,Schagen,Noord-Holland,VBO,4.666074,52.759887
Pettemerweg,4,,h9,1755KK,Petten,Schagen,Noord-Holland,VBO,4.666254,52.759831
Pettemerweg,4,,,1755KK,Petten,Schagen,Noord-Holland,VBO,4.662242,52.760028
Pettemerweg,31,,,1755KK,Petten,Schagen,Noord-Holland,VBO,4.670372,52.757081
Pettemerweg,33,a,,1755KK,Petten,Schagen,Noord-Holland,VBO,4.668694,52.757456
Pettemerweg,33,,,1755KK,Petten,Schagen,Noord-Holland,VBO,4.668748,52.757533
Pettemerweg,35,a,,1755KK,Petten,Schagen,Noord-Holland,VBO,4.664912,52.758632
Pettemerweg,35,,,1755KK,Petten,Schagen,Noord-Holland,VBO,4.665056,52.758598
Pettemerweg,37,,,1755KK,Petten,Schagen,Noord-Holland,VBO,4.662361,52.759410
Leiweg,1,a,,1755KM,Petten,Schagen,Noord-Holland,VBO,4.651205,52.756470
Leiweg,1,,,1755KM,Petten,Schagen,Noord-Holland,VBO,4.651502,52.755776
Leiweg,2,a,,1755KM,Petten,Schagen,Noord-Holland,VBO,4.651865,52.755522
Leiweg,2,,WPL,1755KM,Schoorl,Bergen (NH.),Noord-Holland,VBO,4.651289,52.755420
Leiweg,2,,,1755KM,Petten,Schagen,Noord-Holland,VBO,4.651677,52.755665
Leiweg,3,,,1755KM,Petten,Schagen,Noord-Holland,VBO,4.651923,52.755450
Leiweg,4,,,1755KM,Petten,Schagen,Noord-Holland,VBO,4.652364,52.755091
Strandweg,1,a,,1755LA,Petten,Schagen,Noord-Holland,VBO,4.660198,52.772229
Strandweg,1,,,1755LA,Petten,Schagen,Noord-Holland,VBO,4.661047,52.772050
Strandweg,2,,,1755LA,Petten,Schagen,Noord-Holland,VBO,4.659274,52.771392
Strandweg,3,,,1755LA,Petten,Schagen,Noord-Holland,VBO,4.659064,52.770322
Strandweg,4,,,1755LA,Petten,Schagen,Noord-Holland,VBO,4.658232,52.770181
Korfwaterweg,1,b,,1755LB,Petten,Schagen,Noord-Holland,VBO,4.663231,52.772661
Korfwaterweg,1,,,1755LB,Petten,Schagen,Noord-Holland,VBO,4.662441,52.772121
Korfwaterweg,2,,,1755LB,Petten,Schagen,Noord-Holland,VBO,4.664326,52.773723
Korfwaterweg,3,,,1755LB,Petten,Schagen,Noord-Holland,VBO,4.664609,52.773953
Korfwaterweg,4,,,1755LB,Petten,Schagen,Noord-Holland,VBO,4.664838,52.774173
Korfwaterweg,5,,,1755LB,Petten,Schagen,Noord-Holland,VBO,4.665086,52.774392
Korfwaterweg,6,,,1755LB,Petten,Schagen,Noord-Holland,VBO,4.665385,52.774545
Korfwaterweg,7,,,1755LB,Petten,Schagen,Noord-Holland,VBO,4.665874,52.774821
Korfwaterweg,8,,,1755LB,Petten,Schagen,Noord-Holland,VBO,4.666156,52.775034
Korfwaterweg,9,,,1755LB,Petten,Schagen,Noord-Holland,VBO,4.666385,52.775296
Korfwaterweg,10,,,1755LB,Petten,Schagen,Noord-Holland,VBO,4.666723,52.775469
Korfwaterweg,11,,,1755LB,Petten,Schagen,Noord-Holland,VBO,4.666909,52.775651
Korfwaterweg,12,,,1755LB,Petten,Schagen,Noord-Holland,VBO,4.667368,52.775900
Korfwaterweg,13,a,,1755LB,Petten,Schagen,Noord-Holland,VBO,4.667989,52.776292
Korfwaterweg,13,,,1755LB,Petten,Schagen,Noord-Holland,VBO,4.667638,52.776066
Korfwaterweg,14,a,,1755LB,Petten,Schagen,Noord-Holland,VBO,4.668254,52.776013
Korfwaterweg,14,,,1755LB,Petten,Schagen,Noord-Holland,VBO,4.668518,52.776664
Korfwaterweg,15,,,1755LB,Petten,Schagen,Noord-Holland,VBO,4.668633,52.775912
Korfwaterweg,16,,,1755LB,Petten,Schagen,Noord-Holland,VBO,4.668881,52.775829
Korfwaterweg,17,,,1755LB,Petten,Schagen,Noord-Holland,VBO,4.668752,52.775549
Korfwaterweg,18,,,1755LB,Petten,Schagen,Noord-Holland,VBO,4.668618,52.775253
Korfwaterweg,19,,,1755LB,Petten,Schagen,Noord-Holland,VBO,4.668558,52.774979
Korfwaterweg,20,,,1755LB,Petten,Schagen,Noord-Holland,VBO,4.668343,52.774719
Korfwaterweg,21,,,1755LB,Petten,Schagen,Noord-Holland,VBO,4.668289,52.774467
Korfwaterweg,22,,,1755LB,Petten,Schagen,Noord-Holland,VBO,4.668234,52.774208
Korfwaterweg,23,,,1755LB,Petten,Schagen,Noord-Holland,VBO,4.668088,52.774013
Korfwaterweg,24,,,1755LC,Petten,Schagen,Noord-Holland,VBO,4.667836,52.773681
Korfwaterweg,25,,,1755LC,Petten,Schagen,Noord-Holland,VBO,4.667804,52.773412
Korfwaterweg,26,a,,1755LC,Petten,Schagen,Noord-Holland,VBO,4.667630,52.773252
Korfwaterweg,26,,,1755LC,Petten,Schagen,Noord-Holland,VBO,4.667587,52.773179
Korfwaterweg,27,,,1755LC,Petten,Schagen,Noord-Holland,VBO,4.667423,52.772925
Korfwaterweg,29,,,1755LC,Petten,Schagen,Noord-Holland,VBO,4.666803,52.772496
Korfwaterweg,30,,,1755LC,Petten,Schagen,Noord-Holland,VBO,4.666519,52.772353
Korfwaterweg,31,,,1755LC,Petten,Schagen,Noord-Holland,VBO,4.666226,52.772248
Korfwaterweg,33,,,1755LC,Petten,Schagen,Noord-Holland,VBO,4.666132,52.771739
Korfwaterweg,34,,,1755LC,Petten,Schagen,Noord-Holland,VBO,4.665655,52.771836
Korfwaterweg,35,,,1755LC,Petten,Schagen,Noord-Holland,VBO,4.665900,52.771568
Korfwaterweg,36,,,1755LC,Petten,Schagen,Noord-Holland,VBO,4.665464,52.771673
Korfwaterweg,37,,,1755LC,Petten,Schagen,Noord-Holland,VBO,4.665637,52.771374
Korfwaterweg,38,,,1755LC,Petten,Schagen,Noord-Holland,VBO,4.665193,52.771504
Korfwaterweg,39,,,1755LC,Petten,Schagen,Noord-Holland,VBO,4.665408,52.771211
Korfwaterweg,40,,,1755LC,Petten,Schagen,Noord-Holland,VBO,4.664974,52.771351
Korfwaterweg,41,,,1755LC,Petten,Schagen,Noord-Holland,VBO,4.665083,52.771076
Korfwaterweg,43,,,1755LC,Petten,Schagen,Noord-Holland,VBO,4.664691,52.771030
Korfwaterweg,45,,,1755LC,Petten,Schagen,Noord-Holland,VBO,4.664265,52.771097
Korfwaterweg,47,,,1755LC,Petten,Schagen,Noord-Holland,VBO,4.663699,52.771076
Korfwaterweg,49,,,1755LC,Petten,Schagen,Noord-Holland,VBO,4.663280,52.771043
Spreeuwendijk,1,a,,1755LD,Petten,Schagen,Noord-Holland,VBO,4.658548,52.768793
Spreeuwendijk,1,b,,1755LD,Petten,Schagen,Noord-Holland,VBO,4.658809,52.768899
Spreeuwendijk,1,c,,1755LD,Petten,Schagen,Noord-Holland,VBO,4.659120,52.768861
Spreeuwendijk,1,,,1755LD,Petten,Schagen,Noord-Holland,VBO,4.657327,52.768934
Spreeuwendijk,2,,,1755LD,Petten,Schagen,Noord-Holland,VBO,4.660672,52.769175
Spreeuwendijk,3,a,,1755LD,Petten,Schagen,Noord-Holland,VBO,4.667985,52.770609
Spreeuwendijk,3,,,1755LD,Petten,Schagen,Noord-Holland,VBO,4.660900,52.769227
Spreeuwendijk,4,a,,1755LD,Petten,Schagen,Noord-Holland,VBO,4.668836,52.771030
Spreeuwendijk,4,,,1755LD,Petten,Schagen,Noord-Holland,VBO,4.668286,52.770997
Westerduinweg,1,,,1755LE,Petten,Schagen,Noord-Holland,VBO,4.668714,52.769902
Westerduinweg,2,,,1755LE,Petten,Schagen,Noord-Holland,VBO,4.655071,52.754568
Westerduinweg,3,,101,1755LE,Petten,Schagen,Noord-Holland,VBO,4.677554,52.787959
Westerduinweg,3,,11,1755LE,Petten,Schagen,Noord-Holland,VBO,4.677742,52.785773
Westerduinweg,3,,13,1755LE,Petten,Schagen,Noord-Holland,VBO,4.678901,52.787347
Westerduinweg,3,,2,1755LE,Petten,Schagen,Noord-Holland,VBO,4.676178,52.782240
Westerduinweg,3,,203,1755LE,Petten,Schagen,Noord-Holland,VBO,4.680405,52.788087
Westerduinweg,3,,325,1755LE,Petten,Schagen,Noord-Holland,VBO,4.679844,52.791011
Westerduinweg,3,,40,1755LE,Petten,Schagen,Noord-Holland,VBO,4.673715,52.785029
Westerduinweg,3,,,1755LE,Petten,Schagen,Noord-Holland,VBO,4.674557,52.783265
Westerduinweg,6,,,1755LE,Petten,Schagen,Noord-Holland,VBO,4.663988,52.763429
Westerduinweg,8,,,1755LE,Petten,Schagen,Noord-Holland,VBO,4.664604,52.763366
Westerduinweg,10,a,,1755LE,Petten,Schagen,Noord-Holland,VBO,4.666482,52.765809
Westerduinweg,10,b,,1755LE,Petten,Schagen,Noord-Holland,VBO,4.667126,52.766886
Westerduinweg,10,c,,1755LE,Petten,Schagen,Noord-Holland,VBO,4.668815,52.768663
Westerduinweg,10,d,,1755LE,Petten,Schagen,Noord-Holland,VBO,4.669490,52.769628
Westerduinweg,10,,,1755LE,Petten,Schagen,Noord-Holland,VBO,4.665046,52.764559
Westerduinweg,12,a,,1755LE,Petten,Schagen,Noord-Holland,VBO,4.669998,52.769881
Westerduinweg,12,,,1755LE,Petten,Schagen,Noord-Holland,VBO,4.669913,52.769903
Westerduinweg,14,,,1755LE,Petten,Schagen,Noord-Holland,VBO,4.675645,52.768768
Westerduinweg,16,,,1755LE,Petten,Schagen,Noord-Holland,VBO,4.671866,52.772048
Westerduinweg,18,,h1,1755LE,Petten,Schagen,Noord-Holland,VBO,4.676399,52.769832
Westerduinweg,18,,h2,1755LE,Petten,Schagen,Noord-Holland,VBO,4.676419,52.769979
Westerduinweg,18,,h3,1755LE,Petten,Schagen,Noord-Holland,VBO,4.676530,52.770096
Westerduinweg,18,,,1755LE,Petten,Schagen,Noord-Holland,VBO,4.676844,52.770237
Noorderhazedwarsdijk,2,,,1755LG,Petten,Schagen,Noord-Holland,VBO,4.654928,52.763032
Zuiderhazedwarsdijk,1,a,,1755LH,Petten,Schagen,Noord-Holland,VBO,4.653583,52.761240
Zuiderhazedwarsdijk,1,,,1755LH,Petten,Schagen,Noord-Holland,VBO,4.654566,52.762499
Zuiderhazedwarsdijk,2,,,1755LH,Petten,Schagen,Noord-Holland,VBO,4.653662,52.762193
Zuiderhazedwarsdijk,3,,,1755LH,Petten,Schagen,Noord-Holland,VBO,4.653830,52.760673
Zuiderhazedwarsdijk,4,,,1755LH,Petten,Schagen,Noord-Holland,VBO,4.653763,52.762179
Zuiderhazedwarsdijk,6,b,,1755LH,Petten,Schagen,Noord-Holland,VBO,4.653977,52.760099
Zuiderhazedwarsdijk,6,,,1755LH,Petten,Schagen,Noord-Holland,VBO,4.657867,52.761201
Sportweg,3,a,,1755LX,Petten,Schagen,Noord-Holland,VBO,4.661546,52.764451
Sportweg,3,,,1755LX,Petten,Schagen,Noord-Holland,VBO,4.661861,52.764431
Sportweg,5,,,1755LX,Petten,Schagen,Noord-Holland,VBO,4.661604,52.764292
Meester Geensenweg,1,,,1755LZ,Petten,Schagen,Noord-Holland,STA,4.662999,52.764562
Meester Geensenweg,2,,,1755LZ,Petten,Schagen,Noord-Holland,VBO,4.663609,52.765342
Meester Geensenweg,4,,,1755LZ,Petten,Schagen,Noord-Holland,VBO,4.663496,52.765236
Meester Geensenweg,5,,,1755LZ,Petten,Schagen,Noord-Holland,STA,4.662749,52.764646
Meester Geensenweg,6,,,1755LZ,Petten,Schagen,Noord-Holland,VBO,4.663380,52.765104
Meester Geensenweg,8,a,,1755LZ,Petten,Schagen,Noord-Holland,VBO,4.662815,52.765273
Meester Geensenweg,8,,,1755LZ,Petten,Schagen,Noord-Holland,VBO,4.663141,52.765190
Meester Geensenweg,10,,,1755LZ,Petten,Schagen,Noord-Holland,VBO,4.662923,52.764968
Meester Geensenweg,12,,,1755LZ,Petten,Schagen,Noord-Holland,VBO,4.663088,52.764927
Meester Geensenweg,14,,,1755LZ,Petten,Schagen,Noord-Holland,VBO,4.663285,52.764854
Eriksstraat,1,,,1755NA,Petten,Schagen,Noord-Holland,VBO,4.666577,52.770485
Eriksstraat,2,,,1755NA,Petten,Schagen,Noord-Holland,VBO,4.665901,52.770330
Eriksstraat,3,,,1755NA,Petten,Schagen,Noord-Holland,VBO,4.666658,52.770433
Eriksstraat,4,,,1755NA,Petten,Schagen,Noord-Holland,VBO,4.665747,52.770297
Eriksstraat,5,,,1755NA,Petten,Schagen,Noord-Holland,VBO,4.666737,52.770380
Eriksstraat,6,,,1755NA,Petten,Schagen,Noord-Holland,VBO,4.666029,52.770126
Eriksstraat,7,,,1755NA,Petten,Schagen,Noord-Holland,VBO,4.666816,52.770328
Eriksstraat,8,,,1755NA,Petten,Schagen,Noord-Holland,VBO,4.665868,52.770092
Eriksstraat,9,,,1755NA,Petten,Schagen,Noord-Holland,VBO,4.666896,52.770276
Eriksstraat,10,,,1755NA,Petten,Schagen,Noord-Holland,VBO,4.666117,52.769914
Eriksstraat,11,,,1755NA,Petten,Schagen,Noord-Holland,VBO,4.667032,52.770096
Eriksstraat,12,,,1755NA,Petten,Schagen,Noord-Holland,VBO,4.665991,52.769880
Eriksstraat,13,,,1755NA,Petten,Schagen,Noord-Holland,VBO,4.666945,52.770047
Eriksstraat,15,,,1755NA,Petten,Schagen,Noord-Holland,VBO,4.666860,52.769999
Eriksstraat,17,,,1755NA,Petten,Schagen,Noord-Holland,VBO,4.666774,52.769951
Eriksstraat,19,,,1755NA,Petten,Schagen,Noord-Holland,VBO,4.666689,52.769903
Eriksstraat,21,,,1755NA,Petten,Schagen,Noord-Holland,VBO,4.666774,52.769744
Eriksstraat,23,,,1755NA,Petten,Schagen,Noord-Holland,VBO,4.666687,52.769696
Eriksstraat,25,,,1755NA,Petten,Schagen,Noord-Holland,VBO,4.666602,52.769648
Eriksstraat,27,,,1755NA,Petten,Schagen,Noord-Holland,VBO,4.666516,52.769600
Eriksstraat,29,,,1755NA,Petten,Schagen,Noord-Holland,VBO,4.666430,52.769552
Eriksstraat,31,,,1755NB,Petten,Schagen,Noord-Holland,VBO,4.666515,52.769392
Eriksstraat,33,,,1755NB,Petten,Schagen,Noord-Holland,VBO,4.666430,52.769344
Eriksstraat,35,,,1755NB,Petten,Schagen,Noord-Holland,VBO,4.666345,52.769296
Eriksstraat,37,,,1755NB,Petten,Schagen,Noord-Holland,VBO,4.666260,52.769250
Eriksstraat,39,,,1755NB,Petten,Schagen,Noord-Holland,VBO,4.666173,52.769200
Eriksstraat,41,,,1755NB,Petten,Schagen,Noord-Holland,VBO,4.666258,52.769038
Eriksstraat,43,,,1755NB,Petten,Schagen,Noord-Holland,VBO,4.666172,52.768990
Eriksstraat,45,,,1755NB,Petten,Schagen,Noord-Holland,VBO,4.666085,52.768943
Eriksstraat,47,,,1755NB,Petten,Schagen,Noord-Holland,VBO,4.666000,52.768894
Eriksstraat,49,,,1755NB,Petten,Schagen,Noord-Holland,VBO,4.665906,52.768842
Eriksstraat,51,,,1755NB,Petten,Schagen,Noord-Holland,VBO,4.664850,52.768376
Eriksstraat,53,,,1755NB,Petten,Schagen,Noord-Holland,VBO,4.664762,52.768325
Eriksstraat,55,,,1755NB,Petten,Schagen,Noord-Holland,VBO,4.664655,52.768254
Eriksstraat,57,,,1755NB,Petten,Schagen,Noord-Holland,VBO,4.664576,52.768199
Eriksstraat,59,,,1755NB,Petten,Schagen,Noord-Holland,VBO,4.664468,52.768132
Eriksstraat,61,,,1755NB,Petten,Schagen,Noord-Holland,VBO,4.664388,52.768078
Ir. de Vassystraat,1,,,1755NC,Petten,Schagen,Noord-Holland,VBO,4.665316,52.770056
Ir. de Vassystraat,2,,,1755NC,Petten,Schagen,Noord-Holland,VBO,4.664817,52.770095
Ir. de Vassystraat,3,,,1755NC,Petten,Schagen,Noord-Holland,VBO,4.665498,52.770101
Ir. de Vassystraat,4,,,1755NC,Petten,Schagen,Noord-Holland,VBO,4.664699,52.770068
Ir. de Vassystraat,5,,,1755NC,Petten,Schagen,Noord-Holland,VBO,4.665466,52.769865
Ir. de Vassystraat,6,,,1755NC,Petten,Schagen,Noord-Holland,VBO,4.664969,52.769894
Ir. de Vassystraat,7,,,1755NC,Petten,Schagen,Noord-Holland,VBO,4.665588,52.769891
Ir. de Vassystraat,8,,,1755NC,Petten,Schagen,Noord-Holland,VBO,4.664819,52.769865
Ir. de Vassystraat,9,,,1755NC,Petten,Schagen,Noord-Holland,VBO,4.665557,52.769652
Ir. de Vassystraat,10,,,1755NC,Petten,Schagen,Noord-Holland,VBO,4.665085,52.769691
Ir. de Vassystraat,12,,,1755NC,Petten,Schagen,Noord-Holland,VBO,4.664939,52.769657
Ir. de Vassystraat,14,,,1755NC,Petten,Schagen,Noord-Holland,VBO,4.665284,52.769411
Ir. de Vassystraat,16,,,1755NC,Petten,Schagen,Noord-Holland,VBO,4.665364,52.769359
Ir. de Vassystraat,18,,,1755NC,Petten,Schagen,Noord-Holland,VBO,4.665444,52.769307
Ir. de Vassystraat,20,,,1755NC,Petten,Schagen,Noord-Holland,VBO,4.665524,52.769256
Ir. de Vassystraat,22,,,1755NC,Petten,Schagen,Noord-Holland,VBO,4.665603,52.769204
Ketelduinweg,1,a,ap1,1755ND,Petten,Schagen,Noord-Holland,VBO,4.664112,52.769445
Ketelduinweg,1,a,ap10,1755ND,Petten,Schagen,Noord-Holland,VBO,4.664449,52.769678
Ketelduinweg,1,a,ap2,1755ND,Petten,Schagen,Noord-Holland,VBO,4.664063,52.769487
Ketelduinweg,1,a,ap3,1755ND,Petten,Schagen,Noord-Holland,VBO,4.664013,52.769530
Ketelduinweg,1,a,ap4,1755ND,Petten,Schagen,Noord-Holland,VBO,4.664079,52.769556
Ketelduinweg,1,a,ap5,1755ND,Petten,Schagen,Noord-Holland,VBO,4.664130,52.769517
Ketelduinweg,1,a,ap6,1755ND,Petten,Schagen,Noord-Holland,VBO,4.664179,52.769475
Ketelduinweg,1,a,ap7,1755ND,Petten,Schagen,Noord-Holland,VBO,4.664251,52.769596
Ketelduinweg,1,a,ap8,1755ND,Petten,Schagen,Noord-Holland,VBO,4.664320,52.769626
Ketelduinweg,1,a,ap9,1755ND,Petten,Schagen,Noord-Holland,VBO,4.664384,52.769652
Ketelduinweg,1,a,,1755ND,Petten,Schagen,Noord-Holland,VBO,4.664388,52.769686
Ketelduinweg,1,b,,1755ND,Petten,Schagen,Noord-Holland,VBO,4.664382,52.769535
Ketelduinweg,1,c,,1755ND,Petten,Schagen,Noord-Holland,VBO,4.663669,52.769892
Ketelduinweg,1,,apA,1755ND,Petten,Schagen,Noord-Holland,VBO,4.664030,52.769911
Ketelduinweg,1,,apB,1755ND,Petten,Schagen,Noord-Holland,VBO,4.664089,52.769932
Ketelduinweg,1,,apC,1755ND,Petten,Schagen,Noord-Holland,VBO,4.664147,52.769963
Ketelduinweg,1,,apD,1755ND,Petten,Schagen,Noord-Holland,VBO,4.664263,52.769961
Ketelduinweg,1,,apE,1755ND,Petten,Schagen,Noord-Holland,VBO,4.664187,52.769932
Ketelduinweg,1,,apF,1755ND,Petten,Schagen,Noord-Holland,VBO,4.664131,52.769898
Ketelduinweg,1,,apG,1755ND,Petten,Schagen,Noord-Holland,VBO,4.664074,52.769876
Ketelduinweg,1,,,1755ND,Petten,Schagen,Noord-Holland,VBO,4.663875,52.769861
Ketelduinweg,2,,,1755ND,Petten,Schagen,Noord-Holland,VBO,4.664363,52.769342
Ketelduinweg,3,a,,1755ND,Petten,Schagen,Noord-Holland,VBO,4.664728,52.769107
Ketelduinweg,3,,,1755ND,Petten,Schagen,Noord-Holland,VBO,4.664487,52.769137
Ketelduinweg,7,,,1755ND,Petten,Schagen,Noord-Holland,VBO,4.665024,52.768490
Schoolstraat,1,,,1755NE,Petten,Schagen,Noord-Holland,VBO,4.663869,52.767110
Schoolstraat,2,a,,1755NE,Petten,Schagen,Noord-Holland,VBO,4.664918,52.767080
Schoolstraat,2,,,1755NE,Petten,Schagen,Noord-Holland,VBO,4.665311,52.767440
Schoolstraat,3,,,1755NE,Petten,Schagen,Noord-Holland,VBO,4.664868,52.767805
Schoolstraat,4,,,1755NE,Petten,Schagen,Noord-Holland,VBO,4.665606,52.767748
Schoolstraat,5,,,1755NE,Petten,Schagen,Noord-Holland,VBO,4.664919,52.767849
Schoolstraat,6,,,1755NE,Petten,Schagen,Noord-Holland,VBO,4.665643,52.767796
Schoolstraat,7,,,1755NE,Petten,Schagen,Noord-Holland,VBO,4.665006,52.767931
Schoolstraat,8,,,1755NE,Petten,Schagen,Noord-Holland,VBO,4.665678,52.767846
Schoolstraat,9,,,1755NE,Petten,Schagen,Noord-Holland,VBO,4.665060,52.767976
Schoolstraat,10,,,1755NE,Petten,Schagen,Noord-Holland,VBO,4.665714,52.767897
Schoolstraat,11,,,1755NE,Petten,Schagen,Noord-Holland,VBO,4.665144,52.768059
Schoolstraat,12,,,1755NE,Petten,Schagen,Noord-Holland,VBO,4.665695,52.768027
Schoolstraat,13,,,1755NE,Petten,Schagen,Noord-Holland,VBO,4.665193,52.768100
Schoolstraat,14,,,1755NE,Petten,Schagen,Noord-Holland,VBO,4.665621,52.768057
Schoolstraat,15,,,1755NE,Petten,Schagen,Noord-Holland,VBO,4.665281,52.768186
Schoolstraat,16,,,1755NE,Petten,Schagen,Noord-Holland,VBO,4.665545,52.768088
Schoolstraat,17,,,1755NE,Petten,Schagen,Noord-Holland,VBO,4.665333,52.768231
Oostend,1,,,1755NG,Petten,Schagen,Noord-Holland,VBO,4.664686,52.767599
Plein 1945,1,a,,1755NH,Petten,Schagen,Noord-Holland,VBO,4.662854,52.768809
Plein 1945,1,b,,1755NH,Petten,Schagen,Noord-Holland,VBO,4.662786,52.768780
Plein 1945,1,,,1755NH,Petten,Schagen,Noord-Holland,VBO,4.662571,52.768730
Plein 1945,3,,,1755NH,Petten,Schagen,Noord-Holland,VBO,4.662951,52.768536
Plein 1945,15,,,1755NH,Petten,Schagen,Noord-Holland,VBO,4.663405,52.768101
Plein 1945,17,,,1755NH,Petten,Schagen,Noord-Holland,VBO,4.663549,52.768042
Plein 1945,19,a,,1755NH,Petten,Schagen,Noord-Holland,VBO,4.663672,52.768024
Plein 1945,19,,,1755NH,Petten,Schagen,Noord-Holland,VBO,4.663569,52.767987
Plein 1945,21,,,1755NH,Petten,Schagen,Noord-Holland,VBO,4.664199,52.767868
Plein 1945,23,,,1755NH,Petten,Schagen,Noord-Holland,VBO,4.664294,52.767788
Plein 1945,25,,,1755NH,Petten,Schagen,Noord-Holland,VBO,4.664365,52.767689
Plein 1945,27,,,1755NH,Petten,Schagen,Noord-Holland,VBO,4.663637,52.767602
Plein 1945,29,,,1755NH,Petten,Schagen,Noord-Holland,VBO,4.664245,52.767452
Plein 1945,31,,,1755NH,Petten,Schagen,Noord-Holland,VBO,4.664045,52.767404
Plein 1945,33,,,1755NH,Petten,Schagen,Noord-Holland,VBO,4.663929,52.767349
Plein 1945,2,a,,1755NJ,Petten,Schagen,Noord-Holland,VBO,4.662285,52.768496
Plein 1945,2,b,,1755NJ,Petten,Schagen,Noord-Holland,VBO,4.662171,52.768489
Plein 1945,2,c,,1755NJ,Petten,Schagen,Noord-Holland,VBO,4.662053,52.768468
Plein 1945,2,d,,1755NJ,Petten,Schagen,Noord-Holland,VBO,4.662001,52.768463
Plein 1945,2,,,1755NJ,Petten,Schagen,Noord-Holland,VBO,4.662290,52.768474
Plein 1945,4,A,,1755NJ,Petten,Schagen,Noord-Holland,VBO,4.662298,52.768433
Plein 1945,4,,,1755NJ,Petten,Schagen,Noord-Holland,VBO,4.662311,52.768405
Plein 1945,6,,,1755NJ,Petten,Schagen,Noord-Holland,VBO,4.662369,52.768329
Plein 1945,8,,,1755NJ,Petten,Schagen,Noord-Holland,VBO,4.662389,52.768245
Plein 1945,10,a,,1755NJ,Petten,Schagen,Noord-Holland,VBO,4.662445,52.768001
Plein 1945,10,,,1755NJ,Petten,Schagen,Noord-Holland,VBO,4.662502,52.768015
Plein 1945,12,,,1755NJ,Petten,Schagen,Noord-Holland,VBO,4.662689,52.767897
Plein 1945,14,a,,1755NJ,Petten,Schagen,Noord-Holland,VBO,4.662658,52.767783
Plein 1945,14,,,1755NJ,Petten,Schagen,Noord-Holland,VBO,4.662704,52.767798
Plein 1945,16,,,1755NJ,Petten,Schagen,Noord-Holland,VBO,4.662808,52.767715
Plein 1945,18,a,,1755NJ,Petten,Schagen,Noord-Holland,VBO,4.662810,52.767586
Plein 1945,18,,,1755NJ,Petten,Schagen,Noord-Holland,VBO,4.662866,52.767604
Plein 1945,20,,,1755NJ,Petten,Schagen,Noord-Holland,VBO,4.662882,52.767518
Plein 1945,22,,,1755NJ,Petten,Schagen,Noord-Holland,VBO,4.663093,52.767441
Plein 1945,24,a,,1755NJ,Petten,Schagen,Noord-Holland,VBO,4.663167,52.767384
Plein 1945,24,b,,1755NJ,Petten,Schagen,Noord-Holland,VBO,4.663126,52.767370
Plein 1945,26,,,1755NJ,Petten,Schagen,Noord-Holland,VBO,4.663217,52.767307
Middelweg,1,,,1755NK,Petten,Schagen,Noord-Holland,VBO,4.663132,52.769726
Middelweg,2,,,1755NK,Petten,Schagen,Noord-Holland,VBO,4.663267,52.769606
Middelweg,3,,,1755NK,Petten,Schagen,Noord-Holland,VBO,4.663371,52.769475
Middelweg,4,,,1755NK,Petten,Schagen,Noord-Holland,VBO,4.663472,52.769351
Middelweg,5,,,1755NK,Petten,Schagen,Noord-Holland,VBO,4.663590,52.769207
Middelweg,6,,,1755NK,Petten,Schagen,Noord-Holland,VBO,4.663940,52.768905
Middelweg,7,,,1755NK,Petten,Schagen,Noord-Holland,VBO,4.664012,52.768855
Middelweg,8,,,1755NK,Petten,Schagen,Noord-Holland,VBO,4.664117,52.768780
Middelweg,9,,,1755NK,Petten,Schagen,Noord-Holland,VBO,4.664185,52.768740
Middelweg,10,,,1755NK,Petten,Schagen,Noord-Holland,VBO,4.664300,52.768654
Middelweg,11,,,1755NK,Petten,Schagen,Noord-Holland,VBO,4.664367,52.768605
Middelweg,12,,,1755NK,Petten,Schagen,Noord-Holland,VBO,4.664472,52.768526
Middelweg,13,,,1755NK,Petten,Schagen,Noord-Holland,VBO,4.664568,52.768485
Muiweg,1,,,1755NL,Petten,Schagen,Noord-Holland,VBO,4.662642,52.769618
Muiweg,2,,,1755NL,Petten,Schagen,Noord-Holland,VBO,4.662762,52.769461
Muiweg,3,,,1755NL,Petten,Schagen,Noord-Holland,VBO,4.662873,52.769336
Muiweg,4,,,1755NL,Petten,Schagen,Noord-Holland,VBO,4.662966,52.769166
Muiweg,5,,,1755NL,Petten,Schagen,Noord-Holland,VBO,4.663062,52.769042
Muiweg,6,,,1755NL,Petten,Schagen,Noord-Holland,VBO,4.663449,52.768684
Muiweg,7,,,1755NL,Petten,Schagen,Noord-Holland,VBO,4.663527,52.768624
Muiweg,8,,,1755NL,Petten,Schagen,Noord-Holland,VBO,4.663647,52.768535
Muiweg,9,,,1755NL,Petten,Schagen,Noord-Holland,VBO,4.663721,52.768475
Muiweg,10,,,1755NL,Petten,Schagen,Noord-Holland,VBO,4.663838,52.768388
Muiweg,11,,,1755NL,Petten,Schagen,Noord-Holland,VBO,4.663914,52.768328
Muiweg,12,,,1755NL,Petten,Schagen,Noord-Holland,VBO,4.664027,52.768241
Muiweg,13,,,1755NL,Petten,Schagen,Noord-Holland,VBO,4.664105,52.768180
Hondsbosschestraat,1,,,1755NM,Petten,Schagen,Noord-Holland,VBO,4.663982,52.769174
Hondsbosschestraat,2,,,1755NM,Petten,Schagen,Noord-Holland,VBO,4.663877,52.769125
Hondsbosschestraat,3,,,1755NM,Petten,Schagen,Noord-Holland,VBO,4.663760,52.769075
Hondsbosschestraat,4,,,1755NM,Petten,Schagen,Noord-Holland,VBO,4.663492,52.768966
Hondsbosschestraat,5,,,1755NM,Petten,Schagen,Noord-Holland,VBO,4.663367,52.768919
Hondsbosschestraat,6,,,1755NM,Petten,Schagen,Noord-Holland,VBO,4.663237,52.768871
Hondsbosschestraat,7,,,1755NM,Petten,Schagen,Noord-Holland,VBO,4.663104,52.768617
Ir. van den Banstraat,1,,,1755NN,Petten,Schagen,Noord-Holland,VBO,4.662156,52.769510
Ir. van den Banstraat,2,,,1755NN,Petten,Schagen,Noord-Holland,VBO,4.661977,52.769226
Ir. van den Banstraat,3,,,1755NN,Petten,Schagen,Noord-Holland,VBO,4.662286,52.769392
Ir. van den Banstraat,4,,,1755NN,Petten,Schagen,Noord-Holland,VBO,4.662015,52.769122
Ir. van den Banstraat,5,,,1755NN,Petten,Schagen,Noord-Holland,VBO,4.662317,52.769322
Ir. van den Banstraat,6,,,1755NN,Petten,Schagen,Noord-Holland,VBO,4.662082,52.769018
Ir. van den Banstraat,7,,,1755NN,Petten,Schagen,Noord-Holland,VBO,4.662349,52.769255
Ir. van den Banstraat,8,,,1755NN,Petten,Schagen,Noord-Holland,VBO,4.662118,52.768954
Ir. van den Banstraat,9,,,1755NN,Petten,Schagen,Noord-Holland,VBO,4.662392,52.769186
Ir. van den Banstraat,10,,,1755NN,Petten,Schagen,Noord-Holland,VBO,4.662152,52.768883
Ir. van den Banstraat,11,,,1755NN,Petten,Schagen,Noord-Holland,VBO,4.662442,52.769081
Ir. van den Banstraat,13,,,1755NN,Petten,Schagen,Noord-Holland,VBO,4.662484,52.769005
Ir. van den Banstraat,14,,,1755NN,Petten,Schagen,Noord-Holland,VBO,4.662203,52.768660
Ir. van den Banstraat,15,,ap1,1755NN,Petten,Schagen,Noord-Holland,VBO,4.662619,52.768925
Ir. van den Banstraat,15,,ap10,1755NN,Petten,Schagen,Noord-Holland,VBO,4.662633,52.768817
Ir. van den Banstraat,15,,ap11,1755NN,Petten,Schagen,Noord-Holland,VBO,4.662647,52.768791
Ir. van den Banstraat,15,,ap12,1755NN,Petten,Schagen,Noord-Holland,VBO,4.662548,52.768885
Ir. van den Banstraat,15,,ap13,1755NN,Petten,Schagen,Noord-Holland,VBO,4.662562,52.768859
Ir. van den Banstraat,15,,ap14,1755NN,Petten,Schagen,Noord-Holland,VBO,4.662576,52.768834
Ir. van den Banstraat,15,,ap15,1755NN,Petten,Schagen,Noord-Holland,VBO,4.662590,52.768808
Ir. van den Banstraat,15,,ap16,1755NN,Petten,Schagen,Noord-Holland,VBO,4.662604,52.768783
Ir. van den Banstraat,15,,ap17,1755NN,Petten,Schagen,Noord-Holland,VBO,4.662506,52.768876
Ir. van den Banstraat,15,,ap18,1755NN,Petten,Schagen,Noord-Holland,VBO,4.662520,52.768851
Ir. van den Banstraat,15,,ap19,1755NN,Petten,Schagen,Noord-Holland,VBO,4.662534,52.768825
Ir. van den Banstraat,15,,ap2,1755NN,Petten,Schagen,Noord-Holland,VBO,4.662632,52.768902
Ir. van den Banstraat,15,,ap20,1755NN,Petten,Schagen,Noord-Holland,VBO,4.662548,52.768800
Ir. van den Banstraat,15,,ap21,1755NN,Petten,Schagen,Noord-Holland,VBO,4.662562,52.768774
Ir. van den Banstraat,15,,ap3,1755NN,Petten,Schagen,Noord-Holland,VBO,4.662647,52.768876
Ir. van den Banstraat,15,,ap4,1755NN,Petten,Schagen,Noord-Holland,VBO,4.662661,52.768851
Ir. van den Banstraat,15,,ap5,1755NN,Petten,Schagen,Noord-Holland,VBO,4.662675,52.768825
Ir. van den Banstraat,15,,ap6,1755NN,Petten,Schagen,Noord-Holland,VBO,4.662689,52.768800
Ir. van den Banstraat,15,,ap7,1755NN,Petten,Schagen,Noord-Holland,VBO,4.662590,52.768893
Ir. van den Banstraat,15,,ap8,1755NN,Petten,Schagen,Noord-Holland,VBO,4.662604,52.768868
Ir. van den Banstraat,15,,ap9,1755NN,Petten,Schagen,Noord-Holland,VBO,4.662618,52.768842
Nevenpad,1,,,1755NP,Petten,Schagen,Noord-Holland,VBO,4.661880,52.769418
Nevenpad,2,,,1755NP,Petten,Schagen,Noord-Holland,VBO,4.661585,52.769358
Nevenpad,3,,,1755NP,Petten,Schagen,Noord-Holland,VBO,4.661371,52.769285
Singel,41,,,1755NR,Petten,Schagen,Noord-Holland,VBO,4.662840,52.766372
Singel,43,,,1755NR,Petten,Schagen,Noord-Holland,VBO,4.662927,52.766388
Singel,45,,,1755NR,Petten,Schagen,Noord-Holland,VBO,4.663014,52.766405
Singel,47,,,1755NR,Petten,Schagen,Noord-Holland,VBO,4.663102,52.766422
Singel,49,,,1755NR,Petten,Schagen,Noord-Holland,VBO,4.662939,52.766219
Singel,51,,,1755NR,Petten,Schagen,Noord-Holland,VBO,4.662966,52.766167
Singel,53,,,1755NR,Petten,Schagen,Noord-Holland,VBO,4.662994,52.766114
Singel,55,,,1755NR,Petten,Schagen,Noord-Holland,VBO,4.663021,52.766061
Singel,57,,,1755NR,Petten,Schagen,Noord-Holland,VBO,4.663105,52.765945
Singel,59,,,1755NR,Petten,Schagen,Noord-Holland,VBO,4.663133,52.765892
Singel,61,,,1755NR,Petten,Schagen,Noord-Holland,VBO,4.663160,52.765839
Singel,63,,,1755NR,Petten,Schagen,Noord-Holland,VBO,4.663188,52.765787
Singel,65,,,1755NR,Petten,Schagen,Noord-Holland,VBO,4.663330,52.765709
Singel,67,,,1755NR,Petten,Schagen,Noord-Holland,VBO,4.663411,52.765683
Singel,69,,,1755NR,Petten,Schagen,Noord-Holland,VBO,4.663492,52.765658
Singel,71,,,1755NR,Petten,Schagen,Noord-Holland,VBO,4.663573,52.765633
Singel,73,,,1755NR,Petten,Schagen,Noord-Holland,VBO,4.663785,52.765586
Singel,1,,,1755NS,Petten,Schagen,Noord-Holland,VBO,4.661411,52.769126
Singel,3,,,1755NS,Petten,Schagen,Noord-Holland,VBO,4.661433,52.769061
Singel,5,,,1755NS,Petten,Schagen,Noord-Holland,VBO,4.661475,52.768958
Singel,7,,,1755NS,Petten,Schagen,Noord-Holland,VBO,4.661521,52.768893
Singel,9,,,1755NS,Petten,Schagen,Noord-Holland,VBO,4.661535,52.768781
Singel,11,,,1755NS,Petten,Schagen,Noord-Holland,VBO,4.661552,52.768721
Singel,15,,,1755NS,Petten,Schagen,Noord-Holland,VBO,4.661593,52.768601
Singel,17,,,1755NS,Petten,Schagen,Noord-Holland,VBO,4.661668,52.768406
Singel,19,,,1755NS,Petten,Schagen,Noord-Holland,VBO,4.661749,52.768270
Singel,21,,,1755NS,Petten,Schagen,Noord-Holland,VBO,4.661833,52.768158
Singel,23,,,1755NS,Petten,Schagen,Noord-Holland,VBO,4.661973,52.767768
Singel,25,,,1755NS,Petten,Schagen,Noord-Holland,VBO,4.662068,52.767656
Singel,27,,,1755NS,Petten,Schagen,Noord-Holland,VBO,4.662151,52.767551
Singel,29,,,1755NS,Petten,Schagen,Noord-Holland,VBO,4.662250,52.767448
Singel,31,,,1755NS,Petten,Schagen,Noord-Holland,VBO,4.662356,52.767289
Singel,33,,,1755NS,Petten,Schagen,Noord-Holland,VBO,4.662580,52.767217
Singel,35,,,1755NS,Petten,Schagen,Noord-Holland,VBO,4.662619,52.766835
Singel,37,,,1755NS,Petten,Schagen,Noord-Holland,VBO,4.662699,52.766658
Singel,2,,,1755NT,Petten,Schagen,Noord-Holland,VBO,4.661090,52.769233
Singel,4,,,1755NT,Petten,Schagen,Noord-Holland,VBO,4.661098,52.769039
Singel,6,,,1755NT,Petten,Schagen,Noord-Holland,VBO,4.661178,52.768873
Singel,8,,,1755NT,Petten,Schagen,Noord-Holland,VBO,4.661240,52.768716
Singel,10,,,1755NT,Petten,Schagen,Noord-Holland,VBO,4.661300,52.768541
Singel,12,,,1755NT,Petten,Schagen,Noord-Holland,VBO,4.661367,52.768329
Singel,14,,,1755NT,Petten,Schagen,Noord-Holland,VBO,4.662062,52.767183
Singel,16,,,1755NT,Petten,Schagen,Noord-Holland,VBO,4.661995,52.767165
Singel,18,,,1755NT,Petten,Schagen,Noord-Holland,VBO,4.661922,52.767142
Singel,20,,,1755NT,Petten,Schagen,Noord-Holland,VBO,4.661900,52.766997
Singel,22,,,1755NT,Petten,Schagen,Noord-Holland,VBO,4.661898,52.766961
Singel,24,,,1755NT,Petten,Schagen,Noord-Holland,VBO,4.661943,52.766851
Singel,26,,,1755NT,Petten,Schagen,Noord-Holland,VBO,4.661956,52.766809
Singel,28,,,1755NT,Petten,Schagen,Noord-Holland,VBO,4.661971,52.766762
Singel,30,,,1755NT,Petten,Schagen,Noord-Holland,VBO,4.661990,52.766718
Singel,40,,,1755NT,Petten,Schagen,Noord-Holland,VBO,4.662384,52.766345
Singel,42,,,1755NT,Petten,Schagen,Noord-Holland,VBO,4.662461,52.766231
Singel,44,,,1755NT,Petten,Schagen,Noord-Holland,VBO,4.662533,52.766103
Singel,46,,,1755NT,Petten,Schagen,Noord-Holland,VBO,4.662555,52.766057
Singel,48,,,1755NT,Petten,Schagen,Noord-Holland,VBO,4.662603,52.765961
Singel,50,,,1755NT,Petten,Schagen,Noord-Holland,VBO,4.662621,52.765917
Singel,52,,,1755NT,Petten,Schagen,Noord-Holland,VBO,4.662677,52.765822
Singel,54,,,1755NT,Petten,Schagen,Noord-Holland,VBO,4.662703,52.765780
Singel,56,,,1755NT,Petten,Schagen,Noord-Holland,VBO,4.662751,52.765683
Singel,58,,,1755NT,Petten,Schagen,Noord-Holland,VBO,4.662775,52.765640
Singel,60,,,1755NT,Petten,Schagen,Noord-Holland,VBO,4.662893,52.765526
Singel,62,,,1755NT,Petten,Schagen,Noord-Holland,VBO,4.663050,52.765465
Singel,64,,,1755NT,Petten,Schagen,Noord-Holland,VBO,4.663271,52.765410
Hofstraat,1,,,1755NV,Petten,Schagen,Noord-Holland,VBO,4.663074,52.767091
Hofstraat,2,a,,1755NV,Petten,Schagen,Noord-Holland,VBO,4.662962,52.767316
Hofstraat,2,,,1755NV,Petten,Schagen,Noord-Holland,VBO,4.663048,52.767341
Hofstraat,3,,,1755NV,Petten,Schagen,Noord-Holland,VBO,4.662855,52.767042
Hofstraat,5,,,1755NV,Petten,Schagen,Noord-Holland,VBO,4.662550,52.766984
Molenstraat,2,,,1755NW,Petten,Schagen,Noord-Holland,VBO,4.663231,52.766826
Molenstraat,4,,,1755NW,Petten,Schagen,Noord-Holland,VBO,4.662996,52.766734
Molenstraat,6,,,1755NW,Petten,Schagen,Noord-Holland,VBO,4.662312,52.766621
Molenstraat,8,,,1755NW,Petten,Schagen,Noord-Holland,VBO,4.662222,52.766611
Molenstraat,10,,,1755NW,Petten,Schagen,Noord-Holland,VBO,4.661991,52.766565
Zijperweg,2,,,1755NX,Petten,Schagen,Noord-Holland,VBO,4.663270,52.767156
Zijperweg,4,,,1755NX,Petten,Schagen,Noord-Holland,VBO,4.663397,52.767062
Zijperweg,6,,,1755NX,Petten,Schagen,Noord-Holland,VBO,4.663496,52.766956
Zijperweg,8,,,1755NX,Petten,Schagen,Noord-Holland,VBO,4.663303,52.766500
Zijperweg,10,,,1755NX,Petten,Schagen,Noord-Holland,VBO,4.663351,52.766453
Zijperweg,12,,,1755NX,Petten,Schagen,Noord-Holland,VBO,4.663400,52.766406
Zijperweg,14,,,1755NX,Petten,Schagen,Noord-Holland,VBO,4.663449,52.766359
Zijperweg,16,,,1755NX,Petten,Schagen,Noord-Holland,VBO,4.663625,52.766296
Zijperweg,18,,,1755NX,Petten,Schagen,Noord-Holland,VBO,4.663713,52.766312
Zijperweg,20,,,1755NX,Petten,Schagen,Noord-Holland,VBO,4.663801,52.766329
Zijperweg,22,,g1,1755NX,Petten,Schagen,Noord-Holland,VBO,4.663300,52.766160
Zijperweg,22,,g2,1755NX,Petten,Schagen,Noord-Holland,VBO,4.663329,52.766196
Zijperweg,22,,,1755NX,Petten,Schagen,Noord-Holland,VBO,4.663723,52.766101
Zijperweg,24,,,1755NX,Petten,Schagen,Noord-Holland,VBO,4.663826,52.766065
Zijperweg,26,,,1755NX,Petten,Schagen,Noord-Holland,VBO,4.663933,52.766031
Zijperweg,28,,,1755NX,Petten,Schagen,Noord-Holland,VBO,4.663964,52.765907
Zijperweg,32,,,1755NX,Petten,Schagen,Noord-Holland,VBO,4.663744,52.766126
Zijperweg,34,,,1755NX,Petten,Schagen,Noord-Holland,VBO,4.663851,52.766092
Zijperweg,36,,,1755NX,Petten,Schagen,Noord-Holland,VBO,4.663958,52.766058
Zijperweg,38,,,1755NX,Petten,Schagen,Noord-Holland,VBO,4.663834,52.765918
Zijperweg,40,,,1755NX,Petten,Schagen,Noord-Holland,VBO,4.663943,52.765882
Zijperweg,42,,,1755NX,Petten,Schagen,Noord-Holland,VBO,4.664057,52.765853
Zijperweg,44,,,1755NX,Petten,Schagen,Noord-Holland,VBO,4.663769,52.766152
Zijperweg,46,,,1755NX,Petten,Schagen,Noord-Holland,VBO,4.663875,52.766118
Zijperweg,48,,,1755NX,Petten,Schagen,Noord-Holland,VBO,4.663983,52.766084
Zijperweg,50,,,1755NX,Petten,Schagen,Noord-Holland,VBO,4.663807,52.765891
Zijperweg,52,,,1755NX,Petten,Schagen,Noord-Holland,VBO,4.663921,52.765851
Zijperweg,54,,,1755NX,Petten,Schagen,Noord-Holland,VBO,4.664033,52.765819
Zijperweg,1,a,,1755NZ,Petten,Schagen,Noord-Holland,VBO,4.663811,52.767255
Zijperweg,1,,,1755NZ,Petten,Schagen,Noord-Holland,VBO,4.664286,52.767082
Zijperweg,3,,,1755NZ,Petten,Schagen,Noord-Holland,VBO,4.664348,52.767041
Zijperweg,5,,,1755NZ,Petten,Schagen,Noord-Holland,VBO,4.664411,52.767002
Zijperweg,7,,,1755NZ,Petten,Schagen,Noord-Holland,VBO,4.664473,52.766960
Zijperweg,9,,,1755NZ,Petten,Schagen,Noord-Holland,VBO,4.664587,52.766863
Zijperweg,11,,,1755NZ,Petten,Schagen,Noord-Holland,VBO,4.664567,52.766809
Zijperweg,13,,,1755NZ,Petten,Schagen,Noord-Holland,VBO,4.664546,52.766755
Zijperweg,15,,,1755NZ,Petten,Schagen,Noord-Holland,VBO,4.664526,52.766700
Zijperweg,17,,,1755NZ,Petten,Schagen,Noord-Holland,VBO,4.664359,52.766637
Zijperweg,19,,,1755NZ,Petten,Schagen,Noord-Holland,VBO,4.664270,52.766620
Zijperweg,21,,,1755NZ,Petten,Schagen,Noord-Holland,VBO,4.664183,52.766604
Zijperweg,23,,,1755NZ,Petten,Schagen,Noord-Holland,VBO,4.664097,52.766588
J.C. Bellisstraat,1,a,,1755PA,Petten,Schagen,Noord-Holland,VBO,4.662150,52.768208
J.C. Bellisstraat,1,,,1755PA,Petten,Schagen,Noord-Holland,VBO,4.662226,52.767991
J.C. Bellisstraat,2,,,1755PA,Petten,Schagen,Noord-Holland,VBO,4.661893,52.767921
J.C. Bellisstraat,3,,,1755PA,Petten,Schagen,Noord-Holland,VBO,4.659735,52.767315
J.C. Bellisstraat,4,,,1755PA,Petten,Schagen,Noord-Holland,VBO,4.659518,52.767274
Jan van Gentstraat,1,,,1755PB,Petten,Schagen,Noord-Holland,VBO,4.659430,52.768021
Jan van Gentstraat,3,,,1755PB,Petten,Schagen,Noord-Holland,VBO,4.659389,52.767878
Jan van Gentstraat,5,,,1755PB,Petten,Schagen,Noord-Holland,VBO,4.659344,52.767736
Jan van Gentstraat,9,,,1755PB,Petten,Schagen,Noord-Holland,VBO,4.659259,52.767450
Jan van Gentstraat,11,,,1755PB,Petten,Schagen,Noord-Holland,VBO,4.659209,52.767306
Jan van Gentstraat,13,,,1755PB,Petten,Schagen,Noord-Holland,VBO,4.658990,52.766736
Jan van Gentstraat,15,,,1755PB,Petten,Schagen,Noord-Holland,VBO,4.658956,52.766685
Jan van Gentstraat,17,,,1755PB,Petten,Schagen,Noord-Holland,VBO,4.658921,52.766634
Jan van Gentstraat,19,,,1755PB,Petten,Schagen,Noord-Holland,VBO,4.658888,52.766584
Jan van Gentstraat,21,,,1755PB,Petten,Schagen,Noord-Holland,VBO,4.658855,52.766534
Jan van Gentstraat,23,,,1755PB,Petten,Schagen,Noord-Holland,VBO,4.658821,52.766484
Jan van Gentstraat,25,,,1755PB,Petten,Schagen,Noord-Holland,VBO,4.658788,52.766434
Jan van Gentstraat,27,,,1755PB,Petten,Schagen,Noord-Holland,VBO,4.658754,52.766384
Jan van Gentstraat,29,,,1755PB,Petten,Schagen,Noord-Holland,VBO,4.658721,52.766334
Jan van Gentstraat,31,,,1755PB,Petten,Schagen,Noord-Holland,VBO,4.658687,52.766285
Jan van Gentstraat,33,,,1755PB,Petten,Schagen,Noord-Holland,VBO,4.658654,52.766234
Jan van Gentstraat,35,,,1755PB,Petten,Schagen,Noord-Holland,VBO,4.658620,52.766184
Jan van Gentstraat,37,,,1755PB,Petten,Schagen,Noord-Holland,VBO,4.658586,52.766133
Jan van Gentstraat,2,,,1755PC,Petten,Schagen,Noord-Holland,VBO,4.659176,52.768760
Jan van Gentstraat,6,,,1755PC,Petten,Schagen,Noord-Holland,VBO,4.659057,52.768568
Jan van Gentstraat,8,,,1755PC,Petten,Schagen,Noord-Holland,VBO,4.659036,52.768513
Jan van Gentstraat,10,,,1755PC,Petten,Schagen,Noord-Holland,VBO,4.659015,52.768461
Jan van Gentstraat,12,,,1755PC,Petten,Schagen,Noord-Holland,VBO,4.658994,52.768408
Jan van Gentstraat,14,,,1755PC,Petten,Schagen,Noord-Holland,VBO,4.658974,52.768356
Jan van Gentstraat,16,,,1755PC,Petten,Schagen,Noord-Holland,VBO,4.658953,52.768304
Jan van Gentstraat,18,,,1755PC,Petten,Schagen,Noord-Holland,VBO,4.658932,52.768251
Jan van Gentstraat,20,,,1755PC,Petten,Schagen,Noord-Holland,VBO,4.658911,52.768197
Jan van Gentstraat,22,,,1755PC,Petten,Schagen,Noord-Holland,VBO,4.658891,52.768146
Jan van Gentstraat,24,,,1755PC,Petten,Schagen,Noord-Holland,VBO,4.658870,52.768093
Jan van Gentstraat,26,,,1755PC,Petten,Schagen,Noord-Holland,VBO,4.658849,52.768041
Jan van Gentstraat,28,,,1755PC,Petten,Schagen,Noord-Holland,VBO,4.658829,52.767988
Jan van Gentstraat,30,,,1755PC,Petten,Schagen,Noord-Holland,VBO,4.658808,52.767935
Jan van Gentstraat,32,,,1755PC,Petten,Schagen,Noord-Holland,VBO,4.658787,52.767883
Jan van Gentstraat,34,,,1755PC,Petten,Schagen,Noord-Holland,VBO,4.658766,52.767830
Jan van Gentstraat,36,,,1755PC,Petten,Schagen,Noord-Holland,VBO,4.658745,52.767777
Jan van Gentstraat,38,,,1755PC,Petten,Schagen,Noord-Holland,VBO,4.658725,52.767725
Jan van Gentstraat,40,,,1755PC,Petten,Schagen,Noord-Holland,VBO,4.658704,52.767672
Jan van Gentstraat,42,,,1755PC,Petten,Schagen,Noord-Holland,VBO,4.658712,52.767175
Jan van Gentstraat,44,,,1755PC,Petten,Schagen,Noord-Holland,VBO,4.658661,52.767041
Jan van Gentstraat,46,,,1755PC,Petten,Schagen,Noord-Holland,VBO,4.658573,52.766907
Jan van Gentstraat,48,,g1,1755PC,Petten,Schagen,Noord-Holland,VBO,4.658343,52.766639
Jan van Gentstraat,48,,g10,1755PC,Petten,Schagen,Noord-Holland,VBO,4.658122,52.766309
Jan van Gentstraat,48,,g11,1755PC,Petten,Schagen,Noord-Holland,VBO,4.658106,52.766284
Jan van Gentstraat,48,,g12,1755PC,Petten,Schagen,Noord-Holland,VBO,4.658088,52.766260
Jan van Gentstraat,48,,g2,1755PC,Petten,Schagen,Noord-Holland,VBO,4.658326,52.766613
Jan van Gentstraat,48,,g3,1755PC,Petten,Schagen,Noord-Holland,VBO,4.658309,52.766587
Jan van Gentstraat,48,,g4,1755PC,Petten,Schagen,Noord-Holland,VBO,4.658293,52.766562
Jan van Gentstraat,48,,g5,1755PC,Petten,Schagen,Noord-Holland,VBO,4.658241,52.766487
Jan van Gentstraat,48,,g6,1755PC,Petten,Schagen,Noord-Holland,VBO,4.658224,52.766461
Jan van Gentstraat,48,,g7,1755PC,Petten,Schagen,Noord-Holland,VBO,4.658208,52.766435
Jan van Gentstraat,48,,g8,1755PC,Petten,Schagen,Noord-Holland,VBO,4.658190,52.766410
Jan van Gentstraat,48,,g9,1755PC,Petten,Schagen,Noord-Holland,VBO,4.658140,52.766334
Jan van Gentstraat,48,,,1755PC,Petten,Schagen,Noord-Holland,VBO,4.658366,52.766672
Sternstraat,1,,,1755PE,Petten,Schagen,Noord-Holland,VBO,4.658717,52.767399
Sternstraat,2,,,1755PE,Petten,Schagen,Noord-Holland,VBO,4.658630,52.767411
Sternstraat,3,,,1755PE,Petten,Schagen,Noord-Holland,VBO,4.658542,52.767424
Sternstraat,4,,,1755PE,Petten,Schagen,Noord-Holland,VBO,4.658456,52.767437
Sternstraat,5,,,1755PE,Petten,Schagen,Noord-Holland,VBO,4.658369,52.767450
Sternstraat,6,,,1755PE,Petten,Schagen,Noord-Holland,VBO,4.658282,52.767463
Sternstraat,7,,,1755PE,Petten,Schagen,Noord-Holland,VBO,4.658196,52.767475
Sternstraat,8,,,1755PE,Petten,Schagen,Noord-Holland,VBO,4.658109,52.767488
Sternstraat,9,,,1755PE,Petten,Schagen,Noord-Holland,VBO,4.658022,52.767501
Sternstraat,10,,,1755PE,Petten,Schagen,Noord-Holland,VBO,4.657937,52.767514
Sternstraat,11,,,1755PE,Petten,Schagen,Noord-Holland,VBO,4.657848,52.767527
Sternstraat,12,,,1755PE,Petten,Schagen,Noord-Holland,VBO,4.657764,52.767540
Sternstraat,13,,,1755PE,Petten,Schagen,Noord-Holland,VBO,4.657677,52.767552
Sternstraat,14,,,1755PE,Petten,Schagen,Noord-Holland,VBO,4.657588,52.767566
Sternstraat,15,,,1755PE,Petten,Schagen,Noord-Holland,VBO,4.657501,52.767579
Sternstraat,16,,,1755PE,Petten,Schagen,Noord-Holland,VBO,4.657413,52.767592
Noordzeestraat,3,,,1755PG,Petten,Schagen,Noord-Holland,VBO,4.658419,52.768655
Noordzeestraat,5,,,1755PG,Petten,Schagen,Noord-Holland,VBO,4.658379,52.768608
Noordzeestraat,7,,,1755PG,Petten,Schagen,Noord-Holland,VBO,4.658338,52.768560
Noordzeestraat,9,,,1755PG,Petten,Schagen,Noord-Holland,VBO,4.658298,52.768511
Noordzeestraat,11,,,1755PG,Petten,Schagen,Noord-Holland,VBO,4.658257,52.768463
Noordzeestraat,13,,,1755PG,Petten,Schagen,Noord-Holland,VBO,4.658217,52.768415
Noordzeestraat,15,,,1755PG,Petten,Schagen,Noord-Holland,VBO,4.658176,52.768367
Noordzeestraat,17,,,1755PG,Petten,Schagen,Noord-Holland,VBO,4.658136,52.768319
Noordzeestraat,19,,,1755PG,Petten,Schagen,Noord-Holland,VBO,4.658095,52.768271
Noordzeestraat,21,,,1755PG,Petten,Schagen,Noord-Holland,VBO,4.658054,52.768222
Noordzeestraat,23,,,1755PG,Petten,Schagen,Noord-Holland,VBO,4.658014,52.768174
Noordzeestraat,25,,,1755PG,Petten,Schagen,Noord-Holland,VBO,4.657973,52.768126
Noordzeestraat,27,,,1755PG,Petten,Schagen,Noord-Holland,VBO,4.657933,52.768078
Noordzeestraat,29,,,1755PG,Petten,Schagen,Noord-Holland,VBO,4.657892,52.768030
Noordzeestraat,31,,,1755PG,Petten,Schagen,Noord-Holland,VBO,4.657852,52.767981
Noordzeestraat,33,,,1755PG,Petten,Schagen,Noord-Holland,VBO,4.657811,52.767933
Noordzeestraat,35,,,1755PG,Petten,Schagen,Noord-Holland,VBO,4.657770,52.767885
Noordzeestraat,37,,,1755PG,Petten,Schagen,Noord-Holland,VBO,4.657730,52.767837
Noordzeestraat,2,,,1755PH,Petten,Schagen,Noord-Holland,VBO,4.657656,52.768719
Noordzeestraat,4,,,1755PH,Petten,Schagen,Noord-Holland,VBO,4.657633,52.768665
Noordzeestraat,6,,,1755PH,Petten,Schagen,Noord-Holland,VBO,4.657610,52.768610
Noordzeestraat,8,,,1755PH,Petten,Schagen,Noord-Holland,VBO,4.657587,52.768556
Noordzeestraat,10,,,1755PH,Petten,Schagen,Noord-Holland,VBO,4.657565,52.768502
Noordzeestraat,12,,,1755PH,Petten,Schagen,Noord-Holland,VBO,4.657542,52.768447
Noordzeestraat,14,,,1755PH,Petten,Schagen,Noord-Holland,VBO,4.657519,52.768393
Noordzeestraat,16,,,1755PH,Petten,Schagen,Noord-Holland,VBO,4.657414,52.768349
Noordzeestraat,18,,,1755PH,Petten,Schagen,Noord-Holland,VBO,4.657391,52.768295
Noordzeestraat,20,,,1755PH,Petten,Schagen,Noord-Holland,VBO,4.657368,52.768240
Noordzeestraat,22,,,1755PH,Petten,Schagen,Noord-Holland,VBO,4.657346,52.768186
Noordzeestraat,24,,,1755PH,Petten,Schagen,Noord-Holland,VBO,4.657323,52.768131
Noordzeestraat,26,,,1755PH,Petten,Schagen,Noord-Holland,VBO,4.657300,52.768077
Noordzeestraat,28,,,1755PH,Petten,Schagen,Noord-Holland,VBO,4.657277,52.768022
Noordzeestraat,30,,,1755PH,Petten,Schagen,Noord-Holland,VBO,4.657052,52.767952
Noordzeestraat,32,,,1755PH,Petten,Schagen,Noord-Holland,VBO,4.657029,52.767897
Noordzeestraat,34,,,1755PH,Petten,Schagen,Noord-Holland,VBO,4.657006,52.767843
Noordzeestraat,36,,,1755PH,Petten,Schagen,Noord-Holland,VBO,4.656982,52.767789
Noordzeestraat,38,,,1755PH,Petten,Schagen,Noord-Holland,VBO,4.656959,52.767734
Noordzeestraat,40,,,1755PH,Petten,Schagen,Noord-Holland,VBO,4.656936,52.767680
Noordzeestraat,42,,,1755PH,Petten,Schagen,Noord-Holland,VBO,4.656913,52.767626
Noordzeestraat,44,,,1755PJ,Petten,Schagen,Noord-Holland,VBO,4.656817,52.767583
Noordzeestraat,46,,,1755PJ,Petten,Schagen,Noord-Holland,VBO,4.656794,52.767529
Noordzeestraat,48,,,1755PJ,Petten,Schagen,Noord-Holland,VBO,4.656770,52.767474
Noordzeestraat,50,,,1755PJ,Petten,Schagen,Noord-Holland,VBO,4.656747,52.767420
Noordzeestraat,52,,,1755PJ,Petten,Schagen,Noord-Holland,VBO,4.656724,52.767366
Noordzeestraat,54,,,1755PJ,Petten,Schagen,Noord-Holland,VBO,4.656700,52.767312
Noordzeestraat,56,,,1755PJ,Petten,Schagen,Noord-Holland,VBO,4.656677,52.767257
Noordzeestraat,58,,,1755PJ,Petten,Schagen,Noord-Holland,VBO,4.656478,52.767186
Noordzeestraat,60,,,1755PJ,Petten,Schagen,Noord-Holland,VBO,4.656460,52.767131
Noordzeestraat,62,,,1755PJ,Petten,Schagen,Noord-Holland,VBO,4.656441,52.767076
Noordzeestraat,64,,,1755PJ,Petten,Schagen,Noord-Holland,VBO,4.656422,52.767021
Noordzeestraat,66,,,1755PJ,Petten,Schagen,Noord-Holland,VBO,4.656404,52.766966
Noordzeestraat,68,,,1755PJ,Petten,Schagen,Noord-Holland,VBO,4.656385,52.766911
Noordzeestraat,70,,,1755PJ,Petten,Schagen,Noord-Holland,VBO,4.656367,52.766856
Noordzeestraat,72,,,1755PJ,Petten,Schagen,Noord-Holland,VBO,4.656266,52.766811
Noordzeestraat,74,,,1755PJ,Petten,Schagen,Noord-Holland,VBO,4.656247,52.766756
Noordzeestraat,76,,,1755PJ,Petten,Schagen,Noord-Holland,VBO,4.656229,52.766701
Noordzeestraat,78,,,1755PJ,Petten,Schagen,Noord-Holland,VBO,4.656210,52.766646
Noordzeestraat,80,,,1755PJ,Petten,Schagen,Noord-Holland,VBO,4.656192,52.766591
Noordzeestraat,82,,,1755PJ,Petten,Schagen,Noord-Holland,VBO,4.656173,52.766536
Noordzeestraat,84,,g1,1755PJ,Petten,Schagen,Noord-Holland,VBO,4.656066,52.766272
Noordzeestraat,84,,g10,1755PJ,Petten,Schagen,Noord-Holland,VBO,4.655796,52.766445
Noordzeestraat,84,,g11,1755PJ,Petten,Schagen,Noord-Holland,VBO,4.655882,52.766447
Noordzeestraat,84,,g12,1755PJ,Petten,Schagen,Noord-Holland,VBO,4.655922,52.766438
Noordzeestraat,84,,g13,1755PJ,Petten,Schagen,Noord-Holland,VBO,4.655960,52.766428
Noordzeestraat,84,,g14,1755PJ,Petten,Schagen,Noord-Holland,VBO,4.655995,52.766420
Noordzeestraat,84,,g15,1755PJ,Petten,Schagen,Noord-Holland,VBO,4.656031,52.766410
Noordzeestraat,84,,g16,1755PJ,Petten,Schagen,Noord-Holland,VBO,4.656069,52.766401
Noordzeestraat,84,,g17,1755PJ,Petten,Schagen,Noord-Holland,VBO,4.656105,52.766392
Noordzeestraat,84,,g18,1755PJ,Petten,Schagen,Noord-Holland,VBO,4.656142,52.766381
Noordzeestraat,84,,g2,1755PJ,Petten,Schagen,Noord-Holland,VBO,4.656029,52.766281
Noordzeestraat,84,,g3,1755PJ,Petten,Schagen,Noord-Holland,VBO,4.655992,52.766291
Noordzeestraat,84,,g4,1755PJ,Petten,Schagen,Noord-Holland,VBO,4.655954,52.766299
Noordzeestraat,84,,g5,1755PJ,Petten,Schagen,Noord-Holland,VBO,4.655917,52.766309
Noordzeestraat,84,,g6,1755PJ,Petten,Schagen,Noord-Holland,VBO,4.655880,52.766318
Noordzeestraat,84,,g7,1755PJ,Petten,Schagen,Noord-Holland,VBO,4.655841,52.766327
Noordzeestraat,84,,g8,1755PJ,Petten,Schagen,Noord-Holland,VBO,4.655805,52.766337
Noordzeestraat,84,,g9,1755PJ,Petten,Schagen,Noord-Holland,VBO,4.655749,52.766378
Noordzeestraat,84,,,1755PJ,Petten,Schagen,Noord-Holland,VBO,4.656154,52.766481
Zeearendstraat,1,,,1755PK,Petten,Schagen,Noord-Holland,VBO,4.658181,52.767016
Zeearendstraat,2,,,1755PK,Petten,Schagen,Noord-Holland,VBO,4.658102,52.767035
Zeearendstraat,3,,,1755PK,Petten,Schagen,Noord-Holland,VBO,4.658016,52.767056
Zeearendstraat,4,,,1755PK,Petten,Schagen,Noord-Holland,VBO,4.657934,52.767076
Zeearendstraat,5,,,1755PK,Petten,Schagen,Noord-Holland,VBO,4.657849,52.767097
Zeearendstraat,6,,,1755PK,Petten,Schagen,Noord-Holland,VBO,4.657768,52.767117
Zeearendstraat,7,,,1755PK,Petten,Schagen,Noord-Holland,VBO,4.657685,52.767137
Zeearendstraat,8,,,1755PK,Petten,Schagen,Noord-Holland,VBO,4.657603,52.767157
Zeearendstraat,9,,,1755PK,Petten,Schagen,Noord-Holland,VBO,4.657520,52.767177
Zeearendstraat,10,,,1755PK,Petten,Schagen,Noord-Holland,VBO,4.657437,52.767197
Zeearendstraat,11,,,1755PK,Petten,Schagen,Noord-Holland,VBO,4.657354,52.767217
Zeearendstraat,12,,,1755PK,Petten,Schagen,Noord-Holland,VBO,4.657271,52.767238
Zeearendstraat,13,,,1755PK,Petten,Schagen,Noord-Holland,VBO,4.657188,52.767258
Zeearendstraat,14,,,1755PK,Petten,Schagen,Noord-Holland,VBO,4.657105,52.767278
Zeearendstraat,16,,g1,1755PK,Petten,Schagen,Noord-Holland,VBO,4.658285,52.766710
Zeearendstraat,16,,g10,1755PK,Petten,Schagen,Noord-Holland,VBO,4.657811,52.766819
Zeearendstraat,16,,g11,1755PK,Petten,Schagen,Noord-Holland,VBO,4.657692,52.766848
Zeearendstraat,16,,g12,1755PK,Petten,Schagen,Noord-Holland,VBO,4.657648,52.766858
Zeearendstraat,16,,g13,1755PK,Petten,Schagen,Noord-Holland,VBO,4.657605,52.766868
Zeearendstraat,16,,g14,1755PK,Petten,Schagen,Noord-Holland,VBO,4.657564,52.766879
Zeearendstraat,16,,g15,1755PK,Petten,Schagen,Noord-Holland,VBO,4.657442,52.766909
Zeearendstraat,16,,g16,1755PK,Petten,Schagen,Noord-Holland,VBO,4.657399,52.766918
Zeearendstraat,16,,g17,1755PK,Petten,Schagen,Noord-Holland,VBO,4.657358,52.766929
Zeearendstraat,16,,g18,1755PK,Petten,Schagen,Noord-Holland,VBO,4.657316,52.766940
Zeearendstraat,16,,g19,1755PK,Petten,Schagen,Noord-Holland,VBO,4.657274,52.766950
Zeearendstraat,16,,g2,1755PK,Petten,Schagen,Noord-Holland,VBO,4.658227,52.766718
Zeearendstraat,16,,g20,1755PK,Petten,Schagen,Noord-Holland,VBO,4.657152,52.766981
Zeearendstraat,16,,g21,1755PK,Petten,Schagen,Noord-Holland,VBO,4.657111,52.766991
Zeearendstraat,16,,g22,1755PK,Petten,Schagen,Noord-Holland,VBO,4.657067,52.767002
Zeearendstraat,16,,g23,1755PK,Petten,Schagen,Noord-Holland,VBO,4.657027,52.767013
Zeearendstraat,16,,g3,1755PK,Petten,Schagen,Noord-Holland,VBO,4.658188,52.766728
Zeearendstraat,16,,g4,1755PK,Petten,Schagen,Noord-Holland,VBO,4.658146,52.766739
Zeearendstraat,16,,g5,1755PK,Petten,Schagen,Noord-Holland,VBO,4.658103,52.766749
Zeearendstraat,16,,g6,1755PK,Petten,Schagen,Noord-Holland,VBO,4.657977,52.766777
Zeearendstraat,16,,g7,1755PK,Petten,Schagen,Noord-Holland,VBO,4.657935,52.766788
Zeearendstraat,16,,g8,1755PK,Petten,Schagen,Noord-Holland,VBO,4.657895,52.766798
Zeearendstraat,16,,g9,1755PK,Petten,Schagen,Noord-Holland,VBO,4.657853,52.766808
Bergeendstraat,1,,,1755PL,Petten,Schagen,Noord-Holland,VBO,4.660532,52.765526
Bergeendstraat,3,,,1755PL,Petten,Schagen,Noord-Holland,VBO,4.660376,52.765229
Bergeendstraat,5,,,1755PL,Petten,Schagen,Noord-Holland,VBO,4.660112,52.765298
Bergeendstraat,7,,,1755PL,Petten,Schagen,Noord-Holland,VBO,4.659855,52.765371
Bergeendstraat,9,,,1755PL,Petten,Schagen,Noord-Holland,VBO,4.659658,52.765419
Bergeendstraat,11,,,1755PL,Petten,Schagen,Noord-Holland,VBO,4.659057,52.765632
Bergeendstraat,13,,,1755PL,Petten,Schagen,Noord-Holland,VBO,4.658974,52.765653
Bergeendstraat,15,,,1755PL,Petten,Schagen,Noord-Holland,VBO,4.658890,52.765674
Bergeendstraat,17,,,1755PL,Petten,Schagen,Noord-Holland,VBO,4.658807,52.765695
Bergeendstraat,19,,,1755PL,Petten,Schagen,Noord-Holland,VBO,4.658724,52.765715
Bergeendstraat,21,,,1755PL,Petten,Schagen,Noord-Holland,VBO,4.658641,52.765736
Bergeendstraat,23,,,1755PL,Petten,Schagen,Noord-Holland,VBO,4.658557,52.765757
Bergeendstraat,25,,,1755PL,Petten,Schagen,Noord-Holland,VBO,4.658474,52.765778
Bergeendstraat,27,A,,1755PL,Petten,Schagen,Noord-Holland,VBO,4.658092,52.765860
Bergeendstraat,27,,,1755PL,Petten,Schagen,Noord-Holland,VBO,4.658391,52.765799
Bergeendstraat,29,,,1755PM,Petten,Schagen,Noord-Holland,VBO,4.657826,52.765935
Bergeendstraat,31,,,1755PM,Petten,Schagen,Noord-Holland,VBO,4.657743,52.765956
Bergeendstraat,33,,,1755PM,Petten,Schagen,Noord-Holland,VBO,4.657660,52.765977
Bergeendstraat,35,,,1755PM,Petten,Schagen,Noord-Holland,VBO,4.657576,52.765998
Bergeendstraat,37,,,1755PM,Petten,Schagen,Noord-Holland,VBO,4.657493,52.766019
Bergeendstraat,39,,,1755PM,Petten,Schagen,Noord-Holland,VBO,4.657409,52.766039
Bergeendstraat,41,,,1755PM,Petten,Schagen,Noord-Holland,VBO,4.657326,52.766060
Bergeendstraat,43,,,1755PM,Petten,Schagen,Noord-Holland,VBO,4.657241,52.766086
Bergeendstraat,45,,,1755PM,Petten,Schagen,Noord-Holland,VBO,4.657159,52.766102
Bergeendstraat,47,,,1755PM,Petten,Schagen,Noord-Holland,VBO,4.657076,52.766123
Bergeendstraat,49,,,1755PM,Petten,Schagen,Noord-Holland,VBO,4.656993,52.766148
Bergeendstraat,51,,,1755PM,Petten,Schagen,Noord-Holland,VBO,4.656909,52.766164
Bergeendstraat,53,,,1755PM,Petten,Schagen,Noord-Holland,VBO,4.656826,52.766185
Bergeendstraat,55,,,1755PM,Petten,Schagen,Noord-Holland,VBO,4.656742,52.766206
Bergeendstraat,57,,,1755PM,Petten,Schagen,Noord-Holland,VBO,4.656659,52.766227
Bergeendstraat,59,,,1755PM,Petten,Schagen,Noord-Holland,VBO,4.656569,52.766249
Bergeendstraat,2,,,1755PN,Petten,Schagen,Noord-Holland,VBO,4.659800,52.766693
Bergeendstraat,4,,,1755PN,Petten,Schagen,Noord-Holland,VBO,4.659853,52.766562
Bergeendstraat,6,,,1755PN,Petten,Schagen,Noord-Holland,VBO,4.659906,52.766431
Bergeendstraat,8,,,1755PN,Petten,Schagen,Noord-Holland,VBO,4.659958,52.766304
Bergeendstraat,10,,,1755PN,Petten,Schagen,Noord-Holland,VBO,4.660011,52.766171
Bergeendstraat,12,,,1755PN,Petten,Schagen,Noord-Holland,VBO,4.660065,52.766038
Bergeendstraat,14,,,1755PN,Petten,Schagen,Noord-Holland,VBO,4.659911,52.765736
Bergeendstraat,16,,,1755PN,Petten,Schagen,Noord-Holland,VBO,4.659828,52.765756
Bergeendstraat,18,,,1755PN,Petten,Schagen,Noord-Holland,VBO,4.659745,52.765777
Bergeendstraat,20,,,1755PN,Petten,Schagen,Noord-Holland,VBO,4.659663,52.765797
Bergeendstraat,22,,,1755PN,Petten,Schagen,Noord-Holland,VBO,4.659585,52.765816
Bergeendstraat,24,,,1755PN,Petten,Schagen,Noord-Holland,VBO,4.659499,52.765837
Bergeendstraat,26,,,1755PN,Petten,Schagen,Noord-Holland,VBO,4.659417,52.765858
Bergeendstraat,28,,,1755PN,Petten,Schagen,Noord-Holland,VBO,4.659334,52.765878
Bergeendstraat,30,,,1755PN,Petten,Schagen,Noord-Holland,VBO,4.659252,52.765900
Bergeendstraat,32,,,1755PN,Petten,Schagen,Noord-Holland,VBO,4.659171,52.765919
Bergeendstraat,34,,,1755PN,Petten,Schagen,Noord-Holland,VBO,4.659089,52.765939
Bergeendstraat,36,,,1755PN,Petten,Schagen,Noord-Holland,VBO,4.659006,52.765960
Bergeendstraat,38,,,1755PN,Petten,Schagen,Noord-Holland,VBO,4.658923,52.765980
Bergeendstraat,40,,,1755PN,Petten,Schagen,Noord-Holland,VBO,4.658842,52.766000
Bergeendstraat,42,,,1755PN,Petten,Schagen,Noord-Holland,VBO,4.658759,52.766021
Jan van Gentstraat,7,,,1755PP,Petten,Schagen,Noord-Holland,VBO,4.659305,52.767592
Coppersdelle,1,,,1755RB,Petten,Schagen,Noord-Holland,VBO,4.657898,52.763181
Coppersdelle,3,,,1755RB,Petten,Schagen,Noord-Holland,VBO,4.657938,52.763232
Coppersdelle,5,,,1755RB,Petten,Schagen,Noord-Holland,VBO,4.658007,52.763323
Coppersdelle,7,,,1755RB,Petten,Schagen,Noord-Holland,VBO,4.658050,52.763375
Coppersdelle,9,,,1755RB,Petten,Schagen,Noord-Holland,VBO,4.658116,52.763465
Coppersdelle,11,,,1755RB,Petten,Schagen,Noord-Holland,VBO,4.658157,52.763517
Coppersdelle,13,,,1755RB,Petten,Schagen,Noord-Holland,VBO,4.658226,52.763607
Coppersdelle,15,,,1755RB,Petten,Schagen,Noord-Holland,VBO,4.658264,52.763655
Coppersdelle,17,,,1755RB,Petten,Schagen,Noord-Holland,VBO,4.658318,52.763803
Coppersdelle,19,,,1755RB,Petten,Schagen,Noord-Holland,VBO,4.658309,52.763867
Coppersdelle,21,,,1755RB,Petten,Schagen,Noord-Holland,VBO,4.658292,52.763959
Coppersdelle,23,,,1755RB,Petten,Schagen,Noord-Holland,VBO,4.658284,52.764021
Coppersdelle,25,,,1755RB,Petten,Schagen,Noord-Holland,VBO,4.658267,52.764122
Coppersdelle,27,,,1755RB,Petten,Schagen,Noord-Holland,VBO,4.658256,52.764177
Coppersdelle,29,,,1755RB,Petten,Schagen,Noord-Holland,VBO,4.658255,52.764533
Coppersdelle,31,,,1755RB,Petten,Schagen,Noord-Holland,VBO,4.658291,52.764582
Coppersdelle,33,,,1755RB,Petten,Schagen,Noord-Holland,VBO,4.658364,52.764709
Coppersdelle,35,,,1755RB,Petten,Schagen,Noord-Holland,VBO,4.658394,52.764756
Coppersdelle,2,,,1755RC,Petten,Schagen,Noord-Holland,VBO,4.658077,52.762679
Coppersdelle,4,,,1755RC,Petten,Schagen,Noord-Holland,VBO,4.658174,52.762812
Coppersdelle,6,,,1755RC,Petten,Schagen,Noord-Holland,VBO,4.658287,52.762946
Coppersdelle,8,,,1755RC,Petten,Schagen,Noord-Holland,VBO,4.658386,52.763056
Coppersdelle,10,,,1755RC,Petten,Schagen,Noord-Holland,VBO,4.658424,52.763106
Coppersdelle,12,,,1755RC,Petten,Schagen,Noord-Holland,VBO,4.658492,52.763217
Coppersdelle,14,,,1755RC,Petten,Schagen,Noord-Holland,VBO,4.658529,52.763261
Coppersdelle,16,,,1755RC,Petten,Schagen,Noord-Holland,VBO,4.658609,52.763371
Coppersdelle,18,,,1755RC,Petten,Schagen,Noord-Holland,VBO,4.658643,52.763417
Coppersdelle,20,,,1755RC,Petten,Schagen,Noord-Holland,VBO,4.658733,52.763526
Coppersdelle,22,,,1755RC,Petten,Schagen,Noord-Holland,VBO,4.658768,52.763574
Coppersdelle,24,,,1755RC,Petten,Schagen,Noord-Holland,VBO,4.658813,52.763689
Coppersdelle,26,,,1755RC,Petten,Schagen,Noord-Holland,VBO,4.658825,52.763740
Coppersdelle,28,,,1755RC,Petten,Schagen,Noord-Holland,VBO,4.658823,52.763863
Coppersdelle,30,,,1755RC,Petten,Schagen,Noord-Holland,VBO,4.658811,52.763913
Coppersdelle,32,,,1755RC,Petten,Schagen,Noord-Holland,VBO,4.658769,52.764551
Coppersdelle,34,,,1755RC,Petten,Schagen,Noord-Holland,VBO,4.658798,52.764592
Coppersdelle,36,,,1755RC,Petten,Schagen,Noord-Holland,VBO,4.658825,52.764633
Coppersdelle,38,,,1755RC,Petten,Schagen,Noord-Holland,VBO,4.658872,52.764672
Coppersdelle,40,,,1755RC,Petten,Schagen,Noord-Holland,VBO,4.658898,52.764714
Coppersdelle,42,,,1755RC,Petten,Schagen,Noord-Holland,VBO,4.658931,52.764758
Coppersdelle,44,,,1755RC,Petten,Schagen,Noord-Holland,VBO,4.658974,52.764857
Coppersdelle,46,,,1755RC,Petten,Schagen,Noord-Holland,VBO,4.659025,52.764894
Coppersdelle,48,,,1755RC,Petten,Schagen,Noord-Holland,VBO,4.659059,52.764936
Coppersdelle,50,,,1755RC,Petten,Schagen,Noord-Holland,VBO,4.659061,52.764986
Coppersdelle,52,,,1755RC,Petten,Schagen,Noord-Holland,VBO,4.659090,52.765028
Coppersdelle,54,,,1755RC,Petten,Schagen,Noord-Holland,VBO,4.659120,52.765072
Westerdelle,1,,,1755RD,Petten,Schagen,Noord-Holland,VBO,4.656677,52.763548
Westerdelle,3,,,1755RD,Petten,Schagen,Noord-Holland,VBO,4.656712,52.763595
Westerdelle,5,,,1755RD,Petten,Schagen,Noord-Holland,VBO,4.656787,52.763684
Westerdelle,7,,,1755RD,Petten,Schagen,Noord-Holland,VBO,4.656818,52.763732
Westerdelle,9,,,1755RD,Petten,Schagen,Noord-Holland,VBO,4.656907,52.763857
Westerdelle,11,,,1755RD,Petten,Schagen,Noord-Holland,VBO,4.656912,52.763909
Westerdelle,13,,,1755RD,Petten,Schagen,Noord-Holland,VBO,4.656919,52.764045
Westerdelle,15,,,1755RD,Petten,Schagen,Noord-Holland,VBO,4.656907,52.764098
Westerdelle,17,,,1755RD,Petten,Schagen,Noord-Holland,VBO,4.656849,52.764405
Westerdelle,19,,,1755RD,Petten,Schagen,Noord-Holland,VBO,4.656843,52.764454
Westerdelle,21,,,1755RD,Petten,Schagen,Noord-Holland,VBO,4.656852,52.764577
Westerdelle,23,,,1755RD,Petten,Schagen,Noord-Holland,VBO,4.656857,52.764627
Westerdelle,25,,,1755RD,Petten,Schagen,Noord-Holland,VBO,4.656925,52.764743
Westerdelle,27,,,1755RD,Petten,Schagen,Noord-Holland,VBO,4.656959,52.764788
Westerdelle,29,,,1755RD,Petten,Schagen,Noord-Holland,VBO,4.657003,52.764889
Westerdelle,31,,,1755RD,Petten,Schagen,Noord-Holland,VBO,4.657032,52.764935
Westerdelle,33,,,1755RD,Petten,Schagen,Noord-Holland,VBO,4.657092,52.765030
Westerdelle,35,,,1755RD,Petten,Schagen,Noord-Holland,VBO,4.657129,52.765075
Westerdelle,2,,,1755RE,Petten,Schagen,Noord-Holland,VBO,4.657123,52.763422
Westerdelle,4,,,1755RE,Petten,Schagen,Noord-Holland,VBO,4.657156,52.763469
Westerdelle,6,,,1755RE,Petten,Schagen,Noord-Holland,VBO,4.657227,52.763561
Westerdelle,8,,,1755RE,Petten,Schagen,Noord-Holland,VBO,4.657259,52.763609
Westerdelle,10,,,1755RE,Petten,Schagen,Noord-Holland,VBO,4.657333,52.763728
Westerdelle,12,,,1755RE,Petten,Schagen,Noord-Holland,VBO,4.657347,52.763776
Westerdelle,14,,,1755RE,Petten,Schagen,Noord-Holland,VBO,4.657404,52.763902
Westerdelle,16,,,1755RE,Petten,Schagen,Noord-Holland,VBO,4.657403,52.763951
Westerdelle,18,,,1755RE,Petten,Schagen,Noord-Holland,VBO,4.657397,52.764080
Westerdelle,20,,,1755RE,Petten,Schagen,Noord-Holland,VBO,4.657387,52.764130
Westerdelle,22,,,1755RE,Petten,Schagen,Noord-Holland,VBO,4.657326,52.764438
Westerdelle,24,,,1755RE,Petten,Schagen,Noord-Holland,VBO,4.657317,52.764484
Westerdelle,26,,,1755RE,Petten,Schagen,Noord-Holland,VBO,4.657357,52.764630
Westerdelle,28,,,1755RE,Petten,Schagen,Noord-Holland,VBO,4.657390,52.764677
Westerdelle,30,,,1755RE,Petten,Schagen,Noord-Holland,VBO,4.657445,52.764775
Westerdelle,32,,,1755RE,Petten,Schagen,Noord-Holland,VBO,4.657477,52.764818
Westerdelle,34,,,1755RE,Petten,Schagen,Noord-Holland,VBO,4.657540,52.764916
Westerdelle,36,,,1755RE,Petten,Schagen,Noord-Holland,VBO,4.657566,52.764964
Vliewint,1,,,1755RG,Petten,Schagen,Noord-Holland,VBO,4.657505,52.762901
Vliewint,3,,,1755RG,Petten,Schagen,Noord-Holland,VBO,4.657316,52.762944
Vliewint,5,,,1755RG,Petten,Schagen,Noord-Holland,VBO,4.657079,52.763025
Vliewint,7,,,1755RG,Petten,Schagen,Noord-Holland,VBO,4.656869,52.763072
Vliewint,9,,,1755RG,Petten,Schagen,Noord-Holland,VBO,4.656632,52.763144
Vliewint,11,,,1755RG,Petten,Schagen,Noord-Holland,VBO,4.656380,52.763220
Vliewint,13,,,1755RG,Petten,Schagen,Noord-Holland,VBO,4.656154,52.763288
Vliewint,15,,,1755RG,Petten,Schagen,Noord-Holland,VBO,4.655946,52.763362
Vliewint,17,,,1755RG,Petten,Schagen,Noord-Holland,VBO,4.655743,52.763461
Vliewint,19,,,1755RG,Petten,Schagen,Noord-Holland,VBO,4.655560,52.763572
Vliewint,21,,,1755RG,Petten,Schagen,Noord-Holland,VBO,4.655451,52.763697
Vliewint,23,,,1755RG,Petten,Schagen,Noord-Holland,VBO,4.655344,52.763831
Vliewint,25,,,1755RG,Petten,Schagen,Noord-Holland,VBO,4.655281,52.763990
Vliewint,27,,,1755RG,Petten,Schagen,Noord-Holland,VBO,4.655221,52.764138
Vliewint,29,,,1755RG,Petten,Schagen,Noord-Holland,VBO,4.655236,52.764291
Vliewint,31,,,1755RG,Petten,Schagen,Noord-Holland,VBO,4.655264,52.764416
Vliewint,33,,,1755RG,Petten,Schagen,Noord-Holland,VBO,4.655316,52.764571
Vliewint,35,,,1755RG,Petten,Schagen,Noord-Holland,VBO,4.655422,52.764718
Vliewint,37,,,1755RG,Petten,Schagen,Noord-Holland,VBO,4.655505,52.764829
Vliewint,39,,,1755RG,Petten,Schagen,Noord-Holland,VBO,4.655570,52.764987
Vliewint,41,,,1755RG,Petten,Schagen,Noord-Holland,VBO,4.655682,52.765117
Vliewint,43,,,1755RG,Petten,Schagen,Noord-Holland,VBO,4.655772,52.765249
Vliewint,45,,,1755RG,Petten,Schagen,Noord-Holland,VBO,4.655860,52.765361
Vliewint,47,,,1755RG,Petten,Schagen,Noord-Holland,VBO,4.655987,52.765509
Vliewint,49,,,1755RG,Petten,Schagen,Noord-Holland,VBO,4.656060,52.765675
Vliewint,51,,,1755RG,Petten,Schagen,Noord-Holland,VBO,4.656200,52.765704
Vliewint,53,,,1755RG,Petten,Schagen,Noord-Holland,VBO,4.656628,52.765598
Vliewint,55,,,1755RG,Petten,Schagen,Noord-Holland,VBO,4.656842,52.765549
Vliewint,57,,,1755RG,Petten,Schagen,Noord-Holland,VBO,4.657020,52.765503
Vliewint,59,,,1755RG,Petten,Schagen,Noord-Holland,VBO,4.657261,52.765449
Vliewint,61,,,1755RG,Petten,Schagen,Noord-Holland,VBO,4.657448,52.765419
Vliewint,63,,,1755RG,Petten,Schagen,Noord-Holland,VBO,4.657672,52.765341
Vliewint,65,,,1755RG,Petten,Schagen,Noord-Holland,VBO,4.657840,52.765289
Vliewint,67,,,1755RG,Petten,Schagen,Noord-Holland,VBO,4.658073,52.765264
Vliewint,69,,,1755RG,Petten,Schagen,Noord-Holland,VBO,4.658262,52.765222
Vliewint,71,,,1755RG,Petten,Schagen,Noord-Holland,VBO,4.658485,52.765137
Vliewint,2,,,1755RH,Petten,Schagen,Noord-Holland,VBO,4.656222,52.763608
Vliewint,4,,,1755RH,Petten,Schagen,Noord-Holland,VBO,4.656120,52.763661
Vliewint,6,,,1755RH,Petten,Schagen,Noord-Holland,VBO,4.655969,52.763758
Vliewint,8,,,1755RH,Petten,Schagen,Noord-Holland,VBO,4.655897,52.763821
Vliewint,10,,,1755RH,Petten,Schagen,Noord-Holland,VBO,4.655795,52.763939
Vliewint,12,,,1755RH,Petten,Schagen,Noord-Holland,VBO,4.655755,52.764015
Vliewint,14,,,1755RH,Petten,Schagen,Noord-Holland,VBO,4.655748,52.764354
Vliewint,16,,,1755RH,Petten,Schagen,Noord-Holland,VBO,4.655761,52.764414
Vliewint,18,,,1755RH,Petten,Schagen,Noord-Holland,VBO,4.655810,52.764513
Vliewint,20,,,1755RH,Petten,Schagen,Noord-Holland,VBO,4.655850,52.764568
Vliewint,22,,,1755RH,Petten,Schagen,Noord-Holland,VBO,4.655908,52.764658
Vliewint,24,,,1755RH,Petten,Schagen,Noord-Holland,VBO,4.655948,52.764714
Vliewint,26,,,1755RH,Petten,Schagen,Noord-Holland,VBO,4.656006,52.764803
Vliewint,28,,,1755RH,Petten,Schagen,Noord-Holland,VBO,4.656048,52.764857
Vliewint,30,,,1755RH,Petten,Schagen,Noord-Holland,VBO,4.656104,52.764947
Vliewint,32,,,1755RH,Petten,Schagen,Noord-Holland,VBO,4.656145,52.765000
Vliewint,34,,,1755RH,Petten,Schagen,Noord-Holland,VBO,4.656203,52.765092
Vliewint,36,,,1755RH,Petten,Schagen,Noord-Holland,VBO,4.656245,52.765147
Vliewint,38,,,1755RH,Petten,Schagen,Noord-Holland,VBO,4.656301,52.765236
Vliewint,40,,,1755RH,Petten,Schagen,Noord-Holland,VBO,4.656341,52.765291
Wilbertsdel,2,,,1755RJ,Petten,Schagen,Noord-Holland,VBO,4.658780,52.764111
Wilbertsdel,4,,,1755RJ,Petten,Schagen,Noord-Holland,VBO,4.658860,52.764117
Wilbertsdel,6,,,1755RJ,Petten,Schagen,Noord-Holland,VBO,4.659032,52.764134
Wilbertsdel,8,,,1755RJ,Petten,Schagen,Noord-Holland,VBO,4.659115,52.764140
Wilbertsdel,10,,,1755RJ,Petten,Schagen,Noord-Holland,VBO,4.659286,52.764152
Wilbertsdel,12,,,1755RJ,Petten,Schagen,Noord-Holland,VBO,4.659364,52.764159
Wilbertsdel,14,,,1755RJ,Petten,Schagen,Noord-Holland,VBO,4.659573,52.764137
Wilbertsdel,16,,,1755RJ,Petten,Schagen,Noord-Holland,VBO,4.659649,52.764117
Wilbertsdel,18,,,1755RJ,Petten,Schagen,Noord-Holland,VBO,4.659825,52.764055
Wilbertsdel,20,,,1755RJ,Petten,Schagen,Noord-Holland,VBO,4.659896,52.764034
Wilbertsdel,22,,,1755RJ,Petten,Schagen,Noord-Holland,VBO,4.660053,52.763992
Wilbertsdel,24,,,1755RJ,Petten,Schagen,Noord-Holland,VBO,4.660130,52.763970
Wilbertsdel,26,,,1755RJ,Petten,Schagen,Noord-Holland,VBO,4.660282,52.763923
Wilbertsdel,28,,,1755RJ,Petten,Schagen,Noord-Holland,VBO,4.660361,52.763902
Wilbertsdel,30,,,1755RJ,Petten,Schagen,Noord-Holland,VBO,4.660516,52.763857
Wilbertsdel,32,,,1755RJ,Petten,Schagen,Noord-Holland,VBO,4.660596,52.763837
Wilbertsdel,34,,,1755RJ,Petten,Schagen,Noord-Holland,VBO,4.660240,52.764182
Wilbertsdel,36,,,1755RJ,Petten,Schagen,Noord-Holland,VBO,4.660277,52.764231
Wilbertsdel,38,,,1755RJ,Petten,Schagen,Noord-Holland,VBO,4.660314,52.764280
Wilbertsdel,40,,,1755RJ,Petten,Schagen,Noord-Holland,VBO,4.660351,52.764329
Wilbertsdel,42,,,1755RJ,Petten,Schagen,Noord-Holland,VBO,4.660388,52.764378
Wilbertsdel,44,,,1755RJ,Petten,Schagen,Noord-Holland,VBO,4.660427,52.764429
Wilbertsdel,46,,,1755RJ,Petten,Schagen,Noord-Holland,VBO,4.660518,52.764541
Wilbertsdel,48,,,1755RJ,Petten,Schagen,Noord-Holland,VBO,4.660547,52.764580
Wilbertsdel,50,,,1755RJ,Petten,Schagen,Noord-Holland,VBO,4.660577,52.764625
Wilbertsdel,52,,,1755RJ,Petten,Schagen,Noord-Holland,VBO,4.660604,52.764666
Wilbertsdel,54,,,1755RJ,Petten,Schagen,Noord-Holland,VBO,4.660391,52.764760
Wilbertsdel,56,,,1755RJ,Petten,Schagen,Noord-Holland,VBO,4.660363,52.764719
Wilbertsdel,58,,,1755RJ,Petten,Schagen,Noord-Holland,VBO,4.660336,52.764680
Wilbertsdel,60,,,1755RJ,Petten,Schagen,Noord-Holland,VBO,4.660310,52.764641
Wilbertsdel,62,,,1755RJ,Petten,Schagen,Noord-Holland,VBO,4.660282,52.764601
Wilbertsdel,1,,,1755RK,Petten,Schagen,Noord-Holland,VBO,4.659354,52.764582
Wilbertsdel,3,,,1755RK,Petten,Schagen,Noord-Holland,VBO,4.659383,52.764627
Wilbertsdel,5,,,1755RK,Petten,Schagen,Noord-Holland,VBO,4.659409,52.764669
Wilbertsdel,7,,,1755RK,Petten,Schagen,Noord-Holland,VBO,4.659442,52.764723
Wilbertsdel,9,,,1755RK,Petten,Schagen,Noord-Holland,VBO,4.659508,52.764816
Wilbertsdel,11,,,1755RK,Petten,Schagen,Noord-Holland,VBO,4.659546,52.764864
Wilbertsdel,13,,,1755RK,Petten,Schagen,Noord-Holland,VBO,4.659573,52.764906
Wilbertsdel,15,,,1755RK,Petten,Schagen,Noord-Holland,VBO,4.659598,52.764951
Wilbertsdel,17,,,1755RK,Petten,Schagen,Noord-Holland,VBO,4.659961,52.764872
Wilbertsdel,19,,,1755RK,Petten,Schagen,Noord-Holland,VBO,4.659933,52.764831
Wilbertsdel,21,,,1755RK,Petten,Schagen,Noord-Holland,VBO,4.659904,52.764788
Wilbertsdel,23,,,1755RK,Petten,Schagen,Noord-Holland,VBO,4.659877,52.764748
Wilbertsdel,25,,,1755RK,Petten,Schagen,Noord-Holland,VBO,4.659850,52.764709
Strandslag Sint Maartenszee,1,A,,1755SB,Petten,Schagen,Noord-Holland,VBO,4.675573,52.793327
Strandslag Sint Maartenszee,1,,,1755SB,Petten,Schagen,Noord-Holland,STA,4.672296,52.793686
