openbareruimtenaam,huisnummer,huisletter,huisnummertoevoeging,postcode,woonplaatsnaam,gemeentenaam,provincienaam,typeadresseerbaarobject,longitude,latitude
Slikkerdijk,8,,,1757GK,Oudesluis,Schagen,Noord-Holland,VBO,4.823365,52.819039
Korte Ruigeweg,30,,,1757GN,Oudesluis,Schagen,Noord-Holland,VBO,4.781760,52.823789
Korte Ruigeweg,32,,,1757GN,Oudesluis,Schagen,Noord-Holland,VBO,4.784593,52.825120
Korte Ruigeweg,33,,,1757GN,Oudesluis,Schagen,Noord-Holland,VBO,4.783393,52.825053
Korte Ruigeweg,35,,,1757GN,Oudesluis,Schagen,Noord-Holland,VBO,4.784456,52.825601
Korte Ruigeweg,36,,,1757GN,Oudesluis,Schagen,Noord-Holland,VBO,4.791540,52.828252
Korte Ruigeweg,37,,,1757GN,Oudesluis,Schagen,Noord-Holland,VBO,4.787748,52.827072
Korte Ruigeweg,39,,,1757GN,Oudesluis,Schagen,Noord-Holland,VBO,4.788615,52.827497
Korte Ruigeweg,40,,,1757GN,Oudesluis,Schagen,Noord-Holland,VBO,4.801406,52.832835
Korte Ruigeweg,41,a,,1757GN,Oudesluis,Schagen,Noord-Holland,VBO,4.786385,52.828003
Korte Ruigeweg,41,,,1757GN,Oudesluis,Schagen,Noord-Holland,VBO,4.788854,52.827578
Korte Ruigeweg,43,,,1757GN,Oudesluis,Schagen,Noord-Holland,VBO,4.790189,52.828356
Korte Ruigeweg,45,,,1757GN,Oudesluis,Schagen,Noord-Holland,VBO,4.793400,52.829736
Korte Ruigeweg,47,,,1757GN,Oudesluis,Schagen,Noord-Holland,VBO,4.790581,52.833760
Korte Ruigeweg,49,,,1757GN,Oudesluis,Schagen,Noord-Holland,VBO,4.798166,52.831823
Korte Ruigeweg,51,,,1757GN,Oudesluis,Schagen,Noord-Holland,VBO,4.799696,52.832501
Korte Ruigeweg,53,a,,1757GN,Oudesluis,Schagen,Noord-Holland,VBO,4.801002,52.833156
Korte Ruigeweg,53,,,1757GN,Oudesluis,Schagen,Noord-Holland,VBO,4.801201,52.833290
Keinsmerweg,103,,,1757GP,Oudesluis,Schagen,Noord-Holland,VBO,4.788749,52.815233
Keinsmerweg,105,,,1757GP,Oudesluis,Schagen,Noord-Holland,VBO,4.788913,52.815055
Keinsmerweg,107,,,1757GP,Oudesluis,Schagen,Noord-Holland,VBO,4.789101,52.814911
Grote Sloot,451,a,,1757LP,Oudesluis,Schagen,Noord-Holland,VBO,4.788139,52.815773
Grote Sloot,451,,,1757LP,Oudesluis,Schagen,Noord-Holland,VBO,4.788117,52.815673
Grote Sloot,453,,,1757LP,Oudesluis,Schagen,Noord-Holland,VBO,4.788241,52.815862
Grote Sloot,455,,,1757LP,Oudesluis,Schagen,Noord-Holland,VBO,4.788821,52.816060
Grote Sloot,457,,,1757LP,Oudesluis,Schagen,Noord-Holland,VBO,4.789629,52.816462
Grote Sloot,461,,,1757LP,Oudesluis,Schagen,Noord-Holland,VBO,4.790225,52.816812
Grote Sloot,463,,,1757LP,Oudesluis,Schagen,Noord-Holland,VBO,4.791892,52.817572
Grote Sloot,465,,,1757LP,Oudesluis,Schagen,Noord-Holland,VBO,4.793252,52.818167
Grote Sloot,467,,,1757LP,Oudesluis,Schagen,Noord-Holland,VBO,4.795914,52.819357
Grote Sloot,469,,,1757LP,Oudesluis,Schagen,Noord-Holland,VBO,4.796361,52.819551
Grote Sloot,471,,,1757LP,Oudesluis,Schagen,Noord-Holland,VBO,4.797814,52.820264
Grote Sloot,473,,,1757LP,Oudesluis,Schagen,Noord-Holland,VBO,4.798501,52.820639
Grote Sloot,475,,,1757LP,Oudesluis,Schagen,Noord-Holland,VBO,4.799095,52.820923
Grote Sloot,477,,,1757LP,Oudesluis,Schagen,Noord-Holland,VBO,4.800175,52.821346
Grote Sloot,479,,,1757LP,Oudesluis,Schagen,Noord-Holland,VBO,4.800360,52.822636
Grote Sloot,481,,,1757LR,Oudesluis,Schagen,Noord-Holland,VBO,4.803065,52.822662
Grote Sloot,483,a,,1757LR,Oudesluis,Schagen,Noord-Holland,VBO,4.806252,52.824108
Grote Sloot,483,,,1757LR,Oudesluis,Schagen,Noord-Holland,VBO,4.804506,52.823357
Grote Sloot,485,a,,1757LR,Oudesluis,Schagen,Noord-Holland,VBO,4.807718,52.824740
Grote Sloot,485,,,1757LR,Oudesluis,Schagen,Noord-Holland,VBO,4.807046,52.824411
Grote Sloot,487,,,1757LR,Oudesluis,Schagen,Noord-Holland,VBO,4.808907,52.825294
Grote Sloot,489,,,1757LR,Oudesluis,Schagen,Noord-Holland,VBO,4.809823,52.825843
Grote Sloot,491,,,1757LR,Oudesluis,Schagen,Noord-Holland,VBO,4.812137,52.826745
Grote Sloot,493,,,1757LR,Oudesluis,Schagen,Noord-Holland,VBO,4.813282,52.827296
Grote Sloot,495,,,1757LR,Oudesluis,Schagen,Noord-Holland,VBO,4.815120,52.827973
Grote Sloot,450,,,1757LS,Oudesluis,Schagen,Noord-Holland,VBO,4.789722,52.815782
Grote Sloot,452,,,1757LS,Oudesluis,Schagen,Noord-Holland,VBO,4.790017,52.815905
Grote Sloot,454,,,1757LS,Oudesluis,Schagen,Noord-Holland,VBO,4.791285,52.816355
Grote Sloot,456,,,1757LS,Oudesluis,Schagen,Noord-Holland,VBO,4.791998,52.816673
Grote Sloot,458,,,1757LS,Oudesluis,Schagen,Noord-Holland,VBO,4.793916,52.817523
Grote Sloot,460,a,,1757LS,Oudesluis,Schagen,Noord-Holland,VBO,4.796031,52.818455
Grote Sloot,460,b,,1757LS,Oudesluis,Schagen,Noord-Holland,VBO,4.798618,52.819470
Grote Sloot,460,,,1757LS,Oudesluis,Schagen,Noord-Holland,VBO,4.795414,52.818248
Grote Sloot,462,,,1757LS,Oudesluis,Schagen,Noord-Holland,VBO,4.799125,52.819956
Grote Sloot,464,,,1757LS,Oudesluis,Schagen,Noord-Holland,VBO,4.799412,52.820061
Grote Sloot,466,,,1757LS,Oudesluis,Schagen,Noord-Holland,VBO,4.800607,52.820086
Grote Sloot,468,,,1757LS,Oudesluis,Schagen,Noord-Holland,VBO,4.801389,52.820996
Grote Sloot,470,,,1757LT,Oudesluis,Schagen,Noord-Holland,VBO,4.802967,52.821658
Grote Sloot,472,,,1757LT,Oudesluis,Schagen,Noord-Holland,VBO,4.804187,52.821352
Grote Sloot,474,,,1757LT,Oudesluis,Schagen,Noord-Holland,VBO,4.804043,52.822182
Grote Sloot,480,,,1757LT,Oudesluis,Schagen,Noord-Holland,VBO,4.805068,52.822732
Grote Sloot,482,,,1757LT,Oudesluis,Schagen,Noord-Holland,VBO,4.805147,52.822766
Grote Sloot,484,,,1757LT,Oudesluis,Schagen,Noord-Holland,VBO,4.806255,52.823165
Grote Sloot,486,,,1757LT,Oudesluis,Schagen,Noord-Holland,VBO,4.809069,52.824525
Grote Sloot,488,,,1757LT,Oudesluis,Schagen,Noord-Holland,VBO,4.809377,52.824710
Grote Sloot,490,,,1757LT,Oudesluis,Schagen,Noord-Holland,VBO,4.809687,52.824820
Grote Sloot,492,,,1757LT,Oudesluis,Schagen,Noord-Holland,VBO,4.810661,52.825087
Grote Sloot,494,,,1757LT,Oudesluis,Schagen,Noord-Holland,VBO,4.812308,52.825976
Grote Sloot,496,,,1757LT,Oudesluis,Schagen,Noord-Holland,VBO,4.813587,52.826665
Grote Sloot,498,,,1757LT,Oudesluis,Schagen,Noord-Holland,VBO,4.815408,52.827219
Westfriesedijk,13,,,1757NN,Oudesluis,Schagen,Noord-Holland,VBO,4.809362,52.807003
Westfriesedijk,15,,,1757NN,Oudesluis,Schagen,Noord-Holland,VBO,4.809967,52.807075
Westfriesedijk,15,,,1757NN,Oudesluis,Schagen,Noord-Holland,VBO,4.809882,52.807038
Westfriesedijk,17,,,1757NN,Oudesluis,Schagen,Noord-Holland,VBO,4.813501,52.807287
Westfriesedijk,19,,,1757NN,Oudesluis,Schagen,Noord-Holland,VBO,4.821060,52.807558
Westfriesedijk,21,,,1757NN,Oudesluis,Schagen,Noord-Holland,VBO,4.829826,52.807954
Westfriesedijk,23,,,1757NN,Oudesluis,Schagen,Noord-Holland,VBO,4.830596,52.807934
Westfriesedijk,25,,,1757NN,Oudesluis,Schagen,Noord-Holland,VBO,4.833547,52.808010
Noorderweg,1,,,1757PC,Oudesluis,Schagen,Noord-Holland,VBO,4.812304,52.832361
Noorderweg,2,,,1757PC,Oudesluis,Schagen,Noord-Holland,VBO,4.811867,52.832745
Noorderweg,3,,,1757PC,Oudesluis,Schagen,Noord-Holland,VBO,4.811685,52.832816
Noorderweg,4,,,1757PC,Oudesluis,Schagen,Noord-Holland,VBO,4.811588,52.832915
Noorderweg,5,,,1757PC,Oudesluis,Schagen,Noord-Holland,VBO,4.811490,52.832991
Noorderweg,6,,,1757PC,Oudesluis,Schagen,Noord-Holland,VBO,4.811404,52.833052
Noorderweg,7,,,1757PC,Oudesluis,Schagen,Noord-Holland,VBO,4.811188,52.833130
Noorderweg,8,,,1757PC,Oudesluis,Schagen,Noord-Holland,VBO,4.811392,52.833138
Noorderweg,9,a,,1757PC,Oudesluis,Schagen,Noord-Holland,VBO,4.811561,52.833405
Noorderweg,9,,,1757PC,Oudesluis,Schagen,Noord-Holland,VBO,4.811205,52.833216
Noorderweg,10,,,1757PC,Oudesluis,Schagen,Noord-Holland,VBO,4.811045,52.833499
Noorderweg,11,,,1757PC,Oudesluis,Schagen,Noord-Holland,VBO,4.810841,52.833681
Noorderweg,12,,,1757PC,Oudesluis,Schagen,Noord-Holland,VBO,4.810774,52.833867
Noorderweg,13,,,1757PC,Oudesluis,Schagen,Noord-Holland,VBO,4.810702,52.833930
Noorderweg,14,a,,1757PC,Oudesluis,Schagen,Noord-Holland,VBO,4.810293,52.834154
Noorderweg,14,,,1757PC,Oudesluis,Schagen,Noord-Holland,VBO,4.810531,52.834063
Noorderweg,15,,,1757PC,Oudesluis,Schagen,Noord-Holland,VBO,4.810213,52.834263
Noorderweg,18,,,1757PC,Oudesluis,Schagen,Noord-Holland,VBO,4.810123,52.834739
Noorderweg,19,,,1757PD,Oudesluis,Schagen,Noord-Holland,VBO,4.809570,52.835487
Noorderweg,20,,,1757PD,Oudesluis,Schagen,Noord-Holland,VBO,4.809513,52.835556
Noorderweg,21,,,1757PD,Oudesluis,Schagen,Noord-Holland,VBO,4.809397,52.835693
Noorderweg,22,,,1757PD,Oudesluis,Schagen,Noord-Holland,VBO,4.809227,52.835934
Noorderweg,23,,,1757PD,Oudesluis,Schagen,Noord-Holland,VBO,4.808606,52.836834
Noorderweg,24,,,1757PD,Oudesluis,Schagen,Noord-Holland,VBO,4.807725,52.837424
Noorderweg,25,,,1757PD,Oudesluis,Schagen,Noord-Holland,VBO,4.804827,52.839150
Noorderweg,26,a,,1757PD,Oudesluis,Schagen,Noord-Holland,VBO,4.803848,52.840523
Noorderweg,26,,,1757PD,Oudesluis,Schagen,Noord-Holland,VBO,4.803070,52.839899
De Akker,1,,,1757PE,Oudesluis,Schagen,Noord-Holland,VBO,4.810858,52.832863
De Akker,2,,,1757PE,Oudesluis,Schagen,Noord-Holland,VBO,4.811035,52.832663
De Akker,3,,,1757PE,Oudesluis,Schagen,Noord-Holland,VBO,4.811173,52.832614
De Akker,4,a,,1757PE,Oudesluis,Schagen,Noord-Holland,VBO,4.811076,52.832437
De Akker,4,,,1757PE,Oudesluis,Schagen,Noord-Holland,VBO,4.811289,52.832551
De Akker,5,,,1757PE,Oudesluis,Schagen,Noord-Holland,VBO,4.811443,52.832461
De Akker,6,,,1757PE,Oudesluis,Schagen,Noord-Holland,VBO,4.811504,52.832378
De Akker,7,,,1757PE,Oudesluis,Schagen,Noord-Holland,VBO,4.811476,52.832260
De Akker,8,,,1757PE,Oudesluis,Schagen,Noord-Holland,VBO,4.811681,52.832205
De Akker,9,,,1757PE,Oudesluis,Schagen,Noord-Holland,VBO,4.811725,52.832167
De Akker,10,,,1757PE,Oudesluis,Schagen,Noord-Holland,VBO,4.811739,52.832084
De Akker,11,,,1757PE,Oudesluis,Schagen,Noord-Holland,VBO,4.811886,52.831926
De Akker,13,,,1757PE,Oudesluis,Schagen,Noord-Holland,VBO,4.811935,52.831806
De Akker,14,,,1757PE,Oudesluis,Schagen,Noord-Holland,VBO,4.812136,52.831655
De Akker,15,,,1757PE,Oudesluis,Schagen,Noord-Holland,VBO,4.812209,52.831490
De Akker,16,,,1757PE,Oudesluis,Schagen,Noord-Holland,VBO,4.812289,52.831435
De Akker,18,,,1757PE,Oudesluis,Schagen,Noord-Holland,VBO,4.812487,52.831278
De Akker,19,,,1757PE,Oudesluis,Schagen,Noord-Holland,VBO,4.812514,52.831219
De Akker,20,,,1757PE,Oudesluis,Schagen,Noord-Holland,VBO,4.812596,52.831121
De Akker,21,,,1757PE,Oudesluis,Schagen,Noord-Holland,VBO,4.812632,52.830998
De Akker,22,,,1757PE,Oudesluis,Schagen,Noord-Holland,VBO,4.812815,52.830838
De Akker,24,,,1757PE,Oudesluis,Schagen,Noord-Holland,VBO,4.812905,52.830722
De Akker,25,,,1757PE,Oudesluis,Schagen,Noord-Holland,VBO,4.812940,52.830681
De Akker,26,,,1757PE,Oudesluis,Schagen,Noord-Holland,VBO,4.812987,52.830539
De Akker,27,,,1757PE,Oudesluis,Schagen,Noord-Holland,VBO,4.813089,52.830574
De Akker,28,,,1757PE,Oudesluis,Schagen,Noord-Holland,VBO,4.813166,52.830489
Sportlaan,1,,,1757PG,Oudesluis,Schagen,Noord-Holland,VBO,4.810804,52.832844
Sportlaan,3,a,,1757PG,Oudesluis,Schagen,Noord-Holland,VBO,4.810266,52.832810
Sportlaan,3,,,1757PG,Oudesluis,Schagen,Noord-Holland,VBO,4.810589,52.832882
Sportlaan,5,,,1757PG,Oudesluis,Schagen,Noord-Holland,VBO,4.810147,52.832810
Sportlaan,9,,,1757PG,Oudesluis,Schagen,Noord-Holland,VBO,4.809688,52.832762
Sportlaan,11,,,1757PG,Oudesluis,Schagen,Noord-Holland,VBO,4.809374,52.832735
Sportlaan,13,,,1757PG,Oudesluis,Schagen,Noord-Holland,VBO,4.808911,52.832747
Sportlaan,15,,,1757PG,Oudesluis,Schagen,Noord-Holland,VBO,4.808776,52.832761
Sportlaan,17,,,1757PG,Oudesluis,Schagen,Noord-Holland,VBO,4.808590,52.832798
Sportlaan,19,,,1757PG,Oudesluis,Schagen,Noord-Holland,VBO,4.808477,52.832820
Sportlaan,21,,,1757PG,Oudesluis,Schagen,Noord-Holland,VBO,4.808362,52.832858
Sportlaan,23,,,1757PG,Oudesluis,Schagen,Noord-Holland,VBO,4.808289,52.832870
Sportlaan,25,,,1757PG,Oudesluis,Schagen,Noord-Holland,VBO,4.808191,52.832894
Sportlaan,27,,,1757PG,Oudesluis,Schagen,Noord-Holland,VBO,4.808119,52.832905
Sportlaan,29,,,1757PG,Oudesluis,Schagen,Noord-Holland,VBO,4.808025,52.832925
Sportlaan,31,,,1757PG,Oudesluis,Schagen,Noord-Holland,VBO,4.807957,52.832939
Sportlaan,33,,,1757PG,Oudesluis,Schagen,Noord-Holland,VBO,4.807703,52.832948
Sportlaan,35,,,1757PG,Oudesluis,Schagen,Noord-Holland,VBO,4.807475,52.833008
Sportlaan,37,,,1757PG,Oudesluis,Schagen,Noord-Holland,VBO,4.807113,52.833107
Sportlaan,39,,,1757PH,Oudesluis,Schagen,Noord-Holland,VBO,4.806904,52.833144
Sportlaan,41,,,1757PH,Oudesluis,Schagen,Noord-Holland,VBO,4.806817,52.833161
Sportlaan,43,,,1757PH,Oudesluis,Schagen,Noord-Holland,VBO,4.806730,52.833177
Sportlaan,45,a,,1757PH,Oudesluis,Schagen,Noord-Holland,VBO,4.806561,52.833209
Sportlaan,45,,,1757PH,Oudesluis,Schagen,Noord-Holland,VBO,4.806648,52.833193
Sportlaan,47,,,1757PH,Oudesluis,Schagen,Noord-Holland,VBO,4.805945,52.833400
Sportlaan,49,,,1757PH,Oudesluis,Schagen,Noord-Holland,VBO,4.805889,52.833453
Sportlaan,51,,,1757PH,Oudesluis,Schagen,Noord-Holland,VBO,4.805743,52.833585
Sportlaan,53,,,1757PH,Oudesluis,Schagen,Noord-Holland,VBO,4.805689,52.833635
Sportlaan,55,,,1757PH,Oudesluis,Schagen,Noord-Holland,VBO,4.805584,52.833728
Sportlaan,57,a,,1757PH,Oudesluis,Schagen,Noord-Holland,VBO,4.805335,52.834082
Sportlaan,57,,,1757PH,Oudesluis,Schagen,Noord-Holland,VBO,4.805371,52.833933
Sportlaan,59,,,1757PH,Oudesluis,Schagen,Noord-Holland,VBO,4.805243,52.834169
Sportlaan,61,a,,1757PH,Oudesluis,Schagen,Noord-Holland,VBO,4.805020,52.834297
Sportlaan,61,,,1757PH,Oudesluis,Schagen,Noord-Holland,VBO,4.805101,52.834329
Sportlaan,63,a,,1757PH,Oudesluis,Schagen,Noord-Holland,VBO,4.804861,52.834234
Sportlaan,63,,,1757PH,Oudesluis,Schagen,Noord-Holland,VBO,4.804932,52.834269
Sportlaan,65,a,,1757PH,Oudesluis,Schagen,Noord-Holland,VBO,4.804663,52.834119
Sportlaan,65,,,1757PH,Oudesluis,Schagen,Noord-Holland,VBO,4.804720,52.834071
Sportlaan,67,a,,1757PH,Oudesluis,Schagen,Noord-Holland,VBO,4.804553,52.834213
Sportlaan,67,,,1757PH,Oudesluis,Schagen,Noord-Holland,VBO,4.804606,52.834165
Sportlaan,69,a,,1757PH,Oudesluis,Schagen,Noord-Holland,VBO,4.804439,52.834304
Sportlaan,69,,,1757PH,Oudesluis,Schagen,Noord-Holland,VBO,4.804494,52.834256
Sportlaan,71,a,,1757PH,Oudesluis,Schagen,Noord-Holland,VBO,4.804245,52.834096
Sportlaan,71,b,,1757PH,Oudesluis,Schagen,Noord-Holland,VBO,4.804037,52.834013
Sportlaan,73,,,1757PH,Oudesluis,Schagen,Noord-Holland,VBO,4.803398,52.833695
Sportlaan,75,,,1757PH,Oudesluis,Schagen,Noord-Holland,VBO,4.803049,52.831946
Sportlaan,2,,,1757PJ,Oudesluis,Schagen,Noord-Holland,VBO,4.810682,52.833200
Sportlaan,6,,,1757PJ,Oudesluis,Schagen,Noord-Holland,VBO,4.810529,52.833189
Sportlaan,8,,,1757PJ,Oudesluis,Schagen,Noord-Holland,VBO,4.810214,52.833188
Sportlaan,10,a,,1757PJ,Oudesluis,Schagen,Noord-Holland,VBO,4.809998,52.833007
Sportlaan,10,,,1757PJ,Oudesluis,Schagen,Noord-Holland,VBO,4.810074,52.833181
Sportlaan,12,,,1757PJ,Oudesluis,Schagen,Noord-Holland,VBO,4.809690,52.833161
Sportlaan,14,,,1757PJ,Oudesluis,Schagen,Noord-Holland,VBO,4.809548,52.833158
Sportlaan,16,,,1757PJ,Oudesluis,Schagen,Noord-Holland,VBO,4.809471,52.833142
Sportlaan,18,,,1757PJ,Oudesluis,Schagen,Noord-Holland,VBO,4.809359,52.833130
Sportlaan,20,,,1757PJ,Oudesluis,Schagen,Noord-Holland,VBO,4.809276,52.833131
Sportlaan,22,,,1757PJ,Oudesluis,Schagen,Noord-Holland,VBO,4.809077,52.833175
Sportlaan,24,,,1757PJ,Oudesluis,Schagen,Noord-Holland,VBO,4.808892,52.833171
Sportlaan,26,,,1757PJ,Oudesluis,Schagen,Noord-Holland,VBO,4.808753,52.833191
Sportlaan,28,,,1757PJ,Oudesluis,Schagen,Noord-Holland,VBO,4.808572,52.833226
Sportlaan,30,,,1757PJ,Oudesluis,Schagen,Noord-Holland,VBO,4.808286,52.833352
Sportlaan,32,,,1757PJ,Oudesluis,Schagen,Noord-Holland,VBO,4.808142,52.833400
Sportlaan,34,a,,1757PK,Oudesluis,Schagen,Noord-Holland,VBO,4.807111,52.835160
Sportlaan,34,,h1,1757PK,Oudesluis,Schagen,Noord-Holland,VBO,4.806230,52.837063
Sportlaan,34,,h10,1757PK,Oudesluis,Schagen,Noord-Holland,VBO,4.807145,52.836483
Sportlaan,34,,h100,1757PK,Oudesluis,Schagen,Noord-Holland,VBO,4.806199,52.834239
Sportlaan,34,,h101,1757PK,Oudesluis,Schagen,Noord-Holland,VBO,4.806076,52.834386
Sportlaan,34,,h102,1757PK,Oudesluis,Schagen,Noord-Holland,VBO,4.806469,52.834530
Sportlaan,34,,h103,1757PK,Oudesluis,Schagen,Noord-Holland,VBO,4.806655,52.834592
Sportlaan,34,,h104,1757PK,Oudesluis,Schagen,Noord-Holland,VBO,4.806853,52.834680
Sportlaan,34,,h105,1757PK,Oudesluis,Schagen,Noord-Holland,VBO,4.807028,52.834842
Sportlaan,34,,h106,1757PK,Oudesluis,Schagen,Noord-Holland,VBO,4.807120,52.834712
Sportlaan,34,,h107,1757PK,Oudesluis,Schagen,Noord-Holland,VBO,4.807597,52.834335
Sportlaan,34,,h108,1757PK,Oudesluis,Schagen,Noord-Holland,VBO,4.807409,52.834211
Sportlaan,34,,h109,1757PK,Oudesluis,Schagen,Noord-Holland,VBO,4.807274,52.834123
Sportlaan,34,,h11,1757PK,Oudesluis,Schagen,Noord-Holland,VBO,4.806980,52.836405
Sportlaan,34,,h110,1757PK,Oudesluis,Schagen,Noord-Holland,VBO,4.807017,52.834058
Sportlaan,34,,h111,1757PK,Oudesluis,Schagen,Noord-Holland,VBO,4.806842,52.833976
Sportlaan,34,,h112,1757PK,Oudesluis,Schagen,Noord-Holland,VBO,4.806695,52.833891
Sportlaan,34,,h113,1757PK,Oudesluis,Schagen,Noord-Holland,VBO,4.806655,52.833765
Sportlaan,34,,h114,1757PK,Oudesluis,Schagen,Noord-Holland,VBO,4.806941,52.833756
Sportlaan,34,,h115,1757PK,Oudesluis,Schagen,Noord-Holland,VBO,4.807116,52.833673
Sportlaan,34,,h116,1757PK,Oudesluis,Schagen,Noord-Holland,VBO,4.807279,52.833595
Sportlaan,34,,h117,1757PK,Oudesluis,Schagen,Noord-Holland,VBO,4.807496,52.833549
Sportlaan,34,,h118,1757PK,Oudesluis,Schagen,Noord-Holland,VBO,4.807813,52.833720
Sportlaan,34,,h119,1757PK,Oudesluis,Schagen,Noord-Holland,VBO,4.807907,52.833840
Sportlaan,34,,h12,1757PK,Oudesluis,Schagen,Noord-Holland,VBO,4.807348,52.836298
Sportlaan,34,,h120,1757PK,Oudesluis,Schagen,Noord-Holland,VBO,4.808047,52.833912
Sportlaan,34,,h121,1757PK,Oudesluis,Schagen,Noord-Holland,VBO,4.808163,52.834055
Sportlaan,34,,h122,1757PK,Oudesluis,Schagen,Noord-Holland,VBO,4.807896,52.834173
Sportlaan,34,,h123,1757PK,Oudesluis,Schagen,Noord-Holland,VBO,4.807538,52.834042
Sportlaan,34,,h124,1757PK,Oudesluis,Schagen,Noord-Holland,VBO,4.807320,52.833895
Sportlaan,34,,h125,1757PK,Oudesluis,Schagen,Noord-Holland,VBO,4.807448,52.833806
Sportlaan,34,,h13,1757PK,Oudesluis,Schagen,Noord-Holland,VBO,4.807365,52.836222
Sportlaan,34,,h14,1757PK,Oudesluis,Schagen,Noord-Holland,VBO,4.807463,52.836162
Sportlaan,34,,h15,1757PK,Oudesluis,Schagen,Noord-Holland,VBO,4.807574,52.836096
Sportlaan,34,,h16,1757PK,Oudesluis,Schagen,Noord-Holland,VBO,4.807237,52.835947
Sportlaan,34,,h17,1757PK,Oudesluis,Schagen,Noord-Holland,VBO,4.807087,52.836010
Sportlaan,34,,h18,1757PK,Oudesluis,Schagen,Noord-Holland,VBO,4.807043,52.836083
Sportlaan,34,,h19,1757PK,Oudesluis,Schagen,Noord-Holland,VBO,4.806605,52.836295
Sportlaan,34,,h2,1757PK,Oudesluis,Schagen,Noord-Holland,VBO,4.806321,52.837113
Sportlaan,34,,h20,1757PK,Oudesluis,Schagen,Noord-Holland,VBO,4.806510,52.836225
Sportlaan,34,,h21,1757PK,Oudesluis,Schagen,Noord-Holland,VBO,4.806411,52.836164
Sportlaan,34,,h22,1757PK,Oudesluis,Schagen,Noord-Holland,VBO,4.806283,52.836155
Sportlaan,34,,h23,1757PK,Oudesluis,Schagen,Noord-Holland,VBO,4.806179,52.836019
Sportlaan,34,,h24,1757PK,Oudesluis,Schagen,Noord-Holland,VBO,4.806010,52.835969
Sportlaan,34,,h25,1757PK,Oudesluis,Schagen,Noord-Holland,VBO,4.806041,52.836107
Sportlaan,34,,h26,1757PK,Oudesluis,Schagen,Noord-Holland,VBO,4.805939,52.836157
Sportlaan,34,,h27,1757PK,Oudesluis,Schagen,Noord-Holland,VBO,4.805846,52.836208
Sportlaan,34,,h28,1757PK,Oudesluis,Schagen,Noord-Holland,VBO,4.805803,52.836320
Sportlaan,34,,h29,1757PK,Oudesluis,Schagen,Noord-Holland,VBO,4.805726,52.836409
Sportlaan,34,,h3,1757PK,Oudesluis,Schagen,Noord-Holland,VBO,4.806466,52.837120
Sportlaan,34,,h30,1757PK,Oudesluis,Schagen,Noord-Holland,VBO,4.806206,52.836435
Sportlaan,34,,h31,1757PK,Oudesluis,Schagen,Noord-Holland,VBO,4.806290,52.836513
Sportlaan,34,,h32,1757PK,Oudesluis,Schagen,Noord-Holland,VBO,4.806416,52.836521
Sportlaan,34,,h33,1757PK,Oudesluis,Schagen,Noord-Holland,VBO,4.806014,52.836755
Sportlaan,34,,h34,1757PK,Oudesluis,Schagen,Noord-Holland,VBO,4.805883,52.836750
Sportlaan,34,,h35,1757PK,Oudesluis,Schagen,Noord-Holland,VBO,4.805764,52.836713
Sportlaan,34,,h36,1757PK,Oudesluis,Schagen,Noord-Holland,VBO,4.805585,52.836577
Sportlaan,34,,h37,1757PK,Oudesluis,Schagen,Noord-Holland,VBO,4.805511,52.836663
Sportlaan,34,,h38,1757PK,Oudesluis,Schagen,Noord-Holland,VBO,4.805457,52.836726
Sportlaan,34,,h39,1757PK,Oudesluis,Schagen,Noord-Holland,VBO,4.805449,52.836814
Sportlaan,34,,h4,1757PK,Oudesluis,Schagen,Noord-Holland,VBO,4.806605,52.836984
Sportlaan,34,,h40,1757PK,Oudesluis,Schagen,Noord-Holland,VBO,4.805201,52.836905
Sportlaan,34,,h41,1757PK,Oudesluis,Schagen,Noord-Holland,VBO,4.805382,52.836990
Sportlaan,34,,h42,1757PK,Oudesluis,Schagen,Noord-Holland,VBO,4.805616,52.836947
Sportlaan,34,,h43,1757PK,Oudesluis,Schagen,Noord-Holland,VBO,4.805698,52.837005
Sportlaan,34,,h44,1757PK,Oudesluis,Schagen,Noord-Holland,VBO,4.805841,52.837017
Sportlaan,34,,h45,1757PK,Oudesluis,Schagen,Noord-Holland,VBO,4.805973,52.837021
Sportlaan,34,,h46,1757PK,Oudesluis,Schagen,Noord-Holland,VBO,4.807112,52.835430
Sportlaan,34,,h47,1757PK,Oudesluis,Schagen,Noord-Holland,VBO,4.806959,52.835530
Sportlaan,34,,h48,1757PK,Oudesluis,Schagen,Noord-Holland,VBO,4.806840,52.835638
Sportlaan,34,,h49,1757PK,Oudesluis,Schagen,Noord-Holland,VBO,4.807138,52.835714
Sportlaan,34,,h5,1757PK,Oudesluis,Schagen,Noord-Holland,VBO,4.806642,52.836916
Sportlaan,34,,h50,1757PK,Oudesluis,Schagen,Noord-Holland,VBO,4.807347,52.835755
Sportlaan,34,,h51,1757PK,Oudesluis,Schagen,Noord-Holland,VBO,4.807505,52.835855
Sportlaan,34,,h52,1757PK,Oudesluis,Schagen,Noord-Holland,VBO,4.807668,52.835907
Sportlaan,34,,h53,1757PK,Oudesluis,Schagen,Noord-Holland,VBO,4.807844,52.835731
Sportlaan,34,,h54,1757PK,Oudesluis,Schagen,Noord-Holland,VBO,4.807896,52.835624
Sportlaan,34,,h55,1757PK,Oudesluis,Schagen,Noord-Holland,VBO,4.807467,52.835561
Sportlaan,34,,h56,1757PK,Oudesluis,Schagen,Noord-Holland,VBO,4.807600,52.835474
Sportlaan,34,,h57,1757PK,Oudesluis,Schagen,Noord-Holland,VBO,4.807575,52.835345
Sportlaan,34,,h58,1757PK,Oudesluis,Schagen,Noord-Holland,VBO,4.807669,52.835244
Sportlaan,34,,h59,1757PK,Oudesluis,Schagen,Noord-Holland,VBO,4.807960,52.835291
Sportlaan,34,,h6,1757PK,Oudesluis,Schagen,Noord-Holland,VBO,4.806792,52.836826
Sportlaan,34,,h60,1757PK,Oudesluis,Schagen,Noord-Holland,VBO,4.808125,52.835271
Sportlaan,34,,h61,1757PK,Oudesluis,Schagen,Noord-Holland,VBO,4.808373,52.835238
Sportlaan,34,,h62,1757PK,Oudesluis,Schagen,Noord-Holland,VBO,4.808509,52.835172
Sportlaan,34,,h63,1757PK,Oudesluis,Schagen,Noord-Holland,VBO,4.808738,52.834933
Sportlaan,34,,h64,1757PK,Oudesluis,Schagen,Noord-Holland,VBO,4.808470,52.834913
Sportlaan,34,,h65,1757PK,Oudesluis,Schagen,Noord-Holland,VBO,4.808283,52.834978
Sportlaan,34,,h66,1757PK,Oudesluis,Schagen,Noord-Holland,VBO,4.808139,52.835027
Sportlaan,34,,h67,1757PK,Oudesluis,Schagen,Noord-Holland,VBO,4.807873,52.835046
Sportlaan,34,,h68,1757PK,Oudesluis,Schagen,Noord-Holland,VBO,4.808401,52.834544
Sportlaan,34,,h69,1757PK,Oudesluis,Schagen,Noord-Holland,VBO,4.808590,52.834546
Sportlaan,34,,h7,1757PK,Oudesluis,Schagen,Noord-Holland,VBO,4.806641,52.836723
Sportlaan,34,,h70,1757PK,Oudesluis,Schagen,Noord-Holland,VBO,4.808735,52.834494
Sportlaan,34,,h71,1757PK,Oudesluis,Schagen,Noord-Holland,VBO,4.808515,52.834357
Sportlaan,34,,h72,1757PK,Oudesluis,Schagen,Noord-Holland,VBO,4.808437,52.834254
Sportlaan,34,,h73,1757PK,Oudesluis,Schagen,Noord-Holland,VBO,4.808352,52.834162
Sportlaan,34,,h74,1757PK,Oudesluis,Schagen,Noord-Holland,VBO,4.806809,52.834994
Sportlaan,34,,h75,1757PK,Oudesluis,Schagen,Noord-Holland,VBO,4.806627,52.834939
Sportlaan,34,,h76,1757PK,Oudesluis,Schagen,Noord-Holland,VBO,4.806455,52.834863
Sportlaan,34,,h77,1757PK,Oudesluis,Schagen,Noord-Holland,VBO,4.806302,52.834799
Sportlaan,34,,h78,1757PK,Oudesluis,Schagen,Noord-Holland,VBO,4.806123,52.834743
Sportlaan,34,,h79,1757PK,Oudesluis,Schagen,Noord-Holland,VBO,4.805936,52.834590
Sportlaan,34,,h8,1757PK,Oudesluis,Schagen,Noord-Holland,VBO,4.806967,52.836644
Sportlaan,34,,h80,1757PK,Oudesluis,Schagen,Noord-Holland,VBO,4.805763,52.834543
Sportlaan,34,,h81,1757PK,Oudesluis,Schagen,Noord-Holland,VBO,4.805738,52.834743
Sportlaan,34,,h82,1757PK,Oudesluis,Schagen,Noord-Holland,VBO,4.805566,52.834842
Sportlaan,34,,h83,1757PK,Oudesluis,Schagen,Noord-Holland,VBO,4.805436,52.834977
Sportlaan,34,,h84,1757PK,Oudesluis,Schagen,Noord-Holland,VBO,4.805341,52.835107
Sportlaan,34,,h85,1757PK,Oudesluis,Schagen,Noord-Holland,VBO,4.805640,52.835162
Sportlaan,34,,h86,1757PK,Oudesluis,Schagen,Noord-Holland,VBO,4.805853,52.835204
Sportlaan,34,,h87,1757PK,Oudesluis,Schagen,Noord-Holland,VBO,4.806008,52.835304
Sportlaan,34,,h88,1757PK,Oudesluis,Schagen,Noord-Holland,VBO,4.806252,52.835448
Sportlaan,34,,h89,1757PK,Oudesluis,Schagen,Noord-Holland,VBO,4.806429,52.835326
Sportlaan,34,,h9,1757PK,Oudesluis,Schagen,Noord-Holland,VBO,4.806994,52.836572
Sportlaan,34,,h90,1757PK,Oudesluis,Schagen,Noord-Holland,VBO,4.806599,52.835209
Sportlaan,34,,h91,1757PK,Oudesluis,Schagen,Noord-Holland,VBO,4.806312,52.835051
Sportlaan,34,,h92,1757PK,Oudesluis,Schagen,Noord-Holland,VBO,4.806146,52.835130
Sportlaan,34,,h93,1757PK,Oudesluis,Schagen,Noord-Holland,VBO,4.805865,52.835028
Sportlaan,34,,h94,1757PK,Oudesluis,Schagen,Noord-Holland,VBO,4.807324,52.834521
Sportlaan,34,,h95,1757PK,Oudesluis,Schagen,Noord-Holland,VBO,4.807077,52.834438
Sportlaan,34,,h96,1757PK,Oudesluis,Schagen,Noord-Holland,VBO,4.806886,52.834352
Sportlaan,34,,h97,1757PK,Oudesluis,Schagen,Noord-Holland,VBO,4.806660,52.834279
Sportlaan,34,,h98,1757PK,Oudesluis,Schagen,Noord-Holland,VBO,4.806546,52.834146
Sportlaan,34,,h99,1757PK,Oudesluis,Schagen,Noord-Holland,VBO,4.806357,52.834090
Sportlaan,36,,,1757PK,Oudesluis,Schagen,Noord-Holland,VBO,4.808604,52.833587
Sportlaan,38,,,1757PK,Oudesluis,Schagen,Noord-Holland,VBO,4.808907,52.833646
Sportlaan,40,,,1757PK,Oudesluis,Schagen,Noord-Holland,VBO,4.809140,52.833718
Sportlaan,62,,,1757PK,Oudesluis,Schagen,Noord-Holland,VBO,4.804633,52.834714
Sportlaan,64,,,1757PK,Oudesluis,Schagen,Noord-Holland,VBO,4.804410,52.834650
Sportlaan,66,,,1757PK,Oudesluis,Schagen,Noord-Holland,VBO,4.804098,52.834473
Sportlaan,68,,,1757PK,Oudesluis,Schagen,Noord-Holland,VBO,4.804028,52.834441
Sportlaan,70,,,1757PK,Oudesluis,Schagen,Noord-Holland,VBO,4.803957,52.834410
Sportlaan,72,,,1757PK,Oudesluis,Schagen,Noord-Holland,VBO,4.803887,52.834378
Sportlaan,74,,,1757PK,Oudesluis,Schagen,Noord-Holland,VBO,4.803694,52.834338
Sportlaan,76,,,1757PK,Oudesluis,Schagen,Noord-Holland,VBO,4.803482,52.834277
Sportlaan,78,,,1757PK,Oudesluis,Schagen,Noord-Holland,VBO,4.803307,52.834219
Sportlaan,80,,,1757PK,Oudesluis,Schagen,Noord-Holland,VBO,4.803127,52.834118
Friesebuurt,1,,,1757PL,Oudesluis,Schagen,Noord-Holland,VBO,4.810013,52.833505
Friesebuurt,2,,,1757PL,Oudesluis,Schagen,Noord-Holland,VBO,4.809918,52.833547
Friesebuurt,3,,,1757PL,Oudesluis,Schagen,Noord-Holland,VBO,4.809754,52.833719
Friesebuurt,4,,,1757PL,Oudesluis,Schagen,Noord-Holland,VBO,4.809619,52.833925
Melchiorstraat,1,,,1757PM,Oudesluis,Schagen,Noord-Holland,VBO,4.806196,52.832998
Melchiorstraat,3,,,1757PM,Oudesluis,Schagen,Noord-Holland,VBO,4.806248,52.832954
Melchiorstraat,5,,,1757PM,Oudesluis,Schagen,Noord-Holland,VBO,4.806300,52.832909
Melchiorstraat,7,,,1757PM,Oudesluis,Schagen,Noord-Holland,VBO,4.806352,52.832866
Melchiorstraat,9,,,1757PM,Oudesluis,Schagen,Noord-Holland,VBO,4.806406,52.832820
Melchiorstraat,11,,,1757PM,Oudesluis,Schagen,Noord-Holland,VBO,4.806612,52.832657
Melchiorstraat,13,,,1757PM,Oudesluis,Schagen,Noord-Holland,VBO,4.806684,52.832688
Melchiorstraat,15,,,1757PM,Oudesluis,Schagen,Noord-Holland,VBO,4.806750,52.832716
Melchiorstraat,17,,,1757PM,Oudesluis,Schagen,Noord-Holland,VBO,4.806817,52.832745
Melchiorstraat,19,,,1757PM,Oudesluis,Schagen,Noord-Holland,VBO,4.806883,52.832773
Melchiorstraat,21,,,1757PM,Oudesluis,Schagen,Noord-Holland,VBO,4.806955,52.832804
Melchiorstraat,23,,,1757PM,Oudesluis,Schagen,Noord-Holland,VBO,4.807146,52.832677
Melchiorstraat,25,,,1757PM,Oudesluis,Schagen,Noord-Holland,VBO,4.807195,52.832635
Melchiorstraat,27,,,1757PM,Oudesluis,Schagen,Noord-Holland,VBO,4.807244,52.832595
Melchiorstraat,29,,,1757PM,Oudesluis,Schagen,Noord-Holland,VBO,4.807293,52.832554
Melchiorstraat,31,,,1757PM,Oudesluis,Schagen,Noord-Holland,VBO,4.807234,52.832386
Melchiorstraat,33,,,1757PM,Oudesluis,Schagen,Noord-Holland,VBO,4.807207,52.832333
Melchiorstraat,35,,,1757PM,Oudesluis,Schagen,Noord-Holland,VBO,4.807180,52.832282
Melchiorstraat,37,,,1757PM,Oudesluis,Schagen,Noord-Holland,VBO,4.807152,52.832230
Melchiorstraat,39,,,1757PM,Oudesluis,Schagen,Noord-Holland,VBO,4.807125,52.832178
Melchiorstraat,41,,,1757PM,Oudesluis,Schagen,Noord-Holland,VBO,4.808002,52.832345
Melchiorstraat,2,b,,1757PN,Oudesluis,Schagen,Noord-Holland,VBO,4.805618,52.832997
Melchiorstraat,2,c,,1757PN,Oudesluis,Schagen,Noord-Holland,VBO,4.804865,52.832793
Melchiorstraat,2,d,,1757PN,Oudesluis,Schagen,Noord-Holland,VBO,4.805818,52.832095
Melchiorstraat,2,,,1757PN,Oudesluis,Schagen,Noord-Holland,VBO,4.805731,52.832894
Melchiorstraat,4,,,1757PN,Oudesluis,Schagen,Noord-Holland,VBO,4.805783,52.832850
Melchiorstraat,6,,,1757PN,Oudesluis,Schagen,Noord-Holland,VBO,4.805835,52.832805
Melchiorstraat,8,,,1757PN,Oudesluis,Schagen,Noord-Holland,VBO,4.805889,52.832759
Melchiorstraat,10,,,1757PN,Oudesluis,Schagen,Noord-Holland,VBO,4.805969,52.832645
Melchiorstraat,12,,,1757PN,Oudesluis,Schagen,Noord-Holland,VBO,4.806018,52.832601
Melchiorstraat,14,,,1757PN,Oudesluis,Schagen,Noord-Holland,VBO,4.806070,52.832558
Melchiorstraat,16,,,1757PN,Oudesluis,Schagen,Noord-Holland,VBO,4.806124,52.832512
Melchiorstraat,18,,,1757PN,Oudesluis,Schagen,Noord-Holland,VBO,4.806243,52.832413
Melchiorstraat,20,,,1757PN,Oudesluis,Schagen,Noord-Holland,VBO,4.806297,52.832366
Melchiorstraat,22,,,1757PN,Oudesluis,Schagen,Noord-Holland,VBO,4.806348,52.832322
Melchiorstraat,24,,,1757PN,Oudesluis,Schagen,Noord-Holland,VBO,4.806399,52.832277
Melchiorstraat,26,,,1757PN,Oudesluis,Schagen,Noord-Holland,VBO,4.806540,52.832190
Melchiorstraat,28,,,1757PN,Oudesluis,Schagen,Noord-Holland,VBO,4.806591,52.832146
Melchiorstraat,30,,,1757PN,Oudesluis,Schagen,Noord-Holland,VBO,4.806643,52.832102
Melchiorstraat,32,,,1757PN,Oudesluis,Schagen,Noord-Holland,VBO,4.806695,52.832057
Melchiorstraat,34,,,1757PN,Oudesluis,Schagen,Noord-Holland,VBO,4.806889,52.831975
Melchiorstraat,36,,,1757PN,Oudesluis,Schagen,Noord-Holland,VBO,4.806977,52.831959
Melchiorstraat,38,,,1757PN,Oudesluis,Schagen,Noord-Holland,VBO,4.807065,52.831943
Melchiorstraat,40,,,1757PN,Oudesluis,Schagen,Noord-Holland,VBO,4.807151,52.831927
Melchiorstraat,42,,,1757PN,Oudesluis,Schagen,Noord-Holland,VBO,4.808585,52.831989
Melchiorstraat,44,,,1757PN,Oudesluis,Schagen,Noord-Holland,VBO,4.808649,52.832019
Melchiorstraat,46,,,1757PN,Oudesluis,Schagen,Noord-Holland,VBO,4.808713,52.832048
Melchiorstraat,48,,,1757PN,Oudesluis,Schagen,Noord-Holland,VBO,4.808777,52.832078
Melchiorstraat,50,,,1757PN,Oudesluis,Schagen,Noord-Holland,VBO,4.808841,52.832107
Jippesstraat,1,,,1757PP,Oudesluis,Schagen,Noord-Holland,VBO,4.809673,52.832253
Jippesstraat,3,,,1757PP,Oudesluis,Schagen,Noord-Holland,VBO,4.809681,52.832158
Jippesstraat,5,,,1757PP,Oudesluis,Schagen,Noord-Holland,VBO,4.809725,52.832038
Jippesstraat,7,,,1757PP,Oudesluis,Schagen,Noord-Holland,VBO,4.809698,52.831943
Jippesstraat,9,,,1757PP,Oudesluis,Schagen,Noord-Holland,VBO,4.809703,52.831725
Jippesstraat,11,,,1757PP,Oudesluis,Schagen,Noord-Holland,VBO,4.809880,52.831730
Jippesstraat,13,,,1757PP,Oudesluis,Schagen,Noord-Holland,VBO,4.810038,52.831735
Jippesstraat,15,,,1757PP,Oudesluis,Schagen,Noord-Holland,VBO,4.810512,52.831943
Jippesstraat,17,,,1757PP,Oudesluis,Schagen,Noord-Holland,VBO,4.810518,52.832039
Jippesstraat,43,,,1757PR,Oudesluis,Schagen,Noord-Holland,VBO,4.810378,52.832244
Jippesstraat,45,,,1757PR,Oudesluis,Schagen,Noord-Holland,VBO,4.810294,52.832242
Jippesstraat,47,,,1757PR,Oudesluis,Schagen,Noord-Holland,VBO,4.810123,52.832265
Jippesstraat,49,,,1757PR,Oudesluis,Schagen,Noord-Holland,VBO,4.810040,52.832260
Jippesstraat,2,,,1757PS,Oudesluis,Schagen,Noord-Holland,VBO,4.808998,52.832191
Jippesstraat,4,,,1757PS,Oudesluis,Schagen,Noord-Holland,VBO,4.809080,52.832193
Jippesstraat,6,,,1757PS,Oudesluis,Schagen,Noord-Holland,VBO,4.809160,52.832195
Jippesstraat,8,,,1757PS,Oudesluis,Schagen,Noord-Holland,VBO,4.809241,52.832196
Jippesstraat,10,,,1757PS,Oudesluis,Schagen,Noord-Holland,VBO,4.809321,52.832198
Jippesstraat,12,,,1757PS,Oudesluis,Schagen,Noord-Holland,VBO,4.809323,52.832035
Jippesstraat,14,,,1757PS,Oudesluis,Schagen,Noord-Holland,VBO,4.809269,52.832034
Jippesstraat,16,,,1757PS,Oudesluis,Schagen,Noord-Holland,VBO,4.809327,52.831982
Jippesstraat,18,,,1757PS,Oudesluis,Schagen,Noord-Holland,VBO,4.809272,52.831981
Jippesstraat,20,,,1757PS,Oudesluis,Schagen,Noord-Holland,VBO,4.809330,52.831928
Jippesstraat,22,,,1757PS,Oudesluis,Schagen,Noord-Holland,VBO,4.809275,52.831927
Jippesstraat,24,,,1757PS,Oudesluis,Schagen,Noord-Holland,VBO,4.809334,52.831874
Jippesstraat,26,,,1757PS,Oudesluis,Schagen,Noord-Holland,VBO,4.809228,52.831870
Jippesstraat,28,,,1757PS,Oudesluis,Schagen,Noord-Holland,VBO,4.809337,52.831820
Jippesstraat,30,,,1757PS,Oudesluis,Schagen,Noord-Holland,VBO,4.809282,52.831819
Jippesstraat,32,,,1757PS,Oudesluis,Schagen,Noord-Holland,VBO,4.809340,52.831766
Jippesstraat,34,,,1757PS,Oudesluis,Schagen,Noord-Holland,VBO,4.809235,52.831763
Jippesstraat,36,,,1757PS,Oudesluis,Schagen,Noord-Holland,VBO,4.809337,52.831663
Jippesstraat,38,,,1757PS,Oudesluis,Schagen,Noord-Holland,VBO,4.809349,52.831540
Jippesstraat,40,,,1757PS,Oudesluis,Schagen,Noord-Holland,VBO,4.809335,52.831418
Jippesstraat,42,,,1757PS,Oudesluis,Schagen,Noord-Holland,VBO,4.809547,52.831260
Jippesstraat,44,,,1757PS,Oudesluis,Schagen,Noord-Holland,VBO,4.809728,52.831339
Jippesstraat,46,,,1757PS,Oudesluis,Schagen,Noord-Holland,VBO,4.809929,52.831495
Jippesstraat,48,,,1757PS,Oudesluis,Schagen,Noord-Holland,VBO,4.810127,52.831516
Jippesstraat,52,,,1757PT,Oudesluis,Schagen,Noord-Holland,VBO,4.810336,52.831672
Jippesstraat,54,,,1757PT,Oudesluis,Schagen,Noord-Holland,VBO,4.810431,52.831675
Jippesstraat,62,,,1757PT,Oudesluis,Schagen,Noord-Holland,VBO,4.810603,52.831711
Jippesstraat,64,,,1757PT,Oudesluis,Schagen,Noord-Holland,VBO,4.810678,52.831713
Jippesstraat,66,,,1757PT,Oudesluis,Schagen,Noord-Holland,VBO,4.810965,52.831809
Jippesstraat,68,,,1757PT,Oudesluis,Schagen,Noord-Holland,VBO,4.810961,52.831859
Jippesstraat,70,,,1757PT,Oudesluis,Schagen,Noord-Holland,VBO,4.810952,52.831981
Jippesstraat,72,,,1757PT,Oudesluis,Schagen,Noord-Holland,VBO,4.810947,52.832028
Jippesstraat,74,,,1757PT,Oudesluis,Schagen,Noord-Holland,VBO,4.810908,52.832189
Jippesstraat,76,,,1757PT,Oudesluis,Schagen,Noord-Holland,VBO,4.810865,52.832230
Jippesstraat,78,,,1757PT,Oudesluis,Schagen,Noord-Holland,VBO,4.810822,52.832271
Jippesstraat,80,,,1757PT,Oudesluis,Schagen,Noord-Holland,VBO,4.810779,52.832313
Jippesstraat,82,,,1757PT,Oudesluis,Schagen,Noord-Holland,VBO,4.810734,52.832354
Jippesstraat,84,,,1757PV,Oudesluis,Schagen,Noord-Holland,VBO,4.810598,52.832520
Jippesstraat,86,,,1757PV,Oudesluis,Schagen,Noord-Holland,VBO,4.810518,52.832517
Jippesstraat,88,,,1757PV,Oudesluis,Schagen,Noord-Holland,VBO,4.810439,52.832514
Jippesstraat,90,,,1757PV,Oudesluis,Schagen,Noord-Holland,VBO,4.810355,52.832512
Jippesstraat,92,,,1757PV,Oudesluis,Schagen,Noord-Holland,VBO,4.810278,52.832487
Jippesstraat,94,,,1757PV,Oudesluis,Schagen,Noord-Holland,VBO,4.810196,52.832484
Jippesstraat,96,,,1757PV,Oudesluis,Schagen,Noord-Holland,VBO,4.810037,52.832452
Jippesstraat,98,,,1757PV,Oudesluis,Schagen,Noord-Holland,VBO,4.809955,52.832450
Jippesstraat,100,,,1757PV,Oudesluis,Schagen,Noord-Holland,VBO,4.809874,52.832448
Jippesstraat,102,,,1757PV,Oudesluis,Schagen,Noord-Holland,VBO,4.809793,52.832445
Jippesstraat,104,,,1757PV,Oudesluis,Schagen,Noord-Holland,VBO,4.809713,52.832443
