openbareruimtenaam,huisnummer,huisletter,huisnummertoevoeging,postcode,woonplaatsnaam,gemeentenaam,provincienaam,typeadresseerbaarobject,longitude,latitude
Molenvaart,357,a,,1764AR,Breezand,Hollands Kroon,Noord-Holland,VBO,4.802367,52.872748
Molenvaart,357,c,,1764AR,Breezand,Hollands Kroon,Noord-Holland,VBO,4.802755,52.872461
Molenvaart,357,,,1764AR,Breezand,Hollands Kroon,Noord-Holland,VBO,4.802514,52.872696
Molenvaart,359,,,1764AR,Breezand,Hollands Kroon,Noord-Holland,VBO,4.802076,52.872866
Molenvaart,363,,,1764AR,Breezand,Hollands Kroon,Noord-Holland,VBO,4.801541,52.872949
Molenvaart,365,,,1764AR,Breezand,Hollands Kroon,Noord-Holland,VBO,4.801401,52.873090
Molenvaart,369,,,1764AR,Breezand,Hollands Kroon,Noord-Holland,VBO,4.801220,52.873113
Molenvaart,371,,,1764AR,Breezand,Hollands Kroon,Noord-Holland,VBO,4.801029,52.873227
Molenvaart,373,,,1764AR,Breezand,Hollands Kroon,Noord-Holland,VBO,4.800822,52.873248
Molenvaart,375,,,1764AR,Breezand,Hollands Kroon,Noord-Holland,VBO,4.800650,52.873303
Molenvaart,377,,,1764AR,Breezand,Hollands Kroon,Noord-Holland,VBO,4.800571,52.873334
Molenvaart,379,,,1764AR,Breezand,Hollands Kroon,Noord-Holland,VBO,4.800333,52.873470
Molenvaart,381,,,1764AR,Breezand,Hollands Kroon,Noord-Holland,VBO,4.800219,52.873506
Molenvaart,383,,,1764AR,Breezand,Hollands Kroon,Noord-Holland,VBO,4.800159,52.873523
Molenvaart,385,,,1764AR,Breezand,Hollands Kroon,Noord-Holland,VBO,4.800094,52.873551
Molenvaart,387,a,,1764AR,Breezand,Hollands Kroon,Noord-Holland,VBO,4.799851,52.873584
Molenvaart,387,,,1764AR,Breezand,Hollands Kroon,Noord-Holland,VBO,4.800022,52.873578
Molenvaart,389,,,1764AR,Breezand,Hollands Kroon,Noord-Holland,VBO,4.799708,52.873677
Molenvaart,391,,,1764AR,Breezand,Hollands Kroon,Noord-Holland,VBO,4.799224,52.873758
Molenvaart,393,,,1764AR,Breezand,Hollands Kroon,Noord-Holland,VBO,4.798875,52.873901
Molenvaart,399,,,1764AR,Breezand,Hollands Kroon,Noord-Holland,VBO,4.798589,52.874003
Molenvaart,401,,,1764AS,Breezand,Hollands Kroon,Noord-Holland,VBO,4.798462,52.874109
Molenvaart,403,,,1764AS,Breezand,Hollands Kroon,Noord-Holland,VBO,4.798286,52.874169
Molenvaart,405,,,1764AS,Breezand,Hollands Kroon,Noord-Holland,VBO,4.798226,52.874194
Molenvaart,407,a,,1764AS,Breezand,Hollands Kroon,Noord-Holland,VBO,4.798004,52.874143
Molenvaart,407,,,1764AS,Breezand,Hollands Kroon,Noord-Holland,VBO,4.797945,52.874286
Molenvaart,411,,,1764AS,Breezand,Hollands Kroon,Noord-Holland,VBO,4.797590,52.874316
Molenvaart,415,,,1764AS,Breezand,Hollands Kroon,Noord-Holland,VBO,4.797213,52.874466
Molenvaart,421,,,1764AS,Breezand,Hollands Kroon,Noord-Holland,VBO,4.796660,52.874452
Molenvaart,423,,,1764AS,Breezand,Hollands Kroon,Noord-Holland,VBO,4.796567,52.874767
Molenvaart,425,,,1764AS,Breezand,Hollands Kroon,Noord-Holland,VBO,4.796356,52.874831
Molenvaart,427,,,1764AS,Breezand,Hollands Kroon,Noord-Holland,VBO,4.796200,52.874878
Molenvaart,429,a,,1764AS,Breezand,Hollands Kroon,Noord-Holland,VBO,4.795640,52.874995
Molenvaart,429,,,1764AS,Breezand,Hollands Kroon,Noord-Holland,VBO,4.795983,52.874955
Molenvaart,431,a,,1764AS,Breezand,Hollands Kroon,Noord-Holland,VBO,4.794617,52.874747
Molenvaart,431,,,1764AS,Breezand,Hollands Kroon,Noord-Holland,VBO,4.795407,52.875157
Molenvaart,435,,,1764AS,Breezand,Hollands Kroon,Noord-Holland,VBO,4.795108,52.875261
Molenvaart,437,,,1764AS,Breezand,Hollands Kroon,Noord-Holland,VBO,4.794926,52.875325
Molenvaart,439,,,1764AS,Breezand,Hollands Kroon,Noord-Holland,VBO,4.794864,52.875349
Molenvaart,441,,,1764AS,Breezand,Hollands Kroon,Noord-Holland,VBO,4.794751,52.875375
Molenvaart,443,,,1764AT,Breezand,Hollands Kroon,Noord-Holland,VBO,4.794630,52.875425
Molenvaart,445,,,1764AT,Breezand,Hollands Kroon,Noord-Holland,VBO,4.794301,52.875536
Molenvaart,447,,,1764AT,Breezand,Hollands Kroon,Noord-Holland,VBO,4.794203,52.875566
Molenvaart,449,,,1764AT,Breezand,Hollands Kroon,Noord-Holland,VBO,4.793971,52.875613
Molenvaart,451,,,1764AT,Breezand,Hollands Kroon,Noord-Holland,VBO,4.793803,52.875665
Molenvaart,455,,,1764AT,Breezand,Hollands Kroon,Noord-Holland,VBO,4.793619,52.875729
Molenvaart,457,,,1764AT,Breezand,Hollands Kroon,Noord-Holland,VBO,4.793457,52.875835
Molenvaart,459,,,1764AT,Breezand,Hollands Kroon,Noord-Holland,VBO,4.793309,52.875881
Molenvaart,461,,,1764AT,Breezand,Hollands Kroon,Noord-Holland,VBO,4.792953,52.875990
Molenvaart,463,,,1764AT,Breezand,Hollands Kroon,Noord-Holland,VBO,4.792555,52.876084
Molenvaart,469,,,1764AT,Breezand,Hollands Kroon,Noord-Holland,VBO,4.792353,52.876216
Molenvaart,473,,,1764AT,Breezand,Hollands Kroon,Noord-Holland,VBO,4.792055,52.876274
Molenvaart,475,,,1764AT,Breezand,Hollands Kroon,Noord-Holland,VBO,4.791845,52.876381
Molenvaart,477,,,1764AT,Breezand,Hollands Kroon,Noord-Holland,VBO,4.791534,52.876451
Molenvaart,481,,,1764AT,Breezand,Hollands Kroon,Noord-Holland,VBO,4.791293,52.876528
Molenvaart,485,,,1764AT,Breezand,Hollands Kroon,Noord-Holland,VBO,4.791076,52.876657
Molenvaart,487,,,1764AT,Breezand,Hollands Kroon,Noord-Holland,VBO,4.790806,52.876749
Molenvaart,489,,,1764AT,Breezand,Hollands Kroon,Noord-Holland,VBO,4.790371,52.876900
Molenvaart,491,,,1764AT,Breezand,Hollands Kroon,Noord-Holland,VBO,4.790056,52.877002
Molenvaart,493,,,1764AT,Breezand,Hollands Kroon,Noord-Holland,VBO,4.789776,52.877103
Molenvaart,495,a,,1764AT,Breezand,Hollands Kroon,Noord-Holland,VBO,4.789308,52.877214
Molenvaart,495,b,,1764AT,Breezand,Hollands Kroon,Noord-Holland,VBO,4.789211,52.877250
Molenvaart,495,,,1764AT,Breezand,Hollands Kroon,Noord-Holland,VBO,4.789460,52.877161
Molenvaart,497,a,,1764AT,Breezand,Hollands Kroon,Noord-Holland,VBO,4.788875,52.877360
Molenvaart,497,b,,1764AT,Breezand,Hollands Kroon,Noord-Holland,VBO,4.788774,52.877399
Molenvaart,497,,,1764AT,Breezand,Hollands Kroon,Noord-Holland,VBO,4.789014,52.877286
Molenvaart,499,a,,1764AT,Breezand,Hollands Kroon,Noord-Holland,VBO,4.788531,52.877491
Molenvaart,499,,,1764AT,Breezand,Hollands Kroon,Noord-Holland,VBO,4.788631,52.877449
Molenvaart,501,,,1764AV,Breezand,Hollands Kroon,Noord-Holland,VBO,4.788391,52.877575
Molenvaart,503,,,1764AV,Breezand,Hollands Kroon,Noord-Holland,VBO,4.788216,52.877642
Molenvaart,505,,,1764AV,Breezand,Hollands Kroon,Noord-Holland,VBO,4.788045,52.877701
Molenvaart,507,,,1764AV,Breezand,Hollands Kroon,Noord-Holland,VBO,4.787837,52.877766
Molenvaart,509,,,1764AV,Breezand,Hollands Kroon,Noord-Holland,VBO,4.787640,52.877841
Molenvaart,513,,,1764AV,Breezand,Hollands Kroon,Noord-Holland,VBO,4.787311,52.877956
Molenvaart,515,,,1764AV,Breezand,Hollands Kroon,Noord-Holland,VBO,4.786955,52.878074
Molenvaart,517,,,1764AV,Breezand,Hollands Kroon,Noord-Holland,VBO,4.786321,52.878043
Molenvaart,519,a,,1764AV,Breezand,Hollands Kroon,Noord-Holland,VBO,4.786047,52.878338
Molenvaart,519,b,,1764AV,Breezand,Hollands Kroon,Noord-Holland,VBO,4.785938,52.878383
Molenvaart,519,c,,1764AV,Breezand,Hollands Kroon,Noord-Holland,VBO,4.785829,52.878424
Molenvaart,519,,,1764AV,Breezand,Hollands Kroon,Noord-Holland,VBO,4.786169,52.878303
Molenvaart,521,,,1764AV,Breezand,Hollands Kroon,Noord-Holland,VBO,4.785612,52.878493
Molenvaart,523,,,1764AV,Breezand,Hollands Kroon,Noord-Holland,VBO,4.785386,52.878618
Molenvaart,525,,,1764AV,Breezand,Hollands Kroon,Noord-Holland,VBO,4.785090,52.878672
Molenvaart,527,b,,1764AV,Breezand,Hollands Kroon,Noord-Holland,VBO,4.783951,52.878434
Molenvaart,527,,,1764AV,Breezand,Hollands Kroon,Noord-Holland,VBO,4.784707,52.878719
Molenvaart,529,a,,1764AV,Breezand,Hollands Kroon,Noord-Holland,VBO,4.783386,52.879261
Molenvaart,529,,,1764AV,Breezand,Hollands Kroon,Noord-Holland,VBO,4.783653,52.879189
Molenvaart,531,a,,1764AV,Breezand,Hollands Kroon,Noord-Holland,VBO,4.782930,52.879421
Molenvaart,531,,,1764AV,Breezand,Hollands Kroon,Noord-Holland,VBO,4.783183,52.879334
Molenvaart,533,,,1764AV,Breezand,Hollands Kroon,Noord-Holland,VBO,4.782754,52.879497
Molenvaart,535,,,1764AV,Breezand,Hollands Kroon,Noord-Holland,VBO,4.782625,52.879543
Molenvaart,539,,,1764AV,Breezand,Hollands Kroon,Noord-Holland,VBO,4.781542,52.879839
Molenvaart,543,b,,1764AV,Breezand,Hollands Kroon,Noord-Holland,VBO,4.775911,52.881344
Molenvaart,543,,,1764AV,Breezand,Hollands Kroon,Noord-Holland,VBO,4.778337,52.881003
Molenvaart,545,,,1764AV,Breezand,Hollands Kroon,Noord-Holland,VBO,4.774996,52.881950
Molenvaart,547,,,1764AV,Breezand,Hollands Kroon,Noord-Holland,VBO,4.774245,52.882419
Molenvaart,204,,,1764AW,Breezand,Hollands Kroon,Noord-Holland,VBO,4.801596,52.873642
Molenvaart,206,,,1764AW,Breezand,Hollands Kroon,Noord-Holland,VBO,4.801115,52.873838
Molenvaart,208,,,1764AW,Breezand,Hollands Kroon,Noord-Holland,VBO,4.800448,52.874097
Molenvaart,210,,,1764AW,Breezand,Hollands Kroon,Noord-Holland,VBO,4.799789,52.874384
Molenvaart,212,,,1764AW,Breezand,Hollands Kroon,Noord-Holland,VBO,4.799255,52.874536
Molenvaart,218,,,1764AW,Breezand,Hollands Kroon,Noord-Holland,VBO,4.798988,52.874606
Molenvaart,220,a,,1764AW,Breezand,Hollands Kroon,Noord-Holland,VBO,4.798972,52.874890
Molenvaart,220,,,1764AW,Breezand,Hollands Kroon,Noord-Holland,VBO,4.798579,52.874762
Molenvaart,224,,,1764AW,Breezand,Hollands Kroon,Noord-Holland,VBO,4.796948,52.875327
Molenvaart,226,a,,1764AW,Breezand,Hollands Kroon,Noord-Holland,VBO,4.795814,52.875791
Molenvaart,226,,,1764AW,Breezand,Hollands Kroon,Noord-Holland,VBO,4.796369,52.875522
Molenvaart,228,,,1764AW,Breezand,Hollands Kroon,Noord-Holland,VBO,4.795131,52.875946
Molenvaart,230,a,,1764AW,Breezand,Hollands Kroon,Noord-Holland,VBO,4.794429,52.876098
Molenvaart,230,,,1764AW,Breezand,Hollands Kroon,Noord-Holland,VBO,4.794839,52.876036
Molenvaart,232,t,,1764AW,Breezand,Hollands Kroon,Noord-Holland,VBO,4.794433,52.876394
Molenvaart,232,,,1764AW,Breezand,Hollands Kroon,Noord-Holland,VBO,4.793898,52.876275
Molenvaart,234,a,,1764AW,Breezand,Hollands Kroon,Noord-Holland,VBO,4.790626,52.877444
Molenvaart,234,b,,1764AW,Breezand,Hollands Kroon,Noord-Holland,VBO,4.790535,52.877517
Molenvaart,234,,,1764AW,Breezand,Hollands Kroon,Noord-Holland,VBO,4.790800,52.877380
Molenvaart,236,a,,1764AW,Breezand,Hollands Kroon,Noord-Holland,VBO,4.790190,52.877586
Molenvaart,236,b,,1764AW,Breezand,Hollands Kroon,Noord-Holland,VBO,4.790050,52.877640
Molenvaart,236,,,1764AW,Breezand,Hollands Kroon,Noord-Holland,VBO,4.790367,52.877571
Molenvaart,238,a,,1764AW,Breezand,Hollands Kroon,Noord-Holland,VBO,4.789459,52.877856
Molenvaart,238,b,,1764AW,Breezand,Hollands Kroon,Noord-Holland,VBO,4.789193,52.877949
Molenvaart,238,,,1764AW,Breezand,Hollands Kroon,Noord-Holland,VBO,4.789899,52.877795
Molenvaart,240,,,1764AW,Breezand,Hollands Kroon,Noord-Holland,VBO,4.788927,52.878050
Molenvaart,242,a,,1764AW,Breezand,Hollands Kroon,Noord-Holland,VBO,4.788618,52.878137
Molenvaart,242,,,1764AW,Breezand,Hollands Kroon,Noord-Holland,VBO,4.788825,52.878088
Molenvaart,244,,,1764AX,Breezand,Hollands Kroon,Noord-Holland,VBO,4.788307,52.878310
Molenvaart,246,,,1764AX,Breezand,Hollands Kroon,Noord-Holland,VBO,4.787282,52.878610
Molenvaart,248,,,1764AX,Breezand,Hollands Kroon,Noord-Holland,VBO,4.787164,52.878652
Molenvaart,250,a,,1764AX,Breezand,Hollands Kroon,Noord-Holland,VBO,4.786640,52.879013
Molenvaart,250,,,1764AX,Breezand,Hollands Kroon,Noord-Holland,VBO,4.786777,52.878784
Molenvaart,252,,,1764AX,Breezand,Hollands Kroon,Noord-Holland,VBO,4.785489,52.879235
Molenvaart,254,a,,1764AX,Breezand,Hollands Kroon,Noord-Holland,VBO,4.784828,52.879659
Molenvaart,254,,,1764AX,Breezand,Hollands Kroon,Noord-Holland,VBO,4.784647,52.879528
Molenvaart,256,a,a,1764AX,Breezand,Hollands Kroon,Noord-Holland,VBO,4.783748,52.879859
Molenvaart,256,a,,1764AX,Breezand,Hollands Kroon,Noord-Holland,VBO,4.783554,52.879936
Molenvaart,256,b,,1764AX,Breezand,Hollands Kroon,Noord-Holland,VBO,4.782374,52.880336
Molenvaart,256,c,,1764AX,Breezand,Hollands Kroon,Noord-Holland,VBO,4.782023,52.880435
Molenvaart,256,t,,1764AX,Breezand,Hollands Kroon,Noord-Holland,VBO,4.781450,52.880603
Molenvaart,256,,,1764AX,Breezand,Hollands Kroon,Noord-Holland,VBO,4.783976,52.879727
Molenvaart,258,,,1764AX,Breezand,Hollands Kroon,Noord-Holland,VBO,4.780722,52.880744
Molenvaart,260,,,1764AX,Breezand,Hollands Kroon,Noord-Holland,VBO,4.780556,52.880793
Molenvaart,262,,,1764AX,Breezand,Hollands Kroon,Noord-Holland,VBO,4.780199,52.880924
Molenvaart,264,,,1764AX,Breezand,Hollands Kroon,Noord-Holland,VBO,4.775943,52.882402
Molenvaart,266,,,1764AX,Breezand,Hollands Kroon,Noord-Holland,VBO,4.775535,52.882725
Molenvaart,268,,,1764AX,Breezand,Hollands Kroon,Noord-Holland,VBO,4.774586,52.882984
C. J. Colijnstraat,1,,,1764EW,Breezand,Hollands Kroon,Noord-Holland,VBO,4.807218,52.889999
C. J. Colijnstraat,3,,,1764EW,Breezand,Hollands Kroon,Noord-Holland,VBO,4.807305,52.889969
C. J. Colijnstraat,5,,,1764EW,Breezand,Hollands Kroon,Noord-Holland,VBO,4.807609,52.890753
C. J. Colijnstraat,7,,,1764EW,Breezand,Hollands Kroon,Noord-Holland,VBO,4.807666,52.890817
C. J. Colijnstraat,9,,,1764EW,Breezand,Hollands Kroon,Noord-Holland,VBO,4.807693,52.890849
C. J. Colijnstraat,11,,,1764EW,Breezand,Hollands Kroon,Noord-Holland,VBO,4.807710,52.890935
C. J. Colijnstraat,13,,,1764EW,Breezand,Hollands Kroon,Noord-Holland,VBO,4.807737,52.890959
C. J. Colijnstraat,15,,,1764EW,Breezand,Hollands Kroon,Noord-Holland,VBO,4.807799,52.891025
C. J. Colijnstraat,17,,,1764EW,Breezand,Hollands Kroon,Noord-Holland,VBO,4.807869,52.891064
C. J. Colijnstraat,19,,,1764EW,Breezand,Hollands Kroon,Noord-Holland,VBO,4.807928,52.891134
C. J. Colijnstraat,21,,,1764EW,Breezand,Hollands Kroon,Noord-Holland,VBO,4.807951,52.891160
C. J. Colijnstraat,23,,,1764EW,Breezand,Hollands Kroon,Noord-Holland,VBO,4.808058,52.891216
C. J. Colijnstraat,25,,,1764EW,Breezand,Hollands Kroon,Noord-Holland,VBO,4.808080,52.891240
C. J. Colijnstraat,27,,,1764EW,Breezand,Hollands Kroon,Noord-Holland,VBO,4.808146,52.891305
C. J. Colijnstraat,29,,,1764EW,Breezand,Hollands Kroon,Noord-Holland,VBO,4.808135,52.891499
C. J. Colijnstraat,31,,,1764EW,Breezand,Hollands Kroon,Noord-Holland,VBO,4.808182,52.891548
C. J. Colijnstraat,33,,,1764EW,Breezand,Hollands Kroon,Noord-Holland,VBO,4.808228,52.891596
C. J. Colijnstraat,35,,,1764EW,Breezand,Hollands Kroon,Noord-Holland,VBO,4.808274,52.891645
C. J. Colijnstraat,37,,,1764EW,Breezand,Hollands Kroon,Noord-Holland,VBO,4.808320,52.891694
C. J. Colijnstraat,2,a,,1764EX,Breezand,Hollands Kroon,Noord-Holland,VBO,4.807885,52.889978
C. J. Colijnstraat,2,,,1764EX,Breezand,Hollands Kroon,Noord-Holland,VBO,4.807923,52.889965
C. J. Colijnstraat,4,,,1764EX,Breezand,Hollands Kroon,Noord-Holland,VBO,4.807767,52.890021
C. J. Colijnstraat,6,,,1764EX,Breezand,Hollands Kroon,Noord-Holland,VBO,4.807732,52.890031
C. J. Colijnstraat,8,,,1764EX,Breezand,Hollands Kroon,Noord-Holland,VBO,4.807501,52.890081
C. J. Colijnstraat,10,,,1764EX,Breezand,Hollands Kroon,Noord-Holland,VBO,4.807465,52.890095
C. J. Colijnstraat,12,,,1764EX,Breezand,Hollands Kroon,Noord-Holland,VBO,4.807337,52.890140
C. J. Colijnstraat,14,,,1764EX,Breezand,Hollands Kroon,Noord-Holland,VBO,4.807507,52.890324
C. J. Colijnstraat,16,,,1764EX,Breezand,Hollands Kroon,Noord-Holland,VBO,4.807574,52.890403
C. J. Colijnstraat,18,,,1764EX,Breezand,Hollands Kroon,Noord-Holland,VBO,4.807597,52.890422
C. J. Colijnstraat,20,,,1764EX,Breezand,Hollands Kroon,Noord-Holland,VBO,4.807665,52.890499
C. J. Colijnstraat,22,,,1764EZ,Breezand,Hollands Kroon,Noord-Holland,VBO,4.807927,52.890628
C. J. Colijnstraat,24,,,1764EZ,Breezand,Hollands Kroon,Noord-Holland,VBO,4.807979,52.890691
C. J. Colijnstraat,26,,,1764EZ,Breezand,Hollands Kroon,Noord-Holland,VBO,4.808005,52.890715
C. J. Colijnstraat,28,,,1764EZ,Breezand,Hollands Kroon,Noord-Holland,VBO,4.808062,52.890789
C. J. Colijnstraat,30,,,1764EZ,Breezand,Hollands Kroon,Noord-Holland,VBO,4.808086,52.890819
C. J. Colijnstraat,32,,,1764EZ,Breezand,Hollands Kroon,Noord-Holland,VBO,4.808141,52.890884
C. J. Colijnstraat,34,,,1764EZ,Breezand,Hollands Kroon,Noord-Holland,VBO,4.808155,52.890999
C. J. Colijnstraat,36,,,1764EZ,Breezand,Hollands Kroon,Noord-Holland,VBO,4.808215,52.891064
C. J. Colijnstraat,38,,,1764EZ,Breezand,Hollands Kroon,Noord-Holland,VBO,4.808240,52.891095
C. J. Colijnstraat,40,,,1764EZ,Breezand,Hollands Kroon,Noord-Holland,VBO,4.808314,52.891149
C. J. Colijnstraat,42,,,1764EZ,Breezand,Hollands Kroon,Noord-Holland,VBO,4.808344,52.891186
C. J. Colijnstraat,44,,,1764EZ,Breezand,Hollands Kroon,Noord-Holland,VBO,4.808396,52.891247
C. J. Colijnstraat,46,,,1764EZ,Breezand,Hollands Kroon,Noord-Holland,VBO,4.808490,52.891462
C. J. Colijnstraat,48,,,1764EZ,Breezand,Hollands Kroon,Noord-Holland,VBO,4.808538,52.891509
C. J. Colijnstraat,50,,,1764EZ,Breezand,Hollands Kroon,Noord-Holland,VBO,4.808585,52.891555
C. J. Colijnstraat,52,,,1764EZ,Breezand,Hollands Kroon,Noord-Holland,VBO,4.808632,52.891601
C. J. Colijnstraat,54,,,1764EZ,Breezand,Hollands Kroon,Noord-Holland,VBO,4.808680,52.891647
Burg. Lovinkstraat,1,,,1764GA,Breezand,Hollands Kroon,Noord-Holland,VBO,4.803233,52.888809
Burg. Lovinkstraat,3,,,1764GA,Breezand,Hollands Kroon,Noord-Holland,VBO,4.803464,52.888991
Burg. Lovinkstraat,5,,,1764GA,Breezand,Hollands Kroon,Noord-Holland,VBO,4.803638,52.889260
Burg. Lovinkstraat,7,b,,1764GA,Breezand,Hollands Kroon,Noord-Holland,VBO,4.803793,52.889347
Burg. Lovinkstraat,9,a,,1764GA,Breezand,Hollands Kroon,Noord-Holland,VBO,4.803970,52.889596
Burg. Lovinkstraat,9,b,,1764GA,Breezand,Hollands Kroon,Noord-Holland,VBO,4.804016,52.889644
Burg. Lovinkstraat,9,c,,1764GA,Breezand,Hollands Kroon,Noord-Holland,VBO,4.804144,52.889725
Burg. Lovinkstraat,11,,,1764GA,Breezand,Hollands Kroon,Noord-Holland,VBO,4.804194,52.889779
Burg. Lovinkstraat,13,,,1764GA,Breezand,Hollands Kroon,Noord-Holland,VBO,4.804241,52.889886
Burg. Lovinkstraat,15,,,1764GA,Breezand,Hollands Kroon,Noord-Holland,VBO,4.804292,52.889937
Burg. Lovinkstraat,17,,,1764GA,Breezand,Hollands Kroon,Noord-Holland,VBO,4.804418,52.890016
Burg. Lovinkstraat,19,,,1764GA,Breezand,Hollands Kroon,Noord-Holland,VBO,4.804470,52.890070
Burg. Lovinkstraat,21,,,1764GA,Breezand,Hollands Kroon,Noord-Holland,VBO,4.804516,52.890177
Burg. Lovinkstraat,23,,,1764GA,Breezand,Hollands Kroon,Noord-Holland,VBO,4.804561,52.890228
Burg. Lovinkstraat,25,,,1764GA,Breezand,Hollands Kroon,Noord-Holland,VBO,4.804708,52.890336
Burg. Lovinkstraat,27,,,1764GA,Breezand,Hollands Kroon,Noord-Holland,VBO,4.804830,52.890466
Burg. Lovinkstraat,29,,,1764GA,Breezand,Hollands Kroon,Noord-Holland,VBO,4.804968,52.890582
Burg. Lovinkstraat,31,,,1764GB,Breezand,Hollands Kroon,Noord-Holland,VBO,4.805175,52.890817
Burg. Lovinkstraat,33,a,,1764GB,Breezand,Hollands Kroon,Noord-Holland,VBO,4.805171,52.891059
Burg. Lovinkstraat,33,,,1764GB,Breezand,Hollands Kroon,Noord-Holland,VBO,4.805342,52.891001
Burg. Lovinkstraat,35,,,1764GB,Breezand,Hollands Kroon,Noord-Holland,VBO,4.805561,52.891268
Burg. Lovinkstraat,37,,,1764GB,Breezand,Hollands Kroon,Noord-Holland,VBO,4.805695,52.891407
Burg. Lovinkstraat,39,,,1764GB,Breezand,Hollands Kroon,Noord-Holland,VBO,4.805810,52.891532
Burg. Lovinkstraat,43,,,1764GB,Breezand,Hollands Kroon,Noord-Holland,VBO,4.805948,52.891664
Burg. Lovinkstraat,45,,,1764GB,Breezand,Hollands Kroon,Noord-Holland,VBO,4.806131,52.891822
Burg. Lovinkstraat,47,,,1764GB,Breezand,Hollands Kroon,Noord-Holland,VBO,4.806231,52.891926
Burg. Lovinkstraat,49,,,1764GB,Breezand,Hollands Kroon,Noord-Holland,VBO,4.806347,52.892053
Burg. Lovinkstraat,51,,,1764GB,Breezand,Hollands Kroon,Noord-Holland,VBO,4.806483,52.892187
Burg. Lovinkstraat,53,,,1764GB,Breezand,Hollands Kroon,Noord-Holland,VBO,4.806545,52.892266
Burg. Lovinkstraat,55,a,,1764GB,Breezand,Hollands Kroon,Noord-Holland,VBO,4.806688,52.892428
Burg. Lovinkstraat,55,,,1764GB,Breezand,Hollands Kroon,Noord-Holland,VBO,4.806624,52.892360
Burg. Lovinkstraat,57,,,1764GB,Breezand,Hollands Kroon,Noord-Holland,VBO,4.806751,52.892495
Burg. Lovinkstraat,59,,,1764GC,Breezand,Hollands Kroon,Noord-Holland,VBO,4.806978,52.892733
Burg. Lovinkstraat,61,,,1764GC,Breezand,Hollands Kroon,Noord-Holland,VBO,4.807082,52.892835
Burg. Lovinkstraat,63,,,1764GC,Breezand,Hollands Kroon,Noord-Holland,VBO,4.807183,52.892975
Burg. Lovinkstraat,65,,,1764GC,Breezand,Hollands Kroon,Noord-Holland,VBO,4.807301,52.893083
Burg. Lovinkstraat,67,a,,1764GC,Breezand,Hollands Kroon,Noord-Holland,VBO,4.807486,52.893274
Burg. Lovinkstraat,67,b,,1764GC,Breezand,Hollands Kroon,Noord-Holland,VBO,4.807546,52.893374
Burg. Lovinkstraat,67,c,,1764GC,Breezand,Hollands Kroon,Noord-Holland,VBO,4.807600,52.893424
Burg. Lovinkstraat,67,,G01,1764GC,Breezand,Hollands Kroon,Noord-Holland,VBO,4.807182,52.893637
Burg. Lovinkstraat,67,,G02,1764GC,Breezand,Hollands Kroon,Noord-Holland,VBO,4.807159,52.893615
Burg. Lovinkstraat,67,,G03,1764GC,Breezand,Hollands Kroon,Noord-Holland,VBO,4.807135,52.893593
Burg. Lovinkstraat,67,,G04,1764GC,Breezand,Hollands Kroon,Noord-Holland,VBO,4.807114,52.893571
Burg. Lovinkstraat,67,,G05,1764GC,Breezand,Hollands Kroon,Noord-Holland,VBO,4.807095,52.893550
Burg. Lovinkstraat,67,,G06,1764GC,Breezand,Hollands Kroon,Noord-Holland,VBO,4.807072,52.893527
Burg. Lovinkstraat,67,,G07,1764GC,Breezand,Hollands Kroon,Noord-Holland,VBO,4.807049,52.893503
Burg. Lovinkstraat,67,,G08,1764GC,Breezand,Hollands Kroon,Noord-Holland,VBO,4.807028,52.893481
Burg. Lovinkstraat,67,,G09,1764GC,Breezand,Hollands Kroon,Noord-Holland,VBO,4.807008,52.893461
Burg. Lovinkstraat,67,,G10,1764GC,Breezand,Hollands Kroon,Noord-Holland,VBO,4.806990,52.893441
Burg. Lovinkstraat,67,,G11,1764GC,Breezand,Hollands Kroon,Noord-Holland,VBO,4.806968,52.893419
Burg. Lovinkstraat,67,,G12,1764GC,Breezand,Hollands Kroon,Noord-Holland,VBO,4.806946,52.893393
Burg. Lovinkstraat,67,,G13,1764GC,Breezand,Hollands Kroon,Noord-Holland,VBO,4.806922,52.893367
Burg. Lovinkstraat,67,,,1764GC,Breezand,Hollands Kroon,Noord-Holland,VBO,4.807442,52.893231
Burg. Lovinkstraat,69,,,1764GC,Breezand,Hollands Kroon,Noord-Holland,VBO,4.807730,52.893556
Burg. Lovinkstraat,71,,,1764GC,Breezand,Hollands Kroon,Noord-Holland,VBO,4.807799,52.893640
Burg. Lovinkstraat,73,,,1764GC,Breezand,Hollands Kroon,Noord-Holland,VBO,4.807923,52.893771
Burg. Lovinkstraat,75,a,,1764GC,Breezand,Hollands Kroon,Noord-Holland,VBO,4.808096,52.893959
Burg. Lovinkstraat,75,,,1764GC,Breezand,Hollands Kroon,Noord-Holland,VBO,4.808002,52.893859
Burg. Lovinkstraat,77,,,1764GC,Breezand,Hollands Kroon,Noord-Holland,VBO,4.808190,52.894056
Burg. Lovinkstraat,79,,,1764GC,Breezand,Hollands Kroon,Noord-Holland,VBO,4.808239,52.894109
Burg. Lovinkstraat,81,,,1764GC,Breezand,Hollands Kroon,Noord-Holland,VBO,4.808338,52.894205
Burg. Lovinkstraat,83,,,1764GC,Breezand,Hollands Kroon,Noord-Holland,VBO,4.808371,52.894241
Burg. Lovinkstraat,85,,,1764GD,Breezand,Hollands Kroon,Noord-Holland,VBO,4.808416,52.894303
Burg. Lovinkstraat,87,,,1764GD,Breezand,Hollands Kroon,Noord-Holland,VBO,4.808451,52.894339
Burg. Lovinkstraat,89,,,1764GD,Breezand,Hollands Kroon,Noord-Holland,VBO,4.808523,52.894398
Burg. Lovinkstraat,91,,,1764GD,Breezand,Hollands Kroon,Noord-Holland,VBO,4.808565,52.894442
Burg. Lovinkstraat,93,,,1764GD,Breezand,Hollands Kroon,Noord-Holland,VBO,4.808614,52.894506
Burg. Lovinkstraat,95,,,1764GD,Breezand,Hollands Kroon,Noord-Holland,VBO,4.808660,52.894554
Burg. Lovinkstraat,97,,,1764GD,Breezand,Hollands Kroon,Noord-Holland,VBO,4.808744,52.894639
Burg. Lovinkstraat,99,,,1764GD,Breezand,Hollands Kroon,Noord-Holland,VBO,4.808812,52.894716
Burg. Lovinkstraat,101,a,,1764GD,Breezand,Hollands Kroon,Noord-Holland,VBO,4.809122,52.895076
Burg. Lovinkstraat,101,,,1764GD,Breezand,Hollands Kroon,Noord-Holland,VBO,4.808952,52.894866
Burg. Lovinkstraat,105,a,,1764GD,Breezand,Hollands Kroon,Noord-Holland,VBO,4.810327,52.896520
Burg. Lovinkstraat,105,t,,1764GD,Breezand,Hollands Kroon,Noord-Holland,VBO,4.809750,52.895789
Burg. Lovinkstraat,105,,,1764GD,Breezand,Hollands Kroon,Noord-Holland,VBO,4.809847,52.896071
Burg. Lovinkstraat,109,a,,1764GD,Breezand,Hollands Kroon,Noord-Holland,VBO,4.811011,52.897110
Burg. Lovinkstraat,111,,,1764GD,Breezand,Hollands Kroon,Noord-Holland,VBO,4.812158,52.898235
Burg. Lovinkstraat,115,,,1764GD,Breezand,Hollands Kroon,Noord-Holland,VBO,4.816188,52.902595
Burg. Lovinkstraat,117,,,1764GD,Breezand,Hollands Kroon,Noord-Holland,VBO,4.817939,52.904458
Burg. Lovinkstraat,2,,,1764GE,Breezand,Hollands Kroon,Noord-Holland,VBO,4.804681,52.889793
Burg. Lovinkstraat,4,,,1764GE,Breezand,Hollands Kroon,Noord-Holland,VBO,4.804804,52.889932
Burg. Lovinkstraat,6,,,1764GE,Breezand,Hollands Kroon,Noord-Holland,VBO,4.804897,52.890034
Burg. Lovinkstraat,8,,,1764GE,Breezand,Hollands Kroon,Noord-Holland,VBO,4.805019,52.890161
Burg. Lovinkstraat,10,,,1764GE,Breezand,Hollands Kroon,Noord-Holland,VBO,4.805134,52.890255
Burg. Lovinkstraat,12,,,1764GE,Breezand,Hollands Kroon,Noord-Holland,VBO,4.805229,52.890351
Burg. Lovinkstraat,14,a,,1764GE,Breezand,Hollands Kroon,Noord-Holland,VBO,4.805989,52.890515
Burg. Lovinkstraat,14,,,1764GE,Breezand,Hollands Kroon,Noord-Holland,VBO,4.805497,52.890634
Burg. Lovinkstraat,16,,,1764GE,Breezand,Hollands Kroon,Noord-Holland,VBO,4.805621,52.890821
Burg. Lovinkstraat,18,,,1764GE,Breezand,Hollands Kroon,Noord-Holland,VBO,4.805710,52.890902
Burg. Lovinkstraat,20,,,1764GE,Breezand,Hollands Kroon,Noord-Holland,VBO,4.805766,52.890952
Burg. Lovinkstraat,22,,,1764GE,Breezand,Hollands Kroon,Noord-Holland,VBO,4.805805,52.891009
Burg. Lovinkstraat,24,,,1764GE,Breezand,Hollands Kroon,Noord-Holland,VBO,4.805854,52.891056
Burg. Lovinkstraat,26,,,1764GE,Breezand,Hollands Kroon,Noord-Holland,VBO,4.805913,52.891107
Burg. Lovinkstraat,28,,,1764GE,Breezand,Hollands Kroon,Noord-Holland,VBO,4.805955,52.891159
Burg. Lovinkstraat,30,,,1764GE,Breezand,Hollands Kroon,Noord-Holland,VBO,4.806010,52.891214
Burg. Lovinkstraat,32,,,1764GG,Breezand,Hollands Kroon,Noord-Holland,VBO,4.806072,52.891285
Burg. Lovinkstraat,34,,,1764GG,Breezand,Hollands Kroon,Noord-Holland,VBO,4.806122,52.891337
Burg. Lovinkstraat,36,,,1764GG,Breezand,Hollands Kroon,Noord-Holland,VBO,4.806173,52.891389
Burg. Lovinkstraat,38,,,1764GG,Breezand,Hollands Kroon,Noord-Holland,VBO,4.806223,52.891442
Burg. Lovinkstraat,40,,,1764GG,Breezand,Hollands Kroon,Noord-Holland,VBO,4.806274,52.891494
Burg. Lovinkstraat,44,a,,1764GG,Breezand,Hollands Kroon,Noord-Holland,VBO,4.806485,52.891710
Burg. Lovinkstraat,44,,,1764GG,Breezand,Hollands Kroon,Noord-Holland,VBO,4.806413,52.891640
Burg. Lovinkstraat,46,,,1764GG,Breezand,Hollands Kroon,Noord-Holland,VBO,4.806565,52.891807
Burg. Lovinkstraat,48,,,1764GG,Breezand,Hollands Kroon,Noord-Holland,VBO,4.806664,52.891929
Burg. Lovinkstraat,50,a,,1764GG,Breezand,Hollands Kroon,Noord-Holland,VBO,4.806814,52.891966
Burg. Lovinkstraat,50,,,1764GG,Breezand,Hollands Kroon,Noord-Holland,VBO,4.806764,52.892020
Burg. Lovinkstraat,52,,,1764GG,Breezand,Hollands Kroon,Noord-Holland,VBO,4.806845,52.892110
Burg. Lovinkstraat,54,,,1764GG,Breezand,Hollands Kroon,Noord-Holland,VBO,4.806886,52.892153
Burg. Lovinkstraat,56,,,1764GG,Breezand,Hollands Kroon,Noord-Holland,VBO,4.806976,52.892251
Burg. Lovinkstraat,60,a,,1764GH,Breezand,Hollands Kroon,Noord-Holland,VBO,4.808492,52.893280
Burg. Lovinkstraat,60,,,1764GH,Breezand,Hollands Kroon,Noord-Holland,VBO,4.807913,52.893214
Burg. Lovinkstraat,62,,,1764GH,Breezand,Hollands Kroon,Noord-Holland,VBO,4.808092,52.893434
Burg. Lovinkstraat,64,a,,1764GH,Breezand,Hollands Kroon,Noord-Holland,VBO,4.808660,52.893475
Burg. Lovinkstraat,64,,,1764GH,Breezand,Hollands Kroon,Noord-Holland,VBO,4.808545,52.893677
Burg. Lovinkstraat,66,,,1764GH,Breezand,Hollands Kroon,Noord-Holland,VBO,4.808915,52.894256
Burg. Lovinkstraat,68,,,1764GH,Breezand,Hollands Kroon,Noord-Holland,VBO,4.808965,52.894309
Burg. Lovinkstraat,70,,,1764GH,Breezand,Hollands Kroon,Noord-Holland,VBO,4.809063,52.894396
Burg. Lovinkstraat,72,,,1764GH,Breezand,Hollands Kroon,Noord-Holland,VBO,4.809117,52.894455
Burg. Lovinkstraat,74,,,1764GH,Breezand,Hollands Kroon,Noord-Holland,VBO,4.809240,52.894576
Burg. Lovinkstraat,76,a,,1764GH,Breezand,Hollands Kroon,Noord-Holland,VBO,4.809397,52.894742
Burg. Lovinkstraat,76,b,,1764GH,Breezand,Hollands Kroon,Noord-Holland,VBO,4.809461,52.894799
Burg. Lovinkstraat,76,,,1764GH,Breezand,Hollands Kroon,Noord-Holland,VBO,4.809303,52.894634
Burg. Lovinkstraat,78,,,1764GH,Breezand,Hollands Kroon,Noord-Holland,VBO,4.810890,52.896357
Burg. Lovinkstraat,80,a,,1764GH,Breezand,Hollands Kroon,Noord-Holland,VBO,4.811482,52.896369
Burg. Lovinkstraat,80,,,1764GH,Breezand,Hollands Kroon,Noord-Holland,VBO,4.811169,52.896562
Burg. Lovinkstraat,82,a,,1764GH,Breezand,Hollands Kroon,Noord-Holland,VBO,4.812917,52.898411
Burg. Lovinkstraat,82,b,,1764GH,Breezand,Hollands Kroon,Noord-Holland,VBO,4.813196,52.898512
Burg. Lovinkstraat,82,,,1764GH,Breezand,Hollands Kroon,Noord-Holland,VBO,4.811358,52.896870
Burg. Lovinkstraat,84,,,1764GH,Breezand,Hollands Kroon,Noord-Holland,VBO,4.814438,52.900115
Burg. Lovinkstraat,86,a,,1764GH,Breezand,Hollands Kroon,Noord-Holland,VBO,4.817207,52.903029
Burg. Lovinkstraat,86,,,1764GH,Breezand,Hollands Kroon,Noord-Holland,VBO,4.816514,52.902295
Burg. Lovinkstraat,88,,,1764GH,Breezand,Hollands Kroon,Noord-Holland,VBO,4.817368,52.903267
Burg. Lovinkstraat,90,,,1764GH,Breezand,Hollands Kroon,Noord-Holland,VBO,4.817528,52.903374
Wijdenes Spaansweg,1,,,1764GJ,Breezand,Hollands Kroon,Noord-Holland,VBO,4.812120,52.890699
Wijdenes Spaansweg,3,,,1764GJ,Breezand,Hollands Kroon,Noord-Holland,VBO,4.811846,52.890795
Wijdenes Spaansweg,5,,,1764GJ,Breezand,Hollands Kroon,Noord-Holland,VBO,4.811686,52.890822
Wijdenes Spaansweg,7,,,1764GJ,Breezand,Hollands Kroon,Noord-Holland,VBO,4.811409,52.890917
Wijdenes Spaansweg,11,,,1764GJ,Breezand,Hollands Kroon,Noord-Holland,VBO,4.811149,52.891027
Wijdenes Spaansweg,13,,,1764GJ,Breezand,Hollands Kroon,Noord-Holland,VBO,4.810974,52.891090
Wijdenes Spaansweg,15,,,1764GJ,Breezand,Hollands Kroon,Noord-Holland,VBO,4.810726,52.891184
Wijdenes Spaansweg,17,,,1764GJ,Breezand,Hollands Kroon,Noord-Holland,VBO,4.810603,52.891225
Wijdenes Spaansweg,19,,,1764GJ,Breezand,Hollands Kroon,Noord-Holland,VBO,4.810411,52.891270
Wijdenes Spaansweg,21,,,1764GJ,Breezand,Hollands Kroon,Noord-Holland,VBO,4.810322,52.891302
Wijdenes Spaansweg,23,,,1764GJ,Breezand,Hollands Kroon,Noord-Holland,VBO,4.810143,52.891386
Wijdenes Spaansweg,25,,,1764GJ,Breezand,Hollands Kroon,Noord-Holland,VBO,4.810050,52.891418
Wijdenes Spaansweg,35,,,1764GJ,Breezand,Hollands Kroon,Noord-Holland,VBO,4.809755,52.891479
Wijdenes Spaansweg,37,,,1764GJ,Breezand,Hollands Kroon,Noord-Holland,VBO,4.809506,52.891602
Wijdenes Spaansweg,39,a,,1764GJ,Breezand,Hollands Kroon,Noord-Holland,VBO,4.809219,52.891497
Wijdenes Spaansweg,39,,,1764GJ,Breezand,Hollands Kroon,Noord-Holland,VBO,4.809399,52.891635
Wijdenes Spaansweg,41,,,1764GJ,Breezand,Hollands Kroon,Noord-Holland,VBO,4.809042,52.891769
Wijdenes Spaansweg,43,,,1764GJ,Breezand,Hollands Kroon,Noord-Holland,VBO,4.808887,52.891820
Wijdenes Spaansweg,45,,,1764GJ,Breezand,Hollands Kroon,Noord-Holland,VBO,4.808416,52.891971
Wijdenes Spaansweg,47,,,1764GJ,Breezand,Hollands Kroon,Noord-Holland,VBO,4.808180,52.892009
Wijdenes Spaansweg,49,,,1764GJ,Breezand,Hollands Kroon,Noord-Holland,VBO,4.808053,52.892104
Wijdenes Spaansweg,51,,,1764GJ,Breezand,Hollands Kroon,Noord-Holland,VBO,4.807746,52.892210
Wijdenes Spaansweg,53,a,,1764GJ,Breezand,Hollands Kroon,Noord-Holland,VBO,4.807230,52.892359
Wijdenes Spaansweg,53,,,1764GJ,Breezand,Hollands Kroon,Noord-Holland,VBO,4.807483,52.892206
Wijdenes Spaansweg,55,,,1764GK,Breezand,Hollands Kroon,Noord-Holland,VBO,4.805963,52.892780
Wijdenes Spaansweg,57,a,,1764GK,Breezand,Hollands Kroon,Noord-Holland,VBO,4.804991,52.893065
Wijdenes Spaansweg,57,,,1764GK,Breezand,Hollands Kroon,Noord-Holland,VBO,4.804755,52.892960
Wijdenes Spaansweg,60,,,1764GK,Breezand,Hollands Kroon,Noord-Holland,VBO,4.807804,52.892643
Wijdenes Spaansweg,62,a,,1764GK,Breezand,Hollands Kroon,Noord-Holland,VBO,4.805041,52.893627
Wijdenes Spaansweg,62,,,1764GK,Breezand,Hollands Kroon,Noord-Holland,VBO,4.805319,52.893351
Wijdenes Spaansweg,63,,,1764GK,Breezand,Hollands Kroon,Noord-Holland,VBO,4.801038,52.894355
Wijdenes Spaansweg,65,,,1764GK,Breezand,Hollands Kroon,Noord-Holland,VBO,4.800139,52.894653
Wijdenes Spaansweg,67,,,1764GK,Breezand,Hollands Kroon,Noord-Holland,VBO,4.796602,52.895944
Wijdenes Spaansweg,72,,,1764GK,Breezand,Hollands Kroon,Noord-Holland,VBO,4.804229,52.893737
Wijdenes Spaansweg,74,,,1764GK,Breezand,Hollands Kroon,Noord-Holland,VBO,4.803159,52.894062
Wijdenes Spaansweg,76,,,1764GK,Breezand,Hollands Kroon,Noord-Holland,VBO,4.802954,52.894213
Wijdenes Spaansweg,78,,,1764GK,Breezand,Hollands Kroon,Noord-Holland,VBO,4.801592,52.894639
Wijdenes Spaansweg,80,,,1764GK,Breezand,Hollands Kroon,Noord-Holland,VBO,4.800639,52.896406
Wijdenes Spaansweg,82,t,,1764GK,Breezand,Hollands Kroon,Noord-Holland,VBO,4.799467,52.895578
Wijdenes Spaansweg,82,,,1764GK,Breezand,Hollands Kroon,Noord-Holland,VBO,4.799177,52.895448
Wijdenes Spaansweg,84,,,1764GK,Breezand,Hollands Kroon,Noord-Holland,VBO,4.796927,52.896321
Wijdenes Spaansweg,86,,,1764GK,Breezand,Hollands Kroon,Noord-Holland,VBO,4.795952,52.896568
Wijdenes Spaansweg,90,,,1764GK,Breezand,Hollands Kroon,Noord-Holland,VBO,4.794629,52.897022
Wijdenes Spaansweg,94,,,1764GK,Breezand,Hollands Kroon,Noord-Holland,VBO,4.794023,52.897217
Wijdenes Spaansweg,96,,,1764GK,Breezand,Hollands Kroon,Noord-Holland,VBO,4.793442,52.897421
Wijdenes Spaansweg,98,,,1764GK,Breezand,Hollands Kroon,Noord-Holland,VBO,4.793042,52.897711
Wijdenes Spaansweg,2,,,1764GL,Breezand,Hollands Kroon,Noord-Holland,VBO,4.813188,52.890615
Wijdenes Spaansweg,8,,,1764GL,Breezand,Hollands Kroon,Noord-Holland,VBO,4.812765,52.890743
Wijdenes Spaansweg,12,a,,1764GL,Breezand,Hollands Kroon,Noord-Holland,VBO,4.812441,52.890818
Wijdenes Spaansweg,12,,,1764GL,Breezand,Hollands Kroon,Noord-Holland,VBO,4.812473,52.890861
Wijdenes Spaansweg,14,a,,1764GL,Breezand,Hollands Kroon,Noord-Holland,VBO,4.812043,52.890995
Wijdenes Spaansweg,14,,,1764GL,Breezand,Hollands Kroon,Noord-Holland,VBO,4.812299,52.890929
Wijdenes Spaansweg,16,,,1764GL,Breezand,Hollands Kroon,Noord-Holland,VBO,4.811845,52.891061
Wijdenes Spaansweg,20,,,1764GL,Breezand,Hollands Kroon,Noord-Holland,VBO,4.811502,52.891182
Wijdenes Spaansweg,22,,,1764GL,Breezand,Hollands Kroon,Noord-Holland,VBO,4.811299,52.891255
Wijdenes Spaansweg,24,,,1764GL,Breezand,Hollands Kroon,Noord-Holland,VBO,4.811246,52.891280
Wijdenes Spaansweg,26,,,1764GL,Breezand,Hollands Kroon,Noord-Holland,VBO,4.811133,52.891324
Wijdenes Spaansweg,28,,,1764GL,Breezand,Hollands Kroon,Noord-Holland,VBO,4.811047,52.891350
Wijdenes Spaansweg,30,,,1764GL,Breezand,Hollands Kroon,Noord-Holland,VBO,4.810966,52.891379
Wijdenes Spaansweg,32,a,,1764GL,Breezand,Hollands Kroon,Noord-Holland,VBO,4.810448,52.891815
Wijdenes Spaansweg,32,,,1764GL,Breezand,Hollands Kroon,Noord-Holland,VBO,4.810652,52.891716
Wijdenes Spaansweg,58,,,1764GL,Breezand,Hollands Kroon,Noord-Holland,VBO,4.808159,52.892428
Past. Verhoeffpark,1,,,1764GM,Breezand,Hollands Kroon,Noord-Holland,VBO,4.809167,52.893169
Past. Verhoeffpark,2,,,1764GM,Breezand,Hollands Kroon,Noord-Holland,VBO,4.809197,52.893201
Past. Verhoeffpark,3,,,1764GM,Breezand,Hollands Kroon,Noord-Holland,VBO,4.809228,52.893233
Past. Verhoeffpark,4,,,1764GM,Breezand,Hollands Kroon,Noord-Holland,VBO,4.809258,52.893266
Past. Verhoeffpark,5,,,1764GM,Breezand,Hollands Kroon,Noord-Holland,VBO,4.809289,52.893298
Past. Verhoeffpark,6,,,1764GM,Breezand,Hollands Kroon,Noord-Holland,VBO,4.809319,52.893330
Past. Verhoeffpark,7,,,1764GM,Breezand,Hollands Kroon,Noord-Holland,VBO,4.809350,52.893363
Past. Verhoeffpark,8,,,1764GM,Breezand,Hollands Kroon,Noord-Holland,VBO,4.809380,52.893395
Past. Verhoeffpark,9,,,1764GM,Breezand,Hollands Kroon,Noord-Holland,VBO,4.809411,52.893427
Past. Verhoeffpark,10,a,,1764GM,Breezand,Hollands Kroon,Noord-Holland,VBO,4.809836,52.893624
Past. Verhoeffpark,10,b,,1764GM,Breezand,Hollands Kroon,Noord-Holland,VBO,4.809836,52.893517
Past. Verhoeffpark,10,,,1764GM,Breezand,Hollands Kroon,Noord-Holland,VBO,4.809441,52.893460
Past. Verhoeffpark,11,,,1764GM,Breezand,Hollands Kroon,Noord-Holland,VBO,4.809332,52.893668
Past. Verhoeffpark,12,,,1764GM,Breezand,Hollands Kroon,Noord-Holland,VBO,4.809361,52.893699
Past. Verhoeffpark,13,,,1764GM,Breezand,Hollands Kroon,Noord-Holland,VBO,4.809391,52.893731
Past. Verhoeffpark,14,,,1764GM,Breezand,Hollands Kroon,Noord-Holland,VBO,4.809420,52.893763
Past. Verhoeffpark,15,,,1764GM,Breezand,Hollands Kroon,Noord-Holland,VBO,4.809450,52.893794
Past. Verhoeffpark,16,,,1764GM,Breezand,Hollands Kroon,Noord-Holland,VBO,4.809479,52.893826
Past. Verhoeffpark,17,,,1764GM,Breezand,Hollands Kroon,Noord-Holland,VBO,4.809509,52.893858
Past. Verhoeffpark,18,,,1764GM,Breezand,Hollands Kroon,Noord-Holland,VBO,4.809538,52.893889
Past. Verhoeffpark,19,,,1764GM,Breezand,Hollands Kroon,Noord-Holland,VBO,4.809568,52.893921
Past. Verhoeffpark,20,,,1764GM,Breezand,Hollands Kroon,Noord-Holland,VBO,4.809597,52.893952
Past. Verhoeffpark,21,,,1764GM,Breezand,Hollands Kroon,Noord-Holland,VBO,4.809626,52.893984
Past. Verhoeffpark,22,,,1764GM,Breezand,Hollands Kroon,Noord-Holland,VBO,4.809656,52.894016
Past. Verhoeffpark,23,,,1764GM,Breezand,Hollands Kroon,Noord-Holland,VBO,4.809685,52.894047
Past. Verhoeffpark,24,t,,1764GM,Breezand,Hollands Kroon,Noord-Holland,VBO,4.809740,52.894133
Past. Verhoeffpark,24,,,1764GM,Breezand,Hollands Kroon,Noord-Holland,VBO,4.809715,52.894079
Past. Verhoeffpark,25,,,1764GN,Breezand,Hollands Kroon,Noord-Holland,VBO,4.809907,52.894055
Past. Verhoeffpark,26,,,1764GN,Breezand,Hollands Kroon,Noord-Holland,VBO,4.809959,52.894038
Past. Verhoeffpark,27,,,1764GN,Breezand,Hollands Kroon,Noord-Holland,VBO,4.810012,52.894020
Past. Verhoeffpark,28,,,1764GN,Breezand,Hollands Kroon,Noord-Holland,VBO,4.810064,52.894002
Past. Verhoeffpark,29,,,1764GN,Breezand,Hollands Kroon,Noord-Holland,VBO,4.810117,52.893984
Past. Verhoeffpark,30,,,1764GN,Breezand,Hollands Kroon,Noord-Holland,VBO,4.810169,52.893966
Past. Verhoeffpark,31,,,1764GN,Breezand,Hollands Kroon,Noord-Holland,VBO,4.810222,52.893949
Past. Verhoeffpark,32,,,1764GN,Breezand,Hollands Kroon,Noord-Holland,VBO,4.810274,52.893931
Past. Verhoeffpark,33,,,1764GN,Breezand,Hollands Kroon,Noord-Holland,VBO,4.810327,52.893913
Past. Verhoeffpark,34,,,1764GN,Breezand,Hollands Kroon,Noord-Holland,VBO,4.810379,52.893895
Past. Verhoeffpark,35,,,1764GN,Breezand,Hollands Kroon,Noord-Holland,VBO,4.810432,52.893877
Past. Verhoeffpark,36,,,1764GN,Breezand,Hollands Kroon,Noord-Holland,VBO,4.810484,52.893859
Past. Verhoeffpark,37,,,1764GN,Breezand,Hollands Kroon,Noord-Holland,VBO,4.810537,52.893842
Past. Verhoeffpark,38,,,1764GN,Breezand,Hollands Kroon,Noord-Holland,VBO,4.810590,52.893824
Past. Verhoeffpark,51,a,,1764GP,Breezand,Hollands Kroon,Noord-Holland,VBO,4.809941,52.893487
Past. Verhoeffpark,52,a,,1764GP,Breezand,Hollands Kroon,Noord-Holland,VBO,4.809920,52.893459
Past. Verhoeffpark,53,,,1764GR,Breezand,Hollands Kroon,Noord-Holland,VBO,4.809885,52.893431
Past. Verhoeffpark,54,,,1764GR,Breezand,Hollands Kroon,Noord-Holland,VBO,4.809937,52.893413
Past. Verhoeffpark,55,,,1764GR,Breezand,Hollands Kroon,Noord-Holland,VBO,4.809990,52.893395
Past. Verhoeffpark,56,,,1764GR,Breezand,Hollands Kroon,Noord-Holland,VBO,4.810042,52.893378
Past. Verhoeffpark,57,,,1764GR,Breezand,Hollands Kroon,Noord-Holland,VBO,4.810094,52.893360
Past. Verhoeffpark,58,,,1764GR,Breezand,Hollands Kroon,Noord-Holland,VBO,4.810147,52.893342
Past. Verhoeffpark,59,,,1764GR,Breezand,Hollands Kroon,Noord-Holland,VBO,4.810199,52.893324
Past. Verhoeffpark,60,,,1764GR,Breezand,Hollands Kroon,Noord-Holland,VBO,4.810251,52.893306
Past. Verhoeffpark,61,,,1764GR,Breezand,Hollands Kroon,Noord-Holland,VBO,4.810304,52.893288
Past. Verhoeffpark,62,,,1764GR,Breezand,Hollands Kroon,Noord-Holland,VBO,4.810356,52.893270
Past. Verhoeffpark,63,,,1764GR,Breezand,Hollands Kroon,Noord-Holland,VBO,4.810408,52.893252
Past. Verhoeffpark,64,,,1764GR,Breezand,Hollands Kroon,Noord-Holland,VBO,4.810461,52.893234
Past. Verhoeffpark,65,,,1764GR,Breezand,Hollands Kroon,Noord-Holland,VBO,4.810513,52.893216
Past. Verhoeffpark,66,,,1764GR,Breezand,Hollands Kroon,Noord-Holland,VBO,4.810565,52.893198
Past. Verhoeffpark,67,,,1764GS,Breezand,Hollands Kroon,Noord-Holland,VBO,4.809972,52.893046
Past. Verhoeffpark,68,,,1764GS,Breezand,Hollands Kroon,Noord-Holland,VBO,4.810023,52.893028
Past. Verhoeffpark,69,,,1764GS,Breezand,Hollands Kroon,Noord-Holland,VBO,4.810074,52.893010
Past. Verhoeffpark,70,,,1764GS,Breezand,Hollands Kroon,Noord-Holland,VBO,4.810124,52.892993
Past. Verhoeffpark,71,,,1764GS,Breezand,Hollands Kroon,Noord-Holland,VBO,4.810175,52.892975
Past. Verhoeffpark,72,,,1764GS,Breezand,Hollands Kroon,Noord-Holland,VBO,4.810226,52.892957
Past. Verhoeffpark,73,,,1764GS,Breezand,Hollands Kroon,Noord-Holland,VBO,4.810276,52.892940
Past. Verhoeffpark,74,,,1764GS,Breezand,Hollands Kroon,Noord-Holland,VBO,4.810327,52.892922
Past. Verhoeffpark,75,,,1764GS,Breezand,Hollands Kroon,Noord-Holland,VBO,4.810378,52.892904
Past. Verhoeffpark,76,,,1764GS,Breezand,Hollands Kroon,Noord-Holland,VBO,4.810428,52.892887
Past. Verhoeffpark,77,,,1764GS,Breezand,Hollands Kroon,Noord-Holland,VBO,4.810479,52.892869
Past. Verhoeffpark,78,,,1764GS,Breezand,Hollands Kroon,Noord-Holland,VBO,4.810529,52.892851
Past. Verhoeffpark,79,,,1764GS,Breezand,Hollands Kroon,Noord-Holland,VBO,4.810580,52.892834
Past. Verhoeffpark,80,,,1764GS,Breezand,Hollands Kroon,Noord-Holland,VBO,4.810631,52.892816
Past. Verhoeffpark,81,,,1764GS,Breezand,Hollands Kroon,Noord-Holland,VBO,4.811418,52.893187
Past. Verhoeffpark,82,,,1764GS,Breezand,Hollands Kroon,Noord-Holland,VBO,4.811381,52.893147
Past. Verhoeffpark,83,,,1764GS,Breezand,Hollands Kroon,Noord-Holland,VBO,4.811289,52.893050
Past. Verhoeffpark,84,,,1764GS,Breezand,Hollands Kroon,Noord-Holland,VBO,4.811249,52.893008
Past. Verhoeffpark,85,,,1764GS,Breezand,Hollands Kroon,Noord-Holland,VBO,4.811165,52.892915
Past. Verhoeffpark,86,,,1764GS,Breezand,Hollands Kroon,Noord-Holland,VBO,4.811126,52.892873
Past. Verhoeffpark,87,,,1764GS,Breezand,Hollands Kroon,Noord-Holland,VBO,4.811043,52.892778
Past. Verhoeffpark,88,,,1764GS,Breezand,Hollands Kroon,Noord-Holland,VBO,4.811001,52.892734
Past. Verhoeffpark,89,,,1764GS,Breezand,Hollands Kroon,Noord-Holland,VBO,4.810913,52.892648
Past. Verhoeffpark,90,,,1764GS,Breezand,Hollands Kroon,Noord-Holland,VBO,4.810871,52.892603
Past. Verhoeffpark,91,a,,1764GS,Breezand,Hollands Kroon,Noord-Holland,VBO,4.811771,52.892795
Past. Verhoeffpark,91,,,1764GS,Breezand,Hollands Kroon,Noord-Holland,VBO,4.811663,52.892841
Past. Verhoeffpark,92,a,,1764GS,Breezand,Hollands Kroon,Noord-Holland,VBO,4.811985,52.892727
Past. Verhoeffpark,92,,,1764GS,Breezand,Hollands Kroon,Noord-Holland,VBO,4.811902,52.892753
Past. Verhoeffpark,93,a,,1764GS,Breezand,Hollands Kroon,Noord-Holland,VBO,4.811632,52.892637
Past. Verhoeffpark,93,,,1764GS,Breezand,Hollands Kroon,Noord-Holland,VBO,4.811520,52.892670
Past. Verhoeffpark,94,a,,1764GS,Breezand,Hollands Kroon,Noord-Holland,VBO,4.811845,52.892568
Past. Verhoeffpark,94,,,1764GS,Breezand,Hollands Kroon,Noord-Holland,VBO,4.811772,52.892592
Past. Verhoeffpark,95,,,1764GS,Breezand,Hollands Kroon,Noord-Holland,VBO,4.811340,52.892466
Past. Verhoeffpark,96,,,1764GS,Breezand,Hollands Kroon,Noord-Holland,VBO,4.811446,52.892432
Past. Verhoeffpark,97,,,1764GS,Breezand,Hollands Kroon,Noord-Holland,VBO,4.811551,52.892398
Past. Verhoeffpark,98,,,1764GS,Breezand,Hollands Kroon,Noord-Holland,VBO,4.811656,52.892364
Past. Verhoeffpark,99,,,1764GS,Breezand,Hollands Kroon,Noord-Holland,VBO,4.811208,52.892149
Past. Verhoeffpark,100,,,1764GS,Breezand,Hollands Kroon,Noord-Holland,VBO,4.811318,52.892068
Past. Verhoeffpark,101,,,1764GS,Breezand,Hollands Kroon,Noord-Holland,VBO,4.811217,52.891999
Past. Verhoeffpark,102,,,1764GS,Breezand,Hollands Kroon,Noord-Holland,VBO,4.811093,52.891978
Past. Verhoeffpark,103,,,1764GS,Breezand,Hollands Kroon,Noord-Holland,VBO,4.810953,52.891957
Past. Verhoeffpark,104,,,1764GS,Breezand,Hollands Kroon,Noord-Holland,VBO,4.810848,52.891998
Past. Verhoeffpark,105,,,1764GS,Breezand,Hollands Kroon,Noord-Holland,VBO,4.810690,52.892013
Past. Verhoeffpark,106,,,1764GS,Breezand,Hollands Kroon,Noord-Holland,VBO,4.810739,52.892106
Past. Verhoeffpark,107,,,1764GS,Breezand,Hollands Kroon,Noord-Holland,VBO,4.810733,52.892185
Past. Verhoeffpark,108,,,1764GS,Breezand,Hollands Kroon,Noord-Holland,VBO,4.810785,52.892264
Past. Verhoeffpark,109,,,1764GS,Breezand,Hollands Kroon,Noord-Holland,VBO,4.810949,52.892240
Past. Verhoeffpark,110,,,1764GS,Breezand,Hollands Kroon,Noord-Holland,VBO,4.809411,52.892451
Past. Verhoeffpark,111,,,1764GS,Breezand,Hollands Kroon,Noord-Holland,VBO,4.809348,52.892375
Past. Verhoeffpark,112,,,1764GS,Breezand,Hollands Kroon,Noord-Holland,VBO,4.809285,52.892299
Past. Verhoeffpark,113,,,1764GS,Breezand,Hollands Kroon,Noord-Holland,VBO,4.809222,52.892223
Past. Verhoeffpark,114,,,1764GS,Breezand,Hollands Kroon,Noord-Holland,VBO,4.809159,52.892148
L. Pietersestraat,1,,,1764GT,Breezand,Hollands Kroon,Noord-Holland,VBO,4.806195,52.890594
L. Pietersestraat,3,,,1764GT,Breezand,Hollands Kroon,Noord-Holland,VBO,4.806241,52.890643
L. Pietersestraat,5,,,1764GT,Breezand,Hollands Kroon,Noord-Holland,VBO,4.806288,52.890693
L. Pietersestraat,7,,,1764GT,Breezand,Hollands Kroon,Noord-Holland,VBO,4.806335,52.890743
L. Pietersestraat,9,,,1764GT,Breezand,Hollands Kroon,Noord-Holland,VBO,4.806381,52.890793
L. Pietersestraat,11,,,1764GT,Breezand,Hollands Kroon,Noord-Holland,VBO,4.806428,52.890843
L. Pietersestraat,13,,,1764GT,Breezand,Hollands Kroon,Noord-Holland,VBO,4.806475,52.890892
L. Pietersestraat,15,,,1764GT,Breezand,Hollands Kroon,Noord-Holland,VBO,4.806547,52.891007
L. Pietersestraat,17,,,1764GT,Breezand,Hollands Kroon,Noord-Holland,VBO,4.806591,52.891055
L. Pietersestraat,19,,,1764GT,Breezand,Hollands Kroon,Noord-Holland,VBO,4.806636,52.891103
L. Pietersestraat,21,,,1764GT,Breezand,Hollands Kroon,Noord-Holland,VBO,4.806680,52.891151
L. Pietersestraat,23,,,1764GT,Breezand,Hollands Kroon,Noord-Holland,VBO,4.806725,52.891199
L. Pietersestraat,25,,,1764GT,Breezand,Hollands Kroon,Noord-Holland,VBO,4.806769,52.891247
L. Pietersestraat,27,,,1764GT,Breezand,Hollands Kroon,Noord-Holland,VBO,4.806813,52.891295
L. Pietersestraat,29,t,,1764GT,Breezand,Hollands Kroon,Noord-Holland,VBO,4.806558,52.891467
L. Pietersestraat,29,,,1764GT,Breezand,Hollands Kroon,Noord-Holland,VBO,4.806858,52.891343
L. Pietersestraat,31,,,1764GT,Breezand,Hollands Kroon,Noord-Holland,VBO,4.806993,52.891446
L. Pietersestraat,33,,,1764GT,Breezand,Hollands Kroon,Noord-Holland,VBO,4.807038,52.891494
L. Pietersestraat,35,,,1764GT,Breezand,Hollands Kroon,Noord-Holland,VBO,4.807083,52.891542
L. Pietersestraat,37,,,1764GT,Breezand,Hollands Kroon,Noord-Holland,VBO,4.807128,52.891590
L. Pietersestraat,39,,,1764GT,Breezand,Hollands Kroon,Noord-Holland,VBO,4.807173,52.891638
L. Pietersestraat,41,,,1764GT,Breezand,Hollands Kroon,Noord-Holland,VBO,4.807218,52.891686
L. Pietersestraat,43,,,1764GT,Breezand,Hollands Kroon,Noord-Holland,VBO,4.807386,52.891816
L. Pietersestraat,45,,,1764GT,Breezand,Hollands Kroon,Noord-Holland,VBO,4.807460,52.891790
L. Pietersestraat,47,,,1764GT,Breezand,Hollands Kroon,Noord-Holland,VBO,4.807533,52.891765
L. Pietersestraat,49,,,1764GT,Breezand,Hollands Kroon,Noord-Holland,VBO,4.807574,52.891692
L. Pietersestraat,51,,,1764GT,Breezand,Hollands Kroon,Noord-Holland,VBO,4.807653,52.891665
L. Pietersestraat,53,,,1764GT,Breezand,Hollands Kroon,Noord-Holland,VBO,4.807733,52.891637
L. Pietersestraat,55,,,1764GT,Breezand,Hollands Kroon,Noord-Holland,VBO,4.807813,52.891610
L. Pietersestraat,57,,,1764GT,Breezand,Hollands Kroon,Noord-Holland,VBO,4.808796,52.891344
L. Pietersestraat,59,,,1764GT,Breezand,Hollands Kroon,Noord-Holland,VBO,4.808873,52.891318
L. Pietersestraat,61,,,1764GT,Breezand,Hollands Kroon,Noord-Holland,VBO,4.808950,52.891292
L. Pietersestraat,63,,,1764GT,Breezand,Hollands Kroon,Noord-Holland,VBO,4.809027,52.891266
L. Pietersestraat,65,,,1764GT,Breezand,Hollands Kroon,Noord-Holland,VBO,4.809104,52.891240
L. Pietersestraat,67,,,1764GT,Breezand,Hollands Kroon,Noord-Holland,VBO,4.809639,52.891057
L. Pietersestraat,69,,,1764GT,Breezand,Hollands Kroon,Noord-Holland,VBO,4.809774,52.890997
L. Pietersestraat,71,,,1764GT,Breezand,Hollands Kroon,Noord-Holland,VBO,4.809873,52.890937
L. Pietersestraat,73,,,1764GT,Breezand,Hollands Kroon,Noord-Holland,VBO,4.810045,52.890915
L. Pietersestraat,75,,,1764GT,Breezand,Hollands Kroon,Noord-Holland,VBO,4.810177,52.890862
L. Pietersestraat,77,a,,1764GT,Breezand,Hollands Kroon,Noord-Holland,VBO,4.810554,52.890677
L. Pietersestraat,77,,,1764GT,Breezand,Hollands Kroon,Noord-Holland,VBO,4.810298,52.890814
L. Pietersestraat,79,,,1764GT,Breezand,Hollands Kroon,Noord-Holland,VBO,4.810446,52.890584
L. Pietersestraat,81,,,1764GT,Breezand,Hollands Kroon,Noord-Holland,VBO,4.810373,52.890507
L. Pietersestraat,83,,,1764GT,Breezand,Hollands Kroon,Noord-Holland,VBO,4.810280,52.890409
L. Pietersestraat,2,,,1764GV,Breezand,Hollands Kroon,Noord-Holland,VBO,4.806534,52.890488
L. Pietersestraat,4,,,1764GV,Breezand,Hollands Kroon,Noord-Holland,VBO,4.806604,52.890465
L. Pietersestraat,6,,,1764GV,Breezand,Hollands Kroon,Noord-Holland,VBO,4.806674,52.890442
L. Pietersestraat,8,,,1764GV,Breezand,Hollands Kroon,Noord-Holland,VBO,4.806744,52.890418
L. Pietersestraat,10,,,1764GV,Breezand,Hollands Kroon,Noord-Holland,VBO,4.806813,52.890395
L. Pietersestraat,12,,,1764GV,Breezand,Hollands Kroon,Noord-Holland,VBO,4.806883,52.890372
L. Pietersestraat,14,,,1764GV,Breezand,Hollands Kroon,Noord-Holland,VBO,4.806953,52.890349
L. Pietersestraat,16,,,1764GV,Breezand,Hollands Kroon,Noord-Holland,VBO,4.807023,52.890325
L. Pietersestraat,18,,,1764GV,Breezand,Hollands Kroon,Noord-Holland,VBO,4.806639,52.890636
L. Pietersestraat,20,,,1764GV,Breezand,Hollands Kroon,Noord-Holland,VBO,4.806675,52.890679
L. Pietersestraat,22,,,1764GV,Breezand,Hollands Kroon,Noord-Holland,VBO,4.806711,52.890721
L. Pietersestraat,24,,,1764GV,Breezand,Hollands Kroon,Noord-Holland,VBO,4.806747,52.890764
L. Pietersestraat,26,,,1764GV,Breezand,Hollands Kroon,Noord-Holland,VBO,4.806783,52.890806
L. Pietersestraat,28,,,1764GV,Breezand,Hollands Kroon,Noord-Holland,VBO,4.807029,52.890973
L. Pietersestraat,30,,,1764GV,Breezand,Hollands Kroon,Noord-Holland,VBO,4.807064,52.891010
L. Pietersestraat,32,,,1764GV,Breezand,Hollands Kroon,Noord-Holland,VBO,4.807099,52.891047
L. Pietersestraat,34,,,1764GV,Breezand,Hollands Kroon,Noord-Holland,VBO,4.807134,52.891085
L. Pietersestraat,36,,,1764GV,Breezand,Hollands Kroon,Noord-Holland,VBO,4.807130,52.891166
L. Pietersestraat,38,,,1764GV,Breezand,Hollands Kroon,Noord-Holland,VBO,4.807168,52.891206
L. Pietersestraat,40,,,1764GV,Breezand,Hollands Kroon,Noord-Holland,VBO,4.807206,52.891247
L. Pietersestraat,42,,,1764GV,Breezand,Hollands Kroon,Noord-Holland,VBO,4.807244,52.891287
L. Pietersestraat,44,,,1764GV,Breezand,Hollands Kroon,Noord-Holland,VBO,4.807282,52.891327
L. Pietersestraat,46,,,1764GV,Breezand,Hollands Kroon,Noord-Holland,VBO,4.807320,52.891368
L. Pietersestraat,48,,,1764GV,Breezand,Hollands Kroon,Noord-Holland,VBO,4.807358,52.891408
L. Pietersestraat,50,,,1764GV,Breezand,Hollands Kroon,Noord-Holland,VBO,4.807397,52.891448
L. Pietersestraat,52,,,1764GV,Breezand,Hollands Kroon,Noord-Holland,VBO,4.809301,52.890895
L. Pietersestraat,54,,,1764GV,Breezand,Hollands Kroon,Noord-Holland,VBO,4.809403,52.890861
L. Pietersestraat,56,,,1764GV,Breezand,Hollands Kroon,Noord-Holland,VBO,4.809601,52.890843
L. Pietersestraat,58,,,1764GV,Breezand,Hollands Kroon,Noord-Holland,VBO,4.809735,52.890786
L. Pietersestraat,60,,,1764GV,Breezand,Hollands Kroon,Noord-Holland,VBO,4.810008,52.890640
L. Pietersestraat,62,,,1764GV,Breezand,Hollands Kroon,Noord-Holland,VBO,4.809932,52.890559
L. Pietersestraat,64,,,1764GV,Breezand,Hollands Kroon,Noord-Holland,VBO,4.810058,52.890308
P. Bergmanstraat,1,,,1764GW,Breezand,Hollands Kroon,Noord-Holland,VBO,4.808460,52.890426
P. Bergmanstraat,3,,,1764GW,Breezand,Hollands Kroon,Noord-Holland,VBO,4.808563,52.890503
P. Bergmanstraat,5,,,1764GW,Breezand,Hollands Kroon,Noord-Holland,VBO,4.808638,52.890587
P. Bergmanstraat,7,,,1764GW,Breezand,Hollands Kroon,Noord-Holland,VBO,4.808629,52.890699
P. Bergmanstraat,9,,,1764GW,Breezand,Hollands Kroon,Noord-Holland,VBO,4.808760,52.890817
P. Bergmanstraat,11,,,1764GW,Breezand,Hollands Kroon,Noord-Holland,VBO,4.808826,52.890898
P. Bergmanstraat,13,,,1764GW,Breezand,Hollands Kroon,Noord-Holland,VBO,4.808891,52.890978
P. Bergmanstraat,15,,,1764GW,Breezand,Hollands Kroon,Noord-Holland,VBO,4.808957,52.891058
P. Bergmanstraat,2,,,1764GX,Breezand,Hollands Kroon,Noord-Holland,VBO,4.807211,52.890662
P. Bergmanstraat,4,,,1764GX,Breezand,Hollands Kroon,Noord-Holland,VBO,4.807171,52.890621
P. Bergmanstraat,6,,,1764GX,Breezand,Hollands Kroon,Noord-Holland,VBO,4.807132,52.890580
P. Bergmanstraat,8,,,1764GX,Breezand,Hollands Kroon,Noord-Holland,VBO,4.807092,52.890539
P. Bergmanstraat,10,,,1764GX,Breezand,Hollands Kroon,Noord-Holland,VBO,4.807053,52.890497
P. Bergmanstraat,12,,,1764GX,Breezand,Hollands Kroon,Noord-Holland,VBO,4.808003,52.890335
P. Bergmanstraat,14,,,1764GX,Breezand,Hollands Kroon,Noord-Holland,VBO,4.808027,52.890322
P. Bergmanstraat,16,,,1764GX,Breezand,Hollands Kroon,Noord-Holland,VBO,4.808156,52.890285
P. Bergmanstraat,18,,,1764GX,Breezand,Hollands Kroon,Noord-Holland,VBO,4.808188,52.890272
P. Bergmanstraat,20,,,1764GX,Breezand,Hollands Kroon,Noord-Holland,VBO,4.808322,52.890246
P. Bergmanstraat,22,,,1764GX,Breezand,Hollands Kroon,Noord-Holland,VBO,4.808365,52.890236
P. Bergmanstraat,24,,,1764GX,Breezand,Hollands Kroon,Noord-Holland,VBO,4.808482,52.890194
P. Bergmanstraat,26,,,1764GX,Breezand,Hollands Kroon,Noord-Holland,VBO,4.808519,52.890182
P. Bergmanstraat,28,,,1764GX,Breezand,Hollands Kroon,Noord-Holland,VBO,4.808727,52.890201
P. Bergmanstraat,30,,,1764GX,Breezand,Hollands Kroon,Noord-Holland,VBO,4.808838,52.890294
P. Bergmanstraat,32,,,1764GX,Breezand,Hollands Kroon,Noord-Holland,VBO,4.808955,52.890382
P. Bergmanstraat,34,,,1764GX,Breezand,Hollands Kroon,Noord-Holland,VBO,4.808985,52.890473
P. Bergmanstraat,36,,,1764GX,Breezand,Hollands Kroon,Noord-Holland,VBO,4.809066,52.890571
P. Bergmanstraat,38,,,1764GX,Breezand,Hollands Kroon,Noord-Holland,VBO,4.809238,52.890651
D. Lubbertstraat,1,,,1764GZ,Breezand,Hollands Kroon,Noord-Holland,VBO,4.806846,52.889781
D. Lubbertstraat,6,,,1764GZ,Breezand,Hollands Kroon,Noord-Holland,VBO,4.805589,52.890256
D. Lubbertstraat,8,a,,1764GZ,Breezand,Hollands Kroon,Noord-Holland,VBO,4.805985,52.890076
D. Lubbertstraat,8,b,,1764GZ,Breezand,Hollands Kroon,Noord-Holland,VBO,4.805940,52.890093
D. Lubbertstraat,8,c,,1764GZ,Breezand,Hollands Kroon,Noord-Holland,VBO,4.805787,52.890146
D. Lubbertstraat,8,d,,1764GZ,Breezand,Hollands Kroon,Noord-Holland,VBO,4.805728,52.890167
D. Lubbertstraat,8,,,1764GZ,Breezand,Hollands Kroon,Noord-Holland,VBO,4.805867,52.890117
D. Lubbertstraat,10,,,1764GZ,Breezand,Hollands Kroon,Noord-Holland,VBO,4.806261,52.889984
D. Lubbertstraat,14,,,1764GZ,Breezand,Hollands Kroon,Noord-Holland,VBO,4.806475,52.889846
D. Lubbertstraat,16,,,1764GZ,Breezand,Hollands Kroon,Noord-Holland,VBO,4.806500,52.889786
D. Lubbertstraat,18,,,1764GZ,Breezand,Hollands Kroon,Noord-Holland,VBO,4.806527,52.889731
D. Lubbertstraat,20,,,1764GZ,Breezand,Hollands Kroon,Noord-Holland,VBO,4.806549,52.889674
D. Lubbertstraat,22,,,1764GZ,Breezand,Hollands Kroon,Noord-Holland,VBO,4.806571,52.889622
D. Lubbertstraat,24,,,1764GZ,Breezand,Hollands Kroon,Noord-Holland,VBO,4.806590,52.889562
D. Lubbertstraat,26,,,1764GZ,Breezand,Hollands Kroon,Noord-Holland,VBO,4.806610,52.889512
Poldermanstraat,1,,,1764HA,Breezand,Hollands Kroon,Noord-Holland,VBO,4.805619,52.888020
Poldermanstraat,3,,,1764HA,Breezand,Hollands Kroon,Noord-Holland,VBO,4.805552,52.888043
Poldermanstraat,5,,,1764HA,Breezand,Hollands Kroon,Noord-Holland,VBO,4.805486,52.888066
Poldermanstraat,7,,,1764HA,Breezand,Hollands Kroon,Noord-Holland,VBO,4.805419,52.888090
Poldermanstraat,9,,,1764HA,Breezand,Hollands Kroon,Noord-Holland,VBO,4.805353,52.888113
Poldermanstraat,11,,,1764HA,Breezand,Hollands Kroon,Noord-Holland,VBO,4.805286,52.888136
Poldermanstraat,13,,,1764HA,Breezand,Hollands Kroon,Noord-Holland,VBO,4.805219,52.888160
Poldermanstraat,15,,,1764HA,Breezand,Hollands Kroon,Noord-Holland,VBO,4.805097,52.888161
Poldermanstraat,17,,,1764HA,Breezand,Hollands Kroon,Noord-Holland,VBO,4.805031,52.888193
Poldermanstraat,19,,,1764HA,Breezand,Hollands Kroon,Noord-Holland,VBO,4.804949,52.888213
Poldermanstraat,21,,,1764HB,Breezand,Hollands Kroon,Noord-Holland,VBO,4.805595,52.888178
Poldermanstraat,23,,,1764HB,Breezand,Hollands Kroon,Noord-Holland,VBO,4.805635,52.888219
Poldermanstraat,25,,,1764HB,Breezand,Hollands Kroon,Noord-Holland,VBO,4.805675,52.888261
Poldermanstraat,27,,,1764HB,Breezand,Hollands Kroon,Noord-Holland,VBO,4.805715,52.888302
Poldermanstraat,29,,,1764HB,Breezand,Hollands Kroon,Noord-Holland,VBO,4.806025,52.888378
Poldermanstraat,31,,,1764HB,Breezand,Hollands Kroon,Noord-Holland,VBO,4.806102,52.888389
Poldermanstraat,33,,,1764HB,Breezand,Hollands Kroon,Noord-Holland,VBO,4.806180,52.888400
Poldermanstraat,35,,,1764HB,Breezand,Hollands Kroon,Noord-Holland,VBO,4.806258,52.888411
Poldermanstraat,37,,,1764HB,Breezand,Hollands Kroon,Noord-Holland,VBO,4.806336,52.888422
Poldermanstraat,39,,,1764HB,Breezand,Hollands Kroon,Noord-Holland,VBO,4.806413,52.888433
Poldermanstraat,41,,,1764HB,Breezand,Hollands Kroon,Noord-Holland,VBO,4.806491,52.888444
Poldermanstraat,43,,,1764HB,Breezand,Hollands Kroon,Noord-Holland,VBO,4.806569,52.888455
Poldermanstraat,45,,,1764HB,Breezand,Hollands Kroon,Noord-Holland,VBO,4.806647,52.888466
Poldermanstraat,47,,,1764HB,Breezand,Hollands Kroon,Noord-Holland,VBO,4.806724,52.888477
Poldermanstraat,49,,,1764HB,Breezand,Hollands Kroon,Noord-Holland,VBO,4.806802,52.888488
Poldermanstraat,51,,,1764HB,Breezand,Hollands Kroon,Noord-Holland,VBO,4.806880,52.888499
Poldermanstraat,53,,,1764HB,Breezand,Hollands Kroon,Noord-Holland,VBO,4.806958,52.888510
Poldermanstraat,55,,,1764HB,Breezand,Hollands Kroon,Noord-Holland,VBO,4.807296,52.888815
Poldermanstraat,57,,,1764HB,Breezand,Hollands Kroon,Noord-Holland,VBO,4.807379,52.888605
Poldermanstraat,59,,,1764HB,Breezand,Hollands Kroon,Noord-Holland,VBO,4.807738,52.888550
Poldermanstraat,61,,,1764HB,Breezand,Hollands Kroon,Noord-Holland,VBO,4.807817,52.888556
Poldermanstraat,63,,,1764HB,Breezand,Hollands Kroon,Noord-Holland,VBO,4.807977,52.888583
Poldermanstraat,65,,,1764HB,Breezand,Hollands Kroon,Noord-Holland,VBO,4.808058,52.888595
Poldermanstraat,67,,,1764HB,Breezand,Hollands Kroon,Noord-Holland,VBO,4.808218,52.888619
Poldermanstraat,69,,,1764HB,Breezand,Hollands Kroon,Noord-Holland,VBO,4.808299,52.888631
Poldermanstraat,71,,,1764HB,Breezand,Hollands Kroon,Noord-Holland,VBO,4.808459,52.888656
Poldermanstraat,73,,,1764HB,Breezand,Hollands Kroon,Noord-Holland,VBO,4.808550,52.888670
Poldermanstraat,2,,,1764HC,Breezand,Hollands Kroon,Noord-Holland,VBO,4.806168,52.887794
Poldermanstraat,4,,,1764HC,Breezand,Hollands Kroon,Noord-Holland,VBO,4.806234,52.887771
Poldermanstraat,6,,,1764HC,Breezand,Hollands Kroon,Noord-Holland,VBO,4.806325,52.887744
Poldermanstraat,8,,,1764HC,Breezand,Hollands Kroon,Noord-Holland,VBO,4.806511,52.887790
Poldermanstraat,10,,,1764HC,Breezand,Hollands Kroon,Noord-Holland,VBO,4.806556,52.887838
Poldermanstraat,12,,,1764HC,Breezand,Hollands Kroon,Noord-Holland,VBO,4.806599,52.887883
Poldermanstraat,14,,,1764HC,Breezand,Hollands Kroon,Noord-Holland,VBO,4.806650,52.887931
Poldermanstraat,16,,,1764HC,Breezand,Hollands Kroon,Noord-Holland,VBO,4.806691,52.887980
Poldermanstraat,18,,,1764HC,Breezand,Hollands Kroon,Noord-Holland,VBO,4.806463,52.888057
Poldermanstraat,20,,,1764HC,Breezand,Hollands Kroon,Noord-Holland,VBO,4.806418,52.888010
Poldermanstraat,22,,,1764HC,Breezand,Hollands Kroon,Noord-Holland,VBO,4.806376,52.887966
Poldermanstraat,24,,,1764HC,Breezand,Hollands Kroon,Noord-Holland,VBO,4.806331,52.887919
Poldermanstraat,26,t,,1764HC,Breezand,Hollands Kroon,Noord-Holland,VBO,4.806942,52.888072
Poldermanstraat,26,,,1764HC,Breezand,Hollands Kroon,Noord-Holland,VBO,4.807459,52.888314
Poldermanstraat,28,,,1764HC,Breezand,Hollands Kroon,Noord-Holland,VBO,4.807531,52.888292
Poldermanstraat,30,,,1764HC,Breezand,Hollands Kroon,Noord-Holland,VBO,4.807755,52.888081
Poldermanstraat,32,,,1764HC,Breezand,Hollands Kroon,Noord-Holland,VBO,4.807790,52.888122
Poldermanstraat,34,,,1764HC,Breezand,Hollands Kroon,Noord-Holland,VBO,4.807880,52.888213
Poldermanstraat,36,,,1764HC,Breezand,Hollands Kroon,Noord-Holland,VBO,4.807924,52.888254
Poldermanstraat,38,,,1764HC,Breezand,Hollands Kroon,Noord-Holland,VBO,4.808009,52.888344
Poldermanstraat,40,,,1764HC,Breezand,Hollands Kroon,Noord-Holland,VBO,4.808049,52.888385
Poldermanstraat,42,,,1764HC,Breezand,Hollands Kroon,Noord-Holland,VBO,4.808480,52.888377
Poldermanstraat,44,,,1764HC,Breezand,Hollands Kroon,Noord-Holland,VBO,4.808550,52.888352
Poldermanstraat,46,,,1764HC,Breezand,Hollands Kroon,Noord-Holland,VBO,4.808699,52.888303
Poldermanstraat,48,,,1764HC,Breezand,Hollands Kroon,Noord-Holland,VBO,4.808765,52.888280
Poldermanstraat,50,,,1764HC,Breezand,Hollands Kroon,Noord-Holland,VBO,4.808916,52.888230
Poldermanstraat,52,,,1764HC,Breezand,Hollands Kroon,Noord-Holland,VBO,4.808979,52.888205
Poldermanstraat,54,,,1764HC,Breezand,Hollands Kroon,Noord-Holland,VBO,4.809138,52.888156
Poldermanstraat,56,,,1764HC,Breezand,Hollands Kroon,Noord-Holland,VBO,4.809204,52.888129
Ceresplein,1,a,,1764HD,Breezand,Hollands Kroon,Noord-Holland,VBO,4.806812,52.887793
Ceresplein,1,b,,1764HD,Breezand,Hollands Kroon,Noord-Holland,VBO,4.806598,52.887542
Ceresplein,1,,,1764HD,Breezand,Hollands Kroon,Noord-Holland,VBO,4.805614,52.887506
Ceresplein,2,,,1764HD,Breezand,Hollands Kroon,Noord-Holland,VBO,4.805447,52.887341
Ceresplein,3,,,1764HD,Breezand,Hollands Kroon,Noord-Holland,VBO,4.805762,52.886922
Ceresplein,4,,,1764HD,Breezand,Hollands Kroon,Noord-Holland,VBO,4.805504,52.887021
Ceresplein,5,,,1764HD,Breezand,Hollands Kroon,Noord-Holland,VBO,4.805422,52.887052
Ceresplein,6,,,1764HD,Breezand,Hollands Kroon,Noord-Holland,VBO,4.805264,52.887103
Ceresplein,7,,,1764HD,Breezand,Hollands Kroon,Noord-Holland,VBO,4.805175,52.887133
Ceresplein,8,,,1764HD,Breezand,Hollands Kroon,Noord-Holland,VBO,4.804792,52.887216
Ceresplein,9,,,1764HD,Breezand,Hollands Kroon,Noord-Holland,VBO,4.804680,52.887291
Ceresplein,10,,,1764HD,Breezand,Hollands Kroon,Noord-Holland,VBO,4.804595,52.887322
Ceresplein,12,,,1764HD,Breezand,Hollands Kroon,Noord-Holland,VBO,4.804434,52.887379
Ceresplein,13,,,1764HD,Breezand,Hollands Kroon,Noord-Holland,VBO,4.804328,52.887416
Ceresplein,14,,,1764HD,Breezand,Hollands Kroon,Noord-Holland,VBO,4.804066,52.887623
Ceresplein,15,,,1764HD,Breezand,Hollands Kroon,Noord-Holland,VBO,4.804298,52.887878
Ceresplein,16,,,1764HD,Breezand,Hollands Kroon,Noord-Holland,VBO,4.804188,52.887954
Ceresplein,17,,,1764HD,Breezand,Hollands Kroon,Noord-Holland,VBO,4.804179,52.887956
Ceresplein,18,,,1764HD,Breezand,Hollands Kroon,Noord-Holland,VBO,4.804170,52.887959
Ceresplein,19,,,1764HD,Breezand,Hollands Kroon,Noord-Holland,VBO,4.804161,52.887961
Ceresplein,20,,,1764HD,Breezand,Hollands Kroon,Noord-Holland,VBO,4.804152,52.887964
Ceresplein,21,,,1764HD,Breezand,Hollands Kroon,Noord-Holland,VBO,4.804142,52.887967
Ceresplein,22,,,1764HD,Breezand,Hollands Kroon,Noord-Holland,VBO,4.804133,52.887969
Ceresplein,23,,,1764HD,Breezand,Hollands Kroon,Noord-Holland,VBO,4.804124,52.887972
Ceresplein,24,,,1764HD,Breezand,Hollands Kroon,Noord-Holland,VBO,4.804115,52.887974
Ceresplein,25,,,1764HD,Breezand,Hollands Kroon,Noord-Holland,VBO,4.804106,52.887977
Ceresplein,26,,,1764HD,Breezand,Hollands Kroon,Noord-Holland,VBO,4.804097,52.887980
Ceresplein,27,,,1764HD,Breezand,Hollands Kroon,Noord-Holland,VBO,4.804088,52.887982
Ceresplein,28,,,1764HD,Breezand,Hollands Kroon,Noord-Holland,VBO,4.804079,52.887985
Ceresplein,29,,,1764HD,Breezand,Hollands Kroon,Noord-Holland,VBO,4.804070,52.887987
Ceresplein,30,,,1764HD,Breezand,Hollands Kroon,Noord-Holland,VBO,4.804061,52.887990
Ceresplein,31,,,1764HD,Breezand,Hollands Kroon,Noord-Holland,VBO,4.804052,52.887993
Ceresplein,32,,,1764HD,Breezand,Hollands Kroon,Noord-Holland,VBO,4.804042,52.887995
Ceresplein,33,,,1764HD,Breezand,Hollands Kroon,Noord-Holland,VBO,4.804033,52.887998
Ceresplein,34,,,1764HD,Breezand,Hollands Kroon,Noord-Holland,VBO,4.804024,52.888000
Ceresplein,35,,,1764HD,Breezand,Hollands Kroon,Noord-Holland,VBO,4.804015,52.888003
Ceresplein,36,,,1764HD,Breezand,Hollands Kroon,Noord-Holland,VBO,4.804006,52.888006
Ceresplein,37,,,1764HD,Breezand,Hollands Kroon,Noord-Holland,VBO,4.803997,52.888008
Ceresplein,38,,,1764HD,Breezand,Hollands Kroon,Noord-Holland,VBO,4.803988,52.888011
Ceresplein,39,,,1764HD,Breezand,Hollands Kroon,Noord-Holland,VBO,4.803979,52.888014
Ceresplein,40,,,1764HD,Breezand,Hollands Kroon,Noord-Holland,VBO,4.803970,52.888016
Ceresplein,41,,,1764HD,Breezand,Hollands Kroon,Noord-Holland,VBO,4.803961,52.888019
Ceresplein,42,,,1764HD,Breezand,Hollands Kroon,Noord-Holland,VBO,4.803952,52.888021
Ceresplein,43,,,1764HD,Breezand,Hollands Kroon,Noord-Holland,VBO,4.803942,52.888024
Ceresplein,44,,,1764HD,Breezand,Hollands Kroon,Noord-Holland,VBO,4.803933,52.888027
Ceresplein,45,,,1764HD,Breezand,Hollands Kroon,Noord-Holland,VBO,4.803924,52.888029
Ceresplein,46,,,1764HD,Breezand,Hollands Kroon,Noord-Holland,VBO,4.803915,52.888032
Ceresplein,47,,,1764HD,Breezand,Hollands Kroon,Noord-Holland,VBO,4.803906,52.888034
Ceresplein,48,,,1764HD,Breezand,Hollands Kroon,Noord-Holland,VBO,4.803897,52.888037
Ceresplein,49,,,1764HD,Breezand,Hollands Kroon,Noord-Holland,VBO,4.803888,52.888040
Ceresplein,50,,,1764HD,Breezand,Hollands Kroon,Noord-Holland,VBO,4.803879,52.888042
Ceresplein,51,,,1764HD,Breezand,Hollands Kroon,Noord-Holland,VBO,4.803870,52.888045
Ceresplein,52,,,1764HD,Breezand,Hollands Kroon,Noord-Holland,VBO,4.803861,52.888047
Ceresplein,53,,,1764HD,Breezand,Hollands Kroon,Noord-Holland,VBO,4.803852,52.888050
Ceresplein,54,,,1764HD,Breezand,Hollands Kroon,Noord-Holland,VBO,4.803843,52.888053
Ceresplein,55,,,1764HD,Breezand,Hollands Kroon,Noord-Holland,VBO,4.803833,52.888055
Ceresplein,56,,,1764HD,Breezand,Hollands Kroon,Noord-Holland,VBO,4.803824,52.888058
Ceresplein,57,,,1764HD,Breezand,Hollands Kroon,Noord-Holland,VBO,4.803815,52.888060
Ceresplein,58,,,1764HD,Breezand,Hollands Kroon,Noord-Holland,VBO,4.803806,52.888063
Ceresplein,59,,,1764HD,Breezand,Hollands Kroon,Noord-Holland,VBO,4.803797,52.888066
Ceresplein,60,,,1764HD,Breezand,Hollands Kroon,Noord-Holland,VBO,4.803788,52.888068
Ceresplein,61,,,1764HD,Breezand,Hollands Kroon,Noord-Holland,VBO,4.803779,52.888071
Ceresplein,62,,,1764HD,Breezand,Hollands Kroon,Noord-Holland,VBO,4.803770,52.888074
Ceresplein,63,,,1764HD,Breezand,Hollands Kroon,Noord-Holland,VBO,4.803761,52.888076
Ceresplein,64,,,1764HD,Breezand,Hollands Kroon,Noord-Holland,VBO,4.803752,52.888079
Ceresplein,65,,,1764HD,Breezand,Hollands Kroon,Noord-Holland,VBO,4.803743,52.888081
Ceresplein,66,,,1764HD,Breezand,Hollands Kroon,Noord-Holland,VBO,4.803733,52.888084
Ceresplein,67,,,1764HD,Breezand,Hollands Kroon,Noord-Holland,VBO,4.803724,52.888087
Ceresplein,68,,,1764HD,Breezand,Hollands Kroon,Noord-Holland,VBO,4.803715,52.888089
Ceresplein,69,,,1764HD,Breezand,Hollands Kroon,Noord-Holland,VBO,4.803706,52.888092
Ceresplein,70,,,1764HD,Breezand,Hollands Kroon,Noord-Holland,VBO,4.803697,52.888094
Narcissenstraat,1,,,1764HE,Breezand,Hollands Kroon,Noord-Holland,VBO,4.801784,52.885132
Narcissenstraat,3,,,1764HE,Breezand,Hollands Kroon,Noord-Holland,VBO,4.801822,52.885174
Narcissenstraat,5,,,1764HE,Breezand,Hollands Kroon,Noord-Holland,VBO,4.801918,52.885275
Narcissenstraat,7,,,1764HE,Breezand,Hollands Kroon,Noord-Holland,VBO,4.801967,52.885324
Narcissenstraat,9,,,1764HE,Breezand,Hollands Kroon,Noord-Holland,VBO,4.802049,52.885417
Narcissenstraat,11,,,1764HE,Breezand,Hollands Kroon,Noord-Holland,VBO,4.802090,52.885457
Narcissenstraat,13,,,1764HE,Breezand,Hollands Kroon,Noord-Holland,VBO,4.802180,52.885554
Narcissenstraat,15,,,1764HE,Breezand,Hollands Kroon,Noord-Holland,VBO,4.802218,52.885597
Narcissenstraat,17,,,1764HE,Breezand,Hollands Kroon,Noord-Holland,VBO,4.802320,52.885701
Narcissenstraat,19,,,1764HE,Breezand,Hollands Kroon,Noord-Holland,VBO,4.802362,52.885744
Narcissenstraat,21,,,1764HE,Breezand,Hollands Kroon,Noord-Holland,VBO,4.802453,52.885846
Narcissenstraat,23,,,1764HE,Breezand,Hollands Kroon,Noord-Holland,VBO,4.802490,52.885884
Narcissenstraat,25,,,1764HE,Breezand,Hollands Kroon,Noord-Holland,VBO,4.802583,52.885985
Narcissenstraat,27,,,1764HE,Breezand,Hollands Kroon,Noord-Holland,VBO,4.802619,52.886025
Narcissenstraat,29,,,1764HG,Breezand,Hollands Kroon,Noord-Holland,VBO,4.802911,52.886448
Narcissenstraat,31,,,1764HG,Breezand,Hollands Kroon,Noord-Holland,VBO,4.802945,52.886484
Narcissenstraat,33,,,1764HG,Breezand,Hollands Kroon,Noord-Holland,VBO,4.802979,52.886519
Narcissenstraat,35,,,1764HG,Breezand,Hollands Kroon,Noord-Holland,VBO,4.803013,52.886555
Narcissenstraat,37,,,1764HG,Breezand,Hollands Kroon,Noord-Holland,VBO,4.803047,52.886590
Narcissenstraat,39,,,1764HG,Breezand,Hollands Kroon,Noord-Holland,VBO,4.803081,52.886626
Narcissenstraat,41,,,1764HG,Breezand,Hollands Kroon,Noord-Holland,VBO,4.803181,52.886734
Narcissenstraat,43,,,1764HG,Breezand,Hollands Kroon,Noord-Holland,VBO,4.803223,52.886780
Narcissenstraat,45,,,1764HG,Breezand,Hollands Kroon,Noord-Holland,VBO,4.803264,52.886827
Narcissenstraat,47,,,1764HG,Breezand,Hollands Kroon,Noord-Holland,VBO,4.803305,52.886874
Narcissenstraat,49,,,1764HG,Breezand,Hollands Kroon,Noord-Holland,VBO,4.803347,52.886921
Narcissenstraat,51,,,1764HG,Breezand,Hollands Kroon,Noord-Holland,VBO,4.803444,52.887017
Narcissenstraat,53,,,1764HG,Breezand,Hollands Kroon,Noord-Holland,VBO,4.803483,52.887060
Narcissenstraat,55,,,1764HG,Breezand,Hollands Kroon,Noord-Holland,VBO,4.803522,52.887103
Narcissenstraat,57,,,1764HG,Breezand,Hollands Kroon,Noord-Holland,VBO,4.803561,52.887146
Narcissenstraat,59,,,1764HG,Breezand,Hollands Kroon,Noord-Holland,VBO,4.803600,52.887190
Narcissenstraat,61,,,1764HG,Breezand,Hollands Kroon,Noord-Holland,VBO,4.803647,52.887392
Narcissenstraat,4,,,1764HH,Breezand,Hollands Kroon,Noord-Holland,VBO,4.802149,52.885190
Narcissenstraat,6,,,1764HH,Breezand,Hollands Kroon,Noord-Holland,VBO,4.802193,52.885235
Narcissenstraat,8,,,1764HH,Breezand,Hollands Kroon,Noord-Holland,VBO,4.802279,52.885332
Narcissenstraat,10,,,1764HH,Breezand,Hollands Kroon,Noord-Holland,VBO,4.802324,52.885379
Narcissenstraat,12,,,1764HH,Breezand,Hollands Kroon,Noord-Holland,VBO,4.802415,52.885480
Narcissenstraat,14,,,1764HH,Breezand,Hollands Kroon,Noord-Holland,VBO,4.802453,52.885522
Narcissenstraat,16,,,1764HH,Breezand,Hollands Kroon,Noord-Holland,VBO,4.802545,52.885622
Narcissenstraat,18,,,1764HH,Breezand,Hollands Kroon,Noord-Holland,VBO,4.802582,52.885663
Narcissenstraat,20,,,1764HH,Breezand,Hollands Kroon,Noord-Holland,VBO,4.802686,52.885759
Narcissenstraat,22,,,1764HH,Breezand,Hollands Kroon,Noord-Holland,VBO,4.802724,52.885800
Narcissenstraat,24,,,1764HH,Breezand,Hollands Kroon,Noord-Holland,VBO,4.802815,52.885898
Narcissenstraat,26,,,1764HH,Breezand,Hollands Kroon,Noord-Holland,VBO,4.802854,52.885940
Narcissenstraat,28,,,1764HJ,Breezand,Hollands Kroon,Noord-Holland,VBO,4.803309,52.886348
Narcissenstraat,30,,,1764HJ,Breezand,Hollands Kroon,Noord-Holland,VBO,4.803353,52.886396
Narcissenstraat,32,,,1764HJ,Breezand,Hollands Kroon,Noord-Holland,VBO,4.803397,52.886443
Narcissenstraat,34,,,1764HJ,Breezand,Hollands Kroon,Noord-Holland,VBO,4.803442,52.886490
Narcissenstraat,36,,,1764HJ,Breezand,Hollands Kroon,Noord-Holland,VBO,4.803582,52.886609
Narcissenstraat,38,,,1764HJ,Breezand,Hollands Kroon,Noord-Holland,VBO,4.803625,52.886656
Narcissenstraat,40,,,1764HJ,Breezand,Hollands Kroon,Noord-Holland,VBO,4.803668,52.886702
Narcissenstraat,42,,,1764HJ,Breezand,Hollands Kroon,Noord-Holland,VBO,4.803711,52.886749
Narcissenstraat,44,,,1764HJ,Breezand,Hollands Kroon,Noord-Holland,VBO,4.803799,52.886852
Narcissenstraat,46,,,1764HJ,Breezand,Hollands Kroon,Noord-Holland,VBO,4.803840,52.886895
Narcissenstraat,48,,,1764HJ,Breezand,Hollands Kroon,Noord-Holland,VBO,4.803881,52.886939
Narcissenstraat,50,,,1764HJ,Breezand,Hollands Kroon,Noord-Holland,VBO,4.803922,52.886982
Narcissenstraat,52,,,1764HJ,Breezand,Hollands Kroon,Noord-Holland,VBO,4.803997,52.887084
Narcissenstraat,54,,,1764HJ,Breezand,Hollands Kroon,Noord-Holland,VBO,4.804038,52.887129
Narcissenstraat,56,,,1764HJ,Breezand,Hollands Kroon,Noord-Holland,VBO,4.804080,52.887174
Narcissenstraat,58,,,1764HJ,Breezand,Hollands Kroon,Noord-Holland,VBO,4.804121,52.887218
Crocussenstraat,1,t,,1764HK,Breezand,Hollands Kroon,Noord-Holland,VBO,4.802440,52.886422
Crocussenstraat,1,,,1764HK,Breezand,Hollands Kroon,Noord-Holland,VBO,4.802567,52.886333
Crocussenstraat,2,,,1764HK,Breezand,Hollands Kroon,Noord-Holland,VBO,4.804103,52.885525
Crocussenstraat,3,,,1764HK,Breezand,Hollands Kroon,Noord-Holland,VBO,4.802627,52.886313
Crocussenstraat,4,,,1764HK,Breezand,Hollands Kroon,Noord-Holland,VBO,4.804183,52.885499
Crocussenstraat,5,,,1764HK,Breezand,Hollands Kroon,Noord-Holland,VBO,4.802688,52.886292
Crocussenstraat,6,,,1764HK,Breezand,Hollands Kroon,Noord-Holland,VBO,4.804262,52.885473
Crocussenstraat,7,,,1764HK,Breezand,Hollands Kroon,Noord-Holland,VBO,4.802748,52.886272
Crocussenstraat,8,,,1764HK,Breezand,Hollands Kroon,Noord-Holland,VBO,4.804341,52.885446
Crocussenstraat,9,,,1764HK,Breezand,Hollands Kroon,Noord-Holland,VBO,4.802808,52.886252
Crocussenstraat,10,,,1764HK,Breezand,Hollands Kroon,Noord-Holland,VBO,4.804421,52.885420
Crocussenstraat,11,,,1764HK,Breezand,Hollands Kroon,Noord-Holland,VBO,4.803085,52.886156
Crocussenstraat,13,,,1764HK,Breezand,Hollands Kroon,Noord-Holland,VBO,4.803156,52.886131
Crocussenstraat,15,,,1764HK,Breezand,Hollands Kroon,Noord-Holland,VBO,4.803228,52.886106
Crocussenstraat,17,,,1764HK,Breezand,Hollands Kroon,Noord-Holland,VBO,4.803300,52.886082
Crocussenstraat,19,,,1764HK,Breezand,Hollands Kroon,Noord-Holland,VBO,4.803452,52.886034
Crocussenstraat,21,,,1764HK,Breezand,Hollands Kroon,Noord-Holland,VBO,4.803531,52.886007
Crocussenstraat,23,,,1764HK,Breezand,Hollands Kroon,Noord-Holland,VBO,4.803610,52.885981
Crocussenstraat,25,,,1764HK,Breezand,Hollands Kroon,Noord-Holland,VBO,4.803689,52.885954
Crocussenstraat,27,,,1764HK,Breezand,Hollands Kroon,Noord-Holland,VBO,4.804275,52.885705
Crocussenstraat,29,,,1764HK,Breezand,Hollands Kroon,Noord-Holland,VBO,4.804352,52.885680
Crocussenstraat,31,,,1764HK,Breezand,Hollands Kroon,Noord-Holland,VBO,4.804428,52.885654
Crocussenstraat,33,,,1764HK,Breezand,Hollands Kroon,Noord-Holland,VBO,4.804505,52.885629
Crocussenstraat,35,,,1764HK,Breezand,Hollands Kroon,Noord-Holland,VBO,4.804581,52.885603
Hyacintenstraat,3,,,1764HL,Breezand,Hollands Kroon,Noord-Holland,VBO,4.802811,52.884976
Hyacintenstraat,5,,,1764HL,Breezand,Hollands Kroon,Noord-Holland,VBO,4.802852,52.885021
Hyacintenstraat,7,,,1764HL,Breezand,Hollands Kroon,Noord-Holland,VBO,4.802944,52.885118
Hyacintenstraat,9,,,1764HL,Breezand,Hollands Kroon,Noord-Holland,VBO,4.802979,52.885163
Hyacintenstraat,11,,,1764HL,Breezand,Hollands Kroon,Noord-Holland,VBO,4.803070,52.885258
Hyacintenstraat,13,,,1764HL,Breezand,Hollands Kroon,Noord-Holland,VBO,4.803104,52.885294
Hyacintenstraat,15,,,1764HL,Breezand,Hollands Kroon,Noord-Holland,VBO,4.803198,52.885397
Hyacintenstraat,17,,,1764HL,Breezand,Hollands Kroon,Noord-Holland,VBO,4.803236,52.885438
Hyacintenstraat,19,,,1764HL,Breezand,Hollands Kroon,Noord-Holland,VBO,4.803330,52.885536
Hyacintenstraat,21,,,1764HL,Breezand,Hollands Kroon,Noord-Holland,VBO,4.803369,52.885578
Hyacintenstraat,23,,,1764HL,Breezand,Hollands Kroon,Noord-Holland,VBO,4.803469,52.885680
Hyacintenstraat,25,,,1764HL,Breezand,Hollands Kroon,Noord-Holland,VBO,4.803501,52.885717
Hyacintenstraat,27,,,1764HL,Breezand,Hollands Kroon,Noord-Holland,VBO,4.803862,52.886162
Hyacintenstraat,29,,,1764HL,Breezand,Hollands Kroon,Noord-Holland,VBO,4.803910,52.886212
Hyacintenstraat,31,,,1764HL,Breezand,Hollands Kroon,Noord-Holland,VBO,4.803957,52.886262
Hyacintenstraat,33,,,1764HL,Breezand,Hollands Kroon,Noord-Holland,VBO,4.804005,52.886312
Hyacintenstraat,35,,,1764HL,Breezand,Hollands Kroon,Noord-Holland,VBO,4.804140,52.886449
Hyacintenstraat,37,,,1764HL,Breezand,Hollands Kroon,Noord-Holland,VBO,4.804184,52.886498
Hyacintenstraat,39,,,1764HL,Breezand,Hollands Kroon,Noord-Holland,VBO,4.804229,52.886547
Hyacintenstraat,41,,,1764HL,Breezand,Hollands Kroon,Noord-Holland,VBO,4.804273,52.886596
Hyacintenstraat,43,,,1764HL,Breezand,Hollands Kroon,Noord-Holland,VBO,4.804406,52.886741
Hyacintenstraat,45,,,1764HL,Breezand,Hollands Kroon,Noord-Holland,VBO,4.804450,52.886788
Hyacintenstraat,47,,,1764HL,Breezand,Hollands Kroon,Noord-Holland,VBO,4.804495,52.886835
Hyacintenstraat,49,,,1764HL,Breezand,Hollands Kroon,Noord-Holland,VBO,4.804539,52.886881
Hyacintenstraat,4,,,1764HM,Breezand,Hollands Kroon,Noord-Holland,VBO,4.802990,52.884823
Hyacintenstraat,6,,,1764HM,Breezand,Hollands Kroon,Noord-Holland,VBO,4.803157,52.884996
Hyacintenstraat,8,,,1764HM,Breezand,Hollands Kroon,Noord-Holland,VBO,4.803288,52.885086
Hyacintenstraat,10,,,1764HM,Breezand,Hollands Kroon,Noord-Holland,VBO,4.803373,52.885231
Hyacintenstraat,12,,,1764HM,Breezand,Hollands Kroon,Noord-Holland,VBO,4.803477,52.885326
Hyacintenstraat,14,,,1764HM,Breezand,Hollands Kroon,Noord-Holland,VBO,4.803552,52.885428
Hyacintenstraat,16,,,1764HM,Breezand,Hollands Kroon,Noord-Holland,VBO,4.803761,52.885568
Hyacintenstraat,18,,,1764HM,Breezand,Hollands Kroon,Noord-Holland,VBO,4.804037,52.885857
Hyacintenstraat,20,,,1764HM,Breezand,Hollands Kroon,Noord-Holland,VBO,4.804081,52.885904
Hyacintenstraat,22,,,1764HM,Breezand,Hollands Kroon,Noord-Holland,VBO,4.804126,52.885951
Hyacintenstraat,24,,,1764HM,Breezand,Hollands Kroon,Noord-Holland,VBO,4.804171,52.885998
Hyacintenstraat,26,,,1764HM,Breezand,Hollands Kroon,Noord-Holland,VBO,4.804215,52.886045
Hyacintenstraat,28,,,1764HM,Breezand,Hollands Kroon,Noord-Holland,VBO,4.804260,52.886092
Hyacintenstraat,30,,,1764HM,Breezand,Hollands Kroon,Noord-Holland,VBO,4.804371,52.886183
Hyacintenstraat,32,,,1764HM,Breezand,Hollands Kroon,Noord-Holland,VBO,4.804417,52.886230
Hyacintenstraat,34,,,1764HM,Breezand,Hollands Kroon,Noord-Holland,VBO,4.804462,52.886276
Hyacintenstraat,36,,,1764HM,Breezand,Hollands Kroon,Noord-Holland,VBO,4.804507,52.886323
Hyacintenstraat,38,,,1764HM,Breezand,Hollands Kroon,Noord-Holland,VBO,4.804552,52.886370
Hyacintenstraat,40,,,1764HM,Breezand,Hollands Kroon,Noord-Holland,VBO,4.804598,52.886417
Hyacintenstraat,42,,,1764HM,Breezand,Hollands Kroon,Noord-Holland,VBO,4.804668,52.886526
Hyacintenstraat,44,,,1764HM,Breezand,Hollands Kroon,Noord-Holland,VBO,4.804713,52.886573
Hyacintenstraat,46,,,1764HM,Breezand,Hollands Kroon,Noord-Holland,VBO,4.804759,52.886620
Hyacintenstraat,48,a,,1764HM,Breezand,Hollands Kroon,Noord-Holland,VBO,4.804871,52.886760
Hyacintenstraat,48,,,1764HM,Breezand,Hollands Kroon,Noord-Holland,VBO,4.804804,52.886667
Hyacintenstraat,50,,,1764HM,Breezand,Hollands Kroon,Noord-Holland,VBO,4.805015,52.886868
Tulpenstraat,1,,,1764HN,Breezand,Hollands Kroon,Noord-Holland,VBO,4.801192,52.885108
Tulpenstraat,3,,,1764HN,Breezand,Hollands Kroon,Noord-Holland,VBO,4.801267,52.885082
Tulpenstraat,5,,,1764HN,Breezand,Hollands Kroon,Noord-Holland,VBO,4.801556,52.884993
Tulpenstraat,7,,,1764HN,Breezand,Hollands Kroon,Noord-Holland,VBO,4.802133,52.885022
Tulpenstraat,9,,,1764HN,Breezand,Hollands Kroon,Noord-Holland,VBO,4.802219,52.884992
Tulpenstraat,11,,,1764HN,Breezand,Hollands Kroon,Noord-Holland,VBO,4.802492,52.884901
Tulpenstraat,13,,,1764HN,Breezand,Hollands Kroon,Noord-Holland,VBO,4.802567,52.884877
Tulpenstraat,15,,,1764HN,Breezand,Hollands Kroon,Noord-Holland,VBO,4.802818,52.884576
Tulpenstraat,17,,,1764HN,Breezand,Hollands Kroon,Noord-Holland,VBO,4.803135,52.884468
Tulpenstraat,19,,,1764HN,Breezand,Hollands Kroon,Noord-Holland,VBO,4.803383,52.884402
Tulpenstraat,2,,,1764HP,Breezand,Hollands Kroon,Noord-Holland,VBO,4.801164,52.884907
Tulpenstraat,4,,,1764HP,Breezand,Hollands Kroon,Noord-Holland,VBO,4.801241,52.884880
Tulpenstraat,6,,,1764HP,Breezand,Hollands Kroon,Noord-Holland,VBO,4.801317,52.884852
Tulpenstraat,8,,,1764HP,Breezand,Hollands Kroon,Noord-Holland,VBO,4.801394,52.884825
Tulpenstraat,10,,,1764HP,Breezand,Hollands Kroon,Noord-Holland,VBO,4.801495,52.884751
Tulpenstraat,12,,,1764HP,Breezand,Hollands Kroon,Noord-Holland,VBO,4.801568,52.884725
Tulpenstraat,14,,,1764HP,Breezand,Hollands Kroon,Noord-Holland,VBO,4.801641,52.884700
Tulpenstraat,16,,,1764HP,Breezand,Hollands Kroon,Noord-Holland,VBO,4.801715,52.884674
Tulpenstraat,18,,,1764HP,Breezand,Hollands Kroon,Noord-Holland,VBO,4.801788,52.884648
Tulpenstraat,20,,,1764HP,Breezand,Hollands Kroon,Noord-Holland,VBO,4.801861,52.884623
Tulpenstraat,22,,,1764HP,Breezand,Hollands Kroon,Noord-Holland,VBO,4.801935,52.884597
Tulpenstraat,24,,,1764HP,Breezand,Hollands Kroon,Noord-Holland,VBO,4.802106,52.884538
Tulpenstraat,26,,,1764HP,Breezand,Hollands Kroon,Noord-Holland,VBO,4.802178,52.884513
Tulpenstraat,28,,,1764HP,Breezand,Hollands Kroon,Noord-Holland,VBO,4.802251,52.884488
Tulpenstraat,30,,,1764HP,Breezand,Hollands Kroon,Noord-Holland,VBO,4.802323,52.884463
Tulpenstraat,32,,,1764HP,Breezand,Hollands Kroon,Noord-Holland,VBO,4.802396,52.884438
Tulpenstraat,34,,,1764HP,Breezand,Hollands Kroon,Noord-Holland,VBO,4.802468,52.884413
Tulpenstraat,36,,,1764HP,Breezand,Hollands Kroon,Noord-Holland,VBO,4.802540,52.884388
Tulpenstraat,38,,,1764HP,Breezand,Hollands Kroon,Noord-Holland,VBO,4.802726,52.884355
Tulpenstraat,40,,,1764HP,Breezand,Hollands Kroon,Noord-Holland,VBO,4.802800,52.884329
Tulpenstraat,42,,,1764HP,Breezand,Hollands Kroon,Noord-Holland,VBO,4.802873,52.884304
Tulpenstraat,44,,,1764HP,Breezand,Hollands Kroon,Noord-Holland,VBO,4.802947,52.884279
Tulpenstraat,46,,,1764HP,Breezand,Hollands Kroon,Noord-Holland,VBO,4.803020,52.884253
Tulpenstraat,48,a,,1764HP,Breezand,Hollands Kroon,Noord-Holland,VBO,4.803067,52.884097
Tulpenstraat,48,b,,1764HP,Breezand,Hollands Kroon,Noord-Holland,VBO,4.803044,52.884072
Tulpenstraat,48,c,,1764HP,Breezand,Hollands Kroon,Noord-Holland,VBO,4.803021,52.884047
Tulpenstraat,48,d,,1764HP,Breezand,Hollands Kroon,Noord-Holland,VBO,4.802998,52.884023
Tulpenstraat,48,e,,1764HP,Breezand,Hollands Kroon,Noord-Holland,VBO,4.802975,52.883998
Tulpenstraat,48,,,1764HP,Breezand,Hollands Kroon,Noord-Holland,VBO,4.803094,52.884228
Tulpenstraat,50,,,1764HP,Breezand,Hollands Kroon,Noord-Holland,VBO,4.803396,52.884030
Tulpenstraat,52,,,1764HP,Breezand,Hollands Kroon,Noord-Holland,VBO,4.803638,52.883941
Tulpenstraat,54,,,1764HP,Breezand,Hollands Kroon,Noord-Holland,VBO,4.803867,52.883846
Tulpenstraat,56,,,1764HP,Breezand,Hollands Kroon,Noord-Holland,VBO,4.804094,52.883780
Wallerweg,1,a,,1764HR,Breezand,Hollands Kroon,Noord-Holland,VBO,4.811195,52.880557
Wallerweg,1,b,,1764HR,Breezand,Hollands Kroon,Noord-Holland,VBO,4.810840,52.880448
Wallerweg,1,,,1764HR,Breezand,Hollands Kroon,Noord-Holland,VBO,4.813161,52.878929
Wallerweg,5,,,1764HR,Breezand,Hollands Kroon,Noord-Holland,VBO,4.810294,52.880864
Wallerweg,7,a,,1764HR,Breezand,Hollands Kroon,Noord-Holland,VBO,4.807363,52.881823
Wallerweg,7,b,,1764HR,Breezand,Hollands Kroon,Noord-Holland,VBO,4.807824,52.881666
Wallerweg,7,,,1764HR,Breezand,Hollands Kroon,Noord-Holland,VBO,4.808031,52.881641
Wallerweg,9,a,,1764HR,Breezand,Hollands Kroon,Noord-Holland,VBO,4.805495,52.882240
Wallerweg,9,,,1764HR,Breezand,Hollands Kroon,Noord-Holland,VBO,4.805974,52.882364
Wallerweg,11,,,1764HR,Breezand,Hollands Kroon,Noord-Holland,VBO,4.805401,52.882532
Wallerweg,13,,,1764HR,Breezand,Hollands Kroon,Noord-Holland,VBO,4.804236,52.882921
Wallerweg,15,a,,1764HR,Breezand,Hollands Kroon,Noord-Holland,VBO,4.803228,52.883269
Wallerweg,15,,,1764HR,Breezand,Hollands Kroon,Noord-Holland,VBO,4.802861,52.883405
Wallerweg,17,,,1764HR,Breezand,Hollands Kroon,Noord-Holland,VBO,4.802114,52.883662
Wallerweg,19,,,1764HR,Breezand,Hollands Kroon,Noord-Holland,VBO,4.801848,52.883760
Wallerweg,21,,,1764HR,Breezand,Hollands Kroon,Noord-Holland,VBO,4.801600,52.883839
Wallerweg,23,,,1764HR,Breezand,Hollands Kroon,Noord-Holland,VBO,4.801319,52.883933
Wallerweg,25,,,1764HR,Breezand,Hollands Kroon,Noord-Holland,VBO,4.801090,52.884020
Wallerweg,2,,,1764HS,Breezand,Hollands Kroon,Noord-Holland,VBO,4.813900,52.879954
Wallerweg,4,,,1764HS,Breezand,Hollands Kroon,Noord-Holland,VBO,4.813260,52.880204
Wallerweg,6,a,,1764HS,Breezand,Hollands Kroon,Noord-Holland,VBO,4.811918,52.880672
Wallerweg,6,b,,1764HS,Breezand,Hollands Kroon,Noord-Holland,VBO,4.811312,52.880830
Wallerweg,6,,,1764HS,Breezand,Hollands Kroon,Noord-Holland,VBO,4.812213,52.880524
Wallerweg,8,,,1764HS,Breezand,Hollands Kroon,Noord-Holland,VBO,4.810005,52.881299
Wallerweg,10,,,1764HS,Breezand,Hollands Kroon,Noord-Holland,VBO,4.808830,52.881723
Wallerweg,14,,,1764HS,Breezand,Hollands Kroon,Noord-Holland,VBO,4.807345,52.882265
Wallerweg,16,,,1764HS,Breezand,Hollands Kroon,Noord-Holland,VBO,4.804986,52.883074
Wallerweg,18,,,1764HS,Breezand,Hollands Kroon,Noord-Holland,VBO,4.804585,52.883166
Wallerweg,20,a,,1764HS,Breezand,Hollands Kroon,Noord-Holland,VBO,4.803815,52.883446
Wallerweg,20,b,,1764HS,Breezand,Hollands Kroon,Noord-Holland,VBO,4.803509,52.883514
Wallerweg,20,c,,1764HS,Breezand,Hollands Kroon,Noord-Holland,VBO,4.803286,52.883598
Wallerweg,20,d,,1764HS,Breezand,Hollands Kroon,Noord-Holland,VBO,4.803036,52.883687
Wallerweg,20,,,1764HS,Breezand,Hollands Kroon,Noord-Holland,VBO,4.804119,52.883332
Wallerweg,22,,,1764HS,Breezand,Hollands Kroon,Noord-Holland,VBO,4.802641,52.883821
Wallerweg,24,,,1764HS,Breezand,Hollands Kroon,Noord-Holland,VBO,4.802487,52.883866
Wallerweg,26,,,1764HS,Breezand,Hollands Kroon,Noord-Holland,VBO,4.802315,52.883931
Wallerweg,28,,,1764HS,Breezand,Hollands Kroon,Noord-Holland,VBO,4.802248,52.883954
Wallerweg,30,,,1764HS,Breezand,Hollands Kroon,Noord-Holland,VBO,4.802063,52.884016
Wallerweg,32,,,1764HS,Breezand,Hollands Kroon,Noord-Holland,VBO,4.801892,52.884078
Wallerweg,34,,,1764HS,Breezand,Hollands Kroon,Noord-Holland,VBO,4.801807,52.884107
Wallerweg,36,,,1764HS,Breezand,Hollands Kroon,Noord-Holland,VBO,4.801650,52.884160
Wallerweg,38,,,1764HS,Breezand,Hollands Kroon,Noord-Holland,VBO,4.801569,52.884186
Wallerweg,40,,,1764HS,Breezand,Hollands Kroon,Noord-Holland,VBO,4.801411,52.884240
Wallerweg,42,,,1764HS,Breezand,Hollands Kroon,Noord-Holland,VBO,4.801324,52.884269
Wallerweg,44,,,1764HS,Breezand,Hollands Kroon,Noord-Holland,VBO,4.801172,52.884324
Wallerweg,46,a,,1764HS,Breezand,Hollands Kroon,Noord-Holland,VBO,4.800971,52.884390
Wallerweg,46,,,1764HS,Breezand,Hollands Kroon,Noord-Holland,VBO,4.801086,52.884352
Wallerweg,48,,,1764HS,Breezand,Hollands Kroon,Noord-Holland,VBO,4.800795,52.884451
Wallerweg,50,,,1764HS,Breezand,Hollands Kroon,Noord-Holland,VBO,4.800716,52.884481
Irissenstraat,1,,,1764HT,Breezand,Hollands Kroon,Noord-Holland,VBO,4.803884,52.884266
Irissenstraat,2,,,1764HT,Breezand,Hollands Kroon,Noord-Holland,VBO,4.804076,52.884037
Irissenstraat,3,,,1764HT,Breezand,Hollands Kroon,Noord-Holland,VBO,4.804003,52.884405
Irissenstraat,4,,,1764HT,Breezand,Hollands Kroon,Noord-Holland,VBO,4.804202,52.884167
Irissenstraat,5,,,1764HT,Breezand,Hollands Kroon,Noord-Holland,VBO,4.804047,52.884454
Irissenstraat,6,,,1764HT,Breezand,Hollands Kroon,Noord-Holland,VBO,4.804380,52.884324
Irissenstraat,7,,,1764HT,Breezand,Hollands Kroon,Noord-Holland,VBO,4.804151,52.884561
Irissenstraat,8,,,1764HT,Breezand,Hollands Kroon,Noord-Holland,VBO,4.804504,52.884479
Irissenstraat,9,,,1764HT,Breezand,Hollands Kroon,Noord-Holland,VBO,4.804192,52.884606
Irissenstraat,10,,,1764HT,Breezand,Hollands Kroon,Noord-Holland,VBO,4.804644,52.884622
Irissenstraat,11,,,1764HT,Breezand,Hollands Kroon,Noord-Holland,VBO,4.804299,52.884718
Irissenstraat,12,,,1764HT,Breezand,Hollands Kroon,Noord-Holland,VBO,4.804779,52.884775
Irissenstraat,13,,,1764HT,Breezand,Hollands Kroon,Noord-Holland,VBO,4.804340,52.884761
Irissenstraat,14,,,1764HT,Breezand,Hollands Kroon,Noord-Holland,VBO,4.804913,52.884911
Irissenstraat,15,,,1764HT,Breezand,Hollands Kroon,Noord-Holland,VBO,4.804449,52.884871
Irissenstraat,16,,,1764HT,Breezand,Hollands Kroon,Noord-Holland,VBO,4.805080,52.885055
Irissenstraat,17,,,1764HT,Breezand,Hollands Kroon,Noord-Holland,VBO,4.804490,52.884914
Irissenstraat,18,,,1764HT,Breezand,Hollands Kroon,Noord-Holland,VBO,4.805212,52.885221
Irissenstraat,19,,,1764HT,Breezand,Hollands Kroon,Noord-Holland,VBO,4.804590,52.885030
Irissenstraat,21,,,1764HT,Breezand,Hollands Kroon,Noord-Holland,VBO,4.804628,52.885073
Irissenstraat,23,,,1764HT,Breezand,Hollands Kroon,Noord-Holland,VBO,4.804758,52.885200
Irissenstraat,25,,,1764HT,Breezand,Hollands Kroon,Noord-Holland,VBO,4.805013,52.885556
Irissenstraat,27,,,1764HT,Breezand,Hollands Kroon,Noord-Holland,VBO,4.805063,52.885600
Irissenstraat,28,,,1764HT,Breezand,Hollands Kroon,Noord-Holland,VBO,4.806977,52.885182
Irissenstraat,29,,,1764HT,Breezand,Hollands Kroon,Noord-Holland,VBO,4.805147,52.885692
Irissenstraat,30,,,1764HT,Breezand,Hollands Kroon,Noord-Holland,VBO,4.807072,52.885151
Irissenstraat,31,,,1764HT,Breezand,Hollands Kroon,Noord-Holland,VBO,4.805189,52.885738
Irissenstraat,32,,,1764HT,Breezand,Hollands Kroon,Noord-Holland,VBO,4.807231,52.885112
Irissenstraat,34,,,1764HT,Breezand,Hollands Kroon,Noord-Holland,VBO,4.807317,52.885087
Irissenstraat,36,,,1764HT,Breezand,Hollands Kroon,Noord-Holland,VBO,4.807815,52.884888
Irissenstraat,38,,,1764HT,Breezand,Hollands Kroon,Noord-Holland,VBO,4.807919,52.884854
Irissenstraat,39,,,1764HT,Breezand,Hollands Kroon,Noord-Holland,VBO,4.805714,52.885983
Irissenstraat,40,,,1764HT,Breezand,Hollands Kroon,Noord-Holland,VBO,4.808076,52.884815
Irissenstraat,41,,,1764HT,Breezand,Hollands Kroon,Noord-Holland,VBO,4.805796,52.885957
Irissenstraat,42,,,1764HT,Breezand,Hollands Kroon,Noord-Holland,VBO,4.808180,52.884764
Irissenstraat,43,,,1764HT,Breezand,Hollands Kroon,Noord-Holland,VBO,4.805955,52.885908
Irissenstraat,45,,,1764HT,Breezand,Hollands Kroon,Noord-Holland,VBO,4.806029,52.885885
Keizerskroon,1,,,1764HV,Breezand,Hollands Kroon,Noord-Holland,VBO,4.806623,52.884386
Keizerskroon,2,,,1764HV,Breezand,Hollands Kroon,Noord-Holland,VBO,4.807196,52.884136
Keizerskroon,3,,,1764HV,Breezand,Hollands Kroon,Noord-Holland,VBO,4.806662,52.884424
Keizerskroon,4,,,1764HV,Breezand,Hollands Kroon,Noord-Holland,VBO,4.807269,52.884219
Keizerskroon,5,,,1764HV,Breezand,Hollands Kroon,Noord-Holland,VBO,4.806699,52.884464
Keizerskroon,6,,,1764HV,Breezand,Hollands Kroon,Noord-Holland,VBO,4.807311,52.884258
Keizerskroon,7,,,1764HV,Breezand,Hollands Kroon,Noord-Holland,VBO,4.806737,52.884503
Keizerskroon,8,,,1764HV,Breezand,Hollands Kroon,Noord-Holland,VBO,4.807348,52.884297
Keizerskroon,9,,,1764HV,Breezand,Hollands Kroon,Noord-Holland,VBO,4.806781,52.884550
Keizerskroon,10,,,1764HV,Breezand,Hollands Kroon,Noord-Holland,VBO,4.807378,52.884324
Keizerskroon,11,,,1764HV,Breezand,Hollands Kroon,Noord-Holland,VBO,4.806823,52.884593
Keizerskroon,12,,,1764HV,Breezand,Hollands Kroon,Noord-Holland,VBO,4.807421,52.884368
Keizerskroon,13,,,1764HV,Breezand,Hollands Kroon,Noord-Holland,VBO,4.806918,52.884696
Keizerskroon,14,,,1764HV,Breezand,Hollands Kroon,Noord-Holland,VBO,4.807529,52.884478
Keizerskroon,15,,,1764HV,Breezand,Hollands Kroon,Noord-Holland,VBO,4.806962,52.884736
Keizerskroon,16,,,1764HV,Breezand,Hollands Kroon,Noord-Holland,VBO,4.807563,52.884521
Keizerskroon,17,,,1764HV,Breezand,Hollands Kroon,Noord-Holland,VBO,4.806998,52.884780
Keizerskroon,18,,,1764HV,Breezand,Hollands Kroon,Noord-Holland,VBO,4.807602,52.884565
Keizerskroon,19,,,1764HV,Breezand,Hollands Kroon,Noord-Holland,VBO,4.807021,52.884801
Keizerskroon,20,,,1764HV,Breezand,Hollands Kroon,Noord-Holland,VBO,4.807639,52.884604
Keizerskroon,21,,,1764HV,Breezand,Hollands Kroon,Noord-Holland,VBO,4.807091,52.884849
Keizerskroon,22,,,1764HV,Breezand,Hollands Kroon,Noord-Holland,VBO,4.807669,52.884653
Keizerskroon,23,,,1764HV,Breezand,Hollands Kroon,Noord-Holland,VBO,4.807137,52.884882
Keizerskroon,24,,,1764HV,Breezand,Hollands Kroon,Noord-Holland,VBO,4.807706,52.884696
Muscarilaan,1,,,1764HW,Breezand,Hollands Kroon,Noord-Holland,VBO,4.806632,52.885064
Muscarilaan,3,,,1764HW,Breezand,Hollands Kroon,Noord-Holland,VBO,4.806593,52.885018
Muscarilaan,5,,,1764HW,Breezand,Hollands Kroon,Noord-Holland,VBO,4.806482,52.884902
Muscarilaan,7,,,1764HW,Breezand,Hollands Kroon,Noord-Holland,VBO,4.806448,52.884863
Muscarilaan,9,,,1764HW,Breezand,Hollands Kroon,Noord-Holland,VBO,4.806342,52.884742
Muscarilaan,11,,,1764HW,Breezand,Hollands Kroon,Noord-Holland,VBO,4.806307,52.884704
Muscarilaan,13,,,1764HW,Breezand,Hollands Kroon,Noord-Holland,VBO,4.806192,52.884589
Muscarilaan,15,,,1764HW,Breezand,Hollands Kroon,Noord-Holland,VBO,4.806158,52.884552
Dahlialaan,2,,,1764HX,Breezand,Hollands Kroon,Noord-Holland,VBO,4.807847,52.883391
Gladiolenlaan,3,,,1764HZ,Breezand,Hollands Kroon,Noord-Holland,VBO,4.806122,52.884301
Gladiolenlaan,5,,,1764HZ,Breezand,Hollands Kroon,Noord-Holland,VBO,4.806213,52.884262
Gladiolenlaan,7,,,1764HZ,Breezand,Hollands Kroon,Noord-Holland,VBO,4.806380,52.884210
Gladiolenlaan,9,,,1764HZ,Breezand,Hollands Kroon,Noord-Holland,VBO,4.806461,52.884182
Gladiolenlaan,21,,,1764HZ,Breezand,Hollands Kroon,Noord-Holland,VBO,4.807694,52.884008
Gladiolenlaan,23,,,1764HZ,Breezand,Hollands Kroon,Noord-Holland,VBO,4.807730,52.884050
Gladiolenlaan,25,,,1764HZ,Breezand,Hollands Kroon,Noord-Holland,VBO,4.807848,52.884174
Gladiolenlaan,27,,,1764HZ,Breezand,Hollands Kroon,Noord-Holland,VBO,4.807881,52.884208
Gladiolenlaan,29,,,1764HZ,Breezand,Hollands Kroon,Noord-Holland,VBO,4.807991,52.884332
Gladiolenlaan,31,,,1764HZ,Breezand,Hollands Kroon,Noord-Holland,VBO,4.808030,52.884366
Gladiolenlaan,33,,,1764HZ,Breezand,Hollands Kroon,Noord-Holland,VBO,4.808145,52.884483
Gladiolenlaan,35,,,1764HZ,Breezand,Hollands Kroon,Noord-Holland,VBO,4.808178,52.884518
Gladiolenlaan,40,,,1764HZ,Breezand,Hollands Kroon,Noord-Holland,VBO,4.810129,52.886054
Gladiolenlaan,53,,,1764HZ,Breezand,Hollands Kroon,Noord-Holland,VBO,4.809747,52.886149
Balgweg,3,,,1764KA,Breezand,Hollands Kroon,Noord-Holland,VBO,4.867274,52.886717
Balgweg,5,,,1764KA,Breezand,Hollands Kroon,Noord-Holland,VBO,4.865524,52.887381
Balgweg,7,,,1764KA,Breezand,Hollands Kroon,Noord-Holland,VBO,4.865363,52.887451
Balgweg,9,a,,1764KA,Breezand,Hollands Kroon,Noord-Holland,VBO,4.864776,52.887477
Balgweg,9,,,1764KA,Breezand,Hollands Kroon,Noord-Holland,VBO,4.864659,52.887656
Balgweg,11,a,,1764KA,Breezand,Hollands Kroon,Noord-Holland,VBO,4.861098,52.888888
Balgweg,11,,,1764KA,Breezand,Hollands Kroon,Noord-Holland,VBO,4.861489,52.888901
Balgweg,13,,,1764KA,Breezand,Hollands Kroon,Noord-Holland,VBO,4.860320,52.889337
Balgweg,15,,,1764KA,Breezand,Hollands Kroon,Noord-Holland,VBO,4.858587,52.889939
Balgweg,17,,,1764KA,Breezand,Hollands Kroon,Noord-Holland,VBO,4.858388,52.890008
Balgweg,19,,,1764KA,Breezand,Hollands Kroon,Noord-Holland,VBO,4.853229,52.891803
Balgweg,21,,,1764KA,Breezand,Hollands Kroon,Noord-Holland,VBO,4.848440,52.893553
Balgweg,23,,,1764KA,Breezand,Hollands Kroon,Noord-Holland,VBO,4.847571,52.893843
Balgweg,25,,,1764KA,Breezand,Hollands Kroon,Noord-Holland,VBO,4.846787,52.894163
Balgweg,27,a,,1764KA,Breezand,Hollands Kroon,Noord-Holland,VBO,4.843767,52.895033
Balgweg,27,,,1764KA,Breezand,Hollands Kroon,Noord-Holland,VBO,4.845385,52.894242
Balgweg,29,a,,1764KA,Breezand,Hollands Kroon,Noord-Holland,VBO,4.841185,52.896190
Balgweg,29,,,1764KA,Breezand,Hollands Kroon,Noord-Holland,VBO,4.842122,52.895791
Balgweg,4,a,,1764KB,Breezand,Hollands Kroon,Noord-Holland,VBO,4.842630,52.896073
Balgweg,4,,,1764KB,Breezand,Hollands Kroon,Noord-Holland,VBO,4.842408,52.896166
Balgweg,6,,,1764KB,Breezand,Hollands Kroon,Noord-Holland,VBO,4.841369,52.896615
Balgweg,8,,,1764KB,Breezand,Hollands Kroon,Noord-Holland,VBO,4.835782,52.898482
Balgweg,10,,,1764KB,Breezand,Hollands Kroon,Noord-Holland,VBO,4.835681,52.898519
Balgweg,12,,,1764KB,Breezand,Hollands Kroon,Noord-Holland,VBO,4.834585,52.898900
Balgweg,14,,,1764KB,Breezand,Hollands Kroon,Noord-Holland,VBO,4.818158,52.904837
Balgweg,31,a,,1764KB,Breezand,Hollands Kroon,Noord-Holland,VBO,4.839879,52.896546
Balgweg,31,,,1764KB,Breezand,Hollands Kroon,Noord-Holland,VBO,4.839586,52.896659
Balgweg,33,,,1764KB,Breezand,Hollands Kroon,Noord-Holland,VBO,4.839392,52.896857
Balgweg,35,,,1764KB,Breezand,Hollands Kroon,Noord-Holland,VBO,4.839097,52.896929
Balgweg,37,,,1764KB,Breezand,Hollands Kroon,Noord-Holland,VBO,4.838844,52.897006
Balgweg,41,,,1764KB,Breezand,Hollands Kroon,Noord-Holland,VBO,4.828398,52.900757
Balgweg,43,,,1764KB,Breezand,Hollands Kroon,Noord-Holland,VBO,4.827856,52.900971
Balgweg,45,a,,1764KB,Breezand,Hollands Kroon,Noord-Holland,VBO,4.825526,52.901739
Balgweg,45,,,1764KB,Breezand,Hollands Kroon,Noord-Holland,VBO,4.825913,52.901653
Balgweg,47,a,,1764KB,Breezand,Hollands Kroon,Noord-Holland,VBO,4.824929,52.901986
Balgweg,47,,,1764KB,Breezand,Hollands Kroon,Noord-Holland,VBO,4.825258,52.901894
Balgweg,49,a,,1764KB,Breezand,Hollands Kroon,Noord-Holland,VBO,4.822943,52.902740
Balgweg,49,b,,1764KB,Breezand,Hollands Kroon,Noord-Holland,VBO,4.822597,52.902840
Balgweg,49,,,1764KB,Breezand,Hollands Kroon,Noord-Holland,VBO,4.824180,52.902282
Balgweg,51,a,,1764KB,Breezand,Hollands Kroon,Noord-Holland,VBO,4.821577,52.903224
Balgweg,51,,,1764KB,Breezand,Hollands Kroon,Noord-Holland,VBO,4.822289,52.902965
Balgweg,53,,,1764KB,Breezand,Hollands Kroon,Noord-Holland,VBO,4.820274,52.903682
Balgweg,16,a,,1764KC,Breezand,Hollands Kroon,Noord-Holland,VBO,4.812967,52.906751
Balgweg,16,,,1764KC,Breezand,Hollands Kroon,Noord-Holland,VBO,4.816195,52.905525
Balgweg,57,,,1764KC,Breezand,Hollands Kroon,Noord-Holland,VBO,4.817940,52.904573
Balgweg,59,,,1764KC,Breezand,Hollands Kroon,Noord-Holland,VBO,4.815447,52.905414
Balgweg,61,,,1764KC,Breezand,Hollands Kroon,Noord-Holland,VBO,4.815365,52.905445
Balgweg,63,a,,1764KC,Breezand,Hollands Kroon,Noord-Holland,VBO,4.815134,52.905532
Balgweg,63,b,,1764KC,Breezand,Hollands Kroon,Noord-Holland,VBO,4.814869,52.905630
Balgweg,63,c,,1764KC,Breezand,Hollands Kroon,Noord-Holland,VBO,4.814641,52.905251
Balgweg,63,,,1764KC,Breezand,Hollands Kroon,Noord-Holland,VBO,4.815005,52.905136
Balgweg,65,,,1764KC,Breezand,Hollands Kroon,Noord-Holland,VBO,4.814662,52.905701
Balgweg,67,,,1764KC,Breezand,Hollands Kroon,Noord-Holland,VBO,4.814571,52.905734
Balgweg,69,,,1764KC,Breezand,Hollands Kroon,Noord-Holland,VBO,4.814164,52.905828
Balgweg,73,,,1764KC,Breezand,Hollands Kroon,Noord-Holland,VBO,4.813996,52.905925
Balgweg,75,,,1764KC,Breezand,Hollands Kroon,Noord-Holland,VBO,4.813684,52.906058
Balgweg,77,,,1764KC,Breezand,Hollands Kroon,Noord-Holland,VBO,4.813202,52.906222
Balgweg,79,,,1764KC,Breezand,Hollands Kroon,Noord-Holland,VBO,4.812857,52.906350
Balgweg,81,,,1764KC,Breezand,Hollands Kroon,Noord-Holland,VBO,4.812424,52.906501
Balgweg,83,a,,1764KD,Breezand,Hollands Kroon,Noord-Holland,VBO,4.811304,52.906895
Balgweg,83,,,1764KD,Breezand,Hollands Kroon,Noord-Holland,VBO,4.811821,52.906738
Balgweg,85,,,1764KD,Breezand,Hollands Kroon,Noord-Holland,VBO,4.810996,52.907007
Balgweg,87,,,1764KD,Breezand,Hollands Kroon,Noord-Holland,VBO,4.810580,52.907171
Balgweg,89,a,,1764KD,Breezand,Hollands Kroon,Noord-Holland,VBO,4.807915,52.908128
Balgweg,89,,,1764KD,Breezand,Hollands Kroon,Noord-Holland,VBO,4.809022,52.907670
Balgweg,91,,,1764KD,Breezand,Hollands Kroon,Noord-Holland,VBO,4.806105,52.908711
Balgweg,97,,,1764KD,Breezand,Hollands Kroon,Noord-Holland,VBO,4.802964,52.909944
Balgweg,99,,,1764KD,Breezand,Hollands Kroon,Noord-Holland,VBO,4.802481,52.910068
Balgweg,101,a,,1764KD,Breezand,Hollands Kroon,Noord-Holland,VBO,4.801393,52.910167
Balgweg,101,,,1764KD,Breezand,Hollands Kroon,Noord-Holland,VBO,4.801868,52.910172
Balgweg,103,,,1764KD,Breezand,Hollands Kroon,Noord-Holland,VBO,4.802152,52.910430
Balgweg,105,,,1764KD,Breezand,Hollands Kroon,Noord-Holland,VBO,4.797985,52.911759
Balgweg,111,,,1764KD,Breezand,Hollands Kroon,Noord-Holland,VBO,4.795470,52.911452
Balgweg,113,,W001,1764KD,Breezand,Hollands Kroon,Noord-Holland,VBO,4.790319,52.903474
Balgweg,113,,,1764KD,Breezand,Hollands Kroon,Noord-Holland,VBO,4.790029,52.903566
Meerweg,1,,,1764KE,Breezand,Hollands Kroon,Noord-Holland,VBO,4.855740,52.875395
Meerweg,2,,,1764KE,Breezand,Hollands Kroon,Noord-Holland,VBO,4.859150,52.874813
Meerweg,4,,,1764KE,Breezand,Hollands Kroon,Noord-Holland,VBO,4.857505,52.875348
Meerweg,6,,,1764KE,Breezand,Hollands Kroon,Noord-Holland,VBO,4.849616,52.878073
Meerweg,7,,,1764KE,Breezand,Hollands Kroon,Noord-Holland,VBO,4.845957,52.878934
Meerweg,8,,,1764KE,Breezand,Hollands Kroon,Noord-Holland,VBO,4.847935,52.878634
Meerweg,9,,,1764KE,Breezand,Hollands Kroon,Noord-Holland,VBO,4.845180,52.879206
Meerweg,10,,,1764KE,Breezand,Hollands Kroon,Noord-Holland,VBO,4.847446,52.878823
Meerweg,11,,,1764KE,Breezand,Hollands Kroon,Noord-Holland,VBO,4.843942,52.879612
Meerweg,12,a,,1764KE,Breezand,Hollands Kroon,Noord-Holland,VBO,4.846343,52.879190
Meerweg,12,,,1764KE,Breezand,Hollands Kroon,Noord-Holland,VBO,4.847080,52.879011
Meerweg,13,,,1764KE,Breezand,Hollands Kroon,Noord-Holland,VBO,4.843268,52.879908
Meerweg,14,,,1764KE,Breezand,Hollands Kroon,Noord-Holland,VBO,4.843626,52.880082
Meerweg,15,,,1764KE,Breezand,Hollands Kroon,Noord-Holland,VBO,4.839072,52.881326
Meerweg,16,,,1764KE,Breezand,Hollands Kroon,Noord-Holland,VBO,4.842743,52.880378
Meerweg,17,a,,1764KE,Breezand,Hollands Kroon,Noord-Holland,VBO,4.837112,52.881242
Meerweg,17,,,1764KE,Breezand,Hollands Kroon,Noord-Holland,VBO,4.837868,52.881638
Meerweg,18,,,1764KE,Breezand,Hollands Kroon,Noord-Holland,VBO,4.842553,52.880446
Meerweg,19,,,1764KE,Breezand,Hollands Kroon,Noord-Holland,VBO,4.836929,52.881995
Meerweg,20,,,1764KE,Breezand,Hollands Kroon,Noord-Holland,VBO,4.837849,52.882180
Meerweg,21,,,1764KG,Breezand,Hollands Kroon,Noord-Holland,VBO,4.835781,52.882498
Meerweg,22,,,1764KG,Breezand,Hollands Kroon,Noord-Holland,VBO,4.836211,52.882688
Meerweg,23,,,1764KG,Breezand,Hollands Kroon,Noord-Holland,VBO,4.835274,52.882636
Meerweg,24,a,,1764KG,Breezand,Hollands Kroon,Noord-Holland,VBO,4.835478,52.883004
Meerweg,24,,,1764KG,Breezand,Hollands Kroon,Noord-Holland,VBO,4.836009,52.882801
Meerweg,25,,,1764KG,Breezand,Hollands Kroon,Noord-Holland,VBO,4.833249,52.883437
Meerweg,26,,,1764KG,Breezand,Hollands Kroon,Noord-Holland,VBO,4.834426,52.883375
Meerweg,27,,,1764KG,Breezand,Hollands Kroon,Noord-Holland,VBO,4.832904,52.883490
Meerweg,28,,,1764KG,Breezand,Hollands Kroon,Noord-Holland,VBO,4.833794,52.883534
Meerweg,29,,,1764KG,Breezand,Hollands Kroon,Noord-Holland,VBO,4.832646,52.883584
Meerweg,30,,,1764KG,Breezand,Hollands Kroon,Noord-Holland,VBO,4.833599,52.883595
Meerweg,31,a,,1764KG,Breezand,Hollands Kroon,Noord-Holland,VBO,4.830751,52.884272
Meerweg,31,,,1764KG,Breezand,Hollands Kroon,Noord-Holland,VBO,4.831103,52.884041
Meerweg,32,,,1764KG,Breezand,Hollands Kroon,Noord-Holland,VBO,4.832295,52.884180
Meerweg,36,a,,1764KG,Breezand,Hollands Kroon,Noord-Holland,VBO,4.828171,52.885508
Meerweg,36,,,1764KG,Breezand,Hollands Kroon,Noord-Holland,VBO,4.828701,52.885390
Meerweg,39,,,1764KG,Breezand,Hollands Kroon,Noord-Holland,VBO,4.828477,52.885068
Meerweg,41,,,1764KG,Breezand,Hollands Kroon,Noord-Holland,VBO,4.828087,52.885214
Meerweg,43,,,1764KG,Breezand,Hollands Kroon,Noord-Holland,VBO,4.827779,52.885251
Meerweg,38,,,1764KH,Breezand,Hollands Kroon,Noord-Holland,VBO,4.827513,52.885718
Meerweg,40,,,1764KH,Breezand,Hollands Kroon,Noord-Holland,VBO,4.826981,52.885910
Meerweg,42,a,,1764KH,Breezand,Hollands Kroon,Noord-Holland,VBO,4.826314,52.886517
Meerweg,42,,,1764KH,Breezand,Hollands Kroon,Noord-Holland,VBO,4.825888,52.886281
Meerweg,44,a,,1764KH,Breezand,Hollands Kroon,Noord-Holland,VBO,4.825962,52.886452
Meerweg,44,,,1764KH,Breezand,Hollands Kroon,Noord-Holland,VBO,4.825777,52.886320
Meerweg,45,,,1764KH,Breezand,Hollands Kroon,Noord-Holland,VBO,4.826134,52.885840
Meerweg,47,a,,1764KH,Breezand,Hollands Kroon,Noord-Holland,VBO,4.825217,52.886078
Meerweg,47,,,1764KH,Breezand,Hollands Kroon,Noord-Holland,VBO,4.825597,52.886035
Meerweg,48,a,,1764KH,Breezand,Hollands Kroon,Noord-Holland,VBO,4.823768,52.887029
Meerweg,48,,,1764KH,Breezand,Hollands Kroon,Noord-Holland,VBO,4.824090,52.886914
Meerweg,49,,,1764KH,Breezand,Hollands Kroon,Noord-Holland,VBO,4.825151,52.886185
Meerweg,50,,,1764KH,Breezand,Hollands Kroon,Noord-Holland,VBO,4.823353,52.887203
Meerweg,51,a,,1764KH,Breezand,Hollands Kroon,Noord-Holland,VBO,4.823416,52.886785
Meerweg,51,b,,1764KH,Breezand,Hollands Kroon,Noord-Holland,VBO,4.823328,52.886815
Meerweg,51,,,1764KH,Breezand,Hollands Kroon,Noord-Holland,VBO,4.824386,52.886383
Meerweg,52,,,1764KH,Breezand,Hollands Kroon,Noord-Holland,VBO,4.822298,52.887575
Meerweg,53,,,1764KH,Breezand,Hollands Kroon,Noord-Holland,VBO,4.822858,52.886993
Meerweg,54,,,1764KJ,Breezand,Hollands Kroon,Noord-Holland,VBO,4.821605,52.887783
Meerweg,56,,,1764KJ,Breezand,Hollands Kroon,Noord-Holland,VBO,4.821326,52.887876
Meerweg,57,,,1764KJ,Breezand,Hollands Kroon,Noord-Holland,VBO,4.821347,52.887484
Meerweg,58,,,1764KJ,Breezand,Hollands Kroon,Noord-Holland,VBO,4.820933,52.888010
Meerweg,59,a,,1764KJ,Breezand,Hollands Kroon,Noord-Holland,VBO,4.820517,52.887785
Meerweg,59,,,1764KJ,Breezand,Hollands Kroon,Noord-Holland,VBO,4.820651,52.887643
Meerweg,60,,,1764KJ,Breezand,Hollands Kroon,Noord-Holland,VBO,4.819988,52.888340
Meerweg,61,,,1764KJ,Breezand,Hollands Kroon,Noord-Holland,VBO,4.819839,52.888019
Meerweg,62,,,1764KJ,Breezand,Hollands Kroon,Noord-Holland,VBO,4.819304,52.888580
Meerweg,63,a,,1764KJ,Breezand,Hollands Kroon,Noord-Holland,VBO,4.819104,52.888191
Meerweg,63,b,,1764KJ,Breezand,Hollands Kroon,Noord-Holland,VBO,4.818674,52.888323
Meerweg,63,,,1764KJ,Breezand,Hollands Kroon,Noord-Holland,VBO,4.819175,52.888161
Meerweg,64,t,,1764KJ,Breezand,Hollands Kroon,Noord-Holland,VBO,4.815327,52.890159
Meerweg,65,,,1764KJ,Breezand,Hollands Kroon,Noord-Holland,VBO,4.817245,52.888761
Meerweg,67,,,1764KJ,Breezand,Hollands Kroon,Noord-Holland,VBO,4.816684,52.889124
Meerweg,69,,,1764KJ,Breezand,Hollands Kroon,Noord-Holland,VBO,4.816439,52.889157
Kreekweg,2,,,1764KK,Breezand,Hollands Kroon,Noord-Holland,VBO,4.834905,52.885815
Kreekweg,4,a,,1764KK,Breezand,Hollands Kroon,Noord-Holland,VBO,4.833380,52.886393
Kreekweg,4,,,1764KK,Breezand,Hollands Kroon,Noord-Holland,VBO,4.834091,52.886120
Kreekweg,6,a,,1764KK,Breezand,Hollands Kroon,Noord-Holland,VBO,4.833244,52.886801
Kreekweg,6,,,1764KK,Breezand,Hollands Kroon,Noord-Holland,VBO,4.832824,52.886499
Middenweg,14,,,1764KL,Breezand,Hollands Kroon,Noord-Holland,VBO,4.806824,52.874459
Middenweg,16,,,1764KL,Breezand,Hollands Kroon,Noord-Holland,VBO,4.806864,52.874506
Middenweg,18,a,,1764KL,Breezand,Hollands Kroon,Noord-Holland,VBO,4.808510,52.875359
Middenweg,18,b,,1764KL,Breezand,Hollands Kroon,Noord-Holland,VBO,4.817590,52.879640
Middenweg,25,a,,1764KL,Breezand,Hollands Kroon,Noord-Holland,VBO,4.804395,52.873798
Middenweg,25,,,1764KL,Breezand,Hollands Kroon,Noord-Holland,VBO,4.804377,52.873639
Middenweg,27,,,1764KL,Breezand,Hollands Kroon,Noord-Holland,VBO,4.806520,52.875021
Middenweg,29,,,1764KL,Breezand,Hollands Kroon,Noord-Holland,VBO,4.806967,52.875202
Middenweg,31,,,1764KL,Breezand,Hollands Kroon,Noord-Holland,VBO,4.807218,52.875358
Middenweg,33,,,1764KL,Breezand,Hollands Kroon,Noord-Holland,VBO,4.807281,52.875398
Middenweg,35,,,1764KL,Breezand,Hollands Kroon,Noord-Holland,VBO,4.807802,52.875714
Middenweg,37,,,1764KL,Breezand,Hollands Kroon,Noord-Holland,VBO,4.808393,52.876078
Middenweg,39,a,,1764KL,Breezand,Hollands Kroon,Noord-Holland,VBO,4.810449,52.877131
Middenweg,39,b,,1764KL,Breezand,Hollands Kroon,Noord-Holland,VBO,4.809673,52.876942
Middenweg,39,,,1764KL,Breezand,Hollands Kroon,Noord-Holland,VBO,4.809651,52.876703
Middenweg,41,,,1764KL,Breezand,Hollands Kroon,Noord-Holland,VBO,4.810678,52.877316
Middenweg,43,,,1764KL,Breezand,Hollands Kroon,Noord-Holland,VBO,4.810954,52.877404
Middenweg,45,,,1764KL,Breezand,Hollands Kroon,Noord-Holland,VBO,4.811095,52.877480
Middenweg,47,,,1764KL,Breezand,Hollands Kroon,Noord-Holland,VBO,4.811222,52.877546
Middenweg,49,,,1764KL,Breezand,Hollands Kroon,Noord-Holland,VBO,4.811424,52.877634
Middenweg,51,,,1764KL,Breezand,Hollands Kroon,Noord-Holland,VBO,4.811501,52.877727
Middenweg,53,a,,1764KL,Breezand,Hollands Kroon,Noord-Holland,VBO,4.812187,52.878315
Middenweg,53,,,1764KL,Breezand,Hollands Kroon,Noord-Holland,VBO,4.812604,52.878338
Middenweg,20,,,1764KM,Breezand,Hollands Kroon,Noord-Holland,VBO,4.820484,52.880233
Middenweg,22,,,1764KM,Breezand,Hollands Kroon,Noord-Holland,VBO,4.821025,52.880305
Middenweg,24,,,1764KM,Breezand,Hollands Kroon,Noord-Holland,VBO,4.821912,52.880359
Middenweg,26,,,1764KM,Breezand,Hollands Kroon,Noord-Holland,VBO,4.822526,52.880340
Middenweg,28,,,1764KM,Breezand,Hollands Kroon,Noord-Holland,VBO,4.823569,52.880356
Middenweg,30,,,1764KM,Breezand,Hollands Kroon,Noord-Holland,VBO,4.824017,52.880353
Middenweg,57,a,,1764KM,Breezand,Hollands Kroon,Noord-Holland,VBO,4.817425,52.880111
Middenweg,57,,,1764KM,Breezand,Hollands Kroon,Noord-Holland,VBO,4.816983,52.880002
Middenweg,59,,,1764KM,Breezand,Hollands Kroon,Noord-Holland,VBO,4.818757,52.880347
Middenweg,61,a,,1764KM,Breezand,Hollands Kroon,Noord-Holland,VBO,4.824620,52.880800
Middenweg,61,b,,1764KM,Breezand,Hollands Kroon,Noord-Holland,VBO,4.824985,52.880838
Middenweg,61,,,1764KM,Breezand,Hollands Kroon,Noord-Holland,VBO,4.819938,52.880608
Middenweg,63,a,,1764KM,Breezand,Hollands Kroon,Noord-Holland,VBO,4.824224,52.881541
Middenweg,63,b,,1764KM,Breezand,Hollands Kroon,Noord-Holland,VBO,4.823987,52.882024
Middenweg,63,,,1764KM,Breezand,Hollands Kroon,Noord-Holland,VBO,4.824191,52.882279
Middenweg,65,a,,1764KM,Breezand,Hollands Kroon,Noord-Holland,VBO,4.827618,52.880970
Middenweg,65,,,1764KM,Breezand,Hollands Kroon,Noord-Holland,VBO,4.826537,52.880706
Middenweg,67,,,1764KM,Breezand,Hollands Kroon,Noord-Holland,VBO,4.827411,52.880733
Middenweg,69,,,1764KM,Breezand,Hollands Kroon,Noord-Holland,VBO,4.828664,52.880796
Middenweg,71,,,1764KM,Breezand,Hollands Kroon,Noord-Holland,VBO,4.830109,52.881166
Middenweg,73,,,1764KM,Breezand,Hollands Kroon,Noord-Holland,VBO,4.830770,52.881205
Middenweg,75,t,,1764KM,Breezand,Hollands Kroon,Noord-Holland,VBO,4.835480,52.882284
Middenweg,75,,,1764KM,Breezand,Hollands Kroon,Noord-Holland,VBO,4.831665,52.881334
Middenweg,77,a,,1764KN,Breezand,Hollands Kroon,Noord-Holland,VBO,4.840929,52.883827
Middenweg,77,,,1764KN,Breezand,Hollands Kroon,Noord-Holland,VBO,4.840142,52.883555
Middenweg,79,,,1764KN,Breezand,Hollands Kroon,Noord-Holland,VBO,4.844653,52.885255
Middenweg,81,a,,1764KN,Breezand,Hollands Kroon,Noord-Holland,VBO,4.846035,52.886617
Middenweg,81,b,,1764KN,Breezand,Hollands Kroon,Noord-Holland,VBO,4.849130,52.889800
Middenweg,81,,,1764KN,Breezand,Hollands Kroon,Noord-Holland,VBO,4.845381,52.886012
Middenweg,83,,,1764KN,Breezand,Hollands Kroon,Noord-Holland,VBO,4.850945,52.891541
Middenweg,85,,,1764KN,Breezand,Hollands Kroon,Noord-Holland,VBO,4.851096,52.891686
Middenweg,87,a,,1764KN,Breezand,Hollands Kroon,Noord-Holland,VBO,4.851371,52.892196
Middenweg,87,,,1764KN,Breezand,Hollands Kroon,Noord-Holland,VBO,4.851348,52.892010
Middenweg,89,a,,1764KN,Breezand,Hollands Kroon,Noord-Holland,VBO,4.851728,52.892360
Middenweg,89,,,1764KN,Breezand,Hollands Kroon,Noord-Holland,VBO,4.851615,52.892214
Schorweg,2,,,1764MA,Breezand,Hollands Kroon,Noord-Holland,VBO,4.781472,52.880849
Schorweg,4,a,,1764MA,Breezand,Hollands Kroon,Noord-Holland,VBO,4.781705,52.881168
Schorweg,4,b,,1764MA,Breezand,Hollands Kroon,Noord-Holland,VBO,4.781752,52.881578
Schorweg,4,c,,1764MA,Breezand,Hollands Kroon,Noord-Holland,VBO,4.782299,52.881453
Schorweg,4,,,1764MA,Breezand,Hollands Kroon,Noord-Holland,VBO,4.781488,52.880880
Schorweg,5,,,1764MA,Breezand,Hollands Kroon,Noord-Holland,VBO,4.781113,52.882079
Schorweg,6,a,,1764MA,Breezand,Hollands Kroon,Noord-Holland,VBO,4.780887,52.884548
Schorweg,6,b,,1764MA,Breezand,Hollands Kroon,Noord-Holland,VBO,4.781410,52.884381
Schorweg,6,,,1764MA,Breezand,Hollands Kroon,Noord-Holland,VBO,4.781031,52.883787
Schorweg,7,,,1764MA,Breezand,Hollands Kroon,Noord-Holland,VBO,4.780948,52.882614
Schorweg,9,,,1764MA,Breezand,Hollands Kroon,Noord-Holland,VBO,4.780905,52.882808
Schorweg,11,,,1764MA,Breezand,Hollands Kroon,Noord-Holland,VBO,4.780825,52.883009
Schorweg,13,,,1764MA,Breezand,Hollands Kroon,Noord-Holland,VBO,4.780759,52.883208
Schorweg,15,,,1764MA,Breezand,Hollands Kroon,Noord-Holland,VBO,4.780654,52.883525
Schorweg,17,,,1764MA,Breezand,Hollands Kroon,Noord-Holland,VBO,4.780481,52.883877
Schorweg,21,,,1764MA,Breezand,Hollands Kroon,Noord-Holland,VBO,4.780375,52.885013
Schorweg,23,,,1764MA,Breezand,Hollands Kroon,Noord-Holland,VBO,4.780368,52.885269
Schorweg,25,,,1764MA,Breezand,Hollands Kroon,Noord-Holland,VBO,4.780346,52.885550
Schorweg,27,a,,1764MA,Breezand,Hollands Kroon,Noord-Holland,VBO,4.779918,52.886026
Schorweg,27,,,1764MA,Breezand,Hollands Kroon,Noord-Holland,VBO,4.780327,52.885833
Schorweg,8,a,,1764MB,Breezand,Hollands Kroon,Noord-Holland,VBO,4.780989,52.886503
Schorweg,8,b,,1764MB,Breezand,Hollands Kroon,Noord-Holland,VBO,4.781193,52.887102
Schorweg,8,,,1764MB,Breezand,Hollands Kroon,Noord-Holland,VBO,4.780787,52.886039
Schorweg,10,,,1764MB,Breezand,Hollands Kroon,Noord-Holland,VBO,4.781305,52.887232
Schorweg,12,,,1764MB,Breezand,Hollands Kroon,Noord-Holland,VBO,4.781452,52.887344
Schorweg,29,,,1764MB,Breezand,Hollands Kroon,Noord-Holland,VBO,4.780340,52.886193
Schorweg,31,,,1764MB,Breezand,Hollands Kroon,Noord-Holland,VBO,4.780403,52.886363
Schorweg,33,,,1764MB,Breezand,Hollands Kroon,Noord-Holland,VBO,4.780460,52.886479
Schorweg,35,,,1764MB,Breezand,Hollands Kroon,Noord-Holland,VBO,4.780484,52.886700
Schorweg,37,a,,1764MB,Breezand,Hollands Kroon,Noord-Holland,VBO,4.780356,52.887041
Schorweg,37,,,1764MB,Breezand,Hollands Kroon,Noord-Holland,VBO,4.780614,52.886891
Schorweg,39,,,1764MB,Breezand,Hollands Kroon,Noord-Holland,VBO,4.780693,52.887108
Schorweg,41,,,1764MB,Breezand,Hollands Kroon,Noord-Holland,VBO,4.780974,52.887558
Schorweg,43,,,1764MB,Breezand,Hollands Kroon,Noord-Holland,VBO,4.781193,52.887740
Schorweg,45,,,1764MB,Breezand,Hollands Kroon,Noord-Holland,VBO,4.781352,52.887891
Schorweg,47,,,1764MB,Breezand,Hollands Kroon,Noord-Holland,VBO,4.781649,52.888154
Schorweg,14,,,1764MC,Breezand,Hollands Kroon,Noord-Holland,VBO,4.783576,52.889199
Schorweg,16,a,,1764MC,Breezand,Hollands Kroon,Noord-Holland,VBO,4.785045,52.890082
Schorweg,16,,,1764MC,Breezand,Hollands Kroon,Noord-Holland,VBO,4.784435,52.890009
Schorweg,18,,,1764MC,Breezand,Hollands Kroon,Noord-Holland,VBO,4.786776,52.891546
Schorweg,22,,,1764MC,Breezand,Hollands Kroon,Noord-Holland,VBO,4.788333,52.894002
Schorweg,24,,,1764MC,Breezand,Hollands Kroon,Noord-Holland,VBO,4.789939,52.896253
Schorweg,26,,,1764MC,Breezand,Hollands Kroon,Noord-Holland,VBO,4.790457,52.896824
Schorweg,67,,,1764MC,Breezand,Hollands Kroon,Noord-Holland,VBO,4.787215,52.892979
Schorweg,69,a,,1764MC,Breezand,Hollands Kroon,Noord-Holland,VBO,4.787706,52.893929
Schorweg,69,b,,1764MC,Breezand,Hollands Kroon,Noord-Holland,VBO,4.787828,52.894272
Schorweg,69,,,1764MC,Breezand,Hollands Kroon,Noord-Holland,VBO,4.787395,52.893464
Schorweg,71,a,,1764MC,Breezand,Hollands Kroon,Noord-Holland,VBO,4.788793,52.895616
Schorweg,71,,,1764MC,Breezand,Hollands Kroon,Noord-Holland,VBO,4.788732,52.895436
Schorweg,73,,,1764MC,Breezand,Hollands Kroon,Noord-Holland,VBO,4.789106,52.896132
Schorweg,75,,,1764MC,Breezand,Hollands Kroon,Noord-Holland,VBO,4.789603,52.896823
Schorweg,77,,,1764MC,Breezand,Hollands Kroon,Noord-Holland,VBO,4.789785,52.896969
Schorweg,79,,,1764MC,Breezand,Hollands Kroon,Noord-Holland,VBO,4.790894,52.897341
Schorweg,81,,,1764MC,Breezand,Hollands Kroon,Noord-Holland,VBO,4.791432,52.897570
Schorweg,30,,,1764MD,Breezand,Hollands Kroon,Noord-Holland,VBO,4.796300,52.898844
Schorweg,32,,,1764MD,Breezand,Hollands Kroon,Noord-Holland,VBO,4.796871,52.899086
Schorweg,34,,,1764MD,Breezand,Hollands Kroon,Noord-Holland,VBO,4.799844,52.899829
Schorweg,36,,,1764MD,Breezand,Hollands Kroon,Noord-Holland,VBO,4.800055,52.900198
Schorweg,38,,,1764MD,Breezand,Hollands Kroon,Noord-Holland,VBO,4.800676,52.900388
Schorweg,44,,,1764MD,Breezand,Hollands Kroon,Noord-Holland,VBO,4.802177,52.900903
Schorweg,83,a,,1764MD,Breezand,Hollands Kroon,Noord-Holland,VBO,4.793237,52.898167
Schorweg,83,,,1764MD,Breezand,Hollands Kroon,Noord-Holland,VBO,4.792261,52.897849
Schorweg,85,a,,1764MD,Breezand,Hollands Kroon,Noord-Holland,VBO,4.794634,52.898665
Schorweg,85,b,,1764MD,Breezand,Hollands Kroon,Noord-Holland,VBO,4.796168,52.899236
Schorweg,85,,,1764MD,Breezand,Hollands Kroon,Noord-Holland,VBO,4.793513,52.898404
Schorweg,89,a,,1764MD,Breezand,Hollands Kroon,Noord-Holland,VBO,4.799588,52.900457
Schorweg,89,t,,1764MD,Breezand,Hollands Kroon,Noord-Holland,VBO,4.798268,52.899880
Schorweg,89,,,1764MD,Breezand,Hollands Kroon,Noord-Holland,VBO,4.798726,52.900269
Schorweg,91,,,1764MD,Breezand,Hollands Kroon,Noord-Holland,VBO,4.800065,52.900533
Schorweg,93,,,1764MD,Breezand,Hollands Kroon,Noord-Holland,VBO,4.800913,52.900854
Schorweg,95,,,1764MD,Breezand,Hollands Kroon,Noord-Holland,VBO,4.801509,52.901017
Schorweg,97,,,1764MD,Breezand,Hollands Kroon,Noord-Holland,VBO,4.802161,52.901313
Schorweg,99,a,,1764MD,Breezand,Hollands Kroon,Noord-Holland,VBO,4.804219,52.903058
Schorweg,99,b,,1764MD,Breezand,Hollands Kroon,Noord-Holland,VBO,4.803574,52.903330
Schorweg,99,c,,1764MD,Breezand,Hollands Kroon,Noord-Holland,VBO,4.804172,52.903966
Schorweg,99,,,1764MD,Breezand,Hollands Kroon,Noord-Holland,VBO,4.804215,52.902694
Schorweg,48,,,1764ME,Breezand,Hollands Kroon,Noord-Holland,VBO,4.804868,52.904834
Schorweg,50,,,1764ME,Breezand,Hollands Kroon,Noord-Holland,VBO,4.804903,52.905232
Schorweg,52,,,1764ME,Breezand,Hollands Kroon,Noord-Holland,VBO,4.804913,52.905376
Schorweg,54,a,,1764ME,Breezand,Hollands Kroon,Noord-Holland,VBO,4.805240,52.907063
Schorweg,54,,,1764ME,Breezand,Hollands Kroon,Noord-Holland,VBO,4.805109,52.907521
Schorweg,101,,,1764ME,Breezand,Hollands Kroon,Noord-Holland,VBO,4.804310,52.904365
Schorweg,103,,,1764ME,Breezand,Hollands Kroon,Noord-Holland,VBO,4.804420,52.905126
Schorweg,105,,,1764ME,Breezand,Hollands Kroon,Noord-Holland,VBO,4.804529,52.906318
Schorweg,109,,,1764ME,Breezand,Hollands Kroon,Noord-Holland,VBO,4.804862,52.908171
Schorweg,113,,,1764ME,Breezand,Hollands Kroon,Noord-Holland,VBO,4.805068,52.908408
Bergeenderweg,1,t,,1764MG,Breezand,Hollands Kroon,Noord-Holland,VBO,4.788050,52.894446
Bergeenderweg,1,,,1764MG,Breezand,Hollands Kroon,Noord-Holland,VBO,4.784628,52.895107
Bergeenderweg,2,,,1764MG,Breezand,Hollands Kroon,Noord-Holland,VBO,4.785252,52.895424
Bergeenderweg,4,,,1764MG,Breezand,Hollands Kroon,Noord-Holland,VBO,4.785076,52.895490
Bergeenderweg,6,,,1764MG,Breezand,Hollands Kroon,Noord-Holland,VBO,4.784994,52.895510
Bergeenderweg,8,,,1764MG,Breezand,Hollands Kroon,Noord-Holland,VBO,4.785083,52.895611
Koningsweg,3,a,,1764MH,Breezand,Hollands Kroon,Noord-Holland,VBO,4.802196,52.888669
Koningsweg,3,,,1764MH,Breezand,Hollands Kroon,Noord-Holland,VBO,4.802602,52.888728
Koningsweg,4,,,1764MH,Breezand,Hollands Kroon,Noord-Holland,VBO,4.802312,52.889175
Koningsweg,5,,,1764MH,Breezand,Hollands Kroon,Noord-Holland,VBO,4.802350,52.888795
Koningsweg,6,,,1764MH,Breezand,Hollands Kroon,Noord-Holland,VBO,4.802186,52.889210
Koningsweg,7,,,1764MH,Breezand,Hollands Kroon,Noord-Holland,VBO,4.802002,52.888842
Koningsweg,8,a,,1764MH,Breezand,Hollands Kroon,Noord-Holland,VBO,4.800674,52.889796
Koningsweg,8,,,1764MH,Breezand,Hollands Kroon,Noord-Holland,VBO,4.801442,52.889509
Koningsweg,9,,,1764MH,Breezand,Hollands Kroon,Noord-Holland,VBO,4.801875,52.888960
Koningsweg,10,,,1764MH,Breezand,Hollands Kroon,Noord-Holland,VBO,4.800206,52.889970
Koningsweg,12,,,1764MH,Breezand,Hollands Kroon,Noord-Holland,VBO,4.799339,52.890235
Koningsweg,14,,,1764MH,Breezand,Hollands Kroon,Noord-Holland,VBO,4.798475,52.890539
Koningsweg,16,a,,1764MH,Breezand,Hollands Kroon,Noord-Holland,VBO,4.798153,52.890928
Koningsweg,16,,,1764MH,Breezand,Hollands Kroon,Noord-Holland,VBO,4.797885,52.890825
Koningsweg,13,a,,1764MJ,Breezand,Hollands Kroon,Noord-Holland,VBO,4.796645,52.890559
Koningsweg,13,,,1764MJ,Breezand,Hollands Kroon,Noord-Holland,VBO,4.796840,52.890689
Koningsweg,15,b,,1764MJ,Breezand,Hollands Kroon,Noord-Holland,VBO,4.794971,52.891022
Koningsweg,15,,,1764MJ,Breezand,Hollands Kroon,Noord-Holland,VBO,4.795738,52.890972
Koningsweg,17,,,1764MJ,Breezand,Hollands Kroon,Noord-Holland,VBO,4.794914,52.891304
Koningsweg,18,,,1764MJ,Breezand,Hollands Kroon,Noord-Holland,VBO,4.796795,52.891082
Koningsweg,19,,,1764MJ,Breezand,Hollands Kroon,Noord-Holland,VBO,4.794576,52.891431
Koningsweg,20,a,,1764MJ,Breezand,Hollands Kroon,Noord-Holland,VBO,4.796354,52.891565
Koningsweg,21,,,1764MJ,Breezand,Hollands Kroon,Noord-Holland,VBO,4.792358,52.892017
Koningsweg,22,a,,1764MJ,Breezand,Hollands Kroon,Noord-Holland,VBO,4.795900,52.891491
Koningsweg,22,,,1764MJ,Breezand,Hollands Kroon,Noord-Holland,VBO,4.796075,52.891317
Koningsweg,23,,,1764MJ,Breezand,Hollands Kroon,Noord-Holland,VBO,4.792038,52.892357
Koningsweg,24,a,,1764MJ,Breezand,Hollands Kroon,Noord-Holland,VBO,4.793748,52.892492
Koningsweg,24,,,1764MJ,Breezand,Hollands Kroon,Noord-Holland,VBO,4.793447,52.892355
Koningsweg,26,,,1764MJ,Breezand,Hollands Kroon,Noord-Holland,VBO,4.793074,52.892326
Stoomweg,1,t,,1764NA,Breezand,Hollands Kroon,Noord-Holland,VBO,4.867770,52.883013
Stoomweg,3,,,1764NA,Breezand,Hollands Kroon,Noord-Holland,VBO,4.863423,52.884233
Stoomweg,5,,,1764NA,Breezand,Hollands Kroon,Noord-Holland,VBO,4.862829,52.884380
Stoomweg,6,,,1764NA,Breezand,Hollands Kroon,Noord-Holland,VBO,4.867530,52.883415
Stoomweg,7,a,,1764NA,Breezand,Hollands Kroon,Noord-Holland,VBO,4.860368,52.885241
Stoomweg,7,b,,1764NA,Breezand,Hollands Kroon,Noord-Holland,VBO,4.860602,52.885031
Stoomweg,7,,,1764NA,Breezand,Hollands Kroon,Noord-Holland,VBO,4.861149,52.884990
Stoomweg,8,,,1764NA,Breezand,Hollands Kroon,Noord-Holland,VBO,4.866254,52.883582
Stoomweg,9,,,1764NA,Breezand,Hollands Kroon,Noord-Holland,VBO,4.859889,52.885411
Stoomweg,10,,,1764NA,Breezand,Hollands Kroon,Noord-Holland,VBO,4.865621,52.883745
Stoomweg,12,a,,1764NA,Breezand,Hollands Kroon,Noord-Holland,VBO,4.864591,52.884136
Stoomweg,12,,,1764NA,Breezand,Hollands Kroon,Noord-Holland,VBO,4.865446,52.883802
Stoomweg,13,,,1764NA,Breezand,Hollands Kroon,Noord-Holland,VBO,4.859102,52.885742
Stoomweg,14,,,1764NA,Breezand,Hollands Kroon,Noord-Holland,VBO,4.864154,52.884295
Stoomweg,15,,,1764NA,Breezand,Hollands Kroon,Noord-Holland,VBO,4.858414,52.885982
Stoomweg,16,,,1764NA,Breezand,Hollands Kroon,Noord-Holland,VBO,4.862248,52.885030
Stoomweg,17,,,1764NA,Breezand,Hollands Kroon,Noord-Holland,VBO,4.857560,52.886259
Stoomweg,18,,,1764NA,Breezand,Hollands Kroon,Noord-Holland,VBO,4.862099,52.885098
Stoomweg,19,a,,1764NA,Breezand,Hollands Kroon,Noord-Holland,VBO,4.856991,52.886286
Stoomweg,19,,,1764NA,Breezand,Hollands Kroon,Noord-Holland,VBO,4.857081,52.886317
Stoomweg,20,a,,1764NA,Breezand,Hollands Kroon,Noord-Holland,VBO,4.859917,52.885789
Stoomweg,20,,,1764NA,Breezand,Hollands Kroon,Noord-Holland,VBO,4.860626,52.885520
Stoomweg,21,,,1764NA,Breezand,Hollands Kroon,Noord-Holland,VBO,4.854967,52.887039
Stoomweg,22,a,,1764NA,Breezand,Hollands Kroon,Noord-Holland,VBO,4.859045,52.886300
Stoomweg,22,,,1764NA,Breezand,Hollands Kroon,Noord-Holland,VBO,4.858983,52.886122
Stoomweg,23,,,1764NA,Breezand,Hollands Kroon,Noord-Holland,VBO,4.852950,52.887918
Stoomweg,24,,,1764NA,Breezand,Hollands Kroon,Noord-Holland,VBO,4.857957,52.886553
Stoomweg,26,,,1764NA,Breezand,Hollands Kroon,Noord-Holland,VBO,4.857319,52.886655
Stoomweg,28,,,1764NA,Breezand,Hollands Kroon,Noord-Holland,VBO,4.854520,52.887983
Stoomweg,27,t,,1764NB,Breezand,Hollands Kroon,Noord-Holland,VBO,4.847549,52.889688
Stoomweg,27,,,1764NB,Breezand,Hollands Kroon,Noord-Holland,VBO,4.847773,52.889658
Stoomweg,29,,,1764NB,Breezand,Hollands Kroon,Noord-Holland,VBO,4.847432,52.889855
Stoomweg,31,,,1764NB,Breezand,Hollands Kroon,Noord-Holland,VBO,4.847113,52.889945
Stoomweg,33,,,1764NB,Breezand,Hollands Kroon,Noord-Holland,VBO,4.846828,52.890060
Stoomweg,34,a,,1764NB,Breezand,Hollands Kroon,Noord-Holland,VBO,4.848384,52.889845
Stoomweg,34,,,1764NB,Breezand,Hollands Kroon,Noord-Holland,VBO,4.848603,52.889806
Stoomweg,35,a,,1764NB,Breezand,Hollands Kroon,Noord-Holland,VBO,4.844629,52.890783
Stoomweg,35,b,,1764NB,Breezand,Hollands Kroon,Noord-Holland,VBO,4.844036,52.890921
Stoomweg,35,,,1764NB,Breezand,Hollands Kroon,Noord-Holland,VBO,4.845955,52.889667
Stoomweg,36,a,,1764NB,Breezand,Hollands Kroon,Noord-Holland,VBO,4.846866,52.890520
Stoomweg,36,,,1764NB,Breezand,Hollands Kroon,Noord-Holland,VBO,4.846666,52.890492
Stoomweg,37,,,1764NB,Breezand,Hollands Kroon,Noord-Holland,VBO,4.843457,52.891218
Stoomweg,38,,,1764NB,Breezand,Hollands Kroon,Noord-Holland,VBO,4.845631,52.890876
Stoomweg,40,,,1764NB,Breezand,Hollands Kroon,Noord-Holland,VBO,4.844618,52.891202
Stoomweg,42,,,1764NB,Breezand,Hollands Kroon,Noord-Holland,VBO,4.844130,52.891425
Stoomweg,39,,,1764NC,Breezand,Hollands Kroon,Noord-Holland,VBO,4.842922,52.891368
Stoomweg,41,,,1764NC,Breezand,Hollands Kroon,Noord-Holland,VBO,4.842427,52.891534
Stoomweg,43,,,1764NC,Breezand,Hollands Kroon,Noord-Holland,VBO,4.841663,52.891848
Stoomweg,44,,,1764NC,Breezand,Hollands Kroon,Noord-Holland,VBO,4.843554,52.891563
Stoomweg,45,,,1764NC,Breezand,Hollands Kroon,Noord-Holland,VBO,4.840707,52.892170
Stoomweg,46,,,1764NC,Breezand,Hollands Kroon,Noord-Holland,VBO,4.843382,52.891607
Stoomweg,48,,,1764NC,Breezand,Hollands Kroon,Noord-Holland,VBO,4.843165,52.891711
Stoomweg,49,a,,1764NC,Breezand,Hollands Kroon,Noord-Holland,VBO,4.839065,52.892695
Stoomweg,49,,,1764NC,Breezand,Hollands Kroon,Noord-Holland,VBO,4.839504,52.892561
Stoomweg,50,,,1764NC,Breezand,Hollands Kroon,Noord-Holland,VBO,4.842027,52.892124
Stoomweg,51,a,,1764NC,Breezand,Hollands Kroon,Noord-Holland,VBO,4.838111,52.892921
Stoomweg,51,,,1764NC,Breezand,Hollands Kroon,Noord-Holland,VBO,4.838464,52.892948
Stoomweg,52,t,,1764NC,Breezand,Hollands Kroon,Noord-Holland,VBO,4.839947,52.892809
Stoomweg,52,,,1764NC,Breezand,Hollands Kroon,Noord-Holland,VBO,4.839727,52.892925
Stoomweg,54,,,1764NC,Breezand,Hollands Kroon,Noord-Holland,VBO,4.839649,52.892953
Stoomweg,56,,,1764NC,Breezand,Hollands Kroon,Noord-Holland,VBO,4.839372,52.893062
Stoomweg,53,,,1764ND,Breezand,Hollands Kroon,Noord-Holland,VBO,4.837795,52.893185
Stoomweg,57,a,,1764ND,Breezand,Hollands Kroon,Noord-Holland,VBO,4.837005,52.893224
Stoomweg,57,,,1764ND,Breezand,Hollands Kroon,Noord-Holland,VBO,4.837451,52.893309
Stoomweg,59,,,1764ND,Breezand,Hollands Kroon,Noord-Holland,VBO,4.837041,52.893423
Stoomweg,60,a,,1764ND,Breezand,Hollands Kroon,Noord-Holland,VBO,4.838748,52.893444
Stoomweg,60,,,1764ND,Breezand,Hollands Kroon,Noord-Holland,VBO,4.838527,52.893321
Stoomweg,61,,,1764ND,Breezand,Hollands Kroon,Noord-Holland,VBO,4.836739,52.893550
Stoomweg,62,a,,1764ND,Breezand,Hollands Kroon,Noord-Holland,VBO,4.837320,52.893982
Stoomweg,62,,,1764ND,Breezand,Hollands Kroon,Noord-Holland,VBO,4.837745,52.893726
Stoomweg,63,,,1764ND,Breezand,Hollands Kroon,Noord-Holland,VBO,4.836169,52.893728
Stoomweg,64,,,1764ND,Breezand,Hollands Kroon,Noord-Holland,VBO,4.836565,52.894075
Stoomweg,65,,,1764ND,Breezand,Hollands Kroon,Noord-Holland,VBO,4.835689,52.893928
Stoomweg,66,a,,1764ND,Breezand,Hollands Kroon,Noord-Holland,VBO,4.835680,52.894546
Stoomweg,66,,,1764ND,Breezand,Hollands Kroon,Noord-Holland,VBO,4.835839,52.894366
Stoomweg,67,a,,1764ND,Breezand,Hollands Kroon,Noord-Holland,VBO,4.833225,52.894803
Stoomweg,67,,,1764ND,Breezand,Hollands Kroon,Noord-Holland,VBO,4.833951,52.894530
Stoomweg,68,a,,1764ND,Breezand,Hollands Kroon,Noord-Holland,VBO,4.833168,52.895628
Stoomweg,68,,,1764ND,Breezand,Hollands Kroon,Noord-Holland,VBO,4.832857,52.895530
Stoomweg,69,a,,1764ND,Breezand,Hollands Kroon,Noord-Holland,VBO,4.829999,52.895883
Stoomweg,69,,,1764ND,Breezand,Hollands Kroon,Noord-Holland,VBO,4.830428,52.895611
Stoomweg,71,t,,1764ND,Breezand,Hollands Kroon,Noord-Holland,VBO,4.829595,52.896118
Stoomweg,71,,,1764ND,Breezand,Hollands Kroon,Noord-Holland,VBO,4.829432,52.895692
Stoomweg,73,,,1764ND,Breezand,Hollands Kroon,Noord-Holland,VBO,4.828983,52.896157
J. C. de Leeuwweg,1,,,1764NE,Breezand,Hollands Kroon,Noord-Holland,VBO,4.826127,52.895487
J. C. de Leeuwweg,2,,,1764NE,Breezand,Hollands Kroon,Noord-Holland,VBO,4.825844,52.895955
J. C. de Leeuwweg,3,,,1764NE,Breezand,Hollands Kroon,Noord-Holland,VBO,4.825756,52.895602
J. C. de Leeuwweg,5,,,1764NE,Breezand,Hollands Kroon,Noord-Holland,VBO,4.825530,52.895700
J. C. de Leeuwweg,6,a,,1764NE,Breezand,Hollands Kroon,Noord-Holland,VBO,4.823219,52.896926
J. C. de Leeuwweg,6,,,1764NE,Breezand,Hollands Kroon,Noord-Holland,VBO,4.823554,52.896783
J. C. de Leeuwweg,7,,,1764NE,Breezand,Hollands Kroon,Noord-Holland,VBO,4.825445,52.895730
J. C. de Leeuwweg,9,,,1764NE,Breezand,Hollands Kroon,Noord-Holland,VBO,4.825252,52.895793
J. C. de Leeuwweg,11,,,1764NE,Breezand,Hollands Kroon,Noord-Holland,VBO,4.825175,52.895815
J. C. de Leeuwweg,13,,,1764NE,Breezand,Hollands Kroon,Noord-Holland,VBO,4.824797,52.895926
J. C. de Leeuwweg,15,,,1764NE,Breezand,Hollands Kroon,Noord-Holland,VBO,4.824573,52.896037
J. C. de Leeuwweg,19,,,1764NE,Breezand,Hollands Kroon,Noord-Holland,VBO,4.822970,52.896633
J. C. de Leeuwweg,8,a,,1764NG,Breezand,Hollands Kroon,Noord-Holland,VBO,4.822404,52.897481
J. C. de Leeuwweg,8,,,1764NG,Breezand,Hollands Kroon,Noord-Holland,VBO,4.822285,52.897244
J. C. de Leeuwweg,10,a,,1764NG,Breezand,Hollands Kroon,Noord-Holland,VBO,4.821882,52.897417
J. C. de Leeuwweg,10,,,1764NG,Breezand,Hollands Kroon,Noord-Holland,VBO,4.821955,52.897360
J. C. de Leeuwweg,12,,,1764NG,Breezand,Hollands Kroon,Noord-Holland,VBO,4.821473,52.897502
J. C. de Leeuwweg,14,,,1764NG,Breezand,Hollands Kroon,Noord-Holland,VBO,4.821404,52.897524
J. C. de Leeuwweg,18,a,,1764NG,Breezand,Hollands Kroon,Noord-Holland,VBO,4.819541,52.898242
J. C. de Leeuwweg,18,,,1764NG,Breezand,Hollands Kroon,Noord-Holland,VBO,4.819696,52.898109
J. C. de Leeuwweg,20,,,1764NG,Breezand,Hollands Kroon,Noord-Holland,VBO,4.819257,52.898298
J. C. de Leeuwweg,21,a,,1764NG,Breezand,Hollands Kroon,Noord-Holland,VBO,4.822614,52.896755
J. C. de Leeuwweg,21,b,,1764NG,Breezand,Hollands Kroon,Noord-Holland,VBO,4.821594,52.897078
J. C. de Leeuwweg,21,c,,1764NG,Breezand,Hollands Kroon,Noord-Holland,VBO,4.819911,52.897694
J. C. de Leeuwweg,21,d,,1764NG,Breezand,Hollands Kroon,Noord-Holland,VBO,4.819001,52.898029
J. C. de Leeuwweg,21,,,1764NG,Breezand,Hollands Kroon,Noord-Holland,VBO,4.822722,52.896729
J. C. de Leeuwweg,22,,,1764NG,Breezand,Hollands Kroon,Noord-Holland,VBO,4.818135,52.898718
J. C. de Leeuwweg,23,a,W001,1764NG,Breezand,Hollands Kroon,Noord-Holland,VBO,4.817648,52.898074
J. C. de Leeuwweg,23,a,W002,1764NG,Breezand,Hollands Kroon,Noord-Holland,VBO,4.818295,52.898132
J. C. de Leeuwweg,23,a,W003,1764NG,Breezand,Hollands Kroon,Noord-Holland,VBO,4.819342,52.897559
J. C. de Leeuwweg,23,a,,1764NG,Breezand,Hollands Kroon,Noord-Holland,VBO,4.818554,52.898137
J. C. de Leeuwweg,23,,,1764NG,Breezand,Hollands Kroon,Noord-Holland,VBO,4.818726,52.898135
J. C. de Leeuwweg,24,,,1764NG,Breezand,Hollands Kroon,Noord-Holland,VBO,4.816343,52.899405
J. C. de Leeuwweg,25,,,1764NG,Breezand,Hollands Kroon,Noord-Holland,VBO,4.817960,52.898408
J. C. de Leeuwweg,26,a,,1764NG,Breezand,Hollands Kroon,Noord-Holland,VBO,4.815021,52.899856
J. C. de Leeuwweg,26,b,,1764NG,Breezand,Hollands Kroon,Noord-Holland,VBO,4.815710,52.899853
J. C. de Leeuwweg,26,c,,1764NG,Breezand,Hollands Kroon,Noord-Holland,VBO,4.814928,52.900045
J. C. de Leeuwweg,26,,,1764NG,Breezand,Hollands Kroon,Noord-Holland,VBO,4.815687,52.899628
J. C. de Leeuwweg,27,,,1764NG,Breezand,Hollands Kroon,Noord-Holland,VBO,4.816649,52.898907
J. C. de Leeuwweg,28,a,,1764NG,Breezand,Hollands Kroon,Noord-Holland,VBO,4.813817,52.900511
J. C. de Leeuwweg,28,,,1764NG,Breezand,Hollands Kroon,Noord-Holland,VBO,4.813776,52.900339
J. C. de Leeuwweg,29,a,,1764NG,Breezand,Hollands Kroon,Noord-Holland,VBO,4.815851,52.898876
J. C. de Leeuwweg,29,,,1764NG,Breezand,Hollands Kroon,Noord-Holland,VBO,4.816185,52.898961
J. C. de Leeuwweg,31,,,1764NG,Breezand,Hollands Kroon,Noord-Holland,VBO,4.815747,52.899225
J. C. de Leeuwweg,32,,,1764NH,Breezand,Hollands Kroon,Noord-Holland,VBO,4.810767,52.901392
J. C. de Leeuwweg,33,a,,1764NH,Breezand,Hollands Kroon,Noord-Holland,VBO,4.811467,52.900689
J. C. de Leeuwweg,34,a,,1764NH,Breezand,Hollands Kroon,Noord-Holland,VBO,4.810222,52.901655
J. C. de Leeuwweg,34,b,,1764NH,Breezand,Hollands Kroon,Noord-Holland,VBO,4.809813,52.901739
J. C. de Leeuwweg,34,,,1764NH,Breezand,Hollands Kroon,Noord-Holland,VBO,4.810486,52.901493
J. C. de Leeuwweg,35,,,1764NH,Breezand,Hollands Kroon,Noord-Holland,VBO,4.811194,52.900867
J. C. de Leeuwweg,36,,,1764NH,Breezand,Hollands Kroon,Noord-Holland,VBO,4.809244,52.901940
J. C. de Leeuwweg,37,,,1764NH,Breezand,Hollands Kroon,Noord-Holland,VBO,4.808829,52.901663
J. C. de Leeuwweg,38,,,1764NH,Breezand,Hollands Kroon,Noord-Holland,VBO,4.808263,52.902285
J. C. de Leeuwweg,39,,,1764NH,Breezand,Hollands Kroon,Noord-Holland,VBO,4.807615,52.902079
J. C. de Leeuwweg,40,,,1764NH,Breezand,Hollands Kroon,Noord-Holland,VBO,4.806740,52.902846
J. C. de Leeuwweg,41,,,1764NH,Breezand,Hollands Kroon,Noord-Holland,VBO,4.806994,52.902316
J. C. de Leeuwweg,42,,,1764NH,Breezand,Hollands Kroon,Noord-Holland,VBO,4.806258,52.902989
J. C. de Leeuwweg,43,,,1764NH,Breezand,Hollands Kroon,Noord-Holland,VBO,4.805375,52.902910
J. C. de Leeuwweg,44,,,1764NH,Breezand,Hollands Kroon,Noord-Holland,VBO,4.806109,52.903045
J. C. de Leeuwweg,46,,,1764NH,Breezand,Hollands Kroon,Noord-Holland,VBO,4.805951,52.903101
J. C. de Leeuwweg,48,,,1764NH,Breezand,Hollands Kroon,Noord-Holland,VBO,4.805791,52.903150
J. C. de Leeuwweg,50,,,1764NH,Breezand,Hollands Kroon,Noord-Holland,VBO,4.805354,52.903334
Zandvaart,1,a,,1764NJ,Breezand,Hollands Kroon,Noord-Holland,VBO,4.792059,52.877280
Zandvaart,1,,,1764NJ,Breezand,Hollands Kroon,Noord-Holland,VBO,4.792489,52.877501
Zandvaart,3,a,,1764NJ,Breezand,Hollands Kroon,Noord-Holland,VBO,4.794761,52.880100
Zandvaart,3,,,1764NJ,Breezand,Hollands Kroon,Noord-Holland,VBO,4.794649,52.879907
Zandvaart,5,,,1764NJ,Breezand,Hollands Kroon,Noord-Holland,VBO,4.795205,52.880400
Zandvaart,7,,,1764NJ,Breezand,Hollands Kroon,Noord-Holland,VBO,4.795561,52.880704
Zandvaart,9,,,1764NJ,Breezand,Hollands Kroon,Noord-Holland,VBO,4.795845,52.880968
Zandvaart,11,a,01,1764NJ,Breezand,Hollands Kroon,Noord-Holland,VBO,4.798932,52.884750
Zandvaart,11,a,,1764NJ,Breezand,Hollands Kroon,Noord-Holland,VBO,4.799177,52.884645
Zandvaart,11,b,,1764NJ,Breezand,Hollands Kroon,Noord-Holland,VBO,4.799379,52.884818
Zandvaart,11,c,,1764NJ,Breezand,Hollands Kroon,Noord-Holland,VBO,4.799470,52.884916
Zandvaart,11,d,,1764NJ,Breezand,Hollands Kroon,Noord-Holland,VBO,4.799497,52.884967
Zandvaart,11,e,,1764NJ,Breezand,Hollands Kroon,Noord-Holland,VBO,4.799598,52.885063
Zandvaart,11,,,1764NJ,Breezand,Hollands Kroon,Noord-Holland,VBO,4.797598,52.882897
Zandvaart,13,a,,1764NJ,Breezand,Hollands Kroon,Noord-Holland,VBO,4.799892,52.885418
Zandvaart,13,b,,1764NJ,Breezand,Hollands Kroon,Noord-Holland,VBO,4.799998,52.885531
Zandvaart,13,,,1764NJ,Breezand,Hollands Kroon,Noord-Holland,VBO,4.799807,52.885272
Zandvaart,15,a,,1764NJ,Breezand,Hollands Kroon,Noord-Holland,VBO,4.800222,52.885772
Zandvaart,15,b,,1764NJ,Breezand,Hollands Kroon,Noord-Holland,VBO,4.800398,52.885932
Zandvaart,15,c,,1764NJ,Breezand,Hollands Kroon,Noord-Holland,VBO,4.800760,52.886339
Zandvaart,15,,,1764NJ,Breezand,Hollands Kroon,Noord-Holland,VBO,4.800117,52.885653
Zandvaart,19,,,1764NJ,Breezand,Hollands Kroon,Noord-Holland,VBO,4.801099,52.886503
Zandvaart,23,,,1764NJ,Breezand,Hollands Kroon,Noord-Holland,VBO,4.801210,52.886605
Zandvaart,25,a,,1764NK,Breezand,Hollands Kroon,Noord-Holland,VBO,4.801027,52.887027
Zandvaart,25,,,1764NK,Breezand,Hollands Kroon,Noord-Holland,VBO,4.801290,52.886857
Zandvaart,27,,,1764NK,Breezand,Hollands Kroon,Noord-Holland,VBO,4.801418,52.886971
Zandvaart,29,,,1764NK,Breezand,Hollands Kroon,Noord-Holland,VBO,4.801692,52.887173
Zandvaart,31,,,1764NK,Breezand,Hollands Kroon,Noord-Holland,VBO,4.801744,52.887248
Zandvaart,33,,,1764NK,Breezand,Hollands Kroon,Noord-Holland,VBO,4.801780,52.887303
Zandvaart,35,,,1764NK,Breezand,Hollands Kroon,Noord-Holland,VBO,4.801846,52.887361
Zandvaart,37,a,,1764NK,Breezand,Hollands Kroon,Noord-Holland,VBO,4.801980,52.887511
Zandvaart,37,,,1764NK,Breezand,Hollands Kroon,Noord-Holland,VBO,4.801887,52.887415
Zandvaart,39,a,,1764NK,Breezand,Hollands Kroon,Noord-Holland,VBO,4.802263,52.887747
Zandvaart,39,,,1764NK,Breezand,Hollands Kroon,Noord-Holland,VBO,4.802136,52.887654
Zandvaart,41,a,,1764NK,Breezand,Hollands Kroon,Noord-Holland,VBO,4.801735,52.887965
Zandvaart,41,,,1764NK,Breezand,Hollands Kroon,Noord-Holland,VBO,4.802351,52.887863
Zandvaart,43,a,,1764NK,Breezand,Hollands Kroon,Noord-Holland,VBO,4.801971,52.888182
Zandvaart,43,,,1764NK,Breezand,Hollands Kroon,Noord-Holland,VBO,4.802406,52.887936
Zandvaart,45,,,1764NK,Breezand,Hollands Kroon,Noord-Holland,VBO,4.802686,52.888184
Zandvaart,47,a,,1764NK,Breezand,Hollands Kroon,Noord-Holland,VBO,4.802822,52.888336
Zandvaart,47,,,1764NK,Breezand,Hollands Kroon,Noord-Holland,VBO,4.802727,52.888238
Zandvaart,49,,,1764NK,Breezand,Hollands Kroon,Noord-Holland,VBO,4.802885,52.888413
Zandvaart,51,,,1764NK,Breezand,Hollands Kroon,Noord-Holland,VBO,4.802923,52.888455
Zandvaart,53,,,1764NK,Breezand,Hollands Kroon,Noord-Holland,VBO,4.802998,52.888529
Zandvaart,55,,,1764NK,Breezand,Hollands Kroon,Noord-Holland,VBO,4.803061,52.888591
Zandvaart,57,a,,1764NL,Breezand,Hollands Kroon,Noord-Holland,VBO,4.804519,52.889469
Zandvaart,57,b,,1764NL,Breezand,Hollands Kroon,Noord-Holland,VBO,4.804653,52.889643
Zandvaart,57,d,,1764NL,Breezand,Hollands Kroon,Noord-Holland,VBO,4.805025,52.889526
Zandvaart,57,,,1764NL,Breezand,Hollands Kroon,Noord-Holland,VBO,4.804363,52.889345
Zandvaart,59,a,,1764NL,Breezand,Hollands Kroon,Noord-Holland,VBO,4.805795,52.889484
Zandvaart,59,,,1764NL,Breezand,Hollands Kroon,Noord-Holland,VBO,4.805937,52.889414
Zandvaart,61,,,1764NL,Breezand,Hollands Kroon,Noord-Holland,VBO,4.806018,52.889426
Zandvaart,63,,,1764NL,Breezand,Hollands Kroon,Noord-Holland,VBO,4.806109,52.889439
Zandvaart,65,,,1764NL,Breezand,Hollands Kroon,Noord-Holland,VBO,4.806199,52.889452
Zandvaart,67,,,1764NL,Breezand,Hollands Kroon,Noord-Holland,VBO,4.806277,52.889465
Zandvaart,69,,,1764NL,Breezand,Hollands Kroon,Noord-Holland,VBO,4.806960,52.889583
Zandvaart,73,,,1764NL,Breezand,Hollands Kroon,Noord-Holland,VBO,4.807354,52.889637
Zandvaart,75,,,1764NL,Breezand,Hollands Kroon,Noord-Holland,VBO,4.807522,52.889705
Zandvaart,77,a,,1764NL,Breezand,Hollands Kroon,Noord-Holland,VBO,4.808137,52.889766
Zandvaart,77,,,1764NL,Breezand,Hollands Kroon,Noord-Holland,VBO,4.808049,52.889752
Zandvaart,79,a,,1764NL,Breezand,Hollands Kroon,Noord-Holland,VBO,4.808310,52.889792
Zandvaart,79,,,1764NL,Breezand,Hollands Kroon,Noord-Holland,VBO,4.808222,52.889779
Zandvaart,81,,,1764NM,Breezand,Hollands Kroon,Noord-Holland,VBO,4.808534,52.889818
Zandvaart,83,,,1764NM,Breezand,Hollands Kroon,Noord-Holland,VBO,4.808617,52.889838
Zandvaart,85,,,1764NM,Breezand,Hollands Kroon,Noord-Holland,VBO,4.808696,52.889840
Zandvaart,87,,,1764NM,Breezand,Hollands Kroon,Noord-Holland,VBO,4.808766,52.889924
Zandvaart,89,,,1764NM,Breezand,Hollands Kroon,Noord-Holland,VBO,4.808857,52.889936
Zandvaart,91,,,1764NM,Breezand,Hollands Kroon,Noord-Holland,VBO,4.808980,52.889959
Zandvaart,93,,,1764NM,Breezand,Hollands Kroon,Noord-Holland,VBO,4.809044,52.889979
Zandvaart,95,,,1764NM,Breezand,Hollands Kroon,Noord-Holland,VBO,4.809117,52.889980
Zandvaart,97,,,1764NM,Breezand,Hollands Kroon,Noord-Holland,VBO,4.809438,52.890022
Zandvaart,99,,,1764NM,Breezand,Hollands Kroon,Noord-Holland,VBO,4.809737,52.889982
Zandvaart,105,,,1764NM,Breezand,Hollands Kroon,Noord-Holland,VBO,4.810360,52.890077
Zandvaart,109,a,,1764NM,Breezand,Hollands Kroon,Noord-Holland,VBO,4.810894,52.890168
Zandvaart,109,,,1764NM,Breezand,Hollands Kroon,Noord-Holland,VBO,4.810634,52.890121
Zandvaart,111,,,1764NM,Breezand,Hollands Kroon,Noord-Holland,VBO,4.811209,52.890206
Zandvaart,113,,,1764NM,Breezand,Hollands Kroon,Noord-Holland,VBO,4.811451,52.890241
Zandvaart,115,,,1764NM,Breezand,Hollands Kroon,Noord-Holland,VBO,4.811641,52.890347
Zandvaart,117,,,1764NM,Breezand,Hollands Kroon,Noord-Holland,VBO,4.811746,52.890361
Zandvaart,119,a,,1764NM,Breezand,Hollands Kroon,Noord-Holland,VBO,4.812151,52.890366
Zandvaart,119,,,1764NM,Breezand,Hollands Kroon,Noord-Holland,VBO,4.812001,52.890343
Zandvaart,121,,,1764NM,Breezand,Hollands Kroon,Noord-Holland,VBO,4.812471,52.890410
Zandvaart,123,,,1764NM,Breezand,Hollands Kroon,Noord-Holland,VBO,4.812716,52.890464
Zandvaart,125,,,1764NN,Breezand,Hollands Kroon,Noord-Holland,VBO,4.813446,52.890578
Zandvaart,127,,,1764NN,Breezand,Hollands Kroon,Noord-Holland,VBO,4.813724,52.890619
Zandvaart,129,,,1764NN,Breezand,Hollands Kroon,Noord-Holland,VBO,4.815542,52.890962
Zandvaart,133,a,,1764NN,Breezand,Hollands Kroon,Noord-Holland,VBO,4.817855,52.891357
Zandvaart,133,,,1764NN,Breezand,Hollands Kroon,Noord-Holland,VBO,4.816308,52.890989
Zandvaart,135,,,1764NN,Breezand,Hollands Kroon,Noord-Holland,VBO,4.819394,52.891445
Zandvaart,139,,,1764NN,Breezand,Hollands Kroon,Noord-Holland,VBO,4.823648,52.892244
Zandvaart,141,,,1764NN,Breezand,Hollands Kroon,Noord-Holland,VBO,4.824017,52.892475
Zandvaart,143,a,,1764NN,Breezand,Hollands Kroon,Noord-Holland,VBO,4.824732,52.893552
Zandvaart,143,,,1764NN,Breezand,Hollands Kroon,Noord-Holland,VBO,4.824726,52.893202
Zandvaart,145,a,,1764NN,Breezand,Hollands Kroon,Noord-Holland,VBO,4.825383,52.893935
Zandvaart,145,,,1764NN,Breezand,Hollands Kroon,Noord-Holland,VBO,4.825568,52.894020
Zandvaart,147,,,1764NP,Breezand,Hollands Kroon,Noord-Holland,VBO,4.827105,52.895548
Zandvaart,149,,,1764NP,Breezand,Hollands Kroon,Noord-Holland,VBO,4.827248,52.895765
Zandvaart,151,,,1764NP,Breezand,Hollands Kroon,Noord-Holland,VBO,4.827410,52.895903
Zandvaart,153,,,1764NP,Breezand,Hollands Kroon,Noord-Holland,VBO,4.827732,52.896192
Zandvaart,155,,,1764NP,Breezand,Hollands Kroon,Noord-Holland,VBO,4.827774,52.896232
Zandvaart,157,,,1764NP,Breezand,Hollands Kroon,Noord-Holland,VBO,4.827827,52.896281
Zandvaart,159,,,1764NP,Breezand,Hollands Kroon,Noord-Holland,VBO,4.827868,52.896322
Zandvaart,161,,,1764NP,Breezand,Hollands Kroon,Noord-Holland,VBO,4.827903,52.896378
Zandvaart,163,,,1764NP,Breezand,Hollands Kroon,Noord-Holland,VBO,4.827974,52.896426
Zandvaart,165,,,1764NP,Breezand,Hollands Kroon,Noord-Holland,VBO,4.828142,52.896595
Zandvaart,167,,,1764NP,Breezand,Hollands Kroon,Noord-Holland,VBO,4.828446,52.896951
Zandvaart,169,,,1764NP,Breezand,Hollands Kroon,Noord-Holland,VBO,4.828614,52.897123
Zandvaart,171,,,1764NP,Breezand,Hollands Kroon,Noord-Holland,VBO,4.829022,52.897610
Zandvaart,173,,,1764NP,Breezand,Hollands Kroon,Noord-Holland,VBO,4.829779,52.898430
Zandvaart,175,,,1764NP,Breezand,Hollands Kroon,Noord-Holland,VBO,4.830077,52.898793
Zandvaart,177,,,1764NP,Breezand,Hollands Kroon,Noord-Holland,VBO,4.830252,52.898943
Zandvaart,2,,,1764NR,Breezand,Hollands Kroon,Noord-Holland,VBO,4.794652,52.878589
Zandvaart,6,,,1764NR,Breezand,Hollands Kroon,Noord-Holland,VBO,4.795119,52.879082
Zandvaart,10,a,,1764NR,Breezand,Hollands Kroon,Noord-Holland,VBO,4.795274,52.879258
Zandvaart,10,,,1764NR,Breezand,Hollands Kroon,Noord-Holland,VBO,4.795177,52.879156
Zandvaart,12,,,1764NR,Breezand,Hollands Kroon,Noord-Holland,VBO,4.795357,52.879351
Zandvaart,14,,,1764NR,Breezand,Hollands Kroon,Noord-Holland,VBO,4.795429,52.879424
Zandvaart,16,,,1764NR,Breezand,Hollands Kroon,Noord-Holland,VBO,4.795486,52.879490
Zandvaart,20,,,1764NR,Breezand,Hollands Kroon,Noord-Holland,VBO,4.796119,52.880137
Zandvaart,22,,,1764NR,Breezand,Hollands Kroon,Noord-Holland,VBO,4.796304,52.880126
Zandvaart,24,,,1764NR,Breezand,Hollands Kroon,Noord-Holland,VBO,4.796237,52.880271
Zandvaart,26,,,1764NR,Breezand,Hollands Kroon,Noord-Holland,VBO,4.796282,52.880316
Zandvaart,28,,,1764NR,Breezand,Hollands Kroon,Noord-Holland,VBO,4.796364,52.880399
Zandvaart,30,a,,1764NR,Breezand,Hollands Kroon,Noord-Holland,VBO,4.797110,52.881190
Zandvaart,30,,,1764NR,Breezand,Hollands Kroon,Noord-Holland,VBO,4.796402,52.880444
Zandvaart,32,,,1764NR,Breezand,Hollands Kroon,Noord-Holland,VBO,4.797318,52.881407
Zandvaart,34,a,,1764NR,Breezand,Hollands Kroon,Noord-Holland,VBO,4.797627,52.881572
Zandvaart,34,,,1764NR,Breezand,Hollands Kroon,Noord-Holland,VBO,4.797666,52.881764
Zandvaart,36,,,1764NR,Breezand,Hollands Kroon,Noord-Holland,VBO,4.800107,52.884364
Zandvaart,38,,,1764NS,Breezand,Hollands Kroon,Noord-Holland,VBO,4.800338,52.884642
Zandvaart,40,,,1764NS,Breezand,Hollands Kroon,Noord-Holland,VBO,4.800392,52.884703
Zandvaart,42,,,1764NS,Breezand,Hollands Kroon,Noord-Holland,VBO,4.800501,52.884818
Zandvaart,44,,,1764NS,Breezand,Hollands Kroon,Noord-Holland,VBO,4.800562,52.884879
Zandvaart,46,,,1764NS,Breezand,Hollands Kroon,Noord-Holland,VBO,4.800691,52.884975
Zandvaart,48,,,1764NS,Breezand,Hollands Kroon,Noord-Holland,VBO,4.800723,52.885050
Zandvaart,50,,,1764NT,Breezand,Hollands Kroon,Noord-Holland,VBO,4.800906,52.885251
Zandvaart,52,,,1764NT,Breezand,Hollands Kroon,Noord-Holland,VBO,4.800938,52.885290
Zandvaart,54,,,1764NT,Breezand,Hollands Kroon,Noord-Holland,VBO,4.801074,52.885389
Zandvaart,56,,,1764NT,Breezand,Hollands Kroon,Noord-Holland,VBO,4.801110,52.885430
Zandvaart,58,,,1764NT,Breezand,Hollands Kroon,Noord-Holland,VBO,4.801197,52.885548
Zandvaart,60,,,1764NT,Breezand,Hollands Kroon,Noord-Holland,VBO,4.801232,52.885585
Zandvaart,62,,,1764NT,Breezand,Hollands Kroon,Noord-Holland,VBO,4.801324,52.885688
Zandvaart,64,,,1764NT,Breezand,Hollands Kroon,Noord-Holland,VBO,4.801375,52.885736
Zandvaart,66,,,1764NT,Breezand,Hollands Kroon,Noord-Holland,VBO,4.801483,52.885836
Zandvaart,68,,,1764NT,Breezand,Hollands Kroon,Noord-Holland,VBO,4.801510,52.885886
Zandvaart,70,,,1764NT,Breezand,Hollands Kroon,Noord-Holland,VBO,4.801618,52.885993
Zandvaart,72,,,1764NT,Breezand,Hollands Kroon,Noord-Holland,VBO,4.801651,52.886036
Zandvaart,74,,,1764NT,Breezand,Hollands Kroon,Noord-Holland,VBO,4.801753,52.886143
Zandvaart,76,,,1764NT,Breezand,Hollands Kroon,Noord-Holland,VBO,4.801790,52.886184
Zandvaart,78,,,1764NT,Breezand,Hollands Kroon,Noord-Holland,VBO,4.801869,52.886315
Zandvaart,80,a,,1764NV,Breezand,Hollands Kroon,Noord-Holland,VBO,4.802210,52.886632
Zandvaart,80,b,,1764NV,Breezand,Hollands Kroon,Noord-Holland,VBO,4.802306,52.886748
Zandvaart,80,,,1764NV,Breezand,Hollands Kroon,Noord-Holland,VBO,4.802100,52.886532
Zandvaart,82,a,,1764NV,Breezand,Hollands Kroon,Noord-Holland,VBO,4.802614,52.886963
Zandvaart,82,,,1764NV,Breezand,Hollands Kroon,Noord-Holland,VBO,4.802522,52.886855
Zandvaart,84,,,1764NV,Breezand,Hollands Kroon,Noord-Holland,VBO,4.802685,52.887143
Zandvaart,86,,,1764NV,Breezand,Hollands Kroon,Noord-Holland,VBO,4.802734,52.887199
Zandvaart,88,,,1764NV,Breezand,Hollands Kroon,Noord-Holland,VBO,4.802840,52.887310
Zandvaart,90,,,1764NV,Breezand,Hollands Kroon,Noord-Holland,VBO,4.802895,52.887365
Zandvaart,92,,,1764NV,Breezand,Hollands Kroon,Noord-Holland,VBO,4.802998,52.887473
Zandvaart,94,,01,1764NV,Breezand,Hollands Kroon,Noord-Holland,VBO,4.803100,52.887515
Zandvaart,94,,,1764NV,Breezand,Hollands Kroon,Noord-Holland,VBO,4.803050,52.887530
Zandvaart,96,,,1764NV,Breezand,Hollands Kroon,Noord-Holland,VBO,4.803152,52.887635
Zandvaart,98,,,1764NV,Breezand,Hollands Kroon,Noord-Holland,VBO,4.803202,52.887697
Zandvaart,100,,,1764NW,Breezand,Hollands Kroon,Noord-Holland,VBO,4.803875,52.888497
Zandvaart,102,,,1764NW,Breezand,Hollands Kroon,Noord-Holland,VBO,4.804261,52.888603
Zandvaart,104,,,1764NW,Breezand,Hollands Kroon,Noord-Holland,VBO,4.804553,52.888644
Zandvaart,108,,,1764NW,Breezand,Hollands Kroon,Noord-Holland,VBO,4.804781,52.888677
Zandvaart,110,,,1764NW,Breezand,Hollands Kroon,Noord-Holland,VBO,4.804927,52.888694
Zandvaart,112,,,1764NW,Breezand,Hollands Kroon,Noord-Holland,VBO,4.805102,52.888718
Zandvaart,114,,,1764NW,Breezand,Hollands Kroon,Noord-Holland,VBO,4.805230,52.888740
Zandvaart,116,,,1764NW,Breezand,Hollands Kroon,Noord-Holland,VBO,4.805329,52.888753
Zandvaart,118,,,1764NW,Breezand,Hollands Kroon,Noord-Holland,VBO,4.805601,52.888799
Zandvaart,120,,,1764NW,Breezand,Hollands Kroon,Noord-Holland,VBO,4.806019,52.888861
Zandvaart,124,,,1764NW,Breezand,Hollands Kroon,Noord-Holland,VBO,4.806367,52.888901
Zandvaart,126,a,,1764NW,Breezand,Hollands Kroon,Noord-Holland,VBO,4.806647,52.888947
Zandvaart,126,,,1764NW,Breezand,Hollands Kroon,Noord-Holland,VBO,4.806488,52.888917
Zandvaart,128,a,,1764NW,Breezand,Hollands Kroon,Noord-Holland,VBO,4.807252,52.889111
Zandvaart,128,b,,1764NW,Breezand,Hollands Kroon,Noord-Holland,VBO,4.807383,52.889125
Zandvaart,128,,,1764NW,Breezand,Hollands Kroon,Noord-Holland,VBO,4.806739,52.888963
Zandvaart,130,,,1764NW,Breezand,Hollands Kroon,Noord-Holland,VBO,4.807558,52.889151
Zandvaart,132,,,1764NW,Breezand,Hollands Kroon,Noord-Holland,VBO,4.807648,52.889166
Zandvaart,134,,,1764NW,Breezand,Hollands Kroon,Noord-Holland,VBO,4.807761,52.889185
Zandvaart,136,,,1764NW,Breezand,Hollands Kroon,Noord-Holland,VBO,4.807834,52.889193
Zandvaart,138,,,1764NX,Breezand,Hollands Kroon,Noord-Holland,VBO,4.808082,52.889186
Zandvaart,140,,,1764NX,Breezand,Hollands Kroon,Noord-Holland,VBO,4.808405,52.889133
Zandvaart,142,,G01,1764NX,Breezand,Hollands Kroon,Noord-Holland,VBO,4.808455,52.888958
Zandvaart,142,,,1764NX,Breezand,Hollands Kroon,Noord-Holland,VBO,4.808606,52.889247
Zandvaart,144,,,1764NX,Breezand,Hollands Kroon,Noord-Holland,VBO,4.809016,52.889306
Zandvaart,146,,,1764NX,Breezand,Hollands Kroon,Noord-Holland,VBO,4.809218,52.889341
Zandvaart,148,,,1764NX,Breezand,Hollands Kroon,Noord-Holland,VBO,4.809457,52.889378
Zandvaart,150,,,1764NX,Breezand,Hollands Kroon,Noord-Holland,VBO,4.809732,52.889417
Zandvaart,152,,,1764NX,Breezand,Hollands Kroon,Noord-Holland,VBO,4.809954,52.889451
Zandvaart,160,,,1764NX,Breezand,Hollands Kroon,Noord-Holland,VBO,4.810173,52.889484
Zandvaart,162,,,1764NX,Breezand,Hollands Kroon,Noord-Holland,VBO,4.810346,52.889577
Zandvaart,164,,,1764NX,Breezand,Hollands Kroon,Noord-Holland,VBO,4.810411,52.889582
Zandvaart,170,,,1764NX,Breezand,Hollands Kroon,Noord-Holland,VBO,4.810764,52.889641
Zandvaart,174,,,1764NX,Breezand,Hollands Kroon,Noord-Holland,VBO,4.810921,52.889668
Zandvaart,176,,,1764NX,Breezand,Hollands Kroon,Noord-Holland,VBO,4.811125,52.889695
Zandvaart,178,,,1764NX,Breezand,Hollands Kroon,Noord-Holland,VBO,4.811229,52.889709
Zandvaart,180,,,1764NX,Breezand,Hollands Kroon,Noord-Holland,VBO,4.811364,52.889730
Zandvaart,182,,,1764NX,Breezand,Hollands Kroon,Noord-Holland,VBO,4.811438,52.889743
Zandvaart,184,b,,1764NX,Breezand,Hollands Kroon,Noord-Holland,VBO,4.812651,52.889875
Zandvaart,184,c,,1764NX,Breezand,Hollands Kroon,Noord-Holland,VBO,4.812973,52.889880
Zandvaart,184,,,1764NX,Breezand,Hollands Kroon,Noord-Holland,VBO,4.811731,52.889757
Zandvaart,186,a,,1764NZ,Breezand,Hollands Kroon,Noord-Holland,VBO,4.813783,52.889862
Zandvaart,186,,,1764NZ,Breezand,Hollands Kroon,Noord-Holland,VBO,4.813324,52.889963
Zandvaart,188,,,1764NZ,Breezand,Hollands Kroon,Noord-Holland,VBO,4.815668,52.890362
Zandvaart,190,a,,1764NZ,Breezand,Hollands Kroon,Noord-Holland,VBO,4.819105,52.890837
Zandvaart,190,,,1764NZ,Breezand,Hollands Kroon,Noord-Holland,VBO,4.818993,52.890824
Zandvaart,192,,,1764NZ,Breezand,Hollands Kroon,Noord-Holland,VBO,4.820126,52.891023
Zandvaart,194,,,1764NZ,Breezand,Hollands Kroon,Noord-Holland,VBO,4.824657,52.891905
Zandvaart,196,,,1764NZ,Breezand,Hollands Kroon,Noord-Holland,VBO,4.825447,52.891532
Zandvaart,198,a,,1764NZ,Breezand,Hollands Kroon,Noord-Holland,VBO,4.827339,52.894093
Zandvaart,198,,,1764NZ,Breezand,Hollands Kroon,Noord-Holland,VBO,4.826896,52.894342
