openbareruimtenaam,huisnummer,huisletter,huisnummertoevoeging,postcode,woonplaatsnaam,gemeentenaam,provincienaam,typeadresseerbaarobject,longitude,latitude
Wieringerwaardweg,1,,,1766EA,Wieringerwaard,Hollands Kroon,Noord-Holland,VBO,4.892353,52.830247
Wieringerwaardweg,2,,,1766EA,Wieringerwaard,Hollands Kroon,Noord-Holland,VBO,4.891751,52.829985
Wieringerwaardweg,6,,,1766EA,Wieringerwaard,Hollands Kroon,Noord-Holland,VBO,4.895143,52.829610
Waardpolderhoofdweg,1,a,,1766EB,Wieringerwaard,Hollands Kroon,Noord-Holland,VBO,4.900389,52.825857
Waardpolderhoofdweg,1,,,1766EB,Wieringerwaard,Hollands Kroon,Noord-Holland,VBO,4.896991,52.829709
Waardpolderhoofdweg,3,,,1766EB,Wieringerwaard,Hollands Kroon,Noord-Holland,VBO,4.901043,52.825512
Waardpolderhoofdweg,5,,,1766EB,Wieringerwaard,Hollands Kroon,Noord-Holland,VBO,4.901159,52.825399
Waardpolderhoofdweg,7,,,1766EB,Wieringerwaard,Hollands Kroon,Noord-Holland,VBO,4.898689,52.820071
Waardpolderhoofdweg,15,a,,1766EB,Wieringerwaard,Hollands Kroon,Noord-Holland,VBO,4.898252,52.817397
Waardpolderhoofdweg,15,b,,1766EB,Wieringerwaard,Hollands Kroon,Noord-Holland,VBO,4.899042,52.817861
Waardpolderhoofdweg,15,,,1766EB,Wieringerwaard,Hollands Kroon,Noord-Holland,VBO,4.898285,52.817655
Waardpolderhoofdweg,17,,,1766EB,Wieringerwaard,Hollands Kroon,Noord-Holland,VBO,4.896557,52.811801
Waardpolderhoofdweg,21,,,1766EB,Wieringerwaard,Hollands Kroon,Noord-Holland,VBO,4.896312,52.811272
Waardpolderhoofdweg,23,,,1766EB,Wieringerwaard,Hollands Kroon,Noord-Holland,VBO,4.895978,52.810178
Waardpolderhoofdweg,25,,,1766EB,Wieringerwaard,Hollands Kroon,Noord-Holland,VBO,4.895467,52.807750
Waardpolderhoofdweg,27,,,1766EB,Wieringerwaard,Hollands Kroon,Noord-Holland,VBO,4.894811,52.806362
Waardpolderhoofdweg,29,,,1766EB,Wieringerwaard,Hollands Kroon,Noord-Holland,VBO,4.894664,52.805590
Waardpolderhoofdweg,31,a,,1766EB,Wieringerwaard,Hollands Kroon,Noord-Holland,VBO,4.892783,52.800576
Waardpolderhoofdweg,31,,,1766EB,Wieringerwaard,Hollands Kroon,Noord-Holland,VBO,4.893894,52.802541
Waardpolderhoofdweg,33,,,1766EB,Wieringerwaard,Hollands Kroon,Noord-Holland,VBO,4.892253,52.799677
Waardpolderhoofdweg,2,,,1766EC,Wieringerwaard,Hollands Kroon,Noord-Holland,VBO,4.899742,52.826364
Waardpolderhoofdweg,4,,,1766EC,Wieringerwaard,Hollands Kroon,Noord-Holland,VBO,4.899599,52.825523
Waardpolderhoofdweg,6,,,1766EC,Wieringerwaard,Hollands Kroon,Noord-Holland,VBO,4.898646,52.823166
Waardpolderhoofdweg,8,t,,1766EC,Wieringerwaard,Hollands Kroon,Noord-Holland,VBO,4.898571,52.822159
Waardpolderhoofdweg,8,,,1766EC,Wieringerwaard,Hollands Kroon,Noord-Holland,VBO,4.898251,52.821979
Waardpolderhoofdweg,10,,,1766EC,Wieringerwaard,Hollands Kroon,Noord-Holland,VBO,4.897421,52.817717
Waardpolderhoofdweg,12,a,,1766EC,Wieringerwaard,Hollands Kroon,Noord-Holland,VBO,4.894793,52.813094
Waardpolderhoofdweg,12,,,1766EC,Wieringerwaard,Hollands Kroon,Noord-Holland,VBO,4.896056,52.812959
Waardpolderhoofdweg,14,,,1766EC,Wieringerwaard,Hollands Kroon,Noord-Holland,VBO,4.895951,52.812600
Waardpolderhoofdweg,16,,,1766EC,Wieringerwaard,Hollands Kroon,Noord-Holland,VBO,4.895924,52.812329
Waardpolderhoofdweg,18,,,1766EC,Wieringerwaard,Hollands Kroon,Noord-Holland,VBO,4.894895,52.808947
Waardpolderhoofdweg,20,,,1766EC,Wieringerwaard,Hollands Kroon,Noord-Holland,VBO,4.894872,52.808852
Waardpolderhoofdweg,22,,,1766EC,Wieringerwaard,Hollands Kroon,Noord-Holland,VBO,4.894479,52.808381
Waardpolderhoofdweg,24,,,1766EC,Wieringerwaard,Hollands Kroon,Noord-Holland,VBO,4.893178,52.802138
Waardpolderhoofdweg,26,,,1766EC,Wieringerwaard,Hollands Kroon,Noord-Holland,VBO,4.892645,52.801791
Kreil,1,,,1766ED,Wieringerwaard,Hollands Kroon,Noord-Holland,VBO,4.860388,52.801345
Kreil,3,,,1766ED,Wieringerwaard,Hollands Kroon,Noord-Holland,VBO,4.865130,52.801244
Kreil,7,,,1766ED,Wieringerwaard,Hollands Kroon,Noord-Holland,VBO,4.868481,52.800855
Kreil,9,a,,1766ED,Wieringerwaard,Hollands Kroon,Noord-Holland,VBO,4.869845,52.800652
Kreil,9,,,1766ED,Wieringerwaard,Hollands Kroon,Noord-Holland,VBO,4.869814,52.800546
Kreil,11,,,1766ED,Wieringerwaard,Hollands Kroon,Noord-Holland,VBO,4.871568,52.799699
Kreil,13,,,1766ED,Wieringerwaard,Hollands Kroon,Noord-Holland,VBO,4.872690,52.799065
Poolland,7,,,1766EE,Wieringerwaard,Hollands Kroon,Noord-Holland,VBO,4.845445,52.805536
Poolland,9,,,1766EE,Wieringerwaard,Hollands Kroon,Noord-Holland,VBO,4.845735,52.805368
Poolland,11,,,1766EE,Wieringerwaard,Hollands Kroon,Noord-Holland,VBO,4.847607,52.804790
Poolland,13,,,1766EE,Wieringerwaard,Hollands Kroon,Noord-Holland,VBO,4.849186,52.804248
Poolland,15,,,1766EE,Wieringerwaard,Hollands Kroon,Noord-Holland,VBO,4.852795,52.802882
P. van der Sterrweg,1,,,1766EG,Wieringerwaard,Hollands Kroon,Noord-Holland,VBO,4.909841,52.806202
Nieuwesluis,1,,,1766GA,Wieringerwaard,Hollands Kroon,Noord-Holland,VBO,4.889252,52.832738
Nieuwesluis,2,,,1766GA,Wieringerwaard,Hollands Kroon,Noord-Holland,VBO,4.889551,52.832344
Nieuwesluis,3,a,,1766GA,Wieringerwaard,Hollands Kroon,Noord-Holland,VBO,4.889410,52.833301
Nieuwesluis,3,,,1766GA,Wieringerwaard,Hollands Kroon,Noord-Holland,VBO,4.889317,52.832926
Nieuwesluis,4,,,1766GA,Wieringerwaard,Hollands Kroon,Noord-Holland,VBO,4.889626,52.832617
Nieuwesluis,5,,,1766GA,Wieringerwaard,Hollands Kroon,Noord-Holland,VBO,4.889554,52.833973
Nieuwesluis,6,,,1766GA,Wieringerwaard,Hollands Kroon,Noord-Holland,VBO,4.889690,52.832832
Nieuwesluis,7,,,1766GA,Wieringerwaard,Hollands Kroon,Noord-Holland,VBO,4.889591,52.834090
Nieuwesluis,8,,,1766GA,Wieringerwaard,Hollands Kroon,Noord-Holland,VBO,4.890529,52.834670
Nieuwesluis,9,,,1766GA,Wieringerwaard,Hollands Kroon,Noord-Holland,VBO,4.889606,52.834146
Nieuwesluis,11,,,1766GA,Wieringerwaard,Hollands Kroon,Noord-Holland,VBO,4.889730,52.834312
Nieuwesluis,13,,,1766GA,Wieringerwaard,Hollands Kroon,Noord-Holland,VBO,4.889810,52.834592
Nieuwesluis,14,,,1766GA,Wieringerwaard,Hollands Kroon,Noord-Holland,VBO,4.890644,52.835084
Nieuwesluis,15,,,1766GA,Wieringerwaard,Hollands Kroon,Noord-Holland,VBO,4.889776,52.834699
Nieuwesluis,16,,,1766GA,Wieringerwaard,Hollands Kroon,Noord-Holland,VBO,4.890653,52.835246
Nieuwesluis,17,,,1766GA,Wieringerwaard,Hollands Kroon,Noord-Holland,VBO,4.889997,52.835292
Nieuwesluis,18,,,1766GA,Wieringerwaard,Hollands Kroon,Noord-Holland,VBO,4.890785,52.835549
Nieuwesluis,20,,,1766GA,Wieringerwaard,Hollands Kroon,Noord-Holland,VBO,4.890800,52.835748
Nieuwesluis,21,,,1766GA,Wieringerwaard,Hollands Kroon,Noord-Holland,VBO,4.890060,52.835526
Nieuwesluis,22,,,1766GA,Wieringerwaard,Hollands Kroon,Noord-Holland,VBO,4.890990,52.835996
Nieuwesluis,23,a,,1766GB,Wieringerwaard,Hollands Kroon,Noord-Holland,VBO,4.890290,52.836366
Nieuwesluis,23,b,,1766GB,Wieringerwaard,Hollands Kroon,Noord-Holland,VBO,4.890358,52.836498
Nieuwesluis,24,,,1766GB,Wieringerwaard,Hollands Kroon,Noord-Holland,VBO,4.891000,52.836445
Nieuwesluis,25,,,1766GB,Wieringerwaard,Hollands Kroon,Noord-Holland,VBO,4.890654,52.837647
Nieuwesluis,26,,,1766GB,Wieringerwaard,Hollands Kroon,Noord-Holland,VBO,4.890767,52.836690
Nieuwesluis,28,,,1766GB,Wieringerwaard,Hollands Kroon,Noord-Holland,VBO,4.890871,52.836899
Nieuwesluis,29,,,1766GB,Wieringerwaard,Hollands Kroon,Noord-Holland,VBO,4.890718,52.837823
Nieuwesluis,30,,,1766GB,Wieringerwaard,Hollands Kroon,Noord-Holland,VBO,4.890967,52.837232
Nieuwesluis,31,,,1766GB,Wieringerwaard,Hollands Kroon,Noord-Holland,VBO,4.890864,52.838185
Nieuwesluis,32,,,1766GB,Wieringerwaard,Hollands Kroon,Noord-Holland,VBO,4.890991,52.837491
Nieuwesluis,33,,,1766GB,Wieringerwaard,Hollands Kroon,Noord-Holland,VBO,4.890923,52.838572
Nieuwesluis,34,,,1766GB,Wieringerwaard,Hollands Kroon,Noord-Holland,VBO,4.891616,52.839300
Nieuwesluis,35,,,1766GB,Wieringerwaard,Hollands Kroon,Noord-Holland,VBO,4.891007,52.838747
Nieuwesluis,36,,,1766GB,Wieringerwaard,Hollands Kroon,Noord-Holland,LIG,4.892362,52.837061
Nieuwesluis,37,,,1766GB,Wieringerwaard,Hollands Kroon,Noord-Holland,VBO,4.890971,52.839065
Nieuwesluis,39,,,1766GB,Wieringerwaard,Hollands Kroon,Noord-Holland,VBO,4.891024,52.839166
Nieuwesluis,41,,,1766GB,Wieringerwaard,Hollands Kroon,Noord-Holland,VBO,4.891138,52.839291
Nieuwesluis,43,,,1766GB,Wieringerwaard,Hollands Kroon,Noord-Holland,VBO,4.891209,52.839506
Nieuwesluis,45,,,1766GB,Wieringerwaard,Hollands Kroon,Noord-Holland,VBO,4.891149,52.839592
Nieuwesluis,47,,,1766GB,Wieringerwaard,Hollands Kroon,Noord-Holland,VBO,4.891252,52.839696
Nieuwesluis,49,,,1766GB,Wieringerwaard,Hollands Kroon,Noord-Holland,VBO,4.891302,52.839806
Nieuwesluis,51,,,1766GB,Wieringerwaard,Hollands Kroon,Noord-Holland,VBO,4.891365,52.840114
Sluizerweg,1,a,,1766GC,Wieringerwaard,Hollands Kroon,Noord-Holland,VBO,4.878372,52.833463
Sluizerweg,1,,,1766GC,Wieringerwaard,Hollands Kroon,Noord-Holland,VBO,4.876901,52.833449
Sluizerweg,2,,,1766GC,Wieringerwaard,Hollands Kroon,Noord-Holland,VBO,4.879621,52.833180
Sluizerweg,3,,,1766GC,Wieringerwaard,Hollands Kroon,Noord-Holland,VBO,4.880380,52.833078
Sluizerweg,4,,,1766GC,Wieringerwaard,Hollands Kroon,Noord-Holland,VBO,4.882004,52.833135
Sluizerweg,5,,,1766GC,Wieringerwaard,Hollands Kroon,Noord-Holland,VBO,4.882978,52.832836
Sluizerweg,6,,,1766GC,Wieringerwaard,Hollands Kroon,Noord-Holland,VBO,4.883084,52.832826
Sluizerweg,7,,,1766GC,Wieringerwaard,Hollands Kroon,Noord-Holland,VBO,4.884260,52.832711
Sluizerweg,8,,,1766GC,Wieringerwaard,Hollands Kroon,Noord-Holland,VBO,4.884989,52.832749
Sluizerweg,9,,,1766GC,Wieringerwaard,Hollands Kroon,Noord-Holland,VBO,4.886231,52.832542
Sluizerweg,10,a,,1766GC,Wieringerwaard,Hollands Kroon,Noord-Holland,VBO,4.889298,52.831808
Sluizerweg,10,t,,1766GC,Wieringerwaard,Hollands Kroon,Noord-Holland,VBO,4.889309,52.831890
Sluizerweg,10,,,1766GC,Wieringerwaard,Hollands Kroon,Noord-Holland,VBO,4.888978,52.831934
Barsingerweg,1,,,1766GD,Wieringerwaard,Hollands Kroon,Noord-Holland,VBO,4.875850,52.831612
Barsingerweg,2,,,1766GD,Wieringerwaard,Hollands Kroon,Noord-Holland,VBO,4.875798,52.831334
Barsingerweg,3,,,1766GD,Wieringerwaard,Hollands Kroon,Noord-Holland,VBO,4.875512,52.830345
Barsingerweg,4,a,,1766GD,Wieringerwaard,Hollands Kroon,Noord-Holland,VBO,4.876177,52.829664
Barsingerweg,4,,,1766GD,Wieringerwaard,Hollands Kroon,Noord-Holland,VBO,4.875426,52.829777
Barsingerweg,5,,,1766GD,Wieringerwaard,Hollands Kroon,Noord-Holland,VBO,4.875134,52.827093
Barsingerweg,7,,,1766GD,Wieringerwaard,Hollands Kroon,Noord-Holland,VBO,4.874407,52.826456
Barsingerweg,8,,,1766GD,Wieringerwaard,Hollands Kroon,Noord-Holland,VBO,4.874347,52.825994
Barsingerweg,9,a,,1766GD,Wieringerwaard,Hollands Kroon,Noord-Holland,VBO,4.873501,52.823273
Barsingerweg,10,,,1766GD,Wieringerwaard,Hollands Kroon,Noord-Holland,VBO,4.873059,52.821624
Barsingerweg,11,,,1766GD,Wieringerwaard,Hollands Kroon,Noord-Holland,VBO,4.872643,52.820251
Barsingerweg,12,,,1766GD,Wieringerwaard,Hollands Kroon,Noord-Holland,VBO,4.872406,52.819251
Barsingerweg,13,,,1766GD,Wieringerwaard,Hollands Kroon,Noord-Holland,VBO,4.872255,52.818834
Barsingerweg,14,a,,1766GD,Wieringerwaard,Hollands Kroon,Noord-Holland,VBO,4.872528,52.818365
Barsingerweg,14,,,1766GD,Wieringerwaard,Hollands Kroon,Noord-Holland,VBO,4.872151,52.818515
Barsingerweg,15,,,1766GD,Wieringerwaard,Hollands Kroon,Noord-Holland,VBO,4.871883,52.817882
Barsingerweg,16,,,1766GD,Wieringerwaard,Hollands Kroon,Noord-Holland,VBO,4.871870,52.817652
Barsingerweg,17,,,1766GD,Wieringerwaard,Hollands Kroon,Noord-Holland,VBO,4.871852,52.817558
Barsingerweg,19,,,1766GD,Wieringerwaard,Hollands Kroon,Noord-Holland,VBO,4.870353,52.811511
Barsingerweg,20,,,1766GD,Wieringerwaard,Hollands Kroon,Noord-Holland,VBO,4.870030,52.810507
Barsingerweg,21,a,,1766GD,Wieringerwaard,Hollands Kroon,Noord-Holland,VBO,4.867222,52.801301
Barsingerweg,21,,,1766GD,Wieringerwaard,Hollands Kroon,Noord-Holland,VBO,4.867186,52.801203
Barsingerweg,22,,,1766GE,Wieringerwaard,Hollands Kroon,Noord-Holland,VBO,4.866579,52.801431
Barsingerweg,23,,,1766GE,Wieringerwaard,Hollands Kroon,Noord-Holland,VBO,4.868885,52.809416
Barsingerweg,24,,,1766GE,Wieringerwaard,Hollands Kroon,Noord-Holland,VBO,4.869063,52.810208
Barsingerweg,25,,,1766GE,Wieringerwaard,Hollands Kroon,Noord-Holland,VBO,4.869376,52.811783
Barsingerweg,26,,,1766GE,Wieringerwaard,Hollands Kroon,Noord-Holland,VBO,4.869744,52.812818
Barsingerweg,28,,,1766GE,Wieringerwaard,Hollands Kroon,Noord-Holland,VBO,4.870054,52.813978
Barsingerweg,29,,,1766GE,Wieringerwaard,Hollands Kroon,Noord-Holland,VBO,4.870327,52.814993
Barsingerweg,30,,,1766GE,Wieringerwaard,Hollands Kroon,Noord-Holland,VBO,4.870724,52.816332
Barsingerweg,31,,,1766GE,Wieringerwaard,Hollands Kroon,Noord-Holland,VBO,4.870870,52.817307
Barsingerweg,32,,,1766GE,Wieringerwaard,Hollands Kroon,Noord-Holland,VBO,4.871290,52.818679
Barsingerweg,33,,,1766GE,Wieringerwaard,Hollands Kroon,Noord-Holland,VBO,4.871806,52.819968
Barsingerweg,34,,,1766GE,Wieringerwaard,Hollands Kroon,Noord-Holland,VBO,4.872345,52.822286
Barsingerweg,35,,,1766GE,Wieringerwaard,Hollands Kroon,Noord-Holland,VBO,4.872373,52.822358
Barsingerweg,36,,,1766GE,Wieringerwaard,Hollands Kroon,Noord-Holland,VBO,4.872632,52.823476
Barsingerweg,37,,,1766GE,Wieringerwaard,Hollands Kroon,Noord-Holland,VBO,4.872797,52.824019
Barsingerweg,38,,,1766GE,Wieringerwaard,Hollands Kroon,Noord-Holland,VBO,4.873138,52.824682
Barsingerweg,39,t,,1766GE,Wieringerwaard,Hollands Kroon,Noord-Holland,VBO,4.875453,52.832966
Barsingerweg,39,,,1766GE,Wieringerwaard,Hollands Kroon,Noord-Holland,VBO,4.875392,52.832696
Kruisweg,1,a,,1766GG,Wieringerwaard,Hollands Kroon,Noord-Holland,VBO,4.850519,52.820047
Kruisweg,1,,,1766GG,Wieringerwaard,Hollands Kroon,Noord-Holland,VBO,4.849092,52.820174
Kruisweg,2,,,1766GG,Wieringerwaard,Hollands Kroon,Noord-Holland,VBO,4.852850,52.819681
Kruisweg,3,a,,1766GG,Wieringerwaard,Hollands Kroon,Noord-Holland,VBO,4.856656,52.819337
Kruisweg,3,,,1766GG,Wieringerwaard,Hollands Kroon,Noord-Holland,VBO,4.855316,52.819418
Kruisweg,4,,,1766GG,Wieringerwaard,Hollands Kroon,Noord-Holland,VBO,4.858766,52.819151
Walingsweg,1,,,1766GH,Wieringerwaard,Hollands Kroon,Noord-Holland,VBO,4.850525,52.834040
Walingsweg,3,,,1766GH,Wieringerwaard,Hollands Kroon,Noord-Holland,VBO,4.849316,52.829301
Walingsweg,5,,,1766GH,Wieringerwaard,Hollands Kroon,Noord-Holland,VBO,4.849305,52.828955
Walingsweg,6,,,1766GH,Wieringerwaard,Hollands Kroon,Noord-Holland,VBO,4.849415,52.828788
Walingsweg,7,,,1766GH,Wieringerwaard,Hollands Kroon,Noord-Holland,VBO,4.849060,52.828265
Walingsweg,8,,,1766GH,Wieringerwaard,Hollands Kroon,Noord-Holland,VBO,4.848750,52.827304
Walingsweg,9,a,,1766GH,Wieringerwaard,Hollands Kroon,Noord-Holland,VBO,4.849124,52.826387
Walingsweg,9,,,1766GH,Wieringerwaard,Hollands Kroon,Noord-Holland,VBO,4.848458,52.826354
Walingsweg,10,,,1766GH,Wieringerwaard,Hollands Kroon,Noord-Holland,VBO,4.848098,52.824852
Walingsweg,11,a,,1766GH,Wieringerwaard,Hollands Kroon,Noord-Holland,VBO,4.846609,52.819755
Walingsweg,11,,,1766GH,Wieringerwaard,Hollands Kroon,Noord-Holland,VBO,4.846643,52.819902
Walingsweg,13,t,,1766GH,Wieringerwaard,Hollands Kroon,Noord-Holland,VBO,4.845700,52.818539
Walingsweg,13,,,1766GH,Wieringerwaard,Hollands Kroon,Noord-Holland,VBO,4.845662,52.818370
Walingsweg,14,,,1766GH,Wieringerwaard,Hollands Kroon,Noord-Holland,VBO,4.845823,52.817025
Walingsweg,15,,,1766GH,Wieringerwaard,Hollands Kroon,Noord-Holland,VBO,4.845139,52.816618
Walingsweg,16,,,1766GH,Wieringerwaard,Hollands Kroon,Noord-Holland,VBO,4.845817,52.815999
Walingsweg,17,,,1766GH,Wieringerwaard,Hollands Kroon,Noord-Holland,VBO,4.845476,52.815745
Walingsweg,19,,,1766GH,Wieringerwaard,Hollands Kroon,Noord-Holland,VBO,4.845002,52.814021
Walingsweg,20,,,1766GH,Wieringerwaard,Hollands Kroon,Noord-Holland,VBO,4.844877,52.813429
Walingsweg,21,,,1766GH,Wieringerwaard,Hollands Kroon,Noord-Holland,VBO,4.842353,52.806493
Zuiderweg,1,,,1766GJ,Wieringerwaard,Hollands Kroon,Noord-Holland,VBO,4.844802,52.815752
Zuiderweg,2,,,1766GJ,Wieringerwaard,Hollands Kroon,Noord-Holland,VBO,4.842959,52.815494
Zuiderweg,3,,,1766GJ,Wieringerwaard,Hollands Kroon,Noord-Holland,VBO,4.835098,52.812273
Zuiderweg,4,,,1766GJ,Wieringerwaard,Hollands Kroon,Noord-Holland,VBO,4.841673,52.815083
Zuiderweg,5,,,1766GJ,Wieringerwaard,Hollands Kroon,Noord-Holland,VBO,4.835026,52.812250
Slikkerdijk,1,,,1766GK,Wieringerwaard,Hollands Kroon,Noord-Holland,VBO,4.833537,52.809038
Slikkerdijk,2,,,1766GK,Wieringerwaard,Hollands Kroon,Noord-Holland,VBO,4.832066,52.810874
Slikkerdijk,3,,,1766GK,Wieringerwaard,Hollands Kroon,Noord-Holland,VBO,4.829455,52.813803
Slikkerdijk,4,a,,1766GK,Wieringerwaard,Hollands Kroon,Noord-Holland,VBO,4.826760,52.816752
Slikkerdijk,4,,,1766GK,Wieringerwaard,Hollands Kroon,Noord-Holland,VBO,4.827091,52.816516
Slikkerdijk,5,,,1766GK,Wieringerwaard,Hollands Kroon,Noord-Holland,VBO,4.825752,52.817912
Slikkerdijk,6,,,1766GK,Wieringerwaard,Hollands Kroon,Noord-Holland,VBO,4.823342,52.820736
Oudesluizerweg,1,a,,1766GL,Wieringerwaard,Hollands Kroon,Noord-Holland,VBO,4.818303,52.826763
Oudesluizerweg,1,,,1766GL,Wieringerwaard,Hollands Kroon,Noord-Holland,VBO,4.818140,52.827162
Oudesluizerweg,2,,,1766GL,Wieringerwaard,Hollands Kroon,Noord-Holland,VBO,4.817603,52.827646
Oudesluizerweg,3,,,1766GL,Wieringerwaard,Hollands Kroon,Noord-Holland,VBO,4.817317,52.827941
Oudesluizerweg,4,a,,1766GL,Wieringerwaard,Hollands Kroon,Noord-Holland,VBO,4.817710,52.828538
Oudesluizerweg,4,,,1766GL,Wieringerwaard,Hollands Kroon,Noord-Holland,VBO,4.816922,52.828279
Oudesluizerweg,5,,,1766GL,Wieringerwaard,Hollands Kroon,Noord-Holland,VBO,4.816359,52.829108
Oudesluizerweg,7,,,1766GL,Wieringerwaard,Hollands Kroon,Noord-Holland,VBO,4.814668,52.831135
Oudesluizerweg,8,a,,1766GL,Wieringerwaard,Hollands Kroon,Noord-Holland,VBO,4.814665,52.831496
Oudesluizerweg,8,,,1766GL,Wieringerwaard,Hollands Kroon,Noord-Holland,VBO,4.814628,52.831183
Oudesluizerweg,9,,,1766GL,Wieringerwaard,Hollands Kroon,Noord-Holland,VBO,4.814569,52.831733
Molenbuurt,1,a,,1766GM,Wieringerwaard,Hollands Kroon,Noord-Holland,VBO,4.813368,52.832127
Molenbuurt,1,,,1766GM,Wieringerwaard,Hollands Kroon,Noord-Holland,VBO,4.813500,52.832322
Molenbuurt,2,,,1766GM,Wieringerwaard,Hollands Kroon,Noord-Holland,VBO,4.813813,52.832344
Molenbuurt,3,,,1766GM,Wieringerwaard,Hollands Kroon,Noord-Holland,VBO,4.814528,52.832672
Nieuwesluizerweg,1,,,1766GN,Wieringerwaard,Hollands Kroon,Noord-Holland,LIG,4.897261,52.831715
Zuid Zijperweg,1,,,1766HA,Wieringerwaard,Hollands Kroon,Noord-Holland,VBO,4.875296,52.833194
Zuid Zijperweg,2,,,1766HA,Wieringerwaard,Hollands Kroon,Noord-Holland,VBO,4.875121,52.833214
Zuid Zijperweg,3,,,1766HA,Wieringerwaard,Hollands Kroon,Noord-Holland,VBO,4.874886,52.833234
Zuid Zijperweg,4,,,1766HA,Wieringerwaard,Hollands Kroon,Noord-Holland,VBO,4.874761,52.833246
Zuid Zijperweg,6,,,1766HA,Wieringerwaard,Hollands Kroon,Noord-Holland,VBO,4.874660,52.833288
Zuid Zijperweg,8,,,1766HA,Wieringerwaard,Hollands Kroon,Noord-Holland,VBO,4.874474,52.833248
Zuid Zijperweg,9,,,1766HA,Wieringerwaard,Hollands Kroon,Noord-Holland,VBO,4.874364,52.833343
Zuid Zijperweg,12,,,1766HA,Wieringerwaard,Hollands Kroon,Noord-Holland,VBO,4.874225,52.833341
Zuid Zijperweg,13,,,1766HA,Wieringerwaard,Hollands Kroon,Noord-Holland,VBO,4.873918,52.833320
Zuid Zijperweg,14,,,1766HA,Wieringerwaard,Hollands Kroon,Noord-Holland,VBO,4.873640,52.833362
Zuid Zijperweg,15,a,,1766HA,Wieringerwaard,Hollands Kroon,Noord-Holland,VBO,4.873437,52.833377
Zuid Zijperweg,15,,,1766HA,Wieringerwaard,Hollands Kroon,Noord-Holland,VBO,4.873355,52.833365
Zuid Zijperweg,17,,,1766HA,Wieringerwaard,Hollands Kroon,Noord-Holland,VBO,4.872680,52.833359
Zuid Zijperweg,18,,,1766HA,Wieringerwaard,Hollands Kroon,Noord-Holland,VBO,4.872320,52.833513
Zuid Zijperweg,20,,,1766HA,Wieringerwaard,Hollands Kroon,Noord-Holland,VBO,4.871858,52.833509
Zuid Zijperweg,21,,,1766HB,Wieringerwaard,Hollands Kroon,Noord-Holland,VBO,4.871315,52.833495
Zuid Zijperweg,22,,,1766HB,Wieringerwaard,Hollands Kroon,Noord-Holland,VBO,4.870925,52.833530
Zuid Zijperweg,23,,,1766HB,Wieringerwaard,Hollands Kroon,Noord-Holland,VBO,4.870561,52.833642
Zuid Zijperweg,24,,,1766HB,Wieringerwaard,Hollands Kroon,Noord-Holland,VBO,4.870086,52.833699
Zuid Zijperweg,25,,,1766HB,Wieringerwaard,Hollands Kroon,Noord-Holland,VBO,4.868978,52.833783
Zuid Zijperweg,26,,,1766HB,Wieringerwaard,Hollands Kroon,Noord-Holland,VBO,4.867933,52.833769
Zuid Zijperweg,27,,,1766HB,Wieringerwaard,Hollands Kroon,Noord-Holland,VBO,4.866340,52.833995
Zuid Zijperweg,28,,,1766HB,Wieringerwaard,Hollands Kroon,Noord-Holland,VBO,4.865903,52.834040
Zuid Zijperweg,29,,,1766HB,Wieringerwaard,Hollands Kroon,Noord-Holland,VBO,4.865581,52.833991
Zuid Zijperweg,30,a,,1766HB,Wieringerwaard,Hollands Kroon,Noord-Holland,VBO,4.865320,52.834009
Zuid Zijperweg,30,,,1766HB,Wieringerwaard,Hollands Kroon,Noord-Holland,VBO,4.865181,52.834029
Zuid Zijperweg,31,,,1766HB,Wieringerwaard,Hollands Kroon,Noord-Holland,VBO,4.864742,52.834173
Zuid Zijperweg,32,,,1766HB,Wieringerwaard,Hollands Kroon,Noord-Holland,VBO,4.864415,52.834195
Zuid Zijperweg,33,,,1766HB,Wieringerwaard,Hollands Kroon,Noord-Holland,VBO,4.864006,52.834310
Zuid Zijperweg,34,,,1766HB,Wieringerwaard,Hollands Kroon,Noord-Holland,VBO,4.863812,52.834331
Zuid Zijperweg,35,,,1766HB,Wieringerwaard,Hollands Kroon,Noord-Holland,VBO,4.863500,52.834347
Zuid Zijperweg,36,a,,1766HC,Wieringerwaard,Hollands Kroon,Noord-Holland,VBO,4.862965,52.833918
Zuid Zijperweg,36,,,1766HC,Wieringerwaard,Hollands Kroon,Noord-Holland,VBO,4.863152,52.834384
Zuid Zijperweg,37,,,1766HC,Wieringerwaard,Hollands Kroon,Noord-Holland,VBO,4.862641,52.833519
Zuid Zijperweg,38,,,1766HC,Wieringerwaard,Hollands Kroon,Noord-Holland,VBO,4.862607,52.833408
Zuid Zijperweg,39,,,1766HC,Wieringerwaard,Hollands Kroon,Noord-Holland,VBO,4.862940,52.834402
Zuid Zijperweg,40,,,1766HC,Wieringerwaard,Hollands Kroon,Noord-Holland,VBO,4.862749,52.834449
Zuid Zijperweg,41,,,1766HC,Wieringerwaard,Hollands Kroon,Noord-Holland,VBO,4.862518,52.834463
Zuid Zijperweg,42,,,1766HC,Wieringerwaard,Hollands Kroon,Noord-Holland,VBO,4.862319,52.834485
Zuid Zijperweg,43,,,1766HC,Wieringerwaard,Hollands Kroon,Noord-Holland,VBO,4.862059,52.834524
Zuid Zijperweg,44,,,1766HC,Wieringerwaard,Hollands Kroon,Noord-Holland,VBO,4.861761,52.834554
Zuid Zijperweg,45,,,1766HC,Wieringerwaard,Hollands Kroon,Noord-Holland,VBO,4.861558,52.834560
Zuid Zijperweg,46,,,1766HC,Wieringerwaard,Hollands Kroon,Noord-Holland,VBO,4.861402,52.834576
Zuid Zijperweg,47,,,1766HC,Wieringerwaard,Hollands Kroon,Noord-Holland,VBO,4.861144,52.834601
Zuid Zijperweg,49,,,1766HC,Wieringerwaard,Hollands Kroon,Noord-Holland,VBO,4.860899,52.834683
Zuid Zijperweg,50,,,1766HC,Wieringerwaard,Hollands Kroon,Noord-Holland,VBO,4.860819,52.834692
Zuid Zijperweg,51,,,1766HC,Wieringerwaard,Hollands Kroon,Noord-Holland,VBO,4.860683,52.834657
Zuid Zijperweg,52,,,1766HC,Wieringerwaard,Hollands Kroon,Noord-Holland,VBO,4.860485,52.834667
Zuid Zijperweg,53,,,1766HC,Wieringerwaard,Hollands Kroon,Noord-Holland,VBO,4.860243,52.834687
Zuid Zijperweg,54,a,,1766HC,Wieringerwaard,Hollands Kroon,Noord-Holland,VBO,4.860083,52.834672
Zuid Zijperweg,54,,,1766HC,Wieringerwaard,Hollands Kroon,Noord-Holland,VBO,4.859972,52.834685
Zuid Zijperweg,55,,,1766HC,Wieringerwaard,Hollands Kroon,Noord-Holland,VBO,4.859804,52.834737
Zuid Zijperweg,56,,,1766HC,Wieringerwaard,Hollands Kroon,Noord-Holland,VBO,4.859346,52.834713
Zuid Zijperweg,57,,,1766HC,Wieringerwaard,Hollands Kroon,Noord-Holland,VBO,4.858945,52.834766
Zuid Zijperweg,58,,,1766HC,Wieringerwaard,Hollands Kroon,Noord-Holland,VBO,4.858862,52.834777
Zuid Zijperweg,59,,,1766HC,Wieringerwaard,Hollands Kroon,Noord-Holland,VBO,4.858559,52.834790
Zuid Zijperweg,61,,,1766HD,Wieringerwaard,Hollands Kroon,Noord-Holland,VBO,4.857911,52.834745
Zuid Zijperweg,62,,,1766HD,Wieringerwaard,Hollands Kroon,Noord-Holland,VBO,4.857558,52.834908
Zuid Zijperweg,63,a,,1766HD,Wieringerwaard,Hollands Kroon,Noord-Holland,VBO,4.856476,52.834829
Zuid Zijperweg,63,,,1766HD,Wieringerwaard,Hollands Kroon,Noord-Holland,VBO,4.856592,52.834820
Zuid Zijperweg,64,,,1766HD,Wieringerwaard,Hollands Kroon,Noord-Holland,VBO,4.856054,52.835051
Zuid Zijperweg,65,,,1766HD,Wieringerwaard,Hollands Kroon,Noord-Holland,VBO,4.855727,52.835066
Zuid Zijperweg,66,a,,1766HD,Wieringerwaard,Hollands Kroon,Noord-Holland,VBO,4.855176,52.835164
Zuid Zijperweg,66,,,1766HD,Wieringerwaard,Hollands Kroon,Noord-Holland,VBO,4.855345,52.835138
Zuid Zijperweg,67,,,1766HD,Wieringerwaard,Hollands Kroon,Noord-Holland,VBO,4.854886,52.835166
Zuid Zijperweg,68,,,1766HD,Wieringerwaard,Hollands Kroon,Noord-Holland,VBO,4.854358,52.835217
Zuid Zijperweg,69,,,1766HD,Wieringerwaard,Hollands Kroon,Noord-Holland,VBO,4.853749,52.835269
Zuid Zijperweg,70,,,1766HD,Wieringerwaard,Hollands Kroon,Noord-Holland,VBO,4.851063,52.835523
Zuid Zijperweg,71,,,1766HD,Wieringerwaard,Hollands Kroon,Noord-Holland,VBO,4.850479,52.835588
Zuid Zijperweg,73,t,,1766HD,Wieringerwaard,Hollands Kroon,Noord-Holland,VBO,4.840800,52.832236
Zuid Zijperweg,73,,,1766HD,Wieringerwaard,Hollands Kroon,Noord-Holland,VBO,4.841799,52.832532
Zuid Zijperweg,74,,,1766HD,Wieringerwaard,Hollands Kroon,Noord-Holland,VBO,4.839889,52.831928
Zuid Zijperweg,75,a,,1766HD,Wieringerwaard,Hollands Kroon,Noord-Holland,VBO,4.839069,52.831546
Zuid Zijperweg,75,,,1766HD,Wieringerwaard,Hollands Kroon,Noord-Holland,VBO,4.838794,52.831506
Zuid Zijperweg,76,a,,1766HD,Wieringerwaard,Hollands Kroon,Noord-Holland,VBO,4.836192,52.830560
Zuid Zijperweg,76,b,,1766HD,Wieringerwaard,Hollands Kroon,Noord-Holland,VBO,4.837166,52.830656
Zuid Zijperweg,76,,,1766HD,Wieringerwaard,Hollands Kroon,Noord-Holland,VBO,4.836935,52.830823
Zuid Zijperweg,77,,,1766HD,Wieringerwaard,Hollands Kroon,Noord-Holland,VBO,4.835455,52.830282
Zuid Zijperweg,78,a,,1766HD,Wieringerwaard,Hollands Kroon,Noord-Holland,VBO,4.834814,52.830098
Zuid Zijperweg,78,,,1766HD,Wieringerwaard,Hollands Kroon,Noord-Holland,VBO,4.834751,52.830028
Zuid Zijperweg,79,,,1766HD,Wieringerwaard,Hollands Kroon,Noord-Holland,VBO,4.833361,52.829572
Zuid Zijperweg,80,,,1766HD,Wieringerwaard,Hollands Kroon,Noord-Holland,VBO,4.830917,52.828601
Zuid Zijperweg,81,,,1766HD,Wieringerwaard,Hollands Kroon,Noord-Holland,VBO,4.826843,52.827167
Noord Zijperweg,1,,,1766HE,Wieringerwaard,Hollands Kroon,Noord-Holland,VBO,4.876008,52.833591
Noord Zijperweg,2,,,1766HE,Wieringerwaard,Hollands Kroon,Noord-Holland,VBO,4.875301,52.833646
Noord Zijperweg,4,a,,1766HE,Wieringerwaard,Hollands Kroon,Noord-Holland,VBO,4.874615,52.834015
Noord Zijperweg,4,,,1766HE,Wieringerwaard,Hollands Kroon,Noord-Holland,VBO,4.874559,52.833702
Noord Zijperweg,5,,,1766HE,Wieringerwaard,Hollands Kroon,Noord-Holland,VBO,4.874283,52.833725
Noord Zijperweg,6,,,1766HE,Wieringerwaard,Hollands Kroon,Noord-Holland,VBO,4.873795,52.833787
Noord Zijperweg,7,,,1766HE,Wieringerwaard,Hollands Kroon,Noord-Holland,VBO,4.872856,52.833980
Noord Zijperweg,8,,,1766HE,Wieringerwaard,Hollands Kroon,Noord-Holland,VBO,4.872375,52.834008
Noord Zijperweg,9,,,1766HE,Wieringerwaard,Hollands Kroon,Noord-Holland,VBO,4.871955,52.834022
Noord Zijperweg,10,,,1766HE,Wieringerwaard,Hollands Kroon,Noord-Holland,VBO,4.871522,52.833972
Noord Zijperweg,11,,,1766HE,Wieringerwaard,Hollands Kroon,Noord-Holland,VBO,4.871345,52.834000
Noord Zijperweg,12,,,1766HE,Wieringerwaard,Hollands Kroon,Noord-Holland,VBO,4.871110,52.834023
Noord Zijperweg,13,,,1766HE,Wieringerwaard,Hollands Kroon,Noord-Holland,VBO,4.871028,52.834032
Noord Zijperweg,14,,,1766HE,Wieringerwaard,Hollands Kroon,Noord-Holland,VBO,4.870941,52.834033
Noord Zijperweg,15,,,1766HE,Wieringerwaard,Hollands Kroon,Noord-Holland,VBO,4.870799,52.834047
Noord Zijperweg,16,,,1766HE,Wieringerwaard,Hollands Kroon,Noord-Holland,VBO,4.870573,52.834071
Noord Zijperweg,17,,,1766HE,Wieringerwaard,Hollands Kroon,Noord-Holland,VBO,4.870295,52.834144
Noord Zijperweg,18,,,1766HE,Wieringerwaard,Hollands Kroon,Noord-Holland,VBO,4.869879,52.834147
Noord Zijperweg,19,a,,1766HE,Wieringerwaard,Hollands Kroon,Noord-Holland,VBO,4.869047,52.834233
Noord Zijperweg,19,,,1766HE,Wieringerwaard,Hollands Kroon,Noord-Holland,VBO,4.869473,52.834195
Noord Zijperweg,20,,,1766HG,Wieringerwaard,Hollands Kroon,Noord-Holland,VBO,4.868626,52.834234
Noord Zijperweg,21,a,,1766HG,Wieringerwaard,Hollands Kroon,Noord-Holland,VBO,4.867570,52.834381
Noord Zijperweg,21,b,,1766HG,Wieringerwaard,Hollands Kroon,Noord-Holland,VBO,4.867283,52.834416
Noord Zijperweg,21,c,,1766HG,Wieringerwaard,Hollands Kroon,Noord-Holland,VBO,4.866925,52.834456
Noord Zijperweg,21,d,,1766HG,Wieringerwaard,Hollands Kroon,Noord-Holland,VBO,4.866631,52.834480
Noord Zijperweg,21,,,1766HG,Wieringerwaard,Hollands Kroon,Noord-Holland,VBO,4.868040,52.834340
Noord Zijperweg,22,,,1766HG,Wieringerwaard,Hollands Kroon,Noord-Holland,VBO,4.866264,52.834515
Noord Zijperweg,23,a,,1766HG,Wieringerwaard,Hollands Kroon,Noord-Holland,VBO,4.865521,52.834681
Noord Zijperweg,23,b,,1766HG,Wieringerwaard,Hollands Kroon,Noord-Holland,VBO,4.865626,52.834910
Noord Zijperweg,23,,,1766HG,Wieringerwaard,Hollands Kroon,Noord-Holland,VBO,4.865604,52.834850
Noord Zijperweg,25,,,1766HG,Wieringerwaard,Hollands Kroon,Noord-Holland,VBO,4.865180,52.834703
Noord Zijperweg,26,,,1766HG,Wieringerwaard,Hollands Kroon,Noord-Holland,VBO,4.864921,52.834637
Noord Zijperweg,27,,,1766HG,Wieringerwaard,Hollands Kroon,Noord-Holland,VBO,4.864403,52.834690
Noord Zijperweg,28,,,1766HG,Wieringerwaard,Hollands Kroon,Noord-Holland,VBO,4.863793,52.834775
Noord Zijperweg,29,,,1766HG,Wieringerwaard,Hollands Kroon,Noord-Holland,VBO,4.863493,52.835006
Noord Zijperweg,30,a,,1766HG,Wieringerwaard,Hollands Kroon,Noord-Holland,VBO,4.862815,52.834876
Noord Zijperweg,30,,,1766HG,Wieringerwaard,Hollands Kroon,Noord-Holland,VBO,4.863163,52.834797
Noord Zijperweg,31,a,,1766HG,Wieringerwaard,Hollands Kroon,Noord-Holland,VBO,4.862485,52.834864
Noord Zijperweg,31,b,,1766HG,Wieringerwaard,Hollands Kroon,Noord-Holland,VBO,4.862305,52.834887
Noord Zijperweg,31,c,,1766HG,Wieringerwaard,Hollands Kroon,Noord-Holland,VBO,4.862191,52.834898
Noord Zijperweg,31,,,1766HG,Wieringerwaard,Hollands Kroon,Noord-Holland,VBO,4.862706,52.834887
Noord Zijperweg,32,a,,1766HG,Wieringerwaard,Hollands Kroon,Noord-Holland,VBO,4.861929,52.834925
Noord Zijperweg,32,b,,1766HG,Wieringerwaard,Hollands Kroon,Noord-Holland,VBO,4.861740,52.834955
Noord Zijperweg,32,,,1766HG,Wieringerwaard,Hollands Kroon,Noord-Holland,VBO,4.862057,52.834912
Noord Zijperweg,33,,,1766HG,Wieringerwaard,Hollands Kroon,Noord-Holland,VBO,4.861413,52.835011
Noord Zijperweg,35,,,1766HG,Wieringerwaard,Hollands Kroon,Noord-Holland,VBO,4.860620,52.835356
Noord Zijperweg,36,,,1766HH,Wieringerwaard,Hollands Kroon,Noord-Holland,VBO,4.859601,52.835126
Noord Zijperweg,37,,,1766HH,Wieringerwaard,Hollands Kroon,Noord-Holland,VBO,4.859233,52.835169
Noord Zijperweg,38,,,1766HH,Wieringerwaard,Hollands Kroon,Noord-Holland,VBO,4.859063,52.835188
Noord Zijperweg,39,,,1766HH,Wieringerwaard,Hollands Kroon,Noord-Holland,VBO,4.858950,52.835138
Noord Zijperweg,40,,,1766HH,Wieringerwaard,Hollands Kroon,Noord-Holland,VBO,4.858672,52.835189
Noord Zijperweg,41,,,1766HH,Wieringerwaard,Hollands Kroon,Noord-Holland,VBO,4.858534,52.835210
Noord Zijperweg,42,,,1766HH,Wieringerwaard,Hollands Kroon,Noord-Holland,VBO,4.858419,52.835216
Noord Zijperweg,43,,,1766HH,Wieringerwaard,Hollands Kroon,Noord-Holland,VBO,4.858286,52.835237
Noord Zijperweg,44,,,1766HH,Wieringerwaard,Hollands Kroon,Noord-Holland,VBO,4.857861,52.835416
Noord Zijperweg,45,,,1766HH,Wieringerwaard,Hollands Kroon,Noord-Holland,VBO,4.857264,52.835298
Noord Zijperweg,46,,,1766HH,Wieringerwaard,Hollands Kroon,Noord-Holland,VBO,4.857057,52.835381
Noord Zijperweg,47,,,1766HH,Wieringerwaard,Hollands Kroon,Noord-Holland,VBO,4.856699,52.835676
Noord Zijperweg,48,,,1766HH,Wieringerwaard,Hollands Kroon,Noord-Holland,VBO,4.855825,52.835561
Noord Zijperweg,49,,,1766HH,Wieringerwaard,Hollands Kroon,Noord-Holland,VBO,4.855569,52.835580
Noord Zijperweg,50,,,1766HH,Wieringerwaard,Hollands Kroon,Noord-Holland,VBO,4.855288,52.835605
Noord Zijperweg,51,,,1766HH,Wieringerwaard,Hollands Kroon,Noord-Holland,VBO,4.854942,52.835646
Noord Zijperweg,52,a,,1766HH,Wieringerwaard,Hollands Kroon,Noord-Holland,VBO,4.854048,52.835997
Noord Zijperweg,52,,,1766HH,Wieringerwaard,Hollands Kroon,Noord-Holland,VBO,4.853964,52.835806
Noord Zijperweg,53,,,1766HJ,Wieringerwaard,Hollands Kroon,Noord-Holland,VBO,4.852642,52.835843
Noord Zijperweg,54,,,1766HJ,Wieringerwaard,Hollands Kroon,Noord-Holland,VBO,4.852405,52.835890
Noord Zijperweg,55,,,1766HJ,Wieringerwaard,Hollands Kroon,Noord-Holland,VBO,4.851264,52.836018
Noord Zijperweg,56,,,1766HJ,Wieringerwaard,Hollands Kroon,Noord-Holland,VBO,4.849876,52.836030
Noord Zijperweg,57,,,1766HJ,Wieringerwaard,Hollands Kroon,Noord-Holland,VBO,4.849499,52.835893
Noord Zijperweg,58,,,1766HJ,Wieringerwaard,Hollands Kroon,Noord-Holland,VBO,4.849291,52.835786
Noord Zijperweg,59,,,1766HJ,Wieringerwaard,Hollands Kroon,Noord-Holland,VBO,4.849083,52.835737
Noord Zijperweg,60,,,1766HJ,Wieringerwaard,Hollands Kroon,Noord-Holland,VBO,4.849020,52.835721
Noord Zijperweg,62,,,1766HJ,Wieringerwaard,Hollands Kroon,Noord-Holland,VBO,4.848716,52.835647
Noord Zijperweg,63,,,1766HJ,Wieringerwaard,Hollands Kroon,Noord-Holland,VBO,4.847588,52.835275
Noord Zijperweg,64,,,1766HJ,Wieringerwaard,Hollands Kroon,Noord-Holland,VBO,4.847475,52.835229
Noord Zijperweg,65,,,1766HJ,Wieringerwaard,Hollands Kroon,Noord-Holland,VBO,4.846899,52.834974
Noord Zijperweg,68,,,1766HJ,Wieringerwaard,Hollands Kroon,Noord-Holland,VBO,4.845907,52.834635
Noord Zijperweg,70,,,1766HK,Wieringerwaard,Hollands Kroon,Noord-Holland,VBO,4.844551,52.834075
Noord Zijperweg,71,,,1766HK,Wieringerwaard,Hollands Kroon,Noord-Holland,VBO,4.844181,52.834003
Noord Zijperweg,72,a,,1766HK,Wieringerwaard,Hollands Kroon,Noord-Holland,VBO,4.842545,52.833997
Noord Zijperweg,72,,,1766HK,Wieringerwaard,Hollands Kroon,Noord-Holland,VBO,4.843054,52.833666
Noord Zijperweg,73,,,1766HK,Wieringerwaard,Hollands Kroon,Noord-Holland,VBO,4.841434,52.833012
Noord Zijperweg,75,,,1766HK,Wieringerwaard,Hollands Kroon,Noord-Holland,VBO,4.840816,52.832785
Noord Zijperweg,79,,,1766HK,Wieringerwaard,Hollands Kroon,Noord-Holland,VBO,4.840088,52.832486
Noord Zijperweg,80,a,,1766HK,Wieringerwaard,Hollands Kroon,Noord-Holland,VBO,4.839174,52.832203
Noord Zijperweg,80,,,1766HK,Wieringerwaard,Hollands Kroon,Noord-Holland,VBO,4.839715,52.832392
Noord Zijperweg,81,,,1766HK,Wieringerwaard,Hollands Kroon,Noord-Holland,VBO,4.838759,52.832068
Noord Zijperweg,82,,,1766HK,Wieringerwaard,Hollands Kroon,Noord-Holland,VBO,4.838323,52.831901
Noord Zijperweg,83,a,,1766HK,Wieringerwaard,Hollands Kroon,Noord-Holland,VBO,4.836954,52.831449
Noord Zijperweg,85,,,1766HK,Wieringerwaard,Hollands Kroon,Noord-Holland,VBO,4.833544,52.830144
Molenweg,2,t,,1766HL,Wieringerwaard,Hollands Kroon,Noord-Holland,VBO,4.859902,52.835362
Molenweg,2,,,1766HL,Wieringerwaard,Hollands Kroon,Noord-Holland,VBO,4.859771,52.835477
Molenweg,3,,,1766HL,Wieringerwaard,Hollands Kroon,Noord-Holland,VBO,4.859786,52.835546
Molenweg,4,,,1766HL,Wieringerwaard,Hollands Kroon,Noord-Holland,VBO,4.859803,52.835603
Molenweg,5,,,1766HL,Wieringerwaard,Hollands Kroon,Noord-Holland,VBO,4.859832,52.835703
Molenweg,6,,,1766HL,Wieringerwaard,Hollands Kroon,Noord-Holland,VBO,4.859864,52.835813
Molenweg,7,,,1766HL,Wieringerwaard,Hollands Kroon,Noord-Holland,VBO,4.859777,52.835953
Molenweg,9,,,1766HL,Wieringerwaard,Hollands Kroon,Noord-Holland,VBO,4.859806,52.836067
Molenweg,10,,,1766HL,Wieringerwaard,Hollands Kroon,Noord-Holland,VBO,4.859687,52.836224
Molenweg,11,,,1766HL,Wieringerwaard,Hollands Kroon,Noord-Holland,VBO,4.859842,52.836211
Molenweg,12,a,,1766HL,Wieringerwaard,Hollands Kroon,Noord-Holland,VBO,4.859885,52.836372
Molenweg,12,b,,1766HL,Wieringerwaard,Hollands Kroon,Noord-Holland,VBO,4.859908,52.836456
Molenweg,12,,,1766HL,Wieringerwaard,Hollands Kroon,Noord-Holland,VBO,4.859869,52.836312
Molenweg,13,,,1766HL,Wieringerwaard,Hollands Kroon,Noord-Holland,VBO,4.859931,52.836565
Molenweg,14,,,1766HL,Wieringerwaard,Hollands Kroon,Noord-Holland,VBO,4.859948,52.836632
Molenweg,15,,,1766HL,Wieringerwaard,Hollands Kroon,Noord-Holland,VBO,4.859973,52.836728
Molenweg,16,,,1766HL,Wieringerwaard,Hollands Kroon,Noord-Holland,VBO,4.859989,52.836791
Molenweg,17,,,1766HL,Wieringerwaard,Hollands Kroon,Noord-Holland,VBO,4.860014,52.836883
Molenweg,18,,,1766HL,Wieringerwaard,Hollands Kroon,Noord-Holland,VBO,4.860030,52.836947
Molenweg,21,a,,1766HM,Wieringerwaard,Hollands Kroon,Noord-Holland,VBO,4.859518,52.837157
Molenweg,21,,,1766HM,Wieringerwaard,Hollands Kroon,Noord-Holland,VBO,4.860089,52.837112
Molenweg,22,,,1766HM,Wieringerwaard,Hollands Kroon,Noord-Holland,VBO,4.860114,52.837231
Molenweg,23,,,1766HM,Wieringerwaard,Hollands Kroon,Noord-Holland,VBO,4.860197,52.837396
Molenweg,24,,,1766HM,Wieringerwaard,Hollands Kroon,Noord-Holland,VBO,4.860254,52.837584
Molenweg,25,,,1766HM,Wieringerwaard,Hollands Kroon,Noord-Holland,VBO,4.860385,52.837781
Molenweg,26,,,1766HM,Wieringerwaard,Hollands Kroon,Noord-Holland,VBO,4.860411,52.837877
Molenweg,27,,,1766HM,Wieringerwaard,Hollands Kroon,Noord-Holland,VBO,4.860431,52.837973
Molenweg,29,,,1766HM,Wieringerwaard,Hollands Kroon,Noord-Holland,VBO,4.860457,52.838074
Molenweg,30,,,1766HM,Wieringerwaard,Hollands Kroon,Noord-Holland,VBO,4.860476,52.838159
Molenweg,31,,,1766HM,Wieringerwaard,Hollands Kroon,Noord-Holland,VBO,4.860409,52.838257
Molenweg,32,,,1766HM,Wieringerwaard,Hollands Kroon,Noord-Holland,VBO,4.860518,52.838315
Molenweg,33,,,1766HM,Wieringerwaard,Hollands Kroon,Noord-Holland,VBO,4.860537,52.838404
Molenweg,34,,,1766HM,Wieringerwaard,Hollands Kroon,Noord-Holland,VBO,4.860571,52.838488
Molenweg,35,,,1766HM,Wieringerwaard,Hollands Kroon,Noord-Holland,VBO,4.860590,52.838571
Molenweg,36,,,1766HM,Wieringerwaard,Hollands Kroon,Noord-Holland,VBO,4.860619,52.838673
Molenweg,37,a,,1766HM,Wieringerwaard,Hollands Kroon,Noord-Holland,VBO,4.860672,52.838833
Molenweg,37,b,b,1766HM,Wieringerwaard,Hollands Kroon,Noord-Holland,VBO,4.860645,52.838982
Molenweg,37,b,,1766HM,Wieringerwaard,Hollands Kroon,Noord-Holland,VBO,4.860686,52.838887
Molenweg,37,c,,1766HM,Wieringerwaard,Hollands Kroon,Noord-Holland,VBO,4.860688,52.839190
Molenweg,37,d,,1766HM,Wieringerwaard,Hollands Kroon,Noord-Holland,VBO,4.860758,52.839434
Molenweg,37,,,1766HM,Wieringerwaard,Hollands Kroon,Noord-Holland,VBO,4.860635,52.838731
Molenweg,38,,,1766HN,Wieringerwaard,Hollands Kroon,Noord-Holland,VBO,4.860872,52.839596
Molenweg,39,,,1766HN,Wieringerwaard,Hollands Kroon,Noord-Holland,VBO,4.860904,52.839708
Molenweg,40,a,,1766HN,Wieringerwaard,Hollands Kroon,Noord-Holland,VBO,4.860689,52.839887
Molenweg,40,b,,1766HN,Wieringerwaard,Hollands Kroon,Noord-Holland,VBO,4.861066,52.839882
Molenweg,40,c,,1766HN,Wieringerwaard,Hollands Kroon,Noord-Holland,VBO,4.860974,52.840096
Molenweg,40,,,1766HN,Wieringerwaard,Hollands Kroon,Noord-Holland,VBO,4.860985,52.839871
Molenweg,41,,,1766HN,Wieringerwaard,Hollands Kroon,Noord-Holland,VBO,4.860475,52.840401
Molenweg,42,,,1766HN,Wieringerwaard,Hollands Kroon,Noord-Holland,VBO,4.861166,52.840676
Molenweg,43,,,1766HN,Wieringerwaard,Hollands Kroon,Noord-Holland,VBO,4.861221,52.840829
Molenweg,44,,,1766HN,Wieringerwaard,Hollands Kroon,Noord-Holland,VBO,4.861479,52.841690
Molenweg,45,,,1766HN,Wieringerwaard,Hollands Kroon,Noord-Holland,VBO,4.861527,52.841973
Molenweg,46,a,,1766HN,Wieringerwaard,Hollands Kroon,Noord-Holland,VBO,4.861169,52.842894
Molenweg,46,b,,1766HN,Wieringerwaard,Hollands Kroon,Noord-Holland,VBO,4.860956,52.842931
Molenweg,46,,,1766HN,Wieringerwaard,Hollands Kroon,Noord-Holland,VBO,4.861601,52.842654
Molenweg,47,,,1766HN,Wieringerwaard,Hollands Kroon,Noord-Holland,VBO,4.861551,52.843075
Molenweg,48,a,,1766HN,Wieringerwaard,Hollands Kroon,Noord-Holland,VBO,4.862166,52.842858
Molenweg,48,,,1766HN,Wieringerwaard,Hollands Kroon,Noord-Holland,VBO,4.862130,52.842781
Molenweg,49,,,1766HN,Wieringerwaard,Hollands Kroon,Noord-Holland,VBO,4.862340,52.842328
Molenweg,50,,,1766HN,Wieringerwaard,Hollands Kroon,Noord-Holland,VBO,4.862229,52.841525
Molenweg,51,b,,1766HN,Wieringerwaard,Hollands Kroon,Noord-Holland,VBO,4.861235,52.838225
Molenweg,51,,,1766HN,Wieringerwaard,Hollands Kroon,Noord-Holland,VBO,4.861310,52.838497
Molenweg,52,,,1766HN,Wieringerwaard,Hollands Kroon,Noord-Holland,VBO,4.861183,52.838031
Molenweg,53,,,1766HN,Wieringerwaard,Hollands Kroon,Noord-Holland,VBO,4.861105,52.837803
Molenweg,54,,,1766HN,Wieringerwaard,Hollands Kroon,Noord-Holland,VBO,4.861060,52.837590
Noorddijk,1,,,1766HP,Wieringerwaard,Hollands Kroon,Noord-Holland,VBO,4.861038,52.843531
Noorddijk,2,,,1766HP,Wieringerwaard,Hollands Kroon,Noord-Holland,VBO,4.861197,52.843517
Noorddijk,3,,,1766HP,Wieringerwaard,Hollands Kroon,Noord-Holland,VBO,4.861367,52.843500
Noorddijk,4,,,1766HP,Wieringerwaard,Hollands Kroon,Noord-Holland,VBO,4.863023,52.842950
Noorddijk,5,,,1766HP,Wieringerwaard,Hollands Kroon,Noord-Holland,VBO,4.863363,52.842951
Noorddijk,6,,,1766HP,Wieringerwaard,Hollands Kroon,Noord-Holland,VBO,4.863733,52.842920
Trambaan,1,,,1766JA,Wieringerwaard,Hollands Kroon,Noord-Holland,VBO,4.863234,52.835634
Trambaan,2,,,1766JA,Wieringerwaard,Hollands Kroon,Noord-Holland,VBO,4.863655,52.835766
Trambaan,3,,,1766JA,Wieringerwaard,Hollands Kroon,Noord-Holland,VBO,4.863259,52.835725
Trambaan,4,,,1766JA,Wieringerwaard,Hollands Kroon,Noord-Holland,VBO,4.863671,52.835827
Trambaan,5,,,1766JA,Wieringerwaard,Hollands Kroon,Noord-Holland,VBO,4.863463,52.836354
Trambaan,6,,,1766JA,Wieringerwaard,Hollands Kroon,Noord-Holland,VBO,4.863688,52.835887
Trambaan,7,,,1766JA,Wieringerwaard,Hollands Kroon,Noord-Holland,VBO,4.863482,52.836422
Trambaan,8,,,1766JA,Wieringerwaard,Hollands Kroon,Noord-Holland,VBO,4.863704,52.835948
Trambaan,9,,,1766JA,Wieringerwaard,Hollands Kroon,Noord-Holland,VBO,4.863511,52.836534
Trambaan,10,t,,1766JA,Wieringerwaard,Hollands Kroon,Noord-Holland,VBO,4.863998,52.835918
Trambaan,10,,G01,1766JA,Wieringerwaard,Hollands Kroon,Noord-Holland,VBO,4.864173,52.835894
Trambaan,10,,G02,1766JA,Wieringerwaard,Hollands Kroon,Noord-Holland,VBO,4.864143,52.835899
Trambaan,10,,G03,1766JA,Wieringerwaard,Hollands Kroon,Noord-Holland,VBO,4.864100,52.835904
Trambaan,10,,G04,1766JA,Wieringerwaard,Hollands Kroon,Noord-Holland,VBO,4.864054,52.835906
Trambaan,10,,,1766JA,Wieringerwaard,Hollands Kroon,Noord-Holland,VBO,4.863720,52.836008
Trambaan,11,,,1766JA,Wieringerwaard,Hollands Kroon,Noord-Holland,VBO,4.863529,52.836592
Paludanusweg,1,,,1766JB,Wieringerwaard,Hollands Kroon,Noord-Holland,VBO,4.862850,52.835220
Paludanusweg,3,,,1766JB,Wieringerwaard,Hollands Kroon,Noord-Holland,VBO,4.862625,52.835240
Paludanusweg,5,,,1766JB,Wieringerwaard,Hollands Kroon,Noord-Holland,VBO,4.862510,52.835251
Paludanusweg,7,,,1766JB,Wieringerwaard,Hollands Kroon,Noord-Holland,VBO,4.862395,52.835261
Paludanusweg,9,,,1766JB,Wieringerwaard,Hollands Kroon,Noord-Holland,VBO,4.862280,52.835271
Paludanusweg,11,,,1766JB,Wieringerwaard,Hollands Kroon,Noord-Holland,VBO,4.862020,52.835320
Paludanusweg,13,,,1766JB,Wieringerwaard,Hollands Kroon,Noord-Holland,VBO,4.861909,52.835330
Paludanusweg,15,,,1766JB,Wieringerwaard,Hollands Kroon,Noord-Holland,VBO,4.861799,52.835340
Paludanusweg,17,,,1766JB,Wieringerwaard,Hollands Kroon,Noord-Holland,VBO,4.861688,52.835351
Paludanusweg,19,,,1766JB,Wieringerwaard,Hollands Kroon,Noord-Holland,VBO,4.861580,52.835316
Paludanusweg,21,,,1766JB,Wieringerwaard,Hollands Kroon,Noord-Holland,VBO,4.861477,52.835328
Paludanusweg,23,,,1766JB,Wieringerwaard,Hollands Kroon,Noord-Holland,VBO,4.861340,52.835502
Paludanusweg,25,,,1766JB,Wieringerwaard,Hollands Kroon,Noord-Holland,VBO,4.861356,52.835575
Paludanusweg,27,,,1766JB,Wieringerwaard,Hollands Kroon,Noord-Holland,VBO,4.861439,52.835621
Paludanusweg,29,,,1766JB,Wieringerwaard,Hollands Kroon,Noord-Holland,VBO,4.861456,52.835685
Paludanusweg,31,,,1766JB,Wieringerwaard,Hollands Kroon,Noord-Holland,VBO,4.861472,52.835749
Paludanusweg,33,,,1766JB,Wieringerwaard,Hollands Kroon,Noord-Holland,VBO,4.861488,52.835813
Paludanusweg,6,,,1766JC,Wieringerwaard,Hollands Kroon,Noord-Holland,VBO,4.862865,52.835476
Paludanusweg,8,,,1766JC,Wieringerwaard,Hollands Kroon,Noord-Holland,VBO,4.862726,52.835488
Paludanusweg,10,,,1766JC,Wieringerwaard,Hollands Kroon,Noord-Holland,VBO,4.862589,52.835499
Paludanusweg,12,,,1766JC,Wieringerwaard,Hollands Kroon,Noord-Holland,VBO,4.862450,52.835511
Paludanusweg,14,,,1766JC,Wieringerwaard,Hollands Kroon,Noord-Holland,VBO,4.862320,52.835524
Paludanusweg,16,,,1766JC,Wieringerwaard,Hollands Kroon,Noord-Holland,VBO,4.862181,52.835534
Paludanusweg,18,,,1766JC,Wieringerwaard,Hollands Kroon,Noord-Holland,VBO,4.861941,52.835607
Paludanusweg,20,,,1766JC,Wieringerwaard,Hollands Kroon,Noord-Holland,VBO,4.862029,52.835771
Paludanusweg,22,,,1766JC,Wieringerwaard,Hollands Kroon,Noord-Holland,VBO,4.862041,52.835841
Paludanusweg,24,,,1766JC,Wieringerwaard,Hollands Kroon,Noord-Holland,VBO,4.862048,52.836039
Populierenlaan,1,,,1766JD,Wieringerwaard,Hollands Kroon,Noord-Holland,VBO,4.863841,52.835276
Populierenlaan,3,,,1766JD,Wieringerwaard,Hollands Kroon,Noord-Holland,VBO,4.863935,52.835265
Populierenlaan,5,,,1766JD,Wieringerwaard,Hollands Kroon,Noord-Holland,VBO,4.864148,52.835247
Populierenlaan,7,,,1766JD,Wieringerwaard,Hollands Kroon,Noord-Holland,VBO,4.864265,52.835237
Populierenlaan,9,,,1766JD,Wieringerwaard,Hollands Kroon,Noord-Holland,VBO,4.864424,52.835220
Populierenlaan,11,,,1766JD,Wieringerwaard,Hollands Kroon,Noord-Holland,VBO,4.864548,52.835210
Populierenlaan,13,,,1766JD,Wieringerwaard,Hollands Kroon,Noord-Holland,VBO,4.864454,52.835044
Populierenlaan,15,,,1766JD,Wieringerwaard,Hollands Kroon,Noord-Holland,VBO,4.864778,52.835165
Populierenlaan,17,,,1766JD,Wieringerwaard,Hollands Kroon,Noord-Holland,VBO,4.864904,52.835153
Populierenlaan,19,,,1766JD,Wieringerwaard,Hollands Kroon,Noord-Holland,VBO,4.865030,52.835140
Populierenlaan,21,,,1766JD,Wieringerwaard,Hollands Kroon,Noord-Holland,VBO,4.865156,52.835128
Populierenlaan,23,,,1766JD,Wieringerwaard,Hollands Kroon,Noord-Holland,VBO,4.865335,52.835124
Populierenlaan,25,a,,1766JD,Wieringerwaard,Hollands Kroon,Noord-Holland,VBO,4.866140,52.835182
Populierenlaan,25,,,1766JD,Wieringerwaard,Hollands Kroon,Noord-Holland,VBO,4.866263,52.835219
Populierenlaan,27,a,,1766JD,Wieringerwaard,Hollands Kroon,Noord-Holland,VBO,4.866250,52.835608
Populierenlaan,27,b,,1766JD,Wieringerwaard,Hollands Kroon,Noord-Holland,VBO,4.866272,52.835690
Populierenlaan,27,,,1766JD,Wieringerwaard,Hollands Kroon,Noord-Holland,VBO,4.866218,52.835498
Populierenlaan,29,,,1766JD,Wieringerwaard,Hollands Kroon,Noord-Holland,VBO,4.866389,52.836887
Populierenlaan,31,,,1766JD,Wieringerwaard,Hollands Kroon,Noord-Holland,VBO,4.868156,52.836722
Populierenlaan,2,,,1766JE,Wieringerwaard,Hollands Kroon,Noord-Holland,VBO,4.865227,52.835349
Populierenlaan,4,,,1766JE,Wieringerwaard,Hollands Kroon,Noord-Holland,VBO,4.865248,52.835424
Populierenlaan,6,,,1766JE,Wieringerwaard,Hollands Kroon,Noord-Holland,VBO,4.865306,52.835515
Populierenlaan,8,,,1766JE,Wieringerwaard,Hollands Kroon,Noord-Holland,VBO,4.865327,52.835570
Populierenlaan,10,,,1766JE,Wieringerwaard,Hollands Kroon,Noord-Holland,VBO,4.865323,52.835661
Populierenlaan,12,,,1766JE,Wieringerwaard,Hollands Kroon,Noord-Holland,VBO,4.865345,52.835736
Populierenlaan,14,,,1766JE,Wieringerwaard,Hollands Kroon,Noord-Holland,VBO,4.865392,52.835815
Populierenlaan,16,,,1766JE,Wieringerwaard,Hollands Kroon,Noord-Holland,VBO,4.865414,52.835890
Populierenlaan,18,,,1766JE,Wieringerwaard,Hollands Kroon,Noord-Holland,VBO,4.865404,52.835974
Populierenlaan,20,,,1766JE,Wieringerwaard,Hollands Kroon,Noord-Holland,VBO,4.865429,52.836052
Populierenlaan,22,,,1766JE,Wieringerwaard,Hollands Kroon,Noord-Holland,VBO,4.865512,52.836212
Populierenlaan,24,,,1766JE,Wieringerwaard,Hollands Kroon,Noord-Holland,VBO,4.865531,52.836268
Populierenlaan,26,,,1766JE,Wieringerwaard,Hollands Kroon,Noord-Holland,VBO,4.865550,52.836325
Populierenlaan,28,,,1766JE,Wieringerwaard,Hollands Kroon,Noord-Holland,VBO,4.865569,52.836382
Lindenlaan,2,,,1766JG,Wieringerwaard,Hollands Kroon,Noord-Holland,VBO,4.863961,52.835724
Lindenlaan,4,,,1766JG,Wieringerwaard,Hollands Kroon,Noord-Holland,VBO,4.864055,52.835715
Lindenlaan,6,,,1766JG,Wieringerwaard,Hollands Kroon,Noord-Holland,VBO,4.864149,52.835705
Lindenlaan,8,,,1766JG,Wieringerwaard,Hollands Kroon,Noord-Holland,VBO,4.864243,52.835695
Lindenlaan,10,,,1766JG,Wieringerwaard,Hollands Kroon,Noord-Holland,VBO,4.864337,52.835685
Beukenlaan,1,,,1766JH,Wieringerwaard,Hollands Kroon,Noord-Holland,VBO,4.864497,52.836111
Beukenlaan,2,,,1766JH,Wieringerwaard,Hollands Kroon,Noord-Holland,VBO,4.864863,52.836114
Beukenlaan,3,,,1766JH,Wieringerwaard,Hollands Kroon,Noord-Holland,VBO,4.864480,52.836050
Beukenlaan,4,,,1766JH,Wieringerwaard,Hollands Kroon,Noord-Holland,VBO,4.864845,52.836055
Beukenlaan,5,,,1766JH,Wieringerwaard,Hollands Kroon,Noord-Holland,VBO,4.864463,52.835988
Beukenlaan,6,,,1766JH,Wieringerwaard,Hollands Kroon,Noord-Holland,VBO,4.864828,52.835995
Beukenlaan,7,,,1766JH,Wieringerwaard,Hollands Kroon,Noord-Holland,VBO,4.864447,52.835927
Beukenlaan,8,,,1766JH,Wieringerwaard,Hollands Kroon,Noord-Holland,VBO,4.864811,52.835935
Beukenlaan,9,,,1766JH,Wieringerwaard,Hollands Kroon,Noord-Holland,VBO,4.864430,52.835866
Beukenlaan,10,,,1766JH,Wieringerwaard,Hollands Kroon,Noord-Holland,VBO,4.864786,52.835846
Beukenlaan,12,,,1766JH,Wieringerwaard,Hollands Kroon,Noord-Holland,VBO,4.864769,52.835790
Beukenlaan,14,,,1766JH,Wieringerwaard,Hollands Kroon,Noord-Holland,VBO,4.864752,52.835735
Beukenlaan,16,,,1766JH,Wieringerwaard,Hollands Kroon,Noord-Holland,VBO,4.864734,52.835679
Beukenlaan,18,,,1766JH,Wieringerwaard,Hollands Kroon,Noord-Holland,VBO,4.864711,52.835572
Beukenlaan,20,,,1766JH,Wieringerwaard,Hollands Kroon,Noord-Holland,VBO,4.864694,52.835518
Beukenlaan,22,,,1766JH,Wieringerwaard,Hollands Kroon,Noord-Holland,VBO,4.864677,52.835465
Beukenlaan,24,,,1766JH,Wieringerwaard,Hollands Kroon,Noord-Holland,VBO,4.864660,52.835412
Kastanjelaan,1,,,1766JJ,Wieringerwaard,Hollands Kroon,Noord-Holland,VBO,4.863795,52.836198
Kastanjelaan,2,,,1766JJ,Wieringerwaard,Hollands Kroon,Noord-Holland,VBO,4.863840,52.836409
Kastanjelaan,3,,,1766JJ,Wieringerwaard,Hollands Kroon,Noord-Holland,VBO,4.863895,52.836188
Kastanjelaan,4,,,1766JJ,Wieringerwaard,Hollands Kroon,Noord-Holland,VBO,4.863938,52.836397
Kastanjelaan,5,,,1766JJ,Wieringerwaard,Hollands Kroon,Noord-Holland,VBO,4.863996,52.836178
Kastanjelaan,6,,,1766JJ,Wieringerwaard,Hollands Kroon,Noord-Holland,VBO,4.864036,52.836385
Kastanjelaan,7,,,1766JJ,Wieringerwaard,Hollands Kroon,Noord-Holland,VBO,4.864096,52.836168
Kastanjelaan,8,,,1766JJ,Wieringerwaard,Hollands Kroon,Noord-Holland,VBO,4.864133,52.836373
Kastanjelaan,9,,,1766JJ,Wieringerwaard,Hollands Kroon,Noord-Holland,VBO,4.864197,52.836158
Kastanjelaan,10,,,1766JJ,Wieringerwaard,Hollands Kroon,Noord-Holland,VBO,4.864324,52.836363
Kastanjelaan,12,,,1766JJ,Wieringerwaard,Hollands Kroon,Noord-Holland,VBO,4.864419,52.836349
Kastanjelaan,14,,,1766JJ,Wieringerwaard,Hollands Kroon,Noord-Holland,VBO,4.864514,52.836336
Kastanjelaan,16,,,1766JJ,Wieringerwaard,Hollands Kroon,Noord-Holland,VBO,4.864844,52.836283
Kastanjelaan,18,,,1766JJ,Wieringerwaard,Hollands Kroon,Noord-Holland,VBO,4.864938,52.836274
Kastanjelaan,20,,,1766JJ,Wieringerwaard,Hollands Kroon,Noord-Holland,VBO,4.865032,52.836265
Kastanjelaan,22,,,1766JJ,Wieringerwaard,Hollands Kroon,Noord-Holland,VBO,4.865126,52.836255
Kastanjelaan,24,,,1766JJ,Wieringerwaard,Hollands Kroon,Noord-Holland,VBO,4.865220,52.836246
Wilgenlaan,1,,,1766JK,Wieringerwaard,Hollands Kroon,Noord-Holland,VBO,4.863307,52.835943
Wilgenlaan,2,,,1766JK,Wieringerwaard,Hollands Kroon,Noord-Holland,VBO,4.863401,52.836141
Wilgenlaan,3,,,1766JK,Wieringerwaard,Hollands Kroon,Noord-Holland,VBO,4.863211,52.835953
Wilgenlaan,4,,,1766JK,Wieringerwaard,Hollands Kroon,Noord-Holland,VBO,4.863266,52.836159
Wilgenlaan,5,,,1766JK,Wieringerwaard,Hollands Kroon,Noord-Holland,VBO,4.863116,52.835963
Wilgenlaan,6,,,1766JK,Wieringerwaard,Hollands Kroon,Noord-Holland,VBO,4.863111,52.836181
Wilgenlaan,7,,,1766JK,Wieringerwaard,Hollands Kroon,Noord-Holland,VBO,4.862945,52.835985
Wilgenlaan,8,,,1766JK,Wieringerwaard,Hollands Kroon,Noord-Holland,VBO,4.862980,52.836197
Wilgenlaan,9,,,1766JK,Wieringerwaard,Hollands Kroon,Noord-Holland,VBO,4.862850,52.835995
Wilgenlaan,10,,,1766JK,Wieringerwaard,Hollands Kroon,Noord-Holland,VBO,4.862804,52.836220
Wilgenlaan,11,,,1766JK,Wieringerwaard,Hollands Kroon,Noord-Holland,VBO,4.862754,52.836005
Wilgenlaan,12,,,1766JK,Wieringerwaard,Hollands Kroon,Noord-Holland,VBO,4.862689,52.836229
Wilgenlaan,13,,,1766JK,Wieringerwaard,Hollands Kroon,Noord-Holland,VBO,4.862584,52.836023
Wilgenlaan,14,,,1766JK,Wieringerwaard,Hollands Kroon,Noord-Holland,VBO,4.862740,52.836447
Wilgenlaan,15,,,1766JK,Wieringerwaard,Hollands Kroon,Noord-Holland,VBO,4.862490,52.836033
Wilgenlaan,16,,,1766JK,Wieringerwaard,Hollands Kroon,Noord-Holland,VBO,4.862760,52.836507
Wilgenlaan,17,,,1766JK,Wieringerwaard,Hollands Kroon,Noord-Holland,VBO,4.862396,52.836043
Wilgenlaan,18,,,1766JK,Wieringerwaard,Hollands Kroon,Noord-Holland,VBO,4.862790,52.836616
Wilgenlaan,19,,,1766JK,Wieringerwaard,Hollands Kroon,Noord-Holland,VBO,4.862306,52.836299
Wilgenlaan,20,,,1766JK,Wieringerwaard,Hollands Kroon,Noord-Holland,VBO,4.862812,52.836696
Wilgenlaan,21,,,1766JK,Wieringerwaard,Hollands Kroon,Noord-Holland,VBO,4.862366,52.836483
Wilgenlaan,23,,,1766JK,Wieringerwaard,Hollands Kroon,Noord-Holland,VBO,4.862417,52.836689
Wilgenlaan,25,,,1766JK,Wieringerwaard,Hollands Kroon,Noord-Holland,VBO,4.862476,52.836862
Iepenlaan,1,,,1766JL,Wieringerwaard,Hollands Kroon,Noord-Holland,VBO,4.862876,52.836900
Iepenlaan,3,,,1766JL,Wieringerwaard,Hollands Kroon,Noord-Holland,VBO,4.862984,52.836888
Iepenlaan,5,,,1766JL,Wieringerwaard,Hollands Kroon,Noord-Holland,VBO,4.863172,52.836868
Iepenlaan,7,,,1766JL,Wieringerwaard,Hollands Kroon,Noord-Holland,VBO,4.863304,52.836853
Iepenlaan,9,,,1766JL,Wieringerwaard,Hollands Kroon,Noord-Holland,VBO,4.863469,52.836837
Iepenlaan,11,,,1766JL,Wieringerwaard,Hollands Kroon,Noord-Holland,VBO,4.863594,52.836826
Iepenlaan,13,,,1766JL,Wieringerwaard,Hollands Kroon,Noord-Holland,VBO,4.863962,52.836786
Iepenlaan,15,,,1766JL,Wieringerwaard,Hollands Kroon,Noord-Holland,VBO,4.864068,52.836776
Iepenlaan,17,,,1766JL,Wieringerwaard,Hollands Kroon,Noord-Holland,VBO,4.864247,52.836760
Iepenlaan,19,,,1766JL,Wieringerwaard,Hollands Kroon,Noord-Holland,VBO,4.864344,52.836750
Iepenlaan,21,,,1766JL,Wieringerwaard,Hollands Kroon,Noord-Holland,VBO,4.864533,52.836733
Iepenlaan,23,,,1766JL,Wieringerwaard,Hollands Kroon,Noord-Holland,VBO,4.864641,52.836721
Iepenlaan,25,,,1766JL,Wieringerwaard,Hollands Kroon,Noord-Holland,VBO,4.864981,52.836690
Iepenlaan,27,,,1766JL,Wieringerwaard,Hollands Kroon,Noord-Holland,VBO,4.865097,52.836677
Iepenlaan,29,,,1766JL,Wieringerwaard,Hollands Kroon,Noord-Holland,VBO,4.865253,52.836659
Iepenlaan,31,,,1766JL,Wieringerwaard,Hollands Kroon,Noord-Holland,VBO,4.865359,52.836646
Iepenlaan,33,,,1766JL,Wieringerwaard,Hollands Kroon,Noord-Holland,VBO,4.865523,52.836632
Iepenlaan,35,,,1766JL,Wieringerwaard,Hollands Kroon,Noord-Holland,VBO,4.865622,52.836605
Iepenlaan,6,a,,1766JM,Wieringerwaard,Hollands Kroon,Noord-Holland,VBO,4.862067,52.837283
Iepenlaan,6,,,1766JM,Wieringerwaard,Hollands Kroon,Noord-Holland,VBO,4.862117,52.837191
Iepenlaan,8,,,1766JM,Wieringerwaard,Hollands Kroon,Noord-Holland,VBO,4.862229,52.837180
Iepenlaan,10,,,1766JM,Wieringerwaard,Hollands Kroon,Noord-Holland,VBO,4.862341,52.837168
Iepenlaan,12,,,1766JM,Wieringerwaard,Hollands Kroon,Noord-Holland,VBO,4.862452,52.837156
Iepenlaan,14,,,1766JM,Wieringerwaard,Hollands Kroon,Noord-Holland,VBO,4.862659,52.837138
Iepenlaan,16,,,1766JM,Wieringerwaard,Hollands Kroon,Noord-Holland,VBO,4.862796,52.837125
Iepenlaan,18,,,1766JM,Wieringerwaard,Hollands Kroon,Noord-Holland,VBO,4.862954,52.837108
Iepenlaan,20,,,1766JM,Wieringerwaard,Hollands Kroon,Noord-Holland,VBO,4.863079,52.837096
Iepenlaan,22,,,1766JM,Wieringerwaard,Hollands Kroon,Noord-Holland,VBO,4.863246,52.837076
Iepenlaan,24,,,1766JM,Wieringerwaard,Hollands Kroon,Noord-Holland,VBO,4.863375,52.837063
Iepenlaan,26,,,1766JM,Wieringerwaard,Hollands Kroon,Noord-Holland,VBO,4.863538,52.837046
Iepenlaan,28,,,1766JM,Wieringerwaard,Hollands Kroon,Noord-Holland,VBO,4.863654,52.837029
Iepenlaan,30,,,1766JM,Wieringerwaard,Hollands Kroon,Noord-Holland,VBO,4.864182,52.836981
Iepenlaan,32,,,1766JM,Wieringerwaard,Hollands Kroon,Noord-Holland,VBO,4.864300,52.836971
Iepenlaan,34,,,1766JM,Wieringerwaard,Hollands Kroon,Noord-Holland,VBO,4.864477,52.836950
Iepenlaan,36,,,1766JM,Wieringerwaard,Hollands Kroon,Noord-Holland,VBO,4.864589,52.836940
Iepenlaan,38,,,1766JM,Wieringerwaard,Hollands Kroon,Noord-Holland,VBO,4.864767,52.836920
Iepenlaan,40,,,1766JM,Wieringerwaard,Hollands Kroon,Noord-Holland,VBO,4.864885,52.836909
Iepenlaan,42,,,1766JM,Wieringerwaard,Hollands Kroon,Noord-Holland,VBO,4.865046,52.836889
Iepenlaan,44,,,1766JM,Wieringerwaard,Hollands Kroon,Noord-Holland,VBO,4.865181,52.836878
Iepenlaan,46,,,1766JM,Wieringerwaard,Hollands Kroon,Noord-Holland,VBO,4.865353,52.836858
Iepenlaan,48,,,1766JM,Wieringerwaard,Hollands Kroon,Noord-Holland,VBO,4.865461,52.836844
Iepenlaan,50,,,1766JM,Wieringerwaard,Hollands Kroon,Noord-Holland,VBO,4.865644,52.836829
Iepenlaan,52,,,1766JM,Wieringerwaard,Hollands Kroon,Noord-Holland,VBO,4.865765,52.836817
Sportlaan,3,,,1766JN,Wieringerwaard,Hollands Kroon,Noord-Holland,VBO,4.862582,52.837553
Sportlaan,5,,,1766JN,Wieringerwaard,Hollands Kroon,Noord-Holland,VBO,4.862803,52.837532
Sportlaan,7,,,1766JN,Wieringerwaard,Hollands Kroon,Noord-Holland,VBO,4.862891,52.837520
Sportlaan,9,,,1766JN,Wieringerwaard,Hollands Kroon,Noord-Holland,VBO,4.863033,52.837489
Sportlaan,11,,,1766JN,Wieringerwaard,Hollands Kroon,Noord-Holland,VBO,4.863168,52.837477
Sportlaan,13,,,1766JN,Wieringerwaard,Hollands Kroon,Noord-Holland,VBO,4.863315,52.837476
Sportlaan,15,,,1766JN,Wieringerwaard,Hollands Kroon,Noord-Holland,VBO,4.863429,52.837469
Sportlaan,17,,,1766JN,Wieringerwaard,Hollands Kroon,Noord-Holland,VBO,4.863597,52.837447
Sportlaan,19,,,1766JN,Wieringerwaard,Hollands Kroon,Noord-Holland,VBO,4.863676,52.837441
Sportlaan,21,,,1766JN,Wieringerwaard,Hollands Kroon,Noord-Holland,VBO,4.864150,52.837392
Sportlaan,23,,,1766JN,Wieringerwaard,Hollands Kroon,Noord-Holland,VBO,4.864256,52.837382
Sportlaan,25,,,1766JN,Wieringerwaard,Hollands Kroon,Noord-Holland,VBO,4.864389,52.837368
Sportlaan,27,,,1766JN,Wieringerwaard,Hollands Kroon,Noord-Holland,VBO,4.864521,52.837353
Sportlaan,29,,,1766JN,Wieringerwaard,Hollands Kroon,Noord-Holland,VBO,4.864649,52.837324
Sportlaan,31,,,1766JN,Wieringerwaard,Hollands Kroon,Noord-Holland,VBO,4.864792,52.837311
Sportlaan,33,,,1766JN,Wieringerwaard,Hollands Kroon,Noord-Holland,VBO,4.864940,52.837311
Sportlaan,35,,,1766JN,Wieringerwaard,Hollands Kroon,Noord-Holland,VBO,4.865037,52.837303
Sportlaan,37,,,1766JN,Wieringerwaard,Hollands Kroon,Noord-Holland,VBO,4.865165,52.837274
Sportlaan,39,,,1766JN,Wieringerwaard,Hollands Kroon,Noord-Holland,VBO,4.865305,52.837259
Sportlaan,41,,,1766JN,Wieringerwaard,Hollands Kroon,Noord-Holland,VBO,4.865456,52.837257
Sportlaan,43,,,1766JN,Wieringerwaard,Hollands Kroon,Noord-Holland,VBO,4.865571,52.837250
Sportlaan,45,,,1766JN,Wieringerwaard,Hollands Kroon,Noord-Holland,VBO,4.865726,52.837230
Sportlaan,47,,,1766JN,Wieringerwaard,Hollands Kroon,Noord-Holland,VBO,4.865833,52.837215
Sportlaan,2,,,1766JP,Wieringerwaard,Hollands Kroon,Noord-Holland,VBO,4.864915,52.837559
Sportlaan,4,,,1766JP,Wieringerwaard,Hollands Kroon,Noord-Holland,VBO,4.864930,52.837622
Sportlaan,6,,,1766JP,Wieringerwaard,Hollands Kroon,Noord-Holland,VBO,4.864951,52.837675
Sportlaan,8,,,1766JP,Wieringerwaard,Hollands Kroon,Noord-Holland,VBO,4.864963,52.837728
Sportlaan,10,,,1766JP,Wieringerwaard,Hollands Kroon,Noord-Holland,VBO,4.864867,52.837789
Sportlaan,12,,,1766JP,Wieringerwaard,Hollands Kroon,Noord-Holland,VBO,4.864891,52.837842
Sportlaan,14,,,1766JP,Wieringerwaard,Hollands Kroon,Noord-Holland,VBO,4.864909,52.837896
Sportlaan,16,,,1766JP,Wieringerwaard,Hollands Kroon,Noord-Holland,VBO,4.864923,52.837955
Sportlaan,18,,,1766JP,Wieringerwaard,Hollands Kroon,Noord-Holland,VBO,4.865381,52.837507
Sportlaan,20,,,1766JP,Wieringerwaard,Hollands Kroon,Noord-Holland,VBO,4.865399,52.837567
Sportlaan,22,,,1766JP,Wieringerwaard,Hollands Kroon,Noord-Holland,VBO,4.865417,52.837623
Sportlaan,24,,,1766JP,Wieringerwaard,Hollands Kroon,Noord-Holland,VBO,4.865422,52.837680
Sportlaan,26,,,1766JP,Wieringerwaard,Hollands Kroon,Noord-Holland,VBO,4.865336,52.837741
Sportlaan,28,,,1766JP,Wieringerwaard,Hollands Kroon,Noord-Holland,VBO,4.865356,52.837802
Sportlaan,30,,,1766JP,Wieringerwaard,Hollands Kroon,Noord-Holland,VBO,4.865382,52.837863
Sportlaan,32,,,1766JP,Wieringerwaard,Hollands Kroon,Noord-Holland,VBO,4.865383,52.837922
Sportlaan,54,,,1766JP,Wieringerwaard,Hollands Kroon,Noord-Holland,VBO,4.866312,52.838423
Sportlaan,34,,,1766JR,Wieringerwaard,Hollands Kroon,Noord-Holland,VBO,4.865738,52.837494
Sportlaan,36,,,1766JR,Wieringerwaard,Hollands Kroon,Noord-Holland,VBO,4.865748,52.837534
Sportlaan,38,,,1766JR,Wieringerwaard,Hollands Kroon,Noord-Holland,VBO,4.865757,52.837575
Sportlaan,40,,,1766JR,Wieringerwaard,Hollands Kroon,Noord-Holland,VBO,4.865825,52.837641
Sportlaan,42,,,1766JR,Wieringerwaard,Hollands Kroon,Noord-Holland,VBO,4.865943,52.837685
Sportlaan,44,,,1766JR,Wieringerwaard,Hollands Kroon,Noord-Holland,VBO,4.865965,52.837737
Sportlaan,46,,,1766JR,Wieringerwaard,Hollands Kroon,Noord-Holland,VBO,4.865975,52.837789
Sportlaan,48,,,1766JR,Wieringerwaard,Hollands Kroon,Noord-Holland,VBO,4.865989,52.837842
Sportlaan,50,,,1766JR,Wieringerwaard,Hollands Kroon,Noord-Holland,VBO,4.866000,52.837892
Sportlaan,52,,,1766JR,Wieringerwaard,Hollands Kroon,Noord-Holland,VBO,4.866018,52.837954
Kwartellaan,1,,,1766JS,Wieringerwaard,Hollands Kroon,Noord-Holland,VBO,4.863478,52.837679
Kwartellaan,2,,,1766JS,Wieringerwaard,Hollands Kroon,Noord-Holland,VBO,4.864048,52.838024
Kwartellaan,3,,,1766JS,Wieringerwaard,Hollands Kroon,Noord-Holland,VBO,4.863492,52.837733
Kwartellaan,4,,,1766JS,Wieringerwaard,Hollands Kroon,Noord-Holland,VBO,4.864369,52.838603
Kwartellaan,5,,,1766JS,Wieringerwaard,Hollands Kroon,Noord-Holland,VBO,4.863506,52.837787
Kwartellaan,6,,,1766JS,Wieringerwaard,Hollands Kroon,Noord-Holland,VBO,4.864355,52.838548
Kwartellaan,7,,,1766JS,Wieringerwaard,Hollands Kroon,Noord-Holland,VBO,4.863520,52.837841
Kwartellaan,8,,,1766JS,Wieringerwaard,Hollands Kroon,Noord-Holland,VBO,4.864340,52.838494
Kwartellaan,9,,,1766JS,Wieringerwaard,Hollands Kroon,Noord-Holland,VBO,4.863549,52.837943
Kwartellaan,10,,,1766JS,Wieringerwaard,Hollands Kroon,Noord-Holland,VBO,4.864326,52.838439
Kwartellaan,11,,,1766JS,Wieringerwaard,Hollands Kroon,Noord-Holland,VBO,4.863562,52.837995
Kwartellaan,12,,,1766JS,Wieringerwaard,Hollands Kroon,Noord-Holland,VBO,4.864240,52.838390
Kwartellaan,13,,,1766JS,Wieringerwaard,Hollands Kroon,Noord-Holland,VBO,4.863575,52.838048
Kwartellaan,14,t,,1766JS,Wieringerwaard,Hollands Kroon,Noord-Holland,VBO,4.863907,52.838331
Kwartellaan,14,,,1766JS,Wieringerwaard,Hollands Kroon,Noord-Holland,VBO,4.864226,52.838329
Kwartellaan,15,,,1766JS,Wieringerwaard,Hollands Kroon,Noord-Holland,VBO,4.863588,52.838101
Kwartellaan,16,,,1766JS,Wieringerwaard,Hollands Kroon,Noord-Holland,VBO,4.863853,52.838440
Kwartellaan,17,,,1766JS,Wieringerwaard,Hollands Kroon,Noord-Holland,VBO,4.863613,52.838207
Kwartellaan,18,,,1766JS,Wieringerwaard,Hollands Kroon,Noord-Holland,VBO,4.863757,52.838451
Kwartellaan,19,,,1766JS,Wieringerwaard,Hollands Kroon,Noord-Holland,VBO,4.863634,52.838268
Kwartellaan,20,,,1766JS,Wieringerwaard,Hollands Kroon,Noord-Holland,VBO,4.863660,52.838462
Kwartellaan,22,,,1766JS,Wieringerwaard,Hollands Kroon,Noord-Holland,VBO,4.863564,52.838473
Patrijzenlaan,1,,,1766JT,Wieringerwaard,Hollands Kroon,Noord-Holland,VBO,4.862423,52.837808
Patrijzenlaan,2,,,1766JT,Wieringerwaard,Hollands Kroon,Noord-Holland,VBO,4.862845,52.837735
Patrijzenlaan,3,,,1766JT,Wieringerwaard,Hollands Kroon,Noord-Holland,VBO,4.862432,52.837836
Patrijzenlaan,4,,,1766JT,Wieringerwaard,Hollands Kroon,Noord-Holland,VBO,4.862862,52.837794
Patrijzenlaan,5,,,1766JT,Wieringerwaard,Hollands Kroon,Noord-Holland,VBO,4.862441,52.837863
Patrijzenlaan,6,,,1766JT,Wieringerwaard,Hollands Kroon,Noord-Holland,VBO,4.862878,52.837853
Patrijzenlaan,7,,,1766JT,Wieringerwaard,Hollands Kroon,Noord-Holland,VBO,4.862450,52.837890
Patrijzenlaan,8,,,1766JT,Wieringerwaard,Hollands Kroon,Noord-Holland,VBO,4.862895,52.837911
Patrijzenlaan,9,,,1766JT,Wieringerwaard,Hollands Kroon,Noord-Holland,VBO,4.862458,52.837917
Patrijzenlaan,10,,,1766JT,Wieringerwaard,Hollands Kroon,Noord-Holland,VBO,4.862919,52.838009
Patrijzenlaan,11,,,1766JT,Wieringerwaard,Hollands Kroon,Noord-Holland,VBO,4.862467,52.837945
Patrijzenlaan,12,,,1766JT,Wieringerwaard,Hollands Kroon,Noord-Holland,VBO,4.862939,52.838073
Patrijzenlaan,13,,,1766JT,Wieringerwaard,Hollands Kroon,Noord-Holland,VBO,4.862476,52.837972
Patrijzenlaan,14,,,1766JT,Wieringerwaard,Hollands Kroon,Noord-Holland,VBO,4.862968,52.838166
Patrijzenlaan,15,,,1766JT,Wieringerwaard,Hollands Kroon,Noord-Holland,VBO,4.862485,52.837999
Patrijzenlaan,16,,,1766JT,Wieringerwaard,Hollands Kroon,Noord-Holland,VBO,4.862981,52.838225
Patrijzenlaan,17,,,1766JT,Wieringerwaard,Hollands Kroon,Noord-Holland,VBO,4.862494,52.838026
Patrijzenlaan,18,,,1766JT,Wieringerwaard,Hollands Kroon,Noord-Holland,VBO,4.862993,52.838285
Patrijzenlaan,19,,,1766JT,Wieringerwaard,Hollands Kroon,Noord-Holland,VBO,4.862503,52.838054
Patrijzenlaan,20,,,1766JT,Wieringerwaard,Hollands Kroon,Noord-Holland,VBO,4.863006,52.838345
Patrijzenlaan,21,,,1766JT,Wieringerwaard,Hollands Kroon,Noord-Holland,VBO,4.862516,52.838088
Patrijzenlaan,22,,,1766JT,Wieringerwaard,Hollands Kroon,Noord-Holland,VBO,4.862905,52.838557
Patrijzenlaan,23,,,1766JT,Wieringerwaard,Hollands Kroon,Noord-Holland,VBO,4.862521,52.838108
Patrijzenlaan,24,,,1766JT,Wieringerwaard,Hollands Kroon,Noord-Holland,VBO,4.862814,52.838565
Patrijzenlaan,25,,,1766JT,Wieringerwaard,Hollands Kroon,Noord-Holland,VBO,4.862530,52.838135
Patrijzenlaan,26,,,1766JT,Wieringerwaard,Hollands Kroon,Noord-Holland,VBO,4.862723,52.838573
Patrijzenlaan,27,,,1766JT,Wieringerwaard,Hollands Kroon,Noord-Holland,VBO,4.862539,52.838163
Patrijzenlaan,28,,,1766JT,Wieringerwaard,Hollands Kroon,Noord-Holland,VBO,4.862632,52.838581
Patrijzenlaan,29,,,1766JT,Wieringerwaard,Hollands Kroon,Noord-Holland,VBO,4.862548,52.838190
Patrijzenlaan,30,,,1766JT,Wieringerwaard,Hollands Kroon,Noord-Holland,VBO,4.862691,52.838811
Patrijzenlaan,31,a,,1766JT,Wieringerwaard,Hollands Kroon,Noord-Holland,VBO,4.862382,52.838216
Patrijzenlaan,31,k,01,1766JT,Wieringerwaard,Hollands Kroon,Noord-Holland,VBO,4.862111,52.838286
Patrijzenlaan,31,k,02,1766JT,Wieringerwaard,Hollands Kroon,Noord-Holland,VBO,4.862116,52.838336
Patrijzenlaan,31,k,03,1766JT,Wieringerwaard,Hollands Kroon,Noord-Holland,VBO,4.862130,52.838377
Patrijzenlaan,31,k,04,1766JT,Wieringerwaard,Hollands Kroon,Noord-Holland,VBO,4.862145,52.838425
Patrijzenlaan,31,k,05,1766JT,Wieringerwaard,Hollands Kroon,Noord-Holland,VBO,4.862163,52.838472
Patrijzenlaan,31,k,06,1766JT,Wieringerwaard,Hollands Kroon,Noord-Holland,VBO,4.862182,52.838524
Patrijzenlaan,31,k,08,1766JT,Wieringerwaard,Hollands Kroon,Noord-Holland,VBO,4.862120,52.838584
Patrijzenlaan,31,k,09,1766JT,Wieringerwaard,Hollands Kroon,Noord-Holland,VBO,4.862107,52.838540
Patrijzenlaan,31,k,10,1766JT,Wieringerwaard,Hollands Kroon,Noord-Holland,VBO,4.862095,52.838497
Patrijzenlaan,31,k,11,1766JT,Wieringerwaard,Hollands Kroon,Noord-Holland,VBO,4.862083,52.838448
Patrijzenlaan,31,k,12,1766JT,Wieringerwaard,Hollands Kroon,Noord-Holland,VBO,4.862070,52.838397
Patrijzenlaan,31,k,13,1766JT,Wieringerwaard,Hollands Kroon,Noord-Holland,VBO,4.862057,52.838344
Patrijzenlaan,31,k,14,1766JT,Wieringerwaard,Hollands Kroon,Noord-Holland,VBO,4.862038,52.838291
Patrijzenlaan,31,k,18,1766JT,Wieringerwaard,Hollands Kroon,Noord-Holland,VBO,4.862002,52.838314
Patrijzenlaan,31,k,19,1766JT,Wieringerwaard,Hollands Kroon,Noord-Holland,VBO,4.862012,52.838367
Patrijzenlaan,31,k,20,1766JT,Wieringerwaard,Hollands Kroon,Noord-Holland,VBO,4.862018,52.838415
Patrijzenlaan,31,k,21,1766JT,Wieringerwaard,Hollands Kroon,Noord-Holland,VBO,4.862036,52.838466
Patrijzenlaan,31,k,22,1766JT,Wieringerwaard,Hollands Kroon,Noord-Holland,VBO,4.862050,52.838511
Patrijzenlaan,31,k,23,1766JT,Wieringerwaard,Hollands Kroon,Noord-Holland,VBO,4.862061,52.838552
Patrijzenlaan,31,k,24,1766JT,Wieringerwaard,Hollands Kroon,Noord-Holland,VBO,4.861993,52.838555
Patrijzenlaan,31,k,25,1766JT,Wieringerwaard,Hollands Kroon,Noord-Holland,VBO,4.861985,52.838502
Patrijzenlaan,31,k,26,1766JT,Wieringerwaard,Hollands Kroon,Noord-Holland,VBO,4.861969,52.838450
Patrijzenlaan,31,k,27,1766JT,Wieringerwaard,Hollands Kroon,Noord-Holland,VBO,4.861949,52.838383
Patrijzenlaan,31,k,28,1766JT,Wieringerwaard,Hollands Kroon,Noord-Holland,VBO,4.861938,52.838331
Patrijzenlaan,31,k,29,1766JT,Wieringerwaard,Hollands Kroon,Noord-Holland,VBO,4.861840,52.838164
Patrijzenlaan,31,k,30,1766JT,Wieringerwaard,Hollands Kroon,Noord-Holland,VBO,4.861824,52.838119
Patrijzenlaan,31,,,1766JT,Wieringerwaard,Hollands Kroon,Noord-Holland,VBO,4.862557,52.838217
Patrijzenlaan,32,,,1766JT,Wieringerwaard,Hollands Kroon,Noord-Holland,VBO,4.862705,52.838866
Patrijzenlaan,33,,,1766JT,Wieringerwaard,Hollands Kroon,Noord-Holland,VBO,4.862341,52.838617
Patrijzenlaan,34,,,1766JT,Wieringerwaard,Hollands Kroon,Noord-Holland,VBO,4.862718,52.838921
Patrijzenlaan,35,,,1766JT,Wieringerwaard,Hollands Kroon,Noord-Holland,VBO,4.862345,52.838632
Patrijzenlaan,36,,,1766JT,Wieringerwaard,Hollands Kroon,Noord-Holland,VBO,4.862732,52.838976
Patrijzenlaan,37,,,1766JT,Wieringerwaard,Hollands Kroon,Noord-Holland,VBO,4.862350,52.838648
Patrijzenlaan,39,,,1766JT,Wieringerwaard,Hollands Kroon,Noord-Holland,VBO,4.862354,52.838664
Patrijzenlaan,41,,,1766JT,Wieringerwaard,Hollands Kroon,Noord-Holland,VBO,4.862358,52.838679
Patrijzenlaan,43,,,1766JT,Wieringerwaard,Hollands Kroon,Noord-Holland,VBO,4.862362,52.838695
Patrijzenlaan,45,,,1766JT,Wieringerwaard,Hollands Kroon,Noord-Holland,VBO,4.862367,52.838711
Patrijzenlaan,47,,,1766JT,Wieringerwaard,Hollands Kroon,Noord-Holland,VBO,4.862371,52.838726
Patrijzenlaan,49,,,1766JT,Wieringerwaard,Hollands Kroon,Noord-Holland,VBO,4.862375,52.838742
Patrijzenlaan,51,,,1766JT,Wieringerwaard,Hollands Kroon,Noord-Holland,VBO,4.862379,52.838758
Patrijzenlaan,53,,,1766JT,Wieringerwaard,Hollands Kroon,Noord-Holland,VBO,4.862384,52.838773
Patrijzenlaan,55,,,1766JT,Wieringerwaard,Hollands Kroon,Noord-Holland,VBO,4.862388,52.838789
Patrijzenlaan,57,,,1766JT,Wieringerwaard,Hollands Kroon,Noord-Holland,VBO,4.862392,52.838805
Patrijzenlaan,59,,,1766JT,Wieringerwaard,Hollands Kroon,Noord-Holland,VBO,4.862396,52.838820
Patrijzenlaan,61,,,1766JT,Wieringerwaard,Hollands Kroon,Noord-Holland,VBO,4.862401,52.838836
Patrijzenlaan,63,,,1766JT,Wieringerwaard,Hollands Kroon,Noord-Holland,VBO,4.862405,52.838852
Patrijzenlaan,65,,,1766JT,Wieringerwaard,Hollands Kroon,Noord-Holland,VBO,4.862409,52.838867
Patrijzenlaan,67,,,1766JT,Wieringerwaard,Hollands Kroon,Noord-Holland,VBO,4.862413,52.838883
Patrijzenlaan,69,,,1766JT,Wieringerwaard,Hollands Kroon,Noord-Holland,VBO,4.862418,52.838898
Patrijzenlaan,71,,,1766JT,Wieringerwaard,Hollands Kroon,Noord-Holland,VBO,4.862422,52.838914
Patrijzenlaan,73,,,1766JT,Wieringerwaard,Hollands Kroon,Noord-Holland,VBO,4.861383,52.838696
Patrijzenlaan,75,,,1766JT,Wieringerwaard,Hollands Kroon,Noord-Holland,VBO,4.861403,52.838774
Patrijzenlaan,77,,,1766JT,Wieringerwaard,Hollands Kroon,Noord-Holland,VBO,4.861534,52.838991
Patrijzenlaan,79,,,1766JT,Wieringerwaard,Hollands Kroon,Noord-Holland,VBO,4.861394,52.839004
Fazantenlaan,1,,,1766JV,Wieringerwaard,Hollands Kroon,Noord-Holland,VBO,4.864590,52.838296
Fazantenlaan,2,,,1766JV,Wieringerwaard,Hollands Kroon,Noord-Holland,VBO,4.865840,52.838165
Fazantenlaan,3,,,1766JV,Wieringerwaard,Hollands Kroon,Noord-Holland,VBO,4.864712,52.838286
Fazantenlaan,4,,,1766JV,Wieringerwaard,Hollands Kroon,Noord-Holland,VBO,4.865856,52.838226
Fazantenlaan,5,,,1766JV,Wieringerwaard,Hollands Kroon,Noord-Holland,VBO,4.864801,52.838317
Fazantenlaan,6,,,1766JV,Wieringerwaard,Hollands Kroon,Noord-Holland,VBO,4.865872,52.838288
Fazantenlaan,7,,,1766JV,Wieringerwaard,Hollands Kroon,Noord-Holland,VBO,4.864888,52.838308
Fazantenlaan,8,,,1766JV,Wieringerwaard,Hollands Kroon,Noord-Holland,VBO,4.865888,52.838350
Fazantenlaan,9,,,1766JV,Wieringerwaard,Hollands Kroon,Noord-Holland,VBO,4.864976,52.838300
Fazantenlaan,10,,,1766JV,Wieringerwaard,Hollands Kroon,Noord-Holland,VBO,4.865972,52.838439
Fazantenlaan,11,,,1766JV,Wieringerwaard,Hollands Kroon,Noord-Holland,VBO,4.865063,52.838292
Fazantenlaan,12,,,1766JV,Wieringerwaard,Hollands Kroon,Noord-Holland,VBO,4.865989,52.838499
Fazantenlaan,13,,,1766JV,Wieringerwaard,Hollands Kroon,Noord-Holland,VBO,4.865471,52.838298
Fazantenlaan,14,,,1766JV,Wieringerwaard,Hollands Kroon,Noord-Holland,VBO,4.866006,52.838560
Fazantenlaan,15,,,1766JV,Wieringerwaard,Hollands Kroon,Noord-Holland,VBO,4.865487,52.838355
Fazantenlaan,16,,,1766JV,Wieringerwaard,Hollands Kroon,Noord-Holland,VBO,4.866023,52.838620
Fazantenlaan,17,,,1766JV,Wieringerwaard,Hollands Kroon,Noord-Holland,VBO,4.865503,52.838411
Fazantenlaan,19,,,1766JV,Wieringerwaard,Hollands Kroon,Noord-Holland,VBO,4.865520,52.838467
Gruttolaan,1,,,1766JW,Wieringerwaard,Hollands Kroon,Noord-Holland,VBO,4.865567,52.838681
Gruttolaan,2,,,1766JW,Wieringerwaard,Hollands Kroon,Noord-Holland,VBO,4.865814,52.838873
Gruttolaan,3,,,1766JW,Wieringerwaard,Hollands Kroon,Noord-Holland,VBO,4.865466,52.838692
Gruttolaan,4,,,1766JW,Wieringerwaard,Hollands Kroon,Noord-Holland,VBO,4.865722,52.838883
Gruttolaan,5,,,1766JW,Wieringerwaard,Hollands Kroon,Noord-Holland,VBO,4.865365,52.838704
Gruttolaan,6,,,1766JW,Wieringerwaard,Hollands Kroon,Noord-Holland,VBO,4.865630,52.838892
Gruttolaan,7,,,1766JW,Wieringerwaard,Hollands Kroon,Noord-Holland,VBO,4.865264,52.838715
Gruttolaan,8,,,1766JW,Wieringerwaard,Hollands Kroon,Noord-Holland,VBO,4.865538,52.838901
Gruttolaan,9,,,1766JW,Wieringerwaard,Hollands Kroon,Noord-Holland,VBO,4.865069,52.838690
Gruttolaan,10,,,1766JW,Wieringerwaard,Hollands Kroon,Noord-Holland,VBO,4.864786,52.839187
Gruttolaan,11,,,1766JW,Wieringerwaard,Hollands Kroon,Noord-Holland,VBO,4.864983,52.838698
Gruttolaan,12,,,1766JW,Wieringerwaard,Hollands Kroon,Noord-Holland,VBO,4.864696,52.839196
Gruttolaan,13,,,1766JW,Wieringerwaard,Hollands Kroon,Noord-Holland,VBO,4.864898,52.838707
Gruttolaan,14,,,1766JW,Wieringerwaard,Hollands Kroon,Noord-Holland,VBO,4.864606,52.839205
Gruttolaan,15,,,1766JW,Wieringerwaard,Hollands Kroon,Noord-Holland,VBO,4.864812,52.838715
Gruttolaan,16,,,1766JW,Wieringerwaard,Hollands Kroon,Noord-Holland,VBO,4.864517,52.839214
Gruttolaan,17,,,1766JW,Wieringerwaard,Hollands Kroon,Noord-Holland,VBO,4.864392,52.838695
Gruttolaan,18,,,1766JW,Wieringerwaard,Hollands Kroon,Noord-Holland,VBO,4.864427,52.839223
Gruttolaan,19,,,1766JW,Wieringerwaard,Hollands Kroon,Noord-Holland,VBO,4.864412,52.838749
Gruttolaan,20,,,1766JW,Wieringerwaard,Hollands Kroon,Noord-Holland,VBO,4.864337,52.839232
Gruttolaan,21,,,1766JW,Wieringerwaard,Hollands Kroon,Noord-Holland,VBO,4.864506,52.838796
Gruttolaan,22,,,1766JW,Wieringerwaard,Hollands Kroon,Noord-Holland,VBO,4.864174,52.839254
Gruttolaan,23,,,1766JW,Wieringerwaard,Hollands Kroon,Noord-Holland,VBO,4.864518,52.838849
Gruttolaan,24,,,1766JW,Wieringerwaard,Hollands Kroon,Noord-Holland,VBO,4.864050,52.839265
Gruttolaan,25,,,1766JW,Wieringerwaard,Hollands Kroon,Noord-Holland,VBO,4.864530,52.838901
Gruttolaan,26,,,1766JW,Wieringerwaard,Hollands Kroon,Noord-Holland,VBO,4.863927,52.839276
Gruttolaan,27,,,1766JW,Wieringerwaard,Hollands Kroon,Noord-Holland,VBO,4.864543,52.838954
Gruttolaan,28,,,1766JW,Wieringerwaard,Hollands Kroon,Noord-Holland,VBO,4.863804,52.839287
Gruttolaan,29,,,1766JW,Wieringerwaard,Hollands Kroon,Noord-Holland,VBO,4.863948,52.839092
Gruttolaan,31,,,1766JW,Wieringerwaard,Hollands Kroon,Noord-Holland,VBO,4.863931,52.839034
Gruttolaan,33,,,1766JW,Wieringerwaard,Hollands Kroon,Noord-Holland,VBO,4.863915,52.838975
Gruttolaan,34,,,1766JW,Wieringerwaard,Hollands Kroon,Noord-Holland,VBO,4.863456,52.839241
Gruttolaan,35,,,1766JW,Wieringerwaard,Hollands Kroon,Noord-Holland,VBO,4.863898,52.838917
Gruttolaan,36,,,1766JW,Wieringerwaard,Hollands Kroon,Noord-Holland,VBO,4.863446,52.839195
Gruttolaan,37,,,1766JW,Wieringerwaard,Hollands Kroon,Noord-Holland,VBO,4.863370,52.838901
Gruttolaan,38,,,1766JW,Wieringerwaard,Hollands Kroon,Noord-Holland,VBO,4.863435,52.839149
Gruttolaan,39,,,1766JW,Wieringerwaard,Hollands Kroon,Noord-Holland,VBO,4.863283,52.838911
Gruttolaan,40,,,1766JW,Wieringerwaard,Hollands Kroon,Noord-Holland,VBO,4.863069,52.839176
Gruttolaan,41,,,1766JW,Wieringerwaard,Hollands Kroon,Noord-Holland,VBO,4.863196,52.838920
Gruttolaan,42,,,1766JW,Wieringerwaard,Hollands Kroon,Noord-Holland,VBO,4.862997,52.839182
Gruttolaan,43,,,1766JW,Wieringerwaard,Hollands Kroon,Noord-Holland,VBO,4.863109,52.838930
Gruttolaan,44,,,1766JW,Wieringerwaard,Hollands Kroon,Noord-Holland,VBO,4.862925,52.839189
Gruttolaan,46,,,1766JW,Wieringerwaard,Hollands Kroon,Noord-Holland,VBO,4.862824,52.839181
Gruttolaan,48,,,1766JW,Wieringerwaard,Hollands Kroon,Noord-Holland,VBO,4.862750,52.839187
Gruttolaan,50,,,1766JW,Wieringerwaard,Hollands Kroon,Noord-Holland,VBO,4.862677,52.839193
Gruttolaan,52,,,1766JW,Wieringerwaard,Hollands Kroon,Noord-Holland,VBO,4.862604,52.839200
Scholeksterlaan,1,,,1766JX,Wieringerwaard,Hollands Kroon,Noord-Holland,VBO,4.865870,52.839109
Scholeksterlaan,3,,,1766JX,Wieringerwaard,Hollands Kroon,Noord-Holland,VBO,4.865889,52.839171
Scholeksterlaan,5,,,1766JX,Wieringerwaard,Hollands Kroon,Noord-Holland,VBO,4.865908,52.839234
Scholeksterlaan,7,,,1766JX,Wieringerwaard,Hollands Kroon,Noord-Holland,VBO,4.865927,52.839296
Scholeksterlaan,9,,,1766JX,Wieringerwaard,Hollands Kroon,Noord-Holland,VBO,4.865493,52.839340
Scholeksterlaan,11,,,1766JX,Wieringerwaard,Hollands Kroon,Noord-Holland,VBO,4.865406,52.839348
Scholeksterlaan,13,,,1766JX,Wieringerwaard,Hollands Kroon,Noord-Holland,VBO,4.865319,52.839357
Scholeksterlaan,15,,,1766JX,Wieringerwaard,Hollands Kroon,Noord-Holland,VBO,4.865232,52.839366
Scholeksterlaan,17,,,1766JX,Wieringerwaard,Hollands Kroon,Noord-Holland,VBO,4.865195,52.839139
Scholeksterlaan,19,,,1766JX,Wieringerwaard,Hollands Kroon,Noord-Holland,VBO,4.865181,52.839079
Scholeksterlaan,21,,,1766JX,Wieringerwaard,Hollands Kroon,Noord-Holland,VBO,4.865167,52.839020
Scholeksterlaan,23,,,1766JX,Wieringerwaard,Hollands Kroon,Noord-Holland,VBO,4.865153,52.838961
Scholeksterlaan,2,,,1766JZ,Wieringerwaard,Hollands Kroon,Noord-Holland,VBO,4.866187,52.838818
Scholeksterlaan,4,,,1766JZ,Wieringerwaard,Hollands Kroon,Noord-Holland,VBO,4.866203,52.838871
Scholeksterlaan,6,,,1766JZ,Wieringerwaard,Hollands Kroon,Noord-Holland,VBO,4.866218,52.838925
Scholeksterlaan,8,,,1766JZ,Wieringerwaard,Hollands Kroon,Noord-Holland,VBO,4.866234,52.838978
Scholeksterlaan,10,,,1766JZ,Wieringerwaard,Hollands Kroon,Noord-Holland,VBO,4.866310,52.839023
Scholeksterlaan,12,,,1766JZ,Wieringerwaard,Hollands Kroon,Noord-Holland,VBO,4.866328,52.839080
Scholeksterlaan,14,,,1766JZ,Wieringerwaard,Hollands Kroon,Noord-Holland,VBO,4.866352,52.839176
Scholeksterlaan,16,,,1766JZ,Wieringerwaard,Hollands Kroon,Noord-Holland,VBO,4.866369,52.839233
Scholeksterlaan,18,,,1766JZ,Wieringerwaard,Hollands Kroon,Noord-Holland,VBO,4.866319,52.839296
Scholeksterlaan,20,,,1766JZ,Wieringerwaard,Hollands Kroon,Noord-Holland,VBO,4.866334,52.839349
Scholeksterlaan,22,,,1766JZ,Wieringerwaard,Hollands Kroon,Noord-Holland,VBO,4.866349,52.839401
Scholeksterlaan,24,,,1766JZ,Wieringerwaard,Hollands Kroon,Noord-Holland,VBO,4.866364,52.839454
Scholeksterlaan,26,,,1766JZ,Wieringerwaard,Hollands Kroon,Noord-Holland,VBO,4.864774,52.839601
Scholeksterlaan,28,,,1766JZ,Wieringerwaard,Hollands Kroon,Noord-Holland,VBO,4.864760,52.839544
Scholeksterlaan,30,,,1766JZ,Wieringerwaard,Hollands Kroon,Noord-Holland,VBO,4.864747,52.839486
Scholeksterlaan,32,,,1766JZ,Wieringerwaard,Hollands Kroon,Noord-Holland,VBO,4.864733,52.839428
Vinkenhof,1,,,1766KA,Wieringerwaard,Hollands Kroon,Noord-Holland,VBO,4.863140,52.838534
Vinkenhof,2,,,1766KA,Wieringerwaard,Hollands Kroon,Noord-Holland,VBO,4.863758,52.838647
Vinkenhof,3,,,1766KA,Wieringerwaard,Hollands Kroon,Noord-Holland,VBO,4.863156,52.838594
Vinkenhof,4,,,1766KA,Wieringerwaard,Hollands Kroon,Noord-Holland,VBO,4.863775,52.838709
Vinkenhof,5,,,1766KA,Wieringerwaard,Hollands Kroon,Noord-Holland,VBO,4.863173,52.838654
Vinkenhof,6,,,1766KA,Wieringerwaard,Hollands Kroon,Noord-Holland,VBO,4.863791,52.838770
Vinkenhof,7,,,1766KA,Wieringerwaard,Hollands Kroon,Noord-Holland,VBO,4.863189,52.838715
Vinkenhof,8,,,1766KA,Wieringerwaard,Hollands Kroon,Noord-Holland,VBO,4.863807,52.838832
Zwaluwenlaan,1,,,1766KB,Wieringerwaard,Hollands Kroon,Noord-Holland,VBO,4.862236,52.839155
Zwaluwenlaan,3,,,1766KB,Wieringerwaard,Hollands Kroon,Noord-Holland,VBO,4.862262,52.839263
Zwaluwenlaan,5,,,1766KB,Wieringerwaard,Hollands Kroon,Noord-Holland,VBO,4.862281,52.839358
Zwaluwenlaan,7,,,1766KB,Wieringerwaard,Hollands Kroon,Noord-Holland,VBO,4.862302,52.839451
Zwaluwenlaan,9,,,1766KB,Wieringerwaard,Hollands Kroon,Noord-Holland,VBO,4.862323,52.839528
Zwaluwenlaan,11,,,1766KB,Wieringerwaard,Hollands Kroon,Noord-Holland,VBO,4.862340,52.839603
Zwaluwenlaan,13,,,1766KB,Wieringerwaard,Hollands Kroon,Noord-Holland,VBO,4.862368,52.839657
Zwaluwenlaan,15,,,1766KB,Wieringerwaard,Hollands Kroon,Noord-Holland,VBO,4.862408,52.839811
Zwaluwenlaan,17,,,1766KB,Wieringerwaard,Hollands Kroon,Noord-Holland,VBO,4.862439,52.839934
Zwaluwenlaan,19,,,1766KB,Wieringerwaard,Hollands Kroon,Noord-Holland,VBO,4.862757,52.839828
Zwaluwenlaan,21,,,1766KB,Wieringerwaard,Hollands Kroon,Noord-Holland,VBO,4.863015,52.839803
Zwaluwenlaan,23,,,1766KB,Wieringerwaard,Hollands Kroon,Noord-Holland,VBO,4.863288,52.839781
Zwaluwenlaan,25,,,1766KB,Wieringerwaard,Hollands Kroon,Noord-Holland,VBO,4.863555,52.839755
Zwaluwenlaan,2,a,,1766KC,Wieringerwaard,Hollands Kroon,Noord-Holland,VBO,4.862689,52.839498
Zwaluwenlaan,2,,,1766KC,Wieringerwaard,Hollands Kroon,Noord-Holland,VBO,4.862652,52.839418
Zwaluwenlaan,4,,,1766KC,Wieringerwaard,Hollands Kroon,Noord-Holland,VBO,4.862677,52.839608
Zwaluwenlaan,6,,,1766KC,Wieringerwaard,Hollands Kroon,Noord-Holland,VBO,4.863062,52.839615
Zwaluwenlaan,8,,,1766KC,Wieringerwaard,Hollands Kroon,Noord-Holland,VBO,4.863215,52.839601
Zwaluwenlaan,10,,,1766KC,Wieringerwaard,Hollands Kroon,Noord-Holland,VBO,4.863370,52.839585
Zwaluwenlaan,12,,,1766KC,Wieringerwaard,Hollands Kroon,Noord-Holland,VBO,4.863503,52.839527
Merellaan,1,,,1766KH,Wieringerwaard,Hollands Kroon,Noord-Holland,VBO,4.863467,52.839286
Merellaan,3,,,1766KH,Wieringerwaard,Hollands Kroon,Noord-Holland,VBO,4.863478,52.839332
Merellaan,2,,,1766KJ,Wieringerwaard,Hollands Kroon,Noord-Holland,VBO,4.863960,52.839626
Merellaan,4,,,1766KJ,Wieringerwaard,Hollands Kroon,Noord-Holland,VBO,4.864084,52.839614
Merellaan,6,,,1766KJ,Wieringerwaard,Hollands Kroon,Noord-Holland,VBO,4.864260,52.839598
Merellaan,8,,,1766KJ,Wieringerwaard,Hollands Kroon,Noord-Holland,VBO,4.864380,52.839583
Kievitlaan,1,,,1766KL,Wieringerwaard,Hollands Kroon,Noord-Holland,VBO,4.865951,52.839803
Kievitlaan,2,,,1766KL,Wieringerwaard,Hollands Kroon,Noord-Holland,VBO,4.866337,52.839706
Kievitlaan,3,,,1766KL,Wieringerwaard,Hollands Kroon,Noord-Holland,VBO,4.865967,52.839854
Kievitlaan,4,,,1766KL,Wieringerwaard,Hollands Kroon,Noord-Holland,VBO,4.866352,52.839771
Kievitlaan,5,,,1766KL,Wieringerwaard,Hollands Kroon,Noord-Holland,VBO,4.866003,52.839993
Kievitlaan,6,,,1766KL,Wieringerwaard,Hollands Kroon,Noord-Holland,VBO,4.866377,52.839855
Kievitlaan,7,,,1766KL,Wieringerwaard,Hollands Kroon,Noord-Holland,VBO,4.866018,52.840048
Kievitlaan,8,,,1766KL,Wieringerwaard,Hollands Kroon,Noord-Holland,VBO,4.866398,52.839922
Kievitlaan,9,,,1766KL,Wieringerwaard,Hollands Kroon,Noord-Holland,VBO,4.866056,52.840174
Kievitlaan,10,,,1766KL,Wieringerwaard,Hollands Kroon,Noord-Holland,VBO,4.866414,52.840019
Kievitlaan,11,,,1766KL,Wieringerwaard,Hollands Kroon,Noord-Holland,VBO,4.866069,52.840223
Kievitlaan,12,,,1766KL,Wieringerwaard,Hollands Kroon,Noord-Holland,VBO,4.866442,52.840084
Kievitlaan,13,,,1766KL,Wieringerwaard,Hollands Kroon,Noord-Holland,VBO,4.866107,52.840350
Kievitlaan,14,,,1766KL,Wieringerwaard,Hollands Kroon,Noord-Holland,VBO,4.866463,52.840166
Kievitlaan,15,,,1766KL,Wieringerwaard,Hollands Kroon,Noord-Holland,VBO,4.866122,52.840406
Kievitlaan,16,,,1766KL,Wieringerwaard,Hollands Kroon,Noord-Holland,VBO,4.866488,52.840231
Kievitlaan,18,,,1766KL,Wieringerwaard,Hollands Kroon,Noord-Holland,VBO,4.866506,52.840315
Kievitlaan,20,,,1766KL,Wieringerwaard,Hollands Kroon,Noord-Holland,VBO,4.866525,52.840368
Kievitlaan,22,,,1766KL,Wieringerwaard,Hollands Kroon,Noord-Holland,VBO,4.867337,52.840804
Kievitlaan,26,,,1766KL,Wieringerwaard,Hollands Kroon,Noord-Holland,VBO,4.866554,52.840569
Kievitlaan,28,,,1766KL,Wieringerwaard,Hollands Kroon,Noord-Holland,VBO,4.866312,52.840599
Plevierhof,1,,,1766KN,Wieringerwaard,Hollands Kroon,Noord-Holland,VBO,4.866006,52.839597
Plevierhof,3,,,1766KN,Wieringerwaard,Hollands Kroon,Noord-Holland,VBO,4.865960,52.839599
Plevierhof,5,,,1766KN,Wieringerwaard,Hollands Kroon,Noord-Holland,VBO,4.865906,52.839603
Plevierhof,7,,,1766KN,Wieringerwaard,Hollands Kroon,Noord-Holland,VBO,4.865842,52.839607
Plevierhof,9,,,1766KN,Wieringerwaard,Hollands Kroon,Noord-Holland,VBO,4.865777,52.839611
Plevierhof,11,,,1766KN,Wieringerwaard,Hollands Kroon,Noord-Holland,VBO,4.865713,52.839614
Plevierhof,13,,,1766KN,Wieringerwaard,Hollands Kroon,Noord-Holland,VBO,4.865648,52.839618
Plevierhof,15,,,1766KN,Wieringerwaard,Hollands Kroon,Noord-Holland,VBO,4.865584,52.839622
Plevierhof,17,,,1766KN,Wieringerwaard,Hollands Kroon,Noord-Holland,VBO,4.865490,52.839628
Plevierhof,19,,,1766KN,Wieringerwaard,Hollands Kroon,Noord-Holland,VBO,4.865426,52.839632
Plevierhof,21,,,1766KN,Wieringerwaard,Hollands Kroon,Noord-Holland,VBO,4.865361,52.839636
Plevierhof,23,,,1766KN,Wieringerwaard,Hollands Kroon,Noord-Holland,VBO,4.865297,52.839639
Molensingel,1,,,1766KP,Wieringerwaard,Hollands Kroon,Noord-Holland,VBO,4.862588,52.840930
Molensingel,2,a,,1766KP,Wieringerwaard,Hollands Kroon,Noord-Holland,VBO,4.862599,52.840453
Molensingel,2,,,1766KP,Wieringerwaard,Hollands Kroon,Noord-Holland,VBO,4.862506,52.840439
Molensingel,3,,,1766KP,Wieringerwaard,Hollands Kroon,Noord-Holland,VBO,4.862675,52.840947
Molensingel,4,,,1766KP,Wieringerwaard,Hollands Kroon,Noord-Holland,VBO,4.863132,52.840601
Molensingel,5,,,1766KP,Wieringerwaard,Hollands Kroon,Noord-Holland,VBO,4.863214,52.841038
Molensingel,6,,,1766KP,Wieringerwaard,Hollands Kroon,Noord-Holland,VBO,4.863222,52.840611
Molensingel,7,,,1766KP,Wieringerwaard,Hollands Kroon,Noord-Holland,VBO,4.863291,52.841044
Molensingel,8,,,1766KP,Wieringerwaard,Hollands Kroon,Noord-Holland,VBO,4.863433,52.840645
Molensingel,9,,,1766KP,Wieringerwaard,Hollands Kroon,Noord-Holland,VBO,4.863553,52.841073
Molensingel,10,,,1766KP,Wieringerwaard,Hollands Kroon,Noord-Holland,VBO,4.863521,52.840655
Molensingel,11,,,1766KP,Wieringerwaard,Hollands Kroon,Noord-Holland,VBO,4.863628,52.841089
Molensingel,12,,,1766KP,Wieringerwaard,Hollands Kroon,Noord-Holland,VBO,4.863714,52.840705
Molensingel,13,,,1766KP,Wieringerwaard,Hollands Kroon,Noord-Holland,VBO,4.863712,52.841099
Molensingel,14,,,1766KP,Wieringerwaard,Hollands Kroon,Noord-Holland,VBO,4.863840,52.840718
Molensingel,15,,,1766KP,Wieringerwaard,Hollands Kroon,Noord-Holland,VBO,4.863784,52.841106
Molensingel,16,,,1766KP,Wieringerwaard,Hollands Kroon,Noord-Holland,VBO,4.864315,52.840799
Molensingel,17,,,1766KP,Wieringerwaard,Hollands Kroon,Noord-Holland,VBO,4.863866,52.841120
Molensingel,18,,,1766KP,Wieringerwaard,Hollands Kroon,Noord-Holland,VBO,4.864398,52.840806
Molensingel,19,,,1766KP,Wieringerwaard,Hollands Kroon,Noord-Holland,VBO,4.863942,52.841137
Molensingel,20,,,1766KP,Wieringerwaard,Hollands Kroon,Noord-Holland,VBO,4.864476,52.840825
Molensingel,21,,,1766KP,Wieringerwaard,Hollands Kroon,Noord-Holland,VBO,4.864445,52.841178
Molensingel,22,,,1766KP,Wieringerwaard,Hollands Kroon,Noord-Holland,VBO,4.864546,52.840830
Molensingel,23,,,1766KP,Wieringerwaard,Hollands Kroon,Noord-Holland,VBO,4.864544,52.841186
Molensingel,24,,,1766KP,Wieringerwaard,Hollands Kroon,Noord-Holland,VBO,4.864631,52.840848
Molensingel,25,,,1766KP,Wieringerwaard,Hollands Kroon,Noord-Holland,VBO,4.864743,52.841220
Molensingel,26,,,1766KP,Wieringerwaard,Hollands Kroon,Noord-Holland,VBO,4.864710,52.840854
Molensingel,27,,,1766KP,Wieringerwaard,Hollands Kroon,Noord-Holland,VBO,4.864836,52.841247
Molensingel,28,,,1766KP,Wieringerwaard,Hollands Kroon,Noord-Holland,VBO,4.864901,52.840881
Molensingel,29,,,1766KP,Wieringerwaard,Hollands Kroon,Noord-Holland,VBO,4.865042,52.841263
Molensingel,30,,,1766KP,Wieringerwaard,Hollands Kroon,Noord-Holland,VBO,4.864989,52.840888
Molensingel,31,,,1766KP,Wieringerwaard,Hollands Kroon,Noord-Holland,VBO,4.865127,52.841279
Molensingel,32,,,1766KP,Wieringerwaard,Hollands Kroon,Noord-Holland,VBO,4.865530,52.841003
Molensingel,33,,,1766KP,Wieringerwaard,Hollands Kroon,Noord-Holland,VBO,4.865645,52.841371
Molensingel,34,,,1766KP,Wieringerwaard,Hollands Kroon,Noord-Holland,VBO,4.865611,52.841034
Molensingel,35,,,1766KP,Wieringerwaard,Hollands Kroon,Noord-Holland,VBO,4.865732,52.841401
Molensingel,37,,,1766KP,Wieringerwaard,Hollands Kroon,Noord-Holland,VBO,4.866558,52.841667
Molensingel,39,,,1766KP,Wieringerwaard,Hollands Kroon,Noord-Holland,VBO,4.866618,52.841661
Molensingel,41,,,1766KP,Wieringerwaard,Hollands Kroon,Noord-Holland,VBO,4.866676,52.841655
Molensingel,43,,,1766KP,Wieringerwaard,Hollands Kroon,Noord-Holland,VBO,4.866524,52.841716
Molensingel,45,,,1766KP,Wieringerwaard,Hollands Kroon,Noord-Holland,VBO,4.866597,52.841707
Molensingel,47,,,1766KP,Wieringerwaard,Hollands Kroon,Noord-Holland,VBO,4.866663,52.841700
Molensingel,49,,,1766KP,Wieringerwaard,Hollands Kroon,Noord-Holland,VBO,4.866733,52.841692
Molensingel,51,,,1766KP,Wieringerwaard,Hollands Kroon,Noord-Holland,VBO,4.866531,52.841750
Molensingel,53,,,1766KP,Wieringerwaard,Hollands Kroon,Noord-Holland,VBO,4.866607,52.841741
Molensingel,55,,,1766KP,Wieringerwaard,Hollands Kroon,Noord-Holland,VBO,4.866666,52.841735
Molensingel,57,,,1766KP,Wieringerwaard,Hollands Kroon,Noord-Holland,VBO,4.866739,52.841727
Molensingel,59,,,1766KP,Wieringerwaard,Hollands Kroon,Noord-Holland,VBO,4.866537,52.841787
Molensingel,61,,,1766KP,Wieringerwaard,Hollands Kroon,Noord-Holland,VBO,4.866616,52.841780
Molensingel,63,,,1766KP,Wieringerwaard,Hollands Kroon,Noord-Holland,VBO,4.866676,52.841773
Molensingel,65,,,1766KP,Wieringerwaard,Hollands Kroon,Noord-Holland,VBO,4.866745,52.841765
Steenspil,1,,,1766KR,Wieringerwaard,Hollands Kroon,Noord-Holland,VBO,4.864257,52.840543
Steenspil,2,,,1766KR,Wieringerwaard,Hollands Kroon,Noord-Holland,VBO,4.863803,52.840435
Steenspil,3,,,1766KR,Wieringerwaard,Hollands Kroon,Noord-Holland,VBO,4.864237,52.840497
Steenspil,4,,,1766KR,Wieringerwaard,Hollands Kroon,Noord-Holland,VBO,4.863789,52.840383
Steenspil,5,,,1766KR,Wieringerwaard,Hollands Kroon,Noord-Holland,VBO,4.864217,52.840446
Steenspil,6,,,1766KR,Wieringerwaard,Hollands Kroon,Noord-Holland,VBO,4.863776,52.840335
Steenspil,7,,,1766KR,Wieringerwaard,Hollands Kroon,Noord-Holland,VBO,4.864200,52.840395
Steenspil,8,,,1766KR,Wieringerwaard,Hollands Kroon,Noord-Holland,VBO,4.863763,52.840287
Steenspil,9,,,1766KR,Wieringerwaard,Hollands Kroon,Noord-Holland,VBO,4.864188,52.840293
Steenspil,10,,,1766KR,Wieringerwaard,Hollands Kroon,Noord-Holland,VBO,4.863749,52.840232
Steenspil,11,,,1766KR,Wieringerwaard,Hollands Kroon,Noord-Holland,VBO,4.864174,52.840242
Steenspil,12,,,1766KR,Wieringerwaard,Hollands Kroon,Noord-Holland,VBO,4.863736,52.840185
Steenspil,13,,,1766KR,Wieringerwaard,Hollands Kroon,Noord-Holland,VBO,4.864156,52.840193
Steenspil,14,,,1766KR,Wieringerwaard,Hollands Kroon,Noord-Holland,VBO,4.863723,52.840137
Steenspil,15,,,1766KR,Wieringerwaard,Hollands Kroon,Noord-Holland,VBO,4.864141,52.840146
Steenspil,17,,,1766KR,Wieringerwaard,Hollands Kroon,Noord-Holland,VBO,4.864123,52.840096
Maalsteen,1,,,1766KS,Wieringerwaard,Hollands Kroon,Noord-Holland,VBO,4.863017,52.840422
Maalsteen,3,,,1766KS,Wieringerwaard,Hollands Kroon,Noord-Holland,VBO,4.863003,52.840368
Maalsteen,4,,,1766KS,Wieringerwaard,Hollands Kroon,Noord-Holland,VBO,4.862521,52.840218
Maalsteen,5,,,1766KS,Wieringerwaard,Hollands Kroon,Noord-Holland,VBO,4.862989,52.840314
Maalsteen,6,,,1766KS,Wieringerwaard,Hollands Kroon,Noord-Holland,VBO,4.865155,52.839945
Maalsteen,7,,,1766KS,Wieringerwaard,Hollands Kroon,Noord-Holland,VBO,4.862966,52.840261
Maalsteen,8,,,1766KS,Wieringerwaard,Hollands Kroon,Noord-Holland,VBO,4.865169,52.840001
Maalsteen,9,,,1766KS,Wieringerwaard,Hollands Kroon,Noord-Holland,VBO,4.862948,52.840207
Maalsteen,10,,,1766KS,Wieringerwaard,Hollands Kroon,Noord-Holland,VBO,4.865202,52.840127
Maalsteen,11,,,1766KS,Wieringerwaard,Hollands Kroon,Noord-Holland,VBO,4.864834,52.840033
Maalsteen,12,,,1766KS,Wieringerwaard,Hollands Kroon,Noord-Holland,VBO,4.865220,52.840187
Maalsteen,13,,,1766KS,Wieringerwaard,Hollands Kroon,Noord-Holland,VBO,4.864832,52.840093
Maalsteen,14,,,1766KS,Wieringerwaard,Hollands Kroon,Noord-Holland,VBO,4.865251,52.840320
Maalsteen,15,,,1766KS,Wieringerwaard,Hollands Kroon,Noord-Holland,VBO,4.864851,52.840136
Maalsteen,16,,,1766KS,Wieringerwaard,Hollands Kroon,Noord-Holland,VBO,4.865275,52.840397
Maalsteen,17,,,1766KS,Wieringerwaard,Hollands Kroon,Noord-Holland,VBO,4.864866,52.840187
Maalsteen,18,,,1766KS,Wieringerwaard,Hollands Kroon,Noord-Holland,VBO,4.865295,52.840492
Maalsteen,19,,,1766KS,Wieringerwaard,Hollands Kroon,Noord-Holland,VBO,4.864824,52.840239
Maalsteen,20,,,1766KS,Wieringerwaard,Hollands Kroon,Noord-Holland,VBO,4.865321,52.840560
Maalsteen,21,,,1766KS,Wieringerwaard,Hollands Kroon,Noord-Holland,VBO,4.864860,52.840324
Maalsteen,22,,,1766KS,Wieringerwaard,Hollands Kroon,Noord-Holland,VBO,4.865351,52.840696
Maalsteen,23,,,1766KS,Wieringerwaard,Hollands Kroon,Noord-Holland,VBO,4.864915,52.840386
Maalsteen,24,,,1766KS,Wieringerwaard,Hollands Kroon,Noord-Holland,VBO,4.865368,52.840752
Maalsteen,25,,,1766KS,Wieringerwaard,Hollands Kroon,Noord-Holland,VBO,4.864932,52.840435
Maalsteen,27,,,1766KS,Wieringerwaard,Hollands Kroon,Noord-Holland,VBO,4.864950,52.840483
Maalsteen,29,,,1766KS,Wieringerwaard,Hollands Kroon,Noord-Holland,VBO,4.864940,52.840532
Maalsteen,31,,,1766KS,Wieringerwaard,Hollands Kroon,Noord-Holland,VBO,4.864957,52.840584
Bovenwiel,2,,,1766KT,Wieringerwaard,Hollands Kroon,Noord-Holland,VBO,4.863307,52.841315
Bovenwiel,4,,,1766KT,Wieringerwaard,Hollands Kroon,Noord-Holland,VBO,4.863308,52.841366
Bovenwiel,6,,,1766KT,Wieringerwaard,Hollands Kroon,Noord-Holland,VBO,4.863333,52.841413
Bovenwiel,8,,,1766KT,Wieringerwaard,Hollands Kroon,Noord-Holland,VBO,4.863333,52.841462
Bovenwiel,10,,,1766KT,Wieringerwaard,Hollands Kroon,Noord-Holland,VBO,4.863345,52.841510
Bovenwiel,12,,,1766KT,Wieringerwaard,Hollands Kroon,Noord-Holland,VBO,4.863371,52.841556
Bovenwiel,14,,,1766KT,Wieringerwaard,Hollands Kroon,Noord-Holland,VBO,4.863384,52.841604
Bovenwiel,16,,,1766KT,Wieringerwaard,Hollands Kroon,Noord-Holland,VBO,4.863397,52.841654
Bovenwiel,18,,,1766KT,Wieringerwaard,Hollands Kroon,Noord-Holland,VBO,4.863425,52.841759
Bovenwiel,20,,,1766KT,Wieringerwaard,Hollands Kroon,Noord-Holland,VBO,4.863438,52.841809
Bovenwiel,22,,,1766KT,Wieringerwaard,Hollands Kroon,Noord-Holland,VBO,4.863451,52.841857
Bovenwiel,24,,,1766KT,Wieringerwaard,Hollands Kroon,Noord-Holland,VBO,4.863463,52.841905
Bovenwiel,26,,,1766KT,Wieringerwaard,Hollands Kroon,Noord-Holland,VBO,4.863463,52.841954
Bovenwiel,27,,,1766KT,Wieringerwaard,Hollands Kroon,Noord-Holland,VBO,4.865661,52.841858
Bovenwiel,28,a,,1766KT,Wieringerwaard,Hollands Kroon,Noord-Holland,VBO,4.863502,52.842051
Bovenwiel,28,,,1766KT,Wieringerwaard,Hollands Kroon,Noord-Holland,VBO,4.863494,52.842000
Bovenwiel,29,,,1766KT,Wieringerwaard,Hollands Kroon,Noord-Holland,VBO,4.865619,52.841682
Bovenwiel,30,,,1766KT,Wieringerwaard,Hollands Kroon,Noord-Holland,VBO,4.865309,52.841866
Bovenwiel,31,,,1766KT,Wieringerwaard,Hollands Kroon,Noord-Holland,VBO,4.865602,52.841633
Bovenwiel,32,,,1766KT,Wieringerwaard,Hollands Kroon,Noord-Holland,VBO,4.865296,52.841813
Bovenwiel,34,,,1766KT,Wieringerwaard,Hollands Kroon,Noord-Holland,VBO,4.865286,52.841769
Bovenwiel,36,,,1766KT,Wieringerwaard,Hollands Kroon,Noord-Holland,VBO,4.865273,52.841715
Bovenwiel,38,,,1766KT,Wieringerwaard,Hollands Kroon,Noord-Holland,VBO,4.865267,52.841666
Bovenwiel,40,,,1766KT,Wieringerwaard,Hollands Kroon,Noord-Holland,VBO,4.865250,52.841620
Bovenwiel,42,,,1766KT,Wieringerwaard,Hollands Kroon,Noord-Holland,VBO,4.865241,52.841579
Bovenwiel,44,,,1766KT,Wieringerwaard,Hollands Kroon,Noord-Holland,VBO,4.865230,52.841528
Koningsspil,1,,,1766KV,Wieringerwaard,Hollands Kroon,Noord-Holland,VBO,4.864062,52.841342
Koningsspil,2,,,1766KV,Wieringerwaard,Hollands Kroon,Noord-Holland,VBO,4.864495,52.841485
Koningsspil,3,,,1766KV,Wieringerwaard,Hollands Kroon,Noord-Holland,VBO,4.864074,52.841393
Koningsspil,4,,,1766KV,Wieringerwaard,Hollands Kroon,Noord-Holland,VBO,4.864506,52.841532
Koningsspil,5,,,1766KV,Wieringerwaard,Hollands Kroon,Noord-Holland,VBO,4.864087,52.841443
Koningsspil,6,,,1766KV,Wieringerwaard,Hollands Kroon,Noord-Holland,VBO,4.864518,52.841580
Koningsspil,7,,,1766KV,Wieringerwaard,Hollands Kroon,Noord-Holland,VBO,4.864098,52.841494
Koningsspil,8,,,1766KV,Wieringerwaard,Hollands Kroon,Noord-Holland,VBO,4.864528,52.841626
Koningsspil,9,,,1766KV,Wieringerwaard,Hollands Kroon,Noord-Holland,VBO,4.864109,52.841537
Koningsspil,10,,,1766KV,Wieringerwaard,Hollands Kroon,Noord-Holland,VBO,4.864555,52.841734
Koningsspil,11,,,1766KV,Wieringerwaard,Hollands Kroon,Noord-Holland,VBO,4.864121,52.841584
Koningsspil,12,,,1766KV,Wieringerwaard,Hollands Kroon,Noord-Holland,VBO,4.864566,52.841778
Koningsspil,13,,,1766KV,Wieringerwaard,Hollands Kroon,Noord-Holland,VBO,4.864146,52.841690
Koningsspil,14,,,1766KV,Wieringerwaard,Hollands Kroon,Noord-Holland,VBO,4.864579,52.841824
Koningsspil,15,,,1766KV,Wieringerwaard,Hollands Kroon,Noord-Holland,VBO,4.864160,52.841741
Koningsspil,16,,,1766KV,Wieringerwaard,Hollands Kroon,Noord-Holland,VBO,4.864592,52.841870
Koningsspil,17,,,1766KV,Wieringerwaard,Hollands Kroon,Noord-Holland,VBO,4.864166,52.841787
Koningsspil,18,,,1766KV,Wieringerwaard,Hollands Kroon,Noord-Holland,VBO,4.864609,52.841924
Koningsspil,19,,,1766KV,Wieringerwaard,Hollands Kroon,Noord-Holland,VBO,4.864186,52.841833
Koningsspil,21,,,1766KV,Wieringerwaard,Hollands Kroon,Noord-Holland,VBO,4.864199,52.841879
Koningsspil,23,,,1766KV,Wieringerwaard,Hollands Kroon,Noord-Holland,VBO,4.864213,52.841931
Koningsspil,25,,,1766KV,Wieringerwaard,Hollands Kroon,Noord-Holland,VBO,4.864226,52.841980
