openbareruimtenaam,huisnummer,huisletter,huisnummertoevoeging,postcode,woonplaatsnaam,gemeentenaam,provincienaam,typeadresseerbaarobject,longitude,latitude
Varkensgrasweg,1,,,1778JE,Westerland,Hollands Kroon,Noord-Holland,VBO,4.949694,52.892492
Varkensgrasweg,3,,,1778JE,Westerland,Hollands Kroon,Noord-Holland,VBO,4.950748,52.891975
Varkensgrasweg,7,,,1778JE,Westerland,Hollands Kroon,Noord-Holland,VBO,4.951377,52.893249
Varkensgrasweg,9,,,1778JE,Westerland,Hollands Kroon,Noord-Holland,VBO,4.952140,52.893488
Varkensgrasdwarsweg,1,,,1778JG,Westerland,Hollands Kroon,Noord-Holland,VBO,4.949393,52.891046
Varkensgrasdwarsweg,3,,,1778JG,Westerland,Hollands Kroon,Noord-Holland,VBO,4.949478,52.891060
Hoelmerdijk,2,,,1778JJ,Westerland,Hollands Kroon,Noord-Holland,VBO,4.939858,52.890077
Hoelmerdijk,4,,,1778JJ,Westerland,Hollands Kroon,Noord-Holland,VBO,4.948438,52.890446
Hoelmerdijk,8,a,,1778JJ,Westerland,Hollands Kroon,Noord-Holland,VBO,4.948922,52.890837
Hoelmerdijk,8,,,1778JJ,Westerland,Hollands Kroon,Noord-Holland,VBO,4.948518,52.890715
Hoelmerdijk,10,,,1778JJ,Westerland,Hollands Kroon,Noord-Holland,VBO,4.948780,52.890642
Hollebalgweg,1,,,1778JK,Westerland,Hollands Kroon,Noord-Holland,VBO,4.939905,52.897314
Hollebalgweg,2,a,,1778JK,Westerland,Hollands Kroon,Noord-Holland,VBO,4.939873,52.897457
Hollebalgweg,2,,,1778JK,Westerland,Hollands Kroon,Noord-Holland,VBO,4.940541,52.897389
Hollebalgweg,3,,,1778JK,Westerland,Hollands Kroon,Noord-Holland,VBO,4.940475,52.897141
Hollebalgweg,4,a,,1778JK,Westerland,Hollands Kroon,Noord-Holland,VBO,4.941219,52.897532
Hollebalgweg,4,b,,1778JK,Westerland,Hollands Kroon,Noord-Holland,VBO,4.941181,52.897783
Hollebalgweg,4,,,1778JK,Westerland,Hollands Kroon,Noord-Holland,VBO,4.940676,52.897748
Hollebalgweg,8,,,1778JK,Westerland,Hollands Kroon,Noord-Holland,VBO,4.944310,52.897367
Hollebalgweg,9,,,1778JK,Westerland,Hollands Kroon,Noord-Holland,VBO,4.940910,52.897219
Hollebalgweg,11,,,1778JK,Westerland,Hollands Kroon,Noord-Holland,VBO,4.941202,52.897220
Hollebalgweg,13,,,1778JK,Westerland,Hollands Kroon,Noord-Holland,VBO,4.941374,52.897215
Hollebalgweg,14,,,1778JK,Westerland,Hollands Kroon,Noord-Holland,VBO,4.950126,52.896916
Hollebalgweg,16,,,1778JK,Westerland,Hollands Kroon,Noord-Holland,VBO,4.950327,52.896816
Hollebalgweg,17,,,1778JK,Westerland,Hollands Kroon,Noord-Holland,VBO,4.941881,52.897174
Hollebalgweg,18,,,1778JK,Westerland,Hollands Kroon,Noord-Holland,VBO,4.950530,52.896736
Hoelmerkruisweg,2,,,1778JL,Westerland,Hollands Kroon,Noord-Holland,VBO,4.947918,52.892798
Koningsweg,1,a,,1778JM,Westerland,Hollands Kroon,Noord-Holland,VBO,4.933564,52.894952
Koningsweg,1,,,1778JM,Westerland,Hollands Kroon,Noord-Holland,VBO,4.933405,52.895028
Koningsweg,2,,,1778JM,Westerland,Hollands Kroon,Noord-Holland,VBO,4.933044,52.895192
Koningsweg,6,,,1778JM,Westerland,Hollands Kroon,Noord-Holland,VBO,4.933165,52.895233
Koningsweg,7,,,1778JM,Westerland,Hollands Kroon,Noord-Holland,VBO,4.933806,52.895217
Koningsweg,8,,,1778JM,Westerland,Hollands Kroon,Noord-Holland,VBO,4.933333,52.895289
Koningsweg,9,a,,1778JM,Westerland,Hollands Kroon,Noord-Holland,VBO,4.934138,52.895348
Koningsweg,9,,,1778JM,Westerland,Hollands Kroon,Noord-Holland,VBO,4.933982,52.895317
Koningsweg,10,,,1778JM,Westerland,Hollands Kroon,Noord-Holland,VBO,4.933417,52.895318
Koningsweg,11,,,1778JM,Westerland,Hollands Kroon,Noord-Holland,VBO,4.934267,52.895421
Koningsweg,12,,,1778JM,Westerland,Hollands Kroon,Noord-Holland,VBO,4.933641,52.895402
Koningsweg,14,,,1778JM,Westerland,Hollands Kroon,Noord-Holland,VBO,4.933905,52.895459
Koningsweg,16,,,1778JM,Westerland,Hollands Kroon,Noord-Holland,VBO,4.933966,52.895484
Koningsweg,18,,,1778JM,Westerland,Hollands Kroon,Noord-Holland,VBO,4.934110,52.895543
Koningsweg,20,,,1778JM,Westerland,Hollands Kroon,Noord-Holland,VBO,4.934282,52.895683
Koningsweg,24,,,1778JM,Westerland,Hollands Kroon,Noord-Holland,VBO,4.934520,52.895715
Koningsweg,26,a,,1778JM,Westerland,Hollands Kroon,Noord-Holland,VBO,4.934530,52.895984
Koningsweg,26,,,1778JM,Westerland,Hollands Kroon,Noord-Holland,VBO,4.934667,52.895773
Koningsweg,21,,,1778JN,Westerland,Hollands Kroon,Noord-Holland,VBO,4.935638,52.895984
Koningsweg,23,,,1778JN,Westerland,Hollands Kroon,Noord-Holland,VBO,4.935697,52.896005
Koningsweg,30,,,1778JN,Westerland,Hollands Kroon,Noord-Holland,VBO,4.934863,52.895878
Koningsweg,31,,,1778JN,Westerland,Hollands Kroon,Noord-Holland,VBO,4.936684,52.896288
Koningsweg,32,,,1778JN,Westerland,Hollands Kroon,Noord-Holland,VBO,4.934982,52.895927
Koningsweg,34,,,1778JN,Westerland,Hollands Kroon,Noord-Holland,VBO,4.935140,52.895992
Koningsweg,36,,,1778JN,Westerland,Hollands Kroon,Noord-Holland,VBO,4.935284,52.896024
Koningsweg,38,,,1778JN,Westerland,Hollands Kroon,Noord-Holland,VBO,4.935426,52.896106
Koningsweg,40,,,1778JN,Westerland,Hollands Kroon,Noord-Holland,VBO,4.935564,52.896171
Koningsweg,41,,,1778JN,Westerland,Hollands Kroon,Noord-Holland,VBO,4.939660,52.897560
Koningsweg,42,,,1778JN,Westerland,Hollands Kroon,Noord-Holland,VBO,4.935778,52.896230
Koningsweg,44,,,1778JN,Westerland,Hollands Kroon,Noord-Holland,VBO,4.935930,52.896273
Koningsweg,45,,,1778JN,Westerland,Hollands Kroon,Noord-Holland,VBO,4.939517,52.897644
Koningsweg,46,,,1778JN,Westerland,Hollands Kroon,Noord-Holland,VBO,4.936028,52.896350
Koningsweg,47,,,1778JN,Westerland,Hollands Kroon,Noord-Holland,VBO,4.939569,52.897672
Koningsweg,48,,,1778JN,Westerland,Hollands Kroon,Noord-Holland,VBO,4.936120,52.896484
Koningsweg,49,,,1778JN,Westerland,Hollands Kroon,Noord-Holland,VBO,4.939710,52.897722
Koningsweg,50,a,,1778JN,Westerland,Hollands Kroon,Noord-Holland,VBO,4.936439,52.896723
Koningsweg,50,,,1778JN,Westerland,Hollands Kroon,Noord-Holland,VBO,4.936389,52.896508
Koningsweg,51,,,1778JN,Westerland,Hollands Kroon,Noord-Holland,VBO,4.939941,52.897786
Koningsweg,53,,,1778JN,Westerland,Hollands Kroon,Noord-Holland,VBO,4.940087,52.897846
Koningsweg,55,,,1778JN,Westerland,Hollands Kroon,Noord-Holland,VBO,4.940203,52.897916
Koningsweg,62,,,1778JN,Westerland,Hollands Kroon,Noord-Holland,VBO,4.938885,52.897545
Koningsweg,64,,,1778JN,Westerland,Hollands Kroon,Noord-Holland,VBO,4.939062,52.897652
De Dolven,1,,,1778JP,Westerland,Hollands Kroon,Noord-Holland,VBO,4.933844,52.893892
De Dolven,3,,,1778JP,Westerland,Hollands Kroon,Noord-Holland,VBO,4.933745,52.893811
De Dolven,5,,,1778JP,Westerland,Hollands Kroon,Noord-Holland,VBO,4.933674,52.893783
De Dolven,7,,,1778JP,Westerland,Hollands Kroon,Noord-Holland,VBO,4.933550,52.893750
De Dolven,9,,,1778JP,Westerland,Hollands Kroon,Noord-Holland,VBO,4.933465,52.893739
De Dolven,11,,,1778JP,Westerland,Hollands Kroon,Noord-Holland,VBO,4.933322,52.893717
De Dolven,13,,,1778JP,Westerland,Hollands Kroon,Noord-Holland,VBO,4.933237,52.893706
De Dolven,15,a,,1778JP,Westerland,Hollands Kroon,Noord-Holland,VBO,4.933033,52.893546
De Dolven,15,,,1778JP,Westerland,Hollands Kroon,Noord-Holland,VBO,4.933016,52.893588
De Dolven,17,,,1778JP,Westerland,Hollands Kroon,Noord-Holland,VBO,4.933198,52.893405
De Dolven,19,,,1778JP,Westerland,Hollands Kroon,Noord-Holland,VBO,4.933220,52.893349
De Dolven,21,a,,1778JP,Westerland,Hollands Kroon,Noord-Holland,VBO,4.933253,52.893137
De Dolven,21,b,,1778JP,Westerland,Hollands Kroon,Noord-Holland,VBO,4.933207,52.893132
De Dolven,21,c,,1778JP,Westerland,Hollands Kroon,Noord-Holland,VBO,4.933162,52.893126
De Dolven,21,d,,1778JP,Westerland,Hollands Kroon,Noord-Holland,VBO,4.933100,52.893116
De Dolven,21,e,,1778JP,Westerland,Hollands Kroon,Noord-Holland,VBO,4.933043,52.893133
De Dolven,21,f,,1778JP,Westerland,Hollands Kroon,Noord-Holland,VBO,4.933007,52.893162
De Dolven,21,,,1778JP,Westerland,Hollands Kroon,Noord-Holland,VBO,4.932957,52.893212
De Dolven,23,,,1778JP,Westerland,Hollands Kroon,Noord-Holland,VBO,4.932908,52.893253
De Dolven,25,,,1778JP,Westerland,Hollands Kroon,Noord-Holland,VBO,4.932839,52.893282
De Dolven,27,,,1778JP,Westerland,Hollands Kroon,Noord-Holland,VBO,4.932783,52.893329
De Dolven,29,,,1778JP,Westerland,Hollands Kroon,Noord-Holland,VBO,4.932728,52.893373
De Dolven,31,,,1778JP,Westerland,Hollands Kroon,Noord-Holland,VBO,4.932677,52.893415
De Dolven,33,,,1778JP,Westerland,Hollands Kroon,Noord-Holland,VBO,4.932696,52.893532
De Dolven,35,,,1778JP,Westerland,Hollands Kroon,Noord-Holland,VBO,4.932637,52.893573
De Dolven,37,,,1778JP,Westerland,Hollands Kroon,Noord-Holland,VBO,4.932592,52.893618
De Dolven,39,,,1778JP,Westerland,Hollands Kroon,Noord-Holland,VBO,4.932542,52.893662
De Dolven,41,,,1778JP,Westerland,Hollands Kroon,Noord-Holland,VBO,4.932494,52.893706
De Dolven,43,,,1778JP,Westerland,Hollands Kroon,Noord-Holland,VBO,4.932446,52.893746
De Dolven,2,,,1778JR,Westerland,Hollands Kroon,Noord-Holland,VBO,4.933567,52.893978
De Dolven,4,,,1778JR,Westerland,Hollands Kroon,Noord-Holland,VBO,4.933482,52.893951
De Dolven,6,,,1778JR,Westerland,Hollands Kroon,Noord-Holland,VBO,4.933384,52.893954
De Dolven,8,,,1778JR,Westerland,Hollands Kroon,Noord-Holland,VBO,4.933304,52.893933
De Dolven,10,,,1778JR,Westerland,Hollands Kroon,Noord-Holland,VBO,4.933230,52.893910
De Dolven,12,,,1778JR,Westerland,Hollands Kroon,Noord-Holland,VBO,4.933133,52.893883
De Dolven,14,,,1778JR,Westerland,Hollands Kroon,Noord-Holland,VBO,4.932882,52.893784
De Dolven,16,,,1778JR,Westerland,Hollands Kroon,Noord-Holland,VBO,4.932823,52.893851
De Dolven,18,,,1778JR,Westerland,Hollands Kroon,Noord-Holland,VBO,4.932823,52.893851
De Dolven,20,,,1778JR,Westerland,Hollands Kroon,Noord-Holland,VBO,4.932715,52.893918
De Dolven,22,,,1778JR,Westerland,Hollands Kroon,Noord-Holland,VBO,4.932706,52.893991
De Dolven,24,,,1778JR,Westerland,Hollands Kroon,Noord-Holland,VBO,4.932676,52.894042
De Dolven,26,,,1778JR,Westerland,Hollands Kroon,Noord-Holland,VBO,4.932635,52.894091
De Dolven,28,,,1778JR,Westerland,Hollands Kroon,Noord-Holland,VBO,4.932598,52.894142
De Dolven,30,,,1778JR,Westerland,Hollands Kroon,Noord-Holland,VBO,4.932567,52.894253
Normerpolderweg,2,,,1778JS,Westerland,Hollands Kroon,Noord-Holland,VBO,4.928884,52.897327
Singelweg,1,,,1778JT,Westerland,Hollands Kroon,Noord-Holland,VBO,4.931728,52.901096
Poelweg,1,,,1778KA,Westerland,Hollands Kroon,Noord-Holland,VBO,4.933402,52.894850
Poelweg,3,,,1778KA,Westerland,Hollands Kroon,Noord-Holland,VBO,4.933584,52.894778
Poelweg,5,,,1778KA,Westerland,Hollands Kroon,Noord-Holland,VBO,4.933770,52.894571
Poelweg,9,,,1778KA,Westerland,Hollands Kroon,Noord-Holland,VBO,4.935232,52.892840
Poelweg,13,,,1778KA,Westerland,Hollands Kroon,Noord-Holland,VBO,4.935262,52.892760
Poelweg,17,,,1778KA,Westerland,Hollands Kroon,Noord-Holland,VBO,4.935301,52.892692
Poelweg,19,,,1778KA,Westerland,Hollands Kroon,Noord-Holland,VBO,4.935356,52.892591
Poelweg,21,,,1778KA,Westerland,Hollands Kroon,Noord-Holland,VBO,4.935618,52.892259
Poelweg,23,a,,1778KA,Westerland,Hollands Kroon,Noord-Holland,VBO,4.935786,52.892033
Poelweg,23,,,1778KA,Westerland,Hollands Kroon,Noord-Holland,VBO,4.935698,52.892144
Lage Pad,1,,,1778KB,Westerland,Hollands Kroon,Noord-Holland,VBO,4.933135,52.891553
Lage Pad,3,a,,1778KB,Westerland,Hollands Kroon,Noord-Holland,VBO,4.933660,52.892269
Lage Pad,3,b,,1778KB,Westerland,Hollands Kroon,Noord-Holland,VBO,4.933850,52.892313
Lage Pad,3,c,,1778KB,Westerland,Hollands Kroon,Noord-Holland,VBO,4.934001,52.892332
Lage Pad,3,d,,1778KB,Westerland,Hollands Kroon,Noord-Holland,VBO,4.934319,52.892372
Lage Pad,3,e,,1778KB,Westerland,Hollands Kroon,Noord-Holland,VBO,4.934592,52.892405
Poelweg,2,,,1778KB,Westerland,Hollands Kroon,Noord-Holland,VBO,4.933075,52.894865
Poelweg,4,,,1778KB,Westerland,Hollands Kroon,Noord-Holland,VBO,4.933335,52.894654
Poelweg,6,,,1778KB,Westerland,Hollands Kroon,Noord-Holland,VBO,4.933404,52.894475
Poelweg,8,,,1778KB,Westerland,Hollands Kroon,Noord-Holland,VBO,4.933691,52.894261
Poelweg,12,,,1778KB,Westerland,Hollands Kroon,Noord-Holland,VBO,4.934619,52.893214
Poelweg,14,,,1778KB,Westerland,Hollands Kroon,Noord-Holland,VBO,4.934657,52.893164
Poelweg,16,,,1778KB,Westerland,Hollands Kroon,Noord-Holland,VBO,4.933842,52.893008
Poelweg,18,,,1778KB,Westerland,Hollands Kroon,Noord-Holland,VBO,4.933654,52.892983
Poelweg,20,,,1778KB,Westerland,Hollands Kroon,Noord-Holland,VBO,4.934111,52.892427
Poelweg,22,,,1778KB,Westerland,Hollands Kroon,Noord-Holland,VBO,4.934040,52.892420
Poelweg,24,a,,1778KB,Westerland,Hollands Kroon,Noord-Holland,VBO,4.933034,52.892244
Poelweg,24,b,,1778KB,Westerland,Hollands Kroon,Noord-Holland,VBO,4.932611,52.892199
Poelweg,24,c,,1778KB,Westerland,Hollands Kroon,Noord-Holland,VBO,4.932892,52.891964
Poelweg,24,,,1778KB,Westerland,Hollands Kroon,Noord-Holland,VBO,4.935195,52.892431
Poelweg,26,,,1778KB,Westerland,Hollands Kroon,Noord-Holland,VBO,4.935259,52.892367
Poelweg,28,,,1778KB,Westerland,Hollands Kroon,Noord-Holland,VBO,4.935298,52.892304
Poelweg,30,a,,1778KB,Westerland,Hollands Kroon,Noord-Holland,VBO,4.935360,52.892148
Poelweg,30,,,1778KB,Westerland,Hollands Kroon,Noord-Holland,VBO,4.935334,52.892240
Poelweg,32,,,1778KB,Westerland,Hollands Kroon,Noord-Holland,VBO,4.935315,52.892064
Poelweg,34,,,1778KB,Westerland,Hollands Kroon,Noord-Holland,VBO,4.935408,52.892009
Poelweg,36,,,1778KB,Westerland,Hollands Kroon,Noord-Holland,VBO,4.935491,52.891787
Poelweg,38,,,1778KB,Westerland,Hollands Kroon,Noord-Holland,VBO,4.935509,52.891679
Poelweg,33,,,1778KC,Westerland,Hollands Kroon,Noord-Holland,VBO,4.937730,52.890065
Poelweg,42,,,1778KC,Westerland,Hollands Kroon,Noord-Holland,VBO,4.936500,52.890495
Poelweg,46,,,1778KC,Westerland,Hollands Kroon,Noord-Holland,VBO,4.936695,52.890364
Poelweg,48,,,1778KC,Westerland,Hollands Kroon,Noord-Holland,VBO,4.936742,52.890323
Poelweg,50,a,,1778KC,Westerland,Hollands Kroon,Noord-Holland,VBO,4.936911,52.890174
Poelweg,50,,,1778KC,Westerland,Hollands Kroon,Noord-Holland,VBO,4.936810,52.890264
Poelweg,52,,,1778KC,Westerland,Hollands Kroon,Noord-Holland,VBO,4.937043,52.890056
Poelweg,56,a,,1778KC,Westerland,Hollands Kroon,Noord-Holland,VBO,4.937192,52.889823
Poelweg,56,,,1778KC,Westerland,Hollands Kroon,Noord-Holland,VBO,4.937224,52.889887
Poelweg,58,,,1778KC,Westerland,Hollands Kroon,Noord-Holland,VBO,4.937404,52.889633
De Haukes,2,,,1778KD,Westerland,Hollands Kroon,Noord-Holland,VBO,4.930311,52.885443
De Haukes,4,,,1778KD,Westerland,Hollands Kroon,Noord-Holland,VBO,4.930774,52.885904
De Haukes,6,,,1778KD,Westerland,Hollands Kroon,Noord-Holland,VBO,4.932012,52.886471
De Haukes,8,,,1778KD,Westerland,Hollands Kroon,Noord-Holland,VBO,4.932554,52.886708
De Haukes,10,,,1778KD,Westerland,Hollands Kroon,Noord-Holland,VBO,4.932050,52.887020
De Haukes,12,,,1778KD,Westerland,Hollands Kroon,Noord-Holland,VBO,4.932378,52.886917
De Haukes,14,,,1778KD,Westerland,Hollands Kroon,Noord-Holland,VBO,4.932702,52.886812
De Haukes,16,,,1778KD,Westerland,Hollands Kroon,Noord-Holland,VBO,4.932809,52.886855
De Haukes,20,,,1778KD,Westerland,Hollands Kroon,Noord-Holland,VBO,4.933116,52.886977
De Haukes,24,,,1778KD,Westerland,Hollands Kroon,Noord-Holland,VBO,4.933360,52.887040
De Haukes,30,,,1778KD,Westerland,Hollands Kroon,Noord-Holland,VBO,4.933466,52.887362
De Haukes,34,,,1778KD,Westerland,Hollands Kroon,Noord-Holland,VBO,4.933551,52.887576
De Haukes,36,,,1778KD,Westerland,Hollands Kroon,Noord-Holland,VBO,4.933306,52.887877
De Haukes,38,a,,1778KD,Westerland,Hollands Kroon,Noord-Holland,VBO,4.933414,52.887943
De Haukes,38,,,1778KD,Westerland,Hollands Kroon,Noord-Holland,VBO,4.933663,52.887914
De Haukes,40,,,1778KD,Westerland,Hollands Kroon,Noord-Holland,VBO,4.933120,52.888652
De Haukes,42,,,1778KD,Westerland,Hollands Kroon,Noord-Holland,VBO,4.933584,52.888130
De Haukes,48,,,1778KD,Westerland,Hollands Kroon,Noord-Holland,VBO,4.933851,52.888496
De Haukes,50,,,1778KD,Westerland,Hollands Kroon,Noord-Holland,VBO,4.934058,52.888594
De Haukes,52,,,1778KD,Westerland,Hollands Kroon,Noord-Holland,VBO,4.934177,52.888605
De Haukes,54,,,1778KD,Westerland,Hollands Kroon,Noord-Holland,VBO,4.934252,52.888630
De Haukes,56,,,1778KD,Westerland,Hollands Kroon,Noord-Holland,VBO,4.934395,52.888670
De Haukes,58,,,1778KD,Westerland,Hollands Kroon,Noord-Holland,VBO,4.934459,52.888695
De Haukes,60,,,1778KD,Westerland,Hollands Kroon,Noord-Holland,VBO,4.934521,52.888748
De Haukes,64,,,1778KD,Westerland,Hollands Kroon,Noord-Holland,VBO,4.934634,52.888775
De Haukes,66,,,1778KD,Westerland,Hollands Kroon,Noord-Holland,VBO,4.934495,52.888998
De Haukes,68,,,1778KD,Westerland,Hollands Kroon,Noord-Holland,VBO,4.933616,52.889885
De Haukes,70,,,1778KD,Westerland,Hollands Kroon,Noord-Holland,VBO,4.934798,52.888850
De Haukes,74,,,1778KD,Westerland,Hollands Kroon,Noord-Holland,VBO,4.934913,52.888902
De Haukes,76,,,1778KD,Westerland,Hollands Kroon,Noord-Holland,VBO,4.935068,52.888946
De Haukes,78,,,1778KD,Westerland,Hollands Kroon,Noord-Holland,VBO,4.935196,52.888973
De Haukes,80,a,,1778KD,Westerland,Hollands Kroon,Noord-Holland,VBO,4.935360,52.889009
De Haukes,80,,,1778KD,Westerland,Hollands Kroon,Noord-Holland,VBO,4.935256,52.888986
De Haukes,82,a,,1778KD,Westerland,Hollands Kroon,Noord-Holland,VBO,4.935657,52.889196
De Haukes,82,,,1778KD,Westerland,Hollands Kroon,Noord-Holland,VBO,4.935545,52.889048
De Haukes,84,,,1778KD,Westerland,Hollands Kroon,Noord-Holland,VBO,4.936248,52.889182
De Haukes,86,a,,1778KD,Westerland,Hollands Kroon,Noord-Holland,VBO,4.936370,52.889231
De Haukes,86,,,1778KD,Westerland,Hollands Kroon,Noord-Holland,VBO,4.936314,52.889208
De Haukes,88,,,1778KD,Westerland,Hollands Kroon,Noord-Holland,VBO,4.936117,52.889370
De Haukes,96,,,1778KD,Westerland,Hollands Kroon,Noord-Holland,VBO,4.936583,52.889278
De Haukes,98,a,,1778KD,Westerland,Hollands Kroon,Noord-Holland,VBO,4.936884,52.889370
De Haukes,98,,,1778KD,Westerland,Hollands Kroon,Noord-Holland,VBO,4.936745,52.889315
De Haukes,100,,,1778KD,Westerland,Hollands Kroon,Noord-Holland,VBO,4.937031,52.889406
De Haukes,102,,,1778KD,Westerland,Hollands Kroon,Noord-Holland,VBO,4.937114,52.889433
De Haukes,104,,,1778KD,Westerland,Hollands Kroon,Noord-Holland,VBO,4.937205,52.889461
De Haukes,106,,,1778KD,Westerland,Hollands Kroon,Noord-Holland,VBO,4.937270,52.889482
Waterweg,1,,,1778KG,Westerland,Hollands Kroon,Noord-Holland,VBO,4.930685,52.889531
Waterweg,2,,,1778KG,Westerland,Hollands Kroon,Noord-Holland,VBO,4.930464,52.889354
Waterweg,3,,,1778KG,Westerland,Hollands Kroon,Noord-Holland,VBO,4.931127,52.889255
Waterweg,4,a,,1778KG,Westerland,Hollands Kroon,Noord-Holland,VBO,4.930909,52.888908
Waterweg,4,,,1778KG,Westerland,Hollands Kroon,Noord-Holland,VBO,4.930630,52.889190
Waterweg,5,,,1778KG,Westerland,Hollands Kroon,Noord-Holland,VBO,4.931556,52.889111
Waterweg,7,,,1778KG,Westerland,Hollands Kroon,Noord-Holland,VBO,4.931962,52.888510
Waterweg,9,,,1778KG,Westerland,Hollands Kroon,Noord-Holland,VBO,4.932111,52.888346
Waterweg,13,,,1778KG,Westerland,Hollands Kroon,Noord-Holland,VBO,4.932218,52.888256
Waterweg,15,,,1778KG,Westerland,Hollands Kroon,Noord-Holland,VBO,4.932308,52.888185
Waterweg,17,,,1778KG,Westerland,Hollands Kroon,Noord-Holland,VBO,4.932526,52.888030
Waterweg,19,,,1778KG,Westerland,Hollands Kroon,Noord-Holland,VBO,4.932979,52.887858
Oosterdamsterweg,1,a,,1778KH,Westerland,Hollands Kroon,Noord-Holland,VBO,4.928608,52.889061
Oosterdamsterweg,1,,,1778KH,Westerland,Hollands Kroon,Noord-Holland,VBO,4.928849,52.889214
Oosterdamsterweg,8,,,1778KH,Westerland,Hollands Kroon,Noord-Holland,VBO,4.929569,52.889503
Damsterpad,1,,,1778KJ,Westerland,Hollands Kroon,Noord-Holland,VBO,4.928993,52.892740
Damsterpad,3,,,1778KJ,Westerland,Hollands Kroon,Noord-Holland,VBO,4.929296,52.892522
Damsterpad,5,,,1778KJ,Westerland,Hollands Kroon,Noord-Holland,VBO,4.929626,52.892408
Damsterpad,6,,,1778KJ,Westerland,Hollands Kroon,Noord-Holland,VBO,4.929755,52.891565
Damsterpad,7,,,1778KJ,Westerland,Hollands Kroon,Noord-Holland,VBO,4.930155,52.891725
Damsterpad,8,,,1778KJ,Westerland,Hollands Kroon,Noord-Holland,VBO,4.930595,52.890592
Lutjeweg,1,,,1778KK,Westerland,Hollands Kroon,Noord-Holland,VBO,4.915009,52.887504
Westerlanderweg,3,,,1778KK,Westerland,Hollands Kroon,Noord-Holland,VBO,4.911425,52.889974
Westerlanderweg,10,,,1778KK,Westerland,Hollands Kroon,Noord-Holland,VBO,4.916542,52.889902
Westerlanderweg,11,,,1778KK,Westerland,Hollands Kroon,Noord-Holland,VBO,4.915074,52.889407
Westerlanderweg,16,,,1778KK,Westerland,Hollands Kroon,Noord-Holland,VBO,4.917451,52.889723
Westerlanderweg,17,,,1778KK,Westerland,Hollands Kroon,Noord-Holland,VBO,4.916954,52.889319
Westerlanderweg,18,,,1778KK,Westerland,Hollands Kroon,Noord-Holland,VBO,4.917818,52.889627
Westerlanderweg,20,,,1778KK,Westerland,Hollands Kroon,Noord-Holland,VBO,4.917861,52.889937
Westerlanderweg,24,,,1778KK,Westerland,Hollands Kroon,Noord-Holland,VBO,4.918296,52.889589
Westerlanderweg,25,a,,1778KK,Westerland,Hollands Kroon,Noord-Holland,VBO,4.918999,52.889393
Westerlanderweg,25,,,1778KK,Westerland,Hollands Kroon,Noord-Holland,VBO,4.918498,52.889322
Westerlanderweg,26,,,1778KK,Westerland,Hollands Kroon,Noord-Holland,VBO,4.918911,52.889877
Westerlanderweg,27,,,1778KK,Westerland,Hollands Kroon,Noord-Holland,VBO,4.919380,52.889367
Westerlanderweg,29,,,1778KK,Westerland,Hollands Kroon,Noord-Holland,VBO,4.919682,52.889410
Westerlanderweg,30,,,1778KK,Westerland,Hollands Kroon,Noord-Holland,VBO,4.919955,52.889683
Westerlanderweg,31,,,1778KK,Westerland,Hollands Kroon,Noord-Holland,VBO,4.919948,52.889443
Noorderkerkweg,1,,,1778KL,Westerland,Hollands Kroon,Noord-Holland,VBO,4.922371,52.891240
Westerlanderweg,32,,,1778KL,Westerland,Hollands Kroon,Noord-Holland,VBO,4.920213,52.889709
Westerlanderweg,34,,,1778KL,Westerland,Hollands Kroon,Noord-Holland,VBO,4.920981,52.889804
Westerlanderweg,35,,,1778KL,Westerland,Hollands Kroon,Noord-Holland,VBO,4.920473,52.889525
Westerlanderweg,36,,,1778KL,Westerland,Hollands Kroon,Noord-Holland,VBO,4.921756,52.889835
Westerlanderweg,39,,,1778KL,Westerland,Hollands Kroon,Noord-Holland,VBO,4.921235,52.889582
Westerlanderweg,40,,,1778KL,Westerland,Hollands Kroon,Noord-Holland,VBO,4.922053,52.889905
Westerlanderweg,42,,,1778KL,Westerland,Hollands Kroon,Noord-Holland,VBO,4.922348,52.889949
Westerlanderweg,43,,,1778KL,Westerland,Hollands Kroon,Noord-Holland,VBO,4.921569,52.889673
Westerlanderweg,44,,,1778KL,Westerland,Hollands Kroon,Noord-Holland,VBO,4.922556,52.889986
Westerlanderweg,45,,,1778KL,Westerland,Hollands Kroon,Noord-Holland,VBO,4.921788,52.889583
Westerlanderweg,47,,,1778KL,Westerland,Hollands Kroon,Noord-Holland,VBO,4.921896,52.889552
Westerlanderweg,48,,,1778KL,Westerland,Hollands Kroon,Noord-Holland,VBO,4.922799,52.889982
Westerlanderweg,49,,,1778KL,Westerland,Hollands Kroon,Noord-Holland,VBO,4.921992,52.889601
Westerlanderweg,50,,,1778KL,Westerland,Hollands Kroon,Noord-Holland,VBO,4.922901,52.889991
Westerlanderweg,51,,,1778KL,Westerland,Hollands Kroon,Noord-Holland,VBO,4.922179,52.889568
Westerlanderweg,52,a,,1778KL,Westerland,Hollands Kroon,Noord-Holland,VBO,4.923027,52.890192
Westerlanderweg,52,b,,1778KL,Westerland,Hollands Kroon,Noord-Holland,VBO,4.922997,52.890394
Westerlanderweg,52,,,1778KL,Westerland,Hollands Kroon,Noord-Holland,VBO,4.923051,52.890025
Westerlanderweg,53,a,,1778KL,Westerland,Hollands Kroon,Noord-Holland,VBO,4.922520,52.889592
Westerlanderweg,53,,,1778KL,Westerland,Hollands Kroon,Noord-Holland,VBO,4.922383,52.889581
Westerlanderweg,55,,,1778KL,Westerland,Hollands Kroon,Noord-Holland,VBO,4.922786,52.889714
Westerlanderweg,58,,,1778KM,Westerland,Hollands Kroon,Noord-Holland,VBO,4.923329,52.889958
Westerlanderweg,59,,,1778KM,Westerland,Hollands Kroon,Noord-Holland,VBO,4.923393,52.889763
Westerlanderweg,60,,,1778KM,Westerland,Hollands Kroon,Noord-Holland,VBO,4.923516,52.889954
Westerlanderweg,61,,,1778KM,Westerland,Hollands Kroon,Noord-Holland,VBO,4.923767,52.889686
Westerlanderweg,62,,,1778KM,Westerland,Hollands Kroon,Noord-Holland,VBO,4.923605,52.890166
Westerlanderweg,63,,,1778KM,Westerland,Hollands Kroon,Noord-Holland,VBO,4.924165,52.889630
Westerlanderweg,66,,,1778KM,Westerland,Hollands Kroon,Noord-Holland,VBO,4.923890,52.890165
Westerlanderweg,68,,,1778KM,Westerland,Hollands Kroon,Noord-Holland,VBO,4.924529,52.890243
Westerlanderweg,70,,,1778KM,Westerland,Hollands Kroon,Noord-Holland,VBO,4.924838,52.890271
Westerlanderweg,72,,,1778KM,Westerland,Hollands Kroon,Noord-Holland,VBO,4.925036,52.890333
Westerlanderweg,75,,,1778KM,Westerland,Hollands Kroon,Noord-Holland,VBO,4.926754,52.891142
Westerlanderweg,76,,,1778KM,Westerland,Hollands Kroon,Noord-Holland,VBO,4.925305,52.890368
Westerlanderweg,82,,,1778KM,Westerland,Hollands Kroon,Noord-Holland,VBO,4.925705,52.890818
Westerlanderweg,84,,,1778KM,Westerland,Hollands Kroon,Noord-Holland,VBO,4.926004,52.890865
Westerlanderweg,86,,,1778KM,Westerland,Hollands Kroon,Noord-Holland,VBO,4.926120,52.890943
Westerlanderweg,88,,,1778KM,Westerland,Hollands Kroon,Noord-Holland,VBO,4.926217,52.891057
Westerlanderweg,90,a,,1778KM,Westerland,Hollands Kroon,Noord-Holland,VBO,4.926379,52.891406
Westerlanderweg,90,,,1778KM,Westerland,Hollands Kroon,Noord-Holland,VBO,4.926386,52.891150
Scheltenburgerweg,1,,,1778KN,Westerland,Hollands Kroon,Noord-Holland,VBO,4.924905,52.893400
Westerlanderweg,77,,,1778KN,Westerland,Hollands Kroon,Noord-Holland,VBO,4.926892,52.891203
Westerlanderweg,79,,,1778KN,Westerland,Hollands Kroon,Noord-Holland,VBO,4.927064,52.891308
Westerlanderweg,81,,,1778KN,Westerland,Hollands Kroon,Noord-Holland,VBO,4.927115,52.891468
Westerlanderweg,83,,,1778KN,Westerland,Hollands Kroon,Noord-Holland,VBO,4.927206,52.891562
Westerlanderweg,87,,,1778KN,Westerland,Hollands Kroon,Noord-Holland,VBO,4.927670,52.891947
Westerlanderweg,89,,,1778KN,Westerland,Hollands Kroon,Noord-Holland,VBO,4.927875,52.892133
Westerlanderweg,91,a,,1778KN,Westerland,Hollands Kroon,Noord-Holland,VBO,4.928330,52.892110
Westerlanderweg,91,,,1778KN,Westerland,Hollands Kroon,Noord-Holland,VBO,4.928025,52.892247
Westerlanderweg,92,,,1778KN,Westerland,Hollands Kroon,Noord-Holland,VBO,4.926519,52.891540
Westerlanderweg,93,a,,1778KN,Westerland,Hollands Kroon,Noord-Holland,VBO,4.928413,52.892430
Westerlanderweg,93,,,1778KN,Westerland,Hollands Kroon,Noord-Holland,VBO,4.928266,52.892383
Westerlanderweg,95,,,1778KN,Westerland,Hollands Kroon,Noord-Holland,VBO,4.928482,52.892527
Westerlanderweg,98,a,,1778KN,Westerland,Hollands Kroon,Noord-Holland,VBO,4.926978,52.891739
Westerlanderweg,98,,,1778KN,Westerland,Hollands Kroon,Noord-Holland,VBO,4.926843,52.891650
Westerlanderweg,100,,,1778KN,Westerland,Hollands Kroon,Noord-Holland,VBO,4.927085,52.891825
Westerlanderweg,106,,,1778KN,Westerland,Hollands Kroon,Noord-Holland,VBO,4.927214,52.891917
Westerlanderweg,108,,,1778KN,Westerland,Hollands Kroon,Noord-Holland,VBO,4.927304,52.891972
Westerlanderweg,110,,,1778KN,Westerland,Hollands Kroon,Noord-Holland,VBO,4.927281,52.892189
Westerlanderweg,112,,,1778KN,Westerland,Hollands Kroon,Noord-Holland,VBO,4.927464,52.892285
Westerlanderweg,114,,,1778KN,Westerland,Hollands Kroon,Noord-Holland,VBO,4.927616,52.892346
Westerlanderweg,116,,,1778KN,Westerland,Hollands Kroon,Noord-Holland,VBO,4.927772,52.892431
Westerlanderweg,118,,,1778KN,Westerland,Hollands Kroon,Noord-Holland,VBO,4.927901,52.892471
Westerlanderweg,120,,,1778KN,Westerland,Hollands Kroon,Noord-Holland,VBO,4.928017,52.892523
Westerlanderweg,122,,,1778KN,Westerland,Hollands Kroon,Noord-Holland,VBO,4.927664,52.892899
Westerlanderweg,126,,,1778KN,Westerland,Hollands Kroon,Noord-Holland,VBO,4.927795,52.893093
Westerlanderweg,128,,,1778KN,Westerland,Hollands Kroon,Noord-Holland,VBO,4.928171,52.892595
Westerlanderweg,130,,,1778KN,Westerland,Hollands Kroon,Noord-Holland,VBO,4.928355,52.892719
Westerlanderweg,132,,,1778KN,Westerland,Hollands Kroon,Noord-Holland,VBO,4.928467,52.892773
Westerlanderweg,99,,,1778KP,Westerland,Hollands Kroon,Noord-Holland,VBO,4.929129,52.892938
Westerlanderweg,101,,,1778KP,Westerland,Hollands Kroon,Noord-Holland,VBO,4.929365,52.893063
Westerlanderweg,103,,,1778KP,Westerland,Hollands Kroon,Noord-Holland,VBO,4.929513,52.893210
Westerlanderweg,107,,,1778KP,Westerland,Hollands Kroon,Noord-Holland,VBO,4.929747,52.893217
Westerlanderweg,109,,,1778KP,Westerland,Hollands Kroon,Noord-Holland,VBO,4.929810,52.893427
Westerlanderweg,111,,,1778KP,Westerland,Hollands Kroon,Noord-Holland,VBO,4.929973,52.893512
Westerlanderweg,113,,,1778KP,Westerland,Hollands Kroon,Noord-Holland,VBO,4.930213,52.893570
Westerlanderweg,115,,,1778KP,Westerland,Hollands Kroon,Noord-Holland,VBO,4.930354,52.893849
Westerlanderweg,134,,,1778KP,Westerland,Hollands Kroon,Noord-Holland,VBO,4.928602,52.892844
Westerlanderweg,136,,,1778KP,Westerland,Hollands Kroon,Noord-Holland,VBO,4.928725,52.892913
Westerlanderweg,138,,,1778KP,Westerland,Hollands Kroon,Noord-Holland,VBO,4.928853,52.892991
Westerlanderweg,140,,,1778KP,Westerland,Hollands Kroon,Noord-Holland,VBO,4.928893,52.893246
Westerlanderweg,144,,,1778KP,Westerland,Hollands Kroon,Noord-Holland,VBO,4.929206,52.893355
Westerlanderweg,146,,,1778KP,Westerland,Hollands Kroon,Noord-Holland,VBO,4.929399,52.893413
Westerlanderweg,148,,,1778KP,Westerland,Hollands Kroon,Noord-Holland,VBO,4.929453,52.893449
Westerlanderweg,150,,,1778KP,Westerland,Hollands Kroon,Noord-Holland,VBO,4.929514,52.893493
Westerlanderweg,152,,,1778KP,Westerland,Hollands Kroon,Noord-Holland,VBO,4.929563,52.893529
Westerlanderweg,154,,,1778KP,Westerland,Hollands Kroon,Noord-Holland,VBO,4.929607,52.893588
Westerlanderweg,156,,,1778KP,Westerland,Hollands Kroon,Noord-Holland,VBO,4.929726,52.893618
Westerlanderweg,158,a,,1778KP,Westerland,Hollands Kroon,Noord-Holland,VBO,4.929901,52.893796
Westerlanderweg,158,,,1778KP,Westerland,Hollands Kroon,Noord-Holland,VBO,4.929788,52.893662
Westerlanderweg,160,,,1778KP,Westerland,Hollands Kroon,Noord-Holland,VBO,4.930097,52.893912
Westerlanderweg,117,a,,1778KR,Westerland,Hollands Kroon,Noord-Holland,VBO,4.930637,52.894018
Westerlanderweg,117,b,,1778KR,Westerland,Hollands Kroon,Noord-Holland,VBO,4.930688,52.894059
Westerlanderweg,117,c,,1778KR,Westerland,Hollands Kroon,Noord-Holland,VBO,4.930737,52.894102
Westerlanderweg,119,,,1778KR,Westerland,Hollands Kroon,Noord-Holland,VBO,4.930861,52.894184
Westerlanderweg,121,a,,1778KR,Westerland,Hollands Kroon,Noord-Holland,VBO,4.931021,52.894250
Westerlanderweg,121,b,,1778KR,Westerland,Hollands Kroon,Noord-Holland,VBO,4.931117,52.894302
Westerlanderweg,121,,,1778KR,Westerland,Hollands Kroon,Noord-Holland,VBO,4.930942,52.894211
Westerlanderweg,123,,,1778KR,Westerland,Hollands Kroon,Noord-Holland,VBO,4.931291,52.894344
Westerlanderweg,125,,,1778KR,Westerland,Hollands Kroon,Noord-Holland,VBO,4.931487,52.894395
Westerlanderweg,127,,,1778KR,Westerland,Hollands Kroon,Noord-Holland,VBO,4.932175,52.894757
Westerlanderweg,129,,,1778KR,Westerland,Hollands Kroon,Noord-Holland,VBO,4.932595,52.894555
Westerlanderweg,131,,,1778KR,Westerland,Hollands Kroon,Noord-Holland,VBO,4.932545,52.894779
Westerlanderweg,135,,,1778KR,Westerland,Hollands Kroon,Noord-Holland,VBO,4.932959,52.894981
Westerlanderweg,162,,,1778KR,Westerland,Hollands Kroon,Noord-Holland,VBO,4.930435,52.894193
Westerlanderweg,166,,,1778KR,Westerland,Hollands Kroon,Noord-Holland,VBO,4.930539,52.894469
Westerlanderweg,168,,,1778KR,Westerland,Hollands Kroon,Noord-Holland,VBO,4.930869,52.894419
Westerlanderweg,170,,,1778KR,Westerland,Hollands Kroon,Noord-Holland,VBO,4.931093,52.894528
Westerlanderweg,172,,,1778KR,Westerland,Hollands Kroon,Noord-Holland,VBO,4.931145,52.894552
Westerlanderweg,174,,,1778KR,Westerland,Hollands Kroon,Noord-Holland,VBO,4.931191,52.894801
Westerlanderweg,176,,,1778KR,Westerland,Hollands Kroon,Noord-Holland,VBO,4.931360,52.894631
Westerlanderweg,178,a,,1778KR,Westerland,Hollands Kroon,Noord-Holland,VBO,4.931854,52.894875
Westerlanderweg,178,,,1778KR,Westerland,Hollands Kroon,Noord-Holland,VBO,4.931688,52.894756
Westerlanderweg,180,,,1778KR,Westerland,Hollands Kroon,Noord-Holland,VBO,4.932011,52.894930
Westerlanderweg,184,a,,1778KR,Westerland,Hollands Kroon,Noord-Holland,VBO,4.932270,52.895205
Westerlanderweg,184,b,,1778KR,Westerland,Hollands Kroon,Noord-Holland,VBO,4.932574,52.895110
Westerlanderweg,184,,,1778KR,Westerland,Hollands Kroon,Noord-Holland,VBO,4.932189,52.895000
Westerlanderweg,186,,,1778KR,Westerland,Hollands Kroon,Noord-Holland,VBO,4.932893,52.895148
Verbindingsweg,1,,,1778KS,Westerland,Hollands Kroon,Noord-Holland,VBO,4.909647,52.890783
Verbindingsweg,3,,,1778KS,Westerland,Hollands Kroon,Noord-Holland,VBO,4.911124,52.890328
Korte Quarantaineweg,1,,,1778KT,Westerland,Hollands Kroon,Noord-Holland,VBO,4.911010,52.891651
Korte Quarantaineweg,2,,,1778KT,Westerland,Hollands Kroon,Noord-Holland,VBO,4.913430,52.892340
Dam,2,,,1778KV,Westerland,Hollands Kroon,Noord-Holland,VBO,4.912291,52.894638
Dam,3,,,1778KV,Westerland,Hollands Kroon,Noord-Holland,VBO,4.912540,52.895455
Dam,7,,,1778KV,Westerland,Hollands Kroon,Noord-Holland,VBO,4.913895,52.895093
Dam,9,,,1778KV,Westerland,Hollands Kroon,Noord-Holland,VBO,4.912966,52.894483
Noorderbuurt,1,,,1778KW,Westerland,Hollands Kroon,Noord-Holland,VBO,4.916853,52.896639
Noorderbuurt,2,,,1778KW,Westerland,Hollands Kroon,Noord-Holland,VBO,4.924526,52.896956
Noorderbuurt,3,,,1778KW,Westerland,Hollands Kroon,Noord-Holland,VBO,4.918527,52.896284
Noorderbuurt,4,,,1778KW,Westerland,Hollands Kroon,Noord-Holland,VBO,4.924832,52.896895
Noorderbuurt,5,,,1778KW,Westerland,Hollands Kroon,Noord-Holland,VBO,4.921682,52.896439
Noorderbuurt,6,,,1778KW,Westerland,Hollands Kroon,Noord-Holland,VBO,4.924919,52.896915
Noorderbuurt,7,,,1778KW,Westerland,Hollands Kroon,Noord-Holland,VBO,4.923781,52.896665
Noorderbuurt,9,,,1778KW,Westerland,Hollands Kroon,Noord-Holland,VBO,4.923992,52.896707
Noorderbuurt,14,,,1778KW,Westerland,Hollands Kroon,Noord-Holland,VBO,4.927800,52.896781
Noorderbuurt,17,,,1778KW,Westerland,Hollands Kroon,Noord-Holland,VBO,4.926734,52.896678
Westerlanderlaan,1,,,1778KX,Westerland,Hollands Kroon,Noord-Holland,VBO,4.928489,52.895909
Westerlanderlaan,3,,,1778KX,Westerland,Hollands Kroon,Noord-Holland,VBO,4.928983,52.895462
Westerlanderlaan,4,,,1778KX,Westerland,Hollands Kroon,Noord-Holland,VBO,4.929061,52.894989
Westerlanderlaan,5,,,1778KX,Westerland,Hollands Kroon,Noord-Holland,VBO,4.929306,52.895059
Westerlanderlaan,6,,,1778KX,Westerland,Hollands Kroon,Noord-Holland,VBO,4.929593,52.894334
Westerlanderlaan,7,,,1778KX,Westerland,Hollands Kroon,Noord-Holland,VBO,4.929532,52.894908
Westerlanderlaan,8,,,1778KX,Westerland,Hollands Kroon,Noord-Holland,VBO,4.929611,52.894174
Westerlanderlaan,9,,,1778KX,Westerland,Hollands Kroon,Noord-Holland,VBO,4.929567,52.894752
Westerlanderlaan,17,,,1778KX,Westerland,Hollands Kroon,Noord-Holland,VBO,4.929841,52.894605
Westerlanderlaan,19,,,1778KX,Westerland,Hollands Kroon,Noord-Holland,VBO,4.929941,52.894507
Westerlanderlaan,21,,,1778KX,Westerland,Hollands Kroon,Noord-Holland,VBO,4.930060,52.894391
De Dentele,1,,,1778KZ,Westerland,Hollands Kroon,Noord-Holland,VBO,4.930901,52.893927
De Dentele,2,t,,1778KZ,Westerland,Hollands Kroon,Noord-Holland,VBO,4.930593,52.893746
De Dentele,2,,,1778KZ,Westerland,Hollands Kroon,Noord-Holland,VBO,4.930780,52.893649
De Dentele,3,,,1778KZ,Westerland,Hollands Kroon,Noord-Holland,VBO,4.930971,52.893897
De Dentele,4,,,1778KZ,Westerland,Hollands Kroon,Noord-Holland,VBO,4.930866,52.893615
De Dentele,5,,,1778KZ,Westerland,Hollands Kroon,Noord-Holland,VBO,4.931031,52.893870
De Dentele,6,,,1778KZ,Westerland,Hollands Kroon,Noord-Holland,VBO,4.930927,52.893584
De Dentele,7,,,1778KZ,Westerland,Hollands Kroon,Noord-Holland,VBO,4.931106,52.893837
De Dentele,8,,,1778KZ,Westerland,Hollands Kroon,Noord-Holland,VBO,4.930990,52.893554
De Dentele,9,a,,1778KZ,Westerland,Hollands Kroon,Noord-Holland,VBO,4.931586,52.894092
De Dentele,9,b,,1778KZ,Westerland,Hollands Kroon,Noord-Holland,VBO,4.931557,52.894216
De Dentele,9,,,1778KZ,Westerland,Hollands Kroon,Noord-Holland,VBO,4.931626,52.893714
De Dentele,10,,,1778KZ,Westerland,Hollands Kroon,Noord-Holland,VBO,4.931060,52.893524
De Dentele,11,,,1778KZ,Westerland,Hollands Kroon,Noord-Holland,VBO,4.932352,52.893922
De Dentele,12,,,1778KZ,Westerland,Hollands Kroon,Noord-Holland,VBO,4.931106,52.893481
De Dentele,13,,,1778KZ,Westerland,Hollands Kroon,Noord-Holland,VBO,4.932279,52.893900
De Dentele,14,,,1778KZ,Westerland,Hollands Kroon,Noord-Holland,VBO,4.931170,52.893455
De Dentele,15,,,1778KZ,Westerland,Hollands Kroon,Noord-Holland,VBO,4.932204,52.893880
De Dentele,16,,,1778KZ,Westerland,Hollands Kroon,Noord-Holland,VBO,4.931245,52.893424
De Dentele,17,,,1778KZ,Westerland,Hollands Kroon,Noord-Holland,VBO,4.932134,52.893853
De Dentele,18,,,1778KZ,Westerland,Hollands Kroon,Noord-Holland,VBO,4.931388,52.893400
De Dentele,19,,,1778KZ,Westerland,Hollands Kroon,Noord-Holland,VBO,4.932082,52.893710
De Dentele,20,,,1778KZ,Westerland,Hollands Kroon,Noord-Holland,VBO,4.931471,52.893368
De Dentele,21,,,1778KZ,Westerland,Hollands Kroon,Noord-Holland,VBO,4.932078,52.893658
De Dentele,22,,,1778KZ,Westerland,Hollands Kroon,Noord-Holland,VBO,4.931548,52.893337
De Dentele,23,,,1778KZ,Westerland,Hollands Kroon,Noord-Holland,VBO,4.932074,52.893605
De Dentele,24,,,1778KZ,Westerland,Hollands Kroon,Noord-Holland,VBO,4.931611,52.893302
De Dentele,25,,,1778KZ,Westerland,Hollands Kroon,Noord-Holland,VBO,4.932072,52.893559
De Dentele,26,,,1778KZ,Westerland,Hollands Kroon,Noord-Holland,VBO,4.931645,52.893212
De Dentele,27,,,1778KZ,Westerland,Hollands Kroon,Noord-Holland,VBO,4.932111,52.893488
De Dentele,28,,,1778KZ,Westerland,Hollands Kroon,Noord-Holland,VBO,4.931648,52.893159
De Dentele,29,,,1778KZ,Westerland,Hollands Kroon,Noord-Holland,VBO,4.932104,52.893436
De Dentele,30,,,1778KZ,Westerland,Hollands Kroon,Noord-Holland,VBO,4.931639,52.893110
De Dentele,31,,,1778KZ,Westerland,Hollands Kroon,Noord-Holland,VBO,4.932100,52.893386
De Dentele,32,,,1778KZ,Westerland,Hollands Kroon,Noord-Holland,VBO,4.931578,52.893061
De Dentele,33,,,1778KZ,Westerland,Hollands Kroon,Noord-Holland,VBO,4.932103,52.893340
De Dentele,34,,,1778KZ,Westerland,Hollands Kroon,Noord-Holland,VBO,4.931574,52.893014
De Dentele,35,,,1778KZ,Westerland,Hollands Kroon,Noord-Holland,VBO,4.932007,52.893224
De Dentele,36,,,1778KZ,Westerland,Hollands Kroon,Noord-Holland,VBO,4.931565,52.892965
De Dentele,37,,,1778KZ,Westerland,Hollands Kroon,Noord-Holland,VBO,4.931983,52.893033
De Dentele,38,,,1778KZ,Westerland,Hollands Kroon,Noord-Holland,VBO,4.931562,52.892912
Nieuwe Haven,2,,,1778LA,Westerland,Hollands Kroon,Noord-Holland,VBO,4.931921,52.884024
Nieuwe Haven,3,,,1778LA,Westerland,Hollands Kroon,Noord-Holland,LIG,4.932391,52.884775
Nieuwe Haven,4,,,1778LA,Westerland,Hollands Kroon,Noord-Holland,VBO,4.934370,52.885053
Lutjeweg,2,a,,1778LB,Westerland,Hollands Kroon,Noord-Holland,VBO,4.911618,52.889612
Lutjeweg,2,b,,1778LB,Westerland,Hollands Kroon,Noord-Holland,VBO,4.912342,52.888570
Lutjeweg,2,,,1778LB,Westerland,Hollands Kroon,Noord-Holland,VBO,4.912899,52.889136
Lutjeweg,4,,,1778LB,Westerland,Hollands Kroon,Noord-Holland,LIG,4.912131,52.888502
Verbindingsweg,101,a,,1778LK,Westerland,Hollands Kroon,Noord-Holland,VBO,4.910465,52.890488
Verbindingsweg,101,,,1778LK,Westerland,Hollands Kroon,Noord-Holland,VBO,4.910202,52.890345
Verbindingsweg,102,,,1778LK,Westerland,Hollands Kroon,Noord-Holland,VBO,4.910321,52.890335
Verbindingsweg,103,,,1778LK,Westerland,Hollands Kroon,Noord-Holland,VBO,4.910365,52.890289
Verbindingsweg,104,,,1778LK,Westerland,Hollands Kroon,Noord-Holland,VBO,4.910424,52.890249
Verbindingsweg,105,,,1778LK,Westerland,Hollands Kroon,Noord-Holland,VBO,4.910471,52.890198
Verbindingsweg,106,,,1778LK,Westerland,Hollands Kroon,Noord-Holland,VBO,4.910521,52.890156
Verbindingsweg,107,,,1778LK,Westerland,Hollands Kroon,Noord-Holland,VBO,4.910582,52.890115
Verbindingsweg,108,,,1778LK,Westerland,Hollands Kroon,Noord-Holland,VBO,4.910644,52.890074
Verbindingsweg,109,,,1778LK,Westerland,Hollands Kroon,Noord-Holland,VBO,4.910675,52.890021
Verbindingsweg,110,,,1778LK,Westerland,Hollands Kroon,Noord-Holland,VBO,4.910731,52.889979
Verbindingsweg,111,,,1778LK,Westerland,Hollands Kroon,Noord-Holland,VBO,4.910791,52.889938
Verbindingsweg,112,,,1778LK,Westerland,Hollands Kroon,Noord-Holland,VBO,4.910849,52.889898
Verbindingsweg,113,,,1778LK,Westerland,Hollands Kroon,Noord-Holland,VBO,4.910165,52.890327
Verbindingsweg,114,,,1778LK,Westerland,Hollands Kroon,Noord-Holland,VBO,4.910236,52.890284
Verbindingsweg,115,,,1778LK,Westerland,Hollands Kroon,Noord-Holland,VBO,4.910319,52.890269
Verbindingsweg,116,,,1778LK,Westerland,Hollands Kroon,Noord-Holland,VBO,4.910378,52.890225
Verbindingsweg,117,,,1778LK,Westerland,Hollands Kroon,Noord-Holland,VBO,4.910417,52.890176
Verbindingsweg,118,,,1778LK,Westerland,Hollands Kroon,Noord-Holland,VBO,4.910471,52.890126
Verbindingsweg,119,,,1778LK,Westerland,Hollands Kroon,Noord-Holland,VBO,4.910529,52.890089
Verbindingsweg,120,,,1778LK,Westerland,Hollands Kroon,Noord-Holland,VBO,4.910587,52.890050
Verbindingsweg,121,,,1778LK,Westerland,Hollands Kroon,Noord-Holland,VBO,4.910622,52.889996
Verbindingsweg,122,,,1778LK,Westerland,Hollands Kroon,Noord-Holland,VBO,4.910680,52.889950
Verbindingsweg,123,,,1778LK,Westerland,Hollands Kroon,Noord-Holland,VBO,4.910741,52.889914
Verbindingsweg,124,,,1778LK,Westerland,Hollands Kroon,Noord-Holland,VBO,4.910799,52.889871
Verbindingsweg,125,,,1778LK,Westerland,Hollands Kroon,Noord-Holland,VBO,4.910279,52.890243
Verbindingsweg,126,,,1778LK,Westerland,Hollands Kroon,Noord-Holland,VBO,4.910328,52.890199
Verbindingsweg,127,,,1778LK,Westerland,Hollands Kroon,Noord-Holland,VBO,4.910371,52.890150
Verbindingsweg,128,,,1778LK,Westerland,Hollands Kroon,Noord-Holland,VBO,4.910425,52.890104
Verbindingsweg,129,,,1778LK,Westerland,Hollands Kroon,Noord-Holland,VBO,4.910476,52.890062
Verbindingsweg,130,,,1778LK,Westerland,Hollands Kroon,Noord-Holland,VBO,4.910537,52.890022
Verbindingsweg,131,,,1778LK,Westerland,Hollands Kroon,Noord-Holland,VBO,4.910572,52.889966
Verbindingsweg,132,,,1778LK,Westerland,Hollands Kroon,Noord-Holland,VBO,4.910630,52.889926
Verbindingsweg,133,,,1778LK,Westerland,Hollands Kroon,Noord-Holland,VBO,4.909990,52.890391
Verbindingsweg,134,,,1778LK,Westerland,Hollands Kroon,Noord-Holland,VBO,4.910138,52.890474
Verbindingsweg,135,,,1778LK,Westerland,Hollands Kroon,Noord-Holland,VBO,4.910237,52.890532
Verbindingsweg,136,,,1778LK,Westerland,Hollands Kroon,Noord-Holland,VBO,4.910296,52.890634
Verbindingsweg,137,,,1778LK,Westerland,Hollands Kroon,Noord-Holland,VBO,4.910148,52.890689
Verbindingsweg,138,,,1778LK,Westerland,Hollands Kroon,Noord-Holland,VBO,4.910043,52.890709
Verbindingsweg,139,,,1778LK,Westerland,Hollands Kroon,Noord-Holland,VBO,4.909883,52.890667
Verbindingsweg,140,,,1778LK,Westerland,Hollands Kroon,Noord-Holland,VBO,4.909763,52.890629
