openbareruimtenaam,huisnummer,huisletter,huisnummertoevoeging,postcode,woonplaatsnaam,gemeentenaam,provincienaam,typeadresseerbaarobject,longitude,latitude
Beverdam,1,A,,1822AA,Alkmaar,Alkmaar,Noord-Holland,LIG,4.777040,52.639496
Beverdam,1,,,1822AA,Alkmaar,Alkmaar,Noord-Holland,VBO,4.777764,52.639750
Beverdam,3,,,1822AA,Alkmaar,Alkmaar,Noord-Holland,VBO,4.779704,52.639950
Beverdam,5,,,1822AA,Alkmaar,Alkmaar,Noord-Holland,VBO,4.778302,52.639686
Herenweg,109,A,,1822AD,Alkmaar,Alkmaar,Noord-Holland,VBO,4.775086,52.640832
Herenweg,109,,,1822AD,Alkmaar,Alkmaar,Noord-Holland,VBO,4.775195,52.640631
Herenweg,111,,,1822AD,Alkmaar,Alkmaar,Noord-Holland,VBO,4.775616,52.640827
Herenweg,117,A,,1822AD,Alkmaar,Alkmaar,Noord-Holland,VBO,4.776263,52.642307
Herenweg,117,,,1822AD,Alkmaar,Alkmaar,Noord-Holland,VBO,4.776158,52.642184
Herenweg,117,,,1822AD,Alkmaar,Alkmaar,Noord-Holland,VBO,4.776249,52.642171
Herenweg,119,,,1822AD,Alkmaar,Alkmaar,Noord-Holland,VBO,4.776170,52.642579
Herenweg,121,,,1822AD,Alkmaar,Alkmaar,Noord-Holland,VBO,4.776210,52.642773
Herenweg,123,A,,1822AD,Alkmaar,Alkmaar,Noord-Holland,VBO,4.776211,52.643287
Herenweg,123,,,1822AD,Alkmaar,Alkmaar,Noord-Holland,VBO,4.776282,52.643426
Herenweg,125,,,1822AD,Alkmaar,Alkmaar,Noord-Holland,VBO,4.776290,52.643985
Herenweg,127,,,1822AD,Alkmaar,Alkmaar,Noord-Holland,VBO,4.776191,52.644079
Herenweg,129,,,1822AD,Alkmaar,Alkmaar,Noord-Holland,VBO,4.776234,52.644183
Herenweg,131,,,1822AD,Alkmaar,Alkmaar,Noord-Holland,VBO,4.776145,52.644274
Herenweg,133,,,1822AD,Alkmaar,Alkmaar,Noord-Holland,VBO,4.776127,52.644432
Herenweg,135,,,1822AD,Alkmaar,Alkmaar,Noord-Holland,VBO,4.776252,52.644637
Herenweg,139,,,1822AD,Alkmaar,Alkmaar,Noord-Holland,VBO,4.776071,52.644786
Herenweg,141,,,1822AD,Alkmaar,Alkmaar,Noord-Holland,VBO,4.775826,52.644726
Herenweg,143,A,,1822AD,Alkmaar,Alkmaar,Noord-Holland,VBO,4.776100,52.645047
Herenweg,143,B,,1822AD,Alkmaar,Alkmaar,Noord-Holland,VBO,4.776104,52.645187
Herenweg,143,,,1822AD,Alkmaar,Alkmaar,Noord-Holland,VBO,4.776122,52.644941
Herenweg,145,,,1822AD,Alkmaar,Alkmaar,Noord-Holland,VBO,4.776135,52.645300
Herenweg,147,A,,1822AD,Alkmaar,Alkmaar,Noord-Holland,VBO,4.776096,52.645390
Herenweg,147,,,1822AD,Alkmaar,Alkmaar,Noord-Holland,VBO,4.776152,52.645389
Herenweg,149,,,1822AD,Alkmaar,Alkmaar,Noord-Holland,VBO,4.776176,52.645514
Herenweg,151,,,1822AD,Alkmaar,Alkmaar,Noord-Holland,VBO,4.776201,52.645614
Herenweg,153,,,1822AD,Alkmaar,Alkmaar,Noord-Holland,VBO,4.776247,52.645691
Herenweg,155,,,1822AE,Alkmaar,Alkmaar,Noord-Holland,VBO,4.776247,52.645863
Herenweg,157,,,1822AE,Alkmaar,Alkmaar,Noord-Holland,VBO,4.776300,52.645975
Herenweg,159,,,1822AE,Alkmaar,Alkmaar,Noord-Holland,VBO,4.776315,52.646115
Herenweg,161,,,1822AE,Alkmaar,Alkmaar,Noord-Holland,VBO,4.776353,52.646235
Herenweg,163,,,1822AE,Alkmaar,Alkmaar,Noord-Holland,VBO,4.776371,52.646371
Herenweg,165,,,1822AE,Alkmaar,Alkmaar,Noord-Holland,VBO,4.776400,52.646460
Herenweg,167,,,1822AE,Alkmaar,Alkmaar,Noord-Holland,VBO,4.776431,52.646779
Herenweg,169,,,1822AE,Alkmaar,Alkmaar,Noord-Holland,VBO,4.776430,52.646913
Herenweg,171,A,,1822AE,Alkmaar,Alkmaar,Noord-Holland,VBO,4.776065,52.647122
Herenweg,171,,,1822AE,Alkmaar,Alkmaar,Noord-Holland,VBO,4.776539,52.647113
Herenweg,173,,,1822AE,Alkmaar,Alkmaar,Noord-Holland,VBO,4.776569,52.647231
Herenweg,175,,,1822AE,Alkmaar,Alkmaar,Noord-Holland,VBO,4.776605,52.647309
Herenweg,177,,,1822AE,Alkmaar,Alkmaar,Noord-Holland,VBO,4.776592,52.647397
Herenweg,179,A,,1822AE,Alkmaar,Alkmaar,Noord-Holland,VBO,4.776664,52.647483
Herenweg,179,,,1822AE,Alkmaar,Alkmaar,Noord-Holland,VBO,4.776702,52.647479
Herenweg,181,,,1822AE,Alkmaar,Alkmaar,Noord-Holland,VBO,4.776733,52.647674
Herenweg,183,,,1822AE,Alkmaar,Alkmaar,Noord-Holland,VBO,4.776779,52.647759
Herenweg,185,,,1822AE,Alkmaar,Alkmaar,Noord-Holland,VBO,4.776809,52.647839
Herenweg,191,A,,1822AE,Alkmaar,Alkmaar,Noord-Holland,VBO,4.777097,52.648214
Herenweg,191,,,1822AE,Alkmaar,Alkmaar,Noord-Holland,VBO,4.776813,52.647997
Herenweg,193,,,1822AE,Alkmaar,Alkmaar,Noord-Holland,VBO,4.777292,52.648480
Herenweg,195,,,1822AE,Alkmaar,Alkmaar,Noord-Holland,VBO,4.777382,52.648609
Herenweg,197,A,,1822AE,Alkmaar,Alkmaar,Noord-Holland,VBO,4.777518,52.648826
Herenweg,197,,,1822AE,Alkmaar,Alkmaar,Noord-Holland,VBO,4.777555,52.648811
Herenweg,199,,,1822AE,Alkmaar,Alkmaar,Noord-Holland,VBO,4.777587,52.649014
Herenweg,201,,,1822AE,Alkmaar,Alkmaar,Noord-Holland,VBO,4.777850,52.649202
Herenweg,203,,,1822AE,Alkmaar,Alkmaar,Noord-Holland,VBO,4.777920,52.649362
Herenweg,205,,,1822AE,Alkmaar,Alkmaar,Noord-Holland,VBO,4.778018,52.649478
Herenweg,207,,,1822AE,Alkmaar,Alkmaar,Noord-Holland,VBO,4.778067,52.649556
Herenweg,209,,,1822AE,Alkmaar,Alkmaar,Noord-Holland,VBO,4.778103,52.649715
Herenweg,154,,,1822AK,Alkmaar,Alkmaar,Noord-Holland,VBO,4.775928,52.640126
Herenweg,158,,,1822AK,Alkmaar,Alkmaar,Noord-Holland,VBO,4.776465,52.640953
Herenweg,160,,,1822AK,Alkmaar,Alkmaar,Noord-Holland,VBO,4.776547,52.641123
Herenweg,164,,,1822AK,Alkmaar,Alkmaar,Noord-Holland,VBO,4.776770,52.643047
Herenweg,166,A,,1822AK,Alkmaar,Alkmaar,Noord-Holland,VBO,4.776914,52.643298
Herenweg,166,,,1822AK,Alkmaar,Alkmaar,Noord-Holland,VBO,4.776909,52.643172
Herenweg,168,A,,1822AK,Alkmaar,Alkmaar,Noord-Holland,VBO,4.776914,52.643552
Herenweg,168,,,1822AK,Alkmaar,Alkmaar,Noord-Holland,VBO,4.776942,52.643425
Herenweg,170,,,1822AK,Alkmaar,Alkmaar,Noord-Holland,VBO,4.776926,52.643729
Herenweg,172,B,,1822AK,Alkmaar,Alkmaar,Noord-Holland,VBO,4.776893,52.643894
Herenweg,172,C,,1822AK,Alkmaar,Alkmaar,Noord-Holland,VBO,4.776860,52.644024
Herenweg,172,D,,1822AK,Alkmaar,Alkmaar,Noord-Holland,VBO,4.776858,52.644154
Herenweg,172,E,,1822AK,Alkmaar,Alkmaar,Noord-Holland,VBO,4.776813,52.644285
Herenweg,172,F,,1822AK,Alkmaar,Alkmaar,Noord-Holland,VBO,4.776780,52.644448
Herenweg,172,G,,1822AK,Alkmaar,Alkmaar,Noord-Holland,VBO,4.776729,52.644499
Herenweg,174,A,,1822AK,Alkmaar,Alkmaar,Noord-Holland,VBO,4.776805,52.644790
Herenweg,174,B,,1822AK,Alkmaar,Alkmaar,Noord-Holland,VBO,4.776689,52.644938
Herenweg,174,,,1822AK,Alkmaar,Alkmaar,Noord-Holland,VBO,4.776742,52.644703
Herenweg,176,A,,1822AK,Alkmaar,Alkmaar,Noord-Holland,VBO,4.776681,52.645139
Herenweg,176,,,1822AK,Alkmaar,Alkmaar,Noord-Holland,VBO,4.776712,52.645077
Herenweg,178,,,1822AK,Alkmaar,Alkmaar,Noord-Holland,VBO,4.776572,52.645315
Herenweg,180,,,1822AK,Alkmaar,Alkmaar,Noord-Holland,VBO,4.776586,52.645530
Herenweg,182,,,1822AL,Alkmaar,Alkmaar,Noord-Holland,VBO,4.776731,52.645773
Herenweg,184,,,1822AL,Alkmaar,Alkmaar,Noord-Holland,VBO,4.776645,52.645915
Herenweg,186,,,1822AL,Alkmaar,Alkmaar,Noord-Holland,VBO,4.776751,52.646099
Herenweg,188,A,,1822AL,Alkmaar,Alkmaar,Noord-Holland,VBO,4.776924,52.646323
Herenweg,188,B,,1822AL,Alkmaar,Alkmaar,Noord-Holland,VBO,4.776943,52.646451
Herenweg,188,C,,1822AL,Alkmaar,Alkmaar,Noord-Holland,VBO,4.776966,52.646584
Herenweg,188,D,,1822AL,Alkmaar,Alkmaar,Noord-Holland,VBO,4.777038,52.646724
Herenweg,188,,,1822AL,Alkmaar,Alkmaar,Noord-Holland,VBO,4.776880,52.646204
Herenweg,190,,,1822AL,Alkmaar,Alkmaar,Noord-Holland,VBO,4.777029,52.646922
Herenweg,192,A,,1822AL,Alkmaar,Alkmaar,Noord-Holland,VBO,4.777199,52.647012
Herenweg,192,B,,1822AL,Alkmaar,Alkmaar,Noord-Holland,VBO,4.777212,52.647388
Herenweg,192,C,,1822AL,Alkmaar,Alkmaar,Noord-Holland,VBO,4.777251,52.647496
Herenweg,192,D,,1822AL,Alkmaar,Alkmaar,Noord-Holland,VBO,4.777264,52.647617
Herenweg,192,E,,1822AL,Alkmaar,Alkmaar,Noord-Holland,VBO,4.777349,52.647758
Herenweg,192,,,1822AL,Alkmaar,Alkmaar,Noord-Holland,VBO,4.777090,52.647232
Herenweg,194,,,1822AL,Alkmaar,Alkmaar,Noord-Holland,VBO,4.777696,52.648301
Herenweg,196,A,,1822AL,Alkmaar,Alkmaar,Noord-Holland,VBO,4.777740,52.648488
Herenweg,196,,,1822AL,Alkmaar,Alkmaar,Noord-Holland,VBO,4.778050,52.648126
Herenweg,198,A,,1822AL,Alkmaar,Alkmaar,Noord-Holland,VBO,4.778023,52.648717
Herenweg,198,,,1822AL,Alkmaar,Alkmaar,Noord-Holland,VBO,4.778025,52.648559
Herenweg,200,,,1822AL,Alkmaar,Alkmaar,Noord-Holland,VBO,4.778070,52.648910
Herenweg,202,,,1822AL,Alkmaar,Alkmaar,Noord-Holland,VBO,4.778243,52.649132
Herenweg,204,,,1822AL,Alkmaar,Alkmaar,Noord-Holland,VBO,4.778857,52.649427
Herenweg,206,,,1822AL,Alkmaar,Alkmaar,Noord-Holland,VBO,4.778238,52.649295
Herenweg,208,,,1822AL,Alkmaar,Alkmaar,Noord-Holland,VBO,4.778421,52.649289
Herenweg,214,,,1822AL,Alkmaar,Alkmaar,Noord-Holland,VBO,4.778345,52.649398
Herenweg,216,,,1822AL,Alkmaar,Alkmaar,Noord-Holland,VBO,4.778357,52.649468
Herenweg,218,,,1822AL,Alkmaar,Alkmaar,Noord-Holland,VBO,4.778673,52.649606
Herenweg,220,,,1822AL,Alkmaar,Alkmaar,Noord-Holland,VBO,4.778677,52.649832
Herenweg,222,,,1822AL,Alkmaar,Alkmaar,Noord-Holland,VBO,4.778870,52.649887
Achterweg,1,,,1822AM,Alkmaar,Alkmaar,Noord-Holland,VBO,4.778766,52.645513
Achterweg,3,,,1822AM,Alkmaar,Alkmaar,Noord-Holland,VBO,4.779298,52.645432
Achterweg,5,,,1822AM,Alkmaar,Alkmaar,Noord-Holland,VBO,4.779366,52.645577
Achterweg,8,,,1822AM,Alkmaar,Alkmaar,Noord-Holland,VBO,4.778980,52.645169
Achterweg,9,,,1822AM,Alkmaar,Alkmaar,Noord-Holland,VBO,4.779963,52.646813
Achterweg,10,,,1822AM,Alkmaar,Alkmaar,Noord-Holland,VBO,4.779757,52.645096
Achterweg,12,,,1822AM,Alkmaar,Alkmaar,Noord-Holland,VBO,4.779791,52.645357
Achterweg,13,,,1822AM,Alkmaar,Alkmaar,Noord-Holland,VBO,4.781700,52.648194
Achterweg,14,,,1822AM,Alkmaar,Alkmaar,Noord-Holland,VBO,4.779917,52.645746
Achterweg,16,,,1822AM,Alkmaar,Alkmaar,Noord-Holland,VBO,4.780040,52.645943
Achterweg,17,,,1822AM,Alkmaar,Alkmaar,Noord-Holland,VBO,4.781880,52.648574
Achterweg,18,,,1822AM,Alkmaar,Alkmaar,Noord-Holland,VBO,4.780079,52.646126
Achterweg,19,,,1822AM,Alkmaar,Alkmaar,Noord-Holland,VBO,4.781878,52.648804
Achterweg,20,,,1822AM,Alkmaar,Alkmaar,Noord-Holland,VBO,4.780153,52.646282
Achterweg,22,,,1822AM,Alkmaar,Alkmaar,Noord-Holland,VBO,4.780372,52.646459
Achterweg,24,,,1822AM,Alkmaar,Alkmaar,Noord-Holland,VBO,4.780877,52.646600
Achterweg,26,,,1822AM,Alkmaar,Alkmaar,Noord-Holland,VBO,4.780656,52.646714
Achterweg,28,,,1822AM,Alkmaar,Alkmaar,Noord-Holland,VBO,4.782831,52.647346
Achterweg,30,,,1822AM,Alkmaar,Alkmaar,Noord-Holland,VBO,4.782624,52.647547
Achterweg,32,,,1822AM,Alkmaar,Alkmaar,Noord-Holland,VBO,4.782086,52.647805
Achterweg,36,,,1822AM,Alkmaar,Alkmaar,Noord-Holland,VBO,4.782129,52.648217
Achterweg,38,,,1822AM,Alkmaar,Alkmaar,Noord-Holland,VBO,4.782323,52.648470
Achterweg,40,,,1822AM,Alkmaar,Alkmaar,Noord-Holland,VBO,4.782848,52.648952
Achterweg,42,,,1822AM,Alkmaar,Alkmaar,Noord-Holland,VBO,4.782919,52.649196
Achterweg,44,,,1822AM,Alkmaar,Alkmaar,Noord-Holland,VBO,4.783014,52.649327
Achterweg,46,,,1822AM,Alkmaar,Alkmaar,Noord-Holland,VBO,4.783288,52.649537
Achterweg,48,,,1822AM,Alkmaar,Alkmaar,Noord-Holland,VBO,4.783546,52.649776
Achterweg,50,,,1822AM,Alkmaar,Alkmaar,Noord-Holland,VBO,4.783710,52.650037
Achterweg,52,,,1822AM,Alkmaar,Alkmaar,Noord-Holland,VBO,4.783650,52.650216
Achterweg,54,,,1822AM,Alkmaar,Alkmaar,Noord-Holland,VBO,4.783800,52.650478
Achterweg,56,,,1822AM,Alkmaar,Alkmaar,Noord-Holland,VBO,4.783979,52.650759
Achterweg,58,,,1822AM,Alkmaar,Alkmaar,Noord-Holland,VBO,4.784003,52.650952
Achterweg,60,,,1822AM,Alkmaar,Alkmaar,Noord-Holland,VBO,4.784035,52.651073
Achterweg,62,,,1822AM,Alkmaar,Alkmaar,Noord-Holland,VBO,4.784118,52.651227
Achterweg,64,,,1822AM,Alkmaar,Alkmaar,Noord-Holland,VBO,4.784258,52.651444
Achterweg,66,,,1822AM,Alkmaar,Alkmaar,Noord-Holland,VBO,4.784332,52.651658
Achterweg,70,A,,1822AM,Alkmaar,Alkmaar,Noord-Holland,VBO,4.785676,52.651924
Achterweg,70,,,1822AM,Alkmaar,Alkmaar,Noord-Holland,VBO,4.784676,52.652086
Achterweg,72,,,1822AM,Alkmaar,Alkmaar,Noord-Holland,VBO,4.784711,52.652402
Achterweg,74,,,1822AM,Alkmaar,Alkmaar,Noord-Holland,VBO,4.784689,52.652326
Achterweg,76,,,1822AM,Alkmaar,Alkmaar,Noord-Holland,VBO,4.784909,52.652588
Achterweg,76,,,1822AM,Alkmaar,Alkmaar,Noord-Holland,VBO,4.784929,52.652678
Robbenkoog,1,,,1822BA,Alkmaar,Alkmaar,Noord-Holland,VBO,4.779006,52.642976
Robbenkoog,3,A,,1822BA,Alkmaar,Alkmaar,Noord-Holland,VBO,4.779220,52.642855
Robbenkoog,3,,,1822BA,Alkmaar,Alkmaar,Noord-Holland,VBO,4.779140,52.642868
Robbenkoog,5,,,1822BA,Alkmaar,Alkmaar,Noord-Holland,VBO,4.779388,52.642829
Robbenkoog,7,,,1822BA,Alkmaar,Alkmaar,Noord-Holland,VBO,4.779852,52.642784
Robbenkoog,9,A,,1822BA,Alkmaar,Alkmaar,Noord-Holland,VBO,4.780141,52.643021
Robbenkoog,9,B,,1822BA,Alkmaar,Alkmaar,Noord-Holland,VBO,4.780051,52.643057
Robbenkoog,9,C,,1822BA,Alkmaar,Alkmaar,Noord-Holland,VBO,4.779943,52.643107
Robbenkoog,9,D,,1822BA,Alkmaar,Alkmaar,Noord-Holland,VBO,4.779842,52.643150
Robbenkoog,9,E,,1822BA,Alkmaar,Alkmaar,Noord-Holland,VBO,4.779710,52.643207
Robbenkoog,13,,,1822BA,Alkmaar,Alkmaar,Noord-Holland,VBO,4.782946,52.642473
Robbenkoog,15,,,1822BA,Alkmaar,Alkmaar,Noord-Holland,VBO,4.783288,52.642435
Robbenkoog,19,,,1822BA,Alkmaar,Alkmaar,Noord-Holland,VBO,4.784016,52.642847
Robbenkoog,21,A,,1822BA,Alkmaar,Alkmaar,Noord-Holland,VBO,4.784076,52.642946
Robbenkoog,21,B,,1822BA,Alkmaar,Alkmaar,Noord-Holland,VBO,4.784140,52.643043
Robbenkoog,21,,,1822BA,Alkmaar,Alkmaar,Noord-Holland,VBO,4.784246,52.643002
Robbenkoog,23,A,,1822BA,Alkmaar,Alkmaar,Noord-Holland,VBO,4.784539,52.643431
Robbenkoog,23,B,,1822BA,Alkmaar,Alkmaar,Noord-Holland,VBO,4.784351,52.643515
Robbenkoog,23,C,,1822BA,Alkmaar,Alkmaar,Noord-Holland,VBO,4.784585,52.643504
Robbenkoog,23,,,1822BA,Alkmaar,Alkmaar,Noord-Holland,VBO,4.784204,52.643258
Robbenkoog,25,,,1822BA,Alkmaar,Alkmaar,Noord-Holland,VBO,4.784836,52.644155
Robbenkoog,27,,,1822BA,Alkmaar,Alkmaar,Noord-Holland,VBO,4.785103,52.644584
Robbenkoog,29,A,,1822BA,Alkmaar,Alkmaar,Noord-Holland,VBO,4.785281,52.645783
Robbenkoog,29,,,1822BA,Alkmaar,Alkmaar,Noord-Holland,VBO,4.785525,52.645375
Robbenkoog,2,,,1822BB,Alkmaar,Alkmaar,Noord-Holland,VBO,4.779039,52.642289
Robbenkoog,4,,,1822BB,Alkmaar,Alkmaar,Noord-Holland,VBO,4.779721,52.642214
Robbenkoog,6,,,1822BB,Alkmaar,Alkmaar,Noord-Holland,VBO,4.780946,52.642008
Robbenkoog,8,,,1822BB,Alkmaar,Alkmaar,Noord-Holland,VBO,4.781568,52.641990
Robbenkoog,10,,,1822BB,Alkmaar,Alkmaar,Noord-Holland,VBO,4.782200,52.642058
Robbenkoog,14,,,1822BB,Alkmaar,Alkmaar,Noord-Holland,VBO,4.782892,52.641838
Robbenkoog,18,,,1822BB,Alkmaar,Alkmaar,Noord-Holland,VBO,4.784344,52.641670
Robbenkoog,20,,,1822BB,Alkmaar,Alkmaar,Noord-Holland,VBO,4.784580,52.642447
Robbenkoog,28,,,1822BB,Alkmaar,Alkmaar,Noord-Holland,VBO,4.785115,52.643515
Robbenkoog,30,A,,1822BB,Alkmaar,Alkmaar,Noord-Holland,VBO,4.785322,52.643614
Robbenkoog,30,B,,1822BB,Alkmaar,Alkmaar,Noord-Holland,VBO,4.785364,52.643687
Robbenkoog,30,,,1822BB,Alkmaar,Alkmaar,Noord-Holland,VBO,4.785598,52.643600
Robbenkoog,32,,,1822BB,Alkmaar,Alkmaar,Noord-Holland,VBO,4.785667,52.643899
Robbenkoog,34,A,,1822BB,Alkmaar,Alkmaar,Noord-Holland,VBO,4.786178,52.644613
Robbenkoog,34,,,1822BB,Alkmaar,Alkmaar,Noord-Holland,VBO,4.786381,52.644449
Robbenkoog,36,,,1822BB,Alkmaar,Alkmaar,Noord-Holland,VBO,4.786422,52.645039
Robbenkoog,38,,,1822BB,Alkmaar,Alkmaar,Noord-Holland,VBO,4.786238,52.645081
Robbenkoog,42,,,1822BB,Alkmaar,Alkmaar,Noord-Holland,VBO,4.786626,52.645379
Robbenkoog,50,,,1822BB,Alkmaar,Alkmaar,Noord-Holland,VBO,4.786004,52.646150
Walruskoog,1,,,1822BC,Alkmaar,Alkmaar,Noord-Holland,VBO,4.785861,52.647098
Walruskoog,3,,,1822BC,Alkmaar,Alkmaar,Noord-Holland,VBO,4.785928,52.646884
Walruskoog,5,,,1822BC,Alkmaar,Alkmaar,Noord-Holland,VBO,4.786388,52.646695
Walruskoog,6,A,,1822BC,Alkmaar,Alkmaar,Noord-Holland,VBO,4.786889,52.645982
Walruskoog,6,B,,1822BC,Alkmaar,Alkmaar,Noord-Holland,VBO,4.787022,52.645952
Walruskoog,6,C,,1822BC,Alkmaar,Alkmaar,Noord-Holland,VBO,4.787206,52.645909
Walruskoog,6,D,,1822BC,Alkmaar,Alkmaar,Noord-Holland,VBO,4.787250,52.645747
Walruskoog,8,,,1822BC,Alkmaar,Alkmaar,Noord-Holland,VBO,4.787213,52.646415
Walruskoog,10,,,1822BC,Alkmaar,Alkmaar,Noord-Holland,VBO,4.787365,52.646761
Wolvenkoog,1,,,1822BE,Alkmaar,Alkmaar,Noord-Holland,VBO,4.781744,52.642617
Wolvenkoog,2,,,1822BE,Alkmaar,Alkmaar,Noord-Holland,VBO,4.782651,52.642636
Wolvenkoog,3,,,1822BE,Alkmaar,Alkmaar,Noord-Holland,VBO,4.782280,52.643099
Wolvenkoog,4,,,1822BE,Alkmaar,Alkmaar,Noord-Holland,VBO,4.783159,52.643053
Wolvenkoog,5,,,1822BE,Alkmaar,Alkmaar,Noord-Holland,VBO,4.782304,52.643364
Wolvenkoog,6,,,1822BE,Alkmaar,Alkmaar,Noord-Holland,VBO,4.783587,52.643472
Wolvenkoog,7,,,1822BE,Alkmaar,Alkmaar,Noord-Holland,VBO,4.782728,52.643596
Wolvenkoog,9,,,1822BE,Alkmaar,Alkmaar,Noord-Holland,VBO,4.782886,52.643780
Wolvenkoog,10,,,1822BE,Alkmaar,Alkmaar,Noord-Holland,VBO,4.783761,52.643819
Wolvenkoog,11,,,1822BE,Alkmaar,Alkmaar,Noord-Holland,VBO,4.783072,52.644055
Vossenkoog,1,,,1822BG,Alkmaar,Alkmaar,Noord-Holland,VBO,4.783204,52.644789
Vossenkoog,2,,,1822BG,Alkmaar,Alkmaar,Noord-Holland,VBO,4.782713,52.644388
Vossenkoog,3,,,1822BG,Alkmaar,Alkmaar,Noord-Holland,VBO,4.783423,52.644444
Vossenkoog,4,,,1822BG,Alkmaar,Alkmaar,Noord-Holland,VBO,4.782831,52.644314
Vossenkoog,5,,,1822BG,Alkmaar,Alkmaar,Noord-Holland,VBO,4.784286,52.644391
Vossenkoog,6,,,1822BG,Alkmaar,Alkmaar,Noord-Holland,VBO,4.783055,52.644193
Vossenkoog,8,,,1822BG,Alkmaar,Alkmaar,Noord-Holland,VBO,4.783747,52.643770
Vossenkoog,10,,,1822BG,Alkmaar,Alkmaar,Noord-Holland,VBO,4.784092,52.643700
Vossenkoog,14,B,,1822BG,Alkmaar,Alkmaar,Noord-Holland,VBO,4.784507,52.643683
Vossenkoog,14,,,1822BG,Alkmaar,Alkmaar,Noord-Holland,VBO,4.784575,52.643758
Vossenkoog,16,,,1822BG,Alkmaar,Alkmaar,Noord-Holland,VBO,4.784702,52.643651
Berenkoog,3,,,1822BH,Alkmaar,Alkmaar,Noord-Holland,VBO,4.780096,52.643355
Berenkoog,5,,,1822BH,Alkmaar,Alkmaar,Noord-Holland,VBO,4.780531,52.643580
Berenkoog,9,,,1822BH,Alkmaar,Alkmaar,Noord-Holland,VBO,4.780897,52.643880
Berenkoog,11,,,1822BH,Alkmaar,Alkmaar,Noord-Holland,VBO,4.781090,52.644108
Berenkoog,13,,,1822BH,Alkmaar,Alkmaar,Noord-Holland,VBO,4.781814,52.644553
Berenkoog,15,,,1822BH,Alkmaar,Alkmaar,Noord-Holland,VBO,4.782175,52.644929
Berenkoog,17,,,1822BH,Alkmaar,Alkmaar,Noord-Holland,VBO,4.782622,52.645318
Berenkoog,19,,,1822BH,Alkmaar,Alkmaar,Noord-Holland,VBO,4.782799,52.645434
Berenkoog,21,,,1822BH,Alkmaar,Alkmaar,Noord-Holland,VBO,4.782324,52.645510
Berenkoog,23,,,1822BH,Alkmaar,Alkmaar,Noord-Holland,VBO,4.782275,52.645734
Berenkoog,25,,,1822BH,Alkmaar,Alkmaar,Noord-Holland,VBO,4.783369,52.645887
Berenkoog,27,,,1822BH,Alkmaar,Alkmaar,Noord-Holland,VBO,4.784039,52.646474
Berenkoog,29,A,,1822BH,Alkmaar,Alkmaar,Noord-Holland,VBO,4.784527,52.646774
Berenkoog,29,,,1822BH,Alkmaar,Alkmaar,Noord-Holland,VBO,4.784646,52.646992
Berenkoog,31,,,1822BH,Alkmaar,Alkmaar,Noord-Holland,VBO,4.784780,52.647427
Berenkoog,33,,,1822BH,Alkmaar,Alkmaar,Noord-Holland,VBO,4.785103,52.647783
Berenkoog,35,A,,1822BH,Alkmaar,Alkmaar,Noord-Holland,VBO,4.787175,52.650169
Berenkoog,35,,,1822BH,Alkmaar,Alkmaar,Noord-Holland,VBO,4.786146,52.649074
Berenkoog,37,,,1822BH,Alkmaar,Alkmaar,Noord-Holland,VBO,4.787279,52.650776
Berenkoog,2,,,1822BJ,Alkmaar,Alkmaar,Noord-Holland,VBO,4.781085,52.642668
Berenkoog,4,,,1822BJ,Alkmaar,Alkmaar,Noord-Holland,VBO,4.780858,52.643041
Berenkoog,6,,,1822BJ,Alkmaar,Alkmaar,Noord-Holland,VBO,4.781158,52.643185
Berenkoog,10,,,1822BJ,Alkmaar,Alkmaar,Noord-Holland,VBO,4.781495,52.643480
Berenkoog,12,,,1822BJ,Alkmaar,Alkmaar,Noord-Holland,VBO,4.781670,52.643651
Berenkoog,14,A,,1822BJ,Alkmaar,Alkmaar,Noord-Holland,VBO,4.782023,52.643715
Berenkoog,14,B,,1822BJ,Alkmaar,Alkmaar,Noord-Holland,VBO,4.782108,52.643681
Berenkoog,14,,,1822BJ,Alkmaar,Alkmaar,Noord-Holland,VBO,4.781807,52.643844
Berenkoog,16,A,,1822BJ,Alkmaar,Alkmaar,Noord-Holland,VBO,4.782004,52.643918
Berenkoog,16,B,,1822BJ,Alkmaar,Alkmaar,Noord-Holland,VBO,4.782085,52.644000
Berenkoog,16,,,1822BJ,Alkmaar,Alkmaar,Noord-Holland,VBO,4.781961,52.643879
Berenkoog,18,A,,1822BJ,Alkmaar,Alkmaar,Noord-Holland,VBO,4.782329,52.644136
Berenkoog,18,,,1822BJ,Alkmaar,Alkmaar,Noord-Holland,VBO,4.782304,52.644158
Berenkoog,20,,,1822BJ,Alkmaar,Alkmaar,Noord-Holland,VBO,4.783241,52.644972
Berenkoog,22,A,,1822BJ,Alkmaar,Alkmaar,Noord-Holland,VBO,4.784117,52.645365
Berenkoog,22,,,1822BJ,Alkmaar,Alkmaar,Noord-Holland,VBO,4.784080,52.645394
Berenkoog,24,,,1822BJ,Alkmaar,Alkmaar,Noord-Holland,VBO,4.784339,52.645780
Berenkoog,26,,,1822BJ,Alkmaar,Alkmaar,Noord-Holland,VBO,4.784652,52.646047
Berenkoog,28,A,,1822BJ,Alkmaar,Alkmaar,Noord-Holland,VBO,4.785311,52.646658
Berenkoog,28,,,1822BJ,Alkmaar,Alkmaar,Noord-Holland,VBO,4.785268,52.646678
Berenkoog,32,,,1822BJ,Alkmaar,Alkmaar,Noord-Holland,VBO,4.785898,52.647600
Berenkoog,34,A,,1822BJ,Alkmaar,Alkmaar,Noord-Holland,VBO,4.786203,52.647772
Berenkoog,34,,,1822BJ,Alkmaar,Alkmaar,Noord-Holland,VBO,4.786166,52.647806
Berenkoog,36,A,,1822BJ,Alkmaar,Alkmaar,Noord-Holland,VBO,4.786726,52.648510
Berenkoog,36,B,,1822BJ,Alkmaar,Alkmaar,Noord-Holland,VBO,4.786802,52.648618
Berenkoog,36,C,,1822BJ,Alkmaar,Alkmaar,Noord-Holland,VBO,4.786863,52.648704
Berenkoog,36,D,,1822BJ,Alkmaar,Alkmaar,Noord-Holland,VBO,4.786955,52.648686
Berenkoog,38,,,1822BJ,Alkmaar,Alkmaar,Noord-Holland,VBO,4.787166,52.649429
Berenkoog,40,A,,1822BJ,Alkmaar,Alkmaar,Noord-Holland,VBO,4.788222,52.650567
Berenkoog,40,B,,1822BJ,Alkmaar,Alkmaar,Noord-Holland,VBO,4.788127,52.650514
Berenkoog,40,C,,1822BJ,Alkmaar,Alkmaar,Noord-Holland,VBO,4.788178,52.650500
Berenkoog,40,,,1822BJ,Alkmaar,Alkmaar,Noord-Holland,VBO,4.788172,52.650580
Berenkoog,42,A,,1822BJ,Alkmaar,Alkmaar,Noord-Holland,VBO,4.788532,52.651022
Berenkoog,42,B,,1822BJ,Alkmaar,Alkmaar,Noord-Holland,VBO,4.788665,52.650985
Berenkoog,42,C,,1822BJ,Alkmaar,Alkmaar,Noord-Holland,VBO,4.788840,52.650940
Berenkoog,42,D,,1822BJ,Alkmaar,Alkmaar,Noord-Holland,VBO,4.788475,52.651126
Berenkoog,42,E,,1822BJ,Alkmaar,Alkmaar,Noord-Holland,VBO,4.788554,52.651227
Berenkoog,42,F,,1822BJ,Alkmaar,Alkmaar,Noord-Holland,VBO,4.788615,52.651309
Berenkoog,42,G,,1822BJ,Alkmaar,Alkmaar,Noord-Holland,VBO,4.788665,52.651192
Berenkoog,42,H,,1822BJ,Alkmaar,Alkmaar,Noord-Holland,VBO,4.788784,52.651156
Berenkoog,42,I,,1822BJ,Alkmaar,Alkmaar,Noord-Holland,VBO,4.788931,52.651114
Berenkoog,42,J,,1822BJ,Alkmaar,Alkmaar,Noord-Holland,VBO,4.789127,52.651138
Berenkoog,42,,,1822BJ,Alkmaar,Alkmaar,Noord-Holland,VBO,4.788423,52.651052
Berenkoog,44,A,,1822BJ,Alkmaar,Alkmaar,Noord-Holland,VBO,4.789520,52.651725
Berenkoog,44,B,,1822BJ,Alkmaar,Alkmaar,Noord-Holland,VBO,4.789357,52.651492
Berenkoog,44,C,,1822BJ,Alkmaar,Alkmaar,Noord-Holland,VBO,4.789146,52.651541
Berenkoog,44,D,,1822BJ,Alkmaar,Alkmaar,Noord-Holland,VBO,4.789012,52.651688
Berenkoog,44,E,,1822BJ,Alkmaar,Alkmaar,Noord-Holland,VBO,4.788964,52.651613
Berenkoog,44,F,,1822BJ,Alkmaar,Alkmaar,Noord-Holland,VBO,4.788904,52.651531
Berenkoog,44,G,,1822BJ,Alkmaar,Alkmaar,Noord-Holland,VBO,4.789336,52.651769
Berenkoog,44,H,,1822BJ,Alkmaar,Alkmaar,Noord-Holland,VBO,4.789109,52.651837
Berenkoog,48,,,1822BJ,Alkmaar,Alkmaar,Noord-Holland,VBO,4.790510,52.653152
Marterkoog,1,,,1822BK,Alkmaar,Alkmaar,Noord-Holland,VBO,4.787217,52.648124
Marterkoog,3,,,1822BK,Alkmaar,Alkmaar,Noord-Holland,VBO,4.786651,52.648358
Marterkoog,4,A,,1822BK,Alkmaar,Alkmaar,Noord-Holland,VBO,4.786500,52.647679
Marterkoog,4,,,1822BK,Alkmaar,Alkmaar,Noord-Holland,VBO,4.786558,52.647668
Marterkoog,5,A,,1822BK,Alkmaar,Alkmaar,Noord-Holland,VBO,4.786925,52.648288
Marterkoog,5,,,1822BK,Alkmaar,Alkmaar,Noord-Holland,VBO,4.786810,52.648320
Marterkoog,7,,,1822BK,Alkmaar,Alkmaar,Noord-Holland,VBO,4.787097,52.648297
Marterkoog,8,,,1822BK,Alkmaar,Alkmaar,Noord-Holland,VBO,4.787244,52.647484
Marterkoog,9,,,1822BK,Alkmaar,Alkmaar,Noord-Holland,VBO,4.787295,52.648092
Marterkoog,11,,,1822BK,Alkmaar,Alkmaar,Noord-Holland,VBO,4.787365,52.648189
Marterkoog,13,,,1822BK,Alkmaar,Alkmaar,Noord-Holland,VBO,4.787398,52.648033
Marterkoog,14,,,1822BK,Alkmaar,Alkmaar,Noord-Holland,VBO,4.788330,52.647311
Wezelkoog,3,,,1822BL,Alkmaar,Alkmaar,Noord-Holland,VBO,4.789264,52.649246
Wezelkoog,4,,,1822BL,Alkmaar,Alkmaar,Noord-Holland,VBO,4.788062,52.648528
Wezelkoog,5,,,1822BL,Alkmaar,Alkmaar,Noord-Holland,VBO,4.789115,52.648993
Wezelkoog,6,,,1822BL,Alkmaar,Alkmaar,Noord-Holland,VBO,4.787929,52.648565
Wezelkoog,7,,,1822BL,Alkmaar,Alkmaar,Noord-Holland,VBO,4.788826,52.648674
Wezelkoog,8,,,1822BL,Alkmaar,Alkmaar,Noord-Holland,VBO,4.787787,52.648601
Wezelkoog,10,,,1822BL,Alkmaar,Alkmaar,Noord-Holland,VBO,4.787652,52.648639
Wezelkoog,11,,,1822BL,Alkmaar,Alkmaar,Noord-Holland,VBO,4.788586,52.648051
Wezelkoog,12,,,1822BL,Alkmaar,Alkmaar,Noord-Holland,VBO,4.787524,52.648675
Wezelkoog,14,,,1822BL,Alkmaar,Alkmaar,Noord-Holland,VBO,4.788054,52.648463
Wezelkoog,16,,,1822BL,Alkmaar,Alkmaar,Noord-Holland,VBO,4.787987,52.648483
Wezelkoog,18,,,1822BL,Alkmaar,Alkmaar,Noord-Holland,VBO,4.787921,52.648498
Wezelkoog,20,,,1822BL,Alkmaar,Alkmaar,Noord-Holland,VBO,4.787849,52.648518
Wezelkoog,22,,,1822BL,Alkmaar,Alkmaar,Noord-Holland,VBO,4.787786,52.648535
Wezelkoog,24,,,1822BL,Alkmaar,Alkmaar,Noord-Holland,VBO,4.787716,52.648553
Wezelkoog,26,,,1822BL,Alkmaar,Alkmaar,Noord-Holland,VBO,4.787647,52.648571
Wezelkoog,28,,,1822BL,Alkmaar,Alkmaar,Noord-Holland,VBO,4.787577,52.648590
Wezelkoog,30,,,1822BL,Alkmaar,Alkmaar,Noord-Holland,VBO,4.787510,52.648607
Wezelkoog,32,,,1822BL,Alkmaar,Alkmaar,Noord-Holland,VBO,4.787440,52.648629
Wezelkoog,34,A,,1822BL,Alkmaar,Alkmaar,Noord-Holland,VBO,4.787407,52.648406
Wezelkoog,34,B,,1822BL,Alkmaar,Alkmaar,Noord-Holland,VBO,4.787597,52.648357
Wezelkoog,34,C,,1822BL,Alkmaar,Alkmaar,Noord-Holland,VBO,4.787698,52.648326
Wezelkoog,34,,,1822BL,Alkmaar,Alkmaar,Noord-Holland,VBO,4.787043,52.648557
Wezelkoog,36,,,1822BL,Alkmaar,Alkmaar,Noord-Holland,VBO,4.787819,52.648297
Wezelkoog,38,,,1822BL,Alkmaar,Alkmaar,Noord-Holland,VBO,4.787759,52.648207
Wezelkoog,40,,,1822BL,Alkmaar,Alkmaar,Noord-Holland,VBO,4.787698,52.648125
Wezelkoog,42,,,1822BL,Alkmaar,Alkmaar,Noord-Holland,VBO,4.787638,52.648044
Wezelkoog,44,,,1822BL,Alkmaar,Alkmaar,Noord-Holland,VBO,4.787576,52.647960
Egelskoog,2,,,1822BM,Alkmaar,Alkmaar,Noord-Holland,VBO,4.787986,52.649445
Egelskoog,6,,,1822BM,Alkmaar,Alkmaar,Noord-Holland,VBO,4.789467,52.649391
Egelskoog,8,,,1822BM,Alkmaar,Alkmaar,Noord-Holland,VBO,4.789756,52.649318
Egelskoog,9,A,,1822BM,Alkmaar,Alkmaar,Noord-Holland,VBO,4.788946,52.650232
Egelskoog,9,,,1822BM,Alkmaar,Alkmaar,Noord-Holland,VBO,4.790008,52.649875
Egelskoog,11,,,1822BM,Alkmaar,Alkmaar,Noord-Holland,VBO,4.791181,52.649100
Egelskoog,12,,,1822BM,Alkmaar,Alkmaar,Noord-Holland,VBO,4.789686,52.648877
Egelskoog,13,A,,1822BM,Alkmaar,Alkmaar,Noord-Holland,VBO,4.790909,52.648980
Egelskoog,13,,,1822BM,Alkmaar,Alkmaar,Noord-Holland,VBO,4.791059,52.648941
Egelskoog,14,,,1822BM,Alkmaar,Alkmaar,Noord-Holland,VBO,4.789607,52.648768
Egelskoog,15,A,,1822BM,Alkmaar,Alkmaar,Noord-Holland,VBO,4.790504,52.648889
Egelskoog,15,,,1822BM,Alkmaar,Alkmaar,Noord-Holland,VBO,4.790829,52.648782
Egelskoog,16,,,1822BM,Alkmaar,Alkmaar,Noord-Holland,VBO,4.789492,52.648638
Egelskoog,17,,,1822BM,Alkmaar,Alkmaar,Noord-Holland,VBO,4.790584,52.648784
Egelskoog,18,,,1822BM,Alkmaar,Alkmaar,Noord-Holland,VBO,4.789367,52.648541
Egelskoog,19,A,,1822BM,Alkmaar,Alkmaar,Noord-Holland,VBO,4.790428,52.648562
Egelskoog,19,B,,1822BM,Alkmaar,Alkmaar,Noord-Holland,VBO,4.790475,52.648553
Egelskoog,19,,,1822BM,Alkmaar,Alkmaar,Noord-Holland,VBO,4.790382,52.648573
Egelskoog,21,A,,1822BM,Alkmaar,Alkmaar,Noord-Holland,VBO,4.790022,52.648237
Egelskoog,21,,,1822BM,Alkmaar,Alkmaar,Noord-Holland,VBO,4.790239,52.648302
Egelskoog,25,,,1822BM,Alkmaar,Alkmaar,Noord-Holland,VBO,4.789942,52.648135
Berenkoog,49,,,1822BN,Alkmaar,Alkmaar,Noord-Holland,VBO,4.788259,52.652289
Berenkoog,51,A,,1822BN,Alkmaar,Alkmaar,Noord-Holland,VBO,4.789368,52.653182
Berenkoog,51,B,,1822BN,Alkmaar,Alkmaar,Noord-Holland,VBO,4.788589,52.652796
Berenkoog,51,C,,1822BN,Alkmaar,Alkmaar,Noord-Holland,VBO,4.788568,52.653026
Berenkoog,51,D,,1822BN,Alkmaar,Alkmaar,Noord-Holland,VBO,4.788995,52.653002
Berenkoog,51,E,,1822BN,Alkmaar,Alkmaar,Noord-Holland,VBO,4.789108,52.653285
Berenkoog,51,F,,1822BN,Alkmaar,Alkmaar,Noord-Holland,VBO,4.788990,52.653318
Berenkoog,51,G,,1822BN,Alkmaar,Alkmaar,Noord-Holland,VBO,4.788874,52.653347
Berenkoog,51,H,,1822BN,Alkmaar,Alkmaar,Noord-Holland,VBO,4.788723,52.653385
Berenkoog,53,,,1822BN,Alkmaar,Alkmaar,Noord-Holland,VBO,4.789604,52.653617
Berenkoog,63,,,1822BN,Alkmaar,Alkmaar,Noord-Holland,VBO,4.790583,52.653949
Berenkoog,65,,,1822BN,Alkmaar,Alkmaar,Noord-Holland,VBO,4.790672,52.654209
Berenkoog,67,,,1822BN,Alkmaar,Alkmaar,Noord-Holland,VBO,4.791046,52.654491
Berenkoog,69,A,,1822BN,Alkmaar,Alkmaar,Noord-Holland,VBO,4.791591,52.654679
Berenkoog,69,,,1822BN,Alkmaar,Alkmaar,Noord-Holland,VBO,4.791605,52.654648
Berenkoog,75,,,1822BN,Alkmaar,Alkmaar,Noord-Holland,VBO,4.792114,52.655099
Berenkoog,77,A,,1822BN,Alkmaar,Alkmaar,Noord-Holland,VBO,4.792755,52.655383
Berenkoog,77,B,,1822BN,Alkmaar,Alkmaar,Noord-Holland,VBO,4.792785,52.655358
Berenkoog,77,,,1822BN,Alkmaar,Alkmaar,Noord-Holland,VBO,4.792695,52.655321
Berenkoog,83,,,1822BN,Alkmaar,Alkmaar,Noord-Holland,VBO,4.794467,52.656025
Berenkoog,87,,,1822BN,Alkmaar,Alkmaar,Noord-Holland,VBO,4.795769,52.656928
Berenkoog,89,,,1822BN,Alkmaar,Alkmaar,Noord-Holland,VBO,4.798026,52.657667
Berenkoog,91,,,1822BN,Alkmaar,Alkmaar,Noord-Holland,VBO,4.798298,52.657782
Berenkoog,93,,,1822BN,Alkmaar,Alkmaar,Noord-Holland,VBO,4.798534,52.657892
Berenkoog,95,,,1822BN,Alkmaar,Alkmaar,Noord-Holland,VBO,4.798759,52.657990
Berenkoog,97,,,1822BN,Alkmaar,Alkmaar,Noord-Holland,VBO,4.798496,52.658194
Berenkoog,99,,,1822BN,Alkmaar,Alkmaar,Noord-Holland,VBO,4.798337,52.658240
Berenkoog,101,,,1822BN,Alkmaar,Alkmaar,Noord-Holland,VBO,4.798372,52.658212
Lemmingkoog,2,,,1822BR,Alkmaar,Alkmaar,Noord-Holland,VBO,4.790654,52.649592
Lemmingkoog,5,,,1822BR,Alkmaar,Alkmaar,Noord-Holland,VBO,4.791108,52.651302
Hazenkoog,2,,,1822BS,Alkmaar,Alkmaar,Noord-Holland,VBO,4.789951,52.651651
Hazenkoog,4,,,1822BS,Alkmaar,Alkmaar,Noord-Holland,VBO,4.790368,52.651537
Hazenkoog,6,,,1822BS,Alkmaar,Alkmaar,Noord-Holland,VBO,4.790213,52.651135
Hazenkoog,7,,,1822BS,Alkmaar,Alkmaar,Noord-Holland,VBO,4.791449,52.652009
Hazenkoog,8,A,,1822BS,Alkmaar,Alkmaar,Noord-Holland,VBO,4.791927,52.651284
Hazenkoog,8,B,,1822BS,Alkmaar,Alkmaar,Noord-Holland,VBO,4.792078,52.651243
Hazenkoog,8,,,1822BS,Alkmaar,Alkmaar,Noord-Holland,VBO,4.791734,52.651254
Hazenkoog,9,A,,1822BS,Alkmaar,Alkmaar,Noord-Holland,VBO,4.792195,52.651691
Hazenkoog,9,B,,1822BS,Alkmaar,Alkmaar,Noord-Holland,VBO,4.792288,52.651666
Hazenkoog,9,C,,1822BS,Alkmaar,Alkmaar,Noord-Holland,VBO,4.792383,52.651638
Hazenkoog,9,D,,1822BS,Alkmaar,Alkmaar,Noord-Holland,VBO,4.792461,52.651569
Hazenkoog,9,E,,1822BS,Alkmaar,Alkmaar,Noord-Holland,VBO,4.792503,52.651620
Hazenkoog,9,,,1822BS,Alkmaar,Alkmaar,Noord-Holland,VBO,4.792096,52.651721
Hazenkoog,10,A,,1822BS,Alkmaar,Alkmaar,Noord-Holland,VBO,4.792305,52.651152
Hazenkoog,10,B,,1822BS,Alkmaar,Alkmaar,Noord-Holland,VBO,4.792357,52.651140
Hazenkoog,10,C,,1822BS,Alkmaar,Alkmaar,Noord-Holland,VBO,4.792411,52.651125
Hazenkoog,10,D,,1822BS,Alkmaar,Alkmaar,Noord-Holland,VBO,4.792480,52.651109
Hazenkoog,10,E,,1822BS,Alkmaar,Alkmaar,Noord-Holland,VBO,4.792536,52.651094
Hazenkoog,10,F,,1822BS,Alkmaar,Alkmaar,Noord-Holland,VBO,4.792602,52.651078
Hazenkoog,10,G,,1822BS,Alkmaar,Alkmaar,Noord-Holland,VBO,4.792664,52.651062
Hazenkoog,10,H,,1822BS,Alkmaar,Alkmaar,Noord-Holland,VBO,4.792733,52.651045
Hazenkoog,10,J,,1822BS,Alkmaar,Alkmaar,Noord-Holland,VBO,4.792804,52.651024
Hazenkoog,10,K,,1822BS,Alkmaar,Alkmaar,Noord-Holland,VBO,4.792854,52.651011
Hazenkoog,10,L,,1822BS,Alkmaar,Alkmaar,Noord-Holland,VBO,4.792929,52.650992
Hazenkoog,10,M,,1822BS,Alkmaar,Alkmaar,Noord-Holland,VBO,4.792992,52.650974
Hazenkoog,10,N,,1822BS,Alkmaar,Alkmaar,Noord-Holland,VBO,4.793062,52.650956
Hazenkoog,10,P,,1822BS,Alkmaar,Alkmaar,Noord-Holland,VBO,4.793121,52.651049
Hazenkoog,10,Q,,1822BS,Alkmaar,Alkmaar,Noord-Holland,VBO,4.793051,52.651069
Hazenkoog,10,R,,1822BS,Alkmaar,Alkmaar,Noord-Holland,VBO,4.792982,52.651089
Hazenkoog,10,S,,1822BS,Alkmaar,Alkmaar,Noord-Holland,VBO,4.792921,52.651105
Hazenkoog,10,T,,1822BS,Alkmaar,Alkmaar,Noord-Holland,VBO,4.792862,52.651121
Hazenkoog,10,U,,1822BS,Alkmaar,Alkmaar,Noord-Holland,VBO,4.792803,52.651137
Hazenkoog,10,V,,1822BS,Alkmaar,Alkmaar,Noord-Holland,VBO,4.792751,52.651149
Hazenkoog,10,W,,1822BS,Alkmaar,Alkmaar,Noord-Holland,VBO,4.792695,52.651166
Hazenkoog,12,,,1822BS,Alkmaar,Alkmaar,Noord-Holland,VBO,4.793114,52.651286
Hazenkoog,13,A,,1822BS,Alkmaar,Alkmaar,Noord-Holland,VBO,4.792466,52.651904
Hazenkoog,13,,,1822BS,Alkmaar,Alkmaar,Noord-Holland,VBO,4.792588,52.651862
Hazenkoog,14,,,1822BS,Alkmaar,Alkmaar,Noord-Holland,VBO,4.793167,52.651569
Hazenkoog,15,A,,1822BS,Alkmaar,Alkmaar,Noord-Holland,VBO,4.792773,52.652043
Hazenkoog,15,B,,1822BS,Alkmaar,Alkmaar,Noord-Holland,VBO,4.792656,52.652096
Hazenkoog,15,C,,1822BS,Alkmaar,Alkmaar,Noord-Holland,VBO,4.792576,52.652116
Hazenkoog,15,D,,1822BS,Alkmaar,Alkmaar,Noord-Holland,VBO,4.792487,52.652119
Hazenkoog,15,E,,1822BS,Alkmaar,Alkmaar,Noord-Holland,VBO,4.792398,52.652142
Hazenkoog,15,F,,1822BS,Alkmaar,Alkmaar,Noord-Holland,VBO,4.792812,52.652098
Hazenkoog,15,G,,1822BS,Alkmaar,Alkmaar,Noord-Holland,VBO,4.792853,52.652156
Hazenkoog,15,H,,1822BS,Alkmaar,Alkmaar,Noord-Holland,VBO,4.792711,52.652175
Hazenkoog,15,I,,1822BS,Alkmaar,Alkmaar,Noord-Holland,VBO,4.792636,52.652195
Hazenkoog,15,J,,1822BS,Alkmaar,Alkmaar,Noord-Holland,VBO,4.792535,52.652202
Hazenkoog,15,K,,1822BS,Alkmaar,Alkmaar,Noord-Holland,VBO,4.792456,52.652224
Hazenkoog,16,,,1822BS,Alkmaar,Alkmaar,Noord-Holland,VBO,4.793537,52.651873
Hazenkoog,17,A,,1822BS,Alkmaar,Alkmaar,Noord-Holland,VBO,4.793024,52.652355
Hazenkoog,17,B,,1822BS,Alkmaar,Alkmaar,Noord-Holland,VBO,4.792890,52.652381
Hazenkoog,17,C,,1822BS,Alkmaar,Alkmaar,Noord-Holland,VBO,4.792763,52.652417
Hazenkoog,17,D,,1822BS,Alkmaar,Alkmaar,Noord-Holland,VBO,4.792648,52.652452
Hazenkoog,18,A,,1822BS,Alkmaar,Alkmaar,Noord-Holland,VBO,4.793922,52.652157
Hazenkoog,18,B,,1822BS,Alkmaar,Alkmaar,Noord-Holland,VBO,4.793875,52.652052
Hazenkoog,18,,,1822BS,Alkmaar,Alkmaar,Noord-Holland,VBO,4.793766,52.652147
Hazenkoog,19,,,1822BS,Alkmaar,Alkmaar,Noord-Holland,VBO,4.793083,52.652526
Hazenkoog,20,A,,1822BS,Alkmaar,Alkmaar,Noord-Holland,VBO,4.794086,52.652357
Hazenkoog,20,,,1822BS,Alkmaar,Alkmaar,Noord-Holland,VBO,4.793721,52.652469
Hazenkoog,21,A,,1822BS,Alkmaar,Alkmaar,Noord-Holland,VBO,4.793291,52.652750
Hazenkoog,21,B,,1822BS,Alkmaar,Alkmaar,Noord-Holland,VBO,4.793239,52.652685
Hazenkoog,21,C,,1822BS,Alkmaar,Alkmaar,Noord-Holland,VBO,4.793204,52.652736
Hazenkoog,22,,,1822BS,Alkmaar,Alkmaar,Noord-Holland,VBO,4.793860,52.652677
Hazenkoog,24,A,,1822BS,Alkmaar,Alkmaar,Noord-Holland,VBO,4.794684,52.653671
Hazenkoog,24,B,,1822BS,Alkmaar,Alkmaar,Noord-Holland,VBO,4.794774,52.653594
Hazenkoog,24,D,,1822BS,Alkmaar,Alkmaar,Noord-Holland,VBO,4.794721,52.653772
Hazenkoog,24,E,,1822BS,Alkmaar,Alkmaar,Noord-Holland,VBO,4.794788,52.653715
Hazenkoog,24,F,,1822BS,Alkmaar,Alkmaar,Noord-Holland,VBO,4.794877,52.653643
Hazenkoog,24,,,1822BS,Alkmaar,Alkmaar,Noord-Holland,VBO,4.794614,52.653730
Hazenkoog,25,,,1822BS,Alkmaar,Alkmaar,Noord-Holland,VBO,4.793680,52.653386
Hazenkoog,29,A,,1822BS,Alkmaar,Alkmaar,Noord-Holland,VBO,4.794121,52.653989
Hazenkoog,29,B,,1822BS,Alkmaar,Alkmaar,Noord-Holland,VBO,4.794074,52.654027
Hazenkoog,29,C,,1822BS,Alkmaar,Alkmaar,Noord-Holland,VBO,4.794025,52.654066
Hazenkoog,29,D,,1822BS,Alkmaar,Alkmaar,Noord-Holland,VBO,4.793978,52.654104
Hazenkoog,29,E,,1822BS,Alkmaar,Alkmaar,Noord-Holland,VBO,4.793927,52.654146
Hazenkoog,29,F,,1822BS,Alkmaar,Alkmaar,Noord-Holland,VBO,4.793880,52.654186
Hazenkoog,29,G,,1822BS,Alkmaar,Alkmaar,Noord-Holland,VBO,4.793835,52.654224
Hazenkoog,29,H,,1822BS,Alkmaar,Alkmaar,Noord-Holland,VBO,4.793786,52.654267
Hazenkoog,29,J,,1822BS,Alkmaar,Alkmaar,Noord-Holland,VBO,4.793736,52.654304
Hazenkoog,29,K,,1822BS,Alkmaar,Alkmaar,Noord-Holland,VBO,4.794242,52.654044
Hazenkoog,29,L,,1822BS,Alkmaar,Alkmaar,Noord-Holland,VBO,4.794192,52.654082
Hazenkoog,29,M,,1822BS,Alkmaar,Alkmaar,Noord-Holland,VBO,4.794143,52.654120
Hazenkoog,29,N,,1822BS,Alkmaar,Alkmaar,Noord-Holland,VBO,4.794093,52.654159
Hazenkoog,29,P,,1822BS,Alkmaar,Alkmaar,Noord-Holland,VBO,4.794046,52.654198
Hazenkoog,29,R,,1822BS,Alkmaar,Alkmaar,Noord-Holland,VBO,4.793994,52.654240
Hazenkoog,29,S,,1822BS,Alkmaar,Alkmaar,Noord-Holland,VBO,4.793944,52.654277
Hazenkoog,29,T,,1822BS,Alkmaar,Alkmaar,Noord-Holland,VBO,4.793899,52.654318
Hazenkoog,29,U,,1822BS,Alkmaar,Alkmaar,Noord-Holland,VBO,4.793850,52.654356
Hazenkoog,35,A,,1822BS,Alkmaar,Alkmaar,Noord-Holland,VBO,4.794503,52.654180
Hazenkoog,35,B,,1822BS,Alkmaar,Alkmaar,Noord-Holland,VBO,4.794421,52.654242
Hazenkoog,35,C,,1822BS,Alkmaar,Alkmaar,Noord-Holland,VBO,4.794347,52.654311
Hazenkoog,35,D,,1822BS,Alkmaar,Alkmaar,Noord-Holland,VBO,4.794268,52.654377
Hazenkoog,35,E,,1822BS,Alkmaar,Alkmaar,Noord-Holland,VBO,4.794187,52.654435
Hazenkoog,35,F,,1822BS,Alkmaar,Alkmaar,Noord-Holland,VBO,4.794615,52.654230
Hazenkoog,35,G,,1822BS,Alkmaar,Alkmaar,Noord-Holland,VBO,4.794535,52.654293
Hazenkoog,35,H,,1822BS,Alkmaar,Alkmaar,Noord-Holland,VBO,4.794461,52.654356
Hazenkoog,35,J,,1822BS,Alkmaar,Alkmaar,Noord-Holland,VBO,4.794368,52.654435
Hazenkoog,35,K,,1822BS,Alkmaar,Alkmaar,Noord-Holland,VBO,4.794301,52.654495
Hazenkoog,37,A,,1822BS,Alkmaar,Alkmaar,Noord-Holland,VBO,4.794897,52.654351
Hazenkoog,37,B,,1822BS,Alkmaar,Alkmaar,Noord-Holland,VBO,4.794793,52.654436
Hazenkoog,37,C,,1822BS,Alkmaar,Alkmaar,Noord-Holland,VBO,4.794654,52.654551
Hazenkoog,37,D,,1822BS,Alkmaar,Alkmaar,Noord-Holland,VBO,4.794571,52.654620
Hazenkoog,39,A,,1822BS,Alkmaar,Alkmaar,Noord-Holland,VBO,4.794325,52.654847
Hazenkoog,39,,,1822BS,Alkmaar,Alkmaar,Noord-Holland,VBO,4.794476,52.654921
Hazenkoog,28,,,1822BT,Alkmaar,Alkmaar,Noord-Holland,VBO,4.795237,52.653828
Hazenkoog,30,,,1822BT,Alkmaar,Alkmaar,Noord-Holland,VBO,4.795819,52.654021
Hazenkoog,36,,,1822BT,Alkmaar,Alkmaar,Noord-Holland,VBO,4.795592,52.654664
Hazenkoog,38,,,1822BT,Alkmaar,Alkmaar,Noord-Holland,VBO,4.795493,52.654739
Hazenkoog,40,,,1822BT,Alkmaar,Alkmaar,Noord-Holland,VBO,4.795389,52.654818
Hazenkoog,42,,,1822BT,Alkmaar,Alkmaar,Noord-Holland,VBO,4.795296,52.654895
Hazenkoog,44,,,1822BT,Alkmaar,Alkmaar,Noord-Holland,VBO,4.795201,52.654974
Hazenkoog,46,,,1822BT,Alkmaar,Alkmaar,Noord-Holland,VBO,4.795101,52.655051
Hazenkoog,48,,,1822BT,Alkmaar,Alkmaar,Noord-Holland,VBO,4.794998,52.655138
Hazenkoog,50,,,1822BT,Alkmaar,Alkmaar,Noord-Holland,VBO,4.794912,52.655218
Hazenkoog,52,,,1822BT,Alkmaar,Alkmaar,Noord-Holland,VBO,4.794819,52.655295
Hazenkoog,56,,,1822BT,Alkmaar,Alkmaar,Noord-Holland,VBO,4.794956,52.655359
Hazenkoog,58,,,1822BT,Alkmaar,Alkmaar,Noord-Holland,VBO,4.795060,52.655281
Hazenkoog,60,,,1822BT,Alkmaar,Alkmaar,Noord-Holland,VBO,4.795155,52.655204
Hazenkoog,62,,,1822BT,Alkmaar,Alkmaar,Noord-Holland,VBO,4.795259,52.655126
Hazenkoog,64,,,1822BT,Alkmaar,Alkmaar,Noord-Holland,VBO,4.795355,52.655039
Hazenkoog,66,,,1822BT,Alkmaar,Alkmaar,Noord-Holland,VBO,4.795453,52.654964
Hazenkoog,68,,,1822BT,Alkmaar,Alkmaar,Noord-Holland,VBO,4.795549,52.654878
Hazenkoog,70,,,1822BT,Alkmaar,Alkmaar,Noord-Holland,VBO,4.795637,52.654803
Hazenkoog,72,,,1822BT,Alkmaar,Alkmaar,Noord-Holland,VBO,4.795738,52.654723
Dassenkoog,4,,,1822BV,Alkmaar,Alkmaar,Noord-Holland,VBO,4.791927,52.652757
Dassenkoog,6,,,1822BV,Alkmaar,Alkmaar,Noord-Holland,VBO,4.792462,52.652622
Otterkoog,1,,,1822BW,Alkmaar,Alkmaar,Noord-Holland,VBO,4.792844,52.653550
Otterkoog,2,,,1822BW,Alkmaar,Alkmaar,Noord-Holland,VBO,4.792793,52.652930
Otterkoog,5,,,1822BW,Alkmaar,Alkmaar,Noord-Holland,VBO,4.793403,52.653313
Otterkoog,6,,,1822BW,Alkmaar,Alkmaar,Noord-Holland,VBO,4.793245,52.652916
Otterkoog,7,A,,1822BW,Alkmaar,Alkmaar,Noord-Holland,VBO,4.794302,52.653157
Otterkoog,7,,,1822BW,Alkmaar,Alkmaar,Noord-Holland,VBO,4.794250,52.653203
Otterkoog,9,A,,1822BW,Alkmaar,Alkmaar,Noord-Holland,VBO,4.794393,52.653063
Otterkoog,9,,,1822BW,Alkmaar,Alkmaar,Noord-Holland,VBO,4.794337,52.653098
Otterkoog,10,,,1822BW,Alkmaar,Alkmaar,Noord-Holland,VBO,4.794239,52.652582
Otterkoog,11,,,1822BW,Alkmaar,Alkmaar,Noord-Holland,VBO,4.794662,52.653129
Otterkoog,12,A,,1822BW,Alkmaar,Alkmaar,Noord-Holland,VBO,4.794551,52.652701
Otterkoog,12,B,,1822BW,Alkmaar,Alkmaar,Noord-Holland,VBO,4.794608,52.652721
Otterkoog,12,C,,1822BW,Alkmaar,Alkmaar,Noord-Holland,VBO,4.794668,52.652750
Otterkoog,12,D,,1822BW,Alkmaar,Alkmaar,Noord-Holland,VBO,4.794728,52.652778
Otterkoog,12,E,,1822BW,Alkmaar,Alkmaar,Noord-Holland,VBO,4.794643,52.652668
Otterkoog,12,F,,1822BW,Alkmaar,Alkmaar,Noord-Holland,VBO,4.794688,52.652631
Otterkoog,12,G,,1822BW,Alkmaar,Alkmaar,Noord-Holland,VBO,4.794731,52.652594
Otterkoog,12,H,,1822BW,Alkmaar,Alkmaar,Noord-Holland,VBO,4.794774,52.652554
Otterkoog,12,J,,1822BW,Alkmaar,Alkmaar,Noord-Holland,VBO,4.794758,52.652719
Otterkoog,12,K,,1822BW,Alkmaar,Alkmaar,Noord-Holland,VBO,4.794805,52.652684
Otterkoog,12,L,,1822BW,Alkmaar,Alkmaar,Noord-Holland,VBO,4.794850,52.652645
Otterkoog,12,M,,1822BW,Alkmaar,Alkmaar,Noord-Holland,VBO,4.794895,52.652607
Otterkoog,13,,,1822BW,Alkmaar,Alkmaar,Noord-Holland,VBO,4.794616,52.653174
Otterkoog,14,A,,1822BW,Alkmaar,Alkmaar,Noord-Holland,VBO,4.794970,52.652894
Otterkoog,14,B,,1822BW,Alkmaar,Alkmaar,Noord-Holland,VBO,4.795033,52.652836
Otterkoog,14,C,,1822BW,Alkmaar,Alkmaar,Noord-Holland,VBO,4.795092,52.652789
Otterkoog,14,D,,1822BW,Alkmaar,Alkmaar,Noord-Holland,VBO,4.795154,52.652747
Otterkoog,14,E,,1822BW,Alkmaar,Alkmaar,Noord-Holland,VBO,4.795221,52.652697
Otterkoog,14,F,,1822BW,Alkmaar,Alkmaar,Noord-Holland,VBO,4.795088,52.652942
Otterkoog,14,G,,1822BW,Alkmaar,Alkmaar,Noord-Holland,VBO,4.795156,52.652892
Otterkoog,14,H,,1822BW,Alkmaar,Alkmaar,Noord-Holland,VBO,4.795209,52.652843
Otterkoog,14,I,,1822BW,Alkmaar,Alkmaar,Noord-Holland,VBO,4.795275,52.652793
Otterkoog,14,J,,1822BW,Alkmaar,Alkmaar,Noord-Holland,VBO,4.795337,52.652747
Otterkoog,15,,,1822BW,Alkmaar,Alkmaar,Noord-Holland,VBO,4.794565,52.653221
Otterkoog,16,A,,1822BW,Alkmaar,Alkmaar,Noord-Holland,VBO,4.795384,52.653071
Otterkoog,16,B,,1822BW,Alkmaar,Alkmaar,Noord-Holland,VBO,4.795446,52.653019
Otterkoog,16,C,,1822BW,Alkmaar,Alkmaar,Noord-Holland,VBO,4.795497,52.652971
Otterkoog,16,D,,1822BW,Alkmaar,Alkmaar,Noord-Holland,VBO,4.795565,52.652920
Otterkoog,16,E,,1822BW,Alkmaar,Alkmaar,Noord-Holland,VBO,4.795627,52.652868
Otterkoog,16,F,,1822BW,Alkmaar,Alkmaar,Noord-Holland,VBO,4.795689,52.652820
Otterkoog,16,G,,1822BW,Alkmaar,Alkmaar,Noord-Holland,VBO,4.795494,52.653123
Otterkoog,16,H,,1822BW,Alkmaar,Alkmaar,Noord-Holland,VBO,4.795562,52.653076
Otterkoog,16,I,,1822BW,Alkmaar,Alkmaar,Noord-Holland,VBO,4.795614,52.653027
Otterkoog,16,J,,1822BW,Alkmaar,Alkmaar,Noord-Holland,VBO,4.795686,52.652971
Otterkoog,16,K,,1822BW,Alkmaar,Alkmaar,Noord-Holland,VBO,4.795744,52.652927
Otterkoog,16,L,,1822BW,Alkmaar,Alkmaar,Noord-Holland,VBO,4.795807,52.652868
Otterkoog,17,,,1822BW,Alkmaar,Alkmaar,Noord-Holland,VBO,4.794512,52.653263
Otterkoog,18,A,,1822BW,Alkmaar,Alkmaar,Noord-Holland,VBO,4.795793,52.653250
Otterkoog,18,B,,1822BW,Alkmaar,Alkmaar,Noord-Holland,VBO,4.795852,52.653202
Otterkoog,18,C,,1822BW,Alkmaar,Alkmaar,Noord-Holland,VBO,4.795915,52.653149
Otterkoog,18,D,,1822BW,Alkmaar,Alkmaar,Noord-Holland,VBO,4.795971,52.653101
Otterkoog,18,E,,1822BW,Alkmaar,Alkmaar,Noord-Holland,VBO,4.796034,52.653048
Otterkoog,18,F,,1822BW,Alkmaar,Alkmaar,Noord-Holland,VBO,4.796089,52.653000
Otterkoog,18,G,,1822BW,Alkmaar,Alkmaar,Noord-Holland,VBO,4.796157,52.652950
Otterkoog,18,H,,1822BW,Alkmaar,Alkmaar,Noord-Holland,VBO,4.795906,52.653303
Otterkoog,18,I,,1822BW,Alkmaar,Alkmaar,Noord-Holland,VBO,4.795972,52.653248
Otterkoog,18,J,,1822BW,Alkmaar,Alkmaar,Noord-Holland,VBO,4.796030,52.653206
Otterkoog,18,K,,1822BW,Alkmaar,Alkmaar,Noord-Holland,VBO,4.796096,52.653152
Otterkoog,18,L,,1822BW,Alkmaar,Alkmaar,Noord-Holland,VBO,4.796150,52.653101
Otterkoog,18,M,,1822BW,Alkmaar,Alkmaar,Noord-Holland,VBO,4.796219,52.653052
Otterkoog,18,N,,1822BW,Alkmaar,Alkmaar,Noord-Holland,VBO,4.796275,52.653000
Otterkoog,19,,,1822BW,Alkmaar,Alkmaar,Noord-Holland,VBO,4.794458,52.653307
Otterkoog,20,A,,1822BW,Alkmaar,Alkmaar,Noord-Holland,VBO,4.796188,52.653430
Otterkoog,20,B,,1822BW,Alkmaar,Alkmaar,Noord-Holland,VBO,4.796246,52.653383
Otterkoog,20,C,,1822BW,Alkmaar,Alkmaar,Noord-Holland,VBO,4.796309,52.653330
Otterkoog,20,D,,1822BW,Alkmaar,Alkmaar,Noord-Holland,VBO,4.796370,52.653280
Otterkoog,20,E,,1822BW,Alkmaar,Alkmaar,Noord-Holland,VBO,4.796434,52.653228
Otterkoog,20,F,,1822BW,Alkmaar,Alkmaar,Noord-Holland,VBO,4.796491,52.653180
Otterkoog,20,G,,1822BW,Alkmaar,Alkmaar,Noord-Holland,VBO,4.796557,52.653124
Otterkoog,20,H,,1822BW,Alkmaar,Alkmaar,Noord-Holland,VBO,4.796307,52.653484
Otterkoog,20,I,,1822BW,Alkmaar,Alkmaar,Noord-Holland,VBO,4.796372,52.653434
Otterkoog,20,J,,1822BW,Alkmaar,Alkmaar,Noord-Holland,VBO,4.796429,52.653384
Otterkoog,20,K,,1822BW,Alkmaar,Alkmaar,Noord-Holland,VBO,4.796488,52.653333
Otterkoog,20,L,,1822BW,Alkmaar,Alkmaar,Noord-Holland,VBO,4.796551,52.653282
Otterkoog,20,M,,1822BW,Alkmaar,Alkmaar,Noord-Holland,VBO,4.796611,52.653229
Otterkoog,20,N,,1822BW,Alkmaar,Alkmaar,Noord-Holland,VBO,4.796670,52.653182
Otterkoog,21,,,1822BW,Alkmaar,Alkmaar,Noord-Holland,VBO,4.794402,52.653352
Otterkoog,22,,,1822BW,Alkmaar,Alkmaar,Noord-Holland,VBO,4.796710,52.653547
Otterkoog,23,,,1822BW,Alkmaar,Alkmaar,Noord-Holland,VBO,4.794352,52.653403
Otterkoog,24,,,1822BW,Alkmaar,Alkmaar,Noord-Holland,VBO,4.796994,52.653674
Otterkoog,25,,,1822BW,Alkmaar,Alkmaar,Noord-Holland,VBO,4.794900,52.653230
Otterkoog,26,A,,1822BW,Alkmaar,Alkmaar,Noord-Holland,VBO,4.797222,52.653788
Otterkoog,26,B,,1822BW,Alkmaar,Alkmaar,Noord-Holland,VBO,4.797300,52.653731
Otterkoog,26,C,,1822BW,Alkmaar,Alkmaar,Noord-Holland,VBO,4.797387,52.653682
Otterkoog,26,D,,1822BW,Alkmaar,Alkmaar,Noord-Holland,VBO,4.797296,52.653819
Otterkoog,26,E,,1822BW,Alkmaar,Alkmaar,Noord-Holland,VBO,4.797364,52.653850
Otterkoog,26,F,,1822BW,Alkmaar,Alkmaar,Noord-Holland,VBO,4.797439,52.653771
Otterkoog,27,,,1822BW,Alkmaar,Alkmaar,Noord-Holland,VBO,4.794832,52.653275
Otterkoog,28,A,,1822BW,Alkmaar,Alkmaar,Noord-Holland,VBO,4.797713,52.654105
Otterkoog,28,,,1822BW,Alkmaar,Alkmaar,Noord-Holland,VBO,4.797583,52.654029
Otterkoog,29,,,1822BW,Alkmaar,Alkmaar,Noord-Holland,VBO,4.794789,52.653315
Otterkoog,31,,,1822BW,Alkmaar,Alkmaar,Noord-Holland,VBO,4.794726,52.653357
Otterkoog,32,,,1822BW,Alkmaar,Alkmaar,Noord-Holland,VBO,4.798043,52.654853
Otterkoog,33,,,1822BW,Alkmaar,Alkmaar,Noord-Holland,VBO,4.794680,52.653401
Otterkoog,34,,,1822BW,Alkmaar,Alkmaar,Noord-Holland,VBO,4.797996,52.655078
Otterkoog,35,,,1822BW,Alkmaar,Alkmaar,Noord-Holland,VBO,4.794639,52.653443
Otterkoog,37,,,1822BW,Alkmaar,Alkmaar,Noord-Holland,VBO,4.794582,52.653485
Otterkoog,39,,,1822BW,Alkmaar,Alkmaar,Noord-Holland,VBO,4.794532,52.653530
Otterkoog,41,,,1822BW,Alkmaar,Alkmaar,Noord-Holland,VBO,4.794473,52.653570
Otterkoog,43,,,1822BW,Alkmaar,Alkmaar,Noord-Holland,VBO,4.795124,52.653337
Otterkoog,45,,,1822BW,Alkmaar,Alkmaar,Noord-Holland,VBO,4.795065,52.653380
Otterkoog,47,,,1822BW,Alkmaar,Alkmaar,Noord-Holland,VBO,4.795011,52.653427
Otterkoog,49,,,1822BW,Alkmaar,Alkmaar,Noord-Holland,VBO,4.794955,52.653470
Otterkoog,51,,,1822BW,Alkmaar,Alkmaar,Noord-Holland,VBO,4.794901,52.653515
Otterkoog,53,,,1822BW,Alkmaar,Alkmaar,Noord-Holland,VBO,4.795256,52.653392
Otterkoog,55,,,1822BW,Alkmaar,Alkmaar,Noord-Holland,VBO,4.795195,52.653437
Otterkoog,57,,,1822BW,Alkmaar,Alkmaar,Noord-Holland,VBO,4.795139,52.653482
Otterkoog,59,,,1822BW,Alkmaar,Alkmaar,Noord-Holland,VBO,4.795085,52.653529
Otterkoog,61,,,1822BW,Alkmaar,Alkmaar,Noord-Holland,VBO,4.795010,52.653573
Otterkoog,63,,,1822BW,Alkmaar,Alkmaar,Noord-Holland,VBO,4.795504,52.653517
Otterkoog,65,,,1822BW,Alkmaar,Alkmaar,Noord-Holland,VBO,4.795438,52.653569
Otterkoog,67,,,1822BW,Alkmaar,Alkmaar,Noord-Holland,VBO,4.795376,52.653628
Otterkoog,69,,,1822BW,Alkmaar,Alkmaar,Noord-Holland,VBO,4.795301,52.653685
Otterkoog,71,,,1822BW,Alkmaar,Alkmaar,Noord-Holland,VBO,4.795841,52.653663
Otterkoog,73,,,1822BW,Alkmaar,Alkmaar,Noord-Holland,VBO,4.795786,52.653721
Otterkoog,75,,,1822BW,Alkmaar,Alkmaar,Noord-Holland,VBO,4.795710,52.653776
Otterkoog,77,,,1822BW,Alkmaar,Alkmaar,Noord-Holland,VBO,4.795641,52.653840
Otterkoog,79,,,1822BW,Alkmaar,Alkmaar,Noord-Holland,VBO,4.796494,52.653987
Otterkoog,81,,,1822BX,Alkmaar,Alkmaar,Noord-Holland,VBO,4.796358,52.654059
Otterkoog,83,,,1822BX,Alkmaar,Alkmaar,Noord-Holland,VBO,4.796279,52.654152
Otterkoog,85,,,1822BX,Alkmaar,Alkmaar,Noord-Holland,VBO,4.796160,52.654220
Otterkoog,87,,,1822BX,Alkmaar,Alkmaar,Noord-Holland,VBO,4.796051,52.654294
Otterkoog,89,,,1822BX,Alkmaar,Alkmaar,Noord-Holland,VBO,4.795946,52.654373
Otterkoog,91,A,,1822BX,Alkmaar,Alkmaar,Noord-Holland,VBO,4.796240,52.654360
Otterkoog,91,B,,1822BX,Alkmaar,Alkmaar,Noord-Holland,VBO,4.796127,52.654439
Otterkoog,91,C,,1822BX,Alkmaar,Alkmaar,Noord-Holland,VBO,4.796195,52.654397
Otterkoog,91,D,,1822BX,Alkmaar,Alkmaar,Noord-Holland,VBO,4.796083,52.654474
Otterkoog,93,A,,1822BX,Alkmaar,Alkmaar,Noord-Holland,VBO,4.796466,52.654209
Otterkoog,93,B,,1822BX,Alkmaar,Alkmaar,Noord-Holland,VBO,4.796359,52.654284
Otterkoog,93,C,,1822BX,Alkmaar,Alkmaar,Noord-Holland,VBO,4.796427,52.654242
Otterkoog,93,D,,1822BX,Alkmaar,Alkmaar,Noord-Holland,VBO,4.796304,52.654317
Otterkoog,95,A,,1822BX,Alkmaar,Alkmaar,Noord-Holland,VBO,4.796685,52.654051
Otterkoog,95,B,,1822BX,Alkmaar,Alkmaar,Noord-Holland,VBO,4.796580,52.654126
Otterkoog,95,C,,1822BX,Alkmaar,Alkmaar,Noord-Holland,VBO,4.796635,52.654089
Otterkoog,95,D,,1822BX,Alkmaar,Alkmaar,Noord-Holland,VBO,4.796525,52.654169
Otterkoog,97,A,,1822BX,Alkmaar,Alkmaar,Noord-Holland,VBO,4.796952,52.654161
Otterkoog,97,B,,1822BX,Alkmaar,Alkmaar,Noord-Holland,VBO,4.796857,52.654253
Otterkoog,97,C,,1822BX,Alkmaar,Alkmaar,Noord-Holland,VBO,4.796926,52.654190
Otterkoog,97,D,,1822BX,Alkmaar,Alkmaar,Noord-Holland,VBO,4.796823,52.654296
Otterkoog,99,A,,1822BX,Alkmaar,Alkmaar,Noord-Holland,VBO,4.796770,52.654338
Otterkoog,99,B,,1822BX,Alkmaar,Alkmaar,Noord-Holland,VBO,4.796686,52.654433
Otterkoog,99,C,,1822BX,Alkmaar,Alkmaar,Noord-Holland,VBO,4.796736,52.654380
Otterkoog,99,D,,1822BX,Alkmaar,Alkmaar,Noord-Holland,VBO,4.796648,52.654470
Otterkoog,101,A,,1822BX,Alkmaar,Alkmaar,Noord-Holland,VBO,4.796602,52.654523
Otterkoog,101,B,,1822BX,Alkmaar,Alkmaar,Noord-Holland,VBO,4.796507,52.654605
Otterkoog,101,C,,1822BX,Alkmaar,Alkmaar,Noord-Holland,VBO,4.796551,52.654565
Otterkoog,101,D,,1822BX,Alkmaar,Alkmaar,Noord-Holland,VBO,4.796474,52.654638
Otterkoog,103,,,1822BX,Alkmaar,Alkmaar,Noord-Holland,VBO,4.796659,52.654701
Otterkoog,105,,,1822BX,Alkmaar,Alkmaar,Noord-Holland,VBO,4.796747,52.654612
Otterkoog,107,,,1822BX,Alkmaar,Alkmaar,Noord-Holland,VBO,4.796838,52.654523
Otterkoog,109,,,1822BX,Alkmaar,Alkmaar,Noord-Holland,VBO,4.796922,52.654433
Otterkoog,111,A,,1822BX,Alkmaar,Alkmaar,Noord-Holland,VBO,4.797118,52.654254
Otterkoog,111,,,1822BX,Alkmaar,Alkmaar,Noord-Holland,VBO,4.797001,52.654336
Otterkoog,113,,,1822BX,Alkmaar,Alkmaar,Noord-Holland,VBO,4.797526,52.654455
Otterkoog,115,,,1822BX,Alkmaar,Alkmaar,Noord-Holland,VBO,4.797352,52.654581
Otterkoog,117,,,1822BX,Alkmaar,Alkmaar,Noord-Holland,VBO,4.797206,52.654702
Otterkoog,119,,,1822BX,Alkmaar,Alkmaar,Noord-Holland,VBO,4.797045,52.654828
Otterkoog,121,,,1822BX,Alkmaar,Alkmaar,Noord-Holland,VBO,4.797249,52.654909
Otterkoog,123,,,1822BX,Alkmaar,Alkmaar,Noord-Holland,VBO,4.797395,52.654796
Otterkoog,125,,,1822BX,Alkmaar,Alkmaar,Noord-Holland,VBO,4.797557,52.654668
Otterkoog,127,,,1822BX,Alkmaar,Alkmaar,Noord-Holland,VBO,4.797682,52.654549
Berenkoog,54,,,1822BZ,Alkmaar,Alkmaar,Noord-Holland,VBO,4.793027,52.654548
Berenkoog,56,,,1822BZ,Alkmaar,Alkmaar,Noord-Holland,VBO,4.793447,52.654751
Berenkoog,60,,,1822BZ,Alkmaar,Alkmaar,Noord-Holland,VBO,4.794045,52.654976
Berenkoog,62,,,1822BZ,Alkmaar,Alkmaar,Noord-Holland,VBO,4.794715,52.655409
Berenkoog,64,,,1822BZ,Alkmaar,Alkmaar,Noord-Holland,VBO,4.795550,52.655435
Berenkoog,66,A,,1822BZ,Alkmaar,Alkmaar,Noord-Holland,VBO,4.796439,52.655875
Berenkoog,66,B,,1822BZ,Alkmaar,Alkmaar,Noord-Holland,VBO,4.796560,52.656128
Berenkoog,66,C,,1822BZ,Alkmaar,Alkmaar,Noord-Holland,VBO,4.796432,52.656082
Berenkoog,66,D,,1822BZ,Alkmaar,Alkmaar,Noord-Holland,VBO,4.796715,52.655994
Berenkoog,66,E,,1822BZ,Alkmaar,Alkmaar,Noord-Holland,VBO,4.796641,52.656047
Berenkoog,66,F,,1822BZ,Alkmaar,Alkmaar,Noord-Holland,VBO,4.796851,52.655852
Berenkoog,66,G,,1822BZ,Alkmaar,Alkmaar,Noord-Holland,VBO,4.796904,52.655926
Berenkoog,66,H,,1822BZ,Alkmaar,Alkmaar,Noord-Holland,VBO,4.796941,52.655887
Berenkoog,66,,,1822BZ,Alkmaar,Alkmaar,Noord-Holland,VBO,4.796309,52.655993
Berenkoog,70,,,1822BZ,Alkmaar,Alkmaar,Noord-Holland,VBO,4.796947,52.656268
Berenkoog,72,,,1822BZ,Alkmaar,Alkmaar,Noord-Holland,VBO,4.797073,52.656195
Berenkoog,74,,,1822BZ,Alkmaar,Alkmaar,Noord-Holland,VBO,4.797170,52.656116
Berenkoog,76,,,1822BZ,Alkmaar,Alkmaar,Noord-Holland,VBO,4.797263,52.656039
Berenkoog,78,,,1822BZ,Alkmaar,Alkmaar,Noord-Holland,VBO,4.797085,52.656325
Berenkoog,80,,,1822BZ,Alkmaar,Alkmaar,Noord-Holland,VBO,4.797370,52.656561
Berenkoog,82,,,1822BZ,Alkmaar,Alkmaar,Noord-Holland,VBO,4.797470,52.656484
Berenkoog,84,,,1822BZ,Alkmaar,Alkmaar,Noord-Holland,VBO,4.797633,52.656440
Berenkoog,86,,,1822BZ,Alkmaar,Alkmaar,Noord-Holland,VBO,4.797739,52.656374
Berenkoog,88,,,1822BZ,Alkmaar,Alkmaar,Noord-Holland,VBO,4.797835,52.656303
Berenkoog,90,,,1822BZ,Alkmaar,Alkmaar,Noord-Holland,VBO,4.797595,52.656586
Berenkoog,100,,,1822BZ,Alkmaar,Alkmaar,Noord-Holland,VBO,4.797869,52.656715
Berenkoog,102,,,1822BZ,Alkmaar,Alkmaar,Noord-Holland,VBO,4.798007,52.656777
Berenkoog,104,,,1822BZ,Alkmaar,Alkmaar,Noord-Holland,VBO,4.798136,52.656834
Berenkoog,106,,,1822BZ,Alkmaar,Alkmaar,Noord-Holland,VBO,4.798270,52.656895
Berenkoog,108,,,1822BZ,Alkmaar,Alkmaar,Noord-Holland,VBO,4.798397,52.656950
Berenkoog,110,,,1822BZ,Alkmaar,Alkmaar,Noord-Holland,VBO,4.798536,52.657010
Berenkoog,112,,,1822BZ,Alkmaar,Alkmaar,Noord-Holland,VBO,4.798632,52.656929
Berenkoog,114,,,1822BZ,Alkmaar,Alkmaar,Noord-Holland,VBO,4.798503,52.656874
Berenkoog,116,,,1822BZ,Alkmaar,Alkmaar,Noord-Holland,VBO,4.798370,52.656814
Berenkoog,118,,,1822BZ,Alkmaar,Alkmaar,Noord-Holland,VBO,4.798232,52.656752
Berenkoog,120,,,1822BZ,Alkmaar,Alkmaar,Noord-Holland,VBO,4.798107,52.656695
Berenkoog,122,,,1822BZ,Alkmaar,Alkmaar,Noord-Holland,VBO,4.797975,52.656633
Hermelijnkoog,1,,,1822CA,Alkmaar,Alkmaar,Noord-Holland,VBO,4.791252,52.650473
Hermelijnkoog,3,,,1822CA,Alkmaar,Alkmaar,Noord-Holland,VBO,4.791185,52.650394
Hermelijnkoog,5,,,1822CA,Alkmaar,Alkmaar,Noord-Holland,VBO,4.791230,52.650445
Hermelijnkoog,7,,,1822CA,Alkmaar,Alkmaar,Noord-Holland,VBO,4.791162,52.650365
Hermelijnkoog,9,,,1822CA,Alkmaar,Alkmaar,Noord-Holland,VBO,4.791284,52.650326
Hermelijnkoog,11,,,1822CA,Alkmaar,Alkmaar,Noord-Holland,VBO,4.791428,52.650285
Hermelijnkoog,13,,,1822CA,Alkmaar,Alkmaar,Noord-Holland,VBO,4.791606,52.650240
Hermelijnkoog,15,,,1822CA,Alkmaar,Alkmaar,Noord-Holland,VBO,4.791794,52.650192
Hermelijnkoog,17,,,1822CA,Alkmaar,Alkmaar,Noord-Holland,VBO,4.791940,52.650156
Hermelijnkoog,19,,,1822CA,Alkmaar,Alkmaar,Noord-Holland,VBO,4.792082,52.650162
Hermelijnkoog,21,,,1822CA,Alkmaar,Alkmaar,Noord-Holland,VBO,4.792134,52.650243
Hermelijnkoog,23,,,1822CA,Alkmaar,Alkmaar,Noord-Holland,VBO,4.792059,52.650130
Hermelijnkoog,25,,,1822CA,Alkmaar,Alkmaar,Noord-Holland,VBO,4.792116,52.650213
Hermelijnkoog,27,,,1822CA,Alkmaar,Alkmaar,Noord-Holland,VBO,4.792022,52.650281
Hermelijnkoog,29,,,1822CA,Alkmaar,Alkmaar,Noord-Holland,VBO,4.791868,52.650319
Hermelijnkoog,31,,,1822CA,Alkmaar,Alkmaar,Noord-Holland,VBO,4.791702,52.650366
Hermelijnkoog,33,,,1822CA,Alkmaar,Alkmaar,Noord-Holland,VBO,4.791540,52.650410
Hermelijnkoog,35,,,1822CA,Alkmaar,Alkmaar,Noord-Holland,VBO,4.791383,52.650452
Hermelijnkoog,2,,,1822CB,Alkmaar,Alkmaar,Noord-Holland,VBO,4.790996,52.650133
Hermelijnkoog,4,,,1822CB,Alkmaar,Alkmaar,Noord-Holland,VBO,4.790938,52.650051
Hermelijnkoog,6,,,1822CB,Alkmaar,Alkmaar,Noord-Holland,VBO,4.791018,52.650165
Hermelijnkoog,8,,,1822CB,Alkmaar,Alkmaar,Noord-Holland,VBO,4.790966,52.650080
Hermelijnkoog,10,,,1822CB,Alkmaar,Alkmaar,Noord-Holland,VBO,4.791065,52.650026
Hermelijnkoog,12,,,1822CB,Alkmaar,Alkmaar,Noord-Holland,VBO,4.791224,52.649986
Hermelijnkoog,14,,,1822CB,Alkmaar,Alkmaar,Noord-Holland,VBO,4.791396,52.649940
Hermelijnkoog,16,,,1822CB,Alkmaar,Alkmaar,Noord-Holland,VBO,4.791568,52.649895
Hermelijnkoog,18,,,1822CB,Alkmaar,Alkmaar,Noord-Holland,VBO,4.791721,52.649854
Hermelijnkoog,20,,,1822CB,Alkmaar,Alkmaar,Noord-Holland,VBO,4.791829,52.649820
Hermelijnkoog,22,,,1822CB,Alkmaar,Alkmaar,Noord-Holland,VBO,4.791889,52.649899
Hermelijnkoog,24,,,1822CB,Alkmaar,Alkmaar,Noord-Holland,VBO,4.791852,52.649849
Hermelijnkoog,26,,,1822CB,Alkmaar,Alkmaar,Noord-Holland,VBO,4.791915,52.649930
Hermelijnkoog,28,,,1822CB,Alkmaar,Alkmaar,Noord-Holland,VBO,4.791790,52.649956
Hermelijnkoog,30,,,1822CB,Alkmaar,Alkmaar,Noord-Holland,VBO,4.791636,52.649991
Hermelijnkoog,32,,,1822CB,Alkmaar,Alkmaar,Noord-Holland,VBO,4.791471,52.650038
Hermelijnkoog,34,,,1822CB,Alkmaar,Alkmaar,Noord-Holland,VBO,4.791304,52.650085
Hermelijnkoog,36,,,1822CB,Alkmaar,Alkmaar,Noord-Holland,VBO,4.791146,52.650124
Hermelijnkoog,40,,,1822CB,Alkmaar,Alkmaar,Noord-Holland,VBO,4.791751,52.650914
Hermelijnkoog,44,A,,1822CB,Alkmaar,Alkmaar,Noord-Holland,VBO,4.792597,52.650637
Hermelijnkoog,44,B,,1822CB,Alkmaar,Alkmaar,Noord-Holland,VBO,4.792609,52.650660
Hermelijnkoog,44,,,1822CB,Alkmaar,Alkmaar,Noord-Holland,VBO,4.792587,52.650616
Hermelijnkoog,46,,,1822CB,Alkmaar,Alkmaar,Noord-Holland,VBO,4.792795,52.650532
Hamsterkoog,14,,,1822CC,Alkmaar,Alkmaar,Noord-Holland,VBO,4.797830,52.655175
Hamsterkoog,16,,,1822CC,Alkmaar,Alkmaar,Noord-Holland,VBO,4.798133,52.655283
Hamsterkoog,18,,,1822CC,Alkmaar,Alkmaar,Noord-Holland,VBO,4.798388,52.655467
Hamsterkoog,20,,,1822CC,Alkmaar,Alkmaar,Noord-Holland,VBO,4.798534,52.655571
Hamsterkoog,1,,,1822CD,Alkmaar,Alkmaar,Noord-Holland,VBO,4.796014,52.654830
Hamsterkoog,3,A,,1822CD,Alkmaar,Alkmaar,Noord-Holland,VBO,4.796317,52.654999
Hamsterkoog,3,B,,1822CD,Alkmaar,Alkmaar,Noord-Holland,VBO,4.796255,52.655045
Hamsterkoog,3,C,,1822CD,Alkmaar,Alkmaar,Noord-Holland,VBO,4.796191,52.655107
Hamsterkoog,3,D,,1822CD,Alkmaar,Alkmaar,Noord-Holland,VBO,4.796137,52.655159
Hamsterkoog,3,E,,1822CD,Alkmaar,Alkmaar,Noord-Holland,VBO,4.796294,52.655202
Hamsterkoog,3,F,,1822CD,Alkmaar,Alkmaar,Noord-Holland,VBO,4.796474,52.655048
Hamsterkoog,3,G,,1822CD,Alkmaar,Alkmaar,Noord-Holland,VBO,4.796591,52.655118
Hamsterkoog,3,H,,1822CD,Alkmaar,Alkmaar,Noord-Holland,VBO,4.796519,52.655169
Hamsterkoog,3,I,,1822CD,Alkmaar,Alkmaar,Noord-Holland,VBO,4.796471,52.655225
Hamsterkoog,3,J,,1822CD,Alkmaar,Alkmaar,Noord-Holland,VBO,4.796410,52.655283
Hamsterkoog,3,K,,1822CD,Alkmaar,Alkmaar,Noord-Holland,VBO,4.796422,52.655211
Hamsterkoog,3,L,,1822CD,Alkmaar,Alkmaar,Noord-Holland,VBO,4.796362,52.655265
Hamsterkoog,5,,,1822CD,Alkmaar,Alkmaar,Noord-Holland,VBO,4.796814,52.655393
Hamsterkoog,7,,,1822CD,Alkmaar,Alkmaar,Noord-Holland,VBO,4.797277,52.655605
Hamsterkoog,9,A,,1822CD,Alkmaar,Alkmaar,Noord-Holland,VBO,4.797430,52.655875
Hamsterkoog,9,B,,1822CD,Alkmaar,Alkmaar,Noord-Holland,VBO,4.797390,52.655905
Hamsterkoog,9,,,1822CD,Alkmaar,Alkmaar,Noord-Holland,VBO,4.797700,52.655678
Hamsterkoog,11,A,,1822CD,Alkmaar,Alkmaar,Noord-Holland,VBO,4.798115,52.655772
Hamsterkoog,11,B,,1822CD,Alkmaar,Alkmaar,Noord-Holland,VBO,4.798021,52.655837
Hamsterkoog,11,C,,1822CD,Alkmaar,Alkmaar,Noord-Holland,VBO,4.797924,52.655923
Hamsterkoog,11,D,,1822CD,Alkmaar,Alkmaar,Noord-Holland,VBO,4.797855,52.655991
Hamsterkoog,11,E,,1822CD,Alkmaar,Alkmaar,Noord-Holland,VBO,4.797746,52.656074
Hamsterkoog,11,F,,1822CD,Alkmaar,Alkmaar,Noord-Holland,VBO,4.798251,52.655862
Hamsterkoog,13,A,,1822CD,Alkmaar,Alkmaar,Noord-Holland,VBO,4.798534,52.655992
Hamsterkoog,13,B,,1822CD,Alkmaar,Alkmaar,Noord-Holland,VBO,4.798461,52.656045
Hamsterkoog,13,C,,1822CD,Alkmaar,Alkmaar,Noord-Holland,VBO,4.798394,52.656107
Hamsterkoog,13,D,,1822CD,Alkmaar,Alkmaar,Noord-Holland,VBO,4.798323,52.656165
Hamsterkoog,13,E,,1822CD,Alkmaar,Alkmaar,Noord-Holland,VBO,4.798255,52.656225
Hamsterkoog,13,F,,1822CD,Alkmaar,Alkmaar,Noord-Holland,VBO,4.798192,52.656280
Hamsterkoog,13,G,,1822CD,Alkmaar,Alkmaar,Noord-Holland,VBO,4.798626,52.656088
Hamsterkoog,13,H,,1822CD,Alkmaar,Alkmaar,Noord-Holland,VBO,4.798547,52.656141
Hamsterkoog,13,I,,1822CD,Alkmaar,Alkmaar,Noord-Holland,VBO,4.798488,52.656201
Hamsterkoog,13,J,,1822CD,Alkmaar,Alkmaar,Noord-Holland,VBO,4.798412,52.656260
Hamsterkoog,13,K,,1822CD,Alkmaar,Alkmaar,Noord-Holland,VBO,4.798341,52.656318
Hamsterkoog,13,L,,1822CD,Alkmaar,Alkmaar,Noord-Holland,VBO,4.798286,52.656375
Hamsterkoog,13,M,,1822CD,Alkmaar,Alkmaar,Noord-Holland,VBO,4.798205,52.656430
Hamsterkoog,15,,,1822CD,Alkmaar,Alkmaar,Noord-Holland,VBO,4.798663,52.656466
Hamsterkoog,17,A,,1822CD,Alkmaar,Alkmaar,Noord-Holland,VBO,4.798853,52.656750
Hamsterkoog,17,B,,1822CD,Alkmaar,Alkmaar,Noord-Holland,VBO,4.798756,52.656706
Hamsterkoog,17,C,,1822CD,Alkmaar,Alkmaar,Noord-Holland,VBO,4.798665,52.656664
Hamsterkoog,17,D,,1822CD,Alkmaar,Alkmaar,Noord-Holland,VBO,4.798566,52.656622
Hamsterkoog,17,E,,1822CD,Alkmaar,Alkmaar,Noord-Holland,VBO,4.798471,52.656581
Hamsterkoog,17,F,,1822CD,Alkmaar,Alkmaar,Noord-Holland,VBO,4.798375,52.656539
Achtergeest,2,,,1822DC,Alkmaar,Alkmaar,Noord-Holland,VBO,4.787906,52.653892
Achtergeest,3,A,,1822DC,Alkmaar,Alkmaar,Noord-Holland,VBO,4.788803,52.654381
Achtergeest,3,,,1822DC,Alkmaar,Alkmaar,Noord-Holland,VBO,4.788747,52.654200
Achtergeest,4,,,1822DC,Alkmaar,Alkmaar,Noord-Holland,VBO,4.787832,52.653590
Meander,1,,,1822EA,Alkmaar,Alkmaar,Noord-Holland,VBO,4.776968,52.645751
Meander,2,,,1822EA,Alkmaar,Alkmaar,Noord-Holland,VBO,4.777949,52.645559
Meander,3,,,1822EA,Alkmaar,Alkmaar,Noord-Holland,VBO,4.777188,52.645729
Meander,4,,,1822EA,Alkmaar,Alkmaar,Noord-Holland,VBO,4.777987,52.645674
Meander,5,,,1822EA,Alkmaar,Alkmaar,Noord-Holland,VBO,4.776939,52.645667
Meander,6,,,1822EA,Alkmaar,Alkmaar,Noord-Holland,VBO,4.778072,52.645783
Meander,7,,,1822EA,Alkmaar,Alkmaar,Noord-Holland,VBO,4.777481,52.645640
Meander,8,,,1822EA,Alkmaar,Alkmaar,Noord-Holland,VBO,4.778057,52.646100
Meander,9,,,1822EA,Alkmaar,Alkmaar,Noord-Holland,VBO,4.777568,52.645744
Meander,10,,,1822EA,Alkmaar,Alkmaar,Noord-Holland,VBO,4.778075,52.646153
Meander,11,,,1822EA,Alkmaar,Alkmaar,Noord-Holland,VBO,4.777557,52.645844
Meander,12,,,1822EA,Alkmaar,Alkmaar,Noord-Holland,VBO,4.778138,52.646354
Meander,13,,,1822EA,Alkmaar,Alkmaar,Noord-Holland,VBO,4.777629,52.646036
Meander,14,,,1822EA,Alkmaar,Alkmaar,Noord-Holland,VBO,4.778157,52.646399
Meander,15,,,1822EA,Alkmaar,Alkmaar,Noord-Holland,VBO,4.777671,52.646137
Meander,16,,,1822EA,Alkmaar,Alkmaar,Noord-Holland,VBO,4.778255,52.646653
Meander,17,,,1822EA,Alkmaar,Alkmaar,Noord-Holland,VBO,4.777690,52.646208
Meander,18,,,1822EA,Alkmaar,Alkmaar,Noord-Holland,VBO,4.778277,52.646719
Meander,19,,,1822EA,Alkmaar,Alkmaar,Noord-Holland,VBO,4.777743,52.646300
Meander,20,,,1822EA,Alkmaar,Alkmaar,Noord-Holland,VBO,4.778326,52.646868
Meander,21,,,1822EA,Alkmaar,Alkmaar,Noord-Holland,VBO,4.777736,52.646416
Meander,22,,,1822EA,Alkmaar,Alkmaar,Noord-Holland,VBO,4.778348,52.646934
Meander,23,,,1822EA,Alkmaar,Alkmaar,Noord-Holland,VBO,4.777764,52.646488
Meander,24,,,1822EA,Alkmaar,Alkmaar,Noord-Holland,VBO,4.778515,52.647500
Meander,25,,,1822EA,Alkmaar,Alkmaar,Noord-Holland,VBO,4.777837,52.646583
Meander,27,,,1822EA,Alkmaar,Alkmaar,Noord-Holland,VBO,4.777834,52.646703
Meander,29,,,1822EA,Alkmaar,Alkmaar,Noord-Holland,VBO,4.777892,52.646817
Meander,31,,,1822EA,Alkmaar,Alkmaar,Noord-Holland,VBO,4.777944,52.646914
Meander,33,,,1822EA,Alkmaar,Alkmaar,Noord-Holland,VBO,4.777965,52.646986
Meander,35,,,1822EA,Alkmaar,Alkmaar,Noord-Holland,VBO,4.777988,52.647085
Meander,37,,,1822EA,Alkmaar,Alkmaar,Noord-Holland,VBO,4.777993,52.647191
Meander,39,,,1822EA,Alkmaar,Alkmaar,Noord-Holland,VBO,4.778022,52.647262
Meander,41,,,1822EA,Alkmaar,Alkmaar,Noord-Holland,VBO,4.778096,52.647349
Schelpenbank,1,,,1822EB,Alkmaar,Alkmaar,Noord-Holland,VBO,4.778156,52.646115
Schelpenbank,2,,,1822EB,Alkmaar,Alkmaar,Noord-Holland,VBO,4.779298,52.645847
Schelpenbank,3,,,1822EB,Alkmaar,Alkmaar,Noord-Holland,VBO,4.778230,52.646106
Schelpenbank,4,,,1822EB,Alkmaar,Alkmaar,Noord-Holland,VBO,4.779305,52.645942
Schelpenbank,5,,,1822EB,Alkmaar,Alkmaar,Noord-Holland,VBO,4.778304,52.646097
Schelpenbank,6,,,1822EB,Alkmaar,Alkmaar,Noord-Holland,VBO,4.779324,52.646013
Schelpenbank,7,,,1822EB,Alkmaar,Alkmaar,Noord-Holland,VBO,4.778378,52.646088
Schelpenbank,8,,,1822EB,Alkmaar,Alkmaar,Noord-Holland,VBO,4.779404,52.646109
Schelpenbank,9,,,1822EB,Alkmaar,Alkmaar,Noord-Holland,VBO,4.778455,52.646079
Schelpenbank,10,,,1822EB,Alkmaar,Alkmaar,Noord-Holland,VBO,4.779409,52.646201
Schelpenbank,11,,,1822EB,Alkmaar,Alkmaar,Noord-Holland,VBO,4.778562,52.646066
Schelpenbank,12,,,1822EB,Alkmaar,Alkmaar,Noord-Holland,VBO,4.779434,52.646274
Schelpenbank,13,,,1822EB,Alkmaar,Alkmaar,Noord-Holland,VBO,4.778638,52.646056
Schelpenbank,14,,,1822EB,Alkmaar,Alkmaar,Noord-Holland,VBO,4.779491,52.646363
Schelpenbank,15,,,1822EB,Alkmaar,Alkmaar,Noord-Holland,VBO,4.778712,52.646047
Schelpenbank,16,,,1822EB,Alkmaar,Alkmaar,Noord-Holland,VBO,4.779703,52.647078
Schelpenbank,17,,,1822EB,Alkmaar,Alkmaar,Noord-Holland,VBO,4.778786,52.646038
Schelpenbank,18,,,1822EB,Alkmaar,Alkmaar,Noord-Holland,VBO,4.779739,52.647143
Schelpenbank,19,,,1822EB,Alkmaar,Alkmaar,Noord-Holland,VBO,4.778861,52.646029
Schelpenbank,20,,,1822EB,Alkmaar,Alkmaar,Noord-Holland,VBO,4.779743,52.647343
Schelpenbank,21,,,1822EB,Alkmaar,Alkmaar,Noord-Holland,VBO,4.778941,52.645991
Schelpenbank,23,,,1822EB,Alkmaar,Alkmaar,Noord-Holland,VBO,4.778959,52.646044
Schelpenbank,25,,,1822EB,Alkmaar,Alkmaar,Noord-Holland,VBO,4.779018,52.646243
Schelpenbank,27,,,1822EB,Alkmaar,Alkmaar,Noord-Holland,VBO,4.779041,52.646291
Schelpenbank,29,,,1822EB,Alkmaar,Alkmaar,Noord-Holland,VBO,4.779112,52.646548
Schelpenbank,31,,,1822EB,Alkmaar,Alkmaar,Noord-Holland,VBO,4.779134,52.646614
Schelpenbank,33,,,1822EB,Alkmaar,Alkmaar,Noord-Holland,VBO,4.779413,52.647390
Wierde,2,,,1822EC,Alkmaar,Alkmaar,Noord-Holland,VBO,4.778237,52.646362
Wierde,4,,,1822EC,Alkmaar,Alkmaar,Noord-Holland,VBO,4.778312,52.646353
Wierde,6,,,1822EC,Alkmaar,Alkmaar,Noord-Holland,VBO,4.778386,52.646344
Wierde,8,,,1822EC,Alkmaar,Alkmaar,Noord-Holland,VBO,4.778460,52.646335
Wierde,10,,,1822EC,Alkmaar,Alkmaar,Noord-Holland,VBO,4.778529,52.646326
Wierde,12,,,1822EC,Alkmaar,Alkmaar,Noord-Holland,VBO,4.778643,52.646312
Wierde,14,,,1822EC,Alkmaar,Alkmaar,Noord-Holland,VBO,4.778720,52.646303
Wierde,16,,,1822EC,Alkmaar,Alkmaar,Noord-Holland,VBO,4.778794,52.646294
Wierde,18,,,1822EC,Alkmaar,Alkmaar,Noord-Holland,VBO,4.778868,52.646285
Wierde,20,,,1822EC,Alkmaar,Alkmaar,Noord-Holland,VBO,4.778942,52.646275
Terp,1,,,1822ED,Alkmaar,Alkmaar,Noord-Holland,VBO,4.778420,52.647216
Terp,2,,,1822ED,Alkmaar,Alkmaar,Noord-Holland,VBO,4.778449,52.646922
Terp,3,,,1822ED,Alkmaar,Alkmaar,Noord-Holland,VBO,4.778500,52.647206
Terp,4,,,1822ED,Alkmaar,Alkmaar,Noord-Holland,VBO,4.778431,52.646861
Terp,5,,,1822ED,Alkmaar,Alkmaar,Noord-Holland,VBO,4.778578,52.647196
Terp,6,,,1822ED,Alkmaar,Alkmaar,Noord-Holland,VBO,4.778376,52.646708
Terp,7,,,1822ED,Alkmaar,Alkmaar,Noord-Holland,VBO,4.778656,52.647187
Terp,8,,,1822ED,Alkmaar,Alkmaar,Noord-Holland,VBO,4.778358,52.646642
Terp,9,,,1822ED,Alkmaar,Alkmaar,Noord-Holland,VBO,4.778734,52.647177
Terp,10,,,1822ED,Alkmaar,Alkmaar,Noord-Holland,VBO,4.779003,52.646561
Terp,11,,,1822ED,Alkmaar,Alkmaar,Noord-Holland,VBO,4.778814,52.647167
Terp,12,,,1822ED,Alkmaar,Alkmaar,Noord-Holland,VBO,4.779021,52.646630
Terp,13,,,1822ED,Alkmaar,Alkmaar,Noord-Holland,VBO,4.778924,52.647154
Terp,14,A,,1822ED,Alkmaar,Alkmaar,Noord-Holland,VBO,4.779096,52.646842
Terp,14,B,,1822ED,Alkmaar,Alkmaar,Noord-Holland,VBO,4.779205,52.646828
Terp,14,C,,1822ED,Alkmaar,Alkmaar,Noord-Holland,VBO,4.779074,52.646776
Terp,14,D,,1822ED,Alkmaar,Alkmaar,Noord-Holland,VBO,4.779183,52.646762
Terp,15,,,1822ED,Alkmaar,Alkmaar,Noord-Holland,VBO,4.779004,52.647144
Terp,17,,,1822ED,Alkmaar,Alkmaar,Noord-Holland,VBO,4.779083,52.647134
Terp,19,,,1822ED,Alkmaar,Alkmaar,Noord-Holland,VBO,4.779163,52.647123
Terp,21,,,1822ED,Alkmaar,Alkmaar,Noord-Holland,VBO,4.779234,52.647116
Terp,23,,,1822ED,Alkmaar,Alkmaar,Noord-Holland,VBO,4.779319,52.647106
Stuwwal,2,,,1822EE,Alkmaar,Alkmaar,Noord-Holland,VBO,4.777943,52.647570
Stuwwal,4,,,1822EE,Alkmaar,Alkmaar,Noord-Holland,VBO,4.778032,52.647559
Stuwwal,8,,,1822EE,Alkmaar,Alkmaar,Noord-Holland,VBO,4.778207,52.647538
Stuwwal,10,,,1822EE,Alkmaar,Alkmaar,Noord-Holland,VBO,4.778597,52.647485
Stuwwal,12,,,1822EE,Alkmaar,Alkmaar,Noord-Holland,VBO,4.778686,52.647473
Stuwwal,14,,,1822EE,Alkmaar,Alkmaar,Noord-Holland,VBO,4.778771,52.647464
Stuwwal,16,,,1822EE,Alkmaar,Alkmaar,Noord-Holland,VBO,4.778852,52.647454
Stuwwal,18,,,1822EE,Alkmaar,Alkmaar,Noord-Holland,VBO,4.779065,52.647428
Stuwwal,20,,,1822EE,Alkmaar,Alkmaar,Noord-Holland,VBO,4.779153,52.647417
Stuwwal,22,,,1822EE,Alkmaar,Alkmaar,Noord-Holland,VBO,4.779234,52.647406
Stuwwal,24,,,1822EE,Alkmaar,Alkmaar,Noord-Holland,VBO,4.779323,52.647395
Stuwwal,26,,,1822EE,Alkmaar,Alkmaar,Noord-Holland,VBO,4.779832,52.647333
Stuwwal,28,,,1822EE,Alkmaar,Alkmaar,Noord-Holland,VBO,4.779920,52.647323
Stuwwal,30,,,1822EE,Alkmaar,Alkmaar,Noord-Holland,VBO,4.780007,52.647312
Stuwwal,32,,,1822EE,Alkmaar,Alkmaar,Noord-Holland,VBO,4.780092,52.647303
Stuwwal,34,,,1822EE,Alkmaar,Alkmaar,Noord-Holland,VBO,4.780324,52.647085
Stuwwal,36,,,1822EE,Alkmaar,Alkmaar,Noord-Holland,VBO,4.780304,52.646987
Stuwwal,38,,,1822EE,Alkmaar,Alkmaar,Noord-Holland,VBO,4.780392,52.647255
Stuwwal,40,,,1822EE,Alkmaar,Alkmaar,Noord-Holland,VBO,4.780474,52.647248
Stuwwal,42,,,1822EE,Alkmaar,Alkmaar,Noord-Holland,VBO,4.780568,52.647233
Stuwwal,44,,,1822EE,Alkmaar,Alkmaar,Noord-Holland,VBO,4.780655,52.647223
Stuwwal,46,,,1822EE,Alkmaar,Alkmaar,Noord-Holland,VBO,4.780745,52.647216
Branding,1,,,1822EG,Alkmaar,Alkmaar,Noord-Holland,VBO,4.778844,52.647845
Branding,3,,,1822EG,Alkmaar,Alkmaar,Noord-Holland,VBO,4.778859,52.647901
Branding,4,A,,1822EG,Alkmaar,Alkmaar,Noord-Holland,VBO,4.779861,52.649426
Branding,4,,,1822EG,Alkmaar,Alkmaar,Noord-Holland,VBO,4.779845,52.649377
Branding,5,,,1822EG,Alkmaar,Alkmaar,Noord-Holland,VBO,4.778870,52.647952
Branding,6,,,1822EG,Alkmaar,Alkmaar,Noord-Holland,VBO,4.779877,52.649473
Branding,8,,,1822EG,Alkmaar,Alkmaar,Noord-Holland,VBO,4.779894,52.649521
Branding,10,,,1822EG,Alkmaar,Alkmaar,Noord-Holland,VBO,4.779910,52.649569
Branding,11,,,1822EG,Alkmaar,Alkmaar,Noord-Holland,VBO,4.778959,52.648127
Branding,12,,,1822EG,Alkmaar,Alkmaar,Noord-Holland,VBO,4.779938,52.649710
Branding,13,,,1822EG,Alkmaar,Alkmaar,Noord-Holland,VBO,4.778972,52.648175
Branding,14,,,1822EG,Alkmaar,Alkmaar,Noord-Holland,VBO,4.780009,52.649736
Branding,15,,,1822EG,Alkmaar,Alkmaar,Noord-Holland,VBO,4.778992,52.648217
Branding,16,,,1822EG,Alkmaar,Alkmaar,Noord-Holland,VBO,4.780072,52.649765
Branding,17,,,1822EG,Alkmaar,Alkmaar,Noord-Holland,VBO,4.779004,52.648263
Branding,18,,,1822EG,Alkmaar,Alkmaar,Noord-Holland,VBO,4.780142,52.649789
Branding,19,,,1822EG,Alkmaar,Alkmaar,Noord-Holland,VBO,4.779015,52.648307
Branding,20,,,1822EG,Alkmaar,Alkmaar,Noord-Holland,VBO,4.780209,52.649820
Branding,21,,,1822EG,Alkmaar,Alkmaar,Noord-Holland,VBO,4.779017,52.648387
Branding,22,,,1822EG,Alkmaar,Alkmaar,Noord-Holland,VBO,4.780302,52.649861
Branding,23,,,1822EG,Alkmaar,Alkmaar,Noord-Holland,VBO,4.779029,52.648437
Branding,24,,,1822EG,Alkmaar,Alkmaar,Noord-Holland,VBO,4.780364,52.649891
Branding,25,,,1822EG,Alkmaar,Alkmaar,Noord-Holland,VBO,4.779034,52.648493
Branding,26,,,1822EG,Alkmaar,Alkmaar,Noord-Holland,VBO,4.780431,52.649919
Branding,27,,,1822EG,Alkmaar,Alkmaar,Noord-Holland,VBO,4.779050,52.648548
Branding,28,,,1822EG,Alkmaar,Alkmaar,Noord-Holland,VBO,4.780496,52.649947
Branding,29,,,1822EG,Alkmaar,Alkmaar,Noord-Holland,VBO,4.779075,52.648600
Branding,30,,,1822EG,Alkmaar,Alkmaar,Noord-Holland,VBO,4.780566,52.649980
Branding,31,,,1822EG,Alkmaar,Alkmaar,Noord-Holland,VBO,4.779143,52.648778
Branding,32,,,1822EG,Alkmaar,Alkmaar,Noord-Holland,VBO,4.781065,52.650194
Branding,33,,,1822EG,Alkmaar,Alkmaar,Noord-Holland,VBO,4.779207,52.648884
Branding,34,,,1822EG,Alkmaar,Alkmaar,Noord-Holland,VBO,4.781133,52.650223
Branding,35,,,1822EG,Alkmaar,Alkmaar,Noord-Holland,VBO,4.779222,52.648938
Branding,36,,,1822EG,Alkmaar,Alkmaar,Noord-Holland,VBO,4.781196,52.650251
Branding,37,,,1822EG,Alkmaar,Alkmaar,Noord-Holland,VBO,4.779240,52.649051
Branding,38,,,1822EG,Alkmaar,Alkmaar,Noord-Holland,VBO,4.781258,52.650281
Branding,40,,,1822EG,Alkmaar,Alkmaar,Noord-Holland,VBO,4.781326,52.650310
Branding,42,,,1822EG,Alkmaar,Alkmaar,Noord-Holland,VBO,4.781420,52.650353
Branding,44,,,1822EG,Alkmaar,Alkmaar,Noord-Holland,VBO,4.781488,52.650383
Branding,46,,,1822EG,Alkmaar,Alkmaar,Noord-Holland,VBO,4.781549,52.650411
Branding,48,,,1822EG,Alkmaar,Alkmaar,Noord-Holland,VBO,4.781617,52.650442
Branding,50,,,1822EG,Alkmaar,Alkmaar,Noord-Holland,VBO,4.781679,52.650472
Branding,52,,,1822EG,Alkmaar,Alkmaar,Noord-Holland,VBO,4.782158,52.650692
Branding,54,,,1822EG,Alkmaar,Alkmaar,Noord-Holland,VBO,4.782222,52.650717
Branding,56,,,1822EG,Alkmaar,Alkmaar,Noord-Holland,VBO,4.782289,52.650748
Branding,58,,,1822EG,Alkmaar,Alkmaar,Noord-Holland,VBO,4.782358,52.650774
Branding,60,,,1822EG,Alkmaar,Alkmaar,Noord-Holland,VBO,4.782421,52.650804
Branding,62,,,1822EG,Alkmaar,Alkmaar,Noord-Holland,VBO,4.782518,52.650844
Branding,64,,,1822EG,Alkmaar,Alkmaar,Noord-Holland,VBO,4.782584,52.650872
Branding,66,,,1822EG,Alkmaar,Alkmaar,Noord-Holland,VBO,4.782648,52.650903
Branding,68,,,1822EG,Alkmaar,Alkmaar,Noord-Holland,VBO,4.782710,52.650931
Branding,70,,,1822EG,Alkmaar,Alkmaar,Noord-Holland,VBO,4.782781,52.650958
Getij,1,,,1822EH,Alkmaar,Alkmaar,Noord-Holland,VBO,4.780280,52.649189
Getij,2,,,1822EH,Alkmaar,Alkmaar,Noord-Holland,VBO,4.780778,52.649291
Getij,3,,,1822EH,Alkmaar,Alkmaar,Noord-Holland,VBO,4.780297,52.649237
Getij,4,,,1822EH,Alkmaar,Alkmaar,Noord-Holland,VBO,4.780796,52.649409
Getij,5,,,1822EH,Alkmaar,Alkmaar,Noord-Holland,VBO,4.780313,52.649285
Getij,6,,,1822EH,Alkmaar,Alkmaar,Noord-Holland,VBO,4.780813,52.649457
Getij,7,,,1822EH,Alkmaar,Alkmaar,Noord-Holland,VBO,4.780329,52.649332
Getij,8,,,1822EH,Alkmaar,Alkmaar,Noord-Holland,VBO,4.780873,52.649565
Getij,9,,,1822EH,Alkmaar,Alkmaar,Noord-Holland,VBO,4.780345,52.649381
Getij,10,,,1822EH,Alkmaar,Alkmaar,Noord-Holland,VBO,4.780890,52.649614
Getij,11,,,1822EH,Alkmaar,Alkmaar,Noord-Holland,VBO,4.780401,52.649488
Getij,12,,,1822EH,Alkmaar,Alkmaar,Noord-Holland,VBO,4.780906,52.649661
Getij,13,,,1822EH,Alkmaar,Alkmaar,Noord-Holland,VBO,4.780425,52.649560
Getij,14,,,1822EH,Alkmaar,Alkmaar,Noord-Holland,VBO,4.780922,52.649709
Getij,15,,,1822EH,Alkmaar,Alkmaar,Noord-Holland,VBO,4.780505,52.649670
Getij,16,,,1822EH,Alkmaar,Alkmaar,Noord-Holland,VBO,4.780938,52.649757
Getij,18,,,1822EH,Alkmaar,Alkmaar,Noord-Holland,VBO,4.780954,52.649903
Getij,20,,,1822EH,Alkmaar,Alkmaar,Noord-Holland,VBO,4.781006,52.650021
Getij,22,,,1822EH,Alkmaar,Alkmaar,Noord-Holland,VBO,4.781023,52.650074
Kwelder,1,,,1822EJ,Alkmaar,Alkmaar,Noord-Holland,VBO,4.781227,52.649263
Kwelder,3,,,1822EJ,Alkmaar,Alkmaar,Noord-Holland,VBO,4.781308,52.649373
Kwelder,5,,,1822EJ,Alkmaar,Alkmaar,Noord-Holland,VBO,4.781325,52.649423
Kwelder,7,,,1822EJ,Alkmaar,Alkmaar,Noord-Holland,VBO,4.781342,52.649540
Kwelder,9,,,1822EJ,Alkmaar,Alkmaar,Noord-Holland,VBO,4.781359,52.649588
Kwelder,11,,,1822EJ,Alkmaar,Alkmaar,Noord-Holland,VBO,4.781375,52.649636
Kwelder,13,,,1822EJ,Alkmaar,Alkmaar,Noord-Holland,VBO,4.781391,52.649683
Kwelder,15,,,1822EJ,Alkmaar,Alkmaar,Noord-Holland,VBO,4.781407,52.649732
Kwelder,17,,,1822EJ,Alkmaar,Alkmaar,Noord-Holland,VBO,4.781478,52.649832
Kwelder,19,,,1822EJ,Alkmaar,Alkmaar,Noord-Holland,VBO,4.781503,52.649906
Kwelder,23,,,1822EJ,Alkmaar,Alkmaar,Noord-Holland,VBO,4.781618,52.650155
Haakwal,1,,,1822EK,Alkmaar,Alkmaar,Noord-Holland,VBO,4.782291,52.649850
Haakwal,3,,,1822EK,Alkmaar,Alkmaar,Noord-Holland,VBO,4.782375,52.649979
Haakwal,5,,,1822EK,Alkmaar,Alkmaar,Noord-Holland,VBO,4.782427,52.650132
Haakwal,7,,,1822EK,Alkmaar,Alkmaar,Noord-Holland,VBO,4.782536,52.650231
Haakwal,9,,,1822EK,Alkmaar,Alkmaar,Noord-Holland,VBO,4.782584,52.650350
Haakwal,10,,,1822EK,Alkmaar,Alkmaar,Noord-Holland,VBO,4.782407,52.649484
Haakwal,11,,,1822EK,Alkmaar,Alkmaar,Noord-Holland,VBO,4.782635,52.650479
Haakwal,12,,,1822EK,Alkmaar,Alkmaar,Noord-Holland,VBO,4.782449,52.649530
Haakwal,13,,,1822EK,Alkmaar,Alkmaar,Noord-Holland,VBO,4.782722,52.650647
Haakwal,16,,,1822EK,Alkmaar,Alkmaar,Noord-Holland,VBO,4.782596,52.649765
Haakwal,18,,,1822EK,Alkmaar,Alkmaar,Noord-Holland,VBO,4.782632,52.649819
Haakwal,40,,,1822EK,Alkmaar,Alkmaar,Noord-Holland,VBO,4.783218,52.650922
Haakwal,42,,,1822EK,Alkmaar,Alkmaar,Noord-Holland,VBO,4.783236,52.650977
Simon Vestdijkstraat,1,,,1822JA,Alkmaar,Alkmaar,Noord-Holland,VBO,4.771587,52.649163
Simon Vestdijkstraat,2,,,1822JA,Alkmaar,Alkmaar,Noord-Holland,VBO,4.771411,52.648944
Simon Vestdijkstraat,3,,,1822JA,Alkmaar,Alkmaar,Noord-Holland,VBO,4.771621,52.649234
Simon Vestdijkstraat,4,,,1822JA,Alkmaar,Alkmaar,Noord-Holland,VBO,4.771580,52.648909
Simon Vestdijkstraat,5,,,1822JA,Alkmaar,Alkmaar,Noord-Holland,VBO,4.771659,52.649316
Simon Vestdijkstraat,6,,,1822JA,Alkmaar,Alkmaar,Noord-Holland,VBO,4.771740,52.648867
Simon Vestdijkstraat,7,,,1822JA,Alkmaar,Alkmaar,Noord-Holland,VBO,4.771691,52.649385
Simon Vestdijkstraat,8,,,1822JA,Alkmaar,Alkmaar,Noord-Holland,VBO,4.771906,52.648827
Simon Vestdijkstraat,9,,,1822JA,Alkmaar,Alkmaar,Noord-Holland,VBO,4.772051,52.649325
Simon Vestdijkstraat,10,,,1822JA,Alkmaar,Alkmaar,Noord-Holland,VBO,4.772064,52.648786
Simon Vestdijkstraat,11,,,1822JA,Alkmaar,Alkmaar,Noord-Holland,VBO,4.772024,52.649261
Simon Vestdijkstraat,12,,,1822JA,Alkmaar,Alkmaar,Noord-Holland,VBO,4.772227,52.648740
Simon Vestdijkstraat,13,,,1822JA,Alkmaar,Alkmaar,Noord-Holland,VBO,4.771985,52.649172
Simon Vestdijkstraat,14,,,1822JA,Alkmaar,Alkmaar,Noord-Holland,VBO,4.772380,52.648697
Simon Vestdijkstraat,15,,,1822JA,Alkmaar,Alkmaar,Noord-Holland,VBO,4.771957,52.649107
Simon Vestdijkstraat,16,,,1822JA,Alkmaar,Alkmaar,Noord-Holland,VBO,4.772538,52.648650
Simon Vestdijkstraat,17,,,1822JA,Alkmaar,Alkmaar,Noord-Holland,VBO,4.772426,52.649028
Simon Vestdijkstraat,18,,,1822JA,Alkmaar,Alkmaar,Noord-Holland,VBO,4.772696,52.648597
Simon Vestdijkstraat,19,,,1822JA,Alkmaar,Alkmaar,Noord-Holland,VBO,4.772453,52.649094
Simon Vestdijkstraat,20,,,1822JA,Alkmaar,Alkmaar,Noord-Holland,VBO,4.772852,52.648544
Simon Vestdijkstraat,21,,,1822JA,Alkmaar,Alkmaar,Noord-Holland,VBO,4.772494,52.649181
Simon Vestdijkstraat,22,,,1822JA,Alkmaar,Alkmaar,Noord-Holland,VBO,4.773010,52.648490
Simon Vestdijkstraat,23,,,1822JA,Alkmaar,Alkmaar,Noord-Holland,VBO,4.772524,52.649242
Simon Vestdijkstraat,25,,,1822JA,Alkmaar,Alkmaar,Noord-Holland,VBO,4.772887,52.649184
Simon Vestdijkstraat,27,,,1822JA,Alkmaar,Alkmaar,Noord-Holland,VBO,4.772857,52.649125
Simon Vestdijkstraat,29,,,1822JA,Alkmaar,Alkmaar,Noord-Holland,VBO,4.772817,52.649031
Simon Vestdijkstraat,31,,,1822JA,Alkmaar,Alkmaar,Noord-Holland,VBO,4.772786,52.648970
Simon Vestdijkstraat,33,,,1822JA,Alkmaar,Alkmaar,Noord-Holland,VBO,4.773258,52.648888
Simon Vestdijkstraat,35,,,1822JA,Alkmaar,Alkmaar,Noord-Holland,VBO,4.773286,52.648952
Simon Vestdijkstraat,37,,,1822JA,Alkmaar,Alkmaar,Noord-Holland,VBO,4.773327,52.649043
Simon Vestdijkstraat,39,,,1822JA,Alkmaar,Alkmaar,Noord-Holland,VBO,4.773355,52.649103
Simon Vestdijkstraat,41,,,1822JA,Alkmaar,Alkmaar,Noord-Holland,VBO,4.773724,52.649048
Simon Vestdijkstraat,43,,,1822JA,Alkmaar,Alkmaar,Noord-Holland,VBO,4.773693,52.648978
Simon Vestdijkstraat,45,,,1822JA,Alkmaar,Alkmaar,Noord-Holland,VBO,4.773652,52.648891
Simon Vestdijkstraat,47,,,1822JA,Alkmaar,Alkmaar,Noord-Holland,VBO,4.773624,52.648827
Bordewijkstraat,1,,,1822JB,Alkmaar,Alkmaar,Noord-Holland,VBO,4.771971,52.650027
Bordewijkstraat,2,,,1822JB,Alkmaar,Alkmaar,Noord-Holland,VBO,4.771821,52.649786
Bordewijkstraat,3,,,1822JB,Alkmaar,Alkmaar,Noord-Holland,VBO,4.772005,52.650095
Bordewijkstraat,4,,,1822JB,Alkmaar,Alkmaar,Noord-Holland,VBO,4.771986,52.649760
Bordewijkstraat,5,,,1822JB,Alkmaar,Alkmaar,Noord-Holland,VBO,4.772043,52.650184
Bordewijkstraat,6,,,1822JB,Alkmaar,Alkmaar,Noord-Holland,VBO,4.772119,52.649738
Bordewijkstraat,7,,,1822JB,Alkmaar,Alkmaar,Noord-Holland,VBO,4.772076,52.650254
Bordewijkstraat,8,,,1822JB,Alkmaar,Alkmaar,Noord-Holland,VBO,4.772282,52.649709
Bordewijkstraat,9,,,1822JB,Alkmaar,Alkmaar,Noord-Holland,VBO,4.772114,52.650336
Bordewijkstraat,10,,,1822JB,Alkmaar,Alkmaar,Noord-Holland,VBO,4.772662,52.649650
Bordewijkstraat,11,,,1822JB,Alkmaar,Alkmaar,Noord-Holland,VBO,4.772499,52.650273
Bordewijkstraat,12,,,1822JB,Alkmaar,Alkmaar,Noord-Holland,VBO,4.772830,52.649622
Bordewijkstraat,13,,,1822JB,Alkmaar,Alkmaar,Noord-Holland,VBO,4.772458,52.650189
Bordewijkstraat,14,,,1822JB,Alkmaar,Alkmaar,Noord-Holland,VBO,4.772957,52.649598
Bordewijkstraat,15,,,1822JB,Alkmaar,Alkmaar,Noord-Holland,VBO,4.772430,52.650120
Bordewijkstraat,16,,,1822JB,Alkmaar,Alkmaar,Noord-Holland,VBO,4.773115,52.649573
Bordewijkstraat,17,,,1822JB,Alkmaar,Alkmaar,Noord-Holland,VBO,4.772387,52.650032
Bordewijkstraat,18,,,1822JB,Alkmaar,Alkmaar,Noord-Holland,VBO,4.773493,52.649509
Bordewijkstraat,19,,,1822JB,Alkmaar,Alkmaar,Noord-Holland,VBO,4.772363,52.649965
Bordewijkstraat,20,,,1822JB,Alkmaar,Alkmaar,Noord-Holland,VBO,4.773655,52.649482
Bordewijkstraat,21,,,1822JB,Alkmaar,Alkmaar,Noord-Holland,VBO,4.772810,52.649888
Bordewijkstraat,22,,,1822JB,Alkmaar,Alkmaar,Noord-Holland,VBO,4.773794,52.649459
Bordewijkstraat,23,,,1822JB,Alkmaar,Alkmaar,Noord-Holland,VBO,4.772845,52.649951
Bordewijkstraat,24,,,1822JB,Alkmaar,Alkmaar,Noord-Holland,VBO,4.773942,52.649433
Bordewijkstraat,25,,,1822JB,Alkmaar,Alkmaar,Noord-Holland,VBO,4.772883,52.650040
Bordewijkstraat,27,,,1822JB,Alkmaar,Alkmaar,Noord-Holland,VBO,4.772918,52.650108
Bordewijkstraat,29,,,1822JB,Alkmaar,Alkmaar,Noord-Holland,VBO,4.772953,52.650201
Bordewijkstraat,31,,,1822JB,Alkmaar,Alkmaar,Noord-Holland,VBO,4.773334,52.650136
Bordewijkstraat,33,,,1822JB,Alkmaar,Alkmaar,Noord-Holland,VBO,4.773289,52.650045
Bordewijkstraat,35,,,1822JB,Alkmaar,Alkmaar,Noord-Holland,VBO,4.773261,52.649981
Bordewijkstraat,37,,,1822JB,Alkmaar,Alkmaar,Noord-Holland,VBO,4.773218,52.649890
Bordewijkstraat,39,,,1822JB,Alkmaar,Alkmaar,Noord-Holland,VBO,4.773193,52.649824
Bordewijkstraat,41,,,1822JB,Alkmaar,Alkmaar,Noord-Holland,VBO,4.773638,52.649745
Bordewijkstraat,43,,,1822JB,Alkmaar,Alkmaar,Noord-Holland,VBO,4.773673,52.649810
Bordewijkstraat,45,,,1822JB,Alkmaar,Alkmaar,Noord-Holland,VBO,4.773710,52.649903
Bordewijkstraat,47,,,1822JB,Alkmaar,Alkmaar,Noord-Holland,VBO,4.773746,52.649968
Bordewijkstraat,49,,,1822JB,Alkmaar,Alkmaar,Noord-Holland,VBO,4.773783,52.650058
Bordewijkstraat,51,,,1822JB,Alkmaar,Alkmaar,Noord-Holland,VBO,4.774146,52.649970
Bordewijkstraat,53,,,1822JB,Alkmaar,Alkmaar,Noord-Holland,VBO,4.774075,52.649819
Bordewijkstraat,55,,,1822JB,Alkmaar,Alkmaar,Noord-Holland,VBO,4.774007,52.649672
Jan Greshoffstraat,1,,,1822JC,Alkmaar,Alkmaar,Noord-Holland,VBO,4.772358,52.651103
Jan Greshoffstraat,2,,,1822JC,Alkmaar,Alkmaar,Noord-Holland,VBO,4.772187,52.650713
Jan Greshoffstraat,3,,,1822JC,Alkmaar,Alkmaar,Noord-Holland,VBO,4.772550,52.651069
Jan Greshoffstraat,4,,,1822JC,Alkmaar,Alkmaar,Noord-Holland,VBO,4.772309,52.650695
Jan Greshoffstraat,5,,,1822JC,Alkmaar,Alkmaar,Noord-Holland,VBO,4.772743,52.651038
Jan Greshoffstraat,6,,,1822JC,Alkmaar,Alkmaar,Noord-Holland,VBO,4.772449,52.650674
Jan Greshoffstraat,7,,,1822JC,Alkmaar,Alkmaar,Noord-Holland,VBO,4.772946,52.651002
Jan Greshoffstraat,8,,,1822JC,Alkmaar,Alkmaar,Noord-Holland,VBO,4.772549,52.650658
Jan Greshoffstraat,9,,,1822JC,Alkmaar,Alkmaar,Noord-Holland,VBO,4.773135,52.650970
Jan Greshoffstraat,10,,,1822JC,Alkmaar,Alkmaar,Noord-Holland,VBO,4.772707,52.650634
Jan Greshoffstraat,11,,,1822JC,Alkmaar,Alkmaar,Noord-Holland,VBO,4.773325,52.650938
Jan Greshoffstraat,12,,,1822JC,Alkmaar,Alkmaar,Noord-Holland,VBO,4.772812,52.650617
Jan Greshoffstraat,13,,,1822JC,Alkmaar,Alkmaar,Noord-Holland,VBO,4.773519,52.650897
Jan Greshoffstraat,14,,,1822JC,Alkmaar,Alkmaar,Noord-Holland,VBO,4.772965,52.650596
Jan Greshoffstraat,15,,,1822JC,Alkmaar,Alkmaar,Noord-Holland,VBO,4.773711,52.650858
Jan Greshoffstraat,16,,,1822JC,Alkmaar,Alkmaar,Noord-Holland,VBO,4.773064,52.650583
Jan Greshoffstraat,17,,,1822JC,Alkmaar,Alkmaar,Noord-Holland,VBO,4.773908,52.650821
Jan Greshoffstraat,18,,,1822JC,Alkmaar,Alkmaar,Noord-Holland,VBO,4.773227,52.650558
Jan Greshoffstraat,19,,,1822JC,Alkmaar,Alkmaar,Noord-Holland,VBO,4.774100,52.650780
Jan Greshoffstraat,20,,,1822JC,Alkmaar,Alkmaar,Noord-Holland,VBO,4.773323,52.650546
Jan Greshoffstraat,21,,,1822JC,Alkmaar,Alkmaar,Noord-Holland,VBO,4.774290,52.650743
Jan Greshoffstraat,22,,,1822JC,Alkmaar,Alkmaar,Noord-Holland,VBO,4.773489,52.650519
Jan Greshoffstraat,23,,,1822JC,Alkmaar,Alkmaar,Noord-Holland,VBO,4.774476,52.650698
Jan Greshoffstraat,24,,,1822JC,Alkmaar,Alkmaar,Noord-Holland,VBO,4.773585,52.650510
Jan Greshoffstraat,26,,,1822JC,Alkmaar,Alkmaar,Noord-Holland,VBO,4.773750,52.650488
Jan Greshoffstraat,28,,,1822JC,Alkmaar,Alkmaar,Noord-Holland,VBO,4.773842,52.650473
Jan Greshoffstraat,30,,,1822JC,Alkmaar,Alkmaar,Noord-Holland,VBO,4.774004,52.650452
Jan Greshoffstraat,32,,,1822JC,Alkmaar,Alkmaar,Noord-Holland,VBO,4.774105,52.650443
Jan Greshoffstraat,34,,,1822JC,Alkmaar,Alkmaar,Noord-Holland,VBO,4.774268,52.650422
Jan Greshoffstraat,36,,,1822JC,Alkmaar,Alkmaar,Noord-Holland,VBO,4.774361,52.650414
Slauerhoffstraat,1,,,1822JD,Alkmaar,Alkmaar,Noord-Holland,VBO,4.772764,52.651972
Slauerhoffstraat,2,,,1822JD,Alkmaar,Alkmaar,Noord-Holland,VBO,4.772595,52.651623
Slauerhoffstraat,3,,,1822JD,Alkmaar,Alkmaar,Noord-Holland,VBO,4.772828,52.652120
Slauerhoffstraat,4,,,1822JD,Alkmaar,Alkmaar,Noord-Holland,VBO,4.772781,52.651591
Slauerhoffstraat,5,,,1822JD,Alkmaar,Alkmaar,Noord-Holland,VBO,4.773144,52.652052
Slauerhoffstraat,6,,,1822JD,Alkmaar,Alkmaar,Noord-Holland,VBO,4.772960,52.651561
Slauerhoffstraat,7,,,1822JD,Alkmaar,Alkmaar,Noord-Holland,VBO,4.773081,52.651909
Slauerhoffstraat,8,,,1822JD,Alkmaar,Alkmaar,Noord-Holland,VBO,4.773140,52.651530
Slauerhoffstraat,9,,,1822JD,Alkmaar,Alkmaar,Noord-Holland,VBO,4.773320,52.651857
Slauerhoffstraat,10,,,1822JD,Alkmaar,Alkmaar,Noord-Holland,VBO,4.773308,52.651497
Slauerhoffstraat,11,,,1822JD,Alkmaar,Alkmaar,Noord-Holland,VBO,4.773377,52.651994
Slauerhoffstraat,12,,,1822JD,Alkmaar,Alkmaar,Noord-Holland,VBO,4.773492,52.651467
Slauerhoffstraat,13,,,1822JD,Alkmaar,Alkmaar,Noord-Holland,VBO,4.773694,52.651931
Slauerhoffstraat,14,,,1822JD,Alkmaar,Alkmaar,Noord-Holland,VBO,4.773668,52.651437
Slauerhoffstraat,15,,,1822JD,Alkmaar,Alkmaar,Noord-Holland,VBO,4.773634,52.651787
Slauerhoffstraat,16,,,1822JD,Alkmaar,Alkmaar,Noord-Holland,VBO,4.773849,52.651409
Slauerhoffstraat,17,,,1822JD,Alkmaar,Alkmaar,Noord-Holland,VBO,4.773884,52.651740
Slauerhoffstraat,18,,,1822JD,Alkmaar,Alkmaar,Noord-Holland,VBO,4.774026,52.651379
Slauerhoffstraat,19,,,1822JD,Alkmaar,Alkmaar,Noord-Holland,VBO,4.773936,52.651873
Slauerhoffstraat,20,,,1822JD,Alkmaar,Alkmaar,Noord-Holland,VBO,4.774207,52.651347
Slauerhoffstraat,21,,,1822JD,Alkmaar,Alkmaar,Noord-Holland,VBO,4.774246,52.651813
Slauerhoffstraat,22,,,1822JD,Alkmaar,Alkmaar,Noord-Holland,VBO,4.774378,52.651317
Slauerhoffstraat,23,,,1822JD,Alkmaar,Alkmaar,Noord-Holland,VBO,4.774188,52.651668
Slauerhoffstraat,24,,,1822JD,Alkmaar,Alkmaar,Noord-Holland,VBO,4.774561,52.651284
Slauerhoffstraat,26,,,1822JD,Alkmaar,Alkmaar,Noord-Holland,VBO,4.774623,52.651534
Slauerhoffstraat,28,,,1822JD,Alkmaar,Alkmaar,Noord-Holland,VBO,4.774671,52.651656
Slauerhoffstraat,30,,,1822JD,Alkmaar,Alkmaar,Noord-Holland,VBO,4.774716,52.651775
Slauerhoffstraat,32,,,1822JD,Alkmaar,Alkmaar,Noord-Holland,VBO,4.774755,52.651896
Marsmanstraat,1,,,1822JE,Alkmaar,Alkmaar,Noord-Holland,VBO,4.773206,52.652959
Marsmanstraat,2,,,1822JE,Alkmaar,Alkmaar,Noord-Holland,VBO,4.773050,52.652603
Marsmanstraat,3,,,1822JE,Alkmaar,Alkmaar,Noord-Holland,VBO,4.773345,52.652938
Marsmanstraat,4,,,1822JE,Alkmaar,Alkmaar,Noord-Holland,VBO,4.772981,52.652457
Marsmanstraat,5,,,1822JE,Alkmaar,Alkmaar,Noord-Holland,VBO,4.773494,52.652912
Marsmanstraat,6,,,1822JE,Alkmaar,Alkmaar,Noord-Holland,VBO,4.773303,52.652413
Marsmanstraat,7,,,1822JE,Alkmaar,Alkmaar,Noord-Holland,VBO,4.773643,52.652890
Marsmanstraat,8,,,1822JE,Alkmaar,Alkmaar,Noord-Holland,VBO,4.773371,52.652558
Marsmanstraat,9,,,1822JE,Alkmaar,Alkmaar,Noord-Holland,VBO,4.773792,52.652865
Marsmanstraat,10,,,1822JE,Alkmaar,Alkmaar,Noord-Holland,VBO,4.773624,52.652530
Marsmanstraat,11,,,1822JE,Alkmaar,Alkmaar,Noord-Holland,VBO,4.773935,52.652842
Marsmanstraat,12,,,1822JE,Alkmaar,Alkmaar,Noord-Holland,VBO,4.773556,52.652383
Marsmanstraat,13,,,1822JE,Alkmaar,Alkmaar,Noord-Holland,VBO,4.774081,52.652819
Marsmanstraat,14,,,1822JE,Alkmaar,Alkmaar,Noord-Holland,VBO,4.773892,52.652344
Marsmanstraat,15,,,1822JE,Alkmaar,Alkmaar,Noord-Holland,VBO,4.774223,52.652793
Marsmanstraat,16,,,1822JE,Alkmaar,Alkmaar,Noord-Holland,VBO,4.773949,52.652492
Marsmanstraat,17,,,1822JE,Alkmaar,Alkmaar,Noord-Holland,VBO,4.774366,52.652770
Marsmanstraat,18,,,1822JE,Alkmaar,Alkmaar,Noord-Holland,VBO,4.774206,52.652463
Marsmanstraat,19,,,1822JE,Alkmaar,Alkmaar,Noord-Holland,VBO,4.774515,52.652746
Marsmanstraat,20,,,1822JE,Alkmaar,Alkmaar,Noord-Holland,VBO,4.774133,52.652313
Marsmanstraat,21,,,1822JE,Alkmaar,Alkmaar,Noord-Holland,VBO,4.774662,52.652718
Marsmanstraat,22,,,1822JE,Alkmaar,Alkmaar,Noord-Holland,VBO,4.774469,52.652270
Marsmanstraat,23,,,1822JE,Alkmaar,Alkmaar,Noord-Holland,VBO,4.775032,52.652652
Marsmanstraat,24,,,1822JE,Alkmaar,Alkmaar,Noord-Holland,VBO,4.774535,52.652418
Marsmanstraat,25,,,1822JE,Alkmaar,Alkmaar,Noord-Holland,VBO,4.774986,52.652530
Marsmanstraat,27,,,1822JE,Alkmaar,Alkmaar,Noord-Holland,VBO,4.774942,52.652410
Marsmanstraat,29,,,1822JE,Alkmaar,Alkmaar,Noord-Holland,VBO,4.774895,52.652291
Marsmanstraat,31,,,1822JE,Alkmaar,Alkmaar,Noord-Holland,VBO,4.774857,52.652170
Marsmanstraat,33,,,1822JE,Alkmaar,Alkmaar,Noord-Holland,VBO,4.774814,52.652050
Leopoldstraat,2,,,1822KA,Alkmaar,Alkmaar,Noord-Holland,VBO,4.770696,52.649069
Leopoldstraat,4,,,1822KA,Alkmaar,Alkmaar,Noord-Holland,VBO,4.770665,52.649005
Leopoldstraat,6,,,1822KA,Alkmaar,Alkmaar,Noord-Holland,VBO,4.770634,52.648941
Leopoldstraat,8,,,1822KA,Alkmaar,Alkmaar,Noord-Holland,VBO,4.770608,52.648875
Leopoldstraat,10,,,1822KA,Alkmaar,Alkmaar,Noord-Holland,VBO,4.770576,52.648809
Leopoldstraat,12,,,1822KA,Alkmaar,Alkmaar,Noord-Holland,VBO,4.770546,52.648743
Leopoldstraat,14,,,1822KA,Alkmaar,Alkmaar,Noord-Holland,VBO,4.770748,52.649057
Leopoldstraat,16,,,1822KA,Alkmaar,Alkmaar,Noord-Holland,VBO,4.770721,52.648990
Leopoldstraat,18,,,1822KA,Alkmaar,Alkmaar,Noord-Holland,VBO,4.770692,52.648928
Leopoldstraat,20,,,1822KA,Alkmaar,Alkmaar,Noord-Holland,VBO,4.770665,52.648864
Leopoldstraat,22,,,1822KA,Alkmaar,Alkmaar,Noord-Holland,VBO,4.770633,52.648804
Leopoldstraat,24,,,1822KA,Alkmaar,Alkmaar,Noord-Holland,VBO,4.770607,52.648737
Leopoldstraat,26,,,1822KA,Alkmaar,Alkmaar,Noord-Holland,VBO,4.770814,52.649048
Leopoldstraat,28,,,1822KA,Alkmaar,Alkmaar,Noord-Holland,VBO,4.770780,52.648985
Leopoldstraat,30,,,1822KA,Alkmaar,Alkmaar,Noord-Holland,VBO,4.770750,52.648921
Leopoldstraat,32,,,1822KA,Alkmaar,Alkmaar,Noord-Holland,VBO,4.770718,52.648856
Leopoldstraat,34,,,1822KA,Alkmaar,Alkmaar,Noord-Holland,VBO,4.770691,52.648794
Leopoldstraat,36,,,1822KA,Alkmaar,Alkmaar,Noord-Holland,VBO,4.770657,52.648727
Leopoldstraat,38,,,1822KA,Alkmaar,Alkmaar,Noord-Holland,VBO,4.770866,52.649040
Leopoldstraat,40,,,1822KA,Alkmaar,Alkmaar,Noord-Holland,VBO,4.770836,52.648975
Leopoldstraat,42,,,1822KA,Alkmaar,Alkmaar,Noord-Holland,VBO,4.770804,52.648913
Leopoldstraat,44,,,1822KA,Alkmaar,Alkmaar,Noord-Holland,VBO,4.770779,52.648847
Leopoldstraat,46,,,1822KA,Alkmaar,Alkmaar,Noord-Holland,VBO,4.770748,52.648784
Leopoldstraat,48,,,1822KA,Alkmaar,Alkmaar,Noord-Holland,VBO,4.770716,52.648719
Leopoldstraat,50,,,1822KA,Alkmaar,Alkmaar,Noord-Holland,VBO,4.770917,52.649031
Leopoldstraat,52,,,1822KA,Alkmaar,Alkmaar,Noord-Holland,VBO,4.770895,52.648966
Leopoldstraat,54,,,1822KA,Alkmaar,Alkmaar,Noord-Holland,VBO,4.770862,52.648903
Leopoldstraat,56,,,1822KA,Alkmaar,Alkmaar,Noord-Holland,VBO,4.770837,52.648835
Leopoldstraat,58,,,1822KA,Alkmaar,Alkmaar,Noord-Holland,VBO,4.770777,52.648708
Leopoldstraat,60,,,1822KB,Alkmaar,Alkmaar,Noord-Holland,VBO,4.770748,52.649296
Leopoldstraat,62,,,1822KB,Alkmaar,Alkmaar,Noord-Holland,VBO,4.770836,52.649338
Leopoldstraat,64,,,1822KB,Alkmaar,Alkmaar,Noord-Holland,VBO,4.770793,52.649395
Leopoldstraat,66,,,1822KB,Alkmaar,Alkmaar,Noord-Holland,VBO,4.770881,52.649437
Leopoldstraat,68,,,1822KB,Alkmaar,Alkmaar,Noord-Holland,VBO,4.770839,52.649496
Leopoldstraat,70,,,1822KB,Alkmaar,Alkmaar,Noord-Holland,VBO,4.770926,52.649537
Leopoldstraat,72,,,1822KB,Alkmaar,Alkmaar,Noord-Holland,VBO,4.770884,52.649595
Leopoldstraat,74,,,1822KB,Alkmaar,Alkmaar,Noord-Holland,VBO,4.770966,52.649636
Leopoldstraat,76,,,1822KB,Alkmaar,Alkmaar,Noord-Holland,VBO,4.770928,52.649693
Leopoldstraat,78,,,1822KB,Alkmaar,Alkmaar,Noord-Holland,VBO,4.771015,52.649738
Leopoldstraat,80,,,1822KB,Alkmaar,Alkmaar,Noord-Holland,VBO,4.770973,52.649794
Leopoldstraat,82,,,1822KB,Alkmaar,Alkmaar,Noord-Holland,VBO,4.771061,52.649833
Leopoldstraat,84,,,1822KB,Alkmaar,Alkmaar,Noord-Holland,VBO,4.771017,52.649892
Leopoldstraat,86,,,1822KB,Alkmaar,Alkmaar,Noord-Holland,VBO,4.771104,52.649932
Leopoldstraat,88,,,1822KB,Alkmaar,Alkmaar,Noord-Holland,VBO,4.771064,52.649992
Leopoldstraat,90,,,1822KB,Alkmaar,Alkmaar,Noord-Holland,VBO,4.771224,52.650158
Leopoldstraat,92,,,1822KB,Alkmaar,Alkmaar,Noord-Holland,VBO,4.771193,52.650217
Leopoldstraat,94,,,1822KB,Alkmaar,Alkmaar,Noord-Holland,VBO,4.771270,52.650258
Leopoldstraat,96,,,1822KB,Alkmaar,Alkmaar,Noord-Holland,VBO,4.771237,52.650314
Leopoldstraat,98,,,1822KB,Alkmaar,Alkmaar,Noord-Holland,VBO,4.771315,52.650358
Leopoldstraat,100,,,1822KB,Alkmaar,Alkmaar,Noord-Holland,VBO,4.771280,52.650409
Leopoldstraat,102,,,1822KB,Alkmaar,Alkmaar,Noord-Holland,VBO,4.771358,52.650452
Leopoldstraat,104,,,1822KB,Alkmaar,Alkmaar,Noord-Holland,VBO,4.771327,52.650513
Leopoldstraat,106,,,1822KB,Alkmaar,Alkmaar,Noord-Holland,VBO,4.771403,52.650551
Leopoldstraat,108,,,1822KB,Alkmaar,Alkmaar,Noord-Holland,VBO,4.771371,52.650608
Leopoldstraat,110,,,1822KB,Alkmaar,Alkmaar,Noord-Holland,VBO,4.771447,52.650648
Leopoldstraat,112,,,1822KB,Alkmaar,Alkmaar,Noord-Holland,VBO,4.771415,52.650705
Leopoldstraat,114,,,1822KB,Alkmaar,Alkmaar,Noord-Holland,VBO,4.771493,52.650749
Leopoldstraat,116,,,1822KB,Alkmaar,Alkmaar,Noord-Holland,VBO,4.771459,52.650802
Leopoldstraat,1,,,1822KC,Alkmaar,Alkmaar,Noord-Holland,VBO,4.770243,52.649162
Leopoldstraat,3,,,1822KC,Alkmaar,Alkmaar,Noord-Holland,VBO,4.770267,52.649207
Leopoldstraat,5,,,1822KC,Alkmaar,Alkmaar,Noord-Holland,VBO,4.770048,52.649218
Leopoldstraat,7,,,1822KC,Alkmaar,Alkmaar,Noord-Holland,VBO,4.769972,52.649233
Leopoldstraat,9,,,1822KC,Alkmaar,Alkmaar,Noord-Holland,VBO,4.769890,52.649247
Leopoldstraat,11,,,1822KC,Alkmaar,Alkmaar,Noord-Holland,VBO,4.769810,52.649260
Leopoldstraat,13,,,1822KC,Alkmaar,Alkmaar,Noord-Holland,VBO,4.769732,52.649273
Leopoldstraat,15,,,1822KC,Alkmaar,Alkmaar,Noord-Holland,VBO,4.769658,52.649285
Leopoldstraat,17,,,1822KC,Alkmaar,Alkmaar,Noord-Holland,VBO,4.769579,52.649299
Leopoldstraat,19,,,1822KC,Alkmaar,Alkmaar,Noord-Holland,VBO,4.769502,52.649312
Leopoldstraat,21,,,1822KC,Alkmaar,Alkmaar,Noord-Holland,VBO,4.769587,52.649492
Leopoldstraat,23,,,1822KC,Alkmaar,Alkmaar,Noord-Holland,VBO,4.769664,52.649479
Leopoldstraat,25,,,1822KC,Alkmaar,Alkmaar,Noord-Holland,VBO,4.769743,52.649466
Leopoldstraat,27,,,1822KC,Alkmaar,Alkmaar,Noord-Holland,VBO,4.769823,52.649453
Leopoldstraat,29,,,1822KC,Alkmaar,Alkmaar,Noord-Holland,VBO,4.769904,52.649439
Leopoldstraat,31,,,1822KC,Alkmaar,Alkmaar,Noord-Holland,VBO,4.769971,52.649428
Leopoldstraat,33,,,1822KC,Alkmaar,Alkmaar,Noord-Holland,VBO,4.770047,52.649416
Leopoldstraat,35,,,1822KC,Alkmaar,Alkmaar,Noord-Holland,VBO,4.770124,52.649402
Leopoldstraat,37,,,1822KC,Alkmaar,Alkmaar,Noord-Holland,VBO,4.770328,52.649339
Leopoldstraat,39,,,1822KC,Alkmaar,Alkmaar,Noord-Holland,VBO,4.770345,52.649381
Leopoldstraat,41,,,1822KC,Alkmaar,Alkmaar,Noord-Holland,VBO,4.770246,52.649666
Leopoldstraat,43,,,1822KC,Alkmaar,Alkmaar,Noord-Holland,VBO,4.770167,52.649680
Leopoldstraat,45,,,1822KC,Alkmaar,Alkmaar,Noord-Holland,VBO,4.770096,52.649692
Leopoldstraat,47,,,1822KC,Alkmaar,Alkmaar,Noord-Holland,VBO,4.770014,52.649705
Leopoldstraat,49,,,1822KC,Alkmaar,Alkmaar,Noord-Holland,VBO,4.769942,52.649717
Leopoldstraat,51,,,1822KC,Alkmaar,Alkmaar,Noord-Holland,VBO,4.769856,52.649732
Leopoldstraat,53,,,1822KC,Alkmaar,Alkmaar,Noord-Holland,VBO,4.769785,52.649744
Leopoldstraat,55,,,1822KC,Alkmaar,Alkmaar,Noord-Holland,VBO,4.769703,52.649758
Leopoldstraat,57,,,1822KC,Alkmaar,Alkmaar,Noord-Holland,VBO,4.769777,52.649922
Leopoldstraat,59,,,1822KC,Alkmaar,Alkmaar,Noord-Holland,VBO,4.769861,52.649908
Leopoldstraat,61,,,1822KC,Alkmaar,Alkmaar,Noord-Holland,VBO,4.769937,52.649895
Leopoldstraat,63,,,1822KC,Alkmaar,Alkmaar,Noord-Holland,VBO,4.770016,52.649882
Leopoldstraat,65,,,1822KC,Alkmaar,Alkmaar,Noord-Holland,VBO,4.770089,52.649870
Leopoldstraat,67,,,1822KC,Alkmaar,Alkmaar,Noord-Holland,VBO,4.770167,52.649857
Leopoldstraat,69,,,1822KC,Alkmaar,Alkmaar,Noord-Holland,VBO,4.770252,52.649842
Leopoldstraat,71,,,1822KC,Alkmaar,Alkmaar,Noord-Holland,VBO,4.770322,52.649831
Leopoldstraat,73,,,1822KD,Alkmaar,Alkmaar,Noord-Holland,VBO,4.770640,52.650044
Leopoldstraat,75,,,1822KD,Alkmaar,Alkmaar,Noord-Holland,VBO,4.770698,52.650079
Leopoldstraat,77,,,1822KD,Alkmaar,Alkmaar,Noord-Holland,VBO,4.770436,52.650080
Leopoldstraat,79,,,1822KD,Alkmaar,Alkmaar,Noord-Holland,VBO,4.770361,52.650113
Leopoldstraat,81,,,1822KD,Alkmaar,Alkmaar,Noord-Holland,VBO,4.770272,52.650108
Leopoldstraat,83,,,1822KD,Alkmaar,Alkmaar,Noord-Holland,VBO,4.770214,52.650138
Leopoldstraat,85,,,1822KD,Alkmaar,Alkmaar,Noord-Holland,VBO,4.770122,52.650133
Leopoldstraat,87,,,1822KD,Alkmaar,Alkmaar,Noord-Holland,VBO,4.770063,52.650163
Leopoldstraat,89,,,1822KD,Alkmaar,Alkmaar,Noord-Holland,VBO,4.769963,52.650160
Leopoldstraat,91,,,1822KD,Alkmaar,Alkmaar,Noord-Holland,VBO,4.769905,52.650190
Leopoldstraat,93,,,1822KD,Alkmaar,Alkmaar,Noord-Holland,VBO,4.769808,52.650186
Leopoldstraat,95,,,1822KD,Alkmaar,Alkmaar,Noord-Holland,VBO,4.769743,52.650217
Leopoldstraat,97,,,1822KD,Alkmaar,Alkmaar,Noord-Holland,VBO,4.769655,52.650211
Leopoldstraat,99,,,1822KD,Alkmaar,Alkmaar,Noord-Holland,VBO,4.769590,52.650243
Leopoldstraat,101,,,1822KD,Alkmaar,Alkmaar,Noord-Holland,VBO,4.769670,52.650409
Leopoldstraat,103,,,1822KD,Alkmaar,Alkmaar,Noord-Holland,VBO,4.769760,52.650417
Leopoldstraat,105,,,1822KD,Alkmaar,Alkmaar,Noord-Holland,VBO,4.769829,52.650382
Leopoldstraat,107,,,1822KD,Alkmaar,Alkmaar,Noord-Holland,VBO,4.769906,52.650393
Leopoldstraat,109,,,1822KD,Alkmaar,Alkmaar,Noord-Holland,VBO,4.769981,52.650356
Leopoldstraat,111,,,1822KD,Alkmaar,Alkmaar,Noord-Holland,VBO,4.770075,52.650365
Leopoldstraat,113,,,1822KD,Alkmaar,Alkmaar,Noord-Holland,VBO,4.770139,52.650330
Leopoldstraat,115,,,1822KD,Alkmaar,Alkmaar,Noord-Holland,VBO,4.770221,52.650340
Leopoldstraat,117,,,1822KD,Alkmaar,Alkmaar,Noord-Holland,VBO,4.770298,52.650303
Leopoldstraat,119,,,1822KD,Alkmaar,Alkmaar,Noord-Holland,VBO,4.770386,52.650312
Leopoldstraat,121,,,1822KD,Alkmaar,Alkmaar,Noord-Holland,VBO,4.770442,52.650279
Leopoldstraat,123,,,1822KD,Alkmaar,Alkmaar,Noord-Holland,VBO,4.770529,52.650288
Leopoldstraat,125,,,1822KD,Alkmaar,Alkmaar,Noord-Holland,VBO,4.770718,52.650216
Leopoldstraat,127,,,1822KD,Alkmaar,Alkmaar,Noord-Holland,VBO,4.770784,52.650254
Leopoldstraat,129,,,1822KE,Alkmaar,Alkmaar,Noord-Holland,VBO,4.770630,52.650527
Leopoldstraat,131,,,1822KE,Alkmaar,Alkmaar,Noord-Holland,VBO,4.770562,52.650564
Leopoldstraat,133,,,1822KE,Alkmaar,Alkmaar,Noord-Holland,VBO,4.770474,52.650554
Leopoldstraat,135,,,1822KE,Alkmaar,Alkmaar,Noord-Holland,VBO,4.770414,52.650589
Leopoldstraat,137,,,1822KE,Alkmaar,Alkmaar,Noord-Holland,VBO,4.770322,52.650579
Leopoldstraat,139,,,1822KE,Alkmaar,Alkmaar,Noord-Holland,VBO,4.770262,52.650615
Leopoldstraat,141,,,1822KE,Alkmaar,Alkmaar,Noord-Holland,VBO,4.770164,52.650606
Leopoldstraat,143,,,1822KE,Alkmaar,Alkmaar,Noord-Holland,VBO,4.770106,52.650641
Leopoldstraat,145,,,1822KE,Alkmaar,Alkmaar,Noord-Holland,VBO,4.770018,52.650631
Leopoldstraat,147,,,1822KE,Alkmaar,Alkmaar,Noord-Holland,VBO,4.769951,52.650668
Leopoldstraat,149,,,1822KE,Alkmaar,Alkmaar,Noord-Holland,VBO,4.770030,52.650834
Leopoldstraat,151,,,1822KE,Alkmaar,Alkmaar,Noord-Holland,VBO,4.770099,52.650795
Leopoldstraat,153,,,1822KE,Alkmaar,Alkmaar,Noord-Holland,VBO,4.770190,52.650807
Leopoldstraat,155,,,1822KE,Alkmaar,Alkmaar,Noord-Holland,VBO,4.770254,52.650769
Leopoldstraat,157,,,1822KE,Alkmaar,Alkmaar,Noord-Holland,VBO,4.770343,52.650782
Leopoldstraat,159,,,1822KE,Alkmaar,Alkmaar,Noord-Holland,VBO,4.770408,52.650743
Leopoldstraat,161,,,1822KE,Alkmaar,Alkmaar,Noord-Holland,VBO,4.770501,52.650755
Leopoldstraat,163,,,1822KE,Alkmaar,Alkmaar,Noord-Holland,VBO,4.770562,52.650717
Leopoldstraat,165,,,1822KE,Alkmaar,Alkmaar,Noord-Holland,VBO,4.770649,52.650729
Leopoldstraat,167,,,1822KE,Alkmaar,Alkmaar,Noord-Holland,VBO,4.770714,52.650691
Leopoldstraat,169,,,1822KE,Alkmaar,Alkmaar,Noord-Holland,VBO,4.770932,52.650867
Leopoldstraat,171,,,1822KE,Alkmaar,Alkmaar,Noord-Holland,VBO,4.771035,52.650932
Leopoldstraat,173,,,1822KE,Alkmaar,Alkmaar,Noord-Holland,VBO,4.771085,52.650967
Leopoldstraat,175,,,1822KE,Alkmaar,Alkmaar,Noord-Holland,VBO,4.770845,52.650995
Leopoldstraat,177,,,1822KE,Alkmaar,Alkmaar,Noord-Holland,VBO,4.770759,52.650980
Leopoldstraat,179,,,1822KE,Alkmaar,Alkmaar,Noord-Holland,VBO,4.770688,52.651021
Leopoldstraat,181,,,1822KE,Alkmaar,Alkmaar,Noord-Holland,VBO,4.770599,52.651007
Leopoldstraat,183,,,1822KE,Alkmaar,Alkmaar,Noord-Holland,VBO,4.770540,52.651046
Leopoldstraat,185,,,1822KE,Alkmaar,Alkmaar,Noord-Holland,VBO,4.770447,52.651033
Leopoldstraat,187,,,1822KE,Alkmaar,Alkmaar,Noord-Holland,VBO,4.770383,52.651072
Leopoldstraat,189,,,1822KE,Alkmaar,Alkmaar,Noord-Holland,VBO,4.770290,52.651059
Leopoldstraat,191,,,1822KE,Alkmaar,Alkmaar,Noord-Holland,VBO,4.770222,52.651099
Leopoldstraat,193,,,1822KE,Alkmaar,Alkmaar,Noord-Holland,VBO,4.770137,52.651085
Leopoldstraat,195,,,1822KE,Alkmaar,Alkmaar,Noord-Holland,VBO,4.770076,52.651124
Leopoldstraat,197,,,1822KE,Alkmaar,Alkmaar,Noord-Holland,VBO,4.769983,52.651111
Leopoldstraat,199,,,1822KE,Alkmaar,Alkmaar,Noord-Holland,VBO,4.769914,52.651151
Leopoldstraat,201,,,1822KE,Alkmaar,Alkmaar,Noord-Holland,VBO,4.769831,52.651136
P.C.Boutensstraat,1,,,1822KG,Alkmaar,Alkmaar,Noord-Holland,VBO,4.772452,52.652943
P.C.Boutensstraat,3,,,1822KG,Alkmaar,Alkmaar,Noord-Holland,VBO,4.772482,52.653011
P.C.Boutensstraat,5,,,1822KG,Alkmaar,Alkmaar,Noord-Holland,VBO,4.772513,52.653072
P.C.Boutensstraat,7,,,1822KG,Alkmaar,Alkmaar,Noord-Holland,VBO,4.772538,52.653139
P.C.Boutensstraat,9,,,1822KG,Alkmaar,Alkmaar,Noord-Holland,VBO,4.772569,52.653202
P.C.Boutensstraat,11,,,1822KG,Alkmaar,Alkmaar,Noord-Holland,VBO,4.772598,52.653262
P.C.Boutensstraat,13,,,1822KG,Alkmaar,Alkmaar,Noord-Holland,VBO,4.772509,52.652931
P.C.Boutensstraat,15,,,1822KG,Alkmaar,Alkmaar,Noord-Holland,VBO,4.772536,52.652998
P.C.Boutensstraat,17,,,1822KG,Alkmaar,Alkmaar,Noord-Holland,VBO,4.772568,52.653059
P.C.Boutensstraat,19,,,1822KG,Alkmaar,Alkmaar,Noord-Holland,VBO,4.772589,52.653128
P.C.Boutensstraat,21,,,1822KG,Alkmaar,Alkmaar,Noord-Holland,VBO,4.772626,52.653191
P.C.Boutensstraat,23,,,1822KG,Alkmaar,Alkmaar,Noord-Holland,VBO,4.772653,52.653258
P.C.Boutensstraat,25,,,1822KG,Alkmaar,Alkmaar,Noord-Holland,VBO,4.772562,52.652926
P.C.Boutensstraat,27,,,1822KG,Alkmaar,Alkmaar,Noord-Holland,VBO,4.772595,52.652992
P.C.Boutensstraat,29,,,1822KG,Alkmaar,Alkmaar,Noord-Holland,VBO,4.772622,52.653053
P.C.Boutensstraat,31,,,1822KG,Alkmaar,Alkmaar,Noord-Holland,VBO,4.772654,52.653118
P.C.Boutensstraat,33,,,1822KG,Alkmaar,Alkmaar,Noord-Holland,VBO,4.772684,52.653183
P.C.Boutensstraat,35,,,1822KG,Alkmaar,Alkmaar,Noord-Holland,VBO,4.772719,52.653247
P.C.Boutensstraat,37,,,1822KG,Alkmaar,Alkmaar,Noord-Holland,VBO,4.772620,52.652916
P.C.Boutensstraat,39,,,1822KG,Alkmaar,Alkmaar,Noord-Holland,VBO,4.772652,52.652982
P.C.Boutensstraat,41,,,1822KG,Alkmaar,Alkmaar,Noord-Holland,VBO,4.772682,52.653043
P.C.Boutensstraat,43,,,1822KG,Alkmaar,Alkmaar,Noord-Holland,VBO,4.772709,52.653111
P.C.Boutensstraat,45,,,1822KG,Alkmaar,Alkmaar,Noord-Holland,VBO,4.772741,52.653174
P.C.Boutensstraat,47,,,1822KG,Alkmaar,Alkmaar,Noord-Holland,VBO,4.772771,52.653239
P.C.Boutensstraat,49,,,1822KG,Alkmaar,Alkmaar,Noord-Holland,VBO,4.772682,52.652906
P.C.Boutensstraat,51,,,1822KG,Alkmaar,Alkmaar,Noord-Holland,VBO,4.772712,52.652970
P.C.Boutensstraat,53,,,1822KG,Alkmaar,Alkmaar,Noord-Holland,VBO,4.772741,52.653034
P.C.Boutensstraat,55,,,1822KG,Alkmaar,Alkmaar,Noord-Holland,VBO,4.772766,52.653101
P.C.Boutensstraat,57,,,1822KG,Alkmaar,Alkmaar,Noord-Holland,VBO,4.772821,52.653230
P.C.Boutensstraat,59,,,1822KH,Alkmaar,Alkmaar,Noord-Holland,VBO,4.772392,52.652752
P.C.Boutensstraat,61,,,1822KH,Alkmaar,Alkmaar,Noord-Holland,VBO,4.772312,52.652710
P.C.Boutensstraat,63,,,1822KH,Alkmaar,Alkmaar,Noord-Holland,VBO,4.772345,52.652650
P.C.Boutensstraat,65,,,1822KH,Alkmaar,Alkmaar,Noord-Holland,VBO,4.772266,52.652609
P.C.Boutensstraat,67,,,1822KH,Alkmaar,Alkmaar,Noord-Holland,VBO,4.772299,52.652548
P.C.Boutensstraat,69,,,1822KH,Alkmaar,Alkmaar,Noord-Holland,VBO,4.772220,52.652508
P.C.Boutensstraat,71,,,1822KH,Alkmaar,Alkmaar,Noord-Holland,VBO,4.772255,52.652451
P.C.Boutensstraat,73,,,1822KH,Alkmaar,Alkmaar,Noord-Holland,VBO,4.772177,52.652414
P.C.Boutensstraat,75,,,1822KH,Alkmaar,Alkmaar,Noord-Holland,VBO,4.772209,52.652351
P.C.Boutensstraat,77,,,1822KH,Alkmaar,Alkmaar,Noord-Holland,VBO,4.772133,52.652317
P.C.Boutensstraat,79,,,1822KH,Alkmaar,Alkmaar,Noord-Holland,VBO,4.772164,52.652253
P.C.Boutensstraat,81,,,1822KH,Alkmaar,Alkmaar,Noord-Holland,VBO,4.772086,52.652215
P.C.Boutensstraat,83,,,1822KH,Alkmaar,Alkmaar,Noord-Holland,VBO,4.772119,52.652154
P.C.Boutensstraat,85,,,1822KH,Alkmaar,Alkmaar,Noord-Holland,VBO,4.772041,52.652115
P.C.Boutensstraat,87,,,1822KH,Alkmaar,Alkmaar,Noord-Holland,VBO,4.772075,52.652057
P.C.Boutensstraat,89,,,1822KH,Alkmaar,Alkmaar,Noord-Holland,VBO,4.771939,52.651886
P.C.Boutensstraat,91,,,1822KH,Alkmaar,Alkmaar,Noord-Holland,VBO,4.771965,52.651825
P.C.Boutensstraat,93,,,1822KH,Alkmaar,Alkmaar,Noord-Holland,VBO,4.771892,52.651783
P.C.Boutensstraat,95,,,1822KH,Alkmaar,Alkmaar,Noord-Holland,VBO,4.771923,52.651733
P.C.Boutensstraat,97,,,1822KH,Alkmaar,Alkmaar,Noord-Holland,VBO,4.771848,52.651688
P.C.Boutensstraat,99,,,1822KH,Alkmaar,Alkmaar,Noord-Holland,VBO,4.771874,52.651625
P.C.Boutensstraat,101,,,1822KH,Alkmaar,Alkmaar,Noord-Holland,VBO,4.771801,52.651583
P.C.Boutensstraat,103,,,1822KH,Alkmaar,Alkmaar,Noord-Holland,VBO,4.771829,52.651526
P.C.Boutensstraat,105,,,1822KH,Alkmaar,Alkmaar,Noord-Holland,VBO,4.771757,52.651488
P.C.Boutensstraat,107,,,1822KH,Alkmaar,Alkmaar,Noord-Holland,VBO,4.771786,52.651430
P.C.Boutensstraat,109,,,1822KH,Alkmaar,Alkmaar,Noord-Holland,VBO,4.771712,52.651389
P.C.Boutensstraat,111,,,1822KH,Alkmaar,Alkmaar,Noord-Holland,VBO,4.771738,52.651325
P.C.Boutensstraat,113,,,1822KH,Alkmaar,Alkmaar,Noord-Holland,VBO,4.771665,52.651286
P.C.Boutensstraat,115,,,1822KH,Alkmaar,Alkmaar,Noord-Holland,VBO,4.771693,52.651226
P.C.Boutensstraat,2,,,1822KJ,Alkmaar,Alkmaar,Noord-Holland,VBO,4.772039,52.653428
P.C.Boutensstraat,4,,,1822KJ,Alkmaar,Alkmaar,Noord-Holland,VBO,4.771633,52.653443
P.C.Boutensstraat,12,,,1822KJ,Alkmaar,Alkmaar,Noord-Holland,VBO,4.771899,52.653151
P.C.Boutensstraat,14,,,1822KJ,Alkmaar,Alkmaar,Noord-Holland,VBO,4.772003,52.653036
P.C.Boutensstraat,16,,,1822KJ,Alkmaar,Alkmaar,Noord-Holland,VBO,4.771981,52.652990
P.C.Boutensstraat,18,,,1822KJ,Alkmaar,Alkmaar,Noord-Holland,VBO,4.771781,52.653037
P.C.Boutensstraat,20,,,1822KJ,Alkmaar,Alkmaar,Noord-Holland,VBO,4.771715,52.653073
P.C.Boutensstraat,22,,,1822KJ,Alkmaar,Alkmaar,Noord-Holland,VBO,4.771625,52.653063
P.C.Boutensstraat,24,,,1822KJ,Alkmaar,Alkmaar,Noord-Holland,VBO,4.771558,52.653100
P.C.Boutensstraat,26,,,1822KJ,Alkmaar,Alkmaar,Noord-Holland,VBO,4.771469,52.653090
P.C.Boutensstraat,28,,,1822KJ,Alkmaar,Alkmaar,Noord-Holland,VBO,4.771405,52.653126
P.C.Boutensstraat,30,,,1822KJ,Alkmaar,Alkmaar,Noord-Holland,VBO,4.771312,52.653116
P.C.Boutensstraat,32,,,1822KJ,Alkmaar,Alkmaar,Noord-Holland,VBO,4.771251,52.653152
P.C.Boutensstraat,34,,,1822KJ,Alkmaar,Alkmaar,Noord-Holland,VBO,4.771160,52.653142
P.C.Boutensstraat,36,,,1822KJ,Alkmaar,Alkmaar,Noord-Holland,VBO,4.771099,52.653177
P.C.Boutensstraat,38,,,1822KJ,Alkmaar,Alkmaar,Noord-Holland,VBO,4.771009,52.652991
P.C.Boutensstraat,40,,,1822KJ,Alkmaar,Alkmaar,Noord-Holland,VBO,4.771075,52.652954
P.C.Boutensstraat,42,,,1822KJ,Alkmaar,Alkmaar,Noord-Holland,VBO,4.771161,52.652966
P.C.Boutensstraat,44,,,1822KJ,Alkmaar,Alkmaar,Noord-Holland,VBO,4.771229,52.652928
P.C.Boutensstraat,46,,,1822KJ,Alkmaar,Alkmaar,Noord-Holland,VBO,4.771328,52.652937
P.C.Boutensstraat,48,,,1822KJ,Alkmaar,Alkmaar,Noord-Holland,VBO,4.771393,52.652900
P.C.Boutensstraat,50,,,1822KJ,Alkmaar,Alkmaar,Noord-Holland,VBO,4.771480,52.652912
P.C.Boutensstraat,52,,,1822KJ,Alkmaar,Alkmaar,Noord-Holland,VBO,4.771541,52.652875
P.C.Boutensstraat,54,,,1822KJ,Alkmaar,Alkmaar,Noord-Holland,VBO,4.771632,52.652886
P.C.Boutensstraat,56,,,1822KJ,Alkmaar,Alkmaar,Noord-Holland,VBO,4.771698,52.652849
P.C.Boutensstraat,58,,,1822KJ,Alkmaar,Alkmaar,Noord-Holland,VBO,4.771931,52.652851
P.C.Boutensstraat,60,,,1822KJ,Alkmaar,Alkmaar,Noord-Holland,VBO,4.771905,52.652812
P.C.Boutensstraat,62,,,1822KJ,Alkmaar,Alkmaar,Noord-Holland,VBO,4.771571,52.652591
P.C.Boutensstraat,64,,,1822KJ,Alkmaar,Alkmaar,Noord-Holland,VBO,4.771509,52.652627
P.C.Boutensstraat,66,,,1822KJ,Alkmaar,Alkmaar,Noord-Holland,VBO,4.771420,52.652616
P.C.Boutensstraat,68,,,1822KJ,Alkmaar,Alkmaar,Noord-Holland,VBO,4.771355,52.652652
P.C.Boutensstraat,70,,,1822KJ,Alkmaar,Alkmaar,Noord-Holland,VBO,4.771271,52.652641
P.C.Boutensstraat,72,,,1822KJ,Alkmaar,Alkmaar,Noord-Holland,VBO,4.771204,52.652678
P.C.Boutensstraat,74,,,1822KJ,Alkmaar,Alkmaar,Noord-Holland,VBO,4.771109,52.652669
P.C.Boutensstraat,76,,,1822KJ,Alkmaar,Alkmaar,Noord-Holland,VBO,4.771051,52.652704
P.C.Boutensstraat,78,,,1822KJ,Alkmaar,Alkmaar,Noord-Holland,VBO,4.770953,52.652695
P.C.Boutensstraat,80,,,1822KJ,Alkmaar,Alkmaar,Noord-Holland,VBO,4.770889,52.652731
P.C.Boutensstraat,82,,,1822KJ,Alkmaar,Alkmaar,Noord-Holland,VBO,4.770815,52.652562
P.C.Boutensstraat,84,,,1822KJ,Alkmaar,Alkmaar,Noord-Holland,VBO,4.770884,52.652526
P.C.Boutensstraat,86,,,1822KJ,Alkmaar,Alkmaar,Noord-Holland,VBO,4.770968,52.652537
P.C.Boutensstraat,88,,,1822KJ,Alkmaar,Alkmaar,Noord-Holland,VBO,4.771036,52.652501
P.C.Boutensstraat,90,,,1822KJ,Alkmaar,Alkmaar,Noord-Holland,VBO,4.771134,52.652509
P.C.Boutensstraat,92,,,1822KJ,Alkmaar,Alkmaar,Noord-Holland,VBO,4.771193,52.652475
P.C.Boutensstraat,94,,,1822KJ,Alkmaar,Alkmaar,Noord-Holland,VBO,4.771287,52.652483
P.C.Boutensstraat,96,,,1822KJ,Alkmaar,Alkmaar,Noord-Holland,VBO,4.771350,52.652449
P.C.Boutensstraat,98,,,1822KJ,Alkmaar,Alkmaar,Noord-Holland,VBO,4.771438,52.652458
P.C.Boutensstraat,100,,,1822KJ,Alkmaar,Alkmaar,Noord-Holland,VBO,4.771494,52.652425
P.C.Boutensstraat,102,,,1822KK,Alkmaar,Alkmaar,Noord-Holland,VBO,4.771633,52.652151
P.C.Boutensstraat,104,,,1822KK,Alkmaar,Alkmaar,Noord-Holland,VBO,4.771576,52.652116
P.C.Boutensstraat,106,,,1822KK,Alkmaar,Alkmaar,Noord-Holland,VBO,4.771392,52.652185
P.C.Boutensstraat,108,,,1822KK,Alkmaar,Alkmaar,Noord-Holland,VBO,4.771304,52.652171
P.C.Boutensstraat,110,,,1822KK,Alkmaar,Alkmaar,Noord-Holland,VBO,4.771239,52.652211
P.C.Boutensstraat,112,,,1822KK,Alkmaar,Alkmaar,Noord-Holland,VBO,4.771154,52.652196
P.C.Boutensstraat,114,,,1822KK,Alkmaar,Alkmaar,Noord-Holland,VBO,4.771087,52.652236
P.C.Boutensstraat,116,,,1822KK,Alkmaar,Alkmaar,Noord-Holland,VBO,4.770999,52.652222
P.C.Boutensstraat,118,,,1822KK,Alkmaar,Alkmaar,Noord-Holland,VBO,4.770935,52.652262
P.C.Boutensstraat,120,,,1822KK,Alkmaar,Alkmaar,Noord-Holland,VBO,4.770842,52.652248
P.C.Boutensstraat,122,,,1822KK,Alkmaar,Alkmaar,Noord-Holland,VBO,4.770776,52.652288
P.C.Boutensstraat,124,,,1822KK,Alkmaar,Alkmaar,Noord-Holland,VBO,4.770692,52.652273
P.C.Boutensstraat,126,,,1822KK,Alkmaar,Alkmaar,Noord-Holland,VBO,4.770624,52.652314
P.C.Boutensstraat,128,,,1822KK,Alkmaar,Alkmaar,Noord-Holland,VBO,4.770533,52.652300
P.C.Boutensstraat,130,,,1822KK,Alkmaar,Alkmaar,Noord-Holland,VBO,4.770444,52.652124
P.C.Boutensstraat,132,,,1822KK,Alkmaar,Alkmaar,Noord-Holland,VBO,4.770530,52.652135
P.C.Boutensstraat,134,,,1822KK,Alkmaar,Alkmaar,Noord-Holland,VBO,4.770595,52.652099
P.C.Boutensstraat,136,,,1822KK,Alkmaar,Alkmaar,Noord-Holland,VBO,4.770683,52.652109
P.C.Boutensstraat,138,,,1822KK,Alkmaar,Alkmaar,Noord-Holland,VBO,4.770751,52.652072
P.C.Boutensstraat,140,,,1822KK,Alkmaar,Alkmaar,Noord-Holland,VBO,4.770838,52.652083
P.C.Boutensstraat,142,,,1822KK,Alkmaar,Alkmaar,Noord-Holland,VBO,4.770912,52.652045
P.C.Boutensstraat,144,,,1822KK,Alkmaar,Alkmaar,Noord-Holland,VBO,4.770998,52.652056
P.C.Boutensstraat,146,,,1822KK,Alkmaar,Alkmaar,Noord-Holland,VBO,4.771065,52.652020
P.C.Boutensstraat,148,,,1822KK,Alkmaar,Alkmaar,Noord-Holland,VBO,4.771151,52.652030
P.C.Boutensstraat,150,,,1822KK,Alkmaar,Alkmaar,Noord-Holland,VBO,4.771219,52.651994
P.C.Boutensstraat,152,,,1822KK,Alkmaar,Alkmaar,Noord-Holland,VBO,4.771302,52.652005
P.C.Boutensstraat,154,,,1822KK,Alkmaar,Alkmaar,Noord-Holland,VBO,4.771556,52.651980
P.C.Boutensstraat,156,,,1822KK,Alkmaar,Alkmaar,Noord-Holland,VBO,4.771493,52.651947
P.C.Boutensstraat,158,,,1822KL,Alkmaar,Alkmaar,Noord-Holland,VBO,4.771180,52.651713
P.C.Boutensstraat,160,,,1822KL,Alkmaar,Alkmaar,Noord-Holland,VBO,4.771116,52.651751
P.C.Boutensstraat,162,,,1822KL,Alkmaar,Alkmaar,Noord-Holland,VBO,4.771027,52.651738
P.C.Boutensstraat,164,,,1822KL,Alkmaar,Alkmaar,Noord-Holland,VBO,4.770963,52.651776
P.C.Boutensstraat,166,,,1822KL,Alkmaar,Alkmaar,Noord-Holland,VBO,4.770877,52.651763
P.C.Boutensstraat,168,,,1822KL,Alkmaar,Alkmaar,Noord-Holland,VBO,4.770805,52.651803
P.C.Boutensstraat,170,,,1822KL,Alkmaar,Alkmaar,Noord-Holland,VBO,4.770719,52.651790
P.C.Boutensstraat,172,,,1822KL,Alkmaar,Alkmaar,Noord-Holland,VBO,4.770649,52.651829
P.C.Boutensstraat,174,,,1822KL,Alkmaar,Alkmaar,Noord-Holland,VBO,4.770564,52.651816
P.C.Boutensstraat,176,,,1822KL,Alkmaar,Alkmaar,Noord-Holland,VBO,4.770496,52.651855
P.C.Boutensstraat,178,,,1822KL,Alkmaar,Alkmaar,Noord-Holland,VBO,4.770418,52.651694
P.C.Boutensstraat,180,,,1822KL,Alkmaar,Alkmaar,Noord-Holland,VBO,4.770480,52.651657
P.C.Boutensstraat,182,,,1822KL,Alkmaar,Alkmaar,Noord-Holland,VBO,4.770566,52.651669
P.C.Boutensstraat,184,,,1822KL,Alkmaar,Alkmaar,Noord-Holland,VBO,4.770639,52.651631
P.C.Boutensstraat,186,,,1822KL,Alkmaar,Alkmaar,Noord-Holland,VBO,4.770728,52.651642
P.C.Boutensstraat,188,,,1822KL,Alkmaar,Alkmaar,Noord-Holland,VBO,4.770798,52.651604
P.C.Boutensstraat,190,,,1822KL,Alkmaar,Alkmaar,Noord-Holland,VBO,4.770877,52.651617
P.C.Boutensstraat,192,,,1822KL,Alkmaar,Alkmaar,Noord-Holland,VBO,4.770945,52.651578
P.C.Boutensstraat,194,,,1822KL,Alkmaar,Alkmaar,Noord-Holland,VBO,4.771034,52.651591
P.C.Boutensstraat,196,,,1822KL,Alkmaar,Alkmaar,Noord-Holland,VBO,4.771098,52.651554
P.C.Boutensstraat,198,,,1822KL,Alkmaar,Alkmaar,Noord-Holland,VBO,4.771222,52.651271
P.C.Boutensstraat,200,,,1822KL,Alkmaar,Alkmaar,Noord-Holland,VBO,4.771166,52.651230
P.C.Boutensstraat,202,,,1822KL,Alkmaar,Alkmaar,Noord-Holland,VBO,4.770988,52.651296
P.C.Boutensstraat,204,,,1822KL,Alkmaar,Alkmaar,Noord-Holland,VBO,4.770899,52.651286
P.C.Boutensstraat,206,,,1822KL,Alkmaar,Alkmaar,Noord-Holland,VBO,4.770835,52.651321
P.C.Boutensstraat,208,,,1822KL,Alkmaar,Alkmaar,Noord-Holland,VBO,4.770746,52.651312
P.C.Boutensstraat,210,,,1822KL,Alkmaar,Alkmaar,Noord-Holland,VBO,4.770686,52.651347
P.C.Boutensstraat,212,,,1822KL,Alkmaar,Alkmaar,Noord-Holland,VBO,4.770595,52.651337
P.C.Boutensstraat,214,,,1822KL,Alkmaar,Alkmaar,Noord-Holland,VBO,4.770528,52.651373
P.C.Boutensstraat,216,,,1822KL,Alkmaar,Alkmaar,Noord-Holland,VBO,4.770443,52.651363
P.C.Boutensstraat,218,,,1822KL,Alkmaar,Alkmaar,Noord-Holland,VBO,4.770373,52.651399
P.C.Boutensstraat,220,,,1822KL,Alkmaar,Alkmaar,Noord-Holland,VBO,4.770277,52.651391
P.C.Boutensstraat,222,,,1822KL,Alkmaar,Alkmaar,Noord-Holland,VBO,4.770214,52.651426
P.C.Boutensstraat,224,,,1822KL,Alkmaar,Alkmaar,Noord-Holland,VBO,4.770124,52.651417
P.C.Boutensstraat,226,,,1822KL,Alkmaar,Alkmaar,Noord-Holland,VBO,4.770062,52.651452
P.C.Boutensstraat,228,,,1822KL,Alkmaar,Alkmaar,Noord-Holland,VBO,4.769971,52.651442
Jacques Perkstraat,100,,,1822KM,Alkmaar,Alkmaar,Noord-Holland,VBO,4.772664,52.654633
Herman Heijermansstraat,1,,,1822LA,Alkmaar,Alkmaar,Noord-Holland,VBO,4.769883,52.648918
Herman Heijermansstraat,3,,,1822LA,Alkmaar,Alkmaar,Noord-Holland,VBO,4.769786,52.648936
Herman Heijermansstraat,5,,,1822LA,Alkmaar,Alkmaar,Noord-Holland,VBO,4.769676,52.648956
Herman Heijermansstraat,7,,,1822LA,Alkmaar,Alkmaar,Noord-Holland,VBO,4.769580,52.648981
Herman Heijermansstraat,9,,,1822LA,Alkmaar,Alkmaar,Noord-Holland,VBO,4.769476,52.649005
Herman Heijermansstraat,11,,,1822LA,Alkmaar,Alkmaar,Noord-Holland,VBO,4.769368,52.649036
Herman Heijermansstraat,13,,,1822LA,Alkmaar,Alkmaar,Noord-Holland,VBO,4.769269,52.649070
Herman Heijermansstraat,15,,,1822LA,Alkmaar,Alkmaar,Noord-Holland,VBO,4.769181,52.649103
Herman Heijermansstraat,17,,,1822LA,Alkmaar,Alkmaar,Noord-Holland,VBO,4.769087,52.649143
Herman Heijermansstraat,19,,,1822LA,Alkmaar,Alkmaar,Noord-Holland,VBO,4.769001,52.649181
Herman Heijermansstraat,21,,,1822LA,Alkmaar,Alkmaar,Noord-Holland,VBO,4.768914,52.649221
Herman Heijermansstraat,23,,,1822LA,Alkmaar,Alkmaar,Noord-Holland,VBO,4.768834,52.649263
Herman Heijermansstraat,25,,,1822LA,Alkmaar,Alkmaar,Noord-Holland,VBO,4.768548,52.649446
Herman Heijermansstraat,27,,,1822LA,Alkmaar,Alkmaar,Noord-Holland,VBO,4.768491,52.649492
Herman Heijermansstraat,29,,,1822LA,Alkmaar,Alkmaar,Noord-Holland,VBO,4.768432,52.649552
Herman Heijermansstraat,31,,,1822LA,Alkmaar,Alkmaar,Noord-Holland,VBO,4.768372,52.649607
Herman Heijermansstraat,33,,,1822LA,Alkmaar,Alkmaar,Noord-Holland,VBO,4.768317,52.649669
Herman Heijermansstraat,35,,,1822LA,Alkmaar,Alkmaar,Noord-Holland,VBO,4.768266,52.649727
Herman Heijermansstraat,37,,,1822LA,Alkmaar,Alkmaar,Noord-Holland,VBO,4.768219,52.649791
Herman Heijermansstraat,39,,,1822LA,Alkmaar,Alkmaar,Noord-Holland,VBO,4.768168,52.649851
Herman Heijermansstraat,41,,,1822LA,Alkmaar,Alkmaar,Noord-Holland,VBO,4.768123,52.649913
Herman Heijermansstraat,43,,,1822LA,Alkmaar,Alkmaar,Noord-Holland,VBO,4.768090,52.649978
Herman Heijermansstraat,45,,,1822LA,Alkmaar,Alkmaar,Noord-Holland,VBO,4.767985,52.650220
Herman Heijermansstraat,47,,,1822LA,Alkmaar,Alkmaar,Noord-Holland,VBO,4.767960,52.650280
Herman Heijermansstraat,49,,,1822LA,Alkmaar,Alkmaar,Noord-Holland,VBO,4.767942,52.650347
Herman Heijermansstraat,51,,,1822LA,Alkmaar,Alkmaar,Noord-Holland,VBO,4.767920,52.650414
Herman Heijermansstraat,53,,,1822LA,Alkmaar,Alkmaar,Noord-Holland,VBO,4.767903,52.650485
Herman Heijermansstraat,55,,,1822LA,Alkmaar,Alkmaar,Noord-Holland,VBO,4.767892,52.650549
Herman Heijermansstraat,57,,,1822LA,Alkmaar,Alkmaar,Noord-Holland,VBO,4.767884,52.650622
Herman Heijermansstraat,59,,,1822LA,Alkmaar,Alkmaar,Noord-Holland,VBO,4.767874,52.650686
Herman Heijermansstraat,61,,,1822LA,Alkmaar,Alkmaar,Noord-Holland,VBO,4.767870,52.650756
Herman Heijermansstraat,63,,,1822LA,Alkmaar,Alkmaar,Noord-Holland,VBO,4.767871,52.650819
Herman Heijermansstraat,65,,,1822LA,Alkmaar,Alkmaar,Noord-Holland,VBO,4.767876,52.650892
Herman Heijermansstraat,67,,,1822LA,Alkmaar,Alkmaar,Noord-Holland,VBO,4.767882,52.650958
Herman Heijermansstraat,69,,,1822LA,Alkmaar,Alkmaar,Noord-Holland,VBO,4.767887,52.651031
Herman Heijermansstraat,71,,,1822LA,Alkmaar,Alkmaar,Noord-Holland,VBO,4.767901,52.651090
Herman Heijermansstraat,73,,,1822LA,Alkmaar,Alkmaar,Noord-Holland,VBO,4.767919,52.651161
Herman Heijermansstraat,75,,,1822LA,Alkmaar,Alkmaar,Noord-Holland,VBO,4.767936,52.651223
Herman Heijermansstraat,77,,,1822LA,Alkmaar,Alkmaar,Noord-Holland,VBO,4.767960,52.651296
Herman Heijermansstraat,79,,,1822LA,Alkmaar,Alkmaar,Noord-Holland,VBO,4.767978,52.651358
Herman Heijermansstraat,81,,,1822LA,Alkmaar,Alkmaar,Noord-Holland,VBO,4.768001,52.651428
Herman Heijermansstraat,83,,,1822LA,Alkmaar,Alkmaar,Noord-Holland,VBO,4.768023,52.651490
Herman Heijermansstraat,2,,,1822LB,Alkmaar,Alkmaar,Noord-Holland,VBO,4.770041,52.649075
Herman Heijermansstraat,4,,,1822LB,Alkmaar,Alkmaar,Noord-Holland,VBO,4.768732,52.649703
Herman Heijermansstraat,6,,,1822LB,Alkmaar,Alkmaar,Noord-Holland,VBO,4.768774,52.649750
Herman Heijermansstraat,8,,,1822LB,Alkmaar,Alkmaar,Noord-Holland,VBO,4.768855,52.649749
Herman Heijermansstraat,10,,,1822LB,Alkmaar,Alkmaar,Noord-Holland,VBO,4.768901,52.649798
Herman Heijermansstraat,12,,,1822LB,Alkmaar,Alkmaar,Noord-Holland,VBO,4.768982,52.649796
Herman Heijermansstraat,14,,,1822LB,Alkmaar,Alkmaar,Noord-Holland,VBO,4.769016,52.649841
Herman Heijermansstraat,16,,,1822LB,Alkmaar,Alkmaar,Noord-Holland,VBO,4.769105,52.649843
Herman Heijermansstraat,18,,,1822LB,Alkmaar,Alkmaar,Noord-Holland,VBO,4.769140,52.649887
Herman Heijermansstraat,20,,,1822LB,Alkmaar,Alkmaar,Noord-Holland,VBO,4.769217,52.649885
Herman Heijermansstraat,22,,,1822LB,Alkmaar,Alkmaar,Noord-Holland,VBO,4.769256,52.649931
Herman Heijermansstraat,24,,,1822LB,Alkmaar,Alkmaar,Noord-Holland,VBO,4.768455,52.650076
Herman Heijermansstraat,26,,,1822LB,Alkmaar,Alkmaar,Noord-Holland,VBO,4.768534,52.650063
Herman Heijermansstraat,28,,,1822LB,Alkmaar,Alkmaar,Noord-Holland,VBO,4.768594,52.650101
Herman Heijermansstraat,30,,,1822LB,Alkmaar,Alkmaar,Noord-Holland,VBO,4.768678,52.650089
Herman Heijermansstraat,32,,,1822LB,Alkmaar,Alkmaar,Noord-Holland,VBO,4.768724,52.650126
Herman Heijermansstraat,34,,,1822LB,Alkmaar,Alkmaar,Noord-Holland,VBO,4.768813,52.650114
Herman Heijermansstraat,36,,,1822LB,Alkmaar,Alkmaar,Noord-Holland,VBO,4.768862,52.650151
Herman Heijermansstraat,38,,,1822LB,Alkmaar,Alkmaar,Noord-Holland,VBO,4.768944,52.650138
Herman Heijermansstraat,40,,,1822LB,Alkmaar,Alkmaar,Noord-Holland,VBO,4.768999,52.650176
Herman Heijermansstraat,42,,,1822LB,Alkmaar,Alkmaar,Noord-Holland,VBO,4.769088,52.650165
Herman Heijermansstraat,44,,,1822LB,Alkmaar,Alkmaar,Noord-Holland,VBO,4.768972,52.650366
Herman Heijermansstraat,46,,,1822LB,Alkmaar,Alkmaar,Noord-Holland,VBO,4.768895,52.650381
Herman Heijermansstraat,48,,,1822LB,Alkmaar,Alkmaar,Noord-Holland,VBO,4.768834,52.650340
Herman Heijermansstraat,50,,,1822LB,Alkmaar,Alkmaar,Noord-Holland,VBO,4.768761,52.650356
Herman Heijermansstraat,52,,,1822LB,Alkmaar,Alkmaar,Noord-Holland,VBO,4.768703,52.650316
Herman Heijermansstraat,54,,,1822LB,Alkmaar,Alkmaar,Noord-Holland,VBO,4.768621,52.650331
Herman Heijermansstraat,56,,,1822LB,Alkmaar,Alkmaar,Noord-Holland,VBO,4.768567,52.650291
Herman Heijermansstraat,58,,,1822LB,Alkmaar,Alkmaar,Noord-Holland,VBO,4.768484,52.650305
Herman Heijermansstraat,60,,,1822LB,Alkmaar,Alkmaar,Noord-Holland,VBO,4.768433,52.650266
Herman Heijermansstraat,62,,,1822LB,Alkmaar,Alkmaar,Noord-Holland,VBO,4.768351,52.650281
Herman Heijermansstraat,64,,,1822LC,Alkmaar,Alkmaar,Noord-Holland,VBO,4.768252,52.650720
Herman Heijermansstraat,66,,,1822LC,Alkmaar,Alkmaar,Noord-Holland,VBO,4.768326,52.650693
Herman Heijermansstraat,68,,,1822LC,Alkmaar,Alkmaar,Noord-Holland,VBO,4.768395,52.650718
Herman Heijermansstraat,70,,,1822LC,Alkmaar,Alkmaar,Noord-Holland,VBO,4.768466,52.650691
Herman Heijermansstraat,72,,,1822LC,Alkmaar,Alkmaar,Noord-Holland,VBO,4.768541,52.650716
Herman Heijermansstraat,74,,,1822LC,Alkmaar,Alkmaar,Noord-Holland,VBO,4.768614,52.650689
Herman Heijermansstraat,76,,,1822LC,Alkmaar,Alkmaar,Noord-Holland,VBO,4.768684,52.650714
Herman Heijermansstraat,78,,,1822LC,Alkmaar,Alkmaar,Noord-Holland,VBO,4.768755,52.650687
Herman Heijermansstraat,80,,,1822LC,Alkmaar,Alkmaar,Noord-Holland,VBO,4.768825,52.650712
Herman Heijermansstraat,82,,,1822LC,Alkmaar,Alkmaar,Noord-Holland,VBO,4.768895,52.650684
Herman Heijermansstraat,84,,,1822LC,Alkmaar,Alkmaar,Noord-Holland,VBO,4.768897,52.650951
Herman Heijermansstraat,86,,,1822LC,Alkmaar,Alkmaar,Noord-Holland,VBO,4.768837,52.650985
Herman Heijermansstraat,88,,,1822LC,Alkmaar,Alkmaar,Noord-Holland,VBO,4.768757,52.650953
Herman Heijermansstraat,90,,,1822LC,Alkmaar,Alkmaar,Noord-Holland,VBO,4.768696,52.650987
Herman Heijermansstraat,92,,,1822LC,Alkmaar,Alkmaar,Noord-Holland,VBO,4.768617,52.650955
Herman Heijermansstraat,94,,,1822LC,Alkmaar,Alkmaar,Noord-Holland,VBO,4.768553,52.650989
Herman Heijermansstraat,96,,,1822LC,Alkmaar,Alkmaar,Noord-Holland,VBO,4.768480,52.650957
Herman Heijermansstraat,98,,,1822LC,Alkmaar,Alkmaar,Noord-Holland,VBO,4.768410,52.650991
Herman Heijermansstraat,100,,,1822LC,Alkmaar,Alkmaar,Noord-Holland,VBO,4.768338,52.650958
Herman Heijermansstraat,102,,,1822LC,Alkmaar,Alkmaar,Noord-Holland,VBO,4.768267,52.650992
Herman Heijermansstraat,104,,,1822LC,Alkmaar,Alkmaar,Noord-Holland,VBO,4.768369,52.651375
Herman Heijermansstraat,106,,,1822LC,Alkmaar,Alkmaar,Noord-Holland,VBO,4.768454,52.651386
Herman Heijermansstraat,108,,,1822LC,Alkmaar,Alkmaar,Noord-Holland,VBO,4.768520,52.651349
Herman Heijermansstraat,110,,,1822LC,Alkmaar,Alkmaar,Noord-Holland,VBO,4.768600,52.651358
Herman Heijermansstraat,112,,,1822LC,Alkmaar,Alkmaar,Noord-Holland,VBO,4.768670,52.651324
Herman Heijermansstraat,114,,,1822LC,Alkmaar,Alkmaar,Noord-Holland,VBO,4.768758,52.651339
Herman Heijermansstraat,116,,,1822LC,Alkmaar,Alkmaar,Noord-Holland,VBO,4.768824,52.651298
Herman Heijermansstraat,118,,,1822LC,Alkmaar,Alkmaar,Noord-Holland,VBO,4.768910,52.651313
Herman Heijermansstraat,120,,,1822LC,Alkmaar,Alkmaar,Noord-Holland,VBO,4.768984,52.651271
Herman Heijermansstraat,122,,,1822LC,Alkmaar,Alkmaar,Noord-Holland,VBO,4.769071,52.651286
Herman Heijermansstraat,124,,,1822LC,Alkmaar,Alkmaar,Noord-Holland,VBO,4.769140,52.651245
Herman Heijermansstraat,126,,,1822LC,Alkmaar,Alkmaar,Noord-Holland,VBO,4.769223,52.651260
Herman Heijermansstraat,128,,,1822LC,Alkmaar,Alkmaar,Noord-Holland,VBO,4.769292,52.651218
Louis Couperusstraat,2,,,1822LD,Alkmaar,Alkmaar,Noord-Holland,VBO,4.771394,52.654572
Louis Couperusstraat,4,,,1822LD,Alkmaar,Alkmaar,Noord-Holland,VBO,4.771311,52.654544
Louis Couperusstraat,6,,,1822LD,Alkmaar,Alkmaar,Noord-Holland,VBO,4.771214,52.654509
Louis Couperusstraat,8,,,1822LD,Alkmaar,Alkmaar,Noord-Holland,VBO,4.771122,52.654477
Louis Couperusstraat,10,,,1822LD,Alkmaar,Alkmaar,Noord-Holland,VBO,4.771031,52.654441
Louis Couperusstraat,12,,,1822LD,Alkmaar,Alkmaar,Noord-Holland,VBO,4.770940,52.654405
Louis Couperusstraat,14,,,1822LD,Alkmaar,Alkmaar,Noord-Holland,VBO,4.770851,52.654369
Louis Couperusstraat,16,,,1822LD,Alkmaar,Alkmaar,Noord-Holland,VBO,4.770764,52.654328
Louis Couperusstraat,18,,,1822LD,Alkmaar,Alkmaar,Noord-Holland,VBO,4.770674,52.654288
Louis Couperusstraat,20,,,1822LD,Alkmaar,Alkmaar,Noord-Holland,VBO,4.770580,52.654245
Louis Couperusstraat,22,,,1822LD,Alkmaar,Alkmaar,Noord-Holland,VBO,4.770495,52.654203
Louis Couperusstraat,24,,,1822LD,Alkmaar,Alkmaar,Noord-Holland,VBO,4.770417,52.654158
Louis Couperusstraat,26,,,1822LD,Alkmaar,Alkmaar,Noord-Holland,VBO,4.770334,52.654114
Louis Couperusstraat,28,,,1822LD,Alkmaar,Alkmaar,Noord-Holland,VBO,4.770254,52.654068
Louis Couperusstraat,30,,,1822LD,Alkmaar,Alkmaar,Noord-Holland,VBO,4.770176,52.654021
Louis Couperusstraat,32,,,1822LD,Alkmaar,Alkmaar,Noord-Holland,VBO,4.770100,52.653975
Louis Couperusstraat,34,,,1822LD,Alkmaar,Alkmaar,Noord-Holland,VBO,4.770024,52.653925
Louis Couperusstraat,36,,,1822LD,Alkmaar,Alkmaar,Noord-Holland,VBO,4.769957,52.653876
Louis Couperusstraat,38,,,1822LD,Alkmaar,Alkmaar,Noord-Holland,VBO,4.769736,52.653716
Louis Couperusstraat,40,,,1822LD,Alkmaar,Alkmaar,Noord-Holland,VBO,4.769678,52.653663
Louis Couperusstraat,42,,,1822LD,Alkmaar,Alkmaar,Noord-Holland,VBO,4.769605,52.653607
Louis Couperusstraat,44,,,1822LD,Alkmaar,Alkmaar,Noord-Holland,VBO,4.769549,52.653559
Louis Couperusstraat,46,,,1822LD,Alkmaar,Alkmaar,Noord-Holland,VBO,4.769483,52.653503
Louis Couperusstraat,48,,,1822LD,Alkmaar,Alkmaar,Noord-Holland,VBO,4.769422,52.653447
Louis Couperusstraat,50,,,1822LD,Alkmaar,Alkmaar,Noord-Holland,VBO,4.769362,52.653390
Louis Couperusstraat,52,,,1822LD,Alkmaar,Alkmaar,Noord-Holland,VBO,4.769299,52.653335
Louis Couperusstraat,54,,,1822LD,Alkmaar,Alkmaar,Noord-Holland,VBO,4.769249,52.653280
Louis Couperusstraat,56,,,1822LD,Alkmaar,Alkmaar,Noord-Holland,VBO,4.769191,52.653228
Louis Couperusstraat,58,,,1822LD,Alkmaar,Alkmaar,Noord-Holland,VBO,4.769131,52.653164
Louis Couperusstraat,60,,,1822LD,Alkmaar,Alkmaar,Noord-Holland,VBO,4.769076,52.653110
Louis Couperusstraat,62,,,1822LD,Alkmaar,Alkmaar,Noord-Holland,VBO,4.769020,52.653055
Louis Couperusstraat,64,,,1822LD,Alkmaar,Alkmaar,Noord-Holland,VBO,4.768969,52.652996
Louis Couperusstraat,66,,,1822LD,Alkmaar,Alkmaar,Noord-Holland,VBO,4.768916,52.652934
Louis Couperusstraat,68,,,1822LD,Alkmaar,Alkmaar,Noord-Holland,VBO,4.768867,52.652881
Louis Couperusstraat,70,,,1822LD,Alkmaar,Alkmaar,Noord-Holland,VBO,4.768689,52.652663
Louis Couperusstraat,72,,,1822LD,Alkmaar,Alkmaar,Noord-Holland,VBO,4.768638,52.652600
Louis Couperusstraat,74,,,1822LD,Alkmaar,Alkmaar,Noord-Holland,VBO,4.768593,52.652536
Louis Couperusstraat,76,,,1822LD,Alkmaar,Alkmaar,Noord-Holland,VBO,4.768551,52.652477
Louis Couperusstraat,78,,,1822LD,Alkmaar,Alkmaar,Noord-Holland,VBO,4.768508,52.652414
Louis Couperusstraat,80,,,1822LD,Alkmaar,Alkmaar,Noord-Holland,VBO,4.768472,52.652360
Louis Couperusstraat,82,,,1822LD,Alkmaar,Alkmaar,Noord-Holland,VBO,4.768426,52.652294
Louis Couperusstraat,84,,,1822LD,Alkmaar,Alkmaar,Noord-Holland,VBO,4.768391,52.652235
Louis Couperusstraat,86,,,1822LD,Alkmaar,Alkmaar,Noord-Holland,VBO,4.768355,52.652174
Louis Couperusstraat,88,,,1822LD,Alkmaar,Alkmaar,Noord-Holland,VBO,4.768317,52.652112
Louis Couperusstraat,90,,,1822LD,Alkmaar,Alkmaar,Noord-Holland,VBO,4.768281,52.652046
Louis Couperusstraat,92,,,1822LD,Alkmaar,Alkmaar,Noord-Holland,VBO,4.768246,52.651985
Louis Couperusstraat,94,,,1822LD,Alkmaar,Alkmaar,Noord-Holland,VBO,4.768209,52.651921
Louis Couperusstraat,96,,,1822LD,Alkmaar,Alkmaar,Noord-Holland,VBO,4.768178,52.651857
Louis Couperusstraat,98,,,1822LD,Alkmaar,Alkmaar,Noord-Holland,VBO,4.768150,52.651793
Louis Couperusstraat,100,,,1822LD,Alkmaar,Alkmaar,Noord-Holland,VBO,4.768119,52.651732
Louis Couperusstraat,5,,,1822LE,Alkmaar,Alkmaar,Noord-Holland,VBO,4.772066,52.653609
Louis Couperusstraat,7,A,,1822LE,Alkmaar,Alkmaar,Noord-Holland,VBO,4.771936,52.653716
Louis Couperusstraat,7,,,1822LE,Alkmaar,Alkmaar,Noord-Holland,VBO,4.771978,52.653726
Louis Couperusstraat,9,,,1822LE,Alkmaar,Alkmaar,Noord-Holland,VBO,4.771930,52.653786
Louis Couperusstraat,11,,,1822LE,Alkmaar,Alkmaar,Noord-Holland,VBO,4.771884,52.653852
Louis Couperusstraat,13,,,1822LE,Alkmaar,Alkmaar,Noord-Holland,VBO,4.771836,52.653911
Louis Couperusstraat,15,,,1822LE,Alkmaar,Alkmaar,Noord-Holland,VBO,4.771798,52.653966
Louis Couperusstraat,17,,,1822LE,Alkmaar,Alkmaar,Noord-Holland,VBO,4.771746,52.654032
Louis Couperusstraat,19,,,1822LE,Alkmaar,Alkmaar,Noord-Holland,VBO,4.771703,52.654093
Louis Couperusstraat,21,,,1822LE,Alkmaar,Alkmaar,Noord-Holland,VBO,4.771655,52.654153
Louis Couperusstraat,23,,,1822LE,Alkmaar,Alkmaar,Noord-Holland,VBO,4.771617,52.654208
Louis Couperusstraat,25,,,1822LE,Alkmaar,Alkmaar,Noord-Holland,VBO,4.771565,52.654274
Louis Couperusstraat,27,,,1822LE,Alkmaar,Alkmaar,Noord-Holland,VBO,4.771522,52.654335
Louis Couperusstraat,29,,,1822LE,Alkmaar,Alkmaar,Noord-Holland,VBO,4.771013,52.654145
Louis Couperusstraat,31,,,1822LE,Alkmaar,Alkmaar,Noord-Holland,VBO,4.771031,52.654093
Louis Couperusstraat,33,,,1822LE,Alkmaar,Alkmaar,Noord-Holland,VBO,4.771104,52.654071
Louis Couperusstraat,35,,,1822LE,Alkmaar,Alkmaar,Noord-Holland,VBO,4.771117,52.654023
Louis Couperusstraat,37,,,1822LE,Alkmaar,Alkmaar,Noord-Holland,VBO,4.771188,52.654003
Louis Couperusstraat,39,,,1822LE,Alkmaar,Alkmaar,Noord-Holland,VBO,4.771201,52.653955
Louis Couperusstraat,41,,,1822LE,Alkmaar,Alkmaar,Noord-Holland,VBO,4.771275,52.653932
Louis Couperusstraat,43,,,1822LE,Alkmaar,Alkmaar,Noord-Holland,VBO,4.771284,52.653887
Louis Couperusstraat,45,,,1822LE,Alkmaar,Alkmaar,Noord-Holland,VBO,4.771357,52.653865
Louis Couperusstraat,47,,,1822LE,Alkmaar,Alkmaar,Noord-Holland,VBO,4.771374,52.653814
Louis Couperusstraat,49,,,1822LE,Alkmaar,Alkmaar,Noord-Holland,VBO,4.771078,52.653675
Louis Couperusstraat,51,,,1822LE,Alkmaar,Alkmaar,Noord-Holland,VBO,4.771066,52.653729
Louis Couperusstraat,53,,,1822LE,Alkmaar,Alkmaar,Noord-Holland,VBO,4.770989,52.653747
Louis Couperusstraat,55,,,1822LE,Alkmaar,Alkmaar,Noord-Holland,VBO,4.770983,52.653796
Louis Couperusstraat,57,,,1822LE,Alkmaar,Alkmaar,Noord-Holland,VBO,4.770905,52.653816
Louis Couperusstraat,59,,,1822LE,Alkmaar,Alkmaar,Noord-Holland,VBO,4.770893,52.653870
Louis Couperusstraat,61,,,1822LE,Alkmaar,Alkmaar,Noord-Holland,VBO,4.770820,52.653885
Louis Couperusstraat,63,,,1822LE,Alkmaar,Alkmaar,Noord-Holland,VBO,4.770810,52.653937
Louis Couperusstraat,65,,,1822LE,Alkmaar,Alkmaar,Noord-Holland,VBO,4.770737,52.653953
Louis Couperusstraat,67,,,1822LE,Alkmaar,Alkmaar,Noord-Holland,VBO,4.770725,52.654006
Louis Couperusstraat,69,,,1822LG,Alkmaar,Alkmaar,Noord-Holland,VBO,4.770251,52.653733
Louis Couperusstraat,71,,,1822LG,Alkmaar,Alkmaar,Noord-Holland,VBO,4.770284,52.653681
Louis Couperusstraat,73,,,1822LG,Alkmaar,Alkmaar,Noord-Holland,VBO,4.770369,52.653677
Louis Couperusstraat,75,,,1822LG,Alkmaar,Alkmaar,Noord-Holland,VBO,4.770392,52.653627
Louis Couperusstraat,77,,,1822LG,Alkmaar,Alkmaar,Noord-Holland,VBO,4.770474,52.653625
Louis Couperusstraat,79,,,1822LG,Alkmaar,Alkmaar,Noord-Holland,VBO,4.770501,52.653573
Louis Couperusstraat,81,,,1822LG,Alkmaar,Alkmaar,Noord-Holland,VBO,4.770588,52.653569
Louis Couperusstraat,83,,,1822LG,Alkmaar,Alkmaar,Noord-Holland,VBO,4.770613,52.653518
Louis Couperusstraat,85,,,1822LG,Alkmaar,Alkmaar,Noord-Holland,VBO,4.770699,52.653514
Louis Couperusstraat,87,,,1822LG,Alkmaar,Alkmaar,Noord-Holland,VBO,4.770727,52.653462
Louis Couperusstraat,89,,,1822LG,Alkmaar,Alkmaar,Noord-Holland,VBO,4.770538,52.653319
Louis Couperusstraat,91,,,1822LG,Alkmaar,Alkmaar,Noord-Holland,VBO,4.770436,52.653324
Louis Couperusstraat,93,,,1822LG,Alkmaar,Alkmaar,Noord-Holland,VBO,4.770427,52.653374
Louis Couperusstraat,95,,,1822LG,Alkmaar,Alkmaar,Noord-Holland,VBO,4.770327,52.653377
Louis Couperusstraat,97,,,1822LG,Alkmaar,Alkmaar,Noord-Holland,VBO,4.770313,52.653430
Louis Couperusstraat,99,,,1822LG,Alkmaar,Alkmaar,Noord-Holland,VBO,4.770218,52.653432
Louis Couperusstraat,101,,,1822LG,Alkmaar,Alkmaar,Noord-Holland,VBO,4.770202,52.653485
Louis Couperusstraat,103,,,1822LG,Alkmaar,Alkmaar,Noord-Holland,VBO,4.770105,52.653488
Louis Couperusstraat,105,,,1822LG,Alkmaar,Alkmaar,Noord-Holland,VBO,4.770090,52.653540
Louis Couperusstraat,107,,,1822LG,Alkmaar,Alkmaar,Noord-Holland,VBO,4.769993,52.653543
Louis Couperusstraat,109,,,1822LG,Alkmaar,Alkmaar,Noord-Holland,VBO,4.769700,52.653279
Louis Couperusstraat,111,,,1822LG,Alkmaar,Alkmaar,Noord-Holland,VBO,4.769744,52.653226
Louis Couperusstraat,113,,,1822LG,Alkmaar,Alkmaar,Noord-Holland,VBO,4.769827,52.653230
Louis Couperusstraat,115,,,1822LG,Alkmaar,Alkmaar,Noord-Holland,VBO,4.769861,52.653181
Louis Couperusstraat,117,,,1822LG,Alkmaar,Alkmaar,Noord-Holland,VBO,4.769950,52.653183
Louis Couperusstraat,119,,,1822LG,Alkmaar,Alkmaar,Noord-Holland,VBO,4.769986,52.653134
Louis Couperusstraat,121,,,1822LG,Alkmaar,Alkmaar,Noord-Holland,VBO,4.770066,52.653139
Louis Couperusstraat,123,,,1822LG,Alkmaar,Alkmaar,Noord-Holland,VBO,4.770096,52.653092
Louis Couperusstraat,125,,,1822LG,Alkmaar,Alkmaar,Noord-Holland,VBO,4.770183,52.653094
Louis Couperusstraat,127,,,1822LG,Alkmaar,Alkmaar,Noord-Holland,VBO,4.770220,52.653044
Louis Couperusstraat,129,,,1822LG,Alkmaar,Alkmaar,Noord-Holland,VBO,4.770029,52.652872
Louis Couperusstraat,131,,,1822LG,Alkmaar,Alkmaar,Noord-Holland,VBO,4.769941,52.652869
Louis Couperusstraat,133,,,1822LG,Alkmaar,Alkmaar,Noord-Holland,VBO,4.769906,52.652919
Louis Couperusstraat,135,,,1822LG,Alkmaar,Alkmaar,Noord-Holland,VBO,4.769820,52.652915
Louis Couperusstraat,137,,,1822LG,Alkmaar,Alkmaar,Noord-Holland,VBO,4.769786,52.652965
Louis Couperusstraat,139,,,1822LG,Alkmaar,Alkmaar,Noord-Holland,VBO,4.769701,52.652961
Louis Couperusstraat,141,,,1822LG,Alkmaar,Alkmaar,Noord-Holland,VBO,4.769662,52.653013
Louis Couperusstraat,143,,,1822LG,Alkmaar,Alkmaar,Noord-Holland,VBO,4.769582,52.653007
Louis Couperusstraat,145,,,1822LG,Alkmaar,Alkmaar,Noord-Holland,VBO,4.769546,52.653057
Louis Couperusstraat,147,,,1822LG,Alkmaar,Alkmaar,Noord-Holland,VBO,4.769459,52.653053
Louis Couperusstraat,149,,,1822LH,Alkmaar,Alkmaar,Noord-Holland,VBO,4.769215,52.652784
Louis Couperusstraat,151,,,1822LH,Alkmaar,Alkmaar,Noord-Holland,VBO,4.769261,52.652733
Louis Couperusstraat,153,,,1822LH,Alkmaar,Alkmaar,Noord-Holland,VBO,4.769346,52.652744
Louis Couperusstraat,155,,,1822LH,Alkmaar,Alkmaar,Noord-Holland,VBO,4.769385,52.652695
Louis Couperusstraat,157,,,1822LH,Alkmaar,Alkmaar,Noord-Holland,VBO,4.769473,52.652706
Louis Couperusstraat,159,,,1822LH,Alkmaar,Alkmaar,Noord-Holland,VBO,4.769514,52.652656
Louis Couperusstraat,161,,,1822LH,Alkmaar,Alkmaar,Noord-Holland,VBO,4.769602,52.652667
Louis Couperusstraat,163,,,1822LH,Alkmaar,Alkmaar,Noord-Holland,VBO,4.769643,52.652617
Louis Couperusstraat,165,,,1822LH,Alkmaar,Alkmaar,Noord-Holland,VBO,4.769729,52.652629
Louis Couperusstraat,167,,,1822LH,Alkmaar,Alkmaar,Noord-Holland,VBO,4.769767,52.652580
Louis Couperusstraat,169,,,1822LH,Alkmaar,Alkmaar,Noord-Holland,VBO,4.769619,52.652415
Louis Couperusstraat,171,,,1822LH,Alkmaar,Alkmaar,Noord-Holland,VBO,4.769533,52.652404
Louis Couperusstraat,173,,,1822LH,Alkmaar,Alkmaar,Noord-Holland,VBO,4.769490,52.652454
Louis Couperusstraat,175,,,1822LH,Alkmaar,Alkmaar,Noord-Holland,VBO,4.769409,52.652441
Louis Couperusstraat,177,,,1822LH,Alkmaar,Alkmaar,Noord-Holland,VBO,4.769364,52.652492
Louis Couperusstraat,179,,,1822LH,Alkmaar,Alkmaar,Noord-Holland,VBO,4.769278,52.652481
Louis Couperusstraat,181,,,1822LH,Alkmaar,Alkmaar,Noord-Holland,VBO,4.769232,52.652532
Louis Couperusstraat,183,,,1822LH,Alkmaar,Alkmaar,Noord-Holland,VBO,4.769150,52.652520
Louis Couperusstraat,185,,,1822LH,Alkmaar,Alkmaar,Noord-Holland,VBO,4.769104,52.652571
Louis Couperusstraat,187,,,1822LH,Alkmaar,Alkmaar,Noord-Holland,VBO,4.769021,52.652559
Louis Couperusstraat,189,,,1822LJ,Alkmaar,Alkmaar,Noord-Holland,VBO,4.768824,52.652275
Louis Couperusstraat,191,,,1822LJ,Alkmaar,Alkmaar,Noord-Holland,VBO,4.768884,52.652225
Louis Couperusstraat,193,,,1822LJ,Alkmaar,Alkmaar,Noord-Holland,VBO,4.768965,52.652243
Louis Couperusstraat,195,,,1822LJ,Alkmaar,Alkmaar,Noord-Holland,VBO,4.769014,52.652195
Louis Couperusstraat,197,,,1822LJ,Alkmaar,Alkmaar,Noord-Holland,VBO,4.769093,52.652213
Louis Couperusstraat,199,,,1822LJ,Alkmaar,Alkmaar,Noord-Holland,VBO,4.769144,52.652165
Louis Couperusstraat,201,,,1822LJ,Alkmaar,Alkmaar,Noord-Holland,VBO,4.769226,52.652183
Louis Couperusstraat,203,,,1822LJ,Alkmaar,Alkmaar,Noord-Holland,VBO,4.769273,52.652140
Louis Couperusstraat,205,,,1822LJ,Alkmaar,Alkmaar,Noord-Holland,VBO,4.769352,52.652154
Louis Couperusstraat,207,A,,1822LJ,Alkmaar,Alkmaar,Noord-Holland,VBO,4.770000,52.651939
Louis Couperusstraat,207,,,1822LJ,Alkmaar,Alkmaar,Noord-Holland,VBO,4.769404,52.652110
Louis Couperusstraat,209,,,1822LJ,Alkmaar,Alkmaar,Noord-Holland,VBO,4.769269,52.651882
Louis Couperusstraat,211,,,1822LJ,Alkmaar,Alkmaar,Noord-Holland,VBO,4.769202,52.651914
Louis Couperusstraat,213,,,1822LJ,Alkmaar,Alkmaar,Noord-Holland,VBO,4.769130,52.651914
Louis Couperusstraat,215,,,1822LJ,Alkmaar,Alkmaar,Noord-Holland,VBO,4.769074,52.651944
Louis Couperusstraat,217,,,1822LJ,Alkmaar,Alkmaar,Noord-Holland,VBO,4.768996,52.651944
Louis Couperusstraat,219,,,1822LJ,Alkmaar,Alkmaar,Noord-Holland,VBO,4.768936,52.651975
Louis Couperusstraat,221,,,1822LJ,Alkmaar,Alkmaar,Noord-Holland,VBO,4.768867,52.651974
Louis Couperusstraat,223,,,1822LJ,Alkmaar,Alkmaar,Noord-Holland,VBO,4.768813,52.652004
Louis Couperusstraat,225,,,1822LJ,Alkmaar,Alkmaar,Noord-Holland,VBO,4.768735,52.652004
Louis Couperusstraat,227,,,1822LJ,Alkmaar,Alkmaar,Noord-Holland,VBO,4.768675,52.652035
Louis Couperusstraat,229,,,1822LJ,Alkmaar,Alkmaar,Noord-Holland,VBO,4.768526,52.651725
Louis Couperusstraat,231,,,1822LJ,Alkmaar,Alkmaar,Noord-Holland,VBO,4.768600,52.651694
Louis Couperusstraat,233,,,1822LJ,Alkmaar,Alkmaar,Noord-Holland,VBO,4.768682,52.651699
Louis Couperusstraat,235,,,1822LJ,Alkmaar,Alkmaar,Noord-Holland,VBO,4.768753,52.651668
Louis Couperusstraat,237,,,1822LJ,Alkmaar,Alkmaar,Noord-Holland,VBO,4.768837,52.651673
Louis Couperusstraat,239,,,1822LJ,Alkmaar,Alkmaar,Noord-Holland,VBO,4.768904,52.651643
Louis Couperusstraat,241,,,1822LJ,Alkmaar,Alkmaar,Noord-Holland,VBO,4.768993,52.651646
Louis Couperusstraat,243,,,1822LJ,Alkmaar,Alkmaar,Noord-Holland,VBO,4.769057,52.651617
Louis Couperusstraat,245,,,1822LJ,Alkmaar,Alkmaar,Noord-Holland,VBO,4.769146,52.651621
Louis Couperusstraat,247,,,1822LJ,Alkmaar,Alkmaar,Noord-Holland,VBO,4.769215,52.651590
Louis Couperusstraat,249,,,1822LJ,Alkmaar,Alkmaar,Noord-Holland,VBO,4.769302,52.651594
Louis Couperusstraat,251,,,1822LJ,Alkmaar,Alkmaar,Noord-Holland,VBO,4.769372,52.651564
Louis Couperusstraat,253,,,1822LJ,Alkmaar,Alkmaar,Noord-Holland,VBO,4.769454,52.651569
Simon Carmiggeltstraat,1,,,1822MA,Alkmaar,Alkmaar,Noord-Holland,VBO,4.770495,52.648100
Simon Carmiggeltstraat,2,,,1822MA,Alkmaar,Alkmaar,Noord-Holland,VBO,4.770546,52.647844
Simon Carmiggeltstraat,3,,,1822MA,Alkmaar,Alkmaar,Noord-Holland,VBO,4.770546,52.648100
Simon Carmiggeltstraat,4,,,1822MA,Alkmaar,Alkmaar,Noord-Holland,VBO,4.770502,52.648050
Simon Carmiggeltstraat,5,,,1822MA,Alkmaar,Alkmaar,Noord-Holland,VBO,4.770519,52.647942
Simon Carmiggeltstraat,6,,,1822MA,Alkmaar,Alkmaar,Noord-Holland,VBO,4.770589,52.647843
Simon Carmiggeltstraat,7,,,1822MA,Alkmaar,Alkmaar,Noord-Holland,VBO,4.770592,52.648103
Simon Carmiggeltstraat,8,,,1822MA,Alkmaar,Alkmaar,Noord-Holland,VBO,4.770552,52.648051
Simon Carmiggeltstraat,9,,,1822MA,Alkmaar,Alkmaar,Noord-Holland,VBO,4.770565,52.647941
Simon Carmiggeltstraat,10,,,1822MA,Alkmaar,Alkmaar,Noord-Holland,VBO,4.770638,52.647846
Simon Carmiggeltstraat,11,,,1822MA,Alkmaar,Alkmaar,Noord-Holland,VBO,4.770643,52.648102
Simon Carmiggeltstraat,12,,,1822MA,Alkmaar,Alkmaar,Noord-Holland,VBO,4.770600,52.648053
Simon Carmiggeltstraat,13,,,1822MA,Alkmaar,Alkmaar,Noord-Holland,VBO,4.770617,52.647942
Simon Carmiggeltstraat,14,,,1822MA,Alkmaar,Alkmaar,Noord-Holland,VBO,4.770698,52.647847
Simon Carmiggeltstraat,15,,,1822MA,Alkmaar,Alkmaar,Noord-Holland,VBO,4.770492,52.648136
Simon Carmiggeltstraat,16,,,1822MA,Alkmaar,Alkmaar,Noord-Holland,VBO,4.770660,52.648054
Simon Carmiggeltstraat,17,,,1822MA,Alkmaar,Alkmaar,Noord-Holland,VBO,4.770675,52.647946
Simon Carmiggeltstraat,18,,,1822MA,Alkmaar,Alkmaar,Noord-Holland,VBO,4.770549,52.647811
Simon Carmiggeltstraat,19,,,1822MA,Alkmaar,Alkmaar,Noord-Holland,VBO,4.770542,52.648139
Simon Carmiggeltstraat,20,,,1822MA,Alkmaar,Alkmaar,Noord-Holland,VBO,4.770508,52.648022
Simon Carmiggeltstraat,21,,,1822MA,Alkmaar,Alkmaar,Noord-Holland,VBO,4.770528,52.647907
Simon Carmiggeltstraat,22,,,1822MA,Alkmaar,Alkmaar,Noord-Holland,VBO,4.770598,52.647812
Simon Carmiggeltstraat,23,,,1822MA,Alkmaar,Alkmaar,Noord-Holland,VBO,4.770595,52.648143
Simon Carmiggeltstraat,24,,,1822MA,Alkmaar,Alkmaar,Noord-Holland,VBO,4.770546,52.648026
Simon Carmiggeltstraat,25,,,1822MA,Alkmaar,Alkmaar,Noord-Holland,VBO,4.770575,52.647909
Simon Carmiggeltstraat,26,,,1822MA,Alkmaar,Alkmaar,Noord-Holland,VBO,4.770640,52.647808
Simon Carmiggeltstraat,27,,,1822MA,Alkmaar,Alkmaar,Noord-Holland,VBO,4.770636,52.648144
Simon Carmiggeltstraat,28,,,1822MA,Alkmaar,Alkmaar,Noord-Holland,VBO,4.770599,52.648026
Simon Carmiggeltstraat,29,,,1822MA,Alkmaar,Alkmaar,Noord-Holland,VBO,4.770620,52.647911
Simon Carmiggeltstraat,30,,,1822MA,Alkmaar,Alkmaar,Noord-Holland,VBO,4.770696,52.647809
Simon Carmiggeltstraat,31,,,1822MA,Alkmaar,Alkmaar,Noord-Holland,VBO,4.770680,52.648144
Simon Carmiggeltstraat,32,,,1822MA,Alkmaar,Alkmaar,Noord-Holland,VBO,4.770648,52.648029
Simon Carmiggeltstraat,33,,,1822MA,Alkmaar,Alkmaar,Noord-Holland,VBO,4.770674,52.647917
Simon Carmiggeltstraat,34,,,1822MA,Alkmaar,Alkmaar,Noord-Holland,VBO,4.770744,52.647808
Simon Carmiggeltstraat,35,,,1822MA,Alkmaar,Alkmaar,Noord-Holland,VBO,4.770715,52.648149
Simon Carmiggeltstraat,36,,,1822MA,Alkmaar,Alkmaar,Noord-Holland,VBO,4.770706,52.648034
Simon Carmiggeltstraat,37,,,1822MA,Alkmaar,Alkmaar,Noord-Holland,VBO,4.770730,52.647918
Simon Carmiggeltstraat,38,,,1822MA,Alkmaar,Alkmaar,Noord-Holland,VBO,4.770796,52.647809
Simon Carmiggeltstraat,39,,,1822MA,Alkmaar,Alkmaar,Noord-Holland,VBO,4.770755,52.648148
Simon Carmiggeltstraat,40,,,1822MA,Alkmaar,Alkmaar,Noord-Holland,VBO,4.770757,52.648036
Simon Carmiggeltstraat,41,,,1822MA,Alkmaar,Alkmaar,Noord-Holland,VBO,4.770781,52.647920
Simon Carmiggeltstraat,42,,,1822MA,Alkmaar,Alkmaar,Noord-Holland,VBO,4.770842,52.647806
Simon Carmiggeltstraat,43,,,1822MA,Alkmaar,Alkmaar,Noord-Holland,VBO,4.770805,52.648150
Simon Carmiggeltstraat,44,,,1822MA,Alkmaar,Alkmaar,Noord-Holland,VBO,4.770818,52.648036
Simon Carmiggeltstraat,45,,,1822MA,Alkmaar,Alkmaar,Noord-Holland,VBO,4.770844,52.647921
Simon Carmiggeltstraat,46,,,1822MA,Alkmaar,Alkmaar,Noord-Holland,VBO,4.770884,52.647808
Simon Carmiggeltstraat,47,,,1822MA,Alkmaar,Alkmaar,Noord-Holland,VBO,4.770846,52.648152
Simon Carmiggeltstraat,48,,,1822MA,Alkmaar,Alkmaar,Noord-Holland,VBO,4.770883,52.648041
Simon Carmiggeltstraat,49,,,1822MA,Alkmaar,Alkmaar,Noord-Holland,VBO,4.770894,52.647922
Simon Carmiggeltstraat,50,,,1822MA,Alkmaar,Alkmaar,Noord-Holland,VBO,4.770928,52.647811
Simon Carmiggeltstraat,51,,,1822MA,Alkmaar,Alkmaar,Noord-Holland,VBO,4.770892,52.648153
Simon Carmiggeltstraat,52,,,1822MA,Alkmaar,Alkmaar,Noord-Holland,VBO,4.770955,52.648044
Simon Carmiggeltstraat,53,,,1822MA,Alkmaar,Alkmaar,Noord-Holland,VBO,4.770962,52.647925
Simon Carmiggeltstraat,54,,,1822MA,Alkmaar,Alkmaar,Noord-Holland,VBO,4.770964,52.647810
Simon Carmiggeltstraat,55,,,1822MA,Alkmaar,Alkmaar,Noord-Holland,VBO,4.770950,52.648156
Simon Carmiggeltstraat,56,,,1822MA,Alkmaar,Alkmaar,Noord-Holland,VBO,4.770992,52.647811
Annie M.G. Schmidtstraat,1,,,1822MB,Alkmaar,Alkmaar,Noord-Holland,VBO,4.767860,52.648432
Annie M.G. Schmidtstraat,2,,,1822MB,Alkmaar,Alkmaar,Noord-Holland,VBO,4.767822,52.648452
Annie M.G. Schmidtstraat,3,,,1822MB,Alkmaar,Alkmaar,Noord-Holland,VBO,4.767800,52.648478
Annie M.G. Schmidtstraat,4,,,1822MB,Alkmaar,Alkmaar,Noord-Holland,VBO,4.767797,52.648508
Annie M.G. Schmidtstraat,5,,,1822MB,Alkmaar,Alkmaar,Noord-Holland,VBO,4.768062,52.648451
Annie M.G. Schmidtstraat,6,,,1822MB,Alkmaar,Alkmaar,Noord-Holland,VBO,4.768013,52.648424
Annie M.G. Schmidtstraat,7,,,1822MB,Alkmaar,Alkmaar,Noord-Holland,VBO,4.767962,52.648402
Annie M.G. Schmidtstraat,8,,,1822MB,Alkmaar,Alkmaar,Noord-Holland,VBO,4.767901,52.648398
Annie M.G. Schmidtstraat,9,,,1822MB,Alkmaar,Alkmaar,Noord-Holland,VBO,4.767839,52.648412
Annie M.G. Schmidtstraat,10,,,1822MB,Alkmaar,Alkmaar,Noord-Holland,VBO,4.767792,52.648437
Annie M.G. Schmidtstraat,11,,,1822MB,Alkmaar,Alkmaar,Noord-Holland,VBO,4.767763,52.648473
Annie M.G. Schmidtstraat,12,,,1822MB,Alkmaar,Alkmaar,Noord-Holland,VBO,4.767757,52.648512
Annie M.G. Schmidtstraat,13,,,1822MB,Alkmaar,Alkmaar,Noord-Holland,VBO,4.767779,52.648550
Annie M.G. Schmidtstraat,14,,,1822MB,Alkmaar,Alkmaar,Noord-Holland,VBO,4.767831,52.648581
Annie M.G. Schmidtstraat,15,,,1822MB,Alkmaar,Alkmaar,Noord-Holland,VBO,4.768086,52.648442
Annie M.G. Schmidtstraat,16,,,1822MB,Alkmaar,Alkmaar,Noord-Holland,VBO,4.768035,52.648405
Annie M.G. Schmidtstraat,17,,,1822MB,Alkmaar,Alkmaar,Noord-Holland,VBO,4.767967,52.648382
Annie M.G. Schmidtstraat,18,,,1822MB,Alkmaar,Alkmaar,Noord-Holland,VBO,4.767895,52.648379
Annie M.G. Schmidtstraat,19,,,1822MB,Alkmaar,Alkmaar,Noord-Holland,VBO,4.767825,52.648395
Annie M.G. Schmidtstraat,20,,,1822MB,Alkmaar,Alkmaar,Noord-Holland,VBO,4.767764,52.648425
Annie M.G. Schmidtstraat,21,,,1822MB,Alkmaar,Alkmaar,Noord-Holland,VBO,4.767731,52.648467
Annie M.G. Schmidtstraat,22,,,1822MB,Alkmaar,Alkmaar,Noord-Holland,VBO,4.767726,52.648515
Annie M.G. Schmidtstraat,23,,,1822MB,Alkmaar,Alkmaar,Noord-Holland,VBO,4.767751,52.648559
Annie M.G. Schmidtstraat,24,,,1822MB,Alkmaar,Alkmaar,Noord-Holland,VBO,4.767814,52.648600
Annie M.G. Schmidtstraat,25,,,1822MB,Alkmaar,Alkmaar,Noord-Holland,VBO,4.768118,52.648426
Annie M.G. Schmidtstraat,26,,,1822MB,Alkmaar,Alkmaar,Noord-Holland,VBO,4.768056,52.648388
Annie M.G. Schmidtstraat,27,,,1822MB,Alkmaar,Alkmaar,Noord-Holland,VBO,4.767974,52.648362
Annie M.G. Schmidtstraat,28,,,1822MB,Alkmaar,Alkmaar,Noord-Holland,VBO,4.767890,52.648358
Annie M.G. Schmidtstraat,29,,,1822MB,Alkmaar,Alkmaar,Noord-Holland,VBO,4.767807,52.648376
Annie M.G. Schmidtstraat,30,,,1822MB,Alkmaar,Alkmaar,Noord-Holland,VBO,4.767739,52.648411
Annie M.G. Schmidtstraat,31,,,1822MB,Alkmaar,Alkmaar,Noord-Holland,VBO,4.767698,52.648460
Annie M.G. Schmidtstraat,32,,,1822MB,Alkmaar,Alkmaar,Noord-Holland,VBO,4.767691,52.648516
Annie M.G. Schmidtstraat,33,,,1822MB,Alkmaar,Alkmaar,Noord-Holland,VBO,4.767720,52.648570
Annie M.G. Schmidtstraat,34,,,1822MB,Alkmaar,Alkmaar,Noord-Holland,VBO,4.767788,52.648616
Annie M.G. Schmidtstraat,35,,,1822MB,Alkmaar,Alkmaar,Noord-Holland,VBO,4.768146,52.648411
Annie M.G. Schmidtstraat,36,,,1822MB,Alkmaar,Alkmaar,Noord-Holland,VBO,4.768077,52.648368
Annie M.G. Schmidtstraat,37,,,1822MB,Alkmaar,Alkmaar,Noord-Holland,VBO,4.767981,52.648342
Annie M.G. Schmidtstraat,38,,,1822MB,Alkmaar,Alkmaar,Noord-Holland,VBO,4.767882,52.648338
Annie M.G. Schmidtstraat,39,,,1822MB,Alkmaar,Alkmaar,Noord-Holland,VBO,4.767790,52.648357
Annie M.G. Schmidtstraat,40,,,1822MB,Alkmaar,Alkmaar,Noord-Holland,VBO,4.767710,52.648397
Annie M.G. Schmidtstraat,41,,,1822MB,Alkmaar,Alkmaar,Noord-Holland,VBO,4.767663,52.648452
Annie M.G. Schmidtstraat,42,,,1822MB,Alkmaar,Alkmaar,Noord-Holland,VBO,4.767659,52.648517
Annie M.G. Schmidtstraat,43,,,1822MB,Alkmaar,Alkmaar,Noord-Holland,VBO,4.767692,52.648580
Annie M.G. Schmidtstraat,44,,,1822MB,Alkmaar,Alkmaar,Noord-Holland,VBO,4.767765,52.648630
Annie M.G. Schmidtstraat,45,,,1822MB,Alkmaar,Alkmaar,Noord-Holland,VBO,4.768176,52.648398
Annie M.G. Schmidtstraat,46,,,1822MB,Alkmaar,Alkmaar,Noord-Holland,VBO,4.768099,52.648351
Annie M.G. Schmidtstraat,47,,,1822MB,Alkmaar,Alkmaar,Noord-Holland,VBO,4.767988,52.648322
Annie M.G. Schmidtstraat,48,,,1822MB,Alkmaar,Alkmaar,Noord-Holland,VBO,4.767877,52.648317
Annie M.G. Schmidtstraat,49,,,1822MB,Alkmaar,Alkmaar,Noord-Holland,VBO,4.767773,52.648338
Annie M.G. Schmidtstraat,50,,,1822MB,Alkmaar,Alkmaar,Noord-Holland,VBO,4.767681,52.648384
Annie M.G. Schmidtstraat,51,,,1822MB,Alkmaar,Alkmaar,Noord-Holland,VBO,4.767630,52.648447
Annie M.G. Schmidtstraat,52,,,1822MB,Alkmaar,Alkmaar,Noord-Holland,VBO,4.767622,52.648518
Annie M.G. Schmidtstraat,53,,,1822MB,Alkmaar,Alkmaar,Noord-Holland,VBO,4.767664,52.648593
Annie M.G. Schmidtstraat,54,,,1822MB,Alkmaar,Alkmaar,Noord-Holland,VBO,4.767746,52.648650
Annie M.G. Schmidtstraat,55,,,1822MB,Alkmaar,Alkmaar,Noord-Holland,VBO,4.768201,52.648386
Annie M.G. Schmidtstraat,56,,,1822MB,Alkmaar,Alkmaar,Noord-Holland,VBO,4.768117,52.648335
Annie M.G. Schmidtstraat,57,,,1822MB,Alkmaar,Alkmaar,Noord-Holland,VBO,4.767995,52.648302
Annie M.G. Schmidtstraat,58,,,1822MB,Alkmaar,Alkmaar,Noord-Holland,VBO,4.767875,52.648298
Annie M.G. Schmidtstraat,59,,,1822MB,Alkmaar,Alkmaar,Noord-Holland,VBO,4.767753,52.648317
Annie M.G. Schmidtstraat,60,,,1822MB,Alkmaar,Alkmaar,Noord-Holland,VBO,4.767655,52.648371
Annie M.G. Schmidtstraat,61,,,1822MB,Alkmaar,Alkmaar,Noord-Holland,VBO,4.767593,52.648439
Annie M.G. Schmidtstraat,62,,,1822MB,Alkmaar,Alkmaar,Noord-Holland,VBO,4.767586,52.648522
Annie M.G. Schmidtstraat,63,,,1822MB,Alkmaar,Alkmaar,Noord-Holland,VBO,4.767637,52.648603
Annie M.G. Schmidtstraat,64,,,1822MB,Alkmaar,Alkmaar,Noord-Holland,VBO,4.767730,52.648665
Annie M.G. Schmidtstraat,65,,,1822MB,Alkmaar,Alkmaar,Noord-Holland,VBO,4.768230,52.648373
Annie M.G. Schmidtstraat,66,,,1822MB,Alkmaar,Alkmaar,Noord-Holland,VBO,4.768152,52.648356
Annie M.G. Schmidtstraat,67,,,1822MB,Alkmaar,Alkmaar,Noord-Holland,VBO,4.768044,52.648313
Annie M.G. Schmidtstraat,68,,,1822MB,Alkmaar,Alkmaar,Noord-Holland,VBO,4.767909,52.648298
Annie M.G. Schmidtstraat,69,,,1822MB,Alkmaar,Alkmaar,Noord-Holland,VBO,4.767784,52.648312
Annie M.G. Schmidtstraat,70,,,1822MB,Alkmaar,Alkmaar,Noord-Holland,VBO,4.767678,52.648359
Annie M.G. Schmidtstraat,71,,,1822MB,Alkmaar,Alkmaar,Noord-Holland,VBO,4.767608,52.648427
Annie M.G. Schmidtstraat,72,,,1822MB,Alkmaar,Alkmaar,Noord-Holland,VBO,4.767587,52.648503
Annie M.G. Schmidtstraat,73,,,1822MB,Alkmaar,Alkmaar,Noord-Holland,VBO,4.767623,52.648586
Annie M.G. Schmidtstraat,74,,,1822MB,Alkmaar,Alkmaar,Noord-Holland,VBO,4.767708,52.648653
Annie M.G. Schmidtstraat,75,,,1822MC,Alkmaar,Alkmaar,Noord-Holland,VBO,4.768571,52.648246
Annie M.G. Schmidtstraat,76,,,1822MC,Alkmaar,Alkmaar,Noord-Holland,VBO,4.768617,52.647883
Annie M.G. Schmidtstraat,77,,,1822MC,Alkmaar,Alkmaar,Noord-Holland,VBO,4.768571,52.647896
Annie M.G. Schmidtstraat,78,,,1822MC,Alkmaar,Alkmaar,Noord-Holland,VBO,4.768540,52.647918
Annie M.G. Schmidtstraat,79,,,1822MC,Alkmaar,Alkmaar,Noord-Holland,VBO,4.768523,52.647946
Annie M.G. Schmidtstraat,80,,,1822MC,Alkmaar,Alkmaar,Noord-Holland,VBO,4.768808,52.647935
Annie M.G. Schmidtstraat,81,,,1822MC,Alkmaar,Alkmaar,Noord-Holland,VBO,4.768773,52.647896
Annie M.G. Schmidtstraat,82,,,1822MC,Alkmaar,Alkmaar,Noord-Holland,VBO,4.768727,52.647869
Annie M.G. Schmidtstraat,83,,,1822MC,Alkmaar,Alkmaar,Noord-Holland,VBO,4.768667,52.647858
Annie M.G. Schmidtstraat,84,,,1822MC,Alkmaar,Alkmaar,Noord-Holland,VBO,4.768605,52.647859
Annie M.G. Schmidtstraat,85,,,1822MC,Alkmaar,Alkmaar,Noord-Holland,VBO,4.768545,52.647876
Annie M.G. Schmidtstraat,86,,,1822MC,Alkmaar,Alkmaar,Noord-Holland,VBO,4.768503,52.647907
Annie M.G. Schmidtstraat,87,,,1822MC,Alkmaar,Alkmaar,Noord-Holland,VBO,4.768485,52.647944
Annie M.G. Schmidtstraat,88,,,1822MC,Alkmaar,Alkmaar,Noord-Holland,VBO,4.768489,52.647983
Annie M.G. Schmidtstraat,89,,,1822MC,Alkmaar,Alkmaar,Noord-Holland,VBO,4.768526,52.648022
Annie M.G. Schmidtstraat,90,,,1822MC,Alkmaar,Alkmaar,Noord-Holland,VBO,4.768839,52.647924
Annie M.G. Schmidtstraat,91,,,1822MC,Alkmaar,Alkmaar,Noord-Holland,VBO,4.768797,52.647881
Annie M.G. Schmidtstraat,92,,,1822MC,Alkmaar,Alkmaar,Noord-Holland,VBO,4.768742,52.647849
Annie M.G. Schmidtstraat,93,,,1822MC,Alkmaar,Alkmaar,Noord-Holland,VBO,4.768672,52.647839
Annie M.G. Schmidtstraat,94,,,1822MC,Alkmaar,Alkmaar,Noord-Holland,VBO,4.768595,52.647840
Annie M.G. Schmidtstraat,95,,,1822MC,Alkmaar,Alkmaar,Noord-Holland,VBO,4.768528,52.647862
Annie M.G. Schmidtstraat,96,,,1822MC,Alkmaar,Alkmaar,Noord-Holland,VBO,4.768476,52.647897
Annie M.G. Schmidtstraat,97,,,1822MC,Alkmaar,Alkmaar,Noord-Holland,VBO,4.768453,52.647940
Annie M.G. Schmidtstraat,98,,,1822MC,Alkmaar,Alkmaar,Noord-Holland,VBO,4.768460,52.647987
Annie M.G. Schmidtstraat,99,,,1822MC,Alkmaar,Alkmaar,Noord-Holland,VBO,4.768501,52.648034
Annie M.G. Schmidtstraat,100,,,1822MC,Alkmaar,Alkmaar,Noord-Holland,VBO,4.768869,52.647915
Annie M.G. Schmidtstraat,101,,,1822MC,Alkmaar,Alkmaar,Noord-Holland,VBO,4.768823,52.647866
Annie M.G. Schmidtstraat,102,,,1822MC,Alkmaar,Alkmaar,Noord-Holland,VBO,4.768757,52.647832
Annie M.G. Schmidtstraat,103,,,1822MC,Alkmaar,Alkmaar,Noord-Holland,VBO,4.768676,52.647821
Annie M.G. Schmidtstraat,104,,,1822MC,Alkmaar,Alkmaar,Noord-Holland,VBO,4.768590,52.647821
Annie M.G. Schmidtstraat,105,,,1822MC,Alkmaar,Alkmaar,Noord-Holland,VBO,4.768509,52.647844
Annie M.G. Schmidtstraat,106,,,1822MC,Alkmaar,Alkmaar,Noord-Holland,VBO,4.768450,52.647887
Annie M.G. Schmidtstraat,107,,,1822MC,Alkmaar,Alkmaar,Noord-Holland,VBO,4.768420,52.647937
Annie M.G. Schmidtstraat,108,,,1822MC,Alkmaar,Alkmaar,Noord-Holland,VBO,4.768429,52.647992
Annie M.G. Schmidtstraat,109,,,1822MC,Alkmaar,Alkmaar,Noord-Holland,VBO,4.768475,52.648047
Annie M.G. Schmidtstraat,110,,,1822MC,Alkmaar,Alkmaar,Noord-Holland,VBO,4.768898,52.647906
Annie M.G. Schmidtstraat,111,,,1822MC,Alkmaar,Alkmaar,Noord-Holland,VBO,4.768845,52.647854
Annie M.G. Schmidtstraat,112,,,1822MC,Alkmaar,Alkmaar,Noord-Holland,VBO,4.768771,52.647815
Annie M.G. Schmidtstraat,113,,,1822MC,Alkmaar,Alkmaar,Noord-Holland,VBO,4.768679,52.647801
Annie M.G. Schmidtstraat,114,,,1822MC,Alkmaar,Alkmaar,Noord-Holland,VBO,4.768580,52.647803
Annie M.G. Schmidtstraat,115,,,1822MC,Alkmaar,Alkmaar,Noord-Holland,VBO,4.768491,52.647828
Annie M.G. Schmidtstraat,116,,,1822MC,Alkmaar,Alkmaar,Noord-Holland,VBO,4.768422,52.647877
Annie M.G. Schmidtstraat,117,,,1822MC,Alkmaar,Alkmaar,Noord-Holland,VBO,4.768388,52.647935
Annie M.G. Schmidtstraat,118,,,1822MC,Alkmaar,Alkmaar,Noord-Holland,VBO,4.768394,52.647997
Annie M.G. Schmidtstraat,119,,,1822MC,Alkmaar,Alkmaar,Noord-Holland,VBO,4.768450,52.648059
Annie M.G. Schmidtstraat,120,,,1822MC,Alkmaar,Alkmaar,Noord-Holland,VBO,4.768931,52.647897
Annie M.G. Schmidtstraat,121,,,1822MC,Alkmaar,Alkmaar,Noord-Holland,VBO,4.768870,52.647839
Annie M.G. Schmidtstraat,122,,,1822MC,Alkmaar,Alkmaar,Noord-Holland,VBO,4.768786,52.647798
Annie M.G. Schmidtstraat,123,,,1822MC,Alkmaar,Alkmaar,Noord-Holland,VBO,4.768685,52.647780
Annie M.G. Schmidtstraat,124,,,1822MC,Alkmaar,Alkmaar,Noord-Holland,VBO,4.768571,52.647782
Annie M.G. Schmidtstraat,125,,,1822MC,Alkmaar,Alkmaar,Noord-Holland,VBO,4.768469,52.647812
Annie M.G. Schmidtstraat,126,,,1822MC,Alkmaar,Alkmaar,Noord-Holland,VBO,4.768390,52.647866
Annie M.G. Schmidtstraat,127,,,1822MC,Alkmaar,Alkmaar,Noord-Holland,VBO,4.768355,52.647931
Annie M.G. Schmidtstraat,128,,,1822MC,Alkmaar,Alkmaar,Noord-Holland,VBO,4.768363,52.648001
Annie M.G. Schmidtstraat,129,,,1822MC,Alkmaar,Alkmaar,Noord-Holland,VBO,4.768422,52.648070
Annie M.G. Schmidtstraat,130,,,1822MC,Alkmaar,Alkmaar,Noord-Holland,VBO,4.768961,52.647888
Annie M.G. Schmidtstraat,131,,,1822MC,Alkmaar,Alkmaar,Noord-Holland,VBO,4.768895,52.647826
Annie M.G. Schmidtstraat,132,,,1822MC,Alkmaar,Alkmaar,Noord-Holland,VBO,4.768802,52.647779
Annie M.G. Schmidtstraat,133,,,1822MC,Alkmaar,Alkmaar,Noord-Holland,VBO,4.768691,52.647759
Annie M.G. Schmidtstraat,134,,,1822MC,Alkmaar,Alkmaar,Noord-Holland,VBO,4.768562,52.647762
Annie M.G. Schmidtstraat,135,,,1822MC,Alkmaar,Alkmaar,Noord-Holland,VBO,4.768450,52.647795
Annie M.G. Schmidtstraat,136,,,1822MC,Alkmaar,Alkmaar,Noord-Holland,VBO,4.768360,52.647856
Annie M.G. Schmidtstraat,137,,,1822MC,Alkmaar,Alkmaar,Noord-Holland,VBO,4.768320,52.647929
Annie M.G. Schmidtstraat,138,,,1822MC,Alkmaar,Alkmaar,Noord-Holland,VBO,4.768330,52.648005
Annie M.G. Schmidtstraat,139,,,1822MC,Alkmaar,Alkmaar,Noord-Holland,VBO,4.768397,52.648084
Annie M.G. Schmidtstraat,140,,,1822MC,Alkmaar,Alkmaar,Noord-Holland,VBO,4.768997,52.647878
Annie M.G. Schmidtstraat,141,,,1822MC,Alkmaar,Alkmaar,Noord-Holland,VBO,4.768927,52.647849
Annie M.G. Schmidtstraat,142,,,1822MC,Alkmaar,Alkmaar,Noord-Holland,VBO,4.768848,52.647797
Annie M.G. Schmidtstraat,143,,,1822MC,Alkmaar,Alkmaar,Noord-Holland,VBO,4.768738,52.647761
Annie M.G. Schmidtstraat,144,,,1822MC,Alkmaar,Alkmaar,Noord-Holland,VBO,4.768603,52.647756
Annie M.G. Schmidtstraat,145,,,1822MC,Alkmaar,Alkmaar,Noord-Holland,VBO,4.768481,52.647781
Annie M.G. Schmidtstraat,146,,,1822MC,Alkmaar,Alkmaar,Noord-Holland,VBO,4.768371,52.647842
Annie M.G. Schmidtstraat,147,,,1822MC,Alkmaar,Alkmaar,Noord-Holland,VBO,4.768323,52.647912
Annie M.G. Schmidtstraat,148,,,1822MC,Alkmaar,Alkmaar,Noord-Holland,VBO,4.768324,52.647987
Annie M.G. Schmidtstraat,149,,,1822MC,Alkmaar,Alkmaar,Noord-Holland,VBO,4.768381,52.648070
Annie M.G. Schmidtstraat,150,,,1822MD,Alkmaar,Alkmaar,Noord-Holland,VBO,4.769373,52.647329
Annie M.G. Schmidtstraat,151,,,1822MD,Alkmaar,Alkmaar,Noord-Holland,VBO,4.769323,52.647338
Annie M.G. Schmidtstraat,152,,,1822MD,Alkmaar,Alkmaar,Noord-Holland,VBO,4.769283,52.647358
Annie M.G. Schmidtstraat,153,,,1822MD,Alkmaar,Alkmaar,Noord-Holland,VBO,4.769260,52.647385
Annie M.G. Schmidtstraat,154,,,1822MD,Alkmaar,Alkmaar,Noord-Holland,VBO,4.769538,52.647402
Annie M.G. Schmidtstraat,155,,,1822MD,Alkmaar,Alkmaar,Noord-Holland,VBO,4.769518,52.647362
Annie M.G. Schmidtstraat,156,,,1822MD,Alkmaar,Alkmaar,Noord-Holland,VBO,4.769478,52.647334
Annie M.G. Schmidtstraat,157,,,1822MD,Alkmaar,Alkmaar,Noord-Holland,VBO,4.769430,52.647318
Annie M.G. Schmidtstraat,158,,,1822MD,Alkmaar,Alkmaar,Noord-Holland,VBO,4.769372,52.647311
Annie M.G. Schmidtstraat,159,,,1822MD,Alkmaar,Alkmaar,Noord-Holland,VBO,4.769312,52.647321
Annie M.G. Schmidtstraat,160,,,1822MD,Alkmaar,Alkmaar,Noord-Holland,VBO,4.769258,52.647345
Annie M.G. Schmidtstraat,161,,,1822MD,Alkmaar,Alkmaar,Noord-Holland,VBO,4.769228,52.647378
Annie M.G. Schmidtstraat,162,,,1822MD,Alkmaar,Alkmaar,Noord-Holland,VBO,4.769218,52.647418
Annie M.G. Schmidtstraat,163,,,1822MD,Alkmaar,Alkmaar,Noord-Holland,VBO,4.769238,52.647456
Annie M.G. Schmidtstraat,164,,,1822MD,Alkmaar,Alkmaar,Noord-Holland,VBO,4.769572,52.647399
Annie M.G. Schmidtstraat,165,,,1822MD,Alkmaar,Alkmaar,Noord-Holland,VBO,4.769551,52.647351
Annie M.G. Schmidtstraat,166,,,1822MD,Alkmaar,Alkmaar,Noord-Holland,VBO,4.769501,52.647315
Annie M.G. Schmidtstraat,167,,,1822MD,Alkmaar,Alkmaar,Noord-Holland,VBO,4.769438,52.647294
Annie M.G. Schmidtstraat,168,,,1822MD,Alkmaar,Alkmaar,Noord-Holland,VBO,4.769365,52.647289
Annie M.G. Schmidtstraat,169,,,1822MD,Alkmaar,Alkmaar,Noord-Holland,VBO,4.769293,52.647302
Annie M.G. Schmidtstraat,170,,,1822MD,Alkmaar,Alkmaar,Noord-Holland,VBO,4.769233,52.647331
Annie M.G. Schmidtstraat,171,,,1822MD,Alkmaar,Alkmaar,Noord-Holland,VBO,4.769198,52.647372
Annie M.G. Schmidtstraat,172,,,1822MD,Alkmaar,Alkmaar,Noord-Holland,VBO,4.769189,52.647420
Annie M.G. Schmidtstraat,173,,,1822MD,Alkmaar,Alkmaar,Noord-Holland,VBO,4.769212,52.647466
Annie M.G. Schmidtstraat,174,,,1822MD,Alkmaar,Alkmaar,Noord-Holland,VBO,4.769607,52.647393
Annie M.G. Schmidtstraat,175,,,1822MD,Alkmaar,Alkmaar,Noord-Holland,VBO,4.769583,52.647340
Annie M.G. Schmidtstraat,176,,,1822MD,Alkmaar,Alkmaar,Noord-Holland,VBO,4.769522,52.647298
Annie M.G. Schmidtstraat,177,,,1822MD,Alkmaar,Alkmaar,Noord-Holland,VBO,4.769447,52.647273
Annie M.G. Schmidtstraat,178,,,1822MD,Alkmaar,Alkmaar,Noord-Holland,VBO,4.769362,52.647266
Annie M.G. Schmidtstraat,179,,,1822MD,Alkmaar,Alkmaar,Noord-Holland,VBO,4.769274,52.647283
Annie M.G. Schmidtstraat,180,,,1822MD,Alkmaar,Alkmaar,Noord-Holland,VBO,4.769207,52.647317
Annie M.G. Schmidtstraat,181,,,1822MD,Alkmaar,Alkmaar,Noord-Holland,VBO,4.769163,52.647363
Annie M.G. Schmidtstraat,182,,,1822MD,Alkmaar,Alkmaar,Noord-Holland,VBO,4.769154,52.647421
Annie M.G. Schmidtstraat,183,,,1822MD,Alkmaar,Alkmaar,Noord-Holland,VBO,4.769182,52.647474
Annie M.G. Schmidtstraat,184,,,1822MD,Alkmaar,Alkmaar,Noord-Holland,VBO,4.769640,52.647390
Annie M.G. Schmidtstraat,185,,,1822MD,Alkmaar,Alkmaar,Noord-Holland,VBO,4.769615,52.647331
Annie M.G. Schmidtstraat,186,,,1822MD,Alkmaar,Alkmaar,Noord-Holland,VBO,4.769544,52.647281
Annie M.G. Schmidtstraat,187,,,1822MD,Alkmaar,Alkmaar,Noord-Holland,VBO,4.769456,52.647252
Annie M.G. Schmidtstraat,188,,,1822MD,Alkmaar,Alkmaar,Noord-Holland,VBO,4.769357,52.647245
Annie M.G. Schmidtstraat,189,,,1822MD,Alkmaar,Alkmaar,Noord-Holland,VBO,4.769255,52.647264
Annie M.G. Schmidtstraat,190,,,1822MD,Alkmaar,Alkmaar,Noord-Holland,VBO,4.769179,52.647302
Annie M.G. Schmidtstraat,191,,,1822MD,Alkmaar,Alkmaar,Noord-Holland,VBO,4.769131,52.647355
Annie M.G. Schmidtstraat,192,,,1822MD,Alkmaar,Alkmaar,Noord-Holland,VBO,4.769116,52.647424
Annie M.G. Schmidtstraat,193,,,1822MD,Alkmaar,Alkmaar,Noord-Holland,VBO,4.769148,52.647483
Annie M.G. Schmidtstraat,194,,,1822MD,Alkmaar,Alkmaar,Noord-Holland,VBO,4.769672,52.647386
Annie M.G. Schmidtstraat,195,,,1822MD,Alkmaar,Alkmaar,Noord-Holland,VBO,4.769641,52.647323
Annie M.G. Schmidtstraat,196,,,1822MD,Alkmaar,Alkmaar,Noord-Holland,VBO,4.769565,52.647265
Annie M.G. Schmidtstraat,197,,,1822MD,Alkmaar,Alkmaar,Noord-Holland,VBO,4.769463,52.647233
Annie M.G. Schmidtstraat,198,,,1822MD,Alkmaar,Alkmaar,Noord-Holland,VBO,4.769354,52.647222
Annie M.G. Schmidtstraat,199,,,1822MD,Alkmaar,Alkmaar,Noord-Holland,VBO,4.769238,52.647244
Annie M.G. Schmidtstraat,200,,,1822MD,Alkmaar,Alkmaar,Noord-Holland,VBO,4.769151,52.647287
Annie M.G. Schmidtstraat,201,,,1822MD,Alkmaar,Alkmaar,Noord-Holland,VBO,4.769096,52.647348
Annie M.G. Schmidtstraat,202,,,1822MD,Alkmaar,Alkmaar,Noord-Holland,VBO,4.769083,52.647427
Annie M.G. Schmidtstraat,203,,,1822MD,Alkmaar,Alkmaar,Noord-Holland,VBO,4.769116,52.647492
Annie M.G. Schmidtstraat,204,,,1822MD,Alkmaar,Alkmaar,Noord-Holland,VBO,4.769703,52.647382
Annie M.G. Schmidtstraat,205,,,1822MD,Alkmaar,Alkmaar,Noord-Holland,VBO,4.769671,52.647315
Annie M.G. Schmidtstraat,206,,,1822MD,Alkmaar,Alkmaar,Noord-Holland,VBO,4.769586,52.647250
Annie M.G. Schmidtstraat,207,,,1822MD,Alkmaar,Alkmaar,Noord-Holland,VBO,4.769471,52.647213
Annie M.G. Schmidtstraat,208,,,1822MD,Alkmaar,Alkmaar,Noord-Holland,VBO,4.769353,52.647201
Annie M.G. Schmidtstraat,209,,,1822MD,Alkmaar,Alkmaar,Noord-Holland,VBO,4.769223,52.647225
Annie M.G. Schmidtstraat,210,,,1822MD,Alkmaar,Alkmaar,Noord-Holland,VBO,4.769123,52.647275
Annie M.G. Schmidtstraat,211,,,1822MD,Alkmaar,Alkmaar,Noord-Holland,VBO,4.769064,52.647340
Annie M.G. Schmidtstraat,212,,,1822MD,Alkmaar,Alkmaar,Noord-Holland,VBO,4.769050,52.647427
Annie M.G. Schmidtstraat,213,,,1822MD,Alkmaar,Alkmaar,Noord-Holland,VBO,4.769087,52.647500
Annie M.G. Schmidtstraat,214,,,1822MD,Alkmaar,Alkmaar,Noord-Holland,VBO,4.769744,52.647378
Annie M.G. Schmidtstraat,215,,,1822MD,Alkmaar,Alkmaar,Noord-Holland,VBO,4.769687,52.647341
Annie M.G. Schmidtstraat,216,,,1822MD,Alkmaar,Alkmaar,Noord-Holland,VBO,4.769630,52.647280
Annie M.G. Schmidtstraat,217,,,1822MD,Alkmaar,Alkmaar,Noord-Holland,VBO,4.769521,52.647228
Annie M.G. Schmidtstraat,218,,,1822MD,Alkmaar,Alkmaar,Noord-Holland,VBO,4.769407,52.647206
Annie M.G. Schmidtstraat,219,,,1822MD,Alkmaar,Alkmaar,Noord-Holland,VBO,4.769263,52.647219
Annie M.G. Schmidtstraat,220,,,1822MD,Alkmaar,Alkmaar,Noord-Holland,VBO,4.769157,52.647262
Annie M.G. Schmidtstraat,221,,,1822MD,Alkmaar,Alkmaar,Noord-Holland,VBO,4.769082,52.647324
Annie M.G. Schmidtstraat,222,,,1822MD,Alkmaar,Alkmaar,Noord-Holland,VBO,4.769058,52.647405
Annie M.G. Schmidtstraat,223,,,1822MD,Alkmaar,Alkmaar,Noord-Holland,VBO,4.769073,52.647487
Ida Gerhardtstraat,1,,,1822ME,Alkmaar,Alkmaar,Noord-Holland,VBO,4.767250,52.649823
Ida Gerhardtstraat,2,,,1822ME,Alkmaar,Alkmaar,Noord-Holland,VBO,4.767093,52.649783
Ida Gerhardtstraat,3,,,1822ME,Alkmaar,Alkmaar,Noord-Holland,VBO,4.766989,52.649758
Ida Gerhardtstraat,4,,,1822ME,Alkmaar,Alkmaar,Noord-Holland,VBO,4.766845,52.649721
Ida Gerhardtstraat,5,,,1822ME,Alkmaar,Alkmaar,Noord-Holland,VBO,4.766744,52.649698
Ida Gerhardtstraat,6,,,1822ME,Alkmaar,Alkmaar,Noord-Holland,VBO,4.766591,52.649664
Ida Gerhardtstraat,7,,,1822ME,Alkmaar,Alkmaar,Noord-Holland,VBO,4.766502,52.649638
Ida Gerhardtstraat,8,,,1822ME,Alkmaar,Alkmaar,Noord-Holland,VBO,4.766351,52.649600
Ida Gerhardtstraat,9,,,1822ME,Alkmaar,Alkmaar,Noord-Holland,VBO,4.766520,52.649343
Ida Gerhardtstraat,10,,,1822ME,Alkmaar,Alkmaar,Noord-Holland,VBO,4.766678,52.649376
Ida Gerhardtstraat,11,,,1822ME,Alkmaar,Alkmaar,Noord-Holland,VBO,4.766765,52.649399
Ida Gerhardtstraat,12,,,1822ME,Alkmaar,Alkmaar,Noord-Holland,VBO,4.766928,52.649436
Ida Gerhardtstraat,13,,,1822ME,Alkmaar,Alkmaar,Noord-Holland,VBO,4.767010,52.649462
Ida Gerhardtstraat,14,,,1822ME,Alkmaar,Alkmaar,Noord-Holland,VBO,4.767177,52.649499
Ida Gerhardtstraat,15,,,1822ME,Alkmaar,Alkmaar,Noord-Holland,VBO,4.767262,52.649524
Ida Gerhardtstraat,16,,,1822ME,Alkmaar,Alkmaar,Noord-Holland,VBO,4.767417,52.649556
Ida Gerhardtstraat,17,,,1822ME,Alkmaar,Alkmaar,Noord-Holland,VBO,4.767573,52.649373
Ida Gerhardtstraat,18,,,1822ME,Alkmaar,Alkmaar,Noord-Holland,VBO,4.767423,52.649315
Ida Gerhardtstraat,19,,,1822ME,Alkmaar,Alkmaar,Noord-Holland,VBO,4.767343,52.649283
Ida Gerhardtstraat,20,,,1822ME,Alkmaar,Alkmaar,Noord-Holland,VBO,4.767202,52.649232
Ida Gerhardtstraat,21,,,1822ME,Alkmaar,Alkmaar,Noord-Holland,VBO,4.767117,52.649194
Ida Gerhardtstraat,22,,,1822ME,Alkmaar,Alkmaar,Noord-Holland,VBO,4.766976,52.649140
Ida Gerhardtstraat,23,,,1822ME,Alkmaar,Alkmaar,Noord-Holland,VBO,4.766904,52.649107
Ida Gerhardtstraat,24,,,1822ME,Alkmaar,Alkmaar,Noord-Holland,VBO,4.766763,52.649051
Ida Gerhardtstraat,25,,,1822ME,Alkmaar,Alkmaar,Noord-Holland,VBO,4.766680,52.649016
Ida Gerhardtstraat,26,,,1822ME,Alkmaar,Alkmaar,Noord-Holland,VBO,4.766539,52.648959
Ida Gerhardtstraat,27,,,1822ME,Alkmaar,Alkmaar,Noord-Holland,VBO,4.766793,52.648727
Ida Gerhardtstraat,28,,,1822ME,Alkmaar,Alkmaar,Noord-Holland,VBO,4.766946,52.648778
Ida Gerhardtstraat,29,,,1822ME,Alkmaar,Alkmaar,Noord-Holland,VBO,4.767019,52.648810
Ida Gerhardtstraat,30,,,1822ME,Alkmaar,Alkmaar,Noord-Holland,VBO,4.767165,52.648869
Ida Gerhardtstraat,31,,,1822ME,Alkmaar,Alkmaar,Noord-Holland,VBO,4.767240,52.648900
Ida Gerhardtstraat,32,,,1822ME,Alkmaar,Alkmaar,Noord-Holland,VBO,4.767388,52.648957
Ida Gerhardtstraat,33,,,1822ME,Alkmaar,Alkmaar,Noord-Holland,VBO,4.767458,52.648992
Ida Gerhardtstraat,34,,,1822ME,Alkmaar,Alkmaar,Noord-Holland,VBO,4.767609,52.649047
Ida Gerhardtstraat,35,,,1822ME,Alkmaar,Alkmaar,Noord-Holland,VBO,4.767684,52.649080
Ida Gerhardtstraat,36,,,1822ME,Alkmaar,Alkmaar,Noord-Holland,VBO,4.767837,52.649139
Ida Gerhardtstraat,37,,,1822MG,Alkmaar,Alkmaar,Noord-Holland,VBO,4.765275,52.649486
Ida Gerhardtstraat,38,,,1822MG,Alkmaar,Alkmaar,Noord-Holland,VBO,4.766551,52.648447
Ida Gerhardtstraat,39,,,1822MG,Alkmaar,Alkmaar,Noord-Holland,VBO,4.766462,52.648513
Ida Gerhardtstraat,40,,,1822MG,Alkmaar,Alkmaar,Noord-Holland,VBO,4.766373,52.648580
Ida Gerhardtstraat,41,,,1822MG,Alkmaar,Alkmaar,Noord-Holland,VBO,4.766282,52.648652
Ida Gerhardtstraat,42,,,1822MG,Alkmaar,Alkmaar,Noord-Holland,VBO,4.766189,52.648720
Ida Gerhardtstraat,43,,,1822MG,Alkmaar,Alkmaar,Noord-Holland,VBO,4.766097,52.648790
Ida Gerhardtstraat,44,,,1822MG,Alkmaar,Alkmaar,Noord-Holland,VBO,4.766009,52.648860
Ida Gerhardtstraat,45,,,1822MG,Alkmaar,Alkmaar,Noord-Holland,VBO,4.765907,52.648930
Ida Gerhardtstraat,46,,,1822MG,Alkmaar,Alkmaar,Noord-Holland,VBO,4.765790,52.649057
Ida Gerhardtstraat,47,,,1822MG,Alkmaar,Alkmaar,Noord-Holland,VBO,4.765749,52.649143
Ida Gerhardtstraat,48,,,1822MG,Alkmaar,Alkmaar,Noord-Holland,VBO,4.765707,52.649226
Ida Gerhardtstraat,49,,,1822MG,Alkmaar,Alkmaar,Noord-Holland,VBO,4.765673,52.649312
Ida Gerhardtstraat,50,,,1822MG,Alkmaar,Alkmaar,Noord-Holland,VBO,4.765636,52.649403
Ida Gerhardtstraat,51,,,1822MG,Alkmaar,Alkmaar,Noord-Holland,VBO,4.765604,52.649553
Ida Gerhardtstraat,52,,,1822MG,Alkmaar,Alkmaar,Noord-Holland,VBO,4.765629,52.649636
Ida Gerhardtstraat,53,,,1822MG,Alkmaar,Alkmaar,Noord-Holland,VBO,4.765646,52.649725
Ida Gerhardtstraat,54,,,1822MG,Alkmaar,Alkmaar,Noord-Holland,VBO,4.765668,52.649814
Ida Gerhardtstraat,55,,,1822MG,Alkmaar,Alkmaar,Noord-Holland,VBO,4.765693,52.649906
Ida Gerhardtstraat,56,,,1822MG,Alkmaar,Alkmaar,Noord-Holland,VBO,4.765682,52.650004
Ida Gerhardtstraat,57,,,1822MG,Alkmaar,Alkmaar,Noord-Holland,VBO,4.765717,52.650084
Ida Gerhardtstraat,58,,,1822MG,Alkmaar,Alkmaar,Noord-Holland,VBO,4.765752,52.650172
Ida Gerhardtstraat,59,,,1822MG,Alkmaar,Alkmaar,Noord-Holland,VBO,4.765793,52.650262
Ida Gerhardtstraat,60,,,1822MG,Alkmaar,Alkmaar,Noord-Holland,VBO,4.765827,52.650347
Ida Gerhardtstraat,61,,,1822MG,Alkmaar,Alkmaar,Noord-Holland,VBO,4.765858,52.650434
Ida Gerhardtstraat,62,,,1822MG,Alkmaar,Alkmaar,Noord-Holland,VBO,4.765871,52.650535
Ida Gerhardtstraat,63,,,1822MG,Alkmaar,Alkmaar,Noord-Holland,VBO,4.765919,52.650615
Ida Gerhardtstraat,64,,,1822MG,Alkmaar,Alkmaar,Noord-Holland,VBO,4.765973,52.650698
Ida Gerhardtstraat,65,,,1822MG,Alkmaar,Alkmaar,Noord-Holland,VBO,4.766022,52.650785
Ida Gerhardtstraat,66,,,1822MG,Alkmaar,Alkmaar,Noord-Holland,VBO,4.766068,52.650870
Ida Gerhardtstraat,67,,,1822MG,Alkmaar,Alkmaar,Noord-Holland,VBO,4.766124,52.650953
Ida Gerhardtstraat,68,,,1822MG,Alkmaar,Alkmaar,Noord-Holland,VBO,4.766173,52.651038
Ida Gerhardtstraat,69,,,1822MG,Alkmaar,Alkmaar,Noord-Holland,VBO,4.766217,52.651119
Ida Gerhardtstraat,70,,,1822MG,Alkmaar,Alkmaar,Noord-Holland,VBO,4.766270,52.651205
Ida Gerhardtstraat,71,,,1822MG,Alkmaar,Alkmaar,Noord-Holland,VBO,4.766320,52.651291
Ida Gerhardtstraat,72,,,1822MG,Alkmaar,Alkmaar,Noord-Holland,VBO,4.766374,52.651374
Ida Gerhardtstraat,73,,,1822MG,Alkmaar,Alkmaar,Noord-Holland,VBO,4.766417,52.651460
Ida Gerhardtstraat,74,,,1822MH,Alkmaar,Alkmaar,Noord-Holland,VBO,4.767051,52.651306
Ida Gerhardtstraat,75,,,1822MH,Alkmaar,Alkmaar,Noord-Holland,VBO,4.766883,52.651312
Ida Gerhardtstraat,76,,,1822MH,Alkmaar,Alkmaar,Noord-Holland,VBO,4.766810,52.651032
Ida Gerhardtstraat,77,,,1822MH,Alkmaar,Alkmaar,Noord-Holland,VBO,4.766991,52.651019
Ida Gerhardtstraat,78,,,1822MH,Alkmaar,Alkmaar,Noord-Holland,VBO,4.766979,52.650823
Ida Gerhardtstraat,79,,,1822MH,Alkmaar,Alkmaar,Noord-Holland,VBO,4.766808,52.650817
Ida Gerhardtstraat,80,,,1822MH,Alkmaar,Alkmaar,Noord-Holland,VBO,4.766716,52.650814
Ida Gerhardtstraat,81,,,1822MH,Alkmaar,Alkmaar,Noord-Holland,VBO,4.766532,52.650806
Ida Gerhardtstraat,82,,,1822MH,Alkmaar,Alkmaar,Noord-Holland,VBO,4.766546,52.650521
Ida Gerhardtstraat,83,,,1822MH,Alkmaar,Alkmaar,Noord-Holland,VBO,4.766727,52.650527
Ida Gerhardtstraat,84,,,1822MH,Alkmaar,Alkmaar,Noord-Holland,VBO,4.766819,52.650532
Ida Gerhardtstraat,85,,,1822MH,Alkmaar,Alkmaar,Noord-Holland,VBO,4.766996,52.650536
Ida Gerhardtstraat,86,,,1822MH,Alkmaar,Alkmaar,Noord-Holland,VBO,4.767036,52.650333
Ida Gerhardtstraat,87,,,1822MH,Alkmaar,Alkmaar,Noord-Holland,VBO,4.766866,52.650309
Ida Gerhardtstraat,88,,,1822MH,Alkmaar,Alkmaar,Noord-Holland,VBO,4.766763,52.650298
Ida Gerhardtstraat,89,,,1822MH,Alkmaar,Alkmaar,Noord-Holland,VBO,4.766604,52.650275
Ida Gerhardtstraat,90,,,1822MH,Alkmaar,Alkmaar,Noord-Holland,VBO,4.766511,52.650264
Ida Gerhardtstraat,91,,,1822MH,Alkmaar,Alkmaar,Noord-Holland,VBO,4.766344,52.650240
Ida Gerhardtstraat,92,,,1822MH,Alkmaar,Alkmaar,Noord-Holland,VBO,4.766434,52.649968
Ida Gerhardtstraat,93,,,1822MH,Alkmaar,Alkmaar,Noord-Holland,VBO,4.766611,52.649988
Ida Gerhardtstraat,94,,,1822MH,Alkmaar,Alkmaar,Noord-Holland,VBO,4.766703,52.649999
Ida Gerhardtstraat,95,,,1822MH,Alkmaar,Alkmaar,Noord-Holland,VBO,4.766866,52.650020
Ida Gerhardtstraat,96,,,1822MH,Alkmaar,Alkmaar,Noord-Holland,VBO,4.766959,52.650033
Ida Gerhardtstraat,97,,,1822MH,Alkmaar,Alkmaar,Noord-Holland,VBO,4.767129,52.650054
Vasalisstraat,1,,,1822MK,Alkmaar,Alkmaar,Noord-Holland,VBO,4.767857,52.652856
Vasalisstraat,2,,,1822MK,Alkmaar,Alkmaar,Noord-Holland,VBO,4.767670,52.652595
Vasalisstraat,3,,,1822MK,Alkmaar,Alkmaar,Noord-Holland,VBO,4.767520,52.652356
Vasalisstraat,4,,,1822MK,Alkmaar,Alkmaar,Noord-Holland,VBO,4.767369,52.652088
Vasalisstraat,5,,,1822MK,Alkmaar,Alkmaar,Noord-Holland,VBO,4.766486,52.651567
Vasalisstraat,6,,,1822MK,Alkmaar,Alkmaar,Noord-Holland,VBO,4.766569,52.651683
Vasalisstraat,7,,,1822MK,Alkmaar,Alkmaar,Noord-Holland,VBO,4.766647,52.651813
Vasalisstraat,8,,,1822MK,Alkmaar,Alkmaar,Noord-Holland,VBO,4.766723,52.651942
Vasalisstraat,9,,,1822MK,Alkmaar,Alkmaar,Noord-Holland,VBO,4.766791,52.652065
Vasalisstraat,10,,,1822MK,Alkmaar,Alkmaar,Noord-Holland,VBO,4.766849,52.652156
Vasalisstraat,11,,,1822MK,Alkmaar,Alkmaar,Noord-Holland,VBO,4.766899,52.652237
Vasalisstraat,12,,,1822MK,Alkmaar,Alkmaar,Noord-Holland,VBO,4.766955,52.652321
Vasalisstraat,13,,,1822MK,Alkmaar,Alkmaar,Noord-Holland,VBO,4.767002,52.652409
Vasalisstraat,14,,,1822MK,Alkmaar,Alkmaar,Noord-Holland,VBO,4.767054,52.652486
Vasalisstraat,15,,,1822MK,Alkmaar,Alkmaar,Noord-Holland,VBO,4.767111,52.652568
Vasalisstraat,16,,,1822MK,Alkmaar,Alkmaar,Noord-Holland,VBO,4.767159,52.652658
Vasalisstraat,17,,,1822MK,Alkmaar,Alkmaar,Noord-Holland,VBO,4.767210,52.652739
Vasalisstraat,18,,,1822MK,Alkmaar,Alkmaar,Noord-Holland,VBO,4.767263,52.652823
Vasalisstraat,19,,,1822MK,Alkmaar,Alkmaar,Noord-Holland,VBO,4.767316,52.652907
Vasalisstraat,20,,,1822MK,Alkmaar,Alkmaar,Noord-Holland,VBO,4.767372,52.652987
Vasalisstraat,21,,,1822MK,Alkmaar,Alkmaar,Noord-Holland,VBO,4.767388,52.653083
Vasalisstraat,22,,,1822MK,Alkmaar,Alkmaar,Noord-Holland,VBO,4.767443,52.653167
Vasalisstraat,23,,,1822MK,Alkmaar,Alkmaar,Noord-Holland,VBO,4.767494,52.653255
Vasalisstraat,24,,,1822MK,Alkmaar,Alkmaar,Noord-Holland,VBO,4.767543,52.653339
Vasalisstraat,25,,,1822MK,Alkmaar,Alkmaar,Noord-Holland,VBO,4.767596,52.653426
Vasalisstraat,26,,,1822MK,Alkmaar,Alkmaar,Noord-Holland,VBO,4.767648,52.653504
Vasalisstraat,27,,,1822MK,Alkmaar,Alkmaar,Noord-Holland,VBO,4.767705,52.653585
Vasalisstraat,28,,,1822MK,Alkmaar,Alkmaar,Noord-Holland,VBO,4.767760,52.653677
Vasalisstraat,29,,,1822MK,Alkmaar,Alkmaar,Noord-Holland,VBO,4.767814,52.653762
Vasalisstraat,30,,,1822MK,Alkmaar,Alkmaar,Noord-Holland,VBO,4.767859,52.653838
Vasalisstraat,31,,,1822MK,Alkmaar,Alkmaar,Noord-Holland,VBO,4.767891,52.653936
Vasalisstraat,32,,,1822MK,Alkmaar,Alkmaar,Noord-Holland,VBO,4.767941,52.654012
Vasalisstraat,33,,,1822MK,Alkmaar,Alkmaar,Noord-Holland,VBO,4.767995,52.654096
Vasalisstraat,34,,,1822MK,Alkmaar,Alkmaar,Noord-Holland,VBO,4.768047,52.654180
Vasalisstraat,35,,,1822MK,Alkmaar,Alkmaar,Noord-Holland,VBO,4.768100,52.654264
Vasalisstraat,36,,,1822MK,Alkmaar,Alkmaar,Noord-Holland,VBO,4.768155,52.654356
Vasalisstraat,37,,,1822MK,Alkmaar,Alkmaar,Noord-Holland,VBO,4.768204,52.654439
Vasalisstraat,38,,,1822MK,Alkmaar,Alkmaar,Noord-Holland,VBO,4.768819,52.653866
Vasalisstraat,39,,,1822MK,Alkmaar,Alkmaar,Noord-Holland,VBO,4.768681,52.653925
Vasalisstraat,40,,,1822MK,Alkmaar,Alkmaar,Noord-Holland,VBO,4.768592,52.653962
Vasalisstraat,41,,,1822MK,Alkmaar,Alkmaar,Noord-Holland,VBO,4.768330,52.653730
Vasalisstraat,42,,,1822MK,Alkmaar,Alkmaar,Noord-Holland,VBO,4.768417,52.653698
Vasalisstraat,43,,,1822MK,Alkmaar,Alkmaar,Noord-Holland,VBO,4.768559,52.653641
Vasalisstraat,44,,,1822MK,Alkmaar,Alkmaar,Noord-Holland,VBO,4.768343,52.653416
Vasalisstraat,45,,,1822MK,Alkmaar,Alkmaar,Noord-Holland,VBO,4.768186,52.653462
Vasalisstraat,46,,,1822MK,Alkmaar,Alkmaar,Noord-Holland,VBO,4.767954,52.653223
Vasalisstraat,47,,,1822MK,Alkmaar,Alkmaar,Noord-Holland,VBO,4.768110,52.653171
Ina Boudierstraat,1,,,1822ML,Alkmaar,Alkmaar,Noord-Holland,VBO,4.769789,52.654542
Ina Boudierstraat,2,,,1822ML,Alkmaar,Alkmaar,Noord-Holland,VBO,4.769675,52.654620
Ina Boudierstraat,3,,,1822ML,Alkmaar,Alkmaar,Noord-Holland,VBO,4.769602,52.654664
Ina Boudierstraat,4,,,1822ML,Alkmaar,Alkmaar,Noord-Holland,VBO,4.769489,52.654738
Ina Boudierstraat,5,,,1822ML,Alkmaar,Alkmaar,Noord-Holland,VBO,4.769421,52.654781
Ina Boudierstraat,6,,,1822ML,Alkmaar,Alkmaar,Noord-Holland,VBO,4.769312,52.654852
Ina Boudierstraat,7,,,1822ML,Alkmaar,Alkmaar,Noord-Holland,VBO,4.769225,52.654900
Ina Boudierstraat,8,,,1822ML,Alkmaar,Alkmaar,Noord-Holland,VBO,4.768913,52.654707
Ina Boudierstraat,9,,,1822ML,Alkmaar,Alkmaar,Noord-Holland,VBO,4.768984,52.654664
Ina Boudierstraat,10,,,1822ML,Alkmaar,Alkmaar,Noord-Holland,VBO,4.769093,52.654590
Ina Boudierstraat,11,,,1822ML,Alkmaar,Alkmaar,Noord-Holland,VBO,4.769161,52.654547
Ina Boudierstraat,12,,,1822ML,Alkmaar,Alkmaar,Noord-Holland,VBO,4.769279,52.654478
Ina Boudierstraat,13,,,1822ML,Alkmaar,Alkmaar,Noord-Holland,VBO,4.769350,52.654432
Ina Boudierstraat,14,,,1822ML,Alkmaar,Alkmaar,Noord-Holland,VBO,4.769470,52.654359
Ina Boudierstraat,15,,,1822ML,Alkmaar,Alkmaar,Noord-Holland,VBO,4.768311,52.654650
Ina Boudierstraat,16,,,1822ML,Alkmaar,Alkmaar,Noord-Holland,VBO,4.768362,52.654733
Ina Boudierstraat,17,,,1822ML,Alkmaar,Alkmaar,Noord-Holland,VBO,4.768415,52.654821
Ina Boudierstraat,18,,,1822ML,Alkmaar,Alkmaar,Noord-Holland,VBO,4.768469,52.654903
Ina Boudierstraat,19,,,1822ML,Alkmaar,Alkmaar,Noord-Holland,VBO,4.768516,52.654984
Ina Boudierstraat,20,,,1822ML,Alkmaar,Alkmaar,Noord-Holland,VBO,4.768572,52.655063
Ina Boudierstraat,21,,,1822ML,Alkmaar,Alkmaar,Noord-Holland,VBO,4.768625,52.655150
Ina Boudierstraat,22,,,1822ML,Alkmaar,Alkmaar,Noord-Holland,VBO,4.768679,52.655234
Ina Boudierstraat,23,,,1822ML,Alkmaar,Alkmaar,Noord-Holland,VBO,4.768736,52.655318
Ina Boudierstraat,24,,,1822ML,Alkmaar,Alkmaar,Noord-Holland,VBO,4.768788,52.655402
Ina Boudierstraat,25,,,1822ML,Alkmaar,Alkmaar,Noord-Holland,VBO,4.768896,52.655513
Ina Boudierstraat,26,,,1822ML,Alkmaar,Alkmaar,Noord-Holland,VBO,4.769006,52.655574
Ina Boudierstraat,27,,,1822ML,Alkmaar,Alkmaar,Noord-Holland,VBO,4.769115,52.655633
Ina Boudierstraat,28,,,1822ML,Alkmaar,Alkmaar,Noord-Holland,VBO,4.769287,52.655697
Ina Boudierstraat,29,,,1822ML,Alkmaar,Alkmaar,Noord-Holland,VBO,4.769435,52.655719
Ina Boudierstraat,30,,,1822ML,Alkmaar,Alkmaar,Noord-Holland,VBO,4.769570,52.655745
Ina Boudierstraat,31,,,1822MN,Alkmaar,Alkmaar,Noord-Holland,VBO,4.769772,52.655757
Ina Boudierstraat,32,,,1822MN,Alkmaar,Alkmaar,Noord-Holland,VBO,4.769919,52.655739
Ina Boudierstraat,33,,,1822MN,Alkmaar,Alkmaar,Noord-Holland,VBO,4.770063,52.655721
Ina Boudierstraat,34,,,1822MN,Alkmaar,Alkmaar,Noord-Holland,VBO,4.770254,52.655676
Ina Boudierstraat,35,,,1822MN,Alkmaar,Alkmaar,Noord-Holland,VBO,4.770373,52.655620
Ina Boudierstraat,36,,,1822MN,Alkmaar,Alkmaar,Noord-Holland,VBO,4.770490,52.655562
Ina Boudierstraat,37,,,1822MN,Alkmaar,Alkmaar,Noord-Holland,VBO,4.770606,52.655510
Ina Boudierstraat,38,,,1822MN,Alkmaar,Alkmaar,Noord-Holland,VBO,4.770737,52.655419
Ina Boudierstraat,39,,,1822MN,Alkmaar,Alkmaar,Noord-Holland,VBO,4.770802,52.655336
Ina Boudierstraat,40,,,1822MN,Alkmaar,Alkmaar,Noord-Holland,VBO,4.770862,52.655256
Ina Boudierstraat,41,,,1822MN,Alkmaar,Alkmaar,Noord-Holland,VBO,4.770927,52.655178
Ina Boudierstraat,42,,,1822MN,Alkmaar,Alkmaar,Noord-Holland,VBO,4.770986,52.655098
Ina Boudierstraat,43,,,1822MN,Alkmaar,Alkmaar,Noord-Holland,VBO,4.770502,52.654878
Ina Boudierstraat,44,,,1822MN,Alkmaar,Alkmaar,Noord-Holland,VBO,4.770406,52.654959
Ina Boudierstraat,45,,,1822MN,Alkmaar,Alkmaar,Noord-Holland,VBO,4.770339,52.655015
Ina Boudierstraat,46,,,1822MN,Alkmaar,Alkmaar,Noord-Holland,VBO,4.770254,52.655091
Ina Boudierstraat,47,,,1822MN,Alkmaar,Alkmaar,Noord-Holland,VBO,4.770194,52.655142
Ina Boudierstraat,48,,,1822MN,Alkmaar,Alkmaar,Noord-Holland,VBO,4.770097,52.655227
Ina Boudierstraat,49,,,1822MN,Alkmaar,Alkmaar,Noord-Holland,VBO,4.770035,52.655276
Ina Boudierstraat,50,,,1822MN,Alkmaar,Alkmaar,Noord-Holland,VBO,4.769944,52.655352
Ina Boudierstraat,51,,,1822MN,Alkmaar,Alkmaar,Noord-Holland,VBO,4.769884,52.655409
Ina Boudierstraat,52,,,1822MN,Alkmaar,Alkmaar,Noord-Holland,VBO,4.769515,52.655248
Ina Boudierstraat,53,,,1822MN,Alkmaar,Alkmaar,Noord-Holland,VBO,4.769572,52.655200
Ina Boudierstraat,54,,,1822MN,Alkmaar,Alkmaar,Noord-Holland,VBO,4.769670,52.655110
Ina Boudierstraat,55,,,1822MN,Alkmaar,Alkmaar,Noord-Holland,VBO,4.769722,52.655064
Ina Boudierstraat,56,,,1822MN,Alkmaar,Alkmaar,Noord-Holland,VBO,4.769823,52.654979
Ina Boudierstraat,57,,,1822MN,Alkmaar,Alkmaar,Noord-Holland,VBO,4.769874,52.654932
Ina Boudierstraat,58,,,1822MN,Alkmaar,Alkmaar,Noord-Holland,VBO,4.769977,52.654850
Ina Boudierstraat,59,,,1822MN,Alkmaar,Alkmaar,Noord-Holland,VBO,4.770034,52.654802
Ina Boudierstraat,60,,,1822MN,Alkmaar,Alkmaar,Noord-Holland,VBO,4.770133,52.654718
