openbareruimtenaam,huisnummer,huisletter,huisnummertoevoeging,postcode,woonplaatsnaam,gemeentenaam,provincienaam,typeadresseerbaarobject,longitude,latitude
Herenweg,2,Z,,1935AA,Egmond-Binnen,Bergen (NH.),Noord-Holland,VBO,4.656243,52.585630
Herenweg,2,,,1935AA,Egmond-Binnen,Bergen (NH.),Noord-Holland,VBO,4.656170,52.585575
Herenweg,3,C,,1935AA,Egmond-Binnen,Bergen (NH.),Noord-Holland,VBO,4.654822,52.585882
Herenweg,3,,,1935AA,Egmond-Binnen,Bergen (NH.),Noord-Holland,VBO,4.654998,52.585919
Herenweg,5,,BEDR,1935AA,Egmond-Binnen,Bergen (NH.),Noord-Holland,VBO,4.654968,52.585964
Herenweg,5,,,1935AA,Egmond-Binnen,Bergen (NH.),Noord-Holland,VBO,4.654968,52.585964
Herenweg,6,,Lds,1935AA,Egmond-Binnen,Bergen (NH.),Noord-Holland,VBO,4.656607,52.586791
Herenweg,6,,,1935AA,Egmond-Binnen,Bergen (NH.),Noord-Holland,VBO,4.656448,52.586602
Herenweg,7,,,1935AA,Egmond-Binnen,Bergen (NH.),Noord-Holland,VBO,4.654726,52.586304
Herenweg,8,Z,,1935AA,Egmond-Binnen,Bergen (NH.),Noord-Holland,VBO,4.657026,52.588812
Herenweg,8,,,1935AA,Egmond-Binnen,Bergen (NH.),Noord-Holland,VBO,4.656884,52.588752
Herenweg,9,Z,,1935AA,Egmond-Binnen,Bergen (NH.),Noord-Holland,VBO,4.655596,52.587106
Herenweg,9,,,1935AA,Egmond-Binnen,Bergen (NH.),Noord-Holland,VBO,4.655760,52.587128
Herenweg,10,,,1935AA,Egmond-Binnen,Bergen (NH.),Noord-Holland,VBO,4.656470,52.588813
Herenweg,11,,,1935AA,Egmond-Binnen,Bergen (NH.),Noord-Holland,VBO,4.655860,52.587362
Herenweg,12,Z,,1935AA,Egmond-Binnen,Bergen (NH.),Noord-Holland,VBO,4.656897,52.588896
Herenweg,12,,,1935AA,Egmond-Binnen,Bergen (NH.),Noord-Holland,VBO,4.656454,52.588885
Herenweg,13,A,,1935AA,Egmond-Binnen,Bergen (NH.),Noord-Holland,VBO,4.655912,52.588657
Herenweg,13,B,,1935AA,Egmond-Binnen,Bergen (NH.),Noord-Holland,VBO,4.655875,52.588216
Herenweg,13,,,1935AA,Egmond-Binnen,Bergen (NH.),Noord-Holland,VBO,4.655958,52.587677
Herenweg,14,,,1935AA,Egmond-Binnen,Bergen (NH.),Noord-Holland,VBO,4.656490,52.588980
Herenweg,15,,Lds,1935AA,Egmond-Binnen,Bergen (NH.),Noord-Holland,VBO,4.655584,52.588879
Herenweg,15,,,1935AA,Egmond-Binnen,Bergen (NH.),Noord-Holland,VBO,4.655922,52.588935
Herenweg,16,,,1935AA,Egmond-Binnen,Bergen (NH.),Noord-Holland,VBO,4.656525,52.589101
Herenweg,17,,,1935AA,Egmond-Binnen,Bergen (NH.),Noord-Holland,VBO,4.655843,52.589249
Herenweg,18,,,1935AA,Egmond-Binnen,Bergen (NH.),Noord-Holland,VBO,4.656697,52.589165
Herenweg,19,,,1935AA,Egmond-Binnen,Bergen (NH.),Noord-Holland,VBO,4.656018,52.589421
Herenweg,21,,,1935AA,Egmond-Binnen,Bergen (NH.),Noord-Holland,VBO,4.655987,52.589457
Herenweg,99998,,TRA1,1935AA,Egmond-Binnen,Bergen (NH.),Noord-Holland,VBO,4.655941,52.587812
Herenweg,23,A,,1935AB,Egmond-Binnen,Bergen (NH.),Noord-Holland,VBO,4.656039,52.589925
Herenweg,23,,,1935AB,Egmond-Binnen,Bergen (NH.),Noord-Holland,VBO,4.656009,52.589942
Herenweg,25,,,1935AB,Egmond-Binnen,Bergen (NH.),Noord-Holland,VBO,4.656017,52.590320
Herenweg,27,,,1935AB,Egmond-Binnen,Bergen (NH.),Noord-Holland,VBO,4.655987,52.590392
Herenweg,29,A,,1935AB,Egmond-Binnen,Bergen (NH.),Noord-Holland,VBO,4.655729,52.590795
Herenweg,29,,,1935AB,Egmond-Binnen,Bergen (NH.),Noord-Holland,VBO,4.656038,52.590868
Herenweg,31,,,1935AB,Egmond-Binnen,Bergen (NH.),Noord-Holland,VBO,4.656051,52.590985
Herenweg,33,Z,1,1935AB,Egmond-Binnen,Bergen (NH.),Noord-Holland,VBO,4.655910,52.591050
Herenweg,33,Z,2,1935AB,Egmond-Binnen,Bergen (NH.),Noord-Holland,VBO,4.655224,52.590998
Herenweg,33,Z,,1935AB,Egmond-Binnen,Bergen (NH.),Noord-Holland,VBO,4.655913,52.591121
Herenweg,33,,,1935AB,Egmond-Binnen,Bergen (NH.),Noord-Holland,VBO,4.656078,52.591129
Herenweg,35,,,1935AB,Egmond-Binnen,Bergen (NH.),Noord-Holland,VBO,4.656091,52.591228
Herenweg,37,A,,1935AB,Egmond-Binnen,Bergen (NH.),Noord-Holland,VBO,4.655833,52.593446
Herenweg,37,,BOV,1935AB,Egmond-Binnen,Bergen (NH.),Noord-Holland,VBO,4.652800,52.591199
Herenweg,37,,naby,1935AB,Egmond-Binnen,Bergen (NH.),Noord-Holland,VBO,4.652800,52.591199
Herenweg,37,,,1935AB,Egmond-Binnen,Bergen (NH.),Noord-Holland,VBO,4.654188,52.591153
Herenweg,39,Z,,1935AC,Egmond-Binnen,Bergen (NH.),Noord-Holland,VBO,4.655679,52.593841
Herenweg,39,,,1935AC,Egmond-Binnen,Bergen (NH.),Noord-Holland,VBO,4.655886,52.593761
Herenweg,41,A,,1935AC,Egmond-Binnen,Bergen (NH.),Noord-Holland,VBO,4.655824,52.593977
Herenweg,41,B,,1935AC,Egmond-Binnen,Bergen (NH.),Noord-Holland,VBO,4.655808,52.594030
Herenweg,41,C,,1935AC,Egmond-Binnen,Bergen (NH.),Noord-Holland,VBO,4.655822,52.594084
Herenweg,41,D,,1935AC,Egmond-Binnen,Bergen (NH.),Noord-Holland,VBO,4.655806,52.594183
Herenweg,41,Z,,1935AC,Egmond-Binnen,Bergen (NH.),Noord-Holland,VBO,4.655648,52.593895
Herenweg,41,,,1935AC,Egmond-Binnen,Bergen (NH.),Noord-Holland,VBO,4.655854,52.593941
Herenweg,43,A,,1935AC,Egmond-Binnen,Bergen (NH.),Noord-Holland,VBO,4.655788,52.594345
Herenweg,43,B,,1935AC,Egmond-Binnen,Bergen (NH.),Noord-Holland,VBO,4.655758,52.594390
Herenweg,43,C,,1935AC,Egmond-Binnen,Bergen (NH.),Noord-Holland,VBO,4.655757,52.594444
Herenweg,43,D,,1935AC,Egmond-Binnen,Bergen (NH.),Noord-Holland,VBO,4.655771,52.594498
Herenweg,43,,,1935AC,Egmond-Binnen,Bergen (NH.),Noord-Holland,VBO,4.655790,52.594237
Herenweg,45,A,1,1935AC,Egmond-Binnen,Bergen (NH.),Noord-Holland,VBO,4.655597,52.595207
Herenweg,45,A,2,1935AC,Egmond-Binnen,Bergen (NH.),Noord-Holland,VBO,4.655597,52.595224
Herenweg,45,A,3,1935AC,Egmond-Binnen,Bergen (NH.),Noord-Holland,VBO,4.655596,52.595251
Herenweg,45,A,4,1935AC,Egmond-Binnen,Bergen (NH.),Noord-Holland,VBO,4.655596,52.595278
Herenweg,45,A,,1935AC,Egmond-Binnen,Bergen (NH.),Noord-Holland,VBO,4.655582,52.595179
Herenweg,45,B,,1935AC,Egmond-Binnen,Bergen (NH.),Noord-Holland,VBO,4.655534,52.595422
Herenweg,45,C,,1935AC,Egmond-Binnen,Bergen (NH.),Noord-Holland,VBO,4.655548,52.595485
Herenweg,45,Z,,1935AC,Egmond-Binnen,Bergen (NH.),Noord-Holland,VBO,4.655590,52.594659
Herenweg,45,,,1935AC,Egmond-Binnen,Bergen (NH.),Noord-Holland,VBO,4.655721,52.594612
Herenweg,47,,,1935AC,Egmond-Binnen,Bergen (NH.),Noord-Holland,VBO,4.655590,52.595638
Herenweg,49,Z,,1935AC,Egmond-Binnen,Bergen (NH.),Noord-Holland,VBO,4.655440,52.595754
Herenweg,49,,,1935AC,Egmond-Binnen,Bergen (NH.),Noord-Holland,VBO,4.655588,52.595737
Herenweg,51,,,1935AC,Egmond-Binnen,Bergen (NH.),Noord-Holland,VBO,4.655277,52.595789
Herenweg,53,,,1935AC,Egmond-Binnen,Bergen (NH.),Noord-Holland,VBO,4.655276,52.595852
Herenweg,55,,,1935AC,Egmond-Binnen,Bergen (NH.),Noord-Holland,VBO,4.655246,52.595905
Herenweg,59,,,1935AD,Egmond-Binnen,Bergen (NH.),Noord-Holland,VBO,4.655594,52.596249
Herenweg,61,,,1935AD,Egmond-Binnen,Bergen (NH.),Noord-Holland,VBO,4.655473,52.596437
Herenweg,63,A,Kant,1935AD,Egmond-Binnen,Bergen (NH.),Noord-Holland,VBO,4.655501,52.596509
Herenweg,63,,,1935AD,Egmond-Binnen,Bergen (NH.),Noord-Holland,VBO,4.655471,52.596563
Herenweg,65,,,1935AD,Egmond-Binnen,Bergen (NH.),Noord-Holland,VBO,4.655410,52.596679
Herenweg,67,,,1935AD,Egmond-Binnen,Bergen (NH.),Noord-Holland,VBO,4.655468,52.596770
Herenweg,69,,,1935AD,Egmond-Binnen,Bergen (NH.),Noord-Holland,VBO,4.655273,52.596912
Herenweg,71,,,1935AD,Egmond-Binnen,Bergen (NH.),Noord-Holland,VBO,4.655301,52.597038
Herenweg,73,A,,1935AD,Egmond-Binnen,Bergen (NH.),Noord-Holland,VBO,4.655044,52.597387
Herenweg,73,B,,1935AD,Egmond-Binnen,Bergen (NH.),Noord-Holland,VBO,4.654953,52.597512
Herenweg,73,C,,1935AD,Egmond-Binnen,Bergen (NH.),Noord-Holland,VBO,4.654907,52.597647
Herenweg,73,D,,1935AD,Egmond-Binnen,Bergen (NH.),Noord-Holland,VBO,4.654846,52.597772
Herenweg,73,E,,1935AD,Egmond-Binnen,Bergen (NH.),Noord-Holland,VBO,4.654755,52.597907
Herenweg,73,,,1935AD,Egmond-Binnen,Bergen (NH.),Noord-Holland,VBO,4.655047,52.597198
Herenweg,75,,,1935AD,Egmond-Binnen,Bergen (NH.),Noord-Holland,VBO,4.654591,52.598031
Herenweg,77,A,,1935AD,Egmond-Binnen,Bergen (NH.),Noord-Holland,VBO,4.654480,52.598480
Herenweg,77,B,,1935AD,Egmond-Binnen,Bergen (NH.),Noord-Holland,VBO,4.654435,52.598525
Herenweg,77,C,,1935AD,Egmond-Binnen,Bergen (NH.),Noord-Holland,VBO,4.654404,52.598578
Herenweg,77,D,,1935AD,Egmond-Binnen,Bergen (NH.),Noord-Holland,VBO,4.654403,52.598641
Herenweg,77,,,1935AD,Egmond-Binnen,Bergen (NH.),Noord-Holland,VBO,4.654616,52.598292
Herenweg,79,,,1935AD,Egmond-Binnen,Bergen (NH.),Noord-Holland,VBO,4.654282,52.598802
Herenweg,24,,,1935AE,Egmond-Binnen,Bergen (NH.),Noord-Holland,VBO,4.656583,52.592687
Herenweg,26,A,,1935AE,Egmond-Binnen,Bergen (NH.),Noord-Holland,VBO,4.656475,52.592956
Herenweg,26,B,,1935AE,Egmond-Binnen,Bergen (NH.),Noord-Holland,VBO,4.656460,52.593019
Herenweg,26,C,,1935AE,Egmond-Binnen,Bergen (NH.),Noord-Holland,VBO,4.656473,52.593073
Herenweg,26,D,,1935AE,Egmond-Binnen,Bergen (NH.),Noord-Holland,VBO,4.656473,52.593127
Herenweg,26,E,,1935AE,Egmond-Binnen,Bergen (NH.),Noord-Holland,VBO,4.656472,52.593181
Herenweg,26,F,,1935AE,Egmond-Binnen,Bergen (NH.),Noord-Holland,VBO,4.656441,52.593234
Herenweg,26,,,1935AE,Egmond-Binnen,Bergen (NH.),Noord-Holland,VBO,4.656476,52.592920
Herenweg,28,A,,1935AE,Egmond-Binnen,Bergen (NH.),Noord-Holland,VBO,4.656468,52.593405
Herenweg,28,B,,1935AE,Egmond-Binnen,Bergen (NH.),Noord-Holland,VBO,4.656496,52.593468
Herenweg,28,C,,1935AE,Egmond-Binnen,Bergen (NH.),Noord-Holland,VBO,4.656466,52.593513
Herenweg,28,,,1935AE,Egmond-Binnen,Bergen (NH.),Noord-Holland,VBO,4.656454,52.593378
Herenweg,30,,,1935AE,Egmond-Binnen,Bergen (NH.),Noord-Holland,VBO,4.656314,52.593809
Herenweg,32,,,1935AE,Egmond-Binnen,Bergen (NH.),Noord-Holland,VBO,4.656310,52.594016
Herenweg,34,A,,1935AE,Egmond-Binnen,Bergen (NH.),Noord-Holland,VBO,4.656382,52.594124
Herenweg,34,B,,1935AE,Egmond-Binnen,Bergen (NH.),Noord-Holland,VBO,4.656366,52.594223
Herenweg,34,,,1935AE,Egmond-Binnen,Bergen (NH.),Noord-Holland,VBO,4.656295,52.594060
Herenweg,36,Z,1,1935AG,Egmond-Binnen,Bergen (NH.),Noord-Holland,VBO,4.656421,52.594430
Herenweg,36,Z,2,1935AG,Egmond-Binnen,Bergen (NH.),Noord-Holland,VBO,4.656716,52.594467
Herenweg,36,,,1935AG,Egmond-Binnen,Bergen (NH.),Noord-Holland,VBO,4.656318,52.594429
Herenweg,38,,,1935AG,Egmond-Binnen,Bergen (NH.),Noord-Holland,VBO,4.656301,52.594555
Herenweg,40,A,,1935AG,Egmond-Binnen,Bergen (NH.),Noord-Holland,VBO,4.656168,52.594687
Herenweg,40,B,,1935AG,Egmond-Binnen,Bergen (NH.),Noord-Holland,VBO,4.656159,52.594720
Herenweg,40,C,,1935AG,Egmond-Binnen,Bergen (NH.),Noord-Holland,VBO,4.656144,52.594765
Herenweg,40,D,,1935AG,Egmond-Binnen,Bergen (NH.),Noord-Holland,VBO,4.656209,52.594657
Herenweg,40,E,,1935AG,Egmond-Binnen,Bergen (NH.),Noord-Holland,VBO,4.656199,52.594702
Herenweg,40,F,,1935AG,Egmond-Binnen,Bergen (NH.),Noord-Holland,VBO,4.656193,52.594735
Herenweg,40,G,,1935AG,Egmond-Binnen,Bergen (NH.),Noord-Holland,VBO,4.656170,52.594779
Herenweg,40,H,,1935AG,Egmond-Binnen,Bergen (NH.),Noord-Holland,VBO,4.656237,52.594668
Herenweg,40,J,,1935AG,Egmond-Binnen,Bergen (NH.),Noord-Holland,VBO,4.656224,52.594714
Herenweg,40,K,,1935AG,Egmond-Binnen,Bergen (NH.),Noord-Holland,VBO,4.656223,52.594748
Herenweg,40,L,,1935AG,Egmond-Binnen,Bergen (NH.),Noord-Holland,VBO,4.656203,52.594793
Herenweg,40,,,1935AG,Egmond-Binnen,Bergen (NH.),Noord-Holland,VBO,4.656181,52.594646
Herenweg,44,A,,1935AG,Egmond-Binnen,Bergen (NH.),Noord-Holland,VBO,4.656323,52.594995
Herenweg,44,Z,,1935AG,Egmond-Binnen,Bergen (NH.),Noord-Holland,VBO,4.656325,52.594932
Herenweg,44,,,1935AG,Egmond-Binnen,Bergen (NH.),Noord-Holland,VBO,4.656118,52.594922
Herenweg,46,A,,1935AG,Egmond-Binnen,Bergen (NH.),Noord-Holland,VBO,4.656322,52.595085
Herenweg,46,,,1935AG,Egmond-Binnen,Bergen (NH.),Noord-Holland,VBO,4.656323,52.595040
Herenweg,48,A,,1935AG,Egmond-Binnen,Bergen (NH.),Noord-Holland,VBO,4.656099,52.595183
Herenweg,48,,,1935AG,Egmond-Binnen,Bergen (NH.),Noord-Holland,VBO,4.656321,52.595148
Herenweg,50,A,,1935AG,Egmond-Binnen,Bergen (NH.),Noord-Holland,VBO,4.656068,52.595272
Herenweg,50,,,1935AG,Egmond-Binnen,Bergen (NH.),Noord-Holland,VBO,4.656083,52.595236
Herenweg,52,A,,1935AG,Egmond-Binnen,Bergen (NH.),Noord-Holland,VBO,4.656052,52.595362
Herenweg,52,,,1935AG,Egmond-Binnen,Bergen (NH.),Noord-Holland,VBO,4.656052,52.595317
Herenweg,54,Z,,1935AG,Egmond-Binnen,Bergen (NH.),Noord-Holland,VBO,4.656345,52.595481
Herenweg,54,,,1935AG,Egmond-Binnen,Bergen (NH.),Noord-Holland,VBO,4.656020,52.595497
Herenweg,56,,,1935AG,Egmond-Binnen,Bergen (NH.),Noord-Holland,VBO,4.656092,52.595596
Herenweg,58,A,,1935AG,Egmond-Binnen,Bergen (NH.),Noord-Holland,VBO,4.655940,52.595856
Herenweg,58,C,,1935AG,Egmond-Binnen,Bergen (NH.),Noord-Holland,VBO,4.655939,52.595937
Herenweg,58,D,,1935AG,Egmond-Binnen,Bergen (NH.),Noord-Holland,VBO,4.656013,52.595937
Herenweg,58,,Lds,1935AG,Egmond-Binnen,Bergen (NH.),Noord-Holland,VBO,4.656159,52.595992
Herenweg,58,,,1935AG,Egmond-Binnen,Bergen (NH.),Noord-Holland,VBO,4.656043,52.595883
Herenweg,60,,,1935AG,Egmond-Binnen,Bergen (NH.),Noord-Holland,VBO,4.655937,52.596035
Herenweg,62,A,,1935AG,Egmond-Binnen,Bergen (NH.),Noord-Holland,VBO,4.655856,52.596457
Herenweg,62,B,,1935AG,Egmond-Binnen,Bergen (NH.),Noord-Holland,VBO,4.655928,52.596441
Herenweg,62,C,,1935AG,Egmond-Binnen,Bergen (NH.),Noord-Holland,VBO,4.655964,52.596425
Herenweg,62,D,,1935AG,Egmond-Binnen,Bergen (NH.),Noord-Holland,VBO,4.655858,52.596376
Herenweg,62,E,,1935AG,Egmond-Binnen,Bergen (NH.),Noord-Holland,VBO,4.655953,52.596351
Herenweg,62,F,,1935AG,Egmond-Binnen,Bergen (NH.),Noord-Holland,VBO,4.655827,52.596344
Herenweg,62,,,1935AG,Egmond-Binnen,Bergen (NH.),Noord-Holland,VBO,4.655858,52.596359
Herenweg,66,A,,1935AG,Egmond-Binnen,Bergen (NH.),Noord-Holland,VBO,4.655812,52.596654
Herenweg,66,B,,1935AG,Egmond-Binnen,Bergen (NH.),Noord-Holland,VBO,4.655813,52.596593
Herenweg,66,C,,1935AG,Egmond-Binnen,Bergen (NH.),Noord-Holland,VBO,4.655814,52.596535
Herenweg,66,D,,1935AG,Egmond-Binnen,Bergen (NH.),Noord-Holland,VBO,4.655926,52.596731
Herenweg,66,E,,1935AG,Egmond-Binnen,Bergen (NH.),Noord-Holland,VBO,4.655834,52.596708
Herenweg,66,F,,1935AG,Egmond-Binnen,Bergen (NH.),Noord-Holland,VBO,4.655842,52.596638
Herenweg,66,G,,1935AG,Egmond-Binnen,Bergen (NH.),Noord-Holland,VBO,4.655847,52.596574
Herenweg,66,H,,1935AG,Egmond-Binnen,Bergen (NH.),Noord-Holland,VBO,4.655843,52.596519
Herenweg,66,J,,1935AG,Egmond-Binnen,Bergen (NH.),Noord-Holland,VBO,4.655858,52.596688
Herenweg,66,K,,1935AG,Egmond-Binnen,Bergen (NH.),Noord-Holland,VBO,4.655867,52.596559
Herenweg,66,,,1935AG,Egmond-Binnen,Bergen (NH.),Noord-Holland,VBO,4.655805,52.596725
Herenweg,68,Z,,1935AG,Egmond-Binnen,Bergen (NH.),Noord-Holland,VBO,4.656086,52.596845
Herenweg,68,,,1935AG,Egmond-Binnen,Bergen (NH.),Noord-Holland,VBO,4.656160,52.596846
Herenweg,70,,,1935AG,Egmond-Binnen,Bergen (NH.),Noord-Holland,VBO,4.655906,52.597033
Herenweg,72,A,,1935AG,Egmond-Binnen,Bergen (NH.),Noord-Holland,VBO,4.655594,52.598065
Herenweg,72,B,Fys,1935AG,Egmond-Binnen,Bergen (NH.),Noord-Holland,VBO,4.655869,52.597509
Herenweg,72,B,,1935AG,Egmond-Binnen,Bergen (NH.),Noord-Holland,VBO,4.655795,52.597500
Herenweg,72,C,Kind,1935AG,Egmond-Binnen,Bergen (NH.),Noord-Holland,VBO,4.655838,52.597554
Herenweg,72,C,Peut,1935AG,Egmond-Binnen,Bergen (NH.),Noord-Holland,VBO,4.655971,52.597546
Herenweg,72,C,,1935AG,Egmond-Binnen,Bergen (NH.),Noord-Holland,VBO,4.655780,52.597535
Herenweg,72,,,1935AG,Egmond-Binnen,Bergen (NH.),Noord-Holland,VBO,4.655958,52.597474
Herenweg,74,A,,1935AH,Egmond-Binnen,Bergen (NH.),Noord-Holland,VBO,4.655175,52.598403
Herenweg,74,,,1935AH,Egmond-Binnen,Bergen (NH.),Noord-Holland,VBO,4.655220,52.598359
Herenweg,76,A,,1935AH,Egmond-Binnen,Bergen (NH.),Noord-Holland,VBO,4.654995,52.598546
Herenweg,76,,,1935AH,Egmond-Binnen,Bergen (NH.),Noord-Holland,VBO,4.655055,52.598520
Herenweg,78,A,,1935AH,Egmond-Binnen,Bergen (NH.),Noord-Holland,VBO,4.654949,52.598636
Herenweg,78,,,1935AH,Egmond-Binnen,Bergen (NH.),Noord-Holland,VBO,4.654980,52.598591
Herenweg,80,A,,1935AH,Egmond-Binnen,Bergen (NH.),Noord-Holland,VBO,4.654829,52.598797
Herenweg,80,,,1935AH,Egmond-Binnen,Bergen (NH.),Noord-Holland,VBO,4.654874,52.598743
Herenweg,81,,,1935AH,Egmond-Binnen,Bergen (NH.),Noord-Holland,VBO,4.650090,52.601498
Herenweg,82,A,,1935AH,Egmond-Binnen,Bergen (NH.),Noord-Holland,VBO,4.654783,52.598877
Herenweg,82,,,1935AH,Egmond-Binnen,Bergen (NH.),Noord-Holland,VBO,4.654828,52.598842
Herenweg,84,A,,1935AH,Egmond-Binnen,Bergen (NH.),Noord-Holland,VBO,4.654765,52.599066
Herenweg,84,,,1935AH,Egmond-Binnen,Bergen (NH.),Noord-Holland,VBO,4.654751,52.599021
Herenweg,85,,,1935AH,Egmond-Binnen,Bergen (NH.),Noord-Holland,VBO,4.648676,52.603962
Herenweg,86,A,,1935AH,Egmond-Binnen,Bergen (NH.),Noord-Holland,VBO,4.654893,52.599363
Herenweg,86,,,1935AH,Egmond-Binnen,Bergen (NH.),Noord-Holland,VBO,4.654764,52.599138
Herenweg,87,A,,1935AH,Egmond-Binnen,Bergen (NH.),Noord-Holland,VBO,4.651311,52.606127
Herenweg,87,,,1935AH,Egmond-Binnen,Bergen (NH.),Noord-Holland,VBO,4.648690,52.605751
Herenweg,88,A,,1935AH,Egmond-Binnen,Bergen (NH.),Noord-Holland,VBO,4.654491,52.599577
Herenweg,88,,,1935AH,Egmond-Binnen,Bergen (NH.),Noord-Holland,VBO,4.654536,52.599541
Herenweg,89,,,1935AH,Egmond-Binnen,Bergen (NH.),Noord-Holland,VBO,4.649277,52.605988
Herenweg,90,A,,1935AH,Egmond-Binnen,Bergen (NH.),Noord-Holland,VBO,4.654370,52.599747
Herenweg,90,B,,1935AH,Egmond-Binnen,Bergen (NH.),Noord-Holland,VBO,4.654343,52.599784
Herenweg,90,,,1935AH,Egmond-Binnen,Bergen (NH.),Noord-Holland,VBO,4.654400,52.599711
Herenweg,91,,Lds,1935AH,Egmond-Binnen,Bergen (NH.),Noord-Holland,VBO,4.650847,52.607101
Herenweg,91,,,1935AH,Egmond-Binnen,Bergen (NH.),Noord-Holland,VBO,4.651225,52.606872
Herenweg,92,A,,1935AH,Egmond-Binnen,Bergen (NH.),Noord-Holland,VBO,4.654234,52.599926
Herenweg,92,,,1935AH,Egmond-Binnen,Bergen (NH.),Noord-Holland,VBO,4.654280,52.599854
Herenweg,94,A,,1935AH,Egmond-Binnen,Bergen (NH.),Noord-Holland,VBO,4.652308,52.603922
Herenweg,94,,,1935AH,Egmond-Binnen,Bergen (NH.),Noord-Holland,VBO,4.652365,52.604012
Herenweg,96,,,1935AH,Egmond-Binnen,Bergen (NH.),Noord-Holland,VBO,4.652177,52.604685
Herenweg,98,,,1935AH,Egmond-Binnen,Bergen (NH.),Noord-Holland,VBO,4.652220,52.604775
Herenweg,100,,,1935AH,Egmond-Binnen,Bergen (NH.),Noord-Holland,VBO,4.652186,52.605036
Herenweg,102,,,1935AH,Egmond-Binnen,Bergen (NH.),Noord-Holland,VBO,4.652062,52.605385
Herenweg,104,Z,1,1935AH,Egmond-Binnen,Bergen (NH.),Noord-Holland,VBO,4.652111,52.605970
Herenweg,104,Z,2,1935AH,Egmond-Binnen,Bergen (NH.),Noord-Holland,VBO,4.652052,52.605979
Herenweg,104,Z,3,1935AH,Egmond-Binnen,Bergen (NH.),Noord-Holland,VBO,4.652081,52.606006
Herenweg,104,,bedr,1935AH,Egmond-Binnen,Bergen (NH.),Noord-Holland,VBO,4.652356,52.606182
Herenweg,104,,,1935AH,Egmond-Binnen,Bergen (NH.),Noord-Holland,VBO,4.652095,52.606033
Herenweg,106,A,,1935AH,Egmond-Binnen,Bergen (NH.),Noord-Holland,VBO,4.652012,52.606616
Herenweg,106,B,,1935AH,Egmond-Binnen,Bergen (NH.),Noord-Holland,VBO,4.651630,52.607378
Herenweg,106,,,1935AH,Egmond-Binnen,Bergen (NH.),Noord-Holland,VBO,4.652002,52.606338
Herenweg,99998,,TRA2,1935AH,Egmond-Binnen,Bergen (NH.),Noord-Holland,VBO,4.651744,52.604080
Herenweg,93,,,1935AJ,Egmond-Binnen,Bergen (NH.),Noord-Holland,VBO,4.650242,52.608295
Herenweg,95,A,,1935AJ,Egmond-Binnen,Bergen (NH.),Noord-Holland,VBO,4.650230,52.608417
Herenweg,95,Z,,1935AJ,Egmond-Binnen,Bergen (NH.),Noord-Holland,VBO,4.650045,52.608410
Herenweg,95,,,1935AJ,Egmond-Binnen,Bergen (NH.),Noord-Holland,VBO,4.650293,52.608415
Herenweg,97,,,1935AJ,Egmond-Binnen,Bergen (NH.),Noord-Holland,VBO,4.649266,52.608397
Herenweg,99,,,1935AJ,Egmond-Binnen,Bergen (NH.),Noord-Holland,VBO,4.650057,52.608779
Herenweg,101,,,1935AJ,Egmond-Binnen,Bergen (NH.),Noord-Holland,VBO,4.649255,52.609035
Herenweg,103,,,1935AJ,Egmond-Binnen,Bergen (NH.),Noord-Holland,VBO,4.649608,52.609118
Herenweg,105,,,1935AJ,Egmond-Binnen,Bergen (NH.),Noord-Holland,VBO,4.649977,52.609147
Herenweg,107,,,1935AJ,Egmond-Binnen,Bergen (NH.),Noord-Holland,VBO,4.649900,52.609282
Herenweg,108,,,1935AJ,Egmond-Binnen,Bergen (NH.),Noord-Holland,VBO,4.651507,52.607674
Herenweg,110,Z,,1935AJ,Egmond-Binnen,Bergen (NH.),Noord-Holland,VBO,4.651161,52.608076
Herenweg,110,,,1935AJ,Egmond-Binnen,Bergen (NH.),Noord-Holland,VBO,4.651026,52.608183
Herenweg,112,A,Z,1935AJ,Egmond-Binnen,Bergen (NH.),Noord-Holland,VBO,4.651141,52.608364
Herenweg,112,A,,1935AJ,Egmond-Binnen,Bergen (NH.),Noord-Holland,VBO,4.650800,52.608460
Herenweg,112,,,1935AJ,Egmond-Binnen,Bergen (NH.),Noord-Holland,VBO,4.650951,52.608264
Herenweg,114,A,,1935AJ,Egmond-Binnen,Bergen (NH.),Noord-Holland,VBO,4.650784,52.608559
Herenweg,114,,,1935AJ,Egmond-Binnen,Bergen (NH.),Noord-Holland,VBO,4.650646,52.608855
Herenweg,116,A,,1935AJ,Egmond-Binnen,Bergen (NH.),Noord-Holland,VBO,4.650566,52.609395
Herenweg,116,,,1935AJ,Egmond-Binnen,Bergen (NH.),Noord-Holland,VBO,4.650494,52.609088
Herenweg,118,,Naas,1935AJ,Egmond-Binnen,Bergen (NH.),Noord-Holland,VBO,4.650755,52.610284
Herenweg,118,,,1935AJ,Egmond-Binnen,Bergen (NH.),Noord-Holland,VBO,4.650682,52.610239
Mooyeveld,1,Z,,1935AK,Egmond-Binnen,Bergen (NH.),Noord-Holland,VBO,4.655391,52.587170
Mooyeveld,1,,,1935AK,Egmond-Binnen,Bergen (NH.),Noord-Holland,VBO,4.655255,52.587367
Mooyeveld,2,,001,1935AK,Egmond-Binnen,Bergen (NH.),Noord-Holland,VBO,4.652071,52.586534
Mooyeveld,2,,002,1935AK,Egmond-Binnen,Bergen (NH.),Noord-Holland,VBO,4.652217,52.586567
Mooyeveld,2,,002A,1935AK,Egmond-Binnen,Bergen (NH.),Noord-Holland,VBO,4.652342,52.586556
Mooyeveld,2,,003,1935AK,Egmond-Binnen,Bergen (NH.),Noord-Holland,VBO,4.652245,52.586662
Mooyeveld,2,,004,1935AK,Egmond-Binnen,Bergen (NH.),Noord-Holland,VBO,4.652001,52.586697
Mooyeveld,2,,005,1935AK,Egmond-Binnen,Bergen (NH.),Noord-Holland,VBO,4.652022,52.587075
Mooyeveld,2,,007,1935AK,Egmond-Binnen,Bergen (NH.),Noord-Holland,VBO,4.651732,52.587114
Mooyeveld,2,,008,1935AK,Egmond-Binnen,Bergen (NH.),Noord-Holland,VBO,4.651692,52.587184
Mooyeveld,2,,009,1935AK,Egmond-Binnen,Bergen (NH.),Noord-Holland,VBO,4.651648,52.587257
Mooyeveld,2,,010,1935AK,Egmond-Binnen,Bergen (NH.),Noord-Holland,VBO,4.651608,52.587325
Mooyeveld,2,,011,1935AK,Egmond-Binnen,Bergen (NH.),Noord-Holland,VBO,4.651458,52.587288
Mooyeveld,2,,012,1935AK,Egmond-Binnen,Bergen (NH.),Noord-Holland,VBO,4.651490,52.587213
Mooyeveld,2,,013,1935AK,Egmond-Binnen,Bergen (NH.),Noord-Holland,VBO,4.651548,52.587150
Mooyeveld,2,,014,1935AK,Egmond-Binnen,Bergen (NH.),Noord-Holland,VBO,4.651601,52.587082
Mooyeveld,2,,015,1935AK,Egmond-Binnen,Bergen (NH.),Noord-Holland,VBO,4.651622,52.587020
Mooyeveld,2,,016,1935AK,Egmond-Binnen,Bergen (NH.),Noord-Holland,VBO,4.651703,52.586882
Mooyeveld,2,,017,1935AK,Egmond-Binnen,Bergen (NH.),Noord-Holland,VBO,4.651763,52.586808
Mooyeveld,2,,018,1935AK,Egmond-Binnen,Bergen (NH.),Noord-Holland,VBO,4.651812,52.586718
Mooyeveld,2,,019,1935AK,Egmond-Binnen,Bergen (NH.),Noord-Holland,VBO,4.651860,52.586656
Mooyeveld,2,,020,1935AK,Egmond-Binnen,Bergen (NH.),Noord-Holland,VBO,4.651893,52.586570
Mooyeveld,2,,021,1935AK,Egmond-Binnen,Bergen (NH.),Noord-Holland,VBO,4.651945,52.586491
Mooyeveld,2,,022,1935AK,Egmond-Binnen,Bergen (NH.),Noord-Holland,VBO,4.651591,52.586395
Mooyeveld,2,,023,1935AK,Egmond-Binnen,Bergen (NH.),Noord-Holland,VBO,4.651530,52.586475
Mooyeveld,2,,024,1935AK,Egmond-Binnen,Bergen (NH.),Noord-Holland,VBO,4.651507,52.586553
Mooyeveld,2,,025,1935AK,Egmond-Binnen,Bergen (NH.),Noord-Holland,VBO,4.651442,52.586633
Mooyeveld,2,,026,1935AK,Egmond-Binnen,Bergen (NH.),Noord-Holland,VBO,4.651384,52.586712
Mooyeveld,2,,027,1935AK,Egmond-Binnen,Bergen (NH.),Noord-Holland,VBO,4.651355,52.586798
Mooyeveld,2,,028,1935AK,Egmond-Binnen,Bergen (NH.),Noord-Holland,VBO,4.651282,52.586913
Mooyeveld,2,,029,1935AK,Egmond-Binnen,Bergen (NH.),Noord-Holland,VBO,4.651234,52.586975
Mooyeveld,2,,030,1935AK,Egmond-Binnen,Bergen (NH.),Noord-Holland,VBO,4.651190,52.587054
Mooyeveld,2,,031,1935AK,Egmond-Binnen,Bergen (NH.),Noord-Holland,VBO,4.651134,52.587120
Mooyeveld,2,,032,1935AK,Egmond-Binnen,Bergen (NH.),Noord-Holland,VBO,4.651095,52.587193
Mooyeveld,2,,033,1935AK,Egmond-Binnen,Bergen (NH.),Noord-Holland,VBO,4.650956,52.587157
Mooyeveld,2,,034,1935AK,Egmond-Binnen,Bergen (NH.),Noord-Holland,VBO,4.651001,52.587088
Mooyeveld,2,,035,1935AK,Egmond-Binnen,Bergen (NH.),Noord-Holland,VBO,4.651049,52.587017
Mooyeveld,2,,036,1935AK,Egmond-Binnen,Bergen (NH.),Noord-Holland,VBO,4.651129,52.586941
Mooyeveld,2,,037,1935AK,Egmond-Binnen,Bergen (NH.),Noord-Holland,VBO,4.651153,52.586871
Mooyeveld,2,,038,1935AK,Egmond-Binnen,Bergen (NH.),Noord-Holland,VBO,4.651215,52.586754
Mooyeveld,2,,039,1935AK,Egmond-Binnen,Bergen (NH.),Noord-Holland,VBO,4.651231,52.586685
Mooyeveld,2,,040,1935AK,Egmond-Binnen,Bergen (NH.),Noord-Holland,VBO,4.651305,52.586585
Mooyeveld,2,,041,1935AK,Egmond-Binnen,Bergen (NH.),Noord-Holland,VBO,4.651351,52.586509
Mooyeveld,2,,042,1935AK,Egmond-Binnen,Bergen (NH.),Noord-Holland,VBO,4.651405,52.586441
Mooyeveld,2,,043,1935AK,Egmond-Binnen,Bergen (NH.),Noord-Holland,VBO,4.651449,52.586359
Mooyeveld,2,,044,1935AK,Egmond-Binnen,Bergen (NH.),Noord-Holland,VBO,4.651093,52.586266
Mooyeveld,2,,044A,1935AK,Egmond-Binnen,Bergen (NH.),Noord-Holland,VBO,4.650967,52.586219
Mooyeveld,2,,045,1935AK,Egmond-Binnen,Bergen (NH.),Noord-Holland,VBO,4.651055,52.586344
Mooyeveld,2,,046,1935AK,Egmond-Binnen,Bergen (NH.),Noord-Holland,VBO,4.651004,52.586437
Mooyeveld,2,,047,1935AK,Egmond-Binnen,Bergen (NH.),Noord-Holland,VBO,4.650943,52.586509
Mooyeveld,2,,048,1935AK,Egmond-Binnen,Bergen (NH.),Noord-Holland,VBO,4.650909,52.586582
Mooyeveld,2,,049,1935AK,Egmond-Binnen,Bergen (NH.),Noord-Holland,VBO,4.650847,52.586661
Mooyeveld,2,,050,1935AK,Egmond-Binnen,Bergen (NH.),Noord-Holland,VBO,4.650774,52.586766
Mooyeveld,2,,051,1935AK,Egmond-Binnen,Bergen (NH.),Noord-Holland,VBO,4.650741,52.586847
Mooyeveld,2,,052,1935AK,Egmond-Binnen,Bergen (NH.),Noord-Holland,VBO,4.650701,52.586931
Mooyeveld,2,,053,1935AK,Egmond-Binnen,Bergen (NH.),Noord-Holland,VBO,4.650645,52.586983
Mooyeveld,2,,054,1935AK,Egmond-Binnen,Bergen (NH.),Noord-Holland,VBO,4.650594,52.587063
Mooyeveld,2,,055,1935AK,Egmond-Binnen,Bergen (NH.),Noord-Holland,VBO,4.650399,52.587008
Mooyeveld,2,,056,1935AK,Egmond-Binnen,Bergen (NH.),Noord-Holland,VBO,4.650215,52.586951
Mooyeveld,2,,057,1935AK,Egmond-Binnen,Bergen (NH.),Noord-Holland,VBO,4.650091,52.586911
Mooyeveld,2,,058,1935AK,Egmond-Binnen,Bergen (NH.),Noord-Holland,VBO,4.649963,52.586889
Mooyeveld,2,,059,1935AK,Egmond-Binnen,Bergen (NH.),Noord-Holland,VBO,4.649822,52.586844
Mooyeveld,2,,060,1935AK,Egmond-Binnen,Bergen (NH.),Noord-Holland,VBO,4.649684,52.586817
Mooyeveld,2,,061,1935AK,Egmond-Binnen,Bergen (NH.),Noord-Holland,VBO,4.649549,52.586775
Mooyeveld,2,,062,1935AK,Egmond-Binnen,Bergen (NH.),Noord-Holland,VBO,4.649409,52.586747
Mooyeveld,2,,063,1935AK,Egmond-Binnen,Bergen (NH.),Noord-Holland,VBO,4.649288,52.586708
Mooyeveld,2,,064,1935AK,Egmond-Binnen,Bergen (NH.),Noord-Holland,VBO,4.649153,52.586666
Mooyeveld,2,,065,1935AK,Egmond-Binnen,Bergen (NH.),Noord-Holland,VBO,4.648997,52.586626
Mooyeveld,2,,065A,1935AK,Egmond-Binnen,Bergen (NH.),Noord-Holland,VBO,4.648878,52.586591
Mooyeveld,2,,066,1935AK,Egmond-Binnen,Bergen (NH.),Noord-Holland,VBO,4.649182,52.586389
Mooyeveld,2,,067,1935AK,Egmond-Binnen,Bergen (NH.),Noord-Holland,VBO,4.649319,52.586441
Mooyeveld,2,,068,1935AK,Egmond-Binnen,Bergen (NH.),Noord-Holland,VBO,4.649467,52.586452
Mooyeveld,2,,069,1935AK,Egmond-Binnen,Bergen (NH.),Noord-Holland,VBO,4.649580,52.586488
Mooyeveld,2,,070,1935AK,Egmond-Binnen,Bergen (NH.),Noord-Holland,VBO,4.649725,52.586535
Mooyeveld,2,,071,1935AK,Egmond-Binnen,Bergen (NH.),Noord-Holland,VBO,4.649876,52.586567
Mooyeveld,2,,072,1935AK,Egmond-Binnen,Bergen (NH.),Noord-Holland,VBO,4.649995,52.586601
Mooyeveld,2,,073,1935AK,Egmond-Binnen,Bergen (NH.),Noord-Holland,VBO,4.650152,52.586635
Mooyeveld,2,,074,1935AK,Egmond-Binnen,Bergen (NH.),Noord-Holland,VBO,4.650273,52.586663
Mooyeveld,2,,075,1935AK,Egmond-Binnen,Bergen (NH.),Noord-Holland,VBO,4.650394,52.586699
Mooyeveld,2,,076,1935AK,Egmond-Binnen,Bergen (NH.),Noord-Holland,VBO,4.650518,52.586551
Mooyeveld,2,,077,1935AK,Egmond-Binnen,Bergen (NH.),Noord-Holland,VBO,4.650389,52.586520
Mooyeveld,2,,078,1935AK,Egmond-Binnen,Bergen (NH.),Noord-Holland,VBO,4.650268,52.586493
Mooyeveld,2,,079,1935AK,Egmond-Binnen,Bergen (NH.),Noord-Holland,VBO,4.650122,52.586450
Mooyeveld,2,,080,1935AK,Egmond-Binnen,Bergen (NH.),Noord-Holland,VBO,4.649991,52.586416
Mooyeveld,2,,081,1935AK,Egmond-Binnen,Bergen (NH.),Noord-Holland,VBO,4.649861,52.586387
Mooyeveld,2,,082,1935AK,Egmond-Binnen,Bergen (NH.),Noord-Holland,VBO,4.649727,52.586350
Mooyeveld,2,,083,1935AK,Egmond-Binnen,Bergen (NH.),Noord-Holland,VBO,4.649598,52.586305
Mooyeveld,2,,084,1935AK,Egmond-Binnen,Bergen (NH.),Noord-Holland,VBO,4.649470,52.586275
Mooyeveld,2,,085,1935AK,Egmond-Binnen,Bergen (NH.),Noord-Holland,VBO,4.649325,52.586247
Mooyeveld,2,,086,1935AK,Egmond-Binnen,Bergen (NH.),Noord-Holland,VBO,4.649474,52.586035
Mooyeveld,2,,087,1935AK,Egmond-Binnen,Bergen (NH.),Noord-Holland,VBO,4.649603,52.586065
Mooyeveld,2,,088,1935AK,Egmond-Binnen,Bergen (NH.),Noord-Holland,VBO,4.649736,52.586093
Mooyeveld,2,,089,1935AK,Egmond-Binnen,Bergen (NH.),Noord-Holland,VBO,4.649900,52.586122
Mooyeveld,2,,090,1935AK,Egmond-Binnen,Bergen (NH.),Noord-Holland,VBO,4.650027,52.586158
Mooyeveld,2,,091,1935AK,Egmond-Binnen,Bergen (NH.),Noord-Holland,VBO,4.650147,52.586190
Mooyeveld,2,,092,1935AK,Egmond-Binnen,Bergen (NH.),Noord-Holland,VBO,4.650260,52.586241
Mooyeveld,2,,093,1935AK,Egmond-Binnen,Bergen (NH.),Noord-Holland,VBO,4.650402,52.586269
Mooyeveld,2,,094,1935AK,Egmond-Binnen,Bergen (NH.),Noord-Holland,VBO,4.650530,52.586310
Mooyeveld,2,,095,1935AK,Egmond-Binnen,Bergen (NH.),Noord-Holland,VBO,4.650686,52.586335
Mooyeveld,2,,100,1935AK,Egmond-Binnen,Bergen (NH.),Noord-Holland,VBO,4.648676,52.586320
Mooyeveld,2,,101,1935AK,Egmond-Binnen,Bergen (NH.),Noord-Holland,VBO,4.648441,52.586265
Mooyeveld,2,,102,1935AK,Egmond-Binnen,Bergen (NH.),Noord-Holland,VBO,4.648599,52.586499
Mooyeveld,2,,103,1935AK,Egmond-Binnen,Bergen (NH.),Noord-Holland,VBO,4.648394,52.586435
Mooyeveld,2,,104,1935AK,Egmond-Binnen,Bergen (NH.),Noord-Holland,VBO,4.648174,52.586371
Mooyeveld,2,,105,1935AK,Egmond-Binnen,Bergen (NH.),Noord-Holland,VBO,4.648146,52.586236
Mooyeveld,2,,106,1935AK,Egmond-Binnen,Bergen (NH.),Noord-Holland,VBO,4.647943,52.586073
Mooyeveld,2,,107,1935AK,Egmond-Binnen,Bergen (NH.),Noord-Holland,VBO,4.647780,52.586072
Mooyeveld,2,,108,1935AK,Egmond-Binnen,Bergen (NH.),Noord-Holland,VBO,4.647941,52.586172
Mooyeveld,2,,109,1935AK,Egmond-Binnen,Bergen (NH.),Noord-Holland,VBO,4.647924,52.586306
Mooyeveld,2,,110,1935AK,Egmond-Binnen,Bergen (NH.),Noord-Holland,VBO,4.647733,52.586269
Mooyeveld,2,,111,1935AK,Egmond-Binnen,Bergen (NH.),Noord-Holland,VBO,4.647527,52.586205
Mooyeveld,2,,112,1935AK,Egmond-Binnen,Bergen (NH.),Noord-Holland,VBO,4.647544,52.586070
Mooyeveld,2,,113,1935AK,Egmond-Binnen,Bergen (NH.),Noord-Holland,VBO,4.647325,52.585916
Mooyeveld,2,,114,1935AK,Egmond-Binnen,Bergen (NH.),Noord-Holland,VBO,4.647163,52.585915
Mooyeveld,2,,115,1935AK,Egmond-Binnen,Bergen (NH.),Noord-Holland,VBO,4.647338,52.586042
Mooyeveld,2,,116,1935AK,Egmond-Binnen,Bergen (NH.),Noord-Holland,VBO,4.647307,52.586150
Mooyeveld,2,,117,1935AK,Egmond-Binnen,Bergen (NH.),Noord-Holland,VBO,4.647116,52.586104
Mooyeveld,2,,118,1935AK,Egmond-Binnen,Bergen (NH.),Noord-Holland,VBO,4.646925,52.586057
Mooyeveld,2,,119,1935AK,Egmond-Binnen,Bergen (NH.),Noord-Holland,VBO,4.646927,52.585923
Mooyeveld,2,,120,1935AK,Egmond-Binnen,Bergen (NH.),Noord-Holland,VBO,4.646709,52.585751
Mooyeveld,2,,121,1935AK,Egmond-Binnen,Bergen (NH.),Noord-Holland,VBO,4.646678,52.585840
Mooyeveld,2,,122,1935AK,Egmond-Binnen,Bergen (NH.),Noord-Holland,VBO,4.646631,52.585984
Mooyeveld,2,,123,1935AK,Egmond-Binnen,Bergen (NH.),Noord-Holland,VBO,4.646396,52.585910
Mooyeveld,2,,124,1935AK,Egmond-Binnen,Bergen (NH.),Noord-Holland,VBO,4.646354,52.585793
Mooyeveld,2,,125,1935AK,Egmond-Binnen,Bergen (NH.),Noord-Holland,VBO,4.646415,52.585659
Mooyeveld,2,,126,1935AK,Egmond-Binnen,Bergen (NH.),Noord-Holland,VBO,4.646491,52.585534
Mooyeveld,2,,127,1935AK,Egmond-Binnen,Bergen (NH.),Noord-Holland,VBO,4.646727,52.585535
Mooyeveld,2,,128,1935AK,Egmond-Binnen,Bergen (NH.),Noord-Holland,VBO,4.646552,52.585399
Mooyeveld,2,,129,1935AK,Egmond-Binnen,Bergen (NH.),Noord-Holland,VBO,4.646672,52.585292
Mooyeveld,2,,130,1935AK,Egmond-Binnen,Bergen (NH.),Noord-Holland,VBO,4.646936,52.585375
Mooyeveld,2,,131,1935AK,Egmond-Binnen,Bergen (NH.),Noord-Holland,VBO,4.646977,52.585555
Mooyeveld,2,,132,1935AK,Egmond-Binnen,Bergen (NH.),Noord-Holland,VBO,4.647212,52.585664
Mooyeveld,2,,133,1935AK,Egmond-Binnen,Bergen (NH.),Noord-Holland,VBO,4.647213,52.585565
Mooyeveld,2,,134,1935AK,Egmond-Binnen,Bergen (NH.),Noord-Holland,VBO,4.647215,52.585448
Mooyeveld,2,,135,1935AK,Egmond-Binnen,Bergen (NH.),Noord-Holland,VBO,4.647436,52.585503
Mooyeveld,2,,136,1935AK,Egmond-Binnen,Bergen (NH.),Noord-Holland,VBO,4.647582,52.585603
Mooyeveld,2,,137,1935AK,Egmond-Binnen,Bergen (NH.),Noord-Holland,VBO,4.647565,52.585729
Mooyeveld,2,,138,1935AK,Egmond-Binnen,Bergen (NH.),Noord-Holland,VBO,4.647797,52.585837
Mooyeveld,2,,139,1935AK,Egmond-Binnen,Bergen (NH.),Noord-Holland,VBO,4.647816,52.585722
Mooyeveld,2,,140,1935AK,Egmond-Binnen,Bergen (NH.),Noord-Holland,VBO,4.647817,52.585623
Mooyeveld,2,,141,1935AK,Egmond-Binnen,Bergen (NH.),Noord-Holland,VBO,4.648023,52.585660
Mooyeveld,2,,142,1935AK,Egmond-Binnen,Bergen (NH.),Noord-Holland,VBO,4.648184,52.585769
Mooyeveld,2,,143,1935AK,Egmond-Binnen,Bergen (NH.),Noord-Holland,VBO,4.648182,52.585877
Mooyeveld,2,,144,1935AK,Egmond-Binnen,Bergen (NH.),Noord-Holland,VBO,4.648416,52.586022
Mooyeveld,2,,145,1935AK,Egmond-Binnen,Bergen (NH.),Noord-Holland,VBO,4.648417,52.585914
Mooyeveld,2,,146,1935AK,Egmond-Binnen,Bergen (NH.),Noord-Holland,VBO,4.648434,52.585779
Mooyeveld,2,,147,1935AK,Egmond-Binnen,Bergen (NH.),Noord-Holland,VBO,4.648699,52.585835
Mooyeveld,2,,148,1935AK,Egmond-Binnen,Bergen (NH.),Noord-Holland,VBO,4.648920,52.585890
Mooyeveld,2,,149,1935AK,Egmond-Binnen,Bergen (NH.),Noord-Holland,VBO,4.648873,52.586043
Mooyeveld,2,,150,1935AK,Egmond-Binnen,Bergen (NH.),Noord-Holland,VBO,4.648682,52.585970
Mooyeveld,2,,,1935AK,Egmond-Binnen,Bergen (NH.),Noord-Holland,VBO,4.652046,52.586880
Mooyeveld,3,,Acht,1935AK,Egmond-Binnen,Bergen (NH.),Noord-Holland,VBO,4.651126,52.588043
Mooyeveld,3,,,1935AK,Egmond-Binnen,Bergen (NH.),Noord-Holland,VBO,4.651347,52.588107
Mooyeveld,4,A,1,1935AK,Egmond-Binnen,Bergen (NH.),Noord-Holland,VBO,4.647455,52.588419
Mooyeveld,4,A,Z1,1935AK,Egmond-Binnen,Bergen (NH.),Noord-Holland,VBO,4.647711,52.588471
Mooyeveld,4,A,Z2,1935AK,Egmond-Binnen,Bergen (NH.),Noord-Holland,VBO,4.647694,52.588588
Mooyeveld,4,A,Z3,1935AK,Egmond-Binnen,Bergen (NH.),Noord-Holland,VBO,4.647503,52.588851
Mooyeveld,4,A,,1935AK,Egmond-Binnen,Bergen (NH.),Noord-Holland,VBO,4.647785,52.588409
Mooyeveld,4,B,,1935AK,Egmond-Binnen,Bergen (NH.),Noord-Holland,VBO,4.649334,52.589080
Mooyeveld,4,C,01,1935AK,Egmond-Binnen,Bergen (NH.),Noord-Holland,VBO,4.646622,52.588145
Mooyeveld,4,C,02,1935AK,Egmond-Binnen,Bergen (NH.),Noord-Holland,VBO,4.646717,52.588077
Mooyeveld,4,C,03,1935AK,Egmond-Binnen,Bergen (NH.),Noord-Holland,VBO,4.646721,52.588016
Mooyeveld,4,C,04,1935AK,Egmond-Binnen,Bergen (NH.),Noord-Holland,VBO,4.646779,52.587946
Mooyeveld,4,C,05,1935AK,Egmond-Binnen,Bergen (NH.),Noord-Holland,VBO,4.646840,52.587876
Mooyeveld,4,C,06,1935AK,Egmond-Binnen,Bergen (NH.),Noord-Holland,VBO,4.646878,52.587787
Mooyeveld,4,C,07,1935AK,Egmond-Binnen,Bergen (NH.),Noord-Holland,VBO,4.646988,52.587727
Mooyeveld,4,C,08,1935AK,Egmond-Binnen,Bergen (NH.),Noord-Holland,VBO,4.647083,52.587802
Mooyeveld,4,C,09,1935AK,Egmond-Binnen,Bergen (NH.),Noord-Holland,VBO,4.647420,52.587918
Mooyeveld,4,C,10,1935AK,Egmond-Binnen,Bergen (NH.),Noord-Holland,VBO,4.647061,52.588135
Mooyeveld,4,D,01,1935AK,Egmond-Binnen,Bergen (NH.),Noord-Holland,VBO,4.646684,52.588496
Mooyeveld,4,D,02,1935AK,Egmond-Binnen,Bergen (NH.),Noord-Holland,VBO,4.646730,52.588449
Mooyeveld,4,D,03,1935AK,Egmond-Binnen,Bergen (NH.),Noord-Holland,VBO,4.646881,52.588437
Mooyeveld,4,D,04,1935AK,Egmond-Binnen,Bergen (NH.),Noord-Holland,VBO,4.647083,52.588419
Mooyeveld,4,,,1935AK,Egmond-Binnen,Bergen (NH.),Noord-Holland,VBO,4.648027,52.588060
Mooyeveld,5,,,1935AK,Egmond-Binnen,Bergen (NH.),Noord-Holland,VBO,4.651225,52.588396
Mooyeveld,6,A,,1935AK,Egmond-Binnen,Bergen (NH.),Noord-Holland,VBO,4.646332,52.588210
Mooyeveld,6,Z,,1935AK,Egmond-Binnen,Bergen (NH.),Noord-Holland,VBO,4.646576,52.588478
Mooyeveld,6,,,1935AK,Egmond-Binnen,Bergen (NH.),Noord-Holland,VBO,4.646041,52.588604
Mooyeveld,8,,01,1935AK,Egmond-Binnen,Bergen (NH.),Noord-Holland,VBO,4.646294,52.588703
Mooyeveld,8,,02,1935AK,Egmond-Binnen,Bergen (NH.),Noord-Holland,VBO,4.646529,52.588794
Mooyeveld,8,,03,1935AK,Egmond-Binnen,Bergen (NH.),Noord-Holland,VBO,4.646744,52.588854
Mooyeveld,8,,04,1935AK,Egmond-Binnen,Bergen (NH.),Noord-Holland,VBO,4.646902,52.588913
Mooyeveld,8,,05,1935AK,Egmond-Binnen,Bergen (NH.),Noord-Holland,VBO,4.647074,52.588963
Mooyeveld,8,,06,1935AK,Egmond-Binnen,Bergen (NH.),Noord-Holland,VBO,4.647236,52.589012
Mooyeveld,8,,07,1935AK,Egmond-Binnen,Bergen (NH.),Noord-Holland,VBO,4.647394,52.589066
Mooyeveld,8,,08,1935AK,Egmond-Binnen,Bergen (NH.),Noord-Holland,VBO,4.647352,52.589141
Mooyeveld,8,,09,1935AK,Egmond-Binnen,Bergen (NH.),Noord-Holland,VBO,4.647220,52.589090
Mooyeveld,8,,10,1935AK,Egmond-Binnen,Bergen (NH.),Noord-Holland,VBO,4.647110,52.589065
Mooyeveld,8,,11,1935AK,Egmond-Binnen,Bergen (NH.),Noord-Holland,VBO,4.646986,52.589025
Mooyeveld,8,,12,1935AK,Egmond-Binnen,Bergen (NH.),Noord-Holland,VBO,4.646864,52.588972
Mooyeveld,8,,13,1935AK,Egmond-Binnen,Bergen (NH.),Noord-Holland,VBO,4.646762,52.588925
Mooyeveld,8,,14,1935AK,Egmond-Binnen,Bergen (NH.),Noord-Holland,VBO,4.646478,52.588858
Mooyeveld,8,,15,1935AK,Egmond-Binnen,Bergen (NH.),Noord-Holland,VBO,4.646220,52.588792
Limmerweg,1,A,,1935AL,Egmond-Binnen,Bergen (NH.),Noord-Holland,VBO,4.659076,52.593520
Limmerweg,1,B,,1935AL,Egmond-Binnen,Bergen (NH.),Noord-Holland,VBO,4.659090,52.593709
Limmerweg,1,,,1935AL,Egmond-Binnen,Bergen (NH.),Noord-Holland,VBO,4.659029,52.593835
Limmerweg,2,,,1935AM,Egmond-Binnen,Bergen (NH.),Noord-Holland,VBO,4.658529,52.593733
Limmerweg,4,,,1935AM,Egmond-Binnen,Bergen (NH.),Noord-Holland,VBO,4.658544,52.593679
Limmerweg,6,,,1935AM,Egmond-Binnen,Bergen (NH.),Noord-Holland,VBO,4.658560,52.593625
Limmerweg,8,,,1935AM,Egmond-Binnen,Bergen (NH.),Noord-Holland,VBO,4.658561,52.593562
Limmerweg,10,,,1935AM,Egmond-Binnen,Bergen (NH.),Noord-Holland,VBO,4.658591,52.593508
Limmerweg,12,,,1935AM,Egmond-Binnen,Bergen (NH.),Noord-Holland,VBO,4.658592,52.593454
Limmerweg,14,,,1935AM,Egmond-Binnen,Bergen (NH.),Noord-Holland,VBO,4.658623,52.593401
Limmerweg,16,,,1935AM,Egmond-Binnen,Bergen (NH.),Noord-Holland,VBO,4.658624,52.593329
Limmerweg,18,,,1935AM,Egmond-Binnen,Bergen (NH.),Noord-Holland,VBO,4.658626,52.593221
Limmerweg,20,,,1935AM,Egmond-Binnen,Bergen (NH.),Noord-Holland,VBO,4.658627,52.593167
Limmerweg,22,,,1935AM,Egmond-Binnen,Bergen (NH.),Noord-Holland,VBO,4.658672,52.593113
Limmerweg,24,,,1935AM,Egmond-Binnen,Bergen (NH.),Noord-Holland,VBO,4.658673,52.593059
Limmerweg,26,,,1935AM,Egmond-Binnen,Bergen (NH.),Noord-Holland,VBO,4.658703,52.593006
Limmerweg,28,,,1935AM,Egmond-Binnen,Bergen (NH.),Noord-Holland,VBO,4.658689,52.592952
Limmerweg,30,,,1935AM,Egmond-Binnen,Bergen (NH.),Noord-Holland,VBO,4.658720,52.592889
Limmerweg,32,,,1935AM,Egmond-Binnen,Bergen (NH.),Noord-Holland,VBO,4.658721,52.592817
Limmerweg,34,,,1935AM,Egmond-Binnen,Bergen (NH.),Noord-Holland,VBO,4.658796,52.592719
Limmerweg,36,,,1935AM,Egmond-Binnen,Bergen (NH.),Noord-Holland,VBO,4.658797,52.592665
Limmerweg,38,,,1935AM,Egmond-Binnen,Bergen (NH.),Noord-Holland,VBO,4.658828,52.592611
Limmerweg,40,,,1935AM,Egmond-Binnen,Bergen (NH.),Noord-Holland,VBO,4.658843,52.592548
Limmerweg,42,,,1935AM,Egmond-Binnen,Bergen (NH.),Noord-Holland,VBO,4.658859,52.592494
Limmerweg,44,,,1935AM,Egmond-Binnen,Bergen (NH.),Noord-Holland,VBO,4.658845,52.592449
Limmerweg,46,,,1935AM,Egmond-Binnen,Bergen (NH.),Noord-Holland,VBO,4.658831,52.592386
Limmerweg,48,,,1935AM,Egmond-Binnen,Bergen (NH.),Noord-Holland,VBO,4.658832,52.592323
Limmerweg,58,,,1935AM,Egmond-Binnen,Bergen (NH.),Noord-Holland,VBO,4.662554,52.587682
Limmerweg,9001,,,1935AM,Egmond-Binnen,Bergen (NH.),Noord-Holland,VBO,4.658515,52.592798
Limmerweg,9034,,,1935AM,Egmond-Binnen,Bergen (NH.),Noord-Holland,VBO,4.658515,52.592771
Hogeweg,6,A,,1935AN,Egmond-Binnen,Bergen (NH.),Noord-Holland,VBO,4.657824,52.588846
Hogeweg,6,B,,1935AN,Egmond-Binnen,Bergen (NH.),Noord-Holland,VBO,4.657898,52.588886
Hogeweg,6,C,,1935AN,Egmond-Binnen,Bergen (NH.),Noord-Holland,VBO,4.657958,52.588918
Hogeweg,6,D,,1935AN,Egmond-Binnen,Bergen (NH.),Noord-Holland,VBO,4.658155,52.588871
Hogeweg,6,E,,1935AN,Egmond-Binnen,Bergen (NH.),Noord-Holland,VBO,4.658068,52.588755
Hogeweg,6,F,,1935AN,Egmond-Binnen,Bergen (NH.),Noord-Holland,VBO,4.658013,52.588844
Hogeweg,6,Z,,1935AN,Egmond-Binnen,Bergen (NH.),Noord-Holland,VBO,4.658231,52.588797
Hogeweg,6,,,1935AN,Egmond-Binnen,Bergen (NH.),Noord-Holland,VBO,4.657708,52.588928
Hogeweg,8,A,,1935AN,Egmond-Binnen,Bergen (NH.),Noord-Holland,VBO,4.658796,52.588597
Hogeweg,8,,,1935AN,Egmond-Binnen,Bergen (NH.),Noord-Holland,VBO,4.658182,52.588366
Hogeweg,10,Z,,1935AN,Egmond-Binnen,Bergen (NH.),Noord-Holland,VBO,4.659977,52.586444
Hogeweg,10,,Lds,1935AN,Egmond-Binnen,Bergen (NH.),Noord-Holland,VBO,4.660169,52.586454
Hogeweg,10,,,1935AN,Egmond-Binnen,Bergen (NH.),Noord-Holland,VBO,4.659920,52.586309
Limmerweg,5,Z,,1935AN,Egmond-Binnen,Bergen (NH.),Noord-Holland,VBO,4.663571,52.587778
Limmerweg,5,,,1935AN,Egmond-Binnen,Bergen (NH.),Noord-Holland,VBO,4.663291,52.587722
Limmerweg,7,Z,,1935AN,Egmond-Binnen,Bergen (NH.),Noord-Holland,VBO,4.663674,52.587742
Limmerweg,7,,,1935AN,Egmond-Binnen,Bergen (NH.),Noord-Holland,VBO,4.663410,52.587669
Limmerweg,60,A,,1935AN,Egmond-Binnen,Bergen (NH.),Noord-Holland,VBO,4.663075,52.587424
Limmerweg,60,Z,,1935AN,Egmond-Binnen,Bergen (NH.),Noord-Holland,VBO,4.662898,52.587405
Limmerweg,60,,,1935AN,Egmond-Binnen,Bergen (NH.),Noord-Holland,VBO,4.663089,52.587442
Limmerweg,62,,,1935AN,Egmond-Binnen,Bergen (NH.),Noord-Holland,VBO,4.663134,52.587389
Kruiskroft,2,,,1935AP,Egmond-Binnen,Bergen (NH.),Noord-Holland,VBO,4.658553,52.592241
Kruiskroft,4,,,1935AP,Egmond-Binnen,Bergen (NH.),Noord-Holland,VBO,4.658465,52.592240
Kruiskroft,6,,,1935AP,Egmond-Binnen,Bergen (NH.),Noord-Holland,VBO,4.658377,52.592222
Kruiskroft,8,,,1935AP,Egmond-Binnen,Bergen (NH.),Noord-Holland,VBO,4.658288,52.592221
Kruiskroft,10,,,1935AP,Egmond-Binnen,Bergen (NH.),Noord-Holland,VBO,4.658200,52.592203
Kruiskroft,12,,,1935AP,Egmond-Binnen,Bergen (NH.),Noord-Holland,VBO,4.658111,52.592202
Kruiskroft,14,,,1935AP,Egmond-Binnen,Bergen (NH.),Noord-Holland,VBO,4.657935,52.592129
Kruiskroft,16,,,1935AP,Egmond-Binnen,Bergen (NH.),Noord-Holland,VBO,4.657832,52.592129
Kruiskroft,18,,,1935AP,Egmond-Binnen,Bergen (NH.),Noord-Holland,VBO,4.657744,52.592110
Kruiskroft,20,,,1935AP,Egmond-Binnen,Bergen (NH.),Noord-Holland,VBO,4.657655,52.592110
Kruiskroft,22,,,1935AP,Egmond-Binnen,Bergen (NH.),Noord-Holland,VBO,4.657567,52.592091
Kruiskroft,24,,,1935AP,Egmond-Binnen,Bergen (NH.),Noord-Holland,VBO,4.657479,52.592090
Kruiskroft,26,,,1935AP,Egmond-Binnen,Bergen (NH.),Noord-Holland,VBO,4.657375,52.592099
Kruiskroft,28,,,1935AP,Egmond-Binnen,Bergen (NH.),Noord-Holland,VBO,4.657272,52.592098
Vennewatersweg,1,,,1935AR,Egmond-Binnen,Bergen (NH.),Noord-Holland,VBO,4.656666,52.593910
Vennewatersweg,3,,,1935AR,Egmond-Binnen,Bergen (NH.),Noord-Holland,VBO,4.656918,52.593867
Vennewatersweg,5,,,1935AR,Egmond-Binnen,Bergen (NH.),Noord-Holland,VBO,4.657051,52.593840
Vennewatersweg,7,,,1935AR,Egmond-Binnen,Bergen (NH.),Noord-Holland,VBO,4.657139,52.593850
Vennewatersweg,9,,,1935AR,Egmond-Binnen,Bergen (NH.),Noord-Holland,VBO,4.657272,52.593860
Vennewatersweg,11,,,1935AR,Egmond-Binnen,Bergen (NH.),Noord-Holland,VBO,4.657360,52.593878
Vennewatersweg,13,,,1935AR,Egmond-Binnen,Bergen (NH.),Noord-Holland,VBO,4.657478,52.593888
Vennewatersweg,15,,,1935AR,Egmond-Binnen,Bergen (NH.),Noord-Holland,VBO,4.657567,52.593897
Vennewatersweg,17,,,1935AR,Egmond-Binnen,Bergen (NH.),Noord-Holland,VBO,4.658155,52.594018
Vennewatersweg,19,,,1935AR,Egmond-Binnen,Bergen (NH.),Noord-Holland,VBO,4.658258,52.594037
Vennewatersweg,21,,,1935AR,Egmond-Binnen,Bergen (NH.),Noord-Holland,VBO,4.658405,52.594073
Vennewatersweg,23,,,1935AR,Egmond-Binnen,Bergen (NH.),Noord-Holland,VBO,4.658493,52.594092
Vennewatersweg,25,,,1935AR,Egmond-Binnen,Bergen (NH.),Noord-Holland,VBO,4.660124,52.594560
Vennewatersweg,27,,,1935AR,Egmond-Binnen,Bergen (NH.),Noord-Holland,VBO,4.663602,52.594824
Vennewatersweg,29,,,1935AR,Egmond-Binnen,Bergen (NH.),Noord-Holland,VBO,4.666415,52.595431
Vennewatersweg,31,,,1935AR,Egmond-Binnen,Bergen (NH.),Noord-Holland,VBO,4.670302,52.595790
Vennewatersweg,99999,,Geml,1935AR,Egmond-Binnen,Bergen (NH.),Noord-Holland,VBO,4.670129,52.595556
Vennewatersweg,2,,,1935AS,Egmond-Binnen,Bergen (NH.),Noord-Holland,VBO,4.656760,52.593578
Vennewatersweg,4,,,1935AS,Egmond-Binnen,Bergen (NH.),Noord-Holland,VBO,4.656834,52.593578
Vennewatersweg,6,,,1935AS,Egmond-Binnen,Bergen (NH.),Noord-Holland,VBO,4.656922,52.593588
Vennewatersweg,8,,,1935AS,Egmond-Binnen,Bergen (NH.),Noord-Holland,VBO,4.657011,52.593588
Vennewatersweg,10,,,1935AS,Egmond-Binnen,Bergen (NH.),Noord-Holland,VBO,4.657114,52.593607
Vennewatersweg,12,,,1935AS,Egmond-Binnen,Bergen (NH.),Noord-Holland,VBO,4.657202,52.593617
Vennewatersweg,14,,,1935AS,Egmond-Binnen,Bergen (NH.),Noord-Holland,VBO,4.657305,52.593635
Vennewatersweg,16,,,1935AS,Egmond-Binnen,Bergen (NH.),Noord-Holland,VBO,4.657409,52.593636
Vennewatersweg,20,A,,1935AS,Egmond-Binnen,Bergen (NH.),Noord-Holland,VBO,4.659321,52.593918
Vennewatersweg,20,B,,1935AS,Egmond-Binnen,Bergen (NH.),Noord-Holland,VBO,4.659449,52.593931
Vennewatersweg,20,C,,1935AS,Egmond-Binnen,Bergen (NH.),Noord-Holland,VBO,4.659721,52.593893
Vennewatersweg,20,,,1935AS,Egmond-Binnen,Bergen (NH.),Noord-Holland,VBO,4.659249,52.593908
Vennewatersweg,22,B,,1935AS,Egmond-Binnen,Bergen (NH.),Noord-Holland,VBO,4.660018,52.593823
Vennewatersweg,22,Z,1,1935AS,Egmond-Binnen,Bergen (NH.),Noord-Holland,VBO,4.660224,52.593842
Vennewatersweg,22,Z,2,1935AS,Egmond-Binnen,Bergen (NH.),Noord-Holland,VBO,4.660255,52.593743
Vennewatersweg,22,,,1935AS,Egmond-Binnen,Bergen (NH.),Noord-Holland,VBO,4.659971,52.593948
Vennewatersweg,24,,,1935AS,Egmond-Binnen,Bergen (NH.),Noord-Holland,VBO,4.660207,52.593986
Vennewatersweg,26,,,1935AS,Egmond-Binnen,Bergen (NH.),Noord-Holland,VBO,4.660414,52.593960
Vennewatersweg,30,,,1935AS,Egmond-Binnen,Bergen (NH.),Noord-Holland,VBO,4.663550,52.594410
Vennewatersweg,32,,MAN,1935AS,Egmond-Binnen,Bergen (NH.),Noord-Holland,VBO,4.664347,52.594442
Vennewatersweg,32,,NAAS,1935AS,Egmond-Binnen,Bergen (NH.),Noord-Holland,VBO,4.664366,52.594173
Vennewatersweg,32,,,1935AS,Egmond-Binnen,Bergen (NH.),Noord-Holland,VBO,4.664450,52.594452
Huisweid,1,,,1935AT,Egmond-Binnen,Bergen (NH.),Noord-Holland,VBO,4.658086,52.593712
Huisweid,3,,,1935AT,Egmond-Binnen,Bergen (NH.),Noord-Holland,VBO,4.658102,52.593658
Huisweid,5,,,1935AT,Egmond-Binnen,Bergen (NH.),Noord-Holland,VBO,4.658103,52.593604
Huisweid,7,,,1935AT,Egmond-Binnen,Bergen (NH.),Noord-Holland,VBO,4.658104,52.593550
Huisweid,9,,,1935AT,Egmond-Binnen,Bergen (NH.),Noord-Holland,VBO,4.658075,52.593496
Huisweid,11,,,1935AT,Egmond-Binnen,Bergen (NH.),Noord-Holland,VBO,4.658076,52.593433
Huisweid,13,,,1935AT,Egmond-Binnen,Bergen (NH.),Noord-Holland,VBO,4.658077,52.593379
Huisweid,15,,,1935AT,Egmond-Binnen,Bergen (NH.),Noord-Holland,VBO,4.658078,52.593325
Huisweid,17,,,1935AT,Egmond-Binnen,Bergen (NH.),Noord-Holland,VBO,4.658124,52.593200
Huisweid,19,,,1935AT,Egmond-Binnen,Bergen (NH.),Noord-Holland,VBO,4.658125,52.593146
Huisweid,21,,,1935AT,Egmond-Binnen,Bergen (NH.),Noord-Holland,VBO,4.658126,52.593083
Huisweid,23,,,1935AT,Egmond-Binnen,Bergen (NH.),Noord-Holland,VBO,4.658127,52.593038
Huisweid,25,,,1935AT,Egmond-Binnen,Bergen (NH.),Noord-Holland,VBO,4.658157,52.592975
Huisweid,27,,,1935AT,Egmond-Binnen,Bergen (NH.),Noord-Holland,VBO,4.658173,52.592922
Huisweid,29,,,1935AT,Egmond-Binnen,Bergen (NH.),Noord-Holland,VBO,4.658174,52.592859
Huisweid,31,,,1935AT,Egmond-Binnen,Bergen (NH.),Noord-Holland,VBO,4.658175,52.592814
Huisweid,33,,,1935AV,Egmond-Binnen,Bergen (NH.),Noord-Holland,VBO,4.658354,52.592689
Huisweid,35,,,1935AV,Egmond-Binnen,Bergen (NH.),Noord-Holland,VBO,4.658370,52.592635
Huisweid,37,,,1935AV,Egmond-Binnen,Bergen (NH.),Noord-Holland,VBO,4.658371,52.592581
Huisweid,39,,,1935AV,Egmond-Binnen,Bergen (NH.),Noord-Holland,VBO,4.658372,52.592527
Huisweid,41,,,1935AV,Egmond-Binnen,Bergen (NH.),Noord-Holland,VBO,4.658372,52.592473
Huisweid,43,,,1935AV,Egmond-Binnen,Bergen (NH.),Noord-Holland,VBO,4.658373,52.592420
Huisweid,45,,,1935AV,Egmond-Binnen,Bergen (NH.),Noord-Holland,VBO,4.657975,52.592399
Huisweid,47,,,1935AV,Egmond-Binnen,Bergen (NH.),Noord-Holland,VBO,4.657872,52.592398
Huisweid,49,,,1935AV,Egmond-Binnen,Bergen (NH.),Noord-Holland,VBO,4.657798,52.592398
Huisweid,51,,,1935AV,Egmond-Binnen,Bergen (NH.),Noord-Holland,VBO,4.657695,52.592406
Huisweid,53,,,1935AV,Egmond-Binnen,Bergen (NH.),Noord-Holland,VBO,4.657532,52.592396
Huisweid,55,,,1935AV,Egmond-Binnen,Bergen (NH.),Noord-Holland,VBO,4.657429,52.592396
Huisweid,57,,,1935AV,Egmond-Binnen,Bergen (NH.),Noord-Holland,VBO,4.657355,52.592395
Huisweid,59,,,1935AV,Egmond-Binnen,Bergen (NH.),Noord-Holland,VBO,4.657267,52.592395
Huisweid,2,,,1935AW,Egmond-Binnen,Bergen (NH.),Noord-Holland,VBO,4.657704,52.593638
Huisweid,4,,,1935AW,Egmond-Binnen,Bergen (NH.),Noord-Holland,VBO,4.657705,52.593584
Huisweid,6,,,1935AW,Egmond-Binnen,Bergen (NH.),Noord-Holland,VBO,4.657706,52.593530
Huisweid,8,,,1935AW,Egmond-Binnen,Bergen (NH.),Noord-Holland,VBO,4.657706,52.593476
Huisweid,10,,,1935AW,Egmond-Binnen,Bergen (NH.),Noord-Holland,VBO,4.657678,52.593422
Huisweid,12,,,1935AW,Egmond-Binnen,Bergen (NH.),Noord-Holland,VBO,4.657679,52.593368
Huisweid,14,,,1935AW,Egmond-Binnen,Bergen (NH.),Noord-Holland,VBO,4.657729,52.592982
Huisweid,16,,,1935AW,Egmond-Binnen,Bergen (NH.),Noord-Holland,VBO,4.657730,52.592928
Huisweid,18,,,1935AW,Egmond-Binnen,Bergen (NH.),Noord-Holland,VBO,4.657761,52.592874
Huisweid,20,,,1935AW,Egmond-Binnen,Bergen (NH.),Noord-Holland,VBO,4.657762,52.592820
Huisweid,22,,,1935AW,Egmond-Binnen,Bergen (NH.),Noord-Holland,VBO,4.657733,52.592766
Huisweid,24,,,1935AW,Egmond-Binnen,Bergen (NH.),Noord-Holland,VBO,4.657749,52.592712
Samenweid,1,,,1935AX,Egmond-Binnen,Bergen (NH.),Noord-Holland,VBO,4.657345,52.593006
Samenweid,2,,,1935AX,Egmond-Binnen,Bergen (NH.),Noord-Holland,VBO,4.657384,52.593348
Samenweid,3,,,1935AX,Egmond-Binnen,Bergen (NH.),Noord-Holland,VBO,4.657257,52.593006
Samenweid,4,,,1935AX,Egmond-Binnen,Bergen (NH.),Noord-Holland,VBO,4.657295,52.593348
Samenweid,6,,,1935AX,Egmond-Binnen,Bergen (NH.),Noord-Holland,VBO,4.657207,52.593329
Samenweid,8,,,1935AX,Egmond-Binnen,Bergen (NH.),Noord-Holland,VBO,4.657104,52.593328
Samenweid,10,,,1935AX,Egmond-Binnen,Bergen (NH.),Noord-Holland,VBO,4.657016,52.593310
Samenweid,12,,,1935AX,Egmond-Binnen,Bergen (NH.),Noord-Holland,VBO,4.656927,52.593309
Samenweid,14,,,1935AX,Egmond-Binnen,Bergen (NH.),Noord-Holland,VBO,4.656944,52.593175
Samenweid,16,,,1935AX,Egmond-Binnen,Bergen (NH.),Noord-Holland,VBO,4.656945,52.593121
Samenweid,18,,,1935AX,Egmond-Binnen,Bergen (NH.),Noord-Holland,VBO,4.656916,52.593067
Samenweid,20,,,1935AX,Egmond-Binnen,Bergen (NH.),Noord-Holland,VBO,4.656917,52.593013
Samenweid,22,,,1935AX,Egmond-Binnen,Bergen (NH.),Noord-Holland,VBO,4.656889,52.592950
Samenweid,24,,,1935AX,Egmond-Binnen,Bergen (NH.),Noord-Holland,VBO,4.656890,52.592896
Samenweid,26,,,1935AX,Egmond-Binnen,Bergen (NH.),Noord-Holland,VBO,4.656529,52.592390
Samenweid,28,,,1935AX,Egmond-Binnen,Bergen (NH.),Noord-Holland,VBO,4.656530,52.592345
Samenweid,30,,,1935AX,Egmond-Binnen,Bergen (NH.),Noord-Holland,VBO,4.656545,52.592300
Samenweid,32,,,1935AX,Egmond-Binnen,Bergen (NH.),Noord-Holland,VBO,4.656576,52.592247
Samenweid,34,,,1935AX,Egmond-Binnen,Bergen (NH.),Noord-Holland,VBO,4.656576,52.592211
Samenweid,36,,,1935AX,Egmond-Binnen,Bergen (NH.),Noord-Holland,VBO,4.656577,52.592157
Samenweid,38,,,1935AX,Egmond-Binnen,Bergen (NH.),Noord-Holland,VBO,4.656697,52.592041
Samenweid,40,,,1935AX,Egmond-Binnen,Bergen (NH.),Noord-Holland,VBO,4.656830,52.592015
Samenweid,42,,,1935AX,Egmond-Binnen,Bergen (NH.),Noord-Holland,VBO,4.657022,52.592016
Samenweid,5,,,1935AZ,Egmond-Binnen,Bergen (NH.),Noord-Holland,VBO,4.657231,52.592763
Samenweid,7,,,1935AZ,Egmond-Binnen,Bergen (NH.),Noord-Holland,VBO,4.657232,52.592700
Samenweid,9,,,1935AZ,Egmond-Binnen,Bergen (NH.),Noord-Holland,VBO,4.656899,52.592357
Samenweid,11,,,1935AZ,Egmond-Binnen,Bergen (NH.),Noord-Holland,VBO,4.656914,52.592294
Samenweid,13,,,1935AZ,Egmond-Binnen,Bergen (NH.),Noord-Holland,VBO,4.656975,52.592204
Samenweid,15,,,1935AZ,Egmond-Binnen,Bergen (NH.),Noord-Holland,VBO,4.657108,52.592205
Samenweid,17,,,1935AZ,Egmond-Binnen,Bergen (NH.),Noord-Holland,VBO,4.657138,52.592160
Samenweid,19,,,1935AZ,Egmond-Binnen,Bergen (NH.),Noord-Holland,VBO,4.657079,52.592160
Samenweid,21,,,1935AZ,Egmond-Binnen,Bergen (NH.),Noord-Holland,VBO,4.657005,52.592159
Samenweid,23,,,1935AZ,Egmond-Binnen,Bergen (NH.),Noord-Holland,VBO,4.656946,52.592159
Samenweid,25,,,1935AZ,Egmond-Binnen,Bergen (NH.),Noord-Holland,VBO,4.656872,52.592159
Samenweid,27,,,1935AZ,Egmond-Binnen,Bergen (NH.),Noord-Holland,VBO,4.656842,52.592185
Samenweid,29,,,1935AZ,Egmond-Binnen,Bergen (NH.),Noord-Holland,VBO,4.656842,52.592221
Samenweid,31,,,1935AZ,Egmond-Binnen,Bergen (NH.),Noord-Holland,VBO,4.656827,52.592248
Samenweid,33,,,1935AZ,Egmond-Binnen,Bergen (NH.),Noord-Holland,VBO,4.656826,52.592284
Samenweid,35,,,1935AZ,Egmond-Binnen,Bergen (NH.),Noord-Holland,VBO,4.656811,52.592320
Dom Huybenlaan,1,,,1935BA,Egmond-Binnen,Bergen (NH.),Noord-Holland,VBO,4.658432,52.594253
Dom Huybenlaan,3,,,1935BA,Egmond-Binnen,Bergen (NH.),Noord-Holland,VBO,4.658386,52.594307
Dom Huybenlaan,5,,,1935BA,Egmond-Binnen,Bergen (NH.),Noord-Holland,VBO,4.658341,52.594397
Dom Huybenlaan,7,,,1935BA,Egmond-Binnen,Bergen (NH.),Noord-Holland,VBO,4.658295,52.594450
Dom Huybenlaan,9,,,1935BA,Egmond-Binnen,Bergen (NH.),Noord-Holland,VBO,4.658250,52.594540
Dom Huybenlaan,11,,,1935BA,Egmond-Binnen,Bergen (NH.),Noord-Holland,VBO,4.658219,52.594594
Dom Huybenlaan,13,,,1935BA,Egmond-Binnen,Bergen (NH.),Noord-Holland,VBO,4.658159,52.594674
Dom Huybenlaan,15,,,1935BA,Egmond-Binnen,Bergen (NH.),Noord-Holland,VBO,4.658128,52.594728
Dom Huybenlaan,17,,,1935BA,Egmond-Binnen,Bergen (NH.),Noord-Holland,VBO,4.658083,52.594808
Dom Huybenlaan,19,,,1935BA,Egmond-Binnen,Bergen (NH.),Noord-Holland,VBO,4.658038,52.594862
Dom Huybenlaan,21,,,1935BA,Egmond-Binnen,Bergen (NH.),Noord-Holland,VBO,4.658006,52.594970
Dom Huybenlaan,23,,,1935BA,Egmond-Binnen,Bergen (NH.),Noord-Holland,VBO,4.658006,52.595015
Dom Huybenlaan,25,,,1935BA,Egmond-Binnen,Bergen (NH.),Noord-Holland,VBO,4.657989,52.595104
Dom Huybenlaan,27,A,,1935BA,Egmond-Binnen,Bergen (NH.),Noord-Holland,VBO,4.658057,52.595473
Dom Huybenlaan,27,,,1935BA,Egmond-Binnen,Bergen (NH.),Noord-Holland,VBO,4.657989,52.595158
Dom Huybenlaan,29,,,1935BA,Egmond-Binnen,Bergen (NH.),Noord-Holland,VBO,4.658099,52.595608
Dom Huybenlaan,31,,,1935BA,Egmond-Binnen,Bergen (NH.),Noord-Holland,VBO,4.658126,52.595761
Dom Huybenlaan,2,,,1935BB,Egmond-Binnen,Bergen (NH.),Noord-Holland,VBO,4.658295,52.595358
Dom Huybenlaan,4,,,1935BB,Egmond-Binnen,Bergen (NH.),Noord-Holland,VBO,4.658307,52.595556
Dom Huybenlaan,6,,,1935BB,Egmond-Binnen,Bergen (NH.),Noord-Holland,VBO,4.658231,52.595672
Dom Huybenlaan,8,,,1935BB,Egmond-Binnen,Bergen (NH.),Noord-Holland,VBO,4.658289,52.595744
Dom Huybenlaan,10,A,,1935BB,Egmond-Binnen,Bergen (NH.),Noord-Holland,VBO,4.658359,52.595960
Dom Huybenlaan,10,Z,,1935BB,Egmond-Binnen,Bergen (NH.),Noord-Holland,VBO,4.658478,52.595889
Dom Huybenlaan,10,,,1935BB,Egmond-Binnen,Bergen (NH.),Noord-Holland,VBO,4.658346,52.595853
Dom Huybenlaan,12,,,1935BB,Egmond-Binnen,Bergen (NH.),Noord-Holland,VBO,4.658387,52.596068
Hollanderweg,1,Z,1,1935BC,Egmond-Binnen,Bergen (NH.),Noord-Holland,VBO,4.657733,52.595417
Hollanderweg,1,Z,2,1935BC,Egmond-Binnen,Bergen (NH.),Noord-Holland,VBO,4.657689,52.595399
Hollanderweg,1,Z,3,1935BC,Egmond-Binnen,Bergen (NH.),Noord-Holland,VBO,4.657630,52.595417
Hollanderweg,1,Z,,1935BC,Egmond-Binnen,Bergen (NH.),Noord-Holland,VBO,4.657571,52.595425
Hollanderweg,1,,,1935BC,Egmond-Binnen,Bergen (NH.),Noord-Holland,VBO,4.657911,52.595383
Hollanderweg,2,,,1935BC,Egmond-Binnen,Bergen (NH.),Noord-Holland,VBO,4.657679,52.595129
Hollanderweg,3,,,1935BC,Egmond-Binnen,Bergen (NH.),Noord-Holland,VBO,4.657396,52.595316
Hollanderweg,4,,,1935BC,Egmond-Binnen,Bergen (NH.),Noord-Holland,VBO,4.657298,52.595172
Peperstraat,1,,,1935BD,Egmond-Binnen,Bergen (NH.),Noord-Holland,VBO,4.657430,52.594148
Peperstraat,3,,,1935BD,Egmond-Binnen,Bergen (NH.),Noord-Holland,VBO,4.657399,52.594193
Peperstraat,5,Z,,1935BD,Egmond-Binnen,Bergen (NH.),Noord-Holland,VBO,4.657029,52.594290
Peperstraat,5,,,1935BD,Egmond-Binnen,Bergen (NH.),Noord-Holland,VBO,4.657280,52.594282
Peperstraat,7,A,,1935BD,Egmond-Binnen,Bergen (NH.),Noord-Holland,VBO,4.657188,52.594479
Peperstraat,7,Z,,1935BD,Egmond-Binnen,Bergen (NH.),Noord-Holland,VBO,4.657013,52.594343
Peperstraat,7,,,1935BD,Egmond-Binnen,Bergen (NH.),Noord-Holland,VBO,4.657190,52.594389
Peperstraat,9,,,1935BD,Egmond-Binnen,Bergen (NH.),Noord-Holland,VBO,4.657127,52.594596
Peperstraat,11,Z,,1935BD,Egmond-Binnen,Bergen (NH.),Noord-Holland,VBO,4.656861,52.594648
Peperstraat,11,,,1935BD,Egmond-Binnen,Bergen (NH.),Noord-Holland,VBO,4.657097,52.594650
Peperstraat,13,A,,1935BD,Egmond-Binnen,Bergen (NH.),Noord-Holland,VBO,4.656858,52.594774
Peperstraat,13,B,,1935BD,Egmond-Binnen,Bergen (NH.),Noord-Holland,VBO,4.657034,52.594883
Peperstraat,13,,,1935BD,Egmond-Binnen,Bergen (NH.),Noord-Holland,VBO,4.657021,52.594757
Peperstraat,15,,,1935BD,Egmond-Binnen,Bergen (NH.),Noord-Holland,VBO,4.656930,52.594936
Peperstraat,17,Z,,1935BD,Egmond-Binnen,Bergen (NH.),Noord-Holland,VBO,4.656825,52.595007
Peperstraat,17,,,1935BD,Egmond-Binnen,Bergen (NH.),Noord-Holland,VBO,4.656840,52.595007
Peperstraat,19,,,1935BD,Egmond-Binnen,Bergen (NH.),Noord-Holland,VBO,4.656970,52.595188
Peperstraat,21,,,1935BD,Egmond-Binnen,Bergen (NH.),Noord-Holland,VBO,4.656894,52.595295
Peperstraat,23,,,1935BD,Egmond-Binnen,Bergen (NH.),Noord-Holland,VBO,4.656966,52.595431
Peperstraat,25,A,,1935BD,Egmond-Binnen,Bergen (NH.),Noord-Holland,VBO,4.656697,52.595582
Peperstraat,25,Z,,1935BD,Egmond-Binnen,Bergen (NH.),Noord-Holland,VBO,4.656727,52.595582
Peperstraat,25,,,1935BD,Egmond-Binnen,Bergen (NH.),Noord-Holland,VBO,4.657038,52.595494
Peperstraat,27,A,,1935BD,Egmond-Binnen,Bergen (NH.),Noord-Holland,VBO,4.657051,52.595638
Peperstraat,27,Z,,1935BD,Egmond-Binnen,Bergen (NH.),Noord-Holland,VBO,4.656857,52.595727
Peperstraat,27,,,1935BD,Egmond-Binnen,Bergen (NH.),Noord-Holland,VBO,4.657050,52.595710
Peperstraat,29,,,1935BD,Egmond-Binnen,Bergen (NH.),Noord-Holland,VBO,4.657265,52.596080
Peperstraat,2,,,1935BE,Egmond-Binnen,Bergen (NH.),Noord-Holland,VBO,4.657919,52.594007
Peperstraat,4,,,1935BE,Egmond-Binnen,Bergen (NH.),Noord-Holland,VBO,4.657874,52.594061
Peperstraat,6,Z,,1935BE,Egmond-Binnen,Bergen (NH.),Noord-Holland,VBO,4.657989,52.594260
Peperstraat,6,,,1935BE,Egmond-Binnen,Bergen (NH.),Noord-Holland,VBO,4.657813,52.594196
Peperstraat,8,,,1935BE,Egmond-Binnen,Bergen (NH.),Noord-Holland,VBO,4.657737,52.594276
Peperstraat,10,,,1935BE,Egmond-Binnen,Bergen (NH.),Noord-Holland,VBO,4.657677,52.594348
Peperstraat,12,,,1935BE,Egmond-Binnen,Bergen (NH.),Noord-Holland,VBO,4.657647,52.594392
Peperstraat,14,,,1935BE,Egmond-Binnen,Bergen (NH.),Noord-Holland,VBO,4.657587,52.594473
Peperstraat,16,,,1935BE,Egmond-Binnen,Bergen (NH.),Noord-Holland,VBO,4.657556,52.594518
Peperstraat,18,,,1935BE,Egmond-Binnen,Bergen (NH.),Noord-Holland,VBO,4.657511,52.594598
Peperstraat,20,,,1935BE,Egmond-Binnen,Bergen (NH.),Noord-Holland,VBO,4.657481,52.594643
Peperstraat,22,A,,1935BE,Egmond-Binnen,Bergen (NH.),Noord-Holland,VBO,4.657464,52.594778
Peperstraat,22,B,,1935BE,Egmond-Binnen,Bergen (NH.),Noord-Holland,VBO,4.657810,52.594823
Peperstraat,22,,,1935BE,Egmond-Binnen,Bergen (NH.),Noord-Holland,VBO,4.657287,52.594768
Peperstraat,24,A,,1935BE,Egmond-Binnen,Bergen (NH.),Noord-Holland,VBO,4.657388,52.594876
Peperstraat,24,,WPL,1935BE,Egmond-Binnen,Bergen (NH.),Noord-Holland,VBO,4.657314,52.594903
Peperstraat,24,,,1935BE,Egmond-Binnen,Bergen (NH.),Noord-Holland,VBO,4.657226,52.594875
Peperstraat,26,A,,1935BE,Egmond-Binnen,Bergen (NH.),Noord-Holland,VBO,4.657350,52.595424
Peperstraat,26,Z,1,1935BE,Egmond-Binnen,Bergen (NH.),Noord-Holland,VBO,4.657177,52.595000
Peperstraat,26,Z,2,1935BE,Egmond-Binnen,Bergen (NH.),Noord-Holland,VBO,4.657281,52.595007
Peperstraat,26,,,1935BE,Egmond-Binnen,Bergen (NH.),Noord-Holland,VBO,4.657162,52.595135
Peperstraat,28,,,1935BE,Egmond-Binnen,Bergen (NH.),Noord-Holland,VBO,4.657392,52.595550
Peperstraat,30,Z,,1935BE,Egmond-Binnen,Bergen (NH.),Noord-Holland,VBO,4.657893,52.595602
Peperstraat,30,,,1935BE,Egmond-Binnen,Bergen (NH.),Noord-Holland,VBO,4.657449,52.595631
Peperstraat,32,,,1935BE,Egmond-Binnen,Bergen (NH.),Noord-Holland,VBO,4.657610,52.595713
Peperstraat,34,,,1935BE,Egmond-Binnen,Bergen (NH.),Noord-Holland,VBO,4.657638,52.595830
Peperstraat,36,,,1935BE,Egmond-Binnen,Bergen (NH.),Noord-Holland,VBO,4.657636,52.595938
Abdijlaan,1,,,1935BG,Egmond-Binnen,Bergen (NH.),Noord-Holland,VBO,4.655874,52.596287
Abdijlaan,3,,,1935BG,Egmond-Binnen,Bergen (NH.),Noord-Holland,VBO,4.655948,52.596269
Abdijlaan,5,A,,1935BG,Egmond-Binnen,Bergen (NH.),Noord-Holland,VBO,4.656096,52.596279
Abdijlaan,5,,,1935BG,Egmond-Binnen,Bergen (NH.),Noord-Holland,VBO,4.656059,52.596277
Abdijlaan,7,,,1935BG,Egmond-Binnen,Bergen (NH.),Noord-Holland,VBO,4.656330,52.596352
Abdijlaan,9,,,1935BG,Egmond-Binnen,Bergen (NH.),Noord-Holland,VBO,4.656508,52.596354
Abdijlaan,11,,,1935BG,Egmond-Binnen,Bergen (NH.),Noord-Holland,VBO,4.656611,52.596354
Abdijlaan,13,,,1935BG,Egmond-Binnen,Bergen (NH.),Noord-Holland,VBO,4.656730,52.596292
Abdijlaan,15,A,,1935BG,Egmond-Binnen,Bergen (NH.),Noord-Holland,VBO,4.656847,52.596338
Abdijlaan,15,B,,1935BG,Egmond-Binnen,Bergen (NH.),Noord-Holland,VBO,4.656817,52.596355
Abdijlaan,15,Z,,1935BG,Egmond-Binnen,Bergen (NH.),Noord-Holland,VBO,4.656847,52.596374
Abdijlaan,15,,,1935BG,Egmond-Binnen,Bergen (NH.),Noord-Holland,VBO,4.656833,52.596311
Abdijlaan,17,Z,,1935BG,Egmond-Binnen,Bergen (NH.),Noord-Holland,VBO,4.656904,52.596509
Abdijlaan,17,,,1935BG,Egmond-Binnen,Bergen (NH.),Noord-Holland,VBO,4.656831,52.596436
Abdijlaan,19,,,1935BG,Egmond-Binnen,Bergen (NH.),Noord-Holland,VBO,4.657024,52.596357
Abdijlaan,21,,,1935BG,Egmond-Binnen,Bergen (NH.),Noord-Holland,VBO,4.657246,52.596349
Abdijlaan,23,,,1935BG,Egmond-Binnen,Bergen (NH.),Noord-Holland,VBO,4.657364,52.596350
Abdijlaan,25,,,1935BG,Egmond-Binnen,Bergen (NH.),Noord-Holland,VBO,4.657526,52.596351
Abdijlaan,27,,,1935BG,Egmond-Binnen,Bergen (NH.),Noord-Holland,VBO,4.657718,52.596325
Abdijlaan,29,,,1935BG,Egmond-Binnen,Bergen (NH.),Noord-Holland,VBO,4.657837,52.596308
Abdijlaan,31,,,1935BG,Egmond-Binnen,Bergen (NH.),Noord-Holland,VBO,4.657969,52.596309
Abdijlaan,33,A,,1935BG,Egmond-Binnen,Bergen (NH.),Noord-Holland,VBO,4.658782,52.596287
Abdijlaan,33,,,1935BG,Egmond-Binnen,Bergen (NH.),Noord-Holland,VBO,4.658502,52.596267
Abdijlaan,35,A,,1935BG,Egmond-Binnen,Bergen (NH.),Noord-Holland,VBO,4.658869,52.596368
Abdijlaan,35,Z,,1935BG,Egmond-Binnen,Bergen (NH.),Noord-Holland,VBO,4.658899,52.596314
Abdijlaan,35,,,1935BG,Egmond-Binnen,Bergen (NH.),Noord-Holland,VBO,4.658885,52.596278
Abdijlaan,37,,,1935BG,Egmond-Binnen,Bergen (NH.),Noord-Holland,VBO,4.659151,52.596262
Abdijlaan,2,A,Kant,1935BH,Egmond-Binnen,Bergen (NH.),Noord-Holland,VBO,4.656114,52.596046
Abdijlaan,2,A,,1935BH,Egmond-Binnen,Bergen (NH.),Noord-Holland,VBO,4.656128,52.596109
Abdijlaan,2,B,,1935BH,Egmond-Binnen,Bergen (NH.),Noord-Holland,VBO,4.656132,52.595884
Abdijlaan,2,C,,1935BH,Egmond-Binnen,Bergen (NH.),Noord-Holland,VBO,4.656202,52.596109
Abdijlaan,2,D,,1935BH,Egmond-Binnen,Bergen (NH.),Noord-Holland,VBO,4.656203,52.596055
Abdijlaan,2,,WIN,1935BH,Egmond-Binnen,Bergen (NH.),Noord-Holland,VBO,4.656054,52.596108
Abdijlaan,2,,,1935BH,Egmond-Binnen,Bergen (NH.),Noord-Holland,VBO,4.655921,52.596098
Abdijlaan,4,A,,1935BH,Egmond-Binnen,Bergen (NH.),Noord-Holland,VBO,4.656366,52.595975
Abdijlaan,4,B,,1935BH,Egmond-Binnen,Bergen (NH.),Noord-Holland,VBO,4.656308,52.595930
Abdijlaan,4,,,1935BH,Egmond-Binnen,Bergen (NH.),Noord-Holland,VBO,4.656306,52.596056
Abdijlaan,6,,,1935BH,Egmond-Binnen,Bergen (NH.),Noord-Holland,VBO,4.656468,52.596084
Abdijlaan,8,,,1935BH,Egmond-Binnen,Bergen (NH.),Noord-Holland,VBO,4.656629,52.596139
Abdijlaan,10,,,1935BH,Egmond-Binnen,Bergen (NH.),Noord-Holland,VBO,4.656718,52.596103
Abdijlaan,12,A,,1935BH,Egmond-Binnen,Bergen (NH.),Noord-Holland,VBO,4.656821,52.596122
Abdijlaan,12,,,1935BH,Egmond-Binnen,Bergen (NH.),Noord-Holland,VBO,4.656836,52.596104
Abdijlaan,14,,,1935BH,Egmond-Binnen,Bergen (NH.),Noord-Holland,VBO,4.657294,52.596125
Abdijlaan,16,A,,1935BH,Egmond-Binnen,Bergen (NH.),Noord-Holland,VBO,4.657753,52.595993
Abdijlaan,16,,,1935BH,Egmond-Binnen,Bergen (NH.),Noord-Holland,VBO,4.657678,52.596091
Abdijlaan,20,,,1935BH,Egmond-Binnen,Bergen (NH.),Noord-Holland,VBO,4.658101,52.596052
Abdijlaan,22,A,,1935BH,Egmond-Binnen,Bergen (NH.),Noord-Holland,VBO,4.658860,52.596026
Abdijlaan,22,,,1935BH,Egmond-Binnen,Bergen (NH.),Noord-Holland,VBO,4.658697,52.596061
Abdijlaan,24,,,1935BH,Egmond-Binnen,Bergen (NH.),Noord-Holland,VBO,4.659081,52.596046
Abdijlaan,26,,1,1935BH,Egmond-Binnen,Bergen (NH.),Noord-Holland,VBO,4.661841,52.595119
Abdijlaan,26,,,1935BH,Egmond-Binnen,Bergen (NH.),Noord-Holland,VBO,4.660611,52.595453
Kloosterweg,1,,,1935BJ,Egmond-Binnen,Bergen (NH.),Noord-Holland,VBO,4.659199,52.596431
Kloosterweg,3,,,1935BJ,Egmond-Binnen,Bergen (NH.),Noord-Holland,VBO,4.659264,52.596595
Kloosterweg,5,,,1935BJ,Egmond-Binnen,Bergen (NH.),Noord-Holland,VBO,4.659097,52.596846
Kloosterweg,7,A,,1935BJ,Egmond-Binnen,Bergen (NH.),Noord-Holland,VBO,4.659055,52.596720
Kloosterweg,7,,,1935BJ,Egmond-Binnen,Bergen (NH.),Noord-Holland,VBO,4.659009,52.596791
Boonakkersteeg,1,Z,,1935BK,Egmond-Binnen,Bergen (NH.),Noord-Holland,VBO,4.656381,52.596856
Boonakkersteeg,1,,,1935BK,Egmond-Binnen,Bergen (NH.),Noord-Holland,VBO,4.656337,52.596856
Boonakkersteeg,2,A,,1935BK,Egmond-Binnen,Bergen (NH.),Noord-Holland,VBO,4.656251,52.596720
Boonakkersteeg,2,B,,1935BK,Egmond-Binnen,Bergen (NH.),Noord-Holland,VBO,4.656486,52.596740
Boonakkersteeg,2,C,,1935BK,Egmond-Binnen,Bergen (NH.),Noord-Holland,VBO,4.656634,52.596732
Boonakkersteeg,2,,,1935BK,Egmond-Binnen,Bergen (NH.),Noord-Holland,VBO,4.656132,52.596729
Boonakkersteeg,3,A,,1935BK,Egmond-Binnen,Bergen (NH.),Noord-Holland,VBO,4.656646,52.596885
Boonakkersteeg,3,B,,1935BK,Egmond-Binnen,Bergen (NH.),Noord-Holland,VBO,4.656764,52.596885
Boonakkersteeg,3,C,,1935BK,Egmond-Binnen,Bergen (NH.),Noord-Holland,VBO,4.656912,52.596886
Boonakkersteeg,3,,,1935BK,Egmond-Binnen,Bergen (NH.),Noord-Holland,VBO,4.656558,52.596902
Boonakkersteeg,4,A,,1935BK,Egmond-Binnen,Bergen (NH.),Noord-Holland,VBO,4.656900,52.596733
Boonakkersteeg,4,B,,1935BK,Egmond-Binnen,Bergen (NH.),Noord-Holland,VBO,4.656973,52.596743
Boonakkersteeg,4,C,,1935BK,Egmond-Binnen,Bergen (NH.),Noord-Holland,VBO,4.657077,52.596743
Boonakkersteeg,4,Z,,1935BK,Egmond-Binnen,Bergen (NH.),Noord-Holland,VBO,4.656784,52.596598
Boonakkersteeg,4,,,1935BK,Egmond-Binnen,Bergen (NH.),Noord-Holland,VBO,4.656737,52.596732
Boonakkersteeg,5,A,,1935BK,Egmond-Binnen,Bergen (NH.),Noord-Holland,VBO,4.657104,52.596896
Boonakkersteeg,5,B,,1935BK,Egmond-Binnen,Bergen (NH.),Noord-Holland,VBO,4.657295,52.596925
Boonakkersteeg,5,C,,1935BK,Egmond-Binnen,Bergen (NH.),Noord-Holland,VBO,4.657398,52.596925
Boonakkersteeg,5,,,1935BK,Egmond-Binnen,Bergen (NH.),Noord-Holland,VBO,4.657030,52.596896
Boonakkersteeg,6,A,,1935BK,Egmond-Binnen,Bergen (NH.),Noord-Holland,VBO,4.657372,52.596745
Boonakkersteeg,6,Z,,1935BK,Egmond-Binnen,Bergen (NH.),Noord-Holland,VBO,4.657226,52.596637
Boonakkersteeg,6,,,1935BK,Egmond-Binnen,Bergen (NH.),Noord-Holland,VBO,4.657254,52.596736
Boonakkersteeg,7,,,1935BK,Egmond-Binnen,Bergen (NH.),Noord-Holland,VBO,4.657738,52.596945
Boonakkersteeg,8,A,,1935BK,Egmond-Binnen,Bergen (NH.),Noord-Holland,VBO,4.657637,52.596783
Boonakkersteeg,8,B,,1935BK,Egmond-Binnen,Bergen (NH.),Noord-Holland,VBO,4.657799,52.596784
Boonakkersteeg,8,,,1935BK,Egmond-Binnen,Bergen (NH.),Noord-Holland,VBO,4.657489,52.596800
Boonakkersteeg,9,,,1935BK,Egmond-Binnen,Bergen (NH.),Noord-Holland,VBO,4.658032,52.597001
Boonakkersteeg,10,,,1935BK,Egmond-Binnen,Bergen (NH.),Noord-Holland,VBO,4.658154,52.596759
De Krijt,1,,,1935BL,Egmond-Binnen,Bergen (NH.),Noord-Holland,VBO,4.658069,52.596525
De Krijt,2,,,1935BL,Egmond-Binnen,Bergen (NH.),Noord-Holland,VBO,4.658324,52.596311
De Krijt,3,,,1935BL,Egmond-Binnen,Bergen (NH.),Noord-Holland,VBO,4.658156,52.596651
De Krijt,4,A,,1935BL,Egmond-Binnen,Bergen (NH.),Noord-Holland,VBO,4.658455,52.596410
De Krijt,4,,,1935BL,Egmond-Binnen,Bergen (NH.),Noord-Holland,VBO,4.658410,52.596419
De Krijt,5,,,1935BL,Egmond-Binnen,Bergen (NH.),Noord-Holland,VBO,4.658165,52.596984
De Krijt,6,,,1935BL,Egmond-Binnen,Bergen (NH.),Noord-Holland,VBO,4.658410,52.596473
De Krijt,8,A,,1935BL,Egmond-Binnen,Bergen (NH.),Noord-Holland,VBO,4.658512,52.596537
De Krijt,8,,,1935BL,Egmond-Binnen,Bergen (NH.),Noord-Holland,VBO,4.658541,52.596573
De Krijt,10,A,,1935BL,Egmond-Binnen,Bergen (NH.),Noord-Holland,VBO,4.658538,52.596734
De Krijt,10,,,1935BL,Egmond-Binnen,Bergen (NH.),Noord-Holland,VBO,4.658524,52.596680
De Krijt,12,A,,1935BL,Egmond-Binnen,Bergen (NH.),Noord-Holland,VBO,4.658566,52.596843
De Krijt,12,,,1935BL,Egmond-Binnen,Bergen (NH.),Noord-Holland,VBO,4.658552,52.596788
De Krijt,14,,,1935BL,Egmond-Binnen,Bergen (NH.),Noord-Holland,VBO,4.658680,52.597077
De Krijt,16,,,1935BL,Egmond-Binnen,Bergen (NH.),Noord-Holland,VBO,4.659148,52.597358
Luilaantje,18,,,1935BM,Egmond-Binnen,Bergen (NH.),Noord-Holland,VBO,4.658848,52.597608
Luilaantje,20,,,1935BM,Egmond-Binnen,Bergen (NH.),Noord-Holland,VBO,4.658740,52.597895
Luilaantje,22,,,1935BM,Egmond-Binnen,Bergen (NH.),Noord-Holland,VBO,4.658663,52.597997
Luilaantje,24,A,,1935BM,Egmond-Binnen,Bergen (NH.),Noord-Holland,VBO,4.658495,52.598460
Luilaantje,24,Z,,1935BM,Egmond-Binnen,Bergen (NH.),Noord-Holland,VBO,4.659072,52.598364
Luilaantje,24,,,1935BM,Egmond-Binnen,Bergen (NH.),Noord-Holland,VBO,4.658630,52.598299
Luilaantje,26,Z,,1935BM,Egmond-Binnen,Bergen (NH.),Noord-Holland,VBO,4.658330,52.598612
Luilaantje,26,,,1935BM,Egmond-Binnen,Bergen (NH.),Noord-Holland,VBO,4.658152,52.598646
Luilaantje,28,A,,1935BM,Egmond-Binnen,Bergen (NH.),Noord-Holland,VBO,4.657803,52.599255
Luilaantje,28,,,1935BM,Egmond-Binnen,Bergen (NH.),Noord-Holland,VBO,4.657316,52.599208
Luilaantje,30,,LDS,1935BM,Egmond-Binnen,Bergen (NH.),Noord-Holland,VBO,4.658449,52.599448
Luilaantje,30,,,1935BM,Egmond-Binnen,Bergen (NH.),Noord-Holland,VBO,4.657683,52.599372
Luilaantje,36,A,BEDR,1935BM,Egmond-Binnen,Bergen (NH.),Noord-Holland,VBO,4.655692,52.600114
Luilaantje,36,A,,1935BM,Egmond-Binnen,Bergen (NH.),Noord-Holland,VBO,4.655677,52.600132
Luilaantje,36,,,1935BM,Egmond-Binnen,Bergen (NH.),Noord-Holland,VBO,4.655188,52.600273
Luilaantje,38,,,1935BM,Egmond-Binnen,Bergen (NH.),Noord-Holland,VBO,4.654933,52.600514
Doelen,1,B,,1935BN,Egmond-Binnen,Bergen (NH.),Noord-Holland,VBO,4.659280,52.599184
Doelen,1,Z,,1935BN,Egmond-Binnen,Bergen (NH.),Noord-Holland,VBO,4.657792,52.599004
Doelen,1,,,1935BN,Egmond-Binnen,Bergen (NH.),Noord-Holland,VBO,4.657837,52.598959
Doelen,2,A,,1935BN,Egmond-Binnen,Bergen (NH.),Noord-Holland,VBO,4.659537,52.598808
Doelen,2,B,,1935BN,Egmond-Binnen,Bergen (NH.),Noord-Holland,VBO,4.659344,52.598648
Doelen,2,Z,,1935BN,Egmond-Binnen,Bergen (NH.),Noord-Holland,VBO,4.658757,52.598677
Doelen,2,,,1935BN,Egmond-Binnen,Bergen (NH.),Noord-Holland,VBO,4.658830,52.598687
Doelen,3,,,1935BN,Egmond-Binnen,Bergen (NH.),Noord-Holland,VBO,4.659769,52.599088
Doelen,4,,,1935BN,Egmond-Binnen,Bergen (NH.),Noord-Holland,VBO,4.663647,52.599273
Doelen,5,,,1935BN,Egmond-Binnen,Bergen (NH.),Noord-Holland,VBO,4.660593,52.599237
Doelen,7,,,1935BN,Egmond-Binnen,Bergen (NH.),Noord-Holland,VBO,4.660739,52.599282
Doelen,9,,,1935BN,Egmond-Binnen,Bergen (NH.),Noord-Holland,VBO,4.660857,52.599319
Doelen,11,Z,,1935BN,Egmond-Binnen,Bergen (NH.),Noord-Holland,VBO,4.660942,52.599517
Doelen,11,,,1935BN,Egmond-Binnen,Bergen (NH.),Noord-Holland,VBO,4.661064,52.599275
Doelen,13,,,1935BN,Egmond-Binnen,Bergen (NH.),Noord-Holland,VBO,4.661211,52.599339
Doelen,15,Z,,1935BN,Egmond-Binnen,Bergen (NH.),Noord-Holland,VBO,4.661444,52.599493
Doelen,15,,,1935BN,Egmond-Binnen,Bergen (NH.),Noord-Holland,VBO,4.661373,52.599340
Doelen,17,A,,1935BN,Egmond-Binnen,Bergen (NH.),Noord-Holland,VBO,4.661651,52.599522
Doelen,17,B,,1935BN,Egmond-Binnen,Bergen (NH.),Noord-Holland,VBO,4.661503,52.599548
Doelen,17,,,1935BN,Egmond-Binnen,Bergen (NH.),Noord-Holland,VBO,4.661563,52.599440
Doelen,19,,,1935BN,Egmond-Binnen,Bergen (NH.),Noord-Holland,VBO,4.661858,52.599451
Doelen,21,,,1935BN,Egmond-Binnen,Bergen (NH.),Noord-Holland,VBO,4.662065,52.599479
Doelen,23,,,1935BN,Egmond-Binnen,Bergen (NH.),Noord-Holland,VBO,4.662301,52.599445
Doelen,25,,,1935BN,Egmond-Binnen,Bergen (NH.),Noord-Holland,VBO,4.662669,52.599546
Doelen,27,,,1935BN,Egmond-Binnen,Bergen (NH.),Noord-Holland,VBO,4.663038,52.599539
Doelen,29,,,1935BN,Egmond-Binnen,Bergen (NH.),Noord-Holland,VBO,4.663450,52.599605
Noordvelderweg,1,A,,1935BP,Egmond-Binnen,Bergen (NH.),Noord-Holland,VBO,4.660270,52.599990
Noordvelderweg,1,Z,,1935BP,Egmond-Binnen,Bergen (NH.),Noord-Holland,VBO,4.660194,52.600124
Noordvelderweg,1,,,1935BP,Egmond-Binnen,Bergen (NH.),Noord-Holland,VBO,4.660178,52.599333
Noordvelderweg,2,A,,1935BP,Egmond-Binnen,Bergen (NH.),Noord-Holland,VBO,4.660084,52.601408
Noordvelderweg,2,B,,1935BP,Egmond-Binnen,Bergen (NH.),Noord-Holland,VBO,4.659989,52.601830
Noordvelderweg,2,C,,1935BP,Egmond-Binnen,Bergen (NH.),Noord-Holland,VBO,4.660044,52.602055
Noordvelderweg,2,D,,1935BP,Egmond-Binnen,Bergen (NH.),Noord-Holland,VBO,4.661114,52.600060
Noordvelderweg,2,Z,,1935BP,Egmond-Binnen,Bergen (NH.),Noord-Holland,VBO,4.660899,52.600326
Noordvelderweg,2,,,1935BP,Egmond-Binnen,Bergen (NH.),Noord-Holland,VBO,4.660844,52.600110
Noordvelderweg,3,A,BEDR,1935BP,Egmond-Binnen,Bergen (NH.),Noord-Holland,VBO,4.659404,52.602411
Noordvelderweg,3,A,,1935BP,Egmond-Binnen,Bergen (NH.),Noord-Holland,VBO,4.659418,52.602429
Noordvelderweg,3,,,1935BP,Egmond-Binnen,Bergen (NH.),Noord-Holland,VBO,4.659409,52.602107
Noordvelderweg,4,A,,1935BP,Egmond-Binnen,Bergen (NH.),Noord-Holland,VBO,4.659969,52.603025
Noordvelderweg,4,B,,1935BP,Egmond-Binnen,Bergen (NH.),Noord-Holland,VBO,4.660044,52.602945
Noordvelderweg,4,Z,1,1935BP,Egmond-Binnen,Bergen (NH.),Noord-Holland,VBO,4.659677,52.602835
Noordvelderweg,4,Z,2,1935BP,Egmond-Binnen,Bergen (NH.),Noord-Holland,VBO,4.659664,52.602763
Noordvelderweg,4,Z,3,1935BP,Egmond-Binnen,Bergen (NH.),Noord-Holland,VBO,4.659665,52.602691
Noordvelderweg,4,Z,4,1935BP,Egmond-Binnen,Bergen (NH.),Noord-Holland,VBO,4.659666,52.602619
Noordvelderweg,4,,BY,1935BP,Egmond-Binnen,Bergen (NH.),Noord-Holland,VBO,4.659766,52.602835
Noordvelderweg,4,,,1935BP,Egmond-Binnen,Bergen (NH.),Noord-Holland,VBO,4.659734,52.602970
Noordvelderweg,5,,,1935BP,Egmond-Binnen,Bergen (NH.),Noord-Holland,VBO,4.659258,52.603174
Hogedijk,1,C,,1935BR,Egmond-Binnen,Bergen (NH.),Noord-Holland,VBO,4.662587,52.606322
Hogedijk,1,,,1935BR,Egmond-Binnen,Bergen (NH.),Noord-Holland,VBO,4.662788,52.606638
Hogedijk,2,,,1935BR,Egmond-Binnen,Bergen (NH.),Noord-Holland,VBO,4.664245,52.599762
Hogedijk,4,,,1935BR,Egmond-Binnen,Bergen (NH.),Noord-Holland,VBO,4.661977,52.609821
Hogedijk,6,,,1935BR,Egmond-Binnen,Bergen (NH.),Noord-Holland,VBO,4.661452,52.611609
Luilaantje,1,,,1935BT,Egmond-Binnen,Bergen (NH.),Noord-Holland,VBO,4.658456,52.597255
Luilaantje,3,,,1935BT,Egmond-Binnen,Bergen (NH.),Noord-Holland,VBO,4.658455,52.597300
Luilaantje,5,,,1935BT,Egmond-Binnen,Bergen (NH.),Noord-Holland,VBO,4.658454,52.597354
Luilaantje,7,,,1935BT,Egmond-Binnen,Bergen (NH.),Noord-Holland,VBO,4.658453,52.597408
Luilaantje,9,,,1935BT,Egmond-Binnen,Bergen (NH.),Noord-Holland,VBO,4.658453,52.597444
Luilaantje,11,,,1935BT,Egmond-Binnen,Bergen (NH.),Noord-Holland,VBO,4.658466,52.597507
Luilaantje,13,,,1935BT,Egmond-Binnen,Bergen (NH.),Noord-Holland,VBO,4.658466,52.597543
Luilaantje,15,,,1935BT,Egmond-Binnen,Bergen (NH.),Noord-Holland,VBO,4.658450,52.597597
Luilaantje,17,,,1935BT,Egmond-Binnen,Bergen (NH.),Noord-Holland,VBO,4.658464,52.597642
Luilaantje,19,,,1935BT,Egmond-Binnen,Bergen (NH.),Noord-Holland,VBO,4.658449,52.597687
Luilaantje,21,,,1935BT,Egmond-Binnen,Bergen (NH.),Noord-Holland,VBO,4.658403,52.597740
Luilaantje,23,,,1935BT,Egmond-Binnen,Bergen (NH.),Noord-Holland,VBO,4.658402,52.597794
Luilaantje,25,,,1935BT,Egmond-Binnen,Bergen (NH.),Noord-Holland,VBO,4.658237,52.597973
Luilaantje,27,,,1935BT,Egmond-Binnen,Bergen (NH.),Noord-Holland,VBO,4.658102,52.598116
Luilaantje,29,,,1935BT,Egmond-Binnen,Bergen (NH.),Noord-Holland,VBO,4.658026,52.598232
Luilaantje,31,,,1935BT,Egmond-Binnen,Bergen (NH.),Noord-Holland,VBO,4.657891,52.598375
Luilaantje,33,,,1935BT,Egmond-Binnen,Bergen (NH.),Noord-Holland,VBO,4.657250,52.598731
Luilaantje,35,,,1935BT,Egmond-Binnen,Bergen (NH.),Noord-Holland,VBO,4.657145,52.598856
Luilaantje,37,,,1935BT,Egmond-Binnen,Bergen (NH.),Noord-Holland,VBO,4.656980,52.598999
Luilaantje,39,,,1935BT,Egmond-Binnen,Bergen (NH.),Noord-Holland,VBO,4.656786,52.599132
Luilaantje,41,,,1935BV,Egmond-Binnen,Bergen (NH.),Noord-Holland,VBO,4.656533,52.599275
Luilaantje,43,,,1935BV,Egmond-Binnen,Bergen (NH.),Noord-Holland,VBO,4.656234,52.599488
Luilaantje,45,,,1935BV,Egmond-Binnen,Bergen (NH.),Noord-Holland,VBO,4.655848,52.599630
Luilaantje,47,,,1935BV,Egmond-Binnen,Bergen (NH.),Noord-Holland,VBO,4.655566,52.599754
Luilaantje,49,,,1935BV,Egmond-Binnen,Bergen (NH.),Noord-Holland,VBO,4.655297,52.599914
Luilaantje,51,,,1935BV,Egmond-Binnen,Bergen (NH.),Noord-Holland,VBO,4.654986,52.599975
Luilaantje,53,,,1935BV,Egmond-Binnen,Bergen (NH.),Noord-Holland,VBO,4.654764,52.600046
Luilaantje,57,,,1935BV,Egmond-Binnen,Bergen (NH.),Noord-Holland,VBO,4.654542,52.600071
Luilaantje,59,,,1935BV,Egmond-Binnen,Bergen (NH.),Noord-Holland,VBO,4.654364,52.600088
Luilaantje,61,,,1935BV,Egmond-Binnen,Bergen (NH.),Noord-Holland,VBO,4.654129,52.600069
Ruygekroft,1,,,1935CA,Egmond-Binnen,Bergen (NH.),Noord-Holland,VBO,4.657496,52.598148
Ruygekroft,3,,,1935CA,Egmond-Binnen,Bergen (NH.),Noord-Holland,VBO,4.657512,52.598103
Ruygekroft,5,,,1935CA,Egmond-Binnen,Bergen (NH.),Noord-Holland,VBO,4.657527,52.598049
Ruygekroft,7,,,1935CA,Egmond-Binnen,Bergen (NH.),Noord-Holland,VBO,4.657513,52.598013
Ruygekroft,9,,,1935CA,Egmond-Binnen,Bergen (NH.),Noord-Holland,VBO,4.657544,52.597951
Ruygekroft,11,,,1935CA,Egmond-Binnen,Bergen (NH.),Noord-Holland,VBO,4.657530,52.597906
Ruygekroft,13,,,1935CA,Egmond-Binnen,Bergen (NH.),Noord-Holland,VBO,4.657545,52.597852
Ruygekroft,15,,,1935CA,Egmond-Binnen,Bergen (NH.),Noord-Holland,VBO,4.657546,52.597807
Ruygekroft,17,,,1935CA,Egmond-Binnen,Bergen (NH.),Noord-Holland,VBO,4.657562,52.597735
Ruygekroft,19,,,1935CA,Egmond-Binnen,Bergen (NH.),Noord-Holland,VBO,4.657563,52.597690
Ruygekroft,21,,,1935CA,Egmond-Binnen,Bergen (NH.),Noord-Holland,VBO,4.657578,52.597645
Ruygekroft,23,,,1935CA,Egmond-Binnen,Bergen (NH.),Noord-Holland,VBO,4.657565,52.597582
Ruygekroft,25,,,1935CA,Egmond-Binnen,Bergen (NH.),Noord-Holland,VBO,4.657580,52.597537
Ruygekroft,27,,,1935CA,Egmond-Binnen,Bergen (NH.),Noord-Holland,VBO,4.657596,52.597493
Ruygekroft,29,,,1935CA,Egmond-Binnen,Bergen (NH.),Noord-Holland,VBO,4.657153,52.597472
Ruygekroft,31,,,1935CA,Egmond-Binnen,Bergen (NH.),Noord-Holland,VBO,4.657123,52.597535
Ruygekroft,33,,,1935CA,Egmond-Binnen,Bergen (NH.),Noord-Holland,VBO,4.657122,52.597571
Ruygekroft,35,,,1935CA,Egmond-Binnen,Bergen (NH.),Noord-Holland,VBO,4.657121,52.597634
Ruygekroft,37,,,1935CA,Egmond-Binnen,Bergen (NH.),Noord-Holland,VBO,4.657120,52.597678
Ruygekroft,39,,,1935CA,Egmond-Binnen,Bergen (NH.),Noord-Holland,VBO,4.657120,52.597723
Ruygekroft,41,,,1935CA,Egmond-Binnen,Bergen (NH.),Noord-Holland,VBO,4.657118,52.597786
Ruygekroft,43,,,1935CA,Egmond-Binnen,Bergen (NH.),Noord-Holland,VBO,4.657103,52.597849
Ruygekroft,45,,,1935CA,Egmond-Binnen,Bergen (NH.),Noord-Holland,VBO,4.657102,52.597885
Ruygekroft,47,,,1935CA,Egmond-Binnen,Bergen (NH.),Noord-Holland,VBO,4.657087,52.597930
Ruygekroft,49,,,1935CA,Egmond-Binnen,Bergen (NH.),Noord-Holland,VBO,4.657086,52.597984
Ruygekroft,51,,,1935CA,Egmond-Binnen,Bergen (NH.),Noord-Holland,VBO,4.657085,52.598038
Ruygekroft,53,,,1935CA,Egmond-Binnen,Bergen (NH.),Noord-Holland,VBO,4.657084,52.598074
Ruygekroft,55,,,1935CA,Egmond-Binnen,Bergen (NH.),Noord-Holland,VBO,4.657083,52.598119
Ruygekroft,2,,,1935CB,Egmond-Binnen,Bergen (NH.),Noord-Holland,VBO,4.657989,52.597783
Ruygekroft,4,,,1935CB,Egmond-Binnen,Bergen (NH.),Noord-Holland,VBO,4.657990,52.597729
Ruygekroft,6,,,1935CB,Egmond-Binnen,Bergen (NH.),Noord-Holland,VBO,4.657991,52.597666
Ruygekroft,8,,,1935CB,Egmond-Binnen,Bergen (NH.),Noord-Holland,VBO,4.658007,52.597612
Ruygekroft,10,,,1935CB,Egmond-Binnen,Bergen (NH.),Noord-Holland,VBO,4.657993,52.597576
Ruygekroft,12,,,1935CB,Egmond-Binnen,Bergen (NH.),Noord-Holland,VBO,4.658008,52.597522
Ruygekroft,14,,,1935CB,Egmond-Binnen,Bergen (NH.),Noord-Holland,VBO,4.658024,52.597486
Ruygekroft,20,,,1935CB,Egmond-Binnen,Bergen (NH.),Noord-Holland,VBO,4.658146,52.597262
Ruygekroft,22,,,1935CB,Egmond-Binnen,Bergen (NH.),Noord-Holland,VBO,4.657909,52.597261
Ruygekroft,24,,,1935CB,Egmond-Binnen,Bergen (NH.),Noord-Holland,VBO,4.657732,52.597260
Ruygekroft,26,,,1935CB,Egmond-Binnen,Bergen (NH.),Noord-Holland,VBO,4.657555,52.597250
Ruygekroft,28,,,1935CB,Egmond-Binnen,Bergen (NH.),Noord-Holland,VBO,4.657305,52.597239
Ruygekroft,30,,,1935CB,Egmond-Binnen,Bergen (NH.),Noord-Holland,VBO,4.657187,52.597238
Ruygekroft,32,,,1935CB,Egmond-Binnen,Bergen (NH.),Noord-Holland,VBO,4.657039,52.597220
Ruygekroft,34,,,1935CB,Egmond-Binnen,Bergen (NH.),Noord-Holland,VBO,4.656922,52.597192
Ruygekroft,36,,,1935CB,Egmond-Binnen,Bergen (NH.),Noord-Holland,VBO,4.656774,52.597200
Ruygekroft,38,,,1935CB,Egmond-Binnen,Bergen (NH.),Noord-Holland,VBO,4.656671,52.597199
Ruygekroft,40,,,1935CC,Egmond-Binnen,Bergen (NH.),Noord-Holland,VBO,4.656785,52.597443
Ruygekroft,42,,,1935CC,Egmond-Binnen,Bergen (NH.),Noord-Holland,VBO,4.656784,52.597488
Ruygekroft,44,,,1935CC,Egmond-Binnen,Bergen (NH.),Noord-Holland,VBO,4.656768,52.597541
Ruygekroft,46,,,1935CC,Egmond-Binnen,Bergen (NH.),Noord-Holland,VBO,4.656766,52.597667
Ruygekroft,48,,,1935CC,Egmond-Binnen,Bergen (NH.),Noord-Holland,VBO,4.656765,52.597712
Ruygekroft,50,,,1935CC,Egmond-Binnen,Bergen (NH.),Noord-Holland,VBO,4.656765,52.597766
Ruygekroft,52,,,1935CC,Egmond-Binnen,Bergen (NH.),Noord-Holland,VBO,4.656718,52.597883
Ruygekroft,54,,,1935CC,Egmond-Binnen,Bergen (NH.),Noord-Holland,VBO,4.656718,52.597928
Ruygekroft,56,,,1935CC,Egmond-Binnen,Bergen (NH.),Noord-Holland,VBO,4.656717,52.597982
Ruygekroft,58,,,1935CC,Egmond-Binnen,Bergen (NH.),Noord-Holland,VBO,4.656701,52.598026
Ruygekroft,60,,,1935CC,Egmond-Binnen,Bergen (NH.),Noord-Holland,VBO,4.656699,52.598143
Ruygekroft,62,,,1935CC,Egmond-Binnen,Bergen (NH.),Noord-Holland,VBO,4.656684,52.598197
Ruygekroft,64,,,1935CC,Egmond-Binnen,Bergen (NH.),Noord-Holland,VBO,4.656683,52.598242
Ruygekroft,66,,,1935CC,Egmond-Binnen,Bergen (NH.),Noord-Holland,VBO,4.656682,52.598296
Ruygekroft,68,,,1935CC,Egmond-Binnen,Bergen (NH.),Noord-Holland,VBO,4.656667,52.598341
Ruygekroft,70,,,1935CC,Egmond-Binnen,Bergen (NH.),Noord-Holland,VBO,4.657036,52.598316
Ruygekroft,72,,,1935CC,Egmond-Binnen,Bergen (NH.),Noord-Holland,VBO,4.657124,52.598326
Ruygekroft,74,,,1935CC,Egmond-Binnen,Bergen (NH.),Noord-Holland,VBO,4.657198,52.598326
Ruygekroft,76,,,1935CC,Egmond-Binnen,Bergen (NH.),Noord-Holland,VBO,4.657272,52.598326
Ruygekroft,78,,,1935CC,Egmond-Binnen,Bergen (NH.),Noord-Holland,VBO,4.657360,52.598327
Ruygekroft,80,,,1935CC,Egmond-Binnen,Bergen (NH.),Noord-Holland,VBO,4.657434,52.598336
Ruygekroft,82,,,1935CC,Egmond-Binnen,Bergen (NH.),Noord-Holland,VBO,4.657523,52.598337
Tymonskroft,1,,,1935CD,Egmond-Binnen,Bergen (NH.),Noord-Holland,VBO,4.656395,52.598708
Tymonskroft,3,,,1935CD,Egmond-Binnen,Bergen (NH.),Noord-Holland,VBO,4.656542,52.598699
Tymonskroft,5,,,1935CD,Egmond-Binnen,Bergen (NH.),Noord-Holland,VBO,4.656661,52.598700
Tymonskroft,7,,,1935CD,Egmond-Binnen,Bergen (NH.),Noord-Holland,VBO,4.656779,52.598701
Tymonskroft,9,,,1935CD,Egmond-Binnen,Bergen (NH.),Noord-Holland,VBO,4.656911,52.598729
Tymonskroft,11,,,1935CD,Egmond-Binnen,Bergen (NH.),Noord-Holland,VBO,4.656405,52.598968
Tymonskroft,13,A,,1935CD,Egmond-Binnen,Bergen (NH.),Noord-Holland,VBO,4.656403,52.599121
Tymonskroft,13,,,1935CD,Egmond-Binnen,Bergen (NH.),Noord-Holland,VBO,4.656390,52.599013
Tymonskroft,15,,,1935CD,Egmond-Binnen,Bergen (NH.),Noord-Holland,VBO,4.655970,52.599379
Tymonskroft,17,,,1935CD,Egmond-Binnen,Bergen (NH.),Noord-Holland,VBO,4.655911,52.599370
Tymonskroft,19,,,1935CD,Egmond-Binnen,Bergen (NH.),Noord-Holland,VBO,4.655838,52.599369
Tymonskroft,21,,,1935CD,Egmond-Binnen,Bergen (NH.),Noord-Holland,VBO,4.655749,52.599360
Tymonskroft,23,,,1935CD,Egmond-Binnen,Bergen (NH.),Noord-Holland,VBO,4.655661,52.599350
Tymonskroft,25,,,1935CD,Egmond-Binnen,Bergen (NH.),Noord-Holland,VBO,4.655572,52.599368
Tymonskroft,27,,,1935CD,Egmond-Binnen,Bergen (NH.),Noord-Holland,VBO,4.655498,52.599349
Tymonskroft,2,,,1935CE,Egmond-Binnen,Bergen (NH.),Noord-Holland,VBO,4.656037,52.598894
Tymonskroft,4,,,1935CE,Egmond-Binnen,Bergen (NH.),Noord-Holland,VBO,4.656007,52.598948
Tymonskroft,6,,,1935CE,Egmond-Binnen,Bergen (NH.),Noord-Holland,VBO,4.656036,52.598984
Tymonskroft,8,,,1935CE,Egmond-Binnen,Bergen (NH.),Noord-Holland,VBO,4.656020,52.599047
Tymonskroft,10,,,1935CE,Egmond-Binnen,Bergen (NH.),Noord-Holland,VBO,4.656019,52.599092
Tymonskroft,12,,,1935CE,Egmond-Binnen,Bergen (NH.),Noord-Holland,VBO,4.656018,52.599146
Tymonskroft,14,,,1935CE,Egmond-Binnen,Bergen (NH.),Noord-Holland,VBO,4.656018,52.599182
Tymonskroft,16,,,1935CE,Egmond-Binnen,Bergen (NH.),Noord-Holland,VBO,4.655753,52.599144
Tymonskroft,18,,,1935CE,Egmond-Binnen,Bergen (NH.),Noord-Holland,VBO,4.655679,52.599135
Tymonskroft,20,,,1935CE,Egmond-Binnen,Bergen (NH.),Noord-Holland,VBO,4.655605,52.599134
Tymonskroft,22,,,1935CE,Egmond-Binnen,Bergen (NH.),Noord-Holland,VBO,4.655517,52.599134
Tymonskroft,24,,,1935CE,Egmond-Binnen,Bergen (NH.),Noord-Holland,VBO,4.655443,52.599124
Blankenberg,1,,,1935CG,Egmond-Binnen,Bergen (NH.),Noord-Holland,VBO,4.655787,52.598875
Blankenberg,2,,,1935CG,Egmond-Binnen,Bergen (NH.),Noord-Holland,VBO,4.656129,52.598697
Blankenberg,3,,,1935CG,Egmond-Binnen,Bergen (NH.),Noord-Holland,VBO,4.655713,52.598865
Blankenberg,4,,,1935CG,Egmond-Binnen,Bergen (NH.),Noord-Holland,VBO,4.656026,52.598687
Blankenberg,5,,,1935CG,Egmond-Binnen,Bergen (NH.),Noord-Holland,VBO,4.655625,52.598865
Blankenberg,6,,,1935CG,Egmond-Binnen,Bergen (NH.),Noord-Holland,VBO,4.655952,52.598687
Blankenberg,7,,,1935CG,Egmond-Binnen,Bergen (NH.),Noord-Holland,VBO,4.655551,52.598864
Blankenberg,8,,,1935CG,Egmond-Binnen,Bergen (NH.),Noord-Holland,VBO,4.655864,52.598677
Blankenberg,9,,,1935CG,Egmond-Binnen,Bergen (NH.),Noord-Holland,VBO,4.655477,52.598864
Blankenberg,10,,,1935CG,Egmond-Binnen,Bergen (NH.),Noord-Holland,VBO,4.655672,52.598649
Blankenberg,12,,,1935CG,Egmond-Binnen,Bergen (NH.),Noord-Holland,VBO,4.655584,52.598640
Blankenberg,14,,,1935CG,Egmond-Binnen,Bergen (NH.),Noord-Holland,VBO,4.655510,52.598639
Blankenberg,16,,,1935CG,Egmond-Binnen,Bergen (NH.),Noord-Holland,VBO,4.655422,52.598639
Blankenberg,18,,,1935CG,Egmond-Binnen,Bergen (NH.),Noord-Holland,VBO,4.655348,52.598638
Blankenberg,20,,,1935CG,Egmond-Binnen,Bergen (NH.),Noord-Holland,VBO,4.655274,52.598638
Blankenberg,22,,,1935CH,Egmond-Binnen,Bergen (NH.),Noord-Holland,VBO,4.655295,52.599159
Blankenberg,24,,,1935CH,Egmond-Binnen,Bergen (NH.),Noord-Holland,VBO,4.655310,52.599132
Blankenberg,26,,,1935CH,Egmond-Binnen,Bergen (NH.),Noord-Holland,VBO,4.655311,52.599105
Blankenberg,28,,,1935CH,Egmond-Binnen,Bergen (NH.),Noord-Holland,VBO,4.655311,52.599078
Blankenberg,30,,,1935CH,Egmond-Binnen,Bergen (NH.),Noord-Holland,VBO,4.655312,52.599042
Blankenberg,32,,,1935CH,Egmond-Binnen,Bergen (NH.),Noord-Holland,VBO,4.655327,52.599016
Blankenberg,34,,,1935CH,Egmond-Binnen,Bergen (NH.),Noord-Holland,VBO,4.655327,52.598989
Blankenberg,36,,,1935CH,Egmond-Binnen,Bergen (NH.),Noord-Holland,VBO,4.655328,52.598962
Blankenberg,38,,,1935CH,Egmond-Binnen,Bergen (NH.),Noord-Holland,VBO,4.655343,52.598935
Blankenberg,40,,,1935CH,Egmond-Binnen,Bergen (NH.),Noord-Holland,VBO,4.655329,52.598890
Blankenberg,42,,,1935CH,Egmond-Binnen,Bergen (NH.),Noord-Holland,VBO,4.655344,52.598863
Blankenberg,44,,,1935CH,Egmond-Binnen,Bergen (NH.),Noord-Holland,VBO,4.655344,52.598845
Blankenberg,46,,,1935CH,Egmond-Binnen,Bergen (NH.),Noord-Holland,VBO,4.655345,52.598800
Blankenberg,48,A,,1935CH,Egmond-Binnen,Bergen (NH.),Noord-Holland,VBO,4.655145,52.599329
Blankenberg,48,B,,1935CH,Egmond-Binnen,Bergen (NH.),Noord-Holland,VBO,4.655128,52.599446
Blankenberg,48,,,1935CH,Egmond-Binnen,Bergen (NH.),Noord-Holland,VBO,4.655346,52.598782
Blankenberg,50,,,1935CH,Egmond-Binnen,Bergen (NH.),Noord-Holland,VBO,4.655183,52.599689
Blankenberg,52,,,1935CH,Egmond-Binnen,Bergen (NH.),Noord-Holland,VBO,4.655124,52.599688
Blankenberg,54,,,1935CH,Egmond-Binnen,Bergen (NH.),Noord-Holland,VBO,4.655021,52.599688
Blankenberg,56,,,1935CH,Egmond-Binnen,Bergen (NH.),Noord-Holland,VBO,4.654947,52.599678
Blankenberg,58,,,1935CH,Egmond-Binnen,Bergen (NH.),Noord-Holland,VBO,4.654873,52.599669
Blankenberg,60,,,1935CH,Egmond-Binnen,Bergen (NH.),Noord-Holland,VBO,4.654785,52.599677
Blankenberg,62,,,1935CH,Egmond-Binnen,Bergen (NH.),Noord-Holland,VBO,4.654711,52.599677
Visweg,1,,,1935EA,Egmond-Binnen,Bergen (NH.),Noord-Holland,VBO,4.653672,52.596489
Visweg,3,,,1935EA,Egmond-Binnen,Bergen (NH.),Noord-Holland,VBO,4.653656,52.596543
Visweg,5,,,1935EA,Egmond-Binnen,Bergen (NH.),Noord-Holland,VBO,4.653655,52.596597
Visweg,7,,,1935EA,Egmond-Binnen,Bergen (NH.),Noord-Holland,VBO,4.653639,52.596650
Visweg,9,,,1935EA,Egmond-Binnen,Bergen (NH.),Noord-Holland,VBO,4.653624,52.596704
Visweg,11,,,1935EA,Egmond-Binnen,Bergen (NH.),Noord-Holland,VBO,4.653623,52.596758
Visweg,13,,,1935EA,Egmond-Binnen,Bergen (NH.),Noord-Holland,VBO,4.653606,52.596893
Visweg,15,,,1935EA,Egmond-Binnen,Bergen (NH.),Noord-Holland,VBO,4.653574,52.597010
Visweg,17,,,1935EA,Egmond-Binnen,Bergen (NH.),Noord-Holland,VBO,4.653557,52.597144
Visweg,21,A,,1935EB,Egmond-Binnen,Bergen (NH.),Noord-Holland,VBO,4.653445,52.597692
Visweg,21,B,,1935EB,Egmond-Binnen,Bergen (NH.),Noord-Holland,VBO,4.653429,52.597746
Visweg,21,,,1935EB,Egmond-Binnen,Bergen (NH.),Noord-Holland,VBO,4.653446,52.597647
Visweg,23,,,1935EB,Egmond-Binnen,Bergen (NH.),Noord-Holland,VBO,4.653457,52.597872
Visweg,25,,,1935EB,Egmond-Binnen,Bergen (NH.),Noord-Holland,VBO,4.653366,52.598024
Visweg,27,,,1935EB,Egmond-Binnen,Bergen (NH.),Noord-Holland,VBO,4.653365,52.598060
Visweg,29,,,1935EB,Egmond-Binnen,Bergen (NH.),Noord-Holland,VBO,4.653364,52.598114
Visweg,31,,,1935EB,Egmond-Binnen,Bergen (NH.),Noord-Holland,VBO,4.653349,52.598150
Visweg,33,,,1935EB,Egmond-Binnen,Bergen (NH.),Noord-Holland,VBO,4.653348,52.598203
Visweg,35,,,1935EB,Egmond-Binnen,Bergen (NH.),Noord-Holland,VBO,4.653332,52.598239
Visweg,37,,,1935EB,Egmond-Binnen,Bergen (NH.),Noord-Holland,VBO,4.653288,52.598266
Visweg,39,A,,1935EB,Egmond-Binnen,Bergen (NH.),Noord-Holland,VBO,4.653360,52.598383
Visweg,39,,,1935EB,Egmond-Binnen,Bergen (NH.),Noord-Holland,VBO,4.653374,52.598374
Visweg,41,,,1935EB,Egmond-Binnen,Bergen (NH.),Noord-Holland,VBO,4.653357,52.598518
Visweg,43,,,1935EB,Egmond-Binnen,Bergen (NH.),Noord-Holland,VBO,4.653357,52.598563
Visweg,45,,,1935EB,Egmond-Binnen,Bergen (NH.),Noord-Holland,VBO,4.653290,52.599875
Visweg,2,,,1935EC,Egmond-Binnen,Bergen (NH.),Noord-Holland,VBO,4.654032,52.596132
Visweg,4,,,1935EC,Egmond-Binnen,Bergen (NH.),Noord-Holland,VBO,4.654031,52.596185
Visweg,6,,,1935EC,Egmond-Binnen,Bergen (NH.),Noord-Holland,VBO,4.654015,52.596239
Visweg,8,,,1935EC,Egmond-Binnen,Bergen (NH.),Noord-Holland,VBO,4.654014,52.596293
Visweg,10,Z,,1935EC,Egmond-Binnen,Bergen (NH.),Noord-Holland,VBO,4.654043,52.596356
Visweg,10,,,1935EC,Egmond-Binnen,Bergen (NH.),Noord-Holland,VBO,4.653999,52.596347
Visweg,12,,,1935EC,Egmond-Binnen,Bergen (NH.),Noord-Holland,VBO,4.653699,52.598376
Visweg,14,,,1935EC,Egmond-Binnen,Bergen (NH.),Noord-Holland,VBO,4.653684,52.598430
Visweg,16,,,1935EC,Egmond-Binnen,Bergen (NH.),Noord-Holland,VBO,4.653683,52.598484
Visweg,18,,,1935EC,Egmond-Binnen,Bergen (NH.),Noord-Holland,VBO,4.653755,52.598592
Visweg,20,,,1935EC,Egmond-Binnen,Bergen (NH.),Noord-Holland,VBO,4.653754,52.598637
Visweg,22,,,1935EC,Egmond-Binnen,Bergen (NH.),Noord-Holland,VBO,4.653753,52.598682
Visweg,24,,,1935EC,Egmond-Binnen,Bergen (NH.),Noord-Holland,VBO,4.653738,52.598727
Visweg,26,,,1935EC,Egmond-Binnen,Bergen (NH.),Noord-Holland,VBO,4.653737,52.598763
Visweg,28,,,1935EC,Egmond-Binnen,Bergen (NH.),Noord-Holland,VBO,4.653736,52.598817
Visweg,30,,,1935EC,Egmond-Binnen,Bergen (NH.),Noord-Holland,VBO,4.653691,52.598853
Visweg,32,,,1935EC,Egmond-Binnen,Bergen (NH.),Noord-Holland,VBO,4.653690,52.598898
Visweg,34,,,1935EC,Egmond-Binnen,Bergen (NH.),Noord-Holland,VBO,4.653675,52.598933
Visweg,36,,,1935EC,Egmond-Binnen,Bergen (NH.),Noord-Holland,VBO,4.653674,52.598978
Visweg,38,,,1935EC,Egmond-Binnen,Bergen (NH.),Noord-Holland,VBO,4.653969,52.598989
Visweg,40,,,1935EC,Egmond-Binnen,Bergen (NH.),Noord-Holland,VBO,4.654028,52.598999
Visweg,42,,,1935EC,Egmond-Binnen,Bergen (NH.),Noord-Holland,VBO,4.654102,52.599017
Visweg,44,,,1935EC,Egmond-Binnen,Bergen (NH.),Noord-Holland,VBO,4.654176,52.599008
Visweg,46,,,1935EC,Egmond-Binnen,Bergen (NH.),Noord-Holland,VBO,4.654249,52.599027
Fazantenlaan,1,Z,,1935ED,Egmond-Binnen,Bergen (NH.),Noord-Holland,VBO,4.653919,52.596679
Fazantenlaan,1,,,1935ED,Egmond-Binnen,Bergen (NH.),Noord-Holland,VBO,4.653995,52.596536
Fazantenlaan,3,,,1935ED,Egmond-Binnen,Bergen (NH.),Noord-Holland,VBO,4.654084,52.596545
Fazantenlaan,5,,,1935ED,Egmond-Binnen,Bergen (NH.),Noord-Holland,VBO,4.654187,52.596546
Fazantenlaan,7,,,1935ED,Egmond-Binnen,Bergen (NH.),Noord-Holland,VBO,4.654261,52.596555
Fazantenlaan,9,,,1935ED,Egmond-Binnen,Bergen (NH.),Noord-Holland,VBO,4.654349,52.596556
Fazantenlaan,11,,,1935ED,Egmond-Binnen,Bergen (NH.),Noord-Holland,VBO,4.654149,52.597957
Fazantenlaan,13,,,1935ED,Egmond-Binnen,Bergen (NH.),Noord-Holland,VBO,4.654061,52.597947
Fazantenlaan,15,,,1935ED,Egmond-Binnen,Bergen (NH.),Noord-Holland,VBO,4.653972,52.597947
Fazantenlaan,17,,,1935ED,Egmond-Binnen,Bergen (NH.),Noord-Holland,VBO,4.653884,52.597937
Fazantenlaan,19,,,1935ED,Egmond-Binnen,Bergen (NH.),Noord-Holland,VBO,4.653795,52.597937
Fazantenlaan,9011,,,1935ED,Egmond-Binnen,Bergen (NH.),Noord-Holland,VBO,4.654506,52.597815
Fazantenlaan,9013,,,1935ED,Egmond-Binnen,Bergen (NH.),Noord-Holland,VBO,4.654567,52.597681
Fazantenlaan,2,,,1935EE,Egmond-Binnen,Bergen (NH.),Noord-Holland,VBO,4.654690,52.596486
Fazantenlaan,4,,,1935EE,Egmond-Binnen,Bergen (NH.),Noord-Holland,VBO,4.654674,52.596540
Fazantenlaan,6,,,1935EE,Egmond-Binnen,Bergen (NH.),Noord-Holland,VBO,4.654673,52.596603
Fazantenlaan,8,,,1935EE,Egmond-Binnen,Bergen (NH.),Noord-Holland,VBO,4.654657,52.596693
Fazantenlaan,10,,,1935EE,Egmond-Binnen,Bergen (NH.),Noord-Holland,VBO,4.654656,52.596756
Fazantenlaan,12,,,1935EE,Egmond-Binnen,Bergen (NH.),Noord-Holland,VBO,4.654655,52.596800
Fazantenlaan,14,,,1935EE,Egmond-Binnen,Bergen (NH.),Noord-Holland,VBO,4.654639,52.596863
Fazantenlaan,16,,,1935EE,Egmond-Binnen,Bergen (NH.),Noord-Holland,VBO,4.654624,52.596908
Fazantenlaan,18,,,1935EE,Egmond-Binnen,Bergen (NH.),Noord-Holland,VBO,4.654607,52.597016
Fazantenlaan,20,,,1935EE,Egmond-Binnen,Bergen (NH.),Noord-Holland,VBO,4.654606,52.597070
Fazantenlaan,22,,,1935EE,Egmond-Binnen,Bergen (NH.),Noord-Holland,VBO,4.654591,52.597124
Fazantenlaan,24,,,1935EE,Egmond-Binnen,Bergen (NH.),Noord-Holland,VBO,4.654575,52.597177
Fazantenlaan,26,,,1935EE,Egmond-Binnen,Bergen (NH.),Noord-Holland,VBO,4.654574,52.597231
Fazantenlaan,28,,,1935EE,Egmond-Binnen,Bergen (NH.),Noord-Holland,VBO,4.654219,52.598155
Fazantenlaan,30,,,1935EE,Egmond-Binnen,Bergen (NH.),Noord-Holland,VBO,4.654131,52.598145
Fazantenlaan,32,,,1935EE,Egmond-Binnen,Bergen (NH.),Noord-Holland,VBO,4.654043,52.598145
Fazantenlaan,34,,,1935EE,Egmond-Binnen,Bergen (NH.),Noord-Holland,VBO,4.653939,52.598144
Fazantenlaan,36,,,1935EE,Egmond-Binnen,Bergen (NH.),Noord-Holland,VBO,4.653851,52.598135
Fazantenlaan,38,,,1935EE,Egmond-Binnen,Bergen (NH.),Noord-Holland,VBO,4.653762,52.598125
Fazantenlaan,9010,,,1935EE,Egmond-Binnen,Bergen (NH.),Noord-Holland,VBO,4.654536,52.597761
Fazantenlaan,9012,,,1935EE,Egmond-Binnen,Bergen (NH.),Noord-Holland,VBO,4.654552,52.597708
Zeedistel,1,A,,1935EG,Egmond-Binnen,Bergen (NH.),Noord-Holland,VBO,4.654307,52.597338
Zeedistel,1,,,1935EG,Egmond-Binnen,Bergen (NH.),Noord-Holland,VBO,4.654262,52.597400
Zeedistel,2,Z,,1935EG,Egmond-Binnen,Bergen (NH.),Noord-Holland,VBO,4.654213,52.597679
Zeedistel,2,,,1935EG,Egmond-Binnen,Bergen (NH.),Noord-Holland,VBO,4.654213,52.597652
Zeedistel,3,,,1935EG,Egmond-Binnen,Bergen (NH.),Noord-Holland,VBO,4.654158,52.597391
Zeedistel,4,,,1935EG,Egmond-Binnen,Bergen (NH.),Noord-Holland,VBO,4.654110,52.597642
Zeedistel,5,,,1935EG,Egmond-Binnen,Bergen (NH.),Noord-Holland,VBO,4.654040,52.597381
Zeedistel,6,,,1935EG,Egmond-Binnen,Bergen (NH.),Noord-Holland,VBO,4.654021,52.597641
Zeedistel,7,,,1935EG,Egmond-Binnen,Bergen (NH.),Noord-Holland,VBO,4.653967,52.597380
Zeedistel,8,,,1935EG,Egmond-Binnen,Bergen (NH.),Noord-Holland,VBO,4.653918,52.597623
Zeedistel,9,,,1935EG,Egmond-Binnen,Bergen (NH.),Noord-Holland,VBO,4.653908,52.597380
Zeedistel,10,,,1935EG,Egmond-Binnen,Bergen (NH.),Noord-Holland,VBO,4.653815,52.597631
Duinroos,1,,,1935EH,Egmond-Binnen,Bergen (NH.),Noord-Holland,VBO,4.654299,52.596897
Duinroos,2,,,1935EH,Egmond-Binnen,Bergen (NH.),Noord-Holland,VBO,4.654282,52.597086
Duinroos,3,,,1935EH,Egmond-Binnen,Bergen (NH.),Noord-Holland,VBO,4.654211,52.596888
Duinroos,4,,,1935EH,Egmond-Binnen,Bergen (NH.),Noord-Holland,VBO,4.654178,52.597085
Duinroos,5,,,1935EH,Egmond-Binnen,Bergen (NH.),Noord-Holland,VBO,4.654122,52.596887
Duinroos,6,,,1935EH,Egmond-Binnen,Bergen (NH.),Noord-Holland,VBO,4.654090,52.597076
Duinroos,7,,,1935EH,Egmond-Binnen,Bergen (NH.),Noord-Holland,VBO,4.654034,52.596878
Duinroos,8,,,1935EH,Egmond-Binnen,Bergen (NH.),Noord-Holland,VBO,4.654001,52.597075
Duinroos,9,,,1935EH,Egmond-Binnen,Bergen (NH.),Noord-Holland,VBO,4.653946,52.596877
Duinroos,10,Z,,1935EH,Egmond-Binnen,Bergen (NH.),Noord-Holland,VBO,4.653852,52.597191
Duinroos,10,,,1935EH,Egmond-Binnen,Bergen (NH.),Noord-Holland,VBO,4.653928,52.597066
Meeuwenlaan,1,,,1935EJ,Egmond-Binnen,Bergen (NH.),Noord-Holland,VBO,4.652612,52.596321
Meeuwenlaan,2,,,1935EJ,Egmond-Binnen,Bergen (NH.),Noord-Holland,VBO,4.653155,52.596477
Meeuwenlaan,3,,,1935EJ,Egmond-Binnen,Bergen (NH.),Noord-Holland,VBO,4.652698,52.596456
Meeuwenlaan,4,,,1935EJ,Egmond-Binnen,Bergen (NH.),Noord-Holland,VBO,4.653140,52.596513
Meeuwenlaan,5,,,1935EJ,Egmond-Binnen,Bergen (NH.),Noord-Holland,VBO,4.652652,52.596545
Meeuwenlaan,6,,,1935EJ,Egmond-Binnen,Bergen (NH.),Noord-Holland,VBO,4.653124,52.596575
Meeuwenlaan,7,,,1935EJ,Egmond-Binnen,Bergen (NH.),Noord-Holland,VBO,4.652547,52.596689
Meeuwenlaan,8,,,1935EJ,Egmond-Binnen,Bergen (NH.),Noord-Holland,VBO,4.653138,52.596620
Meeuwenlaan,9,,,1935EJ,Egmond-Binnen,Bergen (NH.),Noord-Holland,VBO,4.652603,52.596824
Meeuwenlaan,10,,,1935EJ,Egmond-Binnen,Bergen (NH.),Noord-Holland,VBO,4.653122,52.596674
Meeuwenlaan,12,,,1935EJ,Egmond-Binnen,Bergen (NH.),Noord-Holland,VBO,4.653121,52.596755
Meeuwenlaan,38,,,1935EJ,Egmond-Binnen,Bergen (NH.),Noord-Holland,VBO,4.652959,52.597644
Meeuwenlaan,40,,,1935EJ,Egmond-Binnen,Bergen (NH.),Noord-Holland,VBO,4.652942,52.597743
Meeuwenlaan,44,,,1935EJ,Egmond-Binnen,Bergen (NH.),Noord-Holland,VBO,4.652820,52.597967
Meeuwenlaan,46,,,1935EJ,Egmond-Binnen,Bergen (NH.),Noord-Holland,VBO,4.652819,52.598056
Meeuwenlaan,48,,,1935EJ,Egmond-Binnen,Bergen (NH.),Noord-Holland,VBO,4.652847,52.598155
Meeuwenlaan,50,,,1935EJ,Egmond-Binnen,Bergen (NH.),Noord-Holland,VBO,4.652874,52.598263
Sint Adelbertusweg,3,,,1935EK,Egmond-Binnen,Bergen (NH.),Noord-Holland,VBO,4.655258,52.596040
Sint Adelbertusweg,5,,,1935EK,Egmond-Binnen,Bergen (NH.),Noord-Holland,VBO,4.655022,52.596039
Sint Adelbertusweg,7,A,,1935EK,Egmond-Binnen,Bergen (NH.),Noord-Holland,VBO,4.654610,52.595964
Sint Adelbertusweg,7,,,1935EK,Egmond-Binnen,Bergen (NH.),Noord-Holland,VBO,4.654816,52.596020
Sint Adelbertusweg,9,Z,,1935EK,Egmond-Binnen,Bergen (NH.),Noord-Holland,VBO,4.654423,52.595694
Sint Adelbertusweg,9,,,1935EK,Egmond-Binnen,Bergen (NH.),Noord-Holland,VBO,4.654404,52.595936
Sint Adelbertusweg,11,A,,1935EK,Egmond-Binnen,Bergen (NH.),Noord-Holland,VBO,4.654079,52.595934
Sint Adelbertusweg,11,,,1935EK,Egmond-Binnen,Bergen (NH.),Noord-Holland,VBO,4.654395,52.595568
Sint Adelbertusweg,13,A,Z,1935EK,Egmond-Binnen,Bergen (NH.),Noord-Holland,VBO,4.653861,52.595735
Sint Adelbertusweg,13,A,,1935EK,Egmond-Binnen,Bergen (NH.),Noord-Holland,VBO,4.653829,52.595879
Sint Adelbertusweg,13,Z,,1935EK,Egmond-Binnen,Bergen (NH.),Noord-Holland,VBO,4.654007,52.595844
Sint Adelbertusweg,13,,,1935EK,Egmond-Binnen,Bergen (NH.),Noord-Holland,VBO,4.653918,52.595888
Sint Adelbertusweg,2,,WINK,1935EL,Egmond-Binnen,Bergen (NH.),Noord-Holland,VBO,4.654928,52.596353
Sint Adelbertusweg,2,,,1935EL,Egmond-Binnen,Bergen (NH.),Noord-Holland,VBO,4.654961,52.596164
Sint Adelbertusweg,4,Z,,1935EL,Egmond-Binnen,Bergen (NH.),Noord-Holland,VBO,4.654706,52.596405
Sint Adelbertusweg,4,,,1935EL,Egmond-Binnen,Bergen (NH.),Noord-Holland,VBO,4.654769,52.596190
Sint Adelbertusweg,6,Z,,1935EL,Egmond-Binnen,Bergen (NH.),Noord-Holland,VBO,4.654632,52.596396
Sint Adelbertusweg,6,,,1935EL,Egmond-Binnen,Bergen (NH.),Noord-Holland,VBO,4.654680,52.596181
Sint Adelbertusweg,8,Z,,1935EL,Egmond-Binnen,Bergen (NH.),Noord-Holland,VBO,4.654500,52.596386
Sint Adelbertusweg,8,,,1935EL,Egmond-Binnen,Bergen (NH.),Noord-Holland,VBO,4.654592,52.596180
Sint Adelbertusweg,10,,,1935EL,Egmond-Binnen,Bergen (NH.),Noord-Holland,VBO,4.654503,52.596170
Sint Adelbertusweg,12,,,1935EL,Egmond-Binnen,Bergen (NH.),Noord-Holland,VBO,4.654415,52.596170
Sint Adelbertusweg,14,,,1935EL,Egmond-Binnen,Bergen (NH.),Noord-Holland,VBO,4.654326,52.596160
Sint Adelbertusweg,16,,nbij,1935EL,Egmond-Binnen,Bergen (NH.),Noord-Holland,VBO,4.653617,52.596219
Sint Adelbertusweg,16,,,1935EL,Egmond-Binnen,Bergen (NH.),Noord-Holland,VBO,4.653663,52.596138
Sint Adelbertusweg,18,,,1935EL,Egmond-Binnen,Bergen (NH.),Noord-Holland,VBO,4.653574,52.596129
Sint Adelbertusweg,20,,,1935EL,Egmond-Binnen,Bergen (NH.),Noord-Holland,VBO,4.653486,52.596128
Sint Adelbertusweg,22,,,1935EL,Egmond-Binnen,Bergen (NH.),Noord-Holland,VBO,4.653397,52.596128
Sint Adelbertusweg,24,,,1935EL,Egmond-Binnen,Bergen (NH.),Noord-Holland,VBO,4.653309,52.596118
Sint Adelbertusweg,26,,,1935EL,Egmond-Binnen,Bergen (NH.),Noord-Holland,VBO,4.653205,52.596117
Sint Adelbertusweg,28,,,1935EL,Egmond-Binnen,Bergen (NH.),Noord-Holland,VBO,4.653117,52.596108
Sint Adelbertusweg,30,,,1935EL,Egmond-Binnen,Bergen (NH.),Noord-Holland,VBO,4.653029,52.596107
Sint Adelbertusweg,32,,,1935EL,Egmond-Binnen,Bergen (NH.),Noord-Holland,VBO,4.652658,52.596195
Sint Adelbertusweg,15,A,,1935EM,Egmond-Binnen,Bergen (NH.),Noord-Holland,VBO,4.653166,52.595830
Sint Adelbertusweg,15,B,Z,1935EM,Egmond-Binnen,Bergen (NH.),Noord-Holland,VBO,4.652870,52.595855
Sint Adelbertusweg,15,B,,1935EM,Egmond-Binnen,Bergen (NH.),Noord-Holland,VBO,4.652900,52.595846
Sint Adelbertusweg,15,C,,1935EM,Egmond-Binnen,Bergen (NH.),Noord-Holland,VBO,4.652679,52.595800
Sint Adelbertusweg,15,,,1935EM,Egmond-Binnen,Bergen (NH.),Noord-Holland,VBO,4.653401,52.595885
Sint Adelbertusweg,17,A,,1935EM,Egmond-Binnen,Bergen (NH.),Noord-Holland,VBO,4.650847,52.595844
Sint Adelbertusweg,17,Z,1,1935EM,Egmond-Binnen,Bergen (NH.),Noord-Holland,VBO,4.650360,52.595938
Sint Adelbertusweg,17,Z,2,1935EM,Egmond-Binnen,Bergen (NH.),Noord-Holland,VBO,4.650346,52.595884
Sint Adelbertusweg,17,,,1935EM,Egmond-Binnen,Bergen (NH.),Noord-Holland,VBO,4.650346,52.595911
Sint Adelbertusweg,19,,,1935EM,Egmond-Binnen,Bergen (NH.),Noord-Holland,VBO,4.650213,52.595901
Sint Adelbertusweg,21,Z,,1935EM,Egmond-Binnen,Bergen (NH.),Noord-Holland,VBO,4.649757,52.595835
Sint Adelbertusweg,21,,,1935EM,Egmond-Binnen,Bergen (NH.),Noord-Holland,VBO,4.649963,52.595864
Sint Adelbertusweg,23,,,1935EM,Egmond-Binnen,Bergen (NH.),Noord-Holland,VBO,4.649564,52.595897
Sint Adelbertusweg,25,,,1935EM,Egmond-Binnen,Bergen (NH.),Noord-Holland,VBO,4.649372,52.595860
Sint Adelbertusweg,27,Z,1,1935EM,Egmond-Binnen,Bergen (NH.),Noord-Holland,VBO,4.646020,52.595992
Sint Adelbertusweg,27,Z,2,1935EM,Egmond-Binnen,Bergen (NH.),Noord-Holland,VBO,4.646125,52.595894
Sint Adelbertusweg,27,Z,3,1935EM,Egmond-Binnen,Bergen (NH.),Noord-Holland,VBO,4.646200,52.595831
Sint Adelbertusweg,27,Z,4,1935EM,Egmond-Binnen,Bergen (NH.),Noord-Holland,VBO,4.646318,52.595805
Sint Adelbertusweg,27,,,1935EM,Egmond-Binnen,Bergen (NH.),Noord-Holland,VBO,4.646065,52.595956
Sint Adelbertusweg,31,Z,,1935EM,Egmond-Binnen,Bergen (NH.),Noord-Holland,VBO,4.644289,52.596233
Sint Adelbertusweg,31,,1,1935EM,Egmond-Binnen,Bergen (NH.),Noord-Holland,VBO,4.644164,52.596198
Sint Adelbertusweg,31,,10,1935EM,Egmond-Binnen,Bergen (NH.),Noord-Holland,VBO,4.644519,52.595979
Sint Adelbertusweg,31,,11,1935EM,Egmond-Binnen,Bergen (NH.),Noord-Holland,VBO,4.644390,52.595962
Sint Adelbertusweg,31,,12,1935EM,Egmond-Binnen,Bergen (NH.),Noord-Holland,VBO,4.644229,52.595940
Sint Adelbertusweg,31,,13,1935EM,Egmond-Binnen,Bergen (NH.),Noord-Holland,VBO,4.644112,52.595918
Sint Adelbertusweg,31,,14,1935EM,Egmond-Binnen,Bergen (NH.),Noord-Holland,VBO,4.643999,52.595896
Sint Adelbertusweg,31,,15,1935EM,Egmond-Binnen,Bergen (NH.),Noord-Holland,VBO,4.643901,52.595879
Sint Adelbertusweg,31,,16,1935EM,Egmond-Binnen,Bergen (NH.),Noord-Holland,VBO,4.643802,52.595869
Sint Adelbertusweg,31,,17,1935EM,Egmond-Binnen,Bergen (NH.),Noord-Holland,VBO,4.644538,52.595841
Sint Adelbertusweg,31,,18,1935EM,Egmond-Binnen,Bergen (NH.),Noord-Holland,VBO,4.644409,52.595816
Sint Adelbertusweg,31,,19,1935EM,Egmond-Binnen,Bergen (NH.),Noord-Holland,VBO,4.644295,52.595799
Sint Adelbertusweg,31,,2,1935EM,Egmond-Binnen,Bergen (NH.),Noord-Holland,VBO,4.643953,52.596179
Sint Adelbertusweg,31,,20,1935EM,Egmond-Binnen,Bergen (NH.),Noord-Holland,VBO,4.644158,52.595771
Sint Adelbertusweg,31,,21,1935EM,Egmond-Binnen,Bergen (NH.),Noord-Holland,VBO,4.644024,52.595746
Sint Adelbertusweg,31,,22,1935EM,Egmond-Binnen,Bergen (NH.),Noord-Holland,VBO,4.643873,52.595729
Sint Adelbertusweg,31,,23,1935EM,Egmond-Binnen,Bergen (NH.),Noord-Holland,VBO,4.644691,52.595706
Sint Adelbertusweg,31,,24,1935EM,Egmond-Binnen,Bergen (NH.),Noord-Holland,VBO,4.644576,52.595691
Sint Adelbertusweg,31,,25,1935EM,Egmond-Binnen,Bergen (NH.),Noord-Holland,VBO,4.644476,52.595677
Sint Adelbertusweg,31,,26,1935EM,Egmond-Binnen,Bergen (NH.),Noord-Holland,VBO,4.644352,52.595655
Sint Adelbertusweg,31,,27,1935EM,Egmond-Binnen,Bergen (NH.),Noord-Holland,VBO,4.644254,52.595629
Sint Adelbertusweg,31,,28,1935EM,Egmond-Binnen,Bergen (NH.),Noord-Holland,VBO,4.644144,52.595614
Sint Adelbertusweg,31,,29,1935EM,Egmond-Binnen,Bergen (NH.),Noord-Holland,VBO,4.644023,52.595596
Sint Adelbertusweg,31,,3,1935EM,Egmond-Binnen,Bergen (NH.),Noord-Holland,VBO,4.643834,52.596158
Sint Adelbertusweg,31,,30,1935EM,Egmond-Binnen,Bergen (NH.),Noord-Holland,VBO,4.643947,52.595547
Sint Adelbertusweg,31,,31,1935EM,Egmond-Binnen,Bergen (NH.),Noord-Holland,VBO,4.644798,52.595474
Sint Adelbertusweg,31,,32,1935EM,Egmond-Binnen,Bergen (NH.),Noord-Holland,VBO,4.644681,52.595463
Sint Adelbertusweg,31,,33,1935EM,Egmond-Binnen,Bergen (NH.),Noord-Holland,VBO,4.644552,52.595480
Sint Adelbertusweg,31,,34,1935EM,Egmond-Binnen,Bergen (NH.),Noord-Holland,VBO,4.644467,52.595441
Sint Adelbertusweg,31,,35,1935EM,Egmond-Binnen,Bergen (NH.),Noord-Holland,VBO,4.644365,52.595421
Sint Adelbertusweg,31,,36,1935EM,Egmond-Binnen,Bergen (NH.),Noord-Holland,VBO,4.644260,52.595429
Sint Adelbertusweg,31,,37,1935EM,Egmond-Binnen,Bergen (NH.),Noord-Holland,VBO,4.644141,52.595393
Sint Adelbertusweg,31,,38,1935EM,Egmond-Binnen,Bergen (NH.),Noord-Holland,VBO,4.644028,52.595381
Sint Adelbertusweg,31,,39,1935EM,Egmond-Binnen,Bergen (NH.),Noord-Holland,VBO,4.644765,52.595403
Sint Adelbertusweg,31,,4,1935EM,Egmond-Binnen,Bergen (NH.),Noord-Holland,VBO,4.643699,52.596148
Sint Adelbertusweg,31,,40,1935EM,Egmond-Binnen,Bergen (NH.),Noord-Holland,VBO,4.644652,52.595356
Sint Adelbertusweg,31,,41,1935EM,Egmond-Binnen,Bergen (NH.),Noord-Holland,VBO,4.644505,52.595366
Sint Adelbertusweg,31,,42,1935EM,Egmond-Binnen,Bergen (NH.),Noord-Holland,VBO,4.644398,52.595350
Sint Adelbertusweg,31,,43,1935EM,Egmond-Binnen,Bergen (NH.),Noord-Holland,VBO,4.644284,52.595335
Sint Adelbertusweg,31,,44,1935EM,Egmond-Binnen,Bergen (NH.),Noord-Holland,VBO,4.644185,52.595328
Sint Adelbertusweg,31,,45,1935EM,Egmond-Binnen,Bergen (NH.),Noord-Holland,VBO,4.644056,52.595303
Sint Adelbertusweg,31,,46,1935EM,Egmond-Binnen,Bergen (NH.),Noord-Holland,VBO,4.644942,52.595223
Sint Adelbertusweg,31,,47,1935EM,Egmond-Binnen,Bergen (NH.),Noord-Holland,VBO,4.644805,52.595201
Sint Adelbertusweg,31,,48,1935EM,Egmond-Binnen,Bergen (NH.),Noord-Holland,VBO,4.644670,52.595173
Sint Adelbertusweg,31,,49,1935EM,Egmond-Binnen,Bergen (NH.),Noord-Holland,VBO,4.644554,52.595154
Sint Adelbertusweg,31,,5,1935EM,Egmond-Binnen,Bergen (NH.),Noord-Holland,VBO,4.644178,52.596077
Sint Adelbertusweg,31,,50,1935EM,Egmond-Binnen,Bergen (NH.),Noord-Holland,VBO,4.644422,52.595131
Sint Adelbertusweg,31,,51,1935EM,Egmond-Binnen,Bergen (NH.),Noord-Holland,VBO,4.644324,52.595113
Sint Adelbertusweg,31,,52,1935EM,Egmond-Binnen,Bergen (NH.),Noord-Holland,VBO,4.644209,52.595107
Sint Adelbertusweg,31,,53,1935EM,Egmond-Binnen,Bergen (NH.),Noord-Holland,VBO,4.644129,52.595097
Sint Adelbertusweg,31,,54,1935EM,Egmond-Binnen,Bergen (NH.),Noord-Holland,VBO,4.645028,52.595054
Sint Adelbertusweg,31,,55,1935EM,Egmond-Binnen,Bergen (NH.),Noord-Holland,VBO,4.644932,52.595032
Sint Adelbertusweg,31,,56,1935EM,Egmond-Binnen,Bergen (NH.),Noord-Holland,VBO,4.644847,52.595006
Sint Adelbertusweg,31,,57,1935EM,Egmond-Binnen,Bergen (NH.),Noord-Holland,VBO,4.644716,52.594991
Sint Adelbertusweg,31,,58,1935EM,Egmond-Binnen,Bergen (NH.),Noord-Holland,VBO,4.644612,52.594974
Sint Adelbertusweg,31,,59,1935EM,Egmond-Binnen,Bergen (NH.),Noord-Holland,VBO,4.644521,52.594966
Sint Adelbertusweg,31,,6,1935EM,Egmond-Binnen,Bergen (NH.),Noord-Holland,VBO,4.644065,52.596057
Sint Adelbertusweg,31,,60,1935EM,Egmond-Binnen,Bergen (NH.),Noord-Holland,VBO,4.644428,52.594955
Sint Adelbertusweg,31,,62,1935EM,Egmond-Binnen,Bergen (NH.),Noord-Holland,VBO,4.644192,52.594917
Sint Adelbertusweg,31,,63,1935EM,Egmond-Binnen,Bergen (NH.),Noord-Holland,VBO,4.645100,52.594966
Sint Adelbertusweg,31,,64,1935EM,Egmond-Binnen,Bergen (NH.),Noord-Holland,VBO,4.644992,52.594946
Sint Adelbertusweg,31,,65,1935EM,Egmond-Binnen,Bergen (NH.),Noord-Holland,VBO,4.644863,52.594929
Sint Adelbertusweg,31,,66,1935EM,Egmond-Binnen,Bergen (NH.),Noord-Holland,VBO,4.644742,52.594917
Sint Adelbertusweg,31,,67,1935EM,Egmond-Binnen,Bergen (NH.),Noord-Holland,VBO,4.644555,52.594890
Sint Adelbertusweg,31,,68,1935EM,Egmond-Binnen,Bergen (NH.),Noord-Holland,VBO,4.644423,52.594863
Sint Adelbertusweg,31,,69,1935EM,Egmond-Binnen,Bergen (NH.),Noord-Holland,VBO,4.644284,52.594832
Sint Adelbertusweg,31,,7,1935EM,Egmond-Binnen,Bergen (NH.),Noord-Holland,VBO,4.643924,52.596039
Sint Adelbertusweg,31,,70,1935EM,Egmond-Binnen,Bergen (NH.),Noord-Holland,VBO,4.644305,52.594732
Sint Adelbertusweg,31,,71,1935EM,Egmond-Binnen,Bergen (NH.),Noord-Holland,VBO,4.644330,52.594661
Sint Adelbertusweg,31,,72,1935EM,Egmond-Binnen,Bergen (NH.),Noord-Holland,VBO,4.644353,52.594602
Sint Adelbertusweg,31,,73,1935EM,Egmond-Binnen,Bergen (NH.),Noord-Holland,VBO,4.644417,52.594511
Sint Adelbertusweg,31,,74,1935EM,Egmond-Binnen,Bergen (NH.),Noord-Holland,VBO,4.644557,52.594541
Sint Adelbertusweg,31,,75,1935EM,Egmond-Binnen,Bergen (NH.),Noord-Holland,VBO,4.644665,52.594572
Sint Adelbertusweg,31,,76,1935EM,Egmond-Binnen,Bergen (NH.),Noord-Holland,VBO,4.644801,52.594623
Sint Adelbertusweg,31,,77,1935EM,Egmond-Binnen,Bergen (NH.),Noord-Holland,VBO,4.644930,52.594648
Sint Adelbertusweg,31,,78,1935EM,Egmond-Binnen,Bergen (NH.),Noord-Holland,VBO,4.645046,52.594685
Sint Adelbertusweg,31,,79,1935EM,Egmond-Binnen,Bergen (NH.),Noord-Holland,VBO,4.645222,52.594737
Sint Adelbertusweg,31,,8,1935EM,Egmond-Binnen,Bergen (NH.),Noord-Holland,VBO,4.643828,52.596023
Sint Adelbertusweg,31,,9,1935EM,Egmond-Binnen,Bergen (NH.),Noord-Holland,VBO,4.643696,52.596011
Sint Adelbertusweg,31,,,1935EM,Egmond-Binnen,Bergen (NH.),Noord-Holland,VBO,4.644408,52.596189
Sint Adelbertusweg,38,Z,,1935EM,Egmond-Binnen,Bergen (NH.),Noord-Holland,VBO,4.650886,52.596247
Sint Adelbertusweg,38,,,1935EM,Egmond-Binnen,Bergen (NH.),Noord-Holland,VBO,4.650902,52.596166
Sint Adelbertusweg,42,Z,,1935EM,Egmond-Binnen,Bergen (NH.),Noord-Holland,VBO,4.649086,52.596227
Sint Adelbertusweg,42,,Lds,1935EM,Egmond-Binnen,Bergen (NH.),Noord-Holland,VBO,4.649453,52.596310
Sint Adelbertusweg,42,,,1935EM,Egmond-Binnen,Bergen (NH.),Noord-Holland,VBO,4.648969,52.596127
Sint Adelbertusweg,44,,,1935EM,Egmond-Binnen,Bergen (NH.),Noord-Holland,VBO,4.648836,52.596180
Oude Schulpweg,1,,,1935EN,Egmond-Binnen,Bergen (NH.),Noord-Holland,VBO,4.651027,52.598375
Oude Schulpweg,3,Z,,1935EN,Egmond-Binnen,Bergen (NH.),Noord-Holland,VBO,4.650867,52.598260
Oude Schulpweg,3,,,1935EN,Egmond-Binnen,Bergen (NH.),Noord-Holland,VBO,4.650868,52.598215
Oude Schulpweg,5,,,1935EN,Egmond-Binnen,Bergen (NH.),Noord-Holland,VBO,4.650777,52.598331
Oude Schulpweg,7,A,,1935EN,Egmond-Binnen,Bergen (NH.),Noord-Holland,VBO,4.649924,52.598182
Oude Schulpweg,7,B,,1935EN,Egmond-Binnen,Bergen (NH.),Noord-Holland,VBO,4.650175,52.598157
Oude Schulpweg,7,C,,1935EN,Egmond-Binnen,Bergen (NH.),Noord-Holland,VBO,4.650681,52.597926
Oude Schulpweg,7,,,1935EN,Egmond-Binnen,Bergen (NH.),Noord-Holland,VBO,4.650587,52.598276
Oude Schulpweg,8,,,1935EN,Egmond-Binnen,Bergen (NH.),Noord-Holland,VBO,4.649436,52.598251
Oude Schulpweg,9,,,1935EN,Egmond-Binnen,Bergen (NH.),Noord-Holland,VBO,4.649160,52.597962
Oude Schulpweg,10,,,1935EN,Egmond-Binnen,Bergen (NH.),Noord-Holland,VBO,4.649362,52.598233
Oude Schulpweg,11,,,1935EN,Egmond-Binnen,Bergen (NH.),Noord-Holland,VBO,4.648851,52.597915
Oude Schulpweg,13,,,1935EN,Egmond-Binnen,Bergen (NH.),Noord-Holland,VBO,4.648674,52.597887
Oude Schulpweg,17,,BEDR,1935EN,Egmond-Binnen,Bergen (NH.),Noord-Holland,VBO,4.643808,52.596769
Oude Schulpweg,17,,,1935EN,Egmond-Binnen,Bergen (NH.),Noord-Holland,VBO,4.643393,52.596820
Oude Schulpweg,18,,,1935EN,Egmond-Binnen,Bergen (NH.),Noord-Holland,VBO,4.644300,52.597338
Oude Schulpweg,19,Z,,1935EN,Egmond-Binnen,Bergen (NH.),Noord-Holland,VBO,4.642803,52.596808
Oude Schulpweg,19,,,1935EN,Egmond-Binnen,Bergen (NH.),Noord-Holland,VBO,4.643128,52.596792
Oude Schulpweg,20,A,,1935EN,Egmond-Binnen,Bergen (NH.),Noord-Holland,VBO,4.642160,52.596984
Oude Schulpweg,20,Z,,1935EN,Egmond-Binnen,Bergen (NH.),Noord-Holland,VBO,4.642667,52.597023
Oude Schulpweg,20,,,1935EN,Egmond-Binnen,Bergen (NH.),Noord-Holland,VBO,4.642565,52.596932
Oude Schulpweg,21,Z,,1935EN,Egmond-Binnen,Bergen (NH.),Noord-Holland,VBO,4.643513,52.596731
Oude Schulpweg,21,,1,1935EN,Egmond-Binnen,Bergen (NH.),Noord-Holland,VBO,4.642925,52.596473
Oude Schulpweg,21,,10,1935EN,Egmond-Binnen,Bergen (NH.),Noord-Holland,VBO,4.642725,52.596460
Oude Schulpweg,21,,11,1935EN,Egmond-Binnen,Bergen (NH.),Noord-Holland,VBO,4.642488,52.596599
Oude Schulpweg,21,,12,1935EN,Egmond-Binnen,Bergen (NH.),Noord-Holland,VBO,4.642708,52.596581
Oude Schulpweg,21,,13,1935EN,Egmond-Binnen,Bergen (NH.),Noord-Holland,VBO,4.643006,52.596619
Oude Schulpweg,21,,14,1935EN,Egmond-Binnen,Bergen (NH.),Noord-Holland,VBO,4.643263,52.596647
Oude Schulpweg,21,,2,1935EN,Egmond-Binnen,Bergen (NH.),Noord-Holland,VBO,4.643133,52.596525
Oude Schulpweg,21,,3,1935EN,Egmond-Binnen,Bergen (NH.),Noord-Holland,VBO,4.643175,52.596415
Oude Schulpweg,21,,4,1935EN,Egmond-Binnen,Bergen (NH.),Noord-Holland,VBO,4.643242,52.596302
Oude Schulpweg,21,,5,1935EN,Egmond-Binnen,Bergen (NH.),Noord-Holland,VBO,4.643300,52.596184
Oude Schulpweg,21,,6,1935EN,Egmond-Binnen,Bergen (NH.),Noord-Holland,VBO,4.643052,52.596165
Oude Schulpweg,21,,7,1935EN,Egmond-Binnen,Bergen (NH.),Noord-Holland,VBO,4.642849,52.596125
Oude Schulpweg,21,,8,1935EN,Egmond-Binnen,Bergen (NH.),Noord-Holland,VBO,4.642842,52.596236
Oude Schulpweg,21,,9,1935EN,Egmond-Binnen,Bergen (NH.),Noord-Holland,VBO,4.642792,52.596342
Oude Schulpweg,24,,,1935EN,Egmond-Binnen,Bergen (NH.),Noord-Holland,VBO,4.641626,52.596863
Nieuwe Schulpweg,1,,,1935EP,Egmond-Binnen,Bergen (NH.),Noord-Holland,VBO,4.648450,52.594533
Nieuwe Schulpweg,2,A,,1935EP,Egmond-Binnen,Bergen (NH.),Noord-Holland,VBO,4.650955,52.595663
Nieuwe Schulpweg,2,,,1935EP,Egmond-Binnen,Bergen (NH.),Noord-Holland,VBO,4.651060,52.595556
Nieuwe Schulpweg,4,Z,,1935EP,Egmond-Binnen,Bergen (NH.),Noord-Holland,VBO,4.650499,52.595561
Nieuwe Schulpweg,4,,,1935EP,Egmond-Binnen,Bergen (NH.),Noord-Holland,VBO,4.650545,52.595472
Nieuwe Schulpweg,6,,LDS,1935EP,Egmond-Binnen,Bergen (NH.),Noord-Holland,VBO,4.649440,52.595357
Nieuwe Schulpweg,6,,,1935EP,Egmond-Binnen,Bergen (NH.),Noord-Holland,VBO,4.650163,52.595371
Nieuwe Schulpweg,12,,,1935EP,Egmond-Binnen,Bergen (NH.),Noord-Holland,VBO,4.649313,52.595006
Nieuwe Schulpweg,14,,,1935EP,Egmond-Binnen,Bergen (NH.),Noord-Holland,VBO,4.649181,52.594969
Nieuwe Schulpweg,16,,,1935EP,Egmond-Binnen,Bergen (NH.),Noord-Holland,VBO,4.648813,52.594895
Nieuwe Schulpweg,18,,,1935EP,Egmond-Binnen,Bergen (NH.),Noord-Holland,VBO,4.648338,52.595036
Nieuwe Schulpweg,20,A,,1935EP,Egmond-Binnen,Bergen (NH.),Noord-Holland,VBO,4.647522,52.594447
Nieuwe Schulpweg,20,,001,1935EP,Egmond-Binnen,Bergen (NH.),Noord-Holland,VBO,4.648374,52.594650
Nieuwe Schulpweg,20,,002,1935EP,Egmond-Binnen,Bergen (NH.),Noord-Holland,VBO,4.648277,52.594713
Nieuwe Schulpweg,20,,003,1935EP,Egmond-Binnen,Bergen (NH.),Noord-Holland,VBO,4.648254,52.594793
Nieuwe Schulpweg,20,,004,1935EP,Egmond-Binnen,Bergen (NH.),Noord-Holland,VBO,4.648193,52.594873
Nieuwe Schulpweg,20,,005,1935EP,Egmond-Binnen,Bergen (NH.),Noord-Holland,VBO,4.648118,52.594989
Nieuwe Schulpweg,20,,006,1935EP,Egmond-Binnen,Bergen (NH.),Noord-Holland,VBO,4.648000,52.594953
Nieuwe Schulpweg,20,,007,1935EP,Egmond-Binnen,Bergen (NH.),Noord-Holland,VBO,4.647869,52.594880
Nieuwe Schulpweg,20,,008,1935EP,Egmond-Binnen,Bergen (NH.),Noord-Holland,VBO,4.647751,52.594825
Nieuwe Schulpweg,20,,009,1935EP,Egmond-Binnen,Bergen (NH.),Noord-Holland,VBO,4.647812,52.594736
Nieuwe Schulpweg,20,,010,1935EP,Egmond-Binnen,Bergen (NH.),Noord-Holland,VBO,4.647872,52.594691
Nieuwe Schulpweg,20,,011,1935EP,Egmond-Binnen,Bergen (NH.),Noord-Holland,VBO,4.647932,52.594620
Nieuwe Schulpweg,20,,012,1935EP,Egmond-Binnen,Bergen (NH.),Noord-Holland,VBO,4.648022,52.594557
Nieuwe Schulpweg,20,,013,1935EP,Egmond-Binnen,Bergen (NH.),Noord-Holland,VBO,4.647620,52.594771
Nieuwe Schulpweg,20,,013,1935EP,Egmond-Binnen,Bergen (NH.),Noord-Holland,VBO,4.647684,52.594663
Nieuwe Schulpweg,20,,014,1935EP,Egmond-Binnen,Bergen (NH.),Noord-Holland,VBO,4.647429,52.594671
Nieuwe Schulpweg,20,,015,1935EP,Egmond-Binnen,Bergen (NH.),Noord-Holland,VBO,4.647312,52.594616
Nieuwe Schulpweg,20,,016,1935EP,Egmond-Binnen,Bergen (NH.),Noord-Holland,VBO,4.647151,52.594579
Nieuwe Schulpweg,20,,017,1935EP,Egmond-Binnen,Bergen (NH.),Noord-Holland,VBO,4.647048,52.594542
Nieuwe Schulpweg,20,,018,1935EP,Egmond-Binnen,Bergen (NH.),Noord-Holland,VBO,4.646887,52.594479
Nieuwe Schulpweg,20,,019,1935EP,Egmond-Binnen,Bergen (NH.),Noord-Holland,VBO,4.646979,52.594407
Nieuwe Schulpweg,20,,020,1935EP,Egmond-Binnen,Bergen (NH.),Noord-Holland,VBO,4.647110,52.594336
Nieuwe Schulpweg,20,,021,1935EP,Egmond-Binnen,Bergen (NH.),Noord-Holland,VBO,4.647185,52.594283
Nieuwe Schulpweg,20,,022,1935EP,Egmond-Binnen,Bergen (NH.),Noord-Holland,VBO,4.647450,52.594311
Nieuwe Schulpweg,20,,023,1935EP,Egmond-Binnen,Bergen (NH.),Noord-Holland,VBO,4.647346,52.594383
Nieuwe Schulpweg,20,,024,1935EP,Egmond-Binnen,Bergen (NH.),Noord-Holland,VBO,4.647270,52.594508
Nieuwe Schulpweg,20,,025,1935EP,Egmond-Binnen,Bergen (NH.),Noord-Holland,VBO,4.647388,52.594527
Nieuwe Schulpweg,20,,027,1935EP,Egmond-Binnen,Bergen (NH.),Noord-Holland,VBO,4.647769,52.594183
Nieuwe Schulpweg,20,,029,1935EP,Egmond-Binnen,Bergen (NH.),Noord-Holland,VBO,4.647998,52.594225
Nieuwe Schulpweg,20,,,1935EP,Egmond-Binnen,Bergen (NH.),Noord-Holland,VBO,4.647685,52.594412
Meeuwenlaan,25,,,1935ER,Egmond-Binnen,Bergen (NH.),Noord-Holland,VBO,4.652399,52.597550
Meeuwenlaan,27,,,1935ER,Egmond-Binnen,Bergen (NH.),Noord-Holland,VBO,4.652515,52.597713
Meeuwenlaan,29,,,1935ER,Egmond-Binnen,Bergen (NH.),Noord-Holland,VBO,4.652498,52.597830
Meeuwenlaan,31,,,1935ER,Egmond-Binnen,Bergen (NH.),Noord-Holland,VBO,4.652482,52.597919
Meeuwenlaan,33,,,1935ER,Egmond-Binnen,Bergen (NH.),Noord-Holland,VBO,4.652450,52.598054
Meeuwenlaan,35,,,1935ER,Egmond-Binnen,Bergen (NH.),Noord-Holland,VBO,4.652478,52.598153
Meeuwenlaan,37,,,1935ER,Egmond-Binnen,Bergen (NH.),Noord-Holland,VBO,4.652506,52.598252
Meeuwenlaan,39,,,1935ER,Egmond-Binnen,Bergen (NH.),Noord-Holland,VBO,4.652563,52.598378
Meeuwenlaan,41,,,1935ER,Egmond-Binnen,Bergen (NH.),Noord-Holland,VBO,4.652590,52.598477
Meeuwenlaan,43,,,1935ER,Egmond-Binnen,Bergen (NH.),Noord-Holland,VBO,4.652604,52.598567
Meeuwenlaan,51,,,1935ER,Egmond-Binnen,Bergen (NH.),Noord-Holland,VBO,4.653161,52.598804
Haagdoornlaan,3,,,1935ES,Egmond-Binnen,Bergen (NH.),Noord-Holland,VBO,4.653494,52.595634
Haagdoornlaan,5,,,1935ES,Egmond-Binnen,Bergen (NH.),Noord-Holland,VBO,4.653495,52.595598
Haagdoornlaan,7,,,1935ES,Egmond-Binnen,Bergen (NH.),Noord-Holland,VBO,4.653510,52.595544
Haagdoornlaan,9,,,1935ES,Egmond-Binnen,Bergen (NH.),Noord-Holland,VBO,4.653511,52.595490
Meidoornlaan,2,,,1935ET,Egmond-Binnen,Bergen (NH.),Noord-Holland,VBO,4.653786,52.594027
Meidoornlaan,4,,,1935ET,Egmond-Binnen,Bergen (NH.),Noord-Holland,VBO,4.653713,52.594027
Meidoornlaan,6,,,1935ET,Egmond-Binnen,Bergen (NH.),Noord-Holland,VBO,4.653639,52.594026
Meidoornlaan,8,,,1935ET,Egmond-Binnen,Bergen (NH.),Noord-Holland,VBO,4.653550,52.594017
Meidoornlaan,10,,,1935ET,Egmond-Binnen,Bergen (NH.),Noord-Holland,VBO,4.653462,52.594016
Meidoornlaan,12,,,1935ET,Egmond-Binnen,Bergen (NH.),Noord-Holland,VBO,4.653373,52.594015
Haagdoornlaan,4,,,1935EV,Egmond-Binnen,Bergen (NH.),Noord-Holland,VBO,4.653877,52.595645
Haagdoornlaan,6,Z,,1935EV,Egmond-Binnen,Bergen (NH.),Noord-Holland,VBO,4.654190,52.595512
Haagdoornlaan,6,,,1935EV,Egmond-Binnen,Bergen (NH.),Noord-Holland,VBO,4.653879,52.595546
Kerklaan,1,,,1935EV,Egmond-Binnen,Bergen (NH.),Noord-Holland,VBO,4.655721,52.594848
Kerklaan,3,,,1935EV,Egmond-Binnen,Bergen (NH.),Noord-Holland,VBO,4.655559,52.594838
Kerklaan,5,,,1935EV,Egmond-Binnen,Bergen (NH.),Noord-Holland,VBO,4.655456,52.594819
Kerklaan,7,,,1935EV,Egmond-Binnen,Bergen (NH.),Noord-Holland,VBO,4.655338,52.594809
Kerklaan,9,A,,1935EV,Egmond-Binnen,Bergen (NH.),Noord-Holland,VBO,4.655221,52.594728
Kerklaan,9,,,1935EV,Egmond-Binnen,Bergen (NH.),Noord-Holland,VBO,4.655220,52.594782
Kerklaan,11,A,,1935EV,Egmond-Binnen,Bergen (NH.),Noord-Holland,VBO,4.655103,52.594700
Kerklaan,11,,,1935EV,Egmond-Binnen,Bergen (NH.),Noord-Holland,VBO,4.655131,52.594799
Kerkplein,1,Z,,1935EW,Egmond-Binnen,Bergen (NH.),Noord-Holland,VBO,4.654742,52.594240
Kerkplein,1,,,1935EW,Egmond-Binnen,Bergen (NH.),Noord-Holland,VBO,4.654784,52.594402
Kerkplein,2,,,1935EW,Egmond-Binnen,Bergen (NH.),Noord-Holland,VBO,4.655113,52.595532
Kerkplein,3,,,1935EW,Egmond-Binnen,Bergen (NH.),Noord-Holland,VBO,4.654651,52.594392
Kerkplein,4,,,1935EW,Egmond-Binnen,Bergen (NH.),Noord-Holland,VBO,4.654997,52.595522
Kerkplein,5,,,1935EW,Egmond-Binnen,Bergen (NH.),Noord-Holland,VBO,4.654577,52.594391
Kerkplein,6,,,1935EW,Egmond-Binnen,Bergen (NH.),Noord-Holland,VBO,4.654896,52.595539
Kerkplein,7,,,1935EW,Egmond-Binnen,Bergen (NH.),Noord-Holland,VBO,4.654489,52.594382
Kerkplein,8,,,1935EW,Egmond-Binnen,Bergen (NH.),Noord-Holland,VBO,4.654803,52.595531
Kerkplein,9,,,1935EW,Egmond-Binnen,Bergen (NH.),Noord-Holland,VBO,4.654386,52.594372
Kerkplein,10,,,1935EW,Egmond-Binnen,Bergen (NH.),Noord-Holland,VBO,4.654676,52.595371
Kerkplein,11,,,1935EW,Egmond-Binnen,Bergen (NH.),Noord-Holland,VBO,4.654297,52.594381
Kerkplein,12,,,1935EW,Egmond-Binnen,Bergen (NH.),Noord-Holland,VBO,4.654596,52.595370
Kerkplein,13,,,1935EW,Egmond-Binnen,Bergen (NH.),Noord-Holland,VBO,4.654194,52.594362
Kerkplein,14,,,1935EW,Egmond-Binnen,Bergen (NH.),Noord-Holland,VBO,4.654519,52.595364
Kerkplein,15,,,1935EW,Egmond-Binnen,Bergen (NH.),Noord-Holland,VBO,4.654135,52.594371
Kerkplein,16,,,1935EW,Egmond-Binnen,Bergen (NH.),Noord-Holland,VBO,4.654424,52.595326
Kerkplein,18,,,1935EW,Egmond-Binnen,Bergen (NH.),Noord-Holland,VBO,4.654331,52.595320
Kerkplein,20,,,1935EW,Egmond-Binnen,Bergen (NH.),Noord-Holland,VBO,4.654230,52.595315
Kerkplein,22,,,1935EW,Egmond-Binnen,Bergen (NH.),Noord-Holland,VBO,4.654153,52.595311
Kerkplein,24,,,1935EW,Egmond-Binnen,Bergen (NH.),Noord-Holland,VBO,4.654054,52.595308
Kerkplein,25,,,1935EW,Egmond-Binnen,Bergen (NH.),Noord-Holland,VBO,4.653902,52.594750
Kerkplein,26,,,1935EW,Egmond-Binnen,Bergen (NH.),Noord-Holland,VBO,4.653968,52.595300
Kerkplein,27,,,1935EW,Egmond-Binnen,Bergen (NH.),Noord-Holland,VBO,4.654008,52.594918
Kerkplein,28,,,1935EW,Egmond-Binnen,Bergen (NH.),Noord-Holland,VBO,4.653854,52.595295
Esdoornlaan,2,,,1935EX,Egmond-Binnen,Bergen (NH.),Noord-Holland,VBO,4.655190,52.593901
Esdoornlaan,4,,,1935EX,Egmond-Binnen,Bergen (NH.),Noord-Holland,VBO,4.655175,52.593946
Esdoornlaan,6,,,1935EX,Egmond-Binnen,Bergen (NH.),Noord-Holland,VBO,4.655159,52.594008
Esdoornlaan,8,Z,,1935EX,Egmond-Binnen,Bergen (NH.),Noord-Holland,VBO,4.655350,52.594100
Esdoornlaan,8,,,1935EX,Egmond-Binnen,Bergen (NH.),Noord-Holland,VBO,4.655129,52.594053
Esdoornlaan,10,,,1935EX,Egmond-Binnen,Bergen (NH.),Noord-Holland,VBO,4.655127,52.594152
Esdoornlaan,12,,,1935EX,Egmond-Binnen,Bergen (NH.),Noord-Holland,VBO,4.655155,52.594233
Esdoornlaan,14,,,1935EX,Egmond-Binnen,Bergen (NH.),Noord-Holland,VBO,4.655139,52.594323
Esdoornlaan,16,Z,,1935EX,Egmond-Binnen,Bergen (NH.),Noord-Holland,VBO,4.655227,52.594368
Esdoornlaan,16,,,1935EX,Egmond-Binnen,Bergen (NH.),Noord-Holland,VBO,4.655124,52.594368
Esdoornlaan,18,,,1935EX,Egmond-Binnen,Bergen (NH.),Noord-Holland,VBO,4.655123,52.594413
Esdoornlaan,20,,,1935EX,Egmond-Binnen,Bergen (NH.),Noord-Holland,VBO,4.655136,52.594494
Esdoornlaan,22,,,1935EX,Egmond-Binnen,Bergen (NH.),Noord-Holland,VBO,4.655120,52.594574
Esdoornlaan,24,Z,,1935EX,Egmond-Binnen,Bergen (NH.),Noord-Holland,VBO,4.655326,52.594630
Esdoornlaan,24,,,1935EX,Egmond-Binnen,Bergen (NH.),Noord-Holland,VBO,4.655104,52.594646
Esdoornlaan,26,,,1935EX,Egmond-Binnen,Bergen (NH.),Noord-Holland,VBO,4.655010,52.594996
Esdoornlaan,28,,,1935EX,Egmond-Binnen,Bergen (NH.),Noord-Holland,VBO,4.654994,52.595041
Esdoornlaan,30,,,1935EX,Egmond-Binnen,Bergen (NH.),Noord-Holland,VBO,4.654994,52.595086
Esdoornlaan,32,,,1935EX,Egmond-Binnen,Bergen (NH.),Noord-Holland,VBO,4.654978,52.595140
Esdoornlaan,34,,,1935EX,Egmond-Binnen,Bergen (NH.),Noord-Holland,VBO,4.654963,52.595176
Esdoornlaan,36,,,1935EX,Egmond-Binnen,Bergen (NH.),Noord-Holland,VBO,4.654962,52.595221
Esdoornlaan,38,,,1935EX,Egmond-Binnen,Bergen (NH.),Noord-Holland,VBO,4.655098,52.595006
Esdoornlaan,40,,,1935EX,Egmond-Binnen,Bergen (NH.),Noord-Holland,VBO,4.655083,52.595051
Esdoornlaan,42,,,1935EX,Egmond-Binnen,Bergen (NH.),Noord-Holland,VBO,4.655067,52.595095
Esdoornlaan,44,,,1935EX,Egmond-Binnen,Bergen (NH.),Noord-Holland,VBO,4.655037,52.595140
Esdoornlaan,46,,,1935EX,Egmond-Binnen,Bergen (NH.),Noord-Holland,VBO,4.655036,52.595176
Esdoornlaan,48,,,1935EX,Egmond-Binnen,Bergen (NH.),Noord-Holland,VBO,4.655035,52.595239
Esdoornlaan,50,,,1935EX,Egmond-Binnen,Bergen (NH.),Noord-Holland,VBO,4.654975,52.595302
Esdoornlaan,52,,,1935EX,Egmond-Binnen,Bergen (NH.),Noord-Holland,VBO,4.655050,52.595275
Esdoornlaan,54,,,1935EX,Egmond-Binnen,Bergen (NH.),Noord-Holland,VBO,4.655019,52.595329
Meidoornlaan,1,Z,,1935EX,Egmond-Binnen,Bergen (NH.),Noord-Holland,VBO,4.654777,52.593907
Meidoornlaan,1,,,1935EX,Egmond-Binnen,Bergen (NH.),Noord-Holland,VBO,4.654776,52.594006
Meidoornlaan,3,,,1935EX,Egmond-Binnen,Bergen (NH.),Noord-Holland,VBO,4.654672,52.594041
Meidoornlaan,5,,,1935EX,Egmond-Binnen,Bergen (NH.),Noord-Holland,VBO,4.654583,52.594041
Meidoornlaan,7,,,1935EX,Egmond-Binnen,Bergen (NH.),Noord-Holland,VBO,4.654495,52.594031
Meidoornlaan,9,,,1935EX,Egmond-Binnen,Bergen (NH.),Noord-Holland,VBO,4.654421,52.594031
Meidoornlaan,11,,,1935EX,Egmond-Binnen,Bergen (NH.),Noord-Holland,VBO,4.654332,52.594030
Meidoornlaan,13,,,1935EX,Egmond-Binnen,Bergen (NH.),Noord-Holland,VBO,4.654230,52.593994
Meidoornlaan,15,,,1935EX,Egmond-Binnen,Bergen (NH.),Noord-Holland,VBO,4.654141,52.594020
Meidoornlaan,17,,,1935EX,Egmond-Binnen,Bergen (NH.),Noord-Holland,VBO,4.653124,52.593942
Meidoornlaan,19,,,1935EX,Egmond-Binnen,Bergen (NH.),Noord-Holland,VBO,4.653050,52.593951
Meidoornlaan,21,,,1935EX,Egmond-Binnen,Bergen (NH.),Noord-Holland,VBO,4.652974,52.594085
Meidoornlaan,23,,,1935EX,Egmond-Binnen,Bergen (NH.),Noord-Holland,VBO,4.652958,52.594148
Duinweg,1,,,1935EZ,Egmond-Binnen,Bergen (NH.),Noord-Holland,VBO,4.652603,52.593274
Duinweg,2,,,1935EZ,Egmond-Binnen,Bergen (NH.),Noord-Holland,VBO,4.655577,52.593741
Duinweg,3,,,1935EZ,Egmond-Binnen,Bergen (NH.),Noord-Holland,VBO,4.654121,52.593400
Duinweg,4,Z,,1935EZ,Egmond-Binnen,Bergen (NH.),Noord-Holland,VBO,4.655384,52.593821
Duinweg,4,,,1935EZ,Egmond-Binnen,Bergen (NH.),Noord-Holland,VBO,4.655444,52.593723
Duinweg,5,,,1935EZ,Egmond-Binnen,Bergen (NH.),Noord-Holland,VBO,4.654033,52.593399
Duinweg,6,,,1935EZ,Egmond-Binnen,Bergen (NH.),Noord-Holland,VBO,4.655327,52.593704
Duinweg,7,,,1935EZ,Egmond-Binnen,Bergen (NH.),Noord-Holland,VBO,4.653944,52.593399
Duinweg,8,,,1935EZ,Egmond-Binnen,Bergen (NH.),Noord-Holland,VBO,4.655209,52.593685
Duinweg,9,,,1935EZ,Egmond-Binnen,Bergen (NH.),Noord-Holland,VBO,4.653856,52.593389
Duinweg,10,,,1935EZ,Egmond-Binnen,Bergen (NH.),Noord-Holland,VBO,4.654827,52.593593
Duinweg,11,,,1935EZ,Egmond-Binnen,Bergen (NH.),Noord-Holland,VBO,4.653752,52.593425
Duinweg,12,,,1935EZ,Egmond-Binnen,Bergen (NH.),Noord-Holland,VBO,4.654738,52.593583
Duinweg,13,,,1935EZ,Egmond-Binnen,Bergen (NH.),Noord-Holland,VBO,4.653692,52.593469
Duinweg,14,,,1935EZ,Egmond-Binnen,Bergen (NH.),Noord-Holland,VBO,4.654650,52.593583
Duinweg,15,,,1935EZ,Egmond-Binnen,Bergen (NH.),Noord-Holland,VBO,4.653647,52.593505
Duinweg,16,,,1935EZ,Egmond-Binnen,Bergen (NH.),Noord-Holland,VBO,4.654547,52.593573
Duinweg,17,,,1935EZ,Egmond-Binnen,Bergen (NH.),Noord-Holland,VBO,4.653588,52.593549
Duinweg,18,,,1935EZ,Egmond-Binnen,Bergen (NH.),Noord-Holland,VBO,4.654473,52.593573
Duinweg,19,,,1935EZ,Egmond-Binnen,Bergen (NH.),Noord-Holland,VBO,4.653528,52.593585
Duinweg,20,,,1935EZ,Egmond-Binnen,Bergen (NH.),Noord-Holland,VBO,4.654384,52.593572
Duinweg,21,,,1935EZ,Egmond-Binnen,Bergen (NH.),Noord-Holland,VBO,4.653438,52.593665
Duinweg,22,,,1935EZ,Egmond-Binnen,Bergen (NH.),Noord-Holland,VBO,4.654296,52.593572
Duinweg,23,,,1935EZ,Egmond-Binnen,Bergen (NH.),Noord-Holland,VBO,4.653393,52.593710
Duinweg,24,,,1935EZ,Egmond-Binnen,Bergen (NH.),Noord-Holland,VBO,4.654193,52.593562
Duinweg,25,,,1935EZ,Egmond-Binnen,Bergen (NH.),Noord-Holland,VBO,4.653334,52.593746
Duinweg,26,,,1935EZ,Egmond-Binnen,Bergen (NH.),Noord-Holland,VBO,4.653981,52.593857
Duinweg,27,,,1935EZ,Egmond-Binnen,Bergen (NH.),Noord-Holland,VBO,4.653274,52.593790
Duinweg,28,,,1935EZ,Egmond-Binnen,Bergen (NH.),Noord-Holland,VBO,4.653892,52.593857
Duinweg,29,,,1935EZ,Egmond-Binnen,Bergen (NH.),Noord-Holland,VBO,4.653244,52.593826
Duinweg,30,,,1935EZ,Egmond-Binnen,Bergen (NH.),Noord-Holland,VBO,4.653819,52.593856
Duinweg,32,,,1935EZ,Egmond-Binnen,Bergen (NH.),Noord-Holland,VBO,4.653730,52.593856
Duinweg,34,,,1935EZ,Egmond-Binnen,Bergen (NH.),Noord-Holland,VBO,4.653642,52.593855
Duinweg,36,,,1935EZ,Egmond-Binnen,Bergen (NH.),Noord-Holland,VBO,4.653568,52.593846
Snoeckenburg,1,,,1935GA,Egmond-Binnen,Bergen (NH.),Noord-Holland,VBO,4.653928,52.594378
Snoeckenburg,3,,,1935GA,Egmond-Binnen,Bergen (NH.),Noord-Holland,VBO,4.653840,52.594369
Snoeckenburg,5,,,1935GA,Egmond-Binnen,Bergen (NH.),Noord-Holland,VBO,4.653751,52.594368
Snoeckenburg,7,,,1935GA,Egmond-Binnen,Bergen (NH.),Noord-Holland,VBO,4.653677,52.594368
Snoeckenburg,9,,,1935GA,Egmond-Binnen,Bergen (NH.),Noord-Holland,VBO,4.653515,52.594358
Snoeckenburg,11,,,1935GA,Egmond-Binnen,Bergen (NH.),Noord-Holland,VBO,4.653427,52.594357
Snoeckenburg,13,,,1935GA,Egmond-Binnen,Bergen (NH.),Noord-Holland,VBO,4.653338,52.594348
Snoeckenburg,15,,,1935GA,Egmond-Binnen,Bergen (NH.),Noord-Holland,VBO,4.652984,52.594337
Snoeckenburg,17,,,1935GA,Egmond-Binnen,Bergen (NH.),Noord-Holland,VBO,4.652895,52.594354
Snoeckenburg,19,,,1935GA,Egmond-Binnen,Bergen (NH.),Noord-Holland,VBO,4.652717,52.594416
Snoeckenburg,21,,,1935GA,Egmond-Binnen,Bergen (NH.),Noord-Holland,VBO,4.652687,52.594452
Snoeckenburg,23,,,1935GA,Egmond-Binnen,Bergen (NH.),Noord-Holland,VBO,4.652597,52.594568
Snoeckenburg,25,,,1935GA,Egmond-Binnen,Bergen (NH.),Noord-Holland,VBO,4.652581,52.594640
Snoeckenburg,27,,,1935GA,Egmond-Binnen,Bergen (NH.),Noord-Holland,VBO,4.652549,52.594747
Snoeckenburg,29,,,1935GA,Egmond-Binnen,Bergen (NH.),Noord-Holland,VBO,4.652533,52.594873
Snoeckenburg,31,,,1935GA,Egmond-Binnen,Bergen (NH.),Noord-Holland,VBO,4.652501,52.595008
Snoeckenburg,33,,,1935GA,Egmond-Binnen,Bergen (NH.),Noord-Holland,VBO,4.652470,52.595106
Snoeckenburg,2,,,1935GB,Egmond-Binnen,Bergen (NH.),Noord-Holland,VBO,4.653512,52.594520
Snoeckenburg,4,,,1935GB,Egmond-Binnen,Bergen (NH.),Noord-Holland,VBO,4.653424,52.594510
Snoeckenburg,6,,,1935GB,Egmond-Binnen,Bergen (NH.),Noord-Holland,VBO,4.653336,52.594510
Snoeckenburg,8,,,1935GB,Egmond-Binnen,Bergen (NH.),Noord-Holland,VBO,4.653262,52.594509
Snoeckenburg,10,,,1935GB,Egmond-Binnen,Bergen (NH.),Noord-Holland,VBO,4.653188,52.594527
Snoeckenburg,12,,,1935GB,Egmond-Binnen,Bergen (NH.),Noord-Holland,VBO,4.653114,52.594526
Snoeckenburg,14,,,1935GB,Egmond-Binnen,Bergen (NH.),Noord-Holland,VBO,4.653025,52.594517
Snoeckenburg,16,,,1935GB,Egmond-Binnen,Bergen (NH.),Noord-Holland,VBO,4.652952,52.594516
Snoeckenburg,18,,,1935GB,Egmond-Binnen,Bergen (NH.),Noord-Holland,VBO,4.652904,52.594723
Snoeckenburg,20,,,1935GB,Egmond-Binnen,Bergen (NH.),Noord-Holland,VBO,4.652903,52.594759
Snoeckenburg,22,,,1935GB,Egmond-Binnen,Bergen (NH.),Noord-Holland,VBO,4.652902,52.594812
Snoeckenburg,24,,,1935GB,Egmond-Binnen,Bergen (NH.),Noord-Holland,VBO,4.652887,52.594848
Snoeckenburg,26,,,1935GB,Egmond-Binnen,Bergen (NH.),Noord-Holland,VBO,4.652869,52.595055
Snoeckenburg,28,,,1935GB,Egmond-Binnen,Bergen (NH.),Noord-Holland,VBO,4.652957,52.595055
Snoeckenburg,30,,,1935GB,Egmond-Binnen,Bergen (NH.),Noord-Holland,VBO,4.653046,52.595056
Snoeckenburg,32,,,1935GB,Egmond-Binnen,Bergen (NH.),Noord-Holland,VBO,4.653120,52.595056
Snoeckenburg,34,,,1935GB,Egmond-Binnen,Bergen (NH.),Noord-Holland,VBO,4.653193,52.595066
Snoeckenburg,36,,,1935GB,Egmond-Binnen,Bergen (NH.),Noord-Holland,VBO,4.653282,52.595066
Snoeckenburg,38,,,1935GB,Egmond-Binnen,Bergen (NH.),Noord-Holland,VBO,4.653356,52.595067
Snoeckenburg,40,,,1935GB,Egmond-Binnen,Bergen (NH.),Noord-Holland,VBO,4.653444,52.595076
Snoeckenburg,43,,,1935GC,Egmond-Binnen,Bergen (NH.),Noord-Holland,VBO,4.652881,52.595217
Snoeckenburg,45,,,1935GC,Egmond-Binnen,Bergen (NH.),Noord-Holland,VBO,4.652955,52.595217
Snoeckenburg,47,,,1935GC,Egmond-Binnen,Bergen (NH.),Noord-Holland,VBO,4.653028,52.595227
Snoeckenburg,49,,,1935GC,Egmond-Binnen,Bergen (NH.),Noord-Holland,VBO,4.653117,52.595227
Snoeckenburg,51,,,1935GC,Egmond-Binnen,Bergen (NH.),Noord-Holland,VBO,4.653191,52.595228
Snoeckenburg,53,,,1935GC,Egmond-Binnen,Bergen (NH.),Noord-Holland,VBO,4.653264,52.595237
Snoeckenburg,55,,,1935GC,Egmond-Binnen,Bergen (NH.),Noord-Holland,VBO,4.653353,52.595238
Snoeckenburg,57,,,1935GC,Egmond-Binnen,Bergen (NH.),Noord-Holland,VBO,4.653427,52.595238
Snoeckenburg,59,,,1935GC,Egmond-Binnen,Bergen (NH.),Noord-Holland,VBO,4.653515,52.595239
Westerkroft,1,,,1935GD,Egmond-Binnen,Bergen (NH.),Noord-Holland,VBO,4.653492,52.594888
Westerkroft,3,,,1935GD,Egmond-Binnen,Bergen (NH.),Noord-Holland,VBO,4.653492,52.594834
Westerkroft,5,,,1935GD,Egmond-Binnen,Bergen (NH.),Noord-Holland,VBO,4.653508,52.594780
Westerkroft,7,,,1935GD,Egmond-Binnen,Bergen (NH.),Noord-Holland,VBO,4.653509,52.594735
Picardushofstee,1,,,1935GE,Egmond-Binnen,Bergen (NH.),Noord-Holland,VBO,4.652992,52.595622
Picardushofstee,2,,,1935GE,Egmond-Binnen,Bergen (NH.),Noord-Holland,VBO,4.652585,52.595269
Picardushofstee,4,,,1935GE,Egmond-Binnen,Bergen (NH.),Noord-Holland,VBO,4.652509,52.595385
Picardushofstee,6,,,1935GE,Egmond-Binnen,Bergen (NH.),Noord-Holland,VBO,4.652448,52.595502
Picardushofstee,8,,,1935GE,Egmond-Binnen,Bergen (NH.),Noord-Holland,VBO,4.652461,52.595637
Kerklaan,2,,,1935GG,Egmond-Binnen,Bergen (NH.),Noord-Holland,VBO,4.655495,52.595098
Kerklaan,4,,,1935GG,Egmond-Binnen,Bergen (NH.),Noord-Holland,VBO,4.655495,52.595134
Kerklaan,6,,,1935GG,Egmond-Binnen,Bergen (NH.),Noord-Holland,VBO,4.655494,52.595170
Kerklaan,8,,,1935GG,Egmond-Binnen,Bergen (NH.),Noord-Holland,VBO,4.655493,52.595206
Heegemundehof,1,,,1935GH,Egmond-Binnen,Bergen (NH.),Noord-Holland,VBO,4.655204,52.593065
Heegemundehof,2,,,1935GH,Egmond-Binnen,Bergen (NH.),Noord-Holland,VBO,4.655175,52.593065
Heegemundehof,3,,,1935GH,Egmond-Binnen,Bergen (NH.),Noord-Holland,VBO,4.655264,52.593030
Heegemundehof,4,,,1935GH,Egmond-Binnen,Bergen (NH.),Noord-Holland,VBO,4.655235,52.593011
Heegemundehof,5,,,1935GH,Egmond-Binnen,Bergen (NH.),Noord-Holland,VBO,4.655205,52.593002
Heegemundehof,6,,,1935GH,Egmond-Binnen,Bergen (NH.),Noord-Holland,VBO,4.655176,52.593011
Heegemundehof,7,,,1935GH,Egmond-Binnen,Bergen (NH.),Noord-Holland,VBO,4.655146,52.593029
Heegemundehof,8,,,1935GH,Egmond-Binnen,Bergen (NH.),Noord-Holland,VBO,4.655131,52.593047
Heegemundehof,9,,,1935GH,Egmond-Binnen,Bergen (NH.),Noord-Holland,VBO,4.655145,52.593065
Heegemundehof,10,,,1935GH,Egmond-Binnen,Bergen (NH.),Noord-Holland,VBO,4.655234,52.593047
Heegemundehof,11,,,1935GH,Egmond-Binnen,Bergen (NH.),Noord-Holland,VBO,4.655205,52.593029
Heegemundehof,12,,,1935GH,Egmond-Binnen,Bergen (NH.),Noord-Holland,VBO,4.655175,52.593047
Heegemundehof,13,,,1935GH,Egmond-Binnen,Bergen (NH.),Noord-Holland,VBO,4.655204,52.593074
Heegemundehof,14,,,1935GH,Egmond-Binnen,Bergen (NH.),Noord-Holland,VBO,4.655234,52.593065
Heegemundehof,15,,,1935GH,Egmond-Binnen,Bergen (NH.),Noord-Holland,VBO,4.655249,52.593047
Heegemundehof,16,,,1935GH,Egmond-Binnen,Bergen (NH.),Noord-Holland,VBO,4.655234,52.593029
Heegemundehof,17,,,1935GH,Egmond-Binnen,Bergen (NH.),Noord-Holland,VBO,4.655205,52.593020
Heegemundehof,18,,,1935GH,Egmond-Binnen,Bergen (NH.),Noord-Holland,VBO,4.655175,52.593029
Heegemundehof,19,,,1935GH,Egmond-Binnen,Bergen (NH.),Noord-Holland,VBO,4.655160,52.593047
Heegemundehof,20,,,1935GH,Egmond-Binnen,Bergen (NH.),Noord-Holland,VBO,4.655204,52.593092
Heegemundehof,21,,,1935GH,Egmond-Binnen,Bergen (NH.),Noord-Holland,VBO,4.655234,52.593083
Heegemundehof,22,,,1935GH,Egmond-Binnen,Bergen (NH.),Noord-Holland,VBO,4.655263,52.593065
Heegemundehof,23,,,1935GH,Egmond-Binnen,Bergen (NH.),Noord-Holland,VBO,4.655278,52.593048
Heegemundehof,24,,,1935GH,Egmond-Binnen,Bergen (NH.),Noord-Holland,VBO,4.655451,52.593327
Heegemundehof,25,,,1935GH,Egmond-Binnen,Bergen (NH.),Noord-Holland,VBO,4.655367,52.593102
Heegemundehof,26,,,1935GH,Egmond-Binnen,Bergen (NH.),Noord-Holland,VBO,4.655430,52.593111
Heegemundehof,27,,,1935GH,Egmond-Binnen,Bergen (NH.),Noord-Holland,VBO,4.655648,52.593025
Strand Egmond-Binnen,1,,,1935GZ,Egmond-Binnen,Bergen (NH.),Noord-Holland,STA,4.616088,52.598199
Strand Egmond-Binnen,2,,,1935GZ,Egmond-Binnen,Bergen (NH.),Noord-Holland,STA,4.615523,52.596059
Staringweg,1,,,1935MZ,Egmond-Binnen,Bergen (NH.),Noord-Holland,VBO,4.632297,52.579432
Staringweg,2,,,1935MZ,Egmond-Binnen,Bergen (NH.),Noord-Holland,VBO,4.631776,52.579689
Staringweg,3,,,1935MZ,Egmond-Binnen,Bergen (NH.),Noord-Holland,VBO,4.631004,52.579109
