openbareruimtenaam,huisnummer,huisletter,huisnummertoevoeging,postcode,woonplaatsnaam,gemeentenaam,provincienaam,typeadresseerbaarobject,longitude,latitude
Waterweg,1,A,,1969GA,Heemskerk,Heemskerk,Noord-Holland,VBO,4.615073,52.500706
Waterweg,1,,,1969GA,Heemskerk,Heemskerk,Noord-Holland,VBO,4.617602,52.501590
Zwarteweg,2,,,1969GA,Heemskerk,Heemskerk,Noord-Holland,STA,4.596941,52.524159
Wim Mensinkstraat,6,,,1969GB,Heemskerk,Heemskerk,Noord-Holland,VBO,4.602430,52.500643
Wim Mensinkstraat,7,,,1969GB,Heemskerk,Heemskerk,Noord-Holland,VBO,4.602104,52.501382
Strengweg,1,A,,1969KP,Heemskerk,Heemskerk,Noord-Holland,VBO,4.653566,52.506981
Strengweg,1,C,,1969KP,Heemskerk,Heemskerk,Noord-Holland,VBO,4.653273,52.506911
Strengweg,1,,,1969KP,Heemskerk,Heemskerk,Noord-Holland,VBO,4.652670,52.506858
Strengweg,3,,,1969KP,Heemskerk,Heemskerk,Noord-Holland,VBO,4.652251,52.506744
Strengweg,5,,,1969KP,Heemskerk,Heemskerk,Noord-Holland,VBO,4.650772,52.506582
Strengweg,7,,,1969KP,Heemskerk,Heemskerk,Noord-Holland,VBO,4.650646,52.506557
Strengweg,9,A,,1969KP,Heemskerk,Heemskerk,Noord-Holland,VBO,4.650075,52.506361
Strengweg,9,B,,1969KP,Heemskerk,Heemskerk,Noord-Holland,VBO,4.649806,52.506352
Strengweg,9,C,,1969KP,Heemskerk,Heemskerk,Noord-Holland,VBO,4.649387,52.505962
Strengweg,9,D,,1969KP,Heemskerk,Heemskerk,Noord-Holland,VBO,4.648528,52.506064
Strengweg,9,,,1969KP,Heemskerk,Heemskerk,Noord-Holland,VBO,4.650417,52.506465
Strengweg,11,,,1969KP,Heemskerk,Heemskerk,Noord-Holland,VBO,4.648261,52.505973
Strengweg,13,,,1969KP,Heemskerk,Heemskerk,Noord-Holland,VBO,4.648159,52.505956
Strengweg,15,A,,1969KP,Heemskerk,Heemskerk,Noord-Holland,VBO,4.647088,52.505801
Strengweg,15,B,,1969KP,Heemskerk,Heemskerk,Noord-Holland,VBO,4.647888,52.505966
Strengweg,15,,,1969KP,Heemskerk,Heemskerk,Noord-Holland,VBO,4.647667,52.505886
Kleine Houtweg,1,,,1969KR,Heemskerk,Heemskerk,Noord-Holland,VBO,4.652704,52.512055
Kleine Houtweg,2,,,1969KR,Heemskerk,Heemskerk,Noord-Holland,VBO,4.652076,52.512676
Kleine Houtweg,6,,,1969KR,Heemskerk,Heemskerk,Noord-Holland,VBO,4.652200,52.512304
Kleine Houtweg,8,,,1969KR,Heemskerk,Heemskerk,Noord-Holland,VBO,4.652001,52.512022
Kleine Houtweg,10,A,,1969KR,Heemskerk,Heemskerk,Noord-Holland,VBO,4.651907,52.511782
Kleine Houtweg,10,,,1969KR,Heemskerk,Heemskerk,Noord-Holland,VBO,4.651871,52.511736
Kleine Houtweg,12,,,1969KR,Heemskerk,Heemskerk,Noord-Holland,VBO,4.651764,52.511479
Kleine Houtweg,16,,,1969KR,Heemskerk,Heemskerk,Noord-Holland,VBO,4.649455,52.510730
Kleine Houtweg,18,,,1969KR,Heemskerk,Heemskerk,Noord-Holland,VBO,4.649409,52.510615
Kleine Houtweg,20,,,1969KR,Heemskerk,Heemskerk,Noord-Holland,VBO,4.651345,52.510907
Kleine Houtweg,22,,,1969KR,Heemskerk,Heemskerk,Noord-Holland,VBO,4.651402,52.510301
Kleine Houtweg,24,,,1969KR,Heemskerk,Heemskerk,Noord-Holland,VBO,4.651395,52.510240
Kleine Houtweg,26,,,1969KR,Heemskerk,Heemskerk,Noord-Holland,VBO,4.651365,52.509889
Kleine Houtweg,28,A,,1969KR,Heemskerk,Heemskerk,Noord-Holland,VBO,4.651086,52.509314
Kleine Houtweg,28,B,,1969KR,Heemskerk,Heemskerk,Noord-Holland,VBO,4.651112,52.509200
Kleine Houtweg,28,,,1969KR,Heemskerk,Heemskerk,Noord-Holland,VBO,4.651274,52.509567
Kleine Houtweg,30,,,1969KR,Heemskerk,Heemskerk,Noord-Holland,VBO,4.648794,52.508996
Kleine Houtweg,19,,,1969KS,Heemskerk,Heemskerk,Noord-Holland,VBO,4.651721,52.508651
Kleine Houtweg,21,,,1969KS,Heemskerk,Heemskerk,Noord-Holland,VBO,4.651726,52.508311
Kleine Houtweg,25,,,1969KS,Heemskerk,Heemskerk,Noord-Holland,VBO,4.651735,52.508055
Kleine Houtweg,29,,,1969KS,Heemskerk,Heemskerk,Noord-Holland,VBO,4.651561,52.507586
Kleine Houtweg,31,,,1969KS,Heemskerk,Heemskerk,Noord-Holland,VBO,4.651399,52.507227
Kleine Houtweg,32,,,1969KS,Heemskerk,Heemskerk,Noord-Holland,VBO,4.651170,52.508988
Kleine Houtweg,34,,,1969KS,Heemskerk,Heemskerk,Noord-Holland,VBO,4.651217,52.508729
Kleine Houtweg,36,,,1969KS,Heemskerk,Heemskerk,Noord-Holland,VBO,4.651222,52.508293
Kleine Houtweg,38,,,1969KS,Heemskerk,Heemskerk,Noord-Holland,VBO,4.651277,52.507906
Kleine Houtweg,40,,,1969KS,Heemskerk,Heemskerk,Noord-Holland,VBO,4.651002,52.507613
Kleine Houtweg,42,,,1969KS,Heemskerk,Heemskerk,Noord-Holland,VBO,4.651007,52.507298
Kleine Houtweg,44,P,,1969KS,Heemskerk,Heemskerk,Noord-Holland,VBO,4.650908,52.507133
Kleine Houtweg,46,,,1969KT,Heemskerk,Heemskerk,Noord-Holland,VBO,4.650678,52.506415
Kleine Houtweg,48,,,1969KT,Heemskerk,Heemskerk,Noord-Holland,VBO,4.650635,52.506315
Kleine Houtweg,50,,,1969KT,Heemskerk,Heemskerk,Noord-Holland,VBO,4.650643,52.506293
Kleine Houtweg,54,A,,1969KT,Heemskerk,Heemskerk,Noord-Holland,VBO,4.650440,52.506191
Kleine Houtweg,54,,,1969KT,Heemskerk,Heemskerk,Noord-Holland,VBO,4.650437,52.506036
Kleine Houtweg,58,,,1969KT,Heemskerk,Heemskerk,Noord-Holland,VBO,4.650543,52.505295
Kleine Houtweg,60,,,1969KT,Heemskerk,Heemskerk,Noord-Holland,VBO,4.650560,52.505080
Kleine Houtweg,62,,,1969KT,Heemskerk,Heemskerk,Noord-Holland,VBO,4.650531,52.504884
Kleine Houtweg,64,,,1969KT,Heemskerk,Heemskerk,Noord-Holland,VBO,4.650520,52.504812
Kleine Houtweg,66,,,1969KT,Heemskerk,Heemskerk,Noord-Holland,VBO,4.650421,52.504409
Kleine Houtweg,68,,,1969KT,Heemskerk,Heemskerk,Noord-Holland,VBO,4.650404,52.504347
Kleine Houtweg,70,,,1969KT,Heemskerk,Heemskerk,Noord-Holland,VBO,4.650259,52.503920
Kleine Houtweg,72,,,1969KT,Heemskerk,Heemskerk,Noord-Holland,VBO,4.650170,52.503597
Kleine Houtweg,74,,,1969KT,Heemskerk,Heemskerk,Noord-Holland,VBO,4.650141,52.503408
Kleine Houtweg,76,,,1969KT,Heemskerk,Heemskerk,Noord-Holland,VBO,4.650085,52.503159
Kleine Houtweg,78,A,,1969KT,Heemskerk,Heemskerk,Noord-Holland,VBO,4.649992,52.502088
Kleine Houtweg,78,,,1969KT,Heemskerk,Heemskerk,Noord-Holland,VBO,4.650049,52.502634
Kleine Houtweg,80,,,1969KT,Heemskerk,Heemskerk,Noord-Holland,VBO,4.650084,52.501879
Kleine Houtweg,82,,,1969KT,Heemskerk,Heemskerk,Noord-Holland,VBO,4.649757,52.501524
Kleine Houtweg,35,,,1969KV,Heemskerk,Heemskerk,Noord-Holland,VBO,4.651171,52.506404
Kleine Houtweg,39,,,1969KV,Heemskerk,Heemskerk,Noord-Holland,VBO,4.651063,52.505794
Kleine Houtweg,41,,,1969KV,Heemskerk,Heemskerk,Noord-Holland,VBO,4.651055,52.505535
Kleine Houtweg,43,,,1969KV,Heemskerk,Heemskerk,Noord-Holland,VBO,4.651050,52.505285
Kleine Houtweg,45,,,1969KV,Heemskerk,Heemskerk,Noord-Holland,VBO,4.651044,52.505036
Kleine Houtweg,47,,,1969KV,Heemskerk,Heemskerk,Noord-Holland,VBO,4.651058,52.504800
Kleine Houtweg,49,,,1969KV,Heemskerk,Heemskerk,Noord-Holland,VBO,4.650919,52.504568
Kleine Houtweg,51,,,1969KV,Heemskerk,Heemskerk,Noord-Holland,VBO,4.650903,52.504322
Kleine Houtweg,53,,,1969KV,Heemskerk,Heemskerk,Noord-Holland,VBO,4.650796,52.504089
Kleine Houtweg,69,,,1969KV,Heemskerk,Heemskerk,Noord-Holland,VBO,4.650726,52.503836
Kleine Houtweg,71,,,1969KV,Heemskerk,Heemskerk,Noord-Holland,VBO,4.650617,52.503579
Kleine Houtweg,73,,,1969KV,Heemskerk,Heemskerk,Noord-Holland,VBO,4.650581,52.503275
Kleine Houtweg,75,,,1969KV,Heemskerk,Heemskerk,Noord-Holland,VBO,4.650544,52.502467
Kleine Houtweg,77,,,1969KV,Heemskerk,Heemskerk,Noord-Holland,VBO,4.650664,52.502254
Kleine Houtweg,81,,,1969KV,Heemskerk,Heemskerk,Noord-Holland,VBO,4.650588,52.501846
Kleine Houtweg,83,,,1969KV,Heemskerk,Heemskerk,Noord-Holland,VBO,4.650644,52.501532
Kleine Houtweg,89,,,1969KV,Heemskerk,Heemskerk,Noord-Holland,VBO,4.650430,52.501137
Kleine Houtweg,91,,,1969KV,Heemskerk,Heemskerk,Noord-Holland,VBO,4.650348,52.500818
Kleine Houtweg,95,,,1969KV,Heemskerk,Heemskerk,Noord-Holland,VBO,4.650029,52.500446
Kleine Houtweg,97,,,1969KV,Heemskerk,Heemskerk,Noord-Holland,VBO,4.650085,52.500270
Rijksstraatweg,13,,,1969LB,Heemskerk,Heemskerk,Noord-Holland,VBO,4.655988,52.501770
Rijksstraatweg,17,,,1969LB,Heemskerk,Heemskerk,Noord-Holland,VBO,4.655864,52.502302
Rijksstraatweg,19,A,,1969LB,Heemskerk,Heemskerk,Noord-Holland,VBO,4.655765,52.502458
Rijksstraatweg,19,B,,1969LB,Heemskerk,Heemskerk,Noord-Holland,VBO,4.655677,52.502588
Rijksstraatweg,19,,,1969LB,Heemskerk,Heemskerk,Noord-Holland,VBO,4.655765,52.502458
Rijksstraatweg,21,A,,1969LB,Heemskerk,Heemskerk,Noord-Holland,VBO,4.655273,52.502809
Rijksstraatweg,21,B,,1969LB,Heemskerk,Heemskerk,Noord-Holland,VBO,4.655503,52.502847
Rijksstraatweg,21,C,,1969LB,Heemskerk,Heemskerk,Noord-Holland,VBO,4.655603,52.503041
Rijksstraatweg,21,,,1969LB,Heemskerk,Heemskerk,Noord-Holland,VBO,4.655601,52.502718
Rijksstraatweg,23,A,,1969LB,Heemskerk,Heemskerk,Noord-Holland,VBO,4.655188,52.503443
Rijksstraatweg,23,B,,1969LB,Heemskerk,Heemskerk,Noord-Holland,VBO,4.655167,52.503493
Rijksstraatweg,23,,,1969LB,Heemskerk,Heemskerk,Noord-Holland,VBO,4.655634,52.503206
Rijksstraatweg,25,A,,1969LB,Heemskerk,Heemskerk,Noord-Holland,VBO,4.655343,52.503633
Rijksstraatweg,25,B,,1969LB,Heemskerk,Heemskerk,Noord-Holland,VBO,4.655343,52.503633
Rijksstraatweg,25,,,1969LB,Heemskerk,Heemskerk,Noord-Holland,VBO,4.655343,52.503633
Rijksstraatweg,27,,,1969LB,Heemskerk,Heemskerk,Noord-Holland,VBO,4.655254,52.503868
Rijksstraatweg,35,A,,1969LB,Heemskerk,Heemskerk,Noord-Holland,VBO,4.655049,52.504647
Rijksstraatweg,35,,,1969LB,Heemskerk,Heemskerk,Noord-Holland,VBO,4.654883,52.504524
Rijksstraatweg,37,,,1969LB,Heemskerk,Heemskerk,Noord-Holland,VBO,4.655011,52.504710
Rijksstraatweg,39,A,,1969LB,Heemskerk,Heemskerk,Noord-Holland,VBO,4.654440,52.504826
Rijksstraatweg,39,,,1969LB,Heemskerk,Heemskerk,Noord-Holland,VBO,4.654888,52.504892
Rijksstraatweg,41,A,,1969LB,Heemskerk,Heemskerk,Noord-Holland,VBO,4.654706,52.505172
Rijksstraatweg,41,B,,1969LB,Heemskerk,Heemskerk,Noord-Holland,VBO,4.654711,52.505130
Rijksstraatweg,41,,,1969LB,Heemskerk,Heemskerk,Noord-Holland,VBO,4.654780,52.505133
Rijksstraatweg,43,,,1969LB,Heemskerk,Heemskerk,Noord-Holland,VBO,4.654727,52.505344
Rijksstraatweg,45,,,1969LB,Heemskerk,Heemskerk,Noord-Holland,VBO,4.654635,52.505482
Rijksstraatweg,47,,,1969LB,Heemskerk,Heemskerk,Noord-Holland,VBO,4.654597,52.505610
Rijksstraatweg,49,A,,1969LB,Heemskerk,Heemskerk,Noord-Holland,VBO,4.654452,52.505893
Rijksstraatweg,49,B,,1969LB,Heemskerk,Heemskerk,Noord-Holland,VBO,4.654420,52.505960
Rijksstraatweg,49,C,,1969LB,Heemskerk,Heemskerk,Noord-Holland,VBO,4.654391,52.506019
Rijksstraatweg,49,D,,1969LB,Heemskerk,Heemskerk,Noord-Holland,VBO,4.654296,52.506156
Rijksstraatweg,49,,BEDR,1969LB,Heemskerk,Heemskerk,Noord-Holland,VBO,4.654482,52.505779
Rijksstraatweg,49,,,1969LB,Heemskerk,Heemskerk,Noord-Holland,VBO,4.654521,52.505746
Rijksstraatweg,51,,,1969LC,Heemskerk,Heemskerk,Noord-Holland,VBO,4.654216,52.506322
Rijksstraatweg,53,A,,1969LC,Heemskerk,Heemskerk,Noord-Holland,VBO,4.654233,52.506581
Rijksstraatweg,53,,,1969LC,Heemskerk,Heemskerk,Noord-Holland,VBO,4.654274,52.506551
Rijksstraatweg,55,,,1969LC,Heemskerk,Heemskerk,Noord-Holland,VBO,4.654039,52.506707
Rijksstraatweg,57,,,1969LC,Heemskerk,Heemskerk,Noord-Holland,VBO,4.654042,52.506877
Rijksstraatweg,59,,,1969LC,Heemskerk,Heemskerk,Noord-Holland,VBO,4.654004,52.506955
Rijksstraatweg,61,,,1969LC,Heemskerk,Heemskerk,Noord-Holland,VBO,4.653978,52.507011
Rijksstraatweg,63,A,,1969LC,Heemskerk,Heemskerk,Noord-Holland,VBO,4.653823,52.507478
Rijksstraatweg,63,B,,1969LC,Heemskerk,Heemskerk,Noord-Holland,VBO,4.653823,52.507478
Rijksstraatweg,63,,,1969LC,Heemskerk,Heemskerk,Noord-Holland,VBO,4.654029,52.507123
Rijksstraatweg,65,,,1969LC,Heemskerk,Heemskerk,Noord-Holland,VBO,4.653814,52.507653
Rijksstraatweg,67,,,1969LC,Heemskerk,Heemskerk,Noord-Holland,VBO,4.653752,52.507817
Rijksstraatweg,69,,,1969LC,Heemskerk,Heemskerk,Noord-Holland,VBO,4.653696,52.507937
Rijksstraatweg,71,A,,1969LC,Heemskerk,Heemskerk,Noord-Holland,VBO,4.653510,52.508028
Rijksstraatweg,71,,,1969LC,Heemskerk,Heemskerk,Noord-Holland,VBO,4.653681,52.508028
Rijksstraatweg,73,,,1969LC,Heemskerk,Heemskerk,Noord-Holland,VBO,4.653706,52.508156
Rijksstraatweg,75,,,1969LC,Heemskerk,Heemskerk,Noord-Holland,VBO,4.653657,52.508252
Rijksstraatweg,77,,,1969LC,Heemskerk,Heemskerk,Noord-Holland,VBO,4.653671,52.508495
Rijksstraatweg,79,A,,1969LC,Heemskerk,Heemskerk,Noord-Holland,VBO,4.653600,52.508628
Rijksstraatweg,79,B,,1969LC,Heemskerk,Heemskerk,Noord-Holland,VBO,4.653600,52.508628
Rijksstraatweg,79,C,,1969LC,Heemskerk,Heemskerk,Noord-Holland,VBO,4.653597,52.508653
Rijksstraatweg,79,,,1969LC,Heemskerk,Heemskerk,Noord-Holland,VBO,4.653634,52.508576
Rijksstraatweg,81,A,,1969LC,Heemskerk,Heemskerk,Noord-Holland,VBO,4.653438,52.508690
Rijksstraatweg,81,,,1969LC,Heemskerk,Heemskerk,Noord-Holland,VBO,4.653584,52.508757
Rijksstraatweg,83,,,1969LC,Heemskerk,Heemskerk,Noord-Holland,VBO,4.653531,52.508846
Rijksstraatweg,85,A,,1969LC,Heemskerk,Heemskerk,Noord-Holland,VBO,4.653057,52.508800
Rijksstraatweg,85,,,1969LC,Heemskerk,Heemskerk,Noord-Holland,VBO,4.653519,52.508889
Rijksstraatweg,87,,,1969LC,Heemskerk,Heemskerk,Noord-Holland,VBO,4.653535,52.508976
Rijksstraatweg,89,,,1969LC,Heemskerk,Heemskerk,Noord-Holland,VBO,4.653452,52.509178
Rijksstraatweg,91,,,1969LD,Heemskerk,Heemskerk,Noord-Holland,VBO,4.653482,52.509274
Rijksstraatweg,93,,,1969LD,Heemskerk,Heemskerk,Noord-Holland,VBO,4.653467,52.509344
Rijksstraatweg,95,A,,1969LD,Heemskerk,Heemskerk,Noord-Holland,VBO,4.653446,52.509442
Rijksstraatweg,95,,,1969LD,Heemskerk,Heemskerk,Noord-Holland,VBO,4.653498,52.509449
Rijksstraatweg,97,A,,1969LD,Heemskerk,Heemskerk,Noord-Holland,VBO,4.653189,52.509617
Rijksstraatweg,97,,,1969LD,Heemskerk,Heemskerk,Noord-Holland,VBO,4.653417,52.509552
Rijksstraatweg,99,,,1969LD,Heemskerk,Heemskerk,Noord-Holland,VBO,4.653311,52.509777
Rijksstraatweg,101,,,1969LD,Heemskerk,Heemskerk,Noord-Holland,VBO,4.653309,52.509893
Rijksstraatweg,103,,,1969LD,Heemskerk,Heemskerk,Noord-Holland,VBO,4.653298,52.509998
Rijksstraatweg,105,,,1969LD,Heemskerk,Heemskerk,Noord-Holland,VBO,4.653198,52.510117
Rijksstraatweg,107,,,1969LD,Heemskerk,Heemskerk,Noord-Holland,VBO,4.653182,52.510164
Rijksstraatweg,109,,,1969LD,Heemskerk,Heemskerk,Noord-Holland,VBO,4.653170,52.510224
Rijksstraatweg,111,,,1969LD,Heemskerk,Heemskerk,Noord-Holland,VBO,4.653156,52.510342
Rijksstraatweg,113,,,1969LD,Heemskerk,Heemskerk,Noord-Holland,VBO,4.653138,52.510410
Rijksstraatweg,115,,,1969LD,Heemskerk,Heemskerk,Noord-Holland,VBO,4.653127,52.510500
Rijksstraatweg,117,,,1969LD,Heemskerk,Heemskerk,Noord-Holland,VBO,4.653108,52.510570
Rijksstraatweg,119,,,1969LD,Heemskerk,Heemskerk,Noord-Holland,VBO,4.653087,52.510656
Rijksstraatweg,121,,,1969LD,Heemskerk,Heemskerk,Noord-Holland,VBO,4.653072,52.510723
Rijksstraatweg,123,,,1969LD,Heemskerk,Heemskerk,Noord-Holland,VBO,4.653059,52.510813
Rijksstraatweg,125,,,1969LD,Heemskerk,Heemskerk,Noord-Holland,VBO,4.653005,52.510881
Rijksstraatweg,127,,,1969LD,Heemskerk,Heemskerk,Noord-Holland,VBO,4.653028,52.510970
Rijksstraatweg,129,,,1969LD,Heemskerk,Heemskerk,Noord-Holland,VBO,4.653034,52.511073
Rijksstraatweg,131,,,1969LE,Heemskerk,Heemskerk,Noord-Holland,VBO,4.653020,52.511167
Rijksstraatweg,133,,,1969LE,Heemskerk,Heemskerk,Noord-Holland,VBO,4.652981,52.511248
Rijksstraatweg,135,,,1969LE,Heemskerk,Heemskerk,Noord-Holland,VBO,4.652971,52.511309
Rijksstraatweg,137,,,1969LE,Heemskerk,Heemskerk,Noord-Holland,VBO,4.652944,52.511409
Rijksstraatweg,139,,,1969LE,Heemskerk,Heemskerk,Noord-Holland,VBO,4.652934,52.511471
Rijksstraatweg,141,,,1969LE,Heemskerk,Heemskerk,Noord-Holland,VBO,4.652917,52.511565
Rijksstraatweg,143,,,1969LE,Heemskerk,Heemskerk,Noord-Holland,VBO,4.652906,52.511634
Rijksstraatweg,145,,,1969LE,Heemskerk,Heemskerk,Noord-Holland,VBO,4.652783,52.511732
Rijksstraatweg,147,,,1969LE,Heemskerk,Heemskerk,Noord-Holland,VBO,4.652674,52.512577
Rijksstraatweg,149,A,,1969LE,Heemskerk,Heemskerk,Noord-Holland,VBO,4.652355,52.512744
Rijksstraatweg,149,,,1969LE,Heemskerk,Heemskerk,Noord-Holland,VBO,4.652687,52.512703
Rijksstraatweg,151,,,1969LE,Heemskerk,Heemskerk,Noord-Holland,VBO,4.652337,52.512979
Rijksstraatweg,155,,,1969LE,Heemskerk,Heemskerk,Noord-Holland,VBO,4.651914,52.513103
Rijksstraatweg,157,,,1969LE,Heemskerk,Heemskerk,Noord-Holland,VBO,4.648721,52.512708
Rijksstraatweg,159,A,,1969LE,Heemskerk,Heemskerk,Noord-Holland,VBO,4.652267,52.513335
Rijksstraatweg,159,B,,1969LE,Heemskerk,Heemskerk,Noord-Holland,VBO,4.652161,52.513608
Rijksstraatweg,161,,,1969LE,Heemskerk,Heemskerk,Noord-Holland,VBO,4.652250,52.513756
Rijksstraatweg,163,,,1969LE,Heemskerk,Heemskerk,Noord-Holland,VBO,4.652224,52.513831
Rijksstraatweg,165,,,1969LE,Heemskerk,Heemskerk,Noord-Holland,VBO,4.652212,52.513875
Rijksstraatweg,167,,,1969LE,Heemskerk,Heemskerk,Noord-Holland,VBO,4.651876,52.514639
Rijksstraatweg,169,,,1969LE,Heemskerk,Heemskerk,Noord-Holland,VBO,4.651971,52.514960
Rijksstraatweg,173,A,,1969LE,Heemskerk,Heemskerk,Noord-Holland,VBO,4.651752,52.515379
Rijksstraatweg,173,,,1969LE,Heemskerk,Heemskerk,Noord-Holland,VBO,4.652104,52.515075
Rijksstraatweg,175,,,1969LE,Heemskerk,Heemskerk,Noord-Holland,VBO,4.651843,52.515592
Rijksstraatweg,177,,,1969LE,Heemskerk,Heemskerk,Noord-Holland,VBO,4.651704,52.515691
Rijksstraatweg,179,,,1969LE,Heemskerk,Heemskerk,Noord-Holland,VBO,4.651799,52.515812
Rijksstraatweg,181,,,1969LG,Heemskerk,Heemskerk,Noord-Holland,VBO,4.651832,52.515864
Rijksstraatweg,183,,,1969LG,Heemskerk,Heemskerk,Noord-Holland,VBO,4.651811,52.516009
Rijksstraatweg,185,,,1969LG,Heemskerk,Heemskerk,Noord-Holland,VBO,4.651662,52.516115
Rijksstraatweg,187,,,1969LG,Heemskerk,Heemskerk,Noord-Holland,VBO,4.651660,52.516370
Rijksstraatweg,189,,,1969LG,Heemskerk,Heemskerk,Noord-Holland,VBO,4.651586,52.516496
Rijksstraatweg,191,,,1969LG,Heemskerk,Heemskerk,Noord-Holland,VBO,4.651603,52.516628
Rijksstraatweg,193,,,1969LG,Heemskerk,Heemskerk,Noord-Holland,VBO,4.651560,52.516892
Rijksstraatweg,195,,,1969LG,Heemskerk,Heemskerk,Noord-Holland,VBO,4.651455,52.517090
Rijksstraatweg,197,,,1969LG,Heemskerk,Heemskerk,Noord-Holland,VBO,4.651455,52.517137
Rijksstraatweg,199,A,,1969LG,Heemskerk,Heemskerk,Noord-Holland,VBO,4.649879,52.517181
Rijksstraatweg,199,,,1969LG,Heemskerk,Heemskerk,Noord-Holland,VBO,4.651366,52.517262
Rijksstraatweg,201,,,1969LG,Heemskerk,Heemskerk,Noord-Holland,VBO,4.650074,52.517400
Rijksstraatweg,203,A,,1969LG,Heemskerk,Heemskerk,Noord-Holland,VBO,4.650915,52.517872
Rijksstraatweg,203,B,,1969LG,Heemskerk,Heemskerk,Noord-Holland,VBO,4.650838,52.518071
Rijksstraatweg,203,C,,1969LG,Heemskerk,Heemskerk,Noord-Holland,VBO,4.650510,52.518146
Rijksstraatweg,203,,,1969LG,Heemskerk,Heemskerk,Noord-Holland,VBO,4.650960,52.517717
Rijksstraatweg,205,A,,1969LG,Heemskerk,Heemskerk,Noord-Holland,VBO,4.650215,52.518825
Rijksstraatweg,205,B,,1969LG,Heemskerk,Heemskerk,Noord-Holland,VBO,4.649971,52.519358
Rijksstraatweg,205,,BEDR,1969LG,Heemskerk,Heemskerk,Noord-Holland,VBO,4.649902,52.519072
Rijksstraatweg,205,,,1969LG,Heemskerk,Heemskerk,Noord-Holland,VBO,4.650595,52.518605
Rijksstraatweg,207,,,1969LG,Heemskerk,Heemskerk,Noord-Holland,VBO,4.649885,52.519732
Rijksstraatweg,209,,,1969LG,Heemskerk,Heemskerk,Noord-Holland,VBO,4.649856,52.519783
Rijksstraatweg,213,,,1969LG,Heemskerk,Heemskerk,Noord-Holland,VBO,4.649393,52.520737
Rijksstraatweg,217,,,1969LG,Heemskerk,Heemskerk,Noord-Holland,VBO,4.648324,52.523625
Rijksstraatweg,219,B,,1969LG,Heemskerk,Heemskerk,Noord-Holland,VBO,4.648527,52.530418
Rijksstraatweg,219,,,1969LG,Heemskerk,Heemskerk,Noord-Holland,VBO,4.649422,52.525173
Rijksstraatweg,221,,,1969LG,Heemskerk,Heemskerk,Noord-Holland,VBO,4.646981,52.530650
Kraaiennest,1,,,1969LR,Heemskerk,Heemskerk,Noord-Holland,VBO,4.648974,52.521959
Hondsbosseweg,2,,,1969MA,Heemskerk,Heemskerk,Noord-Holland,VBO,4.649711,52.500594
Hondsbosseweg,3,,,1969MA,Heemskerk,Heemskerk,Noord-Holland,VBO,4.648699,52.499999
Hondsbosseweg,4,,,1969MA,Heemskerk,Heemskerk,Noord-Holland,VBO,4.649621,52.500591
Hondsbosseweg,5,,,1969MA,Heemskerk,Heemskerk,Noord-Holland,VBO,4.646859,52.499983
Hondsbosseweg,6,,,1969MA,Heemskerk,Heemskerk,Noord-Holland,VBO,4.647388,52.500450
Hondsbosseweg,8,,,1969MA,Heemskerk,Heemskerk,Noord-Holland,VBO,4.647230,52.500446
Hondsbosseweg,9,,,1969MA,Heemskerk,Heemskerk,Noord-Holland,VBO,4.644353,52.499889
Hondsbosseweg,10,,,1969MA,Heemskerk,Heemskerk,Noord-Holland,VBO,4.646026,52.500362
Hondsbosseweg,11,,,1969MA,Heemskerk,Heemskerk,Noord-Holland,VBO,4.640570,52.500031
Hondsbosseweg,12,,,1969MA,Heemskerk,Heemskerk,Noord-Holland,VBO,4.645539,52.500345
Hondsbosseweg,14,A,,1969MA,Heemskerk,Heemskerk,Noord-Holland,VBO,4.636517,52.500066
Hondsbosseweg,14,,,1969MA,Heemskerk,Heemskerk,Noord-Holland,VBO,4.642665,52.500326
Hondsbosseweg,16,,,1969MA,Heemskerk,Heemskerk,Noord-Holland,VBO,4.635683,52.500100
Krochtweg,1,,,1969MB,Heemskerk,Heemskerk,Noord-Holland,VBO,4.644735,52.504540
Krochtweg,2,A,,1969MB,Heemskerk,Heemskerk,Noord-Holland,VBO,4.644104,52.504786
Krochtweg,2,,,1969MB,Heemskerk,Heemskerk,Noord-Holland,VBO,4.643988,52.505316
Krochtweg,3,A,,1969MB,Heemskerk,Heemskerk,Noord-Holland,VBO,4.647449,52.504420
Krochtweg,3,,,1969MB,Heemskerk,Heemskerk,Noord-Holland,VBO,4.644870,52.504274
Krochtweg,4,,,1969MB,Heemskerk,Heemskerk,Noord-Holland,VBO,4.644285,52.504474
Krochtweg,6,A,,1969MB,Heemskerk,Heemskerk,Noord-Holland,VBO,4.645076,52.502483
Krochtweg,6,,,1969MB,Heemskerk,Heemskerk,Noord-Holland,VBO,4.644465,52.504010
Krochtweg,7,,,1969MB,Heemskerk,Heemskerk,Noord-Holland,VBO,4.645555,52.502695
Krochtweg,10,A,,1969MB,Heemskerk,Heemskerk,Noord-Holland,VBO,4.645085,52.501942
Krochtweg,10,,,1969MB,Heemskerk,Heemskerk,Noord-Holland,VBO,4.645411,52.501448
Krochtweg,12,,,1969MB,Heemskerk,Heemskerk,Noord-Holland,VBO,4.645341,52.501174
Voorweg,1,,,1969MC,Heemskerk,Heemskerk,Noord-Holland,VBO,4.640858,52.500468
Voorweg,2,,,1969MC,Heemskerk,Heemskerk,Noord-Holland,VBO,4.641366,52.499819
Voorweg,4,,,1969MC,Heemskerk,Heemskerk,Noord-Holland,VBO,4.641313,52.500471
Voorweg,5,,,1969MC,Heemskerk,Heemskerk,Noord-Holland,VBO,4.640802,52.500897
Voorweg,6,A,,1969MC,Heemskerk,Heemskerk,Noord-Holland,VBO,4.641258,52.501093
Voorweg,6,,,1969MC,Heemskerk,Heemskerk,Noord-Holland,VBO,4.641267,52.501171
Voorweg,7,,,1969MC,Heemskerk,Heemskerk,Noord-Holland,VBO,4.640837,52.501041
Voorweg,9,,,1969MC,Heemskerk,Heemskerk,Noord-Holland,VBO,4.640817,52.501131
Voorweg,10,,,1969MC,Heemskerk,Heemskerk,Noord-Holland,VBO,4.640920,52.502036
Voorweg,11,,,1969MC,Heemskerk,Heemskerk,Noord-Holland,VBO,4.640625,52.501480
Voorweg,12,,,1969MC,Heemskerk,Heemskerk,Noord-Holland,VBO,4.639698,52.502872
Voorweg,13,,,1969MC,Heemskerk,Heemskerk,Noord-Holland,VBO,4.640425,52.501691
Voorweg,14,A,,1969MC,Heemskerk,Heemskerk,Noord-Holland,VBO,4.639623,52.503098
Voorweg,14,,,1969MC,Heemskerk,Heemskerk,Noord-Holland,VBO,4.639007,52.503254
Voorweg,15,,,1969MC,Heemskerk,Heemskerk,Noord-Holland,VBO,4.640392,52.501764
Voorweg,16,,,1969MC,Heemskerk,Heemskerk,Noord-Holland,VBO,4.638799,52.503419
Voorweg,17,,,1969MC,Heemskerk,Heemskerk,Noord-Holland,VBO,4.640096,52.501999
Voorweg,18,A,,1969MC,Heemskerk,Heemskerk,Noord-Holland,VBO,4.638311,52.503937
Voorweg,18,B,,1969MC,Heemskerk,Heemskerk,Noord-Holland,VBO,4.637974,52.504128
Voorweg,18,,,1969MC,Heemskerk,Heemskerk,Noord-Holland,VBO,4.638706,52.503615
Voorweg,19,,,1969MC,Heemskerk,Heemskerk,Noord-Holland,VBO,4.639937,52.502212
Voorweg,21,A,,1969MC,Heemskerk,Heemskerk,Noord-Holland,VBO,4.639090,52.502683
Voorweg,21,,,1969MC,Heemskerk,Heemskerk,Noord-Holland,VBO,4.639860,52.502270
Voorweg,23,A,,1969MC,Heemskerk,Heemskerk,Noord-Holland,VBO,4.638396,52.503216
Voorweg,23,,,1969MC,Heemskerk,Heemskerk,Noord-Holland,VBO,4.638800,52.502970
Voorweg,27,,,1969MC,Heemskerk,Heemskerk,Noord-Holland,VBO,4.637781,52.503672
Voorweg,29,,,1969MC,Heemskerk,Heemskerk,Noord-Holland,VBO,4.637244,52.503950
Voorweg,20,,,1969MD,Heemskerk,Heemskerk,Noord-Holland,VBO,4.636601,52.504743
Voorweg,24,,,1969MD,Heemskerk,Heemskerk,Noord-Holland,VBO,4.633242,52.506008
Voorweg,26,,,1969MD,Heemskerk,Heemskerk,Noord-Holland,VBO,4.633098,52.506202
Voorweg,30,,,1969MD,Heemskerk,Heemskerk,Noord-Holland,VBO,4.631982,52.506800
Voorweg,31,,,1969MD,Heemskerk,Heemskerk,Noord-Holland,VBO,4.636759,52.504241
Voorweg,32,,,1969MD,Heemskerk,Heemskerk,Noord-Holland,VBO,4.631807,52.506946
Voorweg,34,,,1969MD,Heemskerk,Heemskerk,Noord-Holland,VBO,4.631331,52.507178
Voorweg,37,,,1969MD,Heemskerk,Heemskerk,Noord-Holland,VBO,4.635514,52.504713
Voorweg,39,,,1969MD,Heemskerk,Heemskerk,Noord-Holland,VBO,4.634213,52.505229
Voorweg,41,,,1969MD,Heemskerk,Heemskerk,Noord-Holland,VBO,4.633545,52.505422
Voorweg,43,,,1969MD,Heemskerk,Heemskerk,Noord-Holland,VBO,4.632697,52.505901
Voorweg,45,,,1969MD,Heemskerk,Heemskerk,Noord-Holland,VBO,4.632540,52.506009
Voorweg,47,,,1969MD,Heemskerk,Heemskerk,Noord-Holland,VBO,4.632262,52.506096
Voorweg,49,,,1969MD,Heemskerk,Heemskerk,Noord-Holland,VBO,4.632116,52.506243
Voorweg,51,,,1969MD,Heemskerk,Heemskerk,Noord-Holland,VBO,4.630397,52.506768
Voorweg,36,,,1969ME,Heemskerk,Heemskerk,Noord-Holland,VBO,4.630312,52.507384
Voorweg,38,,,1969ME,Heemskerk,Heemskerk,Noord-Holland,VBO,4.629965,52.507730
Voorweg,40,A,,1969ME,Heemskerk,Heemskerk,Noord-Holland,VBO,4.629690,52.508718
Voorweg,40,,,1969ME,Heemskerk,Heemskerk,Noord-Holland,VBO,4.630503,52.508785
Voorweg,42,A,,1969ME,Heemskerk,Heemskerk,Noord-Holland,VBO,4.629307,52.509227
Voorweg,42,,,1969ME,Heemskerk,Heemskerk,Noord-Holland,VBO,4.629440,52.508981
Voorweg,44,A,,1969ME,Heemskerk,Heemskerk,Noord-Holland,VBO,4.629376,52.509810
Voorweg,44,,,1969ME,Heemskerk,Heemskerk,Noord-Holland,VBO,4.629004,52.509742
Voorweg,46,,,1969ME,Heemskerk,Heemskerk,Noord-Holland,VBO,4.628825,52.509913
Voorweg,48,,,1969ME,Heemskerk,Heemskerk,Noord-Holland,VBO,4.628757,52.510224
Voorweg,55,,,1969ME,Heemskerk,Heemskerk,Noord-Holland,VBO,4.629699,52.507232
Voorweg,57,,,1969ME,Heemskerk,Heemskerk,Noord-Holland,VBO,4.629461,52.507677
Voorweg,63,,,1969ME,Heemskerk,Heemskerk,Noord-Holland,VBO,4.628048,52.510538
Voorweg,65,,,1969ME,Heemskerk,Heemskerk,Noord-Holland,VBO,4.628083,52.511008
Strengweg,4,,,1969MG,Heemskerk,Heemskerk,Noord-Holland,VBO,4.653268,52.507292
Strengweg,8,,,1969MG,Heemskerk,Heemskerk,Noord-Holland,VBO,4.652373,52.507050
Strengweg,10,,,1969MG,Heemskerk,Heemskerk,Noord-Holland,VBO,4.652394,52.507093
Strengweg,12,,,1969MG,Heemskerk,Heemskerk,Noord-Holland,VBO,4.652213,52.507034
Strengweg,14,,,1969MG,Heemskerk,Heemskerk,Noord-Holland,VBO,4.651828,52.506944
Strengweg,16,,,1969MG,Heemskerk,Heemskerk,Noord-Holland,VBO,4.651297,52.506880
Strengweg,17,A,,1969MG,Heemskerk,Heemskerk,Noord-Holland,VBO,4.636046,52.503949
Strengweg,17,,,1969MG,Heemskerk,Heemskerk,Noord-Holland,VBO,4.633912,52.503345
Strengweg,18,,,1969MG,Heemskerk,Heemskerk,Noord-Holland,VBO,4.650559,52.506719
Strengweg,20,A,,1969MG,Heemskerk,Heemskerk,Noord-Holland,VBO,4.650568,52.506871
Strengweg,20,,,1969MG,Heemskerk,Heemskerk,Noord-Holland,VBO,4.650630,52.506861
Strengweg,21,,,1969MG,Heemskerk,Heemskerk,Noord-Holland,VBO,4.633414,52.503127
Strengweg,22,,,1969MG,Heemskerk,Heemskerk,Noord-Holland,VBO,4.650254,52.506678
Strengweg,24,,,1969MG,Heemskerk,Heemskerk,Noord-Holland,VBO,4.648623,52.506637
Strengweg,34,,,1969MG,Heemskerk,Heemskerk,Noord-Holland,VBO,4.643775,52.505585
Strengweg,48,,,1969MG,Heemskerk,Heemskerk,Noord-Holland,VBO,4.634090,52.503796
Strengweg,50,,,1969MG,Heemskerk,Heemskerk,Noord-Holland,VBO,4.634090,52.503796
Strengweg,58,A,,1969MG,Heemskerk,Heemskerk,Noord-Holland,VBO,4.631674,52.504470
Strengweg,58,,,1969MG,Heemskerk,Heemskerk,Noord-Holland,VBO,4.631951,52.504361
Het Laantje,1,,,1969MH,Heemskerk,Heemskerk,Noord-Holland,VBO,4.634368,52.505073
Het Laantje,2,,,1969MH,Heemskerk,Heemskerk,Noord-Holland,VBO,4.630405,52.504560
Het Laantje,3,,,1969MH,Heemskerk,Heemskerk,Noord-Holland,VBO,4.633553,52.504931
Het Laantje,4,,,1969MH,Heemskerk,Heemskerk,Noord-Holland,VBO,4.630351,52.505734
Het Laantje,5,,,1969MH,Heemskerk,Heemskerk,Noord-Holland,VBO,4.632776,52.504796
Het Laantje,7,,,1969MH,Heemskerk,Heemskerk,Noord-Holland,VBO,4.631666,52.504627
Het Laantje,8,,,1969MH,Heemskerk,Heemskerk,Noord-Holland,VBO,4.630172,52.506269
Het Laantje,9,,,1969MH,Heemskerk,Heemskerk,Noord-Holland,VBO,4.629809,52.504636
Het Laantje,10,,,1969MH,Heemskerk,Heemskerk,Noord-Holland,VBO,4.630079,52.506482
Het Laantje,11,,,1969MH,Heemskerk,Heemskerk,Noord-Holland,VBO,4.629487,52.505152
Het Laantje,12,,,1969MH,Heemskerk,Heemskerk,Noord-Holland,VBO,4.629917,52.506653
Duindoornweg,1,,,1969MJ,Heemskerk,Heemskerk,Noord-Holland,VBO,4.628349,52.506993
Duindoornweg,3,,,1969MJ,Heemskerk,Heemskerk,Noord-Holland,VBO,4.627955,52.506952
Duindoornweg,7,,,1969MJ,Heemskerk,Heemskerk,Noord-Holland,VBO,4.626799,52.507192
Duindoornweg,9,,,1969MJ,Heemskerk,Heemskerk,Noord-Holland,VBO,4.624878,52.507472
Duindoornweg,11,,,1969MJ,Heemskerk,Heemskerk,Noord-Holland,VBO,4.624369,52.507456
Duindoornweg,13,,,1969MJ,Heemskerk,Heemskerk,Noord-Holland,VBO,4.624025,52.507614
Wijk aan Duinpad,2,,,1969MK,Heemskerk,Heemskerk,Noord-Holland,VBO,4.631932,52.508051
Wijk aan Duinpad,4,,,1969MK,Heemskerk,Heemskerk,Noord-Holland,VBO,4.632025,52.508066
Wijk aan Duinpad,6,,,1969MK,Heemskerk,Heemskerk,Noord-Holland,VBO,4.632299,52.508861
Wijk aan Duinpad,14,A,,1969MK,Heemskerk,Heemskerk,Noord-Holland,VBO,4.631990,52.509759
Wijk aan Duinpad,14,,,1969MK,Heemskerk,Heemskerk,Noord-Holland,VBO,4.632002,52.509599
Wijk aan Duinpad,16,,,1969MK,Heemskerk,Heemskerk,Noord-Holland,VBO,4.631993,52.510313
Oudendijk,1,,,1969ML,Heemskerk,Heemskerk,Noord-Holland,VBO,4.652159,52.514048
Oudendijk,2,A,,1969ML,Heemskerk,Heemskerk,Noord-Holland,VBO,4.651621,52.514233
Oudendijk,2,,,1969ML,Heemskerk,Heemskerk,Noord-Holland,VBO,4.651980,52.514333
Oudendijk,3,A,,1969ML,Heemskerk,Heemskerk,Noord-Holland,VBO,4.651767,52.514005
Oudendijk,3,,,1969ML,Heemskerk,Heemskerk,Noord-Holland,VBO,4.652016,52.514049
Oudendijk,4,,,1969ML,Heemskerk,Heemskerk,Noord-Holland,VBO,4.651621,52.514233
Oudendijk,5,,,1969ML,Heemskerk,Heemskerk,Noord-Holland,VBO,4.649580,52.513748
Oudendijk,6,,,1969ML,Heemskerk,Heemskerk,Noord-Holland,VBO,4.647058,52.513624
Oudendijk,8,,,1969ML,Heemskerk,Heemskerk,Noord-Holland,VBO,4.644890,52.513351
Oudendijk,9,,,1969ML,Heemskerk,Heemskerk,Noord-Holland,VBO,4.648526,52.513522
Oudendijk,10,,,1969ML,Heemskerk,Heemskerk,Noord-Holland,VBO,4.644168,52.513244
Oudendijk,11,,,1969ML,Heemskerk,Heemskerk,Noord-Holland,VBO,4.646969,52.513327
Oudendijk,13,,,1969ML,Heemskerk,Heemskerk,Noord-Holland,VBO,4.646862,52.513304
Oudendijk,15,A,,1969ML,Heemskerk,Heemskerk,Noord-Holland,VBO,4.645329,52.513096
Oudendijk,15,B,,1969ML,Heemskerk,Heemskerk,Noord-Holland,VBO,4.644998,52.512942
Oudendijk,15,I,,1969ML,Heemskerk,Heemskerk,Noord-Holland,VBO,4.646057,52.513180
Oudendijk,15,,,1969ML,Heemskerk,Heemskerk,Noord-Holland,VBO,4.646673,52.513331
Oudendijk,12,,,1969MN,Heemskerk,Heemskerk,Noord-Holland,VBO,4.641732,52.512947
Oudendijk,14,,,1969MN,Heemskerk,Heemskerk,Noord-Holland,VBO,4.640087,52.512738
Oudendijk,16,,,1969MN,Heemskerk,Heemskerk,Noord-Holland,VBO,4.639967,52.512722
Oudendijk,18,,,1969MN,Heemskerk,Heemskerk,Noord-Holland,VBO,4.638840,52.512594
Oudendijk,19,,,1969MN,Heemskerk,Heemskerk,Noord-Holland,VBO,4.634960,52.511803
Oudendijk,20,,,1969MN,Heemskerk,Heemskerk,Noord-Holland,VBO,4.637387,52.512452
Oudendijk,21,A,,1969MN,Heemskerk,Heemskerk,Noord-Holland,VBO,4.632252,52.511499
Oudendijk,21,,,1969MN,Heemskerk,Heemskerk,Noord-Holland,VBO,4.632364,52.511512
Oudendijk,22,,,1969MN,Heemskerk,Heemskerk,Noord-Holland,VBO,4.635610,52.512178
Oudendijk,24,,,1969MN,Heemskerk,Heemskerk,Noord-Holland,VBO,4.634487,52.512042
Oudendijk,26,A,,1969MN,Heemskerk,Heemskerk,Noord-Holland,VBO,4.633299,52.511875
Oudendijk,26,,,1969MN,Heemskerk,Heemskerk,Noord-Holland,VBO,4.634366,52.512026
Oudendijk,27,,,1969MN,Heemskerk,Heemskerk,Noord-Holland,VBO,4.630362,52.511527
Oudendijk,28,,,1969MN,Heemskerk,Heemskerk,Noord-Holland,VBO,4.631397,52.511692
Oudendijk,29,,,1969MN,Heemskerk,Heemskerk,Noord-Holland,VBO,4.630250,52.511545
Oudendijk,30,,,1969MN,Heemskerk,Heemskerk,Noord-Holland,VBO,4.631398,52.511807
Oudendijk,31,,,1969MN,Heemskerk,Heemskerk,Noord-Holland,VBO,4.629451,52.511175
Duinweg,1,,,1969MP,Heemskerk,Heemskerk,Noord-Holland,VBO,4.649091,52.520709
Duinweg,2,A,,1969MP,Heemskerk,Heemskerk,Noord-Holland,VBO,4.648456,52.521086
Duinweg,3,,,1969MP,Heemskerk,Heemskerk,Noord-Holland,VBO,4.648975,52.520683
Duinweg,6,,,1969MP,Heemskerk,Heemskerk,Noord-Holland,VBO,4.644050,52.518843
Duinweg,10,,,1969MP,Heemskerk,Heemskerk,Noord-Holland,VBO,4.637351,52.515036
Duinweg,11,,,1969MP,Heemskerk,Heemskerk,Noord-Holland,VBO,4.634354,52.513030
Duinweg,14,,,1969MP,Heemskerk,Heemskerk,Noord-Holland,VBO,4.633508,52.512795
Duinweg,16,A,,1969MP,Heemskerk,Heemskerk,Noord-Holland,VBO,4.633062,52.513387
Duinweg,16,,,1969MP,Heemskerk,Heemskerk,Noord-Holland,VBO,4.632859,52.512905
Duinweg,19,,,1969MP,Heemskerk,Heemskerk,Noord-Holland,VBO,4.633561,52.512463
Duinweg,20,,,1969MP,Heemskerk,Heemskerk,Noord-Holland,VBO,4.632895,52.512418
Merel,205,,,1969MP,Heemskerk,Heemskerk,Noord-Holland,VBO,4.671043,52.501839
Kruisberg,1,,,1969MR,Heemskerk,Heemskerk,Noord-Holland,VBO,4.630200,52.522609
Kruisberg,2,,,1969MR,Heemskerk,Heemskerk,Noord-Holland,VBO,4.630144,52.522652
Kruisberg,3,,,1969MR,Heemskerk,Heemskerk,Noord-Holland,VBO,4.629907,52.522756
Kruisberg,4,A,,1969MR,Heemskerk,Heemskerk,Noord-Holland,VBO,4.627494,52.523944
Kruisberg,4,,,1969MR,Heemskerk,Heemskerk,Noord-Holland,VBO,4.629747,52.522883
Kruisberg,5,,,1969MR,Heemskerk,Heemskerk,Noord-Holland,VBO,4.628256,52.524398
Cieweg,1,,,1969MS,Heemskerk,Heemskerk,Noord-Holland,VBO,4.638398,52.514859
Cieweg,2,A,,1969MS,Heemskerk,Heemskerk,Noord-Holland,VBO,4.637667,52.513228
Cieweg,2,,,1969MS,Heemskerk,Heemskerk,Noord-Holland,VBO,4.637214,52.511569
Cieweg,3,A,,1969MS,Heemskerk,Heemskerk,Noord-Holland,VBO,4.638255,52.514029
Cieweg,3,,,1969MS,Heemskerk,Heemskerk,Noord-Holland,VBO,4.638311,52.514412
Cieweg,4,,,1969MS,Heemskerk,Heemskerk,Noord-Holland,VBO,4.637082,52.511269
Cieweg,5,,,1969MS,Heemskerk,Heemskerk,Noord-Holland,VBO,4.637659,52.511397
Cieweg,6,A,,1969MS,Heemskerk,Heemskerk,Noord-Holland,VBO,4.637025,52.510786
Cieweg,6,,,1969MS,Heemskerk,Heemskerk,Noord-Holland,VBO,4.637077,52.510989
Cieweg,8,,,1969MS,Heemskerk,Heemskerk,Noord-Holland,VBO,4.636902,52.510474
Cieweg,9,,,1969MS,Heemskerk,Heemskerk,Noord-Holland,VBO,4.637587,52.510870
Cieweg,10,,,1969MS,Heemskerk,Heemskerk,Noord-Holland,VBO,4.636509,52.509444
Cieweg,11,A,,1969MS,Heemskerk,Heemskerk,Noord-Holland,VBO,4.637387,52.509343
Cieweg,11,,,1969MS,Heemskerk,Heemskerk,Noord-Holland,VBO,4.637321,52.509959
Cieweg,13,,,1969MS,Heemskerk,Heemskerk,Noord-Holland,VBO,4.639767,52.508778
Cieweg,14,A,,1969MS,Heemskerk,Heemskerk,Noord-Holland,VBO,4.636326,52.508356
Cieweg,14,,,1969MS,Heemskerk,Heemskerk,Noord-Holland,VBO,4.636440,52.508017
Cieweg,16,,,1969MS,Heemskerk,Heemskerk,Noord-Holland,VBO,4.636210,52.507410
Cieweg,18,,,1969MS,Heemskerk,Heemskerk,Noord-Holland,VBO,4.636230,52.507197
Cieweg,19,,,1969MS,Heemskerk,Heemskerk,Noord-Holland,VBO,4.636356,52.505492
Cieweg,20,,,1969MS,Heemskerk,Heemskerk,Noord-Holland,VBO,4.636136,52.506815
Cieweg,24,A,,1969MS,Heemskerk,Heemskerk,Noord-Holland,VBO,4.635982,52.505981
Cieweg,30,,,1969MS,Heemskerk,Heemskerk,Noord-Holland,VBO,4.635587,52.505069
Luttik Cie,1,A,,1969MT,Heemskerk,Heemskerk,Noord-Holland,VBO,4.641554,52.505809
Luttik Cie,1,,,1969MT,Heemskerk,Heemskerk,Noord-Holland,VBO,4.641547,52.505534
Luttik Cie,3,,,1969MT,Heemskerk,Heemskerk,Noord-Holland,VBO,4.641452,52.506688
Luttik Cie,5,A,,1969MT,Heemskerk,Heemskerk,Noord-Holland,VBO,4.641256,52.507305
Luttik Cie,5,B,,1969MT,Heemskerk,Heemskerk,Noord-Holland,VBO,4.641228,52.507363
Luttik Cie,5,,,1969MT,Heemskerk,Heemskerk,Noord-Holland,VBO,4.641425,52.507028
Luttik Cie,7,A,,1969MT,Heemskerk,Heemskerk,Noord-Holland,VBO,4.641208,52.507769
Luttik Cie,7,,,1969MT,Heemskerk,Heemskerk,Noord-Holland,VBO,4.641485,52.507623
Luttik Cie,8,,,1969MT,Heemskerk,Heemskerk,Noord-Holland,VBO,4.641933,52.507257
Luttik Cie,9,,,1969MT,Heemskerk,Heemskerk,Noord-Holland,VBO,4.641669,52.507919
Luttik Cie,10,,,1969MT,Heemskerk,Heemskerk,Noord-Holland,VBO,4.642019,52.507602
Luttik Cie,11,,,1969MT,Heemskerk,Heemskerk,Noord-Holland,VBO,4.641687,52.507982
Luttik Cie,12,A,,1969MT,Heemskerk,Heemskerk,Noord-Holland,VBO,4.642153,52.507982
Luttik Cie,12,,,1969MT,Heemskerk,Heemskerk,Noord-Holland,VBO,4.642044,52.507788
Luttik Cie,13,,,1969MT,Heemskerk,Heemskerk,Noord-Holland,VBO,4.641725,52.508464
Luttik Cie,14,,,1969MT,Heemskerk,Heemskerk,Noord-Holland,VBO,4.642326,52.508397
Luttik Cie,15,,,1969MT,Heemskerk,Heemskerk,Noord-Holland,VBO,4.641957,52.508780
Luttik Cie,16,,,1969MT,Heemskerk,Heemskerk,Noord-Holland,VBO,4.642528,52.509014
Luttik Cie,17,,,1969MT,Heemskerk,Heemskerk,Noord-Holland,VBO,4.642018,52.509163
Luttik Cie,18,,,1969MT,Heemskerk,Heemskerk,Noord-Holland,VBO,4.642604,52.509364
Luttik Cie,19,,,1969MT,Heemskerk,Heemskerk,Noord-Holland,VBO,4.642052,52.509521
Luttik Cie,21,,,1969MT,Heemskerk,Heemskerk,Noord-Holland,VBO,4.641926,52.510166
Luttik Cie,22,,,1969MT,Heemskerk,Heemskerk,Noord-Holland,VBO,4.642616,52.509663
Luttik Cie,23,,,1969MT,Heemskerk,Heemskerk,Noord-Holland,VBO,4.641876,52.510410
Luttik Cie,24,A,,1969MT,Heemskerk,Heemskerk,Noord-Holland,VBO,4.642642,52.509712
Luttik Cie,24,,,1969MT,Heemskerk,Heemskerk,Noord-Holland,VBO,4.642543,52.509802
Luttik Cie,25,,,1969MT,Heemskerk,Heemskerk,Noord-Holland,VBO,4.641850,52.510563
Luttik Cie,26,A,,1969MT,Heemskerk,Heemskerk,Noord-Holland,VBO,4.642677,52.510107
Luttik Cie,26,,,1969MT,Heemskerk,Heemskerk,Noord-Holland,VBO,4.642374,52.510203
Luttik Cie,28,,,1969MT,Heemskerk,Heemskerk,Noord-Holland,VBO,4.642290,52.510332
Luttik Cie,30,,,1969MT,Heemskerk,Heemskerk,Noord-Holland,VBO,4.642469,52.510536
Luttik Cie,32,,,1969MT,Heemskerk,Heemskerk,Noord-Holland,VBO,4.642560,52.510751
Luttik Cie,34,,,1969MT,Heemskerk,Heemskerk,Noord-Holland,VBO,4.642408,52.511161
Luttik Cie,27,,,1969MV,Heemskerk,Heemskerk,Noord-Holland,VBO,4.641838,52.511240
Luttik Cie,29,A,,1969MV,Heemskerk,Heemskerk,Noord-Holland,VBO,4.641759,52.511649
Luttik Cie,29,,,1969MV,Heemskerk,Heemskerk,Noord-Holland,VBO,4.641858,52.511419
Luttik Cie,33,,,1969MV,Heemskerk,Heemskerk,Noord-Holland,VBO,4.641703,52.512394
Luttik Cie,35,,,1969MV,Heemskerk,Heemskerk,Noord-Holland,VBO,4.641783,52.512601
Luttik Cie,36,,,1969MV,Heemskerk,Heemskerk,Noord-Holland,VBO,4.642278,52.511312
Luttik Cie,37,,,1969MV,Heemskerk,Heemskerk,Noord-Holland,VBO,4.642096,52.514011
Luttik Cie,38,,,1969MV,Heemskerk,Heemskerk,Noord-Holland,VBO,4.642225,52.511511
Luttik Cie,39,,,1969MV,Heemskerk,Heemskerk,Noord-Holland,VBO,4.642037,52.514285
Luttik Cie,40,,,1969MV,Heemskerk,Heemskerk,Noord-Holland,VBO,4.642304,52.511752
Luttik Cie,42,A,,1969MV,Heemskerk,Heemskerk,Noord-Holland,VBO,4.642139,52.511887
Luttik Cie,42,,,1969MV,Heemskerk,Heemskerk,Noord-Holland,VBO,4.642189,52.512019
Luttik Cie,43,,,1969MV,Heemskerk,Heemskerk,Noord-Holland,VBO,4.642284,52.515536
Luttik Cie,44,,,1969MV,Heemskerk,Heemskerk,Noord-Holland,VBO,4.642185,52.512096
Luttik Cie,45,,,1969MV,Heemskerk,Heemskerk,Noord-Holland,VBO,4.642311,52.515612
Luttik Cie,47,,,1969MV,Heemskerk,Heemskerk,Noord-Holland,VBO,4.642393,52.515895
Luttik Cie,49,,,1969MV,Heemskerk,Heemskerk,Noord-Holland,VBO,4.642489,52.515992
Luttik Cie,50,,,1969MV,Heemskerk,Heemskerk,Noord-Holland,VBO,4.642274,52.512645
Luttik Cie,51,,,1969MV,Heemskerk,Heemskerk,Noord-Holland,VBO,4.642701,52.516445
Luttik Cie,52,A,,1969MV,Heemskerk,Heemskerk,Noord-Holland,VBO,4.642513,52.513064
Luttik Cie,52,,,1969MV,Heemskerk,Heemskerk,Noord-Holland,VBO,4.642357,52.512720
Luttik Cie,53,A,,1969MV,Heemskerk,Heemskerk,Noord-Holland,VBO,4.643383,52.517855
Luttik Cie,53,,,1969MV,Heemskerk,Heemskerk,Noord-Holland,VBO,4.642873,52.516877
Luttik Cie,54,A,,1969MV,Heemskerk,Heemskerk,Noord-Holland,VBO,4.642747,52.514961
Luttik Cie,54,,,1969MV,Heemskerk,Heemskerk,Noord-Holland,VBO,4.642730,52.514817
Luttik Cie,58,,,1969MV,Heemskerk,Heemskerk,Noord-Holland,VBO,4.642822,52.515500
Luttik Cie,60,a,,1969MV,Heemskerk,Heemskerk,Noord-Holland,VBO,4.643396,52.516692
Luttik Cie,60,,,1969MV,Heemskerk,Heemskerk,Noord-Holland,VBO,4.643119,52.516106
Luttik Cie,62,,,1969MV,Heemskerk,Heemskerk,Noord-Holland,VBO,4.643488,52.516888
Luttik Cie,64,,,1969MV,Heemskerk,Heemskerk,Noord-Holland,VBO,4.643672,52.517272
Zwarteweg,1,,,1969MW,Heemskerk,Heemskerk,Noord-Holland,STA,4.596681,52.523515
Zuiderwentweg,1,,,1969MX,Heemskerk,Heemskerk,Noord-Holland,VBO,4.645335,52.505937
Zuiderwentweg,2,,,1969MX,Heemskerk,Heemskerk,Noord-Holland,VBO,4.645465,52.506635
Zuiderwentweg,3,,,1969MX,Heemskerk,Heemskerk,Noord-Holland,VBO,4.645078,52.506045
Zuiderwentweg,4,,,1969MX,Heemskerk,Heemskerk,Noord-Holland,VBO,4.645356,52.507443
Zuiderwentweg,5,,,1969MX,Heemskerk,Heemskerk,Noord-Holland,VBO,4.644894,52.506576
Zuiderwentweg,6,B,,1969MX,Heemskerk,Heemskerk,Noord-Holland,VBO,4.645675,52.508314
Zuiderwentweg,6,,,1969MX,Heemskerk,Heemskerk,Noord-Holland,VBO,4.645583,52.508113
Zuiderwentweg,7,,,1969MX,Heemskerk,Heemskerk,Noord-Holland,VBO,4.644788,52.507047
Zuiderwentweg,8,,,1969MX,Heemskerk,Heemskerk,Noord-Holland,VBO,4.645727,52.508496
Zuiderwentweg,9,,,1969MX,Heemskerk,Heemskerk,Noord-Holland,VBO,4.644889,52.507827
Zuiderwentweg,10,,,1969MX,Heemskerk,Heemskerk,Noord-Holland,VBO,4.645895,52.509068
Zuiderwentweg,11,,,1969MX,Heemskerk,Heemskerk,Noord-Holland,VBO,4.645223,52.508798
Zuiderwentweg,13,,,1969MX,Heemskerk,Heemskerk,Noord-Holland,VBO,4.645719,52.509683
Zuiderwentweg,15,,,1969MX,Heemskerk,Heemskerk,Noord-Holland,VBO,4.646818,52.510762
Zuiderwentweg,18,A,,1969MX,Heemskerk,Heemskerk,Noord-Holland,VBO,4.649068,52.512162
Zuiderwentweg,18,,,1969MX,Heemskerk,Heemskerk,Noord-Holland,VBO,4.647808,52.511585
Zuiderwentweg,20,A,,1969MX,Heemskerk,Heemskerk,Noord-Holland,VBO,4.648144,52.512463
Zuiderwentweg,20,,,1969MX,Heemskerk,Heemskerk,Noord-Holland,VBO,4.647630,52.512269
Zuiderwentweg,23,,,1969MX,Heemskerk,Heemskerk,Noord-Holland,VBO,4.647079,52.511730
Zuiderwentweg,25,,,1969MX,Heemskerk,Heemskerk,Noord-Holland,VBO,4.647055,52.511948
Zuiderwentweg,29,A,,1969MX,Heemskerk,Heemskerk,Noord-Holland,VBO,4.646891,52.512672
Zuiderwentweg,29,,,1969MX,Heemskerk,Heemskerk,Noord-Holland,VBO,4.647107,52.512805
Zuiderwentweg,31,,,1969MX,Heemskerk,Heemskerk,Noord-Holland,VBO,4.647135,52.513207
Wentweg,1,,,1969MZ,Heemskerk,Heemskerk,Noord-Holland,VBO,4.647314,52.513719
Wentweg,2,A,,1969MZ,Heemskerk,Heemskerk,Noord-Holland,VBO,4.647491,52.514769
Wentweg,2,B,,1969MZ,Heemskerk,Heemskerk,Noord-Holland,VBO,4.647532,52.514842
Wentweg,2,,,1969MZ,Heemskerk,Heemskerk,Noord-Holland,VBO,4.647542,52.514554
Wentweg,3,A,,1969MZ,Heemskerk,Heemskerk,Noord-Holland,VBO,4.647178,52.514037
Wentweg,3,,,1969MZ,Heemskerk,Heemskerk,Noord-Holland,VBO,4.647302,52.513811
Wentweg,4,,,1969MZ,Heemskerk,Heemskerk,Noord-Holland,VBO,4.647420,52.515107
Wentweg,5,,,1969MZ,Heemskerk,Heemskerk,Noord-Holland,VBO,4.647090,52.514291
Wentweg,6,,,1969MZ,Heemskerk,Heemskerk,Noord-Holland,VBO,4.647535,52.515633
Wentweg,7,,,1969MZ,Heemskerk,Heemskerk,Noord-Holland,VBO,4.646935,52.514744
Wentweg,8,A,,1969MZ,Heemskerk,Heemskerk,Noord-Holland,VBO,4.647413,52.516346
Wentweg,8,,,1969MZ,Heemskerk,Heemskerk,Noord-Holland,VBO,4.647425,52.516169
Wentweg,9,,,1969MZ,Heemskerk,Heemskerk,Noord-Holland,VBO,4.646943,52.515226
Wentweg,10,A,,1969MZ,Heemskerk,Heemskerk,Noord-Holland,VBO,4.647542,52.516577
Wentweg,10,,,1969MZ,Heemskerk,Heemskerk,Noord-Holland,VBO,4.647379,52.516575
Wentweg,11,A,,1969MZ,Heemskerk,Heemskerk,Noord-Holland,VBO,4.646934,52.516228
Wentweg,11,,,1969MZ,Heemskerk,Heemskerk,Noord-Holland,VBO,4.647000,52.515830
Wentweg,13,,,1969MZ,Heemskerk,Heemskerk,Noord-Holland,VBO,4.646885,52.516489
Wentweg,14,,,1969MZ,Heemskerk,Heemskerk,Noord-Holland,VBO,4.647318,52.517417
Wentweg,15,,,1969MZ,Heemskerk,Heemskerk,Noord-Holland,VBO,4.646844,52.516735
Wentweg,17,,,1969MZ,Heemskerk,Heemskerk,Noord-Holland,VBO,4.646723,52.517471
De Smidse,2,A,,1969NA,Heemskerk,Heemskerk,Noord-Holland,VBO,4.654464,52.504555
De Smidse,2,,,1969NA,Heemskerk,Heemskerk,Noord-Holland,VBO,4.654483,52.504535
De Smidse,3,A,,1969NA,Heemskerk,Heemskerk,Noord-Holland,VBO,4.654745,52.504105
De Smidse,3,,,1969NA,Heemskerk,Heemskerk,Noord-Holland,VBO,4.654738,52.504143
De Smidse,4,,,1969NA,Heemskerk,Heemskerk,Noord-Holland,VBO,4.654091,52.504437
De Smidse,5,,,1969NA,Heemskerk,Heemskerk,Noord-Holland,VBO,4.654546,52.504119
De Smidse,7,,,1969NA,Heemskerk,Heemskerk,Noord-Holland,VBO,4.654223,52.504023
De Smidse,9,,,1969NA,Heemskerk,Heemskerk,Noord-Holland,VBO,4.653760,52.503854
De Smidse,15,,,1969NA,Heemskerk,Heemskerk,Noord-Holland,VBO,4.651981,52.502891
Lijnbaan,11,,,1969NB,Heemskerk,Heemskerk,Noord-Holland,VBO,4.654219,52.502217
Lijnbaan,13,,,1969NB,Heemskerk,Heemskerk,Noord-Holland,VBO,4.654309,52.502518
Lijnbaan,15,,,1969NB,Heemskerk,Heemskerk,Noord-Holland,VBO,4.654222,52.502776
Lijnbaan,17,A,,1969NB,Heemskerk,Heemskerk,Noord-Holland,VBO,4.654054,52.503170
Lijnbaan,17,,,1969NB,Heemskerk,Heemskerk,Noord-Holland,VBO,4.653929,52.503372
Lijnbaan,19,A,,1969NB,Heemskerk,Heemskerk,Noord-Holland,VBO,4.653651,52.504275
Lijnbaan,19,,,1969NB,Heemskerk,Heemskerk,Noord-Holland,VBO,4.653651,52.504275
Lijnbaan,21,A,,1969NB,Heemskerk,Heemskerk,Noord-Holland,VBO,4.652888,52.504544
Lijnbaan,21,B,,1969NB,Heemskerk,Heemskerk,Noord-Holland,VBO,4.652601,52.504511
Lijnbaan,21,C,,1969NB,Heemskerk,Heemskerk,Noord-Holland,VBO,4.652723,52.504146
Lijnbaan,21,,,1969NB,Heemskerk,Heemskerk,Noord-Holland,VBO,4.653656,52.504451
Lijnbaan,27,A,,1969NB,Heemskerk,Heemskerk,Noord-Holland,VBO,4.652135,52.504758
Lijnbaan,27,,,1969NB,Heemskerk,Heemskerk,Noord-Holland,VBO,4.652135,52.504758
Lijnbaan,29,,,1969NB,Heemskerk,Heemskerk,Noord-Holland,VBO,4.652286,52.504773
Lijnbaan,31,,,1969NB,Heemskerk,Heemskerk,Noord-Holland,VBO,4.652468,52.504797
Lijnbaan,35,a,,1969NB,Heemskerk,Heemskerk,Noord-Holland,VBO,4.652776,52.504841
Lijnbaan,35,,,1969NB,Heemskerk,Heemskerk,Noord-Holland,VBO,4.652897,52.504851
Lijnbaan,37,A,,1969NB,Heemskerk,Heemskerk,Noord-Holland,VBO,4.653273,52.504903
Lijnbaan,37,,,1969NB,Heemskerk,Heemskerk,Noord-Holland,VBO,4.653055,52.504871
Lijnbaan,39,,,1969NB,Heemskerk,Heemskerk,Noord-Holland,VBO,4.653501,52.504967
Het Aambeeld,1,,,1969NC,Heemskerk,Heemskerk,Noord-Holland,VBO,4.654123,52.502791
Het Aambeeld,3,,,1969NC,Heemskerk,Heemskerk,Noord-Holland,VBO,4.653940,52.502806
Het Aambeeld,5,,,1969NC,Heemskerk,Heemskerk,Noord-Holland,VBO,4.653760,52.502817
Het Aambeeld,6,,,1969NC,Heemskerk,Heemskerk,Noord-Holland,VBO,4.653544,52.503028
Het Aambeeld,7,,,1969NC,Heemskerk,Heemskerk,Noord-Holland,VBO,4.653692,52.502803
Het Aambeeld,8,A,,1969NC,Heemskerk,Heemskerk,Noord-Holland,VBO,4.653275,52.503035
Het Aambeeld,8,,,1969NC,Heemskerk,Heemskerk,Noord-Holland,VBO,4.653410,52.503058
Het Aambeeld,9,,,1969NC,Heemskerk,Heemskerk,Noord-Holland,VBO,4.653338,52.502745
Het Aambeeld,10,,,1969NC,Heemskerk,Heemskerk,Noord-Holland,VBO,4.653094,52.502966
Het Aambeeld,11,,,1969NC,Heemskerk,Heemskerk,Noord-Holland,VBO,4.653068,52.502693
Het Aambeeld,12,A,,1969NC,Heemskerk,Heemskerk,Noord-Holland,VBO,4.652948,52.502941
Het Aambeeld,12,,,1969NC,Heemskerk,Heemskerk,Noord-Holland,VBO,4.652948,52.502941
Het Aambeeld,13,,,1969NC,Heemskerk,Heemskerk,Noord-Holland,VBO,4.652886,52.502670
Lijnbaan,33,,,1969ND,Heemskerk,Heemskerk,Noord-Holland,VBO,4.652567,52.504810
Lijnbaan,43,,,1969ND,Heemskerk,Heemskerk,Noord-Holland,VBO,4.653435,52.505187
Lijnbaan,45,A,,1969ND,Heemskerk,Heemskerk,Noord-Holland,VBO,4.653312,52.505528
Lijnbaan,45,,,1969ND,Heemskerk,Heemskerk,Noord-Holland,VBO,4.653388,52.505326
Lijnbaan,47,,,1969ND,Heemskerk,Heemskerk,Noord-Holland,VBO,4.653193,52.505669
Lijnbaan,49,,,1969ND,Heemskerk,Heemskerk,Noord-Holland,VBO,4.652994,52.505653
Lijnbaan,51,,,1969ND,Heemskerk,Heemskerk,Noord-Holland,VBO,4.652797,52.505628
Lijnbaan,53,A,,1969ND,Heemskerk,Heemskerk,Noord-Holland,VBO,4.652457,52.505598
Lijnbaan,53,,,1969ND,Heemskerk,Heemskerk,Noord-Holland,VBO,4.652663,52.505611
Lijnbaan,55,,,1969ND,Heemskerk,Heemskerk,Noord-Holland,VBO,4.652314,52.505568
Lijnbaan,57,,,1969ND,Heemskerk,Heemskerk,Noord-Holland,VBO,4.652025,52.505954
Lijnbaan,59,A,,1969ND,Heemskerk,Heemskerk,Noord-Holland,VBO,4.652989,52.505908
Lijnbaan,59,B,,1969ND,Heemskerk,Heemskerk,Noord-Holland,VBO,4.652959,52.505995
Lijnbaan,59,C,,1969ND,Heemskerk,Heemskerk,Noord-Holland,VBO,4.652929,52.506083
Lijnbaan,59,D,,1969ND,Heemskerk,Heemskerk,Noord-Holland,VBO,4.652872,52.505909
Lijnbaan,59,,,1969ND,Heemskerk,Heemskerk,Noord-Holland,VBO,4.652959,52.505995
Lijnbaan,61,,,1969ND,Heemskerk,Heemskerk,Noord-Holland,VBO,4.652912,52.506233
Lijnbaan,63,,,1969ND,Heemskerk,Heemskerk,Noord-Holland,VBO,4.652741,52.506338
Lijnbaan,65,A,,1969ND,Heemskerk,Heemskerk,Noord-Holland,VBO,4.652702,52.507172
Lijnbaan,65,B,,1969ND,Heemskerk,Heemskerk,Noord-Holland,VBO,4.652639,52.507163
Lijnbaan,65,,,1969ND,Heemskerk,Heemskerk,Noord-Holland,VBO,4.652755,52.507177
Lijnbaan,67,,,1969ND,Heemskerk,Heemskerk,Noord-Holland,VBO,4.652701,52.507338
Lijnbaan,69,,,1969ND,Heemskerk,Heemskerk,Noord-Holland,VBO,4.652636,52.507397
Lijnbaan,71,,,1969ND,Heemskerk,Heemskerk,Noord-Holland,VBO,4.652654,52.507497
Lijnbaan,75,A,,1969ND,Heemskerk,Heemskerk,Noord-Holland,VBO,4.652415,52.507961
Lijnbaan,75,B,,1969ND,Heemskerk,Heemskerk,Noord-Holland,VBO,4.652415,52.507961
Lijnbaan,75,,,1969ND,Heemskerk,Heemskerk,Noord-Holland,VBO,4.652415,52.507961
Lijnbaan,77,,,1969ND,Heemskerk,Heemskerk,Noord-Holland,VBO,4.652371,52.508102
Lijnbaan,81,A,,1969ND,Heemskerk,Heemskerk,Noord-Holland,VBO,4.652263,52.508449
Lijnbaan,81,,,1969ND,Heemskerk,Heemskerk,Noord-Holland,VBO,4.652263,52.508449
Lijnbaan,83,,85,1969ND,Heemskerk,Heemskerk,Noord-Holland,VBO,4.652221,52.508573
Lijnbaan,83,,,1969ND,Heemskerk,Heemskerk,Noord-Holland,VBO,4.652221,52.508573
Lijnbaan,87,,,1969ND,Heemskerk,Heemskerk,Noord-Holland,VBO,4.652148,52.508760
Lijnbaan,89,A,,1969ND,Heemskerk,Heemskerk,Noord-Holland,VBO,4.652096,52.508877
Lijnbaan,89,B,,1969ND,Heemskerk,Heemskerk,Noord-Holland,VBO,4.651971,52.508924
Lijnbaan,89,C,,1969ND,Heemskerk,Heemskerk,Noord-Holland,VBO,4.652096,52.508877
Lijnbaan,89,E,,1969ND,Heemskerk,Heemskerk,Noord-Holland,VBO,4.652096,52.508877
Lijnbaan,89,F,,1969ND,Heemskerk,Heemskerk,Noord-Holland,VBO,4.652096,52.508877
Lijnbaan,89,G,,1969ND,Heemskerk,Heemskerk,Noord-Holland,VBO,4.652096,52.508877
Lijnbaan,89,H,,1969ND,Heemskerk,Heemskerk,Noord-Holland,VBO,4.652096,52.508877
Lijnbaan,89,,,1969ND,Heemskerk,Heemskerk,Noord-Holland,VBO,4.652096,52.508877
Lijnbaan,91,,,1969ND,Heemskerk,Heemskerk,Noord-Holland,VBO,4.652042,52.509025
Lijnbaan,93,,,1969ND,Heemskerk,Heemskerk,Noord-Holland,VBO,4.651811,52.509149
Lijnbaan,8,A,,1969NE,Heemskerk,Heemskerk,Noord-Holland,VBO,4.654949,52.502637
Lijnbaan,8,,,1969NE,Heemskerk,Heemskerk,Noord-Holland,VBO,4.654825,52.502339
Lijnbaan,12,,,1969NE,Heemskerk,Heemskerk,Noord-Holland,VBO,4.654603,52.502903
Lijnbaan,14,,,1969NE,Heemskerk,Heemskerk,Noord-Holland,VBO,4.654551,52.503061
Lijnbaan,16,A,,1969NE,Heemskerk,Heemskerk,Noord-Holland,VBO,4.654607,52.503243
Lijnbaan,16,,,1969NE,Heemskerk,Heemskerk,Noord-Holland,VBO,4.654696,52.503201
Lijnbaan,18,,,1969NE,Heemskerk,Heemskerk,Noord-Holland,VBO,4.654450,52.503335
Lijnbaan,20,,,1969NE,Heemskerk,Heemskerk,Noord-Holland,VBO,4.654424,52.503408
Lijnbaan,28,,,1969NE,Heemskerk,Heemskerk,Noord-Holland,VBO,4.653961,52.504731
Lijnbaan,30,A,,1969NE,Heemskerk,Heemskerk,Noord-Holland,VBO,4.653895,52.504925
Lijnbaan,30,,,1969NE,Heemskerk,Heemskerk,Noord-Holland,VBO,4.653895,52.504925
Lijnbaan,32,A,,1969NE,Heemskerk,Heemskerk,Noord-Holland,VBO,4.653858,52.505004
Lijnbaan,32,,,1969NE,Heemskerk,Heemskerk,Noord-Holland,VBO,4.653858,52.505004
Lijnbaan,34,,,1969NE,Heemskerk,Heemskerk,Noord-Holland,VBO,4.653991,52.505117
Lijnbaan,36,,,1969NE,Heemskerk,Heemskerk,Noord-Holland,VBO,4.653818,52.505144
Lijnbaan,38,A,,1969NE,Heemskerk,Heemskerk,Noord-Holland,VBO,4.653789,52.505257
Lijnbaan,38,B,,1969NE,Heemskerk,Heemskerk,Noord-Holland,VBO,4.653789,52.505257
Lijnbaan,38,C,,1969NE,Heemskerk,Heemskerk,Noord-Holland,VBO,4.654291,52.505321
Lijnbaan,38,,,1969NE,Heemskerk,Heemskerk,Noord-Holland,VBO,4.653789,52.505257
Lijnbaan,40,A,,1969NE,Heemskerk,Heemskerk,Noord-Holland,VBO,4.653732,52.505403
Lijnbaan,40,,,1969NE,Heemskerk,Heemskerk,Noord-Holland,VBO,4.653732,52.505403
Lijnbaan,42,A,,1969NE,Heemskerk,Heemskerk,Noord-Holland,VBO,4.653695,52.505512
Lijnbaan,42,,,1969NE,Heemskerk,Heemskerk,Noord-Holland,VBO,4.653695,52.505512
Lijnbaan,44,A,,1969NE,Heemskerk,Heemskerk,Noord-Holland,VBO,4.653648,52.505712
Lijnbaan,44,,,1969NE,Heemskerk,Heemskerk,Noord-Holland,VBO,4.653648,52.505712
Lijnbaan,46,,,1969NE,Heemskerk,Heemskerk,Noord-Holland,VBO,4.653480,52.506149
Lijnbaan,48,,,1969NE,Heemskerk,Heemskerk,Noord-Holland,VBO,4.653451,52.506237
Lijnbaan,50,A,,1969NE,Heemskerk,Heemskerk,Noord-Holland,VBO,4.653679,52.506515
Lijnbaan,50,,,1969NE,Heemskerk,Heemskerk,Noord-Holland,VBO,4.653393,52.506382
Lijnbaan,52,,,1969NE,Heemskerk,Heemskerk,Noord-Holland,VBO,4.653357,52.506566
Lijnbaan,54,,,1969NE,Heemskerk,Heemskerk,Noord-Holland,VBO,4.653306,52.506690
Lijnbaan,56,,,1969NE,Heemskerk,Heemskerk,Noord-Holland,VBO,4.653276,52.506766
Lijnbaan,62,,,1969NG,Heemskerk,Heemskerk,Noord-Holland,VBO,4.652982,52.507596
Lijnbaan,66,,,1969NG,Heemskerk,Heemskerk,Noord-Holland,VBO,4.652935,52.508538
Lijnbaan,70,,,1969NG,Heemskerk,Heemskerk,Noord-Holland,VBO,4.652512,52.509246
Ambachtsring,2,,,1969NH,Heemskerk,Heemskerk,Noord-Holland,VBO,4.652355,52.502393
Ambachtsring,3,,,1969NH,Heemskerk,Heemskerk,Noord-Holland,VBO,4.653105,52.502367
Ambachtsring,5,,,1969NH,Heemskerk,Heemskerk,Noord-Holland,VBO,4.652746,52.502100
Ambachtsring,7,A,,1969NH,Heemskerk,Heemskerk,Noord-Holland,VBO,4.653380,52.501765
Ambachtsring,7,B,,1969NH,Heemskerk,Heemskerk,Noord-Holland,VBO,4.653264,52.501751
Ambachtsring,7,C,,1969NH,Heemskerk,Heemskerk,Noord-Holland,VBO,4.653149,52.501736
Ambachtsring,7,D,,1969NH,Heemskerk,Heemskerk,Noord-Holland,VBO,4.653034,52.501722
Ambachtsring,7,E,,1969NH,Heemskerk,Heemskerk,Noord-Holland,VBO,4.652918,52.501708
Ambachtsring,7,F,,1969NH,Heemskerk,Heemskerk,Noord-Holland,VBO,4.652730,52.501660
Ambachtsring,7,G,,1969NH,Heemskerk,Heemskerk,Noord-Holland,VBO,4.652727,52.501586
Ambachtsring,7,H,,1969NH,Heemskerk,Heemskerk,Noord-Holland,VBO,4.652724,52.501513
Ambachtsring,7,I,,1969NH,Heemskerk,Heemskerk,Noord-Holland,VBO,4.652962,52.501511
Ambachtsring,7,J,,1969NH,Heemskerk,Heemskerk,Noord-Holland,VBO,4.653077,52.501525
Ambachtsring,7,K,,1969NH,Heemskerk,Heemskerk,Noord-Holland,VBO,4.653193,52.501539
Ambachtsring,7,L,,1969NH,Heemskerk,Heemskerk,Noord-Holland,VBO,4.653308,52.501554
Ambachtsring,7,M,,1969NH,Heemskerk,Heemskerk,Noord-Holland,VBO,4.653423,52.501568
Ambachtsring,7,N,,1969NH,Heemskerk,Heemskerk,Noord-Holland,VBO,4.653540,52.501583
Ambachtsring,7,,,1969NH,Heemskerk,Heemskerk,Noord-Holland,VBO,4.653491,52.501779
Ambachtsring,9,A,,1969NH,Heemskerk,Heemskerk,Noord-Holland,VBO,4.653498,52.501415
Ambachtsring,9,B,,1969NH,Heemskerk,Heemskerk,Noord-Holland,VBO,4.653382,52.501401
Ambachtsring,9,C,,1969NH,Heemskerk,Heemskerk,Noord-Holland,VBO,4.653267,52.501386
Ambachtsring,9,D,,1969NH,Heemskerk,Heemskerk,Noord-Holland,VBO,4.653151,52.501372
Ambachtsring,9,E,,1969NH,Heemskerk,Heemskerk,Noord-Holland,VBO,4.653036,52.501358
Ambachtsring,9,F,,1969NH,Heemskerk,Heemskerk,Noord-Holland,VBO,4.652913,52.501335
Ambachtsring,9,G,,1969NH,Heemskerk,Heemskerk,Noord-Holland,VBO,4.652715,52.501298
Ambachtsring,9,H,,1969NH,Heemskerk,Heemskerk,Noord-Holland,VBO,4.652711,52.501222
Ambachtsring,9,I,,1969NH,Heemskerk,Heemskerk,Noord-Holland,VBO,4.652708,52.501146
Ambachtsring,9,J,,1969NH,Heemskerk,Heemskerk,Noord-Holland,VBO,4.652964,52.501146
Ambachtsring,9,K,,1969NH,Heemskerk,Heemskerk,Noord-Holland,VBO,4.653079,52.501161
Ambachtsring,9,L,,1969NH,Heemskerk,Heemskerk,Noord-Holland,VBO,4.653195,52.501175
Ambachtsring,9,M,,1969NH,Heemskerk,Heemskerk,Noord-Holland,VBO,4.653310,52.501190
Ambachtsring,9,N,,1969NH,Heemskerk,Heemskerk,Noord-Holland,VBO,4.653426,52.501204
Ambachtsring,9,O,,1969NH,Heemskerk,Heemskerk,Noord-Holland,VBO,4.653541,52.501218
Ambachtsring,9,P,,1969NH,Heemskerk,Heemskerk,Noord-Holland,VBO,4.653657,52.501233
Ambachtsring,9,,,1969NH,Heemskerk,Heemskerk,Noord-Holland,VBO,4.653609,52.501429
Ambachtsring,10,A,,1969NH,Heemskerk,Heemskerk,Noord-Holland,VBO,4.652220,52.501622
Ambachtsring,10,,,1969NH,Heemskerk,Heemskerk,Noord-Holland,VBO,4.652315,52.501619
Ambachtsring,13,,,1969NH,Heemskerk,Heemskerk,Noord-Holland,VBO,4.652656,52.500918
Ambachtsring,14,,,1969NH,Heemskerk,Heemskerk,Noord-Holland,VBO,4.652306,52.501121
Ambachtsring,20,,,1969NH,Heemskerk,Heemskerk,Noord-Holland,VBO,4.651372,52.500879
Ambachtsring,22,,,1969NH,Heemskerk,Heemskerk,Noord-Holland,VBO,4.651357,52.501099
Ambachtsring,23,A,,1969NH,Heemskerk,Heemskerk,Noord-Holland,VBO,4.651637,52.500577
Ambachtsring,23,B,,1969NH,Heemskerk,Heemskerk,Noord-Holland,VBO,4.651655,52.500554
Ambachtsring,23,C,,1969NH,Heemskerk,Heemskerk,Noord-Holland,VBO,4.651679,52.500530
Ambachtsring,23,D,,1969NH,Heemskerk,Heemskerk,Noord-Holland,VBO,4.651700,52.500509
Ambachtsring,23,E,,1969NH,Heemskerk,Heemskerk,Noord-Holland,VBO,4.651724,52.500489
Ambachtsring,23,F,,1969NH,Heemskerk,Heemskerk,Noord-Holland,VBO,4.651693,52.500470
Ambachtsring,23,H,,1969NH,Heemskerk,Heemskerk,Noord-Holland,VBO,4.651653,52.500444
Ambachtsring,23,K,,1969NH,Heemskerk,Heemskerk,Noord-Holland,VBO,4.651638,52.500415
Ambachtsring,23,M,,1969NH,Heemskerk,Heemskerk,Noord-Holland,VBO,4.651628,52.500388
Ambachtsring,23,N,,1969NH,Heemskerk,Heemskerk,Noord-Holland,VBO,4.651623,52.500359
Ambachtsring,23,P,,1969NH,Heemskerk,Heemskerk,Noord-Holland,VBO,4.651619,52.500331
Ambachtsring,23,R,,1969NH,Heemskerk,Heemskerk,Noord-Holland,VBO,4.651649,52.500303
Ambachtsring,23,S,,1969NH,Heemskerk,Heemskerk,Noord-Holland,VBO,4.651677,52.500282
Ambachtsring,23,T,,1969NH,Heemskerk,Heemskerk,Noord-Holland,VBO,4.651707,52.500258
Ambachtsring,23,U,,1969NH,Heemskerk,Heemskerk,Noord-Holland,VBO,4.651738,52.500239
Ambachtsring,23,V,,1969NH,Heemskerk,Heemskerk,Noord-Holland,VBO,4.651756,52.500214
Ambachtsring,23,W,,1969NH,Heemskerk,Heemskerk,Noord-Holland,VBO,4.651793,52.500192
Ambachtsring,23,X,,1969NH,Heemskerk,Heemskerk,Noord-Holland,VBO,4.651819,52.500159
Ambachtsring,24,,,1969NH,Heemskerk,Heemskerk,Noord-Holland,VBO,4.651348,52.501212
Ambachtsring,25,A,,1969NH,Heemskerk,Heemskerk,Noord-Holland,VBO,4.651359,52.500607
Ambachtsring,25,B,,1969NH,Heemskerk,Heemskerk,Noord-Holland,VBO,4.651337,52.500471
Ambachtsring,25,C,,1969NH,Heemskerk,Heemskerk,Noord-Holland,VBO,4.651307,52.500258
Ambachtsring,26,,,1969NH,Heemskerk,Heemskerk,Noord-Holland,VBO,4.651339,52.501335
Ambachtsring,27,,,1969NH,Heemskerk,Heemskerk,Noord-Holland,VBO,4.651074,52.500305
Ambachtsring,28,,,1969NH,Heemskerk,Heemskerk,Noord-Holland,VBO,4.651321,52.501402
Ambachtsring,29,,,1969NH,Heemskerk,Heemskerk,Noord-Holland,VBO,4.650929,52.500520
Ambachtsring,30,,,1969NH,Heemskerk,Heemskerk,Noord-Holland,VBO,4.651323,52.501504
Ambachtsring,31,,,1969NH,Heemskerk,Heemskerk,Noord-Holland,VBO,4.651018,52.500738
Ambachtsring,32,B,,1969NH,Heemskerk,Heemskerk,Noord-Holland,VBO,4.651323,52.501504
Ambachtsring,32,C,,1969NH,Heemskerk,Heemskerk,Noord-Holland,VBO,4.651750,52.501499
Ambachtsring,32,,,1969NH,Heemskerk,Heemskerk,Noord-Holland,VBO,4.651468,52.501503
Ambachtsring,33,C,,1969NH,Heemskerk,Heemskerk,Noord-Holland,VBO,4.650847,52.500962
Ambachtsring,33,,,1969NH,Heemskerk,Heemskerk,Noord-Holland,VBO,4.650886,52.500856
Ambachtsring,34,,,1969NH,Heemskerk,Heemskerk,Noord-Holland,VBO,4.651308,52.501823
Timmerwerf,44,,,1969NJ,Heemskerk,Heemskerk,Noord-Holland,VBO,4.652149,52.504994
Timmerwerf,46,,,1969NJ,Heemskerk,Heemskerk,Noord-Holland,VBO,4.652140,52.505144
Timmerwerf,48,,,1969NJ,Heemskerk,Heemskerk,Noord-Holland,VBO,4.652140,52.505144
Timmerwerf,50,,,1969NJ,Heemskerk,Heemskerk,Noord-Holland,VBO,4.652194,52.505169
Timmerwerf,52,,,1969NJ,Heemskerk,Heemskerk,Noord-Holland,VBO,4.652113,52.505243
Timmerwerf,53,,,1969NJ,Heemskerk,Heemskerk,Noord-Holland,VBO,4.651882,52.503664
Timmerwerf,54,,,1969NJ,Heemskerk,Heemskerk,Noord-Holland,VBO,4.652155,52.505384
Timmerwerf,55,,,1969NJ,Heemskerk,Heemskerk,Noord-Holland,VBO,4.651433,52.503554
Timmerwerf,56,A,,1969NJ,Heemskerk,Heemskerk,Noord-Holland,VBO,4.652176,52.505546
Timmerwerf,56,,,1969NJ,Heemskerk,Heemskerk,Noord-Holland,VBO,4.652142,52.505478
Timmerwerf,57,,,1969NJ,Heemskerk,Heemskerk,Noord-Holland,VBO,4.651815,52.503841
Timmerwerf,59,,,1969NJ,Heemskerk,Heemskerk,Noord-Holland,VBO,4.652376,52.505804
Timmerwerf,61,,,1969NJ,Heemskerk,Heemskerk,Noord-Holland,VBO,4.651702,52.504072
Timmerwerf,63,A,,1969NJ,Heemskerk,Heemskerk,Noord-Holland,VBO,4.651332,52.504164
Timmerwerf,63,,,1969NJ,Heemskerk,Heemskerk,Noord-Holland,VBO,4.651706,52.504161
Timmerwerf,65,,,1969NJ,Heemskerk,Heemskerk,Noord-Holland,VBO,4.651711,52.504300
Timmerwerf,67,,,1969NJ,Heemskerk,Heemskerk,Noord-Holland,VBO,4.651687,52.504402
Timmerwerf,69,,,1969NJ,Heemskerk,Heemskerk,Noord-Holland,VBO,4.651394,52.504483
Timmerwerf,71,A,,1969NJ,Heemskerk,Heemskerk,Noord-Holland,VBO,4.651426,52.504552
Timmerwerf,71,,,1969NJ,Heemskerk,Heemskerk,Noord-Holland,VBO,4.651727,52.504614
Timmerwerf,73,,,1969NJ,Heemskerk,Heemskerk,Noord-Holland,VBO,4.651716,52.504686
Timmerwerf,75,,,1969NJ,Heemskerk,Heemskerk,Noord-Holland,VBO,4.651738,52.504855
Timmerwerf,77,,,1969NJ,Heemskerk,Heemskerk,Noord-Holland,VBO,4.651744,52.504971
Timmerwerf,85,,,1969NJ,Heemskerk,Heemskerk,Noord-Holland,VBO,4.651692,52.505098
Timmerwerf,89,,,1969NJ,Heemskerk,Heemskerk,Noord-Holland,VBO,4.651755,52.505222
Timmerwerf,91,,,1969NJ,Heemskerk,Heemskerk,Noord-Holland,VBO,4.651759,52.505314
Timmerwerf,93,,,1969NJ,Heemskerk,Heemskerk,Noord-Holland,VBO,4.651764,52.505438
Timmerwerf,95,A,,1969NJ,Heemskerk,Heemskerk,Noord-Holland,VBO,4.651522,52.505556
Timmerwerf,95,,,1969NJ,Heemskerk,Heemskerk,Noord-Holland,VBO,4.651768,52.505528
Timmerwerf,97,P,,1969NJ,Heemskerk,Heemskerk,Noord-Holland,VBO,4.651776,52.505612
Timmerwerf,99,,,1969NJ,Heemskerk,Heemskerk,Noord-Holland,VBO,4.651623,52.505608
