openbareruimtenaam,huisnummer,huisletter,huisnummertoevoeging,postcode,woonplaatsnaam,gemeentenaam,provincienaam,typeadresseerbaarobject,longitude,latitude
Leidsevaart,2,,,2114AC,Vogelenzang,Bloemendaal,Noord-Holland,VBO,4.588520,52.326148
Leidsevaart,10,,,2114AC,Vogelenzang,Bloemendaal,Noord-Holland,VBO,4.588640,52.325187
Leidsevaart,12,,,2114AC,Vogelenzang,Bloemendaal,Noord-Holland,VBO,4.588611,52.325151
Leidsevaart,14,,,2114AC,Vogelenzang,Bloemendaal,Noord-Holland,VBO,4.588568,52.325106
Leidsevaart,16,,,2114AC,Vogelenzang,Bloemendaal,Noord-Holland,VBO,4.588467,52.325024
Leidsevaart,18,a,,2114AC,Vogelenzang,Bloemendaal,Noord-Holland,VBO,4.588425,52.324925
Leidsevaart,18,,,2114AC,Vogelenzang,Bloemendaal,Noord-Holland,VBO,4.588438,52.324979
Leidsevaart,20,,,2114AC,Vogelenzang,Bloemendaal,Noord-Holland,VBO,4.588396,52.324880
Leidsevaart,22,,,2114AC,Vogelenzang,Bloemendaal,Noord-Holland,VBO,4.588368,52.324826
Leidsevaart,24,,,2114AC,Vogelenzang,Bloemendaal,Noord-Holland,VBO,4.588325,52.324780
Leidsevaart,26,,,2114AC,Vogelenzang,Bloemendaal,Noord-Holland,VBO,4.588296,52.324735
Leidsevaart,28,,,2114AC,Vogelenzang,Bloemendaal,Noord-Holland,VBO,4.588223,52.324699
Leidsevaart,30,,,2114AC,Vogelenzang,Bloemendaal,Noord-Holland,VBO,4.588151,52.324635
Leidsevaart,32,,,2114AC,Vogelenzang,Bloemendaal,Noord-Holland,VBO,4.588093,52.324599
Leidsevaart,34,,,2114AC,Vogelenzang,Bloemendaal,Noord-Holland,VBO,4.587576,52.323984
Leidsevaart,36,,,2114AD,Vogelenzang,Bloemendaal,Noord-Holland,VBO,4.587418,52.323786
Leidsevaart,38,,,2114AD,Vogelenzang,Bloemendaal,Noord-Holland,VBO,4.586300,52.322340
Leidsevaart,40,,,2114AD,Vogelenzang,Bloemendaal,Noord-Holland,VBO,4.586257,52.322286
Leidsevaart,42,,,2114AD,Vogelenzang,Bloemendaal,Noord-Holland,VBO,4.586216,52.322142
Leidsevaart,44,,,2114AD,Vogelenzang,Bloemendaal,Noord-Holland,VBO,4.586130,52.322042
Leidsevaart,48,,,2114AD,Vogelenzang,Bloemendaal,Noord-Holland,VBO,4.586043,52.321943
Leidsevaart,50,,,2114AD,Vogelenzang,Bloemendaal,Noord-Holland,VBO,4.585957,52.321843
Leidsevaart,52,,,2114AD,Vogelenzang,Bloemendaal,Noord-Holland,VBO,4.585856,52.321762
Leidsevaart,54,,,2114AD,Vogelenzang,Bloemendaal,Noord-Holland,VBO,4.585784,52.321680
Leidsevaart,56,,,2114AD,Vogelenzang,Bloemendaal,Noord-Holland,VBO,4.585770,52.321626
Leidsevaart,58,,,2114AD,Vogelenzang,Bloemendaal,Noord-Holland,VBO,4.585698,52.321572
Leidsevaart,60,,,2114AD,Vogelenzang,Bloemendaal,Noord-Holland,VBO,4.585656,52.321482
Leidsevaart,62,,,2114AD,Vogelenzang,Bloemendaal,Noord-Holland,VBO,4.585583,52.321418
Leidsevaart,64,,,2114AD,Vogelenzang,Bloemendaal,Noord-Holland,VBO,4.585555,52.321355
Leidsevaart,66,,,2114AD,Vogelenzang,Bloemendaal,Noord-Holland,VBO,4.585498,52.321301
Leidsevaart,68,,,2114AD,Vogelenzang,Bloemendaal,Noord-Holland,VBO,4.585454,52.321256
Leidsevaart,70,,,2114AE,Vogelenzang,Bloemendaal,Noord-Holland,VBO,4.585426,52.321193
Leidsevaart,72,,,2114AE,Vogelenzang,Bloemendaal,Noord-Holland,VBO,4.585354,52.321129
Leidsevaart,74,,,2114AE,Vogelenzang,Bloemendaal,Noord-Holland,VBO,4.585340,52.321084
Leidsevaart,76,,,2114AE,Vogelenzang,Bloemendaal,Noord-Holland,VBO,4.585311,52.321048
Leidsevaart,78,,,2114AE,Vogelenzang,Bloemendaal,Noord-Holland,VBO,4.585283,52.321012
Leidsevaart,80,,,2114AE,Vogelenzang,Bloemendaal,Noord-Holland,VBO,4.585239,52.320976
Leidsevaart,82,,,2114AE,Vogelenzang,Bloemendaal,Noord-Holland,VBO,4.585196,52.320930
Leidsevaart,84,,,2114AE,Vogelenzang,Bloemendaal,Noord-Holland,VBO,4.585153,52.320876
Leidsevaart,86,,,2114AE,Vogelenzang,Bloemendaal,Noord-Holland,VBO,4.585139,52.320831
Leidsevaart,88,,,2114AE,Vogelenzang,Bloemendaal,Noord-Holland,VBO,4.585096,52.320795
Leidsevaart,90,,,2114AE,Vogelenzang,Bloemendaal,Noord-Holland,VBO,4.585082,52.320759
Leidsevaart,92,,,2114AE,Vogelenzang,Bloemendaal,Noord-Holland,VBO,4.585053,52.320714
Leidsevaart,94,,,2114AE,Vogelenzang,Bloemendaal,Noord-Holland,VBO,4.584996,52.320668
Leidsevaart,96,,,2114AE,Vogelenzang,Bloemendaal,Noord-Holland,VBO,4.584953,52.320605
Leidsevaart,98,,,2114AE,Vogelenzang,Bloemendaal,Noord-Holland,VBO,4.584924,52.320560
Leidsevaart,100,,,2114AE,Vogelenzang,Bloemendaal,Noord-Holland,VBO,4.584881,52.320506
Leidsevaart,102,,,2114AE,Vogelenzang,Bloemendaal,Noord-Holland,VBO,4.584853,52.320452
Leidsevaart,104,,,2114AG,Vogelenzang,Bloemendaal,Noord-Holland,VBO,4.584781,52.320397
Leidsevaart,106,,,2114AG,Vogelenzang,Bloemendaal,Noord-Holland,VBO,4.584708,52.320325
Leidsevaart,108,,,2114AG,Vogelenzang,Bloemendaal,Noord-Holland,VBO,4.584695,52.320253
Leidsevaart,110,,,2114AG,Vogelenzang,Bloemendaal,Noord-Holland,VBO,4.584637,52.320216
Leidsevaart,112,,,2114AG,Vogelenzang,Bloemendaal,Noord-Holland,VBO,4.584594,52.320162
Leidsevaart,114,,,2114AG,Vogelenzang,Bloemendaal,Noord-Holland,VBO,4.584551,52.320126
Leidsevaart,116,,,2114AG,Vogelenzang,Bloemendaal,Noord-Holland,VBO,4.584508,52.320036
Leidsevaart,118,,,2114AG,Vogelenzang,Bloemendaal,Noord-Holland,VBO,4.584465,52.319982
Leidsevaart,120,,,2114AG,Vogelenzang,Bloemendaal,Noord-Holland,VBO,4.584422,52.319936
Leidsevaart,122,,,2114AG,Vogelenzang,Bloemendaal,Noord-Holland,VBO,4.584351,52.319837
Leidsevaart,124,,,2114AG,Vogelenzang,Bloemendaal,Noord-Holland,VBO,4.584307,52.319792
Leidsevaart,126,,,2114AG,Vogelenzang,Bloemendaal,Noord-Holland,VBO,4.584279,52.319747
Leidsevaart,128,,,2114AG,Vogelenzang,Bloemendaal,Noord-Holland,VBO,4.584250,52.319711
Leidsevaart,130,,,2114AG,Vogelenzang,Bloemendaal,Noord-Holland,VBO,4.584222,52.319674
Leidsevaart,132,,,2114AG,Vogelenzang,Bloemendaal,Noord-Holland,VBO,4.584178,52.319629
Leidsevaart,134,,,2114AG,Vogelenzang,Bloemendaal,Noord-Holland,VBO,4.584150,52.319593
Leidsevaart,136,,,2114AG,Vogelenzang,Bloemendaal,Noord-Holland,VBO,4.584107,52.319548
Leidsevaart,138,,,2114AG,Vogelenzang,Bloemendaal,Noord-Holland,VBO,4.584078,52.319521
Leidsevaart,140,,,2114AG,Vogelenzang,Bloemendaal,Noord-Holland,VBO,4.584049,52.319475
Leidsevaart,142,,,2114AG,Vogelenzang,Bloemendaal,Noord-Holland,VBO,4.583934,52.319358
Leidsevaart,144,,,2114AG,Vogelenzang,Bloemendaal,Noord-Holland,VBO,4.583906,52.319295
Leidsevaart,146,,,2114AH,Vogelenzang,Bloemendaal,Noord-Holland,VBO,4.583848,52.319258
Leidsevaart,148,,,2114AH,Vogelenzang,Bloemendaal,Noord-Holland,VBO,4.583849,52.319213
Leidsevaart,150,,,2114AH,Vogelenzang,Bloemendaal,Noord-Holland,VBO,4.583805,52.319168
Leidsevaart,152,,,2114AH,Vogelenzang,Bloemendaal,Noord-Holland,VBO,4.583792,52.319123
Leidsevaart,154,,,2114AH,Vogelenzang,Bloemendaal,Noord-Holland,VBO,4.583748,52.319078
Leidsevaart,156,,,2114AH,Vogelenzang,Bloemendaal,Noord-Holland,VBO,4.583691,52.319024
Leidsevaart,158,,,2114AH,Vogelenzang,Bloemendaal,Noord-Holland,VBO,4.583647,52.318987
Leidsevaart,160,,,2114AH,Vogelenzang,Bloemendaal,Noord-Holland,VBO,4.583604,52.318942
Leidsevaart,162,,,2114AH,Vogelenzang,Bloemendaal,Noord-Holland,VBO,4.583546,52.318906
Leidsevaart,164,,,2114AH,Vogelenzang,Bloemendaal,Noord-Holland,VBO,4.583517,52.318870
Leidsevaart,166,,,2114AH,Vogelenzang,Bloemendaal,Noord-Holland,VBO,4.583430,52.318824
Leidsevaart,168,,,2114AH,Vogelenzang,Bloemendaal,Noord-Holland,VBO,4.583343,52.318761
Leidsevaart,170,,,2114AH,Vogelenzang,Bloemendaal,Noord-Holland,VBO,4.583228,52.318643
Leidsevaart,172,,,2114AH,Vogelenzang,Bloemendaal,Noord-Holland,VBO,4.583170,52.318616
Leidsevaart,174,,,2114AH,Vogelenzang,Bloemendaal,Noord-Holland,VBO,4.583069,52.318543
Leidsevaart,186,,,2114AJ,Vogelenzang,Bloemendaal,Noord-Holland,VBO,4.581229,52.318054
Leidsevaart,254,,,2114AJ,Vogelenzang,Bloemendaal,Noord-Holland,VBO,4.578047,52.317224
Leidsevaart,256,,,2114AJ,Vogelenzang,Bloemendaal,Noord-Holland,VBO,4.576518,52.316629
Leidsevaart,258,,,2114AJ,Vogelenzang,Bloemendaal,Noord-Holland,VBO,4.576446,52.316583
Leidsevaart,260,,,2114AJ,Vogelenzang,Bloemendaal,Noord-Holland,VBO,4.576285,52.316537
Leidsevaart,262,,,2114AJ,Vogelenzang,Bloemendaal,Noord-Holland,VBO,4.576197,52.316519
Leidsevaart,264,,,2114AJ,Vogelenzang,Bloemendaal,Noord-Holland,VBO,4.576066,52.316464
Leidsevaart,266,,,2114AJ,Vogelenzang,Bloemendaal,Noord-Holland,VBO,4.575993,52.316445
Leidsevaart,268,,,2114AJ,Vogelenzang,Bloemendaal,Noord-Holland,VBO,4.575848,52.316409
Leidsevaart,270,,,2114AJ,Vogelenzang,Bloemendaal,Noord-Holland,VBO,4.575701,52.316381
Leidsevaart,272,,,2114AJ,Vogelenzang,Bloemendaal,Noord-Holland,VBO,4.573905,52.315955
Leidsevaart,274,,,2114AJ,Vogelenzang,Bloemendaal,Noord-Holland,VBO,4.573832,52.315927
Leidsevaart,276,,,2114AJ,Vogelenzang,Bloemendaal,Noord-Holland,VBO,4.573745,52.315900
Leidsevaart,278,,,2114AJ,Vogelenzang,Bloemendaal,Noord-Holland,VBO,4.573687,52.315881
Leidsevaart,280,,,2114AJ,Vogelenzang,Bloemendaal,Noord-Holland,VBO,4.573541,52.315835
Leidsevaart,282,,,2114AJ,Vogelenzang,Bloemendaal,Noord-Holland,VBO,4.573497,52.315799
Leidsevaart,284,,,2114AJ,Vogelenzang,Bloemendaal,Noord-Holland,VBO,4.573439,52.315763
Leidsevaart,286,,,2114AJ,Vogelenzang,Bloemendaal,Noord-Holland,VBO,4.573382,52.315717
Leidsevaart,288,,,2114AJ,Vogelenzang,Bloemendaal,Noord-Holland,VBO,4.573324,52.315681
Leidsevaart,290,,,2114AJ,Vogelenzang,Bloemendaal,Noord-Holland,VBO,4.573134,52.315626
Leidsevaart,292,,,2114AJ,Vogelenzang,Bloemendaal,Noord-Holland,VBO,4.573061,52.315607
Leidsevaart,294,,,2114AJ,Vogelenzang,Bloemendaal,Noord-Holland,VBO,4.572958,52.315598
Leidsevaart,1,,,2114AK,Vogelenzang,Bloemendaal,Noord-Holland,LIG,4.581663,52.317942
Leidsevaart,3,,,2114AK,Vogelenzang,Bloemendaal,Noord-Holland,LIG,4.581267,52.317816
Leidsevaart,5,,,2114AK,Vogelenzang,Bloemendaal,Noord-Holland,LIG,4.581084,52.317762
Leidsevaart,7,,,2114AK,Vogelenzang,Bloemendaal,Noord-Holland,LIG,4.580873,52.317692
Leidsevaart,9,,,2114AK,Vogelenzang,Bloemendaal,Noord-Holland,LIG,4.580587,52.317603
Leidsevaart,11,,,2114AK,Vogelenzang,Bloemendaal,Noord-Holland,LIG,4.580348,52.317539
Zilkerduinweg,375,,,2114AM,Vogelenzang,Bloemendaal,Noord-Holland,VBO,4.557019,52.311541
Zilkerduinweg,377,,,2114AM,Vogelenzang,Bloemendaal,Noord-Holland,VBO,4.561506,52.314736
Zilkerduinweg,379,,,2114AM,Vogelenzang,Bloemendaal,Noord-Holland,VBO,4.561637,52.314782
Zilkerduinweg,385,,,2114AM,Vogelenzang,Bloemendaal,Noord-Holland,VBO,4.562058,52.314983
Zilkerduinweg,394,,,2114AM,Vogelenzang,Bloemendaal,Noord-Holland,VBO,4.558144,52.310992
Zilkerduinweg,396,,,2114AM,Vogelenzang,Bloemendaal,Noord-Holland,VBO,4.558911,52.311545
Zilkerduinweg,398,,,2114AM,Vogelenzang,Bloemendaal,Noord-Holland,VBO,4.559123,52.311942
Zilkerduinweg,400,a,,2114AM,Vogelenzang,Bloemendaal,Noord-Holland,VBO,4.559353,52.312178
Zilkerduinweg,400,,,2114AM,Vogelenzang,Bloemendaal,Noord-Holland,VBO,4.559325,52.312115
Zilkerduinweg,402,a,,2114AM,Vogelenzang,Bloemendaal,Noord-Holland,VBO,4.561036,52.312414
Zilkerduinweg,402,b,,2114AM,Vogelenzang,Bloemendaal,Noord-Holland,VBO,4.561001,52.313457
Zilkerduinweg,402,c,,2114AM,Vogelenzang,Bloemendaal,Noord-Holland,VBO,4.562292,52.313475
Zilkerduinweg,402,,,2114AM,Vogelenzang,Bloemendaal,Noord-Holland,VBO,4.559570,52.312386
Zilkerduinweg,404,,,2114AM,Vogelenzang,Bloemendaal,Noord-Holland,VBO,4.561374,52.313935
Margrietenlaan,1,,,2114AN,Vogelenzang,Bloemendaal,Noord-Holland,VBO,4.562358,52.314566
Tweede Doodweg,17,,,2114AP,Vogelenzang,Bloemendaal,Noord-Holland,VBO,4.566493,52.320254
Tweede Doodweg,18,,,2114AP,Vogelenzang,Bloemendaal,Noord-Holland,VBO,4.567043,52.319853
Tweede Doodweg,24,,,2114AP,Vogelenzang,Bloemendaal,Noord-Holland,VBO,4.570265,52.324082
Tweede Doodweg,26,,,2114AP,Vogelenzang,Bloemendaal,Noord-Holland,VBO,4.570648,52.324004
Tweede Doodweg,28,,,2114AP,Vogelenzang,Bloemendaal,Noord-Holland,VBO,4.570898,52.323960
Bekslaan,4,,,2114AR,Vogelenzang,Bloemendaal,Noord-Holland,VBO,4.563139,52.327079
Bekslaan,14,,,2114AR,Vogelenzang,Bloemendaal,Noord-Holland,VBO,4.568274,52.326279
Bekslaan,18,a,,2114AR,Vogelenzang,Bloemendaal,Noord-Holland,VBO,4.568399,52.327421
Bekslaan,18,,,2114AR,Vogelenzang,Bloemendaal,Noord-Holland,VBO,4.568462,52.327206
Bekslaan,20,,,2114AR,Vogelenzang,Bloemendaal,Noord-Holland,VBO,4.571662,52.327076
Bekslaan,22,,,2114AR,Vogelenzang,Bloemendaal,Noord-Holland,VBO,4.572172,52.327304
Vogelenzangseduinweg,1,a,,2114AS,Vogelenzang,Bloemendaal,Noord-Holland,VBO,4.567081,52.330584
Vogelenzangseduinweg,1,,,2114AS,Vogelenzang,Bloemendaal,Noord-Holland,VBO,4.567095,52.330549
Vogelenzangseduinweg,2,,,2114AS,Vogelenzang,Bloemendaal,Noord-Holland,VBO,4.565362,52.331409
Vogelenzangseduinweg,3,,,2114AS,Vogelenzang,Bloemendaal,Noord-Holland,VBO,4.572479,52.328133
Vogelenzangseduinweg,4,,,2114AS,Vogelenzang,Bloemendaal,Noord-Holland,VBO,4.566399,52.330859
Vogelenzangseduinweg,22,,,2114AS,Vogelenzang,Bloemendaal,Noord-Holland,VBO,4.574521,52.331994
Vogelenzangseduinweg,24,,,2114AS,Vogelenzang,Bloemendaal,Noord-Holland,VBO,4.574489,52.331865
Vogelenzangseweg,17,,,2114BA,Vogelenzang,Bloemendaal,Noord-Holland,VBO,4.588014,52.346089
Vogelenzangseweg,21,,,2114BA,Heemstede,Heemstede,Noord-Holland,VBO,4.597314,52.343783
Vogelenzangseweg,25,,,2114BB,Vogelenzang,Bloemendaal,Noord-Holland,VBO,4.587440,52.345375
Vogelenzangseweg,27,,,2114BB,Vogelenzang,Bloemendaal,Noord-Holland,VBO,4.587075,52.345310
Vogelenzangseweg,29,,,2114BB,Vogelenzang,Bloemendaal,Noord-Holland,VBO,4.592454,52.344034
Vogelenzangseweg,31,,,2114BB,Vogelenzang,Bloemendaal,Noord-Holland,VBO,4.592570,52.344088
Vogelenzangseweg,33,,,2114BB,Vogelenzang,Bloemendaal,Noord-Holland,VBO,4.592583,52.344205
Vogelenzangseweg,35,,,2114BB,Vogelenzang,Bloemendaal,Noord-Holland,VBO,4.585397,52.343096
Vogelenzangseweg,37,,,2114BB,Vogelenzang,Bloemendaal,Noord-Holland,VBO,4.585432,52.341991
Vogelenzangseweg,39,,,2114BB,Vogelenzang,Bloemendaal,Noord-Holland,VBO,4.584717,52.338535
Vogelenzangseweg,41,a,,2114BB,Vogelenzang,Bloemendaal,Noord-Holland,VBO,4.585659,52.333472
Vogelenzangseweg,41,b,,2114BB,Vogelenzang,Bloemendaal,Noord-Holland,VBO,4.588265,52.335413
Vogelenzangseweg,41,,,2114BB,Vogelenzang,Bloemendaal,Noord-Holland,VBO,4.580450,52.331908
Vogelenzangseweg,43,,,2114BB,Vogelenzang,Bloemendaal,Noord-Holland,VBO,4.580278,52.331656
Vogelenzangseweg,45,,,2114BB,Vogelenzang,Bloemendaal,Noord-Holland,VBO,4.580120,52.331466
Vogelenzangseweg,47,,,2114BB,Vogelenzang,Bloemendaal,Noord-Holland,VBO,4.580165,52.331412
Vogelenzangseweg,49,,,2114BB,Vogelenzang,Bloemendaal,Noord-Holland,VBO,4.580639,52.330699
Vogelenzangseweg,51,a,,2114BB,Vogelenzang,Bloemendaal,Noord-Holland,VBO,4.580625,52.328755
Vogelenzangseweg,51,,,2114BB,Vogelenzang,Bloemendaal,Noord-Holland,VBO,4.580549,52.330489
Vogelenzangseweg,53,,,2114BB,Vogelenzang,Bloemendaal,Noord-Holland,VBO,4.580173,52.327790
Vogelenzangseweg,102,,,2114BC,Vogelenzang,Bloemendaal,Noord-Holland,VBO,4.585035,52.342869
Vogelenzangseweg,106,,,2114BC,Vogelenzang,Bloemendaal,Noord-Holland,VBO,4.585017,52.342249
Vogelenzangseweg,160,,,2114BC,Vogelenzang,Bloemendaal,Noord-Holland,VBO,4.579213,52.335378
Vogelenzangseweg,164,a,,2114BC,Vogelenzang,Bloemendaal,Noord-Holland,VBO,4.577167,52.334133
Vogelenzangseweg,164,b,,2114BC,Vogelenzang,Bloemendaal,Noord-Holland,VBO,4.577552,52.333956
Vogelenzangseweg,164,,,2114BC,Vogelenzang,Bloemendaal,Noord-Holland,VBO,4.577287,52.333999
Vogelenzangseweg,166,,,2114BC,Vogelenzang,Bloemendaal,Noord-Holland,VBO,4.574388,52.334446
Vogelenzangseweg,170,,,2114BC,Vogelenzang,Bloemendaal,Noord-Holland,VBO,4.578560,52.332579
Vogelenzangseweg,172,,,2114BC,Vogelenzang,Bloemendaal,Noord-Holland,VBO,4.579227,52.332179
Vogelenzangseweg,178,,,2114BD,Vogelenzang,Bloemendaal,Noord-Holland,VBO,4.579458,52.331569
Vogelenzangseweg,180,a,,2114BD,Vogelenzang,Bloemendaal,Noord-Holland,VBO,4.579449,52.331263
Vogelenzangseweg,180,,,2114BD,Vogelenzang,Bloemendaal,Noord-Holland,VBO,4.579492,52.331336
Vogelenzangseweg,182,,,2114BD,Vogelenzang,Bloemendaal,Noord-Holland,VBO,4.579423,52.331092
Vogelenzangseweg,184,a,,2114BD,Vogelenzang,Bloemendaal,Noord-Holland,VBO,4.579640,52.330465
Vogelenzangseweg,184,,,2114BD,Vogelenzang,Bloemendaal,Noord-Holland,VBO,4.579415,52.330742
Vogelenzangseweg,186,a,,2114BD,Vogelenzang,Bloemendaal,Noord-Holland,VBO,4.579839,52.329990
Vogelenzangseweg,186,b,,2114BD,Vogelenzang,Bloemendaal,Noord-Holland,VBO,4.579629,52.330249
Vogelenzangseweg,186,,,2114BD,Vogelenzang,Bloemendaal,Noord-Holland,VBO,4.579820,52.330223
Vogelenzangseweg,188,,,2114BD,Vogelenzang,Bloemendaal,Noord-Holland,VBO,4.579899,52.329945
Vogelenzangseweg,190,,,2114BD,Vogelenzang,Bloemendaal,Noord-Holland,VBO,4.579785,52.329720
Vogelenzangseweg,192,,,2114BD,Vogelenzang,Bloemendaal,Noord-Holland,VBO,4.579788,52.329558
Vogelenzangseweg,194,,,2114BD,Vogelenzang,Bloemendaal,Noord-Holland,VBO,4.579790,52.329495
Vogelenzangseweg,196,,,2114BD,Vogelenzang,Bloemendaal,Noord-Holland,VBO,4.579777,52.329351
Vogelenzangseweg,198,,,2114BD,Vogelenzang,Bloemendaal,Noord-Holland,VBO,4.579678,52.329189
Woestduinweg,4,,,2114BE,Vogelenzang,Bloemendaal,Noord-Holland,VBO,4.590368,52.337629
2e Leijweg,1,,,2114BG,Vogelenzang,Bloemendaal,Noord-Holland,VBO,4.591604,52.340675
2e Leijweg,7,a,,2114BG,Vogelenzang,Bloemendaal,Noord-Holland,VBO,4.594542,52.342142
2e Leijweg,7,,,2114BG,Vogelenzang,Bloemendaal,Noord-Holland,VBO,4.594425,52.342168
2e Leijweg,8,,,2114BG,Vogelenzang,Bloemendaal,Noord-Holland,VBO,4.587498,52.339749
1e Leijweg,1,,,2114BH,Vogelenzang,Bloemendaal,Noord-Holland,VBO,4.583187,52.343629
1e Leijweg,2,,,2114BH,Vogelenzang,Bloemendaal,Noord-Holland,VBO,4.582223,52.345798
1e Leijweg,3,,,2114BH,Vogelenzang,Bloemendaal,Noord-Holland,VBO,4.582638,52.343940
1e Leijweg,6,,,2114BH,Vogelenzang,Bloemendaal,Noord-Holland,VBO,4.578470,52.346339
1e Leijweg,7,,,2114BH,Vogelenzang,Bloemendaal,Noord-Holland,VBO,4.582141,52.344629
1e Leijweg,9,a,,2114BH,Vogelenzang,Bloemendaal,Noord-Holland,VBO,4.583168,52.346254
1e Leijweg,9,b,,2114BH,Vogelenzang,Bloemendaal,Noord-Holland,VBO,4.583244,52.346111
1e Leijweg,9,,,2114BH,Vogelenzang,Bloemendaal,Noord-Holland,VBO,4.583053,52.346145
Manpadslaan,1,,,2114BJ,Vogelenzang,Bloemendaal,Noord-Holland,VBO,4.591896,52.338322
Manpadslaan,2,,,2114BJ,Vogelenzang,Bloemendaal,Noord-Holland,VBO,4.592436,52.336825
Manpadslaan,4,,,2114BJ,Vogelenzang,Bloemendaal,Noord-Holland,VBO,4.591120,52.337391
Manpadslaan,6,,,2114BJ,Vogelenzang,Bloemendaal,Noord-Holland,VBO,4.590944,52.337408
Manpadslaan,8,,,2114BJ,Vogelenzang,Bloemendaal,Noord-Holland,VBO,4.591139,52.335531
Bekslaan,26,,,2114CA,Vogelenzang,Bloemendaal,Noord-Holland,VBO,4.579552,52.325638
Bekslaan,28,,,2114CA,Vogelenzang,Bloemendaal,Noord-Holland,VBO,4.580126,52.325534
Bekslaan,30,,,2114CA,Vogelenzang,Bloemendaal,Noord-Holland,VBO,4.581201,52.325271
Bekslaan,32,,,2114CA,Vogelenzang,Bloemendaal,Noord-Holland,VBO,4.582011,52.325124
Bekslaan,34,,,2114CA,Vogelenzang,Bloemendaal,Noord-Holland,VBO,4.583114,52.324925
Bekslaan,36,,,2114CA,Vogelenzang,Bloemendaal,Noord-Holland,VBO,4.582582,52.324364
Bekslaan,38,,,2114CA,Vogelenzang,Bloemendaal,Noord-Holland,VBO,4.584144,52.324770
Bekslaan,40,,,2114CA,Vogelenzang,Bloemendaal,Noord-Holland,VBO,4.585070,52.324677
Bekslaan,42,,,2114CA,Vogelenzang,Bloemendaal,Noord-Holland,VBO,4.586012,52.324504
Bekslaan,52,,,2114CA,Vogelenzang,Bloemendaal,Noord-Holland,VBO,4.584935,52.323203
Bekslaan,56,,,2114CA,Vogelenzang,Bloemendaal,Noord-Holland,VBO,4.583459,52.323707
Bekslaan,9,,,2114CB,Vogelenzang,Bloemendaal,Noord-Holland,VBO,4.579775,52.326259
Bekslaan,11,a,,2114CB,Vogelenzang,Bloemendaal,Noord-Holland,VBO,4.582296,52.326357
Bekslaan,11,k,7,2114CB,Vogelenzang,Bloemendaal,Noord-Holland,VBO,4.580700,52.326164
Bekslaan,11,K,1,2114CB,Vogelenzang,Bloemendaal,Noord-Holland,VBO,4.580497,52.326154
Bekslaan,11,K,10,2114CB,Vogelenzang,Bloemendaal,Noord-Holland,VBO,4.580865,52.326150
Bekslaan,11,K,11,2114CB,Vogelenzang,Bloemendaal,Noord-Holland,VBO,4.580903,52.326125
Bekslaan,11,K,12,2114CB,Vogelenzang,Bloemendaal,Noord-Holland,VBO,4.580939,52.326098
Bekslaan,11,K,13,2114CB,Vogelenzang,Bloemendaal,Noord-Holland,VBO,4.580976,52.326067
Bekslaan,11,K,14,2114CB,Vogelenzang,Bloemendaal,Noord-Holland,VBO,4.581013,52.326038
Bekslaan,11,K,15,2114CB,Vogelenzang,Bloemendaal,Noord-Holland,VBO,4.581046,52.326010
Bekslaan,11,K,16,2114CB,Vogelenzang,Bloemendaal,Noord-Holland,VBO,4.581091,52.326032
Bekslaan,11,K,17,2114CB,Vogelenzang,Bloemendaal,Noord-Holland,VBO,4.581138,52.326055
Bekslaan,11,K,2,2114CB,Vogelenzang,Bloemendaal,Noord-Holland,VBO,4.580568,52.326193
Bekslaan,11,K,4,2114CB,Vogelenzang,Bloemendaal,Noord-Holland,VBO,4.580628,52.326224
Bekslaan,11,K,5,2114CB,Vogelenzang,Bloemendaal,Noord-Holland,VBO,4.580572,52.326095
Bekslaan,11,K,6,2114CB,Vogelenzang,Bloemendaal,Noord-Holland,VBO,4.580638,52.326133
Bekslaan,11,K,8,2114CB,Vogelenzang,Bloemendaal,Noord-Holland,VBO,4.580782,52.326206
Bekslaan,11,K,9,2114CB,Vogelenzang,Bloemendaal,Noord-Holland,VBO,4.580826,52.326177
Bekslaan,11,,,2114CB,Vogelenzang,Bloemendaal,Noord-Holland,VBO,4.580919,52.326258
Bekslaan,13,,,2114CB,Vogelenzang,Bloemendaal,Noord-Holland,VBO,4.583007,52.325976
Bekslaan,15,,,2114CB,Vogelenzang,Bloemendaal,Noord-Holland,VBO,4.583821,52.325586
Bekslaan,25,,,2114CB,Vogelenzang,Bloemendaal,Noord-Holland,VBO,4.584822,52.325413
Bekslaan,27,,,2114CB,Vogelenzang,Bloemendaal,Noord-Holland,VBO,4.585897,52.325168
Bekslaan,29,,,2114CB,Vogelenzang,Bloemendaal,Noord-Holland,VBO,4.586882,52.325058
Bekslaan,35,a,,2114CB,Vogelenzang,Bloemendaal,Noord-Holland,VBO,4.587874,52.324526
Bekslaan,35,,,2114CB,Vogelenzang,Bloemendaal,Noord-Holland,VBO,4.587876,52.324463
Vogelenzangseweg,59,,,2114CC,Vogelenzang,Bloemendaal,Noord-Holland,VBO,4.579412,52.325250
Vogelenzangseweg,61,,,2114CC,Vogelenzang,Bloemendaal,Noord-Holland,VBO,4.579113,52.324727
Vogelenzangseweg,63,a,,2114CC,Vogelenzang,Bloemendaal,Noord-Holland,VBO,4.578858,52.324267
Vogelenzangseweg,63,b,,2114CC,Vogelenzang,Bloemendaal,Noord-Holland,VBO,4.578908,52.323908
Vogelenzangseweg,63,c,,2114CC,Vogelenzang,Bloemendaal,Noord-Holland,VBO,4.579079,52.324205
Vogelenzangseweg,63,,,2114CC,Vogelenzang,Bloemendaal,Noord-Holland,VBO,4.578563,52.324319
Vogelenzangseweg,65,,,2114CC,Vogelenzang,Bloemendaal,Noord-Holland,VBO,4.580110,52.323988
Vogelenzangseweg,67,a,,2114CC,Vogelenzang,Bloemendaal,Noord-Holland,VBO,4.579977,52.323118
Vogelenzangseweg,67,b,,2114CC,Vogelenzang,Bloemendaal,Noord-Holland,VBO,4.579682,52.323282
Vogelenzangseweg,67,,,2114CC,Vogelenzang,Bloemendaal,Noord-Holland,VBO,4.580108,52.323296
Vogelenzangseweg,69,,,2114CC,Vogelenzang,Bloemendaal,Noord-Holland,VBO,4.579094,52.323378
Vogelenzangseweg,71,,,2114CC,Vogelenzang,Bloemendaal,Noord-Holland,VBO,4.578695,52.323547
Vogelenzangseweg,73,,,2114CC,Vogelenzang,Bloemendaal,Noord-Holland,VBO,4.578657,52.323223
Vogelenzangseweg,77,,a1,2114CC,Vogelenzang,Bloemendaal,Noord-Holland,VBO,4.578785,52.322648
Vogelenzangseweg,77,,a10,2114CC,Vogelenzang,Bloemendaal,Noord-Holland,VBO,4.578831,52.322505
Vogelenzangseweg,77,,a11,2114CC,Vogelenzang,Bloemendaal,Noord-Holland,VBO,4.578905,52.322496
Vogelenzangseweg,77,,a12,2114CC,Vogelenzang,Bloemendaal,Noord-Holland,VBO,4.578964,52.322479
Vogelenzangseweg,77,,a2,2114CC,Vogelenzang,Bloemendaal,Noord-Holland,VBO,4.578932,52.322622
Vogelenzangseweg,77,,a3,2114CC,Vogelenzang,Bloemendaal,Noord-Holland,VBO,4.578932,52.322622
Vogelenzangseweg,77,,a4,2114CC,Vogelenzang,Bloemendaal,Noord-Holland,VBO,4.579020,52.322605
Vogelenzangseweg,77,,a5,2114CC,Vogelenzang,Bloemendaal,Noord-Holland,VBO,4.578771,52.322585
Vogelenzangseweg,77,,a6,2114CC,Vogelenzang,Bloemendaal,Noord-Holland,VBO,4.578844,52.322577
Vogelenzangseweg,77,,a7,2114CC,Vogelenzang,Bloemendaal,Noord-Holland,VBO,4.578918,52.322568
Vogelenzangseweg,77,,a8,2114CC,Vogelenzang,Bloemendaal,Noord-Holland,VBO,4.579006,52.322551
Vogelenzangseweg,77,,a9,2114CC,Vogelenzang,Bloemendaal,Noord-Holland,VBO,4.578757,52.322522
Vogelenzangseweg,79,,a1,2114CC,Vogelenzang,Bloemendaal,Noord-Holland,VBO,4.578294,52.322178
Vogelenzangseweg,79,,a10,2114CC,Vogelenzang,Bloemendaal,Noord-Holland,VBO,4.578311,52.322043
Vogelenzangseweg,79,,a11,2114CC,Vogelenzang,Bloemendaal,Noord-Holland,VBO,4.578385,52.322034
Vogelenzangseweg,79,,a12,2114CC,Vogelenzang,Bloemendaal,Noord-Holland,VBO,4.578459,52.322017
Vogelenzangseweg,79,,a2,2114CC,Vogelenzang,Bloemendaal,Noord-Holland,VBO,4.578368,52.322160
Vogelenzangseweg,79,,a3,2114CC,Vogelenzang,Bloemendaal,Noord-Holland,VBO,4.578442,52.322152
Vogelenzangseweg,79,,a4,2114CC,Vogelenzang,Bloemendaal,Noord-Holland,VBO,4.578530,52.322143
Vogelenzangseweg,79,,a5,2114CC,Vogelenzang,Bloemendaal,Noord-Holland,VBO,4.578281,52.322115
Vogelenzangseweg,79,,a6,2114CC,Vogelenzang,Bloemendaal,Noord-Holland,VBO,4.578354,52.322106
Vogelenzangseweg,79,,a7,2114CC,Vogelenzang,Bloemendaal,Noord-Holland,VBO,4.578443,52.322089
Vogelenzangseweg,79,,a8,2114CC,Vogelenzang,Bloemendaal,Noord-Holland,VBO,4.578502,52.322080
Vogelenzangseweg,79,,a9,2114CC,Vogelenzang,Bloemendaal,Noord-Holland,VBO,4.578223,52.322051
Vogelenzangseweg,81,,,2114CC,Vogelenzang,Bloemendaal,Noord-Holland,VBO,4.577409,52.321174
Vogelenzangseweg,83,,,2114CC,Vogelenzang,Bloemendaal,Noord-Holland,VBO,4.577567,52.321031
Vogelenzangseweg,85,,,2114CD,Vogelenzang,Bloemendaal,Noord-Holland,VBO,4.577658,52.320861
Vogelenzangseweg,91,,,2114CD,Vogelenzang,Bloemendaal,Noord-Holland,VBO,4.577214,52.320274
Vogelenzangseweg,93,,,2114CD,Vogelenzang,Bloemendaal,Noord-Holland,VBO,4.577186,52.320229
Vogelenzangseweg,95,,,2114CD,Vogelenzang,Bloemendaal,Noord-Holland,VBO,4.577172,52.320175
Vogelenzangseweg,97,,,2114CD,Vogelenzang,Bloemendaal,Noord-Holland,VBO,4.577158,52.320130
Vogelenzangseweg,99,,,2114CE,Vogelenzang,Bloemendaal,Noord-Holland,VBO,4.577043,52.320012
Vogelenzangseweg,101,,,2114CE,Vogelenzang,Bloemendaal,Noord-Holland,VBO,4.577000,52.319958
Vogelenzangseweg,103,,,2114CE,Vogelenzang,Bloemendaal,Noord-Holland,VBO,4.576986,52.319913
Vogelenzangseweg,105,,,2114CE,Vogelenzang,Bloemendaal,Noord-Holland,VBO,4.576958,52.319859
Vogelenzangseweg,107,,,2114CE,Vogelenzang,Bloemendaal,Noord-Holland,VBO,4.576931,52.319724
Vogelenzangseweg,109,,,2114CE,Vogelenzang,Bloemendaal,Noord-Holland,VBO,4.576917,52.319679
Vogelenzangseweg,111,,,2114CE,Vogelenzang,Bloemendaal,Noord-Holland,VBO,4.576889,52.319624
Vogelenzangseweg,113,,,2114CE,Vogelenzang,Bloemendaal,Noord-Holland,VBO,4.576860,52.319570
Vogelenzangseweg,115,,,2114CE,Vogelenzang,Bloemendaal,Noord-Holland,VBO,4.576789,52.319462
Vogelenzangseweg,117,,,2114CE,Vogelenzang,Bloemendaal,Noord-Holland,VBO,4.576632,52.319209
Vogelenzangseweg,119,,,2114CE,Vogelenzang,Bloemendaal,Noord-Holland,VBO,4.576446,52.318974
Vogelenzangseweg,123,,,2114CE,Vogelenzang,Bloemendaal,Noord-Holland,VBO,4.576390,52.318821
Vogelenzangseweg,125,,,2114CE,Vogelenzang,Bloemendaal,Noord-Holland,VBO,4.576393,52.318686
Vogelenzangseweg,129,,,2114CG,Vogelenzang,Bloemendaal,Noord-Holland,VBO,4.576167,52.318199
Vogelenzangseweg,131,,,2114CG,Vogelenzang,Bloemendaal,Noord-Holland,VBO,4.576079,52.318172
Vogelenzangseweg,133,,,2114CG,Vogelenzang,Bloemendaal,Noord-Holland,VBO,4.576036,52.318127
Vogelenzangseweg,135,,,2114CG,Vogelenzang,Bloemendaal,Noord-Holland,VBO,4.575963,52.318090
Vogelenzangseweg,137,,,2114CG,Vogelenzang,Bloemendaal,Noord-Holland,VBO,4.575848,52.317990
Vogelenzangseweg,139,,,2114CG,Vogelenzang,Bloemendaal,Noord-Holland,VBO,4.575775,52.317963
Vogelenzangseweg,141,,,2114CG,Vogelenzang,Bloemendaal,Noord-Holland,VBO,4.575732,52.317918
Vogelenzangseweg,143,,,2114CG,Vogelenzang,Bloemendaal,Noord-Holland,VBO,4.575689,52.317872
Vogelenzangseweg,145,,,2114CG,Vogelenzang,Bloemendaal,Noord-Holland,VBO,4.575588,52.317782
Vogelenzangseweg,147,,,2114CG,Vogelenzang,Bloemendaal,Noord-Holland,VBO,4.575500,52.317745
Vogelenzangseweg,149,,,2114CG,Vogelenzang,Bloemendaal,Noord-Holland,VBO,4.575457,52.317700
Vogelenzangseweg,151,,,2114CG,Vogelenzang,Bloemendaal,Noord-Holland,VBO,4.575443,52.317664
Vogelenzangseweg,153,,,2114CG,Vogelenzang,Bloemendaal,Noord-Holland,VBO,4.575328,52.317573
Vogelenzangseweg,155,,,2114CG,Vogelenzang,Bloemendaal,Noord-Holland,VBO,4.575270,52.317519
Vogelenzangseweg,157,,,2114CG,Vogelenzang,Bloemendaal,Noord-Holland,VBO,4.575212,52.317483
Vogelenzangseweg,159,,,2114CG,Vogelenzang,Bloemendaal,Noord-Holland,VBO,4.575169,52.317446
Vogelenzangseweg,161,,,2114CG,Vogelenzang,Bloemendaal,Noord-Holland,VBO,4.575054,52.317275
Vogelenzangseweg,163,,,2114CG,Vogelenzang,Bloemendaal,Noord-Holland,VBO,4.575026,52.317221
Vogelenzangseweg,165,,,2114CG,Vogelenzang,Bloemendaal,Noord-Holland,VBO,4.574955,52.317076
Vogelenzangseweg,167,,,2114CG,Vogelenzang,Bloemendaal,Noord-Holland,VBO,4.574927,52.317031
Vogelenzangseweg,169,,,2114CG,Vogelenzang,Bloemendaal,Noord-Holland,VBO,4.574841,52.316896
Vogelenzangseweg,171,,,2114CG,Vogelenzang,Bloemendaal,Noord-Holland,VBO,4.574828,52.316842
Vogelenzangseweg,173,,,2114CG,Vogelenzang,Bloemendaal,Noord-Holland,VBO,4.574771,52.316707
Vogelenzangseweg,175,,,2114CG,Vogelenzang,Bloemendaal,Noord-Holland,VBO,4.574715,52.316563
Vogelenzangseweg,177,,,2114CG,Vogelenzang,Bloemendaal,Noord-Holland,VBO,4.574734,52.316338
Vogelenzangseweg,179,,,2114CG,Vogelenzang,Bloemendaal,Noord-Holland,VBO,4.574779,52.316284
Vogelenzangseweg,181,,,2114CG,Vogelenzang,Bloemendaal,Noord-Holland,VBO,4.574839,52.316213
Vogelenzangseweg,183,,,2114CG,Vogelenzang,Bloemendaal,Noord-Holland,VBO,4.574884,52.316141
Vogelenzangseweg,240,,,2114CH,Vogelenzang,Bloemendaal,Noord-Holland,VBO,4.576370,52.323117
Vogelenzangseweg,248,,,2114CH,Vogelenzang,Bloemendaal,Noord-Holland,VBO,4.576997,52.321728
Vogelenzangseweg,250,,,2114CH,Vogelenzang,Bloemendaal,Noord-Holland,VBO,4.576999,52.321620
Vogelenzangseweg,252,,,2114CH,Vogelenzang,Bloemendaal,Noord-Holland,VBO,4.576957,52.321503
Vogelenzangseweg,254,,,2114CH,Vogelenzang,Bloemendaal,Noord-Holland,VBO,4.576945,52.321395
Vogelenzangseweg,256,a,,2114CH,Vogelenzang,Bloemendaal,Noord-Holland,VBO,4.576919,52.321189
Vogelenzangseweg,256,b,,2114CH,Vogelenzang,Bloemendaal,Noord-Holland,VBO,4.576819,52.321026
Vogelenzangseweg,256,,,2114CH,Vogelenzang,Bloemendaal,Noord-Holland,VBO,4.576975,52.321342
Vogelenzangseweg,258,,,2114CH,Vogelenzang,Bloemendaal,Noord-Holland,VBO,4.576885,52.320640
Vogelenzangseweg,260,,,2114CH,Vogelenzang,Bloemendaal,Noord-Holland,VBO,4.576842,52.320577
Vogelenzangseweg,262,,,2114CH,Vogelenzang,Bloemendaal,Noord-Holland,VBO,4.576608,52.320521
Vogelenzangseweg,264,,,2114CH,Vogelenzang,Bloemendaal,Noord-Holland,VBO,4.576609,52.320485
Vogelenzangseweg,266,,,2114CH,Vogelenzang,Bloemendaal,Noord-Holland,VBO,4.576566,52.320431
Vogelenzangseweg,268,,,2114CH,Vogelenzang,Bloemendaal,Noord-Holland,VBO,4.576700,52.320324
Vogelenzangseweg,270,,,2114CH,Vogelenzang,Bloemendaal,Noord-Holland,VBO,4.576657,52.320270
Vogelenzangseweg,272,,,2114CH,Vogelenzang,Bloemendaal,Noord-Holland,VBO,4.576483,52.320134
Vogelenzangseweg,274,a,,2114CH,Vogelenzang,Bloemendaal,Noord-Holland,VBO,4.576192,52.320024
Vogelenzangseweg,274,b,,2114CH,Vogelenzang,Bloemendaal,Noord-Holland,VBO,4.576223,52.319952
Vogelenzangseweg,274,,,2114CH,Vogelenzang,Bloemendaal,Noord-Holland,VBO,4.576529,52.320044
Vogelenzangseweg,276,,,2114CH,Vogelenzang,Bloemendaal,Noord-Holland,VBO,4.576472,52.319936
Vogelenzangseweg,278,,,2114CH,Vogelenzang,Bloemendaal,Noord-Holland,VBO,4.576473,52.319900
Vogelenzangseweg,280,,,2114CH,Vogelenzang,Bloemendaal,Noord-Holland,VBO,4.576431,52.319819
Vogelenzangseweg,282,,,2114CH,Vogelenzang,Bloemendaal,Noord-Holland,VBO,4.576387,52.319774
Vogelenzangseweg,284,,,2114CH,Vogelenzang,Bloemendaal,Noord-Holland,VBO,4.576359,52.319711
Vogelenzangseweg,286,,,2114CH,Vogelenzang,Bloemendaal,Noord-Holland,VBO,4.576273,52.319602
Vogelenzangseweg,290,,,2114CJ,Vogelenzang,Bloemendaal,Noord-Holland,VBO,4.576218,52.319431
Vogelenzangseweg,294,,,2114CJ,Vogelenzang,Bloemendaal,Noord-Holland,VBO,4.575940,52.319393
Vogelenzangseweg,296,,,2114CJ,Vogelenzang,Bloemendaal,Noord-Holland,VBO,4.576119,52.319233
Vogelenzangseweg,300,a,,2114CJ,Vogelenzang,Bloemendaal,Noord-Holland,VBO,4.575905,52.318899
Vogelenzangseweg,300,,,2114CJ,Vogelenzang,Bloemendaal,Noord-Holland,VBO,4.575919,52.318944
Vogelenzangseweg,302,,,2114CJ,Vogelenzang,Bloemendaal,Noord-Holland,VBO,4.575893,52.318755
Vogelenzangseweg,304,,,2114CJ,Vogelenzang,Bloemendaal,Noord-Holland,VBO,4.575879,52.318701
Vogelenzangseweg,306,,,2114CJ,Vogelenzang,Bloemendaal,Noord-Holland,VBO,4.575850,52.318656
Vogelenzangseweg,308,,,2114CJ,Vogelenzang,Bloemendaal,Noord-Holland,VBO,4.575837,52.318611
Vogelenzangseweg,310,,,2114CJ,Vogelenzang,Bloemendaal,Noord-Holland,VBO,4.575721,52.318493
Vogelenzangseweg,312,,,2114CJ,Vogelenzang,Bloemendaal,Noord-Holland,VBO,4.575693,52.318439
Vogelenzangseweg,314,,,2114CJ,Vogelenzang,Bloemendaal,Noord-Holland,VBO,4.575519,52.318330
Vogelenzangseweg,316,,,2114CJ,Vogelenzang,Bloemendaal,Noord-Holland,VBO,4.575491,52.318276
Vogelenzangseweg,318,,,2114CJ,Vogelenzang,Bloemendaal,Noord-Holland,VBO,4.575448,52.318230
Vogelenzangseweg,320,,,2114CK,Vogelenzang,Bloemendaal,Noord-Holland,VBO,4.575404,52.318194
Vogelenzangseweg,322,,,2114CK,Vogelenzang,Bloemendaal,Noord-Holland,VBO,4.575346,52.318149
Vogelenzangseweg,324,,,2114CK,Vogelenzang,Bloemendaal,Noord-Holland,VBO,4.575303,52.318104
Vogelenzangseweg,326,,,2114CK,Vogelenzang,Bloemendaal,Noord-Holland,VBO,4.575247,52.317986
Vogelenzangseweg,328,,,2114CK,Vogelenzang,Bloemendaal,Noord-Holland,VBO,4.575189,52.317941
Vogelenzangseweg,330,,,2114CK,Vogelenzang,Bloemendaal,Noord-Holland,VBO,4.575088,52.317832
Vogelenzangseweg,332,,,2114CK,Vogelenzang,Bloemendaal,Noord-Holland,VBO,4.575059,52.317796
Vogelenzangseweg,334,,,2114CK,Vogelenzang,Bloemendaal,Noord-Holland,VBO,4.575016,52.317751
Vogelenzangseweg,336,,,2114CK,Vogelenzang,Bloemendaal,Noord-Holland,VBO,4.574988,52.317715
Vogelenzangseweg,338,,,2114CK,Vogelenzang,Bloemendaal,Noord-Holland,VBO,4.574916,52.317624
Vogelenzangseweg,340,,,2114CK,Vogelenzang,Bloemendaal,Noord-Holland,VBO,4.574858,52.317579
Vogelenzangseweg,342,,,2114CK,Vogelenzang,Bloemendaal,Noord-Holland,VBO,4.574815,52.317534
Vogelenzangseweg,344,,,2114CK,Vogelenzang,Bloemendaal,Noord-Holland,VBO,4.574757,52.317489
Vogelenzangseweg,346,,,2114CK,Vogelenzang,Bloemendaal,Noord-Holland,VBO,4.574627,52.317371
Vogelenzangseweg,348,,,2114CK,Vogelenzang,Bloemendaal,Noord-Holland,VBO,4.574613,52.317335
Vogelenzangseweg,350,,,2114CK,Vogelenzang,Bloemendaal,Noord-Holland,VBO,4.574585,52.317272
Vogelenzangseweg,352,,,2114CK,Vogelenzang,Bloemendaal,Noord-Holland,VBO,4.574513,52.317217
Vogelenzangseweg,354,,,2114CL,Vogelenzang,Bloemendaal,Noord-Holland,VBO,4.574428,52.317019
Vogelenzangseweg,356,,,2114CL,Vogelenzang,Bloemendaal,Noord-Holland,VBO,4.574429,52.316983
Vogelenzangseweg,358,,,2114CL,Vogelenzang,Bloemendaal,Noord-Holland,VBO,4.574401,52.316938
Vogelenzangseweg,360,,,2114CL,Vogelenzang,Bloemendaal,Noord-Holland,VBO,4.574372,52.316884
Vogelenzangseweg,362,,,2114CL,Vogelenzang,Bloemendaal,Noord-Holland,VBO,4.574300,52.316820
Vogelenzangseweg,364,,,2114CL,Vogelenzang,Bloemendaal,Noord-Holland,VBO,4.574301,52.316784
Vogelenzangseweg,366,,,2114CL,Vogelenzang,Bloemendaal,Noord-Holland,VBO,4.574301,52.316739
Vogelenzangseweg,368,,,2114CL,Vogelenzang,Bloemendaal,Noord-Holland,VBO,4.574229,52.316694
Vogelenzangseweg,370,a,,2114CL,Vogelenzang,Bloemendaal,Noord-Holland,VBO,4.574201,52.316631
Vogelenzangseweg,370,b,,2114CL,Vogelenzang,Bloemendaal,Noord-Holland,VBO,4.574230,52.316613
Vogelenzangseweg,370,c,,2114CL,Vogelenzang,Bloemendaal,Noord-Holland,VBO,4.574201,52.316595
Vogelenzangseweg,370,d,,2114CL,Vogelenzang,Bloemendaal,Noord-Holland,VBO,4.574172,52.316613
Vogelenzangseweg,370,e,,2114CL,Vogelenzang,Bloemendaal,Noord-Holland,VBO,4.574201,52.316640
Vogelenzangseweg,372,a,,2114CL,Vogelenzang,Bloemendaal,Noord-Holland,VBO,4.574188,52.316532
Vogelenzangseweg,372,b,,2114CL,Vogelenzang,Bloemendaal,Noord-Holland,VBO,4.574218,52.316514
Vogelenzangseweg,372,c,,2114CL,Vogelenzang,Bloemendaal,Noord-Holland,VBO,4.574189,52.316496
Vogelenzangseweg,372,d,,2114CL,Vogelenzang,Bloemendaal,Noord-Holland,VBO,4.574159,52.316514
Vogelenzangseweg,372,e,,2114CL,Vogelenzang,Bloemendaal,Noord-Holland,VBO,4.574188,52.316541
Vogelenzangseweg,376,,,2114CL,Vogelenzang,Bloemendaal,Noord-Holland,VBO,4.574147,52.316370
Vogelenzangseweg,378,,,2114CL,Vogelenzang,Bloemendaal,Noord-Holland,VBO,4.574104,52.316325
Vogelenzangseweg,380,,,2114CL,Vogelenzang,Bloemendaal,Noord-Holland,VBO,4.573943,52.316297
Vogelenzangseweg,382,,,2114CL,Vogelenzang,Bloemendaal,Noord-Holland,VBO,4.573900,52.316242
Vogelenzangseweg,384,,,2114CL,Vogelenzang,Bloemendaal,Noord-Holland,VBO,4.574019,52.316153
Vogelenzangseweg,386,,,2114CL,Vogelenzang,Bloemendaal,Noord-Holland,VBO,4.573947,52.316090
Kerkweg,1,a,,2114CM,Vogelenzang,Bloemendaal,Noord-Holland,VBO,4.576248,52.320995
Kerkweg,1,,,2114CM,Vogelenzang,Bloemendaal,Noord-Holland,VBO,4.574734,52.321165
Kerkweg,3,,,2114CM,Vogelenzang,Bloemendaal,Noord-Holland,VBO,4.576336,52.320987
Kerkweg,5,,,2114CM,Vogelenzang,Bloemendaal,Noord-Holland,VBO,4.576395,52.320969
Kerkweg,7,,,2114CM,Vogelenzang,Bloemendaal,Noord-Holland,VBO,4.576468,52.320961
Kerkweg,8,,,2114CM,Vogelenzang,Bloemendaal,Noord-Holland,VBO,4.576002,52.320805
Kerkweg,9,,,2114CM,Vogelenzang,Bloemendaal,Noord-Holland,VBO,4.576542,52.320934
Kerkweg,10,,,2114CM,Vogelenzang,Bloemendaal,Noord-Holland,VBO,4.576075,52.320796
Kerkweg,11,,,2114CM,Vogelenzang,Bloemendaal,Noord-Holland,VBO,4.576734,52.320900
Kerkweg,12,,,2114CM,Vogelenzang,Bloemendaal,Noord-Holland,VBO,4.576178,52.320779
Kerkweg,13,,,2114CM,Vogelenzang,Bloemendaal,Noord-Holland,VBO,4.576924,52.320901
Kerkweg,14,,,2114CM,Vogelenzang,Bloemendaal,Noord-Holland,VBO,4.576252,52.320761
Graaf Florislaan,1,,,2114CN,Vogelenzang,Bloemendaal,Noord-Holland,VBO,4.577324,52.320697
Graaf Florislaan,3,,,2114CN,Vogelenzang,Bloemendaal,Noord-Holland,VBO,4.577502,52.320563
Graaf Florislaan,5,,,2114CN,Vogelenzang,Bloemendaal,Noord-Holland,VBO,4.577739,52.320439
Graaf Florislaan,7,,,2114CN,Vogelenzang,Bloemendaal,Noord-Holland,VBO,4.577858,52.320350
Graaf Florislaan,9,,,2114CN,Vogelenzang,Bloemendaal,Noord-Holland,VBO,4.577918,52.320306
Graaf Florislaan,11,,,2114CN,Vogelenzang,Bloemendaal,Noord-Holland,VBO,4.577933,52.320261
Graaf Florislaan,13,,,2114CN,Vogelenzang,Bloemendaal,Noord-Holland,VBO,4.577862,52.320152
Graaf Florislaan,15,,,2114CN,Vogelenzang,Bloemendaal,Noord-Holland,VBO,4.577892,52.320117
Graaf Florislaan,17,,,2114CN,Vogelenzang,Bloemendaal,Noord-Holland,VBO,4.577717,52.320035
Graaf Florislaan,19,a,,2114CN,Vogelenzang,Bloemendaal,Noord-Holland,VBO,4.577720,52.319864
Graaf Florislaan,21,,,2114CN,Vogelenzang,Bloemendaal,Noord-Holland,VBO,4.577751,52.319810
Graaf Florislaan,23,,,2114CN,Vogelenzang,Bloemendaal,Noord-Holland,VBO,4.577766,52.319756
Graaf Florislaan,25,,,2114CN,Vogelenzang,Bloemendaal,Noord-Holland,VBO,4.577709,52.319684
Graaf Florislaan,27,,,2114CN,Vogelenzang,Bloemendaal,Noord-Holland,VBO,4.577710,52.319630
Graaf Florislaan,29,a,,2114CN,Vogelenzang,Bloemendaal,Noord-Holland,VBO,4.577748,52.319325
Graaf Florislaan,29,b,,2114CN,Vogelenzang,Bloemendaal,Noord-Holland,VBO,4.577659,52.319225
Graaf Florislaan,31,,,2114CN,Vogelenzang,Bloemendaal,Noord-Holland,VBO,4.577601,52.319153
Graaf Florislaan,33,,,2114CN,Vogelenzang,Bloemendaal,Noord-Holland,VBO,4.577617,52.319108
Graaf Florislaan,35,,,2114CP,Vogelenzang,Bloemendaal,Noord-Holland,VBO,4.577545,52.319036
Graaf Florislaan,37,,,2114CP,Vogelenzang,Bloemendaal,Noord-Holland,VBO,4.577356,52.318927
Graaf Florislaan,39,,,2114CP,Vogelenzang,Bloemendaal,Noord-Holland,VBO,4.577298,52.318899
Graaf Florislaan,41,,,2114CP,Vogelenzang,Bloemendaal,Noord-Holland,VBO,4.577255,52.318854
Graaf Florislaan,43,,,2114CP,Vogelenzang,Bloemendaal,Noord-Holland,VBO,4.577212,52.318818
Graaf Florislaan,45,,,2114CP,Vogelenzang,Bloemendaal,Noord-Holland,VBO,4.577096,52.318709
Graaf Florislaan,47,,,2114CP,Vogelenzang,Bloemendaal,Noord-Holland,VBO,4.577038,52.318682
Graaf Florislaan,49,,,2114CP,Vogelenzang,Bloemendaal,Noord-Holland,VBO,4.576995,52.318645
Graaf Florislaan,51,,,2114CP,Vogelenzang,Bloemendaal,Noord-Holland,VBO,4.576937,52.318618
Graaf Florislaan,53,,,2114CP,Vogelenzang,Bloemendaal,Noord-Holland,VBO,4.576762,52.318527
Graaf Florislaan,55,,,2114CP,Vogelenzang,Bloemendaal,Noord-Holland,VBO,4.576689,52.318500
Graaf Florislaan,57,,,2114CP,Vogelenzang,Bloemendaal,Noord-Holland,VBO,4.576646,52.318472
Graaf Florislaan,59,,,2114CP,Vogelenzang,Bloemendaal,Noord-Holland,VBO,4.576573,52.318436
Graaf Florislaan,61,,,2114CP,Vogelenzang,Bloemendaal,Noord-Holland,VBO,4.576413,52.318381
Graaf Florislaan,63,,,2114CP,Vogelenzang,Bloemendaal,Noord-Holland,VBO,4.576340,52.318344
Graaf Florislaan,65,,,2114CP,Vogelenzang,Bloemendaal,Noord-Holland,VBO,4.576282,52.318317
Graaf Florislaan,67,,,2114CP,Vogelenzang,Bloemendaal,Noord-Holland,VBO,4.576224,52.318290
Graaf Florislaan,2,a,,2114CR,Vogelenzang,Bloemendaal,Noord-Holland,VBO,4.577327,52.320526
Graaf Florislaan,2,b,,2114CR,Vogelenzang,Bloemendaal,Noord-Holland,VBO,4.577372,52.320500
Graaf Florislaan,2,,,2114CR,Vogelenzang,Bloemendaal,Noord-Holland,VBO,4.577253,52.320562
Graaf Florislaan,6,,,2114CR,Vogelenzang,Bloemendaal,Noord-Holland,VBO,4.577501,52.319817
Graaf Florislaan,8,,,2114CR,Vogelenzang,Bloemendaal,Noord-Holland,VBO,4.577503,52.319736
Graaf Florislaan,10,,,2114CR,Vogelenzang,Bloemendaal,Noord-Holland,VBO,4.577504,52.319683
Graaf Florislaan,12,,,2114CR,Vogelenzang,Bloemendaal,Noord-Holland,VBO,4.577490,52.319628
Graaf Florislaan,14,,,2114CR,Vogelenzang,Bloemendaal,Noord-Holland,VBO,4.577491,52.319566
Graaf Florislaan,16,,,2114CR,Vogelenzang,Bloemendaal,Noord-Holland,VBO,4.577493,52.319485
Graaf Florislaan,18,,,2114CR,Vogelenzang,Bloemendaal,Noord-Holland,VBO,4.577479,52.319431
Graaf Florislaan,20,,,2114CR,Vogelenzang,Bloemendaal,Noord-Holland,VBO,4.577451,52.319377
Graaf Florislaan,22,,,2114CR,Vogelenzang,Bloemendaal,Noord-Holland,VBO,4.577437,52.319314
Graaf Florislaan,24,,,2114CR,Vogelenzang,Bloemendaal,Noord-Holland,VBO,4.577409,52.319241
Graaf Florislaan,26,,,2114CR,Vogelenzang,Bloemendaal,Noord-Holland,VBO,4.577366,52.319187
Graaf Florislaan,28,,,2114CR,Vogelenzang,Bloemendaal,Noord-Holland,VBO,4.577191,52.319159
Graaf Florislaan,30,,,2114CR,Vogelenzang,Bloemendaal,Noord-Holland,VBO,4.577162,52.319114
Graaf Florislaan,32,,,2114CR,Vogelenzang,Bloemendaal,Noord-Holland,VBO,4.577119,52.319069
Graaf Florislaan,34,,,2114CR,Vogelenzang,Bloemendaal,Noord-Holland,VBO,4.577076,52.319032
Graaf Florislaan,36,,,2114CR,Vogelenzang,Bloemendaal,Noord-Holland,VBO,4.576988,52.318987
Monseigneur Borretlaan,1,,,2114CS,Vogelenzang,Bloemendaal,Noord-Holland,VBO,4.576770,52.318887
Monseigneur Borretlaan,2,,,2114CS,Vogelenzang,Bloemendaal,Noord-Holland,VBO,4.576751,52.319120
Monseigneur Borretlaan,4,,,2114CS,Vogelenzang,Bloemendaal,Noord-Holland,VBO,4.576677,52.319174
Monseigneur Borretlaan,5,,,2114CS,Vogelenzang,Bloemendaal,Noord-Holland,VBO,4.575946,52.319052
Monseigneur Borretlaan,7,,,2114CS,Vogelenzang,Bloemendaal,Noord-Holland,VBO,4.575608,52.319058
Graaf Willemlaan,1,,,2114DA,Vogelenzang,Bloemendaal,Noord-Holland,VBO,4.579363,52.321484
Graaf Willemlaan,3,,,2114DA,Vogelenzang,Bloemendaal,Noord-Holland,VBO,4.579086,52.321419
Graaf Willemlaan,5,,,2114DA,Vogelenzang,Bloemendaal,Noord-Holland,VBO,4.578809,52.321300
Graaf Willemlaan,7,,,2114DA,Vogelenzang,Bloemendaal,Noord-Holland,VBO,4.578517,52.321226
Graaf Willemlaan,9,,,2114DA,Vogelenzang,Bloemendaal,Noord-Holland,VBO,4.579109,52.320943
Graaf Willemlaan,11,,,2114DA,Vogelenzang,Bloemendaal,Noord-Holland,VBO,4.578963,52.320906
Graaf Willemlaan,15,,,2114DA,Vogelenzang,Bloemendaal,Noord-Holland,VBO,4.579483,52.319705
Graaf Willemlaan,17,,,2114DA,Vogelenzang,Bloemendaal,Noord-Holland,VBO,4.579470,52.319660
Graaf Willemlaan,19,,,2114DA,Vogelenzang,Bloemendaal,Noord-Holland,VBO,4.579456,52.319606
Graaf Willemlaan,21,,,2114DA,Vogelenzang,Bloemendaal,Noord-Holland,VBO,4.579413,52.319561
Graaf Willemlaan,23,,,2114DA,Vogelenzang,Bloemendaal,Noord-Holland,VBO,4.579384,52.319516
Graaf Willemlaan,25,,,2114DA,Vogelenzang,Bloemendaal,Noord-Holland,VBO,4.579356,52.319479
Graaf Willemlaan,57,,,2114DB,Vogelenzang,Bloemendaal,Noord-Holland,VBO,4.578196,52.318735
Graaf Willemlaan,59,,,2114DB,Vogelenzang,Bloemendaal,Noord-Holland,VBO,4.578182,52.318689
Graaf Willemlaan,61,,,2114DB,Vogelenzang,Bloemendaal,Noord-Holland,VBO,4.578168,52.318635
Graaf Willemlaan,63,,,2114DB,Vogelenzang,Bloemendaal,Noord-Holland,VBO,4.578125,52.318590
Graaf Willemlaan,65,,,2114DB,Vogelenzang,Bloemendaal,Noord-Holland,VBO,4.578111,52.318545
Graaf Willemlaan,67,,,2114DB,Vogelenzang,Bloemendaal,Noord-Holland,VBO,4.578083,52.318500
Graaf Willemlaan,69,,,2114DB,Vogelenzang,Bloemendaal,Noord-Holland,VBO,4.578054,52.318455
Graaf Willemlaan,71,,,2114DB,Vogelenzang,Bloemendaal,Noord-Holland,VBO,4.578026,52.318410
Graaf Willemlaan,73,,,2114DB,Vogelenzang,Bloemendaal,Noord-Holland,VBO,4.577997,52.318365
Graaf Willemlaan,75,,,2114DB,Vogelenzang,Bloemendaal,Noord-Holland,VBO,4.577969,52.318320
Graaf Willemlaan,77,,,2114DB,Vogelenzang,Bloemendaal,Noord-Holland,VBO,4.577884,52.318139
Graaf Willemlaan,79,,,2114DB,Vogelenzang,Bloemendaal,Noord-Holland,VBO,4.577885,52.318085
Graaf Willemlaan,81,,,2114DB,Vogelenzang,Bloemendaal,Noord-Holland,VBO,4.577812,52.318049
Graaf Willemlaan,83,,,2114DB,Vogelenzang,Bloemendaal,Noord-Holland,VBO,4.577784,52.318004
Graaf Willemlaan,85,,,2114DB,Vogelenzang,Bloemendaal,Noord-Holland,VBO,4.577770,52.317959
Graaf Willemlaan,87,,,2114DB,Vogelenzang,Bloemendaal,Noord-Holland,VBO,4.577727,52.317913
Graaf Willemlaan,2,a,,2114DC,Vogelenzang,Bloemendaal,Noord-Holland,VBO,4.577930,52.321252
Graaf Willemlaan,2,,,2114DC,Vogelenzang,Bloemendaal,Noord-Holland,VBO,4.578081,52.321017
Graaf Willemlaan,4,,,2114DC,Vogelenzang,Bloemendaal,Noord-Holland,VBO,4.578173,52.320766
Graaf Willemlaan,6,,,2114DC,Vogelenzang,Bloemendaal,Noord-Holland,VBO,4.578204,52.320694
Graaf Willemlaan,8,,,2114DC,Vogelenzang,Bloemendaal,Noord-Holland,VBO,4.578337,52.320623
Graaf Willemlaan,10,,,2114DC,Vogelenzang,Bloemendaal,Noord-Holland,VBO,4.578353,52.320542
Graaf Willemlaan,12,,,2114DC,Vogelenzang,Bloemendaal,Noord-Holland,VBO,4.578428,52.320462
Graaf Willemlaan,14,,,2114DC,Vogelenzang,Bloemendaal,Noord-Holland,VBO,4.578459,52.320399
Graaf Willemlaan,16,,,2114DC,Vogelenzang,Bloemendaal,Noord-Holland,VBO,4.578726,52.320212
Graaf Willemlaan,18,,,2114DC,Vogelenzang,Bloemendaal,Noord-Holland,VBO,4.578800,52.320213
Graaf Willemlaan,20,,,2114DC,Vogelenzang,Bloemendaal,Noord-Holland,VBO,4.578873,52.320186
Graaf Willemlaan,22,,,2114DC,Vogelenzang,Bloemendaal,Noord-Holland,VBO,4.578919,52.320106
Graaf Willemlaan,24,,,2114DC,Vogelenzang,Bloemendaal,Noord-Holland,VBO,4.578992,52.320097
Graaf Willemlaan,26,,,2114DC,Vogelenzang,Bloemendaal,Noord-Holland,VBO,4.579066,52.320071
Graaf Willemlaan,28,,,2114DC,Vogelenzang,Bloemendaal,Noord-Holland,VBO,4.579068,52.319990
Graaf Willemlaan,30,,,2114DC,Vogelenzang,Bloemendaal,Noord-Holland,VBO,4.579185,52.319982
Graaf Willemlaan,32,,,2114DC,Vogelenzang,Bloemendaal,Noord-Holland,VBO,4.579230,52.319955
Graaf Willemlaan,34,,,2114DC,Vogelenzang,Bloemendaal,Noord-Holland,VBO,4.579116,52.319774
Graaf Willemlaan,36,,,2114DC,Vogelenzang,Bloemendaal,Noord-Holland,VBO,4.579102,52.319729
Graaf Willemlaan,38,,,2114DC,Vogelenzang,Bloemendaal,Noord-Holland,VBO,4.579088,52.319693
Graaf Willemlaan,40,,,2114DC,Vogelenzang,Bloemendaal,Noord-Holland,VBO,4.579059,52.319639
Graaf Willemlaan,42,,,2114DC,Vogelenzang,Bloemendaal,Noord-Holland,VBO,4.579031,52.319594
Graaf Willemlaan,44,,,2114DC,Vogelenzang,Bloemendaal,Noord-Holland,VBO,4.578973,52.319540
Graaf Willemlaan,46,,,2114DD,Vogelenzang,Bloemendaal,Noord-Holland,VBO,4.578001,52.318976
Graaf Willemlaan,48,,,2114DD,Vogelenzang,Bloemendaal,Noord-Holland,VBO,4.577972,52.318931
Graaf Willemlaan,50,,,2114DD,Vogelenzang,Bloemendaal,Noord-Holland,VBO,4.577929,52.318868
Graaf Willemlaan,52,,,2114DD,Vogelenzang,Bloemendaal,Noord-Holland,VBO,4.577757,52.318687
Graaf Willemlaan,54,,,2114DD,Vogelenzang,Bloemendaal,Noord-Holland,VBO,4.577758,52.318624
Graaf Willemlaan,56,,,2114DD,Vogelenzang,Bloemendaal,Noord-Holland,VBO,4.577700,52.318578
Graaf Willemlaan,58,,,2114DD,Vogelenzang,Bloemendaal,Noord-Holland,VBO,4.577495,52.318568
Graaf Willemlaan,60,,,2114DD,Vogelenzang,Bloemendaal,Noord-Holland,VBO,4.577466,52.318523
Graaf Willemlaan,62,,,2114DD,Vogelenzang,Bloemendaal,Noord-Holland,VBO,4.577452,52.318478
Graaf Willemlaan,64,,,2114DD,Vogelenzang,Bloemendaal,Noord-Holland,VBO,4.577424,52.318424
Graaf Willemlaan,66,,,2114DD,Vogelenzang,Bloemendaal,Noord-Holland,VBO,4.577366,52.318369
Graaf Willemlaan,68,,,2114DD,Vogelenzang,Bloemendaal,Noord-Holland,VBO,4.577354,52.318270
Graaf Willemlaan,70,,,2114DD,Vogelenzang,Bloemendaal,Noord-Holland,VBO,4.577427,52.318253
Graaf Willemlaan,72,,,2114DD,Vogelenzang,Bloemendaal,Noord-Holland,VBO,4.577501,52.318235
Graaf Dirklaan,1,,,2114DE,Vogelenzang,Bloemendaal,Noord-Holland,VBO,4.578626,52.320059
Graaf Dirklaan,3,,,2114DE,Vogelenzang,Bloemendaal,Noord-Holland,VBO,4.578598,52.320014
Graaf Dirklaan,5,,,2114DE,Vogelenzang,Bloemendaal,Noord-Holland,VBO,4.578569,52.319959
Graaf Dirklaan,7,,,2114DE,Vogelenzang,Bloemendaal,Noord-Holland,VBO,4.578541,52.319914
Graaf Dirklaan,9,,,2114DE,Vogelenzang,Bloemendaal,Noord-Holland,VBO,4.578512,52.319869
Graaf Dirklaan,11,,,2114DE,Vogelenzang,Bloemendaal,Noord-Holland,VBO,4.578484,52.319833
Graaf Dirklaan,13,,,2114DE,Vogelenzang,Bloemendaal,Noord-Holland,VBO,4.578455,52.319779
Graaf Dirklaan,15,,,2114DE,Vogelenzang,Bloemendaal,Noord-Holland,VBO,4.578427,52.319734
Graaf Dirklaan,17,,,2114DE,Vogelenzang,Bloemendaal,Noord-Holland,VBO,4.578357,52.319554
Graaf Dirklaan,19,,,2114DE,Vogelenzang,Bloemendaal,Noord-Holland,VBO,4.578430,52.319536
Graaf Dirklaan,21,,,2114DE,Vogelenzang,Bloemendaal,Noord-Holland,VBO,4.578504,52.319519
Graaf Dirklaan,23,,,2114DE,Vogelenzang,Bloemendaal,Noord-Holland,VBO,4.578578,52.319501
Graaf Dirklaan,25,,,2114DE,Vogelenzang,Bloemendaal,Noord-Holland,VBO,4.578652,52.319475
Graaf Dirklaan,27,,,2114DE,Vogelenzang,Bloemendaal,Noord-Holland,VBO,4.578711,52.319430
Graaf Dirklaan,29,,,2114DE,Vogelenzang,Bloemendaal,Noord-Holland,VBO,4.578785,52.319413
Graaf Dirklaan,31,,,2114DE,Vogelenzang,Bloemendaal,Noord-Holland,VBO,4.578858,52.319404
Graaf Dirklaan,33,,,2114DE,Vogelenzang,Bloemendaal,Noord-Holland,VBO,4.578931,52.319414
Graaf Dirklaan,2,,,2114DG,Vogelenzang,Bloemendaal,Noord-Holland,VBO,4.578431,52.320300
Graaf Dirklaan,4,,,2114DG,Vogelenzang,Bloemendaal,Noord-Holland,VBO,4.578389,52.320228
Graaf Janlaan,2,,,2114DH,Vogelenzang,Bloemendaal,Noord-Holland,VBO,4.578332,52.319329
Graaf Janlaan,4,,,2114DH,Vogelenzang,Bloemendaal,Noord-Holland,VBO,4.578303,52.319284
Graaf Janlaan,6,,,2114DH,Vogelenzang,Bloemendaal,Noord-Holland,VBO,4.578289,52.319238
Graaf Janlaan,8,,,2114DH,Vogelenzang,Bloemendaal,Noord-Holland,VBO,4.578261,52.319193
Graaf Janlaan,10,,,2114DH,Vogelenzang,Bloemendaal,Noord-Holland,VBO,4.578232,52.319148
Graaf Janlaan,12,,,2114DH,Vogelenzang,Bloemendaal,Noord-Holland,VBO,4.578204,52.319103
Graaf Janlaan,14,,,2114DH,Vogelenzang,Bloemendaal,Noord-Holland,VBO,4.578161,52.319058
Graaf Janlaan,16,,,2114DH,Vogelenzang,Bloemendaal,Noord-Holland,VBO,4.578147,52.319013
Graaf Albrechtlaan,1,,,2114DJ,Vogelenzang,Bloemendaal,Noord-Holland,VBO,4.578823,52.318928
Graaf Albrechtlaan,3,,,2114DJ,Vogelenzang,Bloemendaal,Noord-Holland,VBO,4.578853,52.318883
Graaf Albrechtlaan,5,,,2114DJ,Vogelenzang,Bloemendaal,Noord-Holland,VBO,4.578898,52.318838
Graaf Albrechtlaan,7,,,2114DJ,Vogelenzang,Bloemendaal,Noord-Holland,VBO,4.578928,52.318793
Graaf Albrechtlaan,9,,,2114DJ,Vogelenzang,Bloemendaal,Noord-Holland,VBO,4.578958,52.318749
Graaf Albrechtlaan,11,,,2114DJ,Vogelenzang,Bloemendaal,Noord-Holland,VBO,4.578974,52.318695
Graaf Albrechtlaan,13,,,2114DJ,Vogelenzang,Bloemendaal,Noord-Holland,VBO,4.579019,52.318650
Graaf Albrechtlaan,15,,,2114DJ,Vogelenzang,Bloemendaal,Noord-Holland,VBO,4.579049,52.318615
Graaf Albrechtlaan,17,,,2114DJ,Vogelenzang,Bloemendaal,Noord-Holland,VBO,4.579079,52.318561
Graaf Albrechtlaan,19,,,2114DJ,Vogelenzang,Bloemendaal,Noord-Holland,VBO,4.579374,52.318464
Graaf Albrechtlaan,21,,,2114DJ,Vogelenzang,Bloemendaal,Noord-Holland,VBO,4.579301,52.318427
Graaf Albrechtlaan,23,,,2114DJ,Vogelenzang,Bloemendaal,Noord-Holland,VBO,4.579243,52.318409
Graaf Albrechtlaan,25,,,2114DJ,Vogelenzang,Bloemendaal,Noord-Holland,VBO,4.579141,52.318390
Graaf Albrechtlaan,2,,,2114DK,Vogelenzang,Bloemendaal,Noord-Holland,VBO,4.578546,52.318836
Graaf Albrechtlaan,4,,,2114DK,Vogelenzang,Bloemendaal,Noord-Holland,VBO,4.578591,52.318791
Graaf Albrechtlaan,6,,,2114DK,Vogelenzang,Bloemendaal,Noord-Holland,VBO,4.578621,52.318746
Graaf Albrechtlaan,8,,,2114DK,Vogelenzang,Bloemendaal,Noord-Holland,VBO,4.578651,52.318702
Graaf Albrechtlaan,10,,,2114DK,Vogelenzang,Bloemendaal,Noord-Holland,VBO,4.578666,52.318657
Graaf Albrechtlaan,12,,,2114DK,Vogelenzang,Bloemendaal,Noord-Holland,VBO,4.578697,52.318612
Graaf Albrechtlaan,14,,,2114DK,Vogelenzang,Bloemendaal,Noord-Holland,VBO,4.578727,52.318567
Graaf Albrechtlaan,16,,,2114DK,Vogelenzang,Bloemendaal,Noord-Holland,VBO,4.578772,52.318523
Graaf Albrechtlaan,18,,,2114DK,Vogelenzang,Bloemendaal,Noord-Holland,VBO,4.578936,52.318353
Graaf Albrechtlaan,20,,,2114DK,Vogelenzang,Bloemendaal,Noord-Holland,VBO,4.578878,52.318317
Graaf Albrechtlaan,22,,,2114DK,Vogelenzang,Bloemendaal,Noord-Holland,VBO,4.578820,52.318298
Graaf Albrechtlaan,24,,,2114DK,Vogelenzang,Bloemendaal,Noord-Holland,VBO,4.578732,52.318271
Graaf Albrechtlaan,26,,,2114DK,Vogelenzang,Bloemendaal,Noord-Holland,VBO,4.578659,52.318270
Graaf Albrechtlaan,28,,,2114DK,Vogelenzang,Bloemendaal,Noord-Holland,VBO,4.578601,52.318243
Graaf Albrechtlaan,30,,,2114DK,Vogelenzang,Bloemendaal,Noord-Holland,VBO,4.578513,52.318215
Graaf Albrechtlaan,32,,,2114DK,Vogelenzang,Bloemendaal,Noord-Holland,VBO,4.578455,52.318179
Graaf Albrechtlaan,34,,,2114DK,Vogelenzang,Bloemendaal,Noord-Holland,VBO,4.578397,52.318161
Graaf Albrechtlaan,36,,,2114DK,Vogelenzang,Bloemendaal,Noord-Holland,VBO,4.578324,52.318142
Graaf Filipslaan,1,,,2114DL,Vogelenzang,Bloemendaal,Noord-Holland,VBO,4.577358,52.318010
Graaf Filipslaan,3,,,2114DL,Vogelenzang,Bloemendaal,Noord-Holland,VBO,4.577270,52.318027
Graaf Filipslaan,5,,,2114DL,Vogelenzang,Bloemendaal,Noord-Holland,VBO,4.577211,52.318045
Graaf Filipslaan,7,,,2114DL,Vogelenzang,Bloemendaal,Noord-Holland,VBO,4.577123,52.318053
Graaf Filipslaan,9,,,2114DL,Vogelenzang,Bloemendaal,Noord-Holland,VBO,4.576906,52.317872
Graaf Filipslaan,11,,,2114DL,Vogelenzang,Bloemendaal,Noord-Holland,VBO,4.576833,52.317853
Graaf Filipslaan,13,,,2114DL,Vogelenzang,Bloemendaal,Noord-Holland,VBO,4.576760,52.317826
Graaf Filipslaan,15,,,2114DL,Vogelenzang,Bloemendaal,Noord-Holland,VBO,4.576673,52.317798
Graaf Filipslaan,2,,,2114DN,Vogelenzang,Bloemendaal,Noord-Holland,VBO,4.577222,52.318225
Graaf Filipslaan,4,,,2114DN,Vogelenzang,Bloemendaal,Noord-Holland,VBO,4.577134,52.318260
Graaf Filipslaan,6,,,2114DN,Vogelenzang,Bloemendaal,Noord-Holland,VBO,4.577060,52.318268
Graaf Filipslaan,8,,,2114DN,Vogelenzang,Bloemendaal,Noord-Holland,VBO,4.576972,52.318295
Graaf Filipslaan,10,,,2114DN,Vogelenzang,Bloemendaal,Noord-Holland,VBO,4.576886,52.318186
Graaf Filipslaan,12,,,2114DN,Vogelenzang,Bloemendaal,Noord-Holland,VBO,4.576813,52.318159
Graaf Filipslaan,14,,,2114DN,Vogelenzang,Bloemendaal,Noord-Holland,VBO,4.576755,52.318131
Graaf Filipslaan,16,,,2114DN,Vogelenzang,Bloemendaal,Noord-Holland,VBO,4.576682,52.318095
Graaf Filipslaan,18,,,2114DN,Vogelenzang,Bloemendaal,Noord-Holland,VBO,4.576624,52.318068
Graaf Filipslaan,20,,,2114DN,Vogelenzang,Bloemendaal,Noord-Holland,VBO,4.576566,52.318031
Graaf Filipslaan,22,,,2114DN,Vogelenzang,Bloemendaal,Noord-Holland,VBO,4.576522,52.318004
Graaf Filipslaan,24,,,2114DN,Vogelenzang,Bloemendaal,Noord-Holland,VBO,4.576450,52.317977
Graaf Filipslaan,26,,,2114DN,Vogelenzang,Bloemendaal,Noord-Holland,VBO,4.576392,52.317940
Graaf Filipslaan,28,,,2114DN,Vogelenzang,Bloemendaal,Noord-Holland,VBO,4.576333,52.317922
Graaf Filipslaan,30,,,2114DN,Vogelenzang,Bloemendaal,Noord-Holland,VBO,4.576275,52.317876
Graaf Filipslaan,32,,,2114DN,Vogelenzang,Bloemendaal,Noord-Holland,VBO,4.576071,52.317821
Graaf Filipslaan,34,,,2114DN,Vogelenzang,Bloemendaal,Noord-Holland,VBO,4.576116,52.317786
Graaf Filipslaan,36,,,2114DN,Vogelenzang,Bloemendaal,Noord-Holland,VBO,4.576160,52.317750
Graaf Filipslaan,38,,,2114DN,Vogelenzang,Bloemendaal,Noord-Holland,VBO,4.576205,52.317705
Graaf Filipslaan,40,,,2114DN,Vogelenzang,Bloemendaal,Noord-Holland,VBO,4.576264,52.317670
Graaf Filipslaan,42,,,2114DN,Vogelenzang,Bloemendaal,Noord-Holland,VBO,4.576324,52.317634
Graaf Filipslaan,44,,,2114DN,Vogelenzang,Bloemendaal,Noord-Holland,VBO,4.576368,52.317599
Graaf Filipslaan,46,,,2114DN,Vogelenzang,Bloemendaal,Noord-Holland,VBO,4.576428,52.317554
Gravin Jacobahof,1,,,2114DP,Vogelenzang,Bloemendaal,Noord-Holland,STA,4.577607,52.316970
Gravin Jacobahof,3,,,2114DP,Vogelenzang,Bloemendaal,Noord-Holland,STA,4.577523,52.317078
Gravin Jacobahof,5,,,2114DP,Vogelenzang,Bloemendaal,Noord-Holland,STA,4.577440,52.317179
Gravin Jacobahof,7,,,2114DP,Vogelenzang,Bloemendaal,Noord-Holland,STA,4.577355,52.317287
Gravin Jacobahof,9,,,2114DP,Vogelenzang,Bloemendaal,Noord-Holland,VBO,4.577175,52.317586
Gravin Jacobahof,11,,,2114DP,Vogelenzang,Bloemendaal,Noord-Holland,VBO,4.577161,52.317541
Gravin Jacobahof,13,,,2114DP,Vogelenzang,Bloemendaal,Noord-Holland,VBO,4.577103,52.317514
Gravin Jacobahof,15,,,2114DP,Vogelenzang,Bloemendaal,Noord-Holland,VBO,4.577044,52.317531
Gravin Jacobahof,17,,,2114DP,Vogelenzang,Bloemendaal,Noord-Holland,VBO,4.576971,52.317513
Gravin Jacobahof,19,,,2114DP,Vogelenzang,Bloemendaal,Noord-Holland,VBO,4.576943,52.317477
Gravin Jacobahof,21,,,2114DP,Vogelenzang,Bloemendaal,Noord-Holland,VBO,4.576914,52.317458
Gravin Jacobahof,23,,,2114DP,Vogelenzang,Bloemendaal,Noord-Holland,VBO,4.576855,52.317467
Gravin Jacobahof,25,,,2114DP,Vogelenzang,Bloemendaal,Noord-Holland,VBO,4.576844,52.317278
Gravin Jacobahof,27,,,2114DP,Vogelenzang,Bloemendaal,Noord-Holland,VBO,4.576873,52.317260
Gravin Jacobahof,29,,,2114DP,Vogelenzang,Bloemendaal,Noord-Holland,VBO,4.576903,52.317225
Gravin Jacobahof,31,,,2114DP,Vogelenzang,Bloemendaal,Noord-Holland,VBO,4.576875,52.317189
Gravin Jacobahof,33,,,2114DP,Vogelenzang,Bloemendaal,Noord-Holland,VBO,4.576919,52.317153
Gravin Jacobahof,35,,,2114DP,Vogelenzang,Bloemendaal,Noord-Holland,VBO,4.576978,52.317135
Gravin Jacobahof,37,,,2114DP,Vogelenzang,Bloemendaal,Noord-Holland,VBO,4.576993,52.317108
Gravin Jacobahof,39,,,2114DP,Vogelenzang,Bloemendaal,Noord-Holland,VBO,4.576980,52.317063
Gravin Jacobahof,41,,,2114DP,Vogelenzang,Bloemendaal,Noord-Holland,VBO,4.577083,52.317019
Gravin Jacobahof,43,,,2114DP,Vogelenzang,Bloemendaal,Noord-Holland,VBO,4.577142,52.316993
Gravin Jacobahof,45,,,2114DP,Vogelenzang,Bloemendaal,Noord-Holland,VBO,4.577172,52.316966
Gravin Jacobahof,47,,,2114DP,Vogelenzang,Bloemendaal,Noord-Holland,VBO,4.577173,52.316930
Gravin Jacobahof,49,,,2114DP,Vogelenzang,Bloemendaal,Noord-Holland,VBO,4.577173,52.316885
Gravin Jacobahof,51,,,2114DP,Vogelenzang,Bloemendaal,Noord-Holland,VBO,4.577247,52.316876
Gravin Jacobahof,53,,,2114DP,Vogelenzang,Bloemendaal,Noord-Holland,VBO,4.577262,52.316850
Gravin Jacobahof,55,,,2114DP,Vogelenzang,Bloemendaal,Noord-Holland,VBO,4.577307,52.316823
Gravin Jacobahof,2,,,2114DR,Vogelenzang,Bloemendaal,Noord-Holland,VBO,4.576586,52.316953
Gravin Jacobahof,4,,,2114DR,Vogelenzang,Bloemendaal,Noord-Holland,VBO,4.576631,52.316899
Gravin Jacobahof,6,,,2114DR,Vogelenzang,Bloemendaal,Noord-Holland,VBO,4.576691,52.316819
Gravin Jacobahof,8,,,2114DR,Vogelenzang,Bloemendaal,Noord-Holland,VBO,4.576750,52.316756
Gravin Sophialaan,1,,,2114DS,Vogelenzang,Bloemendaal,Noord-Holland,VBO,4.576308,52.316870
Gravin Sophialaan,2,,,2114DS,Vogelenzang,Bloemendaal,Noord-Holland,VBO,4.575500,52.316954
Gravin Sophialaan,3,,,2114DS,Vogelenzang,Bloemendaal,Noord-Holland,VBO,4.576221,52.316842
Gravin Sophialaan,4,,,2114DS,Vogelenzang,Bloemendaal,Noord-Holland,VBO,4.575457,52.316900
Gravin Sophialaan,5,,,2114DS,Vogelenzang,Bloemendaal,Noord-Holland,VBO,4.576104,52.316797
Gravin Sophialaan,6,,,2114DS,Vogelenzang,Bloemendaal,Noord-Holland,VBO,4.575430,52.316810
Gravin Sophialaan,7,,,2114DS,Vogelenzang,Bloemendaal,Noord-Holland,VBO,4.575988,52.316760
Gravin Sophialaan,8,,,2114DS,Vogelenzang,Bloemendaal,Noord-Holland,VBO,4.575387,52.316756
Gravin Sophialaan,9,,,2114DS,Vogelenzang,Bloemendaal,Noord-Holland,VBO,4.575886,52.316732
Gravin Sophialaan,10,,,2114DS,Vogelenzang,Bloemendaal,Noord-Holland,VBO,4.575330,52.316657
Gravin Sophialaan,11,,,2114DS,Vogelenzang,Bloemendaal,Noord-Holland,VBO,4.575754,52.316695
Gravin Sophialaan,12,,,2114DS,Vogelenzang,Bloemendaal,Noord-Holland,VBO,4.575286,52.316611
Gravin Sophialaan,14,,,2114DS,Vogelenzang,Bloemendaal,Noord-Holland,VBO,4.575289,52.316486
Gravin Sophialaan,16,,,2114DS,Vogelenzang,Bloemendaal,Noord-Holland,VBO,4.575334,52.316441
Gravin Sophialaan,18,,,2114DS,Vogelenzang,Bloemendaal,Noord-Holland,VBO,4.575394,52.316342
Gravin Sophialaan,20,,,2114DS,Vogelenzang,Bloemendaal,Noord-Holland,VBO,4.575439,52.316298
Gravin Adahof,1,,,2114DW,Vogelenzang,Bloemendaal,Noord-Holland,VBO,4.579448,52.320855
Gravin Adahof,2,,,2114DW,Vogelenzang,Bloemendaal,Noord-Holland,VBO,4.579713,52.320803
Gravin Adahof,3,,,2114DW,Vogelenzang,Bloemendaal,Noord-Holland,VBO,4.579888,52.320858
Gravin Adahof,4,,,2114DW,Vogelenzang,Bloemendaal,Noord-Holland,VBO,4.580256,52.320789
Gravin Adahof,5,,,2114DW,Vogelenzang,Bloemendaal,Noord-Holland,VBO,4.580346,52.320673
Gravin Adahof,6,,,2114DW,Vogelenzang,Bloemendaal,Noord-Holland,VBO,4.580305,52.320502
Gravin Adahof,7,,,2114DW,Vogelenzang,Bloemendaal,Noord-Holland,VBO,4.580219,52.320393
Gravin Adahof,8,,,2114DW,Vogelenzang,Bloemendaal,Noord-Holland,VBO,4.580675,52.320297
Gravin Adahof,9,,,2114DW,Vogelenzang,Bloemendaal,Noord-Holland,VBO,4.580718,52.320397
Gravin Adahof,10,,,2114DW,Vogelenzang,Bloemendaal,Noord-Holland,VBO,4.580847,52.320541
Gravin Adahof,11,,,2114DW,Vogelenzang,Bloemendaal,Noord-Holland,VBO,4.581051,52.320597
Gravin Adahof,12,,,2114DW,Vogelenzang,Bloemendaal,Noord-Holland,VBO,4.581376,52.320500
Gravin Adahof,13,,,2114DW,Vogelenzang,Bloemendaal,Noord-Holland,VBO,4.581406,52.320437
Gravin Adahof,14,,,2114DW,Vogelenzang,Bloemendaal,Noord-Holland,VBO,4.581408,52.320338
Gravin Adahof,15,,,2114DW,Vogelenzang,Bloemendaal,Noord-Holland,VBO,4.581380,52.320257
Gravin Adahof,16,,,2114DW,Vogelenzang,Bloemendaal,Noord-Holland,VBO,4.581308,52.320176
Gravin Adahof,17,,,2114DW,Vogelenzang,Bloemendaal,Noord-Holland,VBO,4.581265,52.320113
Gravin Adahof,18,,,2114DW,Vogelenzang,Bloemendaal,Noord-Holland,VBO,4.581164,52.320031
Gravin Adahof,19,,,2114DW,Vogelenzang,Bloemendaal,Noord-Holland,VBO,4.581048,52.319994
Gravin Adahof,20,,,2114DW,Vogelenzang,Bloemendaal,Noord-Holland,VBO,4.580886,52.319984
Gravin Adahof,21,,,2114DW,Vogelenzang,Bloemendaal,Noord-Holland,VBO,4.580725,52.320001
Gravin Adahof,22,,,2114DW,Vogelenzang,Bloemendaal,Noord-Holland,VBO,4.580489,52.320071
Gravin Adahof,23,,,2114DW,Vogelenzang,Bloemendaal,Noord-Holland,VBO,4.580268,52.320115
Gravin Adahof,24,,,2114DW,Vogelenzang,Bloemendaal,Noord-Holland,VBO,4.580032,52.320167
Gravin Adahof,25,,,2114DW,Vogelenzang,Bloemendaal,Noord-Holland,VBO,4.579841,52.320211
Gravin Adahof,26,,,2114DW,Vogelenzang,Bloemendaal,Noord-Holland,VBO,4.579750,52.320372
Gravin Adahof,27,,,2114DW,Vogelenzang,Bloemendaal,Noord-Holland,VBO,4.579660,52.320488
Gravin Adahof,28,,,2114DW,Vogelenzang,Bloemendaal,Noord-Holland,VBO,4.579380,52.320567
Gravin Adahof,29,,,2114DW,Vogelenzang,Bloemendaal,Noord-Holland,VBO,4.579176,52.320503
Gravin Margarethahof,1,,,2114DX,Vogelenzang,Bloemendaal,Noord-Holland,VBO,4.579314,52.319326
Gravin Margarethahof,2,,,2114DX,Vogelenzang,Bloemendaal,Noord-Holland,VBO,4.579388,52.319309
Gravin Margarethahof,3,,,2114DX,Vogelenzang,Bloemendaal,Noord-Holland,VBO,4.579461,52.319300
Gravin Margarethahof,4,,,2114DX,Vogelenzang,Bloemendaal,Noord-Holland,VBO,4.579535,52.319283
Gravin Margarethahof,5,,,2114DX,Vogelenzang,Bloemendaal,Noord-Holland,VBO,4.579609,52.319256
Gravin Margarethahof,6,,,2114DX,Vogelenzang,Bloemendaal,Noord-Holland,VBO,4.579771,52.319240
Gravin Margarethahof,7,,,2114DX,Vogelenzang,Bloemendaal,Noord-Holland,VBO,4.579844,52.319258
Gravin Margarethahof,8,,,2114DX,Vogelenzang,Bloemendaal,Noord-Holland,VBO,4.579917,52.319277
Gravin Margarethahof,9,,,2114DX,Vogelenzang,Bloemendaal,Noord-Holland,VBO,4.580004,52.319313
Gravin Margarethahof,10,,,2114DX,Vogelenzang,Bloemendaal,Noord-Holland,VBO,4.580061,52.319385
Gravin Margarethahof,11,,,2114DX,Vogelenzang,Bloemendaal,Noord-Holland,VBO,4.580090,52.319431
Gravin Margarethahof,12,,,2114DX,Vogelenzang,Bloemendaal,Noord-Holland,VBO,4.580118,52.319485
Gravin Margarethahof,13,,,2114DX,Vogelenzang,Bloemendaal,Noord-Holland,VBO,4.580147,52.319530
Gravin Margarethahof,14,,,2114DX,Vogelenzang,Bloemendaal,Noord-Holland,VBO,4.580161,52.319575
Gravin Margarethahof,15,,,2114DX,Vogelenzang,Bloemendaal,Noord-Holland,VBO,4.580025,52.319781
Gravin Margarethahof,16,,,2114DX,Vogelenzang,Bloemendaal,Noord-Holland,VBO,4.579966,52.319789
Gravin Margarethahof,17,,,2114DX,Vogelenzang,Bloemendaal,Noord-Holland,VBO,4.579892,52.319816
Gravin Margarethahof,18,,,2114DX,Vogelenzang,Bloemendaal,Noord-Holland,VBO,4.579819,52.319824
Gravin Margarethahof,19,,,2114DX,Vogelenzang,Bloemendaal,Noord-Holland,VBO,4.579730,52.319842
Gravin Margarethahof,20,,,2114DX,Vogelenzang,Bloemendaal,Noord-Holland,VBO,4.579686,52.319859
Gravin Margarethahof,21,,,2114DX,Vogelenzang,Bloemendaal,Noord-Holland,VBO,4.580466,52.319703
Gravin Margarethahof,22,,,2114DX,Vogelenzang,Bloemendaal,Noord-Holland,VBO,4.580555,52.319667
Gravin Margarethahof,23,,,2114DX,Vogelenzang,Bloemendaal,Noord-Holland,VBO,4.580643,52.319650
Gravin Margarethahof,24,,,2114DX,Vogelenzang,Bloemendaal,Noord-Holland,VBO,4.580717,52.319642
Gravin Margarethahof,25,,,2114DX,Vogelenzang,Bloemendaal,Noord-Holland,VBO,4.580820,52.319624
Gravin Margarethahof,26,,,2114DZ,Vogelenzang,Bloemendaal,Noord-Holland,VBO,4.580911,52.319463
Gravin Margarethahof,27,,,2114DZ,Vogelenzang,Bloemendaal,Noord-Holland,VBO,4.580824,52.319400
Gravin Margarethahof,28,,,2114DZ,Vogelenzang,Bloemendaal,Noord-Holland,VBO,4.580810,52.319364
Gravin Margarethahof,29,,,2114DZ,Vogelenzang,Bloemendaal,Noord-Holland,VBO,4.580810,52.319328
Gravin Margarethahof,30,,,2114DZ,Vogelenzang,Bloemendaal,Noord-Holland,VBO,4.580753,52.319264
Gravin Margarethahof,31,,,2114DZ,Vogelenzang,Bloemendaal,Noord-Holland,VBO,4.580754,52.319219
Gravin Margarethahof,32,,,2114DZ,Vogelenzang,Bloemendaal,Noord-Holland,VBO,4.580682,52.319147
Gravin Margarethahof,33,,,2114DZ,Vogelenzang,Bloemendaal,Noord-Holland,VBO,4.580594,52.319101
Gravin Margarethahof,34,,,2114DZ,Vogelenzang,Bloemendaal,Noord-Holland,VBO,4.580507,52.319092
Gravin Margarethahof,35,,,2114DZ,Vogelenzang,Bloemendaal,Noord-Holland,VBO,4.580463,52.319047
Gravin Margarethahof,36,,,2114DZ,Vogelenzang,Bloemendaal,Noord-Holland,VBO,4.580390,52.319028
Gravin Margarethahof,37,,,2114DZ,Vogelenzang,Bloemendaal,Noord-Holland,VBO,4.580332,52.319001
Gravin Margarethahof,38,,,2114DZ,Vogelenzang,Bloemendaal,Noord-Holland,VBO,4.580244,52.318991
Gravin Margarethahof,39,,,2114DZ,Vogelenzang,Bloemendaal,Noord-Holland,VBO,4.580202,52.318892
Gravin Margarethahof,40,,,2114DZ,Vogelenzang,Bloemendaal,Noord-Holland,VBO,4.580100,52.318873
Gravin Margarethahof,41,,,2114DZ,Vogelenzang,Bloemendaal,Noord-Holland,VBO,4.580042,52.318855
Gravin Margarethahof,42,,,2114DZ,Vogelenzang,Bloemendaal,Noord-Holland,VBO,4.579954,52.318827
Gravin Margarethahof,43,,,2114DZ,Vogelenzang,Bloemendaal,Noord-Holland,VBO,4.579911,52.318800
Gravin Margarethahof,44,,,2114DZ,Vogelenzang,Bloemendaal,Noord-Holland,VBO,4.579808,52.318790
Gravin Margarethahof,45,,,2114DZ,Vogelenzang,Bloemendaal,Noord-Holland,VBO,4.579661,52.318816
Gravin Margarethahof,46,,,2114DZ,Vogelenzang,Bloemendaal,Noord-Holland,VBO,4.579616,52.318861
Gravin Margarethahof,47,,,2114DZ,Vogelenzang,Bloemendaal,Noord-Holland,VBO,4.579571,52.318906
Gravin Margarethahof,48,,,2114DZ,Vogelenzang,Bloemendaal,Noord-Holland,VBO,4.579541,52.318977
Gravin Margarethahof,49,,,2114DZ,Vogelenzang,Bloemendaal,Noord-Holland,VBO,4.579452,52.319040
Gravin Margarethahof,50,,,2114DZ,Vogelenzang,Bloemendaal,Noord-Holland,VBO,4.579334,52.319066
Gravin Margarethahof,51,,,2114DZ,Vogelenzang,Bloemendaal,Noord-Holland,VBO,4.579260,52.319083
Gravin Margarethahof,52,,,2114DZ,Vogelenzang,Bloemendaal,Noord-Holland,VBO,4.579172,52.319101
Deken Zondaglaan,1,,,2114EA,Vogelenzang,Bloemendaal,Noord-Holland,VBO,4.572457,52.315765
Deken Zondaglaan,3,,,2114EA,Vogelenzang,Bloemendaal,Noord-Holland,VBO,4.572383,52.315809
Deken Zondaglaan,5,a,,2114EA,Vogelenzang,Bloemendaal,Noord-Holland,VBO,4.572769,52.316342
Deken Zondaglaan,5,,,2114EA,Vogelenzang,Bloemendaal,Noord-Holland,VBO,4.572293,52.315881
Deken Zondaglaan,7,,,2114EA,Vogelenzang,Bloemendaal,Noord-Holland,VBO,4.573841,52.317833
Deken Zondaglaan,9,,,2114EA,Vogelenzang,Bloemendaal,Noord-Holland,VBO,4.573913,52.317905
Deken Zondaglaan,11,,,2114EA,Vogelenzang,Bloemendaal,Noord-Holland,VBO,4.573957,52.317950
Deken Zondaglaan,13,,,2114EA,Vogelenzang,Bloemendaal,Noord-Holland,VBO,4.574028,52.318041
Deken Zondaglaan,15,,,2114EA,Vogelenzang,Bloemendaal,Noord-Holland,VBO,4.574086,52.318113
Deken Zondaglaan,17,,,2114EA,Vogelenzang,Bloemendaal,Noord-Holland,VBO,4.574129,52.318167
Deken Zondaglaan,19,,,2114EA,Vogelenzang,Bloemendaal,Noord-Holland,VBO,4.574141,52.318275
Deken Zondaglaan,21,,,2114EA,Vogelenzang,Bloemendaal,Noord-Holland,VBO,4.574184,52.318339
Deken Zondaglaan,23,,,2114EA,Vogelenzang,Bloemendaal,Noord-Holland,VBO,4.574227,52.318393
Deken Zondaglaan,25,,,2114EA,Vogelenzang,Bloemendaal,Noord-Holland,VBO,4.574270,52.318438
Deken Zondaglaan,27,,,2114EA,Vogelenzang,Bloemendaal,Noord-Holland,VBO,4.574416,52.318511
Deken Zondaglaan,29,,,2114EB,Vogelenzang,Bloemendaal,Noord-Holland,VBO,4.574459,52.318574
Deken Zondaglaan,31,,,2114EB,Vogelenzang,Bloemendaal,Noord-Holland,VBO,4.574516,52.318628
Deken Zondaglaan,33,,,2114EB,Vogelenzang,Bloemendaal,Noord-Holland,VBO,4.574544,52.318692
Deken Zondaglaan,35,,,2114EB,Vogelenzang,Bloemendaal,Noord-Holland,VBO,4.574616,52.318773
Deken Zondaglaan,37,,,2114EB,Vogelenzang,Bloemendaal,Noord-Holland,VBO,4.574659,52.318854
Deken Zondaglaan,39,,,2114EB,Vogelenzang,Bloemendaal,Noord-Holland,VBO,4.574702,52.318890
Deken Zondaglaan,41,,,2114EB,Vogelenzang,Bloemendaal,Noord-Holland,VBO,4.574745,52.318954
Deken Zondaglaan,43,,,2114EB,Vogelenzang,Bloemendaal,Noord-Holland,VBO,4.574728,52.319070
Deken Zondaglaan,45,,,2114EB,Vogelenzang,Bloemendaal,Noord-Holland,VBO,4.574771,52.319133
Deken Zondaglaan,47,,,2114EB,Vogelenzang,Bloemendaal,Noord-Holland,VBO,4.574799,52.319188
Deken Zondaglaan,49,,,2114EB,Vogelenzang,Bloemendaal,Noord-Holland,VBO,4.574857,52.319242
Deken Zondaglaan,51,a,,2114EB,Vogelenzang,Bloemendaal,Noord-Holland,VBO,4.575044,52.319459
Deken Zondaglaan,51,,,2114EB,Vogelenzang,Bloemendaal,Noord-Holland,VBO,4.574985,52.319476
Deken Zondaglaan,53,,,2114EB,Vogelenzang,Bloemendaal,Noord-Holland,VBO,4.575043,52.319513
Deken Zondaglaan,55,,,2114EB,Vogelenzang,Bloemendaal,Noord-Holland,VBO,4.575130,52.319558
Deken Zondaglaan,57,,,2114EB,Vogelenzang,Bloemendaal,Noord-Holland,VBO,4.575127,52.319729
Deken Zondaglaan,59,,,2114EB,Vogelenzang,Bloemendaal,Noord-Holland,VBO,4.575184,52.319792
Deken Zondaglaan,61,,,2114EB,Vogelenzang,Bloemendaal,Noord-Holland,VBO,4.575213,52.319838
Deken Zondaglaan,63,,,2114EB,Vogelenzang,Bloemendaal,Noord-Holland,VBO,4.575241,52.319883
Deken Zondaglaan,65,,,2114EB,Vogelenzang,Bloemendaal,Noord-Holland,VBO,4.575284,52.319937
Deken Zondaglaan,2,,,2114EC,Vogelenzang,Bloemendaal,Noord-Holland,VBO,4.572794,52.315785
Deken Zondaglaan,4,,,2114EC,Vogelenzang,Bloemendaal,Noord-Holland,VBO,4.572778,52.315839
Deken Zondaglaan,6,,,2114EC,Vogelenzang,Bloemendaal,Noord-Holland,VBO,4.572748,52.315884
Deken Zondaglaan,8,,,2114EC,Vogelenzang,Bloemendaal,Noord-Holland,VBO,4.572717,52.315947
Deken Zondaglaan,10,,,2114EC,Vogelenzang,Bloemendaal,Noord-Holland,VBO,4.573010,52.316012
Deken Zondaglaan,12,,,2114EC,Vogelenzang,Bloemendaal,Noord-Holland,VBO,4.573068,52.316039
Deken Zondaglaan,14,,,2114EC,Vogelenzang,Bloemendaal,Noord-Holland,VBO,4.573126,52.316075
Deken Zondaglaan,16,,,2114EC,Vogelenzang,Bloemendaal,Noord-Holland,VBO,4.573226,52.316202
Deken Zondaglaan,18,,,2114EC,Vogelenzang,Bloemendaal,Noord-Holland,VBO,4.573284,52.316229
Deken Zondaglaan,20,,,2114EC,Vogelenzang,Bloemendaal,Noord-Holland,VBO,4.573355,52.316346
Deken Zondaglaan,22,,,2114EC,Vogelenzang,Bloemendaal,Noord-Holland,VBO,4.573384,52.316401
Deken Zondaglaan,24,,,2114EC,Vogelenzang,Bloemendaal,Noord-Holland,VBO,4.573411,52.316500
Deken Zondaglaan,26,,,2114EC,Vogelenzang,Bloemendaal,Noord-Holland,VBO,4.573396,52.316553
Deken Zondaglaan,28,,,2114EC,Vogelenzang,Bloemendaal,Noord-Holland,VBO,4.573481,52.316671
Deken Zondaglaan,30,,,2114EC,Vogelenzang,Bloemendaal,Noord-Holland,VBO,4.573481,52.316707
Deken Zondaglaan,32,,,2114EC,Vogelenzang,Bloemendaal,Noord-Holland,VBO,4.573538,52.316770
Deken Zondaglaan,34,,,2114EC,Vogelenzang,Bloemendaal,Noord-Holland,VBO,4.573552,52.316815
Deken Zondaglaan,36,,,2114EC,Vogelenzang,Bloemendaal,Noord-Holland,VBO,4.573625,52.316861
Deken Zondaglaan,38,,,2114EC,Vogelenzang,Bloemendaal,Noord-Holland,VBO,4.573666,52.316987
Deken Zondaglaan,40,,,2114EC,Vogelenzang,Bloemendaal,Noord-Holland,VBO,4.573665,52.317041
Deken Zondaglaan,42,a,,2114ED,Vogelenzang,Bloemendaal,Noord-Holland,VBO,4.574046,52.317591
Deken Zondaglaan,42,b,,2114ED,Vogelenzang,Bloemendaal,Noord-Holland,VBO,4.574033,52.317564
Deken Zondaglaan,44,a,,2114ED,Vogelenzang,Bloemendaal,Noord-Holland,VBO,4.574019,52.317526
Deken Zondaglaan,44,b,,2114ED,Vogelenzang,Bloemendaal,Noord-Holland,VBO,4.574007,52.317505
Deken Zondaglaan,46,a,,2114ED,Vogelenzang,Bloemendaal,Noord-Holland,VBO,4.573995,52.317469
Deken Zondaglaan,46,b,,2114ED,Vogelenzang,Bloemendaal,Noord-Holland,VBO,4.573982,52.317449
Deken Zondaglaan,50,,,2114ED,Vogelenzang,Bloemendaal,Noord-Holland,VBO,4.574167,52.317700
Deken Zondaglaan,52,,,2114ED,Vogelenzang,Bloemendaal,Noord-Holland,VBO,4.574180,52.317745
Deken Zondaglaan,54,,,2114ED,Vogelenzang,Bloemendaal,Noord-Holland,VBO,4.574223,52.317799
Deken Zondaglaan,56,,,2114ED,Vogelenzang,Bloemendaal,Noord-Holland,VBO,4.574267,52.317845
Deken Zondaglaan,58,,,2114ED,Vogelenzang,Bloemendaal,Noord-Holland,VBO,4.574353,52.317953
Deken Zondaglaan,60,,,2114ED,Vogelenzang,Bloemendaal,Noord-Holland,VBO,4.574395,52.318016
Deken Zondaglaan,62,,,2114ED,Vogelenzang,Bloemendaal,Noord-Holland,VBO,4.574439,52.318053
Deken Zondaglaan,64,,,2114ED,Vogelenzang,Bloemendaal,Noord-Holland,VBO,4.574496,52.318107
Deken Zondaglaan,66,,,2114ED,Vogelenzang,Bloemendaal,Noord-Holland,VBO,4.574642,52.318189
Deken Zondaglaan,68,,,2114ED,Vogelenzang,Bloemendaal,Noord-Holland,VBO,4.574685,52.318243
Deken Zondaglaan,70,,,2114ED,Vogelenzang,Bloemendaal,Noord-Holland,VBO,4.574728,52.318297
Deken Zondaglaan,72,,,2114ED,Vogelenzang,Bloemendaal,Noord-Holland,VBO,4.574785,52.318352
Deken Zondaglaan,74,,,2114EE,Vogelenzang,Bloemendaal,Noord-Holland,VBO,4.574812,52.318487
Deken Zondaglaan,76,,,2114EE,Vogelenzang,Bloemendaal,Noord-Holland,VBO,4.574856,52.318523
Deken Zondaglaan,78,,,2114EE,Vogelenzang,Bloemendaal,Noord-Holland,VBO,4.574855,52.318577
Deken Zondaglaan,80,,,2114EE,Vogelenzang,Bloemendaal,Noord-Holland,VBO,4.574883,52.318631
Deken Zondaglaan,82,,,2114EE,Vogelenzang,Bloemendaal,Noord-Holland,VBO,4.574954,52.318730
Deken Zondaglaan,84,,,2114EE,Vogelenzang,Bloemendaal,Noord-Holland,VBO,4.575012,52.318794
Deken Zondaglaan,86,,,2114EE,Vogelenzang,Bloemendaal,Noord-Holland,VBO,4.575040,52.318848
Deken Zondaglaan,88,,,2114EE,Vogelenzang,Bloemendaal,Noord-Holland,VBO,4.575083,52.318902
Deken Zondaglaan,90,,,2114EE,Vogelenzang,Bloemendaal,Noord-Holland,VBO,4.575258,52.318993
Deken Zondaglaan,92,,,2114EE,Vogelenzang,Bloemendaal,Noord-Holland,VBO,4.575286,52.319038
Deken Zondaglaan,94,,,2114EE,Vogelenzang,Bloemendaal,Noord-Holland,VBO,4.575344,52.319092
Deken Zondaglaan,96,,,2114EE,Vogelenzang,Bloemendaal,Noord-Holland,VBO,4.575357,52.319146
Deken Zondaglaan,98,a,,2114EE,Vogelenzang,Bloemendaal,Noord-Holland,VBO,4.575617,52.319409
Deken Zondaglaan,98,,,2114EE,Vogelenzang,Bloemendaal,Noord-Holland,VBO,4.575617,52.319382
Deken Zondaglaan,100,a,,2114EE,Vogelenzang,Bloemendaal,Noord-Holland,VBO,4.575542,52.319471
Deken Zondaglaan,100,,,2114EE,Vogelenzang,Bloemendaal,Noord-Holland,VBO,4.575469,52.319444
Deken Zondaglaan,102,,,2114EE,Vogelenzang,Bloemendaal,Noord-Holland,VBO,4.575526,52.319543
Deken Zondaglaan,104,,,2114EE,Vogelenzang,Bloemendaal,Noord-Holland,VBO,4.575568,52.319651
Deken Zondaglaan,106,,,2114EE,Vogelenzang,Bloemendaal,Noord-Holland,VBO,4.575596,52.319723
Deken Zondaglaan,108,,,2114EE,Vogelenzang,Bloemendaal,Noord-Holland,VBO,4.575639,52.319814
Deken Zondaglaan,110,,,2114EE,Vogelenzang,Bloemendaal,Noord-Holland,VBO,4.575667,52.319877
Deken Zondaglaan,112,,,2114EE,Vogelenzang,Bloemendaal,Noord-Holland,VBO,4.575724,52.319931
Deken Zondaglaan,116,,,2114EE,Vogelenzang,Bloemendaal,Noord-Holland,VBO,4.575765,52.320111
Deken Zondaglaan,120,,,2114EE,Vogelenzang,Bloemendaal,Noord-Holland,VBO,4.575807,52.320255
Deken Zondaglaan,122,,,2114EE,Vogelenzang,Bloemendaal,Noord-Holland,VBO,4.575835,52.320309
Deken Zondaglaan,124,,,2114EE,Vogelenzang,Bloemendaal,Noord-Holland,VBO,4.575935,52.320454
Deken Zondaglaan,126,,,2114EE,Vogelenzang,Bloemendaal,Noord-Holland,VBO,4.575949,52.320499
Deken Zondaglaan,128,,,2114EE,Vogelenzang,Bloemendaal,Noord-Holland,VBO,4.576020,52.320616
Deken Zondaglaan,130,,,2114EE,Vogelenzang,Bloemendaal,Noord-Holland,VBO,4.576048,52.320670
Teylingerweg,1,,,2114EG,Vogelenzang,Bloemendaal,Noord-Holland,VBO,4.574076,52.317061
Teylingerweg,3,,,2114EG,Vogelenzang,Bloemendaal,Noord-Holland,VBO,4.573912,52.317177
Teylingerweg,5,,,2114EG,Vogelenzang,Bloemendaal,Noord-Holland,VBO,4.573824,52.317186
Teylingerweg,7,,,2114EG,Vogelenzang,Bloemendaal,Noord-Holland,VBO,4.573736,52.317212
Teylingerweg,9,a,,2114EG,Vogelenzang,Bloemendaal,Noord-Holland,VBO,4.572892,52.317545
Teylingerweg,9,b,,2114EG,Vogelenzang,Bloemendaal,Noord-Holland,VBO,4.572780,52.317503
Teylingerweg,9,c,,2114EG,Vogelenzang,Bloemendaal,Noord-Holland,VBO,4.572677,52.317536
Teylingerweg,9,d,,2114EG,Vogelenzang,Bloemendaal,Noord-Holland,VBO,4.572747,52.317602
Teylingerweg,11,a,,2114EG,Vogelenzang,Bloemendaal,Noord-Holland,VBO,4.572891,52.317508
Teylingerweg,11,b,,2114EG,Vogelenzang,Bloemendaal,Noord-Holland,VBO,4.572780,52.317485
Teylingerweg,11,c,,2114EG,Vogelenzang,Bloemendaal,Noord-Holland,VBO,4.572678,52.317519
Teylingerweg,11,d,,2114EG,Vogelenzang,Bloemendaal,Noord-Holland,VBO,4.572681,52.317588
Teylingerweg,11,e,,2114EG,Vogelenzang,Bloemendaal,Noord-Holland,VBO,4.572875,52.317610
Teylingerweg,13,a,,2114EG,Vogelenzang,Bloemendaal,Noord-Holland,VBO,4.572889,52.317490
Teylingerweg,13,b,,2114EG,Vogelenzang,Bloemendaal,Noord-Holland,VBO,4.572677,52.317485
Teylingerweg,13,c,,2114EG,Vogelenzang,Bloemendaal,Noord-Holland,VBO,4.572684,52.317622
Teylingerweg,13,d,,2114EG,Vogelenzang,Bloemendaal,Noord-Holland,VBO,4.572878,52.317595
Teylingerweg,19,,,2114EG,Vogelenzang,Bloemendaal,Noord-Holland,VBO,4.572622,52.317950
Teylingerweg,21,,,2114EG,Vogelenzang,Bloemendaal,Noord-Holland,VBO,4.572725,52.317951
Teylingerweg,23,,,2114EG,Vogelenzang,Bloemendaal,Noord-Holland,VBO,4.572827,52.317970
Teylingerweg,25,,,2114EG,Vogelenzang,Bloemendaal,Noord-Holland,VBO,4.572900,52.317979
Teylingerweg,27,,,2114EG,Vogelenzang,Bloemendaal,Noord-Holland,VBO,4.573086,52.318223
Teylingerweg,29,,,2114EG,Vogelenzang,Bloemendaal,Noord-Holland,VBO,4.572997,52.318276
Teylingerweg,31,,,2114EG,Vogelenzang,Bloemendaal,Noord-Holland,VBO,4.572923,52.318312
Teylingerweg,33,,,2114EG,Vogelenzang,Bloemendaal,Noord-Holland,VBO,4.572864,52.318338
Teylingerweg,35,,,2114EG,Vogelenzang,Bloemendaal,Noord-Holland,VBO,4.572978,52.318555
Teylingerweg,37,,,2114EH,Vogelenzang,Bloemendaal,Noord-Holland,VBO,4.573066,52.318556
Teylingerweg,39,,,2114EH,Vogelenzang,Bloemendaal,Noord-Holland,VBO,4.573168,52.318565
Teylingerweg,41,,,2114EH,Vogelenzang,Bloemendaal,Noord-Holland,VBO,4.573256,52.318575
Teylingerweg,43,,,2114EH,Vogelenzang,Bloemendaal,Noord-Holland,VBO,4.573442,52.318828
Teylingerweg,45,,,2114EH,Vogelenzang,Bloemendaal,Noord-Holland,VBO,4.573353,52.318872
Teylingerweg,47,,,2114EH,Vogelenzang,Bloemendaal,Noord-Holland,VBO,4.573279,52.318917
Teylingerweg,49,,,2114EH,Vogelenzang,Bloemendaal,Noord-Holland,VBO,4.573205,52.318961
Teylingerweg,51,,,2114EH,Vogelenzang,Bloemendaal,Noord-Holland,VBO,4.573332,52.319204
Teylingerweg,53,,,2114EH,Vogelenzang,Bloemendaal,Noord-Holland,VBO,4.573450,52.319178
Teylingerweg,55,,,2114EH,Vogelenzang,Bloemendaal,Noord-Holland,VBO,4.573538,52.319188
Teylingerweg,57,,,2114EH,Vogelenzang,Bloemendaal,Noord-Holland,VBO,4.573625,52.319224
Teylingerweg,59,,,2114EH,Vogelenzang,Bloemendaal,Noord-Holland,VBO,4.573812,52.319432
Teylingerweg,61,,,2114EH,Vogelenzang,Bloemendaal,Noord-Holland,VBO,4.573723,52.319486
Teylingerweg,63,,,2114EH,Vogelenzang,Bloemendaal,Noord-Holland,VBO,4.573664,52.319521
Teylingerweg,65,,,2114EH,Vogelenzang,Bloemendaal,Noord-Holland,VBO,4.573605,52.319557
Teylingerweg,67,,,2114EH,Vogelenzang,Bloemendaal,Noord-Holland,VBO,4.573762,52.319783
Teylingerweg,69,,,2114EH,Vogelenzang,Bloemendaal,Noord-Holland,VBO,4.573864,52.319783
Teylingerweg,71,,,2114EH,Vogelenzang,Bloemendaal,Noord-Holland,VBO,4.573952,52.319784
Teylingerweg,73,,,2114EH,Vogelenzang,Bloemendaal,Noord-Holland,VBO,4.574040,52.319785
Teylingerweg,2,a,,2114EJ,Vogelenzang,Bloemendaal,Noord-Holland,VBO,4.573315,52.317856
Teylingerweg,2,b,,2114EJ,Vogelenzang,Bloemendaal,Noord-Holland,VBO,4.573307,52.317834
Teylingerweg,2,c,,2114EJ,Vogelenzang,Bloemendaal,Noord-Holland,VBO,4.573298,52.317813
Teylingerweg,4,a,,2114EJ,Vogelenzang,Bloemendaal,Noord-Holland,VBO,4.573286,52.317779
Teylingerweg,4,b,,2114EJ,Vogelenzang,Bloemendaal,Noord-Holland,VBO,4.573278,52.317759
Teylingerweg,4,c,,2114EJ,Vogelenzang,Bloemendaal,Noord-Holland,VBO,4.573267,52.317735
Teylingerweg,6,a,,2114EJ,Vogelenzang,Bloemendaal,Noord-Holland,VBO,4.573375,52.317777
Teylingerweg,6,b,,2114EJ,Vogelenzang,Bloemendaal,Noord-Holland,VBO,4.573366,52.317753
Teylingerweg,6,c,,2114EJ,Vogelenzang,Bloemendaal,Noord-Holland,VBO,4.573356,52.317728
Teylingerweg,8,a,,2114EJ,Vogelenzang,Bloemendaal,Noord-Holland,VBO,4.573676,52.317763
Teylingerweg,8,b,,2114EJ,Vogelenzang,Bloemendaal,Noord-Holland,VBO,4.573655,52.317742
Teylingerweg,8,c,,2114EJ,Vogelenzang,Bloemendaal,Noord-Holland,VBO,4.573636,52.317718
Teylingerweg,10,a,,2114EJ,Vogelenzang,Bloemendaal,Noord-Holland,VBO,4.573607,52.317695
Teylingerweg,10,b,,2114EJ,Vogelenzang,Bloemendaal,Noord-Holland,VBO,4.573589,52.317676
Teylingerweg,10,c,,2114EJ,Vogelenzang,Bloemendaal,Noord-Holland,VBO,4.573568,52.317656
Teylingerweg,12,a,,2114EJ,Vogelenzang,Bloemendaal,Noord-Holland,VBO,4.573749,52.317755
Teylingerweg,12,b,,2114EJ,Vogelenzang,Bloemendaal,Noord-Holland,VBO,4.573730,52.317732
Teylingerweg,12,c,,2114EJ,Vogelenzang,Bloemendaal,Noord-Holland,VBO,4.573712,52.317708
Teylingerweg,14,,,2114EJ,Vogelenzang,Bloemendaal,Noord-Holland,VBO,4.573385,52.317947
Teylingerweg,16,,,2114EJ,Vogelenzang,Bloemendaal,Noord-Holland,VBO,4.573413,52.318001
Teylingerweg,18,,,2114EJ,Vogelenzang,Bloemendaal,Noord-Holland,VBO,4.573471,52.318064
Teylingerweg,20,,,2114EJ,Vogelenzang,Bloemendaal,Noord-Holland,VBO,4.573484,52.318118
Teylingerweg,22,,,2114EJ,Vogelenzang,Bloemendaal,Noord-Holland,VBO,4.573614,52.318245
Teylingerweg,24,,,2114EJ,Vogelenzang,Bloemendaal,Noord-Holland,VBO,4.573628,52.318299
Teylingerweg,26,,,2114EJ,Vogelenzang,Bloemendaal,Noord-Holland,VBO,4.573641,52.318353
Teylingerweg,28,,,2114EJ,Vogelenzang,Bloemendaal,Noord-Holland,VBO,4.573684,52.318407
Teylingerweg,30,,,2114EJ,Vogelenzang,Bloemendaal,Noord-Holland,VBO,4.573741,52.318533
Teylingerweg,32,,,2114EJ,Vogelenzang,Bloemendaal,Noord-Holland,VBO,4.573769,52.318587
Teylingerweg,34,,,2114EK,Vogelenzang,Bloemendaal,Noord-Holland,VBO,4.573812,52.318651
Teylingerweg,36,,,2114EK,Vogelenzang,Bloemendaal,Noord-Holland,VBO,4.573941,52.318786
Teylingerweg,38,,,2114EK,Vogelenzang,Bloemendaal,Noord-Holland,VBO,4.573941,52.318831
Teylingerweg,40,,,2114EK,Vogelenzang,Bloemendaal,Noord-Holland,VBO,4.573984,52.318885
Teylingerweg,42,,,2114EK,Vogelenzang,Bloemendaal,Noord-Holland,VBO,4.574040,52.319012
Teylingerweg,44,,,2114EK,Vogelenzang,Bloemendaal,Noord-Holland,VBO,4.574039,52.319066
Teylingerweg,46,,,2114EK,Vogelenzang,Bloemendaal,Noord-Holland,VBO,4.574082,52.319111
Teylingerweg,48,,,2114EK,Vogelenzang,Bloemendaal,Noord-Holland,VBO,4.574125,52.319156
Teylingerweg,50,,,2114EK,Vogelenzang,Bloemendaal,Noord-Holland,VBO,4.574255,52.319274
Teylingerweg,52,,,2114EK,Vogelenzang,Bloemendaal,Noord-Holland,VBO,4.574269,52.319328
Teylingerweg,54,,,2114EK,Vogelenzang,Bloemendaal,Noord-Holland,VBO,4.574327,52.319373
Teylingerweg,56,,,2114EK,Vogelenzang,Bloemendaal,Noord-Holland,VBO,4.574484,52.319608
Teylingerweg,58,,,2114EK,Vogelenzang,Bloemendaal,Noord-Holland,VBO,4.574497,52.319662
Teylingerweg,60,,,2114EK,Vogelenzang,Bloemendaal,Noord-Holland,VBO,4.574526,52.319716
Teylingerweg,62,,,2114EK,Vogelenzang,Bloemendaal,Noord-Holland,VBO,4.574583,52.319770
Teylingerweg,64,,,2114EL,Vogelenzang,Bloemendaal,Noord-Holland,VBO,4.574711,52.319987
Teylingerweg,66,,,2114EL,Vogelenzang,Bloemendaal,Noord-Holland,VBO,4.574710,52.320041
Teylingerweg,68,,,2114EL,Vogelenzang,Bloemendaal,Noord-Holland,VBO,4.574754,52.320086
Teylingerweg,70,,,2114EL,Vogelenzang,Bloemendaal,Noord-Holland,VBO,4.574752,52.320149
Teylingerweg,72,,,2114EL,Vogelenzang,Bloemendaal,Noord-Holland,VBO,4.574781,52.320194
Teylingerweg,74,,,2114EL,Vogelenzang,Bloemendaal,Noord-Holland,VBO,4.574839,52.320239
Teylingerweg,76,,,2114EL,Vogelenzang,Bloemendaal,Noord-Holland,VBO,4.575089,52.320169
Teylingerweg,78,,,2114EL,Vogelenzang,Bloemendaal,Noord-Holland,VBO,4.575178,52.320152
Teylingerweg,80,,,2114EL,Vogelenzang,Bloemendaal,Noord-Holland,VBO,4.575266,52.320135
Teylingerweg,82,,,2114EL,Vogelenzang,Bloemendaal,Noord-Holland,VBO,4.575340,52.320126
Teylingerweg,84,,,2114EL,Vogelenzang,Bloemendaal,Noord-Holland,VBO,4.575414,52.320091
Godfried Bomanslaan,1,,,2114EM,Vogelenzang,Bloemendaal,Noord-Holland,VBO,4.575026,52.322011
Godfried Bomanslaan,3,,,2114EM,Vogelenzang,Bloemendaal,Noord-Holland,VBO,4.574838,52.321902
Godfried Bomanslaan,5,,,2114EM,Vogelenzang,Bloemendaal,Noord-Holland,VBO,4.574753,52.321749
Godfried Bomanslaan,7,,,2114EM,Vogelenzang,Bloemendaal,Noord-Holland,VBO,4.575002,52.321751
Godfried Bomanslaan,9,,,2114EM,Vogelenzang,Bloemendaal,Noord-Holland,VBO,4.575076,52.321733
Godfried Bomanslaan,11,,,2114EM,Vogelenzang,Bloemendaal,Noord-Holland,VBO,4.575149,52.321716
Godfried Bomanslaan,13,,,2114EM,Vogelenzang,Bloemendaal,Noord-Holland,VBO,4.575208,52.321698
Godfried Bomanslaan,15,,,2114EM,Vogelenzang,Bloemendaal,Noord-Holland,VBO,4.575296,52.321690
Godfried Bomanslaan,17,,,2114EM,Vogelenzang,Bloemendaal,Noord-Holland,VBO,4.575473,52.321628
Godfried Bomanslaan,19,,,2114EM,Vogelenzang,Bloemendaal,Noord-Holland,VBO,4.575445,52.321592
Godfried Bomanslaan,21,,,2114EM,Vogelenzang,Bloemendaal,Noord-Holland,VBO,4.575431,52.321547
Godfried Bomanslaan,23,,,2114EM,Vogelenzang,Bloemendaal,Noord-Holland,VBO,4.575826,52.321621
Godfried Bomanslaan,25,,,2114EM,Vogelenzang,Bloemendaal,Noord-Holland,VBO,4.575884,52.321613
Godfried Bomanslaan,27,,,2114EM,Vogelenzang,Bloemendaal,Noord-Holland,VBO,4.575958,52.321604
Godfried Bomanslaan,29,,,2114EM,Vogelenzang,Bloemendaal,Noord-Holland,VBO,4.576032,52.321587
Godfried Bomanslaan,31,,,2114EM,Vogelenzang,Bloemendaal,Noord-Holland,VBO,4.576120,52.321579
Godfried Bomanslaan,33,,,2114EM,Vogelenzang,Bloemendaal,Noord-Holland,VBO,4.575611,52.321341
Godfried Bomanslaan,35,,,2114EM,Vogelenzang,Bloemendaal,Noord-Holland,VBO,4.575684,52.321324
Godfried Bomanslaan,37,,,2114EM,Vogelenzang,Bloemendaal,Noord-Holland,VBO,4.575743,52.321315
Godfried Bomanslaan,39,,,2114EM,Vogelenzang,Bloemendaal,Noord-Holland,VBO,4.575817,52.321298
Godfried Bomanslaan,41,,,2114EM,Vogelenzang,Bloemendaal,Noord-Holland,VBO,4.575905,52.321280
Godfried Bomanslaan,43,,,2114EM,Vogelenzang,Bloemendaal,Noord-Holland,VBO,4.575964,52.321263
Godfried Bomanslaan,2,,,2114EN,Vogelenzang,Bloemendaal,Noord-Holland,VBO,4.575334,52.322049
Godfried Bomanslaan,4,,,2114EN,Vogelenzang,Bloemendaal,Noord-Holland,VBO,4.575305,52.322004
Godfried Bomanslaan,6,,,2114EN,Vogelenzang,Bloemendaal,Noord-Holland,VBO,4.575292,52.321950
Godfried Bomanslaan,8,,,2114EN,Vogelenzang,Bloemendaal,Noord-Holland,VBO,4.575263,52.321905
Godfried Bomanslaan,10,,,2114EN,Vogelenzang,Bloemendaal,Noord-Holland,VBO,4.575249,52.321869
Godfried Bomanslaan,12,,,2114EN,Vogelenzang,Bloemendaal,Noord-Holland,VBO,4.575586,52.321871
Godfried Bomanslaan,14,,,2114EN,Vogelenzang,Bloemendaal,Noord-Holland,VBO,4.575674,52.321872
Godfried Bomanslaan,16,,,2114EN,Vogelenzang,Bloemendaal,Noord-Holland,VBO,4.575733,52.321854
Godfried Bomanslaan,18,,,2114EN,Vogelenzang,Bloemendaal,Noord-Holland,VBO,4.575807,52.321837
Godfried Bomanslaan,20,,,2114EN,Vogelenzang,Bloemendaal,Noord-Holland,VBO,4.575895,52.321829
Godfried Bomanslaan,22,,,2114EN,Vogelenzang,Bloemendaal,Noord-Holland,VBO,4.575969,52.321820
Godfried Bomanslaan,24,,,2114EN,Vogelenzang,Bloemendaal,Noord-Holland,VBO,4.576319,52.321903
Godfried Bomanslaan,26,,,2114EN,Vogelenzang,Bloemendaal,Noord-Holland,VBO,4.576291,52.321849
Godfried Bomanslaan,28,,,2114EN,Vogelenzang,Bloemendaal,Noord-Holland,VBO,4.576277,52.321813
Godfried Bomanslaan,30,,,2114EN,Vogelenzang,Bloemendaal,Noord-Holland,VBO,4.576278,52.321768
Godfried Bomanslaan,32,,,2114EN,Vogelenzang,Bloemendaal,Noord-Holland,VBO,4.576249,52.321714
Godfried Bomanslaan,34,,,2114EP,Vogelenzang,Bloemendaal,Noord-Holland,VBO,4.576426,52.321653
Godfried Bomanslaan,36,,,2114EP,Vogelenzang,Bloemendaal,Noord-Holland,VBO,4.576427,52.321599
Godfried Bomanslaan,38,,,2114EP,Vogelenzang,Bloemendaal,Noord-Holland,VBO,4.576428,52.321554
Godfried Bomanslaan,40,,,2114EP,Vogelenzang,Bloemendaal,Noord-Holland,VBO,4.576415,52.321500
Godfried Bomanslaan,42,,,2114EP,Vogelenzang,Bloemendaal,Noord-Holland,VBO,4.576415,52.321455
Godfried Bomanslaan,44,,,2114EP,Vogelenzang,Bloemendaal,Noord-Holland,VBO,4.576358,52.321364
Godfried Bomanslaan,46,,,2114EP,Vogelenzang,Bloemendaal,Noord-Holland,VBO,4.576359,52.321319
Godfried Bomanslaan,48,,,2114EP,Vogelenzang,Bloemendaal,Noord-Holland,VBO,4.576360,52.321275
Godfried Bomanslaan,50,,,2114EP,Vogelenzang,Bloemendaal,Noord-Holland,VBO,4.576346,52.321221
Godfried Bomanslaan,52,,,2114EP,Vogelenzang,Bloemendaal,Noord-Holland,VBO,4.576347,52.321185
Henk Lensenlaan,1,,,2114ER,Vogelenzang,Bloemendaal,Noord-Holland,VBO,4.572654,52.316998
Henk Lensenlaan,2,a,,2114ER,Vogelenzang,Bloemendaal,Noord-Holland,VBO,4.571096,52.317176
Henk Lensenlaan,2,,,2114ER,Vogelenzang,Bloemendaal,Noord-Holland,VBO,4.572338,52.317436
Henk Lensenlaan,3,,,2114ER,Vogelenzang,Bloemendaal,Noord-Holland,VBO,4.572333,52.316888
Henk Lensenlaan,4,,,2114ER,Vogelenzang,Bloemendaal,Noord-Holland,VBO,4.570680,52.316688
Henk Lensenlaan,5,,,2114ER,Vogelenzang,Bloemendaal,Noord-Holland,VBO,4.572103,52.316643
Teylingerweg,77,,,2114ES,Vogelenzang,Bloemendaal,Noord-Holland,VBO,4.573899,52.320278
Teylingerweg,79,,,2114ES,Vogelenzang,Bloemendaal,Noord-Holland,VBO,4.573550,52.320150
Teylingerweg,81,,,2114ES,Vogelenzang,Bloemendaal,Noord-Holland,VBO,4.573609,52.320132
Teylingerweg,83,,,2114ES,Vogelenzang,Bloemendaal,Noord-Holland,VBO,4.573579,52.320177
Teylingerweg,85,,,2114ES,Vogelenzang,Bloemendaal,Noord-Holland,VBO,4.573638,52.320159
Teylingerweg,87,,,2114ES,Vogelenzang,Bloemendaal,Noord-Holland,VBO,4.573800,52.320115
Teylingerweg,89,,,2114ES,Vogelenzang,Bloemendaal,Noord-Holland,VBO,4.573711,52.320133
Teylingerweg,91,,,2114ES,Vogelenzang,Bloemendaal,Noord-Holland,VBO,4.573843,52.320161
Teylingerweg,93,,,2114ES,Vogelenzang,Bloemendaal,Noord-Holland,VBO,4.573740,52.320187
Teylingerweg,95,,,2114ES,Vogelenzang,Bloemendaal,Noord-Holland,VBO,4.573872,52.320197
Teylingerweg,97,,,2114ES,Vogelenzang,Bloemendaal,Noord-Holland,VBO,4.573783,52.320223
Teylingerweg,99,,,2114ES,Vogelenzang,Bloemendaal,Noord-Holland,VBO,4.573900,52.320233
Teylingerweg,101,,,2114ES,Vogelenzang,Bloemendaal,Noord-Holland,VBO,4.573812,52.320250
Teylingerweg,103,,,2114ES,Vogelenzang,Bloemendaal,Noord-Holland,VBO,4.573929,52.320287
Teylingerweg,105,,,2114ES,Vogelenzang,Bloemendaal,Noord-Holland,VBO,4.573825,52.320313
Teylingerweg,107,,,2114ES,Vogelenzang,Bloemendaal,Noord-Holland,VBO,4.573957,52.320332
Teylingerweg,109,,,2114ES,Vogelenzang,Bloemendaal,Noord-Holland,VBO,4.573869,52.320359
Teylingerweg,111,,,2114ES,Vogelenzang,Bloemendaal,Noord-Holland,VBO,4.573985,52.320404
Teylingerweg,113,,,2114ES,Vogelenzang,Bloemendaal,Noord-Holland,VBO,4.573911,52.320422
Teylingerweg,115,,,2114ES,Vogelenzang,Bloemendaal,Noord-Holland,VBO,4.574028,52.320486
Teylingerweg,117,,,2114ES,Vogelenzang,Bloemendaal,Noord-Holland,VBO,4.573939,52.320503
Teylingerweg,119,,,2114ES,Vogelenzang,Bloemendaal,Noord-Holland,VBO,4.574102,52.320441
Teylingerweg,121,,,2114ES,Vogelenzang,Bloemendaal,Noord-Holland,VBO,4.574130,52.320486
Teylingerweg,123,,,2114ES,Vogelenzang,Bloemendaal,Noord-Holland,VBO,4.574175,52.320424
Teylingerweg,125,,,2114ES,Vogelenzang,Bloemendaal,Noord-Holland,VBO,4.574218,52.320478
Teylingerweg,127,,,2114ES,Vogelenzang,Bloemendaal,Noord-Holland,VBO,4.574249,52.320406
Teylingerweg,129,,,2114ES,Vogelenzang,Bloemendaal,Noord-Holland,VBO,4.574292,52.320460
Teylingerweg,131,,,2114ES,Vogelenzang,Bloemendaal,Noord-Holland,VBO,4.574308,52.320389
Teylingerweg,133,,,2114ES,Vogelenzang,Bloemendaal,Noord-Holland,VBO,4.574336,52.320452
Teylingerweg,135,,,2114ES,Vogelenzang,Bloemendaal,Noord-Holland,VBO,4.574338,52.320380
Teylingerweg,137,,,2114ES,Vogelenzang,Bloemendaal,Noord-Holland,VBO,4.574381,52.320434
Teylingerweg,139,,,2114ES,Vogelenzang,Bloemendaal,Noord-Holland,VBO,4.574411,52.320362
Teylingerweg,141,,,2114ES,Vogelenzang,Bloemendaal,Noord-Holland,VBO,4.574440,52.320416
Teylingerweg,143,,,2114ES,Vogelenzang,Bloemendaal,Noord-Holland,VBO,4.574470,52.320354
Teylingerweg,145,,,2114ES,Vogelenzang,Bloemendaal,Noord-Holland,VBO,4.574513,52.320417
Leidsevaartweg,25,,,2114NA,Vogelenzang,Bloemendaal,Noord-Holland,VBO,4.591115,52.334425
