openbareruimtenaam,huisnummer,huisletter,huisnummertoevoeging,postcode,woonplaatsnaam,gemeentenaam,provincienaam,typeadresseerbaarobject,longitude,latitude
Langelaan,2,,,2116AB,Bentveld,Zandvoort,Noord-Holland,VBO,4.575554,52.366182
Langelaan,4,,,2116AB,Bentveld,Zandvoort,Noord-Holland,VBO,4.575804,52.366148
Langelaan,6,,,2116AB,Bentveld,Zandvoort,Noord-Holland,VBO,4.575907,52.366149
Langelaan,8,,,2116AB,Bentveld,Zandvoort,Noord-Holland,VBO,4.576113,52.366114
Langelaan,10,,,2116AB,Bentveld,Zandvoort,Noord-Holland,VBO,4.576201,52.366106
Langelaan,12,,,2116AB,Bentveld,Zandvoort,Noord-Holland,VBO,4.576422,52.366098
Langelaan,14,,,2116AB,Bentveld,Zandvoort,Noord-Holland,VBO,4.576540,52.366081
Langelaan,15,,,2116AB,Bentveld,Zandvoort,Noord-Holland,VBO,4.576506,52.365479
Langelaan,16,,,2116AB,Bentveld,Zandvoort,Noord-Holland,VBO,4.576862,52.366101
Langelaan,18,,,2116AB,Bentveld,Zandvoort,Noord-Holland,VBO,4.576994,52.366093
Langelaan,20,,,2116AB,Bentveld,Zandvoort,Noord-Holland,VBO,4.577083,52.366067
Bentveldsduin,1,,,2116EA,Bentveld,Zandvoort,Noord-Holland,VBO,4.575218,52.366460
Bentveldsduin,3,,,2116EA,Bentveld,Zandvoort,Noord-Holland,VBO,4.575068,52.366500
Bentveldsduin,5,,,2116EA,Bentveld,Zandvoort,Noord-Holland,VBO,4.575167,52.366367
Bentveldsduin,9,,,2116EA,Bentveld,Zandvoort,Noord-Holland,VBO,4.574990,52.366432
Bentveldsduin,11,,,2116EA,Bentveld,Zandvoort,Noord-Holland,VBO,4.574845,52.366529
Bentveldsduin,13,,,2116EA,Bentveld,Zandvoort,Noord-Holland,VBO,4.574690,52.366575
Bentveldsduin,15,,,2116EA,Bentveld,Zandvoort,Noord-Holland,VBO,4.574810,52.366464
Bentveldsduin,17,,,2116EA,Bentveld,Zandvoort,Noord-Holland,VBO,4.574625,52.366528
Bentveldsduin,19,,,2116EA,Bentveld,Zandvoort,Noord-Holland,VBO,4.574679,52.366455
Bentveldsduin,21,,,2116EA,Bentveld,Zandvoort,Noord-Holland,VBO,4.574463,52.366613
Bentveldsduin,23,,,2116EA,Bentveld,Zandvoort,Noord-Holland,VBO,4.574308,52.366652
Bentveldsduin,25,,,2116EA,Bentveld,Zandvoort,Noord-Holland,VBO,4.574416,52.366541
Bentveldsduin,27,,,2116EA,Bentveld,Zandvoort,Noord-Holland,VBO,4.574243,52.366598
Bentveldsduin,29,,,2116EA,Bentveld,Zandvoort,Noord-Holland,VBO,4.574283,52.366524
Bentveldsduin,33,,,2116EA,Bentveld,Zandvoort,Noord-Holland,VBO,4.574581,52.367209
Bentveldsduin,35,,,2116EA,Bentveld,Zandvoort,Noord-Holland,VBO,4.573174,52.367056
Bentveldsduin,37,,,2116EA,Bentveld,Zandvoort,Noord-Holland,VBO,4.573581,52.367292
Bentveldsduin,2,,,2116EB,Bentveld,Zandvoort,Noord-Holland,VBO,4.575318,52.366652
Bentveldsduin,4,,,2116EB,Bentveld,Zandvoort,Noord-Holland,VBO,4.575431,52.366573
Bentveldsduin,6,,,2116EB,Bentveld,Zandvoort,Noord-Holland,VBO,4.575413,52.366704
Bentveldsduin,8,,,2116EB,Bentveld,Zandvoort,Noord-Holland,VBO,4.575539,52.366619
Bentveldsduin,10,,,2116EB,Bentveld,Zandvoort,Noord-Holland,VBO,4.575526,52.366692
Bentveldsduin,12,,,2116EB,Bentveld,Zandvoort,Noord-Holland,VBO,4.575109,52.366820
Bentveldsduin,14,,,2116EB,Bentveld,Zandvoort,Noord-Holland,VBO,4.575232,52.366757
Bentveldsduin,16,,,2116EB,Bentveld,Zandvoort,Noord-Holland,VBO,4.575193,52.366876
Bentveldsduin,18,,,2116EB,Bentveld,Zandvoort,Noord-Holland,VBO,4.575320,52.366788
Bentveldsduin,20,,,2116EB,Bentveld,Zandvoort,Noord-Holland,VBO,4.575313,52.366867
Bentveldsduin,22,,,2116EB,Bentveld,Zandvoort,Noord-Holland,VBO,4.574512,52.366848
Bentveldsduin,24,,,2116EB,Bentveld,Zandvoort,Noord-Holland,VBO,4.574583,52.366805
Bentveldsduin,26,,,2116EB,Bentveld,Zandvoort,Noord-Holland,VBO,4.574680,52.366757
Bentveldsduin,28,,,2116EB,Bentveld,Zandvoort,Noord-Holland,VBO,4.574570,52.366885
Bentveldsduin,30,,,2116EB,Bentveld,Zandvoort,Noord-Holland,VBO,4.574640,52.366845
Bentveldsduin,32,,,2116EB,Bentveld,Zandvoort,Noord-Holland,VBO,4.574729,52.366800
Bentveldsduin,34,,,2116EB,Bentveld,Zandvoort,Noord-Holland,VBO,4.574631,52.366929
Bentveldsduin,36,,,2116EB,Bentveld,Zandvoort,Noord-Holland,VBO,4.574699,52.366887
Bentveldsduin,38,,,2116EB,Bentveld,Zandvoort,Noord-Holland,VBO,4.574782,52.366841
Bentveldsduin,40,,,2116EB,Bentveld,Zandvoort,Noord-Holland,VBO,4.574723,52.366944
Bentveldsduin,42,,,2116EB,Bentveld,Zandvoort,Noord-Holland,VBO,4.574798,52.366899
Bentveldsduin,44,,,2116EB,Bentveld,Zandvoort,Noord-Holland,VBO,4.573703,52.367005
Bentveldweg,1,a,,2116EG,Bentveld,Zandvoort,Noord-Holland,VBO,4.574746,52.366213
Bentveldweg,1,b,,2116EG,Bentveld,Zandvoort,Noord-Holland,VBO,4.574849,52.366204
Bentveldweg,1,,,2116EG,Bentveld,Zandvoort,Noord-Holland,VBO,4.574643,52.366221
Bentveldweg,7,,,2116EG,Bentveld,Zandvoort,Noord-Holland,VBO,4.575955,52.366742
Bentveldweg,9,,,2116EG,Bentveld,Zandvoort,Noord-Holland,VBO,4.576173,52.366842
Bentveldweg,11,,,2116EG,Bentveld,Zandvoort,Noord-Holland,VBO,4.576422,52.366889
Bentveldweg,13,,,2116EG,Bentveld,Zandvoort,Noord-Holland,VBO,4.576582,52.366944
Bentveldweg,17,,,2116EG,Bentveld,Zandvoort,Noord-Holland,VBO,4.577006,52.367064
Bentveldweg,19,,,2116EG,Bentveld,Zandvoort,Noord-Holland,VBO,4.577400,52.367183
Bentveldweg,21,,,2116EG,Bentveld,Zandvoort,Noord-Holland,VBO,4.577649,52.367257
Bentveldweg,2,,,2116EH,Bentveld,Zandvoort,Noord-Holland,VBO,4.575888,52.366373
Bentveldweg,4,,,2116EH,Bentveld,Zandvoort,Noord-Holland,VBO,4.576254,52.366412
Bentveldweg,6,,,2116EH,Bentveld,Zandvoort,Noord-Holland,VBO,4.576342,52.366457
Bentveldweg,8,,,2116EH,Bentveld,Zandvoort,Noord-Holland,VBO,4.576811,52.366469
Bentveldweg,10,,,2116EH,Bentveld,Zandvoort,Noord-Holland,VBO,4.577074,52.366588
Bentveldweg,12,,,2116EH,Bentveld,Zandvoort,Noord-Holland,VBO,4.577204,52.366706
Bentveldweg,14,,,2116EH,Bentveld,Zandvoort,Noord-Holland,VBO,4.577407,52.366797
Bentveldweg,16,,,2116EH,Bentveld,Zandvoort,Noord-Holland,VBO,4.577510,52.366834
Ebbingeweg,1,,,2116EJ,Bentveld,Zandvoort,Noord-Holland,VBO,4.575900,52.367344
Ebbingeweg,2,,,2116EJ,Bentveld,Zandvoort,Noord-Holland,VBO,4.575600,52.367683
Ebbingeweg,3,a,,2116EJ,Bentveld,Zandvoort,Noord-Holland,VBO,4.575346,52.368135
Ebbingeweg,3,,,2116EJ,Bentveld,Zandvoort,Noord-Holland,VBO,4.574535,52.368063
Ebbingeweg,4,,,2116EJ,Bentveld,Zandvoort,Noord-Holland,VBO,4.575881,52.368341
Ebbingeweg,5,,,2116EJ,Bentveld,Zandvoort,Noord-Holland,VBO,4.576667,52.368751
Ebbingeweg,6,,,2116EJ,Bentveld,Zandvoort,Noord-Holland,VBO,4.577914,52.368823
Ebbingeweg,7,,,2116EJ,Bentveld,Zandvoort,Noord-Holland,VBO,4.577821,52.368283
Ebbingeweg,8,,,2116EJ,Bentveld,Zandvoort,Noord-Holland,VBO,4.576854,52.368159
Zandvoortselaan,269,,,2116EK,Bentveld,Zandvoort,Noord-Holland,VBO,4.564750,52.366818
Zandvoortselaan,283,,,2116EK,Bentveld,Zandvoort,Noord-Holland,VBO,4.566929,52.366491
Zandvoortselaan,285,,,2116EK,Bentveld,Zandvoort,Noord-Holland,VBO,4.567032,52.366501
Zandvoortselaan,287,,,2116EK,Bentveld,Zandvoort,Noord-Holland,VBO,4.567106,52.366483
Zandvoortselaan,289,,,2116EK,Bentveld,Zandvoort,Noord-Holland,VBO,4.567252,52.366493
Zandvoortselaan,291,,,2116EK,Bentveld,Zandvoort,Noord-Holland,VBO,4.567517,52.366495
Zandvoortselaan,293,,,2116EK,Bentveld,Zandvoort,Noord-Holland,VBO,4.567590,52.366487
Zandvoortselaan,295,,,2116EK,Bentveld,Zandvoort,Noord-Holland,VBO,4.567812,52.366425
Zandvoortselaan,297,,,2116EK,Bentveld,Zandvoort,Noord-Holland,VBO,4.568017,52.366436
Zandvoortselaan,299,,,2116EK,Bentveld,Zandvoort,Noord-Holland,VBO,4.568120,52.366436
Zandvoortselaan,301,,,2116EL,Bentveld,Zandvoort,Noord-Holland,VBO,4.568282,52.366384
Zandvoortselaan,303,,,2116EL,Bentveld,Zandvoort,Noord-Holland,VBO,4.568444,52.366376
Zandvoortselaan,305,,,2116EL,Bentveld,Zandvoort,Noord-Holland,VBO,4.568649,52.366377
Zandvoortselaan,307,a,,2116EL,Bentveld,Zandvoort,Noord-Holland,VBO,4.568753,52.366333
Zandvoortselaan,307,,,2116EL,Bentveld,Zandvoort,Noord-Holland,VBO,4.568767,52.366396
Zandvoortselaan,309,,,2116EL,Bentveld,Zandvoort,Noord-Holland,VBO,4.569017,52.366326
Zandvoortselaan,311,,,2116EL,Bentveld,Zandvoort,Noord-Holland,VBO,4.569443,52.366329
Zandvoortselaan,313,,,2116EL,Bentveld,Zandvoort,Noord-Holland,VBO,4.569708,52.366277
Zandvoortselaan,317,,,2116EM,Bentveld,Zandvoort,Noord-Holland,VBO,4.570724,52.366167
Zandvoortselaan,319,,,2116EM,Bentveld,Zandvoort,Noord-Holland,VBO,4.570915,52.366159
Zandvoortselaan,321,,,2116EM,Bentveld,Zandvoort,Noord-Holland,VBO,4.571120,52.366143
Zandvoortselaan,323,,,2116EM,Bentveld,Zandvoort,Noord-Holland,VBO,4.571253,52.366135
Zandvoortselaan,325,,,2116EM,Bentveld,Zandvoort,Noord-Holland,VBO,4.571459,52.366091
Zandvoortselaan,327,,,2116EM,Bentveld,Zandvoort,Noord-Holland,VBO,4.571562,52.366074
Zandvoortselaan,329,,,2116EM,Bentveld,Zandvoort,Noord-Holland,VBO,4.571738,52.366075
Zandvoortselaan,331,,,2116EM,Bentveld,Zandvoort,Noord-Holland,VBO,4.571827,52.366067
Zandvoortselaan,333,,,2116EM,Bentveld,Zandvoort,Noord-Holland,VBO,4.571988,52.366059
Zandvoortselaan,335,,,2116EM,Bentveld,Zandvoort,Noord-Holland,VBO,4.572062,52.366059
Zandvoortselaan,337,,,2116EM,Bentveld,Zandvoort,Noord-Holland,VBO,4.572180,52.366033
Zandvoortselaan,339,,,2116EM,Bentveld,Zandvoort,Noord-Holland,VBO,4.572370,52.366034
Zandvoortselaan,341,,,2116EN,Bentveld,Zandvoort,Noord-Holland,VBO,4.572577,52.365991
Zandvoortselaan,343,,,2116EN,Bentveld,Zandvoort,Noord-Holland,VBO,4.572724,52.365947
Zandvoortselaan,345,,,2116EN,Bentveld,Zandvoort,Noord-Holland,VBO,4.572929,52.366020
Zandvoortselaan,347,,,2116EN,Bentveld,Zandvoort,Noord-Holland,VBO,4.573090,52.366021
Zandvoortselaan,349,,,2116EN,Bentveld,Zandvoort,Noord-Holland,VBO,4.573239,52.365897
Zandvoortselaan,351,a,,2116EN,Bentveld,Zandvoort,Noord-Holland,VBO,4.573516,52.365986
Zandvoortselaan,351,,,2116EN,Bentveld,Zandvoort,Noord-Holland,VBO,4.573301,52.365930
Zandvoortselaan,353,,,2116EN,Bentveld,Zandvoort,Noord-Holland,VBO,4.573479,52.365873
Zandvoortselaan,355,a,,2116EN,Bentveld,Zandvoort,Noord-Holland,VBO,4.573710,52.365837
Zandvoortselaan,355,b,,2116EN,Bentveld,Zandvoort,Noord-Holland,VBO,4.573893,52.365848
Zandvoortselaan,355,,,2116EN,Bentveld,Zandvoort,Noord-Holland,VBO,4.573828,52.365829
Zandvoortselaan,357,a,,2116EN,Bentveld,Zandvoort,Noord-Holland,VBO,4.574074,52.366010
Zandvoortselaan,357,,,2116EN,Bentveld,Zandvoort,Noord-Holland,VBO,4.574034,52.365803
Zandvoortselaan,359,,,2116EN,Bentveld,Zandvoort,Noord-Holland,VBO,4.574122,52.365795
Zandvoortselaan,361,a,,2116EN,Bentveld,Zandvoort,Noord-Holland,VBO,4.574241,52.365743
Zandvoortselaan,361,b,,2116EN,Bentveld,Zandvoort,Noord-Holland,VBO,4.574248,52.365767
Zandvoortselaan,361,c,,2116EN,Bentveld,Zandvoort,Noord-Holland,VBO,4.574273,52.365798
Zandvoortselaan,361,d,,2116EN,Bentveld,Zandvoort,Noord-Holland,VBO,4.574294,52.365832
Zandvoortselaan,361,e,,2116EN,Bentveld,Zandvoort,Noord-Holland,VBO,4.574392,52.365830
Zandvoortselaan,361,g,,2116EN,Bentveld,Zandvoort,Noord-Holland,VBO,4.574365,52.365793
Zandvoortselaan,361,h,,2116EN,Bentveld,Zandvoort,Noord-Holland,VBO,4.574365,52.365766
Zandvoortselaan,361,j,,2116EN,Bentveld,Zandvoort,Noord-Holland,VBO,4.574371,52.365739
Zandvoortselaan,363,,,2116EN,Bentveld,Zandvoort,Noord-Holland,VBO,4.574504,52.365770
Zandvoortselaan,365,,,2116EP,Bentveld,Zandvoort,Noord-Holland,VBO,4.574959,52.365783
Zandvoortselaan,369,a,,2116EP,Bentveld,Zandvoort,Noord-Holland,VBO,4.575241,52.365650
Zandvoortselaan,369,,,2116EP,Bentveld,Zandvoort,Noord-Holland,VBO,4.575270,52.365668
Zandvoortselaan,371,a,,2116EP,Bentveld,Zandvoort,Noord-Holland,VBO,4.575373,52.365633
Zandvoortselaan,371,,,2116EP,Bentveld,Zandvoort,Noord-Holland,VBO,4.575402,52.365651
Zandvoortselaan,373,,,2116EP,Bentveld,Zandvoort,Noord-Holland,VBO,4.575651,52.365670
Zandvoortselaan,375,,,2116EP,Bentveld,Zandvoort,Noord-Holland,VBO,4.575814,52.365591
Zandvoortselaan,377,a,,2116EP,Bentveld,Zandvoort,Noord-Holland,VBO,4.576035,52.365556
Zandvoortselaan,377,,,2116EP,Bentveld,Zandvoort,Noord-Holland,VBO,4.575992,52.365529
Zandvoortselaan,204,,,2116ER,Bentveld,Zandvoort,Noord-Holland,VBO,4.570606,52.365366
Zandvoortselaan,206,,,2116ER,Bentveld,Zandvoort,Noord-Holland,VBO,4.570857,52.365314
Zandvoortselaan,208,,,2116ER,Bentveld,Zandvoort,Noord-Holland,VBO,4.571135,52.365352
Zandvoortselaan,210,,,2116ER,Bentveld,Zandvoort,Noord-Holland,VBO,4.571415,52.365318
Zandvoortselaan,212,,,2116ER,Bentveld,Zandvoort,Noord-Holland,VBO,4.571663,52.365373
Zandvoortselaan,214,,,2116ER,Bentveld,Zandvoort,Noord-Holland,VBO,4.572045,52.365349
Zandvoortselaan,216,,,2116ER,Bentveld,Zandvoort,Noord-Holland,VBO,4.572296,52.365315
Zandvoortselaan,218,,,2116ER,Bentveld,Zandvoort,Noord-Holland,VBO,4.572545,52.365344
Zandvoortselaan,220,,,2116ER,Bentveld,Zandvoort,Noord-Holland,VBO,4.572840,52.365274
Zandvoortselaan,222,,,2116ER,Bentveld,Zandvoort,Noord-Holland,VBO,4.573074,52.365329
Zandvoortselaan,224,,,2116ER,Bentveld,Zandvoort,Noord-Holland,VBO,4.573339,52.365286
Zandvoortselaan,226,,,2116ES,Bentveld,Zandvoort,Noord-Holland,VBO,4.574616,52.365304
Zandvoortselaan,228,,,2116ES,Bentveld,Zandvoort,Noord-Holland,VBO,4.574726,52.365280
Zandvoortselaan,230,,,2116ES,Bentveld,Zandvoort,Noord-Holland,VBO,4.574812,52.365281
Zandvoortselaan,232,,,2116ES,Bentveld,Zandvoort,Noord-Holland,VBO,4.574943,52.365274
Zandvoortselaan,234,,,2116ES,Bentveld,Zandvoort,Noord-Holland,VBO,4.574955,52.365198
Zandvoortselaan,236,a,,2116ES,Bentveld,Zandvoort,Noord-Holland,VBO,4.574990,52.365136
Zandvoortselaan,236,b,,2116ES,Bentveld,Zandvoort,Noord-Holland,VBO,4.575064,52.365099
Zandvoortselaan,236,c,,2116ES,Bentveld,Zandvoort,Noord-Holland,VBO,4.574984,52.365104
Zandvoortselaan,236,d,,2116ES,Bentveld,Zandvoort,Noord-Holland,VBO,4.574985,52.365066
Zandvoortselaan,238,,,2116ES,Bentveld,Zandvoort,Noord-Holland,VBO,4.575146,52.365182
Zandvoortselaan,240,,,2116ES,Bentveld,Zandvoort,Noord-Holland,VBO,4.575204,52.365245
Zandvoortselaan,242,,,2116ES,Bentveld,Zandvoort,Noord-Holland,VBO,4.575307,52.365237
Zandvoortselaan,244,,,2116ES,Bentveld,Zandvoort,Noord-Holland,VBO,4.575425,52.365220
Zandvoortselaan,246,,,2116ES,Bentveld,Zandvoort,Noord-Holland,VBO,4.575513,52.365202
Zandvoortselaan,248,,,2116ES,Bentveld,Zandvoort,Noord-Holland,VBO,4.575602,52.365167
Zandvoortselaan,250,,,2116ES,Bentveld,Zandvoort,Noord-Holland,VBO,4.575734,52.365141
Zuidlaan,37,a,,2116GA,Bentveld,Zandvoort,Noord-Holland,VBO,4.573643,52.360722
Zuidlaan,37,,,2116GA,Bentveld,Zandvoort,Noord-Holland,VBO,4.573945,52.361048
Zuidlaan,38,,,2116GA,Bentveld,Zandvoort,Noord-Holland,VBO,4.574406,52.361695
Zuidlaan,39,,,2116GA,Bentveld,Zandvoort,Noord-Holland,VBO,4.573100,52.360692
Zuidlaan,40,,,2116GA,Bentveld,Zandvoort,Noord-Holland,VBO,4.574444,52.362133
Zuidlaan,41,,,2116GA,Bentveld,Zandvoort,Noord-Holland,VBO,4.572557,52.360679
Zuidlaan,43,,,2116GA,Bentveld,Zandvoort,Noord-Holland,VBO,4.571840,52.360557
Zuidlaan,45,,,2116GA,Bentveld,Zandvoort,Noord-Holland,VBO,4.571271,52.360346
Zuidlaan,47,,,2116GA,Bentveld,Zandvoort,Noord-Holland,VBO,4.571867,52.359892
Zuidlaan,51,,cara,2116GA,Bentveld,Zandvoort,Noord-Holland,VBO,4.569262,52.360656
Zuidlaan,51,,,2116GA,Bentveld,Zandvoort,Noord-Holland,VBO,4.569010,52.360379
Wikkelaan,1,,,2116TA,Bentveld,Zandvoort,Noord-Holland,VBO,4.575635,52.363943
Wikkelaan,5,,,2116TA,Bentveld,Zandvoort,Noord-Holland,VBO,4.574725,52.363363
Wikkelaan,7,,,2116TA,Bentveld,Zandvoort,Noord-Holland,VBO,4.574461,52.363334
Wikkelaan,9,,,2116TA,Bentveld,Zandvoort,Noord-Holland,VBO,4.574212,52.363279
Wikkelaan,11,,,2116TA,Bentveld,Zandvoort,Noord-Holland,VBO,4.573980,52.363142
Wikkelaan,13,,,2116TA,Bentveld,Zandvoort,Noord-Holland,VBO,4.573654,52.363275
Wikkelaan,6,,,2116TB,Bentveld,Zandvoort,Noord-Holland,VBO,4.575036,52.363977
Wikkelaan,8,,,2116TB,Bentveld,Zandvoort,Noord-Holland,VBO,4.574848,52.363840
Wikkelaan,10,,,2116TB,Bentveld,Zandvoort,Noord-Holland,VBO,4.574746,52.363804
Wikkelaan,12,,,2116TB,Bentveld,Zandvoort,Noord-Holland,VBO,4.574468,52.363739
Wikkelaan,14,,,2116TB,Bentveld,Zandvoort,Noord-Holland,VBO,4.574293,52.363675
Wikkelaan,16,,,2116TB,Bentveld,Zandvoort,Noord-Holland,VBO,4.574015,52.363637
Wikkelaan,18,,,2116TB,Bentveld,Zandvoort,Noord-Holland,VBO,4.573751,52.363626
Teunisbloemlaan,1,,,2116TC,Bentveld,Zandvoort,Noord-Holland,VBO,4.573921,52.363978
Teunisbloemlaan,3,,,2116TC,Bentveld,Zandvoort,Noord-Holland,VBO,4.573806,52.363842
Teunisbloemlaan,5,,,2116TC,Bentveld,Zandvoort,Noord-Holland,VBO,4.573677,52.363671
Teunisbloemlaan,7,,,2116TC,Bentveld,Zandvoort,Noord-Holland,VBO,4.573290,52.363120
Teunisbloemlaan,9,,,2116TC,Bentveld,Zandvoort,Noord-Holland,VBO,4.573205,52.362948
Teunisbloemlaan,2,,,2116TD,Bentveld,Zandvoort,Noord-Holland,VBO,4.573437,52.363948
Teunisbloemlaan,4,,,2116TD,Bentveld,Zandvoort,Noord-Holland,VBO,4.573394,52.363893
Teunisbloemlaan,6,,,2116TD,Bentveld,Zandvoort,Noord-Holland,VBO,4.573265,52.363713
Teunisbloemlaan,8,,,2116TD,Bentveld,Zandvoort,Noord-Holland,VBO,4.573092,52.363523
Teunisbloemlaan,10,,,2116TD,Bentveld,Zandvoort,Noord-Holland,VBO,4.572831,52.363359
Teunisbloemlaan,12,,,2116TD,Bentveld,Zandvoort,Noord-Holland,VBO,4.572746,52.363179
Teunisbloemlaan,14,,,2116TD,Bentveld,Zandvoort,Noord-Holland,VBO,4.572470,52.362997
Teunisbloemlaan,16,,,2116TD,Bentveld,Zandvoort,Noord-Holland,VBO,4.572089,52.362986
Teunisbloemlaan,18,a,,2116TD,Bentveld,Zandvoort,Noord-Holland,VBO,4.571678,52.362947
Teunisbloemlaan,18,,,2116TD,Bentveld,Zandvoort,Noord-Holland,VBO,4.571781,52.362965
Teunisbloemlaan,20,,,2116TD,Bentveld,Zandvoort,Noord-Holland,VBO,4.571533,52.362847
Teunisbloemlaan,22,,,2116TD,Bentveld,Zandvoort,Noord-Holland,VBO,4.571197,52.362755
Teunisbloemlaan,24,,,2116TD,Bentveld,Zandvoort,Noord-Holland,VBO,4.570830,52.362761
Teunisbloemlaan,26,,,2116TD,Bentveld,Zandvoort,Noord-Holland,VBO,4.570480,52.362651
Teunisbloemlaan,28,,,2116TD,Bentveld,Zandvoort,Noord-Holland,VBO,4.570099,52.362603
Groot Bentveld,1,,,2116TE,Bentveld,Zandvoort,Noord-Holland,VBO,4.570422,52.361833
Groot Bentveld,3,,,2116TE,Bentveld,Zandvoort,Noord-Holland,VBO,4.570656,52.361888
Groot Bentveld,5,,,2116TE,Bentveld,Zandvoort,Noord-Holland,VBO,4.570671,52.361852
Groot Bentveld,6,,,2116TE,Bentveld,Zandvoort,Noord-Holland,VBO,4.570701,52.361790
Duinrooslaan,3,,,2116TG,Bentveld,Zandvoort,Noord-Holland,VBO,4.569156,52.361977
Duinrooslaan,5,,,2116TG,Bentveld,Zandvoort,Noord-Holland,VBO,4.568511,52.361963
Duinrooslaan,7,,,2116TG,Bentveld,Zandvoort,Noord-Holland,VBO,4.569030,52.362443
Duinrooslaan,9,,,2116TG,Bentveld,Zandvoort,Noord-Holland,VBO,4.568311,52.362426
Duinrooslaan,11,,,2116TG,Bentveld,Zandvoort,Noord-Holland,VBO,4.568801,52.362918
Duinrooslaan,13,,,2116TG,Bentveld,Zandvoort,Noord-Holland,VBO,4.568184,52.362959
Duinrooslaan,15,,,2116TG,Bentveld,Zandvoort,Noord-Holland,VBO,4.568398,52.363284
Duinrooslaan,4,,,2116TH,Bentveld,Zandvoort,Noord-Holland,VBO,4.569600,52.362591
Duinrooslaan,6,,,2116TH,Bentveld,Zandvoort,Noord-Holland,VBO,4.569494,52.362761
Duinrooslaan,8,,,2116TH,Bentveld,Zandvoort,Noord-Holland,VBO,4.569403,52.362940
Duindoornlaan,1,,,2116TJ,Bentveld,Zandvoort,Noord-Holland,VBO,4.575296,52.364203
Duindoornlaan,3,,,2116TJ,Bentveld,Zandvoort,Noord-Holland,VBO,4.574945,52.364156
Duindoornlaan,5,,,2116TJ,Bentveld,Zandvoort,Noord-Holland,VBO,4.574828,52.364146
Duindoornlaan,7,,,2116TJ,Bentveld,Zandvoort,Noord-Holland,VBO,4.574506,52.364090
Duindoornlaan,9,,,2116TJ,Bentveld,Zandvoort,Noord-Holland,VBO,4.574403,52.364089
Duindoornlaan,11,,,2116TJ,Bentveld,Zandvoort,Noord-Holland,VBO,4.574140,52.364033
Duindoornlaan,13,,,2116TJ,Bentveld,Zandvoort,Noord-Holland,VBO,4.573042,52.363864
Duindoornlaan,15,,,2116TJ,Bentveld,Zandvoort,Noord-Holland,VBO,4.572822,52.363835
Duindoornlaan,17,,,2116TJ,Bentveld,Zandvoort,Noord-Holland,VBO,4.572617,52.363789
Duindoornlaan,21,,,2116TK,Bentveld,Zandvoort,Noord-Holland,VBO,4.572295,52.363724
Duindoornlaan,23,,,2116TK,Bentveld,Zandvoort,Noord-Holland,VBO,4.571916,52.363587
Duindoornlaan,25,,,2116TK,Bentveld,Zandvoort,Noord-Holland,VBO,4.571637,52.363585
Duindoornlaan,27,a,,2116TK,Bentveld,Zandvoort,Noord-Holland,VBO,4.571156,52.363411
Duindoornlaan,27,,,2116TK,Bentveld,Zandvoort,Noord-Holland,VBO,4.571391,52.363430
Duindoornlaan,29,,,2116TK,Bentveld,Zandvoort,Noord-Holland,VBO,4.570818,52.363435
Duindoornlaan,31,,,2116TK,Bentveld,Zandvoort,Noord-Holland,VBO,4.570587,52.363209
Duindoornlaan,33,,,2116TK,Bentveld,Zandvoort,Noord-Holland,VBO,4.570309,52.363153
Duindoornlaan,35,,,2116TK,Bentveld,Zandvoort,Noord-Holland,VBO,4.570030,52.363151
Duindoornlaan,37,,,2116TK,Bentveld,Zandvoort,Noord-Holland,VBO,4.569796,52.363105
Duindoornlaan,39,,,2116TK,Bentveld,Zandvoort,Noord-Holland,VBO,4.569340,52.363146
Duindoornlaan,2,a,,2116TL,Bentveld,Zandvoort,Noord-Holland,VBO,4.576032,52.365077
Duindoornlaan,2,b,,2116TL,Bentveld,Zandvoort,Noord-Holland,VBO,4.575932,52.365111
Duindoornlaan,2,,,2116TL,Bentveld,Zandvoort,Noord-Holland,VBO,4.575901,52.364881
Duindoornlaan,4,,,2116TL,Bentveld,Zandvoort,Noord-Holland,VBO,4.575349,52.364545
Duindoornlaan,6,,,2116TL,Bentveld,Zandvoort,Noord-Holland,VBO,4.575041,52.364525
Duindoornlaan,8,,,2116TL,Bentveld,Zandvoort,Noord-Holland,VBO,4.574909,52.364524
Duindoornlaan,10,,,2116TL,Bentveld,Zandvoort,Noord-Holland,VBO,4.574660,52.364486
Duindoornlaan,12,,,2116TL,Bentveld,Zandvoort,Noord-Holland,VBO,4.573385,52.364334
Duindoornlaan,14,,,2116TL,Bentveld,Zandvoort,Noord-Holland,VBO,4.573107,52.364314
Duindoornlaan,16,,,2116TL,Bentveld,Zandvoort,Noord-Holland,VBO,4.572887,52.364294
Duindoornlaan,18,,,2116TL,Bentveld,Zandvoort,Noord-Holland,VBO,4.572655,52.364158
Duindoornlaan,20,,,2116TL,Bentveld,Zandvoort,Noord-Holland,VBO,4.572361,52.364147
Duindoornlaan,22,,,2116TL,Bentveld,Zandvoort,Noord-Holland,VBO,4.572128,52.364055
Duindoornlaan,24,,,2116TL,Bentveld,Zandvoort,Noord-Holland,VBO,4.571731,52.364080
Duindoornlaan,26,,,2116TL,Bentveld,Zandvoort,Noord-Holland,VBO,4.571499,52.363943
Duindoornlaan,28,,,2116TL,Bentveld,Zandvoort,Noord-Holland,VBO,4.571132,52.363941
Duindoornlaan,30,,,2116TL,Bentveld,Zandvoort,Noord-Holland,VBO,4.570913,52.363831
Duindoornlaan,32,,,2116TL,Bentveld,Zandvoort,Noord-Holland,VBO,4.570576,52.363838
Duindoornlaan,34,,,2116TL,Bentveld,Zandvoort,Noord-Holland,VBO,4.570151,52.363772
Duinwindelaan,1,,,2116TM,Bentveld,Zandvoort,Noord-Holland,VBO,4.573810,52.364417
Duinwindelaan,2,,,2116TM,Bentveld,Zandvoort,Noord-Holland,VBO,4.574411,52.364476
Duinwindelaan,3,,,2116TM,Bentveld,Zandvoort,Noord-Holland,VBO,4.573823,52.364498
Duinwindelaan,4,,,2116TM,Bentveld,Zandvoort,Noord-Holland,VBO,4.574392,52.364700
Duinwindelaan,5,,,2116TM,Bentveld,Zandvoort,Noord-Holland,VBO,4.573752,52.365172
Duinwindelaan,6,,,2116TM,Bentveld,Zandvoort,Noord-Holland,VBO,4.574330,52.364852
Duinwindelaan,7,,,2116TM,Bentveld,Zandvoort,Noord-Holland,VBO,4.573705,52.365316
Duinwindelaan,10,,,2116TM,Bentveld,Zandvoort,Noord-Holland,VBO,4.574517,52.365096
Duinwindelaan,12,,,2116TM,Bentveld,Zandvoort,Noord-Holland,VBO,4.574501,52.365150
Duinwindelaan,14,,,2116TM,Bentveld,Zandvoort,Noord-Holland,VBO,4.574500,52.365204
Duinwindelaan,16,,,2116TM,Bentveld,Zandvoort,Noord-Holland,VBO,4.574498,52.365294
Parnassialaan,1,a,,2116TN,Bentveld,Zandvoort,Noord-Holland,VBO,4.573231,52.364755
Parnassialaan,1,,,2116TN,Bentveld,Zandvoort,Noord-Holland,VBO,4.573687,52.364695
Parnassialaan,3,,,2116TN,Bentveld,Zandvoort,Noord-Holland,VBO,4.572952,52.364726
Parnassialaan,5,,,2116TN,Bentveld,Zandvoort,Noord-Holland,VBO,4.572571,52.364688
Parnassialaan,7,,,2116TN,Bentveld,Zandvoort,Noord-Holland,VBO,4.572307,52.364668
Parnassialaan,9,,,2116TN,Bentveld,Zandvoort,Noord-Holland,VBO,4.572176,52.364658
Parnassialaan,11,,,2116TN,Bentveld,Zandvoort,Noord-Holland,VBO,4.571854,52.364593
Parnassialaan,13,,,2116TN,Bentveld,Zandvoort,Noord-Holland,VBO,4.571547,52.364501
Parnassialaan,15,,,2116TN,Bentveld,Zandvoort,Noord-Holland,VBO,4.571283,52.364472
Parnassialaan,17,,,2116TN,Bentveld,Zandvoort,Noord-Holland,VBO,4.571079,52.364426
Parnassialaan,19,,,2116TN,Bentveld,Zandvoort,Noord-Holland,VBO,4.570932,52.364398
Parnassialaan,21,,,2116TN,Bentveld,Zandvoort,Noord-Holland,VBO,4.570624,52.364423
Parnassialaan,23,,,2116TN,Bentveld,Zandvoort,Noord-Holland,VBO,4.570448,52.364394
Parnassialaan,25,,,2116TN,Bentveld,Zandvoort,Noord-Holland,VBO,4.570172,52.364213
Parnassialaan,27,,,2116TN,Bentveld,Zandvoort,Noord-Holland,VBO,4.569964,52.364364
Parnassialaan,29,,,2116TN,Bentveld,Zandvoort,Noord-Holland,VBO,4.569537,52.364406
Parnassialaan,2,,,2116TP,Bentveld,Zandvoort,Noord-Holland,VBO,4.573461,52.365035
Parnassialaan,4,,,2116TP,Bentveld,Zandvoort,Noord-Holland,VBO,4.573123,52.365060
Parnassialaan,6,,,2116TP,Bentveld,Zandvoort,Noord-Holland,VBO,4.572801,52.364986
Parnassialaan,8,,,2116TP,Bentveld,Zandvoort,Noord-Holland,VBO,4.572449,52.364965
Parnassialaan,10,,,2116TP,Bentveld,Zandvoort,Noord-Holland,VBO,4.572111,52.364981
Parnassialaan,12,,,2116TP,Bentveld,Zandvoort,Noord-Holland,VBO,4.571817,52.364979
Parnassialaan,14,,,2116TP,Bentveld,Zandvoort,Noord-Holland,VBO,4.571525,52.364914
Parnassialaan,16,,,2116TP,Bentveld,Zandvoort,Noord-Holland,VBO,4.571173,52.364894
Parnassialaan,18,,,2116TP,Bentveld,Zandvoort,Noord-Holland,VBO,4.570894,52.364865
Parnassialaan,20,,,2116TP,Bentveld,Zandvoort,Noord-Holland,VBO,4.570616,52.364827
Parnassialaan,22,,,2116TP,Bentveld,Zandvoort,Noord-Holland,VBO,4.570426,52.364799
Parnassialaan,24,,,2116TP,Bentveld,Zandvoort,Noord-Holland,VBO,4.570030,52.364760
Parnassialaan,26,,,2116TP,Bentveld,Zandvoort,Noord-Holland,VBO,4.569897,52.364813
Bramenlaan,1,,,2116TR,Bentveld,Zandvoort,Noord-Holland,VBO,4.570241,52.365256
Bramenlaan,2,a,1,2116TR,Bentveld,Zandvoort,Noord-Holland,VBO,4.567633,52.365797
Bramenlaan,2,a,10,2116TR,Bentveld,Zandvoort,Noord-Holland,VBO,4.567736,52.365731
Bramenlaan,2,a,11,2116TR,Bentveld,Zandvoort,Noord-Holland,VBO,4.567755,52.365686
Bramenlaan,2,a,12,2116TR,Bentveld,Zandvoort,Noord-Holland,VBO,4.567802,52.365640
Bramenlaan,2,a,13,2116TR,Bentveld,Zandvoort,Noord-Holland,VBO,4.567824,52.365579
Bramenlaan,2,a,14,2116TR,Bentveld,Zandvoort,Noord-Holland,VBO,4.567845,52.365545
Bramenlaan,2,a,141,2116TR,Bentveld,Zandvoort,Noord-Holland,VBO,4.567864,52.365491
Bramenlaan,2,a,143,2116TR,Bentveld,Zandvoort,Noord-Holland,VBO,4.567897,52.365490
Bramenlaan,2,a,145,2116TR,Bentveld,Zandvoort,Noord-Holland,VBO,4.567924,52.365488
Bramenlaan,2,a,149,2116TR,Bentveld,Zandvoort,Noord-Holland,VBO,4.567957,52.365492
Bramenlaan,2,a,15,2116TR,Bentveld,Zandvoort,Noord-Holland,VBO,4.567740,52.365824
Bramenlaan,2,a,151,2116TR,Bentveld,Zandvoort,Noord-Holland,VBO,4.567992,52.365492
Bramenlaan,2,a,153,2116TR,Bentveld,Zandvoort,Noord-Holland,VBO,4.568031,52.365486
Bramenlaan,2,a,155,2116TR,Bentveld,Zandvoort,Noord-Holland,VBO,4.568061,52.365479
Bramenlaan,2,a,157,2116TR,Bentveld,Zandvoort,Noord-Holland,VBO,4.568094,52.365476
Bramenlaan,2,a,16,2116TR,Bentveld,Zandvoort,Noord-Holland,VBO,4.567762,52.365778
Bramenlaan,2,a,17,2116TR,Bentveld,Zandvoort,Noord-Holland,VBO,4.567769,52.365728
Bramenlaan,2,a,18,2116TR,Bentveld,Zandvoort,Noord-Holland,VBO,4.567787,52.365699
Bramenlaan,2,a,2,2116TR,Bentveld,Zandvoort,Noord-Holland,VBO,4.567648,52.365762
Bramenlaan,2,a,20,2116TR,Bentveld,Zandvoort,Noord-Holland,VBO,4.567816,52.365674
Bramenlaan,2,a,21,2116TR,Bentveld,Zandvoort,Noord-Holland,VBO,4.567861,52.365521
Bramenlaan,2,a,22,2116TR,Bentveld,Zandvoort,Noord-Holland,VBO,4.567838,52.365628
Bramenlaan,2,a,23,2116TR,Bentveld,Zandvoort,Noord-Holland,VBO,4.567865,52.365576
Bramenlaan,2,a,25,2116TR,Bentveld,Zandvoort,Noord-Holland,VBO,4.567767,52.365834
Bramenlaan,2,a,255,2116TR,Bentveld,Zandvoort,Noord-Holland,VBO,4.567875,52.365459
Bramenlaan,2,a,256,2116TR,Bentveld,Zandvoort,Noord-Holland,VBO,4.567914,52.365458
Bramenlaan,2,a,257,2116TR,Bentveld,Zandvoort,Noord-Holland,VBO,4.567952,52.365458
Bramenlaan,2,a,259,2116TR,Bentveld,Zandvoort,Noord-Holland,VBO,4.567996,52.365459
Bramenlaan,2,a,26,2116TR,Bentveld,Zandvoort,Noord-Holland,VBO,4.567791,52.365794
Bramenlaan,2,a,260,2116TR,Bentveld,Zandvoort,Noord-Holland,VBO,4.568034,52.365450
Bramenlaan,2,a,261,2116TR,Bentveld,Zandvoort,Noord-Holland,VBO,4.568070,52.365449
Bramenlaan,2,a,262,2116TR,Bentveld,Zandvoort,Noord-Holland,VBO,4.567996,52.365459
Bramenlaan,2,a,263,2116TR,Bentveld,Zandvoort,Noord-Holland,VBO,4.568111,52.365446
Bramenlaan,2,a,265,2116TR,Bentveld,Zandvoort,Noord-Holland,VBO,4.568144,52.365445
Bramenlaan,2,a,266,2116TR,Bentveld,Zandvoort,Noord-Holland,VBO,4.568190,52.365445
Bramenlaan,2,a,267,2116TR,Bentveld,Zandvoort,Noord-Holland,VBO,4.568245,52.365442
Bramenlaan,2,a,268,2116TR,Bentveld,Zandvoort,Noord-Holland,VBO,4.568275,52.365445
Bramenlaan,2,a,27,2116TR,Bentveld,Zandvoort,Noord-Holland,VBO,4.567800,52.365767
Bramenlaan,2,a,29,2116TR,Bentveld,Zandvoort,Noord-Holland,VBO,4.567821,52.365730
Bramenlaan,2,a,3,2116TR,Bentveld,Zandvoort,Noord-Holland,VBO,4.567668,52.365711
Bramenlaan,2,a,30,2116TR,Bentveld,Zandvoort,Noord-Holland,VBO,4.567834,52.365698
Bramenlaan,2,a,31,2116TR,Bentveld,Zandvoort,Noord-Holland,VBO,4.567849,52.365669
Bramenlaan,2,a,32,2116TR,Bentveld,Zandvoort,Noord-Holland,VBO,4.567864,52.365644
Bramenlaan,2,a,33,2116TR,Bentveld,Zandvoort,Noord-Holland,VBO,4.567870,52.365608
Bramenlaan,2,a,34,2116TR,Bentveld,Zandvoort,Noord-Holland,VBO,4.567895,52.365562
Bramenlaan,2,a,35,2116TR,Bentveld,Zandvoort,Noord-Holland,VBO,4.567907,52.365531
Bramenlaan,2,a,36,2116TR,Bentveld,Zandvoort,Noord-Holland,VBO,4.567827,52.365759
Bramenlaan,2,a,37,2116TR,Bentveld,Zandvoort,Noord-Holland,VBO,4.567854,52.365712
Bramenlaan,2,a,370,2116TR,Bentveld,Zandvoort,Noord-Holland,VBO,4.567862,52.365427
Bramenlaan,2,a,371,2116TR,Bentveld,Zandvoort,Noord-Holland,VBO,4.567903,52.365428
Bramenlaan,2,a,372,2116TR,Bentveld,Zandvoort,Noord-Holland,VBO,4.567944,52.365425
Bramenlaan,2,a,374,2116TR,Bentveld,Zandvoort,Noord-Holland,VBO,4.567977,52.365420
Bramenlaan,2,a,375,2116TR,Bentveld,Zandvoort,Noord-Holland,VBO,4.568010,52.365420
Bramenlaan,2,a,376,2116TR,Bentveld,Zandvoort,Noord-Holland,VBO,4.568040,52.365422
Bramenlaan,2,a,377,2116TR,Bentveld,Zandvoort,Noord-Holland,VBO,4.568087,52.365416
Bramenlaan,2,a,378,2116TR,Bentveld,Zandvoort,Noord-Holland,VBO,4.568125,52.365416
Bramenlaan,2,a,38,2116TR,Bentveld,Zandvoort,Noord-Holland,VBO,4.567885,52.365601
Bramenlaan,2,a,381,2116TR,Bentveld,Zandvoort,Noord-Holland,VBO,4.568229,52.365417
Bramenlaan,2,a,382,2116TR,Bentveld,Zandvoort,Noord-Holland,VBO,4.568259,52.365419
Bramenlaan,2,a,383,2116TR,Bentveld,Zandvoort,Noord-Holland,VBO,4.568292,52.365419
Bramenlaan,2,a,384,2116TR,Bentveld,Zandvoort,Noord-Holland,VBO,4.568322,52.365419
Bramenlaan,2,a,4,2116TR,Bentveld,Zandvoort,Noord-Holland,VBO,4.567700,52.365657
Bramenlaan,2,a,485,2116TR,Bentveld,Zandvoort,Noord-Holland,VBO,4.567863,52.365396
Bramenlaan,2,a,486,2116TR,Bentveld,Zandvoort,Noord-Holland,VBO,4.567907,52.365393
Bramenlaan,2,a,487,2116TR,Bentveld,Zandvoort,Noord-Holland,VBO,4.567939,52.365391
Bramenlaan,2,a,489,2116TR,Bentveld,Zandvoort,Noord-Holland,VBO,4.567981,52.365390
Bramenlaan,2,a,490,2116TR,Bentveld,Zandvoort,Noord-Holland,VBO,4.568019,52.365392
Bramenlaan,2,a,491,2116TR,Bentveld,Zandvoort,Noord-Holland,VBO,4.568049,52.365390
Bramenlaan,2,a,492,2116TR,Bentveld,Zandvoort,Noord-Holland,VBO,4.568084,52.365389
Bramenlaan,2,a,493,2116TR,Bentveld,Zandvoort,Noord-Holland,VBO,4.568115,52.365386
Bramenlaan,2,a,494,2116TR,Bentveld,Zandvoort,Noord-Holland,VBO,4.568232,52.365378
Bramenlaan,2,a,495,2116TR,Bentveld,Zandvoort,Noord-Holland,VBO,4.568268,52.365382
Bramenlaan,2,a,496,2116TR,Bentveld,Zandvoort,Noord-Holland,VBO,4.568306,52.365387
Bramenlaan,2,a,497,2116TR,Bentveld,Zandvoort,Noord-Holland,VBO,4.568344,52.365384
Bramenlaan,2,a,498,2116TR,Bentveld,Zandvoort,Noord-Holland,VBO,4.568385,52.365376
Bramenlaan,2,a,5,2116TR,Bentveld,Zandvoort,Noord-Holland,VBO,4.567739,52.365614
Bramenlaan,2,a,6,2116TR,Bentveld,Zandvoort,Noord-Holland,VBO,4.567766,52.365572
Bramenlaan,2,a,7,2116TR,Bentveld,Zandvoort,Noord-Holland,VBO,4.567772,52.365539
Bramenlaan,2,a,8,2116TR,Bentveld,Zandvoort,Noord-Holland,VBO,4.567708,52.365815
Bramenlaan,2,a,9,2116TR,Bentveld,Zandvoort,Noord-Holland,VBO,4.567727,52.365774
Bramenlaan,2,,,2116TR,Bentveld,Zandvoort,Noord-Holland,VBO,4.568501,52.365309
Bramenlaan,3,,,2116TR,Bentveld,Zandvoort,Noord-Holland,VBO,4.570230,52.365067
Bramenlaan,4,a,,2116TR,Bentveld,Zandvoort,Noord-Holland,VBO,4.567821,52.364133
Bramenlaan,4,b,,2116TR,Bentveld,Zandvoort,Noord-Holland,VBO,4.567787,52.364184
Bramenlaan,4,c,,2116TR,Bentveld,Zandvoort,Noord-Holland,VBO,4.567751,52.364239
Bramenlaan,4,d,,2116TR,Bentveld,Zandvoort,Noord-Holland,VBO,4.567916,52.364154
Bramenlaan,5,,,2116TR,Bentveld,Zandvoort,Noord-Holland,VBO,4.569571,52.364182
Bramenlaan,6,a,,2116TR,Bentveld,Zandvoort,Noord-Holland,VBO,4.567882,52.364205
Bramenlaan,6,c,,2116TR,Bentveld,Zandvoort,Noord-Holland,VBO,4.567846,52.364260
Bramenlaan,6,d,,2116TR,Bentveld,Zandvoort,Noord-Holland,VBO,4.567994,52.364174
Bramenlaan,7,,,2116TR,Bentveld,Zandvoort,Noord-Holland,VBO,4.569486,52.364001
Bramenlaan,8,a,,2116TR,Bentveld,Zandvoort,Noord-Holland,VBO,4.567960,52.364225
Bramenlaan,8,b,,2116TR,Bentveld,Zandvoort,Noord-Holland,VBO,4.567924,52.364281
Bramenlaan,9,,,2116TR,Bentveld,Zandvoort,Noord-Holland,VBO,4.569534,52.363786
Bramenlaan,10,,,2116TR,Bentveld,Zandvoort,Noord-Holland,VBO,4.568260,52.363633
Bramenlaan,11,,,2116TR,Bentveld,Zandvoort,Noord-Holland,VBO,4.569538,52.363597
Bramenlaan,12,,,2116TR,Bentveld,Zandvoort,Noord-Holland,VBO,4.568727,52.364002
Bramenlaan,14,,,2116TR,Bentveld,Zandvoort,Noord-Holland,VBO,4.569054,52.363540
Bramenlaan,102,,,2116TS,Bentveld,Zandvoort,Noord-Holland,VBO,4.568984,52.365068
Bramenlaan,104,,,2116TS,Bentveld,Zandvoort,Noord-Holland,VBO,4.569073,52.365050
Bramenlaan,106,,,2116TS,Bentveld,Zandvoort,Noord-Holland,VBO,4.568970,52.365041
Bramenlaan,108,,,2116TS,Bentveld,Zandvoort,Noord-Holland,VBO,4.569060,52.365022
Bramenlaan,110,,,2116TS,Bentveld,Zandvoort,Noord-Holland,VBO,4.568953,52.365009
Bramenlaan,112,,,2116TS,Bentveld,Zandvoort,Noord-Holland,VBO,4.569049,52.364989
Bramenlaan,114,,,2116TS,Bentveld,Zandvoort,Noord-Holland,VBO,4.568935,52.364976
Bramenlaan,116,,,2116TS,Bentveld,Zandvoort,Noord-Holland,VBO,4.569034,52.364955
Bramenlaan,118,,,2116TS,Bentveld,Zandvoort,Noord-Holland,VBO,4.568917,52.364935
Bramenlaan,120,,,2116TS,Bentveld,Zandvoort,Noord-Holland,VBO,4.569013,52.364912
Bramenlaan,122,,,2116TS,Bentveld,Zandvoort,Noord-Holland,VBO,4.568887,52.364881
Bramenlaan,124,,,2116TS,Bentveld,Zandvoort,Noord-Holland,VBO,4.568975,52.364861
Bramenlaan,126,,,2116TS,Bentveld,Zandvoort,Noord-Holland,VBO,4.568861,52.364826
Bramenlaan,128,,,2116TS,Bentveld,Zandvoort,Noord-Holland,VBO,4.568955,52.364807
Bramenlaan,130,,,2116TS,Bentveld,Zandvoort,Noord-Holland,VBO,4.568835,52.364767
Bramenlaan,132,,,2116TS,Bentveld,Zandvoort,Noord-Holland,VBO,4.568931,52.364743
Bramenlaan,134,,,2116TS,Bentveld,Zandvoort,Noord-Holland,VBO,4.568815,52.364731
Bramenlaan,136,,,2116TS,Bentveld,Zandvoort,Noord-Holland,VBO,4.568906,52.364710
Bramenlaan,138,,,2116TT,Bentveld,Zandvoort,Noord-Holland,VBO,4.568723,52.364702
Bramenlaan,140,,,2116TT,Bentveld,Zandvoort,Noord-Holland,VBO,4.568748,52.364630
Bramenlaan,142,,,2116TT,Bentveld,Zandvoort,Noord-Holland,VBO,4.568628,52.364689
Bramenlaan,144,,,2116TT,Bentveld,Zandvoort,Noord-Holland,VBO,4.568650,52.364621
Bramenlaan,146,,,2116TT,Bentveld,Zandvoort,Noord-Holland,VBO,4.568546,52.364679
Bramenlaan,148,,,2116TT,Bentveld,Zandvoort,Noord-Holland,VBO,4.568571,52.364611
Bramenlaan,150,,,2116TT,Bentveld,Zandvoort,Noord-Holland,VBO,4.568458,52.364667
Bramenlaan,152,,,2116TT,Bentveld,Zandvoort,Noord-Holland,VBO,4.568482,52.364601
Bramenlaan,154,,,2116TT,Bentveld,Zandvoort,Noord-Holland,VBO,4.568374,52.364654
Bramenlaan,156,,,2116TT,Bentveld,Zandvoort,Noord-Holland,VBO,4.568401,52.364589
Bramenlaan,158,,,2116TT,Bentveld,Zandvoort,Noord-Holland,VBO,4.568307,52.364646
Bramenlaan,160,,,2116TT,Bentveld,Zandvoort,Noord-Holland,VBO,4.568325,52.364582
Bramenlaan,162,,,2116TT,Bentveld,Zandvoort,Noord-Holland,VBO,4.568166,52.364623
Bramenlaan,164,,,2116TT,Bentveld,Zandvoort,Noord-Holland,VBO,4.568084,52.364692
Bramenlaan,166,,,2116TT,Bentveld,Zandvoort,Noord-Holland,VBO,4.568213,52.364662
Bramenlaan,168,,,2116TT,Bentveld,Zandvoort,Noord-Holland,VBO,4.568148,52.364717
Bramenlaan,170,,,2116TT,Bentveld,Zandvoort,Noord-Holland,VBO,4.567970,52.364840
Bramenlaan,172,,,2116TT,Bentveld,Zandvoort,Noord-Holland,VBO,4.567937,52.365066
Bramenlaan,174,,,2116TV,Bentveld,Zandvoort,Noord-Holland,VBO,4.567256,52.365377
Bramenlaan,176,,,2116TV,Bentveld,Zandvoort,Noord-Holland,VBO,4.567244,52.365336
Bramenlaan,178,,,2116TV,Bentveld,Zandvoort,Noord-Holland,VBO,4.567237,52.365301
Bramenlaan,180,,,2116TV,Bentveld,Zandvoort,Noord-Holland,VBO,4.567392,52.365339
Bramenlaan,182,,,2116TV,Bentveld,Zandvoort,Noord-Holland,VBO,4.567374,52.365287
Bramenlaan,184,,,2116TV,Bentveld,Zandvoort,Noord-Holland,VBO,4.567506,52.365326
Bramenlaan,186,,,2116TV,Bentveld,Zandvoort,Noord-Holland,VBO,4.567495,52.365272
Bramenlaan,188,,,2116TV,Bentveld,Zandvoort,Noord-Holland,VBO,4.567631,52.365307
Bramenlaan,190,,,2116TV,Bentveld,Zandvoort,Noord-Holland,VBO,4.567623,52.365257
Bramenlaan,192,,,2116TV,Bentveld,Zandvoort,Noord-Holland,VBO,4.567772,52.365288
Bramenlaan,194,,,2116TV,Bentveld,Zandvoort,Noord-Holland,VBO,4.567759,52.365250
Bramenlaan,196,,,2116TV,Bentveld,Zandvoort,Noord-Holland,VBO,4.567890,52.365258
Bramenlaan,198,,,2116TV,Bentveld,Zandvoort,Noord-Holland,VBO,4.567701,52.365364
Bramenlaan,200,,,2116TV,Bentveld,Zandvoort,Noord-Holland,VBO,4.567711,52.365406
Bramenlaan,202,,,2116TV,Bentveld,Zandvoort,Noord-Holland,VBO,4.567732,52.365449
Bramenlaan,204,,,2116TV,Bentveld,Zandvoort,Noord-Holland,VBO,4.567742,52.365498
Bramenlaan,302,,,2116TV,Bentveld,Zandvoort,Noord-Holland,VBO,4.568943,52.365603
Bramenlaan,304,,,2116TV,Bentveld,Zandvoort,Noord-Holland,VBO,4.568998,52.365575
Bramenlaan,306,,,2116TV,Bentveld,Zandvoort,Noord-Holland,VBO,4.569008,52.365550
Bramenlaan,308,,,2116TV,Bentveld,Zandvoort,Noord-Holland,VBO,4.568996,52.365513
Bramenlaan,310,,,2116TV,Bentveld,Zandvoort,Noord-Holland,VBO,4.569014,52.365482
Bramenlaan,312,,,2116TV,Bentveld,Zandvoort,Noord-Holland,VBO,4.569037,52.365446
Bramenlaan,314,,,2116TV,Bentveld,Zandvoort,Noord-Holland,VBO,4.569097,52.365624
Bramenlaan,316,,,2116TV,Bentveld,Zandvoort,Noord-Holland,VBO,4.569112,52.365598
Bramenlaan,318,,,2116TV,Bentveld,Zandvoort,Noord-Holland,VBO,4.569127,52.365571
Bramenlaan,320,,,2116TV,Bentveld,Zandvoort,Noord-Holland,VBO,4.569143,52.365545
Bramenlaan,322,,,2116TV,Bentveld,Zandvoort,Noord-Holland,VBO,4.569159,52.365517
Bramenlaan,324,,,2116TV,Bentveld,Zandvoort,Noord-Holland,VBO,4.569170,52.365491
Bramenlaan,326,,,2116TV,Bentveld,Zandvoort,Noord-Holland,VBO,4.569251,52.365658
Bramenlaan,328,,,2116TV,Bentveld,Zandvoort,Noord-Holland,VBO,4.569271,52.365631
Bramenlaan,330,,,2116TV,Bentveld,Zandvoort,Noord-Holland,VBO,4.569287,52.365603
Bramenlaan,332,,,2116TV,Bentveld,Zandvoort,Noord-Holland,VBO,4.569299,52.365575
Bramenlaan,334,,,2116TV,Bentveld,Zandvoort,Noord-Holland,VBO,4.569315,52.365549
Bramenlaan,336,,,2116TV,Bentveld,Zandvoort,Noord-Holland,VBO,4.569332,52.365525
Bramenlaan,338,,,2116TV,Bentveld,Zandvoort,Noord-Holland,VBO,4.568338,52.365784
Bramenlaan,340,,,2116TV,Bentveld,Zandvoort,Noord-Holland,VBO,4.568359,52.365743
Bramenlaan,342,,,2116TV,Bentveld,Zandvoort,Noord-Holland,VBO,4.568385,52.365702
Bramenlaan,344,,,2116TV,Bentveld,Zandvoort,Noord-Holland,VBO,4.568503,52.365813
Bramenlaan,346,,,2116TV,Bentveld,Zandvoort,Noord-Holland,VBO,4.568528,52.365781
Bramenlaan,348,,,2116TV,Bentveld,Zandvoort,Noord-Holland,VBO,4.568559,52.365741
Bramenlaan,350,,,2116TV,Bentveld,Zandvoort,Noord-Holland,VBO,4.568650,52.365842
Bramenlaan,352,,,2116TV,Bentveld,Zandvoort,Noord-Holland,VBO,4.568679,52.365806
Bramenlaan,354,,,2116TV,Bentveld,Zandvoort,Noord-Holland,VBO,4.568704,52.365766
Bramenlaan,356,,,2116TV,Bentveld,Zandvoort,Noord-Holland,VBO,4.568495,52.365645
Bramenlaan,358,,,2116TV,Bentveld,Zandvoort,Noord-Holland,VBO,4.568523,52.365610
Bramenlaan,360,,,2116TV,Bentveld,Zandvoort,Noord-Holland,VBO,4.568600,52.365668
Bramenlaan,362,,,2116TV,Bentveld,Zandvoort,Noord-Holland,VBO,4.568620,52.365629
Bramenlaan,364,,,2116TV,Bentveld,Zandvoort,Noord-Holland,VBO,4.568704,52.365668
Taxuslaan,2,,,2116TW,Bentveld,Zandvoort,Noord-Holland,VBO,4.574967,52.362960
Taxuslaan,4,,,2116TW,Bentveld,Zandvoort,Noord-Holland,VBO,4.574733,52.362914
Taxuslaan,6,,,2116TW,Bentveld,Zandvoort,Noord-Holland,VBO,4.574470,52.362858
Taxuslaan,8,,,2116TW,Bentveld,Zandvoort,Noord-Holland,VBO,4.574206,52.362820
Taxuslaan,10,,,2116TW,Bentveld,Zandvoort,Noord-Holland,VBO,4.573972,52.362747
Taxuslaan,12,,,2116TW,Bentveld,Zandvoort,Noord-Holland,VBO,4.573695,52.362691
Duindoornhof,1,,,2116TZ,Bentveld,Zandvoort,Noord-Holland,VBO,4.575785,52.364782
Duindoornhof,2,,,2116TZ,Bentveld,Zandvoort,Noord-Holland,VBO,4.575591,52.364978
Duindoornhof,3,,,2116TZ,Bentveld,Zandvoort,Noord-Holland,VBO,4.575402,52.364878
Duindoornhof,4,,,2116TZ,Bentveld,Zandvoort,Noord-Holland,VBO,4.575316,52.364760
Duindoornhof,5,,,2116TZ,Bentveld,Zandvoort,Noord-Holland,VBO,4.575539,52.364609
Saxenrodeweg,12,,,2116VA,Bentveld,Zandvoort,Noord-Holland,VBO,4.571032,52.367473
Saxenrodeweg,14,,,2116VA,Bentveld,Zandvoort,Noord-Holland,VBO,4.571071,52.367489
Saxenrodeweg,16,,,2116VA,Bentveld,Zandvoort,Noord-Holland,VBO,4.571103,52.367498
Saxenrodeweg,18,,,2116VA,Bentveld,Zandvoort,Noord-Holland,VBO,4.571140,52.367515
Saxenrodeweg,20,,,2116VA,Bentveld,Zandvoort,Noord-Holland,VBO,4.571079,52.367420
Saxenrodeweg,22,,,2116VA,Bentveld,Zandvoort,Noord-Holland,VBO,4.571125,52.367437
Saxenrodeweg,24,,,2116VA,Bentveld,Zandvoort,Noord-Holland,VBO,4.571167,52.367448
Saxenrodeweg,26,,,2116VA,Bentveld,Zandvoort,Noord-Holland,VBO,4.571203,52.367461
Saxenrodeweg,28,,,2116VA,Bentveld,Zandvoort,Noord-Holland,VBO,4.571135,52.367356
Saxenrodeweg,30,,,2116VA,Bentveld,Zandvoort,Noord-Holland,VBO,4.571181,52.367373
Saxenrodeweg,32,,,2116VB,Bentveld,Zandvoort,Noord-Holland,VBO,4.571222,52.367387
Saxenrodeweg,34,,,2116VB,Bentveld,Zandvoort,Noord-Holland,VBO,4.571262,52.367397
Saxenrodeweg,36,,,2116VB,Bentveld,Zandvoort,Noord-Holland,VBO,4.571219,52.367277
Saxenrodeweg,38,,,2116VB,Bentveld,Zandvoort,Noord-Holland,VBO,4.571260,52.367289
Saxenrodeweg,40,,,2116VB,Bentveld,Zandvoort,Noord-Holland,VBO,4.571304,52.367304
Saxenrodeweg,42,,,2116VB,Bentveld,Zandvoort,Noord-Holland,VBO,4.571341,52.367318
Saxenrodeweg,46,,,2116VB,Bentveld,Zandvoort,Noord-Holland,VBO,4.571338,52.367207
Saxenrodeweg,48,,,2116VB,Bentveld,Zandvoort,Noord-Holland,VBO,4.571384,52.367220
Saxenrodeweg,50,,,2116VB,Bentveld,Zandvoort,Noord-Holland,VBO,4.571420,52.367233
Saxenrodeweg,52,,,2116VC,Bentveld,Zandvoort,Noord-Holland,VBO,4.571654,52.367151
Saxenrodeweg,54,,,2116VC,Bentveld,Zandvoort,Noord-Holland,VBO,4.571701,52.367166
Saxenrodeweg,56,,,2116VC,Bentveld,Zandvoort,Noord-Holland,VBO,4.571741,52.367180
Saxenrodeweg,58,,,2116VC,Bentveld,Zandvoort,Noord-Holland,VBO,4.571777,52.367190
Saxenrodeweg,60,,,2116VC,Bentveld,Zandvoort,Noord-Holland,VBO,4.571709,52.367093
Saxenrodeweg,62,,,2116VC,Bentveld,Zandvoort,Noord-Holland,VBO,4.571750,52.367109
Saxenrodeweg,64,,,2116VC,Bentveld,Zandvoort,Noord-Holland,VBO,4.571785,52.367128
Saxenrodeweg,66,,,2116VC,Bentveld,Zandvoort,Noord-Holland,VBO,4.571816,52.367138
Saxenrodeweg,68,,,2116VC,Bentveld,Zandvoort,Noord-Holland,VBO,4.571745,52.367047
Saxenrodeweg,70,,,2116VC,Bentveld,Zandvoort,Noord-Holland,VBO,4.571785,52.367063
Saxenrodeweg,72,,,2116VC,Bentveld,Zandvoort,Noord-Holland,VBO,4.571823,52.367079
Saxenrodeweg,74,,,2116VC,Bentveld,Zandvoort,Noord-Holland,VBO,4.571857,52.367092
Saxenrodeweg,76,,,2116VC,Bentveld,Zandvoort,Noord-Holland,VBO,4.571786,52.367006
Saxenrodeweg,78,,,2116VC,Bentveld,Zandvoort,Noord-Holland,VBO,4.571831,52.367025
Saxenrodeweg,80,,,2116VC,Bentveld,Zandvoort,Noord-Holland,VBO,4.571865,52.367036
Saxenrodeweg,82,,,2116VD,Bentveld,Zandvoort,Noord-Holland,VBO,4.571901,52.367051
Saxenrodeweg,84,,,2116VD,Bentveld,Zandvoort,Noord-Holland,VBO,4.571828,52.366965
Saxenrodeweg,86,,,2116VD,Bentveld,Zandvoort,Noord-Holland,VBO,4.571867,52.366981
Saxenrodeweg,88,,,2116VD,Bentveld,Zandvoort,Noord-Holland,VBO,4.571907,52.366998
Saxenrodeweg,90,,,2116VD,Bentveld,Zandvoort,Noord-Holland,VBO,4.571947,52.367011
Saxenrodeweg,92,,,2116VD,Bentveld,Zandvoort,Noord-Holland,VBO,4.571868,52.366928
Saxenrodeweg,94,,,2116VD,Bentveld,Zandvoort,Noord-Holland,VBO,4.571914,52.366943
Saxenrodeweg,96,,,2116VD,Bentveld,Zandvoort,Noord-Holland,VBO,4.571958,52.366960
Saxenrodeweg,98,,,2116VD,Bentveld,Zandvoort,Noord-Holland,VBO,4.571993,52.366972
Saxenrodeweg,100,,,2116VD,Bentveld,Zandvoort,Noord-Holland,VBO,4.571968,52.366899
Saxenrodeweg,102,,,2116VE,Bentveld,Zandvoort,Noord-Holland,VBO,4.572167,52.366423
Saxenrodeweg,104,,,2116VE,Bentveld,Zandvoort,Noord-Holland,VBO,4.572234,52.366415
Saxenrodeweg,106,,,2116VE,Bentveld,Zandvoort,Noord-Holland,VBO,4.572298,52.366410
Saxenrodeweg,108,,,2116VE,Bentveld,Zandvoort,Noord-Holland,VBO,4.572190,52.366493
Saxenrodeweg,110,,,2116VE,Bentveld,Zandvoort,Noord-Holland,VBO,4.572249,52.366486
Saxenrodeweg,112,,,2116VE,Bentveld,Zandvoort,Noord-Holland,VBO,4.572308,52.366484
Saxenrodeweg,114,,,2116VE,Bentveld,Zandvoort,Noord-Holland,VBO,4.572210,52.366564
Saxenrodeweg,116,,,2116VE,Bentveld,Zandvoort,Noord-Holland,VBO,4.572273,52.366557
Saxenrodeweg,118,,,2116VE,Bentveld,Zandvoort,Noord-Holland,VBO,4.572335,52.366552
Saxenrodeweg,120,,,2116VE,Bentveld,Zandvoort,Noord-Holland,VBO,4.572231,52.366636
Saxenrodeweg,122,,,2116VE,Bentveld,Zandvoort,Noord-Holland,VBO,4.572298,52.366630
Saxenrodeweg,124,,,2116VE,Bentveld,Zandvoort,Noord-Holland,VBO,4.572356,52.366623
Saxenrodeweg,126,,,2116VE,Bentveld,Zandvoort,Noord-Holland,VBO,4.572259,52.366710
Saxenrodeweg,128,,,2116VE,Bentveld,Zandvoort,Noord-Holland,VBO,4.572321,52.366704
Saxenrodeweg,130,,,2116VE,Bentveld,Zandvoort,Noord-Holland,VBO,4.572380,52.366698
Westerduinweg,11,,,2116VG,Bentveld,Zandvoort,Noord-Holland,VBO,4.573934,52.369622
Westerduinweg,13,,,2116VG,Bentveld,Zandvoort,Noord-Holland,VBO,4.570192,52.366352
Westerduinweg,10,,,2116VH,Bentveld,Zandvoort,Noord-Holland,VBO,4.578548,52.370019
Westerduinweg,12,,,2116VH,Bentveld,Zandvoort,Noord-Holland,VBO,4.578077,52.369368
Westerduinweg,14,,,2116VH,Bentveld,Zandvoort,Noord-Holland,VBO,4.577643,52.369989
Westerduinweg,16,,,2116VH,Bentveld,Zandvoort,Noord-Holland,VBO,4.576897,52.369840
Westerduinweg,18,,,2116VH,Bentveld,Zandvoort,Noord-Holland,VBO,4.577133,52.368943
Westerduinweg,20,,,2116VH,Bentveld,Zandvoort,Noord-Holland,VBO,4.576360,52.369459
Westerduinweg,22,,,2116VH,Bentveld,Zandvoort,Noord-Holland,VBO,4.575778,52.369177
Westerduinweg,24,,,2116VH,Bentveld,Zandvoort,Noord-Holland,VBO,4.575092,52.369312
Westerduinweg,26,,,2116VH,Bentveld,Zandvoort,Noord-Holland,VBO,4.574491,52.368880
Westerduinweg,28,,,2116VH,Bentveld,Zandvoort,Noord-Holland,VBO,4.573700,52.368785
Westerduinweg,30,,,2116VH,Bentveld,Zandvoort,Noord-Holland,VBO,4.573250,52.368521
Westerduinweg,32,,,2116VH,Bentveld,Zandvoort,Noord-Holland,VBO,4.572829,52.368231
Westerduinweg,34,,,2116VH,Bentveld,Zandvoort,Noord-Holland,VBO,4.573792,52.367761
Westerduinweg,36,,,2116VH,Bentveld,Zandvoort,Noord-Holland,VBO,4.573093,52.367459
Westerduinweg,38,,,2116VH,Bentveld,Zandvoort,Noord-Holland,VBO,4.572397,52.367769
Westerduinweg,40,,,2116VH,Bentveld,Zandvoort,Noord-Holland,VBO,4.571733,52.367980
Westerduinweg,42,,,2116VH,Bentveld,Zandvoort,Noord-Holland,VBO,4.570736,52.366284
Saxenrodeweg,101,,,2116VJ,Bentveld,Zandvoort,Noord-Holland,VBO,4.574001,52.366383
