openbareruimtenaam,huisnummer,huisletter,huisnummertoevoeging,postcode,woonplaatsnaam,gemeentenaam,provincienaam,typeadresseerbaarobject,longitude,latitude
Zeilmakerstraat,1,,,2222AA,Katwijk,Katwijk,Zuid-Holland,VBO,4.425834,52.201212
Zeilmakerstraat,2,A,,2222AA,Katwijk,Katwijk,Zuid-Holland,VBO,4.427271,52.202251
Zeilmakerstraat,2,B,,2222AA,Katwijk,Katwijk,Zuid-Holland,VBO,4.427333,52.202309
Zeilmakerstraat,2,C,,2222AA,Katwijk,Katwijk,Zuid-Holland,VBO,4.427437,52.202349
Zeilmakerstraat,2,D,,2222AA,Katwijk,Katwijk,Zuid-Holland,VBO,4.427519,52.202395
Zeilmakerstraat,2,E,,2222AA,Katwijk,Katwijk,Zuid-Holland,VBO,4.427698,52.202465
Zeilmakerstraat,2,F,,2222AA,Katwijk,Katwijk,Zuid-Holland,VBO,4.427260,52.202235
Zeilmakerstraat,2,G,,2222AA,Katwijk,Katwijk,Zuid-Holland,VBO,4.427542,52.202399
Zeilmakerstraat,2,H,,2222AA,Katwijk,Katwijk,Zuid-Holland,VBO,4.427554,52.202562
Zeilmakerstraat,2,T,,2222AA,Katwijk,Katwijk,Zuid-Holland,VBO,4.427668,52.202532
Zeilmakerstraat,2,,,2222AA,Katwijk,Katwijk,Zuid-Holland,VBO,4.427422,52.202395
Scheepmakerstraat,1,A,1,2222AB,Katwijk,Katwijk,Zuid-Holland,VBO,4.427354,52.201400
Scheepmakerstraat,1,A,10,2222AB,Katwijk,Katwijk,Zuid-Holland,VBO,4.426860,52.201086
Scheepmakerstraat,1,A,2,2222AB,Katwijk,Katwijk,Zuid-Holland,VBO,4.427300,52.201367
Scheepmakerstraat,1,A,3,2222AB,Katwijk,Katwijk,Zuid-Holland,VBO,4.427251,52.201337
Scheepmakerstraat,1,A,4,2222AB,Katwijk,Katwijk,Zuid-Holland,VBO,4.427194,52.201302
Scheepmakerstraat,1,A,5,2222AB,Katwijk,Katwijk,Zuid-Holland,VBO,4.427142,52.201266
Scheepmakerstraat,1,A,6,2222AB,Katwijk,Katwijk,Zuid-Holland,VBO,4.427091,52.201233
Scheepmakerstraat,1,A,7,2222AB,Katwijk,Katwijk,Zuid-Holland,VBO,4.427036,52.201197
Scheepmakerstraat,1,A,8,2222AB,Katwijk,Katwijk,Zuid-Holland,VBO,4.426979,52.201163
Scheepmakerstraat,1,A,9,2222AB,Katwijk,Katwijk,Zuid-Holland,VBO,4.426918,52.201121
Scheepmakerstraat,1,B,1,2222AB,Katwijk,Katwijk,Zuid-Holland,VBO,4.426732,52.200977
Scheepmakerstraat,1,B,2,2222AB,Katwijk,Katwijk,Zuid-Holland,VBO,4.426796,52.200939
Scheepmakerstraat,1,B,3,2222AB,Katwijk,Katwijk,Zuid-Holland,VBO,4.426852,52.200907
Scheepmakerstraat,1,B,4,2222AB,Katwijk,Katwijk,Zuid-Holland,VBO,4.426913,52.200870
Scheepmakerstraat,1,B,5,2222AB,Katwijk,Katwijk,Zuid-Holland,VBO,4.426972,52.200833
Scheepmakerstraat,1,B,6,2222AB,Katwijk,Katwijk,Zuid-Holland,VBO,4.427031,52.200793
Scheepmakerstraat,1,B,7,2222AB,Katwijk,Katwijk,Zuid-Holland,VBO,4.427090,52.200758
Scheepmakerstraat,1,B,8,2222AB,Katwijk,Katwijk,Zuid-Holland,VBO,4.427145,52.200720
Scheepmakerstraat,1,B,9,2222AB,Katwijk,Katwijk,Zuid-Holland,VBO,4.427203,52.200683
Scheepmakerstraat,1,C,1,2222AB,Katwijk,Katwijk,Zuid-Holland,VBO,4.426663,52.200941
Scheepmakerstraat,1,C,2,2222AB,Katwijk,Katwijk,Zuid-Holland,VBO,4.426728,52.200905
Scheepmakerstraat,1,C,3,2222AB,Katwijk,Katwijk,Zuid-Holland,VBO,4.426788,52.200864
Scheepmakerstraat,1,C,4,2222AB,Katwijk,Katwijk,Zuid-Holland,VBO,4.426841,52.200827
Scheepmakerstraat,1,C,5,2222AB,Katwijk,Katwijk,Zuid-Holland,VBO,4.426906,52.200792
Scheepmakerstraat,1,C,6,2222AB,Katwijk,Katwijk,Zuid-Holland,VBO,4.426965,52.200752
Scheepmakerstraat,1,C,7,2222AB,Katwijk,Katwijk,Zuid-Holland,VBO,4.427024,52.200719
Scheepmakerstraat,1,C,8,2222AB,Katwijk,Katwijk,Zuid-Holland,VBO,4.427084,52.200674
Scheepmakerstraat,1,C,9,2222AB,Katwijk,Katwijk,Zuid-Holland,VBO,4.427149,52.200641
Scheepmakerstraat,1,D,1,2222AB,Katwijk,Katwijk,Zuid-Holland,VBO,4.426503,52.200842
Scheepmakerstraat,1,D,2,2222AB,Katwijk,Katwijk,Zuid-Holland,VBO,4.426567,52.200806
Scheepmakerstraat,1,D,3,2222AB,Katwijk,Katwijk,Zuid-Holland,VBO,4.426622,52.200769
Scheepmakerstraat,1,D,4,2222AB,Katwijk,Katwijk,Zuid-Holland,VBO,4.426678,52.200733
Scheepmakerstraat,1,D,5,2222AB,Katwijk,Katwijk,Zuid-Holland,VBO,4.426743,52.200692
Scheepmakerstraat,1,D,6,2222AB,Katwijk,Katwijk,Zuid-Holland,VBO,4.426802,52.200654
Scheepmakerstraat,1,D,7,2222AB,Katwijk,Katwijk,Zuid-Holland,VBO,4.426861,52.200617
Scheepmakerstraat,1,D,8,2222AB,Katwijk,Katwijk,Zuid-Holland,VBO,4.426924,52.200577
Scheepmakerstraat,1,D,9,2222AB,Katwijk,Katwijk,Zuid-Holland,VBO,4.426982,52.200541
Scheepmakerstraat,1,E,1,2222AB,Katwijk,Katwijk,Zuid-Holland,VBO,4.426434,52.200804
Scheepmakerstraat,1,E,2,2222AB,Katwijk,Katwijk,Zuid-Holland,VBO,4.426500,52.200764
Scheepmakerstraat,1,E,3,2222AB,Katwijk,Katwijk,Zuid-Holland,VBO,4.426553,52.200728
Scheepmakerstraat,1,E,4,2222AB,Katwijk,Katwijk,Zuid-Holland,VBO,4.426612,52.200689
Scheepmakerstraat,1,E,5,2222AB,Katwijk,Katwijk,Zuid-Holland,VBO,4.426680,52.200649
Scheepmakerstraat,1,E,6,2222AB,Katwijk,Katwijk,Zuid-Holland,VBO,4.426741,52.200613
Scheepmakerstraat,1,E,7,2222AB,Katwijk,Katwijk,Zuid-Holland,VBO,4.426794,52.200577
Scheepmakerstraat,1,E,8,2222AB,Katwijk,Katwijk,Zuid-Holland,VBO,4.426864,52.200536
Scheepmakerstraat,1,E,9,2222AB,Katwijk,Katwijk,Zuid-Holland,VBO,4.426914,52.200503
Scheepmakerstraat,3,A,,2222AB,Katwijk,Katwijk,Zuid-Holland,VBO,4.427635,52.201246
Scheepmakerstraat,3,B,,2222AB,Katwijk,Katwijk,Zuid-Holland,VBO,4.427683,52.201207
Scheepmakerstraat,3,C,,2222AB,Katwijk,Katwijk,Zuid-Holland,VBO,4.427746,52.201169
Scheepmakerstraat,3,E,,2222AB,Katwijk,Katwijk,Zuid-Holland,VBO,4.427759,52.201108
Scheepmakerstraat,3,F,,2222AB,Katwijk,Katwijk,Zuid-Holland,VBO,4.427683,52.201074
Scheepmakerstraat,3,G,,2222AB,Katwijk,Katwijk,Zuid-Holland,VBO,4.427633,52.201045
Scheepmakerstraat,3,H,,2222AB,Katwijk,Katwijk,Zuid-Holland,VBO,4.427580,52.201012
Scheepmakerstraat,3,K,,2222AB,Katwijk,Katwijk,Zuid-Holland,VBO,4.427522,52.200974
Scheepmakerstraat,3,L,,2222AB,Katwijk,Katwijk,Zuid-Holland,VBO,4.427453,52.200784
Scheepmakerstraat,3,M,,2222AB,Katwijk,Katwijk,Zuid-Holland,VBO,4.427389,52.200819
Scheepmakerstraat,3,N,,2222AB,Katwijk,Katwijk,Zuid-Holland,VBO,4.427325,52.200860
Scheepmakerstraat,3,P,,2222AB,Katwijk,Katwijk,Zuid-Holland,VBO,4.427263,52.200893
Scheepmakerstraat,3,Q,,2222AB,Katwijk,Katwijk,Zuid-Holland,VBO,4.427198,52.200943
Scheepmakerstraat,3,R,,2222AB,Katwijk,Katwijk,Zuid-Holland,VBO,4.427128,52.200986
Scheepmakerstraat,3,S,,2222AB,Katwijk,Katwijk,Zuid-Holland,VBO,4.427063,52.201027
Scheepmakerstraat,3,T,,2222AB,Katwijk,Katwijk,Zuid-Holland,VBO,4.427004,52.201063
Scheepmakerstraat,3,U,,2222AB,Katwijk,Katwijk,Zuid-Holland,VBO,4.427304,52.201105
Scheepmakerstraat,3,V,,2222AB,Katwijk,Katwijk,Zuid-Holland,VBO,4.427363,52.201139
Scheepmakerstraat,3,W,,2222AB,Katwijk,Katwijk,Zuid-Holland,VBO,4.427423,52.201174
Scheepmakerstraat,3,X,,2222AB,Katwijk,Katwijk,Zuid-Holland,VBO,4.427474,52.201207
Scheepmakerstraat,3,,,2222AB,Katwijk,Katwijk,Zuid-Holland,VBO,4.427567,52.201278
Scheepmakerstraat,5,A,,2222AB,Katwijk,Katwijk,Zuid-Holland,VBO,4.428173,52.200837
Scheepmakerstraat,5,B,,2222AB,Katwijk,Katwijk,Zuid-Holland,VBO,4.428216,52.200864
Scheepmakerstraat,5,C,,2222AB,Katwijk,Katwijk,Zuid-Holland,VBO,4.427750,52.200789
Scheepmakerstraat,5,D,,2222AB,Katwijk,Katwijk,Zuid-Holland,VBO,4.427880,52.200871
Scheepmakerstraat,5,E,,2222AB,Katwijk,Katwijk,Zuid-Holland,VBO,4.427592,52.200635
Scheepmakerstraat,5,F,,2222AB,Katwijk,Katwijk,Zuid-Holland,VBO,4.427506,52.200571
Scheepmakerstraat,5,G,,2222AB,Katwijk,Katwijk,Zuid-Holland,VBO,4.427259,52.200488
Scheepmakerstraat,5,,,2222AB,Katwijk,Katwijk,Zuid-Holland,VBO,4.428053,52.200971
Scheepmakerstraat,7,,,2222AB,Katwijk,Katwijk,Zuid-Holland,VBO,4.427831,52.200403
Scheepmakerstraat,9,,,2222AB,Katwijk,Katwijk,Zuid-Holland,VBO,4.428810,52.200474
Scheepmakerstraat,13,,,2222AB,Katwijk,Katwijk,Zuid-Holland,VBO,4.429893,52.199764
Scheepmakerstraat,21,,,2222AB,Katwijk,Katwijk,Zuid-Holland,VBO,4.430992,52.198963
Scheepmakerstraat,23,,,2222AB,Katwijk,Katwijk,Zuid-Holland,VBO,4.431364,52.198688
Scheepmakerstraat,25,,,2222AB,Katwijk,Katwijk,Zuid-Holland,VBO,4.431513,52.198581
Scheepmakerstraat,27,,,2222AB,Katwijk,Katwijk,Zuid-Holland,VBO,4.432262,52.198407
Scheepmakerstraat,29,,,2222AB,Katwijk,Katwijk,Zuid-Holland,VBO,4.432465,52.198526
Scheepmakerstraat,31,,,2222AB,Katwijk,Katwijk,Zuid-Holland,VBO,4.432697,52.198600
Scheepmakerstraat,33,,,2222AB,Katwijk,Katwijk,Zuid-Holland,VBO,4.432812,52.198709
Scheepmakerstraat,35,,,2222AB,Katwijk,Katwijk,Zuid-Holland,VBO,4.432899,52.198754
Scheepmakerstraat,37,,,2222AB,Katwijk,Katwijk,Zuid-Holland,VBO,4.432985,52.198800
Scheepmakerstraat,39,,,2222AB,Katwijk,Katwijk,Zuid-Holland,VBO,4.433104,52.198729
Scheepmakerstraat,41,,,2222AB,Katwijk,Katwijk,Zuid-Holland,VBO,4.433222,52.198658
Scheepmakerstraat,43,,,2222AB,Katwijk,Katwijk,Zuid-Holland,VBO,4.433297,52.198587
Scheepmakerstraat,45,,,2222AB,Katwijk,Katwijk,Zuid-Holland,VBO,4.433386,52.198515
Scheepmakerstraat,47,,,2222AB,Katwijk,Katwijk,Zuid-Holland,VBO,4.433490,52.198444
Scheepmakerstraat,49,,,2222AB,Katwijk,Katwijk,Zuid-Holland,VBO,4.433579,52.198382
Scheepmakerstraat,51,,,2222AB,Katwijk,Katwijk,Zuid-Holland,VBO,4.433683,52.198311
Scheepmakerstraat,59,A,,2222AB,Katwijk,Katwijk,Zuid-Holland,VBO,4.433857,52.199068
Scheepmakerstraat,59,B,,2222AB,Katwijk,Katwijk,Zuid-Holland,VBO,4.433828,52.199049
Scheepmakerstraat,59,C,,2222AB,Katwijk,Katwijk,Zuid-Holland,VBO,4.433799,52.199067
Scheepmakerstraat,59,E,,2222AB,Katwijk,Katwijk,Zuid-Holland,VBO,4.433857,52.199086
Scheepmakerstraat,59,,,2222AB,Katwijk,Katwijk,Zuid-Holland,VBO,4.433828,52.199085
Scheepmakerstraat,61,B,,2222AB,Katwijk,Katwijk,Zuid-Holland,VBO,4.433829,52.199040
Scheepmakerstraat,61,C,,2222AB,Katwijk,Katwijk,Zuid-Holland,VBO,4.433799,52.199049
Scheepmakerstraat,61,F,,2222AB,Katwijk,Katwijk,Zuid-Holland,VBO,4.433827,52.199112
Scheepmakerstraat,61,,,2222AB,Katwijk,Katwijk,Zuid-Holland,VBO,4.433872,52.199068
Scheepmakerstraat,63,,,2222AB,Katwijk,Katwijk,Zuid-Holland,VBO,4.433680,52.199156
Scheepmakerstraat,2,,,2222AC,Katwijk,Katwijk,Zuid-Holland,VBO,4.427615,52.201624
Scheepmakerstraat,6,B,,2222AC,Katwijk,Katwijk,Zuid-Holland,VBO,4.428246,52.201219
Scheepmakerstraat,6,D,,2222AC,Katwijk,Katwijk,Zuid-Holland,VBO,4.428333,52.201285
Scheepmakerstraat,6,,,2222AC,Katwijk,Katwijk,Zuid-Holland,VBO,4.428171,52.201264
Scheepmakerstraat,8,A,,2222AC,Katwijk,Katwijk,Zuid-Holland,VBO,4.428428,52.201112
Scheepmakerstraat,8,B,,2222AC,Katwijk,Katwijk,Zuid-Holland,VBO,4.428481,52.201079
Scheepmakerstraat,8,C,,2222AC,Katwijk,Katwijk,Zuid-Holland,VBO,4.428536,52.201046
Scheepmakerstraat,8,D,,2222AC,Katwijk,Katwijk,Zuid-Holland,VBO,4.428539,52.201155
Scheepmakerstraat,8,E,,2222AC,Katwijk,Katwijk,Zuid-Holland,VBO,4.428578,52.201185
Scheepmakerstraat,8,F,,2222AC,Katwijk,Katwijk,Zuid-Holland,VBO,4.428626,52.201214
Scheepmakerstraat,8,G,,2222AC,Katwijk,Katwijk,Zuid-Holland,VBO,4.428677,52.201244
Scheepmakerstraat,8,,,2222AC,Katwijk,Katwijk,Zuid-Holland,VBO,4.428382,52.201143
Scheepmakerstraat,10,,,2222AC,Katwijk,Katwijk,Zuid-Holland,VBO,4.428742,52.200914
Scheepmakerstraat,12,,,2222AC,Katwijk,Katwijk,Zuid-Holland,VBO,4.429142,52.200683
Scheepmakerstraat,14,,,2222AC,Katwijk,Katwijk,Zuid-Holland,VBO,4.429513,52.200417
Scheepmakerstraat,16,,,2222AC,Katwijk,Katwijk,Zuid-Holland,VBO,4.429788,52.200387
Scheepmakerstraat,18,,,2222AC,Katwijk,Katwijk,Zuid-Holland,VBO,4.429989,52.200070
Scheepmakerstraat,20,A,,2222AC,Katwijk,Katwijk,Zuid-Holland,VBO,4.430472,52.200038
Scheepmakerstraat,20,B,,2222AC,Katwijk,Katwijk,Zuid-Holland,VBO,4.430561,52.199967
Scheepmakerstraat,20,,,2222AC,Katwijk,Katwijk,Zuid-Holland,VBO,4.430339,52.200109
Scheepmakerstraat,22,,,2222AC,Katwijk,Katwijk,Zuid-Holland,VBO,4.430509,52.199697
Scheepmakerstraat,26,,,2222AC,Katwijk,Katwijk,Zuid-Holland,VBO,4.431623,52.198879
Scheepmakerstraat,28,,,2222AC,Katwijk,Katwijk,Zuid-Holland,VBO,4.431712,52.198816
Scheepmakerstraat,30,B,,2222AC,Katwijk,Katwijk,Zuid-Holland,VBO,4.431898,52.198688
Scheepmakerstraat,30,,,2222AC,Katwijk,Katwijk,Zuid-Holland,VBO,4.431876,52.198692
Scheepmakerstraat,32,,,2222AC,Katwijk,Katwijk,Zuid-Holland,VBO,4.432108,52.198766
Scheepmakerstraat,34,,,2222AC,Katwijk,Katwijk,Zuid-Holland,VBO,4.432429,52.198822
Scheepmakerstraat,36,,,2222AC,Katwijk,Katwijk,Zuid-Holland,VBO,4.432559,52.198886
Scheepmakerstraat,38,,,2222AC,Katwijk,Katwijk,Zuid-Holland,VBO,4.432704,52.198968
Scheepmakerstraat,40,,,2222AC,Katwijk,Katwijk,Zuid-Holland,VBO,4.432863,52.199051
Blokmakerstraat,2,,,2222AD,Katwijk,Katwijk,Zuid-Holland,VBO,4.427963,52.200020
Blokmakerstraat,4,,,2222AD,Katwijk,Katwijk,Zuid-Holland,VBO,4.429243,52.200704
Blokmakerstraat,7,,,2222AD,Katwijk,Katwijk,Zuid-Holland,VBO,4.429772,52.200598
Blokmakerstraat,8,,,2222AD,Katwijk,Katwijk,Zuid-Holland,VBO,4.429517,52.200902
Blokmakerstraat,9,,,2222AD,Katwijk,Katwijk,Zuid-Holland,VBO,4.430139,52.200574
Blokmakerstraat,10,,,2222AD,Katwijk,Katwijk,Zuid-Holland,VBO,4.429881,52.200995
Blokmakerstraat,11,,,2222AD,Katwijk,Katwijk,Zuid-Holland,VBO,4.430312,52.200666
Blokmakerstraat,13,,,2222AD,Katwijk,Katwijk,Zuid-Holland,VBO,4.430600,52.200947
Rijnlandkade,1,,,2222AE,Katwijk,Katwijk,Zuid-Holland,VBO,4.428374,52.199625
Rijnlandkade,3,,,2222AE,Katwijk,Katwijk,Zuid-Holland,VBO,4.429350,52.198986
Rijnlandkade,5,,,2222AE,Katwijk,Katwijk,Zuid-Holland,VBO,4.429389,52.198940
Lageweg,1,,,2222AG,Katwijk,Katwijk,Zuid-Holland,VBO,4.430152,52.198597
Lageweg,2,A,,2222AG,Katwijk,Katwijk,Zuid-Holland,VBO,4.429604,52.198946
Lageweg,2,B,,2222AG,Katwijk,Katwijk,Zuid-Holland,VBO,4.429700,52.198987
Lageweg,2,,,2222AG,Katwijk,Katwijk,Zuid-Holland,VBO,4.429488,52.198885
Lageweg,3,A,,2222AG,Katwijk,Katwijk,Zuid-Holland,VBO,4.430730,52.198907
Lageweg,3,,,2222AG,Katwijk,Katwijk,Zuid-Holland,VBO,4.430528,52.198798
Lageweg,4,,,2222AG,Katwijk,Katwijk,Zuid-Holland,VBO,4.429924,52.198982
Lageweg,5,,,2222AG,Katwijk,Katwijk,Zuid-Holland,VBO,4.431353,52.199218
Lageweg,6,A,,2222AG,Katwijk,Katwijk,Zuid-Holland,VBO,4.430039,52.199073
Lageweg,6,,,2222AG,Katwijk,Katwijk,Zuid-Holland,VBO,4.430083,52.199073
Lageweg,8,,,2222AG,Katwijk,Katwijk,Zuid-Holland,VBO,4.430342,52.199264
Lageweg,10,A,,2222AG,Katwijk,Katwijk,Zuid-Holland,VBO,4.431139,52.199620
Lageweg,10,,,2222AG,Katwijk,Katwijk,Zuid-Holland,VBO,4.431052,52.199575
Lageweg,12,,,2222AG,Katwijk,Katwijk,Zuid-Holland,VBO,4.431284,52.199694
Lageweg,14,A,,2222AG,Katwijk,Katwijk,Zuid-Holland,VBO,4.433205,52.200815
Lageweg,14,,,2222AG,Katwijk,Katwijk,Zuid-Holland,VBO,4.433538,52.201006
Lageweg,15,,,2222AG,Katwijk,Katwijk,Zuid-Holland,VBO,4.431585,52.199319
Lageweg,16,,,2222AG,Katwijk,Katwijk,Zuid-Holland,VBO,4.434044,52.201262
Lageweg,18,,,2222AG,Katwijk,Katwijk,Zuid-Holland,VBO,4.434762,52.201602
Lageweg,20,,,2222AG,Katwijk,Katwijk,Zuid-Holland,VBO,4.434971,52.201728
Lageweg,21,,,2222AG,Katwijk,Katwijk,Zuid-Holland,VBO,4.433713,52.200334
Lageweg,22,,,2222AG,Katwijk,Katwijk,Zuid-Holland,VBO,4.435462,52.201993
Lageweg,23,,,2222AG,Katwijk,Katwijk,Zuid-Holland,VBO,4.434188,52.200688
Lageweg,24,,,2222AG,Katwijk,Katwijk,Zuid-Holland,VBO,4.435708,52.202139
Lageweg,25,,,2222AG,Katwijk,Katwijk,Zuid-Holland,VBO,4.434434,52.200816
Lageweg,26,A,,2222AG,Katwijk,Katwijk,Zuid-Holland,VBO,4.436549,52.202726
Lageweg,26,B,,2222AG,Katwijk,Katwijk,Zuid-Holland,VBO,4.436606,52.202762
Lageweg,26,,,2222AG,Katwijk,Katwijk,Zuid-Holland,VBO,4.436253,52.202664
Lageweg,27,,,2222AG,Katwijk,Katwijk,Zuid-Holland,VBO,4.434752,52.200998
Lageweg,28,,,2222AG,Katwijk,Katwijk,Zuid-Holland,VBO,4.437643,52.203323
Lageweg,29,,,2222AG,Katwijk,Katwijk,Zuid-Holland,VBO,4.435301,52.201344
Lageweg,30,,,2222AG,Katwijk,Katwijk,Zuid-Holland,VBO,4.437889,52.203468
Lageweg,31,,,2222AG,Katwijk,Katwijk,Zuid-Holland,VBO,4.435604,52.201517
Lageweg,32,A,,2222AG,Katwijk,Katwijk,Zuid-Holland,VBO,4.438071,52.203685
Lageweg,32,,,2222AG,Katwijk,Katwijk,Zuid-Holland,VBO,4.438148,52.203632
Lageweg,33,,,2222AG,Katwijk,Katwijk,Zuid-Holland,VBO,4.436231,52.201612
Lageweg,34,,,2222AG,Katwijk,Katwijk,Zuid-Holland,VBO,4.438567,52.203878
Lageweg,35,D,,2222AG,Katwijk,Katwijk,Zuid-Holland,VBO,4.436644,52.202065
Lageweg,35,E,,2222AG,Katwijk,Katwijk,Zuid-Holland,VBO,4.436733,52.202125
Lageweg,35,J,,2222AG,Katwijk,Katwijk,Zuid-Holland,VBO,4.436565,52.201772
Lageweg,35,K,,2222AG,Katwijk,Katwijk,Zuid-Holland,VBO,4.436665,52.201705
Lageweg,35,M,,2222AG,Katwijk,Katwijk,Zuid-Holland,VBO,4.436826,52.201606
Lageweg,35,N,,2222AG,Katwijk,Katwijk,Zuid-Holland,VBO,4.436876,52.201574
Lageweg,35,Q,,2222AG,Katwijk,Katwijk,Zuid-Holland,VBO,4.437256,52.201883
Lageweg,35,S,,2222AG,Katwijk,Katwijk,Zuid-Holland,VBO,4.437095,52.201985
Lageweg,35,T,,2222AG,Katwijk,Katwijk,Zuid-Holland,VBO,4.437006,52.202046
Lageweg,35,U,,2222AG,Katwijk,Katwijk,Zuid-Holland,VBO,4.436946,52.202076
Lageweg,35,,,2222AG,Katwijk,Katwijk,Zuid-Holland,VBO,4.436453,52.201944
Lageweg,36,,,2222AG,Katwijk,Katwijk,Zuid-Holland,VBO,4.438942,52.204292
Lageweg,37,A,1,2222AG,Katwijk,Katwijk,Zuid-Holland,VBO,4.437306,52.201811
Lageweg,37,A,2,2222AG,Katwijk,Katwijk,Zuid-Holland,VBO,4.437244,52.201849
Lageweg,37,A,3,2222AG,Katwijk,Katwijk,Zuid-Holland,VBO,4.437216,52.201867
Lageweg,37,A,4,2222AG,Katwijk,Katwijk,Zuid-Holland,VBO,4.437176,52.201893
Lageweg,37,A,5,2222AG,Katwijk,Katwijk,Zuid-Holland,VBO,4.437136,52.201918
Lageweg,37,A,6,2222AG,Katwijk,Katwijk,Zuid-Holland,VBO,4.437100,52.201942
Lageweg,37,A,7,2222AG,Katwijk,Katwijk,Zuid-Holland,VBO,4.437053,52.201966
Lageweg,37,A,8,2222AG,Katwijk,Katwijk,Zuid-Holland,VBO,4.437015,52.201990
Lageweg,37,A,9,2222AG,Katwijk,Katwijk,Zuid-Holland,VBO,4.436985,52.202015
Lageweg,37,B,1,2222AG,Katwijk,Katwijk,Zuid-Holland,VBO,4.436937,52.202038
Lageweg,37,B,2,2222AG,Katwijk,Katwijk,Zuid-Holland,VBO,4.436901,52.202059
Lageweg,37,C,1,2222AG,Katwijk,Katwijk,Zuid-Holland,VBO,4.437240,52.201795
Lageweg,37,C,3,2222AG,Katwijk,Katwijk,Zuid-Holland,VBO,4.437165,52.201838
Lageweg,37,C,4,2222AG,Katwijk,Katwijk,Zuid-Holland,VBO,4.437123,52.201865
Lageweg,37,C,5,2222AG,Katwijk,Katwijk,Zuid-Holland,VBO,4.437079,52.201891
Lageweg,37,C,6,2222AG,Katwijk,Katwijk,Zuid-Holland,VBO,4.437048,52.201912
Lageweg,37,C,7,2222AG,Katwijk,Katwijk,Zuid-Holland,VBO,4.437003,52.201935
Lageweg,37,C,8,2222AG,Katwijk,Katwijk,Zuid-Holland,VBO,4.436960,52.201964
Lageweg,37,C,9,2222AG,Katwijk,Katwijk,Zuid-Holland,VBO,4.436926,52.201987
Lageweg,37,D,1,2222AG,Katwijk,Katwijk,Zuid-Holland,VBO,4.436890,52.202011
Lageweg,37,E,1,2222AG,Katwijk,Katwijk,Zuid-Holland,VBO,4.436531,52.201847
Lageweg,37,E,2,2222AG,Katwijk,Katwijk,Zuid-Holland,VBO,4.436569,52.201823
Lageweg,37,E,3,2222AG,Katwijk,Katwijk,Zuid-Holland,VBO,4.436614,52.201792
Lageweg,37,E,4,2222AG,Katwijk,Katwijk,Zuid-Holland,VBO,4.436650,52.201770
Lageweg,37,E,5,2222AG,Katwijk,Katwijk,Zuid-Holland,VBO,4.436692,52.201746
Lageweg,37,E,6,2222AG,Katwijk,Katwijk,Zuid-Holland,VBO,4.436734,52.201722
Lageweg,37,E,7,2222AG,Katwijk,Katwijk,Zuid-Holland,VBO,4.436776,52.201699
Lageweg,37,E,9,2222AG,Katwijk,Katwijk,Zuid-Holland,VBO,4.436855,52.201645
Lageweg,37,F,2,2222AG,Katwijk,Katwijk,Zuid-Holland,VBO,4.436954,52.201764
Lageweg,37,F,3,2222AG,Katwijk,Katwijk,Zuid-Holland,VBO,4.436904,52.201790
Lageweg,37,F,4,2222AG,Katwijk,Katwijk,Zuid-Holland,VBO,4.436870,52.201817
Lageweg,37,F,5,2222AG,Katwijk,Katwijk,Zuid-Holland,VBO,4.436832,52.201837
Lageweg,37,F,6,2222AG,Katwijk,Katwijk,Zuid-Holland,VBO,4.436794,52.201858
Lageweg,37,F,7,2222AG,Katwijk,Katwijk,Zuid-Holland,VBO,4.436756,52.201890
Lageweg,37,F,9,2222AG,Katwijk,Katwijk,Zuid-Holland,VBO,4.436685,52.201928
Lageweg,37,G,1,2222AG,Katwijk,Katwijk,Zuid-Holland,VBO,4.436877,52.202137
Lageweg,37,G,2,2222AG,Katwijk,Katwijk,Zuid-Holland,VBO,4.436841,52.202113
Lageweg,37,G,3,2222AG,Katwijk,Katwijk,Zuid-Holland,VBO,4.436792,52.202087
Lageweg,37,G,4,2222AG,Katwijk,Katwijk,Zuid-Holland,VBO,4.436745,52.202057
Lageweg,37,G,5,2222AG,Katwijk,Katwijk,Zuid-Holland,VBO,4.436589,52.201962
Lageweg,37,G,6,2222AG,Katwijk,Katwijk,Zuid-Holland,VBO,4.436527,52.201929
Lageweg,37,G,7,2222AG,Katwijk,Katwijk,Zuid-Holland,VBO,4.436436,52.201874
Lageweg,37,G,8,2222AG,Katwijk,Katwijk,Zuid-Holland,VBO,4.436393,52.201856
Lageweg,39,,,2222AG,Katwijk,Katwijk,Zuid-Holland,VBO,4.437481,52.202674
Lageweg,42,,,2222AG,Katwijk,Katwijk,Zuid-Holland,VBO,4.434783,52.207093
Lageweg,44,,,2222AG,Katwijk,Katwijk,Zuid-Holland,VBO,4.436991,52.208827
Lageweg,47,,,2222AG,Katwijk,Katwijk,Zuid-Holland,VBO,4.439188,52.203587
Lageweg,51,A,,2222AG,Katwijk,Katwijk,Zuid-Holland,VBO,4.438621,52.205538
Lageweg,51,B,,2222AG,Katwijk,Katwijk,Zuid-Holland,VBO,4.438678,52.205563
Lageweg,51,C,,2222AG,Katwijk,Katwijk,Zuid-Holland,VBO,4.438691,52.205613
Lageweg,51,D,,2222AG,Katwijk,Katwijk,Zuid-Holland,VBO,4.438711,52.205609
Lageweg,51,,,2222AG,Katwijk,Katwijk,Zuid-Holland,VBO,4.438565,52.205491
Lageweg,53,A,,2222AG,Katwijk,Katwijk,Zuid-Holland,VBO,4.438156,52.205795
Lageweg,53,B,,2222AG,Katwijk,Katwijk,Zuid-Holland,VBO,4.438215,52.205827
Lageweg,53,C,,2222AG,Katwijk,Katwijk,Zuid-Holland,VBO,4.438325,52.205885
Lageweg,53,D,,2222AG,Katwijk,Katwijk,Zuid-Holland,VBO,4.438331,52.205892
Lageweg,53,,,2222AG,Katwijk,Katwijk,Zuid-Holland,VBO,4.438060,52.205735
Lageweg,55,,,2222AG,Katwijk,Katwijk,Zuid-Holland,VBO,4.437251,52.207310
Ambachtsweg,1,A,,2222AH,Katwijk,Katwijk,Zuid-Holland,VBO,4.427946,52.202548
Ambachtsweg,1,B,,2222AH,Katwijk,Katwijk,Zuid-Holland,VBO,4.428122,52.202430
Ambachtsweg,1,,,2222AH,Katwijk,Katwijk,Zuid-Holland,VBO,4.427819,52.202655
Ambachtsweg,3,,,2222AH,Katwijk,Katwijk,Zuid-Holland,VBO,4.429095,52.202148
Ambachtsweg,5,A,,2222AH,Katwijk,Katwijk,Zuid-Holland,VBO,4.429260,52.201996
Ambachtsweg,5,F,,2222AH,Katwijk,Katwijk,Zuid-Holland,VBO,4.429333,52.201988
Ambachtsweg,5,,,2222AH,Katwijk,Katwijk,Zuid-Holland,VBO,4.429362,52.201988
Ambachtsweg,7,A,,2222AH,Katwijk,Katwijk,Zuid-Holland,VBO,4.429983,52.201566
Ambachtsweg,7,B,,2222AH,Katwijk,Katwijk,Zuid-Holland,VBO,4.429769,52.201727
Ambachtsweg,7,D,,2222AH,Katwijk,Katwijk,Zuid-Holland,VBO,4.429795,52.201714
Ambachtsweg,7,F,,2222AH,Katwijk,Katwijk,Zuid-Holland,VBO,4.429833,52.201694
Ambachtsweg,7,G,,2222AH,Katwijk,Katwijk,Zuid-Holland,VBO,4.429683,52.201368
Ambachtsweg,7,,,2222AH,Katwijk,Katwijk,Zuid-Holland,VBO,4.429733,52.201749
Ambachtsweg,9,,,2222AH,Katwijk,Katwijk,Zuid-Holland,VBO,4.430281,52.201430
Ambachtsweg,11,,,2222AH,Katwijk,Katwijk,Zuid-Holland,VBO,4.430815,52.201092
Ambachtsweg,13,,,2222AH,Katwijk,Katwijk,Zuid-Holland,VBO,4.431230,52.200826
Ambachtsweg,15,,,2222AH,Katwijk,Katwijk,Zuid-Holland,VBO,4.431571,52.200640
Ambachtsweg,17,,,2222AH,Katwijk,Katwijk,Zuid-Holland,VBO,4.431830,52.200447
Ambachtsweg,19,,,2222AH,Katwijk,Katwijk,Zuid-Holland,VBO,4.433173,52.199583
Ambachtsweg,21,,,2222AH,Katwijk,Katwijk,Zuid-Holland,VBO,4.433842,52.199076
Ambachtsweg,23,,,2222AJ,Katwijk,Katwijk,Zuid-Holland,VBO,4.433809,52.198600
Ambachtsweg,25,A,,2222AJ,Katwijk,Katwijk,Zuid-Holland,VBO,4.433626,52.198598
Ambachtsweg,25,B,,2222AJ,Katwijk,Katwijk,Zuid-Holland,VBO,4.433633,52.198598
Ambachtsweg,25,C,,2222AJ,Katwijk,Katwijk,Zuid-Holland,VBO,4.433604,52.198598
Ambachtsweg,25,D,,2222AJ,Katwijk,Katwijk,Zuid-Holland,VBO,4.433589,52.198598
Ambachtsweg,25,E,,2222AJ,Katwijk,Katwijk,Zuid-Holland,VBO,4.433597,52.198598
Ambachtsweg,25,F,,2222AJ,Katwijk,Katwijk,Zuid-Holland,VBO,4.433619,52.198598
Ambachtsweg,25,G,,2222AJ,Katwijk,Katwijk,Zuid-Holland,VBO,4.433611,52.198598
Ambachtsweg,25,,,2222AJ,Katwijk,Katwijk,Zuid-Holland,VBO,4.433736,52.198599
Ambachtsweg,27,A,,2222AJ,Katwijk,Katwijk,Zuid-Holland,VBO,4.433662,52.198599
Ambachtsweg,27,B,,2222AJ,Katwijk,Katwijk,Zuid-Holland,VBO,4.433670,52.198599
Ambachtsweg,27,C,,2222AJ,Katwijk,Katwijk,Zuid-Holland,VBO,4.433641,52.198598
Ambachtsweg,27,F,,2222AJ,Katwijk,Katwijk,Zuid-Holland,VBO,4.433648,52.198598
Ambachtsweg,27,G,,2222AJ,Katwijk,Katwijk,Zuid-Holland,VBO,4.433655,52.198599
Ambachtsweg,27,,,2222AJ,Katwijk,Katwijk,Zuid-Holland,VBO,4.433743,52.198599
Ambachtsweg,29,A,,2222AJ,Katwijk,Katwijk,Zuid-Holland,VBO,4.433692,52.198599
Ambachtsweg,29,B,,2222AJ,Katwijk,Katwijk,Zuid-Holland,VBO,4.433699,52.198599
Ambachtsweg,29,C,,2222AJ,Katwijk,Katwijk,Zuid-Holland,VBO,4.433706,52.198599
Ambachtsweg,29,D,,2222AJ,Katwijk,Katwijk,Zuid-Holland,VBO,4.433677,52.198599
Ambachtsweg,29,,,2222AJ,Katwijk,Katwijk,Zuid-Holland,VBO,4.433684,52.198599
Ambachtsweg,31,,,2222AJ,Katwijk,Katwijk,Zuid-Holland,VBO,4.433779,52.198600
Ambachtsweg,32,,,2222AJ,Katwijk,Katwijk,Zuid-Holland,VBO,4.435468,52.198654
Ambachtsweg,33,A,,2222AJ,Katwijk,Katwijk,Zuid-Holland,VBO,4.433714,52.198599
Ambachtsweg,33,,,2222AJ,Katwijk,Katwijk,Zuid-Holland,VBO,4.433787,52.198600
Ambachtsweg,37,,,2222AJ,Katwijk,Katwijk,Zuid-Holland,VBO,4.433750,52.198599
Ambachtsweg,39,,,2222AJ,Katwijk,Katwijk,Zuid-Holland,VBO,4.433758,52.198599
Ambachtsweg,41,,,2222AJ,Katwijk,Katwijk,Zuid-Holland,VBO,4.433801,52.198600
Ambachtsweg,43,A,,2222AJ,Katwijk,Katwijk,Zuid-Holland,VBO,4.433794,52.198600
Ambachtsweg,43,B,,2222AJ,Katwijk,Katwijk,Zuid-Holland,VBO,4.433765,52.198599
Ambachtsweg,43,C,,2222AJ,Katwijk,Katwijk,Zuid-Holland,VBO,4.433772,52.198599
Ambachtsweg,43,,,2222AJ,Katwijk,Katwijk,Zuid-Holland,VBO,4.433721,52.198599
Ambachtsweg,49,,,2222AJ,Katwijk,Katwijk,Zuid-Holland,VBO,4.433728,52.198599
Ambachtsweg,2,,,2222AK,Katwijk,Katwijk,Zuid-Holland,VBO,4.428754,52.203062
Ambachtsweg,4,,,2222AK,Katwijk,Katwijk,Zuid-Holland,VBO,4.429230,52.202697
Ambachtsweg,6,,,2222AK,Katwijk,Katwijk,Zuid-Holland,VBO,4.430163,52.202148
Ambachtsweg,8,,,2222AK,Katwijk,Katwijk,Zuid-Holland,VBO,4.430818,52.201641
Ambachtsweg,14,,,2222AL,Katwijk,Katwijk,Zuid-Holland,VBO,4.431600,52.201305
Ambachtsweg,16,,,2222AL,Katwijk,Katwijk,Zuid-Holland,VBO,4.431971,52.201075
Ambachtsweg,18,,,2222AL,Katwijk,Katwijk,Zuid-Holland,VBO,4.432357,52.200835
Ambachtsweg,20,A,,2222AL,Katwijk,Katwijk,Zuid-Holland,VBO,4.434318,52.199422
Ambachtsweg,20,B,,2222AL,Katwijk,Katwijk,Zuid-Holland,VBO,4.433428,52.200008
Ambachtsweg,20,C,,2222AL,Katwijk,Katwijk,Zuid-Holland,VBO,4.433932,52.199661
Ambachtsweg,20,D,,2222AL,Katwijk,Katwijk,Zuid-Holland,VBO,4.434308,52.199889
Ambachtsweg,20,,,2222AL,Katwijk,Katwijk,Zuid-Holland,VBO,4.432653,52.200667
Ambachtsweg,22,,,2222AL,Katwijk,Katwijk,Zuid-Holland,VBO,4.434718,52.199108
Ambachtsweg,24,A,,2222AL,Katwijk,Katwijk,Zuid-Holland,VBO,4.434825,52.199017
Ambachtsweg,24,B,,2222AL,Katwijk,Katwijk,Zuid-Holland,VBO,4.434943,52.198933
Ambachtsweg,24,,,2222AL,Katwijk,Katwijk,Zuid-Holland,VBO,4.434737,52.199068
Ambachtsweg,26,,,2222AL,Katwijk,Katwijk,Zuid-Holland,VBO,4.435515,52.199083
Heerenweg,1,A,,2222AM,Katwijk,Katwijk,Zuid-Holland,VBO,4.432228,52.202037
Heerenweg,1,B,,2222AM,Katwijk,Katwijk,Zuid-Holland,VBO,4.432245,52.202028
Heerenweg,1,D,,2222AM,Katwijk,Katwijk,Zuid-Holland,VBO,4.432360,52.202093
Heerenweg,1,F,,2222AM,Katwijk,Katwijk,Zuid-Holland,VBO,4.432449,52.202158
Heerenweg,1,,,2222AM,Katwijk,Katwijk,Zuid-Holland,VBO,4.431985,52.201794
Heerenweg,2,,,2222AM,Katwijk,Katwijk,Zuid-Holland,VBO,4.431339,52.201896
Heerenweg,3,A,,2222AM,Katwijk,Katwijk,Zuid-Holland,VBO,4.432550,52.202227
Heerenweg,3,B,,2222AM,Katwijk,Katwijk,Zuid-Holland,VBO,4.432885,52.202612
Heerenweg,3,,,2222AM,Katwijk,Katwijk,Zuid-Holland,VBO,4.432500,52.202194
Heerenweg,4,A,,2222AM,Katwijk,Katwijk,Zuid-Holland,VBO,4.431641,52.202133
Heerenweg,4,B,,2222AM,Katwijk,Katwijk,Zuid-Holland,VBO,4.431674,52.202305
Heerenweg,4,C,,2222AM,Katwijk,Katwijk,Zuid-Holland,VBO,4.432025,52.202446
Heerenweg,4,F,,2222AM,Katwijk,Katwijk,Zuid-Holland,VBO,4.432123,52.202545
Heerenweg,4,G,,2222AM,Katwijk,Katwijk,Zuid-Holland,VBO,4.432008,52.202597
Heerenweg,4,H,,2222AM,Katwijk,Katwijk,Zuid-Holland,VBO,4.431923,52.202654
Heerenweg,4,,,2222AM,Katwijk,Katwijk,Zuid-Holland,VBO,4.431656,52.202106
Heerenweg,5,,,2222AM,Katwijk,Katwijk,Zuid-Holland,VBO,4.433134,52.202774
Heerenweg,6,A,1,2222AM,Katwijk,Katwijk,Zuid-Holland,VBO,4.433018,52.203097
Heerenweg,6,A,10,2222AM,Katwijk,Katwijk,Zuid-Holland,VBO,4.432760,52.203089
Heerenweg,6,A,11,2222AM,Katwijk,Katwijk,Zuid-Holland,VBO,4.432825,52.203051
Heerenweg,6,A,12,2222AM,Katwijk,Katwijk,Zuid-Holland,VBO,4.432889,52.203012
Heerenweg,6,A,2,2222AM,Katwijk,Katwijk,Zuid-Holland,VBO,4.432953,52.203135
Heerenweg,6,A,3,2222AM,Katwijk,Katwijk,Zuid-Holland,VBO,4.432888,52.203173
Heerenweg,6,A,4,2222AM,Katwijk,Katwijk,Zuid-Holland,VBO,4.432823,52.203210
Heerenweg,6,A,5,2222AM,Katwijk,Katwijk,Zuid-Holland,VBO,4.432758,52.203247
Heerenweg,6,A,6,2222AM,Katwijk,Katwijk,Zuid-Holland,VBO,4.432694,52.203284
Heerenweg,6,A,7,2222AM,Katwijk,Katwijk,Zuid-Holland,VBO,4.432566,52.203200
Heerenweg,6,A,8,2222AM,Katwijk,Katwijk,Zuid-Holland,VBO,4.432631,52.203163
Heerenweg,6,A,9,2222AM,Katwijk,Katwijk,Zuid-Holland,VBO,4.432696,52.203126
Heerenweg,6,B,1,2222AM,Katwijk,Katwijk,Zuid-Holland,VBO,4.432530,52.202770
Heerenweg,6,B,10,2222AM,Katwijk,Katwijk,Zuid-Holland,VBO,4.432397,52.202847
Heerenweg,6,B,4,2222AM,Katwijk,Katwijk,Zuid-Holland,VBO,4.432487,52.202991
Heerenweg,6,B,5,2222AM,Katwijk,Katwijk,Zuid-Holland,VBO,4.432423,52.203027
Heerenweg,6,B,6,2222AM,Katwijk,Katwijk,Zuid-Holland,VBO,4.432361,52.203063
Heerenweg,6,B,7,2222AM,Katwijk,Katwijk,Zuid-Holland,VBO,4.432201,52.202959
Heerenweg,6,B,8,2222AM,Katwijk,Katwijk,Zuid-Holland,VBO,4.432264,52.202924
Heerenweg,6,B,9,2222AM,Katwijk,Katwijk,Zuid-Holland,VBO,4.432330,52.202886
Heerenweg,6,C,1,2222AM,Katwijk,Katwijk,Zuid-Holland,VBO,4.432216,52.203148
Heerenweg,6,C,10,2222AM,Katwijk,Katwijk,Zuid-Holland,VBO,4.431932,52.203121
Heerenweg,6,C,11,2222AM,Katwijk,Katwijk,Zuid-Holland,VBO,4.431869,52.203157
Heerenweg,6,C,12,2222AM,Katwijk,Katwijk,Zuid-Holland,VBO,4.431803,52.203195
Heerenweg,6,C,13,2222AM,Katwijk,Katwijk,Zuid-Holland,VBO,4.431739,52.203232
Heerenweg,6,C,14,2222AM,Katwijk,Katwijk,Zuid-Holland,VBO,4.431673,52.203269
Heerenweg,6,C,2,2222AM,Katwijk,Katwijk,Zuid-Holland,VBO,4.432151,52.203184
Heerenweg,6,C,3,2222AM,Katwijk,Katwijk,Zuid-Holland,VBO,4.432087,52.203221
Heerenweg,6,C,4,2222AM,Katwijk,Katwijk,Zuid-Holland,VBO,4.432019,52.203258
Heerenweg,6,C,5,2222AM,Katwijk,Katwijk,Zuid-Holland,VBO,4.431956,52.203296
Heerenweg,6,C,6,2222AM,Katwijk,Katwijk,Zuid-Holland,VBO,4.431892,52.203334
Heerenweg,6,C,7,2222AM,Katwijk,Katwijk,Zuid-Holland,VBO,4.431828,52.203371
Heerenweg,6,C,8,2222AM,Katwijk,Katwijk,Zuid-Holland,VBO,4.432062,52.203045
Heerenweg,6,C,9,2222AM,Katwijk,Katwijk,Zuid-Holland,VBO,4.431997,52.203083
Heerenweg,6,D,1,2222AM,Katwijk,Katwijk,Zuid-Holland,VBO,4.432581,52.203380
Heerenweg,6,D,2,2222AM,Katwijk,Katwijk,Zuid-Holland,VBO,4.432540,52.203352
Heerenweg,6,D,3,2222AM,Katwijk,Katwijk,Zuid-Holland,VBO,4.432433,52.203288
Heerenweg,6,D,4,2222AM,Katwijk,Katwijk,Zuid-Holland,VBO,4.432367,52.203325
Heerenweg,6,D,5,2222AM,Katwijk,Katwijk,Zuid-Holland,VBO,4.432301,52.203363
Heerenweg,6,D,6,2222AM,Katwijk,Katwijk,Zuid-Holland,VBO,4.432237,52.203400
Heerenweg,6,D,7,2222AM,Katwijk,Katwijk,Zuid-Holland,VBO,4.432174,52.203437
Heerenweg,6,D,8,2222AM,Katwijk,Katwijk,Zuid-Holland,VBO,4.432109,52.203474
Heerenweg,6,D,9,2222AM,Katwijk,Katwijk,Zuid-Holland,VBO,4.432044,52.203511
Heerenweg,6,E,1,2222AM,Katwijk,Katwijk,Zuid-Holland,VBO,4.432477,52.203442
Heerenweg,6,E,10,2222AM,Katwijk,Katwijk,Zuid-Holland,VBO,4.432332,52.203721
Heerenweg,6,E,11,2222AM,Katwijk,Katwijk,Zuid-Holland,VBO,4.432366,52.203700
Heerenweg,6,E,12,2222AM,Katwijk,Katwijk,Zuid-Holland,VBO,4.432406,52.203676
Heerenweg,6,E,13,2222AM,Katwijk,Katwijk,Zuid-Holland,VBO,4.432447,52.203653
Heerenweg,6,E,14,2222AM,Katwijk,Katwijk,Zuid-Holland,VBO,4.432481,52.203631
Heerenweg,6,E,15,2222AM,Katwijk,Katwijk,Zuid-Holland,VBO,4.432515,52.203613
Heerenweg,6,E,16,2222AM,Katwijk,Katwijk,Zuid-Holland,VBO,4.432557,52.203590
Heerenweg,6,E,17,2222AM,Katwijk,Katwijk,Zuid-Holland,VBO,4.432583,52.203573
Heerenweg,6,E,18,2222AM,Katwijk,Katwijk,Zuid-Holland,VBO,4.432632,52.203541
Heerenweg,6,E,19,2222AM,Katwijk,Katwijk,Zuid-Holland,VBO,4.432668,52.203525
Heerenweg,6,E,2,2222AM,Katwijk,Katwijk,Zuid-Holland,VBO,4.432437,52.203467
Heerenweg,6,E,20,2222AM,Katwijk,Katwijk,Zuid-Holland,VBO,4.432713,52.203498
Heerenweg,6,E,21,2222AM,Katwijk,Katwijk,Zuid-Holland,VBO,4.432740,52.203485
Heerenweg,6,E,22,2222AM,Katwijk,Katwijk,Zuid-Holland,VBO,4.432452,52.203431
Heerenweg,6,E,23,2222AM,Katwijk,Katwijk,Zuid-Holland,VBO,4.432412,52.203448
Heerenweg,6,E,24,2222AM,Katwijk,Katwijk,Zuid-Holland,VBO,4.432366,52.203470
Heerenweg,6,E,25,2222AM,Katwijk,Katwijk,Zuid-Holland,VBO,4.432332,52.203492
Heerenweg,6,E,26,2222AM,Katwijk,Katwijk,Zuid-Holland,VBO,4.432299,52.203515
Heerenweg,6,E,27,2222AM,Katwijk,Katwijk,Zuid-Holland,VBO,4.432259,52.203537
Heerenweg,6,E,28,2222AM,Katwijk,Katwijk,Zuid-Holland,VBO,4.432221,52.203558
Heerenweg,6,E,29,2222AM,Katwijk,Katwijk,Zuid-Holland,VBO,4.432185,52.203583
Heerenweg,6,E,3,2222AM,Katwijk,Katwijk,Zuid-Holland,VBO,4.432400,52.203487
Heerenweg,6,E,30,2222AM,Katwijk,Katwijk,Zuid-Holland,VBO,4.432149,52.203602
Heerenweg,6,E,31,2222AM,Katwijk,Katwijk,Zuid-Holland,VBO,4.432355,52.203736
Heerenweg,6,E,32,2222AM,Katwijk,Katwijk,Zuid-Holland,VBO,4.432389,52.203714
Heerenweg,6,E,33,2222AM,Katwijk,Katwijk,Zuid-Holland,VBO,4.432429,52.203691
Heerenweg,6,E,34,2222AM,Katwijk,Katwijk,Zuid-Holland,VBO,4.432464,52.203672
Heerenweg,6,E,35,2222AM,Katwijk,Katwijk,Zuid-Holland,VBO,4.432508,52.203646
Heerenweg,6,E,36,2222AM,Katwijk,Katwijk,Zuid-Holland,VBO,4.432540,52.203626
Heerenweg,6,E,37,2222AM,Katwijk,Katwijk,Zuid-Holland,VBO,4.432579,52.203605
Heerenweg,6,E,38,2222AM,Katwijk,Katwijk,Zuid-Holland,VBO,4.432618,52.203582
Heerenweg,6,E,39,2222AM,Katwijk,Katwijk,Zuid-Holland,VBO,4.432646,52.203567
Heerenweg,6,E,4,2222AM,Katwijk,Katwijk,Zuid-Holland,VBO,4.432363,52.203510
Heerenweg,6,E,40,2222AM,Katwijk,Katwijk,Zuid-Holland,VBO,4.432691,52.203543
Heerenweg,6,E,41,2222AM,Katwijk,Katwijk,Zuid-Holland,VBO,4.432736,52.203518
Heerenweg,6,E,42,2222AM,Katwijk,Katwijk,Zuid-Holland,VBO,4.432768,52.203498
Heerenweg,6,E,43,2222AM,Katwijk,Katwijk,Zuid-Holland,VBO,4.432421,52.203411
Heerenweg,6,E,44,2222AM,Katwijk,Katwijk,Zuid-Holland,VBO,4.432383,52.203434
Heerenweg,6,E,45,2222AM,Katwijk,Katwijk,Zuid-Holland,VBO,4.432343,52.203456
Heerenweg,6,E,46,2222AM,Katwijk,Katwijk,Zuid-Holland,VBO,4.432308,52.203480
Heerenweg,6,E,47,2222AM,Katwijk,Katwijk,Zuid-Holland,VBO,4.432272,52.203498
Heerenweg,6,E,48,2222AM,Katwijk,Katwijk,Zuid-Holland,VBO,4.432236,52.203518
Heerenweg,6,E,49,2222AM,Katwijk,Katwijk,Zuid-Holland,VBO,4.432197,52.203542
Heerenweg,6,E,5,2222AM,Katwijk,Katwijk,Zuid-Holland,VBO,4.432324,52.203531
Heerenweg,6,E,50,2222AM,Katwijk,Katwijk,Zuid-Holland,VBO,4.432159,52.203565
Heerenweg,6,E,51,2222AM,Katwijk,Katwijk,Zuid-Holland,VBO,4.432123,52.203584
Heerenweg,6,E,52,2222AM,Katwijk,Katwijk,Zuid-Holland,VBO,4.432381,52.203751
Heerenweg,6,E,53,2222AM,Katwijk,Katwijk,Zuid-Holland,VBO,4.432413,52.203732
Heerenweg,6,E,54,2222AM,Katwijk,Katwijk,Zuid-Holland,VBO,4.432453,52.203709
Heerenweg,6,E,55,2222AM,Katwijk,Katwijk,Zuid-Holland,VBO,4.432491,52.203686
Heerenweg,6,E,56,2222AM,Katwijk,Katwijk,Zuid-Holland,VBO,4.432530,52.203664
Heerenweg,6,E,57,2222AM,Katwijk,Katwijk,Zuid-Holland,VBO,4.432570,52.203641
Heerenweg,6,E,58,2222AM,Katwijk,Katwijk,Zuid-Holland,VBO,4.432602,52.203622
Heerenweg,6,E,59,2222AM,Katwijk,Katwijk,Zuid-Holland,VBO,4.432645,52.203598
Heerenweg,6,E,6,2222AM,Katwijk,Katwijk,Zuid-Holland,VBO,4.432284,52.203554
Heerenweg,6,E,60,2222AM,Katwijk,Katwijk,Zuid-Holland,VBO,4.432680,52.203577
Heerenweg,6,E,61,2222AM,Katwijk,Katwijk,Zuid-Holland,VBO,4.432721,52.203554
Heerenweg,6,E,62,2222AM,Katwijk,Katwijk,Zuid-Holland,VBO,4.432758,52.203532
Heerenweg,6,E,63,2222AM,Katwijk,Katwijk,Zuid-Holland,VBO,4.432796,52.203510
Heerenweg,6,E,64,2222AM,Katwijk,Katwijk,Zuid-Holland,VBO,4.432516,52.203430
Heerenweg,6,E,7,2222AM,Katwijk,Katwijk,Zuid-Holland,VBO,4.432250,52.203573
Heerenweg,6,E,8,2222AM,Katwijk,Katwijk,Zuid-Holland,VBO,4.432210,52.203597
Heerenweg,6,E,9,2222AM,Katwijk,Katwijk,Zuid-Holland,VBO,4.432173,52.203617
Heerenweg,6,F,1,2222AM,Katwijk,Katwijk,Zuid-Holland,VBO,4.433215,52.203218
Heerenweg,6,F,2,2222AM,Katwijk,Katwijk,Zuid-Holland,VBO,4.433092,52.203294
Heerenweg,6,F,3,2222AM,Katwijk,Katwijk,Zuid-Holland,VBO,4.432968,52.203370
Heerenweg,6,F,4,2222AM,Katwijk,Katwijk,Zuid-Holland,VBO,4.432846,52.203445
Heerenweg,7,,,2222AM,Katwijk,Katwijk,Zuid-Holland,VBO,4.433438,52.202938
Heerenweg,9,,,2222AM,Katwijk,Katwijk,Zuid-Holland,VBO,4.433655,52.203039
Heerenweg,11,,,2222AM,Katwijk,Katwijk,Zuid-Holland,VBO,4.434121,52.203159
Heerenweg,12,,,2222AM,Katwijk,Katwijk,Zuid-Holland,VBO,4.434988,52.204353
Heerenweg,13,,,2222AM,Katwijk,Katwijk,Zuid-Holland,VBO,4.434482,52.203504
Heerenweg,15,,,2222AM,Katwijk,Katwijk,Zuid-Holland,VBO,4.435098,52.203944
Heerenweg,17,,,2222AM,Katwijk,Katwijk,Zuid-Holland,VBO,4.435461,52.204132
Blekerstraat,1,E,,2222AN,Katwijk,Katwijk,Zuid-Holland,VBO,4.432726,52.202143
Blekerstraat,1,F,,2222AN,Katwijk,Katwijk,Zuid-Holland,VBO,4.432916,52.202044
Blekerstraat,1,H,,2222AN,Katwijk,Katwijk,Zuid-Holland,VBO,4.432686,52.201894
Blekerstraat,2,,,2222AN,Katwijk,Katwijk,Zuid-Holland,VBO,4.432051,52.204185
Blekerstraat,3,,,2222AN,Katwijk,Katwijk,Zuid-Holland,VBO,4.433084,52.201695
Blekerstraat,4,A,,2222AN,Katwijk,Katwijk,Zuid-Holland,VBO,4.432032,52.203709
Blekerstraat,4,B,,2222AN,Katwijk,Katwijk,Zuid-Holland,VBO,4.431502,52.203866
Blekerstraat,4,C,,2222AN,Katwijk,Katwijk,Zuid-Holland,VBO,4.431386,52.203802
Blekerstraat,4,,,2222AN,Katwijk,Katwijk,Zuid-Holland,VBO,4.432072,52.203889
Blekerstraat,5,,,2222AN,Katwijk,Katwijk,Zuid-Holland,VBO,4.433612,52.201663
Blekerstraat,6,A,,2222AN,Katwijk,Katwijk,Zuid-Holland,VBO,4.431227,52.203711
Blekerstraat,6,,,2222AN,Katwijk,Katwijk,Zuid-Holland,VBO,4.431069,52.203584
Blekerstraat,8,,,2222AN,Katwijk,Katwijk,Zuid-Holland,VBO,4.431276,52.203469
Blekerstraat,10,,,2222AN,Katwijk,Katwijk,Zuid-Holland,VBO,4.431499,52.203327
Blekerstraat,14,A,,2222AN,Katwijk,Katwijk,Zuid-Holland,VBO,4.433215,52.202406
Blekerstraat,14,,,2222AN,Katwijk,Katwijk,Zuid-Holland,VBO,4.432942,52.202504
Blekerstraat,16,,,2222AN,Katwijk,Katwijk,Zuid-Holland,VBO,4.433350,52.202281
Blekerstraat,18,,,2222AN,Katwijk,Katwijk,Zuid-Holland,VBO,4.433601,52.202157
Blekerstraat,20,,,2222AN,Katwijk,Katwijk,Zuid-Holland,VBO,4.433971,52.201945
Blekerstraat,22,,,2222AN,Katwijk,Katwijk,Zuid-Holland,VBO,4.434001,52.201927
Blekerstraat,24,,,2222AN,Katwijk,Katwijk,Zuid-Holland,VBO,4.433972,52.201909
Blekerstraat,26,,,2222AN,Katwijk,Katwijk,Zuid-Holland,VBO,4.433942,52.201927
Blekerstraat,28,,,2222AN,Katwijk,Katwijk,Zuid-Holland,VBO,4.433971,52.201954
Blekerstraat,30,,,2222AN,Katwijk,Katwijk,Zuid-Holland,VBO,4.434149,52.201829
Blekerstraat,32,,,2222AN,Katwijk,Katwijk,Zuid-Holland,VBO,4.434401,52.201733
Weverstraat,3,,,2222AP,Katwijk,Katwijk,Zuid-Holland,VBO,4.439628,52.201478
Weverstraat,4,,,2222AP,Katwijk,Katwijk,Zuid-Holland,VBO,4.439706,52.201236
Weverstraat,5,,,2222AP,Katwijk,Katwijk,Zuid-Holland,VBO,4.439826,52.201093
Lijnbaanstraat,3,,,2222AR,Katwijk,Katwijk,Zuid-Holland,VBO,4.435224,52.200840
Lijnbaanstraat,4,,,2222AR,Katwijk,Katwijk,Zuid-Holland,VBO,4.435394,52.201121
Lijnbaanstraat,5,,,2222AR,Katwijk,Katwijk,Zuid-Holland,VBO,4.435241,52.200733
Lijnbaanstraat,6,,,2222AR,Katwijk,Katwijk,Zuid-Holland,VBO,4.435438,52.201058
Lijnbaanstraat,7,,,2222AR,Katwijk,Katwijk,Zuid-Holland,VBO,4.435402,52.200707
Lijnbaanstraat,8,,,2222AR,Katwijk,Katwijk,Zuid-Holland,VBO,4.435944,52.200693
Lijnbaanstraat,9,A,,2222AR,Katwijk,Katwijk,Zuid-Holland,VBO,4.435523,52.200510
Lijnbaanstraat,9,B,,2222AR,Katwijk,Katwijk,Zuid-Holland,VBO,4.435451,52.200483
Lijnbaanstraat,9,C,,2222AR,Katwijk,Katwijk,Zuid-Holland,VBO,4.435290,52.200481
Lijnbaanstraat,9,,,2222AR,Katwijk,Katwijk,Zuid-Holland,VBO,4.435625,52.200556
Lijnbaanstraat,10,,,2222AR,Katwijk,Katwijk,Zuid-Holland,VBO,4.436048,52.200613
Lijnbaanstraat,11,,,2222AR,Katwijk,Katwijk,Zuid-Holland,VBO,4.435717,52.200481
Lijnbaanstraat,12,,,2222AR,Katwijk,Katwijk,Zuid-Holland,VBO,4.436181,52.200524
Lijnbaanstraat,13,,,2222AR,Katwijk,Katwijk,Zuid-Holland,VBO,4.435782,52.200425
Lijnbaanstraat,15,,,2222AR,Katwijk,Katwijk,Zuid-Holland,VBO,4.435844,52.200365
Lijnbaanstraat,16,,,2222AR,Katwijk,Katwijk,Zuid-Holland,VBO,4.436419,52.200347
Lijnbaanstraat,17,,,2222AR,Katwijk,Katwijk,Zuid-Holland,VBO,4.435919,52.200319
Lijnbaanstraat,19,,,2222AR,Katwijk,Katwijk,Zuid-Holland,VBO,4.435975,52.200280
Lijnbaanstraat,21,,,2222AR,Katwijk,Katwijk,Zuid-Holland,VBO,4.436028,52.200242
Lijnbaanstraat,23,,,2222AR,Katwijk,Katwijk,Zuid-Holland,VBO,4.436086,52.200199
Smidstraat,1,,,2222AS,Katwijk,Katwijk,Zuid-Holland,VBO,4.430809,52.197969
Smidstraat,2,,,2222AS,Katwijk,Katwijk,Zuid-Holland,VBO,4.431232,52.198031
Smidstraat,3,,,2222AS,Katwijk,Katwijk,Zuid-Holland,VBO,4.431540,52.197997
Smidstraat,4,,,2222AS,Katwijk,Katwijk,Zuid-Holland,VBO,4.432097,52.197948
Smidstraat,5,,,2222AS,Katwijk,Katwijk,Zuid-Holland,VBO,4.432536,52.197915
Smidstraat,6,,,2222AS,Katwijk,Katwijk,Zuid-Holland,VBO,4.432814,52.197900
Smidstraat,7,,,2222AS,Katwijk,Katwijk,Zuid-Holland,VBO,4.432976,52.197883
Smidstraat,8,,,2222AS,Katwijk,Katwijk,Zuid-Holland,VBO,4.433044,52.198117
Smidstraat,9,,,2222AS,Katwijk,Katwijk,Zuid-Holland,VBO,4.432954,52.198188
Smidstraat,10,,,2222AS,Katwijk,Katwijk,Zuid-Holland,VBO,4.432722,52.198133
Smidstraat,11,,,2222AS,Katwijk,Katwijk,Zuid-Holland,VBO,4.432401,52.198085
Steenbakkerstraat,1,B,,2222AT,Katwijk,Katwijk,Zuid-Holland,VBO,4.435033,52.199273
Steenbakkerstraat,1,C,,2222AT,Katwijk,Katwijk,Zuid-Holland,VBO,4.435168,52.199339
Steenbakkerstraat,1,D,,2222AT,Katwijk,Katwijk,Zuid-Holland,VBO,4.435439,52.199477
Steenbakkerstraat,1,,,2222AT,Katwijk,Katwijk,Zuid-Holland,VBO,4.435672,52.199623
Steenbakkerstraat,2,,,2222AT,Katwijk,Katwijk,Zuid-Holland,VBO,4.435088,52.199671
Steenbakkerstraat,3,,,2222AT,Katwijk,Katwijk,Zuid-Holland,VBO,4.435992,52.199786
Steenbakkerstraat,4,,,2222AT,Katwijk,Katwijk,Zuid-Holland,VBO,4.435479,52.199836
Steenbakkerstraat,5,,,2222AT,Katwijk,Katwijk,Zuid-Holland,VBO,4.436405,52.199618
Steenbakkerstraat,6,A,,2222AT,Katwijk,Katwijk,Zuid-Holland,VBO,4.435780,52.200114
Steenbakkerstraat,6,B,,2222AT,Katwijk,Katwijk,Zuid-Holland,VBO,4.435691,52.200181
Steenbakkerstraat,6,C,,2222AT,Katwijk,Katwijk,Zuid-Holland,VBO,4.435619,52.200236
Steenbakkerstraat,6,D,,2222AT,Katwijk,Katwijk,Zuid-Holland,VBO,4.435565,52.200274
Steenbakkerstraat,6,E,,2222AT,Katwijk,Katwijk,Zuid-Holland,VBO,4.435519,52.200309
Steenbakkerstraat,6,F,,2222AT,Katwijk,Katwijk,Zuid-Holland,VBO,4.435494,52.200366
Steenbakkerstraat,6,G,,2222AT,Katwijk,Katwijk,Zuid-Holland,VBO,4.435574,52.200408
Steenbakkerstraat,6,H,,2222AT,Katwijk,Katwijk,Zuid-Holland,VBO,4.435665,52.200344
Steenbakkerstraat,6,J,,2222AT,Katwijk,Katwijk,Zuid-Holland,VBO,4.435703,52.200358
Steenbakkerstraat,6,K,,2222AT,Katwijk,Katwijk,Zuid-Holland,VBO,4.435737,52.200294
Steenbakkerstraat,6,L,,2222AT,Katwijk,Katwijk,Zuid-Holland,VBO,4.435793,52.200257
Steenbakkerstraat,6,M,,2222AT,Katwijk,Katwijk,Zuid-Holland,VBO,4.435834,52.200229
Steenbakkerstraat,6,N,,2222AT,Katwijk,Katwijk,Zuid-Holland,VBO,4.435872,52.200200
Steenbakkerstraat,6,O,,2222AT,Katwijk,Katwijk,Zuid-Holland,VBO,4.435919,52.200168
Steenbakkerstraat,6,Q,,2222AT,Katwijk,Katwijk,Zuid-Holland,VBO,4.436001,52.200119
Steenbakkerstraat,6,,,2222AT,Katwijk,Katwijk,Zuid-Holland,VBO,4.435853,52.200064
Steenbakkerstraat,7,,,2222AT,Katwijk,Katwijk,Zuid-Holland,VBO,4.436570,52.199428
Steenbakkerstraat,8,,,2222AT,Katwijk,Katwijk,Zuid-Holland,VBO,4.436839,52.200539
Steenbakkerstraat,10,A,,2222AT,Katwijk,Katwijk,Zuid-Holland,VBO,4.437275,52.200863
Steenbakkerstraat,10,B,,2222AT,Katwijk,Katwijk,Zuid-Holland,VBO,4.437313,52.200947
Steenbakkerstraat,10,C,,2222AT,Katwijk,Katwijk,Zuid-Holland,VBO,4.437292,52.200860
Steenbakkerstraat,10,D,,2222AT,Katwijk,Katwijk,Zuid-Holland,VBO,4.437250,52.200857
Steenbakkerstraat,10,E,,2222AT,Katwijk,Katwijk,Zuid-Holland,VBO,4.437264,52.200856
Steenbakkerstraat,10,F,,2222AT,Katwijk,Katwijk,Zuid-Holland,VBO,4.437220,52.200878
Steenbakkerstraat,10,G,,2222AT,Katwijk,Katwijk,Zuid-Holland,VBO,4.437235,52.200876
Steenbakkerstraat,10,H,,2222AT,Katwijk,Katwijk,Zuid-Holland,VBO,4.437272,52.200884
Steenbakkerstraat,10,,,2222AT,Katwijk,Katwijk,Zuid-Holland,VBO,4.437001,52.200678
Steenbakkerstraat,11,,,2222AT,Katwijk,Katwijk,Zuid-Holland,VBO,4.436426,52.200005
Steenbakkerstraat,12,,,2222AT,Katwijk,Katwijk,Zuid-Holland,VBO,4.437996,52.201159
Steenbakkerstraat,14,,,2222AT,Katwijk,Katwijk,Zuid-Holland,VBO,4.438719,52.201587
Steenbakkerstraat,15,,,2222AT,Katwijk,Katwijk,Zuid-Holland,VBO,4.437263,52.200321
Steenbakkerstraat,17,,,2222AT,Katwijk,Katwijk,Zuid-Holland,VBO,4.437948,52.200709
Steenbakkerstraat,21,,,2222AT,Katwijk,Katwijk,Zuid-Holland,VBO,4.438495,52.201109
Steenbakkerstraat,25,G,,2222AT,Katwijk,Katwijk,Zuid-Holland,VBO,4.438994,52.201440
Steenbakkerstraat,25,T,,2222AT,Katwijk,Katwijk,Zuid-Holland,VBO,4.439106,52.201416
Steenbakkerstraat,25,,,2222AT,Katwijk,Katwijk,Zuid-Holland,VBO,4.438783,52.201271
Steenbakkerstraat,27,,,2222AT,Katwijk,Katwijk,Zuid-Holland,VBO,4.439246,52.201556
Nijverheidstraat,1,,,2222AV,Katwijk,Katwijk,Zuid-Holland,VBO,4.433502,52.205419
Nijverheidstraat,2,,,2222AV,Katwijk,Katwijk,Zuid-Holland,VBO,4.433838,52.206517
Nijverheidstraat,3,,,2222AV,Katwijk,Katwijk,Zuid-Holland,VBO,4.433531,52.204504
Nijverheidstraat,6,,,2222AV,Katwijk,Katwijk,Zuid-Holland,VBO,4.435207,52.205047
Nijverheidstraat,7,,,2222AV,Katwijk,Katwijk,Zuid-Holland,VBO,4.435848,52.204064
Nijverheidstraat,9,,,2222AV,Katwijk,Katwijk,Zuid-Holland,VBO,4.436007,52.203894
Nijverheidstraat,11,,,2222AV,Katwijk,Katwijk,Zuid-Holland,VBO,4.436275,52.203689
Nijverheidstraat,12,,,2222AV,Katwijk,Katwijk,Zuid-Holland,VBO,4.435564,52.204780
Nijverheidstraat,13,,,2222AV,Katwijk,Katwijk,Zuid-Holland,VBO,4.436557,52.203485
Nijverheidstraat,15,,,2222AV,Katwijk,Katwijk,Zuid-Holland,VBO,4.436944,52.203164
Nijverheidstraat,18,,,2222AV,Katwijk,Katwijk,Zuid-Holland,VBO,4.435876,52.204540
Nijverheidstraat,20,,,2222AV,Katwijk,Katwijk,Zuid-Holland,VBO,4.436500,52.204095
Nijverheidstraat,22,,,2222AV,Katwijk,Katwijk,Zuid-Holland,VBO,4.436709,52.203899
Nijverheidstraat,24,,,2222AV,Katwijk,Katwijk,Zuid-Holland,VBO,4.436961,52.203731
Mandenmakerstraat,4,,,2222AX,Katwijk,Katwijk,Zuid-Holland,VBO,4.434830,52.205574
Mandenmakerstraat,5,,,2222AX,Katwijk,Katwijk,Zuid-Holland,VBO,4.435619,52.205598
Mandenmakerstraat,6,,,2222AX,Katwijk,Katwijk,Zuid-Holland,VBO,4.435277,52.205856
Snijderstraat,4,,,2222BA,Katwijk,Katwijk,Zuid-Holland,VBO,4.438483,52.200447
Snijderstraat,5,,,2222BA,Katwijk,Katwijk,Zuid-Holland,VBO,4.438640,52.200305
Snijderstraat,6,,,2222BA,Katwijk,Katwijk,Zuid-Holland,VBO,4.439209,52.200494
Snijderstraat,7,A,,2222BA,Katwijk,Katwijk,Zuid-Holland,VBO,4.438596,52.199980
Snijderstraat,7,B,,2222BA,Katwijk,Katwijk,Zuid-Holland,VBO,4.438483,52.199922
Snijderstraat,7,C,,2222BA,Katwijk,Katwijk,Zuid-Holland,VBO,4.438343,52.199849
Snijderstraat,7,,,2222BA,Katwijk,Katwijk,Zuid-Holland,VBO,4.438833,52.200164
Ververstraat,6,,,2222BB,Katwijk,Katwijk,Zuid-Holland,VBO,4.437877,52.199641
Taanderstraat,2,,,2222BE,Katwijk,Katwijk,Zuid-Holland,VBO,4.432804,52.204728
Taanderstraat,4,,,2222BE,Katwijk,Katwijk,Zuid-Holland,VBO,4.433531,52.204504
Taanderstraat,16,A,,2222BE,Katwijk,Katwijk,Zuid-Holland,VBO,4.434728,52.203276
Taanderstraat,16,B,,2222BE,Katwijk,Katwijk,Zuid-Holland,VBO,4.434836,52.203210
Taanderstraat,16,C,,2222BE,Katwijk,Katwijk,Zuid-Holland,VBO,4.434944,52.203143
Taanderstraat,16,,,2222BE,Katwijk,Katwijk,Zuid-Holland,VBO,4.434622,52.203342
Taanderstraat,18,,,2222BE,Katwijk,Katwijk,Zuid-Holland,VBO,4.435104,52.203024
Taanderstraat,20,,,2222BE,Katwijk,Katwijk,Zuid-Holland,VBO,4.435459,52.202847
Taanderstraat,22,,,2222BE,Katwijk,Katwijk,Zuid-Holland,VBO,4.435855,52.202787
Taanderstraat,1,,,2222BG,Katwijk,Katwijk,Zuid-Holland,VBO,4.431479,52.204909
Taanderstraat,3,,,2222BG,Katwijk,Katwijk,Zuid-Holland,VBO,4.432385,52.204305
Taanderstraat,5,,,2222BG,Katwijk,Katwijk,Zuid-Holland,VBO,4.432563,52.204189
Taanderstraat,7,,,2222BG,Katwijk,Katwijk,Zuid-Holland,VBO,4.432785,52.204038
Taanderstraat,9,A,,2222BG,Katwijk,Katwijk,Zuid-Holland,VBO,4.433437,52.203584
Taanderstraat,9,,,2222BG,Katwijk,Katwijk,Zuid-Holland,VBO,4.433067,52.203852
Taanderstraat,11,,,2222BG,Katwijk,Katwijk,Zuid-Holland,VBO,4.434017,52.203218
Taanderstraat,13,,,2222BG,Katwijk,Katwijk,Zuid-Holland,VBO,4.434624,52.202885
Taanderstraat,17,,,2222BG,Katwijk,Katwijk,Zuid-Holland,VBO,4.434852,52.202473
Taanderstraat,19,,,2222BG,Katwijk,Katwijk,Zuid-Holland,VBO,4.435202,52.202539
Kalkbranderstraat,2,,,2222BH,Katwijk,Katwijk,Zuid-Holland,VBO,4.438682,52.206738
Kalkbranderstraat,4,A,,2222BH,Katwijk,Katwijk,Zuid-Holland,VBO,4.439463,52.206993
Kalkbranderstraat,4,,,2222BH,Katwijk,Katwijk,Zuid-Holland,VBO,4.439703,52.206938
Kalkbranderstraat,5,,,2222BH,Katwijk,Katwijk,Zuid-Holland,VBO,4.439067,52.206525
Kalkbranderstraat,7,,,2222BH,Katwijk,Katwijk,Zuid-Holland,VBO,4.439342,52.206680
Kalkbranderstraat,13,,,2222BH,Katwijk,Katwijk,Zuid-Holland,VBO,4.439815,52.206450
