openbareruimtenaam,huisnummer,huisletter,huisnummertoevoeging,postcode,woonplaatsnaam,gemeentenaam,provincienaam,typeadresseerbaarobject,longitude,latitude
Jan Thijssenweg,2,,,2289AA,Rijswijk,Rijswijk,Zuid-Holland,VBO,4.344076,52.052809
Jan Thijssenweg,6,,,2289AA,Rijswijk,Rijswijk,Zuid-Holland,VBO,4.344772,52.053545
Rotterdamseweg,35,,,2289AC,Rijswijk,Rijswijk,Zuid-Holland,VBO,4.344732,52.049983
Rotterdamseweg,1,,,2289AD,Rijswijk,Rijswijk,Zuid-Holland,VBO,4.344167,52.050646
Rotterdamseweg,4,,,2289AD,Rijswijk,Rijswijk,Zuid-Holland,VBO,4.343671,52.050340
Rotterdamseweg,6,,,2289AD,Rijswijk,Rijswijk,Zuid-Holland,VBO,4.343738,52.050300
Rotterdamseweg,8,,,2289AD,Rijswijk,Rijswijk,Zuid-Holland,VBO,4.343807,52.050260
Rotterdamseweg,10,,,2289AD,Rijswijk,Rijswijk,Zuid-Holland,VBO,4.343878,52.050217
Rotterdamseweg,12,,,2289AD,Rijswijk,Rijswijk,Zuid-Holland,VBO,4.343946,52.050177
Rotterdamseweg,14,,,2289AD,Rijswijk,Rijswijk,Zuid-Holland,VBO,4.344014,52.050136
Rotterdamseweg,16,,,2289AD,Rijswijk,Rijswijk,Zuid-Holland,VBO,4.344081,52.050096
Rotterdamseweg,18,,,2289AD,Rijswijk,Rijswijk,Zuid-Holland,VBO,4.344150,52.050056
Rotterdamseweg,20,,,2289AD,Rijswijk,Rijswijk,Zuid-Holland,VBO,4.344220,52.050014
Rotterdamseweg,22,,,2289AD,Rijswijk,Rijswijk,Zuid-Holland,VBO,4.344288,52.049973
Rotterdamseweg,24,,,2289AD,Rijswijk,Rijswijk,Zuid-Holland,VBO,4.344356,52.049933
Rotterdamseweg,26,,,2289AD,Rijswijk,Rijswijk,Zuid-Holland,VBO,4.344424,52.049892
Rotterdamseweg,28,a,,2289AD,Rijswijk,Rijswijk,Zuid-Holland,VBO,4.344403,52.049777
Rotterdamseweg,28,b,,2289AD,Rijswijk,Rijswijk,Zuid-Holland,VBO,4.344401,52.049715
Rotterdamseweg,28,c,,2289AD,Rijswijk,Rijswijk,Zuid-Holland,VBO,4.344398,52.049675
Rotterdamseweg,28,d,,2289AD,Rijswijk,Rijswijk,Zuid-Holland,VBO,4.344464,52.049674
Rotterdamseweg,28,e,,2289AD,Rijswijk,Rijswijk,Zuid-Holland,VBO,4.344463,52.049636
Rotterdamseweg,28,f,,2289AD,Rijswijk,Rijswijk,Zuid-Holland,VBO,4.344524,52.049637
Rotterdamseweg,28,g,,2289AD,Rijswijk,Rijswijk,Zuid-Holland,VBO,4.344525,52.049595
Rotterdamseweg,28,h,,2289AD,Rijswijk,Rijswijk,Zuid-Holland,VBO,4.344588,52.049596
Rotterdamseweg,28,i,,2289AD,Rijswijk,Rijswijk,Zuid-Holland,VBO,4.344580,52.049557
Rotterdamseweg,28,j,,2289AD,Rijswijk,Rijswijk,Zuid-Holland,VBO,4.344649,52.049560
Rotterdamseweg,28,k,,2289AD,Rijswijk,Rijswijk,Zuid-Holland,VBO,4.344650,52.049516
Rotterdamseweg,28,l,,2289AD,Rijswijk,Rijswijk,Zuid-Holland,VBO,4.344705,52.049522
Rotterdamseweg,28,m,,2289AD,Rijswijk,Rijswijk,Zuid-Holland,VBO,4.344729,52.049506
Rotterdamseweg,28,n,,2289AD,Rijswijk,Rijswijk,Zuid-Holland,VBO,4.344779,52.049482
Rotterdamseweg,28,o,,2289AD,Rijswijk,Rijswijk,Zuid-Holland,VBO,4.344772,52.049440
Rotterdamseweg,28,p,,2289AD,Rijswijk,Rijswijk,Zuid-Holland,VBO,4.344842,52.049443
Rotterdamseweg,28,q,,2289AD,Rijswijk,Rijswijk,Zuid-Holland,VBO,4.344856,52.049430
Rotterdamseweg,28,r,,2289AD,Rijswijk,Rijswijk,Zuid-Holland,VBO,4.344903,52.049406
Rotterdamseweg,28,s,,2289AD,Rijswijk,Rijswijk,Zuid-Holland,VBO,4.344897,52.049362
Rotterdamseweg,28,t,,2289AD,Rijswijk,Rijswijk,Zuid-Holland,VBO,4.344961,52.049361
Rotterdamseweg,28,u,,2289AD,Rijswijk,Rijswijk,Zuid-Holland,VBO,4.345030,52.049438
Rotterdamseweg,28,v,,2289AD,Rijswijk,Rijswijk,Zuid-Holland,VBO,4.345036,52.049483
Rotterdamseweg,28,w,,2289AD,Rijswijk,Rijswijk,Zuid-Holland,VBO,4.344964,52.049479
Rotterdamseweg,28,x,,2289AD,Rijswijk,Rijswijk,Zuid-Holland,VBO,4.344974,52.049523
Rotterdamseweg,28,y,,2289AD,Rijswijk,Rijswijk,Zuid-Holland,VBO,4.344909,52.049520
Rotterdamseweg,28,,,2289AD,Rijswijk,Rijswijk,Zuid-Holland,VBO,4.344457,52.049818
Rotterdamseweg,30,,,2289AE,Rijswijk,Rijswijk,Zuid-Holland,VBO,4.344732,52.049983
Rotterdamseweg,32,,,2289AE,Rijswijk,Rijswijk,Zuid-Holland,VBO,4.344732,52.049983
Rotterdamseweg,34,,,2289AE,Rijswijk,Rijswijk,Zuid-Holland,VBO,4.344732,52.049983
Rotterdamseweg,36,,,2289AE,Rijswijk,Rijswijk,Zuid-Holland,VBO,4.344732,52.049983
Rotterdamseweg,38,,,2289AE,Rijswijk,Rijswijk,Zuid-Holland,VBO,4.344732,52.049983
Rotterdamseweg,40,,,2289AE,Rijswijk,Rijswijk,Zuid-Holland,VBO,4.344732,52.049983
Rotterdamseweg,42,,,2289AE,Rijswijk,Rijswijk,Zuid-Holland,VBO,4.344732,52.049983
Rotterdamseweg,44,,,2289AE,Rijswijk,Rijswijk,Zuid-Holland,VBO,4.344732,52.049983
Rotterdamseweg,46,,,2289AE,Rijswijk,Rijswijk,Zuid-Holland,VBO,4.344732,52.049983
Rotterdamseweg,48,,,2289AE,Rijswijk,Rijswijk,Zuid-Holland,VBO,4.344732,52.049983
Rotterdamseweg,50,,,2289AG,Rijswijk,Rijswijk,Zuid-Holland,VBO,4.344732,52.049983
Rotterdamseweg,52,,,2289AG,Rijswijk,Rijswijk,Zuid-Holland,VBO,4.344732,52.049983
Rotterdamseweg,54,,,2289AG,Rijswijk,Rijswijk,Zuid-Holland,VBO,4.344732,52.049983
Rotterdamseweg,56,,,2289AG,Rijswijk,Rijswijk,Zuid-Holland,VBO,4.344732,52.049983
Rotterdamseweg,58,,,2289AG,Rijswijk,Rijswijk,Zuid-Holland,VBO,4.344732,52.049983
Rotterdamseweg,60,,,2289AG,Rijswijk,Rijswijk,Zuid-Holland,VBO,4.344732,52.049983
Rotterdamseweg,62,,,2289AG,Rijswijk,Rijswijk,Zuid-Holland,VBO,4.344732,52.049983
Rotterdamseweg,64,,,2289AG,Rijswijk,Rijswijk,Zuid-Holland,VBO,4.344732,52.049983
Rotterdamseweg,66,,,2289AG,Rijswijk,Rijswijk,Zuid-Holland,VBO,4.344732,52.049983
Rotterdamseweg,68,,,2289AG,Rijswijk,Rijswijk,Zuid-Holland,VBO,4.344732,52.049983
Delftweg,1,,01,2289AH,Rijswijk,Rijswijk,Zuid-Holland,VBO,4.343527,52.051251
Delftweg,1,,02,2289AH,Rijswijk,Rijswijk,Zuid-Holland,VBO,4.343290,52.051434
Delftweg,1,,,2289AH,Rijswijk,Rijswijk,Zuid-Holland,VBO,4.343518,52.050085
Delftweg,8,,,2289AH,Rijswijk,Rijswijk,Zuid-Holland,VBO,4.343528,52.049413
Delftweg,9,,,2289AH,Rijswijk,Rijswijk,Zuid-Holland,VBO,4.343805,52.049435
Delftweg,10,,,2289AH,Rijswijk,Rijswijk,Zuid-Holland,VBO,4.343682,52.049339
Delftweg,11,,,2289AH,Rijswijk,Rijswijk,Zuid-Holland,VBO,4.343693,52.049277
Delftweg,12,,,2289AH,Rijswijk,Rijswijk,Zuid-Holland,VBO,4.343704,52.049218
Delftweg,13,,,2289AH,Rijswijk,Rijswijk,Zuid-Holland,VBO,4.343715,52.049157
Delftweg,14,,,2289AJ,Rijswijk,Rijswijk,Zuid-Holland,VBO,4.343736,52.049045
Delftweg,15,,,2289AJ,Rijswijk,Rijswijk,Zuid-Holland,VBO,4.343748,52.048983
Delftweg,16,,,2289AJ,Rijswijk,Rijswijk,Zuid-Holland,VBO,4.343759,52.048921
Delftweg,17,,,2289AJ,Rijswijk,Rijswijk,Zuid-Holland,VBO,4.343771,52.048859
Delftweg,18,,,2289AJ,Rijswijk,Rijswijk,Zuid-Holland,VBO,4.343783,52.048797
Delftweg,19,,,2289AJ,Rijswijk,Rijswijk,Zuid-Holland,VBO,4.343774,52.048737
Delftweg,20,,,2289AJ,Rijswijk,Rijswijk,Zuid-Holland,VBO,4.343811,52.048633
Delftweg,21,,,2289AK,Rijswijk,Rijswijk,Zuid-Holland,VBO,4.343826,52.048545
Delftweg,22,,,2289AK,Rijswijk,Rijswijk,Zuid-Holland,VBO,4.343837,52.048432
Delftweg,23,,,2289AK,Rijswijk,Rijswijk,Zuid-Holland,VBO,4.343841,52.048371
Delftweg,24,,,2289AK,Rijswijk,Rijswijk,Zuid-Holland,VBO,4.343844,52.048310
Delftweg,25,a,,2289AK,Rijswijk,Rijswijk,Zuid-Holland,VBO,4.344209,52.048269
Delftweg,25,b,,2289AK,Rijswijk,Rijswijk,Zuid-Holland,VBO,4.344240,52.048252
Delftweg,25,c,,2289AK,Rijswijk,Rijswijk,Zuid-Holland,VBO,4.344272,52.048234
Delftweg,25,d,,2289AK,Rijswijk,Rijswijk,Zuid-Holland,VBO,4.344301,52.048216
Delftweg,25,e,,2289AK,Rijswijk,Rijswijk,Zuid-Holland,VBO,4.344332,52.048199
Delftweg,25,f,,2289AK,Rijswijk,Rijswijk,Zuid-Holland,VBO,4.344302,52.048109
Delftweg,25,g,,2289AK,Rijswijk,Rijswijk,Zuid-Holland,VBO,4.344262,52.048119
Delftweg,25,h,,2289AK,Rijswijk,Rijswijk,Zuid-Holland,VBO,4.344232,52.048059
Delftweg,25,i,,2289AK,Rijswijk,Rijswijk,Zuid-Holland,VBO,4.344212,52.048038
Delftweg,25,j,,2289AK,Rijswijk,Rijswijk,Zuid-Holland,VBO,4.344189,52.048015
Delftweg,25,,,2289AK,Rijswijk,Rijswijk,Zuid-Holland,VBO,4.343848,52.048248
Delftweg,26,,,2289AK,Rijswijk,Rijswijk,Zuid-Holland,VBO,4.343853,52.048157
Delftweg,27,,,2289AK,Rijswijk,Rijswijk,Zuid-Holland,VBO,4.343856,52.048094
Delftweg,28,,,2289AK,Rijswijk,Rijswijk,Zuid-Holland,VBO,4.343860,52.048031
Delftweg,29,,,2289AK,Rijswijk,Rijswijk,Zuid-Holland,VBO,4.343864,52.047967
Delftweg,30,,,2289AK,Rijswijk,Rijswijk,Zuid-Holland,VBO,4.343883,52.047884
Delftweg,31,,,2289AK,Rijswijk,Rijswijk,Zuid-Holland,VBO,4.343887,52.047806
Delftweg,32,,,2289AL,Rijswijk,Rijswijk,Zuid-Holland,VBO,4.343706,52.047567
Delftweg,34,a,,2289AL,Rijswijk,Rijswijk,Zuid-Holland,VBO,4.344037,52.046566
Delftweg,34,b,,2289AL,Rijswijk,Rijswijk,Zuid-Holland,VBO,4.344037,52.046566
Delftweg,34,c,,2289AL,Rijswijk,Rijswijk,Zuid-Holland,VBO,4.344037,52.046566
Delftweg,35,a,,2289AL,Rijswijk,Rijswijk,Zuid-Holland,VBO,4.344758,52.045770
Delftweg,35,b,,2289AL,Rijswijk,Rijswijk,Zuid-Holland,VBO,4.344758,52.045770
Delftweg,35,c,,2289AL,Rijswijk,Rijswijk,Zuid-Holland,VBO,4.344758,52.045770
Delftweg,35,d,,2289AL,Rijswijk,Rijswijk,Zuid-Holland,VBO,4.344758,52.045770
Delftweg,35,e,,2289AL,Rijswijk,Rijswijk,Zuid-Holland,VBO,4.344758,52.045770
Delftweg,35,f,,2289AL,Rijswijk,Rijswijk,Zuid-Holland,VBO,4.344758,52.045770
Delftweg,35,h,,2289AL,Rijswijk,Rijswijk,Zuid-Holland,VBO,4.344800,52.045774
Delftweg,35,j,,2289AL,Rijswijk,Rijswijk,Zuid-Holland,VBO,4.344804,52.045803
Delftweg,35,k,,2289AL,Rijswijk,Rijswijk,Zuid-Holland,VBO,4.344804,52.045803
Delftweg,35,m,,2289AL,Rijswijk,Rijswijk,Zuid-Holland,VBO,4.344824,52.045823
Delftweg,35,n,,2289AL,Rijswijk,Rijswijk,Zuid-Holland,VBO,4.344824,52.045823
Delftweg,35,o,,2289AL,Rijswijk,Rijswijk,Zuid-Holland,VBO,4.345015,52.045948
Delftweg,35,p,,2289AL,Rijswijk,Rijswijk,Zuid-Holland,VBO,4.345015,52.045948
Delftweg,35,q,,2289AL,Rijswijk,Rijswijk,Zuid-Holland,VBO,4.345015,52.045948
Delftweg,35,r,,2289AL,Rijswijk,Rijswijk,Zuid-Holland,VBO,4.345015,52.045948
Delftweg,35,s,,2289AL,Rijswijk,Rijswijk,Zuid-Holland,VBO,4.345015,52.045948
Delftweg,35,t,,2289AL,Rijswijk,Rijswijk,Zuid-Holland,VBO,4.345015,52.045948
Delftweg,35,u,,2289AL,Rijswijk,Rijswijk,Zuid-Holland,VBO,4.345015,52.045948
Delftweg,35,v,,2289AL,Rijswijk,Rijswijk,Zuid-Holland,VBO,4.345015,52.045948
Delftweg,35,w,,2289AL,Rijswijk,Rijswijk,Zuid-Holland,VBO,4.345015,52.045948
Delftweg,35,x,,2289AL,Rijswijk,Rijswijk,Zuid-Holland,VBO,4.345015,52.045948
Delftweg,35,y,,2289AL,Rijswijk,Rijswijk,Zuid-Holland,VBO,4.345015,52.045948
Delftweg,35,z,,2289AL,Rijswijk,Rijswijk,Zuid-Holland,VBO,4.345015,52.045948
Delftweg,36,a,,2289AL,Rijswijk,Rijswijk,Zuid-Holland,VBO,4.344594,52.045245
Delftweg,36,,,2289AL,Rijswijk,Rijswijk,Zuid-Holland,VBO,4.344257,52.045126
Delftweg,38,,,2289AL,Rijswijk,Rijswijk,Zuid-Holland,VBO,4.345213,52.044292
Delftweg,39,,,2289AL,Rijswijk,Rijswijk,Zuid-Holland,VBO,4.345135,52.044337
Delftweg,40,,,2289AL,Rijswijk,Rijswijk,Zuid-Holland,VBO,4.345059,52.044381
Delftweg,41,,,2289AL,Rijswijk,Rijswijk,Zuid-Holland,VBO,4.344996,52.044416
Delftweg,42,,,2289AL,Rijswijk,Rijswijk,Zuid-Holland,VBO,4.344904,52.044469
Delftweg,43,,,2289AL,Rijswijk,Rijswijk,Zuid-Holland,VBO,4.344827,52.044513
Delftweg,44,,,2289AL,Rijswijk,Rijswijk,Zuid-Holland,VBO,4.344602,52.044612
Delftweg,45,,,2289AL,Rijswijk,Rijswijk,Zuid-Holland,VBO,4.344550,52.044482
Delftweg,46,,,2289AL,Rijswijk,Rijswijk,Zuid-Holland,VBO,4.344564,52.044413
Delftweg,47,,,2289AL,Rijswijk,Rijswijk,Zuid-Holland,VBO,4.344577,52.044344
Delftweg,48,,,2289AL,Rijswijk,Rijswijk,Zuid-Holland,VBO,4.344591,52.044276
Delftweg,50,,,2289AL,Rijswijk,Rijswijk,Zuid-Holland,VBO,4.344720,52.043103
Delftweg,52,,,2289AL,Rijswijk,Rijswijk,Zuid-Holland,VBO,4.345540,52.040243
Delftweg,53,,,2289AL,Rijswijk,Rijswijk,Zuid-Holland,VBO,4.345546,52.040197
Delftweg,54,,,2289AL,Rijswijk,Rijswijk,Zuid-Holland,VBO,4.345553,52.040152
Delftweg,58,a,,2289AL,Rijswijk,Rijswijk,Zuid-Holland,VBO,4.345819,52.037052
Delftweg,58,b,,2289AL,Rijswijk,Rijswijk,Zuid-Holland,VBO,4.346316,52.036925
Delftweg,58,d,,2289AL,Rijswijk,Rijswijk,Zuid-Holland,VBO,4.346293,52.036702
Delftweg,58,,,2289AL,Rijswijk,Rijswijk,Zuid-Holland,VBO,4.345712,52.037143
Delftweg,59,,,2289AL,Rijswijk,Rijswijk,Zuid-Holland,VBO,4.350625,52.033565
Laantje van Braskamp,1,,,2289AM,Rijswijk,Rijswijk,Zuid-Holland,VBO,4.343826,52.049775
Laantje van Braskamp,2,,,2289AM,Rijswijk,Rijswijk,Zuid-Holland,VBO,4.343826,52.049775
Laantje van Braskamp,4,,,2289AM,Rijswijk,Rijswijk,Zuid-Holland,VBO,4.343826,52.049775
Laantje van Braskamp,5,,,2289AM,Rijswijk,Rijswijk,Zuid-Holland,VBO,4.343826,52.049775
Laantje van Braskamp,6,,,2289AM,Rijswijk,Rijswijk,Zuid-Holland,VBO,4.343826,52.049775
Laantje van Braskamp,7,,,2289AM,Rijswijk,Rijswijk,Zuid-Holland,VBO,4.343826,52.049775
Laantje van Braskamp,8,,,2289AM,Rijswijk,Rijswijk,Zuid-Holland,VBO,4.343831,52.049738
Delftweg,61,d,,2289BA,Rijswijk,Rijswijk,Zuid-Holland,VBO,4.346048,52.035158
Delftweg,61,,,2289BA,Rijswijk,Rijswijk,Zuid-Holland,VBO,4.346008,52.035384
Delftweg,62,,,2289BA,Rijswijk,Rijswijk,Zuid-Holland,VBO,4.346118,52.034802
Delftweg,65,,,2289BA,Rijswijk,Rijswijk,Zuid-Holland,VBO,4.346242,52.034136
Delftweg,66,b,,2289BA,Rijswijk,Rijswijk,Zuid-Holland,VBO,4.346129,52.033874
Delftweg,66,,,2289BA,Rijswijk,Rijswijk,Zuid-Holland,VBO,4.346237,52.034092
Delftweg,67,,,2289BA,Rijswijk,Rijswijk,Zuid-Holland,VBO,4.346407,52.033914
Delftweg,68,,,2289BA,Rijswijk,Rijswijk,Zuid-Holland,VBO,4.346426,52.033815
Delftweg,69,a,,2289BA,Rijswijk,Rijswijk,Zuid-Holland,VBO,4.346500,52.033819
Delftweg,69,,,2289BA,Rijswijk,Rijswijk,Zuid-Holland,VBO,4.346466,52.033794
Delftweg,70,,,2289BA,Rijswijk,Rijswijk,Zuid-Holland,VBO,4.346506,52.033770
Delftweg,71,,,2289BA,Rijswijk,Rijswijk,Zuid-Holland,VBO,4.346967,52.033577
Delftweg,72,,,2289BA,Rijswijk,Rijswijk,Zuid-Holland,VBO,4.347045,52.033436
Delftweg,73,b,,2289BA,Rijswijk,Rijswijk,Zuid-Holland,VBO,4.347141,52.033102
Delftweg,73,c,,2289BA,Rijswijk,Rijswijk,Zuid-Holland,VBO,4.346785,52.033281
Delftweg,73,d,,2289BA,Rijswijk,Rijswijk,Zuid-Holland,VBO,4.346785,52.033281
Delftweg,73,,,2289BA,Rijswijk,Rijswijk,Zuid-Holland,VBO,4.346118,52.034802
Delftweg,75,,,2289BB,Rijswijk,Rijswijk,Zuid-Holland,VBO,4.346424,52.032603
Delftweg,76,,,2289BB,Rijswijk,Rijswijk,Zuid-Holland,VBO,4.346435,52.032539
Delftweg,79,,,2289BB,Rijswijk,Rijswijk,Zuid-Holland,VBO,4.346980,52.029335
Delftweg,81,a,,2289BB,Rijswijk,Rijswijk,Zuid-Holland,VBO,4.347025,52.029036
Delftweg,81,b,,2289BB,Rijswijk,Rijswijk,Zuid-Holland,VBO,4.347159,52.029043
Delftweg,81,c,,2289BB,Rijswijk,Rijswijk,Zuid-Holland,VBO,4.347085,52.028582
Delftweg,81,d,,2289BB,Rijswijk,Rijswijk,Zuid-Holland,VBO,4.347219,52.028588
Delftweg,81,e,,2289BB,Rijswijk,Rijswijk,Zuid-Holland,VBO,4.347003,52.028348
Delftweg,83,,,2289BB,Rijswijk,Rijswijk,Zuid-Holland,VBO,4.347118,52.028124
Delftweg,85,,,2289BB,Rijswijk,Rijswijk,Zuid-Holland,VBO,4.347132,52.028020
Delftweg,87,,,2289BB,Rijswijk,Rijswijk,Zuid-Holland,VBO,4.347186,52.027880
Delftweg,89,,,2289BB,Rijswijk,Rijswijk,Zuid-Holland,VBO,4.347206,52.027725
Delftweg,90,,,2289BB,Rijswijk,Rijswijk,Zuid-Holland,VBO,4.347215,52.027670
Delftweg,91,,,2289BB,Rijswijk,Rijswijk,Zuid-Holland,VBO,4.347224,52.027613
Delftweg,92,,,2289BB,Rijswijk,Rijswijk,Zuid-Holland,VBO,4.347233,52.027561
Delftweg,93,,,2289BB,Rijswijk,Rijswijk,Zuid-Holland,VBO,4.347235,52.027475
Delftweg,95,,,2289BB,Rijswijk,Rijswijk,Zuid-Holland,VBO,4.347232,52.027415
Delftweg,96,,,2289BB,Rijswijk,Rijswijk,Zuid-Holland,VBO,4.347239,52.027356
Delftweg,97,,,2289BB,Rijswijk,Rijswijk,Zuid-Holland,VBO,4.347292,52.027279
Delftweg,103,,,2289BC,Rijswijk,Rijswijk,Zuid-Holland,VBO,4.347384,52.026898
Delftweg,106,,,2289BC,Rijswijk,Rijswijk,Zuid-Holland,VBO,4.347494,52.025902
Delftweg,107,,,2289BC,Rijswijk,Rijswijk,Zuid-Holland,VBO,4.347501,52.025850
Delftweg,108,,,2289BC,Rijswijk,Rijswijk,Zuid-Holland,VBO,4.347508,52.025807
Delftweg,109,,,2289BC,Rijswijk,Rijswijk,Zuid-Holland,VBO,4.347514,52.025765
Delftweg,110,,,2289BC,Rijswijk,Rijswijk,Zuid-Holland,VBO,4.347519,52.025715
Delftweg,111,,,2289BC,Rijswijk,Rijswijk,Zuid-Holland,VBO,4.347528,52.025671
Delftweg,112,,,2289BC,Rijswijk,Rijswijk,Zuid-Holland,VBO,4.347537,52.025607
Delftweg,113,,,2289BC,Rijswijk,Rijswijk,Zuid-Holland,VBO,4.347544,52.025551
Delftweg,114,,,2289BC,Rijswijk,Rijswijk,Zuid-Holland,VBO,4.347550,52.025501
Delftweg,115,,,2289BC,Rijswijk,Rijswijk,Zuid-Holland,VBO,4.347557,52.025460
Delftweg,116,,,2289BC,Rijswijk,Rijswijk,Zuid-Holland,VBO,4.347562,52.025404
Delftweg,117,,,2289BC,Rijswijk,Rijswijk,Zuid-Holland,VBO,4.347569,52.025342
Delftweg,118,,,2289BC,Rijswijk,Rijswijk,Zuid-Holland,VBO,4.347576,52.025278
Delftweg,119,,,2289BC,Rijswijk,Rijswijk,Zuid-Holland,VBO,4.347582,52.025226
Delftweg,120,,,2289BC,Rijswijk,Rijswijk,Zuid-Holland,VBO,4.347589,52.025176
Delftweg,121,,,2289BC,Rijswijk,Rijswijk,Zuid-Holland,VBO,4.347580,52.025032
Delftweg,122,,,2289BC,Rijswijk,Rijswijk,Zuid-Holland,VBO,4.347581,52.024972
Delftweg,126,,,2289BD,Rijswijk,Rijswijk,Zuid-Holland,VBO,4.347584,52.024622
Delftweg,128,,,2289BD,Rijswijk,Rijswijk,Zuid-Holland,VBO,4.347684,52.024363
Delftweg,129,,,2289BD,Rijswijk,Rijswijk,Zuid-Holland,VBO,4.347701,52.024319
Delftweg,130,,,2289BD,Rijswijk,Rijswijk,Zuid-Holland,VBO,4.347715,52.024280
Delftweg,131,,,2289BD,Rijswijk,Rijswijk,Zuid-Holland,VBO,4.347721,52.024239
Delftweg,132,,,2289BD,Rijswijk,Rijswijk,Zuid-Holland,VBO,4.347751,52.024125
Delftweg,133,,,2289BD,Rijswijk,Rijswijk,Zuid-Holland,VBO,4.347758,52.023964
Delftweg,134,,,2289BD,Rijswijk,Rijswijk,Zuid-Holland,VBO,4.347865,52.023889
Delftweg,135,,,2289BD,Rijswijk,Rijswijk,Zuid-Holland,VBO,4.347889,52.023834
Delftweg,136,,,2289BD,Rijswijk,Rijswijk,Zuid-Holland,VBO,4.347912,52.023780
Delftweg,137,,,2289BD,Rijswijk,Rijswijk,Zuid-Holland,VBO,4.347936,52.023725
Delftweg,138,,,2289BD,Rijswijk,Rijswijk,Zuid-Holland,VBO,4.347959,52.023671
Delftweg,139,,,2289BD,Rijswijk,Rijswijk,Zuid-Holland,VBO,4.347899,52.023603
Delftweg,140,,,2289BD,Rijswijk,Rijswijk,Zuid-Holland,VBO,4.347922,52.023549
Delftweg,141,,,2289BD,Rijswijk,Rijswijk,Zuid-Holland,VBO,4.347997,52.023478
Delftweg,142,,,2289BD,Rijswijk,Rijswijk,Zuid-Holland,VBO,4.348031,52.023401
Delftweg,143,,,2289BD,Rijswijk,Rijswijk,Zuid-Holland,VBO,4.348024,52.023312
Delftweg,144,,,2289BD,Rijswijk,Rijswijk,Zuid-Holland,VBO,4.348059,52.023230
Delftweg,145,,,2289BD,Rijswijk,Rijswijk,Zuid-Holland,VBO,4.348092,52.023154
Delftweg,146,,,2289BD,Rijswijk,Rijswijk,Zuid-Holland,VBO,4.348129,52.023055
Delftweg,147,,,2289BD,Rijswijk,Rijswijk,Zuid-Holland,VBO,4.348152,52.022995
Delftweg,148,,,2289BD,Rijswijk,Rijswijk,Zuid-Holland,VBO,4.348247,52.022880
Delftweg,149,,,2289BD,Rijswijk,Rijswijk,Zuid-Holland,VBO,4.348247,52.022880
Delftweg,150,,,2289BD,Rijswijk,Rijswijk,Zuid-Holland,VBO,4.348247,52.022880
Broekmolenweg,1,,,2289BE,Rijswijk,Rijswijk,Zuid-Holland,VBO,4.347517,52.026553
Broekmolenweg,2,,,2289BE,Rijswijk,Rijswijk,Zuid-Holland,VBO,4.347642,52.026135
Broekmolenweg,3,,,2289BE,Rijswijk,Rijswijk,Zuid-Holland,VBO,4.347585,52.026515
Broekmolenweg,4,a,,2289BE,Rijswijk,Rijswijk,Zuid-Holland,VBO,4.347868,52.026018
Broekmolenweg,4,b,,2289BE,Rijswijk,Rijswijk,Zuid-Holland,VBO,4.347935,52.025979
Broekmolenweg,4,c,,2289BE,Rijswijk,Rijswijk,Zuid-Holland,VBO,4.348002,52.025940
Broekmolenweg,5,,,2289BE,Rijswijk,Rijswijk,Zuid-Holland,VBO,4.347741,52.026427
Broekmolenweg,6,,,2289BE,Rijswijk,Rijswijk,Zuid-Holland,VBO,4.348467,52.025658
Broekmolenweg,7,,,2289BE,Rijswijk,Rijswijk,Zuid-Holland,VBO,4.347811,52.026388
Broekmolenweg,8,,,2289BE,Rijswijk,Rijswijk,Zuid-Holland,VBO,4.348526,52.025624
Broekmolenweg,9,a,,2289BE,Rijswijk,Rijswijk,Zuid-Holland,VBO,4.348119,52.026177
Broekmolenweg,9,,,2289BE,Rijswijk,Rijswijk,Zuid-Holland,VBO,4.347931,52.026299
Broekmolenweg,10,,,2289BE,Rijswijk,Rijswijk,Zuid-Holland,VBO,4.348583,52.025590
Broekmolenweg,11,,,2289BE,Rijswijk,Rijswijk,Zuid-Holland,VBO,4.348288,52.026080
Broekmolenweg,12,,,2289BE,Rijswijk,Rijswijk,Zuid-Holland,VBO,4.348641,52.025556
Broekmolenweg,13,,,2289BE,Rijswijk,Rijswijk,Zuid-Holland,VBO,4.348423,52.026005
Broekmolenweg,15,,,2289BE,Rijswijk,Rijswijk,Zuid-Holland,VBO,4.348505,52.025955
Broekmolenweg,16,,,2289BE,Rijswijk,Rijswijk,Zuid-Holland,VBO,4.348987,52.025316
Broekmolenweg,17,,,2289BE,Rijswijk,Rijswijk,Zuid-Holland,VBO,4.348635,52.025877
Broekmolenweg,18,a,,2289BE,Rijswijk,Rijswijk,Zuid-Holland,VBO,4.349142,52.025074
Broekmolenweg,18,,,2289BE,Rijswijk,Rijswijk,Zuid-Holland,VBO,4.348987,52.025316
Broekmolenweg,19,,,2289BE,Rijswijk,Rijswijk,Zuid-Holland,VBO,4.349191,52.025899
Broekmolenweg,20,a,,2289BE,Rijswijk,Rijswijk,Zuid-Holland,VBO,4.349722,52.024849
Broekmolenweg,20,b,,2289BE,Rijswijk,Rijswijk,Zuid-Holland,VBO,4.349722,52.024849
Broekmolenweg,20,c,,2289BE,Rijswijk,Rijswijk,Zuid-Holland,VBO,4.349722,52.024849
Broekmolenweg,20,d,,2289BE,Rijswijk,Rijswijk,Zuid-Holland,VBO,4.349722,52.024849
Broekmolenweg,20,e,,2289BE,Rijswijk,Rijswijk,Zuid-Holland,VBO,4.349722,52.024849
Broekmolenweg,20,,,2289BE,Rijswijk,Rijswijk,Zuid-Holland,VBO,4.349722,52.024849
Broekmolenweg,21,,,2289BE,Rijswijk,Rijswijk,Zuid-Holland,VBO,4.349604,52.025505
Broekmolenweg,22,,,2289BE,Rijswijk,Rijswijk,Zuid-Holland,VBO,4.349643,52.023380
Broekmolenweg,23,,,2289BE,Rijswijk,Rijswijk,Zuid-Holland,VBO,4.349974,52.025762
Broekmolenweg,25,,,2289BE,Rijswijk,Rijswijk,Zuid-Holland,VBO,4.350360,52.026137
Delftweg,151,,,2289BG,Rijswijk,Rijswijk,Zuid-Holland,VBO,4.348247,52.022880
Delftweg,152,,,2289BG,Rijswijk,Rijswijk,Zuid-Holland,VBO,4.348247,52.022880
Delftweg,153,,,2289BG,Rijswijk,Rijswijk,Zuid-Holland,VBO,4.348247,52.022880
Delftweg,154,,,2289BG,Rijswijk,Rijswijk,Zuid-Holland,VBO,4.348247,52.022880
Delftweg,155,,,2289BG,Rijswijk,Rijswijk,Zuid-Holland,VBO,4.348247,52.022880
Delftweg,156,,,2289BG,Rijswijk,Rijswijk,Zuid-Holland,VBO,4.348247,52.022880
Delftweg,157,,,2289BG,Rijswijk,Rijswijk,Zuid-Holland,VBO,4.348247,52.022880
Delftweg,158,,,2289BG,Rijswijk,Rijswijk,Zuid-Holland,VBO,4.348247,52.022880
Delftweg,159,,,2289BG,Rijswijk,Rijswijk,Zuid-Holland,VBO,4.348247,52.022880
Delftweg,160,,,2289BG,Rijswijk,Rijswijk,Zuid-Holland,VBO,4.348247,52.022880
Delftweg,161,,,2289BG,Rijswijk,Rijswijk,Zuid-Holland,VBO,4.348247,52.022880
Delftweg,162,,,2289BG,Rijswijk,Rijswijk,Zuid-Holland,VBO,4.348247,52.022880
Delftweg,163,,,2289BG,Rijswijk,Rijswijk,Zuid-Holland,VBO,4.348247,52.022880
Delftweg,164,,,2289BG,Rijswijk,Rijswijk,Zuid-Holland,VBO,4.348247,52.022880
Delftweg,165,,,2289BG,Rijswijk,Rijswijk,Zuid-Holland,VBO,4.348247,52.022880
Delftweg,166,,,2289BG,Rijswijk,Rijswijk,Zuid-Holland,VBO,4.348247,52.022880
Delftweg,167,,,2289BG,Rijswijk,Rijswijk,Zuid-Holland,VBO,4.348247,52.022880
Delftweg,168,,,2289BG,Rijswijk,Rijswijk,Zuid-Holland,VBO,4.348247,52.022880
Delftweg,169,,,2289BG,Rijswijk,Rijswijk,Zuid-Holland,VBO,4.348247,52.022880
Delftweg,170,,,2289BG,Rijswijk,Rijswijk,Zuid-Holland,VBO,4.348247,52.022880
Delftweg,171,,,2289BG,Rijswijk,Rijswijk,Zuid-Holland,VBO,4.348247,52.022880
Delftweg,172,,,2289BG,Rijswijk,Rijswijk,Zuid-Holland,VBO,4.348247,52.022880
Delftweg,173,,,2289BG,Rijswijk,Rijswijk,Zuid-Holland,VBO,4.348247,52.022880
Pauwhof,1,,,2289BH,Rijswijk,Rijswijk,Zuid-Holland,VBO,4.350255,52.024495
Pauwhof,2,,,2289BH,Rijswijk,Rijswijk,Zuid-Holland,VBO,4.350190,52.024533
Pauwhof,3,,,2289BH,Rijswijk,Rijswijk,Zuid-Holland,VBO,4.350255,52.024495
Pauwhof,4,,,2289BH,Rijswijk,Rijswijk,Zuid-Holland,VBO,4.350190,52.024533
Pauwhof,5,,,2289BH,Rijswijk,Rijswijk,Zuid-Holland,VBO,4.350255,52.024495
Pauwhof,6,,,2289BH,Rijswijk,Rijswijk,Zuid-Holland,VBO,4.350190,52.024533
Pauwhof,7,,,2289BH,Rijswijk,Rijswijk,Zuid-Holland,VBO,4.350255,52.024495
Pauwhof,8,,,2289BH,Rijswijk,Rijswijk,Zuid-Holland,VBO,4.350190,52.024533
Pauwhof,9,,,2289BH,Rijswijk,Rijswijk,Zuid-Holland,VBO,4.350255,52.024495
Pauwhof,10,,,2289BH,Rijswijk,Rijswijk,Zuid-Holland,VBO,4.350190,52.024533
Pauwhof,11,,,2289BH,Rijswijk,Rijswijk,Zuid-Holland,VBO,4.350255,52.024495
Pauwhof,12,,,2289BH,Rijswijk,Rijswijk,Zuid-Holland,VBO,4.350190,52.024533
Pauwhof,13,,,2289BH,Rijswijk,Rijswijk,Zuid-Holland,VBO,4.350255,52.024495
Pauwhof,14,,,2289BH,Rijswijk,Rijswijk,Zuid-Holland,VBO,4.350190,52.024533
Pauwhof,15,,,2289BH,Rijswijk,Rijswijk,Zuid-Holland,VBO,4.350255,52.024495
Pauwhof,16,,,2289BH,Rijswijk,Rijswijk,Zuid-Holland,VBO,4.350190,52.024533
Pauwhof,17,,,2289BH,Rijswijk,Rijswijk,Zuid-Holland,VBO,4.350255,52.024495
Pauwhof,18,,,2289BH,Rijswijk,Rijswijk,Zuid-Holland,VBO,4.350190,52.024533
Pauwhof,19,,,2289BH,Rijswijk,Rijswijk,Zuid-Holland,VBO,4.350255,52.024495
Pauwhof,20,,,2289BH,Rijswijk,Rijswijk,Zuid-Holland,VBO,4.350190,52.024533
Pauwhof,21,,,2289BH,Rijswijk,Rijswijk,Zuid-Holland,VBO,4.350255,52.024495
Pauwhof,22,,,2289BH,Rijswijk,Rijswijk,Zuid-Holland,VBO,4.350190,52.024533
Pauwhof,23,,,2289BH,Rijswijk,Rijswijk,Zuid-Holland,VBO,4.350255,52.024495
Pauwhof,24,,,2289BH,Rijswijk,Rijswijk,Zuid-Holland,VBO,4.350190,52.024533
Pauwhof,25,,,2289BH,Rijswijk,Rijswijk,Zuid-Holland,VBO,4.350255,52.024495
Pauwhof,26,,,2289BH,Rijswijk,Rijswijk,Zuid-Holland,VBO,4.350190,52.024533
Pauwhof,27,,,2289BH,Rijswijk,Rijswijk,Zuid-Holland,VBO,4.350255,52.024495
Pauwhof,28,,,2289BH,Rijswijk,Rijswijk,Zuid-Holland,VBO,4.350190,52.024533
Pauwhof,29,,,2289BH,Rijswijk,Rijswijk,Zuid-Holland,VBO,4.350255,52.024495
Pauwhof,30,,,2289BH,Rijswijk,Rijswijk,Zuid-Holland,VBO,4.350190,52.024533
Pauwhof,31,,,2289BH,Rijswijk,Rijswijk,Zuid-Holland,VBO,4.350255,52.024495
Pauwhof,32,,,2289BH,Rijswijk,Rijswijk,Zuid-Holland,VBO,4.350190,52.024533
Pauwhof,33,,,2289BH,Rijswijk,Rijswijk,Zuid-Holland,VBO,4.350255,52.024495
Pauwhof,34,,,2289BH,Rijswijk,Rijswijk,Zuid-Holland,VBO,4.350190,52.024533
Pauwhof,35,,,2289BH,Rijswijk,Rijswijk,Zuid-Holland,VBO,4.350255,52.024495
Pauwhof,36,,,2289BH,Rijswijk,Rijswijk,Zuid-Holland,VBO,4.350190,52.024533
Pauwhof,37,,,2289BH,Rijswijk,Rijswijk,Zuid-Holland,VBO,4.350255,52.024495
Pauwhof,38,,,2289BH,Rijswijk,Rijswijk,Zuid-Holland,VBO,4.350190,52.024533
Pauwhof,39,,,2289BH,Rijswijk,Rijswijk,Zuid-Holland,VBO,4.350255,52.024495
Pauwhof,40,,,2289BH,Rijswijk,Rijswijk,Zuid-Holland,VBO,4.350190,52.024533
Pauwhof,41,,,2289BH,Rijswijk,Rijswijk,Zuid-Holland,VBO,4.350255,52.024495
Pauwhof,42,,,2289BH,Rijswijk,Rijswijk,Zuid-Holland,VBO,4.350190,52.024533
Pauwhof,43,,,2289BH,Rijswijk,Rijswijk,Zuid-Holland,VBO,4.350255,52.024495
Pauwhof,44,,,2289BH,Rijswijk,Rijswijk,Zuid-Holland,VBO,4.350190,52.024533
Pauwhof,45,,,2289BH,Rijswijk,Rijswijk,Zuid-Holland,VBO,4.350255,52.024495
Pauwhof,46,,,2289BH,Rijswijk,Rijswijk,Zuid-Holland,VBO,4.350190,52.024533
Pauwhof,47,,,2289BH,Rijswijk,Rijswijk,Zuid-Holland,VBO,4.350255,52.024495
Pauwhof,48,,,2289BH,Rijswijk,Rijswijk,Zuid-Holland,VBO,4.350190,52.024533
Pauwhof,49,,,2289BH,Rijswijk,Rijswijk,Zuid-Holland,VBO,4.350255,52.024495
Pauwhof,50,,,2289BH,Rijswijk,Rijswijk,Zuid-Holland,VBO,4.350190,52.024533
Pauwhof,51,,,2289BH,Rijswijk,Rijswijk,Zuid-Holland,VBO,4.350255,52.024495
Pauwhof,52,,,2289BH,Rijswijk,Rijswijk,Zuid-Holland,VBO,4.350190,52.024533
Pauwhof,53,,,2289BJ,Rijswijk,Rijswijk,Zuid-Holland,VBO,4.349536,52.024411
Pauwhof,54,,,2289BJ,Rijswijk,Rijswijk,Zuid-Holland,VBO,4.349446,52.024460
Pauwhof,55,,,2289BJ,Rijswijk,Rijswijk,Zuid-Holland,VBO,4.349536,52.024411
Pauwhof,56,,,2289BJ,Rijswijk,Rijswijk,Zuid-Holland,VBO,4.349446,52.024460
Pauwhof,57,,,2289BJ,Rijswijk,Rijswijk,Zuid-Holland,VBO,4.349536,52.024411
Pauwhof,58,,,2289BJ,Rijswijk,Rijswijk,Zuid-Holland,VBO,4.349446,52.024460
Pauwhof,59,,,2289BJ,Rijswijk,Rijswijk,Zuid-Holland,VBO,4.349536,52.024411
Pauwhof,60,,,2289BJ,Rijswijk,Rijswijk,Zuid-Holland,VBO,4.349446,52.024460
Pauwhof,61,,,2289BJ,Rijswijk,Rijswijk,Zuid-Holland,VBO,4.349536,52.024411
Pauwhof,62,,,2289BJ,Rijswijk,Rijswijk,Zuid-Holland,VBO,4.349446,52.024460
Pauwhof,63,,,2289BJ,Rijswijk,Rijswijk,Zuid-Holland,VBO,4.349536,52.024411
Pauwhof,64,,,2289BJ,Rijswijk,Rijswijk,Zuid-Holland,VBO,4.349446,52.024460
Pauwhof,65,,,2289BJ,Rijswijk,Rijswijk,Zuid-Holland,VBO,4.349536,52.024411
Pauwhof,66,,,2289BJ,Rijswijk,Rijswijk,Zuid-Holland,VBO,4.349446,52.024460
Pauwhof,67,,,2289BJ,Rijswijk,Rijswijk,Zuid-Holland,VBO,4.349536,52.024411
Pauwhof,68,,,2289BJ,Rijswijk,Rijswijk,Zuid-Holland,VBO,4.349446,52.024460
Pauwhof,69,,,2289BJ,Rijswijk,Rijswijk,Zuid-Holland,VBO,4.349536,52.024411
Pauwhof,70,,,2289BJ,Rijswijk,Rijswijk,Zuid-Holland,VBO,4.349446,52.024460
Pauwhof,71,,,2289BJ,Rijswijk,Rijswijk,Zuid-Holland,VBO,4.349536,52.024411
Pauwhof,72,,,2289BJ,Rijswijk,Rijswijk,Zuid-Holland,VBO,4.349446,52.024460
Pauwhof,73,,,2289BJ,Rijswijk,Rijswijk,Zuid-Holland,VBO,4.349536,52.024411
Pauwhof,74,,,2289BJ,Rijswijk,Rijswijk,Zuid-Holland,VBO,4.349446,52.024460
Pauwhof,75,,,2289BJ,Rijswijk,Rijswijk,Zuid-Holland,VBO,4.349536,52.024411
Pauwhof,76,,,2289BJ,Rijswijk,Rijswijk,Zuid-Holland,VBO,4.349446,52.024460
Pauwhof,77,,,2289BJ,Rijswijk,Rijswijk,Zuid-Holland,VBO,4.349536,52.024411
Pauwhof,78,,,2289BJ,Rijswijk,Rijswijk,Zuid-Holland,VBO,4.349446,52.024460
Pauwhof,79,,,2289BJ,Rijswijk,Rijswijk,Zuid-Holland,VBO,4.349536,52.024411
Pauwhof,80,,,2289BJ,Rijswijk,Rijswijk,Zuid-Holland,VBO,4.349446,52.024460
Pauwhof,81,,,2289BJ,Rijswijk,Rijswijk,Zuid-Holland,VBO,4.349536,52.024411
Pauwhof,82,,,2289BJ,Rijswijk,Rijswijk,Zuid-Holland,VBO,4.349446,52.024460
Pauwhof,83,,,2289BJ,Rijswijk,Rijswijk,Zuid-Holland,VBO,4.349536,52.024411
Pauwhof,84,,,2289BJ,Rijswijk,Rijswijk,Zuid-Holland,VBO,4.349446,52.024460
Pauwhof,85,,,2289BJ,Rijswijk,Rijswijk,Zuid-Holland,VBO,4.349536,52.024411
Pauwhof,86,,,2289BJ,Rijswijk,Rijswijk,Zuid-Holland,VBO,4.349446,52.024460
Pauwhof,87,,,2289BJ,Rijswijk,Rijswijk,Zuid-Holland,VBO,4.349536,52.024411
Pauwhof,88,,,2289BJ,Rijswijk,Rijswijk,Zuid-Holland,VBO,4.349446,52.024460
Pauwhof,89,,,2289BJ,Rijswijk,Rijswijk,Zuid-Holland,VBO,4.349536,52.024411
Pauwhof,90,,,2289BJ,Rijswijk,Rijswijk,Zuid-Holland,VBO,4.349446,52.024460
Pauwhof,91,,,2289BJ,Rijswijk,Rijswijk,Zuid-Holland,VBO,4.349536,52.024411
Pauwhof,92,,,2289BJ,Rijswijk,Rijswijk,Zuid-Holland,VBO,4.349446,52.024460
Pauwhof,93,,,2289BJ,Rijswijk,Rijswijk,Zuid-Holland,VBO,4.349536,52.024411
Pauwhof,94,,,2289BJ,Rijswijk,Rijswijk,Zuid-Holland,VBO,4.349446,52.024460
Pauwhof,95,,,2289BJ,Rijswijk,Rijswijk,Zuid-Holland,VBO,4.349536,52.024411
Pauwhof,96,,,2289BJ,Rijswijk,Rijswijk,Zuid-Holland,VBO,4.349446,52.024460
Pauwhof,97,,,2289BJ,Rijswijk,Rijswijk,Zuid-Holland,VBO,4.349536,52.024411
Pauwhof,98,,,2289BJ,Rijswijk,Rijswijk,Zuid-Holland,VBO,4.349446,52.024460
Pauwhof,99,,,2289BJ,Rijswijk,Rijswijk,Zuid-Holland,VBO,4.349536,52.024411
Pauwhof,100,,,2289BJ,Rijswijk,Rijswijk,Zuid-Holland,VBO,4.349446,52.024460
Pauwhof,101,,,2289BK,Rijswijk,Rijswijk,Zuid-Holland,VBO,4.348767,52.024752
Pauwhof,102,,,2289BK,Rijswijk,Rijswijk,Zuid-Holland,VBO,4.348659,52.024800
Pauwhof,103,,,2289BK,Rijswijk,Rijswijk,Zuid-Holland,VBO,4.348767,52.024752
Pauwhof,104,,,2289BK,Rijswijk,Rijswijk,Zuid-Holland,VBO,4.348659,52.024800
Pauwhof,105,,,2289BK,Rijswijk,Rijswijk,Zuid-Holland,VBO,4.348767,52.024752
Pauwhof,106,,,2289BK,Rijswijk,Rijswijk,Zuid-Holland,VBO,4.348659,52.024800
Pauwhof,107,,,2289BK,Rijswijk,Rijswijk,Zuid-Holland,VBO,4.348767,52.024752
Pauwhof,108,,,2289BK,Rijswijk,Rijswijk,Zuid-Holland,VBO,4.348659,52.024800
Pauwhof,109,,,2289BK,Rijswijk,Rijswijk,Zuid-Holland,VBO,4.348767,52.024752
Pauwhof,110,,,2289BK,Rijswijk,Rijswijk,Zuid-Holland,VBO,4.348659,52.024800
Pauwhof,111,,,2289BK,Rijswijk,Rijswijk,Zuid-Holland,VBO,4.348767,52.024752
Pauwhof,112,,,2289BK,Rijswijk,Rijswijk,Zuid-Holland,VBO,4.348659,52.024800
Pauwhof,113,,,2289BK,Rijswijk,Rijswijk,Zuid-Holland,VBO,4.348767,52.024752
Pauwhof,114,,,2289BK,Rijswijk,Rijswijk,Zuid-Holland,VBO,4.348659,52.024800
Pauwhof,115,,,2289BK,Rijswijk,Rijswijk,Zuid-Holland,VBO,4.348767,52.024752
Pauwhof,116,,,2289BK,Rijswijk,Rijswijk,Zuid-Holland,VBO,4.348659,52.024800
Pauwhof,117,,,2289BK,Rijswijk,Rijswijk,Zuid-Holland,VBO,4.348767,52.024752
Pauwhof,118,,,2289BK,Rijswijk,Rijswijk,Zuid-Holland,VBO,4.348659,52.024800
Pauwhof,119,,,2289BK,Rijswijk,Rijswijk,Zuid-Holland,VBO,4.348767,52.024752
Pauwhof,120,,,2289BK,Rijswijk,Rijswijk,Zuid-Holland,VBO,4.348659,52.024800
Pauwhof,121,,,2289BK,Rijswijk,Rijswijk,Zuid-Holland,VBO,4.348767,52.024752
Pauwhof,122,,,2289BK,Rijswijk,Rijswijk,Zuid-Holland,VBO,4.348659,52.024800
Pauwhof,123,,,2289BK,Rijswijk,Rijswijk,Zuid-Holland,VBO,4.348767,52.024752
Pauwhof,124,,,2289BK,Rijswijk,Rijswijk,Zuid-Holland,VBO,4.348659,52.024800
Pauwhof,125,,,2289BK,Rijswijk,Rijswijk,Zuid-Holland,VBO,4.348767,52.024752
Pauwhof,126,,,2289BK,Rijswijk,Rijswijk,Zuid-Holland,VBO,4.348659,52.024800
Pauwhof,127,,,2289BK,Rijswijk,Rijswijk,Zuid-Holland,VBO,4.348767,52.024752
Pauwhof,128,,,2289BK,Rijswijk,Rijswijk,Zuid-Holland,VBO,4.348659,52.024800
Pauwhof,129,,,2289BK,Rijswijk,Rijswijk,Zuid-Holland,VBO,4.348767,52.024752
Pauwhof,130,a,,2289BK,Rijswijk,Rijswijk,Zuid-Holland,VBO,4.348328,52.024984
Pauwhof,130,b,,2289BK,Rijswijk,Rijswijk,Zuid-Holland,VBO,4.348280,52.024992
Pauwhof,130,c,,2289BK,Rijswijk,Rijswijk,Zuid-Holland,VBO,4.348264,52.025021
Pauwhof,130,d,,2289BK,Rijswijk,Rijswijk,Zuid-Holland,VBO,4.348216,52.025029
Pauwhof,130,e,,2289BK,Rijswijk,Rijswijk,Zuid-Holland,VBO,4.348202,52.025057
Pauwhof,130,f,,2289BK,Rijswijk,Rijswijk,Zuid-Holland,VBO,4.348156,52.025065
Pauwhof,130,g,,2289BK,Rijswijk,Rijswijk,Zuid-Holland,VBO,4.348141,52.025093
Pauwhof,130,h,,2289BK,Rijswijk,Rijswijk,Zuid-Holland,VBO,4.348094,52.025101
Pauwhof,130,,,2289BK,Rijswijk,Rijswijk,Zuid-Holland,VBO,4.348659,52.024800
Pauwhof,131,,,2289BL,Rijswijk,Rijswijk,Zuid-Holland,VBO,4.348152,52.024472
Pauwhof,132,,,2289BL,Rijswijk,Rijswijk,Zuid-Holland,VBO,4.348210,52.024440
Pauwhof,133,,,2289BL,Rijswijk,Rijswijk,Zuid-Holland,VBO,4.348498,52.024451
Pauwhof,134,,,2289BL,Rijswijk,Rijswijk,Zuid-Holland,VBO,4.348238,52.024375
Pauwhof,135,,,2289BL,Rijswijk,Rijswijk,Zuid-Holland,VBO,4.348566,52.024398
Pauwhof,136,,,2289BL,Rijswijk,Rijswijk,Zuid-Holland,VBO,4.348209,52.024340
Pauwhof,137,,,2289BL,Rijswijk,Rijswijk,Zuid-Holland,VBO,4.348582,52.024361
Pauwhof,138,,,2289BL,Rijswijk,Rijswijk,Zuid-Holland,VBO,4.348235,52.024277
Pauwhof,139,,,2289BL,Rijswijk,Rijswijk,Zuid-Holland,VBO,4.348651,52.024307
Pauwhof,140,,,2289BL,Rijswijk,Rijswijk,Zuid-Holland,VBO,4.348291,52.024254
Pauwhof,141,,,2289BL,Rijswijk,Rijswijk,Zuid-Holland,VBO,4.348668,52.024266
Pauwhof,142,,,2289BL,Rijswijk,Rijswijk,Zuid-Holland,VBO,4.348319,52.024189
Pauwhof,143,,,2289BL,Rijswijk,Rijswijk,Zuid-Holland,VBO,4.348732,52.024221
Pauwhof,144,,,2289BL,Rijswijk,Rijswijk,Zuid-Holland,VBO,4.348373,52.024167
Pauwhof,145,,,2289BL,Rijswijk,Rijswijk,Zuid-Holland,VBO,4.348749,52.024182
Pauwhof,146,,,2289BL,Rijswijk,Rijswijk,Zuid-Holland,VBO,4.348400,52.024103
Pauwhof,147,,,2289BL,Rijswijk,Rijswijk,Zuid-Holland,VBO,4.348773,52.024126
Pauwhof,148,,,2289BL,Rijswijk,Rijswijk,Zuid-Holland,VBO,4.348415,52.024070
Pauwhof,149,,,2289BL,Rijswijk,Rijswijk,Zuid-Holland,VBO,4.348788,52.024092
Pauwhof,150,,,2289BL,Rijswijk,Rijswijk,Zuid-Holland,VBO,4.348441,52.024008
Pauwhof,151,,,2289BL,Rijswijk,Rijswijk,Zuid-Holland,VBO,4.348770,52.024027
Pauwhof,152,,,2289BL,Rijswijk,Rijswijk,Zuid-Holland,VBO,4.348411,52.023972
Pauwhof,153,,,2289BL,Rijswijk,Rijswijk,Zuid-Holland,VBO,4.348789,52.023986
Pauwhof,154,,,2289BL,Rijswijk,Rijswijk,Zuid-Holland,VBO,4.348440,52.023906
Pauwhof,155,,,2289BL,Rijswijk,Rijswijk,Zuid-Holland,VBO,4.348770,52.023923
Pauwhof,156,,,2289BL,Rijswijk,Rijswijk,Zuid-Holland,VBO,4.348411,52.023870
Pauwhof,157,,,2289BL,Rijswijk,Rijswijk,Zuid-Holland,VBO,4.348751,52.023862
Pauwhof,158,,,2289BL,Rijswijk,Rijswijk,Zuid-Holland,VBO,4.348437,52.023808
Pauwhof,159,,,2289BL,Rijswijk,Rijswijk,Zuid-Holland,VBO,4.348492,52.023786
Pauwhof,160,,,2289BL,Rijswijk,Rijswijk,Zuid-Holland,VBO,4.348521,52.023720
Pauwhof,161,,,2289BL,Rijswijk,Rijswijk,Zuid-Holland,VBO,4.348490,52.023685
Pauwhof,162,,,2289BL,Rijswijk,Rijswijk,Zuid-Holland,VBO,4.348519,52.023619
Pauwhof,163,,,2289BL,Rijswijk,Rijswijk,Zuid-Holland,VBO,4.348572,52.023599
Pauwhof,164,,,2289BL,Rijswijk,Rijswijk,Zuid-Holland,VBO,4.348600,52.023533
Pauwhof,165,,,2289BL,Rijswijk,Rijswijk,Zuid-Holland,VBO,4.348656,52.023511
Pauwhof,166,,,2289BL,Rijswijk,Rijswijk,Zuid-Holland,VBO,4.348685,52.023443
Pauwhof,167,,,2289BM,Rijswijk,Rijswijk,Zuid-Holland,VBO,4.348838,52.023647
Pauwhof,168,,,2289BM,Rijswijk,Rijswijk,Zuid-Holland,VBO,4.348957,52.023666
Pauwhof,169,,,2289BM,Rijswijk,Rijswijk,Zuid-Holland,VBO,4.349008,52.023702
Pauwhof,170,,,2289BM,Rijswijk,Rijswijk,Zuid-Holland,VBO,4.349123,52.023721
Pauwhof,171,,,2289BM,Rijswijk,Rijswijk,Zuid-Holland,VBO,4.349177,52.023757
Pauwhof,172,,,2289BM,Rijswijk,Rijswijk,Zuid-Holland,VBO,4.349291,52.023776
Pauwhof,173,,,2289BM,Rijswijk,Rijswijk,Zuid-Holland,VBO,4.349401,52.023860
Pauwhof,174,,,2289BM,Rijswijk,Rijswijk,Zuid-Holland,VBO,4.349484,52.023913
Pauwhof,175,,,2289BM,Rijswijk,Rijswijk,Zuid-Holland,VBO,4.349560,52.023923
Pauwhof,176,,,2289BM,Rijswijk,Rijswijk,Zuid-Holland,VBO,4.349643,52.023977
Pauwhof,177,,,2289BM,Rijswijk,Rijswijk,Zuid-Holland,VBO,4.349718,52.023985
Pauwhof,178,,,2289BM,Rijswijk,Rijswijk,Zuid-Holland,VBO,4.349801,52.024041
Pauwhof,179,,,2289BM,Rijswijk,Rijswijk,Zuid-Holland,VBO,4.349877,52.024049
Pauwhof,180,,,2289BM,Rijswijk,Rijswijk,Zuid-Holland,VBO,4.349962,52.024104
Zuiderweg,8,,,2289BN,Rijswijk,Rijswijk,Zuid-Holland,VBO,4.349520,52.028552
Zuiderweg,10,,,2289BN,Rijswijk,Rijswijk,Zuid-Holland,VBO,4.349231,52.029637
Zuiderweg,12,,,2289BN,Rijswijk,Rijswijk,Zuid-Holland,VBO,4.349498,52.029582
Zuiderweg,18,,,2289BN,Rijswijk,Rijswijk,Zuid-Holland,VBO,4.350092,52.029436
Zuiderweg,20,,,2289BN,Rijswijk,Rijswijk,Zuid-Holland,VBO,4.350448,52.029363
Zuiderweg,28,,,2289BN,Rijswijk,Rijswijk,Zuid-Holland,VBO,4.350950,52.029210
Zuiderweg,30,,,2289BN,Rijswijk,Rijswijk,Zuid-Holland,VBO,4.350950,52.029210
Zuiderweg,32,,,2289BN,Rijswijk,Rijswijk,Zuid-Holland,VBO,4.350950,52.029210
IJsvogelhof,2,,,2289BP,Rijswijk,Rijswijk,Zuid-Holland,VBO,4.348270,52.025756
IJsvogelhof,4,,,2289BP,Rijswijk,Rijswijk,Zuid-Holland,VBO,4.348214,52.025720
IJsvogelhof,6,,,2289BP,Rijswijk,Rijswijk,Zuid-Holland,VBO,4.348160,52.025685
IJsvogelhof,8,,,2289BP,Rijswijk,Rijswijk,Zuid-Holland,VBO,4.348106,52.025649
IJsvogelhof,10,,,2289BP,Rijswijk,Rijswijk,Zuid-Holland,VBO,4.348051,52.025613
IJsvogelhof,14,,,2289BP,Rijswijk,Rijswijk,Zuid-Holland,VBO,4.348127,52.025436
IJsvogelhof,16,,,2289BP,Rijswijk,Rijswijk,Zuid-Holland,VBO,4.348186,52.025401
IJsvogelhof,18,,,2289BP,Rijswijk,Rijswijk,Zuid-Holland,VBO,4.348243,52.025368
IJsvogelhof,20,,,2289BP,Rijswijk,Rijswijk,Zuid-Holland,VBO,4.348301,52.025334
Zuiderweg,68,a,,2289BR,Rijswijk,Rijswijk,Zuid-Holland,VBO,4.352727,52.029010
Zuiderweg,68,,,2289BR,Rijswijk,Rijswijk,Zuid-Holland,VBO,4.351976,52.028817
Zuiderweg,70,,,2289BR,Rijswijk,Rijswijk,Zuid-Holland,VBO,4.351976,52.028817
Zuiderweg,80,,,2289BR,Rijswijk,Rijswijk,Zuid-Holland,VBO,4.351976,52.028817
Zuiderweg,90,,,2289BR,Rijswijk,Rijswijk,Zuid-Holland,VBO,4.351976,52.028817
Zuiderweg,100,,,2289BR,Rijswijk,Rijswijk,Zuid-Holland,VBO,4.351907,52.027941
Zuiderweg,3,,,2289BS,Rijswijk,Rijswijk,Zuid-Holland,VBO,4.346923,52.030551
Zuiderweg,5,a,,2289BS,Rijswijk,Rijswijk,Zuid-Holland,VBO,4.347103,52.030301
Zuiderweg,5,,,2289BS,Rijswijk,Rijswijk,Zuid-Holland,VBO,4.347031,52.030410
Pauwenstein,1,,,2289BT,Rijswijk,Rijswijk,Zuid-Holland,VBO,4.347804,52.024580
Pauwenstein,2,,,2289BT,Rijswijk,Rijswijk,Zuid-Holland,VBO,4.347804,52.024580
Pauwenstein,3,,,2289BT,Rijswijk,Rijswijk,Zuid-Holland,VBO,4.347804,52.024580
Pauwenstein,4,,,2289BT,Rijswijk,Rijswijk,Zuid-Holland,VBO,4.347804,52.024580
Pauwenstein,5,,,2289BT,Rijswijk,Rijswijk,Zuid-Holland,VBO,4.347804,52.024580
Pauwenstein,6,,,2289BT,Rijswijk,Rijswijk,Zuid-Holland,VBO,4.347804,52.024580
Pauwenstein,7,,,2289BT,Rijswijk,Rijswijk,Zuid-Holland,VBO,4.347804,52.024580
Pauwenstein,9,,,2289BT,Rijswijk,Rijswijk,Zuid-Holland,VBO,4.347804,52.024580
Pauwenstein,10,,,2289BT,Rijswijk,Rijswijk,Zuid-Holland,VBO,4.347804,52.024580
Pauwenstein,11,,,2289BT,Rijswijk,Rijswijk,Zuid-Holland,VBO,4.347804,52.024580
Pauwenstein,12,,,2289BT,Rijswijk,Rijswijk,Zuid-Holland,VBO,4.347804,52.024580
Pauwenstein,13,,,2289BT,Rijswijk,Rijswijk,Zuid-Holland,VBO,4.347804,52.024580
Pauwenstein,14,,,2289BT,Rijswijk,Rijswijk,Zuid-Holland,VBO,4.347804,52.024580
Pauwenstein,15,,,2289BT,Rijswijk,Rijswijk,Zuid-Holland,VBO,4.347804,52.024580
Pauwenstein,16,,,2289BT,Rijswijk,Rijswijk,Zuid-Holland,VBO,4.347804,52.024580
Pauwenstein,17,,,2289BT,Rijswijk,Rijswijk,Zuid-Holland,VBO,4.347804,52.024580
Pauwenstein,18,,,2289BT,Rijswijk,Rijswijk,Zuid-Holland,VBO,4.347804,52.024580
Pauwenstein,19,,,2289BT,Rijswijk,Rijswijk,Zuid-Holland,VBO,4.347804,52.024580
Pauwenstein,20,a,,2289BT,Rijswijk,Rijswijk,Zuid-Holland,VBO,4.347854,52.024610
Pauwenstein,20,b,,2289BT,Rijswijk,Rijswijk,Zuid-Holland,VBO,4.347854,52.024610
Pauwenstein,21,,,2289BT,Rijswijk,Rijswijk,Zuid-Holland,VBO,4.347955,52.024669
Pauwenstein,22,,,2289BT,Rijswijk,Rijswijk,Zuid-Holland,VBO,4.347955,52.024669
Pauwenstein,23,,,2289BT,Rijswijk,Rijswijk,Zuid-Holland,VBO,4.347955,52.024669
Molenhof,3,,,2289BV,Rijswijk,Rijswijk,Zuid-Holland,STA,4.349995,52.027406
Molenhof,4,,,2289BV,Rijswijk,Rijswijk,Zuid-Holland,STA,4.349865,52.027478
Molenhof,5,,,2289BV,Rijswijk,Rijswijk,Zuid-Holland,STA,4.349618,52.027670
Molenhof,6,,,2289BV,Rijswijk,Rijswijk,Zuid-Holland,STA,4.349504,52.027592
Molenhof,7,,,2289BV,Rijswijk,Rijswijk,Zuid-Holland,STA,4.349386,52.027512
Molenhof,8,,,2289BV,Rijswijk,Rijswijk,Zuid-Holland,STA,4.349268,52.027433
Molenhof,9,,,2289BV,Rijswijk,Rijswijk,Zuid-Holland,STA,4.349151,52.027353
Molenhof,10,,,2289BV,Rijswijk,Rijswijk,Zuid-Holland,STA,4.349482,52.027216
Molenhof,11,,,2289BV,Rijswijk,Rijswijk,Zuid-Holland,STA,4.349611,52.027143
Molenhof,12,,,2289BV,Rijswijk,Rijswijk,Zuid-Holland,STA,4.349741,52.027070
Molenhof,13,,,2289BV,Rijswijk,Rijswijk,Zuid-Holland,STA,4.349870,52.026998
Molenhof,14,,,2289BV,Rijswijk,Rijswijk,Zuid-Holland,STA,4.349999,52.026925
Molenhof,15,,,2289BV,Rijswijk,Rijswijk,Zuid-Holland,STA,4.350129,52.026853
Molenhof,16,,,2289BV,Rijswijk,Rijswijk,Zuid-Holland,STA,4.350258,52.026780
Molenhof,17,,,2289BV,Rijswijk,Rijswijk,Zuid-Holland,STA,4.350387,52.026707
Molenhof,18,,,2289BV,Rijswijk,Rijswijk,Zuid-Holland,STA,4.350516,52.026635
Molenhof,19,,,2289BV,Rijswijk,Rijswijk,Zuid-Holland,STA,4.350647,52.026562
Molenhof,21,,,2289BV,Rijswijk,Rijswijk,Zuid-Holland,VBO,4.351077,52.026353
Molenhof,23,,,2289BV,Rijswijk,Rijswijk,Zuid-Holland,STA,4.351032,52.026823
Molenhof,24,,,2289BV,Rijswijk,Rijswijk,Zuid-Holland,STA,4.350902,52.026896
Molenhof,25,,,2289BV,Rijswijk,Rijswijk,Zuid-Holland,STA,4.350773,52.026969
Molenhof,26,,,2289BV,Rijswijk,Rijswijk,Zuid-Holland,STA,4.350643,52.027041
Molenhof,27,,,2289BV,Rijswijk,Rijswijk,Zuid-Holland,STA,4.350514,52.027114
Molenhof,28,,,2289BV,Rijswijk,Rijswijk,Zuid-Holland,STA,4.350384,52.027187
Molenhof,29,,,2289BV,Rijswijk,Rijswijk,Zuid-Holland,STA,4.350253,52.027260
De Ruijt,1,,,2289BW,Rijswijk,Rijswijk,Zuid-Holland,VBO,4.347046,52.028935
De Ruijt,3,,,2289BW,Rijswijk,Rijswijk,Zuid-Holland,VBO,4.347176,52.028941
De Ruijt,5,,,2289BW,Rijswijk,Rijswijk,Zuid-Holland,VBO,4.347395,52.028901
De Ruijt,7,,,2289BW,Rijswijk,Rijswijk,Zuid-Holland,VBO,4.347447,52.028987
De Ruijt,9,,,2289BW,Rijswijk,Rijswijk,Zuid-Holland,VBO,4.347493,52.028878
De Ruijt,11,,,2289BW,Rijswijk,Rijswijk,Zuid-Holland,VBO,4.347544,52.028964
De Ruijt,13,,,2289BW,Rijswijk,Rijswijk,Zuid-Holland,VBO,4.347669,52.028808
De Ruijt,15,,,2289BW,Rijswijk,Rijswijk,Zuid-Holland,VBO,4.347767,52.028765
De Ruijt,17,,,2289BW,Rijswijk,Rijswijk,Zuid-Holland,VBO,4.347902,52.028686
De Ruijt,19,,,2289BW,Rijswijk,Rijswijk,Zuid-Holland,VBO,4.347977,52.028628
De Ruijt,21,,,2289BW,Rijswijk,Rijswijk,Zuid-Holland,VBO,4.348072,52.028530
De Ruijt,23,,,2289BW,Rijswijk,Rijswijk,Zuid-Holland,VBO,4.348118,52.028463
De Ruijt,25,,,2289BW,Rijswijk,Rijswijk,Zuid-Holland,VBO,4.348166,52.028354
De Ruijt,27,,,2289BW,Rijswijk,Rijswijk,Zuid-Holland,VBO,4.348180,52.028281
De Ruijt,29,,,2289BW,Rijswijk,Rijswijk,Zuid-Holland,VBO,4.348196,52.028178
De Ruijt,31,,,2289BW,Rijswijk,Rijswijk,Zuid-Holland,VBO,4.348206,52.028103
De Ruijt,33,,,2289BW,Rijswijk,Rijswijk,Zuid-Holland,VBO,4.348219,52.028006
De Ruijt,35,,,2289BW,Rijswijk,Rijswijk,Zuid-Holland,VBO,4.348229,52.027932
De Ruijt,37,,,2289BW,Rijswijk,Rijswijk,Zuid-Holland,VBO,4.348241,52.027834
De Ruijt,39,,,2289BW,Rijswijk,Rijswijk,Zuid-Holland,VBO,4.348251,52.027759
De Ruijt,41,,,2289BW,Rijswijk,Rijswijk,Zuid-Holland,VBO,4.348265,52.027659
De Ruijt,43,,,2289BW,Rijswijk,Rijswijk,Zuid-Holland,VBO,4.348274,52.027587
De Ruijt,45,,,2289BW,Rijswijk,Rijswijk,Zuid-Holland,VBO,4.348287,52.027489
De Ruijt,47,,,2289BW,Rijswijk,Rijswijk,Zuid-Holland,VBO,4.348297,52.027415
De Ruijt,2,,,2289BX,Rijswijk,Rijswijk,Zuid-Holland,VBO,4.347088,52.028665
De Ruijt,4,,,2289BX,Rijswijk,Rijswijk,Zuid-Holland,VBO,4.347222,52.028672
De Ruijt,6,,,2289BX,Rijswijk,Rijswijk,Zuid-Holland,VBO,4.347497,52.028579
De Ruijt,8,,,2289BX,Rijswijk,Rijswijk,Zuid-Holland,VBO,4.347408,52.028506
De Ruijt,10,,,2289BX,Rijswijk,Rijswijk,Zuid-Holland,VBO,4.347584,52.028538
De Ruijt,12,,,2289BX,Rijswijk,Rijswijk,Zuid-Holland,VBO,4.347495,52.028465
De Ruijt,14,,,2289BX,Rijswijk,Rijswijk,Zuid-Holland,VBO,4.347772,52.028381
De Ruijt,16,,,2289BX,Rijswijk,Rijswijk,Zuid-Holland,VBO,4.347636,52.028346
De Ruijt,18,,,2289BX,Rijswijk,Rijswijk,Zuid-Holland,VBO,4.347813,52.028322
De Ruijt,20,,,2289BX,Rijswijk,Rijswijk,Zuid-Holland,VBO,4.347678,52.028285
De Ruijt,22,,,2289BX,Rijswijk,Rijswijk,Zuid-Holland,VBO,4.347871,52.027974
De Ruijt,24,,,2289BX,Rijswijk,Rijswijk,Zuid-Holland,VBO,4.347881,52.027899
De Ruijt,26,,,2289BX,Rijswijk,Rijswijk,Zuid-Holland,VBO,4.347894,52.027801
De Ruijt,28,,,2289BX,Rijswijk,Rijswijk,Zuid-Holland,VBO,4.347903,52.027727
De Ruijt,30,,,2289BX,Rijswijk,Rijswijk,Zuid-Holland,VBO,4.347916,52.027629
De Ruijt,32,,,2289BX,Rijswijk,Rijswijk,Zuid-Holland,VBO,4.347926,52.027555
De Ruijt,34,,,2289BX,Rijswijk,Rijswijk,Zuid-Holland,VBO,4.347940,52.027456
De Ruijt,36,,,2289BX,Rijswijk,Rijswijk,Zuid-Holland,VBO,4.347949,52.027382
Broekmolenweg,31,,,2289BZ,Rijswijk,Rijswijk,Zuid-Holland,STA,4.350622,52.026553
Broekmolenweg,33,,,2289BZ,Rijswijk,Rijswijk,Zuid-Holland,STA,4.350514,52.026613
Broekmolenweg,35,,,2289BZ,Rijswijk,Rijswijk,Zuid-Holland,STA,4.350407,52.026674
Broekmolenweg,37,,,2289BZ,Rijswijk,Rijswijk,Zuid-Holland,STA,4.350299,52.026734
Broekmolenweg,39,,,2289BZ,Rijswijk,Rijswijk,Zuid-Holland,STA,4.350191,52.026795
Broekmolenweg,41,,,2289BZ,Rijswijk,Rijswijk,Zuid-Holland,STA,4.350084,52.026855
Broekmolenweg,43,,,2289BZ,Rijswijk,Rijswijk,Zuid-Holland,STA,4.349978,52.026915
Broekmolenweg,45,,,2289BZ,Rijswijk,Rijswijk,Zuid-Holland,STA,4.350210,52.027073
Broekmolenweg,47,,,2289BZ,Rijswijk,Rijswijk,Zuid-Holland,STA,4.350317,52.027013
Broekmolenweg,49,,,2289BZ,Rijswijk,Rijswijk,Zuid-Holland,STA,4.350425,52.026953
Broekmolenweg,51,,,2289BZ,Rijswijk,Rijswijk,Zuid-Holland,STA,4.350533,52.026892
Broekmolenweg,53,,,2289BZ,Rijswijk,Rijswijk,Zuid-Holland,STA,4.350641,52.026832
Broekmolenweg,55,,,2289BZ,Rijswijk,Rijswijk,Zuid-Holland,STA,4.350748,52.026772
Broekmolenweg,57,,,2289BZ,Rijswijk,Rijswijk,Zuid-Holland,STA,4.350856,52.026711
Broekmolenweg,59,,,2289BZ,Rijswijk,Rijswijk,Zuid-Holland,STA,4.350965,52.026651
Madame Curielaan,1,a,,2289CA,Rijswijk,Rijswijk,Zuid-Holland,VBO,4.346774,52.048024
Madame Curielaan,1,b,,2289CA,Rijswijk,Rijswijk,Zuid-Holland,VBO,4.346774,52.048024
Madame Curielaan,1,c,,2289CA,Rijswijk,Rijswijk,Zuid-Holland,VBO,4.346774,52.048024
Madame Curielaan,1,d,,2289CA,Rijswijk,Rijswijk,Zuid-Holland,VBO,4.346774,52.048024
Madame Curielaan,1,,,2289CA,Rijswijk,Rijswijk,Zuid-Holland,VBO,4.346774,52.048024
Madame Curielaan,6,,,2289CA,Rijswijk,Rijswijk,Zuid-Holland,VBO,4.345655,52.048734
Madame Curielaan,8,,,2289CA,Rijswijk,Rijswijk,Zuid-Holland,VBO,4.345578,52.048585
Madame Curielaan,10,,,2289CA,Rijswijk,Rijswijk,Zuid-Holland,VBO,4.345193,52.048417
Madame Curielaan,14,,,2289CA,Rijswijk,Rijswijk,Zuid-Holland,VBO,4.344783,52.047886
Einsteinlaan,2,,,2289CC,Rijswijk,Rijswijk,Zuid-Holland,VBO,4.346855,52.046639
Einsteinlaan,3,a,,2289CC,Rijswijk,Rijswijk,Zuid-Holland,VBO,4.346131,52.047587
Einsteinlaan,3,,,2289CC,Rijswijk,Rijswijk,Zuid-Holland,VBO,4.345975,52.047874
Einsteinlaan,4,,,2289CC,Rijswijk,Rijswijk,Zuid-Holland,VBO,4.346855,52.046639
Einsteinlaan,5,,,2289CC,Rijswijk,Rijswijk,Zuid-Holland,VBO,4.347044,52.047453
Einsteinlaan,6,,,2289CC,Rijswijk,Rijswijk,Zuid-Holland,VBO,4.346855,52.046639
Einsteinlaan,7,,,2289CC,Rijswijk,Rijswijk,Zuid-Holland,VBO,4.347528,52.047189
Einsteinlaan,8,,,2289CC,Rijswijk,Rijswijk,Zuid-Holland,VBO,4.346855,52.046639
Einsteinlaan,10,,,2289CC,Rijswijk,Rijswijk,Zuid-Holland,VBO,4.346855,52.046639
Einsteinlaan,12,,,2289CC,Rijswijk,Rijswijk,Zuid-Holland,VBO,4.346855,52.046639
Einsteinlaan,14,,,2289CC,Rijswijk,Rijswijk,Zuid-Holland,VBO,4.346855,52.046639
Einsteinlaan,16,,,2289CC,Rijswijk,Rijswijk,Zuid-Holland,VBO,4.346855,52.046639
Einsteinlaan,18,,,2289CC,Rijswijk,Rijswijk,Zuid-Holland,VBO,4.346855,52.046639
Einsteinlaan,20,,,2289CC,Rijswijk,Rijswijk,Zuid-Holland,VBO,4.346855,52.046639
Einsteinlaan,22,,,2289CC,Rijswijk,Rijswijk,Zuid-Holland,VBO,4.346855,52.046639
Einsteinlaan,24,,,2289CC,Rijswijk,Rijswijk,Zuid-Holland,VBO,4.346855,52.046639
Einsteinlaan,26,,,2289CC,Rijswijk,Rijswijk,Zuid-Holland,VBO,4.346855,52.046639
Einsteinlaan,28,,,2289CC,Rijswijk,Rijswijk,Zuid-Holland,VBO,4.346855,52.046639
Einsteinlaan,30,,,2289CC,Rijswijk,Rijswijk,Zuid-Holland,VBO,4.347152,52.046557
Ampèrelaan,3,,,2289CD,Rijswijk,Rijswijk,Zuid-Holland,VBO,4.345138,52.047162
Ampèrelaan,4,a,,2289CD,Rijswijk,Rijswijk,Zuid-Holland,VBO,4.345171,52.047591
Ampèrelaan,4,b,,2289CD,Rijswijk,Rijswijk,Zuid-Holland,VBO,4.345171,52.047591
Ampèrelaan,4,c,,2289CD,Rijswijk,Rijswijk,Zuid-Holland,VBO,4.345171,52.047591
Ampèrelaan,4,d,,2289CD,Rijswijk,Rijswijk,Zuid-Holland,VBO,4.345171,52.047591
Ampèrelaan,4,e,,2289CD,Rijswijk,Rijswijk,Zuid-Holland,VBO,4.345171,52.047591
Ampèrelaan,4,f,,2289CD,Rijswijk,Rijswijk,Zuid-Holland,VBO,4.345171,52.047591
Ampèrelaan,4,h,,2289CD,Rijswijk,Rijswijk,Zuid-Holland,VBO,4.345171,52.047591
Ampèrelaan,4,,,2289CD,Rijswijk,Rijswijk,Zuid-Holland,VBO,4.345171,52.047591
Braillelaan,5,,,2289CL,Rijswijk,Rijswijk,Zuid-Holland,VBO,4.345754,52.046767
Braillelaan,7,,,2289CL,Rijswijk,Rijswijk,Zuid-Holland,VBO,4.346267,52.046381
Braillelaan,9,,,2289CL,Rijswijk,Rijswijk,Zuid-Holland,VBO,4.346611,52.046230
Braillelaan,6,,,2289CM,Rijswijk,Rijswijk,Zuid-Holland,VBO,4.344790,52.046981
Braillelaan,8,,,2289CM,Rijswijk,Rijswijk,Zuid-Holland,VBO,4.345141,52.046772
Braillelaan,10,,,2289CM,Rijswijk,Rijswijk,Zuid-Holland,VBO,4.345686,52.046472
Braillelaan,14,,,2289CM,Rijswijk,Rijswijk,Zuid-Holland,VBO,4.345615,52.045796
Fleminglaan,5,,,2289CP,Rijswijk,Rijswijk,Zuid-Holland,VBO,4.345486,52.044860
Fleminglaan,10,,,2289CP,Rijswijk,Rijswijk,Zuid-Holland,VBO,4.346218,52.045782
Fleminglaan,12,a,,2289CP,Rijswijk,Rijswijk,Zuid-Holland,VBO,4.345735,52.045385
Fleminglaan,12,b,,2289CP,Rijswijk,Rijswijk,Zuid-Holland,VBO,4.345735,52.045385
Fleminglaan,12,c,,2289CP,Rijswijk,Rijswijk,Zuid-Holland,VBO,4.345735,52.045385
Fleminglaan,12,d,,2289CP,Rijswijk,Rijswijk,Zuid-Holland,VBO,4.345735,52.045385
Fleminglaan,12,,,2289CP,Rijswijk,Rijswijk,Zuid-Holland,VBO,4.345735,52.045385
Fleminglaan,16,,,2289CP,Rijswijk,Rijswijk,Zuid-Holland,VBO,4.345163,52.045005
Laan van Oversteen,2,,,2289CX,Rijswijk,Rijswijk,Zuid-Holland,VBO,4.347341,52.049978
Laan van Oversteen,4,,,2289CX,Rijswijk,Rijswijk,Zuid-Holland,VBO,4.347341,52.049978
Laan van Oversteen,6,,,2289CX,Rijswijk,Rijswijk,Zuid-Holland,VBO,4.347341,52.049978
Laan van Oversteen,8,,,2289CX,Rijswijk,Rijswijk,Zuid-Holland,VBO,4.347341,52.049978
Laan van Oversteen,10,,,2289CX,Rijswijk,Rijswijk,Zuid-Holland,VBO,4.347341,52.049978
Laan van Oversteen,11,,,2289CX,Rijswijk,Rijswijk,Zuid-Holland,VBO,4.347906,52.050777
Laan van Oversteen,12,,,2289CX,Rijswijk,Rijswijk,Zuid-Holland,VBO,4.347341,52.049978
Laan van Oversteen,14,,,2289CX,Rijswijk,Rijswijk,Zuid-Holland,VBO,4.347341,52.049978
Laan van Oversteen,16,,,2289CX,Rijswijk,Rijswijk,Zuid-Holland,VBO,4.347341,52.049978
Laan van Oversteen,18,a,,2289CX,Rijswijk,Rijswijk,Zuid-Holland,VBO,4.347692,52.050009
Laan van Oversteen,18,,,2289CX,Rijswijk,Rijswijk,Zuid-Holland,VBO,4.347341,52.049978
Laan van Oversteen,20,,,2289CX,Rijswijk,Rijswijk,Zuid-Holland,VBO,4.348039,52.049455
Laan van Oversteen,22,,,2289CX,Rijswijk,Rijswijk,Zuid-Holland,VBO,4.348177,52.049595
Park Hoornwijck,2,a,,2289CZ,Rijswijk,Rijswijk,Zuid-Holland,VBO,4.348580,52.050760
Park Hoornwijck,2,b,,2289CZ,Rijswijk,Rijswijk,Zuid-Holland,VBO,4.348580,52.050760
Park Hoornwijck,4,a,,2289CZ,Rijswijk,Rijswijk,Zuid-Holland,VBO,4.348606,52.050744
Park Hoornwijck,4,b,,2289CZ,Rijswijk,Rijswijk,Zuid-Holland,VBO,4.348606,52.050744
Park Hoornwijck,4,c,,2289CZ,Rijswijk,Rijswijk,Zuid-Holland,VBO,4.348763,52.050873
Park Hoornwijck,6,a,,2289CZ,Rijswijk,Rijswijk,Zuid-Holland,VBO,4.348955,52.050995
Park Hoornwijck,6,b,,2289CZ,Rijswijk,Rijswijk,Zuid-Holland,VBO,4.348955,52.050995
Park Hoornwijck,8,a,,2289CZ,Rijswijk,Rijswijk,Zuid-Holland,VBO,4.348981,52.050981
Park Hoornwijck,8,b,,2289CZ,Rijswijk,Rijswijk,Zuid-Holland,VBO,4.348981,52.050981
Park Hoornwijck,15,,,2289CZ,Rijswijk,Rijswijk,Zuid-Holland,VBO,4.348352,52.051032
Park Hoornwijck,16,,,2289CZ,Rijswijk,Rijswijk,Zuid-Holland,VBO,4.348557,52.051211
Park Hoornwijck,17,,,2289CZ,Rijswijk,Rijswijk,Zuid-Holland,VBO,4.348198,52.051146
Park Hoornwijck,18,,,2289CZ,Rijswijk,Rijswijk,Zuid-Holland,VBO,4.348406,52.051323
Park Hoornwijck,19,,,2289CZ,Rijswijk,Rijswijk,Zuid-Holland,VBO,4.348056,52.051261
Park Hoornwijck,20,,,2289CZ,Rijswijk,Rijswijk,Zuid-Holland,VBO,4.348311,52.051431
Park Hoornwijck,21,,,2289CZ,Rijswijk,Rijswijk,Zuid-Holland,VBO,4.347886,52.051323
Park Hoornwijck,22,,,2289CZ,Rijswijk,Rijswijk,Zuid-Holland,VBO,4.348148,52.051500
Park Hoornwijck,23,,,2289CZ,Rijswijk,Rijswijk,Zuid-Holland,VBO,4.347719,52.051426
Park Hoornwijck,24,,,2289CZ,Rijswijk,Rijswijk,Zuid-Holland,VBO,4.347962,52.051580
Park Hoornwijck,25,,,2289CZ,Rijswijk,Rijswijk,Zuid-Holland,VBO,4.347616,52.051509
Park Hoornwijck,26,,,2289CZ,Rijswijk,Rijswijk,Zuid-Holland,VBO,4.347846,52.051672
Park Hoornwijck,27,,,2289CZ,Rijswijk,Rijswijk,Zuid-Holland,VBO,4.347428,52.051580
Park Hoornwijck,28,,,2289CZ,Rijswijk,Rijswijk,Zuid-Holland,VBO,4.347692,52.051754
Park Hoornwijck,29,,,2289CZ,Rijswijk,Rijswijk,Zuid-Holland,VBO,4.347329,52.051706
Park Hoornwijck,30,,,2289CZ,Rijswijk,Rijswijk,Zuid-Holland,VBO,4.347545,52.051844
Park Hoornwijck,31,,,2289CZ,Rijswijk,Rijswijk,Zuid-Holland,VBO,4.347193,52.051789
Park Hoornwijck,32,,,2289CZ,Rijswijk,Rijswijk,Zuid-Holland,VBO,4.347415,52.051950
Park Hoornwijck,33,,,2289CZ,Rijswijk,Rijswijk,Zuid-Holland,VBO,4.347072,52.051869
Park Hoornwijck,34,,,2289CZ,Rijswijk,Rijswijk,Zuid-Holland,VBO,4.347267,52.052040
Park Hoornwijck,35,,,2289CZ,Rijswijk,Rijswijk,Zuid-Holland,VBO,4.346896,52.051950
Park Hoornwijck,36,,,2289CZ,Rijswijk,Rijswijk,Zuid-Holland,VBO,4.347101,52.052106
Park Hoornwijck,37,,,2289CZ,Rijswijk,Rijswijk,Zuid-Holland,VBO,4.346738,52.052047
Park Hoornwijck,38,,,2289CZ,Rijswijk,Rijswijk,Zuid-Holland,VBO,4.346957,52.052194
Park Hoornwijck,39,,,2289CZ,Rijswijk,Rijswijk,Zuid-Holland,VBO,4.346553,52.052148
Park Hoornwijck,40,,,2289CZ,Rijswijk,Rijswijk,Zuid-Holland,VBO,4.346800,52.052301
Park Hoornwijck,41,,,2289CZ,Rijswijk,Rijswijk,Zuid-Holland,VBO,4.346437,52.052244
Park Hoornwijck,42,,,2289CZ,Rijswijk,Rijswijk,Zuid-Holland,VBO,4.346604,52.052432
Laan van Vredenoord,1,,,2289DA,Rijswijk,Rijswijk,Zuid-Holland,VBO,4.344907,52.051900
Laan van Vredenoord,3,,,2289DA,Rijswijk,Rijswijk,Zuid-Holland,VBO,4.344907,52.051900
Laan van Vredenoord,5,,,2289DA,Rijswijk,Rijswijk,Zuid-Holland,VBO,4.344907,52.051900
Laan van Vredenoord,7,,,2289DA,Rijswijk,Rijswijk,Zuid-Holland,VBO,4.344907,52.051900
Laan van Vredenoord,11,,,2289DA,Rijswijk,Rijswijk,Zuid-Holland,VBO,4.345582,52.052033
Laan van Vredenoord,13,a,,2289DA,Rijswijk,Rijswijk,Zuid-Holland,VBO,4.345947,52.051716
Laan van Vredenoord,13,,,2289DA,Rijswijk,Rijswijk,Zuid-Holland,VBO,4.345924,52.051702
Laan van Vredenoord,15,,,2289DA,Rijswijk,Rijswijk,Zuid-Holland,VBO,4.345970,52.051731
Laan van Vredenoord,17,a,,2289DA,Rijswijk,Rijswijk,Zuid-Holland,VBO,4.346124,52.051608
Laan van Vredenoord,17,,,2289DA,Rijswijk,Rijswijk,Zuid-Holland,VBO,4.346101,52.051594
Laan van Vredenoord,19,a,,2289DA,Rijswijk,Rijswijk,Zuid-Holland,VBO,4.346170,52.051638
Laan van Vredenoord,19,,,2289DA,Rijswijk,Rijswijk,Zuid-Holland,VBO,4.346147,52.051623
Laan van Vredenoord,21,a,,2289DA,Rijswijk,Rijswijk,Zuid-Holland,VBO,4.346298,52.051504
Laan van Vredenoord,21,,,2289DA,Rijswijk,Rijswijk,Zuid-Holland,VBO,4.346275,52.051489
Laan van Vredenoord,23,a,,2289DA,Rijswijk,Rijswijk,Zuid-Holland,VBO,4.346344,52.051533
Laan van Vredenoord,23,,,2289DA,Rijswijk,Rijswijk,Zuid-Holland,VBO,4.346321,52.051518
Laan van Vredenoord,25,a,,2289DA,Rijswijk,Rijswijk,Zuid-Holland,VBO,4.346473,52.051398
Laan van Vredenoord,25,,,2289DA,Rijswijk,Rijswijk,Zuid-Holland,VBO,4.346450,52.051383
Laan van Vredenoord,27,a,,2289DA,Rijswijk,Rijswijk,Zuid-Holland,VBO,4.346519,52.051428
Laan van Vredenoord,27,,,2289DA,Rijswijk,Rijswijk,Zuid-Holland,VBO,4.346496,52.051413
Laan van Vredenoord,29,a,,2289DA,Rijswijk,Rijswijk,Zuid-Holland,VBO,4.346649,52.051291
Laan van Vredenoord,29,,,2289DA,Rijswijk,Rijswijk,Zuid-Holland,VBO,4.346627,52.051276
Laan van Vredenoord,31,,,2289DA,Rijswijk,Rijswijk,Zuid-Holland,VBO,4.346672,52.051306
Laan van Vredenoord,33,,,2289DA,Rijswijk,Rijswijk,Zuid-Holland,VBO,4.346853,52.051139
Laan van Vredenoord,35,,,2289DA,Rijswijk,Rijswijk,Zuid-Holland,VBO,4.346853,52.051139
Laan van Vredenoord,37,,,2289DA,Rijswijk,Rijswijk,Zuid-Holland,VBO,4.346853,52.051139
Laan van Vredenoord,39,,,2289DA,Rijswijk,Rijswijk,Zuid-Holland,VBO,4.346853,52.051139
Laan van Vredenoord,43,,,2289DA,Rijswijk,Rijswijk,Zuid-Holland,VBO,4.347545,52.050723
Laan van Vredenoord,45,,,2289DA,Rijswijk,Rijswijk,Zuid-Holland,VBO,4.347545,52.050723
Laan van Vredenoord,47,,,2289DA,Rijswijk,Rijswijk,Zuid-Holland,VBO,4.347545,52.050723
Laan van Vredenoord,49,,,2289DA,Rijswijk,Rijswijk,Zuid-Holland,VBO,4.347545,52.050723
Laan van Zuid Hoorn,15,,,2289DC,Rijswijk,Rijswijk,Zuid-Holland,VBO,4.348971,52.050511
Laan van Zuid Hoorn,25,,,2289DC,Rijswijk,Rijswijk,Zuid-Holland,VBO,4.349699,52.050004
Laan van Zuid Hoorn,27,,,2289DC,Rijswijk,Rijswijk,Zuid-Holland,VBO,4.349550,52.050136
Laan van Zuid Hoorn,29,,,2289DC,Rijswijk,Rijswijk,Zuid-Holland,VBO,4.349527,52.050150
Laan van Zuid Hoorn,31,,,2289DC,Rijswijk,Rijswijk,Zuid-Holland,VBO,4.349402,52.050225
Laan van Zuid Hoorn,33,,,2289DC,Rijswijk,Rijswijk,Zuid-Holland,VBO,4.349377,52.050240
Laan van Zuid Hoorn,35,,,2289DC,Rijswijk,Rijswijk,Zuid-Holland,VBO,4.349225,52.050331
Laan van Zuid Hoorn,37,,,2289DC,Rijswijk,Rijswijk,Zuid-Holland,VBO,4.349640,52.050533
Laan van Zuid Hoorn,39,,,2289DC,Rijswijk,Rijswijk,Zuid-Holland,VBO,4.349892,52.050390
Laan van Zuid Hoorn,41,,,2289DC,Rijswijk,Rijswijk,Zuid-Holland,VBO,4.349993,52.050329
Laan van Zuid Hoorn,43,,,2289DC,Rijswijk,Rijswijk,Zuid-Holland,VBO,4.350091,52.050270
Laan van Zuid Hoorn,45,,,2289DC,Rijswijk,Rijswijk,Zuid-Holland,VBO,4.350192,52.050210
Laan van Zuid Hoorn,47,,,2289DC,Rijswijk,Rijswijk,Zuid-Holland,VBO,4.350218,52.050194
Laan van Zuid Hoorn,49,,,2289DC,Rijswijk,Rijswijk,Zuid-Holland,VBO,4.350318,52.050134
Laan van Zuid Hoorn,51,,,2289DC,Rijswijk,Rijswijk,Zuid-Holland,VBO,4.350421,52.050072
Laan van Zuid Hoorn,53,,,2289DC,Rijswijk,Rijswijk,Zuid-Holland,VBO,4.350518,52.050013
Laan van Zuid Hoorn,55,,,2289DC,Rijswijk,Rijswijk,Zuid-Holland,VBO,4.350752,52.049862
Laan van Zuid Hoorn,57,,,2289DC,Rijswijk,Rijswijk,Zuid-Holland,VBO,4.350438,52.049601
Laan van Zuid Hoorn,59,,,2289DC,Rijswijk,Rijswijk,Zuid-Holland,VBO,4.350287,52.049692
Laan van Zuid Hoorn,61,,,2289DC,Rijswijk,Rijswijk,Zuid-Holland,VBO,4.350264,52.049706
Laan van Zuid Hoorn,63,,,2289DC,Rijswijk,Rijswijk,Zuid-Holland,VBO,4.350137,52.049782
Laan van Zuid Hoorn,65,,,2289DC,Rijswijk,Rijswijk,Zuid-Holland,VBO,4.350114,52.049796
Laan van Zuid Hoorn,67,,,2289DC,Rijswijk,Rijswijk,Zuid-Holland,VBO,4.349900,52.049887
Laan van Zuid Hoorn,151,,,2289DD,Rijswijk,Rijswijk,Zuid-Holland,VBO,4.350941,52.049491
Laan van Zuid Hoorn,165,,,2289DD,Rijswijk,Rijswijk,Zuid-Holland,VBO,4.352050,52.049067
Laan van Zuid Hoorn,167,,,2289DD,Rijswijk,Rijswijk,Zuid-Holland,VBO,4.352082,52.049180
Laan van Zuid Hoorn,2,,,2289DE,Rijswijk,Rijswijk,Zuid-Holland,VBO,4.348626,52.050017
Laan van Zuid Hoorn,4,,,2289DE,Rijswijk,Rijswijk,Zuid-Holland,VBO,4.348403,52.050213
Laan van Zuid Hoorn,6,,,2289DE,Rijswijk,Rijswijk,Zuid-Holland,VBO,4.348403,52.050213
Laan van Zuid Hoorn,8,,,2289DE,Rijswijk,Rijswijk,Zuid-Holland,VBO,4.348403,52.050213
Laan van Zuid Hoorn,10,,,2289DE,Rijswijk,Rijswijk,Zuid-Holland,VBO,4.348403,52.050213
Laan van Zuid Hoorn,12,,,2289DE,Rijswijk,Rijswijk,Zuid-Holland,VBO,4.348403,52.050213
Laan van Zuid Hoorn,14,,,2289DE,Rijswijk,Rijswijk,Zuid-Holland,VBO,4.349152,52.049852
Laan van Zuid Hoorn,16,,,2289DE,Rijswijk,Rijswijk,Zuid-Holland,VBO,4.349152,52.049852
Laan van Zuid Hoorn,18,,,2289DE,Rijswijk,Rijswijk,Zuid-Holland,VBO,4.349152,52.049852
Laan van Zuid Hoorn,20,,,2289DE,Rijswijk,Rijswijk,Zuid-Holland,VBO,4.349152,52.049852
Laan van Zuid Hoorn,22,,,2289DE,Rijswijk,Rijswijk,Zuid-Holland,VBO,4.349152,52.049852
Laan van Zuid Hoorn,24,,,2289DE,Rijswijk,Rijswijk,Zuid-Holland,VBO,4.349152,52.049852
Laan van Zuid Hoorn,26,,,2289DE,Rijswijk,Rijswijk,Zuid-Holland,VBO,4.349152,52.049852
Laan van Zuid Hoorn,28,,,2289DE,Rijswijk,Rijswijk,Zuid-Holland,VBO,4.349152,52.049852
Laan van Zuid Hoorn,38,,,2289DE,Rijswijk,Rijswijk,Zuid-Holland,VBO,4.349316,52.049711
Laan van Zuid Hoorn,40,,,2289DE,Rijswijk,Rijswijk,Zuid-Holland,VBO,4.349443,52.049645
Laan van Zuid Hoorn,42,,,2289DE,Rijswijk,Rijswijk,Zuid-Holland,VBO,4.349537,52.049586
Laan van Zuid Hoorn,44,,,2289DE,Rijswijk,Rijswijk,Zuid-Holland,VBO,4.349619,52.049534
Laan van Zuid Hoorn,46,,,2289DE,Rijswijk,Rijswijk,Zuid-Holland,VBO,4.349690,52.049495
Laan van Zuid Hoorn,56,,,2289DE,Rijswijk,Rijswijk,Zuid-Holland,VBO,4.349853,52.049448
Laan van Zuid Hoorn,58,,,2289DE,Rijswijk,Rijswijk,Zuid-Holland,VBO,4.349828,52.049369
Laan van Zuid Hoorn,60,,,2289DE,Rijswijk,Rijswijk,Zuid-Holland,VBO,4.350053,52.049289
Laan van Zuid Hoorn,62,,,2289DE,Rijswijk,Rijswijk,Zuid-Holland,VBO,4.350053,52.049289
Laan van Zuid Hoorn,64,,,2289DE,Rijswijk,Rijswijk,Zuid-Holland,VBO,4.350053,52.049289
Laan van Zuid Hoorn,66,,,2289DE,Rijswijk,Rijswijk,Zuid-Holland,VBO,4.350365,52.048980
Laan van Zuid Hoorn,70,,,2289DE,Rijswijk,Rijswijk,Zuid-Holland,VBO,4.351211,52.048581
Laan van Hoornwijck,15,,,2289DG,Rijswijk,Rijswijk,Zuid-Holland,VBO,4.347847,52.049165
Laan van Hoornwijck,25,,,2289DG,Rijswijk,Rijswijk,Zuid-Holland,VBO,4.349638,52.048945
Laan van Hoornwijck,27,,,2289DG,Rijswijk,Rijswijk,Zuid-Holland,VBO,4.349737,52.048756
Laan van Hoornwijck,29,a,,2289DG,Rijswijk,Rijswijk,Zuid-Holland,VBO,4.349748,52.048202
Laan van Hoornwijck,29,b,,2289DG,Rijswijk,Rijswijk,Zuid-Holland,VBO,4.350216,52.048632
Laan van Hoornwijck,29,,,2289DG,Rijswijk,Rijswijk,Zuid-Holland,VBO,4.349853,52.048290
Laan van Hoornwijck,55,,,2289DG,Rijswijk,Rijswijk,Zuid-Holland,VBO,4.350606,52.048181
Laan van Hoornwijck,65,,,2289DG,Rijswijk,Rijswijk,Zuid-Holland,VBO,4.350585,52.048195
Laan van Hoornwijck,70,,,2289DG,Rijswijk,Rijswijk,Zuid-Holland,VBO,4.347069,52.048663
Laan van Beens,1,,,2289DH,Rijswijk,Rijswijk,Zuid-Holland,VBO,4.344292,52.052248
Laan van Beens,3,,,2289DH,Rijswijk,Rijswijk,Zuid-Holland,VBO,4.344181,52.052323
Laan van Beens,5,,,2289DH,Rijswijk,Rijswijk,Zuid-Holland,VBO,4.344196,52.052426
Laan van Vredenoord,2,,,2289DJ,Rijswijk,Rijswijk,Zuid-Holland,VBO,4.345888,52.051440
Laan van Vredenoord,8,,,2289DJ,Rijswijk,Rijswijk,Zuid-Holland,VBO,4.345345,52.051517
Laan van Vredenoord,10,,,2289DJ,Rijswijk,Rijswijk,Zuid-Holland,VBO,4.345345,52.051517
Laan van Vredenoord,12,,,2289DJ,Rijswijk,Rijswijk,Zuid-Holland,VBO,4.345345,52.051517
Laan van Vredenoord,14,,,2289DJ,Rijswijk,Rijswijk,Zuid-Holland,VBO,4.345876,52.051113
Laan van Vredenoord,16,,,2289DJ,Rijswijk,Rijswijk,Zuid-Holland,VBO,4.345876,52.051113
Laan van Vredenoord,18,,,2289DJ,Rijswijk,Rijswijk,Zuid-Holland,VBO,4.345876,52.051113
Laan van Vredenoord,20,,,2289DJ,Rijswijk,Rijswijk,Zuid-Holland,VBO,4.345876,52.051113
Laan van Vredenoord,22,,,2289DJ,Rijswijk,Rijswijk,Zuid-Holland,VBO,4.345876,52.051113
Laan van Vredenoord,24,,,2289DJ,Rijswijk,Rijswijk,Zuid-Holland,VBO,4.345950,52.051040
Laan van Vredenoord,48,,,2289DJ,Rijswijk,Rijswijk,Zuid-Holland,VBO,4.346276,52.050998
Laan van Vredenoord,50,,,2289DJ,Rijswijk,Rijswijk,Zuid-Holland,VBO,4.346843,52.050557
Laan van Vredenoord,52,,,2289DJ,Rijswijk,Rijswijk,Zuid-Holland,VBO,4.346843,52.050557
Laan van Vredenoord,54,,,2289DJ,Rijswijk,Rijswijk,Zuid-Holland,VBO,4.346843,52.050557
Laan van Vredenoord,56,,,2289DJ,Rijswijk,Rijswijk,Zuid-Holland,VBO,4.346843,52.050557
Laan van Vredenoord,58,,,2289DJ,Rijswijk,Rijswijk,Zuid-Holland,VBO,4.346843,52.050557
Laan van Vredenoord,60,,,2289DJ,Rijswijk,Rijswijk,Zuid-Holland,VBO,4.346843,52.050557
Laan van Vredenoord,62,,,2289DJ,Rijswijk,Rijswijk,Zuid-Holland,VBO,4.346843,52.050557
Laan van Vredenoord,64,,,2289DJ,Rijswijk,Rijswijk,Zuid-Holland,VBO,4.346843,52.050557
Laan van Vredenoord,66,,,2289DJ,Rijswijk,Rijswijk,Zuid-Holland,VBO,4.346843,52.050557
Laan van Vredenoord,68,,,2289DJ,Rijswijk,Rijswijk,Zuid-Holland,VBO,4.346843,52.050557
Laan van Vredenoord,70,,,2289DJ,Rijswijk,Rijswijk,Zuid-Holland,VBO,4.346843,52.050557
Laan van Vredenoord,72,,,2289DJ,Rijswijk,Rijswijk,Zuid-Holland,VBO,4.346843,52.050557
Laan van Vredenoord,74,,,2289DJ,Rijswijk,Rijswijk,Zuid-Holland,VBO,4.346843,52.050557
Laan van Vredenoord,76,,,2289DJ,Rijswijk,Rijswijk,Zuid-Holland,VBO,4.346843,52.050557
Laan van Vredenoord,78,,,2289DJ,Rijswijk,Rijswijk,Zuid-Holland,VBO,4.347021,52.050755
Merellaan,2,,,2289EA,Rijswijk,Rijswijk,Zuid-Holland,VBO,4.350993,52.024999
Merellaan,4,,,2289EA,Rijswijk,Rijswijk,Zuid-Holland,VBO,4.350993,52.024999
Merellaan,6,,,2289EA,Rijswijk,Rijswijk,Zuid-Holland,VBO,4.350993,52.024999
Merellaan,8,,,2289EA,Rijswijk,Rijswijk,Zuid-Holland,VBO,4.350993,52.024999
Merellaan,10,,,2289EA,Rijswijk,Rijswijk,Zuid-Holland,VBO,4.350993,52.024999
Merellaan,12,,,2289EA,Rijswijk,Rijswijk,Zuid-Holland,VBO,4.350993,52.024999
Merellaan,14,,,2289EA,Rijswijk,Rijswijk,Zuid-Holland,VBO,4.350993,52.024999
Merellaan,16,,,2289EA,Rijswijk,Rijswijk,Zuid-Holland,VBO,4.350993,52.024999
Merellaan,18,,,2289EA,Rijswijk,Rijswijk,Zuid-Holland,VBO,4.350993,52.024999
Merellaan,20,,,2289EA,Rijswijk,Rijswijk,Zuid-Holland,VBO,4.350993,52.024999
Merellaan,22,,,2289EA,Rijswijk,Rijswijk,Zuid-Holland,VBO,4.350993,52.024999
Merellaan,24,,,2289EA,Rijswijk,Rijswijk,Zuid-Holland,VBO,4.350993,52.024999
Merellaan,26,,,2289EA,Rijswijk,Rijswijk,Zuid-Holland,VBO,4.350993,52.024999
Merellaan,28,,,2289EA,Rijswijk,Rijswijk,Zuid-Holland,VBO,4.350993,52.024999
Merellaan,30,,,2289EA,Rijswijk,Rijswijk,Zuid-Holland,VBO,4.350993,52.024999
Merellaan,32,,,2289EA,Rijswijk,Rijswijk,Zuid-Holland,VBO,4.350993,52.024999
Merellaan,34,,,2289EA,Rijswijk,Rijswijk,Zuid-Holland,VBO,4.350993,52.024999
Merellaan,36,,,2289EA,Rijswijk,Rijswijk,Zuid-Holland,VBO,4.350993,52.024999
Merellaan,38,,,2289EA,Rijswijk,Rijswijk,Zuid-Holland,VBO,4.350993,52.024999
Merellaan,40,,,2289EA,Rijswijk,Rijswijk,Zuid-Holland,VBO,4.350993,52.024999
Merellaan,42,,,2289EA,Rijswijk,Rijswijk,Zuid-Holland,VBO,4.350993,52.024999
Merellaan,44,,,2289EA,Rijswijk,Rijswijk,Zuid-Holland,VBO,4.350993,52.024999
Merellaan,46,,,2289EA,Rijswijk,Rijswijk,Zuid-Holland,VBO,4.350993,52.024999
Merellaan,48,,,2289EB,Rijswijk,Rijswijk,Zuid-Holland,VBO,4.351741,52.024504
Merellaan,50,,,2289EB,Rijswijk,Rijswijk,Zuid-Holland,VBO,4.351741,52.024504
Merellaan,52,,,2289EB,Rijswijk,Rijswijk,Zuid-Holland,VBO,4.351741,52.024504
Merellaan,54,,,2289EB,Rijswijk,Rijswijk,Zuid-Holland,VBO,4.351741,52.024504
Merellaan,56,,,2289EB,Rijswijk,Rijswijk,Zuid-Holland,VBO,4.351741,52.024504
Merellaan,58,,,2289EB,Rijswijk,Rijswijk,Zuid-Holland,VBO,4.351741,52.024504
Merellaan,60,,,2289EB,Rijswijk,Rijswijk,Zuid-Holland,VBO,4.351741,52.024504
Merellaan,62,,,2289EB,Rijswijk,Rijswijk,Zuid-Holland,VBO,4.351741,52.024504
Merellaan,64,,,2289EB,Rijswijk,Rijswijk,Zuid-Holland,VBO,4.351741,52.024504
Merellaan,66,,,2289EB,Rijswijk,Rijswijk,Zuid-Holland,VBO,4.351741,52.024504
Merellaan,68,,,2289EB,Rijswijk,Rijswijk,Zuid-Holland,VBO,4.351741,52.024504
Merellaan,70,,,2289EB,Rijswijk,Rijswijk,Zuid-Holland,VBO,4.351741,52.024504
Merellaan,72,,,2289EB,Rijswijk,Rijswijk,Zuid-Holland,VBO,4.351741,52.024504
Merellaan,74,,,2289EB,Rijswijk,Rijswijk,Zuid-Holland,VBO,4.351741,52.024504
Merellaan,76,,,2289EB,Rijswijk,Rijswijk,Zuid-Holland,VBO,4.351741,52.024504
Merellaan,78,,,2289EB,Rijswijk,Rijswijk,Zuid-Holland,VBO,4.351741,52.024504
Merellaan,80,,,2289EB,Rijswijk,Rijswijk,Zuid-Holland,VBO,4.351741,52.024504
Merellaan,82,,,2289EB,Rijswijk,Rijswijk,Zuid-Holland,VBO,4.351741,52.024504
Merellaan,84,,,2289EB,Rijswijk,Rijswijk,Zuid-Holland,VBO,4.351741,52.024504
Merellaan,86,,,2289EB,Rijswijk,Rijswijk,Zuid-Holland,VBO,4.351741,52.024504
Merellaan,88,,,2289EB,Rijswijk,Rijswijk,Zuid-Holland,VBO,4.351741,52.024504
Merellaan,90,,,2289EB,Rijswijk,Rijswijk,Zuid-Holland,VBO,4.351741,52.024504
Merellaan,92,,,2289EB,Rijswijk,Rijswijk,Zuid-Holland,VBO,4.351741,52.024504
Merellaan,94,,,2289EB,Rijswijk,Rijswijk,Zuid-Holland,VBO,4.351741,52.024504
Merellaan,96,,,2289EB,Rijswijk,Rijswijk,Zuid-Holland,VBO,4.351741,52.024504
Merellaan,98,,,2289EB,Rijswijk,Rijswijk,Zuid-Holland,VBO,4.351741,52.024504
Merellaan,100,,,2289EB,Rijswijk,Rijswijk,Zuid-Holland,VBO,4.351741,52.024504
Merellaan,102,,,2289EB,Rijswijk,Rijswijk,Zuid-Holland,VBO,4.351741,52.024504
Merellaan,104,,,2289EB,Rijswijk,Rijswijk,Zuid-Holland,VBO,4.351741,52.024504
Merellaan,106,,,2289EB,Rijswijk,Rijswijk,Zuid-Holland,VBO,4.351741,52.024504
Merellaan,108,,,2289EB,Rijswijk,Rijswijk,Zuid-Holland,VBO,4.351741,52.024504
Merellaan,1,,,2289EC,Rijswijk,Rijswijk,Zuid-Holland,VBO,4.351386,52.025220
Merellaan,3,,,2289EC,Rijswijk,Rijswijk,Zuid-Holland,VBO,4.351448,52.025185
Merellaan,5,,,2289EC,Rijswijk,Rijswijk,Zuid-Holland,VBO,4.351513,52.025148
Merellaan,7,,,2289EC,Rijswijk,Rijswijk,Zuid-Holland,VBO,4.351577,52.025111
Merellaan,9,,,2289EC,Rijswijk,Rijswijk,Zuid-Holland,VBO,4.351750,52.025013
Merellaan,11,,,2289EC,Rijswijk,Rijswijk,Zuid-Holland,VBO,4.351809,52.024980
Merellaan,13,,,2289EC,Rijswijk,Rijswijk,Zuid-Holland,VBO,4.351868,52.024946
Merellaan,15,,,2289EC,Rijswijk,Rijswijk,Zuid-Holland,VBO,4.351929,52.024912
Merellaan,17,,,2289EC,Rijswijk,Rijswijk,Zuid-Holland,VBO,4.351990,52.024877
Merellaan,19,,,2289EC,Rijswijk,Rijswijk,Zuid-Holland,VBO,4.352051,52.024843
Merellaan,21,,,2289EC,Rijswijk,Rijswijk,Zuid-Holland,VBO,4.352112,52.024808
Kievitlaan,3,,,2289ED,Rijswijk,Rijswijk,Zuid-Holland,VBO,4.351862,52.025690
Kievitlaan,4,,,2289ED,Rijswijk,Rijswijk,Zuid-Holland,VBO,4.351783,52.025479
Kievitlaan,5,,,2289ED,Rijswijk,Rijswijk,Zuid-Holland,VBO,4.351923,52.025655
Kievitlaan,6,,,2289ED,Rijswijk,Rijswijk,Zuid-Holland,VBO,4.351847,52.025443
Kievitlaan,7,,,2289ED,Rijswijk,Rijswijk,Zuid-Holland,VBO,4.351983,52.025621
Kievitlaan,9,,,2289ED,Rijswijk,Rijswijk,Zuid-Holland,VBO,4.352045,52.025586
Kievitlaan,10,,,2289ED,Rijswijk,Rijswijk,Zuid-Holland,VBO,4.351978,52.025369
Kievitlaan,11,,,2289ED,Rijswijk,Rijswijk,Zuid-Holland,VBO,4.352104,52.025552
Kievitlaan,12,,,2289ED,Rijswijk,Rijswijk,Zuid-Holland,VBO,4.352155,52.025268
Kievitlaan,13,,,2289ED,Rijswijk,Rijswijk,Zuid-Holland,VBO,4.352163,52.025519
Kievitlaan,14,,,2289ED,Rijswijk,Rijswijk,Zuid-Holland,VBO,4.352216,52.025233
Kievitlaan,15,,,2289ED,Rijswijk,Rijswijk,Zuid-Holland,VBO,4.352354,52.025411
Kievitlaan,16,,,2289ED,Rijswijk,Rijswijk,Zuid-Holland,VBO,4.352277,52.025199
Kievitlaan,17,,,2289ED,Rijswijk,Rijswijk,Zuid-Holland,VBO,4.352413,52.025377
Kievitlaan,18,,,2289ED,Rijswijk,Rijswijk,Zuid-Holland,VBO,4.352338,52.025164
Kievitlaan,19,,,2289ED,Rijswijk,Rijswijk,Zuid-Holland,VBO,4.352473,52.025343
Kievitlaan,20,,,2289ED,Rijswijk,Rijswijk,Zuid-Holland,VBO,4.352402,52.025128
Kievitlaan,21,,,2289ED,Rijswijk,Rijswijk,Zuid-Holland,VBO,4.352533,52.025309
Kievitlaan,22,,,2289ED,Rijswijk,Rijswijk,Zuid-Holland,VBO,4.352463,52.025093
Kievitlaan,23,,,2289ED,Rijswijk,Rijswijk,Zuid-Holland,VBO,4.352590,52.025276
Kievitlaan,24,,,2289ED,Rijswijk,Rijswijk,Zuid-Holland,VBO,4.352524,52.025058
Kievitlaan,25,,,2289ED,Rijswijk,Rijswijk,Zuid-Holland,VBO,4.352649,52.025242
Kievitlaan,26,,,2289ED,Rijswijk,Rijswijk,Zuid-Holland,VBO,4.352585,52.025024
Kievitlaan,27,,,2289ED,Rijswijk,Rijswijk,Zuid-Holland,VBO,4.352710,52.025208
Kievitlaan,29,,,2289ED,Rijswijk,Rijswijk,Zuid-Holland,VBO,4.352770,52.025174
Kievitlaan,31,,,2289ED,Rijswijk,Rijswijk,Zuid-Holland,VBO,4.352831,52.025139
Leeuweriklaan,3,,,2289EE,Rijswijk,Rijswijk,Zuid-Holland,VBO,4.352308,52.026206
Leeuweriklaan,5,,,2289EE,Rijswijk,Rijswijk,Zuid-Holland,VBO,4.352366,52.026173
Leeuweriklaan,7,,,2289EE,Rijswijk,Rijswijk,Zuid-Holland,VBO,4.352424,52.026140
Leeuweriklaan,9,,,2289EE,Rijswijk,Rijswijk,Zuid-Holland,VBO,4.352483,52.026107
Leeuweriklaan,11,,,2289EE,Rijswijk,Rijswijk,Zuid-Holland,VBO,4.352540,52.026074
Leeuweriklaan,13,,,2289EE,Rijswijk,Rijswijk,Zuid-Holland,VBO,4.352649,52.026071
Leeuweriklaan,15,,,2289EE,Rijswijk,Rijswijk,Zuid-Holland,VBO,4.352708,52.026038
Leeuweriklaan,17,,,2289EE,Rijswijk,Rijswijk,Zuid-Holland,VBO,4.352767,52.026004
Leeuweriklaan,19,,,2289EE,Rijswijk,Rijswijk,Zuid-Holland,VBO,4.352826,52.025971
Leeuweriklaan,21,,,2289EE,Rijswijk,Rijswijk,Zuid-Holland,VBO,4.353012,52.025865
Leeuweriklaan,23,,,2289EE,Rijswijk,Rijswijk,Zuid-Holland,VBO,4.353070,52.025832
Leeuweriklaan,25,,,2289EE,Rijswijk,Rijswijk,Zuid-Holland,VBO,4.353130,52.025797
Leeuweriklaan,27,,,2289EE,Rijswijk,Rijswijk,Zuid-Holland,VBO,4.353190,52.025763
Leeuweriklaan,29,,,2289EE,Rijswijk,Rijswijk,Zuid-Holland,VBO,4.353218,52.025689
Leeuweriklaan,31,,,2289EE,Rijswijk,Rijswijk,Zuid-Holland,VBO,4.353278,52.025655
Leeuweriklaan,33,,,2289EE,Rijswijk,Rijswijk,Zuid-Holland,VBO,4.353333,52.025624
Leeuweriklaan,35,,,2289EE,Rijswijk,Rijswijk,Zuid-Holland,VBO,4.353391,52.025591
Leeuweriklaan,37,,,2289EE,Rijswijk,Rijswijk,Zuid-Holland,VBO,4.353448,52.025559
Leeuweriklaan,39,,,2289EE,Rijswijk,Rijswijk,Zuid-Holland,VBO,4.353506,52.025526
Leeuweriklaan,4,,,2289EG,Rijswijk,Rijswijk,Zuid-Holland,VBO,4.352159,52.026035
Leeuweriklaan,6,,,2289EG,Rijswijk,Rijswijk,Zuid-Holland,VBO,4.352223,52.025999
Leeuweriklaan,8,,,2289EG,Rijswijk,Rijswijk,Zuid-Holland,VBO,4.352288,52.025962
Leeuweriklaan,10,,,2289EG,Rijswijk,Rijswijk,Zuid-Holland,VBO,4.352355,52.025924
Leeuweriklaan,12,,,2289EG,Rijswijk,Rijswijk,Zuid-Holland,VBO,4.352364,52.025861
Leeuweriklaan,14,,,2289EG,Rijswijk,Rijswijk,Zuid-Holland,VBO,4.352427,52.025825
Leeuweriklaan,16,,,2289EG,Rijswijk,Rijswijk,Zuid-Holland,VBO,4.352490,52.025789
Leeuweriklaan,18,,,2289EG,Rijswijk,Rijswijk,Zuid-Holland,VBO,4.352554,52.025753
Leeuweriklaan,20,,,2289EG,Rijswijk,Rijswijk,Zuid-Holland,VBO,4.352738,52.025648
Leeuweriklaan,22,,,2289EG,Rijswijk,Rijswijk,Zuid-Holland,VBO,4.352797,52.025615
Leeuweriklaan,24,,,2289EG,Rijswijk,Rijswijk,Zuid-Holland,VBO,4.352855,52.025581
Leeuweriklaan,26,,,2289EG,Rijswijk,Rijswijk,Zuid-Holland,VBO,4.352913,52.025548
Leeuweriklaan,28,,,2289EG,Rijswijk,Rijswijk,Zuid-Holland,VBO,4.353022,52.025546
Leeuweriklaan,30,,,2289EG,Rijswijk,Rijswijk,Zuid-Holland,VBO,4.353083,52.025511
Leeuweriklaan,32,,,2289EG,Rijswijk,Rijswijk,Zuid-Holland,VBO,4.353145,52.025476
Leeuweriklaan,34,,,2289EG,Rijswijk,Rijswijk,Zuid-Holland,VBO,4.353207,52.025441
Leeuweriklaan,36,,,2289EG,Rijswijk,Rijswijk,Zuid-Holland,VBO,4.353268,52.025406
Leeuweriklaan,38,,,2289EG,Rijswijk,Rijswijk,Zuid-Holland,VBO,4.353330,52.025371
Nachtegaallaan,4,,,2289EH,Rijswijk,Rijswijk,Zuid-Holland,VBO,4.351151,52.025302
Nachtegaallaan,6,,,2289EH,Rijswijk,Rijswijk,Zuid-Holland,VBO,4.351209,52.025358
Nachtegaallaan,8,,,2289EH,Rijswijk,Rijswijk,Zuid-Holland,VBO,4.351268,52.025415
Nachtegaallaan,10,,,2289EH,Rijswijk,Rijswijk,Zuid-Holland,VBO,4.351329,52.025474
Nachtegaallaan,12,,,2289EH,Rijswijk,Rijswijk,Zuid-Holland,VBO,4.351388,52.025531
Nachtegaallaan,14,,,2289EH,Rijswijk,Rijswijk,Zuid-Holland,VBO,4.351447,52.025588
Nachtegaallaan,16,,,2289EH,Rijswijk,Rijswijk,Zuid-Holland,VBO,4.351505,52.025645
Nachtegaallaan,18,,,2289EH,Rijswijk,Rijswijk,Zuid-Holland,VBO,4.351641,52.025798
Nachtegaallaan,20,,,2289EH,Rijswijk,Rijswijk,Zuid-Holland,VBO,4.351688,52.025859
Nachtegaallaan,22,,,2289EH,Rijswijk,Rijswijk,Zuid-Holland,VBO,4.351733,52.025919
Nachtegaallaan,24,,,2289EH,Rijswijk,Rijswijk,Zuid-Holland,VBO,4.351779,52.025979
Nachtegaallaan,26,,,2289EH,Rijswijk,Rijswijk,Zuid-Holland,VBO,4.351824,52.026038
Nachtegaallaan,28,,,2289EH,Rijswijk,Rijswijk,Zuid-Holland,VBO,4.351869,52.026098
Nachtegaallaan,30,,,2289EH,Rijswijk,Rijswijk,Zuid-Holland,VBO,4.351915,52.026158
Nachtegaallaan,32,,,2289EH,Rijswijk,Rijswijk,Zuid-Holland,VBO,4.352054,52.026340
Nachtegaallaan,34,,,2289EH,Rijswijk,Rijswijk,Zuid-Holland,VBO,4.352102,52.026402
Nachtegaallaan,36,,,2289EH,Rijswijk,Rijswijk,Zuid-Holland,VBO,4.352149,52.026464
Nachtegaallaan,38,,,2289EH,Rijswijk,Rijswijk,Zuid-Holland,VBO,4.352196,52.026527
Nachtegaallaan,40,,,2289EH,Rijswijk,Rijswijk,Zuid-Holland,VBO,4.352257,52.026563
Nachtegaallaan,42,,,2289EH,Rijswijk,Rijswijk,Zuid-Holland,VBO,4.352318,52.026642
Nachtegaallaan,44,,,2289EH,Rijswijk,Rijswijk,Zuid-Holland,VBO,4.352399,52.026681
Sniplaan,3,,,2289EK,Rijswijk,Rijswijk,Zuid-Holland,VBO,4.352330,52.024643
Sniplaan,5,,,2289EK,Rijswijk,Rijswijk,Zuid-Holland,VBO,4.352397,52.024673
Sniplaan,7,,,2289EK,Rijswijk,Rijswijk,Zuid-Holland,VBO,4.352464,52.024702
Sniplaan,9,,,2289EK,Rijswijk,Rijswijk,Zuid-Holland,VBO,4.352531,52.024733
Sniplaan,11,,,2289EK,Rijswijk,Rijswijk,Zuid-Holland,VBO,4.352597,52.024762
Sniplaan,13,,,2289EK,Rijswijk,Rijswijk,Zuid-Holland,VBO,4.352657,52.024795
Sniplaan,15,,,2289EK,Rijswijk,Rijswijk,Zuid-Holland,VBO,4.352729,52.024821
Sniplaan,17,,,2289EK,Rijswijk,Rijswijk,Zuid-Holland,VBO,4.352795,52.024851
Sniplaan,21,,,2289EK,Rijswijk,Rijswijk,Zuid-Holland,VBO,4.353104,52.024988
Sniplaan,23,,,2289EK,Rijswijk,Rijswijk,Zuid-Holland,VBO,4.353167,52.025016
Sniplaan,25,,,2289EK,Rijswijk,Rijswijk,Zuid-Holland,VBO,4.353232,52.025045
Sniplaan,27,,,2289EK,Rijswijk,Rijswijk,Zuid-Holland,VBO,4.353297,52.025074
Sniplaan,29,,,2289EK,Rijswijk,Rijswijk,Zuid-Holland,VBO,4.353363,52.025103
Sniplaan,31,,,2289EK,Rijswijk,Rijswijk,Zuid-Holland,VBO,4.353430,52.025133
Sniplaan,33,,,2289EK,Rijswijk,Rijswijk,Zuid-Holland,VBO,4.353493,52.025161
Sniplaan,35,,,2289EK,Rijswijk,Rijswijk,Zuid-Holland,VBO,4.353558,52.025190
Sniplaan,37,,,2289EK,Rijswijk,Rijswijk,Zuid-Holland,VBO,4.353831,52.025362
Sniplaan,39,,,2289EK,Rijswijk,Rijswijk,Zuid-Holland,VBO,4.353885,52.025398
Sniplaan,41,,,2289EK,Rijswijk,Rijswijk,Zuid-Holland,VBO,4.353940,52.025435
Sniplaan,43,,,2289EK,Rijswijk,Rijswijk,Zuid-Holland,VBO,4.353992,52.025470
Sniplaan,45,,,2289EK,Rijswijk,Rijswijk,Zuid-Holland,VBO,4.354046,52.025506
Sniplaan,47,,,2289EK,Rijswijk,Rijswijk,Zuid-Holland,VBO,4.354100,52.025542
Sniplaan,49,,,2289EK,Rijswijk,Rijswijk,Zuid-Holland,VBO,4.354154,52.025579
Sniplaan,61,,,2289EL,Rijswijk,Rijswijk,Zuid-Holland,VBO,4.355127,52.026613
Sniplaan,63,,,2289EL,Rijswijk,Rijswijk,Zuid-Holland,VBO,4.355182,52.026648
Sniplaan,65,,,2289EL,Rijswijk,Rijswijk,Zuid-Holland,VBO,4.355236,52.026685
Sniplaan,67,,,2289EL,Rijswijk,Rijswijk,Zuid-Holland,VBO,4.355299,52.026728
Sniplaan,4,,,2289EM,Rijswijk,Rijswijk,Zuid-Holland,VBO,4.354796,52.025793
Sniplaan,6,,,2289EM,Rijswijk,Rijswijk,Zuid-Holland,VBO,4.355149,52.025811
Sniplaan,12,,,2289EM,Rijswijk,Rijswijk,Zuid-Holland,VBO,4.355046,52.026171
Sniplaan,14,,,2289EM,Rijswijk,Rijswijk,Zuid-Holland,VBO,4.355105,52.026211
Sniplaan,16,,,2289EM,Rijswijk,Rijswijk,Zuid-Holland,VBO,4.355177,52.026259
Sniplaan,18,,,2289EM,Rijswijk,Rijswijk,Zuid-Holland,VBO,4.355238,52.026300
Sniplaan,24,,,2289EM,Rijswijk,Rijswijk,Zuid-Holland,VBO,4.355343,52.026371
Sniplaan,26,,,2289EM,Rijswijk,Rijswijk,Zuid-Holland,VBO,4.355403,52.026411
Sniplaan,28,,,2289EM,Rijswijk,Rijswijk,Zuid-Holland,VBO,4.355472,52.026457
Sniplaan,30,,,2289EM,Rijswijk,Rijswijk,Zuid-Holland,VBO,4.355523,52.026491
Zwaluwsingel,4,,,2289EN,Rijswijk,Rijswijk,Zuid-Holland,VBO,4.352622,52.026542
Zwaluwsingel,6,,,2289EN,Rijswijk,Rijswijk,Zuid-Holland,VBO,4.352687,52.026505
Zwaluwsingel,8,,,2289EN,Rijswijk,Rijswijk,Zuid-Holland,VBO,4.352739,52.026475
Zwaluwsingel,10,,,2289EN,Rijswijk,Rijswijk,Zuid-Holland,VBO,4.352801,52.026440
Zwaluwsingel,12,,,2289EN,Rijswijk,Rijswijk,Zuid-Holland,VBO,4.352860,52.026407
Zwaluwsingel,14,,,2289EN,Rijswijk,Rijswijk,Zuid-Holland,VBO,4.352918,52.026374
Zwaluwsingel,16,,,2289EN,Rijswijk,Rijswijk,Zuid-Holland,VBO,4.352977,52.026341
Zwaluwsingel,18,,,2289EN,Rijswijk,Rijswijk,Zuid-Holland,VBO,4.353035,52.026308
Zwaluwsingel,20,,,2289EN,Rijswijk,Rijswijk,Zuid-Holland,VBO,4.353097,52.026273
Zwaluwsingel,22,,,2289EN,Rijswijk,Rijswijk,Zuid-Holland,VBO,4.353155,52.026240
Zwaluwsingel,24,,,2289EN,Rijswijk,Rijswijk,Zuid-Holland,VBO,4.353214,52.026207
Zwaluwsingel,26,,,2289EN,Rijswijk,Rijswijk,Zuid-Holland,VBO,4.353408,52.026096
Zwaluwsingel,28,,,2289EN,Rijswijk,Rijswijk,Zuid-Holland,VBO,4.353467,52.026063
Zwaluwsingel,30,,,2289EN,Rijswijk,Rijswijk,Zuid-Holland,VBO,4.353532,52.026026
Zwaluwsingel,32,,,2289EN,Rijswijk,Rijswijk,Zuid-Holland,VBO,4.353594,52.025991
Zwaluwsingel,34,,,2289EN,Rijswijk,Rijswijk,Zuid-Holland,VBO,4.353656,52.025956
Zwaluwsingel,36,,,2289EN,Rijswijk,Rijswijk,Zuid-Holland,VBO,4.353718,52.025921
Zwaluwsingel,38,,,2289EN,Rijswijk,Rijswijk,Zuid-Holland,VBO,4.353780,52.025885
Zwaluwsingel,40,,,2289EN,Rijswijk,Rijswijk,Zuid-Holland,VBO,4.353842,52.025850
Zwaluwsingel,42,,,2289EN,Rijswijk,Rijswijk,Zuid-Holland,VBO,4.353904,52.025815
Zwaluwsingel,44,,,2289EN,Rijswijk,Rijswijk,Zuid-Holland,VBO,4.353966,52.025780
Zwaluwsingel,3,,,2289EP,Rijswijk,Rijswijk,Zuid-Holland,VBO,4.353126,52.026914
Zwaluwsingel,5,,,2289EP,Rijswijk,Rijswijk,Zuid-Holland,VBO,4.353186,52.026880
Zwaluwsingel,7,,,2289EP,Rijswijk,Rijswijk,Zuid-Holland,VBO,4.353246,52.026846
Zwaluwsingel,9,,,2289EP,Rijswijk,Rijswijk,Zuid-Holland,VBO,4.353306,52.026812
Zwaluwsingel,11,,,2289EP,Rijswijk,Rijswijk,Zuid-Holland,VBO,4.353365,52.026779
Zwaluwsingel,13,,,2289EP,Rijswijk,Rijswijk,Zuid-Holland,VBO,4.353423,52.026746
Zwaluwsingel,15,,,2289EP,Rijswijk,Rijswijk,Zuid-Holland,VBO,4.353483,52.026712
Zwaluwsingel,17,,,2289EP,Rijswijk,Rijswijk,Zuid-Holland,VBO,4.353542,52.026678
Zwaluwsingel,19,,,2289EP,Rijswijk,Rijswijk,Zuid-Holland,VBO,4.353603,52.026644
Zwaluwsingel,21,,,2289EP,Rijswijk,Rijswijk,Zuid-Holland,VBO,4.353703,52.026617
Zwaluwsingel,23,,,2289EP,Rijswijk,Rijswijk,Zuid-Holland,VBO,4.353754,52.026587
Zwaluwsingel,25,,,2289EP,Rijswijk,Rijswijk,Zuid-Holland,VBO,4.353937,52.026483
Zwaluwsingel,27,,,2289EP,Rijswijk,Rijswijk,Zuid-Holland,VBO,4.353993,52.026452
Zwaluwsingel,29,,,2289EP,Rijswijk,Rijswijk,Zuid-Holland,VBO,4.354044,52.026393
Zwaluwsingel,31,,,2289EP,Rijswijk,Rijswijk,Zuid-Holland,VBO,4.354105,52.026358
Zwaluwsingel,33,,,2289EP,Rijswijk,Rijswijk,Zuid-Holland,VBO,4.354161,52.026326
Zwaluwsingel,35,,,2289EP,Rijswijk,Rijswijk,Zuid-Holland,VBO,4.354220,52.026293
Zwaluwsingel,37,,,2289EP,Rijswijk,Rijswijk,Zuid-Holland,VBO,4.354279,52.026260
Zwaluwsingel,39,,,2289EP,Rijswijk,Rijswijk,Zuid-Holland,VBO,4.354338,52.026226
Zwaluwsingel,41,,,2289EP,Rijswijk,Rijswijk,Zuid-Holland,VBO,4.354399,52.026192
Zwaluwsingel,43,,,2289EP,Rijswijk,Rijswijk,Zuid-Holland,VBO,4.354455,52.026159
Fazantlaan,6,,,2289ER,Rijswijk,Rijswijk,Zuid-Holland,VBO,4.353615,52.027151
Fazantlaan,8,,,2289ER,Rijswijk,Rijswijk,Zuid-Holland,VBO,4.353677,52.027116
Fazantlaan,10,,,2289ER,Rijswijk,Rijswijk,Zuid-Holland,VBO,4.353742,52.027079
Fazantlaan,12,,,2289ER,Rijswijk,Rijswijk,Zuid-Holland,VBO,4.353804,52.027043
Fazantlaan,14,,,2289ER,Rijswijk,Rijswijk,Zuid-Holland,VBO,4.353857,52.027013
Fazantlaan,16,,,2289ER,Rijswijk,Rijswijk,Zuid-Holland,VBO,4.353916,52.026980
Fazantlaan,18,,,2289ER,Rijswijk,Rijswijk,Zuid-Holland,VBO,4.353976,52.026946
Fazantlaan,20,,,2289ER,Rijswijk,Rijswijk,Zuid-Holland,VBO,4.354038,52.026911
Fazantlaan,22,,,2289ER,Rijswijk,Rijswijk,Zuid-Holland,VBO,4.354084,52.026856
Fazantlaan,24,,,2289ER,Rijswijk,Rijswijk,Zuid-Holland,VBO,4.354139,52.026824
Fazantlaan,26,,,2289ER,Rijswijk,Rijswijk,Zuid-Holland,VBO,4.354324,52.026719
Fazantlaan,28,,,2289ER,Rijswijk,Rijswijk,Zuid-Holland,VBO,4.354383,52.026685
Fazantlaan,30,,,2289ER,Rijswijk,Rijswijk,Zuid-Holland,VBO,4.354472,52.026665
Fazantlaan,32,,,2289ER,Rijswijk,Rijswijk,Zuid-Holland,VBO,4.354531,52.026631
Fazantlaan,34,,,2289ER,Rijswijk,Rijswijk,Zuid-Holland,VBO,4.354591,52.026597
Fazantlaan,36,,,2289ER,Rijswijk,Rijswijk,Zuid-Holland,VBO,4.354650,52.026563
Fazantlaan,38,,,2289ER,Rijswijk,Rijswijk,Zuid-Holland,VBO,4.354710,52.026529
Fazantlaan,40,,,2289ER,Rijswijk,Rijswijk,Zuid-Holland,VBO,4.354770,52.026495
Fazantlaan,42,,,2289ER,Rijswijk,Rijswijk,Zuid-Holland,VBO,4.354829,52.026461
Fazantlaan,44,,,2289ER,Rijswijk,Rijswijk,Zuid-Holland,VBO,4.354889,52.026427
Fazantlaan,1,,,2289ES,Rijswijk,Rijswijk,Zuid-Holland,VBO,4.354078,52.027427
Fazantlaan,3,,,2289ES,Rijswijk,Rijswijk,Zuid-Holland,VBO,4.354025,52.027392
Fazantlaan,5,,,2289ES,Rijswijk,Rijswijk,Zuid-Holland,VBO,4.353970,52.027355
Fazantlaan,7,,,2289ES,Rijswijk,Rijswijk,Zuid-Holland,VBO,4.353915,52.027319
Fazantlaan,9,,,2289ES,Rijswijk,Rijswijk,Zuid-Holland,VBO,4.353860,52.027282
Fazantlaan,15,,,2289ES,Rijswijk,Rijswijk,Zuid-Holland,VBO,4.354237,52.027029
Fazantlaan,17,,,2289ES,Rijswijk,Rijswijk,Zuid-Holland,VBO,4.354623,52.026821
Fazantlaan,23,,,2289ES,Rijswijk,Rijswijk,Zuid-Holland,VBO,4.355027,52.026592
Eksterpad,1,,,2289ET,Rijswijk,Rijswijk,Zuid-Holland,VBO,4.354350,52.027059
Eksterpad,2,,,2289ET,Rijswijk,Rijswijk,Zuid-Holland,VBO,4.354678,52.026878
Eksterpad,3,,,2289ET,Rijswijk,Rijswijk,Zuid-Holland,VBO,4.354405,52.027096
Eksterpad,4,,,2289ET,Rijswijk,Rijswijk,Zuid-Holland,VBO,4.354723,52.026909
Eksterpad,5,,,2289ET,Rijswijk,Rijswijk,Zuid-Holland,VBO,4.354460,52.027132
Eksterpad,6,,,2289ET,Rijswijk,Rijswijk,Zuid-Holland,VBO,4.354790,52.026954
Eksterpad,7,,,2289ET,Rijswijk,Rijswijk,Zuid-Holland,VBO,4.354559,52.027151
Eksterpad,8,,,2289ET,Rijswijk,Rijswijk,Zuid-Holland,VBO,4.354813,52.027018
Reigerweg,3,,,2289EV,Rijswijk,Rijswijk,Zuid-Holland,VBO,4.352589,52.027185
Reigerweg,7,,,2289EV,Rijswijk,Rijswijk,Zuid-Holland,VBO,4.352869,52.027536
Reigerweg,11,,,2289EV,Rijswijk,Rijswijk,Zuid-Holland,VBO,4.353271,52.027817
Reigerweg,13,,,2289EV,Rijswijk,Rijswijk,Zuid-Holland,VBO,4.353851,52.027989
Reigerweg,15,,,2289EV,Rijswijk,Rijswijk,Zuid-Holland,VBO,4.353851,52.027989
Reigerweg,17,,,2289EV,Rijswijk,Rijswijk,Zuid-Holland,VBO,4.354576,52.027970
Reigerweg,21,,,2289EV,Rijswijk,Rijswijk,Zuid-Holland,VBO,4.354810,52.027869
Reigerweg,23,,,2289EV,Rijswijk,Rijswijk,Zuid-Holland,VBO,4.355003,52.027826
Reigerweg,27,,,2289EV,Rijswijk,Rijswijk,Zuid-Holland,VBO,4.355339,52.027585
Reigerweg,29,,,2289EV,Rijswijk,Rijswijk,Zuid-Holland,VBO,4.355339,52.027585
Reigerweg,33,,,2289EV,Rijswijk,Rijswijk,Zuid-Holland,VBO,4.355947,52.027260
Reigerweg,35,,,2289EV,Rijswijk,Rijswijk,Zuid-Holland,VBO,4.356180,52.027193
Reigerweg,39,,,2289EV,Rijswijk,Rijswijk,Zuid-Holland,VBO,4.356533,52.026939
Reigerweg,41,,,2289EV,Rijswijk,Rijswijk,Zuid-Holland,VBO,4.355827,52.026676
Vinkweg,1,,,2289EW,Rijswijk,Rijswijk,Zuid-Holland,VBO,4.355578,52.027418
Patrijsweg,2,,,2289EX,Rijswijk,Rijswijk,Zuid-Holland,VBO,4.352346,52.026977
Patrijsweg,4,,,2289EX,Rijswijk,Rijswijk,Zuid-Holland,VBO,4.352589,52.027185
Patrijsweg,10,,,2289EX,Rijswijk,Rijswijk,Zuid-Holland,VBO,4.352869,52.027536
Patrijsweg,12,,,2289EX,Rijswijk,Rijswijk,Zuid-Holland,VBO,4.352869,52.027536
Patrijsweg,14,,,2289EX,Rijswijk,Rijswijk,Zuid-Holland,VBO,4.352869,52.027536
Patrijsweg,18,,,2289EX,Rijswijk,Rijswijk,Zuid-Holland,VBO,4.353271,52.027817
Patrijsweg,20,,,2289EX,Rijswijk,Rijswijk,Zuid-Holland,VBO,4.353271,52.027817
Patrijsweg,22,,,2289EX,Rijswijk,Rijswijk,Zuid-Holland,VBO,4.353271,52.027817
Patrijsweg,24,,,2289EX,Rijswijk,Rijswijk,Zuid-Holland,VBO,4.353271,52.027817
Patrijsweg,28,,,2289EX,Rijswijk,Rijswijk,Zuid-Holland,VBO,4.353494,52.027873
Patrijsweg,30,,,2289EX,Rijswijk,Rijswijk,Zuid-Holland,VBO,4.353851,52.027989
Patrijsweg,32,,,2289EX,Rijswijk,Rijswijk,Zuid-Holland,VBO,4.353851,52.027989
Patrijsweg,34,,,2289EX,Rijswijk,Rijswijk,Zuid-Holland,VBO,4.353851,52.027989
Patrijsweg,36,,,2289EX,Rijswijk,Rijswijk,Zuid-Holland,VBO,4.353851,52.027989
Patrijsweg,40,,,2289EX,Rijswijk,Rijswijk,Zuid-Holland,VBO,4.354576,52.027970
Patrijsweg,46,,,2289EX,Rijswijk,Rijswijk,Zuid-Holland,VBO,4.354810,52.027869
Patrijsweg,48,,,2289EX,Rijswijk,Rijswijk,Zuid-Holland,VBO,4.354810,52.027869
Patrijsweg,54,,,2289EX,Rijswijk,Rijswijk,Zuid-Holland,VBO,4.355003,52.027826
Patrijsweg,62,,,2289EX,Rijswijk,Rijswijk,Zuid-Holland,VBO,4.355211,52.027718
Patrijsweg,64,,,2289EX,Rijswijk,Rijswijk,Zuid-Holland,VBO,4.355211,52.027718
Patrijsweg,66,,,2289EX,Rijswijk,Rijswijk,Zuid-Holland,VBO,4.355211,52.027718
Patrijsweg,68,,,2289EX,Rijswijk,Rijswijk,Zuid-Holland,VBO,4.355211,52.027718
Patrijsweg,72,,,2289EX,Rijswijk,Rijswijk,Zuid-Holland,VBO,4.355339,52.027585
Patrijsweg,74,,,2289EX,Rijswijk,Rijswijk,Zuid-Holland,VBO,4.355339,52.027585
Patrijsweg,78,,,2289EX,Rijswijk,Rijswijk,Zuid-Holland,VBO,4.355339,52.027585
Patrijsweg,80,,,2289EX,Rijswijk,Rijswijk,Zuid-Holland,VBO,4.355339,52.027585
Patrijsweg,88,,,2289EX,Rijswijk,Rijswijk,Zuid-Holland,VBO,4.355521,52.027512
Patrijsweg,90,,,2289EX,Rijswijk,Rijswijk,Zuid-Holland,VBO,4.355521,52.027512
Vrijenbanselaan,101,,,2289EX,Rijswijk,Rijswijk,Zuid-Holland,VBO,4.355338,52.028388
Patrijsweg,102,,,2289EZ,Rijswijk,Rijswijk,Zuid-Holland,VBO,4.355947,52.027260
Patrijsweg,114,,,2289EZ,Rijswijk,Rijswijk,Zuid-Holland,VBO,4.356180,52.027193
Patrijsweg,116,,,2289EZ,Rijswijk,Rijswijk,Zuid-Holland,VBO,4.356180,52.027193
Patrijsweg,140,,,2289EZ,Rijswijk,Rijswijk,Zuid-Holland,VBO,4.356533,52.026939
