openbareruimtenaam,huisnummer,huisletter,huisnummertoevoeging,postcode,woonplaatsnaam,gemeentenaam,provincienaam,typeadresseerbaarobject,longitude,latitude
Rijnsburgerweg,4,,,2333AA,Leiden,Leiden,Zuid-Holland,VBO,4.481775,52.167827
Rijnsburgerweg,6,,,2333AA,Leiden,Leiden,Zuid-Holland,VBO,4.481545,52.168119
Rijnsburgerweg,8,,,2333AA,Leiden,Leiden,Zuid-Holland,VBO,4.481390,52.168166
Rijnsburgerweg,10,,,2333AA,Leiden,Leiden,Zuid-Holland,VBO,4.480053,52.167848
Rijnsburgerweg,12,T,,2333AA,Leiden,Leiden,Zuid-Holland,VBO,4.481237,52.168274
Rijnsburgerweg,12,,,2333AA,Leiden,Leiden,Zuid-Holland,VBO,4.481277,52.168287
Rijnsburgerweg,14,,,2333AA,Leiden,Leiden,Zuid-Holland,VBO,4.481307,52.168370
Rijnsburgerweg,16,,,2333AA,Leiden,Leiden,Zuid-Holland,VBO,4.481227,52.168463
Rijnsburgerweg,18,,,2333AA,Leiden,Leiden,Zuid-Holland,VBO,4.481166,52.168540
Rijnsburgerweg,20,,,2333AA,Leiden,Leiden,Zuid-Holland,VBO,4.481117,52.168623
Rijnsburgerweg,22,,,2333AA,Leiden,Leiden,Zuid-Holland,VBO,4.481058,52.168694
Rijnsburgerweg,24,,,2333AA,Leiden,Leiden,Zuid-Holland,VBO,4.481037,52.168722
Rijnsburgerweg,26,,,2333AA,Leiden,Leiden,Zuid-Holland,VBO,4.480979,52.168781
Rijnsburgerweg,28,,,2333AA,Leiden,Leiden,Zuid-Holland,VBO,4.480940,52.168826
Rijnsburgerweg,30,,,2333AB,Leiden,Leiden,Zuid-Holland,VBO,4.480894,52.168876
Rijnsburgerweg,32,,,2333AB,Leiden,Leiden,Zuid-Holland,VBO,4.480854,52.168923
Rijnsburgerweg,34,,,2333AB,Leiden,Leiden,Zuid-Holland,VBO,4.480813,52.168972
Rijnsburgerweg,36,,,2333AB,Leiden,Leiden,Zuid-Holland,VBO,4.480773,52.169013
Rijnsburgerweg,38,,,2333AB,Leiden,Leiden,Zuid-Holland,VBO,4.480729,52.169067
Rijnsburgerweg,40,,,2333AB,Leiden,Leiden,Zuid-Holland,VBO,4.480686,52.169111
Rijnsburgerweg,42,,,2333AB,Leiden,Leiden,Zuid-Holland,VBO,4.480668,52.169164
Rijnsburgerweg,44,,,2333AB,Leiden,Leiden,Zuid-Holland,VBO,4.480615,52.169224
Rijnsburgerweg,46,,,2333AB,Leiden,Leiden,Zuid-Holland,VBO,4.480557,52.169258
Rijnsburgerweg,48,,,2333AB,Leiden,Leiden,Zuid-Holland,VBO,4.480511,52.169307
Rijnsburgerweg,50,,,2333AC,Leiden,Leiden,Zuid-Holland,VBO,4.480474,52.169352
Rijnsburgerweg,52,,,2333AC,Leiden,Leiden,Zuid-Holland,VBO,4.480433,52.169402
Rijnsburgerweg,54,,,2333AC,Leiden,Leiden,Zuid-Holland,VBO,4.480391,52.169452
Rijnsburgerweg,56,,,2333AC,Leiden,Leiden,Zuid-Holland,VBO,4.480347,52.169499
Rijnsburgerweg,58,,,2333AC,Leiden,Leiden,Zuid-Holland,VBO,4.480309,52.169543
Rijnsburgerweg,60,,,2333AC,Leiden,Leiden,Zuid-Holland,VBO,4.480265,52.169592
Rijnsburgerweg,62,A,,2333AC,Leiden,Leiden,Zuid-Holland,VBO,4.480211,52.169637
Rijnsburgerweg,62,B,,2333AC,Leiden,Leiden,Zuid-Holland,VBO,4.480190,52.169631
Rijnsburgerweg,62,,,2333AC,Leiden,Leiden,Zuid-Holland,VBO,4.480230,52.169648
Rijnsburgerweg,80,,,2333AD,Leiden,Leiden,Zuid-Holland,VBO,4.479029,52.170894
Rijnsburgerweg,84,,,2333AD,Leiden,Leiden,Zuid-Holland,VBO,4.478865,52.170987
Rijnsburgerweg,86,,,2333AD,Leiden,Leiden,Zuid-Holland,VBO,4.478704,52.171076
Rijnsburgerweg,88,,,2333AD,Leiden,Leiden,Zuid-Holland,VBO,4.478579,52.171130
Rijnsburgerweg,90,,,2333AD,Leiden,Leiden,Zuid-Holland,VBO,4.478468,52.171184
Rijnsburgerweg,92,,,2333AD,Leiden,Leiden,Zuid-Holland,VBO,4.478377,52.171245
Rijnsburgerweg,94,,,2333AD,Leiden,Leiden,Zuid-Holland,VBO,4.478276,52.171298
Rijnsburgerweg,96,,,2333AD,Leiden,Leiden,Zuid-Holland,VBO,4.478119,52.171323
Rijnsburgerweg,102,,,2333AE,Leiden,Leiden,Zuid-Holland,VBO,4.477868,52.171499
Rijnsburgerweg,104,,,2333AE,Leiden,Leiden,Zuid-Holland,VBO,4.477736,52.171579
Rijnsburgerweg,106,,,2333AE,Leiden,Leiden,Zuid-Holland,VBO,4.477660,52.171619
Rijnsburgerweg,108,,,2333AE,Leiden,Leiden,Zuid-Holland,VBO,4.477606,52.171649
Rijnsburgerweg,110,,,2333AE,Leiden,Leiden,Zuid-Holland,VBO,4.477486,52.171689
Rijnsburgerweg,112,,,2333AE,Leiden,Leiden,Zuid-Holland,VBO,4.477365,52.171753
Rijnsburgerweg,114,,,2333AE,Leiden,Leiden,Zuid-Holland,VBO,4.477262,52.171862
Rijnsburgerweg,116,,,2333AE,Leiden,Leiden,Zuid-Holland,VBO,4.477156,52.171899
Rijnsburgerweg,118,,,2333AE,Leiden,Leiden,Zuid-Holland,VBO,4.477053,52.171938
Rijnsburgerweg,120,,,2333AE,Leiden,Leiden,Zuid-Holland,VBO,4.476957,52.171969
Rijnsburgerweg,122,,,2333AE,Leiden,Leiden,Zuid-Holland,VBO,4.476732,52.172040
Rijnsburgerweg,126,,,2333AH,Leiden,Leiden,Zuid-Holland,VBO,4.474400,52.172795
Rijnsburgerweg,128,,,2333AH,Leiden,Leiden,Zuid-Holland,VBO,4.474268,52.172868
Rijnsburgerweg,130,,,2333AH,Leiden,Leiden,Zuid-Holland,VBO,4.474065,52.172967
Rijnsburgerweg,134,,,2333AH,Leiden,Leiden,Zuid-Holland,VBO,4.473788,52.173102
Rijnsburgerweg,136,,,2333AH,Leiden,Leiden,Zuid-Holland,VBO,4.473733,52.173129
Rijnsburgerweg,138,,,2333AH,Leiden,Leiden,Zuid-Holland,VBO,4.473628,52.173183
Rijnsburgerweg,140,,,2333AH,Leiden,Leiden,Zuid-Holland,VBO,4.473425,52.173270
Rijnsburgerweg,142,,,2333AH,Leiden,Leiden,Zuid-Holland,VBO,4.473310,52.173327
Rijnsburgerweg,144,,,2333AH,Leiden,Leiden,Zuid-Holland,VBO,4.473211,52.173377
Rijnsburgerweg,146,,,2333AJ,Leiden,Leiden,Zuid-Holland,VBO,4.472938,52.173515
Rijnsburgerweg,148,,,2333AJ,Leiden,Leiden,Zuid-Holland,VBO,4.472817,52.173576
Rijnsburgerweg,150,,,2333AJ,Leiden,Leiden,Zuid-Holland,VBO,4.472730,52.173619
Rijnsburgerweg,152,,,2333AJ,Leiden,Leiden,Zuid-Holland,VBO,4.472450,52.173760
Rijnsburgerweg,154,,,2333AJ,Leiden,Leiden,Zuid-Holland,VBO,4.472324,52.173823
Rijnsburgerweg,156,,,2333AJ,Leiden,Leiden,Zuid-Holland,VBO,4.472203,52.173882
Rijnsburgerweg,158,,,2333AJ,Leiden,Leiden,Zuid-Holland,VBO,4.472024,52.173968
Rijnsburgerweg,160,,,2333AJ,Leiden,Leiden,Zuid-Holland,VBO,4.471826,52.174069
Rijnsburgerweg,162,,,2333AJ,Leiden,Leiden,Zuid-Holland,VBO,4.471665,52.174149
Rijnsburgerweg,164,,,2333AJ,Leiden,Leiden,Zuid-Holland,VBO,4.471582,52.174191
Wassenaarseweg,2,,,2333AK,Leiden,Leiden,Zuid-Holland,VBO,4.479895,52.169835
Wassenaarseweg,4,,,2333AK,Leiden,Leiden,Zuid-Holland,VBO,4.479808,52.169867
Wassenaarseweg,6,,,2333AK,Leiden,Leiden,Zuid-Holland,VBO,4.479721,52.169908
Wassenaarseweg,8,,,2333AK,Leiden,Leiden,Zuid-Holland,VBO,4.479175,52.170090
Wassenaarseweg,52,,,2333AK,Leiden,Leiden,Zuid-Holland,VBO,4.478084,52.169922
Wassenaarseweg,54,,,2333AL,Leiden,Leiden,Zuid-Holland,VBO,4.476578,52.169772
Wassenaarseweg,56,,,2333AL,Leiden,Leiden,Zuid-Holland,VBO,4.475237,52.169564
Wassenaarseweg,58,A,,2333AL,Leiden,Leiden,Zuid-Holland,VBO,4.474755,52.169285
Wassenaarseweg,58,,,2333AL,Leiden,Leiden,Zuid-Holland,VBO,4.474699,52.169463
Wassenaarseweg,60,,,2333AL,Leiden,Leiden,Zuid-Holland,VBO,4.474362,52.169472
Wassenaarseweg,72,,,2333AL,Leiden,Leiden,Zuid-Holland,VBO,4.466854,52.168959
Wassenaarseweg,76,,,2333AL,Leiden,Leiden,Zuid-Holland,VBO,4.461640,52.169243
Wassenaarseweg,78,A,,2333AL,Leiden,Leiden,Zuid-Holland,VBO,4.458818,52.169734
Wassenaarseweg,78,V,,2333AL,Leiden,Leiden,Zuid-Holland,VBO,4.459055,52.169714
Wassenaarseweg,499,,,2333AL,Leiden,Leiden,Zuid-Holland,VBO,4.469742,52.169933
Wassenaarseweg,501,,,2333AL,Leiden,Leiden,Zuid-Holland,VBO,4.469122,52.170679
Wassenaarseweg,525,,,2333AL,Leiden,Leiden,Zuid-Holland,VBO,4.467562,52.169981
Wassenaarseweg,1,A,,2333AM,Leiden,Leiden,Zuid-Holland,VBO,4.479522,52.170237
Wassenaarseweg,1,,,2333AM,Leiden,Leiden,Zuid-Holland,VBO,4.479228,52.170401
Wassenaarseweg,19,,,2333AM,Leiden,Leiden,Zuid-Holland,VBO,4.478345,52.170767
Wassenaarseweg,21,,,2333AM,Leiden,Leiden,Zuid-Holland,VBO,4.478525,52.170528
Wassenaarseweg,23,,,2333AM,Leiden,Leiden,Zuid-Holland,VBO,4.477622,52.170424
Wassenaarseweg,25,,,2333AM,Leiden,Leiden,Zuid-Holland,VBO,4.477931,52.170440
Wassenaarseweg,31,,,2333AM,Leiden,Leiden,Zuid-Holland,VBO,4.477969,52.170469
Wassenaarseweg,33,,,2333AM,Leiden,Leiden,Zuid-Holland,VBO,4.477997,52.170489
Wassenaarseweg,39,,,2333AM,Leiden,Leiden,Zuid-Holland,VBO,4.478020,52.170506
Wassenaarseweg,45,,,2333AM,Leiden,Leiden,Zuid-Holland,VBO,4.478047,52.170526
Wassenaarseweg,49,,,2333AM,Leiden,Leiden,Zuid-Holland,VBO,4.478080,52.170549
Flanorpad,1,,,2333AN,Leiden,Leiden,Zuid-Holland,VBO,4.476579,52.170409
Flanorpad,2,A,,2333AN,Leiden,Leiden,Zuid-Holland,VBO,4.476765,52.170364
Flanorpad,2,B,,2333AN,Leiden,Leiden,Zuid-Holland,VBO,4.476732,52.170380
Flanorpad,2,C,,2333AN,Leiden,Leiden,Zuid-Holland,VBO,4.476751,52.170352
Flanorpad,2,D,,2333AN,Leiden,Leiden,Zuid-Holland,VBO,4.476718,52.170369
Flanorpad,2,,,2333AN,Leiden,Leiden,Zuid-Holland,VBO,4.476759,52.170386
Flanorpad,3,,,2333AP,Leiden,Leiden,Zuid-Holland,VBO,4.477057,52.170472
Flanorpad,4,A,,2333AP,Leiden,Leiden,Zuid-Holland,VBO,4.477029,52.170624
Flanorpad,4,B,,2333AP,Leiden,Leiden,Zuid-Holland,VBO,4.477004,52.170603
Flanorpad,4,C,,2333AP,Leiden,Leiden,Zuid-Holland,VBO,4.477045,52.170616
Flanorpad,4,D,,2333AP,Leiden,Leiden,Zuid-Holland,VBO,4.477019,52.170595
Flanorpad,4,,,2333AP,Leiden,Leiden,Zuid-Holland,VBO,4.477001,52.170619
Flanorpad,5,A,,2333AR,Leiden,Leiden,Zuid-Holland,VBO,4.476314,52.170503
Flanorpad,5,,,2333AR,Leiden,Leiden,Zuid-Holland,VBO,4.476299,52.170488
Flanorpad,6,A,,2333AR,Leiden,Leiden,Zuid-Holland,VBO,4.476040,52.170476
Flanorpad,6,B,,2333AR,Leiden,Leiden,Zuid-Holland,VBO,4.476070,52.170460
Flanorpad,6,C,,2333AR,Leiden,Leiden,Zuid-Holland,VBO,4.476052,52.170486
Flanorpad,6,D,,2333AR,Leiden,Leiden,Zuid-Holland,VBO,4.476079,52.170472
Flanorpad,6,,,2333AR,Leiden,Leiden,Zuid-Holland,VBO,4.476048,52.170456
Flanorpad,7,A,,2333AS,Leiden,Leiden,Zuid-Holland,VBO,4.475774,52.170225
Flanorpad,7,B,,2333AS,Leiden,Leiden,Zuid-Holland,VBO,4.475742,52.170201
Flanorpad,7,C,,2333AS,Leiden,Leiden,Zuid-Holland,VBO,4.475790,52.170217
Flanorpad,7,D,,2333AS,Leiden,Leiden,Zuid-Holland,VBO,4.475758,52.170193
Flanorpad,7,,,2333AS,Leiden,Leiden,Zuid-Holland,VBO,4.475740,52.170218
Flanorpad,8,,,2333AS,Leiden,Leiden,Zuid-Holland,VBO,4.475851,52.170127
Flanorpad,9,,,2333AS,Leiden,Leiden,Zuid-Holland,VBO,4.475876,52.170115
Wassenaarseweg,55,,,2333AV,Leiden,Leiden,Zuid-Holland,VBO,4.477910,52.170452
Wassenaarseweg,57,,,2333AV,Leiden,Leiden,Zuid-Holland,VBO,4.477946,52.170479
Wassenaarseweg,63,,,2333AV,Leiden,Leiden,Zuid-Holland,VBO,4.477975,52.170499
Wassenaarseweg,65,,,2333AV,Leiden,Leiden,Zuid-Holland,VBO,4.477998,52.170515
Wassenaarseweg,71,,,2333AV,Leiden,Leiden,Zuid-Holland,VBO,4.478011,52.170527
Wassenaarseweg,77,,,2333AV,Leiden,Leiden,Zuid-Holland,VBO,4.478028,52.170537
Wassenaarseweg,81,,,2333AV,Leiden,Leiden,Zuid-Holland,VBO,4.478062,52.170561
Wassenaarseweg,87,,,2333AW,Leiden,Leiden,Zuid-Holland,VBO,4.477886,52.170463
Wassenaarseweg,89,,,2333AW,Leiden,Leiden,Zuid-Holland,VBO,4.477917,52.170489
Wassenaarseweg,95,,,2333AW,Leiden,Leiden,Zuid-Holland,VBO,4.477937,52.170504
Wassenaarseweg,97,,,2333AW,Leiden,Leiden,Zuid-Holland,VBO,4.477966,52.170528
Wassenaarseweg,103,,,2333AW,Leiden,Leiden,Zuid-Holland,VBO,4.477986,52.170544
Wassenaarseweg,109,,,2333AW,Leiden,Leiden,Zuid-Holland,VBO,4.478004,52.170560
Wassenaarseweg,113,,,2333AW,Leiden,Leiden,Zuid-Holland,VBO,4.478026,52.170574
Wassenaarseweg,119,,,2333AX,Leiden,Leiden,Zuid-Holland,VBO,4.477863,52.170472
Wassenaarseweg,121,,,2333AX,Leiden,Leiden,Zuid-Holland,VBO,4.477896,52.170499
Wassenaarseweg,127,,,2333AX,Leiden,Leiden,Zuid-Holland,VBO,4.477919,52.170518
Wassenaarseweg,129,,,2333AX,Leiden,Leiden,Zuid-Holland,VBO,4.477944,52.170538
Wassenaarseweg,135,,,2333AX,Leiden,Leiden,Zuid-Holland,VBO,4.477962,52.170551
Wassenaarseweg,141,,,2333AX,Leiden,Leiden,Zuid-Holland,VBO,4.477985,52.170567
Wassenaarseweg,145,,,2333AX,Leiden,Leiden,Zuid-Holland,VBO,4.478007,52.170584
Wassenaarseweg,151,,,2333AZ,Leiden,Leiden,Zuid-Holland,VBO,4.477839,52.170482
Wassenaarseweg,153,,,2333AZ,Leiden,Leiden,Zuid-Holland,VBO,4.477870,52.170505
Wassenaarseweg,159,,,2333AZ,Leiden,Leiden,Zuid-Holland,VBO,4.477891,52.170522
Wassenaarseweg,161,,,2333AZ,Leiden,Leiden,Zuid-Holland,VBO,4.477916,52.170540
Wassenaarseweg,167,,,2333AZ,Leiden,Leiden,Zuid-Holland,VBO,4.477937,52.170557
Wassenaarseweg,173,,,2333AZ,Leiden,Leiden,Zuid-Holland,VBO,4.477961,52.170575
Wassenaarseweg,177,,,2333AZ,Leiden,Leiden,Zuid-Holland,VBO,4.477985,52.170594
Wassenaarseweg,183,,,2333AZ,Leiden,Leiden,Zuid-Holland,VBO,4.477872,52.170528
Wassenaarseweg,193,,,2333AZ,Leiden,Leiden,Zuid-Holland,VBO,4.477919,52.170563
Pesthuislaan,1,,,2333BA,Leiden,Leiden,Zuid-Holland,VBO,4.475988,52.165407
Pesthuislaan,2,,,2333BA,Leiden,Leiden,Zuid-Holland,VBO,4.475550,52.165592
Pesthuislaan,3,A,,2333BA,Leiden,Leiden,Zuid-Holland,VBO,4.475478,52.165446
Pesthuislaan,3,,,2333BA,Leiden,Leiden,Zuid-Holland,VBO,4.475533,52.165518
Pesthuislaan,4,,,2333BA,Leiden,Leiden,Zuid-Holland,VBO,4.475025,52.165340
Pesthuislaan,5,,,2333BA,Leiden,Leiden,Zuid-Holland,VBO,4.474314,52.165150
Pesthuislaan,6,A,,2333BA,Leiden,Leiden,Zuid-Holland,VBO,4.474420,52.164769
Pesthuislaan,6,B,,2333BA,Leiden,Leiden,Zuid-Holland,VBO,4.474451,52.164637
Pesthuislaan,6,,,2333BA,Leiden,Leiden,Zuid-Holland,VBO,4.474305,52.165055
Pesthuislaan,7,,,2333BA,Leiden,Leiden,Zuid-Holland,VBO,4.475417,52.165092
Pesthuislaan,8,,,2333BA,Leiden,Leiden,Zuid-Holland,VBO,4.476782,52.164568
Piet Paaltjenspad,5,,,2333BB,Leiden,Leiden,Zuid-Holland,VBO,4.478515,52.164719
Galileiweg,4,,,2333BD,Leiden,Leiden,Zuid-Holland,VBO,4.467576,52.168626
Galileiweg,6,,,2333BD,Leiden,Leiden,Zuid-Holland,VBO,4.467360,52.168902
Galileiweg,8,,,2333BD,Leiden,Leiden,Zuid-Holland,VBO,4.466854,52.168959
Sylviusweg,62,S,,2333BE,Leiden,Leiden,Zuid-Holland,VBO,4.464626,52.166872
Sylviusweg,62,T,,2333BE,Leiden,Leiden,Zuid-Holland,VBO,4.464532,52.166817
Sylviusweg,62,,,2333BE,Leiden,Leiden,Zuid-Holland,VBO,4.465263,52.166869
Sylviusweg,70,T,,2333BE,Leiden,Leiden,Zuid-Holland,VBO,4.467290,52.167886
Sylviusweg,70,,,2333BE,Leiden,Leiden,Zuid-Holland,VBO,4.467311,52.167708
Sylviusweg,72,T,,2333BE,Leiden,Leiden,Zuid-Holland,VBO,4.466081,52.168092
Sylviusweg,72,,,2333BE,Leiden,Leiden,Zuid-Holland,VBO,4.467476,52.168208
Sylviusweg,74,,,2333BE,Leiden,Leiden,Zuid-Holland,VBO,4.467576,52.168626
Goliuspad,19,,,2333BH,Leiden,Leiden,Zuid-Holland,VBO,4.462530,52.167927
Poelweteringpad,4,,,2333BM,Leiden,Leiden,Zuid-Holland,VBO,4.474246,52.167781
Poelweteringpad,5,,,2333BM,Leiden,Leiden,Zuid-Holland,VBO,4.474205,52.167760
Poelweteringpad,6,,,2333BM,Leiden,Leiden,Zuid-Holland,VBO,4.474274,52.167795
Poelweteringpad,7,,,2333BM,Leiden,Leiden,Zuid-Holland,VBO,4.474308,52.167808
Poelweteringpad,8,,,2333BM,Leiden,Leiden,Zuid-Holland,VBO,4.474344,52.167825
Poelweteringpad,9,,,2333BM,Leiden,Leiden,Zuid-Holland,VBO,4.474378,52.167838
Poelweteringpad,10,,,2333BM,Leiden,Leiden,Zuid-Holland,VBO,4.474411,52.167851
Poelweteringpad,11,,,2333BM,Leiden,Leiden,Zuid-Holland,VBO,4.474439,52.167862
Poelweteringpad,12,,,2333BM,Leiden,Leiden,Zuid-Holland,VBO,4.474463,52.167873
Poelweteringpad,13,,,2333BM,Leiden,Leiden,Zuid-Holland,VBO,4.474501,52.167890
Poelweteringpad,14,,,2333BM,Leiden,Leiden,Zuid-Holland,VBO,4.474530,52.167903
Poelweteringpad,15,,,2333BM,Leiden,Leiden,Zuid-Holland,VBO,4.474558,52.167916
Poelweteringpad,16,,,2333BM,Leiden,Leiden,Zuid-Holland,VBO,4.474585,52.167929
Poelweteringpad,17,,,2333BM,Leiden,Leiden,Zuid-Holland,VBO,4.474621,52.167944
Poelweteringpad,18,,,2333BM,Leiden,Leiden,Zuid-Holland,VBO,4.474658,52.167961
Poelweteringpad,19,,,2333BM,Leiden,Leiden,Zuid-Holland,VBO,4.474692,52.167974
Poelweteringpad,20,,,2333BM,Leiden,Leiden,Zuid-Holland,VBO,4.474730,52.167989
Poelweteringpad,21,,,2333BM,Leiden,Leiden,Zuid-Holland,VBO,4.474767,52.168006
Poelweteringpad,22,,,2333BM,Leiden,Leiden,Zuid-Holland,VBO,4.474798,52.168018
Poelweteringpad,23,,,2333BM,Leiden,Leiden,Zuid-Holland,VBO,4.474842,52.168036
Poelweteringpad,24,,,2333BM,Leiden,Leiden,Zuid-Holland,VBO,4.474877,52.168052
Poelweteringpad,25,,,2333BM,Leiden,Leiden,Zuid-Holland,VBO,4.474917,52.168068
Poelweteringpad,26,,,2333BM,Leiden,Leiden,Zuid-Holland,VBO,4.474961,52.168086
Poelweteringpad,27,,,2333BM,Leiden,Leiden,Zuid-Holland,VBO,4.475010,52.168103
Poelweteringpad,28,,,2333BM,Leiden,Leiden,Zuid-Holland,VBO,4.475052,52.168118
Poelweteringpad,29,,,2333BM,Leiden,Leiden,Zuid-Holland,VBO,4.475089,52.168134
Poelweteringpad,30,,,2333BM,Leiden,Leiden,Zuid-Holland,VBO,4.475127,52.168152
Poelweteringpad,31,,,2333BM,Leiden,Leiden,Zuid-Holland,VBO,4.474182,52.167724
Poelweteringpad,32,,,2333BM,Leiden,Leiden,Zuid-Holland,VBO,4.474231,52.167743
Poelweteringpad,33,,,2333BM,Leiden,Leiden,Zuid-Holland,VBO,4.474275,52.167760
Poelweteringpad,34,,,2333BM,Leiden,Leiden,Zuid-Holland,VBO,4.474314,52.167774
Poelweteringpad,35,,,2333BM,Leiden,Leiden,Zuid-Holland,VBO,4.474350,52.167792
Poelweteringpad,36,,,2333BM,Leiden,Leiden,Zuid-Holland,VBO,4.474386,52.167806
Poelweteringpad,37,,,2333BM,Leiden,Leiden,Zuid-Holland,VBO,4.474427,52.167823
Poelweteringpad,38,,,2333BM,Leiden,Leiden,Zuid-Holland,VBO,4.474464,52.167840
Poelweteringpad,39,,,2333BM,Leiden,Leiden,Zuid-Holland,VBO,4.474497,52.167856
Poelweteringpad,40,,,2333BM,Leiden,Leiden,Zuid-Holland,VBO,4.474537,52.167873
Poelweteringpad,41,,,2333BM,Leiden,Leiden,Zuid-Holland,VBO,4.474578,52.167888
Poelweteringpad,42,,,2333BM,Leiden,Leiden,Zuid-Holland,VBO,4.474613,52.167904
Poelweteringpad,43,,,2333BM,Leiden,Leiden,Zuid-Holland,VBO,4.474654,52.167924
Poelweteringpad,44,,,2333BM,Leiden,Leiden,Zuid-Holland,VBO,4.474705,52.167939
Poelweteringpad,45,,,2333BM,Leiden,Leiden,Zuid-Holland,VBO,4.474750,52.167960
Poelweteringpad,46,,,2333BM,Leiden,Leiden,Zuid-Holland,VBO,4.474804,52.167981
Poelweteringpad,47,,,2333BM,Leiden,Leiden,Zuid-Holland,VBO,4.474851,52.168000
Poelweteringpad,48,,,2333BM,Leiden,Leiden,Zuid-Holland,VBO,4.474894,52.168020
Poelweteringpad,49,,,2333BM,Leiden,Leiden,Zuid-Holland,VBO,4.474934,52.168038
Poelweteringpad,50,,,2333BM,Leiden,Leiden,Zuid-Holland,VBO,4.474971,52.168055
Poelweteringpad,51,,,2333BM,Leiden,Leiden,Zuid-Holland,VBO,4.475001,52.168068
Poelweteringpad,52,,,2333BM,Leiden,Leiden,Zuid-Holland,VBO,4.475035,52.168082
Poelweteringpad,53,,,2333BM,Leiden,Leiden,Zuid-Holland,VBO,4.475067,52.168096
Poelweteringpad,54,,,2333BM,Leiden,Leiden,Zuid-Holland,VBO,4.475102,52.168108
Poelweteringpad,55,,,2333BM,Leiden,Leiden,Zuid-Holland,VBO,4.475133,52.168120
Poelweteringpad,56,,,2333BM,Leiden,Leiden,Zuid-Holland,VBO,4.475061,52.168061
Poelweteringpad,57,,,2333BM,Leiden,Leiden,Zuid-Holland,VBO,4.475094,52.168075
Poelweteringpad,58,,,2333BM,Leiden,Leiden,Zuid-Holland,VBO,4.475131,52.168090
Poelweteringpad,59,,,2333BM,Leiden,Leiden,Zuid-Holland,VBO,4.475167,52.168105
Kolffpad,22,,,2333BN,Leiden,Leiden,Zuid-Holland,VBO,4.474216,52.169154
Kolffpad,24,,,2333BN,Leiden,Leiden,Zuid-Holland,VBO,4.474193,52.169144
Kolffpad,26,,,2333BN,Leiden,Leiden,Zuid-Holland,VBO,4.474165,52.169134
Kolffpad,28,,,2333BN,Leiden,Leiden,Zuid-Holland,VBO,4.474140,52.169123
Kolffpad,30,,,2333BN,Leiden,Leiden,Zuid-Holland,VBO,4.474113,52.169109
Kolffpad,32,,,2333BN,Leiden,Leiden,Zuid-Holland,VBO,4.474089,52.169097
Kolffpad,34,,,2333BN,Leiden,Leiden,Zuid-Holland,VBO,4.474062,52.169085
Kolffpad,36,,,2333BN,Leiden,Leiden,Zuid-Holland,VBO,4.474033,52.169074
Kolffpad,38,,,2333BN,Leiden,Leiden,Zuid-Holland,VBO,4.474001,52.169062
Kolffpad,40,,,2333BN,Leiden,Leiden,Zuid-Holland,VBO,4.473975,52.169050
Kolffpad,42,,,2333BN,Leiden,Leiden,Zuid-Holland,VBO,4.473946,52.169037
Kolffpad,44,,,2333BN,Leiden,Leiden,Zuid-Holland,VBO,4.473914,52.169023
Kolffpad,46,,,2333BN,Leiden,Leiden,Zuid-Holland,VBO,4.473888,52.169011
Kolffpad,48,,,2333BN,Leiden,Leiden,Zuid-Holland,VBO,4.474188,52.169186
Kolffpad,50,,,2333BN,Leiden,Leiden,Zuid-Holland,VBO,4.474168,52.169176
Kolffpad,52,,,2333BN,Leiden,Leiden,Zuid-Holland,VBO,4.474142,52.169163
Kolffpad,54,,,2333BN,Leiden,Leiden,Zuid-Holland,VBO,4.474114,52.169148
Kolffpad,56,,,2333BN,Leiden,Leiden,Zuid-Holland,VBO,4.474088,52.169135
Kolffpad,58,,,2333BN,Leiden,Leiden,Zuid-Holland,VBO,4.474058,52.169120
Kolffpad,60,,,2333BN,Leiden,Leiden,Zuid-Holland,VBO,4.474022,52.169107
Kolffpad,62,,,2333BN,Leiden,Leiden,Zuid-Holland,VBO,4.473990,52.169091
Kolffpad,64,,,2333BN,Leiden,Leiden,Zuid-Holland,VBO,4.473960,52.169077
Kolffpad,66,,,2333BN,Leiden,Leiden,Zuid-Holland,VBO,4.473930,52.169066
Kolffpad,68,,,2333BN,Leiden,Leiden,Zuid-Holland,VBO,4.473894,52.169050
Kolffpad,70,,,2333BN,Leiden,Leiden,Zuid-Holland,VBO,4.473865,52.169036
Kolffpad,72,,,2333BN,Leiden,Leiden,Zuid-Holland,VBO,4.474164,52.169218
Kolffpad,74,,,2333BN,Leiden,Leiden,Zuid-Holland,VBO,4.474141,52.169204
Kolffpad,76,,,2333BN,Leiden,Leiden,Zuid-Holland,VBO,4.474109,52.169186
Kolffpad,78,,,2333BN,Leiden,Leiden,Zuid-Holland,VBO,4.474081,52.169169
Kolffpad,80,,,2333BN,Leiden,Leiden,Zuid-Holland,VBO,4.474056,52.169158
Kolffpad,82,,,2333BP,Leiden,Leiden,Zuid-Holland,VBO,4.474019,52.169143
Kolffpad,84,,,2333BP,Leiden,Leiden,Zuid-Holland,VBO,4.473988,52.169131
Kolffpad,86,,,2333BP,Leiden,Leiden,Zuid-Holland,VBO,4.473955,52.169116
Kolffpad,88,,,2333BP,Leiden,Leiden,Zuid-Holland,VBO,4.473905,52.169087
Kolffpad,90,,,2333BP,Leiden,Leiden,Zuid-Holland,VBO,4.473877,52.169076
Kolffpad,92,,,2333BP,Leiden,Leiden,Zuid-Holland,VBO,4.473847,52.169061
Kolffpad,94,,,2333BP,Leiden,Leiden,Zuid-Holland,VBO,4.474143,52.169241
Kolffpad,96,,,2333BP,Leiden,Leiden,Zuid-Holland,VBO,4.474115,52.169226
Kolffpad,98,,,2333BP,Leiden,Leiden,Zuid-Holland,VBO,4.474087,52.169212
Kolffpad,100,,,2333BP,Leiden,Leiden,Zuid-Holland,VBO,4.474051,52.169199
Kolffpad,102,,,2333BP,Leiden,Leiden,Zuid-Holland,VBO,4.474019,52.169184
Kolffpad,104,,,2333BP,Leiden,Leiden,Zuid-Holland,VBO,4.473991,52.169175
Kolffpad,106,,,2333BP,Leiden,Leiden,Zuid-Holland,VBO,4.473963,52.169159
Kolffpad,108,,,2333BP,Leiden,Leiden,Zuid-Holland,VBO,4.473935,52.169142
Kolffpad,110,,,2333BP,Leiden,Leiden,Zuid-Holland,VBO,4.473904,52.169128
Kolffpad,112,,,2333BP,Leiden,Leiden,Zuid-Holland,VBO,4.473875,52.169115
Kolffpad,114,,,2333BP,Leiden,Leiden,Zuid-Holland,VBO,4.473850,52.169104
Kolffpad,116,,,2333BP,Leiden,Leiden,Zuid-Holland,VBO,4.473825,52.169094
Kolffpad,118,,,2333BP,Leiden,Leiden,Zuid-Holland,VBO,4.473802,52.169081
Kolffpad,120,,,2333BP,Leiden,Leiden,Zuid-Holland,VBO,4.474121,52.169269
Kolffpad,122,,,2333BP,Leiden,Leiden,Zuid-Holland,VBO,4.474096,52.169253
Kolffpad,124,,,2333BP,Leiden,Leiden,Zuid-Holland,VBO,4.474070,52.169237
Kolffpad,126,,,2333BP,Leiden,Leiden,Zuid-Holland,VBO,4.474091,52.169298
Kolffpad,128,,,2333BP,Leiden,Leiden,Zuid-Holland,VBO,4.474051,52.169286
Kolffpad,130,,,2333BP,Leiden,Leiden,Zuid-Holland,VBO,4.474011,52.169266
Kolffpad,132,,,2333BP,Leiden,Leiden,Zuid-Holland,VBO,4.473971,52.169248
Kolffpad,134,,,2333BP,Leiden,Leiden,Zuid-Holland,VBO,4.473946,52.169229
Kolffpad,136,,,2333BP,Leiden,Leiden,Zuid-Holland,VBO,4.473918,52.169211
Kolffpad,138,,,2333BP,Leiden,Leiden,Zuid-Holland,VBO,4.473881,52.169190
Kolffpad,140,,,2333BP,Leiden,Leiden,Zuid-Holland,VBO,4.473845,52.169178
Kolffpad,142,,,2333BP,Leiden,Leiden,Zuid-Holland,VBO,4.473807,52.169157
Kolffpad,144,,,2333BP,Leiden,Leiden,Zuid-Holland,VBO,4.473777,52.169135
Kolffpad,146,,,2333BP,Leiden,Leiden,Zuid-Holland,VBO,4.473749,52.169120
Kolffpad,148,,,2333BP,Leiden,Leiden,Zuid-Holland,VBO,4.474065,52.169329
Kolffpad,150,,,2333BP,Leiden,Leiden,Zuid-Holland,VBO,4.474029,52.169311
Kolffpad,152,,,2333BP,Leiden,Leiden,Zuid-Holland,VBO,4.473984,52.169289
Kolffpad,154,,,2333BP,Leiden,Leiden,Zuid-Holland,VBO,4.473946,52.169271
Kolffpad,156,,,2333BP,Leiden,Leiden,Zuid-Holland,VBO,4.473913,52.169254
Kolffpad,158,,,2333BP,Leiden,Leiden,Zuid-Holland,VBO,4.473884,52.169236
Kolffpad,160,,,2333BP,Leiden,Leiden,Zuid-Holland,VBO,4.473852,52.169214
Kolffpad,162,,,2333BP,Leiden,Leiden,Zuid-Holland,VBO,4.473800,52.169194
Kolffpad,164,,,2333BP,Leiden,Leiden,Zuid-Holland,VBO,4.473762,52.169177
Kolffpad,166,,,2333BP,Leiden,Leiden,Zuid-Holland,VBO,4.473731,52.169159
Kolffpad,168,,,2333BP,Leiden,Leiden,Zuid-Holland,VBO,4.473708,52.169145
Kolffpad,170,,,2333BP,Leiden,Leiden,Zuid-Holland,VBO,4.474046,52.169351
Kolffpad,172,,,2333BP,Leiden,Leiden,Zuid-Holland,VBO,4.473999,52.169329
Dankmeijerpad,19,,,2333BR,Leiden,Leiden,Zuid-Holland,VBO,4.473282,52.168957
Dankmeijerpad,21,,,2333BR,Leiden,Leiden,Zuid-Holland,VBO,4.473268,52.168989
Dankmeijerpad,23,,,2333BR,Leiden,Leiden,Zuid-Holland,VBO,4.473255,52.169022
Dankmeijerpad,25,,,2333BR,Leiden,Leiden,Zuid-Holland,VBO,4.473237,52.169051
Dankmeijerpad,27,,,2333BR,Leiden,Leiden,Zuid-Holland,VBO,4.473224,52.169083
Dankmeijerpad,29,,,2333BR,Leiden,Leiden,Zuid-Holland,VBO,4.473205,52.169121
Dankmeijerpad,31,,,2333BR,Leiden,Leiden,Zuid-Holland,VBO,4.473195,52.169151
Dankmeijerpad,33,,,2333BR,Leiden,Leiden,Zuid-Holland,VBO,4.473183,52.169184
Dankmeijerpad,35,,,2333BR,Leiden,Leiden,Zuid-Holland,VBO,4.473162,52.169220
Dankmeijerpad,37,,,2333BR,Leiden,Leiden,Zuid-Holland,VBO,4.473357,52.168967
Dankmeijerpad,39,,,2333BR,Leiden,Leiden,Zuid-Holland,VBO,4.473340,52.168999
Dankmeijerpad,41,,,2333BR,Leiden,Leiden,Zuid-Holland,VBO,4.473323,52.169031
Dankmeijerpad,43,,,2333BR,Leiden,Leiden,Zuid-Holland,VBO,4.473309,52.169061
Dankmeijerpad,45,,,2333BR,Leiden,Leiden,Zuid-Holland,VBO,4.473287,52.169094
Dankmeijerpad,47,,,2333BR,Leiden,Leiden,Zuid-Holland,VBO,4.473269,52.169130
Dankmeijerpad,49,,,2333BR,Leiden,Leiden,Zuid-Holland,VBO,4.473416,52.168975
Dankmeijerpad,51,,,2333BR,Leiden,Leiden,Zuid-Holland,VBO,4.473399,52.169008
Dankmeijerpad,53,,,2333BR,Leiden,Leiden,Zuid-Holland,VBO,4.473382,52.169036
Dankmeijerpad,55,,,2333BR,Leiden,Leiden,Zuid-Holland,VBO,4.473374,52.169069
Dankmeijerpad,57,,,2333BR,Leiden,Leiden,Zuid-Holland,VBO,4.473360,52.169103
Dankmeijerpad,59,,,2333BR,Leiden,Leiden,Zuid-Holland,VBO,4.473343,52.169140
Dankmeijerpad,61,,,2333BR,Leiden,Leiden,Zuid-Holland,VBO,4.473331,52.169162
Dankmeijerpad,63,,,2333BR,Leiden,Leiden,Zuid-Holland,VBO,4.473325,52.169193
Dankmeijerpad,65,,,2333BR,Leiden,Leiden,Zuid-Holland,VBO,4.473313,52.169226
Dankmeijerpad,67,,,2333BR,Leiden,Leiden,Zuid-Holland,VBO,4.473304,52.169251
Dankmeijerpad,69,,,2333BR,Leiden,Leiden,Zuid-Holland,VBO,4.473483,52.168984
Dankmeijerpad,71,,,2333BR,Leiden,Leiden,Zuid-Holland,VBO,4.473448,52.169047
Dankmeijerpad,73,,,2333BR,Leiden,Leiden,Zuid-Holland,VBO,4.473440,52.169072
Dankmeijerpad,75,,,2333BR,Leiden,Leiden,Zuid-Holland,VBO,4.473423,52.169112
Dankmeijerpad,77,,,2333BR,Leiden,Leiden,Zuid-Holland,VBO,4.473400,52.169145
Dankmeijerpad,79,,,2333BR,Leiden,Leiden,Zuid-Holland,VBO,4.473388,52.169168
Dankmeijerpad,81,,,2333BR,Leiden,Leiden,Zuid-Holland,VBO,4.473377,52.169199
Dankmeijerpad,83,,,2333BR,Leiden,Leiden,Zuid-Holland,VBO,4.473365,52.169232
Dankmeijerpad,85,,,2333BR,Leiden,Leiden,Zuid-Holland,VBO,4.473353,52.169245
Dankmeijerpad,87,,,2333BR,Leiden,Leiden,Zuid-Holland,VBO,4.473547,52.168995
Dankmeijerpad,89,,,2333BR,Leiden,Leiden,Zuid-Holland,VBO,4.473536,52.169019
Dankmeijerpad,91,,,2333BR,Leiden,Leiden,Zuid-Holland,VBO,4.473523,52.169045
Dankmeijerpad,93,,,2333BR,Leiden,Leiden,Zuid-Holland,VBO,4.473514,52.169069
Dankmeijerpad,95,,,2333BR,Leiden,Leiden,Zuid-Holland,VBO,4.473501,52.169095
Dankmeijerpad,97,,,2333BR,Leiden,Leiden,Zuid-Holland,VBO,4.473497,52.169123
Dankmeijerpad,99,,,2333BR,Leiden,Leiden,Zuid-Holland,VBO,4.473487,52.169152
Dankmeijerpad,101,,,2333BR,Leiden,Leiden,Zuid-Holland,VBO,4.473472,52.169178
Dankmeijerpad,103,,,2333BR,Leiden,Leiden,Zuid-Holland,VBO,4.473460,52.169207
Dankmeijerpad,105,,,2333BR,Leiden,Leiden,Zuid-Holland,VBO,4.473448,52.169238
Dankmeijerpad,107,,,2333BR,Leiden,Leiden,Zuid-Holland,VBO,4.473438,52.169263
Dankmeijerpad,109,,,2333BR,Leiden,Leiden,Zuid-Holland,VBO,4.473383,52.169253
Dankmeijerpad,111,,,2333BR,Leiden,Leiden,Zuid-Holland,VBO,4.473609,52.169000
Dankmeijerpad,113,,,2333BR,Leiden,Leiden,Zuid-Holland,VBO,4.473597,52.169024
Dankmeijerpad,115,,,2333BR,Leiden,Leiden,Zuid-Holland,VBO,4.473578,52.169053
Dankmeijerpad,117,,,2333BR,Leiden,Leiden,Zuid-Holland,VBO,4.473562,52.169078
Dankmeijerpad,119,,,2333BR,Leiden,Leiden,Zuid-Holland,VBO,4.473550,52.169105
Dankmeijerpad,121,,,2333BR,Leiden,Leiden,Zuid-Holland,VBO,4.473536,52.169136
Dankmeijerpad,123,,,2333BR,Leiden,Leiden,Zuid-Holland,VBO,4.473526,52.169159
Dankmeijerpad,125,,,2333BR,Leiden,Leiden,Zuid-Holland,VBO,4.473513,52.169187
Dankmeijerpad,127,,,2333BR,Leiden,Leiden,Zuid-Holland,VBO,4.473502,52.169211
Dankmeijerpad,129,,,2333BR,Leiden,Leiden,Zuid-Holland,VBO,4.473491,52.169240
Dankmeijerpad,131,,,2333BR,Leiden,Leiden,Zuid-Holland,VBO,4.473478,52.169267
Dankmeijerpad,133,,,2333BR,Leiden,Leiden,Zuid-Holland,VBO,4.473556,52.169277
Dankmeijerpad,135,,,2333BS,Leiden,Leiden,Zuid-Holland,VBO,4.472815,52.168632
Dankmeijerpad,137,,,2333BS,Leiden,Leiden,Zuid-Holland,VBO,4.472803,52.168660
Dankmeijerpad,139,,,2333BS,Leiden,Leiden,Zuid-Holland,VBO,4.472795,52.168688
Dankmeijerpad,141,,,2333BS,Leiden,Leiden,Zuid-Holland,VBO,4.472785,52.168712
Dankmeijerpad,143,,,2333BS,Leiden,Leiden,Zuid-Holland,VBO,4.472778,52.168735
Dankmeijerpad,145,,,2333BS,Leiden,Leiden,Zuid-Holland,VBO,4.472771,52.168761
Dankmeijerpad,147,,,2333BS,Leiden,Leiden,Zuid-Holland,VBO,4.472755,52.168792
Dankmeijerpad,149,,,2333BS,Leiden,Leiden,Zuid-Holland,VBO,4.472742,52.168821
Dankmeijerpad,151,,,2333BS,Leiden,Leiden,Zuid-Holland,VBO,4.472732,52.168853
Dankmeijerpad,153,,,2333BS,Leiden,Leiden,Zuid-Holland,VBO,4.472718,52.168881
Dankmeijerpad,155,,,2333BS,Leiden,Leiden,Zuid-Holland,VBO,4.472703,52.168911
Dankmeijerpad,157,,,2333BS,Leiden,Leiden,Zuid-Holland,VBO,4.472689,52.168944
Dankmeijerpad,159,,,2333BS,Leiden,Leiden,Zuid-Holland,VBO,4.472860,52.168639
Dankmeijerpad,161,,,2333BS,Leiden,Leiden,Zuid-Holland,VBO,4.472846,52.168666
Dankmeijerpad,163,,,2333BS,Leiden,Leiden,Zuid-Holland,VBO,4.472831,52.168693
Dankmeijerpad,165,,,2333BS,Leiden,Leiden,Zuid-Holland,VBO,4.472827,52.168717
Dankmeijerpad,167,,,2333BS,Leiden,Leiden,Zuid-Holland,VBO,4.472818,52.168741
Dankmeijerpad,169,,,2333BS,Leiden,Leiden,Zuid-Holland,VBO,4.472811,52.168769
Dankmeijerpad,171,,,2333BS,Leiden,Leiden,Zuid-Holland,VBO,4.472802,52.168799
Dankmeijerpad,173,,,2333BS,Leiden,Leiden,Zuid-Holland,VBO,4.472790,52.168830
Dankmeijerpad,175,,,2333BS,Leiden,Leiden,Zuid-Holland,VBO,4.472781,52.168860
Dankmeijerpad,177,,,2333BS,Leiden,Leiden,Zuid-Holland,VBO,4.472768,52.168890
Dankmeijerpad,179,,,2333BS,Leiden,Leiden,Zuid-Holland,VBO,4.472755,52.168917
Dankmeijerpad,181,,,2333BS,Leiden,Leiden,Zuid-Holland,VBO,4.472736,52.168954
Dankmeijerpad,183,,,2333BS,Leiden,Leiden,Zuid-Holland,VBO,4.472905,52.168649
Dankmeijerpad,185,,,2333BS,Leiden,Leiden,Zuid-Holland,VBO,4.472898,52.168674
Dankmeijerpad,187,,,2333BS,Leiden,Leiden,Zuid-Holland,VBO,4.472881,52.168700
Dankmeijerpad,189,,,2333BS,Leiden,Leiden,Zuid-Holland,VBO,4.472872,52.168723
Dankmeijerpad,191,,,2333BS,Leiden,Leiden,Zuid-Holland,VBO,4.472860,52.168748
Dankmeijerpad,193,,,2333BS,Leiden,Leiden,Zuid-Holland,VBO,4.472857,52.168776
Dankmeijerpad,195,,,2333BS,Leiden,Leiden,Zuid-Holland,VBO,4.472844,52.168809
Dankmeijerpad,197,,,2333BS,Leiden,Leiden,Zuid-Holland,VBO,4.472840,52.168837
Dankmeijerpad,199,,,2333BS,Leiden,Leiden,Zuid-Holland,VBO,4.472829,52.168869
Dankmeijerpad,201,,,2333BS,Leiden,Leiden,Zuid-Holland,VBO,4.472818,52.168896
Dankmeijerpad,203,,,2333BS,Leiden,Leiden,Zuid-Holland,VBO,4.472803,52.168922
Dankmeijerpad,205,,,2333BS,Leiden,Leiden,Zuid-Holland,VBO,4.472780,52.168958
Dankmeijerpad,207,,,2333BS,Leiden,Leiden,Zuid-Holland,VBO,4.472969,52.168664
Dankmeijerpad,209,,,2333BS,Leiden,Leiden,Zuid-Holland,VBO,4.472960,52.168690
Dankmeijerpad,211,,,2333BS,Leiden,Leiden,Zuid-Holland,VBO,4.472944,52.168713
Dankmeijerpad,213,,,2333BS,Leiden,Leiden,Zuid-Holland,VBO,4.472931,52.168735
Dankmeijerpad,215,,,2333BS,Leiden,Leiden,Zuid-Holland,VBO,4.472918,52.168762
Dankmeijerpad,217,,,2333BS,Leiden,Leiden,Zuid-Holland,VBO,4.472913,52.168795
Dankmeijerpad,219,,,2333BS,Leiden,Leiden,Zuid-Holland,VBO,4.472906,52.168822
Dankmeijerpad,221,,,2333BS,Leiden,Leiden,Zuid-Holland,VBO,4.472891,52.168848
Dankmeijerpad,223,,,2333BS,Leiden,Leiden,Zuid-Holland,VBO,4.472880,52.168875
Dankmeijerpad,225,,,2333BS,Leiden,Leiden,Zuid-Holland,VBO,4.472866,52.168902
Dankmeijerpad,227,,,2333BS,Leiden,Leiden,Zuid-Holland,VBO,4.472852,52.168932
Dankmeijerpad,229,,,2333BS,Leiden,Leiden,Zuid-Holland,VBO,4.472836,52.168958
Dankmeijerpad,231,,,2333BS,Leiden,Leiden,Zuid-Holland,VBO,4.472826,52.168981
Dankmeijerpad,233,,,2333BS,Leiden,Leiden,Zuid-Holland,VBO,4.473018,52.168672
Dankmeijerpad,235,,,2333BS,Leiden,Leiden,Zuid-Holland,VBO,4.472999,52.168697
Dankmeijerpad,237,,,2333BS,Leiden,Leiden,Zuid-Holland,VBO,4.472986,52.168721
Dankmeijerpad,239,,,2333BS,Leiden,Leiden,Zuid-Holland,VBO,4.472972,52.168745
Dankmeijerpad,241,,,2333BS,Leiden,Leiden,Zuid-Holland,VBO,4.472954,52.168771
Dankmeijerpad,243,,,2333BS,Leiden,Leiden,Zuid-Holland,VBO,4.472948,52.168802
Dankmeijerpad,245,,,2333BS,Leiden,Leiden,Zuid-Holland,VBO,4.472941,52.168830
Dankmeijerpad,247,,,2333BS,Leiden,Leiden,Zuid-Holland,VBO,4.472932,52.168854
Dankmeijerpad,249,,,2333BS,Leiden,Leiden,Zuid-Holland,VBO,4.472923,52.168882
Dankmeijerpad,251,,,2333BS,Leiden,Leiden,Zuid-Holland,VBO,4.472900,52.168910
Dankmeijerpad,253,,,2333BS,Leiden,Leiden,Zuid-Holland,VBO,4.472891,52.168937
Dankmeijerpad,255,,,2333BS,Leiden,Leiden,Zuid-Holland,VBO,4.472878,52.168965
Dankmeijerpad,257,,,2333BS,Leiden,Leiden,Zuid-Holland,VBO,4.472863,52.168994
Dankmeijerpad,259,,,2333BS,Leiden,Leiden,Zuid-Holland,VBO,4.473057,52.168682
Dankmeijerpad,261,,,2333BS,Leiden,Leiden,Zuid-Holland,VBO,4.473041,52.168704
Dankmeijerpad,263,,,2333BS,Leiden,Leiden,Zuid-Holland,VBO,4.473028,52.168728
Dankmeijerpad,265,,,2333BS,Leiden,Leiden,Zuid-Holland,VBO,4.473009,52.168749
Dankmeijerpad,267,,,2333BS,Leiden,Leiden,Zuid-Holland,VBO,4.472992,52.168773
Dankmeijerpad,269,,,2333BS,Leiden,Leiden,Zuid-Holland,VBO,4.472984,52.168802
Dankmeijerpad,271,,,2333BS,Leiden,Leiden,Zuid-Holland,VBO,4.472970,52.168835
Dankmeijerpad,273,,,2333BS,Leiden,Leiden,Zuid-Holland,VBO,4.472964,52.168855
Dankmeijerpad,275,,,2333BS,Leiden,Leiden,Zuid-Holland,VBO,4.472957,52.168890
Dankmeijerpad,277,,,2333BS,Leiden,Leiden,Zuid-Holland,VBO,4.472936,52.168913
Dankmeijerpad,279,,,2333BS,Leiden,Leiden,Zuid-Holland,VBO,4.472924,52.168942
Dankmeijerpad,281,,,2333BS,Leiden,Leiden,Zuid-Holland,VBO,4.472918,52.168970
Dankmeijerpad,283,,,2333BS,Leiden,Leiden,Zuid-Holland,VBO,4.472904,52.168999
Dankmeijerpad,285,,,2333BS,Leiden,Leiden,Zuid-Holland,VBO,4.472891,52.169022
Dankmeijerpad,287,,,2333BS,Leiden,Leiden,Zuid-Holland,VBO,4.473089,52.168687
Dankmeijerpad,289,,,2333BS,Leiden,Leiden,Zuid-Holland,VBO,4.473071,52.168710
Dankmeijerpad,291,,,2333BS,Leiden,Leiden,Zuid-Holland,VBO,4.473061,52.168735
Dankmeijerpad,293,,,2333BS,Leiden,Leiden,Zuid-Holland,VBO,4.473045,52.168759
Dankmeijerpad,295,,,2333BS,Leiden,Leiden,Zuid-Holland,VBO,4.473025,52.168779
Dankmeijerpad,297,,,2333BS,Leiden,Leiden,Zuid-Holland,VBO,4.473019,52.168806
Dankmeijerpad,299,,,2333BS,Leiden,Leiden,Zuid-Holland,VBO,4.473007,52.168838
Dankmeijerpad,301,,,2333BS,Leiden,Leiden,Zuid-Holland,VBO,4.473001,52.168858
Dankmeijerpad,303,,,2333BS,Leiden,Leiden,Zuid-Holland,VBO,4.472991,52.168884
Dankmeijerpad,305,,,2333BS,Leiden,Leiden,Zuid-Holland,VBO,4.472975,52.168916
Dankmeijerpad,307,,,2333BS,Leiden,Leiden,Zuid-Holland,VBO,4.472969,52.168943
Dankmeijerpad,309,,,2333BS,Leiden,Leiden,Zuid-Holland,VBO,4.472953,52.168976
Dankmeijerpad,311,,,2333BS,Leiden,Leiden,Zuid-Holland,VBO,4.472934,52.169002
Dankmeijerpad,313,,,2333BS,Leiden,Leiden,Zuid-Holland,VBO,4.472928,52.169028
Verhaartpad,21,,,2333BT,Leiden,Leiden,Zuid-Holland,VBO,4.473797,52.168309
Verhaartpad,23,,,2333BT,Leiden,Leiden,Zuid-Holland,VBO,4.473756,52.168346
Verhaartpad,25,,,2333BT,Leiden,Leiden,Zuid-Holland,VBO,4.473714,52.168383
Verhaartpad,27,,,2333BT,Leiden,Leiden,Zuid-Holland,VBO,4.473684,52.168415
Verhaartpad,29,,,2333BT,Leiden,Leiden,Zuid-Holland,VBO,4.473640,52.168442
Verhaartpad,31,,,2333BT,Leiden,Leiden,Zuid-Holland,VBO,4.473609,52.168477
Verhaartpad,33,,,2333BT,Leiden,Leiden,Zuid-Holland,VBO,4.473569,52.168509
Verhaartpad,35,,,2333BT,Leiden,Leiden,Zuid-Holland,VBO,4.473539,52.168536
Verhaartpad,37,,,2333BT,Leiden,Leiden,Zuid-Holland,VBO,4.473516,52.168561
Verhaartpad,39,,,2333BT,Leiden,Leiden,Zuid-Holland,VBO,4.473484,52.168585
Verhaartpad,41,,,2333BT,Leiden,Leiden,Zuid-Holland,VBO,4.473447,52.168573
Van Rijsselpad,1,A,,2333BV,Leiden,Leiden,Zuid-Holland,VBO,4.474344,52.168491
Van Rijsselpad,1,B,,2333BV,Leiden,Leiden,Zuid-Holland,VBO,4.474363,52.168500
Van Rijsselpad,1,C,,2333BV,Leiden,Leiden,Zuid-Holland,VBO,4.474386,52.168510
Van Rijsselpad,1,D,,2333BV,Leiden,Leiden,Zuid-Holland,VBO,4.474410,52.168519
Van Rijsselpad,1,,,2333BV,Leiden,Leiden,Zuid-Holland,VBO,4.474328,52.168483
Van Rijsselpad,2,,,2333BV,Leiden,Leiden,Zuid-Holland,VBO,4.474339,52.168222
Van Rijsselpad,2,,,2333BV,Leiden,Leiden,Zuid-Holland,VBO,4.474858,52.168402
Van Rijsselpad,3,,,2333BV,Leiden,Leiden,Zuid-Holland,VBO,4.474316,52.168500
Van Rijsselpad,4,,,2333BV,Leiden,Leiden,Zuid-Holland,VBO,4.474812,52.168387
Van Rijsselpad,5,,,2333BV,Leiden,Leiden,Zuid-Holland,VBO,4.474339,52.168508
Van Rijsselpad,6,,,2333BV,Leiden,Leiden,Zuid-Holland,VBO,4.474766,52.168369
Van Rijsselpad,7,,,2333BV,Leiden,Leiden,Zuid-Holland,VBO,4.474362,52.168521
Van Rijsselpad,8,,,2333BV,Leiden,Leiden,Zuid-Holland,VBO,4.474726,52.168350
Van Rijsselpad,9,,,2333BV,Leiden,Leiden,Zuid-Holland,VBO,4.474391,52.168533
Van Rijsselpad,10,,,2333BV,Leiden,Leiden,Zuid-Holland,VBO,4.474680,52.168331
Van Rijsselpad,11,,,2333BV,Leiden,Leiden,Zuid-Holland,VBO,4.474298,52.168514
Van Rijsselpad,12,,,2333BV,Leiden,Leiden,Zuid-Holland,VBO,4.474639,52.168314
Van Rijsselpad,13,,,2333BV,Leiden,Leiden,Zuid-Holland,VBO,4.474324,52.168525
Van Rijsselpad,14,,,2333BV,Leiden,Leiden,Zuid-Holland,VBO,4.474594,52.168294
Van Rijsselpad,15,,,2333BV,Leiden,Leiden,Zuid-Holland,VBO,4.474348,52.168536
Van Rijsselpad,16,,,2333BV,Leiden,Leiden,Zuid-Holland,VBO,4.474550,52.168278
Van Rijsselpad,17,,,2333BV,Leiden,Leiden,Zuid-Holland,VBO,4.474376,52.168547
Van Rijsselpad,18,,,2333BV,Leiden,Leiden,Zuid-Holland,VBO,4.474503,52.168259
Van Rijsselpad,19,,,2333BV,Leiden,Leiden,Zuid-Holland,VBO,4.474395,52.168557
Van Rijsselpad,20,,,2333BV,Leiden,Leiden,Zuid-Holland,VBO,4.474464,52.168242
Van Rijsselpad,21,,,2333BV,Leiden,Leiden,Zuid-Holland,VBO,4.474416,52.168567
Van Rijsselpad,22,,,2333BV,Leiden,Leiden,Zuid-Holland,VBO,4.474426,52.168220
Van Rijsselpad,23,,,2333BV,Leiden,Leiden,Zuid-Holland,VBO,4.474200,52.168491
Van Rijsselpad,24,,,2333BV,Leiden,Leiden,Zuid-Holland,VBO,4.474381,52.168202
Van Rijsselpad,25,,,2333BV,Leiden,Leiden,Zuid-Holland,VBO,4.474218,52.168501
Van Rijsselpad,26,,,2333BV,Leiden,Leiden,Zuid-Holland,VBO,4.474324,52.168180
Van Rijsselpad,27,,,2333BV,Leiden,Leiden,Zuid-Holland,VBO,4.474240,52.168510
Van Rijsselpad,28,,,2333BV,Leiden,Leiden,Zuid-Holland,VBO,4.474267,52.168159
Van Rijsselpad,29,,,2333BV,Leiden,Leiden,Zuid-Holland,VBO,4.474264,52.168520
Van Rijsselpad,30,,,2333BV,Leiden,Leiden,Zuid-Holland,VBO,4.474213,52.168129
Van Rijsselpad,31,,,2333BV,Leiden,Leiden,Zuid-Holland,VBO,4.474289,52.168530
Van Rijsselpad,32,,,2333BV,Leiden,Leiden,Zuid-Holland,VBO,4.474152,52.168108
Van Rijsselpad,33,,,2333BV,Leiden,Leiden,Zuid-Holland,VBO,4.474313,52.168541
Van Rijsselpad,34,,,2333BV,Leiden,Leiden,Zuid-Holland,VBO,4.474094,52.168085
Van Rijsselpad,35,,,2333BV,Leiden,Leiden,Zuid-Holland,VBO,4.474337,52.168553
Van Rijsselpad,36,,,2333BV,Leiden,Leiden,Zuid-Holland,VBO,4.474032,52.168062
Van Rijsselpad,37,,,2333BV,Leiden,Leiden,Zuid-Holland,VBO,4.474364,52.168563
Van Rijsselpad,38,,,2333BV,Leiden,Leiden,Zuid-Holland,VBO,4.473977,52.168037
Van Rijsselpad,39,,,2333BV,Leiden,Leiden,Zuid-Holland,VBO,4.474385,52.168571
Van Rijsselpad,40,,,2333BV,Leiden,Leiden,Zuid-Holland,VBO,4.473912,52.168013
Van Rijsselpad,41,,,2333BV,Leiden,Leiden,Zuid-Holland,VBO,4.474407,52.168582
Van Rijsselpad,42,,,2333BV,Leiden,Leiden,Zuid-Holland,VBO,4.474902,52.168360
Van Rijsselpad,43,,,2333BV,Leiden,Leiden,Zuid-Holland,VBO,4.474430,52.168590
Van Rijsselpad,44,,,2333BV,Leiden,Leiden,Zuid-Holland,VBO,4.474851,52.168341
Van Rijsselpad,45,,,2333BV,Leiden,Leiden,Zuid-Holland,VBO,4.474449,52.168601
Van Rijsselpad,46,,,2333BV,Leiden,Leiden,Zuid-Holland,VBO,4.474798,52.168323
Van Rijsselpad,47,,,2333BV,Leiden,Leiden,Zuid-Holland,VBO,4.474182,52.168507
Van Rijsselpad,48,,,2333BV,Leiden,Leiden,Zuid-Holland,VBO,4.474746,52.168300
Van Rijsselpad,49,,,2333BV,Leiden,Leiden,Zuid-Holland,VBO,4.474204,52.168517
Van Rijsselpad,50,,,2333BV,Leiden,Leiden,Zuid-Holland,VBO,4.474681,52.168278
Van Rijsselpad,51,,,2333BV,Leiden,Leiden,Zuid-Holland,VBO,4.474231,52.168529
Van Rijsselpad,52,,,2333BV,Leiden,Leiden,Zuid-Holland,VBO,4.474626,52.168260
Van Rijsselpad,53,,,2333BV,Leiden,Leiden,Zuid-Holland,VBO,4.474256,52.168541
Van Rijsselpad,54,,,2333BV,Leiden,Leiden,Zuid-Holland,VBO,4.474570,52.168233
Van Rijsselpad,55,,,2333BV,Leiden,Leiden,Zuid-Holland,VBO,4.474280,52.168550
Van Rijsselpad,56,,,2333BV,Leiden,Leiden,Zuid-Holland,VBO,4.474517,52.168215
Van Rijsselpad,57,,,2333BV,Leiden,Leiden,Zuid-Holland,VBO,4.474303,52.168560
Van Rijsselpad,58,,,2333BV,Leiden,Leiden,Zuid-Holland,VBO,4.474447,52.168185
Van Rijsselpad,59,,,2333BV,Leiden,Leiden,Zuid-Holland,VBO,4.474328,52.168572
Van Rijsselpad,60,,,2333BV,Leiden,Leiden,Zuid-Holland,VBO,4.474406,52.168166
Van Rijsselpad,61,,,2333BV,Leiden,Leiden,Zuid-Holland,VBO,4.474351,52.168581
Van Rijsselpad,62,,,2333BV,Leiden,Leiden,Zuid-Holland,VBO,4.474366,52.168151
Van Rijsselpad,63,,,2333BV,Leiden,Leiden,Zuid-Holland,VBO,4.474374,52.168589
Van Rijsselpad,64,,,2333BV,Leiden,Leiden,Zuid-Holland,VBO,4.474330,52.168134
Van Rijsselpad,65,,,2333BV,Leiden,Leiden,Zuid-Holland,VBO,4.474397,52.168599
Van Rijsselpad,66,,,2333BV,Leiden,Leiden,Zuid-Holland,VBO,4.474289,52.168118
Van Rijsselpad,67,,,2333BV,Leiden,Leiden,Zuid-Holland,VBO,4.474419,52.168609
Van Rijsselpad,68,,,2333BV,Leiden,Leiden,Zuid-Holland,VBO,4.474252,52.168101
Van Rijsselpad,69,,,2333BV,Leiden,Leiden,Zuid-Holland,VBO,4.474442,52.168618
Van Rijsselpad,70,,,2333BV,Leiden,Leiden,Zuid-Holland,VBO,4.474217,52.168089
Van Rijsselpad,71,,,2333BV,Leiden,Leiden,Zuid-Holland,VBO,4.474163,52.168522
Van Rijsselpad,72,,,2333BV,Leiden,Leiden,Zuid-Holland,VBO,4.474183,52.168074
Van Rijsselpad,73,,,2333BV,Leiden,Leiden,Zuid-Holland,VBO,4.474184,52.168530
Van Rijsselpad,74,,,2333BV,Leiden,Leiden,Zuid-Holland,VBO,4.474147,52.168059
Van Rijsselpad,75,,,2333BV,Leiden,Leiden,Zuid-Holland,VBO,4.474215,52.168541
Van Rijsselpad,76,,,2333BV,Leiden,Leiden,Zuid-Holland,VBO,4.474112,52.168049
Van Rijsselpad,77,,,2333BV,Leiden,Leiden,Zuid-Holland,VBO,4.474240,52.168551
Van Rijsselpad,78,,,2333BV,Leiden,Leiden,Zuid-Holland,VBO,4.474078,52.168036
Van Rijsselpad,79,,,2333BV,Leiden,Leiden,Zuid-Holland,VBO,4.474262,52.168563
Van Rijsselpad,80,,,2333BV,Leiden,Leiden,Zuid-Holland,VBO,4.474048,52.168023
Van Rijsselpad,81,,,2333BV,Leiden,Leiden,Zuid-Holland,VBO,4.474290,52.168575
Van Rijsselpad,82,,,2333BV,Leiden,Leiden,Zuid-Holland,VBO,4.474008,52.168008
Van Rijsselpad,83,,,2333BV,Leiden,Leiden,Zuid-Holland,VBO,4.474317,52.168586
Van Rijsselpad,84,,,2333BV,Leiden,Leiden,Zuid-Holland,VBO,4.473965,52.167997
Van Rijsselpad,85,,,2333BV,Leiden,Leiden,Zuid-Holland,VBO,4.474339,52.168596
Van Rijsselpad,86,,,2333BV,Leiden,Leiden,Zuid-Holland,VBO,4.473926,52.167983
Van Rijsselpad,87,,,2333BV,Leiden,Leiden,Zuid-Holland,VBO,4.474366,52.168606
Van Rijsselpad,88,,,2333BV,Leiden,Leiden,Zuid-Holland,VBO,4.473888,52.167970
Van Rijsselpad,89,,,2333BV,Leiden,Leiden,Zuid-Holland,VBO,4.474385,52.168616
Van Rijsselpad,90,,,2333BV,Leiden,Leiden,Zuid-Holland,VBO,4.474922,52.168320
Van Rijsselpad,91,,,2333BV,Leiden,Leiden,Zuid-Holland,VBO,4.474409,52.168625
Van Rijsselpad,92,,,2333BV,Leiden,Leiden,Zuid-Holland,VBO,4.474888,52.168306
Van Rijsselpad,93,,,2333BV,Leiden,Leiden,Zuid-Holland,VBO,4.474430,52.168633
Van Rijsselpad,94,,,2333BV,Leiden,Leiden,Zuid-Holland,VBO,4.474846,52.168291
Van Rijsselpad,95,,,2333BV,Leiden,Leiden,Zuid-Holland,VBO,4.474185,52.168550
Van Rijsselpad,96,,,2333BV,Leiden,Leiden,Zuid-Holland,VBO,4.474807,52.168272
Van Rijsselpad,97,,,2333BV,Leiden,Leiden,Zuid-Holland,VBO,4.474211,52.168560
Van Rijsselpad,98,,,2333BV,Leiden,Leiden,Zuid-Holland,VBO,4.474767,52.168257
Van Rijsselpad,99,,,2333BV,Leiden,Leiden,Zuid-Holland,VBO,4.474234,52.168571
Van Rijsselpad,100,,,2333BV,Leiden,Leiden,Zuid-Holland,VBO,4.474729,52.168241
Van Rijsselpad,101,,,2333BV,Leiden,Leiden,Zuid-Holland,VBO,4.474264,52.168581
Van Rijsselpad,102,,,2333BV,Leiden,Leiden,Zuid-Holland,VBO,4.474696,52.168227
Van Rijsselpad,103,,,2333BV,Leiden,Leiden,Zuid-Holland,VBO,4.474284,52.168590
Van Rijsselpad,104,,,2333BV,Leiden,Leiden,Zuid-Holland,VBO,4.474650,52.168211
Van Rijsselpad,105,,,2333BV,Leiden,Leiden,Zuid-Holland,VBO,4.474305,52.168600
Van Rijsselpad,106,,,2333BV,Leiden,Leiden,Zuid-Holland,VBO,4.474616,52.168195
Van Rijsselpad,107,,,2333BV,Leiden,Leiden,Zuid-Holland,VBO,4.474331,52.168610
Van Rijsselpad,108,,,2333BV,Leiden,Leiden,Zuid-Holland,VBO,4.474562,52.168177
Van Rijsselpad,109,,,2333BV,Leiden,Leiden,Zuid-Holland,VBO,4.474354,52.168618
Van Rijsselpad,110,,,2333BV,Leiden,Leiden,Zuid-Holland,VBO,4.474528,52.168160
Van Rijsselpad,111,,,2333BV,Leiden,Leiden,Zuid-Holland,VBO,4.474372,52.168629
Van Rijsselpad,112,,,2333BV,Leiden,Leiden,Zuid-Holland,VBO,4.474490,52.168143
Van Rijsselpad,113,,,2333BV,Leiden,Leiden,Zuid-Holland,VBO,4.474395,52.168636
Van Rijsselpad,114,,,2333BV,Leiden,Leiden,Zuid-Holland,VBO,4.474456,52.168124
Van Rijsselpad,115,,,2333BV,Leiden,Leiden,Zuid-Holland,VBO,4.474414,52.168644
Van Rijsselpad,116,,,2333BV,Leiden,Leiden,Zuid-Holland,VBO,4.474422,52.168111
Van Rijsselpad,117,,,2333BV,Leiden,Leiden,Zuid-Holland,VBO,4.474436,52.168655
Van Rijsselpad,118,,,2333BV,Leiden,Leiden,Zuid-Holland,VBO,4.474364,52.168092
Van Rijsselpad,119,,,2333BV,Leiden,Leiden,Zuid-Holland,VBO,4.474168,52.168566
Van Rijsselpad,120,,,2333BV,Leiden,Leiden,Zuid-Holland,VBO,4.474323,52.168072
Van Rijsselpad,121,,,2333BV,Leiden,Leiden,Zuid-Holland,VBO,4.474192,52.168577
Van Rijsselpad,122,,,2333BV,Leiden,Leiden,Zuid-Holland,VBO,4.474281,52.168055
Van Rijsselpad,123,,,2333BV,Leiden,Leiden,Zuid-Holland,VBO,4.474220,52.168587
Van Rijsselpad,124,,,2333BV,Leiden,Leiden,Zuid-Holland,VBO,4.474244,52.168041
Van Rijsselpad,125,,,2333BV,Leiden,Leiden,Zuid-Holland,VBO,4.474248,52.168597
Van Rijsselpad,126,,,2333BV,Leiden,Leiden,Zuid-Holland,VBO,4.474196,52.168022
Van Rijsselpad,127,,,2333BV,Leiden,Leiden,Zuid-Holland,VBO,4.474268,52.168606
Van Rijsselpad,128,,,2333BV,Leiden,Leiden,Zuid-Holland,VBO,4.474157,52.168004
Van Rijsselpad,129,,,2333BV,Leiden,Leiden,Zuid-Holland,VBO,4.474295,52.168618
Van Rijsselpad,130,,,2333BV,Leiden,Leiden,Zuid-Holland,VBO,4.474119,52.167989
Van Rijsselpad,131,,,2333BV,Leiden,Leiden,Zuid-Holland,VBO,4.474321,52.168631
Van Rijsselpad,132,,,2333BV,Leiden,Leiden,Zuid-Holland,VBO,4.474085,52.167970
Van Rijsselpad,133,,,2333BV,Leiden,Leiden,Zuid-Holland,VBO,4.474342,52.168640
Van Rijsselpad,134,,,2333BV,Leiden,Leiden,Zuid-Holland,VBO,4.474047,52.167954
Van Rijsselpad,135,,,2333BV,Leiden,Leiden,Zuid-Holland,VBO,4.474365,52.168648
Van Rijsselpad,136,,,2333BV,Leiden,Leiden,Zuid-Holland,VBO,4.474009,52.167936
Van Rijsselpad,137,,,2333BV,Leiden,Leiden,Zuid-Holland,VBO,4.474390,52.168658
Van Rijsselpad,138,,,2333BV,Leiden,Leiden,Zuid-Holland,VBO,4.473967,52.167919
Van Rijsselpad,139,,,2333BV,Leiden,Leiden,Zuid-Holland,VBO,4.474415,52.168669
Van Rijsselpad,140,,,2333BV,Leiden,Leiden,Zuid-Holland,VBO,4.474033,52.167913
Van Rijsselpad,141,,,2333BV,Leiden,Leiden,Zuid-Holland,VBO,4.474164,52.168585
Van Rijsselpad,142,,,2333BV,Leiden,Leiden,Zuid-Holland,VBO,4.473990,52.167894
Van Rijsselpad,143,,,2333BV,Leiden,Leiden,Zuid-Holland,VBO,4.474195,52.168599
Van Rijsselpad,145,,,2333BV,Leiden,Leiden,Zuid-Holland,VBO,4.474226,52.168612
Van Rijsselpad,147,,,2333BV,Leiden,Leiden,Zuid-Holland,VBO,4.474256,52.168626
Van Rijsselpad,149,,,2333BV,Leiden,Leiden,Zuid-Holland,VBO,4.474284,52.168639
Van Rijsselpad,151,,,2333BV,Leiden,Leiden,Zuid-Holland,VBO,4.474311,52.168652
Van Rijsselpad,153,,,2333BV,Leiden,Leiden,Zuid-Holland,VBO,4.474342,52.168668
Dankmeijerpad,22,,,2333BW,Leiden,Leiden,Zuid-Holland,VBO,4.474063,52.168896
Dankmeijerpad,24,,,2333BW,Leiden,Leiden,Zuid-Holland,VBO,4.474034,52.168878
Dankmeijerpad,26,,,2333BW,Leiden,Leiden,Zuid-Holland,VBO,4.473993,52.168867
Dankmeijerpad,28,,,2333BW,Leiden,Leiden,Zuid-Holland,VBO,4.473959,52.168849
Dankmeijerpad,30,,,2333BW,Leiden,Leiden,Zuid-Holland,VBO,4.473915,52.168829
Dankmeijerpad,32,,,2333BW,Leiden,Leiden,Zuid-Holland,VBO,4.473878,52.168816
Dankmeijerpad,34,,,2333BW,Leiden,Leiden,Zuid-Holland,VBO,4.473840,52.168800
Dankmeijerpad,36,,,2333BW,Leiden,Leiden,Zuid-Holland,VBO,4.473800,52.168781
Dankmeijerpad,38,A,,2333BW,Leiden,Leiden,Zuid-Holland,VBO,4.473882,52.168687
Dankmeijerpad,38,B,,2333BW,Leiden,Leiden,Zuid-Holland,VBO,4.473845,52.168673
Dankmeijerpad,38,C,,2333BW,Leiden,Leiden,Zuid-Holland,VBO,4.473813,52.168658
Dankmeijerpad,38,,,2333BW,Leiden,Leiden,Zuid-Holland,VBO,4.473765,52.168769
Dankmeijerpad,40,,,2333BW,Leiden,Leiden,Zuid-Holland,VBO,4.473706,52.168745
Dankmeijerpad,42,,,2333BW,Leiden,Leiden,Zuid-Holland,VBO,4.473673,52.168729
Dankmeijerpad,44,,,2333BW,Leiden,Leiden,Zuid-Holland,VBO,4.473630,52.168717
Dankmeijerpad,46,,,2333BW,Leiden,Leiden,Zuid-Holland,VBO,4.473587,52.168701
Dankmeijerpad,48,,,2333BW,Leiden,Leiden,Zuid-Holland,VBO,4.473548,52.168681
Dankmeijerpad,50,,,2333BW,Leiden,Leiden,Zuid-Holland,VBO,4.474092,52.168872
Dankmeijerpad,52,,,2333BW,Leiden,Leiden,Zuid-Holland,VBO,4.474047,52.168853
Dankmeijerpad,54,,,2333BW,Leiden,Leiden,Zuid-Holland,VBO,4.474004,52.168834
Dankmeijerpad,56,,,2333BW,Leiden,Leiden,Zuid-Holland,VBO,4.473964,52.168814
Dankmeijerpad,58,,,2333BW,Leiden,Leiden,Zuid-Holland,VBO,4.473927,52.168800
Dankmeijerpad,60,,,2333BW,Leiden,Leiden,Zuid-Holland,VBO,4.473892,52.168783
Dankmeijerpad,62,,,2333BW,Leiden,Leiden,Zuid-Holland,VBO,4.473856,52.168769
Dankmeijerpad,64,,,2333BW,Leiden,Leiden,Zuid-Holland,VBO,4.473823,52.168755
Dankmeijerpad,66,,,2333BW,Leiden,Leiden,Zuid-Holland,VBO,4.473785,52.168737
Dankmeijerpad,68,,,2333BW,Leiden,Leiden,Zuid-Holland,VBO,4.473742,52.168720
Dankmeijerpad,70,,,2333BW,Leiden,Leiden,Zuid-Holland,VBO,4.473701,52.168705
Dankmeijerpad,72,,,2333BW,Leiden,Leiden,Zuid-Holland,VBO,4.473661,52.168691
Dankmeijerpad,74,,,2333BW,Leiden,Leiden,Zuid-Holland,VBO,4.473621,52.168673
Dankmeijerpad,76,,,2333BW,Leiden,Leiden,Zuid-Holland,VBO,4.473576,52.168656
Dankmeijerpad,78,,,2333BW,Leiden,Leiden,Zuid-Holland,VBO,4.473531,52.168636
Dankmeijerpad,80,,,2333BW,Leiden,Leiden,Zuid-Holland,VBO,4.473489,52.168621
Dankmeijerpad,82,,,2333BW,Leiden,Leiden,Zuid-Holland,VBO,4.473447,52.168607
Dankmeijerpad,84,,,2333BW,Leiden,Leiden,Zuid-Holland,VBO,4.473415,52.168589
Dankmeijerpad,86,,,2333BW,Leiden,Leiden,Zuid-Holland,VBO,4.473621,52.168589
Dankmeijerpad,88,,,2333BW,Leiden,Leiden,Zuid-Holland,VBO,4.473581,52.168572
Dankmeijerpad,90,,,2333BW,Leiden,Leiden,Zuid-Holland,VBO,4.473648,52.168564
Dankmeijerpad,92,,,2333BW,Leiden,Leiden,Zuid-Holland,VBO,4.473602,52.168547
Dankmeijerpad,94,,,2333BW,Leiden,Leiden,Zuid-Holland,VBO,4.473677,52.168540
Dankmeijerpad,96,,,2333BW,Leiden,Leiden,Zuid-Holland,VBO,4.473634,52.168523
Dankmeijerpad,98,,,2333BW,Leiden,Leiden,Zuid-Holland,VBO,4.474120,52.168844
Dankmeijerpad,100,,,2333BW,Leiden,Leiden,Zuid-Holland,VBO,4.474083,52.168833
Dankmeijerpad,102,,,2333BW,Leiden,Leiden,Zuid-Holland,VBO,4.474046,52.168816
Dankmeijerpad,104,,,2333BW,Leiden,Leiden,Zuid-Holland,VBO,4.474006,52.168800
Dankmeijerpad,106,,,2333BW,Leiden,Leiden,Zuid-Holland,VBO,4.473973,52.168787
Dankmeijerpad,108,,,2333BW,Leiden,Leiden,Zuid-Holland,VBO,4.473931,52.168768
Dankmeijerpad,110,,,2333BW,Leiden,Leiden,Zuid-Holland,VBO,4.473891,52.168750
Dankmeijerpad,112,,,2333BW,Leiden,Leiden,Zuid-Holland,VBO,4.473852,52.168733
Dankmeijerpad,114,,,2333BW,Leiden,Leiden,Zuid-Holland,VBO,4.473815,52.168717
Dankmeijerpad,116,,,2333BW,Leiden,Leiden,Zuid-Holland,VBO,4.473779,52.168702
Dankmeijerpad,118,,,2333BW,Leiden,Leiden,Zuid-Holland,VBO,4.473739,52.168683
Dankmeijerpad,120,,,2333BW,Leiden,Leiden,Zuid-Holland,VBO,4.473701,52.168670
Dankmeijerpad,122,,,2333BW,Leiden,Leiden,Zuid-Holland,VBO,4.473661,52.168654
Dankmeijerpad,124,,,2333BW,Leiden,Leiden,Zuid-Holland,VBO,4.473624,52.168636
Dankmeijerpad,126,,,2333BW,Leiden,Leiden,Zuid-Holland,VBO,4.473580,52.168619
Dankmeijerpad,128,,,2333BW,Leiden,Leiden,Zuid-Holland,VBO,4.473538,52.168601
Dankmeijerpad,130,,,2333BW,Leiden,Leiden,Zuid-Holland,VBO,4.473394,52.168548
Dankmeijerpad,132,,,2333BW,Leiden,Leiden,Zuid-Holland,VBO,4.473360,52.168533
Dankmeijerpad,134,,,2333BW,Leiden,Leiden,Zuid-Holland,VBO,4.473705,52.168507
Dankmeijerpad,136,,,2333BW,Leiden,Leiden,Zuid-Holland,VBO,4.473664,52.168491
Dankmeijerpad,138,,,2333BW,Leiden,Leiden,Zuid-Holland,VBO,4.473729,52.168484
Dankmeijerpad,140,,,2333BW,Leiden,Leiden,Zuid-Holland,VBO,4.473683,52.168468
Dankmeijerpad,142,,,2333BW,Leiden,Leiden,Zuid-Holland,VBO,4.473758,52.168461
Dankmeijerpad,144,,,2333BW,Leiden,Leiden,Zuid-Holland,VBO,4.473714,52.168442
Dankmeijerpad,146,,,2333BW,Leiden,Leiden,Zuid-Holland,VBO,4.474142,52.168821
Dankmeijerpad,148,,,2333BW,Leiden,Leiden,Zuid-Holland,VBO,4.474109,52.168810
Dankmeijerpad,150,,,2333BW,Leiden,Leiden,Zuid-Holland,VBO,4.474078,52.168798
Dankmeijerpad,152,,,2333BW,Leiden,Leiden,Zuid-Holland,VBO,4.474047,52.168783
Dankmeijerpad,154,,,2333BW,Leiden,Leiden,Zuid-Holland,VBO,4.474002,52.168784
Dankmeijerpad,156,,,2333BW,Leiden,Leiden,Zuid-Holland,VBO,4.473970,52.168774
Dankmeijerpad,158,,,2333BW,Leiden,Leiden,Zuid-Holland,VBO,4.473940,52.168761
Dankmeijerpad,160,,,2333BW,Leiden,Leiden,Zuid-Holland,VBO,4.473903,52.168742
Dankmeijerpad,162,,,2333BW,Leiden,Leiden,Zuid-Holland,VBO,4.473879,52.168720
Dankmeijerpad,164,,,2333BW,Leiden,Leiden,Zuid-Holland,VBO,4.473859,52.168710
Dankmeijerpad,166,,,2333BW,Leiden,Leiden,Zuid-Holland,VBO,4.473837,52.168699
Dankmeijerpad,168,,,2333BW,Leiden,Leiden,Zuid-Holland,VBO,4.473811,52.168690
Dankmeijerpad,170,,,2333BW,Leiden,Leiden,Zuid-Holland,VBO,4.473793,52.168681
Dankmeijerpad,172,,,2333BW,Leiden,Leiden,Zuid-Holland,VBO,4.473772,52.168671
Dankmeijerpad,174,,,2333BW,Leiden,Leiden,Zuid-Holland,VBO,4.473585,52.168593
Dankmeijerpad,176,,,2333BW,Leiden,Leiden,Zuid-Holland,VBO,4.473780,52.168440
Dankmeijerpad,178,,,2333BW,Leiden,Leiden,Zuid-Holland,VBO,4.473735,52.168422
Dankmeijerpad,180,,,2333BW,Leiden,Leiden,Zuid-Holland,VBO,4.473807,52.168420
Dankmeijerpad,182,,,2333BW,Leiden,Leiden,Zuid-Holland,VBO,4.473760,52.168400
Dankmeijerpad,184,,,2333BW,Leiden,Leiden,Zuid-Holland,VBO,4.473829,52.168400
Dankmeijerpad,186,,,2333BW,Leiden,Leiden,Zuid-Holland,VBO,4.473775,52.168372
Plesmanlaan,1,A,,2333BZ,Leiden,Leiden,Zuid-Holland,VBO,4.477832,52.164402
Plesmanlaan,1,B,,2333BZ,Leiden,Leiden,Zuid-Holland,VBO,4.477833,52.164416
Plesmanlaan,1,C,,2333BZ,Leiden,Leiden,Zuid-Holland,VBO,4.477836,52.164430
Plesmanlaan,1,D,,2333BZ,Leiden,Leiden,Zuid-Holland,VBO,4.477838,52.164449
Plesmanlaan,1,E,,2333BZ,Leiden,Leiden,Zuid-Holland,VBO,4.477839,52.164466
Plesmanlaan,1,F,,2333BZ,Leiden,Leiden,Zuid-Holland,VBO,4.477840,52.164483
Plesmanlaan,1,G,,2333BZ,Leiden,Leiden,Zuid-Holland,VBO,4.477841,52.164500
Plesmanlaan,1,H,,2333BZ,Leiden,Leiden,Zuid-Holland,VBO,4.477841,52.164516
Plesmanlaan,1,T,,2333BZ,Leiden,Leiden,Zuid-Holland,VBO,4.478264,52.164378
Niels Bohrweg,1,,,2333CA,Leiden,Leiden,Zuid-Holland,VBO,4.457102,52.169324
Niels Bohrweg,2,,,2333CA,Leiden,Leiden,Zuid-Holland,VBO,4.457569,52.168354
Einsteinweg,97,A,,2333CB,Leiden,Leiden,Zuid-Holland,VBO,4.456268,52.167407
Einsteinweg,101,,,2333CB,Leiden,Leiden,Zuid-Holland,VBO,4.454850,52.167330
Einsteinweg,2,,,2333CC,Leiden,Leiden,Zuid-Holland,VBO,4.464367,52.164930
Einsteinweg,3,,,2333CC,Leiden,Leiden,Zuid-Holland,VBO,4.465406,52.165397
Einsteinweg,4,,,2333CC,Leiden,Leiden,Zuid-Holland,VBO,4.463364,52.166302
Einsteinweg,5,A,,2333CC,Leiden,Leiden,Zuid-Holland,VBO,4.465531,52.165946
Einsteinweg,5,B,,2333CC,Leiden,Leiden,Zuid-Holland,VBO,4.465519,52.165905
Einsteinweg,5,C,,2333CC,Leiden,Leiden,Zuid-Holland,VBO,4.465558,52.165943
Einsteinweg,5,D,,2333CC,Leiden,Leiden,Zuid-Holland,VBO,4.465545,52.165905
Einsteinweg,5,E,,2333CC,Leiden,Leiden,Zuid-Holland,VBO,4.465582,52.165940
Einsteinweg,5,F,,2333CC,Leiden,Leiden,Zuid-Holland,VBO,4.465569,52.165901
Einsteinweg,5,N,,2333CC,Leiden,Leiden,Zuid-Holland,VBO,4.465497,52.166259
Einsteinweg,5,,,2333CC,Leiden,Leiden,Zuid-Holland,VBO,4.465494,52.166101
Einsteinweg,6,,,2333CC,Leiden,Leiden,Zuid-Holland,VBO,4.461487,52.166433
Einsteinweg,55,,,2333CC,Leiden,Leiden,Zuid-Holland,VBO,4.459588,52.167284
Einsteinweg,61,,,2333CC,Leiden,Leiden,Zuid-Holland,VBO,4.458079,52.167574
Einsteinweg,82,,,2333CD,Leiden,Leiden,Zuid-Holland,VBO,4.457876,52.166959
Einsteinweg,90,T,,2333CD,Leiden,Leiden,Zuid-Holland,VBO,4.456625,52.167010
Einsteinweg,90,,,2333CD,Leiden,Leiden,Zuid-Holland,VBO,4.456611,52.166980
Einsteinweg,92,,,2333CD,Leiden,Leiden,Zuid-Holland,VBO,4.456610,52.166616
Einsteinweg,94,,,2333CD,Leiden,Leiden,Zuid-Holland,VBO,4.455892,52.166983
Max Planckweg,4,,,2333CE,Leiden,Leiden,Zuid-Holland,VBO,4.461841,52.168222
Max Planckweg,8,,,2333CE,Leiden,Leiden,Zuid-Holland,VBO,4.459588,52.167284
Robert Boyleweg,4,,,2333CG,Leiden,Leiden,Zuid-Holland,VBO,4.456704,52.168265
Robert Boyleweg,12,,,2333CG,Leiden,Leiden,Zuid-Holland,VBO,4.455349,52.168555
J.H. Oortweg,11,S,,2333CH,Leiden,Leiden,Zuid-Holland,VBO,4.464296,52.166975
J.H. Oortweg,11,T,,2333CH,Leiden,Leiden,Zuid-Holland,VBO,4.464318,52.167029
J.H. Oortweg,15,,,2333CH,Leiden,Leiden,Zuid-Holland,VBO,4.464450,52.167773
J.H. Oortweg,17,,,2333CH,Leiden,Leiden,Zuid-Holland,VBO,4.464535,52.168142
J.H. Oortweg,19,S,,2333CH,Leiden,Leiden,Zuid-Holland,VBO,4.465132,52.168644
J.H. Oortweg,19,T,,2333CH,Leiden,Leiden,Zuid-Holland,VBO,4.465197,52.168641
J.H. Oortweg,19,,,2333CH,Leiden,Leiden,Zuid-Holland,VBO,4.464646,52.168610
J.H. Oortweg,21,,,2333CH,Leiden,Leiden,Zuid-Holland,VBO,4.464765,52.168978
Avicennapad,2,,,2333CJ,Leiden,Leiden,Zuid-Holland,VBO,4.457018,52.170197
Avicennapad,4,,,2333CJ,Leiden,Leiden,Zuid-Holland,VBO,4.456956,52.170202
Avicennapad,6,,,2333CJ,Leiden,Leiden,Zuid-Holland,VBO,4.456906,52.170210
Avicennapad,8,,,2333CJ,Leiden,Leiden,Zuid-Holland,VBO,4.456854,52.170217
Avicennapad,10,,,2333CJ,Leiden,Leiden,Zuid-Holland,VBO,4.456473,52.170266
Avicennapad,12,,,2333CJ,Leiden,Leiden,Zuid-Holland,VBO,4.456416,52.170272
Avicennapad,14,,,2333CJ,Leiden,Leiden,Zuid-Holland,VBO,4.456354,52.170279
Avicennapad,16,,,2333CJ,Leiden,Leiden,Zuid-Holland,VBO,4.456300,52.170285
Avicennapad,18,,,2333CJ,Leiden,Leiden,Zuid-Holland,VBO,4.456249,52.170291
Avicennapad,20,,,2333CJ,Leiden,Leiden,Zuid-Holland,VBO,4.456188,52.170295
Avicennapad,22,,,2333CJ,Leiden,Leiden,Zuid-Holland,VBO,4.456466,52.170240
Avicennapad,24,,,2333CJ,Leiden,Leiden,Zuid-Holland,VBO,4.456409,52.170245
Avicennapad,26,,,2333CJ,Leiden,Leiden,Zuid-Holland,VBO,4.456351,52.170252
Avicennapad,28,,,2333CJ,Leiden,Leiden,Zuid-Holland,VBO,4.456295,52.170258
Avicennapad,30,,,2333CJ,Leiden,Leiden,Zuid-Holland,VBO,4.456240,52.170263
Avicennapad,32,,,2333CJ,Leiden,Leiden,Zuid-Holland,VBO,4.456180,52.170269
Avicennapad,34,,,2333CJ,Leiden,Leiden,Zuid-Holland,VBO,4.456077,52.170306
Avicennapad,36,,,2333CJ,Leiden,Leiden,Zuid-Holland,VBO,4.456020,52.170314
Avicennapad,38,,,2333CJ,Leiden,Leiden,Zuid-Holland,VBO,4.455964,52.170319
Avicennapad,40,,,2333CJ,Leiden,Leiden,Zuid-Holland,VBO,4.455912,52.170325
Avicennapad,42,,,2333CJ,Leiden,Leiden,Zuid-Holland,VBO,4.455857,52.170330
Avicennapad,44,,,2333CJ,Leiden,Leiden,Zuid-Holland,VBO,4.455792,52.170334
Avicennapad,46,,,2333CJ,Leiden,Leiden,Zuid-Holland,VBO,4.455741,52.170340
Avicennapad,48,,,2333CJ,Leiden,Leiden,Zuid-Holland,VBO,4.456072,52.170279
Avicennapad,50,,,2333CJ,Leiden,Leiden,Zuid-Holland,VBO,4.456016,52.170294
Avicennapad,52,,,2333CJ,Leiden,Leiden,Zuid-Holland,VBO,4.455957,52.170293
Avicennapad,54,,,2333CJ,Leiden,Leiden,Zuid-Holland,VBO,4.455904,52.170305
Avicennapad,56,,,2333CJ,Leiden,Leiden,Zuid-Holland,VBO,4.455847,52.170311
Avicennapad,58,,,2333CJ,Leiden,Leiden,Zuid-Holland,VBO,4.455791,52.170317
Avicennapad,60,,,2333CJ,Leiden,Leiden,Zuid-Holland,VBO,4.455735,52.170322
Zernikedreef,9,,,2333CK,Leiden,Leiden,Zuid-Holland,VBO,4.467956,52.167292
Zernikedreef,11,,,2333CK,Leiden,Leiden,Zuid-Holland,VBO,4.471794,52.167156
Zernikedreef,2,T,,2333CL,Leiden,Leiden,Zuid-Holland,VBO,4.472450,52.166091
Zernikedreef,2,,,2333CL,Leiden,Leiden,Zuid-Holland,VBO,4.472091,52.166241
Zernikedreef,6,,,2333CL,Leiden,Leiden,Zuid-Holland,VBO,4.470589,52.166253
Zernikedreef,8,,,2333CL,Leiden,Leiden,Zuid-Holland,VBO,4.469694,52.166670
Zernikedreef,10,,,2333CL,Leiden,Leiden,Zuid-Holland,VBO,4.469153,52.166671
Zernikedreef,12,,,2333CL,Leiden,Leiden,Zuid-Holland,VBO,4.467594,52.166708
Zernikedreef,16,,,2333CL,Leiden,Leiden,Zuid-Holland,VBO,4.466655,52.166731
Zernikedreef,20,,,2333CL,Leiden,Leiden,Zuid-Holland,VBO,4.466117,52.166440
Archimedesweg,1,,,2333CM,Leiden,Leiden,Zuid-Holland,VBO,4.465755,52.164530
Archimedesweg,13,T,,2333CM,Leiden,Leiden,Zuid-Holland,VBO,4.467204,52.165078
Archimedesweg,13,,,2333CM,Leiden,Leiden,Zuid-Holland,VBO,4.467141,52.165052
Archimedesweg,15,T,,2333CM,Leiden,Leiden,Zuid-Holland,VBO,4.467962,52.165343
Archimedesweg,15,,,2333CM,Leiden,Leiden,Zuid-Holland,VBO,4.467451,52.165189
Archimedesweg,17,,,2333CM,Leiden,Leiden,Zuid-Holland,VBO,4.468537,52.165471
Archimedesweg,25,,,2333CM,Leiden,Leiden,Zuid-Holland,VBO,4.468529,52.165436
Archimedesweg,29,A,,2333CM,Leiden,Leiden,Zuid-Holland,VBO,4.469032,52.165973
Archimedesweg,29,B,,2333CM,Leiden,Leiden,Zuid-Holland,VBO,4.469044,52.166016
Archimedesweg,29,C,,2333CM,Leiden,Leiden,Zuid-Holland,VBO,4.469290,52.165604
Archimedesweg,29,D,,2333CM,Leiden,Leiden,Zuid-Holland,VBO,4.469243,52.165647
Archimedesweg,29,E,,2333CM,Leiden,Leiden,Zuid-Holland,VBO,4.468993,52.166022
Archimedesweg,29,F,,2333CM,Leiden,Leiden,Zuid-Holland,VBO,4.469007,52.166067
Archimedesweg,29,G,,2333CM,Leiden,Leiden,Zuid-Holland,VBO,4.469188,52.165654
Archimedesweg,29,H,,2333CM,Leiden,Leiden,Zuid-Holland,VBO,4.469143,52.165695
Archimedesweg,29,J,,2333CM,Leiden,Leiden,Zuid-Holland,VBO,4.468961,52.166061
Archimedesweg,29,K,,2333CM,Leiden,Leiden,Zuid-Holland,VBO,4.468973,52.166104
Archimedesweg,29,L,,2333CM,Leiden,Leiden,Zuid-Holland,VBO,4.469219,52.165581
Archimedesweg,29,M,,2333CM,Leiden,Leiden,Zuid-Holland,VBO,4.469179,52.165619
Archimedesweg,29,N,,2333CM,Leiden,Leiden,Zuid-Holland,VBO,4.468904,52.166030
Archimedesweg,29,P,,2333CM,Leiden,Leiden,Zuid-Holland,VBO,4.468916,52.166077
Archimedesweg,29,R,,2333CM,Leiden,Leiden,Zuid-Holland,VBO,4.469116,52.165627
Archimedesweg,29,S,,2333CM,Leiden,Leiden,Zuid-Holland,VBO,4.469073,52.165668
Archimedesweg,29,T,,2333CM,Leiden,Leiden,Zuid-Holland,VBO,4.469680,52.165772
Archimedesweg,29,,,2333CM,Leiden,Leiden,Zuid-Holland,VBO,4.469072,52.165857
Archimedesweg,31,,,2333CM,Leiden,Leiden,Zuid-Holland,VBO,4.469810,52.165929
Archimedesweg,2,,,2333CN,Leiden,Leiden,Zuid-Holland,VBO,4.466400,52.165184
Archimedesweg,4,,,2333CN,Leiden,Leiden,Zuid-Holland,VBO,4.467225,52.165498
Archimedesweg,6,,,2333CN,Leiden,Leiden,Zuid-Holland,VBO,4.468336,52.165928
Archimedesweg,30,,,2333CN,Leiden,Leiden,Zuid-Holland,VBO,4.468613,52.166715
Newtonweg,1,,,2333CP,Leiden,Leiden,Zuid-Holland,VBO,4.468712,52.164675
Newtonweg,4,,,2333CP,Leiden,Leiden,Zuid-Holland,VBO,4.469223,52.165167
Darwinweg,1,,,2333CR,Leiden,Leiden,Zuid-Holland,VBO,4.474213,52.165992
Darwinweg,2,T,,2333CR,Leiden,Leiden,Zuid-Holland,VBO,4.472833,52.164807
Darwinweg,2,,,2333CR,Leiden,Leiden,Zuid-Holland,VBO,4.473367,52.164899
Darwinweg,20,,,2333CR,Leiden,Leiden,Zuid-Holland,VBO,4.473367,52.164899
Darwinweg,24,,,2333CR,Leiden,Leiden,Zuid-Holland,VBO,4.473134,52.165853
Mendelweg,1,,,2333CS,Leiden,Leiden,Zuid-Holland,VBO,4.470329,52.165269
Mendelweg,3,,,2333CS,Leiden,Leiden,Zuid-Holland,VBO,4.472193,52.165499
Mendelweg,30,A,,2333CS,Leiden,Leiden,Zuid-Holland,VBO,4.471049,52.164465
Mendelweg,30,,,2333CS,Leiden,Leiden,Zuid-Holland,VBO,4.470385,52.164479
Mendelweg,32,A,,2333CS,Leiden,Leiden,Zuid-Holland,VBO,4.469987,52.164483
Mendelweg,32,,,2333CS,Leiden,Leiden,Zuid-Holland,VBO,4.470063,52.164482
Bargelaan,2,,,2333CT,Leiden,Leiden,Zuid-Holland,VBO,4.482193,52.167459
Bargelaan,4,G,,2333CT,Leiden,Leiden,Zuid-Holland,VBO,4.481902,52.167226
Bargelaan,4,,,2333CT,Leiden,Leiden,Zuid-Holland,VBO,4.481998,52.167310
Bargelaan,6,,,2333CT,Leiden,Leiden,Zuid-Holland,VBO,4.481803,52.167161
Bargelaan,8,A,,2333CT,Leiden,Leiden,Zuid-Holland,VBO,4.481688,52.166843
Bargelaan,8,B,,2333CT,Leiden,Leiden,Zuid-Holland,VBO,4.481375,52.166713
Bargelaan,8,D,,2333CT,Leiden,Leiden,Zuid-Holland,VBO,4.481845,52.166651
Bargelaan,8,,,2333CT,Leiden,Leiden,Zuid-Holland,VBO,4.481608,52.167013
Bargelaan,10,,,2333CT,Leiden,Leiden,Zuid-Holland,VBO,4.482214,52.167449
Bargelaan,18,,,2333CT,Leiden,Leiden,Zuid-Holland,VBO,4.482234,52.167440
Bargelaan,20,,,2333CT,Leiden,Leiden,Zuid-Holland,VBO,4.482040,52.167291
Bargelaan,24,,,2333CT,Leiden,Leiden,Zuid-Holland,VBO,4.481650,52.166994
Bargelaan,26,,,2333CT,Leiden,Leiden,Zuid-Holland,VBO,4.482254,52.167429
Bargelaan,28,,,2333CT,Leiden,Leiden,Zuid-Holland,VBO,4.482059,52.167281
Bargelaan,32,,,2333CT,Leiden,Leiden,Zuid-Holland,VBO,4.481670,52.166983
Bargelaan,34,,,2333CV,Leiden,Leiden,Zuid-Holland,VBO,4.482318,52.167461
Bargelaan,36,,,2333CV,Leiden,Leiden,Zuid-Holland,VBO,4.482279,52.167429
Bargelaan,38,,,2333CV,Leiden,Leiden,Zuid-Holland,VBO,4.482240,52.167398
Bargelaan,40,,,2333CV,Leiden,Leiden,Zuid-Holland,VBO,4.482200,52.167365
Bargelaan,42,,,2333CV,Leiden,Leiden,Zuid-Holland,VBO,4.482340,52.167450
Bargelaan,44,,,2333CV,Leiden,Leiden,Zuid-Holland,VBO,4.482301,52.167419
Bargelaan,46,,,2333CV,Leiden,Leiden,Zuid-Holland,VBO,4.482262,52.167388
Bargelaan,48,,,2333CV,Leiden,Leiden,Zuid-Holland,VBO,4.482224,52.167357
Bargelaan,50,,,2333CV,Leiden,Leiden,Zuid-Holland,VBO,4.482359,52.167438
Bargelaan,52,,,2333CV,Leiden,Leiden,Zuid-Holland,VBO,4.482323,52.167408
Bargelaan,54,,,2333CV,Leiden,Leiden,Zuid-Holland,VBO,4.482284,52.167377
Bargelaan,56,,,2333CV,Leiden,Leiden,Zuid-Holland,VBO,4.482246,52.167346
Bargelaan,58,,,2333CV,Leiden,Leiden,Zuid-Holland,VBO,4.482383,52.167429
Bargelaan,60,,,2333CV,Leiden,Leiden,Zuid-Holland,VBO,4.482342,52.167396
Bargelaan,64,,,2333CV,Leiden,Leiden,Zuid-Holland,VBO,4.482268,52.167336
Bargelaan,66,,,2333CV,Leiden,Leiden,Zuid-Holland,VBO,4.482405,52.167418
Bargelaan,68,,,2333CV,Leiden,Leiden,Zuid-Holland,VBO,4.482366,52.167387
Bargelaan,70,,,2333CV,Leiden,Leiden,Zuid-Holland,VBO,4.482326,52.167355
Bargelaan,72,,,2333CV,Leiden,Leiden,Zuid-Holland,VBO,4.482290,52.167325
Bargelaan,74,,,2333CW,Leiden,Leiden,Zuid-Holland,VBO,4.482426,52.167407
Bargelaan,76,,,2333CW,Leiden,Leiden,Zuid-Holland,VBO,4.482388,52.167377
Bargelaan,78,,,2333CW,Leiden,Leiden,Zuid-Holland,VBO,4.482350,52.167346
Bargelaan,80,,,2333CW,Leiden,Leiden,Zuid-Holland,VBO,4.482310,52.167313
Bargelaan,82,,,2333CW,Leiden,Leiden,Zuid-Holland,VBO,4.482448,52.167397
Bargelaan,84,,,2333CW,Leiden,Leiden,Zuid-Holland,VBO,4.482410,52.167366
Bargelaan,86,,,2333CW,Leiden,Leiden,Zuid-Holland,VBO,4.482372,52.167335
Bargelaan,88,,,2333CW,Leiden,Leiden,Zuid-Holland,VBO,4.482334,52.167305
Bargelaan,90,,,2333CW,Leiden,Leiden,Zuid-Holland,VBO,4.482468,52.167384
Bargelaan,92,,,2333CW,Leiden,Leiden,Zuid-Holland,VBO,4.482432,52.167355
Bargelaan,94,,,2333CW,Leiden,Leiden,Zuid-Holland,VBO,4.482394,52.167325
Bargelaan,96,,,2333CW,Leiden,Leiden,Zuid-Holland,VBO,4.482356,52.167294
Bargelaan,98,,,2333CW,Leiden,Leiden,Zuid-Holland,VBO,4.482491,52.167375
Bargelaan,100,,,2333CW,Leiden,Leiden,Zuid-Holland,VBO,4.482458,52.167348
Bargelaan,102,,,2333CW,Leiden,Leiden,Zuid-Holland,VBO,4.482422,52.167319
Bargelaan,104,,,2333CW,Leiden,Leiden,Zuid-Holland,VBO,4.482384,52.167289
Bargelaan,106,,,2333CW,Leiden,Leiden,Zuid-Holland,VBO,4.482520,52.167370
Bargelaan,108,,,2333CW,Leiden,Leiden,Zuid-Holland,VBO,4.482482,52.167339
Bargelaan,110,,,2333CW,Leiden,Leiden,Zuid-Holland,VBO,4.482440,52.167305
Bargelaan,112,,,2333CW,Leiden,Leiden,Zuid-Holland,VBO,4.482404,52.167277
Bargelaan,114,,,2333CW,Leiden,Leiden,Zuid-Holland,VBO,4.482539,52.167357
Bargelaan,116,,,2333CW,Leiden,Leiden,Zuid-Holland,VBO,4.482501,52.167327
Bargelaan,118,,,2333CW,Leiden,Leiden,Zuid-Holland,VBO,4.482464,52.167297
Bargelaan,120,,,2333CW,Leiden,Leiden,Zuid-Holland,VBO,4.482428,52.167268
Bargelaan,180,A,,2333CW,Leiden,Leiden,Zuid-Holland,VBO,4.480266,52.166001
Bargelaan,180,,,2333CW,Leiden,Leiden,Zuid-Holland,VBO,4.480720,52.166021
Bargelaan,182,,,2333CW,Leiden,Leiden,Zuid-Holland,VBO,4.481283,52.166386
Bargelaan,184,,,2333CW,Leiden,Leiden,Zuid-Holland,VBO,4.481240,52.166410
Bargelaan,186,,,2333CW,Leiden,Leiden,Zuid-Holland,VBO,4.481184,52.166437
Bargelaan,188,A,,2333CW,Leiden,Leiden,Zuid-Holland,VBO,4.481026,52.166388
Bargelaan,188,B,,2333CW,Leiden,Leiden,Zuid-Holland,VBO,4.480909,52.166292
Bargelaan,188,C,,2333CW,Leiden,Leiden,Zuid-Holland,VBO,4.480768,52.166184
Bargelaan,188,D,,2333CW,Leiden,Leiden,Zuid-Holland,VBO,4.480588,52.166044
Bargelaan,188,,,2333CW,Leiden,Leiden,Zuid-Holland,VBO,4.481131,52.166461
Bargelaan,190,,,2333CW,Leiden,Leiden,Zuid-Holland,VBO,4.481021,52.166523
Bargelaan,192,,,2333CW,Leiden,Leiden,Zuid-Holland,VBO,4.480868,52.166489
Bargelaan,194,,,2333CW,Leiden,Leiden,Zuid-Holland,VBO,4.480805,52.166440
Bargelaan,196,,,2333CW,Leiden,Leiden,Zuid-Holland,VBO,4.480148,52.165769
Bargelaan,198,,,2333CW,Leiden,Leiden,Zuid-Holland,VBO,4.480184,52.165724
Bargelaan,200,,,2333CW,Leiden,Leiden,Zuid-Holland,VBO,4.480224,52.165684
Anna Grollstraat,2,T,,2333CX,Leiden,Leiden,Zuid-Holland,VBO,4.481314,52.166216
Anna Grollstraat,7,,,2333CX,Leiden,Leiden,Zuid-Holland,VBO,4.480720,52.166021
Anna Grollstraat,15,A,,2333CX,Leiden,Leiden,Zuid-Holland,VBO,4.480672,52.165890
Anna Grollstraat,15,B,,2333CX,Leiden,Leiden,Zuid-Holland,VBO,4.480621,52.165851
Anna Grollstraat,15,C,,2333CX,Leiden,Leiden,Zuid-Holland,VBO,4.480570,52.165813
Anna Grollstraat,15,D,,2333CX,Leiden,Leiden,Zuid-Holland,VBO,4.480519,52.165775
Anna Grollstraat,15,E,,2333CX,Leiden,Leiden,Zuid-Holland,VBO,4.480464,52.165727
Anna Grollstraat,15,F,,2333CX,Leiden,Leiden,Zuid-Holland,VBO,4.480419,52.165695
Anna Grollstraat,15,G,,2333CX,Leiden,Leiden,Zuid-Holland,VBO,4.480373,52.165661
Anna Grollstraat,15,H,,2333CX,Leiden,Leiden,Zuid-Holland,VBO,4.480323,52.165628
Anna Grollstraat,15,J,,2333CX,Leiden,Leiden,Zuid-Holland,VBO,4.480293,52.165604
Hildebrandpad,2,A,,2333DA,Leiden,Leiden,Zuid-Holland,VBO,4.470333,52.168926
Hildebrandpad,2,B,,2333DA,Leiden,Leiden,Zuid-Holland,VBO,4.470351,52.168910
Hildebrandpad,2,C,,2333DA,Leiden,Leiden,Zuid-Holland,VBO,4.470367,52.168900
Hildebrandpad,2,D,,2333DA,Leiden,Leiden,Zuid-Holland,VBO,4.470382,52.168888
Hildebrandpad,2,,,2333DA,Leiden,Leiden,Zuid-Holland,VBO,4.470284,52.168966
Hildebrandpad,4,,,2333DA,Leiden,Leiden,Zuid-Holland,VBO,4.470865,52.168519
Hildebrandpad,100,,,2333DA,Leiden,Leiden,Zuid-Holland,VBO,4.470874,52.168489
Hildebrandpad,102,,,2333DA,Leiden,Leiden,Zuid-Holland,VBO,4.470859,52.168500
Hildebrandpad,104,,,2333DA,Leiden,Leiden,Zuid-Holland,VBO,4.470844,52.168512
Hildebrandpad,106,,,2333DA,Leiden,Leiden,Zuid-Holland,VBO,4.470828,52.168523
Hildebrandpad,108,,,2333DA,Leiden,Leiden,Zuid-Holland,VBO,4.470813,52.168536
Hildebrandpad,110,,,2333DA,Leiden,Leiden,Zuid-Holland,VBO,4.470797,52.168547
Hildebrandpad,112,,,2333DA,Leiden,Leiden,Zuid-Holland,VBO,4.470771,52.168566
Hildebrandpad,114,,,2333DA,Leiden,Leiden,Zuid-Holland,VBO,4.470755,52.168577
Hildebrandpad,116,,,2333DA,Leiden,Leiden,Zuid-Holland,VBO,4.470740,52.168589
Hildebrandpad,118,,,2333DA,Leiden,Leiden,Zuid-Holland,VBO,4.470723,52.168602
Hildebrandpad,120,,,2333DA,Leiden,Leiden,Zuid-Holland,VBO,4.470708,52.168612
Hildebrandpad,122,,,2333DA,Leiden,Leiden,Zuid-Holland,VBO,4.470692,52.168624
Hildebrandpad,124,,,2333DA,Leiden,Leiden,Zuid-Holland,VBO,4.470671,52.168641
Hildebrandpad,126,,,2333DA,Leiden,Leiden,Zuid-Holland,VBO,4.470655,52.168651
Hildebrandpad,128,,,2333DA,Leiden,Leiden,Zuid-Holland,VBO,4.470642,52.168663
Hildebrandpad,130,,,2333DA,Leiden,Leiden,Zuid-Holland,VBO,4.470628,52.168673
Hildebrandpad,132,,,2333DA,Leiden,Leiden,Zuid-Holland,VBO,4.470614,52.168682
Hildebrandpad,134,,,2333DA,Leiden,Leiden,Zuid-Holland,VBO,4.470600,52.168694
Hildebrandpad,136,,,2333DA,Leiden,Leiden,Zuid-Holland,VBO,4.470541,52.168733
Hildebrandpad,138,,,2333DA,Leiden,Leiden,Zuid-Holland,VBO,4.470526,52.168741
Hildebrandpad,140,,,2333DA,Leiden,Leiden,Zuid-Holland,VBO,4.470514,52.168752
Hildebrandpad,142,,,2333DA,Leiden,Leiden,Zuid-Holland,VBO,4.470501,52.168764
Hildebrandpad,144,,,2333DA,Leiden,Leiden,Zuid-Holland,VBO,4.470486,52.168777
Hildebrandpad,146,,,2333DA,Leiden,Leiden,Zuid-Holland,VBO,4.470471,52.168785
Hildebrandpad,148,,,2333DA,Leiden,Leiden,Zuid-Holland,VBO,4.470453,52.168797
Hildebrandpad,150,,,2333DA,Leiden,Leiden,Zuid-Holland,VBO,4.470437,52.168811
Hildebrandpad,152,,,2333DA,Leiden,Leiden,Zuid-Holland,VBO,4.470421,52.168823
Hildebrandpad,154,,,2333DA,Leiden,Leiden,Zuid-Holland,VBO,4.470407,52.168832
Hildebrandpad,156,,,2333DA,Leiden,Leiden,Zuid-Holland,VBO,4.470393,52.168844
Hildebrandpad,158,,,2333DA,Leiden,Leiden,Zuid-Holland,VBO,4.470379,52.168854
Hildebrandpad,160,,,2333DA,Leiden,Leiden,Zuid-Holland,VBO,4.470362,52.168866
Hildebrandpad,162,,,2333DA,Leiden,Leiden,Zuid-Holland,VBO,4.470346,52.168877
Hildebrandpad,164,,,2333DA,Leiden,Leiden,Zuid-Holland,VBO,4.470332,52.168888
Hildebrandpad,166,,,2333DA,Leiden,Leiden,Zuid-Holland,VBO,4.470314,52.168900
Hildebrandpad,168,,,2333DA,Leiden,Leiden,Zuid-Holland,VBO,4.470298,52.168911
Hildebrandpad,170,,,2333DA,Leiden,Leiden,Zuid-Holland,VBO,4.470280,52.168924
Hildebrandpad,200,,,2333DB,Leiden,Leiden,Zuid-Holland,VBO,4.470848,52.168473
Hildebrandpad,202,,,2333DB,Leiden,Leiden,Zuid-Holland,VBO,4.470834,52.168484
Hildebrandpad,204,,,2333DB,Leiden,Leiden,Zuid-Holland,VBO,4.470822,52.168495
Hildebrandpad,206,,,2333DB,Leiden,Leiden,Zuid-Holland,VBO,4.470805,52.168504
Hildebrandpad,208,,,2333DB,Leiden,Leiden,Zuid-Holland,VBO,4.470790,52.168515
Hildebrandpad,210,,,2333DB,Leiden,Leiden,Zuid-Holland,VBO,4.470776,52.168528
Hildebrandpad,212,,,2333DB,Leiden,Leiden,Zuid-Holland,VBO,4.470760,52.168539
Hildebrandpad,214,,,2333DB,Leiden,Leiden,Zuid-Holland,VBO,4.470743,52.168550
Hildebrandpad,216,,,2333DB,Leiden,Leiden,Zuid-Holland,VBO,4.470729,52.168561
Hildebrandpad,218,,,2333DB,Leiden,Leiden,Zuid-Holland,VBO,4.470711,52.168574
Hildebrandpad,220,,,2333DB,Leiden,Leiden,Zuid-Holland,VBO,4.470696,52.168587
Hildebrandpad,222,,,2333DB,Leiden,Leiden,Zuid-Holland,VBO,4.470682,52.168597
Hildebrandpad,224,,,2333DB,Leiden,Leiden,Zuid-Holland,VBO,4.470666,52.168608
Hildebrandpad,226,,,2333DB,Leiden,Leiden,Zuid-Holland,VBO,4.470650,52.168618
Hildebrandpad,228,,,2333DB,Leiden,Leiden,Zuid-Holland,VBO,4.470636,52.168628
Hildebrandpad,230,,,2333DB,Leiden,Leiden,Zuid-Holland,VBO,4.470623,52.168639
Hildebrandpad,232,,,2333DB,Leiden,Leiden,Zuid-Holland,VBO,4.470610,52.168650
Hildebrandpad,234,,,2333DB,Leiden,Leiden,Zuid-Holland,VBO,4.470595,52.168661
Hildebrandpad,236,,,2333DB,Leiden,Leiden,Zuid-Holland,VBO,4.470515,52.168718
Hildebrandpad,238,,,2333DB,Leiden,Leiden,Zuid-Holland,VBO,4.470501,52.168729
Hildebrandpad,240,,,2333DB,Leiden,Leiden,Zuid-Holland,VBO,4.470482,52.168739
Hildebrandpad,242,,,2333DB,Leiden,Leiden,Zuid-Holland,VBO,4.470468,52.168751
Hildebrandpad,244,,,2333DB,Leiden,Leiden,Zuid-Holland,VBO,4.470455,52.168761
Hildebrandpad,246,,,2333DB,Leiden,Leiden,Zuid-Holland,VBO,4.470441,52.168770
Hildebrandpad,248,,,2333DB,Leiden,Leiden,Zuid-Holland,VBO,4.470426,52.168780
Hildebrandpad,250,,,2333DB,Leiden,Leiden,Zuid-Holland,VBO,4.470410,52.168791
Hildebrandpad,252,,,2333DB,Leiden,Leiden,Zuid-Holland,VBO,4.470397,52.168801
Hildebrandpad,254,,,2333DB,Leiden,Leiden,Zuid-Holland,VBO,4.470381,52.168812
Hildebrandpad,256,,,2333DB,Leiden,Leiden,Zuid-Holland,VBO,4.470365,52.168824
Hildebrandpad,258,,,2333DB,Leiden,Leiden,Zuid-Holland,VBO,4.470348,52.168836
Hildebrandpad,260,,,2333DB,Leiden,Leiden,Zuid-Holland,VBO,4.470338,52.168847
Hildebrandpad,262,,,2333DB,Leiden,Leiden,Zuid-Holland,VBO,4.470321,52.168857
Hildebrandpad,264,,,2333DB,Leiden,Leiden,Zuid-Holland,VBO,4.470304,52.168870
Hildebrandpad,266,,,2333DB,Leiden,Leiden,Zuid-Holland,VBO,4.470289,52.168880
Hildebrandpad,268,,,2333DB,Leiden,Leiden,Zuid-Holland,VBO,4.470272,52.168891
Hildebrandpad,270,,,2333DB,Leiden,Leiden,Zuid-Holland,VBO,4.470255,52.168905
Hildebrandpad,300,,,2333DB,Leiden,Leiden,Zuid-Holland,VBO,4.470813,52.168457
Hildebrandpad,302,,,2333DB,Leiden,Leiden,Zuid-Holland,VBO,4.470798,52.168467
Hildebrandpad,304,,,2333DB,Leiden,Leiden,Zuid-Holland,VBO,4.470782,52.168479
Hildebrandpad,306,,,2333DB,Leiden,Leiden,Zuid-Holland,VBO,4.470766,52.168491
Hildebrandpad,308,,,2333DB,Leiden,Leiden,Zuid-Holland,VBO,4.470754,52.168503
Hildebrandpad,310,,,2333DB,Leiden,Leiden,Zuid-Holland,VBO,4.470738,52.168516
Hildebrandpad,312,,,2333DB,Leiden,Leiden,Zuid-Holland,VBO,4.470721,52.168525
Hildebrandpad,314,,,2333DB,Leiden,Leiden,Zuid-Holland,VBO,4.470706,52.168538
Hildebrandpad,316,,,2333DB,Leiden,Leiden,Zuid-Holland,VBO,4.470691,52.168549
Hildebrandpad,318,,,2333DB,Leiden,Leiden,Zuid-Holland,VBO,4.470672,52.168562
Hildebrandpad,320,,,2333DB,Leiden,Leiden,Zuid-Holland,VBO,4.470653,52.168574
Hildebrandpad,322,,,2333DB,Leiden,Leiden,Zuid-Holland,VBO,4.470642,52.168582
Hildebrandpad,324,,,2333DB,Leiden,Leiden,Zuid-Holland,VBO,4.470627,52.168592
Hildebrandpad,326,,,2333DB,Leiden,Leiden,Zuid-Holland,VBO,4.470607,52.168609
Hildebrandpad,328,,,2333DB,Leiden,Leiden,Zuid-Holland,VBO,4.470598,52.168619
Hildebrandpad,330,,,2333DB,Leiden,Leiden,Zuid-Holland,VBO,4.470584,52.168629
Hildebrandpad,332,,,2333DB,Leiden,Leiden,Zuid-Holland,VBO,4.470572,52.168639
Hildebrandpad,334,,,2333DB,Leiden,Leiden,Zuid-Holland,VBO,4.470563,52.168650
Hildebrandpad,336,,,2333DB,Leiden,Leiden,Zuid-Holland,VBO,4.470487,52.168703
Hildebrandpad,338,,,2333DB,Leiden,Leiden,Zuid-Holland,VBO,4.470470,52.168713
Hildebrandpad,340,,,2333DB,Leiden,Leiden,Zuid-Holland,VBO,4.470456,52.168727
Hildebrandpad,342,,,2333DB,Leiden,Leiden,Zuid-Holland,VBO,4.470438,52.168737
Hildebrandpad,344,,,2333DB,Leiden,Leiden,Zuid-Holland,VBO,4.470423,52.168745
Hildebrandpad,346,,,2333DB,Leiden,Leiden,Zuid-Holland,VBO,4.470410,52.168758
Hildebrandpad,348,,,2333DB,Leiden,Leiden,Zuid-Holland,VBO,4.470393,52.168769
Hildebrandpad,350,,,2333DB,Leiden,Leiden,Zuid-Holland,VBO,4.470380,52.168779
Hildebrandpad,352,,,2333DB,Leiden,Leiden,Zuid-Holland,VBO,4.470366,52.168790
Hildebrandpad,354,,,2333DB,Leiden,Leiden,Zuid-Holland,VBO,4.470349,52.168800
Hildebrandpad,356,,,2333DB,Leiden,Leiden,Zuid-Holland,VBO,4.470333,52.168811
Hildebrandpad,358,,,2333DB,Leiden,Leiden,Zuid-Holland,VBO,4.470318,52.168822
Hildebrandpad,360,,,2333DB,Leiden,Leiden,Zuid-Holland,VBO,4.470305,52.168833
Hildebrandpad,362,,,2333DB,Leiden,Leiden,Zuid-Holland,VBO,4.470288,52.168843
Hildebrandpad,364,,,2333DB,Leiden,Leiden,Zuid-Holland,VBO,4.470274,52.168854
Hildebrandpad,366,,,2333DB,Leiden,Leiden,Zuid-Holland,VBO,4.470257,52.168865
Hildebrandpad,368,,,2333DB,Leiden,Leiden,Zuid-Holland,VBO,4.470238,52.168878
Hildebrandpad,370,,,2333DB,Leiden,Leiden,Zuid-Holland,VBO,4.470221,52.168892
Hildebrandpad,400,,,2333DC,Leiden,Leiden,Zuid-Holland,VBO,4.470784,52.168440
Hildebrandpad,402,,,2333DC,Leiden,Leiden,Zuid-Holland,VBO,4.470769,52.168450
Hildebrandpad,404,,,2333DC,Leiden,Leiden,Zuid-Holland,VBO,4.470756,52.168460
Hildebrandpad,406,,,2333DC,Leiden,Leiden,Zuid-Holland,VBO,4.470737,52.168472
Hildebrandpad,408,,,2333DC,Leiden,Leiden,Zuid-Holland,VBO,4.470725,52.168482
Hildebrandpad,410,,,2333DC,Leiden,Leiden,Zuid-Holland,VBO,4.470709,52.168493
Hildebrandpad,412,,,2333DC,Leiden,Leiden,Zuid-Holland,VBO,4.470698,52.168503
Hildebrandpad,414,,,2333DC,Leiden,Leiden,Zuid-Holland,VBO,4.470682,52.168513
Hildebrandpad,416,,,2333DC,Leiden,Leiden,Zuid-Holland,VBO,4.470666,52.168526
Hildebrandpad,418,,,2333DC,Leiden,Leiden,Zuid-Holland,VBO,4.470649,52.168544
Hildebrandpad,420,,,2333DC,Leiden,Leiden,Zuid-Holland,VBO,4.470634,52.168556
Hildebrandpad,422,,,2333DC,Leiden,Leiden,Zuid-Holland,VBO,4.470616,52.168566
Hildebrandpad,424,,,2333DC,Leiden,Leiden,Zuid-Holland,VBO,4.470599,52.168579
Hildebrandpad,426,,,2333DC,Leiden,Leiden,Zuid-Holland,VBO,4.470581,52.168592
Hildebrandpad,428,,,2333DC,Leiden,Leiden,Zuid-Holland,VBO,4.470567,52.168604
Hildebrandpad,430,,,2333DC,Leiden,Leiden,Zuid-Holland,VBO,4.470548,52.168617
Hildebrandpad,432,,,2333DC,Leiden,Leiden,Zuid-Holland,VBO,4.470535,52.168630
Hildebrandpad,434,,,2333DC,Leiden,Leiden,Zuid-Holland,VBO,4.470516,52.168643
Hildebrandpad,436,,,2333DC,Leiden,Leiden,Zuid-Holland,VBO,4.470456,52.168687
Hildebrandpad,438,,,2333DC,Leiden,Leiden,Zuid-Holland,VBO,4.470441,52.168699
Hildebrandpad,440,,,2333DC,Leiden,Leiden,Zuid-Holland,VBO,4.470425,52.168709
Hildebrandpad,442,,,2333DC,Leiden,Leiden,Zuid-Holland,VBO,4.470410,52.168722
Hildebrandpad,444,,,2333DC,Leiden,Leiden,Zuid-Holland,VBO,4.470396,52.168734
Hildebrandpad,446,,,2333DC,Leiden,Leiden,Zuid-Holland,VBO,4.470380,52.168745
Hildebrandpad,448,,,2333DC,Leiden,Leiden,Zuid-Holland,VBO,4.470368,52.168753
Hildebrandpad,450,,,2333DC,Leiden,Leiden,Zuid-Holland,VBO,4.470354,52.168765
Hildebrandpad,452,,,2333DC,Leiden,Leiden,Zuid-Holland,VBO,4.470339,52.168775
Hildebrandpad,454,,,2333DC,Leiden,Leiden,Zuid-Holland,VBO,4.470326,52.168785
Hildebrandpad,456,,,2333DC,Leiden,Leiden,Zuid-Holland,VBO,4.470311,52.168796
Hildebrandpad,458,,,2333DC,Leiden,Leiden,Zuid-Holland,VBO,4.470294,52.168808
Hildebrandpad,460,,,2333DC,Leiden,Leiden,Zuid-Holland,VBO,4.470279,52.168819
Hildebrandpad,462,,,2333DC,Leiden,Leiden,Zuid-Holland,VBO,4.470263,52.168828
Hildebrandpad,464,,,2333DC,Leiden,Leiden,Zuid-Holland,VBO,4.470247,52.168841
Hildebrandpad,466,,,2333DC,Leiden,Leiden,Zuid-Holland,VBO,4.470231,52.168852
Hildebrandpad,468,,,2333DC,Leiden,Leiden,Zuid-Holland,VBO,4.470217,52.168862
Hildebrandpad,470,,,2333DC,Leiden,Leiden,Zuid-Holland,VBO,4.470198,52.168875
Hildebrandpad,500,,,2333DC,Leiden,Leiden,Zuid-Holland,VBO,4.470754,52.168426
Hildebrandpad,502,,,2333DC,Leiden,Leiden,Zuid-Holland,VBO,4.470738,52.168438
Hildebrandpad,504,,,2333DC,Leiden,Leiden,Zuid-Holland,VBO,4.470720,52.168448
Hildebrandpad,506,,,2333DC,Leiden,Leiden,Zuid-Holland,VBO,4.470704,52.168460
Hildebrandpad,508,,,2333DC,Leiden,Leiden,Zuid-Holland,VBO,4.470688,52.168472
Hildebrandpad,510,,,2333DC,Leiden,Leiden,Zuid-Holland,VBO,4.470673,52.168483
Hildebrandpad,512,,,2333DC,Leiden,Leiden,Zuid-Holland,VBO,4.470655,52.168496
Hildebrandpad,514,,,2333DC,Leiden,Leiden,Zuid-Holland,VBO,4.470644,52.168506
Hildebrandpad,516,,,2333DC,Leiden,Leiden,Zuid-Holland,VBO,4.470631,52.168517
Hildebrandpad,518,,,2333DC,Leiden,Leiden,Zuid-Holland,VBO,4.470616,52.168527
Hildebrandpad,520,,,2333DC,Leiden,Leiden,Zuid-Holland,VBO,4.470602,52.168538
Hildebrandpad,522,,,2333DC,Leiden,Leiden,Zuid-Holland,VBO,4.470588,52.168548
Hildebrandpad,524,,,2333DC,Leiden,Leiden,Zuid-Holland,VBO,4.470574,52.168557
Hildebrandpad,526,,,2333DC,Leiden,Leiden,Zuid-Holland,VBO,4.470560,52.168567
Hildebrandpad,528,,,2333DC,Leiden,Leiden,Zuid-Holland,VBO,4.470546,52.168579
Hildebrandpad,530,,,2333DC,Leiden,Leiden,Zuid-Holland,VBO,4.470531,52.168590
Hildebrandpad,532,,,2333DC,Leiden,Leiden,Zuid-Holland,VBO,4.470514,52.168604
Hildebrandpad,534,,,2333DC,Leiden,Leiden,Zuid-Holland,VBO,4.470496,52.168616
Hildebrandpad,536,,,2333DC,Leiden,Leiden,Zuid-Holland,VBO,4.470423,52.168671
Hildebrandpad,538,,,2333DC,Leiden,Leiden,Zuid-Holland,VBO,4.470408,52.168681
Hildebrandpad,540,,,2333DC,Leiden,Leiden,Zuid-Holland,VBO,4.470396,52.168690
Hildebrandpad,542,,,2333DC,Leiden,Leiden,Zuid-Holland,VBO,4.470380,52.168703
Hildebrandpad,544,,,2333DC,Leiden,Leiden,Zuid-Holland,VBO,4.470364,52.168715
Hildebrandpad,546,,,2333DC,Leiden,Leiden,Zuid-Holland,VBO,4.470350,52.168725
Hildebrandpad,548,,,2333DC,Leiden,Leiden,Zuid-Holland,VBO,4.470337,52.168736
Hildebrandpad,550,,,2333DC,Leiden,Leiden,Zuid-Holland,VBO,4.470323,52.168744
Hildebrandpad,552,,,2333DC,Leiden,Leiden,Zuid-Holland,VBO,4.470307,52.168758
Hildebrandpad,554,,,2333DC,Leiden,Leiden,Zuid-Holland,VBO,4.470288,52.168775
Hildebrandpad,556,,,2333DC,Leiden,Leiden,Zuid-Holland,VBO,4.470271,52.168787
Hildebrandpad,558,,,2333DC,Leiden,Leiden,Zuid-Holland,VBO,4.470255,52.168797
Hildebrandpad,560,,,2333DC,Leiden,Leiden,Zuid-Holland,VBO,4.470240,52.168808
Hildebrandpad,562,,,2333DC,Leiden,Leiden,Zuid-Holland,VBO,4.470223,52.168820
Hildebrandpad,564,,,2333DC,Leiden,Leiden,Zuid-Holland,VBO,4.470209,52.168832
Hildebrandpad,566,,,2333DC,Leiden,Leiden,Zuid-Holland,VBO,4.470194,52.168844
Hildebrandpad,568,,,2333DC,Leiden,Leiden,Zuid-Holland,VBO,4.470175,52.168856
Hildebrandpad,570,,,2333DC,Leiden,Leiden,Zuid-Holland,VBO,4.470157,52.168868
Hildebrandpad,600,,,2333DD,Leiden,Leiden,Zuid-Holland,VBO,4.470725,52.168408
Hildebrandpad,602,,,2333DD,Leiden,Leiden,Zuid-Holland,VBO,4.470709,52.168420
Hildebrandpad,604,,,2333DD,Leiden,Leiden,Zuid-Holland,VBO,4.470692,52.168435
Hildebrandpad,606,,,2333DD,Leiden,Leiden,Zuid-Holland,VBO,4.470678,52.168447
Hildebrandpad,608,,,2333DD,Leiden,Leiden,Zuid-Holland,VBO,4.470657,52.168458
Hildebrandpad,610,,,2333DD,Leiden,Leiden,Zuid-Holland,VBO,4.470638,52.168470
Hildebrandpad,612,,,2333DD,Leiden,Leiden,Zuid-Holland,VBO,4.470622,52.168480
Hildebrandpad,614,,,2333DD,Leiden,Leiden,Zuid-Holland,VBO,4.470608,52.168491
Hildebrandpad,616,,,2333DD,Leiden,Leiden,Zuid-Holland,VBO,4.470594,52.168501
Hildebrandpad,618,,,2333DD,Leiden,Leiden,Zuid-Holland,VBO,4.470585,52.168513
Hildebrandpad,620,,,2333DD,Leiden,Leiden,Zuid-Holland,VBO,4.470569,52.168525
Hildebrandpad,622,,,2333DD,Leiden,Leiden,Zuid-Holland,VBO,4.470556,52.168535
Hildebrandpad,624,,,2333DD,Leiden,Leiden,Zuid-Holland,VBO,4.470542,52.168546
Hildebrandpad,626,,,2333DD,Leiden,Leiden,Zuid-Holland,VBO,4.470526,52.168558
Hildebrandpad,628,,,2333DD,Leiden,Leiden,Zuid-Holland,VBO,4.470509,52.168569
Hildebrandpad,630,,,2333DD,Leiden,Leiden,Zuid-Holland,VBO,4.470495,52.168580
Hildebrandpad,632,,,2333DD,Leiden,Leiden,Zuid-Holland,VBO,4.470479,52.168591
Hildebrandpad,634,,,2333DD,Leiden,Leiden,Zuid-Holland,VBO,4.470464,52.168604
Hildebrandpad,636,,,2333DD,Leiden,Leiden,Zuid-Holland,VBO,4.470397,52.168656
Hildebrandpad,638,,,2333DD,Leiden,Leiden,Zuid-Holland,VBO,4.470380,52.168667
Hildebrandpad,640,,,2333DD,Leiden,Leiden,Zuid-Holland,VBO,4.470368,52.168680
Hildebrandpad,642,,,2333DD,Leiden,Leiden,Zuid-Holland,VBO,4.470351,52.168691
Hildebrandpad,644,,,2333DD,Leiden,Leiden,Zuid-Holland,VBO,4.470336,52.168702
Hildebrandpad,646,,,2333DD,Leiden,Leiden,Zuid-Holland,VBO,4.470321,52.168712
Hildebrandpad,648,,,2333DD,Leiden,Leiden,Zuid-Holland,VBO,4.470307,52.168722
Hildebrandpad,650,,,2333DD,Leiden,Leiden,Zuid-Holland,VBO,4.470294,52.168731
Hildebrandpad,652,,,2333DD,Leiden,Leiden,Zuid-Holland,VBO,4.470279,52.168744
Hildebrandpad,654,,,2333DD,Leiden,Leiden,Zuid-Holland,VBO,4.470260,52.168758
Hildebrandpad,656,,,2333DD,Leiden,Leiden,Zuid-Holland,VBO,4.470244,52.168772
Hildebrandpad,658,,,2333DD,Leiden,Leiden,Zuid-Holland,VBO,4.470227,52.168780
Hildebrandpad,660,,,2333DD,Leiden,Leiden,Zuid-Holland,VBO,4.470212,52.168791
Hildebrandpad,662,,,2333DD,Leiden,Leiden,Zuid-Holland,VBO,4.470199,52.168805
Hildebrandpad,664,,,2333DD,Leiden,Leiden,Zuid-Holland,VBO,4.470182,52.168816
Hildebrandpad,666,,,2333DD,Leiden,Leiden,Zuid-Holland,VBO,4.470163,52.168828
Hildebrandpad,668,,,2333DD,Leiden,Leiden,Zuid-Holland,VBO,4.470146,52.168842
Hildebrandpad,670,,,2333DD,Leiden,Leiden,Zuid-Holland,VBO,4.470129,52.168855
Hildebrandpad,700,,,2333DD,Leiden,Leiden,Zuid-Holland,VBO,4.470696,52.168394
Hildebrandpad,702,,,2333DD,Leiden,Leiden,Zuid-Holland,VBO,4.470676,52.168406
Hildebrandpad,704,,,2333DD,Leiden,Leiden,Zuid-Holland,VBO,4.470664,52.168418
Hildebrandpad,706,,,2333DD,Leiden,Leiden,Zuid-Holland,VBO,4.470651,52.168432
Hildebrandpad,708,,,2333DD,Leiden,Leiden,Zuid-Holland,VBO,4.470632,52.168443
Hildebrandpad,710,,,2333DD,Leiden,Leiden,Zuid-Holland,VBO,4.470617,52.168457
Hildebrandpad,712,,,2333DD,Leiden,Leiden,Zuid-Holland,VBO,4.470601,52.168468
Hildebrandpad,714,,,2333DD,Leiden,Leiden,Zuid-Holland,VBO,4.470588,52.168478
Hildebrandpad,716,,,2333DD,Leiden,Leiden,Zuid-Holland,VBO,4.470572,52.168486
Hildebrandpad,718,,,2333DD,Leiden,Leiden,Zuid-Holland,VBO,4.470558,52.168495
Hildebrandpad,720,,,2333DD,Leiden,Leiden,Zuid-Holland,VBO,4.470545,52.168509
Hildebrandpad,722,,,2333DD,Leiden,Leiden,Zuid-Holland,VBO,4.470532,52.168520
Hildebrandpad,724,,,2333DD,Leiden,Leiden,Zuid-Holland,VBO,4.470519,52.168530
Hildebrandpad,726,,,2333DD,Leiden,Leiden,Zuid-Holland,VBO,4.470487,52.168553
Hildebrandpad,728,,,2333DD,Leiden,Leiden,Zuid-Holland,VBO,4.470469,52.168565
Hildebrandpad,730,,,2333DD,Leiden,Leiden,Zuid-Holland,VBO,4.470455,52.168576
Hildebrandpad,732,,,2333DD,Leiden,Leiden,Zuid-Holland,VBO,4.470442,52.168586
Hildebrandpad,734,,,2333DD,Leiden,Leiden,Zuid-Holland,VBO,4.470426,52.168599
Hildebrandpad,736,,,2333DD,Leiden,Leiden,Zuid-Holland,VBO,4.470369,52.168641
Hildebrandpad,738,,,2333DD,Leiden,Leiden,Zuid-Holland,VBO,4.470351,52.168654
Hildebrandpad,740,,,2333DD,Leiden,Leiden,Zuid-Holland,VBO,4.470336,52.168665
Hildebrandpad,742,,,2333DD,Leiden,Leiden,Zuid-Holland,VBO,4.470320,52.168675
Hildebrandpad,744,,,2333DD,Leiden,Leiden,Zuid-Holland,VBO,4.470302,52.168684
Hildebrandpad,746,,,2333DD,Leiden,Leiden,Zuid-Holland,VBO,4.470296,52.168698
Hildebrandpad,748,,,2333DD,Leiden,Leiden,Zuid-Holland,VBO,4.470281,52.168710
Hildebrandpad,750,,,2333DD,Leiden,Leiden,Zuid-Holland,VBO,4.470268,52.168719
Hildebrandpad,752,,,2333DD,Leiden,Leiden,Zuid-Holland,VBO,4.470252,52.168731
Hildebrandpad,754,,,2333DD,Leiden,Leiden,Zuid-Holland,VBO,4.470238,52.168745
Hildebrandpad,756,,,2333DD,Leiden,Leiden,Zuid-Holland,VBO,4.470221,52.168758
Hildebrandpad,758,,,2333DD,Leiden,Leiden,Zuid-Holland,VBO,4.470204,52.168767
Hildebrandpad,760,,,2333DD,Leiden,Leiden,Zuid-Holland,VBO,4.470187,52.168778
Hildebrandpad,762,,,2333DD,Leiden,Leiden,Zuid-Holland,VBO,4.470171,52.168789
Hildebrandpad,764,,,2333DD,Leiden,Leiden,Zuid-Holland,VBO,4.470156,52.168800
Hildebrandpad,766,,,2333DD,Leiden,Leiden,Zuid-Holland,VBO,4.470143,52.168812
Hildebrandpad,768,,,2333DD,Leiden,Leiden,Zuid-Holland,VBO,4.470125,52.168826
Hildebrandpad,770,,,2333DD,Leiden,Leiden,Zuid-Holland,VBO,4.470106,52.168841
Hildebrandpad,1,,,2333DE,Leiden,Leiden,Zuid-Holland,VBO,4.470967,52.168914
Hildebrandpad,5,A,,2333DE,Leiden,Leiden,Zuid-Holland,VBO,4.471101,52.168665
Hildebrandpad,5,B,,2333DE,Leiden,Leiden,Zuid-Holland,VBO,4.471114,52.168647
Hildebrandpad,5,C,,2333DE,Leiden,Leiden,Zuid-Holland,VBO,4.471122,52.168627
Hildebrandpad,5,D,,2333DE,Leiden,Leiden,Zuid-Holland,VBO,4.471133,52.168605
Hildebrandpad,5,,,2333DE,Leiden,Leiden,Zuid-Holland,VBO,4.471091,52.168682
Hildebrandpad,7,,,2333DE,Leiden,Leiden,Zuid-Holland,VBO,4.471207,52.168468
Hildebrandpad,9,,,2333DE,Leiden,Leiden,Zuid-Holland,VBO,4.471254,52.168374
Hildebrandpad,101,,,2333DE,Leiden,Leiden,Zuid-Holland,VBO,4.471002,52.168921
Hildebrandpad,103,,,2333DE,Leiden,Leiden,Zuid-Holland,VBO,4.471014,52.168905
Hildebrandpad,105,,,2333DE,Leiden,Leiden,Zuid-Holland,VBO,4.471020,52.168892
Hildebrandpad,107,,,2333DE,Leiden,Leiden,Zuid-Holland,VBO,4.471026,52.168880
Hildebrandpad,109,,,2333DE,Leiden,Leiden,Zuid-Holland,VBO,4.471036,52.168868
Hildebrandpad,111,,,2333DE,Leiden,Leiden,Zuid-Holland,VBO,4.471044,52.168854
Hildebrandpad,113,,,2333DE,Leiden,Leiden,Zuid-Holland,VBO,4.471052,52.168839
Hildebrandpad,115,,,2333DE,Leiden,Leiden,Zuid-Holland,VBO,4.471059,52.168825
Hildebrandpad,117,,,2333DE,Leiden,Leiden,Zuid-Holland,VBO,4.471065,52.168810
Hildebrandpad,119,,,2333DE,Leiden,Leiden,Zuid-Holland,VBO,4.471075,52.168794
Hildebrandpad,121,,,2333DE,Leiden,Leiden,Zuid-Holland,VBO,4.471084,52.168779
Hildebrandpad,123,,,2333DE,Leiden,Leiden,Zuid-Holland,VBO,4.471088,52.168762
Hildebrandpad,125,,,2333DE,Leiden,Leiden,Zuid-Holland,VBO,4.471094,52.168748
Hildebrandpad,127,,,2333DE,Leiden,Leiden,Zuid-Holland,VBO,4.471098,52.168734
Hildebrandpad,129,,,2333DE,Leiden,Leiden,Zuid-Holland,VBO,4.471105,52.168723
Hildebrandpad,131,,,2333DE,Leiden,Leiden,Zuid-Holland,VBO,4.471113,52.168709
Hildebrandpad,133,,,2333DE,Leiden,Leiden,Zuid-Holland,VBO,4.471122,52.168695
Hildebrandpad,135,,,2333DE,Leiden,Leiden,Zuid-Holland,VBO,4.471130,52.168677
Hildebrandpad,137,,,2333DE,Leiden,Leiden,Zuid-Holland,VBO,4.471167,52.168614
Hildebrandpad,139,,,2333DE,Leiden,Leiden,Zuid-Holland,VBO,4.471178,52.168598
Hildebrandpad,141,,,2333DE,Leiden,Leiden,Zuid-Holland,VBO,4.471187,52.168584
Hildebrandpad,143,,,2333DE,Leiden,Leiden,Zuid-Holland,VBO,4.471192,52.168571
Hildebrandpad,145,,,2333DE,Leiden,Leiden,Zuid-Holland,VBO,4.471201,52.168556
Hildebrandpad,147,,,2333DE,Leiden,Leiden,Zuid-Holland,VBO,4.471209,52.168543
Hildebrandpad,149,,,2333DE,Leiden,Leiden,Zuid-Holland,VBO,4.471215,52.168531
Hildebrandpad,151,,,2333DE,Leiden,Leiden,Zuid-Holland,VBO,4.471224,52.168519
Hildebrandpad,153,,,2333DE,Leiden,Leiden,Zuid-Holland,VBO,4.471230,52.168505
Hildebrandpad,155,,,2333DE,Leiden,Leiden,Zuid-Holland,VBO,4.471240,52.168488
Hildebrandpad,157,,,2333DE,Leiden,Leiden,Zuid-Holland,VBO,4.471251,52.168473
Hildebrandpad,159,,,2333DE,Leiden,Leiden,Zuid-Holland,VBO,4.471254,52.168459
Hildebrandpad,161,,,2333DE,Leiden,Leiden,Zuid-Holland,VBO,4.471267,52.168441
Hildebrandpad,163,,,2333DE,Leiden,Leiden,Zuid-Holland,VBO,4.471270,52.168426
Hildebrandpad,165,,,2333DE,Leiden,Leiden,Zuid-Holland,VBO,4.471279,52.168410
Hildebrandpad,167,,,2333DE,Leiden,Leiden,Zuid-Holland,VBO,4.471289,52.168393
Hildebrandpad,169,,,2333DE,Leiden,Leiden,Zuid-Holland,VBO,4.471294,52.168377
Hildebrandpad,171,,,2333DE,Leiden,Leiden,Zuid-Holland,VBO,4.471304,52.168362
Hildebrandpad,201,,,2333DG,Leiden,Leiden,Zuid-Holland,VBO,4.471029,52.168927
Hildebrandpad,203,,,2333DG,Leiden,Leiden,Zuid-Holland,VBO,4.471040,52.168912
Hildebrandpad,205,,,2333DG,Leiden,Leiden,Zuid-Holland,VBO,4.471048,52.168899
Hildebrandpad,207,,,2333DG,Leiden,Leiden,Zuid-Holland,VBO,4.471056,52.168887
Hildebrandpad,209,,,2333DG,Leiden,Leiden,Zuid-Holland,VBO,4.471064,52.168876
Hildebrandpad,211,,,2333DG,Leiden,Leiden,Zuid-Holland,VBO,4.471068,52.168863
Hildebrandpad,213,,,2333DG,Leiden,Leiden,Zuid-Holland,VBO,4.471073,52.168848
Hildebrandpad,215,,,2333DG,Leiden,Leiden,Zuid-Holland,VBO,4.471082,52.168831
Hildebrandpad,217,,,2333DG,Leiden,Leiden,Zuid-Holland,VBO,4.471094,52.168816
Hildebrandpad,219,,,2333DG,Leiden,Leiden,Zuid-Holland,VBO,4.471101,52.168802
Hildebrandpad,221,,,2333DG,Leiden,Leiden,Zuid-Holland,VBO,4.471110,52.168784
Hildebrandpad,223,,,2333DG,Leiden,Leiden,Zuid-Holland,VBO,4.471118,52.168768
Hildebrandpad,225,,,2333DG,Leiden,Leiden,Zuid-Holland,VBO,4.471125,52.168754
Hildebrandpad,227,,,2333DG,Leiden,Leiden,Zuid-Holland,VBO,4.471129,52.168741
Hildebrandpad,229,,,2333DG,Leiden,Leiden,Zuid-Holland,VBO,4.471136,52.168728
Hildebrandpad,231,,,2333DG,Leiden,Leiden,Zuid-Holland,VBO,4.471145,52.168713
Hildebrandpad,233,,,2333DG,Leiden,Leiden,Zuid-Holland,VBO,4.471158,52.168694
Hildebrandpad,235,,,2333DG,Leiden,Leiden,Zuid-Holland,VBO,4.471165,52.168680
Hildebrandpad,237,,,2333DG,Leiden,Leiden,Zuid-Holland,VBO,4.471197,52.168620
Hildebrandpad,239,,,2333DG,Leiden,Leiden,Zuid-Holland,VBO,4.471205,52.168602
Hildebrandpad,241,,,2333DG,Leiden,Leiden,Zuid-Holland,VBO,4.471214,52.168588
Hildebrandpad,243,,,2333DG,Leiden,Leiden,Zuid-Holland,VBO,4.471221,52.168575
Hildebrandpad,245,,,2333DG,Leiden,Leiden,Zuid-Holland,VBO,4.471230,52.168561
Hildebrandpad,247,,,2333DG,Leiden,Leiden,Zuid-Holland,VBO,4.471235,52.168549
Hildebrandpad,249,,,2333DG,Leiden,Leiden,Zuid-Holland,VBO,4.471242,52.168536
Hildebrandpad,251,,,2333DG,Leiden,Leiden,Zuid-Holland,VBO,4.471250,52.168522
Hildebrandpad,253,,,2333DG,Leiden,Leiden,Zuid-Holland,VBO,4.471260,52.168506
Hildebrandpad,255,,,2333DG,Leiden,Leiden,Zuid-Holland,VBO,4.471265,52.168493
Hildebrandpad,257,,,2333DG,Leiden,Leiden,Zuid-Holland,VBO,4.471274,52.168479
Hildebrandpad,259,,,2333DG,Leiden,Leiden,Zuid-Holland,VBO,4.471281,52.168465
Hildebrandpad,261,,,2333DG,Leiden,Leiden,Zuid-Holland,VBO,4.471289,52.168448
Hildebrandpad,263,,,2333DG,Leiden,Leiden,Zuid-Holland,VBO,4.471298,52.168434
Hildebrandpad,265,,,2333DG,Leiden,Leiden,Zuid-Holland,VBO,4.471308,52.168416
Hildebrandpad,267,,,2333DG,Leiden,Leiden,Zuid-Holland,VBO,4.471319,52.168400
Hildebrandpad,269,,,2333DG,Leiden,Leiden,Zuid-Holland,VBO,4.471323,52.168387
Hildebrandpad,271,,,2333DG,Leiden,Leiden,Zuid-Holland,VBO,4.471331,52.168371
Hildebrandpad,301,,,2333DG,Leiden,Leiden,Zuid-Holland,VBO,4.471059,52.168933
Hildebrandpad,303,,,2333DG,Leiden,Leiden,Zuid-Holland,VBO,4.471068,52.168918
Hildebrandpad,305,,,2333DG,Leiden,Leiden,Zuid-Holland,VBO,4.471078,52.168905
Hildebrandpad,307,,,2333DG,Leiden,Leiden,Zuid-Holland,VBO,4.471086,52.168893
Hildebrandpad,309,,,2333DG,Leiden,Leiden,Zuid-Holland,VBO,4.471096,52.168880
Hildebrandpad,311,,,2333DG,Leiden,Leiden,Zuid-Holland,VBO,4.471103,52.168870
Hildebrandpad,313,,,2333DG,Leiden,Leiden,Zuid-Holland,VBO,4.471106,52.168855
Hildebrandpad,315,,,2333DG,Leiden,Leiden,Zuid-Holland,VBO,4.471114,52.168840
Hildebrandpad,317,,,2333DG,Leiden,Leiden,Zuid-Holland,VBO,4.471123,52.168825
Hildebrandpad,319,,,2333DG,Leiden,Leiden,Zuid-Holland,VBO,4.471132,52.168813
Hildebrandpad,321,,,2333DG,Leiden,Leiden,Zuid-Holland,VBO,4.471142,52.168794
Hildebrandpad,323,,,2333DG,Leiden,Leiden,Zuid-Holland,VBO,4.471150,52.168778
Hildebrandpad,325,,,2333DG,Leiden,Leiden,Zuid-Holland,VBO,4.471161,52.168761
Hildebrandpad,327,,,2333DG,Leiden,Leiden,Zuid-Holland,VBO,4.471170,52.168748
Hildebrandpad,329,,,2333DG,Leiden,Leiden,Zuid-Holland,VBO,4.471174,52.168735
Hildebrandpad,331,,,2333DG,Leiden,Leiden,Zuid-Holland,VBO,4.471182,52.168722
Hildebrandpad,333,,,2333DG,Leiden,Leiden,Zuid-Holland,VBO,4.471190,52.168711
Hildebrandpad,335,,,2333DG,Leiden,Leiden,Zuid-Holland,VBO,4.471198,52.168696
Hildebrandpad,337,,,2333DG,Leiden,Leiden,Zuid-Holland,VBO,4.471228,52.168628
Hildebrandpad,339,,,2333DG,Leiden,Leiden,Zuid-Holland,VBO,4.471239,52.168610
Hildebrandpad,341,,,2333DG,Leiden,Leiden,Zuid-Holland,VBO,4.471248,52.168597
Hildebrandpad,343,,,2333DG,Leiden,Leiden,Zuid-Holland,VBO,4.471255,52.168583
Hildebrandpad,345,,,2333DG,Leiden,Leiden,Zuid-Holland,VBO,4.471263,52.168569
Hildebrandpad,347,,,2333DG,Leiden,Leiden,Zuid-Holland,VBO,4.471269,52.168555
Hildebrandpad,349,,,2333DG,Leiden,Leiden,Zuid-Holland,VBO,4.471278,52.168540
Hildebrandpad,351,,,2333DG,Leiden,Leiden,Zuid-Holland,VBO,4.471285,52.168527
Hildebrandpad,353,,,2333DG,Leiden,Leiden,Zuid-Holland,VBO,4.471291,52.168512
Hildebrandpad,355,,,2333DG,Leiden,Leiden,Zuid-Holland,VBO,4.471300,52.168498
Hildebrandpad,357,,,2333DG,Leiden,Leiden,Zuid-Holland,VBO,4.471309,52.168485
Hildebrandpad,359,,,2333DG,Leiden,Leiden,Zuid-Holland,VBO,4.471315,52.168471
Hildebrandpad,361,,,2333DG,Leiden,Leiden,Zuid-Holland,VBO,4.471326,52.168456
Hildebrandpad,363,,,2333DG,Leiden,Leiden,Zuid-Holland,VBO,4.471333,52.168443
Hildebrandpad,365,,,2333DG,Leiden,Leiden,Zuid-Holland,VBO,4.471340,52.168426
Hildebrandpad,367,,,2333DG,Leiden,Leiden,Zuid-Holland,VBO,4.471349,52.168411
Hildebrandpad,369,,,2333DG,Leiden,Leiden,Zuid-Holland,VBO,4.471357,52.168399
Hildebrandpad,371,,,2333DG,Leiden,Leiden,Zuid-Holland,VBO,4.471362,52.168381
Hildebrandpad,401,,,2333DH,Leiden,Leiden,Zuid-Holland,VBO,4.471100,52.168938
Hildebrandpad,403,,,2333DH,Leiden,Leiden,Zuid-Holland,VBO,4.471105,52.168924
Hildebrandpad,405,,,2333DH,Leiden,Leiden,Zuid-Holland,VBO,4.471114,52.168910
Hildebrandpad,407,,,2333DH,Leiden,Leiden,Zuid-Holland,VBO,4.471120,52.168896
Hildebrandpad,409,,,2333DH,Leiden,Leiden,Zuid-Holland,VBO,4.471128,52.168879
Hildebrandpad,411,,,2333DH,Leiden,Leiden,Zuid-Holland,VBO,4.471137,52.168865
Hildebrandpad,413,,,2333DH,Leiden,Leiden,Zuid-Holland,VBO,4.471143,52.168854
Hildebrandpad,415,,,2333DH,Leiden,Leiden,Zuid-Holland,VBO,4.471149,52.168840
Hildebrandpad,417,,,2333DH,Leiden,Leiden,Zuid-Holland,VBO,4.471157,52.168824
Hildebrandpad,419,,,2333DH,Leiden,Leiden,Zuid-Holland,VBO,4.471164,52.168808
Hildebrandpad,421,,,2333DH,Leiden,Leiden,Zuid-Holland,VBO,4.471171,52.168794
Hildebrandpad,423,,,2333DH,Leiden,Leiden,Zuid-Holland,VBO,4.471184,52.168776
Hildebrandpad,425,,,2333DH,Leiden,Leiden,Zuid-Holland,VBO,4.471193,52.168757
Hildebrandpad,427,,,2333DH,Leiden,Leiden,Zuid-Holland,VBO,4.471200,52.168742
Hildebrandpad,429,,,2333DH,Leiden,Leiden,Zuid-Holland,VBO,4.471209,52.168727
Hildebrandpad,431,,,2333DH,Leiden,Leiden,Zuid-Holland,VBO,4.471217,52.168712
Hildebrandpad,433,,,2333DH,Leiden,Leiden,Zuid-Holland,VBO,4.471224,52.168699
Hildebrandpad,435,,,2333DH,Leiden,Leiden,Zuid-Holland,VBO,4.471229,52.168683
Hildebrandpad,437,,,2333DH,Leiden,Leiden,Zuid-Holland,VBO,4.471258,52.168637
Hildebrandpad,439,,,2333DH,Leiden,Leiden,Zuid-Holland,VBO,4.471267,52.168618
Hildebrandpad,441,,,2333DH,Leiden,Leiden,Zuid-Holland,VBO,4.471282,52.168601
Hildebrandpad,443,,,2333DH,Leiden,Leiden,Zuid-Holland,VBO,4.471293,52.168586
Hildebrandpad,445,,,2333DH,Leiden,Leiden,Zuid-Holland,VBO,4.471304,52.168571
Hildebrandpad,447,,,2333DH,Leiden,Leiden,Zuid-Holland,VBO,4.471308,52.168557
Hildebrandpad,449,,,2333DH,Leiden,Leiden,Zuid-Holland,VBO,4.471319,52.168541
Hildebrandpad,451,,,2333DH,Leiden,Leiden,Zuid-Holland,VBO,4.471326,52.168524
Hildebrandpad,453,,,2333DH,Leiden,Leiden,Zuid-Holland,VBO,4.471332,52.168511
Hildebrandpad,455,,,2333DH,Leiden,Leiden,Zuid-Holland,VBO,4.471339,52.168495
Hildebrandpad,457,,,2333DH,Leiden,Leiden,Zuid-Holland,VBO,4.471348,52.168480
Hildebrandpad,459,,,2333DH,Leiden,Leiden,Zuid-Holland,VBO,4.471357,52.168466
Hildebrandpad,461,,,2333DH,Leiden,Leiden,Zuid-Holland,VBO,4.471365,52.168452
Hildebrandpad,463,,,2333DH,Leiden,Leiden,Zuid-Holland,VBO,4.471370,52.168437
Hildebrandpad,465,,,2333DH,Leiden,Leiden,Zuid-Holland,VBO,4.471376,52.168423
Hildebrandpad,467,,,2333DH,Leiden,Leiden,Zuid-Holland,VBO,4.471384,52.168406
Hildebrandpad,469,,,2333DH,Leiden,Leiden,Zuid-Holland,VBO,4.471392,52.168393
Hildebrandpad,471,,,2333DH,Leiden,Leiden,Zuid-Holland,VBO,4.471395,52.168377
Hildebrandpad,501,,,2333DH,Leiden,Leiden,Zuid-Holland,VBO,4.471138,52.168945
Hildebrandpad,503,,,2333DH,Leiden,Leiden,Zuid-Holland,VBO,4.471147,52.168934
Hildebrandpad,505,,,2333DH,Leiden,Leiden,Zuid-Holland,VBO,4.471154,52.168922
Hildebrandpad,507,,,2333DH,Leiden,Leiden,Zuid-Holland,VBO,4.471159,52.168908
Hildebrandpad,509,,,2333DH,Leiden,Leiden,Zuid-Holland,VBO,4.471167,52.168893
Hildebrandpad,511,,,2333DH,Leiden,Leiden,Zuid-Holland,VBO,4.471173,52.168877
Hildebrandpad,513,,,2333DH,Leiden,Leiden,Zuid-Holland,VBO,4.471178,52.168862
Hildebrandpad,515,,,2333DH,Leiden,Leiden,Zuid-Holland,VBO,4.471189,52.168848
Hildebrandpad,517,,,2333DH,Leiden,Leiden,Zuid-Holland,VBO,4.471195,52.168831
Hildebrandpad,519,,,2333DH,Leiden,Leiden,Zuid-Holland,VBO,4.471205,52.168816
Hildebrandpad,521,,,2333DH,Leiden,Leiden,Zuid-Holland,VBO,4.471211,52.168802
Hildebrandpad,523,,,2333DH,Leiden,Leiden,Zuid-Holland,VBO,4.471216,52.168789
Hildebrandpad,525,,,2333DH,Leiden,Leiden,Zuid-Holland,VBO,4.471226,52.168773
Hildebrandpad,527,,,2333DH,Leiden,Leiden,Zuid-Holland,VBO,4.471236,52.168757
Hildebrandpad,529,,,2333DH,Leiden,Leiden,Zuid-Holland,VBO,4.471243,52.168741
Hildebrandpad,531,,,2333DH,Leiden,Leiden,Zuid-Holland,VBO,4.471253,52.168725
Hildebrandpad,533,,,2333DH,Leiden,Leiden,Zuid-Holland,VBO,4.471258,52.168711
Hildebrandpad,535,,,2333DH,Leiden,Leiden,Zuid-Holland,VBO,4.471267,52.168696
Hildebrandpad,537,,,2333DH,Leiden,Leiden,Zuid-Holland,VBO,4.471295,52.168643
Hildebrandpad,539,,,2333DH,Leiden,Leiden,Zuid-Holland,VBO,4.471305,52.168626
Hildebrandpad,541,,,2333DH,Leiden,Leiden,Zuid-Holland,VBO,4.471310,52.168612
Hildebrandpad,543,,,2333DH,Leiden,Leiden,Zuid-Holland,VBO,4.471324,52.168596
Hildebrandpad,545,,,2333DH,Leiden,Leiden,Zuid-Holland,VBO,4.471332,52.168577
Hildebrandpad,547,,,2333DH,Leiden,Leiden,Zuid-Holland,VBO,4.471337,52.168562
Hildebrandpad,549,,,2333DH,Leiden,Leiden,Zuid-Holland,VBO,4.471347,52.168548
Hildebrandpad,551,,,2333DH,Leiden,Leiden,Zuid-Holland,VBO,4.471352,52.168530
Hildebrandpad,553,,,2333DH,Leiden,Leiden,Zuid-Holland,VBO,4.471362,52.168514
Hildebrandpad,555,,,2333DH,Leiden,Leiden,Zuid-Holland,VBO,4.471368,52.168499
Hildebrandpad,557,,,2333DH,Leiden,Leiden,Zuid-Holland,VBO,4.471379,52.168486
Hildebrandpad,559,,,2333DH,Leiden,Leiden,Zuid-Holland,VBO,4.471383,52.168471
Hildebrandpad,561,,,2333DH,Leiden,Leiden,Zuid-Holland,VBO,4.471393,52.168457
Hildebrandpad,563,,,2333DH,Leiden,Leiden,Zuid-Holland,VBO,4.471399,52.168441
Hildebrandpad,565,,,2333DH,Leiden,Leiden,Zuid-Holland,VBO,4.471405,52.168429
Hildebrandpad,567,,,2333DH,Leiden,Leiden,Zuid-Holland,VBO,4.471411,52.168414
Hildebrandpad,569,,,2333DH,Leiden,Leiden,Zuid-Holland,VBO,4.471414,52.168398
Hildebrandpad,571,,,2333DH,Leiden,Leiden,Zuid-Holland,VBO,4.471424,52.168380
Hildebrandpad,601,,,2333DJ,Leiden,Leiden,Zuid-Holland,VBO,4.471177,52.168957
Hildebrandpad,603,,,2333DJ,Leiden,Leiden,Zuid-Holland,VBO,4.471183,52.168946
Hildebrandpad,605,,,2333DJ,Leiden,Leiden,Zuid-Holland,VBO,4.471186,52.168933
Hildebrandpad,607,,,2333DJ,Leiden,Leiden,Zuid-Holland,VBO,4.471195,52.168918
Hildebrandpad,609,,,2333DJ,Leiden,Leiden,Zuid-Holland,VBO,4.471205,52.168899
Hildebrandpad,611,,,2333DJ,Leiden,Leiden,Zuid-Holland,VBO,4.471212,52.168882
Hildebrandpad,613,,,2333DJ,Leiden,Leiden,Zuid-Holland,VBO,4.471220,52.168862
Hildebrandpad,615,,,2333DJ,Leiden,Leiden,Zuid-Holland,VBO,4.471227,52.168847
Hildebrandpad,617,,,2333DJ,Leiden,Leiden,Zuid-Holland,VBO,4.471237,52.168831
Hildebrandpad,619,,,2333DJ,Leiden,Leiden,Zuid-Holland,VBO,4.471244,52.168818
Hildebrandpad,621,,,2333DJ,Leiden,Leiden,Zuid-Holland,VBO,4.471250,52.168805
Hildebrandpad,623,,,2333DJ,Leiden,Leiden,Zuid-Holland,VBO,4.471257,52.168791
Hildebrandpad,625,,,2333DJ,Leiden,Leiden,Zuid-Holland,VBO,4.471263,52.168776
Hildebrandpad,627,,,2333DJ,Leiden,Leiden,Zuid-Holland,VBO,4.471274,52.168761
Hildebrandpad,629,,,2333DJ,Leiden,Leiden,Zuid-Holland,VBO,4.471282,52.168745
Hildebrandpad,631,,,2333DJ,Leiden,Leiden,Zuid-Holland,VBO,4.471291,52.168727
Hildebrandpad,633,,,2333DJ,Leiden,Leiden,Zuid-Holland,VBO,4.471299,52.168712
Hildebrandpad,635,,,2333DJ,Leiden,Leiden,Zuid-Holland,VBO,4.471306,52.168696
Hildebrandpad,637,,,2333DJ,Leiden,Leiden,Zuid-Holland,VBO,4.471339,52.168655
Hildebrandpad,639,,,2333DJ,Leiden,Leiden,Zuid-Holland,VBO,4.471346,52.168641
Hildebrandpad,641,,,2333DJ,Leiden,Leiden,Zuid-Holland,VBO,4.471355,52.168629
Hildebrandpad,643,,,2333DJ,Leiden,Leiden,Zuid-Holland,VBO,4.471365,52.168615
Hildebrandpad,645,,,2333DJ,Leiden,Leiden,Zuid-Holland,VBO,4.471368,52.168600
Hildebrandpad,647,,,2333DJ,Leiden,Leiden,Zuid-Holland,VBO,4.471377,52.168586
Hildebrandpad,649,,,2333DJ,Leiden,Leiden,Zuid-Holland,VBO,4.471382,52.168571
Hildebrandpad,651,,,2333DJ,Leiden,Leiden,Zuid-Holland,VBO,4.471387,52.168557
Hildebrandpad,653,,,2333DJ,Leiden,Leiden,Zuid-Holland,VBO,4.471392,52.168540
Hildebrandpad,655,,,2333DJ,Leiden,Leiden,Zuid-Holland,VBO,4.471400,52.168525
Hildebrandpad,657,,,2333DJ,Leiden,Leiden,Zuid-Holland,VBO,4.471405,52.168513
Hildebrandpad,659,,,2333DJ,Leiden,Leiden,Zuid-Holland,VBO,4.471416,52.168496
Hildebrandpad,661,,,2333DJ,Leiden,Leiden,Zuid-Holland,VBO,4.471427,52.168479
Hildebrandpad,663,,,2333DJ,Leiden,Leiden,Zuid-Holland,VBO,4.471436,52.168464
Hildebrandpad,665,,,2333DJ,Leiden,Leiden,Zuid-Holland,VBO,4.471442,52.168450
Hildebrandpad,667,,,2333DJ,Leiden,Leiden,Zuid-Holland,VBO,4.471451,52.168436
Hildebrandpad,669,,,2333DJ,Leiden,Leiden,Zuid-Holland,VBO,4.471460,52.168422
Hildebrandpad,671,,,2333DJ,Leiden,Leiden,Zuid-Holland,VBO,4.471468,52.168406
Hildebrandpad,701,,,2333DJ,Leiden,Leiden,Zuid-Holland,VBO,4.471226,52.168951
Hildebrandpad,703,,,2333DJ,Leiden,Leiden,Zuid-Holland,VBO,4.471238,52.168935
Hildebrandpad,705,,,2333DJ,Leiden,Leiden,Zuid-Holland,VBO,4.471249,52.168918
Hildebrandpad,707,,,2333DJ,Leiden,Leiden,Zuid-Holland,VBO,4.471257,52.168903
Hildebrandpad,709,,,2333DJ,Leiden,Leiden,Zuid-Holland,VBO,4.471266,52.168890
Hildebrandpad,711,,,2333DJ,Leiden,Leiden,Zuid-Holland,VBO,4.471274,52.168875
Hildebrandpad,713,,,2333DJ,Leiden,Leiden,Zuid-Holland,VBO,4.471282,52.168861
Hildebrandpad,715,,,2333DJ,Leiden,Leiden,Zuid-Holland,VBO,4.471290,52.168841
Hildebrandpad,717,,,2333DJ,Leiden,Leiden,Zuid-Holland,VBO,4.471294,52.168832
Hildebrandpad,719,,,2333DJ,Leiden,Leiden,Zuid-Holland,VBO,4.471296,52.168821
Hildebrandpad,721,,,2333DJ,Leiden,Leiden,Zuid-Holland,VBO,4.471303,52.168805
Hildebrandpad,723,,,2333DJ,Leiden,Leiden,Zuid-Holland,VBO,4.471313,52.168789
Hildebrandpad,725,,,2333DJ,Leiden,Leiden,Zuid-Holland,VBO,4.471323,52.168772
Hildebrandpad,727,,,2333DJ,Leiden,Leiden,Zuid-Holland,VBO,4.471331,52.168754
Hildebrandpad,729,,,2333DJ,Leiden,Leiden,Zuid-Holland,VBO,4.471339,52.168742
Hildebrandpad,731,,,2333DJ,Leiden,Leiden,Zuid-Holland,VBO,4.471348,52.168728
Hildebrandpad,733,,,2333DJ,Leiden,Leiden,Zuid-Holland,VBO,4.471359,52.168713
Hildebrandpad,735,,,2333DJ,Leiden,Leiden,Zuid-Holland,VBO,4.471362,52.168700
Hildebrandpad,737,,,2333DJ,Leiden,Leiden,Zuid-Holland,VBO,4.471376,52.168662
Hildebrandpad,739,,,2333DJ,Leiden,Leiden,Zuid-Holland,VBO,4.471384,52.168649
Hildebrandpad,741,,,2333DJ,Leiden,Leiden,Zuid-Holland,VBO,4.471392,52.168636
Hildebrandpad,743,,,2333DJ,Leiden,Leiden,Zuid-Holland,VBO,4.471399,52.168622
Hildebrandpad,745,,,2333DJ,Leiden,Leiden,Zuid-Holland,VBO,4.471409,52.168605
Hildebrandpad,747,,,2333DJ,Leiden,Leiden,Zuid-Holland,VBO,4.471418,52.168590
Hildebrandpad,749,,,2333DJ,Leiden,Leiden,Zuid-Holland,VBO,4.471428,52.168573
Hildebrandpad,751,,,2333DJ,Leiden,Leiden,Zuid-Holland,VBO,4.471436,52.168558
Hildebrandpad,753,,,2333DJ,Leiden,Leiden,Zuid-Holland,VBO,4.471443,52.168539
Hildebrandpad,755,,,2333DJ,Leiden,Leiden,Zuid-Holland,VBO,4.471452,52.168523
Hildebrandpad,757,,,2333DJ,Leiden,Leiden,Zuid-Holland,VBO,4.471460,52.168509
Hildebrandpad,759,,,2333DJ,Leiden,Leiden,Zuid-Holland,VBO,4.471470,52.168494
Hildebrandpad,761,,,2333DJ,Leiden,Leiden,Zuid-Holland,VBO,4.471480,52.168481
Hildebrandpad,763,,,2333DJ,Leiden,Leiden,Zuid-Holland,VBO,4.471490,52.168465
Hildebrandpad,765,,,2333DJ,Leiden,Leiden,Zuid-Holland,VBO,4.471497,52.168449
Hildebrandpad,767,,,2333DJ,Leiden,Leiden,Zuid-Holland,VBO,4.471505,52.168434
Hildebrandpad,769,,,2333DJ,Leiden,Leiden,Zuid-Holland,VBO,4.471512,52.168422
Hildebrandpad,771,,,2333DJ,Leiden,Leiden,Zuid-Holland,VBO,4.471520,52.168408
Bosuilstraat,1,,,2333VD,Leiden,Leiden,Zuid-Holland,VBO,4.470072,52.171885
Bosuilstraat,2,,,2333VD,Leiden,Leiden,Zuid-Holland,VBO,4.470183,52.171835
Bosuilstraat,3,,,2333VD,Leiden,Leiden,Zuid-Holland,VBO,4.470288,52.171780
Bosuilstraat,4,,,2333VD,Leiden,Leiden,Zuid-Holland,VBO,4.470392,52.171728
Bosuilstraat,5,,,2333VD,Leiden,Leiden,Zuid-Holland,VBO,4.470497,52.171674
Bosuilstraat,6,,,2333VD,Leiden,Leiden,Zuid-Holland,VBO,4.470703,52.171568
Bosuilstraat,7,,,2333VD,Leiden,Leiden,Zuid-Holland,VBO,4.470808,52.171515
Bosuilstraat,8,,,2333VD,Leiden,Leiden,Zuid-Holland,VBO,4.470912,52.171462
Bosuilstraat,9,,,2333VD,Leiden,Leiden,Zuid-Holland,VBO,4.471014,52.171410
Bosuilstraat,10,,,2333VD,Leiden,Leiden,Zuid-Holland,VBO,4.471117,52.171350
Vinkenstraat,1,,,2333VE,Leiden,Leiden,Zuid-Holland,VBO,4.470893,52.171185
Vinkenstraat,3,,,2333VE,Leiden,Leiden,Zuid-Holland,VBO,4.470840,52.171146
Vinkenstraat,5,,,2333VE,Leiden,Leiden,Zuid-Holland,VBO,4.470789,52.171106
Vinkenstraat,7,,,2333VE,Leiden,Leiden,Zuid-Holland,VBO,4.470743,52.171071
Vinkenstraat,9,,,2333VE,Leiden,Leiden,Zuid-Holland,VBO,4.470691,52.171032
Vinkenstraat,11,,,2333VE,Leiden,Leiden,Zuid-Holland,VBO,4.470636,52.170991
Groene Spechthof,1,,,2333VG,Leiden,Leiden,Zuid-Holland,VBO,4.470262,52.171503
Groene Spechthof,2,,,2333VG,Leiden,Leiden,Zuid-Holland,VBO,4.470208,52.171462
Groene Spechthof,3,,,2333VG,Leiden,Leiden,Zuid-Holland,VBO,4.470156,52.171424
Groene Spechthof,4,,,2333VG,Leiden,Leiden,Zuid-Holland,VBO,4.470109,52.171389
Groene Spechthof,5,,,2333VG,Leiden,Leiden,Zuid-Holland,VBO,4.470056,52.171349
Groene Spechthof,6,,,2333VG,Leiden,Leiden,Zuid-Holland,VBO,4.470004,52.171309
Groene Spechthof,7,,,2333VG,Leiden,Leiden,Zuid-Holland,VBO,4.470221,52.171205
Groene Spechthof,8,,,2333VG,Leiden,Leiden,Zuid-Holland,VBO,4.470276,52.171246
Groene Spechthof,9,,,2333VG,Leiden,Leiden,Zuid-Holland,VBO,4.470324,52.171282
Groene Spechthof,10,,,2333VG,Leiden,Leiden,Zuid-Holland,VBO,4.470378,52.171324
Groene Spechthof,11,,,2333VG,Leiden,Leiden,Zuid-Holland,VBO,4.470426,52.171360
Groene Spechthof,12,,,2333VG,Leiden,Leiden,Zuid-Holland,VBO,4.470479,52.171402
IJsvogelhof,1,,,2333VH,Leiden,Leiden,Zuid-Holland,VBO,4.469357,52.172195
IJsvogelhof,2,,,2333VH,Leiden,Leiden,Zuid-Holland,VBO,4.469325,52.172171
IJsvogelhof,3,,,2333VH,Leiden,Leiden,Zuid-Holland,VBO,4.469293,52.172150
IJsvogelhof,4,,,2333VH,Leiden,Leiden,Zuid-Holland,VBO,4.469261,52.172125
IJsvogelhof,5,,,2333VH,Leiden,Leiden,Zuid-Holland,VBO,4.469230,52.172103
IJsvogelhof,6,,,2333VH,Leiden,Leiden,Zuid-Holland,VBO,4.469198,52.172083
IJsvogelhof,7,,,2333VH,Leiden,Leiden,Zuid-Holland,VBO,4.469200,52.172040
IJsvogelhof,8,,,2333VH,Leiden,Leiden,Zuid-Holland,VBO,4.469171,52.172021
IJsvogelhof,9,,,2333VH,Leiden,Leiden,Zuid-Holland,VBO,4.469138,52.172000
IJsvogelhof,10,,,2333VH,Leiden,Leiden,Zuid-Holland,VBO,4.469103,52.171970
IJsvogelhof,11,,,2333VH,Leiden,Leiden,Zuid-Holland,VBO,4.469077,52.171950
IJsvogelhof,12,,,2333VH,Leiden,Leiden,Zuid-Holland,VBO,4.469040,52.171927
IJsvogelhof,13,,,2333VH,Leiden,Leiden,Zuid-Holland,VBO,4.469043,52.171886
IJsvogelhof,14,,,2333VH,Leiden,Leiden,Zuid-Holland,VBO,4.469012,52.171863
IJsvogelhof,15,,,2333VH,Leiden,Leiden,Zuid-Holland,VBO,4.469002,52.171832
IJsvogelhof,16,,,2333VH,Leiden,Leiden,Zuid-Holland,VBO,4.468971,52.171806
IJsvogelhof,17,,,2333VH,Leiden,Leiden,Zuid-Holland,VBO,4.468940,52.171784
IJsvogelhof,18,,,2333VH,Leiden,Leiden,Zuid-Holland,VBO,4.468912,52.171764
Van Eijsingapark,1,,,2333VJ,Leiden,Leiden,Zuid-Holland,VBO,4.477335,52.171010
Van Eijsingapark,2,,,2333VJ,Leiden,Leiden,Zuid-Holland,VBO,4.477114,52.170874
Van Eijsingapark,3,,,2333VJ,Leiden,Leiden,Zuid-Holland,VBO,4.477124,52.171062
Van Eijsingapark,4,,,2333VJ,Leiden,Leiden,Zuid-Holland,VBO,4.476878,52.170874
Van Eijsingapark,5,,,2333VJ,Leiden,Leiden,Zuid-Holland,VBO,4.477042,52.171103
Van Eijsingapark,6,,,2333VJ,Leiden,Leiden,Zuid-Holland,VBO,4.476804,52.170912
Van Eijsingapark,7,,,2333VJ,Leiden,Leiden,Zuid-Holland,VBO,4.476828,52.171163
Van Eijsingapark,8,,,2333VJ,Leiden,Leiden,Zuid-Holland,VBO,4.476641,52.171016
Van Eijsingapark,9,,,2333VJ,Leiden,Leiden,Zuid-Holland,VBO,4.476751,52.171202
Van Eijsingapark,10,,,2333VJ,Leiden,Leiden,Zuid-Holland,VBO,4.476572,52.171052
Blauwe Vogelweg,1,,,2333VK,Leiden,Leiden,Zuid-Holland,VBO,4.471416,52.170545
Blauwe Vogelweg,2,A,,2333VK,Leiden,Leiden,Zuid-Holland,VBO,4.472315,52.171268
Blauwe Vogelweg,2,,,2333VK,Leiden,Leiden,Zuid-Holland,VBO,4.472200,52.171112
Blauwe Vogelweg,3,,,2333VK,Leiden,Leiden,Zuid-Holland,VBO,4.472633,52.171522
Blauwe Vogelweg,4,,,2333VK,Leiden,Leiden,Zuid-Holland,VBO,4.472800,52.171678
Blauwe Vogelweg,5,,,2333VK,Leiden,Leiden,Zuid-Holland,VBO,4.472855,52.171731
Blauwe Vogelweg,6,,,2333VK,Leiden,Leiden,Zuid-Holland,VBO,4.472906,52.171779
Blauwe Vogelweg,7,,,2333VL,Leiden,Leiden,Zuid-Holland,VBO,4.473112,52.171976
Blauwe Vogelweg,8,,,2333VL,Leiden,Leiden,Zuid-Holland,VBO,4.473168,52.172029
Blauwe Vogelweg,9,,,2333VL,Leiden,Leiden,Zuid-Holland,VBO,4.473227,52.172084
Blauwe Vogelweg,10,,,2333VL,Leiden,Leiden,Zuid-Holland,VBO,4.473316,52.172170
Blauwe Vogelweg,11,,,2333VL,Leiden,Leiden,Zuid-Holland,VBO,4.473366,52.172217
Blauwe Vogelweg,12,,,2333VL,Leiden,Leiden,Zuid-Holland,VBO,4.473416,52.172264
Blauwe Vogelweg,13,,,2333VL,Leiden,Leiden,Zuid-Holland,VBO,4.473664,52.172441
Blauwe Vogelweg,14,,,2333VL,Leiden,Leiden,Zuid-Holland,VBO,4.473506,52.172521
Roodborststraat,1,,,2333VM,Leiden,Leiden,Zuid-Holland,VBO,4.472753,52.172133
Roodborststraat,3,,,2333VM,Leiden,Leiden,Zuid-Holland,VBO,4.472697,52.172163
Roodborststraat,5,,,2333VM,Leiden,Leiden,Zuid-Holland,VBO,4.472634,52.172194
Roodborststraat,7,,,2333VM,Leiden,Leiden,Zuid-Holland,VBO,4.472572,52.172229
Roodborststraat,9,,,2333VM,Leiden,Leiden,Zuid-Holland,VBO,4.472504,52.172263
Roodborststraat,11,,,2333VM,Leiden,Leiden,Zuid-Holland,VBO,4.472440,52.172296
Roodborststraat,13,,,2333VM,Leiden,Leiden,Zuid-Holland,VBO,4.472373,52.172330
Roodborststraat,15,,,2333VM,Leiden,Leiden,Zuid-Holland,VBO,4.472311,52.172361
Roodborststraat,17,,,2333VM,Leiden,Leiden,Zuid-Holland,VBO,4.472248,52.172394
Roodborststraat,19,,,2333VM,Leiden,Leiden,Zuid-Holland,VBO,4.472167,52.172436
Roodborststraat,21,,,2333VN,Leiden,Leiden,Zuid-Holland,VBO,4.471615,52.172715
Roodborststraat,23,,,2333VN,Leiden,Leiden,Zuid-Holland,VBO,4.471506,52.172766
Roodborststraat,25,,,2333VN,Leiden,Leiden,Zuid-Holland,VBO,4.471439,52.172801
Roodborststraat,27,,,2333VN,Leiden,Leiden,Zuid-Holland,VBO,4.471378,52.172831
Roodborststraat,29,,,2333VN,Leiden,Leiden,Zuid-Holland,VBO,4.471303,52.172869
Roodborststraat,31,,,2333VN,Leiden,Leiden,Zuid-Holland,VBO,4.471247,52.172899
Roodborststraat,33,,,2333VN,Leiden,Leiden,Zuid-Holland,VBO,4.471185,52.172930
Roodborststraat,35,,,2333VN,Leiden,Leiden,Zuid-Holland,VBO,4.471124,52.172962
Roodborststraat,37,,,2333VN,Leiden,Leiden,Zuid-Holland,VBO,4.471054,52.172997
Roodborststraat,39,,,2333VN,Leiden,Leiden,Zuid-Holland,VBO,4.470992,52.173029
Roodborststraat,41,,,2333VN,Leiden,Leiden,Zuid-Holland,VBO,4.470938,52.173057
Roodborststraat,43,,,2333VN,Leiden,Leiden,Zuid-Holland,VBO,4.470870,52.173089
Roodborststraat,45,,,2333VN,Leiden,Leiden,Zuid-Holland,VBO,4.470809,52.173122
Roodborststraat,47,,,2333VN,Leiden,Leiden,Zuid-Holland,VBO,4.470745,52.173152
Roodborststraat,49,,,2333VN,Leiden,Leiden,Zuid-Holland,VBO,4.470684,52.173183
Roodborststraat,51,,,2333VN,Leiden,Leiden,Zuid-Holland,VBO,4.470606,52.173227
Roodborststraat,53,,,2333VN,Leiden,Leiden,Zuid-Holland,VBO,4.470506,52.173279
Roodborststraat,2,F,,2333VP,Leiden,Leiden,Zuid-Holland,VBO,4.472616,52.171936
Roodborststraat,2,G,,2333VP,Leiden,Leiden,Zuid-Holland,VBO,4.472645,52.171920
Roodborststraat,2,,,2333VP,Leiden,Leiden,Zuid-Holland,VBO,4.472593,52.171980
Roodborststraat,4,,,2333VP,Leiden,Leiden,Zuid-Holland,VBO,4.472521,52.172015
Roodborststraat,6,,,2333VP,Leiden,Leiden,Zuid-Holland,VBO,4.472458,52.172048
Roodborststraat,8,,,2333VP,Leiden,Leiden,Zuid-Holland,VBO,4.472395,52.172082
Roodborststraat,10,,,2333VP,Leiden,Leiden,Zuid-Holland,VBO,4.472334,52.172111
Roodborststraat,12,,,2333VP,Leiden,Leiden,Zuid-Holland,VBO,4.472272,52.172142
Roodborststraat,14,,,2333VP,Leiden,Leiden,Zuid-Holland,VBO,4.472205,52.172176
Roodborststraat,16,,,2333VP,Leiden,Leiden,Zuid-Holland,VBO,4.472144,52.172207
Roodborststraat,18,,,2333VP,Leiden,Leiden,Zuid-Holland,VBO,4.472111,52.172261
Roodborststraat,20,,,2333VP,Leiden,Leiden,Zuid-Holland,VBO,4.472037,52.172299
Roodborststraat,22,,,2333VR,Leiden,Leiden,Zuid-Holland,VBO,4.471430,52.172607
Roodborststraat,24,,,2333VR,Leiden,Leiden,Zuid-Holland,VBO,4.471356,52.172645
Roodborststraat,26,,,2333VR,Leiden,Leiden,Zuid-Holland,VBO,4.471267,52.172655
Roodborststraat,28,,,2333VR,Leiden,Leiden,Zuid-Holland,VBO,4.471204,52.172687
Roodborststraat,30,,,2333VR,Leiden,Leiden,Zuid-Holland,VBO,4.471141,52.172719
Roodborststraat,32,,,2333VR,Leiden,Leiden,Zuid-Holland,VBO,4.471079,52.172750
Roodborststraat,34,,,2333VR,Leiden,Leiden,Zuid-Holland,VBO,4.471017,52.172781
Roodborststraat,36,,,2333VR,Leiden,Leiden,Zuid-Holland,VBO,4.470955,52.172813
Roodborststraat,38,,,2333VR,Leiden,Leiden,Zuid-Holland,VBO,4.470892,52.172845
Roodborststraat,40,,,2333VR,Leiden,Leiden,Zuid-Holland,VBO,4.470829,52.172877
Roodborststraat,42,,,2333VR,Leiden,Leiden,Zuid-Holland,VBO,4.470767,52.172908
Roodborststraat,44,,,2333VR,Leiden,Leiden,Zuid-Holland,VBO,4.470705,52.172940
Roodborststraat,46,,,2333VR,Leiden,Leiden,Zuid-Holland,VBO,4.470642,52.172971
Roodborststraat,48,,,2333VR,Leiden,Leiden,Zuid-Holland,VBO,4.470601,52.173027
Roodborststraat,50,,,2333VR,Leiden,Leiden,Zuid-Holland,VBO,4.470540,52.173057
Roodborststraat,52,,,2333VR,Leiden,Leiden,Zuid-Holland,VBO,4.470440,52.173104
Roodborststraat,54,,,2333VR,Leiden,Leiden,Zuid-Holland,VBO,4.470383,52.173137
Vinkenstraat,2,,,2333VS,Leiden,Leiden,Zuid-Holland,VBO,4.471776,52.171566
Vinkenstraat,4,,,2333VS,Leiden,Leiden,Zuid-Holland,VBO,4.471688,52.171504
Vinkenstraat,6,,,2333VS,Leiden,Leiden,Zuid-Holland,VBO,4.471634,52.171464
Vinkenstraat,8,,,2333VS,Leiden,Leiden,Zuid-Holland,VBO,4.471580,52.171423
Vinkenstraat,10,,,2333VS,Leiden,Leiden,Zuid-Holland,VBO,4.471425,52.171307
Vinkenstraat,12,,,2333VS,Leiden,Leiden,Zuid-Holland,VBO,4.471359,52.171258
Mezenstraat,1,,,2333VT,Leiden,Leiden,Zuid-Holland,VBO,4.470322,52.172352
Mezenstraat,2,,,2333VT,Leiden,Leiden,Zuid-Holland,VBO,4.469879,52.171732
Mezenstraat,3,,,2333VT,Leiden,Leiden,Zuid-Holland,VBO,4.470245,52.172297
Mezenstraat,4,,,2333VT,Leiden,Leiden,Zuid-Holland,VBO,4.469827,52.171693
Mezenstraat,5,,,2333VT,Leiden,Leiden,Zuid-Holland,VBO,4.470191,52.172254
Mezenstraat,6,,,2333VT,Leiden,Leiden,Zuid-Holland,VBO,4.469777,52.171656
Mezenstraat,7,,,2333VT,Leiden,Leiden,Zuid-Holland,VBO,4.470140,52.172215
Mezenstraat,8,,,2333VT,Leiden,Leiden,Zuid-Holland,VBO,4.469729,52.171621
Mezenstraat,9,,,2333VT,Leiden,Leiden,Zuid-Holland,VBO,4.470084,52.172173
Mezenstraat,10,,,2333VT,Leiden,Leiden,Zuid-Holland,VBO,4.469679,52.171583
Mezenstraat,11,,,2333VT,Leiden,Leiden,Zuid-Holland,VBO,4.470031,52.172133
Mezenstraat,12,,,2333VT,Leiden,Leiden,Zuid-Holland,VBO,4.469631,52.171547
Mezenstraat,13,,,2333VT,Leiden,Leiden,Zuid-Holland,VBO,4.469966,52.172087
Mezenstraat,15,,,2333VT,Leiden,Leiden,Zuid-Holland,VBO,4.469721,52.171926
Mezenstraat,17,,,2333VT,Leiden,Leiden,Zuid-Holland,VBO,4.469672,52.171888
Mezenstraat,19,,,2333VT,Leiden,Leiden,Zuid-Holland,VBO,4.469621,52.171848
Mezenstraat,21,,,2333VT,Leiden,Leiden,Zuid-Holland,VBO,4.469571,52.171812
Mezenstraat,23,,,2333VT,Leiden,Leiden,Zuid-Holland,VBO,4.469517,52.171775
Mezenstraat,25,,,2333VT,Leiden,Leiden,Zuid-Holland,VBO,4.469468,52.171738
Mezenstraat,27,,,2333VT,Leiden,Leiden,Zuid-Holland,VBO,4.469417,52.171700
Mezenstraat,29,,,2333VT,Leiden,Leiden,Zuid-Holland,VBO,4.469368,52.171663
Leeuwerikstraat,1,,,2333VV,Leiden,Leiden,Zuid-Holland,VBO,4.472363,52.171587
Leeuwerikstraat,3,,,2333VV,Leiden,Leiden,Zuid-Holland,VBO,4.472301,52.171619
Leeuwerikstraat,5,,,2333VV,Leiden,Leiden,Zuid-Holland,VBO,4.472230,52.171654
Leeuwerikstraat,7,,,2333VV,Leiden,Leiden,Zuid-Holland,VBO,4.472166,52.171688
Leeuwerikstraat,9,,,2333VV,Leiden,Leiden,Zuid-Holland,VBO,4.472101,52.171720
Leeuwerikstraat,11,,,2333VV,Leiden,Leiden,Zuid-Holland,VBO,4.472037,52.171754
Leeuwerikstraat,13,,,2333VV,Leiden,Leiden,Zuid-Holland,VBO,4.471973,52.171786
Leeuwerikstraat,15,,,2333VV,Leiden,Leiden,Zuid-Holland,VBO,4.471906,52.171820
Leeuwerikstraat,17,,,2333VV,Leiden,Leiden,Zuid-Holland,VBO,4.471846,52.171850
Leeuwerikstraat,19,,,2333VV,Leiden,Leiden,Zuid-Holland,VBO,4.471781,52.171885
Leeuwerikstraat,21,,,2333VV,Leiden,Leiden,Zuid-Holland,VBO,4.471716,52.171918
Leeuwerikstraat,23,,,2333VV,Leiden,Leiden,Zuid-Holland,VBO,4.471650,52.171951
Leeuwerikstraat,25,,,2333VV,Leiden,Leiden,Zuid-Holland,VBO,4.471568,52.171995
Leeuwerikstraat,27,,,2333VW,Leiden,Leiden,Zuid-Holland,VBO,4.471001,52.172282
Leeuwerikstraat,29,,,2333VW,Leiden,Leiden,Zuid-Holland,VBO,4.470912,52.172325
Leeuwerikstraat,31,,,2333VW,Leiden,Leiden,Zuid-Holland,VBO,4.470849,52.172357
Leeuwerikstraat,33,,,2333VW,Leiden,Leiden,Zuid-Holland,VBO,4.470782,52.172392
Leeuwerikstraat,35,,,2333VW,Leiden,Leiden,Zuid-Holland,VBO,4.470715,52.172426
Leeuwerikstraat,37,,,2333VW,Leiden,Leiden,Zuid-Holland,VBO,4.470648,52.172459
Leeuwerikstraat,39,,,2333VW,Leiden,Leiden,Zuid-Holland,VBO,4.470582,52.172493
Leeuwerikstraat,41,,,2333VW,Leiden,Leiden,Zuid-Holland,VBO,4.470516,52.172525
Leeuwerikstraat,43,,,2333VW,Leiden,Leiden,Zuid-Holland,VBO,4.470450,52.172559
Leeuwerikstraat,45,,,2333VW,Leiden,Leiden,Zuid-Holland,VBO,4.470383,52.172595
Leeuwerikstraat,47,,,2333VW,Leiden,Leiden,Zuid-Holland,VBO,4.470315,52.172629
Leeuwerikstraat,49,,,2333VW,Leiden,Leiden,Zuid-Holland,VBO,4.470252,52.172660
Leeuwerikstraat,51,,,2333VW,Leiden,Leiden,Zuid-Holland,VBO,4.470188,52.172692
Leeuwerikstraat,53,,,2333VW,Leiden,Leiden,Zuid-Holland,VBO,4.470121,52.172726
Leeuwerikstraat,55,,,2333VW,Leiden,Leiden,Zuid-Holland,VBO,4.470040,52.172768
Leeuwerikstraat,57,,,2333VW,Leiden,Leiden,Zuid-Holland,VBO,4.469947,52.172811
Leeuwerikstraat,2,T,,2333VX,Leiden,Leiden,Zuid-Holland,VBO,4.471998,52.171345
Leeuwerikstraat,2,,,2333VX,Leiden,Leiden,Zuid-Holland,VBO,4.472174,52.171485
Leeuwerikstraat,4,,,2333VX,Leiden,Leiden,Zuid-Holland,VBO,4.472089,52.171528
Leeuwerikstraat,6,,,2333VX,Leiden,Leiden,Zuid-Holland,VBO,4.472000,52.171569
Leeuwerikstraat,8,,,2333VX,Leiden,Leiden,Zuid-Holland,VBO,4.471928,52.171610
Leeuwerikstraat,10,,,2333VZ,Leiden,Leiden,Zuid-Holland,VBO,4.470239,52.172463
Leeuwerikstraat,12,,,2333VZ,Leiden,Leiden,Zuid-Holland,VBO,4.470155,52.172509
Leeuwerikstraat,14,,,2333VZ,Leiden,Leiden,Zuid-Holland,VBO,4.470091,52.172541
Leeuwerikstraat,16,,,2333VZ,Leiden,Leiden,Zuid-Holland,VBO,4.470036,52.172569
Leeuwerikstraat,18,,,2333VZ,Leiden,Leiden,Zuid-Holland,VBO,4.469968,52.172604
Leeuwerikstraat,20,,,2333VZ,Leiden,Leiden,Zuid-Holland,VBO,4.469783,52.172694
Nachtegaallaan,41,,,2333XH,Leiden,Leiden,Zuid-Holland,VBO,4.467571,52.170905
Merelstraat,1,A,,2333XJ,Leiden,Leiden,Zuid-Holland,VBO,4.473869,52.172687
Merelstraat,1,B,,2333XJ,Leiden,Leiden,Zuid-Holland,VBO,4.473835,52.172700
Merelstraat,1,C,,2333XJ,Leiden,Leiden,Zuid-Holland,VBO,4.473795,52.172715
Merelstraat,1,D,,2333XJ,Leiden,Leiden,Zuid-Holland,VBO,4.473761,52.172730
Merelstraat,1,E,,2333XJ,Leiden,Leiden,Zuid-Holland,VBO,4.473722,52.172746
Merelstraat,1,F,,2333XJ,Leiden,Leiden,Zuid-Holland,VBO,4.473691,52.172760
Merelstraat,1,G,,2333XJ,Leiden,Leiden,Zuid-Holland,VBO,4.473649,52.172774
Merelstraat,1,H,,2333XJ,Leiden,Leiden,Zuid-Holland,VBO,4.473273,52.172625
Merelstraat,1,J,,2333XJ,Leiden,Leiden,Zuid-Holland,VBO,4.473224,52.172653
Merelstraat,1,K,,2333XJ,Leiden,Leiden,Zuid-Holland,VBO,4.473166,52.172688
Merelstraat,1,,,2333XJ,Leiden,Leiden,Zuid-Holland,VBO,4.473094,52.172707
Merelstraat,3,,,2333XJ,Leiden,Leiden,Zuid-Holland,VBO,4.473023,52.172743
Merelstraat,5,,,2333XJ,Leiden,Leiden,Zuid-Holland,VBO,4.472968,52.172771
Merelstraat,7,,,2333XJ,Leiden,Leiden,Zuid-Holland,VBO,4.472911,52.172800
Merelstraat,9,,,2333XJ,Leiden,Leiden,Zuid-Holland,VBO,4.472849,52.172832
Merelstraat,11,,,2333XJ,Leiden,Leiden,Zuid-Holland,VBO,4.472647,52.172899
Merelstraat,13,,,2333XK,Leiden,Leiden,Zuid-Holland,VBO,4.472259,52.173097
Merelstraat,15,,,2333XK,Leiden,Leiden,Zuid-Holland,VBO,4.472080,52.173222
Merelstraat,17,,,2333XK,Leiden,Leiden,Zuid-Holland,VBO,4.472019,52.173253
Merelstraat,19,,,2333XK,Leiden,Leiden,Zuid-Holland,VBO,4.471953,52.173285
Merelstraat,21,,,2333XK,Leiden,Leiden,Zuid-Holland,VBO,4.471890,52.173320
Merelstraat,23,,,2333XK,Leiden,Leiden,Zuid-Holland,VBO,4.471827,52.173352
Merelstraat,25,,,2333XK,Leiden,Leiden,Zuid-Holland,VBO,4.471761,52.173384
Merelstraat,27,,,2333XK,Leiden,Leiden,Zuid-Holland,VBO,4.471695,52.173418
Merelstraat,29,,,2333XK,Leiden,Leiden,Zuid-Holland,VBO,4.471628,52.173451
Merelstraat,31,,,2333XK,Leiden,Leiden,Zuid-Holland,VBO,4.471562,52.173484
Merelstraat,33,,,2333XK,Leiden,Leiden,Zuid-Holland,VBO,4.471497,52.173517
Merelstraat,35,,,2333XK,Leiden,Leiden,Zuid-Holland,VBO,4.471430,52.173550
Merelstraat,37,,,2333XK,Leiden,Leiden,Zuid-Holland,VBO,4.471372,52.173580
Merelstraat,39,,,2333XK,Leiden,Leiden,Zuid-Holland,VBO,4.471299,52.173617
Merelstraat,41,,,2333XK,Leiden,Leiden,Zuid-Holland,VBO,4.471235,52.173648
Merelstraat,43,,,2333XK,Leiden,Leiden,Zuid-Holland,VBO,4.471129,52.173670
Merelstraat,45,,,2333XK,Leiden,Leiden,Zuid-Holland,VBO,4.471027,52.173717
Merelstraat,2,,,2333XL,Leiden,Leiden,Zuid-Holland,VBO,4.473117,52.172464
Merelstraat,4,,,2333XL,Leiden,Leiden,Zuid-Holland,VBO,4.473060,52.172492
Merelstraat,6,,,2333XL,Leiden,Leiden,Zuid-Holland,VBO,4.472992,52.172527
Merelstraat,8,,,2333XL,Leiden,Leiden,Zuid-Holland,VBO,4.472926,52.172559
Merelstraat,10,,,2333XL,Leiden,Leiden,Zuid-Holland,VBO,4.472868,52.172587
Merelstraat,12,,,2333XL,Leiden,Leiden,Zuid-Holland,VBO,4.472800,52.172622
Merelstraat,14,,,2333XL,Leiden,Leiden,Zuid-Holland,VBO,4.472735,52.172654
Merelstraat,16,,,2333XL,Leiden,Leiden,Zuid-Holland,VBO,4.472705,52.172706
Merelstraat,18,,,2333XL,Leiden,Leiden,Zuid-Holland,VBO,4.472631,52.172744
Merelstraat,20,,,2333XM,Leiden,Leiden,Zuid-Holland,VBO,4.472024,52.173054
Merelstraat,22,,,2333XM,Leiden,Leiden,Zuid-Holland,VBO,4.471958,52.173087
Merelstraat,24,,,2333XM,Leiden,Leiden,Zuid-Holland,VBO,4.471862,52.173099
Merelstraat,26,,,2333XM,Leiden,Leiden,Zuid-Holland,VBO,4.471803,52.173129
Merelstraat,28,,,2333XM,Leiden,Leiden,Zuid-Holland,VBO,4.471737,52.173162
Merelstraat,30,,,2333XM,Leiden,Leiden,Zuid-Holland,VBO,4.471670,52.173195
Merelstraat,32,,,2333XM,Leiden,Leiden,Zuid-Holland,VBO,4.471601,52.173229
Merelstraat,34,,,2333XM,Leiden,Leiden,Zuid-Holland,VBO,4.471542,52.173259
Merelstraat,36,,,2333XM,Leiden,Leiden,Zuid-Holland,VBO,4.471475,52.173293
Merelstraat,38,,,2333XM,Leiden,Leiden,Zuid-Holland,VBO,4.471409,52.173327
Merelstraat,40,,,2333XM,Leiden,Leiden,Zuid-Holland,VBO,4.471344,52.173358
Merelstraat,42,,,2333XM,Leiden,Leiden,Zuid-Holland,VBO,4.471278,52.173393
Merelstraat,44,,,2333XM,Leiden,Leiden,Zuid-Holland,VBO,4.471212,52.173424
Merelstraat,46,,,2333XM,Leiden,Leiden,Zuid-Holland,VBO,4.471150,52.173455
Merelstraat,48,,,2333XM,Leiden,Leiden,Zuid-Holland,VBO,4.471087,52.173487
Merelstraat,50,,,2333XM,Leiden,Leiden,Zuid-Holland,VBO,4.471037,52.173547
Merelstraat,52,,,2333XM,Leiden,Leiden,Zuid-Holland,VBO,4.470942,52.173597
Nachtegaallaan,1,,,2333XN,Leiden,Leiden,Zuid-Holland,VBO,4.470974,52.173897
Nachtegaallaan,2,,,2333XP,Leiden,Leiden,Zuid-Holland,VBO,4.470778,52.173552
Nachtegaallaan,3,,,2333XP,Leiden,Leiden,Zuid-Holland,VBO,4.470698,52.173490
Nachtegaallaan,4,,,2333XP,Leiden,Leiden,Zuid-Holland,VBO,4.470643,52.173447
Nachtegaallaan,5,,,2333XP,Leiden,Leiden,Zuid-Holland,VBO,4.470580,52.173392
Nachtegaallaan,6,,,2333XR,Leiden,Leiden,Zuid-Holland,VBO,4.470222,52.173099
Nachtegaallaan,7,,,2333XR,Leiden,Leiden,Zuid-Holland,VBO,4.470132,52.173034
Nachtegaallaan,8,,,2333XR,Leiden,Leiden,Zuid-Holland,VBO,4.470077,52.172988
Nachtegaallaan,9,,,2333XR,Leiden,Leiden,Zuid-Holland,VBO,4.470015,52.172934
Nachtegaallaan,10,A,,2333XS,Leiden,Leiden,Zuid-Holland,VBO,4.469648,52.172637
Nachtegaallaan,10,,,2333XS,Leiden,Leiden,Zuid-Holland,VBO,4.469688,52.172668
Nachtegaallaan,11,,,2333XS,Leiden,Leiden,Zuid-Holland,VBO,4.469599,52.172595
Nachtegaallaan,12,,,2333XS,Leiden,Leiden,Zuid-Holland,VBO,4.469546,52.172553
Nachtegaallaan,13,,,2333XT,Leiden,Leiden,Zuid-Holland,VBO,4.469495,52.172513
Nachtegaallaan,14,,,2333XT,Leiden,Leiden,Zuid-Holland,VBO,4.469445,52.172474
Nachtegaallaan,15,,,2333XT,Leiden,Leiden,Zuid-Holland,VBO,4.469392,52.172433
Nachtegaallaan,16,,,2333XT,Leiden,Leiden,Zuid-Holland,VBO,4.469340,52.172392
Nachtegaallaan,17,,,2333XT,Leiden,Leiden,Zuid-Holland,VBO,4.469289,52.172351
Nachtegaallaan,25,,,2333XT,Leiden,Leiden,Zuid-Holland,VBO,4.468678,52.172486
Lijsterstraat,1,,,2333XV,Leiden,Leiden,Zuid-Holland,VBO,4.472547,52.173246
Lijsterstraat,3,,,2333XV,Leiden,Leiden,Zuid-Holland,VBO,4.472496,52.173210
Lijsterstraat,5,,,2333XV,Leiden,Leiden,Zuid-Holland,VBO,4.472439,52.173168
Lijsterstraat,7,,,2333XV,Leiden,Leiden,Zuid-Holland,VBO,4.472388,52.173130
Lijsterstraat,9,,,2333XW,Leiden,Leiden,Zuid-Holland,VBO,4.472136,52.172992
Lijsterstraat,11,,,2333XW,Leiden,Leiden,Zuid-Holland,VBO,4.472119,52.172932
Lijsterstraat,13,,,2333XW,Leiden,Leiden,Zuid-Holland,VBO,4.472036,52.172871
Lijsterstraat,15,,,2333XW,Leiden,Leiden,Zuid-Holland,VBO,4.471978,52.172828
Lijsterstraat,17,,,2333XW,Leiden,Leiden,Zuid-Holland,VBO,4.471930,52.172790
Lijsterstraat,19,,,2333XW,Leiden,Leiden,Zuid-Holland,VBO,4.471853,52.172738
Lijsterstraat,21,,,2333XW,Leiden,Leiden,Zuid-Holland,VBO,4.471786,52.172683
Lijsterstraat,23,,,2333XW,Leiden,Leiden,Zuid-Holland,VBO,4.471529,52.172537
Lijsterstraat,25,,,2333XW,Leiden,Leiden,Zuid-Holland,VBO,4.471528,52.172491
Lijsterstraat,27,,,2333XW,Leiden,Leiden,Zuid-Holland,VBO,4.471441,52.172427
Lijsterstraat,29,,,2333XW,Leiden,Leiden,Zuid-Holland,VBO,4.471387,52.172385
Lijsterstraat,31,,,2333XW,Leiden,Leiden,Zuid-Holland,VBO,4.471327,52.172344
Lijsterstraat,33,,,2333XW,Leiden,Leiden,Zuid-Holland,VBO,4.471272,52.172301
Lijsterstraat,35,,,2333XW,Leiden,Leiden,Zuid-Holland,VBO,4.471193,52.172243
Lijsterstraat,2,,,2333XX,Leiden,Leiden,Zuid-Holland,VBO,4.472839,52.173113
Lijsterstraat,4,,,2333XX,Leiden,Leiden,Zuid-Holland,VBO,4.472784,52.173072
Lijsterstraat,6,,,2333XX,Leiden,Leiden,Zuid-Holland,VBO,4.472723,52.173027
Lijsterstraat,8,,,2333XX,Leiden,Leiden,Zuid-Holland,VBO,4.472665,52.172984
Lijsterstraat,10,,,2333XZ,Leiden,Leiden,Zuid-Holland,VBO,4.472491,52.172809
Lijsterstraat,12,A,,2333XZ,Leiden,Leiden,Zuid-Holland,VBO,4.472427,52.172791
Lijsterstraat,12,,,2333XZ,Leiden,Leiden,Zuid-Holland,VBO,4.472411,52.172797
Lijsterstraat,14,,,2333XZ,Leiden,Leiden,Zuid-Holland,VBO,4.472334,52.172739
Lijsterstraat,16,,,2333XZ,Leiden,Leiden,Zuid-Holland,VBO,4.472273,52.172693
Lijsterstraat,18,,,2333XZ,Leiden,Leiden,Zuid-Holland,VBO,4.472221,52.172654
Lijsterstraat,20,,,2333XZ,Leiden,Leiden,Zuid-Holland,VBO,4.472158,52.172601
Lijsterstraat,22,,,2333XZ,Leiden,Leiden,Zuid-Holland,VBO,4.472083,52.172550
Lijsterstraat,24,,,2333XZ,Leiden,Leiden,Zuid-Holland,VBO,4.471914,52.172364
Lijsterstraat,26,,,2333XZ,Leiden,Leiden,Zuid-Holland,VBO,4.471818,52.172354
Lijsterstraat,28,,,2333XZ,Leiden,Leiden,Zuid-Holland,VBO,4.471733,52.172291
Lijsterstraat,30,,,2333XZ,Leiden,Leiden,Zuid-Holland,VBO,4.471678,52.172251
Lijsterstraat,32,,,2333XZ,Leiden,Leiden,Zuid-Holland,VBO,4.471623,52.172208
Lijsterstraat,34,,,2333XZ,Leiden,Leiden,Zuid-Holland,VBO,4.471562,52.172161
Lijsterstraat,36,,,2333XZ,Leiden,Leiden,Zuid-Holland,VBO,4.471489,52.172112
Albinusdreef,2,,,2333ZA,Leiden,Leiden,Zuid-Holland,VBO,4.478990,52.166253
Albinusdreef,14,,,2333ZB,Leiden,Leiden,Zuid-Holland,VBO,4.477539,52.167697
Einthovenweg,3,,,2333ZC,Leiden,Leiden,Zuid-Holland,VBO,4.478990,52.166253
Einthovenweg,4,,,2333ZC,Leiden,Leiden,Zuid-Holland,VBO,4.478990,52.166253
Einthovenweg,6,,,2333ZC,Leiden,Leiden,Zuid-Holland,VBO,4.478990,52.166253
Einthovenweg,7,,,2333ZC,Leiden,Leiden,Zuid-Holland,VBO,4.478990,52.166253
Einthovenweg,8,,,2333ZC,Leiden,Leiden,Zuid-Holland,VBO,4.478990,52.166253
Einthovenweg,9,,,2333ZC,Leiden,Leiden,Zuid-Holland,VBO,4.478990,52.166253
Einthovenweg,10,,,2333ZC,Leiden,Leiden,Zuid-Holland,VBO,4.478990,52.166253
Einthovenweg,15,,,2333ZC,Leiden,Leiden,Zuid-Holland,VBO,4.476627,52.166038
Einthovenweg,20,,,2333ZC,Leiden,Leiden,Zuid-Holland,VBO,4.475511,52.166664
Hippocratespad,21,,,2333ZD,Leiden,Leiden,Zuid-Holland,VBO,4.476431,52.166653
Brugmansplein,1,,,2333ZE,Leiden,Leiden,Zuid-Holland,VBO,4.478990,52.166253
Brugmansplein,3,,,2333ZE,Leiden,Leiden,Zuid-Holland,VBO,4.478990,52.166253
Brugmansplein,5,,,2333ZE,Leiden,Leiden,Zuid-Holland,VBO,4.478990,52.166253
Forestuspad,7,,,2333ZG,Leiden,Leiden,Zuid-Holland,VBO,4.478990,52.166253
Piet Paaltjenspad,2,,,2333ZH,Leiden,Leiden,Zuid-Holland,VBO,4.478990,52.166253
Piet Paaltjenspad,3,,,2333ZH,Leiden,Leiden,Zuid-Holland,VBO,4.477832,52.164402
Piet Paaltjenspad,4,,,2333ZH,Leiden,Leiden,Zuid-Holland,VBO,4.478990,52.166253
Piet Paaltjenspad,6,,,2333ZH,Leiden,Leiden,Zuid-Holland,VBO,4.478990,52.166253
Paviusstraat,100,,,2333ZT,Leiden,Leiden,Zuid-Holland,VBO,4.479419,52.168823
Paviusstraat,102,,,2333ZT,Leiden,Leiden,Zuid-Holland,VBO,4.479407,52.168835
Paviusstraat,104,,,2333ZT,Leiden,Leiden,Zuid-Holland,VBO,4.479398,52.168847
Paviusstraat,106,,,2333ZT,Leiden,Leiden,Zuid-Holland,VBO,4.479357,52.168890
Paviusstraat,108,,,2333ZT,Leiden,Leiden,Zuid-Holland,VBO,4.479347,52.168902
Paviusstraat,110,,,2333ZT,Leiden,Leiden,Zuid-Holland,VBO,4.479337,52.168913
Paviusstraat,112,,,2333ZT,Leiden,Leiden,Zuid-Holland,VBO,4.479327,52.168926
Paviusstraat,114,,,2333ZT,Leiden,Leiden,Zuid-Holland,VBO,4.479315,52.168940
Paviusstraat,116,,,2333ZT,Leiden,Leiden,Zuid-Holland,VBO,4.479304,52.168955
Paviusstraat,118,,,2333ZT,Leiden,Leiden,Zuid-Holland,VBO,4.479292,52.168965
Paviusstraat,120,,,2333ZT,Leiden,Leiden,Zuid-Holland,VBO,4.479280,52.168980
Paviusstraat,122,,,2333ZT,Leiden,Leiden,Zuid-Holland,VBO,4.479153,52.169130
Paviusstraat,124,,,2333ZT,Leiden,Leiden,Zuid-Holland,VBO,4.479141,52.169141
Paviusstraat,126,,,2333ZT,Leiden,Leiden,Zuid-Holland,VBO,4.479124,52.169158
Paviusstraat,128,,,2333ZT,Leiden,Leiden,Zuid-Holland,VBO,4.479070,52.169224
Paviusstraat,130,,,2333ZT,Leiden,Leiden,Zuid-Holland,VBO,4.479055,52.169238
Paviusstraat,132,,,2333ZT,Leiden,Leiden,Zuid-Holland,VBO,4.479039,52.169255
Paviusstraat,134,,,2333ZT,Leiden,Leiden,Zuid-Holland,VBO,4.479392,52.168818
Paviusstraat,136,,,2333ZT,Leiden,Leiden,Zuid-Holland,VBO,4.479377,52.168832
Paviusstraat,138,,,2333ZT,Leiden,Leiden,Zuid-Holland,VBO,4.479363,52.168848
Paviusstraat,140,,,2333ZT,Leiden,Leiden,Zuid-Holland,VBO,4.479333,52.168886
Paviusstraat,142,,,2333ZT,Leiden,Leiden,Zuid-Holland,VBO,4.479314,52.168902
Paviusstraat,144,,,2333ZT,Leiden,Leiden,Zuid-Holland,VBO,4.479280,52.168944
Paviusstraat,146,,,2333ZT,Leiden,Leiden,Zuid-Holland,VBO,4.479263,52.168960
Paviusstraat,148,,,2333ZT,Leiden,Leiden,Zuid-Holland,VBO,4.479250,52.168976
Paviusstraat,150,,,2333ZT,Leiden,Leiden,Zuid-Holland,VBO,4.479237,52.168993
Paviusstraat,152,,,2333ZT,Leiden,Leiden,Zuid-Holland,VBO,4.479115,52.169131
Paviusstraat,154,,,2333ZT,Leiden,Leiden,Zuid-Holland,VBO,4.479101,52.169145
Paviusstraat,156,,,2333ZT,Leiden,Leiden,Zuid-Holland,VBO,4.479043,52.169213
Paviusstraat,158,,,2333ZT,Leiden,Leiden,Zuid-Holland,VBO,4.479030,52.169231
Paviusstraat,160,,,2333ZT,Leiden,Leiden,Zuid-Holland,VBO,4.479011,52.169244
Paviusstraat,162,,,2333ZT,Leiden,Leiden,Zuid-Holland,VBO,4.479352,52.168808
Paviusstraat,164,,,2333ZT,Leiden,Leiden,Zuid-Holland,VBO,4.479334,52.168827
Paviusstraat,166,,,2333ZT,Leiden,Leiden,Zuid-Holland,VBO,4.479296,52.168871
Paviusstraat,168,,,2333ZT,Leiden,Leiden,Zuid-Holland,VBO,4.479279,52.168889
Paviusstraat,170,,,2333ZT,Leiden,Leiden,Zuid-Holland,VBO,4.479233,52.168940
Paviusstraat,172,,,2333ZT,Leiden,Leiden,Zuid-Holland,VBO,4.479214,52.168963
Paviusstraat,174,,,2333ZT,Leiden,Leiden,Zuid-Holland,VBO,4.479199,52.168981
Paviusstraat,176,,,2333ZT,Leiden,Leiden,Zuid-Holland,VBO,4.479182,52.168999
Paviusstraat,178,,,2333ZT,Leiden,Leiden,Zuid-Holland,VBO,4.479082,52.169119
Paviusstraat,180,,,2333ZT,Leiden,Leiden,Zuid-Holland,VBO,4.479062,52.169139
Paviusstraat,182,,,2333ZT,Leiden,Leiden,Zuid-Holland,VBO,4.479006,52.169206
Paviusstraat,184,,,2333ZT,Leiden,Leiden,Zuid-Holland,VBO,4.478986,52.169228
Paviusstraat,186,,,2333ZT,Leiden,Leiden,Zuid-Holland,VBO,4.478963,52.169248
Paviusstraat,188,,,2333ZT,Leiden,Leiden,Zuid-Holland,VBO,4.479313,52.168804
Paviusstraat,190,,,2333ZT,Leiden,Leiden,Zuid-Holland,VBO,4.479255,52.168867
Paviusstraat,192,,,2333ZT,Leiden,Leiden,Zuid-Holland,VBO,4.479171,52.168968
Paviusstraat,194,,,2333ZT,Leiden,Leiden,Zuid-Holland,VBO,4.479134,52.169010
Paviusstraat,196,,,2333ZT,Leiden,Leiden,Zuid-Holland,VBO,4.479008,52.169153
Paviusstraat,198,,,2333ZT,Leiden,Leiden,Zuid-Holland,VBO,4.478956,52.169216
Du Puiplein,2,,,2333ZW,Leiden,Leiden,Zuid-Holland,VBO,4.478719,52.169242
Heurniusstraat,2,A,,2333ZX,Leiden,Leiden,Zuid-Holland,VBO,4.478730,52.168557
Heurniusstraat,2,B,,2333ZX,Leiden,Leiden,Zuid-Holland,VBO,4.478793,52.168582
Heurniusstraat,4,,,2333ZX,Leiden,Leiden,Zuid-Holland,VBO,4.477837,52.168724
Heurniusstraat,6,,,2333ZX,Leiden,Leiden,Zuid-Holland,VBO,4.479229,52.168759
Sandifortdreef,1,A,,2333ZZ,Leiden,Leiden,Zuid-Holland,VBO,4.474181,52.166921
Sandifortdreef,1,,,2333ZZ,Leiden,Leiden,Zuid-Holland,VBO,4.474210,52.166933
Sandifortdreef,3,,,2333ZZ,Leiden,Leiden,Zuid-Holland,VBO,4.475361,52.167405
Sandifortdreef,17,,,2333ZZ,Leiden,Leiden,Zuid-Holland,VBO,4.477837,52.168724
Sandifortdreef,19,,,2333ZZ,Leiden,Leiden,Zuid-Holland,VBO,4.477837,52.168724
Sandifortdreef,21,T,,2333ZZ,Leiden,Leiden,Zuid-Holland,VBO,4.477658,52.169251
Sandifortdreef,21,,,2333ZZ,Leiden,Leiden,Zuid-Holland,VBO,4.477837,52.168724
