openbareruimtenaam,huisnummer,huisletter,huisnummertoevoeging,postcode,woonplaatsnaam,gemeentenaam,provincienaam,typeadresseerbaarobject,longitude,latitude
Geversstraat,2,A,,2342AA,Oegstgeest,Oegstgeest,Zuid-Holland,VBO,4.464698,52.179500
Geversstraat,2,,,2342AA,Oegstgeest,Oegstgeest,Zuid-Holland,VBO,4.464714,52.179516
Geversstraat,4,A,,2342AA,Oegstgeest,Oegstgeest,Zuid-Holland,VBO,4.464776,52.179476
Geversstraat,4,,,2342AA,Oegstgeest,Oegstgeest,Zuid-Holland,VBO,4.464790,52.179495
Geversstraat,6,A,,2342AA,Oegstgeest,Oegstgeest,Zuid-Holland,VBO,4.464866,52.179449
Geversstraat,6,B,,2342AA,Oegstgeest,Oegstgeest,Zuid-Holland,VBO,4.464854,52.179431
Geversstraat,6,,,2342AA,Oegstgeest,Oegstgeest,Zuid-Holland,VBO,4.464875,52.179467
Geversstraat,8,,,2342AA,Oegstgeest,Oegstgeest,Zuid-Holland,VBO,4.464984,52.179376
Geversstraat,10,,,2342AA,Oegstgeest,Oegstgeest,Zuid-Holland,VBO,4.465010,52.179323
Geversstraat,12,,,2342AA,Oegstgeest,Oegstgeest,Zuid-Holland,VBO,4.465036,52.179288
Geversstraat,14,,,2342AA,Oegstgeest,Oegstgeest,Zuid-Holland,VBO,4.465061,52.179235
Geversstraat,16,,,2342AA,Oegstgeest,Oegstgeest,Zuid-Holland,VBO,4.465082,52.179192
Geversstraat,18,,,2342AA,Oegstgeest,Oegstgeest,Zuid-Holland,VBO,4.465105,52.179141
Geversstraat,20,,,2342AA,Oegstgeest,Oegstgeest,Zuid-Holland,VBO,4.465135,52.179095
Geversstraat,22,,,2342AA,Oegstgeest,Oegstgeest,Zuid-Holland,VBO,4.465297,52.178988
Geversstraat,24,,,2342AA,Oegstgeest,Oegstgeest,Zuid-Holland,VBO,4.465274,52.178644
Geversstraat,26,,,2342AA,Oegstgeest,Oegstgeest,Zuid-Holland,VBO,4.465279,52.178585
Geversstraat,28,,,2342AA,Oegstgeest,Oegstgeest,Zuid-Holland,VBO,4.465346,52.178490
Geversstraat,30,,,2342AA,Oegstgeest,Oegstgeest,Zuid-Holland,VBO,4.465363,52.178460
Geversstraat,32,,,2342AA,Oegstgeest,Oegstgeest,Zuid-Holland,VBO,4.465374,52.178402
Geversstraat,34,A,,2342AA,Oegstgeest,Oegstgeest,Zuid-Holland,VBO,4.465461,52.178303
Geversstraat,34,B,,2342AA,Oegstgeest,Oegstgeest,Zuid-Holland,VBO,4.465437,52.178296
Geversstraat,34,,,2342AA,Oegstgeest,Oegstgeest,Zuid-Holland,VBO,4.465357,52.178269
Geversstraat,36,,,2342AA,Oegstgeest,Oegstgeest,Zuid-Holland,VBO,4.465441,52.178221
Geversstraat,38,,,2342AA,Oegstgeest,Oegstgeest,Zuid-Holland,VBO,4.465492,52.178184
Geversstraat,40,A,,2342AB,Oegstgeest,Oegstgeest,Zuid-Holland,VBO,4.466209,52.177790
Geversstraat,40,,,2342AB,Oegstgeest,Oegstgeest,Zuid-Holland,VBO,4.466110,52.177823
Geversstraat,42,,,2342AB,Oegstgeest,Oegstgeest,Zuid-Holland,VBO,4.466289,52.177747
Geversstraat,44,,,2342AB,Oegstgeest,Oegstgeest,Zuid-Holland,VBO,4.466354,52.177694
Geversstraat,46,A,,2342AB,Oegstgeest,Oegstgeest,Zuid-Holland,VBO,4.466375,52.177617
Geversstraat,46,,,2342AB,Oegstgeest,Oegstgeest,Zuid-Holland,VBO,4.466440,52.177645
Geversstraat,48,,,2342AB,Oegstgeest,Oegstgeest,Zuid-Holland,VBO,4.466529,52.177601
Geversstraat,50,,,2342AB,Oegstgeest,Oegstgeest,Zuid-Holland,VBO,4.466615,52.177538
Geversstraat,52,,,2342AB,Oegstgeest,Oegstgeest,Zuid-Holland,VBO,4.467384,52.176892
Geversstraat,54,,,2342AB,Oegstgeest,Oegstgeest,Zuid-Holland,VBO,4.468122,52.176468
Geversstraat,56,,,2342AB,Oegstgeest,Oegstgeest,Zuid-Holland,VBO,4.468480,52.176050
Deutzstraat,1,,,2342AC,Oegstgeest,Oegstgeest,Zuid-Holland,VBO,4.465244,52.178705
Deutzstraat,2,,,2342AC,Oegstgeest,Oegstgeest,Zuid-Holland,VBO,4.465292,52.178935
Deutzstraat,3,,,2342AC,Oegstgeest,Oegstgeest,Zuid-Holland,VBO,4.465161,52.178747
Deutzstraat,4,,,2342AC,Oegstgeest,Oegstgeest,Zuid-Holland,VBO,4.465157,52.178935
Deutzstraat,5,,,2342AC,Oegstgeest,Oegstgeest,Zuid-Holland,VBO,4.465068,52.178721
Deutzstraat,6,A,,2342AC,Oegstgeest,Oegstgeest,Zuid-Holland,VBO,4.465048,52.178976
Deutzstraat,6,B,,2342AC,Oegstgeest,Oegstgeest,Zuid-Holland,VBO,4.465052,52.178913
Deutzstraat,6,C,,2342AC,Oegstgeest,Oegstgeest,Zuid-Holland,VBO,4.465051,52.178929
Deutzstraat,6,,,2342AC,Oegstgeest,Oegstgeest,Zuid-Holland,VBO,4.465096,52.178988
Deutzstraat,7,,,2342AC,Oegstgeest,Oegstgeest,Zuid-Holland,VBO,4.464980,52.178688
Deutzstraat,8,A,,2342AC,Oegstgeest,Oegstgeest,Zuid-Holland,VBO,4.464944,52.178931
Deutzstraat,8,B,,2342AC,Oegstgeest,Oegstgeest,Zuid-Holland,VBO,4.464941,52.178948
Deutzstraat,8,,,2342AC,Oegstgeest,Oegstgeest,Zuid-Holland,VBO,4.464949,52.178913
Deutzstraat,8,,,2342AC,Oegstgeest,Oegstgeest,Zuid-Holland,VBO,4.464964,52.178930
Deutzstraat,9,,,2342AC,Oegstgeest,Oegstgeest,Zuid-Holland,VBO,4.464895,52.178670
Deutzstraat,11,,,2342AC,Oegstgeest,Oegstgeest,Zuid-Holland,VBO,4.464812,52.178678
Deutzstraat,13,,,2342AC,Oegstgeest,Oegstgeest,Zuid-Holland,VBO,4.464728,52.178675
Deutzstraat,15,,,2342AC,Oegstgeest,Oegstgeest,Zuid-Holland,VBO,4.464648,52.178677
Deutzstraat,17,,,2342AC,Oegstgeest,Oegstgeest,Zuid-Holland,VBO,4.464569,52.178690
Deutzstraat,19,,,2342AC,Oegstgeest,Oegstgeest,Zuid-Holland,VBO,4.464342,52.178689
Wilhelminapark,1,A,,2342AD,Oegstgeest,Oegstgeest,Zuid-Holland,VBO,4.466035,52.177779
Wilhelminapark,1,,,2342AD,Oegstgeest,Oegstgeest,Zuid-Holland,VBO,4.466039,52.177798
Wilhelminapark,3,,,2342AD,Oegstgeest,Oegstgeest,Zuid-Holland,VBO,4.465839,52.177716
Wilhelminapark,5,,,2342AD,Oegstgeest,Oegstgeest,Zuid-Holland,VBO,4.465738,52.177705
Wilhelminapark,7,,,2342AD,Oegstgeest,Oegstgeest,Zuid-Holland,VBO,4.465570,52.177648
Wilhelminapark,9,,,2342AD,Oegstgeest,Oegstgeest,Zuid-Holland,VBO,4.465385,52.177615
Wilhelminapark,11,,,2342AD,Oegstgeest,Oegstgeest,Zuid-Holland,VBO,4.465171,52.177516
Wilhelminapark,13,,,2342AD,Oegstgeest,Oegstgeest,Zuid-Holland,VBO,4.465133,52.177437
Wilhelminapark,15,,,2342AD,Oegstgeest,Oegstgeest,Zuid-Holland,VBO,4.464439,52.177320
Wilhelminapark,17,,,2342AD,Oegstgeest,Oegstgeest,Zuid-Holland,VBO,4.463921,52.177569
Wilhelminapark,21,,,2342AE,Oegstgeest,Oegstgeest,Zuid-Holland,VBO,4.464225,52.177220
Wilhelminapark,23,,,2342AE,Oegstgeest,Oegstgeest,Zuid-Holland,VBO,4.464133,52.177188
Wilhelminapark,25,,,2342AE,Oegstgeest,Oegstgeest,Zuid-Holland,VBO,4.464007,52.177174
Wilhelminapark,27,,,2342AE,Oegstgeest,Oegstgeest,Zuid-Holland,VBO,4.463950,52.177141
Wilhelminapark,29,,,2342AE,Oegstgeest,Oegstgeest,Zuid-Holland,VBO,4.463832,52.177123
Wilhelminapark,31,,,2342AE,Oegstgeest,Oegstgeest,Zuid-Holland,VBO,4.463770,52.177101
Endegeesterlaan,1,A,,2342AG,Oegstgeest,Oegstgeest,Zuid-Holland,VBO,4.466948,52.177242
Endegeesterlaan,1,T,,2342AG,Oegstgeest,Oegstgeest,Zuid-Holland,VBO,4.467048,52.177233
Endegeesterlaan,1,,,2342AG,Oegstgeest,Oegstgeest,Zuid-Holland,VBO,4.465190,52.176985
Wilhelminapark,2,,,2342AG,Oegstgeest,Oegstgeest,Zuid-Holland,VBO,4.465761,52.178043
Wilhelminapark,4,,,2342AG,Oegstgeest,Oegstgeest,Zuid-Holland,VBO,4.465637,52.178006
Wilhelminapark,6,,,2342AG,Oegstgeest,Oegstgeest,Zuid-Holland,VBO,4.465480,52.177957
Wilhelminapark,8,,,2342AG,Oegstgeest,Oegstgeest,Zuid-Holland,VBO,4.465423,52.177914
Wilhelminapark,10,,,2342AG,Oegstgeest,Oegstgeest,Zuid-Holland,VBO,4.465233,52.177908
Wilhelminapark,12,,,2342AG,Oegstgeest,Oegstgeest,Zuid-Holland,VBO,4.465122,52.177907
Wilhelminapark,14,,,2342AG,Oegstgeest,Oegstgeest,Zuid-Holland,VBO,4.464999,52.177825
Wilhelminapark,16,,,2342AG,Oegstgeest,Oegstgeest,Zuid-Holland,VBO,4.464863,52.177821
Wilhelminapark,18,,,2342AG,Oegstgeest,Oegstgeest,Zuid-Holland,VBO,4.464717,52.177820
Wilhelminapark,20,,,2342AH,Oegstgeest,Oegstgeest,Zuid-Holland,VBO,4.464620,52.177819
Wilhelminapark,22,,,2342AH,Oegstgeest,Oegstgeest,Zuid-Holland,VBO,4.464456,52.177862
Wilhelminapark,24,,,2342AH,Oegstgeest,Oegstgeest,Zuid-Holland,VBO,4.464375,52.177861
Wilhelminapark,26,,,2342AH,Oegstgeest,Oegstgeest,Zuid-Holland,VBO,4.464282,52.177860
Wilhelminapark,28,,,2342AH,Oegstgeest,Oegstgeest,Zuid-Holland,VBO,4.464190,52.177860
Wilhelminapark,30,,,2342AH,Oegstgeest,Oegstgeest,Zuid-Holland,VBO,4.464101,52.177859
Wilhelminapark,32,,,2342AH,Oegstgeest,Oegstgeest,Zuid-Holland,VBO,4.464026,52.177922
Wilhelminapark,34,,,2342AH,Oegstgeest,Oegstgeest,Zuid-Holland,VBO,4.463943,52.177904
Wilhelminapark,36,,,2342AH,Oegstgeest,Oegstgeest,Zuid-Holland,VBO,4.463783,52.177920
Wilhelminapark,38,,,2342AH,Oegstgeest,Oegstgeest,Zuid-Holland,VBO,4.463588,52.177959
Endegeesterstraatweg,1,A,,2342AJ,Oegstgeest,Oegstgeest,Zuid-Holland,VBO,4.462283,52.175804
Endegeesterstraatweg,1,,,2342AJ,Oegstgeest,Oegstgeest,Zuid-Holland,VBO,4.462881,52.175676
Endegeesterstraatweg,2,,,2342AJ,Oegstgeest,Oegstgeest,Zuid-Holland,VBO,4.463001,52.175439
Endegeesterstraatweg,3,,,2342AJ,Oegstgeest,Oegstgeest,Zuid-Holland,VBO,4.462949,52.175293
Endegeesterstraatweg,5,,,2342AJ,Oegstgeest,Oegstgeest,Zuid-Holland,VBO,4.463777,52.175326
Endegeesterstraatweg,6,,,2342AJ,Oegstgeest,Oegstgeest,Zuid-Holland,VBO,4.461718,52.174325
Endegeesterstraatweg,7,,,2342AJ,Oegstgeest,Oegstgeest,Zuid-Holland,VBO,4.461444,52.174244
Endegeesterstraatweg,8,,,2342AJ,Oegstgeest,Oegstgeest,Zuid-Holland,VBO,4.461365,52.174210
Endegeesterstraatweg,9,,,2342AJ,Oegstgeest,Oegstgeest,Zuid-Holland,VBO,4.461304,52.174164
Endegeesterstraatweg,10,,,2342AJ,Oegstgeest,Oegstgeest,Zuid-Holland,VBO,4.461230,52.174131
Endegeesterstraatweg,11,,,2342AJ,Oegstgeest,Oegstgeest,Zuid-Holland,VBO,4.461158,52.174094
Endegeesterstraatweg,12,,,2342AJ,Oegstgeest,Oegstgeest,Zuid-Holland,VBO,4.461098,52.174045
Endegeesterstraatweg,13,,,2342AJ,Oegstgeest,Oegstgeest,Zuid-Holland,VBO,4.461009,52.174026
Endegeesterstraatweg,14,,,2342AJ,Oegstgeest,Oegstgeest,Zuid-Holland,VBO,4.460963,52.173997
Endegeesterstraatweg,15,,,2342AJ,Oegstgeest,Oegstgeest,Zuid-Holland,VBO,4.460881,52.173942
Endegeesterstraatweg,16,A,,2342AJ,Oegstgeest,Oegstgeest,Zuid-Holland,VBO,4.460363,52.173661
Endegeesterstraatweg,16,B,,2342AJ,Oegstgeest,Oegstgeest,Zuid-Holland,VBO,4.459797,52.173392
Endegeesterstraatweg,16,,,2342AJ,Oegstgeest,Oegstgeest,Zuid-Holland,VBO,4.460664,52.173825
Endegeesterstraatweg,17,,,2342AK,Oegstgeest,Oegstgeest,Zuid-Holland,VBO,4.459576,52.173256
Endegeesterstraatweg,18,,,2342AK,Oegstgeest,Oegstgeest,Zuid-Holland,VBO,4.459499,52.173214
Endegeesterstraatweg,19,,,2342AK,Oegstgeest,Oegstgeest,Zuid-Holland,VBO,4.459435,52.173173
Endegeesterstraatweg,20,,,2342AK,Oegstgeest,Oegstgeest,Zuid-Holland,VBO,4.459342,52.173138
Endegeesterstraatweg,21,,,2342AK,Oegstgeest,Oegstgeest,Zuid-Holland,VBO,4.459125,52.173075
Endegeesterstraatweg,22,,,2342AK,Oegstgeest,Oegstgeest,Zuid-Holland,VBO,4.459048,52.173050
Endegeesterstraatweg,23,,,2342AK,Oegstgeest,Oegstgeest,Zuid-Holland,VBO,4.458988,52.173012
Endegeesterstraatweg,24,A,,2342AK,Oegstgeest,Oegstgeest,Zuid-Holland,VBO,4.458226,52.172665
Endegeesterstraatweg,24,B,,2342AK,Oegstgeest,Oegstgeest,Zuid-Holland,VBO,4.458771,52.172885
Endegeesterstraatweg,24,,,2342AK,Oegstgeest,Oegstgeest,Zuid-Holland,VBO,4.458979,52.172958
Endegeesterstraatweg,25,,,2342AK,Oegstgeest,Oegstgeest,Zuid-Holland,VBO,4.457581,52.173505
Endegeesterstraatweg,26,,,2342AK,Oegstgeest,Oegstgeest,Zuid-Holland,VBO,4.457694,52.173509
Endegeesterstraatweg,27,A,,2342AK,Oegstgeest,Oegstgeest,Zuid-Holland,VBO,4.456460,52.172861
Endegeesterstraatweg,27,B,,2342AK,Oegstgeest,Oegstgeest,Zuid-Holland,VBO,4.456406,52.172666
Endegeesterstraatweg,27,C,,2342AK,Oegstgeest,Oegstgeest,Zuid-Holland,VBO,4.456366,52.172446
Endegeesterstraatweg,27,D,,2342AK,Oegstgeest,Oegstgeest,Zuid-Holland,VBO,4.456375,52.172246
Endegeesterstraatweg,27,E,,2342AK,Oegstgeest,Oegstgeest,Zuid-Holland,VBO,4.456662,52.172198
Endegeesterstraatweg,27,F,,2342AK,Oegstgeest,Oegstgeest,Zuid-Holland,VBO,4.457027,52.172146
Endegeesterstraatweg,27,G,,2342AK,Oegstgeest,Oegstgeest,Zuid-Holland,VBO,4.457094,52.172386
Endegeesterstraatweg,27,H,,2342AK,Oegstgeest,Oegstgeest,Zuid-Holland,VBO,4.457445,52.172407
Endegeesterstraatweg,27,I,,2342AK,Oegstgeest,Oegstgeest,Zuid-Holland,VBO,4.456346,52.172017
Endegeesterstraatweg,27,J,,2342AK,Oegstgeest,Oegstgeest,Zuid-Holland,VBO,4.456699,52.171896
Endegeesterstraatweg,27,,,2342AK,Oegstgeest,Oegstgeest,Zuid-Holland,VBO,4.457369,52.172934
Endegeesterstraatweg,29,,,2342AK,Oegstgeest,Oegstgeest,Zuid-Holland,VBO,4.456876,52.173614
Endegeesterstraatweg,31,,,2342AK,Oegstgeest,Oegstgeest,Zuid-Holland,VBO,4.458304,52.173638
Endegeesterstraatweg,33,,,2342AK,Oegstgeest,Oegstgeest,Zuid-Holland,VBO,4.458171,52.173217
Endegeesterstraatweg,35,A,,2342AK,Oegstgeest,Oegstgeest,Zuid-Holland,VBO,4.457553,52.172518
Endegeesterstraatweg,35,B,,2342AK,Oegstgeest,Oegstgeest,Zuid-Holland,VBO,4.457541,52.172894
Endegeesterstraatweg,36,A,,2342AK,Oegstgeest,Oegstgeest,Zuid-Holland,VBO,4.458562,52.171929
Endegeesterstraatweg,36,B,,2342AK,Oegstgeest,Oegstgeest,Zuid-Holland,VBO,4.459279,52.171761
Endegeesterstraatweg,36,C,,2342AK,Oegstgeest,Oegstgeest,Zuid-Holland,VBO,4.459207,52.171501
Endegeesterstraatweg,36,,,2342AK,Oegstgeest,Oegstgeest,Zuid-Holland,VBO,4.458647,52.172153
Endegeesterstraatweg,40,,,2342AK,Oegstgeest,Oegstgeest,Zuid-Holland,VBO,4.456358,52.171175
Rhijngeesterstraatweg,2,,,2342AL,Oegstgeest,Oegstgeest,Zuid-Holland,VBO,4.463274,52.177329
Rhijngeesterstraatweg,4,,,2342AL,Oegstgeest,Oegstgeest,Zuid-Holland,VBO,4.463363,52.177446
Rhijngeesterstraatweg,6,,,2342AL,Oegstgeest,Oegstgeest,Zuid-Holland,VBO,4.463383,52.177494
Rhijngeesterstraatweg,8,,,2342AL,Oegstgeest,Oegstgeest,Zuid-Holland,VBO,4.463375,52.177582
Rhijngeesterstraatweg,10,,,2342AL,Oegstgeest,Oegstgeest,Zuid-Holland,VBO,4.463436,52.177632
Rhijngeesterstraatweg,12,,,2342AL,Oegstgeest,Oegstgeest,Zuid-Holland,VBO,4.463442,52.177737
Rhijngeesterstraatweg,14,,,2342AM,Oegstgeest,Oegstgeest,Zuid-Holland,VBO,4.463624,52.178113
Rhijngeesterstraatweg,16,A,,2342AM,Oegstgeest,Oegstgeest,Zuid-Holland,VBO,4.463781,52.178308
Rhijngeesterstraatweg,16,B,,2342AM,Oegstgeest,Oegstgeest,Zuid-Holland,VBO,4.463819,52.178379
Rhijngeesterstraatweg,16,C,,2342AM,Oegstgeest,Oegstgeest,Zuid-Holland,VBO,4.463843,52.178421
Rhijngeesterstraatweg,16,,,2342AM,Oegstgeest,Oegstgeest,Zuid-Holland,VBO,4.463860,52.178172
Rhijngeesterstraatweg,18,A,,2342AM,Oegstgeest,Oegstgeest,Zuid-Holland,VBO,4.464133,52.178387
Rhijngeesterstraatweg,18,,,2342AM,Oegstgeest,Oegstgeest,Zuid-Holland,VBO,4.464399,52.178402
Rhijngeesterstraatweg,20,,,2342AM,Oegstgeest,Oegstgeest,Zuid-Holland,VBO,4.463982,52.178582
Rhijngeesterstraatweg,22,,,2342AM,Oegstgeest,Oegstgeest,Zuid-Holland,VBO,4.464010,52.178642
Rhijngeesterstraatweg,24,,,2342AM,Oegstgeest,Oegstgeest,Zuid-Holland,VBO,4.464075,52.178678
Rhijngeesterstraatweg,26,A,,2342AM,Oegstgeest,Oegstgeest,Zuid-Holland,VBO,4.464317,52.179026
Rhijngeesterstraatweg,26,B,,2342AM,Oegstgeest,Oegstgeest,Zuid-Holland,VBO,4.464352,52.179074
Rhijngeesterstraatweg,26,C,,2342AM,Oegstgeest,Oegstgeest,Zuid-Holland,VBO,4.464393,52.179110
Rhijngeesterstraatweg,26,,,2342AM,Oegstgeest,Oegstgeest,Zuid-Holland,VBO,4.464289,52.178983
Rhijngeesterstraatweg,28,A,,2342AM,Oegstgeest,Oegstgeest,Zuid-Holland,VBO,4.464459,52.179198
Rhijngeesterstraatweg,28,B,,2342AM,Oegstgeest,Oegstgeest,Zuid-Holland,VBO,4.464496,52.179239
Rhijngeesterstraatweg,28,C,,2342AM,Oegstgeest,Oegstgeest,Zuid-Holland,VBO,4.464542,52.179287
Rhijngeesterstraatweg,28,,,2342AM,Oegstgeest,Oegstgeest,Zuid-Holland,VBO,4.464434,52.179155
Rhijngeesterstraatweg,30,,,2342AM,Oegstgeest,Oegstgeest,Zuid-Holland,VBO,4.464569,52.179326
Rhijngeesterstraatweg,1,,,2342AN,Oegstgeest,Oegstgeest,Zuid-Holland,VBO,4.460906,52.176389
Rhijngeesterstraatweg,3,,,2342AN,Oegstgeest,Oegstgeest,Zuid-Holland,VBO,4.460829,52.176432
Rhijngeesterstraatweg,7,,,2342AN,Oegstgeest,Oegstgeest,Zuid-Holland,VBO,4.461053,52.176466
Rhijngeesterstraatweg,9,,,2342AN,Oegstgeest,Oegstgeest,Zuid-Holland,VBO,4.462114,52.176792
Rhijngeesterstraatweg,11,,,2342AN,Oegstgeest,Oegstgeest,Zuid-Holland,VBO,4.461885,52.177533
Rhijngeesterstraatweg,13,A,,2342AN,Oegstgeest,Oegstgeest,Zuid-Holland,VBO,4.461396,52.177979
Rhijngeesterstraatweg,13,B,,2342AN,Oegstgeest,Oegstgeest,Zuid-Holland,VBO,4.462012,52.178447
Rhijngeesterstraatweg,13,C,,2342AN,Oegstgeest,Oegstgeest,Zuid-Holland,VBO,4.459984,52.177543
Rhijngeesterstraatweg,13,T,,2342AN,Oegstgeest,Oegstgeest,Zuid-Holland,VBO,4.462749,52.178386
Rhijngeesterstraatweg,13,,,2342AN,Oegstgeest,Oegstgeest,Zuid-Holland,VBO,4.462335,52.178165
Rhijngeesterstraatweg,15,,,2342AP,Oegstgeest,Oegstgeest,Zuid-Holland,VBO,4.463264,52.178356
Rhijngeesterstraatweg,17,,,2342AP,Oegstgeest,Oegstgeest,Zuid-Holland,VBO,4.463282,52.178407
Rhijngeesterstraatweg,19,,,2342AP,Oegstgeest,Oegstgeest,Zuid-Holland,VBO,4.463313,52.178455
Rhijngeesterstraatweg,21,,,2342AP,Oegstgeest,Oegstgeest,Zuid-Holland,VBO,4.463350,52.178520
Rhijngeesterstraatweg,23,,,2342AP,Oegstgeest,Oegstgeest,Zuid-Holland,VBO,4.463380,52.178562
Rhijngeesterstraatweg,25,,,2342AP,Oegstgeest,Oegstgeest,Zuid-Holland,VBO,4.463490,52.178695
Rhijngeesterstraatweg,27,,,2342AP,Oegstgeest,Oegstgeest,Zuid-Holland,VBO,4.463582,52.178770
Rhijngeesterstraatweg,29,A,,2342AP,Oegstgeest,Oegstgeest,Zuid-Holland,VBO,4.463716,52.179063
Rhijngeesterstraatweg,29,,,2342AP,Oegstgeest,Oegstgeest,Zuid-Holland,VBO,4.463680,52.178832
Rhijngeesterstraatweg,31,,,2342AP,Oegstgeest,Oegstgeest,Zuid-Holland,VBO,4.463958,52.179147
Rhijngeesterstraatweg,33,A,,2342AP,Oegstgeest,Oegstgeest,Zuid-Holland,VBO,4.464357,52.179677
Rhijngeesterstraatweg,33,,,2342AP,Oegstgeest,Oegstgeest,Zuid-Holland,VBO,4.464022,52.179415
van Assendelftstraat,1,,,2342AR,Oegstgeest,Oegstgeest,Zuid-Holland,VBO,4.463095,52.178600
van Assendelftstraat,3,,,2342AR,Oegstgeest,Oegstgeest,Zuid-Holland,VBO,4.462933,52.178607
van Assendelftstraat,5,,,2342AR,Oegstgeest,Oegstgeest,Zuid-Holland,VBO,4.462851,52.178619
van Assendelftstraat,7,,,2342AR,Oegstgeest,Oegstgeest,Zuid-Holland,VBO,4.462766,52.178638
van Assendelftstraat,9,,,2342AR,Oegstgeest,Oegstgeest,Zuid-Holland,VBO,4.462694,52.178643
van Assendelftstraat,11,,,2342AR,Oegstgeest,Oegstgeest,Zuid-Holland,VBO,4.462607,52.178662
van Assendelftstraat,13,,,2342AR,Oegstgeest,Oegstgeest,Zuid-Holland,VBO,4.462513,52.178682
van Assendelftstraat,15,,,2342AR,Oegstgeest,Oegstgeest,Zuid-Holland,VBO,4.462424,52.178674
van Assendelftstraat,17,,,2342AR,Oegstgeest,Oegstgeest,Zuid-Holland,VBO,4.462346,52.178688
van Assendelftstraat,19,,,2342AR,Oegstgeest,Oegstgeest,Zuid-Holland,VBO,4.462256,52.178697
van Assendelftstraat,21,,,2342AR,Oegstgeest,Oegstgeest,Zuid-Holland,VBO,4.462188,52.178713
van Assendelftstraat,23,,,2342AR,Oegstgeest,Oegstgeest,Zuid-Holland,VBO,4.462110,52.178734
van Assendelftstraat,25,,,2342AR,Oegstgeest,Oegstgeest,Zuid-Holland,VBO,4.462024,52.178741
van Assendelftstraat,27,,,2342AR,Oegstgeest,Oegstgeest,Zuid-Holland,VBO,4.461918,52.178765
van Assendelftstraat,29,,,2342AR,Oegstgeest,Oegstgeest,Zuid-Holland,VBO,4.461823,52.178777
van Assendelftstraat,31,,,2342AR,Oegstgeest,Oegstgeest,Zuid-Holland,VBO,4.461760,52.178827
van Assendelftstraat,33,,,2342AR,Oegstgeest,Oegstgeest,Zuid-Holland,VBO,4.461736,52.178867
van Assendelftstraat,35,,,2342AR,Oegstgeest,Oegstgeest,Zuid-Holland,VBO,4.461706,52.178949
van Assendelftstraat,37,,,2342AR,Oegstgeest,Oegstgeest,Zuid-Holland,VBO,4.461700,52.179029
van Assendelftstraat,39,,,2342AR,Oegstgeest,Oegstgeest,Zuid-Holland,VBO,4.461689,52.179101
van Assendelftstraat,41,,,2342AR,Oegstgeest,Oegstgeest,Zuid-Holland,VBO,4.461664,52.179140
van Assendelftstraat,43,,,2342AR,Oegstgeest,Oegstgeest,Zuid-Holland,VBO,4.461658,52.179189
van Assendelftstraat,45,,,2342AR,Oegstgeest,Oegstgeest,Zuid-Holland,VBO,4.461660,52.179221
van Assendelftstraat,47,,,2342AR,Oegstgeest,Oegstgeest,Zuid-Holland,VBO,4.461672,52.179345
van Assendelftstraat,2,,,2342AS,Oegstgeest,Oegstgeest,Zuid-Holland,VBO,4.463356,52.178744
van Assendelftstraat,4,,,2342AS,Oegstgeest,Oegstgeest,Zuid-Holland,VBO,4.463298,52.178763
van Assendelftstraat,6,,,2342AS,Oegstgeest,Oegstgeest,Zuid-Holland,VBO,4.463236,52.178791
van Assendelftstraat,8,,,2342AS,Oegstgeest,Oegstgeest,Zuid-Holland,VBO,4.463149,52.178817
van Assendelftstraat,10,,,2342AS,Oegstgeest,Oegstgeest,Zuid-Holland,VBO,4.463022,52.178817
van Assendelftstraat,12,,,2342AS,Oegstgeest,Oegstgeest,Zuid-Holland,VBO,4.462926,52.178818
van Assendelftstraat,14,,,2342AS,Oegstgeest,Oegstgeest,Zuid-Holland,VBO,4.462811,52.178844
van Assendelftstraat,16,,,2342AS,Oegstgeest,Oegstgeest,Zuid-Holland,VBO,4.462714,52.178857
van Assendelftstraat,18,,,2342AS,Oegstgeest,Oegstgeest,Zuid-Holland,VBO,4.462644,52.178867
van Assendelftstraat,20,,,2342AS,Oegstgeest,Oegstgeest,Zuid-Holland,VBO,4.462563,52.178882
van Assendelftstraat,22,,,2342AS,Oegstgeest,Oegstgeest,Zuid-Holland,VBO,4.462481,52.178896
van Assendelftstraat,24,,,2342AS,Oegstgeest,Oegstgeest,Zuid-Holland,VBO,4.462393,52.178905
van Assendelftstraat,26,,,2342AS,Oegstgeest,Oegstgeest,Zuid-Holland,VBO,4.462271,52.178920
van Assendelftstraat,28,,,2342AS,Oegstgeest,Oegstgeest,Zuid-Holland,VBO,4.462186,52.178949
van Assendelftstraat,30,,,2342AS,Oegstgeest,Oegstgeest,Zuid-Holland,VBO,4.462089,52.178995
van Assendelftstraat,32,,,2342AS,Oegstgeest,Oegstgeest,Zuid-Holland,VBO,4.462029,52.179037
van Assendelftstraat,34,,,2342AS,Oegstgeest,Oegstgeest,Zuid-Holland,VBO,4.462014,52.179117
van Assendelftstraat,36,,,2342AS,Oegstgeest,Oegstgeest,Zuid-Holland,VBO,4.462048,52.179165
van Assendelftstraat,38,,,2342AS,Oegstgeest,Oegstgeest,Zuid-Holland,VBO,4.461999,52.179213
van Assendelftstraat,40,,,2342AS,Oegstgeest,Oegstgeest,Zuid-Holland,VBO,4.462006,52.179258
Oude Rijnzichtweg,3,,,2342AT,Oegstgeest,Oegstgeest,Zuid-Holland,VBO,4.463786,52.179198
Oude Rijnzichtweg,5,,,2342AT,Oegstgeest,Oegstgeest,Zuid-Holland,VBO,4.463721,52.179173
Oude Rijnzichtweg,7,,,2342AT,Oegstgeest,Oegstgeest,Zuid-Holland,VBO,4.463659,52.179184
Oude Rijnzichtweg,9,,,2342AT,Oegstgeest,Oegstgeest,Zuid-Holland,VBO,4.463584,52.179199
Oude Rijnzichtweg,11,,,2342AT,Oegstgeest,Oegstgeest,Zuid-Holland,VBO,4.463410,52.179004
Oude Rijnzichtweg,15,,,2342AT,Oegstgeest,Oegstgeest,Zuid-Holland,VBO,4.463294,52.179165
Oude Rijnzichtweg,17,,,2342AT,Oegstgeest,Oegstgeest,Zuid-Holland,VBO,4.463225,52.179172
Oude Rijnzichtweg,19,,,2342AT,Oegstgeest,Oegstgeest,Zuid-Holland,VBO,4.463151,52.179183
Oude Rijnzichtweg,21,,,2342AT,Oegstgeest,Oegstgeest,Zuid-Holland,VBO,4.463081,52.179167
Oude Rijnzichtweg,23,,,2342AT,Oegstgeest,Oegstgeest,Zuid-Holland,VBO,4.462999,52.179179
Oude Rijnzichtweg,25,,,2342AT,Oegstgeest,Oegstgeest,Zuid-Holland,VBO,4.462935,52.179199
Oude Rijnzichtweg,27,,,2342AT,Oegstgeest,Oegstgeest,Zuid-Holland,VBO,4.462860,52.179215
Oude Rijnzichtweg,29,,,2342AT,Oegstgeest,Oegstgeest,Zuid-Holland,VBO,4.462797,52.179231
Oude Rijnzichtweg,31,,,2342AT,Oegstgeest,Oegstgeest,Zuid-Holland,VBO,4.462728,52.179255
Oude Rijnzichtweg,33,,,2342AT,Oegstgeest,Oegstgeest,Zuid-Holland,VBO,4.462663,52.179272
Oude Rijnzichtweg,35,,,2342AT,Oegstgeest,Oegstgeest,Zuid-Holland,VBO,4.462578,52.179312
Oude Rijnzichtweg,37,,,2342AT,Oegstgeest,Oegstgeest,Zuid-Holland,VBO,4.462532,52.179340
Oude Rijnzichtweg,39,,,2342AT,Oegstgeest,Oegstgeest,Zuid-Holland,VBO,4.462476,52.179371
Oude Rijnzichtweg,41,,,2342AT,Oegstgeest,Oegstgeest,Zuid-Holland,VBO,4.462419,52.179403
Oude Rijnzichtweg,43,,,2342AT,Oegstgeest,Oegstgeest,Zuid-Holland,VBO,4.462371,52.179425
Oude Rijnzichtweg,45,,,2342AT,Oegstgeest,Oegstgeest,Zuid-Holland,VBO,4.462299,52.179425
Oude Rijnzichtweg,47,,,2342AT,Oegstgeest,Oegstgeest,Zuid-Holland,VBO,4.462220,52.179415
Oude Rijnzichtweg,49,,,2342AT,Oegstgeest,Oegstgeest,Zuid-Holland,VBO,4.462162,52.179421
Oude Rijnzichtweg,51,,,2342AT,Oegstgeest,Oegstgeest,Zuid-Holland,VBO,4.462084,52.179404
Oude Rijnzichtweg,53,,,2342AT,Oegstgeest,Oegstgeest,Zuid-Holland,VBO,4.461940,52.179381
Oude Rijnzichtweg,2,,,2342AV,Oegstgeest,Oegstgeest,Zuid-Holland,VBO,4.463586,52.179393
Oude Rijnzichtweg,4,,,2342AV,Oegstgeest,Oegstgeest,Zuid-Holland,VBO,4.463500,52.179389
Oude Rijnzichtweg,6,,,2342AV,Oegstgeest,Oegstgeest,Zuid-Holland,VBO,4.463421,52.179385
Oude Rijnzichtweg,8,,,2342AV,Oegstgeest,Oegstgeest,Zuid-Holland,VBO,4.463346,52.179407
Oude Rijnzichtweg,10,,,2342AV,Oegstgeest,Oegstgeest,Zuid-Holland,VBO,4.463279,52.179391
Oude Rijnzichtweg,12,,,2342AV,Oegstgeest,Oegstgeest,Zuid-Holland,VBO,4.463197,52.179395
Oude Rijnzichtweg,14,,,2342AV,Oegstgeest,Oegstgeest,Zuid-Holland,VBO,4.463124,52.179402
Oude Rijnzichtweg,16,,,2342AV,Oegstgeest,Oegstgeest,Zuid-Holland,VBO,4.463055,52.179418
Oude Rijnzichtweg,18,,,2342AV,Oegstgeest,Oegstgeest,Zuid-Holland,VBO,4.462986,52.179415
Oude Rijnzichtweg,20,,,2342AV,Oegstgeest,Oegstgeest,Zuid-Holland,VBO,4.462909,52.179410
Oude Rijnzichtweg,22,,,2342AV,Oegstgeest,Oegstgeest,Zuid-Holland,VBO,4.462803,52.179449
Rijnzichtweg,1,,,2342AW,Oegstgeest,Oegstgeest,Zuid-Holland,VBO,4.464252,52.179661
Rijnzichtweg,3,,,2342AW,Oegstgeest,Oegstgeest,Zuid-Holland,VBO,4.464030,52.179664
Rijnzichtweg,5,,,2342AW,Oegstgeest,Oegstgeest,Zuid-Holland,VBO,4.463940,52.179678
Rijnzichtweg,7,,,2342AW,Oegstgeest,Oegstgeest,Zuid-Holland,VBO,4.463845,52.179674
Rijnzichtweg,9,,,2342AW,Oegstgeest,Oegstgeest,Zuid-Holland,VBO,4.463773,52.179686
Rijnzichtweg,11,,,2342AW,Oegstgeest,Oegstgeest,Zuid-Holland,VBO,4.463564,52.179698
Rijnzichtweg,13,,,2342AW,Oegstgeest,Oegstgeest,Zuid-Holland,VBO,4.463455,52.179728
Rijnzichtweg,15,,,2342AW,Oegstgeest,Oegstgeest,Zuid-Holland,VBO,4.463373,52.179741
Rijnzichtweg,17,,,2342AW,Oegstgeest,Oegstgeest,Zuid-Holland,VBO,4.463281,52.179730
Rijnzichtweg,19,,,2342AW,Oegstgeest,Oegstgeest,Zuid-Holland,VBO,4.463088,52.179722
Rijnzichtweg,21,,,2342AW,Oegstgeest,Oegstgeest,Zuid-Holland,VBO,4.462983,52.179723
Rijnzichtweg,23,,,2342AW,Oegstgeest,Oegstgeest,Zuid-Holland,VBO,4.462900,52.179713
Rijnzichtweg,25,,,2342AW,Oegstgeest,Oegstgeest,Zuid-Holland,VBO,4.462791,52.179717
Rijnzichtweg,27,,,2342AX,Oegstgeest,Oegstgeest,Zuid-Holland,VBO,4.461576,52.179378
Rijnzichtweg,29,,,2342AX,Oegstgeest,Oegstgeest,Zuid-Holland,VBO,4.461474,52.179348
Rijnzichtweg,31,,,2342AX,Oegstgeest,Oegstgeest,Zuid-Holland,VBO,4.461377,52.179345
Rijnzichtweg,33,,,2342AX,Oegstgeest,Oegstgeest,Zuid-Holland,VBO,4.461079,52.179260
Rijnzichtweg,35,,,2342AX,Oegstgeest,Oegstgeest,Zuid-Holland,VBO,4.460760,52.178807
Rijnzichtweg,37,,,2342AX,Oegstgeest,Oegstgeest,Zuid-Holland,VBO,4.460458,52.179158
Rijnzichtweg,39,,,2342AX,Oegstgeest,Oegstgeest,Zuid-Holland,VBO,4.460335,52.179155
Rijnzichtweg,41,,,2342AX,Oegstgeest,Oegstgeest,Zuid-Holland,VBO,4.460266,52.179153
Rijnzichtweg,43,,,2342AX,Oegstgeest,Oegstgeest,Zuid-Holland,VBO,4.460168,52.179120
Rijnzichtweg,45,,,2342AX,Oegstgeest,Oegstgeest,Zuid-Holland,VBO,4.459950,52.179057
Rijnzichtweg,47,,,2342AX,Oegstgeest,Oegstgeest,Zuid-Holland,VBO,4.459834,52.179086
Rijnzichtweg,49,,,2342AX,Oegstgeest,Oegstgeest,Zuid-Holland,VBO,4.459644,52.179072
Rijnzichtweg,51,,,2342AX,Oegstgeest,Oegstgeest,Zuid-Holland,VBO,4.459544,52.179102
Rijnzichtweg,53,,,2342AX,Oegstgeest,Oegstgeest,Zuid-Holland,VBO,4.459353,52.179065
Rijnzichtweg,55,,,2342AX,Oegstgeest,Oegstgeest,Zuid-Holland,VBO,4.459229,52.179058
Rijnzichtweg,57,,,2342AX,Oegstgeest,Oegstgeest,Zuid-Holland,VBO,4.459017,52.179034
Rijnzichtweg,59,,,2342AX,Oegstgeest,Oegstgeest,Zuid-Holland,VBO,4.458915,52.179016
Rijnzichtweg,61,,,2342AX,Oegstgeest,Oegstgeest,Zuid-Holland,VBO,4.458566,52.178962
Rijnzichtweg,97,,,2342AX,Oegstgeest,Oegstgeest,Zuid-Holland,VBO,4.455179,52.178614
Rijnzichtweg,123,,,2342AZ,Oegstgeest,Oegstgeest,Zuid-Holland,VBO,4.454536,52.178656
Rijnzichtweg,125,,,2342AZ,Oegstgeest,Oegstgeest,Zuid-Holland,VBO,4.454450,52.178670
Rijnzichtweg,127,,,2342AZ,Oegstgeest,Oegstgeest,Zuid-Holland,VBO,4.454376,52.178654
Rijnzichtweg,129,,,2342AZ,Oegstgeest,Oegstgeest,Zuid-Holland,VBO,4.454294,52.178650
Rijnzichtweg,131,,,2342AZ,Oegstgeest,Oegstgeest,Zuid-Holland,VBO,4.454237,52.178644
Rijnzichtweg,133,,,2342AZ,Oegstgeest,Oegstgeest,Zuid-Holland,VBO,4.454139,52.178642
Rijnzichtweg,135,,,2342AZ,Oegstgeest,Oegstgeest,Zuid-Holland,VBO,4.454068,52.178629
Rijnzichtweg,137,,,2342AZ,Oegstgeest,Oegstgeest,Zuid-Holland,VBO,4.453980,52.178636
Rijnzichtweg,139,,,2342AZ,Oegstgeest,Oegstgeest,Zuid-Holland,VBO,4.453915,52.178608
Rijnzichtweg,141,,,2342AZ,Oegstgeest,Oegstgeest,Zuid-Holland,VBO,4.453827,52.178624
Rijnzichtweg,143,,,2342AZ,Oegstgeest,Oegstgeest,Zuid-Holland,VBO,4.453739,52.178605
Rijnzichtweg,145,,,2342AZ,Oegstgeest,Oegstgeest,Zuid-Holland,VBO,4.453666,52.178606
Rijnzichtweg,151,,,2342AZ,Oegstgeest,Oegstgeest,Zuid-Holland,VBO,4.453520,52.178512
Rijnzichtweg,153,,,2342AZ,Oegstgeest,Oegstgeest,Zuid-Holland,VBO,4.453441,52.178478
Rijnzichtweg,155,,,2342AZ,Oegstgeest,Oegstgeest,Zuid-Holland,VBO,4.453256,52.178553
Rijnzichtweg,157,,,2342AZ,Oegstgeest,Oegstgeest,Zuid-Holland,VBO,4.453172,52.178533
Rijnzichtweg,159,,,2342AZ,Oegstgeest,Oegstgeest,Zuid-Holland,VBO,4.453127,52.178502
Rijnzichtweg,161,,,2342AZ,Oegstgeest,Oegstgeest,Zuid-Holland,VBO,4.453047,52.178489
Rijnzichtweg,163,,,2342AZ,Oegstgeest,Oegstgeest,Zuid-Holland,VBO,4.452955,52.178484
Rijnzichtweg,165,,,2342AZ,Oegstgeest,Oegstgeest,Zuid-Holland,VBO,4.452873,52.178474
Rijnzichtweg,167,,,2342AZ,Oegstgeest,Oegstgeest,Zuid-Holland,VBO,4.452796,52.178451
Rijnzichtweg,169,,,2342AZ,Oegstgeest,Oegstgeest,Zuid-Holland,VBO,4.452724,52.178432
Rijnzichtweg,171,,,2342AZ,Oegstgeest,Oegstgeest,Zuid-Holland,VBO,4.452600,52.178407
Rijnzichtweg,173,,,2342AZ,Oegstgeest,Oegstgeest,Zuid-Holland,VBO,4.452532,52.178394
Rijnzichtweg,175,,,2342AZ,Oegstgeest,Oegstgeest,Zuid-Holland,VBO,4.452457,52.178387
Rijnzichtweg,177,,,2342AZ,Oegstgeest,Oegstgeest,Zuid-Holland,VBO,4.452408,52.178357
Rijnzichtweg,179,,,2342AZ,Oegstgeest,Oegstgeest,Zuid-Holland,VBO,4.452324,52.178338
Rijnzichtweg,181,,,2342AZ,Oegstgeest,Oegstgeest,Zuid-Holland,VBO,4.452252,52.178318
Rijnzichtweg,183,,,2342AZ,Oegstgeest,Oegstgeest,Zuid-Holland,VBO,4.452177,52.178310
Rijnzichtweg,185,,,2342AZ,Oegstgeest,Oegstgeest,Zuid-Holland,VBO,4.452084,52.178285
Oude Rijnsburgerweg,1,T,,2342BA,Oegstgeest,Oegstgeest,Zuid-Holland,VBO,4.452163,52.178154
Oude Rijnsburgerweg,7,,,2342BA,Oegstgeest,Oegstgeest,Zuid-Holland,VBO,4.452264,52.177850
Oude Rijnsburgerweg,9,,,2342BA,Oegstgeest,Oegstgeest,Zuid-Holland,VBO,4.452285,52.177805
Oude Rijnsburgerweg,11,,,2342BA,Oegstgeest,Oegstgeest,Zuid-Holland,VBO,4.452471,52.177533
Oude Rijnsburgerweg,13,,,2342BA,Oegstgeest,Oegstgeest,Zuid-Holland,VBO,4.452605,52.177447
Oude Rijnsburgerweg,15,,,2342BA,Oegstgeest,Oegstgeest,Zuid-Holland,VBO,4.452671,52.177381
Oude Rijnsburgerweg,17,,,2342BA,Oegstgeest,Oegstgeest,Zuid-Holland,VBO,4.452773,52.176974
Oude Rijnsburgerweg,19,,,2342BA,Oegstgeest,Oegstgeest,Zuid-Holland,VBO,4.453050,52.176730
Oude Rijnsburgerweg,25,,,2342BA,Oegstgeest,Oegstgeest,Zuid-Holland,VBO,4.453271,52.175990
Oude Rijnsburgerweg,27,,,2342BA,Oegstgeest,Oegstgeest,Zuid-Holland,VBO,4.453285,52.175947
Oude Rijnsburgerweg,29,,,2342BA,Oegstgeest,Oegstgeest,Zuid-Holland,VBO,4.453304,52.175902
Oude Rijnsburgerweg,31,,,2342BA,Oegstgeest,Oegstgeest,Zuid-Holland,VBO,4.453324,52.175856
Oude Rijnsburgerweg,33,,,2342BA,Oegstgeest,Oegstgeest,Zuid-Holland,VBO,4.453347,52.175813
Oude Rijnsburgerweg,35,,,2342BA,Oegstgeest,Oegstgeest,Zuid-Holland,VBO,4.453367,52.175770
Oude Rijnsburgerweg,37,,,2342BA,Oegstgeest,Oegstgeest,Zuid-Holland,VBO,4.453389,52.175723
Oude Rijnsburgerweg,39,,,2342BA,Oegstgeest,Oegstgeest,Zuid-Holland,VBO,4.453413,52.175622
Oude Rijnsburgerweg,41,,,2342BA,Oegstgeest,Oegstgeest,Zuid-Holland,VBO,4.453416,52.175576
Oude Rijnsburgerweg,43,,,2342BA,Oegstgeest,Oegstgeest,Zuid-Holland,VBO,4.453423,52.175529
Oude Rijnsburgerweg,45,,,2342BA,Oegstgeest,Oegstgeest,Zuid-Holland,VBO,4.453427,52.175484
Oude Rijnsburgerweg,47,,,2342BA,Oegstgeest,Oegstgeest,Zuid-Holland,VBO,4.453434,52.175438
Oude Rijnsburgerweg,49,,,2342BA,Oegstgeest,Oegstgeest,Zuid-Holland,VBO,4.453439,52.175393
Oude Rijnsburgerweg,51,,,2342BA,Oegstgeest,Oegstgeest,Zuid-Holland,VBO,4.453442,52.175347
Oude Rijnsburgerweg,71,,,2342BA,Oegstgeest,Oegstgeest,Zuid-Holland,VBO,4.453551,52.174557
Oude Rijnsburgerweg,77,,,2342BA,Oegstgeest,Oegstgeest,Zuid-Holland,VBO,4.453773,52.173985
Oude Rijnsburgerweg,79,,,2342BA,Oegstgeest,Oegstgeest,Zuid-Holland,VBO,4.453885,52.173781
Oude Rijnsburgerweg,81,,,2342BA,Oegstgeest,Oegstgeest,Zuid-Holland,VBO,4.454037,52.173841
Oude Rijnsburgerweg,83,,,2342BA,Oegstgeest,Oegstgeest,Zuid-Holland,VBO,4.454006,52.173948
Oude Rijnsburgerweg,101,,,2342BA,Oegstgeest,Oegstgeest,Zuid-Holland,VBO,4.454335,52.173132
Oude Rijnsburgerweg,103,,,2342BA,Oegstgeest,Oegstgeest,Zuid-Holland,VBO,4.454582,52.173101
Rhijnhofweg,6,,,2342BB,Oegstgeest,Oegstgeest,Zuid-Holland,LIG,4.448313,52.162443
Rhijnhofweg,7,,,2342BB,Oegstgeest,Oegstgeest,Zuid-Holland,VBO,4.448490,52.162894
Rhijnhofweg,8,,,2342BB,Oegstgeest,Oegstgeest,Zuid-Holland,VBO,4.448224,52.163342
Rhijnhofweg,9,A,,2342BB,Oegstgeest,Oegstgeest,Zuid-Holland,VBO,4.447131,52.165898
Rhijnhofweg,9,B,,2342BB,Oegstgeest,Oegstgeest,Zuid-Holland,VBO,4.447106,52.165969
Rhijnhofweg,9,C,,2342BB,Oegstgeest,Oegstgeest,Zuid-Holland,VBO,4.446806,52.166659
Rhijnhofweg,9,D,,2342BB,Oegstgeest,Oegstgeest,Zuid-Holland,VBO,4.447233,52.165416
Rhijnhofweg,9,E,,2342BB,Oegstgeest,Oegstgeest,Zuid-Holland,VBO,4.446955,52.166202
Rhijnhofweg,9,F,,2342BB,Oegstgeest,Oegstgeest,Zuid-Holland,VBO,4.446888,52.166384
Rhijnhofweg,9,G,,2342BB,Oegstgeest,Oegstgeest,Zuid-Holland,VBO,4.446542,52.165451
Rhijnhofweg,9,H,,2342BB,Oegstgeest,Oegstgeest,Zuid-Holland,VBO,4.447147,52.165518
Rhijnhofweg,9,J,,2342BB,Oegstgeest,Oegstgeest,Zuid-Holland,VBO,4.447081,52.165626
Rhijnhofweg,9,,,2342BB,Oegstgeest,Oegstgeest,Zuid-Holland,VBO,4.447176,52.165816
Rhijnhofweg,10,A,,2342BB,Oegstgeest,Oegstgeest,Zuid-Holland,VBO,4.447188,52.170669
Rhijnhofweg,10,B,,2342BB,Oegstgeest,Oegstgeest,Zuid-Holland,VBO,4.447930,52.171533
Rhijnhofweg,10,C,,2342BB,Oegstgeest,Oegstgeest,Zuid-Holland,VBO,4.447259,52.171475
Rhijnhofweg,10,D,,2342BB,Oegstgeest,Oegstgeest,Zuid-Holland,VBO,4.446820,52.170845
Rhijnhofweg,11,A,,2342BB,Oegstgeest,Oegstgeest,Zuid-Holland,VBO,4.448481,52.172516
Rhijnhofweg,11,B,,2342BB,Oegstgeest,Oegstgeest,Zuid-Holland,VBO,4.448557,52.172381
Rhijnhofweg,11,,,2342BB,Oegstgeest,Oegstgeest,Zuid-Holland,VBO,4.448587,52.172471
Rhijnhofweg,12,,,2342BB,Oegstgeest,Oegstgeest,Zuid-Holland,VBO,4.449809,52.173018
Rhijnhofweg,13,T,,2342BB,Oegstgeest,Oegstgeest,Zuid-Holland,VBO,4.449140,52.174072
Oude Rijnsburgerweg,42,,,2342BC,Oegstgeest,Oegstgeest,Zuid-Holland,VBO,4.451912,52.177484
Oude Rijnsburgerweg,46,,,2342BC,Oegstgeest,Oegstgeest,Zuid-Holland,VBO,4.452393,52.176817
Oude Rijnsburgerweg,48,,,2342BC,Oegstgeest,Oegstgeest,Zuid-Holland,VBO,4.452433,52.176757
Oude Rijnsburgerweg,50,,,2342BC,Oegstgeest,Oegstgeest,Zuid-Holland,VBO,4.452484,52.176658
Oude Rijnsburgerweg,52,,,2342BC,Oegstgeest,Oegstgeest,Zuid-Holland,VBO,4.452521,52.176611
Oude Rijnsburgerweg,54,,,2342BC,Oegstgeest,Oegstgeest,Zuid-Holland,VBO,4.452593,52.176525
Oude Rijnsburgerweg,56,,,2342BC,Oegstgeest,Oegstgeest,Zuid-Holland,VBO,4.452664,52.176458
Dirck van Swietenlaan,1,,,2342BD,Oegstgeest,Oegstgeest,Zuid-Holland,VBO,4.459669,52.173580
Dirck van Swietenlaan,3,,,2342BD,Oegstgeest,Oegstgeest,Zuid-Holland,VBO,4.459437,52.173750
Dirck van Swietenlaan,5,,,2342BD,Oegstgeest,Oegstgeest,Zuid-Holland,VBO,4.459233,52.173570
Dirck van Swietenlaan,7,,,2342BD,Oegstgeest,Oegstgeest,Zuid-Holland,VBO,4.459051,52.173407
Dirck van Swietenlaan,9,,,2342BD,Oegstgeest,Oegstgeest,Zuid-Holland,VBO,4.458704,52.173285
Dirck van Swietenlaan,11,,,2342BD,Oegstgeest,Oegstgeest,Zuid-Holland,VBO,4.458885,52.173797
Dirck van Swietenlaan,13,,,2342BD,Oegstgeest,Oegstgeest,Zuid-Holland,VBO,4.459055,52.174011
Dirck van Swietenlaan,15,,,2342BD,Oegstgeest,Oegstgeest,Zuid-Holland,VBO,4.458895,52.174207
Dirck van Swietenlaan,17,,,2342BD,Oegstgeest,Oegstgeest,Zuid-Holland,VBO,4.458537,52.174210
Dirck van Swietenlaan,19,,,2342BD,Oegstgeest,Oegstgeest,Zuid-Holland,VBO,4.458405,52.174399
Dirck van Swietenlaan,21,,,2342BD,Oegstgeest,Oegstgeest,Zuid-Holland,VBO,4.458651,52.174552
Dirck van Swietenlaan,23,,,2342BD,Oegstgeest,Oegstgeest,Zuid-Holland,VBO,4.458467,52.174924
Dirck van Swietenlaan,25,,,2342BD,Oegstgeest,Oegstgeest,Zuid-Holland,VBO,4.458189,52.175020
Dirck van Swietenlaan,2,,,2342BE,Oegstgeest,Oegstgeest,Zuid-Holland,VBO,4.460157,52.173808
Dirck van Swietenlaan,4,,,2342BE,Oegstgeest,Oegstgeest,Zuid-Holland,VBO,4.460391,52.174069
Dirck van Swietenlaan,6,,,2342BE,Oegstgeest,Oegstgeest,Zuid-Holland,VBO,4.460182,52.174147
Dirck van Swietenlaan,8,,,2342BE,Oegstgeest,Oegstgeest,Zuid-Holland,VBO,4.459941,52.174146
Dirck van Swietenlaan,10,,,2342BE,Oegstgeest,Oegstgeest,Zuid-Holland,VBO,4.459699,52.174149
Dirck van Swietenlaan,12,,,2342BE,Oegstgeest,Oegstgeest,Zuid-Holland,VBO,4.459369,52.174367
Dirck van Swietenlaan,14,,,2342BE,Oegstgeest,Oegstgeest,Zuid-Holland,VBO,4.459537,52.174553
Dirck van Swietenlaan,16,,,2342BE,Oegstgeest,Oegstgeest,Zuid-Holland,VBO,4.459398,52.174865
Dirck van Swietenlaan,18,,,2342BE,Oegstgeest,Oegstgeest,Zuid-Holland,VBO,4.459247,52.175035
Dirck van Swietenlaan,20,,,2342BE,Oegstgeest,Oegstgeest,Zuid-Holland,VBO,4.458914,52.175165
Dirck van Swietenlaan,22,,,2342BE,Oegstgeest,Oegstgeest,Zuid-Holland,VBO,4.458936,52.175429
Dirck van Swietenlaan,24,,,2342BE,Oegstgeest,Oegstgeest,Zuid-Holland,VBO,4.458642,52.175407
Dirck van Swietenlaan,26,,,2342BE,Oegstgeest,Oegstgeest,Zuid-Holland,VBO,4.458354,52.175357
Dirck van Swietenlaan,28,,,2342BE,Oegstgeest,Oegstgeest,Zuid-Holland,VBO,4.458054,52.175314
Willem Einthovenstraat,1,,,2342BH,Oegstgeest,Oegstgeest,Zuid-Holland,VBO,4.453579,52.170549
Willem Einthovenstraat,11,,,2342BH,Oegstgeest,Oegstgeest,Zuid-Holland,VBO,4.451999,52.168868
Twee Gezusters,2,,,2342BJ,Oegstgeest,Oegstgeest,Zuid-Holland,VBO,4.452875,52.177018
Twee Gezusters,4,,,2342BJ,Oegstgeest,Oegstgeest,Zuid-Holland,VBO,4.453053,52.177048
Twee Gezusters,6,,,2342BJ,Oegstgeest,Oegstgeest,Zuid-Holland,VBO,4.453149,52.177058
Coxhoorn,6,,,2342BK,Oegstgeest,Oegstgeest,Zuid-Holland,VBO,4.453431,52.177500
Coxhoorn,8,,,2342BK,Oegstgeest,Oegstgeest,Zuid-Holland,VBO,4.453526,52.177511
Coxhoorn,10,,,2342BK,Oegstgeest,Oegstgeest,Zuid-Holland,VBO,4.453714,52.177524
Coxhoorn,12,,,2342BK,Oegstgeest,Oegstgeest,Zuid-Holland,VBO,4.453781,52.177529
Coxhoorn,14,,,2342BK,Oegstgeest,Oegstgeest,Zuid-Holland,VBO,4.453966,52.177544
Coxhoorn,16,,,2342BK,Oegstgeest,Oegstgeest,Zuid-Holland,VBO,4.454058,52.177552
Zilverstein,1,,,2342BL,Oegstgeest,Oegstgeest,Zuid-Holland,VBO,4.452318,52.177759
Zilverstein,3,,,2342BL,Oegstgeest,Oegstgeest,Zuid-Holland,VBO,4.452623,52.177819
Zilverstein,5,,,2342BL,Oegstgeest,Oegstgeest,Zuid-Holland,VBO,4.452717,52.177859
Zilverstein,7,,,2342BL,Oegstgeest,Oegstgeest,Zuid-Holland,VBO,4.452787,52.177851
Zilverstein,9,,,2342BL,Oegstgeest,Oegstgeest,Zuid-Holland,VBO,4.452852,52.177876
Zilverstein,11,,,2342BL,Oegstgeest,Oegstgeest,Zuid-Holland,VBO,4.452938,52.177890
Zilverstein,13,,,2342BL,Oegstgeest,Oegstgeest,Zuid-Holland,VBO,4.453007,52.177904
Zilverstein,15,,,2342BL,Oegstgeest,Oegstgeest,Zuid-Holland,VBO,4.453077,52.177914
Zilverstein,17,,,2342BL,Oegstgeest,Oegstgeest,Zuid-Holland,VBO,4.453148,52.177927
Zilverstein,19,,,2342BL,Oegstgeest,Oegstgeest,Zuid-Holland,VBO,4.453230,52.177947
Zilverstein,21,,,2342BL,Oegstgeest,Oegstgeest,Zuid-Holland,VBO,4.453317,52.177973
Zilverstein,23,,,2342BL,Oegstgeest,Oegstgeest,Zuid-Holland,VBO,4.453368,52.177984
Zilverstein,25,,,2342BL,Oegstgeest,Oegstgeest,Zuid-Holland,VBO,4.453448,52.178000
Zilverstein,27,,,2342BL,Oegstgeest,Oegstgeest,Zuid-Holland,VBO,4.453550,52.178017
Zilverstein,29,,,2342BL,Oegstgeest,Oegstgeest,Zuid-Holland,VBO,4.453629,52.178026
Zilverstein,31,,,2342BL,Oegstgeest,Oegstgeest,Zuid-Holland,VBO,4.453697,52.178054
Zilverstein,33,,,2342BL,Oegstgeest,Oegstgeest,Zuid-Holland,VBO,4.453773,52.178060
Zilverstein,35,,,2342BL,Oegstgeest,Oegstgeest,Zuid-Holland,VBO,4.453838,52.178086
Zilverstein,37,,,2342BL,Oegstgeest,Oegstgeest,Zuid-Holland,VBO,4.453885,52.178132
Zilverstein,39,,,2342BL,Oegstgeest,Oegstgeest,Zuid-Holland,VBO,4.453970,52.178186
Zilverstein,41,,,2342BL,Oegstgeest,Oegstgeest,Zuid-Holland,VBO,4.454041,52.178212
Zilverstein,43,,,2342BL,Oegstgeest,Oegstgeest,Zuid-Holland,VBO,4.454122,52.178203
Zilverstein,45,,,2342BL,Oegstgeest,Oegstgeest,Zuid-Holland,VBO,4.454182,52.178218
Zilverstein,47,,,2342BL,Oegstgeest,Oegstgeest,Zuid-Holland,VBO,4.454281,52.178225
Zilverstein,49,,,2342BL,Oegstgeest,Oegstgeest,Zuid-Holland,VBO,4.454354,52.178228
Zilverstein,51,,,2342BL,Oegstgeest,Oegstgeest,Zuid-Holland,VBO,4.454433,52.178242
Zilverstein,53,,,2342BL,Oegstgeest,Oegstgeest,Zuid-Holland,VBO,4.454516,52.178246
Zilverstein,55,,,2342BL,Oegstgeest,Oegstgeest,Zuid-Holland,VBO,4.454592,52.178252
Zilverstein,57,,,2342BL,Oegstgeest,Oegstgeest,Zuid-Holland,VBO,4.454774,52.178250
Zilverstein,59,,,2342BL,Oegstgeest,Oegstgeest,Zuid-Holland,VBO,4.454881,52.178283
Zilverstein,61,,,2342BL,Oegstgeest,Oegstgeest,Zuid-Holland,VBO,4.454967,52.178285
Zilverstein,63,,,2342BL,Oegstgeest,Oegstgeest,Zuid-Holland,VBO,4.455037,52.178289
Zilverstein,65,,,2342BL,Oegstgeest,Oegstgeest,Zuid-Holland,VBO,4.455121,52.178304
Zilverstein,67,,,2342BL,Oegstgeest,Oegstgeest,Zuid-Holland,VBO,4.455206,52.178309
Zilverstein,69,,,2342BL,Oegstgeest,Oegstgeest,Zuid-Holland,VBO,4.455282,52.178306
Zilverstein,71,,,2342BL,Oegstgeest,Oegstgeest,Zuid-Holland,VBO,4.455362,52.178310
Zilverstein,73,,,2342BL,Oegstgeest,Oegstgeest,Zuid-Holland,VBO,4.455435,52.178327
Zilverstein,75,,,2342BL,Oegstgeest,Oegstgeest,Zuid-Holland,VBO,4.455508,52.178334
Zilverstein,77,,,2342BL,Oegstgeest,Oegstgeest,Zuid-Holland,VBO,4.455673,52.178314
Zilverstein,79,,,2342BL,Oegstgeest,Oegstgeest,Zuid-Holland,VBO,4.455773,52.178323
Zilverstein,81,,,2342BL,Oegstgeest,Oegstgeest,Zuid-Holland,VBO,4.455935,52.178337
Zilverstein,83,,,2342BL,Oegstgeest,Oegstgeest,Zuid-Holland,VBO,4.456051,52.178348
Zilverstein,85,,,2342BL,Oegstgeest,Oegstgeest,Zuid-Holland,VBO,4.455664,52.178336
Zilverstein,87,,,2342BL,Oegstgeest,Oegstgeest,Zuid-Holland,VBO,4.455764,52.178344
Zilverstein,89,,,2342BL,Oegstgeest,Oegstgeest,Zuid-Holland,VBO,4.455847,52.178350
Zilverstein,91,,,2342BL,Oegstgeest,Oegstgeest,Zuid-Holland,VBO,4.455928,52.178357
Zilverstein,93,,,2342BL,Oegstgeest,Oegstgeest,Zuid-Holland,VBO,4.456047,52.178369
Zilverstein,95,,,2342BL,Oegstgeest,Oegstgeest,Zuid-Holland,VBO,4.455655,52.178354
Zilverstein,97,,,2342BL,Oegstgeest,Oegstgeest,Zuid-Holland,VBO,4.455752,52.178366
Zilverstein,99,,,2342BL,Oegstgeest,Oegstgeest,Zuid-Holland,VBO,4.455842,52.178371
Zilverstein,101,,,2342BL,Oegstgeest,Oegstgeest,Zuid-Holland,VBO,4.455916,52.178375
Zilverstein,103,,,2342BL,Oegstgeest,Oegstgeest,Zuid-Holland,VBO,4.456042,52.178390
Zilverstein,105,,,2342BL,Oegstgeest,Oegstgeest,Zuid-Holland,VBO,4.455649,52.178370
Zilverstein,107,,,2342BL,Oegstgeest,Oegstgeest,Zuid-Holland,VBO,4.455745,52.178380
Zilverstein,109,,,2342BL,Oegstgeest,Oegstgeest,Zuid-Holland,VBO,4.455836,52.178389
Zilverstein,111,,,2342BL,Oegstgeest,Oegstgeest,Zuid-Holland,VBO,4.455911,52.178393
Zilverstein,113,,,2342BL,Oegstgeest,Oegstgeest,Zuid-Holland,VBO,4.456034,52.178406
Zilverstein,115,,,2342BL,Oegstgeest,Oegstgeest,Zuid-Holland,VBO,4.455646,52.178384
Zilverstein,117,,,2342BL,Oegstgeest,Oegstgeest,Zuid-Holland,VBO,4.455741,52.178390
Zilverstein,119,,,2342BL,Oegstgeest,Oegstgeest,Zuid-Holland,VBO,4.455832,52.178399
Zilverstein,121,,,2342BL,Oegstgeest,Oegstgeest,Zuid-Holland,VBO,4.455905,52.178403
Zilverstein,123,,,2342BL,Oegstgeest,Oegstgeest,Zuid-Holland,VBO,4.456030,52.178418
Zilverstein,125,,,2342BL,Oegstgeest,Oegstgeest,Zuid-Holland,VBO,4.455686,52.178393
Zilverstein,127,,,2342BL,Oegstgeest,Oegstgeest,Zuid-Holland,VBO,4.455844,52.178406
Zilverstein,129,,,2342BL,Oegstgeest,Oegstgeest,Zuid-Holland,VBO,4.456027,52.178433
Zilverstein,2,,,2342BM,Oegstgeest,Oegstgeest,Zuid-Holland,VBO,4.452446,52.177580
Zilverstein,4,,,2342BM,Oegstgeest,Oegstgeest,Zuid-Holland,VBO,4.452739,52.177650
Zilverstein,6,,,2342BM,Oegstgeest,Oegstgeest,Zuid-Holland,VBO,4.452884,52.177672
Zilverstein,8,,,2342BM,Oegstgeest,Oegstgeest,Zuid-Holland,VBO,4.452957,52.177685
Zilverstein,10,,,2342BM,Oegstgeest,Oegstgeest,Zuid-Holland,VBO,4.453051,52.177679
Zilverstein,12,,,2342BM,Oegstgeest,Oegstgeest,Zuid-Holland,VBO,4.453107,52.177711
Zilverstein,14,,,2342BM,Oegstgeest,Oegstgeest,Zuid-Holland,VBO,4.453180,52.177733
Zilverstein,16,,,2342BM,Oegstgeest,Oegstgeest,Zuid-Holland,VBO,4.453262,52.177748
Zilverstein,18,,,2342BM,Oegstgeest,Oegstgeest,Zuid-Holland,VBO,4.453331,52.177763
Zilverstein,20,,,2342BM,Oegstgeest,Oegstgeest,Zuid-Holland,VBO,4.453416,52.177786
Zilverstein,22,,,2342BM,Oegstgeest,Oegstgeest,Zuid-Holland,VBO,4.453530,52.177819
Zilverstein,24,,,2342BM,Oegstgeest,Oegstgeest,Zuid-Holland,VBO,4.453716,52.177830
Zilverstein,26,,,2342BM,Oegstgeest,Oegstgeest,Zuid-Holland,VBO,4.453800,52.177861
Zilverstein,28,,,2342BM,Oegstgeest,Oegstgeest,Zuid-Holland,VBO,4.453889,52.177873
Zilverstein,30,,,2342BM,Oegstgeest,Oegstgeest,Zuid-Holland,VBO,4.453968,52.177884
Zilverstein,32,,,2342BM,Oegstgeest,Oegstgeest,Zuid-Holland,VBO,4.454067,52.177907
Zilverstein,34,,,2342BM,Oegstgeest,Oegstgeest,Zuid-Holland,VBO,4.454143,52.177960
Zilverstein,36,,,2342BM,Oegstgeest,Oegstgeest,Zuid-Holland,VBO,4.454151,52.177945
Zilverstein,38,,,2342BM,Oegstgeest,Oegstgeest,Zuid-Holland,VBO,4.454160,52.177930
Zilverstein,40,,,2342BM,Oegstgeest,Oegstgeest,Zuid-Holland,VBO,4.454299,52.177934
Zilverstein,42,,,2342BM,Oegstgeest,Oegstgeest,Zuid-Holland,VBO,4.454393,52.177943
Zilverstein,44,,,2342BM,Oegstgeest,Oegstgeest,Zuid-Holland,VBO,4.454486,52.177939
Zilverstein,46,,,2342BM,Oegstgeest,Oegstgeest,Zuid-Holland,VBO,4.454577,52.177954
Zilverstein,48,,,2342BM,Oegstgeest,Oegstgeest,Zuid-Holland,VBO,4.454668,52.177948
Zilverstein,50,,,2342BM,Oegstgeest,Oegstgeest,Zuid-Holland,VBO,4.454760,52.177949
Zilverstein,52,,,2342BM,Oegstgeest,Oegstgeest,Zuid-Holland,VBO,4.454844,52.177951
Zilverstein,54,,,2342BM,Oegstgeest,Oegstgeest,Zuid-Holland,VBO,4.454923,52.177944
Zilverstein,56,,,2342BM,Oegstgeest,Oegstgeest,Zuid-Holland,VBO,4.455003,52.177951
Zilverstein,58,,,2342BM,Oegstgeest,Oegstgeest,Zuid-Holland,VBO,4.455134,52.177971
Zilverstein,60,,,2342BM,Oegstgeest,Oegstgeest,Zuid-Holland,VBO,4.455324,52.177970
Zilverstein,62,,,2342BM,Oegstgeest,Oegstgeest,Zuid-Holland,VBO,4.455418,52.177947
Sterreschans,2,,,2342BN,Oegstgeest,Oegstgeest,Zuid-Holland,VBO,4.455650,52.177974
Sterreschans,4,,,2342BN,Oegstgeest,Oegstgeest,Zuid-Holland,VBO,4.455629,52.177818
Sterreschans,6,,,2342BN,Oegstgeest,Oegstgeest,Zuid-Holland,VBO,4.455613,52.177774
Sterreschans,8,,,2342BN,Oegstgeest,Oegstgeest,Zuid-Holland,VBO,4.455598,52.177734
Sterreschans,10,,,2342BN,Oegstgeest,Oegstgeest,Zuid-Holland,VBO,4.455583,52.177693
Sterreschans,12,,,2342BN,Oegstgeest,Oegstgeest,Zuid-Holland,VBO,4.455569,52.177652
Sterreschans,14,,,2342BN,Oegstgeest,Oegstgeest,Zuid-Holland,VBO,4.455551,52.177612
Sterreschans,16,,,2342BN,Oegstgeest,Oegstgeest,Zuid-Holland,VBO,4.455535,52.177573
Sterreschans,18,,,2342BN,Oegstgeest,Oegstgeest,Zuid-Holland,VBO,4.455521,52.177531
Sterreschans,20,,,2342BN,Oegstgeest,Oegstgeest,Zuid-Holland,VBO,4.455168,52.177305
Sterreschans,22,,,2342BN,Oegstgeest,Oegstgeest,Zuid-Holland,VBO,4.455165,52.177254
Sterreschans,24,,,2342BN,Oegstgeest,Oegstgeest,Zuid-Holland,VBO,4.455161,52.177210
Sterreschans,26,,,2342BN,Oegstgeest,Oegstgeest,Zuid-Holland,VBO,4.455158,52.177155
Sterreschans,28,,,2342BN,Oegstgeest,Oegstgeest,Zuid-Holland,VBO,4.455149,52.177104
Sterreschans,30,,,2342BN,Oegstgeest,Oegstgeest,Zuid-Holland,VBO,4.455153,52.177061
Sterreschans,32,,,2342BN,Oegstgeest,Oegstgeest,Zuid-Holland,VBO,4.455138,52.177011
Sterreschans,34,,,2342BN,Oegstgeest,Oegstgeest,Zuid-Holland,VBO,4.455134,52.176961
Sterreschans,36,,,2342BN,Oegstgeest,Oegstgeest,Zuid-Holland,VBO,4.455122,52.176919
Sterreschans,38,,,2342BN,Oegstgeest,Oegstgeest,Zuid-Holland,VBO,4.455117,52.176865
Sterreschans,40,,,2342BN,Oegstgeest,Oegstgeest,Zuid-Holland,VBO,4.455121,52.176817
Sterreschans,42,,,2342BN,Oegstgeest,Oegstgeest,Zuid-Holland,VBO,4.455101,52.176703
Sterreschans,44,,,2342BN,Oegstgeest,Oegstgeest,Zuid-Holland,VBO,4.455095,52.176650
Sterreschans,46,,,2342BN,Oegstgeest,Oegstgeest,Zuid-Holland,VBO,4.455090,52.176605
Sterreschans,48,,,2342BN,Oegstgeest,Oegstgeest,Zuid-Holland,VBO,4.455078,52.176556
Sterreschans,50,,,2342BN,Oegstgeest,Oegstgeest,Zuid-Holland,VBO,4.455074,52.176505
Sterreschans,52,,,2342BN,Oegstgeest,Oegstgeest,Zuid-Holland,VBO,4.455078,52.176458
Sterreschans,54,,,2342BN,Oegstgeest,Oegstgeest,Zuid-Holland,VBO,4.455073,52.176409
Sterreschans,56,,,2342BN,Oegstgeest,Oegstgeest,Zuid-Holland,VBO,4.455061,52.176365
Sterreschans,58,,,2342BN,Oegstgeest,Oegstgeest,Zuid-Holland,VBO,4.455062,52.176312
Sterreschans,60,T,,2342BN,Oegstgeest,Oegstgeest,Zuid-Holland,VBO,4.454949,52.176206
Sterreschans,60,,,2342BN,Oegstgeest,Oegstgeest,Zuid-Holland,VBO,4.455056,52.176260
Sterreschans,62,,,2342BN,Oegstgeest,Oegstgeest,Zuid-Holland,VBO,4.454993,52.176102
Sterreschans,64,,,2342BN,Oegstgeest,Oegstgeest,Zuid-Holland,VBO,4.454973,52.176053
Sterreschans,66,,,2342BN,Oegstgeest,Oegstgeest,Zuid-Holland,VBO,4.454959,52.176010
Sterreschans,68,,,2342BN,Oegstgeest,Oegstgeest,Zuid-Holland,VBO,4.454953,52.175963
Sterreschans,70,,,2342BN,Oegstgeest,Oegstgeest,Zuid-Holland,VBO,4.454926,52.175914
Sterreschans,72,,,2342BN,Oegstgeest,Oegstgeest,Zuid-Holland,VBO,4.454903,52.175863
Sterreschans,74,,,2342BN,Oegstgeest,Oegstgeest,Zuid-Holland,VBO,4.454889,52.175814
Sterreschans,76,,,2342BN,Oegstgeest,Oegstgeest,Zuid-Holland,VBO,4.454872,52.175776
Sterreschans,78,,,2342BN,Oegstgeest,Oegstgeest,Zuid-Holland,VBO,4.454853,52.175719
Sterreschans,80,,,2342BN,Oegstgeest,Oegstgeest,Zuid-Holland,VBO,4.454847,52.175676
Sterreschans,82,,,2342BN,Oegstgeest,Oegstgeest,Zuid-Holland,VBO,4.454797,52.175562
Sterreschans,84,,,2342BN,Oegstgeest,Oegstgeest,Zuid-Holland,VBO,4.454788,52.175516
Sterreschans,86,,,2342BN,Oegstgeest,Oegstgeest,Zuid-Holland,VBO,4.454762,52.175464
Sterreschans,88,,,2342BN,Oegstgeest,Oegstgeest,Zuid-Holland,VBO,4.454748,52.175421
Sterreschans,90,,,2342BN,Oegstgeest,Oegstgeest,Zuid-Holland,VBO,4.454731,52.175371
Sterreschans,92,,,2342BN,Oegstgeest,Oegstgeest,Zuid-Holland,VBO,4.454720,52.175323
Sterreschans,94,,,2342BN,Oegstgeest,Oegstgeest,Zuid-Holland,VBO,4.454701,52.175275
Sterreschans,96,,,2342BN,Oegstgeest,Oegstgeest,Zuid-Holland,VBO,4.454687,52.175225
Sterreschans,101,,,2342BP,Oegstgeest,Oegstgeest,Zuid-Holland,VBO,4.456116,52.178260
Sterreschans,103,,,2342BP,Oegstgeest,Oegstgeest,Zuid-Holland,VBO,4.456090,52.178189
Sterreschans,105,,,2342BP,Oegstgeest,Oegstgeest,Zuid-Holland,VBO,4.456044,52.178135
Sterreschans,107,,,2342BP,Oegstgeest,Oegstgeest,Zuid-Holland,VBO,4.456016,52.178079
Sterreschans,109,,,2342BP,Oegstgeest,Oegstgeest,Zuid-Holland,VBO,4.455991,52.178017
Sterreschans,111,,,2342BP,Oegstgeest,Oegstgeest,Zuid-Holland,VBO,4.455957,52.177929
Sterreschans,113,,,2342BP,Oegstgeest,Oegstgeest,Zuid-Holland,VBO,4.455957,52.177844
Sterreschans,115,,,2342BP,Oegstgeest,Oegstgeest,Zuid-Holland,VBO,4.455912,52.177733
Sterreschans,117,,,2342BP,Oegstgeest,Oegstgeest,Zuid-Holland,VBO,4.456135,52.178259
Sterreschans,119,,,2342BP,Oegstgeest,Oegstgeest,Zuid-Holland,VBO,4.456101,52.178187
Sterreschans,121,,,2342BP,Oegstgeest,Oegstgeest,Zuid-Holland,VBO,4.456058,52.178134
Sterreschans,123,,,2342BP,Oegstgeest,Oegstgeest,Zuid-Holland,VBO,4.456032,52.178079
Sterreschans,125,,,2342BP,Oegstgeest,Oegstgeest,Zuid-Holland,VBO,4.456006,52.178013
Sterreschans,127,,,2342BP,Oegstgeest,Oegstgeest,Zuid-Holland,VBO,4.455970,52.177923
Sterreschans,129,,,2342BP,Oegstgeest,Oegstgeest,Zuid-Holland,VBO,4.455969,52.177842
Sterreschans,131,,,2342BP,Oegstgeest,Oegstgeest,Zuid-Holland,VBO,4.455925,52.177734
Sterreschans,133,,,2342BP,Oegstgeest,Oegstgeest,Zuid-Holland,VBO,4.456148,52.178258
Sterreschans,135,,,2342BP,Oegstgeest,Oegstgeest,Zuid-Holland,VBO,4.456113,52.178187
Sterreschans,137,,,2342BP,Oegstgeest,Oegstgeest,Zuid-Holland,VBO,4.456074,52.178130
Sterreschans,139,,,2342BP,Oegstgeest,Oegstgeest,Zuid-Holland,VBO,4.456040,52.178075
Sterreschans,141,,,2342BP,Oegstgeest,Oegstgeest,Zuid-Holland,VBO,4.456019,52.178013
Sterreschans,143,,,2342BP,Oegstgeest,Oegstgeest,Zuid-Holland,VBO,4.455988,52.177921
Sterreschans,145,,,2342BP,Oegstgeest,Oegstgeest,Zuid-Holland,VBO,4.455989,52.177839
Sterreschans,147,,,2342BP,Oegstgeest,Oegstgeest,Zuid-Holland,VBO,4.455937,52.177731
Sterreschans,149,,,2342BP,Oegstgeest,Oegstgeest,Zuid-Holland,VBO,4.456162,52.178257
Sterreschans,151,,,2342BP,Oegstgeest,Oegstgeest,Zuid-Holland,VBO,4.456130,52.178184
Sterreschans,153,,,2342BP,Oegstgeest,Oegstgeest,Zuid-Holland,VBO,4.456091,52.178129
Sterreschans,155,,,2342BP,Oegstgeest,Oegstgeest,Zuid-Holland,VBO,4.456058,52.178071
Sterreschans,157,,,2342BP,Oegstgeest,Oegstgeest,Zuid-Holland,VBO,4.456036,52.178008
Sterreschans,159,,,2342BP,Oegstgeest,Oegstgeest,Zuid-Holland,VBO,4.456009,52.177918
Sterreschans,161,,,2342BP,Oegstgeest,Oegstgeest,Zuid-Holland,VBO,4.456007,52.177837
Sterreschans,163,,,2342BP,Oegstgeest,Oegstgeest,Zuid-Holland,VBO,4.455954,52.177729
Sterreschans,165,,,2342BP,Oegstgeest,Oegstgeest,Zuid-Holland,VBO,4.456179,52.178255
Sterreschans,167,,,2342BP,Oegstgeest,Oegstgeest,Zuid-Holland,VBO,4.456142,52.178181
Sterreschans,169,,,2342BP,Oegstgeest,Oegstgeest,Zuid-Holland,VBO,4.456111,52.178126
Sterreschans,171,,,2342BP,Oegstgeest,Oegstgeest,Zuid-Holland,VBO,4.456084,52.178068
Sterreschans,173,,,2342BP,Oegstgeest,Oegstgeest,Zuid-Holland,VBO,4.456055,52.178003
Sterreschans,175,,,2342BP,Oegstgeest,Oegstgeest,Zuid-Holland,VBO,4.456038,52.177916
Sterreschans,177,,,2342BP,Oegstgeest,Oegstgeest,Zuid-Holland,VBO,4.456022,52.177834
Sterreschans,179,,,2342BP,Oegstgeest,Oegstgeest,Zuid-Holland,VBO,4.455976,52.177728
Sterreschans,181,,,2342BP,Oegstgeest,Oegstgeest,Zuid-Holland,VBO,4.456142,52.178124
Sterreschans,183,,,2342BP,Oegstgeest,Oegstgeest,Zuid-Holland,VBO,4.456063,52.177913
Sterreschans,185,,,2342BP,Oegstgeest,Oegstgeest,Zuid-Holland,VBO,4.456040,52.177831
Sterreschans,187,,,2342BP,Oegstgeest,Oegstgeest,Zuid-Holland,VBO,4.456002,52.177725
Sterreschans,189,,,2342BP,Oegstgeest,Oegstgeest,Zuid-Holland,VBO,4.456176,52.178121
Sterreschans,191,,,2342BP,Oegstgeest,Oegstgeest,Zuid-Holland,VBO,4.455886,52.177640
Sterreschans,193,,,2342BP,Oegstgeest,Oegstgeest,Zuid-Holland,VBO,4.455815,52.177459
Sterreschans,195,,,2342BP,Oegstgeest,Oegstgeest,Zuid-Holland,VBO,4.455910,52.177638
Sterreschans,197,,,2342BP,Oegstgeest,Oegstgeest,Zuid-Holland,VBO,4.455876,52.177580
Sterreschans,199,,,2342BP,Oegstgeest,Oegstgeest,Zuid-Holland,VBO,4.455860,52.177509
Sterreschans,201,,,2342BP,Oegstgeest,Oegstgeest,Zuid-Holland,VBO,4.455840,52.177457
Sterreschans,203,,,2342BP,Oegstgeest,Oegstgeest,Zuid-Holland,VBO,4.455929,52.177635
Sterreschans,205,,,2342BP,Oegstgeest,Oegstgeest,Zuid-Holland,VBO,4.455899,52.177580
Sterreschans,207,,,2342BP,Oegstgeest,Oegstgeest,Zuid-Holland,VBO,4.455879,52.177509
Sterreschans,209,,,2342BP,Oegstgeest,Oegstgeest,Zuid-Holland,VBO,4.455861,52.177455
Sterreschans,211,,,2342BP,Oegstgeest,Oegstgeest,Zuid-Holland,VBO,4.455947,52.177631
Sterreschans,213,,,2342BP,Oegstgeest,Oegstgeest,Zuid-Holland,VBO,4.455921,52.177581
Sterreschans,215,,,2342BP,Oegstgeest,Oegstgeest,Zuid-Holland,VBO,4.455897,52.177510
Sterreschans,217,,,2342BP,Oegstgeest,Oegstgeest,Zuid-Holland,VBO,4.455879,52.177452
Sterreschans,219,,,2342BP,Oegstgeest,Oegstgeest,Zuid-Holland,VBO,4.455960,52.177628
Sterreschans,221,,,2342BP,Oegstgeest,Oegstgeest,Zuid-Holland,VBO,4.455942,52.177580
Sterreschans,223,,,2342BP,Oegstgeest,Oegstgeest,Zuid-Holland,VBO,4.455914,52.177505
Sterreschans,225,,,2342BP,Oegstgeest,Oegstgeest,Zuid-Holland,VBO,4.455894,52.177447
Sterreschans,227,,,2342BP,Oegstgeest,Oegstgeest,Zuid-Holland,VBO,4.455980,52.177622
Sterreschans,229,,,2342BP,Oegstgeest,Oegstgeest,Zuid-Holland,VBO,4.455959,52.177578
Sterreschans,231,,,2342BP,Oegstgeest,Oegstgeest,Zuid-Holland,VBO,4.455928,52.177502
Sterreschans,233,,,2342BP,Oegstgeest,Oegstgeest,Zuid-Holland,VBO,4.455916,52.177443
Sterreschans,235,,,2342BP,Oegstgeest,Oegstgeest,Zuid-Holland,VBO,4.456001,52.177620
Sterreschans,237,,,2342BP,Oegstgeest,Oegstgeest,Zuid-Holland,VBO,4.455977,52.177576
Sterreschans,239,,,2342BP,Oegstgeest,Oegstgeest,Zuid-Holland,VBO,4.455947,52.177498
Sterreschans,241,,,2342BP,Oegstgeest,Oegstgeest,Zuid-Holland,VBO,4.455935,52.177441
Sterreschans,243,,,2342BP,Oegstgeest,Oegstgeest,Zuid-Holland,VBO,4.455775,52.177397
Sterreschans,245,,,2342BP,Oegstgeest,Oegstgeest,Zuid-Holland,VBO,4.455697,52.177175
Sterreschans,247,,,2342BP,Oegstgeest,Oegstgeest,Zuid-Holland,VBO,4.455806,52.177391
Sterreschans,249,,,2342BP,Oegstgeest,Oegstgeest,Zuid-Holland,VBO,4.455779,52.177322
Sterreschans,251,,,2342BP,Oegstgeest,Oegstgeest,Zuid-Holland,VBO,4.455752,52.177237
Sterreschans,253,,,2342BP,Oegstgeest,Oegstgeest,Zuid-Holland,VBO,4.455726,52.177176
Sterreschans,255,,,2342BP,Oegstgeest,Oegstgeest,Zuid-Holland,VBO,4.455832,52.177385
Sterreschans,257,,,2342BP,Oegstgeest,Oegstgeest,Zuid-Holland,VBO,4.455812,52.177319
Sterreschans,259,,,2342BP,Oegstgeest,Oegstgeest,Zuid-Holland,VBO,4.455775,52.177231
Sterreschans,261,,,2342BP,Oegstgeest,Oegstgeest,Zuid-Holland,VBO,4.455755,52.177174
Sterreschans,263,,,2342BP,Oegstgeest,Oegstgeest,Zuid-Holland,VBO,4.455867,52.177381
Sterreschans,265,,,2342BP,Oegstgeest,Oegstgeest,Zuid-Holland,VBO,4.455837,52.177316
Sterreschans,267,,,2342BP,Oegstgeest,Oegstgeest,Zuid-Holland,VBO,4.455796,52.177230
Sterreschans,269,,,2342BP,Oegstgeest,Oegstgeest,Zuid-Holland,VBO,4.455778,52.177173
Sterreschans,271,,,2342BP,Oegstgeest,Oegstgeest,Zuid-Holland,VBO,4.455902,52.177378
Sterreschans,273,,,2342BP,Oegstgeest,Oegstgeest,Zuid-Holland,VBO,4.455862,52.177318
Sterreschans,275,,,2342BP,Oegstgeest,Oegstgeest,Zuid-Holland,VBO,4.455833,52.177227
Sterreschans,277,,,2342BP,Oegstgeest,Oegstgeest,Zuid-Holland,VBO,4.455807,52.177169
Sterreschans,279,,,2342BP,Oegstgeest,Oegstgeest,Zuid-Holland,VBO,4.455691,52.177105
Sterreschans,281,,,2342BP,Oegstgeest,Oegstgeest,Zuid-Holland,VBO,4.455619,52.176919
Sterreschans,283,,,2342BP,Oegstgeest,Oegstgeest,Zuid-Holland,VBO,4.455720,52.177104
Sterreschans,285,,,2342BP,Oegstgeest,Oegstgeest,Zuid-Holland,VBO,4.455696,52.177052
Sterreschans,287,,,2342BP,Oegstgeest,Oegstgeest,Zuid-Holland,VBO,4.455670,52.176984
Sterreschans,289,,,2342BP,Oegstgeest,Oegstgeest,Zuid-Holland,VBO,4.455648,52.176919
Sterreschans,291,,,2342BP,Oegstgeest,Oegstgeest,Zuid-Holland,VBO,4.455751,52.177102
Sterreschans,293,,,2342BP,Oegstgeest,Oegstgeest,Zuid-Holland,VBO,4.455723,52.177055
Sterreschans,295,,,2342BP,Oegstgeest,Oegstgeest,Zuid-Holland,VBO,4.455701,52.176981
Sterreschans,297,,,2342BP,Oegstgeest,Oegstgeest,Zuid-Holland,VBO,4.455677,52.176915
Sterreschans,299,,,2342BP,Oegstgeest,Oegstgeest,Zuid-Holland,VBO,4.455776,52.177098
Sterreschans,301,,,2342BP,Oegstgeest,Oegstgeest,Zuid-Holland,VBO,4.455750,52.177052
Sterreschans,303,,,2342BP,Oegstgeest,Oegstgeest,Zuid-Holland,VBO,4.455728,52.176975
Sterreschans,305,,,2342BP,Oegstgeest,Oegstgeest,Zuid-Holland,VBO,4.455700,52.176914
Sterreschans,307,,,2342BP,Oegstgeest,Oegstgeest,Zuid-Holland,VBO,4.455803,52.177097
Sterreschans,309,,,2342BP,Oegstgeest,Oegstgeest,Zuid-Holland,VBO,4.455779,52.177048
Sterreschans,311,,,2342BP,Oegstgeest,Oegstgeest,Zuid-Holland,VBO,4.455759,52.176970
Sterreschans,313,,,2342BP,Oegstgeest,Oegstgeest,Zuid-Holland,VBO,4.455733,52.176917
Sterreschans,315,,,2342BP,Oegstgeest,Oegstgeest,Zuid-Holland,VBO,4.455828,52.177095
Sterreschans,317,,,2342BP,Oegstgeest,Oegstgeest,Zuid-Holland,VBO,4.455810,52.177041
Sterreschans,319,,,2342BP,Oegstgeest,Oegstgeest,Zuid-Holland,VBO,4.455786,52.176964
Sterreschans,321,,,2342BP,Oegstgeest,Oegstgeest,Zuid-Holland,VBO,4.455766,52.176911
Sterreschans,545,,,2342BR,Oegstgeest,Oegstgeest,Zuid-Holland,VBO,4.455200,52.175734
Sterreschans,547,,,2342BR,Oegstgeest,Oegstgeest,Zuid-Holland,VBO,4.455118,52.175519
Sterreschans,549,,,2342BR,Oegstgeest,Oegstgeest,Zuid-Holland,VBO,4.455232,52.175731
Sterreschans,551,,,2342BR,Oegstgeest,Oegstgeest,Zuid-Holland,VBO,4.455209,52.175671
Sterreschans,553,,,2342BR,Oegstgeest,Oegstgeest,Zuid-Holland,VBO,4.455169,52.175577
Sterreschans,555,,,2342BR,Oegstgeest,Oegstgeest,Zuid-Holland,VBO,4.455147,52.175514
Sterreschans,557,,,2342BR,Oegstgeest,Oegstgeest,Zuid-Holland,VBO,4.455270,52.175729
Sterreschans,559,,,2342BR,Oegstgeest,Oegstgeest,Zuid-Holland,VBO,4.455245,52.175667
Sterreschans,561,,,2342BR,Oegstgeest,Oegstgeest,Zuid-Holland,VBO,4.455201,52.175575
Sterreschans,563,,,2342BR,Oegstgeest,Oegstgeest,Zuid-Holland,VBO,4.455179,52.175509
Sterreschans,565,,,2342BR,Oegstgeest,Oegstgeest,Zuid-Holland,VBO,4.455312,52.175725
Sterreschans,567,,,2342BR,Oegstgeest,Oegstgeest,Zuid-Holland,VBO,4.455286,52.175661
Sterreschans,569,,,2342BR,Oegstgeest,Oegstgeest,Zuid-Holland,VBO,4.455248,52.175569
Sterreschans,571,,,2342BR,Oegstgeest,Oegstgeest,Zuid-Holland,VBO,4.455219,52.175502
Sterreschans,573,,,2342BR,Oegstgeest,Oegstgeest,Zuid-Holland,VBO,4.455350,52.175723
Sterreschans,575,,,2342BR,Oegstgeest,Oegstgeest,Zuid-Holland,VBO,4.455331,52.175655
Sterreschans,577,,,2342BR,Oegstgeest,Oegstgeest,Zuid-Holland,VBO,4.455294,52.175565
Sterreschans,579,,,2342BR,Oegstgeest,Oegstgeest,Zuid-Holland,VBO,4.455257,52.175501
Sterreschans,581,,,2342BR,Oegstgeest,Oegstgeest,Zuid-Holland,VBO,4.455076,52.175469
Sterreschans,583,,,2342BR,Oegstgeest,Oegstgeest,Zuid-Holland,VBO,4.455030,52.175345
Sterreschans,585,,,2342BR,Oegstgeest,Oegstgeest,Zuid-Holland,VBO,4.455115,52.175468
Sterreschans,587,,,2342BR,Oegstgeest,Oegstgeest,Zuid-Holland,VBO,4.455090,52.175401
Sterreschans,589,,,2342BR,Oegstgeest,Oegstgeest,Zuid-Holland,VBO,4.455066,52.175345
Sterreschans,591,,,2342BR,Oegstgeest,Oegstgeest,Zuid-Holland,VBO,4.455040,52.175263
Sterreschans,593,,,2342BR,Oegstgeest,Oegstgeest,Zuid-Holland,VBO,4.455151,52.175465
Sterreschans,595,,,2342BR,Oegstgeest,Oegstgeest,Zuid-Holland,VBO,4.455124,52.175396
Sterreschans,597,,,2342BR,Oegstgeest,Oegstgeest,Zuid-Holland,VBO,4.455105,52.175341
Sterreschans,599,,,2342BR,Oegstgeest,Oegstgeest,Zuid-Holland,VBO,4.455075,52.175264
Sterreschans,601,,,2342BR,Oegstgeest,Oegstgeest,Zuid-Holland,VBO,4.455191,52.175459
Sterreschans,603,,,2342BR,Oegstgeest,Oegstgeest,Zuid-Holland,VBO,4.455160,52.175392
Sterreschans,605,,,2342BR,Oegstgeest,Oegstgeest,Zuid-Holland,VBO,4.455145,52.175337
Sterreschans,607,,,2342BR,Oegstgeest,Oegstgeest,Zuid-Holland,VBO,4.455116,52.175259
Sterreschans,609,,,2342BR,Oegstgeest,Oegstgeest,Zuid-Holland,VBO,4.455224,52.175456
Sterreschans,611,,,2342BR,Oegstgeest,Oegstgeest,Zuid-Holland,VBO,4.455187,52.175391
Sterreschans,613,,,2342BR,Oegstgeest,Oegstgeest,Zuid-Holland,VBO,4.455170,52.175338
Sterreschans,615,,,2342BR,Oegstgeest,Oegstgeest,Zuid-Holland,VBO,4.455141,52.175259
Sterreschans,617,,,2342BR,Oegstgeest,Oegstgeest,Zuid-Holland,VBO,4.455251,52.175454
Sterreschans,619,,,2342BR,Oegstgeest,Oegstgeest,Zuid-Holland,VBO,4.455220,52.175394
Sterreschans,621,,,2342BR,Oegstgeest,Oegstgeest,Zuid-Holland,VBO,4.455199,52.175339
Sterreschans,623,,,2342BR,Oegstgeest,Oegstgeest,Zuid-Holland,VBO,4.455159,52.175258
Sterreschans,625,,,2342BR,Oegstgeest,Oegstgeest,Zuid-Holland,VBO,4.455215,52.175337
Sterreschans,627,,,2342BR,Oegstgeest,Oegstgeest,Zuid-Holland,VBO,4.455183,52.175257
Sterreschans,361,,,2342BS,Oegstgeest,Oegstgeest,Zuid-Holland,VBO,4.455565,52.176802
Sterreschans,363,,,2342BS,Oegstgeest,Oegstgeest,Zuid-Holland,VBO,4.455544,52.176564
Sterreschans,365,,,2342BS,Oegstgeest,Oegstgeest,Zuid-Holland,VBO,4.455595,52.176794
Sterreschans,367,,,2342BS,Oegstgeest,Oegstgeest,Zuid-Holland,VBO,4.455647,52.176742
Sterreschans,369,,,2342BS,Oegstgeest,Oegstgeest,Zuid-Holland,VBO,4.455586,52.176603
Sterreschans,371,,,2342BS,Oegstgeest,Oegstgeest,Zuid-Holland,VBO,4.455544,52.176564
Sterreschans,373,,,2342BS,Oegstgeest,Oegstgeest,Zuid-Holland,VBO,4.455625,52.176787
Sterreschans,375,,,2342BS,Oegstgeest,Oegstgeest,Zuid-Holland,VBO,4.455647,52.176742
Sterreschans,377,,,2342BS,Oegstgeest,Oegstgeest,Zuid-Holland,VBO,4.455586,52.176603
Sterreschans,379,,,2342BS,Oegstgeest,Oegstgeest,Zuid-Holland,VBO,4.455544,52.176564
Sterreschans,381,,,2342BS,Oegstgeest,Oegstgeest,Zuid-Holland,VBO,4.455625,52.176787
Sterreschans,383,,,2342BS,Oegstgeest,Oegstgeest,Zuid-Holland,VBO,4.455647,52.176742
Sterreschans,385,,,2342BS,Oegstgeest,Oegstgeest,Zuid-Holland,VBO,4.455586,52.176603
Sterreschans,387,,,2342BS,Oegstgeest,Oegstgeest,Zuid-Holland,VBO,4.455544,52.176564
Sterreschans,389,,,2342BS,Oegstgeest,Oegstgeest,Zuid-Holland,VBO,4.455625,52.176787
Sterreschans,391,,,2342BS,Oegstgeest,Oegstgeest,Zuid-Holland,VBO,4.455647,52.176742
Sterreschans,393,,,2342BS,Oegstgeest,Oegstgeest,Zuid-Holland,VBO,4.455586,52.176603
Sterreschans,395,,,2342BS,Oegstgeest,Oegstgeest,Zuid-Holland,VBO,4.455544,52.176564
Sterreschans,397,,,2342BS,Oegstgeest,Oegstgeest,Zuid-Holland,VBO,4.455625,52.176787
Sterreschans,399,,,2342BS,Oegstgeest,Oegstgeest,Zuid-Holland,VBO,4.455647,52.176742
Sterreschans,401,,,2342BS,Oegstgeest,Oegstgeest,Zuid-Holland,VBO,4.455586,52.176603
Sterreschans,403,,,2342BS,Oegstgeest,Oegstgeest,Zuid-Holland,VBO,4.455544,52.176564
Sterreschans,405,,,2342BS,Oegstgeest,Oegstgeest,Zuid-Holland,VBO,4.455625,52.176787
Sterreschans,407,,,2342BS,Oegstgeest,Oegstgeest,Zuid-Holland,VBO,4.455647,52.176742
Sterreschans,409,,,2342BS,Oegstgeest,Oegstgeest,Zuid-Holland,VBO,4.455586,52.176603
Sterreschans,411,,,2342BS,Oegstgeest,Oegstgeest,Zuid-Holland,VBO,4.455544,52.176564
Sterreschans,421,,,2342BS,Oegstgeest,Oegstgeest,Zuid-Holland,VBO,4.455497,52.176516
Sterreschans,423,,,2342BS,Oegstgeest,Oegstgeest,Zuid-Holland,VBO,4.455478,52.176447
Sterreschans,425,,,2342BS,Oegstgeest,Oegstgeest,Zuid-Holland,VBO,4.455453,52.176380
Sterreschans,427,,,2342BS,Oegstgeest,Oegstgeest,Zuid-Holland,VBO,4.455431,52.176314
Sterreschans,429,,,2342BS,Oegstgeest,Oegstgeest,Zuid-Holland,VBO,4.455497,52.176516
Sterreschans,431,,,2342BS,Oegstgeest,Oegstgeest,Zuid-Holland,VBO,4.455478,52.176447
Sterreschans,433,,,2342BS,Oegstgeest,Oegstgeest,Zuid-Holland,VBO,4.455453,52.176380
Sterreschans,435,,,2342BS,Oegstgeest,Oegstgeest,Zuid-Holland,VBO,4.455431,52.176314
Sterreschans,437,,,2342BS,Oegstgeest,Oegstgeest,Zuid-Holland,VBO,4.455497,52.176516
Sterreschans,439,,,2342BS,Oegstgeest,Oegstgeest,Zuid-Holland,VBO,4.455478,52.176447
Sterreschans,441,,,2342BS,Oegstgeest,Oegstgeest,Zuid-Holland,VBO,4.455453,52.176380
Sterreschans,443,,,2342BS,Oegstgeest,Oegstgeest,Zuid-Holland,VBO,4.455431,52.176314
Sterreschans,445,,,2342BS,Oegstgeest,Oegstgeest,Zuid-Holland,VBO,4.455497,52.176516
Sterreschans,447,,,2342BS,Oegstgeest,Oegstgeest,Zuid-Holland,VBO,4.455478,52.176447
Sterreschans,449,,,2342BS,Oegstgeest,Oegstgeest,Zuid-Holland,VBO,4.455453,52.176380
Sterreschans,451,,,2342BS,Oegstgeest,Oegstgeest,Zuid-Holland,VBO,4.455431,52.176314
Sterreschans,453,,,2342BS,Oegstgeest,Oegstgeest,Zuid-Holland,VBO,4.455497,52.176516
Sterreschans,455,,,2342BS,Oegstgeest,Oegstgeest,Zuid-Holland,VBO,4.455478,52.176447
Sterreschans,457,,,2342BS,Oegstgeest,Oegstgeest,Zuid-Holland,VBO,4.455453,52.176380
Sterreschans,459,,,2342BS,Oegstgeest,Oegstgeest,Zuid-Holland,VBO,4.455431,52.176314
Sterreschans,461,,,2342BS,Oegstgeest,Oegstgeest,Zuid-Holland,VBO,4.455405,52.176198
Sterreschans,463,,,2342BS,Oegstgeest,Oegstgeest,Zuid-Holland,VBO,4.455365,52.176127
Sterreschans,465,,,2342BS,Oegstgeest,Oegstgeest,Zuid-Holland,VBO,4.455356,52.176067
Sterreschans,467,,,2342BS,Oegstgeest,Oegstgeest,Zuid-Holland,VBO,4.455337,52.175997
Sterreschans,469,,,2342BS,Oegstgeest,Oegstgeest,Zuid-Holland,VBO,4.455332,52.175926
Sterreschans,471,,,2342BS,Oegstgeest,Oegstgeest,Zuid-Holland,VBO,4.455301,52.175869
Sterreschans,473,,,2342BS,Oegstgeest,Oegstgeest,Zuid-Holland,VBO,4.455267,52.175807
Sterreschans,475,,,2342BS,Oegstgeest,Oegstgeest,Zuid-Holland,VBO,4.455405,52.176198
Sterreschans,477,,,2342BS,Oegstgeest,Oegstgeest,Zuid-Holland,VBO,4.455365,52.176127
Sterreschans,479,,,2342BS,Oegstgeest,Oegstgeest,Zuid-Holland,VBO,4.455356,52.176067
Sterreschans,481,,,2342BS,Oegstgeest,Oegstgeest,Zuid-Holland,VBO,4.455337,52.175997
Sterreschans,483,,,2342BS,Oegstgeest,Oegstgeest,Zuid-Holland,VBO,4.455332,52.175926
Sterreschans,485,,,2342BS,Oegstgeest,Oegstgeest,Zuid-Holland,VBO,4.455301,52.175869
Sterreschans,487,,,2342BS,Oegstgeest,Oegstgeest,Zuid-Holland,VBO,4.455267,52.175807
Sterreschans,489,,,2342BS,Oegstgeest,Oegstgeest,Zuid-Holland,VBO,4.455405,52.176198
Sterreschans,491,,,2342BS,Oegstgeest,Oegstgeest,Zuid-Holland,VBO,4.455365,52.176127
Sterreschans,493,,,2342BS,Oegstgeest,Oegstgeest,Zuid-Holland,VBO,4.455356,52.176067
Sterreschans,495,,,2342BS,Oegstgeest,Oegstgeest,Zuid-Holland,VBO,4.455337,52.175997
Sterreschans,497,,,2342BS,Oegstgeest,Oegstgeest,Zuid-Holland,VBO,4.455332,52.175926
Sterreschans,499,,,2342BS,Oegstgeest,Oegstgeest,Zuid-Holland,VBO,4.455301,52.175869
Sterreschans,501,,,2342BS,Oegstgeest,Oegstgeest,Zuid-Holland,VBO,4.455267,52.175807
Sterreschans,503,,,2342BS,Oegstgeest,Oegstgeest,Zuid-Holland,VBO,4.455405,52.176198
Sterreschans,505,,,2342BS,Oegstgeest,Oegstgeest,Zuid-Holland,VBO,4.455365,52.176127
Sterreschans,507,,,2342BS,Oegstgeest,Oegstgeest,Zuid-Holland,VBO,4.455356,52.176067
Sterreschans,509,,,2342BS,Oegstgeest,Oegstgeest,Zuid-Holland,VBO,4.455337,52.175997
Sterreschans,511,,,2342BS,Oegstgeest,Oegstgeest,Zuid-Holland,VBO,4.455332,52.175926
Sterreschans,513,,,2342BS,Oegstgeest,Oegstgeest,Zuid-Holland,VBO,4.455301,52.175869
Sterreschans,515,,,2342BS,Oegstgeest,Oegstgeest,Zuid-Holland,VBO,4.455267,52.175807
Sterreschans,517,,,2342BS,Oegstgeest,Oegstgeest,Zuid-Holland,VBO,4.455405,52.176198
Sterreschans,519,,,2342BS,Oegstgeest,Oegstgeest,Zuid-Holland,VBO,4.455365,52.176127
Sterreschans,521,,,2342BS,Oegstgeest,Oegstgeest,Zuid-Holland,VBO,4.455356,52.176067
Sterreschans,523,,,2342BS,Oegstgeest,Oegstgeest,Zuid-Holland,VBO,4.455337,52.175997
Sterreschans,525,,,2342BS,Oegstgeest,Oegstgeest,Zuid-Holland,VBO,4.455332,52.175926
Sterreschans,527,,,2342BS,Oegstgeest,Oegstgeest,Zuid-Holland,VBO,4.455301,52.175869
Sterreschans,529,,,2342BS,Oegstgeest,Oegstgeest,Zuid-Holland,VBO,4.455267,52.175807
Sterreschans,531,,,2342BS,Oegstgeest,Oegstgeest,Zuid-Holland,VBO,4.455405,52.176198
Sterreschans,535,,,2342BS,Oegstgeest,Oegstgeest,Zuid-Holland,VBO,4.455356,52.176067
Sterreschans,537,,,2342BS,Oegstgeest,Oegstgeest,Zuid-Holland,VBO,4.455337,52.175997
Sterreschans,539,,,2342BS,Oegstgeest,Oegstgeest,Zuid-Holland,VBO,4.455332,52.175926
Sterreschans,541,,,2342BS,Oegstgeest,Oegstgeest,Zuid-Holland,VBO,4.455301,52.175869
Sterreschans,543,,,2342BS,Oegstgeest,Oegstgeest,Zuid-Holland,VBO,4.455267,52.175807
Rustenburgerpad,2,,,2342BT,Oegstgeest,Oegstgeest,Zuid-Holland,VBO,4.450207,52.178450
Ir. G. Tjalmaweg,1,,,2342BV,Oegstgeest,Oegstgeest,Zuid-Holland,VBO,4.448330,52.166122
Valkenburgerweg,1,,,2342BX,Oegstgeest,Oegstgeest,Zuid-Holland,VBO,4.449301,52.178269
Valkenburgerweg,3,A,,2342BX,Oegstgeest,Oegstgeest,Zuid-Holland,VBO,4.447803,52.179708
Valkenburgerweg,5,,,2342BX,Oegstgeest,Oegstgeest,Zuid-Holland,VBO,4.446888,52.179689
Valkenburgerweg,9,,,2342BX,Oegstgeest,Oegstgeest,Zuid-Holland,VBO,4.445295,52.180659
Valkenburgerweg,6,,,2342BZ,Oegstgeest,Oegstgeest,Zuid-Holland,LIG,4.447397,52.178584
Valkenburgerweg,8,A,,2342BZ,Oegstgeest,Oegstgeest,Zuid-Holland,VBO,4.446797,52.179422
Valkenburgerweg,10,,,2342BZ,Oegstgeest,Oegstgeest,Zuid-Holland,VBO,4.444386,52.180427
Valkenburgerweg,11,,,2342BZ,Oegstgeest,Oegstgeest,Zuid-Holland,VBO,4.443333,52.181059
Valkenburgerweg,17,A,,2342BZ,Oegstgeest,Oegstgeest,Zuid-Holland,VBO,4.443906,52.181348
Valkenburgerweg,17,,,2342BZ,Oegstgeest,Oegstgeest,Zuid-Holland,VBO,4.440927,52.181077
Valkenburgerweg,18,,,2342BZ,Oegstgeest,Oegstgeest,Zuid-Holland,VBO,4.441923,52.180644
Valkenburgerweg,20,,,2342BZ,Oegstgeest,Oegstgeest,Zuid-Holland,VBO,4.437531,52.180489
Griffioen,2,,,2342CB,Oegstgeest,Oegstgeest,Zuid-Holland,VBO,4.453537,52.176024
Griffioen,4,,,2342CB,Oegstgeest,Oegstgeest,Zuid-Holland,VBO,4.453615,52.176027
Griffioen,6,,,2342CB,Oegstgeest,Oegstgeest,Zuid-Holland,VBO,4.453690,52.176031
Griffioen,8,,,2342CB,Oegstgeest,Oegstgeest,Zuid-Holland,VBO,4.453764,52.176036
Griffioen,10,,,2342CB,Oegstgeest,Oegstgeest,Zuid-Holland,VBO,4.453838,52.176039
Griffioen,12,,,2342CB,Oegstgeest,Oegstgeest,Zuid-Holland,VBO,4.453913,52.176042
Griffioen,14,,,2342CB,Oegstgeest,Oegstgeest,Zuid-Holland,VBO,4.453986,52.176045
Griffioen,16,,,2342CB,Oegstgeest,Oegstgeest,Zuid-Holland,VBO,4.454063,52.176050
Wassende Maan,1,,,2342CC,Oegstgeest,Oegstgeest,Zuid-Holland,VBO,4.454065,52.175217
Wassende Maan,3,,,2342CC,Oegstgeest,Oegstgeest,Zuid-Holland,VBO,4.454071,52.175263
Wassende Maan,5,,,2342CC,Oegstgeest,Oegstgeest,Zuid-Holland,VBO,4.454093,52.175306
Wassende Maan,7,,,2342CC,Oegstgeest,Oegstgeest,Zuid-Holland,VBO,4.454108,52.175350
Wassende Maan,9,,,2342CC,Oegstgeest,Oegstgeest,Zuid-Holland,VBO,4.454123,52.175394
Wassende Maan,11,,,2342CC,Oegstgeest,Oegstgeest,Zuid-Holland,VBO,4.454141,52.175440
Wassende Maan,13,,,2342CC,Oegstgeest,Oegstgeest,Zuid-Holland,VBO,4.454139,52.175487
Wassende Maan,15,,,2342CC,Oegstgeest,Oegstgeest,Zuid-Holland,VBO,4.454154,52.175533
Wassende Maan,17,,,2342CC,Oegstgeest,Oegstgeest,Zuid-Holland,VBO,4.454169,52.175577
Wassende Maan,19,,,2342CC,Oegstgeest,Oegstgeest,Zuid-Holland,VBO,4.454184,52.175622
Wassende Maan,21,,,2342CC,Oegstgeest,Oegstgeest,Zuid-Holland,VBO,4.454197,52.175665
Wassende Maan,23,,,2342CC,Oegstgeest,Oegstgeest,Zuid-Holland,VBO,4.454211,52.175711
Wassende Maan,25,,,2342CC,Oegstgeest,Oegstgeest,Zuid-Holland,VBO,4.454256,52.175753
Wassende Maan,27,,,2342CC,Oegstgeest,Oegstgeest,Zuid-Holland,VBO,4.454270,52.175799
Wassende Maan,29,,,2342CC,Oegstgeest,Oegstgeest,Zuid-Holland,VBO,4.454285,52.175843
Wassende Maan,31,,,2342CC,Oegstgeest,Oegstgeest,Zuid-Holland,VBO,4.454296,52.175888
Wassende Maan,33,,,2342CC,Oegstgeest,Oegstgeest,Zuid-Holland,VBO,4.454311,52.175931
Wassende Maan,35,,,2342CC,Oegstgeest,Oegstgeest,Zuid-Holland,VBO,4.454329,52.175977
Wassende Maan,37,,,2342CC,Oegstgeest,Oegstgeest,Zuid-Holland,VBO,4.454348,52.176023
Schoonzicht,2,,,2342CD,Oegstgeest,Oegstgeest,Zuid-Holland,VBO,4.453796,52.175255
Schoonzicht,4,,,2342CD,Oegstgeest,Oegstgeest,Zuid-Holland,VBO,4.453723,52.175265
Schoonzicht,6,,,2342CD,Oegstgeest,Oegstgeest,Zuid-Holland,VBO,4.453645,52.175274
Vliegend Hert,2,,,2342CJ,Oegstgeest,Oegstgeest,Zuid-Holland,VBO,4.453093,52.176345
Vliegend Hert,4,,,2342CJ,Oegstgeest,Oegstgeest,Zuid-Holland,VBO,4.453231,52.176365
Vliegend Hert,6,,,2342CJ,Oegstgeest,Oegstgeest,Zuid-Holland,VBO,4.453306,52.176367
Vliegend Hert,8,,,2342CJ,Oegstgeest,Oegstgeest,Zuid-Holland,VBO,4.453392,52.176375
Vliegend Hert,10,,,2342CJ,Oegstgeest,Oegstgeest,Zuid-Holland,VBO,4.453465,52.176376
Vliegend Hert,12,,,2342CJ,Oegstgeest,Oegstgeest,Zuid-Holland,VBO,4.453546,52.176381
Vliegend Hert,14,,,2342CJ,Oegstgeest,Oegstgeest,Zuid-Holland,VBO,4.453621,52.176384
Vliegend Hert,16,,,2342CJ,Oegstgeest,Oegstgeest,Zuid-Holland,VBO,4.453693,52.176386
Vliegend Hert,18,,,2342CJ,Oegstgeest,Oegstgeest,Zuid-Holland,VBO,4.453784,52.176393
Vliegend Hert,20,,,2342CJ,Oegstgeest,Oegstgeest,Zuid-Holland,VBO,4.453971,52.176406
Vliegend Hert,22,,,2342CJ,Oegstgeest,Oegstgeest,Zuid-Holland,VBO,4.454048,52.176413
Vliegend Hert,24,,,2342CJ,Oegstgeest,Oegstgeest,Zuid-Holland,VBO,4.454128,52.176411
Vliegend Hert,26,,,2342CJ,Oegstgeest,Oegstgeest,Zuid-Holland,VBO,4.454213,52.176414
Vliegend Hert,28,,,2342CJ,Oegstgeest,Oegstgeest,Zuid-Holland,VBO,4.454282,52.176420
Vliegend Hert,30,,,2342CJ,Oegstgeest,Oegstgeest,Zuid-Holland,VBO,4.454363,52.176425
Vliegend Hert,32,,,2342CJ,Oegstgeest,Oegstgeest,Zuid-Holland,VBO,4.454439,52.176426
Drie Gebroeders,1,,,2342CL,Oegstgeest,Oegstgeest,Zuid-Holland,VBO,4.452326,52.176953
Drie Gebroeders,3,,,2342CL,Oegstgeest,Oegstgeest,Zuid-Holland,VBO,4.452034,52.176906
Drie Gebroeders,5,,,2342CL,Oegstgeest,Oegstgeest,Zuid-Holland,VBO,4.451897,52.176884
Drie Gebroeders,7,,,2342CL,Oegstgeest,Oegstgeest,Zuid-Holland,VBO,4.451758,52.176859
Drie Gebroeders,9,,,2342CL,Oegstgeest,Oegstgeest,Zuid-Holland,VBO,4.451722,52.176853
Drie Gebroeders,11,,,2342CL,Oegstgeest,Oegstgeest,Zuid-Holland,VBO,4.451591,52.176830
Drie Gebroeders,13,,,2342CL,Oegstgeest,Oegstgeest,Zuid-Holland,VBO,4.451553,52.176823
Drie Gebroeders,15,,,2342CL,Oegstgeest,Oegstgeest,Zuid-Holland,VBO,4.451373,52.176796
Drie Gebroeders,17,,,2342CL,Oegstgeest,Oegstgeest,Zuid-Holland,VBO,4.451336,52.176789
Drie Gebroeders,19,,,2342CL,Oegstgeest,Oegstgeest,Zuid-Holland,VBO,4.451207,52.176768
Drie Gebroeders,21,,,2342CL,Oegstgeest,Oegstgeest,Zuid-Holland,VBO,4.451128,52.176737
Drie Gebroeders,23,,,2342CL,Oegstgeest,Oegstgeest,Zuid-Holland,VBO,4.451001,52.176712
Drie Gebroeders,25,,,2342CL,Oegstgeest,Oegstgeest,Zuid-Holland,VBO,4.450957,52.176704
Drie Gebroeders,27,,,2342CL,Oegstgeest,Oegstgeest,Zuid-Holland,VBO,4.450874,52.176689
Drie Gebroeders,29,,,2342CL,Oegstgeest,Oegstgeest,Zuid-Holland,VBO,4.450744,52.176675
Drie Gebroeders,31,,,2342CL,Oegstgeest,Oegstgeest,Zuid-Holland,VBO,4.450616,52.176650
Drie Gebroeders,33,,,2342CL,Oegstgeest,Oegstgeest,Zuid-Holland,VBO,4.450324,52.176594
Vergulde Draak,2,,,2342CM,Oegstgeest,Oegstgeest,Zuid-Holland,VBO,4.452291,52.176438
Vergulde Draak,4,,,2342CM,Oegstgeest,Oegstgeest,Zuid-Holland,VBO,4.452131,52.176406
Vergulde Draak,6,,,2342CM,Oegstgeest,Oegstgeest,Zuid-Holland,VBO,4.452031,52.176397
Vergulde Draak,18,,,2342CM,Oegstgeest,Oegstgeest,Zuid-Holland,VBO,4.451346,52.176266
Vergulde Draak,20,,,2342CM,Oegstgeest,Oegstgeest,Zuid-Holland,VBO,4.451260,52.176245
Vergulde Draak,22,,,2342CM,Oegstgeest,Oegstgeest,Zuid-Holland,VBO,4.451184,52.176218
Vergulde Draak,24,,,2342CM,Oegstgeest,Oegstgeest,Zuid-Holland,VBO,4.451025,52.176199
Vergulde Draak,26,,,2342CM,Oegstgeest,Oegstgeest,Zuid-Holland,VBO,4.450905,52.176164
Rhijnhofweg,55,,,2342CR,Oegstgeest,Oegstgeest,Zuid-Holland,VBO,4.450413,52.176464
Rhijnhofweg,57,,,2342CR,Oegstgeest,Oegstgeest,Zuid-Holland,VBO,4.450444,52.176366
Rhijnhofweg,59,,,2342CR,Oegstgeest,Oegstgeest,Zuid-Holland,VBO,4.450488,52.176273
Rhijnhofweg,61,,,2342CR,Oegstgeest,Oegstgeest,Zuid-Holland,VBO,4.450508,52.176187
Endegeesterlaan,2,,,2342CZ,Oegstgeest,Oegstgeest,Zuid-Holland,VBO,4.463350,52.177000
Endegeesterlaan,4,,,2342CZ,Oegstgeest,Oegstgeest,Zuid-Holland,VBO,4.463350,52.177000
Wielewaallaan,3,,,2342EA,Oegstgeest,Oegstgeest,Zuid-Holland,VBO,4.460386,52.172854
Valklaan,1,T,,2342EB,Oegstgeest,Oegstgeest,Zuid-Holland,VBO,4.461074,52.172532
Valklaan,1,,,2342EB,Oegstgeest,Oegstgeest,Zuid-Holland,VBO,4.460339,52.172059
Valklaan,3,,,2342EB,Oegstgeest,Oegstgeest,Zuid-Holland,VBO,4.460699,52.171442
Koolmeeslaan,1,,,2342EC,Oegstgeest,Oegstgeest,Zuid-Holland,VBO,4.462436,52.171731
Koolmeeslaan,3,,,2342EC,Oegstgeest,Oegstgeest,Zuid-Holland,VBO,4.461938,52.172133
Spechtlaan,1,,,2342EE,Oegstgeest,Oegstgeest,Zuid-Holland,VBO,4.463848,52.172860
Spechtlaan,2,,,2342EE,Oegstgeest,Oegstgeest,Zuid-Holland,VBO,4.464099,52.172260
Spechtlaan,3,,,2342EE,Oegstgeest,Oegstgeest,Zuid-Holland,VBO,4.464642,52.171704
Spechtlaan,4,,,2342EE,Oegstgeest,Oegstgeest,Zuid-Holland,VBO,4.464238,52.171992
Kasteellaan,1,T,,2342EG,Oegstgeest,Oegstgeest,Zuid-Holland,VBO,4.463972,52.174719
Kasteellaan,1,,,2342EG,Oegstgeest,Oegstgeest,Zuid-Holland,VBO,4.464329,52.174290
Kasteellaan,5,,,2342EG,Oegstgeest,Oegstgeest,Zuid-Holland,VBO,4.463991,52.173557
Kasteellaan,7,,,2342EG,Oegstgeest,Oegstgeest,Zuid-Holland,VBO,4.463916,52.173412
Kasteellaan,9,,,2342EG,Oegstgeest,Oegstgeest,Zuid-Holland,VBO,4.463155,52.172489
Kasteellaan,11,,,2342EG,Oegstgeest,Oegstgeest,Zuid-Holland,VBO,4.461265,52.173135
Goudvinklaan,2,,,2342EH,Oegstgeest,Oegstgeest,Zuid-Holland,VBO,4.464580,52.174613
Zwaluwlaan,2,,,2342EJ,Oegstgeest,Oegstgeest,Zuid-Holland,VBO,4.466336,52.173635
Zwaluwlaan,4,,,2342EJ,Oegstgeest,Oegstgeest,Zuid-Holland,VBO,4.466539,52.173952
Zwaluwlaan,6,,,2342EJ,Oegstgeest,Oegstgeest,Zuid-Holland,VBO,4.466906,52.175109
Zwaluwlaan,8,,,2342EJ,Oegstgeest,Oegstgeest,Zuid-Holland,VBO,4.467072,52.175128
Zwaluwlaan,10,,,2342EJ,Oegstgeest,Oegstgeest,Zuid-Holland,VBO,4.467298,52.174975
Zwaluwlaan,12,,,2342EJ,Oegstgeest,Oegstgeest,Zuid-Holland,VBO,4.467323,52.175179
Zwaluwlaan,14,,,2342EJ,Oegstgeest,Oegstgeest,Zuid-Holland,VBO,4.467488,52.175225
Poelsteeg,1,,,2342MM,Oegstgeest,Oegstgeest,Zuid-Holland,VBO,4.476875,52.190848
