openbareruimtenaam,huisnummer,huisletter,huisnummertoevoeging,postcode,woonplaatsnaam,gemeentenaam,provincienaam,typeadresseerbaarobject,longitude,latitude
Schoolstraat,1,A,,2435AA,Zevenhoven,Nieuwkoop,Zuid-Holland,VBO,4.773213,52.193006
Schoolstraat,1,,,2435AA,Zevenhoven,Nieuwkoop,Zuid-Holland,VBO,4.772717,52.192869
Schoolstraat,3,,,2435AA,Zevenhoven,Nieuwkoop,Zuid-Holland,VBO,4.772349,52.193073
Schoolstraat,5,,,2435AA,Zevenhoven,Nieuwkoop,Zuid-Holland,VBO,4.772333,52.193127
Schoolstraat,7,,,2435AA,Zevenhoven,Nieuwkoop,Zuid-Holland,VBO,4.772259,52.193235
Schoolstraat,9,,,2435AA,Zevenhoven,Nieuwkoop,Zuid-Holland,VBO,4.772170,52.193333
Schoolstraat,11,,,2435AA,Zevenhoven,Nieuwkoop,Zuid-Holland,VBO,4.772110,52.193405
Schoolstraat,13,,,2435AA,Zevenhoven,Nieuwkoop,Zuid-Holland,VBO,4.772050,52.193503
Schoolstraat,15,,,2435AA,Zevenhoven,Nieuwkoop,Zuid-Holland,VBO,4.772020,52.193575
Schoolstraat,17,,,2435AA,Zevenhoven,Nieuwkoop,Zuid-Holland,VBO,4.772005,52.193611
Schoolstraat,19,,,2435AA,Zevenhoven,Nieuwkoop,Zuid-Holland,VBO,4.771930,52.193727
Schoolstraat,21,,,2435AA,Zevenhoven,Nieuwkoop,Zuid-Holland,VBO,4.771900,52.193790
Schoolstraat,23,,,2435AA,Zevenhoven,Nieuwkoop,Zuid-Holland,VBO,4.771913,52.193907
Schoolstraat,25,,,2435AA,Zevenhoven,Nieuwkoop,Zuid-Holland,VBO,4.771868,52.193970
Schoolstraat,27,,,2435AA,Zevenhoven,Nieuwkoop,Zuid-Holland,VBO,4.771808,52.194077
Schoolstraat,29,,,2435AA,Zevenhoven,Nieuwkoop,Zuid-Holland,VBO,4.771764,52.194149
Schoolstraat,31,,,2435AA,Zevenhoven,Nieuwkoop,Zuid-Holland,VBO,4.771777,52.194266
Schoolstraat,33,,,2435AA,Zevenhoven,Nieuwkoop,Zuid-Holland,VBO,4.771761,52.194329
Schoolstraat,35,,,2435AA,Zevenhoven,Nieuwkoop,Zuid-Holland,VBO,4.771216,52.194614
Schoolstraat,37,,,2435AA,Zevenhoven,Nieuwkoop,Zuid-Holland,VBO,4.771614,52.194741
Schoolstraat,39,,,2435AA,Zevenhoven,Nieuwkoop,Zuid-Holland,VBO,4.771714,52.194562
Schoolstraat,41,A,,2435AA,Zevenhoven,Nieuwkoop,Zuid-Holland,VBO,4.771934,52.194756
Schoolstraat,41,,,2435AA,Zevenhoven,Nieuwkoop,Zuid-Holland,VBO,4.771991,52.194618
Schoolstraat,2,,,2435AB,Zevenhoven,Nieuwkoop,Zuid-Holland,VBO,4.772699,52.193138
Schoolstraat,4,,,2435AB,Zevenhoven,Nieuwkoop,Zuid-Holland,VBO,4.772654,52.193219
Schoolstraat,6,,,2435AB,Zevenhoven,Nieuwkoop,Zuid-Holland,VBO,4.772580,52.193299
Schoolstraat,8,,,2435AB,Zevenhoven,Nieuwkoop,Zuid-Holland,VBO,4.772550,52.193353
Schoolstraat,10,,,2435AB,Zevenhoven,Nieuwkoop,Zuid-Holland,VBO,4.772520,52.193416
Schoolstraat,12,,,2435AB,Zevenhoven,Nieuwkoop,Zuid-Holland,VBO,4.772445,52.193496
Schoolstraat,14,,,2435AB,Zevenhoven,Nieuwkoop,Zuid-Holland,VBO,4.772430,52.193568
Schoolstraat,16,,,2435AB,Zevenhoven,Nieuwkoop,Zuid-Holland,VBO,4.772400,52.193622
Schoolstraat,18,,,2435AB,Zevenhoven,Nieuwkoop,Zuid-Holland,VBO,4.772398,52.193730
Schoolstraat,20,,,2435AB,Zevenhoven,Nieuwkoop,Zuid-Holland,VBO,4.772353,52.193811
Schoolstraat,22,,,2435AB,Zevenhoven,Nieuwkoop,Zuid-Holland,VBO,4.772279,52.193900
Schoolstraat,24,,,2435AB,Zevenhoven,Nieuwkoop,Zuid-Holland,VBO,4.772249,52.193954
Schoolstraat,26,,,2435AB,Zevenhoven,Nieuwkoop,Zuid-Holland,VBO,4.772219,52.194008
Schoolstraat,28,,,2435AB,Zevenhoven,Nieuwkoop,Zuid-Holland,VBO,4.772203,52.194106
Schoolstraat,30,,,2435AB,Zevenhoven,Nieuwkoop,Zuid-Holland,VBO,4.772173,52.194178
Schoolstraat,32,,,2435AB,Zevenhoven,Nieuwkoop,Zuid-Holland,VBO,4.772157,52.194223
Schoolstraat,34,,,2435AB,Zevenhoven,Nieuwkoop,Zuid-Holland,VBO,4.772127,52.194304
Schoolstraat,36,,,2435AB,Zevenhoven,Nieuwkoop,Zuid-Holland,VBO,4.772097,52.194393
Schoolstraat,38,,,2435AB,Zevenhoven,Nieuwkoop,Zuid-Holland,VBO,4.772227,52.194457
Schoolstraat,40,,,2435AB,Zevenhoven,Nieuwkoop,Zuid-Holland,VBO,4.772329,52.194494
Schoolstraat,42,,,2435AB,Zevenhoven,Nieuwkoop,Zuid-Holland,VBO,4.772388,52.194512
Schoolstraat,44,,,2435AB,Zevenhoven,Nieuwkoop,Zuid-Holland,VBO,4.772578,52.194513
Noordeinde,1,,,2435AC,Zevenhoven,Nieuwkoop,Zuid-Holland,VBO,4.777247,52.186789
Noordeinde,2,,,2435AC,Zevenhoven,Nieuwkoop,Zuid-Holland,VBO,4.775948,52.189776
Noordeinde,3,A,,2435AC,Zevenhoven,Nieuwkoop,Zuid-Holland,VBO,4.777215,52.186987
Noordeinde,3,B,,2435AC,Zevenhoven,Nieuwkoop,Zuid-Holland,VBO,4.777111,52.187076
Noordeinde,3,C,,2435AC,Zevenhoven,Nieuwkoop,Zuid-Holland,VBO,4.777037,52.187148
Noordeinde,3,,,2435AC,Zevenhoven,Nieuwkoop,Zuid-Holland,VBO,4.777245,52.186915
Noordeinde,4,,,2435AC,Zevenhoven,Nieuwkoop,Zuid-Holland,VBO,4.775813,52.190045
Noordeinde,5,,,2435AC,Zevenhoven,Nieuwkoop,Zuid-Holland,VBO,4.776875,52.187228
Noordeinde,6,A,,2435AC,Zevenhoven,Nieuwkoop,Zuid-Holland,VBO,4.775634,52.190268
Noordeinde,6,B,,2435AC,Zevenhoven,Nieuwkoop,Zuid-Holland,VBO,4.775063,52.191293
Noordeinde,7,,,2435AC,Zevenhoven,Nieuwkoop,Zuid-Holland,VBO,4.776679,52.187622
Noordeinde,11,,,2435AC,Zevenhoven,Nieuwkoop,Zuid-Holland,VBO,4.775636,52.187985
Noordeinde,13,,,2435AC,Zevenhoven,Nieuwkoop,Zuid-Holland,VBO,4.774140,52.190422
Noordeinde,8,,,2435AD,Zevenhoven,Nieuwkoop,Zuid-Holland,VBO,4.774840,52.191675
Noordeinde,10,,,2435AD,Zevenhoven,Nieuwkoop,Zuid-Holland,VBO,4.774691,52.191845
Noordeinde,14,,,2435AD,Zevenhoven,Nieuwkoop,Zuid-Holland,VBO,4.774499,52.192006
Noordeinde,15,,,2435AD,Zevenhoven,Nieuwkoop,Zuid-Holland,VBO,4.774691,52.190767
Noordeinde,16,,,2435AD,Zevenhoven,Nieuwkoop,Zuid-Holland,VBO,4.774454,52.192096
Noordeinde,17,,,2435AD,Zevenhoven,Nieuwkoop,Zuid-Holland,VBO,4.774646,52.190856
Noordeinde,18,,,2435AD,Zevenhoven,Nieuwkoop,Zuid-Holland,VBO,4.774394,52.192238
Noordeinde,19,,,2435AD,Zevenhoven,Nieuwkoop,Zuid-Holland,VBO,4.774601,52.190928
Noordeinde,21,,,2435AD,Zevenhoven,Nieuwkoop,Zuid-Holland,VBO,4.774556,52.191036
Noordeinde,23,,,2435AD,Zevenhoven,Nieuwkoop,Zuid-Holland,VBO,4.774496,52.191116
Noordeinde,25,,,2435AD,Zevenhoven,Nieuwkoop,Zuid-Holland,VBO,4.774452,52.191188
Noordeinde,27,,,2435AD,Zevenhoven,Nieuwkoop,Zuid-Holland,VBO,4.774289,52.191331
Noordeinde,29,,,2435AD,Zevenhoven,Nieuwkoop,Zuid-Holland,VBO,4.774199,52.191456
Noordeinde,31,,,2435AD,Zevenhoven,Nieuwkoop,Zuid-Holland,VBO,4.774153,52.191609
Noordeinde,33,,,2435AD,Zevenhoven,Nieuwkoop,Zuid-Holland,VBO,4.774107,52.191752
Noordeinde,35,,,2435AD,Zevenhoven,Nieuwkoop,Zuid-Holland,VBO,4.773828,52.191886
Tochtpad,1,,,2435AD,Zevenhoven,Nieuwkoop,Zuid-Holland,VBO,4.770429,52.191248
Noordeinde,20,,,2435AE,Zevenhoven,Nieuwkoop,Zuid-Holland,VBO,4.774276,52.192637
Noordeinde,22,,,2435AE,Zevenhoven,Nieuwkoop,Zuid-Holland,VBO,4.773987,52.193100
Noordeinde,49,,,2435AE,Zevenhoven,Nieuwkoop,Zuid-Holland,VBO,4.773660,52.192388
Noordeinde,51,,,2435AE,Zevenhoven,Nieuwkoop,Zuid-Holland,VBO,4.773615,52.192469
Noordeinde,53,,,2435AE,Zevenhoven,Nieuwkoop,Zuid-Holland,VBO,4.773584,52.192568
Noordeinde,55,,,2435AE,Zevenhoven,Nieuwkoop,Zuid-Holland,VBO,4.773539,52.192648
Noordeinde,57,,,2435AE,Zevenhoven,Nieuwkoop,Zuid-Holland,VBO,4.773420,52.192809
Noordeinde,24,A,,2435AG,Zevenhoven,Nieuwkoop,Zuid-Holland,VBO,4.773763,52.193368
Noordeinde,24,B,,2435AG,Zevenhoven,Nieuwkoop,Zuid-Holland,VBO,4.774478,52.193483
Noordeinde,24,,,2435AG,Zevenhoven,Nieuwkoop,Zuid-Holland,VBO,4.773897,52.193225
Noordeinde,26,,,2435AG,Zevenhoven,Nieuwkoop,Zuid-Holland,VBO,4.773979,52.193612
Noordeinde,28,,,2435AG,Zevenhoven,Nieuwkoop,Zuid-Holland,VBO,4.774123,52.193811
Noordeinde,30,,,2435AG,Zevenhoven,Nieuwkoop,Zuid-Holland,VBO,4.773548,52.194140
Noordeinde,32,A,,2435AG,Zevenhoven,Nieuwkoop,Zuid-Holland,VBO,4.773427,52.194409
Noordeinde,32,,,2435AG,Zevenhoven,Nieuwkoop,Zuid-Holland,VBO,4.773516,52.194311
Noordeinde,34,,,2435AG,Zevenhoven,Nieuwkoop,Zuid-Holland,VBO,4.773366,52.194625
Noordeinde,36,,,2435AG,Zevenhoven,Nieuwkoop,Zuid-Holland,VBO,4.773227,52.195181
Noordeinde,59,,,2435AG,Zevenhoven,Nieuwkoop,Zuid-Holland,VBO,4.773208,52.193321
Noordeinde,61,,,2435AG,Zevenhoven,Nieuwkoop,Zuid-Holland,VBO,4.773309,52.193465
Noordeinde,63,A,,2435AG,Zevenhoven,Nieuwkoop,Zuid-Holland,VBO,4.773248,52.193635
Noordeinde,63,,,2435AG,Zevenhoven,Nieuwkoop,Zuid-Holland,VBO,4.773190,52.193563
Noordeinde,65,,,2435AG,Zevenhoven,Nieuwkoop,Zuid-Holland,VBO,4.773188,52.193743
Noordeinde,67,,,2435AG,Zevenhoven,Nieuwkoop,Zuid-Holland,VBO,4.773158,52.193797
Noordeinde,69,,,2435AG,Zevenhoven,Nieuwkoop,Zuid-Holland,VBO,4.773128,52.193842
Noordeinde,71,,,2435AG,Zevenhoven,Nieuwkoop,Zuid-Holland,VBO,4.773127,52.193949
Noordeinde,77,,,2435AG,Zevenhoven,Nieuwkoop,Zuid-Holland,VBO,4.773008,52.194075
Noordeinde,79,,,2435AG,Zevenhoven,Nieuwkoop,Zuid-Holland,VBO,4.773036,52.194156
Noordeinde,81,,,2435AG,Zevenhoven,Nieuwkoop,Zuid-Holland,VBO,4.772916,52.194362
Noordeinde,85,,,2435AG,Zevenhoven,Nieuwkoop,Zuid-Holland,VBO,4.772738,52.194541
Noordeinde,87,,,2435AH,Zevenhoven,Nieuwkoop,Zuid-Holland,VBO,4.772560,52.194764
Noordeinde,89,,,2435AH,Zevenhoven,Nieuwkoop,Zuid-Holland,VBO,4.772544,52.194827
Noordeinde,91,,,2435AH,Zevenhoven,Nieuwkoop,Zuid-Holland,VBO,4.772514,52.194881
Noordeinde,93,,,2435AH,Zevenhoven,Nieuwkoop,Zuid-Holland,VBO,4.772484,52.194962
Noordeinde,95,,,2435AH,Zevenhoven,Nieuwkoop,Zuid-Holland,VBO,4.772453,52.195033
Noordeinde,97,A,,2435AH,Zevenhoven,Nieuwkoop,Zuid-Holland,VBO,4.772553,52.195250
Noordeinde,97,,,2435AH,Zevenhoven,Nieuwkoop,Zuid-Holland,VBO,4.772438,52.195087
Noordeinde,99,,,2435AH,Zevenhoven,Nieuwkoop,Zuid-Holland,VBO,4.771637,52.195937
Dorpsstraat,1,,,2435AJ,Zevenhoven,Nieuwkoop,Zuid-Holland,VBO,4.782993,52.180320
Dorpsstraat,3,,,2435AJ,Zevenhoven,Nieuwkoop,Zuid-Holland,VBO,4.782948,52.180401
Dorpsstraat,5,,,2435AJ,Zevenhoven,Nieuwkoop,Zuid-Holland,VBO,4.782952,52.180403
Dorpsstraat,7,,,2435AJ,Zevenhoven,Nieuwkoop,Zuid-Holland,VBO,4.782831,52.180463
Dorpsstraat,9,A,,2435AJ,Zevenhoven,Nieuwkoop,Zuid-Holland,VBO,4.782741,52.180625
Dorpsstraat,9,C,,2435AJ,Zevenhoven,Nieuwkoop,Zuid-Holland,VBO,4.782679,52.180593
Dorpsstraat,9,,,2435AJ,Zevenhoven,Nieuwkoop,Zuid-Holland,VBO,4.782727,52.180553
Dorpsstraat,11,,,2435AJ,Zevenhoven,Nieuwkoop,Zuid-Holland,VBO,4.782536,52.180651
Dorpsstraat,12,,,2435AJ,Zevenhoven,Nieuwkoop,Zuid-Holland,VBO,4.783249,52.180870
Dorpsstraat,13,,,2435AJ,Zevenhoven,Nieuwkoop,Zuid-Holland,VBO,4.782593,52.180750
Dorpsstraat,14,,,2435AJ,Zevenhoven,Nieuwkoop,Zuid-Holland,VBO,4.782925,52.181039
Dorpsstraat,15,,,2435AJ,Zevenhoven,Nieuwkoop,Zuid-Holland,VBO,4.782566,52.180813
Dorpsstraat,16,,,2435AJ,Zevenhoven,Nieuwkoop,Zuid-Holland,VBO,4.782895,52.181075
Dorpsstraat,17,,,2435AJ,Zevenhoven,Nieuwkoop,Zuid-Holland,VBO,4.782533,52.180875
Dorpsstraat,18,A,,2435AJ,Zevenhoven,Nieuwkoop,Zuid-Holland,VBO,4.782830,52.181483
Dorpsstraat,18,,,2435AJ,Zevenhoven,Nieuwkoop,Zuid-Holland,VBO,4.782601,52.181244
Dorpsstraat,20,,,2435AJ,Zevenhoven,Nieuwkoop,Zuid-Holland,VBO,4.782436,52.181531
Dorpsstraat,21,,,2435AJ,Zevenhoven,Nieuwkoop,Zuid-Holland,VBO,4.782342,52.180946
Dorpsstraat,25,,,2435AJ,Zevenhoven,Nieuwkoop,Zuid-Holland,VBO,4.782222,52.181116
Dorpsstraat,22,A,,2435AK,Zevenhoven,Nieuwkoop,Zuid-Holland,VBO,4.782417,52.181863
Dorpsstraat,22,,,2435AK,Zevenhoven,Nieuwkoop,Zuid-Holland,VBO,4.782257,52.181809
Dorpsstraat,24,,,2435AK,Zevenhoven,Nieuwkoop,Zuid-Holland,VBO,4.781962,52.181987
Dorpsstraat,28,,,2435AK,Zevenhoven,Nieuwkoop,Zuid-Holland,VBO,4.781814,52.182139
Dorpsstraat,29,A,,2435AK,Zevenhoven,Nieuwkoop,Zuid-Holland,VBO,4.782061,52.181218
Dorpsstraat,29,,,2435AK,Zevenhoven,Nieuwkoop,Zuid-Holland,VBO,4.782030,52.181277
Dorpsstraat,31,,,2435AK,Zevenhoven,Nieuwkoop,Zuid-Holland,VBO,4.781999,52.181430
Dorpsstraat,32,,,2435AK,Zevenhoven,Nieuwkoop,Zuid-Holland,VBO,4.781724,52.182273
Dorpsstraat,33,A,,2435AK,Zevenhoven,Nieuwkoop,Zuid-Holland,VBO,4.781806,52.181591
Dorpsstraat,33,,,2435AK,Zevenhoven,Nieuwkoop,Zuid-Holland,VBO,4.781870,52.181539
Dorpsstraat,34,,,2435AK,Zevenhoven,Nieuwkoop,Zuid-Holland,VBO,4.781665,52.182336
Dorpsstraat,35,,,2435AK,Zevenhoven,Nieuwkoop,Zuid-Holland,VBO,4.781658,52.181761
Dorpsstraat,37,,,2435AK,Zevenhoven,Nieuwkoop,Zuid-Holland,VBO,4.781598,52.181841
Dorpsstraat,38,,,2435AK,Zevenhoven,Nieuwkoop,Zuid-Holland,VBO,4.781501,52.182533
Dorpsstraat,39,,,2435AK,Zevenhoven,Nieuwkoop,Zuid-Holland,VBO,4.781553,52.181931
Dorpsstraat,40,A,,2435AK,Zevenhoven,Nieuwkoop,Zuid-Holland,VBO,4.781026,52.183043
Dorpsstraat,40,B,,2435AK,Zevenhoven,Nieuwkoop,Zuid-Holland,VBO,4.780982,52.183105
Dorpsstraat,40,,,2435AK,Zevenhoven,Nieuwkoop,Zuid-Holland,VBO,4.781191,52.182792
Dorpsstraat,41,,,2435AK,Zevenhoven,Nieuwkoop,Zuid-Holland,VBO,4.781494,52.181994
Dorpsstraat,43,,,2435AK,Zevenhoven,Nieuwkoop,Zuid-Holland,VBO,4.781390,52.182101
Dorpsstraat,45,,,2435AK,Zevenhoven,Nieuwkoop,Zuid-Holland,VBO,4.781346,52.182155
Dorpsstraat,47,,,2435AK,Zevenhoven,Nieuwkoop,Zuid-Holland,VBO,4.781301,52.182199
Dorpsstraat,49,,,2435AK,Zevenhoven,Nieuwkoop,Zuid-Holland,VBO,4.781183,52.182306
Dorpsstraat,51,,,2435AK,Zevenhoven,Nieuwkoop,Zuid-Holland,VBO,4.781020,52.182423
Dorpsstraat,53,,,2435AK,Zevenhoven,Nieuwkoop,Zuid-Holland,VBO,4.780976,52.182476
Dorpsstraat,42,,,2435AL,Zevenhoven,Nieuwkoop,Zuid-Holland,VBO,4.780862,52.183285
Dorpsstraat,44,,,2435AL,Zevenhoven,Nieuwkoop,Zuid-Holland,VBO,4.780726,52.183598
Dorpsstraat,46,,,2435AL,Zevenhoven,Nieuwkoop,Zuid-Holland,VBO,4.780636,52.183787
Dorpsstraat,65,,,2435AL,Zevenhoven,Nieuwkoop,Zuid-Holland,VBO,4.780724,52.182718
Dorpsstraat,67,,,2435AL,Zevenhoven,Nieuwkoop,Zuid-Holland,VBO,4.780561,52.182861
Dorpsstraat,69,,,2435AL,Zevenhoven,Nieuwkoop,Zuid-Holland,VBO,4.780486,52.182968
Dorpsstraat,73,,,2435AL,Zevenhoven,Nieuwkoop,Zuid-Holland,VBO,4.780295,52.183075
Dorpsstraat,77,,,2435AL,Zevenhoven,Nieuwkoop,Zuid-Holland,VBO,4.780320,52.183354
Dorpsstraat,91,,,2435AL,Zevenhoven,Nieuwkoop,Zuid-Holland,VBO,4.779757,52.183899
Dorpsstraat,93,,,2435AL,Zevenhoven,Nieuwkoop,Zuid-Holland,VBO,4.779653,52.184042
Dorpsstraat,48,,,2435AM,Zevenhoven,Nieuwkoop,Zuid-Holland,VBO,4.780503,52.183921
Dorpsstraat,52,,,2435AM,Zevenhoven,Nieuwkoop,Zuid-Holland,VBO,4.780368,52.184127
Dorpsstraat,54,,,2435AM,Zevenhoven,Nieuwkoop,Zuid-Holland,VBO,4.780264,52.184234
Dorpsstraat,56,,,2435AM,Zevenhoven,Nieuwkoop,Zuid-Holland,VBO,4.780220,52.184288
Dorpsstraat,58,,,2435AM,Zevenhoven,Nieuwkoop,Zuid-Holland,VBO,4.779809,52.184394
Dorpsstraat,60,A,,2435AM,Zevenhoven,Nieuwkoop,Zuid-Holland,VBO,4.779596,52.184995
Dorpsstraat,60,,,2435AM,Zevenhoven,Nieuwkoop,Zuid-Holland,VBO,4.779773,52.184888
Dorpsstraat,62,,,2435AM,Zevenhoven,Nieuwkoop,Zuid-Holland,VBO,4.779345,52.185173
Dorpsstraat,95,,,2435AM,Zevenhoven,Nieuwkoop,Zuid-Holland,VBO,4.779499,52.184118
Dorpsstraat,101,,,2435AM,Zevenhoven,Nieuwkoop,Zuid-Holland,VBO,4.779431,52.184230
Dorpsstraat,103,,,2435AM,Zevenhoven,Nieuwkoop,Zuid-Holland,VBO,4.779268,52.184418
Dorpsstraat,105,,,2435AM,Zevenhoven,Nieuwkoop,Zuid-Holland,VBO,4.779223,52.184472
Dorpsstraat,115,A,,2435AM,Zevenhoven,Nieuwkoop,Zuid-Holland,VBO,4.778155,52.185719
Dorpsstraat,115,B,,2435AM,Zevenhoven,Nieuwkoop,Zuid-Holland,VBO,4.777993,52.185849
Dorpsstraat,115,,,2435AM,Zevenhoven,Nieuwkoop,Zuid-Holland,VBO,4.778466,52.185193
Dorpsstraat,117,A,,2435AM,Zevenhoven,Nieuwkoop,Zuid-Holland,VBO,4.777165,52.186312
Dorpsstraat,117,,,2435AM,Zevenhoven,Nieuwkoop,Zuid-Holland,VBO,4.777243,52.185998
Dorpsstraat,119,,,2435AM,Zevenhoven,Nieuwkoop,Zuid-Holland,VBO,4.777483,52.186629
Dorpsstraat,121,,,2435AM,Zevenhoven,Nieuwkoop,Zuid-Holland,VBO,4.777309,52.186727
Stationsweg,3,A,,2435AN,Zevenhoven,Nieuwkoop,Zuid-Holland,VBO,4.783040,52.179953
Stationsweg,3,B,,2435AN,Zevenhoven,Nieuwkoop,Zuid-Holland,VBO,4.783040,52.179953
Stationsweg,3,C,,2435AN,Zevenhoven,Nieuwkoop,Zuid-Holland,VBO,4.783117,52.179890
Stationsweg,3,D,,2435AN,Zevenhoven,Nieuwkoop,Zuid-Holland,VBO,4.783117,52.179890
Stationsweg,3,E,,2435AN,Zevenhoven,Nieuwkoop,Zuid-Holland,VBO,4.783163,52.179816
Stationsweg,3,G,,2435AN,Zevenhoven,Nieuwkoop,Zuid-Holland,VBO,4.783226,52.179848
Stationsweg,3,H,,2435AN,Zevenhoven,Nieuwkoop,Zuid-Holland,VBO,4.783167,52.179649
Stationsweg,3,J,,2435AN,Zevenhoven,Nieuwkoop,Zuid-Holland,VBO,4.783226,52.179684
Stationsweg,3,K,,2435AN,Zevenhoven,Nieuwkoop,Zuid-Holland,VBO,4.783259,52.179590
Stationsweg,3,L,,2435AN,Zevenhoven,Nieuwkoop,Zuid-Holland,VBO,4.783321,52.179624
Stationsweg,3,M,,2435AN,Zevenhoven,Nieuwkoop,Zuid-Holland,VBO,4.783417,52.179569
Stationsweg,3,N,,2435AN,Zevenhoven,Nieuwkoop,Zuid-Holland,VBO,4.783354,52.179528
Stationsweg,3,,,2435AN,Zevenhoven,Nieuwkoop,Zuid-Holland,VBO,4.782985,52.180043
Stationsweg,5,A,,2435AN,Zevenhoven,Nieuwkoop,Zuid-Holland,VBO,4.782634,52.179878
Stationsweg,7,A,,2435AN,Zevenhoven,Nieuwkoop,Zuid-Holland,VBO,4.782184,52.179606
Stationsweg,7,,,2435AN,Zevenhoven,Nieuwkoop,Zuid-Holland,VBO,4.782534,52.179725
Stationsweg,9,A,,2435AN,Zevenhoven,Nieuwkoop,Zuid-Holland,VBO,4.781587,52.179468
Stationsweg,9,,,2435AN,Zevenhoven,Nieuwkoop,Zuid-Holland,VBO,4.781952,52.179497
Stationsweg,11,,,2435AN,Zevenhoven,Nieuwkoop,Zuid-Holland,VBO,4.781340,52.179359
Stationsweg,13,A,,2435AN,Zevenhoven,Nieuwkoop,Zuid-Holland,VBO,4.780917,52.179294
Stationsweg,13,,,2435AN,Zevenhoven,Nieuwkoop,Zuid-Holland,VBO,4.781063,52.179268
Stationsweg,15,,,2435AN,Zevenhoven,Nieuwkoop,Zuid-Holland,VBO,4.780683,52.179230
Stationsweg,17,,,2435AN,Zevenhoven,Nieuwkoop,Zuid-Holland,VBO,4.780539,52.179076
Stationsweg,19,,,2435AN,Zevenhoven,Nieuwkoop,Zuid-Holland,VBO,4.780320,52.179075
Stationsweg,21,,,2435AN,Zevenhoven,Nieuwkoop,Zuid-Holland,VBO,4.778936,52.178709
Stationsweg,23,,,2435AN,Zevenhoven,Nieuwkoop,Zuid-Holland,VBO,4.778610,52.177961
Stationsweg,25,,,2435AN,Zevenhoven,Nieuwkoop,Zuid-Holland,VBO,4.770482,52.176804
Stationsweg,34,,,2435AN,Zevenhoven,Nieuwkoop,Zuid-Holland,VBO,4.778754,52.179175
Stationsweg,2,,,2435AP,Zevenhoven,Nieuwkoop,Zuid-Holland,VBO,4.782688,52.180166
Stationsweg,4,,,2435AP,Zevenhoven,Nieuwkoop,Zuid-Holland,VBO,4.782033,52.179983
Stationsweg,6,,,2435AP,Zevenhoven,Nieuwkoop,Zuid-Holland,VBO,4.781887,52.179946
Stationsweg,8,,,2435AP,Zevenhoven,Nieuwkoop,Zuid-Holland,VBO,4.781800,52.179901
Stationsweg,10,A,,2435AP,Zevenhoven,Nieuwkoop,Zuid-Holland,VBO,4.781582,52.179801
Stationsweg,10,B,,2435AP,Zevenhoven,Nieuwkoop,Zuid-Holland,VBO,4.781480,52.179764
Stationsweg,10,,,2435AP,Zevenhoven,Nieuwkoop,Zuid-Holland,VBO,4.781669,52.179873
Stationsweg,12,,,2435AP,Zevenhoven,Nieuwkoop,Zuid-Holland,VBO,4.780605,52.179589
Stationsweg,14,,,2435AP,Zevenhoven,Nieuwkoop,Zuid-Holland,VBO,4.780533,52.179535
Stationsweg,16,A,,2435AP,Zevenhoven,Nieuwkoop,Zuid-Holland,VBO,4.780324,52.179493
Stationsweg,16,,,2435AP,Zevenhoven,Nieuwkoop,Zuid-Holland,VBO,4.780446,52.179516
Stationsweg,18,,,2435AP,Zevenhoven,Nieuwkoop,Zuid-Holland,VBO,4.780227,52.179461
Stationsweg,20,,,2435AP,Zevenhoven,Nieuwkoop,Zuid-Holland,VBO,4.780140,52.179443
Stationsweg,22,A,,2435AP,Zevenhoven,Nieuwkoop,Zuid-Holland,VBO,4.779921,52.179401
Stationsweg,22,,,2435AP,Zevenhoven,Nieuwkoop,Zuid-Holland,VBO,4.780038,52.179424
Stationsweg,24,,,2435AP,Zevenhoven,Nieuwkoop,Zuid-Holland,VBO,4.779833,52.179387
Stationsweg,26,,,2435AP,Zevenhoven,Nieuwkoop,Zuid-Holland,VBO,4.779731,52.179351
Stationsweg,28,,,2435AP,Zevenhoven,Nieuwkoop,Zuid-Holland,VBO,4.779585,52.179341
Stationsweg,30,,,2435AP,Zevenhoven,Nieuwkoop,Zuid-Holland,VBO,4.779206,52.179294
Stationsweg,32,,,2435AP,Zevenhoven,Nieuwkoop,Zuid-Holland,VBO,4.779002,52.179257
Stationsweg,36,,,2435AP,Zevenhoven,Nieuwkoop,Zuid-Holland,VBO,4.773785,52.177972
Zuideinde,1,,,2435AR,Zevenhoven,Nieuwkoop,Zuid-Holland,VBO,4.783653,52.180216
Zuideinde,7,,,2435AR,Zevenhoven,Nieuwkoop,Zuid-Holland,VBO,4.784079,52.180020
Zuideinde,8,A,,2435AR,Zevenhoven,Nieuwkoop,Zuid-Holland,VBO,4.783202,52.179991
Zuideinde,8,,,2435AR,Zevenhoven,Nieuwkoop,Zuid-Holland,VBO,4.783379,52.179936
Zuideinde,9,,,2435AR,Zevenhoven,Nieuwkoop,Zuid-Holland,VBO,4.784111,52.179877
Zuideinde,10,,,2435AR,Zevenhoven,Nieuwkoop,Zuid-Holland,VBO,4.783480,52.179792
Zuideinde,11,A,,2435AR,Zevenhoven,Nieuwkoop,Zuid-Holland,VBO,4.784392,52.179600
Zuideinde,11,,,2435AR,Zevenhoven,Nieuwkoop,Zuid-Holland,VBO,4.784304,52.179662
Zuideinde,12,,,2435AR,Zevenhoven,Nieuwkoop,Zuid-Holland,VBO,4.783615,52.179766
Zuideinde,13,,,2435AR,Zevenhoven,Nieuwkoop,Zuid-Holland,VBO,4.784672,52.179448
Zuideinde,14,,,2435AR,Zevenhoven,Nieuwkoop,Zuid-Holland,VBO,4.783718,52.179722
Zuideinde,16,,,2435AR,Zevenhoven,Nieuwkoop,Zuid-Holland,VBO,4.783860,52.179637
Zuideinde,15,,,2435AS,Zevenhoven,Nieuwkoop,Zuid-Holland,VBO,4.784909,52.179207
Zuideinde,17,,,2435AS,Zevenhoven,Nieuwkoop,Zuid-Holland,VBO,4.784968,52.179162
Zuideinde,18,A,,2435AS,Zevenhoven,Nieuwkoop,Zuid-Holland,VBO,4.783999,52.179481
Zuideinde,18,,,2435AS,Zevenhoven,Nieuwkoop,Zuid-Holland,VBO,4.783910,52.179561
Zuideinde,19,,,2435AS,Zevenhoven,Nieuwkoop,Zuid-Holland,VBO,4.785027,52.179117
Zuideinde,20,A,,2435AS,Zevenhoven,Nieuwkoop,Zuid-Holland,VBO,4.784191,52.179338
Zuideinde,20,,,2435AS,Zevenhoven,Nieuwkoop,Zuid-Holland,VBO,4.784059,52.179355
Zuideinde,21,,,2435AS,Zevenhoven,Nieuwkoop,Zuid-Holland,VBO,4.785072,52.179082
Zuideinde,22,A,,2435AS,Zevenhoven,Nieuwkoop,Zuid-Holland,VBO,4.784339,52.179213
Zuideinde,22,,,2435AS,Zevenhoven,Nieuwkoop,Zuid-Holland,VBO,4.784236,52.179230
Zuideinde,24,,,2435AS,Zevenhoven,Nieuwkoop,Zuid-Holland,VBO,4.784516,52.179079
Zuideinde,26,,,2435AS,Zevenhoven,Nieuwkoop,Zuid-Holland,VBO,4.784678,52.179017
Zuideinde,28,,,2435AS,Zevenhoven,Nieuwkoop,Zuid-Holland,VBO,4.784781,52.178972
Zuideinde,30,,,2435AS,Zevenhoven,Nieuwkoop,Zuid-Holland,VBO,4.784825,52.178946
Zuideinde,23,,,2435AT,Zevenhoven,Nieuwkoop,Zuid-Holland,VBO,4.785161,52.179001
Zuideinde,25,,,2435AT,Zevenhoven,Nieuwkoop,Zuid-Holland,VBO,4.785220,52.178957
Zuideinde,27,,,2435AT,Zevenhoven,Nieuwkoop,Zuid-Holland,VBO,4.785279,52.178912
Zuideinde,29,,,2435AT,Zevenhoven,Nieuwkoop,Zuid-Holland,VBO,4.785323,52.178876
Zuideinde,32,,,2435AT,Zevenhoven,Nieuwkoop,Zuid-Holland,VBO,4.784855,52.178919
Zuideinde,34,,,2435AT,Zevenhoven,Nieuwkoop,Zuid-Holland,VBO,4.784855,52.178865
Zuideinde,35,,,2435AT,Zevenhoven,Nieuwkoop,Zuid-Holland,VBO,4.785514,52.178823
Zuideinde,36,,,2435AT,Zevenhoven,Nieuwkoop,Zuid-Holland,VBO,4.784857,52.178730
Zuideinde,37,A,,2435AT,Zevenhoven,Nieuwkoop,Zuid-Holland,VBO,4.785737,52.178537
Zuideinde,37,,,2435AT,Zevenhoven,Nieuwkoop,Zuid-Holland,VBO,4.786917,52.178875
Zuideinde,38,,,2435AT,Zevenhoven,Nieuwkoop,Zuid-Holland,VBO,4.785138,52.178498
Zuideinde,39,,,2435AT,Zevenhoven,Nieuwkoop,Zuid-Holland,VBO,4.785972,52.178448
Zuideinde,40,A,,2435AT,Zevenhoven,Nieuwkoop,Zuid-Holland,VBO,4.784675,52.178163
Zuideinde,40,,,2435AT,Zevenhoven,Nieuwkoop,Zuid-Holland,VBO,4.784793,52.178038
Zuideinde,41,,,2435AT,Zevenhoven,Nieuwkoop,Zuid-Holland,VBO,4.786031,52.178403
Zuideinde,43,,,2435AT,Zevenhoven,Nieuwkoop,Zuid-Holland,VBO,4.786267,52.178297
Zuideinde,45,,,2435AT,Zevenhoven,Nieuwkoop,Zuid-Holland,VBO,4.786341,52.178234
Molenweg,1,,,2435AV,Zevenhoven,Nieuwkoop,Zuid-Holland,VBO,4.789489,52.176758
Molenweg,2,,,2435AV,Zevenhoven,Nieuwkoop,Zuid-Holland,VBO,4.786372,52.176967
Molenweg,3,,,2435AV,Zevenhoven,Nieuwkoop,Zuid-Holland,VBO,4.795275,52.174801
Molenweg,4,,,2435AV,Zevenhoven,Nieuwkoop,Zuid-Holland,VBO,4.788179,52.176320
Molenweg,5,A,,2435AV,Zevenhoven,Nieuwkoop,Zuid-Holland,VBO,4.802500,52.173325
Molenweg,5,,,2435AV,Zevenhoven,Nieuwkoop,Zuid-Holland,VBO,4.802094,52.173199
Molenweg,8,,,2435AV,Zevenhoven,Nieuwkoop,Zuid-Holland,VBO,4.788138,52.176140
Molenweg,10,,,2435AV,Zevenhoven,Nieuwkoop,Zuid-Holland,VBO,4.794681,52.174412
Vlijtlaan,2,,,2435AW,Zevenhoven,Nieuwkoop,Zuid-Holland,VBO,4.777837,52.185282
Vlijtlaan,4,,,2435AW,Zevenhoven,Nieuwkoop,Zuid-Holland,VBO,4.777413,52.185325
Vlijtlaan,6,,,2435AW,Zevenhoven,Nieuwkoop,Zuid-Holland,VBO,4.777311,52.185289
Witte Kwikstaart,1,,,2435AX,Zevenhoven,Nieuwkoop,Zuid-Holland,VBO,4.777351,52.184534
Witte Kwikstaart,2,,,2435AX,Zevenhoven,Nieuwkoop,Zuid-Holland,VBO,4.777360,52.184929
Witte Kwikstaart,3,,,2435AX,Zevenhoven,Nieuwkoop,Zuid-Holland,VBO,4.777423,52.184552
Witte Kwikstaart,4,,,2435AX,Zevenhoven,Nieuwkoop,Zuid-Holland,VBO,4.777433,52.184930
Witte Kwikstaart,5,,,2435AX,Zevenhoven,Nieuwkoop,Zuid-Holland,VBO,4.777496,52.184570
Witte Kwikstaart,6,,,2435AX,Zevenhoven,Nieuwkoop,Zuid-Holland,VBO,4.777521,52.184930
Witte Kwikstaart,7,,,2435AX,Zevenhoven,Nieuwkoop,Zuid-Holland,VBO,4.777598,52.184589
Witte Kwikstaart,8,,,2435AX,Zevenhoven,Nieuwkoop,Zuid-Holland,VBO,4.777564,52.184984
Witte Kwikstaart,9,,,2435AX,Zevenhoven,Nieuwkoop,Zuid-Holland,VBO,4.777817,52.184662
Witte Kwikstaart,10,,,2435AX,Zevenhoven,Nieuwkoop,Zuid-Holland,VBO,4.777651,52.184985
Witte Kwikstaart,11,,,2435AX,Zevenhoven,Nieuwkoop,Zuid-Holland,VBO,4.777861,52.184608
Witte Kwikstaart,12,,,2435AX,Zevenhoven,Nieuwkoop,Zuid-Holland,VBO,4.777739,52.184985
Witte Kwikstaart,13,,,2435AX,Zevenhoven,Nieuwkoop,Zuid-Holland,VBO,4.777906,52.184555
Witte Kwikstaart,14,,,2435AX,Zevenhoven,Nieuwkoop,Zuid-Holland,VBO,4.777768,52.185030
Witte Kwikstaart,15,,,2435AX,Zevenhoven,Nieuwkoop,Zuid-Holland,VBO,4.777936,52.184510
Witte Kwikstaart,16,,,2435AX,Zevenhoven,Nieuwkoop,Zuid-Holland,VBO,4.777856,52.185031
Witte Kwikstaart,17,,,2435AX,Zevenhoven,Nieuwkoop,Zuid-Holland,VBO,4.777980,52.184456
Witte Kwikstaart,18,,,2435AX,Zevenhoven,Nieuwkoop,Zuid-Holland,VBO,4.777929,52.185031
Witte Kwikstaart,19,,,2435AX,Zevenhoven,Nieuwkoop,Zuid-Holland,VBO,4.777996,52.184402
Witte Kwikstaart,20,,,2435AX,Zevenhoven,Nieuwkoop,Zuid-Holland,VBO,4.777987,52.185067
Witte Kwikstaart,21,,,2435AX,Zevenhoven,Nieuwkoop,Zuid-Holland,VBO,4.777748,52.184356
Witte Kwikstaart,22,,,2435AX,Zevenhoven,Nieuwkoop,Zuid-Holland,VBO,4.778074,52.185068
Witte Kwikstaart,23,,,2435AX,Zevenhoven,Nieuwkoop,Zuid-Holland,VBO,4.777660,52.184329
Witte Kwikstaart,24,,,2435AX,Zevenhoven,Nieuwkoop,Zuid-Holland,VBO,4.778181,52.184763
Witte Kwikstaart,25,,,2435AX,Zevenhoven,Nieuwkoop,Zuid-Holland,VBO,4.777573,52.184310
Witte Kwikstaart,26,,,2435AX,Zevenhoven,Nieuwkoop,Zuid-Holland,VBO,4.778255,52.184655
Witte Kwikstaart,27,,,2435AX,Zevenhoven,Nieuwkoop,Zuid-Holland,VBO,4.777500,52.184292
Witte Kwikstaart,28,,,2435AX,Zevenhoven,Nieuwkoop,Zuid-Holland,VBO,4.778315,52.184593
Witte Kwikstaart,30,,,2435AX,Zevenhoven,Nieuwkoop,Zuid-Holland,VBO,4.778375,52.184485
Witte Kwikstaart,32,,,2435AX,Zevenhoven,Nieuwkoop,Zuid-Holland,VBO,4.778419,52.184422
Witte Kwikstaart,34,,,2435AX,Zevenhoven,Nieuwkoop,Zuid-Holland,VBO,4.778523,52.184315
Witte Kwikstaart,36,,,2435AX,Zevenhoven,Nieuwkoop,Zuid-Holland,VBO,4.778539,52.184252
Boerenzwaluw,1,,,2435AZ,Zevenhoven,Nieuwkoop,Zuid-Holland,VBO,4.777766,52.184122
Boerenzwaluw,2,,,2435AZ,Zevenhoven,Nieuwkoop,Zuid-Holland,VBO,4.778159,52.184214
Boerenzwaluw,3,,,2435AZ,Zevenhoven,Nieuwkoop,Zuid-Holland,VBO,4.777796,52.184069
Boerenzwaluw,4,,,2435AZ,Zevenhoven,Nieuwkoop,Zuid-Holland,VBO,4.778189,52.184161
Boerenzwaluw,5,,,2435AZ,Zevenhoven,Nieuwkoop,Zuid-Holland,VBO,4.777825,52.184033
Boerenzwaluw,6,,,2435AZ,Zevenhoven,Nieuwkoop,Zuid-Holland,VBO,4.778219,52.184125
Boerenzwaluw,7,,,2435AZ,Zevenhoven,Nieuwkoop,Zuid-Holland,VBO,4.777855,52.183988
Boerenzwaluw,8,,,2435AZ,Zevenhoven,Nieuwkoop,Zuid-Holland,VBO,4.778249,52.184080
Boerenzwaluw,9,,,2435AZ,Zevenhoven,Nieuwkoop,Zuid-Holland,VBO,4.777875,52.183764
Boerenzwaluw,11,,,2435AZ,Zevenhoven,Nieuwkoop,Zuid-Holland,VBO,4.777991,52.183783
Boerenzwaluw,13,,,2435AZ,Zevenhoven,Nieuwkoop,Zuid-Holland,VBO,4.778136,52.183824
Boerenzwaluw,15,,,2435AZ,Zevenhoven,Nieuwkoop,Zuid-Holland,VBO,4.778307,52.183864
Boerenzwaluw,17,,,2435AZ,Zevenhoven,Nieuwkoop,Zuid-Holland,VBO,4.778402,52.183901
Jonge Zevenhovenseweg,1,,,2435NA,Zevenhoven,Nieuwkoop,Zuid-Holland,VBO,4.784963,52.180663
Jonge Zevenhovenseweg,3,A,,2435NA,Zevenhoven,Nieuwkoop,Zuid-Holland,VBO,4.804832,52.185664
Jonge Zevenhovenseweg,3,,,2435NA,Zevenhoven,Nieuwkoop,Zuid-Holland,VBO,4.805614,52.185800
Jonge Zevenhovenseweg,4,A,,2435NA,Zevenhoven,Nieuwkoop,Zuid-Holland,VBO,4.785036,52.179899
Jonge Zevenhovenseweg,4,,,2435NA,Zevenhoven,Nieuwkoop,Zuid-Holland,VBO,4.784618,52.180221
Jonge Zevenhovenseweg,5,,,2435NA,Zevenhoven,Nieuwkoop,Zuid-Holland,VBO,4.806424,52.186070
Jonge Zevenhovenseweg,6,,,2435NA,Zevenhoven,Nieuwkoop,Zuid-Holland,VBO,4.785960,52.180416
Jonge Zevenhovenseweg,7,,,2435NA,Zevenhoven,Nieuwkoop,Zuid-Holland,VBO,4.810191,52.186901
Jonge Zevenhovenseweg,8,,,2435NA,Zevenhoven,Nieuwkoop,Zuid-Holland,VBO,4.786732,52.180663
Jonge Zevenhovenseweg,10,A,,2435NA,Zevenhoven,Nieuwkoop,Zuid-Holland,VBO,4.787404,52.179980
Jonge Zevenhovenseweg,10,,,2435NA,Zevenhoven,Nieuwkoop,Zuid-Holland,VBO,4.787026,52.180530
Jonge Zevenhovenseweg,12,,,2435NA,Zevenhoven,Nieuwkoop,Zuid-Holland,VBO,4.795198,52.182809
Achterweg,2,A,,2435NB,Zevenhoven,Nieuwkoop,Zuid-Holland,VBO,4.794787,52.184083
Achterweg,2,B,,2435NB,Zevenhoven,Nieuwkoop,Zuid-Holland,VBO,4.794413,52.184702
Achterweg,2,,,2435NB,Zevenhoven,Nieuwkoop,Zuid-Holland,VBO,4.795199,52.183503
Achterweg,4,A,,2435NB,Zevenhoven,Nieuwkoop,Zuid-Holland,VBO,4.793079,52.187140
Achterweg,4,B,,2435NB,Zevenhoven,Nieuwkoop,Zuid-Holland,VBO,4.792681,52.187407
Achterweg,4,,,2435NB,Zevenhoven,Nieuwkoop,Zuid-Holland,VBO,4.793452,52.186575
Achterweg,6,,,2435NB,Zevenhoven,Nieuwkoop,Zuid-Holland,VBO,4.792131,52.188034
Achterweg,8,,,2435NB,Zevenhoven,Nieuwkoop,Zuid-Holland,VBO,4.790395,52.191000
Achterweg,10,,,2435NB,Zevenhoven,Nieuwkoop,Zuid-Holland,VBO,4.790273,52.191395
Hogedijk,1,,,2435NC,Zevenhoven,Nieuwkoop,Zuid-Holland,VBO,4.835041,52.180602
Hogedijk,2,,,2435NC,Zevenhoven,Nieuwkoop,Zuid-Holland,VBO,4.829192,52.174831
Hogedijk,3,A,,2435NC,Zevenhoven,Nieuwkoop,Zuid-Holland,VBO,4.832843,52.181812
Hogedijk,3,,,2435NC,Zevenhoven,Nieuwkoop,Zuid-Holland,VBO,4.833024,52.181752
Hogedijk,4,A,,2435NC,Zevenhoven,Nieuwkoop,Zuid-Holland,VBO,4.829969,52.174646
Hogedijk,4,,,2435NC,Zevenhoven,Nieuwkoop,Zuid-Holland,VBO,4.830715,52.174614
Hogedijk,5,,,2435NC,Zevenhoven,Nieuwkoop,Zuid-Holland,VBO,4.830476,52.183982
Hogedijk,6,,,2435NC,Zevenhoven,Nieuwkoop,Zuid-Holland,VBO,4.829329,52.175551
Hogedijk,8,,,2435NC,Zevenhoven,Nieuwkoop,Zuid-Holland,VBO,4.828918,52.175684
Hogedijk,9,A,,2435NC,Zevenhoven,Nieuwkoop,Zuid-Holland,VBO,4.827942,52.185750
Hogedijk,9,B,,2435NC,Zevenhoven,Nieuwkoop,Zuid-Holland,VBO,4.827700,52.185934
Hogedijk,9,,,2435NC,Zevenhoven,Nieuwkoop,Zuid-Holland,VBO,4.828302,52.185555
Hogedijk,10,A,,2435NC,Zevenhoven,Nieuwkoop,Zuid-Holland,VBO,4.829171,52.176064
Hogedijk,10,B,,2435NC,Zevenhoven,Nieuwkoop,Zuid-Holland,VBO,4.829279,52.176108
Hogedijk,10,C,,2435NC,Zevenhoven,Nieuwkoop,Zuid-Holland,VBO,4.832074,52.184067
Hogedijk,10,,,2435NC,Zevenhoven,Nieuwkoop,Zuid-Holland,VBO,4.829930,52.176443
Hogedijk,11,A,,2435NC,Zevenhoven,Nieuwkoop,Zuid-Holland,VBO,4.822984,52.186844
Hogedijk,11,,,2435NC,Zevenhoven,Nieuwkoop,Zuid-Holland,VBO,4.823269,52.186938
Hogedijk,12,,,2435NC,Zevenhoven,Nieuwkoop,Zuid-Holland,VBO,4.826909,52.187826
Hogedijk,13,,,2435NC,Zevenhoven,Nieuwkoop,Zuid-Holland,VBO,4.820475,52.187751
Hogedijk,15,A,,2435ND,Zevenhoven,Nieuwkoop,Zuid-Holland,VBO,4.817971,52.189177
Hogedijk,15,,,2435ND,Zevenhoven,Nieuwkoop,Zuid-Holland,VBO,4.818042,52.189384
Hogedijk,16,A,,2435ND,Zevenhoven,Nieuwkoop,Zuid-Holland,VBO,4.815519,52.192203
Hogedijk,16,B,,2435ND,Zevenhoven,Nieuwkoop,Zuid-Holland,VBO,4.807970,52.194956
Hogedijk,16,,,2435ND,Zevenhoven,Nieuwkoop,Zuid-Holland,VBO,4.826050,52.188038
Hogedijk,17,,,2435ND,Zevenhoven,Nieuwkoop,Zuid-Holland,VBO,4.814275,52.191700
Hogedijk,18,A,,2435ND,Zevenhoven,Nieuwkoop,Zuid-Holland,VBO,4.804685,52.196714
Hogedijk,19,,,2435ND,Zevenhoven,Nieuwkoop,Zuid-Holland,VBO,4.810039,52.193048
Hogedijk,21,,,2435ND,Zevenhoven,Nieuwkoop,Zuid-Holland,VBO,4.808553,52.193724
Hogedijk,23,,,2435ND,Zevenhoven,Nieuwkoop,Zuid-Holland,VBO,4.806389,52.194810
Hogedijk,25,,,2435ND,Zevenhoven,Nieuwkoop,Zuid-Holland,VBO,4.805551,52.195147
Hogedijk,26,A,,2435ND,Zevenhoven,Nieuwkoop,Zuid-Holland,VBO,4.803617,52.196854
Hogedijk,26,,,2435ND,Zevenhoven,Nieuwkoop,Zuid-Holland,VBO,4.804825,52.196950
Hogedijk,27,,,2435ND,Zevenhoven,Nieuwkoop,Zuid-Holland,VBO,4.802661,52.199124
Hogedijk,29,A,,2435ND,Zevenhoven,Nieuwkoop,Zuid-Holland,VBO,4.802022,52.201035
Hogedijk,29,,,2435ND,Zevenhoven,Nieuwkoop,Zuid-Holland,VBO,4.802387,52.199913
Hogedijk,31,,,2435ND,Zevenhoven,Nieuwkoop,Zuid-Holland,VBO,4.801768,52.201438
Hogedijk,33,,,2435ND,Zevenhoven,Nieuwkoop,Zuid-Holland,VBO,4.800681,52.203967
Hogedijk,35,,,2435ND,Zevenhoven,Nieuwkoop,Zuid-Holland,VBO,4.800656,52.204776
Hogedijk,37,A,,2435ND,Zevenhoven,Nieuwkoop,Zuid-Holland,VBO,4.800606,52.206929
Hogedijk,37,,,2435ND,Zevenhoven,Nieuwkoop,Zuid-Holland,VBO,4.800610,52.207167
Hogedijk,39,,,2435ND,Zevenhoven,Nieuwkoop,Zuid-Holland,VBO,4.800487,52.208730
Hogedijk,41,,,2435ND,Zevenhoven,Nieuwkoop,Zuid-Holland,VBO,4.800650,52.209393
Park Sans Souci,1,,,2435NE,Zevenhoven,Nieuwkoop,Zuid-Holland,VBO,4.816785,52.192694
Park Sans Souci,2,,,2435NE,Zevenhoven,Nieuwkoop,Zuid-Holland,VBO,4.817148,52.192921
Park Sans Souci,3,,,2435NE,Zevenhoven,Nieuwkoop,Zuid-Holland,VBO,4.817424,52.193075
Park Sans Souci,3,,,2435NE,Zevenhoven,Nieuwkoop,Zuid-Holland,VBO,4.817449,52.193042
Park Sans Souci,4,,,2435NE,Zevenhoven,Nieuwkoop,Zuid-Holland,VBO,4.817715,52.193202
Park Sans Souci,5,,,2435NE,Zevenhoven,Nieuwkoop,Zuid-Holland,VBO,4.818021,52.193320
Park Sans Souci,6,,,2435NE,Zevenhoven,Nieuwkoop,Zuid-Holland,VBO,4.818531,52.193502
Park Sans Souci,7,,,2435NE,Zevenhoven,Nieuwkoop,Zuid-Holland,VBO,4.818708,52.193288
Park Sans Souci,8,,,2435NE,Zevenhoven,Nieuwkoop,Zuid-Holland,VBO,4.818227,52.193063
Park Sans Souci,9,,,2435NE,Zevenhoven,Nieuwkoop,Zuid-Holland,VBO,4.817953,52.192907
Park Sans Souci,10,,,2435NE,Zevenhoven,Nieuwkoop,Zuid-Holland,VBO,4.817546,52.192725
Park Sans Souci,11,,,2435NE,Zevenhoven,Nieuwkoop,Zuid-Holland,VBO,4.817211,52.192562
Park Sans Souci,12,,,2435NE,Zevenhoven,Nieuwkoop,Zuid-Holland,VBO,4.817508,52.192248
Park Sans Souci,13,A,,2435NE,Zevenhoven,Nieuwkoop,Zuid-Holland,VBO,4.818497,52.192703
Park Sans Souci,13,,,2435NE,Zevenhoven,Nieuwkoop,Zuid-Holland,VBO,4.818061,52.192440
Park Sans Souci,14,,,2435NE,Zevenhoven,Nieuwkoop,Zuid-Holland,VBO,4.818934,52.192813
Park Sans Souci,15,,,2435NE,Zevenhoven,Nieuwkoop,Zuid-Holland,VBO,4.819284,52.192913
Park Sans Souci,16,,,2435NE,Zevenhoven,Nieuwkoop,Zuid-Holland,VBO,4.819447,52.192725
Park Sans Souci,17,,,2435NE,Zevenhoven,Nieuwkoop,Zuid-Holland,VBO,4.819258,52.192652
Park Sans Souci,18,,,2435NE,Zevenhoven,Nieuwkoop,Zuid-Holland,VBO,4.819026,52.192522
Park Sans Souci,19,,,2435NE,Zevenhoven,Nieuwkoop,Zuid-Holland,VBO,4.818690,52.192407
Park Sans Souci,20,,,2435NE,Zevenhoven,Nieuwkoop,Zuid-Holland,VBO,4.818369,52.192217
Park Sans Souci,21,,,2435NE,Zevenhoven,Nieuwkoop,Zuid-Holland,VBO,4.818096,52.192018
Park Sans Souci,22,,,2435NE,Zevenhoven,Nieuwkoop,Zuid-Holland,VBO,4.818522,52.191858
Park Sans Souci,23,,,2435NE,Zevenhoven,Nieuwkoop,Zuid-Holland,VBO,4.819206,52.192149
Park Sans Souci,24,,,2435NE,Zevenhoven,Nieuwkoop,Zuid-Holland,VBO,4.819744,52.192376
Park Zomerlust,1,,,2435NG,Zevenhoven,Nieuwkoop,Zuid-Holland,VBO,4.840106,52.181291
Park Zomerlust,2,,,2435NG,Zevenhoven,Nieuwkoop,Zuid-Holland,VBO,4.840094,52.181102
Park Zomerlust,3,,,2435NG,Zevenhoven,Nieuwkoop,Zuid-Holland,VBO,4.839946,52.181236
Park Zomerlust,4,,,2435NG,Zevenhoven,Nieuwkoop,Zuid-Holland,VBO,4.839655,52.181118
Park Zomerlust,5,,,2435NG,Zevenhoven,Nieuwkoop,Zuid-Holland,VBO,4.839789,52.180966
Park Zomerlust,6,,,2435NG,Zevenhoven,Nieuwkoop,Zuid-Holland,VBO,4.839310,52.180969
Park Zomerlust,7,,,2435NG,Zevenhoven,Nieuwkoop,Zuid-Holland,VBO,4.839497,52.180804
Park Zomerlust,8,,,2435NG,Zevenhoven,Nieuwkoop,Zuid-Holland,VBO,4.839338,52.180748
Park Zomerlust,9,,,2435NG,Zevenhoven,Nieuwkoop,Zuid-Holland,VBO,4.838972,52.180800
Park Zomerlust,10,,,2435NG,Zevenhoven,Nieuwkoop,Zuid-Holland,VBO,4.838812,52.180728
Park Zomerlust,11,,,2435NG,Zevenhoven,Nieuwkoop,Zuid-Holland,VBO,4.838960,52.180612
Park Zomerlust,12,,,2435NG,Zevenhoven,Nieuwkoop,Zuid-Holland,VBO,4.838654,52.180493
Park Zomerlust,13,,,2435NG,Zevenhoven,Nieuwkoop,Zuid-Holland,VBO,4.838390,52.180573
Park Zomerlust,14,,,2435NG,Zevenhoven,Nieuwkoop,Zuid-Holland,VBO,4.838488,52.180388
Park Zomerlust,15,,,2435NG,Zevenhoven,Nieuwkoop,Zuid-Holland,VBO,4.838070,52.180419
Park Zomerlust,16,,,2435NG,Zevenhoven,Nieuwkoop,Zuid-Holland,VBO,4.838203,52.180285
Park Zomerlust,17,,,2435NG,Zevenhoven,Nieuwkoop,Zuid-Holland,VBO,4.838058,52.180194
Park Zomerlust,18,,,2435NG,Zevenhoven,Nieuwkoop,Zuid-Holland,VBO,4.841059,52.181116
Park Zomerlust,19,,,2435NG,Zevenhoven,Nieuwkoop,Zuid-Holland,VBO,4.841236,52.180946
Park Zomerlust,20,,,2435NG,Zevenhoven,Nieuwkoop,Zuid-Holland,VBO,4.841077,52.180801
Park Zomerlust,21,,,2435NG,Zevenhoven,Nieuwkoop,Zuid-Holland,VBO,4.840872,52.180890
Park Zomerlust,22,,,2435NG,Zevenhoven,Nieuwkoop,Zuid-Holland,VBO,4.840695,52.180961
Park Zomerlust,23,,,2435NG,Zevenhoven,Nieuwkoop,Zuid-Holland,VBO,4.840171,52.180752
Park Zomerlust,24,,,2435NG,Zevenhoven,Nieuwkoop,Zuid-Holland,VBO,4.840510,52.180574
Park Zomerlust,25,,,2435NG,Zevenhoven,Nieuwkoop,Zuid-Holland,VBO,4.840131,52.180500
Park Zomerlust,26,,,2435NG,Zevenhoven,Nieuwkoop,Zuid-Holland,VBO,4.839793,52.180580
Park Zomerlust,27,,,2435NG,Zevenhoven,Nieuwkoop,Zuid-Holland,VBO,4.839971,52.180410
Park Zomerlust,28,,,2435NG,Zevenhoven,Nieuwkoop,Zuid-Holland,VBO,4.839343,52.180380
Park Zomerlust,29,,,2435NG,Zevenhoven,Nieuwkoop,Zuid-Holland,VBO,4.839607,52.180273
Park Zomerlust,30,,,2435NG,Zevenhoven,Nieuwkoop,Zuid-Holland,VBO,4.839477,52.180174
Park Zomerlust,31,,,2435NG,Zevenhoven,Nieuwkoop,Zuid-Holland,VBO,4.838848,52.180198
Park Zomerlust,32,,,2435NG,Zevenhoven,Nieuwkoop,Zuid-Holland,VBO,4.839113,52.180037
Park Zomerlust,33,,,2435NG,Zevenhoven,Nieuwkoop,Zuid-Holland,VBO,4.838939,52.179946
Park Zomerlust,34,,,2435NG,Zevenhoven,Nieuwkoop,Zuid-Holland,VBO,4.838514,52.180025
Park Zomerlust,35,,,2435NG,Zevenhoven,Nieuwkoop,Zuid-Holland,VBO,4.838121,52.179835
Park Zomerlust,36,,,2435NG,Zevenhoven,Nieuwkoop,Zuid-Holland,VBO,4.838633,52.179837
Park Zomerlust,37,,,2435NG,Zevenhoven,Nieuwkoop,Zuid-Holland,VBO,4.838517,52.179711
Park Zomerlust,38,,,2435NG,Zevenhoven,Nieuwkoop,Zuid-Holland,VBO,4.841576,52.180696
Park Zomerlust,39,,,2435NG,Zevenhoven,Nieuwkoop,Zuid-Holland,VBO,4.841314,52.180596
Park Zomerlust,40,,,2435NG,Zevenhoven,Nieuwkoop,Zuid-Holland,VBO,4.841417,52.180497
Park Zomerlust,41,,,2435NG,Zevenhoven,Nieuwkoop,Zuid-Holland,VBO,4.840923,52.180297
Park Zomerlust,42,,,2435NG,Zevenhoven,Nieuwkoop,Zuid-Holland,VBO,4.840778,52.180189
Park Zomerlust,43,,,2435NG,Zevenhoven,Nieuwkoop,Zuid-Holland,VBO,4.840790,52.180368
Park Zomerlust,44,,,2435NG,Zevenhoven,Nieuwkoop,Zuid-Holland,VBO,4.840237,52.180141
Park Zomerlust,45,,,2435NG,Zevenhoven,Nieuwkoop,Zuid-Holland,VBO,4.839976,52.179978
Park Zomerlust,46,,,2435NG,Zevenhoven,Nieuwkoop,Zuid-Holland,VBO,4.840283,52.180016
Park Zomerlust,47,,,2435NG,Zevenhoven,Nieuwkoop,Zuid-Holland,VBO,4.840094,52.179871
Park Zomerlust,48,,,2435NG,Zevenhoven,Nieuwkoop,Zuid-Holland,VBO,4.839627,52.179878
Park Zomerlust,49,,,2435NG,Zevenhoven,Nieuwkoop,Zuid-Holland,VBO,4.839467,52.179787
Park Zomerlust,50,,,2435NG,Zevenhoven,Nieuwkoop,Zuid-Holland,VBO,4.839585,52.179698
Park Zomerlust,51,,,2435NG,Zevenhoven,Nieuwkoop,Zuid-Holland,VBO,4.839396,52.179607
Park Zomerlust,52,,,2435NG,Zevenhoven,Nieuwkoop,Zuid-Holland,VBO,4.839090,52.179489
Park Zomerlust,53,,,2435NG,Zevenhoven,Nieuwkoop,Zuid-Holland,VBO,4.838914,52.179551
Park Zomerlust,54,,,2435NG,Zevenhoven,Nieuwkoop,Zuid-Holland,VBO,4.838931,52.179407
Park Zomerlust,55,,,2435NG,Zevenhoven,Nieuwkoop,Zuid-Holland,VBO,4.838451,52.179180
Park Zomerlust,56,,,2435NG,Zevenhoven,Nieuwkoop,Zuid-Holland,VBO,4.838260,52.179233
Park Zomerlust,57,,,2435NG,Zevenhoven,Nieuwkoop,Zuid-Holland,VBO,4.838276,52.179107
Park Zomerlust,58,,,2435NG,Zevenhoven,Nieuwkoop,Zuid-Holland,VBO,4.842061,52.180464
Park Zomerlust,59,,,2435NG,Zevenhoven,Nieuwkoop,Zuid-Holland,VBO,4.842165,52.180357
Park Zomerlust,60,,,2435NG,Zevenhoven,Nieuwkoop,Zuid-Holland,VBO,4.842005,52.180293
Park Zomerlust,61,,,2435NG,Zevenhoven,Nieuwkoop,Zuid-Holland,VBO,4.841363,52.180146
Park Zomerlust,62,,,2435NG,Zevenhoven,Nieuwkoop,Zuid-Holland,VBO,4.841467,52.180039
Park Zomerlust,63,,,2435NG,Zevenhoven,Nieuwkoop,Zuid-Holland,VBO,4.841351,52.179949
Park Zomerlust,64,,,2435NG,Zevenhoven,Nieuwkoop,Zuid-Holland,VBO,4.840869,52.179919
Park Zomerlust,65,,,2435NG,Zevenhoven,Nieuwkoop,Zuid-Holland,VBO,4.840972,52.179821
Park Zomerlust,67,,,2435NG,Zevenhoven,Nieuwkoop,Zuid-Holland,VBO,4.840463,52.179612
Park Zomerlust,68,,,2435NG,Zevenhoven,Nieuwkoop,Zuid-Holland,VBO,4.840273,52.179658
Park Zomerlust,69,,,2435NG,Zevenhoven,Nieuwkoop,Zuid-Holland,VBO,4.840303,52.179539
Park Zomerlust,70,,,2435NG,Zevenhoven,Nieuwkoop,Zuid-Holland,VBO,4.839955,52.179358
Park Zomerlust,71,,,2435NG,Zevenhoven,Nieuwkoop,Zuid-Holland,VBO,4.839633,52.179365
Park Zomerlust,72,,,2435NG,Zevenhoven,Nieuwkoop,Zuid-Holland,VBO,4.839795,52.179285
Park Zomerlust,73,,,2435NG,Zevenhoven,Nieuwkoop,Zuid-Holland,VBO,4.839024,52.178976
Park Zomerlust,74,,,2435NG,Zevenhoven,Nieuwkoop,Zuid-Holland,VBO,4.838746,52.178975
Park Zomerlust,75,,,2435NG,Zevenhoven,Nieuwkoop,Zuid-Holland,VBO,4.838893,52.178868
Park Zomerlust,76,,,2435NG,Zevenhoven,Nieuwkoop,Zuid-Holland,VBO,4.842982,52.179291
Park Zomerlust,77,,,2435NG,Zevenhoven,Nieuwkoop,Zuid-Holland,VBO,4.843159,52.179193
Park Zomerlust,78,,,2435NG,Zevenhoven,Nieuwkoop,Zuid-Holland,VBO,4.842955,52.179093
Park Zomerlust,79,,,2435NG,Zevenhoven,Nieuwkoop,Zuid-Holland,VBO,4.842691,52.179182
Park Zomerlust,80,,,2435NG,Zevenhoven,Nieuwkoop,Zuid-Holland,VBO,4.842781,52.179020
Park Zomerlust,81,,,2435NG,Zevenhoven,Nieuwkoop,Zuid-Holland,VBO,4.842547,52.178965
Park Zomerlust,82,,,2435NG,Zevenhoven,Nieuwkoop,Zuid-Holland,VBO,4.842341,52.179090
Park Zomerlust,83,,,2435NG,Zevenhoven,Nieuwkoop,Zuid-Holland,VBO,4.842329,52.178866
Park Zomerlust,84,,,2435NG,Zevenhoven,Nieuwkoop,Zuid-Holland,VBO,4.842036,52.178900
Park Zomerlust,85,,,2435NG,Zevenhoven,Nieuwkoop,Zuid-Holland,VBO,4.842170,52.178757
Park Zomerlust,86,,,2435NG,Zevenhoven,Nieuwkoop,Zuid-Holland,VBO,4.841951,52.178675
Park Zomerlust,87,,,2435NG,Zevenhoven,Nieuwkoop,Zuid-Holland,VBO,4.841746,52.178728
Park Zomerlust,88,,,2435NG,Zevenhoven,Nieuwkoop,Zuid-Holland,VBO,4.841792,52.178584
Park Zomerlust,89,,,2435NG,Zevenhoven,Nieuwkoop,Zuid-Holland,VBO,4.841528,52.178646
Park Zomerlust,90,,,2435NG,Zevenhoven,Nieuwkoop,Zuid-Holland,VBO,4.841574,52.178476
Park Zomerlust,91,,,2435NG,Zevenhoven,Nieuwkoop,Zuid-Holland,VBO,4.841339,52.178546
Park Zomerlust,92,,,2435NG,Zevenhoven,Nieuwkoop,Zuid-Holland,VBO,4.841355,52.178394
Park Zomerlust,93,,,2435NG,Zevenhoven,Nieuwkoop,Zuid-Holland,VBO,4.841106,52.178482
Park Zomerlust,94,,,2435NG,Zevenhoven,Nieuwkoop,Zuid-Holland,VBO,4.840727,52.178364
Park Zomerlust,95,,,2435NG,Zevenhoven,Nieuwkoop,Zuid-Holland,VBO,4.840846,52.178230
Park Zomerlust,96,,,2435NG,Zevenhoven,Nieuwkoop,Zuid-Holland,VBO,4.841037,52.178141
Park Zomerlust,97,,,2435NG,Zevenhoven,Nieuwkoop,Zuid-Holland,VBO,4.843819,52.179016
Park Zomerlust,98,,,2435NG,Zevenhoven,Nieuwkoop,Zuid-Holland,VBO,4.843952,52.178909
Park Zomerlust,99,,,2435NG,Zevenhoven,Nieuwkoop,Zuid-Holland,VBO,4.843557,52.178889
Park Zomerlust,100,,,2435NG,Zevenhoven,Nieuwkoop,Zuid-Holland,VBO,4.843646,52.178764
Park Zomerlust,101,,,2435NG,Zevenhoven,Nieuwkoop,Zuid-Holland,VBO,4.843179,52.178744
Park Zomerlust,102,,,2435NG,Zevenhoven,Nieuwkoop,Zuid-Holland,VBO,4.843341,52.178646
Park Zomerlust,103,,,2435NG,Zevenhoven,Nieuwkoop,Zuid-Holland,VBO,4.843093,52.178537
Park Zomerlust,104,,,2435NG,Zevenhoven,Nieuwkoop,Zuid-Holland,VBO,4.842801,52.178571
Park Zomerlust,105,,,2435NG,Zevenhoven,Nieuwkoop,Zuid-Holland,VBO,4.842846,52.178410
Park Zomerlust,106,,,2435NG,Zevenhoven,Nieuwkoop,Zuid-Holland,VBO,4.842437,52.178408
Park Zomerlust,107,,,2435NG,Zevenhoven,Nieuwkoop,Zuid-Holland,VBO,4.842511,52.178309
Park Zomerlust,108,,,2435NG,Zevenhoven,Nieuwkoop,Zuid-Holland,VBO,4.842308,52.178200
Park Zomerlust,109,,,2435NG,Zevenhoven,Nieuwkoop,Zuid-Holland,VBO,4.842044,52.178244
Park Zomerlust,110,,,2435NG,Zevenhoven,Nieuwkoop,Zuid-Holland,VBO,4.842119,52.178119
Park Zomerlust,111,,,2435NG,Zevenhoven,Nieuwkoop,Zuid-Holland,VBO,4.841726,52.177964
Park Zomerlust,112,,,2435NG,Zevenhoven,Nieuwkoop,Zuid-Holland,VBO,4.841535,52.178026
Park Zomerlust,113,,,2435NG,Zevenhoven,Nieuwkoop,Zuid-Holland,VBO,4.841537,52.177873
Park Zomerlust,114,,,2435NG,Zevenhoven,Nieuwkoop,Zuid-Holland,VBO,4.841288,52.177908
Park Zomerlust,115,,,2435NG,Zevenhoven,Nieuwkoop,Zuid-Holland,VBO,4.841363,52.177783
Park Zomerlust,116,,,2435NG,Zevenhoven,Nieuwkoop,Zuid-Holland,VBO,4.844394,52.178623
Park Zomerlust,117,,,2435NG,Zevenhoven,Nieuwkoop,Zuid-Holland,VBO,4.844130,52.178658
Park Zomerlust,118,,,2435NG,Zevenhoven,Nieuwkoop,Zuid-Holland,VBO,4.844248,52.178560
Park Zomerlust,119,,,2435NG,Zevenhoven,Nieuwkoop,Zuid-Holland,VBO,4.843825,52.178522
Park Zomerlust,120,,,2435NG,Zevenhoven,Nieuwkoop,Zuid-Holland,VBO,4.843900,52.178351
Park Zomerlust,121,,,2435NG,Zevenhoven,Nieuwkoop,Zuid-Holland,VBO,4.843725,52.178270
Park Zomerlust,122,,,2435NG,Zevenhoven,Nieuwkoop,Zuid-Holland,VBO,4.843534,52.178386
Park Zomerlust,123,,,2435NG,Zevenhoven,Nieuwkoop,Zuid-Holland,VBO,4.843405,52.178133
Park Zomerlust,124,,,2435NG,Zevenhoven,Nieuwkoop,Zuid-Holland,VBO,4.843214,52.178267
Park Zomerlust,125,,,2435NG,Zevenhoven,Nieuwkoop,Zuid-Holland,VBO,4.843100,52.177997
Park Zomerlust,126,,,2435NG,Zevenhoven,Nieuwkoop,Zuid-Holland,VBO,4.842909,52.178113
Park Zomerlust,127,,,2435NG,Zevenhoven,Nieuwkoop,Zuid-Holland,VBO,4.842603,52.177986
Park Zomerlust,128,,,2435NG,Zevenhoven,Nieuwkoop,Zuid-Holland,VBO,4.842766,52.177843
Park Zomerlust,129,,,2435NG,Zevenhoven,Nieuwkoop,Zuid-Holland,VBO,4.842329,52.177688
Park Zomerlust,130,,,2435NG,Zevenhoven,Nieuwkoop,Zuid-Holland,VBO,4.842138,52.177786
Park Zomerlust,131,,,2435NG,Zevenhoven,Nieuwkoop,Zuid-Holland,VBO,4.842140,52.177606
Park Zomerlust,132,,,2435NG,Zevenhoven,Nieuwkoop,Zuid-Holland,VBO,4.841921,52.177533
Park Zomerlust,133,,,2435NG,Zevenhoven,Nieuwkoop,Zuid-Holland,VBO,4.841731,52.177586
Park Zomerlust,134,,,2435NG,Zevenhoven,Nieuwkoop,Zuid-Holland,VBO,4.841805,52.177452
Park Zomerlust,135,,,2435NG,Zevenhoven,Nieuwkoop,Zuid-Holland,VBO,4.844676,52.178220
Park Zomerlust,136,A,,2435NG,Zevenhoven,Nieuwkoop,Zuid-Holland,VBO,4.844809,52.178113
Park Zomerlust,136,,,2435NG,Zevenhoven,Nieuwkoop,Zuid-Holland,VBO,4.844967,52.178356
Park Zomerlust,137,,,2435NG,Zevenhoven,Nieuwkoop,Zuid-Holland,VBO,4.844577,52.177995
Park Zomerlust,138,,,2435NG,Zevenhoven,Nieuwkoop,Zuid-Holland,VBO,4.844093,52.178065
Park Zomerlust,139,,,2435NG,Zevenhoven,Nieuwkoop,Zuid-Holland,VBO,4.844241,52.177949
Park Zomerlust,140,,,2435NG,Zevenhoven,Nieuwkoop,Zuid-Holland,VBO,4.844038,52.177849
Park Zomerlust,141,,,2435NG,Zevenhoven,Nieuwkoop,Zuid-Holland,VBO,4.843744,52.177901
Park Zomerlust,142,,,2435NG,Zevenhoven,Nieuwkoop,Zuid-Holland,VBO,4.843849,52.177722
Park Zomerlust,143,,,2435NG,Zevenhoven,Nieuwkoop,Zuid-Holland,VBO,4.843689,52.177622
Park Zomerlust,144,,,2435NG,Zevenhoven,Nieuwkoop,Zuid-Holland,VBO,4.843454,52.177729
Park Zomerlust,145,,,2435NG,Zevenhoven,Nieuwkoop,Zuid-Holland,VBO,4.843442,52.177517
Park Zomerlust,146,,,2435NG,Zevenhoven,Nieuwkoop,Zuid-Holland,VBO,4.843091,52.177575
Park Zomerlust,147,,,2435NG,Zevenhoven,Nieuwkoop,Zuid-Holland,VBO,4.843253,52.177459
Park Zomerlust,148,,,2435NG,Zevenhoven,Nieuwkoop,Zuid-Holland,VBO,4.842625,52.177411
Park Zomerlust,149,,,2435NG,Zevenhoven,Nieuwkoop,Zuid-Holland,VBO,4.843006,52.177350
Park Zomerlust,150,,,2435NG,Zevenhoven,Nieuwkoop,Zuid-Holland,VBO,4.842861,52.177250
Park Zomerlust,151,,,2435NG,Zevenhoven,Nieuwkoop,Zuid-Holland,VBO,4.842555,52.177150
Park Zomerlust,152,,,2435NG,Zevenhoven,Nieuwkoop,Zuid-Holland,VBO,4.842320,52.177230
Park Zomerlust,153,,,2435NG,Zevenhoven,Nieuwkoop,Zuid-Holland,VBO,4.842410,52.177059
Park Zomerlust,154,,,2435NG,Zevenhoven,Nieuwkoop,Zuid-Holland,VBO,4.837656,52.179572
Park Zomerlust,155,,,2435NG,Zevenhoven,Nieuwkoop,Zuid-Holland,VBO,4.837833,52.179474
Park Zomerlust,156,,,2435NG,Zevenhoven,Nieuwkoop,Zuid-Holland,VBO,4.837701,52.180062
Park Zomerlust,157,,,2435NG,Zevenhoven,Nieuwkoop,Zuid-Holland,VBO,4.842460,52.180089
Park Zomerlust,158,,,2435NG,Zevenhoven,Nieuwkoop,Zuid-Holland,VBO,4.842668,52.179847
Park Zomerlust,159,,,2435NG,Zevenhoven,Nieuwkoop,Zuid-Holland,VBO,4.842787,52.179695
Park Zomerlust,160,,,2435NG,Zevenhoven,Nieuwkoop,Zuid-Holland,VBO,4.839906,52.178558
Park Zomerlust,161,,,2435NG,Zevenhoven,Nieuwkoop,Zuid-Holland,VBO,4.843184,52.179490
Park Zomerlust,162,,,2435NG,Zevenhoven,Nieuwkoop,Zuid-Holland,VBO,4.843479,52.179300
Park Kromme Mijdrecht,1,,,2435NH,Zevenhoven,Nieuwkoop,Zuid-Holland,VBO,4.837321,52.183031
Park Kromme Mijdrecht,2,,,2435NH,Zevenhoven,Nieuwkoop,Zuid-Holland,VBO,4.837191,52.182958
Park Kromme Mijdrecht,3,,,2435NH,Zevenhoven,Nieuwkoop,Zuid-Holland,VBO,4.836955,52.183119
Park Kromme Mijdrecht,4,,,2435NH,Zevenhoven,Nieuwkoop,Zuid-Holland,VBO,4.836780,52.183064
Park Kromme Mijdrecht,5,,,2435NH,Zevenhoven,Nieuwkoop,Zuid-Holland,VBO,4.836929,52.182858
Park Kromme Mijdrecht,6,,,2435NH,Zevenhoven,Nieuwkoop,Zuid-Holland,VBO,4.836813,52.182795
Park Kromme Mijdrecht,7,,,2435NH,Zevenhoven,Nieuwkoop,Zuid-Holland,VBO,4.836185,52.182802
Park Kromme Mijdrecht,8,,,2435NH,Zevenhoven,Nieuwkoop,Zuid-Holland,VBO,4.836082,52.182755
Park Kromme Mijdrecht,9,,,2435NH,Zevenhoven,Nieuwkoop,Zuid-Holland,VBO,4.836231,52.182558
Park Kromme Mijdrecht,10,,,2435NH,Zevenhoven,Nieuwkoop,Zuid-Holland,VBO,4.836115,52.182477
Park Kromme Mijdrecht,11,,,2435NH,Zevenhoven,Nieuwkoop,Zuid-Holland,VBO,4.835835,52.182646
Park Kromme Mijdrecht,12,,,2435NH,Zevenhoven,Nieuwkoop,Zuid-Holland,VBO,4.835689,52.182592
Park Kromme Mijdrecht,13,,,2435NH,Zevenhoven,Nieuwkoop,Zuid-Holland,VBO,4.835518,52.182249
Park Kromme Mijdrecht,14,,,2435NH,Zevenhoven,Nieuwkoop,Zuid-Holland,VBO,4.835137,52.182346
Park Kromme Mijdrecht,15,,,2435NH,Zevenhoven,Nieuwkoop,Zuid-Holland,VBO,4.835402,52.182177
Park Kromme Mijdrecht,16,,,2435NH,Zevenhoven,Nieuwkoop,Zuid-Holland,VBO,4.834976,52.182301
Park Kromme Mijdrecht,17,,,2435NH,Zevenhoven,Nieuwkoop,Zuid-Holland,VBO,4.835169,52.182086
Park Kromme Mijdrecht,18,,,2435NH,Zevenhoven,Nieuwkoop,Zuid-Holland,VBO,4.834994,52.182049
Park Kromme Mijdrecht,19,,,2435NH,Zevenhoven,Nieuwkoop,Zuid-Holland,VBO,4.837733,52.182871
Park Kromme Mijdrecht,20,,,2435NH,Zevenhoven,Nieuwkoop,Zuid-Holland,VBO,4.837587,52.182816
Park Kromme Mijdrecht,21,,,2435NH,Zevenhoven,Nieuwkoop,Zuid-Holland,VBO,4.837384,52.182716
Park Kromme Mijdrecht,22,,,2435NH,Zevenhoven,Nieuwkoop,Zuid-Holland,VBO,4.837209,52.182662
Park Kromme Mijdrecht,23,,,2435NH,Zevenhoven,Nieuwkoop,Zuid-Holland,VBO,4.837020,52.182553
Park Kromme Mijdrecht,25,,,2435NH,Zevenhoven,Nieuwkoop,Zuid-Holland,VBO,4.836627,52.182398
Park Kromme Mijdrecht,26,,,2435NH,Zevenhoven,Nieuwkoop,Zuid-Holland,VBO,4.836496,52.182353
Park Kromme Mijdrecht,27,,,2435NH,Zevenhoven,Nieuwkoop,Zuid-Holland,VBO,4.836630,52.182192
Park Kromme Mijdrecht,28,,,2435NH,Zevenhoven,Nieuwkoop,Zuid-Holland,VBO,4.836514,52.182119
Park Kromme Mijdrecht,29,,,2435NH,Zevenhoven,Nieuwkoop,Zuid-Holland,VBO,4.836278,52.182244
Park Kromme Mijdrecht,30,,,2435NH,Zevenhoven,Nieuwkoop,Zuid-Holland,VBO,4.836133,52.182180
Park Kromme Mijdrecht,31,,,2435NH,Zevenhoven,Nieuwkoop,Zuid-Holland,VBO,4.836267,52.182019
Park Kromme Mijdrecht,32,,,2435NH,Zevenhoven,Nieuwkoop,Zuid-Holland,VBO,4.836136,52.181947
Park Kromme Mijdrecht,33,,,2435NH,Zevenhoven,Nieuwkoop,Zuid-Holland,VBO,4.835729,52.181765
Park Kromme Mijdrecht,34,,,2435NH,Zevenhoven,Nieuwkoop,Zuid-Holland,VBO,4.835406,52.181871
Park Kromme Mijdrecht,35,,,2435NH,Zevenhoven,Nieuwkoop,Zuid-Holland,VBO,4.835612,52.181702
Park Kromme Mijdrecht,41,,,2435NH,Zevenhoven,Nieuwkoop,Zuid-Holland,VBO,4.836983,52.181996
Park Kromme Mijdrecht,42,,,2435NH,Zevenhoven,Nieuwkoop,Zuid-Holland,VBO,4.836838,52.181950
Park Kromme Mijdrecht,43,,,2435NH,Zevenhoven,Nieuwkoop,Zuid-Holland,VBO,4.836605,52.181832
Park Kromme Mijdrecht,44,,,2435NH,Zevenhoven,Nieuwkoop,Zuid-Holland,VBO,4.836459,52.181786
Park Kromme Mijdrecht,45,,,2435NH,Zevenhoven,Nieuwkoop,Zuid-Holland,VBO,4.836212,52.181668
Park Kromme Mijdrecht,46,,,2435NH,Zevenhoven,Nieuwkoop,Zuid-Holland,VBO,4.836067,52.181614
Park Kromme Mijdrecht,47,,,2435NH,Zevenhoven,Nieuwkoop,Zuid-Holland,VBO,4.835820,52.181496
Park Beau Rivage I,49,,,2435NJ,Zevenhoven,Nieuwkoop,Zuid-Holland,VBO,4.836393,52.183593
Park Beau Rivage I,50,,,2435NJ,Zevenhoven,Nieuwkoop,Zuid-Holland,VBO,4.836717,52.183414
Park Beau Rivage I,51,,,2435NJ,Zevenhoven,Nieuwkoop,Zuid-Holland,VBO,4.836016,52.183321
Park Beau Rivage I,52,,,2435NJ,Zevenhoven,Nieuwkoop,Zuid-Holland,VBO,4.836456,52.183260
Park Beau Rivage I,53,,,2435NJ,Zevenhoven,Nieuwkoop,Zuid-Holland,VBO,4.835667,52.183221
Park Beau Rivage I,54,,,2435NJ,Zevenhoven,Nieuwkoop,Zuid-Holland,VBO,4.835845,52.183033
Park Beau Rivage I,55,,,2435NJ,Zevenhoven,Nieuwkoop,Zuid-Holland,VBO,4.835583,52.182870
Park Beau Rivage I,56,,,2435NJ,Zevenhoven,Nieuwkoop,Zuid-Holland,VBO,4.835304,52.183012
Park Beau Rivage I,57,,,2435NJ,Zevenhoven,Nieuwkoop,Zuid-Holland,VBO,4.834814,52.182859
Park Beau Rivage I,58,,,2435NJ,Zevenhoven,Nieuwkoop,Zuid-Holland,VBO,4.834928,52.182633
Park Beau Rivage I,59,,,2435NJ,Zevenhoven,Nieuwkoop,Zuid-Holland,VBO,4.834711,52.182488
Park Beau Rivage I,60,,,2435NJ,Zevenhoven,Nieuwkoop,Zuid-Holland,VBO,4.834387,52.182640
Park Beau Rivage II,61,,,2435NJ,Zevenhoven,Nieuwkoop,Zuid-Holland,VBO,4.839382,52.181962
Park Beau Rivage II,62,,,2435NJ,Zevenhoven,Nieuwkoop,Zuid-Holland,VBO,4.839178,52.181898
Park Beau Rivage II,63,,,2435NJ,Zevenhoven,Nieuwkoop,Zuid-Holland,VBO,4.838742,52.181635
Park Beau Rivage II,64,,,2435NJ,Zevenhoven,Nieuwkoop,Zuid-Holland,VBO,4.838204,52.181417
Park Beau Rivage II,65,,,2435NJ,Zevenhoven,Nieuwkoop,Zuid-Holland,VBO,4.837699,52.181174
Park Beau Rivage II,66,,,2435NJ,Zevenhoven,Nieuwkoop,Zuid-Holland,VBO,4.837229,52.180999
Park Beau Rivage II,67,,,2435NJ,Zevenhoven,Nieuwkoop,Zuid-Holland,VBO,4.836912,52.181404
Park Beau Rivage II,68,,,2435NJ,Zevenhoven,Nieuwkoop,Zuid-Holland,VBO,4.837252,52.181547
Park Beau Rivage II,69,,,2435NJ,Zevenhoven,Nieuwkoop,Zuid-Holland,VBO,4.836627,52.181266
Park Beau Rivage II,70,,,2435NJ,Zevenhoven,Nieuwkoop,Zuid-Holland,VBO,4.836263,52.181147
Park Beau Rivage II,71,,,2435NJ,Zevenhoven,Nieuwkoop,Zuid-Holland,VBO,4.836746,52.180788
Kousweg,1,,,2435NK,Zevenhoven,Nieuwkoop,Zuid-Holland,VBO,4.808066,52.185048
Kousweg,2,A,,2435NK,Zevenhoven,Nieuwkoop,Zuid-Holland,VBO,4.811001,52.178537
Kousweg,2,,,2435NK,Zevenhoven,Nieuwkoop,Zuid-Holland,VBO,4.808223,52.183021
Kousweg,3,A,,2435NK,Zevenhoven,Nieuwkoop,Zuid-Holland,VBO,4.812298,52.179242
Kousweg,3,,,2435NK,Zevenhoven,Nieuwkoop,Zuid-Holland,VBO,4.811905,52.178748
Kousweg,4,,,2435NK,Zevenhoven,Nieuwkoop,Zuid-Holland,VBO,4.812476,52.176405
Kousweg,5,A,,2435NK,Zevenhoven,Nieuwkoop,Zuid-Holland,VBO,4.814584,52.175067
Kousweg,5,,,2435NK,Zevenhoven,Nieuwkoop,Zuid-Holland,VBO,4.814275,52.175263
Kousweg,6,,,2435NK,Zevenhoven,Nieuwkoop,Zuid-Holland,VBO,4.813151,52.174913
Kousweg,7,,,2435NK,Zevenhoven,Nieuwkoop,Zuid-Holland,VBO,4.815143,52.174836
Kousweg,8,,,2435NK,Zevenhoven,Nieuwkoop,Zuid-Holland,VBO,4.815534,52.173966
Kousweg,9,A,,2435NK,Zevenhoven,Nieuwkoop,Zuid-Holland,VBO,4.816958,52.173966
Kousweg,9,,,2435NK,Zevenhoven,Nieuwkoop,Zuid-Holland,VBO,4.816407,52.174285
Kousweg,11,,,2435NK,Zevenhoven,Nieuwkoop,Zuid-Holland,VBO,4.819686,52.172755
Kade,1,,,2435NM,Zevenhoven,Nieuwkoop,Zuid-Holland,VBO,4.867994,52.170101
Kade,3,A,,2435NM,Zevenhoven,Nieuwkoop,Zuid-Holland,VBO,4.860710,52.175937
Kade,3,B,,2435NM,Zevenhoven,Nieuwkoop,Zuid-Holland,VBO,4.860673,52.176128
Kade,3,C,,2435NM,Zevenhoven,Nieuwkoop,Zuid-Holland,VBO,4.860431,52.176190
Kade,3,,,2435NM,Zevenhoven,Nieuwkoop,Zuid-Holland,VBO,4.861078,52.175940
Kade,5,B,,2435NM,Zevenhoven,Nieuwkoop,Zuid-Holland,VBO,4.851427,52.178530
Kade,5,,,2435NM,Zevenhoven,Nieuwkoop,Zuid-Holland,VBO,4.858316,52.177360
Kade,2,,,2435NN,Zevenhoven,Nieuwkoop,Zuid-Holland,VBO,4.841598,52.181226
Kade,4,A,,2435NN,Zevenhoven,Nieuwkoop,Zuid-Holland,LIG,4.841383,52.181406
Kade,4,,,2435NN,Zevenhoven,Nieuwkoop,Zuid-Holland,VBO,4.841436,52.181333
Kade,6,,,2435NN,Zevenhoven,Nieuwkoop,Zuid-Holland,VBO,4.841139,52.181538
Kade,7,A,,2435NN,Zevenhoven,Nieuwkoop,Zuid-Holland,VBO,4.845142,52.179571
Kade,7,B,,2435NN,Zevenhoven,Nieuwkoop,Zuid-Holland,VBO,4.844273,52.178985
Kade,7,C,,2435NN,Zevenhoven,Nieuwkoop,Zuid-Holland,VBO,4.845242,52.179052
Kade,7,D,,2435NN,Zevenhoven,Nieuwkoop,Zuid-Holland,VBO,4.848441,52.178867
Kade,7,,,2435NN,Zevenhoven,Nieuwkoop,Zuid-Holland,VBO,4.848555,52.179047
Kade,9,A,,2435NN,Zevenhoven,Nieuwkoop,Zuid-Holland,VBO,4.839011,52.182374
Kade,9,B,,2435NN,Zevenhoven,Nieuwkoop,Zuid-Holland,VBO,4.840993,52.181348
Kade,9,C,,2435NN,Zevenhoven,Nieuwkoop,Zuid-Holland,VBO,4.834530,52.184040
Kade,9,,,2435NN,Zevenhoven,Nieuwkoop,Zuid-Holland,VBO,4.840513,52.181545
Kade,11,,,2435NN,Zevenhoven,Nieuwkoop,Zuid-Holland,VBO,4.831485,52.187911
Kade,13,,,2435NN,Zevenhoven,Nieuwkoop,Zuid-Holland,VBO,4.828631,52.189300
Kade,15,A,,2435NN,Zevenhoven,Nieuwkoop,Zuid-Holland,VBO,4.826770,52.190729
Kade,15,,,2435NN,Zevenhoven,Nieuwkoop,Zuid-Holland,VBO,4.826007,52.190941
Kade,17,,,2435NN,Zevenhoven,Nieuwkoop,Zuid-Holland,VBO,4.825697,52.191182
Kade,19,,,2435NN,Zevenhoven,Nieuwkoop,Zuid-Holland,VBO,4.825237,52.191710
Kade,21,A,,2435NP,Zevenhoven,Nieuwkoop,Zuid-Holland,VBO,4.821774,52.194875
Kade,21,B,,2435NP,Zevenhoven,Nieuwkoop,Zuid-Holland,VBO,4.822000,52.195551
Kade,21,,,2435NP,Zevenhoven,Nieuwkoop,Zuid-Holland,VBO,4.822302,52.194815
Kade,23,A,,2435NP,Zevenhoven,Nieuwkoop,Zuid-Holland,VBO,4.820820,52.196327
Kade,23,B,,2435NP,Zevenhoven,Nieuwkoop,Zuid-Holland,VBO,4.820478,52.196427
Kade,23,,,2435NP,Zevenhoven,Nieuwkoop,Zuid-Holland,VBO,4.821321,52.196015
Kade,25,,,2435NP,Zevenhoven,Nieuwkoop,Zuid-Holland,VBO,4.819338,52.196670
Kade,27,,,2435NP,Zevenhoven,Nieuwkoop,Zuid-Holland,VBO,4.819030,52.196777
Kade,29,,,2435NP,Zevenhoven,Nieuwkoop,Zuid-Holland,VBO,4.818721,52.196919
Kade,31,A,,2435NP,Zevenhoven,Nieuwkoop,Zuid-Holland,VBO,4.816807,52.197836
Kade,31,,,2435NP,Zevenhoven,Nieuwkoop,Zuid-Holland,VBO,4.817631,52.197471
Kade,33,,,2435NP,Zevenhoven,Nieuwkoop,Zuid-Holland,VBO,4.815896,52.198191
Park Verheijen,1,,,2435NR,Zevenhoven,Nieuwkoop,Zuid-Holland,VBO,4.838956,52.182131
Park Verheijen,2,,,2435NR,Zevenhoven,Nieuwkoop,Zuid-Holland,VBO,4.838664,52.182021
Park Verheijen,3,,,2435NR,Zevenhoven,Nieuwkoop,Zuid-Holland,VBO,4.838403,52.181876
Park Verheijen,4,,,2435NR,Zevenhoven,Nieuwkoop,Zuid-Holland,VBO,4.838097,52.181758
Park Verheijen,5,,,2435NR,Zevenhoven,Nieuwkoop,Zuid-Holland,VBO,4.837862,52.181865
Park Verheijen,6,,,2435NR,Zevenhoven,Nieuwkoop,Zuid-Holland,VBO,4.838124,52.182001
Park Verheijen,7,,,2435NR,Zevenhoven,Nieuwkoop,Zuid-Holland,VBO,4.838400,52.182137
Park Verheijen,8,,,2435NR,Zevenhoven,Nieuwkoop,Zuid-Holland,VBO,4.838706,52.182246
Park Dolce Vita,1,,,2435NS,Zevenhoven,Nieuwkoop,Zuid-Holland,VBO,4.819553,52.193598
Park Dolce Vita,2,,,2435NS,Zevenhoven,Nieuwkoop,Zuid-Holland,VBO,4.819213,52.193866
Park Dolce Vita,3,,,2435NS,Zevenhoven,Nieuwkoop,Zuid-Holland,VBO,4.820003,52.193851
Park Dolce Vita,4,,,2435NS,Zevenhoven,Nieuwkoop,Zuid-Holland,VBO,4.819693,52.194084
Park Dolce Vita,5,,,2435NS,Zevenhoven,Nieuwkoop,Zuid-Holland,VBO,4.820377,52.194095
Park Dolce Vita,6,,,2435NS,Zevenhoven,Nieuwkoop,Zuid-Holland,VBO,4.820100,52.194274
Park Dolce Vita,7,,,2435NS,Zevenhoven,Nieuwkoop,Zuid-Holland,VBO,4.820818,52.194134
Park Dolce Vita,8,,,2435NS,Zevenhoven,Nieuwkoop,Zuid-Holland,VBO,4.820479,52.194393
Park Dolce Vita,9,,,2435NS,Zevenhoven,Nieuwkoop,Zuid-Holland,VBO,4.821012,52.194335
Park Dolce Vita,10,,,2435NS,Zevenhoven,Nieuwkoop,Zuid-Holland,VBO,4.820714,52.194556
Park Dolce Vita,11,,,2435NS,Zevenhoven,Nieuwkoop,Zuid-Holland,VBO,4.821326,52.194487
Park Dolce Vita,12,,,2435NS,Zevenhoven,Nieuwkoop,Zuid-Holland,VBO,4.821089,52.194737
Park Dolce Vita,13,,,2435NS,Zevenhoven,Nieuwkoop,Zuid-Holland,VBO,4.821646,52.194596
Park Dolce Vita,14,,,2435NS,Zevenhoven,Nieuwkoop,Zuid-Holland,VBO,4.821336,52.194855
Park Dolce Vita,15,,,2435NS,Zevenhoven,Nieuwkoop,Zuid-Holland,VBO,4.820229,52.193340
Park Dolce Vita,16,,,2435NS,Zevenhoven,Nieuwkoop,Zuid-Holland,VBO,4.820036,52.193555
Park Dolce Vita,17,,,2435NS,Zevenhoven,Nieuwkoop,Zuid-Holland,VBO,4.820738,52.193567
Park Dolce Vita,18,,,2435NS,Zevenhoven,Nieuwkoop,Zuid-Holland,VBO,4.820530,52.193773
Park Dolce Vita,19,,,2435NS,Zevenhoven,Nieuwkoop,Zuid-Holland,VBO,4.821188,52.193812
Park Dolce Vita,20,,,2435NS,Zevenhoven,Nieuwkoop,Zuid-Holland,VBO,4.820996,52.193973
Park Dolce Vita,21,,,2435NS,Zevenhoven,Nieuwkoop,Zuid-Holland,VBO,4.821711,52.194075
Park Dolce Vita,22,,,2435NS,Zevenhoven,Nieuwkoop,Zuid-Holland,VBO,4.821462,52.194164
Park Dolce Vita,23,,,2435NS,Zevenhoven,Nieuwkoop,Zuid-Holland,VBO,4.822294,52.194267
Park Dolce Vita,24,,,2435NS,Zevenhoven,Nieuwkoop,Zuid-Holland,VBO,4.821956,52.194409
Park Dolce Vita,25,,,2435NS,Zevenhoven,Nieuwkoop,Zuid-Holland,VBO,4.820336,52.192927
Park Dolce Vita,27,,,2435NS,Zevenhoven,Nieuwkoop,Zuid-Holland,VBO,4.820729,52.193091
Park Dolce Vita,28,,,2435NS,Zevenhoven,Nieuwkoop,Zuid-Holland,VBO,4.820552,52.193225
Park Dolce Vita,29,,,2435NS,Zevenhoven,Nieuwkoop,Zuid-Holland,VBO,4.821064,52.193209
Park Dolce Vita,30,,,2435NS,Zevenhoven,Nieuwkoop,Zuid-Holland,VBO,4.820872,52.193370
Park Dolce Vita,31,,,2435NS,Zevenhoven,Nieuwkoop,Zuid-Holland,VBO,4.821515,52.193400
Park Dolce Vita,32,,,2435NS,Zevenhoven,Nieuwkoop,Zuid-Holland,VBO,4.821264,52.193570
Park Dolce Vita,33,,,2435NS,Zevenhoven,Nieuwkoop,Zuid-Holland,VBO,4.821937,52.193609
Park Dolce Vita,34,,,2435NS,Zevenhoven,Nieuwkoop,Zuid-Holland,VBO,4.821744,52.193770
Park Dolce Vita,35,,,2435NS,Zevenhoven,Nieuwkoop,Zuid-Holland,VBO,4.822314,52.193800
Park Dolce Vita,36,,,2435NS,Zevenhoven,Nieuwkoop,Zuid-Holland,VBO,4.822181,52.193952
Park Dolce Vita,37,,,2435NS,Zevenhoven,Nieuwkoop,Zuid-Holland,VBO,4.822722,52.193936
Park Dolce Vita,38,,,2435NS,Zevenhoven,Nieuwkoop,Zuid-Holland,VBO,4.822588,52.194160
Park Dolce Vita,39,,,2435NS,Zevenhoven,Nieuwkoop,Zuid-Holland,VBO,4.820849,52.192840
Park Dolce Vita,40,,,2435NS,Zevenhoven,Nieuwkoop,Zuid-Holland,VBO,4.821082,52.192940
Park Dolce Vita,41,,,2435NS,Zevenhoven,Nieuwkoop,Zuid-Holland,VBO,4.821824,52.193267
Park Dolce Vita,42,,,2435NS,Zevenhoven,Nieuwkoop,Zuid-Holland,VBO,4.822313,52.193510
Park Dolce Vita,43,,,2435NS,Zevenhoven,Nieuwkoop,Zuid-Holland,VBO,4.822871,52.193712
Oude Spoorbaan,8,,,2435NT,Zevenhoven,Nieuwkoop,Zuid-Holland,VBO,4.796349,52.205222
Oude Spoorbaan,9,A,,2435NT,Zevenhoven,Nieuwkoop,Zuid-Holland,VBO,4.795923,52.205519
Oude Spoorbaan,9,,,2435NT,Zevenhoven,Nieuwkoop,Zuid-Holland,VBO,4.795941,52.205121
Oude Spoorbaan,10,A,,2435NT,Zevenhoven,Nieuwkoop,Zuid-Holland,VBO,4.795431,52.205368
Oude Spoorbaan,10,,,2435NT,Zevenhoven,Nieuwkoop,Zuid-Holland,VBO,4.795562,52.205029
Oude Spoorbaan,12,,,2435NT,Zevenhoven,Nieuwkoop,Zuid-Holland,VBO,4.795181,52.205034
Molenweg,7,A,,2435NV,Zevenhoven,Nieuwkoop,Zuid-Holland,VBO,4.825416,52.169349
Molenweg,7,,,2435NV,Zevenhoven,Nieuwkoop,Zuid-Holland,VBO,4.826314,52.170018
Molenweg,9,A,,2435NV,Zevenhoven,Nieuwkoop,Zuid-Holland,VBO,4.827509,52.170293
Molenweg,9,B,,2435NV,Zevenhoven,Nieuwkoop,Zuid-Holland,VBO,4.827251,52.170071
Molenweg,9,C,,2435NV,Zevenhoven,Nieuwkoop,Zuid-Holland,VBO,4.827251,52.170071
Molenweg,9,,,2435NV,Zevenhoven,Nieuwkoop,Zuid-Holland,VBO,4.827251,52.170071
Nieuwveenseweg,102,A,,2435NW,Zevenhoven,Nieuwkoop,Zuid-Holland,VBO,4.773053,52.171669
Nieuwveenseweg,102,B,,2435NW,Zevenhoven,Nieuwkoop,Zuid-Holland,VBO,4.772816,52.171866
Nieuwveenseweg,102,C,,2435NW,Zevenhoven,Nieuwkoop,Zuid-Holland,VBO,4.772954,52.171875
Nieuwveenseweg,102,D,,2435NW,Zevenhoven,Nieuwkoop,Zuid-Holland,VBO,4.772968,52.171945
Nieuwveenseweg,102,E,,2435NW,Zevenhoven,Nieuwkoop,Zuid-Holland,VBO,4.773044,52.171965
Nieuwveenseweg,102,G,,2435NW,Zevenhoven,Nieuwkoop,Zuid-Holland,VBO,4.773119,52.171980
Nieuwveenseweg,102,H,,2435NW,Zevenhoven,Nieuwkoop,Zuid-Holland,VBO,4.773211,52.172006
Nieuwveenseweg,102,J,,2435NW,Zevenhoven,Nieuwkoop,Zuid-Holland,VBO,4.773257,52.171942
Nieuwveenseweg,102,,,2435NW,Zevenhoven,Nieuwkoop,Zuid-Holland,VBO,4.773103,52.171435
Nieuwveenseweg,4,,,2435NX,Zevenhoven,Nieuwkoop,Zuid-Holland,VBO,4.764851,52.185358
Wederik,1,,,2435WE,Zevenhoven,Nieuwkoop,Zuid-Holland,VBO,4.776911,52.185456
Wederik,2,,,2435WE,Zevenhoven,Nieuwkoop,Zuid-Holland,VBO,4.777395,52.185567
Wederik,3,,,2435WE,Zevenhoven,Nieuwkoop,Zuid-Holland,VBO,4.776880,52.185500
Wederik,4,,,2435WE,Zevenhoven,Nieuwkoop,Zuid-Holland,VBO,4.777370,52.185608
Wederik,5,,,2435WE,Zevenhoven,Nieuwkoop,Zuid-Holland,VBO,4.776855,52.185545
Wederik,6,,,2435WE,Zevenhoven,Nieuwkoop,Zuid-Holland,VBO,4.777345,52.185648
Wederik,7,,,2435WE,Zevenhoven,Nieuwkoop,Zuid-Holland,VBO,4.776841,52.185592
Wederik,8,,,2435WE,Zevenhoven,Nieuwkoop,Zuid-Holland,VBO,4.777320,52.185689
Wederik,9,,,2435WE,Zevenhoven,Nieuwkoop,Zuid-Holland,VBO,4.776812,52.185640
Wederik,10,,,2435WE,Zevenhoven,Nieuwkoop,Zuid-Holland,VBO,4.777295,52.185729
Wederik,12,,,2435WE,Zevenhoven,Nieuwkoop,Zuid-Holland,VBO,4.777269,52.185770
Haagwinde,1,,,2435WG,Zevenhoven,Nieuwkoop,Zuid-Holland,VBO,4.776384,52.185326
Haagwinde,2,,,2435WG,Zevenhoven,Nieuwkoop,Zuid-Holland,VBO,4.776356,52.185371
Haagwinde,3,,,2435WG,Zevenhoven,Nieuwkoop,Zuid-Holland,VBO,4.776344,52.185418
Haagwinde,4,,,2435WG,Zevenhoven,Nieuwkoop,Zuid-Holland,VBO,4.776315,52.185467
Haagwinde,6,,,2435WG,Zevenhoven,Nieuwkoop,Zuid-Holland,VBO,4.776195,52.185648
Haagwinde,7,,,2435WG,Zevenhoven,Nieuwkoop,Zuid-Holland,VBO,4.776129,52.185632
Haagwinde,8,,,2435WG,Zevenhoven,Nieuwkoop,Zuid-Holland,VBO,4.776060,52.185614
Haagwinde,9,,,2435WG,Zevenhoven,Nieuwkoop,Zuid-Holland,VBO,4.775999,52.185599
Haagwinde,10,,,2435WG,Zevenhoven,Nieuwkoop,Zuid-Holland,VBO,4.775934,52.185584
Haagwinde,11,,,2435WG,Zevenhoven,Nieuwkoop,Zuid-Holland,VBO,4.775868,52.185568
Haagwinde,12,,,2435WG,Zevenhoven,Nieuwkoop,Zuid-Holland,VBO,4.775705,52.185157
Haagwinde,13,,,2435WG,Zevenhoven,Nieuwkoop,Zuid-Holland,VBO,4.775688,52.185209
Haagwinde,14,,,2435WG,Zevenhoven,Nieuwkoop,Zuid-Holland,VBO,4.775660,52.185255
Haagwinde,15,,,2435WG,Zevenhoven,Nieuwkoop,Zuid-Holland,VBO,4.775616,52.185298
Haagwinde,16,,,2435WG,Zevenhoven,Nieuwkoop,Zuid-Holland,VBO,4.775673,52.185522
Haagwinde,17,,,2435WG,Zevenhoven,Nieuwkoop,Zuid-Holland,VBO,4.775593,52.185500
Haagwinde,18,,,2435WG,Zevenhoven,Nieuwkoop,Zuid-Holland,VBO,4.775362,52.185453
Haagwinde,19,,,2435WG,Zevenhoven,Nieuwkoop,Zuid-Holland,VBO,4.775060,52.185430
Haagwinde,20,,,2435WG,Zevenhoven,Nieuwkoop,Zuid-Holland,VBO,4.775012,52.185274
Haagwinde,21,,,2435WG,Zevenhoven,Nieuwkoop,Zuid-Holland,VBO,4.775110,52.185157
Haagwinde,22,,,2435WG,Zevenhoven,Nieuwkoop,Zuid-Holland,VBO,4.775159,52.184998
Vogelwikke,2,,,2435WH,Zevenhoven,Nieuwkoop,Zuid-Holland,VBO,4.775576,52.184893
Vogelwikke,4,,,2435WH,Zevenhoven,Nieuwkoop,Zuid-Holland,VBO,4.775285,52.184838
Vogelwikke,6,,,2435WH,Zevenhoven,Nieuwkoop,Zuid-Holland,VBO,4.775257,52.184721
Vogelwikke,8,,,2435WH,Zevenhoven,Nieuwkoop,Zuid-Holland,VBO,4.775258,52.184631
Vogelwikke,10,,,2435WH,Zevenhoven,Nieuwkoop,Zuid-Holland,VBO,4.775288,52.184568
Vogelwikke,12,,,2435WH,Zevenhoven,Nieuwkoop,Zuid-Holland,VBO,4.775348,52.184496
Vogelwikke,14,,,2435WH,Zevenhoven,Nieuwkoop,Zuid-Holland,VBO,4.775422,52.184434
Vogelwikke,16,,,2435WH,Zevenhoven,Nieuwkoop,Zuid-Holland,VBO,4.775541,52.184282
Vogelwikke,18,,,2435WH,Zevenhoven,Nieuwkoop,Zuid-Holland,VBO,4.775571,52.184219
Vogelwikke,20,,,2435WH,Zevenhoven,Nieuwkoop,Zuid-Holland,VBO,4.775631,52.184129
Vogelwikke,22,,,2435WH,Zevenhoven,Nieuwkoop,Zuid-Holland,VBO,4.775661,52.184058
Vogelwikke,24,,,2435WH,Zevenhoven,Nieuwkoop,Zuid-Holland,VBO,4.775721,52.183959
Vogelwikke,26,,,2435WH,Zevenhoven,Nieuwkoop,Zuid-Holland,VBO,4.775795,52.183897
Jacob van den Damstraat,1,,,2435WJ,Zevenhoven,Nieuwkoop,Zuid-Holland,VBO,4.774031,52.190898
Jacob van den Damstraat,3,,,2435WJ,Zevenhoven,Nieuwkoop,Zuid-Holland,VBO,4.773944,52.190871
Jacob van den Damstraat,5,,,2435WJ,Zevenhoven,Nieuwkoop,Zuid-Holland,VBO,4.773857,52.190852
Jacob van den Damstraat,7,,,2435WJ,Zevenhoven,Nieuwkoop,Zuid-Holland,VBO,4.773784,52.190834
Jacob van den Damstraat,9,,,2435WJ,Zevenhoven,Nieuwkoop,Zuid-Holland,VBO,4.773711,52.190816
Jacob van den Damstraat,11,,,2435WJ,Zevenhoven,Nieuwkoop,Zuid-Holland,VBO,4.773638,52.190797
Jacob van den Damstraat,13,,,2435WJ,Zevenhoven,Nieuwkoop,Zuid-Holland,VBO,4.773579,52.190797
Jacob van den Damstraat,15,,,2435WJ,Zevenhoven,Nieuwkoop,Zuid-Holland,VBO,4.773477,52.190787
Jacob van den Damstraat,17,,,2435WJ,Zevenhoven,Nieuwkoop,Zuid-Holland,VBO,4.773390,52.190760
Jacob van den Damstraat,19,,,2435WJ,Zevenhoven,Nieuwkoop,Zuid-Holland,VBO,4.773317,52.190742
Jacob van den Damstraat,21,,,2435WJ,Zevenhoven,Nieuwkoop,Zuid-Holland,VBO,4.773201,52.190696
Jacob van den Damstraat,23,,,2435WJ,Zevenhoven,Nieuwkoop,Zuid-Holland,VBO,4.773098,52.190723
Jacob van den Damstraat,25,,,2435WJ,Zevenhoven,Nieuwkoop,Zuid-Holland,VBO,4.773025,52.190704
Jacob van den Damstraat,27,,,2435WJ,Zevenhoven,Nieuwkoop,Zuid-Holland,VBO,4.772952,52.190686
Jacob van den Damstraat,29,,,2435WJ,Zevenhoven,Nieuwkoop,Zuid-Holland,VBO,4.772865,52.190667
Jacob van den Damstraat,31,,,2435WJ,Zevenhoven,Nieuwkoop,Zuid-Holland,VBO,4.772807,52.190604
Jacob van den Damstraat,33,,,2435WJ,Zevenhoven,Nieuwkoop,Zuid-Holland,VBO,4.772661,52.190594
Jacob van den Damstraat,35,,,2435WJ,Zevenhoven,Nieuwkoop,Zuid-Holland,VBO,4.772573,52.190612
Jacob van den Damstraat,37,,,2435WJ,Zevenhoven,Nieuwkoop,Zuid-Holland,VBO,4.772500,52.190594
Jacob van den Damstraat,39,,,2435WJ,Zevenhoven,Nieuwkoop,Zuid-Holland,VBO,4.772427,52.190575
Jacob van den Damstraat,41,,,2435WJ,Zevenhoven,Nieuwkoop,Zuid-Holland,VBO,4.772355,52.190539
Jacob van den Damstraat,43,,,2435WJ,Zevenhoven,Nieuwkoop,Zuid-Holland,VBO,4.772282,52.190521
Jacob van den Damstraat,45,,,2435WJ,Zevenhoven,Nieuwkoop,Zuid-Holland,VBO,4.772223,52.190502
Jacob van den Damstraat,47,,,2435WJ,Zevenhoven,Nieuwkoop,Zuid-Holland,VBO,4.772151,52.190448
Jacob van den Damstraat,49,,,2435WJ,Zevenhoven,Nieuwkoop,Zuid-Holland,VBO,4.771788,52.190275
Jacob van den Damstraat,51,,,2435WJ,Zevenhoven,Nieuwkoop,Zuid-Holland,VBO,4.771684,52.190410
Vogelwikke,1,,,2435WK,Zevenhoven,Nieuwkoop,Zuid-Holland,VBO,4.776431,52.184439
Vogelwikke,3,,,2435WK,Zevenhoven,Nieuwkoop,Zuid-Holland,VBO,4.776343,52.184457
Vogelwikke,5,,,2435WK,Zevenhoven,Nieuwkoop,Zuid-Holland,VBO,4.776255,52.184447
Vogelwikke,7,,,2435WK,Zevenhoven,Nieuwkoop,Zuid-Holland,VBO,4.776182,52.184420
Vogelwikke,9,,,2435WK,Zevenhoven,Nieuwkoop,Zuid-Holland,VBO,4.776109,52.184411
Vogelwikke,11,,,2435WK,Zevenhoven,Nieuwkoop,Zuid-Holland,VBO,4.776036,52.184392
Vogelwikke,13,,,2435WK,Zevenhoven,Nieuwkoop,Zuid-Holland,VBO,4.775978,52.184365
Vogelwikke,15,,,2435WK,Zevenhoven,Nieuwkoop,Zuid-Holland,VBO,4.775921,52.184311
Vogelwikke,17,,,2435WK,Zevenhoven,Nieuwkoop,Zuid-Holland,VBO,4.776127,52.184177
Vogelwikke,19,,,2435WK,Zevenhoven,Nieuwkoop,Zuid-Holland,VBO,4.776099,52.184123
Vogelwikke,21,,,2435WK,Zevenhoven,Nieuwkoop,Zuid-Holland,VBO,4.776128,52.184078
Vogelwikke,23,,,2435WK,Zevenhoven,Nieuwkoop,Zuid-Holland,VBO,4.776158,52.184033
Vogelwikke,25,,,2435WK,Zevenhoven,Nieuwkoop,Zuid-Holland,VBO,4.776203,52.183989
Vogelwikke,27,,,2435WK,Zevenhoven,Nieuwkoop,Zuid-Holland,VBO,4.776262,52.183944
Akkerwinde,1,,,2435WL,Zevenhoven,Nieuwkoop,Zuid-Holland,VBO,4.776207,52.183692
Akkerwinde,3,,,2435WL,Zevenhoven,Nieuwkoop,Zuid-Holland,VBO,4.776032,52.183655
Akkerwinde,5,,,2435WL,Zevenhoven,Nieuwkoop,Zuid-Holland,VBO,4.775828,52.183609
Het Oude Schoolpad,1,,,2435WN,Zevenhoven,Nieuwkoop,Zuid-Holland,VBO,4.773074,52.192466
Het Oude Schoolpad,3,,,2435WN,Zevenhoven,Nieuwkoop,Zuid-Holland,VBO,4.772911,52.192582
Het Oude Schoolpad,5,,,2435WN,Zevenhoven,Nieuwkoop,Zuid-Holland,VBO,4.772881,52.192636
Sportlaan,1,A,,2435WP,Zevenhoven,Nieuwkoop,Zuid-Holland,VBO,4.775734,52.184942
Sportlaan,2,,,2435WP,Zevenhoven,Nieuwkoop,Zuid-Holland,VBO,4.776615,52.184863
Sportlaan,3,A,,2435WP,Zevenhoven,Nieuwkoop,Zuid-Holland,VBO,4.775943,52.184986
Sportlaan,3,,,2435WP,Zevenhoven,Nieuwkoop,Zuid-Holland,VBO,4.775833,52.184962
Sportlaan,4,,,2435WP,Zevenhoven,Nieuwkoop,Zuid-Holland,VBO,4.776941,52.184577
Sportlaan,5,A,,2435WP,Zevenhoven,Nieuwkoop,Zuid-Holland,VBO,4.775940,52.184916
Sportlaan,5,,,2435WP,Zevenhoven,Nieuwkoop,Zuid-Holland,VBO,4.775836,52.184896
Sportlaan,6,,,2435WP,Zevenhoven,Nieuwkoop,Zuid-Holland,VBO,4.776956,52.184532
Sportlaan,7,A,,2435WP,Zevenhoven,Nieuwkoop,Zuid-Holland,VBO,4.775997,52.184845
Sportlaan,7,,,2435WP,Zevenhoven,Nieuwkoop,Zuid-Holland,VBO,4.775872,52.184831
Sportlaan,8,,,2435WP,Zevenhoven,Nieuwkoop,Zuid-Holland,VBO,4.776980,52.184498
Sportlaan,9,A,,2435WP,Zevenhoven,Nieuwkoop,Zuid-Holland,VBO,4.776030,52.184763
Sportlaan,9,,,2435WP,Zevenhoven,Nieuwkoop,Zuid-Holland,VBO,4.775923,52.184754
Sportlaan,10,,,2435WP,Zevenhoven,Nieuwkoop,Zuid-Holland,VBO,4.777013,52.184455
Sportlaan,11,A,,2435WP,Zevenhoven,Nieuwkoop,Zuid-Holland,VBO,4.776053,52.184718
Sportlaan,11,,,2435WP,Zevenhoven,Nieuwkoop,Zuid-Holland,VBO,4.775960,52.184699
Sportlaan,12,,,2435WP,Zevenhoven,Nieuwkoop,Zuid-Holland,VBO,4.777060,52.184416
Sportlaan,13,A,,2435WP,Zevenhoven,Nieuwkoop,Zuid-Holland,VBO,4.776090,52.184679
Sportlaan,13,,,2435WP,Zevenhoven,Nieuwkoop,Zuid-Holland,VBO,4.775996,52.184657
Sportlaan,14,,,2435WP,Zevenhoven,Nieuwkoop,Zuid-Holland,VBO,4.777095,52.184371
Sportlaan,15,A,,2435WP,Zevenhoven,Nieuwkoop,Zuid-Holland,VBO,4.776117,52.184639
Sportlaan,15,,,2435WP,Zevenhoven,Nieuwkoop,Zuid-Holland,VBO,4.776025,52.184615
Sportlaan,16,,,2435WP,Zevenhoven,Nieuwkoop,Zuid-Holland,VBO,4.777120,52.184321
Sportlaan,17,,,2435WP,Zevenhoven,Nieuwkoop,Zuid-Holland,VBO,4.776579,52.184287
Sportlaan,18,,,2435WP,Zevenhoven,Nieuwkoop,Zuid-Holland,VBO,4.777145,52.184270
Sportlaan,19,,,2435WP,Zevenhoven,Nieuwkoop,Zuid-Holland,VBO,4.776652,52.184261
Sportlaan,20,,,2435WP,Zevenhoven,Nieuwkoop,Zuid-Holland,VBO,4.777208,52.184227
Sportlaan,21,,,2435WP,Zevenhoven,Nieuwkoop,Zuid-Holland,VBO,4.776697,52.184207
Sportlaan,22,,,2435WP,Zevenhoven,Nieuwkoop,Zuid-Holland,VBO,4.777224,52.184183
Sportlaan,23,,,2435WP,Zevenhoven,Nieuwkoop,Zuid-Holland,VBO,4.776727,52.184171
Sportlaan,24,,,2435WP,Zevenhoven,Nieuwkoop,Zuid-Holland,VBO,4.777343,52.184030
Sportlaan,25,,,2435WP,Zevenhoven,Nieuwkoop,Zuid-Holland,VBO,4.776757,52.184126
Sportlaan,26,,,2435WP,Zevenhoven,Nieuwkoop,Zuid-Holland,VBO,4.777344,52.183976
Sportlaan,27,,,2435WP,Zevenhoven,Nieuwkoop,Zuid-Holland,VBO,4.776728,52.184054
Sportlaan,28,,,2435WP,Zevenhoven,Nieuwkoop,Zuid-Holland,VBO,4.777373,52.183923
Sportlaan,29,,,2435WP,Zevenhoven,Nieuwkoop,Zuid-Holland,VBO,4.776527,52.183810
Sportlaan,30,,,2435WP,Zevenhoven,Nieuwkoop,Zuid-Holland,VBO,4.777447,52.183878
Sportlaan,31,,,2435WP,Zevenhoven,Nieuwkoop,Zuid-Holland,VBO,4.776645,52.183757
Sportlaan,32,,,2435WP,Zevenhoven,Nieuwkoop,Zuid-Holland,VBO,4.777698,52.183736
Sportlaan,33,,,2435WP,Zevenhoven,Nieuwkoop,Zuid-Holland,VBO,4.776603,52.183622
Sportlaan,34,,,2435WP,Zevenhoven,Nieuwkoop,Zuid-Holland,VBO,4.777610,52.183717
Sportlaan,36,,,2435WP,Zevenhoven,Nieuwkoop,Zuid-Holland,VBO,4.777465,52.183681
Sportlaan,38,,,2435WP,Zevenhoven,Nieuwkoop,Zuid-Holland,VBO,4.777377,52.183671
Sportlaan,40,,,2435WP,Zevenhoven,Nieuwkoop,Zuid-Holland,VBO,4.777217,52.183634
Sportlaan,42,,,2435WP,Zevenhoven,Nieuwkoop,Zuid-Holland,VBO,4.777129,52.183607
De Schinkel,1,,,2435WR,Zevenhoven,Nieuwkoop,Zuid-Holland,VBO,4.773650,52.192056
De Schinkel,2,,,2435WR,Zevenhoven,Nieuwkoop,Zuid-Holland,VBO,4.773223,52.192278
De Schinkel,3,,,2435WR,Zevenhoven,Nieuwkoop,Zuid-Holland,VBO,4.773300,52.191973
De Schinkel,4,,,2435WR,Zevenhoven,Nieuwkoop,Zuid-Holland,VBO,4.773106,52.192260
De Schinkel,5,,,2435WR,Zevenhoven,Nieuwkoop,Zuid-Holland,VBO,4.772907,52.191872
De Schinkel,6,,,2435WR,Zevenhoven,Nieuwkoop,Zuid-Holland,VBO,4.772989,52.192223
De Schinkel,7,,,2435WR,Zevenhoven,Nieuwkoop,Zuid-Holland,VBO,4.772352,52.191752
De Schinkel,8,,,2435WR,Zevenhoven,Nieuwkoop,Zuid-Holland,VBO,4.772873,52.192195
De Schinkel,9,,,2435WR,Zevenhoven,Nieuwkoop,Zuid-Holland,VBO,4.772280,52.191725
De Schinkel,10,,,2435WR,Zevenhoven,Nieuwkoop,Zuid-Holland,VBO,4.772522,52.192149
De Schinkel,11,,,2435WR,Zevenhoven,Nieuwkoop,Zuid-Holland,VBO,4.772192,52.191706
De Schinkel,12,,,2435WR,Zevenhoven,Nieuwkoop,Zuid-Holland,VBO,4.772435,52.192130
De Schinkel,13,,,2435WR,Zevenhoven,Nieuwkoop,Zuid-Holland,VBO,4.772119,52.191688
De Schinkel,15,,,2435WR,Zevenhoven,Nieuwkoop,Zuid-Holland,VBO,4.772046,52.191670
De Schinkel,17,,,2435WR,Zevenhoven,Nieuwkoop,Zuid-Holland,VBO,4.771988,52.191651
De Schinkel,19,,,2435WR,Zevenhoven,Nieuwkoop,Zuid-Holland,VBO,4.771682,52.191578
Simon Stouthandelstraat,1,,,2435WS,Zevenhoven,Nieuwkoop,Zuid-Holland,VBO,4.772547,52.191421
Simon Stouthandelstraat,3,,,2435WS,Zevenhoven,Nieuwkoop,Zuid-Holland,VBO,4.772503,52.191474
Simon Stouthandelstraat,5,,,2435WS,Zevenhoven,Nieuwkoop,Zuid-Holland,VBO,4.772473,52.191519
Simon Stouthandelstraat,7,,,2435WS,Zevenhoven,Nieuwkoop,Zuid-Holland,VBO,4.772443,52.191555
Repelhof,1,,,2435WT,Zevenhoven,Nieuwkoop,Zuid-Holland,VBO,4.777887,52.181687
Repelhof,3,,,2435WT,Zevenhoven,Nieuwkoop,Zuid-Holland,VBO,4.777784,52.181705
Repelhof,5,,,2435WT,Zevenhoven,Nieuwkoop,Zuid-Holland,VBO,4.777711,52.181686
Repelhof,7,,,2435WT,Zevenhoven,Nieuwkoop,Zuid-Holland,VBO,4.777638,52.181668
Repelhof,9,,,2435WT,Zevenhoven,Nieuwkoop,Zuid-Holland,VBO,4.777551,52.181650
Repelhof,11,,,2435WT,Zevenhoven,Nieuwkoop,Zuid-Holland,VBO,4.777478,52.181622
Repelhof,13,,,2435WT,Zevenhoven,Nieuwkoop,Zuid-Holland,VBO,4.777406,52.181577
Repelhof,15,,,2435WT,Zevenhoven,Nieuwkoop,Zuid-Holland,VBO,4.777231,52.181540
Repelhof,17,,,2435WT,Zevenhoven,Nieuwkoop,Zuid-Holland,VBO,4.777081,52.181800
Repelhof,19,,,2435WT,Zevenhoven,Nieuwkoop,Zuid-Holland,VBO,4.776932,52.181979
Vlasakker,1,,,2435WV,Zevenhoven,Nieuwkoop,Zuid-Holland,VBO,4.777483,52.182305
Vlasakker,3,,,2435WV,Zevenhoven,Nieuwkoop,Zuid-Holland,VBO,4.777381,52.182323
Vlasakker,5,,,2435WV,Zevenhoven,Nieuwkoop,Zuid-Holland,VBO,4.777308,52.182313
Vlasakker,7,,,2435WV,Zevenhoven,Nieuwkoop,Zuid-Holland,VBO,4.777250,52.182295
Vlasakker,9,,,2435WV,Zevenhoven,Nieuwkoop,Zuid-Holland,VBO,4.777162,52.182268
Vlasakker,11,,,2435WV,Zevenhoven,Nieuwkoop,Zuid-Holland,VBO,4.777104,52.182214
Vlasakker,13,,,2435WV,Zevenhoven,Nieuwkoop,Zuid-Holland,VBO,4.776900,52.182177
Vlasakker,15,,,2435WV,Zevenhoven,Nieuwkoop,Zuid-Holland,VBO,4.776885,52.182230
Vlasakker,17,,,2435WV,Zevenhoven,Nieuwkoop,Zuid-Holland,VBO,4.776855,52.182275
Vlasakker,19,,,2435WV,Zevenhoven,Nieuwkoop,Zuid-Holland,VBO,4.776825,52.182320
Vlasakker,21,,,2435WV,Zevenhoven,Nieuwkoop,Zuid-Holland,VBO,4.776824,52.182374
Vlasakker,23,,,2435WV,Zevenhoven,Nieuwkoop,Zuid-Holland,VBO,4.776795,52.182419
Vlasakker,25,,,2435WV,Zevenhoven,Nieuwkoop,Zuid-Holland,VBO,4.776765,52.182463
Vlasakker,27,,,2435WV,Zevenhoven,Nieuwkoop,Zuid-Holland,VBO,4.776706,52.182490
St. Janstraat,1,,,2435WX,Zevenhoven,Nieuwkoop,Zuid-Holland,VBO,4.772439,52.190782
St. Janstraat,2,,,2435WX,Zevenhoven,Nieuwkoop,Zuid-Holland,VBO,4.772862,52.190883
St. Janstraat,3,,,2435WX,Zevenhoven,Nieuwkoop,Zuid-Holland,VBO,4.772424,52.190827
St. Janstraat,4,,,2435WX,Zevenhoven,Nieuwkoop,Zuid-Holland,VBO,4.772817,52.190919
St. Janstraat,5,,,2435WX,Zevenhoven,Nieuwkoop,Zuid-Holland,VBO,4.772379,52.190872
St. Janstraat,6,,,2435WX,Zevenhoven,Nieuwkoop,Zuid-Holland,VBO,4.772772,52.190990
St. Janstraat,7,,,2435WX,Zevenhoven,Nieuwkoop,Zuid-Holland,VBO,4.772349,52.190925
St. Janstraat,8,,,2435WX,Zevenhoven,Nieuwkoop,Zuid-Holland,VBO,4.772757,52.191026
St. Janstraat,9,,,2435WX,Zevenhoven,Nieuwkoop,Zuid-Holland,VBO,4.772319,52.190961
St. Janstraat,10,,,2435WX,Zevenhoven,Nieuwkoop,Zuid-Holland,VBO,4.773543,52.191345
St. Janstraat,11,,,2435WX,Zevenhoven,Nieuwkoop,Zuid-Holland,VBO,4.772289,52.191024
St. Janstraat,12,,,2435WX,Zevenhoven,Nieuwkoop,Zuid-Holland,VBO,4.773662,52.191211
St. Janstraat,13,,,2435WX,Zevenhoven,Nieuwkoop,Zuid-Holland,VBO,4.772230,52.191060
St. Janstraat,15,,,2435WX,Zevenhoven,Nieuwkoop,Zuid-Holland,VBO,4.772201,52.191095
St. Janstraat,17,,,2435WX,Zevenhoven,Nieuwkoop,Zuid-Holland,VBO,4.772171,52.191140
St. Janstraat,19,,,2435WX,Zevenhoven,Nieuwkoop,Zuid-Holland,VBO,4.772141,52.191185
St. Janstraat,21,,,2435WX,Zevenhoven,Nieuwkoop,Zuid-Holland,VBO,4.771530,52.190912
St. Janstraat,23,A,,2435WX,Zevenhoven,Nieuwkoop,Zuid-Holland,VBO,4.772022,52.191292
St. Janstraat,23,B,,2435WX,Zevenhoven,Nieuwkoop,Zuid-Holland,VBO,4.771978,52.191355
St. Janstraat,25,,,2435WX,Zevenhoven,Nieuwkoop,Zuid-Holland,VBO,4.773133,52.191361
St. Janstraat,27,,,2435WX,Zevenhoven,Nieuwkoop,Zuid-Holland,VBO,4.773045,52.191342
St. Janstraat,29,,,2435WX,Zevenhoven,Nieuwkoop,Zuid-Holland,VBO,4.772973,52.191324
St. Janstraat,31,,,2435WX,Zevenhoven,Nieuwkoop,Zuid-Holland,VBO,4.772900,52.191306
St. Janstraat,33,,,2435WX,Zevenhoven,Nieuwkoop,Zuid-Holland,VBO,4.772812,52.191287
St. Janstraat,35,,,2435WX,Zevenhoven,Nieuwkoop,Zuid-Holland,VBO,4.772739,52.191269
St. Janstraat,37,,,2435WX,Zevenhoven,Nieuwkoop,Zuid-Holland,VBO,4.772681,52.191251
St. Janstraat,39,,,2435WX,Zevenhoven,Nieuwkoop,Zuid-Holland,VBO,4.772594,52.191232
St. Janstraat,41,,,2435WX,Zevenhoven,Nieuwkoop,Zuid-Holland,VBO,4.773253,52.191146
St. Janstraat,43,,,2435WX,Zevenhoven,Nieuwkoop,Zuid-Holland,VBO,4.773297,52.191110
St. Janstraat,45,,,2435WX,Zevenhoven,Nieuwkoop,Zuid-Holland,VBO,4.773327,52.191056
St. Janstraat,47,,,2435WX,Zevenhoven,Nieuwkoop,Zuid-Holland,VBO,4.773372,52.191012
Albrechtshof,1,,,2435WZ,Zevenhoven,Nieuwkoop,Zuid-Holland,VBO,4.779801,52.182830
Albrechtshof,2,,,2435WZ,Zevenhoven,Nieuwkoop,Zuid-Holland,VBO,4.779874,52.182875
Albrechtshof,3,,,2435WZ,Zevenhoven,Nieuwkoop,Zuid-Holland,VBO,4.780152,52.182858
Albrechtshof,4,,,2435WZ,Zevenhoven,Nieuwkoop,Zuid-Holland,VBO,4.780139,52.182697
Albrechtshof,5,A,,2435WZ,Zevenhoven,Nieuwkoop,Zuid-Holland,VBO,4.780243,52.182598
Albrechtshof,5,,,2435WZ,Zevenhoven,Nieuwkoop,Zuid-Holland,VBO,4.780198,52.182652
Albrechtshof,6,,,2435WZ,Zevenhoven,Nieuwkoop,Zuid-Holland,VBO,4.780068,52.182543
Hertog Albrechtstraat,5,,,2435XA,Zevenhoven,Nieuwkoop,Zuid-Holland,VBO,4.779109,52.183159
Hertog Albrechtstraat,7,,,2435XA,Zevenhoven,Nieuwkoop,Zuid-Holland,VBO,4.778978,52.183131
Hertog Albrechtstraat,9,,,2435XA,Zevenhoven,Nieuwkoop,Zuid-Holland,VBO,4.778862,52.183094
Hertog Albrechtstraat,11,,,2435XA,Zevenhoven,Nieuwkoop,Zuid-Holland,VBO,4.778730,52.183076
Hertog Albrechtstraat,13,,,2435XA,Zevenhoven,Nieuwkoop,Zuid-Holland,VBO,4.779215,52.182944
Hertog Albrechtstraat,15,,,2435XA,Zevenhoven,Nieuwkoop,Zuid-Holland,VBO,4.779303,52.182899
Hertog Albrechtstraat,17,,,2435XA,Zevenhoven,Nieuwkoop,Zuid-Holland,VBO,4.779348,52.182809
Hertog Albrechtstraat,19,,,2435XA,Zevenhoven,Nieuwkoop,Zuid-Holland,VBO,4.779378,52.182738
Hertog Albrechtstraat,21,,,2435XA,Zevenhoven,Nieuwkoop,Zuid-Holland,VBO,4.779440,52.182531
Hertog Albrechtstraat,23,,,2435XA,Zevenhoven,Nieuwkoop,Zuid-Holland,VBO,4.779484,52.182469
Hertog Albrechtstraat,25,,,2435XA,Zevenhoven,Nieuwkoop,Zuid-Holland,VBO,4.779471,52.182361
Hertog Albrechtstraat,27,,,2435XA,Zevenhoven,Nieuwkoop,Zuid-Holland,VBO,4.779501,52.182298
Hertog Albrechtstraat,29,,,2435XA,Zevenhoven,Nieuwkoop,Zuid-Holland,VBO,4.779503,52.182181
Hertog Albrechtstraat,31,,,2435XA,Zevenhoven,Nieuwkoop,Zuid-Holland,VBO,4.779548,52.182118
Hertog Albrechtstraat,55,,,2435XB,Zevenhoven,Nieuwkoop,Zuid-Holland,VBO,4.780628,52.180093
Hertog Albrechtstraat,57,,,2435XB,Zevenhoven,Nieuwkoop,Zuid-Holland,VBO,4.780731,52.180057
Hertog Albrechtstraat,59,,,2435XB,Zevenhoven,Nieuwkoop,Zuid-Holland,VBO,4.780761,52.179994
Hertog Albrechtstraat,61,,,2435XB,Zevenhoven,Nieuwkoop,Zuid-Holland,VBO,4.780805,52.179950
Hertog Albrechtstraat,63,,,2435XB,Zevenhoven,Nieuwkoop,Zuid-Holland,VBO,4.780835,52.179896
Hertog Albrechtstraat,65,,,2435XB,Zevenhoven,Nieuwkoop,Zuid-Holland,VBO,4.780865,52.179842
Hertog Albrechtstraat,67,,,2435XB,Zevenhoven,Nieuwkoop,Zuid-Holland,VBO,4.780895,52.179797
Hertog Albrechtstraat,69,,,2435XB,Zevenhoven,Nieuwkoop,Zuid-Holland,VBO,4.780940,52.179744
Hertog Albrechtstraat,71,,,2435XB,Zevenhoven,Nieuwkoop,Zuid-Holland,VBO,4.780912,52.179654
Hertog Albrechtstraat,2,,,2435XC,Zevenhoven,Nieuwkoop,Zuid-Holland,VBO,4.779429,52.183340
Hertog Albrechtstraat,4,,,2435XC,Zevenhoven,Nieuwkoop,Zuid-Holland,VBO,4.779415,52.183268
Hertog Albrechtstraat,6,,,2435XC,Zevenhoven,Nieuwkoop,Zuid-Holland,VBO,4.779518,52.183197
Hertog Albrechtstraat,8,,,2435XC,Zevenhoven,Nieuwkoop,Zuid-Holland,VBO,4.779578,52.183107
Hertog Albrechtstraat,10,,,2435XC,Zevenhoven,Nieuwkoop,Zuid-Holland,VBO,4.779594,52.183035
Hertog Albrechtstraat,12,,,2435XC,Zevenhoven,Nieuwkoop,Zuid-Holland,VBO,4.779653,52.182964
Hertog Albrechtstraat,20,,,2435XC,Zevenhoven,Nieuwkoop,Zuid-Holland,VBO,4.780208,52.181942
Hertog Albrechtstraat,22,,,2435XC,Zevenhoven,Nieuwkoop,Zuid-Holland,VBO,4.780120,52.181942
Hertog Albrechtstraat,24,,,2435XC,Zevenhoven,Nieuwkoop,Zuid-Holland,VBO,4.780181,52.181771
Hertog Albrechtstraat,26,,,2435XC,Zevenhoven,Nieuwkoop,Zuid-Holland,VBO,4.780211,52.181735
Hertog Albrechtstraat,28,,,2435XC,Zevenhoven,Nieuwkoop,Zuid-Holland,VBO,4.780241,52.181681
Hertog Albrechtstraat,30,,,2435XC,Zevenhoven,Nieuwkoop,Zuid-Holland,VBO,4.780271,52.181637
Hertog Albrechtstraat,32,,,2435XC,Zevenhoven,Nieuwkoop,Zuid-Holland,VBO,4.780315,52.181574
Hertog Albrechtstraat,34,,,2435XC,Zevenhoven,Nieuwkoop,Zuid-Holland,VBO,4.780345,52.181529
Hertog Albrechtstraat,40,B,,2435XD,Zevenhoven,Nieuwkoop,Zuid-Holland,VBO,4.780816,52.181289
Hertog Albrechtstraat,42,,,2435XD,Zevenhoven,Nieuwkoop,Zuid-Holland,VBO,4.780510,52.181251
Hertog Albrechtstraat,44,,,2435XD,Zevenhoven,Nieuwkoop,Zuid-Holland,VBO,4.780540,52.181207
Hertog Albrechtstraat,46,,,2435XD,Zevenhoven,Nieuwkoop,Zuid-Holland,VBO,4.780584,52.181135
Hertog Albrechtstraat,48,,,2435XD,Zevenhoven,Nieuwkoop,Zuid-Holland,VBO,4.780600,52.181099
Hertog Albrechtstraat,50,,,2435XD,Zevenhoven,Nieuwkoop,Zuid-Holland,VBO,4.780629,52.181054
Hertog Albrechtstraat,52,,,2435XD,Zevenhoven,Nieuwkoop,Zuid-Holland,VBO,4.780659,52.181010
Hertog Albrechtstraat,54,,,2435XD,Zevenhoven,Nieuwkoop,Zuid-Holland,VBO,4.780779,52.180839
Hertog Albrechtstraat,56,,,2435XD,Zevenhoven,Nieuwkoop,Zuid-Holland,VBO,4.780910,52.180849
Hertog Albrechtstraat,60,,,2435XD,Zevenhoven,Nieuwkoop,Zuid-Holland,VBO,4.781449,52.180996
Hertog Albrechtstraat,62,A,,2435XD,Zevenhoven,Nieuwkoop,Zuid-Holland,VBO,4.781498,52.180636
Hertog Albrechtstraat,62,B,,2435XD,Zevenhoven,Nieuwkoop,Zuid-Holland,VBO,4.781590,52.180492
Hertog Albrechtstraat,62,C,,2435XD,Zevenhoven,Nieuwkoop,Zuid-Holland,VBO,4.781612,52.180458
Hertog Albrechtstraat,62,D,,2435XD,Zevenhoven,Nieuwkoop,Zuid-Holland,VBO,4.781632,52.180423
Hertog Albrechtstraat,62,,,2435XD,Zevenhoven,Nieuwkoop,Zuid-Holland,VBO,4.781599,52.180666
Hertog Albrechtstraat,64,A,,2435XD,Zevenhoven,Nieuwkoop,Zuid-Holland,VBO,4.781265,52.180581
Hertog Albrechtstraat,64,B,,2435XD,Zevenhoven,Nieuwkoop,Zuid-Holland,VBO,4.781368,52.180440
Hertog Albrechtstraat,64,C,,2435XD,Zevenhoven,Nieuwkoop,Zuid-Holland,VBO,4.781390,52.180406
Hertog Albrechtstraat,64,D,,2435XD,Zevenhoven,Nieuwkoop,Zuid-Holland,VBO,4.781408,52.180374
Hertog Albrechtstraat,64,,,2435XD,Zevenhoven,Nieuwkoop,Zuid-Holland,VBO,4.781337,52.180627
Hertog Albrechtstraat,66,,,2435XD,Zevenhoven,Nieuwkoop,Zuid-Holland,VBO,4.780957,52.180598
Hertog Albrechtstraat,68,,,2435XD,Zevenhoven,Nieuwkoop,Zuid-Holland,VBO,4.780958,52.180535
Hertog Albrechtstraat,70,,,2435XD,Zevenhoven,Nieuwkoop,Zuid-Holland,VBO,4.781003,52.180481
Hertog Albrechtstraat,72,,,2435XD,Zevenhoven,Nieuwkoop,Zuid-Holland,VBO,4.781033,52.180427
Hertog Albrechtstraat,74,,,2435XD,Zevenhoven,Nieuwkoop,Zuid-Holland,VBO,4.781077,52.180374
Hertog Albrechtstraat,76,,,2435XD,Zevenhoven,Nieuwkoop,Zuid-Holland,VBO,4.781107,52.180320
Hertog Albrechtstraat,78,,,2435XD,Zevenhoven,Nieuwkoop,Zuid-Holland,VBO,4.781226,52.180168
Hertog Albrechtstraat,80,,,2435XD,Zevenhoven,Nieuwkoop,Zuid-Holland,VBO,4.781314,52.180177
Hertog Albrechtstraat,82,A,,2435XD,Zevenhoven,Nieuwkoop,Zuid-Holland,VBO,4.781446,52.180295
Hertog Albrechtstraat,82,B,,2435XD,Zevenhoven,Nieuwkoop,Zuid-Holland,VBO,4.781439,52.180320
Hertog Albrechtstraat,82,C,,2435XD,Zevenhoven,Nieuwkoop,Zuid-Holland,VBO,4.781428,52.180345
Hertog Albrechtstraat,82,,,2435XD,Zevenhoven,Nieuwkoop,Zuid-Holland,VBO,4.781533,52.180187
Hertog Albrechtstraat,84,A,,2435XD,Zevenhoven,Nieuwkoop,Zuid-Holland,VBO,4.781809,52.180305
Hertog Albrechtstraat,84,,,2435XD,Zevenhoven,Nieuwkoop,Zuid-Holland,VBO,4.781751,52.180305
Verlaat,1,,,2435XE,Zevenhoven,Nieuwkoop,Zuid-Holland,VBO,4.780424,52.180002
Verlaat,3,,,2435XE,Zevenhoven,Nieuwkoop,Zuid-Holland,VBO,4.780293,52.180010
Verlaat,5,,,2435XE,Zevenhoven,Nieuwkoop,Zuid-Holland,VBO,4.780205,52.179992
Verlaat,7,A,,2435XE,Zevenhoven,Nieuwkoop,Zuid-Holland,VBO,4.780237,52.179794
Verlaat,7,B,,2435XE,Zevenhoven,Nieuwkoop,Zuid-Holland,VBO,4.780266,52.179803
Verlaat,7,C,,2435XE,Zevenhoven,Nieuwkoop,Zuid-Holland,VBO,4.780310,52.179812
Verlaat,7,D,,2435XE,Zevenhoven,Nieuwkoop,Zuid-Holland,VBO,4.780339,52.179821
Verlaat,7,E,,2435XE,Zevenhoven,Nieuwkoop,Zuid-Holland,VBO,4.780383,52.179831
Verlaat,7,G,,2435XE,Zevenhoven,Nieuwkoop,Zuid-Holland,VBO,4.780427,52.179840
Verlaat,7,H,,2435XE,Zevenhoven,Nieuwkoop,Zuid-Holland,VBO,4.780470,52.179849
Verlaat,7,J,,2435XE,Zevenhoven,Nieuwkoop,Zuid-Holland,VBO,4.780514,52.179858
Verlaat,7,K,,2435XE,Zevenhoven,Nieuwkoop,Zuid-Holland,VBO,4.780589,52.179733
Verlaat,7,L,,2435XE,Zevenhoven,Nieuwkoop,Zuid-Holland,VBO,4.780545,52.179724
Verlaat,7,M,,2435XE,Zevenhoven,Nieuwkoop,Zuid-Holland,VBO,4.780516,52.179714
Verlaat,7,N,,2435XE,Zevenhoven,Nieuwkoop,Zuid-Holland,VBO,4.780472,52.179705
Verlaat,7,R,,2435XE,Zevenhoven,Nieuwkoop,Zuid-Holland,VBO,4.780385,52.179687
Verlaat,7,S,,2435XE,Zevenhoven,Nieuwkoop,Zuid-Holland,VBO,4.780341,52.179678
Verlaat,7,T,,2435XE,Zevenhoven,Nieuwkoop,Zuid-Holland,VBO,4.780297,52.179668
Verlaat,7,V,,2435XE,Zevenhoven,Nieuwkoop,Zuid-Holland,VBO,4.780254,52.179659
Verlaat,7,W,,2435XE,Zevenhoven,Nieuwkoop,Zuid-Holland,VBO,4.780210,52.179650
Verlaat,7,X,,2435XE,Zevenhoven,Nieuwkoop,Zuid-Holland,VBO,4.780181,52.179641
Verlaat,7,,,2435XE,Zevenhoven,Nieuwkoop,Zuid-Holland,VBO,4.780118,52.179928
Verlaat,9,,,2435XE,Zevenhoven,Nieuwkoop,Zuid-Holland,VBO,4.780048,52.179712
Verlaat,11,,,2435XE,Zevenhoven,Nieuwkoop,Zuid-Holland,VBO,4.779931,52.179729
Verlaat,13,,,2435XE,Zevenhoven,Nieuwkoop,Zuid-Holland,VBO,4.779829,52.179702
Verlaat,15,,,2435XE,Zevenhoven,Nieuwkoop,Zuid-Holland,VBO,4.779756,52.179684
Verlaat,17,,,2435XE,Zevenhoven,Nieuwkoop,Zuid-Holland,VBO,4.779669,52.179665
Verlaat,19,,,2435XE,Zevenhoven,Nieuwkoop,Zuid-Holland,VBO,4.779581,52.179638
Verlaat,21,,,2435XE,Zevenhoven,Nieuwkoop,Zuid-Holland,VBO,4.779494,52.179619
Verlaat,23,,,2435XE,Zevenhoven,Nieuwkoop,Zuid-Holland,VBO,4.779407,52.179565
Verlaat,2,,,2435XG,Zevenhoven,Nieuwkoop,Zuid-Holland,VBO,4.780595,52.180380
Verlaat,4,,,2435XG,Zevenhoven,Nieuwkoop,Zuid-Holland,VBO,4.780522,52.180362
Verlaat,6,,,2435XG,Zevenhoven,Nieuwkoop,Zuid-Holland,VBO,4.780449,52.180343
Verlaat,8,,,2435XG,Zevenhoven,Nieuwkoop,Zuid-Holland,VBO,4.780362,52.180325
Verlaat,10,,,2435XG,Zevenhoven,Nieuwkoop,Zuid-Holland,VBO,4.780259,52.180271
Verlaat,12,,,2435XG,Zevenhoven,Nieuwkoop,Zuid-Holland,VBO,4.780174,52.180246
Verlaat,14,,,2435XG,Zevenhoven,Nieuwkoop,Zuid-Holland,VBO,4.780088,52.180228
Verlaat,16,,,2435XG,Zevenhoven,Nieuwkoop,Zuid-Holland,VBO,4.780026,52.180242
Verlaat,18,,,2435XG,Zevenhoven,Nieuwkoop,Zuid-Holland,VBO,4.779823,52.180133
Verlaat,20,,,2435XG,Zevenhoven,Nieuwkoop,Zuid-Holland,VBO,4.779765,52.180097
Verlaat,22,,,2435XG,Zevenhoven,Nieuwkoop,Zuid-Holland,VBO,4.779663,52.180070
Verlaat,24,,,2435XG,Zevenhoven,Nieuwkoop,Zuid-Holland,VBO,4.779576,52.180051
Verlaat,26,,,2435XG,Zevenhoven,Nieuwkoop,Zuid-Holland,VBO,4.779444,52.180051
Verlaat,28,,,2435XG,Zevenhoven,Nieuwkoop,Zuid-Holland,VBO,4.779212,52.179950
Verlaat,30,,,2435XG,Zevenhoven,Nieuwkoop,Zuid-Holland,VBO,4.779167,52.179995
Verlaat,32,,,2435XG,Zevenhoven,Nieuwkoop,Zuid-Holland,VBO,4.779108,52.180076
Verlaat,34,,,2435XG,Zevenhoven,Nieuwkoop,Zuid-Holland,VBO,4.779077,52.180139
Verlaat,36,,,2435XG,Zevenhoven,Nieuwkoop,Zuid-Holland,VBO,4.779079,52.180176
Verlaat,38,,,2435XG,Zevenhoven,Nieuwkoop,Zuid-Holland,VBO,4.779017,52.180246
Verlaat,40,,,2435XG,Zevenhoven,Nieuwkoop,Zuid-Holland,VBO,4.779002,52.180291
Groene Jonkerstraat,1,,,2435XH,Zevenhoven,Nieuwkoop,Zuid-Holland,VBO,4.780445,52.180604
Groene Jonkerstraat,3,,,2435XH,Zevenhoven,Nieuwkoop,Zuid-Holland,VBO,4.780358,52.180595
Groene Jonkerstraat,5,,,2435XH,Zevenhoven,Nieuwkoop,Zuid-Holland,VBO,4.780270,52.180576
Groene Jonkerstraat,7,,,2435XH,Zevenhoven,Nieuwkoop,Zuid-Holland,VBO,4.780168,52.180558
Groene Jonkerstraat,9,,,2435XH,Zevenhoven,Nieuwkoop,Zuid-Holland,VBO,4.780066,52.180530
Groene Jonkerstraat,11,,,2435XH,Zevenhoven,Nieuwkoop,Zuid-Holland,VBO,4.779979,52.180512
Groene Jonkerstraat,13,,,2435XH,Zevenhoven,Nieuwkoop,Zuid-Holland,VBO,4.779906,52.180502
Groene Jonkerstraat,15,,,2435XH,Zevenhoven,Nieuwkoop,Zuid-Holland,VBO,4.779819,52.180448
Groene Jonkerstraat,17,,,2435XH,Zevenhoven,Nieuwkoop,Zuid-Holland,VBO,4.779659,52.180393
Groene Jonkerstraat,19,,,2435XH,Zevenhoven,Nieuwkoop,Zuid-Holland,VBO,4.779556,52.180402
Groene Jonkerstraat,21,,,2435XH,Zevenhoven,Nieuwkoop,Zuid-Holland,VBO,4.779454,52.180383
Groene Jonkerstraat,23,,,2435XH,Zevenhoven,Nieuwkoop,Zuid-Holland,VBO,4.779382,52.180356
Groene Jonkerstraat,25,,,2435XH,Zevenhoven,Nieuwkoop,Zuid-Holland,VBO,4.779295,52.180301
Groene Jonkerstraat,27,,,2435XH,Zevenhoven,Nieuwkoop,Zuid-Holland,VBO,4.778390,52.180135
Groene Jonkerstraat,29,,,2435XH,Zevenhoven,Nieuwkoop,Zuid-Holland,VBO,4.778288,52.180152
Groene Jonkerstraat,31,,,2435XH,Zevenhoven,Nieuwkoop,Zuid-Holland,VBO,4.778229,52.180143
Groene Jonkerstraat,33,,,2435XH,Zevenhoven,Nieuwkoop,Zuid-Holland,VBO,4.778142,52.180116
Groene Jonkerstraat,35,,,2435XH,Zevenhoven,Nieuwkoop,Zuid-Holland,VBO,4.778054,52.180106
Groene Jonkerstraat,37,,,2435XH,Zevenhoven,Nieuwkoop,Zuid-Holland,VBO,4.777997,52.180043
Groene Jonkerstraat,2,,,2435XJ,Zevenhoven,Nieuwkoop,Zuid-Holland,VBO,4.780251,52.180891
Groene Jonkerstraat,4,,,2435XJ,Zevenhoven,Nieuwkoop,Zuid-Holland,VBO,4.780164,52.180872
Groene Jonkerstraat,6,,,2435XJ,Zevenhoven,Nieuwkoop,Zuid-Holland,VBO,4.780077,52.180854
Groene Jonkerstraat,8,,,2435XJ,Zevenhoven,Nieuwkoop,Zuid-Holland,VBO,4.779989,52.180835
Groene Jonkerstraat,10,,,2435XJ,Zevenhoven,Nieuwkoop,Zuid-Holland,VBO,4.779902,52.180817
Groene Jonkerstraat,12,,,2435XJ,Zevenhoven,Nieuwkoop,Zuid-Holland,VBO,4.779843,52.180799
Groene Jonkerstraat,14,,,2435XJ,Zevenhoven,Nieuwkoop,Zuid-Holland,VBO,4.779770,52.180780
Groene Jonkerstraat,16,A,,2435XJ,Zevenhoven,Nieuwkoop,Zuid-Holland,VBO,4.779448,52.180859
Groene Jonkerstraat,16,,,2435XJ,Zevenhoven,Nieuwkoop,Zuid-Holland,VBO,4.779668,52.180762
Groene Jonkerstraat,18,,,2435XJ,Zevenhoven,Nieuwkoop,Zuid-Holland,VBO,4.779026,52.180722
Groene Jonkerstraat,20,,,2435XJ,Zevenhoven,Nieuwkoop,Zuid-Holland,VBO,4.779114,52.180678
Groene Jonkerstraat,22,,,2435XJ,Zevenhoven,Nieuwkoop,Zuid-Holland,VBO,4.779144,52.180624
Groene Jonkerstraat,24,,,2435XJ,Zevenhoven,Nieuwkoop,Zuid-Holland,VBO,4.779130,52.180552
Groene Jonkerstraat,26,,,2435XJ,Zevenhoven,Nieuwkoop,Zuid-Holland,VBO,4.778750,52.180532
Groene Jonkerstraat,28,,,2435XJ,Zevenhoven,Nieuwkoop,Zuid-Holland,VBO,4.778678,52.180514
Groene Jonkerstraat,30,,,2435XJ,Zevenhoven,Nieuwkoop,Zuid-Holland,VBO,4.778619,52.180487
Groene Jonkerstraat,32,,,2435XJ,Zevenhoven,Nieuwkoop,Zuid-Holland,VBO,4.778547,52.180450
Groene Jonkerstraat,34,,,2435XJ,Zevenhoven,Nieuwkoop,Zuid-Holland,VBO,4.778474,52.180423
Groene Jonkerstraat,36,,,2435XJ,Zevenhoven,Nieuwkoop,Zuid-Holland,VBO,4.778387,52.180405
Groene Jonkerstraat,38,,,2435XJ,Zevenhoven,Nieuwkoop,Zuid-Holland,VBO,4.778270,52.180413
Groene Jonkerstraat,40,,,2435XJ,Zevenhoven,Nieuwkoop,Zuid-Holland,VBO,4.777993,52.180313
Groene Jonkerstraat,42,,,2435XJ,Zevenhoven,Nieuwkoop,Zuid-Holland,VBO,4.778021,52.180376
Groene Jonkerstraat,44,,,2435XJ,Zevenhoven,Nieuwkoop,Zuid-Holland,VBO,4.778006,52.180430
Groene Jonkerstraat,46,,,2435XJ,Zevenhoven,Nieuwkoop,Zuid-Holland,VBO,4.778020,52.180493
Groene Jonkerstraat,48,,,2435XJ,Zevenhoven,Nieuwkoop,Zuid-Holland,VBO,4.778005,52.180537
Groene Jonkerstraat,50,,,2435XJ,Zevenhoven,Nieuwkoop,Zuid-Holland,VBO,4.777975,52.180591
Groene Jonkerstraat,52,,,2435XJ,Zevenhoven,Nieuwkoop,Zuid-Holland,VBO,4.777930,52.180636
Groene Jonkerstraat,54,,,2435XJ,Zevenhoven,Nieuwkoop,Zuid-Holland,VBO,4.777900,52.180690
Groene Jonkerstraat,56,,,2435XJ,Zevenhoven,Nieuwkoop,Zuid-Holland,VBO,4.777856,52.180725
Schoterstraat,1,,,2435XK,Zevenhoven,Nieuwkoop,Zuid-Holland,VBO,4.779133,52.182467
Schoterstraat,3,,,2435XK,Zevenhoven,Nieuwkoop,Zuid-Holland,VBO,4.779061,52.182448
Schoterstraat,5,,,2435XK,Zevenhoven,Nieuwkoop,Zuid-Holland,VBO,4.778929,52.182430
Schoterstraat,7,,,2435XK,Zevenhoven,Nieuwkoop,Zuid-Holland,VBO,4.778871,52.182411
Schoterstraat,9,,,2435XK,Zevenhoven,Nieuwkoop,Zuid-Holland,VBO,4.778784,52.182384
Schoterstraat,11,,,2435XK,Zevenhoven,Nieuwkoop,Zuid-Holland,VBO,4.778389,52.182400
Schoterstraat,13,,,2435XK,Zevenhoven,Nieuwkoop,Zuid-Holland,VBO,4.778373,52.182436
Schoterstraat,15,,,2435XK,Zevenhoven,Nieuwkoop,Zuid-Holland,VBO,4.778329,52.182481
Schoterstraat,17,,,2435XK,Zevenhoven,Nieuwkoop,Zuid-Holland,VBO,4.778299,52.182534
Schoterstraat,19,,,2435XK,Zevenhoven,Nieuwkoop,Zuid-Holland,VBO,4.778284,52.182597
Schoterstraat,21,,,2435XK,Zevenhoven,Nieuwkoop,Zuid-Holland,VBO,4.778239,52.182660
Schoterstraat,23,,,2435XK,Zevenhoven,Nieuwkoop,Zuid-Holland,VBO,4.778223,52.182768
Schoterstraat,25,,,2435XK,Zevenhoven,Nieuwkoop,Zuid-Holland,VBO,4.778178,52.182821
Schoterstraat,27,,,2435XK,Zevenhoven,Nieuwkoop,Zuid-Holland,VBO,4.778148,52.182875
Schoterstraat,29,,,2435XK,Zevenhoven,Nieuwkoop,Zuid-Holland,VBO,4.778118,52.182920
Schoterstraat,31,,,2435XK,Zevenhoven,Nieuwkoop,Zuid-Holland,VBO,4.778044,52.183009
Schoterstraat,33,,,2435XK,Zevenhoven,Nieuwkoop,Zuid-Holland,VBO,4.778043,52.183090
Schoterstraat,35,,,2435XK,Zevenhoven,Nieuwkoop,Zuid-Holland,VBO,4.778028,52.183135
Schoterstraat,37,,,2435XK,Zevenhoven,Nieuwkoop,Zuid-Holland,VBO,4.777939,52.183180
Schoterstraat,2,,,2435XL,Zevenhoven,Nieuwkoop,Zuid-Holland,VBO,4.779145,52.182700
Schoterstraat,4,,,2435XL,Zevenhoven,Nieuwkoop,Zuid-Holland,VBO,4.779072,52.182664
Schoterstraat,6,,,2435XL,Zevenhoven,Nieuwkoop,Zuid-Holland,VBO,4.778985,52.182637
Schoterstraat,8,,,2435XL,Zevenhoven,Nieuwkoop,Zuid-Holland,VBO,4.778912,52.182618
Schoterstraat,10,,,2435XL,Zevenhoven,Nieuwkoop,Zuid-Holland,VBO,4.778795,52.182609
Schoterstraat,12,,,2435XL,Zevenhoven,Nieuwkoop,Zuid-Holland,VBO,4.778722,52.182590
Schoterstraat,14,,,2435XL,Zevenhoven,Nieuwkoop,Zuid-Holland,VBO,4.778632,52.182743
Schoterstraat,16,,,2435XL,Zevenhoven,Nieuwkoop,Zuid-Holland,VBO,4.778559,52.182796
Schoterstraat,18,,,2435XL,Zevenhoven,Nieuwkoop,Zuid-Holland,VBO,4.778514,52.182850
Schoterstraat,20,,,2435XL,Zevenhoven,Nieuwkoop,Zuid-Holland,VBO,4.778484,52.182895
Schoterstraat,22,,,2435XL,Zevenhoven,Nieuwkoop,Zuid-Holland,VBO,4.778454,52.182949
Schoterstraat,24,,,2435XL,Zevenhoven,Nieuwkoop,Zuid-Holland,VBO,4.778424,52.183002
Schoterstraat,26,,,2435XL,Zevenhoven,Nieuwkoop,Zuid-Holland,VBO,4.778380,52.183047
Schoterstraat,28,,,2435XL,Zevenhoven,Nieuwkoop,Zuid-Holland,VBO,4.778379,52.183119
Heemraadstraat,1,,,2435XM,Zevenhoven,Nieuwkoop,Zuid-Holland,VBO,4.778752,52.181512
Heemraadstraat,2,,,2435XM,Zevenhoven,Nieuwkoop,Zuid-Holland,VBO,4.779847,52.181590
Heemraadstraat,3,,,2435XM,Zevenhoven,Nieuwkoop,Zuid-Holland,VBO,4.778782,52.181449
Heemraadstraat,4,,,2435XM,Zevenhoven,Nieuwkoop,Zuid-Holland,VBO,4.779774,52.181580
Heemraadstraat,5,,,2435XM,Zevenhoven,Nieuwkoop,Zuid-Holland,VBO,4.778812,52.181404
Heemraadstraat,6,,,2435XM,Zevenhoven,Nieuwkoop,Zuid-Holland,VBO,4.779672,52.181553
Heemraadstraat,7,,,2435XM,Zevenhoven,Nieuwkoop,Zuid-Holland,VBO,4.778841,52.181369
Heemraadstraat,8,,,2435XM,Zevenhoven,Nieuwkoop,Zuid-Holland,VBO,4.779585,52.181525
Heemraadstraat,10,,,2435XM,Zevenhoven,Nieuwkoop,Zuid-Holland,VBO,4.779395,52.181497
Heemraadstraat,12,,,2435XM,Zevenhoven,Nieuwkoop,Zuid-Holland,VBO,4.779323,52.181461
Heemraadstraat,14,,,2435XM,Zevenhoven,Nieuwkoop,Zuid-Holland,VBO,4.779235,52.181443
Heemraadstraat,16,,,2435XM,Zevenhoven,Nieuwkoop,Zuid-Holland,VBO,4.779133,52.181433
F.M. Baudstraat,1,,,2435XN,Zevenhoven,Nieuwkoop,Zuid-Holland,VBO,4.780801,52.182412
F.M. Baudstraat,3,,,2435XN,Zevenhoven,Nieuwkoop,Zuid-Holland,VBO,4.780670,52.182376
F.M. Baudstraat,5,,,2435XN,Zevenhoven,Nieuwkoop,Zuid-Holland,VBO,4.780539,52.182330
F.M. Baudstraat,7,,,2435XN,Zevenhoven,Nieuwkoop,Zuid-Holland,VBO,4.780408,52.182303
F.M. Baudstraat,9,,,2435XN,Zevenhoven,Nieuwkoop,Zuid-Holland,VBO,4.780277,52.182275
F.M. Baudstraat,11,,,2435XN,Zevenhoven,Nieuwkoop,Zuid-Holland,VBO,4.780145,52.182238
S. van Drielstraat,1,A,,2435XP,Zevenhoven,Nieuwkoop,Zuid-Holland,VBO,4.780054,52.183550
S. van Drielstraat,1,B,,2435XP,Zevenhoven,Nieuwkoop,Zuid-Holland,VBO,4.779749,52.183450
S. van Drielstraat,1,,,2435XP,Zevenhoven,Nieuwkoop,Zuid-Holland,VBO,4.778932,52.183293
S. van Drielstraat,2,A,,2435XP,Zevenhoven,Nieuwkoop,Zuid-Holland,VBO,4.779556,52.183646
S. van Drielstraat,2,,,2435XP,Zevenhoven,Nieuwkoop,Zuid-Holland,VBO,4.779832,52.183765
S. van Drielstraat,3,,,2435XP,Zevenhoven,Nieuwkoop,Zuid-Holland,VBO,4.778931,52.183356
S. van Drielstraat,4,A,,2435XP,Zevenhoven,Nieuwkoop,Zuid-Holland,VBO,4.779145,52.183770
S. van Drielstraat,4,,,2435XP,Zevenhoven,Nieuwkoop,Zuid-Holland,VBO,4.778985,52.183733
S. van Drielstraat,5,,,2435XP,Zevenhoven,Nieuwkoop,Zuid-Holland,VBO,4.778857,52.183409
S. van Drielstraat,6,,,2435XP,Zevenhoven,Nieuwkoop,Zuid-Holland,VBO,4.778606,52.183632
S. van Drielstraat,7,,,2435XP,Zevenhoven,Nieuwkoop,Zuid-Holland,VBO,4.778377,52.183254
S. van Drielstraat,8,,,2435XP,Zevenhoven,Nieuwkoop,Zuid-Holland,VBO,4.778358,52.183577
S. van Drielstraat,9,,,2435XP,Zevenhoven,Nieuwkoop,Zuid-Holland,VBO,4.778260,52.183226
S. van Drielstraat,10,,,2435XP,Zevenhoven,Nieuwkoop,Zuid-Holland,VBO,4.778096,52.183513
S. van Drielstraat,11,,,2435XP,Zevenhoven,Nieuwkoop,Zuid-Holland,VBO,4.777678,52.183043
S. van Drielstraat,12,,,2435XP,Zevenhoven,Nieuwkoop,Zuid-Holland,VBO,4.777848,52.183449
S. van Drielstraat,13,,,2435XP,Zevenhoven,Nieuwkoop,Zuid-Holland,VBO,4.777546,52.183070
S. van Drielstraat,14,,,2435XP,Zevenhoven,Nieuwkoop,Zuid-Holland,VBO,4.777615,52.183394
S. van Drielstraat,15,,,2435XP,Zevenhoven,Nieuwkoop,Zuid-Holland,VBO,4.777474,52.182997
S. van Drielstraat,16,,,2435XP,Zevenhoven,Nieuwkoop,Zuid-Holland,VBO,4.777367,52.183338
S. van Drielstraat,17,,,2435XP,Zevenhoven,Nieuwkoop,Zuid-Holland,VBO,4.777212,52.182870
S. van Drielstraat,18,,,2435XP,Zevenhoven,Nieuwkoop,Zuid-Holland,VBO,4.776958,52.183282
S. van Drielstraat,19,,,2435XP,Zevenhoven,Nieuwkoop,Zuid-Holland,VBO,4.777140,52.182834
S. van Drielstraat,20,,,2435XP,Zevenhoven,Nieuwkoop,Zuid-Holland,VBO,4.776885,52.183264
S. van Drielstraat,21,,,2435XP,Zevenhoven,Nieuwkoop,Zuid-Holland,VBO,4.777081,52.182834
S. van Drielstraat,22,,,2435XP,Zevenhoven,Nieuwkoop,Zuid-Holland,VBO,4.776827,52.183246
S. van Drielstraat,23,,,2435XP,Zevenhoven,Nieuwkoop,Zuid-Holland,VBO,4.776994,52.182806
S. van Drielstraat,24,,,2435XP,Zevenhoven,Nieuwkoop,Zuid-Holland,VBO,4.776754,52.183227
S. van Drielstraat,25,,,2435XP,Zevenhoven,Nieuwkoop,Zuid-Holland,VBO,4.776936,52.182797
S. van Drielstraat,26,,,2435XP,Zevenhoven,Nieuwkoop,Zuid-Holland,VBO,4.776638,52.183209
S. van Drielstraat,27,,,2435XP,Zevenhoven,Nieuwkoop,Zuid-Holland,VBO,4.776863,52.182770
S. van Drielstraat,28,,,2435XP,Zevenhoven,Nieuwkoop,Zuid-Holland,VBO,4.776579,52.183200
S. van Drielstraat,29,,,2435XP,Zevenhoven,Nieuwkoop,Zuid-Holland,VBO,4.776819,52.182751
S. van Drielstraat,30,,,2435XP,Zevenhoven,Nieuwkoop,Zuid-Holland,VBO,4.776506,52.183181
S. van Drielstraat,31,,,2435XP,Zevenhoven,Nieuwkoop,Zuid-Holland,VBO,4.776616,52.182616
S. van Drielstraat,32,,,2435XP,Zevenhoven,Nieuwkoop,Zuid-Holland,VBO,4.776379,52.182875
S. van Drielstraat,34,,,2435XP,Zevenhoven,Nieuwkoop,Zuid-Holland,VBO,4.776289,52.183018
S. van Drielstraat,36,,,2435XP,Zevenhoven,Nieuwkoop,Zuid-Holland,VBO,4.776140,52.183251
S. van Drielstraat,38,,,2435XP,Zevenhoven,Nieuwkoop,Zuid-Holland,VBO,4.776050,52.183404
Plantsoen,1,,,2435XR,Zevenhoven,Nieuwkoop,Zuid-Holland,VBO,4.780102,52.181115
Plantsoen,3,,,2435XR,Zevenhoven,Nieuwkoop,Zuid-Holland,VBO,4.780015,52.181105
Plantsoen,5,,,2435XR,Zevenhoven,Nieuwkoop,Zuid-Holland,VBO,4.779942,52.181087
Plantsoen,7,,,2435XR,Zevenhoven,Nieuwkoop,Zuid-Holland,VBO,4.779854,52.181068
Plantsoen,9,,,2435XR,Zevenhoven,Nieuwkoop,Zuid-Holland,VBO,4.779767,52.181050
Plantsoen,11,,,2435XR,Zevenhoven,Nieuwkoop,Zuid-Holland,VBO,4.779650,52.181022
Plantsoen,13,,,2435XR,Zevenhoven,Nieuwkoop,Zuid-Holland,VBO,4.779563,52.181004
Plantsoen,15,,,2435XR,Zevenhoven,Nieuwkoop,Zuid-Holland,VBO,4.779505,52.180986
Plantsoen,17,,,2435XR,Zevenhoven,Nieuwkoop,Zuid-Holland,VBO,4.779285,52.180975
Plantsoen,19,,,2435XR,Zevenhoven,Nieuwkoop,Zuid-Holland,VBO,4.779168,52.180993
Plantsoen,21,,,2435XR,Zevenhoven,Nieuwkoop,Zuid-Holland,VBO,4.779081,52.180974
Plantsoen,23,,,2435XR,Zevenhoven,Nieuwkoop,Zuid-Holland,VBO,4.779008,52.180947
Plantsoen,25,,,2435XR,Zevenhoven,Nieuwkoop,Zuid-Holland,VBO,4.778921,52.180893
Plantsoen,27,,,2435XR,Zevenhoven,Nieuwkoop,Zuid-Holland,VBO,4.778644,52.180828
Plantsoen,29,,,2435XR,Zevenhoven,Nieuwkoop,Zuid-Holland,VBO,4.778541,52.180864
Plantsoen,31,,,2435XR,Zevenhoven,Nieuwkoop,Zuid-Holland,VBO,4.778483,52.180837
Plantsoen,33,,,2435XR,Zevenhoven,Nieuwkoop,Zuid-Holland,VBO,4.778410,52.180818
Plantsoen,35,,,2435XR,Zevenhoven,Nieuwkoop,Zuid-Holland,VBO,4.778323,52.180800
Plantsoen,37,,,2435XR,Zevenhoven,Nieuwkoop,Zuid-Holland,VBO,4.778250,52.180772
Plantsoen,39,,,2435XR,Zevenhoven,Nieuwkoop,Zuid-Holland,VBO,4.778163,52.180754
Plantsoen,41,,,2435XR,Zevenhoven,Nieuwkoop,Zuid-Holland,VBO,4.778105,52.180691
Vrijenhoek,2,,,2435XS,Zevenhoven,Nieuwkoop,Zuid-Holland,VBO,4.777622,52.182863
Vrijenhoek,4,,,2435XS,Zevenhoven,Nieuwkoop,Zuid-Holland,VBO,4.777652,52.182801
Vrijenhoek,6,,,2435XS,Zevenhoven,Nieuwkoop,Zuid-Holland,VBO,4.777667,52.182747
Vrijenhoek,8,,,2435XS,Zevenhoven,Nieuwkoop,Zuid-Holland,VBO,4.777712,52.182693
Vrijenhoek,10,,,2435XS,Zevenhoven,Nieuwkoop,Zuid-Holland,VBO,4.777742,52.182639
Vrijenhoek,12,,,2435XS,Zevenhoven,Nieuwkoop,Zuid-Holland,VBO,4.777787,52.182586
Vrijenhoek,14,,,2435XS,Zevenhoven,Nieuwkoop,Zuid-Holland,VBO,4.777860,52.182532
Vrijenhoek,16,,,2435XS,Zevenhoven,Nieuwkoop,Zuid-Holland,VBO,4.777876,52.182433
Vrijenhoek,18,,,2435XS,Zevenhoven,Nieuwkoop,Zuid-Holland,VBO,4.777877,52.182370
Vrijenhoek,20,,,2435XS,Zevenhoven,Nieuwkoop,Zuid-Holland,VBO,4.777893,52.182317
Vrijenhoek,22,,,2435XS,Zevenhoven,Nieuwkoop,Zuid-Holland,VBO,4.777966,52.182263
Vrijenhoek,24,,,2435XS,Zevenhoven,Nieuwkoop,Zuid-Holland,VBO,4.778087,52.182030
Vrijenhoek,26,,,2435XS,Zevenhoven,Nieuwkoop,Zuid-Holland,VBO,4.778116,52.181985
Vrijenhoek,28,,,2435XS,Zevenhoven,Nieuwkoop,Zuid-Holland,VBO,4.778161,52.181922
Vrijenhoek,30,,,2435XS,Zevenhoven,Nieuwkoop,Zuid-Holland,VBO,4.778191,52.181878
Vrijenhoek,32,,,2435XS,Zevenhoven,Nieuwkoop,Zuid-Holland,VBO,4.778221,52.181824
Vrijenhoek,34,,,2435XS,Zevenhoven,Nieuwkoop,Zuid-Holland,VBO,4.778542,52.181906
Vrijenhoek,36,,,2435XS,Zevenhoven,Nieuwkoop,Zuid-Holland,VBO,4.778600,52.181934
Vrijenhoek,38,,,2435XS,Zevenhoven,Nieuwkoop,Zuid-Holland,VBO,4.778726,52.181964
Vrijenhoek,40,,,2435XS,Zevenhoven,Nieuwkoop,Zuid-Holland,VBO,4.778789,52.181989
Vrijenhoek,42,,,2435XS,Zevenhoven,Nieuwkoop,Zuid-Holland,VBO,4.778993,52.182053
Vrijenhoek,44,,,2435XS,Zevenhoven,Nieuwkoop,Zuid-Holland,VBO,4.779109,52.182080
Vrijenhoek,46,,,2435XS,Zevenhoven,Nieuwkoop,Zuid-Holland,VBO,4.779172,52.182102
Vrijenhoek,48,,,2435XS,Zevenhoven,Nieuwkoop,Zuid-Holland,VBO,4.779255,52.182135
De Dobbe,1,,,2435XT,Zevenhoven,Nieuwkoop,Zuid-Holland,VBO,4.771195,52.192933
De Dobbe,3,,,2435XT,Zevenhoven,Nieuwkoop,Zuid-Holland,VBO,4.771150,52.193022
De Dobbe,5,,,2435XT,Zevenhoven,Nieuwkoop,Zuid-Holland,VBO,4.771134,52.193121
De Dobbe,6,,,2435XT,Zevenhoven,Nieuwkoop,Zuid-Holland,VBO,4.771938,52.192110
De Dobbe,7,,,2435XT,Zevenhoven,Nieuwkoop,Zuid-Holland,VBO,4.771075,52.193202
De Dobbe,8,,,2435XT,Zevenhoven,Nieuwkoop,Zuid-Holland,VBO,4.771907,52.192235
De Dobbe,9,,,2435XT,Zevenhoven,Nieuwkoop,Zuid-Holland,VBO,4.771030,52.193282
De Dobbe,10,,,2435XT,Zevenhoven,Nieuwkoop,Zuid-Holland,VBO,4.771788,52.192414
De Dobbe,11,,,2435XT,Zevenhoven,Nieuwkoop,Zuid-Holland,VBO,4.770970,52.193363
De Dobbe,12,,,2435XT,Zevenhoven,Nieuwkoop,Zuid-Holland,VBO,4.771726,52.192639
De Dobbe,13,,,2435XT,Zevenhoven,Nieuwkoop,Zuid-Holland,VBO,4.770834,52.193659
De Dobbe,14,,,2435XT,Zevenhoven,Nieuwkoop,Zuid-Holland,VBO,4.771916,52.192676
De Dobbe,15,,,2435XT,Zevenhoven,Nieuwkoop,Zuid-Holland,VBO,4.770746,52.193712
De Dobbe,16,,,2435XT,Zevenhoven,Nieuwkoop,Zuid-Holland,VBO,4.772003,52.192694
De Dobbe,17,,,2435XT,Zevenhoven,Nieuwkoop,Zuid-Holland,VBO,4.770671,52.193802
De Dobbe,18,,,2435XT,Zevenhoven,Nieuwkoop,Zuid-Holland,VBO,4.772076,52.192713
De Dobbe,19,,,2435XT,Zevenhoven,Nieuwkoop,Zuid-Holland,VBO,4.770612,52.193882
De Dobbe,20,,,2435XT,Zevenhoven,Nieuwkoop,Zuid-Holland,VBO,4.772163,52.192740
De Dobbe,21,,,2435XT,Zevenhoven,Nieuwkoop,Zuid-Holland,VBO,4.770538,52.193963
De Dobbe,22,,,2435XT,Zevenhoven,Nieuwkoop,Zuid-Holland,VBO,4.771780,52.192945
De Dobbe,23,,,2435XT,Zevenhoven,Nieuwkoop,Zuid-Holland,VBO,4.770493,52.194044
De Dobbe,24,,,2435XT,Zevenhoven,Nieuwkoop,Zuid-Holland,VBO,4.771736,52.192998
De Dobbe,25,,,2435XT,Zevenhoven,Nieuwkoop,Zuid-Holland,VBO,4.770433,52.194124
De Dobbe,26,,,2435XT,Zevenhoven,Nieuwkoop,Zuid-Holland,VBO,4.771706,52.193061
De Dobbe,27,,,2435XT,Zevenhoven,Nieuwkoop,Zuid-Holland,VBO,4.770388,52.194196
De Dobbe,28,,,2435XT,Zevenhoven,Nieuwkoop,Zuid-Holland,VBO,4.771676,52.193106
De Dobbe,30,,,2435XT,Zevenhoven,Nieuwkoop,Zuid-Holland,VBO,4.771587,52.193195
De Dobbe,32,,,2435XT,Zevenhoven,Nieuwkoop,Zuid-Holland,VBO,4.771557,52.193240
De Dobbe,34,,,2435XT,Zevenhoven,Nieuwkoop,Zuid-Holland,VBO,4.771512,52.193303
De Dobbe,36,,,2435XT,Zevenhoven,Nieuwkoop,Zuid-Holland,VBO,4.771482,52.193357
De Dobbe,38,,,2435XT,Zevenhoven,Nieuwkoop,Zuid-Holland,VBO,4.771422,52.193482
De Dobbe,40,,,2435XT,Zevenhoven,Nieuwkoop,Zuid-Holland,VBO,4.771377,52.193527
De Dobbe,42,,,2435XT,Zevenhoven,Nieuwkoop,Zuid-Holland,VBO,4.771347,52.193590
De Dobbe,44,,,2435XT,Zevenhoven,Nieuwkoop,Zuid-Holland,VBO,4.771303,52.193634
De Dobbe,46,,,2435XT,Zevenhoven,Nieuwkoop,Zuid-Holland,VBO,4.771242,52.193769
De Dobbe,48,,,2435XT,Zevenhoven,Nieuwkoop,Zuid-Holland,VBO,4.771241,52.193850
De Dobbe,50,,,2435XT,Zevenhoven,Nieuwkoop,Zuid-Holland,VBO,4.771226,52.193913
De Dobbe,52,,,2435XT,Zevenhoven,Nieuwkoop,Zuid-Holland,VBO,4.771166,52.193975
De Dobbe,54,,,2435XT,Zevenhoven,Nieuwkoop,Zuid-Holland,VBO,4.771151,52.194029
De Dobbe,56,,,2435XT,Zevenhoven,Nieuwkoop,Zuid-Holland,VBO,4.771150,52.194101
De Dobbe,58,,,2435XT,Zevenhoven,Nieuwkoop,Zuid-Holland,VBO,4.771149,52.194155
Vrijenhoek,1,,,2435XV,Zevenhoven,Nieuwkoop,Zuid-Holland,VBO,4.777259,52.182682
Vrijenhoek,3,,,2435XV,Zevenhoven,Nieuwkoop,Zuid-Holland,VBO,4.777303,52.182637
Vrijenhoek,5,,,2435XV,Zevenhoven,Nieuwkoop,Zuid-Holland,VBO,4.777333,52.182592
Vrijenhoek,7,,,2435XV,Zevenhoven,Nieuwkoop,Zuid-Holland,VBO,4.777348,52.182556
Vrijenhoek,9,,,2435XV,Zevenhoven,Nieuwkoop,Zuid-Holland,VBO,4.777463,52.182127
Vrijenhoek,11,A,,2435XV,Zevenhoven,Nieuwkoop,Zuid-Holland,VBO,4.777541,52.182136
Vrijenhoek,11,,,2435XV,Zevenhoven,Nieuwkoop,Zuid-Holland,VBO,4.777500,52.182144
Vrijenhoek,13,,,2435XV,Zevenhoven,Nieuwkoop,Zuid-Holland,VBO,4.777488,52.182078
Vrijenhoek,15,A,,2435XV,Zevenhoven,Nieuwkoop,Zuid-Holland,VBO,4.777564,52.182087
Vrijenhoek,15,,,2435XV,Zevenhoven,Nieuwkoop,Zuid-Holland,VBO,4.777525,52.182100
Vrijenhoek,17,,,2435XV,Zevenhoven,Nieuwkoop,Zuid-Holland,VBO,4.777510,52.182039
Vrijenhoek,19,A,,2435XV,Zevenhoven,Nieuwkoop,Zuid-Holland,VBO,4.777599,52.182046
Vrijenhoek,19,,,2435XV,Zevenhoven,Nieuwkoop,Zuid-Holland,VBO,4.777554,52.182053
Vrijenhoek,21,,,2435XV,Zevenhoven,Nieuwkoop,Zuid-Holland,VBO,4.777548,52.181988
Vrijenhoek,23,A,,2435XV,Zevenhoven,Nieuwkoop,Zuid-Holland,VBO,4.777626,52.181999
Vrijenhoek,23,,,2435XV,Zevenhoven,Nieuwkoop,Zuid-Holland,VBO,4.777587,52.182006
Vrijenhoek,25,,,2435XV,Zevenhoven,Nieuwkoop,Zuid-Holland,VBO,4.777646,52.181958
Vrijenhoek,27,,,2435XV,Zevenhoven,Nieuwkoop,Zuid-Holland,VBO,4.777679,52.181902
Vrijenhoek,31,A,,2435XV,Zevenhoven,Nieuwkoop,Zuid-Holland,VBO,4.778414,52.181591
Vrijenhoek,31,B,,2435XV,Zevenhoven,Nieuwkoop,Zuid-Holland,VBO,4.778502,52.181601
Vrijenhoek,31,C,,2435XV,Zevenhoven,Nieuwkoop,Zuid-Holland,VBO,4.778575,52.181619
Vrijenhoek,31,D,,2435XV,Zevenhoven,Nieuwkoop,Zuid-Holland,VBO,4.778633,52.181637
Vrijenhoek,33,,,2435XV,Zevenhoven,Nieuwkoop,Zuid-Holland,VBO,4.778997,52.181720
Vrijenhoek,35,,,2435XV,Zevenhoven,Nieuwkoop,Zuid-Holland,VBO,4.779070,52.181747
Vrijenhoek,37,,,2435XV,Zevenhoven,Nieuwkoop,Zuid-Holland,VBO,4.779187,52.181775
Vrijenhoek,39,,,2435XV,Zevenhoven,Nieuwkoop,Zuid-Holland,VBO,4.779318,52.181794
Vrijenhoek,41,,,2435XV,Zevenhoven,Nieuwkoop,Zuid-Holland,VBO,4.779435,52.181812
Vrijenhoek,43,,,2435XV,Zevenhoven,Nieuwkoop,Zuid-Holland,VBO,4.779522,52.181831
Vrijenhoek,45,,,2435XV,Zevenhoven,Nieuwkoop,Zuid-Holland,VBO,4.779595,52.181849
Vrijenhoek,47,,,2435XV,Zevenhoven,Nieuwkoop,Zuid-Holland,VBO,4.779668,52.181858
Ambachtsgaarde,1,,,2435XW,Zevenhoven,Nieuwkoop,Zuid-Holland,VBO,4.780725,52.181576
Ambachtsgaarde,2,,,2435XW,Zevenhoven,Nieuwkoop,Zuid-Holland,VBO,4.781034,52.181326
Ambachtsgaarde,3,,,2435XW,Zevenhoven,Nieuwkoop,Zuid-Holland,VBO,4.780517,52.181809
Ambachtsgaarde,4,,,2435XW,Zevenhoven,Nieuwkoop,Zuid-Holland,VBO,4.781111,52.181346
Ambachtsgaarde,5,,,2435XW,Zevenhoven,Nieuwkoop,Zuid-Holland,VBO,4.780442,52.181925
Ambachtsgaarde,6,,,2435XW,Zevenhoven,Nieuwkoop,Zuid-Holland,VBO,4.781186,52.181363
Ambachtsgaarde,8,,,2435XW,Zevenhoven,Nieuwkoop,Zuid-Holland,VBO,4.781261,52.181384
Ambachtsgaarde,10,,,2435XW,Zevenhoven,Nieuwkoop,Zuid-Holland,VBO,4.781117,52.181624
Ambachtsgaarde,12,,,2435XW,Zevenhoven,Nieuwkoop,Zuid-Holland,VBO,4.781036,52.181604
Ambachtsgaarde,14,,,2435XW,Zevenhoven,Nieuwkoop,Zuid-Holland,VBO,4.780953,52.181587
Ambachtsgaarde,16,,,2435XW,Zevenhoven,Nieuwkoop,Zuid-Holland,VBO,4.780753,52.181917
Ambachtsgaarde,18,,,2435XW,Zevenhoven,Nieuwkoop,Zuid-Holland,VBO,4.780830,52.181933
Ambachtsgaarde,20,,,2435XW,Zevenhoven,Nieuwkoop,Zuid-Holland,VBO,4.780905,52.181953
Ruygenborch,1,,,2435XX,Zevenhoven,Nieuwkoop,Zuid-Holland,VBO,4.779115,52.179528
Ruygenborch,2,,,2435XX,Zevenhoven,Nieuwkoop,Zuid-Holland,VBO,4.778966,52.179724
Ruygenborch,3,,,2435XX,Zevenhoven,Nieuwkoop,Zuid-Holland,VBO,4.778998,52.179554
Ruygenborch,4,,,2435XX,Zevenhoven,Nieuwkoop,Zuid-Holland,VBO,4.778936,52.179778
Ruygenborch,5,,,2435XX,Zevenhoven,Nieuwkoop,Zuid-Holland,VBO,4.778910,52.179526
Ruygenborch,6,,,2435XX,Zevenhoven,Nieuwkoop,Zuid-Holland,VBO,4.778892,52.179823
Ruygenborch,7,,,2435XX,Zevenhoven,Nieuwkoop,Zuid-Holland,VBO,4.778837,52.179508
Ruygenborch,8,,,2435XX,Zevenhoven,Nieuwkoop,Zuid-Holland,VBO,4.778877,52.179850
Ruygenborch,9,,,2435XX,Zevenhoven,Nieuwkoop,Zuid-Holland,VBO,4.778750,52.179490
Ruygenborch,10,,,2435XX,Zevenhoven,Nieuwkoop,Zuid-Holland,VBO,4.778832,52.179904
Ruygenborch,11,,,2435XX,Zevenhoven,Nieuwkoop,Zuid-Holland,VBO,4.778677,52.179471
Ruygenborch,12,,,2435XX,Zevenhoven,Nieuwkoop,Zuid-Holland,VBO,4.778802,52.179957
Ruygenborch,13,,,2435XX,Zevenhoven,Nieuwkoop,Zuid-Holland,VBO,4.778589,52.179471
Ruygenborch,14,,,2435XX,Zevenhoven,Nieuwkoop,Zuid-Holland,VBO,4.778772,52.180011
Ruygenborch,15,,,2435XX,Zevenhoven,Nieuwkoop,Zuid-Holland,VBO,4.778517,52.179453
Ruygenborch,16,,,2435XX,Zevenhoven,Nieuwkoop,Zuid-Holland,VBO,4.778742,52.180056
Ruygenborch,17,,,2435XX,Zevenhoven,Nieuwkoop,Zuid-Holland,VBO,4.778429,52.179443
Ruygenborch,19,,,2435XX,Zevenhoven,Nieuwkoop,Zuid-Holland,VBO,4.778470,52.179686
Ruygenborch,21,,,2435XX,Zevenhoven,Nieuwkoop,Zuid-Holland,VBO,4.778455,52.179713
Ruygenborch,23,,,2435XX,Zevenhoven,Nieuwkoop,Zuid-Holland,VBO,4.778424,52.179776
Ruygenborch,25,,,2435XX,Zevenhoven,Nieuwkoop,Zuid-Holland,VBO,4.778394,52.179829
Ruygenborch,27,,,2435XX,Zevenhoven,Nieuwkoop,Zuid-Holland,VBO,4.778379,52.179883
Ruygenborch,29,,,2435XX,Zevenhoven,Nieuwkoop,Zuid-Holland,VBO,4.778349,52.179928
Noordhoek,1,,,2435XZ,Zevenhoven,Nieuwkoop,Zuid-Holland,VBO,4.770401,52.194349
Noordhoek,2,,,2435XZ,Zevenhoven,Nieuwkoop,Zuid-Holland,VBO,4.770795,52.194378
Noordhoek,3,,,2435XZ,Zevenhoven,Nieuwkoop,Zuid-Holland,VBO,4.770370,52.194438
Noordhoek,4,,,2435XZ,Zevenhoven,Nieuwkoop,Zuid-Holland,VBO,4.770765,52.194422
Noordhoek,5,,,2435XZ,Zevenhoven,Nieuwkoop,Zuid-Holland,VBO,4.770310,52.194528
Noordhoek,6,,,2435XZ,Zevenhoven,Nieuwkoop,Zuid-Holland,VBO,4.770735,52.194467
Noordhoek,7,,,2435XZ,Zevenhoven,Nieuwkoop,Zuid-Holland,VBO,4.770266,52.194600
Noordhoek,8,,,2435XZ,Zevenhoven,Nieuwkoop,Zuid-Holland,VBO,4.770720,52.194512
Noordhoek,9,,,2435XZ,Zevenhoven,Nieuwkoop,Zuid-Holland,VBO,4.770235,52.194698
Noordhoek,10,,,2435XZ,Zevenhoven,Nieuwkoop,Zuid-Holland,VBO,4.770690,52.194548
Noordhoek,11,,,2435XZ,Zevenhoven,Nieuwkoop,Zuid-Holland,VBO,4.770161,52.194770
Noordhoek,12,,,2435XZ,Zevenhoven,Nieuwkoop,Zuid-Holland,VBO,4.770661,52.194584
Noordhoek,13,,,2435XZ,Zevenhoven,Nieuwkoop,Zuid-Holland,VBO,4.770145,52.194878
Noordhoek,14,,,2435XZ,Zevenhoven,Nieuwkoop,Zuid-Holland,VBO,4.770631,52.194628
Noordhoek,15,,,2435XZ,Zevenhoven,Nieuwkoop,Zuid-Holland,VBO,4.770041,52.194949
Noordhoek,16,,,2435XZ,Zevenhoven,Nieuwkoop,Zuid-Holland,VBO,4.770601,52.194682
Noordhoek,18,,,2435XZ,Zevenhoven,Nieuwkoop,Zuid-Holland,VBO,4.770556,52.194763
Noordhoek,20,,,2435XZ,Zevenhoven,Nieuwkoop,Zuid-Holland,VBO,4.770496,52.194852
Noordhoek,22,,,2435XZ,Zevenhoven,Nieuwkoop,Zuid-Holland,VBO,4.770422,52.194933
Noordhoek,24,,,2435XZ,Zevenhoven,Nieuwkoop,Zuid-Holland,VBO,4.770391,52.195014
