openbareruimtenaam,huisnummer,huisletter,huisnummertoevoeging,postcode,woonplaatsnaam,gemeentenaam,provincienaam,typeadresseerbaarobject,longitude,latitude
Oude Middenweg,2,,,2491AA,'s-Gravenhage,'s-Gravenhage,Zuid-Holland,VBO,4.400280,52.071572
Oude Middenweg,4,,,2491AA,'s-Gravenhage,'s-Gravenhage,Zuid-Holland,VBO,4.400376,52.071650
Oude Middenweg,6,,,2491AA,'s-Gravenhage,'s-Gravenhage,Zuid-Holland,VBO,4.400470,52.071732
Oude Middenweg,8,,,2491AA,'s-Gravenhage,'s-Gravenhage,Zuid-Holland,VBO,4.400573,52.071816
Oude Middenweg,12,,,2491AB,'s-Gravenhage,'s-Gravenhage,Zuid-Holland,VBO,4.401775,52.072731
Oude Middenweg,14,,,2491AB,'s-Gravenhage,'s-Gravenhage,Zuid-Holland,VBO,4.401969,52.072905
Oude Middenweg,30,,,2491AB,'s-Gravenhage,'s-Gravenhage,Zuid-Holland,VBO,4.402508,52.073423
Oude Middenweg,32,,,2491AB,'s-Gravenhage,'s-Gravenhage,Zuid-Holland,VBO,4.402589,52.073491
Oude Middenweg,34,,,2491AB,'s-Gravenhage,'s-Gravenhage,Zuid-Holland,VBO,4.402687,52.073545
Oude Middenweg,36,,,2491AB,'s-Gravenhage,'s-Gravenhage,Zuid-Holland,VBO,4.402750,52.073624
Oude Middenweg,38,,,2491AB,'s-Gravenhage,'s-Gravenhage,Zuid-Holland,VBO,4.402832,52.073692
Oude Middenweg,40,,,2491AB,'s-Gravenhage,'s-Gravenhage,Zuid-Holland,VBO,4.402928,52.073745
Oude Middenweg,42,,,2491AB,'s-Gravenhage,'s-Gravenhage,Zuid-Holland,VBO,4.402991,52.073824
Oude Middenweg,44,,,2491AB,'s-Gravenhage,'s-Gravenhage,Zuid-Holland,VBO,4.403086,52.073910
Oude Middenweg,46,,,2491AB,'s-Gravenhage,'s-Gravenhage,Zuid-Holland,VBO,4.403163,52.073977
Oude Middenweg,48,,,2491AB,'s-Gravenhage,'s-Gravenhage,Zuid-Holland,VBO,4.403263,52.074031
Oude Middenweg,50,,,2491AB,'s-Gravenhage,'s-Gravenhage,Zuid-Holland,VBO,4.403323,52.074108
Oude Middenweg,52,,,2491AB,'s-Gravenhage,'s-Gravenhage,Zuid-Holland,VBO,4.403423,52.074163
Oude Middenweg,54,,,2491AB,'s-Gravenhage,'s-Gravenhage,Zuid-Holland,VBO,4.403486,52.074242
Oude Middenweg,56,,,2491AB,'s-Gravenhage,'s-Gravenhage,Zuid-Holland,VBO,4.403563,52.074308
Oude Middenweg,58,,,2491AB,'s-Gravenhage,'s-Gravenhage,Zuid-Holland,VBO,4.403666,52.074365
Oude Middenweg,60,,,2491AB,'s-Gravenhage,'s-Gravenhage,Zuid-Holland,VBO,4.403739,52.074459
Oude Middenweg,62,,,2491AB,'s-Gravenhage,'s-Gravenhage,Zuid-Holland,VBO,4.403837,52.074513
Oude Middenweg,64,,,2491AB,'s-Gravenhage,'s-Gravenhage,Zuid-Holland,VBO,4.403897,52.074593
Oude Middenweg,66,,,2491AB,'s-Gravenhage,'s-Gravenhage,Zuid-Holland,VBO,4.403968,52.074656
Oude Middenweg,68,,,2491AB,'s-Gravenhage,'s-Gravenhage,Zuid-Holland,VBO,4.404071,52.074712
Oude Middenweg,3,,,2491AC,'s-Gravenhage,'s-Gravenhage,Zuid-Holland,VBO,4.399045,52.071563
Oude Middenweg,11,,,2491AC,'s-Gravenhage,'s-Gravenhage,Zuid-Holland,VBO,4.398794,52.071805
Oude Middenweg,15,,,2491AC,'s-Gravenhage,'s-Gravenhage,Zuid-Holland,VBO,4.398799,52.071801
Oude Middenweg,19,,,2491AC,'s-Gravenhage,'s-Gravenhage,Zuid-Holland,VBO,4.398401,52.072227
Oude Middenweg,53,,,2491AC,'s-Gravenhage,'s-Gravenhage,Zuid-Holland,VBO,4.399179,52.072285
Oude Middenweg,55,,,2491AC,'s-Gravenhage,'s-Gravenhage,Zuid-Holland,VBO,4.399712,52.071954
Oude Middenweg,75,,,2491AC,'s-Gravenhage,'s-Gravenhage,Zuid-Holland,VBO,4.399415,52.072792
Oude Middenweg,70,,,2491AD,'s-Gravenhage,'s-Gravenhage,Zuid-Holland,VBO,4.404132,52.074805
Oude Middenweg,72,,,2491AD,'s-Gravenhage,'s-Gravenhage,Zuid-Holland,VBO,4.404197,52.074841
Oude Middenweg,74,,,2491AD,'s-Gravenhage,'s-Gravenhage,Zuid-Holland,VBO,4.404246,52.074898
Oude Middenweg,76,,,2491AD,'s-Gravenhage,'s-Gravenhage,Zuid-Holland,VBO,4.404309,52.074932
Oude Middenweg,78,,,2491AD,'s-Gravenhage,'s-Gravenhage,Zuid-Holland,VBO,4.404355,52.074987
Oude Middenweg,80,,,2491AD,'s-Gravenhage,'s-Gravenhage,Zuid-Holland,VBO,4.404416,52.075020
Oude Middenweg,82,,,2491AD,'s-Gravenhage,'s-Gravenhage,Zuid-Holland,VBO,4.404512,52.075043
Oude Middenweg,84,,,2491AD,'s-Gravenhage,'s-Gravenhage,Zuid-Holland,VBO,4.404576,52.075078
Oude Middenweg,86,,,2491AD,'s-Gravenhage,'s-Gravenhage,Zuid-Holland,VBO,4.404881,52.075428
Oude Middenweg,88,,,2491AD,'s-Gravenhage,'s-Gravenhage,Zuid-Holland,VBO,4.404980,52.075482
Oude Middenweg,90,,,2491AD,'s-Gravenhage,'s-Gravenhage,Zuid-Holland,VBO,4.405051,52.075566
Oude Middenweg,92,,,2491AD,'s-Gravenhage,'s-Gravenhage,Zuid-Holland,VBO,4.405125,52.075630
Oude Middenweg,94,,,2491AD,'s-Gravenhage,'s-Gravenhage,Zuid-Holland,VBO,4.405225,52.075685
Oude Middenweg,100,,,2491AD,'s-Gravenhage,'s-Gravenhage,Zuid-Holland,VBO,4.405827,52.076149
Oude Middenweg,102,,,2491AD,'s-Gravenhage,'s-Gravenhage,Zuid-Holland,VBO,4.405955,52.076017
Oude Middenweg,185,,,2491AE,'s-Gravenhage,'s-Gravenhage,Zuid-Holland,VBO,4.399990,52.073739
Oude Middenweg,187,,,2491AE,'s-Gravenhage,'s-Gravenhage,Zuid-Holland,VBO,4.400587,52.073303
Oude Middenweg,189,,,2491AE,'s-Gravenhage,'s-Gravenhage,Zuid-Holland,VBO,4.401110,52.073124
Oude Middenweg,191,,,2491AE,'s-Gravenhage,'s-Gravenhage,Zuid-Holland,VBO,4.401240,52.073239
Oude Middenweg,193,,,2491AE,'s-Gravenhage,'s-Gravenhage,Zuid-Holland,VBO,4.401367,52.073350
Oude Middenweg,195,,,2491AG,'s-Gravenhage,'s-Gravenhage,Zuid-Holland,VBO,4.401492,52.073460
Oude Middenweg,197,,,2491AG,'s-Gravenhage,'s-Gravenhage,Zuid-Holland,VBO,4.401174,52.073783
Oude Middenweg,199,,,2491AG,'s-Gravenhage,'s-Gravenhage,Zuid-Holland,VBO,4.401240,52.073820
Oude Middenweg,203,,,2491AG,'s-Gravenhage,'s-Gravenhage,Zuid-Holland,VBO,4.402240,52.074158
Oude Middenweg,205,,,2491AG,'s-Gravenhage,'s-Gravenhage,Zuid-Holland,VBO,4.401538,52.073896
Oude Middenweg,207,,,2491AG,'s-Gravenhage,'s-Gravenhage,Zuid-Holland,VBO,4.401465,52.073946
Oude Middenweg,209,,,2491AG,'s-Gravenhage,'s-Gravenhage,Zuid-Holland,VBO,4.401246,52.074099
Oude Middenweg,211,,,2491AG,'s-Gravenhage,'s-Gravenhage,Zuid-Holland,VBO,4.401178,52.074146
Oude Middenweg,213,,,2491AG,'s-Gravenhage,'s-Gravenhage,Zuid-Holland,VBO,4.400955,52.074302
Oude Middenweg,215,,,2491AG,'s-Gravenhage,'s-Gravenhage,Zuid-Holland,VBO,4.400890,52.074347
Oude Middenweg,217,,,2491AG,'s-Gravenhage,'s-Gravenhage,Zuid-Holland,VBO,4.400667,52.074502
Oude Middenweg,219,,,2491AG,'s-Gravenhage,'s-Gravenhage,Zuid-Holland,VBO,4.401108,52.074640
Oude Middenweg,223,C,,2491AG,'s-Gravenhage,'s-Gravenhage,Zuid-Holland,VBO,4.402590,52.074410
Oude Middenweg,223,,,2491AG,'s-Gravenhage,'s-Gravenhage,Zuid-Holland,VBO,4.402468,52.074344
Oude Middenweg,225,A,,2491AG,'s-Gravenhage,'s-Gravenhage,Zuid-Holland,VBO,4.402310,52.074665
Oude Middenweg,225,,,2491AG,'s-Gravenhage,'s-Gravenhage,Zuid-Holland,VBO,4.402412,52.074594
Oude Middenweg,227,A,,2491AG,'s-Gravenhage,'s-Gravenhage,Zuid-Holland,VBO,4.402118,52.074799
Oude Middenweg,227,,,2491AG,'s-Gravenhage,'s-Gravenhage,Zuid-Holland,VBO,4.402215,52.074731
Oude Middenweg,229,A,,2491AG,'s-Gravenhage,'s-Gravenhage,Zuid-Holland,VBO,4.401922,52.074934
Oude Middenweg,229,,,2491AG,'s-Gravenhage,'s-Gravenhage,Zuid-Holland,VBO,4.402022,52.074865
Oude Middenweg,231,A,,2491AG,'s-Gravenhage,'s-Gravenhage,Zuid-Holland,VBO,4.401562,52.074964
Oude Middenweg,231,B,,2491AG,'s-Gravenhage,'s-Gravenhage,Zuid-Holland,VBO,4.402559,52.074829
Oude Middenweg,231,C,,2491AG,'s-Gravenhage,'s-Gravenhage,Zuid-Holland,VBO,4.402632,52.074869
Oude Middenweg,231,D,,2491AG,'s-Gravenhage,'s-Gravenhage,Zuid-Holland,VBO,4.402703,52.074908
Oude Middenweg,231,E,,2491AG,'s-Gravenhage,'s-Gravenhage,Zuid-Holland,VBO,4.402768,52.074943
Oude Middenweg,231,F,,2491AG,'s-Gravenhage,'s-Gravenhage,Zuid-Holland,VBO,4.402653,52.075055
Oude Middenweg,231,G,,2491AG,'s-Gravenhage,'s-Gravenhage,Zuid-Holland,VBO,4.402593,52.075097
Oude Middenweg,231,H,,2491AG,'s-Gravenhage,'s-Gravenhage,Zuid-Holland,VBO,4.402529,52.075141
Oude Middenweg,231,J,,2491AG,'s-Gravenhage,'s-Gravenhage,Zuid-Holland,VBO,4.402470,52.075181
Oude Middenweg,231,K,,2491AG,'s-Gravenhage,'s-Gravenhage,Zuid-Holland,VBO,4.402405,52.075227
Oude Middenweg,231,L,,2491AG,'s-Gravenhage,'s-Gravenhage,Zuid-Holland,VBO,4.402348,52.075266
Oude Middenweg,231,M,,2491AG,'s-Gravenhage,'s-Gravenhage,Zuid-Holland,VBO,4.402193,52.075347
Oude Middenweg,231,N,,2491AG,'s-Gravenhage,'s-Gravenhage,Zuid-Holland,VBO,4.402126,52.075310
Oude Middenweg,231,P,,2491AG,'s-Gravenhage,'s-Gravenhage,Zuid-Holland,VBO,4.402054,52.075270
Oude Middenweg,231,Q,,2491AG,'s-Gravenhage,'s-Gravenhage,Zuid-Holland,VBO,4.401983,52.075231
Oude Middenweg,231,R,,2491AG,'s-Gravenhage,'s-Gravenhage,Zuid-Holland,VBO,4.402094,52.075130
Oude Middenweg,231,S,,2491AG,'s-Gravenhage,'s-Gravenhage,Zuid-Holland,VBO,4.402157,52.075086
Oude Middenweg,231,T,,2491AG,'s-Gravenhage,'s-Gravenhage,Zuid-Holland,VBO,4.402215,52.075046
Oude Middenweg,231,U,,2491AG,'s-Gravenhage,'s-Gravenhage,Zuid-Holland,VBO,4.402279,52.075001
Oude Middenweg,231,V,,2491AG,'s-Gravenhage,'s-Gravenhage,Zuid-Holland,VBO,4.402337,52.074962
Oude Middenweg,231,W,,2491AG,'s-Gravenhage,'s-Gravenhage,Zuid-Holland,VBO,4.402400,52.074918
Oude Middenweg,231,X,,2491AG,'s-Gravenhage,'s-Gravenhage,Zuid-Holland,VBO,4.402810,52.074593
Oude Middenweg,231,Y,,2491AG,'s-Gravenhage,'s-Gravenhage,Zuid-Holland,VBO,4.402873,52.074628
Oude Middenweg,231,Z,,2491AG,'s-Gravenhage,'s-Gravenhage,Zuid-Holland,VBO,4.402742,52.074745
Oude Middenweg,231,,,2491AG,'s-Gravenhage,'s-Gravenhage,Zuid-Holland,VBO,4.401798,52.075020
Oude Middenweg,233,,,2491AH,'s-Gravenhage,'s-Gravenhage,Zuid-Holland,VBO,4.403069,52.074720
Oude Middenweg,237,,,2491AH,'s-Gravenhage,'s-Gravenhage,Zuid-Holland,VBO,4.403469,52.075143
Oude Middenweg,239,A,,2491AH,'s-Gravenhage,'s-Gravenhage,Zuid-Holland,VBO,4.403916,52.075556
Oude Middenweg,239,B,,2491AH,'s-Gravenhage,'s-Gravenhage,Zuid-Holland,VBO,4.404017,52.075638
Oude Middenweg,239,C,,2491AH,'s-Gravenhage,'s-Gravenhage,Zuid-Holland,VBO,4.403937,52.075748
Oude Middenweg,239,D,,2491AH,'s-Gravenhage,'s-Gravenhage,Zuid-Holland,VBO,4.403852,52.075806
Oude Middenweg,239,E,,2491AH,'s-Gravenhage,'s-Gravenhage,Zuid-Holland,VBO,4.403775,52.075859
Oude Middenweg,239,F,,2491AH,'s-Gravenhage,'s-Gravenhage,Zuid-Holland,VBO,4.403695,52.075914
Oude Middenweg,239,,,2491AH,'s-Gravenhage,'s-Gravenhage,Zuid-Holland,VBO,4.403469,52.075143
Oude Middenweg,241,A,,2491AH,'s-Gravenhage,'s-Gravenhage,Zuid-Holland,VBO,4.403428,52.075896
Oude Middenweg,241,B,,2491AH,'s-Gravenhage,'s-Gravenhage,Zuid-Holland,VBO,4.403303,52.075828
Oude Middenweg,241,C,,2491AH,'s-Gravenhage,'s-Gravenhage,Zuid-Holland,VBO,4.403367,52.075728
Oude Middenweg,241,D,,2491AH,'s-Gravenhage,'s-Gravenhage,Zuid-Holland,VBO,4.403444,52.075675
Oude Middenweg,241,F,,2491AH,'s-Gravenhage,'s-Gravenhage,Zuid-Holland,VBO,4.403599,52.075570
Oude Middenweg,241,G,,2491AH,'s-Gravenhage,'s-Gravenhage,Zuid-Holland,VBO,4.403714,52.075491
Oude Middenweg,241,,,2491AH,'s-Gravenhage,'s-Gravenhage,Zuid-Holland,VBO,4.403526,52.075949
Oude Middenweg,243,,,2491AH,'s-Gravenhage,'s-Gravenhage,Zuid-Holland,VBO,4.404322,52.075908
Oude Middenweg,245,A,,2491AH,'s-Gravenhage,'s-Gravenhage,Zuid-Holland,VBO,4.404766,52.076369
Oude Middenweg,245,,,2491AH,'s-Gravenhage,'s-Gravenhage,Zuid-Holland,VBO,4.404843,52.076229
Oude Middenweg,247,A,,2491AH,'s-Gravenhage,'s-Gravenhage,Zuid-Holland,VBO,4.405010,52.076504
Oude Middenweg,247,,,2491AH,'s-Gravenhage,'s-Gravenhage,Zuid-Holland,VBO,4.405010,52.076504
Oude Middenweg,249,,,2491AH,'s-Gravenhage,'s-Gravenhage,Zuid-Holland,VBO,4.405328,52.076626
Loire,114,T,,2491AJ,'s-Gravenhage,'s-Gravenhage,Zuid-Holland,VBO,4.398728,52.071002
Loire,114,,,2491AJ,'s-Gravenhage,'s-Gravenhage,Zuid-Holland,VBO,4.397315,52.070632
Loire,116,,,2491AJ,'s-Gravenhage,'s-Gravenhage,Zuid-Holland,VBO,4.397276,52.070604
Loire,118,,,2491AJ,'s-Gravenhage,'s-Gravenhage,Zuid-Holland,VBO,4.397351,52.070661
Loire,120,,,2491AJ,'s-Gravenhage,'s-Gravenhage,Zuid-Holland,VBO,4.397276,52.070604
Loire,122,,,2491AJ,'s-Gravenhage,'s-Gravenhage,Zuid-Holland,VBO,4.397351,52.070661
Loire,124,,,2491AJ,'s-Gravenhage,'s-Gravenhage,Zuid-Holland,VBO,4.397276,52.070604
Loire,126,,,2491AJ,'s-Gravenhage,'s-Gravenhage,Zuid-Holland,VBO,4.397351,52.070661
Loire,128,,,2491AJ,'s-Gravenhage,'s-Gravenhage,Zuid-Holland,VBO,4.397276,52.070604
Loire,130,,,2491AJ,'s-Gravenhage,'s-Gravenhage,Zuid-Holland,VBO,4.397351,52.070661
Loire,132,,,2491AJ,'s-Gravenhage,'s-Gravenhage,Zuid-Holland,VBO,4.397351,52.070661
Loire,134,,,2491AK,'s-Gravenhage,'s-Gravenhage,Zuid-Holland,VBO,4.397235,52.071022
Loire,136,,,2491AK,'s-Gravenhage,'s-Gravenhage,Zuid-Holland,VBO,4.397198,52.071088
Loire,138,,,2491AK,'s-Gravenhage,'s-Gravenhage,Zuid-Holland,VBO,4.397235,52.071022
Loire,140,,,2491AK,'s-Gravenhage,'s-Gravenhage,Zuid-Holland,VBO,4.397198,52.071088
Loire,142,,,2491AK,'s-Gravenhage,'s-Gravenhage,Zuid-Holland,VBO,4.397235,52.071022
Loire,144,,,2491AK,'s-Gravenhage,'s-Gravenhage,Zuid-Holland,VBO,4.397198,52.071088
Loire,146,,,2491AK,'s-Gravenhage,'s-Gravenhage,Zuid-Holland,VBO,4.397235,52.071022
Loire,148,,,2491AK,'s-Gravenhage,'s-Gravenhage,Zuid-Holland,VBO,4.397198,52.071088
Loire,150,,,2491AK,'s-Gravenhage,'s-Gravenhage,Zuid-Holland,VBO,4.397235,52.071022
Loire,152,,,2491AK,'s-Gravenhage,'s-Gravenhage,Zuid-Holland,VBO,4.397198,52.071088
Loire,154,,,2491AK,'s-Gravenhage,'s-Gravenhage,Zuid-Holland,VBO,4.397198,52.071088
Loire,156,,,2491AL,'s-Gravenhage,'s-Gravenhage,Zuid-Holland,VBO,4.396815,52.071466
Loire,158,,,2491AL,'s-Gravenhage,'s-Gravenhage,Zuid-Holland,VBO,4.396873,52.071454
Loire,160,,,2491AL,'s-Gravenhage,'s-Gravenhage,Zuid-Holland,VBO,4.396753,52.071470
Loire,162,,,2491AL,'s-Gravenhage,'s-Gravenhage,Zuid-Holland,VBO,4.396873,52.071454
Loire,164,,,2491AL,'s-Gravenhage,'s-Gravenhage,Zuid-Holland,VBO,4.396753,52.071470
Loire,166,,,2491AL,'s-Gravenhage,'s-Gravenhage,Zuid-Holland,VBO,4.396873,52.071454
Loire,168,,,2491AL,'s-Gravenhage,'s-Gravenhage,Zuid-Holland,VBO,4.396753,52.071470
Loire,170,,,2491AL,'s-Gravenhage,'s-Gravenhage,Zuid-Holland,VBO,4.396873,52.071454
Loire,172,,,2491AL,'s-Gravenhage,'s-Gravenhage,Zuid-Holland,VBO,4.396753,52.071470
Loire,174,,,2491AL,'s-Gravenhage,'s-Gravenhage,Zuid-Holland,VBO,4.396873,52.071454
Loire,176,,,2491AL,'s-Gravenhage,'s-Gravenhage,Zuid-Holland,VBO,4.396753,52.071470
Loire,178,,,2491AL,'s-Gravenhage,'s-Gravenhage,Zuid-Holland,VBO,4.396873,52.071454
Loire,180,,,2491AL,'s-Gravenhage,'s-Gravenhage,Zuid-Holland,VBO,4.396753,52.071470
Loire,182,,,2491AL,'s-Gravenhage,'s-Gravenhage,Zuid-Holland,VBO,4.396873,52.071454
Loire,184,,,2491AL,'s-Gravenhage,'s-Gravenhage,Zuid-Holland,VBO,4.396753,52.071470
Loire,186,,,2491AM,'s-Gravenhage,'s-Gravenhage,Zuid-Holland,VBO,4.396306,52.071346
Loire,188,,,2491AM,'s-Gravenhage,'s-Gravenhage,Zuid-Holland,VBO,4.396246,52.071284
Loire,190,,,2491AM,'s-Gravenhage,'s-Gravenhage,Zuid-Holland,VBO,4.396306,52.071346
Loire,192,,,2491AM,'s-Gravenhage,'s-Gravenhage,Zuid-Holland,VBO,4.396246,52.071284
Loire,194,,,2491AM,'s-Gravenhage,'s-Gravenhage,Zuid-Holland,VBO,4.396306,52.071346
Loire,196,,,2491AM,'s-Gravenhage,'s-Gravenhage,Zuid-Holland,VBO,4.396246,52.071284
Loire,198,,,2491AM,'s-Gravenhage,'s-Gravenhage,Zuid-Holland,VBO,4.396306,52.071346
Loire,200,,,2491AM,'s-Gravenhage,'s-Gravenhage,Zuid-Holland,VBO,4.396246,52.071284
Loire,202,,,2491AM,'s-Gravenhage,'s-Gravenhage,Zuid-Holland,VBO,4.396306,52.071346
Loire,204,,,2491AM,'s-Gravenhage,'s-Gravenhage,Zuid-Holland,VBO,4.396246,52.071284
Loire,206,,,2491AM,'s-Gravenhage,'s-Gravenhage,Zuid-Holland,VBO,4.396306,52.071346
Loire,1,,,2491AN,'s-Gravenhage,'s-Gravenhage,Zuid-Holland,VBO,4.395975,52.070142
Rhone,18,,,2491AP,'s-Gravenhage,'s-Gravenhage,Zuid-Holland,VBO,4.394156,52.071242
Rhone,24,,,2491AP,'s-Gravenhage,'s-Gravenhage,Zuid-Holland,VBO,4.393147,52.071668
Rhone,30,,,2491AP,'s-Gravenhage,'s-Gravenhage,Zuid-Holland,VBO,4.392826,52.071375
Rhone,32,,,2491AP,'s-Gravenhage,'s-Gravenhage,Zuid-Holland,VBO,4.393094,52.071215
Rhone,34,T,,2491AP,'s-Gravenhage,'s-Gravenhage,Zuid-Holland,VBO,4.393185,52.070702
Rhone,34,,,2491AP,'s-Gravenhage,'s-Gravenhage,Zuid-Holland,VBO,4.393511,52.070899
Rhone,36,,,2491AP,'s-Gravenhage,'s-Gravenhage,Zuid-Holland,VBO,4.392913,52.070557
Rhone,38,,,2491AP,'s-Gravenhage,'s-Gravenhage,Zuid-Holland,VBO,4.392408,52.070913
Rhone,40,,,2491AP,'s-Gravenhage,'s-Gravenhage,Zuid-Holland,VBO,4.391952,52.071233
Zoetermeerse Rijweg,15,,,2491AR,'s-Gravenhage,'s-Gravenhage,Zuid-Holland,VBO,4.398321,52.071117
Donau,34,,,2491BA,'s-Gravenhage,'s-Gravenhage,Zuid-Holland,VBO,4.389985,52.069447
Donau,36,A,,2491BA,'s-Gravenhage,'s-Gravenhage,Zuid-Holland,VBO,4.389718,52.068719
Donau,36,,,2491BA,'s-Gravenhage,'s-Gravenhage,Zuid-Holland,VBO,4.389539,52.069697
Donau,38,,,2491BA,'s-Gravenhage,'s-Gravenhage,Zuid-Holland,VBO,4.388503,52.069145
Donau,40,A,,2491BA,'s-Gravenhage,'s-Gravenhage,Zuid-Holland,VBO,4.388046,52.068895
Donau,42,,,2491BA,'s-Gravenhage,'s-Gravenhage,Zuid-Holland,VBO,4.387986,52.068077
Donau,119,,,2491BB,'s-Gravenhage,'s-Gravenhage,Zuid-Holland,VBO,4.394085,52.057398
Donau,86,,,2491BC,'s-Gravenhage,'s-Gravenhage,Zuid-Holland,VBO,4.387693,52.060389
Donau,92,,,2491BC,'s-Gravenhage,'s-Gravenhage,Zuid-Holland,VBO,4.388674,52.059736
Donau,100,,,2491BC,'s-Gravenhage,'s-Gravenhage,Zuid-Holland,VBO,4.389471,52.059137
Donau,102,,,2491BC,'s-Gravenhage,'s-Gravenhage,Zuid-Holland,VBO,4.390236,52.058638
Donau,106,,,2491BC,'s-Gravenhage,'s-Gravenhage,Zuid-Holland,VBO,4.390710,52.058441
Donau,120,,,2491BC,'s-Gravenhage,'s-Gravenhage,Zuid-Holland,VBO,4.392741,52.057036
Donau,140,,,2491BC,'s-Gravenhage,'s-Gravenhage,Zuid-Holland,VBO,4.395838,52.055822
Neckar,2,,,2491BD,'s-Gravenhage,'s-Gravenhage,Zuid-Holland,VBO,4.391428,52.069809
Neckar,6,,,2491BD,'s-Gravenhage,'s-Gravenhage,Zuid-Holland,VBO,4.391270,52.069920
Neckar,8,,,2491BD,'s-Gravenhage,'s-Gravenhage,Zuid-Holland,VBO,4.391197,52.069971
Neckar,12,,,2491BD,'s-Gravenhage,'s-Gravenhage,Zuid-Holland,VBO,4.391014,52.070100
Neckar,24,,,2491BD,'s-Gravenhage,'s-Gravenhage,Zuid-Holland,VBO,4.390373,52.070548
Neckar,1,,,2491BE,'s-Gravenhage,'s-Gravenhage,Zuid-Holland,VBO,4.390757,52.069713
Neckar,7,,,2491BE,'s-Gravenhage,'s-Gravenhage,Zuid-Holland,VBO,4.390379,52.070220
Rijn,6,,,2491BG,'s-Gravenhage,'s-Gravenhage,Zuid-Holland,VBO,4.387102,52.067717
Rijn,8,,,2491BG,'s-Gravenhage,'s-Gravenhage,Zuid-Holland,VBO,4.387039,52.067761
Rijn,10,,,2491BG,'s-Gravenhage,'s-Gravenhage,Zuid-Holland,VBO,4.386481,52.067803
Rijn,12,,,2491BG,'s-Gravenhage,'s-Gravenhage,Zuid-Holland,VBO,4.385592,52.067896
Rijn,18,A,,2491BG,'s-Gravenhage,'s-Gravenhage,Zuid-Holland,VBO,4.385486,52.067024
Rijn,20,,,2491BG,'s-Gravenhage,'s-Gravenhage,Zuid-Holland,VBO,4.384842,52.067418
Rijn,22,,,2491BG,'s-Gravenhage,'s-Gravenhage,Zuid-Holland,VBO,4.385158,52.067626
Rijn,1,T,,2491BH,'s-Gravenhage,'s-Gravenhage,Zuid-Holland,VBO,4.386648,52.066884
Rijn,1,,,2491BH,'s-Gravenhage,'s-Gravenhage,Zuid-Holland,VBO,4.386292,52.067145
Wolga,2,,,2491BJ,'s-Gravenhage,'s-Gravenhage,Zuid-Holland,VBO,4.384456,52.066426
Wolga,12,,,2491BJ,'s-Gravenhage,'s-Gravenhage,Zuid-Holland,VBO,4.383633,52.065917
Wolga,14,,,2491BJ,'s-Gravenhage,'s-Gravenhage,Zuid-Holland,VBO,4.382793,52.065322
Wolga,16,,,2491BJ,'s-Gravenhage,'s-Gravenhage,Zuid-Holland,VBO,4.382360,52.064493
Wolga,1,,,2491BK,'s-Gravenhage,'s-Gravenhage,Zuid-Holland,VBO,4.385197,52.065869
Wolga,3,,,2491BK,'s-Gravenhage,'s-Gravenhage,Zuid-Holland,VBO,4.384110,52.065716
Wolga,5,,,2491BK,'s-Gravenhage,'s-Gravenhage,Zuid-Holland,VBO,4.384048,52.065091
Wolga,7,,,2491BK,'s-Gravenhage,'s-Gravenhage,Zuid-Holland,VBO,4.383390,52.064906
Wolga,9,B,,2491BK,'s-Gravenhage,'s-Gravenhage,Zuid-Holland,VBO,4.383151,52.064423
Wolga,9,C,,2491BK,'s-Gravenhage,'s-Gravenhage,Zuid-Holland,VBO,4.383151,52.064423
Wolga,9,D,,2491BK,'s-Gravenhage,'s-Gravenhage,Zuid-Holland,VBO,4.383151,52.064423
Wolga,9,T,,2491BK,'s-Gravenhage,'s-Gravenhage,Zuid-Holland,VBO,4.383279,52.064233
Wolga,9,,,2491BK,'s-Gravenhage,'s-Gravenhage,Zuid-Holland,VBO,4.383151,52.064423
Wolga,11,,,2491BK,'s-Gravenhage,'s-Gravenhage,Zuid-Holland,VBO,4.383591,52.064336
Schelde,1,,,2491BL,'s-Gravenhage,'s-Gravenhage,Zuid-Holland,VBO,4.384673,52.061731
Haags Kwartier,15,,,2491BM,'s-Gravenhage,'s-Gravenhage,Zuid-Holland,VBO,4.383378,52.062072
Haags Kwartier,21,,,2491BM,'s-Gravenhage,'s-Gravenhage,Zuid-Holland,VBO,4.382992,52.062056
Haags Kwartier,29,,,2491BM,'s-Gravenhage,'s-Gravenhage,Zuid-Holland,VBO,4.382596,52.062036
Haags Kwartier,47,,,2491BM,'s-Gravenhage,'s-Gravenhage,Zuid-Holland,VBO,4.382036,52.062211
Haags Kwartier,59,,,2491BM,'s-Gravenhage,'s-Gravenhage,Zuid-Holland,VBO,4.381921,52.062940
Haags Kwartier,65,,,2491BM,'s-Gravenhage,'s-Gravenhage,Zuid-Holland,VBO,4.381909,52.063243
Haags Kwartier,83,,,2491BM,'s-Gravenhage,'s-Gravenhage,Zuid-Holland,VBO,4.382676,52.063474
Haags Kwartier,103,,,2491BM,'s-Gravenhage,'s-Gravenhage,Zuid-Holland,VBO,4.383848,52.063267
Haags Kwartier,113,,,2491BM,'s-Gravenhage,'s-Gravenhage,Zuid-Holland,VBO,4.383959,52.062361
Haags Kwartier,121,,,2491BM,'s-Gravenhage,'s-Gravenhage,Zuid-Holland,VBO,4.384411,52.062537
Theems,6,,,2491BP,'s-Gravenhage,'s-Gravenhage,Zuid-Holland,VBO,4.391978,52.067276
Theems,20,,,2491BP,'s-Gravenhage,'s-Gravenhage,Zuid-Holland,VBO,4.392937,52.067107
Theems,22,,,2491BP,'s-Gravenhage,'s-Gravenhage,Zuid-Holland,VBO,4.392997,52.067110
Theems,24,,,2491BP,'s-Gravenhage,'s-Gravenhage,Zuid-Holland,VBO,4.392994,52.067077
Theems,11,,,2491BR,'s-Gravenhage,'s-Gravenhage,Zuid-Holland,VBO,4.392493,52.067575
Theems,13,,,2491BR,'s-Gravenhage,'s-Gravenhage,Zuid-Holland,VBO,4.393063,52.067499
Theems,15,,,2491BR,'s-Gravenhage,'s-Gravenhage,Zuid-Holland,VBO,4.393869,52.067451
Theems,17,,,2491BR,'s-Gravenhage,'s-Gravenhage,Zuid-Holland,VBO,4.393978,52.067510
Theems,19,,,2491BR,'s-Gravenhage,'s-Gravenhage,Zuid-Holland,VBO,4.394084,52.067568
Theems,23,,,2491BR,'s-Gravenhage,'s-Gravenhage,Zuid-Holland,VBO,4.394332,52.067703
Theems,27,,,2491BR,'s-Gravenhage,'s-Gravenhage,Zuid-Holland,VBO,4.394585,52.067842
Theems,29,,,2491BR,'s-Gravenhage,'s-Gravenhage,Zuid-Holland,VBO,4.394723,52.067917
Theems,31,,,2491BR,'s-Gravenhage,'s-Gravenhage,Zuid-Holland,VBO,4.394906,52.067782
Theems,33,,,2491BR,'s-Gravenhage,'s-Gravenhage,Zuid-Holland,VBO,4.394790,52.067717
Theems,35,,,2491BR,'s-Gravenhage,'s-Gravenhage,Zuid-Holland,VBO,4.394670,52.067649
Theems,37,,,2491BR,'s-Gravenhage,'s-Gravenhage,Zuid-Holland,VBO,4.394558,52.067586
Theems,39,,,2491BR,'s-Gravenhage,'s-Gravenhage,Zuid-Holland,VBO,4.394451,52.067526
Theems,41,,,2491BR,'s-Gravenhage,'s-Gravenhage,Zuid-Holland,VBO,4.394336,52.067461
Theems,43,,,2491BR,'s-Gravenhage,'s-Gravenhage,Zuid-Holland,VBO,4.394223,52.067398
Theems,45,,,2491BR,'s-Gravenhage,'s-Gravenhage,Zuid-Holland,VBO,4.394120,52.067340
Elbe,2,,,2491BS,'s-Gravenhage,'s-Gravenhage,Zuid-Holland,VBO,4.391932,52.068426
Elbe,5,,,2491BS,'s-Gravenhage,'s-Gravenhage,Zuid-Holland,VBO,4.391830,52.068617
Elbe,8,,,2491BS,'s-Gravenhage,'s-Gravenhage,Zuid-Holland,VBO,4.392318,52.068637
Elbe,14,,,2491BS,'s-Gravenhage,'s-Gravenhage,Zuid-Holland,VBO,4.392778,52.068495
Elbe,20,,,2491BS,'s-Gravenhage,'s-Gravenhage,Zuid-Holland,VBO,4.392943,52.068257
Elbe,24,,,2491BS,'s-Gravenhage,'s-Gravenhage,Zuid-Holland,VBO,4.392933,52.068073
Elbe,1,,,2491BT,'s-Gravenhage,'s-Gravenhage,Zuid-Holland,VBO,4.391419,52.068595
Elbe,11,,,2491BT,'s-Gravenhage,'s-Gravenhage,Zuid-Holland,VBO,4.391959,52.068934
Elbe,13,,,2491BT,'s-Gravenhage,'s-Gravenhage,Zuid-Holland,VBO,4.392643,52.068971
Elbe,23,,,2491BT,'s-Gravenhage,'s-Gravenhage,Zuid-Holland,VBO,4.393038,52.068684
Elbe,25,,,2491BT,'s-Gravenhage,'s-Gravenhage,Zuid-Holland,VBO,4.393362,52.068435
Elbe,27,,,2491BT,'s-Gravenhage,'s-Gravenhage,Zuid-Holland,VBO,4.393360,52.068434
Elbe,31,T,,2491BT,'s-Gravenhage,'s-Gravenhage,Zuid-Holland,VBO,4.393749,52.068252
Elbe,31,,,2491BT,'s-Gravenhage,'s-Gravenhage,Zuid-Holland,VBO,4.393433,52.068378
Elbe,33,,,2491BT,'s-Gravenhage,'s-Gravenhage,Zuid-Holland,VBO,4.393526,52.068320
Elbe,37,,,2491BT,'s-Gravenhage,'s-Gravenhage,Zuid-Holland,VBO,4.393148,52.067943
IJssel,1,,,2491BW,'s-Gravenhage,'s-Gravenhage,Zuid-Holland,VBO,4.391443,52.067007
IJssel,5,,,2491BW,'s-Gravenhage,'s-Gravenhage,Zuid-Holland,VBO,4.392115,52.067011
IJssel,7,,,2491BW,'s-Gravenhage,'s-Gravenhage,Zuid-Holland,VBO,4.392222,52.066980
IJssel,9,,,2491BW,'s-Gravenhage,'s-Gravenhage,Zuid-Holland,VBO,4.392659,52.066879
IJssel,15,,,2491BW,'s-Gravenhage,'s-Gravenhage,Zuid-Holland,VBO,4.392459,52.066711
IJssel,17,,,2491BW,'s-Gravenhage,'s-Gravenhage,Zuid-Holland,VBO,4.392413,52.066673
IJssel,23,,,2491BW,'s-Gravenhage,'s-Gravenhage,Zuid-Holland,VBO,4.392171,52.066472
IJssel,27,,,2491BW,'s-Gravenhage,'s-Gravenhage,Zuid-Holland,VBO,4.391907,52.066460
IJssel,31,,,2491BW,'s-Gravenhage,'s-Gravenhage,Zuid-Holland,VBO,4.391535,52.066463
IJssel,33,,,2491BW,'s-Gravenhage,'s-Gravenhage,Zuid-Holland,VBO,4.391395,52.066675
IJssel,35,,,2491BW,'s-Gravenhage,'s-Gravenhage,Zuid-Holland,VBO,4.391273,52.066761
IJssel,37,B,,2491BW,'s-Gravenhage,'s-Gravenhage,Zuid-Holland,VBO,4.391245,52.066701
IJssel,39,,,2491BW,'s-Gravenhage,'s-Gravenhage,Zuid-Holland,VBO,4.391273,52.066761
Linge,2,,,2491BX,'s-Gravenhage,'s-Gravenhage,Zuid-Holland,VBO,4.390455,52.067803
Linge,1,,,2491BZ,'s-Gravenhage,'s-Gravenhage,Zuid-Holland,VBO,4.388075,52.066880
Linge,7,,,2491BZ,'s-Gravenhage,'s-Gravenhage,Zuid-Holland,VBO,4.388226,52.066962
Linge,13,,,2491BZ,'s-Gravenhage,'s-Gravenhage,Zuid-Holland,VBO,4.388391,52.067052
Linge,19,,,2491BZ,'s-Gravenhage,'s-Gravenhage,Zuid-Holland,VBO,4.388555,52.067141
Linge,69,,,2491CA,'s-Gravenhage,'s-Gravenhage,Zuid-Holland,VBO,4.390242,52.066661
Linge,75,,,2491CA,'s-Gravenhage,'s-Gravenhage,Zuid-Holland,VBO,4.390346,52.066589
Vlist,2,,,2491CB,'s-Gravenhage,'s-Gravenhage,Zuid-Holland,VBO,4.388523,52.066550
Vlist,18,,,2491CB,'s-Gravenhage,'s-Gravenhage,Zuid-Holland,VBO,4.388959,52.066786
Vlist,11,,,2491CC,'s-Gravenhage,'s-Gravenhage,Zuid-Holland,VBO,4.389028,52.066325
Vlist,23,,,2491CC,'s-Gravenhage,'s-Gravenhage,Zuid-Holland,VBO,4.389360,52.066505
Vlist,31,,,2491CC,'s-Gravenhage,'s-Gravenhage,Zuid-Holland,VBO,4.389580,52.066624
Vlist,37,,,2491CC,'s-Gravenhage,'s-Gravenhage,Zuid-Holland,VBO,4.389739,52.066711
Vlist,45,,,2491CC,'s-Gravenhage,'s-Gravenhage,Zuid-Holland,VBO,4.389952,52.066827
Dinkel,2,,,2491CG,'s-Gravenhage,'s-Gravenhage,Zuid-Holland,VBO,4.387319,52.066482
Dinkel,8,,,2491CG,'s-Gravenhage,'s-Gravenhage,Zuid-Holland,VBO,4.387451,52.066574
Dinkel,12,,,2491CG,'s-Gravenhage,'s-Gravenhage,Zuid-Holland,VBO,4.387540,52.066636
Dinkel,14,,,2491CG,'s-Gravenhage,'s-Gravenhage,Zuid-Holland,VBO,4.387624,52.066763
Dinkel,34,,,2491CG,'s-Gravenhage,'s-Gravenhage,Zuid-Holland,VBO,4.387478,52.066300
Dinkel,42,,,2491CG,'s-Gravenhage,'s-Gravenhage,Zuid-Holland,VBO,4.387669,52.066385
Dinkel,48,,,2491CG,'s-Gravenhage,'s-Gravenhage,Zuid-Holland,VBO,4.387816,52.066283
Dinkel,52,,,2491CH,'s-Gravenhage,'s-Gravenhage,Zuid-Holland,VBO,4.387911,52.066216
Dinkel,56,,,2491CH,'s-Gravenhage,'s-Gravenhage,Zuid-Holland,VBO,4.388008,52.066148
Dinkel,66,,,2491CH,'s-Gravenhage,'s-Gravenhage,Zuid-Holland,VBO,4.388248,52.065979
Dinkel,68,,,2491CH,'s-Gravenhage,'s-Gravenhage,Zuid-Holland,VBO,4.388294,52.065947
Dinkel,76,,,2491CH,'s-Gravenhage,'s-Gravenhage,Zuid-Holland,VBO,4.388490,52.065810
Dinkel,80,,,2491CH,'s-Gravenhage,'s-Gravenhage,Zuid-Holland,VBO,4.388586,52.065742
Dinkel,94,,,2491CH,'s-Gravenhage,'s-Gravenhage,Zuid-Holland,VBO,4.389280,52.065332
Dinkel,120,,,2491CJ,'s-Gravenhage,'s-Gravenhage,Zuid-Holland,VBO,4.389923,52.065680
Dinkel,136,,,2491CJ,'s-Gravenhage,'s-Gravenhage,Zuid-Holland,VBO,4.390328,52.065899
Dinkel,148,,,2491CJ,'s-Gravenhage,'s-Gravenhage,Zuid-Holland,VBO,4.390633,52.066065
Dinkel,23,,,2491CK,'s-Gravenhage,'s-Gravenhage,Zuid-Holland,VBO,4.388806,52.066131
Dinkel,29,,,2491CK,'s-Gravenhage,'s-Gravenhage,Zuid-Holland,VBO,4.388955,52.066027
Dinkel,49,,,2491CL,'s-Gravenhage,'s-Gravenhage,Zuid-Holland,VBO,4.389417,52.065903
Dinkel,51,,,2491CL,'s-Gravenhage,'s-Gravenhage,Zuid-Holland,VBO,4.389487,52.065941
Dinkel,61,,,2491CL,'s-Gravenhage,'s-Gravenhage,Zuid-Holland,VBO,4.389759,52.066089
Dinkel,63,,,2491CL,'s-Gravenhage,'s-Gravenhage,Zuid-Holland,VBO,4.389814,52.066118
Dinkel,73,,,2491CL,'s-Gravenhage,'s-Gravenhage,Zuid-Holland,VBO,4.390090,52.066268
Dinkel,75,,,2491CL,'s-Gravenhage,'s-Gravenhage,Zuid-Holland,VBO,4.390165,52.066309
Dinkel,79,,,2491CL,'s-Gravenhage,'s-Gravenhage,Zuid-Holland,VBO,4.390254,52.066357
Regge,140,,,2491CP,'s-Gravenhage,'s-Gravenhage,Zuid-Holland,VBO,4.388650,52.065404
Taag,1,,,2491CR,'s-Gravenhage,'s-Gravenhage,Zuid-Holland,VBO,4.387146,52.066100
Taag,9,,,2491CR,'s-Gravenhage,'s-Gravenhage,Zuid-Holland,VBO,4.387340,52.065964
Taag,15,,,2491CR,'s-Gravenhage,'s-Gravenhage,Zuid-Holland,VBO,4.387482,52.065864
Taag,21,,,2491CR,'s-Gravenhage,'s-Gravenhage,Zuid-Holland,VBO,4.387626,52.065764
Taag,27,,,2491CR,'s-Gravenhage,'s-Gravenhage,Zuid-Holland,VBO,4.387963,52.065527
Taag,41,,,2491CR,'s-Gravenhage,'s-Gravenhage,Zuid-Holland,VBO,4.388108,52.065426
Taag,53,,,2491CS,'s-Gravenhage,'s-Gravenhage,Zuid-Holland,VBO,4.388474,52.065033
Taag,57,,,2491CS,'s-Gravenhage,'s-Gravenhage,Zuid-Holland,VBO,4.389037,52.064849
Taag,61,,,2491CS,'s-Gravenhage,'s-Gravenhage,Zuid-Holland,VBO,4.388853,52.064767
Taag,63,,,2491CS,'s-Gravenhage,'s-Gravenhage,Zuid-Holland,VBO,4.389009,52.064674
Taag,67,,,2491CS,'s-Gravenhage,'s-Gravenhage,Zuid-Holland,VBO,4.389109,52.064597
Taag,71,,,2491CS,'s-Gravenhage,'s-Gravenhage,Zuid-Holland,VBO,4.389262,52.064480
Taag,73,,,2491CS,'s-Gravenhage,'s-Gravenhage,Zuid-Holland,VBO,4.389503,52.064684
Taag,75,,,2491CS,'s-Gravenhage,'s-Gravenhage,Zuid-Holland,VBO,4.389458,52.064342
Taag,77,A,,2491CS,'s-Gravenhage,'s-Gravenhage,Zuid-Holland,VBO,4.389510,52.064306
Taag,77,,,2491CS,'s-Gravenhage,'s-Gravenhage,Zuid-Holland,VBO,4.389510,52.064306
Taag,81,,,2491CS,'s-Gravenhage,'s-Gravenhage,Zuid-Holland,VBO,4.389736,52.064148
Taag,85,,,2491CS,'s-Gravenhage,'s-Gravenhage,Zuid-Holland,VBO,4.389943,52.064002
Moezel,14,,,2491CT,'s-Gravenhage,'s-Gravenhage,Zuid-Holland,VBO,4.388130,52.064164
Moezel,18,,,2491CT,'s-Gravenhage,'s-Gravenhage,Zuid-Holland,VBO,4.388442,52.063923
Moezel,1,A,,2491CV,'s-Gravenhage,'s-Gravenhage,Zuid-Holland,VBO,4.385805,52.065302
Moezel,1,B,,2491CV,'s-Gravenhage,'s-Gravenhage,Zuid-Holland,VBO,4.385694,52.065278
Moezel,1,,,2491CV,'s-Gravenhage,'s-Gravenhage,Zuid-Holland,VBO,4.385896,52.065358
Moezel,3,,,2491CV,'s-Gravenhage,'s-Gravenhage,Zuid-Holland,VBO,4.386774,52.064758
Moezel,5,,,2491CV,'s-Gravenhage,'s-Gravenhage,Zuid-Holland,VBO,4.386932,52.064647
Moezel,9,,,2491CV,'s-Gravenhage,'s-Gravenhage,Zuid-Holland,VBO,4.387310,52.064382
Moezel,13,,,2491CV,'s-Gravenhage,'s-Gravenhage,Zuid-Holland,VBO,4.387547,52.064216
Moezel,19,,,2491CV,'s-Gravenhage,'s-Gravenhage,Zuid-Holland,VBO,4.388718,52.063411
Moezel,23,,,2491CV,'s-Gravenhage,'s-Gravenhage,Zuid-Holland,VBO,4.389051,52.063178
Moldau,26,,,2491CW,'s-Gravenhage,'s-Gravenhage,Zuid-Holland,VBO,4.386180,52.064274
Moldau,30,,,2491CW,'s-Gravenhage,'s-Gravenhage,Zuid-Holland,VBO,4.386175,52.064222
Moldau,34,,,2491CW,'s-Gravenhage,'s-Gravenhage,Zuid-Holland,VBO,4.386157,52.064058
Moldau,38,,,2491CW,'s-Gravenhage,'s-Gravenhage,Zuid-Holland,VBO,4.386152,52.064010
Moldau,42,,,2491CW,'s-Gravenhage,'s-Gravenhage,Zuid-Holland,VBO,4.386135,52.063848
Ruhr,1,,,2491CX,'s-Gravenhage,'s-Gravenhage,Zuid-Holland,VBO,4.387033,52.064263
Ruhr,5,,,2491CX,'s-Gravenhage,'s-Gravenhage,Zuid-Holland,VBO,4.386809,52.064142
Ruhr,9,,,2491CX,'s-Gravenhage,'s-Gravenhage,Zuid-Holland,VBO,4.386601,52.064029
Tauber,52,,,2491DA,'s-Gravenhage,'s-Gravenhage,Zuid-Holland,VBO,4.385278,52.064689
Tauber,102,,,2491DA,'s-Gravenhage,'s-Gravenhage,Zuid-Holland,VBO,4.385611,52.063646
Tauber,104,,,2491DA,'s-Gravenhage,'s-Gravenhage,Zuid-Holland,VBO,4.385905,52.063629
Tauber,106,,,2491DA,'s-Gravenhage,'s-Gravenhage,Zuid-Holland,VBO,4.385997,52.063625
Tauber,108,,,2491DA,'s-Gravenhage,'s-Gravenhage,Zuid-Holland,VBO,4.386086,52.063622
Tauber,110,,,2491DA,'s-Gravenhage,'s-Gravenhage,Zuid-Holland,VBO,4.386138,52.063486
Tauber,3,,,2491DB,'s-Gravenhage,'s-Gravenhage,Zuid-Holland,VBO,4.385992,52.064425
Tauber,5,,,2491DB,'s-Gravenhage,'s-Gravenhage,Zuid-Holland,VBO,4.386008,52.064412
Tauber,7,,,2491DB,'s-Gravenhage,'s-Gravenhage,Zuid-Holland,VBO,4.385891,52.064469
Tauber,11,,,2491DB,'s-Gravenhage,'s-Gravenhage,Zuid-Holland,VBO,4.385640,52.064465
Tauber,15,,,2491DB,'s-Gravenhage,'s-Gravenhage,Zuid-Holland,VBO,4.385623,52.064293
Tauber,19,,,2491DB,'s-Gravenhage,'s-Gravenhage,Zuid-Holland,VBO,4.385619,52.064248
Tauber,23,,,2491DB,'s-Gravenhage,'s-Gravenhage,Zuid-Holland,VBO,4.385602,52.064082
Tauber,27,,,2491DB,'s-Gravenhage,'s-Gravenhage,Zuid-Holland,VBO,4.385597,52.064032
Tauber,31,,,2491DB,'s-Gravenhage,'s-Gravenhage,Zuid-Holland,VBO,4.385580,52.063864
Tauber,35,,,2491DB,'s-Gravenhage,'s-Gravenhage,Zuid-Holland,VBO,4.385828,52.063840
Tauber,39,,,2491DB,'s-Gravenhage,'s-Gravenhage,Zuid-Holland,VBO,4.385897,52.063838
Oder,2,,,2491DC,'s-Gravenhage,'s-Gravenhage,Zuid-Holland,VBO,4.387399,52.064005
Oder,6,,,2491DC,'s-Gravenhage,'s-Gravenhage,Zuid-Holland,VBO,4.387103,52.063845
Oder,8,,,2491DC,'s-Gravenhage,'s-Gravenhage,Zuid-Holland,VBO,4.386964,52.063770
Oder,12,,,2491DC,'s-Gravenhage,'s-Gravenhage,Zuid-Holland,VBO,4.386538,52.063541
Oder,16,,,2491DC,'s-Gravenhage,'s-Gravenhage,Zuid-Holland,VBO,4.386036,52.063269
Oder,18,,,2491DC,'s-Gravenhage,'s-Gravenhage,Zuid-Holland,VBO,4.385851,52.063169
Oder,20,,,2491DC,'s-Gravenhage,'s-Gravenhage,Zuid-Holland,VBO,4.385702,52.063088
Oder,1,,,2491DD,'s-Gravenhage,'s-Gravenhage,Zuid-Holland,VBO,4.388064,52.063721
Oder,3,,,2491DD,'s-Gravenhage,'s-Gravenhage,Zuid-Holland,VBO,4.387902,52.063632
Oder,7,,,2491DD,'s-Gravenhage,'s-Gravenhage,Zuid-Holland,VBO,4.387581,52.063457
Oder,11,,,2491DD,'s-Gravenhage,'s-Gravenhage,Zuid-Holland,VBO,4.387436,52.063378
Oder,13,,,2491DD,'s-Gravenhage,'s-Gravenhage,Zuid-Holland,VBO,4.386902,52.063183
Oder,17,,,2491DD,'s-Gravenhage,'s-Gravenhage,Zuid-Holland,VBO,4.386164,52.062671
Weser,6,,,2491DE,'s-Gravenhage,'s-Gravenhage,Zuid-Holland,VBO,4.387360,52.062870
Weser,8,,,2491DE,'s-Gravenhage,'s-Gravenhage,Zuid-Holland,VBO,4.387645,52.062671
Tiber,2,,,2491DH,'s-Gravenhage,'s-Gravenhage,Zuid-Holland,VBO,4.393726,52.066945
Tiber,10,A,,2491DH,'s-Gravenhage,'s-Gravenhage,Zuid-Holland,VBO,4.393451,52.066652
Tiber,10,B,,2491DH,'s-Gravenhage,'s-Gravenhage,Zuid-Holland,VBO,4.393475,52.066672
Tiber,10,C,,2491DH,'s-Gravenhage,'s-Gravenhage,Zuid-Holland,VBO,4.393451,52.066652
Tiber,10,,,2491DH,'s-Gravenhage,'s-Gravenhage,Zuid-Holland,VBO,4.393475,52.066672
Tiber,12,,,2491DH,'s-Gravenhage,'s-Gravenhage,Zuid-Holland,VBO,4.393464,52.066664
Tiber,14,,,2491DH,'s-Gravenhage,'s-Gravenhage,Zuid-Holland,VBO,4.393264,52.066620
Tiber,20,,,2491DH,'s-Gravenhage,'s-Gravenhage,Zuid-Holland,VBO,4.393141,52.066382
Tiber,24,,,2491DH,'s-Gravenhage,'s-Gravenhage,Zuid-Holland,VBO,4.392906,52.066167
Tiber,34,,,2491DH,'s-Gravenhage,'s-Gravenhage,Zuid-Holland,VBO,4.392434,52.065775
Tiber,36,,,2491DJ,'s-Gravenhage,'s-Gravenhage,Zuid-Holland,VBO,4.392159,52.065546
Tiber,38,,,2491DJ,'s-Gravenhage,'s-Gravenhage,Zuid-Holland,VBO,4.392082,52.065508
Tiber,40,,,2491DJ,'s-Gravenhage,'s-Gravenhage,Zuid-Holland,VBO,4.392023,52.065432
Tiber,46,,,2491DJ,'s-Gravenhage,'s-Gravenhage,Zuid-Holland,VBO,4.391790,52.065253
Tiber,50,,,2491DJ,'s-Gravenhage,'s-Gravenhage,Zuid-Holland,VBO,4.391514,52.065030
Tiber,54,,,2491DJ,'s-Gravenhage,'s-Gravenhage,Zuid-Holland,VBO,4.391341,52.064856
Tiber,62,,,2491DJ,'s-Gravenhage,'s-Gravenhage,Zuid-Holland,VBO,4.391121,52.064670
Tiber,66,,,2491DJ,'s-Gravenhage,'s-Gravenhage,Zuid-Holland,VBO,4.390878,52.064470
Tiber,68,,,2491DJ,'s-Gravenhage,'s-Gravenhage,Zuid-Holland,VBO,4.390793,52.064399
Tiber,72,,,2491DK,'s-Gravenhage,'s-Gravenhage,Zuid-Holland,VBO,4.390634,52.064263
Tiber,80,,,2491DK,'s-Gravenhage,'s-Gravenhage,Zuid-Holland,VBO,4.390483,52.064137
Tiber,84,,,2491DK,'s-Gravenhage,'s-Gravenhage,Zuid-Holland,VBO,4.390270,52.063977
Tiber,88,,,2491DK,'s-Gravenhage,'s-Gravenhage,Zuid-Holland,VBO,4.388781,52.062800
Tiber,96,,,2491DK,'s-Gravenhage,'s-Gravenhage,Zuid-Holland,VBO,4.387367,52.061850
Tiber,1,,,2491DL,'s-Gravenhage,'s-Gravenhage,Zuid-Holland,VBO,4.386899,52.060567
Westvlietweg,1,,,2491EA,'s-Gravenhage,'s-Gravenhage,Zuid-Holland,VBO,4.384530,52.075774
Westvlietweg,4,,,2491EA,'s-Gravenhage,'s-Gravenhage,Zuid-Holland,VBO,4.383024,52.075052
Westvlietweg,7,,,2491EA,'s-Gravenhage,'s-Gravenhage,Zuid-Holland,VBO,4.383293,52.073171
Westvlietweg,8,C,,2491EA,'s-Gravenhage,'s-Gravenhage,Zuid-Holland,VBO,4.380243,52.073798
Westvlietweg,8,,,2491EA,'s-Gravenhage,'s-Gravenhage,Zuid-Holland,VBO,4.381510,52.074506
Westvlietweg,10,,1,2491EA,'s-Gravenhage,'s-Gravenhage,Zuid-Holland,VBO,4.377875,52.071234
Westvlietweg,10,,10,2491EA,'s-Gravenhage,'s-Gravenhage,Zuid-Holland,VBO,4.378788,52.070571
Westvlietweg,10,,100,2491EA,'s-Gravenhage,'s-Gravenhage,Zuid-Holland,VBO,4.378756,52.070127
Westvlietweg,10,,101,2491EA,'s-Gravenhage,'s-Gravenhage,Zuid-Holland,VBO,4.378636,52.070026
Westvlietweg,10,,102,2491EA,'s-Gravenhage,'s-Gravenhage,Zuid-Holland,VBO,4.378679,52.070184
Westvlietweg,10,,103,2491EA,'s-Gravenhage,'s-Gravenhage,Zuid-Holland,VBO,4.378519,52.070121
Westvlietweg,10,,104,2491EA,'s-Gravenhage,'s-Gravenhage,Zuid-Holland,VBO,4.378518,52.070303
Westvlietweg,10,,105,2491EA,'s-Gravenhage,'s-Gravenhage,Zuid-Holland,VBO,4.378365,52.070232
Westvlietweg,10,,106,2491EA,'s-Gravenhage,'s-Gravenhage,Zuid-Holland,VBO,4.378435,52.070365
Westvlietweg,10,,107,2491EA,'s-Gravenhage,'s-Gravenhage,Zuid-Holland,VBO,4.378301,52.070275
Westvlietweg,10,,108,2491EA,'s-Gravenhage,'s-Gravenhage,Zuid-Holland,VBO,4.378284,52.070478
Westvlietweg,10,,109,2491EA,'s-Gravenhage,'s-Gravenhage,Zuid-Holland,VBO,4.378175,52.070398
Westvlietweg,10,,11,2491EA,'s-Gravenhage,'s-Gravenhage,Zuid-Holland,VBO,4.378980,52.070532
Westvlietweg,10,,110,2491EA,'s-Gravenhage,'s-Gravenhage,Zuid-Holland,VBO,4.378204,52.070537
Westvlietweg,10,,111,2491EA,'s-Gravenhage,'s-Gravenhage,Zuid-Holland,VBO,4.378086,52.070459
Westvlietweg,10,,112,2491EA,'s-Gravenhage,'s-Gravenhage,Zuid-Holland,VBO,4.378049,52.070649
Westvlietweg,10,,113,2491EA,'s-Gravenhage,'s-Gravenhage,Zuid-Holland,VBO,4.377975,52.070701
Westvlietweg,10,,115,2491EA,'s-Gravenhage,'s-Gravenhage,Zuid-Holland,VBO,4.377860,52.070644
Westvlietweg,10,,116,2491EA,'s-Gravenhage,'s-Gravenhage,Zuid-Holland,VBO,4.377830,52.070810
Westvlietweg,10,,117,2491EA,'s-Gravenhage,'s-Gravenhage,Zuid-Holland,VBO,4.377685,52.070739
Westvlietweg,10,,118,2491EA,'s-Gravenhage,'s-Gravenhage,Zuid-Holland,VBO,4.377742,52.070875
Westvlietweg,10,,119,2491EA,'s-Gravenhage,'s-Gravenhage,Zuid-Holland,VBO,4.377623,52.070826
Westvlietweg,10,,12,2491EA,'s-Gravenhage,'s-Gravenhage,Zuid-Holland,VBO,4.378883,52.070497
Westvlietweg,10,,120,2491EA,'s-Gravenhage,'s-Gravenhage,Zuid-Holland,VBO,4.377584,52.070992
Westvlietweg,10,,121,2491EA,'s-Gravenhage,'s-Gravenhage,Zuid-Holland,VBO,4.377448,52.070909
Westvlietweg,10,,122,2491EA,'s-Gravenhage,'s-Gravenhage,Zuid-Holland,VBO,4.377479,52.071028
Westvlietweg,10,,124,2491EA,'s-Gravenhage,'s-Gravenhage,Zuid-Holland,VBO,4.377314,52.071188
Westvlietweg,10,,127,2491EA,'s-Gravenhage,'s-Gravenhage,Zuid-Holland,VBO,4.377204,52.071138
Westvlietweg,10,,128,2491EA,'s-Gravenhage,'s-Gravenhage,Zuid-Holland,VBO,4.377086,52.071335
Westvlietweg,10,,13,2491EA,'s-Gravenhage,'s-Gravenhage,Zuid-Holland,VBO,4.379281,52.070298
Westvlietweg,10,,130,2491EA,'s-Gravenhage,'s-Gravenhage,Zuid-Holland,VBO,4.377041,52.071380
Westvlietweg,10,,131,2491EA,'s-Gravenhage,'s-Gravenhage,Zuid-Holland,VBO,4.376969,52.071263
Westvlietweg,10,,14,2491EA,'s-Gravenhage,'s-Gravenhage,Zuid-Holland,VBO,4.379191,52.070242
Westvlietweg,10,,15,2491EA,'s-Gravenhage,'s-Gravenhage,Zuid-Holland,VBO,4.379359,52.070224
Westvlietweg,10,,17,2491EA,'s-Gravenhage,'s-Gravenhage,Zuid-Holland,VBO,4.377836,52.071573
Westvlietweg,10,,18,2491EA,'s-Gravenhage,'s-Gravenhage,Zuid-Holland,VBO,4.377951,52.071631
Westvlietweg,10,,19,2491EA,'s-Gravenhage,'s-Gravenhage,Zuid-Holland,VBO,4.378037,52.071698
Westvlietweg,10,,2,2491EA,'s-Gravenhage,'s-Gravenhage,Zuid-Holland,VBO,4.377978,52.071287
Westvlietweg,10,,20,2491EA,'s-Gravenhage,'s-Gravenhage,Zuid-Holland,VBO,4.377936,52.071509
Westvlietweg,10,,21,2491EA,'s-Gravenhage,'s-Gravenhage,Zuid-Holland,VBO,4.378071,52.071563
Westvlietweg,10,,23,2491EA,'s-Gravenhage,'s-Gravenhage,Zuid-Holland,VBO,4.378152,52.071355
Westvlietweg,10,,24,2491EA,'s-Gravenhage,'s-Gravenhage,Zuid-Holland,VBO,4.378265,52.071381
Westvlietweg,10,,25,2491EA,'s-Gravenhage,'s-Gravenhage,Zuid-Holland,VBO,4.378360,52.071437
Westvlietweg,10,,26,2491EA,'s-Gravenhage,'s-Gravenhage,Zuid-Holland,VBO,4.378254,52.071265
Westvlietweg,10,,27,2491EA,'s-Gravenhage,'s-Gravenhage,Zuid-Holland,VBO,4.378361,52.071332
Westvlietweg,10,,28,2491EA,'s-Gravenhage,'s-Gravenhage,Zuid-Holland,VBO,4.378442,52.071377
Westvlietweg,10,,29,2491EA,'s-Gravenhage,'s-Gravenhage,Zuid-Holland,VBO,4.378485,52.071117
Westvlietweg,10,,3,2491EA,'s-Gravenhage,'s-Gravenhage,Zuid-Holland,VBO,4.378030,52.071239
Westvlietweg,10,,30,2491EA,'s-Gravenhage,'s-Gravenhage,Zuid-Holland,VBO,4.378555,52.071176
Westvlietweg,10,,31,2491EA,'s-Gravenhage,'s-Gravenhage,Zuid-Holland,VBO,4.378695,52.071220
Westvlietweg,10,,32,2491EA,'s-Gravenhage,'s-Gravenhage,Zuid-Holland,VBO,4.378583,52.071049
Westvlietweg,10,,33,2491EA,'s-Gravenhage,'s-Gravenhage,Zuid-Holland,VBO,4.378656,52.071099
Westvlietweg,10,,34,2491EA,'s-Gravenhage,'s-Gravenhage,Zuid-Holland,VBO,4.378791,52.071150
Westvlietweg,10,,35,2491EA,'s-Gravenhage,'s-Gravenhage,Zuid-Holland,VBO,4.378759,52.070868
Westvlietweg,10,,36,2491EA,'s-Gravenhage,'s-Gravenhage,Zuid-Holland,VBO,4.378861,52.070939
Westvlietweg,10,,37,2491EA,'s-Gravenhage,'s-Gravenhage,Zuid-Holland,VBO,4.378969,52.070977
Westvlietweg,10,,38,2491EA,'s-Gravenhage,'s-Gravenhage,Zuid-Holland,VBO,4.378875,52.070811
Westvlietweg,10,,39,2491EA,'s-Gravenhage,'s-Gravenhage,Zuid-Holland,VBO,4.378981,52.070864
Westvlietweg,10,,4,2491EA,'s-Gravenhage,'s-Gravenhage,Zuid-Holland,VBO,4.377945,52.071193
Westvlietweg,10,,40,2491EA,'s-Gravenhage,'s-Gravenhage,Zuid-Holland,VBO,4.379069,52.070908
Westvlietweg,10,,41,2491EA,'s-Gravenhage,'s-Gravenhage,Zuid-Holland,VBO,4.379078,52.070651
Westvlietweg,10,,43,2491EA,'s-Gravenhage,'s-Gravenhage,Zuid-Holland,VBO,4.379305,52.070761
Westvlietweg,10,,44,2491EA,'s-Gravenhage,'s-Gravenhage,Zuid-Holland,VBO,4.379193,52.070586
Westvlietweg,10,,45,2491EA,'s-Gravenhage,'s-Gravenhage,Zuid-Holland,VBO,4.379287,52.070635
Westvlietweg,10,,46,2491EA,'s-Gravenhage,'s-Gravenhage,Zuid-Holland,VBO,4.379399,52.070693
Westvlietweg,10,,47,2491EA,'s-Gravenhage,'s-Gravenhage,Zuid-Holland,VBO,4.379397,52.070418
Westvlietweg,10,,48,2491EA,'s-Gravenhage,'s-Gravenhage,Zuid-Holland,VBO,4.379486,52.070462
Westvlietweg,10,,49,2491EA,'s-Gravenhage,'s-Gravenhage,Zuid-Holland,VBO,4.379595,52.070529
Westvlietweg,10,,5,2491EA,'s-Gravenhage,'s-Gravenhage,Zuid-Holland,VBO,4.378359,52.070997
Westvlietweg,10,,50,2491EA,'s-Gravenhage,'s-Gravenhage,Zuid-Holland,VBO,4.379473,52.070347
Westvlietweg,10,,51,2491EA,'s-Gravenhage,'s-Gravenhage,Zuid-Holland,VBO,4.379579,52.070401
Westvlietweg,10,,52,2491EA,'s-Gravenhage,'s-Gravenhage,Zuid-Holland,VBO,4.379661,52.070456
Westvlietweg,10,,53,2491EA,'s-Gravenhage,'s-Gravenhage,Zuid-Holland,VBO,4.379714,52.070188
Westvlietweg,10,,54,2491EA,'s-Gravenhage,'s-Gravenhage,Zuid-Holland,VBO,4.379832,52.070248
Westvlietweg,10,,56,2491EA,'s-Gravenhage,'s-Gravenhage,Zuid-Holland,VBO,4.379804,52.070102
Westvlietweg,10,,57,2491EA,'s-Gravenhage,'s-Gravenhage,Zuid-Holland,VBO,4.379893,52.070149
Westvlietweg,10,,59,2491EA,'s-Gravenhage,'s-Gravenhage,Zuid-Holland,VBO,4.377658,52.071119
Westvlietweg,10,,6,2491EA,'s-Gravenhage,'s-Gravenhage,Zuid-Holland,VBO,4.378270,52.070953
Westvlietweg,10,,61,2491EA,'s-Gravenhage,'s-Gravenhage,Zuid-Holland,VBO,4.377726,52.071035
Westvlietweg,10,,62,2491EA,'s-Gravenhage,'s-Gravenhage,Zuid-Holland,VBO,4.377816,52.071111
Westvlietweg,10,,63,2491EA,'s-Gravenhage,'s-Gravenhage,Zuid-Holland,VBO,4.378041,52.070816
Westvlietweg,10,,65,2491EA,'s-Gravenhage,'s-Gravenhage,Zuid-Holland,VBO,4.378153,52.070755
Westvlietweg,10,,66,2491EA,'s-Gravenhage,'s-Gravenhage,Zuid-Holland,VBO,4.378208,52.070850
Westvlietweg,10,,67,2491EA,'s-Gravenhage,'s-Gravenhage,Zuid-Holland,VBO,4.378552,52.070441
Westvlietweg,10,,68,2491EA,'s-Gravenhage,'s-Gravenhage,Zuid-Holland,VBO,4.378662,52.070487
Westvlietweg,10,,69,2491EA,'s-Gravenhage,'s-Gravenhage,Zuid-Holland,VBO,4.378661,52.070361
Westvlietweg,10,,7,2491EA,'s-Gravenhage,'s-Gravenhage,Zuid-Holland,VBO,4.378477,52.070922
Westvlietweg,10,,70,2491EA,'s-Gravenhage,'s-Gravenhage,Zuid-Holland,VBO,4.378756,52.070418
Westvlietweg,10,,71,2491EA,'s-Gravenhage,'s-Gravenhage,Zuid-Holland,VBO,4.378966,52.070125
Westvlietweg,10,,72,2491EA,'s-Gravenhage,'s-Gravenhage,Zuid-Holland,VBO,4.379088,52.070190
Westvlietweg,10,,73,2491EA,'s-Gravenhage,'s-Gravenhage,Zuid-Holland,VBO,4.379046,52.070077
Westvlietweg,10,,74,2491EA,'s-Gravenhage,'s-Gravenhage,Zuid-Holland,VBO,4.379165,52.070123
Westvlietweg,10,,76,2491EA,'s-Gravenhage,'s-Gravenhage,Zuid-Holland,VBO,4.379680,52.069922
Westvlietweg,10,,77,2491EA,'s-Gravenhage,'s-Gravenhage,Zuid-Holland,VBO,4.377540,52.071860
Westvlietweg,10,,78,2491EA,'s-Gravenhage,'s-Gravenhage,Zuid-Holland,VBO,4.379484,52.069969
Westvlietweg,10,,79,2491EA,'s-Gravenhage,'s-Gravenhage,Zuid-Holland,VBO,4.379601,52.069882
Westvlietweg,10,,8,2491EA,'s-Gravenhage,'s-Gravenhage,Zuid-Holland,VBO,4.378368,52.070865
Westvlietweg,10,,80,2491EA,'s-Gravenhage,'s-Gravenhage,Zuid-Holland,VBO,4.377678,52.071930
Westvlietweg,10,,81,2491EA,'s-Gravenhage,'s-Gravenhage,Zuid-Holland,VBO,4.379190,52.069816
Westvlietweg,10,,82,2491EA,'s-Gravenhage,'s-Gravenhage,Zuid-Holland,VBO,4.379293,52.069758
Westvlietweg,10,,83,2491EA,'s-Gravenhage,'s-Gravenhage,Zuid-Holland,VBO,4.379399,52.069654
Westvlietweg,10,,84,2491EA,'s-Gravenhage,'s-Gravenhage,Zuid-Holland,VBO,4.379094,52.069767
Westvlietweg,10,,85,2491EA,'s-Gravenhage,'s-Gravenhage,Zuid-Holland,VBO,4.379186,52.069701
Westvlietweg,10,,86,2491EA,'s-Gravenhage,'s-Gravenhage,Zuid-Holland,VBO,4.379287,52.069637
Westvlietweg,10,,87,2491EA,'s-Gravenhage,'s-Gravenhage,Zuid-Holland,VBO,4.378873,52.069656
Westvlietweg,10,,88,2491EA,'s-Gravenhage,'s-Gravenhage,Zuid-Holland,VBO,4.379040,52.069576
Westvlietweg,10,,89,2491EA,'s-Gravenhage,'s-Gravenhage,Zuid-Holland,VBO,4.379088,52.069476
Westvlietweg,10,,9,2491EA,'s-Gravenhage,'s-Gravenhage,Zuid-Holland,VBO,4.378891,52.070590
Westvlietweg,10,,90,2491EA,'s-Gravenhage,'s-Gravenhage,Zuid-Holland,VBO,4.378785,52.069610
Westvlietweg,10,,91,2491EA,'s-Gravenhage,'s-Gravenhage,Zuid-Holland,VBO,4.378912,52.069498
Westvlietweg,10,,92,2491EA,'s-Gravenhage,'s-Gravenhage,Zuid-Holland,VBO,4.379026,52.069440
Westvlietweg,10,,93,2491EA,'s-Gravenhage,'s-Gravenhage,Zuid-Holland,VBO,4.378722,52.069755
Westvlietweg,10,,94,2491EA,'s-Gravenhage,'s-Gravenhage,Zuid-Holland,VBO,4.378996,52.069946
Westvlietweg,10,,95,2491EA,'s-Gravenhage,'s-Gravenhage,Zuid-Holland,VBO,4.378871,52.069890
Westvlietweg,10,,96,2491EA,'s-Gravenhage,'s-Gravenhage,Zuid-Holland,VBO,4.378920,52.069997
Westvlietweg,10,,97,2491EA,'s-Gravenhage,'s-Gravenhage,Zuid-Holland,VBO,4.378803,52.069938
Westvlietweg,10,,98,2491EA,'s-Gravenhage,'s-Gravenhage,Zuid-Holland,VBO,4.378522,52.069804
Westvlietweg,11,,,2491EB,'s-Gravenhage,'s-Gravenhage,Zuid-Holland,VBO,4.376487,52.072135
Westvlietweg,12,A,,2491EB,'s-Gravenhage,'s-Gravenhage,Zuid-Holland,VBO,4.376004,52.071738
Westvlietweg,12,,,2491EB,'s-Gravenhage,'s-Gravenhage,Zuid-Holland,VBO,4.376529,52.071815
Westvlietweg,14,,,2491EB,'s-Gravenhage,'s-Gravenhage,Zuid-Holland,VBO,4.376004,52.071343
Westvlietweg,28,,,2491EB,'s-Gravenhage,'s-Gravenhage,Zuid-Holland,VBO,4.374026,52.070622
Westvlietweg,29,,,2491EB,'s-Gravenhage,'s-Gravenhage,Zuid-Holland,VBO,4.373925,52.070403
Westvlietweg,30,,,2491EC,'s-Gravenhage,'s-Gravenhage,Zuid-Holland,VBO,4.373354,52.070202
Westvlietweg,31,,,2491EC,'s-Gravenhage,'s-Gravenhage,Zuid-Holland,VBO,4.373313,52.070181
Westvlietweg,32,,,2491EC,'s-Gravenhage,'s-Gravenhage,Zuid-Holland,VBO,4.373235,52.070117
Westvlietweg,33,,,2491EC,'s-Gravenhage,'s-Gravenhage,Zuid-Holland,VBO,4.373145,52.070067
Westvlietweg,34,,,2491EC,'s-Gravenhage,'s-Gravenhage,Zuid-Holland,VBO,4.373082,52.070032
Westvlietweg,35,,,2491EC,'s-Gravenhage,'s-Gravenhage,Zuid-Holland,VBO,4.372993,52.069979
Westvlietweg,36,A,,2491EC,'s-Gravenhage,'s-Gravenhage,Zuid-Holland,VBO,4.373135,52.069747
Westvlietweg,36,,,2491EC,'s-Gravenhage,'s-Gravenhage,Zuid-Holland,VBO,4.372899,52.069919
Westvlietweg,37,,,2491EC,'s-Gravenhage,'s-Gravenhage,Zuid-Holland,VBO,4.372824,52.069871
Westvlietweg,38,,,2491EC,'s-Gravenhage,'s-Gravenhage,Zuid-Holland,VBO,4.372764,52.069835
Westvlietweg,39,,,2491EC,'s-Gravenhage,'s-Gravenhage,Zuid-Holland,VBO,4.372671,52.069776
Westvlietweg,40,,,2491EC,'s-Gravenhage,'s-Gravenhage,Zuid-Holland,VBO,4.372609,52.069709
Westvlietweg,41,,,2491EC,'s-Gravenhage,'s-Gravenhage,Zuid-Holland,VBO,4.372445,52.069609
Westvlietweg,42,A,,2491EC,'s-Gravenhage,'s-Gravenhage,Zuid-Holland,VBO,4.372687,52.068980
Westvlietweg,42,,,2491EC,'s-Gravenhage,'s-Gravenhage,Zuid-Holland,VBO,4.372580,52.068923
Westvlietweg,55,,,2491ED,'s-Gravenhage,'s-Gravenhage,Zuid-Holland,VBO,4.368648,52.065664
Westvlietweg,60,A,,2491ED,'s-Gravenhage,'s-Gravenhage,Zuid-Holland,VBO,4.366629,52.065918
Westvlietweg,60,B,,2491ED,'s-Gravenhage,'s-Gravenhage,Zuid-Holland,VBO,4.366520,52.065856
Westvlietweg,60,C,,2491ED,'s-Gravenhage,'s-Gravenhage,Zuid-Holland,VBO,4.366727,52.065669
Westvlietweg,60,D,,2491ED,'s-Gravenhage,'s-Gravenhage,Zuid-Holland,VBO,4.366907,52.065549
Westvlietweg,60,E,,2491ED,'s-Gravenhage,'s-Gravenhage,Zuid-Holland,VBO,4.367081,52.065433
Westvlietweg,60,F,,2491ED,'s-Gravenhage,'s-Gravenhage,Zuid-Holland,VBO,4.367375,52.065285
Westvlietweg,60,G,,2491ED,'s-Gravenhage,'s-Gravenhage,Zuid-Holland,VBO,4.367486,52.065348
Westvlietweg,60,H,,2491ED,'s-Gravenhage,'s-Gravenhage,Zuid-Holland,VBO,4.367588,52.065407
Westvlietweg,60,,,2491ED,'s-Gravenhage,'s-Gravenhage,Zuid-Holland,VBO,4.366738,52.065980
Westvlietweg,61,A,,2491ED,'s-Gravenhage,'s-Gravenhage,Zuid-Holland,VBO,4.367744,52.065187
Westvlietweg,61,B,,2491ED,'s-Gravenhage,'s-Gravenhage,Zuid-Holland,VBO,4.367680,52.064920
Westvlietweg,61,C,,2491ED,'s-Gravenhage,'s-Gravenhage,Zuid-Holland,VBO,4.367795,52.064843
Westvlietweg,61,D,,2491ED,'s-Gravenhage,'s-Gravenhage,Zuid-Holland,VBO,4.368000,52.064705
Westvlietweg,61,E,,2491ED,'s-Gravenhage,'s-Gravenhage,Zuid-Holland,VBO,4.368181,52.064584
Westvlietweg,61,F,,2491ED,'s-Gravenhage,'s-Gravenhage,Zuid-Holland,VBO,4.368381,52.064450
Westvlietweg,61,G,,2491ED,'s-Gravenhage,'s-Gravenhage,Zuid-Holland,VBO,4.368727,52.064523
Westvlietweg,62,A,,2491ED,'s-Gravenhage,'s-Gravenhage,Zuid-Holland,VBO,4.366627,52.065383
Westvlietweg,62,,,2491ED,'s-Gravenhage,'s-Gravenhage,Zuid-Holland,VBO,4.366134,52.065450
Schrepelpad,2,,,2491EE,'s-Gravenhage,'s-Gravenhage,Zuid-Holland,VBO,4.377895,52.072482
Schrepelpad,4,,,2491EE,'s-Gravenhage,'s-Gravenhage,Zuid-Holland,VBO,4.377642,52.072313
Schrepelpad,6,,,2491EE,'s-Gravenhage,'s-Gravenhage,Zuid-Holland,VBO,4.378424,52.072081
Park Nabij,1,,,2491EG,'s-Gravenhage,'s-Gravenhage,Zuid-Holland,VBO,4.373632,52.070241
Park Nabij,2,,,2491EG,'s-Gravenhage,'s-Gravenhage,Zuid-Holland,VBO,4.374073,52.070073
Park Nabij,3,,,2491EG,'s-Gravenhage,'s-Gravenhage,Zuid-Holland,VBO,4.374252,52.069919
Park Nabij,4,,,2491EG,'s-Gravenhage,'s-Gravenhage,Zuid-Holland,VBO,4.374414,52.069774
Park Nabij,5,,,2491EG,'s-Gravenhage,'s-Gravenhage,Zuid-Holland,VBO,4.374123,52.069796
Park Nabij,6,,,2491EG,'s-Gravenhage,'s-Gravenhage,Zuid-Holland,VBO,4.373932,52.069717
Park Nabij,7,,,2491EG,'s-Gravenhage,'s-Gravenhage,Zuid-Holland,VBO,4.373732,52.069640
Park Nabij,8,A,,2491EG,'s-Gravenhage,'s-Gravenhage,Zuid-Holland,VBO,4.373686,52.069407
Park Nabij,8,,,2491EG,'s-Gravenhage,'s-Gravenhage,Zuid-Holland,VBO,4.373378,52.069636
Groene Zoom,2,,,2491EH,'s-Gravenhage,'s-Gravenhage,Zuid-Holland,VBO,4.371567,52.066567
Groene Zoom,4,A,,2491EH,'s-Gravenhage,'s-Gravenhage,Zuid-Holland,VBO,4.373817,52.065220
Groene Zoom,4,,,2491EH,'s-Gravenhage,'s-Gravenhage,Zuid-Holland,VBO,4.373210,52.064664
Groene Zoom,6,,,2491EH,'s-Gravenhage,'s-Gravenhage,Zuid-Holland,VBO,4.374379,52.065328
Groene Zoom,20,,,2491EH,'s-Gravenhage,'s-Gravenhage,Zuid-Holland,VBO,4.374071,52.067623
Groene Zoom,3,,,2491EJ,'s-Gravenhage,'s-Gravenhage,Zuid-Holland,VBO,4.368993,52.065966
Groene Zoom,5,,,2491EJ,'s-Gravenhage,'s-Gravenhage,Zuid-Holland,VBO,4.369168,52.066064
Groene Zoom,7,,,2491EJ,'s-Gravenhage,'s-Gravenhage,Zuid-Holland,VBO,4.369583,52.066105
Groene Zoom,11,,,2491EJ,'s-Gravenhage,'s-Gravenhage,Zuid-Holland,VBO,4.371834,52.064242
Groene Zoom,13,,,2491EJ,'s-Gravenhage,'s-Gravenhage,Zuid-Holland,VBO,4.372272,52.064095
Groene Zoom,15,,,2491EJ,'s-Gravenhage,'s-Gravenhage,Zuid-Holland,VBO,4.373340,52.064113
Groene Zoom,17,,,2491EJ,'s-Gravenhage,'s-Gravenhage,Zuid-Holland,VBO,4.377413,52.067416
Broekweg,125,,,2491EK,'s-Gravenhage,'s-Gravenhage,Zuid-Holland,VBO,4.390291,52.073291
