openbareruimtenaam,huisnummer,huisletter,huisnummertoevoeging,postcode,woonplaatsnaam,gemeentenaam,provincienaam,typeadresseerbaarobject,longitude,latitude
Noordlierweg,1,,,2636AA,Schipluiden,Midden-Delfland,Zuid-Holland,VBO,4.283397,51.987054
Noordlierweg,3,a,,2636AA,Schipluiden,Midden-Delfland,Zuid-Holland,VBO,4.282872,51.986792
Noordlierweg,3,,,2636AA,Schipluiden,Midden-Delfland,Zuid-Holland,VBO,4.282860,51.986579
Gaagweg,1,,,2636AG,Schipluiden,Midden-Delfland,Zuid-Holland,VBO,4.310225,51.973321
Gaagweg,2,a,,2636AG,Schipluiden,Midden-Delfland,Zuid-Holland,VBO,4.310079,51.975203
Gaagweg,2,,,2636AG,Schipluiden,Midden-Delfland,Zuid-Holland,VBO,4.309376,51.975122
Gaagweg,3,,,2636AG,Schipluiden,Midden-Delfland,Zuid-Holland,VBO,4.310264,51.973140
Gaagweg,5,,,2636AG,Schipluiden,Midden-Delfland,Zuid-Holland,VBO,4.309993,51.973082
Gaagweg,6,,,2636AG,Schipluiden,Midden-Delfland,Zuid-Holland,VBO,4.310319,51.974216
Gaagweg,8,,,2636AG,Schipluiden,Midden-Delfland,Zuid-Holland,VBO,4.310356,51.974008
Gaagweg,14,,,2636AH,Schipluiden,Midden-Delfland,Zuid-Holland,VBO,4.308961,51.973296
Gaagweg,16,t,,2636AH,Schipluiden,Midden-Delfland,Zuid-Holland,VBO,4.309579,51.973301
Gaagweg,16,,,2636AH,Schipluiden,Midden-Delfland,Zuid-Holland,VBO,4.309508,51.973099
Gaagweg,18,a,,2636AH,Schipluiden,Midden-Delfland,Zuid-Holland,VBO,4.307637,51.972209
Gaagweg,18,,,2636AH,Schipluiden,Midden-Delfland,Zuid-Holland,VBO,4.307977,51.972366
Gaagweg,7,a,,2636AJ,Schipluiden,Midden-Delfland,Zuid-Holland,VBO,4.303837,51.965741
Gaagweg,7,b,,2636AJ,Schipluiden,Midden-Delfland,Zuid-Holland,VBO,4.303694,51.965764
Gaagweg,7,c,,2636AJ,Schipluiden,Midden-Delfland,Zuid-Holland,VBO,4.303923,51.965710
Gaagweg,7,d,,2636AJ,Schipluiden,Midden-Delfland,Zuid-Holland,VBO,4.308427,51.971659
Gaagweg,7,e,,2636AJ,Schipluiden,Midden-Delfland,Zuid-Holland,VBO,4.308098,51.971421
Gaagweg,7,f,,2636AJ,Schipluiden,Midden-Delfland,Zuid-Holland,VBO,4.303928,51.965597
Gaagweg,7,,,2636AJ,Schipluiden,Midden-Delfland,Zuid-Holland,VBO,4.309750,51.972920
Gaagweg,9,a,,2636AJ,Schipluiden,Midden-Delfland,Zuid-Holland,VBO,4.303656,51.965575
Gaagweg,9,b,,2636AJ,Schipluiden,Midden-Delfland,Zuid-Holland,VBO,4.303102,51.964575
Gaagweg,9,,,2636AJ,Schipluiden,Midden-Delfland,Zuid-Holland,VBO,4.303558,51.965734
Gaagweg,20,,,2636AJ,Schipluiden,Midden-Delfland,Zuid-Holland,VBO,4.306664,51.971939
Gaagweg,22,a,,2636AJ,Schipluiden,Midden-Delfland,Zuid-Holland,VBO,4.305813,51.970679
Gaagweg,22,,,2636AJ,Schipluiden,Midden-Delfland,Zuid-Holland,VBO,4.306640,51.971387
Gaagweg,24,a,,2636AJ,Schipluiden,Midden-Delfland,Zuid-Holland,VBO,4.303952,51.970767
Gaagweg,24,b,,2636AJ,Schipluiden,Midden-Delfland,Zuid-Holland,VBO,4.303789,51.970655
Gaagweg,24,,,2636AJ,Schipluiden,Midden-Delfland,Zuid-Holland,VBO,4.305434,51.970443
Gaagweg,26,a,,2636AJ,Schipluiden,Midden-Delfland,Zuid-Holland,VBO,4.303608,51.969675
Gaagweg,26,,,2636AJ,Schipluiden,Midden-Delfland,Zuid-Holland,VBO,4.303732,51.969601
Gaagweg,28,a,,2636AJ,Schipluiden,Midden-Delfland,Zuid-Holland,VBO,4.303734,51.968765
Gaagweg,28,,,2636AJ,Schipluiden,Midden-Delfland,Zuid-Holland,VBO,4.303479,51.968339
Gaagweg,30,,,2636AJ,Schipluiden,Midden-Delfland,Zuid-Holland,VBO,4.303031,51.967930
Gaagweg,32,,,2636AJ,Schipluiden,Midden-Delfland,Zuid-Holland,VBO,4.302940,51.965757
Gaagweg,34,,,2636AJ,Schipluiden,Midden-Delfland,Zuid-Holland,VBO,4.301897,51.965995
Gaagweg,11,a,,2636AK,Schipluiden,Midden-Delfland,Zuid-Holland,VBO,4.303361,51.963854
Gaagweg,11,b,,2636AK,Schipluiden,Midden-Delfland,Zuid-Holland,VBO,4.302709,51.963608
Gaagweg,11,,,2636AK,Schipluiden,Midden-Delfland,Zuid-Holland,VBO,4.302914,51.964136
Gaagweg,13,,,2636AK,Schipluiden,Midden-Delfland,Zuid-Holland,VBO,4.302268,51.962506
Gaagweg,15,a,,2636AK,Schipluiden,Midden-Delfland,Zuid-Holland,VBO,4.308619,51.960864
Gaagweg,15,,,2636AK,Schipluiden,Midden-Delfland,Zuid-Holland,VBO,4.308899,51.960858
Gaagweg,36,a,,2636AK,Schipluiden,Midden-Delfland,Zuid-Holland,VBO,4.301894,51.964124
Gaagweg,36,b,,2636AK,Schipluiden,Midden-Delfland,Zuid-Holland,VBO,4.301581,51.963576
Gaagweg,36,,,2636AK,Schipluiden,Midden-Delfland,Zuid-Holland,VBO,4.301844,51.964097
Gaagweg,38,a,,2636AK,Schipluiden,Midden-Delfland,Zuid-Holland,VBO,4.293824,51.965939
Gaagweg,38,,,2636AK,Schipluiden,Midden-Delfland,Zuid-Holland,VBO,4.294164,51.965908
Gaagweg,40,a,,2636AK,Schipluiden,Midden-Delfland,Zuid-Holland,VBO,4.290584,51.968546
Gaagweg,40,,,2636AK,Schipluiden,Midden-Delfland,Zuid-Holland,VBO,4.290694,51.968444
Gaagweg,42,a,,2636AK,Schipluiden,Midden-Delfland,Zuid-Holland,VBO,4.292669,51.965722
Gaagweg,42,,,2636AK,Schipluiden,Midden-Delfland,Zuid-Holland,VBO,4.290105,51.967964
Gaagweg,44,a,,2636AK,Schipluiden,Midden-Delfland,Zuid-Holland,VBO,4.299861,51.960799
Gaagweg,44,,,2636AK,Schipluiden,Midden-Delfland,Zuid-Holland,VBO,4.299624,51.961066
Gaagweg,46,a,,2636AK,Schipluiden,Midden-Delfland,Zuid-Holland,VBO,4.298660,51.958974
Gaagweg,46,,,2636AK,Schipluiden,Midden-Delfland,Zuid-Holland,VBO,4.299219,51.959338
Gaagweg,48,a,,2636AK,Schipluiden,Midden-Delfland,Zuid-Holland,VBO,4.298175,51.959364
Gaagweg,48,,,2636AK,Schipluiden,Midden-Delfland,Zuid-Holland,VBO,4.298292,51.959648
Gaagweg,50,,,2636AK,Schipluiden,Midden-Delfland,Zuid-Holland,VBO,4.297313,51.957839
Groeneveld,2,a,,2636AL,Schipluiden,Midden-Delfland,Zuid-Holland,VBO,4.273619,51.998552
Groeneveld,2,b,,2636AL,Schipluiden,Midden-Delfland,Zuid-Holland,VBO,4.272474,51.998448
Groeneveld,2,c,,2636AL,Schipluiden,Midden-Delfland,Zuid-Holland,VBO,4.273250,51.998968
Groeneveld,2,,,2636AL,Schipluiden,Midden-Delfland,Zuid-Holland,VBO,4.272434,51.998489
Groeneveld,3,,,2636AL,Schipluiden,Midden-Delfland,Zuid-Holland,VBO,4.278168,51.996053
Groeneveld,4,,,2636AL,Schipluiden,Midden-Delfland,Zuid-Holland,VBO,4.277834,51.995498
Molenlaan,1,a,,2636AR,Schipluiden,Midden-Delfland,Zuid-Holland,VBO,4.286863,51.989732
Molenlaan,1,b,,2636AR,Schipluiden,Midden-Delfland,Zuid-Holland,VBO,4.287644,51.989830
Molenlaan,1,,,2636AR,Schipluiden,Midden-Delfland,Zuid-Holland,VBO,4.287224,51.989479
Molenlaan,2,a,,2636AR,Schipluiden,Midden-Delfland,Zuid-Holland,VBO,4.285559,51.991128
Molenlaan,2,,,2636AR,Schipluiden,Midden-Delfland,Zuid-Holland,VBO,4.284805,51.992094
Molenlaan,3,t,2,2636AR,Schipluiden,Midden-Delfland,Zuid-Holland,VBO,4.284511,51.992474
Molenlaan,3,,,2636AR,Schipluiden,Midden-Delfland,Zuid-Holland,VBO,4.284301,51.992834
Molenlaan,5,a,,2636AR,Schipluiden,Midden-Delfland,Zuid-Holland,VBO,4.283715,51.993557
Molenlaan,5,,,2636AR,Schipluiden,Midden-Delfland,Zuid-Holland,VBO,4.283948,51.993202
Molenlaan,6,t,,2636AR,Schipluiden,Midden-Delfland,Zuid-Holland,VBO,4.283326,51.994153
Molenlaan,6,,,2636AR,Schipluiden,Midden-Delfland,Zuid-Holland,VBO,4.283475,51.993792
Molenlaan,8,a,,2636AR,Schipluiden,Midden-Delfland,Zuid-Holland,VBO,4.282575,51.995264
Molenlaan,8,,,2636AR,Schipluiden,Midden-Delfland,Zuid-Holland,VBO,4.282496,51.994998
Molenlaan,9,,,2636AR,Schipluiden,Midden-Delfland,Zuid-Holland,VBO,4.282069,51.995623
Molenlaan,10,,,2636AR,Schipluiden,Midden-Delfland,Zuid-Holland,VBO,4.281617,51.996139
Zijdekade,1,a,,2636AT,Schipluiden,Midden-Delfland,Zuid-Holland,VBO,4.308993,51.974047
Zijdekade,1,,,2636AT,Schipluiden,Midden-Delfland,Zuid-Holland,VBO,4.308610,51.974680
Zijdekade,3,,,2636AT,Schipluiden,Midden-Delfland,Zuid-Holland,VBO,4.308539,51.974805
Zijdekade,5,,,2636AT,Schipluiden,Midden-Delfland,Zuid-Holland,VBO,4.308374,51.974950
Zijdekade,7,,,2636AT,Schipluiden,Midden-Delfland,Zuid-Holland,VBO,4.308219,51.975052
Woudseweg,25,t,,2636AV,Schipluiden,Midden-Delfland,Zuid-Holland,VBO,4.295976,51.992057
Woudseweg,25,,,2636AV,Schipluiden,Midden-Delfland,Zuid-Holland,VBO,4.296070,51.990620
Woudseweg,27,a,,2636AV,Schipluiden,Midden-Delfland,Zuid-Holland,VBO,4.295146,51.991677
Woudseweg,27,,,2636AV,Schipluiden,Midden-Delfland,Zuid-Holland,VBO,4.295025,51.991929
Woudseweg,29,,,2636AV,Schipluiden,Midden-Delfland,Zuid-Holland,VBO,4.294721,51.991741
Woudseweg,134,,,2636AV,Schipluiden,Midden-Delfland,Zuid-Holland,VBO,4.318094,51.997141
Woudseweg,142,,,2636AV,Schipluiden,Midden-Delfland,Zuid-Holland,VBO,4.314874,51.996506
Woudseweg,144,a,,2636AV,Schipluiden,Midden-Delfland,Zuid-Holland,VBO,4.313780,51.996325
Woudseweg,144,,,2636AV,Schipluiden,Midden-Delfland,Zuid-Holland,VBO,4.314442,51.996307
Woudseweg,146,t,,2636AV,Schipluiden,Midden-Delfland,Zuid-Holland,VBO,4.313166,51.996164
Woudseweg,146,,,2636AV,Schipluiden,Midden-Delfland,Zuid-Holland,VBO,4.312508,51.997550
Woudseweg,148,,,2636AV,Schipluiden,Midden-Delfland,Zuid-Holland,VBO,4.312050,51.996624
Woudseweg,150,a,,2636AV,Schipluiden,Midden-Delfland,Zuid-Holland,VBO,4.311220,51.996801
Woudseweg,150,,,2636AV,Schipluiden,Midden-Delfland,Zuid-Holland,VBO,4.311705,51.996550
Woudseweg,156,a,,2636AV,Schipluiden,Midden-Delfland,Zuid-Holland,VBO,4.310997,51.996337
Woudseweg,156,,,2636AV,Schipluiden,Midden-Delfland,Zuid-Holland,VBO,4.311392,51.996152
Woudseweg,158,a,,2636AV,Schipluiden,Midden-Delfland,Zuid-Holland,VBO,4.310369,51.996012
Woudseweg,158,c,,2636AV,Schipluiden,Midden-Delfland,Zuid-Holland,VBO,4.309989,51.995994
Woudseweg,158,d,,2636AV,Schipluiden,Midden-Delfland,Zuid-Holland,VBO,4.309968,51.996448
Woudseweg,158,e,,2636AV,Schipluiden,Midden-Delfland,Zuid-Holland,VBO,4.309621,51.996789
Woudseweg,158,f,,2636AV,Schipluiden,Midden-Delfland,Zuid-Holland,VBO,4.309404,51.997035
Woudseweg,158,g,,2636AV,Schipluiden,Midden-Delfland,Zuid-Holland,VBO,4.309173,51.997284
Woudseweg,158,t,,2636AV,Schipluiden,Midden-Delfland,Zuid-Holland,VBO,4.308463,51.997515
Woudseweg,158,,,2636AV,Schipluiden,Midden-Delfland,Zuid-Holland,VBO,4.310667,51.996112
Woudseweg,160,a,,2636AV,Schipluiden,Midden-Delfland,Zuid-Holland,VBO,4.309460,51.995642
Woudseweg,160,b,,2636AV,Schipluiden,Midden-Delfland,Zuid-Holland,VBO,4.309003,51.995636
Woudseweg,160,t,,2636AV,Schipluiden,Midden-Delfland,Zuid-Holland,VBO,4.308587,51.995573
Woudseweg,160,,,2636AV,Schipluiden,Midden-Delfland,Zuid-Holland,VBO,4.310039,51.995883
Woudseweg,162,,,2636AW,Schipluiden,Midden-Delfland,Zuid-Holland,VBO,4.306389,51.998446
Woudseweg,164,,,2636AW,Schipluiden,Midden-Delfland,Zuid-Holland,VBO,4.305689,51.998624
Woudseweg,166,,,2636AW,Schipluiden,Midden-Delfland,Zuid-Holland,VBO,4.305021,51.998483
Woudseweg,168,,,2636AW,Schipluiden,Midden-Delfland,Zuid-Holland,VBO,4.304766,51.997842
Woudseweg,170,,,2636AW,Schipluiden,Midden-Delfland,Zuid-Holland,VBO,4.304069,51.997723
Woudseweg,174,,,2636AW,Schipluiden,Midden-Delfland,Zuid-Holland,VBO,4.305851,51.995403
Woudseweg,176,,,2636AW,Schipluiden,Midden-Delfland,Zuid-Holland,VBO,4.307439,51.995918
Woudseweg,178,a,,2636AW,Schipluiden,Midden-Delfland,Zuid-Holland,VBO,4.299267,51.995909
Woudseweg,178,,,2636AW,Schipluiden,Midden-Delfland,Zuid-Holland,VBO,4.299746,51.995322
Woudseweg,180,a,,2636AW,Schipluiden,Midden-Delfland,Zuid-Holland,VBO,4.289644,51.993333
Woudseweg,180,c,,2636AW,Schipluiden,Midden-Delfland,Zuid-Holland,VBO,4.288250,51.993434
Woudseweg,180,,,2636AW,Schipluiden,Midden-Delfland,Zuid-Holland,VBO,4.288409,51.993467
Woudseweg,182,,,2636AW,Schipluiden,Midden-Delfland,Zuid-Holland,VBO,4.288404,51.992773
Woudseweg,184,,,2636AW,Schipluiden,Midden-Delfland,Zuid-Holland,VBO,4.289076,51.992548
Woudseweg,186,a,,2636AW,Schipluiden,Midden-Delfland,Zuid-Holland,VBO,4.283730,51.992362
Woudseweg,186,,,2636AW,Schipluiden,Midden-Delfland,Zuid-Holland,VBO,4.283952,51.992173
Woudseweg,188,,,2636AW,Schipluiden,Midden-Delfland,Zuid-Holland,VBO,4.286440,51.988810
Rijksstraatweg,16,,,2636AX,Schipluiden,Midden-Delfland,Zuid-Holland,VBO,4.320968,51.988814
Rijksstraatweg,17,a,,2636AX,Schipluiden,Midden-Delfland,Zuid-Holland,VBO,4.321784,51.988149
Rijksstraatweg,17,,,2636AX,Schipluiden,Midden-Delfland,Zuid-Holland,VBO,4.321467,51.988016
Rijksstraatweg,18,a,,2636AX,Schipluiden,Midden-Delfland,Zuid-Holland,VBO,4.321114,51.987118
Rijksstraatweg,18,,,2636AX,Schipluiden,Midden-Delfland,Zuid-Holland,VBO,4.321106,51.987300
Rijksstraatweg,20,,,2636AX,Schipluiden,Midden-Delfland,Zuid-Holland,VBO,4.319685,51.986533
Rijksstraatweg,22,,,2636AX,Schipluiden,Midden-Delfland,Zuid-Holland,VBO,4.320613,51.986581
Rijksstraatweg,23,,,2636AX,Schipluiden,Midden-Delfland,Zuid-Holland,VBO,4.319505,51.985680
Rijksstraatweg,24,,,2636AX,Schipluiden,Midden-Delfland,Zuid-Holland,VBO,4.318937,51.983962
Rijksstraatweg,25,a,,2636AX,Schipluiden,Midden-Delfland,Zuid-Holland,VBO,4.318632,51.983470
Rijksstraatweg,25,,,2636AX,Schipluiden,Midden-Delfland,Zuid-Holland,VBO,4.318693,51.983528
Rijksstraatweg,26,a,,2636AX,Schipluiden,Midden-Delfland,Zuid-Holland,VBO,4.318456,51.983266
Rijksstraatweg,26,,,2636AX,Schipluiden,Midden-Delfland,Zuid-Holland,VBO,4.318121,51.983199
Rijksstraatweg,27,,,2636AX,Schipluiden,Midden-Delfland,Zuid-Holland,VBO,4.318393,51.982995
Rijksstraatweg,28,b,,2636AX,Schipluiden,Midden-Delfland,Zuid-Holland,VBO,4.316194,51.982239
Rijksstraatweg,28,,,2636AX,Schipluiden,Midden-Delfland,Zuid-Holland,VBO,4.318255,51.982842
Rijksstraatweg,29,a,,2636AX,Schipluiden,Midden-Delfland,Zuid-Holland,VBO,4.313313,51.982424
Rijksstraatweg,29,b,,2636AX,Schipluiden,Midden-Delfland,Zuid-Holland,VBO,4.313501,51.981837
Rijksstraatweg,29,,,2636AX,Schipluiden,Midden-Delfland,Zuid-Holland,VBO,4.313501,51.982446
Rijksstraatweg,30,,,2636AX,Schipluiden,Midden-Delfland,Zuid-Holland,VBO,4.315200,51.981434
Rijksstraatweg,30,,,2636AX,Schipluiden,Midden-Delfland,Zuid-Holland,VBO,4.315100,51.981555
Rijksstraatweg,31,,,2636AX,Schipluiden,Midden-Delfland,Zuid-Holland,VBO,4.315672,51.981958
Rijksstraatweg,32,,,2636AX,Schipluiden,Midden-Delfland,Zuid-Holland,VBO,4.317305,51.981983
Rijksstraatweg,33,,,2636AX,Schipluiden,Midden-Delfland,Zuid-Holland,VBO,4.316451,51.980014
Rijksstraatweg,34,,,2636AX,Schipluiden,Midden-Delfland,Zuid-Holland,VBO,4.316344,51.980118
Ommedijk,3,a,,2636AZ,Schipluiden,Midden-Delfland,Zuid-Holland,VBO,4.321429,51.995302
Ommedijk,3,,,2636AZ,Schipluiden,Midden-Delfland,Zuid-Holland,VBO,4.321400,51.994702
Vlaardingsekade,1,,,2636BA,Schipluiden,Midden-Delfland,Zuid-Holland,VBO,4.316135,51.977064
Vlaardingsekade,2,,,2636BA,Schipluiden,Midden-Delfland,Zuid-Holland,VBO,4.316043,51.977025
Vlaardingsekade,3,,,2636BA,Schipluiden,Midden-Delfland,Zuid-Holland,VBO,4.315970,51.976977
Vlaardingsekade,4,,,2636BA,Schipluiden,Midden-Delfland,Zuid-Holland,VBO,4.315937,51.976984
Vlaardingsekade,5,,,2636BA,Schipluiden,Midden-Delfland,Zuid-Holland,VBO,4.315850,51.976952
Vlaardingsekade,6,,,2636BA,Schipluiden,Midden-Delfland,Zuid-Holland,VBO,4.315795,51.976927
Vlaardingsekade,7,,,2636BA,Schipluiden,Midden-Delfland,Zuid-Holland,VBO,4.315739,51.976903
Vlaardingsekade,9,,,2636BA,Schipluiden,Midden-Delfland,Zuid-Holland,VBO,4.315629,51.976847
Vlaardingsekade,10,,,2636BA,Schipluiden,Midden-Delfland,Zuid-Holland,VBO,4.315569,51.976803
Vlaardingsekade,11,,,2636BA,Schipluiden,Midden-Delfland,Zuid-Holland,VBO,4.315515,51.976756
Vlaardingsekade,12,,,2636BA,Schipluiden,Midden-Delfland,Zuid-Holland,VBO,4.315460,51.976716
Vlaardingsekade,13,,,2636BA,Schipluiden,Midden-Delfland,Zuid-Holland,VBO,4.315371,51.976647
Vlaardingsekade,14,,,2636BA,Schipluiden,Midden-Delfland,Zuid-Holland,VBO,4.315299,51.976591
Vlaardingsekade,15,,,2636BB,Schipluiden,Midden-Delfland,Zuid-Holland,VBO,4.315238,51.976550
Vlaardingsekade,16,,,2636BB,Schipluiden,Midden-Delfland,Zuid-Holland,VBO,4.315200,51.976522
Vlaardingsekade,18,,,2636BB,Schipluiden,Midden-Delfland,Zuid-Holland,VBO,4.315114,51.976472
Vlaardingsekade,19,,,2636BB,Schipluiden,Midden-Delfland,Zuid-Holland,VBO,4.315047,51.976430
Vlaardingsekade,20,,,2636BB,Schipluiden,Midden-Delfland,Zuid-Holland,VBO,4.314979,51.976394
Vlaardingsekade,21,,,2636BB,Schipluiden,Midden-Delfland,Zuid-Holland,VBO,4.314916,51.976361
Vlaardingsekade,22,,,2636BB,Schipluiden,Midden-Delfland,Zuid-Holland,VBO,4.314844,51.976323
Vlaardingsekade,23,,,2636BB,Schipluiden,Midden-Delfland,Zuid-Holland,VBO,4.314773,51.976291
Vlaardingsekade,24,,,2636BB,Schipluiden,Midden-Delfland,Zuid-Holland,VBO,4.314726,51.976270
Vlaardingsekade,25,,,2636BB,Schipluiden,Midden-Delfland,Zuid-Holland,VBO,4.314673,51.976253
Vlaardingsekade,26,,,2636BB,Schipluiden,Midden-Delfland,Zuid-Holland,VBO,4.314590,51.976224
Vlaardingsekade,27,,,2636BB,Schipluiden,Midden-Delfland,Zuid-Holland,VBO,4.314523,51.976182
Vlaardingsekade,28,,,2636BB,Schipluiden,Midden-Delfland,Zuid-Holland,VBO,4.314431,51.976171
Vlaardingsekade,29,,,2636BB,Schipluiden,Midden-Delfland,Zuid-Holland,VBO,4.314357,51.976151
Vlaardingsekade,30,,,2636BB,Schipluiden,Midden-Delfland,Zuid-Holland,VBO,4.314297,51.976131
Vlaardingsekade,31,,,2636BB,Schipluiden,Midden-Delfland,Zuid-Holland,VBO,4.314205,51.976110
Vlaardingsekade,32,,,2636BC,Schipluiden,Midden-Delfland,Zuid-Holland,VBO,4.314004,51.975980
Vlaardingsekade,33,,,2636BC,Schipluiden,Midden-Delfland,Zuid-Holland,VBO,4.314017,51.976003
Vlaardingsekade,34,,,2636BC,Schipluiden,Midden-Delfland,Zuid-Holland,VBO,4.313869,51.975958
Vlaardingsekade,35,,,2636BC,Schipluiden,Midden-Delfland,Zuid-Holland,VBO,4.313782,51.975937
Vlaardingsekade,36,a,,2636BC,Schipluiden,Midden-Delfland,Zuid-Holland,VBO,4.313757,51.975816
Vlaardingsekade,36,,,2636BC,Schipluiden,Midden-Delfland,Zuid-Holland,VBO,4.313653,51.975902
Vlaardingsekade,37,,,2636BC,Schipluiden,Midden-Delfland,Zuid-Holland,VBO,4.313584,51.975882
Vlaardingsekade,38,a,,2636BC,Schipluiden,Midden-Delfland,Zuid-Holland,VBO,4.313425,51.975838
Vlaardingsekade,38,,,2636BC,Schipluiden,Midden-Delfland,Zuid-Holland,VBO,4.313511,51.975859
Vlaardingsekade,40,a,,2636BC,Schipluiden,Midden-Delfland,Zuid-Holland,VBO,4.312136,51.975531
Vlaardingsekade,40,,,2636BC,Schipluiden,Midden-Delfland,Zuid-Holland,VBO,4.312501,51.975595
Vlaardingsekade,45,,,2636BC,Schipluiden,Midden-Delfland,Zuid-Holland,VBO,4.311213,51.971577
Vlaardingsekade,46,a,,2636BC,Schipluiden,Midden-Delfland,Zuid-Holland,VBO,4.311547,51.971530
Vlaardingsekade,46,,,2636BC,Schipluiden,Midden-Delfland,Zuid-Holland,VBO,4.311285,51.971349
Vlaardingsekade,47,,,2636BC,Schipluiden,Midden-Delfland,Zuid-Holland,VBO,4.311324,51.971156
Vlaardingsekade,49,a,,2636BC,Schipluiden,Midden-Delfland,Zuid-Holland,VBO,4.311420,51.970641
Vlaardingsekade,49,,,2636BC,Schipluiden,Midden-Delfland,Zuid-Holland,VBO,4.311359,51.970891
Vlaardingsekade,50,,,2636BD,Schipluiden,Midden-Delfland,Zuid-Holland,VBO,4.311579,51.969704
Vlaardingsekade,51,,,2636BD,Schipluiden,Midden-Delfland,Zuid-Holland,VBO,4.311929,51.968694
Vlaardingsekade,52,,,2636BD,Schipluiden,Midden-Delfland,Zuid-Holland,VBO,4.311935,51.968325
Vlaardingsekade,53,,,2636BD,Schipluiden,Midden-Delfland,Zuid-Holland,VBO,4.311946,51.968285
Vlaardingsekade,54,,,2636BD,Schipluiden,Midden-Delfland,Zuid-Holland,VBO,4.312708,51.962453
Vlaardingsekade,55,,,2636BD,Schipluiden,Midden-Delfland,Zuid-Holland,VBO,4.317988,51.952566
Vlaardingsekade,57,a,,2636BD,Schipluiden,Midden-Delfland,Zuid-Holland,VBO,4.320912,51.947562
Vlaardingsekade,57,,,2636BD,Schipluiden,Midden-Delfland,Zuid-Holland,VBO,4.320640,51.947790
Vlaardingsekade,59,a,,2636BD,Schipluiden,Midden-Delfland,Zuid-Holland,VBO,4.321263,51.947169
Vlaardingsekade,59,,,2636BD,Schipluiden,Midden-Delfland,Zuid-Holland,VBO,4.321128,51.947389
Vlaardingsekade,60,,,2636BD,Schipluiden,Midden-Delfland,Zuid-Holland,VBO,4.322124,51.945069
Vlaardingsekade,61,,,2636BD,Schipluiden,Midden-Delfland,Zuid-Holland,VBO,4.322236,51.944779
Vlaardingsekade,62,a,,2636BD,Schipluiden,Midden-Delfland,Zuid-Holland,VBO,4.322505,51.944465
Vlaardingsekade,62,,,2636BD,Schipluiden,Midden-Delfland,Zuid-Holland,VBO,4.322270,51.944729
Vlaardingsekade,63,,,2636BD,Schipluiden,Midden-Delfland,Zuid-Holland,VBO,4.322814,51.944034
Vlaardingsekade,64,a,,2636BD,Schipluiden,Midden-Delfland,Zuid-Holland,VBO,4.323200,51.943260
Vlaardingsekade,64,,,2636BD,Schipluiden,Midden-Delfland,Zuid-Holland,VBO,4.323175,51.943319
Vlaardingsekade,65,,,2636BD,Schipluiden,Midden-Delfland,Zuid-Holland,VBO,4.323364,51.942914
Vlaardingsekade,66,,,2636BD,Schipluiden,Midden-Delfland,Zuid-Holland,VBO,4.323389,51.942591
Vlaardingsekade,67,,,2636BD,Schipluiden,Midden-Delfland,Zuid-Holland,VBO,4.324144,51.941875
Prunusstraat,1,,,2636BE,Schipluiden,Midden-Delfland,Zuid-Holland,VBO,4.314306,51.973043
Prunusstraat,3,,,2636BE,Schipluiden,Midden-Delfland,Zuid-Holland,VBO,4.314221,51.973025
Prunusstraat,5,,,2636BE,Schipluiden,Midden-Delfland,Zuid-Holland,VBO,4.314145,51.973007
Prunusstraat,7,,,2636BE,Schipluiden,Midden-Delfland,Zuid-Holland,VBO,4.314060,51.972987
Prunusstraat,9,,,2636BE,Schipluiden,Midden-Delfland,Zuid-Holland,VBO,4.313977,51.972971
Prunusstraat,11,a,,2636BE,Schipluiden,Midden-Delfland,Zuid-Holland,VBO,4.313941,51.972746
Prunusstraat,11,b,,2636BE,Schipluiden,Midden-Delfland,Zuid-Holland,VBO,4.313919,51.972713
Prunusstraat,11,c,,2636BE,Schipluiden,Midden-Delfland,Zuid-Holland,VBO,4.313878,51.972705
Prunusstraat,11,d,,2636BE,Schipluiden,Midden-Delfland,Zuid-Holland,VBO,4.313796,51.972717
Prunusstraat,11,,,2636BE,Schipluiden,Midden-Delfland,Zuid-Holland,VBO,4.313870,51.972949
Prunusstraat,13,,,2636BE,Schipluiden,Midden-Delfland,Zuid-Holland,VBO,4.313716,51.972832
Prunusstraat,15,,,2636BE,Schipluiden,Midden-Delfland,Zuid-Holland,VBO,4.313633,51.972815
Prunusstraat,17,,,2636BE,Schipluiden,Midden-Delfland,Zuid-Holland,VBO,4.313550,51.972797
Prunusstraat,19,,,2636BE,Schipluiden,Midden-Delfland,Zuid-Holland,VBO,4.313467,51.972779
Prunusstraat,21,,,2636BE,Schipluiden,Midden-Delfland,Zuid-Holland,VBO,4.313320,51.972695
Prunusstraat,23,,,2636BE,Schipluiden,Midden-Delfland,Zuid-Holland,VBO,4.313307,51.972860
Prunusstraat,25,,,2636BE,Schipluiden,Midden-Delfland,Zuid-Holland,VBO,4.313276,51.972911
Prunusstraat,27,,,2636BE,Schipluiden,Midden-Delfland,Zuid-Holland,VBO,4.313246,51.972963
Prunusstraat,29,,,2636BE,Schipluiden,Midden-Delfland,Zuid-Holland,VBO,4.313216,51.973015
Prunusstraat,2,,,2636BG,Schipluiden,Midden-Delfland,Zuid-Holland,VBO,4.313916,51.973206
Prunusstraat,4,,,2636BG,Schipluiden,Midden-Delfland,Zuid-Holland,VBO,4.313833,51.973188
Prunusstraat,6,,,2636BG,Schipluiden,Midden-Delfland,Zuid-Holland,VBO,4.313750,51.973171
Prunusstraat,8,,,2636BG,Schipluiden,Midden-Delfland,Zuid-Holland,VBO,4.313668,51.973153
Prunusstraat,10,,,2636BG,Schipluiden,Midden-Delfland,Zuid-Holland,VBO,4.313580,51.973134
Prunusstraat,12,,,2636BG,Schipluiden,Midden-Delfland,Zuid-Holland,VBO,4.313495,51.973115
Prunusstraat,14,,,2636BG,Schipluiden,Midden-Delfland,Zuid-Holland,VBO,4.313412,51.973098
Prunusstraat,16,,,2636BG,Schipluiden,Midden-Delfland,Zuid-Holland,VBO,4.313148,51.973072
Prunusstraat,18,,,2636BG,Schipluiden,Midden-Delfland,Zuid-Holland,VBO,4.313121,51.973118
Prunusstraat,20,,,2636BG,Schipluiden,Midden-Delfland,Zuid-Holland,VBO,4.313095,51.973162
Prunusstraat,22,,,2636BG,Schipluiden,Midden-Delfland,Zuid-Holland,VBO,4.313070,51.973207
Prunusstraat,24,,,2636BG,Schipluiden,Midden-Delfland,Zuid-Holland,VBO,4.313043,51.973253
Prunusstraat,26,,,2636BG,Schipluiden,Midden-Delfland,Zuid-Holland,VBO,4.313017,51.973298
Goudenregenstraat,1,,,2636BH,Schipluiden,Midden-Delfland,Zuid-Holland,VBO,4.313999,51.973577
Goudenregenstraat,2,,,2636BH,Schipluiden,Midden-Delfland,Zuid-Holland,VBO,4.313600,51.973758
Goudenregenstraat,3,,,2636BH,Schipluiden,Midden-Delfland,Zuid-Holland,VBO,4.313919,51.973560
Goudenregenstraat,4,,,2636BH,Schipluiden,Midden-Delfland,Zuid-Holland,VBO,4.313517,51.973740
Goudenregenstraat,5,,,2636BH,Schipluiden,Midden-Delfland,Zuid-Holland,VBO,4.313836,51.973542
Goudenregenstraat,6,,,2636BH,Schipluiden,Midden-Delfland,Zuid-Holland,VBO,4.313433,51.973722
Goudenregenstraat,7,,,2636BH,Schipluiden,Midden-Delfland,Zuid-Holland,VBO,4.313753,51.973524
Goudenregenstraat,8,,,2636BH,Schipluiden,Midden-Delfland,Zuid-Holland,VBO,4.313350,51.973703
Goudenregenstraat,9,,,2636BH,Schipluiden,Midden-Delfland,Zuid-Holland,VBO,4.313670,51.973506
Goudenregenstraat,10,,,2636BH,Schipluiden,Midden-Delfland,Zuid-Holland,VBO,4.313261,51.973684
Goudenregenstraat,11,a,,2636BH,Schipluiden,Midden-Delfland,Zuid-Holland,VBO,4.313581,51.973332
Goudenregenstraat,11,b,,2636BH,Schipluiden,Midden-Delfland,Zuid-Holland,VBO,4.313538,51.973323
Goudenregenstraat,11,c,,2636BH,Schipluiden,Midden-Delfland,Zuid-Holland,VBO,4.313497,51.973314
Goudenregenstraat,11,,,2636BH,Schipluiden,Midden-Delfland,Zuid-Holland,VBO,4.313591,51.973489
Goudenregenstraat,12,,,2636BH,Schipluiden,Midden-Delfland,Zuid-Holland,VBO,4.313176,51.973665
Goudenregenstraat,13,,,2636BH,Schipluiden,Midden-Delfland,Zuid-Holland,VBO,4.313401,51.973382
Goudenregenstraat,14,,,2636BH,Schipluiden,Midden-Delfland,Zuid-Holland,VBO,4.313092,51.973647
Goudenregenstraat,15,,,2636BH,Schipluiden,Midden-Delfland,Zuid-Holland,VBO,4.313319,51.973365
Goudenregenstraat,16,,,2636BH,Schipluiden,Midden-Delfland,Zuid-Holland,VBO,4.312838,51.973606
Goudenregenstraat,17,,,2636BH,Schipluiden,Midden-Delfland,Zuid-Holland,VBO,4.313237,51.973347
Goudenregenstraat,18,,,2636BH,Schipluiden,Midden-Delfland,Zuid-Holland,VBO,4.312811,51.973652
Goudenregenstraat,19,,,2636BH,Schipluiden,Midden-Delfland,Zuid-Holland,VBO,4.313155,51.973329
Goudenregenstraat,20,,,2636BH,Schipluiden,Midden-Delfland,Zuid-Holland,VBO,4.312786,51.973696
Goudenregenstraat,21,,,2636BH,Schipluiden,Midden-Delfland,Zuid-Holland,VBO,4.312993,51.973398
Goudenregenstraat,22,,,2636BH,Schipluiden,Midden-Delfland,Zuid-Holland,VBO,4.312760,51.973740
Goudenregenstraat,23,,,2636BH,Schipluiden,Midden-Delfland,Zuid-Holland,VBO,4.312964,51.973446
Goudenregenstraat,24,,,2636BH,Schipluiden,Midden-Delfland,Zuid-Holland,VBO,4.312734,51.973785
Goudenregenstraat,25,,,2636BH,Schipluiden,Midden-Delfland,Zuid-Holland,VBO,4.312935,51.973497
Goudenregenstraat,26,,,2636BH,Schipluiden,Midden-Delfland,Zuid-Holland,VBO,4.312708,51.973830
Goudenregenstraat,27,,,2636BH,Schipluiden,Midden-Delfland,Zuid-Holland,VBO,4.312905,51.973547
Meidoornstraat,1,,,2636BJ,Schipluiden,Midden-Delfland,Zuid-Holland,VBO,4.313679,51.974130
Meidoornstraat,2,,,2636BJ,Schipluiden,Midden-Delfland,Zuid-Holland,VBO,4.313293,51.974286
Meidoornstraat,3,,,2636BJ,Schipluiden,Midden-Delfland,Zuid-Holland,VBO,4.313601,51.974113
Meidoornstraat,4,,,2636BJ,Schipluiden,Midden-Delfland,Zuid-Holland,VBO,4.313210,51.974268
Meidoornstraat,5,,,2636BJ,Schipluiden,Midden-Delfland,Zuid-Holland,VBO,4.313519,51.974095
Meidoornstraat,6,,,2636BJ,Schipluiden,Midden-Delfland,Zuid-Holland,VBO,4.313128,51.974250
Meidoornstraat,7,,,2636BJ,Schipluiden,Midden-Delfland,Zuid-Holland,VBO,4.313437,51.974076
Meidoornstraat,8,,,2636BJ,Schipluiden,Midden-Delfland,Zuid-Holland,VBO,4.313046,51.974231
Meidoornstraat,9,,,2636BJ,Schipluiden,Midden-Delfland,Zuid-Holland,VBO,4.313355,51.974058
Meidoornstraat,10,,,2636BJ,Schipluiden,Midden-Delfland,Zuid-Holland,VBO,4.312958,51.974212
Meidoornstraat,11,a,,2636BJ,Schipluiden,Midden-Delfland,Zuid-Holland,VBO,4.313296,51.973884
Meidoornstraat,11,b,,2636BJ,Schipluiden,Midden-Delfland,Zuid-Holland,VBO,4.313255,51.973875
Meidoornstraat,11,c,,2636BJ,Schipluiden,Midden-Delfland,Zuid-Holland,VBO,4.313213,51.973866
Meidoornstraat,11,,,2636BJ,Schipluiden,Midden-Delfland,Zuid-Holland,VBO,4.313277,51.974041
Meidoornstraat,12,,,2636BJ,Schipluiden,Midden-Delfland,Zuid-Holland,VBO,4.312874,51.974194
Meidoornstraat,13,,,2636BJ,Schipluiden,Midden-Delfland,Zuid-Holland,VBO,4.313084,51.973931
Meidoornstraat,14,,,2636BJ,Schipluiden,Midden-Delfland,Zuid-Holland,VBO,4.312791,51.974175
Meidoornstraat,15,,,2636BJ,Schipluiden,Midden-Delfland,Zuid-Holland,VBO,4.313001,51.973912
Meidoornstraat,16,,,2636BJ,Schipluiden,Midden-Delfland,Zuid-Holland,VBO,4.312525,51.974147
Meidoornstraat,17,,,2636BJ,Schipluiden,Midden-Delfland,Zuid-Holland,VBO,4.312918,51.973894
Meidoornstraat,18,,,2636BJ,Schipluiden,Midden-Delfland,Zuid-Holland,VBO,4.312503,51.974186
Meidoornstraat,19,,,2636BJ,Schipluiden,Midden-Delfland,Zuid-Holland,VBO,4.312835,51.973875
Meidoornstraat,20,,,2636BJ,Schipluiden,Midden-Delfland,Zuid-Holland,VBO,4.312466,51.974250
Meidoornstraat,21,,,2636BJ,Schipluiden,Midden-Delfland,Zuid-Holland,VBO,4.312672,51.973946
Meidoornstraat,22,,,2636BJ,Schipluiden,Midden-Delfland,Zuid-Holland,VBO,4.312459,51.974262
Meidoornstraat,23,,,2636BJ,Schipluiden,Midden-Delfland,Zuid-Holland,VBO,4.312645,51.973992
Meidoornstraat,24,,,2636BJ,Schipluiden,Midden-Delfland,Zuid-Holland,VBO,4.312412,51.974342
Meidoornstraat,25,,,2636BJ,Schipluiden,Midden-Delfland,Zuid-Holland,VBO,4.312616,51.974041
Meidoornstraat,27,,,2636BJ,Schipluiden,Midden-Delfland,Zuid-Holland,VBO,4.312588,51.974089
Seringenstraat,1,,,2636BK,Schipluiden,Midden-Delfland,Zuid-Holland,VBO,4.313372,51.974664
Seringenstraat,2,,,2636BK,Schipluiden,Midden-Delfland,Zuid-Holland,VBO,4.312987,51.974805
Seringenstraat,3,,,2636BK,Schipluiden,Midden-Delfland,Zuid-Holland,VBO,4.313291,51.974646
Seringenstraat,4,,,2636BK,Schipluiden,Midden-Delfland,Zuid-Holland,VBO,4.312903,51.974786
Seringenstraat,5,,,2636BK,Schipluiden,Midden-Delfland,Zuid-Holland,VBO,4.313207,51.974628
Seringenstraat,6,,,2636BK,Schipluiden,Midden-Delfland,Zuid-Holland,VBO,4.312820,51.974768
Seringenstraat,7,,,2636BK,Schipluiden,Midden-Delfland,Zuid-Holland,VBO,4.313123,51.974610
Seringenstraat,8,,,2636BK,Schipluiden,Midden-Delfland,Zuid-Holland,VBO,4.312737,51.974750
Seringenstraat,9,,,2636BK,Schipluiden,Midden-Delfland,Zuid-Holland,VBO,4.313039,51.974591
Seringenstraat,10,,,2636BK,Schipluiden,Midden-Delfland,Zuid-Holland,VBO,4.312649,51.974731
Seringenstraat,11,a,,2636BK,Schipluiden,Midden-Delfland,Zuid-Holland,VBO,4.312943,51.974403
Seringenstraat,11,b,,2636BK,Schipluiden,Midden-Delfland,Zuid-Holland,VBO,4.312900,51.974393
Seringenstraat,11,c,,2636BK,Schipluiden,Midden-Delfland,Zuid-Holland,VBO,4.312858,51.974384
Seringenstraat,11,,,2636BK,Schipluiden,Midden-Delfland,Zuid-Holland,VBO,4.312959,51.974574
Seringenstraat,12,,,2636BK,Schipluiden,Midden-Delfland,Zuid-Holland,VBO,4.312564,51.974712
Seringenstraat,13,,,2636BK,Schipluiden,Midden-Delfland,Zuid-Holland,VBO,4.312779,51.974465
Seringenstraat,14,,,2636BK,Schipluiden,Midden-Delfland,Zuid-Holland,VBO,4.312481,51.974694
Seringenstraat,15,,,2636BK,Schipluiden,Midden-Delfland,Zuid-Holland,VBO,4.312694,51.974447
Seringenstraat,16,,,2636BK,Schipluiden,Midden-Delfland,Zuid-Holland,VBO,4.312255,51.974598
Seringenstraat,17,,,2636BK,Schipluiden,Midden-Delfland,Zuid-Holland,VBO,4.312610,51.974429
Seringenstraat,18,,,2636BK,Schipluiden,Midden-Delfland,Zuid-Holland,VBO,4.312229,51.974643
Seringenstraat,19,,,2636BK,Schipluiden,Midden-Delfland,Zuid-Holland,VBO,4.312525,51.974410
Seringenstraat,20,,,2636BK,Schipluiden,Midden-Delfland,Zuid-Holland,VBO,4.312204,51.974686
Seringenstraat,21,,,2636BK,Schipluiden,Midden-Delfland,Zuid-Holland,VBO,4.312350,51.974380
Seringenstraat,22,,,2636BK,Schipluiden,Midden-Delfland,Zuid-Holland,VBO,4.312179,51.974730
Seringenstraat,24,,,2636BK,Schipluiden,Midden-Delfland,Zuid-Holland,VBO,4.312153,51.974775
Seringenstraat,26,,,2636BK,Schipluiden,Midden-Delfland,Zuid-Holland,VBO,4.312127,51.974820
Seringenstraat,28,,,2636BK,Schipluiden,Midden-Delfland,Zuid-Holland,VBO,4.312102,51.974865
Seringenstraat,30,,,2636BK,Schipluiden,Midden-Delfland,Zuid-Holland,VBO,4.312075,51.974911
Lijsterbesstraat,1,,,2636BL,Schipluiden,Midden-Delfland,Zuid-Holland,VBO,4.313070,51.975178
Lijsterbesstraat,2,,,2636BL,Schipluiden,Midden-Delfland,Zuid-Holland,VBO,4.312667,51.975348
Lijsterbesstraat,3,,,2636BL,Schipluiden,Midden-Delfland,Zuid-Holland,VBO,4.312991,51.975161
Lijsterbesstraat,4,,,2636BL,Schipluiden,Midden-Delfland,Zuid-Holland,VBO,4.312584,51.975330
Lijsterbesstraat,5,,,2636BL,Schipluiden,Midden-Delfland,Zuid-Holland,VBO,4.312908,51.975143
Lijsterbesstraat,6,,,2636BL,Schipluiden,Midden-Delfland,Zuid-Holland,VBO,4.312502,51.975313
Lijsterbesstraat,7,,,2636BL,Schipluiden,Midden-Delfland,Zuid-Holland,VBO,4.312826,51.975125
Lijsterbesstraat,8,,,2636BL,Schipluiden,Midden-Delfland,Zuid-Holland,VBO,4.312420,51.975295
Lijsterbesstraat,9,,,2636BL,Schipluiden,Midden-Delfland,Zuid-Holland,VBO,4.312743,51.975107
Lijsterbesstraat,10,,,2636BL,Schipluiden,Midden-Delfland,Zuid-Holland,VBO,4.312332,51.975275
Lijsterbesstraat,11,a,,2636BL,Schipluiden,Midden-Delfland,Zuid-Holland,VBO,4.312679,51.974953
Lijsterbesstraat,11,c,,2636BL,Schipluiden,Midden-Delfland,Zuid-Holland,VBO,4.312591,51.974934
Lijsterbesstraat,11,,,2636BL,Schipluiden,Midden-Delfland,Zuid-Holland,VBO,4.312664,51.975090
Lijsterbesstraat,12,,,2636BL,Schipluiden,Midden-Delfland,Zuid-Holland,VBO,4.312248,51.975257
Lijsterbesstraat,13,,,2636BL,Schipluiden,Midden-Delfland,Zuid-Holland,VBO,4.312474,51.974983
Lijsterbesstraat,14,,,2636BL,Schipluiden,Midden-Delfland,Zuid-Holland,VBO,4.312165,51.975239
Lijsterbesstraat,15,,,2636BL,Schipluiden,Midden-Delfland,Zuid-Holland,VBO,4.312390,51.974965
Lijsterbesstraat,16,,,2636BL,Schipluiden,Midden-Delfland,Zuid-Holland,VBO,4.311792,51.975204
Lijsterbesstraat,17,,,2636BL,Schipluiden,Midden-Delfland,Zuid-Holland,VBO,4.312307,51.974947
Lijsterbesstraat,18,,,2636BL,Schipluiden,Midden-Delfland,Zuid-Holland,VBO,4.311749,51.975279
Lijsterbesstraat,19,,,2636BL,Schipluiden,Midden-Delfland,Zuid-Holland,VBO,4.312223,51.974929
Lijsterbesstraat,20,,,2636BL,Schipluiden,Midden-Delfland,Zuid-Holland,VBO,4.311863,51.975206
Lijsterbesstraat,21,,,2636BL,Schipluiden,Midden-Delfland,Zuid-Holland,VBO,4.312065,51.974997
Lijsterbesstraat,22,,,2636BL,Schipluiden,Midden-Delfland,Zuid-Holland,VBO,4.311834,51.975255
Lijsterbesstraat,23,,,2636BL,Schipluiden,Midden-Delfland,Zuid-Holland,VBO,4.312036,51.975046
Lijsterbesstraat,24,,,2636BL,Schipluiden,Midden-Delfland,Zuid-Holland,VBO,4.311804,51.975305
Lijsterbesstraat,25,,,2636BL,Schipluiden,Midden-Delfland,Zuid-Holland,VBO,4.312006,51.975097
Lijsterbesstraat,26,,,2636BL,Schipluiden,Midden-Delfland,Zuid-Holland,VBO,4.311725,51.975389
Lijsterbesstraat,27,,,2636BL,Schipluiden,Midden-Delfland,Zuid-Holland,VBO,4.311976,51.975148
Lijsterbesstraat,28,,,2636BL,Schipluiden,Midden-Delfland,Zuid-Holland,VBO,4.311806,51.975408
Lijsterbesstraat,30,,,2636BL,Schipluiden,Midden-Delfland,Zuid-Holland,VBO,4.311888,51.975428
Lijsterbesstraat,32,,,2636BL,Schipluiden,Midden-Delfland,Zuid-Holland,VBO,4.311757,51.975370
Lijsterbesstraat,34,,,2636BL,Schipluiden,Midden-Delfland,Zuid-Holland,VBO,4.311879,51.975398
Korpershoek,3,,,2636BM,Schipluiden,Midden-Delfland,Zuid-Holland,VBO,4.311412,51.974582
Korpershoek,4,,,2636BM,Schipluiden,Midden-Delfland,Zuid-Holland,VBO,4.311401,51.974602
Korpershoek,5,,,2636BM,Schipluiden,Midden-Delfland,Zuid-Holland,VBO,4.311389,51.974622
Korpershoek,6,,,2636BM,Schipluiden,Midden-Delfland,Zuid-Holland,VBO,4.311378,51.974641
Korpershoek,7,,,2636BM,Schipluiden,Midden-Delfland,Zuid-Holland,VBO,4.311367,51.974661
Korpershoek,8,,,2636BM,Schipluiden,Midden-Delfland,Zuid-Holland,VBO,4.311355,51.974680
Korpershoek,9,,,2636BM,Schipluiden,Midden-Delfland,Zuid-Holland,VBO,4.311344,51.974700
Korpershoek,10,,,2636BM,Schipluiden,Midden-Delfland,Zuid-Holland,VBO,4.311335,51.974716
Korpershoek,11,,,2636BM,Schipluiden,Midden-Delfland,Zuid-Holland,VBO,4.311360,51.974568
Korpershoek,12,,,2636BM,Schipluiden,Midden-Delfland,Zuid-Holland,VBO,4.311349,51.974588
Korpershoek,13,,,2636BM,Schipluiden,Midden-Delfland,Zuid-Holland,VBO,4.311337,51.974611
Korpershoek,14,,,2636BM,Schipluiden,Midden-Delfland,Zuid-Holland,VBO,4.311324,51.974634
Korpershoek,15,,,2636BM,Schipluiden,Midden-Delfland,Zuid-Holland,VBO,4.311312,51.974657
Korpershoek,16,,,2636BM,Schipluiden,Midden-Delfland,Zuid-Holland,VBO,4.311300,51.974680
Korpershoek,17,,,2636BM,Schipluiden,Midden-Delfland,Zuid-Holland,VBO,4.311288,51.974702
Korpershoek,18,,,2636BN,Schipluiden,Midden-Delfland,Zuid-Holland,VBO,4.311648,51.974893
Korpershoek,19,,,2636BN,Schipluiden,Midden-Delfland,Zuid-Holland,VBO,4.311554,51.974873
Korpershoek,20,,,2636BN,Schipluiden,Midden-Delfland,Zuid-Holland,VBO,4.311458,51.974852
Korpershoek,21,,,2636BN,Schipluiden,Midden-Delfland,Zuid-Holland,VBO,4.311366,51.974832
Korpershoek,22,,,2636BN,Schipluiden,Midden-Delfland,Zuid-Holland,VBO,4.311379,51.975027
Korpershoek,23,,,2636BN,Schipluiden,Midden-Delfland,Zuid-Holland,VBO,4.311370,51.975043
Korpershoek,24,,,2636BN,Schipluiden,Midden-Delfland,Zuid-Holland,VBO,4.311358,51.975063
Korpershoek,25,,,2636BN,Schipluiden,Midden-Delfland,Zuid-Holland,VBO,4.311346,51.975084
Korpershoek,26,,,2636BN,Schipluiden,Midden-Delfland,Zuid-Holland,VBO,4.311334,51.975104
Korpershoek,27,,,2636BN,Schipluiden,Midden-Delfland,Zuid-Holland,VBO,4.311322,51.975125
Korpershoek,28,,,2636BN,Schipluiden,Midden-Delfland,Zuid-Holland,VBO,4.311310,51.975145
Korpershoek,29,,,2636BN,Schipluiden,Midden-Delfland,Zuid-Holland,VBO,4.311298,51.975166
Korpershoek,30,,,2636BN,Schipluiden,Midden-Delfland,Zuid-Holland,VBO,4.311346,51.975019
Korpershoek,31,,,2636BN,Schipluiden,Midden-Delfland,Zuid-Holland,VBO,4.311331,51.975043
Korpershoek,32,,,2636BN,Schipluiden,Midden-Delfland,Zuid-Holland,VBO,4.311319,51.975064
Korpershoek,33,,,2636BN,Schipluiden,Midden-Delfland,Zuid-Holland,VBO,4.311305,51.975087
Korpershoek,34,,,2636BN,Schipluiden,Midden-Delfland,Zuid-Holland,VBO,4.311291,51.975110
Korpershoek,35,,,2636BN,Schipluiden,Midden-Delfland,Zuid-Holland,VBO,4.311277,51.975134
Korpershoek,36,,,2636BN,Schipluiden,Midden-Delfland,Zuid-Holland,VBO,4.311263,51.975157
Korpershoek,37,,,2636BN,Schipluiden,Midden-Delfland,Zuid-Holland,VBO,4.311427,51.975304
Korpershoek,38,,,2636BN,Schipluiden,Midden-Delfland,Zuid-Holland,VBO,4.311333,51.975283
Burg van Gentsingel,1,b,,2636BP,Schipluiden,Midden-Delfland,Zuid-Holland,VBO,4.314355,51.972495
Burg van Gentsingel,1,,,2636BP,Schipluiden,Midden-Delfland,Zuid-Holland,VBO,4.314187,51.973272
Burg van Gentsingel,3,,,2636BP,Schipluiden,Midden-Delfland,Zuid-Holland,VBO,4.314159,51.973321
Burg van Gentsingel,5,,,2636BP,Schipluiden,Midden-Delfland,Zuid-Holland,VBO,4.314130,51.973372
Burg van Gentsingel,7,,,2636BP,Schipluiden,Midden-Delfland,Zuid-Holland,VBO,4.314101,51.973423
Burg van Gentsingel,9,,,2636BR,Schipluiden,Midden-Delfland,Zuid-Holland,VBO,4.313870,51.973821
Burg van Gentsingel,11,,,2636BR,Schipluiden,Midden-Delfland,Zuid-Holland,VBO,4.313842,51.973870
Burg van Gentsingel,13,,,2636BR,Schipluiden,Midden-Delfland,Zuid-Holland,VBO,4.313814,51.973919
Burg van Gentsingel,15,,,2636BR,Schipluiden,Midden-Delfland,Zuid-Holland,VBO,4.313785,51.973970
Burg van Gentsingel,17,,,2636BS,Schipluiden,Midden-Delfland,Zuid-Holland,VBO,4.313566,51.974346
Burg van Gentsingel,19,,,2636BS,Schipluiden,Midden-Delfland,Zuid-Holland,VBO,4.313536,51.974398
Burg van Gentsingel,21,,,2636BS,Schipluiden,Midden-Delfland,Zuid-Holland,VBO,4.313507,51.974449
Burg van Gentsingel,23,,,2636BS,Schipluiden,Midden-Delfland,Zuid-Holland,VBO,4.313478,51.974498
Burg van Gentsingel,25,,,2636BT,Schipluiden,Midden-Delfland,Zuid-Holland,VBO,4.313272,51.974866
Burg van Gentsingel,27,,,2636BT,Schipluiden,Midden-Delfland,Zuid-Holland,VBO,4.313242,51.974917
Burg van Gentsingel,29,,,2636BT,Schipluiden,Midden-Delfland,Zuid-Holland,VBO,4.313213,51.974969
Burg van Gentsingel,31,,,2636BT,Schipluiden,Midden-Delfland,Zuid-Holland,VBO,4.313182,51.975023
Burg van Gentsingel,33,,,2636BV,Schipluiden,Midden-Delfland,Zuid-Holland,VBO,4.312949,51.975406
Burg van Gentsingel,35,,,2636BV,Schipluiden,Midden-Delfland,Zuid-Holland,VBO,4.312919,51.975457
Burg van Gentsingel,37,,,2636BV,Schipluiden,Midden-Delfland,Zuid-Holland,VBO,4.312889,51.975508
Burg van Gentsingel,39,,,2636BV,Schipluiden,Midden-Delfland,Zuid-Holland,VBO,4.312859,51.975560
Burg van Gentsingel,41,,,2636BV,Schipluiden,Midden-Delfland,Zuid-Holland,VBO,4.312828,51.975613
Burg van Gentsingel,2,,,2636BW,Schipluiden,Midden-Delfland,Zuid-Holland,VBO,4.315128,51.972901
Burg van Gentsingel,4,,,2636BW,Schipluiden,Midden-Delfland,Zuid-Holland,VBO,4.315098,51.972954
Burg van Gentsingel,6,,,2636BW,Schipluiden,Midden-Delfland,Zuid-Holland,VBO,4.315068,51.973006
Burg van Gentsingel,8,,,2636BW,Schipluiden,Midden-Delfland,Zuid-Holland,VBO,4.315038,51.973058
Burg van Gentsingel,10,,,2636BX,Schipluiden,Midden-Delfland,Zuid-Holland,VBO,4.315031,51.973260
Burg van Gentsingel,12,,,2636BX,Schipluiden,Midden-Delfland,Zuid-Holland,VBO,4.314998,51.973317
Burg van Gentsingel,14,,,2636BX,Schipluiden,Midden-Delfland,Zuid-Holland,VBO,4.314955,51.973378
Burg van Gentsingel,16,,,2636BX,Schipluiden,Midden-Delfland,Zuid-Holland,VBO,4.314696,51.973677
Burg van Gentsingel,18,,,2636BX,Schipluiden,Midden-Delfland,Zuid-Holland,VBO,4.314663,51.973733
Burg van Gentsingel,20,,,2636BX,Schipluiden,Midden-Delfland,Zuid-Holland,VBO,4.314593,51.973853
Burg van Gentsingel,22,,,2636BX,Schipluiden,Midden-Delfland,Zuid-Holland,VBO,4.314558,51.973912
Burg van Gentsingel,24,,,2636BX,Schipluiden,Midden-Delfland,Zuid-Holland,VBO,4.314162,51.974591
Burg van Gentsingel,26,,,2636BX,Schipluiden,Midden-Delfland,Zuid-Holland,VBO,4.313730,51.975736
Dr J. de Koninglaan,1,,,2636BZ,Schipluiden,Midden-Delfland,Zuid-Holland,VBO,4.316915,51.974476
Dr J. de Koninglaan,2,,,2636BZ,Schipluiden,Midden-Delfland,Zuid-Holland,VBO,4.316559,51.974681
Dr J. de Koninglaan,3,,,2636BZ,Schipluiden,Midden-Delfland,Zuid-Holland,VBO,4.316833,51.974459
Dr J. de Koninglaan,4,,,2636BZ,Schipluiden,Midden-Delfland,Zuid-Holland,VBO,4.316199,51.974679
Dr J. de Koninglaan,5,,,2636BZ,Schipluiden,Midden-Delfland,Zuid-Holland,VBO,4.316747,51.974440
Dr J. de Koninglaan,6,,,2636BZ,Schipluiden,Midden-Delfland,Zuid-Holland,VBO,4.316061,51.974645
Dr J. de Koninglaan,7,,,2636BZ,Schipluiden,Midden-Delfland,Zuid-Holland,VBO,4.316714,51.974327
Dr J. de Koninglaan,8,,,2636BZ,Schipluiden,Midden-Delfland,Zuid-Holland,VBO,4.316001,51.974614
Dr J. de Koninglaan,9,,,2636BZ,Schipluiden,Midden-Delfland,Zuid-Holland,VBO,4.316628,51.974308
Dr J. de Koninglaan,10,,,2636BZ,Schipluiden,Midden-Delfland,Zuid-Holland,VBO,4.315933,51.974578
Dr J. de Koninglaan,11,,,2636BZ,Schipluiden,Midden-Delfland,Zuid-Holland,VBO,4.316544,51.974290
Dr J. de Koninglaan,12,,,2636BZ,Schipluiden,Midden-Delfland,Zuid-Holland,VBO,4.315793,51.974117
Dr J. de Koninglaan,13,,,2636BZ,Schipluiden,Midden-Delfland,Zuid-Holland,VBO,4.316285,51.973997
Dr J. de Koninglaan,14,,,2636BZ,Schipluiden,Midden-Delfland,Zuid-Holland,VBO,4.315727,51.974071
Dr J. de Koninglaan,15,,,2636BZ,Schipluiden,Midden-Delfland,Zuid-Holland,VBO,4.316199,51.973978
Dr J. de Koninglaan,16,,,2636BZ,Schipluiden,Midden-Delfland,Zuid-Holland,VBO,4.315593,51.973977
Dr J. de Koninglaan,17,,,2636BZ,Schipluiden,Midden-Delfland,Zuid-Holland,VBO,4.316113,51.973960
Dr J. de Koninglaan,18,,,2636BZ,Schipluiden,Midden-Delfland,Zuid-Holland,VBO,4.315527,51.973930
Dr J. de Koninglaan,19,,,2636BZ,Schipluiden,Midden-Delfland,Zuid-Holland,VBO,4.316081,51.973849
Dr J. de Koninglaan,20,,,2636BZ,Schipluiden,Midden-Delfland,Zuid-Holland,VBO,4.315390,51.973833
Dr J. de Koninglaan,21,,,2636BZ,Schipluiden,Midden-Delfland,Zuid-Holland,VBO,4.315995,51.973831
Dr J. de Koninglaan,22,,,2636BZ,Schipluiden,Midden-Delfland,Zuid-Holland,VBO,4.315324,51.973787
Dr J. de Koninglaan,23,,,2636BZ,Schipluiden,Midden-Delfland,Zuid-Holland,VBO,4.315912,51.973813
Dr J. de Koninglaan,24,t,,2636BZ,Schipluiden,Midden-Delfland,Zuid-Holland,VBO,4.315173,51.973527
Dr J. de Koninglaan,24,,,2636BZ,Schipluiden,Midden-Delfland,Zuid-Holland,VBO,4.315113,51.973709
Dr J. de Koninglaan,26,,,2636BZ,Schipluiden,Midden-Delfland,Zuid-Holland,VBO,4.315021,51.973689
Dr F.H. Reijnderslaan,1,a,,2636CA,Schipluiden,Midden-Delfland,Zuid-Holland,VBO,4.315711,51.974444
Dr F.H. Reijnderslaan,1,,,2636CA,Schipluiden,Midden-Delfland,Zuid-Holland,VBO,4.315537,51.974346
Dr F.H. Reijnderslaan,2,,,2636CA,Schipluiden,Midden-Delfland,Zuid-Holland,VBO,4.314934,51.974377
Dr F.H. Reijnderslaan,3,,,2636CA,Schipluiden,Midden-Delfland,Zuid-Holland,VBO,4.315476,51.974309
Dr F.H. Reijnderslaan,4,,,2636CA,Schipluiden,Midden-Delfland,Zuid-Holland,VBO,4.314505,51.974159
Dr F.H. Reijnderslaan,5,,,2636CA,Schipluiden,Midden-Delfland,Zuid-Holland,VBO,4.315413,51.974272
Dr F.H. Reijnderslaan,6,,,2636CA,Schipluiden,Midden-Delfland,Zuid-Holland,VBO,4.314479,51.974205
Dr F.H. Reijnderslaan,7,,,2636CA,Schipluiden,Midden-Delfland,Zuid-Holland,VBO,4.315349,51.974234
Dr F.H. Reijnderslaan,8,,,2636CA,Schipluiden,Midden-Delfland,Zuid-Holland,VBO,4.314454,51.974252
Dr F.H. Reijnderslaan,9,,,2636CA,Schipluiden,Midden-Delfland,Zuid-Holland,VBO,4.315286,51.974196
Dr F.H. Reijnderslaan,10,,,2636CA,Schipluiden,Midden-Delfland,Zuid-Holland,VBO,4.314430,51.974295
Dr F.H. Reijnderslaan,11,a,,2636CA,Schipluiden,Midden-Delfland,Zuid-Holland,VBO,4.315247,51.974040
Dr F.H. Reijnderslaan,11,b,,2636CA,Schipluiden,Midden-Delfland,Zuid-Holland,VBO,4.315221,51.974022
Dr F.H. Reijnderslaan,11,c,,2636CA,Schipluiden,Midden-Delfland,Zuid-Holland,VBO,4.315193,51.974005
Dr F.H. Reijnderslaan,11,,,2636CA,Schipluiden,Midden-Delfland,Zuid-Holland,VBO,4.315225,51.974160
Dr F.H. Reijnderslaan,12,,,2636CA,Schipluiden,Midden-Delfland,Zuid-Holland,VBO,4.314405,51.974340
Dr F.H. Reijnderslaan,13,,,2636CA,Schipluiden,Midden-Delfland,Zuid-Holland,VBO,4.315081,51.974065
Dr F.H. Reijnderslaan,14,,,2636CA,Schipluiden,Midden-Delfland,Zuid-Holland,VBO,4.314962,51.974371
Dr F.H. Reijnderslaan,15,,,2636CA,Schipluiden,Midden-Delfland,Zuid-Holland,VBO,4.314997,51.974046
Dr F.H. Reijnderslaan,16,,,2636CA,Schipluiden,Midden-Delfland,Zuid-Holland,VBO,4.314910,51.974340
Dr F.H. Reijnderslaan,17,,,2636CA,Schipluiden,Midden-Delfland,Zuid-Holland,VBO,4.314913,51.974027
Dr F.H. Reijnderslaan,18,,,2636CA,Schipluiden,Midden-Delfland,Zuid-Holland,VBO,4.314857,51.974308
Dr F.H. Reijnderslaan,19,,,2636CA,Schipluiden,Midden-Delfland,Zuid-Holland,VBO,4.314829,51.974008
Dr F.H. Reijnderslaan,20,,,2636CA,Schipluiden,Midden-Delfland,Zuid-Holland,VBO,4.314691,51.974233
Dr F.H. Reijnderslaan,22,,,2636CA,Schipluiden,Midden-Delfland,Zuid-Holland,VBO,4.314606,51.974214
Dr F.H. Reijnderslaan,24,,,2636CA,Schipluiden,Midden-Delfland,Zuid-Holland,VBO,4.314456,51.974141
Dr F.H. Reijnderslaan,26,,,2636CA,Schipluiden,Midden-Delfland,Zuid-Holland,VBO,4.314431,51.974187
Dr F.H. Reijnderslaan,28,,,2636CA,Schipluiden,Midden-Delfland,Zuid-Holland,VBO,4.314405,51.974234
Dr F.H. Reijnderslaan,30,,,2636CA,Schipluiden,Midden-Delfland,Zuid-Holland,VBO,4.314379,51.974281
Dr F.H. Reijnderslaan,32,,,2636CA,Schipluiden,Midden-Delfland,Zuid-Holland,VBO,4.314354,51.974326
Dorpsstraat,1,,,2636CB,Schipluiden,Midden-Delfland,Zuid-Holland,VBO,4.317638,51.978690
Dorpsstraat,2,,,2636CB,Schipluiden,Midden-Delfland,Zuid-Holland,VBO,4.317304,51.978416
Dorpsstraat,3,a,,2636CB,Schipluiden,Midden-Delfland,Zuid-Holland,VBO,4.316644,51.978175
Dorpsstraat,3,,,2636CB,Schipluiden,Midden-Delfland,Zuid-Holland,VBO,4.316804,51.978171
Dorpsstraat,8,,,2636CC,Schipluiden,Midden-Delfland,Zuid-Holland,VBO,4.317006,51.977877
Dorpsstraat,9,a,,2636CC,Schipluiden,Midden-Delfland,Zuid-Holland,VBO,4.316918,51.977754
Dorpsstraat,9,b,,2636CC,Schipluiden,Midden-Delfland,Zuid-Holland,VBO,4.316932,51.977826
Dorpsstraat,9,,,2636CC,Schipluiden,Midden-Delfland,Zuid-Holland,VBO,4.316969,51.977820
Dorpsstraat,10,,,2636CC,Schipluiden,Midden-Delfland,Zuid-Holland,VBO,4.316855,51.977712
Dorpsstraat,11,,,2636CC,Schipluiden,Midden-Delfland,Zuid-Holland,VBO,4.316766,51.977664
Dorpsstraat,12,,,2636CC,Schipluiden,Midden-Delfland,Zuid-Holland,VBO,4.316650,51.977606
Dorpsstraat,14,,,2636CD,Schipluiden,Midden-Delfland,Zuid-Holland,VBO,4.316327,51.977444
Dorpsstraat,15,,,2636CD,Schipluiden,Midden-Delfland,Zuid-Holland,VBO,4.316213,51.977393
Dorpsstraat,16,,,2636CD,Schipluiden,Midden-Delfland,Zuid-Holland,VBO,4.316128,51.977367
Dorpsstraat,17,,,2636CD,Schipluiden,Midden-Delfland,Zuid-Holland,VBO,4.315976,51.977371
Dorpsstraat,19,,,2636CD,Schipluiden,Midden-Delfland,Zuid-Holland,VBO,4.315922,51.977273
Dorpsstraat,20,,,2636CD,Schipluiden,Midden-Delfland,Zuid-Holland,VBO,4.315832,51.977244
Dorpsstraat,23,,,2636CD,Schipluiden,Midden-Delfland,Zuid-Holland,VBO,4.315625,51.977176
Dorpsstraat,24,,,2636CE,Schipluiden,Midden-Delfland,Zuid-Holland,VBO,4.315507,51.977130
Dorpsstraat,25,,,2636CE,Schipluiden,Midden-Delfland,Zuid-Holland,VBO,4.315415,51.977074
Dorpsstraat,27,a,,2636CE,Schipluiden,Midden-Delfland,Zuid-Holland,VBO,4.315176,51.976968
Dorpsstraat,27,b,,2636CE,Schipluiden,Midden-Delfland,Zuid-Holland,VBO,4.315174,51.977084
Dorpsstraat,27,c,,2636CE,Schipluiden,Midden-Delfland,Zuid-Holland,VBO,4.315053,51.977185
Dorpsstraat,27,,,2636CE,Schipluiden,Midden-Delfland,Zuid-Holland,VBO,4.315261,51.977004
Dorpsstraat,28,,,2636CE,Schipluiden,Midden-Delfland,Zuid-Holland,VBO,4.315144,51.976895
Dorpsstraat,29,,,2636CE,Schipluiden,Midden-Delfland,Zuid-Holland,VBO,4.315091,51.976846
Dorpsstraat,30,,,2636CG,Schipluiden,Midden-Delfland,Zuid-Holland,VBO,4.314992,51.976757
Dorpsstraat,31,,,2636CG,Schipluiden,Midden-Delfland,Zuid-Holland,VBO,4.314907,51.976710
Dorpsstraat,32,,,2636CH,Schipluiden,Midden-Delfland,Zuid-Holland,VBO,4.314791,51.976649
Dorpsstraat,33,,,2636CH,Schipluiden,Midden-Delfland,Zuid-Holland,VBO,4.314673,51.976605
Dorpsstraat,34,,,2636CH,Schipluiden,Midden-Delfland,Zuid-Holland,VBO,4.314585,51.976564
Dorpsstraat,35,,,2636CH,Schipluiden,Midden-Delfland,Zuid-Holland,VBO,4.314524,51.976545
Dorpsstraat,36,,,2636CH,Schipluiden,Midden-Delfland,Zuid-Holland,VBO,4.314464,51.976526
Dorpsstraat,37,a,,2636CJ,Schipluiden,Midden-Delfland,Zuid-Holland,VBO,4.314088,51.976531
Dorpsstraat,37,,,2636CJ,Schipluiden,Midden-Delfland,Zuid-Holland,VBO,4.314300,51.976482
Dorpsstraat,38,,,2636CJ,Schipluiden,Midden-Delfland,Zuid-Holland,VBO,4.313994,51.976508
Dorpsstraat,39,,,2636CJ,Schipluiden,Midden-Delfland,Zuid-Holland,VBO,4.313915,51.976488
Dorpsstraat,40,,,2636CJ,Schipluiden,Midden-Delfland,Zuid-Holland,VBO,4.313763,51.976419
Dorpsstraat,41,,,2636CJ,Schipluiden,Midden-Delfland,Zuid-Holland,VBO,4.313590,51.976363
Dorpsstraat,50,a,,2636CJ,Schipluiden,Midden-Delfland,Zuid-Holland,VBO,4.312789,51.976282
Dorpsstraat,50,,,2636CJ,Schipluiden,Midden-Delfland,Zuid-Holland,VBO,4.312923,51.976168
Dorpsstraat,51,,,2636CJ,Schipluiden,Midden-Delfland,Zuid-Holland,VBO,4.312787,51.976142
Dorpsstraat,52,,,2636CJ,Schipluiden,Midden-Delfland,Zuid-Holland,VBO,4.312719,51.976129
Dorpsstraat,53,,,2636CJ,Schipluiden,Midden-Delfland,Zuid-Holland,VBO,4.312526,51.976119
Dorpsstraat,54,,,2636CJ,Schipluiden,Midden-Delfland,Zuid-Holland,VBO,4.312347,51.976087
Dorpsstraat,55,,,2636CJ,Schipluiden,Midden-Delfland,Zuid-Holland,VBO,4.312097,51.976066
Dorpsstraat,56,,,2636CJ,Schipluiden,Midden-Delfland,Zuid-Holland,VBO,4.311929,51.976085
Dorpsstraat,57,,,2636CJ,Schipluiden,Midden-Delfland,Zuid-Holland,LIG,4.311474,51.975722
Brugstraat,2,,,2636CK,Schipluiden,Midden-Delfland,Zuid-Holland,VBO,4.314383,51.976641
Brugstraat,3,,,2636CK,Schipluiden,Midden-Delfland,Zuid-Holland,VBO,4.314319,51.976535
Brugstraat,4,,,2636CK,Schipluiden,Midden-Delfland,Zuid-Holland,VBO,4.314354,51.976679
Brugstraat,5,a,,2636CK,Schipluiden,Midden-Delfland,Zuid-Holland,VBO,4.314155,51.976772
Brugstraat,5,,,2636CK,Schipluiden,Midden-Delfland,Zuid-Holland,VBO,4.314222,51.976627
Brugstraat,6,,,2636CK,Schipluiden,Midden-Delfland,Zuid-Holland,VBO,4.314324,51.976716
Brugstraat,7,,,2636CK,Schipluiden,Midden-Delfland,Zuid-Holland,VBO,4.314103,51.976814
Brugstraat,8,,,2636CK,Schipluiden,Midden-Delfland,Zuid-Holland,VBO,4.314295,51.976754
Brugstraat,9,,,2636CK,Schipluiden,Midden-Delfland,Zuid-Holland,VBO,4.313927,51.976892
Brugstraat,10,,,2636CK,Schipluiden,Midden-Delfland,Zuid-Holland,VBO,4.314114,51.977289
Brugstraat,11,,,2636CK,Schipluiden,Midden-Delfland,Zuid-Holland,VBO,4.313904,51.976934
Brugstraat,12,,,2636CK,Schipluiden,Midden-Delfland,Zuid-Holland,VBO,4.314090,51.977335
Brugstraat,13,,,2636CK,Schipluiden,Midden-Delfland,Zuid-Holland,VBO,4.313882,51.976975
Brugstraat,14,,,2636CK,Schipluiden,Midden-Delfland,Zuid-Holland,VBO,4.314066,51.977379
Brugstraat,15,,,2636CK,Schipluiden,Midden-Delfland,Zuid-Holland,VBO,4.313859,51.977019
Brugstraat,16,,,2636CK,Schipluiden,Midden-Delfland,Zuid-Holland,VBO,4.314042,51.977424
Brugstraat,17,,,2636CK,Schipluiden,Midden-Delfland,Zuid-Holland,VBO,4.313836,51.977063
Brugstraat,18,,,2636CK,Schipluiden,Midden-Delfland,Zuid-Holland,VBO,4.314018,51.977468
Brugstraat,19,,,2636CK,Schipluiden,Midden-Delfland,Zuid-Holland,VBO,4.313813,51.977106
Brugstraat,21,,,2636CK,Schipluiden,Midden-Delfland,Zuid-Holland,VBO,4.313731,51.977141
Brugstraat,23,,,2636CK,Schipluiden,Midden-Delfland,Zuid-Holland,VBO,4.313709,51.977182
Brugstraat,25,,,2636CK,Schipluiden,Midden-Delfland,Zuid-Holland,VBO,4.313686,51.977225
Brugstraat,27,,,2636CK,Schipluiden,Midden-Delfland,Zuid-Holland,VBO,4.313663,51.977269
Brugstraat,29,,,2636CK,Schipluiden,Midden-Delfland,Zuid-Holland,VBO,4.313639,51.977313
Brugstraat,31,,,2636CK,Schipluiden,Midden-Delfland,Zuid-Holland,VBO,4.313615,51.977358
Bakkersstraat,1,,,2636CL,Schipluiden,Midden-Delfland,Zuid-Holland,VBO,4.314809,51.976970
Bakkersstraat,2,,,2636CL,Schipluiden,Midden-Delfland,Zuid-Holland,VBO,4.314795,51.977125
Bakkersstraat,11,,,2636CL,Schipluiden,Midden-Delfland,Zuid-Holland,VBO,4.314653,51.977140
Bakkersstraat,13,,,2636CL,Schipluiden,Midden-Delfland,Zuid-Holland,VBO,4.314561,51.977115
Bakkersstraat,15,,,2636CL,Schipluiden,Midden-Delfland,Zuid-Holland,VBO,4.314453,51.977081
Jagersstraat,4,,,2636CM,Schipluiden,Midden-Delfland,Zuid-Holland,VBO,4.314613,51.976901
Jagersstraat,5,,,2636CM,Schipluiden,Midden-Delfland,Zuid-Holland,VBO,4.314533,51.976977
Jagersstraat,6,,,2636CM,Schipluiden,Midden-Delfland,Zuid-Holland,VBO,4.314753,51.976860
Schildersstraat,1,,,2636CN,Schipluiden,Midden-Delfland,Zuid-Holland,VBO,4.315382,51.977245
Schildersstraat,3,,,2636CN,Schipluiden,Midden-Delfland,Zuid-Holland,VBO,4.315336,51.977291
Schildersstraat,5,,,2636CN,Schipluiden,Midden-Delfland,Zuid-Holland,VBO,4.315291,51.977336
Boomgaardslaan,1,,,2636CP,Schipluiden,Midden-Delfland,Zuid-Holland,VBO,4.315912,51.977746
Boomgaardslaan,2,,,2636CP,Schipluiden,Midden-Delfland,Zuid-Holland,VBO,4.316381,51.977657
Boomgaardslaan,3,,,2636CP,Schipluiden,Midden-Delfland,Zuid-Holland,VBO,4.315807,51.977855
Boomgaardslaan,4,,,2636CP,Schipluiden,Midden-Delfland,Zuid-Holland,VBO,4.316186,51.977714
Boomgaardslaan,6,,,2636CP,Schipluiden,Midden-Delfland,Zuid-Holland,VBO,4.316056,51.977767
Boomgaardslaan,8,t,,2636CP,Schipluiden,Midden-Delfland,Zuid-Holland,VBO,4.316107,51.977915
Boomgaardslaan,8,,,2636CP,Schipluiden,Midden-Delfland,Zuid-Holland,VBO,4.316024,51.977805
Boomgaardslaan,12,,,2636CP,Schipluiden,Midden-Delfland,Zuid-Holland,VBO,4.315928,51.978071
Boomgaardslaan,14,,,2636CP,Schipluiden,Midden-Delfland,Zuid-Holland,VBO,4.316194,51.978126
Hofje,1,,,2636CR,Schipluiden,Midden-Delfland,Zuid-Holland,VBO,4.316657,51.978125
Hofje,2,,,2636CR,Schipluiden,Midden-Delfland,Zuid-Holland,VBO,4.316588,51.978117
Hofje,3,,,2636CR,Schipluiden,Midden-Delfland,Zuid-Holland,VBO,4.316516,51.978108
Hofje,4,,,2636CR,Schipluiden,Midden-Delfland,Zuid-Holland,VBO,4.316444,51.978116
Hofje,5,,,2636CR,Schipluiden,Midden-Delfland,Zuid-Holland,VBO,4.316374,51.978107
Singel,2,,,2636CS,Schipluiden,Midden-Delfland,Zuid-Holland,VBO,4.316482,51.977112
Singel,4,,,2636CS,Schipluiden,Midden-Delfland,Zuid-Holland,VBO,4.316604,51.977164
Singel,5,,,2636CS,Schipluiden,Midden-Delfland,Zuid-Holland,VBO,4.316696,51.977247
Singel,6,,,2636CS,Schipluiden,Midden-Delfland,Zuid-Holland,VBO,4.316832,51.977281
Singel,7,,,2636CS,Schipluiden,Midden-Delfland,Zuid-Holland,VBO,4.317029,51.977266
Singel,8,,,2636CS,Schipluiden,Midden-Delfland,Zuid-Holland,VBO,4.316975,51.977299
Singel,9,,,2636CS,Schipluiden,Midden-Delfland,Zuid-Holland,VBO,4.316910,51.977366
Singel,10,,,2636CS,Schipluiden,Midden-Delfland,Zuid-Holland,VBO,4.316977,51.977417
Singel,11,,,2636CS,Schipluiden,Midden-Delfland,Zuid-Holland,VBO,4.317027,51.977447
Singel,12,,,2636CS,Schipluiden,Midden-Delfland,Zuid-Holland,VBO,4.317104,51.977506
Singel,13,,,2636CS,Schipluiden,Midden-Delfland,Zuid-Holland,VBO,4.317214,51.977553
Singel,14,,,2636CS,Schipluiden,Midden-Delfland,Zuid-Holland,VBO,4.317275,51.977591
Singel,15,,,2636CS,Schipluiden,Midden-Delfland,Zuid-Holland,VBO,4.317381,51.977457
Singel,16,,,2636CS,Schipluiden,Midden-Delfland,Zuid-Holland,VBO,4.317552,51.977494
Singel,18,,,2636CS,Schipluiden,Midden-Delfland,Zuid-Holland,VBO,4.317552,51.977642
Singel,19,,,2636CS,Schipluiden,Midden-Delfland,Zuid-Holland,VBO,4.317469,51.977738
Singel,22,,,2636CS,Schipluiden,Midden-Delfland,Zuid-Holland,VBO,4.317932,51.977618
Singel,24,,,2636CS,Schipluiden,Midden-Delfland,Zuid-Holland,VBO,4.317612,51.977932
Singel,25,,,2636CS,Schipluiden,Midden-Delfland,Zuid-Holland,VBO,4.317769,51.978074
Singel,26,,,2636CS,Schipluiden,Midden-Delfland,Zuid-Holland,VBO,4.317922,51.978259
Tramkade,23,,,2636CT,Schipluiden,Midden-Delfland,Zuid-Holland,VBO,4.322241,51.986686
Tramkade,24,a,,2636CT,Schipluiden,Midden-Delfland,Zuid-Holland,VBO,4.322594,51.986699
Tramkade,24,,,2636CT,Schipluiden,Midden-Delfland,Zuid-Holland,VBO,4.322359,51.986583
Tramkade,25,,,2636CT,Schipluiden,Midden-Delfland,Zuid-Holland,VBO,4.320981,51.984963
Tramkade,26,,,2636CT,Schipluiden,Midden-Delfland,Zuid-Holland,VBO,4.320571,51.984519
Tramkade,27,,,2636CT,Schipluiden,Midden-Delfland,Zuid-Holland,VBO,4.319626,51.983412
Tramkade,28,a,,2636CT,Schipluiden,Midden-Delfland,Zuid-Holland,VBO,4.321059,51.983172
Tramkade,28,,,2636CT,Schipluiden,Midden-Delfland,Zuid-Holland,VBO,4.321096,51.983109
Tramkade,30,a,,2636CT,Schipluiden,Midden-Delfland,Zuid-Holland,VBO,4.319131,51.982435
Tramkade,30,,,2636CT,Schipluiden,Midden-Delfland,Zuid-Holland,VBO,4.318993,51.982438
Tramkade,32,t,,2636CT,Schipluiden,Midden-Delfland,Zuid-Holland,VBO,4.317384,51.980414
Tramkade,32,,,2636CT,Schipluiden,Midden-Delfland,Zuid-Holland,VBO,4.317658,51.980338
Kaag,1,,,2636CV,Schipluiden,Midden-Delfland,Zuid-Holland,VBO,4.313098,51.976702
Kaag,3,,,2636CV,Schipluiden,Midden-Delfland,Zuid-Holland,VBO,4.313076,51.976743
Kaag,5,,,2636CV,Schipluiden,Midden-Delfland,Zuid-Holland,VBO,4.313053,51.976787
Kaag,7,,,2636CV,Schipluiden,Midden-Delfland,Zuid-Holland,VBO,4.313030,51.976830
Kaag,9,,,2636CV,Schipluiden,Midden-Delfland,Zuid-Holland,VBO,4.313006,51.976874
Kaag,11,,,2636CV,Schipluiden,Midden-Delfland,Zuid-Holland,VBO,4.312984,51.976915
Kaag,13,,,2636CV,Schipluiden,Midden-Delfland,Zuid-Holland,VBO,4.312962,51.976956
Westlander,1,a,,2636CW,Schipluiden,Midden-Delfland,Zuid-Holland,VBO,4.311943,51.976426
Westlander,1,,,2636CW,Schipluiden,Midden-Delfland,Zuid-Holland,VBO,4.312602,51.976499
Westlander,3,,,2636CW,Schipluiden,Midden-Delfland,Zuid-Holland,VBO,4.312579,51.976541
Westlander,5,,,2636CW,Schipluiden,Midden-Delfland,Zuid-Holland,VBO,4.312555,51.976585
Westlander,7,,,2636CW,Schipluiden,Midden-Delfland,Zuid-Holland,VBO,4.312529,51.976630
Westlander,9,,,2636CW,Schipluiden,Midden-Delfland,Zuid-Holland,VBO,4.312506,51.976673
Westlander,11,,,2636CW,Schipluiden,Midden-Delfland,Zuid-Holland,VBO,4.312418,51.976703
Westlander,13,,,2636CW,Schipluiden,Midden-Delfland,Zuid-Holland,VBO,4.312396,51.976745
Westlander,15,,,2636CW,Schipluiden,Midden-Delfland,Zuid-Holland,VBO,4.312372,51.976789
Westlander,17,,,2636CW,Schipluiden,Midden-Delfland,Zuid-Holland,VBO,4.312348,51.976832
Westlander,19,,,2636CW,Schipluiden,Midden-Delfland,Zuid-Holland,VBO,4.312325,51.976876
Westlander,21,,,2636CW,Schipluiden,Midden-Delfland,Zuid-Holland,VBO,4.312246,51.976948
Westlander,23,,,2636CW,Schipluiden,Midden-Delfland,Zuid-Holland,VBO,4.312223,51.976990
Westlander,25,,,2636CW,Schipluiden,Midden-Delfland,Zuid-Holland,VBO,4.312200,51.977035
Westlander,27,,,2636CW,Schipluiden,Midden-Delfland,Zuid-Holland,VBO,4.312176,51.977079
Westlander,29,,,2636CW,Schipluiden,Midden-Delfland,Zuid-Holland,VBO,4.312153,51.977123
Westlander,31,,,2636CW,Schipluiden,Midden-Delfland,Zuid-Holland,VBO,4.312128,51.977170
Westlander,33,,,2636CW,Schipluiden,Midden-Delfland,Zuid-Holland,VBO,4.312571,51.977372
Westlander,35,,,2636CW,Schipluiden,Midden-Delfland,Zuid-Holland,VBO,4.312642,51.977387
Westlander,37,,,2636CW,Schipluiden,Midden-Delfland,Zuid-Holland,VBO,4.312713,51.977401
Westlander,39,,,2636CW,Schipluiden,Midden-Delfland,Zuid-Holland,VBO,4.312784,51.977416
Westlander,41,,,2636CW,Schipluiden,Midden-Delfland,Zuid-Holland,VBO,4.312859,51.977431
Westlander,43,,,2636CW,Schipluiden,Midden-Delfland,Zuid-Holland,VBO,4.312926,51.977444
Westlander,45,,,2636CW,Schipluiden,Midden-Delfland,Zuid-Holland,VBO,4.312997,51.977459
Westlander,47,,,2636CW,Schipluiden,Midden-Delfland,Zuid-Holland,VBO,4.313068,51.977473
Westlander,49,,,2636CW,Schipluiden,Midden-Delfland,Zuid-Holland,VBO,4.313139,51.977488
Westlander,51,,,2636CW,Schipluiden,Midden-Delfland,Zuid-Holland,VBO,4.313214,51.977503
Westlander,53,,,2636CX,Schipluiden,Midden-Delfland,Zuid-Holland,VBO,4.314200,51.977704
Westlander,55,,,2636CX,Schipluiden,Midden-Delfland,Zuid-Holland,VBO,4.314269,51.977723
Westlander,57,,,2636CX,Schipluiden,Midden-Delfland,Zuid-Holland,VBO,4.314338,51.977741
Westlander,59,,,2636CX,Schipluiden,Midden-Delfland,Zuid-Holland,VBO,4.314406,51.977760
Westlander,61,,,2636CX,Schipluiden,Midden-Delfland,Zuid-Holland,VBO,4.314478,51.977779
Westlander,63,,,2636CX,Schipluiden,Midden-Delfland,Zuid-Holland,VBO,4.314543,51.977796
Westlander,65,,,2636CX,Schipluiden,Midden-Delfland,Zuid-Holland,VBO,4.314612,51.977815
Westlander,67,,,2636CX,Schipluiden,Midden-Delfland,Zuid-Holland,VBO,4.314681,51.977833
Westlander,69,,,2636CX,Schipluiden,Midden-Delfland,Zuid-Holland,VBO,4.314749,51.977852
Westlander,71,,,2636CX,Schipluiden,Midden-Delfland,Zuid-Holland,VBO,4.315125,51.977990
Westlander,73,,,2636CX,Schipluiden,Midden-Delfland,Zuid-Holland,VBO,4.315187,51.978013
Westlander,75,,,2636CX,Schipluiden,Midden-Delfland,Zuid-Holland,VBO,4.315252,51.978038
Westlander,77,,,2636CX,Schipluiden,Midden-Delfland,Zuid-Holland,VBO,4.315317,51.978062
Westlander,79,,,2636CX,Schipluiden,Midden-Delfland,Zuid-Holland,VBO,4.315370,51.978102
Westlander,81,,,2636CX,Schipluiden,Midden-Delfland,Zuid-Holland,VBO,4.315435,51.978126
Westlander,83,,,2636CX,Schipluiden,Midden-Delfland,Zuid-Holland,VBO,4.315495,51.978146
Westlander,85,,,2636CX,Schipluiden,Midden-Delfland,Zuid-Holland,VBO,4.315373,51.978317
Westlander,87,,,2636CX,Schipluiden,Midden-Delfland,Zuid-Holland,VBO,4.315364,51.978350
Westlander,89,,,2636CX,Schipluiden,Midden-Delfland,Zuid-Holland,VBO,4.315356,51.978383
Westlander,91,,,2636CX,Schipluiden,Midden-Delfland,Zuid-Holland,VBO,4.315347,51.978418
Westlander,93,,,2636CX,Schipluiden,Midden-Delfland,Zuid-Holland,VBO,4.315339,51.978448
Westlander,95,,,2636CX,Schipluiden,Midden-Delfland,Zuid-Holland,VBO,4.315330,51.978481
Westlander,97,,,2636CX,Schipluiden,Midden-Delfland,Zuid-Holland,VBO,4.315322,51.978514
Westlander,99,,,2636CX,Schipluiden,Midden-Delfland,Zuid-Holland,VBO,4.315313,51.978547
Westlander,101,,,2636CX,Schipluiden,Midden-Delfland,Zuid-Holland,VBO,4.315305,51.978578
Westlander,103,,,2636CX,Schipluiden,Midden-Delfland,Zuid-Holland,VBO,4.315297,51.978609
Westlander,105,,,2636CX,Schipluiden,Midden-Delfland,Zuid-Holland,VBO,4.315289,51.978641
Westlander,107,,,2636CX,Schipluiden,Midden-Delfland,Zuid-Holland,VBO,4.315280,51.978674
Westlander,109,,,2636CX,Schipluiden,Midden-Delfland,Zuid-Holland,VBO,4.315271,51.978707
Westlander,111,,,2636CX,Schipluiden,Midden-Delfland,Zuid-Holland,VBO,4.315262,51.978743
Westlander,113,,,2636CX,Schipluiden,Midden-Delfland,Zuid-Holland,VBO,4.315254,51.978774
Westlander,115,,,2636CX,Schipluiden,Midden-Delfland,Zuid-Holland,VBO,4.315246,51.978807
Westlander,117,,,2636CX,Schipluiden,Midden-Delfland,Zuid-Holland,VBO,4.315237,51.978839
Westlander,2,,,2636CZ,Schipluiden,Midden-Delfland,Zuid-Holland,VBO,4.312650,51.977135
Westlander,4,,,2636CZ,Schipluiden,Midden-Delfland,Zuid-Holland,VBO,4.312721,51.977150
Westlander,6,,,2636CZ,Schipluiden,Midden-Delfland,Zuid-Holland,VBO,4.312792,51.977165
Westlander,8,,,2636CZ,Schipluiden,Midden-Delfland,Zuid-Holland,VBO,4.312864,51.977179
Westlander,10,,,2636CZ,Schipluiden,Midden-Delfland,Zuid-Holland,VBO,4.312941,51.977195
Westlander,12,,,2636CZ,Schipluiden,Midden-Delfland,Zuid-Holland,VBO,4.313014,51.977210
Westlander,14,,,2636CZ,Schipluiden,Midden-Delfland,Zuid-Holland,VBO,4.313100,51.977204
Westlander,16,,,2636CZ,Schipluiden,Midden-Delfland,Zuid-Holland,VBO,4.313171,51.977218
Westlander,18,,,2636CZ,Schipluiden,Midden-Delfland,Zuid-Holland,VBO,4.313243,51.977233
Westlander,20,,,2636CZ,Schipluiden,Midden-Delfland,Zuid-Holland,VBO,4.313316,51.977248
Westlander,22,,,2636CZ,Schipluiden,Midden-Delfland,Zuid-Holland,VBO,4.314372,51.977496
Westlander,24,,,2636CZ,Schipluiden,Midden-Delfland,Zuid-Holland,VBO,4.314445,51.977510
Westlander,26,,,2636CZ,Schipluiden,Midden-Delfland,Zuid-Holland,VBO,4.314517,51.977525
Westlander,28,,,2636CZ,Schipluiden,Midden-Delfland,Zuid-Holland,VBO,4.314590,51.977540
Westlander,30,,,2636CZ,Schipluiden,Midden-Delfland,Zuid-Holland,VBO,4.314660,51.977555
Westlander,32,,,2636CZ,Schipluiden,Midden-Delfland,Zuid-Holland,VBO,4.314735,51.977570
Westlander,34,,,2636CZ,Schipluiden,Midden-Delfland,Zuid-Holland,VBO,4.314823,51.977565
Westlander,36,,,2636CZ,Schipluiden,Midden-Delfland,Zuid-Holland,VBO,4.314895,51.977580
Westlander,38,,,2636CZ,Schipluiden,Midden-Delfland,Zuid-Holland,VBO,4.314967,51.977595
Westlander,40,,,2636CZ,Schipluiden,Midden-Delfland,Zuid-Holland,VBO,4.315037,51.977609
Westlander,48,,,2636CZ,Schipluiden,Midden-Delfland,Zuid-Holland,VBO,4.315888,51.978355
Westlander,50,,,2636CZ,Schipluiden,Midden-Delfland,Zuid-Holland,VBO,4.315876,51.978395
Westlander,52,,,2636CZ,Schipluiden,Midden-Delfland,Zuid-Holland,VBO,4.315863,51.978438
Westlander,54,,,2636CZ,Schipluiden,Midden-Delfland,Zuid-Holland,VBO,4.315851,51.978480
Westlander,56,,,2636CZ,Schipluiden,Midden-Delfland,Zuid-Holland,VBO,4.315838,51.978522
Westlander,58,,,2636CZ,Schipluiden,Midden-Delfland,Zuid-Holland,VBO,4.315826,51.978563
Westlander,60,,,2636CZ,Schipluiden,Midden-Delfland,Zuid-Holland,VBO,4.315814,51.978604
Westlander,62,,,2636CZ,Schipluiden,Midden-Delfland,Zuid-Holland,VBO,4.315801,51.978646
Tjalk,1,,,2636DA,Schipluiden,Midden-Delfland,Zuid-Holland,VBO,4.312244,51.977399
Tjalk,3,,,2636DA,Schipluiden,Midden-Delfland,Zuid-Holland,VBO,4.312221,51.977441
Tjalk,5,,,2636DA,Schipluiden,Midden-Delfland,Zuid-Holland,VBO,4.312197,51.977485
Tjalk,7,,,2636DA,Schipluiden,Midden-Delfland,Zuid-Holland,VBO,4.312173,51.977529
Tjalk,9,,,2636DA,Schipluiden,Midden-Delfland,Zuid-Holland,VBO,4.312149,51.977573
Tjalk,11,,,2636DA,Schipluiden,Midden-Delfland,Zuid-Holland,VBO,4.312065,51.977602
Tjalk,13,,,2636DA,Schipluiden,Midden-Delfland,Zuid-Holland,VBO,4.312042,51.977642
Tjalk,15,,,2636DA,Schipluiden,Midden-Delfland,Zuid-Holland,VBO,4.312019,51.977686
Tjalk,17,,,2636DA,Schipluiden,Midden-Delfland,Zuid-Holland,VBO,4.311995,51.977729
Tjalk,19,,,2636DA,Schipluiden,Midden-Delfland,Zuid-Holland,VBO,4.311972,51.977772
Tjalk,21,,,2636DA,Schipluiden,Midden-Delfland,Zuid-Holland,VBO,4.311948,51.977815
Tjalk,23,,,2636DA,Schipluiden,Midden-Delfland,Zuid-Holland,VBO,4.311977,51.977871
Tjalk,25,,,2636DA,Schipluiden,Midden-Delfland,Zuid-Holland,VBO,4.311954,51.977915
Tjalk,27,,,2636DA,Schipluiden,Midden-Delfland,Zuid-Holland,VBO,4.311932,51.977959
Tjalk,29,,,2636DA,Schipluiden,Midden-Delfland,Zuid-Holland,VBO,4.311910,51.978003
Tjalk,31,,,2636DA,Schipluiden,Midden-Delfland,Zuid-Holland,VBO,4.312002,51.978151
Tjalk,33,,,2636DA,Schipluiden,Midden-Delfland,Zuid-Holland,VBO,4.312096,51.978170
Tjalk,35,,,2636DA,Schipluiden,Midden-Delfland,Zuid-Holland,VBO,4.312180,51.978216
Tjalk,37,,,2636DA,Schipluiden,Midden-Delfland,Zuid-Holland,VBO,4.312275,51.978236
Tjalk,39,,,2636DA,Schipluiden,Midden-Delfland,Zuid-Holland,VBO,4.312360,51.978282
Tjalk,41,,,2636DA,Schipluiden,Midden-Delfland,Zuid-Holland,VBO,4.312459,51.978303
Tjalk,43,,,2636DA,Schipluiden,Midden-Delfland,Zuid-Holland,VBO,4.312536,51.978348
Tjalk,45,,,2636DA,Schipluiden,Midden-Delfland,Zuid-Holland,VBO,4.312631,51.978368
Tjalk,47,,,2636DA,Schipluiden,Midden-Delfland,Zuid-Holland,VBO,4.312801,51.978341
Tjalk,49,,,2636DA,Schipluiden,Midden-Delfland,Zuid-Holland,VBO,4.312852,51.978352
Tjalk,51,,,2636DB,Schipluiden,Midden-Delfland,Zuid-Holland,VBO,4.313074,51.978358
Tjalk,53,,,2636DB,Schipluiden,Midden-Delfland,Zuid-Holland,VBO,4.313167,51.978376
Tjalk,55,,,2636DB,Schipluiden,Midden-Delfland,Zuid-Holland,VBO,4.313279,51.978371
Tjalk,57,,,2636DB,Schipluiden,Midden-Delfland,Zuid-Holland,VBO,4.313375,51.978390
Tjalk,59,,,2636DB,Schipluiden,Midden-Delfland,Zuid-Holland,VBO,4.313460,51.978436
Tjalk,61,,,2636DB,Schipluiden,Midden-Delfland,Zuid-Holland,VBO,4.313562,51.978457
Tjalk,63,,,2636DB,Schipluiden,Midden-Delfland,Zuid-Holland,VBO,4.313715,51.978515
Tjalk,65,,,2636DB,Schipluiden,Midden-Delfland,Zuid-Holland,VBO,4.313813,51.978535
Tjalk,67,,,2636DB,Schipluiden,Midden-Delfland,Zuid-Holland,VBO,4.313899,51.978581
Tjalk,69,,,2636DB,Schipluiden,Midden-Delfland,Zuid-Holland,VBO,4.313995,51.978600
Tjalk,71,,,2636DB,Schipluiden,Midden-Delfland,Zuid-Holland,VBO,4.314081,51.978647
Tjalk,73,,,2636DB,Schipluiden,Midden-Delfland,Zuid-Holland,VBO,4.314176,51.978667
Tjalk,75,,,2636DB,Schipluiden,Midden-Delfland,Zuid-Holland,VBO,4.314260,51.978712
Tjalk,77,,,2636DB,Schipluiden,Midden-Delfland,Zuid-Holland,VBO,4.314356,51.978732
Tjalk,79,,,2636DB,Schipluiden,Midden-Delfland,Zuid-Holland,VBO,4.314621,51.978771
Tjalk,81,,,2636DB,Schipluiden,Midden-Delfland,Zuid-Holland,VBO,4.314663,51.978729
Tjalk,83,,,2636DB,Schipluiden,Midden-Delfland,Zuid-Holland,VBO,4.314701,51.978691
Tjalk,85,,,2636DB,Schipluiden,Midden-Delfland,Zuid-Holland,VBO,4.314741,51.978652
Tjalk,87,,,2636DB,Schipluiden,Midden-Delfland,Zuid-Holland,VBO,4.314737,51.978487
Tjalk,89,,,2636DB,Schipluiden,Midden-Delfland,Zuid-Holland,VBO,4.314803,51.978512
Tjalk,91,,,2636DB,Schipluiden,Midden-Delfland,Zuid-Holland,VBO,4.314866,51.978535
Tjalk,93,,,2636DB,Schipluiden,Midden-Delfland,Zuid-Holland,VBO,4.314935,51.978562
Tjalk,95,,,2636DB,Schipluiden,Midden-Delfland,Zuid-Holland,VBO,4.314832,51.978296
Tjalk,97,,,2636DB,Schipluiden,Midden-Delfland,Zuid-Holland,VBO,4.314870,51.978257
Tjalk,99,,,2636DB,Schipluiden,Midden-Delfland,Zuid-Holland,VBO,4.314909,51.978219
Tjalk,101,,,2636DB,Schipluiden,Midden-Delfland,Zuid-Holland,VBO,4.314946,51.978181
Tjalk,2,,,2636DC,Schipluiden,Midden-Delfland,Zuid-Holland,VBO,4.312556,51.977583
Tjalk,4,,,2636DC,Schipluiden,Midden-Delfland,Zuid-Holland,VBO,4.312533,51.977627
Tjalk,6,,,2636DC,Schipluiden,Midden-Delfland,Zuid-Holland,VBO,4.312509,51.977671
Tjalk,8,,,2636DC,Schipluiden,Midden-Delfland,Zuid-Holland,VBO,4.312486,51.977714
Tjalk,10,,,2636DC,Schipluiden,Midden-Delfland,Zuid-Holland,VBO,4.312460,51.977762
Tjalk,12,,,2636DC,Schipluiden,Midden-Delfland,Zuid-Holland,VBO,4.312405,51.977802
Tjalk,14,,,2636DC,Schipluiden,Midden-Delfland,Zuid-Holland,VBO,4.312381,51.977845
Tjalk,16,,,2636DC,Schipluiden,Midden-Delfland,Zuid-Holland,VBO,4.312358,51.977888
Tjalk,18,,,2636DC,Schipluiden,Midden-Delfland,Zuid-Holland,VBO,4.312335,51.977932
Tjalk,20,,,2636DC,Schipluiden,Midden-Delfland,Zuid-Holland,VBO,4.313078,51.978080
Tjalk,22,,,2636DC,Schipluiden,Midden-Delfland,Zuid-Holland,VBO,4.313151,51.978095
Tjalk,24,,,2636DC,Schipluiden,Midden-Delfland,Zuid-Holland,VBO,4.313222,51.978109
Tjalk,26,,,2636DC,Schipluiden,Midden-Delfland,Zuid-Holland,VBO,4.313293,51.978124
Tjalk,28,,,2636DC,Schipluiden,Midden-Delfland,Zuid-Holland,VBO,4.313365,51.978138
Tjalk,30,,,2636DC,Schipluiden,Midden-Delfland,Zuid-Holland,VBO,4.313434,51.978153
Tjalk,32,,,2636DC,Schipluiden,Midden-Delfland,Zuid-Holland,VBO,4.313507,51.978167
Tjalk,34,,,2636DC,Schipluiden,Midden-Delfland,Zuid-Holland,VBO,4.313578,51.978182
Tjalk,36,,,2636DC,Schipluiden,Midden-Delfland,Zuid-Holland,VBO,4.313649,51.978197
Tjalk,38,,,2636DC,Schipluiden,Midden-Delfland,Zuid-Holland,VBO,4.314338,51.978361
Tjalk,40,,,2636DC,Schipluiden,Midden-Delfland,Zuid-Holland,VBO,4.314367,51.978320
Tjalk,42,,,2636DC,Schipluiden,Midden-Delfland,Zuid-Holland,VBO,4.314397,51.978277
Tjalk,44,,,2636DC,Schipluiden,Midden-Delfland,Zuid-Holland,VBO,4.314427,51.978234
Tjalk,46,,,2636DC,Schipluiden,Midden-Delfland,Zuid-Holland,VBO,4.314515,51.978206
Tjalk,48,,,2636DC,Schipluiden,Midden-Delfland,Zuid-Holland,VBO,4.314545,51.978164
Tjalk,50,,,2636DC,Schipluiden,Midden-Delfland,Zuid-Holland,VBO,4.314574,51.978122
Tjalk,52,,,2636DC,Schipluiden,Midden-Delfland,Zuid-Holland,VBO,4.314604,51.978079
Tjalk,54,,,2636DC,Schipluiden,Midden-Delfland,Zuid-Holland,VBO,4.314634,51.978037
Bark,1,,,2636DD,Schipluiden,Midden-Delfland,Zuid-Holland,VBO,4.313076,51.977679
Bark,2,,,2636DD,Schipluiden,Midden-Delfland,Zuid-Holland,VBO,4.313451,51.977562
Bark,3,,,2636DD,Schipluiden,Midden-Delfland,Zuid-Holland,VBO,4.313054,51.977720
Bark,4,,,2636DD,Schipluiden,Midden-Delfland,Zuid-Holland,VBO,4.313427,51.977606
Bark,5,,,2636DD,Schipluiden,Midden-Delfland,Zuid-Holland,VBO,4.313030,51.977764
Bark,6,,,2636DD,Schipluiden,Midden-Delfland,Zuid-Holland,VBO,4.313403,51.977651
Bark,7,,,2636DD,Schipluiden,Midden-Delfland,Zuid-Holland,VBO,4.313007,51.977808
Bark,8,,,2636DD,Schipluiden,Midden-Delfland,Zuid-Holland,VBO,4.313379,51.977695
Bark,9,,,2636DD,Schipluiden,Midden-Delfland,Zuid-Holland,VBO,4.312983,51.977851
Bark,10,,,2636DD,Schipluiden,Midden-Delfland,Zuid-Holland,VBO,4.313322,51.977735
Bark,11,,,2636DD,Schipluiden,Midden-Delfland,Zuid-Holland,VBO,4.312929,51.977888
Bark,12,,,2636DD,Schipluiden,Midden-Delfland,Zuid-Holland,VBO,4.313298,51.977780
Bark,13,,,2636DD,Schipluiden,Midden-Delfland,Zuid-Holland,VBO,4.312907,51.977930
Bark,14,,,2636DD,Schipluiden,Midden-Delfland,Zuid-Holland,VBO,4.313274,51.977824
Bark,15,,,2636DD,Schipluiden,Midden-Delfland,Zuid-Holland,VBO,4.312883,51.977975
Bark,16,,,2636DD,Schipluiden,Midden-Delfland,Zuid-Holland,VBO,4.313250,51.977868
Bark,17,,,2636DD,Schipluiden,Midden-Delfland,Zuid-Holland,VBO,4.312859,51.978019
Bark,18,,,2636DD,Schipluiden,Midden-Delfland,Zuid-Holland,VBO,4.313227,51.977912
Boeier,1,,,2636DE,Schipluiden,Midden-Delfland,Zuid-Holland,VBO,4.313985,51.977664
Boeier,2,,,2636DE,Schipluiden,Midden-Delfland,Zuid-Holland,VBO,4.314122,51.977917
Boeier,3,,,2636DE,Schipluiden,Midden-Delfland,Zuid-Holland,VBO,4.313963,51.977705
Boeier,4,,,2636DE,Schipluiden,Midden-Delfland,Zuid-Holland,VBO,4.314092,51.977960
Boeier,5,,,2636DE,Schipluiden,Midden-Delfland,Zuid-Holland,VBO,4.313940,51.977749
Boeier,6,,,2636DE,Schipluiden,Midden-Delfland,Zuid-Holland,VBO,4.314062,51.978002
Boeier,7,,,2636DE,Schipluiden,Midden-Delfland,Zuid-Holland,VBO,4.313917,51.977792
Boeier,8,,,2636DE,Schipluiden,Midden-Delfland,Zuid-Holland,VBO,4.314032,51.978044
Boeier,9,,,2636DE,Schipluiden,Midden-Delfland,Zuid-Holland,VBO,4.313835,51.977826
Boeier,10,,,2636DE,Schipluiden,Midden-Delfland,Zuid-Holland,VBO,4.314000,51.978090
Boeier,11,,,2636DE,Schipluiden,Midden-Delfland,Zuid-Holland,VBO,4.313813,51.977867
Boeier,12,,,2636DE,Schipluiden,Midden-Delfland,Zuid-Holland,VBO,4.313921,51.978120
Boeier,13,,,2636DE,Schipluiden,Midden-Delfland,Zuid-Holland,VBO,4.313791,51.977909
Boeier,14,,,2636DE,Schipluiden,Midden-Delfland,Zuid-Holland,VBO,4.313891,51.978163
Boeier,15,,,2636DE,Schipluiden,Midden-Delfland,Zuid-Holland,VBO,4.313767,51.977953
Boeier,16,,,2636DE,Schipluiden,Midden-Delfland,Zuid-Holland,VBO,4.313860,51.978206
Boeier,17,,,2636DE,Schipluiden,Midden-Delfland,Zuid-Holland,VBO,4.313744,51.977997
Boeier,18,,,2636DE,Schipluiden,Midden-Delfland,Zuid-Holland,VBO,4.313830,51.978250
Schouw,1,,,2636DG,Schipluiden,Midden-Delfland,Zuid-Holland,VBO,4.315216,51.978969
Schouw,3,,,2636DG,Schipluiden,Midden-Delfland,Zuid-Holland,VBO,4.315205,51.979008
Schouw,5,,,2636DG,Schipluiden,Midden-Delfland,Zuid-Holland,VBO,4.315193,51.979049
Schouw,7,,,2636DG,Schipluiden,Midden-Delfland,Zuid-Holland,VBO,4.315180,51.979091
Schouw,9,,,2636DG,Schipluiden,Midden-Delfland,Zuid-Holland,VBO,4.315168,51.979132
Schouw,11,,,2636DG,Schipluiden,Midden-Delfland,Zuid-Holland,VBO,4.315157,51.979172
Schouw,13,,,2636DG,Schipluiden,Midden-Delfland,Zuid-Holland,VBO,4.315145,51.979211
Schouw,15,,,2636DG,Schipluiden,Midden-Delfland,Zuid-Holland,VBO,4.315133,51.979252
Schouw,17,,,2636DG,Schipluiden,Midden-Delfland,Zuid-Holland,VBO,4.315121,51.979294
Schouw,19,,,2636DG,Schipluiden,Midden-Delfland,Zuid-Holland,VBO,4.315109,51.979336
Schouw,21,,,2636DG,Schipluiden,Midden-Delfland,Zuid-Holland,VBO,4.315265,51.979430
Schouw,23,,,2636DG,Schipluiden,Midden-Delfland,Zuid-Holland,VBO,4.315326,51.979445
Schouw,25,,,2636DG,Schipluiden,Midden-Delfland,Zuid-Holland,VBO,4.315370,51.979476
Schouw,27,,,2636DG,Schipluiden,Midden-Delfland,Zuid-Holland,VBO,4.315454,51.979477
Schouw,29,,,2636DG,Schipluiden,Midden-Delfland,Zuid-Holland,VBO,4.315515,51.979493
Schouw,31,,,2636DG,Schipluiden,Midden-Delfland,Zuid-Holland,VBO,4.315573,51.979524
Schouw,33,,,2636DG,Schipluiden,Midden-Delfland,Zuid-Holland,VBO,4.315634,51.979539
Schouw,35,,,2636DH,Schipluiden,Midden-Delfland,Zuid-Holland,VBO,4.315699,51.979554
Schouw,37,,,2636DH,Schipluiden,Midden-Delfland,Zuid-Holland,VBO,4.315795,51.979579
Schouw,39,,,2636DH,Schipluiden,Midden-Delfland,Zuid-Holland,VBO,4.315860,51.979591
Schouw,41,,,2636DH,Schipluiden,Midden-Delfland,Zuid-Holland,VBO,4.315930,51.979603
Schouw,43,,,2636DH,Schipluiden,Midden-Delfland,Zuid-Holland,VBO,4.315992,51.979614
Schouw,45,,,2636DH,Schipluiden,Midden-Delfland,Zuid-Holland,VBO,4.316058,51.979626
Schouw,47,,,2636DH,Schipluiden,Midden-Delfland,Zuid-Holland,VBO,4.316124,51.979637
Schouw,49,,,2636DH,Schipluiden,Midden-Delfland,Zuid-Holland,VBO,4.316189,51.979649
Schouw,51,,,2636DH,Schipluiden,Midden-Delfland,Zuid-Holland,VBO,4.316259,51.979661
Schouw,53,,,2636DH,Schipluiden,Midden-Delfland,Zuid-Holland,VBO,4.316353,51.979677
Schouw,55,,,2636DH,Schipluiden,Midden-Delfland,Zuid-Holland,VBO,4.316421,51.979684
Schouw,57,,,2636DH,Schipluiden,Midden-Delfland,Zuid-Holland,VBO,4.316488,51.979691
Schouw,59,,,2636DH,Schipluiden,Midden-Delfland,Zuid-Holland,VBO,4.316556,51.979699
Schouw,61,,,2636DH,Schipluiden,Midden-Delfland,Zuid-Holland,VBO,4.316627,51.979707
Schouw,63,,,2636DH,Schipluiden,Midden-Delfland,Zuid-Holland,VBO,4.316691,51.979714
Schouw,65,,,2636DH,Schipluiden,Midden-Delfland,Zuid-Holland,VBO,4.316758,51.979721
Schouw,67,,,2636DH,Schipluiden,Midden-Delfland,Zuid-Holland,VBO,4.316826,51.979728
Schouw,69,,,2636DH,Schipluiden,Midden-Delfland,Zuid-Holland,VBO,4.317103,51.979729
Schouw,71,,,2636DH,Schipluiden,Midden-Delfland,Zuid-Holland,VBO,4.317147,51.979693
Schouw,73,,,2636DH,Schipluiden,Midden-Delfland,Zuid-Holland,VBO,4.317187,51.979660
Schouw,75,,,2636DH,Schipluiden,Midden-Delfland,Zuid-Holland,VBO,4.317229,51.979626
Schouw,77,,,2636DH,Schipluiden,Midden-Delfland,Zuid-Holland,VBO,4.317289,51.979575
Schouw,79,,,2636DH,Schipluiden,Midden-Delfland,Zuid-Holland,VBO,4.317325,51.979540
Schouw,81,,,2636DH,Schipluiden,Midden-Delfland,Zuid-Holland,VBO,4.317364,51.979503
Schouw,83,,,2636DH,Schipluiden,Midden-Delfland,Zuid-Holland,VBO,4.317398,51.979470
Schouw,85,,,2636DH,Schipluiden,Midden-Delfland,Zuid-Holland,VBO,4.317434,51.979435
Schouw,87,,,2636DH,Schipluiden,Midden-Delfland,Zuid-Holland,VBO,4.317471,51.979400
Schouw,89,,,2636DH,Schipluiden,Midden-Delfland,Zuid-Holland,VBO,4.317525,51.979342
Schouw,91,,,2636DH,Schipluiden,Midden-Delfland,Zuid-Holland,VBO,4.317559,51.979303
Schouw,93,,,2636DH,Schipluiden,Midden-Delfland,Zuid-Holland,VBO,4.317590,51.979269
Schouw,95,,,2636DH,Schipluiden,Midden-Delfland,Zuid-Holland,VBO,4.317622,51.979232
Schouw,2,,,2636DJ,Schipluiden,Midden-Delfland,Zuid-Holland,VBO,4.315685,51.979000
Schouw,4,,,2636DJ,Schipluiden,Midden-Delfland,Zuid-Holland,VBO,4.315672,51.979042
Schouw,6,,,2636DJ,Schipluiden,Midden-Delfland,Zuid-Holland,VBO,4.315660,51.979084
Schouw,8,,,2636DJ,Schipluiden,Midden-Delfland,Zuid-Holland,VBO,4.315647,51.979125
Schouw,10,,,2636DJ,Schipluiden,Midden-Delfland,Zuid-Holland,VBO,4.315633,51.979171
Schouw,12,,,2636DJ,Schipluiden,Midden-Delfland,Zuid-Holland,VBO,4.315620,51.979213
Schouw,14,,,2636DJ,Schipluiden,Midden-Delfland,Zuid-Holland,VBO,4.315608,51.979255
Schouw,16,,,2636DJ,Schipluiden,Midden-Delfland,Zuid-Holland,VBO,4.315595,51.979297
Schouw,18,,,2636DJ,Schipluiden,Midden-Delfland,Zuid-Holland,VBO,4.315922,51.979362
Schouw,20,,,2636DJ,Schipluiden,Midden-Delfland,Zuid-Holland,VBO,4.315992,51.979370
Schouw,22,,,2636DJ,Schipluiden,Midden-Delfland,Zuid-Holland,VBO,4.316062,51.979378
Schouw,24,,,2636DJ,Schipluiden,Midden-Delfland,Zuid-Holland,VBO,4.316130,51.979385
Schouw,26,,,2636DJ,Schipluiden,Midden-Delfland,Zuid-Holland,VBO,4.316198,51.979393
Schouw,28,,,2636DJ,Schipluiden,Midden-Delfland,Zuid-Holland,VBO,4.316266,51.979401
Schouw,30,,,2636DJ,Schipluiden,Midden-Delfland,Zuid-Holland,VBO,4.316359,51.979412
Schouw,32,,,2636DJ,Schipluiden,Midden-Delfland,Zuid-Holland,VBO,4.316428,51.979420
Schouw,34,,,2636DJ,Schipluiden,Midden-Delfland,Zuid-Holland,VBO,4.316495,51.979429
Schouw,36,,,2636DJ,Schipluiden,Midden-Delfland,Zuid-Holland,VBO,4.316563,51.979437
Schouw,38,,,2636DJ,Schipluiden,Midden-Delfland,Zuid-Holland,VBO,4.316630,51.979445
Schouw,40,,,2636DJ,Schipluiden,Midden-Delfland,Zuid-Holland,VBO,4.316696,51.979453
Schouw,42,,,2636DJ,Schipluiden,Midden-Delfland,Zuid-Holland,VBO,4.316971,51.979468
Schouw,44,,,2636DJ,Schipluiden,Midden-Delfland,Zuid-Holland,VBO,4.317008,51.979432
Schouw,46,,,2636DJ,Schipluiden,Midden-Delfland,Zuid-Holland,VBO,4.317046,51.979396
Schouw,48,,,2636DJ,Schipluiden,Midden-Delfland,Zuid-Holland,VBO,4.317084,51.979360
Schouw,50,,,2636DJ,Schipluiden,Midden-Delfland,Zuid-Holland,VBO,4.317122,51.979281
Schouw,52,,,2636DJ,Schipluiden,Midden-Delfland,Zuid-Holland,VBO,4.317135,51.979237
Schouw,54,,,2636DJ,Schipluiden,Midden-Delfland,Zuid-Holland,VBO,4.317147,51.979195
Schouw,56,,,2636DJ,Schipluiden,Midden-Delfland,Zuid-Holland,VBO,4.317159,51.979152
Schippershof,1,,,2636DL,Schipluiden,Midden-Delfland,Zuid-Holland,VBO,4.313145,51.976318
Schippershof,2,,,2636DL,Schipluiden,Midden-Delfland,Zuid-Holland,VBO,4.313210,51.976332
Schippershof,3,,,2636DL,Schipluiden,Midden-Delfland,Zuid-Holland,VBO,4.313272,51.976345
Schippershof,4,,,2636DL,Schipluiden,Midden-Delfland,Zuid-Holland,VBO,4.313334,51.976359
Schippershof,5,,,2636DL,Schipluiden,Midden-Delfland,Zuid-Holland,VBO,4.313396,51.976372
Schippershof,6,,,2636DL,Schipluiden,Midden-Delfland,Zuid-Holland,VBO,4.313458,51.976386
Schippershof,7,,,2636DL,Schipluiden,Midden-Delfland,Zuid-Holland,VBO,4.313154,51.976300
Schippershof,8,,,2636DL,Schipluiden,Midden-Delfland,Zuid-Holland,VBO,4.313217,51.976314
Schippershof,9,,,2636DL,Schipluiden,Midden-Delfland,Zuid-Holland,VBO,4.313280,51.976327
Schippershof,10,,,2636DL,Schipluiden,Midden-Delfland,Zuid-Holland,VBO,4.313348,51.976342
Schippershof,11,,,2636DL,Schipluiden,Midden-Delfland,Zuid-Holland,VBO,4.313409,51.976355
Schippershof,12,,,2636DL,Schipluiden,Midden-Delfland,Zuid-Holland,VBO,4.313475,51.976369
Schippershof,13,,,2636DL,Schipluiden,Midden-Delfland,Zuid-Holland,VBO,4.313332,51.976559
Schippershof,14,,,2636DL,Schipluiden,Midden-Delfland,Zuid-Holland,VBO,4.313270,51.976545
Schippershof,15,,,2636DL,Schipluiden,Midden-Delfland,Zuid-Holland,VBO,4.313208,51.976532
Schippershof,16,,,2636DL,Schipluiden,Midden-Delfland,Zuid-Holland,VBO,4.313146,51.976518
Schippershof,17,,,2636DL,Schipluiden,Midden-Delfland,Zuid-Holland,VBO,4.313084,51.976505
Schippershof,18,,,2636DL,Schipluiden,Midden-Delfland,Zuid-Holland,VBO,4.313022,51.976491
Schippershof,19,,,2636DL,Schipluiden,Midden-Delfland,Zuid-Holland,VBO,4.313383,51.976503
Schippershof,20,,,2636DL,Schipluiden,Midden-Delfland,Zuid-Holland,VBO,4.313035,51.976541
Schippershof,21,,,2636DL,Schipluiden,Midden-Delfland,Zuid-Holland,VBO,4.313083,51.976551
Schippershof,22,,,2636DL,Schipluiden,Midden-Delfland,Zuid-Holland,VBO,4.313127,51.976560
Schippershof,23,,,2636DL,Schipluiden,Midden-Delfland,Zuid-Holland,VBO,4.313173,51.976570
Schippershof,24,,,2636DL,Schipluiden,Midden-Delfland,Zuid-Holland,VBO,4.313220,51.976579
Schippershof,25,,,2636DL,Schipluiden,Midden-Delfland,Zuid-Holland,VBO,4.313267,51.976589
Schippershof,26,,,2636DL,Schipluiden,Midden-Delfland,Zuid-Holland,VBO,4.313407,51.976459
Schippershof,27,,,2636DL,Schipluiden,Midden-Delfland,Zuid-Holland,VBO,4.313316,51.976579
Schippershof,28,,,2636DL,Schipluiden,Midden-Delfland,Zuid-Holland,VBO,4.313253,51.976566
Schippershof,29,,,2636DL,Schipluiden,Midden-Delfland,Zuid-Holland,VBO,4.313191,51.976554
Schippershof,30,,,2636DL,Schipluiden,Midden-Delfland,Zuid-Holland,VBO,4.313131,51.976541
Schippershof,31,,,2636DL,Schipluiden,Midden-Delfland,Zuid-Holland,VBO,4.313070,51.976529
Schippershof,32,,,2636DL,Schipluiden,Midden-Delfland,Zuid-Holland,VBO,4.313004,51.976515
Klaas Engelbrechtsweg,1,a,,2636DM,Schipluiden,Midden-Delfland,Zuid-Holland,VBO,4.318534,51.989368
Klaas Engelbrechtsweg,1,,,2636DM,Schipluiden,Midden-Delfland,Zuid-Holland,VBO,4.318045,51.989297
Klaas Engelbrechtsweg,2,,,2636DM,Schipluiden,Midden-Delfland,Zuid-Holland,VBO,4.318483,51.989955
Klaas Engelbrechtsweg,3,,,2636DM,Schipluiden,Midden-Delfland,Zuid-Holland,VBO,4.317656,51.990762
Klaas Engelbrechtsweg,4,a,,2636DM,Schipluiden,Midden-Delfland,Zuid-Holland,VBO,4.317149,51.990943
Klaas Engelbrechtsweg,4,,,2636DM,Schipluiden,Midden-Delfland,Zuid-Holland,VBO,4.317569,51.991066
Klaas Engelbrechtsweg,5,,,2636DM,Schipluiden,Midden-Delfland,Zuid-Holland,VBO,4.317544,51.992642
Klaas Engelbrechtsweg,6,,,2636DM,Schipluiden,Midden-Delfland,Zuid-Holland,VBO,4.315162,51.992131
Laan van Piet van der Ende,1,,,2636DT,Schipluiden,Midden-Delfland,Zuid-Holland,VBO,4.316185,51.965349
Laan van Piet van der Ende,2,,,2636DT,Schipluiden,Midden-Delfland,Zuid-Holland,VBO,4.317553,51.965778
Dorppolderweg,1,,,2636DV,Schipluiden,Midden-Delfland,Zuid-Holland,VBO,4.310449,51.975817
Dorppolderweg,3,,,2636DV,Schipluiden,Midden-Delfland,Zuid-Holland,VBO,4.310200,51.976315
Praam,1,,,2636DW,Schipluiden,Midden-Delfland,Zuid-Holland,VBO,4.316868,51.978730
Praam,2,,,2636DW,Schipluiden,Midden-Delfland,Zuid-Holland,VBO,4.316880,51.978691
Praam,3,,,2636DW,Schipluiden,Midden-Delfland,Zuid-Holland,VBO,4.316893,51.978649
Praam,4,,,2636DW,Schipluiden,Midden-Delfland,Zuid-Holland,VBO,4.316906,51.978607
Praam,5,,,2636DW,Schipluiden,Midden-Delfland,Zuid-Holland,VBO,4.316786,51.978512
Praam,6,,,2636DW,Schipluiden,Midden-Delfland,Zuid-Holland,VBO,4.316719,51.978504
Praam,7,,,2636DW,Schipluiden,Midden-Delfland,Zuid-Holland,VBO,4.316651,51.978496
Praam,8,,,2636DW,Schipluiden,Midden-Delfland,Zuid-Holland,VBO,4.316583,51.978489
Praam,9,,,2636DW,Schipluiden,Midden-Delfland,Zuid-Holland,VBO,4.316515,51.978481
Praam,10,,,2636DW,Schipluiden,Midden-Delfland,Zuid-Holland,VBO,4.316453,51.978474
Praam,11,,,2636DW,Schipluiden,Midden-Delfland,Zuid-Holland,VBO,4.316383,51.978465
Praam,12,,,2636DW,Schipluiden,Midden-Delfland,Zuid-Holland,VBO,4.316319,51.978458
Aak,1,,,2636DX,Schipluiden,Midden-Delfland,Zuid-Holland,VBO,4.314643,51.979031
Aak,2,,,2636DX,Schipluiden,Midden-Delfland,Zuid-Holland,VBO,4.314717,51.979050
Aak,3,,,2636DX,Schipluiden,Midden-Delfland,Zuid-Holland,VBO,4.314777,51.979046
Aak,4,,,2636DX,Schipluiden,Midden-Delfland,Zuid-Holland,VBO,4.314850,51.979063
Westlander,64,,,2636DZ,Schipluiden,Midden-Delfland,Zuid-Holland,VBO,4.315745,51.978815
Westlander,66,,,2636DZ,Schipluiden,Midden-Delfland,Zuid-Holland,VBO,4.315814,51.978823
Westlander,68,,,2636DZ,Schipluiden,Midden-Delfland,Zuid-Holland,VBO,4.315882,51.978830
Westlander,70,,,2636DZ,Schipluiden,Midden-Delfland,Zuid-Holland,VBO,4.315948,51.978838
Westlander,72,,,2636DZ,Schipluiden,Midden-Delfland,Zuid-Holland,VBO,4.316019,51.978846
Westlander,74,,,2636DZ,Schipluiden,Midden-Delfland,Zuid-Holland,VBO,4.316087,51.978854
Westlander,76,,,2636DZ,Schipluiden,Midden-Delfland,Zuid-Holland,VBO,4.316191,51.978847
Westlander,78,,,2636DZ,Schipluiden,Midden-Delfland,Zuid-Holland,VBO,4.316258,51.978855
Westlander,80,,,2636DZ,Schipluiden,Midden-Delfland,Zuid-Holland,VBO,4.316324,51.978862
Westlander,82,,,2636DZ,Schipluiden,Midden-Delfland,Zuid-Holland,VBO,4.316393,51.978870
Westlander,84,,,2636DZ,Schipluiden,Midden-Delfland,Zuid-Holland,VBO,4.316460,51.978878
Westlander,86,,,2636DZ,Schipluiden,Midden-Delfland,Zuid-Holland,VBO,4.316528,51.978886
Westlander,88,,,2636DZ,Schipluiden,Midden-Delfland,Zuid-Holland,VBO,4.316780,51.978915
Westlander,90,,,2636DZ,Schipluiden,Midden-Delfland,Zuid-Holland,VBO,4.316845,51.978923
Westlander,92,,,2636DZ,Schipluiden,Midden-Delfland,Zuid-Holland,VBO,4.316914,51.978931
Westlander,94,,,2636DZ,Schipluiden,Midden-Delfland,Zuid-Holland,VBO,4.316982,51.978938
Westlander,96,,,2636DZ,Schipluiden,Midden-Delfland,Zuid-Holland,VBO,4.317049,51.978946
Westlander,98,,,2636DZ,Schipluiden,Midden-Delfland,Zuid-Holland,VBO,4.317116,51.978954
Westlander,100,,,2636DZ,Schipluiden,Midden-Delfland,Zuid-Holland,VBO,4.317188,51.978962
Westlander,102,,,2636DZ,Schipluiden,Midden-Delfland,Zuid-Holland,VBO,4.317257,51.978970
Westlander,104,,,2636DZ,Schipluiden,Midden-Delfland,Zuid-Holland,VBO,4.317324,51.978978
Westlander,106,,,2636DZ,Schipluiden,Midden-Delfland,Zuid-Holland,VBO,4.317391,51.978985
Westlander,108,,,2636DZ,Schipluiden,Midden-Delfland,Zuid-Holland,VBO,4.317459,51.978993
Westlander,110,,,2636DZ,Schipluiden,Midden-Delfland,Zuid-Holland,VBO,4.317522,51.979000
Westlander,119,,,2636DZ,Schipluiden,Midden-Delfland,Zuid-Holland,VBO,4.315980,51.979037
Westlander,121,,,2636DZ,Schipluiden,Midden-Delfland,Zuid-Holland,VBO,4.316048,51.979044
Westlander,123,,,2636DZ,Schipluiden,Midden-Delfland,Zuid-Holland,VBO,4.316112,51.979052
Westlander,125,,,2636DZ,Schipluiden,Midden-Delfland,Zuid-Holland,VBO,4.316180,51.979059
Westlander,127,,,2636DZ,Schipluiden,Midden-Delfland,Zuid-Holland,VBO,4.316248,51.979067
Westlander,129,,,2636DZ,Schipluiden,Midden-Delfland,Zuid-Holland,VBO,4.316316,51.979075
Westlander,131,,,2636DZ,Schipluiden,Midden-Delfland,Zuid-Holland,VBO,4.316414,51.979085
Westlander,133,,,2636DZ,Schipluiden,Midden-Delfland,Zuid-Holland,VBO,4.316478,51.979093
Westlander,135,,,2636DZ,Schipluiden,Midden-Delfland,Zuid-Holland,VBO,4.316546,51.979100
Westlander,137,,,2636DZ,Schipluiden,Midden-Delfland,Zuid-Holland,VBO,4.316614,51.979108
Westlander,139,,,2636DZ,Schipluiden,Midden-Delfland,Zuid-Holland,VBO,4.316682,51.979116
Westlander,141,,,2636DZ,Schipluiden,Midden-Delfland,Zuid-Holland,VBO,4.316753,51.979124
Willemsoordseweg,1,a,,2636EA,Schipluiden,Midden-Delfland,Zuid-Holland,VBO,4.335456,51.949771
Willemsoordseweg,1,b,,2636EA,Schipluiden,Midden-Delfland,Zuid-Holland,VBO,4.335950,51.950272
Willemsoordseweg,1,c,,2636EA,Schipluiden,Midden-Delfland,Zuid-Holland,VBO,4.335394,51.949805
Willemsoordseweg,1,d,,2636EA,Schipluiden,Midden-Delfland,Zuid-Holland,VBO,4.335077,51.949593
Willemsoordseweg,1,,,2636EA,Schipluiden,Midden-Delfland,Zuid-Holland,VBO,4.334794,51.949498
Willemsoordseweg,2,,,2636EA,Schipluiden,Midden-Delfland,Zuid-Holland,VBO,4.326764,51.951495
Willemsoordseweg,3,a,,2636EA,Schipluiden,Midden-Delfland,Zuid-Holland,VBO,4.335309,51.948566
Willemsoordseweg,3,b,,2636EA,Schipluiden,Midden-Delfland,Zuid-Holland,VBO,4.336560,51.947651
Willemsoordseweg,3,c,,2636EA,Schipluiden,Midden-Delfland,Zuid-Holland,VBO,4.334853,51.948834
Willemsoordseweg,3,,,2636EA,Schipluiden,Midden-Delfland,Zuid-Holland,VBO,4.334503,51.949213
Willemsoordseweg,4,a,,2636EA,Schipluiden,Midden-Delfland,Zuid-Holland,VBO,4.323927,51.951039
Willemsoordseweg,4,b,,2636EA,Schipluiden,Midden-Delfland,Zuid-Holland,VBO,4.324675,51.951271
Willemsoordseweg,4,,,2636EA,Schipluiden,Midden-Delfland,Zuid-Holland,VBO,4.323537,51.951186
Willemsoordseweg,5,a,,2636EA,Schipluiden,Midden-Delfland,Zuid-Holland,VBO,4.334195,51.948294
Willemsoordseweg,5,b,,2636EA,Schipluiden,Midden-Delfland,Zuid-Holland,VBO,4.333771,51.948272
Willemsoordseweg,5,,,2636EA,Schipluiden,Midden-Delfland,Zuid-Holland,VBO,4.333937,51.948396
Willemsoordseweg,6,,,2636EA,Schipluiden,Midden-Delfland,Zuid-Holland,VBO,4.325695,51.945193
Willemsoordseweg,7,a,,2636EA,Schipluiden,Midden-Delfland,Zuid-Holland,VBO,4.332635,51.948154
Willemsoordseweg,7,,,2636EA,Schipluiden,Midden-Delfland,Zuid-Holland,VBO,4.333346,51.948551
Willemsoordseweg,8,,,2636EA,Schipluiden,Midden-Delfland,Zuid-Holland,VBO,4.323121,51.943938
Willemsoordseweg,9,,,2636EA,Schipluiden,Midden-Delfland,Zuid-Holland,VBO,4.332296,51.947967
Willemsoordseweg,11,a,,2636EA,Schipluiden,Midden-Delfland,Zuid-Holland,VBO,4.330461,51.946773
Willemsoordseweg,11,,,2636EA,Schipluiden,Midden-Delfland,Zuid-Holland,VBO,4.330096,51.946788
Breeweg,2,,,2636EB,Schipluiden,Midden-Delfland,Zuid-Holland,VBO,4.336256,51.950361
Breeweg,3,a,,2636EB,Schipluiden,Midden-Delfland,Zuid-Holland,VBO,4.338138,51.949285
Breeweg,3,,,2636EB,Schipluiden,Midden-Delfland,Zuid-Holland,VBO,4.338947,51.949419
Breeweg,4,,,2636EB,Schipluiden,Midden-Delfland,Zuid-Holland,VBO,4.336497,51.950189
Breeweg,5,,,2636EB,Schipluiden,Midden-Delfland,Zuid-Holland,VBO,4.336559,51.950387
Breeweg,6,,,2636EB,Schipluiden,Midden-Delfland,Zuid-Holland,VBO,4.336580,51.950124
Breeweg,8,,,2636EB,Schipluiden,Midden-Delfland,Zuid-Holland,VBO,4.336714,51.949921
Oostveenseweg,1,,,2636EC,Schipluiden,Midden-Delfland,Zuid-Holland,VBO,4.336491,51.950742
Oostveenseweg,3,,,2636EC,Schipluiden,Midden-Delfland,Zuid-Holland,VBO,4.337645,51.951180
Oostveenseweg,5,b,,2636EC,Schipluiden,Midden-Delfland,Zuid-Holland,VBO,4.338909,51.951959
Oostveenseweg,5,,,2636EC,Schipluiden,Midden-Delfland,Zuid-Holland,VBO,4.337737,51.951222
Oostveenseweg,7,b,,2636EC,Schipluiden,Midden-Delfland,Zuid-Holland,VBO,4.346349,51.954642
Oostveenseweg,7,c,,2636EC,Schipluiden,Midden-Delfland,Zuid-Holland,VBO,4.345900,51.954843
Oostveenseweg,7,,,2636EC,Schipluiden,Midden-Delfland,Zuid-Holland,VBO,4.340198,51.952595
Oostveenseweg,9,a,,2636EC,Schipluiden,Midden-Delfland,Zuid-Holland,VBO,4.347428,51.954933
Oostveenseweg,9,b,,2636EC,Schipluiden,Midden-Delfland,Zuid-Holland,VBO,4.345114,51.957780
Oostveenseweg,9,,,2636EC,Schipluiden,Midden-Delfland,Zuid-Holland,VBO,4.345900,51.957424
Oostveenseweg,11,a,,2636EC,Schipluiden,Midden-Delfland,Zuid-Holland,VBO,4.350580,51.955542
Oostveenseweg,11,,,2636EC,Schipluiden,Midden-Delfland,Zuid-Holland,VBO,4.346337,51.957535
Oostveenseweg,13,a,t,2636EC,Schipluiden,Midden-Delfland,Zuid-Holland,VBO,4.352741,51.955471
Oostveenseweg,13,a,,2636EC,Schipluiden,Midden-Delfland,Zuid-Holland,VBO,4.352473,51.955443
Oostveenseweg,13,a,,2636EC,Schipluiden,Midden-Delfland,Zuid-Holland,VBO,4.352574,51.955501
Oostveenseweg,13,b,,2636EC,Schipluiden,Midden-Delfland,Zuid-Holland,VBO,4.352976,51.955608
Oostveenseweg,13,,,2636EC,Schipluiden,Midden-Delfland,Zuid-Holland,VBO,4.351175,51.955179
Oostveenseweg,15,a,,2636EC,Schipluiden,Midden-Delfland,Zuid-Holland,VBO,4.354510,51.957138
Oostveenseweg,15,,,2636EC,Schipluiden,Midden-Delfland,Zuid-Holland,VBO,4.352990,51.958773
Oostveenseweg,17,a,,2636EC,Schipluiden,Midden-Delfland,Zuid-Holland,VBO,4.357573,51.956301
Oostveenseweg,17,,,2636EC,Schipluiden,Midden-Delfland,Zuid-Holland,VBO,4.356818,51.956100
Oostveenseweg,19,,,2636EC,Schipluiden,Midden-Delfland,Zuid-Holland,VBO,4.355934,51.959958
Oostveenseweg,21,,,2636EC,Schipluiden,Midden-Delfland,Zuid-Holland,VBO,4.358739,51.956621
Oostveenseweg,2,a,,2636ED,Schipluiden,Midden-Delfland,Zuid-Holland,VBO,4.338629,51.951389
Oostveenseweg,2,b,,2636ED,Schipluiden,Midden-Delfland,Zuid-Holland,VBO,4.338891,51.951534
Oostveenseweg,2,t,,2636ED,Schipluiden,Midden-Delfland,Zuid-Holland,VBO,4.336761,51.950534
Oostveenseweg,2,,,2636ED,Schipluiden,Midden-Delfland,Zuid-Holland,VBO,4.341306,51.951096
Oostveenseweg,4,,,2636ED,Schipluiden,Midden-Delfland,Zuid-Holland,VBO,4.341556,51.951477
Oostveenseweg,6,,,2636ED,Schipluiden,Midden-Delfland,Zuid-Holland,VBO,4.341913,51.951222
Oostveenseweg,8,b,,2636ED,Schipluiden,Midden-Delfland,Zuid-Holland,LIG,4.346627,51.950802
Oostveenseweg,8,,,2636ED,Schipluiden,Midden-Delfland,Zuid-Holland,VBO,4.342776,51.953231
Oostveenseweg,10,,,2636ED,Schipluiden,Midden-Delfland,Zuid-Holland,VBO,4.343528,51.953588
Abtswoude,21,,,2636EE,Schipluiden,Midden-Delfland,Zuid-Holland,VBO,4.357795,51.975062
Abtswoude,23,a,,2636EE,Schipluiden,Midden-Delfland,Zuid-Holland,VBO,4.358853,51.972615
Abtswoude,23,b,,2636EE,Schipluiden,Midden-Delfland,Zuid-Holland,VBO,4.359146,51.972527
Abtswoude,23,t,,2636EE,Schipluiden,Midden-Delfland,Zuid-Holland,VBO,4.360576,51.966892
Abtswoude,23,,,2636EE,Schipluiden,Midden-Delfland,Zuid-Holland,VBO,4.358461,51.973452
Abtswoude,25,,,2636EE,Schipluiden,Midden-Delfland,Zuid-Holland,VBO,4.360889,51.966524
Abtswoude,27,a,,2636EE,Schipluiden,Midden-Delfland,Zuid-Holland,VBO,4.371996,51.967232
Abtswoude,27,,,2636EE,Schipluiden,Midden-Delfland,Zuid-Holland,VBO,4.362453,51.965742
Abtswoude,29,,,2636EE,Schipluiden,Midden-Delfland,Zuid-Holland,VBO,4.363474,51.963843
Abtswoude,31,,,2636EE,Schipluiden,Midden-Delfland,Zuid-Holland,VBO,4.368479,51.964826
Abtswoude,46,a,,2636EE,Schipluiden,Midden-Delfland,Zuid-Holland,VBO,4.349935,51.975686
Abtswoude,46,,,2636EE,Schipluiden,Midden-Delfland,Zuid-Holland,VBO,4.349860,51.975533
Abtswoude,48,a,,2636EE,Schipluiden,Midden-Delfland,Zuid-Holland,VBO,4.353295,51.974271
Abtswoude,48,b,,2636EE,Schipluiden,Midden-Delfland,Zuid-Holland,VBO,4.352687,51.974294
Abtswoude,48,,,2636EE,Schipluiden,Midden-Delfland,Zuid-Holland,VBO,4.352730,51.974310
Abtswoude,50,a,,2636EE,Schipluiden,Midden-Delfland,Zuid-Holland,VBO,4.358200,51.971865
Abtswoude,50,b,,2636EE,Schipluiden,Midden-Delfland,Zuid-Holland,VBO,4.357615,51.972611
Abtswoude,50,,,2636EE,Schipluiden,Midden-Delfland,Zuid-Holland,VBO,4.357629,51.974048
Abtswoude,52,a,,2636EE,Schipluiden,Midden-Delfland,Zuid-Holland,VBO,4.355240,51.969505
Abtswoude,52,,,2636EE,Schipluiden,Midden-Delfland,Zuid-Holland,VBO,4.354695,51.969603
Abtswoude,54,a,,2636EE,Schipluiden,Midden-Delfland,Zuid-Holland,VBO,4.359043,51.969860
Abtswoude,54,b,,2636EE,Schipluiden,Midden-Delfland,Zuid-Holland,VBO,4.358995,51.969261
Abtswoude,54,,,2636EE,Schipluiden,Midden-Delfland,Zuid-Holland,VBO,4.358771,51.969408
Abtswoude,56,,,2636EE,Schipluiden,Midden-Delfland,Zuid-Holland,VBO,4.359530,51.968940
Abtswoude,58,,,2636EE,Schipluiden,Midden-Delfland,Zuid-Holland,VBO,4.359696,51.968747
Abtswoude,60,,,2636EE,Schipluiden,Midden-Delfland,Zuid-Holland,VBO,4.359086,51.968554
Abtswoude,62,,,2636EE,Schipluiden,Midden-Delfland,Zuid-Holland,VBO,4.359279,51.968152
Abtswoude,64,,,2636EE,Schipluiden,Midden-Delfland,Zuid-Holland,VBO,4.360477,51.966034
Abtswoude,66,,,2636EE,Schipluiden,Midden-Delfland,Zuid-Holland,VBO,4.361047,51.965828
Abtswoude,70,a,,2636EE,Schipluiden,Midden-Delfland,Zuid-Holland,VBO,4.363023,51.962777
Abtswoude,70,,,2636EE,Schipluiden,Midden-Delfland,Zuid-Holland,VBO,4.363245,51.962455
Abtswoude,72,,,2636EE,Schipluiden,Midden-Delfland,Zuid-Holland,VBO,4.364128,51.961242
Zouteveenseweg,1,t,,2636EG,Schipluiden,Midden-Delfland,Zuid-Holland,VBO,4.319488,51.973893
Zouteveenseweg,1,,,2636EG,Schipluiden,Midden-Delfland,Zuid-Holland,VBO,4.319839,51.973799
Zouteveenseweg,3,,,2636EG,Schipluiden,Midden-Delfland,Zuid-Holland,VBO,4.320467,51.973553
Zouteveenseweg,5,,,2636EG,Schipluiden,Midden-Delfland,Zuid-Holland,VBO,4.320640,51.973367
Zouteveenseweg,7,a,,2636EG,Schipluiden,Midden-Delfland,Zuid-Holland,VBO,4.321098,51.973749
Zouteveenseweg,7,b,,2636EG,Schipluiden,Midden-Delfland,Zuid-Holland,VBO,4.321372,51.973186
Zouteveenseweg,7,c,,2636EG,Schipluiden,Midden-Delfland,Zuid-Holland,VBO,4.321241,51.973485
Zouteveenseweg,7,d,,2636EG,Schipluiden,Midden-Delfland,Zuid-Holland,VBO,4.321199,51.973569
Zouteveenseweg,7,e,,2636EG,Schipluiden,Midden-Delfland,Zuid-Holland,VBO,4.320617,51.973678
Zouteveenseweg,7,f,,2636EG,Schipluiden,Midden-Delfland,Zuid-Holland,VBO,4.321196,51.973207
Zouteveenseweg,7,h,,2636EG,Schipluiden,Midden-Delfland,Zuid-Holland,VBO,4.320711,51.973588
Zouteveenseweg,7,k,,2636EG,Schipluiden,Midden-Delfland,Zuid-Holland,VBO,4.321629,51.972669
Zouteveenseweg,7,m,,2636EG,Schipluiden,Midden-Delfland,Zuid-Holland,VBO,4.321350,51.973296
Zouteveenseweg,7,n,,2636EG,Schipluiden,Midden-Delfland,Zuid-Holland,VBO,4.321988,51.973289
Zouteveenseweg,7,p,,2636EG,Schipluiden,Midden-Delfland,Zuid-Holland,VBO,4.322346,51.972765
Zouteveenseweg,7,s,,2636EG,Schipluiden,Midden-Delfland,Zuid-Holland,VBO,4.321604,51.973246
Zouteveenseweg,7,,,2636EG,Schipluiden,Midden-Delfland,Zuid-Holland,VBO,4.321246,51.973428
Zouteveenseweg,9,,,2636EG,Schipluiden,Midden-Delfland,Zuid-Holland,VBO,4.320855,51.972998
Zouteveenseweg,11,a,,2636EG,Schipluiden,Midden-Delfland,Zuid-Holland,VBO,4.320969,51.972796
Zouteveenseweg,11,,,2636EG,Schipluiden,Midden-Delfland,Zuid-Holland,VBO,4.320883,51.972952
Zouteveenseweg,13,,,2636EG,Schipluiden,Midden-Delfland,Zuid-Holland,VBO,4.321048,51.972651
Zouteveenseweg,15,a,,2636EG,Schipluiden,Midden-Delfland,Zuid-Holland,VBO,4.321313,51.972342
Zouteveenseweg,15,b,,2636EG,Schipluiden,Midden-Delfland,Zuid-Holland,VBO,4.321572,51.972388
Zouteveenseweg,15,c,,2636EG,Schipluiden,Midden-Delfland,Zuid-Holland,VBO,4.322070,51.972562
Zouteveenseweg,15,d,,2636EG,Schipluiden,Midden-Delfland,Zuid-Holland,VBO,4.322145,51.972382
Zouteveenseweg,15,e,,2636EG,Schipluiden,Midden-Delfland,Zuid-Holland,VBO,4.322522,51.972319
Zouteveenseweg,15,,,2636EG,Schipluiden,Midden-Delfland,Zuid-Holland,VBO,4.321082,51.972558
Zouteveenseweg,17,a,,2636EG,Schipluiden,Midden-Delfland,Zuid-Holland,VBO,4.323112,51.970673
Zouteveenseweg,17,b,,2636EG,Schipluiden,Midden-Delfland,Zuid-Holland,VBO,4.322903,51.970629
Zouteveenseweg,17,c,,2636EG,Schipluiden,Midden-Delfland,Zuid-Holland,VBO,4.323211,51.970669
Zouteveenseweg,17,,,2636EG,Schipluiden,Midden-Delfland,Zuid-Holland,VBO,4.321505,51.971994
Zouteveenseweg,19,,,2636EG,Schipluiden,Midden-Delfland,Zuid-Holland,VBO,4.323567,51.968850
Zouteveenseweg,21,a,,2636EG,Schipluiden,Midden-Delfland,Zuid-Holland,VBO,4.324601,51.967363
Zouteveenseweg,21,,,2636EG,Schipluiden,Midden-Delfland,Zuid-Holland,VBO,4.324485,51.967293
Zouteveenseweg,23,a,,2636EG,Schipluiden,Midden-Delfland,Zuid-Holland,VBO,4.333645,51.967949
Zouteveenseweg,23,,,2636EG,Schipluiden,Midden-Delfland,Zuid-Holland,VBO,4.324572,51.967162
Zouteveenseweg,25,a,,2636EG,Schipluiden,Midden-Delfland,Zuid-Holland,VBO,4.326182,51.964294
Zouteveenseweg,25,,,2636EG,Schipluiden,Midden-Delfland,Zuid-Holland,VBO,4.325966,51.964860
Zouteveenseweg,27,,,2636EG,Schipluiden,Midden-Delfland,Zuid-Holland,VBO,4.326284,51.963607
Zouteveenseweg,29,,,2636EG,Schipluiden,Midden-Delfland,Zuid-Holland,VBO,4.328113,51.963147
Zouteveenseweg,31,,,2636EG,Schipluiden,Midden-Delfland,Zuid-Holland,VBO,4.328094,51.963197
Zouteveenseweg,33,,,2636EG,Schipluiden,Midden-Delfland,Zuid-Holland,VBO,4.327173,51.962308
Zouteveenseweg,35,a,,2636EG,Schipluiden,Midden-Delfland,Zuid-Holland,VBO,4.328044,51.962095
Zouteveenseweg,35,,,2636EG,Schipluiden,Midden-Delfland,Zuid-Holland,VBO,4.327817,51.962031
Zouteveenseweg,37,,,2636EG,Schipluiden,Midden-Delfland,Zuid-Holland,VBO,4.328092,51.961701
Zouteveenseweg,39,,,2636EG,Schipluiden,Midden-Delfland,Zuid-Holland,VBO,4.328358,51.961444
Zouteveenseweg,41,,,2636EG,Schipluiden,Midden-Delfland,Zuid-Holland,VBO,4.328553,51.961282
Zouteveenseweg,43,a,,2636EG,Schipluiden,Midden-Delfland,Zuid-Holland,VBO,4.329730,51.960576
Zouteveenseweg,43,b,,2636EG,Schipluiden,Midden-Delfland,Zuid-Holland,VBO,4.330367,51.960449
Zouteveenseweg,43,c,,2636EG,Schipluiden,Midden-Delfland,Zuid-Holland,VBO,4.329521,51.960851
Zouteveenseweg,43,,,2636EG,Schipluiden,Midden-Delfland,Zuid-Holland,VBO,4.329120,51.960893
Zouteveenseweg,45,a,,2636EG,Schipluiden,Midden-Delfland,Zuid-Holland,VBO,4.330984,51.959780
Zouteveenseweg,45,b,,2636EG,Schipluiden,Midden-Delfland,Zuid-Holland,VBO,4.329992,51.956212
Zouteveenseweg,45,,,2636EG,Schipluiden,Midden-Delfland,Zuid-Holland,VBO,4.331246,51.959664
Zouteveenseweg,47,,,2636EG,Schipluiden,Midden-Delfland,Zuid-Holland,VBO,4.335949,51.950935
Zouteveenseweg,2,a,,2636EH,Schipluiden,Midden-Delfland,Zuid-Holland,VBO,4.320726,51.972301
Zouteveenseweg,2,b,,2636EH,Schipluiden,Midden-Delfland,Zuid-Holland,VBO,4.319837,51.972943
Zouteveenseweg,2,t,,2636EH,Schipluiden,Midden-Delfland,Zuid-Holland,VBO,4.319084,51.973652
Zouteveenseweg,2,,,2636EH,Schipluiden,Midden-Delfland,Zuid-Holland,VBO,4.320201,51.973276
Zouteveenseweg,4,a,,2636EH,Schipluiden,Midden-Delfland,Zuid-Holland,VBO,4.320961,51.971699
Zouteveenseweg,4,,,2636EH,Schipluiden,Midden-Delfland,Zuid-Holland,VBO,4.320824,51.972114
Zouteveenseweg,6,,,2636EH,Schipluiden,Midden-Delfland,Zuid-Holland,VBO,4.322940,51.968816
Zouteveenseweg,8,a,,2636EH,Schipluiden,Midden-Delfland,Zuid-Holland,VBO,4.323352,51.967555
Zouteveenseweg,8,,,2636EH,Schipluiden,Midden-Delfland,Zuid-Holland,VBO,4.323070,51.968704
Zouteveenseweg,10,,,2636EH,Schipluiden,Midden-Delfland,Zuid-Holland,VBO,4.323858,51.967252
Zouteveenseweg,12,,,2636EH,Schipluiden,Midden-Delfland,Zuid-Holland,VBO,4.324180,51.966789
Zouteveenseweg,18,,,2636EH,Schipluiden,Midden-Delfland,Zuid-Holland,VBO,4.325385,51.964430
Zouteveenseweg,20,,,2636EH,Schipluiden,Midden-Delfland,Zuid-Holland,VBO,4.325836,51.963810
Zouteveenseweg,22,a,,2636EH,Schipluiden,Midden-Delfland,Zuid-Holland,VBO,4.325745,51.962902
Zouteveenseweg,22,,,2636EH,Schipluiden,Midden-Delfland,Zuid-Holland,VBO,4.326261,51.962711
Zouteveenseweg,24,a,,2636EH,Schipluiden,Midden-Delfland,Zuid-Holland,VBO,4.324498,51.961432
Zouteveenseweg,24,,,2636EH,Schipluiden,Midden-Delfland,Zuid-Holland,VBO,4.326277,51.962650
Zouteveenseweg,26,,,2636EH,Schipluiden,Midden-Delfland,Zuid-Holland,VBO,4.327926,51.961090
Zouteveenseweg,28,,,2636EH,Schipluiden,Midden-Delfland,Zuid-Holland,VBO,4.330172,51.959431
Zouteveenseweg,30,,,2636EH,Schipluiden,Midden-Delfland,Zuid-Holland,VBO,4.325131,51.958199
Zouteveenseweg,32,a,,2636EH,Schipluiden,Midden-Delfland,Zuid-Holland,VBO,4.329627,51.956133
Zouteveenseweg,32,t,,2636EH,Schipluiden,Midden-Delfland,Zuid-Holland,VBO,4.329578,51.956870
Zouteveenseweg,32,,,2636EH,Schipluiden,Midden-Delfland,Zuid-Holland,VBO,4.327050,51.955743
Zouteveenseweg,34,,,2636EH,Schipluiden,Midden-Delfland,Zuid-Holland,VBO,4.327888,51.955442
Holierhoek,1,,,2636EJ,Schipluiden,Midden-Delfland,Zuid-Holland,VBO,4.319298,51.973022
Holierhoek,2,,,2636EJ,Schipluiden,Midden-Delfland,Zuid-Holland,VBO,4.318400,51.973174
Holierhoek,4,,,2636EJ,Schipluiden,Midden-Delfland,Zuid-Holland,VBO,4.318316,51.973156
Holierhoek,6,,,2636EJ,Schipluiden,Midden-Delfland,Zuid-Holland,VBO,4.318232,51.973137
Holierhoek,8,,,2636EJ,Schipluiden,Midden-Delfland,Zuid-Holland,VBO,4.318149,51.973119
Holierhoek,10,,,2636EJ,Schipluiden,Midden-Delfland,Zuid-Holland,VBO,4.318059,51.973099
Holierhoek,12,,,2636EJ,Schipluiden,Midden-Delfland,Zuid-Holland,VBO,4.317974,51.973080
Holierhoek,14,,,2636EJ,Schipluiden,Midden-Delfland,Zuid-Holland,VBO,4.317830,51.973115
Holierhoek,16,,,2636EJ,Schipluiden,Midden-Delfland,Zuid-Holland,VBO,4.317746,51.973096
Holierhoek,18,,,2636EJ,Schipluiden,Midden-Delfland,Zuid-Holland,VBO,4.317662,51.973078
Holierhoek,20,,,2636EJ,Schipluiden,Midden-Delfland,Zuid-Holland,VBO,4.317576,51.973059
Holierhoek,22,,,2636EJ,Schipluiden,Midden-Delfland,Zuid-Holland,VBO,4.317482,51.973015
Holierhoek,24,,,2636EJ,Schipluiden,Midden-Delfland,Zuid-Holland,VBO,4.317395,51.972995
Holierhoek,26,,,2636EJ,Schipluiden,Midden-Delfland,Zuid-Holland,VBO,4.317309,51.972976
Holierhoek,28,,,2636EJ,Schipluiden,Midden-Delfland,Zuid-Holland,VBO,4.317222,51.972956
Holierhoek,30,,,2636EK,Schipluiden,Midden-Delfland,Zuid-Holland,VBO,4.316429,51.972873
Holierhoek,32,,,2636EK,Schipluiden,Midden-Delfland,Zuid-Holland,VBO,4.316344,51.972854
Holierhoek,34,,,2636EK,Schipluiden,Midden-Delfland,Zuid-Holland,VBO,4.316261,51.972835
Holierhoek,36,,,2636EK,Schipluiden,Midden-Delfland,Zuid-Holland,VBO,4.316178,51.972817
Holierhoek,38,,,2636EK,Schipluiden,Midden-Delfland,Zuid-Holland,VBO,4.316094,51.972798
Holierhoek,40,,,2636EK,Schipluiden,Midden-Delfland,Zuid-Holland,VBO,4.316013,51.972780
Holierhoek,42,,,2636EK,Schipluiden,Midden-Delfland,Zuid-Holland,VBO,4.315867,51.972817
Holierhoek,44,,,2636EK,Schipluiden,Midden-Delfland,Zuid-Holland,VBO,4.315783,51.972798
Holierhoek,46,,,2636EK,Schipluiden,Midden-Delfland,Zuid-Holland,VBO,4.315700,51.972779
Holierhoek,48,,,2636EK,Schipluiden,Midden-Delfland,Zuid-Holland,VBO,4.315617,51.972761
Holierhoek,50,,,2636EK,Schipluiden,Midden-Delfland,Zuid-Holland,VBO,4.315518,51.972714
Holierhoek,52,,,2636EK,Schipluiden,Midden-Delfland,Zuid-Holland,VBO,4.315432,51.972695
Holierhoek,54,,,2636EK,Schipluiden,Midden-Delfland,Zuid-Holland,VBO,4.315349,51.972676
Holierhoek,56,,,2636EK,Schipluiden,Midden-Delfland,Zuid-Holland,VBO,4.315265,51.972658
Kievithof,1,,,2636EL,Schipluiden,Midden-Delfland,Zuid-Holland,VBO,4.316995,51.973355
Kievithof,2,,,2636EL,Schipluiden,Midden-Delfland,Zuid-Holland,VBO,4.316668,51.973072
Kievithof,3,,,2636EL,Schipluiden,Midden-Delfland,Zuid-Holland,VBO,4.317025,51.973304
Kievithof,4,,,2636EL,Schipluiden,Midden-Delfland,Zuid-Holland,VBO,4.316699,51.973019
Kievithof,5,,,2636EL,Schipluiden,Midden-Delfland,Zuid-Holland,VBO,4.317056,51.973251
Kievithof,6,,,2636EL,Schipluiden,Midden-Delfland,Zuid-Holland,VBO,4.316729,51.972966
Kievithof,7,,,2636EL,Schipluiden,Midden-Delfland,Zuid-Holland,VBO,4.317087,51.973198
Fuutlaan,1,,,2636EM,Schipluiden,Midden-Delfland,Zuid-Holland,VBO,4.318111,51.973542
Fuutlaan,3,,,2636EM,Schipluiden,Midden-Delfland,Zuid-Holland,VBO,4.318030,51.973524
Fuutlaan,5,,,2636EM,Schipluiden,Midden-Delfland,Zuid-Holland,VBO,4.317945,51.973505
Fuutlaan,7,,,2636EM,Schipluiden,Midden-Delfland,Zuid-Holland,VBO,4.317861,51.973487
Fuutlaan,9,,,2636EM,Schipluiden,Midden-Delfland,Zuid-Holland,VBO,4.317722,51.973524
Fuutlaan,11,,,2636EM,Schipluiden,Midden-Delfland,Zuid-Holland,VBO,4.317640,51.973506
Fuutlaan,13,,,2636EM,Schipluiden,Midden-Delfland,Zuid-Holland,VBO,4.317557,51.973488
Fuutlaan,15,,,2636EM,Schipluiden,Midden-Delfland,Zuid-Holland,VBO,4.317471,51.973469
Fuutlaan,17,,,2636EM,Schipluiden,Midden-Delfland,Zuid-Holland,VBO,4.317385,51.973450
Fuutlaan,19,,,2636EM,Schipluiden,Midden-Delfland,Zuid-Holland,VBO,4.317298,51.973431
Fuutlaan,2,,,2636EN,Schipluiden,Midden-Delfland,Zuid-Holland,VBO,4.318349,51.973805
Fuutlaan,4,,,2636EN,Schipluiden,Midden-Delfland,Zuid-Holland,VBO,4.318264,51.973786
Fuutlaan,6,,,2636EN,Schipluiden,Midden-Delfland,Zuid-Holland,VBO,4.318180,51.973768
Fuutlaan,8,,,2636EP,Schipluiden,Midden-Delfland,Zuid-Holland,VBO,4.317308,51.973674
Fuutlaan,10,,,2636EP,Schipluiden,Midden-Delfland,Zuid-Holland,VBO,4.317218,51.973654
Fuutlaan,12,,,2636EP,Schipluiden,Midden-Delfland,Zuid-Holland,VBO,4.317131,51.973635
Meerkoetlaan,1,,,2636ER,Schipluiden,Midden-Delfland,Zuid-Holland,VBO,4.316510,51.973324
Meerkoetlaan,2,,,2636ER,Schipluiden,Midden-Delfland,Zuid-Holland,VBO,4.316518,51.973541
Meerkoetlaan,3,,,2636ER,Schipluiden,Midden-Delfland,Zuid-Holland,VBO,4.316430,51.973306
Meerkoetlaan,4,,,2636ER,Schipluiden,Midden-Delfland,Zuid-Holland,VBO,4.316434,51.973523
Meerkoetlaan,5,,,2636ER,Schipluiden,Midden-Delfland,Zuid-Holland,VBO,4.316347,51.973287
Meerkoetlaan,6,,,2636ER,Schipluiden,Midden-Delfland,Zuid-Holland,VBO,4.316349,51.973504
Meerkoetlaan,7,,,2636ER,Schipluiden,Midden-Delfland,Zuid-Holland,VBO,4.316263,51.973269
Meerkoetlaan,8,,,2636ER,Schipluiden,Midden-Delfland,Zuid-Holland,VBO,4.316264,51.973485
Meerkoetlaan,9,,,2636ER,Schipluiden,Midden-Delfland,Zuid-Holland,VBO,4.316179,51.973250
Meerkoetlaan,10,,,2636ER,Schipluiden,Midden-Delfland,Zuid-Holland,VBO,4.316174,51.973465
Meerkoetlaan,11,,,2636ER,Schipluiden,Midden-Delfland,Zuid-Holland,VBO,4.316100,51.973232
Meerkoetlaan,12,,,2636ER,Schipluiden,Midden-Delfland,Zuid-Holland,VBO,4.316087,51.973445
Meerkoetlaan,13,,,2636ER,Schipluiden,Midden-Delfland,Zuid-Holland,VBO,4.316020,51.973214
Meerkoetlaan,15,,,2636ER,Schipluiden,Midden-Delfland,Zuid-Holland,VBO,4.315936,51.973196
Meerkoetlaan,17,,,2636ER,Schipluiden,Midden-Delfland,Zuid-Holland,VBO,4.315792,51.973232
Meerkoetlaan,19,,,2636ER,Schipluiden,Midden-Delfland,Zuid-Holland,VBO,4.315708,51.973213
Meerkoetlaan,21,,,2636ER,Schipluiden,Midden-Delfland,Zuid-Holland,VBO,4.315623,51.973194
Meerkoetlaan,23,,,2636ER,Schipluiden,Midden-Delfland,Zuid-Holland,VBO,4.315542,51.973176
Meerkoetlaan,25,,,2636ER,Schipluiden,Midden-Delfland,Zuid-Holland,VBO,4.315457,51.973158
Meerkoetlaan,27,,,2636ER,Schipluiden,Midden-Delfland,Zuid-Holland,VBO,4.315372,51.973139
Leeuwerikplantsoen,1,,,2636ES,Schipluiden,Midden-Delfland,Zuid-Holland,VBO,4.317262,51.974799
Leeuwerikplantsoen,3,,,2636ES,Schipluiden,Midden-Delfland,Zuid-Holland,VBO,4.317291,51.974749
Leeuwerikplantsoen,5,,,2636ES,Schipluiden,Midden-Delfland,Zuid-Holland,VBO,4.317321,51.974697
Leeuwerikplantsoen,7,,,2636ES,Schipluiden,Midden-Delfland,Zuid-Holland,VBO,4.317352,51.974645
Leeuwerikplantsoen,9,,,2636ES,Schipluiden,Midden-Delfland,Zuid-Holland,VBO,4.317331,51.974580
Leeuwerikplantsoen,11,,,2636ES,Schipluiden,Midden-Delfland,Zuid-Holland,VBO,4.317360,51.974530
Leeuwerikplantsoen,13,,,2636ES,Schipluiden,Midden-Delfland,Zuid-Holland,VBO,4.317390,51.974479
Leeuwerikplantsoen,15,,,2636ES,Schipluiden,Midden-Delfland,Zuid-Holland,VBO,4.317421,51.974427
Leeuwerikplantsoen,17,,,2636ET,Schipluiden,Midden-Delfland,Zuid-Holland,VBO,4.317634,51.973962
Leeuwerikplantsoen,19,,,2636ET,Schipluiden,Midden-Delfland,Zuid-Holland,VBO,4.317664,51.973910
Leeuwerikplantsoen,21,,,2636ET,Schipluiden,Midden-Delfland,Zuid-Holland,VBO,4.317695,51.973858
Leeuwerikplantsoen,23,,,2636ET,Schipluiden,Midden-Delfland,Zuid-Holland,VBO,4.317724,51.973809
Leeuwerikplantsoen,25,,,2636ET,Schipluiden,Midden-Delfland,Zuid-Holland,VBO,4.317754,51.973757
Leeuwerikplantsoen,27,,,2636ET,Schipluiden,Midden-Delfland,Zuid-Holland,VBO,4.317785,51.973705
Leeuwerikplantsoen,2,,,2636EV,Schipluiden,Midden-Delfland,Zuid-Holland,VBO,4.317045,51.974297
Leeuwerikplantsoen,4,,,2636EV,Schipluiden,Midden-Delfland,Zuid-Holland,VBO,4.317075,51.974245
Leeuwerikplantsoen,6,,,2636EV,Schipluiden,Midden-Delfland,Zuid-Holland,VBO,4.317106,51.974192
Leeuwerikplantsoen,8,,,2636EV,Schipluiden,Midden-Delfland,Zuid-Holland,VBO,4.317136,51.974140
Leeuwerikplantsoen,10,,,2636EV,Schipluiden,Midden-Delfland,Zuid-Holland,VBO,4.317168,51.974084
Leeuwerikplantsoen,12,,,2636EV,Schipluiden,Midden-Delfland,Zuid-Holland,VBO,4.317138,51.974016
Leeuwerikplantsoen,14,,,2636EV,Schipluiden,Midden-Delfland,Zuid-Holland,VBO,4.317168,51.973963
Leeuwerikplantsoen,16,,,2636EV,Schipluiden,Midden-Delfland,Zuid-Holland,VBO,4.317199,51.973910
Leeuwerikplantsoen,18,,,2636EV,Schipluiden,Midden-Delfland,Zuid-Holland,VBO,4.317230,51.973857
Reigerpad,1,,,2636EW,Schipluiden,Midden-Delfland,Zuid-Holland,VBO,4.316519,51.974072
Reigerpad,2,,,2636EW,Schipluiden,Midden-Delfland,Zuid-Holland,VBO,4.316389,51.973817
Reigerpad,3,,,2636EW,Schipluiden,Midden-Delfland,Zuid-Holland,VBO,4.316547,51.974022
Reigerpad,4,,,2636EW,Schipluiden,Midden-Delfland,Zuid-Holland,VBO,4.316420,51.973764
Reigerpad,5,,,2636EW,Schipluiden,Midden-Delfland,Zuid-Holland,VBO,4.316577,51.973971
Reigerpad,6,,,2636EW,Schipluiden,Midden-Delfland,Zuid-Holland,VBO,4.316451,51.973710
Reigerpad,7,,,2636EW,Schipluiden,Midden-Delfland,Zuid-Holland,VBO,4.316669,51.973929
Reigerpad,9,,,2636EW,Schipluiden,Midden-Delfland,Zuid-Holland,VBO,4.316699,51.973876
Reigerpad,11,,,2636EW,Schipluiden,Midden-Delfland,Zuid-Holland,VBO,4.316729,51.973825
Reigerpad,13,,,2636EW,Schipluiden,Midden-Delfland,Zuid-Holland,VBO,4.316758,51.973775
Reigerpad,15,,,2636EW,Schipluiden,Midden-Delfland,Zuid-Holland,VBO,4.316731,51.973707
Reigerpad,17,,,2636EW,Schipluiden,Midden-Delfland,Zuid-Holland,VBO,4.316761,51.973655
Reigerpad,19,,,2636EW,Schipluiden,Midden-Delfland,Zuid-Holland,VBO,4.316791,51.973602
Gruttohof,1,,,2636EX,Schipluiden,Midden-Delfland,Zuid-Holland,VBO,4.315613,51.973650
Gruttohof,3,,,2636EX,Schipluiden,Midden-Delfland,Zuid-Holland,VBO,4.315642,51.973600
Gruttohof,5,,,2636EX,Schipluiden,Midden-Delfland,Zuid-Holland,VBO,4.315672,51.973547
Gruttohof,7,,,2636EX,Schipluiden,Midden-Delfland,Zuid-Holland,VBO,4.315702,51.973495
Gruttohof,9,,,2636EX,Schipluiden,Midden-Delfland,Zuid-Holland,VBO,4.315732,51.973443
Gruttohof,11,,,2636EX,Schipluiden,Midden-Delfland,Zuid-Holland,VBO,4.315761,51.973392
Scholeksterhof,1,,,2636EZ,Schipluiden,Midden-Delfland,Zuid-Holland,VBO,4.317727,51.974181
Scholeksterhof,2,,,2636EZ,Schipluiden,Midden-Delfland,Zuid-Holland,VBO,4.317968,51.974510
Scholeksterhof,3,,,2636EZ,Schipluiden,Midden-Delfland,Zuid-Holland,VBO,4.317644,51.974163
Scholeksterhof,4,,,2636EZ,Schipluiden,Midden-Delfland,Zuid-Holland,VBO,4.317882,51.974491
Scholeksterhof,5,,,2636EZ,Schipluiden,Midden-Delfland,Zuid-Holland,VBO,4.317557,51.974144
Scholeksterhof,6,,,2636EZ,Schipluiden,Midden-Delfland,Zuid-Holland,VBO,4.317796,51.974472
Scholeksterhof,8,,,2636EZ,Schipluiden,Midden-Delfland,Zuid-Holland,VBO,4.317711,51.974453
Schoolplein,1,,,2636GA,Schipluiden,Midden-Delfland,Zuid-Holland,VBO,4.315478,51.974908
Schoolplein,3,,,2636GA,Schipluiden,Midden-Delfland,Zuid-Holland,VBO,4.315543,51.974938
Schoolplein,5,,,2636GA,Schipluiden,Midden-Delfland,Zuid-Holland,VBO,4.315603,51.974969
Schoolplein,7,,,2636GA,Schipluiden,Midden-Delfland,Zuid-Holland,VBO,4.315666,51.974998
Schoolplein,9,,,2636GA,Schipluiden,Midden-Delfland,Zuid-Holland,VBO,4.316127,51.974885
Schoolplein,11,,,2636GA,Schipluiden,Midden-Delfland,Zuid-Holland,VBO,4.316050,51.974865
Schoolplein,13,,,2636GA,Schipluiden,Midden-Delfland,Zuid-Holland,VBO,4.315974,51.974845
Schoolplein,15,,,2636GA,Schipluiden,Midden-Delfland,Zuid-Holland,VBO,4.315914,51.974822
Schoolplein,17,,,2636GA,Schipluiden,Midden-Delfland,Zuid-Holland,VBO,4.315846,51.974792
Schoolplein,19,,,2636GA,Schipluiden,Midden-Delfland,Zuid-Holland,VBO,4.315787,51.974758
Schoolplein,21,,,2636GA,Schipluiden,Midden-Delfland,Zuid-Holland,VBO,4.315727,51.974728
Schoolplein,2,,,2636GB,Schipluiden,Midden-Delfland,Zuid-Holland,VBO,4.315276,51.974635
Schoolplein,4,,,2636GB,Schipluiden,Midden-Delfland,Zuid-Holland,VBO,4.315232,51.974653
Schoolplein,8,,,2636GB,Schipluiden,Midden-Delfland,Zuid-Holland,VBO,4.315937,51.974335
Schoolplein,10,,,2636GB,Schipluiden,Midden-Delfland,Zuid-Holland,VBO,4.316015,51.974296
Sint Maartensregtplein,1,,,2636GC,Schipluiden,Midden-Delfland,Zuid-Holland,VBO,4.316843,51.975650
Sint Maartensregtplein,2,,,2636GC,Schipluiden,Midden-Delfland,Zuid-Holland,VBO,4.316424,51.975430
Sint Maartensregtplein,3,,,2636GC,Schipluiden,Midden-Delfland,Zuid-Holland,VBO,4.316872,51.975601
Sint Maartensregtplein,4,,,2636GC,Schipluiden,Midden-Delfland,Zuid-Holland,VBO,4.316453,51.975388
Sint Maartensregtplein,5,,,2636GC,Schipluiden,Midden-Delfland,Zuid-Holland,VBO,4.316903,51.975549
Sint Maartensregtplein,6,,,2636GC,Schipluiden,Midden-Delfland,Zuid-Holland,VBO,4.316483,51.975346
Sint Maartensregtplein,7,,,2636GC,Schipluiden,Midden-Delfland,Zuid-Holland,VBO,4.316933,51.975498
Sint Maartensregtplein,8,,,2636GC,Schipluiden,Midden-Delfland,Zuid-Holland,VBO,4.316513,51.975303
Sint Maartensregtplein,9,,,2636GC,Schipluiden,Midden-Delfland,Zuid-Holland,VBO,4.316964,51.975447
Sint Maartensregtplein,10,,,2636GC,Schipluiden,Midden-Delfland,Zuid-Holland,VBO,4.316545,51.975257
Sint Maartensregtplein,11,,,2636GC,Schipluiden,Midden-Delfland,Zuid-Holland,VBO,4.316993,51.975398
Sint Maartensregtplein,12,,,2636GC,Schipluiden,Midden-Delfland,Zuid-Holland,VBO,4.316537,51.975181
Sint Maartensregtplein,14,,,2636GC,Schipluiden,Midden-Delfland,Zuid-Holland,VBO,4.316571,51.975134
Sint Maartensregtplein,15,,,2636GC,Schipluiden,Midden-Delfland,Zuid-Holland,VBO,4.317126,51.975103
Sint Maartensregtplein,16,,,2636GC,Schipluiden,Midden-Delfland,Zuid-Holland,VBO,4.316604,51.975086
Sint Maartensregtplein,18,,,2636GC,Schipluiden,Midden-Delfland,Zuid-Holland,VBO,4.316638,51.975039
Sint Maartensregtplein,20,,,2636GC,Schipluiden,Midden-Delfland,Zuid-Holland,VBO,4.316672,51.974991
Sint Maartensregtplein,22,,,2636GC,Schipluiden,Midden-Delfland,Zuid-Holland,VBO,4.316761,51.974844
Burg Musquetiersingel,1,,,2636GD,Schipluiden,Midden-Delfland,Zuid-Holland,VBO,4.316207,51.975386
Burg Musquetiersingel,3,,,2636GD,Schipluiden,Midden-Delfland,Zuid-Holland,VBO,4.316141,51.975369
Burg Musquetiersingel,5,,,2636GD,Schipluiden,Midden-Delfland,Zuid-Holland,VBO,4.316072,51.975350
Burg Musquetiersingel,7,,,2636GD,Schipluiden,Midden-Delfland,Zuid-Holland,VBO,4.316003,51.975332
Burg Musquetiersingel,9,,,2636GD,Schipluiden,Midden-Delfland,Zuid-Holland,VBO,4.315934,51.975313
Burg Musquetiersingel,11,,,2636GD,Schipluiden,Midden-Delfland,Zuid-Holland,VBO,4.315863,51.975261
Burg Musquetiersingel,13,,,2636GD,Schipluiden,Midden-Delfland,Zuid-Holland,VBO,4.315802,51.975245
Burg Musquetiersingel,15,,,2636GD,Schipluiden,Midden-Delfland,Zuid-Holland,VBO,4.315738,51.975228
Burg Musquetiersingel,17,,,2636GD,Schipluiden,Midden-Delfland,Zuid-Holland,VBO,4.315674,51.975210
Burg Musquetiersingel,19,,,2636GD,Schipluiden,Midden-Delfland,Zuid-Holland,VBO,4.315610,51.975193
Burg Musquetiersingel,21,,,2636GD,Schipluiden,Midden-Delfland,Zuid-Holland,VBO,4.315545,51.975176
Burg Musquetiersingel,23,,,2636GD,Schipluiden,Midden-Delfland,Zuid-Holland,VBO,4.315442,51.975133
Burg Musquetiersingel,25,,,2636GD,Schipluiden,Midden-Delfland,Zuid-Holland,VBO,4.315390,51.975106
Burg Musquetiersingel,27,,,2636GD,Schipluiden,Midden-Delfland,Zuid-Holland,VBO,4.315339,51.975079
Burg Musquetiersingel,29,,,2636GD,Schipluiden,Midden-Delfland,Zuid-Holland,VBO,4.314090,51.975057
Burg Musquetiersingel,2,,,2636GE,Schipluiden,Midden-Delfland,Zuid-Holland,VBO,4.316247,51.976062
Burg Musquetiersingel,4,a,,2636GE,Schipluiden,Midden-Delfland,Zuid-Holland,VBO,4.316135,51.976048
Burg Musquetiersingel,4,b,,2636GE,Schipluiden,Midden-Delfland,Zuid-Holland,VBO,4.315517,51.976533
Burg Musquetiersingel,4,c,,2636GE,Schipluiden,Midden-Delfland,Zuid-Holland,VBO,4.315808,51.976474
Burg Musquetiersingel,4,d,,2636GE,Schipluiden,Midden-Delfland,Zuid-Holland,VBO,4.315825,51.976453
Burg Musquetiersingel,4,e,,2636GE,Schipluiden,Midden-Delfland,Zuid-Holland,VBO,4.315842,51.976429
Burg Musquetiersingel,4,f,,2636GE,Schipluiden,Midden-Delfland,Zuid-Holland,VBO,4.315851,51.976416
Burg Musquetiersingel,4,g,,2636GE,Schipluiden,Midden-Delfland,Zuid-Holland,VBO,4.315875,51.976394
Burg Musquetiersingel,4,h,,2636GE,Schipluiden,Midden-Delfland,Zuid-Holland,VBO,4.315890,51.976370
Burg Musquetiersingel,4,k,,2636GE,Schipluiden,Midden-Delfland,Zuid-Holland,VBO,4.315916,51.976345
Burg Musquetiersingel,4,m,,2636GE,Schipluiden,Midden-Delfland,Zuid-Holland,VBO,4.315931,51.976325
Burg Musquetiersingel,4,t,,2636GE,Schipluiden,Midden-Delfland,Zuid-Holland,VBO,4.315949,51.976265
Burg Musquetiersingel,4,,,2636GE,Schipluiden,Midden-Delfland,Zuid-Holland,VBO,4.316135,51.976048
Burg Musquetiersingel,6,,,2636GE,Schipluiden,Midden-Delfland,Zuid-Holland,VBO,4.315942,51.976007
Burg Musquetiersingel,8,a,,2636GE,Schipluiden,Midden-Delfland,Zuid-Holland,VBO,4.315696,51.976343
Burg Musquetiersingel,8,b,,2636GE,Schipluiden,Midden-Delfland,Zuid-Holland,VBO,4.315768,51.976262
Burg Musquetiersingel,8,,,2636GE,Schipluiden,Midden-Delfland,Zuid-Holland,VBO,4.315200,51.976044
Burg Musquetiersingel,10,,,2636GE,Schipluiden,Midden-Delfland,Zuid-Holland,VBO,4.315799,51.975968
Burg Musquetiersingel,12,,,2636GE,Schipluiden,Midden-Delfland,Zuid-Holland,VBO,4.315665,51.975932
Burg Musquetiersingel,14,,,2636GE,Schipluiden,Midden-Delfland,Zuid-Holland,VBO,4.315582,51.975910
Burg Musquetiersingel,16,,,2636GE,Schipluiden,Midden-Delfland,Zuid-Holland,VBO,4.315499,51.975887
Burg Musquetiersingel,18,,,2636GE,Schipluiden,Midden-Delfland,Zuid-Holland,VBO,4.315415,51.975865
Burg Musquetiersingel,20,,,2636GE,Schipluiden,Midden-Delfland,Zuid-Holland,VBO,4.315330,51.975841
Burg Musquetiersingel,22,,,2636GE,Schipluiden,Midden-Delfland,Zuid-Holland,VBO,4.315222,51.975811
Burg Musquetiersingel,24,,,2636GE,Schipluiden,Midden-Delfland,Zuid-Holland,VBO,4.315146,51.975790
Burg Musquetiersingel,26,,,2636GE,Schipluiden,Midden-Delfland,Zuid-Holland,VBO,4.315069,51.975770
Burg Musquetiersingel,28,,,2636GE,Schipluiden,Midden-Delfland,Zuid-Holland,VBO,4.314992,51.975749
Burg Musquetiersingel,30,,,2636GE,Schipluiden,Midden-Delfland,Zuid-Holland,VBO,4.314885,51.975721
Burg Musquetiersingel,32,,,2636GE,Schipluiden,Midden-Delfland,Zuid-Holland,VBO,4.314805,51.975699
Burg Musquetiersingel,34,,,2636GE,Schipluiden,Midden-Delfland,Zuid-Holland,VBO,4.314727,51.975678
Burg Musquetiersingel,36,,,2636GE,Schipluiden,Midden-Delfland,Zuid-Holland,VBO,4.314649,51.975657
Burg Musquetiersingel,38,,,2636GE,Schipluiden,Midden-Delfland,Zuid-Holland,VBO,4.314571,51.975635
Burg Musquetiersingel,40,,,2636GG,Schipluiden,Midden-Delfland,Zuid-Holland,VBO,4.314400,51.975617
Burg Musquetiersingel,42,,,2636GG,Schipluiden,Midden-Delfland,Zuid-Holland,VBO,4.314172,51.975589
Burg Musquetiersingel,44,,,2636GG,Schipluiden,Midden-Delfland,Zuid-Holland,VBO,4.314091,51.975575
Burg Musquetiersingel,46,,,2636GG,Schipluiden,Midden-Delfland,Zuid-Holland,VBO,4.313990,51.975568
Burg Musquetiersingel,48,,,2636GG,Schipluiden,Midden-Delfland,Zuid-Holland,VBO,4.313899,51.975557
Burg Musquetiersingel,50,,,2636GG,Schipluiden,Midden-Delfland,Zuid-Holland,VBO,4.313810,51.975547
Burg Musquetiersingel,52,,,2636GG,Schipluiden,Midden-Delfland,Zuid-Holland,VBO,4.313717,51.975536
Burg Musquetiersingel,54,,,2636GG,Schipluiden,Midden-Delfland,Zuid-Holland,VBO,4.313626,51.975526
Burg Musquetiersingel,56,,,2636GG,Schipluiden,Midden-Delfland,Zuid-Holland,VBO,4.314487,51.975256
Burg Musquetiersingel,58,,,2636GG,Schipluiden,Midden-Delfland,Zuid-Holland,VBO,4.313917,51.975296
Kerkstraat,1,,,2636GH,Schipluiden,Midden-Delfland,Zuid-Holland,VBO,4.314323,51.975852
Kerkstraat,2,,,2636GH,Schipluiden,Midden-Delfland,Zuid-Holland,VBO,4.314287,51.975918
H.K. Pootplein,1,,,2636GJ,Schipluiden,Midden-Delfland,Zuid-Holland,VBO,4.316749,51.975843
H.K. Pootplein,2,,,2636GJ,Schipluiden,Midden-Delfland,Zuid-Holland,VBO,4.316760,51.976036
H.K. Pootplein,4,,,2636GJ,Schipluiden,Midden-Delfland,Zuid-Holland,VBO,4.316660,51.976012
H.K. Pootplein,6,,,2636GJ,Schipluiden,Midden-Delfland,Zuid-Holland,VBO,4.316530,51.976136
H.K. Pootplein,8,,,2636GJ,Schipluiden,Midden-Delfland,Zuid-Holland,VBO,4.316469,51.976123
H.K. Pootplein,10,,,2636GJ,Schipluiden,Midden-Delfland,Zuid-Holland,VBO,4.316417,51.976109
Keenenburgweg,1,a,,2636GK,Schipluiden,Midden-Delfland,Zuid-Holland,VBO,4.316806,51.977066
Keenenburgweg,1,,,2636GK,Schipluiden,Midden-Delfland,Zuid-Holland,VBO,4.317669,51.977232
Keenenburgweg,3,,,2636GK,Schipluiden,Midden-Delfland,Zuid-Holland,VBO,4.316860,51.976888
Keenenburgweg,5,,,2636GK,Schipluiden,Midden-Delfland,Zuid-Holland,VBO,4.317146,51.976725
Keenenburgweg,7,,,2636GK,Schipluiden,Midden-Delfland,Zuid-Holland,VBO,4.317201,51.976604
Keenenburgweg,9,,,2636GK,Schipluiden,Midden-Delfland,Zuid-Holland,VBO,4.317225,51.976563
Keenenburgweg,11,,,2636GK,Schipluiden,Midden-Delfland,Zuid-Holland,VBO,4.317179,51.976452
Keenenburgweg,13,,,2636GK,Schipluiden,Midden-Delfland,Zuid-Holland,VBO,4.317196,51.976399
Keenenburgweg,15,,,2636GK,Schipluiden,Midden-Delfland,Zuid-Holland,VBO,4.317313,51.976258
Keenenburgweg,17,,,2636GK,Schipluiden,Midden-Delfland,Zuid-Holland,VBO,4.317426,51.975998
Keenenburgweg,19,,,2636GK,Schipluiden,Midden-Delfland,Zuid-Holland,VBO,4.317476,51.975929
Keenenburgweg,21,,,2636GK,Schipluiden,Midden-Delfland,Zuid-Holland,VBO,4.317511,51.975873
Keenenburgweg,23,,,2636GK,Schipluiden,Midden-Delfland,Zuid-Holland,VBO,4.317553,51.975814
Keenenburgweg,25,,,2636GK,Schipluiden,Midden-Delfland,Zuid-Holland,VBO,4.317579,51.975773
Keenenburgweg,27,,,2636GK,Schipluiden,Midden-Delfland,Zuid-Holland,VBO,4.317691,51.975677
Keenenburgweg,29,,,2636GK,Schipluiden,Midden-Delfland,Zuid-Holland,VBO,4.317808,51.975487
Keenenburgweg,31,,,2636GL,Schipluiden,Midden-Delfland,Zuid-Holland,VBO,4.317871,51.975453
Keenenburgweg,33,,,2636GL,Schipluiden,Midden-Delfland,Zuid-Holland,VBO,4.317927,51.975423
Keenenburgweg,35,,,2636GL,Schipluiden,Midden-Delfland,Zuid-Holland,VBO,4.317987,51.975391
Keenenburgweg,37,,,2636GL,Schipluiden,Midden-Delfland,Zuid-Holland,VBO,4.318046,51.975359
Keenenburgweg,39,,,2636GL,Schipluiden,Midden-Delfland,Zuid-Holland,VBO,4.318106,51.975328
Keenenburgweg,41,,,2636GL,Schipluiden,Midden-Delfland,Zuid-Holland,VBO,4.318168,51.975294
Keenenburgweg,43,,,2636GL,Schipluiden,Midden-Delfland,Zuid-Holland,VBO,4.318225,51.975264
Keenenburgweg,49,,,2636GL,Schipluiden,Midden-Delfland,Zuid-Holland,VBO,4.318269,51.974726
Keenenburgweg,53,,,2636GL,Schipluiden,Midden-Delfland,Zuid-Holland,VBO,4.318378,51.974654
Keenenburgweg,59,,,2636GL,Schipluiden,Midden-Delfland,Zuid-Holland,VBO,4.319153,51.974156
Keenenburgweg,61,,,2636GL,Schipluiden,Midden-Delfland,Zuid-Holland,VBO,4.319057,51.974051
Keenenburgweg,2,,,2636GM,Schipluiden,Midden-Delfland,Zuid-Holland,VBO,4.316273,51.976994
Keenenburgweg,4,,,2636GM,Schipluiden,Midden-Delfland,Zuid-Holland,VBO,4.316341,51.976960
Keenenburgweg,6,,,2636GM,Schipluiden,Midden-Delfland,Zuid-Holland,VBO,4.316404,51.976928
Keenenburgweg,8,,,2636GM,Schipluiden,Midden-Delfland,Zuid-Holland,VBO,4.316533,51.976810
Keenenburgweg,10,a,,2636GM,Schipluiden,Midden-Delfland,Zuid-Holland,VBO,4.316448,51.976331
Keenenburgweg,10,b,,2636GM,Schipluiden,Midden-Delfland,Zuid-Holland,VBO,4.316743,51.976429
Keenenburgweg,10,c,,2636GM,Schipluiden,Midden-Delfland,Zuid-Holland,VBO,4.316778,51.976373
Keenenburgweg,10,,,2636GM,Schipluiden,Midden-Delfland,Zuid-Holland,VBO,4.316707,51.976485
Keenenburgweg,12,a,,2636GM,Schipluiden,Midden-Delfland,Zuid-Holland,VBO,4.316844,51.976262
Keenenburgweg,12,b,,2636GM,Schipluiden,Midden-Delfland,Zuid-Holland,VBO,4.316665,51.976186
Keenenburgweg,12,,,2636GM,Schipluiden,Midden-Delfland,Zuid-Holland,VBO,4.316889,51.976268
Keenenburgweg,14,,,2636GM,Schipluiden,Midden-Delfland,Zuid-Holland,VBO,4.316946,51.976181
Keenenburgweg,16,,,2636GM,Schipluiden,Midden-Delfland,Zuid-Holland,VBO,4.316995,51.976108
Keenenburgweg,18,,,2636GN,Schipluiden,Midden-Delfland,Zuid-Holland,VBO,4.317228,51.975723
Keenenburgweg,20,,,2636GN,Schipluiden,Midden-Delfland,Zuid-Holland,VBO,4.317283,51.975634
Keenenburgweg,22,,,2636GN,Schipluiden,Midden-Delfland,Zuid-Holland,VBO,4.317322,51.975576
Keenenburgweg,24,,,2636GN,Schipluiden,Midden-Delfland,Zuid-Holland,VBO,4.317383,51.975480
Keenenburgweg,26,,,2636GN,Schipluiden,Midden-Delfland,Zuid-Holland,VBO,4.317449,51.975392
Keenenburgweg,28,,,2636GN,Schipluiden,Midden-Delfland,Zuid-Holland,VBO,4.317486,51.975333
Keenenburgweg,30,,,2636GN,Schipluiden,Midden-Delfland,Zuid-Holland,VBO,4.317523,51.975274
Keenenburgweg,32,,,2636GP,Schipluiden,Midden-Delfland,Zuid-Holland,VBO,4.317769,51.974898
Keenenburgweg,34,,,2636GP,Schipluiden,Midden-Delfland,Zuid-Holland,VBO,4.317800,51.974846
Keenenburgweg,36,,,2636GP,Schipluiden,Midden-Delfland,Zuid-Holland,VBO,4.317830,51.974793
Keenenburgweg,38,,,2636GP,Schipluiden,Midden-Delfland,Zuid-Holland,VBO,4.317861,51.974740
Keenenburgweg,40,,,2636GP,Schipluiden,Midden-Delfland,Zuid-Holland,VBO,4.317891,51.974689
Keenenburgweg,42,,,2636GP,Schipluiden,Midden-Delfland,Zuid-Holland,VBO,4.318165,51.974249
Keenenburgweg,44,,,2636GP,Schipluiden,Midden-Delfland,Zuid-Holland,VBO,4.318195,51.974197
Keenenburgweg,46,,,2636GP,Schipluiden,Midden-Delfland,Zuid-Holland,VBO,4.318224,51.974146
Keenenburgweg,48,,,2636GP,Schipluiden,Midden-Delfland,Zuid-Holland,VBO,4.318254,51.974094
Keenenburgweg,50,,,2636GP,Schipluiden,Midden-Delfland,Zuid-Holland,VBO,4.318284,51.974044
Keenenburgweg,52,,,2636GP,Schipluiden,Midden-Delfland,Zuid-Holland,VBO,4.318314,51.973991
Keenenburgweg,54,,,2636GP,Schipluiden,Midden-Delfland,Zuid-Holland,VBO,4.318533,51.973541
Keenenburgweg,56,,,2636GP,Schipluiden,Midden-Delfland,Zuid-Holland,VBO,4.318563,51.973488
Keenenburgweg,58,,,2636GP,Schipluiden,Midden-Delfland,Zuid-Holland,VBO,4.318593,51.973436
Keenenburgweg,60,,,2636GP,Schipluiden,Midden-Delfland,Zuid-Holland,VBO,4.318623,51.973384
Keenenburgweg,62,,,2636GP,Schipluiden,Midden-Delfland,Zuid-Holland,VBO,4.318654,51.973331
Keenenburgweg,64,,,2636GP,Schipluiden,Midden-Delfland,Zuid-Holland,VBO,4.318684,51.973278
Otto van Egmondlaan,1,,,2636GR,Schipluiden,Midden-Delfland,Zuid-Holland,VBO,4.318345,51.974919
Otto van Egmondlaan,3,,,2636GR,Schipluiden,Midden-Delfland,Zuid-Holland,VBO,4.319867,51.975195
Otto van Egmondlaan,5,,,2636GR,Schipluiden,Midden-Delfland,Zuid-Holland,VBO,4.319830,51.975285
Otto van Egmondlaan,6,,,2636GR,Schipluiden,Midden-Delfland,Zuid-Holland,VBO,4.320190,51.975065
Otto van Egmondlaan,7,,,2636GR,Schipluiden,Midden-Delfland,Zuid-Holland,VBO,4.319794,51.975375
Otto van Egmondlaan,8,,,2636GR,Schipluiden,Midden-Delfland,Zuid-Holland,VBO,4.320226,51.975420
Otto van Egmondlaan,9,,,2636GR,Schipluiden,Midden-Delfland,Zuid-Holland,VBO,4.319757,51.975465
Philips de Blotestraat,1,,,2636GS,Schipluiden,Midden-Delfland,Zuid-Holland,VBO,4.319272,51.975395
Philips de Blotestraat,2,,,2636GS,Schipluiden,Midden-Delfland,Zuid-Holland,VBO,4.319125,51.975048
Philips de Blotestraat,3,,,2636GS,Schipluiden,Midden-Delfland,Zuid-Holland,VBO,4.319287,51.975358
Philips de Blotestraat,4,,,2636GS,Schipluiden,Midden-Delfland,Zuid-Holland,VBO,4.319104,51.975091
Philips de Blotestraat,5,,,2636GS,Schipluiden,Midden-Delfland,Zuid-Holland,VBO,4.319323,51.975270
Philips de Blotestraat,6,,,2636GS,Schipluiden,Midden-Delfland,Zuid-Holland,VBO,4.319072,51.975179
Philips de Blotestraat,7,,,2636GS,Schipluiden,Midden-Delfland,Zuid-Holland,VBO,4.319339,51.975230
Philips de Blotestraat,9,,,2636GS,Schipluiden,Midden-Delfland,Zuid-Holland,VBO,4.319375,51.975141
Philips de Blotestraat,11,,,2636GS,Schipluiden,Midden-Delfland,Zuid-Holland,VBO,4.319391,51.975102
Philips van Dorplaan,1,,,2636GT,Schipluiden,Midden-Delfland,Zuid-Holland,VBO,4.319483,51.978498
Philips van Dorplaan,3,,,2636GT,Schipluiden,Midden-Delfland,Zuid-Holland,VBO,4.319436,51.978490
Philips van Dorplaan,9,,,2636GT,Schipluiden,Midden-Delfland,Zuid-Holland,VBO,4.318496,51.978637
Philips van Dorplaan,11,,,2636GT,Schipluiden,Midden-Delfland,Zuid-Holland,VBO,4.318724,51.978740
Philips van Dorplaan,13,,,2636GT,Schipluiden,Midden-Delfland,Zuid-Holland,VBO,4.318737,51.978806
Philips van Dorplaan,15,,,2636GT,Schipluiden,Midden-Delfland,Zuid-Holland,VBO,4.318818,51.978945
Philips van Dorplaan,17,,,2636GT,Schipluiden,Midden-Delfland,Zuid-Holland,VBO,4.318819,51.979094
Philips van Dorplaan,19,,,2636GT,Schipluiden,Midden-Delfland,Zuid-Holland,VBO,4.318805,51.979221
Philips van Dorplaan,21,,,2636GT,Schipluiden,Midden-Delfland,Zuid-Holland,VBO,4.318810,51.979290
Pastoor Verburghlaan,11,,,2636HA,Schipluiden,Midden-Delfland,Zuid-Holland,VBO,4.271723,51.993024
Woudtzicht,2,,,2636HC,Schipluiden,Midden-Delfland,Zuid-Holland,VBO,4.281333,51.989292
't Woudt,1,,,2636HD,Schipluiden,Midden-Delfland,Zuid-Holland,VBO,4.293512,51.994794
't Woudt,2,,,2636HD,Schipluiden,Midden-Delfland,Zuid-Holland,VBO,4.294742,51.993705
't Woudt,3,,,2636HD,Schipluiden,Midden-Delfland,Zuid-Holland,VBO,4.291636,51.994402
't Woudt,4,,,2636HD,Schipluiden,Midden-Delfland,Zuid-Holland,VBO,4.294385,51.994253
't Woudt,5,,,2636HD,Schipluiden,Midden-Delfland,Zuid-Holland,VBO,4.292109,51.995052
't Woudt,7,,,2636HD,Schipluiden,Midden-Delfland,Zuid-Holland,VBO,4.291794,51.995231
't Woudt,8,,,2636HD,Schipluiden,Midden-Delfland,Zuid-Holland,VBO,4.293998,51.995275
't Woudt,9,,,2636HD,Schipluiden,Midden-Delfland,Zuid-Holland,VBO,4.293246,51.995152
't Woudt,10,,,2636HD,Schipluiden,Midden-Delfland,Zuid-Holland,VBO,4.295123,51.996441
't Woudt,11,,,2636HD,Schipluiden,Midden-Delfland,Zuid-Holland,VBO,4.292880,51.995074
't Woudt,13,,,2636HD,Schipluiden,Midden-Delfland,Zuid-Holland,VBO,4.292909,51.995428
't Woudt,15,a,,2636HD,Schipluiden,Midden-Delfland,Zuid-Holland,VBO,4.293443,51.995418
't Woudt,15,,,2636HD,Schipluiden,Midden-Delfland,Zuid-Holland,VBO,4.293457,51.995607
't Woudt,17,,,2636HD,Schipluiden,Midden-Delfland,Zuid-Holland,VBO,4.293698,51.995763
't Woudt,19,,,2636HD,Schipluiden,Midden-Delfland,Zuid-Holland,VBO,4.293745,51.995847
't Woudt,21,,,2636HD,Schipluiden,Midden-Delfland,Zuid-Holland,VBO,4.293815,51.995927
't Woudt,23,,,2636HD,Schipluiden,Midden-Delfland,Zuid-Holland,VBO,4.293901,51.996012
't Woudt,25,,,2636HD,Schipluiden,Midden-Delfland,Zuid-Holland,VBO,4.294242,51.996244
Tiendweg,1,a,,2636HH,Schipluiden,Midden-Delfland,Zuid-Holland,VBO,4.323064,51.980857
Tiendweg,1,t,,2636HH,Schipluiden,Midden-Delfland,Zuid-Holland,VBO,4.322238,51.980728
Tiendweg,1,,,2636HH,Schipluiden,Midden-Delfland,Zuid-Holland,VBO,4.322924,51.980720
Tiendweg,2,t,,2636HH,Schipluiden,Midden-Delfland,Zuid-Holland,VBO,4.319481,51.980552
Tiendweg,2,,,2636HH,Schipluiden,Midden-Delfland,Zuid-Holland,VBO,4.323762,51.980403
Tiendweg,3,,,2636HH,Schipluiden,Midden-Delfland,Zuid-Holland,VBO,4.322828,51.980186
Maria Bachmanstraat,1,,,2636HJ,Schipluiden,Midden-Delfland,Zuid-Holland,VBO,4.319124,51.978034
Maria Bachmanstraat,2,,,2636HJ,Schipluiden,Midden-Delfland,Zuid-Holland,VBO,4.319092,51.977803
Maria Bachmanstraat,3,,,2636HJ,Schipluiden,Midden-Delfland,Zuid-Holland,VBO,4.319255,51.978057
Maria Bachmanstraat,4,,,2636HJ,Schipluiden,Midden-Delfland,Zuid-Holland,VBO,4.319164,51.977816
Maria Bachmanstraat,5,,,2636HJ,Schipluiden,Midden-Delfland,Zuid-Holland,VBO,4.319390,51.978081
Maria Bachmanstraat,6,,,2636HJ,Schipluiden,Midden-Delfland,Zuid-Holland,VBO,4.319236,51.977828
Maria Bachmanstraat,7,,,2636HJ,Schipluiden,Midden-Delfland,Zuid-Holland,VBO,4.319525,51.978105
Maria Bachmanstraat,8,,,2636HJ,Schipluiden,Midden-Delfland,Zuid-Holland,VBO,4.319309,51.977841
Maria Bachmanstraat,9,,,2636HJ,Schipluiden,Midden-Delfland,Zuid-Holland,VBO,4.319660,51.978129
Maria Bachmanstraat,10,,,2636HJ,Schipluiden,Midden-Delfland,Zuid-Holland,VBO,4.319387,51.977855
Maria Bachmanstraat,12,,,2636HJ,Schipluiden,Midden-Delfland,Zuid-Holland,VBO,4.319461,51.977868
Maria Bachmanstraat,14,,,2636HJ,Schipluiden,Midden-Delfland,Zuid-Holland,VBO,4.319533,51.977880
Willem van Steenberchstraat,1,,,2636HK,Schipluiden,Midden-Delfland,Zuid-Holland,VBO,4.318931,51.977431
Willem van Steenberchstraat,2,,,2636HK,Schipluiden,Midden-Delfland,Zuid-Holland,VBO,4.319219,51.977490
Willem van Steenberchstraat,3,,,2636HK,Schipluiden,Midden-Delfland,Zuid-Holland,VBO,4.318905,51.977486
Willem van Steenberchstraat,4,,,2636HK,Schipluiden,Midden-Delfland,Zuid-Holland,VBO,4.319203,51.977524
Willem van Steenberchstraat,5,,,2636HK,Schipluiden,Midden-Delfland,Zuid-Holland,VBO,4.318879,51.977543
Willem van Steenberchstraat,6,,,2636HK,Schipluiden,Midden-Delfland,Zuid-Holland,VBO,4.319188,51.977558
Willem van Steenberchstraat,7,,,2636HK,Schipluiden,Midden-Delfland,Zuid-Holland,VBO,4.318852,51.977601
Willem van Steenberchstraat,8,,,2636HK,Schipluiden,Midden-Delfland,Zuid-Holland,VBO,4.319172,51.977592
Willem van Steenberchstraat,9,,,2636HK,Schipluiden,Midden-Delfland,Zuid-Holland,VBO,4.318826,51.977658
Willem van Steenberchstraat,10,,,2636HK,Schipluiden,Midden-Delfland,Zuid-Holland,VBO,4.319155,51.977630
Willem van Steenberchstraat,11,,,2636HK,Schipluiden,Midden-Delfland,Zuid-Holland,VBO,4.318801,51.977713
Willem van Steenberchstraat,13,,,2636HK,Schipluiden,Midden-Delfland,Zuid-Holland,VBO,4.318775,51.977768
Willem van Steenberchstraat,15,,,2636HK,Schipluiden,Midden-Delfland,Zuid-Holland,VBO,4.318749,51.977826
Agnes Croesinklaan,1,,,2636HL,Schipluiden,Midden-Delfland,Zuid-Holland,VBO,4.318480,51.975415
Agnes Croesinklaan,3,,,2636HL,Schipluiden,Midden-Delfland,Zuid-Holland,VBO,4.318529,51.975450
Agnes Croesinklaan,5,,,2636HL,Schipluiden,Midden-Delfland,Zuid-Holland,VBO,4.318581,51.975487
Agnes Croesinklaan,7,,,2636HL,Schipluiden,Midden-Delfland,Zuid-Holland,VBO,4.318633,51.975524
Agnes Croesinklaan,9,,,2636HL,Schipluiden,Midden-Delfland,Zuid-Holland,VBO,4.318911,51.975719
Agnes Croesinklaan,11,,,2636HL,Schipluiden,Midden-Delfland,Zuid-Holland,VBO,4.318961,51.975755
Agnes Croesinklaan,13,,,2636HL,Schipluiden,Midden-Delfland,Zuid-Holland,VBO,4.319010,51.975790
Agnes Croesinklaan,15,,,2636HL,Schipluiden,Midden-Delfland,Zuid-Holland,VBO,4.319062,51.975827
Agnes Croesinklaan,17,,,2636HL,Schipluiden,Midden-Delfland,Zuid-Holland,VBO,4.319114,51.975864
Agnes Croesinklaan,19,,,2636HL,Schipluiden,Midden-Delfland,Zuid-Holland,VBO,4.319166,51.975901
Agnes Croesinklaan,21,,,2636HL,Schipluiden,Midden-Delfland,Zuid-Holland,VBO,4.319960,51.976453
Agnes Croesinklaan,23,,,2636HL,Schipluiden,Midden-Delfland,Zuid-Holland,VBO,4.319940,51.976498
Agnes Croesinklaan,25,,,2636HL,Schipluiden,Midden-Delfland,Zuid-Holland,VBO,4.319918,51.976544
Agnes Croesinklaan,27,,,2636HL,Schipluiden,Midden-Delfland,Zuid-Holland,VBO,4.319897,51.976591
Agnes Croesinklaan,29,,,2636HL,Schipluiden,Midden-Delfland,Zuid-Holland,VBO,4.319876,51.976638
Agnes Croesinklaan,31,,,2636HL,Schipluiden,Midden-Delfland,Zuid-Holland,VBO,4.319853,51.976687
Agnes Croesinklaan,2,,,2636HM,Schipluiden,Midden-Delfland,Zuid-Holland,VBO,4.318388,51.975092
Agnes Croesinklaan,4,,,2636HM,Schipluiden,Midden-Delfland,Zuid-Holland,VBO,4.318434,51.975124
Agnes Croesinklaan,6,,,2636HM,Schipluiden,Midden-Delfland,Zuid-Holland,VBO,4.318532,51.975193
Agnes Croesinklaan,8,,,2636HM,Schipluiden,Midden-Delfland,Zuid-Holland,VBO,4.318575,51.975224
Agnes Croesinklaan,10,,,2636HM,Schipluiden,Midden-Delfland,Zuid-Holland,VBO,4.318680,51.975293
Agnes Croesinklaan,12,,,2636HM,Schipluiden,Midden-Delfland,Zuid-Holland,VBO,4.318729,51.975325
Agnes Croesinklaan,14,,,2636HM,Schipluiden,Midden-Delfland,Zuid-Holland,VBO,4.318819,51.975396
Agnes Croesinklaan,16,,,2636HM,Schipluiden,Midden-Delfland,Zuid-Holland,VBO,4.318863,51.975427
Agnes Croesinklaan,22,,,2636HM,Schipluiden,Midden-Delfland,Zuid-Holland,VBO,4.319336,51.975607
Agnes Croesinklaan,24,,,2636HM,Schipluiden,Midden-Delfland,Zuid-Holland,VBO,4.320012,51.975962
Agnes Croesinklaan,26,,,2636HM,Schipluiden,Midden-Delfland,Zuid-Holland,VBO,4.320235,51.976555
Agnes Croesinklaan,28,,,2636HM,Schipluiden,Midden-Delfland,Zuid-Holland,VBO,4.320214,51.976602
Agnes Croesinklaan,30,,,2636HM,Schipluiden,Midden-Delfland,Zuid-Holland,VBO,4.320193,51.976648
Agnes Croesinklaan,32,,,2636HM,Schipluiden,Midden-Delfland,Zuid-Holland,VBO,4.320172,51.976696
Agnes Croesinklaan,34,,,2636HM,Schipluiden,Midden-Delfland,Zuid-Holland,VBO,4.320151,51.976743
Agnes Croesinklaan,36,,,2636HM,Schipluiden,Midden-Delfland,Zuid-Holland,VBO,4.320129,51.976790
Agnes Croesinklaan,38,,,2636HM,Schipluiden,Midden-Delfland,Zuid-Holland,VBO,4.320102,51.976852
Agnes Croesinklaan,40,,,2636HM,Schipluiden,Midden-Delfland,Zuid-Holland,VBO,4.320081,51.976898
Agnes Croesinklaan,42,,,2636HM,Schipluiden,Midden-Delfland,Zuid-Holland,VBO,4.320059,51.976947
Agnes Croesinklaan,44,,,2636HM,Schipluiden,Midden-Delfland,Zuid-Holland,VBO,4.320038,51.976995
Otto van Zevenderstraat,1,,,2636HN,Schipluiden,Midden-Delfland,Zuid-Holland,VBO,4.318404,51.975663
Otto van Zevenderstraat,2,,,2636HN,Schipluiden,Midden-Delfland,Zuid-Holland,VBO,4.318533,51.975924
Otto van Zevenderstraat,3,,,2636HN,Schipluiden,Midden-Delfland,Zuid-Holland,VBO,4.318348,51.975693
Otto van Zevenderstraat,5,,,2636HN,Schipluiden,Midden-Delfland,Zuid-Holland,VBO,4.318289,51.975725
Otto van Zevenderstraat,7,,,2636HN,Schipluiden,Midden-Delfland,Zuid-Holland,VBO,4.318230,51.975757
Otto van Zevenderstraat,9,,,2636HN,Schipluiden,Midden-Delfland,Zuid-Holland,VBO,4.318143,51.975810
Otto van Zevenderstraat,11,,,2636HN,Schipluiden,Midden-Delfland,Zuid-Holland,VBO,4.318127,51.975836
Otto van Zevenderstraat,13,,,2636HN,Schipluiden,Midden-Delfland,Zuid-Holland,VBO,4.318111,51.975862
Otto van Zevenderstraat,15,,,2636HN,Schipluiden,Midden-Delfland,Zuid-Holland,VBO,4.318094,51.975889
Otto van Zevenderstraat,17,,,2636HN,Schipluiden,Midden-Delfland,Zuid-Holland,VBO,4.318076,51.975917
Otto van Zevenderstraat,19,,,2636HN,Schipluiden,Midden-Delfland,Zuid-Holland,VBO,4.318059,51.975945
Otto van Zevenderstraat,21,,,2636HN,Schipluiden,Midden-Delfland,Zuid-Holland,VBO,4.318042,51.975973
Otto van Zevenderstraat,23,,,2636HN,Schipluiden,Midden-Delfland,Zuid-Holland,VBO,4.318026,51.975999
Otto van Zevenderstraat,25,,,2636HN,Schipluiden,Midden-Delfland,Zuid-Holland,VBO,4.318008,51.976026
Otto van Zevenderstraat,27,,,2636HN,Schipluiden,Midden-Delfland,Zuid-Holland,VBO,4.317991,51.976054
Otto van Zevenderstraat,29,,,2636HN,Schipluiden,Midden-Delfland,Zuid-Holland,VBO,4.317974,51.976082
Otto van Zevenderstraat,31,,,2636HN,Schipluiden,Midden-Delfland,Zuid-Holland,VBO,4.317955,51.976112
Besten van Brienenstraat,1,,,2636HP,Schipluiden,Midden-Delfland,Zuid-Holland,VBO,4.319406,51.976077
Besten van Brienenstraat,2,,,2636HP,Schipluiden,Midden-Delfland,Zuid-Holland,VBO,4.319581,51.976218
Besten van Brienenstraat,3,,,2636HP,Schipluiden,Midden-Delfland,Zuid-Holland,VBO,4.319349,51.976108
Besten van Brienenstraat,4,,,2636HP,Schipluiden,Midden-Delfland,Zuid-Holland,VBO,4.319521,51.976250
Besten van Brienenstraat,5,,,2636HP,Schipluiden,Midden-Delfland,Zuid-Holland,VBO,4.319289,51.976140
Besten van Brienenstraat,6,,,2636HP,Schipluiden,Midden-Delfland,Zuid-Holland,VBO,4.319461,51.976282
Besten van Brienenstraat,7,,,2636HP,Schipluiden,Midden-Delfland,Zuid-Holland,VBO,4.319229,51.976172
Besten van Brienenstraat,8,,,2636HP,Schipluiden,Midden-Delfland,Zuid-Holland,VBO,4.319401,51.976314
Besten van Brienenstraat,9,,,2636HP,Schipluiden,Midden-Delfland,Zuid-Holland,VBO,4.319169,51.976204
Besten van Brienenstraat,10,,,2636HP,Schipluiden,Midden-Delfland,Zuid-Holland,VBO,4.319337,51.976349
Besten van Brienenstraat,11,,,2636HP,Schipluiden,Midden-Delfland,Zuid-Holland,VBO,4.319111,51.976235
Besten van Brienenstraat,12,,,2636HP,Schipluiden,Midden-Delfland,Zuid-Holland,VBO,4.319275,51.976381
Paulus Beelaertslaan,1,,,2636HR,Schipluiden,Midden-Delfland,Zuid-Holland,VBO,4.320787,51.976684
Paulus Beelaertslaan,2,,,2636HR,Schipluiden,Midden-Delfland,Zuid-Holland,VBO,4.320285,51.976376
Paulus Beelaertslaan,3,,,2636HR,Schipluiden,Midden-Delfland,Zuid-Holland,VBO,4.320771,51.976719
Paulus Beelaertslaan,4,,,2636HR,Schipluiden,Midden-Delfland,Zuid-Holland,VBO,4.320362,51.976390
Paulus Beelaertslaan,5,,,2636HR,Schipluiden,Midden-Delfland,Zuid-Holland,VBO,4.320709,51.976853
Paulus Beelaertslaan,6,,,2636HR,Schipluiden,Midden-Delfland,Zuid-Holland,VBO,4.320439,51.976403
Paulus Beelaertslaan,7,,,2636HR,Schipluiden,Midden-Delfland,Zuid-Holland,VBO,4.320692,51.976892
Paulus Beelaertslaan,8,,,2636HR,Schipluiden,Midden-Delfland,Zuid-Holland,VBO,4.320517,51.976417
Paulus Beelaertslaan,9,,,2636HR,Schipluiden,Midden-Delfland,Zuid-Holland,VBO,4.320627,51.977025
Paulus Beelaertslaan,11,,,2636HR,Schipluiden,Midden-Delfland,Zuid-Holland,VBO,4.320610,51.977061
Beatrix van Schagenlaan,1,,,2636HS,Schipluiden,Midden-Delfland,Zuid-Holland,VBO,4.320837,51.976444
Beatrix van Schagenlaan,2,,,2636HS,Schipluiden,Midden-Delfland,Zuid-Holland,VBO,4.320618,51.976200
Beatrix van Schagenlaan,3,,,2636HS,Schipluiden,Midden-Delfland,Zuid-Holland,VBO,4.320853,51.976409
Beatrix van Schagenlaan,4,,,2636HS,Schipluiden,Midden-Delfland,Zuid-Holland,VBO,4.320638,51.976154
Beatrix van Schagenlaan,5,,,2636HS,Schipluiden,Midden-Delfland,Zuid-Holland,VBO,4.320910,51.976286
Beatrix van Schagenlaan,6,,,2636HS,Schipluiden,Midden-Delfland,Zuid-Holland,VBO,4.320659,51.976107
Beatrix van Schagenlaan,7,,,2636HS,Schipluiden,Midden-Delfland,Zuid-Holland,VBO,4.320927,51.976248
Beatrix van Schagenlaan,8,,,2636HS,Schipluiden,Midden-Delfland,Zuid-Holland,VBO,4.320680,51.976061
Beatrix van Schagenlaan,9,,,2636HS,Schipluiden,Midden-Delfland,Zuid-Holland,VBO,4.320983,51.976125
Beatrix van Schagenlaan,10,,,2636HS,Schipluiden,Midden-Delfland,Zuid-Holland,VBO,4.320703,51.976011
Beatrix van Schagenlaan,11,,,2636HS,Schipluiden,Midden-Delfland,Zuid-Holland,VBO,4.320999,51.976089
Beatrix van Schagenlaan,12,,,2636HS,Schipluiden,Midden-Delfland,Zuid-Holland,VBO,4.320724,51.975963
Beatrix van Schagenlaan,13,,,2636HS,Schipluiden,Midden-Delfland,Zuid-Holland,VBO,4.321053,51.975969
Beatrix van Schagenlaan,14,,,2636HS,Schipluiden,Midden-Delfland,Zuid-Holland,VBO,4.320745,51.975917
Beatrix van Schagenlaan,15,,,2636HS,Schipluiden,Midden-Delfland,Zuid-Holland,VBO,4.321070,51.975931
Beatrix van Schagenlaan,16,,,2636HS,Schipluiden,Midden-Delfland,Zuid-Holland,VBO,4.320766,51.975870
Beatrix van Schagenlaan,18,,,2636HS,Schipluiden,Midden-Delfland,Zuid-Holland,VBO,4.320787,51.975824
Wilgenlaan,1,,,2636HT,Schipluiden,Midden-Delfland,Zuid-Holland,VBO,4.320281,51.974773
Wilgenlaan,2,,,2636HT,Schipluiden,Midden-Delfland,Zuid-Holland,VBO,4.320387,51.974637
Wilgenlaan,3,,,2636HT,Schipluiden,Midden-Delfland,Zuid-Holland,VBO,4.320592,51.974825
Wilgenlaan,4,,,2636HT,Schipluiden,Midden-Delfland,Zuid-Holland,VBO,4.320612,51.974676
Wilgenlaan,5,,,2636HT,Schipluiden,Midden-Delfland,Zuid-Holland,VBO,4.320941,51.974896
Wilgenlaan,6,,,2636HT,Schipluiden,Midden-Delfland,Zuid-Holland,VBO,4.321108,51.974761
Wilgenlaan,7,,,2636HT,Schipluiden,Midden-Delfland,Zuid-Holland,VBO,4.321238,51.974939
Wilgenlaan,8,,,2636HT,Schipluiden,Midden-Delfland,Zuid-Holland,VBO,4.321293,51.974793
Wilgenlaan,9,,,2636HT,Schipluiden,Midden-Delfland,Zuid-Holland,VBO,4.321257,51.975094
Wilgenlaan,10,,,2636HT,Schipluiden,Midden-Delfland,Zuid-Holland,VBO,4.321654,51.974872
Wilgenlaan,11,,,2636HT,Schipluiden,Midden-Delfland,Zuid-Holland,VBO,4.321162,51.975281
Wilgenlaan,12,,,2636HT,Schipluiden,Midden-Delfland,Zuid-Holland,VBO,4.321584,51.975027
Wilgenlaan,13,,,2636HT,Schipluiden,Midden-Delfland,Zuid-Holland,VBO,4.321119,51.975404
Wilgenlaan,14,,,2636HT,Schipluiden,Midden-Delfland,Zuid-Holland,VBO,4.321524,51.975161
Wilgenlaan,15,,,2636HT,Schipluiden,Midden-Delfland,Zuid-Holland,VBO,4.321054,51.975547
Wilgenlaan,16,,,2636HT,Schipluiden,Midden-Delfland,Zuid-Holland,VBO,4.321433,51.975401
Wilgenlaan,18,,,2636HT,Schipluiden,Midden-Delfland,Zuid-Holland,VBO,4.321342,51.975606
Kasteellaan,2,,,2636HV,Schipluiden,Midden-Delfland,Zuid-Holland,VBO,4.318435,51.976088
Kasteellaan,4,,,2636HV,Schipluiden,Midden-Delfland,Zuid-Holland,VBO,4.318466,51.976110
Kasteellaan,6,,,2636HV,Schipluiden,Midden-Delfland,Zuid-Holland,VBO,4.318498,51.976133
Kasteellaan,8,,,2636HV,Schipluiden,Midden-Delfland,Zuid-Holland,VBO,4.318530,51.976155
Kasteellaan,10,,,2636HV,Schipluiden,Midden-Delfland,Zuid-Holland,VBO,4.318565,51.976181
Kasteellaan,12,,,2636HV,Schipluiden,Midden-Delfland,Zuid-Holland,VBO,4.318598,51.976204
Kasteellaan,14,,,2636HV,Schipluiden,Midden-Delfland,Zuid-Holland,VBO,4.318630,51.976227
Kasteellaan,16,,,2636HV,Schipluiden,Midden-Delfland,Zuid-Holland,VBO,4.318661,51.976249
Kasteellaan,18,,,2636HV,Schipluiden,Midden-Delfland,Zuid-Holland,VBO,4.318693,51.976272
Kasteellaan,20,,,2636HV,Schipluiden,Midden-Delfland,Zuid-Holland,VBO,4.318726,51.976295
Kasteellaan,22,,,2636HV,Schipluiden,Midden-Delfland,Zuid-Holland,VBO,4.318759,51.976318
Kasteellaan,24,,,2636HV,Schipluiden,Midden-Delfland,Zuid-Holland,VBO,4.318791,51.976341
Kasteellaan,26,,,2636HV,Schipluiden,Midden-Delfland,Zuid-Holland,VBO,4.318822,51.976364
Kasteellaan,28,,,2636HV,Schipluiden,Midden-Delfland,Zuid-Holland,VBO,4.318854,51.976386
Kasteellaan,30,,,2636HV,Schipluiden,Midden-Delfland,Zuid-Holland,VBO,4.318739,51.976657
Kasteellaan,32,,,2636HV,Schipluiden,Midden-Delfland,Zuid-Holland,VBO,4.318681,51.976928
Kasteellaan,34,,,2636HV,Schipluiden,Midden-Delfland,Zuid-Holland,VBO,4.318668,51.976957
Kasteellaan,36,,,2636HV,Schipluiden,Midden-Delfland,Zuid-Holland,VBO,4.318655,51.976986
Kasteellaan,38,,,2636HV,Schipluiden,Midden-Delfland,Zuid-Holland,VBO,4.318641,51.977014
Kasteellaan,40,,,2636HV,Schipluiden,Midden-Delfland,Zuid-Holland,VBO,4.318629,51.977042
Kasteellaan,42,,,2636HV,Schipluiden,Midden-Delfland,Zuid-Holland,VBO,4.318615,51.977072
Kasteellaan,44,,,2636HV,Schipluiden,Midden-Delfland,Zuid-Holland,VBO,4.318602,51.977101
Kasteellaan,46,,,2636HV,Schipluiden,Midden-Delfland,Zuid-Holland,VBO,4.318589,51.977130
Kasteellaan,48,,,2636HV,Schipluiden,Midden-Delfland,Zuid-Holland,VBO,4.318575,51.977159
Kasteellaan,50,,,2636HV,Schipluiden,Midden-Delfland,Zuid-Holland,VBO,4.318563,51.977187
Kasteellaan,52,,,2636HV,Schipluiden,Midden-Delfland,Zuid-Holland,VBO,4.318798,51.977215
Kasteellaan,54,,,2636HV,Schipluiden,Midden-Delfland,Zuid-Holland,VBO,4.318870,51.977227
Kasteellaan,56,,,2636HV,Schipluiden,Midden-Delfland,Zuid-Holland,VBO,4.318943,51.977240
Kasteellaan,58,,,2636HV,Schipluiden,Midden-Delfland,Zuid-Holland,VBO,4.319015,51.977252
Kasteellaan,60,,,2636HV,Schipluiden,Midden-Delfland,Zuid-Holland,VBO,4.319085,51.977264
Kasteellaan,62,,,2636HV,Schipluiden,Midden-Delfland,Zuid-Holland,VBO,4.319104,51.977025
Kasteellaan,64,,,2636HV,Schipluiden,Midden-Delfland,Zuid-Holland,VBO,4.319175,51.977038
Kasteellaan,66,,,2636HV,Schipluiden,Midden-Delfland,Zuid-Holland,VBO,4.319247,51.977050
Kasteellaan,68,,,2636HV,Schipluiden,Midden-Delfland,Zuid-Holland,VBO,4.319319,51.977063
Kasteellaan,70,,,2636HV,Schipluiden,Midden-Delfland,Zuid-Holland,VBO,4.319389,51.977075
Kasteellaan,72,,,2636HV,Schipluiden,Midden-Delfland,Zuid-Holland,VBO,4.319463,51.977088
Kasteellaan,74,,,2636HV,Schipluiden,Midden-Delfland,Zuid-Holland,VBO,4.319534,51.977100
Kasteellaan,76,,,2636HV,Schipluiden,Midden-Delfland,Zuid-Holland,VBO,4.319606,51.977113
Kasteellaan,78,,,2636HV,Schipluiden,Midden-Delfland,Zuid-Holland,VBO,4.319975,51.977199
Kasteellaan,80,,,2636HV,Schipluiden,Midden-Delfland,Zuid-Holland,VBO,4.320047,51.977212
Kasteellaan,82,,,2636HV,Schipluiden,Midden-Delfland,Zuid-Holland,VBO,4.320123,51.977225
Kasteellaan,84,,,2636HV,Schipluiden,Midden-Delfland,Zuid-Holland,VBO,4.320197,51.977238
Kasteellaan,86,,,2636HV,Schipluiden,Midden-Delfland,Zuid-Holland,VBO,4.320271,51.977251
Kasteellaan,88,,,2636HV,Schipluiden,Midden-Delfland,Zuid-Holland,VBO,4.320345,51.977263
Kasteellaan,90,,,2636HV,Schipluiden,Midden-Delfland,Zuid-Holland,VBO,4.320417,51.977276
Kasteellaan,92,,,2636HV,Schipluiden,Midden-Delfland,Zuid-Holland,VBO,4.320493,51.977289
Kasteellaan,1,,,2636HW,Schipluiden,Midden-Delfland,Zuid-Holland,VBO,4.318266,51.976670
Kasteellaan,3,,,2636HW,Schipluiden,Midden-Delfland,Zuid-Holland,VBO,4.318302,51.976611
Kasteellaan,5,,,2636HW,Schipluiden,Midden-Delfland,Zuid-Holland,VBO,4.318327,51.976573
Kasteellaan,9,,,2636HW,Schipluiden,Midden-Delfland,Zuid-Holland,VBO,4.317554,51.977001
Kasteellaan,13,,,2636HW,Schipluiden,Midden-Delfland,Zuid-Holland,VBO,4.319533,51.977331
Kasteellaan,15,,,2636HW,Schipluiden,Midden-Delfland,Zuid-Holland,VBO,4.319604,51.977344
Kasteellaan,17,,,2636HW,Schipluiden,Midden-Delfland,Zuid-Holland,VBO,4.319676,51.977356
Kasteellaan,19,,,2636HW,Schipluiden,Midden-Delfland,Zuid-Holland,VBO,4.319747,51.977369
Kasteellaan,21,,,2636HW,Schipluiden,Midden-Delfland,Zuid-Holland,VBO,4.319818,51.977382
Kasteellaan,23,,,2636HW,Schipluiden,Midden-Delfland,Zuid-Holland,VBO,4.319886,51.977394
Kasteellaan,25,,,2636HW,Schipluiden,Midden-Delfland,Zuid-Holland,VBO,4.319957,51.977407
Kasteellaan,27,,,2636HW,Schipluiden,Midden-Delfland,Zuid-Holland,VBO,4.320029,51.977420
Anna van Raesfeltstraat,1,,,2636HX,Schipluiden,Midden-Delfland,Zuid-Holland,VBO,4.319972,51.977613
Anna van Raesfeltstraat,2,,,2636HX,Schipluiden,Midden-Delfland,Zuid-Holland,VBO,4.320395,51.977498
Anna van Raesfeltstraat,3,,,2636HX,Schipluiden,Midden-Delfland,Zuid-Holland,VBO,4.319953,51.977656
Anna van Raesfeltstraat,4,,,2636HX,Schipluiden,Midden-Delfland,Zuid-Holland,VBO,4.320358,51.977581
Anna van Raesfeltstraat,5,,,2636HX,Schipluiden,Midden-Delfland,Zuid-Holland,VBO,4.319933,51.977700
Anna van Raesfeltstraat,6,,,2636HX,Schipluiden,Midden-Delfland,Zuid-Holland,VBO,4.320320,51.977664
Anna van Raesfeltstraat,7,,,2636HX,Schipluiden,Midden-Delfland,Zuid-Holland,VBO,4.319913,51.977744
Anna van Raesfeltstraat,8,,,2636HX,Schipluiden,Midden-Delfland,Zuid-Holland,VBO,4.320282,51.977747
Anna van Raesfeltstraat,9,,,2636HX,Schipluiden,Midden-Delfland,Zuid-Holland,VBO,4.319892,51.977789
Anna van Raesfeltstraat,10,,,2636HX,Schipluiden,Midden-Delfland,Zuid-Holland,VBO,4.320243,51.977834
Anna van Raesfeltstraat,11,,,2636HX,Schipluiden,Midden-Delfland,Zuid-Holland,VBO,4.319873,51.977831
Anna van Raesfeltstraat,12,,,2636HX,Schipluiden,Midden-Delfland,Zuid-Holland,VBO,4.320205,51.977918
Anna van Raesfeltstraat,13,,,2636HX,Schipluiden,Midden-Delfland,Zuid-Holland,VBO,4.319854,51.977873
Anna van Raesfeltstraat,14,,,2636HX,Schipluiden,Midden-Delfland,Zuid-Holland,VBO,4.320167,51.978001
Anna van Raesfeltstraat,15,,,2636HX,Schipluiden,Midden-Delfland,Zuid-Holland,VBO,4.319834,51.977917
Anna van Raesfeltstraat,16,,,2636HX,Schipluiden,Midden-Delfland,Zuid-Holland,VBO,4.320129,51.978084
Anna van Raesfeltstraat,17,,,2636HX,Schipluiden,Midden-Delfland,Zuid-Holland,VBO,4.319398,51.978708
Anna van Raesfeltstraat,18,,,2636HX,Schipluiden,Midden-Delfland,Zuid-Holland,VBO,4.320092,51.978167
Anna van Raesfeltstraat,19,,,2636HX,Schipluiden,Midden-Delfland,Zuid-Holland,VBO,4.319367,51.978778
Anna van Raesfeltstraat,20,,,2636HX,Schipluiden,Midden-Delfland,Zuid-Holland,VBO,4.320053,51.978252
Anna van Raesfeltstraat,21,,,2636HX,Schipluiden,Midden-Delfland,Zuid-Holland,VBO,4.319387,51.978873
Anna van Raesfeltstraat,22,,,2636HX,Schipluiden,Midden-Delfland,Zuid-Holland,VBO,4.319936,51.978501
Anna van Raesfeltstraat,23,,,2636HX,Schipluiden,Midden-Delfland,Zuid-Holland,VBO,4.319375,51.978913
Anna van Raesfeltstraat,24,,,2636HX,Schipluiden,Midden-Delfland,Zuid-Holland,VBO,4.319898,51.978585
Anna van Raesfeltstraat,25,,,2636HX,Schipluiden,Midden-Delfland,Zuid-Holland,VBO,4.319288,51.978997
Anna van Raesfeltstraat,26,,,2636HX,Schipluiden,Midden-Delfland,Zuid-Holland,VBO,4.319860,51.978669
Anna van Raesfeltstraat,27,,,2636HX,Schipluiden,Midden-Delfland,Zuid-Holland,VBO,4.319258,51.979064
Anna van Raesfeltstraat,28,,,2636HX,Schipluiden,Midden-Delfland,Zuid-Holland,VBO,4.319821,51.978753
Anna van Raesfeltstraat,29,,,2636HX,Schipluiden,Midden-Delfland,Zuid-Holland,VBO,4.319226,51.979131
Anna van Raesfeltstraat,30,,,2636HX,Schipluiden,Midden-Delfland,Zuid-Holland,VBO,4.319784,51.978836
Anna van Raesfeltstraat,31,,,2636HX,Schipluiden,Midden-Delfland,Zuid-Holland,VBO,4.319182,51.979200
Anna van Raesfeltstraat,32,,,2636HX,Schipluiden,Midden-Delfland,Zuid-Holland,VBO,4.319745,51.978922
Anna van Raesfeltstraat,33,,,2636HX,Schipluiden,Midden-Delfland,Zuid-Holland,VBO,4.319174,51.979253
Anna van Raesfeltstraat,34,,,2636HX,Schipluiden,Midden-Delfland,Zuid-Holland,VBO,4.319706,51.979006
Anna van Raesfeltstraat,35,,,2636HX,Schipluiden,Midden-Delfland,Zuid-Holland,VBO,4.318869,51.979861
Anna van Raesfeltstraat,36,,,2636HX,Schipluiden,Midden-Delfland,Zuid-Holland,VBO,4.319668,51.979090
Anna van Raesfeltstraat,37,,,2636HX,Schipluiden,Midden-Delfland,Zuid-Holland,VBO,4.318785,51.980099
Anna van Raesfeltstraat,38,,,2636HX,Schipluiden,Midden-Delfland,Zuid-Holland,VBO,4.319572,51.979223
Anna van Raesfeltstraat,40,,,2636HX,Schipluiden,Midden-Delfland,Zuid-Holland,VBO,4.319521,51.979336
Anna van Raesfeltstraat,42,,,2636HX,Schipluiden,Midden-Delfland,Zuid-Holland,VBO,4.319441,51.979516
Abtsrechtseweg,1,,,2636HZ,Schipluiden,Midden-Delfland,Zuid-Holland,VBO,4.328168,51.979148
Windrecht,2,,,2636JA,Schipluiden,Midden-Delfland,Zuid-Holland,VBO,4.311644,51.974405
Windrecht,4,,,2636JA,Schipluiden,Midden-Delfland,Zuid-Holland,VBO,4.311662,51.974377
Windrecht,6,,,2636JA,Schipluiden,Midden-Delfland,Zuid-Holland,VBO,4.311512,51.974335
Windrecht,8,,,2636JA,Schipluiden,Midden-Delfland,Zuid-Holland,VBO,4.311512,51.974335
Windrecht,10,,,2636JA,Schipluiden,Midden-Delfland,Zuid-Holland,VBO,4.311512,51.974335
Windrecht,12,,,2636JA,Schipluiden,Midden-Delfland,Zuid-Holland,VBO,4.311864,51.974534
Windrecht,14,,,2636JA,Schipluiden,Midden-Delfland,Zuid-Holland,VBO,4.311698,51.974500
Windrecht,16,,,2636JA,Schipluiden,Midden-Delfland,Zuid-Holland,VBO,4.311512,51.974335
Windrecht,18,,,2636JA,Schipluiden,Midden-Delfland,Zuid-Holland,VBO,4.311512,51.974335
Windrecht,20,,,2636JA,Schipluiden,Midden-Delfland,Zuid-Holland,VBO,4.311875,51.974512
Windrecht,22,,,2636JA,Schipluiden,Midden-Delfland,Zuid-Holland,VBO,4.311708,51.974477
Windrecht,24,,,2636JA,Schipluiden,Midden-Delfland,Zuid-Holland,VBO,4.311512,51.974335
Windrecht,26,,,2636JA,Schipluiden,Midden-Delfland,Zuid-Holland,VBO,4.311512,51.974335
Windrecht,28,,,2636JA,Schipluiden,Midden-Delfland,Zuid-Holland,VBO,4.311885,51.974493
Windrecht,30,,,2636JA,Schipluiden,Midden-Delfland,Zuid-Holland,VBO,4.311720,51.974457
Windrecht,32,,,2636JA,Schipluiden,Midden-Delfland,Zuid-Holland,VBO,4.311569,51.974423
Windrecht,34,,,2636JA,Schipluiden,Midden-Delfland,Zuid-Holland,VBO,4.311459,51.972451
Windrecht,36,,,2636JA,Schipluiden,Midden-Delfland,Zuid-Holland,VBO,4.311526,51.972372
Windrecht,38,,,2636JA,Schipluiden,Midden-Delfland,Zuid-Holland,VBO,4.311588,51.972287
Windrecht,40,,,2636JA,Schipluiden,Midden-Delfland,Zuid-Holland,VBO,4.311648,51.972211
Windrecht,42,,,2636JA,Schipluiden,Midden-Delfland,Zuid-Holland,VBO,4.311713,51.972127
Windrecht,1,,,2636JB,Schipluiden,Midden-Delfland,Zuid-Holland,VBO,4.311949,51.974184
Windrecht,3,,,2636JB,Schipluiden,Midden-Delfland,Zuid-Holland,VBO,4.311877,51.974168
Windrecht,5,,,2636JB,Schipluiden,Midden-Delfland,Zuid-Holland,VBO,4.311802,51.974151
Windrecht,7,,,2636JB,Schipluiden,Midden-Delfland,Zuid-Holland,VBO,4.311727,51.974135
Windrecht,9,,,2636JB,Schipluiden,Midden-Delfland,Zuid-Holland,VBO,4.311652,51.974118
Windrecht,11,,,2636JB,Schipluiden,Midden-Delfland,Zuid-Holland,VBO,4.311580,51.974103
Windrecht,13,,,2636JB,Schipluiden,Midden-Delfland,Zuid-Holland,VBO,4.311509,51.974087
Windrecht,15,,,2636JB,Schipluiden,Midden-Delfland,Zuid-Holland,VBO,4.311433,51.974071
Windrecht,17,,,2636JB,Schipluiden,Midden-Delfland,Zuid-Holland,VBO,4.311383,51.973876
Windrecht,19,,,2636JB,Schipluiden,Midden-Delfland,Zuid-Holland,VBO,4.311383,51.973820
Windrecht,21,,,2636JB,Schipluiden,Midden-Delfland,Zuid-Holland,VBO,4.311346,51.973662
Windrecht,23,,,2636JB,Schipluiden,Midden-Delfland,Zuid-Holland,VBO,4.311432,51.973597
Windrecht,25,,,2636JB,Schipluiden,Midden-Delfland,Zuid-Holland,VBO,4.311512,51.973517
Windrecht,27,,,2636JB,Schipluiden,Midden-Delfland,Zuid-Holland,VBO,4.311574,51.973436
Windrecht,29,,,2636JB,Schipluiden,Midden-Delfland,Zuid-Holland,VBO,4.311622,51.973351
Windrecht,31,,,2636JB,Schipluiden,Midden-Delfland,Zuid-Holland,VBO,4.311656,51.973104
Windrecht,33,,,2636JB,Schipluiden,Midden-Delfland,Zuid-Holland,VBO,4.311648,51.973009
Windrecht,35,,,2636JB,Schipluiden,Midden-Delfland,Zuid-Holland,VBO,4.311622,51.972929
Windrecht,37,,,2636JB,Schipluiden,Midden-Delfland,Zuid-Holland,VBO,4.311584,51.972844
Windrecht,39,,,2636JB,Schipluiden,Midden-Delfland,Zuid-Holland,VBO,4.311665,51.972670
Windrecht,41,,,2636JB,Schipluiden,Midden-Delfland,Zuid-Holland,VBO,4.311703,51.972617
Windrecht,43,,,2636JB,Schipluiden,Midden-Delfland,Zuid-Holland,VBO,4.311773,51.972523
Windrecht,45,,,2636JB,Schipluiden,Midden-Delfland,Zuid-Holland,VBO,4.311810,51.972473
Windrecht,47,,,2636JB,Schipluiden,Midden-Delfland,Zuid-Holland,VBO,4.311881,51.972376
Windrecht,49,,,2636JB,Schipluiden,Midden-Delfland,Zuid-Holland,VBO,4.311918,51.972326
Windrecht,51,,,2636JB,Schipluiden,Midden-Delfland,Zuid-Holland,VBO,4.311976,51.972248
Windrecht,53,,,2636JC,Schipluiden,Midden-Delfland,Zuid-Holland,VBO,4.312286,51.972295
Windrecht,55,,,2636JC,Schipluiden,Midden-Delfland,Zuid-Holland,VBO,4.312363,51.972304
Windrecht,57,,,2636JC,Schipluiden,Midden-Delfland,Zuid-Holland,VBO,4.312441,51.972313
Windrecht,59,,,2636JC,Schipluiden,Midden-Delfland,Zuid-Holland,VBO,4.312518,51.972321
Windrecht,61,,,2636JC,Schipluiden,Midden-Delfland,Zuid-Holland,VBO,4.312597,51.972319
Windrecht,63,,,2636JC,Schipluiden,Midden-Delfland,Zuid-Holland,VBO,4.312683,51.972333
Windrecht,65,,,2636JC,Schipluiden,Midden-Delfland,Zuid-Holland,VBO,4.312762,51.972334
Windrecht,67,,,2636JC,Schipluiden,Midden-Delfland,Zuid-Holland,VBO,4.312840,51.972334
Windrecht,69,,,2636JC,Schipluiden,Midden-Delfland,Zuid-Holland,VBO,4.312919,51.972334
Windrecht,71,,,2636JC,Schipluiden,Midden-Delfland,Zuid-Holland,VBO,4.313443,51.972384
Windrecht,73,,,2636JC,Schipluiden,Midden-Delfland,Zuid-Holland,VBO,4.313507,51.972398
Windrecht,75,,,2636JC,Schipluiden,Midden-Delfland,Zuid-Holland,VBO,4.313575,51.972412
Windrecht,77,,,2636JC,Schipluiden,Midden-Delfland,Zuid-Holland,VBO,4.313643,51.972426
Windrecht,79,,,2636JC,Schipluiden,Midden-Delfland,Zuid-Holland,VBO,4.313710,51.972440
Windrecht,81,,,2636JC,Schipluiden,Midden-Delfland,Zuid-Holland,VBO,4.313782,51.972455
Windrecht,83,,,2636JC,Schipluiden,Midden-Delfland,Zuid-Holland,VBO,4.313458,51.972346
Windrecht,85,,,2636JC,Schipluiden,Midden-Delfland,Zuid-Holland,VBO,4.313516,51.972359
Windrecht,87,,,2636JC,Schipluiden,Midden-Delfland,Zuid-Holland,VBO,4.313574,51.972371
Windrecht,89,,,2636JC,Schipluiden,Midden-Delfland,Zuid-Holland,VBO,4.313631,51.972384
Windrecht,91,,,2636JC,Schipluiden,Midden-Delfland,Zuid-Holland,VBO,4.313693,51.972398
Windrecht,93,,,2636JC,Schipluiden,Midden-Delfland,Zuid-Holland,VBO,4.313747,51.972409
Windrecht,95,,,2636JC,Schipluiden,Midden-Delfland,Zuid-Holland,VBO,4.313805,51.972422
Bovenkruier,1,,,2636JD,Schipluiden,Midden-Delfland,Zuid-Holland,VBO,4.312075,51.973894
Bovenkruier,2,,,2636JD,Schipluiden,Midden-Delfland,Zuid-Holland,VBO,4.312006,51.973878
Bovenkruier,3,,,2636JD,Schipluiden,Midden-Delfland,Zuid-Holland,VBO,4.311940,51.973864
Bovenkruier,4,,,2636JD,Schipluiden,Midden-Delfland,Zuid-Holland,VBO,4.311874,51.973850
Bovenkruier,5,,,2636JD,Schipluiden,Midden-Delfland,Zuid-Holland,VBO,4.311808,51.973835
Bovenkruier,6,,,2636JD,Schipluiden,Midden-Delfland,Zuid-Holland,VBO,4.311743,51.973821
Bovenkruier,7,,,2636JD,Schipluiden,Midden-Delfland,Zuid-Holland,VBO,4.311771,51.973718
Bovenkruier,8,,,2636JD,Schipluiden,Midden-Delfland,Zuid-Holland,VBO,4.311795,51.973675
Bovenkruier,9,,,2636JD,Schipluiden,Midden-Delfland,Zuid-Holland,VBO,4.311882,51.973601
Bovenkruier,10,,,2636JD,Schipluiden,Midden-Delfland,Zuid-Holland,VBO,4.311959,51.973606
Bovenkruier,11,,,2636JD,Schipluiden,Midden-Delfland,Zuid-Holland,VBO,4.312029,51.973610
Bovenkruier,12,,,2636JD,Schipluiden,Midden-Delfland,Zuid-Holland,VBO,4.312105,51.973614
Bovenkruier,13,,,2636JD,Schipluiden,Midden-Delfland,Zuid-Holland,VBO,4.312176,51.973618
Bovenkruier,14,,,2636JD,Schipluiden,Midden-Delfland,Zuid-Holland,VBO,4.312248,51.973623
Molengang,1,,,2636JE,Schipluiden,Midden-Delfland,Zuid-Holland,VBO,4.312560,51.973109
Molengang,2,,,2636JE,Schipluiden,Midden-Delfland,Zuid-Holland,VBO,4.312407,51.973330
Molengang,3,,,2636JE,Schipluiden,Midden-Delfland,Zuid-Holland,VBO,4.312474,51.973102
Molengang,4,,,2636JE,Schipluiden,Midden-Delfland,Zuid-Holland,VBO,4.312249,51.973325
Molengang,5,,,2636JE,Schipluiden,Midden-Delfland,Zuid-Holland,VBO,4.312309,51.973095
Molengang,6,,,2636JE,Schipluiden,Midden-Delfland,Zuid-Holland,VBO,4.312159,51.973325
Molengang,7,,,2636JE,Schipluiden,Midden-Delfland,Zuid-Holland,VBO,4.312217,51.973096
Molengang,8,,,2636JE,Schipluiden,Midden-Delfland,Zuid-Holland,VBO,4.311988,51.973325
Molengang,9,,,2636JE,Schipluiden,Midden-Delfland,Zuid-Holland,VBO,4.312050,51.973098
Molengang,10,,,2636JE,Schipluiden,Midden-Delfland,Zuid-Holland,VBO,4.311891,51.973324
Molengang,11,,,2636JE,Schipluiden,Midden-Delfland,Zuid-Holland,VBO,4.311961,51.973099
Korenmaat,1,,,2636JG,Schipluiden,Midden-Delfland,Zuid-Holland,VBO,4.312718,51.972782
Korenmaat,2,,,2636JG,Schipluiden,Midden-Delfland,Zuid-Holland,VBO,4.312643,51.972779
Korenmaat,3,,,2636JG,Schipluiden,Midden-Delfland,Zuid-Holland,VBO,4.312571,51.972776
Korenmaat,4,,,2636JG,Schipluiden,Midden-Delfland,Zuid-Holland,VBO,4.312500,51.972774
Korenmaat,5,,,2636JG,Schipluiden,Midden-Delfland,Zuid-Holland,VBO,4.312429,51.972771
Korenmaat,6,,,2636JG,Schipluiden,Midden-Delfland,Zuid-Holland,VBO,4.312146,51.972737
Korenmaat,7,,,2636JG,Schipluiden,Midden-Delfland,Zuid-Holland,VBO,4.312131,51.972694
Korenmaat,8,,,2636JG,Schipluiden,Midden-Delfland,Zuid-Holland,VBO,4.312182,51.972619
Korenmaat,9,,,2636JG,Schipluiden,Midden-Delfland,Zuid-Holland,VBO,4.312238,51.972592
Korenmaat,10,,,2636JG,Schipluiden,Midden-Delfland,Zuid-Holland,VBO,4.312537,51.972628
Korenmaat,11,,,2636JG,Schipluiden,Midden-Delfland,Zuid-Holland,VBO,4.312599,51.972634
Korenmaat,12,,,2636JG,Schipluiden,Midden-Delfland,Zuid-Holland,VBO,4.312670,51.972644
Korenmaat,13,,,2636JG,Schipluiden,Midden-Delfland,Zuid-Holland,VBO,4.312741,51.972654
Korenmaat,14,,,2636JG,Schipluiden,Midden-Delfland,Zuid-Holland,VBO,4.312806,51.972662
Lotsweg,3,t,,2636JH,Schipluiden,Midden-Delfland,Zuid-Holland,VBO,4.312826,51.999735
Lotsweg,3,,,2636JH,Schipluiden,Midden-Delfland,Zuid-Holland,VBO,4.314029,51.997948
Veldvreugd,1,a,,2636JJ,Schipluiden,Midden-Delfland,Zuid-Holland,VBO,4.313862,51.971913
Veldvreugd,1,b,,2636JJ,Schipluiden,Midden-Delfland,Zuid-Holland,VBO,4.313862,51.971913
Veldvreugd,1,t,,2636JJ,Schipluiden,Midden-Delfland,Zuid-Holland,VBO,4.313492,51.971875
Veldvreugd,1,,,2636JJ,Schipluiden,Midden-Delfland,Zuid-Holland,VBO,4.313862,51.971913
Veldvreugd,2,a,,2636JJ,Schipluiden,Midden-Delfland,Zuid-Holland,VBO,4.313862,51.971913
Veldvreugd,2,b,,2636JJ,Schipluiden,Midden-Delfland,Zuid-Holland,VBO,4.313862,51.971913
Veldvreugd,2,c,,2636JJ,Schipluiden,Midden-Delfland,Zuid-Holland,VBO,4.313862,51.971913
Veldvreugd,2,d,,2636JJ,Schipluiden,Midden-Delfland,Zuid-Holland,VBO,4.313862,51.971913
Veldvreugd,2,e,,2636JJ,Schipluiden,Midden-Delfland,Zuid-Holland,VBO,4.313862,51.971913
Veldvreugd,2,f,,2636JJ,Schipluiden,Midden-Delfland,Zuid-Holland,VBO,4.313862,51.971913
Veldvreugd,3,a,,2636JJ,Schipluiden,Midden-Delfland,Zuid-Holland,VBO,4.313862,51.971913
Veldvreugd,3,b,,2636JJ,Schipluiden,Midden-Delfland,Zuid-Holland,VBO,4.313862,51.971913
Veldvreugd,3,c,,2636JJ,Schipluiden,Midden-Delfland,Zuid-Holland,VBO,4.313862,51.971913
Veldvreugd,3,d,,2636JJ,Schipluiden,Midden-Delfland,Zuid-Holland,VBO,4.313862,51.971913
Veldvreugd,4,,,2636JJ,Schipluiden,Midden-Delfland,Zuid-Holland,VBO,4.313877,51.971678
Veldvreugd,5,,,2636JJ,Schipluiden,Midden-Delfland,Zuid-Holland,VBO,4.313889,51.971621
Veldvreugd,6,,,2636JJ,Schipluiden,Midden-Delfland,Zuid-Holland,VBO,4.313908,51.971572
Veldvreugd,7,,,2636JJ,Schipluiden,Midden-Delfland,Zuid-Holland,VBO,4.313931,51.971519
Veldvreugd,8,,,2636JJ,Schipluiden,Midden-Delfland,Zuid-Holland,VBO,4.313955,51.971470
Veldvreugd,9,,,2636JJ,Schipluiden,Midden-Delfland,Zuid-Holland,VBO,4.313976,51.971415
Veldvreugd,15,a,122,2636JJ,Schipluiden,Midden-Delfland,Zuid-Holland,VBO,4.313131,51.971743
Veldvreugd,15,a,123,2636JJ,Schipluiden,Midden-Delfland,Zuid-Holland,VBO,4.313131,51.971743
Veldvreugd,15,a,124,2636JJ,Schipluiden,Midden-Delfland,Zuid-Holland,VBO,4.313131,51.971743
Veldvreugd,15,a,125,2636JJ,Schipluiden,Midden-Delfland,Zuid-Holland,VBO,4.313131,51.971743
Veldvreugd,15,a,126,2636JJ,Schipluiden,Midden-Delfland,Zuid-Holland,VBO,4.313131,51.971743
Veldvreugd,15,a,127,2636JJ,Schipluiden,Midden-Delfland,Zuid-Holland,VBO,4.313131,51.971743
Veldvreugd,15,a,128,2636JJ,Schipluiden,Midden-Delfland,Zuid-Holland,VBO,4.313131,51.971743
Veldvreugd,15,a,129,2636JJ,Schipluiden,Midden-Delfland,Zuid-Holland,VBO,4.313131,51.971743
Veldvreugd,15,a,130,2636JJ,Schipluiden,Midden-Delfland,Zuid-Holland,VBO,4.313131,51.971743
Veldvreugd,15,a,131,2636JJ,Schipluiden,Midden-Delfland,Zuid-Holland,VBO,4.313131,51.971743
Veldvreugd,15,a,132,2636JJ,Schipluiden,Midden-Delfland,Zuid-Holland,VBO,4.313131,51.971743
Veldvreugd,15,a,133,2636JJ,Schipluiden,Midden-Delfland,Zuid-Holland,VBO,4.313131,51.971743
Veldvreugd,15,a,134,2636JJ,Schipluiden,Midden-Delfland,Zuid-Holland,VBO,4.313131,51.971743
Veldvreugd,15,a,135,2636JJ,Schipluiden,Midden-Delfland,Zuid-Holland,VBO,4.313131,51.971743
Veldvreugd,15,a,136,2636JJ,Schipluiden,Midden-Delfland,Zuid-Holland,VBO,4.313131,51.971743
Veldvreugd,15,a,137,2636JJ,Schipluiden,Midden-Delfland,Zuid-Holland,VBO,4.313131,51.971743
Veldvreugd,15,a,208,2636JJ,Schipluiden,Midden-Delfland,Zuid-Holland,VBO,4.313131,51.971743
Veldvreugd,15,a,209,2636JJ,Schipluiden,Midden-Delfland,Zuid-Holland,VBO,4.313131,51.971743
Veldvreugd,15,a,210,2636JJ,Schipluiden,Midden-Delfland,Zuid-Holland,VBO,4.313131,51.971743
Veldvreugd,15,a,211,2636JJ,Schipluiden,Midden-Delfland,Zuid-Holland,VBO,4.313131,51.971743
Veldvreugd,15,a,212,2636JJ,Schipluiden,Midden-Delfland,Zuid-Holland,VBO,4.313131,51.971743
Veldvreugd,15,a,213,2636JJ,Schipluiden,Midden-Delfland,Zuid-Holland,VBO,4.313131,51.971743
Veldvreugd,15,a,214,2636JJ,Schipluiden,Midden-Delfland,Zuid-Holland,VBO,4.313131,51.971743
Veldvreugd,15,a,215,2636JJ,Schipluiden,Midden-Delfland,Zuid-Holland,VBO,4.313131,51.971743
Veldvreugd,15,a,216,2636JJ,Schipluiden,Midden-Delfland,Zuid-Holland,VBO,4.313131,51.971743
Veldvreugd,15,a,217,2636JJ,Schipluiden,Midden-Delfland,Zuid-Holland,VBO,4.313131,51.971743
Veldvreugd,15,a,218,2636JJ,Schipluiden,Midden-Delfland,Zuid-Holland,VBO,4.313131,51.971743
Veldvreugd,15,a,219,2636JJ,Schipluiden,Midden-Delfland,Zuid-Holland,VBO,4.313131,51.971743
Veldvreugd,15,a,220,2636JJ,Schipluiden,Midden-Delfland,Zuid-Holland,VBO,4.313131,51.971743
Veldvreugd,15,a,221,2636JJ,Schipluiden,Midden-Delfland,Zuid-Holland,VBO,4.313131,51.971743
Veldvreugd,15,a,222,2636JJ,Schipluiden,Midden-Delfland,Zuid-Holland,VBO,4.313131,51.971743
Veldvreugd,15,a,223,2636JJ,Schipluiden,Midden-Delfland,Zuid-Holland,VBO,4.313131,51.971743
Veldvreugd,15,b,119,2636JJ,Schipluiden,Midden-Delfland,Zuid-Holland,VBO,4.312686,51.971674
Veldvreugd,15,b,120,2636JJ,Schipluiden,Midden-Delfland,Zuid-Holland,VBO,4.312686,51.971674
Veldvreugd,15,b,121,2636JJ,Schipluiden,Midden-Delfland,Zuid-Holland,VBO,4.312686,51.971674
Veldvreugd,15,b,201,2636JJ,Schipluiden,Midden-Delfland,Zuid-Holland,VBO,4.312686,51.971674
Veldvreugd,15,b,202,2636JJ,Schipluiden,Midden-Delfland,Zuid-Holland,VBO,4.312686,51.971674
Veldvreugd,15,b,203,2636JJ,Schipluiden,Midden-Delfland,Zuid-Holland,VBO,4.312686,51.971674
Veldvreugd,15,b,204,2636JJ,Schipluiden,Midden-Delfland,Zuid-Holland,VBO,4.312686,51.971674
Veldvreugd,15,b,205,2636JJ,Schipluiden,Midden-Delfland,Zuid-Holland,VBO,4.312686,51.971674
Veldvreugd,15,b,206,2636JJ,Schipluiden,Midden-Delfland,Zuid-Holland,VBO,4.312686,51.971674
Veldvreugd,15,b,207,2636JJ,Schipluiden,Midden-Delfland,Zuid-Holland,VBO,4.312686,51.971674
Veldvreugd,15,c,001,2636JJ,Schipluiden,Midden-Delfland,Zuid-Holland,VBO,4.312434,51.971212
Veldvreugd,15,c,002,2636JJ,Schipluiden,Midden-Delfland,Zuid-Holland,VBO,4.312434,51.971212
Veldvreugd,15,c,003,2636JJ,Schipluiden,Midden-Delfland,Zuid-Holland,VBO,4.312434,51.971212
Veldvreugd,15,c,004,2636JJ,Schipluiden,Midden-Delfland,Zuid-Holland,VBO,4.312434,51.971212
Veldvreugd,15,c,005,2636JJ,Schipluiden,Midden-Delfland,Zuid-Holland,VBO,4.312434,51.971212
Veldvreugd,15,c,006,2636JJ,Schipluiden,Midden-Delfland,Zuid-Holland,VBO,4.312434,51.971212
Veldvreugd,15,c,007,2636JJ,Schipluiden,Midden-Delfland,Zuid-Holland,VBO,4.312434,51.971212
Veldvreugd,15,c,008,2636JJ,Schipluiden,Midden-Delfland,Zuid-Holland,VBO,4.312434,51.971212
Veldvreugd,15,c,009,2636JJ,Schipluiden,Midden-Delfland,Zuid-Holland,VBO,4.312434,51.971212
Veldvreugd,15,c,010,2636JJ,Schipluiden,Midden-Delfland,Zuid-Holland,VBO,4.312434,51.971212
Veldvreugd,15,c,011,2636JJ,Schipluiden,Midden-Delfland,Zuid-Holland,VBO,4.312434,51.971212
Veldvreugd,15,c,012,2636JJ,Schipluiden,Midden-Delfland,Zuid-Holland,VBO,4.312434,51.971212
Veldvreugd,15,c,013,2636JJ,Schipluiden,Midden-Delfland,Zuid-Holland,VBO,4.312434,51.971212
Veldvreugd,15,c,014,2636JJ,Schipluiden,Midden-Delfland,Zuid-Holland,VBO,4.312434,51.971212
Veldvreugd,15,c,015,2636JJ,Schipluiden,Midden-Delfland,Zuid-Holland,VBO,4.312434,51.971212
Veldvreugd,15,c,016,2636JJ,Schipluiden,Midden-Delfland,Zuid-Holland,VBO,4.312434,51.971212
Veldvreugd,15,c,101,2636JJ,Schipluiden,Midden-Delfland,Zuid-Holland,VBO,4.312434,51.971212
Veldvreugd,15,,,2636JJ,Schipluiden,Midden-Delfland,Zuid-Holland,VBO,4.313131,51.971743
Veldvreugd,16,,,2636JJ,Schipluiden,Midden-Delfland,Zuid-Holland,VBO,4.313224,51.971478
Veldvreugd,17,,,2636JJ,Schipluiden,Midden-Delfland,Zuid-Holland,VBO,4.313224,51.971478
Veldvreugd,18,,,2636JJ,Schipluiden,Midden-Delfland,Zuid-Holland,VBO,4.312102,51.971239
Rozemond,1,,,2636JK,Schipluiden,Midden-Delfland,Zuid-Holland,VBO,4.314760,51.971218
Rozemond,2,,,2636JK,Schipluiden,Midden-Delfland,Zuid-Holland,VBO,4.314379,51.971985
Rozemond,3,,,2636JK,Schipluiden,Midden-Delfland,Zuid-Holland,VBO,4.313551,51.970445
Rozemond,4,,,2636JK,Schipluiden,Midden-Delfland,Zuid-Holland,VBO,4.314394,51.971944
Rozemond,6,,,2636JK,Schipluiden,Midden-Delfland,Zuid-Holland,VBO,4.314415,51.971895
Rozemond,8,,,2636JK,Schipluiden,Midden-Delfland,Zuid-Holland,VBO,4.314436,51.971848
Rozemond,10,,,2636JK,Schipluiden,Midden-Delfland,Zuid-Holland,VBO,4.314414,51.971766
Rozemond,12,,,2636JK,Schipluiden,Midden-Delfland,Zuid-Holland,VBO,4.314442,51.971713
Rozemond,14,,,2636JK,Schipluiden,Midden-Delfland,Zuid-Holland,VBO,4.314455,51.971663
Rozemond,16,,,2636JK,Schipluiden,Midden-Delfland,Zuid-Holland,VBO,4.314478,51.971609
Rozemond,18,,,2636JK,Schipluiden,Midden-Delfland,Zuid-Holland,VBO,4.314497,51.971556
Rozemond,20,,,2636JK,Schipluiden,Midden-Delfland,Zuid-Holland,VBO,4.314523,51.971507
Schieweg,170,,,2636KA,Schipluiden,Midden-Delfland,Zuid-Holland,VBO,4.385279,51.971920
Schieweg,172,,,2636KA,Schipluiden,Midden-Delfland,Zuid-Holland,VBO,4.385206,51.971910
Schieweg,174,,,2636KA,Schipluiden,Midden-Delfland,Zuid-Holland,VBO,4.385120,51.971852
Schieweg,176,,,2636KA,Schipluiden,Midden-Delfland,Zuid-Holland,VBO,4.386207,51.971220
Schieweg,178,,,2636KA,Schipluiden,Midden-Delfland,Zuid-Holland,VBO,4.385279,51.971073
Schieweg,180,,,2636KA,Schipluiden,Midden-Delfland,Zuid-Holland,VBO,4.386875,51.970266
Schieweg,182,,,2636KA,Schipluiden,Midden-Delfland,Zuid-Holland,VBO,4.388231,51.968771
Schieweg,184,,,2636KA,Schipluiden,Midden-Delfland,Zuid-Holland,VBO,4.388262,51.968696
Schieweg,186,,,2636KA,Schipluiden,Midden-Delfland,Zuid-Holland,VBO,4.388382,51.968541
Schieweg,188,,,2636KA,Schipluiden,Midden-Delfland,Zuid-Holland,VBO,4.388725,51.968181
Schieweg,190,,,2636KA,Schipluiden,Midden-Delfland,Zuid-Holland,VBO,4.388538,51.967855
Schieweg,192,,,2636KA,Schipluiden,Midden-Delfland,Zuid-Holland,VBO,4.390287,51.965650
Schieweg,196,,,2636KA,Schipluiden,Midden-Delfland,Zuid-Holland,VBO,4.389861,51.965641
Schieweg,198,,,2636KA,Schipluiden,Midden-Delfland,Zuid-Holland,VBO,4.389877,51.965589
Schieweg,202,,,2636KA,Schipluiden,Midden-Delfland,Zuid-Holland,VBO,4.389961,51.965484
Schieweg,204,,,2636KA,Schipluiden,Midden-Delfland,Zuid-Holland,VBO,4.389988,51.965451
Schieweg,208,,,2636KA,Schipluiden,Midden-Delfland,Zuid-Holland,VBO,4.390771,51.965435
Schieweg,210,,,2636KA,Schipluiden,Midden-Delfland,Zuid-Holland,VBO,4.390757,51.965449
Schieweg,212,,,2636KA,Schipluiden,Midden-Delfland,Zuid-Holland,VBO,4.390724,51.965435
Rotterdamseweg,480,,,2636KB,Schipluiden,Midden-Delfland,Zuid-Holland,VBO,4.393692,51.962869
Rotterdamseweg,221,a,,2636KC,Schipluiden,Midden-Delfland,Zuid-Holland,VBO,4.384719,51.975362
Rotterdamseweg,223,a,,2636KC,Schipluiden,Midden-Delfland,Zuid-Holland,VBO,4.391809,51.976062
Rotterdamseweg,223,a,,2636KC,Schipluiden,Midden-Delfland,Zuid-Holland,VBO,4.392145,51.976195
Rotterdamseweg,223,b,,2636KC,Schipluiden,Midden-Delfland,Zuid-Holland,VBO,4.392112,51.975973
Rotterdamseweg,223,,,2636KC,Schipluiden,Midden-Delfland,Zuid-Holland,VBO,4.392076,51.976131
Rotterdamseweg,225,,,2636KC,Schipluiden,Midden-Delfland,Zuid-Holland,VBO,4.386735,51.972569
Rotterdamseweg,227,,,2636KC,Schipluiden,Midden-Delfland,Zuid-Holland,VBO,4.389814,51.968368
Rotterdamseweg,229,a,,2636KC,Schipluiden,Midden-Delfland,Zuid-Holland,VBO,4.390620,51.967623
Rotterdamseweg,229,t,,2636KC,Schipluiden,Midden-Delfland,Zuid-Holland,VBO,4.390442,51.967703
Rotterdamseweg,229,,,2636KC,Schipluiden,Midden-Delfland,Zuid-Holland,VBO,4.390471,51.967647
Rotterdamseweg,235,a,,2636KC,Schipluiden,Midden-Delfland,Zuid-Holland,VBO,4.390689,51.967309
Rotterdamseweg,235,,,2636KC,Schipluiden,Midden-Delfland,Zuid-Holland,VBO,4.391375,51.967310
Rotterdamseweg,237,,,2636KC,Schipluiden,Midden-Delfland,Zuid-Holland,VBO,4.392697,51.965190
Rotterdamseweg,239,,,2636KC,Schipluiden,Midden-Delfland,Zuid-Holland,VBO,4.393084,51.964805
Rotterdamseweg,251,,,2636KC,Schipluiden,Midden-Delfland,Zuid-Holland,VBO,4.393628,51.963190
Rotterdamseweg,251,,,2636KC,Schipluiden,Midden-Delfland,Zuid-Holland,VBO,4.393727,51.963301
Rotterdamseweg,253,a,,2636KC,Schipluiden,Midden-Delfland,Zuid-Holland,VBO,4.394390,51.963601
Rotterdamseweg,253,,,2636KC,Schipluiden,Midden-Delfland,Zuid-Holland,VBO,4.393827,51.963166
Rotterdamseweg,259,,,2636KC,Schipluiden,Midden-Delfland,Zuid-Holland,VBO,4.393922,51.963056
Zwethpad,1,t,,2636KD,Schipluiden,Midden-Delfland,Zuid-Holland,VBO,4.393633,51.963438
Zwethpad,1,,,2636KD,Schipluiden,Midden-Delfland,Zuid-Holland,VBO,4.394467,51.964087
Zwethkade,1,,,2636KE,Schipluiden,Midden-Delfland,Zuid-Holland,VBO,4.394136,51.962812
Zwethkade,3,,,2636KE,Schipluiden,Midden-Delfland,Zuid-Holland,VBO,4.394248,51.962854
Zwethkade,18,,,2636KE,Schipluiden,Midden-Delfland,Zuid-Holland,VBO,4.394485,51.962949
Zwethkade,19,,,2636KE,Schipluiden,Midden-Delfland,Zuid-Holland,VBO,4.394555,51.962977
Zwethkade,22,,,2636KE,Schipluiden,Midden-Delfland,Zuid-Holland,VBO,4.394853,51.963087
Zwethkade,23,,,2636KE,Schipluiden,Midden-Delfland,Zuid-Holland,VBO,4.394962,51.963136
Zwethkade,25,a,,2636KE,Schipluiden,Midden-Delfland,Zuid-Holland,VBO,4.402104,51.966634
Zwethkade,25,,,2636KE,Schipluiden,Midden-Delfland,Zuid-Holland,VBO,4.402504,51.966382
