openbareruimtenaam,huisnummer,huisletter,huisnummertoevoeging,postcode,woonplaatsnaam,gemeentenaam,provincienaam,typeadresseerbaarobject,longitude,latitude
Provincialeweg Oost,11,a,,2851AA,Haastrecht,Krimpenerwaard,Zuid-Holland,VBO,4.846598,52.017179
Provincialeweg Oost,11,,,2851AA,Haastrecht,Krimpenerwaard,Zuid-Holland,VBO,4.847264,52.017469
Provincialeweg Oost,13,a,,2851AA,Haastrecht,Krimpenerwaard,Zuid-Holland,VBO,4.845355,52.016288
Provincialeweg Oost,13,b,,2851AA,Haastrecht,Krimpenerwaard,Zuid-Holland,VBO,4.846562,52.016480
Provincialeweg Oost,13,,,2851AA,Haastrecht,Krimpenerwaard,Zuid-Holland,VBO,4.846524,52.017268
Provincialeweg Oost,15,,,2851AA,Haastrecht,Krimpenerwaard,Zuid-Holland,VBO,4.844686,52.016208
Provincialeweg Oost,17,,,2851AA,Haastrecht,Krimpenerwaard,Zuid-Holland,VBO,4.843441,52.015618
Provincialeweg Oost,19,,,2851AA,Haastrecht,Krimpenerwaard,Zuid-Holland,VBO,4.842828,52.015660
Provincialeweg Oost,21,,,2851AA,Haastrecht,Krimpenerwaard,Zuid-Holland,VBO,4.841769,52.015323
Provincialeweg Oost,23,,,2851AA,Haastrecht,Krimpenerwaard,Zuid-Holland,VBO,4.840838,52.015193
Provincialeweg Oost,25,,,2851AA,Haastrecht,Krimpenerwaard,Zuid-Holland,VBO,4.840242,52.015089
Provincialeweg Oost,27,a,,2851AA,Haastrecht,Krimpenerwaard,Zuid-Holland,VBO,4.838238,52.014605
Provincialeweg Oost,27,,,2851AA,Haastrecht,Krimpenerwaard,Zuid-Holland,VBO,4.839693,52.014920
Provincialeweg Oost,29,a,,2851AA,Haastrecht,Krimpenerwaard,Zuid-Holland,VBO,4.837048,52.014525
Provincialeweg Oost,29,,,2851AA,Haastrecht,Krimpenerwaard,Zuid-Holland,VBO,4.837834,52.014519
Provincialeweg Oost,31,,,2851AA,Haastrecht,Krimpenerwaard,Zuid-Holland,VBO,4.836378,52.014319
Provincialeweg Oost,33,,,2851AA,Haastrecht,Krimpenerwaard,Zuid-Holland,VBO,4.835310,52.014596
Provincialeweg Oost,35,,,2851AA,Haastrecht,Krimpenerwaard,Zuid-Holland,VBO,4.833239,52.014798
Provincialeweg Oost,37,,,2851AA,Haastrecht,Krimpenerwaard,Zuid-Holland,VBO,4.829614,52.014610
Provincialeweg Oost,39,,,2851AA,Haastrecht,Krimpenerwaard,Zuid-Holland,VBO,4.828157,52.014657
Provincialeweg Oost,41,,,2851AA,Haastrecht,Krimpenerwaard,Zuid-Holland,VBO,4.826262,52.014796
Provincialeweg Oost,45,,,2851AB,Haastrecht,Krimpenerwaard,Zuid-Holland,VBO,4.822998,52.014866
Provincialeweg Oost,47,,,2851AB,Haastrecht,Krimpenerwaard,Zuid-Holland,VBO,4.821760,52.014851
Provincialeweg Oost,49,,,2851AB,Haastrecht,Krimpenerwaard,Zuid-Holland,VBO,4.820815,52.014658
Provincialeweg Oost,51,,,2851AB,Haastrecht,Krimpenerwaard,Zuid-Holland,VBO,4.817192,52.012819
Provincialeweg Oost,53,,,2851AB,Haastrecht,Krimpenerwaard,Zuid-Holland,VBO,4.815477,52.012533
Provincialeweg Oost,55,,,2851AB,Haastrecht,Krimpenerwaard,Zuid-Holland,VBO,4.814309,52.012518
Provincialeweg Oost,57,,,2851AB,Haastrecht,Krimpenerwaard,Zuid-Holland,VBO,4.812709,52.012344
Provincialeweg Oost,59,a,,2851AB,Haastrecht,Krimpenerwaard,Zuid-Holland,VBO,4.812020,52.012161
Provincialeweg Oost,59,,,2851AB,Haastrecht,Krimpenerwaard,Zuid-Holland,VBO,4.811931,52.012287
Provincialeweg Oost,61,,,2851AB,Haastrecht,Krimpenerwaard,Zuid-Holland,VBO,4.810664,52.012253
Provincialeweg Oost,63,,,2851AB,Haastrecht,Krimpenerwaard,Zuid-Holland,VBO,4.808959,52.012317
Provincialeweg Oost,65,,,2851AB,Haastrecht,Krimpenerwaard,Zuid-Holland,VBO,4.808871,52.012308
Provincialeweg Oost,67,a,,2851AB,Haastrecht,Krimpenerwaard,Zuid-Holland,VBO,4.807757,52.012331
Provincialeweg Oost,67,,,2851AB,Haastrecht,Krimpenerwaard,Zuid-Holland,VBO,4.807750,52.012329
Provincialeweg Oost,69,,,2851AB,Haastrecht,Krimpenerwaard,Zuid-Holland,VBO,4.807485,52.012222
Provincialeweg Oost,73,,,2851AC,Haastrecht,Krimpenerwaard,Zuid-Holland,VBO,4.805873,52.012104
Provincialeweg Oost,75,,,2851AC,Haastrecht,Krimpenerwaard,Zuid-Holland,VBO,4.804516,52.011946
Provincialeweg Oost,77,,,2851AC,Haastrecht,Krimpenerwaard,Zuid-Holland,VBO,4.804516,52.011946
Provincialeweg Oost,79,,,2851AC,Haastrecht,Krimpenerwaard,Zuid-Holland,VBO,4.803488,52.011832
Provincialeweg Oost,81,,,2851AC,Haastrecht,Krimpenerwaard,Zuid-Holland,VBO,4.802921,52.011766
Provincialeweg Oost,83,a,,2851AC,Haastrecht,Krimpenerwaard,Zuid-Holland,VBO,4.801587,52.011323
Provincialeweg Oost,83,b,,2851AC,Haastrecht,Krimpenerwaard,Zuid-Holland,VBO,4.800876,52.011100
Provincialeweg Oost,83,c,,2851AC,Haastrecht,Krimpenerwaard,Zuid-Holland,VBO,4.800659,52.010964
Provincialeweg Oost,83,,,2851AC,Haastrecht,Krimpenerwaard,Zuid-Holland,VBO,4.802244,52.011678
Provincialeweg Oost,85,,,2851AC,Haastrecht,Krimpenerwaard,Zuid-Holland,VBO,4.799453,52.010769
Provincialeweg Oost,87,,,2851AC,Haastrecht,Krimpenerwaard,Zuid-Holland,VBO,4.798815,52.010532
Provincialeweg Oost,89,,,2851AC,Haastrecht,Krimpenerwaard,Zuid-Holland,VBO,4.797727,52.010167
Provincialeweg Oost,91,a,,2851AC,Haastrecht,Krimpenerwaard,Zuid-Holland,VBO,4.796232,52.008884
Provincialeweg Oost,91,,,2851AC,Haastrecht,Krimpenerwaard,Zuid-Holland,VBO,4.797558,52.010040
Provincialeweg Oost,93,,,2851AC,Haastrecht,Krimpenerwaard,Zuid-Holland,VBO,4.795894,52.008807
Provincialeweg Oost,95,,,2851AC,Haastrecht,Krimpenerwaard,Zuid-Holland,VBO,4.795709,52.008574
Provincialeweg Oost,97,,,2851AC,Haastrecht,Krimpenerwaard,Zuid-Holland,VBO,4.794977,52.007785
Provincialeweg Oost,99,,,2851AC,Haastrecht,Krimpenerwaard,Zuid-Holland,VBO,4.794425,52.007096
Provincialeweg Oost,101,,,2851AD,Haastrecht,Krimpenerwaard,Zuid-Holland,VBO,4.792662,52.006047
Provincialeweg Oost,103,,,2851AD,Haastrecht,Krimpenerwaard,Zuid-Holland,VBO,4.793716,52.005655
Provincialeweg Oost,105,,,2851AD,Haastrecht,Krimpenerwaard,Zuid-Holland,VBO,4.791998,52.005690
Provincialeweg Oost,107,a,,2851AD,Haastrecht,Krimpenerwaard,Zuid-Holland,VBO,4.790964,52.005055
Provincialeweg Oost,107,b,,2851AD,Haastrecht,Krimpenerwaard,Zuid-Holland,VBO,4.790802,52.004228
Provincialeweg Oost,107,,,2851AD,Haastrecht,Krimpenerwaard,Zuid-Holland,VBO,4.791293,52.005470
Provincialeweg Oost,109,,,2851AD,Haastrecht,Krimpenerwaard,Zuid-Holland,VBO,4.790258,52.004839
Provincialeweg Oost,111,,,2851AD,Haastrecht,Krimpenerwaard,Zuid-Holland,VBO,4.790081,52.004628
Provincialeweg Oost,113,a,,2851AD,Haastrecht,Krimpenerwaard,Zuid-Holland,VBO,4.789862,52.004280
Provincialeweg Oost,113,,,2851AD,Haastrecht,Krimpenerwaard,Zuid-Holland,VBO,4.789887,52.004469
Provincialeweg Oost,115,a,,2851AD,Haastrecht,Krimpenerwaard,Zuid-Holland,VBO,4.789379,52.003761
Provincialeweg Oost,115,,,2851AD,Haastrecht,Krimpenerwaard,Zuid-Holland,VBO,4.789710,52.004059
Provincialeweg Oost,117,,,2851AD,Haastrecht,Krimpenerwaard,Zuid-Holland,VBO,4.789078,52.003436
Provincialeweg Oost,123,,,2851AD,Haastrecht,Krimpenerwaard,Zuid-Holland,VBO,4.788371,52.002893
Provincialeweg Oost,125,,,2851AD,Haastrecht,Krimpenerwaard,Zuid-Holland,VBO,4.788200,52.002668
Provincialeweg Oost,127,,,2851AD,Haastrecht,Krimpenerwaard,Zuid-Holland,VBO,4.787578,52.002296
Provincialeweg Oost,129,,,2851AD,Haastrecht,Krimpenerwaard,Zuid-Holland,VBO,4.786960,52.001686
Provincialeweg Oost,131,a,,2851AD,Haastrecht,Krimpenerwaard,Zuid-Holland,VBO,4.782353,52.000436
Provincialeweg Oost,131,b,,2851AD,Haastrecht,Krimpenerwaard,Zuid-Holland,VBO,4.786815,51.998373
Provincialeweg Oost,131,,,2851AD,Haastrecht,Krimpenerwaard,Zuid-Holland,VBO,4.783347,52.000701
Provincialeweg Oost,135,,,2851AD,Haastrecht,Krimpenerwaard,Zuid-Holland,VBO,4.781446,52.000764
Provincialeweg Oost,137,,,2851AD,Haastrecht,Krimpenerwaard,Zuid-Holland,VBO,4.780639,52.000867
Provincialeweg Oost,139,,,2851AD,Haastrecht,Krimpenerwaard,Zuid-Holland,VBO,4.780465,52.000887
Provincialeweg Oost,4,,,2851AE,Haastrecht,Krimpenerwaard,Zuid-Holland,VBO,4.846858,52.017854
Provincialeweg Oost,6,,,2851AE,Haastrecht,Krimpenerwaard,Zuid-Holland,VBO,4.846550,52.017896
Provincialeweg Oost,8,,,2851AE,Haastrecht,Krimpenerwaard,Zuid-Holland,VBO,4.845014,52.016857
Provincialeweg Oost,10,,,2851AE,Haastrecht,Krimpenerwaard,Zuid-Holland,VBO,4.841776,52.015961
Provincialeweg Oost,12,a,,2851AE,Haastrecht,Krimpenerwaard,Zuid-Holland,VBO,4.840309,52.015577
Provincialeweg Oost,12,,,2851AE,Haastrecht,Krimpenerwaard,Zuid-Holland,VBO,4.840934,52.015723
Provincialeweg Oost,14,a,,2851AE,Haastrecht,Krimpenerwaard,Zuid-Holland,VBO,4.839648,52.015457
Provincialeweg Oost,14,,,2851AE,Haastrecht,Krimpenerwaard,Zuid-Holland,VBO,4.839039,52.015773
Provincialeweg Oost,16,,,2851AE,Haastrecht,Krimpenerwaard,Zuid-Holland,VBO,4.837571,52.015212
Provincialeweg Oost,18,,,2851AE,Haastrecht,Krimpenerwaard,Zuid-Holland,VBO,4.836079,52.015109
Provincialeweg Oost,20,,,2851AE,Haastrecht,Krimpenerwaard,Zuid-Holland,VBO,4.834609,52.015810
Provincialeweg Oost,22,,,2851AE,Haastrecht,Krimpenerwaard,Zuid-Holland,VBO,4.832593,52.015312
Provincialeweg Oost,24,,,2851AE,Haastrecht,Krimpenerwaard,Zuid-Holland,VBO,4.824695,52.015431
Provincialeweg Oost,26,,,2851AE,Haastrecht,Krimpenerwaard,Zuid-Holland,VBO,4.822950,52.015726
Provincialeweg Oost,28,,,2851AE,Haastrecht,Krimpenerwaard,Zuid-Holland,VBO,4.822285,52.015617
Provincialeweg Oost,30,a,,2851AE,Haastrecht,Krimpenerwaard,Zuid-Holland,VBO,4.819478,52.014435
Provincialeweg Oost,30,,,2851AE,Haastrecht,Krimpenerwaard,Zuid-Holland,VBO,4.819610,52.014364
Provincialeweg Oost,32,b,,2851AE,Haastrecht,Krimpenerwaard,Zuid-Holland,VBO,4.818438,52.014500
Provincialeweg Oost,32,,,2851AE,Haastrecht,Krimpenerwaard,Zuid-Holland,VBO,4.819245,52.014398
Provincialeweg Oost,34,a,,2851AE,Haastrecht,Krimpenerwaard,Zuid-Holland,VBO,4.814410,52.013213
Provincialeweg Oost,34,b,,2851AE,Haastrecht,Krimpenerwaard,Zuid-Holland,VBO,4.814410,52.013213
Provincialeweg Oost,34,,,2851AE,Haastrecht,Krimpenerwaard,Zuid-Holland,VBO,4.815465,52.013261
Provincialeweg Oost,36,a,,2851AE,Haastrecht,Krimpenerwaard,Zuid-Holland,VBO,4.813650,52.013119
Provincialeweg Oost,36,,,2851AE,Haastrecht,Krimpenerwaard,Zuid-Holland,VBO,4.813318,52.013481
Provincialeweg Oost,38,a,,2851AE,Haastrecht,Krimpenerwaard,Zuid-Holland,VBO,4.812603,52.012925
Provincialeweg Oost,38,,,2851AE,Haastrecht,Krimpenerwaard,Zuid-Holland,VBO,4.813650,52.013119
Provincialeweg Oost,40,,,2851AE,Haastrecht,Krimpenerwaard,Zuid-Holland,VBO,4.810443,52.013565
Provincialeweg Oost,42,a,,2851AG,Haastrecht,Krimpenerwaard,Zuid-Holland,VBO,4.810819,52.013743
Provincialeweg Oost,42,,,2851AG,Haastrecht,Krimpenerwaard,Zuid-Holland,VBO,4.810386,52.013768
Provincialeweg Oost,44,,,2851AG,Haastrecht,Krimpenerwaard,Zuid-Holland,VBO,4.809267,52.013846
Provincialeweg Oost,46,,,2851AG,Haastrecht,Krimpenerwaard,Zuid-Holland,VBO,4.809324,52.013783
Provincialeweg Oost,48,a,,2851AG,Haastrecht,Krimpenerwaard,Zuid-Holland,VBO,4.808741,52.012783
Provincialeweg Oost,48,,,2851AG,Haastrecht,Krimpenerwaard,Zuid-Holland,VBO,4.808595,52.013937
Provincialeweg Oost,50,,,2851AG,Haastrecht,Krimpenerwaard,Zuid-Holland,VBO,4.807685,52.012805
Provincialeweg Oost,52,,,2851AG,Haastrecht,Krimpenerwaard,Zuid-Holland,VBO,4.807124,52.012949
Provincialeweg Oost,54,a,,2851AG,Haastrecht,Krimpenerwaard,Zuid-Holland,VBO,4.805851,52.012679
Provincialeweg Oost,54,,,2851AG,Haastrecht,Krimpenerwaard,Zuid-Holland,VBO,4.806524,52.012884
Provincialeweg Oost,56,,,2851AG,Haastrecht,Krimpenerwaard,Zuid-Holland,VBO,4.803379,52.012352
Provincialeweg Oost,58,,,2851AG,Haastrecht,Krimpenerwaard,Zuid-Holland,VBO,4.803249,52.012316
Provincialeweg Oost,60,,,2851AG,Haastrecht,Krimpenerwaard,Zuid-Holland,VBO,4.802198,52.012445
Provincialeweg Oost,62,,,2851AG,Haastrecht,Krimpenerwaard,Zuid-Holland,VBO,4.801582,52.012191
Provincialeweg Oost,64,a,,2851AH,Haastrecht,Krimpenerwaard,Zuid-Holland,VBO,4.800356,52.011852
Provincialeweg Oost,64,,,2851AH,Haastrecht,Krimpenerwaard,Zuid-Holland,VBO,4.800400,52.011625
Provincialeweg Oost,68,,,2851AH,Haastrecht,Krimpenerwaard,Zuid-Holland,VBO,4.799715,52.011447
Provincialeweg Oost,70,a,,2851AH,Haastrecht,Krimpenerwaard,Zuid-Holland,VBO,4.798630,52.011913
Provincialeweg Oost,70,b,,2851AH,Haastrecht,Krimpenerwaard,Zuid-Holland,VBO,4.798393,52.012125
Provincialeweg Oost,70,c,,2851AH,Haastrecht,Krimpenerwaard,Zuid-Holland,VBO,4.798157,52.012325
Provincialeweg Oost,70,d,,2851AH,Haastrecht,Krimpenerwaard,Zuid-Holland,VBO,4.797759,52.012083
Provincialeweg Oost,70,e,,2851AH,Haastrecht,Krimpenerwaard,Zuid-Holland,VBO,4.798035,52.011898
Provincialeweg Oost,70,f,,2851AH,Haastrecht,Krimpenerwaard,Zuid-Holland,VBO,4.798319,52.011696
Provincialeweg Oost,70,,,2851AH,Haastrecht,Krimpenerwaard,Zuid-Holland,VBO,4.799549,52.011382
Provincialeweg Oost,72,a,,2851AH,Haastrecht,Krimpenerwaard,Zuid-Holland,VBO,4.798575,52.011034
Provincialeweg Oost,72,b,,2851AH,Haastrecht,Krimpenerwaard,Zuid-Holland,VBO,4.794040,52.008099
Provincialeweg Oost,72,c,1,2851AH,Haastrecht,Krimpenerwaard,Zuid-Holland,LIG,4.791997,52.006314
Provincialeweg Oost,72,c,,2851AH,Haastrecht,Krimpenerwaard,Zuid-Holland,VBO,4.793494,52.007548
Provincialeweg Oost,72,d,,2851AH,Haastrecht,Krimpenerwaard,Zuid-Holland,VBO,4.791808,52.006194
Provincialeweg Oost,72,e,,2851AH,Haastrecht,Krimpenerwaard,Zuid-Holland,VBO,4.792111,52.006418
Provincialeweg Oost,72,,,2851AH,Haastrecht,Krimpenerwaard,Zuid-Holland,VBO,4.799191,52.011149
Provincialeweg Oost,74,,,2851AH,Haastrecht,Krimpenerwaard,Zuid-Holland,VBO,4.791150,52.005811
Provincialeweg Oost,76,a,,2851AH,Haastrecht,Krimpenerwaard,Zuid-Holland,VBO,4.786137,52.002266
Provincialeweg Oost,76,,,2851AH,Haastrecht,Krimpenerwaard,Zuid-Holland,VBO,4.787239,52.002845
Provincialeweg Oost,78,,,2851AJ,Haastrecht,Krimpenerwaard,Zuid-Holland,VBO,4.785704,52.001954
Provincialeweg Oost,80,a,,2851AJ,Haastrecht,Krimpenerwaard,Zuid-Holland,VBO,4.785046,52.002193
Provincialeweg Oost,80,,,2851AJ,Haastrecht,Krimpenerwaard,Zuid-Holland,VBO,4.785575,52.001836
Provincialeweg Oost,82,,,2851AJ,Haastrecht,Krimpenerwaard,Zuid-Holland,VBO,4.784850,52.001581
Provincialeweg Oost,86,,,2851AJ,Haastrecht,Krimpenerwaard,Zuid-Holland,VBO,4.784273,52.001482
Provincialeweg Oost,88,,,2851AJ,Haastrecht,Krimpenerwaard,Zuid-Holland,VBO,4.783884,52.001396
Provincialeweg Oost,90,,,2851AJ,Haastrecht,Krimpenerwaard,Zuid-Holland,VBO,4.783418,52.001166
Provincialeweg Oost,92,a,,2851AJ,Haastrecht,Krimpenerwaard,Zuid-Holland,VBO,4.783013,52.001221
Provincialeweg Oost,92,,,2851AJ,Haastrecht,Krimpenerwaard,Zuid-Holland,VBO,4.783338,52.001123
Provincialeweg Oost,94,a,,2851AJ,Haastrecht,Krimpenerwaard,Zuid-Holland,VBO,4.782591,52.001088
Provincialeweg Oost,94,b,,2851AJ,Haastrecht,Krimpenerwaard,Zuid-Holland,VBO,4.782294,52.001116
Provincialeweg Oost,94,c,,2851AJ,Haastrecht,Krimpenerwaard,Zuid-Holland,VBO,4.782137,52.001077
Provincialeweg Oost,94,,,2851AJ,Haastrecht,Krimpenerwaard,Zuid-Holland,VBO,4.782748,52.001128
Provincialeweg Oost,96,,,2851AJ,Haastrecht,Krimpenerwaard,Zuid-Holland,VBO,4.781549,52.001213
Provincialeweg Oost,98,,,2851AJ,Haastrecht,Krimpenerwaard,Zuid-Holland,VBO,4.781249,52.001768
Provincialeweg Oost,100,,,2851AJ,Haastrecht,Krimpenerwaard,Zuid-Holland,VBO,4.780960,52.001678
Provincialeweg Oost,102,,,2851AJ,Haastrecht,Krimpenerwaard,Zuid-Holland,VBO,4.781596,52.001330
Hoenkoopse Buurtweg,26,a,,2851AK,Haastrecht,Krimpenerwaard,Zuid-Holland,VBO,4.845526,52.004554
Hoenkoopse Buurtweg,26,b,,2851AK,Haastrecht,Krimpenerwaard,Zuid-Holland,VBO,4.845807,52.003893
Hoenkoopse Buurtweg,26,,,2851AK,Haastrecht,Krimpenerwaard,Zuid-Holland,VBO,4.853937,52.005123
Hoenkoopse Buurtweg,28,a,,2851AK,Haastrecht,Krimpenerwaard,Zuid-Holland,VBO,4.843877,52.003543
Hoenkoopse Buurtweg,28,b,,2851AK,Haastrecht,Krimpenerwaard,Zuid-Holland,VBO,4.844324,52.004257
Hoenkoopse Buurtweg,28,,,2851AK,Haastrecht,Krimpenerwaard,Zuid-Holland,VBO,4.844605,52.003678
Hoenkoopse Buurtweg,30,,,2851AK,Haastrecht,Krimpenerwaard,Zuid-Holland,VBO,4.843529,52.003547
Hoenkoopse Buurtweg,32,a,,2851AK,Haastrecht,Krimpenerwaard,Zuid-Holland,VBO,4.840418,52.003066
Hoenkoopse Buurtweg,32,b,,2851AK,Haastrecht,Krimpenerwaard,Zuid-Holland,VBO,4.841050,52.003431
Hoenkoopse Buurtweg,32,c,,2851AK,Haastrecht,Krimpenerwaard,Zuid-Holland,VBO,4.840141,52.003961
Hoenkoopse Buurtweg,32,,,2851AK,Haastrecht,Krimpenerwaard,Zuid-Holland,VBO,4.841122,52.003139
Hoenkoopse Buurtweg,34,a,,2851AK,Haastrecht,Krimpenerwaard,Zuid-Holland,VBO,4.836725,52.002608
Hoenkoopse Buurtweg,34,b,,2851AK,Haastrecht,Krimpenerwaard,Zuid-Holland,VBO,4.834778,52.002257
Hoenkoopse Buurtweg,34,c,,2851AK,Haastrecht,Krimpenerwaard,Zuid-Holland,VBO,4.833745,52.002127
Hoenkoopse Buurtweg,34,,,2851AK,Haastrecht,Krimpenerwaard,Zuid-Holland,VBO,4.838441,52.002796
Hoenkoopse Buurtweg,36,,,2851AK,Haastrecht,Krimpenerwaard,Zuid-Holland,VBO,4.831151,52.001731
Hoenkoopse Buurtweg,38,,,2851AK,Haastrecht,Krimpenerwaard,Zuid-Holland,VBO,4.831072,52.001705
Hoenkoopse Buurtweg,40,a,,2851AK,Haastrecht,Krimpenerwaard,Zuid-Holland,VBO,4.828876,52.001384
Hoenkoopse Buurtweg,40,,,2851AK,Haastrecht,Krimpenerwaard,Zuid-Holland,VBO,4.829537,52.001509
Hoenkoopse Buurtweg,42,,,2851AK,Haastrecht,Krimpenerwaard,Zuid-Holland,VBO,4.828603,52.001395
Hoenkoopse Buurtweg,44,,,2851AK,Haastrecht,Krimpenerwaard,Zuid-Holland,VBO,4.818891,52.000044
Hoenkoopse Buurtweg,101,a,,2851AK,Haastrecht,Krimpenerwaard,Zuid-Holland,VBO,4.816434,52.000303
Hoenkoopse Buurtweg,101,b,,2851AK,Haastrecht,Krimpenerwaard,Zuid-Holland,VBO,4.817483,51.999460
Hoenkoopse Buurtweg,101,,,2851AK,Haastrecht,Krimpenerwaard,Zuid-Holland,VBO,4.817963,51.999512
Hoenkoopse Buurtweg,103,,,2851AK,Haastrecht,Krimpenerwaard,Zuid-Holland,VBO,4.806999,52.010456
Palingdreef,1,,,2851AL,Haastrecht,Krimpenerwaard,Zuid-Holland,VBO,4.799802,52.012044
Palingdreef,3,,,2851AL,Haastrecht,Krimpenerwaard,Zuid-Holland,VBO,4.799614,52.012174
Palingdreef,5,,,2851AL,Haastrecht,Krimpenerwaard,Zuid-Holland,VBO,4.799110,52.012267
Palingdreef,9,,,2851AL,Haastrecht,Krimpenerwaard,Zuid-Holland,VBO,4.798984,52.012717
Palingdreef,11,,,2851AL,Haastrecht,Krimpenerwaard,Zuid-Holland,VBO,4.798820,52.012829
Landgoed Klein Keulevaart,1,,,2851AM,Haastrecht,Krimpenerwaard,Zuid-Holland,VBO,4.785938,52.000968
Landgoed Klein Keulevaart,2,,,2851AM,Haastrecht,Krimpenerwaard,Zuid-Holland,VBO,4.785905,52.000914
Landgoed Klein Keulevaart,3,,,2851AM,Haastrecht,Krimpenerwaard,Zuid-Holland,VBO,4.786106,52.000824
Kuiperstraat,1,,,2851AV,Haastrecht,Krimpenerwaard,Zuid-Holland,VBO,4.782930,52.001436
Kuiperstraat,2,,,2851AV,Haastrecht,Krimpenerwaard,Zuid-Holland,VBO,4.782760,52.001633
Kuiperstraat,3,,,2851AV,Haastrecht,Krimpenerwaard,Zuid-Holland,VBO,4.782871,52.001436
Kuiperstraat,4,,,2851AV,Haastrecht,Krimpenerwaard,Zuid-Holland,VBO,4.782612,52.001587
Kuiperstraat,5,,,2851AV,Haastrecht,Krimpenerwaard,Zuid-Holland,VBO,4.782828,52.001427
Kuiperstraat,6,,,2851AV,Haastrecht,Krimpenerwaard,Zuid-Holland,VBO,4.782214,52.001565
Kuiperstraat,7,,,2851AV,Haastrecht,Krimpenerwaard,Zuid-Holland,VBO,4.782784,52.001417
Kuiperstraat,9,,,2851AV,Haastrecht,Krimpenerwaard,Zuid-Holland,VBO,4.782712,52.001390
Kuiperstraat,11,,,2851AV,Haastrecht,Krimpenerwaard,Zuid-Holland,VBO,4.782668,52.001381
Kuiperstraat,13,,,2851AV,Haastrecht,Krimpenerwaard,Zuid-Holland,VBO,4.782618,52.001383
Kuiperstraat,15,,,2851AV,Haastrecht,Krimpenerwaard,Zuid-Holland,VBO,4.782567,52.001362
Kuiperstraat,17,,,2851AV,Haastrecht,Krimpenerwaard,Zuid-Holland,VBO,4.782523,52.001353
Kuiperstraat,19,,,2851AV,Haastrecht,Krimpenerwaard,Zuid-Holland,VBO,4.782465,52.001344
Kuiperstraat,21,,,2851AV,Haastrecht,Krimpenerwaard,Zuid-Holland,VBO,4.782421,52.001326
Kuiperstraat,23,,,2851AV,Haastrecht,Krimpenerwaard,Zuid-Holland,VBO,4.782376,52.001326
Kuiperstraat,25,,,2851AV,Haastrecht,Krimpenerwaard,Zuid-Holland,VBO,4.782334,52.001307
Kuiperstraat,27,,,2851AV,Haastrecht,Krimpenerwaard,Zuid-Holland,VBO,4.782276,52.001289
Kuiperstraat,29,,,2851AV,Haastrecht,Krimpenerwaard,Zuid-Holland,VBO,4.782231,52.001290
Kuiperstraat,31,,,2851AV,Haastrecht,Krimpenerwaard,Zuid-Holland,VBO,4.782155,52.001273
Kuiperstraat,33,,,2851AV,Haastrecht,Krimpenerwaard,Zuid-Holland,VBO,4.782155,52.001273
Kuiperstraat,35,,,2851AV,Haastrecht,Krimpenerwaard,Zuid-Holland,VBO,4.782082,52.001256
Kuiperstraat,37,,,2851AV,Haastrecht,Krimpenerwaard,Zuid-Holland,VBO,4.782030,52.001234
Kuiperstraat,39,,,2851AV,Haastrecht,Krimpenerwaard,Zuid-Holland,VBO,4.781971,52.001225
Kuiperstraat,41,,,2851AV,Haastrecht,Krimpenerwaard,Zuid-Holland,VBO,4.781913,52.001224
Galgoord,1,,,2851AW,Haastrecht,Krimpenerwaard,Zuid-Holland,VBO,4.782551,52.002531
Galgoord,2,,,2851AW,Haastrecht,Krimpenerwaard,Zuid-Holland,VBO,4.782337,52.002258
Galgoord,3,a,,2851AW,Haastrecht,Krimpenerwaard,Zuid-Holland,VBO,4.779857,52.001978
Galgoord,3,,,2851AW,Haastrecht,Krimpenerwaard,Zuid-Holland,VBO,4.779952,52.001960
Galgoord,4,,,2851AW,Haastrecht,Krimpenerwaard,Zuid-Holland,VBO,4.782870,52.002287
Galgoord,6,,,2851AW,Haastrecht,Krimpenerwaard,Zuid-Holland,VBO,4.783034,52.002315
Galgoord,8,,,2851AW,Haastrecht,Krimpenerwaard,Zuid-Holland,VBO,4.783172,52.002374
Galgoord,10,,,2851AW,Haastrecht,Krimpenerwaard,Zuid-Holland,VBO,4.783675,52.002600
Steenbakkerstraat,1,,,2851AX,Haastrecht,Krimpenerwaard,Zuid-Holland,VBO,4.782968,52.002146
Steenbakkerstraat,3,,,2851AX,Haastrecht,Krimpenerwaard,Zuid-Holland,VBO,4.783056,52.002030
Steenbakkerstraat,4,a,,2851AX,Haastrecht,Krimpenerwaard,Zuid-Holland,VBO,4.782632,52.001911
Steenbakkerstraat,4,b,,2851AX,Haastrecht,Krimpenerwaard,Zuid-Holland,VBO,4.782397,52.002090
Steenbakkerstraat,4,,,2851AX,Haastrecht,Krimpenerwaard,Zuid-Holland,VBO,4.782559,52.002033
Steenbakkerstraat,5,,,2851AX,Haastrecht,Krimpenerwaard,Zuid-Holland,VBO,4.783270,52.002091
Steenbakkerstraat,6,a,,2851AX,Haastrecht,Krimpenerwaard,Zuid-Holland,VBO,4.782576,52.001758
Steenbakkerstraat,6,,,2851AX,Haastrecht,Krimpenerwaard,Zuid-Holland,VBO,4.782687,52.001865
Steenbakkerstraat,7,,,2851AX,Haastrecht,Krimpenerwaard,Zuid-Holland,VBO,4.783444,52.002149
Steenbakkerstraat,14,,,2851AX,Haastrecht,Krimpenerwaard,Zuid-Holland,VBO,4.783159,52.001704
Steenbakkerstraat,16,,,2851AX,Haastrecht,Krimpenerwaard,Zuid-Holland,VBO,4.783314,52.001744
Steenbakkerstraat,18,,,2851AX,Haastrecht,Krimpenerwaard,Zuid-Holland,VBO,4.783598,52.001799
Steenbakkerstraat,20,,,2851AX,Haastrecht,Krimpenerwaard,Zuid-Holland,VBO,4.783750,52.001857
Kleine Haven,2,a,,2851AZ,Haastrecht,Krimpenerwaard,Zuid-Holland,VBO,4.775501,52.001637
Kleine Haven,2,,,2851AZ,Haastrecht,Krimpenerwaard,Zuid-Holland,VBO,4.775501,52.001643
Hoogstraat,1,a,,2851BA,Haastrecht,Krimpenerwaard,Zuid-Holland,VBO,4.778151,52.001573
Hoogstraat,1,,,2851BA,Haastrecht,Krimpenerwaard,Zuid-Holland,VBO,4.778262,52.001490
Hoogstraat,2,a,,2851BA,Haastrecht,Krimpenerwaard,Zuid-Holland,VBO,4.779858,52.001375
Hoogstraat,2,b,,2851BA,Haastrecht,Krimpenerwaard,Zuid-Holland,VBO,4.779858,52.001375
Hoogstraat,2,c,,2851BA,Haastrecht,Krimpenerwaard,Zuid-Holland,VBO,4.779858,52.001375
Hoogstraat,2,,,2851BA,Haastrecht,Krimpenerwaard,Zuid-Holland,VBO,4.779858,52.001375
Hoogstraat,3,,,2851BA,Haastrecht,Krimpenerwaard,Zuid-Holland,VBO,4.778019,52.001640
Hoogstraat,5,,,2851BA,Haastrecht,Krimpenerwaard,Zuid-Holland,VBO,4.777843,52.001743
Hoogstraat,6,a,,2851BA,Haastrecht,Krimpenerwaard,Zuid-Holland,VBO,4.779288,52.001401
Hoogstraat,7,,,2851BA,Haastrecht,Krimpenerwaard,Zuid-Holland,VBO,4.777768,52.001886
Hoogstraat,9,,,2851BA,Haastrecht,Krimpenerwaard,Zuid-Holland,VBO,4.777753,52.001931
Hoogstraat,11,,,2851BA,Haastrecht,Krimpenerwaard,Zuid-Holland,VBO,4.777709,52.001962
Hoogstraat,13,,,2851BA,Haastrecht,Krimpenerwaard,Zuid-Holland,VBO,4.777606,52.001965
Hoogstraat,15,,,2851BA,Haastrecht,Krimpenerwaard,Zuid-Holland,VBO,4.777562,52.002033
Hoogstraat,17,,,2851BA,Haastrecht,Krimpenerwaard,Zuid-Holland,VBO,4.777489,52.002060
Hoogstraat,19,,,2851BA,Haastrecht,Krimpenerwaard,Zuid-Holland,VBO,4.777417,52.002093
Hoogstraat,21,,,2851BA,Haastrecht,Krimpenerwaard,Zuid-Holland,VBO,4.777321,52.002104
Hoogstraat,25,,,2851BA,Haastrecht,Krimpenerwaard,Zuid-Holland,VBO,4.777153,52.002079
Hoogstraat,27,,,2851BB,Haastrecht,Krimpenerwaard,Zuid-Holland,VBO,4.777022,52.002161
Hoogstraat,29,,,2851BB,Haastrecht,Krimpenerwaard,Zuid-Holland,VBO,4.776957,52.002124
Hoogstraat,31,a,,2851BB,Haastrecht,Krimpenerwaard,Zuid-Holland,VBO,4.776675,52.001952
Hoogstraat,31,,,2851BB,Haastrecht,Krimpenerwaard,Zuid-Holland,VBO,4.776784,52.001984
Hoogstraat,33,,,2851BB,Haastrecht,Krimpenerwaard,Zuid-Holland,VBO,4.776428,52.001910
Hoogstraat,35,,,2851BB,Haastrecht,Krimpenerwaard,Zuid-Holland,VBO,4.776411,52.002077
Hoogstraat,37,,,2851BB,Haastrecht,Krimpenerwaard,Zuid-Holland,VBO,4.776353,52.002103
Hoogstraat,39,,,2851BB,Haastrecht,Krimpenerwaard,Zuid-Holland,VBO,4.776295,52.002085
Hoogstraat,41,,,2851BB,Haastrecht,Krimpenerwaard,Zuid-Holland,VBO,4.776235,52.002063
Hoogstraat,43,,,2851BB,Haastrecht,Krimpenerwaard,Zuid-Holland,VBO,4.776179,52.002075
Hoogstraat,45,,,2851BB,Haastrecht,Krimpenerwaard,Zuid-Holland,VBO,4.776106,52.002035
Hoogstraat,47,,,2851BB,Haastrecht,Krimpenerwaard,Zuid-Holland,VBO,4.776050,52.002034
Hoogstraat,49,,,2851BB,Haastrecht,Krimpenerwaard,Zuid-Holland,VBO,4.775985,52.002023
Hoogstraat,51,a,,2851BB,Haastrecht,Krimpenerwaard,Zuid-Holland,VBO,4.775874,52.001984
Hoogstraat,51,b,,2851BB,Haastrecht,Krimpenerwaard,Zuid-Holland,VBO,4.775903,52.001984
Hoogstraat,51,c,,2851BB,Haastrecht,Krimpenerwaard,Zuid-Holland,VBO,4.775917,52.001984
Hoogstraat,51,,,2851BB,Haastrecht,Krimpenerwaard,Zuid-Holland,VBO,4.775854,52.002014
Hoogstraat,53,,,2851BC,Haastrecht,Krimpenerwaard,Zuid-Holland,VBO,4.775271,52.001924
Hoogstraat,55,,,2851BC,Haastrecht,Krimpenerwaard,Zuid-Holland,VBO,4.775118,52.001843
Hoogstraat,59,,,2851BC,Haastrecht,Krimpenerwaard,Zuid-Holland,VBO,4.775001,52.001817
Hoogstraat,63,,,2851BC,Haastrecht,Krimpenerwaard,Zuid-Holland,VBO,4.774901,52.001781
Hoogstraat,65,,,2851BC,Haastrecht,Krimpenerwaard,Zuid-Holland,VBO,4.774814,52.001763
Hoogstraat,67,,,2851BC,Haastrecht,Krimpenerwaard,Zuid-Holland,VBO,4.774756,52.001735
Hoogstraat,73,,,2851BC,Haastrecht,Krimpenerwaard,Zuid-Holland,VBO,4.774626,52.001681
Hoogstraat,81,a,,2851BD,Haastrecht,Krimpenerwaard,Zuid-Holland,VBO,4.774279,52.001499
Hoogstraat,81,b,,2851BD,Haastrecht,Krimpenerwaard,Zuid-Holland,VBO,4.774257,52.001486
Hoogstraat,81,,,2851BD,Haastrecht,Krimpenerwaard,Zuid-Holland,VBO,4.774300,52.001504
Hoogstraat,83,,,2851BD,Haastrecht,Krimpenerwaard,Zuid-Holland,VBO,4.774192,52.001457
Hoogstraat,85,,,2851BD,Haastrecht,Krimpenerwaard,Zuid-Holland,VBO,4.774163,52.001400
Hoogstraat,87,,,2851BD,Haastrecht,Krimpenerwaard,Zuid-Holland,VBO,4.774032,52.001434
Hoogstraat,89,,,2851BD,Haastrecht,Krimpenerwaard,Zuid-Holland,VBO,4.773959,52.001414
Hoogstraat,91,,,2851BD,Haastrecht,Krimpenerwaard,Zuid-Holland,VBO,4.773777,52.001398
Hoogstraat,93,,,2851BD,Haastrecht,Krimpenerwaard,Zuid-Holland,VBO,4.773705,52.001370
Hoogstraat,95,a,,2851BD,Haastrecht,Krimpenerwaard,Zuid-Holland,VBO,4.773634,52.001364
Hoogstraat,95,b,,2851BD,Haastrecht,Krimpenerwaard,Zuid-Holland,VBO,4.773634,52.001364
Hoogstraat,97,,,2851BD,Haastrecht,Krimpenerwaard,Zuid-Holland,VBO,4.773552,52.001367
Hoogstraat,99,,,2851BD,Haastrecht,Krimpenerwaard,Zuid-Holland,VBO,4.773494,52.001369
Hoogstraat,101,,,2851BD,Haastrecht,Krimpenerwaard,Zuid-Holland,VBO,4.773407,52.001347
Hoogstraat,103,,,2851BD,Haastrecht,Krimpenerwaard,Zuid-Holland,VBO,4.773324,52.001351
Hoogstraat,105,,,2851BD,Haastrecht,Krimpenerwaard,Zuid-Holland,VBO,4.773254,52.001332
Hoogstraat,107,,,2851BD,Haastrecht,Krimpenerwaard,Zuid-Holland,VBO,4.773102,52.001259
Hoogstraat,111,,,2851BD,Haastrecht,Krimpenerwaard,Zuid-Holland,VBO,4.772934,52.001177
Hoogstraat,113,,,2851BD,Haastrecht,Krimpenerwaard,Zuid-Holland,VBO,4.772833,52.001272
Hoogstraat,123,,,2851BE,Haastrecht,Krimpenerwaard,Zuid-Holland,VBO,4.771028,52.000646
Hoogstraat,125,,,2851BE,Haastrecht,Krimpenerwaard,Zuid-Holland,VBO,4.770763,52.000838
Hoogstraat,127,,,2851BE,Haastrecht,Krimpenerwaard,Zuid-Holland,VBO,4.769557,52.000666
Hoogstraat,129,,,2851BE,Haastrecht,Krimpenerwaard,Zuid-Holland,VBO,4.769899,52.000099
Hoogstraat,133,,,2851BE,Haastrecht,Krimpenerwaard,Zuid-Holland,VBO,4.769548,52.000279
Hoogstraat,158,,,2851BE,Haastrecht,Krimpenerwaard,Zuid-Holland,VBO,4.772245,52.001332
Hoogstraat,160,,,2851BE,Haastrecht,Krimpenerwaard,Zuid-Holland,VBO,4.771863,52.001370
Hoogstraat,162,a,,2851BE,Haastrecht,Krimpenerwaard,Zuid-Holland,VBO,4.771692,52.001267
Hoogstraat,164,,,2851BE,Haastrecht,Krimpenerwaard,Zuid-Holland,VBO,4.771692,52.001267
Hoogstraat,166,a,,2851BE,Haastrecht,Krimpenerwaard,Zuid-Holland,VBO,4.771399,52.001197
Hoogstraat,166,b,,2851BE,Haastrecht,Krimpenerwaard,Zuid-Holland,VBO,4.771501,52.001227
Hoogstraat,168,,,2851BE,Haastrecht,Krimpenerwaard,Zuid-Holland,VBO,4.771036,52.001168
Hoogstraat,170,,,2851BE,Haastrecht,Krimpenerwaard,Zuid-Holland,VBO,4.770904,52.001190
Hoogstraat,172,,,2851BE,Haastrecht,Krimpenerwaard,Zuid-Holland,VBO,4.770752,52.001179
Hoogstraat,174,,,2851BE,Haastrecht,Krimpenerwaard,Zuid-Holland,VBO,4.770236,52.001083
Hoogstraat,176,,,2851BE,Haastrecht,Krimpenerwaard,Zuid-Holland,VBO,4.769756,52.001053
Hoogstraat,178,,,2851BE,Haastrecht,Krimpenerwaard,Zuid-Holland,VBO,4.769431,52.001018
Hoogstraat,180,,,2851BE,Haastrecht,Krimpenerwaard,Zuid-Holland,VBO,4.769261,52.000999
Hoogstraat,8,,,2851BG,Haastrecht,Krimpenerwaard,Zuid-Holland,VBO,4.778745,52.001522
Hoogstraat,10,,,2851BG,Haastrecht,Krimpenerwaard,Zuid-Holland,VBO,4.778639,52.001562
Hoogstraat,14,,,2851BG,Haastrecht,Krimpenerwaard,Zuid-Holland,VBO,4.778543,52.001674
Hoogstraat,16,,,2851BG,Haastrecht,Krimpenerwaard,Zuid-Holland,VBO,4.778396,52.001745
Hoogstraat,20,,,2851BG,Haastrecht,Krimpenerwaard,Zuid-Holland,VBO,4.778279,52.001790
Hoogstraat,22,,,2851BG,Haastrecht,Krimpenerwaard,Zuid-Holland,VBO,4.778235,52.001834
Hoogstraat,24,,,2851BG,Haastrecht,Krimpenerwaard,Zuid-Holland,VBO,4.778181,52.001858
Hoogstraat,26,,,2851BG,Haastrecht,Krimpenerwaard,Zuid-Holland,VBO,4.778132,52.001894
Hoogstraat,30,,,2851BG,Haastrecht,Krimpenerwaard,Zuid-Holland,VBO,4.777905,52.002004
Hoogstraat,32,,,2851BG,Haastrecht,Krimpenerwaard,Zuid-Holland,VBO,4.778102,52.002118
Hoogstraat,46,,,2851BG,Haastrecht,Krimpenerwaard,Zuid-Holland,VBO,4.777772,52.002129
Hoogstraat,48,,,2851BG,Haastrecht,Krimpenerwaard,Zuid-Holland,VBO,4.777648,52.002137
Hoogstraat,50,a,,2851BG,Haastrecht,Krimpenerwaard,Zuid-Holland,VBO,4.777743,52.002650
Hoogstraat,50,,,2851BG,Haastrecht,Krimpenerwaard,Zuid-Holland,VBO,4.777618,52.002213
Peperstraat,5,,,2851BG,Haastrecht,Krimpenerwaard,Zuid-Holland,VBO,4.772698,52.001082
Hoogstraat,52,,,2851BH,Haastrecht,Krimpenerwaard,Zuid-Holland,VBO,4.777515,52.002285
Hoogstraat,54,,,2851BH,Haastrecht,Krimpenerwaard,Zuid-Holland,VBO,4.777573,52.002361
Hoogstraat,56,,,2851BH,Haastrecht,Krimpenerwaard,Zuid-Holland,VBO,4.777586,52.002406
Hoogstraat,58,,,2851BH,Haastrecht,Krimpenerwaard,Zuid-Holland,VBO,4.777644,52.002497
Hoogstraat,60,,,2851BH,Haastrecht,Krimpenerwaard,Zuid-Holland,VBO,4.777658,52.002533
Hoogstraat,62,,,2851BH,Haastrecht,Krimpenerwaard,Zuid-Holland,VBO,4.777450,52.002307
Hoogstraat,64,,,2851BH,Haastrecht,Krimpenerwaard,Zuid-Holland,VBO,4.777433,52.002437
Hoogstraat,66,,,2851BH,Haastrecht,Krimpenerwaard,Zuid-Holland,VBO,4.777405,52.002576
Hoogstraat,72,,,2851BH,Haastrecht,Krimpenerwaard,Zuid-Holland,VBO,4.777242,52.002291
Hoogstraat,74,,,2851BH,Haastrecht,Krimpenerwaard,Zuid-Holland,VBO,4.777122,52.002269
Hoogstraat,76,,,2851BH,Haastrecht,Krimpenerwaard,Zuid-Holland,VBO,4.777035,52.002296
Hoogstraat,78,,,2851BH,Haastrecht,Krimpenerwaard,Zuid-Holland,VBO,4.776947,52.002304
Hoogstraat,80,,,2851BH,Haastrecht,Krimpenerwaard,Zuid-Holland,VBO,4.776576,52.002298
Hoogstraat,82,,,2851BH,Haastrecht,Krimpenerwaard,Zuid-Holland,VBO,4.776174,52.002417
Hoogstraat,84,,,2851BH,Haastrecht,Krimpenerwaard,Zuid-Holland,VBO,4.776110,52.002313
Hoogstraat,86,,,2851BH,Haastrecht,Krimpenerwaard,Zuid-Holland,VBO,4.776045,52.002264
Hoogstraat,88,,,2851BH,Haastrecht,Krimpenerwaard,Zuid-Holland,VBO,4.775980,52.002227
Hoogstraat,90,,,2851BH,Haastrecht,Krimpenerwaard,Zuid-Holland,VBO,4.775836,52.002246
Hoogstraat,92,,,2851BH,Haastrecht,Krimpenerwaard,Zuid-Holland,VBO,4.775774,52.002201
Hoogstraat,94,,,2851BH,Haastrecht,Krimpenerwaard,Zuid-Holland,VBO,4.775667,52.002172
Hoogstraat,96,,,2851BH,Haastrecht,Krimpenerwaard,Zuid-Holland,VBO,4.775652,52.002199
Hoogstraat,98,a,,2851BH,Haastrecht,Krimpenerwaard,Zuid-Holland,VBO,4.775594,52.002180
Hoogstraat,98,b,,2851BH,Haastrecht,Krimpenerwaard,Zuid-Holland,VBO,4.775580,52.002198
Hoogstraat,98,c,,2851BH,Haastrecht,Krimpenerwaard,Zuid-Holland,VBO,4.775579,52.002216
Hoogstraat,98,,,2851BH,Haastrecht,Krimpenerwaard,Zuid-Holland,VBO,4.775609,52.002153
Hoogstraat,100,,,2851BH,Haastrecht,Krimpenerwaard,Zuid-Holland,VBO,4.775489,52.002195
Hoogstraat,102,a,,2851BJ,Haastrecht,Krimpenerwaard,Zuid-Holland,VBO,4.775406,52.002098
Hoogstraat,102,,,2851BJ,Haastrecht,Krimpenerwaard,Zuid-Holland,VBO,4.775440,52.002108
Hoogstraat,104,,,2851BJ,Haastrecht,Krimpenerwaard,Zuid-Holland,VBO,4.775144,52.002076
Hoogstraat,106,,,2851BJ,Haastrecht,Krimpenerwaard,Zuid-Holland,VBO,4.775072,52.002029
Hoogstraat,108,a,,2851BJ,Haastrecht,Krimpenerwaard,Zuid-Holland,VBO,4.774926,52.002082
Hoogstraat,108,b,,2851BJ,Haastrecht,Krimpenerwaard,Zuid-Holland,VBO,4.774918,52.002105
Hoogstraat,108,,,2851BJ,Haastrecht,Krimpenerwaard,Zuid-Holland,VBO,4.774986,52.001979
Hoogstraat,110,a,,2851BJ,Haastrecht,Krimpenerwaard,Zuid-Holland,VBO,4.774810,52.002014
Hoogstraat,110,b,,2851BJ,Haastrecht,Krimpenerwaard,Zuid-Holland,VBO,4.774902,52.002249
Hoogstraat,110,c,,2851BJ,Haastrecht,Krimpenerwaard,Zuid-Holland,VBO,4.774844,52.002235
Hoogstraat,110,d,,2851BJ,Haastrecht,Krimpenerwaard,Zuid-Holland,VBO,4.774793,52.002215
Hoogstraat,110,e,,2851BJ,Haastrecht,Krimpenerwaard,Zuid-Holland,VBO,4.774713,52.002212
Hoogstraat,110,f,,2851BJ,Haastrecht,Krimpenerwaard,Zuid-Holland,VBO,4.774655,52.002202
Hoogstraat,110,g,,2851BJ,Haastrecht,Krimpenerwaard,Zuid-Holland,VBO,4.774597,52.002180
Hoogstraat,110,h,,2851BJ,Haastrecht,Krimpenerwaard,Zuid-Holland,VBO,4.774531,52.002170
Hoogstraat,110,i,,2851BJ,Haastrecht,Krimpenerwaard,Zuid-Holland,VBO,4.774466,52.002147
Hoogstraat,110,j,,2851BJ,Haastrecht,Krimpenerwaard,Zuid-Holland,VBO,4.774811,52.001996
Hoogstraat,110,,,2851BJ,Haastrecht,Krimpenerwaard,Zuid-Holland,VBO,4.774828,52.001974
Hoogstraat,112,a,,2851BJ,Haastrecht,Krimpenerwaard,Zuid-Holland,VBO,4.774676,52.001916
Hoogstraat,112,,,2851BJ,Haastrecht,Krimpenerwaard,Zuid-Holland,VBO,4.774732,52.002008
Hoogstraat,114,a,,2851BJ,Haastrecht,Krimpenerwaard,Zuid-Holland,VBO,4.774676,52.001916
Hoogstraat,114,,,2851BJ,Haastrecht,Krimpenerwaard,Zuid-Holland,VBO,4.774676,52.001916
Hoogstraat,116,a,,2851BJ,Haastrecht,Krimpenerwaard,Zuid-Holland,VBO,4.774529,52.001906
Hoogstraat,116,,,2851BJ,Haastrecht,Krimpenerwaard,Zuid-Holland,VBO,4.774553,52.001898
Hoogstraat,118,a,,2851BJ,Haastrecht,Krimpenerwaard,Zuid-Holland,VBO,4.774462,52.001904
Hoogstraat,118,,,2851BJ,Haastrecht,Krimpenerwaard,Zuid-Holland,VBO,4.774462,52.001904
Hoogstraat,120,,,2851BJ,Haastrecht,Krimpenerwaard,Zuid-Holland,VBO,4.774469,52.001839
Hoogstraat,122,,,2851BJ,Haastrecht,Krimpenerwaard,Zuid-Holland,VBO,4.774386,52.001837
Hoogstraat,126,,,2851BK,Haastrecht,Krimpenerwaard,Zuid-Holland,VBO,4.774199,52.001704
Hoogstraat,128,,,2851BK,Haastrecht,Krimpenerwaard,Zuid-Holland,VBO,4.774126,52.001667
Hoogstraat,130,,,2851BK,Haastrecht,Krimpenerwaard,Zuid-Holland,VBO,4.774060,52.001638
Hoogstraat,132,a,,2851BK,Haastrecht,Krimpenerwaard,Zuid-Holland,VBO,4.774001,52.001592
Hoogstraat,132,,,2851BK,Haastrecht,Krimpenerwaard,Zuid-Holland,VBO,4.773764,52.001883
Hoogstraat,134,,,2851BK,Haastrecht,Krimpenerwaard,Zuid-Holland,VBO,4.773508,52.001727
Hoogstraat,136,a,,2851BK,Haastrecht,Krimpenerwaard,Zuid-Holland,VBO,4.773730,52.001755
Hoogstraat,136,,,2851BK,Haastrecht,Krimpenerwaard,Zuid-Holland,VBO,4.773730,52.001755
Hoogstraat,138,,,2851BK,Haastrecht,Krimpenerwaard,Zuid-Holland,VBO,4.773618,52.001544
Hoogstraat,140,,,2851BK,Haastrecht,Krimpenerwaard,Zuid-Holland,VBO,4.773540,52.001528
Hoogstraat,142,a,,2851BK,Haastrecht,Krimpenerwaard,Zuid-Holland,VBO,4.773248,52.001755
Hoogstraat,142,,,2851BK,Haastrecht,Krimpenerwaard,Zuid-Holland,VBO,4.773348,52.001600
Hoogstraat,144,,,2851BK,Haastrecht,Krimpenerwaard,Zuid-Holland,VBO,4.773094,52.001844
Hoogstraat,146,a,,2851BK,Haastrecht,Krimpenerwaard,Zuid-Holland,VBO,4.773157,52.001518
Hoogstraat,146,b,,2851BK,Haastrecht,Krimpenerwaard,Zuid-Holland,VBO,4.773031,52.001697
Hoogstraat,146,,,2851BK,Haastrecht,Krimpenerwaard,Zuid-Holland,VBO,4.773201,52.001503
Hoogstraat,148,b,,2851BK,Haastrecht,Krimpenerwaard,Zuid-Holland,VBO,4.772848,52.001726
Hoogstraat,148,,,2851BK,Haastrecht,Krimpenerwaard,Zuid-Holland,VBO,4.773086,52.001463
Hoogstraat,152,a,,2851BK,Haastrecht,Krimpenerwaard,Zuid-Holland,VBO,4.772679,52.001572
Hoogstraat,152,,,2851BK,Haastrecht,Krimpenerwaard,Zuid-Holland,VBO,4.772792,52.001563
Hoogstraat,154,,,2851BK,Haastrecht,Krimpenerwaard,Zuid-Holland,VBO,4.772562,52.001324
Hoogstraat,156,,,2851BK,Haastrecht,Krimpenerwaard,Zuid-Holland,VBO,4.772402,52.001364
Veerstraat,1,,,2851BK,Haastrecht,Krimpenerwaard,Zuid-Holland,VBO,4.774020,52.001917
Veerstraat,2,,,2851BK,Haastrecht,Krimpenerwaard,Zuid-Holland,VBO,4.774198,52.002047
Blekerstraat,1,,,2851BL,Haastrecht,Krimpenerwaard,Zuid-Holland,VBO,4.778938,52.001541
Blekerstraat,2,,,2851BL,Haastrecht,Krimpenerwaard,Zuid-Holland,VBO,4.779386,52.001915
Blekerstraat,3,,,2851BL,Haastrecht,Krimpenerwaard,Zuid-Holland,VBO,4.778990,52.001681
Blekerstraat,4,,,2851BL,Haastrecht,Krimpenerwaard,Zuid-Holland,VBO,4.779718,52.002347
Blekerstraat,5,,,2851BL,Haastrecht,Krimpenerwaard,Zuid-Holland,VBO,4.778905,52.001854
Blekerstraat,7,a,,2851BL,Haastrecht,Krimpenerwaard,Zuid-Holland,VBO,4.778711,52.001985
Blekerstraat,7,,,2851BL,Haastrecht,Krimpenerwaard,Zuid-Holland,VBO,4.778711,52.001985
Blekerstraat,9,,,2851BL,Haastrecht,Krimpenerwaard,Zuid-Holland,VBO,4.778736,52.002179
Blekerstraat,10,,,2851BL,Haastrecht,Krimpenerwaard,Zuid-Holland,VBO,4.778762,52.002722
Blekerstraat,11,,,2851BL,Haastrecht,Krimpenerwaard,Zuid-Holland,VBO,4.778577,52.002358
Blekerstraat,13,,,2851BL,Haastrecht,Krimpenerwaard,Zuid-Holland,VBO,4.778187,52.002457
Grote Haven,1,,,2851BM,Haastrecht,Krimpenerwaard,Zuid-Holland,VBO,4.777110,51.999456
Grote Haven,2,a,,2851BM,Haastrecht,Krimpenerwaard,Zuid-Holland,VBO,4.777828,51.999669
Grote Haven,2,b,,2851BM,Haastrecht,Krimpenerwaard,Zuid-Holland,VBO,4.777968,51.999790
Grote Haven,2,c,,2851BM,Haastrecht,Krimpenerwaard,Zuid-Holland,VBO,4.777828,51.999669
Grote Haven,2,d,,2851BM,Haastrecht,Krimpenerwaard,Zuid-Holland,VBO,4.777828,51.999669
Grote Haven,2,e,,2851BM,Haastrecht,Krimpenerwaard,Zuid-Holland,VBO,4.777372,51.999809
Grote Haven,2,f,,2851BM,Haastrecht,Krimpenerwaard,Zuid-Holland,VBO,4.777372,51.999809
Grote Haven,3,,,2851BM,Haastrecht,Krimpenerwaard,Zuid-Holland,VBO,4.776971,51.999491
Grote Haven,4,,,2851BM,Haastrecht,Krimpenerwaard,Zuid-Holland,VBO,4.777169,51.999941
Grote Haven,5,,,2851BM,Haastrecht,Krimpenerwaard,Zuid-Holland,VBO,4.776883,51.999544
Grote Haven,6,,,2851BM,Haastrecht,Krimpenerwaard,Zuid-Holland,VBO,4.777139,51.999986
Grote Haven,7,,,2851BM,Haastrecht,Krimpenerwaard,Zuid-Holland,VBO,4.776795,51.999553
Grote Haven,8,,,2851BM,Haastrecht,Krimpenerwaard,Zuid-Holland,VBO,4.777325,52.000221
Grote Haven,9,,,2851BM,Haastrecht,Krimpenerwaard,Zuid-Holland,VBO,4.776657,51.999561
Grote Haven,10,,,2851BM,Haastrecht,Krimpenerwaard,Zuid-Holland,VBO,4.777076,52.000336
Grote Haven,11,,,2851BM,Haastrecht,Krimpenerwaard,Zuid-Holland,VBO,4.776591,51.999615
Grote Haven,18,,,2851BM,Haastrecht,Krimpenerwaard,Zuid-Holland,VBO,4.776441,52.000958
Grote Haven,20,,,2851BM,Haastrecht,Krimpenerwaard,Zuid-Holland,VBO,4.776431,52.001011
Grote Haven,24,,,2851BM,Haastrecht,Krimpenerwaard,Zuid-Holland,VBO,4.776285,52.001057
Grote Haven,26,a,,2851BM,Haastrecht,Krimpenerwaard,Zuid-Holland,VBO,4.776290,52.001134
Grote Haven,26,,,2851BM,Haastrecht,Krimpenerwaard,Zuid-Holland,VBO,4.776209,52.001130
Grote Haven,28,,,2851BM,Haastrecht,Krimpenerwaard,Zuid-Holland,VBO,4.776759,52.001180
Grote Haven,30,a,,2851BM,Haastrecht,Krimpenerwaard,Zuid-Holland,VBO,4.776405,52.001312
Grote Haven,30,b,,2851BM,Haastrecht,Krimpenerwaard,Zuid-Holland,VBO,4.776447,52.001321
Grote Haven,30,c,,2851BM,Haastrecht,Krimpenerwaard,Zuid-Holland,VBO,4.776364,52.001303
Grote Haven,30,d,,2851BM,Haastrecht,Krimpenerwaard,Zuid-Holland,VBO,4.776324,52.001294
Grote Haven,30,,,2851BM,Haastrecht,Krimpenerwaard,Zuid-Holland,VBO,4.777000,52.001335
Grote Haven,32,,,2851BM,Haastrecht,Krimpenerwaard,Zuid-Holland,VBO,4.776695,52.001548
Grote Haven,34,,,2851BN,Haastrecht,Krimpenerwaard,Zuid-Holland,VBO,4.776181,52.001253
Grote Haven,36,,,2851BN,Haastrecht,Krimpenerwaard,Zuid-Holland,VBO,4.776151,52.001322
Grote Haven,40,,,2851BN,Haastrecht,Krimpenerwaard,Zuid-Holland,VBO,4.776244,52.001401
Grote Haven,44,,,2851BN,Haastrecht,Krimpenerwaard,Zuid-Holland,VBO,4.776470,52.001697
Grote Haven,46,,,2851BN,Haastrecht,Krimpenerwaard,Zuid-Holland,VBO,4.776059,52.001668
Grote Haven,48,,,2851BN,Haastrecht,Krimpenerwaard,Zuid-Holland,VBO,4.775967,52.001649
Grote Haven,50,,,2851BN,Haastrecht,Krimpenerwaard,Zuid-Holland,VBO,4.775899,52.001717
Grote Haven,52,,,2851BN,Haastrecht,Krimpenerwaard,Zuid-Holland,VBO,4.775880,52.001760
Grote Haven,54,,,2851BN,Haastrecht,Krimpenerwaard,Zuid-Holland,VBO,4.775970,52.001850
Grote Haven,56,,,2851BN,Haastrecht,Krimpenerwaard,Zuid-Holland,VBO,4.775819,52.001831
Grote Haven,58,,,2851BN,Haastrecht,Krimpenerwaard,Zuid-Holland,VBO,4.775819,52.001831
Grote Haven,60,,,2851BN,Haastrecht,Krimpenerwaard,Zuid-Holland,VBO,4.775819,52.001831
Grote Haven,62,,,2851BN,Haastrecht,Krimpenerwaard,Zuid-Holland,VBO,4.775737,52.001898
Grote Haven,66,,,2851BN,Haastrecht,Krimpenerwaard,Zuid-Holland,VBO,4.775707,52.001943
Wagenmakersstraat,4,,,2851BN,Haastrecht,Krimpenerwaard,Zuid-Holland,VBO,4.775416,52.001361
Wagenmakersstraat,6,,,2851BN,Haastrecht,Krimpenerwaard,Zuid-Holland,VBO,4.775083,52.001545
Kleine Haven,1,,,2851BP,Haastrecht,Krimpenerwaard,Zuid-Holland,VBO,4.775685,52.000868
Kleine Haven,3,a,,2851BP,Haastrecht,Krimpenerwaard,Zuid-Holland,VBO,4.775591,52.001071
Kleine Haven,3,,,2851BP,Haastrecht,Krimpenerwaard,Zuid-Holland,VBO,4.775657,52.001026
Kleine Haven,4,a,,2851BP,Haastrecht,Krimpenerwaard,Zuid-Holland,VBO,4.775451,52.001724
Kleine Haven,4,b,,2851BP,Haastrecht,Krimpenerwaard,Zuid-Holland,VBO,4.775465,52.001706
Kleine Haven,4,,,2851BP,Haastrecht,Krimpenerwaard,Zuid-Holland,VBO,4.775418,52.001702
Kleine Haven,5,,,2851BP,Haastrecht,Krimpenerwaard,Zuid-Holland,VBO,4.775623,52.001147
Kleine Haven,6,,,2851BP,Haastrecht,Krimpenerwaard,Zuid-Holland,VBO,4.775381,52.001774
Kleine Haven,7,,,2851BP,Haastrecht,Krimpenerwaard,Zuid-Holland,VBO,4.775391,52.001171
Kleine Haven,8,,,2851BP,Haastrecht,Krimpenerwaard,Zuid-Holland,VBO,4.775339,52.001829
Kleine Haven,9,,,2851BP,Haastrecht,Krimpenerwaard,Zuid-Holland,VBO,4.775391,52.001171
Kleine Haven,10,,,2851BP,Haastrecht,Krimpenerwaard,Zuid-Holland,VBO,4.775308,52.001878
Kleine Haven,11,,,2851BP,Haastrecht,Krimpenerwaard,Zuid-Holland,VBO,4.775427,52.001294
Kleine Haven,12,,,2851BP,Haastrecht,Krimpenerwaard,Zuid-Holland,VBO,4.775271,52.001924
Kleine Haven,13,a,,2851BP,Haastrecht,Krimpenerwaard,Zuid-Holland,VBO,4.775324,52.001445
Kleine Haven,13,,,2851BP,Haastrecht,Krimpenerwaard,Zuid-Holland,VBO,4.775324,52.001445
Marktveld,1,,,2851BR,Haastrecht,Krimpenerwaard,Zuid-Holland,VBO,4.774727,52.000639
Marktveld,2,,,2851BR,Haastrecht,Krimpenerwaard,Zuid-Holland,VBO,4.775049,52.000831
Marktveld,4,,,2851BR,Haastrecht,Krimpenerwaard,Zuid-Holland,VBO,4.775048,52.000882
Marktveld,6,,,2851BR,Haastrecht,Krimpenerwaard,Zuid-Holland,VBO,4.775048,52.000882
Marktveld,8,,,2851BR,Haastrecht,Krimpenerwaard,Zuid-Holland,VBO,4.775023,52.000988
Marktveld,10,,,2851BR,Haastrecht,Krimpenerwaard,Zuid-Holland,VBO,4.775006,52.001044
Marktveld,12,,,2851BR,Haastrecht,Krimpenerwaard,Zuid-Holland,VBO,4.774980,52.001097
Marktveld,14,,,2851BR,Haastrecht,Krimpenerwaard,Zuid-Holland,VBO,4.774967,52.001183
Marktveld,16,,,2851BR,Haastrecht,Krimpenerwaard,Zuid-Holland,VBO,4.774950,52.001258
Marktveld,18,,,2851BR,Haastrecht,Krimpenerwaard,Zuid-Holland,VBO,4.774817,52.001367
Marktveld,20,,,2851BR,Haastrecht,Krimpenerwaard,Zuid-Holland,VBO,4.774427,52.001534
Marktveld,7,,,2851BS,Haastrecht,Krimpenerwaard,Zuid-Holland,VBO,4.774796,52.000909
Marktveld,9,,,2851BS,Haastrecht,Krimpenerwaard,Zuid-Holland,VBO,4.774799,52.000999
Marktveld,11,,,2851BS,Haastrecht,Krimpenerwaard,Zuid-Holland,VBO,4.774772,52.001061
Marktveld,13,,,2851BS,Haastrecht,Krimpenerwaard,Zuid-Holland,VBO,4.774722,52.001140
Marktveld,15,,,2851BS,Haastrecht,Krimpenerwaard,Zuid-Holland,VBO,4.774647,52.001178
Marktveld,17,,,2851BS,Haastrecht,Krimpenerwaard,Zuid-Holland,VBO,4.774563,52.001199
Marktveld,19,,,2851BS,Haastrecht,Krimpenerwaard,Zuid-Holland,VBO,4.774559,52.001240
Marktveld,21,,,2851BS,Haastrecht,Krimpenerwaard,Zuid-Holland,VBO,4.774522,52.001280
Marktveld,23,,,2851BS,Haastrecht,Krimpenerwaard,Zuid-Holland,VBO,4.774441,52.001312
Marktveld,27,,,2851BS,Haastrecht,Krimpenerwaard,Zuid-Holland,VBO,4.774374,52.001441
Kerkplein,8,a,,2851BT,Haastrecht,Krimpenerwaard,Zuid-Holland,VBO,4.774283,52.001185
Kerkplein,8,,,2851BT,Haastrecht,Krimpenerwaard,Zuid-Holland,VBO,4.774575,52.001096
Kerkplein,10,,,2851BT,Haastrecht,Krimpenerwaard,Zuid-Holland,VBO,4.773756,52.000836
Kerkstraat,1,,,2851BT,Haastrecht,Krimpenerwaard,Zuid-Holland,VBO,4.773977,52.001165
Kerkstraat,2,,,2851BT,Haastrecht,Krimpenerwaard,Zuid-Holland,VBO,4.774158,52.001207
Kerkstraat,3,,,2851BT,Haastrecht,Krimpenerwaard,Zuid-Holland,VBO,4.773816,52.001181
Kerkstraat,4,,,2851BT,Haastrecht,Krimpenerwaard,Zuid-Holland,VBO,4.774107,52.001260
Kerkstraat,5,,,2851BT,Haastrecht,Krimpenerwaard,Zuid-Holland,VBO,4.773871,52.001247
Kerkstraat,6,a,,2851BT,Haastrecht,Krimpenerwaard,Zuid-Holland,VBO,4.774007,52.001370
Kerkstraat,6,,,2851BT,Haastrecht,Krimpenerwaard,Zuid-Holland,VBO,4.774073,52.001323
Veerlaan,1,,,2851BV,Haastrecht,Krimpenerwaard,Zuid-Holland,VBO,4.773529,52.002294
Veerlaan,2,a,,2851BV,Haastrecht,Krimpenerwaard,Zuid-Holland,VBO,4.773886,52.002549
Veerlaan,2,,,2851BV,Haastrecht,Krimpenerwaard,Zuid-Holland,VBO,4.773915,52.002504
Veerlaan,3,,,2851BV,Haastrecht,Krimpenerwaard,Zuid-Holland,VBO,4.773450,52.002466
Veerlaan,4,a,,2851BV,Haastrecht,Krimpenerwaard,Zuid-Holland,VBO,4.774117,52.002649
Veerlaan,4,,,2851BV,Haastrecht,Krimpenerwaard,Zuid-Holland,VBO,4.773811,52.002656
Veerlaan,5,,,2851BV,Haastrecht,Krimpenerwaard,Zuid-Holland,VBO,4.773268,52.002632
Veerlaan,6,,,2851BV,Haastrecht,Krimpenerwaard,Zuid-Holland,VBO,4.773781,52.002710
Veerlaan,7,,,2851BV,Haastrecht,Krimpenerwaard,Zuid-Holland,VBO,4.773302,52.002660
Veerlaan,8,,,2851BV,Haastrecht,Krimpenerwaard,Zuid-Holland,VBO,4.773766,52.002755
Veerlaan,10,,,2851BV,Haastrecht,Krimpenerwaard,Zuid-Holland,VBO,4.773646,52.003051
Veerlaan,11,,,2851BV,Haastrecht,Krimpenerwaard,Zuid-Holland,VBO,4.772930,52.003218
Veerlaan,12,,,2851BV,Haastrecht,Krimpenerwaard,Zuid-Holland,VBO,4.773645,52.003120
Veerlaan,13,a,,2851BV,Haastrecht,Krimpenerwaard,Zuid-Holland,VBO,4.772781,52.003442
Veerlaan,13,,,2851BV,Haastrecht,Krimpenerwaard,Zuid-Holland,VBO,4.772961,52.003088
Veerlaan,14,,,2851BV,Haastrecht,Krimpenerwaard,Zuid-Holland,VBO,4.773541,52.003212
Veerlaan,15,,,2851BV,Haastrecht,Krimpenerwaard,Zuid-Holland,VBO,4.773034,52.003084
Veerlaan,16,,,2851BV,Haastrecht,Krimpenerwaard,Zuid-Holland,VBO,4.773497,52.003266
Veerlaan,17,,,2851BV,Haastrecht,Krimpenerwaard,Zuid-Holland,VBO,4.772915,52.003245
Veerlaan,18,a,,2851BV,Haastrecht,Krimpenerwaard,Zuid-Holland,VBO,4.773859,52.003398
Veerlaan,18,,,2851BV,Haastrecht,Krimpenerwaard,Zuid-Holland,VBO,4.773444,52.003502
Veerlaan,19,,,2851BV,Haastrecht,Krimpenerwaard,Zuid-Holland,VBO,4.773004,52.003138
Veerlaan,21,,,2851BV,Haastrecht,Krimpenerwaard,Zuid-Holland,VBO,4.773019,52.003111
Veerlaan,23,,,2851BV,Haastrecht,Krimpenerwaard,Zuid-Holland,VBO,4.773078,52.003030
Veerlaan,25,,,2851BV,Haastrecht,Krimpenerwaard,Zuid-Holland,VBO,4.773048,52.003057
Veerlaan,27,,,2851BV,Haastrecht,Krimpenerwaard,Zuid-Holland,VBO,4.772959,52.003191
Veerlaan,29,,,2851BV,Haastrecht,Krimpenerwaard,Zuid-Holland,VBO,4.772900,52.003272
Veerlaan,31,,,2851BV,Haastrecht,Krimpenerwaard,Zuid-Holland,VBO,4.773093,52.003003
Veerlaan,33,,,2851BV,Haastrecht,Krimpenerwaard,Zuid-Holland,VBO,4.773108,52.002976
Dunantstraat,1,a,,2851BW,Haastrecht,Krimpenerwaard,Zuid-Holland,VBO,4.773774,52.003291
Dunantstraat,1,b,,2851BW,Haastrecht,Krimpenerwaard,Zuid-Holland,VBO,4.773814,52.003300
Dunantstraat,1,c,,2851BW,Haastrecht,Krimpenerwaard,Zuid-Holland,VBO,4.773853,52.003309
Dunantstraat,1,d,,2851BW,Haastrecht,Krimpenerwaard,Zuid-Holland,VBO,4.773892,52.003318
Dunantstraat,1,,,2851BW,Haastrecht,Krimpenerwaard,Zuid-Holland,VBO,4.773956,52.003097
Dunantstraat,3,,,2851BW,Haastrecht,Krimpenerwaard,Zuid-Holland,VBO,4.774048,52.003086
Dunantstraat,5,,,2851BW,Haastrecht,Krimpenerwaard,Zuid-Holland,VBO,4.774096,52.003116
Dunantstraat,7,,,2851BW,Haastrecht,Krimpenerwaard,Zuid-Holland,VBO,4.774176,52.003137
Dunantstraat,9,,,2851BW,Haastrecht,Krimpenerwaard,Zuid-Holland,VBO,4.774257,52.003156
Dunantstraat,11,,,2851BW,Haastrecht,Krimpenerwaard,Zuid-Holland,VBO,4.774314,52.003160
Dunantstraat,13,,,2851BW,Haastrecht,Krimpenerwaard,Zuid-Holland,VBO,4.774398,52.003184
Dunantstraat,15,,,2851BW,Haastrecht,Krimpenerwaard,Zuid-Holland,VBO,4.774462,52.003183
Dunantstraat,17,,,2851BW,Haastrecht,Krimpenerwaard,Zuid-Holland,VBO,4.774750,52.003201
Dunantstraat,19,,,2851BW,Haastrecht,Krimpenerwaard,Zuid-Holland,VBO,4.774823,52.003210
Dunantstraat,21,,,2851BW,Haastrecht,Krimpenerwaard,Zuid-Holland,VBO,4.774910,52.003219
Dunantstraat,23,,,2851BW,Haastrecht,Krimpenerwaard,Zuid-Holland,VBO,4.774998,52.003229
Dunantstraat,25,,,2851BW,Haastrecht,Krimpenerwaard,Zuid-Holland,VBO,4.775129,52.003238
Dunantstraat,27,,,2851BW,Haastrecht,Krimpenerwaard,Zuid-Holland,VBO,4.775201,52.003248
Dunantstraat,29,,,2851BW,Haastrecht,Krimpenerwaard,Zuid-Holland,VBO,4.775281,52.003257
Dunantstraat,31,,,2851BW,Haastrecht,Krimpenerwaard,Zuid-Holland,VBO,4.775368,52.003271
Dunantstraat,33,,,2851BW,Haastrecht,Krimpenerwaard,Zuid-Holland,VBO,4.775463,52.003276
Dunantstraat,35,,,2851BW,Haastrecht,Krimpenerwaard,Zuid-Holland,VBO,4.775550,52.003286
Dunantstraat,37,,,2851BW,Haastrecht,Krimpenerwaard,Zuid-Holland,VBO,4.775667,52.003295
Dunantstraat,39,,,2851BW,Haastrecht,Krimpenerwaard,Zuid-Holland,VBO,4.775754,52.003305
Dunantstraat,41,,,2851BW,Haastrecht,Krimpenerwaard,Zuid-Holland,VBO,4.775841,52.003323
Dunantstraat,43,,,2851BW,Haastrecht,Krimpenerwaard,Zuid-Holland,VBO,4.775928,52.003333
Dunantstraat,45,,,2851BW,Haastrecht,Krimpenerwaard,Zuid-Holland,VBO,4.776001,52.003342
Dunantstraat,47,,,2851BW,Haastrecht,Krimpenerwaard,Zuid-Holland,VBO,4.776088,52.003360
Dunantstraat,49,,,2851BX,Haastrecht,Krimpenerwaard,Zuid-Holland,VBO,4.776398,52.003428
Dunantstraat,51,,,2851BX,Haastrecht,Krimpenerwaard,Zuid-Holland,VBO,4.776440,52.003433
Dunantstraat,53,,,2851BX,Haastrecht,Krimpenerwaard,Zuid-Holland,VBO,4.776482,52.003437
Dunantstraat,55,,,2851BX,Haastrecht,Krimpenerwaard,Zuid-Holland,VBO,4.776524,52.003443
Dunantstraat,57,,,2851BX,Haastrecht,Krimpenerwaard,Zuid-Holland,VBO,4.776565,52.003447
Dunantstraat,61,,,2851BX,Haastrecht,Krimpenerwaard,Zuid-Holland,VBO,4.776654,52.003512
Dunantstraat,63,,,2851BX,Haastrecht,Krimpenerwaard,Zuid-Holland,VBO,4.776720,52.003495
Dunantstraat,65,,,2851BX,Haastrecht,Krimpenerwaard,Zuid-Holland,VBO,4.776790,52.003513
Dunantstraat,67,,,2851BX,Haastrecht,Krimpenerwaard,Zuid-Holland,VBO,4.776855,52.003510
Dunantstraat,69,,,2851BX,Haastrecht,Krimpenerwaard,Zuid-Holland,VBO,4.776926,52.003529
Dunantstraat,71,,,2851BX,Haastrecht,Krimpenerwaard,Zuid-Holland,VBO,4.776991,52.003525
Dunantstraat,73,,,2851BX,Haastrecht,Krimpenerwaard,Zuid-Holland,VBO,4.777061,52.003544
Dunantstraat,75,,,2851BX,Haastrecht,Krimpenerwaard,Zuid-Holland,VBO,4.777128,52.003540
Dunantstraat,77,,,2851BX,Haastrecht,Krimpenerwaard,Zuid-Holland,VBO,4.777202,52.003559
Dunantstraat,79,,,2851BX,Haastrecht,Krimpenerwaard,Zuid-Holland,VBO,4.777327,52.003542
Dunantstraat,81,,,2851BX,Haastrecht,Krimpenerwaard,Zuid-Holland,VBO,4.777403,52.003569
Dunantstraat,83,,,2851BX,Haastrecht,Krimpenerwaard,Zuid-Holland,VBO,4.777467,52.003544
Dunantstraat,85,,,2851BX,Haastrecht,Krimpenerwaard,Zuid-Holland,VBO,4.777541,52.003575
Dunantstraat,87,,,2851BX,Haastrecht,Krimpenerwaard,Zuid-Holland,VBO,4.780869,52.003178
Dunantstraat,89,,,2851BX,Haastrecht,Krimpenerwaard,Zuid-Holland,VBO,4.780869,52.003178
Dunantstraat,2,,,2851BZ,Haastrecht,Krimpenerwaard,Zuid-Holland,VBO,4.774006,52.002810
Dunantstraat,4,,,2851BZ,Haastrecht,Krimpenerwaard,Zuid-Holland,VBO,4.774090,52.002829
Dunantstraat,6,,,2851BZ,Haastrecht,Krimpenerwaard,Zuid-Holland,VBO,4.774172,52.002848
Dunantstraat,8,,,2851BZ,Haastrecht,Krimpenerwaard,Zuid-Holland,VBO,4.774254,52.002867
Dunantstraat,10,,,2851BZ,Haastrecht,Krimpenerwaard,Zuid-Holland,VBO,4.774336,52.002886
Dunantstraat,12,,,2851BZ,Haastrecht,Krimpenerwaard,Zuid-Holland,VBO,4.774419,52.002905
Dunantstraat,14,,,2851BZ,Haastrecht,Krimpenerwaard,Zuid-Holland,VBO,4.774537,52.002911
Dunantstraat,16,,,2851BZ,Haastrecht,Krimpenerwaard,Zuid-Holland,VBO,4.774623,52.002923
Dunantstraat,18,,,2851BZ,Haastrecht,Krimpenerwaard,Zuid-Holland,VBO,4.774708,52.002935
Dunantstraat,20,,,2851BZ,Haastrecht,Krimpenerwaard,Zuid-Holland,VBO,4.774793,52.002947
Dunantstraat,22,,,2851BZ,Haastrecht,Krimpenerwaard,Zuid-Holland,VBO,4.774877,52.002959
Dunantstraat,24,,,2851BZ,Haastrecht,Krimpenerwaard,Zuid-Holland,VBO,4.774963,52.002971
Dunantstraat,32,,,2851BZ,Haastrecht,Krimpenerwaard,Zuid-Holland,VBO,4.775379,52.003002
Dunantstraat,34,,,2851BZ,Haastrecht,Krimpenerwaard,Zuid-Holland,VBO,4.775437,52.003024
Dunantstraat,36,,,2851BZ,Haastrecht,Krimpenerwaard,Zuid-Holland,VBO,4.775510,52.003034
Dunantstraat,38,,,2851BZ,Haastrecht,Krimpenerwaard,Zuid-Holland,VBO,4.775611,52.003079
Dunantstraat,40,,,2851BZ,Haastrecht,Krimpenerwaard,Zuid-Holland,VBO,4.775697,52.003095
Dunantstraat,42,,,2851CA,Haastrecht,Krimpenerwaard,Zuid-Holland,VBO,4.775783,52.003105
Dunantstraat,44,,,2851CA,Haastrecht,Krimpenerwaard,Zuid-Holland,VBO,4.775869,52.003114
Dunantstraat,46,,,2851CA,Haastrecht,Krimpenerwaard,Zuid-Holland,VBO,4.775990,52.003128
Dunantstraat,48,,,2851CA,Haastrecht,Krimpenerwaard,Zuid-Holland,VBO,4.776077,52.003138
Dunantstraat,50,,,2851CA,Haastrecht,Krimpenerwaard,Zuid-Holland,VBO,4.776162,52.003148
Dunantstraat,52,,,2851CA,Haastrecht,Krimpenerwaard,Zuid-Holland,VBO,4.776247,52.003157
Dunantstraat,54,,,2851CA,Haastrecht,Krimpenerwaard,Zuid-Holland,VBO,4.776332,52.003167
Dunantstraat,56,,,2851CA,Haastrecht,Krimpenerwaard,Zuid-Holland,VBO,4.776418,52.003176
Dunantstraat,58,,,2851CA,Haastrecht,Krimpenerwaard,Zuid-Holland,VBO,4.776536,52.003162
Dunantstraat,60,,,2851CA,Haastrecht,Krimpenerwaard,Zuid-Holland,VBO,4.776623,52.003200
Dunantstraat,62,,,2851CA,Haastrecht,Krimpenerwaard,Zuid-Holland,VBO,4.776708,52.003209
Dunantstraat,64,,,2851CA,Haastrecht,Krimpenerwaard,Zuid-Holland,VBO,4.776789,52.003211
Dunantstraat,66,,,2851CA,Haastrecht,Krimpenerwaard,Zuid-Holland,VBO,4.776880,52.003229
Dunantstraat,68,,,2851CA,Haastrecht,Krimpenerwaard,Zuid-Holland,VBO,4.776967,52.003239
Dunantstraat,70,,,2851CA,Haastrecht,Krimpenerwaard,Zuid-Holland,VBO,4.777086,52.003251
Dunantstraat,72,,,2851CA,Haastrecht,Krimpenerwaard,Zuid-Holland,VBO,4.777174,52.003261
Dunantstraat,74,,,2851CA,Haastrecht,Krimpenerwaard,Zuid-Holland,VBO,4.777259,52.003271
Dunantstraat,76,,,2851CA,Haastrecht,Krimpenerwaard,Zuid-Holland,VBO,4.777345,52.003281
Dunantstraat,78,,,2851CA,Haastrecht,Krimpenerwaard,Zuid-Holland,VBO,4.777431,52.003291
Dunantstraat,80,,,2851CA,Haastrecht,Krimpenerwaard,Zuid-Holland,VBO,4.777518,52.003300
Dunantstraat,82,,,2851CA,Haastrecht,Krimpenerwaard,Zuid-Holland,VBO,4.777538,52.003051
Dunantstraat,84,,,2851CB,Haastrecht,Krimpenerwaard,Zuid-Holland,VBO,4.777861,52.003262
Dunantstraat,86,,,2851CB,Haastrecht,Krimpenerwaard,Zuid-Holland,VBO,4.777854,52.003288
Dunantstraat,88,,,2851CB,Haastrecht,Krimpenerwaard,Zuid-Holland,VBO,4.777915,52.003451
Dunantstraat,92,,,2851CB,Haastrecht,Krimpenerwaard,Zuid-Holland,VBO,4.778118,52.003485
Dunantstraat,94,,,2851CB,Haastrecht,Krimpenerwaard,Zuid-Holland,VBO,4.778205,52.003478
Dunantstraat,96,,,2851CB,Haastrecht,Krimpenerwaard,Zuid-Holland,VBO,4.778289,52.003471
Dunantstraat,98,,,2851CB,Haastrecht,Krimpenerwaard,Zuid-Holland,VBO,4.778375,52.003464
Dunantstraat,100,,,2851CB,Haastrecht,Krimpenerwaard,Zuid-Holland,VBO,4.778462,52.003457
Dunantstraat,102,,,2851CB,Haastrecht,Krimpenerwaard,Zuid-Holland,VBO,4.778550,52.003446
Dunantstraat,104,,,2851CB,Haastrecht,Krimpenerwaard,Zuid-Holland,VBO,4.778636,52.003442
Dunantstraat,106,,,2851CB,Haastrecht,Krimpenerwaard,Zuid-Holland,VBO,4.778723,52.003435
Dunantstraat,108,,,2851CB,Haastrecht,Krimpenerwaard,Zuid-Holland,VBO,4.778811,52.003428
Dunantstraat,110,,,2851CB,Haastrecht,Krimpenerwaard,Zuid-Holland,VBO,4.778926,52.003390
Dunantstraat,112,,,2851CB,Haastrecht,Krimpenerwaard,Zuid-Holland,VBO,4.778981,52.003378
Dunantstraat,114,,,2851CB,Haastrecht,Krimpenerwaard,Zuid-Holland,VBO,4.778982,52.003351
Dunantstraat,116,,,2851CB,Haastrecht,Krimpenerwaard,Zuid-Holland,VBO,4.778982,52.003323
Dunantstraat,118,a,,2851CB,Haastrecht,Krimpenerwaard,Zuid-Holland,VBO,4.779232,52.003520
Dunantstraat,118,,,2851CB,Haastrecht,Krimpenerwaard,Zuid-Holland,VBO,4.779340,52.003344
Dunantstraat,120,,,2851CB,Haastrecht,Krimpenerwaard,Zuid-Holland,VBO,4.779482,52.003309
Dunantstraat,122,,,2851CB,Haastrecht,Krimpenerwaard,Zuid-Holland,VBO,4.779591,52.003320
Dunantstraat,124,,,2851CB,Haastrecht,Krimpenerwaard,Zuid-Holland,VBO,4.779744,52.003303
Dunantstraat,126,,,2851CB,Haastrecht,Krimpenerwaard,Zuid-Holland,VBO,4.779856,52.003308
Dunantstraat,128,,,2851CB,Haastrecht,Krimpenerwaard,Zuid-Holland,VBO,4.779994,52.003308
Dunantstraat,130,,,2851CB,Haastrecht,Krimpenerwaard,Zuid-Holland,VBO,4.780094,52.003258
Dunantstraat,132,,,2851CB,Haastrecht,Krimpenerwaard,Zuid-Holland,VBO,4.780240,52.003244
Dunantstraat,134,,,2851CB,Haastrecht,Krimpenerwaard,Zuid-Holland,VBO,4.780388,52.003248
Dunantstraat,136,,,2851CB,Haastrecht,Krimpenerwaard,Zuid-Holland,VBO,4.780519,52.003261
Albert Schweitzerstraat,1,,,2851CC,Haastrecht,Krimpenerwaard,Zuid-Holland,VBO,4.774394,52.003362
Albert Schweitzerstraat,3,,,2851CC,Haastrecht,Krimpenerwaard,Zuid-Holland,VBO,4.774384,52.003408
Albert Schweitzerstraat,5,,,2851CC,Haastrecht,Krimpenerwaard,Zuid-Holland,VBO,4.774367,52.003451
Albert Schweitzerstraat,7,,,2851CC,Haastrecht,Krimpenerwaard,Zuid-Holland,VBO,4.774357,52.003496
Albert Schweitzerstraat,9,,,2851CC,Haastrecht,Krimpenerwaard,Zuid-Holland,VBO,4.774339,52.003539
Albert Schweitzerstraat,11,,,2851CC,Haastrecht,Krimpenerwaard,Zuid-Holland,VBO,4.774329,52.003584
Albert Schweitzerstraat,13,,,2851CC,Haastrecht,Krimpenerwaard,Zuid-Holland,VBO,4.774311,52.003627
Albert Schweitzerstraat,15,,,2851CC,Haastrecht,Krimpenerwaard,Zuid-Holland,VBO,4.774301,52.003672
Albert Schweitzerstraat,17,,,2851CC,Haastrecht,Krimpenerwaard,Zuid-Holland,VBO,4.776319,52.003706
Albert Schweitzerstraat,19,,,2851CC,Haastrecht,Krimpenerwaard,Zuid-Holland,VBO,4.776322,52.003643
Albert Schweitzerstraat,21,,,2851CC,Haastrecht,Krimpenerwaard,Zuid-Holland,VBO,4.776369,52.003609
Albert Schweitzerstraat,23,,,2851CC,Haastrecht,Krimpenerwaard,Zuid-Holland,VBO,4.776391,52.003560
Albert Schweitzerstraat,25,,,2851CC,Haastrecht,Krimpenerwaard,Zuid-Holland,VBO,4.776370,52.003524
Albert Schweitzerstraat,27,,,2851CC,Haastrecht,Krimpenerwaard,Zuid-Holland,VBO,4.776388,52.003470
Albert Schweitzerstraat,2,,,2851CD,Haastrecht,Krimpenerwaard,Zuid-Holland,VBO,4.774663,52.003552
Albert Schweitzerstraat,4,,,2851CD,Haastrecht,Krimpenerwaard,Zuid-Holland,VBO,4.774760,52.003560
Albert Schweitzerstraat,6,,,2851CD,Haastrecht,Krimpenerwaard,Zuid-Holland,VBO,4.774844,52.003575
Albert Schweitzerstraat,8,,,2851CD,Haastrecht,Krimpenerwaard,Zuid-Holland,VBO,4.774930,52.003585
Albert Schweitzerstraat,10,,,2851CD,Haastrecht,Krimpenerwaard,Zuid-Holland,VBO,4.775016,52.003560
Albert Schweitzerstraat,12,,,2851CD,Haastrecht,Krimpenerwaard,Zuid-Holland,VBO,4.775103,52.003560
Albert Schweitzerstraat,14,,,2851CD,Haastrecht,Krimpenerwaard,Zuid-Holland,VBO,4.775190,52.003615
Albert Schweitzerstraat,16,,,2851CD,Haastrecht,Krimpenerwaard,Zuid-Holland,VBO,4.775302,52.003627
Albert Schweitzerstraat,18,,,2851CD,Haastrecht,Krimpenerwaard,Zuid-Holland,VBO,4.775504,52.003637
Albert Schweitzerstraat,20,,,2851CD,Haastrecht,Krimpenerwaard,Zuid-Holland,VBO,4.775593,52.003634
Albert Schweitzerstraat,22,,,2851CD,Haastrecht,Krimpenerwaard,Zuid-Holland,VBO,4.775691,52.003619
Albert Schweitzerstraat,24,,,2851CD,Haastrecht,Krimpenerwaard,Zuid-Holland,VBO,4.775768,52.003629
Albert Schweitzerstraat,26,,,2851CD,Haastrecht,Krimpenerwaard,Zuid-Holland,VBO,4.775854,52.003626
Albert Schweitzerstraat,28,,,2851CD,Haastrecht,Krimpenerwaard,Zuid-Holland,VBO,4.775972,52.003622
Jaagpad,3,,,2851CE,Haastrecht,Krimpenerwaard,Zuid-Holland,VBO,4.773960,52.002450
Jaagpad,5,,,2851CE,Haastrecht,Krimpenerwaard,Zuid-Holland,VBO,4.774076,52.002460
Jaagpad,7,,,2851CE,Haastrecht,Krimpenerwaard,Zuid-Holland,VBO,4.774221,52.002497
Jaagpad,9,,,2851CE,Haastrecht,Krimpenerwaard,Zuid-Holland,VBO,4.774454,52.002537
Jaagpad,11,,,2851CE,Haastrecht,Krimpenerwaard,Zuid-Holland,VBO,4.774578,52.002530
Jaagpad,13,,,2851CE,Haastrecht,Krimpenerwaard,Zuid-Holland,VBO,4.774657,52.002544
Jaagpad,15,,,2851CE,Haastrecht,Krimpenerwaard,Zuid-Holland,VBO,4.774730,52.002562
Jaagpad,17,,,2851CE,Haastrecht,Krimpenerwaard,Zuid-Holland,VBO,4.774873,52.002618
Jaagpad,19,,,2851CE,Haastrecht,Krimpenerwaard,Zuid-Holland,VBO,4.774986,52.002635
Jaagpad,21,,,2851CE,Haastrecht,Krimpenerwaard,Zuid-Holland,VBO,4.775159,52.002695
Jaagpad,23,,,2851CE,Haastrecht,Krimpenerwaard,Zuid-Holland,VBO,4.775259,52.002700
Jaagpad,25,,,2851CE,Haastrecht,Krimpenerwaard,Zuid-Holland,VBO,4.775475,52.002740
Jaagpad,29,,,2851CE,Haastrecht,Krimpenerwaard,Zuid-Holland,VBO,4.775790,52.002931
Jaagpad,33,,,2851CE,Haastrecht,Krimpenerwaard,Zuid-Holland,VBO,4.776075,52.002880
Jaagpad,35,,,2851CE,Haastrecht,Krimpenerwaard,Zuid-Holland,VBO,4.776198,52.002883
Jaagpad,37,,,2851CE,Haastrecht,Krimpenerwaard,Zuid-Holland,VBO,4.776290,52.002895
Jaagpad,39,,,2851CE,Haastrecht,Krimpenerwaard,Zuid-Holland,VBO,4.776381,52.002906
Jaagpad,41,,,2851CE,Haastrecht,Krimpenerwaard,Zuid-Holland,VBO,4.776471,52.002915
Jaagpad,43,,,2851CE,Haastrecht,Krimpenerwaard,Zuid-Holland,VBO,4.776580,52.002933
Jaagpad,45,,,2851CE,Haastrecht,Krimpenerwaard,Zuid-Holland,VBO,4.776720,52.002950
Jaagpad,47,,,2851CG,Haastrecht,Krimpenerwaard,Zuid-Holland,VBO,4.776807,52.002951
Jaagpad,49,,,2851CG,Haastrecht,Krimpenerwaard,Zuid-Holland,VBO,4.776894,52.002960
Jaagpad,51,,,2851CG,Haastrecht,Krimpenerwaard,Zuid-Holland,VBO,4.776982,52.002969
Jaagpad,53,,,2851CG,Haastrecht,Krimpenerwaard,Zuid-Holland,VBO,4.777069,52.002988
Jaagpad,55,,,2851CG,Haastrecht,Krimpenerwaard,Zuid-Holland,VBO,4.777142,52.002988
Jaagpad,57,,,2851CG,Haastrecht,Krimpenerwaard,Zuid-Holland,VBO,4.777243,52.003007
Jaagpad,59,,,2851CG,Haastrecht,Krimpenerwaard,Zuid-Holland,VBO,4.777331,52.003016
Jaagpad,61,,,2851CG,Haastrecht,Krimpenerwaard,Zuid-Holland,VBO,4.777403,52.003026
Jaagpad,65,,,2851CG,Haastrecht,Krimpenerwaard,Zuid-Holland,VBO,4.777897,52.003127
Jaagpad,67,,,2851CG,Haastrecht,Krimpenerwaard,Zuid-Holland,VBO,4.777984,52.003132
Jaagpad,69,,,2851CG,Haastrecht,Krimpenerwaard,Zuid-Holland,VBO,4.778064,52.003173
Jaagpad,71,,,2851CG,Haastrecht,Krimpenerwaard,Zuid-Holland,VBO,4.778155,52.003157
Jaagpad,73,,,2851CG,Haastrecht,Krimpenerwaard,Zuid-Holland,VBO,4.778333,52.003165
Jaagpad,75,,,2851CG,Haastrecht,Krimpenerwaard,Zuid-Holland,VBO,4.778432,52.003172
Jaagpad,77,,,2851CG,Haastrecht,Krimpenerwaard,Zuid-Holland,VBO,4.778508,52.003166
Jaagpad,79,,,2851CG,Haastrecht,Krimpenerwaard,Zuid-Holland,VBO,4.778610,52.003167
Jaagpad,81,,,2851CG,Haastrecht,Krimpenerwaard,Zuid-Holland,VBO,4.778705,52.003190
Jaagpad,83,,,2851CG,Haastrecht,Krimpenerwaard,Zuid-Holland,VBO,4.778763,52.003194
Jaagpad,85,,,2851CG,Haastrecht,Krimpenerwaard,Zuid-Holland,VBO,4.778872,52.003199
Jaagpad,87,,,2851CG,Haastrecht,Krimpenerwaard,Zuid-Holland,VBO,4.778945,52.003186
Jaagpad,4,a,,2851CH,Haastrecht,Krimpenerwaard,Zuid-Holland,VBO,4.773031,52.002212
Jaagpad,4,,,2851CH,Haastrecht,Krimpenerwaard,Zuid-Holland,VBO,4.773162,52.002240
Jaagpad,6,,,2851CH,Haastrecht,Krimpenerwaard,Zuid-Holland,VBO,4.772835,52.002143
Jaagpad,8,,,2851CH,Haastrecht,Krimpenerwaard,Zuid-Holland,VBO,4.772726,52.002129
Jaagpad,10,,,2851CH,Haastrecht,Krimpenerwaard,Zuid-Holland,VBO,4.772526,52.002103
Jaagpad,12,,,2851CH,Haastrecht,Krimpenerwaard,Zuid-Holland,VBO,4.772458,52.002052
Jaagpad,14,,,2851CH,Haastrecht,Krimpenerwaard,Zuid-Holland,VBO,4.772277,52.002001
Jaagpad,16,a,,2851CH,Haastrecht,Krimpenerwaard,Zuid-Holland,VBO,4.772073,52.001955
Jaagpad,16,,,2851CH,Haastrecht,Krimpenerwaard,Zuid-Holland,VBO,4.772160,52.001983
Jaagpad,18,,,2851CH,Haastrecht,Krimpenerwaard,Zuid-Holland,VBO,4.771887,52.001910
Jaagpad,20,,,2851CH,Haastrecht,Krimpenerwaard,Zuid-Holland,VBO,4.771813,52.001898
Jaagpad,22,,,2851CH,Haastrecht,Krimpenerwaard,Zuid-Holland,VBO,4.771642,52.001863
Jaagpad,24,,,2851CH,Haastrecht,Krimpenerwaard,Zuid-Holland,VBO,4.771480,52.001830
Jaagpad,26,,,2851CH,Haastrecht,Krimpenerwaard,Zuid-Holland,VBO,4.771394,52.001815
Jaagpad,28,,,2851CH,Haastrecht,Krimpenerwaard,Zuid-Holland,VBO,4.771302,52.001792
Jaagpad,30,,,2851CH,Haastrecht,Krimpenerwaard,Zuid-Holland,VBO,4.771231,52.001801
Jaagpad,32,,,2851CH,Haastrecht,Krimpenerwaard,Zuid-Holland,VBO,4.771049,52.001765
Jaagpad,34,,,2851CH,Haastrecht,Krimpenerwaard,Zuid-Holland,VBO,4.770984,52.001736
Jaagpad,36,,,2851CH,Haastrecht,Krimpenerwaard,Zuid-Holland,VBO,4.770839,52.001712
Jaagpad,38,,,2851CH,Haastrecht,Krimpenerwaard,Zuid-Holland,VBO,4.770751,52.001722
Jaagpad,40,,,2851CH,Haastrecht,Krimpenerwaard,Zuid-Holland,VBO,4.770367,52.001636
Jaagpad,42,,,2851CH,Haastrecht,Krimpenerwaard,Zuid-Holland,VBO,4.770279,52.001622
Jaagpad,44,,,2851CH,Haastrecht,Krimpenerwaard,Zuid-Holland,VBO,4.770185,52.001608
Jaagpad,46,,,2851CH,Haastrecht,Krimpenerwaard,Zuid-Holland,VBO,4.770105,52.001590
Jaagpad,48,,,2851CH,Haastrecht,Krimpenerwaard,Zuid-Holland,VBO,4.770025,52.001580
Kerkplein,1,,,2851CJ,Haastrecht,Krimpenerwaard,Zuid-Holland,VBO,4.774810,52.000789
Kerkplein,3,,,2851CJ,Haastrecht,Krimpenerwaard,Zuid-Holland,VBO,4.774739,52.000779
Kerkplein,5,,,2851CJ,Haastrecht,Krimpenerwaard,Zuid-Holland,VBO,4.774662,52.000780
Kerkplein,6,,,2851CJ,Haastrecht,Krimpenerwaard,Zuid-Holland,VBO,4.774632,52.001011
Kerkplein,7,,,2851CJ,Haastrecht,Krimpenerwaard,Zuid-Holland,VBO,4.774584,52.000792
Kerkplein,9,,,2851CJ,Haastrecht,Krimpenerwaard,Zuid-Holland,VBO,4.774170,52.000923
Kraanstraat,2,,,2851CZ,Haastrecht,Krimpenerwaard,Zuid-Holland,VBO,4.775310,52.000716
Kraanstraat,4,,,2851CZ,Haastrecht,Krimpenerwaard,Zuid-Holland,VBO,4.775205,52.000705
Kraanstraat,6,,,2851CZ,Haastrecht,Krimpenerwaard,Zuid-Holland,VBO,4.775120,52.000696
Kraanstraat,8,,,2851CZ,Haastrecht,Krimpenerwaard,Zuid-Holland,VBO,4.775040,52.000687
Provincialeweg,1,a,,2851EA,Haastrecht,Krimpenerwaard,Zuid-Holland,VBO,4.779785,52.000287
Provincialeweg,1,,,2851EA,Haastrecht,Krimpenerwaard,Zuid-Holland,VBO,4.779900,52.000441
Provincialeweg,3,a,,2851EA,Haastrecht,Krimpenerwaard,Zuid-Holland,VBO,4.779343,52.000663
Provincialeweg,5,,,2851EA,Haastrecht,Krimpenerwaard,Zuid-Holland,VBO,4.778588,52.000507
Provincialeweg,23,,,2851EA,Haastrecht,Krimpenerwaard,Zuid-Holland,VBO,4.774363,52.000286
Provincialeweg,25,,,2851EA,Haastrecht,Krimpenerwaard,Zuid-Holland,VBO,4.774269,52.000294
Provincialeweg,27,,,2851EA,Haastrecht,Krimpenerwaard,Zuid-Holland,VBO,4.774076,52.000321
Provincialeweg,29,,,2851EA,Haastrecht,Krimpenerwaard,Zuid-Holland,VBO,4.773850,52.000345
Provincialeweg,31,,,2851EA,Haastrecht,Krimpenerwaard,Zuid-Holland,VBO,4.773763,52.000355
Provincialeweg,22,,,2851EB,Haastrecht,Krimpenerwaard,Zuid-Holland,VBO,4.773065,52.001005
Bisdom van Vlietstraat,1,,,2851EC,Haastrecht,Krimpenerwaard,Zuid-Holland,VBO,4.775001,51.999768
Bisdom van Vlietstraat,2,,,2851EC,Haastrecht,Krimpenerwaard,Zuid-Holland,VBO,4.774860,51.999992
Bisdom van Vlietstraat,3,,,2851EC,Haastrecht,Krimpenerwaard,Zuid-Holland,VBO,4.774740,51.999727
Bisdom van Vlietstraat,4,,,2851EC,Haastrecht,Krimpenerwaard,Zuid-Holland,VBO,4.774697,51.999967
Bisdom van Vlietstraat,5,,,2851EC,Haastrecht,Krimpenerwaard,Zuid-Holland,VBO,4.774459,51.999623
Bisdom van Vlietstraat,6,,,2851EC,Haastrecht,Krimpenerwaard,Zuid-Holland,VBO,4.774620,51.999928
Bisdom van Vlietstraat,8,,,2851EC,Haastrecht,Krimpenerwaard,Zuid-Holland,VBO,4.774503,51.999904
Bisdom van Vlietstraat,10,,,2851EC,Haastrecht,Krimpenerwaard,Zuid-Holland,VBO,4.774318,51.999865
Liezeweg,1,,,2851ED,Haastrecht,Krimpenerwaard,Zuid-Holland,VBO,4.775729,51.999005
Liezeweg,3,,,2851ED,Haastrecht,Krimpenerwaard,Zuid-Holland,VBO,4.775616,51.999003
Liezeweg,5,,,2851ED,Haastrecht,Krimpenerwaard,Zuid-Holland,VBO,4.775507,51.998998
Liezeweg,9,,,2851ED,Haastrecht,Krimpenerwaard,Zuid-Holland,VBO,4.774705,51.999057
Liezeweg,11,,,2851ED,Haastrecht,Krimpenerwaard,Zuid-Holland,VBO,4.774596,51.999029
Liezeweg,13,,,2851ED,Haastrecht,Krimpenerwaard,Zuid-Holland,VBO,4.774471,51.999105
Liezeweg,15,,,2851ED,Haastrecht,Krimpenerwaard,Zuid-Holland,VBO,4.774420,51.999127
Liezeweg,17,,,2851ED,Haastrecht,Krimpenerwaard,Zuid-Holland,VBO,4.774288,51.999194
Liezeweg,19,,,2851ED,Haastrecht,Krimpenerwaard,Zuid-Holland,VBO,4.774294,51.999273
Liezeweg,21,,,2851ED,Haastrecht,Krimpenerwaard,Zuid-Holland,VBO,4.774170,51.999328
Liezeweg,23,,,2851ED,Haastrecht,Krimpenerwaard,Zuid-Holland,VBO,4.774104,51.999355
Liezeweg,25,,,2851ED,Haastrecht,Krimpenerwaard,Zuid-Holland,VBO,4.773804,51.999442
Liezeweg,27,,,2851ED,Haastrecht,Krimpenerwaard,Zuid-Holland,VBO,4.773677,51.999577
Liezeweg,29,,,2851ED,Haastrecht,Krimpenerwaard,Zuid-Holland,VBO,4.773027,51.999830
Liezeweg,31,a,,2851ED,Haastrecht,Krimpenerwaard,Zuid-Holland,VBO,4.773103,52.000000
Liezeweg,31,,,2851ED,Haastrecht,Krimpenerwaard,Zuid-Holland,VBO,4.772723,52.000157
Liezeweg,33,,,2851ED,Haastrecht,Krimpenerwaard,Zuid-Holland,VBO,4.772723,52.000157
Liezeweg,35,,,2851ED,Haastrecht,Krimpenerwaard,Zuid-Holland,VBO,4.772723,52.000157
Liezeweg,37,,,2851ED,Haastrecht,Krimpenerwaard,Zuid-Holland,VBO,4.772723,52.000157
Liezeweg,39,,,2851ED,Haastrecht,Krimpenerwaard,Zuid-Holland,VBO,4.772723,52.000157
Liezeweg,41,,,2851ED,Haastrecht,Krimpenerwaard,Zuid-Holland,VBO,4.772723,52.000157
Liezeweg,43,,,2851ED,Haastrecht,Krimpenerwaard,Zuid-Holland,VBO,4.772723,52.000157
Liezeweg,45,,,2851ED,Haastrecht,Krimpenerwaard,Zuid-Holland,VBO,4.772723,52.000157
Liezeweg,47,,,2851ED,Haastrecht,Krimpenerwaard,Zuid-Holland,VBO,4.772723,52.000157
Liezeweg,49,,,2851ED,Haastrecht,Krimpenerwaard,Zuid-Holland,VBO,4.772723,52.000157
Liezeweg,51,,,2851ED,Haastrecht,Krimpenerwaard,Zuid-Holland,VBO,4.772723,52.000157
Liezeweg,53,,,2851ED,Haastrecht,Krimpenerwaard,Zuid-Holland,VBO,4.772723,52.000157
Liezeweg,55,,,2851ED,Haastrecht,Krimpenerwaard,Zuid-Holland,VBO,4.772723,52.000157
Liezeweg,57,,,2851ED,Haastrecht,Krimpenerwaard,Zuid-Holland,VBO,4.772723,52.000157
Liezeweg,59,,,2851ED,Haastrecht,Krimpenerwaard,Zuid-Holland,VBO,4.772723,52.000157
Liezeweg,63,,,2851ED,Haastrecht,Krimpenerwaard,Zuid-Holland,VBO,4.772723,52.000157
Liezeweg,65,,,2851ED,Haastrecht,Krimpenerwaard,Zuid-Holland,VBO,4.772723,52.000157
Liezeweg,67,,,2851ED,Haastrecht,Krimpenerwaard,Zuid-Holland,VBO,4.772723,52.000157
Liezeweg,69,,,2851ED,Haastrecht,Krimpenerwaard,Zuid-Holland,VBO,4.772723,52.000157
Liezeweg,71,,,2851ED,Haastrecht,Krimpenerwaard,Zuid-Holland,VBO,4.772723,52.000157
Liezeweg,73,,,2851ED,Haastrecht,Krimpenerwaard,Zuid-Holland,VBO,4.772723,52.000157
Liezeweg,75,,,2851ED,Haastrecht,Krimpenerwaard,Zuid-Holland,VBO,4.772723,52.000157
Liezeweg,77,,,2851ED,Haastrecht,Krimpenerwaard,Zuid-Holland,VBO,4.772723,52.000157
Liezeweg,79,,,2851ED,Haastrecht,Krimpenerwaard,Zuid-Holland,VBO,4.772723,52.000157
Liezeweg,81,,,2851ED,Haastrecht,Krimpenerwaard,Zuid-Holland,VBO,4.772723,52.000157
Liezeweg,83,,,2851ED,Haastrecht,Krimpenerwaard,Zuid-Holland,VBO,4.772723,52.000157
Liezeweg,85,,,2851ED,Haastrecht,Krimpenerwaard,Zuid-Holland,VBO,4.772723,52.000157
Liezeweg,87,,,2851ED,Haastrecht,Krimpenerwaard,Zuid-Holland,VBO,4.772723,52.000157
Liezeweg,89,,,2851ED,Haastrecht,Krimpenerwaard,Zuid-Holland,VBO,4.772723,52.000157
Liezeweg,91,,,2851ED,Haastrecht,Krimpenerwaard,Zuid-Holland,VBO,4.772723,52.000157
Liezeweg,2,,,2851EE,Haastrecht,Krimpenerwaard,Zuid-Holland,VBO,4.775457,51.999228
Liezeweg,4,,,2851EE,Haastrecht,Krimpenerwaard,Zuid-Holland,VBO,4.775285,51.999235
Liezeweg,6,,,2851EE,Haastrecht,Krimpenerwaard,Zuid-Holland,VBO,4.775220,51.999235
Liezeweg,8,,,2851EE,Haastrecht,Krimpenerwaard,Zuid-Holland,VBO,4.775030,51.999229
Liezeweg,10,,,2851EE,Haastrecht,Krimpenerwaard,Zuid-Holland,VBO,4.774986,51.999260
Liezeweg,12,a,,2851EE,Haastrecht,Krimpenerwaard,Zuid-Holland,VBO,4.774810,51.999367
Liezeweg,12,,,2851EE,Haastrecht,Krimpenerwaard,Zuid-Holland,VBO,4.774905,51.999336
Liezeweg,14,a,,2851EE,Haastrecht,Krimpenerwaard,Zuid-Holland,VBO,4.774612,51.999470
Liezeweg,14,,,2851EE,Haastrecht,Krimpenerwaard,Zuid-Holland,VBO,4.774722,51.999430
Liezeweg,20,,,2851EG,Haastrecht,Krimpenerwaard,Zuid-Holland,VBO,4.774084,51.999732
Liezeweg,22,,,2851EG,Haastrecht,Krimpenerwaard,Zuid-Holland,VBO,4.774011,51.999838
Liezeweg,24,,,2851EG,Haastrecht,Krimpenerwaard,Zuid-Holland,VBO,4.773893,51.999852
Liezeweg,26,,,2851EG,Haastrecht,Krimpenerwaard,Zuid-Holland,VBO,4.773843,51.999987
Liezeweg,28,,,2851EG,Haastrecht,Krimpenerwaard,Zuid-Holland,VBO,4.773687,52.000009
Liezeweg,30,,,2851EG,Haastrecht,Krimpenerwaard,Zuid-Holland,VBO,4.773569,52.000102
Liezeweg,32,,,2851EG,Haastrecht,Krimpenerwaard,Zuid-Holland,VBO,4.773525,52.000129
Liezeweg,34,,,2851EG,Haastrecht,Krimpenerwaard,Zuid-Holland,VBO,4.773408,52.000209
Liezeweg,36,,,2851EG,Haastrecht,Krimpenerwaard,Zuid-Holland,VBO,4.773223,52.000388
Provincialeweg West,1,a,,2851EH,Haastrecht,Krimpenerwaard,Zuid-Holland,VBO,4.769125,52.000349
Provincialeweg West,1,,,2851EH,Haastrecht,Krimpenerwaard,Zuid-Holland,VBO,4.768976,52.000519
Provincialeweg West,3,a,,2851EH,Haastrecht,Krimpenerwaard,Zuid-Holland,VBO,4.770233,51.998545
Provincialeweg West,3,,,2851EH,Haastrecht,Krimpenerwaard,Zuid-Holland,VBO,4.769114,51.999918
Provincialeweg West,5,,,2851EH,Haastrecht,Krimpenerwaard,Zuid-Holland,VBO,4.768611,52.000598
Provincialeweg West,7,a,,2851EH,Haastrecht,Krimpenerwaard,Zuid-Holland,VBO,4.768240,52.000573
Provincialeweg West,7,,,2851EH,Haastrecht,Krimpenerwaard,Zuid-Holland,VBO,4.768357,52.000578
Provincialeweg West,9,,,2851EH,Haastrecht,Krimpenerwaard,Zuid-Holland,VBO,4.767870,52.000526
Provincialeweg West,11,,,2851EH,Haastrecht,Krimpenerwaard,Zuid-Holland,VBO,4.767486,52.000553
Provincialeweg West,13,,,2851EH,Haastrecht,Krimpenerwaard,Zuid-Holland,VBO,4.767036,52.000549
Provincialeweg West,15,,,2851EH,Haastrecht,Krimpenerwaard,Zuid-Holland,VBO,4.766841,52.000591
Provincialeweg West,17,,,2851EH,Haastrecht,Krimpenerwaard,Zuid-Holland,VBO,4.766745,52.000591
Provincialeweg West,19,a,,2851EH,Haastrecht,Krimpenerwaard,Zuid-Holland,VBO,4.765831,52.000556
Provincialeweg West,19,,,2851EH,Haastrecht,Krimpenerwaard,Zuid-Holland,VBO,4.766285,52.000573
Provincialeweg West,21,,,2851EH,Haastrecht,Krimpenerwaard,Zuid-Holland,VBO,4.765409,52.000469
Provincialeweg West,23,a,,2851EH,Haastrecht,Krimpenerwaard,Zuid-Holland,VBO,4.762420,52.000767
Provincialeweg West,23,b,,2851EH,Haastrecht,Krimpenerwaard,Zuid-Holland,VBO,4.761772,52.000458
Provincialeweg West,23,,,2851EH,Haastrecht,Krimpenerwaard,Zuid-Holland,VBO,4.762809,52.000604
Provincialeweg West,25,a,,2851EJ,Haastrecht,Krimpenerwaard,Zuid-Holland,VBO,4.758241,52.000709
Provincialeweg West,25,b,,2851EJ,Haastrecht,Krimpenerwaard,Zuid-Holland,VBO,4.759387,52.000320
Provincialeweg West,25,,,2851EJ,Haastrecht,Krimpenerwaard,Zuid-Holland,VBO,4.758488,52.000751
Provincialeweg West,27,,,2851EJ,Haastrecht,Krimpenerwaard,Zuid-Holland,VBO,4.755387,52.000698
Provincialeweg West,29,,,2851EJ,Haastrecht,Krimpenerwaard,Zuid-Holland,VBO,4.754756,52.000725
Provincialeweg West,31,a,,2851EJ,Haastrecht,Krimpenerwaard,Zuid-Holland,VBO,4.750857,52.001833
Provincialeweg West,31,,,2851EJ,Haastrecht,Krimpenerwaard,Zuid-Holland,VBO,4.752343,52.001289
Provincialeweg West,33,a,,2851EJ,Haastrecht,Krimpenerwaard,Zuid-Holland,VBO,4.749411,52.002140
Provincialeweg West,33,,,2851EJ,Haastrecht,Krimpenerwaard,Zuid-Holland,VBO,4.749456,52.002024
Provincialeweg West,35,,,2851EJ,Haastrecht,Krimpenerwaard,Zuid-Holland,VBO,4.748930,52.002120
Provincialeweg West,37,,,2851EJ,Haastrecht,Krimpenerwaard,Zuid-Holland,VBO,4.746993,52.002121
Provincialeweg West,39,a,,2851EJ,Haastrecht,Krimpenerwaard,Zuid-Holland,VBO,4.745503,52.002167
Provincialeweg West,39,,,2851EJ,Haastrecht,Krimpenerwaard,Zuid-Holland,VBO,4.746277,52.002321
Provincialeweg West,41,,,2851EJ,Haastrecht,Krimpenerwaard,Zuid-Holland,VBO,4.743886,52.002497
Provincialeweg West,45,,,2851EJ,Haastrecht,Krimpenerwaard,Zuid-Holland,VBO,4.740863,52.003266
Provincialeweg West,49,,,2851EJ,Haastrecht,Krimpenerwaard,Zuid-Holland,VBO,4.738478,52.004840
Provincialeweg West,51,a,,2851EJ,Haastrecht,Krimpenerwaard,Zuid-Holland,VBO,4.735946,52.005716
Provincialeweg West,51,,,2851EJ,Haastrecht,Krimpenerwaard,Zuid-Holland,VBO,4.738377,52.005087
Provincialeweg West,55,,,2851EJ,Haastrecht,Krimpenerwaard,Zuid-Holland,VBO,4.735433,52.005929
Provincialeweg West,57,,,2851EK,Haastrecht,Krimpenerwaard,Zuid-Holland,VBO,4.735054,52.005980
Provincialeweg West,61,,,2851EK,Haastrecht,Krimpenerwaard,Zuid-Holland,VBO,4.733988,52.006195
Provincialeweg West,63,,,2851EK,Haastrecht,Krimpenerwaard,Zuid-Holland,VBO,4.731486,52.006515
Provincialeweg West,65,a,,2851EK,Haastrecht,Krimpenerwaard,Zuid-Holland,VBO,4.726817,52.006021
Provincialeweg West,65,,,2851EK,Haastrecht,Krimpenerwaard,Zuid-Holland,VBO,4.726817,52.006021
Provincialeweg West,67,,,2851EK,Haastrecht,Krimpenerwaard,Zuid-Holland,VBO,4.725236,52.005820
Provincialeweg West,69,,,2851EK,Haastrecht,Krimpenerwaard,Zuid-Holland,VBO,4.725175,52.005799
Provincialeweg West,71,,,2851EK,Haastrecht,Krimpenerwaard,Zuid-Holland,VBO,4.725114,52.005778
Provincialeweg West,73,a,,2851EK,Haastrecht,Krimpenerwaard,Zuid-Holland,VBO,4.724824,52.005683
Provincialeweg West,73,,,2851EK,Haastrecht,Krimpenerwaard,Zuid-Holland,VBO,4.724906,52.005744
Provincialeweg West,75,,,2851EK,Haastrecht,Krimpenerwaard,Zuid-Holland,VBO,4.724731,52.005641
Provincialeweg West,77,,,2851EK,Haastrecht,Krimpenerwaard,Zuid-Holland,VBO,4.723933,52.005518
Provincialeweg West,79,,,2851EK,Haastrecht,Krimpenerwaard,Zuid-Holland,VBO,4.723808,52.005456
Provincialeweg West,81,,,2851EK,Haastrecht,Krimpenerwaard,Zuid-Holland,VBO,4.723874,52.005295
Provincialeweg West,83,,,2851EK,Haastrecht,Krimpenerwaard,Zuid-Holland,VBO,4.723285,52.005088
Provincialeweg West,2,a,,2851EL,Haastrecht,Krimpenerwaard,Zuid-Holland,LIG,4.769058,52.001055
Provincialeweg West,2,,,2851EL,Haastrecht,Krimpenerwaard,Zuid-Holland,VBO,4.768883,52.000959
Provincialeweg West,6,,,2851EL,Haastrecht,Krimpenerwaard,Zuid-Holland,VBO,4.768446,52.000983
Provincialeweg West,8,,,2851EL,Haastrecht,Krimpenerwaard,Zuid-Holland,VBO,4.768316,52.000985
Provincialeweg West,10,,,2851EL,Haastrecht,Krimpenerwaard,Zuid-Holland,VBO,4.768182,52.000983
Provincialeweg West,12,,,2851EL,Haastrecht,Krimpenerwaard,Zuid-Holland,VBO,4.767935,52.001044
Provincialeweg West,14,,,2851EL,Haastrecht,Krimpenerwaard,Zuid-Holland,VBO,4.767850,52.001099
Provincialeweg West,16,,,2851EL,Haastrecht,Krimpenerwaard,Zuid-Holland,VBO,4.767557,52.001001
Provincialeweg West,18,,,2851EL,Haastrecht,Krimpenerwaard,Zuid-Holland,VBO,4.767485,52.000987
Provincialeweg West,20,,,2851EL,Haastrecht,Krimpenerwaard,Zuid-Holland,VBO,4.767314,52.001009
Provincialeweg West,22,a,,2851EL,Haastrecht,Krimpenerwaard,Zuid-Holland,VBO,4.767133,52.000972
Provincialeweg West,22,,,2851EL,Haastrecht,Krimpenerwaard,Zuid-Holland,VBO,4.767229,52.001031
Provincialeweg West,28,,,2851EL,Haastrecht,Krimpenerwaard,Zuid-Holland,VBO,4.766487,52.000919
Provincialeweg West,30,a,,2851EL,Haastrecht,Krimpenerwaard,Zuid-Holland,VBO,4.765823,52.001095
Provincialeweg West,30,b,,2851EL,Haastrecht,Krimpenerwaard,Zuid-Holland,VBO,4.765357,52.001084
Provincialeweg West,30,,,2851EL,Haastrecht,Krimpenerwaard,Zuid-Holland,VBO,4.766202,52.000946
Provincialeweg West,32,,,2851EM,Haastrecht,Krimpenerwaard,Zuid-Holland,VBO,4.759556,52.001026
Provincialeweg West,34,,,2851EM,Haastrecht,Krimpenerwaard,Zuid-Holland,VBO,4.758166,52.001023
Provincialeweg West,36,,,2851EM,Haastrecht,Krimpenerwaard,Zuid-Holland,VBO,4.758029,52.001043
Provincialeweg West,38,a,,2851EM,Haastrecht,Krimpenerwaard,Zuid-Holland,VBO,4.757139,52.001106
Provincialeweg West,38,c,,2851EM,Haastrecht,Krimpenerwaard,Zuid-Holland,VBO,4.756497,52.001155
Provincialeweg West,40,a,,2851EM,Haastrecht,Krimpenerwaard,Zuid-Holland,VBO,4.755985,52.001224
Provincialeweg West,40,b,,2851EM,Haastrecht,Krimpenerwaard,Zuid-Holland,VBO,4.755718,52.001256
Provincialeweg West,40,c,,2851EM,Haastrecht,Krimpenerwaard,Zuid-Holland,VBO,4.755401,52.001299
Provincialeweg West,42,a,,2851EM,Haastrecht,Krimpenerwaard,Zuid-Holland,VBO,4.754907,52.001327
Provincialeweg West,42,b,,2851EM,Haastrecht,Krimpenerwaard,Zuid-Holland,VBO,4.754624,52.001388
Provincialeweg West,42,c,,2851EM,Haastrecht,Krimpenerwaard,Zuid-Holland,VBO,4.754345,52.001434
Provincialeweg West,42,d,,2851EM,Haastrecht,Krimpenerwaard,Zuid-Holland,VBO,4.754030,52.001534
Provincialeweg West,44,a,,2851EM,Haastrecht,Krimpenerwaard,Zuid-Holland,VBO,4.752864,52.001820
Provincialeweg West,46,,,2851EM,Haastrecht,Krimpenerwaard,Zuid-Holland,VBO,4.748118,52.002321
Provincialeweg West,48,,,2851EM,Haastrecht,Krimpenerwaard,Zuid-Holland,VBO,4.747834,52.002316
Provincialeweg West,50,,,2851EM,Haastrecht,Krimpenerwaard,Zuid-Holland,VBO,4.747499,52.002381
Provincialeweg West,52,,,2851EM,Haastrecht,Krimpenerwaard,Zuid-Holland,VBO,4.747233,52.002407
Provincialeweg West,56,a,,2851EM,Haastrecht,Krimpenerwaard,Zuid-Holland,VBO,4.745060,52.002829
Provincialeweg West,56,,,2851EM,Haastrecht,Krimpenerwaard,Zuid-Holland,VBO,4.745261,52.002775
Provincialeweg West,58,a,,2851EM,Haastrecht,Krimpenerwaard,Zuid-Holland,VBO,4.743425,52.003141
Provincialeweg West,58,,,2851EM,Haastrecht,Krimpenerwaard,Zuid-Holland,VBO,4.744370,52.002985
Provincialeweg West,60,,,2851EM,Haastrecht,Krimpenerwaard,Zuid-Holland,VBO,4.743074,52.003486
Provincialeweg West,62,a,,2851EM,Haastrecht,Krimpenerwaard,Zuid-Holland,VBO,4.737485,52.006057
Provincialeweg West,62,,,2851EM,Haastrecht,Krimpenerwaard,Zuid-Holland,VBO,4.739127,52.005302
Bilwijkerweg,18,b,,2851ER,Haastrecht,Krimpenerwaard,Zuid-Holland,VBO,4.784299,51.991637
Bilwijkerweg,18,,,2851ER,Haastrecht,Krimpenerwaard,Zuid-Holland,VBO,4.783802,51.991644
Bilwijkerweg,121,,,2851ES,Haastrecht,Krimpenerwaard,Zuid-Holland,VBO,4.777115,51.989964
West-Vlisterdijk,1,,,2851ES,Haastrecht,Krimpenerwaard,Zuid-Holland,VBO,4.785122,51.991172
West-Vlisterdijk,3,,,2851ES,Haastrecht,Krimpenerwaard,Zuid-Holland,VBO,4.786176,51.991273
West-Vlisterdijk,4,a,,2851ES,Haastrecht,Krimpenerwaard,Zuid-Holland,VBO,4.787211,51.990537
West-Vlisterdijk,4,,,2851ES,Haastrecht,Krimpenerwaard,Zuid-Holland,VBO,4.787469,51.990862
West-Vlisterdijk,5,,,2851ES,Haastrecht,Krimpenerwaard,Zuid-Holland,VBO,4.788735,51.990905
West-Vlisterdijk,6,,,2851ES,Haastrecht,Krimpenerwaard,Zuid-Holland,VBO,4.792798,51.990880
West-Vlisterdijk,7,,,2851ES,Haastrecht,Krimpenerwaard,Zuid-Holland,VBO,4.792884,51.990944
Oost-Vlisterdijk,1,a,,2851ET,Haastrecht,Krimpenerwaard,Zuid-Holland,VBO,4.797272,51.991613
Oost-Vlisterdijk,1,,,2851ET,Haastrecht,Krimpenerwaard,Zuid-Holland,VBO,4.783676,51.992533
Goudseweg,136,,,2851EX,Haastrecht,Krimpenerwaard,Zuid-Holland,VBO,4.728195,52.001474
Goudseweg,138,,,2851EX,Haastrecht,Krimpenerwaard,Zuid-Holland,VBO,4.727660,52.001716
Goudseweg,140,,,2851EX,Haastrecht,Krimpenerwaard,Zuid-Holland,VBO,4.727604,52.001738
Goudseweg,142,,,2851EX,Haastrecht,Krimpenerwaard,Zuid-Holland,VBO,4.727551,52.001763
Goudseweg,144,,,2851EX,Haastrecht,Krimpenerwaard,Zuid-Holland,VBO,4.727483,52.001773
Goudseweg,146,,,2851EX,Haastrecht,Krimpenerwaard,Zuid-Holland,VBO,4.727447,52.001813
Goudseweg,148,,,2851EX,Haastrecht,Krimpenerwaard,Zuid-Holland,VBO,4.727393,52.001836
Goudseweg,150,,,2851EX,Haastrecht,Krimpenerwaard,Zuid-Holland,VBO,4.727327,52.001865
Goudseweg,152,,,2851EX,Haastrecht,Krimpenerwaard,Zuid-Holland,VBO,4.727274,52.001891
Goudseweg,154,,,2851EX,Haastrecht,Krimpenerwaard,Zuid-Holland,VBO,4.727221,52.001916
Goudseweg,156,,,2851EX,Haastrecht,Krimpenerwaard,Zuid-Holland,VBO,4.727157,52.001930
Goudseweg,158,,,2851EX,Haastrecht,Krimpenerwaard,Zuid-Holland,VBO,4.727112,52.001961
Goudseweg,160,,,2851EX,Haastrecht,Krimpenerwaard,Zuid-Holland,VBO,4.727045,52.001988
Goudseweg,162,,,2851EX,Haastrecht,Krimpenerwaard,Zuid-Holland,VBO,4.726853,52.002049
Goudseweg,164,,,2851EX,Haastrecht,Krimpenerwaard,Zuid-Holland,VBO,4.726699,52.002100
Goudseweg,166,,,2851EX,Haastrecht,Krimpenerwaard,Zuid-Holland,VBO,4.726283,52.002260
Goudseweg,170,,,2851EX,Haastrecht,Krimpenerwaard,Zuid-Holland,VBO,4.726723,52.003013
Goudseweg,172,a,,2851EX,Haastrecht,Krimpenerwaard,Zuid-Holland,VBO,4.725516,52.002912
Goudseweg,172,,,2851EX,Haastrecht,Krimpenerwaard,Zuid-Holland,VBO,4.725707,52.002809
Goudseweg,122,,,2851EZ,Haastrecht,Krimpenerwaard,Zuid-Holland,VBO,4.745038,51.994270
Goudseweg,124,,,2851EZ,Haastrecht,Krimpenerwaard,Zuid-Holland,VBO,4.731519,52.000186
Goudseweg,126,,,2851EZ,Haastrecht,Krimpenerwaard,Zuid-Holland,VBO,4.730446,52.000594
Goudseweg,128,,,2851EZ,Haastrecht,Krimpenerwaard,Zuid-Holland,VBO,4.729712,52.000823
Goudseweg,130,,,2851EZ,Haastrecht,Krimpenerwaard,Zuid-Holland,VBO,4.729463,52.000911
Goudseweg,132,,,2851EZ,Haastrecht,Krimpenerwaard,Zuid-Holland,VBO,4.729202,52.001129
Goudseweg,134,,,2851EZ,Haastrecht,Krimpenerwaard,Zuid-Holland,VBO,4.728655,52.001343
Steinsedijk,1,,,2851LA,Haastrecht,Krimpenerwaard,Zuid-Holland,VBO,4.756969,52.003170
Steinsedijk,3,a,,2851LA,Haastrecht,Krimpenerwaard,Zuid-Holland,VBO,4.763521,52.003249
Steinsedijk,3,,,2851LA,Haastrecht,Krimpenerwaard,Zuid-Holland,VBO,4.762576,52.003164
Steinsedijk,5,b,,2851LA,Haastrecht,Krimpenerwaard,Zuid-Holland,VBO,4.763742,52.004140
Steinsedijk,5,,,2851LA,Haastrecht,Krimpenerwaard,Zuid-Holland,VBO,4.764177,52.003993
Steinsedijk,7,a,,2851LA,Haastrecht,Krimpenerwaard,Zuid-Holland,VBO,4.766712,52.003185
Steinsedijk,7,b,,2851LA,Haastrecht,Krimpenerwaard,Zuid-Holland,VBO,4.766402,52.003485
Steinsedijk,7,c,,2851LA,Haastrecht,Krimpenerwaard,Zuid-Holland,VBO,4.767266,52.003116
Steinsedijk,9,,,2851LA,Haastrecht,Krimpenerwaard,Zuid-Holland,VBO,4.767820,52.003074
Steinsedijk,11,a,,2851LA,Haastrecht,Krimpenerwaard,Zuid-Holland,VBO,4.769254,52.003047
Steinsedijk,11,,,2851LA,Haastrecht,Krimpenerwaard,Zuid-Holland,VBO,4.769254,52.003047
Steinsedijk,13,a,,2851LA,Haastrecht,Krimpenerwaard,Zuid-Holland,VBO,4.770931,52.003486
Steinsedijk,13,,,2851LA,Haastrecht,Krimpenerwaard,Zuid-Holland,VBO,4.771005,52.003397
Steinsedijk,15,a,,2851LA,Haastrecht,Krimpenerwaard,Zuid-Holland,VBO,4.772795,52.004040
Steinsedijk,15,b,,2851LA,Haastrecht,Krimpenerwaard,Zuid-Holland,VBO,4.772013,52.004247
Steinsedijk,15,,,2851LA,Haastrecht,Krimpenerwaard,Zuid-Holland,VBO,4.771801,52.003733
Steinsedijk,17,a,,2851LA,Haastrecht,Krimpenerwaard,Zuid-Holland,VBO,4.775331,52.004435
Steinsedijk,17,m,,2851LA,Haastrecht,Krimpenerwaard,Zuid-Holland,VBO,4.773648,52.004173
Steinsedijk,17,,,2851LA,Haastrecht,Krimpenerwaard,Zuid-Holland,VBO,4.773989,52.004059
Steinsedijk,19,,,2851LA,Haastrecht,Krimpenerwaard,Zuid-Holland,VBO,4.776118,52.004127
Steinsedijk,2,,,2851LB,Haastrecht,Krimpenerwaard,Zuid-Holland,VBO,4.773894,52.003596
Steinsedijk,6,,,2851LB,Haastrecht,Krimpenerwaard,Zuid-Holland,VBO,4.783606,52.003125
Steinsedijk,21,,,2851LB,Haastrecht,Krimpenerwaard,Zuid-Holland,VBO,4.776955,52.004081
Steinsedijk,23,a,,2851LB,Haastrecht,Krimpenerwaard,Zuid-Holland,VBO,4.778126,52.004005
Steinsedijk,23,b,,2851LB,Haastrecht,Krimpenerwaard,Zuid-Holland,VBO,4.777365,52.004500
Steinsedijk,23,,,2851LB,Haastrecht,Krimpenerwaard,Zuid-Holland,VBO,4.777463,52.003970
Steinsedijk,25,,,2851LB,Haastrecht,Krimpenerwaard,Zuid-Holland,VBO,4.778891,52.003941
Steinsedijk,27,,,2851LB,Haastrecht,Krimpenerwaard,Zuid-Holland,VBO,4.779745,52.003802
Steinsedijk,29,a,,2851LB,Haastrecht,Krimpenerwaard,Zuid-Holland,VBO,4.781812,52.003345
Steinsedijk,29,,,2851LB,Haastrecht,Krimpenerwaard,Zuid-Holland,VBO,4.781145,52.003590
Steinsedijk,31,a,,2851LB,Haastrecht,Krimpenerwaard,Zuid-Holland,VBO,4.783559,52.003981
Steinsedijk,31,,,2851LB,Haastrecht,Krimpenerwaard,Zuid-Holland,VBO,4.782665,52.003437
Steinsedijk,33,,,2851LB,Haastrecht,Krimpenerwaard,Zuid-Holland,VBO,4.784353,52.004441
Steinsedijk,35,a,,2851LB,Haastrecht,Krimpenerwaard,Zuid-Holland,VBO,4.784761,52.004933
Steinsedijk,35,,,2851LB,Haastrecht,Krimpenerwaard,Zuid-Holland,VBO,4.784879,52.004817
Steinsedijk,37,,,2851LB,Haastrecht,Krimpenerwaard,Zuid-Holland,VBO,4.786424,52.005827
Steinsedijk,39,a,,2851LB,Haastrecht,Krimpenerwaard,Zuid-Holland,VBO,4.789273,52.007383
Steinsedijk,39,,,2851LB,Haastrecht,Krimpenerwaard,Zuid-Holland,VBO,4.787624,52.006512
Steinsedijk,43,a,,2851LC,Haastrecht,Krimpenerwaard,Zuid-Holland,VBO,4.790130,52.008257
Steinsedijk,43,,,2851LC,Haastrecht,Krimpenerwaard,Zuid-Holland,VBO,4.789967,52.007746
Steinsedijk,45,,,2851LC,Haastrecht,Krimpenerwaard,Zuid-Holland,VBO,4.791328,52.009973
Steinsedijk,47,,,2851LC,Haastrecht,Krimpenerwaard,Zuid-Holland,VBO,4.791939,52.010614
Steinsedijk,49,a,,2851LC,Haastrecht,Krimpenerwaard,Zuid-Holland,VBO,4.794225,52.011768
Steinsedijk,49,,,2851LC,Haastrecht,Krimpenerwaard,Zuid-Holland,VBO,4.793633,52.011387
Steinsedijk,51,,,2851LC,Haastrecht,Krimpenerwaard,Zuid-Holland,VBO,4.795831,52.012566
Steinsedijk,53,,,2851LC,Haastrecht,Krimpenerwaard,Zuid-Holland,VBO,4.796535,52.012954
Steinsedijk,55,a,,2851LC,Haastrecht,Krimpenerwaard,Zuid-Holland,VBO,4.797735,52.013277
Steinsedijk,55,,,2851LC,Haastrecht,Krimpenerwaard,Zuid-Holland,VBO,4.797296,52.013068
Steinsedijk,57,a,,2851LC,Haastrecht,Krimpenerwaard,Zuid-Holland,VBO,4.799740,52.013822
Steinsedijk,57,,,2851LC,Haastrecht,Krimpenerwaard,Zuid-Holland,VBO,4.799109,52.013666
Steinsedijk,59,,,2851LC,Haastrecht,Krimpenerwaard,Zuid-Holland,VBO,4.800428,52.014144
Steinsedijk,61,a,,2851LC,Haastrecht,Krimpenerwaard,Zuid-Holland,VBO,4.800715,52.014480
Steinsedijk,61,,,2851LC,Haastrecht,Krimpenerwaard,Zuid-Holland,VBO,4.801292,52.014077
Steinsedijk,63,,,2851LC,Haastrecht,Krimpenerwaard,Zuid-Holland,VBO,4.801913,52.014224
Steinsedijk,65,,,2851LC,Haastrecht,Krimpenerwaard,Zuid-Holland,VBO,4.802084,52.014485
Steinsedijk,67,,,2851LC,Haastrecht,Krimpenerwaard,Zuid-Holland,VBO,4.802566,52.014209
Steinsedijk,69,,,2851LC,Haastrecht,Krimpenerwaard,Zuid-Holland,VBO,4.802522,52.014312
Erasmusstraat,1,a,,2851TA,Haastrecht,Krimpenerwaard,Zuid-Holland,VBO,4.772906,52.002561
Erasmusstraat,1,,,2851TA,Haastrecht,Krimpenerwaard,Zuid-Holland,VBO,4.772906,52.002561
Erasmusstraat,3,a,,2851TA,Haastrecht,Krimpenerwaard,Zuid-Holland,VBO,4.772906,52.002561
Erasmusstraat,3,,,2851TA,Haastrecht,Krimpenerwaard,Zuid-Holland,VBO,4.772906,52.002561
Erasmusstraat,5,a,,2851TA,Haastrecht,Krimpenerwaard,Zuid-Holland,VBO,4.772906,52.002561
Erasmusstraat,5,,,2851TA,Haastrecht,Krimpenerwaard,Zuid-Holland,VBO,4.772906,52.002561
Erasmusstraat,7,a,,2851TA,Haastrecht,Krimpenerwaard,Zuid-Holland,VBO,4.772906,52.002561
Erasmusstraat,7,,,2851TA,Haastrecht,Krimpenerwaard,Zuid-Holland,VBO,4.772906,52.002561
Erasmusstraat,9,,,2851TA,Haastrecht,Krimpenerwaard,Zuid-Holland,VBO,4.772683,52.002455
Erasmusstraat,11,,,2851TA,Haastrecht,Krimpenerwaard,Zuid-Holland,VBO,4.772599,52.002436
Erasmusstraat,13,,,2851TA,Haastrecht,Krimpenerwaard,Zuid-Holland,VBO,4.772517,52.002417
Erasmusstraat,15,,,2851TA,Haastrecht,Krimpenerwaard,Zuid-Holland,VBO,4.772432,52.002347
Erasmusstraat,17,,,2851TA,Haastrecht,Krimpenerwaard,Zuid-Holland,VBO,4.772346,52.002327
Erasmusstraat,19,,,2851TA,Haastrecht,Krimpenerwaard,Zuid-Holland,VBO,4.772264,52.002307
Erasmusstraat,21,,,2851TA,Haastrecht,Krimpenerwaard,Zuid-Holland,VBO,4.772150,52.002282
Erasmusstraat,23,,,2851TA,Haastrecht,Krimpenerwaard,Zuid-Holland,VBO,4.772068,52.002262
Erasmusstraat,25,,,2851TA,Haastrecht,Krimpenerwaard,Zuid-Holland,VBO,4.771987,52.002243
Erasmusstraat,27,,,2851TA,Haastrecht,Krimpenerwaard,Zuid-Holland,VBO,4.771906,52.002224
Erasmusstraat,29,,,2851TA,Haastrecht,Krimpenerwaard,Zuid-Holland,VBO,4.771824,52.002204
Erasmusstraat,31,,,2851TA,Haastrecht,Krimpenerwaard,Zuid-Holland,VBO,4.771742,52.002185
Erasmusstraat,33,,,2851TA,Haastrecht,Krimpenerwaard,Zuid-Holland,VBO,4.771596,52.002149
Erasmusstraat,35,,,2851TA,Haastrecht,Krimpenerwaard,Zuid-Holland,VBO,4.771512,52.002130
Erasmusstraat,37,,,2851TA,Haastrecht,Krimpenerwaard,Zuid-Holland,VBO,4.771431,52.002110
Erasmusstraat,39,,,2851TA,Haastrecht,Krimpenerwaard,Zuid-Holland,VBO,4.771350,52.002091
Erasmusstraat,41,,,2851TA,Haastrecht,Krimpenerwaard,Zuid-Holland,VBO,4.771269,52.002072
Erasmusstraat,43,,,2851TA,Haastrecht,Krimpenerwaard,Zuid-Holland,VBO,4.771185,52.002052
Erasmusstraat,45,,,2851TA,Haastrecht,Krimpenerwaard,Zuid-Holland,VBO,4.771152,52.001935
Erasmusstraat,47,,,2851TA,Haastrecht,Krimpenerwaard,Zuid-Holland,VBO,4.771041,52.002017
Erasmusstraat,49,,,2851TA,Haastrecht,Krimpenerwaard,Zuid-Holland,VBO,4.770959,52.001997
Erasmusstraat,51,,,2851TA,Haastrecht,Krimpenerwaard,Zuid-Holland,VBO,4.770878,52.001978
Erasmusstraat,53,,,2851TA,Haastrecht,Krimpenerwaard,Zuid-Holland,VBO,4.770797,52.001959
Erasmusstraat,55,,,2851TA,Haastrecht,Krimpenerwaard,Zuid-Holland,VBO,4.770715,52.001940
Erasmusstraat,57,,,2851TA,Haastrecht,Krimpenerwaard,Zuid-Holland,VBO,4.770633,52.001920
Erasmusstraat,2,,,2851TB,Haastrecht,Krimpenerwaard,Zuid-Holland,VBO,4.772482,52.002697
Erasmusstraat,4,,,2851TB,Haastrecht,Krimpenerwaard,Zuid-Holland,VBO,4.772399,52.002677
Erasmusstraat,6,,,2851TB,Haastrecht,Krimpenerwaard,Zuid-Holland,VBO,4.772317,52.002657
Erasmusstraat,8,,,2851TB,Haastrecht,Krimpenerwaard,Zuid-Holland,VBO,4.772234,52.002638
Erasmusstraat,12,,,2851TB,Haastrecht,Krimpenerwaard,Zuid-Holland,VBO,4.771678,52.002441
Erasmusstraat,14,,,2851TB,Haastrecht,Krimpenerwaard,Zuid-Holland,VBO,4.771577,52.002418
Erasmusstraat,16,,,2851TB,Haastrecht,Krimpenerwaard,Zuid-Holland,VBO,4.771516,52.002403
Erasmusstraat,18,,,2851TB,Haastrecht,Krimpenerwaard,Zuid-Holland,VBO,4.771432,52.002383
Erasmusstraat,20,,,2851TB,Haastrecht,Krimpenerwaard,Zuid-Holland,VBO,4.771363,52.002305
Erasmusstraat,22,,,2851TB,Haastrecht,Krimpenerwaard,Zuid-Holland,VBO,4.770841,52.002242
Erasmusstraat,24,,,2851TB,Haastrecht,Krimpenerwaard,Zuid-Holland,VBO,4.770759,52.002222
Erasmusstraat,26,,,2851TB,Haastrecht,Krimpenerwaard,Zuid-Holland,VBO,4.770678,52.002203
Erasmusstraat,28,,,2851TB,Haastrecht,Krimpenerwaard,Zuid-Holland,VBO,4.770596,52.002183
De Ruyterstraat,1,,,2851TC,Haastrecht,Krimpenerwaard,Zuid-Holland,VBO,4.772288,52.002826
De Ruyterstraat,3,,,2851TC,Haastrecht,Krimpenerwaard,Zuid-Holland,VBO,4.772255,52.002877
De Ruyterstraat,5,,,2851TC,Haastrecht,Krimpenerwaard,Zuid-Holland,VBO,4.772223,52.002927
De Ruyterstraat,7,,,2851TC,Haastrecht,Krimpenerwaard,Zuid-Holland,VBO,4.772192,52.002977
De Ruyterstraat,9,,,2851TC,Haastrecht,Krimpenerwaard,Zuid-Holland,VBO,4.772160,52.003027
De Ruyterstraat,11,,,2851TC,Haastrecht,Krimpenerwaard,Zuid-Holland,VBO,4.772128,52.003077
De Ruyterstraat,13,,,2851TC,Haastrecht,Krimpenerwaard,Zuid-Holland,VBO,4.772097,52.003127
De Ruyterstraat,15,,,2851TC,Haastrecht,Krimpenerwaard,Zuid-Holland,VBO,4.772065,52.003177
De Ruyterstraat,17,,,2851TC,Haastrecht,Krimpenerwaard,Zuid-Holland,VBO,4.772032,52.003227
De Ruyterstraat,2,,,2851TD,Haastrecht,Krimpenerwaard,Zuid-Holland,VBO,4.772808,52.003152
De Ruyterstraat,4,,,2851TD,Haastrecht,Krimpenerwaard,Zuid-Holland,VBO,4.772808,52.003152
De Ruyterstraat,6,,,2851TD,Haastrecht,Krimpenerwaard,Zuid-Holland,VBO,4.772808,52.003152
De Ruyterstraat,8,,,2851TD,Haastrecht,Krimpenerwaard,Zuid-Holland,VBO,4.772808,52.003152
De Ruyterstraat,10,,,2851TD,Haastrecht,Krimpenerwaard,Zuid-Holland,VBO,4.772808,52.003152
De Ruyterstraat,12,,,2851TD,Haastrecht,Krimpenerwaard,Zuid-Holland,VBO,4.772808,52.003152
De Ruyterstraat,14,,,2851TD,Haastrecht,Krimpenerwaard,Zuid-Holland,VBO,4.772808,52.003152
De Ruyterstraat,18,,,2851TD,Haastrecht,Krimpenerwaard,Zuid-Holland,VBO,4.772728,52.003033
De Ruyterstraat,20,,,2851TD,Haastrecht,Krimpenerwaard,Zuid-Holland,VBO,4.772698,52.003109
De Ruyterstraat,22,,,2851TD,Haastrecht,Krimpenerwaard,Zuid-Holland,VBO,4.772818,52.002903
De Ruyterstraat,24,,,2851TD,Haastrecht,Krimpenerwaard,Zuid-Holland,VBO,4.772669,52.003136
De Ruyterstraat,26,,,2851TD,Haastrecht,Krimpenerwaard,Zuid-Holland,VBO,4.772781,52.002939
De Ruyterstraat,28,,,2851TD,Haastrecht,Krimpenerwaard,Zuid-Holland,VBO,4.772706,52.003082
De Ruyterstraat,30,,,2851TD,Haastrecht,Krimpenerwaard,Zuid-Holland,VBO,4.772826,52.002853
De Ruyterstraat,32,,,2851TD,Haastrecht,Krimpenerwaard,Zuid-Holland,VBO,4.772706,52.003064
De Ruyterstraat,34,,,2851TD,Haastrecht,Krimpenerwaard,Zuid-Holland,VBO,4.772788,52.002921
De Ruyterstraat,36,,,2851TD,Haastrecht,Krimpenerwaard,Zuid-Holland,VBO,4.772751,52.002979
De Ruyterstraat,38,,,2851TD,Haastrecht,Krimpenerwaard,Zuid-Holland,VBO,4.772808,52.003152
De Ruyterstraat,40,,,2851TD,Haastrecht,Krimpenerwaard,Zuid-Holland,VBO,4.772808,52.003152
De Ruyterstraat,42,,,2851TD,Haastrecht,Krimpenerwaard,Zuid-Holland,VBO,4.772808,52.003152
De Ruyterstraat,44,,,2851TD,Haastrecht,Krimpenerwaard,Zuid-Holland,VBO,4.772808,52.003152
De Ruyterstraat,46,,,2851TD,Haastrecht,Krimpenerwaard,Zuid-Holland,VBO,4.772808,52.003152
De Ruyterstraat,48,,,2851TD,Haastrecht,Krimpenerwaard,Zuid-Holland,VBO,4.772808,52.003152
De Ruyterstraat,50,,,2851TD,Haastrecht,Krimpenerwaard,Zuid-Holland,VBO,4.772808,52.003152
De Ruyterstraat,52,,,2851TD,Haastrecht,Krimpenerwaard,Zuid-Holland,VBO,4.772639,52.003208
De Ruyterstraat,54,,,2851TD,Haastrecht,Krimpenerwaard,Zuid-Holland,VBO,4.772638,52.003226
De Ruyterstraat,56,,,2851TD,Haastrecht,Krimpenerwaard,Zuid-Holland,VBO,4.772683,52.003154
De Ruyterstraat,58,,,2851TD,Haastrecht,Krimpenerwaard,Zuid-Holland,VBO,4.772698,52.003127
De Ruyterstraat,60,,,2851TD,Haastrecht,Krimpenerwaard,Zuid-Holland,VBO,4.772758,52.003010
De Ruyterstraat,62,,,2851TD,Haastrecht,Krimpenerwaard,Zuid-Holland,VBO,4.772788,52.002966
De Ruyterstraat,64,,,2851TD,Haastrecht,Krimpenerwaard,Zuid-Holland,VBO,4.772847,52.002876
De Ruyterstraat,66,,,2851TD,Haastrecht,Krimpenerwaard,Zuid-Holland,VBO,4.772848,52.002831
De Ruyterstraat,68,,,2851TD,Haastrecht,Krimpenerwaard,Zuid-Holland,VBO,4.772855,52.002809
De Ruyterstraat,70,,,2851TD,Haastrecht,Krimpenerwaard,Zuid-Holland,VBO,4.772721,52.003042
De Ruyterstraat,72,,,2851TD,Haastrecht,Krimpenerwaard,Zuid-Holland,VBO,4.772632,52.003185
De Ruyterstraat,74,,,2851TD,Haastrecht,Krimpenerwaard,Zuid-Holland,VBO,4.772587,52.003257
De Ruyterstraat,76,,,2851TD,Haastrecht,Krimpenerwaard,Zuid-Holland,VBO,4.772609,52.003243
De Ruyterstraat,78,,,2851TD,Haastrecht,Krimpenerwaard,Zuid-Holland,VBO,4.772647,52.003163
De Ruyterstraat,80,,,2851TD,Haastrecht,Krimpenerwaard,Zuid-Holland,VBO,4.772808,52.003152
De Ruyterstraat,82,,,2851TD,Haastrecht,Krimpenerwaard,Zuid-Holland,VBO,4.772808,52.003152
De Ruyterstraat,84,,,2851TD,Haastrecht,Krimpenerwaard,Zuid-Holland,VBO,4.772808,52.003152
De Ruyterstraat,86,,,2851TD,Haastrecht,Krimpenerwaard,Zuid-Holland,VBO,4.772808,52.003152
De Ruyterstraat,88,,,2851TD,Haastrecht,Krimpenerwaard,Zuid-Holland,VBO,4.772808,52.003152
De Ruyterstraat,90,,,2851TD,Haastrecht,Krimpenerwaard,Zuid-Holland,VBO,4.772808,52.003152
De Ruyterstraat,92,,,2851TD,Haastrecht,Krimpenerwaard,Zuid-Holland,VBO,4.772808,52.003152
De Ruyterstraat,94,,,2851TD,Haastrecht,Krimpenerwaard,Zuid-Holland,VBO,4.772527,52.003355
De Ruyterstraat,96,,,2851TD,Haastrecht,Krimpenerwaard,Zuid-Holland,VBO,4.772512,52.003382
De Ruyterstraat,98,,,2851TD,Haastrecht,Krimpenerwaard,Zuid-Holland,VBO,4.772520,52.003373
De Ruyterstraat,100,,,2851TD,Haastrecht,Krimpenerwaard,Zuid-Holland,VBO,4.772527,52.003360
De Ruyterstraat,102,,,2851TD,Haastrecht,Krimpenerwaard,Zuid-Holland,VBO,4.772535,52.003351
De Ruyterstraat,104,,,2851TD,Haastrecht,Krimpenerwaard,Zuid-Holland,VBO,4.772542,52.003342
De Ruyterstraat,106,,,2851TD,Haastrecht,Krimpenerwaard,Zuid-Holland,VBO,4.772542,52.003324
De Ruyterstraat,108,,,2851TD,Haastrecht,Krimpenerwaard,Zuid-Holland,VBO,4.772572,52.003275
De Ruyterstraat,110,,,2851TD,Haastrecht,Krimpenerwaard,Zuid-Holland,VBO,4.772818,52.003375
De Ruyterstraat,112,,,2851TD,Haastrecht,Krimpenerwaard,Zuid-Holland,VBO,4.772826,52.003357
De Ruyterstraat,114,,,2851TD,Haastrecht,Krimpenerwaard,Zuid-Holland,VBO,4.772833,52.003343
De Ruyterstraat,116,,,2851TD,Haastrecht,Krimpenerwaard,Zuid-Holland,VBO,4.772841,52.003321
De Ruyterstraat,118,,,2851TD,Haastrecht,Krimpenerwaard,Zuid-Holland,VBO,4.772856,52.003308
De Ruyterstraat,120,,,2851TD,Haastrecht,Krimpenerwaard,Zuid-Holland,VBO,4.772878,52.003281
De Ruyterstraat,122,,,2851TD,Haastrecht,Krimpenerwaard,Zuid-Holland,VBO,4.772557,52.003310
De Ruyterstraat,124,,,2851TD,Haastrecht,Krimpenerwaard,Zuid-Holland,VBO,4.772571,52.003355
De Ruyterstraat,126,,,2851TD,Haastrecht,Krimpenerwaard,Zuid-Holland,VBO,4.772579,52.003338
Trompstraat,1,,,2851TE,Haastrecht,Krimpenerwaard,Zuid-Holland,VBO,4.771486,52.002576
Trompstraat,2,,,2851TE,Haastrecht,Krimpenerwaard,Zuid-Holland,VBO,4.772097,52.002474
Trompstraat,3,,,2851TE,Haastrecht,Krimpenerwaard,Zuid-Holland,VBO,4.771454,52.002627
Trompstraat,4,,,2851TE,Haastrecht,Krimpenerwaard,Zuid-Holland,VBO,4.771988,52.002527
Trompstraat,5,,,2851TE,Haastrecht,Krimpenerwaard,Zuid-Holland,VBO,4.771423,52.002678
Trompstraat,6,,,2851TE,Haastrecht,Krimpenerwaard,Zuid-Holland,VBO,4.771956,52.002577
Trompstraat,7,,,2851TE,Haastrecht,Krimpenerwaard,Zuid-Holland,VBO,4.771391,52.002728
Trompstraat,8,,,2851TE,Haastrecht,Krimpenerwaard,Zuid-Holland,VBO,4.771925,52.002627
Trompstraat,9,,,2851TE,Haastrecht,Krimpenerwaard,Zuid-Holland,VBO,4.771360,52.002778
Trompstraat,10,,,2851TE,Haastrecht,Krimpenerwaard,Zuid-Holland,VBO,4.771894,52.002677
Trompstraat,11,,,2851TE,Haastrecht,Krimpenerwaard,Zuid-Holland,VBO,4.771329,52.002829
Trompstraat,12,,,2851TE,Haastrecht,Krimpenerwaard,Zuid-Holland,VBO,4.771862,52.002727
Trompstraat,13,,,2851TE,Haastrecht,Krimpenerwaard,Zuid-Holland,VBO,4.771297,52.002879
Trompstraat,14,,,2851TE,Haastrecht,Krimpenerwaard,Zuid-Holland,VBO,4.771831,52.002777
Trompstraat,15,,,2851TE,Haastrecht,Krimpenerwaard,Zuid-Holland,VBO,4.771266,52.002930
Trompstraat,16,,,2851TE,Haastrecht,Krimpenerwaard,Zuid-Holland,VBO,4.771800,52.002826
Trompstraat,18,,,2851TE,Haastrecht,Krimpenerwaard,Zuid-Holland,VBO,4.771767,52.002877
Piet Heinstraat,1,,,2851TG,Haastrecht,Krimpenerwaard,Zuid-Holland,VBO,4.770645,52.002379
Piet Heinstraat,2,,,2851TG,Haastrecht,Krimpenerwaard,Zuid-Holland,VBO,4.771186,52.002275
Piet Heinstraat,3,,,2851TG,Haastrecht,Krimpenerwaard,Zuid-Holland,VBO,4.770615,52.002430
Piet Heinstraat,4,,,2851TG,Haastrecht,Krimpenerwaard,Zuid-Holland,VBO,4.771153,52.002326
Piet Heinstraat,5,,,2851TG,Haastrecht,Krimpenerwaard,Zuid-Holland,VBO,4.770584,52.002480
Piet Heinstraat,6,,,2851TG,Haastrecht,Krimpenerwaard,Zuid-Holland,VBO,4.771122,52.002376
Piet Heinstraat,7,,,2851TG,Haastrecht,Krimpenerwaard,Zuid-Holland,VBO,4.770552,52.002531
Piet Heinstraat,8,,,2851TG,Haastrecht,Krimpenerwaard,Zuid-Holland,VBO,4.771090,52.002426
Piet Heinstraat,9,,,2851TG,Haastrecht,Krimpenerwaard,Zuid-Holland,VBO,4.770522,52.002581
Piet Heinstraat,10,,,2851TG,Haastrecht,Krimpenerwaard,Zuid-Holland,VBO,4.771059,52.002476
Piet Heinstraat,11,,,2851TG,Haastrecht,Krimpenerwaard,Zuid-Holland,VBO,4.770491,52.002631
Piet Heinstraat,12,,,2851TG,Haastrecht,Krimpenerwaard,Zuid-Holland,VBO,4.771028,52.002526
Piet Heinstraat,13,,,2851TG,Haastrecht,Krimpenerwaard,Zuid-Holland,VBO,4.770460,52.002682
Piet Heinstraat,14,,,2851TG,Haastrecht,Krimpenerwaard,Zuid-Holland,VBO,4.770997,52.002577
Piet Heinstraat,15,,,2851TG,Haastrecht,Krimpenerwaard,Zuid-Holland,VBO,4.770428,52.002733
Piet Heinstraat,16,,,2851TG,Haastrecht,Krimpenerwaard,Zuid-Holland,VBO,4.770965,52.002628
Van Speykstraat,1,,,2851TH,Haastrecht,Krimpenerwaard,Zuid-Holland,VBO,4.769917,52.001989
Van Speykstraat,2,,,2851TH,Haastrecht,Krimpenerwaard,Zuid-Holland,VBO,4.770345,52.002076
Van Speykstraat,3,,,2851TH,Haastrecht,Krimpenerwaard,Zuid-Holland,VBO,4.769886,52.002040
Van Speykstraat,4,,,2851TH,Haastrecht,Krimpenerwaard,Zuid-Holland,VBO,4.770314,52.002127
Van Speykstraat,5,,,2851TH,Haastrecht,Krimpenerwaard,Zuid-Holland,VBO,4.769854,52.002091
Van Speykstraat,6,,,2851TH,Haastrecht,Krimpenerwaard,Zuid-Holland,VBO,4.770283,52.002177
Van Speykstraat,7,,,2851TH,Haastrecht,Krimpenerwaard,Zuid-Holland,VBO,4.769824,52.002141
Van Speykstraat,8,,,2851TH,Haastrecht,Krimpenerwaard,Zuid-Holland,VBO,4.770251,52.002228
Van Speykstraat,9,,,2851TH,Haastrecht,Krimpenerwaard,Zuid-Holland,VBO,4.769792,52.002192
Van Speykstraat,10,,,2851TH,Haastrecht,Krimpenerwaard,Zuid-Holland,VBO,4.770220,52.002278
Van Speykstraat,12,,,2851TH,Haastrecht,Krimpenerwaard,Zuid-Holland,VBO,4.770190,52.002329
Van Speykstraat,14,,,2851TH,Haastrecht,Krimpenerwaard,Zuid-Holland,VBO,4.770159,52.002379
Van Speykstraat,16,,,2851TH,Haastrecht,Krimpenerwaard,Zuid-Holland,VBO,4.770127,52.002430
Esdoornstraat,1,,,2851TJ,Haastrecht,Krimpenerwaard,Zuid-Holland,VBO,4.770249,52.001756
Esdoornstraat,3,,,2851TJ,Haastrecht,Krimpenerwaard,Zuid-Holland,VBO,4.770165,52.001737
Esdoornstraat,5,,,2851TJ,Haastrecht,Krimpenerwaard,Zuid-Holland,VBO,4.770082,52.001720
Esdoornstraat,7,,,2851TJ,Haastrecht,Krimpenerwaard,Zuid-Holland,VBO,4.769999,52.001702
Esdoornstraat,9,,,2851TJ,Haastrecht,Krimpenerwaard,Zuid-Holland,VBO,4.769915,52.001687
Esdoornstraat,11,,,2851TJ,Haastrecht,Krimpenerwaard,Zuid-Holland,VBO,4.769813,52.001564
Esdoornstraat,13,,,2851TJ,Haastrecht,Krimpenerwaard,Zuid-Holland,VBO,4.769704,52.001588
Esdoornstraat,15,,,2851TJ,Haastrecht,Krimpenerwaard,Zuid-Holland,VBO,4.769610,52.001546
Esdoornstraat,17,,,2851TJ,Haastrecht,Krimpenerwaard,Zuid-Holland,VBO,4.769531,52.001571
Esdoornstraat,19,,,2851TJ,Haastrecht,Krimpenerwaard,Zuid-Holland,VBO,4.769439,52.001480
Esdoornstraat,21,,,2851TJ,Haastrecht,Krimpenerwaard,Zuid-Holland,VBO,4.769359,52.001485
Esdoornstraat,23,,,2851TJ,Haastrecht,Krimpenerwaard,Zuid-Holland,VBO,4.769086,52.001505
Esdoornstraat,25,,,2851TJ,Haastrecht,Krimpenerwaard,Zuid-Holland,VBO,4.768984,52.001525
Esdoornstraat,27,,,2851TJ,Haastrecht,Krimpenerwaard,Zuid-Holland,VBO,4.768894,52.001544
Esdoornstraat,29,,,2851TJ,Haastrecht,Krimpenerwaard,Zuid-Holland,VBO,4.768808,52.001533
Esdoornstraat,31,,,2851TJ,Haastrecht,Krimpenerwaard,Zuid-Holland,VBO,4.768718,52.001547
Esdoornstraat,33,,,2851TJ,Haastrecht,Krimpenerwaard,Zuid-Holland,VBO,4.768635,52.001542
Esdoornstraat,35,,,2851TJ,Haastrecht,Krimpenerwaard,Zuid-Holland,VBO,4.768324,52.001553
Esdoornstraat,37,,,2851TJ,Haastrecht,Krimpenerwaard,Zuid-Holland,VBO,4.768236,52.001554
Esdoornstraat,39,,,2851TJ,Haastrecht,Krimpenerwaard,Zuid-Holland,VBO,4.768146,52.001555
Esdoornstraat,41,,,2851TK,Haastrecht,Krimpenerwaard,Zuid-Holland,VBO,4.768061,52.001533
Esdoornstraat,43,,,2851TK,Haastrecht,Krimpenerwaard,Zuid-Holland,VBO,4.767973,52.001558
Esdoornstraat,45,,,2851TK,Haastrecht,Krimpenerwaard,Zuid-Holland,VBO,4.767887,52.001525
Esdoornstraat,47,,,2851TK,Haastrecht,Krimpenerwaard,Zuid-Holland,VBO,4.767576,52.001563
Esdoornstraat,49,,,2851TK,Haastrecht,Krimpenerwaard,Zuid-Holland,VBO,4.767488,52.001556
Esdoornstraat,51,,,2851TK,Haastrecht,Krimpenerwaard,Zuid-Holland,VBO,4.767400,52.001566
Esdoornstraat,53,,,2851TK,Haastrecht,Krimpenerwaard,Zuid-Holland,VBO,4.767316,52.001531
Esdoornstraat,55,,,2851TK,Haastrecht,Krimpenerwaard,Zuid-Holland,VBO,4.767225,52.001568
Esdoornstraat,57,a,,2851TK,Haastrecht,Krimpenerwaard,Zuid-Holland,VBO,4.766851,52.001559
Esdoornstraat,57,,,2851TK,Haastrecht,Krimpenerwaard,Zuid-Holland,VBO,4.767149,52.001565
Esdoornstraat,59,,,2851TK,Haastrecht,Krimpenerwaard,Zuid-Holland,VBO,4.767010,52.001711
Esdoornstraat,61,,,2851TK,Haastrecht,Krimpenerwaard,Zuid-Holland,VBO,4.767023,52.001785
Esdoornstraat,63,,,2851TK,Haastrecht,Krimpenerwaard,Zuid-Holland,VBO,4.766999,52.001845
Esdoornstraat,65,,,2851TK,Haastrecht,Krimpenerwaard,Zuid-Holland,VBO,4.766997,52.001899
Esdoornstraat,67,,,2851TK,Haastrecht,Krimpenerwaard,Zuid-Holland,VBO,4.767012,52.001954
Esdoornstraat,69,,,2851TK,Haastrecht,Krimpenerwaard,Zuid-Holland,VBO,4.767009,52.002008
Esdoornstraat,71,,,2851TK,Haastrecht,Krimpenerwaard,Zuid-Holland,VBO,4.766914,52.002117
Esdoornstraat,73,,,2851TK,Haastrecht,Krimpenerwaard,Zuid-Holland,VBO,4.766910,52.002172
Esdoornstraat,75,,,2851TK,Haastrecht,Krimpenerwaard,Zuid-Holland,VBO,4.766905,52.002226
Esdoornstraat,77,,,2851TK,Haastrecht,Krimpenerwaard,Zuid-Holland,VBO,4.766901,52.002279
Esdoornstraat,79,,,2851TK,Haastrecht,Krimpenerwaard,Zuid-Holland,VBO,4.766913,52.002336
Esdoornstraat,2,,,2851TL,Haastrecht,Krimpenerwaard,Zuid-Holland,VBO,4.767545,52.001855
Esdoornstraat,4,,,2851TL,Haastrecht,Krimpenerwaard,Zuid-Holland,VBO,4.767543,52.001910
Esdoornstraat,6,,,2851TL,Haastrecht,Krimpenerwaard,Zuid-Holland,VBO,4.767539,52.001964
Esdoornstraat,8,,,2851TL,Haastrecht,Krimpenerwaard,Zuid-Holland,VBO,4.767536,52.002018
Esdoornstraat,10,,,2851TL,Haastrecht,Krimpenerwaard,Zuid-Holland,VBO,4.767532,52.002072
Esdoornstraat,12,,,2851TL,Haastrecht,Krimpenerwaard,Zuid-Holland,VBO,4.767529,52.002126
Esdoornstraat,14,,,2851TL,Haastrecht,Krimpenerwaard,Zuid-Holland,VBO,4.767524,52.002180
Esdoornstraat,16,a,,2851TL,Haastrecht,Krimpenerwaard,Zuid-Holland,VBO,4.767663,52.002337
Esdoornstraat,16,,,2851TL,Haastrecht,Krimpenerwaard,Zuid-Holland,VBO,4.767522,52.002235
Elzendreef,1,,,2851TM,Haastrecht,Krimpenerwaard,Zuid-Holland,VBO,4.769534,52.001892
Elzendreef,3,,,2851TM,Haastrecht,Krimpenerwaard,Zuid-Holland,VBO,4.769507,52.001957
Elzendreef,5,,,2851TM,Haastrecht,Krimpenerwaard,Zuid-Holland,VBO,4.769480,52.002008
Elzendreef,7,,,2851TM,Haastrecht,Krimpenerwaard,Zuid-Holland,VBO,4.769453,52.002059
Elzendreef,9,,,2851TM,Haastrecht,Krimpenerwaard,Zuid-Holland,VBO,4.769426,52.002111
Populierendreef,1,,,2851TN,Haastrecht,Krimpenerwaard,Zuid-Holland,VBO,4.768708,52.001872
Populierendreef,2,,,2851TN,Haastrecht,Krimpenerwaard,Zuid-Holland,VBO,4.769174,52.001870
Populierendreef,3,,,2851TN,Haastrecht,Krimpenerwaard,Zuid-Holland,VBO,4.768697,52.001927
Populierendreef,4,,,2851TN,Haastrecht,Krimpenerwaard,Zuid-Holland,VBO,4.769156,52.001924
Populierendreef,5,,,2851TN,Haastrecht,Krimpenerwaard,Zuid-Holland,VBO,4.768683,52.001980
Populierendreef,6,,,2851TN,Haastrecht,Krimpenerwaard,Zuid-Holland,VBO,4.769138,52.001977
Populierendreef,7,,,2851TN,Haastrecht,Krimpenerwaard,Zuid-Holland,VBO,4.768672,52.002034
Populierendreef,8,,,2851TN,Haastrecht,Krimpenerwaard,Zuid-Holland,VBO,4.769120,52.002029
Populierendreef,9,,,2851TN,Haastrecht,Krimpenerwaard,Zuid-Holland,VBO,4.768659,52.002087
Populierendreef,10,,,2851TN,Haastrecht,Krimpenerwaard,Zuid-Holland,VBO,4.769102,52.002082
Populierendreef,11,,,2851TN,Haastrecht,Krimpenerwaard,Zuid-Holland,VBO,4.768646,52.002141
Populierendreef,12,,,2851TN,Haastrecht,Krimpenerwaard,Zuid-Holland,VBO,4.769118,52.002120
Populierendreef,14,,,2851TN,Haastrecht,Krimpenerwaard,Zuid-Holland,VBO,4.769067,52.002189
Wilgendreef,1,,,2851TP,Haastrecht,Krimpenerwaard,Zuid-Holland,VBO,4.767886,52.001864
Wilgendreef,2,,,2851TP,Haastrecht,Krimpenerwaard,Zuid-Holland,VBO,4.768301,52.001883
Wilgendreef,3,,,2851TP,Haastrecht,Krimpenerwaard,Zuid-Holland,VBO,4.767883,52.001919
Wilgendreef,4,,,2851TP,Haastrecht,Krimpenerwaard,Zuid-Holland,VBO,4.768298,52.001937
Wilgendreef,5,,,2851TP,Haastrecht,Krimpenerwaard,Zuid-Holland,VBO,4.767879,52.001973
Wilgendreef,6,,,2851TP,Haastrecht,Krimpenerwaard,Zuid-Holland,VBO,4.768290,52.001991
Wilgendreef,7,,,2851TP,Haastrecht,Krimpenerwaard,Zuid-Holland,VBO,4.767877,52.002027
Wilgendreef,8,,,2851TP,Haastrecht,Krimpenerwaard,Zuid-Holland,VBO,4.768286,52.002045
Wilgendreef,9,,,2851TP,Haastrecht,Krimpenerwaard,Zuid-Holland,VBO,4.767872,52.002081
Wilgendreef,10,,,2851TP,Haastrecht,Krimpenerwaard,Zuid-Holland,VBO,4.768284,52.002099
Wilgendreef,11,,,2851TP,Haastrecht,Krimpenerwaard,Zuid-Holland,VBO,4.767869,52.002135
Wilgendreef,12,,,2851TP,Haastrecht,Krimpenerwaard,Zuid-Holland,VBO,4.768281,52.002154
Wilgendreef,13,,,2851TP,Haastrecht,Krimpenerwaard,Zuid-Holland,VBO,4.767864,52.002190
Meidoornstraat,1,,,2851TR,Haastrecht,Krimpenerwaard,Zuid-Holland,VBO,4.769652,52.002474
Meidoornstraat,3,,,2851TR,Haastrecht,Krimpenerwaard,Zuid-Holland,VBO,4.769569,52.002454
Meidoornstraat,5,,,2851TR,Haastrecht,Krimpenerwaard,Zuid-Holland,VBO,4.769487,52.002437
Meidoornstraat,7,,,2851TR,Haastrecht,Krimpenerwaard,Zuid-Holland,VBO,4.769405,52.002416
Meidoornstraat,9,,,2851TR,Haastrecht,Krimpenerwaard,Zuid-Holland,VBO,4.769324,52.002398
Meidoornstraat,11,,,2851TR,Haastrecht,Krimpenerwaard,Zuid-Holland,VBO,4.769242,52.002377
Meidoornstraat,13,,,2851TR,Haastrecht,Krimpenerwaard,Zuid-Holland,VBO,4.769159,52.002359
Meidoornstraat,15,,,2851TR,Haastrecht,Krimpenerwaard,Zuid-Holland,VBO,4.769077,52.002312
Meidoornstraat,17,,,2851TR,Haastrecht,Krimpenerwaard,Zuid-Holland,VBO,4.768834,52.002365
Meidoornstraat,19,,,2851TR,Haastrecht,Krimpenerwaard,Zuid-Holland,VBO,4.768746,52.002358
Meidoornstraat,21,,,2851TR,Haastrecht,Krimpenerwaard,Zuid-Holland,VBO,4.768659,52.002352
Meidoornstraat,23,,,2851TR,Haastrecht,Krimpenerwaard,Zuid-Holland,VBO,4.768551,52.002310
Meidoornstraat,25,,,2851TR,Haastrecht,Krimpenerwaard,Zuid-Holland,VBO,4.768485,52.002339
Meidoornstraat,27,,,2851TR,Haastrecht,Krimpenerwaard,Zuid-Holland,VBO,4.768300,52.002346
Meidoornstraat,29,,,2851TR,Haastrecht,Krimpenerwaard,Zuid-Holland,VBO,4.768203,52.002388
Meidoornstraat,31,,,2851TR,Haastrecht,Krimpenerwaard,Zuid-Holland,VBO,4.768138,52.002389
Meidoornstraat,33,,,2851TR,Haastrecht,Krimpenerwaard,Zuid-Holland,VBO,4.768044,52.002431
Meidoornstraat,35,,,2851TR,Haastrecht,Krimpenerwaard,Zuid-Holland,VBO,4.767977,52.002431
Meidoornstraat,37,,,2851TR,Haastrecht,Krimpenerwaard,Zuid-Holland,VBO,4.767739,52.002484
Meidoornstraat,39,,,2851TR,Haastrecht,Krimpenerwaard,Zuid-Holland,VBO,4.767643,52.002542
Meidoornstraat,41,,,2851TR,Haastrecht,Krimpenerwaard,Zuid-Holland,VBO,4.767563,52.002562
Meidoornstraat,43,,,2851TR,Haastrecht,Krimpenerwaard,Zuid-Holland,VBO,4.767483,52.002583
Meidoornstraat,45,,,2851TR,Haastrecht,Krimpenerwaard,Zuid-Holland,VBO,4.767403,52.002603
Meidoornstraat,47,,,2851TR,Haastrecht,Krimpenerwaard,Zuid-Holland,VBO,4.767298,52.002622
Meidoornstraat,49,,,2851TR,Haastrecht,Krimpenerwaard,Zuid-Holland,VBO,4.767150,52.002648
Meidoornstraat,51,,,2851TR,Haastrecht,Krimpenerwaard,Zuid-Holland,VBO,4.767035,52.002671
Meidoornstraat,53,,,2851TR,Haastrecht,Krimpenerwaard,Zuid-Holland,VBO,4.766950,52.002682
Meidoornstraat,55,,,2851TR,Haastrecht,Krimpenerwaard,Zuid-Holland,VBO,4.766835,52.002697
Karel Doormanstraat,1,,,2851TS,Haastrecht,Krimpenerwaard,Zuid-Holland,VBO,4.771814,52.003107
Karel Doormanstraat,3,,,2851TS,Haastrecht,Krimpenerwaard,Zuid-Holland,VBO,4.771732,52.003087
Karel Doormanstraat,5,,,2851TS,Haastrecht,Krimpenerwaard,Zuid-Holland,VBO,4.771649,52.003068
Karel Doormanstraat,7,,,2851TS,Haastrecht,Krimpenerwaard,Zuid-Holland,VBO,4.771567,52.003048
Karel Doormanstraat,9,,,2851TS,Haastrecht,Krimpenerwaard,Zuid-Holland,VBO,4.771021,52.002845
Karel Doormanstraat,11,,,2851TS,Haastrecht,Krimpenerwaard,Zuid-Holland,VBO,4.770938,52.002825
Karel Doormanstraat,13,,,2851TS,Haastrecht,Krimpenerwaard,Zuid-Holland,VBO,4.770855,52.002806
Karel Doormanstraat,15,,,2851TS,Haastrecht,Krimpenerwaard,Zuid-Holland,VBO,4.770772,52.002786
Karel Doormanstraat,17,,,2851TS,Haastrecht,Krimpenerwaard,Zuid-Holland,VBO,4.770182,52.002646
Karel Doormanstraat,19,,,2851TS,Haastrecht,Krimpenerwaard,Zuid-Holland,VBO,4.770099,52.002627
Karel Doormanstraat,21,,,2851TS,Haastrecht,Krimpenerwaard,Zuid-Holland,VBO,4.770018,52.002607
Karel Doormanstraat,23,,,2851TS,Haastrecht,Krimpenerwaard,Zuid-Holland,VBO,4.769935,52.002588
Bredeweg,1,,,2851VA,Haastrecht,Krimpenerwaard,Zuid-Holland,VBO,4.778163,51.997452
Bredeweg,2,,,2851VA,Haastrecht,Krimpenerwaard,Zuid-Holland,VBO,4.782585,51.994469
Bredeweg,3,,,2851VA,Haastrecht,Krimpenerwaard,Zuid-Holland,VBO,4.777991,51.997811
Bredeweg,7,,,2851VB,Haastrecht,Krimpenerwaard,Zuid-Holland,VBO,4.776853,51.999170
Bredeweg,9,,,2851VB,Haastrecht,Krimpenerwaard,Zuid-Holland,VBO,4.776770,51.999157
Bredeweg,11,,,2851VB,Haastrecht,Krimpenerwaard,Zuid-Holland,VBO,4.776672,51.999141
Bredeweg,13,,,2851VB,Haastrecht,Krimpenerwaard,Zuid-Holland,VBO,4.776583,51.999127
Bredeweg,15,c,,2851VB,Haastrecht,Krimpenerwaard,Zuid-Holland,VBO,4.776348,51.999281
Bredeweg,15,,,2851VB,Haastrecht,Krimpenerwaard,Zuid-Holland,VBO,4.776492,51.999112
Bredeweg,17,,,2851VB,Haastrecht,Krimpenerwaard,Zuid-Holland,VBO,4.775737,51.999233
Bredeweg,19,,,2851VB,Haastrecht,Krimpenerwaard,Zuid-Holland,VBO,4.775721,51.999278
Bredeweg,21,,,2851VB,Haastrecht,Krimpenerwaard,Zuid-Holland,VBO,4.775721,51.999327
Bredeweg,23,,,2851VB,Haastrecht,Krimpenerwaard,Zuid-Holland,VBO,4.775633,51.999352
Bredeweg,25,a,,2851VB,Haastrecht,Krimpenerwaard,Zuid-Holland,VBO,4.775587,51.999506
Bredeweg,25,,,2851VB,Haastrecht,Krimpenerwaard,Zuid-Holland,VBO,4.775646,51.999462
Bredeweg,27,a,,2851VB,Haastrecht,Krimpenerwaard,Zuid-Holland,VBO,4.775520,51.999641
Bredeweg,27,,,2851VB,Haastrecht,Krimpenerwaard,Zuid-Holland,VBO,4.775557,51.999582
Bredeweg,29,a,,2851VB,Haastrecht,Krimpenerwaard,Zuid-Holland,VBO,4.775193,51.999608
Bredeweg,29,,,2851VB,Haastrecht,Krimpenerwaard,Zuid-Holland,VBO,4.775381,51.999433
Bredeweg,31,,,2851VB,Haastrecht,Krimpenerwaard,Zuid-Holland,VBO,4.775350,51.999806
Bredeweg,33,,,2851VB,Haastrecht,Krimpenerwaard,Zuid-Holland,VBO,4.775248,51.999828
Bredeweg,35,,,2851VB,Haastrecht,Krimpenerwaard,Zuid-Holland,VBO,4.775157,52.000057
Bredeweg,37,,,2851VB,Haastrecht,Krimpenerwaard,Zuid-Holland,VBO,4.775142,52.000093
Bredeweg,39,,,2851VB,Haastrecht,Krimpenerwaard,Zuid-Holland,VBO,4.775112,52.000146
Bredeweg,41,,,2851VB,Haastrecht,Krimpenerwaard,Zuid-Holland,VBO,4.774932,52.000258
Jan de Waardsingel,1,,,2851VC,Haastrecht,Krimpenerwaard,Zuid-Holland,VBO,4.777573,51.998346
Jan de Waardsingel,2,,,2851VC,Haastrecht,Krimpenerwaard,Zuid-Holland,VBO,4.777524,51.998421
Jan de Waardsingel,3,,,2851VC,Haastrecht,Krimpenerwaard,Zuid-Holland,VBO,4.777480,51.998481
Jan de Waardsingel,4,,,2851VC,Haastrecht,Krimpenerwaard,Zuid-Holland,VBO,4.777445,51.998547
Jan de Waardsingel,5,,,2851VC,Haastrecht,Krimpenerwaard,Zuid-Holland,VBO,4.777265,51.998951
Jan de Waardsingel,6,,,2851VC,Haastrecht,Krimpenerwaard,Zuid-Holland,VBO,4.777231,51.999004
Jan de Waardsingel,7,,,2851VC,Haastrecht,Krimpenerwaard,Zuid-Holland,VBO,4.777193,51.999059
Jan de Waardsingel,8,,,2851VC,Haastrecht,Krimpenerwaard,Zuid-Holland,VBO,4.777156,51.999114
Jan de Waardsingel,9,,,2851VC,Haastrecht,Krimpenerwaard,Zuid-Holland,VBO,4.777115,51.999164
Jan de Waardsingel,10,,,2851VC,Haastrecht,Krimpenerwaard,Zuid-Holland,VBO,4.777086,51.999209
Jan van Arkelstraat,1,,,2851VD,Haastrecht,Krimpenerwaard,Zuid-Holland,VBO,4.777830,51.998078
Jan van Arkelstraat,2,,,2851VD,Haastrecht,Krimpenerwaard,Zuid-Holland,VBO,4.777648,51.998209
Jan van Arkelstraat,3,,,2851VD,Haastrecht,Krimpenerwaard,Zuid-Holland,VBO,4.777733,51.998057
Jan van Arkelstraat,4,,,2851VD,Haastrecht,Krimpenerwaard,Zuid-Holland,VBO,4.777552,51.998182
Jan van Arkelstraat,5,,,2851VD,Haastrecht,Krimpenerwaard,Zuid-Holland,VBO,4.777631,51.998029
Jan van Arkelstraat,6,,,2851VD,Haastrecht,Krimpenerwaard,Zuid-Holland,VBO,4.777440,51.998154
Jan van Arkelstraat,7,,,2851VD,Haastrecht,Krimpenerwaard,Zuid-Holland,VBO,4.777530,51.998002
Jan van Arkelstraat,8,,,2851VD,Haastrecht,Krimpenerwaard,Zuid-Holland,VBO,4.777262,51.998108
Jan van Arkelstraat,9,,,2851VD,Haastrecht,Krimpenerwaard,Zuid-Holland,VBO,4.777424,51.997981
Jan van Arkelstraat,10,,,2851VD,Haastrecht,Krimpenerwaard,Zuid-Holland,VBO,4.777154,51.998087
Jan van Arkelstraat,11,,,2851VD,Haastrecht,Krimpenerwaard,Zuid-Holland,VBO,4.777319,51.997951
Jan van Arkelstraat,12,,,2851VD,Haastrecht,Krimpenerwaard,Zuid-Holland,VBO,4.777059,51.998053
Jan van Arkelstraat,13,,,2851VD,Haastrecht,Krimpenerwaard,Zuid-Holland,VBO,4.777269,51.997902
Jan van Arkelstraat,14,,,2851VD,Haastrecht,Krimpenerwaard,Zuid-Holland,VBO,4.776412,51.997946
Jan van Arkelstraat,15,,,2851VD,Haastrecht,Krimpenerwaard,Zuid-Holland,VBO,4.777226,51.997892
Jan van Arkelstraat,16,,,2851VD,Haastrecht,Krimpenerwaard,Zuid-Holland,VBO,4.776345,51.997904
Jan van Arkelstraat,17,,,2851VD,Haastrecht,Krimpenerwaard,Zuid-Holland,VBO,4.777153,51.997867
Jan van Arkelstraat,18,,,2851VD,Haastrecht,Krimpenerwaard,Zuid-Holland,VBO,4.776281,51.997893
Jan van Arkelstraat,19,,,2851VD,Haastrecht,Krimpenerwaard,Zuid-Holland,VBO,4.777041,51.997858
Jan van Arkelstraat,21,,,2851VD,Haastrecht,Krimpenerwaard,Zuid-Holland,VBO,4.776935,51.997831
Van der Ledestraat,1,,,2851VE,Haastrecht,Krimpenerwaard,Zuid-Holland,VBO,4.777414,51.998696
Van der Ledestraat,2,,,2851VE,Haastrecht,Krimpenerwaard,Zuid-Holland,VBO,4.777325,51.998848
Van der Ledestraat,3,,,2851VE,Haastrecht,Krimpenerwaard,Zuid-Holland,VBO,4.777317,51.998657
Van der Ledestraat,4,,,2851VE,Haastrecht,Krimpenerwaard,Zuid-Holland,VBO,4.777213,51.998821
Van der Ledestraat,5,,,2851VE,Haastrecht,Krimpenerwaard,Zuid-Holland,VBO,4.777205,51.998641
Van der Ledestraat,6,,,2851VE,Haastrecht,Krimpenerwaard,Zuid-Holland,VBO,4.777101,51.998799
Van der Ledestraat,7,,,2851VE,Haastrecht,Krimpenerwaard,Zuid-Holland,VBO,4.777095,51.998617
Van der Ledestraat,8,,,2851VE,Haastrecht,Krimpenerwaard,Zuid-Holland,VBO,4.777005,51.998772
Van der Ledestraat,9,,,2851VE,Haastrecht,Krimpenerwaard,Zuid-Holland,VBO,4.776983,51.998588
Van der Ledestraat,10,,,2851VE,Haastrecht,Krimpenerwaard,Zuid-Holland,VBO,4.776898,51.998747
Van der Ledestraat,11,,,2851VE,Haastrecht,Krimpenerwaard,Zuid-Holland,VBO,4.776892,51.998565
Van der Ledestraat,12,,,2851VE,Haastrecht,Krimpenerwaard,Zuid-Holland,VBO,4.776807,51.998714
Van der Ledestraat,13,,,2851VE,Haastrecht,Krimpenerwaard,Zuid-Holland,VBO,4.776799,51.998517
Van der Ledestraat,14,,,2851VE,Haastrecht,Krimpenerwaard,Zuid-Holland,VBO,4.776701,51.998692
Zwarteweg,1,a,,2851VG,Haastrecht,Krimpenerwaard,Zuid-Holland,VBO,4.776276,51.998085
Zwarteweg,1,,,2851VG,Haastrecht,Krimpenerwaard,Zuid-Holland,VBO,4.776312,51.998172
Zwarteweg,3,,,2851VG,Haastrecht,Krimpenerwaard,Zuid-Holland,VBO,4.776275,51.998224
Zwarteweg,5,,,2851VG,Haastrecht,Krimpenerwaard,Zuid-Holland,VBO,4.776255,51.998271
Zwarteweg,7,,,2851VG,Haastrecht,Krimpenerwaard,Zuid-Holland,VBO,4.776196,51.998338
Zwarteweg,9,,,2851VG,Haastrecht,Krimpenerwaard,Zuid-Holland,VBO,4.776166,51.998390
Zwarteweg,11,,,2851VG,Haastrecht,Krimpenerwaard,Zuid-Holland,VBO,4.776126,51.998448
Zwarteweg,13,,,2851VG,Haastrecht,Krimpenerwaard,Zuid-Holland,VBO,4.776052,51.998490
Zwarteweg,15,,,2851VG,Haastrecht,Krimpenerwaard,Zuid-Holland,VBO,4.776028,51.998546
Zwarteweg,17,,,2851VG,Haastrecht,Krimpenerwaard,Zuid-Holland,VBO,4.776017,51.998610
Zwarteweg,19,,,2851VG,Haastrecht,Krimpenerwaard,Zuid-Holland,VBO,4.775943,51.998732
Zwarteweg,21,,,2851VG,Haastrecht,Krimpenerwaard,Zuid-Holland,VBO,4.775880,51.998773
Zwarteweg,23,,,2851VG,Haastrecht,Krimpenerwaard,Zuid-Holland,VBO,4.775858,51.998842
Zwarteweg,2,a,,2851VH,Haastrecht,Krimpenerwaard,Zuid-Holland,VBO,4.776767,51.998067
Zwarteweg,2,b,,2851VH,Haastrecht,Krimpenerwaard,Zuid-Holland,VBO,4.776720,51.998132
Zwarteweg,2,c,,2851VH,Haastrecht,Krimpenerwaard,Zuid-Holland,VBO,4.776697,51.998240
Zwarteweg,2,,,2851VH,Haastrecht,Krimpenerwaard,Zuid-Holland,VBO,4.776797,51.997998
Zwarteweg,4,,,2851VH,Haastrecht,Krimpenerwaard,Zuid-Holland,VBO,4.776645,51.998307
Zwarteweg,6,,,2851VH,Haastrecht,Krimpenerwaard,Zuid-Holland,VBO,4.776637,51.998348
Zwarteweg,8,,,2851VH,Haastrecht,Krimpenerwaard,Zuid-Holland,VBO,4.776588,51.998413
Zwarteweg,10,,,2851VH,Haastrecht,Krimpenerwaard,Zuid-Holland,VBO,4.776543,51.998479
Zwarteweg,12,,,2851VH,Haastrecht,Krimpenerwaard,Zuid-Holland,VBO,4.776448,51.998616
Zwarteweg,14,,,2851VH,Haastrecht,Krimpenerwaard,Zuid-Holland,VBO,4.776418,51.998670
Zwarteweg,16,,,2851VH,Haastrecht,Krimpenerwaard,Zuid-Holland,VBO,4.776392,51.998715
Zwarteweg,18,,,2851VH,Haastrecht,Krimpenerwaard,Zuid-Holland,VBO,4.776355,51.998762
Zwarteweg,20,,,2851VH,Haastrecht,Krimpenerwaard,Zuid-Holland,VBO,4.776306,51.998813
Zwarteweg,22,,,2851VH,Haastrecht,Krimpenerwaard,Zuid-Holland,VBO,4.776295,51.998867
Zwarteweg,24,,,2851VH,Haastrecht,Krimpenerwaard,Zuid-Holland,VBO,4.776255,51.998921
Zwarteweg,26,,,2851VH,Haastrecht,Krimpenerwaard,Zuid-Holland,VBO,4.776225,51.998968
Zwarteweg,28,,,2851VH,Haastrecht,Krimpenerwaard,Zuid-Holland,VBO,4.776187,51.999017
Zwarteweg,30,,,2851VH,Haastrecht,Krimpenerwaard,Zuid-Holland,VBO,4.776157,51.999067
Koekoekstraat,2,,,2851VJ,Haastrecht,Krimpenerwaard,Zuid-Holland,VBO,4.776759,51.997476
Koekoekstraat,4,,,2851VJ,Haastrecht,Krimpenerwaard,Zuid-Holland,VBO,4.776746,51.997532
Koekoekstraat,6,,,2851VJ,Haastrecht,Krimpenerwaard,Zuid-Holland,VBO,4.776720,51.997596
Koekoekstraat,8,,,2851VJ,Haastrecht,Krimpenerwaard,Zuid-Holland,VBO,4.776726,51.997628
Koekoekstraat,10,,,2851VJ,Haastrecht,Krimpenerwaard,Zuid-Holland,VBO,4.776682,51.997703
Koekoekstraat,12,,,2851VJ,Haastrecht,Krimpenerwaard,Zuid-Holland,VBO,4.776691,51.997773
Leeuwerikstraat,5,,,2851VK,Haastrecht,Krimpenerwaard,Zuid-Holland,VBO,4.775833,51.997639
Leeuwerikstraat,6,,,2851VK,Haastrecht,Krimpenerwaard,Zuid-Holland,VBO,4.776074,51.997868
Leeuwerikstraat,7,,,2851VK,Haastrecht,Krimpenerwaard,Zuid-Holland,VBO,4.775788,51.997721
Leeuwerikstraat,8,,,2851VK,Haastrecht,Krimpenerwaard,Zuid-Holland,VBO,4.775884,51.998085
Leeuwerikstraat,9,,,2851VK,Haastrecht,Krimpenerwaard,Zuid-Holland,VBO,4.775764,51.997773
Leeuwerikstraat,10,,,2851VK,Haastrecht,Krimpenerwaard,Zuid-Holland,VBO,4.775884,51.998085
Leeuwerikstraat,11,,,2851VK,Haastrecht,Krimpenerwaard,Zuid-Holland,VBO,4.775597,51.998036
Leeuwerikstraat,12,,,2851VK,Haastrecht,Krimpenerwaard,Zuid-Holland,VBO,4.775884,51.998085
Leeuwerikstraat,13,,,2851VK,Haastrecht,Krimpenerwaard,Zuid-Holland,VBO,4.775565,51.998090
Leeuwerikstraat,14,,,2851VK,Haastrecht,Krimpenerwaard,Zuid-Holland,VBO,4.775884,51.998085
Leeuwerikstraat,15,,,2851VK,Haastrecht,Krimpenerwaard,Zuid-Holland,VBO,4.775528,51.998145
Leeuwerikstraat,16,,,2851VK,Haastrecht,Krimpenerwaard,Zuid-Holland,VBO,4.775884,51.998085
Leeuwerikstraat,17,,,2851VK,Haastrecht,Krimpenerwaard,Zuid-Holland,VBO,4.775353,51.998423
Leeuwerikstraat,18,,,2851VK,Haastrecht,Krimpenerwaard,Zuid-Holland,VBO,4.775884,51.998085
Leeuwerikstraat,19,,,2851VK,Haastrecht,Krimpenerwaard,Zuid-Holland,VBO,4.775306,51.998515
Leeuwerikstraat,20,,,2851VK,Haastrecht,Krimpenerwaard,Zuid-Holland,VBO,4.775685,51.998388
Leeuwerikstraat,21,,,2851VK,Haastrecht,Krimpenerwaard,Zuid-Holland,VBO,4.775038,51.998703
Leeuwerikstraat,22,,,2851VK,Haastrecht,Krimpenerwaard,Zuid-Holland,VBO,4.775643,51.998451
Leeuwerikstraat,23,,,2851VK,Haastrecht,Krimpenerwaard,Zuid-Holland,VBO,4.775015,51.998780
Leeuwerikstraat,24,,,2851VK,Haastrecht,Krimpenerwaard,Zuid-Holland,VBO,4.775514,51.998664
Leeuwerikstraat,25,,,2851VK,Haastrecht,Krimpenerwaard,Zuid-Holland,VBO,4.774985,51.998833
Leeuwerikstraat,26,,,2851VK,Haastrecht,Krimpenerwaard,Zuid-Holland,VBO,4.775514,51.998664
Leeuwerikstraat,27,,,2851VK,Haastrecht,Krimpenerwaard,Zuid-Holland,VBO,4.774955,51.998869
Leeuwerikstraat,28,,,2851VK,Haastrecht,Krimpenerwaard,Zuid-Holland,VBO,4.775514,51.998664
Leeuwerikstraat,29,,,2851VK,Haastrecht,Krimpenerwaard,Zuid-Holland,VBO,4.774940,51.998914
Leeuwerikstraat,30,,,2851VK,Haastrecht,Krimpenerwaard,Zuid-Holland,VBO,4.775514,51.998664
Leeuwerikstraat,31,,,2851VK,Haastrecht,Krimpenerwaard,Zuid-Holland,VBO,4.774917,51.998963
Leeuwerikstraat,32,,,2851VK,Haastrecht,Krimpenerwaard,Zuid-Holland,VBO,4.775514,51.998664
Leeuwerikstraat,34,,,2851VK,Haastrecht,Krimpenerwaard,Zuid-Holland,VBO,4.775514,51.998664
Leeuwerikstraat,36,,,2851VK,Haastrecht,Krimpenerwaard,Zuid-Holland,VBO,4.775514,51.998664
Leeuwerikstraat,38,,,2851VK,Haastrecht,Krimpenerwaard,Zuid-Holland,VBO,4.775333,51.998948
Spechtstraat,2,,,2851VL,Haastrecht,Krimpenerwaard,Zuid-Holland,VBO,4.774999,51.997401
Spechtstraat,4,,,2851VL,Haastrecht,Krimpenerwaard,Zuid-Holland,VBO,4.774969,51.997450
Spechtstraat,6,,,2851VL,Haastrecht,Krimpenerwaard,Zuid-Holland,VBO,4.774951,51.997503
Spechtstraat,8,,,2851VL,Haastrecht,Krimpenerwaard,Zuid-Holland,VBO,4.774900,51.997548
Spechtstraat,10,,,2851VL,Haastrecht,Krimpenerwaard,Zuid-Holland,VBO,4.774867,51.997599
Spechtstraat,12,,,2851VL,Haastrecht,Krimpenerwaard,Zuid-Holland,VBO,4.774765,51.997760
Spechtstraat,14,,,2851VL,Haastrecht,Krimpenerwaard,Zuid-Holland,VBO,4.774732,51.997810
Spechtstraat,16,,,2851VL,Haastrecht,Krimpenerwaard,Zuid-Holland,VBO,4.774699,51.997860
Spechtstraat,18,,,2851VL,Haastrecht,Krimpenerwaard,Zuid-Holland,VBO,4.774665,51.997911
Spechtstraat,20,,,2851VL,Haastrecht,Krimpenerwaard,Zuid-Holland,VBO,4.774630,51.997962
Spechtstraat,22,,,2851VL,Haastrecht,Krimpenerwaard,Zuid-Holland,VBO,4.774520,51.998130
Spechtstraat,24,,,2851VL,Haastrecht,Krimpenerwaard,Zuid-Holland,VBO,4.774486,51.998180
Spechtstraat,26,,,2851VL,Haastrecht,Krimpenerwaard,Zuid-Holland,VBO,4.774471,51.998236
Spechtstraat,28,,,2851VL,Haastrecht,Krimpenerwaard,Zuid-Holland,VBO,4.774419,51.998281
Spechtstraat,30,,,2851VL,Haastrecht,Krimpenerwaard,Zuid-Holland,VBO,4.774384,51.998332
Nachtegaalstraat,1,,,2851VM,Haastrecht,Krimpenerwaard,Zuid-Holland,VBO,4.776464,51.997466
Nachtegaalstraat,2,,,2851VM,Haastrecht,Krimpenerwaard,Zuid-Holland,VBO,4.775788,51.997588
Nachtegaalstraat,3,,,2851VM,Haastrecht,Krimpenerwaard,Zuid-Holland,VBO,4.776358,51.997465
Nachtegaalstraat,4,,,2851VM,Haastrecht,Krimpenerwaard,Zuid-Holland,VBO,4.775708,51.997574
Nachtegaalstraat,5,,,2851VM,Haastrecht,Krimpenerwaard,Zuid-Holland,VBO,4.776144,51.997417
Nachtegaalstraat,6,,,2851VM,Haastrecht,Krimpenerwaard,Zuid-Holland,VBO,4.775606,51.997555
Nachtegaalstraat,7,,,2851VM,Haastrecht,Krimpenerwaard,Zuid-Holland,VBO,4.776089,51.997421
Nachtegaalstraat,8,,,2851VM,Haastrecht,Krimpenerwaard,Zuid-Holland,VBO,4.775546,51.997533
Nachtegaalstraat,9,,,2851VM,Haastrecht,Krimpenerwaard,Zuid-Holland,VBO,4.775801,51.997391
Nachtegaalstraat,10,,,2851VM,Haastrecht,Krimpenerwaard,Zuid-Holland,VBO,4.775466,51.997513
Nachtegaalstraat,11,,,2851VM,Haastrecht,Krimpenerwaard,Zuid-Holland,VBO,4.775540,51.997335
Nachtegaalstraat,12,,,2851VM,Haastrecht,Krimpenerwaard,Zuid-Holland,VBO,4.775385,51.997492
Nachtegaalstraat,13,,,2851VM,Haastrecht,Krimpenerwaard,Zuid-Holland,VBO,4.775130,51.997261
Nachtegaalstraat,14,,,2851VM,Haastrecht,Krimpenerwaard,Zuid-Holland,VBO,4.775295,51.997478
Nachtegaalstraat,16,,,2851VM,Haastrecht,Krimpenerwaard,Zuid-Holland,VBO,4.775221,51.997451
Reigerstraat,1,,,2851VN,Haastrecht,Krimpenerwaard,Zuid-Holland,VBO,4.775680,51.997813
Reigerstraat,2,,,2851VN,Haastrecht,Krimpenerwaard,Zuid-Holland,VBO,4.775578,51.997968
Reigerstraat,3,,,2851VN,Haastrecht,Krimpenerwaard,Zuid-Holland,VBO,4.775597,51.997793
Reigerstraat,4,,,2851VN,Haastrecht,Krimpenerwaard,Zuid-Holland,VBO,4.775491,51.997946
Reigerstraat,5,,,2851VN,Haastrecht,Krimpenerwaard,Zuid-Holland,VBO,4.775513,51.997772
Reigerstraat,6,,,2851VN,Haastrecht,Krimpenerwaard,Zuid-Holland,VBO,4.775408,51.997924
Reigerstraat,7,,,2851VN,Haastrecht,Krimpenerwaard,Zuid-Holland,VBO,4.775430,51.997751
Reigerstraat,8,,,2851VN,Haastrecht,Krimpenerwaard,Zuid-Holland,VBO,4.775324,51.997902
Reigerstraat,9,,,2851VN,Haastrecht,Krimpenerwaard,Zuid-Holland,VBO,4.775346,51.997730
Reigerstraat,10,,,2851VN,Haastrecht,Krimpenerwaard,Zuid-Holland,VBO,4.775240,51.997880
Reigerstraat,11,,,2851VN,Haastrecht,Krimpenerwaard,Zuid-Holland,VBO,4.775260,51.997708
Reigerstraat,12,,,2851VN,Haastrecht,Krimpenerwaard,Zuid-Holland,VBO,4.775156,51.997859
Reigerstraat,13,,,2851VN,Haastrecht,Krimpenerwaard,Zuid-Holland,VBO,4.775179,51.997655
Reigerstraat,14,,,2851VN,Haastrecht,Krimpenerwaard,Zuid-Holland,VBO,4.775072,51.997837
Reigerstraat,15,,,2851VN,Haastrecht,Krimpenerwaard,Zuid-Holland,VBO,4.775095,51.997668
Reigerstraat,16,,,2851VN,Haastrecht,Krimpenerwaard,Zuid-Holland,VBO,4.774987,51.997815
Kievitstraat,1,,,2851VP,Haastrecht,Krimpenerwaard,Zuid-Holland,VBO,4.775433,51.998184
Kievitstraat,2,,,2851VP,Haastrecht,Krimpenerwaard,Zuid-Holland,VBO,4.775366,51.998348
Kievitstraat,3,,,2851VP,Haastrecht,Krimpenerwaard,Zuid-Holland,VBO,4.775346,51.998161
Kievitstraat,4,,,2851VP,Haastrecht,Krimpenerwaard,Zuid-Holland,VBO,4.775283,51.998327
Kievitstraat,5,,,2851VP,Haastrecht,Krimpenerwaard,Zuid-Holland,VBO,4.775261,51.998140
Kievitstraat,6,,,2851VP,Haastrecht,Krimpenerwaard,Zuid-Holland,VBO,4.775200,51.998306
Kievitstraat,7,,,2851VP,Haastrecht,Krimpenerwaard,Zuid-Holland,VBO,4.775179,51.998119
Kievitstraat,8,,,2851VP,Haastrecht,Krimpenerwaard,Zuid-Holland,VBO,4.775119,51.998285
Kievitstraat,9,,,2851VP,Haastrecht,Krimpenerwaard,Zuid-Holland,VBO,4.775094,51.998096
Kievitstraat,10,,,2851VP,Haastrecht,Krimpenerwaard,Zuid-Holland,VBO,4.775038,51.998265
Kievitstraat,11,,,2851VP,Haastrecht,Krimpenerwaard,Zuid-Holland,VBO,4.775012,51.998075
Kievitstraat,12,,,2851VP,Haastrecht,Krimpenerwaard,Zuid-Holland,VBO,4.774955,51.998244
Kievitstraat,13,,,2851VP,Haastrecht,Krimpenerwaard,Zuid-Holland,VBO,4.774929,51.998054
Kievitstraat,14,,,2851VP,Haastrecht,Krimpenerwaard,Zuid-Holland,VBO,4.774874,51.998223
Kievitstraat,15,,,2851VP,Haastrecht,Krimpenerwaard,Zuid-Holland,VBO,4.774844,51.998032
Kievitstraat,16,,,2851VP,Haastrecht,Krimpenerwaard,Zuid-Holland,VBO,4.774793,51.998202
Roerdompstraat,1,,,2851VR,Haastrecht,Krimpenerwaard,Zuid-Holland,VBO,4.775223,51.998562
Roerdompstraat,2,,,2851VR,Haastrecht,Krimpenerwaard,Zuid-Holland,VBO,4.774725,51.998661
Roerdompstraat,3,,,2851VR,Haastrecht,Krimpenerwaard,Zuid-Holland,VBO,4.775140,51.998541
Roerdompstraat,4,,,2851VR,Haastrecht,Krimpenerwaard,Zuid-Holland,VBO,4.774645,51.998643
Roerdompstraat,5,,,2851VR,Haastrecht,Krimpenerwaard,Zuid-Holland,VBO,4.775058,51.998520
Roerdompstraat,6,,,2851VR,Haastrecht,Krimpenerwaard,Zuid-Holland,VBO,4.774580,51.998634
Roerdompstraat,7,,,2851VR,Haastrecht,Krimpenerwaard,Zuid-Holland,VBO,4.774976,51.998499
Roerdompstraat,8,,,2851VR,Haastrecht,Krimpenerwaard,Zuid-Holland,VBO,4.774515,51.998597
Roerdompstraat,9,,,2851VR,Haastrecht,Krimpenerwaard,Zuid-Holland,VBO,4.774894,51.998479
Roerdompstraat,10,,,2851VR,Haastrecht,Krimpenerwaard,Zuid-Holland,VBO,4.773876,51.998437
Roerdompstraat,11,,,2851VR,Haastrecht,Krimpenerwaard,Zuid-Holland,VBO,4.774812,51.998458
Roerdompstraat,12,,,2851VR,Haastrecht,Krimpenerwaard,Zuid-Holland,VBO,4.773637,51.998332
Roerdompstraat,13,,,2851VR,Haastrecht,Krimpenerwaard,Zuid-Holland,VBO,4.774732,51.998438
Roerdompstraat,15,,,2851VR,Haastrecht,Krimpenerwaard,Zuid-Holland,VBO,4.774650,51.998417
Merelstraat,1,,,2851VS,Haastrecht,Krimpenerwaard,Zuid-Holland,VBO,4.774246,51.998515
Merelstraat,2,,,2851VS,Haastrecht,Krimpenerwaard,Zuid-Holland,VBO,4.774424,51.998866
Merelstraat,3,,,2851VS,Haastrecht,Krimpenerwaard,Zuid-Holland,VBO,4.774142,51.998667
Merelstraat,4,,,2851VS,Haastrecht,Krimpenerwaard,Zuid-Holland,VBO,4.774363,51.998903
Merelstraat,5,,,2851VS,Haastrecht,Krimpenerwaard,Zuid-Holland,VBO,4.774024,51.998813
Merelstraat,6,,,2851VS,Haastrecht,Krimpenerwaard,Zuid-Holland,VBO,4.774295,51.998936
Merelstraat,7,,,2851VS,Haastrecht,Krimpenerwaard,Zuid-Holland,VBO,4.773840,51.998958
Merelstraat,8,,,2851VS,Haastrecht,Krimpenerwaard,Zuid-Holland,VBO,4.774226,51.998970
Merelstraat,9,,,2851VS,Haastrecht,Krimpenerwaard,Zuid-Holland,VBO,4.773656,51.999289
Merelstraat,10,,,2851VS,Haastrecht,Krimpenerwaard,Zuid-Holland,VBO,4.774155,51.999004
Merelstraat,12,,,2851VS,Haastrecht,Krimpenerwaard,Zuid-Holland,VBO,4.774092,51.999036
Merelstraat,14,,,2851VS,Haastrecht,Krimpenerwaard,Zuid-Holland,VBO,4.774024,51.999070
Merelstraat,16,,,2851VS,Haastrecht,Krimpenerwaard,Zuid-Holland,VBO,4.773957,51.999104
Merelstraat,18,,,2851VS,Haastrecht,Krimpenerwaard,Zuid-Holland,VBO,4.773890,51.999136
Merelstraat,20,,,2851VS,Haastrecht,Krimpenerwaard,Zuid-Holland,VBO,4.773866,51.999176
Lijsterstraat,1,,,2851VT,Haastrecht,Krimpenerwaard,Zuid-Holland,VBO,4.773579,51.998880
Lijsterstraat,3,,,2851VT,Haastrecht,Krimpenerwaard,Zuid-Holland,VBO,4.773391,51.998744
Lijsterstraat,12,,,2851VT,Haastrecht,Krimpenerwaard,Zuid-Holland,VBO,4.772939,51.999331
Concordiaplein,1,a,,2851VV,Haastrecht,Krimpenerwaard,Zuid-Holland,VBO,4.776266,51.999631
Concordiaplein,1,,,2851VV,Haastrecht,Krimpenerwaard,Zuid-Holland,VBO,4.776237,51.999583
Concordiaplein,2,,,2851VV,Haastrecht,Krimpenerwaard,Zuid-Holland,VBO,4.775801,52.000215
Concordiaplein,3,,,2851VV,Haastrecht,Krimpenerwaard,Zuid-Holland,VBO,4.775801,52.000215
Concordiaplein,4,,,2851VV,Haastrecht,Krimpenerwaard,Zuid-Holland,VBO,4.775801,52.000215
Beatrixlaan,1,,,2851XA,Haastrecht,Krimpenerwaard,Zuid-Holland,VBO,4.778781,51.998277
Beatrixlaan,3,,,2851XA,Haastrecht,Krimpenerwaard,Zuid-Holland,VBO,4.778816,51.998226
Beatrixlaan,5,,,2851XA,Haastrecht,Krimpenerwaard,Zuid-Holland,VBO,4.778848,51.998176
Beatrixlaan,7,,,2851XA,Haastrecht,Krimpenerwaard,Zuid-Holland,VBO,4.778881,51.998125
Beatrixlaan,9,,,2851XA,Haastrecht,Krimpenerwaard,Zuid-Holland,VBO,4.778914,51.998075
Beatrixlaan,11,,,2851XA,Haastrecht,Krimpenerwaard,Zuid-Holland,VBO,4.779017,51.998015
Beatrixlaan,13,,,2851XA,Haastrecht,Krimpenerwaard,Zuid-Holland,VBO,4.779038,51.997970
Beatrixlaan,15,,,2851XA,Haastrecht,Krimpenerwaard,Zuid-Holland,VBO,4.779512,51.997360
Beatrixlaan,17,,,2851XA,Haastrecht,Krimpenerwaard,Zuid-Holland,VBO,4.779740,51.997159
Beatrixlaan,19,,,2851XA,Haastrecht,Krimpenerwaard,Zuid-Holland,VBO,4.780025,51.997071
Beatrixlaan,21,,,2851XA,Haastrecht,Krimpenerwaard,Zuid-Holland,VBO,4.780175,51.996970
Beatrixlaan,23,,,2851XA,Haastrecht,Krimpenerwaard,Zuid-Holland,VBO,4.780337,51.996850
Beatrixlaan,25,,,2851XA,Haastrecht,Krimpenerwaard,Zuid-Holland,VBO,4.780482,51.996709
Beatrixlaan,27,,,2851XA,Haastrecht,Krimpenerwaard,Zuid-Holland,VBO,4.780903,51.996204
Beatrixlaan,29,,,2851XA,Haastrecht,Krimpenerwaard,Zuid-Holland,VBO,4.781039,51.995849
Beatrixlaan,2,,,2851XB,Haastrecht,Krimpenerwaard,Zuid-Holland,VBO,4.779466,51.996996
Beatrixlaan,4,,,2851XB,Haastrecht,Krimpenerwaard,Zuid-Holland,VBO,4.779686,51.996736
Beatrixlaan,6,,,2851XB,Haastrecht,Krimpenerwaard,Zuid-Holland,VBO,4.779916,51.996549
Beatrixlaan,8,,,2851XB,Haastrecht,Krimpenerwaard,Zuid-Holland,VBO,4.780005,51.996442
Beatrixlaan,10,,,2851XB,Haastrecht,Krimpenerwaard,Zuid-Holland,VBO,4.780156,51.996263
Beatrixlaan,12,,,2851XB,Haastrecht,Krimpenerwaard,Zuid-Holland,VBO,4.780330,51.996043
Beatrixlaan,14,,,2851XB,Haastrecht,Krimpenerwaard,Zuid-Holland,VBO,4.780442,51.995887
Beatrixlaan,16,,,2851XB,Haastrecht,Krimpenerwaard,Zuid-Holland,VBO,4.780502,51.995715
Beatrixlaan,18,,,2851XB,Haastrecht,Krimpenerwaard,Zuid-Holland,VBO,4.780731,51.995497
Beatrixlaan,20,,,2851XB,Haastrecht,Krimpenerwaard,Zuid-Holland,VBO,4.781058,51.995557
Bernhardlaan,1,,,2851XC,Haastrecht,Krimpenerwaard,Zuid-Holland,VBO,4.781291,51.998317
Bernhardlaan,3,,,2851XC,Haastrecht,Krimpenerwaard,Zuid-Holland,VBO,4.781375,51.998338
Bernhardlaan,5,,,2851XC,Haastrecht,Krimpenerwaard,Zuid-Holland,VBO,4.781449,51.998374
Bernhardlaan,7,,,2851XC,Haastrecht,Krimpenerwaard,Zuid-Holland,VBO,4.781542,51.998381
Bernhardlaan,9,,,2851XC,Haastrecht,Krimpenerwaard,Zuid-Holland,VBO,4.781624,51.998401
Bernhardlaan,11,a,,2851XC,Haastrecht,Krimpenerwaard,Zuid-Holland,VBO,4.781154,51.998540
Bernhardlaan,11,b,,2851XC,Haastrecht,Krimpenerwaard,Zuid-Holland,VBO,4.781200,51.998552
Bernhardlaan,11,c,,2851XC,Haastrecht,Krimpenerwaard,Zuid-Holland,VBO,4.781244,51.998563
Bernhardlaan,11,d,,2851XC,Haastrecht,Krimpenerwaard,Zuid-Holland,VBO,4.781288,51.998574
Bernhardlaan,11,e,,2851XC,Haastrecht,Krimpenerwaard,Zuid-Holland,VBO,4.781333,51.998585
Bernhardlaan,11,f,,2851XC,Haastrecht,Krimpenerwaard,Zuid-Holland,VBO,4.781423,51.998608
Bernhardlaan,11,g,,2851XC,Haastrecht,Krimpenerwaard,Zuid-Holland,VBO,4.781378,51.998596
Bernhardlaan,11,,,2851XC,Haastrecht,Krimpenerwaard,Zuid-Holland,VBO,4.781706,51.998422
Bernhardlaan,13,,,2851XC,Haastrecht,Krimpenerwaard,Zuid-Holland,VBO,4.781920,51.998234
Bernhardlaan,15,,,2851XC,Haastrecht,Krimpenerwaard,Zuid-Holland,VBO,4.782254,51.998110
Bernhardlaan,17,,,2851XC,Haastrecht,Krimpenerwaard,Zuid-Holland,VBO,4.782409,51.997928
Bernhardlaan,19,,,2851XC,Haastrecht,Krimpenerwaard,Zuid-Holland,VBO,4.782680,51.997777
Bernhardlaan,21,,,2851XC,Haastrecht,Krimpenerwaard,Zuid-Holland,VBO,4.783258,51.997622
Bernhardlaan,23,,,2851XC,Haastrecht,Krimpenerwaard,Zuid-Holland,VBO,4.783306,51.997279
Bernhardlaan,25,,,2851XC,Haastrecht,Krimpenerwaard,Zuid-Holland,VBO,4.782864,51.997112
Bernhardlaan,27,,,2851XC,Haastrecht,Krimpenerwaard,Zuid-Holland,VBO,4.782495,51.996967
Bernhardlaan,29,,,2851XC,Haastrecht,Krimpenerwaard,Zuid-Holland,VBO,4.782013,51.996722
Bernhardlaan,31,,,2851XC,Haastrecht,Krimpenerwaard,Zuid-Holland,VBO,4.781816,51.996536
Bernhardlaan,33,,,2851XC,Haastrecht,Krimpenerwaard,Zuid-Holland,VBO,4.781448,51.996310
Bernhardlaan,37,,,2851XC,Haastrecht,Krimpenerwaard,Zuid-Holland,VBO,4.780751,51.996335
Bernhardlaan,2,,,2851XD,Haastrecht,Krimpenerwaard,Zuid-Holland,VBO,4.779743,51.997501
Bernhardlaan,4,,,2851XD,Haastrecht,Krimpenerwaard,Zuid-Holland,VBO,4.780149,51.997560
Bernhardlaan,6,,,2851XD,Haastrecht,Krimpenerwaard,Zuid-Holland,VBO,4.780370,51.997661
Bernhardlaan,8,,,2851XD,Haastrecht,Krimpenerwaard,Zuid-Holland,VBO,4.780622,51.997658
Bernhardlaan,10,,,2851XD,Haastrecht,Krimpenerwaard,Zuid-Holland,VBO,4.781383,51.997873
Bernhardlaan,12,,,2851XD,Haastrecht,Krimpenerwaard,Zuid-Holland,VBO,4.781608,51.997919
Bernhardlaan,14,,,2851XD,Haastrecht,Krimpenerwaard,Zuid-Holland,VBO,4.781727,51.997790
Bernhardlaan,16,,,2851XD,Haastrecht,Krimpenerwaard,Zuid-Holland,VBO,4.781975,51.997710
Bernhardlaan,18,,,2851XD,Haastrecht,Krimpenerwaard,Zuid-Holland,VBO,4.782035,51.997567
Bernhardlaan,20,,,2851XD,Haastrecht,Krimpenerwaard,Zuid-Holland,VBO,4.782241,51.997442
Bernhardlaan,22,,,2851XD,Haastrecht,Krimpenerwaard,Zuid-Holland,VBO,4.782419,51.997343
Bernhardlaan,24,,,2851XD,Haastrecht,Krimpenerwaard,Zuid-Holland,VBO,4.781961,51.997144
Bernhardlaan,26,,,2851XD,Haastrecht,Krimpenerwaard,Zuid-Holland,VBO,4.780997,51.996824
Bernhardlaan,28,,,2851XD,Haastrecht,Krimpenerwaard,Zuid-Holland,VBO,4.780643,51.996607
Hofkamplaan,1,,,2851XE,Haastrecht,Krimpenerwaard,Zuid-Holland,VBO,4.781117,51.997698
Hofkamplaan,2,,,2851XE,Haastrecht,Krimpenerwaard,Zuid-Holland,VBO,4.780994,51.997363
Hofkamplaan,3,,,2851XE,Haastrecht,Krimpenerwaard,Zuid-Holland,VBO,4.781430,51.997649
Hofkamplaan,4,,,2851XE,Haastrecht,Krimpenerwaard,Zuid-Holland,VBO,4.781021,51.997179
Hofkamplaan,5,,,2851XE,Haastrecht,Krimpenerwaard,Zuid-Holland,VBO,4.781470,51.997393
Hofkamplaan,6,,,2851XE,Haastrecht,Krimpenerwaard,Zuid-Holland,VBO,4.781238,51.997025
Hofkamplaan,7,,,2851XE,Haastrecht,Krimpenerwaard,Zuid-Holland,VBO,4.781624,51.997277
Hofkamplaan,8,,,2851XE,Haastrecht,Krimpenerwaard,Zuid-Holland,VBO,4.781310,51.996821
Hofkamplaan,9,,,2851XE,Haastrecht,Krimpenerwaard,Zuid-Holland,VBO,4.781715,51.997021
Willem-Alexanderlaan,1,,,2851XG,Haastrecht,Krimpenerwaard,Zuid-Holland,VBO,4.779790,51.998179
Willem-Alexanderlaan,2,,,2851XG,Haastrecht,Krimpenerwaard,Zuid-Holland,VBO,4.779322,51.998178
Willem-Alexanderlaan,3,,,2851XG,Haastrecht,Krimpenerwaard,Zuid-Holland,VBO,4.779775,51.998101
Willem-Alexanderlaan,4,,,2851XG,Haastrecht,Krimpenerwaard,Zuid-Holland,VBO,4.779356,51.998127
Willem-Alexanderlaan,5,,,2851XG,Haastrecht,Krimpenerwaard,Zuid-Holland,VBO,4.779847,51.998031
Willem-Alexanderlaan,6,,,2851XG,Haastrecht,Krimpenerwaard,Zuid-Holland,VBO,4.779391,51.998076
Willem-Alexanderlaan,7,,,2851XG,Haastrecht,Krimpenerwaard,Zuid-Holland,VBO,4.779847,51.998031
Willem-Alexanderlaan,8,,,2851XG,Haastrecht,Krimpenerwaard,Zuid-Holland,VBO,4.779440,51.998025
Willem-Alexanderlaan,9,,,2851XG,Haastrecht,Krimpenerwaard,Zuid-Holland,VBO,4.779896,51.997978
Willem-Alexanderlaan,10,,,2851XG,Haastrecht,Krimpenerwaard,Zuid-Holland,VBO,4.779458,51.997999
Willem-Alexanderlaan,11,,,2851XG,Haastrecht,Krimpenerwaard,Zuid-Holland,VBO,4.779896,51.997926
Willem-Alexanderlaan,12,,,2851XG,Haastrecht,Krimpenerwaard,Zuid-Holland,VBO,4.779474,51.997972
Willem-Alexanderlaan,13,,,2851XG,Haastrecht,Krimpenerwaard,Zuid-Holland,VBO,4.780151,51.997994
Willem-Alexanderlaan,14,,,2851XG,Haastrecht,Krimpenerwaard,Zuid-Holland,VBO,4.779492,51.997946
Willem-Alexanderlaan,15,,,2851XG,Haastrecht,Krimpenerwaard,Zuid-Holland,VBO,4.780232,51.998015
Willem-Alexanderlaan,16,,,2851XG,Haastrecht,Krimpenerwaard,Zuid-Holland,VBO,4.779511,51.997920
Willem-Alexanderlaan,17,,,2851XG,Haastrecht,Krimpenerwaard,Zuid-Holland,VBO,4.780314,51.998035
Willem-Alexanderlaan,18,,,2851XG,Haastrecht,Krimpenerwaard,Zuid-Holland,VBO,4.779473,51.997885
Willem-Alexanderlaan,19,,,2851XG,Haastrecht,Krimpenerwaard,Zuid-Holland,VBO,4.780396,51.998056
Willem-Alexanderlaan,20,,,2851XG,Haastrecht,Krimpenerwaard,Zuid-Holland,VBO,4.779473,51.997885
Willem-Alexanderlaan,22,,,2851XG,Haastrecht,Krimpenerwaard,Zuid-Holland,VBO,4.779350,51.997874
Willem-Alexanderlaan,24,,,2851XG,Haastrecht,Krimpenerwaard,Zuid-Holland,VBO,4.779268,51.997853
Willem-Alexanderlaan,26,,,2851XG,Haastrecht,Krimpenerwaard,Zuid-Holland,VBO,4.779186,51.997833
Willem-Alexanderlaan,28,,,2851XG,Haastrecht,Krimpenerwaard,Zuid-Holland,VBO,4.779103,51.997813
Willem-Alexanderlaan,30,,,2851XG,Haastrecht,Krimpenerwaard,Zuid-Holland,VBO,4.779020,51.997792
Julianalaan,1,,,2851XH,Haastrecht,Krimpenerwaard,Zuid-Holland,VBO,4.778903,51.998773
Julianalaan,3,,,2851XH,Haastrecht,Krimpenerwaard,Zuid-Holland,VBO,4.779253,51.998694
Julianalaan,5,,,2851XH,Haastrecht,Krimpenerwaard,Zuid-Holland,VBO,4.778762,51.998979
Julianalaan,7,,,2851XH,Haastrecht,Krimpenerwaard,Zuid-Holland,VBO,4.778762,51.998979
Julianalaan,9,,,2851XH,Haastrecht,Krimpenerwaard,Zuid-Holland,VBO,4.778762,51.998979
Julianalaan,11,,,2851XH,Haastrecht,Krimpenerwaard,Zuid-Holland,VBO,4.778762,51.998979
Julianalaan,13,,,2851XH,Haastrecht,Krimpenerwaard,Zuid-Holland,VBO,4.778762,51.998979
Julianalaan,15,,,2851XH,Haastrecht,Krimpenerwaard,Zuid-Holland,VBO,4.778966,51.998979
Julianalaan,17,,,2851XH,Haastrecht,Krimpenerwaard,Zuid-Holland,VBO,4.778966,51.998979
Julianalaan,19,,,2851XH,Haastrecht,Krimpenerwaard,Zuid-Holland,VBO,4.778984,51.999001
Julianalaan,21,,,2851XH,Haastrecht,Krimpenerwaard,Zuid-Holland,VBO,4.778966,51.998979
Julianalaan,23,a,,2851XH,Haastrecht,Krimpenerwaard,Zuid-Holland,VBO,4.779088,51.999061
Julianalaan,23,,,2851XH,Haastrecht,Krimpenerwaard,Zuid-Holland,VBO,4.778966,51.998979
Julianalaan,25,,,2851XH,Haastrecht,Krimpenerwaard,Zuid-Holland,VBO,4.778966,51.998979
Julianalaan,27,,,2851XH,Haastrecht,Krimpenerwaard,Zuid-Holland,VBO,4.778966,51.998979
Julianalaan,29,,,2851XH,Haastrecht,Krimpenerwaard,Zuid-Holland,VBO,4.778966,51.998979
Julianalaan,31,,,2851XH,Haastrecht,Krimpenerwaard,Zuid-Holland,VBO,4.778966,51.998979
Julianalaan,33,,,2851XH,Haastrecht,Krimpenerwaard,Zuid-Holland,VBO,4.778966,51.998979
Julianalaan,35,,,2851XH,Haastrecht,Krimpenerwaard,Zuid-Holland,VBO,4.778762,51.998979
Julianalaan,37,,,2851XH,Haastrecht,Krimpenerwaard,Zuid-Holland,VBO,4.778762,51.998979
Julianalaan,39,,,2851XH,Haastrecht,Krimpenerwaard,Zuid-Holland,VBO,4.778762,51.998979
Julianalaan,41,,,2851XH,Haastrecht,Krimpenerwaard,Zuid-Holland,VBO,4.778762,51.998979
Julianalaan,43,,,2851XH,Haastrecht,Krimpenerwaard,Zuid-Holland,VBO,4.778762,51.998979
Julianalaan,45,,,2851XH,Haastrecht,Krimpenerwaard,Zuid-Holland,VBO,4.778583,51.999103
Julianalaan,47,,,2851XH,Haastrecht,Krimpenerwaard,Zuid-Holland,VBO,4.778625,51.999113
Julianalaan,49,,,2851XH,Haastrecht,Krimpenerwaard,Zuid-Holland,VBO,4.778666,51.999124
Julianalaan,51,,,2851XH,Haastrecht,Krimpenerwaard,Zuid-Holland,VBO,4.778707,51.999134
Julianalaan,53,,,2851XH,Haastrecht,Krimpenerwaard,Zuid-Holland,VBO,4.778747,51.999144
Julianalaan,55,,,2851XH,Haastrecht,Krimpenerwaard,Zuid-Holland,VBO,4.778787,51.999154
Julianalaan,57,,,2851XH,Haastrecht,Krimpenerwaard,Zuid-Holland,VBO,4.778828,51.999164
Julianalaan,59,,,2851XH,Haastrecht,Krimpenerwaard,Zuid-Holland,VBO,4.778868,51.999174
Julianalaan,61,,,2851XH,Haastrecht,Krimpenerwaard,Zuid-Holland,VBO,4.778910,51.999185
Julianalaan,63,a,,2851XH,Haastrecht,Krimpenerwaard,Zuid-Holland,VBO,4.778990,51.999205
Julianalaan,63,,,2851XH,Haastrecht,Krimpenerwaard,Zuid-Holland,VBO,4.778951,51.999195
Julianalaan,65,,,2851XH,Haastrecht,Krimpenerwaard,Zuid-Holland,VBO,4.778505,51.999242
Julianalaan,67,,,2851XH,Haastrecht,Krimpenerwaard,Zuid-Holland,VBO,4.779343,51.998986
Julianalaan,69,,,2851XH,Haastrecht,Krimpenerwaard,Zuid-Holland,VBO,4.779443,51.999023
Julianalaan,71,,,2851XH,Haastrecht,Krimpenerwaard,Zuid-Holland,VBO,4.779539,51.999030
Julianalaan,73,,,2851XH,Haastrecht,Krimpenerwaard,Zuid-Holland,VBO,4.779634,51.999054
Julianalaan,75,,,2851XH,Haastrecht,Krimpenerwaard,Zuid-Holland,VBO,4.779728,51.999077
Julianalaan,77,,,2851XH,Haastrecht,Krimpenerwaard,Zuid-Holland,VBO,4.779950,51.998991
Julianalaan,79,,,2851XH,Haastrecht,Krimpenerwaard,Zuid-Holland,VBO,4.779965,51.998919
Julianalaan,81,,,2851XH,Haastrecht,Krimpenerwaard,Zuid-Holland,VBO,4.780059,51.998870
Julianalaan,83,,,2851XH,Haastrecht,Krimpenerwaard,Zuid-Holland,VBO,4.780051,51.998823
Julianalaan,85,,,2851XH,Haastrecht,Krimpenerwaard,Zuid-Holland,VBO,4.779891,51.998724
Julianalaan,87,,,2851XH,Haastrecht,Krimpenerwaard,Zuid-Holland,VBO,4.779923,51.998673
Julianalaan,89,,,2851XH,Haastrecht,Krimpenerwaard,Zuid-Holland,VBO,4.779956,51.998623
Julianalaan,91,,,2851XH,Haastrecht,Krimpenerwaard,Zuid-Holland,VBO,4.779990,51.998572
Julianalaan,93,,,2851XH,Haastrecht,Krimpenerwaard,Zuid-Holland,VBO,4.780021,51.998523
Julianalaan,95,,,2851XH,Haastrecht,Krimpenerwaard,Zuid-Holland,VBO,4.780054,51.998473
Julianalaan,97,,,2851XJ,Haastrecht,Krimpenerwaard,Zuid-Holland,VBO,4.780238,51.998652
Julianalaan,101,,,2851XJ,Haastrecht,Krimpenerwaard,Zuid-Holland,VBO,4.780402,51.998693
Julianalaan,103,,,2851XJ,Haastrecht,Krimpenerwaard,Zuid-Holland,VBO,4.780440,51.998731
Julianalaan,105,,,2851XJ,Haastrecht,Krimpenerwaard,Zuid-Holland,VBO,4.780565,51.998747
Julianalaan,107,,,2851XJ,Haastrecht,Krimpenerwaard,Zuid-Holland,VBO,4.780646,51.998755
Julianalaan,109,,,2851XJ,Haastrecht,Krimpenerwaard,Zuid-Holland,VBO,4.780911,51.998741
Julianalaan,111,,,2851XJ,Haastrecht,Krimpenerwaard,Zuid-Holland,VBO,4.780945,51.998671
Julianalaan,113,,,2851XJ,Haastrecht,Krimpenerwaard,Zuid-Holland,VBO,4.780978,51.998620
Julianalaan,115,,,2851XJ,Haastrecht,Krimpenerwaard,Zuid-Holland,VBO,4.781043,51.998577
Julianalaan,117,,,2851XJ,Haastrecht,Krimpenerwaard,Zuid-Holland,VBO,4.780812,51.998460
Julianalaan,119,,,2851XJ,Haastrecht,Krimpenerwaard,Zuid-Holland,VBO,4.780845,51.998409
Julianalaan,121,,,2851XJ,Haastrecht,Krimpenerwaard,Zuid-Holland,VBO,4.780879,51.998358
Julianalaan,123,,,2851XJ,Haastrecht,Krimpenerwaard,Zuid-Holland,VBO,4.780912,51.998307
Julianalaan,125,,,2851XJ,Haastrecht,Krimpenerwaard,Zuid-Holland,VBO,4.780946,51.998256
Julianalaan,127,,,2851XJ,Haastrecht,Krimpenerwaard,Zuid-Holland,VBO,4.780980,51.998204
Julianalaan,2,,,2851XK,Haastrecht,Krimpenerwaard,Zuid-Holland,VBO,4.779055,51.998311
Julianalaan,4,,,2851XK,Haastrecht,Krimpenerwaard,Zuid-Holland,VBO,4.779137,51.998331
Julianalaan,6,,,2851XK,Haastrecht,Krimpenerwaard,Zuid-Holland,VBO,4.779219,51.998351
Julianalaan,8,,,2851XK,Haastrecht,Krimpenerwaard,Zuid-Holland,VBO,4.779308,51.998327
Julianalaan,10,,,2851XK,Haastrecht,Krimpenerwaard,Zuid-Holland,VBO,4.779383,51.998392
Julianalaan,12,,,2851XK,Haastrecht,Krimpenerwaard,Zuid-Holland,VBO,4.779465,51.998413
Julianalaan,14,,,2851XK,Haastrecht,Krimpenerwaard,Zuid-Holland,VBO,4.779546,51.998433
Julianalaan,16,,,2851XK,Haastrecht,Krimpenerwaard,Zuid-Holland,VBO,4.779627,51.998453
Julianalaan,18,,,2851XK,Haastrecht,Krimpenerwaard,Zuid-Holland,VBO,4.780002,51.998221
Julianalaan,20,,,2851XK,Haastrecht,Krimpenerwaard,Zuid-Holland,VBO,4.780084,51.998242
Julianalaan,22,,,2851XK,Haastrecht,Krimpenerwaard,Zuid-Holland,VBO,4.780165,51.998263
Julianalaan,24,,,2851XK,Haastrecht,Krimpenerwaard,Zuid-Holland,VBO,4.780246,51.998283
Julianalaan,26,,,2851XK,Haastrecht,Krimpenerwaard,Zuid-Holland,VBO,4.780327,51.998304
Julianalaan,28,,,2851XK,Haastrecht,Krimpenerwaard,Zuid-Holland,VBO,4.780409,51.998324
Julianalaan,30,,,2851XK,Haastrecht,Krimpenerwaard,Zuid-Holland,VBO,4.780491,51.998345
Julianalaan,32,,,2851XK,Haastrecht,Krimpenerwaard,Zuid-Holland,VBO,4.780580,51.998196
Julianalaan,34,,,2851XK,Haastrecht,Krimpenerwaard,Zuid-Holland,VBO,4.780614,51.998146
Julianalaan,36,,,2851XK,Haastrecht,Krimpenerwaard,Zuid-Holland,VBO,4.780647,51.998095
Amaliahof,1,,,2851XL,Haastrecht,Krimpenerwaard,Zuid-Holland,VBO,4.778002,51.999155
Amaliahof,2,,,2851XL,Haastrecht,Krimpenerwaard,Zuid-Holland,VBO,4.777772,51.999464
Amaliahof,3,,,2851XL,Haastrecht,Krimpenerwaard,Zuid-Holland,VBO,4.777692,51.999436
Amaliahof,4,,,2851XL,Haastrecht,Krimpenerwaard,Zuid-Holland,VBO,4.777937,51.999118
Amaliahof,5,,,2851XL,Haastrecht,Krimpenerwaard,Zuid-Holland,VBO,4.777715,51.999409
Amaliahof,6,,,2851XL,Haastrecht,Krimpenerwaard,Zuid-Holland,VBO,4.778010,51.999141
Amaliahof,7,,,2851XL,Haastrecht,Krimpenerwaard,Zuid-Holland,VBO,4.777893,51.999136
Amaliahof,8,,,2851XL,Haastrecht,Krimpenerwaard,Zuid-Holland,VBO,4.778004,51.999042
Amaliahof,9,,,2851XL,Haastrecht,Krimpenerwaard,Zuid-Holland,VBO,4.777809,51.999401
Amaliahof,10,,,2851XL,Haastrecht,Krimpenerwaard,Zuid-Holland,VBO,4.777787,51.999428
Amaliahof,11,,,2851XL,Haastrecht,Krimpenerwaard,Zuid-Holland,VBO,4.778069,51.999061
Amaliahof,12,,,2851XL,Haastrecht,Krimpenerwaard,Zuid-Holland,VBO,4.777819,51.999257
Amaliahof,13,,,2851XL,Haastrecht,Krimpenerwaard,Zuid-Holland,VBO,4.777745,51.999302
Amaliahof,14,,,2851XL,Haastrecht,Krimpenerwaard,Zuid-Holland,VBO,4.777906,51.999231
Amaliahof,15,,,2851XL,Haastrecht,Krimpenerwaard,Zuid-Holland,VBO,4.777737,51.999378
Amaliahof,16,,,2851XL,Haastrecht,Krimpenerwaard,Zuid-Holland,VBO,4.777825,51.999356
Amaliahof,17,,,2851XL,Haastrecht,Krimpenerwaard,Zuid-Holland,VBO,4.777899,51.999235
Amaliahof,18,,,2851XL,Haastrecht,Krimpenerwaard,Zuid-Holland,VBO,4.777818,51.999280
Amaliahof,19,,,2851XL,Haastrecht,Krimpenerwaard,Zuid-Holland,VBO,4.777803,51.999311
Amaliahof,20,,,2851XL,Haastrecht,Krimpenerwaard,Zuid-Holland,VBO,4.777861,51.999329
Amaliahof,21,,,2851XL,Haastrecht,Krimpenerwaard,Zuid-Holland,VBO,4.777759,51.999338
Amaliahof,22,,,2851XL,Haastrecht,Krimpenerwaard,Zuid-Holland,VBO,4.777884,51.999284
Amaliahof,23,,,2851XL,Haastrecht,Krimpenerwaard,Zuid-Holland,VBO,4.777921,51.999226
Amaliahof,24,,,2851XL,Haastrecht,Krimpenerwaard,Zuid-Holland,VBO,4.777876,51.999302
Amaliahof,25,,,2851XL,Haastrecht,Krimpenerwaard,Zuid-Holland,VBO,4.777842,51.999172
Amaliahof,26,,,2851XL,Haastrecht,Krimpenerwaard,Zuid-Holland,VBO,4.777892,51.999217
Amaliahof,27,,,2851XL,Haastrecht,Krimpenerwaard,Zuid-Holland,VBO,4.777936,51.999213
Amaliahof,28,,,2851XL,Haastrecht,Krimpenerwaard,Zuid-Holland,VBO,4.777856,51.999203
Amaliahof,29,,,2851XL,Haastrecht,Krimpenerwaard,Zuid-Holland,VBO,4.777973,51.999146
Amaliahof,30,,,2851XL,Haastrecht,Krimpenerwaard,Zuid-Holland,VBO,4.777966,51.999141
Amaliahof,31,,,2851XL,Haastrecht,Krimpenerwaard,Zuid-Holland,VBO,4.777864,51.999127
Amaliahof,32,,,2851XL,Haastrecht,Krimpenerwaard,Zuid-Holland,VBO,4.778054,51.999088
Amaliahof,33,,,2851XL,Haastrecht,Krimpenerwaard,Zuid-Holland,VBO,4.777937,51.999145
Amaliahof,34,,,2851XL,Haastrecht,Krimpenerwaard,Zuid-Holland,VBO,4.778002,51.999164
Amaliahof,35,,,2851XM,Haastrecht,Krimpenerwaard,Zuid-Holland,VBO,4.778518,51.998659
Amaliahof,36,,,2851XM,Haastrecht,Krimpenerwaard,Zuid-Holland,VBO,4.778474,51.998685
Amaliahof,37,,,2851XM,Haastrecht,Krimpenerwaard,Zuid-Holland,VBO,4.778438,51.998708
Amaliahof,38,,,2851XM,Haastrecht,Krimpenerwaard,Zuid-Holland,VBO,4.778372,51.998743
Amaliahof,40,,,2851XM,Haastrecht,Krimpenerwaard,Zuid-Holland,VBO,4.778374,51.998643
Amaliahof,41,,,2851XM,Haastrecht,Krimpenerwaard,Zuid-Holland,VBO,4.778306,51.998725
Amaliahof,42,,,2851XM,Haastrecht,Krimpenerwaard,Zuid-Holland,VBO,4.778270,51.998716
Amaliahof,43,,,2851XM,Haastrecht,Krimpenerwaard,Zuid-Holland,VBO,4.778219,51.998706
Amaliahof,44,,,2851XM,Haastrecht,Krimpenerwaard,Zuid-Holland,VBO,4.778358,51.998694
Amaliahof,45,,,2851XM,Haastrecht,Krimpenerwaard,Zuid-Holland,VBO,4.778460,51.998667
Amaliahof,46,,,2851XM,Haastrecht,Krimpenerwaard,Zuid-Holland,VBO,4.778417,51.998649
Amaliahof,47,,,2851XM,Haastrecht,Krimpenerwaard,Zuid-Holland,VBO,4.778366,51.998644
Amaliahof,48,,,2851XM,Haastrecht,Krimpenerwaard,Zuid-Holland,VBO,4.778329,51.998635
Amaliahof,49,,,2851XM,Haastrecht,Krimpenerwaard,Zuid-Holland,VBO,4.778293,51.998626
Amaliahof,50,,,2851XM,Haastrecht,Krimpenerwaard,Zuid-Holland,VBO,4.778381,51.998604
Amaliahof,51,,,2851XM,Haastrecht,Krimpenerwaard,Zuid-Holland,VBO,4.778519,51.998605
Amaliahof,52,,,2851XM,Haastrecht,Krimpenerwaard,Zuid-Holland,VBO,4.778476,51.998591
Amaliahof,53,,,2851XM,Haastrecht,Krimpenerwaard,Zuid-Holland,VBO,4.778439,51.998582
Amaliahof,54,,,2851XM,Haastrecht,Krimpenerwaard,Zuid-Holland,VBO,4.778396,51.998572
Amaliahof,55,,,2851XM,Haastrecht,Krimpenerwaard,Zuid-Holland,VBO,4.778483,51.998559
Amaliahof,56,,,2851XM,Haastrecht,Krimpenerwaard,Zuid-Holland,VBO,4.778433,51.998550
Amaliahof,57,,,2851XM,Haastrecht,Krimpenerwaard,Zuid-Holland,VBO,4.778396,51.998537
Amaliahof,58,,,2851XM,Haastrecht,Krimpenerwaard,Zuid-Holland,VBO,4.778353,51.998523
Amaliahof,59,,,2851XM,Haastrecht,Krimpenerwaard,Zuid-Holland,VBO,4.778484,51.998524
Amaliahof,60,,,2851XM,Haastrecht,Krimpenerwaard,Zuid-Holland,VBO,4.778338,51.998577
Amaliahof,61,,,2851XM,Haastrecht,Krimpenerwaard,Zuid-Holland,VBO,4.778563,51.998582
Amaliahof,62,,,2851XM,Haastrecht,Krimpenerwaard,Zuid-Holland,VBO,4.778344,51.998613
Amaliahof,63,,,2851XM,Haastrecht,Krimpenerwaard,Zuid-Holland,VBO,4.778352,51.998563
Amaliahof,64,,,2851XM,Haastrecht,Krimpenerwaard,Zuid-Holland,VBO,4.778353,51.998523
Dotter,1,,,2851ZA,Haastrecht,Krimpenerwaard,Zuid-Holland,VBO,4.777311,51.996996
Dotter,3,,,2851ZA,Haastrecht,Krimpenerwaard,Zuid-Holland,VBO,4.777415,51.997016
Dotter,5,,,2851ZA,Haastrecht,Krimpenerwaard,Zuid-Holland,VBO,4.777485,51.997049
Dotter,7,,,2851ZA,Haastrecht,Krimpenerwaard,Zuid-Holland,VBO,4.777626,51.997056
Dotter,9,,,2851ZA,Haastrecht,Krimpenerwaard,Zuid-Holland,VBO,4.777626,51.997056
Dotter,11,,,2851ZA,Haastrecht,Krimpenerwaard,Zuid-Holland,VBO,4.777626,51.997056
Dotter,13,,,2851ZA,Haastrecht,Krimpenerwaard,Zuid-Holland,VBO,4.777626,51.997056
Klaver,1,,,2851ZB,Haastrecht,Krimpenerwaard,Zuid-Holland,VBO,4.777138,51.996813
Klaver,2,,,2851ZB,Haastrecht,Krimpenerwaard,Zuid-Holland,VBO,4.777311,51.996996
Klaver,4,,,2851ZB,Haastrecht,Krimpenerwaard,Zuid-Holland,VBO,4.777193,51.997072
Klaver,6,,,2851ZB,Haastrecht,Krimpenerwaard,Zuid-Holland,VBO,4.777149,51.997124
Klaver,8,,,2851ZB,Haastrecht,Krimpenerwaard,Zuid-Holland,VBO,4.777112,51.997166
Boterbloem,1,,,2851ZC,Haastrecht,Krimpenerwaard,Zuid-Holland,VBO,4.777817,51.995836
Boterbloem,3,,,2851ZC,Haastrecht,Krimpenerwaard,Zuid-Holland,VBO,4.777817,51.995836
Boterbloem,5,,,2851ZC,Haastrecht,Krimpenerwaard,Zuid-Holland,VBO,4.777817,51.995836
Boterbloem,7,,,2851ZC,Haastrecht,Krimpenerwaard,Zuid-Holland,VBO,4.777817,51.995836
Boterbloem,9,,,2851ZC,Haastrecht,Krimpenerwaard,Zuid-Holland,VBO,4.777680,51.996007
Boterbloem,11,,,2851ZC,Haastrecht,Krimpenerwaard,Zuid-Holland,VBO,4.777636,51.996063
Boterbloem,13,,,2851ZC,Haastrecht,Krimpenerwaard,Zuid-Holland,VBO,4.777565,51.996268
Boterbloem,15,,,2851ZC,Haastrecht,Krimpenerwaard,Zuid-Holland,VBO,4.777558,51.996326
Boterbloem,17,,,2851ZC,Haastrecht,Krimpenerwaard,Zuid-Holland,VBO,4.777522,51.996367
Boterbloem,19,,,2851ZC,Haastrecht,Krimpenerwaard,Zuid-Holland,VBO,4.777501,51.996412
Boterbloem,21,,,2851ZC,Haastrecht,Krimpenerwaard,Zuid-Holland,VBO,4.777466,51.996452
Boterbloem,23,,,2851ZC,Haastrecht,Krimpenerwaard,Zuid-Holland,VBO,4.777289,51.996596
Boterbloem,25,,,2851ZC,Haastrecht,Krimpenerwaard,Zuid-Holland,VBO,4.777289,51.996596
Boterbloem,27,,,2851ZC,Haastrecht,Krimpenerwaard,Zuid-Holland,VBO,4.777289,51.996596
Boterbloem,29,,,2851ZC,Haastrecht,Krimpenerwaard,Zuid-Holland,VBO,4.777289,51.996596
Boterbloem,31,,,2851ZC,Haastrecht,Krimpenerwaard,Zuid-Holland,VBO,4.777289,51.996596
Boterbloem,33,,,2851ZC,Haastrecht,Krimpenerwaard,Zuid-Holland,VBO,4.777289,51.996596
Boterbloem,2,,,2851ZD,Haastrecht,Krimpenerwaard,Zuid-Holland,VBO,4.778213,51.995923
Boterbloem,4,,,2851ZD,Haastrecht,Krimpenerwaard,Zuid-Holland,VBO,4.778213,51.995923
Boterbloem,6,,,2851ZD,Haastrecht,Krimpenerwaard,Zuid-Holland,VBO,4.778213,51.995923
Boterbloem,8,,,2851ZD,Haastrecht,Krimpenerwaard,Zuid-Holland,VBO,4.778213,51.995923
Boterbloem,10,,,2851ZD,Haastrecht,Krimpenerwaard,Zuid-Holland,VBO,4.777997,51.996036
Boterbloem,12,,,2851ZD,Haastrecht,Krimpenerwaard,Zuid-Holland,VBO,4.777976,51.996080
Boterbloem,14,,,2851ZD,Haastrecht,Krimpenerwaard,Zuid-Holland,VBO,4.777941,51.996121
Boterbloem,16,,,2851ZD,Haastrecht,Krimpenerwaard,Zuid-Holland,VBO,4.777936,51.996170
Boterbloem,18,,,2851ZD,Haastrecht,Krimpenerwaard,Zuid-Holland,VBO,4.777902,51.996211
Boterbloem,20,,,2851ZD,Haastrecht,Krimpenerwaard,Zuid-Holland,VBO,4.777843,51.996294
Boterbloem,22,,,2851ZD,Haastrecht,Krimpenerwaard,Zuid-Holland,VBO,4.777840,51.996344
Boterbloem,24,,,2851ZD,Haastrecht,Krimpenerwaard,Zuid-Holland,VBO,4.777786,51.996381
Boterbloem,26,,,2851ZD,Haastrecht,Krimpenerwaard,Zuid-Holland,VBO,4.777783,51.996430
Boterbloem,28,,,2851ZD,Haastrecht,Krimpenerwaard,Zuid-Holland,VBO,4.777788,51.996482
Boterbloem,30,,,2851ZD,Haastrecht,Krimpenerwaard,Zuid-Holland,VBO,4.777788,51.996482
Boterbloem,32,,,2851ZD,Haastrecht,Krimpenerwaard,Zuid-Holland,VBO,4.777788,51.996482
Boterbloem,34,,,2851ZD,Haastrecht,Krimpenerwaard,Zuid-Holland,VBO,4.777788,51.996482
Bergvlietlaan,2,,,2851ZE,Haastrecht,Krimpenerwaard,Zuid-Holland,VBO,4.778787,51.996014
Bergvlietlaan,6,,,2851ZE,Haastrecht,Krimpenerwaard,Zuid-Holland,VBO,4.778213,51.995923
Bergvlietlaan,8,,,2851ZE,Haastrecht,Krimpenerwaard,Zuid-Holland,VBO,4.778213,51.995923
Bergvlietlaan,10,,,2851ZE,Haastrecht,Krimpenerwaard,Zuid-Holland,VBO,4.776588,51.995552
Bergvlietlaan,12,,,2851ZE,Haastrecht,Krimpenerwaard,Zuid-Holland,VBO,4.776371,51.995463
Bergvlietlaan,14,,,2851ZE,Haastrecht,Krimpenerwaard,Zuid-Holland,VBO,4.776296,51.995444
Bergvlietlaan,16,,,2851ZE,Haastrecht,Krimpenerwaard,Zuid-Holland,VBO,4.776229,51.995421
Bergvlietlaan,18,,,2851ZE,Haastrecht,Krimpenerwaard,Zuid-Holland,VBO,4.776154,51.995408
Bergvlietlaan,20,,,2851ZE,Haastrecht,Krimpenerwaard,Zuid-Holland,VBO,4.776078,51.995390
Pinksterbloem,1,,,2851ZG,Haastrecht,Krimpenerwaard,Zuid-Holland,VBO,4.778678,51.996040
Pinksterbloem,3,,,2851ZG,Haastrecht,Krimpenerwaard,Zuid-Holland,VBO,4.778665,51.996087
Pinksterbloem,5,,,2851ZG,Haastrecht,Krimpenerwaard,Zuid-Holland,VBO,4.778598,51.996119
Pinksterbloem,7,,,2851ZG,Haastrecht,Krimpenerwaard,Zuid-Holland,VBO,4.778608,51.996171
Pinksterbloem,9,,,2851ZG,Haastrecht,Krimpenerwaard,Zuid-Holland,VBO,4.778558,51.996208
Pinksterbloem,11,,,2851ZG,Haastrecht,Krimpenerwaard,Zuid-Holland,VBO,4.778553,51.996255
Pinksterbloem,13,,,2851ZG,Haastrecht,Krimpenerwaard,Zuid-Holland,VBO,4.778484,51.996302
Pinksterbloem,15,,,2851ZG,Haastrecht,Krimpenerwaard,Zuid-Holland,VBO,4.778475,51.996380
Pinksterbloem,17,,,2851ZG,Haastrecht,Krimpenerwaard,Zuid-Holland,VBO,4.778415,51.996430
Pinksterbloem,19,,,2851ZG,Haastrecht,Krimpenerwaard,Zuid-Holland,VBO,4.778379,51.996569
Pinksterbloem,21,,,2851ZG,Haastrecht,Krimpenerwaard,Zuid-Holland,VBO,4.778379,51.996569
Pinksterbloem,23,,,2851ZG,Haastrecht,Krimpenerwaard,Zuid-Holland,VBO,4.778379,51.996569
Pinksterbloem,25,,,2851ZG,Haastrecht,Krimpenerwaard,Zuid-Holland,VBO,4.778201,51.996688
Pinksterbloem,27,,,2851ZG,Haastrecht,Krimpenerwaard,Zuid-Holland,VBO,4.778091,51.996660
Pinksterbloem,2,,,2851ZH,Haastrecht,Krimpenerwaard,Zuid-Holland,VBO,4.779015,51.996183
Pinksterbloem,4,,,2851ZH,Haastrecht,Krimpenerwaard,Zuid-Holland,VBO,4.779015,51.996183
Pinksterbloem,6,,,2851ZH,Haastrecht,Krimpenerwaard,Zuid-Holland,VBO,4.779015,51.996183
Pinksterbloem,8,,,2851ZH,Haastrecht,Krimpenerwaard,Zuid-Holland,VBO,4.779015,51.996183
Pinksterbloem,10,,,2851ZH,Haastrecht,Krimpenerwaard,Zuid-Holland,VBO,4.779015,51.996183
Pinksterbloem,12,,,2851ZH,Haastrecht,Krimpenerwaard,Zuid-Holland,VBO,4.779015,51.996183
Pinksterbloem,14,,,2851ZH,Haastrecht,Krimpenerwaard,Zuid-Holland,VBO,4.779015,51.996183
Pinksterbloem,16,,,2851ZH,Haastrecht,Krimpenerwaard,Zuid-Holland,VBO,4.779015,51.996183
Pinksterbloem,18,,,2851ZH,Haastrecht,Krimpenerwaard,Zuid-Holland,VBO,4.779015,51.996183
Pinksterbloem,20,,,2851ZH,Haastrecht,Krimpenerwaard,Zuid-Holland,VBO,4.778866,51.996409
Pinksterbloem,22,,,2851ZH,Haastrecht,Krimpenerwaard,Zuid-Holland,VBO,4.778859,51.996458
Pinksterbloem,24,,,2851ZH,Haastrecht,Krimpenerwaard,Zuid-Holland,VBO,4.778808,51.996495
Pinksterbloem,26,,,2851ZH,Haastrecht,Krimpenerwaard,Zuid-Holland,VBO,4.778785,51.996553
Pinksterbloem,28,,,2851ZH,Haastrecht,Krimpenerwaard,Zuid-Holland,VBO,4.778740,51.996620
Pinksterbloem,30,,,2851ZH,Haastrecht,Krimpenerwaard,Zuid-Holland,VBO,4.778691,51.996671
Pinksterbloem,32,,,2851ZH,Haastrecht,Krimpenerwaard,Zuid-Holland,VBO,4.778685,51.996719
Pinksterbloem,34,,,2851ZH,Haastrecht,Krimpenerwaard,Zuid-Holland,VBO,4.778652,51.996808
Pinksterbloem,36,,,2851ZH,Haastrecht,Krimpenerwaard,Zuid-Holland,VBO,4.778614,51.996851
Pinksterbloem,38,,,2851ZH,Haastrecht,Krimpenerwaard,Zuid-Holland,VBO,4.778575,51.996894
Pinksterbloem,40,,,2851ZH,Haastrecht,Krimpenerwaard,Zuid-Holland,VBO,4.778554,51.996941
Pinksterbloem,42,,,2851ZH,Haastrecht,Krimpenerwaard,Zuid-Holland,VBO,4.778515,51.996984
Pinksterbloem,44,,,2851ZH,Haastrecht,Krimpenerwaard,Zuid-Holland,VBO,4.778492,51.997030
Pinksterbloem,46,,,2851ZH,Haastrecht,Krimpenerwaard,Zuid-Holland,VBO,4.778440,51.997084
Pinksterbloem,48,,,2851ZH,Haastrecht,Krimpenerwaard,Zuid-Holland,VBO,4.778301,51.997049
Pinksterbloem,50,,,2851ZH,Haastrecht,Krimpenerwaard,Zuid-Holland,VBO,4.778236,51.997029
Pinksterbloem,52,,,2851ZH,Haastrecht,Krimpenerwaard,Zuid-Holland,VBO,4.778157,51.997007
Pinksterbloem,54,,,2851ZH,Haastrecht,Krimpenerwaard,Zuid-Holland,VBO,4.778097,51.996962
Pinksterbloem,56,,,2851ZH,Haastrecht,Krimpenerwaard,Zuid-Holland,VBO,4.778033,51.996902
Pinksterbloem,58,,,2851ZH,Haastrecht,Krimpenerwaard,Zuid-Holland,VBO,4.777917,51.996822
Pinksterbloem,60,,,2851ZH,Haastrecht,Krimpenerwaard,Zuid-Holland,VBO,4.777845,51.996808
Pinksterbloem,62,,,2851ZH,Haastrecht,Krimpenerwaard,Zuid-Holland,VBO,4.777772,51.996803
Pinksterbloem,64,,,2851ZH,Haastrecht,Krimpenerwaard,Zuid-Holland,VBO,4.777729,51.996780
Pinksterbloem,66,,,2851ZH,Haastrecht,Krimpenerwaard,Zuid-Holland,VBO,4.777670,51.996803
Pinksterbloem,68,,,2851ZH,Haastrecht,Krimpenerwaard,Zuid-Holland,VBO,4.777618,51.996847
Pinksterbloem,70,,,2851ZH,Haastrecht,Krimpenerwaard,Zuid-Holland,VBO,4.777537,51.996910
Madelief,2,,,2851ZJ,Haastrecht,Krimpenerwaard,Zuid-Holland,VBO,4.775871,51.996863
Madelief,4,,,2851ZJ,Haastrecht,Krimpenerwaard,Zuid-Holland,VBO,4.775908,51.996825
Madelief,6,,,2851ZJ,Haastrecht,Krimpenerwaard,Zuid-Holland,VBO,4.775934,51.996786
Madelief,8,,,2851ZJ,Haastrecht,Krimpenerwaard,Zuid-Holland,VBO,4.775963,51.996744
Madelief,10,,,2851ZJ,Haastrecht,Krimpenerwaard,Zuid-Holland,VBO,4.776086,51.996620
Madelief,12,,,2851ZJ,Haastrecht,Krimpenerwaard,Zuid-Holland,VBO,4.776118,51.996581
Madelief,14,,,2851ZJ,Haastrecht,Krimpenerwaard,Zuid-Holland,VBO,4.776121,51.996535
Madelief,16,,,2851ZJ,Haastrecht,Krimpenerwaard,Zuid-Holland,VBO,4.776147,51.996495
Madelief,18,,,2851ZJ,Haastrecht,Krimpenerwaard,Zuid-Holland,VBO,4.776174,51.996455
Madelief,20,,,2851ZJ,Haastrecht,Krimpenerwaard,Zuid-Holland,VBO,4.776201,51.996415
Madelief,22,,,2851ZJ,Haastrecht,Krimpenerwaard,Zuid-Holland,VBO,4.776245,51.996379
Madelief,24,,,2851ZJ,Haastrecht,Krimpenerwaard,Zuid-Holland,VBO,4.776331,51.996234
Madelief,26,,,2851ZJ,Haastrecht,Krimpenerwaard,Zuid-Holland,VBO,4.776207,51.996238
Madelief,28,,,2851ZJ,Haastrecht,Krimpenerwaard,Zuid-Holland,VBO,4.776274,51.996108
Madelief,30,,,2851ZJ,Haastrecht,Krimpenerwaard,Zuid-Holland,VBO,4.776464,51.996100
Madelief,32,,,2851ZJ,Haastrecht,Krimpenerwaard,Zuid-Holland,VBO,4.776304,51.996063
Madelief,34,,,2851ZJ,Haastrecht,Krimpenerwaard,Zuid-Holland,VBO,4.776393,51.995920
Madelief,36,,,2851ZJ,Haastrecht,Krimpenerwaard,Zuid-Holland,VBO,4.776438,51.995857
Madelief,38,,,2851ZJ,Haastrecht,Krimpenerwaard,Zuid-Holland,VBO,4.776527,51.995705
Madelief,40,,,2851ZJ,Haastrecht,Krimpenerwaard,Zuid-Holland,VBO,4.776596,51.995988
Madelief,42,,,2851ZJ,Haastrecht,Krimpenerwaard,Zuid-Holland,VBO,4.776671,51.995876
Madelief,44,,,2851ZJ,Haastrecht,Krimpenerwaard,Zuid-Holland,VBO,4.776709,51.995728
Madelief,46,,,2851ZJ,Haastrecht,Krimpenerwaard,Zuid-Holland,VBO,4.776557,51.995678
Madelief,48,,,2851ZJ,Haastrecht,Krimpenerwaard,Zuid-Holland,VBO,4.776783,51.995607
Madelief,1,,,2851ZK,Haastrecht,Krimpenerwaard,Zuid-Holland,VBO,4.775669,51.996935
Madelief,3,,,2851ZK,Haastrecht,Krimpenerwaard,Zuid-Holland,VBO,4.775765,51.996989
Madelief,5,,,2851ZK,Haastrecht,Krimpenerwaard,Zuid-Holland,VBO,4.775863,51.996985
Madelief,7,,,2851ZK,Haastrecht,Krimpenerwaard,Zuid-Holland,VBO,4.775959,51.997012
Madelief,9,,,2851ZK,Haastrecht,Krimpenerwaard,Zuid-Holland,VBO,4.776050,51.997037
Madelief,11,,,2851ZK,Haastrecht,Krimpenerwaard,Zuid-Holland,VBO,4.776682,51.996580
Madelief,13,,,2851ZK,Haastrecht,Krimpenerwaard,Zuid-Holland,VBO,4.776710,51.996538
Madelief,15,,,2851ZK,Haastrecht,Krimpenerwaard,Zuid-Holland,VBO,4.776735,51.996499
Madelief,17,,,2851ZK,Haastrecht,Krimpenerwaard,Zuid-Holland,VBO,4.776743,51.996455
Madelief,19,,,2851ZK,Haastrecht,Krimpenerwaard,Zuid-Holland,VBO,4.776772,51.996413
Madelief,21,,,2851ZK,Haastrecht,Krimpenerwaard,Zuid-Holland,VBO,4.776783,51.996330
Madelief,23,,,2851ZK,Haastrecht,Krimpenerwaard,Zuid-Holland,VBO,4.776810,51.996289
Madelief,25,,,2851ZK,Haastrecht,Krimpenerwaard,Zuid-Holland,VBO,4.776855,51.996252
Madelief,27,,,2851ZK,Haastrecht,Krimpenerwaard,Zuid-Holland,VBO,4.776864,51.996207
Madelief,29,,,2851ZK,Haastrecht,Krimpenerwaard,Zuid-Holland,VBO,4.776933,51.996178
Madelief,31,,,2851ZK,Haastrecht,Krimpenerwaard,Zuid-Holland,VBO,4.776960,51.996137
Madelief,33,,,2851ZK,Haastrecht,Krimpenerwaard,Zuid-Holland,VBO,4.776987,51.996097
Madelief,35,,,2851ZK,Haastrecht,Krimpenerwaard,Zuid-Holland,VBO,4.777029,51.996061
Madelief,37,,,2851ZK,Haastrecht,Krimpenerwaard,Zuid-Holland,VBO,4.777056,51.996021
Madelief,39,,,2851ZK,Haastrecht,Krimpenerwaard,Zuid-Holland,VBO,4.777083,51.995981
Madelief,41,,,2851ZK,Haastrecht,Krimpenerwaard,Zuid-Holland,VBO,4.777109,51.995942
Madelief,43,,,2851ZK,Haastrecht,Krimpenerwaard,Zuid-Holland,VBO,4.777135,51.995901
Madelief,45,,,2851ZK,Haastrecht,Krimpenerwaard,Zuid-Holland,VBO,4.777162,51.995862
Madelief,47,,,2851ZK,Haastrecht,Krimpenerwaard,Zuid-Holland,VBO,4.777173,51.995818
Madelief,49,,,2851ZK,Haastrecht,Krimpenerwaard,Zuid-Holland,VBO,4.777174,51.995771
Madelief,51,,,2851ZK,Haastrecht,Krimpenerwaard,Zuid-Holland,VBO,4.777201,51.995729
Madelief,53,,,2851ZK,Haastrecht,Krimpenerwaard,Zuid-Holland,VBO,4.777228,51.995690
Madelief,55,,,2851ZK,Haastrecht,Krimpenerwaard,Zuid-Holland,VBO,4.777255,51.995649
Waterlelie,1,,,2851ZL,Haastrecht,Krimpenerwaard,Zuid-Holland,VBO,4.776208,51.996994
Waterlelie,2,,,2851ZL,Haastrecht,Krimpenerwaard,Zuid-Holland,VBO,4.776340,51.996758
Waterlelie,3,,,2851ZL,Haastrecht,Krimpenerwaard,Zuid-Holland,VBO,4.776298,51.997009
Waterlelie,4,,,2851ZL,Haastrecht,Krimpenerwaard,Zuid-Holland,VBO,4.776405,51.996761
Waterlelie,5,,,2851ZL,Haastrecht,Krimpenerwaard,Zuid-Holland,VBO,4.776400,51.997042
Waterlelie,6,,,2851ZL,Haastrecht,Krimpenerwaard,Zuid-Holland,VBO,4.776472,51.996789
Waterlelie,7,,,2851ZL,Haastrecht,Krimpenerwaard,Zuid-Holland,VBO,4.776488,51.997058
Waterlelie,8,,,2851ZL,Haastrecht,Krimpenerwaard,Zuid-Holland,VBO,4.776536,51.996795
Waterlelie,9,,,2851ZL,Haastrecht,Krimpenerwaard,Zuid-Holland,VBO,4.776633,51.997024
Waterlelie,10,,,2851ZL,Haastrecht,Krimpenerwaard,Zuid-Holland,VBO,4.776600,51.996812
Waterlelie,11,,,2851ZL,Haastrecht,Krimpenerwaard,Zuid-Holland,VBO,4.776724,51.997040
Waterlelie,12,,,2851ZL,Haastrecht,Krimpenerwaard,Zuid-Holland,VBO,4.776668,51.996839
Waterlelie,13,,,2851ZL,Haastrecht,Krimpenerwaard,Zuid-Holland,VBO,4.776828,51.997071
Waterlelie,14,,,2851ZL,Haastrecht,Krimpenerwaard,Zuid-Holland,VBO,4.776733,51.996844
Waterlelie,15,,,2851ZL,Haastrecht,Krimpenerwaard,Zuid-Holland,VBO,4.776921,51.997090
Waterlelie,16,,,2851ZL,Haastrecht,Krimpenerwaard,Zuid-Holland,VBO,4.776798,51.996861
Waterlelie,18,,,2851ZL,Haastrecht,Krimpenerwaard,Zuid-Holland,VBO,4.776864,51.996888
Waterlelie,20,,,2851ZL,Haastrecht,Krimpenerwaard,Zuid-Holland,VBO,4.776926,51.996895
Waterlelie,22,,,2851ZL,Haastrecht,Krimpenerwaard,Zuid-Holland,VBO,4.776986,51.996920
Bergvlietlaan,1,,,2851ZM,Haastrecht,Krimpenerwaard,Zuid-Holland,VBO,4.779305,51.995926
Bergvlietlaan,3,,,2851ZM,Haastrecht,Krimpenerwaard,Zuid-Holland,VBO,4.779204,51.995907
Bergvlietlaan,5,,,2851ZM,Haastrecht,Krimpenerwaard,Zuid-Holland,VBO,4.779117,51.995889
Bergvlietlaan,7,,,2851ZM,Haastrecht,Krimpenerwaard,Zuid-Holland,VBO,4.779059,51.995870
Bergvlietlaan,9,,,2851ZM,Haastrecht,Krimpenerwaard,Zuid-Holland,VBO,4.779001,51.995834
Bergvlietlaan,11,,,2851ZM,Haastrecht,Krimpenerwaard,Zuid-Holland,VBO,4.778943,51.995816
Bergvlietlaan,13,,,2851ZM,Haastrecht,Krimpenerwaard,Zuid-Holland,VBO,4.778870,51.995798
Bergvlietlaan,15,,,2851ZM,Haastrecht,Krimpenerwaard,Zuid-Holland,VBO,4.778798,51.995784
Bergvlietlaan,17,a,,2851ZM,Haastrecht,Krimpenerwaard,Zuid-Holland,VBO,4.778464,51.995679
Bergvlietlaan,17,,,2851ZM,Haastrecht,Krimpenerwaard,Zuid-Holland,VBO,4.778508,51.995688
Bergvlietlaan,19,,,2851ZM,Haastrecht,Krimpenerwaard,Zuid-Holland,VBO,4.778406,51.995669
Bergvlietlaan,21,,,2851ZM,Haastrecht,Krimpenerwaard,Zuid-Holland,VBO,4.778363,51.995651
Bergvlietlaan,23,,,2851ZM,Haastrecht,Krimpenerwaard,Zuid-Holland,VBO,4.778290,51.995633
Bergvlietlaan,25,a,,2851ZM,Haastrecht,Krimpenerwaard,Zuid-Holland,VBO,4.778189,51.995596
Bergvlietlaan,25,,,2851ZM,Haastrecht,Krimpenerwaard,Zuid-Holland,VBO,4.778232,51.995614
Bergvlietlaan,27,,,2851ZM,Haastrecht,Krimpenerwaard,Zuid-Holland,VBO,4.778072,51.995578
Bergvlietlaan,29,,,2851ZM,Haastrecht,Krimpenerwaard,Zuid-Holland,VBO,4.778007,51.995559
Bergvlietlaan,31,,,2851ZM,Haastrecht,Krimpenerwaard,Zuid-Holland,VBO,4.777927,51.995541
Bergvlietlaan,33,,,2851ZM,Haastrecht,Krimpenerwaard,Zuid-Holland,VBO,4.777855,51.995518
Bergvlietlaan,35,,,2851ZM,Haastrecht,Krimpenerwaard,Zuid-Holland,VBO,4.777790,51.995504
Bergvlietlaan,37,,,2851ZM,Haastrecht,Krimpenerwaard,Zuid-Holland,VBO,4.777717,51.995477
Bergvlietlaan,39,,,2851ZM,Haastrecht,Krimpenerwaard,Zuid-Holland,VBO,4.777391,51.995401
Bergvlietlaan,41,,,2851ZM,Haastrecht,Krimpenerwaard,Zuid-Holland,VBO,4.777318,51.995376
Bergvlietlaan,43,,,2851ZM,Haastrecht,Krimpenerwaard,Zuid-Holland,VBO,4.777144,51.995348
Bergvlietlaan,45,,,2851ZM,Haastrecht,Krimpenerwaard,Zuid-Holland,VBO,4.777071,51.995330
Bergvlietlaan,47,,,2851ZM,Haastrecht,Krimpenerwaard,Zuid-Holland,VBO,4.776897,51.995284
Bergvlietlaan,49,,,2851ZM,Haastrecht,Krimpenerwaard,Zuid-Holland,VBO,4.776810,51.995266
Bergvlietlaan,51,,,2851ZM,Haastrecht,Krimpenerwaard,Zuid-Holland,VBO,4.776523,51.995231
Bergvlietlaan,53,,,2851ZM,Haastrecht,Krimpenerwaard,Zuid-Holland,VBO,4.776445,51.995218
Bergvlietlaan,55,,,2851ZM,Haastrecht,Krimpenerwaard,Zuid-Holland,VBO,4.776377,51.995194
Bergvlietlaan,57,,,2851ZM,Haastrecht,Krimpenerwaard,Zuid-Holland,VBO,4.776303,51.995176
Bergvlietlaan,59,,,2851ZM,Haastrecht,Krimpenerwaard,Zuid-Holland,VBO,4.776229,51.995157
Schaatsenrijder,1,,,2851ZN,Haastrecht,Krimpenerwaard,Zuid-Holland,VBO,4.775299,51.996646
Schaatsenrijder,2,,,2851ZN,Haastrecht,Krimpenerwaard,Zuid-Holland,VBO,4.774640,51.996924
Schaatsenrijder,3,,,2851ZN,Haastrecht,Krimpenerwaard,Zuid-Holland,VBO,4.775371,51.996659
Schaatsenrijder,4,,,2851ZN,Haastrecht,Krimpenerwaard,Zuid-Holland,VBO,4.774708,51.996813
Schaatsenrijder,5,,,2851ZN,Haastrecht,Krimpenerwaard,Zuid-Holland,VBO,4.775441,51.996674
Schaatsenrijder,6,,,2851ZN,Haastrecht,Krimpenerwaard,Zuid-Holland,VBO,4.774816,51.996655
Schaatsenrijder,7,,,2851ZN,Haastrecht,Krimpenerwaard,Zuid-Holland,VBO,4.775511,51.996691
Schaatsenrijder,8,,,2851ZN,Haastrecht,Krimpenerwaard,Zuid-Holland,VBO,4.774894,51.996546
Schaatsenrijder,9,,,2851ZN,Haastrecht,Krimpenerwaard,Zuid-Holland,VBO,4.775678,51.996442
Schaatsenrijder,10,,,2851ZN,Haastrecht,Krimpenerwaard,Zuid-Holland,VBO,4.775103,51.996319
Schaatsenrijder,11,,,2851ZN,Haastrecht,Krimpenerwaard,Zuid-Holland,VBO,4.775615,51.996428
Schaatsenrijder,12,,,2851ZN,Haastrecht,Krimpenerwaard,Zuid-Holland,VBO,4.775154,51.996244
Schaatsenrijder,13,,,2851ZN,Haastrecht,Krimpenerwaard,Zuid-Holland,VBO,4.775544,51.996415
Schaatsenrijder,14,,,2851ZN,Haastrecht,Krimpenerwaard,Zuid-Holland,VBO,4.775227,51.996133
Schaatsenrijder,15,,,2851ZN,Haastrecht,Krimpenerwaard,Zuid-Holland,VBO,4.775474,51.996399
Schaatsenrijder,16,,,2851ZN,Haastrecht,Krimpenerwaard,Zuid-Holland,VBO,4.775283,51.996058
Schaatsenrijder,17,,,2851ZN,Haastrecht,Krimpenerwaard,Zuid-Holland,VBO,4.775777,51.996105
Schaatsenrijder,18,,,2851ZN,Haastrecht,Krimpenerwaard,Zuid-Holland,VBO,4.775372,51.995944
Schaatsenrijder,19,,,2851ZN,Haastrecht,Krimpenerwaard,Zuid-Holland,VBO,4.775817,51.996045
Schaatsenrijder,20,,,2851ZN,Haastrecht,Krimpenerwaard,Zuid-Holland,VBO,4.775412,51.995871
Schaatsenrijder,21,,,2851ZN,Haastrecht,Krimpenerwaard,Zuid-Holland,VBO,4.775857,51.995984
Schaatsenrijder,22,,,2851ZN,Haastrecht,Krimpenerwaard,Zuid-Holland,VBO,4.775489,51.995758
Schaatsenrijder,23,,,2851ZN,Haastrecht,Krimpenerwaard,Zuid-Holland,VBO,4.775896,51.995924
Schaatsenrijder,24,,,2851ZN,Haastrecht,Krimpenerwaard,Zuid-Holland,VBO,4.775539,51.995680
Schaatsenrijder,25,,,2851ZN,Haastrecht,Krimpenerwaard,Zuid-Holland,VBO,4.775935,51.995864
Schaatsenrijder,26,,,2851ZN,Haastrecht,Krimpenerwaard,Zuid-Holland,VBO,4.775617,51.995565
Schaatsenrijder,27,,,2851ZN,Haastrecht,Krimpenerwaard,Zuid-Holland,VBO,4.775974,51.995804
Schaatsenrijder,28,,,2851ZN,Haastrecht,Krimpenerwaard,Zuid-Holland,VBO,4.775652,51.995488
Schaatsenrijder,29,,,2851ZN,Haastrecht,Krimpenerwaard,Zuid-Holland,VBO,4.776014,51.995744
Schaatsenrijder,30,,,2851ZN,Haastrecht,Krimpenerwaard,Zuid-Holland,VBO,4.775715,51.995376
Schaatsenrijder,31,,,2851ZN,Haastrecht,Krimpenerwaard,Zuid-Holland,VBO,4.776053,51.995684
Schaatsenrijder,32,,,2851ZN,Haastrecht,Krimpenerwaard,Zuid-Holland,VBO,4.775767,51.995315
Schaatsenrijder,33,,,2851ZN,Haastrecht,Krimpenerwaard,Zuid-Holland,VBO,4.776093,51.995623
Schaatsenrijder,34,,,2851ZN,Haastrecht,Krimpenerwaard,Zuid-Holland,VBO,4.775947,51.995103
Schaatsenrijder,35,,,2851ZN,Haastrecht,Krimpenerwaard,Zuid-Holland,VBO,4.776536,51.994993
Schaatsenrijder,36,,,2851ZN,Haastrecht,Krimpenerwaard,Zuid-Holland,VBO,4.775978,51.995053
Schaatsenrijder,37,,,2851ZN,Haastrecht,Krimpenerwaard,Zuid-Holland,VBO,4.776559,51.994949
Schaatsenrijder,38,,,2851ZN,Haastrecht,Krimpenerwaard,Zuid-Holland,VBO,4.776082,51.994901
Schaatsenrijder,39,,,2851ZN,Haastrecht,Krimpenerwaard,Zuid-Holland,VBO,4.776584,51.994906
Schaatsenrijder,40,,,2851ZN,Haastrecht,Krimpenerwaard,Zuid-Holland,VBO,4.776114,51.994853
Schaatsenrijder,41,,,2851ZN,Haastrecht,Krimpenerwaard,Zuid-Holland,VBO,4.776610,51.994865
Schaatsenrijder,42,,,2851ZN,Haastrecht,Krimpenerwaard,Zuid-Holland,VBO,4.776209,51.994677
Schaatsenrijder,43,,,2851ZN,Haastrecht,Krimpenerwaard,Zuid-Holland,VBO,4.776638,51.994822
Schaatsenrijder,44,,,2851ZN,Haastrecht,Krimpenerwaard,Zuid-Holland,VBO,4.776239,51.994628
Schaatsenrijder,45,,,2851ZN,Haastrecht,Krimpenerwaard,Zuid-Holland,VBO,4.776671,51.994780
Schaatsenrijder,46,,,2851ZN,Haastrecht,Krimpenerwaard,Zuid-Holland,VBO,4.776314,51.994485
Schaatsenrijder,47,,,2851ZN,Haastrecht,Krimpenerwaard,Zuid-Holland,VBO,4.776693,51.994738
Schaatsenrijder,48,,,2851ZN,Haastrecht,Krimpenerwaard,Zuid-Holland,VBO,4.776344,51.994437
Schaatsenrijder,49,,,2851ZN,Haastrecht,Krimpenerwaard,Zuid-Holland,VBO,4.776719,51.994695
Schaatsenrijder,50,,,2851ZN,Haastrecht,Krimpenerwaard,Zuid-Holland,VBO,4.776429,51.994093
Schaatsenrijder,51,,,2851ZN,Haastrecht,Krimpenerwaard,Zuid-Holland,VBO,4.776835,51.994435
Schaatsenrijder,52,,,2851ZN,Haastrecht,Krimpenerwaard,Zuid-Holland,VBO,4.776669,51.994143
Schaatsenrijder,53,,,2851ZN,Haastrecht,Krimpenerwaard,Zuid-Holland,VBO,4.776906,51.994445
Schaatsenrijder,54,,,2851ZN,Haastrecht,Krimpenerwaard,Zuid-Holland,VBO,4.776934,51.994210
Schaatsenrijder,55,,,2851ZN,Haastrecht,Krimpenerwaard,Zuid-Holland,VBO,4.776979,51.994461
Schaatsenrijder,56,,,2851ZN,Haastrecht,Krimpenerwaard,Zuid-Holland,VBO,4.777185,51.994261
Schaatsenrijder,57,,,2851ZN,Haastrecht,Krimpenerwaard,Zuid-Holland,VBO,4.777051,51.994480
Beemdgras,1,,,2851ZR,Haastrecht,Krimpenerwaard,Zuid-Holland,VBO,4.780075,51.995006
Beemdgras,3,,,2851ZR,Haastrecht,Krimpenerwaard,Zuid-Holland,VBO,4.779963,51.994983
Beemdgras,5,,,2851ZR,Haastrecht,Krimpenerwaard,Zuid-Holland,VBO,4.779741,51.994918
Beemdgras,7,,,2851ZR,Haastrecht,Krimpenerwaard,Zuid-Holland,VBO,4.779639,51.994886
Beemdgras,9,,,2851ZR,Haastrecht,Krimpenerwaard,Zuid-Holland,VBO,4.779397,51.994830
Beemdgras,11,,,2851ZR,Haastrecht,Krimpenerwaard,Zuid-Holland,VBO,4.779291,51.994811
Beemdgras,13,,,2851ZR,Haastrecht,Krimpenerwaard,Zuid-Holland,VBO,4.779001,51.994787
Beemdgras,15,,,2851ZR,Haastrecht,Krimpenerwaard,Zuid-Holland,VBO,4.778326,51.994622
Beemdgras,17,,,2851ZR,Haastrecht,Krimpenerwaard,Zuid-Holland,VBO,4.778095,51.994481
Beemdgras,19,,,2851ZR,Haastrecht,Krimpenerwaard,Zuid-Holland,VBO,4.777802,51.994396
Beemdgras,21,,,2851ZR,Haastrecht,Krimpenerwaard,Zuid-Holland,VBO,4.777485,51.994348
Kamgras,1,,,2851ZS,Haastrecht,Krimpenerwaard,Zuid-Holland,VBO,4.778396,51.995328
Kamgras,2,,,2851ZS,Haastrecht,Krimpenerwaard,Zuid-Holland,VBO,4.778086,51.995296
Kamgras,3,,,2851ZS,Haastrecht,Krimpenerwaard,Zuid-Holland,VBO,4.778419,51.995287
Kamgras,4,,,2851ZS,Haastrecht,Krimpenerwaard,Zuid-Holland,VBO,4.778113,51.995250
Kamgras,5,,,2851ZS,Haastrecht,Krimpenerwaard,Zuid-Holland,VBO,4.778456,51.995247
Kamgras,6,,,2851ZS,Haastrecht,Krimpenerwaard,Zuid-Holland,VBO,4.778150,51.995207
Kamgras,7,,,2851ZS,Haastrecht,Krimpenerwaard,Zuid-Holland,VBO,4.778495,51.995209
Kamgras,8,,,2851ZS,Haastrecht,Krimpenerwaard,Zuid-Holland,VBO,4.778173,51.995165
Kamgras,9,,,2851ZS,Haastrecht,Krimpenerwaard,Zuid-Holland,VBO,4.778515,51.995158
Kamgras,10,,,2851ZS,Haastrecht,Krimpenerwaard,Zuid-Holland,VBO,4.778195,51.995124
Kamgras,11,,,2851ZS,Haastrecht,Krimpenerwaard,Zuid-Holland,VBO,4.778589,51.995086
Kamgras,12,,,2851ZS,Haastrecht,Krimpenerwaard,Zuid-Holland,VBO,4.778262,51.995053
Kamgras,13,,,2851ZS,Haastrecht,Krimpenerwaard,Zuid-Holland,VBO,4.778618,51.995047
Kamgras,14,,,2851ZS,Haastrecht,Krimpenerwaard,Zuid-Holland,VBO,4.778284,51.995006
Kamgras,15,,,2851ZS,Haastrecht,Krimpenerwaard,Zuid-Holland,VBO,4.778644,51.994994
Kamgras,16,,,2851ZS,Haastrecht,Krimpenerwaard,Zuid-Holland,VBO,4.778306,51.994972
Kamgras,17,,,2851ZS,Haastrecht,Krimpenerwaard,Zuid-Holland,VBO,4.778649,51.994956
Kamgras,18,,,2851ZS,Haastrecht,Krimpenerwaard,Zuid-Holland,VBO,4.778333,51.994923
Kamgras,19,,,2851ZS,Haastrecht,Krimpenerwaard,Zuid-Holland,VBO,4.778679,51.994907
Kamgras,20,,,2851ZS,Haastrecht,Krimpenerwaard,Zuid-Holland,VBO,4.778359,51.994869
Raaigras,1,a,,2851ZT,Haastrecht,Krimpenerwaard,Zuid-Holland,VBO,4.777684,51.995216
Raaigras,1,,,2851ZT,Haastrecht,Krimpenerwaard,Zuid-Holland,VBO,4.777460,51.995089
Raaigras,2,,,2851ZT,Haastrecht,Krimpenerwaard,Zuid-Holland,VBO,4.777045,51.995096
Raaigras,3,,,2851ZT,Haastrecht,Krimpenerwaard,Zuid-Holland,VBO,4.777507,51.995047
Raaigras,4,,,2851ZT,Haastrecht,Krimpenerwaard,Zuid-Holland,VBO,4.777153,51.994950
Raaigras,5,,,2851ZT,Haastrecht,Krimpenerwaard,Zuid-Holland,VBO,4.777531,51.995006
Raaigras,6,,,2851ZT,Haastrecht,Krimpenerwaard,Zuid-Holland,VBO,4.777228,51.994834
Raaigras,7,,,2851ZT,Haastrecht,Krimpenerwaard,Zuid-Holland,VBO,4.777547,51.994957
Raaigras,8,,,2851ZT,Haastrecht,Krimpenerwaard,Zuid-Holland,VBO,4.777341,51.994724
Raaigras,9,,,2851ZT,Haastrecht,Krimpenerwaard,Zuid-Holland,VBO,4.777631,51.994874
Raaigras,10,,,2851ZT,Haastrecht,Krimpenerwaard,Zuid-Holland,VBO,4.777431,51.994601
Raaigras,11,,,2851ZT,Haastrecht,Krimpenerwaard,Zuid-Holland,VBO,4.777675,51.994836
Raaigras,13,,,2851ZT,Haastrecht,Krimpenerwaard,Zuid-Holland,VBO,4.777686,51.994782
Raaigras,15,,,2851ZT,Haastrecht,Krimpenerwaard,Zuid-Holland,VBO,4.777749,51.994749
Raaigras,17,,,2851ZT,Haastrecht,Krimpenerwaard,Zuid-Holland,VBO,4.777764,51.994704
Raaigras,19,,,2851ZT,Haastrecht,Krimpenerwaard,Zuid-Holland,VBO,4.777794,51.994659
Zwenkgras,1,,,2851ZV,Haastrecht,Krimpenerwaard,Zuid-Holland,VBO,4.779334,51.995638
Zwenkgras,2,,,2851ZV,Haastrecht,Krimpenerwaard,Zuid-Holland,VBO,4.779005,51.995520
Zwenkgras,3,,,2851ZV,Haastrecht,Krimpenerwaard,Zuid-Holland,VBO,4.779354,51.995557
Zwenkgras,4,,,2851ZV,Haastrecht,Krimpenerwaard,Zuid-Holland,VBO,4.779035,51.995470
Zwenkgras,5,,,2851ZV,Haastrecht,Krimpenerwaard,Zuid-Holland,VBO,4.779413,51.995492
Zwenkgras,6,,,2851ZV,Haastrecht,Krimpenerwaard,Zuid-Holland,VBO,4.779057,51.995430
Zwenkgras,7,,,2851ZV,Haastrecht,Krimpenerwaard,Zuid-Holland,VBO,4.779433,51.995432
Zwenkgras,8,,,2851ZV,Haastrecht,Krimpenerwaard,Zuid-Holland,VBO,4.779102,51.995381
Zwenkgras,9,,,2851ZV,Haastrecht,Krimpenerwaard,Zuid-Holland,VBO,4.779536,51.995345
Zwenkgras,10,,,2851ZV,Haastrecht,Krimpenerwaard,Zuid-Holland,VBO,4.779131,51.995345
Zwenkgras,11,,,2851ZV,Haastrecht,Krimpenerwaard,Zuid-Holland,VBO,4.779569,51.995293
Zwenkgras,12,,,2851ZV,Haastrecht,Krimpenerwaard,Zuid-Holland,VBO,4.779168,51.995291
Zwenkgras,13,,,2851ZV,Haastrecht,Krimpenerwaard,Zuid-Holland,VBO,4.779635,51.995217
Zwenkgras,14,,,2851ZV,Haastrecht,Krimpenerwaard,Zuid-Holland,VBO,4.779242,51.995215
Zwenkgras,15,,,2851ZV,Haastrecht,Krimpenerwaard,Zuid-Holland,VBO,4.779658,51.995150
Zwenkgras,16,,,2851ZV,Haastrecht,Krimpenerwaard,Zuid-Holland,VBO,4.779279,51.995179
Zwenkgras,18,,,2851ZV,Haastrecht,Krimpenerwaard,Zuid-Holland,VBO,4.779309,51.995135
Zwenkgras,20,,,2851ZV,Haastrecht,Krimpenerwaard,Zuid-Holland,VBO,4.779346,51.995085
Zwenkgras,22,,,2851ZV,Haastrecht,Krimpenerwaard,Zuid-Holland,VBO,4.779361,51.995036
