openbareruimtenaam,huisnummer,huisletter,huisnummertoevoeging,postcode,woonplaatsnaam,gemeentenaam,provincienaam,typeadresseerbaarobject,longitude,latitude
De Gorzen,1,,,2964AA,Groot-Ammers,Molenwaard,Zuid-Holland,VBO,4.813692,51.923534
De Gorzen,2,,,2964AA,Groot-Ammers,Molenwaard,Zuid-Holland,VBO,4.814595,51.923711
De Gorzen,3,,,2964AA,Groot-Ammers,Molenwaard,Zuid-Holland,VBO,4.814056,51.923823
De Gorzen,4,,,2964AA,Groot-Ammers,Molenwaard,Zuid-Holland,VBO,4.814734,51.923823
De Gorzen,5,,,2964AA,Groot-Ammers,Molenwaard,Zuid-Holland,VBO,4.814456,51.924095
De Gorzen,6,,,2964AA,Groot-Ammers,Molenwaard,Zuid-Holland,VBO,4.814775,51.923847
De Gorzen,7,,,2964AA,Groot-Ammers,Molenwaard,Zuid-Holland,VBO,4.814828,51.924381
De Gorzen,8,,,2964AA,Groot-Ammers,Molenwaard,Zuid-Holland,VBO,4.814812,51.923871
De Gorzen,10,,,2964AA,Groot-Ammers,Molenwaard,Zuid-Holland,VBO,4.814891,51.923868
De Gorzen,11,a,,2964AA,Groot-Ammers,Molenwaard,Zuid-Holland,VBO,4.817063,51.924328
De Gorzen,11,,,2964AA,Groot-Ammers,Molenwaard,Zuid-Holland,VBO,4.815669,51.924894
Gelkenes,4,,,2964AB,Groot-Ammers,Molenwaard,Zuid-Holland,VBO,4.826086,51.926815
Gelkenes,6,,,2964AB,Groot-Ammers,Molenwaard,Zuid-Holland,VBO,4.826335,51.926842
Gelkenes,7,,,2964AB,Groot-Ammers,Molenwaard,Zuid-Holland,VBO,4.826698,51.926990
Gelkenes,8,,,2964AB,Groot-Ammers,Molenwaard,Zuid-Holland,VBO,4.826761,51.927014
Gelkenes,9,,,2964AB,Groot-Ammers,Molenwaard,Zuid-Holland,VBO,4.827010,51.926958
Gelkenes,10,,,2964AB,Groot-Ammers,Molenwaard,Zuid-Holland,VBO,4.828160,51.927111
Gelkenes,11,,,2964AB,Groot-Ammers,Molenwaard,Zuid-Holland,VBO,4.828648,51.927310
Gelkenes,12,,,2964AB,Groot-Ammers,Molenwaard,Zuid-Holland,VBO,4.828530,51.927462
Gelkenes,13,,,2964AB,Groot-Ammers,Molenwaard,Zuid-Holland,VBO,4.829307,51.928113
Gelkenes,14,,,2964AB,Groot-Ammers,Molenwaard,Zuid-Holland,VBO,4.829623,51.928411
Gelkenes,16,,,2964AB,Groot-Ammers,Molenwaard,Zuid-Holland,VBO,4.829322,51.929246
Gelkenes,17,,,2964AB,Groot-Ammers,Molenwaard,Zuid-Holland,VBO,4.829477,51.929651
Gelkenes,19,,,2964AB,Groot-Ammers,Molenwaard,Zuid-Holland,VBO,4.829586,51.930182
Gelkenes,20,,,2964AB,Groot-Ammers,Molenwaard,Zuid-Holland,VBO,4.829612,51.930452
Gelkenes,21,,,2964AB,Groot-Ammers,Molenwaard,Zuid-Holland,VBO,4.829768,51.930745
Gelkenes,22,,,2964AB,Groot-Ammers,Molenwaard,Zuid-Holland,VBO,4.829811,51.930821
Gelkenes,23,,,2964AB,Groot-Ammers,Molenwaard,Zuid-Holland,VBO,4.830129,51.931002
Gelkenes,26,,,2964AC,Groot-Ammers,Molenwaard,Zuid-Holland,VBO,4.830698,51.931994
Gelkenes,29,,,2964AC,Groot-Ammers,Molenwaard,Zuid-Holland,VBO,4.830991,51.932177
Gelkenes,30,a,,2964AC,Groot-Ammers,Molenwaard,Zuid-Holland,VBO,4.830334,51.932520
Gelkenes,30,,,2964AC,Groot-Ammers,Molenwaard,Zuid-Holland,VBO,4.830958,51.932337
Gelkenes,31,,,2964AC,Groot-Ammers,Molenwaard,Zuid-Holland,VBO,4.831026,51.932517
Gelkenes,32,,,2964AC,Groot-Ammers,Molenwaard,Zuid-Holland,VBO,4.831313,51.932788
Gelkenes,33,,,2964AC,Groot-Ammers,Molenwaard,Zuid-Holland,VBO,4.831700,51.933293
Gelkenes,34,,,2964AC,Groot-Ammers,Molenwaard,Zuid-Holland,VBO,4.831941,51.933780
Gelkenes,35,a,,2964AC,Groot-Ammers,Molenwaard,Zuid-Holland,VBO,4.832629,51.934592
Gelkenes,35,,,2964AC,Groot-Ammers,Molenwaard,Zuid-Holland,VBO,4.832400,51.934240
Gelkenes,36,a,,2964AC,Groot-Ammers,Molenwaard,Zuid-Holland,VBO,4.833149,51.934868
Gelkenes,36,,,2964AC,Groot-Ammers,Molenwaard,Zuid-Holland,VBO,4.833183,51.934743
Gelkenes,37,,,2964AC,Groot-Ammers,Molenwaard,Zuid-Holland,VBO,4.833233,51.935089
Gelkenes,38,a,,2964AC,Groot-Ammers,Molenwaard,Zuid-Holland,VBO,4.832950,51.936876
Gelkenes,38,,,2964AC,Groot-Ammers,Molenwaard,Zuid-Holland,VBO,4.832456,51.935861
Gelkenes,39,,,2964AC,Groot-Ammers,Molenwaard,Zuid-Holland,VBO,4.833669,51.936421
Gelkenes,40,,,2964AC,Groot-Ammers,Molenwaard,Zuid-Holland,VBO,4.834201,51.936471
Gelkenes,41,,,2964AC,Groot-Ammers,Molenwaard,Zuid-Holland,VBO,4.834429,51.937225
Gelkenes,42,a,CONS,2964AC,Groot-Ammers,Molenwaard,Zuid-Holland,VBO,4.837638,51.938159
Gelkenes,42,,,2964AC,Groot-Ammers,Molenwaard,Zuid-Holland,VBO,4.837591,51.938238
Gelkenes,43,,,2964AC,Groot-Ammers,Molenwaard,Zuid-Holland,VBO,4.838242,51.938123
Gelkenes,44,a,,2964AC,Groot-Ammers,Molenwaard,Zuid-Holland,VBO,4.838406,51.938985
Gelkenes,44,b,,2964AC,Groot-Ammers,Molenwaard,Zuid-Holland,VBO,4.837390,51.938926
Gelkenes,44,c,,2964AC,Groot-Ammers,Molenwaard,Zuid-Holland,VBO,4.838229,51.938823
Gelkenes,44,d,,2964AC,Groot-Ammers,Molenwaard,Zuid-Holland,VBO,4.838224,51.938871
Gelkenes,44,,,2964AC,Groot-Ammers,Molenwaard,Zuid-Holland,VBO,4.838606,51.938373
Gelkenes,45,,,2964AD,Groot-Ammers,Molenwaard,Zuid-Holland,VBO,4.839009,51.938415
Gelkenes,46,,,2964AD,Groot-Ammers,Molenwaard,Zuid-Holland,VBO,4.839403,51.938327
Gelkenes,47,a,,2964AD,Groot-Ammers,Molenwaard,Zuid-Holland,VBO,4.839628,51.939137
Gelkenes,47,b,,2964AD,Groot-Ammers,Molenwaard,Zuid-Holland,VBO,4.840489,51.939172
Gelkenes,47,,,2964AD,Groot-Ammers,Molenwaard,Zuid-Holland,VBO,4.839688,51.938543
Gelkenes,49,,,2964AD,Groot-Ammers,Molenwaard,Zuid-Holland,VBO,4.840083,51.938617
Gelkenes,50,,,2964AD,Groot-Ammers,Molenwaard,Zuid-Holland,VBO,4.841000,51.938514
Gelkenes,51,,,2964AD,Groot-Ammers,Molenwaard,Zuid-Holland,VBO,4.841605,51.938450
Gelkenes,52,a,,2964AD,Groot-Ammers,Molenwaard,Zuid-Holland,VBO,4.843125,51.938539
Gelkenes,52,,,2964AD,Groot-Ammers,Molenwaard,Zuid-Holland,VBO,4.842453,51.938452
Gelkenes,53,a,,2964AD,Groot-Ammers,Molenwaard,Zuid-Holland,VBO,4.843775,51.938595
Gelkenes,53,,,2964AD,Groot-Ammers,Molenwaard,Zuid-Holland,VBO,4.843081,51.938624
Gelkenes,54,a,,2964AD,Groot-Ammers,Molenwaard,Zuid-Holland,VBO,4.845477,51.938817
Gelkenes,54,,,2964AD,Groot-Ammers,Molenwaard,Zuid-Holland,VBO,4.843687,51.938726
Gelkenes,55,,,2964AD,Groot-Ammers,Molenwaard,Zuid-Holland,VBO,4.845836,51.939048
Gelkenes,56,,,2964AD,Groot-Ammers,Molenwaard,Zuid-Holland,VBO,4.846419,51.938970
Gelkenes,57,a,,2964AD,Groot-Ammers,Molenwaard,Zuid-Holland,VBO,4.847356,51.939133
Gelkenes,57,,,2964AD,Groot-Ammers,Molenwaard,Zuid-Holland,VBO,4.846798,51.938970
Gelkenes,58,a,,2964AD,Groot-Ammers,Molenwaard,Zuid-Holland,VBO,4.848574,51.938971
Gelkenes,58,,,2964AD,Groot-Ammers,Molenwaard,Zuid-Holland,VBO,4.847378,51.939029
Gelkenes,59,,,2964AD,Groot-Ammers,Molenwaard,Zuid-Holland,VBO,4.848673,51.938972
Gelkenes,60,a,,2964AD,Groot-Ammers,Molenwaard,Zuid-Holland,VBO,4.850275,51.939109
Gelkenes,60,,,2964AD,Groot-Ammers,Molenwaard,Zuid-Holland,VBO,4.849854,51.939117
Haarsteeg,1,a,,2964AE,Groot-Ammers,Molenwaard,Zuid-Holland,VBO,4.832459,51.929840
Haarsteeg,1,,,2964AE,Groot-Ammers,Molenwaard,Zuid-Holland,VBO,4.833058,51.929124
Haarsteeg,3,,,2964AE,Groot-Ammers,Molenwaard,Zuid-Holland,VBO,4.838134,51.922293
Liesveld,1,a,,2964AG,Groot-Ammers,Molenwaard,Zuid-Holland,VBO,4.830474,51.931263
Liesveld,1,,,2964AG,Groot-Ammers,Molenwaard,Zuid-Holland,VBO,4.830666,51.931838
Liesveld,2,,,2964AG,Groot-Ammers,Molenwaard,Zuid-Holland,VBO,4.831546,51.930995
Liesveld,3,,,2964AG,Groot-Ammers,Molenwaard,Zuid-Holland,VBO,4.831955,51.931561
Liesveld,4,,,2964AG,Groot-Ammers,Molenwaard,Zuid-Holland,VBO,4.833013,51.931184
Liesveld,5,,,2964AG,Groot-Ammers,Molenwaard,Zuid-Holland,VBO,4.833249,51.931230
Liesveld,6,a,,2964AG,Groot-Ammers,Molenwaard,Zuid-Holland,VBO,4.833537,51.931877
Liesveld,6,b,,2964AG,Groot-Ammers,Molenwaard,Zuid-Holland,VBO,4.834004,51.931626
Liesveld,6,,,2964AG,Groot-Ammers,Molenwaard,Zuid-Holland,VBO,4.833599,51.931396
Liesveld,7,,,2964AG,Groot-Ammers,Molenwaard,Zuid-Holland,VBO,4.833416,51.932268
Liesveld,8,a,,2964AG,Groot-Ammers,Molenwaard,Zuid-Holland,VBO,4.833751,51.932596
Liesveld,8,,,2964AG,Groot-Ammers,Molenwaard,Zuid-Holland,VBO,4.833610,51.932364
Liesveld,9,b,,2964AG,Groot-Ammers,Molenwaard,Zuid-Holland,VBO,4.834634,51.932558
Liesveld,9,,,2964AG,Groot-Ammers,Molenwaard,Zuid-Holland,VBO,4.834037,51.932378
Liesveld,10,,,2964AG,Groot-Ammers,Molenwaard,Zuid-Holland,VBO,4.834761,51.933366
Liesveld,11,,,2964AG,Groot-Ammers,Molenwaard,Zuid-Holland,VBO,4.835439,51.934854
Liesveld,12,a,,2964AG,Groot-Ammers,Molenwaard,Zuid-Holland,VBO,4.833023,51.932660
Liesveld,12,,,2964AG,Groot-Ammers,Molenwaard,Zuid-Holland,VBO,4.832515,51.932559
Liesveld,13,a,,2964AG,Groot-Ammers,Molenwaard,Zuid-Holland,VBO,4.832416,51.933609
Liesveld,13,b,,2964AG,Groot-Ammers,Molenwaard,Zuid-Holland,VBO,4.832385,51.933665
Liesveld,13,,,2964AG,Groot-Ammers,Molenwaard,Zuid-Holland,VBO,4.832744,51.933128
Liesveld,14,,,2964AG,Groot-Ammers,Molenwaard,Zuid-Holland,VBO,4.832141,51.934046
Voorstraat,1,,,2964AH,Groot-Ammers,Molenwaard,Zuid-Holland,VBO,4.816774,51.923422
Voorstraat,3,,,2964AH,Groot-Ammers,Molenwaard,Zuid-Holland,VBO,4.816857,51.923463
Voorstraat,5,,,2964AH,Groot-Ammers,Molenwaard,Zuid-Holland,VBO,4.816894,51.923546
Voorstraat,7,,,2964AH,Groot-Ammers,Molenwaard,Zuid-Holland,VBO,4.816968,51.923607
Voorstraat,9,,,2964AH,Groot-Ammers,Molenwaard,Zuid-Holland,VBO,4.817151,51.923643
Voorstraat,11,,,2964AH,Groot-Ammers,Molenwaard,Zuid-Holland,VBO,4.817198,51.923711
Voorstraat,19,,,2964AH,Groot-Ammers,Molenwaard,Zuid-Holland,VBO,4.817394,51.923831
Voorstraat,21,,,2964AH,Groot-Ammers,Molenwaard,Zuid-Holland,VBO,4.817521,51.923878
Voorstraat,23,,,2964AH,Groot-Ammers,Molenwaard,Zuid-Holland,VBO,4.817572,51.923911
Voorstraat,27,,,2964AH,Groot-Ammers,Molenwaard,Zuid-Holland,VBO,4.817589,51.924130
Voorstraat,29,,,2964AH,Groot-Ammers,Molenwaard,Zuid-Holland,VBO,4.817522,51.924349
Voorstraat,31,,,2964AH,Groot-Ammers,Molenwaard,Zuid-Holland,VBO,4.817561,51.924524
Voorstraat,33,a,,2964AH,Groot-Ammers,Molenwaard,Zuid-Holland,VBO,4.817573,51.924752
Voorstraat,33,,,2964AH,Groot-Ammers,Molenwaard,Zuid-Holland,VBO,4.817621,51.924799
Voorstraat,35,,,2964AH,Groot-Ammers,Molenwaard,Zuid-Holland,VBO,4.817832,51.924798
Voorstraat,37,,,2964AH,Groot-Ammers,Molenwaard,Zuid-Holland,VBO,4.817896,51.924850
Voorstraat,39,,,2964AH,Groot-Ammers,Molenwaard,Zuid-Holland,VBO,4.817949,51.924886
Voorstraat,41,a,,2964AH,Groot-Ammers,Molenwaard,Zuid-Holland,VBO,4.818088,51.925006
Voorstraat,41,b,,2964AH,Groot-Ammers,Molenwaard,Zuid-Holland,VBO,4.818179,51.925085
Voorstraat,41,,,2964AH,Groot-Ammers,Molenwaard,Zuid-Holland,VBO,4.818002,51.924925
Voorstraat,43,a,,2964AJ,Groot-Ammers,Molenwaard,Zuid-Holland,VBO,4.818385,51.925250
Voorstraat,43,,,2964AJ,Groot-Ammers,Molenwaard,Zuid-Holland,VBO,4.818312,51.925170
Voorstraat,45,a,,2964AJ,Groot-Ammers,Molenwaard,Zuid-Holland,VBO,4.818584,51.925345
Voorstraat,45,b,,2964AJ,Groot-Ammers,Molenwaard,Zuid-Holland,VBO,4.818644,51.925385
Voorstraat,45,,,2964AJ,Groot-Ammers,Molenwaard,Zuid-Holland,VBO,4.818424,51.925277
Voorstraat,45,,,2964AJ,Groot-Ammers,Molenwaard,Zuid-Holland,VBO,4.818469,51.925309
Voorstraat,47,,,2964AJ,Groot-Ammers,Molenwaard,Zuid-Holland,VBO,4.818732,51.925446
Voorstraat,49,a,,2964AJ,Groot-Ammers,Molenwaard,Zuid-Holland,VBO,4.818888,51.925533
Voorstraat,49,,,2964AJ,Groot-Ammers,Molenwaard,Zuid-Holland,VBO,4.818797,51.925490
Voorstraat,51,a,,2964AJ,Groot-Ammers,Molenwaard,Zuid-Holland,VBO,4.819053,51.925688
Voorstraat,51,,,2964AJ,Groot-Ammers,Molenwaard,Zuid-Holland,VBO,4.818954,51.925585
Voorstraat,53,,,2964AJ,Groot-Ammers,Molenwaard,Zuid-Holland,VBO,4.819207,51.925764
Voorstraat,55,a,,2964AJ,Groot-Ammers,Molenwaard,Zuid-Holland,VBO,4.819370,51.925866
Voorstraat,55,,,2964AJ,Groot-Ammers,Molenwaard,Zuid-Holland,VBO,4.819277,51.925803
Voorstraat,57,,,2964AJ,Groot-Ammers,Molenwaard,Zuid-Holland,VBO,4.819557,51.925932
Voorstraat,59,,,2964AJ,Groot-Ammers,Molenwaard,Zuid-Holland,VBO,4.819635,51.925963
Voorstraat,61,,,2964AJ,Groot-Ammers,Molenwaard,Zuid-Holland,VBO,4.819739,51.926030
Voorstraat,63,,,2964AJ,Groot-Ammers,Molenwaard,Zuid-Holland,VBO,4.819821,51.926061
Voorstraat,65,,,2964AJ,Groot-Ammers,Molenwaard,Zuid-Holland,VBO,4.820043,51.926144
Voorstraat,67,,,2964AJ,Groot-Ammers,Molenwaard,Zuid-Holland,VBO,4.820486,51.926339
Voorstraat,71,,,2964AJ,Groot-Ammers,Molenwaard,Zuid-Holland,VBO,4.821853,51.926532
Voorstraat,73,,,2964AJ,Groot-Ammers,Molenwaard,Zuid-Holland,VBO,4.822713,51.926662
Voorstraat,75,a,,2964AJ,Groot-Ammers,Molenwaard,Zuid-Holland,VBO,4.823422,51.926813
Voorstraat,75,,,2964AJ,Groot-Ammers,Molenwaard,Zuid-Holland,VBO,4.822813,51.926672
Voorstraat,77,,,2964AJ,Groot-Ammers,Molenwaard,Zuid-Holland,VBO,4.824255,51.926930
Voorstraat,79,,,2964AJ,Groot-Ammers,Molenwaard,Zuid-Holland,VBO,4.824757,51.927016
Voorstraat,4,,,2964AK,Groot-Ammers,Molenwaard,Zuid-Holland,VBO,4.817094,51.923372
Voorstraat,6,,,2964AK,Groot-Ammers,Molenwaard,Zuid-Holland,VBO,4.817191,51.923443
Voorstraat,8,,,2964AK,Groot-Ammers,Molenwaard,Zuid-Holland,VBO,4.817295,51.923505
Voorstraat,10,,,2964AK,Groot-Ammers,Molenwaard,Zuid-Holland,VBO,4.817369,51.923585
Voorstraat,12,,,2964AK,Groot-Ammers,Molenwaard,Zuid-Holland,VBO,4.817439,51.923620
Voorstraat,14,,,2964AK,Groot-Ammers,Molenwaard,Zuid-Holland,VBO,4.817528,51.923658
Voorstraat,18,,,2964AK,Groot-Ammers,Molenwaard,Zuid-Holland,VBO,4.817633,51.923723
Voorstraat,20,,,2964AK,Groot-Ammers,Molenwaard,Zuid-Holland,VBO,4.817732,51.923780
Voorstraat,24,,,2964AK,Groot-Ammers,Molenwaard,Zuid-Holland,VBO,4.817949,51.923995
Voorstraat,26,,,2964AK,Groot-Ammers,Molenwaard,Zuid-Holland,VBO,4.817930,51.924077
Voorstraat,28,,,2964AK,Groot-Ammers,Molenwaard,Zuid-Holland,VBO,4.817937,51.924134
Voorstraat,30,a,,2964AK,Groot-Ammers,Molenwaard,Zuid-Holland,VBO,4.817938,51.924221
Voorstraat,30,b,,2964AK,Groot-Ammers,Molenwaard,Zuid-Holland,VBO,4.817917,51.924294
Voorstraat,30,c,,2964AK,Groot-Ammers,Molenwaard,Zuid-Holland,VBO,4.817988,51.924323
Voorstraat,30,,,2964AK,Groot-Ammers,Molenwaard,Zuid-Holland,VBO,4.818007,51.924230
Voorstraat,32,,,2964AK,Groot-Ammers,Molenwaard,Zuid-Holland,VBO,4.817861,51.924403
Voorstraat,34,,,2964AK,Groot-Ammers,Molenwaard,Zuid-Holland,VBO,4.817837,51.924483
Voorstraat,42,,,2964AK,Groot-Ammers,Molenwaard,Zuid-Holland,VBO,4.818015,51.924643
Voorstraat,44,,,2964AK,Groot-Ammers,Molenwaard,Zuid-Holland,VBO,4.818116,51.924699
Voorstraat,46,,,2964AK,Groot-Ammers,Molenwaard,Zuid-Holland,VBO,4.818245,51.924777
Voorstraat,48,,,2964AK,Groot-Ammers,Molenwaard,Zuid-Holland,VBO,4.818274,51.924860
Voorstraat,50,,,2964AK,Groot-Ammers,Molenwaard,Zuid-Holland,VBO,4.818328,51.924902
Voorstraat,52,,,2964AL,Groot-Ammers,Molenwaard,Zuid-Holland,VBO,4.818445,51.924985
Voorstraat,54,a,,2964AL,Groot-Ammers,Molenwaard,Zuid-Holland,VBO,4.818875,51.925171
Voorstraat,54,b,,2964AL,Groot-Ammers,Molenwaard,Zuid-Holland,VBO,4.818753,51.925158
Voorstraat,54,c,,2964AL,Groot-Ammers,Molenwaard,Zuid-Holland,VBO,4.818828,51.925151
Voorstraat,54,d,,2964AL,Groot-Ammers,Molenwaard,Zuid-Holland,VBO,4.818804,51.925133
Voorstraat,54,,,2964AL,Groot-Ammers,Molenwaard,Zuid-Holland,VBO,4.818811,51.925200
Voorstraat,56,,,2964AL,Groot-Ammers,Molenwaard,Zuid-Holland,VBO,4.818959,51.925262
Voorstraat,58,,,2964AL,Groot-Ammers,Molenwaard,Zuid-Holland,VBO,4.819020,51.925304
Voorstraat,60,,,2964AL,Groot-Ammers,Molenwaard,Zuid-Holland,VBO,4.819153,51.925400
Voorstraat,62,,,2964AL,Groot-Ammers,Molenwaard,Zuid-Holland,VBO,4.819273,51.925512
Voorstraat,64,a,,2964AL,Groot-Ammers,Molenwaard,Zuid-Holland,VBO,4.819489,51.925632
Voorstraat,64,,,2964AL,Groot-Ammers,Molenwaard,Zuid-Holland,VBO,4.819403,51.925582
Voorstraat,66,a,,2964AL,Groot-Ammers,Molenwaard,Zuid-Holland,VBO,4.819943,51.925596
Voorstraat,66,,,2964AL,Groot-Ammers,Molenwaard,Zuid-Holland,VBO,4.819585,51.925743
Voorstraat,68,,,2964AL,Groot-Ammers,Molenwaard,Zuid-Holland,VBO,4.819756,51.925761
Voorstraat,72,,,2964AL,Groot-Ammers,Molenwaard,Zuid-Holland,VBO,4.819939,51.925896
Voorstraat,74,,,2964AL,Groot-Ammers,Molenwaard,Zuid-Holland,VBO,4.819913,51.925866
Voorstraat,76,,,2964AL,Groot-Ammers,Molenwaard,Zuid-Holland,VBO,4.820143,51.925778
Voorstraat,78,,,2964AL,Groot-Ammers,Molenwaard,Zuid-Holland,VBO,4.820208,51.925794
Voorstraat,80,,,2964AL,Groot-Ammers,Molenwaard,Zuid-Holland,VBO,4.820279,51.925816
Voorstraat,82,,,2964AL,Groot-Ammers,Molenwaard,Zuid-Holland,VBO,4.820386,51.925844
Voorstraat,84,,,2964AL,Groot-Ammers,Molenwaard,Zuid-Holland,VBO,4.820467,51.925863
Voorstraat,86,,,2964AL,Groot-Ammers,Molenwaard,Zuid-Holland,VBO,4.820674,51.925916
Voorstraat,88,,,2964AL,Groot-Ammers,Molenwaard,Zuid-Holland,VBO,4.821313,51.925974
Voorstraat,100,a,,2964AL,Groot-Ammers,Molenwaard,Zuid-Holland,VBO,4.822454,51.925917
Voorstraat,100,,,2964AL,Groot-Ammers,Molenwaard,Zuid-Holland,VBO,4.822246,51.926127
Voorstraat,102,,,2964AL,Groot-Ammers,Molenwaard,Zuid-Holland,VBO,4.823039,51.926177
Voorstraat,104,,,2964AL,Groot-Ammers,Molenwaard,Zuid-Holland,VBO,4.825249,51.926812
Wilgenweg,1,a,,2964AM,Groot-Ammers,Molenwaard,Zuid-Holland,VBO,4.834984,51.928952
Wilgenweg,1,b,,2964AM,Groot-Ammers,Molenwaard,Zuid-Holland,VBO,4.835508,51.929092
Wilgenweg,1,c,,2964AM,Groot-Ammers,Molenwaard,Zuid-Holland,VBO,4.834240,51.929125
Wilgenweg,1,,,2964AM,Groot-Ammers,Molenwaard,Zuid-Holland,VBO,4.834881,51.928927
Wilgenweg,2,,,2964AM,Groot-Ammers,Molenwaard,Zuid-Holland,VBO,4.848388,51.932463
Wilgenweg,3,a,,2964AM,Groot-Ammers,Molenwaard,Zuid-Holland,VBO,4.847297,51.931282
Wilgenweg,3,,,2964AM,Groot-Ammers,Molenwaard,Zuid-Holland,VBO,4.841756,51.930163
Wilgenweg,4,,,2964AM,Groot-Ammers,Molenwaard,Zuid-Holland,VBO,4.854645,51.933952
Wilgenweg,5,,,2964AM,Groot-Ammers,Molenwaard,Zuid-Holland,VBO,4.854260,51.932788
Wilgenweg,6,b,,2964AM,Groot-Ammers,Molenwaard,Zuid-Holland,VBO,4.858772,51.934596
Wilgenweg,6,,,2964AM,Groot-Ammers,Molenwaard,Zuid-Holland,VBO,4.858454,51.934849
Wilgenweg,7,,,2964AM,Groot-Ammers,Molenwaard,Zuid-Holland,VBO,4.859738,51.932609
Wilgenweg,8,a,,2964AM,Groot-Ammers,Molenwaard,Zuid-Holland,VBO,4.859545,51.934678
Wilgenweg,8,b,,2964AM,Groot-Ammers,Molenwaard,Zuid-Holland,VBO,4.859325,51.935215
Wilgenweg,8,c,,2964AM,Groot-Ammers,Molenwaard,Zuid-Holland,VBO,4.858641,51.935451
Wilgenweg,8,,,2964AM,Groot-Ammers,Molenwaard,Zuid-Holland,VBO,4.858692,51.935949
Wilgenweg,10,,,2964AM,Groot-Ammers,Molenwaard,Zuid-Holland,VBO,4.860812,51.934802
Sportlaan,1,a,,2964AN,Groot-Ammers,Molenwaard,Zuid-Holland,VBO,4.830731,51.934341
Sportlaan,1,,,2964AN,Groot-Ammers,Molenwaard,Zuid-Holland,VBO,4.829670,51.933571
Sportlaan,2,,,2964AN,Groot-Ammers,Molenwaard,Zuid-Holland,VBO,4.830988,51.935154
Sportlaan,3,,,2964AN,Groot-Ammers,Molenwaard,Zuid-Holland,VBO,4.830807,51.934889
Ammerse Kade,1,a,,2964AP,Groot-Ammers,Molenwaard,Zuid-Holland,VBO,4.816963,51.921221
Ammerse Kade,1,,,2964AP,Groot-Ammers,Molenwaard,Zuid-Holland,VBO,4.814021,51.921175
Ammerse Kade,2,,,2964AP,Groot-Ammers,Molenwaard,Zuid-Holland,VBO,4.815060,51.920989
Ammerse Kade,3,a,,2964AP,Groot-Ammers,Molenwaard,Zuid-Holland,VBO,4.815602,51.920744
Ammerse Kade,3,c,,2964AP,Groot-Ammers,Molenwaard,Zuid-Holland,VBO,4.816265,51.920595
Ammerse Kade,3,,,2964AP,Groot-Ammers,Molenwaard,Zuid-Holland,VBO,4.815514,51.920965
Ammerse Kade,4,,,2964AP,Groot-Ammers,Molenwaard,Zuid-Holland,VBO,4.817008,51.920632
Ammerse Kade,5,,,2964AP,Groot-Ammers,Molenwaard,Zuid-Holland,VBO,4.817258,51.920614
Ammerse Kade,6,,,2964AP,Groot-Ammers,Molenwaard,Zuid-Holland,VBO,4.817436,51.920587
Ammerse Kade,7,,,2964AP,Groot-Ammers,Molenwaard,Zuid-Holland,VBO,4.817563,51.920581
Ammerse Kade,9,,,2964AP,Groot-Ammers,Molenwaard,Zuid-Holland,VBO,4.818083,51.920449
Ammerse Kade,10,,,2964AP,Groot-Ammers,Molenwaard,Zuid-Holland,VBO,4.818344,51.920387
Ammerse Kade,11,,,2964AP,Groot-Ammers,Molenwaard,Zuid-Holland,VBO,4.819073,51.920220
Ammerse Kade,12,,,2964AP,Groot-Ammers,Molenwaard,Zuid-Holland,VBO,4.819394,51.920138
Ammerse Kade,14,a,,2964AP,Groot-Ammers,Molenwaard,Zuid-Holland,VBO,4.820264,51.919622
Ammerse Kade,14,,,2964AP,Groot-Ammers,Molenwaard,Zuid-Holland,VBO,4.819646,51.920096
Ammerse Kade,15,,,2964AP,Groot-Ammers,Molenwaard,Zuid-Holland,VBO,4.820465,51.919355
Ammerse Kade,16,a,,2964AP,Groot-Ammers,Molenwaard,Zuid-Holland,VBO,4.821194,51.918980
Ammerse Kade,16,,,2964AP,Groot-Ammers,Molenwaard,Zuid-Holland,VBO,4.820806,51.919015
Sluis,2,,,2964AR,Groot-Ammers,Molenwaard,Zuid-Holland,VBO,4.816719,51.923357
Sluis,4,,,2964AR,Groot-Ammers,Molenwaard,Zuid-Holland,VBO,4.816415,51.923264
Sluis,6,,,2964AR,Groot-Ammers,Molenwaard,Zuid-Holland,VBO,4.817137,51.923208
Sluis,8,,,2964AR,Groot-Ammers,Molenwaard,Zuid-Holland,VBO,4.816851,51.923191
Sluis,9,,,2964AR,Groot-Ammers,Molenwaard,Zuid-Holland,VBO,4.816791,51.923147
Sluis,10,,,2964AR,Groot-Ammers,Molenwaard,Zuid-Holland,VBO,4.816740,51.923047
Sluis,11,a,,2964AR,Groot-Ammers,Molenwaard,Zuid-Holland,VBO,4.816483,51.922996
Sluis,11,,,2964AR,Groot-Ammers,Molenwaard,Zuid-Holland,VBO,4.816602,51.923028
Sluis,13,,,2964AR,Groot-Ammers,Molenwaard,Zuid-Holland,VBO,4.816295,51.922961
Sluis,14,,,2964AR,Groot-Ammers,Molenwaard,Zuid-Holland,VBO,4.816186,51.922927
Sluis,15,,,2964AR,Groot-Ammers,Molenwaard,Zuid-Holland,VBO,4.816105,51.922902
Sluis,18,,,2964AR,Groot-Ammers,Molenwaard,Zuid-Holland,VBO,4.815855,51.923227
Sluis,19,,,2964AR,Groot-Ammers,Molenwaard,Zuid-Holland,VBO,4.815694,51.922817
Sluis,20,,,2964AR,Groot-Ammers,Molenwaard,Zuid-Holland,VBO,4.815683,51.923038
Sluis,22,a,,2964AR,Groot-Ammers,Molenwaard,Zuid-Holland,VBO,4.815249,51.922680
Sluis,22,b,,2964AR,Groot-Ammers,Molenwaard,Zuid-Holland,VBO,4.815287,51.922686
Sluis,22,c,,2964AR,Groot-Ammers,Molenwaard,Zuid-Holland,VBO,4.815327,51.922692
Sluis,22,d,,2964AR,Groot-Ammers,Molenwaard,Zuid-Holland,VBO,4.815367,51.922699
Sluis,22,e,,2964AR,Groot-Ammers,Molenwaard,Zuid-Holland,VBO,4.815407,51.922705
Sluis,22,f,,2964AR,Groot-Ammers,Molenwaard,Zuid-Holland,VBO,4.815431,51.922486
Sluis,22,,,2964AR,Groot-Ammers,Molenwaard,Zuid-Holland,VBO,4.815282,51.922792
Sluis,23,,,2964AR,Groot-Ammers,Molenwaard,Zuid-Holland,VBO,4.814997,51.922667
Sluis,24,b,,2964AR,Groot-Ammers,Molenwaard,Zuid-Holland,VBO,4.815300,51.923021
Sluis,24,,,2964AR,Groot-Ammers,Molenwaard,Zuid-Holland,VBO,4.815082,51.922952
Sluis,26,,,2964AR,Groot-Ammers,Molenwaard,Zuid-Holland,VBO,4.814918,51.922925
Sluis,27,,,2964AR,Groot-Ammers,Molenwaard,Zuid-Holland,VBO,4.814765,51.922684
Sluis,28,,,2964AR,Groot-Ammers,Molenwaard,Zuid-Holland,VBO,4.814762,51.922899
Sluis,29,,,2964AR,Groot-Ammers,Molenwaard,Zuid-Holland,VBO,4.814632,51.922636
Sluis,30,,,2964AR,Groot-Ammers,Molenwaard,Zuid-Holland,VBO,4.814625,51.922869
Sluis,32,,,2964AS,Groot-Ammers,Molenwaard,Zuid-Holland,VBO,4.814524,51.922843
Sluis,33,,,2964AS,Groot-Ammers,Molenwaard,Zuid-Holland,VBO,4.814693,51.922249
Sluis,34,,,2964AS,Groot-Ammers,Molenwaard,Zuid-Holland,VBO,4.814345,51.922793
Sluis,35,,,2964AS,Groot-Ammers,Molenwaard,Zuid-Holland,VBO,4.814164,51.922495
Sluis,36,,,2964AS,Groot-Ammers,Molenwaard,Zuid-Holland,VBO,4.814203,51.922748
Sluis,37,,,2964AS,Groot-Ammers,Molenwaard,Zuid-Holland,VBO,4.814067,51.922441
Sluis,38,,,2964AS,Groot-Ammers,Molenwaard,Zuid-Holland,VBO,4.814008,51.922709
Sluis,41,a,,2964AS,Groot-Ammers,Molenwaard,Zuid-Holland,VBO,4.813793,51.922465
Sluis,41,,,2964AS,Groot-Ammers,Molenwaard,Zuid-Holland,VBO,4.813882,51.922483
Sluis,42,,,2964AS,Groot-Ammers,Molenwaard,Zuid-Holland,VBO,4.813739,51.922663
Sluis,43,,,2964AS,Groot-Ammers,Molenwaard,Zuid-Holland,VBO,4.813528,51.922417
Sluis,44,,,2964AS,Groot-Ammers,Molenwaard,Zuid-Holland,VBO,4.813593,51.922602
Sluis,46,,,2964AS,Groot-Ammers,Molenwaard,Zuid-Holland,VBO,4.813432,51.922577
Sluis,47,,,2964AS,Groot-Ammers,Molenwaard,Zuid-Holland,VBO,4.813720,51.922274
Sluis,49,,,2964AS,Groot-Ammers,Molenwaard,Zuid-Holland,VBO,4.813355,51.922253
Sluis,51,,,2964AS,Groot-Ammers,Molenwaard,Zuid-Holland,VBO,4.813041,51.922320
Sluis,53,a,,2964AS,Groot-Ammers,Molenwaard,Zuid-Holland,VBO,4.812630,51.921926
Sluis,53,,,2964AS,Groot-Ammers,Molenwaard,Zuid-Holland,VBO,4.812826,51.921970
Sluis,55,,,2964AT,Groot-Ammers,Molenwaard,Zuid-Holland,VBO,4.812238,51.922111
Sluis,57,,,2964AT,Groot-Ammers,Molenwaard,Zuid-Holland,VBO,4.812159,51.922093
Sluis,59,,,2964AT,Groot-Ammers,Molenwaard,Zuid-Holland,VBO,4.812003,51.922061
Sluis,61,,,2964AT,Groot-Ammers,Molenwaard,Zuid-Holland,VBO,4.811921,51.922045
Sluis,62,,,2964AT,Groot-Ammers,Molenwaard,Zuid-Holland,VBO,4.811623,51.921637
Sluis,63,a,,2964AT,Groot-Ammers,Molenwaard,Zuid-Holland,VBO,4.811246,51.921447
Sluis,63,,,2964AT,Groot-Ammers,Molenwaard,Zuid-Holland,VBO,4.810762,51.921876
Sluis,65,,,2964AT,Groot-Ammers,Molenwaard,Zuid-Holland,VBO,4.810535,51.921481
Sluis,66,,,2964AT,Groot-Ammers,Molenwaard,Zuid-Holland,VBO,4.810158,51.921342
Sluis,67,,,2964AT,Groot-Ammers,Molenwaard,Zuid-Holland,VBO,4.809931,51.921201
Sluis,68,,,2964AT,Groot-Ammers,Molenwaard,Zuid-Holland,VBO,4.809530,51.921029
Sluis,69,,,2964AT,Groot-Ammers,Molenwaard,Zuid-Holland,VBO,4.808958,51.921035
Sluis,72,,,2964AT,Groot-Ammers,Molenwaard,Zuid-Holland,VBO,4.809003,51.920816
Sluis,73,,,2964AT,Groot-Ammers,Molenwaard,Zuid-Holland,VBO,4.808816,51.921071
Sluis,74,,,2964AT,Groot-Ammers,Molenwaard,Zuid-Holland,VBO,4.808757,51.920926
Sluis,75,,,2964AT,Groot-Ammers,Molenwaard,Zuid-Holland,VBO,4.808538,51.920931
Sluis,78,,,2964AT,Groot-Ammers,Molenwaard,Zuid-Holland,VBO,4.808650,51.921048
Sluis,80,,,2964AT,Groot-Ammers,Molenwaard,Zuid-Holland,VBO,4.808442,51.921091
De Boomgaard,1,a,,2964AV,Groot-Ammers,Molenwaard,Zuid-Holland,VBO,4.832888,51.926994
De Boomgaard,1,,,2964AV,Groot-Ammers,Molenwaard,Zuid-Holland,VBO,4.832754,51.927634
De Boomgaard,3,,,2964AV,Groot-Ammers,Molenwaard,Zuid-Holland,VBO,4.832639,51.928032
De Haven,1,,,2964AW,Groot-Ammers,Molenwaard,Zuid-Holland,VBO,4.816152,51.925032
De Haven,2,,,2964AW,Groot-Ammers,Molenwaard,Zuid-Holland,VBO,4.816181,51.925560
Beatrixstraat,1,a,,2964BA,Groot-Ammers,Molenwaard,Zuid-Holland,VBO,4.822406,51.925120
Beatrixstraat,1,b,,2964BA,Groot-Ammers,Molenwaard,Zuid-Holland,VBO,4.822436,51.924900
Beatrixstraat,1,,,2964BA,Groot-Ammers,Molenwaard,Zuid-Holland,VBO,4.822298,51.924673
Beatrixstraat,3,,,2964BA,Groot-Ammers,Molenwaard,Zuid-Holland,VBO,4.822285,51.924583
Beatrixstraat,5,,,2964BA,Groot-Ammers,Molenwaard,Zuid-Holland,VBO,4.822306,51.924449
Beatrixstraat,7,,,2964BA,Groot-Ammers,Molenwaard,Zuid-Holland,VBO,4.822340,51.924395
Beatrixstraat,9,,,2964BA,Groot-Ammers,Molenwaard,Zuid-Holland,VBO,4.822373,51.924339
Beatrixstraat,11,,,2964BA,Groot-Ammers,Molenwaard,Zuid-Holland,VBO,4.822405,51.924269
Beatrixstraat,13,,,2964BA,Groot-Ammers,Molenwaard,Zuid-Holland,VBO,4.822461,51.924201
Beatrixstraat,15,,,2964BA,Groot-Ammers,Molenwaard,Zuid-Holland,VBO,4.822496,51.924145
Beatrixstraat,17,,,2964BA,Groot-Ammers,Molenwaard,Zuid-Holland,VBO,4.822538,51.924084
Beatrixstraat,19,,,2964BA,Groot-Ammers,Molenwaard,Zuid-Holland,VBO,4.822564,51.924033
Beatrixstraat,21,,,2964BA,Groot-Ammers,Molenwaard,Zuid-Holland,VBO,4.822598,51.923978
Beatrixstraat,23,,,2964BA,Groot-Ammers,Molenwaard,Zuid-Holland,VBO,4.822632,51.923923
Beatrixstraat,25,,,2964BA,Groot-Ammers,Molenwaard,Zuid-Holland,VBO,4.822851,51.923580
Beatrixstraat,27,,,2964BA,Groot-Ammers,Molenwaard,Zuid-Holland,VBO,4.822886,51.923523
Beatrixstraat,29,,,2964BA,Groot-Ammers,Molenwaard,Zuid-Holland,VBO,4.822927,51.923463
Beatrixstraat,31,,,2964BA,Groot-Ammers,Molenwaard,Zuid-Holland,VBO,4.822955,51.923411
Beatrixstraat,33,,,2964BA,Groot-Ammers,Molenwaard,Zuid-Holland,VBO,4.823016,51.923323
Beatrixstraat,35,,,2964BA,Groot-Ammers,Molenwaard,Zuid-Holland,VBO,4.823049,51.923272
Beatrixstraat,37,,,2964BA,Groot-Ammers,Molenwaard,Zuid-Holland,VBO,4.823081,51.923222
Beatrixstraat,39,,,2964BA,Groot-Ammers,Molenwaard,Zuid-Holland,VBO,4.823114,51.923172
Beatrixstraat,2,a,,2964BB,Groot-Ammers,Molenwaard,Zuid-Holland,VBO,4.821854,51.924700
Beatrixstraat,2,b,,2964BB,Groot-Ammers,Molenwaard,Zuid-Holland,VBO,4.821856,51.924599
Beatrixstraat,2,c,,2964BB,Groot-Ammers,Molenwaard,Zuid-Holland,VBO,4.821879,51.924487
Beatrixstraat,2,d,,2964BB,Groot-Ammers,Molenwaard,Zuid-Holland,VBO,4.821942,51.924395
Beatrixstraat,2,e,,2964BB,Groot-Ammers,Molenwaard,Zuid-Holland,VBO,4.821867,51.924389
Beatrixstraat,2,f,,2964BB,Groot-Ammers,Molenwaard,Zuid-Holland,VBO,4.821754,51.924413
Beatrixstraat,2,g,,2964BB,Groot-Ammers,Molenwaard,Zuid-Holland,VBO,4.821695,51.924531
Beatrixstraat,2,h,,2964BB,Groot-Ammers,Molenwaard,Zuid-Holland,VBO,4.821623,51.924626
Beatrixstraat,2,j,,2964BB,Groot-Ammers,Molenwaard,Zuid-Holland,VBO,4.821931,51.924682
Beatrixstraat,2,k,,2964BB,Groot-Ammers,Molenwaard,Zuid-Holland,VBO,4.821930,51.924720
Beatrixstraat,2,l,,2964BB,Groot-Ammers,Molenwaard,Zuid-Holland,VBO,4.821938,51.924578
Beatrixstraat,2,n,,2964BB,Groot-Ammers,Molenwaard,Zuid-Holland,VBO,4.821973,51.924394
Beatrixstraat,2,,,2964BB,Groot-Ammers,Molenwaard,Zuid-Holland,VBO,4.821708,51.925837
Beatrixstraat,4,,,2964BB,Groot-Ammers,Molenwaard,Zuid-Holland,VBO,4.822295,51.923842
Beatrixstraat,6,,,2964BB,Groot-Ammers,Molenwaard,Zuid-Holland,VBO,4.822463,51.923538
Beatrixstraat,8,,,2964BB,Groot-Ammers,Molenwaard,Zuid-Holland,VBO,4.822678,51.923293
Bernhardstraat,1,,,2964BC,Groot-Ammers,Molenwaard,Zuid-Holland,VBO,4.821058,51.923858
Bernhardstraat,2,,,2964BC,Groot-Ammers,Molenwaard,Zuid-Holland,VBO,4.821103,51.923813
Bernhardstraat,3,,,2964BC,Groot-Ammers,Molenwaard,Zuid-Holland,VBO,4.821118,51.923751
Bernhardstraat,4,,,2964BC,Groot-Ammers,Molenwaard,Zuid-Holland,VBO,4.821191,51.923697
Bernhardstraat,5,,,2964BC,Groot-Ammers,Molenwaard,Zuid-Holland,VBO,4.821207,51.923654
Bernhardstraat,6,,,2964BC,Groot-Ammers,Molenwaard,Zuid-Holland,VBO,4.821266,51.923545
Bernhardstraat,7,,,2964BC,Groot-Ammers,Molenwaard,Zuid-Holland,VBO,4.821325,51.923491
Bernhardstraat,8,,,2964BC,Groot-Ammers,Molenwaard,Zuid-Holland,VBO,4.821355,51.923428
Bernhardstraat,9,,,2964BC,Groot-Ammers,Molenwaard,Zuid-Holland,VBO,4.821414,51.923312
Bernhardstraat,10,,,2964BC,Groot-Ammers,Molenwaard,Zuid-Holland,VBO,4.821444,51.923250
Bernhardstraat,11,,,2964BC,Groot-Ammers,Molenwaard,Zuid-Holland,VBO,4.821482,51.923189
Bernhardstraat,12,,,2964BC,Groot-Ammers,Molenwaard,Zuid-Holland,VBO,4.821520,51.923129
Bernhardstraat,13,,,2964BC,Groot-Ammers,Molenwaard,Zuid-Holland,VBO,4.821559,51.923069
Bernhardstraat,14,,,2964BC,Groot-Ammers,Molenwaard,Zuid-Holland,VBO,4.821606,51.922997
Bernhardstraat,15,,,2964BC,Groot-Ammers,Molenwaard,Zuid-Holland,VBO,4.821531,51.923872
Bernhardstraat,17,,,2964BC,Groot-Ammers,Molenwaard,Zuid-Holland,VBO,4.821572,51.923798
Bernhardstraat,19,,,2964BC,Groot-Ammers,Molenwaard,Zuid-Holland,VBO,4.821622,51.923706
Bernhardstraat,21,,,2964BC,Groot-Ammers,Molenwaard,Zuid-Holland,VBO,4.821733,51.923665
Bernhardstraat,23,,,2964BC,Groot-Ammers,Molenwaard,Zuid-Holland,VBO,4.821841,51.923685
Bernhardstraat,25,,,2964BC,Groot-Ammers,Molenwaard,Zuid-Holland,VBO,4.822105,51.924140
Bernhardstraat,27,,,2964BC,Groot-Ammers,Molenwaard,Zuid-Holland,VBO,4.821986,51.924116
Bernhardstraat,29,,,2964BC,Groot-Ammers,Molenwaard,Zuid-Holland,VBO,4.821582,51.923886
Bernhardstraat,31,,,2964BC,Groot-Ammers,Molenwaard,Zuid-Holland,VBO,4.821620,51.923810
Bernhardstraat,33,,,2964BC,Groot-Ammers,Molenwaard,Zuid-Holland,VBO,4.821655,51.923725
Bernhardstraat,35,,,2964BC,Groot-Ammers,Molenwaard,Zuid-Holland,VBO,4.821741,51.923693
Bernhardstraat,37,,,2964BC,Groot-Ammers,Molenwaard,Zuid-Holland,VBO,4.821824,51.923708
Bernhardstraat,39,,,2964BC,Groot-Ammers,Molenwaard,Zuid-Holland,VBO,4.821945,51.923731
Bernhardstraat,41,,,2964BC,Groot-Ammers,Molenwaard,Zuid-Holland,VBO,4.822060,51.923753
Bernhardstraat,43,,,2964BC,Groot-Ammers,Molenwaard,Zuid-Holland,VBO,4.822155,51.923774
Bernhardstraat,45,,,2964BC,Groot-Ammers,Molenwaard,Zuid-Holland,VBO,4.822237,51.923795
Bernhardstraat,47,,,2964BC,Groot-Ammers,Molenwaard,Zuid-Holland,VBO,4.822242,51.923835
Bernhardstraat,49,,,2964BC,Groot-Ammers,Molenwaard,Zuid-Holland,VBO,4.822217,51.923882
Bernhardstraat,51,,,2964BC,Groot-Ammers,Molenwaard,Zuid-Holland,VBO,4.822190,51.923928
Bernhardstraat,53,,,2964BC,Groot-Ammers,Molenwaard,Zuid-Holland,VBO,4.822148,51.924010
Bernhardstraat,55,,,2964BC,Groot-Ammers,Molenwaard,Zuid-Holland,VBO,4.822122,51.924088
Bernhardstraat,57,,,2964BC,Groot-Ammers,Molenwaard,Zuid-Holland,VBO,4.822010,51.924067
Bernhardstraat,59,,,2964BC,Groot-Ammers,Molenwaard,Zuid-Holland,VBO,4.821933,51.924052
Bernhardstraat,61,,,2964BC,Groot-Ammers,Molenwaard,Zuid-Holland,VBO,4.821844,51.924034
Bernhardstraat,63,,,2964BC,Groot-Ammers,Molenwaard,Zuid-Holland,VBO,4.821755,51.924017
Bernhardstraat,65,,,2964BC,Groot-Ammers,Molenwaard,Zuid-Holland,VBO,4.821668,51.924000
Bernhardstraat,67,,,2964BC,Groot-Ammers,Molenwaard,Zuid-Holland,VBO,4.821588,51.923986
Bernhardstraat,69,,,2964BC,Groot-Ammers,Molenwaard,Zuid-Holland,VBO,4.821506,51.923970
Bernhardstraat,71,,,2964BC,Groot-Ammers,Molenwaard,Zuid-Holland,VBO,4.821633,51.923898
Bernhardstraat,73,,,2964BC,Groot-Ammers,Molenwaard,Zuid-Holland,VBO,4.821670,51.923821
Bernhardstraat,75,,,2964BC,Groot-Ammers,Molenwaard,Zuid-Holland,VBO,4.821720,51.923718
Bernhardstraat,77,,,2964BC,Groot-Ammers,Molenwaard,Zuid-Holland,VBO,4.821809,51.923738
Bernhardstraat,79,,,2964BC,Groot-Ammers,Molenwaard,Zuid-Holland,VBO,4.821927,51.923761
Bernhardstraat,81,,,2964BC,Groot-Ammers,Molenwaard,Zuid-Holland,VBO,4.822036,51.923790
Bernhardstraat,83,,,2964BC,Groot-Ammers,Molenwaard,Zuid-Holland,VBO,4.822133,51.923808
Bernhardstraat,85,,,2964BC,Groot-Ammers,Molenwaard,Zuid-Holland,VBO,4.822192,51.923818
Bernhardstraat,87,,,2964BC,Groot-Ammers,Molenwaard,Zuid-Holland,VBO,4.822195,51.923843
Bernhardstraat,89,,,2964BC,Groot-Ammers,Molenwaard,Zuid-Holland,VBO,4.822170,51.923874
Bernhardstraat,91,,,2964BC,Groot-Ammers,Molenwaard,Zuid-Holland,VBO,4.822137,51.923919
Bernhardstraat,93,,,2964BC,Groot-Ammers,Molenwaard,Zuid-Holland,VBO,4.822100,51.923993
Bernhardstraat,95,,,2964BC,Groot-Ammers,Molenwaard,Zuid-Holland,VBO,4.822108,51.924041
Bernhardstraat,97,,,2964BC,Groot-Ammers,Molenwaard,Zuid-Holland,VBO,4.822036,51.924027
Bernhardstraat,99,,,2964BC,Groot-Ammers,Molenwaard,Zuid-Holland,VBO,4.821958,51.924010
Bernhardstraat,101,,,2964BC,Groot-Ammers,Molenwaard,Zuid-Holland,VBO,4.821874,51.923995
Bernhardstraat,103,,,2964BC,Groot-Ammers,Molenwaard,Zuid-Holland,VBO,4.821784,51.923980
Bernhardstraat,105,,,2964BC,Groot-Ammers,Molenwaard,Zuid-Holland,VBO,4.821702,51.923966
Bernhardstraat,107,,,2964BC,Groot-Ammers,Molenwaard,Zuid-Holland,VBO,4.821620,51.923951
Bernhardstraat,109,,,2964BC,Groot-Ammers,Molenwaard,Zuid-Holland,VBO,4.821536,51.923931
Bernhardstraat,113,,,2964BC,Groot-Ammers,Molenwaard,Zuid-Holland,VBO,4.821724,51.923380
Bernhardstraat,115,,,2964BC,Groot-Ammers,Molenwaard,Zuid-Holland,VBO,4.821862,51.923094
Bernhardstraat,117,,,2964BC,Groot-Ammers,Molenwaard,Zuid-Holland,VBO,4.821798,51.923244
Bernhardstraat,119,,,2964BC,Groot-Ammers,Molenwaard,Zuid-Holland,VBO,4.821916,51.923075
Bernhardstraat,121,,,2964BC,Groot-Ammers,Molenwaard,Zuid-Holland,VBO,4.821979,51.923081
Bernhardstraat,123,,,2964BC,Groot-Ammers,Molenwaard,Zuid-Holland,VBO,4.822098,51.923086
Bernhardstraat,125,,,2964BC,Groot-Ammers,Molenwaard,Zuid-Holland,VBO,4.822203,51.923107
Bernhardstraat,127,,,2964BC,Groot-Ammers,Molenwaard,Zuid-Holland,VBO,4.822321,51.923122
Bernhardstraat,129,,,2964BC,Groot-Ammers,Molenwaard,Zuid-Holland,VBO,4.822420,51.923129
Bernhardstraat,131,,,2964BC,Groot-Ammers,Molenwaard,Zuid-Holland,VBO,4.822570,51.923153
Bernhardstraat,133,,,2964BC,Groot-Ammers,Molenwaard,Zuid-Holland,VBO,4.822693,51.923196
Bernhardstraat,135,,,2964BC,Groot-Ammers,Molenwaard,Zuid-Holland,VBO,4.822588,51.923355
Bernhardstraat,137,,,2964BC,Groot-Ammers,Molenwaard,Zuid-Holland,VBO,4.822451,51.923526
Bernhardstraat,139,,,2964BC,Groot-Ammers,Molenwaard,Zuid-Holland,VBO,4.822321,51.923494
Bernhardstraat,141,,,2964BC,Groot-Ammers,Molenwaard,Zuid-Holland,VBO,4.822250,51.923485
Bernhardstraat,143,,,2964BC,Groot-Ammers,Molenwaard,Zuid-Holland,VBO,4.822127,51.923458
Bernhardstraat,145,,,2964BC,Groot-Ammers,Molenwaard,Zuid-Holland,VBO,4.822032,51.923443
Bernhardstraat,147,,,2964BC,Groot-Ammers,Molenwaard,Zuid-Holland,VBO,4.821943,51.923431
Bernhardstraat,149,,,2964BC,Groot-Ammers,Molenwaard,Zuid-Holland,VBO,4.821821,51.923393
Bernhardstraat,151,,,2964BC,Groot-Ammers,Molenwaard,Zuid-Holland,VBO,4.821718,51.923360
Bernhardstraat,153,,,2964BC,Groot-Ammers,Molenwaard,Zuid-Holland,VBO,4.821981,51.923107
Bernhardstraat,155,,,2964BC,Groot-Ammers,Molenwaard,Zuid-Holland,VBO,4.822147,51.923113
Bernhardstraat,157,,,2964BC,Groot-Ammers,Molenwaard,Zuid-Holland,VBO,4.822455,51.923149
Bernhardstraat,159,,,2964BC,Groot-Ammers,Molenwaard,Zuid-Holland,VBO,4.822609,51.923174
Bernhardstraat,161,,,2964BC,Groot-Ammers,Molenwaard,Zuid-Holland,VBO,4.822668,51.923220
Bernhardstraat,163,,,2964BC,Groot-Ammers,Molenwaard,Zuid-Holland,VBO,4.822456,51.923507
Bernhardstraat,165,,,2964BC,Groot-Ammers,Molenwaard,Zuid-Holland,VBO,4.822375,51.923483
Bernhardstraat,167,,,2964BC,Groot-Ammers,Molenwaard,Zuid-Holland,VBO,4.822287,51.923469
Bernhardstraat,169,,,2964BC,Groot-Ammers,Molenwaard,Zuid-Holland,VBO,4.822168,51.923449
Bernhardstraat,171,,,2964BC,Groot-Ammers,Molenwaard,Zuid-Holland,VBO,4.822058,51.923430
Bernhardstraat,173,,,2964BC,Groot-Ammers,Molenwaard,Zuid-Holland,VBO,4.821971,51.923409
Bernhardstraat,175,,,2964BC,Groot-Ammers,Molenwaard,Zuid-Holland,VBO,4.821864,51.923387
Bernhardstraat,177,,,2964BC,Groot-Ammers,Molenwaard,Zuid-Holland,VBO,4.821772,51.923351
Emmastraat,1,,,2964BD,Groot-Ammers,Molenwaard,Zuid-Holland,VBO,4.819481,51.923782
Emmastraat,2,,,2964BD,Groot-Ammers,Molenwaard,Zuid-Holland,VBO,4.819736,51.923816
Emmastraat,3,,,2964BD,Groot-Ammers,Molenwaard,Zuid-Holland,VBO,4.819430,51.923859
Emmastraat,4,,,2964BD,Groot-Ammers,Molenwaard,Zuid-Holland,VBO,4.819691,51.923915
Emmastraat,5,,,2964BD,Groot-Ammers,Molenwaard,Zuid-Holland,VBO,4.819415,51.923922
Emmastraat,6,,,2964BD,Groot-Ammers,Molenwaard,Zuid-Holland,VBO,4.819647,51.923995
Emmastraat,7,,,2964BD,Groot-Ammers,Molenwaard,Zuid-Holland,VBO,4.819370,51.923985
Emmastraat,8,,,2964BD,Groot-Ammers,Molenwaard,Zuid-Holland,VBO,4.819587,51.924076
Emmastraat,9,,,2964BD,Groot-Ammers,Molenwaard,Zuid-Holland,VBO,4.819238,51.924077
Emmastraat,10,,,2964BD,Groot-Ammers,Molenwaard,Zuid-Holland,VBO,4.819559,51.924128
Emmastraat,11,,,2964BD,Groot-Ammers,Molenwaard,Zuid-Holland,VBO,4.819223,51.924137
Emmastraat,12,,,2964BD,Groot-Ammers,Molenwaard,Zuid-Holland,VBO,4.819513,51.924192
Emmastraat,13,,,2964BD,Groot-Ammers,Molenwaard,Zuid-Holland,VBO,4.819207,51.924236
Emmastraat,14,,,2964BD,Groot-Ammers,Molenwaard,Zuid-Holland,VBO,4.819469,51.924246
Emmastraat,15,,,2964BD,Groot-Ammers,Molenwaard,Zuid-Holland,VBO,4.819178,51.924281
Emmastraat,16,,,2964BD,Groot-Ammers,Molenwaard,Zuid-Holland,VBO,4.819424,51.924327
Emmastraat,18,,,2964BD,Groot-Ammers,Molenwaard,Zuid-Holland,VBO,4.819380,51.924371
Emmastraat,19,a,,2964BD,Groot-Ammers,Molenwaard,Zuid-Holland,VBO,4.819063,51.924467
Emmastraat,19,,,2964BD,Groot-Ammers,Molenwaard,Zuid-Holland,VBO,4.819027,51.924445
Emmastraat,20,,,2964BD,Groot-Ammers,Molenwaard,Zuid-Holland,VBO,4.819248,51.924670
Emmastraat,21,,,2964BD,Groot-Ammers,Molenwaard,Zuid-Holland,VBO,4.819000,51.924504
Emmastraat,23,,,2964BD,Groot-Ammers,Molenwaard,Zuid-Holland,VBO,4.818942,51.924558
Emmastraat,25,a,,2964BD,Groot-Ammers,Molenwaard,Zuid-Holland,VBO,4.818900,51.924612
Emmastraat,25,,,2964BD,Groot-Ammers,Molenwaard,Zuid-Holland,VBO,4.818939,51.924629
Fortuijnplein,2,,,2964BE,Groot-Ammers,Molenwaard,Zuid-Holland,VBO,4.819322,51.923248
Fortuijnplein,3,,,2964BE,Groot-Ammers,Molenwaard,Zuid-Holland,VBO,4.819313,51.923165
Fortuijnplein,4,,,2964BE,Groot-Ammers,Molenwaard,Zuid-Holland,VBO,4.819455,51.923051
Fortuijnplein,5,,,2964BE,Groot-Ammers,Molenwaard,Zuid-Holland,VBO,4.819499,51.922988
Fortuijnplein,7,,,2964BE,Groot-Ammers,Molenwaard,Zuid-Holland,VBO,4.819552,51.922852
Fortuijnplein,8,a,,2964BE,Groot-Ammers,Molenwaard,Zuid-Holland,VBO,4.820033,51.923006
Fortuijnplein,8,b,,2964BE,Groot-Ammers,Molenwaard,Zuid-Holland,VBO,4.819954,51.922989
Fortuijnplein,8,c,,2964BE,Groot-Ammers,Molenwaard,Zuid-Holland,VBO,4.819870,51.922970
Fortuijnplein,9,,,2964BE,Groot-Ammers,Molenwaard,Zuid-Holland,VBO,4.819722,51.922647
Fortuijnplein,10,,,2964BE,Groot-Ammers,Molenwaard,Zuid-Holland,VBO,4.819752,51.922585
Fortuijnplein,11,a,,2964BE,Groot-Ammers,Molenwaard,Zuid-Holland,VBO,4.819993,51.922343
Fortuijnplein,11,,,2964BE,Groot-Ammers,Molenwaard,Zuid-Holland,VBO,4.819782,51.922486
Fortuijnplein,12,,,2964BE,Groot-Ammers,Molenwaard,Zuid-Holland,VBO,4.820140,51.922420
Fortuijnplein,13,a,,2964BE,Groot-Ammers,Molenwaard,Zuid-Holland,VBO,4.819914,51.922714
Fortuijnplein,13,a,,2964BE,Groot-Ammers,Molenwaard,Zuid-Holland,VBO,4.820114,51.922767
Fortuijnplein,13,b,,2964BE,Groot-Ammers,Molenwaard,Zuid-Holland,VBO,4.820000,51.922732
Fortuijnplein,13,c,,2964BE,Groot-Ammers,Molenwaard,Zuid-Holland,VBO,4.820125,51.922755
Fortuijnplein,13,d,,2964BE,Groot-Ammers,Molenwaard,Zuid-Holland,VBO,4.820221,51.922794
Fortuijnplein,13,,,2964BE,Groot-Ammers,Molenwaard,Zuid-Holland,VBO,4.820190,51.922425
Fortuijnplein,14,a,,2964BE,Groot-Ammers,Molenwaard,Zuid-Holland,VBO,4.820459,51.922458
Fortuijnplein,14,b,,2964BE,Groot-Ammers,Molenwaard,Zuid-Holland,VBO,4.820545,51.922479
Fortuijnplein,14,,,2964BE,Groot-Ammers,Molenwaard,Zuid-Holland,VBO,4.820321,51.922426
Fortuijnplein,15,,,2964BE,Groot-Ammers,Molenwaard,Zuid-Holland,VBO,4.820535,51.922678
Fortuijnplein,16,,,2964BE,Groot-Ammers,Molenwaard,Zuid-Holland,VBO,4.820461,51.922777
Fortuijnplein,17,,,2964BE,Groot-Ammers,Molenwaard,Zuid-Holland,VBO,4.820402,51.922857
Fortuijnplein,18,,,2964BE,Groot-Ammers,Molenwaard,Zuid-Holland,VBO,4.820358,51.922929
Fortuijnplein,19,,,2964BE,Groot-Ammers,Molenwaard,Zuid-Holland,VBO,4.820328,51.922992
Fortuijnplein,20,,,2964BE,Groot-Ammers,Molenwaard,Zuid-Holland,VBO,4.820283,51.923072
Fortuijnplein,21,,,2964BE,Groot-Ammers,Molenwaard,Zuid-Holland,VBO,4.820209,51.923171
Fortuijnplein,22,,,2964BE,Groot-Ammers,Molenwaard,Zuid-Holland,VBO,4.820165,51.923225
Fortuijnplein,25,a,,2964BE,Groot-Ammers,Molenwaard,Zuid-Holland,VBO,4.820195,51.923347
Fortuijnplein,25,,,2964BE,Groot-Ammers,Molenwaard,Zuid-Holland,VBO,4.820012,51.923645
Graafland,2,,,2964BG,Groot-Ammers,Molenwaard,Zuid-Holland,VBO,4.821222,51.921314
Graafland,3,,,2964BG,Groot-Ammers,Molenwaard,Zuid-Holland,VBO,4.821482,51.921307
Graafland,4,,,2964BG,Groot-Ammers,Molenwaard,Zuid-Holland,VBO,4.821495,51.921769
Graafland,6,,,2964BG,Groot-Ammers,Molenwaard,Zuid-Holland,VBO,4.822111,51.921523
Graafland,7,,,2964BG,Groot-Ammers,Molenwaard,Zuid-Holland,VBO,4.822923,51.921207
Graafland,8,a,,2964BG,Groot-Ammers,Molenwaard,Zuid-Holland,VBO,4.822276,51.921809
Graafland,8,b,,2964BG,Groot-Ammers,Molenwaard,Zuid-Holland,VBO,4.822069,51.921989
Graafland,8,c,,2964BG,Groot-Ammers,Molenwaard,Zuid-Holland,VBO,4.821837,51.922145
Graafland,8,,,2964BG,Groot-Ammers,Molenwaard,Zuid-Holland,VBO,4.822570,51.921600
Graafland,9,,,2964BG,Groot-Ammers,Molenwaard,Zuid-Holland,VBO,4.822816,51.921647
Graafland,10,,,2964BG,Groot-Ammers,Molenwaard,Zuid-Holland,VBO,4.823005,51.921629
Graafland,11,,,2964BG,Groot-Ammers,Molenwaard,Zuid-Holland,VBO,4.823179,51.921702
Graafland,12,a,,2964BG,Groot-Ammers,Molenwaard,Zuid-Holland,VBO,4.824189,51.921463
Graafland,13,,,2964BG,Groot-Ammers,Molenwaard,Zuid-Holland,VBO,4.824681,51.921653
Graafland,14,a,,2964BG,Groot-Ammers,Molenwaard,Zuid-Holland,VBO,4.824296,51.921986
Graafland,14,b,,2964BG,Groot-Ammers,Molenwaard,Zuid-Holland,VBO,4.824206,51.922088
Graafland,14,,,2964BG,Groot-Ammers,Molenwaard,Zuid-Holland,VBO,4.824230,51.921966
Graafland,16,a,,2964BG,Groot-Ammers,Molenwaard,Zuid-Holland,VBO,4.825328,51.921587
Graafland,16,,,2964BG,Groot-Ammers,Molenwaard,Zuid-Holland,VBO,4.825215,51.921686
Graafland,17,a,,2964BH,Groot-Ammers,Molenwaard,Zuid-Holland,VBO,4.825446,51.922214
Graafland,17,b,,2964BH,Groot-Ammers,Molenwaard,Zuid-Holland,VBO,4.825774,51.922262
Graafland,17,,,2964BH,Groot-Ammers,Molenwaard,Zuid-Holland,VBO,4.825036,51.922102
Graafland,18,a,,2964BH,Groot-Ammers,Molenwaard,Zuid-Holland,VBO,4.825500,51.921771
Graafland,18,,,2964BH,Groot-Ammers,Molenwaard,Zuid-Holland,VBO,4.825403,51.921735
Graafland,19,,,2964BH,Groot-Ammers,Molenwaard,Zuid-Holland,VBO,4.826211,51.922366
Graafland,20,,,2964BH,Groot-Ammers,Molenwaard,Zuid-Holland,VBO,4.826629,51.922606
Graafland,21,,,2964BH,Groot-Ammers,Molenwaard,Zuid-Holland,VBO,4.826915,51.922629
Graafland,22,,,2964BH,Groot-Ammers,Molenwaard,Zuid-Holland,VBO,4.827841,51.922585
Graafland,23,,,2964BH,Groot-Ammers,Molenwaard,Zuid-Holland,VBO,4.828136,51.922252
Graafland,24,,,2964BH,Groot-Ammers,Molenwaard,Zuid-Holland,VBO,4.828430,51.922599
Graafland,25,,,2964BH,Groot-Ammers,Molenwaard,Zuid-Holland,VBO,4.828852,51.922125
Graafland,26,a,,2964BH,Groot-Ammers,Molenwaard,Zuid-Holland,VBO,4.829502,51.922603
Graafland,26,,,2964BH,Groot-Ammers,Molenwaard,Zuid-Holland,VBO,4.829418,51.922676
Graafland,27,,,2964BH,Groot-Ammers,Molenwaard,Zuid-Holland,VBO,4.829973,51.922571
Graafland,28,,,2964BH,Groot-Ammers,Molenwaard,Zuid-Holland,VBO,4.830320,51.922628
Graafland,29,,,2964BH,Groot-Ammers,Molenwaard,Zuid-Holland,VBO,4.831463,51.922477
Graafland,30,,,2964BH,Groot-Ammers,Molenwaard,Zuid-Holland,VBO,4.833151,51.921687
Graafland,31,,,2964BJ,Groot-Ammers,Molenwaard,Zuid-Holland,VBO,4.833061,51.922142
Graafland,32,a,,2964BJ,Groot-Ammers,Molenwaard,Zuid-Holland,VBO,4.834836,51.922001
Graafland,32,,,2964BJ,Groot-Ammers,Molenwaard,Zuid-Holland,VBO,4.835036,51.921567
Graafland,33,,,2964BJ,Groot-Ammers,Molenwaard,Zuid-Holland,VBO,4.835496,51.921671
Graafland,34,,,2964BJ,Groot-Ammers,Molenwaard,Zuid-Holland,VBO,4.835797,51.921705
Graafland,35,,,2964BJ,Groot-Ammers,Molenwaard,Zuid-Holland,VBO,4.835350,51.922238
Graafland,36,,,2964BJ,Groot-Ammers,Molenwaard,Zuid-Holland,VBO,4.836065,51.922151
Graafland,37,,,2964BJ,Groot-Ammers,Molenwaard,Zuid-Holland,VBO,4.836170,51.921774
Graafland,38,a,,2964BJ,Groot-Ammers,Molenwaard,Zuid-Holland,VBO,4.836908,51.922204
Graafland,38,,,2964BJ,Groot-Ammers,Molenwaard,Zuid-Holland,VBO,4.836524,51.922265
Graafland,38,,,2964BJ,Groot-Ammers,Molenwaard,Zuid-Holland,VBO,4.836530,51.922251
Graafland,39,,,2964BJ,Groot-Ammers,Molenwaard,Zuid-Holland,VBO,4.837671,51.922144
Graafland,40,,,2964BJ,Groot-Ammers,Molenwaard,Zuid-Holland,VBO,4.837873,51.922139
Graafland,42,,,2964BJ,Groot-Ammers,Molenwaard,Zuid-Holland,VBO,4.839073,51.922216
Graafland,43,a,,2964BJ,Groot-Ammers,Molenwaard,Zuid-Holland,VBO,4.839365,51.921908
Graafland,43,,,2964BJ,Groot-Ammers,Molenwaard,Zuid-Holland,VBO,4.839215,51.922227
Graafland,44,,,2964BJ,Groot-Ammers,Molenwaard,Zuid-Holland,VBO,4.839926,51.922288
Graafland,45,,,2964BJ,Groot-Ammers,Molenwaard,Zuid-Holland,VBO,4.840021,51.922316
Graafland,46,,,2964BJ,Groot-Ammers,Molenwaard,Zuid-Holland,VBO,4.840559,51.922270
Graafland,47,,,2964BJ,Groot-Ammers,Molenwaard,Zuid-Holland,VBO,4.840898,51.922272
Graafland,48,,,2964BJ,Groot-Ammers,Molenwaard,Zuid-Holland,VBO,4.841309,51.922276
Graafland,50,,,2964BJ,Groot-Ammers,Molenwaard,Zuid-Holland,VBO,4.842313,51.922319
Graafland,51,a,,2964BJ,Groot-Ammers,Molenwaard,Zuid-Holland,VBO,4.844467,51.922396
Graafland,51,,,2964BJ,Groot-Ammers,Molenwaard,Zuid-Holland,VBO,4.843446,51.922411
Graafland,52,,,2964BJ,Groot-Ammers,Molenwaard,Zuid-Holland,VBO,4.845703,51.921831
Graafland,54,,,2964BJ,Groot-Ammers,Molenwaard,Zuid-Holland,VBO,4.846837,51.922270
Graafland,55,,,2964BJ,Groot-Ammers,Molenwaard,Zuid-Holland,VBO,4.847623,51.922248
Graafland,56,,,2964BJ,Groot-Ammers,Molenwaard,Zuid-Holland,VBO,4.848329,51.922259
Graafland,57,,,2964BJ,Groot-Ammers,Molenwaard,Zuid-Holland,VBO,4.849178,51.922354
Graafland,58,a,,2964BJ,Groot-Ammers,Molenwaard,Zuid-Holland,VBO,4.850080,51.922562
Graafland,58,,,2964BJ,Groot-Ammers,Molenwaard,Zuid-Holland,VBO,4.849792,51.922106
Graafland,59,a,,2964BJ,Groot-Ammers,Molenwaard,Zuid-Holland,VBO,4.851630,51.923095
Graafland,59,,,2964BJ,Groot-Ammers,Molenwaard,Zuid-Holland,VBO,4.850395,51.922631
Graafland,60,a,,2964BK,Groot-Ammers,Molenwaard,Zuid-Holland,VBO,4.853401,51.923152
Graafland,60,,,2964BK,Groot-Ammers,Molenwaard,Zuid-Holland,VBO,4.852365,51.923246
Graafland,61,,,2964BK,Groot-Ammers,Molenwaard,Zuid-Holland,VBO,4.853673,51.923803
Graafland,62,,,2964BK,Groot-Ammers,Molenwaard,Zuid-Holland,VBO,4.854123,51.923840
Graafland,63,,,2964BK,Groot-Ammers,Molenwaard,Zuid-Holland,VBO,4.854960,51.924182
Graafland,64,,,2964BK,Groot-Ammers,Molenwaard,Zuid-Holland,VBO,4.855227,51.924349
Graafland,66,a,,2964BK,Groot-Ammers,Molenwaard,Zuid-Holland,VBO,4.855663,51.924656
Graafland,66,b,,2964BK,Groot-Ammers,Molenwaard,Zuid-Holland,VBO,4.856019,51.924542
Graafland,66,,,2964BK,Groot-Ammers,Molenwaard,Zuid-Holland,VBO,4.855524,51.924394
Graafland,67,a,,2964BK,Groot-Ammers,Molenwaard,Zuid-Holland,VBO,4.856437,51.924228
Graafland,67,,,2964BK,Groot-Ammers,Molenwaard,Zuid-Holland,VBO,4.856493,51.924706
Graafland,68,,,2964BK,Groot-Ammers,Molenwaard,Zuid-Holland,VBO,4.857363,51.924393
Graafland,69,,,2964BK,Groot-Ammers,Molenwaard,Zuid-Holland,VBO,4.857302,51.924843
Graafland,70,,,2964BK,Groot-Ammers,Molenwaard,Zuid-Holland,VBO,4.857689,51.924901
Graafland,71,a,,2964BK,Groot-Ammers,Molenwaard,Zuid-Holland,VBO,4.858441,51.925178
Graafland,71,,,2964BK,Groot-Ammers,Molenwaard,Zuid-Holland,VBO,4.858573,51.925157
Graafland,72,,,2964BK,Groot-Ammers,Molenwaard,Zuid-Holland,VBO,4.859361,51.925244
Graafland,73,a,,2964BK,Groot-Ammers,Molenwaard,Zuid-Holland,VBO,4.861423,51.925123
Graafland,73,,,2964BK,Groot-Ammers,Molenwaard,Zuid-Holland,VBO,4.859528,51.925283
Graafland,74,,,2964BK,Groot-Ammers,Molenwaard,Zuid-Holland,VBO,4.861650,51.925613
Graafland,75,,,2964BK,Groot-Ammers,Molenwaard,Zuid-Holland,VBO,4.861593,51.925707
Graafland,76,,,2964BK,Groot-Ammers,Molenwaard,Zuid-Holland,VBO,4.861840,51.925670
Graafland,77,,,2964BK,Groot-Ammers,Molenwaard,Zuid-Holland,VBO,4.862700,51.925822
Graafland,79,,,2964BK,Groot-Ammers,Molenwaard,Zuid-Holland,VBO,4.862927,51.926308
Graafland,80,,,2964BK,Groot-Ammers,Molenwaard,Zuid-Holland,VBO,4.863635,51.926054
Graafland,81,,,2964BK,Groot-Ammers,Molenwaard,Zuid-Holland,VBO,4.864524,51.925776
Graafland,82,a,,2964BK,Groot-Ammers,Molenwaard,Zuid-Holland,VBO,4.866952,51.926751
Graafland,82,,,2964BK,Groot-Ammers,Molenwaard,Zuid-Holland,VBO,4.864961,51.926333
Graafland,83,a,,2964BK,Groot-Ammers,Molenwaard,Zuid-Holland,VBO,4.868436,51.926514
Graafland,83,,,2964BK,Groot-Ammers,Molenwaard,Zuid-Holland,VBO,4.868051,51.926934
Graafland,84,,,2964BK,Groot-Ammers,Molenwaard,Zuid-Holland,VBO,4.869574,51.927319
Graafland,85,,,2964BK,Groot-Ammers,Molenwaard,Zuid-Holland,VBO,4.869667,51.927114
Graafland,86,,,2964BK,Groot-Ammers,Molenwaard,Zuid-Holland,VBO,4.870128,51.927230
Graafland,87,,,2964BK,Groot-Ammers,Molenwaard,Zuid-Holland,VBO,4.870695,51.926398
Irenestraat,1,a,,2964BL,Groot-Ammers,Molenwaard,Zuid-Holland,VBO,4.820871,51.922838
Irenestraat,1,,,2964BL,Groot-Ammers,Molenwaard,Zuid-Holland,VBO,4.821992,51.923062
Irenestraat,2,,,2964BL,Groot-Ammers,Molenwaard,Zuid-Holland,VBO,4.820748,51.922544
Irenestraat,3,,,2964BL,Groot-Ammers,Molenwaard,Zuid-Holland,VBO,4.822181,51.923085
Irenestraat,4,,,2964BL,Groot-Ammers,Molenwaard,Zuid-Holland,VBO,4.821104,51.922642
Irenestraat,5,,,2964BL,Groot-Ammers,Molenwaard,Zuid-Holland,VBO,4.822306,51.923095
Irenestraat,6,,,2964BL,Groot-Ammers,Molenwaard,Zuid-Holland,VBO,4.821133,51.922595
Irenestraat,7,,,2964BL,Groot-Ammers,Molenwaard,Zuid-Holland,VBO,4.822498,51.923123
Irenestraat,8,,,2964BL,Groot-Ammers,Molenwaard,Zuid-Holland,VBO,4.821148,51.922550
Irenestraat,9,a,,2964BL,Groot-Ammers,Molenwaard,Zuid-Holland,VBO,4.822734,51.923204
Irenestraat,9,,,2964BL,Groot-Ammers,Molenwaard,Zuid-Holland,VBO,4.822674,51.923157
Irenestraat,10,,,2964BL,Groot-Ammers,Molenwaard,Zuid-Holland,VBO,4.821175,51.922507
Irenestraat,11,a,,2964BL,Groot-Ammers,Molenwaard,Zuid-Holland,VBO,4.823433,51.923280
Irenestraat,11,,,2964BL,Groot-Ammers,Molenwaard,Zuid-Holland,VBO,4.823682,51.923343
Irenestraat,12,,,2964BL,Groot-Ammers,Molenwaard,Zuid-Holland,VBO,4.821210,51.922467
Irenestraat,13,,,2964BL,Groot-Ammers,Molenwaard,Zuid-Holland,VBO,4.824365,51.923481
Irenestraat,14,,,2964BL,Groot-Ammers,Molenwaard,Zuid-Holland,VBO,4.821236,51.922423
Irenestraat,15,,,2964BL,Groot-Ammers,Molenwaard,Zuid-Holland,VBO,4.825091,51.923434
Irenestraat,16,,,2964BL,Groot-Ammers,Molenwaard,Zuid-Holland,VBO,4.821262,51.922381
Irenestraat,17,,,2964BL,Groot-Ammers,Molenwaard,Zuid-Holland,VBO,4.825075,51.923494
Irenestraat,18,,,2964BL,Groot-Ammers,Molenwaard,Zuid-Holland,VBO,4.821279,51.922335
Irenestraat,19,,,2964BL,Groot-Ammers,Molenwaard,Zuid-Holland,VBO,4.825060,51.923554
Irenestraat,20,,,2964BL,Groot-Ammers,Molenwaard,Zuid-Holland,VBO,4.821320,51.922291
Irenestraat,21,,,2964BL,Groot-Ammers,Molenwaard,Zuid-Holland,VBO,4.825044,51.923613
Irenestraat,22,,,2964BL,Groot-Ammers,Molenwaard,Zuid-Holland,VBO,4.821710,51.922783
Irenestraat,23,,,2964BL,Groot-Ammers,Molenwaard,Zuid-Holland,VBO,4.825028,51.923673
Irenestraat,24,,,2964BL,Groot-Ammers,Molenwaard,Zuid-Holland,VBO,4.821734,51.922734
Irenestraat,25,,,2964BL,Groot-Ammers,Molenwaard,Zuid-Holland,VBO,4.825527,51.923477
Irenestraat,26,,,2964BL,Groot-Ammers,Molenwaard,Zuid-Holland,VBO,4.821768,51.922694
Irenestraat,27,,,2964BL,Groot-Ammers,Molenwaard,Zuid-Holland,VBO,4.825511,51.923537
Irenestraat,28,,,2964BL,Groot-Ammers,Molenwaard,Zuid-Holland,VBO,4.821785,51.922648
Irenestraat,29,,,2964BL,Groot-Ammers,Molenwaard,Zuid-Holland,VBO,4.825495,51.923597
Irenestraat,30,,,2964BL,Groot-Ammers,Molenwaard,Zuid-Holland,VBO,4.821820,51.922608
Irenestraat,31,,,2964BL,Groot-Ammers,Molenwaard,Zuid-Holland,VBO,4.825480,51.923656
Irenestraat,32,,,2964BL,Groot-Ammers,Molenwaard,Zuid-Holland,VBO,4.821837,51.922562
Irenestraat,33,,,2964BL,Groot-Ammers,Molenwaard,Zuid-Holland,VBO,4.825464,51.923717
Irenestraat,34,,,2964BL,Groot-Ammers,Molenwaard,Zuid-Holland,VBO,4.821872,51.922522
Irenestraat,35,,,2964BL,Groot-Ammers,Molenwaard,Zuid-Holland,VBO,4.827117,51.923660
Irenestraat,36,,,2964BL,Groot-Ammers,Molenwaard,Zuid-Holland,VBO,4.821889,51.922476
Irenestraat,37,,,2964BL,Groot-Ammers,Molenwaard,Zuid-Holland,VBO,4.827215,51.923669
Irenestraat,38,,,2964BL,Groot-Ammers,Molenwaard,Zuid-Holland,VBO,4.821913,51.922428
Irenestraat,39,,,2964BL,Groot-Ammers,Molenwaard,Zuid-Holland,VBO,4.827311,51.923679
Irenestraat,40,,,2964BL,Groot-Ammers,Molenwaard,Zuid-Holland,VBO,4.822094,51.922846
Irenestraat,41,,,2964BL,Groot-Ammers,Molenwaard,Zuid-Holland,VBO,4.827407,51.923688
Irenestraat,42,,,2964BL,Groot-Ammers,Molenwaard,Zuid-Holland,VBO,4.822128,51.922796
Irenestraat,43,,,2964BL,Groot-Ammers,Molenwaard,Zuid-Holland,VBO,4.827504,51.923698
Irenestraat,44,,,2964BL,Groot-Ammers,Molenwaard,Zuid-Holland,VBO,4.822144,51.922752
Irenestraat,45,,,2964BL,Groot-Ammers,Molenwaard,Zuid-Holland,VBO,4.827601,51.923707
Irenestraat,46,,,2964BL,Groot-Ammers,Molenwaard,Zuid-Holland,VBO,4.822169,51.922708
Irenestraat,48,,,2964BL,Groot-Ammers,Molenwaard,Zuid-Holland,VBO,4.822195,51.922665
Irenestraat,50,,,2964BL,Groot-Ammers,Molenwaard,Zuid-Holland,VBO,4.822231,51.922624
Irenestraat,52,,,2964BL,Groot-Ammers,Molenwaard,Zuid-Holland,VBO,4.822247,51.922580
Irenestraat,54,,,2964BL,Groot-Ammers,Molenwaard,Zuid-Holland,VBO,4.822273,51.922536
Irenestraat,56,,,2964BL,Groot-Ammers,Molenwaard,Zuid-Holland,VBO,4.822315,51.922492
Irenestraat,58,,,2964BL,Groot-Ammers,Molenwaard,Zuid-Holland,VBO,4.822737,51.922942
Irenestraat,60,,,2964BL,Groot-Ammers,Molenwaard,Zuid-Holland,VBO,4.822763,51.922897
Irenestraat,62,,,2964BL,Groot-Ammers,Molenwaard,Zuid-Holland,VBO,4.822788,51.922855
Irenestraat,64,,,2964BL,Groot-Ammers,Molenwaard,Zuid-Holland,VBO,4.822805,51.922809
Irenestraat,66,,,2964BL,Groot-Ammers,Molenwaard,Zuid-Holland,VBO,4.822830,51.922767
Irenestraat,68,,,2964BL,Groot-Ammers,Molenwaard,Zuid-Holland,VBO,4.822858,51.922725
Irenestraat,70,,,2964BL,Groot-Ammers,Molenwaard,Zuid-Holland,VBO,4.822892,51.922683
Irenestraat,72,,,2964BL,Groot-Ammers,Molenwaard,Zuid-Holland,VBO,4.822908,51.922637
Irenestraat,74,,,2964BL,Groot-Ammers,Molenwaard,Zuid-Holland,VBO,4.822941,51.922590
Irenestraat,76,,,2964BL,Groot-Ammers,Molenwaard,Zuid-Holland,VBO,4.823321,51.922983
Irenestraat,78,,,2964BL,Groot-Ammers,Molenwaard,Zuid-Holland,VBO,4.823376,51.922931
Irenestraat,80,,,2964BL,Groot-Ammers,Molenwaard,Zuid-Holland,VBO,4.823451,51.922838
Irenestraat,82,,,2964BL,Groot-Ammers,Molenwaard,Zuid-Holland,VBO,4.823493,51.922772
Irenestraat,84,,,2964BL,Groot-Ammers,Molenwaard,Zuid-Holland,VBO,4.823868,51.923051
Irenestraat,86,,,2964BL,Groot-Ammers,Molenwaard,Zuid-Holland,VBO,4.823898,51.922997
Irenestraat,88,,,2964BL,Groot-Ammers,Molenwaard,Zuid-Holland,VBO,4.823958,51.922863
Irenestraat,90,,,2964BL,Groot-Ammers,Molenwaard,Zuid-Holland,VBO,4.824219,51.923097
Irenestraat,92,,,2964BL,Groot-Ammers,Molenwaard,Zuid-Holland,VBO,4.824266,51.923049
Irenestraat,94,,,2964BL,Groot-Ammers,Molenwaard,Zuid-Holland,VBO,4.824347,51.922928
Irenestraat,96,,,2964BL,Groot-Ammers,Molenwaard,Zuid-Holland,VBO,4.824753,51.923181
Irenestraat,98,,,2964BL,Groot-Ammers,Molenwaard,Zuid-Holland,VBO,4.824788,51.923128
Irenestraat,100,,,2964BL,Groot-Ammers,Molenwaard,Zuid-Holland,VBO,4.824871,51.923008
Irenestraat,102,,,2964BL,Groot-Ammers,Molenwaard,Zuid-Holland,VBO,4.824902,51.922949
Irenestraat,104,,,2964BL,Groot-Ammers,Molenwaard,Zuid-Holland,VBO,4.825481,51.922956
Irenestraat,106,,,2964BL,Groot-Ammers,Molenwaard,Zuid-Holland,VBO,4.825319,51.923221
Irenestraat,108,,,2964BL,Groot-Ammers,Molenwaard,Zuid-Holland,VBO,4.825267,51.923113
Irenestraat,110,,,2964BL,Groot-Ammers,Molenwaard,Zuid-Holland,VBO,4.825352,51.922992
Irenestraat,112,,,2964BL,Groot-Ammers,Molenwaard,Zuid-Holland,VBO,4.825502,51.922986
Irenestraat,114,,,2964BL,Groot-Ammers,Molenwaard,Zuid-Holland,VBO,4.825323,51.923188
Irenestraat,116,,,2964BL,Groot-Ammers,Molenwaard,Zuid-Holland,VBO,4.825303,51.923121
Irenestraat,118,,,2964BL,Groot-Ammers,Molenwaard,Zuid-Holland,VBO,4.825390,51.923000
Irenestraat,120,,,2964BL,Groot-Ammers,Molenwaard,Zuid-Holland,VBO,4.825516,51.922965
Irenestraat,122,,,2964BL,Groot-Ammers,Molenwaard,Zuid-Holland,VBO,4.825369,51.923148
Irenestraat,124,,,2964BL,Groot-Ammers,Molenwaard,Zuid-Holland,VBO,4.825398,51.923078
Irenestraat,126,,,2964BL,Groot-Ammers,Molenwaard,Zuid-Holland,VBO,4.825425,51.923019
Irenestraat,140,,,2964BL,Groot-Ammers,Molenwaard,Zuid-Holland,VBO,4.826118,51.923056
Irenestraat,142,,,2964BL,Groot-Ammers,Molenwaard,Zuid-Holland,VBO,4.826466,51.923291
Irenestraat,144,,,2964BL,Groot-Ammers,Molenwaard,Zuid-Holland,VBO,4.826555,51.923105
Irenestraat,146,,,2964BL,Groot-Ammers,Molenwaard,Zuid-Holland,VBO,4.826836,51.923091
Irenestraat,148,,,2964BL,Groot-Ammers,Molenwaard,Zuid-Holland,VBO,4.827037,51.923177
Irenestraat,150,,,2964BL,Groot-Ammers,Molenwaard,Zuid-Holland,VBO,4.827262,51.923254
Irenestraat,152,,,2964BL,Groot-Ammers,Molenwaard,Zuid-Holland,VBO,4.827522,51.923405
Irenestraat,154,,,2964BL,Groot-Ammers,Molenwaard,Zuid-Holland,VBO,4.827762,51.923379
Irenestraat,156,,,2964BL,Groot-Ammers,Molenwaard,Zuid-Holland,VBO,4.827994,51.923368
Julianastraat,1,,,2964BM,Groot-Ammers,Molenwaard,Zuid-Holland,VBO,4.819662,51.924679
Julianastraat,3,,,2964BM,Groot-Ammers,Molenwaard,Zuid-Holland,VBO,4.819743,51.924700
Julianastraat,5,,,2964BM,Groot-Ammers,Molenwaard,Zuid-Holland,VBO,4.819819,51.924722
Julianastraat,7,,,2964BM,Groot-Ammers,Molenwaard,Zuid-Holland,VBO,4.819899,51.924739
Julianastraat,9,,,2964BM,Groot-Ammers,Molenwaard,Zuid-Holland,VBO,4.819976,51.924759
Julianastraat,11,,,2964BM,Groot-Ammers,Molenwaard,Zuid-Holland,VBO,4.820058,51.924779
Julianastraat,13,,,2964BM,Groot-Ammers,Molenwaard,Zuid-Holland,VBO,4.820180,51.924806
Julianastraat,15,,,2964BM,Groot-Ammers,Molenwaard,Zuid-Holland,VBO,4.820253,51.924826
Julianastraat,17,,,2964BM,Groot-Ammers,Molenwaard,Zuid-Holland,VBO,4.820334,51.924851
Julianastraat,19,,,2964BM,Groot-Ammers,Molenwaard,Zuid-Holland,VBO,4.820412,51.924871
Julianastraat,21,,,2964BM,Groot-Ammers,Molenwaard,Zuid-Holland,VBO,4.820533,51.924907
Julianastraat,23,,,2964BM,Groot-Ammers,Molenwaard,Zuid-Holland,VBO,4.820625,51.924919
Julianastraat,25,,,2964BM,Groot-Ammers,Molenwaard,Zuid-Holland,VBO,4.820738,51.924954
Julianastraat,27,,,2964BM,Groot-Ammers,Molenwaard,Zuid-Holland,VBO,4.820812,51.924972
Julianastraat,29,,,2964BM,Groot-Ammers,Molenwaard,Zuid-Holland,VBO,4.820942,51.925009
Julianastraat,31,,,2964BM,Groot-Ammers,Molenwaard,Zuid-Holland,VBO,4.821034,51.925034
Julianastraat,33,,,2964BM,Groot-Ammers,Molenwaard,Zuid-Holland,VBO,4.821166,51.925069
Julianastraat,35,,,2964BM,Groot-Ammers,Molenwaard,Zuid-Holland,VBO,4.821253,51.925091
Julianastraat,37,,,2964BM,Groot-Ammers,Molenwaard,Zuid-Holland,VBO,4.821371,51.925169
Julianastraat,41,,,2964BM,Groot-Ammers,Molenwaard,Zuid-Holland,VBO,4.821696,51.925341
Julianastraat,43,,,2964BN,Groot-Ammers,Molenwaard,Zuid-Holland,VBO,4.822392,51.925422
Julianastraat,45,,,2964BN,Groot-Ammers,Molenwaard,Zuid-Holland,VBO,4.822652,51.925484
Julianastraat,47,a,,2964BN,Groot-Ammers,Molenwaard,Zuid-Holland,VBO,4.823136,51.925611
Julianastraat,47,b,,2964BN,Groot-Ammers,Molenwaard,Zuid-Holland,VBO,4.823175,51.925620
Julianastraat,47,c,,2964BN,Groot-Ammers,Molenwaard,Zuid-Holland,VBO,4.823211,51.925630
Julianastraat,47,d,,2964BN,Groot-Ammers,Molenwaard,Zuid-Holland,VBO,4.823348,51.925654
Julianastraat,47,e,,2964BN,Groot-Ammers,Molenwaard,Zuid-Holland,VBO,4.823387,51.925662
Julianastraat,47,f,,2964BN,Groot-Ammers,Molenwaard,Zuid-Holland,VBO,4.823423,51.925674
Julianastraat,47,g,,2964BN,Groot-Ammers,Molenwaard,Zuid-Holland,VBO,4.823064,51.925718
Julianastraat,47,h,,2964BN,Groot-Ammers,Molenwaard,Zuid-Holland,VBO,4.823103,51.925725
Julianastraat,47,i,,2964BN,Groot-Ammers,Molenwaard,Zuid-Holland,VBO,4.823143,51.925734
Julianastraat,47,j,,2964BN,Groot-Ammers,Molenwaard,Zuid-Holland,VBO,4.823182,51.925742
Julianastraat,47,k,,2964BN,Groot-Ammers,Molenwaard,Zuid-Holland,VBO,4.823221,51.925750
Julianastraat,47,l,,2964BN,Groot-Ammers,Molenwaard,Zuid-Holland,VBO,4.823260,51.925758
Julianastraat,47,,,2964BN,Groot-Ammers,Molenwaard,Zuid-Holland,VBO,4.822928,51.925570
Julianastraat,49,,,2964BN,Groot-Ammers,Molenwaard,Zuid-Holland,VBO,4.823736,51.925801
Julianastraat,51,,,2964BN,Groot-Ammers,Molenwaard,Zuid-Holland,VBO,4.823838,51.925823
Julianastraat,53,,,2964BN,Groot-Ammers,Molenwaard,Zuid-Holland,VBO,4.824011,51.925862
Julianastraat,55,,,2964BN,Groot-Ammers,Molenwaard,Zuid-Holland,VBO,4.824112,51.925890
Julianastraat,57,,,2964BN,Groot-Ammers,Molenwaard,Zuid-Holland,VBO,4.824422,51.925933
Julianastraat,59,,,2964BN,Groot-Ammers,Molenwaard,Zuid-Holland,VBO,4.824526,51.925955
Julianastraat,61,,,2964BN,Groot-Ammers,Molenwaard,Zuid-Holland,VBO,4.824697,51.925993
Julianastraat,63,,,2964BN,Groot-Ammers,Molenwaard,Zuid-Holland,VBO,4.824799,51.926020
Julianastraat,65,,,2964BN,Groot-Ammers,Molenwaard,Zuid-Holland,VBO,4.825076,51.926109
Julianastraat,67,,,2964BN,Groot-Ammers,Molenwaard,Zuid-Holland,VBO,4.825179,51.926137
Julianastraat,69,,,2964BN,Groot-Ammers,Molenwaard,Zuid-Holland,VBO,4.825349,51.926176
Julianastraat,71,,,2964BN,Groot-Ammers,Molenwaard,Zuid-Holland,VBO,4.825452,51.926202
Julianastraat,73,,,2964BN,Groot-Ammers,Molenwaard,Zuid-Holland,VBO,4.825758,51.926247
Julianastraat,75,,,2964BN,Groot-Ammers,Molenwaard,Zuid-Holland,VBO,4.825861,51.926269
Julianastraat,77,,,2964BN,Groot-Ammers,Molenwaard,Zuid-Holland,VBO,4.826032,51.926308
Julianastraat,79,,,2964BN,Groot-Ammers,Molenwaard,Zuid-Holland,VBO,4.826134,51.926335
Julianastraat,81,,,2964BN,Groot-Ammers,Molenwaard,Zuid-Holland,VBO,4.826412,51.926429
Julianastraat,83,,,2964BN,Groot-Ammers,Molenwaard,Zuid-Holland,VBO,4.826513,51.926449
Julianastraat,85,,,2964BN,Groot-Ammers,Molenwaard,Zuid-Holland,VBO,4.826688,51.926491
Julianastraat,87,,,2964BN,Groot-Ammers,Molenwaard,Zuid-Holland,VBO,4.826788,51.926517
Julianastraat,2,,,2964BP,Groot-Ammers,Molenwaard,Zuid-Holland,VBO,4.819806,51.924462
Julianastraat,4,,,2964BP,Groot-Ammers,Molenwaard,Zuid-Holland,VBO,4.819892,51.924481
Julianastraat,6,,,2964BP,Groot-Ammers,Molenwaard,Zuid-Holland,VBO,4.819971,51.924505
Julianastraat,8,,,2964BP,Groot-Ammers,Molenwaard,Zuid-Holland,VBO,4.820054,51.924527
Julianastraat,10,,,2964BP,Groot-Ammers,Molenwaard,Zuid-Holland,VBO,4.820176,51.924561
Julianastraat,12,,,2964BP,Groot-Ammers,Molenwaard,Zuid-Holland,VBO,4.820256,51.924582
Julianastraat,14,,,2964BP,Groot-Ammers,Molenwaard,Zuid-Holland,VBO,4.820334,51.924602
Julianastraat,16,,,2964BP,Groot-Ammers,Molenwaard,Zuid-Holland,VBO,4.820413,51.924622
Julianastraat,18,,,2964BP,Groot-Ammers,Molenwaard,Zuid-Holland,VBO,4.820493,51.924643
Julianastraat,20,,,2964BP,Groot-Ammers,Molenwaard,Zuid-Holland,VBO,4.820572,51.924663
Julianastraat,22,,,2964BP,Groot-Ammers,Molenwaard,Zuid-Holland,VBO,4.820702,51.924694
Julianastraat,24,,,2964BP,Groot-Ammers,Molenwaard,Zuid-Holland,VBO,4.820794,51.924713
Julianastraat,26,,,2964BP,Groot-Ammers,Molenwaard,Zuid-Holland,VBO,4.820885,51.924742
Julianastraat,28,,,2964BP,Groot-Ammers,Molenwaard,Zuid-Holland,VBO,4.820974,51.924766
Julianastraat,30,,,2964BP,Groot-Ammers,Molenwaard,Zuid-Holland,VBO,4.821063,51.924789
Julianastraat,32,,,2964BP,Groot-Ammers,Molenwaard,Zuid-Holland,VBO,4.821153,51.924812
Julianastraat,34,,,2964BP,Groot-Ammers,Molenwaard,Zuid-Holland,VBO,4.821390,51.924867
Julianastraat,36,,,2964BR,Groot-Ammers,Molenwaard,Zuid-Holland,VBO,4.823026,51.925320
Julianastraat,38,,,2964BR,Groot-Ammers,Molenwaard,Zuid-Holland,VBO,4.823107,51.925342
Julianastraat,40,,,2964BR,Groot-Ammers,Molenwaard,Zuid-Holland,VBO,4.823187,51.925364
Julianastraat,42,,,2964BR,Groot-Ammers,Molenwaard,Zuid-Holland,VBO,4.823267,51.925385
Julianastraat,44,,,2964BR,Groot-Ammers,Molenwaard,Zuid-Holland,VBO,4.823347,51.925407
Julianastraat,46,,,2964BR,Groot-Ammers,Molenwaard,Zuid-Holland,VBO,4.823427,51.925428
Julianastraat,48,,,2964BR,Groot-Ammers,Molenwaard,Zuid-Holland,VBO,4.823768,51.925510
Julianastraat,50,,,2964BR,Groot-Ammers,Molenwaard,Zuid-Holland,VBO,4.823859,51.925531
Julianastraat,52,,,2964BR,Groot-Ammers,Molenwaard,Zuid-Holland,VBO,4.823949,51.925552
Julianastraat,54,,,2964BR,Groot-Ammers,Molenwaard,Zuid-Holland,VBO,4.824040,51.925573
Julianastraat,56,,,2964BR,Groot-Ammers,Molenwaard,Zuid-Holland,VBO,4.824130,51.925594
Julianastraat,58,,,2964BR,Groot-Ammers,Molenwaard,Zuid-Holland,VBO,4.824220,51.925615
Julianastraat,60,,,2964BR,Groot-Ammers,Molenwaard,Zuid-Holland,VBO,4.824311,51.925636
Julianastraat,62,,,2964BR,Groot-Ammers,Molenwaard,Zuid-Holland,VBO,4.824402,51.925657
Julianastraat,64,,,2964BS,Groot-Ammers,Molenwaard,Zuid-Holland,VBO,4.824750,51.925731
Julianastraat,66,,,2964BS,Groot-Ammers,Molenwaard,Zuid-Holland,VBO,4.824841,51.925752
Julianastraat,68,,,2964BS,Groot-Ammers,Molenwaard,Zuid-Holland,VBO,4.824930,51.925774
Julianastraat,70,,,2964BS,Groot-Ammers,Molenwaard,Zuid-Holland,VBO,4.825020,51.925795
Julianastraat,72,,,2964BS,Groot-Ammers,Molenwaard,Zuid-Holland,VBO,4.825110,51.925816
Julianastraat,74,,,2964BS,Groot-Ammers,Molenwaard,Zuid-Holland,VBO,4.825200,51.925838
Julianastraat,76,,,2964BS,Groot-Ammers,Molenwaard,Zuid-Holland,VBO,4.825348,51.925872
Julianastraat,78,,,2964BS,Groot-Ammers,Molenwaard,Zuid-Holland,VBO,4.825439,51.925894
Julianastraat,80,,,2964BS,Groot-Ammers,Molenwaard,Zuid-Holland,VBO,4.825530,51.925913
Julianastraat,82,,,2964BS,Groot-Ammers,Molenwaard,Zuid-Holland,VBO,4.825618,51.925936
Julianastraat,84,,,2964BS,Groot-Ammers,Molenwaard,Zuid-Holland,VBO,4.825708,51.925957
Julianastraat,86,,,2964BS,Groot-Ammers,Molenwaard,Zuid-Holland,VBO,4.825799,51.925979
Julianastraat,88,a,,2964BS,Groot-Ammers,Molenwaard,Zuid-Holland,VBO,4.826104,51.925927
Julianastraat,88,b,,2964BS,Groot-Ammers,Molenwaard,Zuid-Holland,VBO,4.826295,51.925968
Julianastraat,88,c,,2964BS,Groot-Ammers,Molenwaard,Zuid-Holland,VBO,4.826387,51.925994
Julianastraat,88,,,2964BS,Groot-Ammers,Molenwaard,Zuid-Holland,VBO,4.826019,51.925904
Julianastraat,90,,,2964BS,Groot-Ammers,Molenwaard,Zuid-Holland,VBO,4.826743,51.926128
Julianastraat,92,,,2964BS,Groot-Ammers,Molenwaard,Zuid-Holland,VBO,4.826834,51.926149
Julianastraat,94,,,2964BS,Groot-Ammers,Molenwaard,Zuid-Holland,VBO,4.826922,51.926170
Julianastraat,96,,,2964BS,Groot-Ammers,Molenwaard,Zuid-Holland,VBO,4.827010,51.926190
Julianastraat,98,,,2964BS,Groot-Ammers,Molenwaard,Zuid-Holland,VBO,4.827119,51.926213
Kerkstraat,1,,,2964BT,Groot-Ammers,Molenwaard,Zuid-Holland,VBO,4.818251,51.924015
Kerkstraat,3,,,2964BT,Groot-Ammers,Molenwaard,Zuid-Holland,VBO,4.818073,51.923907
Kerkstraat,5,a,,2964BT,Groot-Ammers,Molenwaard,Zuid-Holland,VBO,4.818126,51.923809
Kerkstraat,5,b,,2964BT,Groot-Ammers,Molenwaard,Zuid-Holland,VBO,4.818143,51.923866
Kerkstraat,5,c,,2964BT,Groot-Ammers,Molenwaard,Zuid-Holland,VBO,4.818168,51.923817
Kerkstraat,5,d,,2964BT,Groot-Ammers,Molenwaard,Zuid-Holland,VBO,4.818200,51.923842
Kerkstraat,5,e,,2964BT,Groot-Ammers,Molenwaard,Zuid-Holland,VBO,4.818202,51.923879
Kerkstraat,5,f,,2964BT,Groot-Ammers,Molenwaard,Zuid-Holland,VBO,4.818228,51.923827
Kerkstraat,5,,,2964BT,Groot-Ammers,Molenwaard,Zuid-Holland,VBO,4.818103,51.923856
Kerkstraat,7,,,2964BT,Groot-Ammers,Molenwaard,Zuid-Holland,VBO,4.818196,51.923746
Kerkstraat,9,,,2964BT,Groot-Ammers,Molenwaard,Zuid-Holland,VBO,4.818240,51.923692
Kerkstraat,11,a,,2964BT,Groot-Ammers,Molenwaard,Zuid-Holland,VBO,4.818186,51.923630
Kerkstraat,11,,,2964BT,Groot-Ammers,Molenwaard,Zuid-Holland,VBO,4.818217,51.923573
Kerkstraat,13,,,2964BT,Groot-Ammers,Molenwaard,Zuid-Holland,VBO,4.818262,51.923508
Kerkstraat,19,,,2964BT,Groot-Ammers,Molenwaard,Zuid-Holland,VBO,4.818449,51.923169
Kerkstraat,21,,,2964BT,Groot-Ammers,Molenwaard,Zuid-Holland,VBO,4.818499,51.923097
Kerkstraat,23,,,2964BT,Groot-Ammers,Molenwaard,Zuid-Holland,VBO,4.818553,51.922971
Kerkstraat,25,,,2964BT,Groot-Ammers,Molenwaard,Zuid-Holland,VBO,4.818596,51.922882
Kerkstraat,27,,,2964BT,Groot-Ammers,Molenwaard,Zuid-Holland,VBO,4.818651,51.922784
Kerkstraat,29,,,2964BT,Groot-Ammers,Molenwaard,Zuid-Holland,VBO,4.818699,51.922700
Kerkstraat,31,,,2964BT,Groot-Ammers,Molenwaard,Zuid-Holland,VBO,4.818805,51.922621
Kerkstraat,35,,,2964BT,Groot-Ammers,Molenwaard,Zuid-Holland,VBO,4.818838,51.922427
Kerkstraat,37,,,2964BT,Groot-Ammers,Molenwaard,Zuid-Holland,VBO,4.818925,51.922266
Kerkstraat,39,,,2964BT,Groot-Ammers,Molenwaard,Zuid-Holland,VBO,4.818952,51.922189
Kerkstraat,41,,,2964BT,Groot-Ammers,Molenwaard,Zuid-Holland,VBO,4.818948,51.922103
Kerkstraat,43,,,2964BT,Groot-Ammers,Molenwaard,Zuid-Holland,VBO,4.818992,51.922047
Kerkstraat,49,,,2964BT,Groot-Ammers,Molenwaard,Zuid-Holland,VBO,4.819139,51.921785
Kerkstraat,51,,,2964BT,Groot-Ammers,Molenwaard,Zuid-Holland,VBO,4.819194,51.921680
Kerkstraat,53,,,2964BT,Groot-Ammers,Molenwaard,Zuid-Holland,VBO,4.819202,51.921579
Kerkstraat,57,,,2964BT,Groot-Ammers,Molenwaard,Zuid-Holland,VBO,4.819344,51.921441
Kerkstraat,59,,,2964BT,Groot-Ammers,Molenwaard,Zuid-Holland,VBO,4.819387,51.921404
Kerkstraat,61,,,2964BT,Groot-Ammers,Molenwaard,Zuid-Holland,VBO,4.819525,51.921332
Kerkstraat,63,,,2964BT,Groot-Ammers,Molenwaard,Zuid-Holland,VBO,4.819889,51.921393
Kerkstraat,4,,,2964BV,Groot-Ammers,Molenwaard,Zuid-Holland,VBO,4.817818,51.923342
Kerkstraat,6,,,2964BV,Groot-Ammers,Molenwaard,Zuid-Holland,VBO,4.817765,51.923511
Kerkstraat,8,,,2964BV,Groot-Ammers,Molenwaard,Zuid-Holland,VBO,4.817285,51.923217
Kerkstraat,16,,,2964BV,Groot-Ammers,Molenwaard,Zuid-Holland,VBO,4.817686,51.923091
Kerkstraat,18,,,2964BV,Groot-Ammers,Molenwaard,Zuid-Holland,VBO,4.818180,51.923152
Kerkstraat,20,,,2964BV,Groot-Ammers,Molenwaard,Zuid-Holland,VBO,4.818010,51.923089
Kerkstraat,22,,,2964BV,Groot-Ammers,Molenwaard,Zuid-Holland,VBO,4.818212,51.922922
Kerkstraat,24,,,2964BV,Groot-Ammers,Molenwaard,Zuid-Holland,VBO,4.817938,51.922874
Kerkstraat,26,,,2964BV,Groot-Ammers,Molenwaard,Zuid-Holland,VBO,4.818165,51.922784
Kerkstraat,28,,,2964BV,Groot-Ammers,Molenwaard,Zuid-Holland,VBO,4.818385,51.922688
Kerkstraat,30,,,2964BV,Groot-Ammers,Molenwaard,Zuid-Holland,VBO,4.818384,51.922569
Kerkstraat,32,,,2964BV,Groot-Ammers,Molenwaard,Zuid-Holland,VBO,4.818510,51.922493
Kerkstraat,34,a,,2964BV,Groot-Ammers,Molenwaard,Zuid-Holland,VBO,4.818208,51.922359
Kerkstraat,34,,,2964BV,Groot-Ammers,Molenwaard,Zuid-Holland,VBO,4.818569,51.922405
Kerkstraat,38,,,2964BV,Groot-Ammers,Molenwaard,Zuid-Holland,VBO,4.818564,51.922270
Kerkstraat,40,,,2964BV,Groot-Ammers,Molenwaard,Zuid-Holland,VBO,4.818670,51.922191
Kerkstraat,42,,,2964BV,Groot-Ammers,Molenwaard,Zuid-Holland,VBO,4.818644,51.922072
Kerkstraat,44,,,2964BV,Groot-Ammers,Molenwaard,Zuid-Holland,VBO,4.818747,51.922095
Kerkstraat,46,,,2964BV,Groot-Ammers,Molenwaard,Zuid-Holland,VBO,4.818733,51.921944
Kerkstraat,48,,,2964BV,Groot-Ammers,Molenwaard,Zuid-Holland,VBO,4.818805,51.921858
Kerkstraat,50,,,2964BV,Groot-Ammers,Molenwaard,Zuid-Holland,VBO,4.818802,51.921748
Kerkstraat,52,,,2964BV,Groot-Ammers,Molenwaard,Zuid-Holland,VBO,4.818758,51.921640
Kerkstraat,54,,,2964BV,Groot-Ammers,Molenwaard,Zuid-Holland,VBO,4.818808,51.921537
Kerkstraat,58,,,2964BV,Groot-Ammers,Molenwaard,Zuid-Holland,VBO,4.818885,51.921457
Kerkstraat,60,,,2964BV,Groot-Ammers,Molenwaard,Zuid-Holland,VBO,4.819024,51.921394
Kerkstraat,62,,,2964BV,Groot-Ammers,Molenwaard,Zuid-Holland,VBO,4.819042,51.921233
Kerkstraat,64,,,2964BV,Groot-Ammers,Molenwaard,Zuid-Holland,VBO,4.819674,51.920991
Kerkstraat,66,a,,2964BV,Groot-Ammers,Molenwaard,Zuid-Holland,VBO,4.819657,51.920838
Kerkstraat,66,,,2964BV,Groot-Ammers,Molenwaard,Zuid-Holland,VBO,4.819788,51.920922
Prinsenhof,1,,,2964BW,Groot-Ammers,Molenwaard,Zuid-Holland,VBO,4.818829,51.924241
Prinsenhof,2,,,2964BW,Groot-Ammers,Molenwaard,Zuid-Holland,VBO,4.818895,51.924256
Prinsenhof,3,,,2964BW,Groot-Ammers,Molenwaard,Zuid-Holland,VBO,4.818855,51.924201
Prinsenhof,4,,,2964BW,Groot-Ammers,Molenwaard,Zuid-Holland,VBO,4.818924,51.924209
Prinsenhof,5,,,2964BW,Groot-Ammers,Molenwaard,Zuid-Holland,VBO,4.818883,51.924147
Prinsenhof,6,,,2964BW,Groot-Ammers,Molenwaard,Zuid-Holland,VBO,4.818955,51.924165
Prinsenhof,7,,,2964BW,Groot-Ammers,Molenwaard,Zuid-Holland,VBO,4.818922,51.924101
Prinsenhof,8,,,2964BW,Groot-Ammers,Molenwaard,Zuid-Holland,VBO,4.818984,51.924124
Prinsenhof,9,,,2964BW,Groot-Ammers,Molenwaard,Zuid-Holland,VBO,4.818935,51.924061
Prinsenhof,10,,,2964BW,Groot-Ammers,Molenwaard,Zuid-Holland,VBO,4.819017,51.924064
Prinsenhof,11,,,2964BW,Groot-Ammers,Molenwaard,Zuid-Holland,VBO,4.818890,51.924054
Prinsenhof,12,,,2964BW,Groot-Ammers,Molenwaard,Zuid-Holland,VBO,4.818976,51.924005
Prinsenhof,13,,,2964BW,Groot-Ammers,Molenwaard,Zuid-Holland,VBO,4.818817,51.924045
Prinsenhof,14,,,2964BW,Groot-Ammers,Molenwaard,Zuid-Holland,VBO,4.818896,51.923995
Prinsenhof,15,,,2964BW,Groot-Ammers,Molenwaard,Zuid-Holland,VBO,4.818759,51.924036
Prinsenhof,16,,,2964BW,Groot-Ammers,Molenwaard,Zuid-Holland,VBO,4.818826,51.923987
Prinsenhof,17,,,2964BW,Groot-Ammers,Molenwaard,Zuid-Holland,VBO,4.818701,51.924027
Prinsenhof,18,,,2964BW,Groot-Ammers,Molenwaard,Zuid-Holland,VBO,4.818758,51.923977
Prinsenhof,19,,,2964BW,Groot-Ammers,Molenwaard,Zuid-Holland,VBO,4.818642,51.924006
Prinsenhof,20,,,2964BW,Groot-Ammers,Molenwaard,Zuid-Holland,VBO,4.818698,51.923970
Prinsenhof,21,,,2964BW,Groot-Ammers,Molenwaard,Zuid-Holland,VBO,4.818571,51.924008
Prinsenhof,22,,,2964BW,Groot-Ammers,Molenwaard,Zuid-Holland,VBO,4.818620,51.923959
Prinsenhof,23,,,2964BW,Groot-Ammers,Molenwaard,Zuid-Holland,VBO,4.818542,51.923999
Prinsenhof,24,,,2964BW,Groot-Ammers,Molenwaard,Zuid-Holland,VBO,4.818541,51.923951
Prinsenhof,25,,,2964BW,Groot-Ammers,Molenwaard,Zuid-Holland,VBO,4.818330,51.924145
Prinsenhof,26,,,2964BW,Groot-Ammers,Molenwaard,Zuid-Holland,VBO,4.818411,51.924142
Prinsenhof,27,,,2964BW,Groot-Ammers,Molenwaard,Zuid-Holland,VBO,4.818351,51.924169
Prinsenhof,28,,,2964BW,Groot-Ammers,Molenwaard,Zuid-Holland,VBO,4.818423,51.924178
Prinsenhof,29,,,2964BW,Groot-Ammers,Molenwaard,Zuid-Holland,VBO,4.818359,51.924234
Prinsenhof,30,,,2964BW,Groot-Ammers,Molenwaard,Zuid-Holland,VBO,4.818415,51.924230
Prinsenhof,31,,,2964BW,Groot-Ammers,Molenwaard,Zuid-Holland,VBO,4.818451,51.924277
Prinsenhof,32,,,2964BW,Groot-Ammers,Molenwaard,Zuid-Holland,VBO,4.818480,51.924259
Prinsenhof,33,,,2964BW,Groot-Ammers,Molenwaard,Zuid-Holland,VBO,4.818524,51.924277
Prinsenhof,34,,,2964BW,Groot-Ammers,Molenwaard,Zuid-Holland,VBO,4.818553,51.924260
Prinsenhof,35,,,2964BW,Groot-Ammers,Molenwaard,Zuid-Holland,VBO,4.818596,51.924278
Prinsenhof,36,,,2964BW,Groot-Ammers,Molenwaard,Zuid-Holland,VBO,4.818626,51.924260
Prinsenhof,37,,,2964BW,Groot-Ammers,Molenwaard,Zuid-Holland,VBO,4.818669,51.924278
Prinsenhof,38,,,2964BW,Groot-Ammers,Molenwaard,Zuid-Holland,VBO,4.818656,51.924322
De Hoek,1,,,2964BX,Groot-Ammers,Molenwaard,Zuid-Holland,VBO,4.820465,51.921096
De Hoek,3,,,2964BX,Groot-Ammers,Molenwaard,Zuid-Holland,VBO,4.820286,51.921096
De Hoek,4,,,2964BX,Groot-Ammers,Molenwaard,Zuid-Holland,VBO,4.820665,51.921254
De Hoek,5,,,2964BX,Groot-Ammers,Molenwaard,Zuid-Holland,VBO,4.820101,51.921154
De Hoek,6,,,2964BX,Groot-Ammers,Molenwaard,Zuid-Holland,VBO,4.820593,51.921313
De Hoek,7,,,2964BX,Groot-Ammers,Molenwaard,Zuid-Holland,VBO,4.819986,51.921207
De Hoek,8,,,2964BX,Groot-Ammers,Molenwaard,Zuid-Holland,VBO,4.820492,51.921392
De Hoek,9,,,2964BX,Groot-Ammers,Molenwaard,Zuid-Holland,VBO,4.819889,51.921597
De Hoek,10,,,2964BX,Groot-Ammers,Molenwaard,Zuid-Holland,VBO,4.820418,51.921452
De Hoek,12,,,2964BX,Groot-Ammers,Molenwaard,Zuid-Holland,VBO,4.820321,51.921534
De Hoek,14,,,2964BX,Groot-Ammers,Molenwaard,Zuid-Holland,VBO,4.820244,51.921593
De Hoek,16,,,2964BX,Groot-Ammers,Molenwaard,Zuid-Holland,VBO,4.820148,51.921697
De Hoek,18,,,2964BX,Groot-Ammers,Molenwaard,Zuid-Holland,VBO,4.820110,51.921771
Dr. Flohilstraat,1,,,2964BZ,Groot-Ammers,Molenwaard,Zuid-Holland,VBO,4.819055,51.922482
Dr. Flohilstraat,2,,,2964BZ,Groot-Ammers,Molenwaard,Zuid-Holland,VBO,4.819154,51.922699
Dr. Flohilstraat,3,,,2964BZ,Groot-Ammers,Molenwaard,Zuid-Holland,VBO,4.819128,51.922501
Dr. Flohilstraat,4,,,2964BZ,Groot-Ammers,Molenwaard,Zuid-Holland,VBO,4.819270,51.922735
Dr. Flohilstraat,5,,,2964BZ,Groot-Ammers,Molenwaard,Zuid-Holland,VBO,4.819200,51.922519
Dr. Flohilstraat,6,,,2964BZ,Groot-Ammers,Molenwaard,Zuid-Holland,VBO,4.819135,51.922756
Dr. Flohilstraat,7,,,2964BZ,Groot-Ammers,Molenwaard,Zuid-Holland,VBO,4.819287,51.922537
Dr. Flohilstraat,8,,,2964BZ,Groot-Ammers,Molenwaard,Zuid-Holland,VBO,4.819255,51.922780
Dr. Flohilstraat,9,,,2964BZ,Groot-Ammers,Molenwaard,Zuid-Holland,VBO,4.819374,51.922565
Dr. Flohilstraat,11,,,2964BZ,Groot-Ammers,Molenwaard,Zuid-Holland,VBO,4.819085,51.922438
Dr. Flohilstraat,13,,,2964BZ,Groot-Ammers,Molenwaard,Zuid-Holland,VBO,4.819157,51.922456
Dr. Flohilstraat,15,,,2964BZ,Groot-Ammers,Molenwaard,Zuid-Holland,VBO,4.819230,51.922465
Dr. Flohilstraat,17,,,2964BZ,Groot-Ammers,Molenwaard,Zuid-Holland,VBO,4.819317,51.922484
Dr. Flohilstraat,19,,,2964BZ,Groot-Ammers,Molenwaard,Zuid-Holland,VBO,4.819389,51.922502
Dr. Flohilstraat,21,,,2964BZ,Groot-Ammers,Molenwaard,Zuid-Holland,VBO,4.819404,51.922362
Dr. Flohilstraat,23,,,2964BZ,Groot-Ammers,Molenwaard,Zuid-Holland,VBO,4.819423,51.922332
Leeuwerikstraat,1,,,2964CA,Groot-Ammers,Molenwaard,Zuid-Holland,VBO,4.826872,51.925934
Leeuwerikstraat,3,,,2964CA,Groot-Ammers,Molenwaard,Zuid-Holland,VBO,4.826905,51.925883
Leeuwerikstraat,5,,,2964CA,Groot-Ammers,Molenwaard,Zuid-Holland,VBO,4.826937,51.925830
Leeuwerikstraat,7,,,2964CA,Groot-Ammers,Molenwaard,Zuid-Holland,VBO,4.826969,51.925777
Leeuwerikstraat,9,,,2964CA,Groot-Ammers,Molenwaard,Zuid-Holland,VBO,4.826999,51.925721
Leeuwerikstraat,11,,,2964CA,Groot-Ammers,Molenwaard,Zuid-Holland,VBO,4.827087,51.925569
Leeuwerikstraat,13,,,2964CA,Groot-Ammers,Molenwaard,Zuid-Holland,VBO,4.827176,51.925587
Leeuwerikstraat,15,,,2964CA,Groot-Ammers,Molenwaard,Zuid-Holland,VBO,4.827265,51.925611
Leeuwerikstraat,17,,,2964CA,Groot-Ammers,Molenwaard,Zuid-Holland,VBO,4.827355,51.925630
Leeuwerikstraat,19,,,2964CA,Groot-Ammers,Molenwaard,Zuid-Holland,VBO,4.827442,51.925653
Leeuwerikstraat,21,,,2964CA,Groot-Ammers,Molenwaard,Zuid-Holland,VBO,4.827217,51.925374
Leeuwerikstraat,23,,,2964CA,Groot-Ammers,Molenwaard,Zuid-Holland,VBO,4.827250,51.925321
Leeuwerikstraat,25,,,2964CA,Groot-Ammers,Molenwaard,Zuid-Holland,VBO,4.827282,51.925268
Leeuwerikstraat,27,,,2964CA,Groot-Ammers,Molenwaard,Zuid-Holland,VBO,4.827314,51.925215
Leeuwerikstraat,29,,,2964CA,Groot-Ammers,Molenwaard,Zuid-Holland,VBO,4.827346,51.925162
Leeuwerikstraat,31,,,2964CA,Groot-Ammers,Molenwaard,Zuid-Holland,VBO,4.827464,51.924956
Leeuwerikstraat,33,,,2964CA,Groot-Ammers,Molenwaard,Zuid-Holland,VBO,4.827553,51.924977
Leeuwerikstraat,35,,,2964CA,Groot-Ammers,Molenwaard,Zuid-Holland,VBO,4.827642,51.924997
Leeuwerikstraat,37,,,2964CA,Groot-Ammers,Molenwaard,Zuid-Holland,VBO,4.827732,51.925018
Leeuwerikstraat,39,,,2964CA,Groot-Ammers,Molenwaard,Zuid-Holland,VBO,4.827822,51.925039
Leeuwerikstraat,41,,,2964CA,Groot-Ammers,Molenwaard,Zuid-Holland,VBO,4.827783,51.924677
Leeuwerikstraat,43,,,2964CA,Groot-Ammers,Molenwaard,Zuid-Holland,VBO,4.827818,51.924619
Leeuwerikstraat,45,,,2964CA,Groot-Ammers,Molenwaard,Zuid-Holland,VBO,4.827853,51.924562
Leeuwerikstraat,47,,,2964CA,Groot-Ammers,Molenwaard,Zuid-Holland,VBO,4.827888,51.924506
Leeuwerikstraat,49,,,2964CA,Groot-Ammers,Molenwaard,Zuid-Holland,VBO,4.827922,51.924450
Leeuwerikstraat,51,,,2964CA,Groot-Ammers,Molenwaard,Zuid-Holland,VBO,4.827957,51.924394
Leeuwerikstraat,53,,,2964CA,Groot-Ammers,Molenwaard,Zuid-Holland,VBO,4.828302,51.924362
Leeuwerikstraat,55,,,2964CA,Groot-Ammers,Molenwaard,Zuid-Holland,VBO,4.828162,51.924160
Leeuwerikstraat,57,,,2964CA,Groot-Ammers,Molenwaard,Zuid-Holland,VBO,4.828514,51.923996
Leeuwerikstraat,2,a,,2964CB,Groot-Ammers,Molenwaard,Zuid-Holland,VBO,4.826469,51.926014
Leeuwerikstraat,2,,,2964CB,Groot-Ammers,Molenwaard,Zuid-Holland,VBO,4.826484,51.925979
Leeuwerikstraat,4,,,2964CB,Groot-Ammers,Molenwaard,Zuid-Holland,VBO,4.827003,51.925030
Leeuwerikstraat,6,,,2964CB,Groot-Ammers,Molenwaard,Zuid-Holland,VBO,4.827294,51.924551
Leeuwerikstraat,8,,,2964CB,Groot-Ammers,Molenwaard,Zuid-Holland,VBO,4.827321,51.924506
Leeuwerikstraat,10,,,2964CB,Groot-Ammers,Molenwaard,Zuid-Holland,VBO,4.827347,51.924462
Leeuwerikstraat,12,,,2964CB,Groot-Ammers,Molenwaard,Zuid-Holland,VBO,4.827374,51.924418
Leeuwerikstraat,14,,,2964CB,Groot-Ammers,Molenwaard,Zuid-Holland,VBO,4.827396,51.924372
Leeuwerikstraat,16,,,2964CB,Groot-Ammers,Molenwaard,Zuid-Holland,VBO,4.827427,51.924330
Leeuwerikstraat,18,,,2964CB,Groot-Ammers,Molenwaard,Zuid-Holland,VBO,4.827470,51.924233
Leeuwerikstraat,20,,,2964CB,Groot-Ammers,Molenwaard,Zuid-Holland,VBO,4.827481,51.924185
Leeuwerikstraat,22,,,2964CB,Groot-Ammers,Molenwaard,Zuid-Holland,VBO,4.827491,51.924138
Leeuwerikstraat,24,,,2964CB,Groot-Ammers,Molenwaard,Zuid-Holland,VBO,4.827501,51.924093
Leeuwerikstraat,26,,,2964CB,Groot-Ammers,Molenwaard,Zuid-Holland,VBO,4.827511,51.924047
Leeuwerikstraat,28,,,2964CB,Groot-Ammers,Molenwaard,Zuid-Holland,VBO,4.827522,51.924000
Leeuwerikstraat,30,,,2964CB,Groot-Ammers,Molenwaard,Zuid-Holland,VBO,4.827527,51.923952
Leeuwerikstraat,32,,,2964CB,Groot-Ammers,Molenwaard,Zuid-Holland,VBO,4.827543,51.923906
Lijsterstraat,1,,,2964CC,Groot-Ammers,Molenwaard,Zuid-Holland,VBO,4.823909,51.925281
Lijsterstraat,3,,,2964CC,Groot-Ammers,Molenwaard,Zuid-Holland,VBO,4.824000,51.925302
Lijsterstraat,5,,,2964CC,Groot-Ammers,Molenwaard,Zuid-Holland,VBO,4.824090,51.925323
Lijsterstraat,7,,,2964CC,Groot-Ammers,Molenwaard,Zuid-Holland,VBO,4.824180,51.925344
Lijsterstraat,9,,,2964CC,Groot-Ammers,Molenwaard,Zuid-Holland,VBO,4.824271,51.925365
Lijsterstraat,11,,,2964CC,Groot-Ammers,Molenwaard,Zuid-Holland,VBO,4.824361,51.925386
Lijsterstraat,13,,,2964CC,Groot-Ammers,Molenwaard,Zuid-Holland,VBO,4.824451,51.925408
Lijsterstraat,15,,,2964CC,Groot-Ammers,Molenwaard,Zuid-Holland,VBO,4.824542,51.925421
Lijsterstraat,17,,,2964CC,Groot-Ammers,Molenwaard,Zuid-Holland,VBO,4.824890,51.925495
Lijsterstraat,19,,,2964CC,Groot-Ammers,Molenwaard,Zuid-Holland,VBO,4.824983,51.925522
Lijsterstraat,21,,,2964CC,Groot-Ammers,Molenwaard,Zuid-Holland,VBO,4.825067,51.925536
Lijsterstraat,23,,,2964CC,Groot-Ammers,Molenwaard,Zuid-Holland,VBO,4.825162,51.925564
Lijsterstraat,25,,,2964CC,Groot-Ammers,Molenwaard,Zuid-Holland,VBO,4.825252,51.925585
Lijsterstraat,27,,,2964CC,Groot-Ammers,Molenwaard,Zuid-Holland,VBO,4.825342,51.925606
Lijsterstraat,29,,,2964CC,Groot-Ammers,Molenwaard,Zuid-Holland,VBO,4.825432,51.925627
Lijsterstraat,31,,,2964CC,Groot-Ammers,Molenwaard,Zuid-Holland,VBO,4.825522,51.925648
Lijsterstraat,33,,,2964CC,Groot-Ammers,Molenwaard,Zuid-Holland,VBO,4.825615,51.925651
Lijsterstraat,35,a,,2964CC,Groot-Ammers,Molenwaard,Zuid-Holland,VBO,4.825847,51.925724
Lijsterstraat,35,b,,2964CC,Groot-Ammers,Molenwaard,Zuid-Holland,VBO,4.826746,51.924904
Lijsterstraat,35,c,,2964CC,Groot-Ammers,Molenwaard,Zuid-Holland,VBO,4.826724,51.925500
Lijsterstraat,35,,,2964CC,Groot-Ammers,Molenwaard,Zuid-Holland,VBO,4.825702,51.925687
Lijsterstraat,37,,,2964CC,Groot-Ammers,Molenwaard,Zuid-Holland,VBO,4.826149,51.924862
Lijsterstraat,39,,,2964CC,Groot-Ammers,Molenwaard,Zuid-Holland,VBO,4.826091,51.924844
Lijsterstraat,41,,,2964CC,Groot-Ammers,Molenwaard,Zuid-Holland,VBO,4.825989,51.924817
Lijsterstraat,43,,,2964CC,Groot-Ammers,Molenwaard,Zuid-Holland,VBO,4.825902,51.924798
Lijsterstraat,45,,,2964CC,Groot-Ammers,Molenwaard,Zuid-Holland,VBO,4.825824,51.924799
Lijsterstraat,47,,,2964CC,Groot-Ammers,Molenwaard,Zuid-Holland,VBO,4.825743,51.924762
Lijsterstraat,49,,,2964CC,Groot-Ammers,Molenwaard,Zuid-Holland,VBO,4.825394,51.924681
Lijsterstraat,51,,,2964CC,Groot-Ammers,Molenwaard,Zuid-Holland,VBO,4.825308,51.924661
Lijsterstraat,53,,,2964CC,Groot-Ammers,Molenwaard,Zuid-Holland,VBO,4.825221,51.924642
Lijsterstraat,55,,,2964CC,Groot-Ammers,Molenwaard,Zuid-Holland,VBO,4.825134,51.924615
Lijsterstraat,57,,,2964CC,Groot-Ammers,Molenwaard,Zuid-Holland,VBO,4.825033,51.924596
Lijsterstraat,59,,,2964CC,Groot-Ammers,Molenwaard,Zuid-Holland,VBO,4.824859,51.924551
Lijsterstraat,61,,,2964CC,Groot-Ammers,Molenwaard,Zuid-Holland,VBO,4.824801,51.924532
Lijsterstraat,63,,,2964CC,Groot-Ammers,Molenwaard,Zuid-Holland,VBO,4.824714,51.924523
Lijsterstraat,65,,,2964CC,Groot-Ammers,Molenwaard,Zuid-Holland,VBO,4.824612,51.924504
Lijsterstraat,67,,,2964CC,Groot-Ammers,Molenwaard,Zuid-Holland,VBO,4.824525,51.924486
Lijsterstraat,69,,,2964CC,Groot-Ammers,Molenwaard,Zuid-Holland,VBO,4.824395,51.924450
Lijsterstraat,2,,,2964CD,Groot-Ammers,Molenwaard,Zuid-Holland,VBO,4.824647,51.925224
Lijsterstraat,4,,,2964CD,Groot-Ammers,Molenwaard,Zuid-Holland,VBO,4.824691,51.925152
Lijsterstraat,6,,,2964CD,Groot-Ammers,Molenwaard,Zuid-Holland,VBO,4.824736,51.925080
Lijsterstraat,8,a,,2964CD,Groot-Ammers,Molenwaard,Zuid-Holland,VBO,4.824570,51.924927
Lijsterstraat,8,,,2964CD,Groot-Ammers,Molenwaard,Zuid-Holland,VBO,4.824795,51.924991
Lijsterstraat,10,,,2964CD,Groot-Ammers,Molenwaard,Zuid-Holland,VBO,4.824997,51.925267
Lijsterstraat,12,,,2964CD,Groot-Ammers,Molenwaard,Zuid-Holland,VBO,4.825088,51.925288
Lijsterstraat,14,,,2964CD,Groot-Ammers,Molenwaard,Zuid-Holland,VBO,4.825178,51.925309
Lijsterstraat,16,,,2964CD,Groot-Ammers,Molenwaard,Zuid-Holland,VBO,4.825275,51.925318
Lijsterstraat,18,,,2964CD,Groot-Ammers,Molenwaard,Zuid-Holland,VBO,4.825357,51.925351
Lijsterstraat,20,,,2964CD,Groot-Ammers,Molenwaard,Zuid-Holland,VBO,4.825447,51.925371
Lijsterstraat,22,,,2964CD,Groot-Ammers,Molenwaard,Zuid-Holland,VBO,4.825537,51.925392
Lijsterstraat,24,,,2964CD,Groot-Ammers,Molenwaard,Zuid-Holland,VBO,4.825628,51.925413
Lijsterstraat,26,,,2964CD,Groot-Ammers,Molenwaard,Zuid-Holland,VBO,4.825861,51.925413
Lijsterstraat,28,,,2964CD,Groot-Ammers,Molenwaard,Zuid-Holland,VBO,4.825910,51.925365
Lijsterstraat,30,,,2964CD,Groot-Ammers,Molenwaard,Zuid-Holland,VBO,4.825939,51.925311
Lijsterstraat,32,,,2964CD,Groot-Ammers,Molenwaard,Zuid-Holland,VBO,4.825984,51.925248
Lijsterstraat,34,,,2964CD,Groot-Ammers,Molenwaard,Zuid-Holland,VBO,4.826014,51.925203
Lijsterstraat,36,,,2964CD,Groot-Ammers,Molenwaard,Zuid-Holland,VBO,4.826058,51.925132
Lijsterstraat,38,,,2964CD,Groot-Ammers,Molenwaard,Zuid-Holland,VBO,4.826088,51.925078
Lijsterstraat,40,,,2964CD,Groot-Ammers,Molenwaard,Zuid-Holland,VBO,4.825696,51.924986
Lijsterstraat,42,,,2964CD,Groot-Ammers,Molenwaard,Zuid-Holland,VBO,4.825652,51.925040
Lijsterstraat,44,,,2964CD,Groot-Ammers,Molenwaard,Zuid-Holland,VBO,4.825608,51.925111
Lijsterstraat,46,,,2964CD,Groot-Ammers,Molenwaard,Zuid-Holland,VBO,4.825578,51.925165
Lijsterstraat,48,,,2964CD,Groot-Ammers,Molenwaard,Zuid-Holland,VBO,4.825533,51.925228
Lijsterstraat,50,,,2964CD,Groot-Ammers,Molenwaard,Zuid-Holland,VBO,4.825290,51.924903
Lijsterstraat,52,,,2964CD,Groot-Ammers,Molenwaard,Zuid-Holland,VBO,4.825185,51.924894
Lijsterstraat,54,,,2964CD,Groot-Ammers,Molenwaard,Zuid-Holland,VBO,4.825096,51.924873
Lijsterstraat,56,,,2964CD,Groot-Ammers,Molenwaard,Zuid-Holland,VBO,4.825006,51.924852
Lijsterstraat,58,,,2964CD,Groot-Ammers,Molenwaard,Zuid-Holland,VBO,4.824917,51.924832
Lijsterstraat,60,,,2964CD,Groot-Ammers,Molenwaard,Zuid-Holland,VBO,4.824827,51.924811
Lijsterstraat,62,,,2964CD,Groot-Ammers,Molenwaard,Zuid-Holland,VBO,4.824738,51.924790
Lijsterstraat,64,,,2964CD,Groot-Ammers,Molenwaard,Zuid-Holland,VBO,4.824647,51.924769
Lijsterstraat,66,,,2964CD,Groot-Ammers,Molenwaard,Zuid-Holland,VBO,4.824391,51.924767
Lijsterstraat,68,,,2964CD,Groot-Ammers,Molenwaard,Zuid-Holland,VBO,4.824339,51.924816
Lijsterstraat,70,,,2964CD,Groot-Ammers,Molenwaard,Zuid-Holland,VBO,4.824305,51.924872
Lijsterstraat,72,,,2964CD,Groot-Ammers,Molenwaard,Zuid-Holland,VBO,4.824271,51.924927
Lijsterstraat,74,,,2964CD,Groot-Ammers,Molenwaard,Zuid-Holland,VBO,4.824236,51.924982
Lijsterstraat,76,,,2964CD,Groot-Ammers,Molenwaard,Zuid-Holland,VBO,4.824202,51.925038
Lijsterstraat,78,,,2964CD,Groot-Ammers,Molenwaard,Zuid-Holland,VBO,4.824168,51.925094
Margrietstraat,1,a,,2964CE,Groot-Ammers,Molenwaard,Zuid-Holland,VBO,4.820084,51.923949
Margrietstraat,1,,,2964CE,Groot-Ammers,Molenwaard,Zuid-Holland,VBO,4.820338,51.924132
Margrietstraat,2,,,2964CE,Groot-Ammers,Molenwaard,Zuid-Holland,VBO,4.820319,51.923711
Margrietstraat,3,,,2964CE,Groot-Ammers,Molenwaard,Zuid-Holland,VBO,4.820476,51.924334
Margrietstraat,4,,,2964CE,Groot-Ammers,Molenwaard,Zuid-Holland,VBO,4.820493,51.923748
Margrietstraat,5,,,2964CE,Groot-Ammers,Molenwaard,Zuid-Holland,VBO,4.820584,51.924401
Margrietstraat,6,,,2964CE,Groot-Ammers,Molenwaard,Zuid-Holland,VBO,4.820594,51.923793
Margrietstraat,7,,,2964CE,Groot-Ammers,Molenwaard,Zuid-Holland,VBO,4.820730,51.924435
Margrietstraat,8,,,2964CE,Groot-Ammers,Molenwaard,Zuid-Holland,VBO,4.820768,51.923812
Margrietstraat,9,,,2964CE,Groot-Ammers,Molenwaard,Zuid-Holland,VBO,4.820897,51.924463
Margrietstraat,10,,,2964CE,Groot-Ammers,Molenwaard,Zuid-Holland,VBO,4.821492,51.924006
Margrietstraat,11,,,2964CE,Groot-Ammers,Molenwaard,Zuid-Holland,VBO,4.821043,51.924494
Margrietstraat,12,,,2964CE,Groot-Ammers,Molenwaard,Zuid-Holland,VBO,4.821749,51.924059
Margrietstraat,13,,,2964CE,Groot-Ammers,Molenwaard,Zuid-Holland,VBO,4.821157,51.924531
Margrietstraat,15,,,2964CE,Groot-Ammers,Molenwaard,Zuid-Holland,VBO,4.821227,51.924548
Margrietstraat,17,,,2964CE,Groot-Ammers,Molenwaard,Zuid-Holland,VBO,4.821308,51.924566
Margrietstraat,19,,,2964CE,Groot-Ammers,Molenwaard,Zuid-Holland,VBO,4.821320,51.924525
Margrietstraat,21,,,2964CE,Groot-Ammers,Molenwaard,Zuid-Holland,VBO,4.821238,51.924502
Margrietstraat,23,,,2964CE,Groot-Ammers,Molenwaard,Zuid-Holland,VBO,4.821568,51.924575
Margrietstraat,25,a,,2964CE,Groot-Ammers,Molenwaard,Zuid-Holland,VBO,4.821701,51.924415
Margrietstraat,25,,,2964CE,Groot-Ammers,Molenwaard,Zuid-Holland,VBO,4.821642,51.924487
Margrietstraat,27,,,2964CE,Groot-Ammers,Molenwaard,Zuid-Holland,VBO,4.821732,51.924361
Margrietstraat,33,,,2964CE,Groot-Ammers,Molenwaard,Zuid-Holland,VBO,4.821194,51.924591
Margrietstraat,35,,,2964CE,Groot-Ammers,Molenwaard,Zuid-Holland,VBO,4.821079,51.924559
Margrietstraat,37,,,2964CE,Groot-Ammers,Molenwaard,Zuid-Holland,VBO,4.820938,51.924516
Margrietstraat,39,,,2964CE,Groot-Ammers,Molenwaard,Zuid-Holland,VBO,4.820708,51.924472
Margrietstraat,41,,,2964CE,Groot-Ammers,Molenwaard,Zuid-Holland,VBO,4.820559,51.924424
Margrietstraat,43,,,2964CE,Groot-Ammers,Molenwaard,Zuid-Holland,VBO,4.820395,51.924383
Margrietstraat,45,,,2964CE,Groot-Ammers,Molenwaard,Zuid-Holland,VBO,4.820189,51.924327
Margrietstraat,47,,,2964CE,Groot-Ammers,Molenwaard,Zuid-Holland,VBO,4.820082,51.924291
Margrietstraat,49,,,2964CE,Groot-Ammers,Molenwaard,Zuid-Holland,VBO,4.820114,51.924194
Margrietstraat,51,,,2964CE,Groot-Ammers,Molenwaard,Zuid-Holland,VBO,4.820267,51.924226
Marijkestraat,9,,,2964CG,Groot-Ammers,Molenwaard,Zuid-Holland,VBO,4.822200,51.923767
Marijkestraat,11,,,2964CG,Groot-Ammers,Molenwaard,Zuid-Holland,VBO,4.822805,51.923814
Marijkestraat,13,,,2964CG,Groot-Ammers,Molenwaard,Zuid-Holland,VBO,4.823050,51.923866
Marijkestraat,15,,,2964CG,Groot-Ammers,Molenwaard,Zuid-Holland,VBO,4.823143,51.923887
Marijkestraat,17,,,2964CG,Groot-Ammers,Molenwaard,Zuid-Holland,VBO,4.823867,51.924023
Marijkestraat,19,,,2964CG,Groot-Ammers,Molenwaard,Zuid-Holland,VBO,4.823959,51.924045
Marijkestraat,21,,,2964CG,Groot-Ammers,Molenwaard,Zuid-Holland,VBO,4.824050,51.924066
Marijkestraat,23,,,2964CG,Groot-Ammers,Molenwaard,Zuid-Holland,VBO,4.824140,51.924087
Marijkestraat,25,,,2964CG,Groot-Ammers,Molenwaard,Zuid-Holland,VBO,4.824232,51.924109
Marijkestraat,27,,,2964CG,Groot-Ammers,Molenwaard,Zuid-Holland,VBO,4.824558,51.924172
Marijkestraat,29,,,2964CG,Groot-Ammers,Molenwaard,Zuid-Holland,VBO,4.824703,51.924199
Marijkestraat,31,,,2964CG,Groot-Ammers,Molenwaard,Zuid-Holland,VBO,4.824790,51.924218
Marijkestraat,33,,,2964CG,Groot-Ammers,Molenwaard,Zuid-Holland,VBO,4.824877,51.924236
Marijkestraat,35,,,2964CG,Groot-Ammers,Molenwaard,Zuid-Holland,VBO,4.824964,51.924254
Marijkestraat,37,,,2964CG,Groot-Ammers,Molenwaard,Zuid-Holland,VBO,4.825051,51.924273
Marijkestraat,39,,,2964CG,Groot-Ammers,Molenwaard,Zuid-Holland,VBO,4.825225,51.924319
Marijkestraat,41,,,2964CG,Groot-Ammers,Molenwaard,Zuid-Holland,VBO,4.825308,51.924344
Marijkestraat,43,,,2964CG,Groot-Ammers,Molenwaard,Zuid-Holland,VBO,4.825394,51.924360
Marijkestraat,45,,,2964CG,Groot-Ammers,Molenwaard,Zuid-Holland,VBO,4.825479,51.924379
Marijkestraat,47,,,2964CG,Groot-Ammers,Molenwaard,Zuid-Holland,VBO,4.825544,51.924401
Marijkestraat,49,,,2964CG,Groot-Ammers,Molenwaard,Zuid-Holland,VBO,4.825924,51.924493
Marijkestraat,51,,,2964CG,Groot-Ammers,Molenwaard,Zuid-Holland,VBO,4.826000,51.924513
Marijkestraat,53,,,2964CG,Groot-Ammers,Molenwaard,Zuid-Holland,VBO,4.826083,51.924540
Marijkestraat,55,,,2964CG,Groot-Ammers,Molenwaard,Zuid-Holland,VBO,4.826170,51.924560
Marijkestraat,57,,,2964CG,Groot-Ammers,Molenwaard,Zuid-Holland,VBO,4.826254,51.924580
Marijkestraat,59,,,2964CG,Groot-Ammers,Molenwaard,Zuid-Holland,VBO,4.826326,51.924603
Marijkestraat,8,,,2964CH,Groot-Ammers,Molenwaard,Zuid-Holland,VBO,4.821886,51.923419
Marijkestraat,10,,,2964CH,Groot-Ammers,Molenwaard,Zuid-Holland,VBO,4.822104,51.923463
Marijkestraat,12,,,2964CH,Groot-Ammers,Molenwaard,Zuid-Holland,VBO,4.822302,51.923507
Marijkestraat,14,,,2964CH,Groot-Ammers,Molenwaard,Zuid-Holland,VBO,4.823181,51.923599
Marijkestraat,16,,,2964CH,Groot-Ammers,Molenwaard,Zuid-Holland,VBO,4.823272,51.923620
Marijkestraat,18,,,2964CH,Groot-Ammers,Molenwaard,Zuid-Holland,VBO,4.823362,51.923641
Marijkestraat,20,,,2964CH,Groot-Ammers,Molenwaard,Zuid-Holland,VBO,4.823445,51.923663
Marijkestraat,22,,,2964CH,Groot-Ammers,Molenwaard,Zuid-Holland,VBO,4.823623,51.923704
Marijkestraat,24,,,2964CH,Groot-Ammers,Molenwaard,Zuid-Holland,VBO,4.823714,51.923725
Marijkestraat,26,,,2964CH,Groot-Ammers,Molenwaard,Zuid-Holland,VBO,4.823803,51.923746
Marijkestraat,28,,,2964CH,Groot-Ammers,Molenwaard,Zuid-Holland,VBO,4.823893,51.923767
Marijkestraat,30,,,2964CH,Groot-Ammers,Molenwaard,Zuid-Holland,VBO,4.823983,51.923788
Marijkestraat,32,,,2964CH,Groot-Ammers,Molenwaard,Zuid-Holland,VBO,4.824068,51.923810
Marijkestraat,34,,,2964CH,Groot-Ammers,Molenwaard,Zuid-Holland,VBO,4.824264,51.923835
Marijkestraat,36,,,2964CH,Groot-Ammers,Molenwaard,Zuid-Holland,VBO,4.824358,51.923856
Marijkestraat,38,,,2964CH,Groot-Ammers,Molenwaard,Zuid-Holland,VBO,4.824750,51.923975
Marijkestraat,40,,,2964CH,Groot-Ammers,Molenwaard,Zuid-Holland,VBO,4.824779,51.923912
Marijkestraat,42,,,2964CH,Groot-Ammers,Molenwaard,Zuid-Holland,VBO,4.824824,51.923858
Marijkestraat,44,,,2964CH,Groot-Ammers,Molenwaard,Zuid-Holland,VBO,4.824854,51.923796
Marijkestraat,46,,,2964CH,Groot-Ammers,Molenwaard,Zuid-Holland,VBO,4.824898,51.923733
Marijkestraat,48,,,2964CJ,Groot-Ammers,Molenwaard,Zuid-Holland,VBO,4.825011,51.923994
Marijkestraat,50,,,2964CJ,Groot-Ammers,Molenwaard,Zuid-Holland,VBO,4.825112,51.924021
Marijkestraat,52,,,2964CJ,Groot-Ammers,Molenwaard,Zuid-Holland,VBO,4.825199,51.924040
Marijkestraat,54,,,2964CJ,Groot-Ammers,Molenwaard,Zuid-Holland,VBO,4.825301,51.924067
Marijkestraat,56,,,2964CJ,Groot-Ammers,Molenwaard,Zuid-Holland,VBO,4.825402,51.924086
Marijkestraat,58,,,2964CJ,Groot-Ammers,Molenwaard,Zuid-Holland,VBO,4.825518,51.924104
Marijkestraat,60,,,2964CJ,Groot-Ammers,Molenwaard,Zuid-Holland,VBO,4.825591,51.924141
Marijkestraat,62,,,2964CJ,Groot-Ammers,Molenwaard,Zuid-Holland,VBO,4.825663,51.924150
Marijkestraat,64,,,2964CJ,Groot-Ammers,Molenwaard,Zuid-Holland,VBO,4.825736,51.924168
Marijkestraat,66,,,2964CJ,Groot-Ammers,Molenwaard,Zuid-Holland,VBO,4.825794,51.924178
Marijkestraat,68,,,2964CJ,Groot-Ammers,Molenwaard,Zuid-Holland,VBO,4.825924,51.924241
Marijkestraat,70,,,2964CJ,Groot-Ammers,Molenwaard,Zuid-Holland,VBO,4.825996,51.924259
Marijkestraat,72,,,2964CJ,Groot-Ammers,Molenwaard,Zuid-Holland,VBO,4.826069,51.924278
Marijkestraat,74,,,2964CJ,Groot-Ammers,Molenwaard,Zuid-Holland,VBO,4.826141,51.924296
Marijkestraat,76,,,2964CJ,Groot-Ammers,Molenwaard,Zuid-Holland,VBO,4.826214,51.924305
Marijkestraat,78,,,2964CJ,Groot-Ammers,Molenwaard,Zuid-Holland,VBO,4.826286,51.924324
Marijkestraat,80,,,2964CJ,Groot-Ammers,Molenwaard,Zuid-Holland,VBO,4.826359,51.924342
Marijkestraat,82,,,2964CJ,Groot-Ammers,Molenwaard,Zuid-Holland,VBO,4.826678,51.924415
Marijkestraat,84,,,2964CJ,Groot-Ammers,Molenwaard,Zuid-Holland,VBO,4.826750,51.924434
Marijkestraat,86,,,2964CJ,Groot-Ammers,Molenwaard,Zuid-Holland,VBO,4.826823,51.924443
Marijkestraat,88,,,2964CJ,Groot-Ammers,Molenwaard,Zuid-Holland,VBO,4.826895,51.924461
Marijkestraat,90,,,2964CJ,Groot-Ammers,Molenwaard,Zuid-Holland,VBO,4.826967,51.924480
Marijkestraat,92,,,2964CJ,Groot-Ammers,Molenwaard,Zuid-Holland,VBO,4.827040,51.924489
Nassaustraat,1,,,2964CK,Groot-Ammers,Molenwaard,Zuid-Holland,VBO,4.823201,51.925030
Nassaustraat,2,,,2964CK,Groot-Ammers,Molenwaard,Zuid-Holland,VBO,4.823334,51.924813
Nassaustraat,3,,,2964CK,Groot-Ammers,Molenwaard,Zuid-Holland,VBO,4.823284,51.925050
Nassaustraat,4,,,2964CK,Groot-Ammers,Molenwaard,Zuid-Holland,VBO,4.823419,51.924833
Nassaustraat,5,,,2964CK,Groot-Ammers,Molenwaard,Zuid-Holland,VBO,4.823366,51.925069
Nassaustraat,6,,,2964CK,Groot-Ammers,Molenwaard,Zuid-Holland,VBO,4.823501,51.924852
Nassaustraat,7,,,2964CK,Groot-Ammers,Molenwaard,Zuid-Holland,VBO,4.823448,51.925088
Nassaustraat,8,,,2964CK,Groot-Ammers,Molenwaard,Zuid-Holland,VBO,4.823575,51.924859
Nassaustraat,9,,,2964CK,Groot-Ammers,Molenwaard,Zuid-Holland,VBO,4.823530,51.925108
Nassaustraat,10,,,2964CK,Groot-Ammers,Molenwaard,Zuid-Holland,VBO,4.823662,51.924886
Nassaustraat,11,,,2964CK,Groot-Ammers,Molenwaard,Zuid-Holland,VBO,4.823616,51.925111
Nassaustraat,12,,,2964CK,Groot-Ammers,Molenwaard,Zuid-Holland,VBO,4.823735,51.924896
Prins Hendrikstraat,1,,,2964CL,Groot-Ammers,Molenwaard,Zuid-Holland,VBO,4.822741,51.925234
Prins Hendrikstraat,2,,,2964CL,Groot-Ammers,Molenwaard,Zuid-Holland,VBO,4.822603,51.924825
Prins Hendrikstraat,3,,,2964CL,Groot-Ammers,Molenwaard,Zuid-Holland,VBO,4.822773,51.925183
Prins Hendrikstraat,4,,,2964CL,Groot-Ammers,Molenwaard,Zuid-Holland,VBO,4.822637,51.924769
Prins Hendrikstraat,5,,,2964CL,Groot-Ammers,Molenwaard,Zuid-Holland,VBO,4.822805,51.925130
Prins Hendrikstraat,6,,,2964CL,Groot-Ammers,Molenwaard,Zuid-Holland,VBO,4.822671,51.924713
Prins Hendrikstraat,7,,,2964CL,Groot-Ammers,Molenwaard,Zuid-Holland,VBO,4.822835,51.925082
Prins Hendrikstraat,8,,,2964CL,Groot-Ammers,Molenwaard,Zuid-Holland,VBO,4.822706,51.924657
Prins Hendrikstraat,9,,,2964CL,Groot-Ammers,Molenwaard,Zuid-Holland,VBO,4.822870,51.925030
Prins Hendrikstraat,10,,,2964CL,Groot-Ammers,Molenwaard,Zuid-Holland,VBO,4.822740,51.924602
Prins Hendrikstraat,11,,,2964CL,Groot-Ammers,Molenwaard,Zuid-Holland,VBO,4.822899,51.924980
Prins Hendrikstraat,12,,,2964CL,Groot-Ammers,Molenwaard,Zuid-Holland,VBO,4.822774,51.924546
Prins Hendrikstraat,13,,,2964CL,Groot-Ammers,Molenwaard,Zuid-Holland,VBO,4.823059,51.924733
Prins Hendrikstraat,14,,,2964CL,Groot-Ammers,Molenwaard,Zuid-Holland,VBO,4.822808,51.924490
Prins Hendrikstraat,15,,,2964CL,Groot-Ammers,Molenwaard,Zuid-Holland,VBO,4.823083,51.924677
Prins Hendrikstraat,16,,,2964CL,Groot-Ammers,Molenwaard,Zuid-Holland,VBO,4.822842,51.924434
Prins Hendrikstraat,17,,,2964CL,Groot-Ammers,Molenwaard,Zuid-Holland,VBO,4.823128,51.924632
Prins Hendrikstraat,18,,,2964CL,Groot-Ammers,Molenwaard,Zuid-Holland,VBO,4.822892,51.924351
Prins Hendrikstraat,19,,,2964CL,Groot-Ammers,Molenwaard,Zuid-Holland,VBO,4.823145,51.924578
Prins Hendrikstraat,20,,,2964CL,Groot-Ammers,Molenwaard,Zuid-Holland,VBO,4.822926,51.924295
Prins Hendrikstraat,21,,,2964CL,Groot-Ammers,Molenwaard,Zuid-Holland,VBO,4.823174,51.924527
Prins Hendrikstraat,22,,,2964CL,Groot-Ammers,Molenwaard,Zuid-Holland,VBO,4.822958,51.924236
Prins Hendrikstraat,23,,,2964CL,Groot-Ammers,Molenwaard,Zuid-Holland,VBO,4.823205,51.924479
Prins Hendrikstraat,24,,,2964CL,Groot-Ammers,Molenwaard,Zuid-Holland,VBO,4.822994,51.924185
Prins Hendrikstraat,25,,,2964CL,Groot-Ammers,Molenwaard,Zuid-Holland,VBO,4.823352,51.924227
Prins Hendrikstraat,26,,,2964CL,Groot-Ammers,Molenwaard,Zuid-Holland,VBO,4.823028,51.924129
Prins Hendrikstraat,27,,,2964CL,Groot-Ammers,Molenwaard,Zuid-Holland,VBO,4.823382,51.924169
Prins Hendrikstraat,28,,,2964CL,Groot-Ammers,Molenwaard,Zuid-Holland,VBO,4.823063,51.924072
Prins Hendrikstraat,29,,,2964CL,Groot-Ammers,Molenwaard,Zuid-Holland,VBO,4.823416,51.924114
Prins Hendrikstraat,31,,,2964CL,Groot-Ammers,Molenwaard,Zuid-Holland,VBO,4.823453,51.924060
Prins Hendrikstraat,33,,,2964CL,Groot-Ammers,Molenwaard,Zuid-Holland,VBO,4.823489,51.924001
Willem-Alexanderplein,1,a,,2964CM,Groot-Ammers,Molenwaard,Zuid-Holland,VBO,4.825514,51.923947
Willem-Alexanderplein,1,b,,2964CM,Groot-Ammers,Molenwaard,Zuid-Holland,VBO,4.825474,51.923935
Willem-Alexanderplein,1,c,,2964CM,Groot-Ammers,Molenwaard,Zuid-Holland,VBO,4.825439,51.923928
Willem-Alexanderplein,1,d,,2964CM,Groot-Ammers,Molenwaard,Zuid-Holland,VBO,4.825387,51.923905
Willem-Alexanderplein,1,e,,2964CM,Groot-Ammers,Molenwaard,Zuid-Holland,VBO,4.825346,51.923895
Willem-Alexanderplein,1,f,,2964CM,Groot-Ammers,Molenwaard,Zuid-Holland,VBO,4.825301,51.923885
Willem-Alexanderplein,1,g,,2964CM,Groot-Ammers,Molenwaard,Zuid-Holland,VBO,4.825257,51.923877
Willem-Alexanderplein,1,h,,2964CM,Groot-Ammers,Molenwaard,Zuid-Holland,VBO,4.825215,51.923866
Willem-Alexanderplein,1,i,,2964CM,Groot-Ammers,Molenwaard,Zuid-Holland,VBO,4.825173,51.923857
Willem-Alexanderplein,1,j,,2964CM,Groot-Ammers,Molenwaard,Zuid-Holland,VBO,4.825131,51.923847
Willem-Alexanderplein,1,,,2964CM,Groot-Ammers,Molenwaard,Zuid-Holland,VBO,4.826139,51.923995
Willem-Alexanderplein,2,,,2964CM,Groot-Ammers,Molenwaard,Zuid-Holland,VBO,4.826342,51.923758
Willem-Alexanderplein,3,,,2964CM,Groot-Ammers,Molenwaard,Zuid-Holland,VBO,4.826230,51.924016
Willem-Alexanderplein,4,,,2964CM,Groot-Ammers,Molenwaard,Zuid-Holland,VBO,4.826442,51.923771
Willem-Alexanderplein,5,,,2964CM,Groot-Ammers,Molenwaard,Zuid-Holland,VBO,4.826321,51.924038
Willem-Alexanderplein,6,,,2964CM,Groot-Ammers,Molenwaard,Zuid-Holland,VBO,4.826524,51.923801
Willem-Alexanderplein,7,,,2964CM,Groot-Ammers,Molenwaard,Zuid-Holland,VBO,4.826413,51.924060
Willem-Alexanderplein,8,,,2964CM,Groot-Ammers,Molenwaard,Zuid-Holland,VBO,4.826619,51.923813
Willem-Alexanderplein,9,,,2964CM,Groot-Ammers,Molenwaard,Zuid-Holland,VBO,4.826505,51.924081
Willem-Alexanderplein,10,,,2964CM,Groot-Ammers,Molenwaard,Zuid-Holland,VBO,4.826710,51.923836
Willem-Alexanderplein,12,,,2964CM,Groot-Ammers,Molenwaard,Zuid-Holland,VBO,4.826816,51.923858
Willem-Alexanderplein,14,,,2964CM,Groot-Ammers,Molenwaard,Zuid-Holland,VBO,4.827006,51.923917
Willem-Alexanderplein,16,,,2964CM,Groot-Ammers,Molenwaard,Zuid-Holland,VBO,4.826957,51.923975
Willem-Alexanderplein,18,,,2964CM,Groot-Ammers,Molenwaard,Zuid-Holland,VBO,4.826922,51.924032
Willem-Alexanderplein,20,,,2964CM,Groot-Ammers,Molenwaard,Zuid-Holland,VBO,4.826888,51.924088
Willem-Alexanderplein,22,,,2964CM,Groot-Ammers,Molenwaard,Zuid-Holland,VBO,4.826853,51.924145
Willem-Alexanderplein,24,,,2964CM,Groot-Ammers,Molenwaard,Zuid-Holland,VBO,4.826830,51.924204
Willem-Alexanderplein,26,,,2964CM,Groot-Ammers,Molenwaard,Zuid-Holland,VBO,4.827248,51.924164
Willem-Alexanderplein,28,,,2964CM,Groot-Ammers,Molenwaard,Zuid-Holland,VBO,4.827232,51.924189
Willem-Alexanderplein,30,,,2964CM,Groot-Ammers,Molenwaard,Zuid-Holland,VBO,4.827216,51.924215
Willem-Alexanderplein,32,,,2964CM,Groot-Ammers,Molenwaard,Zuid-Holland,VBO,4.827201,51.924240
Willem-Alexanderplein,34,,,2964CM,Groot-Ammers,Molenwaard,Zuid-Holland,VBO,4.827185,51.924265
Willem-Alexanderplein,36,,,2964CM,Groot-Ammers,Molenwaard,Zuid-Holland,VBO,4.827170,51.924290
Willem-Alexanderplein,38,,,2964CM,Groot-Ammers,Molenwaard,Zuid-Holland,VBO,4.827155,51.924315
Willem-Alexanderplein,40,,,2964CM,Groot-Ammers,Molenwaard,Zuid-Holland,VBO,4.827139,51.924341
Willem de Zwijgerstraat,1,,,2964CN,Groot-Ammers,Molenwaard,Zuid-Holland,VBO,4.823505,51.924524
Willem de Zwijgerstraat,2,,,2964CN,Groot-Ammers,Molenwaard,Zuid-Holland,VBO,4.823681,51.924321
Willem de Zwijgerstraat,3,,,2964CN,Groot-Ammers,Molenwaard,Zuid-Holland,VBO,4.823593,51.924540
Willem de Zwijgerstraat,4,,,2964CN,Groot-Ammers,Molenwaard,Zuid-Holland,VBO,4.823773,51.924342
Willem de Zwijgerstraat,5,,,2964CN,Groot-Ammers,Molenwaard,Zuid-Holland,VBO,4.823677,51.924564
Willem de Zwijgerstraat,6,,,2964CN,Groot-Ammers,Molenwaard,Zuid-Holland,VBO,4.823864,51.924364
Willem de Zwijgerstraat,7,,,2964CN,Groot-Ammers,Molenwaard,Zuid-Holland,VBO,4.823759,51.924583
Willem de Zwijgerstraat,8,,,2964CN,Groot-Ammers,Molenwaard,Zuid-Holland,VBO,4.823955,51.924385
Willem de Zwijgerstraat,9,,,2964CN,Groot-Ammers,Molenwaard,Zuid-Holland,VBO,4.823841,51.924602
Willem de Zwijgerstraat,10,,,2964CN,Groot-Ammers,Molenwaard,Zuid-Holland,VBO,4.824047,51.924407
Willem de Zwijgerstraat,11,,,2964CN,Groot-Ammers,Molenwaard,Zuid-Holland,VBO,4.823924,51.924621
Wilhelminastraat,1,,,2964CP,Groot-Ammers,Molenwaard,Zuid-Holland,VBO,4.818879,51.923731
Wilhelminastraat,2,b,,2964CP,Groot-Ammers,Molenwaard,Zuid-Holland,VBO,4.818385,51.923245
Wilhelminastraat,2,c,,2964CP,Groot-Ammers,Molenwaard,Zuid-Holland,VBO,4.818454,51.923258
Wilhelminastraat,2,d,,2964CP,Groot-Ammers,Molenwaard,Zuid-Holland,VBO,4.818532,51.923268
Wilhelminastraat,2,e,,2964CP,Groot-Ammers,Molenwaard,Zuid-Holland,VBO,4.818590,51.923281
Wilhelminastraat,2,,,2964CP,Groot-Ammers,Molenwaard,Zuid-Holland,VBO,4.818477,51.923287
Wilhelminastraat,3,,,2964CP,Groot-Ammers,Molenwaard,Zuid-Holland,VBO,4.818490,51.923480
Wilhelminastraat,4,,,2964CP,Groot-Ammers,Molenwaard,Zuid-Holland,VBO,4.818791,51.923290
Wilhelminastraat,5,,,2964CP,Groot-Ammers,Molenwaard,Zuid-Holland,VBO,4.818455,51.923508
Wilhelminastraat,6,a,,2964CP,Groot-Ammers,Molenwaard,Zuid-Holland,VBO,4.819043,51.923293
Wilhelminastraat,6,,,2964CP,Groot-Ammers,Molenwaard,Zuid-Holland,VBO,4.818835,51.923218
Wilhelminastraat,7,,,2964CP,Groot-Ammers,Molenwaard,Zuid-Holland,VBO,4.818408,51.923488
Wilhelminastraat,9,,,2964CP,Groot-Ammers,Molenwaard,Zuid-Holland,VBO,4.818251,51.923612
Wilhelminastraat,11,,,2964CP,Groot-Ammers,Molenwaard,Zuid-Holland,VBO,4.818394,51.923536
Wilhelminastraat,13,,,2964CP,Groot-Ammers,Molenwaard,Zuid-Holland,VBO,4.818468,51.923546
Wilhelminastraat,15,,,2964CP,Groot-Ammers,Molenwaard,Zuid-Holland,VBO,4.818299,51.923619
Nachtegaalstraat,2,,,2964CR,Groot-Ammers,Molenwaard,Zuid-Holland,VBO,4.827943,51.925554
Nachtegaalstraat,4,,,2964CR,Groot-Ammers,Molenwaard,Zuid-Holland,VBO,4.828015,51.925545
Nachtegaalstraat,6,,,2964CR,Groot-Ammers,Molenwaard,Zuid-Holland,VBO,4.828101,51.925584
Nachtegaalstraat,8,,,2964CR,Groot-Ammers,Molenwaard,Zuid-Holland,VBO,4.828169,51.925613
Nachtegaalstraat,10,,,2964CR,Groot-Ammers,Molenwaard,Zuid-Holland,VBO,4.828262,51.925600
Nachtegaalstraat,12,,,2964CR,Groot-Ammers,Molenwaard,Zuid-Holland,VBO,4.828349,51.925592
Nachtegaalstraat,14,,,2964CR,Groot-Ammers,Molenwaard,Zuid-Holland,VBO,4.828422,51.925610
Nachtegaalstraat,16,,,2964CR,Groot-Ammers,Molenwaard,Zuid-Holland,VBO,4.828494,51.925620
Nachtegaalstraat,18,,,2964CR,Groot-Ammers,Molenwaard,Zuid-Holland,VBO,4.828604,51.925660
Reigerstraat,1,,,2964CS,Groot-Ammers,Molenwaard,Zuid-Holland,VBO,4.828383,51.926599
Reigerstraat,2,,,2964CS,Groot-Ammers,Molenwaard,Zuid-Holland,VBO,4.828008,51.926502
Reigerstraat,3,,,2964CS,Groot-Ammers,Molenwaard,Zuid-Holland,VBO,4.828424,51.926558
Reigerstraat,4,,,2964CS,Groot-Ammers,Molenwaard,Zuid-Holland,VBO,4.828016,51.926456
Reigerstraat,5,,,2964CS,Groot-Ammers,Molenwaard,Zuid-Holland,VBO,4.828451,51.926513
Reigerstraat,6,,,2964CS,Groot-Ammers,Molenwaard,Zuid-Holland,VBO,4.828043,51.926413
Reigerstraat,7,,,2964CS,Groot-Ammers,Molenwaard,Zuid-Holland,VBO,4.828478,51.926468
Reigerstraat,8,,,2964CS,Groot-Ammers,Molenwaard,Zuid-Holland,VBO,4.828082,51.926368
Reigerstraat,9,,,2964CS,Groot-Ammers,Molenwaard,Zuid-Holland,VBO,4.828528,51.926426
Reigerstraat,10,,,2964CS,Groot-Ammers,Molenwaard,Zuid-Holland,VBO,4.828096,51.926326
Reigerstraat,11,,,2964CS,Groot-Ammers,Molenwaard,Zuid-Holland,VBO,4.828559,51.926375
Reigerstraat,12,,,2964CS,Groot-Ammers,Molenwaard,Zuid-Holland,VBO,4.828123,51.926282
Reigerstraat,13,,,2964CS,Groot-Ammers,Molenwaard,Zuid-Holland,VBO,4.828602,51.926336
Reigerstraat,14,,,2964CS,Groot-Ammers,Molenwaard,Zuid-Holland,VBO,4.828172,51.926237
Reigerstraat,15,,,2964CS,Groot-Ammers,Molenwaard,Zuid-Holland,VBO,4.828629,51.926291
Reigerstraat,16,,,2964CS,Groot-Ammers,Molenwaard,Zuid-Holland,VBO,4.828290,51.926195
Reigerstraat,17,,,2964CS,Groot-Ammers,Molenwaard,Zuid-Holland,VBO,4.828667,51.926245
Reigerstraat,18,,,2964CS,Groot-Ammers,Molenwaard,Zuid-Holland,VBO,4.828309,51.926140
Reigerstraat,19,,,2964CS,Groot-Ammers,Molenwaard,Zuid-Holland,VBO,4.828694,51.926203
Reigerstraat,20,,,2964CS,Groot-Ammers,Molenwaard,Zuid-Holland,VBO,4.828354,51.926101
Reigerstraat,21,,,2964CS,Groot-Ammers,Molenwaard,Zuid-Holland,VBO,4.828710,51.926156
Reigerstraat,22,,,2964CS,Groot-Ammers,Molenwaard,Zuid-Holland,VBO,4.828318,51.926040
Reigerstraat,23,,,2964CS,Groot-Ammers,Molenwaard,Zuid-Holland,VBO,4.828763,51.926111
Reigerstraat,24,,,2964CS,Groot-Ammers,Molenwaard,Zuid-Holland,VBO,4.828329,51.925990
Reigerstraat,25,,,2964CS,Groot-Ammers,Molenwaard,Zuid-Holland,VBO,4.828722,51.925989
Reigerstraat,26,,,2964CS,Groot-Ammers,Molenwaard,Zuid-Holland,VBO,4.828363,51.925945
Reigerstraat,27,,,2964CS,Groot-Ammers,Molenwaard,Zuid-Holland,VBO,4.828799,51.925938
Reigerstraat,28,,,2964CS,Groot-Ammers,Molenwaard,Zuid-Holland,VBO,4.828379,51.925902
Reigerstraat,29,,,2964CS,Groot-Ammers,Molenwaard,Zuid-Holland,VBO,4.828844,51.925844
Reigerstraat,30,,,2964CS,Groot-Ammers,Molenwaard,Zuid-Holland,VBO,4.828432,51.925859
Reigerstraat,31,,,2964CS,Groot-Ammers,Molenwaard,Zuid-Holland,VBO,4.828914,51.925792
Reigerstraat,33,,,2964CS,Groot-Ammers,Molenwaard,Zuid-Holland,VBO,4.829000,51.925705
Reigerstraat,35,,,2964CS,Groot-Ammers,Molenwaard,Zuid-Holland,VBO,4.829003,51.925631
Valkenlaan,1,,,2964CT,Groot-Ammers,Molenwaard,Zuid-Holland,VBO,4.827338,51.926600
Valkenlaan,2,,,2964CT,Groot-Ammers,Molenwaard,Zuid-Holland,VBO,4.828918,51.926697
Valkenlaan,3,,,2964CT,Groot-Ammers,Molenwaard,Zuid-Holland,VBO,4.827489,51.926613
Valkenlaan,4,,,2964CT,Groot-Ammers,Molenwaard,Zuid-Holland,VBO,4.828995,51.926710
Valkenlaan,5,,,2964CT,Groot-Ammers,Molenwaard,Zuid-Holland,VBO,4.827778,51.926698
Valkenlaan,6,,,2964CT,Groot-Ammers,Molenwaard,Zuid-Holland,VBO,4.829201,51.926758
Valkenlaan,7,,,2964CT,Groot-Ammers,Molenwaard,Zuid-Holland,VBO,4.827926,51.926714
Valkenlaan,8,,,2964CT,Groot-Ammers,Molenwaard,Zuid-Holland,VBO,4.829269,51.926790
Valkenlaan,9,,,2964CT,Groot-Ammers,Molenwaard,Zuid-Holland,VBO,4.828215,51.926796
Valkenlaan,10,,,2964CT,Groot-Ammers,Molenwaard,Zuid-Holland,VBO,4.829413,51.926892
Valkenlaan,11,,,2964CT,Groot-Ammers,Molenwaard,Zuid-Holland,VBO,4.828361,51.926813
Valkenlaan,12,,,2964CT,Groot-Ammers,Molenwaard,Zuid-Holland,VBO,4.829483,51.926940
Valkenlaan,13,,,2964CT,Groot-Ammers,Molenwaard,Zuid-Holland,VBO,4.829762,51.927529
Valkenlaan,14,,,2964CT,Groot-Ammers,Molenwaard,Zuid-Holland,VBO,4.829552,51.926985
Valkenlaan,15,,,2964CT,Groot-Ammers,Molenwaard,Zuid-Holland,VBO,4.829815,51.927671
Valkenlaan,16,,,2964CT,Groot-Ammers,Molenwaard,Zuid-Holland,VBO,4.829693,51.927084
Valkenlaan,17,,,2964CT,Groot-Ammers,Molenwaard,Zuid-Holland,VBO,4.829829,51.927824
Valkenlaan,18,,,2964CT,Groot-Ammers,Molenwaard,Zuid-Holland,VBO,4.829755,51.927118
Valkenlaan,19,,,2964CT,Groot-Ammers,Molenwaard,Zuid-Holland,VBO,4.829864,51.927955
Valkenlaan,20,,,2964CT,Groot-Ammers,Molenwaard,Zuid-Holland,VBO,4.830157,51.927551
Valkenlaan,21,,,2964CT,Groot-Ammers,Molenwaard,Zuid-Holland,VBO,4.829909,51.928097
Valkenlaan,22,,,2964CT,Groot-Ammers,Molenwaard,Zuid-Holland,VBO,4.830447,51.927561
Valkenlaan,23,,,2964CT,Groot-Ammers,Molenwaard,Zuid-Holland,VBO,4.830131,51.928221
Valkenlaan,24,,,2964CT,Groot-Ammers,Molenwaard,Zuid-Holland,VBO,4.830652,51.927676
Valkenlaan,26,,,2964CT,Groot-Ammers,Molenwaard,Zuid-Holland,VBO,4.830557,51.927849
Valkenlaan,28,,,2964CT,Groot-Ammers,Molenwaard,Zuid-Holland,VBO,4.830271,51.927974
Valkenlaan,30,,,2964CT,Groot-Ammers,Molenwaard,Zuid-Holland,VBO,4.830441,51.928047
Zwaluwensingel,1,,,2964CV,Groot-Ammers,Molenwaard,Zuid-Holland,VBO,4.827628,51.926353
Zwaluwensingel,3,,,2964CV,Groot-Ammers,Molenwaard,Zuid-Holland,VBO,4.827658,51.926304
Zwaluwensingel,5,,,2964CV,Groot-Ammers,Molenwaard,Zuid-Holland,VBO,4.827687,51.926256
Zwaluwensingel,7,,,2964CV,Groot-Ammers,Molenwaard,Zuid-Holland,VBO,4.827716,51.926209
Zwaluwensingel,9,,,2964CV,Groot-Ammers,Molenwaard,Zuid-Holland,VBO,4.827745,51.926161
Zwaluwensingel,11,,,2964CV,Groot-Ammers,Molenwaard,Zuid-Holland,VBO,4.827774,51.926113
Zwaluwensingel,13,,,2964CV,Groot-Ammers,Molenwaard,Zuid-Holland,VBO,4.827803,51.926064
Zwaluwensingel,15,,,2964CV,Groot-Ammers,Molenwaard,Zuid-Holland,VBO,4.827893,51.926011
Zwaluwensingel,17,,,2964CV,Groot-Ammers,Molenwaard,Zuid-Holland,VBO,4.827922,51.925962
Zwaluwensingel,19,,,2964CV,Groot-Ammers,Molenwaard,Zuid-Holland,VBO,4.827952,51.925914
Zwaluwensingel,21,,,2964CV,Groot-Ammers,Molenwaard,Zuid-Holland,VBO,4.827981,51.925866
Zwaluwensingel,23,,,2964CV,Groot-Ammers,Molenwaard,Zuid-Holland,VBO,4.828010,51.925817
Essenweg,2,,,2964CW,Groot-Ammers,Molenwaard,Zuid-Holland,VBO,4.834290,51.921297
Eiberplantsoen,1,,,2964CX,Groot-Ammers,Molenwaard,Zuid-Holland,VBO,4.829051,51.923894
Eiberplantsoen,2,,,2964CX,Groot-Ammers,Molenwaard,Zuid-Holland,VBO,4.829049,51.923897
Eiberplantsoen,3,,,2964CX,Groot-Ammers,Molenwaard,Zuid-Holland,VBO,4.829068,51.923950
Eiberplantsoen,4,,,2964CX,Groot-Ammers,Molenwaard,Zuid-Holland,VBO,4.829015,51.923949
Eiberplantsoen,5,,,2964CX,Groot-Ammers,Molenwaard,Zuid-Holland,VBO,4.829052,51.923995
Eiberplantsoen,6,,,2964CX,Groot-Ammers,Molenwaard,Zuid-Holland,VBO,4.829052,51.924004
Eiberplantsoen,7,,,2964CX,Groot-Ammers,Molenwaard,Zuid-Holland,VBO,4.829023,51.924040
Eiberplantsoen,8,,,2964CX,Groot-Ammers,Molenwaard,Zuid-Holland,VBO,4.829023,51.924049
Eiberplantsoen,9,,,2964CX,Groot-Ammers,Molenwaard,Zuid-Holland,VBO,4.828934,51.924081
Eiberplantsoen,10,,,2964CX,Groot-Ammers,Molenwaard,Zuid-Holland,VBO,4.828993,51.924094
Eiberplantsoen,11,,,2964CX,Groot-Ammers,Molenwaard,Zuid-Holland,VBO,4.828904,51.924130
Eiberplantsoen,12,,,2964CX,Groot-Ammers,Molenwaard,Zuid-Holland,VBO,4.828963,51.924139
Eiberplantsoen,13,,,2964CX,Groot-Ammers,Molenwaard,Zuid-Holland,VBO,4.828895,51.924199
Eiberplantsoen,14,,,2964CX,Groot-Ammers,Molenwaard,Zuid-Holland,VBO,4.828839,51.924240
Eiberplantsoen,15,,,2964CX,Groot-Ammers,Molenwaard,Zuid-Holland,VBO,4.828818,51.924284
Eiberplantsoen,16,,,2964CX,Groot-Ammers,Molenwaard,Zuid-Holland,VBO,4.828786,51.924330
Eiberplantsoen,17,,,2964CX,Groot-Ammers,Molenwaard,Zuid-Holland,VBO,4.828764,51.924377
Eiberplantsoen,18,,,2964CX,Groot-Ammers,Molenwaard,Zuid-Holland,VBO,4.828742,51.924425
Eiberplantsoen,19,,,2964CX,Groot-Ammers,Molenwaard,Zuid-Holland,VBO,4.828712,51.924488
Eiberplantsoen,20,,,2964CX,Groot-Ammers,Molenwaard,Zuid-Holland,VBO,4.828658,51.924538
Eiberplantsoen,21,,,2964CX,Groot-Ammers,Molenwaard,Zuid-Holland,VBO,4.828682,51.924587
Eiberplantsoen,22,,,2964CX,Groot-Ammers,Molenwaard,Zuid-Holland,VBO,4.828599,51.924630
Eiberplantsoen,23,,,2964CX,Groot-Ammers,Molenwaard,Zuid-Holland,VBO,4.828622,51.924676
Eiberplantsoen,24,,,2964CX,Groot-Ammers,Molenwaard,Zuid-Holland,VBO,4.828549,51.924730
Eiberplantsoen,25,,,2964CX,Groot-Ammers,Molenwaard,Zuid-Holland,VBO,4.828519,51.924811
Eiberplantsoen,26,,,2964CX,Groot-Ammers,Molenwaard,Zuid-Holland,VBO,4.828494,51.924868
Eiberplantsoen,27,,,2964CX,Groot-Ammers,Molenwaard,Zuid-Holland,VBO,4.828561,51.924910
Eiberplantsoen,28,,,2964CX,Groot-Ammers,Molenwaard,Zuid-Holland,VBO,4.828505,51.924971
Eiberplantsoen,29,,,2964CX,Groot-Ammers,Molenwaard,Zuid-Holland,VBO,4.828546,51.925009
Eiberplantsoen,30,,,2964CX,Groot-Ammers,Molenwaard,Zuid-Holland,VBO,4.828516,51.925062
Eiberplantsoen,31,,,2964CX,Groot-Ammers,Molenwaard,Zuid-Holland,VBO,4.828735,51.925010
Eiberplantsoen,32,,,2964CX,Groot-Ammers,Molenwaard,Zuid-Holland,VBO,4.828818,51.925005
Eiberplantsoen,33,,,2964CX,Groot-Ammers,Molenwaard,Zuid-Holland,VBO,4.828901,51.925016
Eiberplantsoen,34,,,2964CX,Groot-Ammers,Molenwaard,Zuid-Holland,VBO,4.828952,51.925020
Eiberplantsoen,35,,,2964CX,Groot-Ammers,Molenwaard,Zuid-Holland,VBO,4.829039,51.925038
Eiberplantsoen,36,,,2964CX,Groot-Ammers,Molenwaard,Zuid-Holland,VBO,4.829113,51.924993
Eiberplantsoen,37,,,2964CX,Groot-Ammers,Molenwaard,Zuid-Holland,VBO,4.829224,51.925062
Eiberplantsoen,38,,,2964CX,Groot-Ammers,Molenwaard,Zuid-Holland,VBO,4.829345,51.924985
Eiberplantsoen,39,,,2964CX,Groot-Ammers,Molenwaard,Zuid-Holland,VBO,4.829433,51.924959
Eiberplantsoen,40,,,2964CX,Groot-Ammers,Molenwaard,Zuid-Holland,VBO,4.829477,51.924923
Eiberplantsoen,41,,,2964CX,Groot-Ammers,Molenwaard,Zuid-Holland,VBO,4.829536,51.924887
Eiberplantsoen,42,,,2964CX,Groot-Ammers,Molenwaard,Zuid-Holland,VBO,4.829580,51.924843
Eiberplantsoen,43,,,2964CX,Groot-Ammers,Molenwaard,Zuid-Holland,VBO,4.829624,51.924798
Eiberplantsoen,44,,,2964CX,Groot-Ammers,Molenwaard,Zuid-Holland,VBO,4.829582,51.924690
Eiberplantsoen,45,,,2964CX,Groot-Ammers,Molenwaard,Zuid-Holland,VBO,4.829655,51.924645
Eiberplantsoen,46,,,2964CX,Groot-Ammers,Molenwaard,Zuid-Holland,VBO,4.829583,51.924591
Eiberplantsoen,47,,,2964CX,Groot-Ammers,Molenwaard,Zuid-Holland,VBO,4.829671,51.924520
Eiberplantsoen,48,,,2964CX,Groot-Ammers,Molenwaard,Zuid-Holland,VBO,4.829744,51.924484
Eiberplantsoen,49,,,2964CX,Groot-Ammers,Molenwaard,Zuid-Holland,VBO,4.829716,51.924430
Eiberplantsoen,50,,,2964CX,Groot-Ammers,Molenwaard,Zuid-Holland,VBO,4.829833,51.924386
Eiberplantsoen,51,,,2964CX,Groot-Ammers,Molenwaard,Zuid-Holland,VBO,4.829790,51.924331
Eiberplantsoen,52,,,2964CX,Groot-Ammers,Molenwaard,Zuid-Holland,VBO,4.829790,51.924286
Eiberplantsoen,53,,,2964CX,Groot-Ammers,Molenwaard,Zuid-Holland,VBO,4.829791,51.924233
Eiberplantsoen,54,,,2964CX,Groot-Ammers,Molenwaard,Zuid-Holland,VBO,4.829735,51.924044
Eiberplantsoen,55,,,2964CX,Groot-Ammers,Molenwaard,Zuid-Holland,VBO,4.829855,51.924071
Eiberplantsoen,56,,,2964CX,Groot-Ammers,Molenwaard,Zuid-Holland,VBO,4.829953,51.924063
Eiberplantsoen,57,,,2964CX,Groot-Ammers,Molenwaard,Zuid-Holland,VBO,4.830102,51.924118
Elzenweg,1,,,2964CZ,Groot-Ammers,Molenwaard,Zuid-Holland,VBO,4.861024,51.924666
Fazantstraat,1,,,2964DA,Groot-Ammers,Molenwaard,Zuid-Holland,VBO,4.830422,51.927274
Fazantstraat,2,,,2964DA,Groot-Ammers,Molenwaard,Zuid-Holland,VBO,4.830353,51.926995
Fazantstraat,3,,,2964DA,Groot-Ammers,Molenwaard,Zuid-Holland,VBO,4.830654,51.927329
Fazantstraat,4,,,2964DA,Groot-Ammers,Molenwaard,Zuid-Holland,VBO,4.830469,51.927022
Fazantstraat,5,,,2964DA,Groot-Ammers,Molenwaard,Zuid-Holland,VBO,4.830857,51.927375
Fazantstraat,6,,,2964DA,Groot-Ammers,Molenwaard,Zuid-Holland,VBO,4.830643,51.927059
Fazantstraat,8,,,2964DA,Groot-Ammers,Molenwaard,Zuid-Holland,VBO,4.830744,51.927086
Fazantstraat,10,,,2964DA,Groot-Ammers,Molenwaard,Zuid-Holland,VBO,4.830918,51.927114
Fazantstraat,12,,,2964DA,Groot-Ammers,Molenwaard,Zuid-Holland,VBO,4.831034,51.927133
Fuutlaan,1,,,2964DB,Groot-Ammers,Molenwaard,Zuid-Holland,VBO,4.830058,51.927290
Fuutlaan,5,,,2964DB,Groot-Ammers,Molenwaard,Zuid-Holland,VBO,4.830502,51.926847
Fuutlaan,7,,,2964DB,Groot-Ammers,Molenwaard,Zuid-Holland,VBO,4.830515,51.926798
Fuutlaan,9,,,2964DB,Groot-Ammers,Molenwaard,Zuid-Holland,VBO,4.830545,51.926753
Fuutlaan,11,,,2964DB,Groot-Ammers,Molenwaard,Zuid-Holland,VBO,4.830574,51.926717
Fuutlaan,13,,,2964DB,Groot-Ammers,Molenwaard,Zuid-Holland,VBO,4.830589,51.926663
Fuutlaan,15,,,2964DB,Groot-Ammers,Molenwaard,Zuid-Holland,VBO,4.830685,51.926458
Fuutlaan,17,,,2964DB,Groot-Ammers,Molenwaard,Zuid-Holland,VBO,4.830738,51.926421
Fuutlaan,19,,,2964DB,Groot-Ammers,Molenwaard,Zuid-Holland,VBO,4.830747,51.926369
Fuutlaan,21,,,2964DB,Groot-Ammers,Molenwaard,Zuid-Holland,VBO,4.830797,51.926332
Fuutlaan,23,,,2964DB,Groot-Ammers,Molenwaard,Zuid-Holland,VBO,4.830812,51.926287
Fuutlaan,25,,,2964DB,Groot-Ammers,Molenwaard,Zuid-Holland,VBO,4.830842,51.926233
Fuutlaan,27,,,2964DB,Groot-Ammers,Molenwaard,Zuid-Holland,VBO,4.830901,51.926197
Fuutlaan,29,,,2964DB,Groot-Ammers,Molenwaard,Zuid-Holland,VBO,4.830916,51.926152
Fuutlaan,31,,,2964DB,Groot-Ammers,Molenwaard,Zuid-Holland,VBO,4.830916,51.926098
Fuutlaan,2,,,2964DC,Groot-Ammers,Molenwaard,Zuid-Holland,VBO,4.829961,51.926931
Fuutlaan,4,,,2964DC,Groot-Ammers,Molenwaard,Zuid-Holland,VBO,4.829962,51.926876
Fuutlaan,6,,,2964DC,Groot-Ammers,Molenwaard,Zuid-Holland,VBO,4.830013,51.926795
Fuutlaan,8,,,2964DC,Groot-Ammers,Molenwaard,Zuid-Holland,VBO,4.830068,51.926740
Fuutlaan,10,,,2964DC,Groot-Ammers,Molenwaard,Zuid-Holland,VBO,4.830085,51.926637
Fuutlaan,12,,,2964DC,Groot-Ammers,Molenwaard,Zuid-Holland,VBO,4.830111,51.926571
Fuutlaan,14,,,2964DC,Groot-Ammers,Molenwaard,Zuid-Holland,VBO,4.830285,51.926366
Fuutlaan,16,,,2964DC,Groot-Ammers,Molenwaard,Zuid-Holland,VBO,4.830313,51.926320
Fuutlaan,18,,,2964DC,Groot-Ammers,Molenwaard,Zuid-Holland,VBO,4.830362,51.926276
Fuutlaan,20,,,2964DC,Groot-Ammers,Molenwaard,Zuid-Holland,VBO,4.830391,51.926231
Fuutlaan,22,,,2964DC,Groot-Ammers,Molenwaard,Zuid-Holland,VBO,4.830406,51.926186
Fuutlaan,24,,,2964DC,Groot-Ammers,Molenwaard,Zuid-Holland,VBO,4.830407,51.926132
Fuutlaan,26,,,2964DC,Groot-Ammers,Molenwaard,Zuid-Holland,VBO,4.830429,51.926088
Fuutlaan,28,,,2964DC,Groot-Ammers,Molenwaard,Zuid-Holland,VBO,4.830457,51.926043
Fuutlaan,30,,,2964DC,Groot-Ammers,Molenwaard,Zuid-Holland,VBO,4.830486,51.925996
Gruttostraat,1,,,2964DD,Groot-Ammers,Molenwaard,Zuid-Holland,VBO,4.829066,51.926395
Gruttostraat,3,,,2964DD,Groot-Ammers,Molenwaard,Zuid-Holland,VBO,4.829146,51.926407
Gruttostraat,5,,,2964DD,Groot-Ammers,Molenwaard,Zuid-Holland,VBO,4.829219,51.926426
Gruttostraat,7,,,2964DD,Groot-Ammers,Molenwaard,Zuid-Holland,VBO,4.829290,51.926444
Gruttostraat,9,,,2964DD,Groot-Ammers,Molenwaard,Zuid-Holland,VBO,4.829367,51.926458
Gruttostraat,11,,,2964DD,Groot-Ammers,Molenwaard,Zuid-Holland,VBO,4.829442,51.926478
Gruttostraat,13,,,2964DD,Groot-Ammers,Molenwaard,Zuid-Holland,VBO,4.829577,51.926457
Gruttostraat,15,,,2964DD,Groot-Ammers,Molenwaard,Zuid-Holland,VBO,4.829651,51.926472
Gruttostraat,17,,,2964DD,Groot-Ammers,Molenwaard,Zuid-Holland,VBO,4.829726,51.926489
Gruttostraat,19,,,2964DD,Groot-Ammers,Molenwaard,Zuid-Holland,VBO,4.829800,51.926505
Gruttostraat,21,,,2964DD,Groot-Ammers,Molenwaard,Zuid-Holland,VBO,4.829877,51.926524
Gruttostraat,23,,,2964DD,Groot-Ammers,Molenwaard,Zuid-Holland,VBO,4.830850,51.926755
Gruttostraat,25,,,2964DD,Groot-Ammers,Molenwaard,Zuid-Holland,VBO,4.830930,51.926758
Gruttostraat,27,,,2964DD,Groot-Ammers,Molenwaard,Zuid-Holland,VBO,4.830982,51.926809
Gruttostraat,29,,,2964DD,Groot-Ammers,Molenwaard,Zuid-Holland,VBO,4.831050,51.926839
Gruttostraat,31,,,2964DD,Groot-Ammers,Molenwaard,Zuid-Holland,VBO,4.831124,51.926857
Gruttostraat,33,,,2964DD,Groot-Ammers,Molenwaard,Zuid-Holland,VBO,4.831217,51.926869
Gruttostraat,2,,,2964DE,Groot-Ammers,Molenwaard,Zuid-Holland,VBO,4.829258,51.926081
Gruttostraat,4,,,2964DE,Groot-Ammers,Molenwaard,Zuid-Holland,VBO,4.829341,51.926098
Gruttostraat,6,,,2964DE,Groot-Ammers,Molenwaard,Zuid-Holland,VBO,4.829410,51.926116
Gruttostraat,8,,,2964DE,Groot-Ammers,Molenwaard,Zuid-Holland,VBO,4.829479,51.926133
Gruttostraat,10,,,2964DE,Groot-Ammers,Molenwaard,Zuid-Holland,VBO,4.829552,51.926148
Gruttostraat,12,,,2964DE,Groot-Ammers,Molenwaard,Zuid-Holland,VBO,4.829630,51.926164
Gruttostraat,14,,,2964DE,Groot-Ammers,Molenwaard,Zuid-Holland,VBO,4.829719,51.926224
Gruttostraat,16,,,2964DE,Groot-Ammers,Molenwaard,Zuid-Holland,VBO,4.829792,51.926236
Gruttostraat,18,,,2964DE,Groot-Ammers,Molenwaard,Zuid-Holland,VBO,4.829859,51.926256
Gruttostraat,20,,,2964DE,Groot-Ammers,Molenwaard,Zuid-Holland,VBO,4.829924,51.926278
Gruttostraat,22,,,2964DE,Groot-Ammers,Molenwaard,Zuid-Holland,VBO,4.830000,51.926296
Gruttostraat,24,,,2964DE,Groot-Ammers,Molenwaard,Zuid-Holland,VBO,4.830998,51.926509
Gruttostraat,26,,,2964DE,Groot-Ammers,Molenwaard,Zuid-Holland,VBO,4.831066,51.926532
Gruttostraat,28,,,2964DE,Groot-Ammers,Molenwaard,Zuid-Holland,VBO,4.831165,51.926515
Gruttostraat,30,,,2964DE,Groot-Ammers,Molenwaard,Zuid-Holland,VBO,4.831233,51.926530
Gruttostraat,32,,,2964DE,Groot-Ammers,Molenwaard,Zuid-Holland,VBO,4.831312,51.926549
Gruttostraat,34,,,2964DE,Groot-Ammers,Molenwaard,Zuid-Holland,VBO,4.831392,51.926570
Merelplantsoen,1,,,2964DG,Groot-Ammers,Molenwaard,Zuid-Holland,VBO,4.829481,51.925777
Merelplantsoen,3,,,2964DG,Groot-Ammers,Molenwaard,Zuid-Holland,VBO,4.829640,51.925825
Merelplantsoen,5,,,2964DG,Groot-Ammers,Molenwaard,Zuid-Holland,VBO,4.829743,51.925857
Merelplantsoen,7,,,2964DG,Groot-Ammers,Molenwaard,Zuid-Holland,VBO,4.829873,51.925887
Merelplantsoen,9,,,2964DG,Groot-Ammers,Molenwaard,Zuid-Holland,VBO,4.829972,51.925910
Merelplantsoen,11,,,2964DG,Groot-Ammers,Molenwaard,Zuid-Holland,VBO,4.830112,51.925936
Merelplantsoen,13,,,2964DG,Groot-Ammers,Molenwaard,Zuid-Holland,VBO,4.830191,51.925951
Merelplantsoen,15,,,2964DG,Groot-Ammers,Molenwaard,Zuid-Holland,VBO,4.831206,51.926163
Merelplantsoen,17,,,2964DG,Groot-Ammers,Molenwaard,Zuid-Holland,VBO,4.831279,51.926181
Merelplantsoen,19,,,2964DG,Groot-Ammers,Molenwaard,Zuid-Holland,VBO,4.831338,51.926217
Merelplantsoen,21,,,2964DG,Groot-Ammers,Molenwaard,Zuid-Holland,VBO,4.831432,51.926216
Merelplantsoen,23,,,2964DG,Groot-Ammers,Molenwaard,Zuid-Holland,VBO,4.831497,51.926236
Merelplantsoen,25,,,2964DG,Groot-Ammers,Molenwaard,Zuid-Holland,VBO,4.831625,51.926244
Merelplantsoen,2,,,2964DH,Groot-Ammers,Molenwaard,Zuid-Holland,VBO,4.830184,51.925376
Merelplantsoen,4,,,2964DH,Groot-Ammers,Molenwaard,Zuid-Holland,VBO,4.830309,51.925385
Merelplantsoen,6,,,2964DH,Groot-Ammers,Molenwaard,Zuid-Holland,VBO,4.830416,51.925395
Merelplantsoen,8,,,2964DH,Groot-Ammers,Molenwaard,Zuid-Holland,VBO,4.830561,51.925432
Merelplantsoen,10,,,2964DH,Groot-Ammers,Molenwaard,Zuid-Holland,VBO,4.830648,51.925450
Merelplantsoen,12,,,2964DH,Groot-Ammers,Molenwaard,Zuid-Holland,VBO,4.830821,51.925501
Merelplantsoen,14,,,2964DH,Groot-Ammers,Molenwaard,Zuid-Holland,VBO,4.831184,51.925623
Merelplantsoen,16,,,2964DH,Groot-Ammers,Molenwaard,Zuid-Holland,VBO,4.831250,51.925641
Merelplantsoen,18,,,2964DH,Groot-Ammers,Molenwaard,Zuid-Holland,VBO,4.831317,51.925656
Merelplantsoen,20,,,2964DH,Groot-Ammers,Molenwaard,Zuid-Holland,VBO,4.831397,51.925675
Merelplantsoen,22,,,2964DH,Groot-Ammers,Molenwaard,Zuid-Holland,VBO,4.831464,51.925690
Merelplantsoen,24,,,2964DH,Groot-Ammers,Molenwaard,Zuid-Holland,VBO,4.831544,51.925708
Merelplantsoen,26,,,2964DH,Groot-Ammers,Molenwaard,Zuid-Holland,VBO,4.831631,51.925717
Merelplantsoen,28,,,2964DH,Groot-Ammers,Molenwaard,Zuid-Holland,VBO,4.831691,51.925742
Merelplantsoen,30,,,2964DH,Groot-Ammers,Molenwaard,Zuid-Holland,VBO,4.831752,51.925776
Merelplantsoen,32,,,2964DH,Groot-Ammers,Molenwaard,Zuid-Holland,VBO,4.831839,51.925777
Nieuwpoortseweg,2,,,2964EA,Groot-Ammers,Molenwaard,Zuid-Holland,VBO,4.884478,51.902502
Nieuwpoortseweg,3,,,2964EA,Groot-Ammers,Molenwaard,Zuid-Holland,VBO,4.884530,51.902364
Nieuwpoortseweg,4,,,2964EA,Groot-Ammers,Molenwaard,Zuid-Holland,VBO,4.883072,51.903449
Nieuwpoortseweg,5,,,2964EA,Groot-Ammers,Molenwaard,Zuid-Holland,VBO,4.864490,51.932585
Schoonhovenseveer,1,a,,2964GB,Groot-Ammers,Molenwaard,Zuid-Holland,VBO,4.849343,51.939700
Schoonhovenseveer,1,b,,2964GB,Groot-Ammers,Molenwaard,Zuid-Holland,VBO,4.850826,51.939804
Schoonhovenseveer,1,,,2964GB,Groot-Ammers,Molenwaard,Zuid-Holland,VBO,4.848651,51.939779
Schoonhovenseveer,3,a,,2964GB,Groot-Ammers,Molenwaard,Zuid-Holland,VBO,4.850638,51.939992
Schoonhovenseveer,3,,,2964GB,Groot-Ammers,Molenwaard,Zuid-Holland,VBO,4.850918,51.939773
Schoonhovenseveer,5,,,2964GB,Groot-Ammers,Molenwaard,Zuid-Holland,VBO,4.851252,51.939810
Schoonhovenseveer,7,,,2964GB,Groot-Ammers,Molenwaard,Zuid-Holland,VBO,4.851679,51.939981
Schoonhovenseveer,9,,,2964GB,Groot-Ammers,Molenwaard,Zuid-Holland,VBO,4.851833,51.939840
Schoonhovenseveer,11,a,,2964GB,Groot-Ammers,Molenwaard,Zuid-Holland,VBO,4.851986,51.939842
Schoonhovenseveer,11,,,2964GB,Groot-Ammers,Molenwaard,Zuid-Holland,VBO,4.851935,51.939849
Schoonhovenseveer,13,,,2964GB,Groot-Ammers,Molenwaard,Zuid-Holland,VBO,4.852134,51.939868
Schoonhovenseveer,15,,,2964GB,Groot-Ammers,Molenwaard,Zuid-Holland,VBO,4.852311,51.940049
Schoonhovenseveer,19,,,2964GB,Groot-Ammers,Molenwaard,Zuid-Holland,VBO,4.852515,51.939951
Schoonhovenseveer,21,,,2964GB,Groot-Ammers,Molenwaard,Zuid-Holland,VBO,4.852527,51.940149
Schoonhovenseveer,25,,,2964GB,Groot-Ammers,Molenwaard,Zuid-Holland,VBO,4.852864,51.940006
Schoonhovenseveer,27,,,2964GB,Groot-Ammers,Molenwaard,Zuid-Holland,VBO,4.853096,51.940043
Schoonhovenseveer,27,,,2964GB,Groot-Ammers,Molenwaard,Zuid-Holland,VBO,4.853039,51.940116
Schoonhovenseveer,29,,,2964GB,Groot-Ammers,Molenwaard,Zuid-Holland,VBO,4.853167,51.940188
Schoonhovenseveer,31,,,2964GB,Groot-Ammers,Molenwaard,Zuid-Holland,VBO,4.853488,51.940187
Schoonhovenseveer,33,,,2964GB,Groot-Ammers,Molenwaard,Zuid-Holland,VBO,4.853669,51.940229
Tiendweg,1,,,2964GE,Groot-Ammers,Molenwaard,Zuid-Holland,VBO,4.864458,51.934666
Tiendweg,2,,,2964GE,Groot-Ammers,Molenwaard,Zuid-Holland,VBO,4.862949,51.935007
Veersedijk,4,,,2964GG,Groot-Ammers,Molenwaard,Zuid-Holland,VBO,4.855292,51.939109
Veersedijk,12,,,2964GG,Groot-Ammers,Molenwaard,Zuid-Holland,VBO,4.857100,51.938225
Veersedijk,13,,,2964GG,Groot-Ammers,Molenwaard,Zuid-Holland,VBO,4.858242,51.937655
Veersedijk,14,,,2964GG,Groot-Ammers,Molenwaard,Zuid-Holland,VBO,4.858707,51.937424
Veersedijk,15,,,2964GG,Groot-Ammers,Molenwaard,Zuid-Holland,VBO,4.859161,51.937150
Veersedijk,16,,,2964GG,Groot-Ammers,Molenwaard,Zuid-Holland,VBO,4.859557,51.936967
Veersedijk,17,,,2964GG,Groot-Ammers,Molenwaard,Zuid-Holland,VBO,4.859715,51.936993
Veersedijk,18,,,2964GG,Groot-Ammers,Molenwaard,Zuid-Holland,VBO,4.860129,51.936743
Veersedijk,19,,,2964GG,Groot-Ammers,Molenwaard,Zuid-Holland,VBO,4.860535,51.936430
Veersedijk,20,,,2964GG,Groot-Ammers,Molenwaard,Zuid-Holland,VBO,4.860679,51.936458
Veersedijk,21,,,2964GG,Groot-Ammers,Molenwaard,Zuid-Holland,VBO,4.861095,51.936241
Veersedijk,22,,,2964GG,Groot-Ammers,Molenwaard,Zuid-Holland,VBO,4.861434,51.936052
Veersedijk,23,,,2964GG,Groot-Ammers,Molenwaard,Zuid-Holland,VBO,4.862120,51.935830
Meeuwenlaan,1,,,2964HA,Groot-Ammers,Molenwaard,Zuid-Holland,VBO,4.830360,51.924046
Meeuwenlaan,3,,,2964HA,Groot-Ammers,Molenwaard,Zuid-Holland,VBO,4.830433,51.924047
Meeuwenlaan,5,,,2964HA,Groot-Ammers,Molenwaard,Zuid-Holland,VBO,4.830491,51.924047
Meeuwenlaan,7,,,2964HA,Groot-Ammers,Molenwaard,Zuid-Holland,VBO,4.830549,51.924047
Meeuwenlaan,9,,,2964HA,Groot-Ammers,Molenwaard,Zuid-Holland,VBO,4.830607,51.924048
Meeuwenlaan,11,,,2964HA,Groot-Ammers,Molenwaard,Zuid-Holland,VBO,4.830665,51.924048
Meeuwenlaan,13,,,2964HA,Groot-Ammers,Molenwaard,Zuid-Holland,VBO,4.830724,51.924048
Meeuwenlaan,15,,,2964HA,Groot-Ammers,Molenwaard,Zuid-Holland,VBO,4.830796,51.924049
Meeuwenlaan,17,,,2964HA,Groot-Ammers,Molenwaard,Zuid-Holland,VBO,4.830840,51.924049
Meeuwenlaan,19,,,2964HA,Groot-Ammers,Molenwaard,Zuid-Holland,VBO,4.830913,51.924049
Meeuwenlaan,21,,,2964HA,Groot-Ammers,Molenwaard,Zuid-Holland,VBO,4.831538,51.924007
Meeuwenlaan,23,,,2964HA,Groot-Ammers,Molenwaard,Zuid-Holland,VBO,4.831772,51.923909
Meeuwenlaan,2,a,,2964HB,Groot-Ammers,Molenwaard,Zuid-Holland,VBO,4.829256,51.923625
Meeuwenlaan,2,,,2964HB,Groot-Ammers,Molenwaard,Zuid-Holland,VBO,4.829144,51.923609
Meeuwenlaan,4,a,,2964HB,Groot-Ammers,Molenwaard,Zuid-Holland,VBO,4.829565,51.923701
Meeuwenlaan,4,,,2964HB,Groot-Ammers,Molenwaard,Zuid-Holland,VBO,4.829435,51.923629
Meeuwenlaan,6,,,2964HB,Groot-Ammers,Molenwaard,Zuid-Holland,VBO,4.829870,51.923712
Meeuwenlaan,8,,,2964HB,Groot-Ammers,Molenwaard,Zuid-Holland,VBO,4.830204,51.923776
Meeuwenlaan,10,,,2964HB,Groot-Ammers,Molenwaard,Zuid-Holland,VBO,4.830552,51.923805
Meeuwenlaan,12,,,2964HB,Groot-Ammers,Molenwaard,Zuid-Holland,VBO,4.830639,51.923805
Meeuwenlaan,14,,,2964HB,Groot-Ammers,Molenwaard,Zuid-Holland,VBO,4.830843,51.923806
Meeuwenlaan,16,,,2964HB,Groot-Ammers,Molenwaard,Zuid-Holland,VBO,4.830930,51.923815
Meeuwenlaan,18,,,2964HB,Groot-Ammers,Molenwaard,Zuid-Holland,VBO,4.831163,51.923754
Meeuwenlaan,20,,,2964HB,Groot-Ammers,Molenwaard,Zuid-Holland,VBO,4.831256,51.923751
Meeuwenlaan,22,,,2964HB,Groot-Ammers,Molenwaard,Zuid-Holland,VBO,4.831431,51.923718
Meeuwenlaan,24,,,2964HB,Groot-Ammers,Molenwaard,Zuid-Holland,VBO,4.831524,51.923707
Meeuwenlaan,26,,,2964HB,Groot-Ammers,Molenwaard,Zuid-Holland,VBO,4.831681,51.923670
Meeuwenlaan,28,,,2964HB,Groot-Ammers,Molenwaard,Zuid-Holland,VBO,4.831746,51.923640
Meeuwenlaan,30,,,2964HB,Groot-Ammers,Molenwaard,Zuid-Holland,VBO,4.832038,51.923560
Meeuwenlaan,32,,,2964HB,Groot-Ammers,Molenwaard,Zuid-Holland,VBO,4.832417,51.923472
Meeuwenlaan,34,,,2964HB,Groot-Ammers,Molenwaard,Zuid-Holland,VBO,4.832297,51.923741
Kievitsweer,1,,,2964HC,Groot-Ammers,Molenwaard,Zuid-Holland,VBO,4.831799,51.924035
Kievitsweer,3,,,2964HC,Groot-Ammers,Molenwaard,Zuid-Holland,VBO,4.831365,51.924233
Kievitsweer,5,,,2964HC,Groot-Ammers,Molenwaard,Zuid-Holland,VBO,4.831346,51.924277
Kievitsweer,6,,,2964HC,Groot-Ammers,Molenwaard,Zuid-Holland,VBO,4.832165,51.923971
Kievitsweer,7,,,2964HC,Groot-Ammers,Molenwaard,Zuid-Holland,VBO,4.831325,51.924324
Kievitsweer,8,,,2964HC,Groot-Ammers,Molenwaard,Zuid-Holland,VBO,4.832122,51.924039
Kievitsweer,9,,,2964HC,Groot-Ammers,Molenwaard,Zuid-Holland,VBO,4.831301,51.924364
Kievitsweer,10,,,2964HC,Groot-Ammers,Molenwaard,Zuid-Holland,VBO,4.832089,51.924118
Kievitsweer,11,,,2964HC,Groot-Ammers,Molenwaard,Zuid-Holland,VBO,4.831275,51.924408
Kievitsweer,12,,,2964HC,Groot-Ammers,Molenwaard,Zuid-Holland,VBO,4.832066,51.924156
Kievitsweer,13,,,2964HC,Groot-Ammers,Molenwaard,Zuid-Holland,VBO,4.831247,51.924450
Kievitsweer,14,,,2964HC,Groot-Ammers,Molenwaard,Zuid-Holland,VBO,4.832042,51.924198
Kievitsweer,16,,,2964HC,Groot-Ammers,Molenwaard,Zuid-Holland,VBO,4.832015,51.924237
Kievitsweer,18,,,2964HC,Groot-Ammers,Molenwaard,Zuid-Holland,VBO,4.831990,51.924279
Kievitsweer,20,,,2964HC,Groot-Ammers,Molenwaard,Zuid-Holland,VBO,4.831952,51.924336
Kievitsweer,22,,,2964HC,Groot-Ammers,Molenwaard,Zuid-Holland,VBO,4.831927,51.924378
Kievitsweer,24,,,2964HC,Groot-Ammers,Molenwaard,Zuid-Holland,VBO,4.831910,51.924418
Kievitsweer,26,,,2964HC,Groot-Ammers,Molenwaard,Zuid-Holland,VBO,4.831885,51.924459
Kievitsweer,28,,,2964HC,Groot-Ammers,Molenwaard,Zuid-Holland,VBO,4.831854,51.924498
Kievitsweer,30,,,2964HC,Groot-Ammers,Molenwaard,Zuid-Holland,VBO,4.831785,51.924580
Kievitsweer,32,,,2964HC,Groot-Ammers,Molenwaard,Zuid-Holland,VBO,4.831880,51.924595
Kievitsweer,34,,,2964HC,Groot-Ammers,Molenwaard,Zuid-Holland,VBO,4.831850,51.924638
Kievitsweer,36,,,2964HC,Groot-Ammers,Molenwaard,Zuid-Holland,VBO,4.831778,51.924592
Kievitsweer,38,,,2964HC,Groot-Ammers,Molenwaard,Zuid-Holland,VBO,4.831719,51.924691
Kievitsweer,40,,,2964HC,Groot-Ammers,Molenwaard,Zuid-Holland,VBO,4.831791,51.924727
Kievitsweer,42,,,2964HC,Groot-Ammers,Molenwaard,Zuid-Holland,VBO,4.831842,51.924685
Roerdompstraat,1,,,2964HD,Groot-Ammers,Molenwaard,Zuid-Holland,VBO,4.830831,51.924296
Roerdompstraat,3,,,2964HD,Groot-Ammers,Molenwaard,Zuid-Holland,VBO,4.830802,51.924331
Roerdompstraat,5,,,2964HD,Groot-Ammers,Molenwaard,Zuid-Holland,VBO,4.830724,51.924357
Roerdompstraat,7,,,2964HD,Groot-Ammers,Molenwaard,Zuid-Holland,VBO,4.830726,51.924392
Roerdompstraat,9,,,2964HD,Groot-Ammers,Molenwaard,Zuid-Holland,VBO,4.830686,51.924427
Roerdompstraat,11,,,2964HD,Groot-Ammers,Molenwaard,Zuid-Holland,VBO,4.830647,51.924463
Roerdompstraat,13,,,2964HD,Groot-Ammers,Molenwaard,Zuid-Holland,VBO,4.830666,51.924503
Roerdompstraat,15,,,2964HD,Groot-Ammers,Molenwaard,Zuid-Holland,VBO,4.830633,51.924532
Roerdompstraat,17,,,2964HD,Groot-Ammers,Molenwaard,Zuid-Holland,VBO,4.830621,51.924574
Roerdompstraat,19,,,2964HD,Groot-Ammers,Molenwaard,Zuid-Holland,VBO,4.830375,51.924536
Roerdompstraat,21,,,2964HD,Groot-Ammers,Molenwaard,Zuid-Holland,VBO,4.830313,51.924536
Roerdompstraat,23,,,2964HD,Groot-Ammers,Molenwaard,Zuid-Holland,VBO,4.830248,51.924543
Roerdompstraat,25,,,2964HD,Groot-Ammers,Molenwaard,Zuid-Holland,VBO,4.830191,51.924537
Roerdompstraat,27,,,2964HD,Groot-Ammers,Molenwaard,Zuid-Holland,VBO,4.830121,51.924549
Roerdompstraat,29,a,,2964HD,Groot-Ammers,Molenwaard,Zuid-Holland,VBO,4.830859,51.925325
Roerdompstraat,29,,,2964HD,Groot-Ammers,Molenwaard,Zuid-Holland,VBO,4.830549,51.924882
Roerdompstraat,2,,,2964HE,Groot-Ammers,Molenwaard,Zuid-Holland,VBO,4.831334,51.924042
Roerdompstraat,32,,,2964HE,Groot-Ammers,Molenwaard,Zuid-Holland,VBO,4.830949,51.924589
Roerdompstraat,34,,,2964HE,Groot-Ammers,Molenwaard,Zuid-Holland,VBO,4.831065,51.924634
Roerdompstraat,36,,,2964HE,Groot-Ammers,Molenwaard,Zuid-Holland,VBO,4.831123,51.924652
Roerdompstraat,38,,,2964HE,Groot-Ammers,Molenwaard,Zuid-Holland,VBO,4.831226,51.924652
Roerdompstraat,40,,,2964HE,Groot-Ammers,Molenwaard,Zuid-Holland,VBO,4.831384,51.924698
Roerdompstraat,42,,,2964HE,Groot-Ammers,Molenwaard,Zuid-Holland,VBO,4.831413,51.924744
Roerdompstraat,44,,,2964HE,Groot-Ammers,Molenwaard,Zuid-Holland,VBO,4.831390,51.924800
Roerdompstraat,46,,,2964HE,Groot-Ammers,Molenwaard,Zuid-Holland,VBO,4.831436,51.924842
Roerdompstraat,48,,,2964HE,Groot-Ammers,Molenwaard,Zuid-Holland,VBO,4.831451,51.924884
Roerdompstraat,50,,,2964HE,Groot-Ammers,Molenwaard,Zuid-Holland,VBO,4.831542,51.924906
Roerdompstraat,52,,,2964HE,Groot-Ammers,Molenwaard,Zuid-Holland,VBO,4.831557,51.924959
Roerdompstraat,54,,,2964HE,Groot-Ammers,Molenwaard,Zuid-Holland,VBO,4.831496,51.925068
Roerdompstraat,56,,,2964HE,Groot-Ammers,Molenwaard,Zuid-Holland,VBO,4.831477,51.925120
Roerdompstraat,58,,,2964HE,Groot-Ammers,Molenwaard,Zuid-Holland,VBO,4.831466,51.925166
Roerdompstraat,60,,,2964HE,Groot-Ammers,Molenwaard,Zuid-Holland,VBO,4.831436,51.925211
Roerdompstraat,62,,,2964HE,Groot-Ammers,Molenwaard,Zuid-Holland,VBO,4.831421,51.925247
Roerdompstraat,64,,,2964HE,Groot-Ammers,Molenwaard,Zuid-Holland,VBO,4.831348,51.925292
Roerdompstraat,66,,,2964HE,Groot-Ammers,Molenwaard,Zuid-Holland,VBO,4.831318,51.925327
Roerdompstraat,68,,,2964HE,Groot-Ammers,Molenwaard,Zuid-Holland,VBO,4.831281,51.925365
Roerdompstraat,70,,,2964HE,Groot-Ammers,Molenwaard,Zuid-Holland,VBO,4.831281,51.925418
Molenlaan,8,,,2964HG,Groot-Ammers,Molenwaard,Zuid-Holland,VBO,4.834251,51.923830
Molenlaan,10,,,2964HG,Groot-Ammers,Molenwaard,Zuid-Holland,VBO,4.834193,51.923936
Molenlaan,12,,,2964HG,Groot-Ammers,Molenwaard,Zuid-Holland,VBO,4.834165,51.924053
Molenlaan,14,,,2964HG,Groot-Ammers,Molenwaard,Zuid-Holland,VBO,4.834060,51.924148
Molenlaan,18,a,,2964HG,Groot-Ammers,Molenwaard,Zuid-Holland,VBO,4.833896,51.924347
Molenlaan,18,b,,2964HG,Groot-Ammers,Molenwaard,Zuid-Holland,VBO,4.833971,51.924359
Molenlaan,20,a,,2964HG,Groot-Ammers,Molenwaard,Zuid-Holland,VBO,4.833862,51.924408
Molenlaan,20,b,,2964HG,Groot-Ammers,Molenwaard,Zuid-Holland,VBO,4.833934,51.924425
Molenlaan,22,a,,2964HG,Groot-Ammers,Molenwaard,Zuid-Holland,VBO,4.833806,51.924442
Molenlaan,22,b,,2964HG,Groot-Ammers,Molenwaard,Zuid-Holland,VBO,4.833923,51.924465
Molenlaan,24,a,,2964HG,Groot-Ammers,Molenwaard,Zuid-Holland,VBO,4.833782,51.924483
Molenlaan,24,b,,2964HG,Groot-Ammers,Molenwaard,Zuid-Holland,VBO,4.833898,51.924504
Molenlaan,26,a,,2964HG,Groot-Ammers,Molenwaard,Zuid-Holland,VBO,4.833770,51.924526
Molenlaan,26,b,,2964HG,Groot-Ammers,Molenwaard,Zuid-Holland,VBO,4.833859,51.924545
Molenlaan,28,a,,2964HG,Groot-Ammers,Molenwaard,Zuid-Holland,VBO,4.833752,51.924592
Molenlaan,28,b,,2964HG,Groot-Ammers,Molenwaard,Zuid-Holland,VBO,4.833823,51.924613
Molenlaan,30,,,2964HG,Groot-Ammers,Molenwaard,Zuid-Holland,VBO,4.833725,51.924674
Molenlaan,32,,,2964HG,Groot-Ammers,Molenwaard,Zuid-Holland,VBO,4.833710,51.924718
Molenlaan,34,,,2964HG,Groot-Ammers,Molenwaard,Zuid-Holland,VBO,4.833666,51.924763
Molenlaan,36,,,2964HG,Groot-Ammers,Molenwaard,Zuid-Holland,VBO,4.833651,51.924808
Molenlaan,38,,,2964HG,Groot-Ammers,Molenwaard,Zuid-Holland,VBO,4.833621,51.924862
Molenlaan,40,,,2964HG,Groot-Ammers,Molenwaard,Zuid-Holland,VBO,4.833591,51.924907
Molenlaan,42,,,2964HH,Groot-Ammers,Molenwaard,Zuid-Holland,VBO,4.833473,51.925095
Molenlaan,44,,,2964HH,Groot-Ammers,Molenwaard,Zuid-Holland,VBO,4.833443,51.925140
Molenlaan,46,,,2964HH,Groot-Ammers,Molenwaard,Zuid-Holland,VBO,4.833414,51.925184
Molenlaan,48,,,2964HH,Groot-Ammers,Molenwaard,Zuid-Holland,VBO,4.833335,51.925246
Molenlaan,50,,,2964HH,Groot-Ammers,Molenwaard,Zuid-Holland,VBO,4.833327,51.925292
Molenlaan,52,,,2964HH,Groot-Ammers,Molenwaard,Zuid-Holland,VBO,4.833297,51.925337
Molenlaan,54,,,2964HH,Groot-Ammers,Molenwaard,Zuid-Holland,VBO,4.833258,51.925379
Molenlaan,56,,,2964HH,Groot-Ammers,Molenwaard,Zuid-Holland,VBO,4.833239,51.925427
Molenlaan,58,,,2964HH,Groot-Ammers,Molenwaard,Zuid-Holland,VBO,4.833194,51.925469
Molenlaan,60,,,2964HH,Groot-Ammers,Molenwaard,Zuid-Holland,VBO,4.833177,51.925543
Molenlaan,62,,,2964HH,Groot-Ammers,Molenwaard,Zuid-Holland,VBO,4.833161,51.925588
Molenlaan,64,,,2964HH,Groot-Ammers,Molenwaard,Zuid-Holland,VBO,4.833132,51.925633
Molenlaan,66,,,2964HH,Groot-Ammers,Molenwaard,Zuid-Holland,VBO,4.833102,51.925686
Molenlaan,68,,,2964HH,Groot-Ammers,Molenwaard,Zuid-Holland,VBO,4.832883,51.925739
Molenlaan,70,,,2964HH,Groot-Ammers,Molenwaard,Zuid-Holland,VBO,4.832826,51.925712
Molenlaan,72,,,2964HH,Groot-Ammers,Molenwaard,Zuid-Holland,VBO,4.832739,51.925694
Molenlaan,1,,,2964HJ,Groot-Ammers,Molenwaard,Zuid-Holland,VBO,4.834134,51.923336
Molenlaan,3,,,2964HJ,Groot-Ammers,Molenwaard,Zuid-Holland,VBO,4.833937,51.923548
Molenlaan,5,,,2964HJ,Groot-Ammers,Molenwaard,Zuid-Holland,VBO,4.833636,51.923458
Molenlaan,7,,,2964HJ,Groot-Ammers,Molenwaard,Zuid-Holland,VBO,4.833453,51.923735
Molenlaan,9,,,2964HJ,Groot-Ammers,Molenwaard,Zuid-Holland,VBO,4.833868,51.923739
Molenlaan,11,,,2964HJ,Groot-Ammers,Molenwaard,Zuid-Holland,VBO,4.833793,51.923856
Molenlaan,13,,,2964HJ,Groot-Ammers,Molenwaard,Zuid-Holland,VBO,4.833714,51.924045
Molenlaan,15,,,2964HJ,Groot-Ammers,Molenwaard,Zuid-Holland,VBO,4.833631,51.924053
Molenlaan,17,,,2964HJ,Groot-Ammers,Molenwaard,Zuid-Holland,VBO,4.833565,51.924008
Molenlaan,19,,,2964HJ,Groot-Ammers,Molenwaard,Zuid-Holland,VBO,4.833487,51.923997
Molenlaan,21,,,2964HJ,Groot-Ammers,Molenwaard,Zuid-Holland,VBO,4.833414,51.923979
Molenlaan,23,,,2964HJ,Groot-Ammers,Molenwaard,Zuid-Holland,VBO,4.833327,51.923980
Molenlaan,25,,,2964HJ,Groot-Ammers,Molenwaard,Zuid-Holland,VBO,4.833271,51.923937
Molenlaan,27,,,2964HJ,Groot-Ammers,Molenwaard,Zuid-Holland,VBO,4.833237,51.924186
Molenlaan,29,,,2964HJ,Groot-Ammers,Molenwaard,Zuid-Holland,VBO,4.833230,51.924246
Molenlaan,31,,,2964HJ,Groot-Ammers,Molenwaard,Zuid-Holland,VBO,4.833178,51.924329
Molenlaan,33,,,2964HJ,Groot-Ammers,Molenwaard,Zuid-Holland,VBO,4.833144,51.924400
Molenlaan,35,,,2964HJ,Groot-Ammers,Molenwaard,Zuid-Holland,VBO,4.833093,51.924478
Molenlaan,37,,,2964HJ,Groot-Ammers,Molenwaard,Zuid-Holland,VBO,4.833015,51.924526
Molenlaan,39,,,2964HJ,Groot-Ammers,Molenwaard,Zuid-Holland,VBO,4.833000,51.924621
Molenlaan,41,,,2964HK,Groot-Ammers,Molenwaard,Zuid-Holland,VBO,4.832951,51.924686
Molenlaan,43,,,2964HK,Groot-Ammers,Molenwaard,Zuid-Holland,VBO,4.832903,51.924763
Molenlaan,45,,,2964HK,Groot-Ammers,Molenwaard,Zuid-Holland,VBO,4.832879,51.924832
Molenlaan,47,,,2964HK,Groot-Ammers,Molenwaard,Zuid-Holland,VBO,4.832815,51.924907
Molenlaan,49,,,2964HK,Groot-Ammers,Molenwaard,Zuid-Holland,VBO,4.832786,51.924966
Molenlaan,51,,,2964HK,Groot-Ammers,Molenwaard,Zuid-Holland,VBO,4.832728,51.925052
Molenlaan,53,,,2964HK,Groot-Ammers,Molenwaard,Zuid-Holland,VBO,4.832686,51.925119
Molenlaan,55,,,2964HK,Groot-Ammers,Molenwaard,Zuid-Holland,VBO,4.832656,51.925197
Molenlaan,57,,,2964HK,Groot-Ammers,Molenwaard,Zuid-Holland,VBO,4.832613,51.925267
Molenlaan,59,,,2964HK,Groot-Ammers,Molenwaard,Zuid-Holland,VBO,4.832539,51.925342
Molenlaan,61,,,2964HK,Groot-Ammers,Molenwaard,Zuid-Holland,VBO,4.832538,51.925408
Molenlaan,63,,,2964HK,Groot-Ammers,Molenwaard,Zuid-Holland,VBO,4.832493,51.925493
Molenlaan,65,,,2964HK,Groot-Ammers,Molenwaard,Zuid-Holland,VBO,4.832457,51.925560
Molenlaan,67,,,2964HK,Groot-Ammers,Molenwaard,Zuid-Holland,VBO,4.832415,51.925640
Molenlaan,69,,,2964HK,Groot-Ammers,Molenwaard,Zuid-Holland,VBO,4.832360,51.925701
Bovenkruier,2,,,2964HL,Groot-Ammers,Molenwaard,Zuid-Holland,VBO,4.832174,51.925814
Bovenkruier,4,,,2964HL,Groot-Ammers,Molenwaard,Zuid-Holland,VBO,4.832330,51.925853
Bovenkruier,6,,,2964HL,Groot-Ammers,Molenwaard,Zuid-Holland,VBO,4.832663,51.925927
Bovenkruier,8,,,2964HL,Groot-Ammers,Molenwaard,Zuid-Holland,VBO,4.832866,51.925973
Bovenkruier,10,,,2964HL,Groot-Ammers,Molenwaard,Zuid-Holland,VBO,4.833156,51.926037
Bovenkruier,12,,,2964HL,Groot-Ammers,Molenwaard,Zuid-Holland,VBO,4.833344,51.926083
Standerdmolen,1,,,2964HM,Groot-Ammers,Molenwaard,Zuid-Holland,VBO,4.833903,51.925161
Standerdmolen,2,,,2964HM,Groot-Ammers,Molenwaard,Zuid-Holland,VBO,4.833891,51.925215
Standerdmolen,3,,,2964HM,Groot-Ammers,Molenwaard,Zuid-Holland,VBO,4.833863,51.925260
Standerdmolen,4,,,2964HM,Groot-Ammers,Molenwaard,Zuid-Holland,VBO,4.833834,51.925305
Standerdmolen,5,,,2964HM,Groot-Ammers,Molenwaard,Zuid-Holland,VBO,4.833806,51.925350
Standerdmolen,6,,,2964HM,Groot-Ammers,Molenwaard,Zuid-Holland,VBO,4.833777,51.925396
Standerdmolen,7,,,2964HM,Groot-Ammers,Molenwaard,Zuid-Holland,VBO,4.833732,51.925469
Standerdmolen,8,,,2964HM,Groot-Ammers,Molenwaard,Zuid-Holland,VBO,4.833703,51.925515
Standerdmolen,9,,,2964HM,Groot-Ammers,Molenwaard,Zuid-Holland,VBO,4.833675,51.925560
Standerdmolen,10,,,2964HM,Groot-Ammers,Molenwaard,Zuid-Holland,VBO,4.833646,51.925606
Standerdmolen,11,,,2964HM,Groot-Ammers,Molenwaard,Zuid-Holland,VBO,4.833618,51.925651
Standerdmolen,12,,,2964HM,Groot-Ammers,Molenwaard,Zuid-Holland,VBO,4.833589,51.925697
Standerdmolen,13,,,2964HM,Groot-Ammers,Molenwaard,Zuid-Holland,VBO,4.833544,51.925769
Standerdmolen,14,,,2964HM,Groot-Ammers,Molenwaard,Zuid-Holland,VBO,4.833515,51.925815
Standerdmolen,15,,,2964HM,Groot-Ammers,Molenwaard,Zuid-Holland,VBO,4.833487,51.925861
Standerdmolen,16,,,2964HM,Groot-Ammers,Molenwaard,Zuid-Holland,VBO,4.833458,51.925906
Standerdmolen,17,,,2964HM,Groot-Ammers,Molenwaard,Zuid-Holland,VBO,4.833429,51.925952
Stellingmolen,1,,,2964HN,Groot-Ammers,Molenwaard,Zuid-Holland,VBO,4.834395,51.924435
Stellingmolen,2,,,2964HN,Groot-Ammers,Molenwaard,Zuid-Holland,VBO,4.834493,51.924279
Stellingmolen,3,,,2964HN,Groot-Ammers,Molenwaard,Zuid-Holland,VBO,4.834367,51.924480
Stellingmolen,4,,,2964HN,Groot-Ammers,Molenwaard,Zuid-Holland,VBO,4.834522,51.924232
Stellingmolen,5,,,2964HN,Groot-Ammers,Molenwaard,Zuid-Holland,VBO,4.834337,51.924527
Stellingmolen,6,,,2964HN,Groot-Ammers,Molenwaard,Zuid-Holland,VBO,4.834551,51.924185
Stellingmolen,7,a,,2964HN,Groot-Ammers,Molenwaard,Zuid-Holland,VBO,4.834279,51.924619
Stellingmolen,7,b,,2964HN,Groot-Ammers,Molenwaard,Zuid-Holland,VBO,4.834017,51.924734
Stellingmolen,7,,,2964HN,Groot-Ammers,Molenwaard,Zuid-Holland,VBO,4.834307,51.924574
Stellingmolen,8,a,,2964HN,Groot-Ammers,Molenwaard,Zuid-Holland,VBO,4.834607,51.924095
Stellingmolen,8,,,2964HN,Groot-Ammers,Molenwaard,Zuid-Holland,VBO,4.834579,51.924139
Stellingmolen,9,,,2964HN,Groot-Ammers,Molenwaard,Zuid-Holland,VBO,4.834614,51.924664
Stellingmolen,10,,,2964HN,Groot-Ammers,Molenwaard,Zuid-Holland,VBO,4.834891,51.924221
Stellingmolen,11,,,2964HN,Groot-Ammers,Molenwaard,Zuid-Holland,VBO,4.834588,51.924705
Stellingmolen,12,,,2964HN,Groot-Ammers,Molenwaard,Zuid-Holland,VBO,4.834920,51.924171
Stellingmolen,13,,,2964HN,Groot-Ammers,Molenwaard,Zuid-Holland,VBO,4.834693,51.924696
Stellingmolen,14,,,2964HN,Groot-Ammers,Molenwaard,Zuid-Holland,VBO,4.834993,51.924220
Stellingmolen,15,,,2964HN,Groot-Ammers,Molenwaard,Zuid-Holland,VBO,4.834765,51.924713
Stellingmolen,16,,,2964HN,Groot-Ammers,Molenwaard,Zuid-Holland,VBO,4.835069,51.924238
Stellingmolen,17,,,2964HN,Groot-Ammers,Molenwaard,Zuid-Holland,VBO,4.834837,51.924730
Stellingmolen,18,,,2964HN,Groot-Ammers,Molenwaard,Zuid-Holland,VBO,4.835138,51.924255
Stellingmolen,19,,,2964HN,Groot-Ammers,Molenwaard,Zuid-Holland,VBO,4.834912,51.924746
Stellingmolen,20,,,2964HN,Groot-Ammers,Molenwaard,Zuid-Holland,VBO,4.835207,51.924274
Stellingmolen,21,,,2964HN,Groot-Ammers,Molenwaard,Zuid-Holland,VBO,4.834988,51.924764
Stellingmolen,22,,,2964HN,Groot-Ammers,Molenwaard,Zuid-Holland,VBO,4.835283,51.924292
Stellingmolen,23,,,2964HN,Groot-Ammers,Molenwaard,Zuid-Holland,VBO,4.835058,51.924784
Stellingmolen,24,,,2964HN,Groot-Ammers,Molenwaard,Zuid-Holland,VBO,4.835355,51.924307
Stellingmolen,25,,,2964HN,Groot-Ammers,Molenwaard,Zuid-Holland,VBO,4.835129,51.924800
Stellingmolen,26,,,2964HN,Groot-Ammers,Molenwaard,Zuid-Holland,VBO,4.835426,51.924324
Stellingmolen,27,,,2964HN,Groot-Ammers,Molenwaard,Zuid-Holland,VBO,4.835201,51.924817
Stellingmolen,28,,,2964HN,Groot-Ammers,Molenwaard,Zuid-Holland,VBO,4.835499,51.924342
Stellingmolen,29,,,2964HN,Groot-Ammers,Molenwaard,Zuid-Holland,VBO,4.835295,51.924823
Stellingmolen,30,,,2964HN,Groot-Ammers,Molenwaard,Zuid-Holland,VBO,4.835574,51.924383
Stellingmolen,31,,,2964HN,Groot-Ammers,Molenwaard,Zuid-Holland,VBO,4.835270,51.924867
Stellingmolen,32,,,2964HN,Groot-Ammers,Molenwaard,Zuid-Holland,VBO,4.835604,51.924335
Peilmolen,1,,,2964HP,Groot-Ammers,Molenwaard,Zuid-Holland,VBO,4.833925,51.924939
Peilmolen,2,,,2964HP,Groot-Ammers,Molenwaard,Zuid-Holland,VBO,4.834001,51.924951
Peilmolen,3,,,2964HP,Groot-Ammers,Molenwaard,Zuid-Holland,VBO,4.834081,51.924964
Peilmolen,4,,,2964HP,Groot-Ammers,Molenwaard,Zuid-Holland,VBO,4.834161,51.924977
Peilmolen,5,,,2964HP,Groot-Ammers,Molenwaard,Zuid-Holland,VBO,4.834244,51.924989
Peilmolen,6,,,2964HP,Groot-Ammers,Molenwaard,Zuid-Holland,VBO,4.834433,51.925010
Peilmolen,7,,,2964HP,Groot-Ammers,Molenwaard,Zuid-Holland,VBO,4.834509,51.925021
Peilmolen,8,,,2964HP,Groot-Ammers,Molenwaard,Zuid-Holland,VBO,4.834584,51.925033
Peilmolen,9,,,2964HP,Groot-Ammers,Molenwaard,Zuid-Holland,VBO,4.834659,51.925045
Peilmolen,10,,,2964HP,Groot-Ammers,Molenwaard,Zuid-Holland,VBO,4.834735,51.925057
Peilmolen,11,,,2964HP,Groot-Ammers,Molenwaard,Zuid-Holland,VBO,4.834811,51.925069
Peilmolen,12,,,2964HP,Groot-Ammers,Molenwaard,Zuid-Holland,VBO,4.834884,51.925081
Peilmolen,13,,,2964HP,Groot-Ammers,Molenwaard,Zuid-Holland,VBO,4.834959,51.925093
Peilmolen,14,,,2964HP,Groot-Ammers,Molenwaard,Zuid-Holland,VBO,4.835035,51.925105
Peilmolen,15,,,2964HP,Groot-Ammers,Molenwaard,Zuid-Holland,VBO,4.835112,51.925117
Wipmolen,1,,,2964HR,Groot-Ammers,Molenwaard,Zuid-Holland,VBO,4.834696,51.923733
Wipmolen,3,,,2964HR,Groot-Ammers,Molenwaard,Zuid-Holland,VBO,4.834766,51.923756
Wipmolen,5,,,2964HR,Groot-Ammers,Molenwaard,Zuid-Holland,VBO,4.834840,51.923774
Wipmolen,7,,,2964HR,Groot-Ammers,Molenwaard,Zuid-Holland,VBO,4.834905,51.923802
Wipmolen,9,,,2964HR,Groot-Ammers,Molenwaard,Zuid-Holland,VBO,4.834975,51.923825
Wipmolen,11,,,2964HR,Groot-Ammers,Molenwaard,Zuid-Holland,VBO,4.835124,51.923874
Wipmolen,13,,,2964HR,Groot-Ammers,Molenwaard,Zuid-Holland,VBO,4.835200,51.923897
Wipmolen,15,,,2964HR,Groot-Ammers,Molenwaard,Zuid-Holland,VBO,4.835273,51.923920
Wipmolen,17,,,2964HR,Groot-Ammers,Molenwaard,Zuid-Holland,VBO,4.835336,51.923946
Wipmolen,19,,,2964HR,Groot-Ammers,Molenwaard,Zuid-Holland,VBO,4.835409,51.923968
Wipmolen,21,,,2964HR,Groot-Ammers,Molenwaard,Zuid-Holland,VBO,4.835478,51.923991
Wipmolen,23,,,2964HR,Groot-Ammers,Molenwaard,Zuid-Holland,VBO,4.835548,51.924014
Wipmolen,25,,,2964HR,Groot-Ammers,Molenwaard,Zuid-Holland,VBO,4.835617,51.924037
Wipmolen,27,,,2964HR,Groot-Ammers,Molenwaard,Zuid-Holland,VBO,4.835686,51.924060
Wipmolen,29,,,2964HR,Groot-Ammers,Molenwaard,Zuid-Holland,VBO,4.835760,51.924081
Achtkanter,2,,,2964HS,Groot-Ammers,Molenwaard,Zuid-Holland,VBO,4.836580,51.923433
Achtkanter,3,,,2964HS,Groot-Ammers,Molenwaard,Zuid-Holland,VBO,4.836073,51.923504
Kleine Donk,2,,,2964HW,Groot-Ammers,Molenwaard,Zuid-Holland,VBO,4.823780,51.922028
Kleine Donk,4,,,2964HW,Groot-Ammers,Molenwaard,Zuid-Holland,VBO,4.823734,51.922075
Kleine Donk,5,,,2964HW,Groot-Ammers,Molenwaard,Zuid-Holland,VBO,4.823302,51.922138
Kleine Donk,6,,,2964HW,Groot-Ammers,Molenwaard,Zuid-Holland,VBO,4.823694,51.922118
Kleine Donk,7,,,2964HW,Groot-Ammers,Molenwaard,Zuid-Holland,VBO,4.823266,51.922178
Kleine Donk,8,,,2964HW,Groot-Ammers,Molenwaard,Zuid-Holland,VBO,4.823645,51.922165
Kleine Donk,9,,,2964HW,Groot-Ammers,Molenwaard,Zuid-Holland,VBO,4.823212,51.922218
Kleine Donk,11,,,2964HW,Groot-Ammers,Molenwaard,Zuid-Holland,VBO,4.823082,51.922299
Kleine Donk,13,,,2964HW,Groot-Ammers,Molenwaard,Zuid-Holland,VBO,4.823018,51.922359
Grote Donk,1,,,2964HX,Groot-Ammers,Molenwaard,Zuid-Holland,VBO,4.823489,51.922302
Grote Donk,3,,,2964HX,Groot-Ammers,Molenwaard,Zuid-Holland,VBO,4.823679,51.922392
Grote Donk,5,,,2964HX,Groot-Ammers,Molenwaard,Zuid-Holland,VBO,4.823744,51.922420
Doorbraak,2,,,2964HZ,Groot-Ammers,Molenwaard,Zuid-Holland,VBO,4.828187,51.923057
Doorbraak,4,,,2964HZ,Groot-Ammers,Molenwaard,Zuid-Holland,VBO,4.828342,51.922845
Achterland,1,a,,2964LA,Groot-Ammers,Molenwaard,Zuid-Holland,VBO,4.842197,51.905730
Achterland,1,,,2964LA,Groot-Ammers,Molenwaard,Zuid-Holland,VBO,4.842121,51.905792
Achterland,2,a,,2964LA,Groot-Ammers,Molenwaard,Zuid-Holland,VBO,4.842821,51.905764
Achterland,2,,,2964LA,Groot-Ammers,Molenwaard,Zuid-Holland,VBO,4.842706,51.905768
Achterland,3,a,,2964LA,Groot-Ammers,Molenwaard,Zuid-Holland,VBO,4.845744,51.905908
Achterland,3,,,2964LA,Groot-Ammers,Molenwaard,Zuid-Holland,VBO,4.843402,51.905852
Achterland,4,a,,2964LA,Groot-Ammers,Molenwaard,Zuid-Holland,VBO,4.848065,51.905745
Achterland,4,,,2964LA,Groot-Ammers,Molenwaard,Zuid-Holland,VBO,4.846172,51.906395
Achterland,5,,,2964LA,Groot-Ammers,Molenwaard,Zuid-Holland,VBO,4.847172,51.906441
Achterland,6,,,2964LA,Groot-Ammers,Molenwaard,Zuid-Holland,VBO,4.848771,51.906560
Achterland,7,a,,2964LA,Groot-Ammers,Molenwaard,Zuid-Holland,VBO,4.850220,51.906798
Achterland,7,,,2964LA,Groot-Ammers,Molenwaard,Zuid-Holland,VBO,4.848899,51.906594
Achterland,9,,,2964LA,Groot-Ammers,Molenwaard,Zuid-Holland,VBO,4.853039,51.906948
Achterland,10,,,2964LA,Groot-Ammers,Molenwaard,Zuid-Holland,VBO,4.853054,51.906867
Achterland,11,,,2964LA,Groot-Ammers,Molenwaard,Zuid-Holland,VBO,4.854709,51.907009
Achterland,12,a,CONS,2964LA,Groot-Ammers,Molenwaard,Zuid-Holland,VBO,4.857503,51.906908
Achterland,12,b,,2964LA,Groot-Ammers,Molenwaard,Zuid-Holland,VBO,4.858785,51.907035
Achterland,12,,,2964LA,Groot-Ammers,Molenwaard,Zuid-Holland,VBO,4.857433,51.906968
Achterland,13,,,2964LA,Groot-Ammers,Molenwaard,Zuid-Holland,VBO,4.858960,51.907369
Achterland,14,,,2964LA,Groot-Ammers,Molenwaard,Zuid-Holland,VBO,4.860310,51.907504
Achterland,15,a,,2964LA,Groot-Ammers,Molenwaard,Zuid-Holland,VBO,4.861568,51.907040
Achterland,15,b,,2964LA,Groot-Ammers,Molenwaard,Zuid-Holland,VBO,4.861904,51.907393
Achterland,15,,,2964LA,Groot-Ammers,Molenwaard,Zuid-Holland,VBO,4.860402,51.907350
Achterland,16,,,2964LA,Groot-Ammers,Molenwaard,Zuid-Holland,VBO,4.863176,51.907488
Achterland,17,,,2964LA,Groot-Ammers,Molenwaard,Zuid-Holland,VBO,4.863497,51.907027
Achterland,17,,,2964LA,Groot-Ammers,Molenwaard,Zuid-Holland,VBO,4.863816,51.907410
Achterland,18,,,2964LA,Groot-Ammers,Molenwaard,Zuid-Holland,VBO,4.865921,51.907581
Achterland,19,a,,2964LA,Groot-Ammers,Molenwaard,Zuid-Holland,VBO,4.867322,51.907264
Achterland,19,b,,2964LA,Groot-Ammers,Molenwaard,Zuid-Holland,VBO,4.867195,51.907640
Achterland,19,,,2964LA,Groot-Ammers,Molenwaard,Zuid-Holland,VBO,4.866899,51.907235
Achterland,21,,,2964LA,Groot-Ammers,Molenwaard,Zuid-Holland,VBO,4.868142,51.907771
Achterland,22,,,2964LA,Groot-Ammers,Molenwaard,Zuid-Holland,VBO,4.869151,51.908521
Achterland,23,,,2964LA,Groot-Ammers,Molenwaard,Zuid-Holland,VBO,4.870006,51.908627
Achterland,24,a,,2964LA,Groot-Ammers,Molenwaard,Zuid-Holland,VBO,4.870988,51.909248
Achterland,24,,,2964LA,Groot-Ammers,Molenwaard,Zuid-Holland,VBO,4.870436,51.909300
Achterland,25,,,2964LA,Groot-Ammers,Molenwaard,Zuid-Holland,VBO,4.871185,51.909815
Achterland,27,,,2964LA,Groot-Ammers,Molenwaard,Zuid-Holland,VBO,4.871882,51.909917
Achterland,28,a,,2964LA,Groot-Ammers,Molenwaard,Zuid-Holland,VBO,4.873488,51.909365
Achterland,28,b,CONS,2964LA,Groot-Ammers,Molenwaard,Zuid-Holland,VBO,4.873594,51.909390
Achterland,28,,,2964LA,Groot-Ammers,Molenwaard,Zuid-Holland,VBO,4.872299,51.910306
Achterland,29,,,2964LA,Groot-Ammers,Molenwaard,Zuid-Holland,VBO,4.874180,51.911006
Achterland,30,,,2964LA,Groot-Ammers,Molenwaard,Zuid-Holland,VBO,4.875874,51.910330
Achterland,32,,,2964LA,Groot-Ammers,Molenwaard,Zuid-Holland,VBO,4.876079,51.910196
Achterland,33,,,2964LA,Groot-Ammers,Molenwaard,Zuid-Holland,VBO,4.875786,51.911606
Achterland,34,a,,2964LA,Groot-Ammers,Molenwaard,Zuid-Holland,VBO,4.876132,51.911999
Achterland,34,,,2964LA,Groot-Ammers,Molenwaard,Zuid-Holland,VBO,4.876308,51.911788
Achterland,35,,,2964LA,Groot-Ammers,Molenwaard,Zuid-Holland,VBO,4.877161,51.912133
Achterland,36,,,2964LA,Groot-Ammers,Molenwaard,Zuid-Holland,VBO,4.878157,51.911500
Molenkade,1,,,2964LB,Groot-Ammers,Molenwaard,Zuid-Holland,VBO,4.820250,51.920713
Molenkade,2,,,2964LB,Groot-Ammers,Molenwaard,Zuid-Holland,VBO,4.822678,51.918482
Molenkade,3,b,,2964LB,Groot-Ammers,Molenwaard,Zuid-Holland,VBO,4.826329,51.915445
Molenkade,3,,,2964LB,Groot-Ammers,Molenwaard,Zuid-Holland,VBO,4.826278,51.915659
Molenkade,4,,,2964LB,Groot-Ammers,Molenwaard,Zuid-Holland,VBO,4.831945,51.911102
Molenkade,5,,,2964LB,Groot-Ammers,Molenwaard,Zuid-Holland,VBO,4.839096,51.905737
Peppelweg,1,a,,2964LC,Groot-Ammers,Molenwaard,Zuid-Holland,VBO,4.844662,51.914044
Peppelweg,1,,,2964LC,Groot-Ammers,Molenwaard,Zuid-Holland,VBO,4.833855,51.912926
Peppelweg,2,a,,2964LC,Groot-Ammers,Molenwaard,Zuid-Holland,VBO,4.851435,51.914684
Peppelweg,2,b,,2964LC,Groot-Ammers,Molenwaard,Zuid-Holland,VBO,4.852269,51.914794
Peppelweg,2,,,2964LC,Groot-Ammers,Molenwaard,Zuid-Holland,VBO,4.851986,51.914763
Peppelweg,3,a,,2964LC,Groot-Ammers,Molenwaard,Zuid-Holland,VBO,4.839180,51.912928
Peppelweg,3,a,,2964LC,Groot-Ammers,Molenwaard,Zuid-Holland,VBO,4.839917,51.913532
Peppelweg,3,,,2964LC,Groot-Ammers,Molenwaard,Zuid-Holland,VBO,4.838401,51.913351
Peppelweg,4,,,2964LC,Groot-Ammers,Molenwaard,Zuid-Holland,VBO,4.859212,51.915820
Peppelweg,6,,,2964LC,Groot-Ammers,Molenwaard,Zuid-Holland,VBO,4.861691,51.916353
Peppelweg,8,,,2964LC,Groot-Ammers,Molenwaard,Zuid-Holland,VBO,4.861743,51.916396
Peppelweg,10,,,2964LC,Groot-Ammers,Molenwaard,Zuid-Holland,VBO,4.866745,51.917583
Peppelweg,12,,,2964LC,Groot-Ammers,Molenwaard,Zuid-Holland,VBO,4.870160,51.918515
Peppelweg,14,,,2964LC,Groot-Ammers,Molenwaard,Zuid-Holland,VBO,4.875112,51.919305
Peulwijksekade,1,,,2964LD,Groot-Ammers,Molenwaard,Zuid-Holland,VBO,4.841558,51.904158
Peulwijksekade,1,,,2964LD,Groot-Ammers,Molenwaard,Zuid-Holland,VBO,4.841215,51.904134
Energieweg,2,a,,2964LE,Groot-Ammers,Molenwaard,Zuid-Holland,VBO,4.849389,51.932924
Energieweg,2,,,2964LE,Groot-Ammers,Molenwaard,Zuid-Holland,VBO,4.849737,51.932676
Energieweg,3,a,,2964LE,Groot-Ammers,Molenwaard,Zuid-Holland,VBO,4.848645,51.933711
Energieweg,3,,,2964LE,Groot-Ammers,Molenwaard,Zuid-Holland,VBO,4.848747,51.933893
Energieweg,4,,,2964LE,Groot-Ammers,Molenwaard,Zuid-Holland,VBO,4.849233,51.933491
Energieweg,5,,,2964LE,Groot-Ammers,Molenwaard,Zuid-Holland,VBO,4.848411,51.934729
Energieweg,6,,,2964LE,Groot-Ammers,Molenwaard,Zuid-Holland,VBO,4.849856,51.933593
Energieweg,7,a,,2964LE,Groot-Ammers,Molenwaard,Zuid-Holland,VBO,4.848408,51.934994
Energieweg,7,,,2964LE,Groot-Ammers,Molenwaard,Zuid-Holland,VBO,4.848444,51.935007
Energieweg,8,,,2964LE,Groot-Ammers,Molenwaard,Zuid-Holland,VBO,4.850739,51.933904
Energieweg,10,a,,2964LE,Groot-Ammers,Molenwaard,Zuid-Holland,VBO,4.850240,51.934381
Energieweg,10,,,2964LE,Groot-Ammers,Molenwaard,Zuid-Holland,VBO,4.850396,51.934585
Energieweg,12,a,,2964LE,Groot-Ammers,Molenwaard,Zuid-Holland,VBO,4.849749,51.934440
Energieweg,12,b,,2964LE,Groot-Ammers,Molenwaard,Zuid-Holland,VBO,4.849803,51.934338
Energieweg,12,c,,2964LE,Groot-Ammers,Molenwaard,Zuid-Holland,VBO,4.849860,51.934241
Energieweg,12,d,,2964LE,Groot-Ammers,Molenwaard,Zuid-Holland,VBO,4.849915,51.934141
Energieweg,14,,,2964LE,Groot-Ammers,Molenwaard,Zuid-Holland,VBO,4.849586,51.934815
Energieweg,16,,,2964LE,Groot-Ammers,Molenwaard,Zuid-Holland,VBO,4.849416,51.934984
Energieweg,18,,,2964LE,Groot-Ammers,Molenwaard,Zuid-Holland,VBO,4.849862,51.935720
Energieweg,20,a,,2964LE,Groot-Ammers,Molenwaard,Zuid-Holland,VBO,4.849118,51.935456
Energieweg,20,,,2964LE,Groot-Ammers,Molenwaard,Zuid-Holland,VBO,4.849056,51.935556
Energieweg,22,a,,2964LE,Groot-Ammers,Molenwaard,Zuid-Holland,VBO,4.848900,51.935831
Energieweg,22,,,2964LE,Groot-Ammers,Molenwaard,Zuid-Holland,VBO,4.848944,51.935770
Energieweg,26,,,2964LE,Groot-Ammers,Molenwaard,Zuid-Holland,VBO,4.848503,51.936539
Energieweg,28,,,2964LE,Groot-Ammers,Molenwaard,Zuid-Holland,VBO,4.848106,51.937032
Energieweg,30,,,2964LE,Groot-Ammers,Molenwaard,Zuid-Holland,VBO,4.847779,51.937152
Energieweg,32,,,2964LE,Groot-Ammers,Molenwaard,Zuid-Holland,VBO,4.847810,51.937426
Ambachtsweg,1,,,2964LG,Groot-Ammers,Molenwaard,Zuid-Holland,VBO,4.852061,51.938859
Ambachtsweg,2,,,2964LG,Groot-Ammers,Molenwaard,Zuid-Holland,VBO,4.850871,51.938811
Ambachtsweg,3,,,2964LG,Groot-Ammers,Molenwaard,Zuid-Holland,VBO,4.850894,51.938251
Ambachtsweg,4,a,,2964LG,Groot-Ammers,Molenwaard,Zuid-Holland,VBO,4.848831,51.938063
Ambachtsweg,4,b,,2964LG,Groot-Ammers,Molenwaard,Zuid-Holland,VBO,4.849799,51.938627
Ambachtsweg,4,,,2964LG,Groot-Ammers,Molenwaard,Zuid-Holland,VBO,4.849412,51.938505
Ambachtsweg,5,,,2964LG,Groot-Ammers,Molenwaard,Zuid-Holland,VBO,4.850949,51.938073
Ambachtsweg,6,a,,2964LG,Groot-Ammers,Molenwaard,Zuid-Holland,VBO,4.850069,51.938152
Ambachtsweg,6,,,2964LG,Groot-Ammers,Molenwaard,Zuid-Holland,VBO,4.849820,51.937698
Ambachtsweg,7,a,,2964LG,Groot-Ammers,Molenwaard,Zuid-Holland,VBO,4.850728,51.937856
Ambachtsweg,7,,,2964LG,Groot-Ammers,Molenwaard,Zuid-Holland,VBO,4.851371,51.937114
Ambachtsweg,9,,,2964LG,Groot-Ammers,Molenwaard,Zuid-Holland,VBO,4.852096,51.936039
Ambachtsweg,10,a,,2964LG,Groot-Ammers,Molenwaard,Zuid-Holland,VBO,4.850507,51.937298
Ambachtsweg,10,,,2964LG,Groot-Ammers,Molenwaard,Zuid-Holland,VBO,4.850089,51.937333
Ambachtsweg,11,a,,2964LG,Groot-Ammers,Molenwaard,Zuid-Holland,VBO,4.852401,51.935888
Ambachtsweg,11,,,2964LG,Groot-Ammers,Molenwaard,Zuid-Holland,VBO,4.852117,51.935695
Ambachtsweg,12,a,,2964LG,Groot-Ammers,Molenwaard,Zuid-Holland,VBO,4.850886,51.936781
Ambachtsweg,12,,,2964LG,Groot-Ammers,Molenwaard,Zuid-Holland,VBO,4.850327,51.936885
Ambachtsweg,13,,,2964LG,Groot-Ammers,Molenwaard,Zuid-Holland,VBO,4.852321,51.935510
Ambachtsweg,14,a,,2964LG,Groot-Ammers,Molenwaard,Zuid-Holland,VBO,4.851090,51.936304
Ambachtsweg,14,b,,2964LG,Groot-Ammers,Molenwaard,Zuid-Holland,VBO,4.851061,51.936286
Ambachtsweg,14,e,,2964LG,Groot-Ammers,Molenwaard,Zuid-Holland,VBO,4.850397,51.936190
Ambachtsweg,14,,,2964LG,Groot-Ammers,Molenwaard,Zuid-Holland,VBO,4.851061,51.936322
Ambachtsweg,15,a,,2964LG,Groot-Ammers,Molenwaard,Zuid-Holland,VBO,4.852662,51.935631
Ambachtsweg,15,,,2964LG,Groot-Ammers,Molenwaard,Zuid-Holland,VBO,4.852323,51.935312
Ambachtsweg,16,,,2964LG,Groot-Ammers,Molenwaard,Zuid-Holland,VBO,4.851226,51.935909
Ambachtsweg,17,,,2964LG,Groot-Ammers,Molenwaard,Zuid-Holland,VBO,4.852529,51.935160
Ambachtsweg,18,,,2964LG,Groot-Ammers,Molenwaard,Zuid-Holland,VBO,4.851200,51.935631
Ambachtsweg,19,,,2964LG,Groot-Ammers,Molenwaard,Zuid-Holland,VBO,4.852588,51.934975
Ambachtsweg,20,,,2964LG,Groot-Ammers,Molenwaard,Zuid-Holland,VBO,4.851508,51.935353
Ambachtsweg,22,a,,2964LG,Groot-Ammers,Molenwaard,Zuid-Holland,VBO,4.852048,51.935040
Ambachtsweg,22,,,2964LG,Groot-Ammers,Molenwaard,Zuid-Holland,VBO,4.851746,51.934986
Ambachtsweg,23,,,2964LG,Groot-Ammers,Molenwaard,Zuid-Holland,VBO,4.852947,51.934635
Ambachtsweg,24,,,2964LG,Groot-Ammers,Molenwaard,Zuid-Holland,VBO,4.852227,51.934542
Ambachtsweg,26,a,,2964LG,Groot-Ammers,Molenwaard,Zuid-Holland,VBO,4.851611,51.934077
Ambachtsweg,26,,,2964LG,Groot-Ammers,Molenwaard,Zuid-Holland,VBO,4.852018,51.934115
Ambachtsweg,28,a,,2964LG,Groot-Ammers,Molenwaard,Zuid-Holland,VBO,4.852527,51.934102
Ambachtsweg,28,b,,2964LG,Groot-Ammers,Molenwaard,Zuid-Holland,VBO,4.852457,51.934228
Ambachtsweg,30,,,2964LG,Groot-Ammers,Molenwaard,Zuid-Holland,VBO,4.852646,51.933951
Ambachtsweg,30,,,2964LG,Groot-Ammers,Molenwaard,Zuid-Holland,VBO,4.852572,51.933956
Ambachtsweg,31,a,,2964LG,Groot-Ammers,Molenwaard,Zuid-Holland,VBO,4.853666,51.933466
Ambachtsweg,31,,,2964LG,Groot-Ammers,Molenwaard,Zuid-Holland,VBO,4.853465,51.933773
Ambachtsweg,32,,,2964LG,Groot-Ammers,Molenwaard,Zuid-Holland,VBO,4.852060,51.933871
Ambachtsweg,34,a,,2964LG,Groot-Ammers,Molenwaard,Zuid-Holland,VBO,4.852629,51.933238
Ambachtsweg,34,,,2964LG,Groot-Ammers,Molenwaard,Zuid-Holland,VBO,4.852870,51.933346
Nijverheidsweg,1,a,,2964LH,Groot-Ammers,Molenwaard,Zuid-Holland,VBO,4.852424,51.936831
Nijverheidsweg,1,b,,2964LH,Groot-Ammers,Molenwaard,Zuid-Holland,VBO,4.851725,51.937911
Nijverheidsweg,1,,,2964LH,Groot-Ammers,Molenwaard,Zuid-Holland,VBO,4.853313,51.936476
Nijverheidsweg,3,,,2964LH,Groot-Ammers,Molenwaard,Zuid-Holland,VBO,4.853623,51.936038
Nijverheidsweg,7,,,2964LH,Groot-Ammers,Molenwaard,Zuid-Holland,VBO,4.853873,51.935606
Nijverheidsweg,9,,,2964LH,Groot-Ammers,Molenwaard,Zuid-Holland,VBO,4.853892,51.935381
Nijverheidsweg,11,,,2964LH,Groot-Ammers,Molenwaard,Zuid-Holland,VBO,4.854314,51.934903
Nijverheidsweg,12,,,2964LH,Groot-Ammers,Molenwaard,Zuid-Holland,VBO,4.853739,51.934536
Nijverheidsweg,14,,,2964LH,Groot-Ammers,Molenwaard,Zuid-Holland,VBO,4.853091,51.934381
Nijverheidsweg,15,,,2964LH,Groot-Ammers,Molenwaard,Zuid-Holland,VBO,4.854513,51.934733
Nijverheidsweg,17,,,2964LH,Groot-Ammers,Molenwaard,Zuid-Holland,VBO,4.854086,51.934200
Van Leeuwenhoekweg,1,,,2964LJ,Groot-Ammers,Molenwaard,Zuid-Holland,VBO,4.847831,51.937991
Van Leeuwenhoekweg,2,,,2964LJ,Groot-Ammers,Molenwaard,Zuid-Holland,VBO,4.848600,51.937576
Van Leeuwenhoekweg,3,,,2964LJ,Groot-Ammers,Molenwaard,Zuid-Holland,VBO,4.846925,51.937803
Van Leeuwenhoekweg,4,,,2964LJ,Groot-Ammers,Molenwaard,Zuid-Holland,VBO,4.848326,51.937586
Van Leeuwenhoekweg,6,,,2964LJ,Groot-Ammers,Molenwaard,Zuid-Holland,VBO,4.848189,51.937543
Van Leeuwenhoekweg,8,,,2964LJ,Groot-Ammers,Molenwaard,Zuid-Holland,VBO,4.848085,51.937504
Van Leeuwenhoekweg,10,,,2964LJ,Groot-Ammers,Molenwaard,Zuid-Holland,VBO,4.847958,51.937468
Edisonweg,1,,,2964LK,Groot-Ammers,Molenwaard,Zuid-Holland,VBO,4.844168,51.932174
Edisonweg,2,,,2964LK,Groot-Ammers,Molenwaard,Zuid-Holland,VBO,4.846388,51.932629
Edisonweg,3,a,,2964LK,Groot-Ammers,Molenwaard,Zuid-Holland,VBO,4.843304,51.934136
Edisonweg,3,,,2964LK,Groot-Ammers,Molenwaard,Zuid-Holland,VBO,4.842935,51.934139
Edisonweg,5,,,2964LK,Groot-Ammers,Molenwaard,Zuid-Holland,VBO,4.842676,51.934724
Edisonweg,9,,,2964LK,Groot-Ammers,Molenwaard,Zuid-Holland,VBO,4.841978,51.935687
Edisonweg,16,,,2964LK,Groot-Ammers,Molenwaard,Zuid-Holland,VBO,4.843731,51.934684
Edisonweg,18,,,2964LK,Groot-Ammers,Molenwaard,Zuid-Holland,VBO,4.843486,51.935080
Edisonweg,20,,,2964LK,Groot-Ammers,Molenwaard,Zuid-Holland,VBO,4.843280,51.935226
Huijgensweg,3,,,2964LL,Groot-Ammers,Molenwaard,Zuid-Holland,VBO,4.846625,51.935178
Stevinweg,1,a,,2964LM,Groot-Ammers,Molenwaard,Zuid-Holland,VBO,4.845514,51.935783
Stevinweg,3,a,,2964LM,Groot-Ammers,Molenwaard,Zuid-Holland,VBO,4.845158,51.935327
Stevinweg,3,,,2964LM,Groot-Ammers,Molenwaard,Zuid-Holland,VBO,4.844636,51.935576
Lorentzweg,1,,,2964LN,Groot-Ammers,Molenwaard,Zuid-Holland,VBO,4.845805,51.936418
Lorentzweg,2,a,,2964LN,Groot-Ammers,Molenwaard,Zuid-Holland,VBO,4.845021,51.936892
Lorentzweg,2,,,2964LN,Groot-Ammers,Molenwaard,Zuid-Holland,VBO,4.845058,51.937153
Lorentzweg,5,,,2964LN,Groot-Ammers,Molenwaard,Zuid-Holland,VBO,4.844367,51.936126
Lorentzweg,8,,,2964LN,Groot-Ammers,Molenwaard,Zuid-Holland,VBO,4.842514,51.936296
Lorentzweg,9,,,2964LN,Groot-Ammers,Molenwaard,Zuid-Holland,VBO,4.843724,51.935883
Lorentzweg,10,,,2964LN,Groot-Ammers,Molenwaard,Zuid-Holland,VBO,4.842486,51.936343
Lorentzweg,12,,,2964LN,Groot-Ammers,Molenwaard,Zuid-Holland,VBO,4.842448,51.936410
Lorentzweg,14,a,,2964LN,Groot-Ammers,Molenwaard,Zuid-Holland,VBO,4.842424,51.936269
Lorentzweg,14,,,2964LN,Groot-Ammers,Molenwaard,Zuid-Holland,VBO,4.842364,51.936259
Lorentzweg,16,,,2964LN,Groot-Ammers,Molenwaard,Zuid-Holland,VBO,4.842335,51.936309
Lorentzweg,18,,,2964LN,Groot-Ammers,Molenwaard,Zuid-Holland,VBO,4.842312,51.936359
Lorentzweg,20,a,,2964LN,Groot-Ammers,Molenwaard,Zuid-Holland,VBO,4.842355,51.936421
Lorentzweg,20,,,2964LN,Groot-Ammers,Molenwaard,Zuid-Holland,VBO,4.842286,51.936405
Lorentzweg,22,a,,2964LN,Groot-Ammers,Molenwaard,Zuid-Holland,VBO,4.842072,51.936174
Lorentzweg,22,,,2964LN,Groot-Ammers,Molenwaard,Zuid-Holland,VBO,4.841962,51.936163
Lorentzweg,24,,,2964LN,Groot-Ammers,Molenwaard,Zuid-Holland,VBO,4.841936,51.936214
Lorentzweg,26,,,2964LN,Groot-Ammers,Molenwaard,Zuid-Holland,VBO,4.841907,51.936264
Lorentzweg,28,a,,2964LN,Groot-Ammers,Molenwaard,Zuid-Holland,VBO,4.841983,51.936334
Lorentzweg,28,,,2964LN,Groot-Ammers,Molenwaard,Zuid-Holland,VBO,4.841878,51.936311
Lorentzweg,30,,,2964LN,Groot-Ammers,Molenwaard,Zuid-Holland,VBO,4.841867,51.936153
Lorentzweg,32,,,2964LN,Groot-Ammers,Molenwaard,Zuid-Holland,VBO,4.841768,51.936132
Lorentzweg,34,,,2964LN,Groot-Ammers,Molenwaard,Zuid-Holland,VBO,4.841771,51.936226
Lorentzweg,48,,,2964LN,Groot-Ammers,Molenwaard,Zuid-Holland,VBO,4.840967,51.935940
Lorentzweg,48,,,2964LN,Groot-Ammers,Molenwaard,Zuid-Holland,VBO,4.840909,51.935962
Transportweg,2,,,2964LP,Groot-Ammers,Molenwaard,Zuid-Holland,VBO,4.856111,51.933986
Transportweg,6,,,2964LP,Groot-Ammers,Molenwaard,Zuid-Holland,VBO,4.855134,51.935120
Gijbelandsedijk,11,a,,2964VC,Brandwijk,Molenwaard,Zuid-Holland,VBO,4.805961,51.872950
