openbareruimtenaam,huisnummer,huisletter,huisnummertoevoeging,postcode,woonplaatsnaam,gemeentenaam,provincienaam,typeadresseerbaarobject,longitude,latitude
Van Helmontstraat,5,,,3029AA,Rotterdam,Rotterdam,Zuid-Holland,VBO,4.432669,51.910936
Van Helmontstraat,7,A,,3029AA,Rotterdam,Rotterdam,Zuid-Holland,VBO,4.432397,51.910874
Van Helmontstraat,7,B,,3029AA,Rotterdam,Rotterdam,Zuid-Holland,VBO,4.432397,51.910874
Van Helmontstraat,7,C,,3029AA,Rotterdam,Rotterdam,Zuid-Holland,VBO,4.432397,51.910874
Van Helmontstraat,9,,,3029AA,Rotterdam,Rotterdam,Zuid-Holland,VBO,4.432161,51.910833
Van Helmontstraat,13,,,3029AA,Rotterdam,Rotterdam,Zuid-Holland,VBO,4.431829,51.910762
Van Helmontstraat,15,,,3029AA,Rotterdam,Rotterdam,Zuid-Holland,VBO,4.431395,51.910728
Van Helmontstraat,21,,,3029AA,Rotterdam,Rotterdam,Zuid-Holland,VBO,4.430837,51.910548
Van Helmontstraat,23,,,3029AA,Rotterdam,Rotterdam,Zuid-Holland,VBO,4.430837,51.910548
Van Helmontstraat,25,,,3029AA,Rotterdam,Rotterdam,Zuid-Holland,VBO,4.430464,51.910447
Van Helmontstraat,27,,,3029AA,Rotterdam,Rotterdam,Zuid-Holland,VBO,4.430154,51.910568
Van Helmontstraat,97,,,3029AA,Rotterdam,Rotterdam,Zuid-Holland,VBO,4.430069,51.910386
Van Helmontstraat,99,,,3029AA,Rotterdam,Rotterdam,Zuid-Holland,VBO,4.429627,51.910295
Van Helmontstraat,4,,,3029AB,Rotterdam,Rotterdam,Zuid-Holland,VBO,4.433326,51.910590
Van Helmontstraat,6,,,3029AB,Rotterdam,Rotterdam,Zuid-Holland,VBO,4.432496,51.910620
Van Helmontstraat,8,A,,3029AB,Rotterdam,Rotterdam,Zuid-Holland,VBO,4.432253,51.910569
Van Helmontstraat,8,B,,3029AB,Rotterdam,Rotterdam,Zuid-Holland,VBO,4.432253,51.910569
Van Helmontstraat,10,A,,3029AB,Rotterdam,Rotterdam,Zuid-Holland,VBO,4.431933,51.910504
Van Helmontstraat,10,B,,3029AB,Rotterdam,Rotterdam,Zuid-Holland,VBO,4.431933,51.910504
Van Helmontstraat,12,,,3029AB,Rotterdam,Rotterdam,Zuid-Holland,VBO,4.431738,51.910462
Van Helmontstraat,14,,,3029AB,Rotterdam,Rotterdam,Zuid-Holland,VBO,4.431872,51.909942
Van Helmontstraat,20,,,3029AB,Rotterdam,Rotterdam,Zuid-Holland,VBO,4.427914,51.909630
Van Helmontstraat,22,,,3029AB,Rotterdam,Rotterdam,Zuid-Holland,VBO,4.427914,51.909630
Van Helmontstraat,24,,,3029AB,Rotterdam,Rotterdam,Zuid-Holland,VBO,4.427910,51.909613
Benjamin Franklinstraat,11,,,3029AC,Rotterdam,Rotterdam,Zuid-Holland,VBO,4.427649,51.911618
Benjamin Franklinstraat,15,,,3029AC,Rotterdam,Rotterdam,Zuid-Holland,VBO,4.423947,51.910197
Benjamin Franklinstraat,21,,,3029AC,Rotterdam,Rotterdam,Zuid-Holland,VBO,4.423947,51.910197
Benjamin Franklinstraat,25,,,3029AC,Rotterdam,Rotterdam,Zuid-Holland,VBO,4.428746,51.910126
Benjamin Franklinstraat,501,,,3029AC,Rotterdam,Rotterdam,Zuid-Holland,VBO,4.431762,51.906762
Benjamin Franklinstraat,503,,,3029AC,Rotterdam,Rotterdam,Zuid-Holland,VBO,4.431762,51.906762
Benjamin Franklinstraat,505,,,3029AC,Rotterdam,Rotterdam,Zuid-Holland,VBO,4.431762,51.906762
Benjamin Franklinstraat,507,,,3029AC,Rotterdam,Rotterdam,Zuid-Holland,VBO,4.431762,51.906762
Benjamin Franklinstraat,509,,,3029AC,Rotterdam,Rotterdam,Zuid-Holland,VBO,4.431762,51.906762
Benjamin Franklinstraat,511,,,3029AC,Rotterdam,Rotterdam,Zuid-Holland,VBO,4.431762,51.906762
Benjamin Franklinstraat,513,,,3029AC,Rotterdam,Rotterdam,Zuid-Holland,VBO,4.431762,51.906762
Benjamin Franklinstraat,515,,,3029AC,Rotterdam,Rotterdam,Zuid-Holland,VBO,4.431762,51.906762
Galvanistraat,4,,,3029AD,Rotterdam,Rotterdam,Zuid-Holland,VBO,4.432670,51.911633
Galvanistraat,6,,,3029AD,Rotterdam,Rotterdam,Zuid-Holland,VBO,4.432352,51.911754
Galvanistraat,9,,,3029AD,Rotterdam,Rotterdam,Zuid-Holland,VBO,4.432058,51.912424
Galvanistraat,10,,,3029AD,Rotterdam,Rotterdam,Zuid-Holland,VBO,4.431917,51.911676
Galvanistraat,12,,,3029AD,Rotterdam,Rotterdam,Zuid-Holland,VBO,4.431426,51.911442
Galvanistraat,14,,,3029AD,Rotterdam,Rotterdam,Zuid-Holland,VBO,4.431917,51.911676
Galvanistraat,15,,,3029AD,Rotterdam,Rotterdam,Zuid-Holland,VBO,4.431025,51.911963
Galvanistraat,16,,,3029AD,Rotterdam,Rotterdam,Zuid-Holland,VBO,4.431216,51.911485
Galvanistraat,30,,,3029AD,Rotterdam,Rotterdam,Zuid-Holland,VBO,4.430837,51.910548
Galvanistraat,34,,,3029AD,Rotterdam,Rotterdam,Zuid-Holland,VBO,4.429980,51.911268
Galvanistraat,36,,,3029AD,Rotterdam,Rotterdam,Zuid-Holland,VBO,4.429980,51.911268
Galvanistraat,114,,,3029AD,Rotterdam,Rotterdam,Zuid-Holland,VBO,4.429608,51.911180
Galvanistraat,118,,,3029AD,Rotterdam,Rotterdam,Zuid-Holland,VBO,4.429614,51.911069
Galvanistraat,120,,,3029AD,Rotterdam,Rotterdam,Zuid-Holland,VBO,4.429673,51.910964
Galvanistraat,122,,,3029AD,Rotterdam,Rotterdam,Zuid-Holland,VBO,4.429734,51.910858
Galvanistraat,124,,,3029AD,Rotterdam,Rotterdam,Zuid-Holland,VBO,4.429778,51.910766
Galvanistraat,126,,,3029AD,Rotterdam,Rotterdam,Zuid-Holland,VBO,4.429822,51.910686
Galvanistraat,128,,,3029AD,Rotterdam,Rotterdam,Zuid-Holland,VBO,4.429868,51.910606
Galvanistraat,130,,,3029AD,Rotterdam,Rotterdam,Zuid-Holland,VBO,4.429937,51.910484
Galvanistraat,136,,,3029AD,Rotterdam,Rotterdam,Zuid-Holland,VBO,4.429545,51.910481
Galvanistraat,138,,,3029AD,Rotterdam,Rotterdam,Zuid-Holland,VBO,4.429448,51.910655
Galvanistraat,140,,,3029AD,Rotterdam,Rotterdam,Zuid-Holland,VBO,4.429390,51.910753
Galvanistraat,142,,,3029AD,Rotterdam,Rotterdam,Zuid-Holland,VBO,4.429340,51.910865
Galvanistraat,144,,,3029AD,Rotterdam,Rotterdam,Zuid-Holland,VBO,4.429284,51.910964
Galvanistraat,148,,,3029AD,Rotterdam,Rotterdam,Zuid-Holland,VBO,4.429181,51.911089
Galvanistraat,150,,,3029AD,Rotterdam,Rotterdam,Zuid-Holland,VBO,4.429007,51.911059
Marconistraat,1,A,,3029AE,Rotterdam,Rotterdam,Zuid-Holland,VBO,4.430066,51.912718
Marconistraat,1,B,,3029AE,Rotterdam,Rotterdam,Zuid-Holland,VBO,4.430066,51.912718
Marconistraat,1,C,,3029AE,Rotterdam,Rotterdam,Zuid-Holland,VBO,4.430066,51.912718
Marconistraat,1,D,,3029AE,Rotterdam,Rotterdam,Zuid-Holland,VBO,4.430066,51.912718
Marconistraat,3,A,,3029AE,Rotterdam,Rotterdam,Zuid-Holland,VBO,4.429820,51.912788
Marconistraat,3,B,,3029AE,Rotterdam,Rotterdam,Zuid-Holland,VBO,4.429820,51.912788
Marconistraat,3,C,,3029AE,Rotterdam,Rotterdam,Zuid-Holland,VBO,4.429820,51.912788
Marconistraat,3,D,,3029AE,Rotterdam,Rotterdam,Zuid-Holland,VBO,4.429820,51.912788
Marconistraat,5,A,,3029AE,Rotterdam,Rotterdam,Zuid-Holland,VBO,4.429820,51.912788
Marconistraat,5,B,,3029AE,Rotterdam,Rotterdam,Zuid-Holland,VBO,4.429820,51.912788
Marconistraat,5,C,,3029AE,Rotterdam,Rotterdam,Zuid-Holland,VBO,4.429820,51.912788
Marconistraat,5,D,,3029AE,Rotterdam,Rotterdam,Zuid-Holland,VBO,4.429820,51.912788
Marconistraat,7,A,,3029AE,Rotterdam,Rotterdam,Zuid-Holland,VBO,4.429820,51.912788
Marconistraat,7,B,,3029AE,Rotterdam,Rotterdam,Zuid-Holland,VBO,4.429820,51.912788
Marconistraat,7,C,,3029AE,Rotterdam,Rotterdam,Zuid-Holland,VBO,4.429820,51.912788
Marconistraat,7,D,,3029AE,Rotterdam,Rotterdam,Zuid-Holland,VBO,4.429820,51.912788
Marconistraat,9,A,,3029AE,Rotterdam,Rotterdam,Zuid-Holland,VBO,4.429820,51.912788
Marconistraat,9,B,,3029AE,Rotterdam,Rotterdam,Zuid-Holland,VBO,4.429820,51.912788
Marconistraat,9,C,,3029AE,Rotterdam,Rotterdam,Zuid-Holland,VBO,4.429820,51.912788
Marconistraat,11,A,,3029AE,Rotterdam,Rotterdam,Zuid-Holland,VBO,4.429820,51.912788
Marconistraat,11,B,,3029AE,Rotterdam,Rotterdam,Zuid-Holland,VBO,4.429820,51.912788
Marconistraat,19,A,,3029AE,Rotterdam,Rotterdam,Zuid-Holland,VBO,4.427252,51.912523
Marconistraat,19,B,,3029AE,Rotterdam,Rotterdam,Zuid-Holland,VBO,4.427252,51.912523
Marconistraat,19,C,,3029AE,Rotterdam,Rotterdam,Zuid-Holland,VBO,4.427252,51.912523
Marconistraat,21,,,3029AG,Rotterdam,Rotterdam,Zuid-Holland,VBO,4.426911,51.912573
Marconistraat,23,,,3029AG,Rotterdam,Rotterdam,Zuid-Holland,VBO,4.426760,51.912581
Marconistraat,25,,,3029AG,Rotterdam,Rotterdam,Zuid-Holland,VBO,4.426405,51.912490
Marconistraat,27,,,3029AG,Rotterdam,Rotterdam,Zuid-Holland,VBO,4.426319,51.912490
Marconistraat,33,,,3029AG,Rotterdam,Rotterdam,Zuid-Holland,VBO,4.425206,51.912547
Marconistraat,37,,,3029AG,Rotterdam,Rotterdam,Zuid-Holland,VBO,4.424654,51.912898
Marconistraat,39,A,,3029AG,Rotterdam,Rotterdam,Zuid-Holland,VBO,4.424194,51.912926
Marconistraat,39,B,,3029AG,Rotterdam,Rotterdam,Zuid-Holland,VBO,4.423844,51.912905
Marconistraat,41,,,3029AH,Rotterdam,Rotterdam,Zuid-Holland,VBO,4.423939,51.912623
Marconistraat,43,,,3029AH,Rotterdam,Rotterdam,Zuid-Holland,VBO,4.423939,51.912623
Marconistraat,81,,,3029AJ,Rotterdam,Rotterdam,Zuid-Holland,VBO,4.417367,51.913287
Marconistraat,83,,,3029AJ,Rotterdam,Rotterdam,Zuid-Holland,VBO,4.416642,51.913333
Marconistraat,85,,,3029AJ,Rotterdam,Rotterdam,Zuid-Holland,VBO,4.416224,51.913106
Marconistraat,91,,,3029AJ,Rotterdam,Rotterdam,Zuid-Holland,VBO,4.415158,51.913402
Marconistraat,95,,,3029AJ,Rotterdam,Rotterdam,Zuid-Holland,VBO,4.412842,51.913546
Marconistraat,105,,,3029AJ,Rotterdam,Rotterdam,Zuid-Holland,VBO,4.413381,51.913283
Marconistraat,121,,,3029AJ,Rotterdam,Rotterdam,Zuid-Holland,VBO,4.414202,51.913745
Galvanistraat,1,,,3029AK,Rotterdam,Rotterdam,Zuid-Holland,VBO,4.432579,51.912064
Marconistraat,2,,,3029AK,Rotterdam,Rotterdam,Zuid-Holland,VBO,4.432444,51.912143
Marconistraat,4,,,3029AK,Rotterdam,Rotterdam,Zuid-Holland,VBO,4.432058,51.912424
Marconistraat,12,,,3029AK,Rotterdam,Rotterdam,Zuid-Holland,VBO,4.431025,51.911963
Marconistraat,16,,,3029AK,Rotterdam,Rotterdam,Zuid-Holland,VBO,4.429627,51.912298
Marconistraat,20,,,3029AK,Rotterdam,Rotterdam,Zuid-Holland,VBO,4.428700,51.912295
Marconistraat,36,,,3029AK,Rotterdam,Rotterdam,Zuid-Holland,VBO,4.426144,51.912029
Marconistraat,38,,,3029AK,Rotterdam,Rotterdam,Zuid-Holland,VBO,4.424448,51.912301
Marconistraat,52,,,3029AK,Rotterdam,Rotterdam,Zuid-Holland,VBO,4.421333,51.912496
Marconistraat,80,,,3029AK,Rotterdam,Rotterdam,Zuid-Holland,VBO,4.416003,51.912655
Marconistraat,100,,,3029AK,Rotterdam,Rotterdam,Zuid-Holland,VBO,4.412742,51.913108
Galileïstraat,15,,,3029AL,Rotterdam,Rotterdam,Zuid-Holland,VBO,4.423947,51.910197
Galileïstraat,14,,,3029AM,Rotterdam,Rotterdam,Zuid-Holland,VBO,4.424448,51.912301
Galileïstraat,20,,,3029AM,Rotterdam,Rotterdam,Zuid-Holland,VBO,4.424673,51.911787
Galileïstraat,22,,,3029AM,Rotterdam,Rotterdam,Zuid-Holland,VBO,4.422782,51.910389
Galileïstraat,32,,,3029AM,Rotterdam,Rotterdam,Zuid-Holland,VBO,4.422067,51.909171
Galileïstraat,36,,,3029AM,Rotterdam,Rotterdam,Zuid-Holland,VBO,4.421483,51.908740
Galileïstraat,40,,,3029AM,Rotterdam,Rotterdam,Zuid-Holland,VBO,4.421086,51.908163
Galileïstraat,80,,,3029AM,Rotterdam,Rotterdam,Zuid-Holland,VBO,4.423099,51.905811
Radiostraat,1,,,3029AP,Rotterdam,Rotterdam,Zuid-Holland,VBO,4.420001,51.912575
Radiostraat,27,,,3029AP,Rotterdam,Rotterdam,Zuid-Holland,VBO,4.417875,51.910039
Radiostraat,36,,,3029AP,Rotterdam,Rotterdam,Zuid-Holland,VBO,4.418255,51.909859
Gustoweg,15,,,3029AR,Rotterdam,Rotterdam,Zuid-Holland,VBO,4.412123,51.912757
Gustoweg,25,,,3029AR,Rotterdam,Rotterdam,Zuid-Holland,VBO,4.411579,51.912893
Gustoweg,27,,,3029AR,Rotterdam,Rotterdam,Zuid-Holland,VBO,4.411974,51.912192
Gustoweg,29,,,3029AR,Rotterdam,Rotterdam,Zuid-Holland,VBO,4.411725,51.911996
Gustoweg,31,A,,3029AR,Rotterdam,Rotterdam,Zuid-Holland,VBO,4.411725,51.911996
Gustoweg,31,B,,3029AR,Rotterdam,Rotterdam,Zuid-Holland,VBO,4.411725,51.911996
Gustoweg,35,,,3029AR,Rotterdam,Rotterdam,Zuid-Holland,VBO,4.411613,51.911886
Gustoweg,39,,,3029AR,Rotterdam,Rotterdam,Zuid-Holland,VBO,4.411375,51.911644
Gustoweg,41,,,3029AR,Rotterdam,Rotterdam,Zuid-Holland,VBO,4.411375,51.911644
Gustoweg,43,,,3029AR,Rotterdam,Rotterdam,Zuid-Holland,VBO,4.411180,51.911399
Gustoweg,45,A,,3029AR,Rotterdam,Rotterdam,Zuid-Holland,VBO,4.411105,51.911265
Gustoweg,45,B,,3029AR,Rotterdam,Rotterdam,Zuid-Holland,VBO,4.411105,51.911265
Gustoweg,45,C,,3029AR,Rotterdam,Rotterdam,Zuid-Holland,VBO,4.411105,51.911265
Gustoweg,45,D,,3029AR,Rotterdam,Rotterdam,Zuid-Holland,VBO,4.411105,51.911265
Gustoweg,45,E,,3029AR,Rotterdam,Rotterdam,Zuid-Holland,VBO,4.411105,51.911265
Gustoweg,45,F,,3029AR,Rotterdam,Rotterdam,Zuid-Holland,VBO,4.411105,51.911265
Gustoweg,45,G,,3029AR,Rotterdam,Rotterdam,Zuid-Holland,VBO,4.411105,51.911265
Gustoweg,45,H,,3029AR,Rotterdam,Rotterdam,Zuid-Holland,VBO,4.411105,51.911265
Gustoweg,45,J,,3029AR,Rotterdam,Rotterdam,Zuid-Holland,VBO,4.411105,51.911265
Gustoweg,45,K,,3029AR,Rotterdam,Rotterdam,Zuid-Holland,VBO,4.411105,51.911265
Gustoweg,45,L,,3029AR,Rotterdam,Rotterdam,Zuid-Holland,VBO,4.411105,51.911265
Gustoweg,45,M,,3029AR,Rotterdam,Rotterdam,Zuid-Holland,VBO,4.411105,51.911265
Gustoweg,45,N,,3029AR,Rotterdam,Rotterdam,Zuid-Holland,VBO,4.411105,51.911265
Gustoweg,45,P,,3029AR,Rotterdam,Rotterdam,Zuid-Holland,VBO,4.411105,51.911265
Gustoweg,45,Q,,3029AR,Rotterdam,Rotterdam,Zuid-Holland,VBO,4.411105,51.911265
Gustoweg,45,R,,3029AR,Rotterdam,Rotterdam,Zuid-Holland,VBO,4.411105,51.911265
Gustoweg,47,,,3029AR,Rotterdam,Rotterdam,Zuid-Holland,VBO,4.410843,51.911108
Gustoweg,51,,,3029AR,Rotterdam,Rotterdam,Zuid-Holland,VBO,4.411023,51.910919
Gustoweg,53,,,3029AR,Rotterdam,Rotterdam,Zuid-Holland,VBO,4.411036,51.910786
Gustoweg,55,A,,3029AR,Rotterdam,Rotterdam,Zuid-Holland,VBO,4.410298,51.910759
Gustoweg,57,,,3029AR,Rotterdam,Rotterdam,Zuid-Holland,VBO,4.411235,51.910305
Gustoweg,10,,,3029AS,Rotterdam,Rotterdam,Zuid-Holland,VBO,4.413411,51.908324
Gustoweg,66,,,3029AS,Rotterdam,Rotterdam,Zuid-Holland,VBO,4.413468,51.907985
Gustoweg,68,,,3029AS,Rotterdam,Rotterdam,Zuid-Holland,VBO,4.413468,51.907985
Gustoweg,80,,,3029AS,Rotterdam,Rotterdam,Zuid-Holland,VBO,4.413501,51.907616
Van Berckenrodestraat,1,,,3029AT,Rotterdam,Rotterdam,Zuid-Holland,VBO,4.411235,51.910305
Van Berckenrodestraat,3,,,3029AT,Rotterdam,Rotterdam,Zuid-Holland,VBO,4.411235,51.910305
Van Berckenrodestraat,5,,,3029AT,Rotterdam,Rotterdam,Zuid-Holland,VBO,4.410979,51.910226
Van Berckenrodestraat,13,,,3029AT,Rotterdam,Rotterdam,Zuid-Holland,VBO,4.410619,51.910127
Van Berckenrodestraat,15,,,3029AT,Rotterdam,Rotterdam,Zuid-Holland,VBO,4.410343,51.910042
Van Berckenrodestraat,17,,,3029AT,Rotterdam,Rotterdam,Zuid-Holland,VBO,4.409945,51.910050
Nieuw-Mathenesserstraat,31,,,3029AV,Rotterdam,Rotterdam,Zuid-Holland,VBO,4.409788,51.912231
Nieuw-Mathenesserstraat,33,,,3029AV,Rotterdam,Rotterdam,Zuid-Holland,VBO,4.409275,51.911715
Nieuw-Mathenesserstraat,35,,,3029AV,Rotterdam,Rotterdam,Zuid-Holland,VBO,4.409401,51.911276
Nieuw-Mathenesserstraat,39,,,3029AV,Rotterdam,Rotterdam,Zuid-Holland,VBO,4.409493,51.910949
Nieuw-Mathenesserstraat,41,,,3029AV,Rotterdam,Rotterdam,Zuid-Holland,VBO,4.409493,51.910949
Nieuw-Mathenesserstraat,43,,,3029AV,Rotterdam,Rotterdam,Zuid-Holland,VBO,4.409563,51.910702
Nieuw-Mathenesserstraat,45,A,,3029AV,Rotterdam,Rotterdam,Zuid-Holland,VBO,4.409844,51.910496
Nieuw-Mathenesserstraat,45,B,,3029AV,Rotterdam,Rotterdam,Zuid-Holland,VBO,4.409844,51.910496
Nieuw-Mathenesserstraat,51,,,3029AV,Rotterdam,Rotterdam,Zuid-Holland,VBO,4.409945,51.910050
Van Deventerstraat,15,A,,3029AW,Rotterdam,Rotterdam,Zuid-Holland,VBO,4.412123,51.912757
Van Deventerstraat,15,B,,3029AW,Rotterdam,Rotterdam,Zuid-Holland,VBO,4.411579,51.912893
Van Deventerstraat,15,C,,3029AW,Rotterdam,Rotterdam,Zuid-Holland,VBO,4.412123,51.912757
Van Deventerstraat,15,D,,3029AW,Rotterdam,Rotterdam,Zuid-Holland,VBO,4.412123,51.912757
Van Deventerstraat,15,E,,3029AW,Rotterdam,Rotterdam,Zuid-Holland,VBO,4.412123,51.912757
Van Deventerstraat,15,F,,3029AW,Rotterdam,Rotterdam,Zuid-Holland,VBO,4.411302,51.912789
Van Deventerstraat,17,,,3029AW,Rotterdam,Rotterdam,Zuid-Holland,VBO,4.411067,51.912704
Van Deventerstraat,19,,,3029AW,Rotterdam,Rotterdam,Zuid-Holland,VBO,4.410780,51.912598
Van Deventerstraat,21,,,3029AW,Rotterdam,Rotterdam,Zuid-Holland,VBO,4.410780,51.912598
Van Deventerstraat,25,,,3029AW,Rotterdam,Rotterdam,Zuid-Holland,VBO,4.410233,51.912395
Van Deventerstraat,29,,,3029AW,Rotterdam,Rotterdam,Zuid-Holland,VBO,4.410233,51.912395
Van Deventerstraat,33,,,3029AW,Rotterdam,Rotterdam,Zuid-Holland,VBO,4.409788,51.912231
Westkousdijk,22,,,3029BA,Rotterdam,Rotterdam,Zuid-Holland,VBO,4.446580,51.903704
Westkousdijk,24,,,3029BA,Rotterdam,Rotterdam,Zuid-Holland,VBO,4.446580,51.903704
Westkousdijk,26,,,3029BA,Rotterdam,Rotterdam,Zuid-Holland,VBO,4.446580,51.903704
Westkousdijk,28,,,3029BA,Rotterdam,Rotterdam,Zuid-Holland,VBO,4.446580,51.903704
Westkousdijk,30,,,3029BA,Rotterdam,Rotterdam,Zuid-Holland,VBO,4.446580,51.903704
Westkousdijk,32,,,3029BA,Rotterdam,Rotterdam,Zuid-Holland,VBO,4.446580,51.903704
Westkousdijk,34,,,3029BA,Rotterdam,Rotterdam,Zuid-Holland,VBO,4.446580,51.903704
Westkousdijk,36,,,3029BA,Rotterdam,Rotterdam,Zuid-Holland,VBO,4.446580,51.903704
Westkousdijk,38,,,3029BA,Rotterdam,Rotterdam,Zuid-Holland,VBO,4.446580,51.903704
Westkousdijk,40,,,3029BA,Rotterdam,Rotterdam,Zuid-Holland,VBO,4.446580,51.903704
Westkousdijk,42,,,3029BA,Rotterdam,Rotterdam,Zuid-Holland,VBO,4.446580,51.903704
Westkousdijk,44,,,3029BA,Rotterdam,Rotterdam,Zuid-Holland,VBO,4.446580,51.903704
Westkousdijk,46,,,3029BA,Rotterdam,Rotterdam,Zuid-Holland,VBO,4.446580,51.903704
Westkousdijk,48,,,3029BA,Rotterdam,Rotterdam,Zuid-Holland,VBO,4.446580,51.903704
Westkousdijk,50,,,3029BA,Rotterdam,Rotterdam,Zuid-Holland,VBO,4.446580,51.903704
Westkousdijk,52,,,3029BA,Rotterdam,Rotterdam,Zuid-Holland,VBO,4.446580,51.903704
Westkousdijk,54,,,3029BA,Rotterdam,Rotterdam,Zuid-Holland,VBO,4.446580,51.903704
Hudsonstraat,260,,,3029BB,Rotterdam,Rotterdam,Zuid-Holland,VBO,4.436313,51.910206
Vierhavensstraat,5,B,,3029BB,Rotterdam,Rotterdam,Zuid-Holland,VBO,4.441653,51.905549
Vierhavensstraat,21,,,3029BB,Rotterdam,Rotterdam,Zuid-Holland,VBO,4.440184,51.906955
Vierhavensstraat,23,,,3029BB,Rotterdam,Rotterdam,Zuid-Holland,VBO,4.440184,51.906955
Vierhavensstraat,25,,,3029BB,Rotterdam,Rotterdam,Zuid-Holland,VBO,4.440184,51.906955
Vierhavensstraat,27,,,3029BB,Rotterdam,Rotterdam,Zuid-Holland,VBO,4.440184,51.906955
Vierhavensstraat,29,,,3029BB,Rotterdam,Rotterdam,Zuid-Holland,VBO,4.440184,51.906955
Vierhavensstraat,31,,,3029BB,Rotterdam,Rotterdam,Zuid-Holland,VBO,4.440184,51.906955
Vierhavensstraat,33,,,3029BB,Rotterdam,Rotterdam,Zuid-Holland,VBO,4.440184,51.906955
Vierhavensstraat,35,,,3029BB,Rotterdam,Rotterdam,Zuid-Holland,VBO,4.440184,51.906955
Vierhavensstraat,37,,,3029BB,Rotterdam,Rotterdam,Zuid-Holland,VBO,4.440184,51.906955
Vierhavensstraat,39,,,3029BB,Rotterdam,Rotterdam,Zuid-Holland,VBO,4.440184,51.906955
Vierhavensstraat,41,,,3029BB,Rotterdam,Rotterdam,Zuid-Holland,VBO,4.440184,51.906955
Vierhavensstraat,45,,,3029BB,Rotterdam,Rotterdam,Zuid-Holland,VBO,4.440184,51.906955
Vierhavensstraat,47,,,3029BB,Rotterdam,Rotterdam,Zuid-Holland,VBO,4.440184,51.906955
Vierhavensstraat,49,,,3029BB,Rotterdam,Rotterdam,Zuid-Holland,VBO,4.440184,51.906955
Vierhavensstraat,51,,,3029BB,Rotterdam,Rotterdam,Zuid-Holland,VBO,4.440184,51.906955
Vierhavensstraat,53,,,3029BB,Rotterdam,Rotterdam,Zuid-Holland,VBO,4.440184,51.906955
Vierhavensstraat,55,,,3029BB,Rotterdam,Rotterdam,Zuid-Holland,VBO,4.440184,51.906955
Vierhavensstraat,57,,,3029BB,Rotterdam,Rotterdam,Zuid-Holland,VBO,4.440184,51.906955
Vierhavensstraat,59,,,3029BB,Rotterdam,Rotterdam,Zuid-Holland,VBO,4.440184,51.906955
Vierhavensstraat,63,,,3029BB,Rotterdam,Rotterdam,Zuid-Holland,VBO,4.440184,51.906955
Vierhavensstraat,65,,,3029BB,Rotterdam,Rotterdam,Zuid-Holland,VBO,4.440184,51.906955
Vierhavensstraat,67,,,3029BB,Rotterdam,Rotterdam,Zuid-Holland,VBO,4.440184,51.906955
Vierhavensstraat,69,,,3029BB,Rotterdam,Rotterdam,Zuid-Holland,VBO,4.439867,51.907154
Vierhavensstraat,71,,,3029BB,Rotterdam,Rotterdam,Zuid-Holland,VBO,4.439672,51.907285
Vierhavensstraat,73,,,3029BB,Rotterdam,Rotterdam,Zuid-Holland,VBO,4.439672,51.907285
Vierhavensstraat,75,,,3029BB,Rotterdam,Rotterdam,Zuid-Holland,VBO,4.439672,51.907285
Vierhavensstraat,77,,,3029BB,Rotterdam,Rotterdam,Zuid-Holland,VBO,4.439672,51.907285
Vierhavensstraat,79,,,3029BB,Rotterdam,Rotterdam,Zuid-Holland,VBO,4.439547,51.907365
Vierhavensstraat,81,,,3029BB,Rotterdam,Rotterdam,Zuid-Holland,VBO,4.439564,51.907510
Vierhavensstraat,83,,,3029BB,Rotterdam,Rotterdam,Zuid-Holland,VBO,4.439000,51.907729
Vierhavensstraat,85,,,3029BB,Rotterdam,Rotterdam,Zuid-Holland,VBO,4.438746,51.907902
Vierhavensstraat,87,,,3029BB,Rotterdam,Rotterdam,Zuid-Holland,VBO,4.438746,51.907902
Vierhavensstraat,89,,,3029BB,Rotterdam,Rotterdam,Zuid-Holland,VBO,4.438746,51.907902
Vierhavensstraat,91,,,3029BB,Rotterdam,Rotterdam,Zuid-Holland,VBO,4.438279,51.908202
Vierhavensstraat,99,,,3029BB,Rotterdam,Rotterdam,Zuid-Holland,VBO,4.438001,51.908390
Vierhavensstraat,105,,,3029BB,Rotterdam,Rotterdam,Zuid-Holland,VBO,4.437896,51.908464
Vierhavensstraat,107,,,3029BB,Rotterdam,Rotterdam,Zuid-Holland,VBO,4.437674,51.908607
Vierhavensstraat,109,,,3029BB,Rotterdam,Rotterdam,Zuid-Holland,VBO,4.437674,51.908607
Vierhavensstraat,111,,,3029BB,Rotterdam,Rotterdam,Zuid-Holland,VBO,4.437674,51.908607
Vierhavensstraat,113,,,3029BB,Rotterdam,Rotterdam,Zuid-Holland,VBO,4.437674,51.908607
Vierhavensstraat,117,,,3029BB,Rotterdam,Rotterdam,Zuid-Holland,VBO,4.437674,51.908607
Vierhavensstraat,119,,,3029BB,Rotterdam,Rotterdam,Zuid-Holland,VBO,4.437046,51.909026
Vierhavensstraat,121,,,3029BB,Rotterdam,Rotterdam,Zuid-Holland,VBO,4.437046,51.909026
Vierhavensstraat,123,,,3029BB,Rotterdam,Rotterdam,Zuid-Holland,VBO,4.437046,51.909026
Vierhavensstraat,125,,,3029BB,Rotterdam,Rotterdam,Zuid-Holland,VBO,4.437046,51.909026
Vierhavensstraat,127,,,3029BB,Rotterdam,Rotterdam,Zuid-Holland,VBO,4.437046,51.909026
Vierhavensstraat,129,,,3029BB,Rotterdam,Rotterdam,Zuid-Holland,VBO,4.437046,51.909026
Vierhavensstraat,131,,,3029BB,Rotterdam,Rotterdam,Zuid-Holland,VBO,4.436714,51.909230
Vierhavensstraat,133,,,3029BB,Rotterdam,Rotterdam,Zuid-Holland,VBO,4.436714,51.909230
Vierhavensstraat,137,,,3029BB,Rotterdam,Rotterdam,Zuid-Holland,VBO,4.436532,51.909345
Vierhavensstraat,139,,,3029BB,Rotterdam,Rotterdam,Zuid-Holland,VBO,4.436532,51.909345
Vierhavensstraat,141,,,3029BB,Rotterdam,Rotterdam,Zuid-Holland,VBO,4.436532,51.909345
Vierhavensstraat,143,,,3029BB,Rotterdam,Rotterdam,Zuid-Holland,VBO,4.436532,51.909345
Vierhavensstraat,145,,,3029BB,Rotterdam,Rotterdam,Zuid-Holland,VBO,4.439867,51.907154
Vierhavensstraat,147,,,3029BB,Rotterdam,Rotterdam,Zuid-Holland,VBO,4.436251,51.909528
Vierhavensstraat,149,,,3029BB,Rotterdam,Rotterdam,Zuid-Holland,VBO,4.436251,51.909528
Vierhavensstraat,151,,,3029BB,Rotterdam,Rotterdam,Zuid-Holland,VBO,4.436251,51.909528
Vierhavensstraat,153,,,3029BB,Rotterdam,Rotterdam,Zuid-Holland,VBO,4.436251,51.909528
Vierhavensstraat,157,,,3029BB,Rotterdam,Rotterdam,Zuid-Holland,VBO,4.436251,51.909528
Vierhavensstraat,159,,,3029BB,Rotterdam,Rotterdam,Zuid-Holland,VBO,4.436251,51.909528
Vierhavensstraat,161,,,3029BB,Rotterdam,Rotterdam,Zuid-Holland,VBO,4.436251,51.909528
Vierhavensstraat,163,,,3029BB,Rotterdam,Rotterdam,Zuid-Holland,VBO,4.436251,51.909528
Vierhavensstraat,165,,,3029BB,Rotterdam,Rotterdam,Zuid-Holland,VBO,4.436251,51.909528
Vierhavensstraat,167,,,3029BB,Rotterdam,Rotterdam,Zuid-Holland,VBO,4.435306,51.910147
Vierhavensstraat,169,,,3029BB,Rotterdam,Rotterdam,Zuid-Holland,VBO,4.435306,51.910147
Vierhavensstraat,173,,,3029BB,Rotterdam,Rotterdam,Zuid-Holland,VBO,4.435108,51.910359
Vierhavensstraat,175,,,3029BB,Rotterdam,Rotterdam,Zuid-Holland,VBO,4.435108,51.910359
Vierhavensstraat,177,,,3029BB,Rotterdam,Rotterdam,Zuid-Holland,VBO,4.435108,51.910359
Vierhavensstraat,179,,,3029BB,Rotterdam,Rotterdam,Zuid-Holland,VBO,4.435108,51.910359
Vierhavensstraat,181,,,3029BB,Rotterdam,Rotterdam,Zuid-Holland,VBO,4.435108,51.910359
Vierhavensstraat,183,,,3029BB,Rotterdam,Rotterdam,Zuid-Holland,VBO,4.435108,51.910359
Vierhavensstraat,185,,,3029BB,Rotterdam,Rotterdam,Zuid-Holland,VBO,4.435108,51.910359
Vierhavensstraat,187,,,3029BB,Rotterdam,Rotterdam,Zuid-Holland,VBO,4.435108,51.910359
Vierhavensstraat,189,,,3029BB,Rotterdam,Rotterdam,Zuid-Holland,VBO,4.435108,51.910359
Vierhavensstraat,191,,,3029BB,Rotterdam,Rotterdam,Zuid-Holland,VBO,4.435108,51.910359
Vierhavensstraat,193,,,3029BB,Rotterdam,Rotterdam,Zuid-Holland,VBO,4.435108,51.910359
Vierhavensstraat,195,,,3029BB,Rotterdam,Rotterdam,Zuid-Holland,VBO,4.435108,51.910359
Vierhavensstraat,197,,,3029BB,Rotterdam,Rotterdam,Zuid-Holland,VBO,4.435108,51.910359
Vierhavensstraat,2,,,3029BE,Rotterdam,Rotterdam,Zuid-Holland,VBO,4.441303,51.905410
Vierhavensstraat,12,,,3029BE,Rotterdam,Rotterdam,Zuid-Holland,VBO,4.439555,51.908807
Vierhavensstraat,18,,,3029BE,Rotterdam,Rotterdam,Zuid-Holland,VBO,4.439281,51.906744
Vierhavensstraat,20,,,3029BE,Rotterdam,Rotterdam,Zuid-Holland,VBO,4.439281,51.906744
Vierhavensstraat,30,,,3029BE,Rotterdam,Rotterdam,Zuid-Holland,VBO,4.437939,51.907595
Vierhavensstraat,38,,,3029BE,Rotterdam,Rotterdam,Zuid-Holland,VBO,4.437172,51.908062
Vierhavensstraat,40,,,3029BE,Rotterdam,Rotterdam,Zuid-Holland,VBO,4.437172,51.908062
Vierhavensstraat,42,,,3029BE,Rotterdam,Rotterdam,Zuid-Holland,VBO,4.436615,51.908450
Vierhavensstraat,52,,,3029BG,Rotterdam,Rotterdam,Zuid-Holland,VBO,4.434884,51.909585
Vierhavensstraat,54,,,3029BG,Rotterdam,Rotterdam,Zuid-Holland,VBO,4.434788,51.909649
Vierhavensstraat,56,,,3029BG,Rotterdam,Rotterdam,Zuid-Holland,VBO,4.434122,51.909951
Vierhavensstraat,60,,,3029BG,Rotterdam,Rotterdam,Zuid-Holland,VBO,4.433326,51.910590
Vierhavensstraat,62,,,3029BG,Rotterdam,Rotterdam,Zuid-Holland,VBO,4.433326,51.910590
Vierhavensstraat,66,,,3029BG,Rotterdam,Rotterdam,Zuid-Holland,VBO,4.433063,51.911198
Vierhavensstraat,68,,,3029BG,Rotterdam,Rotterdam,Zuid-Holland,VBO,4.433055,51.911365
Pelgrimsstraat,1,,,3029BH,Rotterdam,Rotterdam,Zuid-Holland,VBO,4.444394,51.904911
Pelgrimsstraat,3,,,3029BH,Rotterdam,Rotterdam,Zuid-Holland,VBO,4.444394,51.904911
Pelgrimsstraat,5,A,,3029BH,Rotterdam,Rotterdam,Zuid-Holland,VBO,4.444298,51.904926
Pelgrimsstraat,5,B,,3029BH,Rotterdam,Rotterdam,Zuid-Holland,VBO,4.444175,51.904943
Pelgrimsstraat,5,C,,3029BH,Rotterdam,Rotterdam,Zuid-Holland,VBO,4.443303,51.905066
Pelgrimsstraat,11,A,,3029BH,Rotterdam,Rotterdam,Zuid-Holland,VBO,4.441177,51.905270
Pelgrimsstraat,11,,,3029BH,Rotterdam,Rotterdam,Zuid-Holland,VBO,4.441177,51.905270
Pelgrimsstraat,4,,,3029BJ,Rotterdam,Rotterdam,Zuid-Holland,VBO,4.445372,51.904450
Pelgrimsstraat,6,,,3029BJ,Rotterdam,Rotterdam,Zuid-Holland,VBO,4.445255,51.904361
Pelgrimsstraat,10,,,3029BJ,Rotterdam,Rotterdam,Zuid-Holland,VBO,4.444974,51.904404
Pelgrimsstraat,12,,,3029BJ,Rotterdam,Rotterdam,Zuid-Holland,VBO,4.444718,51.904374
Pelgrimsstraat,14,,,3029BJ,Rotterdam,Rotterdam,Zuid-Holland,VBO,4.444718,51.904374
Pelgrimsstraat,16,,,3029BJ,Rotterdam,Rotterdam,Zuid-Holland,VBO,4.444718,51.904374
Pelgrimsstraat,18,,,3029BJ,Rotterdam,Rotterdam,Zuid-Holland,VBO,4.444718,51.904374
Pelgrimsstraat,20,,,3029BJ,Rotterdam,Rotterdam,Zuid-Holland,VBO,4.444718,51.904374
Pelgrimsstraat,22,,,3029BJ,Rotterdam,Rotterdam,Zuid-Holland,VBO,4.444718,51.904374
Pelgrimsstraat,24,,,3029BJ,Rotterdam,Rotterdam,Zuid-Holland,VBO,4.444718,51.904374
Pelgrimsstraat,26,,,3029BJ,Rotterdam,Rotterdam,Zuid-Holland,VBO,4.444718,51.904374
Pelgrimsstraat,28,,,3029BJ,Rotterdam,Rotterdam,Zuid-Holland,VBO,4.444718,51.904374
Pelgrimsstraat,30,,,3029BJ,Rotterdam,Rotterdam,Zuid-Holland,VBO,4.444718,51.904374
Pelgrimsstraat,32,,,3029BJ,Rotterdam,Rotterdam,Zuid-Holland,VBO,4.444718,51.904374
Pelgrimsstraat,34,,,3029BJ,Rotterdam,Rotterdam,Zuid-Holland,VBO,4.444718,51.904374
Pelgrimsstraat,36,,,3029BJ,Rotterdam,Rotterdam,Zuid-Holland,VBO,4.444718,51.904374
Pelgrimsstraat,38,,,3029BJ,Rotterdam,Rotterdam,Zuid-Holland,VBO,4.444718,51.904374
Pelgrimsstraat,40,,,3029BJ,Rotterdam,Rotterdam,Zuid-Holland,VBO,4.444718,51.904374
Pelgrimsstraat,42,,,3029BJ,Rotterdam,Rotterdam,Zuid-Holland,VBO,4.444718,51.904374
Pelgrimsstraat,44,,,3029BJ,Rotterdam,Rotterdam,Zuid-Holland,VBO,4.444718,51.904374
Pelgrimsstraat,46,,,3029BJ,Rotterdam,Rotterdam,Zuid-Holland,VBO,4.444718,51.904374
Pelgrimsstraat,48,,,3029BJ,Rotterdam,Rotterdam,Zuid-Holland,VBO,4.444718,51.904374
Pelgrimsstraat,50,,,3029BJ,Rotterdam,Rotterdam,Zuid-Holland,VBO,4.444718,51.904374
Pelgrimsstraat,52,,,3029BJ,Rotterdam,Rotterdam,Zuid-Holland,VBO,4.444718,51.904374
Pelgrimsstraat,54,,,3029BJ,Rotterdam,Rotterdam,Zuid-Holland,VBO,4.444718,51.904374
Pelgrimsstraat,56,,,3029BJ,Rotterdam,Rotterdam,Zuid-Holland,VBO,4.444718,51.904374
Pelgrimsstraat,58,,,3029BJ,Rotterdam,Rotterdam,Zuid-Holland,VBO,4.444718,51.904374
Pelgrimsstraat,60,,,3029BJ,Rotterdam,Rotterdam,Zuid-Holland,VBO,4.444718,51.904374
Pelgrimsstraat,62,,,3029BJ,Rotterdam,Rotterdam,Zuid-Holland,VBO,4.444718,51.904374
Pelgrimsstraat,64,,,3029BJ,Rotterdam,Rotterdam,Zuid-Holland,VBO,4.444718,51.904374
Pelgrimsstraat,66,,,3029BJ,Rotterdam,Rotterdam,Zuid-Holland,VBO,4.444718,51.904374
Pelgrimsstraat,68,,,3029BJ,Rotterdam,Rotterdam,Zuid-Holland,VBO,4.444718,51.904374
Pelgrimsstraat,70,,,3029BJ,Rotterdam,Rotterdam,Zuid-Holland,VBO,4.444718,51.904374
Pelgrimsstraat,72,,,3029BJ,Rotterdam,Rotterdam,Zuid-Holland,VBO,4.444718,51.904374
Pelgrimsstraat,74,,,3029BJ,Rotterdam,Rotterdam,Zuid-Holland,VBO,4.444718,51.904374
Pelgrimsstraat,76,,,3029BJ,Rotterdam,Rotterdam,Zuid-Holland,VBO,4.444718,51.904374
Pelgrimsstraat,78,,,3029BJ,Rotterdam,Rotterdam,Zuid-Holland,VBO,4.444718,51.904374
Pelgrimsstraat,80,,,3029BJ,Rotterdam,Rotterdam,Zuid-Holland,VBO,4.444718,51.904374
Pelgrimsstraat,82,,,3029BJ,Rotterdam,Rotterdam,Zuid-Holland,VBO,4.444718,51.904374
Pelgrimsstraat,84,,,3029BJ,Rotterdam,Rotterdam,Zuid-Holland,VBO,4.444718,51.904374
Pelgrimsstraat,86,,,3029BJ,Rotterdam,Rotterdam,Zuid-Holland,VBO,4.444718,51.904374
Pelgrimsstraat,88,,,3029BJ,Rotterdam,Rotterdam,Zuid-Holland,VBO,4.444718,51.904374
Pelgrimsstraat,90,,,3029BJ,Rotterdam,Rotterdam,Zuid-Holland,VBO,4.444718,51.904374
Pelgrimsstraat,92,,,3029BJ,Rotterdam,Rotterdam,Zuid-Holland,VBO,4.444718,51.904374
Pelgrimsstraat,94,,,3029BJ,Rotterdam,Rotterdam,Zuid-Holland,VBO,4.444718,51.904374
Pelgrimsstraat,96,,,3029BJ,Rotterdam,Rotterdam,Zuid-Holland,VBO,4.444718,51.904374
Pelgrimsstraat,98,,,3029BJ,Rotterdam,Rotterdam,Zuid-Holland,VBO,4.444718,51.904374
Pelgrimsstraat,100,,,3029BJ,Rotterdam,Rotterdam,Zuid-Holland,VBO,4.444718,51.904374
Pelgrimsstraat,102,,,3029BJ,Rotterdam,Rotterdam,Zuid-Holland,VBO,4.444718,51.904374
Pelgrimsstraat,104,,,3029BJ,Rotterdam,Rotterdam,Zuid-Holland,VBO,4.444718,51.904374
Pelgrimsstraat,112,,,3029BJ,Rotterdam,Rotterdam,Zuid-Holland,VBO,4.444356,51.904453
Pelgrimsstraat,114,,,3029BJ,Rotterdam,Rotterdam,Zuid-Holland,VBO,4.444356,51.904453
Pelgrimsstraat,116,,,3029BJ,Rotterdam,Rotterdam,Zuid-Holland,VBO,4.444356,51.904453
Pelgrimsstraat,118,,,3029BJ,Rotterdam,Rotterdam,Zuid-Holland,VBO,4.444356,51.904453
Pelgrimsstraat,122,,,3029BJ,Rotterdam,Rotterdam,Zuid-Holland,VBO,4.444356,51.904453
Pelgrimsstraat,124,,,3029BJ,Rotterdam,Rotterdam,Zuid-Holland,VBO,4.444356,51.904453
Pelgrimsstraat,126,,,3029BJ,Rotterdam,Rotterdam,Zuid-Holland,VBO,4.444356,51.904453
Pelgrimsstraat,130,,,3029BJ,Rotterdam,Rotterdam,Zuid-Holland,VBO,4.444356,51.904453
Pelgrimsstraat,132,,,3029BJ,Rotterdam,Rotterdam,Zuid-Holland,VBO,4.444356,51.904453
Pelgrimsstraat,134,,,3029BJ,Rotterdam,Rotterdam,Zuid-Holland,VBO,4.444356,51.904453
Pelgrimsstraat,136,,,3029BJ,Rotterdam,Rotterdam,Zuid-Holland,VBO,4.444356,51.904453
Pelgrimsstraat,138,,,3029BJ,Rotterdam,Rotterdam,Zuid-Holland,VBO,4.444356,51.904453
Pelgrimsstraat,140,,,3029BJ,Rotterdam,Rotterdam,Zuid-Holland,VBO,4.444176,51.904503
Pelgrimsstraat,142,,,3029BJ,Rotterdam,Rotterdam,Zuid-Holland,VBO,4.444108,51.904514
Pelgrimsstraat,144,,,3029BJ,Rotterdam,Rotterdam,Zuid-Holland,VBO,4.444033,51.904524
Pelgrimsstraat,146,,,3029BJ,Rotterdam,Rotterdam,Zuid-Holland,VBO,4.443965,51.904535
Pelgrimsstraat,148,,,3029BJ,Rotterdam,Rotterdam,Zuid-Holland,VBO,4.443776,51.904533
Pelgrimsstraat,150,,,3029BJ,Rotterdam,Rotterdam,Zuid-Holland,VBO,4.443776,51.904533
Pelgrimsstraat,152,,,3029BJ,Rotterdam,Rotterdam,Zuid-Holland,VBO,4.443776,51.904533
Pelgrimsstraat,154,,,3029BJ,Rotterdam,Rotterdam,Zuid-Holland,VBO,4.443776,51.904533
Pelgrimsstraat,156,,,3029BJ,Rotterdam,Rotterdam,Zuid-Holland,VBO,4.443776,51.904533
Pelgrimsstraat,158,,,3029BJ,Rotterdam,Rotterdam,Zuid-Holland,VBO,4.443776,51.904533
Pelgrimsstraat,160,,,3029BJ,Rotterdam,Rotterdam,Zuid-Holland,VBO,4.443776,51.904533
Pelgrimsstraat,162,,,3029BJ,Rotterdam,Rotterdam,Zuid-Holland,VBO,4.443776,51.904533
Pelgrimsstraat,164,,,3029BJ,Rotterdam,Rotterdam,Zuid-Holland,VBO,4.443776,51.904533
Pelgrimsstraat,166,,,3029BJ,Rotterdam,Rotterdam,Zuid-Holland,VBO,4.443776,51.904533
Pelgrimsstraat,168,,,3029BJ,Rotterdam,Rotterdam,Zuid-Holland,VBO,4.443776,51.904533
Pelgrimsstraat,170,,,3029BJ,Rotterdam,Rotterdam,Zuid-Holland,VBO,4.443776,51.904533
Pelgrimsstraat,172,,,3029BJ,Rotterdam,Rotterdam,Zuid-Holland,VBO,4.443776,51.904533
Pelgrimsstraat,174,,,3029BJ,Rotterdam,Rotterdam,Zuid-Holland,VBO,4.443776,51.904533
Pelgrimsstraat,176,,,3029BJ,Rotterdam,Rotterdam,Zuid-Holland,VBO,4.443645,51.904575
Pelgrimsstraat,178,,,3029BJ,Rotterdam,Rotterdam,Zuid-Holland,VBO,4.443341,51.904617
Pelgrimsstraat,180,,,3029BJ,Rotterdam,Rotterdam,Zuid-Holland,VBO,4.443195,51.904618
Pelgrimsstraat,182,,,3029BJ,Rotterdam,Rotterdam,Zuid-Holland,VBO,4.443195,51.904618
Pelgrimsstraat,184,,,3029BJ,Rotterdam,Rotterdam,Zuid-Holland,VBO,4.443195,51.904618
Pelgrimsstraat,186,,,3029BJ,Rotterdam,Rotterdam,Zuid-Holland,VBO,4.443195,51.904618
Pelgrimsstraat,188,,,3029BJ,Rotterdam,Rotterdam,Zuid-Holland,VBO,4.443195,51.904618
Pelgrimsstraat,190,,,3029BJ,Rotterdam,Rotterdam,Zuid-Holland,VBO,4.443195,51.904618
Pelgrimsstraat,192,,,3029BJ,Rotterdam,Rotterdam,Zuid-Holland,VBO,4.443195,51.904618
Pelgrimsstraat,194,,,3029BJ,Rotterdam,Rotterdam,Zuid-Holland,VBO,4.443195,51.904618
Pelgrimsstraat,196,,,3029BJ,Rotterdam,Rotterdam,Zuid-Holland,VBO,4.443195,51.904618
Pelgrimsstraat,198,,,3029BJ,Rotterdam,Rotterdam,Zuid-Holland,VBO,4.443195,51.904618
Pelgrimsstraat,200,,,3029BJ,Rotterdam,Rotterdam,Zuid-Holland,VBO,4.443195,51.904618
Pelgrimsstraat,202,,,3029BJ,Rotterdam,Rotterdam,Zuid-Holland,VBO,4.443195,51.904618
Pelgrimsstraat,204,,,3029BJ,Rotterdam,Rotterdam,Zuid-Holland,VBO,4.443195,51.904618
Pelgrimsstraat,206,,,3029BJ,Rotterdam,Rotterdam,Zuid-Holland,VBO,4.443195,51.904618
Pelgrimsstraat,208,,,3029BJ,Rotterdam,Rotterdam,Zuid-Holland,VBO,4.443019,51.904663
Pelgrimsstraat,210,,,3029BJ,Rotterdam,Rotterdam,Zuid-Holland,VBO,4.442943,51.904674
Pelgrimsstraat,212,,,3029BJ,Rotterdam,Rotterdam,Zuid-Holland,VBO,4.442873,51.904684
Pelgrimsstraat,214,,,3029BJ,Rotterdam,Rotterdam,Zuid-Holland,VBO,4.442795,51.904695
Pelgrimsstraat,216,,,3029BJ,Rotterdam,Rotterdam,Zuid-Holland,VBO,4.442613,51.904698
Pelgrimsstraat,218,,,3029BJ,Rotterdam,Rotterdam,Zuid-Holland,VBO,4.442613,51.904698
Pelgrimsstraat,220,,,3029BJ,Rotterdam,Rotterdam,Zuid-Holland,VBO,4.442613,51.904698
Pelgrimsstraat,222,,,3029BJ,Rotterdam,Rotterdam,Zuid-Holland,VBO,4.442613,51.904698
Pelgrimsstraat,224,,,3029BJ,Rotterdam,Rotterdam,Zuid-Holland,VBO,4.442613,51.904698
Pelgrimsstraat,226,,,3029BJ,Rotterdam,Rotterdam,Zuid-Holland,VBO,4.442613,51.904698
Pelgrimsstraat,228,,,3029BJ,Rotterdam,Rotterdam,Zuid-Holland,VBO,4.442613,51.904698
Pelgrimsstraat,232,,,3029BJ,Rotterdam,Rotterdam,Zuid-Holland,VBO,4.442613,51.904698
Pelgrimsstraat,234,,,3029BJ,Rotterdam,Rotterdam,Zuid-Holland,VBO,4.442613,51.904698
Pelgrimsstraat,236,,,3029BJ,Rotterdam,Rotterdam,Zuid-Holland,VBO,4.442613,51.904698
Pelgrimsstraat,238,,,3029BJ,Rotterdam,Rotterdam,Zuid-Holland,VBO,4.442613,51.904698
Pelgrimsstraat,240,,,3029BJ,Rotterdam,Rotterdam,Zuid-Holland,VBO,4.442613,51.904698
Speedwellstraat,10,,,3029BL,Rotterdam,Rotterdam,Zuid-Holland,VBO,4.439616,51.904771
Speedwellstraat,11,A,,3029BL,Rotterdam,Rotterdam,Zuid-Holland,VBO,4.438075,51.903940
Speedwellstraat,11,B,,3029BL,Rotterdam,Rotterdam,Zuid-Holland,VBO,4.438075,51.903940
Speedwellstraat,11,C,,3029BL,Rotterdam,Rotterdam,Zuid-Holland,VBO,4.438075,51.903940
Speedwellstraat,12,,,3029BL,Rotterdam,Rotterdam,Zuid-Holland,VBO,4.439616,51.904771
Speedwellstraat,14,,,3029BL,Rotterdam,Rotterdam,Zuid-Holland,VBO,4.439616,51.904771
Speedwellstraat,16,,,3029BL,Rotterdam,Rotterdam,Zuid-Holland,VBO,4.439616,51.904771
Speedwellstraat,18,,,3029BL,Rotterdam,Rotterdam,Zuid-Holland,VBO,4.439616,51.904771
Speedwellstraat,20,,,3029BL,Rotterdam,Rotterdam,Zuid-Holland,VBO,4.439616,51.904771
Speedwellstraat,22,,,3029BL,Rotterdam,Rotterdam,Zuid-Holland,VBO,4.439616,51.904771
Speedwellstraat,24,,,3029BL,Rotterdam,Rotterdam,Zuid-Holland,VBO,4.439616,51.904771
Speedwellstraat,26,,,3029BL,Rotterdam,Rotterdam,Zuid-Holland,VBO,4.439616,51.904771
Speedwellstraat,28,,,3029BL,Rotterdam,Rotterdam,Zuid-Holland,VBO,4.439616,51.904771
Speedwellstraat,30,,,3029BL,Rotterdam,Rotterdam,Zuid-Holland,VBO,4.439616,51.904771
Speedwellstraat,32,,,3029BL,Rotterdam,Rotterdam,Zuid-Holland,VBO,4.439616,51.904771
Speedwellstraat,34,,,3029BL,Rotterdam,Rotterdam,Zuid-Holland,VBO,4.439616,51.904771
Speedwellstraat,36,,,3029BL,Rotterdam,Rotterdam,Zuid-Holland,VBO,4.439616,51.904771
Speedwellstraat,38,,,3029BL,Rotterdam,Rotterdam,Zuid-Holland,VBO,4.439616,51.904771
Speedwellstraat,40,,,3029BL,Rotterdam,Rotterdam,Zuid-Holland,VBO,4.439616,51.904771
Speedwellstraat,42,,,3029BL,Rotterdam,Rotterdam,Zuid-Holland,VBO,4.439616,51.904771
Speedwellstraat,44,,,3029BL,Rotterdam,Rotterdam,Zuid-Holland,VBO,4.439616,51.904771
Speedwellstraat,46,,,3029BL,Rotterdam,Rotterdam,Zuid-Holland,VBO,4.439616,51.904771
Speedwellstraat,48,,,3029BL,Rotterdam,Rotterdam,Zuid-Holland,VBO,4.439616,51.904771
Speedwellstraat,50,,,3029BL,Rotterdam,Rotterdam,Zuid-Holland,VBO,4.439616,51.904771
Speedwellstraat,52,,,3029BL,Rotterdam,Rotterdam,Zuid-Holland,VBO,4.439616,51.904771
Speedwellstraat,54,,,3029BL,Rotterdam,Rotterdam,Zuid-Holland,VBO,4.439616,51.904771
Speedwellstraat,56,,,3029BL,Rotterdam,Rotterdam,Zuid-Holland,VBO,4.439616,51.904771
Speedwellstraat,58,,,3029BL,Rotterdam,Rotterdam,Zuid-Holland,VBO,4.439616,51.904771
Speedwellstraat,60,,,3029BL,Rotterdam,Rotterdam,Zuid-Holland,VBO,4.439616,51.904771
Speedwellstraat,62,,,3029BL,Rotterdam,Rotterdam,Zuid-Holland,VBO,4.439616,51.904771
Speedwellstraat,64,,,3029BL,Rotterdam,Rotterdam,Zuid-Holland,VBO,4.439616,51.904771
Speedwellstraat,66,,,3029BL,Rotterdam,Rotterdam,Zuid-Holland,VBO,4.439616,51.904771
Speedwellstraat,68,,,3029BL,Rotterdam,Rotterdam,Zuid-Holland,VBO,4.439616,51.904771
Speedwellstraat,70,,,3029BL,Rotterdam,Rotterdam,Zuid-Holland,VBO,4.439616,51.904771
Speedwellstraat,72,,,3029BL,Rotterdam,Rotterdam,Zuid-Holland,VBO,4.439616,51.904771
Speedwellstraat,74,,,3029BL,Rotterdam,Rotterdam,Zuid-Holland,VBO,4.439616,51.904771
Speedwellstraat,76,,,3029BL,Rotterdam,Rotterdam,Zuid-Holland,VBO,4.439616,51.904771
Speedwellstraat,78,,,3029BL,Rotterdam,Rotterdam,Zuid-Holland,VBO,4.439616,51.904771
Speedwellstraat,80,,,3029BL,Rotterdam,Rotterdam,Zuid-Holland,VBO,4.439616,51.904771
Speedwellstraat,82,,,3029BL,Rotterdam,Rotterdam,Zuid-Holland,VBO,4.439616,51.904771
Speedwellstraat,84,,,3029BL,Rotterdam,Rotterdam,Zuid-Holland,VBO,4.439616,51.904771
Speedwellstraat,86,,,3029BL,Rotterdam,Rotterdam,Zuid-Holland,VBO,4.439616,51.904771
Speedwellstraat,88,,,3029BL,Rotterdam,Rotterdam,Zuid-Holland,VBO,4.439616,51.904771
Speedwellstraat,90,,,3029BL,Rotterdam,Rotterdam,Zuid-Holland,VBO,4.439616,51.904771
Speedwellstraat,92,,,3029BL,Rotterdam,Rotterdam,Zuid-Holland,VBO,4.439616,51.904771
Speedwellstraat,94,,,3029BL,Rotterdam,Rotterdam,Zuid-Holland,VBO,4.439616,51.904771
Speedwellstraat,96,,,3029BL,Rotterdam,Rotterdam,Zuid-Holland,VBO,4.439616,51.904771
Speedwellstraat,98,,,3029BL,Rotterdam,Rotterdam,Zuid-Holland,VBO,4.439616,51.904771
Speedwellstraat,100,,,3029BL,Rotterdam,Rotterdam,Zuid-Holland,VBO,4.439616,51.904771
Speedwellstraat,102,,,3029BL,Rotterdam,Rotterdam,Zuid-Holland,VBO,4.439616,51.904771
Speedwellstraat,104,,,3029BL,Rotterdam,Rotterdam,Zuid-Holland,VBO,4.439616,51.904771
Speedwellstraat,106,,,3029BL,Rotterdam,Rotterdam,Zuid-Holland,VBO,4.439616,51.904771
Speedwellstraat,108,,,3029BL,Rotterdam,Rotterdam,Zuid-Holland,VBO,4.439616,51.904771
Speedwellstraat,110,,,3029BL,Rotterdam,Rotterdam,Zuid-Holland,VBO,4.439616,51.904771
Speedwellstraat,112,,,3029BL,Rotterdam,Rotterdam,Zuid-Holland,VBO,4.439616,51.904771
Speedwellstraat,114,,,3029BL,Rotterdam,Rotterdam,Zuid-Holland,VBO,4.439616,51.904771
Speedwellstraat,116,,,3029BL,Rotterdam,Rotterdam,Zuid-Holland,VBO,4.439616,51.904771
Speedwellstraat,118,,,3029BL,Rotterdam,Rotterdam,Zuid-Holland,VBO,4.439616,51.904771
Speedwellstraat,120,,,3029BL,Rotterdam,Rotterdam,Zuid-Holland,VBO,4.439616,51.904771
Speedwellstraat,122,,,3029BL,Rotterdam,Rotterdam,Zuid-Holland,VBO,4.439616,51.904771
Speedwellstraat,124,,,3029BL,Rotterdam,Rotterdam,Zuid-Holland,VBO,4.439616,51.904771
Speedwellstraat,126,,,3029BL,Rotterdam,Rotterdam,Zuid-Holland,VBO,4.439616,51.904771
Speedwellstraat,128,,,3029BL,Rotterdam,Rotterdam,Zuid-Holland,VBO,4.439616,51.904771
Speedwellstraat,130,,,3029BL,Rotterdam,Rotterdam,Zuid-Holland,VBO,4.439616,51.904771
Speedwellstraat,132,,,3029BL,Rotterdam,Rotterdam,Zuid-Holland,VBO,4.439616,51.904771
Speedwellstraat,134,,,3029BL,Rotterdam,Rotterdam,Zuid-Holland,VBO,4.439616,51.904771
Speedwellstraat,136,,,3029BL,Rotterdam,Rotterdam,Zuid-Holland,VBO,4.439616,51.904771
Speedwellstraat,138,,,3029BL,Rotterdam,Rotterdam,Zuid-Holland,VBO,4.439616,51.904771
Speedwellstraat,140,,,3029BL,Rotterdam,Rotterdam,Zuid-Holland,VBO,4.439616,51.904771
Speedwellstraat,142,,,3029BL,Rotterdam,Rotterdam,Zuid-Holland,VBO,4.439616,51.904771
Speedwellstraat,144,,,3029BL,Rotterdam,Rotterdam,Zuid-Holland,VBO,4.439616,51.904771
Speedwellstraat,150,,,3029BL,Rotterdam,Rotterdam,Zuid-Holland,VBO,4.439096,51.904565
Speedwellstraat,152,,,3029BL,Rotterdam,Rotterdam,Zuid-Holland,VBO,4.439096,51.904565
Speedwellstraat,154,,,3029BL,Rotterdam,Rotterdam,Zuid-Holland,VBO,4.439096,51.904565
Speedwellstraat,156,,,3029BL,Rotterdam,Rotterdam,Zuid-Holland,VBO,4.439096,51.904565
Speedwellstraat,158,,,3029BL,Rotterdam,Rotterdam,Zuid-Holland,VBO,4.439096,51.904565
Speedwellstraat,160,,,3029BL,Rotterdam,Rotterdam,Zuid-Holland,VBO,4.439096,51.904565
Speedwellstraat,162,,,3029BL,Rotterdam,Rotterdam,Zuid-Holland,VBO,4.439096,51.904565
Speedwellstraat,164,,,3029BL,Rotterdam,Rotterdam,Zuid-Holland,VBO,4.439096,51.904565
Speedwellstraat,166,,,3029BL,Rotterdam,Rotterdam,Zuid-Holland,VBO,4.439096,51.904565
Speedwellstraat,168,,,3029BL,Rotterdam,Rotterdam,Zuid-Holland,VBO,4.439096,51.904565
Speedwellstraat,170,,,3029BL,Rotterdam,Rotterdam,Zuid-Holland,VBO,4.439096,51.904565
Speedwellstraat,172,,,3029BL,Rotterdam,Rotterdam,Zuid-Holland,VBO,4.439096,51.904565
Speedwellstraat,174,,,3029BL,Rotterdam,Rotterdam,Zuid-Holland,VBO,4.439096,51.904565
Speedwellstraat,176,,,3029BL,Rotterdam,Rotterdam,Zuid-Holland,VBO,4.439096,51.904565
Speedwellstraat,178,,,3029BL,Rotterdam,Rotterdam,Zuid-Holland,VBO,4.439096,51.904565
Speedwellstraat,180,,,3029BL,Rotterdam,Rotterdam,Zuid-Holland,VBO,4.439096,51.904565
Speedwellstraat,182,,,3029BL,Rotterdam,Rotterdam,Zuid-Holland,VBO,4.439096,51.904565
Speedwellstraat,184,,,3029BL,Rotterdam,Rotterdam,Zuid-Holland,VBO,4.439096,51.904565
Speedwellstraat,186,,,3029BL,Rotterdam,Rotterdam,Zuid-Holland,VBO,4.439096,51.904565
Speedwellstraat,188,,,3029BL,Rotterdam,Rotterdam,Zuid-Holland,VBO,4.439096,51.904565
Speedwellstraat,190,,,3029BL,Rotterdam,Rotterdam,Zuid-Holland,VBO,4.439096,51.904565
Speedwellstraat,192,,,3029BL,Rotterdam,Rotterdam,Zuid-Holland,VBO,4.439096,51.904565
Speedwellstraat,194,,,3029BL,Rotterdam,Rotterdam,Zuid-Holland,VBO,4.439096,51.904565
Speedwellstraat,196,,,3029BL,Rotterdam,Rotterdam,Zuid-Holland,VBO,4.439096,51.904565
Speedwellstraat,198,,,3029BL,Rotterdam,Rotterdam,Zuid-Holland,VBO,4.439096,51.904565
Speedwellstraat,200,,,3029BL,Rotterdam,Rotterdam,Zuid-Holland,VBO,4.439096,51.904565
Speedwellstraat,202,,,3029BL,Rotterdam,Rotterdam,Zuid-Holland,VBO,4.439096,51.904565
Speedwellstraat,204,,,3029BL,Rotterdam,Rotterdam,Zuid-Holland,VBO,4.439096,51.904565
Speedwellstraat,206,,,3029BL,Rotterdam,Rotterdam,Zuid-Holland,VBO,4.439096,51.904565
Speedwellstraat,208,,,3029BL,Rotterdam,Rotterdam,Zuid-Holland,VBO,4.439096,51.904565
Speedwellstraat,210,,,3029BL,Rotterdam,Rotterdam,Zuid-Holland,VBO,4.439096,51.904565
Speedwellstraat,212,,,3029BL,Rotterdam,Rotterdam,Zuid-Holland,VBO,4.439096,51.904565
Speedwellstraat,214,,,3029BL,Rotterdam,Rotterdam,Zuid-Holland,VBO,4.439096,51.904565
Speedwellstraat,216,,,3029BL,Rotterdam,Rotterdam,Zuid-Holland,VBO,4.439096,51.904565
Speedwellstraat,218,,,3029BL,Rotterdam,Rotterdam,Zuid-Holland,VBO,4.439096,51.904565
Speedwellstraat,220,,,3029BL,Rotterdam,Rotterdam,Zuid-Holland,VBO,4.439096,51.904565
Speedwellstraat,222,,,3029BL,Rotterdam,Rotterdam,Zuid-Holland,VBO,4.439096,51.904565
Speedwellstraat,224,,,3029BL,Rotterdam,Rotterdam,Zuid-Holland,VBO,4.439096,51.904565
Speedwellstraat,226,,,3029BL,Rotterdam,Rotterdam,Zuid-Holland,VBO,4.439096,51.904565
Speedwellstraat,228,,,3029BL,Rotterdam,Rotterdam,Zuid-Holland,VBO,4.439096,51.904565
Speedwellstraat,230,,,3029BL,Rotterdam,Rotterdam,Zuid-Holland,VBO,4.439096,51.904565
Speedwellstraat,232,,,3029BL,Rotterdam,Rotterdam,Zuid-Holland,VBO,4.439096,51.904565
Speedwellstraat,234,,,3029BL,Rotterdam,Rotterdam,Zuid-Holland,VBO,4.439096,51.904565
Speedwellstraat,236,,,3029BL,Rotterdam,Rotterdam,Zuid-Holland,VBO,4.439096,51.904565
Speedwellstraat,238,,,3029BL,Rotterdam,Rotterdam,Zuid-Holland,VBO,4.439096,51.904565
Speedwellstraat,240,,,3029BL,Rotterdam,Rotterdam,Zuid-Holland,VBO,4.439096,51.904565
Speedwellstraat,242,,,3029BL,Rotterdam,Rotterdam,Zuid-Holland,VBO,4.439096,51.904565
Speedwellstraat,244,,,3029BL,Rotterdam,Rotterdam,Zuid-Holland,VBO,4.439096,51.904565
Speedwellstraat,246,,,3029BL,Rotterdam,Rotterdam,Zuid-Holland,VBO,4.439096,51.904565
Speedwellstraat,248,,,3029BL,Rotterdam,Rotterdam,Zuid-Holland,VBO,4.439096,51.904565
Speedwellstraat,250,,,3029BL,Rotterdam,Rotterdam,Zuid-Holland,VBO,4.439096,51.904565
Speedwellstraat,252,,,3029BL,Rotterdam,Rotterdam,Zuid-Holland,VBO,4.439096,51.904565
Speedwellstraat,254,,,3029BL,Rotterdam,Rotterdam,Zuid-Holland,VBO,4.439096,51.904565
Speedwellstraat,256,,,3029BL,Rotterdam,Rotterdam,Zuid-Holland,VBO,4.439096,51.904565
Speedwellstraat,258,,,3029BL,Rotterdam,Rotterdam,Zuid-Holland,VBO,4.439096,51.904565
Speedwellstraat,260,,,3029BL,Rotterdam,Rotterdam,Zuid-Holland,VBO,4.439096,51.904565
Speedwellstraat,270,,,3029BL,Rotterdam,Rotterdam,Zuid-Holland,VBO,4.438595,51.904358
Speedwellstraat,272,,,3029BL,Rotterdam,Rotterdam,Zuid-Holland,VBO,4.438595,51.904358
Speedwellstraat,274,,,3029BL,Rotterdam,Rotterdam,Zuid-Holland,VBO,4.438595,51.904358
Speedwellstraat,276,,,3029BL,Rotterdam,Rotterdam,Zuid-Holland,VBO,4.438595,51.904358
Speedwellstraat,278,,,3029BL,Rotterdam,Rotterdam,Zuid-Holland,VBO,4.438595,51.904358
Speedwellstraat,280,,,3029BL,Rotterdam,Rotterdam,Zuid-Holland,VBO,4.438595,51.904358
Speedwellstraat,282,,,3029BL,Rotterdam,Rotterdam,Zuid-Holland,VBO,4.438595,51.904358
Speedwellstraat,284,,,3029BL,Rotterdam,Rotterdam,Zuid-Holland,VBO,4.438595,51.904358
Speedwellstraat,286,,,3029BL,Rotterdam,Rotterdam,Zuid-Holland,VBO,4.438595,51.904358
Speedwellstraat,288,,,3029BL,Rotterdam,Rotterdam,Zuid-Holland,VBO,4.438595,51.904358
Speedwellstraat,290,,,3029BL,Rotterdam,Rotterdam,Zuid-Holland,VBO,4.438595,51.904358
Speedwellstraat,292,,,3029BL,Rotterdam,Rotterdam,Zuid-Holland,VBO,4.438595,51.904358
Speedwellstraat,294,,,3029BL,Rotterdam,Rotterdam,Zuid-Holland,VBO,4.438595,51.904358
Speedwellstraat,296,,,3029BL,Rotterdam,Rotterdam,Zuid-Holland,VBO,4.438595,51.904358
Speedwellstraat,298,,,3029BL,Rotterdam,Rotterdam,Zuid-Holland,VBO,4.438595,51.904358
Speedwellstraat,300,,,3029BL,Rotterdam,Rotterdam,Zuid-Holland,VBO,4.438595,51.904358
Speedwellstraat,302,,,3029BL,Rotterdam,Rotterdam,Zuid-Holland,VBO,4.438595,51.904358
Speedwellstraat,304,,,3029BL,Rotterdam,Rotterdam,Zuid-Holland,VBO,4.438595,51.904358
Speedwellstraat,306,,,3029BL,Rotterdam,Rotterdam,Zuid-Holland,VBO,4.438595,51.904358
Speedwellstraat,308,,,3029BL,Rotterdam,Rotterdam,Zuid-Holland,VBO,4.438595,51.904358
Speedwellstraat,310,,,3029BL,Rotterdam,Rotterdam,Zuid-Holland,VBO,4.438595,51.904358
Speedwellstraat,312,,,3029BL,Rotterdam,Rotterdam,Zuid-Holland,VBO,4.438595,51.904358
Speedwellstraat,314,,,3029BL,Rotterdam,Rotterdam,Zuid-Holland,VBO,4.438595,51.904358
Speedwellstraat,316,,,3029BL,Rotterdam,Rotterdam,Zuid-Holland,VBO,4.438595,51.904358
Speedwellstraat,318,,,3029BL,Rotterdam,Rotterdam,Zuid-Holland,VBO,4.438595,51.904358
Speedwellstraat,320,,,3029BL,Rotterdam,Rotterdam,Zuid-Holland,VBO,4.438595,51.904358
Speedwellstraat,322,,,3029BL,Rotterdam,Rotterdam,Zuid-Holland,VBO,4.438595,51.904358
Speedwellstraat,324,,,3029BL,Rotterdam,Rotterdam,Zuid-Holland,VBO,4.438595,51.904358
Speedwellstraat,326,,,3029BL,Rotterdam,Rotterdam,Zuid-Holland,VBO,4.438595,51.904358
Speedwellstraat,328,,,3029BL,Rotterdam,Rotterdam,Zuid-Holland,VBO,4.438595,51.904358
Speedwellstraat,330,,,3029BL,Rotterdam,Rotterdam,Zuid-Holland,VBO,4.438595,51.904358
Speedwellstraat,332,,,3029BL,Rotterdam,Rotterdam,Zuid-Holland,VBO,4.438595,51.904358
Speedwellstraat,334,,,3029BL,Rotterdam,Rotterdam,Zuid-Holland,VBO,4.438595,51.904358
Speedwellstraat,336,,,3029BL,Rotterdam,Rotterdam,Zuid-Holland,VBO,4.438595,51.904358
Speedwellstraat,338,,,3029BL,Rotterdam,Rotterdam,Zuid-Holland,VBO,4.438595,51.904358
Speedwellstraat,340,,,3029BL,Rotterdam,Rotterdam,Zuid-Holland,VBO,4.438595,51.904358
Speedwellstraat,342,,,3029BL,Rotterdam,Rotterdam,Zuid-Holland,VBO,4.438595,51.904358
Speedwellstraat,344,,,3029BL,Rotterdam,Rotterdam,Zuid-Holland,VBO,4.438595,51.904358
Speedwellstraat,346,,,3029BL,Rotterdam,Rotterdam,Zuid-Holland,VBO,4.438595,51.904358
Speedwellstraat,348,,,3029BL,Rotterdam,Rotterdam,Zuid-Holland,VBO,4.438595,51.904358
Speedwellstraat,350,,,3029BL,Rotterdam,Rotterdam,Zuid-Holland,VBO,4.438595,51.904358
Speedwellstraat,352,,,3029BL,Rotterdam,Rotterdam,Zuid-Holland,VBO,4.438595,51.904358
Speedwellstraat,354,,,3029BL,Rotterdam,Rotterdam,Zuid-Holland,VBO,4.438595,51.904358
Speedwellstraat,356,,,3029BL,Rotterdam,Rotterdam,Zuid-Holland,VBO,4.438595,51.904358
IJselstraat,1,,,3029BM,Rotterdam,Rotterdam,Zuid-Holland,VBO,4.438740,51.905400
IJselstraat,4,,,3029BM,Rotterdam,Rotterdam,Zuid-Holland,VBO,4.439627,51.905492
IJselstraat,10,,,3029BM,Rotterdam,Rotterdam,Zuid-Holland,VBO,4.439627,51.905492
IJselstraat,11,,,3029BM,Rotterdam,Rotterdam,Zuid-Holland,VBO,4.438740,51.905400
IJselstraat,25,,,3029BM,Rotterdam,Rotterdam,Zuid-Holland,VBO,4.437663,51.905016
Lekstraat,5,,,3029BN,Rotterdam,Rotterdam,Zuid-Holland,VBO,4.435047,51.906344
Lekstraat,6,,,3029BN,Rotterdam,Rotterdam,Zuid-Holland,VBO,4.435836,51.906344
Lekstraat,7,,,3029BN,Rotterdam,Rotterdam,Zuid-Holland,VBO,4.434366,51.906016
Lekstraat,10,,,3029BN,Rotterdam,Rotterdam,Zuid-Holland,VBO,4.433249,51.905307
Lekstraat,14,,,3029BN,Rotterdam,Rotterdam,Zuid-Holland,VBO,4.429897,51.904369
Lekstraat,21,,,3029BN,Rotterdam,Rotterdam,Zuid-Holland,VBO,4.432631,51.905184
Keilestraat,2,,,3029BP,Rotterdam,Rotterdam,Zuid-Holland,VBO,4.434476,51.907465
Keilestraat,3,,,3029BP,Rotterdam,Rotterdam,Zuid-Holland,VBO,4.433234,51.909067
Keilestraat,5,,,3029BP,Rotterdam,Rotterdam,Zuid-Holland,VBO,4.434659,51.908502
Keilestraat,7,,,3029BP,Rotterdam,Rotterdam,Zuid-Holland,VBO,4.434329,51.908376
Keilestraat,9,A,,3029BP,Rotterdam,Rotterdam,Zuid-Holland,VBO,4.433882,51.908242
Keilestraat,9,B,,3029BP,Rotterdam,Rotterdam,Zuid-Holland,VBO,4.431892,51.907398
Keilestraat,9,C,,3029BP,Rotterdam,Rotterdam,Zuid-Holland,VBO,4.431366,51.907391
Keilestraat,9,D,,3029BP,Rotterdam,Rotterdam,Zuid-Holland,VBO,4.431239,51.907128
Keilestraat,9,,,3029BP,Rotterdam,Rotterdam,Zuid-Holland,VBO,4.433882,51.908242
Keilestraat,36,,,3029BP,Rotterdam,Rotterdam,Zuid-Holland,VBO,4.429583,51.906209
Keilestraat,39,,,3029BP,Rotterdam,Rotterdam,Zuid-Holland,VBO,4.428161,51.905957
Keilestraat,50,,,3029BP,Rotterdam,Rotterdam,Zuid-Holland,VBO,4.425901,51.904718
Keileweg,11,,,3029BR,Rotterdam,Rotterdam,Zuid-Holland,VBO,4.431872,51.909942
Keileweg,13,,,3029BR,Rotterdam,Rotterdam,Zuid-Holland,VBO,4.431425,51.909730
Keileweg,27,,,3029BR,Rotterdam,Rotterdam,Zuid-Holland,VBO,4.427914,51.909630
Keileweg,59,,,3029BR,Rotterdam,Rotterdam,Zuid-Holland,VBO,4.425043,51.907795
Keileweg,63,,,3029BR,Rotterdam,Rotterdam,Zuid-Holland,VBO,4.425043,51.907795
Keileweg,65,,,3029BR,Rotterdam,Rotterdam,Zuid-Holland,VBO,4.425726,51.907347
Keileweg,4,,,3029BS,Rotterdam,Rotterdam,Zuid-Holland,VBO,4.434122,51.909951
Keileweg,8,,,3029BS,Rotterdam,Rotterdam,Zuid-Holland,VBO,4.432719,51.909819
Keileweg,10,A,,3029BS,Rotterdam,Rotterdam,Zuid-Holland,VBO,4.432299,51.909661
Keileweg,10,B,,3029BS,Rotterdam,Rotterdam,Zuid-Holland,VBO,4.432031,51.909542
Keileweg,12,A,,3029BS,Rotterdam,Rotterdam,Zuid-Holland,VBO,4.431890,51.909494
Keileweg,12,B,,3029BS,Rotterdam,Rotterdam,Zuid-Holland,VBO,4.431686,51.909414
Keileweg,14,A,,3029BS,Rotterdam,Rotterdam,Zuid-Holland,VBO,4.431533,51.909354
Keileweg,14,B,,3029BS,Rotterdam,Rotterdam,Zuid-Holland,VBO,4.431533,51.909354
Keileweg,16,,,3029BS,Rotterdam,Rotterdam,Zuid-Holland,VBO,4.431253,51.909237
Keileweg,18,,,3029BS,Rotterdam,Rotterdam,Zuid-Holland,VBO,4.431253,51.909237
Keileweg,26,,,3029BT,Rotterdam,Rotterdam,Zuid-Holland,VBO,4.430620,51.908635
Keileweg,28,,,3029BT,Rotterdam,Rotterdam,Zuid-Holland,VBO,4.430620,51.908635
Keileweg,38,,,3029BT,Rotterdam,Rotterdam,Zuid-Holland,VBO,4.429252,51.908422
Keileweg,40,B,,3029BT,Rotterdam,Rotterdam,Zuid-Holland,VBO,4.428743,51.908226
Keileweg,54,,,3029BT,Rotterdam,Rotterdam,Zuid-Holland,VBO,4.427343,51.907606
Keileweg,56,,,3029BT,Rotterdam,Rotterdam,Zuid-Holland,VBO,4.426803,51.907465
Keileweg,58,,,3029BT,Rotterdam,Rotterdam,Zuid-Holland,VBO,4.426656,51.907408
Keileweg,60,,,3029BT,Rotterdam,Rotterdam,Zuid-Holland,VBO,4.426167,51.907211
Keileweg,70,,,3029BT,Rotterdam,Rotterdam,Zuid-Holland,VBO,4.425505,51.906788
Keileweg,72,,,3029BT,Rotterdam,Rotterdam,Zuid-Holland,VBO,4.425220,51.906645
Keileweg,78,,,3029BT,Rotterdam,Rotterdam,Zuid-Holland,VBO,4.424365,51.906299
Keileweg,80,,,3029BT,Rotterdam,Rotterdam,Zuid-Holland,VBO,4.423099,51.905811
Keilezijweg,12,,,3029BW,Rotterdam,Rotterdam,Zuid-Holland,VBO,4.426641,51.906565
Keilezijweg,15,,,3029BW,Rotterdam,Rotterdam,Zuid-Holland,VBO,4.424764,51.906036
Westkousdijk,151,,,3029BX,Rotterdam,Rotterdam,Zuid-Holland,VBO,4.445231,51.904223
Westkousdijk,153,,,3029BX,Rotterdam,Rotterdam,Zuid-Holland,VBO,4.445231,51.904223
Westkousdijk,155,,,3029BX,Rotterdam,Rotterdam,Zuid-Holland,VBO,4.445231,51.904223
Westkousdijk,157,,,3029BX,Rotterdam,Rotterdam,Zuid-Holland,VBO,4.445231,51.904223
Westkousdijk,159,,,3029BX,Rotterdam,Rotterdam,Zuid-Holland,VBO,4.445231,51.904223
Westkousdijk,161,,,3029BX,Rotterdam,Rotterdam,Zuid-Holland,VBO,4.445231,51.904223
Westkousdijk,163,,,3029BX,Rotterdam,Rotterdam,Zuid-Holland,VBO,4.445231,51.904223
Westkousdijk,165,,,3029BX,Rotterdam,Rotterdam,Zuid-Holland,VBO,4.445231,51.904223
Westkousdijk,167,,,3029BX,Rotterdam,Rotterdam,Zuid-Holland,VBO,4.445231,51.904223
Westkousdijk,169,,,3029BX,Rotterdam,Rotterdam,Zuid-Holland,VBO,4.445231,51.904223
Mayflowerstraat,2,,,3029CB,Rotterdam,Rotterdam,Zuid-Holland,VBO,4.440235,51.904893
Mayflowerstraat,4,,,3029CB,Rotterdam,Rotterdam,Zuid-Holland,VBO,4.440235,51.904893
Mayflowerstraat,6,,,3029CB,Rotterdam,Rotterdam,Zuid-Holland,VBO,4.440235,51.904893
Mayflowerstraat,8,,,3029CB,Rotterdam,Rotterdam,Zuid-Holland,VBO,4.440235,51.904893
Mayflowerstraat,10,,,3029CB,Rotterdam,Rotterdam,Zuid-Holland,VBO,4.440235,51.904893
Mayflowerstraat,12,,,3029CB,Rotterdam,Rotterdam,Zuid-Holland,VBO,4.440235,51.904893
Mayflowerstraat,14,,,3029CB,Rotterdam,Rotterdam,Zuid-Holland,VBO,4.440235,51.904893
Mayflowerstraat,16,,,3029CB,Rotterdam,Rotterdam,Zuid-Holland,VBO,4.440235,51.904893
Mayflowerstraat,18,,,3029CB,Rotterdam,Rotterdam,Zuid-Holland,VBO,4.440177,51.904755
Mayflowerstraat,20,,,3029CB,Rotterdam,Rotterdam,Zuid-Holland,VBO,4.440177,51.904755
Mayflowerstraat,22,,,3029CB,Rotterdam,Rotterdam,Zuid-Holland,VBO,4.440177,51.904755
Mayflowerstraat,24,,,3029CB,Rotterdam,Rotterdam,Zuid-Holland,VBO,4.440177,51.904755
Mayflowerstraat,26,,,3029CB,Rotterdam,Rotterdam,Zuid-Holland,VBO,4.440177,51.904755
Mayflowerstraat,28,,,3029CB,Rotterdam,Rotterdam,Zuid-Holland,VBO,4.440177,51.904755
Mayflowerstraat,30,,,3029CB,Rotterdam,Rotterdam,Zuid-Holland,VBO,4.440177,51.904755
Mayflowerstraat,32,,,3029CB,Rotterdam,Rotterdam,Zuid-Holland,VBO,4.440177,51.904755
Mayflowerstraat,34,,,3029CB,Rotterdam,Rotterdam,Zuid-Holland,VBO,4.440074,51.904619
Mayflowerstraat,36,,,3029CB,Rotterdam,Rotterdam,Zuid-Holland,VBO,4.440074,51.904619
Mayflowerstraat,38,,,3029CB,Rotterdam,Rotterdam,Zuid-Holland,VBO,4.440074,51.904619
Mayflowerstraat,40,,,3029CB,Rotterdam,Rotterdam,Zuid-Holland,VBO,4.440074,51.904619
Mayflowerstraat,42,,,3029CB,Rotterdam,Rotterdam,Zuid-Holland,VBO,4.440074,51.904619
Mayflowerstraat,44,,,3029CB,Rotterdam,Rotterdam,Zuid-Holland,VBO,4.440074,51.904619
Mayflowerstraat,46,,,3029CB,Rotterdam,Rotterdam,Zuid-Holland,VBO,4.440074,51.904619
Mayflowerstraat,48,,,3029CB,Rotterdam,Rotterdam,Zuid-Holland,VBO,4.440074,51.904619
Mayflowerstraat,50,,,3029CB,Rotterdam,Rotterdam,Zuid-Holland,VBO,4.440021,51.904481
Mayflowerstraat,52,,,3029CB,Rotterdam,Rotterdam,Zuid-Holland,VBO,4.440021,51.904481
Mayflowerstraat,54,,,3029CB,Rotterdam,Rotterdam,Zuid-Holland,VBO,4.440021,51.904481
Mayflowerstraat,56,,,3029CB,Rotterdam,Rotterdam,Zuid-Holland,VBO,4.440021,51.904481
Mayflowerstraat,58,,,3029CB,Rotterdam,Rotterdam,Zuid-Holland,VBO,4.440021,51.904481
Mayflowerstraat,60,,,3029CB,Rotterdam,Rotterdam,Zuid-Holland,VBO,4.440021,51.904481
Mayflowerstraat,62,,,3029CB,Rotterdam,Rotterdam,Zuid-Holland,VBO,4.440021,51.904481
Mayflowerstraat,64,,,3029CB,Rotterdam,Rotterdam,Zuid-Holland,VBO,4.440021,51.904481
Mayflowerstraat,66,,,3029CB,Rotterdam,Rotterdam,Zuid-Holland,VBO,4.439965,51.904339
Mayflowerstraat,68,,,3029CB,Rotterdam,Rotterdam,Zuid-Holland,VBO,4.439965,51.904339
Mayflowerstraat,70,,,3029CB,Rotterdam,Rotterdam,Zuid-Holland,VBO,4.439965,51.904339
Mayflowerstraat,72,,,3029CB,Rotterdam,Rotterdam,Zuid-Holland,VBO,4.439965,51.904339
Mayflowerstraat,74,,,3029CB,Rotterdam,Rotterdam,Zuid-Holland,VBO,4.439965,51.904339
Mayflowerstraat,76,,,3029CB,Rotterdam,Rotterdam,Zuid-Holland,VBO,4.439965,51.904339
Mayflowerstraat,78,,,3029CB,Rotterdam,Rotterdam,Zuid-Holland,VBO,4.439965,51.904339
Mayflowerstraat,80,,,3029CB,Rotterdam,Rotterdam,Zuid-Holland,VBO,4.439901,51.904148
Mayflowerstraat,82,,,3029CB,Rotterdam,Rotterdam,Zuid-Holland,VBO,4.439901,51.904148
Mayflowerstraat,84,,,3029CC,Rotterdam,Rotterdam,Zuid-Holland,VBO,4.439901,51.904148
Mayflowerstraat,86,,,3029CC,Rotterdam,Rotterdam,Zuid-Holland,VBO,4.439901,51.904148
Mayflowerstraat,88,,,3029CC,Rotterdam,Rotterdam,Zuid-Holland,VBO,4.439901,51.904148
Mayflowerstraat,90,,,3029CC,Rotterdam,Rotterdam,Zuid-Holland,VBO,4.439901,51.904148
Mayflowerstraat,92,,,3029CC,Rotterdam,Rotterdam,Zuid-Holland,VBO,4.439901,51.904148
Mayflowerstraat,94,,,3029CC,Rotterdam,Rotterdam,Zuid-Holland,VBO,4.439846,51.904009
Mayflowerstraat,96,,,3029CC,Rotterdam,Rotterdam,Zuid-Holland,VBO,4.439846,51.904009
Mayflowerstraat,98,,,3029CC,Rotterdam,Rotterdam,Zuid-Holland,VBO,4.439846,51.904009
Mayflowerstraat,100,,,3029CC,Rotterdam,Rotterdam,Zuid-Holland,VBO,4.439846,51.904009
Mayflowerstraat,102,,,3029CC,Rotterdam,Rotterdam,Zuid-Holland,VBO,4.439846,51.904009
Mayflowerstraat,104,,,3029CC,Rotterdam,Rotterdam,Zuid-Holland,VBO,4.439846,51.904009
Mayflowerstraat,106,,,3029CC,Rotterdam,Rotterdam,Zuid-Holland,VBO,4.439846,51.904009
Mayflowerstraat,108,,,3029CC,Rotterdam,Rotterdam,Zuid-Holland,VBO,4.439846,51.904009
Mayflowerstraat,110,,,3029CC,Rotterdam,Rotterdam,Zuid-Holland,VBO,4.439790,51.903870
Mayflowerstraat,112,,,3029CC,Rotterdam,Rotterdam,Zuid-Holland,VBO,4.439790,51.903870
Mayflowerstraat,114,,,3029CC,Rotterdam,Rotterdam,Zuid-Holland,VBO,4.439790,51.903870
Mayflowerstraat,116,,,3029CC,Rotterdam,Rotterdam,Zuid-Holland,VBO,4.439790,51.903870
Mayflowerstraat,118,,,3029CC,Rotterdam,Rotterdam,Zuid-Holland,VBO,4.439790,51.903870
Mayflowerstraat,120,,,3029CC,Rotterdam,Rotterdam,Zuid-Holland,VBO,4.439790,51.903870
Mayflowerstraat,122,,,3029CC,Rotterdam,Rotterdam,Zuid-Holland,VBO,4.439790,51.903870
Mayflowerstraat,124,,,3029CC,Rotterdam,Rotterdam,Zuid-Holland,VBO,4.439790,51.903870
Mayflowerstraat,126,,,3029CC,Rotterdam,Rotterdam,Zuid-Holland,VBO,4.439765,51.903726
Mayflowerstraat,128,,,3029CC,Rotterdam,Rotterdam,Zuid-Holland,VBO,4.439765,51.903726
Mayflowerstraat,130,,,3029CC,Rotterdam,Rotterdam,Zuid-Holland,VBO,4.439765,51.903726
Mayflowerstraat,132,,,3029CC,Rotterdam,Rotterdam,Zuid-Holland,VBO,4.439765,51.903726
Mayflowerstraat,134,,,3029CC,Rotterdam,Rotterdam,Zuid-Holland,VBO,4.439765,51.903726
Mayflowerstraat,136,,,3029CC,Rotterdam,Rotterdam,Zuid-Holland,VBO,4.439765,51.903726
Mayflowerstraat,138,,,3029CC,Rotterdam,Rotterdam,Zuid-Holland,VBO,4.439765,51.903726
Mayflowerstraat,140,,,3029CC,Rotterdam,Rotterdam,Zuid-Holland,VBO,4.439765,51.903726
Mayflowerstraat,142,,,3029CD,Rotterdam,Rotterdam,Zuid-Holland,VBO,4.439765,51.903726
Mayflowerstraat,144,,,3029CD,Rotterdam,Rotterdam,Zuid-Holland,VBO,4.439765,51.903726
Mayflowerstraat,146,,,3029CD,Rotterdam,Rotterdam,Zuid-Holland,VBO,4.439765,51.903726
Mayflowerstraat,148,,,3029CD,Rotterdam,Rotterdam,Zuid-Holland,VBO,4.439765,51.903726
Mayflowerstraat,150,,,3029CD,Rotterdam,Rotterdam,Zuid-Holland,VBO,4.439765,51.903726
Mayflowerstraat,152,,,3029CD,Rotterdam,Rotterdam,Zuid-Holland,VBO,4.439765,51.903726
Mayflowerstraat,154,,,3029CD,Rotterdam,Rotterdam,Zuid-Holland,VBO,4.439765,51.903726
Mayflowerstraat,156,,,3029CD,Rotterdam,Rotterdam,Zuid-Holland,VBO,4.439765,51.903726
Mayflowerstraat,158,,,3029CD,Rotterdam,Rotterdam,Zuid-Holland,VBO,4.439765,51.903726
Mayflowerstraat,160,,,3029CD,Rotterdam,Rotterdam,Zuid-Holland,VBO,4.439765,51.903726
Mayflowerstraat,162,,,3029CD,Rotterdam,Rotterdam,Zuid-Holland,VBO,4.439765,51.903726
Mayflowerstraat,164,,,3029CD,Rotterdam,Rotterdam,Zuid-Holland,VBO,4.439765,51.903726
Mayflowerstraat,166,,,3029CD,Rotterdam,Rotterdam,Zuid-Holland,VBO,4.439765,51.903726
Mayflowerstraat,168,,,3029CD,Rotterdam,Rotterdam,Zuid-Holland,VBO,4.439765,51.903726
Mayflowerstraat,170,,,3029CD,Rotterdam,Rotterdam,Zuid-Holland,VBO,4.439765,51.903726
Mayflowerstraat,172,,,3029CD,Rotterdam,Rotterdam,Zuid-Holland,VBO,4.439765,51.903726
Mayflowerstraat,174,,,3029CD,Rotterdam,Rotterdam,Zuid-Holland,VBO,4.439765,51.903726
Mayflowerstraat,176,,,3029CD,Rotterdam,Rotterdam,Zuid-Holland,VBO,4.439765,51.903726
Mayflowerstraat,178,,,3029CD,Rotterdam,Rotterdam,Zuid-Holland,VBO,4.439765,51.903726
Mayflowerstraat,180,,,3029CD,Rotterdam,Rotterdam,Zuid-Holland,VBO,4.439765,51.903726
Mayflowerstraat,182,,,3029CD,Rotterdam,Rotterdam,Zuid-Holland,VBO,4.439765,51.903726
Mayflowerstraat,184,,,3029CD,Rotterdam,Rotterdam,Zuid-Holland,VBO,4.439765,51.903726
Mayflowerstraat,186,,,3029CD,Rotterdam,Rotterdam,Zuid-Holland,VBO,4.439765,51.903726
Mayflowerstraat,188,,,3029CD,Rotterdam,Rotterdam,Zuid-Holland,VBO,4.439765,51.903726
Mayflowerstraat,190,,,3029CD,Rotterdam,Rotterdam,Zuid-Holland,VBO,4.439765,51.903726
Mayflowerstraat,192,,,3029CD,Rotterdam,Rotterdam,Zuid-Holland,VBO,4.439765,51.903726
Mayflowerstraat,194,,,3029CD,Rotterdam,Rotterdam,Zuid-Holland,VBO,4.439765,51.903726
Mayflowerstraat,196,,,3029CD,Rotterdam,Rotterdam,Zuid-Holland,VBO,4.439765,51.903726
Mayflowerstraat,198,,,3029CD,Rotterdam,Rotterdam,Zuid-Holland,VBO,4.439765,51.903726
Mayflowerstraat,200,,,3029CD,Rotterdam,Rotterdam,Zuid-Holland,VBO,4.439765,51.903726
Mayflowerstraat,202,,,3029CD,Rotterdam,Rotterdam,Zuid-Holland,VBO,4.439765,51.903726
Mayflowerstraat,204,,,3029CD,Rotterdam,Rotterdam,Zuid-Holland,VBO,4.439765,51.903726
Mayflowerstraat,206,,,3029CD,Rotterdam,Rotterdam,Zuid-Holland,VBO,4.439765,51.903726
Mayflowerstraat,208,,,3029CD,Rotterdam,Rotterdam,Zuid-Holland,VBO,4.439765,51.903726
Mayflowerstraat,210,,,3029CD,Rotterdam,Rotterdam,Zuid-Holland,VBO,4.439765,51.903726
Mayflowerstraat,212,,,3029CD,Rotterdam,Rotterdam,Zuid-Holland,VBO,4.439765,51.903726
Baloeranstraat,1,,,3029CE,Rotterdam,Rotterdam,Zuid-Holland,VBO,4.440732,51.904860
Baloeranstraat,3,,,3029CE,Rotterdam,Rotterdam,Zuid-Holland,VBO,4.440884,51.904798
Baloeranstraat,5,,,3029CE,Rotterdam,Rotterdam,Zuid-Holland,VBO,4.440884,51.904798
Baloeranstraat,7,,,3029CE,Rotterdam,Rotterdam,Zuid-Holland,VBO,4.440884,51.904798
Baloeranstraat,9,,,3029CE,Rotterdam,Rotterdam,Zuid-Holland,VBO,4.440884,51.904798
Baloeranstraat,11,,,3029CE,Rotterdam,Rotterdam,Zuid-Holland,VBO,4.440884,51.904798
Baloeranstraat,13,,,3029CE,Rotterdam,Rotterdam,Zuid-Holland,VBO,4.440884,51.904798
Baloeranstraat,15,,,3029CE,Rotterdam,Rotterdam,Zuid-Holland,VBO,4.440884,51.904798
Baloeranstraat,17,,,3029CE,Rotterdam,Rotterdam,Zuid-Holland,VBO,4.440814,51.904662
Baloeranstraat,19,,,3029CE,Rotterdam,Rotterdam,Zuid-Holland,VBO,4.440814,51.904662
Baloeranstraat,21,,,3029CE,Rotterdam,Rotterdam,Zuid-Holland,VBO,4.440814,51.904662
Baloeranstraat,23,,,3029CE,Rotterdam,Rotterdam,Zuid-Holland,VBO,4.440814,51.904662
Baloeranstraat,25,,,3029CE,Rotterdam,Rotterdam,Zuid-Holland,VBO,4.440814,51.904662
Baloeranstraat,27,,,3029CE,Rotterdam,Rotterdam,Zuid-Holland,VBO,4.440814,51.904662
Baloeranstraat,29,,,3029CE,Rotterdam,Rotterdam,Zuid-Holland,VBO,4.440814,51.904662
Baloeranstraat,31,,,3029CE,Rotterdam,Rotterdam,Zuid-Holland,VBO,4.440814,51.904662
Baloeranstraat,33,,,3029CE,Rotterdam,Rotterdam,Zuid-Holland,VBO,4.440820,51.904513
Baloeranstraat,35,,,3029CE,Rotterdam,Rotterdam,Zuid-Holland,VBO,4.440820,51.904513
Baloeranstraat,37,,,3029CE,Rotterdam,Rotterdam,Zuid-Holland,VBO,4.440820,51.904513
Baloeranstraat,39,,,3029CE,Rotterdam,Rotterdam,Zuid-Holland,VBO,4.440820,51.904513
Baloeranstraat,41,,,3029CE,Rotterdam,Rotterdam,Zuid-Holland,VBO,4.440820,51.904513
Baloeranstraat,43,,,3029CE,Rotterdam,Rotterdam,Zuid-Holland,VBO,4.440820,51.904513
Baloeranstraat,45,,,3029CE,Rotterdam,Rotterdam,Zuid-Holland,VBO,4.440820,51.904513
Baloeranstraat,47,,,3029CE,Rotterdam,Rotterdam,Zuid-Holland,VBO,4.440820,51.904513
Baloeranstraat,49,,,3029CE,Rotterdam,Rotterdam,Zuid-Holland,VBO,4.440769,51.904373
Baloeranstraat,51,,,3029CE,Rotterdam,Rotterdam,Zuid-Holland,VBO,4.440769,51.904373
Baloeranstraat,53,,,3029CE,Rotterdam,Rotterdam,Zuid-Holland,VBO,4.440769,51.904373
Baloeranstraat,55,,,3029CE,Rotterdam,Rotterdam,Zuid-Holland,VBO,4.440769,51.904373
Baloeranstraat,57,,,3029CE,Rotterdam,Rotterdam,Zuid-Holland,VBO,4.440769,51.904373
Baloeranstraat,59,,,3029CE,Rotterdam,Rotterdam,Zuid-Holland,VBO,4.440769,51.904373
Baloeranstraat,61,,,3029CE,Rotterdam,Rotterdam,Zuid-Holland,VBO,4.440769,51.904373
Baloeranstraat,63,,,3029CE,Rotterdam,Rotterdam,Zuid-Holland,VBO,4.440769,51.904373
Baloeranstraat,65,,,3029CE,Rotterdam,Rotterdam,Zuid-Holland,VBO,4.440716,51.904230
Baloeranstraat,67,,,3029CE,Rotterdam,Rotterdam,Zuid-Holland,VBO,4.440716,51.904230
Baloeranstraat,69,,,3029CE,Rotterdam,Rotterdam,Zuid-Holland,VBO,4.440716,51.904230
Baloeranstraat,71,,,3029CE,Rotterdam,Rotterdam,Zuid-Holland,VBO,4.440716,51.904230
Baloeranstraat,73,,,3029CE,Rotterdam,Rotterdam,Zuid-Holland,VBO,4.440716,51.904230
Baloeranstraat,75,,,3029CE,Rotterdam,Rotterdam,Zuid-Holland,VBO,4.440716,51.904230
Baloeranstraat,77,,,3029CE,Rotterdam,Rotterdam,Zuid-Holland,VBO,4.440716,51.904230
Baloeranstraat,79,,,3029CE,Rotterdam,Rotterdam,Zuid-Holland,VBO,4.440647,51.904042
Baloeranstraat,81,,,3029CE,Rotterdam,Rotterdam,Zuid-Holland,VBO,4.440647,51.904042
Baloeranstraat,83,,,3029CG,Rotterdam,Rotterdam,Zuid-Holland,VBO,4.440647,51.904042
Baloeranstraat,85,,,3029CG,Rotterdam,Rotterdam,Zuid-Holland,VBO,4.440647,51.904042
Baloeranstraat,87,,,3029CG,Rotterdam,Rotterdam,Zuid-Holland,VBO,4.440647,51.904042
Baloeranstraat,89,,,3029CG,Rotterdam,Rotterdam,Zuid-Holland,VBO,4.440647,51.904042
Baloeranstraat,91,,,3029CG,Rotterdam,Rotterdam,Zuid-Holland,VBO,4.440647,51.904042
Baloeranstraat,93,,,3029CG,Rotterdam,Rotterdam,Zuid-Holland,VBO,4.440572,51.903905
Baloeranstraat,95,,,3029CG,Rotterdam,Rotterdam,Zuid-Holland,VBO,4.440572,51.903905
Baloeranstraat,97,,,3029CG,Rotterdam,Rotterdam,Zuid-Holland,VBO,4.440572,51.903905
Baloeranstraat,99,,,3029CG,Rotterdam,Rotterdam,Zuid-Holland,VBO,4.440572,51.903905
Baloeranstraat,101,,,3029CG,Rotterdam,Rotterdam,Zuid-Holland,VBO,4.440572,51.903905
Baloeranstraat,103,,,3029CG,Rotterdam,Rotterdam,Zuid-Holland,VBO,4.440572,51.903905
Baloeranstraat,105,,,3029CG,Rotterdam,Rotterdam,Zuid-Holland,VBO,4.440572,51.903905
Baloeranstraat,107,,,3029CG,Rotterdam,Rotterdam,Zuid-Holland,VBO,4.440572,51.903905
Baloeranstraat,109,,,3029CG,Rotterdam,Rotterdam,Zuid-Holland,VBO,4.440504,51.903766
Baloeranstraat,111,,,3029CG,Rotterdam,Rotterdam,Zuid-Holland,VBO,4.440504,51.903766
Baloeranstraat,113,,,3029CG,Rotterdam,Rotterdam,Zuid-Holland,VBO,4.440504,51.903766
Baloeranstraat,115,,,3029CG,Rotterdam,Rotterdam,Zuid-Holland,VBO,4.440504,51.903766
Baloeranstraat,117,,,3029CG,Rotterdam,Rotterdam,Zuid-Holland,VBO,4.440504,51.903766
Baloeranstraat,119,,,3029CG,Rotterdam,Rotterdam,Zuid-Holland,VBO,4.440504,51.903766
Baloeranstraat,121,,,3029CG,Rotterdam,Rotterdam,Zuid-Holland,VBO,4.440504,51.903766
Baloeranstraat,123,,,3029CG,Rotterdam,Rotterdam,Zuid-Holland,VBO,4.440504,51.903766
Baloeranstraat,125,,,3029CG,Rotterdam,Rotterdam,Zuid-Holland,VBO,4.440415,51.903632
Baloeranstraat,127,,,3029CG,Rotterdam,Rotterdam,Zuid-Holland,VBO,4.440415,51.903632
Baloeranstraat,129,,,3029CG,Rotterdam,Rotterdam,Zuid-Holland,VBO,4.440415,51.903632
Baloeranstraat,131,,,3029CG,Rotterdam,Rotterdam,Zuid-Holland,VBO,4.440415,51.903632
Baloeranstraat,133,,,3029CG,Rotterdam,Rotterdam,Zuid-Holland,VBO,4.440415,51.903632
Baloeranstraat,135,,,3029CG,Rotterdam,Rotterdam,Zuid-Holland,VBO,4.440415,51.903632
Baloeranstraat,137,,,3029CG,Rotterdam,Rotterdam,Zuid-Holland,VBO,4.440415,51.903632
Baloeranstraat,139,,,3029CG,Rotterdam,Rotterdam,Zuid-Holland,VBO,4.440415,51.903632
Baloeranstraat,141,,,3029CH,Rotterdam,Rotterdam,Zuid-Holland,VBO,4.440415,51.903632
Baloeranstraat,143,,,3029CH,Rotterdam,Rotterdam,Zuid-Holland,VBO,4.440415,51.903632
Baloeranstraat,145,,,3029CH,Rotterdam,Rotterdam,Zuid-Holland,VBO,4.440415,51.903632
Baloeranstraat,147,,,3029CH,Rotterdam,Rotterdam,Zuid-Holland,VBO,4.440415,51.903632
Baloeranstraat,149,,,3029CH,Rotterdam,Rotterdam,Zuid-Holland,VBO,4.440415,51.903632
Baloeranstraat,151,,,3029CH,Rotterdam,Rotterdam,Zuid-Holland,VBO,4.440415,51.903632
Baloeranstraat,153,,,3029CH,Rotterdam,Rotterdam,Zuid-Holland,VBO,4.440415,51.903632
Baloeranstraat,155,,,3029CH,Rotterdam,Rotterdam,Zuid-Holland,VBO,4.440415,51.903632
Baloeranstraat,157,,,3029CH,Rotterdam,Rotterdam,Zuid-Holland,VBO,4.440415,51.903632
Baloeranstraat,159,,,3029CH,Rotterdam,Rotterdam,Zuid-Holland,VBO,4.440415,51.903632
Baloeranstraat,161,,,3029CH,Rotterdam,Rotterdam,Zuid-Holland,VBO,4.440415,51.903632
Baloeranstraat,163,,,3029CH,Rotterdam,Rotterdam,Zuid-Holland,VBO,4.440415,51.903632
Baloeranstraat,165,,,3029CH,Rotterdam,Rotterdam,Zuid-Holland,VBO,4.440415,51.903632
Baloeranstraat,167,,,3029CH,Rotterdam,Rotterdam,Zuid-Holland,VBO,4.440415,51.903632
Baloeranstraat,169,,,3029CH,Rotterdam,Rotterdam,Zuid-Holland,VBO,4.440415,51.903632
Baloeranstraat,171,,,3029CH,Rotterdam,Rotterdam,Zuid-Holland,VBO,4.440415,51.903632
Baloeranstraat,173,,,3029CH,Rotterdam,Rotterdam,Zuid-Holland,VBO,4.440415,51.903632
Baloeranstraat,175,,,3029CH,Rotterdam,Rotterdam,Zuid-Holland,VBO,4.440415,51.903632
Baloeranstraat,177,,,3029CH,Rotterdam,Rotterdam,Zuid-Holland,VBO,4.440415,51.903632
Baloeranstraat,179,,,3029CH,Rotterdam,Rotterdam,Zuid-Holland,VBO,4.440415,51.903632
Baloeranstraat,181,,,3029CH,Rotterdam,Rotterdam,Zuid-Holland,VBO,4.440415,51.903632
Baloeranstraat,183,,,3029CH,Rotterdam,Rotterdam,Zuid-Holland,VBO,4.440415,51.903632
Baloeranstraat,185,,,3029CH,Rotterdam,Rotterdam,Zuid-Holland,VBO,4.440415,51.903632
Baloeranstraat,187,,,3029CH,Rotterdam,Rotterdam,Zuid-Holland,VBO,4.440415,51.903632
Baloeranstraat,189,,,3029CH,Rotterdam,Rotterdam,Zuid-Holland,VBO,4.440415,51.903632
Baloeranstraat,191,,,3029CH,Rotterdam,Rotterdam,Zuid-Holland,VBO,4.440415,51.903632
Baloeranstraat,193,,,3029CH,Rotterdam,Rotterdam,Zuid-Holland,VBO,4.440415,51.903632
Baloeranstraat,195,,,3029CH,Rotterdam,Rotterdam,Zuid-Holland,VBO,4.440415,51.903632
Baloeranstraat,197,,,3029CH,Rotterdam,Rotterdam,Zuid-Holland,VBO,4.440415,51.903632
Baloeranstraat,199,,,3029CH,Rotterdam,Rotterdam,Zuid-Holland,VBO,4.440415,51.903632
Baloeranstraat,201,,,3029CH,Rotterdam,Rotterdam,Zuid-Holland,VBO,4.440415,51.903632
Baloeranstraat,203,,,3029CH,Rotterdam,Rotterdam,Zuid-Holland,VBO,4.440415,51.903632
Baloeranstraat,205,,,3029CH,Rotterdam,Rotterdam,Zuid-Holland,VBO,4.440415,51.903632
Baloeranstraat,207,,,3029CH,Rotterdam,Rotterdam,Zuid-Holland,VBO,4.440415,51.903632
Baloeranstraat,209,,,3029CH,Rotterdam,Rotterdam,Zuid-Holland,VBO,4.440415,51.903632
Baloeranstraat,211,,,3029CH,Rotterdam,Rotterdam,Zuid-Holland,VBO,4.440415,51.903632
Baloeranstraat,2,,,3029CJ,Rotterdam,Rotterdam,Zuid-Holland,VBO,4.441581,51.904729
Baloeranstraat,4,,,3029CJ,Rotterdam,Rotterdam,Zuid-Holland,VBO,4.441345,51.904734
Baloeranstraat,6,,,3029CJ,Rotterdam,Rotterdam,Zuid-Holland,VBO,4.441345,51.904734
Baloeranstraat,8,,,3029CJ,Rotterdam,Rotterdam,Zuid-Holland,VBO,4.441345,51.904734
Baloeranstraat,10,,,3029CJ,Rotterdam,Rotterdam,Zuid-Holland,VBO,4.441345,51.904734
Baloeranstraat,12,,,3029CJ,Rotterdam,Rotterdam,Zuid-Holland,VBO,4.441345,51.904734
Baloeranstraat,14,,,3029CJ,Rotterdam,Rotterdam,Zuid-Holland,VBO,4.441345,51.904734
Baloeranstraat,16,,,3029CJ,Rotterdam,Rotterdam,Zuid-Holland,VBO,4.441345,51.904734
Baloeranstraat,18,,,3029CJ,Rotterdam,Rotterdam,Zuid-Holland,VBO,4.441295,51.904592
Baloeranstraat,20,,,3029CJ,Rotterdam,Rotterdam,Zuid-Holland,VBO,4.441295,51.904592
Baloeranstraat,22,,,3029CJ,Rotterdam,Rotterdam,Zuid-Holland,VBO,4.441295,51.904592
Baloeranstraat,24,,,3029CJ,Rotterdam,Rotterdam,Zuid-Holland,VBO,4.441295,51.904592
Baloeranstraat,26,,,3029CJ,Rotterdam,Rotterdam,Zuid-Holland,VBO,4.441295,51.904592
Baloeranstraat,28,,,3029CJ,Rotterdam,Rotterdam,Zuid-Holland,VBO,4.441295,51.904592
Baloeranstraat,30,,,3029CJ,Rotterdam,Rotterdam,Zuid-Holland,VBO,4.441295,51.904592
Baloeranstraat,32,,,3029CJ,Rotterdam,Rotterdam,Zuid-Holland,VBO,4.441295,51.904592
Baloeranstraat,34,,,3029CJ,Rotterdam,Rotterdam,Zuid-Holland,VBO,4.441183,51.904460
Baloeranstraat,36,,,3029CJ,Rotterdam,Rotterdam,Zuid-Holland,VBO,4.441183,51.904460
Baloeranstraat,38,,,3029CJ,Rotterdam,Rotterdam,Zuid-Holland,VBO,4.441183,51.904460
Baloeranstraat,40,,,3029CJ,Rotterdam,Rotterdam,Zuid-Holland,VBO,4.441183,51.904460
Baloeranstraat,42,,,3029CJ,Rotterdam,Rotterdam,Zuid-Holland,VBO,4.441183,51.904460
Baloeranstraat,44,,,3029CJ,Rotterdam,Rotterdam,Zuid-Holland,VBO,4.441183,51.904460
Baloeranstraat,46,,,3029CJ,Rotterdam,Rotterdam,Zuid-Holland,VBO,4.441183,51.904460
Baloeranstraat,48,,,3029CJ,Rotterdam,Rotterdam,Zuid-Holland,VBO,4.441183,51.904460
Baloeranstraat,50,,,3029CJ,Rotterdam,Rotterdam,Zuid-Holland,VBO,4.441132,51.904322
Baloeranstraat,52,,,3029CJ,Rotterdam,Rotterdam,Zuid-Holland,VBO,4.441132,51.904322
Baloeranstraat,54,,,3029CJ,Rotterdam,Rotterdam,Zuid-Holland,VBO,4.441132,51.904322
Baloeranstraat,56,,,3029CJ,Rotterdam,Rotterdam,Zuid-Holland,VBO,4.441132,51.904322
Baloeranstraat,58,,,3029CJ,Rotterdam,Rotterdam,Zuid-Holland,VBO,4.441132,51.904322
Baloeranstraat,60,,,3029CJ,Rotterdam,Rotterdam,Zuid-Holland,VBO,4.441132,51.904322
Baloeranstraat,62,,,3029CJ,Rotterdam,Rotterdam,Zuid-Holland,VBO,4.441132,51.904322
Baloeranstraat,64,,,3029CJ,Rotterdam,Rotterdam,Zuid-Holland,VBO,4.441132,51.904322
Baloeranstraat,66,,,3029CJ,Rotterdam,Rotterdam,Zuid-Holland,VBO,4.441081,51.904181
Baloeranstraat,68,,,3029CJ,Rotterdam,Rotterdam,Zuid-Holland,VBO,4.441081,51.904181
Baloeranstraat,70,,,3029CJ,Rotterdam,Rotterdam,Zuid-Holland,VBO,4.441081,51.904181
Baloeranstraat,72,,,3029CJ,Rotterdam,Rotterdam,Zuid-Holland,VBO,4.441081,51.904181
Baloeranstraat,74,,,3029CJ,Rotterdam,Rotterdam,Zuid-Holland,VBO,4.441081,51.904181
Baloeranstraat,76,,,3029CJ,Rotterdam,Rotterdam,Zuid-Holland,VBO,4.441081,51.904181
Baloeranstraat,78,,,3029CJ,Rotterdam,Rotterdam,Zuid-Holland,VBO,4.441081,51.904181
Kedoestraat,90,,,3029CK,Rotterdam,Rotterdam,Zuid-Holland,VBO,4.443914,51.903572
Kedoestraat,102,,,3029CK,Rotterdam,Rotterdam,Zuid-Holland,VBO,4.441346,51.903911
Dempostraat,1,,,3029CL,Rotterdam,Rotterdam,Zuid-Holland,VBO,4.442021,51.904636
Dempostraat,3,,,3029CL,Rotterdam,Rotterdam,Zuid-Holland,VBO,4.442021,51.904636
Dempostraat,5,,,3029CL,Rotterdam,Rotterdam,Zuid-Holland,VBO,4.442021,51.904636
Dempostraat,7,,,3029CL,Rotterdam,Rotterdam,Zuid-Holland,VBO,4.442021,51.904636
Dempostraat,9,,,3029CL,Rotterdam,Rotterdam,Zuid-Holland,VBO,4.442021,51.904636
Dempostraat,11,,,3029CL,Rotterdam,Rotterdam,Zuid-Holland,VBO,4.442021,51.904636
Dempostraat,13,,,3029CL,Rotterdam,Rotterdam,Zuid-Holland,VBO,4.442021,51.904636
Dempostraat,15,,,3029CL,Rotterdam,Rotterdam,Zuid-Holland,VBO,4.442021,51.904636
Dempostraat,17,,,3029CL,Rotterdam,Rotterdam,Zuid-Holland,VBO,4.441955,51.904500
Dempostraat,19,,,3029CL,Rotterdam,Rotterdam,Zuid-Holland,VBO,4.441955,51.904500
Dempostraat,21,,,3029CL,Rotterdam,Rotterdam,Zuid-Holland,VBO,4.441955,51.904500
Dempostraat,23,,,3029CL,Rotterdam,Rotterdam,Zuid-Holland,VBO,4.441955,51.904500
Dempostraat,25,,,3029CL,Rotterdam,Rotterdam,Zuid-Holland,VBO,4.441955,51.904500
Dempostraat,27,,,3029CL,Rotterdam,Rotterdam,Zuid-Holland,VBO,4.441955,51.904500
Dempostraat,29,,,3029CL,Rotterdam,Rotterdam,Zuid-Holland,VBO,4.441955,51.904500
Dempostraat,31,,,3029CL,Rotterdam,Rotterdam,Zuid-Holland,VBO,4.441955,51.904500
Dempostraat,33,,,3029CL,Rotterdam,Rotterdam,Zuid-Holland,VBO,4.441956,51.904349
Dempostraat,35,,,3029CL,Rotterdam,Rotterdam,Zuid-Holland,VBO,4.441956,51.904349
Dempostraat,37,,,3029CL,Rotterdam,Rotterdam,Zuid-Holland,VBO,4.441956,51.904349
Dempostraat,39,,,3029CL,Rotterdam,Rotterdam,Zuid-Holland,VBO,4.441956,51.904349
Dempostraat,41,,,3029CL,Rotterdam,Rotterdam,Zuid-Holland,VBO,4.441956,51.904349
Dempostraat,43,,,3029CL,Rotterdam,Rotterdam,Zuid-Holland,VBO,4.441956,51.904349
Dempostraat,45,,,3029CL,Rotterdam,Rotterdam,Zuid-Holland,VBO,4.441956,51.904349
Dempostraat,47,,,3029CL,Rotterdam,Rotterdam,Zuid-Holland,VBO,4.441956,51.904349
Dempostraat,49,,,3029CL,Rotterdam,Rotterdam,Zuid-Holland,VBO,4.441905,51.904210
Dempostraat,51,,,3029CL,Rotterdam,Rotterdam,Zuid-Holland,VBO,4.441905,51.904210
Dempostraat,53,,,3029CL,Rotterdam,Rotterdam,Zuid-Holland,VBO,4.441905,51.904210
Dempostraat,55,,,3029CL,Rotterdam,Rotterdam,Zuid-Holland,VBO,4.441905,51.904210
Dempostraat,57,,,3029CL,Rotterdam,Rotterdam,Zuid-Holland,VBO,4.441905,51.904210
Dempostraat,59,,,3029CL,Rotterdam,Rotterdam,Zuid-Holland,VBO,4.441905,51.904210
Dempostraat,61,,,3029CL,Rotterdam,Rotterdam,Zuid-Holland,VBO,4.441905,51.904210
Dempostraat,63,,,3029CL,Rotterdam,Rotterdam,Zuid-Holland,VBO,4.441905,51.904210
Dempostraat,65,,,3029CL,Rotterdam,Rotterdam,Zuid-Holland,VBO,4.441852,51.904068
Dempostraat,67,,,3029CL,Rotterdam,Rotterdam,Zuid-Holland,VBO,4.441852,51.904068
Dempostraat,69,,,3029CL,Rotterdam,Rotterdam,Zuid-Holland,VBO,4.441852,51.904068
Dempostraat,71,,,3029CL,Rotterdam,Rotterdam,Zuid-Holland,VBO,4.441852,51.904068
Dempostraat,73,,,3029CL,Rotterdam,Rotterdam,Zuid-Holland,VBO,4.441852,51.904068
Dempostraat,75,,,3029CL,Rotterdam,Rotterdam,Zuid-Holland,VBO,4.441852,51.904068
Dempostraat,77,,,3029CL,Rotterdam,Rotterdam,Zuid-Holland,VBO,4.441852,51.904068
Dempostraat,135,,,3029CL,Rotterdam,Rotterdam,Zuid-Holland,VBO,4.440914,51.903420
Dempostraat,143,,,3029CL,Rotterdam,Rotterdam,Zuid-Holland,VBO,4.441355,51.903365
Dempostraat,145,,,3029CL,Rotterdam,Rotterdam,Zuid-Holland,VBO,4.441686,51.903350
Dempostraat,2,,,3029CM,Rotterdam,Rotterdam,Zuid-Holland,VBO,4.442552,51.904649
Dempostraat,4,,,3029CM,Rotterdam,Rotterdam,Zuid-Holland,VBO,4.442552,51.904649
Dempostraat,6,,,3029CM,Rotterdam,Rotterdam,Zuid-Holland,VBO,4.442552,51.904649
Dempostraat,8,,,3029CM,Rotterdam,Rotterdam,Zuid-Holland,VBO,4.442552,51.904649
Dempostraat,10,,,3029CM,Rotterdam,Rotterdam,Zuid-Holland,VBO,4.442456,51.904501
Dempostraat,12,,,3029CM,Rotterdam,Rotterdam,Zuid-Holland,VBO,4.442456,51.904501
Dempostraat,14,,,3029CM,Rotterdam,Rotterdam,Zuid-Holland,VBO,4.442456,51.904501
Dempostraat,16,,,3029CM,Rotterdam,Rotterdam,Zuid-Holland,VBO,4.442456,51.904501
Dempostraat,18,,,3029CM,Rotterdam,Rotterdam,Zuid-Holland,VBO,4.442456,51.904501
Dempostraat,20,,,3029CM,Rotterdam,Rotterdam,Zuid-Holland,VBO,4.442456,51.904501
Dempostraat,22,,,3029CM,Rotterdam,Rotterdam,Zuid-Holland,VBO,4.442456,51.904501
Dempostraat,24,,,3029CM,Rotterdam,Rotterdam,Zuid-Holland,VBO,4.442456,51.904501
Dempostraat,26,,,3029CM,Rotterdam,Rotterdam,Zuid-Holland,VBO,4.442411,51.904385
Dempostraat,28,,,3029CM,Rotterdam,Rotterdam,Zuid-Holland,VBO,4.442411,51.904385
Dempostraat,30,,,3029CM,Rotterdam,Rotterdam,Zuid-Holland,VBO,4.442411,51.904385
Dempostraat,32,,,3029CM,Rotterdam,Rotterdam,Zuid-Holland,VBO,4.442411,51.904385
Dempostraat,34,,,3029CM,Rotterdam,Rotterdam,Zuid-Holland,VBO,4.442411,51.904385
Dempostraat,36,,,3029CM,Rotterdam,Rotterdam,Zuid-Holland,VBO,4.442411,51.904385
Dempostraat,38,,,3029CM,Rotterdam,Rotterdam,Zuid-Holland,VBO,4.442411,51.904385
Dempostraat,40,,,3029CM,Rotterdam,Rotterdam,Zuid-Holland,VBO,4.442332,51.904231
Dempostraat,42,,,3029CM,Rotterdam,Rotterdam,Zuid-Holland,VBO,4.442332,51.904231
Dempostraat,44,,,3029CM,Rotterdam,Rotterdam,Zuid-Holland,VBO,4.442332,51.904231
Dempostraat,46,,,3029CM,Rotterdam,Rotterdam,Zuid-Holland,VBO,4.442332,51.904231
Dempostraat,48,,,3029CM,Rotterdam,Rotterdam,Zuid-Holland,VBO,4.442332,51.904231
Dempostraat,50,,,3029CM,Rotterdam,Rotterdam,Zuid-Holland,VBO,4.442332,51.904231
Dempostraat,52,,,3029CM,Rotterdam,Rotterdam,Zuid-Holland,VBO,4.442332,51.904231
Dempostraat,54,,,3029CM,Rotterdam,Rotterdam,Zuid-Holland,VBO,4.442287,51.904116
Dempostraat,56,,,3029CM,Rotterdam,Rotterdam,Zuid-Holland,VBO,4.442287,51.904116
Dempostraat,58,,,3029CM,Rotterdam,Rotterdam,Zuid-Holland,VBO,4.442287,51.904116
Dempostraat,60,,,3029CM,Rotterdam,Rotterdam,Zuid-Holland,VBO,4.442287,51.904116
Dempostraat,62,,,3029CM,Rotterdam,Rotterdam,Zuid-Holland,VBO,4.442287,51.904116
Dempostraat,64,,,3029CM,Rotterdam,Rotterdam,Zuid-Holland,VBO,4.442287,51.904116
Dempostraat,66,,,3029CM,Rotterdam,Rotterdam,Zuid-Holland,VBO,4.442287,51.904116
Dempostraat,68,,,3029CM,Rotterdam,Rotterdam,Zuid-Holland,VBO,4.442287,51.904116
Dempostraat,70,,,3029CM,Rotterdam,Rotterdam,Zuid-Holland,VBO,4.442204,51.903894
Dempostraat,72,,,3029CM,Rotterdam,Rotterdam,Zuid-Holland,VBO,4.442204,51.903894
Dempostraat,74,,,3029CM,Rotterdam,Rotterdam,Zuid-Holland,VBO,4.442204,51.903894
Dempostraat,76,,,3029CM,Rotterdam,Rotterdam,Zuid-Holland,VBO,4.442204,51.903894
Dempostraat,78,,,3029CM,Rotterdam,Rotterdam,Zuid-Holland,VBO,4.442204,51.903894
Dempostraat,80,,,3029CM,Rotterdam,Rotterdam,Zuid-Holland,VBO,4.442204,51.903894
Dempostraat,82,,,3029CM,Rotterdam,Rotterdam,Zuid-Holland,VBO,4.442204,51.903894
Dempostraat,84,,,3029CM,Rotterdam,Rotterdam,Zuid-Holland,VBO,4.442204,51.903894
Dempostraat,86,,,3029CM,Rotterdam,Rotterdam,Zuid-Holland,VBO,4.442204,51.903894
Dempostraat,88,,,3029CM,Rotterdam,Rotterdam,Zuid-Holland,VBO,4.442204,51.903894
Dempostraat,90,,,3029CM,Rotterdam,Rotterdam,Zuid-Holland,VBO,4.442119,51.903738
Dempostraat,92,,,3029CM,Rotterdam,Rotterdam,Zuid-Holland,VBO,4.442119,51.903738
Dempostraat,94,,,3029CM,Rotterdam,Rotterdam,Zuid-Holland,VBO,4.442119,51.903738
Dempostraat,96,,,3029CM,Rotterdam,Rotterdam,Zuid-Holland,VBO,4.442119,51.903738
Dempostraat,98,,,3029CM,Rotterdam,Rotterdam,Zuid-Holland,VBO,4.442119,51.903738
Dempostraat,100,,,3029CM,Rotterdam,Rotterdam,Zuid-Holland,VBO,4.442119,51.903738
Dempostraat,102,,,3029CM,Rotterdam,Rotterdam,Zuid-Holland,VBO,4.442119,51.903738
Dempostraat,104,,,3029CM,Rotterdam,Rotterdam,Zuid-Holland,VBO,4.442119,51.903738
Dempostraat,106,,,3029CM,Rotterdam,Rotterdam,Zuid-Holland,VBO,4.442119,51.903738
Dempostraat,108,,,3029CM,Rotterdam,Rotterdam,Zuid-Holland,VBO,4.442119,51.903738
Dempostraat,110,,,3029CM,Rotterdam,Rotterdam,Zuid-Holland,VBO,4.442119,51.903738
Dempostraat,112,,,3029CM,Rotterdam,Rotterdam,Zuid-Holland,VBO,4.442119,51.903738
Dempostraat,114,,,3029CM,Rotterdam,Rotterdam,Zuid-Holland,VBO,4.442119,51.903738
Dempostraat,116,,,3029CM,Rotterdam,Rotterdam,Zuid-Holland,VBO,4.442119,51.903738
Dempostraat,118,,,3029CM,Rotterdam,Rotterdam,Zuid-Holland,VBO,4.442119,51.903738
Dempostraat,120,,,3029CM,Rotterdam,Rotterdam,Zuid-Holland,VBO,4.442119,51.903738
Dempostraat,122,,,3029CM,Rotterdam,Rotterdam,Zuid-Holland,VBO,4.442119,51.903738
Dempostraat,124,,,3029CM,Rotterdam,Rotterdam,Zuid-Holland,VBO,4.442119,51.903738
Dempostraat,126,,,3029CM,Rotterdam,Rotterdam,Zuid-Holland,VBO,4.442119,51.903738
Dempostraat,128,,,3029CM,Rotterdam,Rotterdam,Zuid-Holland,VBO,4.442119,51.903738
Dempostraat,130,,,3029CM,Rotterdam,Rotterdam,Zuid-Holland,VBO,4.442119,51.903738
Dempostraat,132,,,3029CM,Rotterdam,Rotterdam,Zuid-Holland,VBO,4.441982,51.903386
Dempostraat,134,,,3029CM,Rotterdam,Rotterdam,Zuid-Holland,VBO,4.441982,51.903386
Dempostraat,136,,,3029CM,Rotterdam,Rotterdam,Zuid-Holland,VBO,4.441982,51.903386
Dempostraat,138,,,3029CM,Rotterdam,Rotterdam,Zuid-Holland,VBO,4.441982,51.903386
Dempostraat,140,,,3029CM,Rotterdam,Rotterdam,Zuid-Holland,VBO,4.441982,51.903386
Dempostraat,142,,,3029CM,Rotterdam,Rotterdam,Zuid-Holland,VBO,4.441982,51.903386
Dempostraat,144,,,3029CM,Rotterdam,Rotterdam,Zuid-Holland,VBO,4.441982,51.903386
Dempostraat,146,,,3029CM,Rotterdam,Rotterdam,Zuid-Holland,VBO,4.441982,51.903386
Dempostraat,148,,,3029CM,Rotterdam,Rotterdam,Zuid-Holland,VBO,4.441982,51.903386
Dempostraat,150,,,3029CM,Rotterdam,Rotterdam,Zuid-Holland,VBO,4.441982,51.903386
Dempostraat,152,,,3029CM,Rotterdam,Rotterdam,Zuid-Holland,VBO,4.441982,51.903386
Dempostraat,154,,,3029CM,Rotterdam,Rotterdam,Zuid-Holland,VBO,4.441982,51.903386
Dempostraat,156,,,3029CM,Rotterdam,Rotterdam,Zuid-Holland,VBO,4.441982,51.903386
Dempostraat,158,,,3029CM,Rotterdam,Rotterdam,Zuid-Holland,VBO,4.441982,51.903386
Dempostraat,160,,,3029CM,Rotterdam,Rotterdam,Zuid-Holland,VBO,4.441982,51.903386
Dempostraat,162,,,3029CM,Rotterdam,Rotterdam,Zuid-Holland,VBO,4.441982,51.903386
Dempostraat,164,,,3029CM,Rotterdam,Rotterdam,Zuid-Holland,VBO,4.441982,51.903386
Dempostraat,166,,,3029CM,Rotterdam,Rotterdam,Zuid-Holland,VBO,4.441982,51.903386
Dempostraat,168,,,3029CM,Rotterdam,Rotterdam,Zuid-Holland,VBO,4.441982,51.903386
Dempostraat,170,,,3029CM,Rotterdam,Rotterdam,Zuid-Holland,VBO,4.441982,51.903386
Dempostraat,172,,,3029CM,Rotterdam,Rotterdam,Zuid-Holland,VBO,4.441982,51.903386
Dempostraat,174,,,3029CM,Rotterdam,Rotterdam,Zuid-Holland,VBO,4.441982,51.903386
Dempostraat,176,,,3029CM,Rotterdam,Rotterdam,Zuid-Holland,VBO,4.441982,51.903386
Dempostraat,178,,,3029CM,Rotterdam,Rotterdam,Zuid-Holland,VBO,4.441982,51.903386
Dempostraat,180,,,3029CM,Rotterdam,Rotterdam,Zuid-Holland,VBO,4.441982,51.903386
Dempostraat,182,,,3029CM,Rotterdam,Rotterdam,Zuid-Holland,VBO,4.441982,51.903386
Dempostraat,184,,,3029CM,Rotterdam,Rotterdam,Zuid-Holland,VBO,4.441982,51.903386
Dempostraat,186,,,3029CM,Rotterdam,Rotterdam,Zuid-Holland,VBO,4.441982,51.903386
Dempostraat,188,,,3029CM,Rotterdam,Rotterdam,Zuid-Holland,VBO,4.441982,51.903386
Dempostraat,190,,,3029CM,Rotterdam,Rotterdam,Zuid-Holland,VBO,4.441982,51.903386
Dempostraat,192,,,3029CM,Rotterdam,Rotterdam,Zuid-Holland,VBO,4.441982,51.903386
Dempostraat,194,,,3029CM,Rotterdam,Rotterdam,Zuid-Holland,VBO,4.441982,51.903386
Dempostraat,196,,,3029CM,Rotterdam,Rotterdam,Zuid-Holland,VBO,4.441982,51.903386
Dempostraat,198,,,3029CM,Rotterdam,Rotterdam,Zuid-Holland,VBO,4.441982,51.903386
Dempostraat,200,,,3029CM,Rotterdam,Rotterdam,Zuid-Holland,VBO,4.441982,51.903386
Dempostraat,202,,,3029CM,Rotterdam,Rotterdam,Zuid-Holland,VBO,4.441982,51.903386
Dempostraat,204,,,3029CM,Rotterdam,Rotterdam,Zuid-Holland,VBO,4.441982,51.903386
Dempostraat,206,,,3029CM,Rotterdam,Rotterdam,Zuid-Holland,VBO,4.441982,51.903386
Dempostraat,208,,,3029CM,Rotterdam,Rotterdam,Zuid-Holland,VBO,4.441982,51.903386
Dempostraat,210,,,3029CM,Rotterdam,Rotterdam,Zuid-Holland,VBO,4.441982,51.903386
Dempostraat,212,,,3029CM,Rotterdam,Rotterdam,Zuid-Holland,VBO,4.441982,51.903386
Dempostraat,214,,,3029CM,Rotterdam,Rotterdam,Zuid-Holland,VBO,4.441982,51.903386
Dempostraat,216,,,3029CM,Rotterdam,Rotterdam,Zuid-Holland,VBO,4.441982,51.903386
Dempostraat,218,,,3029CM,Rotterdam,Rotterdam,Zuid-Holland,VBO,4.441982,51.903386
Dempostraat,220,,,3029CM,Rotterdam,Rotterdam,Zuid-Holland,VBO,4.441982,51.903386
Dempostraat,222,,,3029CM,Rotterdam,Rotterdam,Zuid-Holland,VBO,4.441982,51.903386
Dempostraat,224,,,3029CM,Rotterdam,Rotterdam,Zuid-Holland,VBO,4.441982,51.903386
Dempostraat,226,,,3029CM,Rotterdam,Rotterdam,Zuid-Holland,VBO,4.441982,51.903386
Dempostraat,228,,,3029CM,Rotterdam,Rotterdam,Zuid-Holland,VBO,4.441982,51.903386
Dempostraat,230,,,3029CM,Rotterdam,Rotterdam,Zuid-Holland,VBO,4.441982,51.903386
Dempostraat,232,,,3029CM,Rotterdam,Rotterdam,Zuid-Holland,VBO,4.441982,51.903386
Dempostraat,234,,,3029CM,Rotterdam,Rotterdam,Zuid-Holland,VBO,4.441982,51.903386
Dempostraat,236,,,3029CM,Rotterdam,Rotterdam,Zuid-Holland,VBO,4.441982,51.903386
Dempostraat,238,,,3029CM,Rotterdam,Rotterdam,Zuid-Holland,VBO,4.441982,51.903386
Dempostraat,240,,,3029CM,Rotterdam,Rotterdam,Zuid-Holland,VBO,4.441982,51.903386
Dempostraat,242,,,3029CM,Rotterdam,Rotterdam,Zuid-Holland,VBO,4.441982,51.903386
Dempostraat,244,,,3029CM,Rotterdam,Rotterdam,Zuid-Holland,VBO,4.441982,51.903386
Dempostraat,246,,,3029CM,Rotterdam,Rotterdam,Zuid-Holland,VBO,4.441982,51.903386
Dempostraat,248,,,3029CM,Rotterdam,Rotterdam,Zuid-Holland,VBO,4.441982,51.903386
Bartel Wiltonkade,151,,,3029CN,Rotterdam,Rotterdam,Zuid-Holland,VBO,4.441314,51.903269
Bartel Wiltonkade,153,,,3029CN,Rotterdam,Rotterdam,Zuid-Holland,VBO,4.441314,51.903269
Bartel Wiltonkade,155,,,3029CN,Rotterdam,Rotterdam,Zuid-Holland,VBO,4.441314,51.903269
Bartel Wiltonkade,157,,,3029CN,Rotterdam,Rotterdam,Zuid-Holland,VBO,4.441314,51.903269
Bartel Wiltonkade,159,,,3029CN,Rotterdam,Rotterdam,Zuid-Holland,VBO,4.441314,51.903269
Bartel Wiltonkade,161,,,3029CN,Rotterdam,Rotterdam,Zuid-Holland,VBO,4.441314,51.903269
Bartel Wiltonkade,163,,,3029CN,Rotterdam,Rotterdam,Zuid-Holland,VBO,4.441314,51.903269
Bartel Wiltonkade,165,,,3029CN,Rotterdam,Rotterdam,Zuid-Holland,VBO,4.441314,51.903269
Bartel Wiltonkade,167,,,3029CN,Rotterdam,Rotterdam,Zuid-Holland,VBO,4.441314,51.903269
Bartel Wiltonkade,169,,,3029CN,Rotterdam,Rotterdam,Zuid-Holland,VBO,4.441314,51.903269
Bartel Wiltonkade,171,,,3029CN,Rotterdam,Rotterdam,Zuid-Holland,VBO,4.441314,51.903269
Bartel Wiltonkade,173,,,3029CN,Rotterdam,Rotterdam,Zuid-Holland,VBO,4.441314,51.903269
Bartel Wiltonkade,175,,,3029CN,Rotterdam,Rotterdam,Zuid-Holland,VBO,4.441314,51.903269
Bartel Wiltonkade,177,,,3029CN,Rotterdam,Rotterdam,Zuid-Holland,VBO,4.441314,51.903269
Bartel Wiltonkade,179,,,3029CN,Rotterdam,Rotterdam,Zuid-Holland,VBO,4.441314,51.903269
Bartel Wiltonkade,181,,,3029CN,Rotterdam,Rotterdam,Zuid-Holland,VBO,4.441314,51.903269
Bartel Wiltonkade,183,,,3029CN,Rotterdam,Rotterdam,Zuid-Holland,VBO,4.441314,51.903269
Bartel Wiltonkade,185,,,3029CN,Rotterdam,Rotterdam,Zuid-Holland,VBO,4.441314,51.903269
Bartel Wiltonkade,187,,,3029CN,Rotterdam,Rotterdam,Zuid-Holland,VBO,4.441314,51.903269
Bartel Wiltonkade,189,,,3029CN,Rotterdam,Rotterdam,Zuid-Holland,VBO,4.441314,51.903269
Bartel Wiltonkade,191,,,3029CN,Rotterdam,Rotterdam,Zuid-Holland,VBO,4.441314,51.903269
Bartel Wiltonkade,193,,,3029CN,Rotterdam,Rotterdam,Zuid-Holland,VBO,4.441314,51.903269
Bartel Wiltonkade,195,,,3029CN,Rotterdam,Rotterdam,Zuid-Holland,VBO,4.441314,51.903269
Bartel Wiltonkade,197,,,3029CN,Rotterdam,Rotterdam,Zuid-Holland,VBO,4.441314,51.903269
Bartel Wiltonkade,199,,,3029CN,Rotterdam,Rotterdam,Zuid-Holland,VBO,4.441314,51.903269
Bartel Wiltonkade,201,,,3029CN,Rotterdam,Rotterdam,Zuid-Holland,VBO,4.441314,51.903269
Bartel Wiltonkade,203,,,3029CN,Rotterdam,Rotterdam,Zuid-Holland,VBO,4.441314,51.903269
Bartel Wiltonkade,205,,,3029CN,Rotterdam,Rotterdam,Zuid-Holland,VBO,4.441314,51.903269
Pelgrimsstraat,252,,,3029CP,Rotterdam,Rotterdam,Zuid-Holland,VBO,4.442046,51.904757
Pelgrimsstraat,254,,,3029CP,Rotterdam,Rotterdam,Zuid-Holland,VBO,4.442046,51.904757
Pelgrimsstraat,256,,,3029CP,Rotterdam,Rotterdam,Zuid-Holland,VBO,4.442046,51.904757
Pelgrimsstraat,258,,,3029CP,Rotterdam,Rotterdam,Zuid-Holland,VBO,4.442046,51.904757
Pelgrimsstraat,260,,,3029CP,Rotterdam,Rotterdam,Zuid-Holland,VBO,4.442046,51.904757
Pelgrimsstraat,262,,,3029CP,Rotterdam,Rotterdam,Zuid-Holland,VBO,4.442046,51.904757
Pelgrimsstraat,264,,,3029CP,Rotterdam,Rotterdam,Zuid-Holland,VBO,4.442046,51.904757
Pelgrimsstraat,266,,,3029CP,Rotterdam,Rotterdam,Zuid-Holland,VBO,4.442046,51.904757
Pelgrimsstraat,268,,,3029CP,Rotterdam,Rotterdam,Zuid-Holland,VBO,4.442046,51.904757
Pelgrimsstraat,270,,,3029CP,Rotterdam,Rotterdam,Zuid-Holland,VBO,4.442046,51.904757
Pelgrimsstraat,272,,,3029CP,Rotterdam,Rotterdam,Zuid-Holland,VBO,4.442046,51.904757
Pelgrimsstraat,274,,,3029CP,Rotterdam,Rotterdam,Zuid-Holland,VBO,4.442046,51.904757
Pelgrimsstraat,276,,,3029CP,Rotterdam,Rotterdam,Zuid-Holland,VBO,4.442046,51.904757
Pelgrimsstraat,278,,,3029CP,Rotterdam,Rotterdam,Zuid-Holland,VBO,4.442046,51.904757
Pelgrimsstraat,280,,,3029CP,Rotterdam,Rotterdam,Zuid-Holland,VBO,4.441921,51.904813
Pelgrimsstraat,282,,,3029CP,Rotterdam,Rotterdam,Zuid-Holland,VBO,4.441822,51.904827
Pelgrimsstraat,284,,,3029CP,Rotterdam,Rotterdam,Zuid-Holland,VBO,4.441731,51.904839
Pelgrimsstraat,286,,,3029CP,Rotterdam,Rotterdam,Zuid-Holland,VBO,4.441635,51.904853
Pelgrimsstraat,288,,,3029CP,Rotterdam,Rotterdam,Zuid-Holland,VBO,4.441477,51.904840
Pelgrimsstraat,290,,,3029CP,Rotterdam,Rotterdam,Zuid-Holland,VBO,4.441477,51.904840
Pelgrimsstraat,292,,,3029CP,Rotterdam,Rotterdam,Zuid-Holland,VBO,4.441477,51.904840
Pelgrimsstraat,294,,,3029CP,Rotterdam,Rotterdam,Zuid-Holland,VBO,4.441477,51.904840
Pelgrimsstraat,296,,,3029CP,Rotterdam,Rotterdam,Zuid-Holland,VBO,4.441477,51.904840
Pelgrimsstraat,298,,,3029CP,Rotterdam,Rotterdam,Zuid-Holland,VBO,4.441477,51.904840
Pelgrimsstraat,300,,,3029CP,Rotterdam,Rotterdam,Zuid-Holland,VBO,4.441477,51.904840
Pelgrimsstraat,302,,,3029CP,Rotterdam,Rotterdam,Zuid-Holland,VBO,4.441477,51.904840
Pelgrimsstraat,304,,,3029CP,Rotterdam,Rotterdam,Zuid-Holland,VBO,4.441477,51.904840
Pelgrimsstraat,306,,,3029CP,Rotterdam,Rotterdam,Zuid-Holland,VBO,4.441477,51.904840
Pelgrimsstraat,308,,,3029CP,Rotterdam,Rotterdam,Zuid-Holland,VBO,4.441477,51.904840
Pelgrimsstraat,310,,,3029CP,Rotterdam,Rotterdam,Zuid-Holland,VBO,4.441477,51.904840
Pelgrimsstraat,312,,,3029CP,Rotterdam,Rotterdam,Zuid-Holland,VBO,4.441477,51.904840
Pelgrimsstraat,314,,,3029CP,Rotterdam,Rotterdam,Zuid-Holland,VBO,4.441477,51.904840
Pelgrimsstraat,316,,,3029CP,Rotterdam,Rotterdam,Zuid-Holland,VBO,4.441477,51.904840
Pelgrimsstraat,318,,,3029CP,Rotterdam,Rotterdam,Zuid-Holland,VBO,4.441477,51.904840
Pelgrimsstraat,320,,,3029CP,Rotterdam,Rotterdam,Zuid-Holland,VBO,4.441477,51.904840
Pelgrimsstraat,322,,,3029CP,Rotterdam,Rotterdam,Zuid-Holland,VBO,4.441477,51.904840
Pelgrimsstraat,324,,,3029CP,Rotterdam,Rotterdam,Zuid-Holland,VBO,4.441477,51.904840
Pelgrimsstraat,326,,,3029CP,Rotterdam,Rotterdam,Zuid-Holland,VBO,4.441477,51.904840
Pelgrimsstraat,328,,,3029CP,Rotterdam,Rotterdam,Zuid-Holland,VBO,4.441348,51.904893
Pelgrimsstraat,330,,,3029CR,Rotterdam,Rotterdam,Zuid-Holland,VBO,4.441075,51.904944
Pelgrimsstraat,332,,,3029CR,Rotterdam,Rotterdam,Zuid-Holland,VBO,4.440909,51.904920
Pelgrimsstraat,334,,,3029CR,Rotterdam,Rotterdam,Zuid-Holland,VBO,4.440909,51.904920
Pelgrimsstraat,336,,,3029CR,Rotterdam,Rotterdam,Zuid-Holland,VBO,4.440909,51.904920
Pelgrimsstraat,338,,,3029CR,Rotterdam,Rotterdam,Zuid-Holland,VBO,4.440909,51.904920
Pelgrimsstraat,340,,,3029CR,Rotterdam,Rotterdam,Zuid-Holland,VBO,4.440909,51.904920
Pelgrimsstraat,342,,,3029CR,Rotterdam,Rotterdam,Zuid-Holland,VBO,4.440909,51.904920
Pelgrimsstraat,344,,,3029CR,Rotterdam,Rotterdam,Zuid-Holland,VBO,4.440909,51.904920
Pelgrimsstraat,346,,,3029CR,Rotterdam,Rotterdam,Zuid-Holland,VBO,4.440909,51.904920
Pelgrimsstraat,348,,,3029CR,Rotterdam,Rotterdam,Zuid-Holland,VBO,4.440909,51.904920
Pelgrimsstraat,350,,,3029CR,Rotterdam,Rotterdam,Zuid-Holland,VBO,4.440909,51.904920
Pelgrimsstraat,352,,,3029CR,Rotterdam,Rotterdam,Zuid-Holland,VBO,4.440909,51.904920
Pelgrimsstraat,354,,,3029CR,Rotterdam,Rotterdam,Zuid-Holland,VBO,4.440909,51.904920
Pelgrimsstraat,356,,,3029CR,Rotterdam,Rotterdam,Zuid-Holland,VBO,4.440909,51.904920
Pelgrimsstraat,358,,,3029CR,Rotterdam,Rotterdam,Zuid-Holland,VBO,4.440909,51.904920
Pelgrimsstraat,360,,,3029CR,Rotterdam,Rotterdam,Zuid-Holland,VBO,4.440909,51.904920
Pelgrimsstraat,362,,,3029CR,Rotterdam,Rotterdam,Zuid-Holland,VBO,4.440909,51.904920
Pelgrimsstraat,364,,,3029CR,Rotterdam,Rotterdam,Zuid-Holland,VBO,4.440909,51.904920
Pelgrimsstraat,366,,,3029CR,Rotterdam,Rotterdam,Zuid-Holland,VBO,4.440909,51.904920
Pelgrimsstraat,368,,,3029CR,Rotterdam,Rotterdam,Zuid-Holland,VBO,4.440909,51.904920
Pelgrimsstraat,370,,,3029CR,Rotterdam,Rotterdam,Zuid-Holland,VBO,4.440909,51.904920
Pelgrimsstraat,372,,,3029CR,Rotterdam,Rotterdam,Zuid-Holland,VBO,4.440814,51.904980
Pelgrimsstraat,374,,,3029CR,Rotterdam,Rotterdam,Zuid-Holland,VBO,4.440693,51.904997
Pelgrimsstraat,376,,,3029CR,Rotterdam,Rotterdam,Zuid-Holland,VBO,4.440584,51.905013
Pelgrimsstraat,378,,,3029CR,Rotterdam,Rotterdam,Zuid-Holland,VBO,4.440484,51.905027
Pelgrimsstraat,380,,,3029CR,Rotterdam,Rotterdam,Zuid-Holland,VBO,4.440341,51.905002
Pelgrimsstraat,382,,,3029CR,Rotterdam,Rotterdam,Zuid-Holland,VBO,4.440341,51.905002
Pelgrimsstraat,384,,,3029CR,Rotterdam,Rotterdam,Zuid-Holland,VBO,4.440341,51.905002
Pelgrimsstraat,386,,,3029CR,Rotterdam,Rotterdam,Zuid-Holland,VBO,4.440341,51.905002
Pelgrimsstraat,388,,,3029CR,Rotterdam,Rotterdam,Zuid-Holland,VBO,4.440341,51.905002
Pelgrimsstraat,390,,,3029CR,Rotterdam,Rotterdam,Zuid-Holland,VBO,4.440341,51.905002
Pelgrimsstraat,392,,,3029CR,Rotterdam,Rotterdam,Zuid-Holland,VBO,4.440341,51.905002
Pelgrimsstraat,394,,,3029CR,Rotterdam,Rotterdam,Zuid-Holland,VBO,4.440341,51.905002
Pelgrimsstraat,396,,,3029CR,Rotterdam,Rotterdam,Zuid-Holland,VBO,4.440341,51.905002
Pelgrimsstraat,398,,,3029CR,Rotterdam,Rotterdam,Zuid-Holland,VBO,4.440341,51.905002
Pelgrimsstraat,400,,,3029CR,Rotterdam,Rotterdam,Zuid-Holland,VBO,4.440341,51.905002
Pelgrimsstraat,402,,,3029CR,Rotterdam,Rotterdam,Zuid-Holland,VBO,4.440341,51.905002
Pelgrimsstraat,404,,,3029CR,Rotterdam,Rotterdam,Zuid-Holland,VBO,4.440341,51.905002
Pelgrimsstraat,406,,,3029CR,Rotterdam,Rotterdam,Zuid-Holland,VBO,4.440341,51.905002
Westkousdijk,56,,,3029CS,Rotterdam,Rotterdam,Zuid-Holland,VBO,4.446462,51.903748
Westkousdijk,58,,,3029CS,Rotterdam,Rotterdam,Zuid-Holland,VBO,4.446339,51.903767
Westkousdijk,60,,,3029CS,Rotterdam,Rotterdam,Zuid-Holland,VBO,4.446254,51.903778
Westkousdijk,62,,,3029CS,Rotterdam,Rotterdam,Zuid-Holland,VBO,4.446161,51.903790
Westkousdijk,64,,,3029CS,Rotterdam,Rotterdam,Zuid-Holland,VBO,4.446070,51.903802
Westkousdijk,66,,,3029CS,Rotterdam,Rotterdam,Zuid-Holland,VBO,4.445924,51.903781
Westkousdijk,68,,,3029CS,Rotterdam,Rotterdam,Zuid-Holland,VBO,4.445924,51.903781
Westkousdijk,70,,,3029CS,Rotterdam,Rotterdam,Zuid-Holland,VBO,4.445924,51.903781
Westkousdijk,72,,,3029CS,Rotterdam,Rotterdam,Zuid-Holland,VBO,4.445924,51.903781
Westkousdijk,74,,,3029CS,Rotterdam,Rotterdam,Zuid-Holland,VBO,4.445924,51.903781
Westkousdijk,76,,,3029CS,Rotterdam,Rotterdam,Zuid-Holland,VBO,4.445924,51.903781
Westkousdijk,78,,,3029CS,Rotterdam,Rotterdam,Zuid-Holland,VBO,4.445924,51.903781
Westkousdijk,80,,,3029CS,Rotterdam,Rotterdam,Zuid-Holland,VBO,4.445924,51.903781
Westkousdijk,82,,,3029CS,Rotterdam,Rotterdam,Zuid-Holland,VBO,4.445924,51.903781
Westkousdijk,84,,,3029CS,Rotterdam,Rotterdam,Zuid-Holland,VBO,4.445924,51.903781
Westkousdijk,86,,,3029CS,Rotterdam,Rotterdam,Zuid-Holland,VBO,4.445924,51.903781
Westkousdijk,88,,,3029CS,Rotterdam,Rotterdam,Zuid-Holland,VBO,4.445924,51.903781
Westkousdijk,90,,,3029CS,Rotterdam,Rotterdam,Zuid-Holland,VBO,4.445924,51.903781
Westkousdijk,92,,,3029CS,Rotterdam,Rotterdam,Zuid-Holland,VBO,4.445924,51.903781
Westkousdijk,94,,,3029CS,Rotterdam,Rotterdam,Zuid-Holland,VBO,4.445924,51.903781
Westkousdijk,96,,,3029CS,Rotterdam,Rotterdam,Zuid-Holland,VBO,4.445924,51.903781
Westkousdijk,98,,,3029CS,Rotterdam,Rotterdam,Zuid-Holland,VBO,4.445924,51.903781
Westkousdijk,100,,,3029CS,Rotterdam,Rotterdam,Zuid-Holland,VBO,4.445924,51.903781
Westkousdijk,102,,,3029CS,Rotterdam,Rotterdam,Zuid-Holland,VBO,4.445924,51.903781
Westkousdijk,104,,,3029CS,Rotterdam,Rotterdam,Zuid-Holland,VBO,4.445924,51.903781
Westkousdijk,106,,,3029CS,Rotterdam,Rotterdam,Zuid-Holland,VBO,4.445793,51.903831
Westkousdijk,108,,,3029CT,Rotterdam,Rotterdam,Zuid-Holland,VBO,4.445491,51.903878
Westkousdijk,110,,,3029CT,Rotterdam,Rotterdam,Zuid-Holland,VBO,4.445357,51.903853
Westkousdijk,112,,,3029CT,Rotterdam,Rotterdam,Zuid-Holland,VBO,4.445357,51.903853
Westkousdijk,114,,,3029CT,Rotterdam,Rotterdam,Zuid-Holland,VBO,4.445357,51.903853
Westkousdijk,116,,,3029CT,Rotterdam,Rotterdam,Zuid-Holland,VBO,4.445357,51.903853
Westkousdijk,118,,,3029CT,Rotterdam,Rotterdam,Zuid-Holland,VBO,4.445357,51.903853
Westkousdijk,120,,,3029CT,Rotterdam,Rotterdam,Zuid-Holland,VBO,4.445357,51.903853
Westkousdijk,122,,,3029CT,Rotterdam,Rotterdam,Zuid-Holland,VBO,4.445357,51.903853
Westkousdijk,124,,,3029CT,Rotterdam,Rotterdam,Zuid-Holland,VBO,4.445357,51.903853
Westkousdijk,126,,,3029CT,Rotterdam,Rotterdam,Zuid-Holland,VBO,4.445357,51.903853
Westkousdijk,128,,,3029CT,Rotterdam,Rotterdam,Zuid-Holland,VBO,4.445357,51.903853
Westkousdijk,130,,,3029CT,Rotterdam,Rotterdam,Zuid-Holland,VBO,4.445357,51.903853
Westkousdijk,132,,,3029CT,Rotterdam,Rotterdam,Zuid-Holland,VBO,4.445357,51.903853
Westkousdijk,134,,,3029CT,Rotterdam,Rotterdam,Zuid-Holland,VBO,4.445357,51.903853
Westkousdijk,136,,,3029CT,Rotterdam,Rotterdam,Zuid-Holland,VBO,4.445357,51.903853
Westkousdijk,138,,,3029CT,Rotterdam,Rotterdam,Zuid-Holland,VBO,4.445357,51.903853
Westkousdijk,140,,,3029CT,Rotterdam,Rotterdam,Zuid-Holland,VBO,4.445357,51.903853
Westkousdijk,142,,,3029CT,Rotterdam,Rotterdam,Zuid-Holland,VBO,4.445357,51.903853
Westkousdijk,144,,,3029CT,Rotterdam,Rotterdam,Zuid-Holland,VBO,4.445357,51.903853
Westkousdijk,146,,,3029CT,Rotterdam,Rotterdam,Zuid-Holland,VBO,4.445357,51.903853
Westkousdijk,148,,,3029CT,Rotterdam,Rotterdam,Zuid-Holland,VBO,4.445357,51.903853
Westkousdijk,150,,,3029CT,Rotterdam,Rotterdam,Zuid-Holland,VBO,4.445244,51.903910
Westkousdijk,152,,,3029CT,Rotterdam,Rotterdam,Zuid-Holland,VBO,4.445145,51.903925
Westkousdijk,154,,,3029CT,Rotterdam,Rotterdam,Zuid-Holland,VBO,4.445050,51.903938
Westkousdijk,156,,,3029CT,Rotterdam,Rotterdam,Zuid-Holland,VBO,4.444956,51.903951
Westkousdijk,158,,,3029CT,Rotterdam,Rotterdam,Zuid-Holland,VBO,4.444844,51.903967
Westkousdijk,160,,,3029CT,Rotterdam,Rotterdam,Zuid-Holland,VBO,4.444692,51.903949
Westkousdijk,162,,,3029CT,Rotterdam,Rotterdam,Zuid-Holland,VBO,4.444692,51.903949
Westkousdijk,164,,,3029CT,Rotterdam,Rotterdam,Zuid-Holland,VBO,4.444692,51.903949
Westkousdijk,166,,,3029CT,Rotterdam,Rotterdam,Zuid-Holland,VBO,4.444692,51.903949
Westkousdijk,168,,,3029CT,Rotterdam,Rotterdam,Zuid-Holland,VBO,4.444692,51.903949
Westkousdijk,170,,,3029CT,Rotterdam,Rotterdam,Zuid-Holland,VBO,4.444692,51.903949
Westkousdijk,172,,,3029CT,Rotterdam,Rotterdam,Zuid-Holland,VBO,4.444692,51.903949
Westkousdijk,174,,,3029CT,Rotterdam,Rotterdam,Zuid-Holland,VBO,4.444692,51.903949
Westkousdijk,176,,,3029CT,Rotterdam,Rotterdam,Zuid-Holland,VBO,4.444692,51.903949
Westkousdijk,178,,,3029CT,Rotterdam,Rotterdam,Zuid-Holland,VBO,4.444692,51.903949
Westkousdijk,180,,,3029CT,Rotterdam,Rotterdam,Zuid-Holland,VBO,4.444692,51.903949
Westkousdijk,182,,,3029CT,Rotterdam,Rotterdam,Zuid-Holland,VBO,4.444692,51.903949
Westkousdijk,184,,,3029CT,Rotterdam,Rotterdam,Zuid-Holland,VBO,4.444692,51.903949
Westkousdijk,186,,,3029CT,Rotterdam,Rotterdam,Zuid-Holland,VBO,4.444692,51.903949
Westkousdijk,188,,,3029CT,Rotterdam,Rotterdam,Zuid-Holland,VBO,4.444692,51.903949
Westkousdijk,190,,,3029CT,Rotterdam,Rotterdam,Zuid-Holland,VBO,4.444692,51.903949
Westkousdijk,192,,,3029CT,Rotterdam,Rotterdam,Zuid-Holland,VBO,4.444692,51.903949
Japarastraat,2,,,3029NA,Rotterdam,Rotterdam,Zuid-Holland,VBO,4.447626,51.903343
Japarastraat,4,,,3029NA,Rotterdam,Rotterdam,Zuid-Holland,VBO,4.447626,51.903343
Japarastraat,1,,,3029NB,Rotterdam,Rotterdam,Zuid-Holland,VBO,4.446532,51.903555
Japarastraat,3,,,3029NB,Rotterdam,Rotterdam,Zuid-Holland,VBO,4.446532,51.903555
Japarastraat,5,,,3029NB,Rotterdam,Rotterdam,Zuid-Holland,VBO,4.446532,51.903555
Japarastraat,7,,,3029NB,Rotterdam,Rotterdam,Zuid-Holland,VBO,4.446532,51.903555
Japarastraat,9,,,3029NB,Rotterdam,Rotterdam,Zuid-Holland,VBO,4.446532,51.903555
Japarastraat,11,,,3029NB,Rotterdam,Rotterdam,Zuid-Holland,VBO,4.446532,51.903555
Japarastraat,13,,,3029NB,Rotterdam,Rotterdam,Zuid-Holland,VBO,4.446532,51.903555
Japarastraat,15,,,3029NB,Rotterdam,Rotterdam,Zuid-Holland,VBO,4.446532,51.903555
Japarastraat,17,,,3029NB,Rotterdam,Rotterdam,Zuid-Holland,VBO,4.446483,51.903418
Japarastraat,19,,,3029NB,Rotterdam,Rotterdam,Zuid-Holland,VBO,4.446483,51.903418
Japarastraat,21,,,3029NB,Rotterdam,Rotterdam,Zuid-Holland,VBO,4.446483,51.903418
Japarastraat,23,,,3029NB,Rotterdam,Rotterdam,Zuid-Holland,VBO,4.446483,51.903418
Japarastraat,25,,,3029NB,Rotterdam,Rotterdam,Zuid-Holland,VBO,4.446483,51.903418
Japarastraat,27,,,3029NB,Rotterdam,Rotterdam,Zuid-Holland,VBO,4.446483,51.903418
Japarastraat,29,,,3029NB,Rotterdam,Rotterdam,Zuid-Holland,VBO,4.446483,51.903418
Japarastraat,31,,,3029NB,Rotterdam,Rotterdam,Zuid-Holland,VBO,4.446415,51.903227
Japarastraat,33,,,3029NB,Rotterdam,Rotterdam,Zuid-Holland,VBO,4.446415,51.903227
Japarastraat,35,,,3029NB,Rotterdam,Rotterdam,Zuid-Holland,VBO,4.446415,51.903227
Japarastraat,37,,,3029NB,Rotterdam,Rotterdam,Zuid-Holland,VBO,4.446415,51.903227
Japarastraat,39,,,3029NB,Rotterdam,Rotterdam,Zuid-Holland,VBO,4.446415,51.903227
Japarastraat,41,,,3029NB,Rotterdam,Rotterdam,Zuid-Holland,VBO,4.446415,51.903227
Japarastraat,43,,,3029NB,Rotterdam,Rotterdam,Zuid-Holland,VBO,4.446415,51.903227
Japarastraat,45,,,3029NB,Rotterdam,Rotterdam,Zuid-Holland,VBO,4.446364,51.903084
Japarastraat,47,,,3029NB,Rotterdam,Rotterdam,Zuid-Holland,VBO,4.446364,51.903084
Japarastraat,49,,,3029NB,Rotterdam,Rotterdam,Zuid-Holland,VBO,4.446364,51.903084
Japarastraat,51,,,3029NB,Rotterdam,Rotterdam,Zuid-Holland,VBO,4.446364,51.903084
Japarastraat,53,,,3029NB,Rotterdam,Rotterdam,Zuid-Holland,VBO,4.446364,51.903084
Japarastraat,55,,,3029NB,Rotterdam,Rotterdam,Zuid-Holland,VBO,4.446364,51.903084
Japarastraat,57,,,3029NB,Rotterdam,Rotterdam,Zuid-Holland,VBO,4.446364,51.903084
Japarastraat,59,,,3029NB,Rotterdam,Rotterdam,Zuid-Holland,VBO,4.446364,51.903084
Japarastraat,61,,,3029NB,Rotterdam,Rotterdam,Zuid-Holland,VBO,4.446310,51.902945
Japarastraat,63,,,3029NB,Rotterdam,Rotterdam,Zuid-Holland,VBO,4.446310,51.902945
Japarastraat,65,,,3029NB,Rotterdam,Rotterdam,Zuid-Holland,VBO,4.446310,51.902945
Japarastraat,67,,,3029NB,Rotterdam,Rotterdam,Zuid-Holland,VBO,4.446310,51.902945
Japarastraat,69,,,3029NB,Rotterdam,Rotterdam,Zuid-Holland,VBO,4.446310,51.902945
Japarastraat,71,,,3029NB,Rotterdam,Rotterdam,Zuid-Holland,VBO,4.446310,51.902945
Japarastraat,73,,,3029NC,Rotterdam,Rotterdam,Zuid-Holland,VBO,4.446310,51.902945
Japarastraat,75,,,3029NC,Rotterdam,Rotterdam,Zuid-Holland,VBO,4.446310,51.902945
Japarastraat,77,,,3029NC,Rotterdam,Rotterdam,Zuid-Holland,VBO,4.446185,51.902816
Japarastraat,79,,,3029NC,Rotterdam,Rotterdam,Zuid-Holland,VBO,4.446185,51.902816
Japarastraat,81,,,3029NC,Rotterdam,Rotterdam,Zuid-Holland,VBO,4.446185,51.902816
Japarastraat,83,,,3029NC,Rotterdam,Rotterdam,Zuid-Holland,VBO,4.446185,51.902816
Japarastraat,85,,,3029NC,Rotterdam,Rotterdam,Zuid-Holland,VBO,4.446185,51.902816
Japarastraat,87,,,3029NC,Rotterdam,Rotterdam,Zuid-Holland,VBO,4.446185,51.902816
Japarastraat,89,,,3029NC,Rotterdam,Rotterdam,Zuid-Holland,VBO,4.446185,51.902816
Japarastraat,91,,,3029NC,Rotterdam,Rotterdam,Zuid-Holland,VBO,4.446185,51.902816
Japarastraat,93,,,3029NC,Rotterdam,Rotterdam,Zuid-Holland,VBO,4.446185,51.902816
Japarastraat,95,,,3029NC,Rotterdam,Rotterdam,Zuid-Holland,VBO,4.446185,51.902816
Japarastraat,97,,,3029NC,Rotterdam,Rotterdam,Zuid-Holland,VBO,4.446185,51.902816
Japarastraat,99,,,3029NC,Rotterdam,Rotterdam,Zuid-Holland,VBO,4.446185,51.902816
Japarastraat,101,,,3029NC,Rotterdam,Rotterdam,Zuid-Holland,VBO,4.446185,51.902816
Japarastraat,103,,,3029NC,Rotterdam,Rotterdam,Zuid-Holland,VBO,4.446185,51.902816
Japarastraat,105,,,3029NC,Rotterdam,Rotterdam,Zuid-Holland,VBO,4.446185,51.902816
Japarastraat,107,,,3029NC,Rotterdam,Rotterdam,Zuid-Holland,VBO,4.446185,51.902816
Japarastraat,109,,,3029NC,Rotterdam,Rotterdam,Zuid-Holland,VBO,4.446185,51.902816
Japarastraat,111,,,3029NC,Rotterdam,Rotterdam,Zuid-Holland,VBO,4.446185,51.902816
Japarastraat,113,,,3029NC,Rotterdam,Rotterdam,Zuid-Holland,VBO,4.446185,51.902816
Japarastraat,115,,,3029NC,Rotterdam,Rotterdam,Zuid-Holland,VBO,4.446185,51.902816
Japarastraat,117,,,3029NC,Rotterdam,Rotterdam,Zuid-Holland,VBO,4.446185,51.902816
Japarastraat,119,,,3029NC,Rotterdam,Rotterdam,Zuid-Holland,VBO,4.446185,51.902816
Japarastraat,121,,,3029NC,Rotterdam,Rotterdam,Zuid-Holland,VBO,4.446185,51.902816
Japarastraat,123,,,3029NC,Rotterdam,Rotterdam,Zuid-Holland,VBO,4.446185,51.902816
Japarastraat,125,,,3029NC,Rotterdam,Rotterdam,Zuid-Holland,VBO,4.446185,51.902816
Japarastraat,127,,,3029NC,Rotterdam,Rotterdam,Zuid-Holland,VBO,4.446185,51.902816
Japarastraat,129,,,3029NC,Rotterdam,Rotterdam,Zuid-Holland,VBO,4.446185,51.902816
Japarastraat,131,,,3029NC,Rotterdam,Rotterdam,Zuid-Holland,VBO,4.446185,51.902816
Japarastraat,133,,,3029NC,Rotterdam,Rotterdam,Zuid-Holland,VBO,4.446185,51.902816
Japarastraat,135,,,3029NC,Rotterdam,Rotterdam,Zuid-Holland,VBO,4.446185,51.902816
Japarastraat,137,,,3029NC,Rotterdam,Rotterdam,Zuid-Holland,VBO,4.446185,51.902816
Japarastraat,139,,,3029NC,Rotterdam,Rotterdam,Zuid-Holland,VBO,4.446185,51.902816
Japarastraat,141,,,3029NC,Rotterdam,Rotterdam,Zuid-Holland,VBO,4.446185,51.902816
Japarastraat,143,,,3029NC,Rotterdam,Rotterdam,Zuid-Holland,VBO,4.446185,51.902816
Japarastraat,145,,,3029NC,Rotterdam,Rotterdam,Zuid-Holland,VBO,4.446185,51.902816
Japarastraat,147,,,3029NC,Rotterdam,Rotterdam,Zuid-Holland,VBO,4.446185,51.902816
Japarastraat,149,,,3029NC,Rotterdam,Rotterdam,Zuid-Holland,VBO,4.446185,51.902816
Japarastraat,151,,,3029NC,Rotterdam,Rotterdam,Zuid-Holland,VBO,4.446185,51.902816
Japarastraat,153,,,3029NC,Rotterdam,Rotterdam,Zuid-Holland,VBO,4.446185,51.902816
Japarastraat,155,,,3029NC,Rotterdam,Rotterdam,Zuid-Holland,VBO,4.446185,51.902816
Japarastraat,157,,,3029NC,Rotterdam,Rotterdam,Zuid-Holland,VBO,4.446185,51.902816
Japarastraat,159,,,3029NC,Rotterdam,Rotterdam,Zuid-Holland,VBO,4.446185,51.902816
Japarastraat,161,,,3029NC,Rotterdam,Rotterdam,Zuid-Holland,VBO,4.446185,51.902816
Japarastraat,163,,,3029NC,Rotterdam,Rotterdam,Zuid-Holland,VBO,4.446185,51.902816
Sibajakstraat,1,,,3029ND,Rotterdam,Rotterdam,Zuid-Holland,VBO,4.445301,51.903733
Sibajakstraat,3,,,3029ND,Rotterdam,Rotterdam,Zuid-Holland,VBO,4.445301,51.903733
Sibajakstraat,5,,,3029ND,Rotterdam,Rotterdam,Zuid-Holland,VBO,4.445301,51.903733
Sibajakstraat,7,,,3029ND,Rotterdam,Rotterdam,Zuid-Holland,VBO,4.445301,51.903733
Sibajakstraat,9,,,3029ND,Rotterdam,Rotterdam,Zuid-Holland,VBO,4.445301,51.903733
Sibajakstraat,11,,,3029ND,Rotterdam,Rotterdam,Zuid-Holland,VBO,4.445301,51.903733
Sibajakstraat,13,,,3029ND,Rotterdam,Rotterdam,Zuid-Holland,VBO,4.445301,51.903733
Sibajakstraat,15,,,3029ND,Rotterdam,Rotterdam,Zuid-Holland,VBO,4.445301,51.903733
Sibajakstraat,17,,,3029ND,Rotterdam,Rotterdam,Zuid-Holland,VBO,4.445247,51.903590
Sibajakstraat,19,,,3029ND,Rotterdam,Rotterdam,Zuid-Holland,VBO,4.445247,51.903590
Sibajakstraat,21,,,3029ND,Rotterdam,Rotterdam,Zuid-Holland,VBO,4.445247,51.903590
Sibajakstraat,23,,,3029ND,Rotterdam,Rotterdam,Zuid-Holland,VBO,4.445247,51.903590
Sibajakstraat,25,,,3029ND,Rotterdam,Rotterdam,Zuid-Holland,VBO,4.445247,51.903590
Sibajakstraat,27,,,3029ND,Rotterdam,Rotterdam,Zuid-Holland,VBO,4.445247,51.903590
Sibajakstraat,29,,,3029ND,Rotterdam,Rotterdam,Zuid-Holland,VBO,4.445247,51.903590
Sibajakstraat,31,,,3029ND,Rotterdam,Rotterdam,Zuid-Holland,VBO,4.445178,51.903401
Sibajakstraat,33,,,3029ND,Rotterdam,Rotterdam,Zuid-Holland,VBO,4.445178,51.903401
Sibajakstraat,35,,,3029ND,Rotterdam,Rotterdam,Zuid-Holland,VBO,4.445178,51.903401
Sibajakstraat,37,,,3029ND,Rotterdam,Rotterdam,Zuid-Holland,VBO,4.445178,51.903401
Sibajakstraat,39,,,3029ND,Rotterdam,Rotterdam,Zuid-Holland,VBO,4.445178,51.903401
Sibajakstraat,41,,,3029ND,Rotterdam,Rotterdam,Zuid-Holland,VBO,4.445178,51.903401
Sibajakstraat,43,,,3029ND,Rotterdam,Rotterdam,Zuid-Holland,VBO,4.445178,51.903401
Sibajakstraat,45,,,3029ND,Rotterdam,Rotterdam,Zuid-Holland,VBO,4.445126,51.903259
Sibajakstraat,47,,,3029ND,Rotterdam,Rotterdam,Zuid-Holland,VBO,4.445126,51.903259
Sibajakstraat,49,,,3029ND,Rotterdam,Rotterdam,Zuid-Holland,VBO,4.445126,51.903259
Sibajakstraat,51,,,3029ND,Rotterdam,Rotterdam,Zuid-Holland,VBO,4.445126,51.903259
Sibajakstraat,53,,,3029ND,Rotterdam,Rotterdam,Zuid-Holland,VBO,4.445126,51.903259
Sibajakstraat,55,,,3029ND,Rotterdam,Rotterdam,Zuid-Holland,VBO,4.445126,51.903259
Sibajakstraat,57,,,3029ND,Rotterdam,Rotterdam,Zuid-Holland,VBO,4.445126,51.903259
Sibajakstraat,59,,,3029ND,Rotterdam,Rotterdam,Zuid-Holland,VBO,4.445126,51.903259
Sibajakstraat,61,,,3029ND,Rotterdam,Rotterdam,Zuid-Holland,VBO,4.445075,51.903118
Sibajakstraat,63,,,3029ND,Rotterdam,Rotterdam,Zuid-Holland,VBO,4.445075,51.903118
Sibajakstraat,65,,,3029ND,Rotterdam,Rotterdam,Zuid-Holland,VBO,4.445075,51.903118
Sibajakstraat,67,,,3029ND,Rotterdam,Rotterdam,Zuid-Holland,VBO,4.445075,51.903118
Sibajakstraat,69,,,3029ND,Rotterdam,Rotterdam,Zuid-Holland,VBO,4.445075,51.903118
Sibajakstraat,71,,,3029ND,Rotterdam,Rotterdam,Zuid-Holland,VBO,4.445075,51.903118
Sibajakstraat,73,,,3029NE,Rotterdam,Rotterdam,Zuid-Holland,VBO,4.445075,51.903118
Sibajakstraat,75,,,3029NE,Rotterdam,Rotterdam,Zuid-Holland,VBO,4.445075,51.903118
Sibajakstraat,77,,,3029NE,Rotterdam,Rotterdam,Zuid-Holland,VBO,4.444951,51.902990
Sibajakstraat,79,,,3029NE,Rotterdam,Rotterdam,Zuid-Holland,VBO,4.444951,51.902990
Sibajakstraat,81,,,3029NE,Rotterdam,Rotterdam,Zuid-Holland,VBO,4.444951,51.902990
Sibajakstraat,83,,,3029NE,Rotterdam,Rotterdam,Zuid-Holland,VBO,4.444951,51.902990
Sibajakstraat,85,,,3029NE,Rotterdam,Rotterdam,Zuid-Holland,VBO,4.444951,51.902990
Sibajakstraat,87,,,3029NE,Rotterdam,Rotterdam,Zuid-Holland,VBO,4.444951,51.902990
Sibajakstraat,89,,,3029NE,Rotterdam,Rotterdam,Zuid-Holland,VBO,4.444951,51.902990
Sibajakstraat,91,,,3029NE,Rotterdam,Rotterdam,Zuid-Holland,VBO,4.444951,51.902990
Sibajakstraat,93,,,3029NE,Rotterdam,Rotterdam,Zuid-Holland,VBO,4.444951,51.902990
Sibajakstraat,95,,,3029NE,Rotterdam,Rotterdam,Zuid-Holland,VBO,4.444951,51.902990
Sibajakstraat,97,,,3029NE,Rotterdam,Rotterdam,Zuid-Holland,VBO,4.444951,51.902990
Sibajakstraat,99,,,3029NE,Rotterdam,Rotterdam,Zuid-Holland,VBO,4.444951,51.902990
Sibajakstraat,101,,,3029NE,Rotterdam,Rotterdam,Zuid-Holland,VBO,4.444951,51.902990
Sibajakstraat,103,,,3029NE,Rotterdam,Rotterdam,Zuid-Holland,VBO,4.444951,51.902990
Sibajakstraat,105,,,3029NE,Rotterdam,Rotterdam,Zuid-Holland,VBO,4.444951,51.902990
Sibajakstraat,107,,,3029NE,Rotterdam,Rotterdam,Zuid-Holland,VBO,4.444951,51.902990
Sibajakstraat,109,,,3029NE,Rotterdam,Rotterdam,Zuid-Holland,VBO,4.444951,51.902990
Sibajakstraat,111,,,3029NE,Rotterdam,Rotterdam,Zuid-Holland,VBO,4.444951,51.902990
Sibajakstraat,113,,,3029NE,Rotterdam,Rotterdam,Zuid-Holland,VBO,4.444951,51.902990
Sibajakstraat,115,,,3029NE,Rotterdam,Rotterdam,Zuid-Holland,VBO,4.444951,51.902990
Sibajakstraat,117,,,3029NE,Rotterdam,Rotterdam,Zuid-Holland,VBO,4.444951,51.902990
Sibajakstraat,119,,,3029NE,Rotterdam,Rotterdam,Zuid-Holland,VBO,4.444951,51.902990
Sibajakstraat,121,,,3029NE,Rotterdam,Rotterdam,Zuid-Holland,VBO,4.444951,51.902990
Sibajakstraat,123,,,3029NE,Rotterdam,Rotterdam,Zuid-Holland,VBO,4.444951,51.902990
Sibajakstraat,125,,,3029NE,Rotterdam,Rotterdam,Zuid-Holland,VBO,4.444951,51.902990
Sibajakstraat,127,,,3029NE,Rotterdam,Rotterdam,Zuid-Holland,VBO,4.444951,51.902990
Sibajakstraat,129,,,3029NE,Rotterdam,Rotterdam,Zuid-Holland,VBO,4.444951,51.902990
Sibajakstraat,131,,,3029NE,Rotterdam,Rotterdam,Zuid-Holland,VBO,4.444951,51.902990
Sibajakstraat,133,,,3029NE,Rotterdam,Rotterdam,Zuid-Holland,VBO,4.444951,51.902990
Sibajakstraat,135,,,3029NE,Rotterdam,Rotterdam,Zuid-Holland,VBO,4.444951,51.902990
Sibajakstraat,137,,,3029NE,Rotterdam,Rotterdam,Zuid-Holland,VBO,4.444951,51.902990
Sibajakstraat,139,,,3029NE,Rotterdam,Rotterdam,Zuid-Holland,VBO,4.444951,51.902990
Sibajakstraat,141,,,3029NE,Rotterdam,Rotterdam,Zuid-Holland,VBO,4.444951,51.902990
Sibajakstraat,143,,,3029NE,Rotterdam,Rotterdam,Zuid-Holland,VBO,4.444951,51.902990
Sibajakstraat,145,,,3029NE,Rotterdam,Rotterdam,Zuid-Holland,VBO,4.444951,51.902990
Sibajakstraat,147,,,3029NE,Rotterdam,Rotterdam,Zuid-Holland,VBO,4.444951,51.902990
Sibajakstraat,149,,,3029NE,Rotterdam,Rotterdam,Zuid-Holland,VBO,4.444951,51.902990
Sibajakstraat,151,,,3029NE,Rotterdam,Rotterdam,Zuid-Holland,VBO,4.444951,51.902990
Sibajakstraat,153,,,3029NE,Rotterdam,Rotterdam,Zuid-Holland,VBO,4.444951,51.902990
Sibajakstraat,155,,,3029NE,Rotterdam,Rotterdam,Zuid-Holland,VBO,4.444951,51.902990
Sibajakstraat,157,,,3029NE,Rotterdam,Rotterdam,Zuid-Holland,VBO,4.444951,51.902990
Sibajakstraat,159,,,3029NE,Rotterdam,Rotterdam,Zuid-Holland,VBO,4.444951,51.902990
Sibajakstraat,161,,,3029NE,Rotterdam,Rotterdam,Zuid-Holland,VBO,4.444951,51.902990
Sibajakstraat,163,,,3029NE,Rotterdam,Rotterdam,Zuid-Holland,VBO,4.444951,51.902990
Sibajakstraat,2,,,3029NG,Rotterdam,Rotterdam,Zuid-Holland,VBO,4.445781,51.903662
Sibajakstraat,4,,,3029NG,Rotterdam,Rotterdam,Zuid-Holland,VBO,4.445781,51.903662
Sibajakstraat,6,,,3029NG,Rotterdam,Rotterdam,Zuid-Holland,VBO,4.445781,51.903662
Sibajakstraat,8,,,3029NG,Rotterdam,Rotterdam,Zuid-Holland,VBO,4.445781,51.903662
Sibajakstraat,10,,,3029NG,Rotterdam,Rotterdam,Zuid-Holland,VBO,4.445781,51.903662
Sibajakstraat,12,,,3029NG,Rotterdam,Rotterdam,Zuid-Holland,VBO,4.445781,51.903662
Sibajakstraat,14,,,3029NG,Rotterdam,Rotterdam,Zuid-Holland,VBO,4.445781,51.903662
Sibajakstraat,16,,,3029NG,Rotterdam,Rotterdam,Zuid-Holland,VBO,4.445781,51.903662
Sibajakstraat,18,,,3029NG,Rotterdam,Rotterdam,Zuid-Holland,VBO,4.445728,51.903522
Sibajakstraat,20,,,3029NG,Rotterdam,Rotterdam,Zuid-Holland,VBO,4.445728,51.903522
Sibajakstraat,22,,,3029NG,Rotterdam,Rotterdam,Zuid-Holland,VBO,4.445728,51.903522
Sibajakstraat,24,,,3029NG,Rotterdam,Rotterdam,Zuid-Holland,VBO,4.445728,51.903522
Sibajakstraat,26,,,3029NG,Rotterdam,Rotterdam,Zuid-Holland,VBO,4.445728,51.903522
Sibajakstraat,28,,,3029NG,Rotterdam,Rotterdam,Zuid-Holland,VBO,4.445728,51.903522
Sibajakstraat,30,,,3029NG,Rotterdam,Rotterdam,Zuid-Holland,VBO,4.445728,51.903522
Sibajakstraat,32,,,3029NG,Rotterdam,Rotterdam,Zuid-Holland,VBO,4.445658,51.903331
Sibajakstraat,34,,,3029NG,Rotterdam,Rotterdam,Zuid-Holland,VBO,4.445658,51.903331
Sibajakstraat,36,,,3029NG,Rotterdam,Rotterdam,Zuid-Holland,VBO,4.445658,51.903331
Sibajakstraat,38,,,3029NG,Rotterdam,Rotterdam,Zuid-Holland,VBO,4.445658,51.903331
Sibajakstraat,40,,,3029NG,Rotterdam,Rotterdam,Zuid-Holland,VBO,4.445658,51.903331
Sibajakstraat,42,,,3029NG,Rotterdam,Rotterdam,Zuid-Holland,VBO,4.445658,51.903331
Sibajakstraat,44,,,3029NG,Rotterdam,Rotterdam,Zuid-Holland,VBO,4.445658,51.903331
Sibajakstraat,46,,,3029NG,Rotterdam,Rotterdam,Zuid-Holland,VBO,4.445606,51.903189
Sibajakstraat,48,,,3029NG,Rotterdam,Rotterdam,Zuid-Holland,VBO,4.445606,51.903189
Sibajakstraat,50,,,3029NG,Rotterdam,Rotterdam,Zuid-Holland,VBO,4.445606,51.903189
Sibajakstraat,52,,,3029NG,Rotterdam,Rotterdam,Zuid-Holland,VBO,4.445606,51.903189
Sibajakstraat,54,,,3029NG,Rotterdam,Rotterdam,Zuid-Holland,VBO,4.445606,51.903189
Sibajakstraat,56,,,3029NG,Rotterdam,Rotterdam,Zuid-Holland,VBO,4.445606,51.903189
Sibajakstraat,58,,,3029NG,Rotterdam,Rotterdam,Zuid-Holland,VBO,4.445606,51.903189
Sibajakstraat,60,,,3029NG,Rotterdam,Rotterdam,Zuid-Holland,VBO,4.445606,51.903189
Sibajakstraat,62,,,3029NG,Rotterdam,Rotterdam,Zuid-Holland,VBO,4.445554,51.903050
Sibajakstraat,64,,,3029NG,Rotterdam,Rotterdam,Zuid-Holland,VBO,4.445554,51.903050
Sibajakstraat,66,,,3029NG,Rotterdam,Rotterdam,Zuid-Holland,VBO,4.445554,51.903050
Sibajakstraat,68,,,3029NG,Rotterdam,Rotterdam,Zuid-Holland,VBO,4.445554,51.903050
Sibajakstraat,70,,,3029NG,Rotterdam,Rotterdam,Zuid-Holland,VBO,4.445554,51.903050
Sibajakstraat,72,,,3029NG,Rotterdam,Rotterdam,Zuid-Holland,VBO,4.445554,51.903050
Sibajakstraat,74,,,3029NH,Rotterdam,Rotterdam,Zuid-Holland,VBO,4.445554,51.903050
Sibajakstraat,76,,,3029NH,Rotterdam,Rotterdam,Zuid-Holland,VBO,4.445554,51.903050
Sibajakstraat,78,,,3029NH,Rotterdam,Rotterdam,Zuid-Holland,VBO,4.445556,51.902904
Sibajakstraat,80,,,3029NH,Rotterdam,Rotterdam,Zuid-Holland,VBO,4.445556,51.902904
Sibajakstraat,82,,,3029NH,Rotterdam,Rotterdam,Zuid-Holland,VBO,4.445556,51.902904
Sibajakstraat,84,,,3029NH,Rotterdam,Rotterdam,Zuid-Holland,VBO,4.445556,51.902904
Sibajakstraat,86,,,3029NH,Rotterdam,Rotterdam,Zuid-Holland,VBO,4.445556,51.902904
Sibajakstraat,88,,,3029NH,Rotterdam,Rotterdam,Zuid-Holland,VBO,4.445556,51.902904
Sibajakstraat,90,,,3029NH,Rotterdam,Rotterdam,Zuid-Holland,VBO,4.445556,51.902904
Sibajakstraat,92,,,3029NH,Rotterdam,Rotterdam,Zuid-Holland,VBO,4.445556,51.902904
Sibajakstraat,94,,,3029NH,Rotterdam,Rotterdam,Zuid-Holland,VBO,4.445556,51.902904
Sibajakstraat,96,,,3029NH,Rotterdam,Rotterdam,Zuid-Holland,VBO,4.445556,51.902904
Sibajakstraat,98,,,3029NH,Rotterdam,Rotterdam,Zuid-Holland,VBO,4.445556,51.902904
Sibajakstraat,100,,,3029NH,Rotterdam,Rotterdam,Zuid-Holland,VBO,4.445556,51.902904
Sibajakstraat,102,,,3029NH,Rotterdam,Rotterdam,Zuid-Holland,VBO,4.445556,51.902904
Sibajakstraat,104,,,3029NH,Rotterdam,Rotterdam,Zuid-Holland,VBO,4.445556,51.902904
Sibajakstraat,106,,,3029NH,Rotterdam,Rotterdam,Zuid-Holland,VBO,4.445556,51.902904
Sibajakstraat,108,,,3029NH,Rotterdam,Rotterdam,Zuid-Holland,VBO,4.445556,51.902904
Sibajakstraat,110,,,3029NH,Rotterdam,Rotterdam,Zuid-Holland,VBO,4.445556,51.902904
Sibajakstraat,112,,,3029NH,Rotterdam,Rotterdam,Zuid-Holland,VBO,4.445556,51.902904
Sibajakstraat,114,,,3029NH,Rotterdam,Rotterdam,Zuid-Holland,VBO,4.445556,51.902904
Sibajakstraat,116,,,3029NH,Rotterdam,Rotterdam,Zuid-Holland,VBO,4.445556,51.902904
Sibajakstraat,118,,,3029NH,Rotterdam,Rotterdam,Zuid-Holland,VBO,4.445556,51.902904
Sibajakstraat,120,,,3029NH,Rotterdam,Rotterdam,Zuid-Holland,VBO,4.445556,51.902904
Sibajakstraat,122,,,3029NH,Rotterdam,Rotterdam,Zuid-Holland,VBO,4.445556,51.902904
Sibajakstraat,124,,,3029NH,Rotterdam,Rotterdam,Zuid-Holland,VBO,4.445556,51.902904
Sibajakstraat,126,,,3029NH,Rotterdam,Rotterdam,Zuid-Holland,VBO,4.445556,51.902904
Sibajakstraat,128,,,3029NH,Rotterdam,Rotterdam,Zuid-Holland,VBO,4.445556,51.902904
Sibajakstraat,130,,,3029NH,Rotterdam,Rotterdam,Zuid-Holland,VBO,4.445556,51.902904
Sibajakstraat,132,,,3029NH,Rotterdam,Rotterdam,Zuid-Holland,VBO,4.445556,51.902904
Sibajakstraat,134,,,3029NH,Rotterdam,Rotterdam,Zuid-Holland,VBO,4.445556,51.902904
Sibajakstraat,136,,,3029NH,Rotterdam,Rotterdam,Zuid-Holland,VBO,4.445556,51.902904
Sibajakstraat,138,,,3029NH,Rotterdam,Rotterdam,Zuid-Holland,VBO,4.445556,51.902904
Sibajakstraat,140,,,3029NH,Rotterdam,Rotterdam,Zuid-Holland,VBO,4.445556,51.902904
Sibajakstraat,142,,,3029NH,Rotterdam,Rotterdam,Zuid-Holland,VBO,4.445556,51.902904
Sibajakstraat,144,,,3029NH,Rotterdam,Rotterdam,Zuid-Holland,VBO,4.445556,51.902904
Sibajakstraat,146,,,3029NH,Rotterdam,Rotterdam,Zuid-Holland,VBO,4.445556,51.902904
Sibajakstraat,148,,,3029NH,Rotterdam,Rotterdam,Zuid-Holland,VBO,4.445556,51.902904
Sibajakstraat,150,,,3029NH,Rotterdam,Rotterdam,Zuid-Holland,VBO,4.445556,51.902904
Sibajakstraat,152,,,3029NH,Rotterdam,Rotterdam,Zuid-Holland,VBO,4.445556,51.902904
Sibajakstraat,154,,,3029NH,Rotterdam,Rotterdam,Zuid-Holland,VBO,4.445556,51.902904
Sibajakstraat,156,,,3029NH,Rotterdam,Rotterdam,Zuid-Holland,VBO,4.445556,51.902904
Sibajakstraat,158,,,3029NH,Rotterdam,Rotterdam,Zuid-Holland,VBO,4.445556,51.902904
Sibajakstraat,160,,,3029NH,Rotterdam,Rotterdam,Zuid-Holland,VBO,4.445556,51.902904
Sibajakstraat,162,,,3029NH,Rotterdam,Rotterdam,Zuid-Holland,VBO,4.445556,51.902904
Sibajakstraat,164,,,3029NH,Rotterdam,Rotterdam,Zuid-Holland,VBO,4.445556,51.902904
Slamatstraat,2,,,3029NJ,Rotterdam,Rotterdam,Zuid-Holland,VBO,4.444550,51.903838
Slamatstraat,4,,,3029NJ,Rotterdam,Rotterdam,Zuid-Holland,VBO,4.444550,51.903838
Slamatstraat,6,,,3029NJ,Rotterdam,Rotterdam,Zuid-Holland,VBO,4.444550,51.903838
Slamatstraat,8,,,3029NJ,Rotterdam,Rotterdam,Zuid-Holland,VBO,4.444550,51.903838
Slamatstraat,10,,,3029NJ,Rotterdam,Rotterdam,Zuid-Holland,VBO,4.444550,51.903838
Slamatstraat,12,,,3029NJ,Rotterdam,Rotterdam,Zuid-Holland,VBO,4.444550,51.903838
Slamatstraat,14,,,3029NJ,Rotterdam,Rotterdam,Zuid-Holland,VBO,4.444550,51.903838
Slamatstraat,16,,,3029NJ,Rotterdam,Rotterdam,Zuid-Holland,VBO,4.444550,51.903838
Slamatstraat,18,,,3029NJ,Rotterdam,Rotterdam,Zuid-Holland,VBO,4.444497,51.903696
Slamatstraat,20,,,3029NJ,Rotterdam,Rotterdam,Zuid-Holland,VBO,4.444497,51.903696
Slamatstraat,22,,,3029NJ,Rotterdam,Rotterdam,Zuid-Holland,VBO,4.444497,51.903696
Slamatstraat,24,,,3029NJ,Rotterdam,Rotterdam,Zuid-Holland,VBO,4.444497,51.903696
Slamatstraat,26,,,3029NJ,Rotterdam,Rotterdam,Zuid-Holland,VBO,4.444497,51.903696
Slamatstraat,28,,,3029NJ,Rotterdam,Rotterdam,Zuid-Holland,VBO,4.444497,51.903696
Slamatstraat,30,,,3029NJ,Rotterdam,Rotterdam,Zuid-Holland,VBO,4.444497,51.903696
Slamatstraat,32,,,3029NJ,Rotterdam,Rotterdam,Zuid-Holland,VBO,4.444427,51.903507
Slamatstraat,34,,,3029NJ,Rotterdam,Rotterdam,Zuid-Holland,VBO,4.444427,51.903507
Slamatstraat,36,,,3029NJ,Rotterdam,Rotterdam,Zuid-Holland,VBO,4.444427,51.903507
Slamatstraat,38,,,3029NJ,Rotterdam,Rotterdam,Zuid-Holland,VBO,4.444427,51.903507
Slamatstraat,40,,,3029NJ,Rotterdam,Rotterdam,Zuid-Holland,VBO,4.444427,51.903507
Slamatstraat,42,,,3029NJ,Rotterdam,Rotterdam,Zuid-Holland,VBO,4.444427,51.903507
Slamatstraat,44,,,3029NJ,Rotterdam,Rotterdam,Zuid-Holland,VBO,4.444427,51.903507
Slamatstraat,46,,,3029NJ,Rotterdam,Rotterdam,Zuid-Holland,VBO,4.444376,51.903366
Slamatstraat,48,,,3029NJ,Rotterdam,Rotterdam,Zuid-Holland,VBO,4.444376,51.903366
Slamatstraat,50,,,3029NJ,Rotterdam,Rotterdam,Zuid-Holland,VBO,4.444376,51.903366
Slamatstraat,52,,,3029NJ,Rotterdam,Rotterdam,Zuid-Holland,VBO,4.444376,51.903366
Slamatstraat,54,,,3029NJ,Rotterdam,Rotterdam,Zuid-Holland,VBO,4.444376,51.903366
Slamatstraat,56,,,3029NJ,Rotterdam,Rotterdam,Zuid-Holland,VBO,4.444376,51.903366
Slamatstraat,58,,,3029NJ,Rotterdam,Rotterdam,Zuid-Holland,VBO,4.444376,51.903366
Slamatstraat,60,,,3029NJ,Rotterdam,Rotterdam,Zuid-Holland,VBO,4.444376,51.903366
Slamatstraat,62,,,3029NJ,Rotterdam,Rotterdam,Zuid-Holland,VBO,4.444322,51.903225
Slamatstraat,64,,,3029NJ,Rotterdam,Rotterdam,Zuid-Holland,VBO,4.444322,51.903225
Slamatstraat,66,,,3029NJ,Rotterdam,Rotterdam,Zuid-Holland,VBO,4.444322,51.903225
Slamatstraat,68,,,3029NJ,Rotterdam,Rotterdam,Zuid-Holland,VBO,4.444322,51.903225
Slamatstraat,70,,,3029NJ,Rotterdam,Rotterdam,Zuid-Holland,VBO,4.444322,51.903225
Slamatstraat,72,,,3029NJ,Rotterdam,Rotterdam,Zuid-Holland,VBO,4.444322,51.903225
Slamatstraat,74,,,3029NK,Rotterdam,Rotterdam,Zuid-Holland,VBO,4.444322,51.903225
Slamatstraat,76,,,3029NK,Rotterdam,Rotterdam,Zuid-Holland,VBO,4.444322,51.903225
Slamatstraat,78,,,3029NK,Rotterdam,Rotterdam,Zuid-Holland,VBO,4.444323,51.903076
Slamatstraat,80,,,3029NK,Rotterdam,Rotterdam,Zuid-Holland,VBO,4.444323,51.903076
Slamatstraat,82,,,3029NK,Rotterdam,Rotterdam,Zuid-Holland,VBO,4.444323,51.903076
Slamatstraat,84,,,3029NK,Rotterdam,Rotterdam,Zuid-Holland,VBO,4.444323,51.903076
Slamatstraat,86,,,3029NK,Rotterdam,Rotterdam,Zuid-Holland,VBO,4.444323,51.903076
Slamatstraat,88,,,3029NK,Rotterdam,Rotterdam,Zuid-Holland,VBO,4.444323,51.903076
Slamatstraat,90,,,3029NK,Rotterdam,Rotterdam,Zuid-Holland,VBO,4.444323,51.903076
Slamatstraat,92,,,3029NK,Rotterdam,Rotterdam,Zuid-Holland,VBO,4.444323,51.903076
Slamatstraat,94,,,3029NK,Rotterdam,Rotterdam,Zuid-Holland,VBO,4.444323,51.903076
Slamatstraat,96,,,3029NK,Rotterdam,Rotterdam,Zuid-Holland,VBO,4.444323,51.903076
Slamatstraat,98,,,3029NK,Rotterdam,Rotterdam,Zuid-Holland,VBO,4.444323,51.903076
Slamatstraat,100,,,3029NK,Rotterdam,Rotterdam,Zuid-Holland,VBO,4.444323,51.903076
Slamatstraat,102,,,3029NK,Rotterdam,Rotterdam,Zuid-Holland,VBO,4.444323,51.903076
Slamatstraat,104,,,3029NK,Rotterdam,Rotterdam,Zuid-Holland,VBO,4.444323,51.903076
Slamatstraat,106,,,3029NK,Rotterdam,Rotterdam,Zuid-Holland,VBO,4.444323,51.903076
Slamatstraat,108,,,3029NK,Rotterdam,Rotterdam,Zuid-Holland,VBO,4.444323,51.903076
Slamatstraat,110,,,3029NK,Rotterdam,Rotterdam,Zuid-Holland,VBO,4.444323,51.903076
Slamatstraat,112,,,3029NK,Rotterdam,Rotterdam,Zuid-Holland,VBO,4.444323,51.903076
Slamatstraat,114,,,3029NK,Rotterdam,Rotterdam,Zuid-Holland,VBO,4.444323,51.903076
Slamatstraat,116,,,3029NK,Rotterdam,Rotterdam,Zuid-Holland,VBO,4.444323,51.903076
Slamatstraat,118,,,3029NK,Rotterdam,Rotterdam,Zuid-Holland,VBO,4.444323,51.903076
Slamatstraat,120,,,3029NK,Rotterdam,Rotterdam,Zuid-Holland,VBO,4.444323,51.903076
Slamatstraat,122,,,3029NK,Rotterdam,Rotterdam,Zuid-Holland,VBO,4.444323,51.903076
Slamatstraat,124,,,3029NK,Rotterdam,Rotterdam,Zuid-Holland,VBO,4.444323,51.903076
Slamatstraat,126,,,3029NK,Rotterdam,Rotterdam,Zuid-Holland,VBO,4.444323,51.903076
Slamatstraat,128,,,3029NK,Rotterdam,Rotterdam,Zuid-Holland,VBO,4.444323,51.903076
Slamatstraat,130,,,3029NK,Rotterdam,Rotterdam,Zuid-Holland,VBO,4.444323,51.903076
Slamatstraat,132,,,3029NK,Rotterdam,Rotterdam,Zuid-Holland,VBO,4.444323,51.903076
Slamatstraat,134,,,3029NK,Rotterdam,Rotterdam,Zuid-Holland,VBO,4.444323,51.903076
Slamatstraat,136,,,3029NK,Rotterdam,Rotterdam,Zuid-Holland,VBO,4.444323,51.903076
Slamatstraat,138,,,3029NK,Rotterdam,Rotterdam,Zuid-Holland,VBO,4.444323,51.903076
Slamatstraat,140,,,3029NK,Rotterdam,Rotterdam,Zuid-Holland,VBO,4.444323,51.903076
Slamatstraat,142,,,3029NK,Rotterdam,Rotterdam,Zuid-Holland,VBO,4.444323,51.903076
Slamatstraat,144,,,3029NK,Rotterdam,Rotterdam,Zuid-Holland,VBO,4.444323,51.903076
Slamatstraat,146,,,3029NK,Rotterdam,Rotterdam,Zuid-Holland,VBO,4.444323,51.903076
Slamatstraat,148,,,3029NK,Rotterdam,Rotterdam,Zuid-Holland,VBO,4.444323,51.903076
Slamatstraat,150,,,3029NK,Rotterdam,Rotterdam,Zuid-Holland,VBO,4.444323,51.903076
Slamatstraat,152,,,3029NK,Rotterdam,Rotterdam,Zuid-Holland,VBO,4.444323,51.903076
Slamatstraat,154,,,3029NK,Rotterdam,Rotterdam,Zuid-Holland,VBO,4.444323,51.903076
Slamatstraat,156,,,3029NK,Rotterdam,Rotterdam,Zuid-Holland,VBO,4.444323,51.903076
Slamatstraat,158,,,3029NK,Rotterdam,Rotterdam,Zuid-Holland,VBO,4.444323,51.903076
Slamatstraat,160,,,3029NK,Rotterdam,Rotterdam,Zuid-Holland,VBO,4.444323,51.903076
Slamatstraat,162,,,3029NK,Rotterdam,Rotterdam,Zuid-Holland,VBO,4.444323,51.903076
Slamatstraat,164,,,3029NK,Rotterdam,Rotterdam,Zuid-Holland,VBO,4.444323,51.903076
Slamatstraat,3,,,3029NL,Rotterdam,Rotterdam,Zuid-Holland,VBO,4.444304,51.904403
Slamatstraat,5,,,3029NL,Rotterdam,Rotterdam,Zuid-Holland,VBO,4.444304,51.904403
Slamatstraat,7,,,3029NL,Rotterdam,Rotterdam,Zuid-Holland,VBO,4.444304,51.904403
Slamatstraat,9,,,3029NL,Rotterdam,Rotterdam,Zuid-Holland,VBO,4.444275,51.904244
Slamatstraat,11,,,3029NL,Rotterdam,Rotterdam,Zuid-Holland,VBO,4.444275,51.904244
Slamatstraat,13,,,3029NL,Rotterdam,Rotterdam,Zuid-Holland,VBO,4.444275,51.904244
Slamatstraat,15,,,3029NL,Rotterdam,Rotterdam,Zuid-Holland,VBO,4.444275,51.904244
Slamatstraat,17,,,3029NL,Rotterdam,Rotterdam,Zuid-Holland,VBO,4.444275,51.904244
Slamatstraat,19,,,3029NL,Rotterdam,Rotterdam,Zuid-Holland,VBO,4.444275,51.904244
Slamatstraat,21,,,3029NL,Rotterdam,Rotterdam,Zuid-Holland,VBO,4.444275,51.904244
Slamatstraat,23,,,3029NL,Rotterdam,Rotterdam,Zuid-Holland,VBO,4.444275,51.904244
Slamatstraat,25,,,3029NL,Rotterdam,Rotterdam,Zuid-Holland,VBO,4.444216,51.904127
Slamatstraat,27,,,3029NL,Rotterdam,Rotterdam,Zuid-Holland,VBO,4.444216,51.904127
Slamatstraat,29,,,3029NL,Rotterdam,Rotterdam,Zuid-Holland,VBO,4.444216,51.904127
Slamatstraat,31,,,3029NL,Rotterdam,Rotterdam,Zuid-Holland,VBO,4.444216,51.904127
Slamatstraat,33,,,3029NL,Rotterdam,Rotterdam,Zuid-Holland,VBO,4.444216,51.904127
Slamatstraat,35,,,3029NL,Rotterdam,Rotterdam,Zuid-Holland,VBO,4.444216,51.904127
Slamatstraat,37,,,3029NL,Rotterdam,Rotterdam,Zuid-Holland,VBO,4.444216,51.904127
Slamatstraat,39,,,3029NL,Rotterdam,Rotterdam,Zuid-Holland,VBO,4.444162,51.903980
Slamatstraat,41,,,3029NL,Rotterdam,Rotterdam,Zuid-Holland,VBO,4.444162,51.903980
Slamatstraat,43,,,3029NL,Rotterdam,Rotterdam,Zuid-Holland,VBO,4.444162,51.903980
Slamatstraat,45,,,3029NL,Rotterdam,Rotterdam,Zuid-Holland,VBO,4.444162,51.903980
Slamatstraat,47,,,3029NL,Rotterdam,Rotterdam,Zuid-Holland,VBO,4.444162,51.903980
Slamatstraat,49,,,3029NL,Rotterdam,Rotterdam,Zuid-Holland,VBO,4.444162,51.903980
Slamatstraat,51,,,3029NL,Rotterdam,Rotterdam,Zuid-Holland,VBO,4.444162,51.903980
Slamatstraat,53,,,3029NL,Rotterdam,Rotterdam,Zuid-Holland,VBO,4.444116,51.903860
Slamatstraat,55,,,3029NL,Rotterdam,Rotterdam,Zuid-Holland,VBO,4.444116,51.903860
Slamatstraat,57,,,3029NL,Rotterdam,Rotterdam,Zuid-Holland,VBO,4.444116,51.903860
Slamatstraat,59,,,3029NL,Rotterdam,Rotterdam,Zuid-Holland,VBO,4.444116,51.903860
Slamatstraat,61,,,3029NL,Rotterdam,Rotterdam,Zuid-Holland,VBO,4.444116,51.903860
Slamatstraat,63,,,3029NL,Rotterdam,Rotterdam,Zuid-Holland,VBO,4.444116,51.903860
Slamatstraat,65,,,3029NL,Rotterdam,Rotterdam,Zuid-Holland,VBO,4.444116,51.903860
Slamatstraat,67,,,3029NL,Rotterdam,Rotterdam,Zuid-Holland,VBO,4.444116,51.903860
Slamatstraat,69,,,3029NL,Rotterdam,Rotterdam,Zuid-Holland,VBO,4.444067,51.903727
Slamatstraat,71,,,3029NL,Rotterdam,Rotterdam,Zuid-Holland,VBO,4.444067,51.903727
Slamatstraat,73,,,3029NL,Rotterdam,Rotterdam,Zuid-Holland,VBO,4.444067,51.903727
Slamatstraat,75,,,3029NL,Rotterdam,Rotterdam,Zuid-Holland,VBO,4.444067,51.903727
Slamatstraat,77,,,3029NL,Rotterdam,Rotterdam,Zuid-Holland,VBO,4.444067,51.903727
Slamatstraat,79,,,3029NL,Rotterdam,Rotterdam,Zuid-Holland,VBO,4.444067,51.903727
Slamatstraat,81,,,3029NL,Rotterdam,Rotterdam,Zuid-Holland,VBO,4.444067,51.903727
Indrapoerastraat,1,,,3029NM,Rotterdam,Rotterdam,Zuid-Holland,VBO,4.443135,51.904560
Indrapoerastraat,3,,,3029NM,Rotterdam,Rotterdam,Zuid-Holland,VBO,4.443135,51.904560
Indrapoerastraat,5,,,3029NM,Rotterdam,Rotterdam,Zuid-Holland,VBO,4.443135,51.904560
Indrapoerastraat,7,,,3029NM,Rotterdam,Rotterdam,Zuid-Holland,VBO,4.443135,51.904560
Indrapoerastraat,9,,,3029NM,Rotterdam,Rotterdam,Zuid-Holland,VBO,4.443099,51.904406
Indrapoerastraat,11,,,3029NM,Rotterdam,Rotterdam,Zuid-Holland,VBO,4.443099,51.904406
Indrapoerastraat,13,,,3029NM,Rotterdam,Rotterdam,Zuid-Holland,VBO,4.443099,51.904406
Indrapoerastraat,15,,,3029NM,Rotterdam,Rotterdam,Zuid-Holland,VBO,4.443099,51.904406
Indrapoerastraat,17,,,3029NM,Rotterdam,Rotterdam,Zuid-Holland,VBO,4.443099,51.904406
Indrapoerastraat,19,,,3029NM,Rotterdam,Rotterdam,Zuid-Holland,VBO,4.443099,51.904406
Indrapoerastraat,21,,,3029NM,Rotterdam,Rotterdam,Zuid-Holland,VBO,4.443099,51.904406
Indrapoerastraat,23,,,3029NM,Rotterdam,Rotterdam,Zuid-Holland,VBO,4.443099,51.904406
Indrapoerastraat,25,,,3029NM,Rotterdam,Rotterdam,Zuid-Holland,VBO,4.443052,51.904295
Indrapoerastraat,27,,,3029NM,Rotterdam,Rotterdam,Zuid-Holland,VBO,4.443052,51.904295
Indrapoerastraat,29,,,3029NM,Rotterdam,Rotterdam,Zuid-Holland,VBO,4.443052,51.904295
Indrapoerastraat,31,,,3029NM,Rotterdam,Rotterdam,Zuid-Holland,VBO,4.443052,51.904295
Indrapoerastraat,33,,,3029NM,Rotterdam,Rotterdam,Zuid-Holland,VBO,4.443052,51.904295
Indrapoerastraat,35,,,3029NM,Rotterdam,Rotterdam,Zuid-Holland,VBO,4.443052,51.904295
Indrapoerastraat,37,,,3029NM,Rotterdam,Rotterdam,Zuid-Holland,VBO,4.443052,51.904295
Indrapoerastraat,39,,,3029NM,Rotterdam,Rotterdam,Zuid-Holland,VBO,4.442995,51.904139
Indrapoerastraat,41,,,3029NM,Rotterdam,Rotterdam,Zuid-Holland,VBO,4.442995,51.904139
Indrapoerastraat,43,,,3029NM,Rotterdam,Rotterdam,Zuid-Holland,VBO,4.442995,51.904139
Indrapoerastraat,45,,,3029NM,Rotterdam,Rotterdam,Zuid-Holland,VBO,4.442995,51.904139
Indrapoerastraat,47,,,3029NM,Rotterdam,Rotterdam,Zuid-Holland,VBO,4.442995,51.904139
Indrapoerastraat,49,,,3029NM,Rotterdam,Rotterdam,Zuid-Holland,VBO,4.442995,51.904139
Indrapoerastraat,51,,,3029NM,Rotterdam,Rotterdam,Zuid-Holland,VBO,4.442995,51.904139
Indrapoerastraat,53,,,3029NM,Rotterdam,Rotterdam,Zuid-Holland,VBO,4.442952,51.904024
Indrapoerastraat,55,,,3029NM,Rotterdam,Rotterdam,Zuid-Holland,VBO,4.442952,51.904024
Indrapoerastraat,57,,,3029NM,Rotterdam,Rotterdam,Zuid-Holland,VBO,4.442952,51.904024
Indrapoerastraat,59,,,3029NM,Rotterdam,Rotterdam,Zuid-Holland,VBO,4.442952,51.904024
Indrapoerastraat,61,,,3029NM,Rotterdam,Rotterdam,Zuid-Holland,VBO,4.442952,51.904024
Indrapoerastraat,63,,,3029NM,Rotterdam,Rotterdam,Zuid-Holland,VBO,4.442952,51.904024
Indrapoerastraat,65,,,3029NM,Rotterdam,Rotterdam,Zuid-Holland,VBO,4.442952,51.904024
Indrapoerastraat,67,,,3029NM,Rotterdam,Rotterdam,Zuid-Holland,VBO,4.442952,51.904024
Indrapoerastraat,69,,,3029NM,Rotterdam,Rotterdam,Zuid-Holland,VBO,4.442871,51.903874
Indrapoerastraat,71,,,3029NM,Rotterdam,Rotterdam,Zuid-Holland,VBO,4.442871,51.903874
Indrapoerastraat,73,,,3029NM,Rotterdam,Rotterdam,Zuid-Holland,VBO,4.442871,51.903874
Indrapoerastraat,75,,,3029NM,Rotterdam,Rotterdam,Zuid-Holland,VBO,4.442871,51.903874
Indrapoerastraat,77,,,3029NM,Rotterdam,Rotterdam,Zuid-Holland,VBO,4.442871,51.903874
Indrapoerastraat,79,,,3029NM,Rotterdam,Rotterdam,Zuid-Holland,VBO,4.442871,51.903874
Indrapoerastraat,81,,,3029NM,Rotterdam,Rotterdam,Zuid-Holland,VBO,4.442871,51.903874
Indrapoerastraat,83,,,3029NM,Rotterdam,Rotterdam,Zuid-Holland,VBO,4.442871,51.903874
Indrapoerastraat,85,,,3029NM,Rotterdam,Rotterdam,Zuid-Holland,VBO,4.442871,51.903874
Indrapoerastraat,87,,,3029NM,Rotterdam,Rotterdam,Zuid-Holland,VBO,4.442871,51.903874
Indrapoerastraat,89,,,3029NM,Rotterdam,Rotterdam,Zuid-Holland,VBO,4.442795,51.903616
Indrapoerastraat,91,,,3029NM,Rotterdam,Rotterdam,Zuid-Holland,VBO,4.442795,51.903616
Indrapoerastraat,93,,,3029NM,Rotterdam,Rotterdam,Zuid-Holland,VBO,4.442795,51.903616
Indrapoerastraat,95,,,3029NM,Rotterdam,Rotterdam,Zuid-Holland,VBO,4.442795,51.903616
Indrapoerastraat,97,,,3029NM,Rotterdam,Rotterdam,Zuid-Holland,VBO,4.442795,51.903616
Indrapoerastraat,99,,,3029NM,Rotterdam,Rotterdam,Zuid-Holland,VBO,4.442795,51.903616
Indrapoerastraat,101,,,3029NM,Rotterdam,Rotterdam,Zuid-Holland,VBO,4.442795,51.903616
Indrapoerastraat,103,,,3029NM,Rotterdam,Rotterdam,Zuid-Holland,VBO,4.442795,51.903616
Indrapoerastraat,105,,,3029NM,Rotterdam,Rotterdam,Zuid-Holland,VBO,4.442795,51.903616
Indrapoerastraat,107,,,3029NM,Rotterdam,Rotterdam,Zuid-Holland,VBO,4.442795,51.903616
Indrapoerastraat,109,,,3029NM,Rotterdam,Rotterdam,Zuid-Holland,VBO,4.442795,51.903616
Indrapoerastraat,111,,,3029NM,Rotterdam,Rotterdam,Zuid-Holland,VBO,4.442795,51.903616
Indrapoerastraat,113,,,3029NM,Rotterdam,Rotterdam,Zuid-Holland,VBO,4.442795,51.903616
Indrapoerastraat,115,,,3029NM,Rotterdam,Rotterdam,Zuid-Holland,VBO,4.442795,51.903616
Indrapoerastraat,117,,,3029NM,Rotterdam,Rotterdam,Zuid-Holland,VBO,4.442795,51.903616
Indrapoerastraat,119,,,3029NM,Rotterdam,Rotterdam,Zuid-Holland,VBO,4.442795,51.903616
Indrapoerastraat,121,,,3029NM,Rotterdam,Rotterdam,Zuid-Holland,VBO,4.442795,51.903616
Indrapoerastraat,123,,,3029NM,Rotterdam,Rotterdam,Zuid-Holland,VBO,4.442795,51.903616
Indrapoerastraat,125,,,3029NM,Rotterdam,Rotterdam,Zuid-Holland,VBO,4.442795,51.903616
Indrapoerastraat,127,,,3029NM,Rotterdam,Rotterdam,Zuid-Holland,VBO,4.442795,51.903616
Indrapoerastraat,129,,,3029NM,Rotterdam,Rotterdam,Zuid-Holland,VBO,4.442795,51.903616
Indrapoerastraat,131,,,3029NM,Rotterdam,Rotterdam,Zuid-Holland,VBO,4.442643,51.903281
Indrapoerastraat,133,,,3029NM,Rotterdam,Rotterdam,Zuid-Holland,VBO,4.442643,51.903281
Indrapoerastraat,135,,,3029NM,Rotterdam,Rotterdam,Zuid-Holland,VBO,4.442643,51.903281
Indrapoerastraat,137,,,3029NM,Rotterdam,Rotterdam,Zuid-Holland,VBO,4.442643,51.903281
Indrapoerastraat,139,,,3029NM,Rotterdam,Rotterdam,Zuid-Holland,VBO,4.442643,51.903281
Indrapoerastraat,141,,,3029NM,Rotterdam,Rotterdam,Zuid-Holland,VBO,4.442643,51.903281
Indrapoerastraat,143,,,3029NM,Rotterdam,Rotterdam,Zuid-Holland,VBO,4.442643,51.903281
Indrapoerastraat,145,,,3029NM,Rotterdam,Rotterdam,Zuid-Holland,VBO,4.442643,51.903281
Indrapoerastraat,147,,,3029NM,Rotterdam,Rotterdam,Zuid-Holland,VBO,4.442643,51.903281
Indrapoerastraat,149,,,3029NM,Rotterdam,Rotterdam,Zuid-Holland,VBO,4.442643,51.903281
Indrapoerastraat,151,,,3029NM,Rotterdam,Rotterdam,Zuid-Holland,VBO,4.442643,51.903281
Indrapoerastraat,153,,,3029NM,Rotterdam,Rotterdam,Zuid-Holland,VBO,4.442643,51.903281
Indrapoerastraat,155,,,3029NM,Rotterdam,Rotterdam,Zuid-Holland,VBO,4.442643,51.903281
Indrapoerastraat,157,,,3029NM,Rotterdam,Rotterdam,Zuid-Holland,VBO,4.442643,51.903281
Indrapoerastraat,159,,,3029NM,Rotterdam,Rotterdam,Zuid-Holland,VBO,4.442643,51.903281
Indrapoerastraat,161,,,3029NM,Rotterdam,Rotterdam,Zuid-Holland,VBO,4.442643,51.903281
Indrapoerastraat,163,,,3029NM,Rotterdam,Rotterdam,Zuid-Holland,VBO,4.442643,51.903281
Indrapoerastraat,165,,,3029NM,Rotterdam,Rotterdam,Zuid-Holland,VBO,4.442643,51.903281
Indrapoerastraat,167,,,3029NM,Rotterdam,Rotterdam,Zuid-Holland,VBO,4.442643,51.903281
Indrapoerastraat,169,,,3029NM,Rotterdam,Rotterdam,Zuid-Holland,VBO,4.442643,51.903281
Indrapoerastraat,171,,,3029NM,Rotterdam,Rotterdam,Zuid-Holland,VBO,4.442643,51.903281
Indrapoerastraat,173,,,3029NM,Rotterdam,Rotterdam,Zuid-Holland,VBO,4.442643,51.903281
Indrapoerastraat,175,,,3029NM,Rotterdam,Rotterdam,Zuid-Holland,VBO,4.442643,51.903281
Indrapoerastraat,177,,,3029NM,Rotterdam,Rotterdam,Zuid-Holland,VBO,4.442643,51.903281
Indrapoerastraat,179,,,3029NM,Rotterdam,Rotterdam,Zuid-Holland,VBO,4.442643,51.903281
Indrapoerastraat,181,,,3029NM,Rotterdam,Rotterdam,Zuid-Holland,VBO,4.442643,51.903281
Indrapoerastraat,183,,,3029NM,Rotterdam,Rotterdam,Zuid-Holland,VBO,4.442643,51.903281
Indrapoerastraat,185,,,3029NM,Rotterdam,Rotterdam,Zuid-Holland,VBO,4.442643,51.903281
Indrapoerastraat,187,,,3029NM,Rotterdam,Rotterdam,Zuid-Holland,VBO,4.442643,51.903281
Indrapoerastraat,189,,,3029NM,Rotterdam,Rotterdam,Zuid-Holland,VBO,4.442643,51.903281
Indrapoerastraat,191,,,3029NM,Rotterdam,Rotterdam,Zuid-Holland,VBO,4.442643,51.903281
Indrapoerastraat,193,,,3029NM,Rotterdam,Rotterdam,Zuid-Holland,VBO,4.442643,51.903281
Indrapoerastraat,195,,,3029NM,Rotterdam,Rotterdam,Zuid-Holland,VBO,4.442643,51.903281
Indrapoerastraat,197,,,3029NM,Rotterdam,Rotterdam,Zuid-Holland,VBO,4.442643,51.903281
Indrapoerastraat,199,,,3029NM,Rotterdam,Rotterdam,Zuid-Holland,VBO,4.442643,51.903281
Indrapoerastraat,201,,,3029NM,Rotterdam,Rotterdam,Zuid-Holland,VBO,4.442643,51.903281
Indrapoerastraat,203,,,3029NM,Rotterdam,Rotterdam,Zuid-Holland,VBO,4.442643,51.903281
Indrapoerastraat,205,,,3029NM,Rotterdam,Rotterdam,Zuid-Holland,VBO,4.442643,51.903281
Indrapoerastraat,207,,,3029NM,Rotterdam,Rotterdam,Zuid-Holland,VBO,4.442643,51.903281
Indrapoerastraat,209,,,3029NM,Rotterdam,Rotterdam,Zuid-Holland,VBO,4.442643,51.903281
Indrapoerastraat,211,,,3029NM,Rotterdam,Rotterdam,Zuid-Holland,VBO,4.442643,51.903281
Indrapoerastraat,213,,,3029NM,Rotterdam,Rotterdam,Zuid-Holland,VBO,4.442643,51.903281
Indrapoerastraat,215,,,3029NM,Rotterdam,Rotterdam,Zuid-Holland,VBO,4.442643,51.903281
Indrapoerastraat,217,,,3029NM,Rotterdam,Rotterdam,Zuid-Holland,VBO,4.442643,51.903281
Indrapoerastraat,219,,,3029NM,Rotterdam,Rotterdam,Zuid-Holland,VBO,4.442643,51.903281
Indrapoerastraat,221,,,3029NM,Rotterdam,Rotterdam,Zuid-Holland,VBO,4.442643,51.903281
Indrapoerastraat,223,,,3029NM,Rotterdam,Rotterdam,Zuid-Holland,VBO,4.442643,51.903281
Indrapoerastraat,225,,,3029NM,Rotterdam,Rotterdam,Zuid-Holland,VBO,4.442643,51.903281
Indrapoerastraat,227,,,3029NM,Rotterdam,Rotterdam,Zuid-Holland,VBO,4.442643,51.903281
Indrapoerastraat,229,,,3029NM,Rotterdam,Rotterdam,Zuid-Holland,VBO,4.442643,51.903281
Indrapoerastraat,231,,,3029NM,Rotterdam,Rotterdam,Zuid-Holland,VBO,4.442643,51.903281
Indrapoerastraat,233,,,3029NM,Rotterdam,Rotterdam,Zuid-Holland,VBO,4.442643,51.903281
Indrapoerastraat,235,,,3029NM,Rotterdam,Rotterdam,Zuid-Holland,VBO,4.442643,51.903281
Indrapoerastraat,237,,,3029NM,Rotterdam,Rotterdam,Zuid-Holland,VBO,4.442643,51.903281
Indrapoerastraat,239,,,3029NM,Rotterdam,Rotterdam,Zuid-Holland,VBO,4.442643,51.903281
Indrapoerastraat,241,,,3029NM,Rotterdam,Rotterdam,Zuid-Holland,VBO,4.442643,51.903281
Indrapoerastraat,243,,,3029NM,Rotterdam,Rotterdam,Zuid-Holland,VBO,4.442643,51.903281
Indrapoerastraat,245,,,3029NM,Rotterdam,Rotterdam,Zuid-Holland,VBO,4.442643,51.903281
Indrapoerastraat,247,,,3029NM,Rotterdam,Rotterdam,Zuid-Holland,VBO,4.442643,51.903281
Indrapoerastraat,2,,,3029NN,Rotterdam,Rotterdam,Zuid-Holland,VBO,4.443713,51.904482
Indrapoerastraat,4,,,3029NN,Rotterdam,Rotterdam,Zuid-Holland,VBO,4.443713,51.904482
Indrapoerastraat,6,,,3029NN,Rotterdam,Rotterdam,Zuid-Holland,VBO,4.443713,51.904482
Indrapoerastraat,8,,,3029NN,Rotterdam,Rotterdam,Zuid-Holland,VBO,4.443713,51.904482
Indrapoerastraat,10,,,3029NN,Rotterdam,Rotterdam,Zuid-Holland,VBO,4.443618,51.904336
Indrapoerastraat,12,,,3029NN,Rotterdam,Rotterdam,Zuid-Holland,VBO,4.443618,51.904336
Indrapoerastraat,14,,,3029NN,Rotterdam,Rotterdam,Zuid-Holland,VBO,4.443618,51.904336
Indrapoerastraat,16,,,3029NN,Rotterdam,Rotterdam,Zuid-Holland,VBO,4.443618,51.904336
Indrapoerastraat,18,,,3029NN,Rotterdam,Rotterdam,Zuid-Holland,VBO,4.443618,51.904336
Indrapoerastraat,20,,,3029NN,Rotterdam,Rotterdam,Zuid-Holland,VBO,4.443618,51.904336
Indrapoerastraat,22,,,3029NN,Rotterdam,Rotterdam,Zuid-Holland,VBO,4.443618,51.904336
Indrapoerastraat,24,,,3029NN,Rotterdam,Rotterdam,Zuid-Holland,VBO,4.443618,51.904336
Indrapoerastraat,26,,,3029NN,Rotterdam,Rotterdam,Zuid-Holland,VBO,4.443580,51.904222
Indrapoerastraat,28,,,3029NN,Rotterdam,Rotterdam,Zuid-Holland,VBO,4.443580,51.904222
Indrapoerastraat,30,,,3029NN,Rotterdam,Rotterdam,Zuid-Holland,VBO,4.443580,51.904222
Indrapoerastraat,32,,,3029NN,Rotterdam,Rotterdam,Zuid-Holland,VBO,4.443580,51.904222
Indrapoerastraat,34,,,3029NN,Rotterdam,Rotterdam,Zuid-Holland,VBO,4.443580,51.904222
Indrapoerastraat,36,,,3029NN,Rotterdam,Rotterdam,Zuid-Holland,VBO,4.443580,51.904222
Indrapoerastraat,38,,,3029NN,Rotterdam,Rotterdam,Zuid-Holland,VBO,4.443580,51.904222
Indrapoerastraat,40,,,3029NN,Rotterdam,Rotterdam,Zuid-Holland,VBO,4.443519,51.904062
Indrapoerastraat,42,,,3029NN,Rotterdam,Rotterdam,Zuid-Holland,VBO,4.443519,51.904062
Indrapoerastraat,44,,,3029NN,Rotterdam,Rotterdam,Zuid-Holland,VBO,4.443519,51.904062
Indrapoerastraat,46,,,3029NN,Rotterdam,Rotterdam,Zuid-Holland,VBO,4.443519,51.904062
Indrapoerastraat,48,,,3029NN,Rotterdam,Rotterdam,Zuid-Holland,VBO,4.443519,51.904062
Indrapoerastraat,50,,,3029NN,Rotterdam,Rotterdam,Zuid-Holland,VBO,4.443519,51.904062
Indrapoerastraat,52,,,3029NN,Rotterdam,Rotterdam,Zuid-Holland,VBO,4.443519,51.904062
Indrapoerastraat,54,,,3029NN,Rotterdam,Rotterdam,Zuid-Holland,VBO,4.443479,51.903949
Indrapoerastraat,56,,,3029NN,Rotterdam,Rotterdam,Zuid-Holland,VBO,4.443479,51.903949
Indrapoerastraat,58,,,3029NN,Rotterdam,Rotterdam,Zuid-Holland,VBO,4.443479,51.903949
Indrapoerastraat,60,,,3029NN,Rotterdam,Rotterdam,Zuid-Holland,VBO,4.443479,51.903949
Indrapoerastraat,62,,,3029NN,Rotterdam,Rotterdam,Zuid-Holland,VBO,4.443479,51.903949
Indrapoerastraat,64,,,3029NN,Rotterdam,Rotterdam,Zuid-Holland,VBO,4.443479,51.903949
Indrapoerastraat,66,,,3029NN,Rotterdam,Rotterdam,Zuid-Holland,VBO,4.443479,51.903949
Indrapoerastraat,68,,,3029NN,Rotterdam,Rotterdam,Zuid-Holland,VBO,4.443479,51.903949
Indrapoerastraat,70,,,3029NN,Rotterdam,Rotterdam,Zuid-Holland,VBO,4.443424,51.903818
Indrapoerastraat,72,,,3029NN,Rotterdam,Rotterdam,Zuid-Holland,VBO,4.443424,51.903818
Indrapoerastraat,74,,,3029NN,Rotterdam,Rotterdam,Zuid-Holland,VBO,4.443424,51.903818
Indrapoerastraat,76,,,3029NN,Rotterdam,Rotterdam,Zuid-Holland,VBO,4.443424,51.903818
Indrapoerastraat,78,,,3029NN,Rotterdam,Rotterdam,Zuid-Holland,VBO,4.443424,51.903818
Indrapoerastraat,80,,,3029NN,Rotterdam,Rotterdam,Zuid-Holland,VBO,4.443424,51.903818
Indrapoerastraat,82,,,3029NN,Rotterdam,Rotterdam,Zuid-Holland,VBO,4.443424,51.903818
Schiemond,8,,,3029NP,Rotterdam,Rotterdam,Zuid-Holland,VBO,4.447626,51.903343
