openbareruimtenaam,huisnummer,huisletter,huisnummertoevoeging,postcode,woonplaatsnaam,gemeentenaam,provincienaam,typeadresseerbaarobject,longitude,latitude
Arlandabaan,1,,,3045AA,Rotterdam,Rotterdam,Zuid-Holland,VBO,4.431610,51.950418
Arlandabaan,7,,,3045AA,Rotterdam,Rotterdam,Zuid-Holland,VBO,4.431308,51.950460
Arlandabaan,9,,,3045AA,Rotterdam,Rotterdam,Zuid-Holland,VBO,4.431149,51.950396
Arlandabaan,11,,,3045AA,Rotterdam,Rotterdam,Zuid-Holland,VBO,4.431018,51.950344
Arlandabaan,13,,,3045AA,Rotterdam,Rotterdam,Zuid-Holland,VBO,4.430893,51.950295
Arlandabaan,15,,,3045AA,Rotterdam,Rotterdam,Zuid-Holland,VBO,4.430716,51.950223
Arlandabaan,17,,,3045AA,Rotterdam,Rotterdam,Zuid-Holland,VBO,4.430603,51.950179
Arlandabaan,19,,,3045AA,Rotterdam,Rotterdam,Zuid-Holland,VBO,4.430479,51.950129
Arlandabaan,21,,,3045AA,Rotterdam,Rotterdam,Zuid-Holland,VBO,4.430309,51.950061
Arlandabaan,25,,,3045AA,Rotterdam,Rotterdam,Zuid-Holland,VBO,4.429941,51.949915
Arlandabaan,27,,,3045AA,Rotterdam,Rotterdam,Zuid-Holland,VBO,4.429768,51.949847
Arlandabaan,29,,,3045AA,Rotterdam,Rotterdam,Zuid-Holland,VBO,4.429647,51.949799
Arlandabaan,31,,,3045AA,Rotterdam,Rotterdam,Zuid-Holland,VBO,4.429525,51.949750
Arlandabaan,33,,,3045AA,Rotterdam,Rotterdam,Zuid-Holland,VBO,4.429354,51.949682
Arlandabaan Platformzijde,2,,,3045AB,Rotterdam,Rotterdam,Zuid-Holland,VBO,4.431308,51.950460
Arlandabaan Platformzijde,4,,,3045AB,Rotterdam,Rotterdam,Zuid-Holland,VBO,4.431308,51.950460
Arlandabaan Platformzijde,8,,,3045AB,Rotterdam,Rotterdam,Zuid-Holland,VBO,4.431308,51.950460
Arlandabaan Platformzijde,10,,,3045AB,Rotterdam,Rotterdam,Zuid-Holland,VBO,4.431149,51.950396
Arlandabaan Platformzijde,12,,,3045AB,Rotterdam,Rotterdam,Zuid-Holland,VBO,4.431018,51.950344
Arlandabaan Platformzijde,14,,,3045AB,Rotterdam,Rotterdam,Zuid-Holland,VBO,4.430893,51.950295
Arlandabaan Platformzijde,16,,,3045AB,Rotterdam,Rotterdam,Zuid-Holland,VBO,4.430716,51.950223
Arlandabaan Platformzijde,18,,,3045AB,Rotterdam,Rotterdam,Zuid-Holland,VBO,4.430603,51.950179
Arlandabaan Platformzijde,20,,,3045AB,Rotterdam,Rotterdam,Zuid-Holland,VBO,4.430479,51.950129
Arlandabaan Platformzijde,22,,,3045AB,Rotterdam,Rotterdam,Zuid-Holland,VBO,4.430309,51.950061
Arlandabaan Platformzijde,26,,,3045AB,Rotterdam,Rotterdam,Zuid-Holland,VBO,4.429941,51.949915
Arlandabaan Platformzijde,28,,,3045AB,Rotterdam,Rotterdam,Zuid-Holland,VBO,4.429768,51.949847
Arlandabaan Platformzijde,30,,,3045AB,Rotterdam,Rotterdam,Zuid-Holland,VBO,4.429647,51.949799
Arlandabaan Platformzijde,32,,,3045AB,Rotterdam,Rotterdam,Zuid-Holland,VBO,4.429525,51.949750
Arlandabaan Platformzijde,34,,,3045AB,Rotterdam,Rotterdam,Zuid-Holland,VBO,4.429354,51.949682
Arlandabaan Platformzijde,42,,,3045AB,Rotterdam,Rotterdam,Zuid-Holland,VBO,4.429247,51.950117
Heathrowbaan,2,,,3045AG,Rotterdam,Rotterdam,Zuid-Holland,VBO,4.431610,51.950418
Linatebaan,67,,,3045AH,Rotterdam,Rotterdam,Zuid-Holland,VBO,4.429853,51.947450
Linatebaan,69,A,,3045AH,Rotterdam,Rotterdam,Zuid-Holland,VBO,4.429854,51.947450
Linatebaan,69,B,,3045AH,Rotterdam,Rotterdam,Zuid-Holland,VBO,4.429853,51.947450
Linatebaan,69,C,,3045AH,Rotterdam,Rotterdam,Zuid-Holland,VBO,4.429853,51.947450
Linatebaan,71,A,,3045AH,Rotterdam,Rotterdam,Zuid-Holland,VBO,4.429853,51.947450
Linatebaan,71,B,,3045AH,Rotterdam,Rotterdam,Zuid-Holland,VBO,4.429853,51.947450
Linatebaan,71,C,,3045AH,Rotterdam,Rotterdam,Zuid-Holland,VBO,4.429853,51.947450
Linatebaan,73,,,3045AH,Rotterdam,Rotterdam,Zuid-Holland,VBO,4.429853,51.947450
Linatebaan,75,,,3045AH,Rotterdam,Rotterdam,Zuid-Holland,VBO,4.429853,51.947450
Linatebaan,101,,,3045AH,Rotterdam,Rotterdam,Zuid-Holland,VBO,4.429391,51.947196
Linatebaan,103,,,3045AH,Rotterdam,Rotterdam,Zuid-Holland,VBO,4.429391,51.947196
Linatebaan,105,,,3045AH,Rotterdam,Rotterdam,Zuid-Holland,VBO,4.429391,51.947196
Linatebaan,107,,,3045AH,Rotterdam,Rotterdam,Zuid-Holland,VBO,4.429391,51.947196
Linatebaan,109,,,3045AH,Rotterdam,Rotterdam,Zuid-Holland,VBO,4.429391,51.947196
Linatebaan,111,,,3045AH,Rotterdam,Rotterdam,Zuid-Holland,VBO,4.429391,51.947196
Vantaabaan,1,,,3045AJ,Rotterdam,Rotterdam,Zuid-Holland,VBO,4.444094,51.952738
Vantaabaan,2,,,3045AJ,Rotterdam,Rotterdam,Zuid-Holland,VBO,4.444337,51.952848
Vantaabaan,3,,,3045AJ,Rotterdam,Rotterdam,Zuid-Holland,VBO,4.444362,51.952476
Vantaabaan,4,,,3045AJ,Rotterdam,Rotterdam,Zuid-Holland,VBO,4.444605,51.952597
Brandenburgbaan,4,,,3045AK,Rotterdam,Rotterdam,Zuid-Holland,VBO,4.442448,51.951260
Brandenburgbaan,6,,,3045AK,Rotterdam,Rotterdam,Zuid-Holland,VBO,4.443304,51.950559
Rotterdam Airportbaan,2,,,3045AN,Rotterdam,Rotterdam,Zuid-Holland,VBO,4.431983,51.948547
Rotterdam Airportbaan,19,,,3045AN,Rotterdam,Rotterdam,Zuid-Holland,VBO,4.430396,51.948623
Rotterdam Airportbaan,25,,,3045AN,Rotterdam,Rotterdam,Zuid-Holland,VBO,4.428871,51.947918
Rotterdam Airportplein,1,,,3045AP,Rotterdam,Rotterdam,Zuid-Holland,VBO,4.432317,51.949646
Rotterdam Airportplein,3,,,3045AP,Rotterdam,Rotterdam,Zuid-Holland,VBO,4.432317,51.949646
Rotterdam Airportplein,4,,,3045AP,Rotterdam,Rotterdam,Zuid-Holland,VBO,4.432317,51.949646
Rotterdam Airportplein,5,,,3045AP,Rotterdam,Rotterdam,Zuid-Holland,VBO,4.432317,51.949646
Rotterdam Airportplein,6,,,3045AP,Rotterdam,Rotterdam,Zuid-Holland,VBO,4.432317,51.949646
Rotterdam Airportplein,7,,,3045AP,Rotterdam,Rotterdam,Zuid-Holland,VBO,4.432317,51.949646
Rotterdam Airportplein,8,,,3045AP,Rotterdam,Rotterdam,Zuid-Holland,VBO,4.432317,51.949646
Rotterdam Airportplein,9,,,3045AP,Rotterdam,Rotterdam,Zuid-Holland,VBO,4.432317,51.949646
Rotterdam Airportplein,10,,,3045AP,Rotterdam,Rotterdam,Zuid-Holland,VBO,4.432317,51.949646
Rotterdam Airportplein,16,,,3045AP,Rotterdam,Rotterdam,Zuid-Holland,VBO,4.432317,51.949646
Rotterdam Airportplein,17,,,3045AP,Rotterdam,Rotterdam,Zuid-Holland,VBO,4.432317,51.949646
Rotterdam Airportplein,18,,,3045AP,Rotterdam,Rotterdam,Zuid-Holland,VBO,4.432317,51.949646
Rotterdam Airportplein,19,,,3045AP,Rotterdam,Rotterdam,Zuid-Holland,VBO,4.432317,51.949646
Rotterdam Airportplein,21,,,3045AP,Rotterdam,Rotterdam,Zuid-Holland,VBO,4.432685,51.948465
Rotterdam Airportplein,22,,,3045AP,Rotterdam,Rotterdam,Zuid-Holland,VBO,4.432735,51.948357
Rotterdam Airportplein,54,,,3045AP,Rotterdam,Rotterdam,Zuid-Holland,VBO,4.435967,51.947578
Rotterdam Airportplein,55,B,,3045AP,Rotterdam,Rotterdam,Zuid-Holland,VBO,4.435246,51.947463
Rotterdam Airportplein,55,C,,3045AP,Rotterdam,Rotterdam,Zuid-Holland,VBO,4.435509,51.947195
Rotterdam Airportplein,55,D,,3045AP,Rotterdam,Rotterdam,Zuid-Holland,VBO,4.435036,51.947677
Rotterdam Airportplein,55,E,,3045AP,Rotterdam,Rotterdam,Zuid-Holland,VBO,4.435036,51.947677
Rotterdam Airportplein,55,F,,3045AP,Rotterdam,Rotterdam,Zuid-Holland,VBO,4.435036,51.947677
Rotterdam Airportplein,55,,,3045AP,Rotterdam,Rotterdam,Zuid-Holland,VBO,4.435036,51.947677
Rotterdam Airportplein,56,,,3045AP,Rotterdam,Rotterdam,Zuid-Holland,VBO,4.435817,51.948242
Rotterdam Airportplein,57,,,3045AP,Rotterdam,Rotterdam,Zuid-Holland,VBO,4.434828,51.948385
Rotterdam Airportplein,58,,,3045AP,Rotterdam,Rotterdam,Zuid-Holland,VBO,4.434193,51.948347
Rotterdam Airportplein,59,,,3045AP,Rotterdam,Rotterdam,Zuid-Holland,VBO,4.433703,51.949065
Rotterdam Airportplein,60,,,3045AP,Rotterdam,Rotterdam,Zuid-Holland,VBO,4.433703,51.949065
Rotterdam Airportplein,65,,,3045AP,Rotterdam,Rotterdam,Zuid-Holland,VBO,4.432681,51.949003
Zaventembaan,1,,,3045AR,Rotterdam,Rotterdam,Zuid-Holland,VBO,4.426191,51.948716
Zaventembaan,3,A,,3045AR,Rotterdam,Rotterdam,Zuid-Holland,VBO,4.427368,51.949031
Zaventembaan,3,B,,3045AR,Rotterdam,Rotterdam,Zuid-Holland,VBO,4.427082,51.948508
Zaventembaan,3,C,,3045AR,Rotterdam,Rotterdam,Zuid-Holland,VBO,4.427082,51.948508
Zaventembaan,5,,,3045AR,Rotterdam,Rotterdam,Zuid-Holland,VBO,4.427821,51.948576
Zaventembaan,7,,,3045AR,Rotterdam,Rotterdam,Zuid-Holland,VBO,4.427897,51.948502
Zaventembaan,9,,,3045AR,Rotterdam,Rotterdam,Zuid-Holland,VBO,4.428034,51.948367
Brandenburgbaan,99,,,3045AS,Rotterdam,Rotterdam,Zuid-Holland,VBO,4.442872,51.950294
Fairoaksbaan,20,,,3045AS,Rotterdam,Rotterdam,Zuid-Holland,VBO,4.435593,51.947139
Fairoaksbaan,66,,,3045AS,Rotterdam,Rotterdam,Zuid-Holland,VBO,4.441414,51.950106
Fairoaksbaan,68,,,3045AS,Rotterdam,Rotterdam,Zuid-Holland,VBO,4.441411,51.950663
Fairoaksbaan,70,,,3045AS,Rotterdam,Rotterdam,Zuid-Holland,VBO,4.441923,51.950480
Fairoaksbaan,80,,,3045AS,Rotterdam,Rotterdam,Zuid-Holland,VBO,4.442173,51.950917
Fairoaksbaan,91,,,3045AS,Rotterdam,Rotterdam,Zuid-Holland,VBO,4.445666,51.950672
Fairoaksbaan,192,,,3045AS,Rotterdam,Rotterdam,Zuid-Holland,VBO,4.447516,51.952040
Fairoaksbaan,194,,,3045AS,Rotterdam,Rotterdam,Zuid-Holland,VBO,4.447516,51.952040
Fairoaksbaan,200,,,3045AS,Rotterdam,Rotterdam,Zuid-Holland,VBO,4.449449,51.952725
Portelabaan,7,,,3045AT,Rotterdam,Rotterdam,Zuid-Holland,VBO,4.442898,51.952896
Fornebubaan,10,,,3045AV,Rotterdam,Rotterdam,Zuid-Holland,VBO,4.440391,51.949954
Fornebubaan,11,,,3045AV,Rotterdam,Rotterdam,Zuid-Holland,VBO,4.439585,51.949814
Kranebittenbaan,5,,,3045AW,Rotterdam,Rotterdam,Zuid-Holland,VBO,4.444824,51.952956
Kranebittenbaan,6,,,3045AW,Rotterdam,Rotterdam,Zuid-Holland,VBO,4.445029,51.952764
Kranebittenbaan,7,,,3045AW,Rotterdam,Rotterdam,Zuid-Holland,VBO,4.444753,51.952928
Kranebittenbaan,8,,,3045AW,Rotterdam,Rotterdam,Zuid-Holland,VBO,4.444953,51.952737
Kranebittenbaan,9,,,3045AW,Rotterdam,Rotterdam,Zuid-Holland,VBO,4.444677,51.952903
Kranebittenbaan,10,,,3045AW,Rotterdam,Rotterdam,Zuid-Holland,VBO,4.444880,51.952709
Kranebittenbaan,11,,,3045AW,Rotterdam,Rotterdam,Zuid-Holland,VBO,4.444609,51.952868
Kranebittenbaan,12,,,3045AW,Rotterdam,Rotterdam,Zuid-Holland,VBO,4.444805,51.952681
Kranebittenbaan,13,,,3045AW,Rotterdam,Rotterdam,Zuid-Holland,VBO,4.444535,51.952840
Kranebittenbaan,14,,,3045AW,Rotterdam,Rotterdam,Zuid-Holland,VBO,4.444736,51.952652
Kranebittenbaan,19,,,3045AW,Rotterdam,Rotterdam,Zuid-Holland,VBO,4.444031,51.952601
Kranebittenbaan,20,,,3045AW,Rotterdam,Rotterdam,Zuid-Holland,VBO,4.444195,51.952440
Kranebittenbaan,21,,,3045AW,Rotterdam,Rotterdam,Zuid-Holland,VBO,4.443950,51.952577
Kranebittenbaan,22,,,3045AW,Rotterdam,Rotterdam,Zuid-Holland,VBO,4.444124,51.952408
Kranebittenbaan,23,,,3045AW,Rotterdam,Rotterdam,Zuid-Holland,VBO,4.443881,51.952549
Kranebittenbaan,24,,,3045AW,Rotterdam,Rotterdam,Zuid-Holland,VBO,4.444040,51.952385
Kranebittenbaan,25,,,3045AW,Rotterdam,Rotterdam,Zuid-Holland,VBO,4.443814,51.952519
Kranebittenbaan,26,,,3045AW,Rotterdam,Rotterdam,Zuid-Holland,VBO,4.443973,51.952357
Kranebittenbaan,27,,,3045AW,Rotterdam,Rotterdam,Zuid-Holland,VBO,4.443735,51.952489
Kranebittenbaan,28,,,3045AW,Rotterdam,Rotterdam,Zuid-Holland,VBO,4.443896,51.952328
Gardermoenbaan,25,,,3045AX,Rotterdam,Rotterdam,Zuid-Holland,VBO,4.444941,51.953056
Gardermoenbaan,27,,,3045AX,Rotterdam,Rotterdam,Zuid-Holland,VBO,4.445207,51.952830
Lutonbaan,2,,,3045AZ,Rotterdam,Rotterdam,Zuid-Holland,VBO,4.443516,51.952482
Lutonbaan,4,,,3045AZ,Rotterdam,Rotterdam,Zuid-Holland,VBO,4.443765,51.952241
Van Leeuwenhoekhof,4,,,3045BA,Rotterdam,Rotterdam,Zuid-Holland,VBO,4.445944,51.945238
Van Leeuwenhoekhof,13,,,3045BA,Rotterdam,Rotterdam,Zuid-Holland,VBO,4.445417,51.944751
Van Leeuwenhoekhof,19,,,3045BA,Rotterdam,Rotterdam,Zuid-Holland,VBO,4.446045,51.944216
Van Leeuwenhoekhof,23,,,3045BA,Rotterdam,Rotterdam,Zuid-Holland,VBO,4.446831,51.943919
Van Leeuwenhoekhof,25,,,3045BA,Rotterdam,Rotterdam,Zuid-Holland,VBO,4.447153,51.944048
Buys Ballotlaan,6,,,3045BB,Rotterdam,Rotterdam,Zuid-Holland,VBO,4.446622,51.945621
Linnaeushof,13,,,3045BC,Rotterdam,Rotterdam,Zuid-Holland,VBO,4.448744,51.945240
Linnaeushof,14,,,3045BC,Rotterdam,Rotterdam,Zuid-Holland,VBO,4.448816,51.945172
Linnaeushof,18,,,3045BC,Rotterdam,Rotterdam,Zuid-Holland,VBO,4.448443,51.944661
Copernicuslaan,1,,,3045BD,Rotterdam,Rotterdam,Zuid-Holland,VBO,4.448139,51.946788
Copernicuslaan,3,,,3045BD,Rotterdam,Rotterdam,Zuid-Holland,VBO,4.448305,51.946630
Copernicuslaan,4,,,3045BD,Rotterdam,Rotterdam,Zuid-Holland,VBO,4.448512,51.946936
Copernicuslaan,5,,,3045BD,Rotterdam,Rotterdam,Zuid-Holland,VBO,4.448339,51.946597
Copernicuslaan,6,,,3045BD,Rotterdam,Rotterdam,Zuid-Holland,VBO,4.448678,51.946778
Copernicuslaan,7,,,3045BD,Rotterdam,Rotterdam,Zuid-Holland,VBO,4.448506,51.946437
Copernicuslaan,8,,,3045BD,Rotterdam,Rotterdam,Zuid-Holland,VBO,4.448715,51.946743
Copernicuslaan,9,,,3045BD,Rotterdam,Rotterdam,Zuid-Holland,VBO,4.448620,51.946328
Copernicuslaan,10,,,3045BD,Rotterdam,Rotterdam,Zuid-Holland,VBO,4.448880,51.946585
Copernicuslaan,11,,,3045BD,Rotterdam,Rotterdam,Zuid-Holland,VBO,4.448650,51.946291
Copernicuslaan,12,,,3045BD,Rotterdam,Rotterdam,Zuid-Holland,VBO,4.448993,51.946477
Copernicuslaan,13,,,3045BD,Rotterdam,Rotterdam,Zuid-Holland,VBO,4.448805,51.946143
Copernicuslaan,14,,,3045BD,Rotterdam,Rotterdam,Zuid-Holland,VBO,4.449028,51.946443
Copernicuslaan,15,,,3045BD,Rotterdam,Rotterdam,Zuid-Holland,VBO,4.448845,51.946104
Copernicuslaan,16,,,3045BD,Rotterdam,Rotterdam,Zuid-Holland,VBO,4.449186,51.946293
Copernicuslaan,17,,,3045BD,Rotterdam,Rotterdam,Zuid-Holland,VBO,4.449005,51.945952
Copernicuslaan,18,,,3045BD,Rotterdam,Rotterdam,Zuid-Holland,VBO,4.449226,51.946254
Copernicuslaan,19,,,3045BD,Rotterdam,Rotterdam,Zuid-Holland,VBO,4.449131,51.945831
Copernicuslaan,20,,,3045BD,Rotterdam,Rotterdam,Zuid-Holland,VBO,4.449384,51.946104
Copernicuslaan,21,,,3045BD,Rotterdam,Rotterdam,Zuid-Holland,VBO,4.449333,51.945638
Copernicuslaan,22,,,3045BD,Rotterdam,Rotterdam,Zuid-Holland,VBO,4.449511,51.945982
Copernicuslaan,23,,,3045BD,Rotterdam,Rotterdam,Zuid-Holland,VBO,4.449464,51.945513
Copernicuslaan,24,,,3045BD,Rotterdam,Rotterdam,Zuid-Holland,VBO,4.449710,51.945792
Copernicuslaan,25,,,3045BD,Rotterdam,Rotterdam,Zuid-Holland,VBO,4.449584,51.945398
Copernicuslaan,26,,,3045BD,Rotterdam,Rotterdam,Zuid-Holland,VBO,4.449846,51.945662
Copernicuslaan,27,,,3045BD,Rotterdam,Rotterdam,Zuid-Holland,VBO,4.449712,51.945276
Copernicuslaan,28,,,3045BD,Rotterdam,Rotterdam,Zuid-Holland,VBO,4.449963,51.945550
Copernicuslaan,29,,,3045BD,Rotterdam,Rotterdam,Zuid-Holland,VBO,4.449839,51.945154
Copernicuslaan,30,,,3045BD,Rotterdam,Rotterdam,Zuid-Holland,VBO,4.450091,51.945428
Copernicuslaan,32,,,3045BD,Rotterdam,Rotterdam,Zuid-Holland,VBO,4.450217,51.945299
Goedaerthof,5,,,3045BE,Rotterdam,Rotterdam,Zuid-Holland,VBO,4.450225,51.947463
Goedaerthof,6,,,3045BE,Rotterdam,Rotterdam,Zuid-Holland,VBO,4.449993,51.947175
Goedaerthof,7,,,3045BE,Rotterdam,Rotterdam,Zuid-Holland,VBO,4.450088,51.947399
Goedaerthof,8,,,3045BE,Rotterdam,Rotterdam,Zuid-Holland,VBO,4.450008,51.947085
Goedaerthof,9,,,3045BE,Rotterdam,Rotterdam,Zuid-Holland,VBO,4.449946,51.947350
Goedaerthof,10,,,3045BE,Rotterdam,Rotterdam,Zuid-Holland,VBO,4.450046,51.947041
Goedaerthof,11,,,3045BE,Rotterdam,Rotterdam,Zuid-Holland,VBO,4.449805,51.947296
Goedaerthof,12,,,3045BE,Rotterdam,Rotterdam,Zuid-Holland,VBO,4.450088,51.946995
Goedaerthof,13,,,3045BE,Rotterdam,Rotterdam,Zuid-Holland,VBO,4.449677,51.947239
Goedaerthof,14,,,3045BE,Rotterdam,Rotterdam,Zuid-Holland,VBO,4.450125,51.946951
Goedaerthof,15,,,3045BE,Rotterdam,Rotterdam,Zuid-Holland,VBO,4.449537,51.947183
Goedaerthof,16,,,3045BE,Rotterdam,Rotterdam,Zuid-Holland,VBO,4.450224,51.946925
Goedaerthof,17,,,3045BE,Rotterdam,Rotterdam,Zuid-Holland,VBO,4.449397,51.947131
Goedaerthof,18,,,3045BE,Rotterdam,Rotterdam,Zuid-Holland,VBO,4.450329,51.946859
Goedaerthof,19,,,3045BE,Rotterdam,Rotterdam,Zuid-Holland,VBO,4.449260,51.947075
Goedaerthof,20,,,3045BE,Rotterdam,Rotterdam,Zuid-Holland,VBO,4.450340,51.946768
Goedaerthof,21,,,3045BE,Rotterdam,Rotterdam,Zuid-Holland,VBO,4.449126,51.947020
Goedaerthof,22,,,3045BE,Rotterdam,Rotterdam,Zuid-Holland,VBO,4.450378,51.946724
Goedaerthof,23,,,3045BE,Rotterdam,Rotterdam,Zuid-Holland,VBO,4.448983,51.946968
Goedaerthof,24,,,3045BE,Rotterdam,Rotterdam,Zuid-Holland,VBO,4.450420,51.946683
Goedaerthof,25,,,3045BE,Rotterdam,Rotterdam,Zuid-Holland,VBO,4.449480,51.946973
Goedaerthof,26,,,3045BE,Rotterdam,Rotterdam,Zuid-Holland,VBO,4.450460,51.946639
Goedaerthof,27,,,3045BE,Rotterdam,Rotterdam,Zuid-Holland,VBO,4.449607,51.946925
Goedaerthof,28,,,3045BE,Rotterdam,Rotterdam,Zuid-Holland,VBO,4.450495,51.946593
Goedaerthof,29,,,3045BE,Rotterdam,Rotterdam,Zuid-Holland,VBO,4.449658,51.946884
Goedaerthof,30,,,3045BE,Rotterdam,Rotterdam,Zuid-Holland,VBO,4.450579,51.946552
Goedaerthof,31,,,3045BE,Rotterdam,Rotterdam,Zuid-Holland,VBO,4.449710,51.946843
Goedaerthof,32,,,3045BE,Rotterdam,Rotterdam,Zuid-Holland,VBO,4.450701,51.946437
Goedaerthof,33,,,3045BE,Rotterdam,Rotterdam,Zuid-Holland,VBO,4.449760,51.946804
Goedaerthof,34,,,3045BE,Rotterdam,Rotterdam,Zuid-Holland,VBO,4.450749,51.946358
Goedaerthof,35,,,3045BE,Rotterdam,Rotterdam,Zuid-Holland,VBO,4.449808,51.946764
Goedaerthof,36,,,3045BE,Rotterdam,Rotterdam,Zuid-Holland,VBO,4.450801,51.946316
Goedaerthof,37,,,3045BE,Rotterdam,Rotterdam,Zuid-Holland,VBO,4.449812,51.946697
Goedaerthof,38,,,3045BE,Rotterdam,Rotterdam,Zuid-Holland,VBO,4.450851,51.946275
Goedaerthof,39,,,3045BE,Rotterdam,Rotterdam,Zuid-Holland,VBO,4.449861,51.946614
Goedaerthof,40,,,3045BE,Rotterdam,Rotterdam,Zuid-Holland,VBO,4.450900,51.946236
Goedaerthof,41,,,3045BE,Rotterdam,Rotterdam,Zuid-Holland,VBO,4.449989,51.946569
Goedaerthof,42,,,3045BE,Rotterdam,Rotterdam,Zuid-Holland,VBO,4.450992,51.946215
Goedaerthof,43,,,3045BE,Rotterdam,Rotterdam,Zuid-Holland,VBO,4.450039,51.946527
Goedaerthof,44,,,3045BE,Rotterdam,Rotterdam,Zuid-Holland,VBO,4.451060,51.946131
Goedaerthof,45,,,3045BE,Rotterdam,Rotterdam,Zuid-Holland,VBO,4.450089,51.946486
Goedaerthof,46,,,3045BE,Rotterdam,Rotterdam,Zuid-Holland,VBO,4.451096,51.946047
Goedaerthof,47,,,3045BE,Rotterdam,Rotterdam,Zuid-Holland,VBO,4.450142,51.946446
Goedaerthof,48,,,3045BE,Rotterdam,Rotterdam,Zuid-Holland,VBO,4.451147,51.946007
Goedaerthof,49,,,3045BE,Rotterdam,Rotterdam,Zuid-Holland,VBO,4.450185,51.946405
Goedaerthof,50,,,3045BE,Rotterdam,Rotterdam,Zuid-Holland,VBO,4.451245,51.945985
Goedaerthof,51,,,3045BE,Rotterdam,Rotterdam,Zuid-Holland,VBO,4.450236,51.946364
Goedaerthof,52,,,3045BE,Rotterdam,Rotterdam,Zuid-Holland,VBO,4.451755,51.945992
Goedaerthof,53,,,3045BE,Rotterdam,Rotterdam,Zuid-Holland,VBO,4.450258,51.946311
Goedaerthof,54,,,3045BE,Rotterdam,Rotterdam,Zuid-Holland,VBO,4.451621,51.945933
Goedaerthof,55,,,3045BE,Rotterdam,Rotterdam,Zuid-Holland,VBO,4.450396,51.946171
Goedaerthof,56,,,3045BE,Rotterdam,Rotterdam,Zuid-Holland,VBO,4.451483,51.945881
Goedaerthof,57,,,3045BE,Rotterdam,Rotterdam,Zuid-Holland,VBO,4.450499,51.946111
Goedaerthof,58,,,3045BE,Rotterdam,Rotterdam,Zuid-Holland,VBO,4.451346,51.945825
Goedaerthof,59,,,3045BE,Rotterdam,Rotterdam,Zuid-Holland,VBO,4.450538,51.946066
Goedaerthof,60,,,3045BE,Rotterdam,Rotterdam,Zuid-Holland,VBO,4.451203,51.945777
Goedaerthof,61,,,3045BE,Rotterdam,Rotterdam,Zuid-Holland,VBO,4.450581,51.946019
Goedaerthof,62,,,3045BE,Rotterdam,Rotterdam,Zuid-Holland,VBO,4.451067,51.945721
Goedaerthof,63,,,3045BE,Rotterdam,Rotterdam,Zuid-Holland,VBO,4.450620,51.945975
Goedaerthof,64,,,3045BE,Rotterdam,Rotterdam,Zuid-Holland,VBO,4.450929,51.945665
Goedaerthof,65,,,3045BE,Rotterdam,Rotterdam,Zuid-Holland,VBO,4.450657,51.945930
Goedaerthof,66,,,3045BE,Rotterdam,Rotterdam,Zuid-Holland,VBO,4.450790,51.945611
Goedaerthof,67,,,3045BE,Rotterdam,Rotterdam,Zuid-Holland,VBO,4.450697,51.945885
Goedaerthof,68,,,3045BE,Rotterdam,Rotterdam,Zuid-Holland,VBO,4.450652,51.945556
Goedaerthof,69,,,3045BE,Rotterdam,Rotterdam,Zuid-Holland,VBO,4.450734,51.945842
Goedaerthof,70,,,3045BE,Rotterdam,Rotterdam,Zuid-Holland,VBO,4.450518,51.945504
Goedaerthof,71,,,3045BE,Rotterdam,Rotterdam,Zuid-Holland,VBO,4.450727,51.945777
Van der Waalslaan,1,,,3045BG,Rotterdam,Rotterdam,Zuid-Holland,VBO,4.450163,51.947991
Van der Waalslaan,2,,,3045BG,Rotterdam,Rotterdam,Zuid-Holland,VBO,4.450550,51.948146
Van der Waalslaan,3,,,3045BG,Rotterdam,Rotterdam,Zuid-Holland,VBO,4.450491,51.947679
Van der Waalslaan,4,,,3045BG,Rotterdam,Rotterdam,Zuid-Holland,VBO,4.450875,51.947865
Van der Waalslaan,5,,,3045BG,Rotterdam,Rotterdam,Zuid-Holland,VBO,4.450517,51.947647
Van der Waalslaan,6,,,3045BG,Rotterdam,Rotterdam,Zuid-Holland,VBO,4.450924,51.947797
Van der Waalslaan,7,,,3045BG,Rotterdam,Rotterdam,Zuid-Holland,VBO,4.450661,51.947516
Van der Waalslaan,8,,,3045BG,Rotterdam,Rotterdam,Zuid-Holland,VBO,4.450945,51.947741
Van der Waalslaan,9,,,3045BG,Rotterdam,Rotterdam,Zuid-Holland,VBO,4.450692,51.947481
Van der Waalslaan,10,,,3045BG,Rotterdam,Rotterdam,Zuid-Holland,VBO,4.451127,51.947648
Van der Waalslaan,11,,,3045BG,Rotterdam,Rotterdam,Zuid-Holland,VBO,4.450756,51.947423
Van der Waalslaan,12,,,3045BG,Rotterdam,Rotterdam,Zuid-Holland,VBO,4.451141,51.947583
Van der Waalslaan,13,,,3045BG,Rotterdam,Rotterdam,Zuid-Holland,VBO,4.450771,51.947363
Van der Waalslaan,14,,,3045BG,Rotterdam,Rotterdam,Zuid-Holland,VBO,4.451286,51.947472
Van der Waalslaan,15,,,3045BG,Rotterdam,Rotterdam,Zuid-Holland,VBO,4.450907,51.947250
Van der Waalslaan,16,,,3045BG,Rotterdam,Rotterdam,Zuid-Holland,VBO,4.451335,51.947407
Van der Waalslaan,17,,,3045BG,Rotterdam,Rotterdam,Zuid-Holland,VBO,4.450937,51.947218
Van der Waalslaan,18,,,3045BG,Rotterdam,Rotterdam,Zuid-Holland,VBO,4.451366,51.947356
Van der Waalslaan,19,,,3045BG,Rotterdam,Rotterdam,Zuid-Holland,VBO,4.450990,51.947175
Van der Waalslaan,20,,,3045BG,Rotterdam,Rotterdam,Zuid-Holland,VBO,4.451507,51.947270
Van der Waalslaan,21,,,3045BG,Rotterdam,Rotterdam,Zuid-Holland,VBO,4.451016,51.947105
Van der Waalslaan,22,,,3045BG,Rotterdam,Rotterdam,Zuid-Holland,VBO,4.451590,51.947192
Van der Waalslaan,23,,,3045BG,Rotterdam,Rotterdam,Zuid-Holland,VBO,4.451187,51.947012
Van der Waalslaan,24,,,3045BG,Rotterdam,Rotterdam,Zuid-Holland,VBO,4.451753,51.947073
Van der Waalslaan,25,,,3045BG,Rotterdam,Rotterdam,Zuid-Holland,VBO,4.451213,51.946955
Van der Waalslaan,26,,,3045BG,Rotterdam,Rotterdam,Zuid-Holland,VBO,4.451757,51.946983
Van der Waalslaan,27,,,3045BG,Rotterdam,Rotterdam,Zuid-Holland,VBO,4.451370,51.946782
Van der Waalslaan,28,,,3045BG,Rotterdam,Rotterdam,Zuid-Holland,VBO,4.451812,51.946935
Van der Waalslaan,29,,,3045BG,Rotterdam,Rotterdam,Zuid-Holland,VBO,4.451475,51.946740
Van der Waalslaan,30,,,3045BG,Rotterdam,Rotterdam,Zuid-Holland,VBO,4.451914,51.946893
Van der Waalslaan,31,,,3045BG,Rotterdam,Rotterdam,Zuid-Holland,VBO,4.451515,51.946700
Van der Waalslaan,32,,,3045BG,Rotterdam,Rotterdam,Zuid-Holland,VBO,4.451957,51.946772
Van der Waalslaan,33,,,3045BG,Rotterdam,Rotterdam,Zuid-Holland,VBO,4.451560,51.946662
Van der Waalslaan,34,,,3045BG,Rotterdam,Rotterdam,Zuid-Holland,VBO,4.452002,51.946723
Van der Waalslaan,35,,,3045BG,Rotterdam,Rotterdam,Zuid-Holland,VBO,4.451581,51.946542
Van der Waalslaan,36,,,3045BG,Rotterdam,Rotterdam,Zuid-Holland,VBO,4.452173,51.946647
Van der Waalslaan,37,,,3045BG,Rotterdam,Rotterdam,Zuid-Holland,VBO,4.451696,51.946507
Van der Waalslaan,38,,,3045BG,Rotterdam,Rotterdam,Zuid-Holland,VBO,4.452206,51.946566
Van der Waalslaan,39,,,3045BG,Rotterdam,Rotterdam,Zuid-Holland,VBO,4.451739,51.946466
Van der Waalslaan,40,,,3045BG,Rotterdam,Rotterdam,Zuid-Holland,VBO,4.452319,51.946522
Van der Waalslaan,41,,,3045BG,Rotterdam,Rotterdam,Zuid-Holland,VBO,4.451757,51.946380
Van der Waalslaan,42,,,3045BG,Rotterdam,Rotterdam,Zuid-Holland,VBO,4.452381,51.946421
Van der Waalslaan,43,,,3045BG,Rotterdam,Rotterdam,Zuid-Holland,VBO,4.451914,51.946317
Van der Waalslaan,44,,,3045BG,Rotterdam,Rotterdam,Zuid-Holland,VBO,4.452411,51.946342
Van der Waalslaan,45,,,3045BG,Rotterdam,Rotterdam,Zuid-Holland,VBO,4.451926,51.946230
Van der Waalslaan,46,,,3045BG,Rotterdam,Rotterdam,Zuid-Holland,VBO,4.452464,51.946296
Van der Waalslaan,47,,,3045BG,Rotterdam,Rotterdam,Zuid-Holland,VBO,4.451999,51.946153
Van der Waalslaan,48,,,3045BG,Rotterdam,Rotterdam,Zuid-Holland,VBO,4.452556,51.946246
Van der Waalslaan,49,,,3045BG,Rotterdam,Rotterdam,Zuid-Holland,VBO,4.452123,51.946123
Van der Waalslaan,51,,,3045BG,Rotterdam,Rotterdam,Zuid-Holland,VBO,4.452176,51.946072
Van der Waalslaan,53,,,3045BG,Rotterdam,Rotterdam,Zuid-Holland,VBO,4.452231,51.946024
Eijkmanhof,5,,,3045BH,Rotterdam,Rotterdam,Zuid-Holland,VBO,4.452400,51.948255
Eijkmanhof,6,,,3045BH,Rotterdam,Rotterdam,Zuid-Holland,VBO,4.452323,51.948235
Eijkmanhof,7,,,3045BH,Rotterdam,Rotterdam,Zuid-Holland,VBO,4.452254,51.948215
Eijkmanhof,8,,,3045BH,Rotterdam,Rotterdam,Zuid-Holland,VBO,4.452180,51.948193
Eijkmanhof,9,,,3045BH,Rotterdam,Rotterdam,Zuid-Holland,VBO,4.452108,51.948176
Eijkmanhof,10,,,3045BH,Rotterdam,Rotterdam,Zuid-Holland,VBO,4.452039,51.948156
Eijkmanhof,11,,,3045BH,Rotterdam,Rotterdam,Zuid-Holland,VBO,4.451964,51.948137
Eijkmanhof,12,,,3045BH,Rotterdam,Rotterdam,Zuid-Holland,VBO,4.451892,51.948117
Eijkmanhof,13,,,3045BH,Rotterdam,Rotterdam,Zuid-Holland,VBO,4.451824,51.948095
Eijkmanhof,14,,,3045BH,Rotterdam,Rotterdam,Zuid-Holland,VBO,4.451749,51.948073
Eijkmanhof,15,,,3045BH,Rotterdam,Rotterdam,Zuid-Holland,VBO,4.451680,51.948051
Eijkmanhof,16,,,3045BH,Rotterdam,Rotterdam,Zuid-Holland,VBO,4.452502,51.948103
Eijkmanhof,17,,,3045BH,Rotterdam,Rotterdam,Zuid-Holland,VBO,4.452363,51.948038
Eijkmanhof,18,,,3045BH,Rotterdam,Rotterdam,Zuid-Holland,VBO,4.452222,51.947975
Eijkmanhof,19,,,3045BH,Rotterdam,Rotterdam,Zuid-Holland,VBO,4.452084,51.947907
Eijkmanhof,20,,,3045BH,Rotterdam,Rotterdam,Zuid-Holland,VBO,4.451945,51.947842
Eijkmanhof,21,,,3045BH,Rotterdam,Rotterdam,Zuid-Holland,VBO,4.452712,51.947966
Eijkmanhof,22,,,3045BH,Rotterdam,Rotterdam,Zuid-Holland,VBO,4.452573,51.947895
Eijkmanhof,23,,,3045BH,Rotterdam,Rotterdam,Zuid-Holland,VBO,4.452432,51.947830
Eijkmanhof,24,,,3045BH,Rotterdam,Rotterdam,Zuid-Holland,VBO,4.452291,51.947765
Eijkmanhof,25,,,3045BH,Rotterdam,Rotterdam,Zuid-Holland,VBO,4.452157,51.947700
Eijkmanhof,26,,,3045BH,Rotterdam,Rotterdam,Zuid-Holland,VBO,4.452894,51.947805
Eijkmanhof,27,,,3045BH,Rotterdam,Rotterdam,Zuid-Holland,VBO,4.452839,51.947770
Eijkmanhof,28,,,3045BH,Rotterdam,Rotterdam,Zuid-Holland,VBO,4.452786,51.947734
Eijkmanhof,29,,,3045BH,Rotterdam,Rotterdam,Zuid-Holland,VBO,4.452733,51.947699
Eijkmanhof,30,,,3045BH,Rotterdam,Rotterdam,Zuid-Holland,VBO,4.452679,51.947664
Eijkmanhof,31,,,3045BH,Rotterdam,Rotterdam,Zuid-Holland,VBO,4.452625,51.947629
Eijkmanhof,32,,,3045BH,Rotterdam,Rotterdam,Zuid-Holland,VBO,4.452571,51.947593
Eijkmanhof,33,,,3045BH,Rotterdam,Rotterdam,Zuid-Holland,VBO,4.452517,51.947558
Eijkmanhof,34,,,3045BH,Rotterdam,Rotterdam,Zuid-Holland,VBO,4.452463,51.947525
Eijkmanhof,35,,,3045BH,Rotterdam,Rotterdam,Zuid-Holland,VBO,4.452411,51.947489
Eijkmanhof,36,,,3045BH,Rotterdam,Rotterdam,Zuid-Holland,VBO,4.452355,51.947453
Tinbergenlaan,33,,,3045BJ,Rotterdam,Rotterdam,Zuid-Holland,VBO,4.453390,51.948055
Tinbergenlaan,35,,,3045BJ,Rotterdam,Rotterdam,Zuid-Holland,VBO,4.453411,51.948031
Tinbergenlaan,37,,,3045BJ,Rotterdam,Rotterdam,Zuid-Holland,VBO,4.453469,51.947977
Tinbergenlaan,39,,,3045BJ,Rotterdam,Rotterdam,Zuid-Holland,VBO,4.453489,51.947955
Tinbergenlaan,41,,,3045BJ,Rotterdam,Rotterdam,Zuid-Holland,VBO,4.453553,51.947903
Tinbergenlaan,43,,,3045BJ,Rotterdam,Rotterdam,Zuid-Holland,VBO,4.453571,51.947884
Tinbergenlaan,45,,,3045BJ,Rotterdam,Rotterdam,Zuid-Holland,VBO,4.453620,51.947840
Tinbergenlaan,50,,,3045BJ,Rotterdam,Rotterdam,Zuid-Holland,VBO,4.453652,51.948302
Tinbergenlaan,52,,,3045BJ,Rotterdam,Rotterdam,Zuid-Holland,VBO,4.453783,51.948186
Tinbergenlaan,70,,,3045BJ,Rotterdam,Rotterdam,Zuid-Holland,VBO,4.454796,51.947225
Tinbergenlaan,72,,,3045BJ,Rotterdam,Rotterdam,Zuid-Holland,VBO,4.454827,51.947177
Tinbergenlaan,74,,,3045BJ,Rotterdam,Rotterdam,Zuid-Holland,VBO,4.454878,51.947129
Tinbergenlaan,76,,,3045BJ,Rotterdam,Rotterdam,Zuid-Holland,VBO,4.454953,51.947053
Einthovenpad,31,,,3045BK,Rotterdam,Rotterdam,Zuid-Holland,VBO,4.453744,51.947683
Einthovenpad,33,,,3045BK,Rotterdam,Rotterdam,Zuid-Holland,VBO,4.453720,51.947622
Einthovenpad,35,,,3045BK,Rotterdam,Rotterdam,Zuid-Holland,VBO,4.453697,51.947590
Einthovenpad,37,,,3045BK,Rotterdam,Rotterdam,Zuid-Holland,VBO,4.453650,51.947526
Einthovenpad,39,,,3045BK,Rotterdam,Rotterdam,Zuid-Holland,VBO,4.453632,51.947497
Einthovenpad,41,,,3045BK,Rotterdam,Rotterdam,Zuid-Holland,VBO,4.453563,51.947399
Einthovenpad,43,,,3045BK,Rotterdam,Rotterdam,Zuid-Holland,VBO,4.453549,51.947378
Einthovenpad,45,,,3045BK,Rotterdam,Rotterdam,Zuid-Holland,VBO,4.453505,51.947308
Einthovenpad,47,,,3045BK,Rotterdam,Rotterdam,Zuid-Holland,VBO,4.453483,51.947284
Einthovenpad,49,,,3045BK,Rotterdam,Rotterdam,Zuid-Holland,VBO,4.453464,51.947224
Einthovenpad,51,,,3045BK,Rotterdam,Rotterdam,Zuid-Holland,VBO,4.453434,51.947192
Einthovenpad,53,,,3045BK,Rotterdam,Rotterdam,Zuid-Holland,VBO,4.453389,51.947128
Einthovenpad,55,,,3045BK,Rotterdam,Rotterdam,Zuid-Holland,VBO,4.453370,51.947101
Einthovenpad,57,,,3045BK,Rotterdam,Rotterdam,Zuid-Holland,VBO,4.453326,51.947037
Einthovenpad,59,,,3045BK,Rotterdam,Rotterdam,Zuid-Holland,VBO,4.453306,51.947008
Einthovenpad,61,,,3045BK,Rotterdam,Rotterdam,Zuid-Holland,VBO,4.453285,51.946965
Albert Sabinhof,6,,,3045BL,Rotterdam,Rotterdam,Zuid-Holland,VBO,4.451851,51.944714
Albert Sabinhof,7,,,3045BL,Rotterdam,Rotterdam,Zuid-Holland,VBO,4.451942,51.944746
Albert Sabinhof,8,,,3045BL,Rotterdam,Rotterdam,Zuid-Holland,VBO,4.452059,51.944793
Albert Sabinhof,9,,,3045BL,Rotterdam,Rotterdam,Zuid-Holland,VBO,4.452153,51.944832
Albert Sabinhof,10,,,3045BL,Rotterdam,Rotterdam,Zuid-Holland,VBO,4.452249,51.944863
Albert Sabinhof,11,,,3045BL,Rotterdam,Rotterdam,Zuid-Holland,VBO,4.452363,51.944915
Albert Sabinhof,12,,,3045BL,Rotterdam,Rotterdam,Zuid-Holland,VBO,4.452465,51.944958
Albert Sabinhof,13,,,3045BL,Rotterdam,Rotterdam,Zuid-Holland,VBO,4.452555,51.944984
Albert Sabinhof,14,,,3045BL,Rotterdam,Rotterdam,Zuid-Holland,VBO,4.452667,51.945038
Albert Sabinhof,24,,,3045BL,Rotterdam,Rotterdam,Zuid-Holland,VBO,4.452755,51.944842
Albert Sabinhof,25,,,3045BL,Rotterdam,Rotterdam,Zuid-Holland,VBO,4.452751,51.944820
Albert Sabinhof,26,,,3045BL,Rotterdam,Rotterdam,Zuid-Holland,VBO,4.452731,51.944775
Albert Sabinhof,27,,,3045BL,Rotterdam,Rotterdam,Zuid-Holland,VBO,4.452673,51.944587
Albert Sabinhof,28,,,3045BL,Rotterdam,Rotterdam,Zuid-Holland,VBO,4.452670,51.944563
Albert Sabinhof,29,,,3045BL,Rotterdam,Rotterdam,Zuid-Holland,VBO,4.452644,51.944488
Albert Sabinhof,30,,,3045BL,Rotterdam,Rotterdam,Zuid-Holland,VBO,4.452639,51.944462
Albert Sabinhof,33,,,3045BL,Rotterdam,Rotterdam,Zuid-Holland,VBO,4.452247,51.944500
Albert Sabinhof,34,,,3045BL,Rotterdam,Rotterdam,Zuid-Holland,VBO,4.452173,51.944521
Jonas Salkhof,2,,,3045BM,Rotterdam,Rotterdam,Zuid-Holland,VBO,4.452273,51.943300
Jonas Salkhof,3,,,3045BM,Rotterdam,Rotterdam,Zuid-Holland,VBO,4.452289,51.943347
Jonas Salkhof,4,,,3045BM,Rotterdam,Rotterdam,Zuid-Holland,VBO,4.452297,51.943367
Jonas Salkhof,5,,,3045BM,Rotterdam,Rotterdam,Zuid-Holland,VBO,4.452348,51.943538
Jonas Salkhof,6,,,3045BM,Rotterdam,Rotterdam,Zuid-Holland,VBO,4.452358,51.943556
Jonas Salkhof,7,,,3045BM,Rotterdam,Rotterdam,Zuid-Holland,VBO,4.452381,51.943632
Jonas Salkhof,8,,,3045BM,Rotterdam,Rotterdam,Zuid-Holland,VBO,4.452394,51.943652
Jonas Salkhof,9,,,3045BM,Rotterdam,Rotterdam,Zuid-Holland,VBO,4.452436,51.943824
Jonas Salkhof,10,,,3045BM,Rotterdam,Rotterdam,Zuid-Holland,VBO,4.452455,51.943869
Jonas Salkhof,11,,,3045BM,Rotterdam,Rotterdam,Zuid-Holland,VBO,4.452460,51.943892
Jonas Salkhof,13,,,3045BM,Rotterdam,Rotterdam,Zuid-Holland,VBO,4.452369,51.944124
Jonas Salkhof,14,,,3045BM,Rotterdam,Rotterdam,Zuid-Holland,VBO,4.452288,51.944136
Jacques Presserhof,2,,,3045BN,Rotterdam,Rotterdam,Zuid-Holland,VBO,4.456872,51.948492
Jacques Presserhof,4,,,3045BN,Rotterdam,Rotterdam,Zuid-Holland,VBO,4.456865,51.948440
Jacques Presserhof,6,,,3045BN,Rotterdam,Rotterdam,Zuid-Holland,VBO,4.456850,51.948394
Jacques Presserhof,8,,,3045BN,Rotterdam,Rotterdam,Zuid-Holland,VBO,4.456839,51.948340
Jacques Presserhof,10,,,3045BN,Rotterdam,Rotterdam,Zuid-Holland,VBO,4.456827,51.948265
Jacques Presserhof,12,,,3045BN,Rotterdam,Rotterdam,Zuid-Holland,VBO,4.456812,51.948206
Jacques Presserhof,14,,,3045BN,Rotterdam,Rotterdam,Zuid-Holland,VBO,4.456823,51.948090
Jacques Presserhof,16,,,3045BN,Rotterdam,Rotterdam,Zuid-Holland,VBO,4.456810,51.948017
Jacques Presserhof,18,,,3045BN,Rotterdam,Rotterdam,Zuid-Holland,VBO,4.456718,51.947921
Jacques Presserhof,20,,,3045BN,Rotterdam,Rotterdam,Zuid-Holland,VBO,4.456604,51.947886
Jacques Presserhof,22,,,3045BN,Rotterdam,Rotterdam,Zuid-Holland,VBO,4.456421,51.947858
Jacques Presserhof,24,,,3045BN,Rotterdam,Rotterdam,Zuid-Holland,VBO,4.456353,51.947834
Jacques Presserhof,26,,,3045BN,Rotterdam,Rotterdam,Zuid-Holland,VBO,4.456277,51.947804
Jacques Presserhof,28,,,3045BN,Rotterdam,Rotterdam,Zuid-Holland,VBO,4.456202,51.947743
Jacques Presserhof,30,,,3045BN,Rotterdam,Rotterdam,Zuid-Holland,VBO,4.456099,51.947707
Jacques Presserhof,32,,,3045BN,Rotterdam,Rotterdam,Zuid-Holland,VBO,4.455955,51.947645
Jacques Presserhof,34,,,3045BN,Rotterdam,Rotterdam,Zuid-Holland,VBO,4.455844,51.947602
Jacques Presserhof,36,,,3045BN,Rotterdam,Rotterdam,Zuid-Holland,VBO,4.455678,51.947560
Jacques Presserhof,38,,,3045BN,Rotterdam,Rotterdam,Zuid-Holland,VBO,4.455580,51.947510
Jacques Presserhof,40,,,3045BN,Rotterdam,Rotterdam,Zuid-Holland,VBO,4.455431,51.947465
Jacques Presserhof,42,,,3045BN,Rotterdam,Rotterdam,Zuid-Holland,VBO,4.455322,51.947422
Jacques Presserhof,44,,,3045BN,Rotterdam,Rotterdam,Zuid-Holland,VBO,4.455203,51.947380
Jacques Presserhof,46,,,3045BN,Rotterdam,Rotterdam,Zuid-Holland,VBO,4.455135,51.947351
Jacques Presserhof,48,,,3045BN,Rotterdam,Rotterdam,Zuid-Holland,VBO,4.455067,51.947325
Lodewijk Rogierhof,1,,,3045BP,Rotterdam,Rotterdam,Zuid-Holland,VBO,4.456321,51.948511
Lodewijk Rogierhof,3,,,3045BP,Rotterdam,Rotterdam,Zuid-Holland,VBO,4.456312,51.948439
Lodewijk Rogierhof,5,,,3045BP,Rotterdam,Rotterdam,Zuid-Holland,VBO,4.456290,51.948355
Lodewijk Rogierhof,7,,,3045BP,Rotterdam,Rotterdam,Zuid-Holland,VBO,4.456295,51.948294
Lodewijk Rogierhof,9,,,3045BP,Rotterdam,Rotterdam,Zuid-Holland,VBO,4.456284,51.948245
Lodewijk Rogierhof,11,,,3045BP,Rotterdam,Rotterdam,Zuid-Holland,VBO,4.456258,51.948189
Xerxesweg,3,,,3045BZ,Rotterdam,Rotterdam,Zuid-Holland,VBO,4.455408,51.949793
Oude Kleiweg,4,,,3045LG,Rotterdam,Rotterdam,Zuid-Holland,VBO,4.445101,51.935045
Oude Kleiweg,6,,,3045LG,Rotterdam,Rotterdam,Zuid-Holland,VBO,4.445117,51.935081
Overschiese Kleiweg,555,,,3045LJ,Rotterdam,Rotterdam,Zuid-Holland,VBO,4.456330,51.941681
Overschiese Kleiweg,567,,,3045LJ,Rotterdam,Rotterdam,Zuid-Holland,VBO,4.456487,51.940507
Overschiese Kleiweg,569,,,3045LJ,Rotterdam,Rotterdam,Zuid-Holland,VBO,4.456446,51.940463
Overschiese Kleiweg,573,,,3045LJ,Rotterdam,Rotterdam,Zuid-Holland,VBO,4.456365,51.940337
Overschiese Kleiweg,579,,,3045LJ,Rotterdam,Rotterdam,Zuid-Holland,VBO,4.456204,51.940164
Overschiese Kleiweg,581,,,3045LJ,Rotterdam,Rotterdam,Zuid-Holland,VBO,4.455766,51.940407
Overschiese Kleiweg,583,,,3045LJ,Rotterdam,Rotterdam,Zuid-Holland,VBO,4.456076,51.940078
Overschiese Kleiweg,585,,,3045LJ,Rotterdam,Rotterdam,Zuid-Holland,VBO,4.456009,51.940026
Overschiese Kleiweg,591,,,3045LJ,Rotterdam,Rotterdam,Zuid-Holland,VBO,4.455709,51.939850
Overschiese Kleiweg,595,A,,3045LJ,Rotterdam,Rotterdam,Zuid-Holland,VBO,4.455314,51.939916
Overschiese Kleiweg,595,D,,3045LJ,Rotterdam,Rotterdam,Zuid-Holland,VBO,4.454643,51.939908
Overschiese Kleiweg,595,E,,3045LJ,Rotterdam,Rotterdam,Zuid-Holland,VBO,4.454584,51.940053
Overschiese Kleiweg,595,F,,3045LJ,Rotterdam,Rotterdam,Zuid-Holland,VBO,4.454838,51.940195
Overschiese Kleiweg,595,G,,3045LJ,Rotterdam,Rotterdam,Zuid-Holland,VBO,4.455225,51.940083
Overschiese Kleiweg,595,H,,3045LJ,Rotterdam,Rotterdam,Zuid-Holland,VBO,4.454767,51.940147
Overschiese Kleiweg,595,K,,3045LJ,Rotterdam,Rotterdam,Zuid-Holland,VBO,4.455181,51.940242
Overschiese Kleiweg,597,,,3045LJ,Rotterdam,Rotterdam,Zuid-Holland,VBO,4.455384,51.939706
Overschiese Kleiweg,599,,,3045LJ,Rotterdam,Rotterdam,Zuid-Holland,VBO,4.455258,51.939681
Overschiese Kleiweg,601,,,3045LJ,Rotterdam,Rotterdam,Zuid-Holland,VBO,4.455139,51.939653
Overschiese Kleiweg,603,,,3045LJ,Rotterdam,Rotterdam,Zuid-Holland,VBO,4.454996,51.939634
Overschiese Kleiweg,605,,,3045LJ,Rotterdam,Rotterdam,Zuid-Holland,VBO,4.454882,51.939606
Overschiese Kleiweg,607,,,3045LJ,Rotterdam,Rotterdam,Zuid-Holland,VBO,4.454735,51.939630
Overschiese Kleiweg,609,,,3045LJ,Rotterdam,Rotterdam,Zuid-Holland,VBO,4.454602,51.939652
Overschiese Kleiweg,611,,,3045LJ,Rotterdam,Rotterdam,Zuid-Holland,VBO,4.454513,51.939665
Overschiese Kleiweg,613,,,3045LK,Rotterdam,Rotterdam,Zuid-Holland,VBO,4.454426,51.939680
Overschiese Kleiweg,615,,,3045LK,Rotterdam,Rotterdam,Zuid-Holland,VBO,4.454290,51.939734
Overschiese Kleiweg,617,,,3045LK,Rotterdam,Rotterdam,Zuid-Holland,VBO,4.454199,51.939761
Overschiese Kleiweg,619,,,3045LK,Rotterdam,Rotterdam,Zuid-Holland,VBO,4.454045,51.939816
Overschiese Kleiweg,621,,,3045LK,Rotterdam,Rotterdam,Zuid-Holland,VBO,4.453955,51.939839
Overschiese Kleiweg,623,,,3045LK,Rotterdam,Rotterdam,Zuid-Holland,VBO,4.453802,51.939894
Overschiese Kleiweg,625,,,3045LK,Rotterdam,Rotterdam,Zuid-Holland,VBO,4.453647,51.939950
Overschiese Kleiweg,627,,,3045LK,Rotterdam,Rotterdam,Zuid-Holland,VBO,4.454086,51.942454
Overschiese Kleiweg,629,,,3045LK,Rotterdam,Rotterdam,Zuid-Holland,VBO,4.453104,51.940561
Overschiese Kleiweg,631,,,3045LK,Rotterdam,Rotterdam,Zuid-Holland,VBO,4.452989,51.940192
Overschiese Kleiweg,633,,,3045LK,Rotterdam,Rotterdam,Zuid-Holland,VBO,4.452818,51.940244
Overschiese Kleiweg,635,,,3045LK,Rotterdam,Rotterdam,Zuid-Holland,VBO,4.452690,51.940298
Overschiese Kleiweg,649,,,3045LK,Rotterdam,Rotterdam,Zuid-Holland,VBO,4.451990,51.940433
Overschiese Kleiweg,661,,,3045LL,Rotterdam,Rotterdam,Zuid-Holland,VBO,4.451007,51.940302
Overschiese Kleiweg,663,,,3045LL,Rotterdam,Rotterdam,Zuid-Holland,VBO,4.450920,51.940298
Overschiese Kleiweg,665,,,3045LL,Rotterdam,Rotterdam,Zuid-Holland,VBO,4.450828,51.940291
Overschiese Kleiweg,667,,,3045LL,Rotterdam,Rotterdam,Zuid-Holland,VBO,4.450736,51.940284
Overschiese Kleiweg,669,A,,3045LL,Rotterdam,Rotterdam,Zuid-Holland,VBO,4.450779,51.940598
Overschiese Kleiweg,669,B,,3045LL,Rotterdam,Rotterdam,Zuid-Holland,VBO,4.450779,51.940598
Overschiese Kleiweg,669,C,,3045LL,Rotterdam,Rotterdam,Zuid-Holland,VBO,4.450779,51.940598
Overschiese Kleiweg,669,D,,3045LL,Rotterdam,Rotterdam,Zuid-Holland,VBO,4.450729,51.940696
Overschiese Kleiweg,669,E,,3045LL,Rotterdam,Rotterdam,Zuid-Holland,VBO,4.450729,51.940696
Overschiese Kleiweg,669,F,,3045LL,Rotterdam,Rotterdam,Zuid-Holland,VBO,4.450729,51.940696
Overschiese Kleiweg,669,G,,3045LL,Rotterdam,Rotterdam,Zuid-Holland,VBO,4.450729,51.940696
Overschiese Kleiweg,669,H,,3045LL,Rotterdam,Rotterdam,Zuid-Holland,VBO,4.450729,51.940696
Overschiese Kleiweg,669,J,,3045LL,Rotterdam,Rotterdam,Zuid-Holland,VBO,4.450729,51.940696
Overschiese Kleiweg,669,K,,3045LL,Rotterdam,Rotterdam,Zuid-Holland,VBO,4.450727,51.940798
Overschiese Kleiweg,669,L,,3045LL,Rotterdam,Rotterdam,Zuid-Holland,VBO,4.450727,51.940798
Overschiese Kleiweg,669,M,,3045LL,Rotterdam,Rotterdam,Zuid-Holland,VBO,4.450727,51.940798
Overschiese Kleiweg,669,N,,3045LL,Rotterdam,Rotterdam,Zuid-Holland,VBO,4.450727,51.940798
Overschiese Kleiweg,671,,,3045LL,Rotterdam,Rotterdam,Zuid-Holland,VBO,4.450374,51.940536
Overschiese Kleiweg,673,,,3045LL,Rotterdam,Rotterdam,Zuid-Holland,VBO,4.450426,51.940248
Overschiese Kleiweg,675,,,3045LL,Rotterdam,Rotterdam,Zuid-Holland,VBO,4.450242,51.940265
Overschiese Kleiweg,677,A,,3045LL,Rotterdam,Rotterdam,Zuid-Holland,VBO,4.450153,51.940520
Overschiese Kleiweg,677,B,,3045LL,Rotterdam,Rotterdam,Zuid-Holland,VBO,4.449955,51.940524
Overschiese Kleiweg,677,C,,3045LL,Rotterdam,Rotterdam,Zuid-Holland,VBO,4.450023,51.940252
Overschiese Kleiweg,681,,,3045LL,Rotterdam,Rotterdam,Zuid-Holland,VBO,4.449676,51.940213
Overschiese Kleiweg,689,,,3045LL,Rotterdam,Rotterdam,Zuid-Holland,VBO,4.448985,51.940097
Overschiese Kleiweg,691,,,3045LL,Rotterdam,Rotterdam,Zuid-Holland,VBO,4.448979,51.940178
Overschiese Kleiweg,693,,,3045LL,Rotterdam,Rotterdam,Zuid-Holland,VBO,4.448762,51.940176
Overschiese Kleiweg,695,,,3045LL,Rotterdam,Rotterdam,Zuid-Holland,VBO,4.448719,51.939988
Overschiese Kleiweg,701,,,3045LL,Rotterdam,Rotterdam,Zuid-Holland,VBO,4.448134,51.939864
Overschiese Kleiweg,713,,,3045LL,Rotterdam,Rotterdam,Zuid-Holland,VBO,4.447470,51.939754
Overschiese Kleiweg,725,,,3045LL,Rotterdam,Rotterdam,Zuid-Holland,VBO,4.446493,51.939514
Overschiese Kleiweg,727,,,3045LM,Rotterdam,Rotterdam,Zuid-Holland,VBO,4.446409,51.939479
Overschiese Kleiweg,729,,,3045LM,Rotterdam,Rotterdam,Zuid-Holland,VBO,4.446292,51.939382
Overschiese Kleiweg,731,,,3045LM,Rotterdam,Rotterdam,Zuid-Holland,VBO,4.446215,51.939348
Overschiese Kleiweg,735,,,3045LM,Rotterdam,Rotterdam,Zuid-Holland,VBO,4.446053,51.939304
Overschiese Kleiweg,737,,,3045LM,Rotterdam,Rotterdam,Zuid-Holland,VBO,4.445939,51.939247
Overschiese Kleiweg,739,,,3045LM,Rotterdam,Rotterdam,Zuid-Holland,VBO,4.445869,51.939220
Overschiese Kleiweg,741,,,3045LM,Rotterdam,Rotterdam,Zuid-Holland,VBO,4.445740,51.939176
Overschiese Kleiweg,743,,,3045LM,Rotterdam,Rotterdam,Zuid-Holland,VBO,4.445626,51.939137
Overschiese Kleiweg,745,,,3045LM,Rotterdam,Rotterdam,Zuid-Holland,VBO,4.445556,51.939110
Overschiese Kleiweg,747,,,3045LM,Rotterdam,Rotterdam,Zuid-Holland,VBO,4.445433,51.939063
Overschiese Kleiweg,749,,,3045LM,Rotterdam,Rotterdam,Zuid-Holland,VBO,4.445304,51.938988
Overschiese Kleiweg,751,,,3045LM,Rotterdam,Rotterdam,Zuid-Holland,VBO,4.445138,51.938961
Overschiese Kleiweg,753,,,3045LM,Rotterdam,Rotterdam,Zuid-Holland,VBO,4.444980,51.938899
Overschiese Kleiweg,755,,,3045LM,Rotterdam,Rotterdam,Zuid-Holland,VBO,4.444902,51.938869
Overschiese Kleiweg,757,,,3045LM,Rotterdam,Rotterdam,Zuid-Holland,VBO,4.444759,51.938815
Overschiese Kleiweg,759,,,3045LM,Rotterdam,Rotterdam,Zuid-Holland,VBO,4.444691,51.938788
Overschiese Kleiweg,761,,,3045LM,Rotterdam,Rotterdam,Zuid-Holland,VBO,4.444628,51.938764
Overschiese Kleiweg,763,,,3045LM,Rotterdam,Rotterdam,Zuid-Holland,VBO,4.444555,51.938736
Overschiese Kleiweg,775,,,3045LN,Rotterdam,Rotterdam,Zuid-Holland,VBO,4.443968,51.938583
Overschiese Kleiweg,779,,,3045LN,Rotterdam,Rotterdam,Zuid-Holland,VBO,4.443558,51.938421
Overschiese Kleiweg,781,,,3045LN,Rotterdam,Rotterdam,Zuid-Holland,VBO,4.443495,51.938421
Overschiese Kleiweg,783,,,3045LN,Rotterdam,Rotterdam,Zuid-Holland,VBO,4.443313,51.938457
Overschiese Kleiweg,787,,,3045LN,Rotterdam,Rotterdam,Zuid-Holland,VBO,4.443073,51.938529
Overschiese Kleiweg,791,,,3045LN,Rotterdam,Rotterdam,Zuid-Holland,VBO,4.442891,51.938473
Overschiese Kleiweg,793,,,3045LN,Rotterdam,Rotterdam,Zuid-Holland,VBO,4.442588,51.938580
Overschiese Kleiweg,799,,,3045LN,Rotterdam,Rotterdam,Zuid-Holland,VBO,4.441890,51.938487
Overschiese Kleiweg,590,,,3045LP,Rotterdam,Rotterdam,Zuid-Holland,VBO,4.456175,51.939700
Overschiese Kleiweg,636,,,3045LP,Rotterdam,Rotterdam,Zuid-Holland,VBO,4.452594,51.939914
Overschiese Kleiweg,680,,,3045LP,Rotterdam,Rotterdam,Zuid-Holland,VBO,4.449732,51.939947
Overschiese Kleiweg,726,A,,3045LP,Rotterdam,Rotterdam,Zuid-Holland,VBO,4.446519,51.939146
Overschiese Kleiweg,726,B,,3045LP,Rotterdam,Rotterdam,Zuid-Holland,VBO,4.446519,51.939146
Terletweg,20,,,3045LR,Rotterdam,Rotterdam,Zuid-Holland,VBO,4.446104,51.941307
Terletweg,21,,,3045LR,Rotterdam,Rotterdam,Zuid-Holland,VBO,4.444583,51.940603
Vroesenkade,160,,,3045LS,Rotterdam,Rotterdam,Zuid-Holland,LIG,4.449035,51.933872
Vroesenkade,162,,,3045LS,Rotterdam,Rotterdam,Zuid-Holland,VBO,4.449538,51.934063
Vroesenkade,163,,,3045LS,Rotterdam,Rotterdam,Zuid-Holland,VBO,4.449480,51.934189
Vroesenkade,165,,,3045LS,Rotterdam,Rotterdam,Zuid-Holland,VBO,4.449371,51.934219
Hatostraat,50,,,3045NA,Rotterdam,Rotterdam,Zuid-Holland,VBO,4.446153,51.953078
Hatostraat,52,,,3045NA,Rotterdam,Rotterdam,Zuid-Holland,VBO,4.446420,51.952830
Hatostraat,60,,,3045NA,Rotterdam,Rotterdam,Zuid-Holland,VBO,4.447516,51.952040
Bovendijk,289,,,3045NK,Rotterdam,Rotterdam,Zuid-Holland,VBO,4.458173,51.965430
Doenkade,150,,,3045NK,Rotterdam,Rotterdam,Zuid-Holland,VBO,4.446736,51.962010
Landscheiding,96,,,3045NK,Rotterdam,Rotterdam,Zuid-Holland,VBO,4.448020,51.962635
Landscheiding,101,,,3045NK,Rotterdam,Rotterdam,Zuid-Holland,VBO,4.448868,51.963471
Landscheiding,107,,,3045NK,Rotterdam,Rotterdam,Zuid-Holland,VBO,4.449441,51.964093
Vliegveldweg,30,,,3045NS,Rotterdam,Rotterdam,Zuid-Holland,VBO,4.425491,51.949118
Achterdijk,2,,,3045NX,Rotterdam,Rotterdam,Zuid-Holland,VBO,4.434963,51.940922
Achterdijk,4,,,3045NX,Rotterdam,Rotterdam,Zuid-Holland,VBO,4.434111,51.940944
Achterdijk,6,,,3045NX,Rotterdam,Rotterdam,Zuid-Holland,VBO,4.433304,51.941149
Achterdijk,8,,,3045NX,Rotterdam,Rotterdam,Zuid-Holland,VBO,4.433251,51.941202
Beekweg,149,,,3045PA,Rotterdam,Rotterdam,Zuid-Holland,VBO,4.451614,51.945468
Beekweg,157,,,3045PA,Rotterdam,Rotterdam,Zuid-Holland,VBO,4.450779,51.945146
Beekweg,159,,,3045PA,Rotterdam,Rotterdam,Zuid-Holland,VBO,4.450597,51.945029
Beekweg,161,,,3045PA,Rotterdam,Rotterdam,Zuid-Holland,VBO,4.450097,51.944824
Beekweg,163,,,3045PA,Rotterdam,Rotterdam,Zuid-Holland,VBO,4.449929,51.944799
Beekweg,165,,,3045PA,Rotterdam,Rotterdam,Zuid-Holland,VBO,4.449711,51.944722
Beekweg,167,,,3045PA,Rotterdam,Rotterdam,Zuid-Holland,VBO,4.449457,51.944597
Beekweg,169,,,3045PA,Rotterdam,Rotterdam,Zuid-Holland,VBO,4.448989,51.944376
Beekweg,171,,,3045PA,Rotterdam,Rotterdam,Zuid-Holland,VBO,4.448762,51.944256
Beekweg,173,,,3045PA,Rotterdam,Rotterdam,Zuid-Holland,VBO,4.448558,51.944238
Beekweg,175,,,3045PA,Rotterdam,Rotterdam,Zuid-Holland,VBO,4.448312,51.944092
Beekweg,177,,,3045PA,Rotterdam,Rotterdam,Zuid-Holland,VBO,4.447721,51.943925
Beekweg,179,,,3045PA,Rotterdam,Rotterdam,Zuid-Holland,VBO,4.447475,51.943765
Beekweg,181,,,3045PA,Rotterdam,Rotterdam,Zuid-Holland,VBO,4.447148,51.943639
Bovendijk,49,,,3045PB,Rotterdam,Rotterdam,Zuid-Holland,VBO,4.457851,51.949294
Bovendijk,50,,,3045PB,Rotterdam,Rotterdam,Zuid-Holland,VBO,4.457837,51.949332
Bovendijk,51,,,3045PB,Rotterdam,Rotterdam,Zuid-Holland,VBO,4.457820,51.949370
Bovendijk,52,,,3045PB,Rotterdam,Rotterdam,Zuid-Holland,VBO,4.457804,51.949410
Bovendijk,53,,,3045PB,Rotterdam,Rotterdam,Zuid-Holland,VBO,4.457789,51.949450
Bovendijk,54,,,3045PB,Rotterdam,Rotterdam,Zuid-Holland,VBO,4.457774,51.949488
Bovendijk,55,,,3045PB,Rotterdam,Rotterdam,Zuid-Holland,VBO,4.457758,51.949527
Bovendijk,56,,,3045PB,Rotterdam,Rotterdam,Zuid-Holland,VBO,4.457743,51.949566
Bovendijk,57,,,3045PB,Rotterdam,Rotterdam,Zuid-Holland,VBO,4.457683,51.949711
Bovendijk,58,,,3045PB,Rotterdam,Rotterdam,Zuid-Holland,VBO,4.457666,51.949751
Bovendijk,59,,,3045PB,Rotterdam,Rotterdam,Zuid-Holland,VBO,4.457652,51.949790
Bovendijk,60,,,3045PB,Rotterdam,Rotterdam,Zuid-Holland,VBO,4.457677,51.949832
Bovendijk,61,,,3045PB,Rotterdam,Rotterdam,Zuid-Holland,VBO,4.457617,51.949871
Bovendijk,62,,,3045PB,Rotterdam,Rotterdam,Zuid-Holland,VBO,4.457603,51.949909
Bovendijk,63,,,3045PB,Rotterdam,Rotterdam,Zuid-Holland,VBO,4.457587,51.949947
Bovendijk,64,,,3045PB,Rotterdam,Rotterdam,Zuid-Holland,VBO,4.457571,51.949984
Bovendijk,65,,,3045PB,Rotterdam,Rotterdam,Zuid-Holland,VBO,4.457513,51.950128
Bovendijk,66,,,3045PB,Rotterdam,Rotterdam,Zuid-Holland,VBO,4.457496,51.950169
Bovendijk,67,,,3045PB,Rotterdam,Rotterdam,Zuid-Holland,VBO,4.457481,51.950207
Bovendijk,68,,,3045PB,Rotterdam,Rotterdam,Zuid-Holland,VBO,4.457465,51.950248
Bovendijk,69,,,3045PB,Rotterdam,Rotterdam,Zuid-Holland,VBO,4.457448,51.950286
Bovendijk,70,,,3045PB,Rotterdam,Rotterdam,Zuid-Holland,VBO,4.457433,51.950326
Bovendijk,71,,,3045PC,Rotterdam,Rotterdam,Zuid-Holland,VBO,4.457417,51.950366
Bovendijk,72,,,3045PC,Rotterdam,Rotterdam,Zuid-Holland,VBO,4.457401,51.950402
Bovendijk,96,,,3045PC,Rotterdam,Rotterdam,Zuid-Holland,VBO,4.459042,51.952419
Bovendijk,100,,,3045PC,Rotterdam,Rotterdam,Zuid-Holland,VBO,4.459422,51.953841
Bovendijk,132,,,3045PC,Rotterdam,Rotterdam,Zuid-Holland,VBO,4.455667,51.955481
Bovendijk,137,,,3045PC,Rotterdam,Rotterdam,Zuid-Holland,VBO,4.455318,51.955753
Bovendijk,138,,,3045PC,Rotterdam,Rotterdam,Zuid-Holland,VBO,4.455160,51.955691
Bovendijk,139,,,3045PC,Rotterdam,Rotterdam,Zuid-Holland,VBO,4.455160,51.955691
Bovendijk,140,,,3045PC,Rotterdam,Rotterdam,Zuid-Holland,VBO,4.455160,51.955691
Bovendijk,141,,,3045PC,Rotterdam,Rotterdam,Zuid-Holland,VBO,4.455160,51.955691
Bovendijk,142,,,3045PC,Rotterdam,Rotterdam,Zuid-Holland,VBO,4.455160,51.955691
Bovendijk,143,,,3045PC,Rotterdam,Rotterdam,Zuid-Holland,VBO,4.455160,51.955691
Bovendijk,144,,,3045PC,Rotterdam,Rotterdam,Zuid-Holland,VBO,4.455160,51.955691
Bovendijk,145,,,3045PC,Rotterdam,Rotterdam,Zuid-Holland,VBO,4.455160,51.955691
Bovendijk,146,,,3045PD,Rotterdam,Rotterdam,Zuid-Holland,VBO,4.455160,51.955691
Bovendijk,148,,,3045PD,Rotterdam,Rotterdam,Zuid-Holland,VBO,4.453526,51.954819
Bovendijk,150,,,3045PD,Rotterdam,Rotterdam,Zuid-Holland,VBO,4.453270,51.954719
Bovendijk,152,,,3045PD,Rotterdam,Rotterdam,Zuid-Holland,VBO,4.453284,51.954473
Bovendijk,153,,,3045PD,Rotterdam,Rotterdam,Zuid-Holland,VBO,4.453518,51.954567
Bovendijk,154,,,3045PD,Rotterdam,Rotterdam,Zuid-Holland,VBO,4.453650,51.954607
Bovendijk,162,,,3045PD,Rotterdam,Rotterdam,Zuid-Holland,VBO,4.455079,51.955197
Bovendijk,192,,,3045PD,Rotterdam,Rotterdam,Zuid-Holland,VBO,4.454349,51.956849
Bovendijk,193,,,3045PD,Rotterdam,Rotterdam,Zuid-Holland,VBO,4.454349,51.956849
Bovendijk,194,,,3045PD,Rotterdam,Rotterdam,Zuid-Holland,VBO,4.454349,51.956849
Bovendijk,195,,,3045PD,Rotterdam,Rotterdam,Zuid-Holland,VBO,4.454349,51.956849
Bovendijk,196,,,3045PD,Rotterdam,Rotterdam,Zuid-Holland,VBO,4.454349,51.956849
Bovendijk,197,,,3045PD,Rotterdam,Rotterdam,Zuid-Holland,VBO,4.454349,51.956849
Bovendijk,198,,,3045PD,Rotterdam,Rotterdam,Zuid-Holland,VBO,4.452759,51.955920
Bovendijk,199,,,3045PD,Rotterdam,Rotterdam,Zuid-Holland,VBO,4.452561,51.956109
Bovendijk,200,,,3045PD,Rotterdam,Rotterdam,Zuid-Holland,VBO,4.452343,51.956315
Bovendijk,201,,,3045PD,Rotterdam,Rotterdam,Zuid-Holland,VBO,4.452214,51.956439
Bovendijk,202,,,3045PD,Rotterdam,Rotterdam,Zuid-Holland,VBO,4.451424,51.956122
Bovendijk,203,,,3045PD,Rotterdam,Rotterdam,Zuid-Holland,VBO,4.451424,51.956122
Bovendijk,204,,,3045PD,Rotterdam,Rotterdam,Zuid-Holland,VBO,4.451771,51.955793
Bovendijk,205,,,3045PD,Rotterdam,Rotterdam,Zuid-Holland,VBO,4.451969,51.955606
Bovendijk,211,,,3045PD,Rotterdam,Rotterdam,Zuid-Holland,VBO,4.451735,51.955392
Bovendijk,212,,,3045PD,Rotterdam,Rotterdam,Zuid-Holland,VBO,4.451047,51.955352
Bovendijk,213,,,3045PD,Rotterdam,Rotterdam,Zuid-Holland,VBO,4.451567,51.955500
Bovendijk,214,,,3045PD,Rotterdam,Rotterdam,Zuid-Holland,VBO,4.451567,51.955500
Bovendijk,215,,,3045PD,Rotterdam,Rotterdam,Zuid-Holland,VBO,4.451155,51.955892
Bovendijk,216,,,3045PD,Rotterdam,Rotterdam,Zuid-Holland,VBO,4.451155,51.955892
Bovendijk,217,,,3045PD,Rotterdam,Rotterdam,Zuid-Holland,VBO,4.452623,51.956516
Bovendijk,218,,,3045PD,Rotterdam,Rotterdam,Zuid-Holland,VBO,4.453010,51.956670
Bovendijk,219,,,3045PD,Rotterdam,Rotterdam,Zuid-Holland,VBO,4.453212,51.956752
Bovendijk,220,,,3045PD,Rotterdam,Rotterdam,Zuid-Holland,VBO,4.453497,51.956865
Bovendijk,221,,,3045PD,Rotterdam,Rotterdam,Zuid-Holland,VBO,4.453702,51.956947
Bovendijk,222,B,,3045PD,Rotterdam,Rotterdam,Zuid-Holland,VBO,4.454107,51.957081
Bovendijk,222,,,3045PD,Rotterdam,Rotterdam,Zuid-Holland,VBO,4.454021,51.957088
Bovendijk,243,,,3045PD,Rotterdam,Rotterdam,Zuid-Holland,VBO,4.451265,51.957543
Bovendijk,251,,,3045PD,Rotterdam,Rotterdam,Zuid-Holland,VBO,4.449044,51.957349
Van der Duijn van Maasdamweg,11,,,3045PE,Rotterdam,Rotterdam,Zuid-Holland,VBO,4.456110,51.951003
Van der Duijn van Maasdamweg,410,,,3045PE,Rotterdam,Rotterdam,Zuid-Holland,VBO,4.452479,51.948925
Van der Duijn van Maasdamweg,412,,,3045PE,Rotterdam,Rotterdam,Zuid-Holland,VBO,4.452387,51.948924
Van der Duijn van Maasdamweg,414,,,3045PE,Rotterdam,Rotterdam,Zuid-Holland,VBO,4.452285,51.948888
Van der Duijn van Maasdamweg,416,,,3045PE,Rotterdam,Rotterdam,Zuid-Holland,VBO,4.452260,51.948876
Van der Duijn van Maasdamweg,418,,,3045PE,Rotterdam,Rotterdam,Zuid-Holland,VBO,4.452183,51.948817
Van der Duijn van Maasdamweg,420,,,3045PE,Rotterdam,Rotterdam,Zuid-Holland,VBO,4.452053,51.948771
Van der Duijn van Maasdamweg,422,,,3045PE,Rotterdam,Rotterdam,Zuid-Holland,VBO,4.451967,51.948757
Van der Duijn van Maasdamweg,424,,,3045PE,Rotterdam,Rotterdam,Zuid-Holland,VBO,4.451895,51.948722
Van der Duijn van Maasdamweg,426,,,3045PE,Rotterdam,Rotterdam,Zuid-Holland,VBO,4.451794,51.948664
Van der Duijn van Maasdamweg,428,,,3045PE,Rotterdam,Rotterdam,Zuid-Holland,VBO,4.451682,51.948597
Van der Duijn van Maasdamweg,430,,,3045PE,Rotterdam,Rotterdam,Zuid-Holland,VBO,4.451582,51.948591
Van der Duijn van Maasdamweg,432,,,3045PE,Rotterdam,Rotterdam,Zuid-Holland,VBO,4.451509,51.948559
Van der Duijn van Maasdamweg,434,,,3045PE,Rotterdam,Rotterdam,Zuid-Holland,VBO,4.451416,51.948488
Van der Duijn van Maasdamweg,436,,,3045PE,Rotterdam,Rotterdam,Zuid-Holland,VBO,4.451179,51.948440
Van der Duijn van Maasdamweg,438,,,3045PE,Rotterdam,Rotterdam,Zuid-Holland,VBO,4.451179,51.948440
Van der Duijn van Maasdamweg,440,,,3045PE,Rotterdam,Rotterdam,Zuid-Holland,VBO,4.451179,51.948440
Van der Duijn van Maasdamweg,442,,,3045PE,Rotterdam,Rotterdam,Zuid-Holland,VBO,4.451179,51.948440
Van der Duijn van Maasdamweg,444,,,3045PE,Rotterdam,Rotterdam,Zuid-Holland,VBO,4.451179,51.948440
Van der Duijn van Maasdamweg,446,,,3045PE,Rotterdam,Rotterdam,Zuid-Holland,VBO,4.451179,51.948440
Van der Duijn van Maasdamweg,448,,,3045PE,Rotterdam,Rotterdam,Zuid-Holland,VBO,4.451179,51.948440
Van der Duijn van Maasdamweg,450,,,3045PE,Rotterdam,Rotterdam,Zuid-Holland,VBO,4.451179,51.948440
Van der Duijn van Maasdamweg,452,,,3045PE,Rotterdam,Rotterdam,Zuid-Holland,VBO,4.451179,51.948440
Van der Duijn van Maasdamweg,454,,,3045PE,Rotterdam,Rotterdam,Zuid-Holland,VBO,4.451179,51.948440
Van der Duijn van Maasdamweg,456,,,3045PE,Rotterdam,Rotterdam,Zuid-Holland,VBO,4.451179,51.948440
Van der Duijn van Maasdamweg,458,,,3045PE,Rotterdam,Rotterdam,Zuid-Holland,VBO,4.450981,51.948289
Van der Duijn van Maasdamweg,460,,,3045PE,Rotterdam,Rotterdam,Zuid-Holland,VBO,4.450761,51.948233
Van der Duijn van Maasdamweg,462,,,3045PE,Rotterdam,Rotterdam,Zuid-Holland,VBO,4.450639,51.948207
Van der Duijn van Maasdamweg,470,,,3045PE,Rotterdam,Rotterdam,Zuid-Holland,VBO,4.450030,51.947962
Van der Duijn van Maasdamweg,472,,,3045PE,Rotterdam,Rotterdam,Zuid-Holland,VBO,4.449939,51.947905
Van der Duijn van Maasdamweg,474,,,3045PE,Rotterdam,Rotterdam,Zuid-Holland,VBO,4.449763,51.947846
Van der Duijn van Maasdamweg,476,,,3045PE,Rotterdam,Rotterdam,Zuid-Holland,VBO,4.449649,51.947832
Van der Duijn van Maasdamweg,478,,,3045PE,Rotterdam,Rotterdam,Zuid-Holland,VBO,4.449452,51.947721
Van der Duijn van Maasdamweg,480,,,3045PE,Rotterdam,Rotterdam,Zuid-Holland,VBO,4.449321,51.947698
Van der Duijn van Maasdamweg,482,,,3045PE,Rotterdam,Rotterdam,Zuid-Holland,VBO,4.449243,51.947630
Van der Duijn van Maasdamweg,484,,,3045PE,Rotterdam,Rotterdam,Zuid-Holland,VBO,4.449091,51.947554
Van der Duijn van Maasdamweg,486,,,3045PE,Rotterdam,Rotterdam,Zuid-Holland,VBO,4.448967,51.947540
Van der Duijn van Maasdamweg,488,,,3045PE,Rotterdam,Rotterdam,Zuid-Holland,VBO,4.448777,51.947431
Van der Duijn van Maasdamweg,490,,,3045PE,Rotterdam,Rotterdam,Zuid-Holland,VBO,4.448645,51.947409
Van der Duijn van Maasdamweg,492,,,3045PE,Rotterdam,Rotterdam,Zuid-Holland,VBO,4.448558,51.947344
Van der Duijn van Maasdamweg,494,,,3045PE,Rotterdam,Rotterdam,Zuid-Holland,VBO,4.448377,51.947288
Van der Duijn van Maasdamweg,496,,,3045PE,Rotterdam,Rotterdam,Zuid-Holland,VBO,4.448222,51.947256
Van der Duijn van Maasdamweg,500,,,3045PE,Rotterdam,Rotterdam,Zuid-Holland,VBO,4.447784,51.947081
Van der Duijn van Maasdamweg,502,,,3045PE,Rotterdam,Rotterdam,Zuid-Holland,VBO,4.447694,51.947045
Van der Duijn van Maasdamweg,504,,,3045PE,Rotterdam,Rotterdam,Zuid-Holland,VBO,4.447563,51.946960
Van der Duijn van Maasdamweg,506,,,3045PE,Rotterdam,Rotterdam,Zuid-Holland,VBO,4.447485,51.946929
Van der Duijn van Maasdamweg,508,,,3045PE,Rotterdam,Rotterdam,Zuid-Holland,VBO,4.447415,51.946901
Van der Duijn van Maasdamweg,510,,,3045PE,Rotterdam,Rotterdam,Zuid-Holland,VBO,4.447337,51.946870
Van der Duijn van Maasdamweg,512,,,3045PE,Rotterdam,Rotterdam,Zuid-Holland,VBO,4.447149,51.946827
Van der Duijn van Maasdamweg,514,,,3045PE,Rotterdam,Rotterdam,Zuid-Holland,VBO,4.447088,51.946801
Van der Duijn van Maasdamweg,516,,,3045PE,Rotterdam,Rotterdam,Zuid-Holland,VBO,4.447032,51.946732
Van der Duijn van Maasdamweg,518,,,3045PE,Rotterdam,Rotterdam,Zuid-Holland,VBO,4.446762,51.946609
Van der Duijn van Maasdamweg,520,,,3045PE,Rotterdam,Rotterdam,Zuid-Holland,VBO,4.446762,51.946609
Van der Duijn van Maasdamweg,522,,,3045PE,Rotterdam,Rotterdam,Zuid-Holland,VBO,4.446762,51.946609
Van der Duijn van Maasdamweg,524,,,3045PE,Rotterdam,Rotterdam,Zuid-Holland,VBO,4.446762,51.946609
Van der Duijn van Maasdamweg,526,,,3045PE,Rotterdam,Rotterdam,Zuid-Holland,VBO,4.446762,51.946609
Van der Duijn van Maasdamweg,528,,,3045PE,Rotterdam,Rotterdam,Zuid-Holland,VBO,4.446762,51.946609
Van der Duijn van Maasdamweg,530,,,3045PE,Rotterdam,Rotterdam,Zuid-Holland,VBO,4.446762,51.946609
Van der Duijn van Maasdamweg,532,,,3045PE,Rotterdam,Rotterdam,Zuid-Holland,VBO,4.446762,51.946609
Van der Duijn van Maasdamweg,534,,,3045PE,Rotterdam,Rotterdam,Zuid-Holland,VBO,4.446762,51.946609
Van der Duijn van Maasdamweg,536,,,3045PE,Rotterdam,Rotterdam,Zuid-Holland,VBO,4.446428,51.946539
Van der Duijn van Maasdamweg,538,,,3045PE,Rotterdam,Rotterdam,Zuid-Holland,VBO,4.446355,51.946510
Van der Duijn van Maasdamweg,540,,,3045PE,Rotterdam,Rotterdam,Zuid-Holland,VBO,4.446275,51.946478
Van der Duijn van Maasdamweg,542,,,3045PE,Rotterdam,Rotterdam,Zuid-Holland,VBO,4.446204,51.946449
Van der Duijn van Maasdamweg,544,,,3045PE,Rotterdam,Rotterdam,Zuid-Holland,VBO,4.446092,51.946372
Van der Duijn van Maasdamweg,546,,,3045PE,Rotterdam,Rotterdam,Zuid-Holland,VBO,4.446016,51.946342
Van der Duijn van Maasdamweg,548,,,3045PE,Rotterdam,Rotterdam,Zuid-Holland,VBO,4.445926,51.946306
Van der Duijn van Maasdamweg,550,,,3045PE,Rotterdam,Rotterdam,Zuid-Holland,VBO,4.445488,51.946163
Van der Duijn van Maasdamweg,552,,,3045PE,Rotterdam,Rotterdam,Zuid-Holland,VBO,4.445392,51.946125
Van der Duijn van Maasdamweg,554,,,3045PE,Rotterdam,Rotterdam,Zuid-Holland,VBO,4.445252,51.946036
Van der Duijn van Maasdamweg,556,,,3045PE,Rotterdam,Rotterdam,Zuid-Holland,VBO,4.445176,51.946006
Van der Duijn van Maasdamweg,558,,,3045PE,Rotterdam,Rotterdam,Zuid-Holland,VBO,4.445101,51.945976
Van der Duijn van Maasdamweg,560,,,3045PE,Rotterdam,Rotterdam,Zuid-Holland,VBO,4.445030,51.945948
Van der Duijn van Maasdamweg,562,,,3045PE,Rotterdam,Rotterdam,Zuid-Holland,VBO,4.444854,51.945910
Van der Duijn van Maasdamweg,564,,,3045PE,Rotterdam,Rotterdam,Zuid-Holland,VBO,4.444776,51.945878
Van der Duijn van Maasdamweg,566,,,3045PE,Rotterdam,Rotterdam,Zuid-Holland,VBO,4.444702,51.945849
Van der Duijn van Maasdamweg,568,,,3045PE,Rotterdam,Rotterdam,Zuid-Holland,VBO,4.444576,51.945766
Van der Duijn van Maasdamweg,570,,,3045PE,Rotterdam,Rotterdam,Zuid-Holland,VBO,4.444493,51.945733
Van der Duijn van Maasdamweg,572,,,3045PE,Rotterdam,Rotterdam,Zuid-Holland,VBO,4.444425,51.945706
Van der Duijn van Maasdamweg,574,,,3045PE,Rotterdam,Rotterdam,Zuid-Holland,VBO,4.444349,51.945675
Van der Duijn van Maasdamweg,601,,,3045PE,Rotterdam,Rotterdam,Zuid-Holland,VBO,4.440212,51.946915
Opaalhof,4,,,3045PG,Rotterdam,Rotterdam,Zuid-Holland,VBO,4.464298,51.946559
Opaalhof,5,,,3045PG,Rotterdam,Rotterdam,Zuid-Holland,VBO,4.464337,51.946436
Opaalhof,6,,,3045PG,Rotterdam,Rotterdam,Zuid-Holland,VBO,4.464464,51.946580
Opaalhof,7,,,3045PG,Rotterdam,Rotterdam,Zuid-Holland,VBO,4.464506,51.946453
Erasmussingel,181,,,3045PH,Rotterdam,Rotterdam,Zuid-Holland,VBO,4.464651,51.946926
Erasmussingel,183,,,3045PH,Rotterdam,Rotterdam,Zuid-Holland,VBO,4.464570,51.946927
Erasmussingel,185,,,3045PH,Rotterdam,Rotterdam,Zuid-Holland,VBO,4.464311,51.946909
Erasmussingel,189,,,3045PH,Rotterdam,Rotterdam,Zuid-Holland,VBO,4.464053,51.946877
Erasmussingel,205,,,3045PH,Rotterdam,Rotterdam,Zuid-Holland,VBO,4.463457,51.946929
Erasmussingel,207,,,3045PH,Rotterdam,Rotterdam,Zuid-Holland,VBO,4.463326,51.946930
Erasmussingel,209,,,3045PH,Rotterdam,Rotterdam,Zuid-Holland,VBO,4.463087,51.946922
Erasmussingel,213,,,3045PH,Rotterdam,Rotterdam,Zuid-Holland,VBO,4.462458,51.946953
Erasmussingel,237,,,3045PH,Rotterdam,Rotterdam,Zuid-Holland,VBO,4.461808,51.947014
Gilze-Rijenstraat,28,,,3045PJ,Rotterdam,Rotterdam,Zuid-Holland,VBO,4.451543,51.953568
Gilze-Rijenstraat,34,,,3045PJ,Rotterdam,Rotterdam,Zuid-Holland,VBO,4.452154,51.952965
Gilze-Rijenstraat,46,,,3045PJ,Rotterdam,Rotterdam,Zuid-Holland,VBO,4.452349,51.952756
Gilze-Rijenstraat,48,,,3045PJ,Rotterdam,Rotterdam,Zuid-Holland,VBO,4.452849,51.952679
Gilze-Rijenstraat,50,,,3045PJ,Rotterdam,Rotterdam,Zuid-Holland,VBO,4.452802,51.952298
Gilze-Rijenstraat,52,,,3045PJ,Rotterdam,Rotterdam,Zuid-Holland,VBO,4.452922,51.952182
Kleiweg,339,,,3045PK,Rotterdam,Rotterdam,Zuid-Holland,VBO,4.465549,51.946205
Kleiweg,341,,,3045PK,Rotterdam,Rotterdam,Zuid-Holland,VBO,4.465549,51.946205
Kleiweg,343,,,3045PK,Rotterdam,Rotterdam,Zuid-Holland,VBO,4.465549,51.946205
Kleiweg,345,,,3045PK,Rotterdam,Rotterdam,Zuid-Holland,VBO,4.465549,51.946205
Kleiweg,347,,,3045PK,Rotterdam,Rotterdam,Zuid-Holland,VBO,4.465549,51.946205
Kleiweg,355,,,3045PK,Rotterdam,Rotterdam,Zuid-Holland,VBO,4.465169,51.945883
Kleiweg,361,,,3045PK,Rotterdam,Rotterdam,Zuid-Holland,VBO,4.464805,51.946003
Kleiweg,363,,,3045PK,Rotterdam,Rotterdam,Zuid-Holland,VBO,4.464730,51.946023
Kleiweg,367,,,3045PK,Rotterdam,Rotterdam,Zuid-Holland,VBO,4.464493,51.946118
Kleiweg,373,,,3045PK,Rotterdam,Rotterdam,Zuid-Holland,VBO,4.464089,51.946529
Kleiweg,375,,,3045PK,Rotterdam,Rotterdam,Zuid-Holland,VBO,4.463995,51.946281
Kleiweg,379,A,,3045PK,Rotterdam,Rotterdam,Zuid-Holland,VBO,4.463815,51.946363
Kleiweg,379,B,,3045PK,Rotterdam,Rotterdam,Zuid-Holland,VBO,4.463815,51.946363
Kleiweg,381,,,3045PK,Rotterdam,Rotterdam,Zuid-Holland,VBO,4.463720,51.946378
Kleiweg,383,,,3045PK,Rotterdam,Rotterdam,Zuid-Holland,VBO,4.463629,51.946393
Kleiweg,387,A,,3045PK,Rotterdam,Rotterdam,Zuid-Holland,VBO,4.463518,51.946390
Kleiweg,387,B,,3045PK,Rotterdam,Rotterdam,Zuid-Holland,VBO,4.463518,51.946390
Kleiweg,389,,,3045PK,Rotterdam,Rotterdam,Zuid-Holland,VBO,4.463437,51.946404
Kleiweg,391,A,,3045PK,Rotterdam,Rotterdam,Zuid-Holland,VBO,4.463359,51.946417
Kleiweg,391,B,,3045PK,Rotterdam,Rotterdam,Zuid-Holland,VBO,4.463359,51.946417
Kleiweg,395,,,3045PK,Rotterdam,Rotterdam,Zuid-Holland,VBO,4.463208,51.946442
Kleiweg,397,,,3045PK,Rotterdam,Rotterdam,Zuid-Holland,VBO,4.463132,51.946454
Kleiweg,401,,,3045PK,Rotterdam,Rotterdam,Zuid-Holland,VBO,4.462974,51.946462
Kleiweg,403,,,3045PK,Rotterdam,Rotterdam,Zuid-Holland,VBO,4.462907,51.946472
Kleiweg,415,,,3045PL,Rotterdam,Rotterdam,Zuid-Holland,VBO,4.462166,51.946391
Kleiweg,417,,,3045PL,Rotterdam,Rotterdam,Zuid-Holland,VBO,4.462085,51.946373
Kleiweg,419,,,3045PL,Rotterdam,Rotterdam,Zuid-Holland,VBO,4.461965,51.946310
Kleiweg,421,,,3045PL,Rotterdam,Rotterdam,Zuid-Holland,VBO,4.461892,51.946302
Kleiweg,423,,,3045PL,Rotterdam,Rotterdam,Zuid-Holland,VBO,4.461816,51.946290
Kleiweg,431,,,3045PL,Rotterdam,Rotterdam,Zuid-Holland,VBO,4.461059,51.945856
Kleiweg,437,,,3045PL,Rotterdam,Rotterdam,Zuid-Holland,VBO,4.460836,51.945865
Kleiweg,439,,,3045PL,Rotterdam,Rotterdam,Zuid-Holland,VBO,4.460744,51.945847
Kleiweg,441,,,3045PL,Rotterdam,Rotterdam,Zuid-Holland,VBO,4.460590,51.945824
Kleiweg,443,,,3045PL,Rotterdam,Rotterdam,Zuid-Holland,VBO,4.460376,51.945767
Kleiweg,280,,,3045PM,Rotterdam,Rotterdam,Zuid-Holland,VBO,4.466212,51.944970
Kleiweg,284,,,3045PM,Rotterdam,Rotterdam,Zuid-Holland,VBO,4.465807,51.945389
Kleiweg,290,,,3045PM,Rotterdam,Rotterdam,Zuid-Holland,VBO,4.465298,51.945538
Kleiweg,292,,,3045PM,Rotterdam,Rotterdam,Zuid-Holland,VBO,4.465224,51.945561
Kleiweg,294,,,3045PM,Rotterdam,Rotterdam,Zuid-Holland,VBO,4.465143,51.945585
Kleiweg,296,,,3045PM,Rotterdam,Rotterdam,Zuid-Holland,VBO,4.465064,51.945606
Kleiweg,298,,,3045PM,Rotterdam,Rotterdam,Zuid-Holland,VBO,4.464912,51.945649
Kleiweg,300,,,3045PM,Rotterdam,Rotterdam,Zuid-Holland,VBO,4.464833,51.945675
Kleiweg,302,,,3045PM,Rotterdam,Rotterdam,Zuid-Holland,VBO,4.464758,51.945696
Kleiweg,304,,,3045PM,Rotterdam,Rotterdam,Zuid-Holland,VBO,4.464673,51.945720
Kleiweg,310,,,3045PM,Rotterdam,Rotterdam,Zuid-Holland,VBO,4.463962,51.945395
Kleiweg,314,,,3045PM,Rotterdam,Rotterdam,Zuid-Holland,VBO,4.463331,51.945702
Kleiweg,480,,,3045PM,Rotterdam,Rotterdam,Zuid-Holland,VBO,4.461672,51.943793
Kleiweg,500,,,3045PM,Rotterdam,Rotterdam,Zuid-Holland,VBO,4.461815,51.941353
Rozenlaan,144,,,3045PM,Rotterdam,Rotterdam,Zuid-Holland,VBO,4.466802,51.941062
Soesterbergstraat,15,,,3045PM,Rotterdam,Rotterdam,Zuid-Holland,VBO,4.457541,51.957809
Melanchtonweg,101,,,3045PN,Rotterdam,Rotterdam,Zuid-Holland,STA,4.463534,51.948882
Melanchtonweg,103,,,3045PN,Rotterdam,Rotterdam,Zuid-Holland,STA,4.463491,51.948958
Melanchtonweg,105,,,3045PN,Rotterdam,Rotterdam,Zuid-Holland,STA,4.463447,51.949035
Melanchtonweg,107,,,3045PN,Rotterdam,Rotterdam,Zuid-Holland,STA,4.463404,51.949111
Melanchtonweg,109,,,3045PN,Rotterdam,Rotterdam,Zuid-Holland,STA,4.463360,51.949188
Melanchtonweg,111,,,3045PN,Rotterdam,Rotterdam,Zuid-Holland,STA,4.463317,51.949264
Melanchtonweg,113,,,3045PN,Rotterdam,Rotterdam,Zuid-Holland,STA,4.463267,51.949351
Melanchtonweg,115,,,3045PN,Rotterdam,Rotterdam,Zuid-Holland,STA,4.462955,51.949252
Melanchtonweg,117,,,3045PN,Rotterdam,Rotterdam,Zuid-Holland,STA,4.462786,51.949218
Melanchtonweg,119,,,3045PN,Rotterdam,Rotterdam,Zuid-Holland,STA,4.462629,51.949184
Melanchtonweg,123,,,3045PN,Rotterdam,Rotterdam,Zuid-Holland,STA,4.462363,51.949141
Melanchtonweg,125,,,3045PN,Rotterdam,Rotterdam,Zuid-Holland,VBO,4.462132,51.950002
Melanchtonweg,127,,,3045PN,Rotterdam,Rotterdam,Zuid-Holland,VBO,4.461833,51.949577
Melanchtonweg,129,,,3045PN,Rotterdam,Rotterdam,Zuid-Holland,VBO,4.461931,51.949408
Melanchtonweg,137,,,3045PN,Rotterdam,Rotterdam,Zuid-Holland,VBO,4.461657,51.951281
Melanchtonweg,139,,,3045PN,Rotterdam,Rotterdam,Zuid-Holland,VBO,4.461287,51.952160
Melanchtonweg,145,,,3045PN,Rotterdam,Rotterdam,Zuid-Holland,VBO,4.460658,51.952243
Overschiese Kleiweg,1,,,3045PP,Rotterdam,Rotterdam,Zuid-Holland,VBO,4.458172,51.948528
Overschiese Kleiweg,3,,,3045PP,Rotterdam,Rotterdam,Zuid-Holland,VBO,4.458187,51.948488
Overschiese Kleiweg,5,,,3045PP,Rotterdam,Rotterdam,Zuid-Holland,VBO,4.458205,51.948446
Overschiese Kleiweg,7,,,3045PP,Rotterdam,Rotterdam,Zuid-Holland,VBO,4.458222,51.948407
Overschiese Kleiweg,9,,,3045PP,Rotterdam,Rotterdam,Zuid-Holland,VBO,4.458237,51.948370
Overschiese Kleiweg,11,,,3045PP,Rotterdam,Rotterdam,Zuid-Holland,VBO,4.458251,51.948332
Overschiese Kleiweg,13,,,3045PP,Rotterdam,Rotterdam,Zuid-Holland,VBO,4.458269,51.948289
Overschiese Kleiweg,15,,,3045PP,Rotterdam,Rotterdam,Zuid-Holland,VBO,4.458274,51.948216
Overschiese Kleiweg,17,,,3045PP,Rotterdam,Rotterdam,Zuid-Holland,VBO,4.458338,51.948108
Overschiese Kleiweg,19,,,3045PP,Rotterdam,Rotterdam,Zuid-Holland,VBO,4.458354,51.948070
Overschiese Kleiweg,21,,,3045PP,Rotterdam,Rotterdam,Zuid-Holland,VBO,4.458371,51.948029
Overschiese Kleiweg,23,,,3045PP,Rotterdam,Rotterdam,Zuid-Holland,VBO,4.458388,51.947989
Overschiese Kleiweg,25,,,3045PP,Rotterdam,Rotterdam,Zuid-Holland,VBO,4.458404,51.947950
Overschiese Kleiweg,27,,,3045PP,Rotterdam,Rotterdam,Zuid-Holland,VBO,4.458419,51.947911
Overschiese Kleiweg,29,,,3045PP,Rotterdam,Rotterdam,Zuid-Holland,VBO,4.458436,51.947871
Overschiese Kleiweg,31,,,3045PP,Rotterdam,Rotterdam,Zuid-Holland,VBO,4.458451,51.947835
Overschiese Kleiweg,33,,,3045PP,Rotterdam,Rotterdam,Zuid-Holland,VBO,4.458502,51.947707
Overschiese Kleiweg,35,,,3045PP,Rotterdam,Rotterdam,Zuid-Holland,VBO,4.458519,51.947663
Overschiese Kleiweg,37,,,3045PP,Rotterdam,Rotterdam,Zuid-Holland,VBO,4.458536,51.947622
Overschiese Kleiweg,39,,,3045PP,Rotterdam,Rotterdam,Zuid-Holland,VBO,4.458552,51.947583
Overschiese Kleiweg,41,,,3045PP,Rotterdam,Rotterdam,Zuid-Holland,VBO,4.458568,51.947542
Overschiese Kleiweg,43,,,3045PP,Rotterdam,Rotterdam,Zuid-Holland,VBO,4.458584,51.947503
Overschiese Kleiweg,45,,,3045PP,Rotterdam,Rotterdam,Zuid-Holland,VBO,4.458601,51.947462
Overschiese Kleiweg,47,,,3045PP,Rotterdam,Rotterdam,Zuid-Holland,VBO,4.458620,51.947413
Overschiese Kleiweg,49,,,3045PP,Rotterdam,Rotterdam,Zuid-Holland,VBO,4.458598,51.947285
Overschiese Kleiweg,51,,,3045PP,Rotterdam,Rotterdam,Zuid-Holland,VBO,4.458619,51.947229
Overschiese Kleiweg,53,,,3045PP,Rotterdam,Rotterdam,Zuid-Holland,VBO,4.458635,51.947190
Overschiese Kleiweg,55,,,3045PP,Rotterdam,Rotterdam,Zuid-Holland,VBO,4.458653,51.947148
Overschiese Kleiweg,57,,,3045PP,Rotterdam,Rotterdam,Zuid-Holland,VBO,4.458670,51.947107
Overschiese Kleiweg,59,,,3045PP,Rotterdam,Rotterdam,Zuid-Holland,VBO,4.458686,51.947068
Overschiese Kleiweg,61,,,3045PR,Rotterdam,Rotterdam,Zuid-Holland,VBO,4.458705,51.947026
Overschiese Kleiweg,63,,,3045PR,Rotterdam,Rotterdam,Zuid-Holland,VBO,4.458720,51.946986
Overschiese Kleiweg,65,,,3045PR,Rotterdam,Rotterdam,Zuid-Holland,VBO,4.458783,51.946842
Overschiese Kleiweg,67,,,3045PR,Rotterdam,Rotterdam,Zuid-Holland,VBO,4.458801,51.946801
Overschiese Kleiweg,69,,,3045PR,Rotterdam,Rotterdam,Zuid-Holland,VBO,4.458818,51.946760
Overschiese Kleiweg,71,,,3045PR,Rotterdam,Rotterdam,Zuid-Holland,VBO,4.458835,51.946721
Overschiese Kleiweg,73,,,3045PR,Rotterdam,Rotterdam,Zuid-Holland,VBO,4.458853,51.946679
Overschiese Kleiweg,75,,,3045PR,Rotterdam,Rotterdam,Zuid-Holland,VBO,4.458870,51.946638
Overschiese Kleiweg,77,,,3045PR,Rotterdam,Rotterdam,Zuid-Holland,VBO,4.458887,51.946598
Overschiese Kleiweg,79,,,3045PR,Rotterdam,Rotterdam,Zuid-Holland,VBO,4.458903,51.946559
Overschiese Kleiweg,519,,,3045PR,Rotterdam,Rotterdam,Zuid-Holland,VBO,4.458328,51.942470
Overschiese Kleiweg,490,,,3045PS,Rotterdam,Rotterdam,Zuid-Holland,VBO,4.459104,51.943516
Overschiese Kleiweg,492,,,3045PS,Rotterdam,Rotterdam,Zuid-Holland,VBO,4.459092,51.943458
Overschiese Kleiweg,494,,,3045PS,Rotterdam,Rotterdam,Zuid-Holland,VBO,4.459035,51.943302
Overschiese Kleiweg,496,,,3045PS,Rotterdam,Rotterdam,Zuid-Holland,VBO,4.459009,51.943193
Overschiese Kleiweg,498,,,3045PS,Rotterdam,Rotterdam,Zuid-Holland,VBO,4.458996,51.943082
Overschiese Kleiweg,500,,,3045PS,Rotterdam,Rotterdam,Zuid-Holland,VBO,4.458959,51.942975
Overschiese Kleiweg,504,,,3045PS,Rotterdam,Rotterdam,Zuid-Holland,VBO,4.458947,51.942738
Overschiese Kleiweg,508,,,3045PS,Rotterdam,Rotterdam,Zuid-Holland,VBO,4.458880,51.942536
Overschiese Kleiweg,510,,,3045PS,Rotterdam,Rotterdam,Zuid-Holland,VBO,4.458893,51.942383
Robert Owenstraat,1,,,3045PT,Rotterdam,Rotterdam,Zuid-Holland,VBO,4.461054,51.945531
Robert Owenstraat,2,,,3045PT,Rotterdam,Rotterdam,Zuid-Holland,VBO,4.460855,51.945510
Robert Owenstraat,3,,,3045PT,Rotterdam,Rotterdam,Zuid-Holland,VBO,4.461063,51.945497
Robert Owenstraat,4,,,3045PT,Rotterdam,Rotterdam,Zuid-Holland,VBO,4.460864,51.945475
Robert Owenstraat,5,,,3045PT,Rotterdam,Rotterdam,Zuid-Holland,VBO,4.461076,51.945451
Robert Owenstraat,6,,,3045PT,Rotterdam,Rotterdam,Zuid-Holland,VBO,4.460877,51.945429
Robert Owenstraat,7,,,3045PT,Rotterdam,Rotterdam,Zuid-Holland,VBO,4.461088,51.945408
Robert Owenstraat,8,,,3045PT,Rotterdam,Rotterdam,Zuid-Holland,VBO,4.460889,51.945386
Robert Owenstraat,9,,,3045PT,Rotterdam,Rotterdam,Zuid-Holland,VBO,4.461099,51.945361
Robert Owenstraat,10,,,3045PT,Rotterdam,Rotterdam,Zuid-Holland,VBO,4.460886,51.945339
Robert Owenstraat,11,,,3045PT,Rotterdam,Rotterdam,Zuid-Holland,VBO,4.461114,51.945313
Robert Owenstraat,12,,,3045PT,Rotterdam,Rotterdam,Zuid-Holland,VBO,4.460898,51.945291
Robert Owenstraat,13,,,3045PT,Rotterdam,Rotterdam,Zuid-Holland,VBO,4.461126,51.945268
Robert Owenstraat,14,,,3045PT,Rotterdam,Rotterdam,Zuid-Holland,VBO,4.460912,51.945245
Robert Owenstraat,15,,,3045PT,Rotterdam,Rotterdam,Zuid-Holland,VBO,4.461137,51.945224
Robert Owenstraat,16,,,3045PT,Rotterdam,Rotterdam,Zuid-Holland,VBO,4.460923,51.945202
Robert Owenstraat,17,,,3045PT,Rotterdam,Rotterdam,Zuid-Holland,VBO,4.461148,51.945182
Robert Owenstraat,18,,,3045PT,Rotterdam,Rotterdam,Zuid-Holland,VBO,4.460936,51.945158
Robert Owenstraat,19,,,3045PT,Rotterdam,Rotterdam,Zuid-Holland,VBO,4.461161,51.945132
Robert Owenstraat,20,,,3045PT,Rotterdam,Rotterdam,Zuid-Holland,VBO,4.460949,51.945110
Robert Owenstraat,21,,,3045PT,Rotterdam,Rotterdam,Zuid-Holland,VBO,4.461171,51.945091
Robert Owenstraat,22,,,3045PT,Rotterdam,Rotterdam,Zuid-Holland,VBO,4.460960,51.945070
Robert Owenstraat,23,,,3045PT,Rotterdam,Rotterdam,Zuid-Holland,VBO,4.461182,51.945056
Robert Owenstraat,24,,,3045PT,Rotterdam,Rotterdam,Zuid-Holland,VBO,4.460970,51.945036
Tempelhof,4,,,3045PV,Rotterdam,Rotterdam,Zuid-Holland,VBO,4.448020,51.953746
Tempelhof,5,,,3045PV,Rotterdam,Rotterdam,Zuid-Holland,VBO,4.447867,51.953236
Tempelhof,7,,,3045PV,Rotterdam,Rotterdam,Zuid-Holland,VBO,4.448175,51.952843
Tempelhof,9,,,3045PV,Rotterdam,Rotterdam,Zuid-Holland,VBO,4.447941,51.952736
Tempelhof,11,,,3045PV,Rotterdam,Rotterdam,Zuid-Holland,VBO,4.447867,51.952714
Teugeweg,101,,,3045PW,Rotterdam,Rotterdam,Zuid-Holland,VBO,4.460491,51.957745
Volkelstraat,9,,,3045PX,Rotterdam,Rotterdam,Zuid-Holland,VBO,4.450887,51.955012
Volkelstraat,11,,,3045PX,Rotterdam,Rotterdam,Zuid-Holland,VBO,4.450102,51.954835
Volkelstraat,13,,,3045PX,Rotterdam,Rotterdam,Zuid-Holland,VBO,4.449621,51.954743
Volkelstraat,14,,,3045PX,Rotterdam,Rotterdam,Zuid-Holland,VBO,4.454031,51.955964
Volkelstraat,19,,,3045PX,Rotterdam,Rotterdam,Zuid-Holland,VBO,4.449216,51.954665
Volkelstraat,31,,,3045PX,Rotterdam,Rotterdam,Zuid-Holland,VBO,4.447112,51.954775
Woensdrechtstraat,10,,,3045PZ,Rotterdam,Rotterdam,Zuid-Holland,VBO,4.456806,51.952372
Woensdrechtstraat,15,,,3045PZ,Rotterdam,Rotterdam,Zuid-Holland,VBO,4.454702,51.953130
Woensdrechtstraat,17,,,3045PZ,Rotterdam,Rotterdam,Zuid-Holland,VBO,4.454346,51.952755
Woensdrechtstraat,19,,,3045PZ,Rotterdam,Rotterdam,Zuid-Holland,VBO,4.454346,51.952755
Woensdrechtstraat,21,,,3045PZ,Rotterdam,Rotterdam,Zuid-Holland,VBO,4.454105,51.952986
Woensdrechtstraat,23,,,3045PZ,Rotterdam,Rotterdam,Zuid-Holland,VBO,4.454000,51.953087
Woensdrechtstraat,27,,,3045PZ,Rotterdam,Rotterdam,Zuid-Holland,VBO,4.453700,51.953373
Woensdrechtstraat,29,,,3045PZ,Rotterdam,Rotterdam,Zuid-Holland,VBO,4.453580,51.953489
Woensdrechtstraat,37,,,3045PZ,Rotterdam,Rotterdam,Zuid-Holland,VBO,4.453056,51.953992
Woensdrechtstraat,39,,,3045PZ,Rotterdam,Rotterdam,Zuid-Holland,VBO,4.453056,51.953992
Woensdrechtstraat,41,,,3045PZ,Rotterdam,Rotterdam,Zuid-Holland,VBO,4.453056,51.953992
Woensdrechtstraat,43,,,3045PZ,Rotterdam,Rotterdam,Zuid-Holland,VBO,4.453056,51.953992
Woensdrechtstraat,45,,,3045PZ,Rotterdam,Rotterdam,Zuid-Holland,VBO,4.453056,51.953992
Woensdrechtstraat,47,,,3045PZ,Rotterdam,Rotterdam,Zuid-Holland,VBO,4.453056,51.953992
Woensdrechtstraat,67,,,3045PZ,Rotterdam,Rotterdam,Zuid-Holland,VBO,4.453000,51.954905
Woensdrechtstraat,79,,,3045PZ,Rotterdam,Rotterdam,Zuid-Holland,VBO,4.453531,51.954162
Korte Kleiweg,4,,,3045RC,Rotterdam,Rotterdam,Zuid-Holland,VBO,4.462538,51.946581
Korte Kleiweg,6,,,3045RC,Rotterdam,Rotterdam,Zuid-Holland,VBO,4.462541,51.946637
Korte Kleiweg,40,,,3045RC,Rotterdam,Rotterdam,Zuid-Holland,VBO,4.462475,51.947285
Frobenstraat,1,,,3045RD,Rotterdam,Rotterdam,Zuid-Holland,VBO,4.462535,51.948134
Frobenstraat,3,,,3045RD,Rotterdam,Rotterdam,Zuid-Holland,VBO,4.462801,51.947997
Frobenstraat,7,,,3045RD,Rotterdam,Rotterdam,Zuid-Holland,VBO,4.463002,51.947643
Frobenstraat,8,,,3045RD,Rotterdam,Rotterdam,Zuid-Holland,VBO,4.463361,51.947725
Frobenstraat,15,,,3045RD,Rotterdam,Rotterdam,Zuid-Holland,VBO,4.462686,51.947665
Frobenstraat,17,B,,3045RD,Rotterdam,Rotterdam,Zuid-Holland,VBO,4.462133,51.947621
Frobenstraat,17,,,3045RD,Rotterdam,Rotterdam,Zuid-Holland,VBO,4.462686,51.947665
Frobenstraat,19,A,,3045RD,Rotterdam,Rotterdam,Zuid-Holland,VBO,4.462990,51.947349
Frobenstraat,19,B,,3045RD,Rotterdam,Rotterdam,Zuid-Holland,VBO,4.462990,51.947349
Frobenstraat,19,C,,3045RD,Rotterdam,Rotterdam,Zuid-Holland,VBO,4.462990,51.947349
Frobenstraat,19,D,,3045RD,Rotterdam,Rotterdam,Zuid-Holland,VBO,4.462990,51.947349
Frobenstraat,21,A,,3045RD,Rotterdam,Rotterdam,Zuid-Holland,VBO,4.463204,51.947397
Frobenstraat,21,B,,3045RD,Rotterdam,Rotterdam,Zuid-Holland,VBO,4.463204,51.947397
Frobenstraat,21,C,,3045RD,Rotterdam,Rotterdam,Zuid-Holland,VBO,4.463204,51.947397
Frobenstraat,21,D,,3045RD,Rotterdam,Rotterdam,Zuid-Holland,VBO,4.463204,51.947397
Frobenstraat,25,,,3045RD,Rotterdam,Rotterdam,Zuid-Holland,VBO,4.463997,51.947467
Amerbachstraat,3,,,3045RE,Rotterdam,Rotterdam,Zuid-Holland,VBO,4.461509,51.946160
Amerbachstraat,4,,,3045RE,Rotterdam,Rotterdam,Zuid-Holland,VBO,4.461192,51.946038
Amerbachstraat,5,,,3045RE,Rotterdam,Rotterdam,Zuid-Holland,VBO,4.461429,51.946262
Amerbachstraat,6,,,3045RE,Rotterdam,Rotterdam,Zuid-Holland,VBO,4.461195,51.946095
Amerbachstraat,7,,,3045RE,Rotterdam,Rotterdam,Zuid-Holland,VBO,4.461433,51.946318
Amerbachstraat,8,,,3045RE,Rotterdam,Rotterdam,Zuid-Holland,VBO,4.461154,51.946194
Amerbachstraat,9,,,3045RE,Rotterdam,Rotterdam,Zuid-Holland,VBO,4.461418,51.946428
Amerbachstraat,10,,,3045RE,Rotterdam,Rotterdam,Zuid-Holland,VBO,4.461157,51.946248
Amerbachstraat,12,,,3045RE,Rotterdam,Rotterdam,Zuid-Holland,VBO,4.461163,51.946356
Amerbachstraat,13,,,3045RE,Rotterdam,Rotterdam,Zuid-Holland,VBO,4.461861,51.946590
Amerbachstraat,14,,,3045RE,Rotterdam,Rotterdam,Zuid-Holland,VBO,4.461166,51.946414
Amerbachstraat,15,,,3045RE,Rotterdam,Rotterdam,Zuid-Holland,VBO,4.461864,51.946643
Amerbachstraat,16,,,3045RE,Rotterdam,Rotterdam,Zuid-Holland,VBO,4.461172,51.946513
Amerbachstraat,18,,,3045RE,Rotterdam,Rotterdam,Zuid-Holland,VBO,4.461175,51.946567
Amerbachstraat,20,,,3045RE,Rotterdam,Rotterdam,Zuid-Holland,VBO,4.461180,51.946671
Amerbachstraat,22,,,3045RE,Rotterdam,Rotterdam,Zuid-Holland,VBO,4.461490,51.946595
Amerbachstraat,24,,,3045RE,Rotterdam,Rotterdam,Zuid-Holland,VBO,4.461582,51.946594
Petristraat,239,,,3045RG,Rotterdam,Rotterdam,Zuid-Holland,VBO,4.461711,51.947725
Petristraat,241,,,3045RG,Rotterdam,Rotterdam,Zuid-Holland,VBO,4.461456,51.947669
Petristraat,245,,,3045RG,Rotterdam,Rotterdam,Zuid-Holland,VBO,4.461090,51.947656
Schipholstraat,1,,,3045XA,Rotterdam,Rotterdam,Zuid-Holland,VBO,4.434998,51.945452
Schipholstraat,3,,,3045XA,Rotterdam,Rotterdam,Zuid-Holland,VBO,4.434925,51.945420
Schipholstraat,5,,,3045XA,Rotterdam,Rotterdam,Zuid-Holland,VBO,4.434850,51.945392
Schipholstraat,7,,,3045XA,Rotterdam,Rotterdam,Zuid-Holland,VBO,4.434776,51.945363
Schipholstraat,9,,,3045XA,Rotterdam,Rotterdam,Zuid-Holland,VBO,4.434701,51.945334
Schipholstraat,11,,,3045XA,Rotterdam,Rotterdam,Zuid-Holland,VBO,4.434622,51.945303
Schipholstraat,13,,,3045XA,Rotterdam,Rotterdam,Zuid-Holland,VBO,4.434544,51.945272
Schipholstraat,15,,,3045XA,Rotterdam,Rotterdam,Zuid-Holland,VBO,4.434473,51.945246
Schipholstraat,17,,,3045XA,Rotterdam,Rotterdam,Zuid-Holland,VBO,4.434397,51.945218
Schipholstraat,19,,,3045XA,Rotterdam,Rotterdam,Zuid-Holland,VBO,4.434320,51.945185
Schipholstraat,21,,,3045XA,Rotterdam,Rotterdam,Zuid-Holland,VBO,4.434201,51.945159
Schipholstraat,23,,,3045XA,Rotterdam,Rotterdam,Zuid-Holland,VBO,4.434128,51.945131
Schipholstraat,25,,,3045XA,Rotterdam,Rotterdam,Zuid-Holland,VBO,4.434054,51.945101
Schipholstraat,27,,,3045XA,Rotterdam,Rotterdam,Zuid-Holland,VBO,4.433979,51.945071
Schipholstraat,29,,,3045XA,Rotterdam,Rotterdam,Zuid-Holland,VBO,4.433906,51.945040
Schipholstraat,31,,,3045XA,Rotterdam,Rotterdam,Zuid-Holland,VBO,4.433833,51.945012
Schipholstraat,33,,,3045XA,Rotterdam,Rotterdam,Zuid-Holland,VBO,4.433758,51.944982
Schipholstraat,35,,,3045XA,Rotterdam,Rotterdam,Zuid-Holland,VBO,4.433684,51.944952
Schipholstraat,37,,,3045XB,Rotterdam,Rotterdam,Zuid-Holland,VBO,4.433588,51.944895
Schipholstraat,39,,,3045XB,Rotterdam,Rotterdam,Zuid-Holland,VBO,4.433515,51.944864
Schipholstraat,41,,,3045XB,Rotterdam,Rotterdam,Zuid-Holland,VBO,4.433442,51.944835
Schipholstraat,43,,,3045XB,Rotterdam,Rotterdam,Zuid-Holland,VBO,4.433368,51.944805
Schipholstraat,45,,,3045XB,Rotterdam,Rotterdam,Zuid-Holland,VBO,4.433292,51.944775
Schipholstraat,47,,,3045XB,Rotterdam,Rotterdam,Zuid-Holland,VBO,4.433218,51.944745
Schipholstraat,49,,,3045XB,Rotterdam,Rotterdam,Zuid-Holland,VBO,4.433141,51.944715
Schipholstraat,51,,,3045XB,Rotterdam,Rotterdam,Zuid-Holland,VBO,4.433065,51.944686
Schipholstraat,53,,,3045XB,Rotterdam,Rotterdam,Zuid-Holland,VBO,4.432989,51.944655
Schipholstraat,55,,,3045XB,Rotterdam,Rotterdam,Zuid-Holland,VBO,4.432915,51.944625
Schipholstraat,57,,,3045XB,Rotterdam,Rotterdam,Zuid-Holland,VBO,4.432527,51.944492
Schipholstraat,59,,,3045XB,Rotterdam,Rotterdam,Zuid-Holland,VBO,4.432453,51.944463
Schipholstraat,61,,,3045XB,Rotterdam,Rotterdam,Zuid-Holland,VBO,4.432378,51.944433
Schipholstraat,63,,,3045XB,Rotterdam,Rotterdam,Zuid-Holland,VBO,4.432304,51.944404
Schipholstraat,65,,,3045XB,Rotterdam,Rotterdam,Zuid-Holland,VBO,4.432229,51.944374
Schipholstraat,67,,,3045XB,Rotterdam,Rotterdam,Zuid-Holland,VBO,4.432154,51.944344
Schipholstraat,69,,,3045XB,Rotterdam,Rotterdam,Zuid-Holland,VBO,4.432078,51.944315
Schipholstraat,71,,,3045XB,Rotterdam,Rotterdam,Zuid-Holland,VBO,4.432004,51.944285
Schipholstraat,2,,,3045XC,Rotterdam,Rotterdam,Zuid-Holland,VBO,4.435059,51.945313
Schipholstraat,4,,,3045XC,Rotterdam,Rotterdam,Zuid-Holland,VBO,4.434985,51.945284
Schipholstraat,6,,,3045XC,Rotterdam,Rotterdam,Zuid-Holland,VBO,4.434908,51.945255
Schipholstraat,8,,,3045XC,Rotterdam,Rotterdam,Zuid-Holland,VBO,4.434832,51.945224
Schipholstraat,10,,,3045XC,Rotterdam,Rotterdam,Zuid-Holland,VBO,4.434756,51.945193
Schipholstraat,12,,,3045XC,Rotterdam,Rotterdam,Zuid-Holland,VBO,4.434680,51.945163
Schipholstraat,14,,,3045XC,Rotterdam,Rotterdam,Zuid-Holland,VBO,4.434603,51.945135
Schipholstraat,16,,,3045XC,Rotterdam,Rotterdam,Zuid-Holland,VBO,4.434541,51.945108
Schipholstraat,18,,,3045XC,Rotterdam,Rotterdam,Zuid-Holland,VBO,4.434457,51.945075
Schipholstraat,20,,,3045XC,Rotterdam,Rotterdam,Zuid-Holland,VBO,4.434383,51.945047
Schipholstraat,22,,,3045XC,Rotterdam,Rotterdam,Zuid-Holland,VBO,4.434311,51.945018
Schipholstraat,24,,,3045XC,Rotterdam,Rotterdam,Zuid-Holland,VBO,4.434239,51.944990
Schipholstraat,50,,,3045XD,Rotterdam,Rotterdam,Zuid-Holland,VBO,4.433910,51.944858
Schipholstraat,52,,,3045XD,Rotterdam,Rotterdam,Zuid-Holland,VBO,4.433834,51.944828
Schipholstraat,54,,,3045XD,Rotterdam,Rotterdam,Zuid-Holland,VBO,4.433760,51.944799
Schipholstraat,56,,,3045XD,Rotterdam,Rotterdam,Zuid-Holland,VBO,4.433685,51.944769
Schipholstraat,58,,,3045XD,Rotterdam,Rotterdam,Zuid-Holland,VBO,4.433609,51.944739
Schipholstraat,60,,,3045XD,Rotterdam,Rotterdam,Zuid-Holland,VBO,4.433532,51.944709
Schipholstraat,62,,,3045XD,Rotterdam,Rotterdam,Zuid-Holland,VBO,4.433458,51.944678
Schipholstraat,64,,,3045XD,Rotterdam,Rotterdam,Zuid-Holland,VBO,4.433384,51.944650
Schipholstraat,66,,,3045XD,Rotterdam,Rotterdam,Zuid-Holland,VBO,4.433308,51.944619
Schipholstraat,68,,,3045XD,Rotterdam,Rotterdam,Zuid-Holland,VBO,4.433232,51.944589
Schipholstraat,70,,,3045XD,Rotterdam,Rotterdam,Zuid-Holland,VBO,4.433158,51.944559
Schipholstraat,72,,,3045XD,Rotterdam,Rotterdam,Zuid-Holland,VBO,4.433082,51.944529
Schipholstraat,76,,,3045XD,Rotterdam,Rotterdam,Zuid-Holland,VBO,4.432684,51.944076
Schipholstraat,78,,,3045XD,Rotterdam,Rotterdam,Zuid-Holland,VBO,4.432649,51.944064
Schipholstraat,80,,,3045XD,Rotterdam,Rotterdam,Zuid-Holland,VBO,4.432562,51.944027
Welschapstraat,1,,,3045XE,Rotterdam,Rotterdam,Zuid-Holland,VBO,4.435323,51.945061
Welschapstraat,3,,,3045XE,Rotterdam,Rotterdam,Zuid-Holland,VBO,4.435249,51.945031
Welschapstraat,5,,,3045XE,Rotterdam,Rotterdam,Zuid-Holland,VBO,4.435175,51.945001
Welschapstraat,7,,,3045XE,Rotterdam,Rotterdam,Zuid-Holland,VBO,4.435102,51.944972
Welschapstraat,9,,,3045XE,Rotterdam,Rotterdam,Zuid-Holland,VBO,4.435024,51.944941
Welschapstraat,11,,,3045XE,Rotterdam,Rotterdam,Zuid-Holland,VBO,4.434955,51.944912
Welschapstraat,13,,,3045XE,Rotterdam,Rotterdam,Zuid-Holland,VBO,4.434879,51.944883
Welschapstraat,15,,,3045XE,Rotterdam,Rotterdam,Zuid-Holland,VBO,4.434806,51.944854
Welschapstraat,17,,,3045XE,Rotterdam,Rotterdam,Zuid-Holland,VBO,4.434729,51.944823
Welschapstraat,19,,,3045XE,Rotterdam,Rotterdam,Zuid-Holland,VBO,4.434656,51.944794
Welschapstraat,21,,,3045XE,Rotterdam,Rotterdam,Zuid-Holland,VBO,4.434576,51.944762
Welschapstraat,23,,,3045XE,Rotterdam,Rotterdam,Zuid-Holland,VBO,4.434496,51.944732
Welschapstraat,49,,,3045XG,Rotterdam,Rotterdam,Zuid-Holland,VBO,4.434180,51.944603
Welschapstraat,51,,,3045XG,Rotterdam,Rotterdam,Zuid-Holland,VBO,4.434100,51.944572
Welschapstraat,53,,,3045XG,Rotterdam,Rotterdam,Zuid-Holland,VBO,4.434026,51.944543
Welschapstraat,55,,,3045XG,Rotterdam,Rotterdam,Zuid-Holland,VBO,4.433950,51.944513
Welschapstraat,57,,,3045XG,Rotterdam,Rotterdam,Zuid-Holland,VBO,4.433875,51.944482
Welschapstraat,59,,,3045XG,Rotterdam,Rotterdam,Zuid-Holland,VBO,4.433801,51.944453
Welschapstraat,61,,,3045XG,Rotterdam,Rotterdam,Zuid-Holland,VBO,4.433726,51.944423
Welschapstraat,63,,,3045XG,Rotterdam,Rotterdam,Zuid-Holland,VBO,4.433651,51.944394
Welschapstraat,65,,,3045XG,Rotterdam,Rotterdam,Zuid-Holland,VBO,4.433575,51.944364
Welschapstraat,67,,,3045XG,Rotterdam,Rotterdam,Zuid-Holland,VBO,4.433501,51.944334
Welschapstraat,69,,,3045XG,Rotterdam,Rotterdam,Zuid-Holland,VBO,4.433426,51.944304
Welschapstraat,71,,,3045XG,Rotterdam,Rotterdam,Zuid-Holland,VBO,4.433350,51.944274
Welschapstraat,2,,,3045XH,Rotterdam,Rotterdam,Zuid-Holland,VBO,4.435484,51.944956
Welschapstraat,4,,,3045XH,Rotterdam,Rotterdam,Zuid-Holland,VBO,4.435408,51.944926
Welschapstraat,6,,,3045XH,Rotterdam,Rotterdam,Zuid-Holland,VBO,4.435328,51.944895
Welschapstraat,8,,,3045XH,Rotterdam,Rotterdam,Zuid-Holland,VBO,4.435257,51.944867
Welschapstraat,10,,,3045XH,Rotterdam,Rotterdam,Zuid-Holland,VBO,4.435177,51.944836
Welschapstraat,12,,,3045XH,Rotterdam,Rotterdam,Zuid-Holland,VBO,4.435106,51.944806
Welschapstraat,14,,,3045XH,Rotterdam,Rotterdam,Zuid-Holland,VBO,4.435027,51.944776
Welschapstraat,16,,,3045XH,Rotterdam,Rotterdam,Zuid-Holland,VBO,4.434958,51.944748
Welschapstraat,18,,,3045XH,Rotterdam,Rotterdam,Zuid-Holland,VBO,4.434829,51.944677
Welschapstraat,20,,,3045XH,Rotterdam,Rotterdam,Zuid-Holland,VBO,4.434754,51.944647
Welschapstraat,22,,,3045XH,Rotterdam,Rotterdam,Zuid-Holland,VBO,4.434681,51.944620
Welschapstraat,24,,,3045XH,Rotterdam,Rotterdam,Zuid-Holland,VBO,4.434602,51.944589
Welschapstraat,26,,,3045XH,Rotterdam,Rotterdam,Zuid-Holland,VBO,4.434513,51.944550
Welschapstraat,28,,,3045XH,Rotterdam,Rotterdam,Zuid-Holland,VBO,4.434454,51.944526
Welschapstraat,30,,,3045XJ,Rotterdam,Rotterdam,Zuid-Holland,VBO,4.434378,51.944497
Welschapstraat,32,,,3045XJ,Rotterdam,Rotterdam,Zuid-Holland,VBO,4.434301,51.944468
Welschapstraat,34,,,3045XJ,Rotterdam,Rotterdam,Zuid-Holland,VBO,4.434225,51.944439
Welschapstraat,36,,,3045XJ,Rotterdam,Rotterdam,Zuid-Holland,VBO,4.434148,51.944409
Welschapstraat,38,,,3045XJ,Rotterdam,Rotterdam,Zuid-Holland,VBO,4.433994,51.944368
Welschapstraat,40,,,3045XJ,Rotterdam,Rotterdam,Zuid-Holland,VBO,4.433921,51.944337
Welschapstraat,42,,,3045XJ,Rotterdam,Rotterdam,Zuid-Holland,VBO,4.433844,51.944308
Welschapstraat,44,,,3045XJ,Rotterdam,Rotterdam,Zuid-Holland,VBO,4.433769,51.944278
Welschapstraat,46,,,3045XJ,Rotterdam,Rotterdam,Zuid-Holland,VBO,4.433693,51.944248
Welschapstraat,48,,,3045XJ,Rotterdam,Rotterdam,Zuid-Holland,VBO,4.433618,51.944218
Welschapstraat,50,,,3045XJ,Rotterdam,Rotterdam,Zuid-Holland,VBO,4.433541,51.944189
Welschapstraat,52,,,3045XJ,Rotterdam,Rotterdam,Zuid-Holland,VBO,4.433466,51.944160
Ypenburgstraat,2,,,3045XK,Rotterdam,Rotterdam,Zuid-Holland,VBO,4.435194,51.945456
Ypenburgstraat,4,,,3045XK,Rotterdam,Rotterdam,Zuid-Holland,VBO,4.435242,51.945410
Ypenburgstraat,6,,,3045XK,Rotterdam,Rotterdam,Zuid-Holland,VBO,4.435292,51.945362
Ypenburgstraat,8,,,3045XK,Rotterdam,Rotterdam,Zuid-Holland,VBO,4.435338,51.945317
Ypenburgstraat,10,,,3045XK,Rotterdam,Rotterdam,Zuid-Holland,VBO,4.435388,51.945269
Ypenburgstraat,12,,,3045XK,Rotterdam,Rotterdam,Zuid-Holland,VBO,4.435437,51.945221
Ypenburgstraat,14,,,3045XK,Rotterdam,Rotterdam,Zuid-Holland,VBO,4.435483,51.945178
Ypenburgstraat,16,,,3045XK,Rotterdam,Rotterdam,Zuid-Holland,VBO,4.435531,51.945132
Ypenburgstraat,18,,,3045XK,Rotterdam,Rotterdam,Zuid-Holland,VBO,4.435579,51.945084
Ypenburgstraat,20,,,3045XK,Rotterdam,Rotterdam,Zuid-Holland,VBO,4.435626,51.945037
