openbareruimtenaam,huisnummer,huisletter,huisnummertoevoeging,postcode,woonplaatsnaam,gemeentenaam,provincienaam,typeadresseerbaarobject,longitude,latitude
Oldegaarde,21,,,3084AA,Rotterdam,Rotterdam,Zuid-Holland,VBO,4.496094,51.880457
Oldegaarde,251,,,3084AA,Rotterdam,Rotterdam,Zuid-Holland,VBO,4.491617,51.878214
Oldegaarde,331,,,3084AA,Rotterdam,Rotterdam,Zuid-Holland,VBO,4.486795,51.877617
Oldegaarde,345,,,3084AA,Rotterdam,Rotterdam,Zuid-Holland,VBO,4.485894,51.878509
Oldegaarde,353,,,3084AA,Rotterdam,Rotterdam,Zuid-Holland,VBO,4.484542,51.878284
Oldegaarde,425,,,3084AA,Rotterdam,Rotterdam,Zuid-Holland,VBO,4.480859,51.878659
Oldegaarde,951,,,3084AA,Rotterdam,Rotterdam,Zuid-Holland,VBO,4.468010,51.879265
Zuiderparkweg,14,,,3084BB,Rotterdam,Rotterdam,Zuid-Holland,VBO,4.488707,51.884259
Zuiderparkweg,100,,,3084BB,Rotterdam,Rotterdam,Zuid-Holland,VBO,4.482972,51.881153
Zuiderparkweg,211,,,3084BC,Rotterdam,Rotterdam,Zuid-Holland,VBO,4.481031,51.884226
Zuiderparkweg,215,,,3084BC,Rotterdam,Rotterdam,Zuid-Holland,VBO,4.482852,51.884146
Zuiderparkplein,20,,,3084BD,Rotterdam,Rotterdam,Zuid-Holland,VBO,4.487123,51.883554
Driemanssteeweg,5,,,3084CA,Rotterdam,Rotterdam,Zuid-Holland,VBO,4.452336,51.868872
Driemanssteeweg,11,,,3084CA,Rotterdam,Rotterdam,Zuid-Holland,VBO,4.448998,51.868115
Driemanssteeweg,15,,,3084CA,Rotterdam,Rotterdam,Zuid-Holland,VBO,4.452305,51.867955
Driemanssteeweg,25,,,3084CA,Rotterdam,Rotterdam,Zuid-Holland,VBO,4.451573,51.866286
Driemanssteeweg,31,,,3084CA,Rotterdam,Rotterdam,Zuid-Holland,VBO,4.453057,51.866142
Driemanssteeweg,33,,,3084CA,Rotterdam,Rotterdam,Zuid-Holland,VBO,4.452918,51.866085
Driemanssteeweg,35,,,3084CA,Rotterdam,Rotterdam,Zuid-Holland,VBO,4.452748,51.866016
Driemanssteeweg,37,,,3084CA,Rotterdam,Rotterdam,Zuid-Holland,VBO,4.452593,51.865952
Driemanssteeweg,39,,,3084CA,Rotterdam,Rotterdam,Zuid-Holland,VBO,4.452440,51.865890
Driemanssteeweg,45,,,3084CA,Rotterdam,Rotterdam,Zuid-Holland,VBO,4.453336,51.865878
Driemanssteeweg,10,,,3084CB,Rotterdam,Rotterdam,Zuid-Holland,VBO,4.453587,51.868484
Driemanssteeweg,20,,,3084CB,Rotterdam,Rotterdam,Zuid-Holland,VBO,4.453533,51.866712
Driemanssteeweg,30,,,3084CB,Rotterdam,Rotterdam,Zuid-Holland,VBO,4.453629,51.866289
Driemanssteeweg,38,A,,3084CB,Rotterdam,Rotterdam,Zuid-Holland,VBO,4.453901,51.866013
Driemanssteeweg,38,,,3084CB,Rotterdam,Rotterdam,Zuid-Holland,VBO,4.453901,51.866013
Driemanssteeweg,40,,,3084CB,Rotterdam,Rotterdam,Zuid-Holland,VBO,4.454658,51.865545
Driemanssteeweg,46,,,3084CB,Rotterdam,Rotterdam,Zuid-Holland,VBO,4.455490,51.866040
Driemanssteeweg,48,,,3084CB,Rotterdam,Rotterdam,Zuid-Holland,VBO,4.455650,51.865899
Driemanssteeweg,50,,,3084CB,Rotterdam,Rotterdam,Zuid-Holland,VBO,4.455731,51.865832
Driemanssteeweg,52,,,3084CB,Rotterdam,Rotterdam,Zuid-Holland,VBO,4.455909,51.865692
Driemanssteeweg,56,,,3084CB,Rotterdam,Rotterdam,Zuid-Holland,VBO,4.455218,51.865361
Driemanssteeweg,60,,,3084CB,Rotterdam,Rotterdam,Zuid-Holland,VBO,4.455937,51.865165
Driemanssteeweg,62,,,3084CB,Rotterdam,Rotterdam,Zuid-Holland,VBO,4.457313,51.866238
Driemanssteeweg,70,,,3084CB,Rotterdam,Rotterdam,Zuid-Holland,VBO,4.457038,51.864882
Driemanssteeweg,76,,,3084CB,Rotterdam,Rotterdam,Zuid-Holland,VBO,4.457771,51.865034
Driemanssteeweg,82,,,3084CB,Rotterdam,Rotterdam,Zuid-Holland,VBO,4.457449,51.865321
Driemanssteeweg,84,,,3084CB,Rotterdam,Rotterdam,Zuid-Holland,VBO,4.457525,51.865254
Driemanssteeweg,86,,,3084CB,Rotterdam,Rotterdam,Zuid-Holland,VBO,4.457596,51.865190
Driemanssteeweg,94,,,3084CB,Rotterdam,Rotterdam,Zuid-Holland,VBO,4.457756,51.865376
Driemanssteeweg,96,,,3084CB,Rotterdam,Rotterdam,Zuid-Holland,VBO,4.457869,51.865275
Driemanssteeweg,102,,,3084CB,Rotterdam,Rotterdam,Zuid-Holland,VBO,4.459393,51.865567
Driemanssteeweg,106,,,3084CB,Rotterdam,Rotterdam,Zuid-Holland,VBO,4.458585,51.865388
Driemanssteeweg,120,,,3084CB,Rotterdam,Rotterdam,Zuid-Holland,VBO,4.459756,51.865252
Driemanssteeweg,130,,,3084CB,Rotterdam,Rotterdam,Zuid-Holland,VBO,4.458705,51.864657
Driemanssteeweg,150,,,3084CB,Rotterdam,Rotterdam,Zuid-Holland,VBO,4.459453,51.864237
Driemanssteeweg,160,,,3084CB,Rotterdam,Rotterdam,Zuid-Holland,VBO,4.460079,51.864118
Driemanssteeweg,170,,,3084CB,Rotterdam,Rotterdam,Zuid-Holland,VBO,4.460415,51.864009
Driemanssteeweg,172,A,,3084CB,Rotterdam,Rotterdam,Zuid-Holland,VBO,4.460660,51.864503
Driemanssteeweg,172,C,,3084CB,Rotterdam,Rotterdam,Zuid-Holland,VBO,4.460966,51.864623
Driemanssteeweg,174,,,3084CB,Rotterdam,Rotterdam,Zuid-Holland,VBO,4.461647,51.864508
Driemanssteeweg,182,,,3084CB,Rotterdam,Rotterdam,Zuid-Holland,VBO,4.462212,51.864311
Driemanssteeweg,186,,,3084CB,Rotterdam,Rotterdam,Zuid-Holland,VBO,4.461873,51.864285
Driemanssteeweg,188,,,3084CB,Rotterdam,Rotterdam,Zuid-Holland,VBO,4.461596,51.864158
Driemanssteeweg,190,,,3084CB,Rotterdam,Rotterdam,Zuid-Holland,VBO,4.461080,51.863843
Driemanssteeweg,200,,,3084CB,Rotterdam,Rotterdam,Zuid-Holland,VBO,4.462611,51.863525
Driemanssteeweg,210,,,3084CB,Rotterdam,Rotterdam,Zuid-Holland,VBO,4.463324,51.863389
Driemanssteeweg,240,,,3084CB,Rotterdam,Rotterdam,Zuid-Holland,VBO,4.463672,51.863874
Driemanssteeweg,250,,,3084CB,Rotterdam,Rotterdam,Zuid-Holland,VBO,4.463970,51.864094
Driemanssteeweg,560,,,3084CB,Rotterdam,Rotterdam,Zuid-Holland,VBO,4.470972,51.862900
Driemanssteeweg,600,,,3084CB,Rotterdam,Rotterdam,Zuid-Holland,VBO,4.470777,51.863877
Driemanssteeweg,602,,,3084CB,Rotterdam,Rotterdam,Zuid-Holland,VBO,4.470864,51.863859
Driemanssteeweg,604,,,3084CB,Rotterdam,Rotterdam,Zuid-Holland,VBO,4.470957,51.863839
Driemanssteeweg,606,,,3084CB,Rotterdam,Rotterdam,Zuid-Holland,VBO,4.471054,51.863818
Driemanssteeweg,608,,,3084CB,Rotterdam,Rotterdam,Zuid-Holland,VBO,4.471146,51.863798
Driemanssteeweg,610,,,3084CB,Rotterdam,Rotterdam,Zuid-Holland,VBO,4.471236,51.863779
Driemanssteeweg,612,,,3084CB,Rotterdam,Rotterdam,Zuid-Holland,VBO,4.471323,51.863761
Driemanssteeweg,614,,,3084CB,Rotterdam,Rotterdam,Zuid-Holland,VBO,4.471418,51.863740
Driemanssteeweg,616,,,3084CB,Rotterdam,Rotterdam,Zuid-Holland,VBO,4.471509,51.863721
Driemanssteeweg,618,,,3084CB,Rotterdam,Rotterdam,Zuid-Holland,VBO,4.471595,51.863703
Driemanssteeweg,620,,,3084CB,Rotterdam,Rotterdam,Zuid-Holland,VBO,4.470900,51.864094
Driemanssteeweg,622,,,3084CB,Rotterdam,Rotterdam,Zuid-Holland,VBO,4.470990,51.864074
Driemanssteeweg,624,,,3084CB,Rotterdam,Rotterdam,Zuid-Holland,VBO,4.471075,51.864056
Driemanssteeweg,626,,,3084CB,Rotterdam,Rotterdam,Zuid-Holland,VBO,4.471163,51.864037
Driemanssteeweg,628,,,3084CB,Rotterdam,Rotterdam,Zuid-Holland,VBO,4.471253,51.864018
Driemanssteeweg,630,,,3084CB,Rotterdam,Rotterdam,Zuid-Holland,VBO,4.471339,51.864000
Driemanssteeweg,632,,,3084CB,Rotterdam,Rotterdam,Zuid-Holland,VBO,4.471426,51.863981
Driemanssteeweg,634,,,3084CB,Rotterdam,Rotterdam,Zuid-Holland,VBO,4.471516,51.863962
Driemanssteeweg,636,,,3084CB,Rotterdam,Rotterdam,Zuid-Holland,VBO,4.471598,51.863945
Driemanssteeweg,638,,,3084CB,Rotterdam,Rotterdam,Zuid-Holland,VBO,4.471676,51.863926
Driemanssteeweg,640,,,3084CB,Rotterdam,Rotterdam,Zuid-Holland,VBO,4.471035,51.864363
Driemanssteeweg,642,,,3084CB,Rotterdam,Rotterdam,Zuid-Holland,VBO,4.471120,51.864340
Driemanssteeweg,644,,,3084CB,Rotterdam,Rotterdam,Zuid-Holland,VBO,4.471206,51.864321
Driemanssteeweg,646,,,3084CB,Rotterdam,Rotterdam,Zuid-Holland,VBO,4.471292,51.864303
Driemanssteeweg,648,,,3084CB,Rotterdam,Rotterdam,Zuid-Holland,VBO,4.471375,51.864285
Driemanssteeweg,650,,,3084CB,Rotterdam,Rotterdam,Zuid-Holland,VBO,4.471461,51.864267
Driemanssteeweg,652,,,3084CB,Rotterdam,Rotterdam,Zuid-Holland,VBO,4.471544,51.864250
Driemanssteeweg,654,,,3084CB,Rotterdam,Rotterdam,Zuid-Holland,VBO,4.471622,51.864233
Driemanssteeweg,656,,,3084CB,Rotterdam,Rotterdam,Zuid-Holland,VBO,4.471710,51.864214
Driemanssteeweg,658,,,3084CB,Rotterdam,Rotterdam,Zuid-Holland,VBO,4.471781,51.864200
Driemanssteeweg,660,A,,3084CB,Rotterdam,Rotterdam,Zuid-Holland,VBO,4.471121,51.864550
Driemanssteeweg,660,B,,3084CB,Rotterdam,Rotterdam,Zuid-Holland,VBO,4.471216,51.864546
Driemanssteeweg,662,A,,3084CB,Rotterdam,Rotterdam,Zuid-Holland,VBO,4.471291,51.864522
Driemanssteeweg,662,B,,3084CB,Rotterdam,Rotterdam,Zuid-Holland,VBO,4.471383,51.864489
Driemanssteeweg,664,A,,3084CB,Rotterdam,Rotterdam,Zuid-Holland,VBO,4.471475,51.864475
Driemanssteeweg,664,B,,3084CB,Rotterdam,Rotterdam,Zuid-Holland,VBO,4.471555,51.864460
Driemanssteeweg,666,A,,3084CB,Rotterdam,Rotterdam,Zuid-Holland,VBO,4.471624,51.864449
Driemanssteeweg,666,B,,3084CB,Rotterdam,Rotterdam,Zuid-Holland,VBO,4.471713,51.864434
Driemanssteeweg,668,A,,3084CB,Rotterdam,Rotterdam,Zuid-Holland,VBO,4.471792,51.864415
Driemanssteeweg,668,B,,3084CB,Rotterdam,Rotterdam,Zuid-Holland,VBO,4.471880,51.864393
Driemanssteeweg,694,,,3084CB,Rotterdam,Rotterdam,Zuid-Holland,VBO,4.473439,51.863153
Driemanssteeweg,700,,,3084CB,Rotterdam,Rotterdam,Zuid-Holland,VBO,4.474061,51.864292
Aploniastraat,1,,,3084CC,Rotterdam,Rotterdam,Zuid-Holland,VBO,4.453227,51.867371
Aploniastraat,4,,,3084CC,Rotterdam,Rotterdam,Zuid-Holland,VBO,4.453562,51.867932
Aploniastraat,8,,,3084CC,Rotterdam,Rotterdam,Zuid-Holland,VBO,4.454291,51.868219
Aploniastraat,11,,,3084CC,Rotterdam,Rotterdam,Zuid-Holland,VBO,4.454124,51.867699
Aploniastraat,12,,,3084CC,Rotterdam,Rotterdam,Zuid-Holland,VBO,4.455192,51.868091
Aploniastraat,13,,,3084CC,Rotterdam,Rotterdam,Zuid-Holland,VBO,4.454180,51.867722
Aploniastraat,14,,,3084CC,Rotterdam,Rotterdam,Zuid-Holland,VBO,4.455895,51.867550
Aploniastraat,15,,,3084CC,Rotterdam,Rotterdam,Zuid-Holland,VBO,4.454343,51.867788
Aploniastraat,17,,,3084CC,Rotterdam,Rotterdam,Zuid-Holland,VBO,4.454410,51.867815
Aploniastraat,19,,,3084CC,Rotterdam,Rotterdam,Zuid-Holland,VBO,4.454511,51.867926
Aploniastraat,20,,,3084CC,Rotterdam,Rotterdam,Zuid-Holland,VBO,4.455600,51.867112
Aploniastraat,21,,,3084CC,Rotterdam,Rotterdam,Zuid-Holland,VBO,4.454570,51.867950
Aploniastraat,23,,,3084CC,Rotterdam,Rotterdam,Zuid-Holland,VBO,4.454722,51.867862
Aploniastraat,25,,,3084CC,Rotterdam,Rotterdam,Zuid-Holland,VBO,4.454822,51.867774
Aploniastraat,27,,,3084CC,Rotterdam,Rotterdam,Zuid-Holland,VBO,4.454935,51.867668
Aploniastraat,40,,,3084CC,Rotterdam,Rotterdam,Zuid-Holland,VBO,4.455022,51.866908
Aploniastraat,60,,,3084CC,Rotterdam,Rotterdam,Zuid-Holland,VBO,4.455015,51.866438
Aploniastraat,62,,,3084CC,Rotterdam,Rotterdam,Zuid-Holland,VBO,4.454929,51.866523
Aploniastraat,64,,,3084CC,Rotterdam,Rotterdam,Zuid-Holland,VBO,4.454841,51.866608
Aploniastraat,66,,,3084CC,Rotterdam,Rotterdam,Zuid-Holland,VBO,4.454754,51.866695
Aploniastraat,68,,,3084CC,Rotterdam,Rotterdam,Zuid-Holland,VBO,4.454677,51.866774
Aploniastraat,70,,,3084CC,Rotterdam,Rotterdam,Zuid-Holland,VBO,4.454563,51.866725
Aploniastraat,72,,,3084CC,Rotterdam,Rotterdam,Zuid-Holland,VBO,4.454643,51.866644
Aploniastraat,74,,,3084CC,Rotterdam,Rotterdam,Zuid-Holland,VBO,4.454735,51.866559
Aploniastraat,76,,,3084CC,Rotterdam,Rotterdam,Zuid-Holland,VBO,4.454818,51.866478
Aploniastraat,78,,,3084CC,Rotterdam,Rotterdam,Zuid-Holland,VBO,4.454910,51.866393
Aploniastraat,80,,,3084CC,Rotterdam,Rotterdam,Zuid-Holland,VBO,4.454605,51.866285
Aploniastraat,82,,,3084CC,Rotterdam,Rotterdam,Zuid-Holland,VBO,4.454530,51.866357
Aploniastraat,84,,,3084CC,Rotterdam,Rotterdam,Zuid-Holland,VBO,4.454434,51.866448
Aploniastraat,86,,,3084CC,Rotterdam,Rotterdam,Zuid-Holland,VBO,4.454352,51.866525
Aploniastraat,88,B,,3084CC,Rotterdam,Rotterdam,Zuid-Holland,VBO,4.454130,51.866659
Aploniastraat,88,C,,3084CC,Rotterdam,Rotterdam,Zuid-Holland,VBO,4.454031,51.866619
Aploniastraat,88,,,3084CC,Rotterdam,Rotterdam,Zuid-Holland,VBO,4.454267,51.866603
Zuiderparkweg,616,,,3084CD,Rotterdam,Rotterdam,Zuid-Holland,VBO,4.476619,51.863508
Zuiderparkweg,620,,,3084CD,Rotterdam,Rotterdam,Zuid-Holland,VBO,4.475345,51.863303
Slinge,3,,,3084EA,Rotterdam,Rotterdam,Zuid-Holland,VBO,4.505294,51.877556
Slinge,5,,,3084EA,Rotterdam,Rotterdam,Zuid-Holland,VBO,4.504343,51.877126
Slinge,11,,,3084EA,Rotterdam,Rotterdam,Zuid-Holland,VBO,4.503746,51.877711
Slinge,17,,,3084EA,Rotterdam,Rotterdam,Zuid-Holland,VBO,4.500692,51.876512
Slinge,19,,,3084EA,Rotterdam,Rotterdam,Zuid-Holland,VBO,4.500255,51.875840
Slinge,8,,,3084EB,Rotterdam,Rotterdam,Zuid-Holland,VBO,4.505929,51.877083
Slinge,10,,,3084EB,Rotterdam,Rotterdam,Zuid-Holland,VBO,4.505740,51.876987
Slinge,50,,,3084EB,Rotterdam,Rotterdam,Zuid-Holland,VBO,4.506560,51.874311
Slinge,62,,,3084EB,Rotterdam,Rotterdam,Zuid-Holland,VBO,4.503395,51.876181
Vaanweg,57,,,3084EC,Rotterdam,Rotterdam,Zuid-Holland,VBO,4.497008,51.881398
Vaanweg,85,,,3084EC,Rotterdam,Rotterdam,Zuid-Holland,VBO,4.502792,51.879164
Oldegaarde,4,,,3084ED,Rotterdam,Rotterdam,Zuid-Holland,VBO,4.500563,51.879975
Maeterlinckweg,97,,,3084KD,Rotterdam,Rotterdam,Zuid-Holland,VBO,4.512963,51.870759
Maeterlinckweg,99,,,3084KD,Rotterdam,Rotterdam,Zuid-Holland,VBO,4.512286,51.870669
Maeterlinckweg,101,,,3084KD,Rotterdam,Rotterdam,Zuid-Holland,VBO,4.511934,51.870104
Maeterlinckweg,200,,,3084KD,Rotterdam,Rotterdam,Zuid-Holland,VBO,4.502612,51.869443
Charloisse Lagedijk,397,,,3084LA,Rotterdam,Rotterdam,Zuid-Holland,VBO,4.492553,51.868703
Charloisse Lagedijk,401,,,3084LA,Rotterdam,Rotterdam,Zuid-Holland,VBO,4.492135,51.868617
Charloisse Lagedijk,405,,,3084LA,Rotterdam,Rotterdam,Zuid-Holland,VBO,4.491691,51.868546
Charloisse Lagedijk,409,,,3084LA,Rotterdam,Rotterdam,Zuid-Holland,VBO,4.491074,51.868324
Charloisse Lagedijk,421,,,3084LA,Rotterdam,Rotterdam,Zuid-Holland,VBO,4.489862,51.867927
Charloisse Lagedijk,423,,,3084LA,Rotterdam,Rotterdam,Zuid-Holland,VBO,4.489468,51.867765
Charloisse Lagedijk,427,,,3084LA,Rotterdam,Rotterdam,Zuid-Holland,VBO,4.489160,51.867690
Charloisse Lagedijk,429,,,3084LA,Rotterdam,Rotterdam,Zuid-Holland,VBO,4.488975,51.867648
Charloisse Lagedijk,435,A,,3084LA,Rotterdam,Rotterdam,Zuid-Holland,VBO,4.488743,51.867607
Charloisse Lagedijk,435,B,,3084LA,Rotterdam,Rotterdam,Zuid-Holland,VBO,4.488631,51.867579
Charloisse Lagedijk,437,,,3084LA,Rotterdam,Rotterdam,Zuid-Holland,VBO,4.488651,51.867834
Charloisse Lagedijk,439,,,3084LA,Rotterdam,Rotterdam,Zuid-Holland,VBO,4.488162,51.867494
Charloisse Lagedijk,467,,,3084LA,Rotterdam,Rotterdam,Zuid-Holland,VBO,4.487206,51.867358
Charloisse Lagedijk,471,,,3084LA,Rotterdam,Rotterdam,Zuid-Holland,VBO,4.486647,51.867205
Charloisse Lagedijk,475,,,3084LA,Rotterdam,Rotterdam,Zuid-Holland,VBO,4.486303,51.867106
Charloisse Lagedijk,477,,,3084LA,Rotterdam,Rotterdam,Zuid-Holland,VBO,4.486049,51.867011
Charloisse Lagedijk,479,,,3084LB,Rotterdam,Rotterdam,Zuid-Holland,VBO,4.485869,51.866944
Charloisse Lagedijk,481,C,,3084LB,Rotterdam,Rotterdam,Zuid-Holland,VBO,4.485689,51.867266
Charloisse Lagedijk,487,,,3084LB,Rotterdam,Rotterdam,Zuid-Holland,VBO,4.485526,51.866763
Charloisse Lagedijk,489,,,3084LB,Rotterdam,Rotterdam,Zuid-Holland,VBO,4.485474,51.866717
Charloisse Lagedijk,491,,,3084LB,Rotterdam,Rotterdam,Zuid-Holland,VBO,4.485394,51.866715
Charloisse Lagedijk,495,,,3084LB,Rotterdam,Rotterdam,Zuid-Holland,VBO,4.485290,51.866690
Charloisse Lagedijk,497,,,3084LB,Rotterdam,Rotterdam,Zuid-Holland,VBO,4.485169,51.866647
Charloisse Lagedijk,499,,,3084LB,Rotterdam,Rotterdam,Zuid-Holland,VBO,4.485120,51.866630
Charloisse Lagedijk,501,,,3084LB,Rotterdam,Rotterdam,Zuid-Holland,VBO,4.485068,51.866611
Charloisse Lagedijk,503,,,3084LB,Rotterdam,Rotterdam,Zuid-Holland,VBO,4.485016,51.866591
Charloisse Lagedijk,505,,,3084LB,Rotterdam,Rotterdam,Zuid-Holland,VBO,4.484967,51.866574
Charloisse Lagedijk,507,B,,3084LB,Rotterdam,Rotterdam,Zuid-Holland,VBO,4.484458,51.866716
Charloisse Lagedijk,507,,,3084LB,Rotterdam,Rotterdam,Zuid-Holland,VBO,4.484915,51.866554
Charloisse Lagedijk,509,,,3084LB,Rotterdam,Rotterdam,Zuid-Holland,VBO,4.484762,51.866482
Charloisse Lagedijk,511,,,3084LB,Rotterdam,Rotterdam,Zuid-Holland,VBO,4.484350,51.866378
Charloisse Lagedijk,547,,,3084LB,Rotterdam,Rotterdam,Zuid-Holland,VBO,4.481879,51.866017
Charloisse Lagedijk,559,,,3084LC,Rotterdam,Rotterdam,Zuid-Holland,VBO,4.480609,51.865601
Charloisse Lagedijk,563,,,3084LC,Rotterdam,Rotterdam,Zuid-Holland,VBO,4.480462,51.865609
Charloisse Lagedijk,569,,,3084LC,Rotterdam,Rotterdam,Zuid-Holland,VBO,4.480096,51.865531
Charloisse Lagedijk,573,,,3084LC,Rotterdam,Rotterdam,Zuid-Holland,VBO,4.479841,51.865502
Charloisse Lagedijk,575,,,3084LC,Rotterdam,Rotterdam,Zuid-Holland,VBO,4.479694,51.865481
Charloisse Lagedijk,577,,,3084LC,Rotterdam,Rotterdam,Zuid-Holland,VBO,4.479479,51.865468
Charloisse Lagedijk,593,,,3084LC,Rotterdam,Rotterdam,Zuid-Holland,VBO,4.478439,51.865294
Charloisse Lagedijk,603,,,3084LC,Rotterdam,Rotterdam,Zuid-Holland,VBO,4.477755,51.865291
Charloisse Lagedijk,609,,,3084LC,Rotterdam,Rotterdam,Zuid-Holland,VBO,4.477284,51.865506
Charloisse Lagedijk,625,,,3084LC,Rotterdam,Rotterdam,Zuid-Holland,VBO,4.476507,51.865338
Charloisse Lagedijk,643,,,3084LC,Rotterdam,Rotterdam,Zuid-Holland,VBO,4.474561,51.865100
Charloisse Lagedijk,645,,,3084LC,Rotterdam,Rotterdam,Zuid-Holland,VBO,4.474766,51.865126
Charloisse Lagedijk,677,,,3084LC,Rotterdam,Rotterdam,Zuid-Holland,VBO,4.472485,51.865441
Charloisse Lagedijk,689,,,3084LC,Rotterdam,Rotterdam,Zuid-Holland,VBO,4.471329,51.865206
Charloisse Lagedijk,703,,,3084LC,Rotterdam,Rotterdam,Zuid-Holland,VBO,4.470343,51.865329
Charloisse Lagedijk,709,,,3084LC,Rotterdam,Rotterdam,Zuid-Holland,VBO,4.469807,51.865338
Charloisse Lagedijk,761,,,3084LC,Rotterdam,Rotterdam,Zuid-Holland,VBO,4.466534,51.865863
Charloisse Lagedijk,781,,,3084LC,Rotterdam,Rotterdam,Zuid-Holland,VBO,4.464856,51.865387
Charloisse Lagedijk,783,,,3084LC,Rotterdam,Rotterdam,Zuid-Holland,VBO,4.464735,51.865418
Charloisse Lagedijk,875,,,3084LD,Rotterdam,Rotterdam,Zuid-Holland,VBO,4.459666,51.866901
Charloisse Lagedijk,877,,,3084LD,Rotterdam,Rotterdam,Zuid-Holland,VBO,4.459526,51.866985
Charloisse Lagedijk,885,,,3084LD,Rotterdam,Rotterdam,Zuid-Holland,VBO,4.459619,51.867455
Charloisse Lagedijk,951,,,3084LD,Rotterdam,Rotterdam,Zuid-Holland,VBO,4.457281,51.869763
Charloisse Lagedijk,372,,,3084LG,Rotterdam,Rotterdam,Zuid-Holland,VBO,4.492762,51.868617
Charloisse Lagedijk,378,,,3084LG,Rotterdam,Rotterdam,Zuid-Holland,VBO,4.492521,51.868572
Charloisse Lagedijk,434,,,3084LG,Rotterdam,Rotterdam,Zuid-Holland,VBO,4.488979,51.867520
Charloisse Lagedijk,436,,,3084LG,Rotterdam,Rotterdam,Zuid-Holland,VBO,4.488819,51.867479
Charloisse Lagedijk,442,,,3084LG,Rotterdam,Rotterdam,Zuid-Holland,VBO,4.488576,51.867424
Charloisse Lagedijk,444,,,3084LG,Rotterdam,Rotterdam,Zuid-Holland,VBO,4.488465,51.867406
Charloisse Lagedijk,450,,,3084LG,Rotterdam,Rotterdam,Zuid-Holland,VBO,4.488162,51.867364
Charloisse Lagedijk,458,,,3084LG,Rotterdam,Rotterdam,Zuid-Holland,VBO,4.487733,51.867306
Charloisse Lagedijk,460,,,3084LG,Rotterdam,Rotterdam,Zuid-Holland,VBO,4.487609,51.867290
Charloisse Lagedijk,512,,,3084LG,Rotterdam,Rotterdam,Zuid-Holland,VBO,4.484166,51.866205
Charloisse Lagedijk,514,,,3084LG,Rotterdam,Rotterdam,Zuid-Holland,VBO,4.484039,51.866175
Charloisse Lagedijk,528,,,3084LG,Rotterdam,Rotterdam,Zuid-Holland,VBO,4.483098,51.865961
Charloisse Lagedijk,534,,,3084LG,Rotterdam,Rotterdam,Zuid-Holland,VBO,4.482100,51.865695
Charloisse Lagedijk,536,,,3084LG,Rotterdam,Rotterdam,Zuid-Holland,VBO,4.481838,51.865672
Charloisse Lagedijk,548,,,3084LG,Rotterdam,Rotterdam,Zuid-Holland,VBO,4.481235,51.865547
Charloisse Lagedijk,560,,,3084LG,Rotterdam,Rotterdam,Zuid-Holland,VBO,4.480393,51.865297
Charloisse Lagedijk,562,,,3084LG,Rotterdam,Rotterdam,Zuid-Holland,VBO,4.480391,51.865362
Charloisse Lagedijk,604,,,3084LG,Rotterdam,Rotterdam,Zuid-Holland,VBO,4.479186,51.865112
Charloisse Lagedijk,606,,,3084LH,Rotterdam,Rotterdam,Zuid-Holland,VBO,4.478741,51.864988
Charloisse Lagedijk,610,,,3084LH,Rotterdam,Rotterdam,Zuid-Holland,VBO,4.477693,51.864993
Charloisse Lagedijk,612,,,3084LH,Rotterdam,Rotterdam,Zuid-Holland,VBO,4.476948,51.864903
Charloisse Lagedijk,614,,,3084LH,Rotterdam,Rotterdam,Zuid-Holland,VBO,4.476804,51.864912
Charloisse Lagedijk,616,,,3084LH,Rotterdam,Rotterdam,Zuid-Holland,VBO,4.476528,51.864933
Charloisse Lagedijk,618,,,3084LH,Rotterdam,Rotterdam,Zuid-Holland,VBO,4.476434,51.864941
Charloisse Lagedijk,624,,,3084LH,Rotterdam,Rotterdam,Zuid-Holland,VBO,4.475927,51.864930
Charloisse Lagedijk,626,,,3084LH,Rotterdam,Rotterdam,Zuid-Holland,VBO,4.475693,51.864943
Charloisse Lagedijk,638,,,3084LH,Rotterdam,Rotterdam,Zuid-Holland,VBO,4.473737,51.864702
Charloisse Lagedijk,640,,,3084LH,Rotterdam,Rotterdam,Zuid-Holland,VBO,4.473209,51.864856
Charloisse Lagedijk,642,,,3084LH,Rotterdam,Rotterdam,Zuid-Holland,VBO,4.473119,51.864864
Charloisse Lagedijk,646,,,3084LH,Rotterdam,Rotterdam,Zuid-Holland,VBO,4.472598,51.864888
Charloisse Lagedijk,648,,,3084LH,Rotterdam,Rotterdam,Zuid-Holland,VBO,4.472436,51.864852
Charloisse Lagedijk,654,A,,3084LH,Rotterdam,Rotterdam,Zuid-Holland,VBO,4.471867,51.864549
Charloisse Lagedijk,654,B,,3084LH,Rotterdam,Rotterdam,Zuid-Holland,VBO,4.471688,51.864580
Charloisse Lagedijk,654,C,,3084LH,Rotterdam,Rotterdam,Zuid-Holland,VBO,4.471525,51.864616
Charloisse Lagedijk,654,D,,3084LH,Rotterdam,Rotterdam,Zuid-Holland,VBO,4.471364,51.864648
Charloisse Lagedijk,654,E,,3084LH,Rotterdam,Rotterdam,Zuid-Holland,VBO,4.471193,51.864683
Charloisse Lagedijk,658,,,3084LH,Rotterdam,Rotterdam,Zuid-Holland,VBO,4.470956,51.864807
Charloisse Lagedijk,660,,,3084LH,Rotterdam,Rotterdam,Zuid-Holland,VBO,4.470463,51.864993
Charloisse Lagedijk,662,,,3084LH,Rotterdam,Rotterdam,Zuid-Holland,VBO,4.470390,51.864997
Charloisse Lagedijk,664,,,3084LH,Rotterdam,Rotterdam,Zuid-Holland,VBO,4.470331,51.864999
Charloisse Lagedijk,666,,,3084LJ,Rotterdam,Rotterdam,Zuid-Holland,VBO,4.469650,51.865041
Charloisse Lagedijk,680,,,3084LJ,Rotterdam,Rotterdam,Zuid-Holland,VBO,4.467654,51.864842
Charloisse Lagedijk,784,,,3084LJ,Rotterdam,Rotterdam,Zuid-Holland,VBO,4.464415,51.865328
Charloisse Lagedijk,806,,,3084LJ,Rotterdam,Rotterdam,Zuid-Holland,VBO,4.463420,51.865318
Charloisse Lagedijk,820,,,3084LJ,Rotterdam,Rotterdam,Zuid-Holland,VBO,4.461917,51.865130
Charloisse Lagedijk,830,,,3084LJ,Rotterdam,Rotterdam,Zuid-Holland,VBO,4.461105,51.865467
Charloisse Lagedijk,832,,,3084LJ,Rotterdam,Rotterdam,Zuid-Holland,VBO,4.460898,51.865640
Charloisse Lagedijk,860,,,3084LJ,Rotterdam,Rotterdam,Zuid-Holland,VBO,4.460434,51.865977
Charloisse Lagedijk,862,,,3084LJ,Rotterdam,Rotterdam,Zuid-Holland,VBO,4.459703,51.866076
Charloisse Lagedijk,864,,,3084LJ,Rotterdam,Rotterdam,Zuid-Holland,VBO,4.459094,51.865872
Charloisse Lagedijk,870,B,,3084LJ,Rotterdam,Rotterdam,Zuid-Holland,VBO,4.459559,51.866296
Charloisse Lagedijk,870,,,3084LJ,Rotterdam,Rotterdam,Zuid-Holland,VBO,4.459585,51.866399
Charloisse Lagedijk,872,,,3084LJ,Rotterdam,Rotterdam,Zuid-Holland,VBO,4.459510,51.866446
Charloisse Lagedijk,874,,,3084LJ,Rotterdam,Rotterdam,Zuid-Holland,VBO,4.459160,51.866662
Charloisse Lagedijk,876,,,3084LJ,Rotterdam,Rotterdam,Zuid-Holland,VBO,4.459086,51.866708
Charloisse Lagedijk,878,,,3084LJ,Rotterdam,Rotterdam,Zuid-Holland,VBO,4.458731,51.866930
Charloisse Lagedijk,880,,,3084LJ,Rotterdam,Rotterdam,Zuid-Holland,VBO,4.458661,51.866973
Charloisse Lagedijk,882,B,,3084LJ,Rotterdam,Rotterdam,Zuid-Holland,VBO,4.457789,51.867090
Charloisse Lagedijk,882,,,3084LJ,Rotterdam,Rotterdam,Zuid-Holland,VBO,4.458290,51.866980
Charloisse Lagedijk,884,,,3084LJ,Rotterdam,Rotterdam,Zuid-Holland,VBO,4.458296,51.867203
Charloisse Lagedijk,886,,,3084LJ,Rotterdam,Rotterdam,Zuid-Holland,VBO,4.458223,51.867252
Dorpshof,1,,,3084LK,Rotterdam,Rotterdam,Zuid-Holland,VBO,4.468500,51.865765
Dorpshof,3,,,3084LK,Rotterdam,Rotterdam,Zuid-Holland,VBO,4.468308,51.865730
Dorpshof,5,,,3084LK,Rotterdam,Rotterdam,Zuid-Holland,VBO,4.468336,51.865966
Dorpshof,7,,,3084LK,Rotterdam,Rotterdam,Zuid-Holland,VBO,4.468322,51.866210
Dorpslaan,427,,,3084LL,Rotterdam,Rotterdam,Zuid-Holland,VBO,4.468058,51.868459
Dorpslaan,428,,,3084LL,Rotterdam,Rotterdam,Zuid-Holland,VBO,4.468622,51.868365
Dorpslaan,429,,,3084LL,Rotterdam,Rotterdam,Zuid-Holland,VBO,4.468072,51.868322
Dorpslaan,430,B,,3084LL,Rotterdam,Rotterdam,Zuid-Holland,VBO,4.468608,51.868262
Dorpslaan,431,,,3084LL,Rotterdam,Rotterdam,Zuid-Holland,VBO,4.468037,51.868119
Dorpslaan,433,,,3084LL,Rotterdam,Rotterdam,Zuid-Holland,VBO,4.468007,51.867950
Groene Kruisweg,35,,,3084LM,Rotterdam,Rotterdam,Zuid-Holland,VBO,4.465958,51.879592
Groene Kruisweg,45,,,3084LM,Rotterdam,Rotterdam,Zuid-Holland,VBO,4.462843,51.877465
Groene Kruisweg,101,,,3084LM,Rotterdam,Rotterdam,Zuid-Holland,VBO,4.458044,51.874722
Groene Kruisweg,103,,,3084LM,Rotterdam,Rotterdam,Zuid-Holland,VBO,4.458044,51.874722
Groene Kruisweg,105,,,3084LM,Rotterdam,Rotterdam,Zuid-Holland,VBO,4.458044,51.874722
Groene Kruisweg,107,,,3084LM,Rotterdam,Rotterdam,Zuid-Holland,VBO,4.458044,51.874722
Groene Kruisweg,109,,,3084LM,Rotterdam,Rotterdam,Zuid-Holland,VBO,4.458044,51.874722
Groene Kruisweg,111,,,3084LM,Rotterdam,Rotterdam,Zuid-Holland,VBO,4.458044,51.874722
Groene Kruisweg,113,,,3084LM,Rotterdam,Rotterdam,Zuid-Holland,VBO,4.458044,51.874722
Groene Kruisweg,115,,,3084LM,Rotterdam,Rotterdam,Zuid-Holland,VBO,4.458044,51.874722
Groene Kruisweg,117,,,3084LM,Rotterdam,Rotterdam,Zuid-Holland,VBO,4.458044,51.874722
Groene Kruisweg,119,,,3084LM,Rotterdam,Rotterdam,Zuid-Holland,VBO,4.458044,51.874722
Groene Kruisweg,121,,,3084LM,Rotterdam,Rotterdam,Zuid-Holland,VBO,4.458044,51.874722
Groene Kruisweg,123,,,3084LM,Rotterdam,Rotterdam,Zuid-Holland,VBO,4.458044,51.874722
Groene Kruisweg,125,,,3084LM,Rotterdam,Rotterdam,Zuid-Holland,VBO,4.458044,51.874722
Groene Kruisweg,127,,,3084LM,Rotterdam,Rotterdam,Zuid-Holland,VBO,4.458044,51.874722
Groene Kruisweg,129,,,3084LM,Rotterdam,Rotterdam,Zuid-Holland,VBO,4.458044,51.874722
Groene Kruisweg,131,,,3084LM,Rotterdam,Rotterdam,Zuid-Holland,VBO,4.458044,51.874722
Groene Kruisweg,133,,,3084LM,Rotterdam,Rotterdam,Zuid-Holland,VBO,4.458044,51.874722
Groene Kruisweg,135,,,3084LM,Rotterdam,Rotterdam,Zuid-Holland,VBO,4.458044,51.874722
Groene Kruisweg,137,,,3084LM,Rotterdam,Rotterdam,Zuid-Holland,VBO,4.458044,51.874722
Groene Kruisweg,139,,,3084LM,Rotterdam,Rotterdam,Zuid-Holland,VBO,4.458044,51.874722
Groene Kruisweg,141,,,3084LM,Rotterdam,Rotterdam,Zuid-Holland,VBO,4.458044,51.874722
Groene Kruisweg,143,,,3084LM,Rotterdam,Rotterdam,Zuid-Holland,VBO,4.458044,51.874722
Groene Kruisweg,145,,,3084LM,Rotterdam,Rotterdam,Zuid-Holland,VBO,4.458044,51.874722
Groene Kruisweg,147,,,3084LM,Rotterdam,Rotterdam,Zuid-Holland,VBO,4.458044,51.874722
Groene Kruisweg,149,,,3084LM,Rotterdam,Rotterdam,Zuid-Holland,VBO,4.458044,51.874722
Groene Kruisweg,151,,,3084LM,Rotterdam,Rotterdam,Zuid-Holland,VBO,4.458044,51.874722
Groene Kruisweg,153,,,3084LM,Rotterdam,Rotterdam,Zuid-Holland,VBO,4.458044,51.874722
Groene Kruisweg,155,,,3084LM,Rotterdam,Rotterdam,Zuid-Holland,VBO,4.458044,51.874722
Groene Kruisweg,157,,,3084LM,Rotterdam,Rotterdam,Zuid-Holland,VBO,4.458044,51.874722
Groene Kruisweg,159,,,3084LM,Rotterdam,Rotterdam,Zuid-Holland,VBO,4.458044,51.874722
Groene Kruisweg,161,,,3084LM,Rotterdam,Rotterdam,Zuid-Holland,VBO,4.458044,51.874722
Groene Kruisweg,163,,,3084LM,Rotterdam,Rotterdam,Zuid-Holland,VBO,4.458044,51.874722
Groene Kruisweg,165,,,3084LM,Rotterdam,Rotterdam,Zuid-Holland,VBO,4.458044,51.874722
Groene Kruisweg,167,,,3084LM,Rotterdam,Rotterdam,Zuid-Holland,VBO,4.458044,51.874722
Groene Kruisweg,169,,,3084LM,Rotterdam,Rotterdam,Zuid-Holland,VBO,4.458044,51.874722
Groene Kruisweg,171,,,3084LM,Rotterdam,Rotterdam,Zuid-Holland,VBO,4.458044,51.874722
Groene Kruisweg,173,,,3084LM,Rotterdam,Rotterdam,Zuid-Holland,VBO,4.458044,51.874722
Groene Kruisweg,175,,,3084LM,Rotterdam,Rotterdam,Zuid-Holland,VBO,4.458044,51.874722
Groene Kruisweg,177,,,3084LM,Rotterdam,Rotterdam,Zuid-Holland,VBO,4.458044,51.874722
Groene Kruisweg,179,,,3084LM,Rotterdam,Rotterdam,Zuid-Holland,VBO,4.458044,51.874722
Groene Kruisweg,181,,,3084LM,Rotterdam,Rotterdam,Zuid-Holland,VBO,4.458044,51.874722
Groene Kruisweg,183,,,3084LM,Rotterdam,Rotterdam,Zuid-Holland,VBO,4.458044,51.874722
Groene Kruisweg,185,,,3084LM,Rotterdam,Rotterdam,Zuid-Holland,VBO,4.458044,51.874722
Groene Kruisweg,187,,,3084LM,Rotterdam,Rotterdam,Zuid-Holland,VBO,4.458044,51.874722
Groene Kruisweg,189,,,3084LM,Rotterdam,Rotterdam,Zuid-Holland,VBO,4.458044,51.874722
Groene Kruisweg,191,,,3084LM,Rotterdam,Rotterdam,Zuid-Holland,VBO,4.458044,51.874722
Groene Kruisweg,193,,,3084LM,Rotterdam,Rotterdam,Zuid-Holland,VBO,4.458044,51.874722
Groene Kruisweg,195,,,3084LM,Rotterdam,Rotterdam,Zuid-Holland,VBO,4.458044,51.874722
Groene Kruisweg,197,,,3084LM,Rotterdam,Rotterdam,Zuid-Holland,VBO,4.458044,51.874722
Groene Kruisweg,199,,,3084LM,Rotterdam,Rotterdam,Zuid-Holland,VBO,4.458044,51.874722
Groene Kruisweg,201,,,3084LM,Rotterdam,Rotterdam,Zuid-Holland,VBO,4.458044,51.874722
Groene Kruisweg,203,,,3084LM,Rotterdam,Rotterdam,Zuid-Holland,VBO,4.458044,51.874722
Groene Kruisweg,205,,,3084LM,Rotterdam,Rotterdam,Zuid-Holland,VBO,4.458044,51.874722
Groene Kruisweg,207,,,3084LM,Rotterdam,Rotterdam,Zuid-Holland,VBO,4.458044,51.874722
Groene Kruisweg,209,,,3084LM,Rotterdam,Rotterdam,Zuid-Holland,VBO,4.458044,51.874722
Groene Kruisweg,211,,,3084LM,Rotterdam,Rotterdam,Zuid-Holland,VBO,4.458044,51.874722
Groene Kruisweg,213,,,3084LM,Rotterdam,Rotterdam,Zuid-Holland,VBO,4.458044,51.874722
Groene Kruisweg,215,,,3084LM,Rotterdam,Rotterdam,Zuid-Holland,VBO,4.458044,51.874722
Groene Kruisweg,217,,,3084LM,Rotterdam,Rotterdam,Zuid-Holland,VBO,4.458044,51.874722
Groene Kruisweg,219,,,3084LM,Rotterdam,Rotterdam,Zuid-Holland,VBO,4.458044,51.874722
Groene Kruisweg,221,,,3084LM,Rotterdam,Rotterdam,Zuid-Holland,VBO,4.458044,51.874722
Groene Kruisweg,223,,,3084LM,Rotterdam,Rotterdam,Zuid-Holland,VBO,4.458044,51.874722
Groene Kruisweg,225,,,3084LM,Rotterdam,Rotterdam,Zuid-Holland,VBO,4.458044,51.874722
Groene Kruisweg,227,,,3084LM,Rotterdam,Rotterdam,Zuid-Holland,VBO,4.458044,51.874722
Groene Kruisweg,229,,,3084LM,Rotterdam,Rotterdam,Zuid-Holland,VBO,4.458044,51.874722
Groene Kruisweg,231,,,3084LM,Rotterdam,Rotterdam,Zuid-Holland,VBO,4.458044,51.874722
Groene Kruisweg,233,,,3084LM,Rotterdam,Rotterdam,Zuid-Holland,VBO,4.458044,51.874722
Groene Kruisweg,235,,,3084LM,Rotterdam,Rotterdam,Zuid-Holland,VBO,4.458044,51.874722
Groene Kruisweg,237,,,3084LM,Rotterdam,Rotterdam,Zuid-Holland,VBO,4.458044,51.874722
Groene Kruisweg,239,,,3084LM,Rotterdam,Rotterdam,Zuid-Holland,VBO,4.458044,51.874722
Groene Kruisweg,241,,,3084LM,Rotterdam,Rotterdam,Zuid-Holland,VBO,4.458044,51.874722
Groene Kruisweg,243,,,3084LM,Rotterdam,Rotterdam,Zuid-Holland,VBO,4.458044,51.874722
Groene Kruisweg,245,,,3084LM,Rotterdam,Rotterdam,Zuid-Holland,VBO,4.458044,51.874722
Groene Kruisweg,247,,,3084LM,Rotterdam,Rotterdam,Zuid-Holland,VBO,4.458044,51.874722
Groene Kruisweg,249,,,3084LM,Rotterdam,Rotterdam,Zuid-Holland,VBO,4.458044,51.874722
Groene Kruisweg,251,,,3084LM,Rotterdam,Rotterdam,Zuid-Holland,VBO,4.458044,51.874722
Groene Kruisweg,261,,,3084LM,Rotterdam,Rotterdam,Zuid-Holland,VBO,4.457400,51.874702
Groene Kruisweg,263,,,3084LM,Rotterdam,Rotterdam,Zuid-Holland,VBO,4.457400,51.874702
Groene Kruisweg,265,,,3084LM,Rotterdam,Rotterdam,Zuid-Holland,VBO,4.457400,51.874702
Groene Kruisweg,269,,,3084LM,Rotterdam,Rotterdam,Zuid-Holland,VBO,4.457400,51.874702
Groene Kruisweg,271,,K001,3084LM,Rotterdam,Rotterdam,Zuid-Holland,VBO,4.457400,51.874702
Groene Kruisweg,271,,K002,3084LM,Rotterdam,Rotterdam,Zuid-Holland,VBO,4.457400,51.874702
Groene Kruisweg,271,,K003,3084LM,Rotterdam,Rotterdam,Zuid-Holland,VBO,4.457400,51.874702
Groene Kruisweg,271,,K004,3084LM,Rotterdam,Rotterdam,Zuid-Holland,VBO,4.457400,51.874702
Groene Kruisweg,271,,K005,3084LM,Rotterdam,Rotterdam,Zuid-Holland,VBO,4.457400,51.874702
Groene Kruisweg,273,,K001,3084LM,Rotterdam,Rotterdam,Zuid-Holland,VBO,4.457400,51.874702
Groene Kruisweg,273,,K002,3084LM,Rotterdam,Rotterdam,Zuid-Holland,VBO,4.457400,51.874702
Groene Kruisweg,273,,K003,3084LM,Rotterdam,Rotterdam,Zuid-Holland,VBO,4.457400,51.874702
Groene Kruisweg,273,,K004,3084LM,Rotterdam,Rotterdam,Zuid-Holland,VBO,4.457400,51.874702
Groene Kruisweg,273,,K005,3084LM,Rotterdam,Rotterdam,Zuid-Holland,VBO,4.457400,51.874702
Groene Kruisweg,273,,K006,3084LM,Rotterdam,Rotterdam,Zuid-Holland,VBO,4.457400,51.874702
Groene Kruisweg,285,,K001,3084LM,Rotterdam,Rotterdam,Zuid-Holland,VBO,4.457400,51.874702
Groene Kruisweg,285,,K002,3084LM,Rotterdam,Rotterdam,Zuid-Holland,VBO,4.457400,51.874702
Groene Kruisweg,285,,K003,3084LM,Rotterdam,Rotterdam,Zuid-Holland,VBO,4.457400,51.874702
Groene Kruisweg,285,,K004,3084LM,Rotterdam,Rotterdam,Zuid-Holland,VBO,4.457400,51.874702
Groene Kruisweg,285,,K005,3084LM,Rotterdam,Rotterdam,Zuid-Holland,VBO,4.457400,51.874702
Groene Kruisweg,289,,K001,3084LM,Rotterdam,Rotterdam,Zuid-Holland,VBO,4.457400,51.874702
Groene Kruisweg,289,,K002,3084LM,Rotterdam,Rotterdam,Zuid-Holland,VBO,4.457400,51.874702
Groene Kruisweg,289,,K003,3084LM,Rotterdam,Rotterdam,Zuid-Holland,VBO,4.457400,51.874702
Groene Kruisweg,289,,K004,3084LM,Rotterdam,Rotterdam,Zuid-Holland,VBO,4.457400,51.874702
Groene Kruisweg,291,,,3084LM,Rotterdam,Rotterdam,Zuid-Holland,VBO,4.457400,51.874702
Groene Kruisweg,325,,,3084LM,Rotterdam,Rotterdam,Zuid-Holland,VBO,4.457400,51.874702
Groene Kruisweg,327,,K001,3084LM,Rotterdam,Rotterdam,Zuid-Holland,VBO,4.457400,51.874702
Groene Kruisweg,327,,K002,3084LM,Rotterdam,Rotterdam,Zuid-Holland,VBO,4.457400,51.874702
Groene Kruisweg,327,,K003,3084LM,Rotterdam,Rotterdam,Zuid-Holland,VBO,4.457400,51.874702
Groene Kruisweg,327,,K004,3084LM,Rotterdam,Rotterdam,Zuid-Holland,VBO,4.457400,51.874702
Groene Kruisweg,327,,K005,3084LM,Rotterdam,Rotterdam,Zuid-Holland,VBO,4.457400,51.874702
Groene Kruisweg,329,,K001,3084LM,Rotterdam,Rotterdam,Zuid-Holland,VBO,4.457400,51.874702
Groene Kruisweg,329,,K002,3084LM,Rotterdam,Rotterdam,Zuid-Holland,VBO,4.457400,51.874702
Groene Kruisweg,329,,K003,3084LM,Rotterdam,Rotterdam,Zuid-Holland,VBO,4.457400,51.874702
Groene Kruisweg,329,,K004,3084LM,Rotterdam,Rotterdam,Zuid-Holland,VBO,4.457400,51.874702
Groene Kruisweg,329,,K005,3084LM,Rotterdam,Rotterdam,Zuid-Holland,VBO,4.457400,51.874702
Groene Kruisweg,329,,K006,3084LM,Rotterdam,Rotterdam,Zuid-Holland,VBO,4.457400,51.874702
Groene Kruisweg,329,,K007,3084LM,Rotterdam,Rotterdam,Zuid-Holland,VBO,4.457400,51.874702
Groene Kruisweg,329,,K008,3084LM,Rotterdam,Rotterdam,Zuid-Holland,VBO,4.457400,51.874702
Groene Kruisweg,331,,,3084LM,Rotterdam,Rotterdam,Zuid-Holland,VBO,4.457400,51.874702
Groene Kruisweg,333,,K002,3084LM,Rotterdam,Rotterdam,Zuid-Holland,VBO,4.457400,51.874702
Groene Kruisweg,333,,K003,3084LM,Rotterdam,Rotterdam,Zuid-Holland,VBO,4.457400,51.874702
Groene Kruisweg,333,,K004,3084LM,Rotterdam,Rotterdam,Zuid-Holland,VBO,4.457400,51.874702
Groene Kruisweg,333,,K005,3084LM,Rotterdam,Rotterdam,Zuid-Holland,VBO,4.457400,51.874702
Groene Kruisweg,333,,K006,3084LM,Rotterdam,Rotterdam,Zuid-Holland,VBO,4.457400,51.874702
Groene Kruisweg,333,,K007,3084LM,Rotterdam,Rotterdam,Zuid-Holland,VBO,4.457400,51.874702
Groene Kruisweg,333,,K008,3084LM,Rotterdam,Rotterdam,Zuid-Holland,VBO,4.457400,51.874702
Groene Kruisweg,339,,K001,3084LM,Rotterdam,Rotterdam,Zuid-Holland,VBO,4.457400,51.874702
Groene Kruisweg,339,,K002,3084LM,Rotterdam,Rotterdam,Zuid-Holland,VBO,4.457400,51.874702
Groene Kruisweg,341,,K001,3084LM,Rotterdam,Rotterdam,Zuid-Holland,VBO,4.457400,51.874702
Groene Kruisweg,341,,K002,3084LM,Rotterdam,Rotterdam,Zuid-Holland,VBO,4.457400,51.874702
Groene Kruisweg,341,,K003,3084LM,Rotterdam,Rotterdam,Zuid-Holland,VBO,4.457400,51.874702
Groene Kruisweg,341,,K004,3084LM,Rotterdam,Rotterdam,Zuid-Holland,VBO,4.457400,51.874702
Groene Kruisweg,341,,K005,3084LM,Rotterdam,Rotterdam,Zuid-Holland,VBO,4.457400,51.874702
Groene Kruisweg,343,,K001,3084LM,Rotterdam,Rotterdam,Zuid-Holland,VBO,4.457400,51.874702
Groene Kruisweg,343,,K002,3084LM,Rotterdam,Rotterdam,Zuid-Holland,VBO,4.457400,51.874702
Groene Kruisweg,343,,K003,3084LM,Rotterdam,Rotterdam,Zuid-Holland,VBO,4.457400,51.874702
Groene Kruisweg,343,,K004,3084LM,Rotterdam,Rotterdam,Zuid-Holland,VBO,4.457400,51.874702
Groene Kruisweg,343,,K005,3084LM,Rotterdam,Rotterdam,Zuid-Holland,VBO,4.457400,51.874702
Groene Kruisweg,343,,K006,3084LM,Rotterdam,Rotterdam,Zuid-Holland,VBO,4.457400,51.874702
Groene Kruisweg,343,,K007,3084LM,Rotterdam,Rotterdam,Zuid-Holland,VBO,4.457400,51.874702
Groene Kruisweg,343,,K008,3084LM,Rotterdam,Rotterdam,Zuid-Holland,VBO,4.457400,51.874702
Groene Kruisweg,345,,K001,3084LM,Rotterdam,Rotterdam,Zuid-Holland,VBO,4.457400,51.874702
Groene Kruisweg,345,,K002,3084LM,Rotterdam,Rotterdam,Zuid-Holland,VBO,4.457400,51.874702
Groene Kruisweg,345,,K003,3084LM,Rotterdam,Rotterdam,Zuid-Holland,VBO,4.457400,51.874702
Groene Kruisweg,345,,K004,3084LM,Rotterdam,Rotterdam,Zuid-Holland,VBO,4.457400,51.874702
Groene Kruisweg,345,,K005,3084LM,Rotterdam,Rotterdam,Zuid-Holland,VBO,4.457400,51.874702
Groene Kruisweg,345,,K006,3084LM,Rotterdam,Rotterdam,Zuid-Holland,VBO,4.457400,51.874702
Groene Kruisweg,345,,K007,3084LM,Rotterdam,Rotterdam,Zuid-Holland,VBO,4.457400,51.874702
Groene Kruisweg,345,,K008,3084LM,Rotterdam,Rotterdam,Zuid-Holland,VBO,4.457400,51.874702
Groene Kruisweg,347,,K001,3084LM,Rotterdam,Rotterdam,Zuid-Holland,VBO,4.457400,51.874702
Groene Kruisweg,347,,K002,3084LM,Rotterdam,Rotterdam,Zuid-Holland,VBO,4.457400,51.874702
Groene Kruisweg,347,,K003,3084LM,Rotterdam,Rotterdam,Zuid-Holland,VBO,4.457400,51.874702
Groene Kruisweg,347,,K004,3084LM,Rotterdam,Rotterdam,Zuid-Holland,VBO,4.457400,51.874702
Groene Kruisweg,353,,K002,3084LM,Rotterdam,Rotterdam,Zuid-Holland,VBO,4.457400,51.874702
Groene Kruisweg,353,,K003,3084LM,Rotterdam,Rotterdam,Zuid-Holland,VBO,4.457400,51.874702
Groene Kruisweg,353,,K004,3084LM,Rotterdam,Rotterdam,Zuid-Holland,VBO,4.457400,51.874702
Groene Kruisweg,353,,K005,3084LM,Rotterdam,Rotterdam,Zuid-Holland,VBO,4.457400,51.874702
Groene Kruisweg,355,,K001,3084LM,Rotterdam,Rotterdam,Zuid-Holland,VBO,4.457400,51.874702
Groene Kruisweg,355,,K002,3084LM,Rotterdam,Rotterdam,Zuid-Holland,VBO,4.457400,51.874702
Groene Kruisweg,355,,K003,3084LM,Rotterdam,Rotterdam,Zuid-Holland,VBO,4.457400,51.874702
Groene Kruisweg,355,,K004,3084LM,Rotterdam,Rotterdam,Zuid-Holland,VBO,4.457400,51.874702
Groene Kruisweg,355,,K005,3084LM,Rotterdam,Rotterdam,Zuid-Holland,VBO,4.457400,51.874702
Groene Kruisweg,355,,K006,3084LM,Rotterdam,Rotterdam,Zuid-Holland,VBO,4.457400,51.874702
Groene Kruisweg,355,,K007,3084LM,Rotterdam,Rotterdam,Zuid-Holland,VBO,4.457400,51.874702
Groene Kruisweg,355,,K008,3084LM,Rotterdam,Rotterdam,Zuid-Holland,VBO,4.457400,51.874702
Groene Kruisweg,357,,,3084LM,Rotterdam,Rotterdam,Zuid-Holland,VBO,4.457400,51.874702
Groene Kruisweg,361,,K001,3084LM,Rotterdam,Rotterdam,Zuid-Holland,VBO,4.457400,51.874702
Groene Kruisweg,361,,K002,3084LM,Rotterdam,Rotterdam,Zuid-Holland,VBO,4.457400,51.874702
Groene Kruisweg,361,,K003,3084LM,Rotterdam,Rotterdam,Zuid-Holland,VBO,4.457400,51.874702
Groene Kruisweg,361,,K004,3084LM,Rotterdam,Rotterdam,Zuid-Holland,VBO,4.457400,51.874702
Groene Kruisweg,361,,K005,3084LM,Rotterdam,Rotterdam,Zuid-Holland,VBO,4.457400,51.874702
Groene Kruisweg,361,,K006,3084LM,Rotterdam,Rotterdam,Zuid-Holland,VBO,4.457400,51.874702
Groene Kruisweg,361,,K007,3084LM,Rotterdam,Rotterdam,Zuid-Holland,VBO,4.457400,51.874702
Groene Kruisweg,361,,K008,3084LM,Rotterdam,Rotterdam,Zuid-Holland,VBO,4.457400,51.874702
Groene Kruisweg,367,,K001,3084LM,Rotterdam,Rotterdam,Zuid-Holland,VBO,4.457400,51.874702
Groene Kruisweg,367,,K002,3084LM,Rotterdam,Rotterdam,Zuid-Holland,VBO,4.457400,51.874702
Groene Kruisweg,367,,K003,3084LM,Rotterdam,Rotterdam,Zuid-Holland,VBO,4.457400,51.874702
Groene Kruisweg,367,,K004,3084LM,Rotterdam,Rotterdam,Zuid-Holland,VBO,4.457400,51.874702
Groene Kruisweg,367,,K005,3084LM,Rotterdam,Rotterdam,Zuid-Holland,VBO,4.457400,51.874702
Groene Kruisweg,367,,K006,3084LM,Rotterdam,Rotterdam,Zuid-Holland,VBO,4.457400,51.874702
Groene Kruisweg,367,,K007,3084LM,Rotterdam,Rotterdam,Zuid-Holland,VBO,4.457400,51.874702
Groene Kruisweg,367,,K008,3084LM,Rotterdam,Rotterdam,Zuid-Holland,VBO,4.457400,51.874702
Groene Kruisweg,373,,K001,3084LM,Rotterdam,Rotterdam,Zuid-Holland,VBO,4.457400,51.874702
Groene Kruisweg,373,,K002,3084LM,Rotterdam,Rotterdam,Zuid-Holland,VBO,4.457400,51.874702
Groene Kruisweg,373,,K003,3084LM,Rotterdam,Rotterdam,Zuid-Holland,VBO,4.457400,51.874702
Groene Kruisweg,373,,K004,3084LM,Rotterdam,Rotterdam,Zuid-Holland,VBO,4.457400,51.874702
Groene Kruisweg,373,,K005,3084LM,Rotterdam,Rotterdam,Zuid-Holland,VBO,4.457400,51.874702
Groene Kruisweg,373,,K006,3084LM,Rotterdam,Rotterdam,Zuid-Holland,VBO,4.457400,51.874702
Groene Kruisweg,373,,K007,3084LM,Rotterdam,Rotterdam,Zuid-Holland,VBO,4.457400,51.874702
Groene Kruisweg,373,,K008,3084LM,Rotterdam,Rotterdam,Zuid-Holland,VBO,4.457400,51.874702
Groene Kruisweg,379,,,3084LM,Rotterdam,Rotterdam,Zuid-Holland,VBO,4.457223,51.874388
Groene Kruisweg,381,,,3084LM,Rotterdam,Rotterdam,Zuid-Holland,VBO,4.457040,51.874120
Hansweertstraat,10,,,3084LN,Rotterdam,Rotterdam,Zuid-Holland,VBO,4.470339,51.868694
Krabbendijkestraat,481,,,3084LP,Rotterdam,Rotterdam,Zuid-Holland,VBO,4.464111,51.867754
Krabbendijkestraat,495,,,3084LP,Rotterdam,Rotterdam,Zuid-Holland,VBO,4.462856,51.867665
Krabbendijkestraat,501,,,3084LP,Rotterdam,Rotterdam,Zuid-Holland,VBO,4.462819,51.866552
Krabbendijkestraat,520,,,3084LP,Rotterdam,Rotterdam,Zuid-Holland,VBO,4.465626,51.867978
Smitshoekseweg,198,,,3084LR,Rotterdam,Rotterdam,Zuid-Holland,VBO,4.482191,51.868858
Smitshoekseweg,200,,,3084LR,Rotterdam,Rotterdam,Zuid-Holland,VBO,4.482102,51.868586
Smitshoekseweg,202,,,3084LR,Rotterdam,Rotterdam,Zuid-Holland,VBO,4.482049,51.868367
Smitshoekseweg,204,,,3084LR,Rotterdam,Rotterdam,Zuid-Holland,VBO,4.481982,51.868147
Smitshoekseweg,206,,,3084LR,Rotterdam,Rotterdam,Zuid-Holland,VBO,4.481915,51.867947
Smitshoekseweg,208,,,3084LR,Rotterdam,Rotterdam,Zuid-Holland,VBO,4.481848,51.867695
Smitshoekseweg,210,,,3084LR,Rotterdam,Rotterdam,Zuid-Holland,VBO,4.481784,51.867529
Smitshoekseweg,212,,,3084LR,Rotterdam,Rotterdam,Zuid-Holland,VBO,4.481773,51.867416
Smitshoekseweg,214,,,3084LR,Rotterdam,Rotterdam,Zuid-Holland,VBO,4.481713,51.867185
Smitshoekseweg,216,,,3084LR,Rotterdam,Rotterdam,Zuid-Holland,VBO,4.481632,51.866962
Smitshoekseweg,218,,,3084LR,Rotterdam,Rotterdam,Zuid-Holland,VBO,4.481539,51.866754
Smitshoekseweg,220,,,3084LR,Rotterdam,Rotterdam,Zuid-Holland,VBO,4.481488,51.866529
Smitshoekseweg,222,A,,3084LR,Rotterdam,Rotterdam,Zuid-Holland,VBO,4.481523,51.866372
Smitshoekseweg,222,B,,3084LR,Rotterdam,Rotterdam,Zuid-Holland,VBO,4.481461,51.866201
Smitshoekseweg,224,,,3084LR,Rotterdam,Rotterdam,Zuid-Holland,VBO,4.481294,51.865902
Smitshoekseweg,187,,,3084LS,Rotterdam,Rotterdam,Zuid-Holland,VBO,4.481645,51.868823
Smitshoekseweg,191,,,3084LS,Rotterdam,Rotterdam,Zuid-Holland,VBO,4.481562,51.868524
Smitshoekseweg,193,,,3084LS,Rotterdam,Rotterdam,Zuid-Holland,VBO,4.480913,51.868374
Smitshoekseweg,195,,,3084LS,Rotterdam,Rotterdam,Zuid-Holland,VBO,4.481469,51.868259
Smitshoekseweg,199,,,3084LS,Rotterdam,Rotterdam,Zuid-Holland,VBO,4.481400,51.867990
Smitshoekseweg,203,,,3084LS,Rotterdam,Rotterdam,Zuid-Holland,VBO,4.481307,51.867698
Smitshoekseweg,205,,,3084LS,Rotterdam,Rotterdam,Zuid-Holland,VBO,4.481244,51.867482
Smitshoekseweg,207,,,3084LS,Rotterdam,Rotterdam,Zuid-Holland,VBO,4.481170,51.867226
Smitshoekseweg,213,,,3084LS,Rotterdam,Rotterdam,Zuid-Holland,VBO,4.481087,51.866954
Smitshoekseweg,215,,,3084LS,Rotterdam,Rotterdam,Zuid-Holland,VBO,4.481011,51.866694
Smitshoekseweg,217,,,3084LS,Rotterdam,Rotterdam,Zuid-Holland,VBO,4.480807,51.866239
Smitshoekseweg,219,,,3084LS,Rotterdam,Rotterdam,Zuid-Holland,VBO,4.480782,51.866357
Smitshoekseweg,221,,,3084LS,Rotterdam,Rotterdam,Zuid-Holland,VBO,4.480854,51.866033
Smitshoekseweg,223,,,3084LS,Rotterdam,Rotterdam,Zuid-Holland,VBO,4.480795,51.865862
Carnissesingel,4,,,3084NA,Rotterdam,Rotterdam,Zuid-Holland,VBO,4.486658,51.884997
Carnissesingel,6,,,3084NA,Rotterdam,Rotterdam,Zuid-Holland,VBO,4.486099,51.885130
Carnissesingel,20,,,3084NA,Rotterdam,Rotterdam,Zuid-Holland,VBO,4.485238,51.885407
Carnissesingel,22,,,3084NA,Rotterdam,Rotterdam,Zuid-Holland,VBO,4.485079,51.885441
Carnissesingel,208,,,3084NA,Rotterdam,Rotterdam,Zuid-Holland,VBO,4.483394,51.885592
Carnissesingel,210,,,3084NA,Rotterdam,Rotterdam,Zuid-Holland,VBO,4.483150,51.885888
Carnissesingel,240,,,3084NA,Rotterdam,Rotterdam,Zuid-Holland,VBO,4.481039,51.885999
Korperpad,14,,,3084NB,Rotterdam,Rotterdam,Zuid-Holland,VBO,4.458895,51.876409
Korperpad,17,,,3084NB,Rotterdam,Rotterdam,Zuid-Holland,VBO,4.458689,51.876735
Korperpad,19,,,3084NB,Rotterdam,Rotterdam,Zuid-Holland,VBO,4.458433,51.876722
Korperpad,21,,,3084NB,Rotterdam,Rotterdam,Zuid-Holland,VBO,4.458310,51.876803
Korperpad,25,,,3084NB,Rotterdam,Rotterdam,Zuid-Holland,VBO,4.457459,51.876838
Korperweg,2,,,3084NC,Rotterdam,Rotterdam,Zuid-Holland,VBO,4.459186,51.875378
Korperweg,6,,,3084NC,Rotterdam,Rotterdam,Zuid-Holland,VBO,4.458931,51.875625
Korperweg,8,,,3084NC,Rotterdam,Rotterdam,Zuid-Holland,VBO,4.458403,51.875441
Korperweg,10,,,3084NC,Rotterdam,Rotterdam,Zuid-Holland,VBO,4.458367,51.875661
Korperweg,12,,,3084NC,Rotterdam,Rotterdam,Zuid-Holland,VBO,4.457743,51.875840
Korperweg,14,,,3084NC,Rotterdam,Rotterdam,Zuid-Holland,VBO,4.457816,51.876055
Korperweg,18,,,3084NC,Rotterdam,Rotterdam,Zuid-Holland,VBO,4.458116,51.875971
Korperweg,35,,,3084NC,Rotterdam,Rotterdam,Zuid-Holland,VBO,4.455873,51.877350
Korperweg,39,,,3084NC,Rotterdam,Rotterdam,Zuid-Holland,VBO,4.455656,51.877539
Korperweg,196,,,3084NC,Rotterdam,Rotterdam,Zuid-Holland,VBO,4.454128,51.877246
Kromme Zandweg,66,A,,3084ND,Rotterdam,Rotterdam,Zuid-Holland,VBO,4.478124,51.882706
Kromme Zandweg,66,,,3084ND,Rotterdam,Rotterdam,Zuid-Holland,VBO,4.478124,51.882706
Kromme Zandweg,68,,,3084ND,Rotterdam,Rotterdam,Zuid-Holland,VBO,4.474563,51.882860
Kromme Zandweg,70,,,3084ND,Rotterdam,Rotterdam,Zuid-Holland,VBO,4.474329,51.882872
Kromme Zandweg,72,,,3084ND,Rotterdam,Rotterdam,Zuid-Holland,VBO,4.474091,51.882880
Kromme Zandweg,74,,,3084ND,Rotterdam,Rotterdam,Zuid-Holland,VBO,4.473851,51.882885
Kromme Zandweg,76,,,3084ND,Rotterdam,Rotterdam,Zuid-Holland,VBO,4.473536,51.882895
Kromme Zandweg,78,,,3084ND,Rotterdam,Rotterdam,Zuid-Holland,VBO,4.473424,51.882900
Kromme Zandweg,80,A,,3084ND,Rotterdam,Rotterdam,Zuid-Holland,VBO,4.472950,51.882919
Kromme Zandweg,80,,,3084ND,Rotterdam,Rotterdam,Zuid-Holland,VBO,4.472950,51.882919
Kromme Zandweg,82,A,,3084ND,Rotterdam,Rotterdam,Zuid-Holland,VBO,4.472601,51.882920
Kromme Zandweg,82,B,,3084ND,Rotterdam,Rotterdam,Zuid-Holland,VBO,4.472135,51.882933
Kromme Zandweg,82,,,3084ND,Rotterdam,Rotterdam,Zuid-Holland,VBO,4.472394,51.882933
Kromme Zandweg,84,,,3084ND,Rotterdam,Rotterdam,Zuid-Holland,VBO,4.471588,51.882964
Kromme Zandweg,90,,,3084ND,Rotterdam,Rotterdam,Zuid-Holland,VBO,4.469988,51.883071
Kromme Zandweg,96,,,3084ND,Rotterdam,Rotterdam,Zuid-Holland,VBO,4.468228,51.883153
Kromme Zandweg,98,,,3084ND,Rotterdam,Rotterdam,Zuid-Holland,VBO,4.468154,51.883159
Kromme Zandweg,102,,,3084ND,Rotterdam,Rotterdam,Zuid-Holland,VBO,4.466610,51.882758
Kromme Zandweg,108,,,3084ND,Rotterdam,Rotterdam,Zuid-Holland,VBO,4.464624,51.883302
Kromme Zandweg,110,,,3084ND,Rotterdam,Rotterdam,Zuid-Holland,VBO,4.463502,51.883289
Kromme Zandweg,112,A,,3084ND,Rotterdam,Rotterdam,Zuid-Holland,VBO,4.463364,51.883146
Kromme Zandweg,112,B,,3084ND,Rotterdam,Rotterdam,Zuid-Holland,VBO,4.463364,51.883146
Kromme Zandweg,114,,,3084ND,Rotterdam,Rotterdam,Zuid-Holland,VBO,4.463443,51.883028
Kromme Zandweg,158,,,3084ND,Rotterdam,Rotterdam,Zuid-Holland,VBO,4.460166,51.883921
Kromme Zandweg,65,,,3084NE,Rotterdam,Rotterdam,Zuid-Holland,VBO,4.474149,51.883423
Kromme Zandweg,75,,,3084NE,Rotterdam,Rotterdam,Zuid-Holland,VBO,4.471618,51.883465
Kromme Zandweg,77,,,3084NE,Rotterdam,Rotterdam,Zuid-Holland,VBO,4.471618,51.883465
Schulpweg,7,,,3084NG,Rotterdam,Rotterdam,Zuid-Holland,VBO,4.458456,51.884598
Schulpweg,9,,,3084NG,Rotterdam,Rotterdam,Zuid-Holland,VBO,4.458456,51.884598
Schulpweg,11,,,3084NG,Rotterdam,Rotterdam,Zuid-Holland,VBO,4.458456,51.884598
Schulpweg,13,,,3084NG,Rotterdam,Rotterdam,Zuid-Holland,VBO,4.458456,51.884598
Schulpweg,15,,,3084NG,Rotterdam,Rotterdam,Zuid-Holland,VBO,4.458456,51.884598
Schulpweg,17,,,3084NG,Rotterdam,Rotterdam,Zuid-Holland,VBO,4.458456,51.884598
Schulpweg,19,,,3084NG,Rotterdam,Rotterdam,Zuid-Holland,VBO,4.458456,51.884598
Schulpweg,21,,,3084NG,Rotterdam,Rotterdam,Zuid-Holland,VBO,4.458456,51.884598
Schulpweg,23,,,3084NG,Rotterdam,Rotterdam,Zuid-Holland,VBO,4.458407,51.884632
Schulpweg,25,,,3084NG,Rotterdam,Rotterdam,Zuid-Holland,VBO,4.458363,51.884642
Schulpweg,29,,,3084NG,Rotterdam,Rotterdam,Zuid-Holland,VBO,4.458207,51.884676
Schulpweg,37,,,3084NG,Rotterdam,Rotterdam,Zuid-Holland,VBO,4.458000,51.883980
Schulpweg,145,,,3084NG,Rotterdam,Rotterdam,Zuid-Holland,VBO,4.459101,51.883447
Schulpweg,147,,,3084NG,Rotterdam,Rotterdam,Zuid-Holland,VBO,4.459078,51.883365
Schulpweg,155,,,3084NG,Rotterdam,Rotterdam,Zuid-Holland,VBO,4.458947,51.883152
Schulpweg,167,,,3084NG,Rotterdam,Rotterdam,Zuid-Holland,VBO,4.458902,51.882823
Schulpweg,189,,,3084NG,Rotterdam,Rotterdam,Zuid-Holland,VBO,4.458684,51.882357
Schulpweg,195,,,3084NH,Rotterdam,Rotterdam,Zuid-Holland,VBO,4.458420,51.881831
Schulpweg,197,,,3084NH,Rotterdam,Rotterdam,Zuid-Holland,VBO,4.457793,51.881228
Schulpweg,251,,,3084NH,Rotterdam,Rotterdam,Zuid-Holland,VBO,4.458282,51.880725
Schulpweg,253,,,3084NH,Rotterdam,Rotterdam,Zuid-Holland,VBO,4.458229,51.880435
Schulpweg,265,,,3084NH,Rotterdam,Rotterdam,Zuid-Holland,VBO,4.458119,51.880316
Schulpweg,269,,,3084NH,Rotterdam,Rotterdam,Zuid-Holland,VBO,4.458068,51.880219
Schulpweg,271,,,3084NH,Rotterdam,Rotterdam,Zuid-Holland,VBO,4.458040,51.880150
Schulpweg,333,,,3084NH,Rotterdam,Rotterdam,Zuid-Holland,VBO,4.457680,51.878661
Schulpweg,335,,,3084NH,Rotterdam,Rotterdam,Zuid-Holland,VBO,4.457719,51.878576
Schulpweg,341,,,3084NH,Rotterdam,Rotterdam,Zuid-Holland,VBO,4.457627,51.878477
Schulpweg,375,,,3084NH,Rotterdam,Rotterdam,Zuid-Holland,VBO,4.456814,51.877711
Schulpweg,425,,,3084NH,Rotterdam,Rotterdam,Zuid-Holland,VBO,4.455797,51.875832
Schulpweg,521,,,3084NH,Rotterdam,Rotterdam,Zuid-Holland,VBO,4.455860,51.873712
Schulpweg,523,,,3084NH,Rotterdam,Rotterdam,Zuid-Holland,VBO,4.455898,51.873636
Schulpweg,160,,,3084NJ,Rotterdam,Rotterdam,Zuid-Holland,VBO,4.459361,51.883562
Schulpweg,166,,,3084NJ,Rotterdam,Rotterdam,Zuid-Holland,VBO,4.459221,51.883096
Schulpweg,216,,,3084NJ,Rotterdam,Rotterdam,Zuid-Holland,VBO,4.458949,51.882041
Schulpweg,218,,,3084NJ,Rotterdam,Rotterdam,Zuid-Holland,VBO,4.458935,51.881986
Schulpweg,222,,,3084NJ,Rotterdam,Rotterdam,Zuid-Holland,VBO,4.458909,51.881907
Schulpweg,224,,,3084NJ,Rotterdam,Rotterdam,Zuid-Holland,VBO,4.458896,51.881865
Schulpweg,226,,,3084NJ,Rotterdam,Rotterdam,Zuid-Holland,VBO,4.458884,51.881822
Schulpweg,322,,,3084NJ,Rotterdam,Rotterdam,Zuid-Holland,VBO,4.458267,51.879401
Schulpweg,392,,,3084NJ,Rotterdam,Rotterdam,Zuid-Holland,VBO,4.457011,51.877253
Schulpweg,394,,,3084NJ,Rotterdam,Rotterdam,Zuid-Holland,VBO,4.456996,51.877169
Schulpweg,396,,,3084NJ,Rotterdam,Rotterdam,Zuid-Holland,VBO,4.456985,51.877108
Schulpweg,400,,,3084NJ,Rotterdam,Rotterdam,Zuid-Holland,VBO,4.455326,51.876093
Schulpweg,450,,,3084NJ,Rotterdam,Rotterdam,Zuid-Holland,VBO,4.456561,51.875730
Schulpweg,538,,,3084NK,Rotterdam,Rotterdam,Zuid-Holland,VBO,4.456283,51.873513
Schulpweg,540,,,3084NK,Rotterdam,Rotterdam,Zuid-Holland,VBO,4.456270,51.873447
Pendrechtseweg,2,,,3084NL,Rotterdam,Rotterdam,Zuid-Holland,VBO,4.471467,51.882614
Pendrechtseweg,4,,,3084NL,Rotterdam,Rotterdam,Zuid-Holland,VBO,4.471688,51.882395
Pendrechtseweg,6,,,3084NL,Rotterdam,Rotterdam,Zuid-Holland,VBO,4.471809,51.882135
Pendrechtseweg,8,,,3084NL,Rotterdam,Rotterdam,Zuid-Holland,VBO,4.471574,51.881915
Pendrechtseweg,12,,,3084NL,Rotterdam,Rotterdam,Zuid-Holland,VBO,4.471329,51.881523
Roerdomplaan,2,,,3084NM,Rotterdam,Rotterdam,Zuid-Holland,VBO,4.474846,51.883929
Roerdomplaan,4,,,3084NM,Rotterdam,Rotterdam,Zuid-Holland,VBO,4.474487,51.883923
Roerdomplaan,6,,,3084NM,Rotterdam,Rotterdam,Zuid-Holland,VBO,4.474487,51.883923
Roerdomplaan,8,,,3084NM,Rotterdam,Rotterdam,Zuid-Holland,VBO,4.474487,51.883923
Roerdomplaan,10,,,3084NM,Rotterdam,Rotterdam,Zuid-Holland,VBO,4.474487,51.883923
Roerdomplaan,12,,,3084NM,Rotterdam,Rotterdam,Zuid-Holland,VBO,4.474487,51.883923
Roerdomplaan,20,,,3084NM,Rotterdam,Rotterdam,Zuid-Holland,VBO,4.474116,51.883808
Roerdomplaan,22,,,3084NM,Rotterdam,Rotterdam,Zuid-Holland,VBO,4.473834,51.883892
Carnissedreef,2,,,3084NN,Rotterdam,Rotterdam,Zuid-Holland,VBO,4.480251,51.885520
Carnissedreef,4,B,,3084NN,Rotterdam,Rotterdam,Zuid-Holland,VBO,4.479445,51.885214
Carnissedreef,4,,,3084NN,Rotterdam,Rotterdam,Zuid-Holland,VBO,4.479732,51.885350
Carnissedreef,6,,,3084NN,Rotterdam,Rotterdam,Zuid-Holland,VBO,4.479289,51.884953
Carnissedreef,8,,,3084NN,Rotterdam,Rotterdam,Zuid-Holland,VBO,4.478958,51.884796
Carnissedreef,280,,,3084NN,Rotterdam,Rotterdam,Zuid-Holland,VBO,4.478184,51.885281
Carnissedreef,292,,,3084NN,Rotterdam,Rotterdam,Zuid-Holland,VBO,4.477171,51.885200
Carnissedreef,296,,,3084NN,Rotterdam,Rotterdam,Zuid-Holland,VBO,4.476420,51.885226
Carnissedreef,1,,,3084NP,Rotterdam,Rotterdam,Zuid-Holland,VBO,4.478931,51.885734
Carnissedreef,3,,,3084NP,Rotterdam,Rotterdam,Zuid-Holland,VBO,4.478931,51.885734
Carnissedreef,5,,,3084NP,Rotterdam,Rotterdam,Zuid-Holland,VBO,4.478931,51.885734
Carnissedreef,7,,,3084NP,Rotterdam,Rotterdam,Zuid-Holland,VBO,4.478931,51.885734
Carnissedreef,11,,,3084NP,Rotterdam,Rotterdam,Zuid-Holland,VBO,4.478931,51.885734
Carnissedreef,13,,,3084NP,Rotterdam,Rotterdam,Zuid-Holland,VBO,4.478931,51.885734
Carnissedreef,15,,,3084NP,Rotterdam,Rotterdam,Zuid-Holland,VBO,4.478931,51.885734
Carnissedreef,17,,,3084NP,Rotterdam,Rotterdam,Zuid-Holland,VBO,4.478931,51.885734
Carnissedreef,19,,,3084NP,Rotterdam,Rotterdam,Zuid-Holland,VBO,4.478931,51.885734
Carnissedreef,21,,,3084NP,Rotterdam,Rotterdam,Zuid-Holland,VBO,4.478931,51.885734
Carnissedreef,23,,,3084NP,Rotterdam,Rotterdam,Zuid-Holland,VBO,4.478931,51.885734
Carnissedreef,25,,,3084NP,Rotterdam,Rotterdam,Zuid-Holland,VBO,4.478931,51.885734
Carnissedreef,27,,,3084NP,Rotterdam,Rotterdam,Zuid-Holland,VBO,4.478931,51.885734
Carnissedreef,29,,,3084NP,Rotterdam,Rotterdam,Zuid-Holland,VBO,4.478931,51.885734
Carnissedreef,31,,,3084NP,Rotterdam,Rotterdam,Zuid-Holland,VBO,4.478931,51.885734
Carnissedreef,33,,,3084NP,Rotterdam,Rotterdam,Zuid-Holland,VBO,4.478931,51.885734
Carnissedreef,35,,,3084NP,Rotterdam,Rotterdam,Zuid-Holland,VBO,4.478931,51.885734
Carnissedreef,37,,,3084NP,Rotterdam,Rotterdam,Zuid-Holland,VBO,4.478931,51.885734
Carnissedreef,39,,,3084NP,Rotterdam,Rotterdam,Zuid-Holland,VBO,4.478931,51.885734
Carnissedreef,41,,,3084NP,Rotterdam,Rotterdam,Zuid-Holland,VBO,4.478931,51.885734
Carnissedreef,43,,,3084NP,Rotterdam,Rotterdam,Zuid-Holland,VBO,4.478931,51.885734
Carnissedreef,45,,,3084NP,Rotterdam,Rotterdam,Zuid-Holland,VBO,4.478931,51.885734
Carnissedreef,47,,,3084NP,Rotterdam,Rotterdam,Zuid-Holland,VBO,4.478931,51.885734
Carnissedreef,49,,,3084NP,Rotterdam,Rotterdam,Zuid-Holland,VBO,4.478931,51.885734
Carnissedreef,51,,,3084NP,Rotterdam,Rotterdam,Zuid-Holland,VBO,4.478931,51.885734
Carnissedreef,53,,,3084NP,Rotterdam,Rotterdam,Zuid-Holland,VBO,4.478931,51.885734
Carnissedreef,55,,,3084NP,Rotterdam,Rotterdam,Zuid-Holland,VBO,4.478931,51.885734
Carnissedreef,57,,,3084NP,Rotterdam,Rotterdam,Zuid-Holland,VBO,4.478931,51.885734
Carnissedreef,59,,,3084NP,Rotterdam,Rotterdam,Zuid-Holland,VBO,4.478931,51.885734
Carnissedreef,61,,,3084NP,Rotterdam,Rotterdam,Zuid-Holland,VBO,4.478931,51.885734
Carnissedreef,63,,,3084NP,Rotterdam,Rotterdam,Zuid-Holland,VBO,4.478931,51.885734
Carnissedreef,65,,,3084NP,Rotterdam,Rotterdam,Zuid-Holland,VBO,4.478931,51.885734
Carnissedreef,67,,,3084NP,Rotterdam,Rotterdam,Zuid-Holland,VBO,4.478931,51.885734
Carnissedreef,69,,,3084NP,Rotterdam,Rotterdam,Zuid-Holland,VBO,4.478931,51.885734
Carnissedreef,71,,,3084NP,Rotterdam,Rotterdam,Zuid-Holland,VBO,4.478931,51.885734
Carnissedreef,73,,,3084NR,Rotterdam,Rotterdam,Zuid-Holland,VBO,4.477730,51.885633
Carnissedreef,75,,,3084NR,Rotterdam,Rotterdam,Zuid-Holland,VBO,4.477730,51.885633
Carnissedreef,81,,,3084NR,Rotterdam,Rotterdam,Zuid-Holland,VBO,4.477730,51.885633
Carnissedreef,83,,,3084NR,Rotterdam,Rotterdam,Zuid-Holland,VBO,4.477730,51.885633
Carnissedreef,85,,,3084NR,Rotterdam,Rotterdam,Zuid-Holland,VBO,4.477730,51.885633
Carnissedreef,87,,,3084NR,Rotterdam,Rotterdam,Zuid-Holland,VBO,4.477730,51.885633
Carnissedreef,91,,,3084NR,Rotterdam,Rotterdam,Zuid-Holland,VBO,4.477730,51.885633
Carnissedreef,93,,,3084NR,Rotterdam,Rotterdam,Zuid-Holland,VBO,4.477730,51.885633
Carnissedreef,95,,,3084NR,Rotterdam,Rotterdam,Zuid-Holland,VBO,4.477730,51.885633
Carnissedreef,97,,,3084NR,Rotterdam,Rotterdam,Zuid-Holland,VBO,4.477730,51.885633
Carnissedreef,99,,,3084NR,Rotterdam,Rotterdam,Zuid-Holland,VBO,4.477730,51.885633
Carnissedreef,101,,,3084NR,Rotterdam,Rotterdam,Zuid-Holland,VBO,4.477730,51.885633
Carnissedreef,103,,,3084NR,Rotterdam,Rotterdam,Zuid-Holland,VBO,4.477730,51.885633
Carnissedreef,105,,,3084NR,Rotterdam,Rotterdam,Zuid-Holland,VBO,4.477730,51.885633
Carnissedreef,107,,,3084NR,Rotterdam,Rotterdam,Zuid-Holland,VBO,4.477730,51.885633
Carnissedreef,109,,,3084NR,Rotterdam,Rotterdam,Zuid-Holland,VBO,4.477730,51.885633
Carnissedreef,111,,,3084NR,Rotterdam,Rotterdam,Zuid-Holland,VBO,4.477730,51.885633
Carnissedreef,113,,,3084NR,Rotterdam,Rotterdam,Zuid-Holland,VBO,4.477730,51.885633
Carnissedreef,115,,,3084NR,Rotterdam,Rotterdam,Zuid-Holland,VBO,4.477730,51.885633
Carnissedreef,117,,,3084NR,Rotterdam,Rotterdam,Zuid-Holland,VBO,4.477730,51.885633
Carnissedreef,119,,,3084NR,Rotterdam,Rotterdam,Zuid-Holland,VBO,4.477730,51.885633
Carnissedreef,121,,,3084NR,Rotterdam,Rotterdam,Zuid-Holland,VBO,4.477730,51.885633
Carnissedreef,123,,,3084NR,Rotterdam,Rotterdam,Zuid-Holland,VBO,4.477730,51.885633
Carnissedreef,125,,,3084NR,Rotterdam,Rotterdam,Zuid-Holland,VBO,4.477730,51.885633
Carnissedreef,127,,,3084NR,Rotterdam,Rotterdam,Zuid-Holland,VBO,4.477730,51.885633
Carnissedreef,129,,,3084NR,Rotterdam,Rotterdam,Zuid-Holland,VBO,4.477730,51.885633
Carnissedreef,131,,,3084NR,Rotterdam,Rotterdam,Zuid-Holland,VBO,4.477730,51.885633
Carnissedreef,133,,,3084NR,Rotterdam,Rotterdam,Zuid-Holland,VBO,4.477730,51.885633
Carnissedreef,135,,,3084NR,Rotterdam,Rotterdam,Zuid-Holland,VBO,4.477730,51.885633
Carnissedreef,137,,,3084NR,Rotterdam,Rotterdam,Zuid-Holland,VBO,4.477730,51.885633
Carnissedreef,139,,,3084NR,Rotterdam,Rotterdam,Zuid-Holland,VBO,4.477730,51.885633
Carnissedreef,141,,,3084NR,Rotterdam,Rotterdam,Zuid-Holland,VBO,4.477730,51.885633
Carnissedreef,143,,,3084NR,Rotterdam,Rotterdam,Zuid-Holland,VBO,4.477730,51.885633
Carnissedreef,145,,,3084NR,Rotterdam,Rotterdam,Zuid-Holland,VBO,4.477730,51.885633
Carnissedreef,147,,,3084NR,Rotterdam,Rotterdam,Zuid-Holland,VBO,4.477730,51.885633
Carnissedreef,149,,,3084NR,Rotterdam,Rotterdam,Zuid-Holland,VBO,4.477730,51.885633
Carnissedreef,151,,,3084NR,Rotterdam,Rotterdam,Zuid-Holland,VBO,4.477730,51.885633
Carnissedreef,153,,,3084NS,Rotterdam,Rotterdam,Zuid-Holland,VBO,4.476744,51.885562
Carnissedreef,155,,,3084NS,Rotterdam,Rotterdam,Zuid-Holland,VBO,4.476744,51.885562
Carnissedreef,157,,,3084NS,Rotterdam,Rotterdam,Zuid-Holland,VBO,4.476744,51.885562
Carnissedreef,159,,,3084NS,Rotterdam,Rotterdam,Zuid-Holland,VBO,4.476744,51.885562
Carnissedreef,163,,,3084NS,Rotterdam,Rotterdam,Zuid-Holland,VBO,4.476744,51.885562
Carnissedreef,165,,,3084NS,Rotterdam,Rotterdam,Zuid-Holland,VBO,4.476744,51.885562
Carnissedreef,167,,,3084NS,Rotterdam,Rotterdam,Zuid-Holland,VBO,4.476744,51.885562
Carnissedreef,169,,,3084NS,Rotterdam,Rotterdam,Zuid-Holland,VBO,4.476744,51.885562
Carnissedreef,171,,,3084NS,Rotterdam,Rotterdam,Zuid-Holland,VBO,4.476744,51.885562
Carnissedreef,173,,,3084NS,Rotterdam,Rotterdam,Zuid-Holland,VBO,4.476744,51.885562
Carnissedreef,175,,,3084NS,Rotterdam,Rotterdam,Zuid-Holland,VBO,4.476744,51.885562
Carnissedreef,177,,,3084NS,Rotterdam,Rotterdam,Zuid-Holland,VBO,4.476744,51.885562
Carnissedreef,179,,,3084NS,Rotterdam,Rotterdam,Zuid-Holland,VBO,4.476744,51.885562
Carnissedreef,181,,,3084NS,Rotterdam,Rotterdam,Zuid-Holland,VBO,4.476744,51.885562
Carnissedreef,183,,,3084NS,Rotterdam,Rotterdam,Zuid-Holland,VBO,4.476744,51.885562
Carnissedreef,185,,,3084NS,Rotterdam,Rotterdam,Zuid-Holland,VBO,4.476744,51.885562
Carnissedreef,187,,,3084NS,Rotterdam,Rotterdam,Zuid-Holland,VBO,4.476744,51.885562
Carnissedreef,189,,,3084NS,Rotterdam,Rotterdam,Zuid-Holland,VBO,4.476744,51.885562
Carnissedreef,191,,,3084NS,Rotterdam,Rotterdam,Zuid-Holland,VBO,4.476744,51.885562
Carnissedreef,193,,,3084NS,Rotterdam,Rotterdam,Zuid-Holland,VBO,4.476744,51.885562
Carnissedreef,195,,,3084NS,Rotterdam,Rotterdam,Zuid-Holland,VBO,4.476744,51.885562
Carnissedreef,197,,,3084NS,Rotterdam,Rotterdam,Zuid-Holland,VBO,4.476744,51.885562
Carnissedreef,199,,,3084NS,Rotterdam,Rotterdam,Zuid-Holland,VBO,4.476744,51.885562
Carnissedreef,201,,,3084NS,Rotterdam,Rotterdam,Zuid-Holland,VBO,4.476744,51.885562
Carnissedreef,203,,,3084NS,Rotterdam,Rotterdam,Zuid-Holland,VBO,4.476744,51.885562
Carnissedreef,205,,,3084NS,Rotterdam,Rotterdam,Zuid-Holland,VBO,4.476744,51.885562
Carnissedreef,207,,,3084NS,Rotterdam,Rotterdam,Zuid-Holland,VBO,4.476744,51.885562
Carnissedreef,209,,,3084NS,Rotterdam,Rotterdam,Zuid-Holland,VBO,4.476744,51.885562
Carnissedreef,211,,,3084NS,Rotterdam,Rotterdam,Zuid-Holland,VBO,4.476744,51.885562
Carnissedreef,213,,,3084NS,Rotterdam,Rotterdam,Zuid-Holland,VBO,4.476744,51.885562
Carnissedreef,215,,,3084NS,Rotterdam,Rotterdam,Zuid-Holland,VBO,4.476744,51.885562
Carnissedreef,217,,,3084NS,Rotterdam,Rotterdam,Zuid-Holland,VBO,4.476744,51.885562
Carnissedreef,219,,,3084NS,Rotterdam,Rotterdam,Zuid-Holland,VBO,4.476744,51.885562
Carnissedreef,221,,,3084NS,Rotterdam,Rotterdam,Zuid-Holland,VBO,4.476744,51.885562
Carnissedreef,223,,,3084NS,Rotterdam,Rotterdam,Zuid-Holland,VBO,4.476744,51.885562
Zanglijsterstraat,1,,,3084NT,Rotterdam,Rotterdam,Zuid-Holland,VBO,4.472971,51.883909
Zanglijsterstraat,2,,,3084NT,Rotterdam,Rotterdam,Zuid-Holland,VBO,4.473465,51.883874
Zanglijsterstraat,3,,,3084NT,Rotterdam,Rotterdam,Zuid-Holland,VBO,4.472971,51.883909
Zanglijsterstraat,4,,,3084NT,Rotterdam,Rotterdam,Zuid-Holland,VBO,4.473465,51.883874
Zanglijsterstraat,5,,,3084NT,Rotterdam,Rotterdam,Zuid-Holland,VBO,4.472971,51.883909
Zanglijsterstraat,6,,,3084NT,Rotterdam,Rotterdam,Zuid-Holland,VBO,4.473465,51.883874
Zanglijsterstraat,7,,,3084NT,Rotterdam,Rotterdam,Zuid-Holland,VBO,4.472971,51.883909
Zanglijsterstraat,8,,,3084NT,Rotterdam,Rotterdam,Zuid-Holland,VBO,4.473465,51.883874
Zanglijsterstraat,9,,,3084NT,Rotterdam,Rotterdam,Zuid-Holland,VBO,4.472971,51.883909
Zanglijsterstraat,10,,,3084NT,Rotterdam,Rotterdam,Zuid-Holland,VBO,4.473465,51.883874
Zanglijsterstraat,11,,,3084NT,Rotterdam,Rotterdam,Zuid-Holland,VBO,4.472971,51.883909
Zanglijsterstraat,12,,,3084NT,Rotterdam,Rotterdam,Zuid-Holland,VBO,4.473465,51.883874
Zanglijsterstraat,13,,,3084NT,Rotterdam,Rotterdam,Zuid-Holland,VBO,4.472971,51.883909
Zanglijsterstraat,14,,,3084NT,Rotterdam,Rotterdam,Zuid-Holland,VBO,4.473465,51.883874
Zanglijsterstraat,15,,,3084NT,Rotterdam,Rotterdam,Zuid-Holland,VBO,4.472971,51.883909
Zanglijsterstraat,16,,,3084NT,Rotterdam,Rotterdam,Zuid-Holland,VBO,4.473465,51.883874
Zanglijsterstraat,17,,,3084NT,Rotterdam,Rotterdam,Zuid-Holland,VBO,4.472971,51.883909
Zanglijsterstraat,18,,,3084NT,Rotterdam,Rotterdam,Zuid-Holland,VBO,4.473465,51.883874
Zanglijsterstraat,19,,,3084NT,Rotterdam,Rotterdam,Zuid-Holland,VBO,4.472971,51.883909
Zanglijsterstraat,20,,,3084NT,Rotterdam,Rotterdam,Zuid-Holland,VBO,4.473465,51.883874
Zanglijsterstraat,21,,,3084NT,Rotterdam,Rotterdam,Zuid-Holland,VBO,4.472971,51.883909
Zanglijsterstraat,22,,,3084NT,Rotterdam,Rotterdam,Zuid-Holland,VBO,4.473465,51.883874
Zanglijsterstraat,23,,,3084NT,Rotterdam,Rotterdam,Zuid-Holland,VBO,4.472971,51.883909
Zanglijsterstraat,24,,,3084NT,Rotterdam,Rotterdam,Zuid-Holland,VBO,4.473465,51.883874
Zanglijsterstraat,25,,,3084NT,Rotterdam,Rotterdam,Zuid-Holland,VBO,4.472971,51.883909
Zanglijsterstraat,26,,,3084NT,Rotterdam,Rotterdam,Zuid-Holland,VBO,4.473465,51.883874
Zanglijsterstraat,27,,,3084NT,Rotterdam,Rotterdam,Zuid-Holland,VBO,4.472971,51.883909
Zanglijsterstraat,28,,,3084NT,Rotterdam,Rotterdam,Zuid-Holland,VBO,4.473465,51.883874
Zanglijsterstraat,29,,,3084NT,Rotterdam,Rotterdam,Zuid-Holland,VBO,4.472971,51.883909
Zanglijsterstraat,30,,,3084NT,Rotterdam,Rotterdam,Zuid-Holland,VBO,4.473465,51.883874
Zanglijsterstraat,31,,,3084NT,Rotterdam,Rotterdam,Zuid-Holland,VBO,4.472971,51.883909
Zanglijsterstraat,32,,,3084NT,Rotterdam,Rotterdam,Zuid-Holland,VBO,4.473465,51.883874
Zanglijsterstraat,33,,,3084NT,Rotterdam,Rotterdam,Zuid-Holland,VBO,4.472971,51.883909
Zanglijsterstraat,34,,,3084NT,Rotterdam,Rotterdam,Zuid-Holland,VBO,4.473465,51.883874
Zanglijsterstraat,35,,,3084NT,Rotterdam,Rotterdam,Zuid-Holland,VBO,4.472971,51.883909
Zanglijsterstraat,36,,,3084NT,Rotterdam,Rotterdam,Zuid-Holland,VBO,4.473465,51.883874
Zanglijsterstraat,37,,,3084NT,Rotterdam,Rotterdam,Zuid-Holland,VBO,4.472971,51.883909
Zanglijsterstraat,38,,,3084NT,Rotterdam,Rotterdam,Zuid-Holland,VBO,4.473465,51.883874
Zanglijsterstraat,39,,,3084NT,Rotterdam,Rotterdam,Zuid-Holland,VBO,4.472971,51.883909
Zanglijsterstraat,40,,,3084NT,Rotterdam,Rotterdam,Zuid-Holland,VBO,4.473465,51.883874
Zanglijsterstraat,41,,,3084NT,Rotterdam,Rotterdam,Zuid-Holland,VBO,4.472971,51.883909
Zanglijsterstraat,42,,,3084NT,Rotterdam,Rotterdam,Zuid-Holland,VBO,4.473465,51.883874
Zanglijsterstraat,43,,,3084NT,Rotterdam,Rotterdam,Zuid-Holland,VBO,4.472971,51.883909
Zanglijsterstraat,44,,,3084NT,Rotterdam,Rotterdam,Zuid-Holland,VBO,4.473465,51.883874
Zanglijsterstraat,45,,,3084NT,Rotterdam,Rotterdam,Zuid-Holland,VBO,4.472971,51.883909
Zanglijsterstraat,46,,,3084NT,Rotterdam,Rotterdam,Zuid-Holland,VBO,4.473465,51.883874
Zanglijsterstraat,47,,,3084NT,Rotterdam,Rotterdam,Zuid-Holland,VBO,4.472971,51.883909
Zanglijsterstraat,48,,,3084NT,Rotterdam,Rotterdam,Zuid-Holland,VBO,4.473465,51.883874
Zanglijsterstraat,49,,,3084NT,Rotterdam,Rotterdam,Zuid-Holland,VBO,4.472971,51.883909
Zanglijsterstraat,50,,,3084NT,Rotterdam,Rotterdam,Zuid-Holland,VBO,4.473465,51.883874
Zanglijsterstraat,51,,,3084NT,Rotterdam,Rotterdam,Zuid-Holland,VBO,4.472971,51.883909
Zanglijsterstraat,52,,,3084NT,Rotterdam,Rotterdam,Zuid-Holland,VBO,4.473465,51.883874
Zanglijsterstraat,53,,,3084NT,Rotterdam,Rotterdam,Zuid-Holland,VBO,4.472971,51.883909
Zanglijsterstraat,54,,,3084NT,Rotterdam,Rotterdam,Zuid-Holland,VBO,4.473465,51.883874
Zanglijsterstraat,55,,,3084NT,Rotterdam,Rotterdam,Zuid-Holland,VBO,4.472971,51.883909
Zanglijsterstraat,56,,,3084NT,Rotterdam,Rotterdam,Zuid-Holland,VBO,4.473465,51.883874
Zanglijsterstraat,57,,,3084NT,Rotterdam,Rotterdam,Zuid-Holland,VBO,4.472971,51.883909
Zanglijsterstraat,58,,,3084NT,Rotterdam,Rotterdam,Zuid-Holland,VBO,4.473465,51.883874
Zanglijsterstraat,59,,,3084NT,Rotterdam,Rotterdam,Zuid-Holland,VBO,4.472971,51.883909
Zanglijsterstraat,60,,,3084NT,Rotterdam,Rotterdam,Zuid-Holland,VBO,4.473465,51.883874
Zanglijsterstraat,61,,,3084NT,Rotterdam,Rotterdam,Zuid-Holland,VBO,4.472971,51.883909
Zanglijsterstraat,62,,,3084NT,Rotterdam,Rotterdam,Zuid-Holland,VBO,4.473465,51.883874
Zanglijsterstraat,63,,,3084NT,Rotterdam,Rotterdam,Zuid-Holland,VBO,4.472971,51.883909
Zanglijsterstraat,64,,,3084NT,Rotterdam,Rotterdam,Zuid-Holland,VBO,4.473465,51.883874
Zanglijsterstraat,65,,,3084NT,Rotterdam,Rotterdam,Zuid-Holland,VBO,4.472971,51.883909
Zanglijsterstraat,66,,,3084NT,Rotterdam,Rotterdam,Zuid-Holland,VBO,4.473465,51.883874
Zanglijsterstraat,67,,,3084NT,Rotterdam,Rotterdam,Zuid-Holland,VBO,4.472971,51.883909
Zanglijsterstraat,68,,,3084NT,Rotterdam,Rotterdam,Zuid-Holland,VBO,4.473465,51.883874
Zanglijsterstraat,69,,,3084NT,Rotterdam,Rotterdam,Zuid-Holland,VBO,4.472971,51.883909
Zanglijsterstraat,70,,,3084NT,Rotterdam,Rotterdam,Zuid-Holland,VBO,4.473465,51.883874
Zanglijsterstraat,71,,,3084NT,Rotterdam,Rotterdam,Zuid-Holland,VBO,4.472971,51.883909
Zanglijsterstraat,72,,,3084NT,Rotterdam,Rotterdam,Zuid-Holland,VBO,4.473465,51.883874
Zanglijsterstraat,73,,,3084NT,Rotterdam,Rotterdam,Zuid-Holland,VBO,4.472971,51.883909
Zanglijsterstraat,74,,,3084NT,Rotterdam,Rotterdam,Zuid-Holland,VBO,4.473465,51.883874
Zanglijsterstraat,75,,,3084NT,Rotterdam,Rotterdam,Zuid-Holland,VBO,4.472971,51.883909
Zanglijsterstraat,76,,,3084NT,Rotterdam,Rotterdam,Zuid-Holland,VBO,4.473465,51.883874
Zanglijsterstraat,77,,,3084NT,Rotterdam,Rotterdam,Zuid-Holland,VBO,4.472971,51.883909
Zanglijsterstraat,78,,,3084NT,Rotterdam,Rotterdam,Zuid-Holland,VBO,4.473465,51.883874
Zanglijsterstraat,79,,,3084NT,Rotterdam,Rotterdam,Zuid-Holland,VBO,4.472971,51.883909
Zanglijsterstraat,81,,,3084NT,Rotterdam,Rotterdam,Zuid-Holland,VBO,4.472971,51.883909
Zanglijsterstraat,83,,,3084NT,Rotterdam,Rotterdam,Zuid-Holland,VBO,4.472971,51.883909
Zanglijsterstraat,85,,,3084NT,Rotterdam,Rotterdam,Zuid-Holland,VBO,4.472971,51.883909
Zanglijsterstraat,87,,,3084NT,Rotterdam,Rotterdam,Zuid-Holland,VBO,4.472971,51.883909
Zanglijsterstraat,89,,,3084NT,Rotterdam,Rotterdam,Zuid-Holland,VBO,4.472971,51.883909
Zanglijsterstraat,91,,,3084NT,Rotterdam,Rotterdam,Zuid-Holland,VBO,4.472971,51.883909
Zanglijsterstraat,93,,,3084NT,Rotterdam,Rotterdam,Zuid-Holland,VBO,4.472971,51.883909
Zanglijsterstraat,95,,,3084NT,Rotterdam,Rotterdam,Zuid-Holland,VBO,4.472971,51.883909
Zanglijsterstraat,97,,,3084NT,Rotterdam,Rotterdam,Zuid-Holland,VBO,4.472971,51.883909
Zanglijsterstraat,99,,,3084NT,Rotterdam,Rotterdam,Zuid-Holland,VBO,4.472971,51.883909
Zanglijsterstraat,101,,,3084NT,Rotterdam,Rotterdam,Zuid-Holland,VBO,4.472971,51.883909
Zanglijsterstraat,103,,,3084NT,Rotterdam,Rotterdam,Zuid-Holland,VBO,4.472971,51.883909
Zanglijsterstraat,105,,,3084NT,Rotterdam,Rotterdam,Zuid-Holland,VBO,4.472971,51.883909
Zanglijsterstraat,107,,,3084NT,Rotterdam,Rotterdam,Zuid-Holland,VBO,4.472971,51.883909
Zanglijsterstraat,109,,,3084NT,Rotterdam,Rotterdam,Zuid-Holland,VBO,4.472971,51.883909
Zanglijsterstraat,111,,,3084NT,Rotterdam,Rotterdam,Zuid-Holland,VBO,4.472971,51.883909
Zanglijsterstraat,113,,,3084NT,Rotterdam,Rotterdam,Zuid-Holland,VBO,4.472971,51.883909
Zanglijsterstraat,115,,,3084NT,Rotterdam,Rotterdam,Zuid-Holland,VBO,4.472971,51.883909
Zanglijsterstraat,117,,,3084NT,Rotterdam,Rotterdam,Zuid-Holland,VBO,4.472971,51.883909
Zanglijsterstraat,119,,,3084NT,Rotterdam,Rotterdam,Zuid-Holland,VBO,4.472971,51.883909
Zanglijsterstraat,121,,,3084NT,Rotterdam,Rotterdam,Zuid-Holland,VBO,4.472971,51.883909
Zanglijsterstraat,123,,,3084NT,Rotterdam,Rotterdam,Zuid-Holland,VBO,4.472971,51.883909
Zanglijsterstraat,125,,,3084NT,Rotterdam,Rotterdam,Zuid-Holland,VBO,4.472971,51.883909
Zanglijsterstraat,127,,,3084NT,Rotterdam,Rotterdam,Zuid-Holland,VBO,4.472971,51.883909
Zanglijsterstraat,129,,,3084NT,Rotterdam,Rotterdam,Zuid-Holland,VBO,4.472971,51.883909
Zanglijsterstraat,131,,,3084NT,Rotterdam,Rotterdam,Zuid-Holland,VBO,4.472971,51.883909
Zanglijsterstraat,133,,,3084NT,Rotterdam,Rotterdam,Zuid-Holland,VBO,4.472971,51.883909
Zanglijsterstraat,135,,,3084NT,Rotterdam,Rotterdam,Zuid-Holland,VBO,4.472971,51.883909
Zanglijsterstraat,137,,,3084NT,Rotterdam,Rotterdam,Zuid-Holland,VBO,4.472971,51.883909
Zanglijsterstraat,139,,,3084NT,Rotterdam,Rotterdam,Zuid-Holland,VBO,4.472971,51.883909
Zanglijsterstraat,141,,,3084NT,Rotterdam,Rotterdam,Zuid-Holland,VBO,4.472971,51.883909
Zanglijsterstraat,143,,,3084NT,Rotterdam,Rotterdam,Zuid-Holland,VBO,4.472971,51.883909
Zanglijsterstraat,145,,,3084NT,Rotterdam,Rotterdam,Zuid-Holland,VBO,4.472971,51.883909
Zanglijsterstraat,147,,,3084NT,Rotterdam,Rotterdam,Zuid-Holland,VBO,4.472971,51.883909
Zanglijsterstraat,149,,,3084NT,Rotterdam,Rotterdam,Zuid-Holland,VBO,4.472971,51.883909
Zanglijsterstraat,151,,,3084NT,Rotterdam,Rotterdam,Zuid-Holland,VBO,4.472971,51.883909
Zanglijsterstraat,153,,,3084NT,Rotterdam,Rotterdam,Zuid-Holland,VBO,4.472971,51.883909
Zanglijsterstraat,155,,,3084NT,Rotterdam,Rotterdam,Zuid-Holland,VBO,4.472971,51.883909
Zanglijsterstraat,157,,,3084NT,Rotterdam,Rotterdam,Zuid-Holland,VBO,4.472971,51.883909
Zanglijsterstraat,159,,,3084NT,Rotterdam,Rotterdam,Zuid-Holland,VBO,4.472971,51.883909
Zanglijsterstraat,161,,,3084NT,Rotterdam,Rotterdam,Zuid-Holland,VBO,4.472971,51.883909
Zanglijsterstraat,163,,,3084NT,Rotterdam,Rotterdam,Zuid-Holland,VBO,4.472971,51.883909
Zanglijsterstraat,165,,,3084NT,Rotterdam,Rotterdam,Zuid-Holland,VBO,4.472971,51.883909
Zanglijsterstraat,167,,,3084NT,Rotterdam,Rotterdam,Zuid-Holland,VBO,4.472971,51.883909
Zanglijsterstraat,169,,,3084NT,Rotterdam,Rotterdam,Zuid-Holland,VBO,4.472971,51.883909
Zanglijsterstraat,171,,,3084NT,Rotterdam,Rotterdam,Zuid-Holland,VBO,4.472971,51.883909
Zanglijsterstraat,173,,,3084NT,Rotterdam,Rotterdam,Zuid-Holland,VBO,4.472971,51.883909
Zanglijsterstraat,175,,,3084NT,Rotterdam,Rotterdam,Zuid-Holland,VBO,4.472971,51.883909
Zanglijsterstraat,177,,,3084NT,Rotterdam,Rotterdam,Zuid-Holland,VBO,4.472971,51.883909
Zanglijsterstraat,179,,,3084NT,Rotterdam,Rotterdam,Zuid-Holland,VBO,4.472971,51.883909
Zanglijsterstraat,181,,,3084NT,Rotterdam,Rotterdam,Zuid-Holland,VBO,4.473033,51.883753
Aarnoudstraat,15,,,3084PA,Rotterdam,Rotterdam,Zuid-Holland,VBO,4.459884,51.883364
Aarnoudstraat,17,,,3084PA,Rotterdam,Rotterdam,Zuid-Holland,VBO,4.459851,51.883295
Aarnoudstraat,19,,,3084PA,Rotterdam,Rotterdam,Zuid-Holland,VBO,4.459801,51.883185
Aarnoudstraat,21,,,3084PA,Rotterdam,Rotterdam,Zuid-Holland,VBO,4.459775,51.883123
Aarnoudstraat,23,,,3084PA,Rotterdam,Rotterdam,Zuid-Holland,VBO,4.459747,51.883061
Aarnoudstraat,25,,,3084PA,Rotterdam,Rotterdam,Zuid-Holland,VBO,4.459718,51.882991
Aarnoudstraat,27,,,3084PA,Rotterdam,Rotterdam,Zuid-Holland,VBO,4.459627,51.882824
Aarnoudstraat,29,,,3084PA,Rotterdam,Rotterdam,Zuid-Holland,VBO,4.459604,51.882755
Aarnoudstraat,31,,,3084PA,Rotterdam,Rotterdam,Zuid-Holland,VBO,4.459585,51.882690
Aarnoudstraat,33,,,3084PA,Rotterdam,Rotterdam,Zuid-Holland,VBO,4.459564,51.882619
Aarnoudstraat,35,,,3084PA,Rotterdam,Rotterdam,Zuid-Holland,VBO,4.459531,51.882489
Aarnoudstraat,37,,,3084PA,Rotterdam,Rotterdam,Zuid-Holland,VBO,4.459513,51.882419
Aarnoudstraat,39,,,3084PA,Rotterdam,Rotterdam,Zuid-Holland,VBO,4.459497,51.882354
Aarnoudstraat,41,,,3084PA,Rotterdam,Rotterdam,Zuid-Holland,VBO,4.459480,51.882284
Aarnoudstraat,43,,,3084PA,Rotterdam,Rotterdam,Zuid-Holland,VBO,4.459451,51.882150
Aarnoudstraat,45,,,3084PA,Rotterdam,Rotterdam,Zuid-Holland,VBO,4.459440,51.882082
Aarnoudstraat,47,,,3084PA,Rotterdam,Rotterdam,Zuid-Holland,VBO,4.459431,51.882015
Aarnoudstraat,49,,,3084PA,Rotterdam,Rotterdam,Zuid-Holland,VBO,4.459421,51.881946
Aarnoudstraat,51,,,3084PA,Rotterdam,Rotterdam,Zuid-Holland,VBO,4.459406,51.881814
Aarnoudstraat,53,,,3084PA,Rotterdam,Rotterdam,Zuid-Holland,VBO,4.459401,51.881743
Aarnoudstraat,55,,,3084PA,Rotterdam,Rotterdam,Zuid-Holland,VBO,4.459396,51.881677
Aarnoudstraat,57,,,3084PA,Rotterdam,Rotterdam,Zuid-Holland,VBO,4.459389,51.881606
Aarnoudstraat,59,,,3084PA,Rotterdam,Rotterdam,Zuid-Holland,VBO,4.459038,51.880730
Aarnoudstraat,2,,,3084PB,Rotterdam,Rotterdam,Zuid-Holland,VBO,4.460367,51.883653
Aarnoudstraat,4,,,3084PB,Rotterdam,Rotterdam,Zuid-Holland,VBO,4.460329,51.883586
Aarnoudstraat,6,,,3084PB,Rotterdam,Rotterdam,Zuid-Holland,VBO,4.460296,51.883524
Aarnoudstraat,8,,,3084PB,Rotterdam,Rotterdam,Zuid-Holland,VBO,4.460258,51.883457
Aarnoudstraat,10,,,3084PB,Rotterdam,Rotterdam,Zuid-Holland,VBO,4.460178,51.883308
Aarnoudstraat,12,,,3084PB,Rotterdam,Rotterdam,Zuid-Holland,VBO,4.460144,51.883242
Aarnoudstraat,14,,,3084PB,Rotterdam,Rotterdam,Zuid-Holland,VBO,4.460098,51.883136
Aarnoudstraat,16,,,3084PB,Rotterdam,Rotterdam,Zuid-Holland,VBO,4.460072,51.883076
Aarnoudstraat,18,,,3084PB,Rotterdam,Rotterdam,Zuid-Holland,VBO,4.460045,51.883014
Aarnoudstraat,20,,,3084PB,Rotterdam,Rotterdam,Zuid-Holland,VBO,4.459921,51.882626
Aarnoudstraat,22,,,3084PB,Rotterdam,Rotterdam,Zuid-Holland,VBO,4.459903,51.882557
Aarnoudstraat,24,,,3084PB,Rotterdam,Rotterdam,Zuid-Holland,VBO,4.459885,51.882490
Aarnoudstraat,26,,,3084PB,Rotterdam,Rotterdam,Zuid-Holland,VBO,4.459865,51.882419
Aarnoudstraat,28,,,3084PB,Rotterdam,Rotterdam,Zuid-Holland,VBO,4.459805,51.882230
Aarnoudstraat,30,,,3084PB,Rotterdam,Rotterdam,Zuid-Holland,VBO,4.459793,51.882161
Aarnoudstraat,32,,,3084PB,Rotterdam,Rotterdam,Zuid-Holland,VBO,4.459779,51.882089
Aarnoudstraat,34,,,3084PB,Rotterdam,Rotterdam,Zuid-Holland,VBO,4.459768,51.881901
Aarnoudstraat,36,,,3084PB,Rotterdam,Rotterdam,Zuid-Holland,VBO,4.459761,51.881833
Aarnoudstraat,38,,,3084PB,Rotterdam,Rotterdam,Zuid-Holland,VBO,4.459752,51.881764
Aarnoudstraat,40,,,3084PB,Rotterdam,Rotterdam,Zuid-Holland,VBO,4.459745,51.881694
Aarnoudstraat,42,,,3084PB,Rotterdam,Rotterdam,Zuid-Holland,VBO,4.459721,51.881317
Aarnoudstraat,44,,,3084PB,Rotterdam,Rotterdam,Zuid-Holland,VBO,4.459721,51.881248
Aarnoudstraat,46,,,3084PB,Rotterdam,Rotterdam,Zuid-Holland,VBO,4.459722,51.881183
Aarnoudstraat,48,,,3084PB,Rotterdam,Rotterdam,Zuid-Holland,VBO,4.459723,51.881092
Aarnoudstraat,50,,,3084PB,Rotterdam,Rotterdam,Zuid-Holland,VBO,4.459728,51.881020
Aarnoudstraat,52,,,3084PB,Rotterdam,Rotterdam,Zuid-Holland,VBO,4.459745,51.880875
Aarnoudstraat,54,,,3084PB,Rotterdam,Rotterdam,Zuid-Holland,VBO,4.459756,51.880807
Aarnoudstraat,56,,,3084PB,Rotterdam,Rotterdam,Zuid-Holland,VBO,4.459777,51.880676
Aarnoudstraat,58,,,3084PB,Rotterdam,Rotterdam,Zuid-Holland,VBO,4.459788,51.880606
Brigittastraat,1,B,,3084PC,Rotterdam,Rotterdam,Zuid-Holland,VBO,4.462671,51.882770
Brigittastraat,1,,,3084PC,Rotterdam,Rotterdam,Zuid-Holland,VBO,4.461486,51.882704
Brigittastraat,2,,,3084PC,Rotterdam,Rotterdam,Zuid-Holland,VBO,4.461424,51.882463
Brigittastraat,3,,,3084PC,Rotterdam,Rotterdam,Zuid-Holland,VBO,4.461225,51.882753
Brigittastraat,5,,,3084PC,Rotterdam,Rotterdam,Zuid-Holland,VBO,4.460730,51.882802
Brigittastraat,7,,,3084PC,Rotterdam,Rotterdam,Zuid-Holland,VBO,4.460432,51.882845
Brigittastraat,9,,,3084PC,Rotterdam,Rotterdam,Zuid-Holland,VBO,4.460057,51.882908
Eelkmanstraat,1,,,3084PD,Rotterdam,Rotterdam,Zuid-Holland,VBO,4.462154,51.883351
Eelkmanstraat,3,,,3084PD,Rotterdam,Rotterdam,Zuid-Holland,VBO,4.462195,51.883292
Eelkmanstraat,5,,,3084PD,Rotterdam,Rotterdam,Zuid-Holland,VBO,4.462082,51.883099
Eelkmanstraat,7,,,3084PD,Rotterdam,Rotterdam,Zuid-Holland,VBO,4.462117,51.883050
Eelkmanstraat,9,,,3084PD,Rotterdam,Rotterdam,Zuid-Holland,VBO,4.462028,51.882828
Eelkmanstraat,11,,,3084PD,Rotterdam,Rotterdam,Zuid-Holland,VBO,4.462047,51.882771
Eelkmanstraat,13,,,3084PD,Rotterdam,Rotterdam,Zuid-Holland,VBO,4.461961,51.882414
Eelkmanstraat,15,,,3084PD,Rotterdam,Rotterdam,Zuid-Holland,VBO,4.461996,51.882366
Eelkmanstraat,17,,,3084PD,Rotterdam,Rotterdam,Zuid-Holland,VBO,4.462056,51.882284
Eelkmanstraat,19,,,3084PD,Rotterdam,Rotterdam,Zuid-Holland,VBO,4.461940,51.882101
Eelkmanstraat,21,,,3084PD,Rotterdam,Rotterdam,Zuid-Holland,VBO,4.461978,51.882051
Eelkmanstraat,23,,,3084PD,Rotterdam,Rotterdam,Zuid-Holland,VBO,4.462037,51.881966
Eelkmanstraat,25,,,3084PD,Rotterdam,Rotterdam,Zuid-Holland,VBO,4.461918,51.881784
Eelkmanstraat,27,,,3084PD,Rotterdam,Rotterdam,Zuid-Holland,VBO,4.461952,51.881736
Eelkmanstraat,29,,,3084PD,Rotterdam,Rotterdam,Zuid-Holland,VBO,4.462013,51.881652
Eelkmanstraat,43,,,3084PD,Rotterdam,Rotterdam,Zuid-Holland,VBO,4.461365,51.881051
Eelkmanstraat,2,,,3084PE,Rotterdam,Rotterdam,Zuid-Holland,VBO,4.462409,51.882422
Eelkmanstraat,4,,,3084PE,Rotterdam,Rotterdam,Zuid-Holland,VBO,4.462404,51.882352
Eelkmanstraat,6,,,3084PE,Rotterdam,Rotterdam,Zuid-Holland,VBO,4.462399,51.882283
Eelkmanstraat,8,,,3084PE,Rotterdam,Rotterdam,Zuid-Holland,VBO,4.462394,51.882213
Eelkmanstraat,10,,,3084PE,Rotterdam,Rotterdam,Zuid-Holland,VBO,4.462382,51.882051
Eelkmanstraat,12,,,3084PE,Rotterdam,Rotterdam,Zuid-Holland,VBO,4.462378,51.881983
Eelkmanstraat,14,,,3084PE,Rotterdam,Rotterdam,Zuid-Holland,VBO,4.462372,51.881915
Eelkmanstraat,16,,,3084PE,Rotterdam,Rotterdam,Zuid-Holland,VBO,4.462365,51.881810
Eelkmanstraat,18,,,3084PE,Rotterdam,Rotterdam,Zuid-Holland,VBO,4.462359,51.881743
Eelkmanstraat,20,,,3084PE,Rotterdam,Rotterdam,Zuid-Holland,VBO,4.462354,51.881676
Eelkmanstraat,22,,,3084PE,Rotterdam,Rotterdam,Zuid-Holland,VBO,4.462348,51.881609
Eelkmanstraat,24,,,3084PE,Rotterdam,Rotterdam,Zuid-Holland,VBO,4.462305,51.881248
Eelkmanstraat,26,,,3084PE,Rotterdam,Rotterdam,Zuid-Holland,VBO,4.462294,51.881183
Eelkmanstraat,28,,,3084PE,Rotterdam,Rotterdam,Zuid-Holland,VBO,4.462282,51.881117
Eelkmanstraat,30,,,3084PE,Rotterdam,Rotterdam,Zuid-Holland,VBO,4.462250,51.881005
Eelkmanstraat,32,,,3084PE,Rotterdam,Rotterdam,Zuid-Holland,VBO,4.462236,51.880945
Eelkmanstraat,34,,,3084PE,Rotterdam,Rotterdam,Zuid-Holland,VBO,4.462194,51.880791
Eelkmanstraat,36,,,3084PE,Rotterdam,Rotterdam,Zuid-Holland,VBO,4.462169,51.880720
Eelkmanstraat,38,,,3084PE,Rotterdam,Rotterdam,Zuid-Holland,VBO,4.462130,51.880626
Eelkmanstraat,40,,,3084PE,Rotterdam,Rotterdam,Zuid-Holland,VBO,4.462104,51.880565
Eilertstraat,1,,,3084PG,Rotterdam,Rotterdam,Zuid-Holland,VBO,4.460778,51.883625
Eilertstraat,3,,,3084PG,Rotterdam,Rotterdam,Zuid-Holland,VBO,4.460744,51.883558
Eilertstraat,5,,,3084PG,Rotterdam,Rotterdam,Zuid-Holland,VBO,4.460712,51.883454
Eilertstraat,7,,,3084PG,Rotterdam,Rotterdam,Zuid-Holland,VBO,4.460681,51.883389
Eilertstraat,9,,,3084PG,Rotterdam,Rotterdam,Zuid-Holland,VBO,4.460653,51.883326
Eilertstraat,11,,,3084PG,Rotterdam,Rotterdam,Zuid-Holland,VBO,4.460603,51.883261
Eilertstraat,13,,,3084PG,Rotterdam,Rotterdam,Zuid-Holland,VBO,4.460524,51.883070
Eilertstraat,15,,,3084PG,Rotterdam,Rotterdam,Zuid-Holland,VBO,4.460496,51.883000
Eilertstraat,17,,,3084PG,Rotterdam,Rotterdam,Zuid-Holland,VBO,4.460473,51.882938
Eilertstraat,19,,,3084PG,Rotterdam,Rotterdam,Zuid-Holland,VBO,4.460350,51.882571
Eilertstraat,21,,,3084PG,Rotterdam,Rotterdam,Zuid-Holland,VBO,4.460331,51.882499
Eilertstraat,23,,,3084PG,Rotterdam,Rotterdam,Zuid-Holland,VBO,4.460312,51.882434
Eilertstraat,25,,,3084PG,Rotterdam,Rotterdam,Zuid-Holland,VBO,4.460295,51.882364
Eilertstraat,27,,,3084PG,Rotterdam,Rotterdam,Zuid-Holland,VBO,4.460230,51.882126
Eilertstraat,29,,,3084PG,Rotterdam,Rotterdam,Zuid-Holland,VBO,4.460217,51.882052
Eilertstraat,31,,,3084PG,Rotterdam,Rotterdam,Zuid-Holland,VBO,4.460205,51.881988
Eilertstraat,33,,,3084PG,Rotterdam,Rotterdam,Zuid-Holland,VBO,4.460190,51.881878
Eilertstraat,35,,,3084PG,Rotterdam,Rotterdam,Zuid-Holland,VBO,4.460182,51.881817
Eilertstraat,37,,,3084PG,Rotterdam,Rotterdam,Zuid-Holland,VBO,4.460173,51.881750
Eilertstraat,39,,,3084PG,Rotterdam,Rotterdam,Zuid-Holland,VBO,4.460163,51.881678
Eilertstraat,41,,,3084PG,Rotterdam,Rotterdam,Zuid-Holland,VBO,4.460137,51.881308
Eilertstraat,43,,,3084PG,Rotterdam,Rotterdam,Zuid-Holland,VBO,4.460137,51.881239
Eilertstraat,45,,,3084PG,Rotterdam,Rotterdam,Zuid-Holland,VBO,4.460136,51.881170
Eilertstraat,47,,,3084PG,Rotterdam,Rotterdam,Zuid-Holland,VBO,4.460151,51.881082
Eilertstraat,49,,,3084PG,Rotterdam,Rotterdam,Zuid-Holland,VBO,4.460154,51.881013
Eilertstraat,51,,,3084PG,Rotterdam,Rotterdam,Zuid-Holland,VBO,4.460163,51.880892
Eilertstraat,53,,,3084PG,Rotterdam,Rotterdam,Zuid-Holland,VBO,4.460171,51.880823
Eilertstraat,55,,,3084PG,Rotterdam,Rotterdam,Zuid-Holland,VBO,4.460170,51.880730
Eilertstraat,57,,,3084PG,Rotterdam,Rotterdam,Zuid-Holland,VBO,4.460178,51.880662
Eilertstraat,59,,,3084PG,Rotterdam,Rotterdam,Zuid-Holland,VBO,4.460186,51.880590
Eilertstraat,2,,,3084PH,Rotterdam,Rotterdam,Zuid-Holland,VBO,4.461008,51.883581
Eilertstraat,4,,,3084PH,Rotterdam,Rotterdam,Zuid-Holland,VBO,4.460976,51.883521
Eilertstraat,6,,,3084PH,Rotterdam,Rotterdam,Zuid-Holland,VBO,4.460908,51.883413
Eilertstraat,8,,,3084PH,Rotterdam,Rotterdam,Zuid-Holland,VBO,4.460882,51.883355
Eilertstraat,10,,,3084PH,Rotterdam,Rotterdam,Zuid-Holland,VBO,4.460852,51.883290
Eilertstraat,12,,,3084PH,Rotterdam,Rotterdam,Zuid-Holland,VBO,4.460820,51.883221
Eilertstraat,14,,,3084PH,Rotterdam,Rotterdam,Zuid-Holland,VBO,4.460758,51.883037
Eilertstraat,16,,,3084PH,Rotterdam,Rotterdam,Zuid-Holland,VBO,4.460734,51.882968
Eilertstraat,18,,,3084PH,Rotterdam,Rotterdam,Zuid-Holland,VBO,4.460709,51.882904
Eilertstraat,20,,,3084PH,Rotterdam,Rotterdam,Zuid-Holland,VBO,4.460615,51.882536
Eilertstraat,22,,,3084PH,Rotterdam,Rotterdam,Zuid-Holland,VBO,4.460599,51.882469
Eilertstraat,24,,,3084PH,Rotterdam,Rotterdam,Zuid-Holland,VBO,4.460582,51.882402
Eilertstraat,26,,,3084PH,Rotterdam,Rotterdam,Zuid-Holland,VBO,4.460564,51.882332
Eilertstraat,28,,,3084PH,Rotterdam,Rotterdam,Zuid-Holland,VBO,4.460485,51.882108
Eilertstraat,30,,,3084PH,Rotterdam,Rotterdam,Zuid-Holland,VBO,4.460472,51.882041
Eilertstraat,32,,,3084PH,Rotterdam,Rotterdam,Zuid-Holland,VBO,4.460459,51.881971
Eilertstraat,34,,,3084PH,Rotterdam,Rotterdam,Zuid-Holland,VBO,4.460445,51.881870
Eilertstraat,36,,,3084PH,Rotterdam,Rotterdam,Zuid-Holland,VBO,4.460435,51.881809
Eilertstraat,38,,,3084PH,Rotterdam,Rotterdam,Zuid-Holland,VBO,4.460426,51.881746
Eilertstraat,40,,,3084PH,Rotterdam,Rotterdam,Zuid-Holland,VBO,4.460417,51.881674
Eilertstraat,42,,,3084PH,Rotterdam,Rotterdam,Zuid-Holland,VBO,4.460397,51.881296
Eilertstraat,44,,,3084PH,Rotterdam,Rotterdam,Zuid-Holland,VBO,4.460398,51.881232
Eilertstraat,46,,,3084PH,Rotterdam,Rotterdam,Zuid-Holland,VBO,4.460397,51.881163
Eilertstraat,48,,,3084PH,Rotterdam,Rotterdam,Zuid-Holland,VBO,4.460399,51.881071
Eilertstraat,50,,,3084PH,Rotterdam,Rotterdam,Zuid-Holland,VBO,4.460400,51.881006
Eilertstraat,52,,,3084PH,Rotterdam,Rotterdam,Zuid-Holland,VBO,4.460410,51.880867
Eilertstraat,54,,,3084PH,Rotterdam,Rotterdam,Zuid-Holland,VBO,4.460418,51.880797
Eilertstraat,56,,,3084PH,Rotterdam,Rotterdam,Zuid-Holland,VBO,4.460429,51.880710
Eilertstraat,58,,,3084PH,Rotterdam,Rotterdam,Zuid-Holland,VBO,4.460439,51.880646
Eilertstraat,60,,,3084PH,Rotterdam,Rotterdam,Zuid-Holland,VBO,4.460447,51.880572
Marjoleinstraat,2,,,3084PJ,Rotterdam,Rotterdam,Zuid-Holland,VBO,4.463424,51.881308
Marjoleinstraat,4,,,3084PJ,Rotterdam,Rotterdam,Zuid-Holland,VBO,4.463022,51.881320
Marjoleinstraat,6,,,3084PJ,Rotterdam,Rotterdam,Zuid-Holland,VBO,4.462751,51.881330
Marjoleinstraat,8,,,3084PJ,Rotterdam,Rotterdam,Zuid-Holland,VBO,4.462374,51.881343
Marjoleinstraat,10,,,3084PJ,Rotterdam,Rotterdam,Zuid-Holland,VBO,4.461831,51.881380
Marjoleinstraat,12,,,3084PJ,Rotterdam,Rotterdam,Zuid-Holland,VBO,4.461656,51.881386
Marjoleinstraat,14,,,3084PJ,Rotterdam,Rotterdam,Zuid-Holland,VBO,4.461383,51.881350
Marjoleinstraat,16,,,3084PJ,Rotterdam,Rotterdam,Zuid-Holland,VBO,4.460993,51.881367
Marjoleinstraat,18,,,3084PJ,Rotterdam,Rotterdam,Zuid-Holland,VBO,4.460447,51.881384
Marjoleinstraat,20,,,3084PJ,Rotterdam,Rotterdam,Zuid-Holland,VBO,4.460131,51.881391
Marjoleinstraat,22,,,3084PJ,Rotterdam,Rotterdam,Zuid-Holland,VBO,4.459766,51.881404
Rollostraat,1,,,3084PK,Rotterdam,Rotterdam,Zuid-Holland,VBO,4.461505,51.883491
Rollostraat,3,,,3084PK,Rotterdam,Rotterdam,Zuid-Holland,VBO,4.461480,51.883423
Rollostraat,5,,,3084PK,Rotterdam,Rotterdam,Zuid-Holland,VBO,4.461454,51.883359
Rollostraat,7,,,3084PK,Rotterdam,Rotterdam,Zuid-Holland,VBO,4.461426,51.883287
Rollostraat,9,,,3084PK,Rotterdam,Rotterdam,Zuid-Holland,VBO,4.461385,51.883169
Rollostraat,11,,,3084PK,Rotterdam,Rotterdam,Zuid-Holland,VBO,4.461339,51.883101
Rollostraat,13,,,3084PK,Rotterdam,Rotterdam,Zuid-Holland,VBO,4.461300,51.882985
Rollostraat,15,,,3084PK,Rotterdam,Rotterdam,Zuid-Holland,VBO,4.461276,51.882915
Rollostraat,17,,,3084PK,Rotterdam,Rotterdam,Zuid-Holland,VBO,4.461256,51.882850
Rollostraat,19,,,3084PK,Rotterdam,Rotterdam,Zuid-Holland,VBO,4.461152,51.882467
Rollostraat,21,,,3084PK,Rotterdam,Rotterdam,Zuid-Holland,VBO,4.461136,51.882395
Rollostraat,23,,,3084PK,Rotterdam,Rotterdam,Zuid-Holland,VBO,4.461123,51.882330
Rollostraat,25,,,3084PK,Rotterdam,Rotterdam,Zuid-Holland,VBO,4.461111,51.882266
Rollostraat,27,,,3084PK,Rotterdam,Rotterdam,Zuid-Holland,VBO,4.461089,51.882159
Rollostraat,29,,,3084PK,Rotterdam,Rotterdam,Zuid-Holland,VBO,4.461077,51.882095
Rollostraat,31,,,3084PK,Rotterdam,Rotterdam,Zuid-Holland,VBO,4.461065,51.882022
Rollostraat,33,,,3084PK,Rotterdam,Rotterdam,Zuid-Holland,VBO,4.461042,51.881863
Rollostraat,35,,,3084PK,Rotterdam,Rotterdam,Zuid-Holland,VBO,4.461034,51.881790
Rollostraat,37,,,3084PK,Rotterdam,Rotterdam,Zuid-Holland,VBO,4.461025,51.881724
Rollostraat,39,,,3084PK,Rotterdam,Rotterdam,Zuid-Holland,VBO,4.461017,51.881652
Rollostraat,41,,,3084PL,Rotterdam,Rotterdam,Zuid-Holland,VBO,4.460988,51.881283
Rollostraat,43,,,3084PL,Rotterdam,Rotterdam,Zuid-Holland,VBO,4.460981,51.881215
Rollostraat,45,,,3084PL,Rotterdam,Rotterdam,Zuid-Holland,VBO,4.460976,51.881150
Rollostraat,47,,,3084PL,Rotterdam,Rotterdam,Zuid-Holland,VBO,4.460951,51.881055
Rollostraat,49,,,3084PL,Rotterdam,Rotterdam,Zuid-Holland,VBO,4.460946,51.880997
Rollostraat,51,,,3084PL,Rotterdam,Rotterdam,Zuid-Holland,VBO,4.460939,51.880851
Rollostraat,53,,,3084PL,Rotterdam,Rotterdam,Zuid-Holland,VBO,4.460934,51.880781
Rollostraat,55,,,3084PL,Rotterdam,Rotterdam,Zuid-Holland,VBO,4.460936,51.880684
Rollostraat,57,,,3084PL,Rotterdam,Rotterdam,Zuid-Holland,VBO,4.460931,51.880620
Rollostraat,59,,,3084PL,Rotterdam,Rotterdam,Zuid-Holland,VBO,4.460926,51.880549
Rollostraat,61,,,3084PM,Rotterdam,Rotterdam,Zuid-Holland,VBO,4.460856,51.880313
Rollostraat,63,,,3084PM,Rotterdam,Rotterdam,Zuid-Holland,VBO,4.460843,51.880243
Rollostraat,65,,,3084PM,Rotterdam,Rotterdam,Zuid-Holland,VBO,4.460833,51.880170
Rollostraat,67,,,3084PM,Rotterdam,Rotterdam,Zuid-Holland,VBO,4.460774,51.880043
Rollostraat,69,,,3084PM,Rotterdam,Rotterdam,Zuid-Holland,VBO,4.460760,51.879951
Rollostraat,71,,,3084PM,Rotterdam,Rotterdam,Zuid-Holland,VBO,4.460723,51.879793
Rollostraat,73,,,3084PM,Rotterdam,Rotterdam,Zuid-Holland,VBO,4.460712,51.879721
Rollostraat,75,,,3084PM,Rotterdam,Rotterdam,Zuid-Holland,VBO,4.460344,51.879509
Rollostraat,81,,,3084PM,Rotterdam,Rotterdam,Zuid-Holland,VBO,4.459999,51.879035
Rollostraat,83,,,3084PM,Rotterdam,Rotterdam,Zuid-Holland,VBO,4.460004,51.878962
Rollostraat,85,,,3084PM,Rotterdam,Rotterdam,Zuid-Holland,VBO,4.459292,51.879125
Rollostraat,87,,,3084PM,Rotterdam,Rotterdam,Zuid-Holland,VBO,4.459465,51.878817
Rollostraat,89,,,3084PM,Rotterdam,Rotterdam,Zuid-Holland,VBO,4.459482,51.878735
Rollostraat,91,,,3084PM,Rotterdam,Rotterdam,Zuid-Holland,VBO,4.459490,51.878577
Rollostraat,93,,,3084PM,Rotterdam,Rotterdam,Zuid-Holland,VBO,4.459514,51.878498
Rollostraat,95,A,,3084PM,Rotterdam,Rotterdam,Zuid-Holland,VBO,4.458662,51.878167
Rollostraat,95,,,3084PM,Rotterdam,Rotterdam,Zuid-Holland,VBO,4.459152,51.878234
Rollostraat,97,,,3084PM,Rotterdam,Rotterdam,Zuid-Holland,VBO,4.459181,51.878139
Rollostraat,99,,,3084PM,Rotterdam,Rotterdam,Zuid-Holland,VBO,4.459210,51.878050
Rollostraat,109,,,3084PM,Rotterdam,Rotterdam,Zuid-Holland,VBO,4.458197,51.877767
Rollostraat,111,,,3084PM,Rotterdam,Rotterdam,Zuid-Holland,VBO,4.458226,51.877673
Rollostraat,113,,,3084PM,Rotterdam,Rotterdam,Zuid-Holland,VBO,4.458256,51.877582
Rollostraat,115,,,3084PM,Rotterdam,Rotterdam,Zuid-Holland,VBO,4.458275,51.877445
Rollostraat,117,,,3084PM,Rotterdam,Rotterdam,Zuid-Holland,VBO,4.458297,51.877378
Rollostraat,2,,,3084PN,Rotterdam,Rotterdam,Zuid-Holland,VBO,4.461663,51.883375
Rollostraat,4,,,3084PN,Rotterdam,Rotterdam,Zuid-Holland,VBO,4.461638,51.883314
Rollostraat,6,,,3084PN,Rotterdam,Rotterdam,Zuid-Holland,VBO,4.461610,51.883245
Rollostraat,8,,,3084PN,Rotterdam,Rotterdam,Zuid-Holland,VBO,4.461567,51.883130
Rollostraat,10,,,3084PN,Rotterdam,Rotterdam,Zuid-Holland,VBO,4.461541,51.883058
Rollostraat,12,,,3084PN,Rotterdam,Rotterdam,Zuid-Holland,VBO,4.461505,51.882943
Rollostraat,14,,,3084PN,Rotterdam,Rotterdam,Zuid-Holland,VBO,4.461482,51.882874
Rollostraat,16,,,3084PN,Rotterdam,Rotterdam,Zuid-Holland,VBO,4.461462,51.882809
Rollostraat,18,,,3084PN,Rotterdam,Rotterdam,Zuid-Holland,VBO,4.461349,51.882372
Rollostraat,20,,,3084PN,Rotterdam,Rotterdam,Zuid-Holland,VBO,4.461335,51.882308
Rollostraat,22,,,3084PN,Rotterdam,Rotterdam,Zuid-Holland,VBO,4.461320,51.882242
Rollostraat,24,,,3084PN,Rotterdam,Rotterdam,Zuid-Holland,VBO,4.461301,51.882133
Rollostraat,26,,,3084PN,Rotterdam,Rotterdam,Zuid-Holland,VBO,4.461290,51.882068
Rollostraat,28,,,3084PN,Rotterdam,Rotterdam,Zuid-Holland,VBO,4.461279,51.882004
Rollostraat,30,,,3084PN,Rotterdam,Rotterdam,Zuid-Holland,VBO,4.461261,51.881891
Rollostraat,32,,,3084PN,Rotterdam,Rotterdam,Zuid-Holland,VBO,4.461253,51.881828
Rollostraat,34,,,3084PN,Rotterdam,Rotterdam,Zuid-Holland,VBO,4.461245,51.881762
Rollostraat,36,,,3084PN,Rotterdam,Rotterdam,Zuid-Holland,VBO,4.461237,51.881694
Rollostraat,38,,,3084PP,Rotterdam,Rotterdam,Zuid-Holland,VBO,4.461324,51.881320
Rollostraat,40,,,3084PP,Rotterdam,Rotterdam,Zuid-Holland,VBO,4.461318,51.881253
Rollostraat,42,,,3084PP,Rotterdam,Rotterdam,Zuid-Holland,VBO,4.461313,51.881187
Rollostraat,44,,,3084PP,Rotterdam,Rotterdam,Zuid-Holland,VBO,4.461307,51.881119
Rollostraat,46,,,3084PP,Rotterdam,Rotterdam,Zuid-Holland,VBO,4.461301,51.881053
Rollostraat,60,,,3084PP,Rotterdam,Rotterdam,Zuid-Holland,VBO,4.460811,51.879220
Rollostraat,62,,,3084PP,Rotterdam,Rotterdam,Zuid-Holland,VBO,4.460750,51.879162
Rollostraat,64,,,3084PP,Rotterdam,Rotterdam,Zuid-Holland,VBO,4.460686,51.879101
Rollostraat,66,,,3084PP,Rotterdam,Rotterdam,Zuid-Holland,VBO,4.460525,51.878909
Rollostraat,68,,,3084PP,Rotterdam,Rotterdam,Zuid-Holland,VBO,4.460461,51.878850
Rollostraat,70,,,3084PP,Rotterdam,Rotterdam,Zuid-Holland,VBO,4.460395,51.878788
Rollostraat,72,,,3084PP,Rotterdam,Rotterdam,Zuid-Holland,VBO,4.460116,51.878520
Rollostraat,74,,,3084PP,Rotterdam,Rotterdam,Zuid-Holland,VBO,4.460057,51.878466
Rollostraat,76,,,3084PP,Rotterdam,Rotterdam,Zuid-Holland,VBO,4.460000,51.878412
Rollostraat,78,,,3084PP,Rotterdam,Rotterdam,Zuid-Holland,VBO,4.459642,51.878077
Rollostraat,80,,,3084PP,Rotterdam,Rotterdam,Zuid-Holland,VBO,4.459584,51.878023
Rollostraat,82,,,3084PP,Rotterdam,Rotterdam,Zuid-Holland,VBO,4.459528,51.877969
Rollostraat,84,,,3084PR,Rotterdam,Rotterdam,Zuid-Holland,VBO,4.459331,51.877788
Rollostraat,86,,,3084PR,Rotterdam,Rotterdam,Zuid-Holland,VBO,4.459274,51.877734
Rollostraat,88,,,3084PR,Rotterdam,Rotterdam,Zuid-Holland,VBO,4.459192,51.877658
Rollostraat,90,,,3084PR,Rotterdam,Rotterdam,Zuid-Holland,VBO,4.459138,51.877609
Rollostraat,92,,,3084PR,Rotterdam,Rotterdam,Zuid-Holland,VBO,4.458990,51.877485
Rollostraat,94,,,3084PR,Rotterdam,Rotterdam,Zuid-Holland,VBO,4.458925,51.877427
Rollostraat,96,,,3084PR,Rotterdam,Rotterdam,Zuid-Holland,VBO,4.458781,51.877306
Rollostraat,98,,,3084PR,Rotterdam,Rotterdam,Zuid-Holland,VBO,4.458722,51.877251
Rollostraat,100,,,3084PR,Rotterdam,Rotterdam,Zuid-Holland,VBO,4.458641,51.877177
Rollostraat,102,,,3084PR,Rotterdam,Rotterdam,Zuid-Holland,VBO,4.458577,51.877117
Tacostraat,2,,,3084PS,Rotterdam,Rotterdam,Zuid-Holland,VBO,4.461871,51.880258
Tacostraat,4,,,3084PS,Rotterdam,Rotterdam,Zuid-Holland,VBO,4.461852,51.880185
Tacostraat,6,,,3084PS,Rotterdam,Rotterdam,Zuid-Holland,VBO,4.461834,51.880115
Tacostraat,8,,,3084PS,Rotterdam,Rotterdam,Zuid-Holland,VBO,4.461500,51.879994
Tacostraat,10,,,3084PS,Rotterdam,Rotterdam,Zuid-Holland,VBO,4.461490,51.879897
Wigboldstraat,2,,,3084PT,Rotterdam,Rotterdam,Zuid-Holland,VBO,4.461747,51.883470
Godschalkstraat,1,,,3084RA,Rotterdam,Rotterdam,Zuid-Holland,VBO,4.462865,51.882408
Godschalkstraat,3,,,3084RA,Rotterdam,Rotterdam,Zuid-Holland,VBO,4.462861,51.882338
Godschalkstraat,5,,,3084RA,Rotterdam,Rotterdam,Zuid-Holland,VBO,4.462856,51.882264
Godschalkstraat,7,,,3084RA,Rotterdam,Rotterdam,Zuid-Holland,VBO,4.462850,51.882206
Godschalkstraat,9,,,3084RA,Rotterdam,Rotterdam,Zuid-Holland,VBO,4.462826,51.882098
Godschalkstraat,11,,,3084RA,Rotterdam,Rotterdam,Zuid-Holland,VBO,4.462801,51.882037
Godschalkstraat,13,,,3084RA,Rotterdam,Rotterdam,Zuid-Holland,VBO,4.462796,51.881968
Godschalkstraat,15,,,3084RA,Rotterdam,Rotterdam,Zuid-Holland,VBO,4.462797,51.881806
Godschalkstraat,17,,,3084RA,Rotterdam,Rotterdam,Zuid-Holland,VBO,4.462793,51.881730
Godschalkstraat,19,,,3084RA,Rotterdam,Rotterdam,Zuid-Holland,VBO,4.462789,51.881665
Godschalkstraat,21,,,3084RA,Rotterdam,Rotterdam,Zuid-Holland,VBO,4.462784,51.881594
Godschalkstraat,23,,,3084RA,Rotterdam,Rotterdam,Zuid-Holland,VBO,4.462738,51.881234
Godschalkstraat,25,,,3084RA,Rotterdam,Rotterdam,Zuid-Holland,VBO,4.462716,51.881120
Godschalkstraat,27,,,3084RA,Rotterdam,Rotterdam,Zuid-Holland,VBO,4.462697,51.881047
Godschalkstraat,29,,,3084RA,Rotterdam,Rotterdam,Zuid-Holland,VBO,4.462677,51.880977
Godschalkstraat,31,,,3084RA,Rotterdam,Rotterdam,Zuid-Holland,VBO,4.462658,51.880915
Godschalkstraat,33,,,3084RA,Rotterdam,Rotterdam,Zuid-Holland,VBO,4.462615,51.880768
Godschalkstraat,35,,,3084RA,Rotterdam,Rotterdam,Zuid-Holland,VBO,4.462591,51.880704
Godschalkstraat,37,,,3084RA,Rotterdam,Rotterdam,Zuid-Holland,VBO,4.462564,51.880633
Godschalkstraat,39,,,3084RA,Rotterdam,Rotterdam,Zuid-Holland,VBO,4.462523,51.880535
Godschalkstraat,41,,,3084RB,Rotterdam,Rotterdam,Zuid-Holland,VBO,4.462344,51.880215
Godschalkstraat,43,,,3084RB,Rotterdam,Rotterdam,Zuid-Holland,VBO,4.462296,51.880152
Godschalkstraat,45,,,3084RB,Rotterdam,Rotterdam,Zuid-Holland,VBO,4.462249,51.880091
Godschalkstraat,47,,,3084RB,Rotterdam,Rotterdam,Zuid-Holland,VBO,4.462204,51.880033
Godschalkstraat,49,,,3084RB,Rotterdam,Rotterdam,Zuid-Holland,VBO,4.462124,51.879953
Godschalkstraat,51,,,3084RB,Rotterdam,Rotterdam,Zuid-Holland,VBO,4.462065,51.879900
Godschalkstraat,53,,,3084RB,Rotterdam,Rotterdam,Zuid-Holland,VBO,4.462000,51.879841
Godschalkstraat,55,,,3084RB,Rotterdam,Rotterdam,Zuid-Holland,VBO,4.461823,51.879669
Godschalkstraat,57,,,3084RB,Rotterdam,Rotterdam,Zuid-Holland,VBO,4.461761,51.879612
Godschalkstraat,59,,,3084RB,Rotterdam,Rotterdam,Zuid-Holland,VBO,4.461662,51.879520
Godschalkstraat,61,,,3084RB,Rotterdam,Rotterdam,Zuid-Holland,VBO,4.461600,51.879463
Godschalkstraat,65,,,3084RB,Rotterdam,Rotterdam,Zuid-Holland,VBO,4.461183,51.879070
Godschalkstraat,67,,,3084RB,Rotterdam,Rotterdam,Zuid-Holland,VBO,4.461119,51.879010
Godschalkstraat,69,,,3084RB,Rotterdam,Rotterdam,Zuid-Holland,VBO,4.461057,51.878954
Godschalkstraat,71,,,3084RB,Rotterdam,Rotterdam,Zuid-Holland,VBO,4.461000,51.878900
Godschalkstraat,73,,,3084RB,Rotterdam,Rotterdam,Zuid-Holland,VBO,4.460917,51.878823
Godschalkstraat,75,,,3084RB,Rotterdam,Rotterdam,Zuid-Holland,VBO,4.460859,51.878768
Godschalkstraat,77,,,3084RB,Rotterdam,Rotterdam,Zuid-Holland,VBO,4.460797,51.878710
Godschalkstraat,79,,,3084RB,Rotterdam,Rotterdam,Zuid-Holland,VBO,4.460732,51.878651
Godschalkstraat,81,,,3084RC,Rotterdam,Rotterdam,Zuid-Holland,VBO,4.460516,51.878446
Godschalkstraat,83,,,3084RC,Rotterdam,Rotterdam,Zuid-Holland,VBO,4.460452,51.878389
Godschalkstraat,85,,,3084RC,Rotterdam,Rotterdam,Zuid-Holland,VBO,4.460390,51.878330
Godschalkstraat,87,,,3084RC,Rotterdam,Rotterdam,Zuid-Holland,VBO,4.460327,51.878272
Godschalkstraat,89,,,3084RC,Rotterdam,Rotterdam,Zuid-Holland,VBO,4.460196,51.878151
Godschalkstraat,91,,,3084RC,Rotterdam,Rotterdam,Zuid-Holland,VBO,4.460130,51.878089
Godschalkstraat,93,,,3084RC,Rotterdam,Rotterdam,Zuid-Holland,VBO,4.460073,51.878036
Godschalkstraat,95,,,3084RC,Rotterdam,Rotterdam,Zuid-Holland,VBO,4.459982,51.877951
Godschalkstraat,97,,,3084RC,Rotterdam,Rotterdam,Zuid-Holland,VBO,4.459926,51.877899
Godschalkstraat,99,,,3084RC,Rotterdam,Rotterdam,Zuid-Holland,VBO,4.459862,51.877838
Godschalkstraat,103,,,3084RC,Rotterdam,Rotterdam,Zuid-Holland,VBO,4.459365,51.877393
Godschalkstraat,105,,,3084RC,Rotterdam,Rotterdam,Zuid-Holland,VBO,4.459281,51.877313
Godschalkstraat,107,,,3084RC,Rotterdam,Rotterdam,Zuid-Holland,VBO,4.459223,51.877259
Godschalkstraat,109,,,3084RC,Rotterdam,Rotterdam,Zuid-Holland,VBO,4.459128,51.877173
Godschalkstraat,111,,,3084RC,Rotterdam,Rotterdam,Zuid-Holland,VBO,4.459073,51.877121
Godschalkstraat,113,,,3084RC,Rotterdam,Rotterdam,Zuid-Holland,VBO,4.458981,51.877035
Godschalkstraat,115,,,3084RC,Rotterdam,Rotterdam,Zuid-Holland,VBO,4.458919,51.876977
Godschalkstraat,2,,,3084RD,Rotterdam,Rotterdam,Zuid-Holland,VBO,4.463057,51.882399
Godschalkstraat,4,,,3084RD,Rotterdam,Rotterdam,Zuid-Holland,VBO,4.463052,51.882331
Godschalkstraat,6,,,3084RD,Rotterdam,Rotterdam,Zuid-Holland,VBO,4.463047,51.882264
Godschalkstraat,8,,,3084RD,Rotterdam,Rotterdam,Zuid-Holland,VBO,4.463042,51.882200
Godschalkstraat,10,,,3084RD,Rotterdam,Rotterdam,Zuid-Holland,VBO,4.463045,51.882088
Godschalkstraat,12,,,3084RD,Rotterdam,Rotterdam,Zuid-Holland,VBO,4.463041,51.882028
Godschalkstraat,14,,,3084RD,Rotterdam,Rotterdam,Zuid-Holland,VBO,4.463038,51.881956
Godschalkstraat,16,,,3084RD,Rotterdam,Rotterdam,Zuid-Holland,VBO,4.463007,51.881798
Godschalkstraat,18,,,3084RD,Rotterdam,Rotterdam,Zuid-Holland,VBO,4.463001,51.881726
Godschalkstraat,20,,,3084RD,Rotterdam,Rotterdam,Zuid-Holland,VBO,4.462996,51.881654
Godschalkstraat,22,,,3084RD,Rotterdam,Rotterdam,Zuid-Holland,VBO,4.462991,51.881589
Godschalkstraat,24,,,3084RD,Rotterdam,Rotterdam,Zuid-Holland,VBO,4.462952,51.881229
Godschalkstraat,26,,,3084RD,Rotterdam,Rotterdam,Zuid-Holland,VBO,4.462940,51.881162
Godschalkstraat,28,,,3084RD,Rotterdam,Rotterdam,Zuid-Holland,VBO,4.462928,51.881098
Godschalkstraat,30,,,3084RD,Rotterdam,Rotterdam,Zuid-Holland,VBO,4.462902,51.880997
Godschalkstraat,32,,,3084RD,Rotterdam,Rotterdam,Zuid-Holland,VBO,4.462882,51.880917
Godschalkstraat,34,,,3084RD,Rotterdam,Rotterdam,Zuid-Holland,VBO,4.462832,51.880757
Godschalkstraat,36,,,3084RD,Rotterdam,Rotterdam,Zuid-Holland,VBO,4.462809,51.880688
Godschalkstraat,38,,,3084RD,Rotterdam,Rotterdam,Zuid-Holland,VBO,4.462771,51.880594
Godschalkstraat,40,,,3084RD,Rotterdam,Rotterdam,Zuid-Holland,VBO,4.462745,51.880529
Godschalkstraat,42,,,3084RE,Rotterdam,Rotterdam,Zuid-Holland,VBO,4.462590,51.880217
Godschalkstraat,44,,,3084RE,Rotterdam,Rotterdam,Zuid-Holland,VBO,4.462545,51.880151
Godschalkstraat,46,,,3084RE,Rotterdam,Rotterdam,Zuid-Holland,VBO,4.462503,51.880092
Godschalkstraat,48,,,3084RE,Rotterdam,Rotterdam,Zuid-Holland,VBO,4.462433,51.880013
Godschalkstraat,50,,,3084RE,Rotterdam,Rotterdam,Zuid-Holland,VBO,4.462379,51.879958
Godschalkstraat,52,,,3084RE,Rotterdam,Rotterdam,Zuid-Holland,VBO,4.462322,51.879900
Godschalkstraat,54,,,3084RE,Rotterdam,Rotterdam,Zuid-Holland,VBO,4.462266,51.879841
Godschalkstraat,56,,,3084RE,Rotterdam,Rotterdam,Zuid-Holland,VBO,4.462073,51.879663
Godschalkstraat,58,,,3084RE,Rotterdam,Rotterdam,Zuid-Holland,VBO,4.462011,51.879604
Godschalkstraat,60,,,3084RE,Rotterdam,Rotterdam,Zuid-Holland,VBO,4.461909,51.879510
Godschalkstraat,62,,,3084RE,Rotterdam,Rotterdam,Zuid-Holland,VBO,4.461847,51.879452
Godschalkstraat,66,,,3084RE,Rotterdam,Rotterdam,Zuid-Holland,VBO,4.461489,51.879118
Godschalkstraat,68,,,3084RE,Rotterdam,Rotterdam,Zuid-Holland,VBO,4.461428,51.879061
Godschalkstraat,70,,,3084RE,Rotterdam,Rotterdam,Zuid-Holland,VBO,4.461366,51.879004
Godschalkstraat,72,,,3084RE,Rotterdam,Rotterdam,Zuid-Holland,VBO,4.461309,51.878950
Godschalkstraat,74,,,3084RE,Rotterdam,Rotterdam,Zuid-Holland,VBO,4.461208,51.878856
Godschalkstraat,76,,,3084RE,Rotterdam,Rotterdam,Zuid-Holland,VBO,4.461143,51.878795
Godschalkstraat,78,,,3084RE,Rotterdam,Rotterdam,Zuid-Holland,VBO,4.461043,51.878701
Godschalkstraat,80,,,3084RE,Rotterdam,Rotterdam,Zuid-Holland,VBO,4.460981,51.878644
Godschalkstraat,82,,,3084RG,Rotterdam,Rotterdam,Zuid-Holland,VBO,4.460744,51.878422
Godschalkstraat,84,,,3084RG,Rotterdam,Rotterdam,Zuid-Holland,VBO,4.460682,51.878365
Godschalkstraat,86,,,3084RG,Rotterdam,Rotterdam,Zuid-Holland,VBO,4.460622,51.878309
Godschalkstraat,88,,,3084RG,Rotterdam,Rotterdam,Zuid-Holland,VBO,4.460558,51.878250
Godschalkstraat,90,,,3084RG,Rotterdam,Rotterdam,Zuid-Holland,VBO,4.460429,51.878129
Godschalkstraat,92,,,3084RG,Rotterdam,Rotterdam,Zuid-Holland,VBO,4.460359,51.878066
Godschalkstraat,94,,,3084RG,Rotterdam,Rotterdam,Zuid-Holland,VBO,4.460306,51.878015
Godschalkstraat,96,,,3084RG,Rotterdam,Rotterdam,Zuid-Holland,VBO,4.460196,51.877913
Godschalkstraat,98,,,3084RG,Rotterdam,Rotterdam,Zuid-Holland,VBO,4.460142,51.877862
Godschalkstraat,100,,,3084RG,Rotterdam,Rotterdam,Zuid-Holland,VBO,4.460078,51.877801
Godschalkstraat,102,,,3084RG,Rotterdam,Rotterdam,Zuid-Holland,VBO,4.459819,51.877560
Godschalkstraat,104,,,3084RG,Rotterdam,Rotterdam,Zuid-Holland,VBO,4.459759,51.877504
Godschalkstraat,106,,,3084RG,Rotterdam,Rotterdam,Zuid-Holland,VBO,4.459697,51.877447
Godschalkstraat,108,,,3084RG,Rotterdam,Rotterdam,Zuid-Holland,VBO,4.459642,51.877397
Godschalkstraat,110,,,3084RG,Rotterdam,Rotterdam,Zuid-Holland,VBO,4.459560,51.877318
Godschalkstraat,112,,,3084RG,Rotterdam,Rotterdam,Zuid-Holland,VBO,4.459500,51.877262
Melchertstraat,1,,,3084RH,Rotterdam,Rotterdam,Zuid-Holland,VBO,4.463537,51.882383
Melchertstraat,3,,,3084RH,Rotterdam,Rotterdam,Zuid-Holland,VBO,4.463531,51.882313
Melchertstraat,5,,,3084RH,Rotterdam,Rotterdam,Zuid-Holland,VBO,4.463526,51.882247
Melchertstraat,7,,,3084RH,Rotterdam,Rotterdam,Zuid-Holland,VBO,4.463520,51.882177
Melchertstraat,9,,,3084RH,Rotterdam,Rotterdam,Zuid-Holland,VBO,4.463493,51.882012
Melchertstraat,11,,,3084RH,Rotterdam,Rotterdam,Zuid-Holland,VBO,4.463467,51.881947
Melchertstraat,13,,,3084RH,Rotterdam,Rotterdam,Zuid-Holland,VBO,4.463461,51.881879
Melchertstraat,15,,,3084RH,Rotterdam,Rotterdam,Zuid-Holland,VBO,4.463471,51.881774
Melchertstraat,17,,,3084RH,Rotterdam,Rotterdam,Zuid-Holland,VBO,4.463466,51.881708
Melchertstraat,19,,,3084RH,Rotterdam,Rotterdam,Zuid-Holland,VBO,4.463460,51.881643
Melchertstraat,21,,,3084RH,Rotterdam,Rotterdam,Zuid-Holland,VBO,4.463456,51.881570
Melchertstraat,23,,,3084RH,Rotterdam,Rotterdam,Zuid-Holland,VBO,4.463412,51.881214
Melchertstraat,25,,,3084RH,Rotterdam,Rotterdam,Zuid-Holland,VBO,4.463402,51.881095
Melchertstraat,27,,,3084RH,Rotterdam,Rotterdam,Zuid-Holland,VBO,4.463384,51.881025
Melchertstraat,29,,,3084RH,Rotterdam,Rotterdam,Zuid-Holland,VBO,4.463367,51.880962
Melchertstraat,31,,,3084RH,Rotterdam,Rotterdam,Zuid-Holland,VBO,4.463349,51.880899
Melchertstraat,33,,,3084RH,Rotterdam,Rotterdam,Zuid-Holland,VBO,4.463300,51.880735
Melchertstraat,35,,,3084RH,Rotterdam,Rotterdam,Zuid-Holland,VBO,4.463273,51.880666
Melchertstraat,37,,,3084RH,Rotterdam,Rotterdam,Zuid-Holland,VBO,4.463246,51.880598
Melchertstraat,39,,,3084RH,Rotterdam,Rotterdam,Zuid-Holland,VBO,4.463206,51.880499
Melchertstraat,41,,,3084RJ,Rotterdam,Rotterdam,Zuid-Holland,VBO,4.463042,51.880183
Melchertstraat,43,,,3084RJ,Rotterdam,Rotterdam,Zuid-Holland,VBO,4.462994,51.880114
Melchertstraat,45,,,3084RJ,Rotterdam,Rotterdam,Zuid-Holland,VBO,4.462948,51.880051
Melchertstraat,47,,,3084RJ,Rotterdam,Rotterdam,Zuid-Holland,VBO,4.462907,51.879992
Melchertstraat,49,,,3084RJ,Rotterdam,Rotterdam,Zuid-Holland,VBO,4.462836,51.879902
Melchertstraat,51,,,3084RJ,Rotterdam,Rotterdam,Zuid-Holland,VBO,4.462786,51.879846
Melchertstraat,53,,,3084RJ,Rotterdam,Rotterdam,Zuid-Holland,VBO,4.462728,51.879783
Melchertstraat,55,,,3084RJ,Rotterdam,Rotterdam,Zuid-Holland,VBO,4.462604,51.879662
Melchertstraat,57,,,3084RJ,Rotterdam,Rotterdam,Zuid-Holland,VBO,4.462538,51.879600
Melchertstraat,59,,,3084RJ,Rotterdam,Rotterdam,Zuid-Holland,VBO,4.462479,51.879546
Melchertstraat,61,,,3084RJ,Rotterdam,Rotterdam,Zuid-Holland,VBO,4.462415,51.879487
Melchertstraat,65,,,3084RJ,Rotterdam,Rotterdam,Zuid-Holland,VBO,4.462013,51.879113
Melchertstraat,67,,,3084RJ,Rotterdam,Rotterdam,Zuid-Holland,VBO,4.461950,51.879054
Melchertstraat,69,,,3084RJ,Rotterdam,Rotterdam,Zuid-Holland,VBO,4.461887,51.878995
Melchertstraat,71,,,3084RJ,Rotterdam,Rotterdam,Zuid-Holland,VBO,4.461794,51.878909
Melchertstraat,73,,,3084RJ,Rotterdam,Rotterdam,Zuid-Holland,VBO,4.461730,51.878849
Melchertstraat,75,,,3084RJ,Rotterdam,Rotterdam,Zuid-Holland,VBO,4.461637,51.878762
Melchertstraat,77,,,3084RJ,Rotterdam,Rotterdam,Zuid-Holland,VBO,4.461579,51.878707
Melchertstraat,79,,,3084RJ,Rotterdam,Rotterdam,Zuid-Holland,VBO,4.461470,51.878628
Melchertstraat,81,,,3084RJ,Rotterdam,Rotterdam,Zuid-Holland,VBO,4.461409,51.878570
Melchertstraat,83,,,3084RK,Rotterdam,Rotterdam,Zuid-Holland,VBO,4.461196,51.878350
Melchertstraat,85,,,3084RK,Rotterdam,Rotterdam,Zuid-Holland,VBO,4.461130,51.878289
Melchertstraat,87,,,3084RK,Rotterdam,Rotterdam,Zuid-Holland,VBO,4.461069,51.878233
Melchertstraat,89,,,3084RK,Rotterdam,Rotterdam,Zuid-Holland,VBO,4.461013,51.878180
Melchertstraat,91,,,3084RK,Rotterdam,Rotterdam,Zuid-Holland,VBO,4.460882,51.878058
Melchertstraat,93,,,3084RK,Rotterdam,Rotterdam,Zuid-Holland,VBO,4.460821,51.878000
Melchertstraat,95,,,3084RK,Rotterdam,Rotterdam,Zuid-Holland,VBO,4.460758,51.877943
Melchertstraat,97,,,3084RK,Rotterdam,Rotterdam,Zuid-Holland,VBO,4.460702,51.877892
Melchertstraat,99,,,3084RK,Rotterdam,Rotterdam,Zuid-Holland,VBO,4.460629,51.877823
Melchertstraat,101,,,3084RK,Rotterdam,Rotterdam,Zuid-Holland,VBO,4.460555,51.877771
Melchertstraat,103,,,3084RK,Rotterdam,Rotterdam,Zuid-Holland,VBO,4.460491,51.877712
Melchertstraat,105,,,3084RK,Rotterdam,Rotterdam,Zuid-Holland,VBO,4.460225,51.877487
Melchertstraat,107,,,3084RK,Rotterdam,Rotterdam,Zuid-Holland,VBO,4.460160,51.877428
Melchertstraat,109,,,3084RK,Rotterdam,Rotterdam,Zuid-Holland,VBO,4.460100,51.877368
Melchertstraat,111,,,3084RK,Rotterdam,Rotterdam,Zuid-Holland,VBO,4.460041,51.877316
Melchertstraat,113,,,3084RK,Rotterdam,Rotterdam,Zuid-Holland,VBO,4.459926,51.877187
Melchertstraat,115,,,3084RK,Rotterdam,Rotterdam,Zuid-Holland,VBO,4.459866,51.877133
Melchertstraat,117,,,3084RK,Rotterdam,Rotterdam,Zuid-Holland,VBO,4.459807,51.877077
Melchertstraat,119,,,3084RK,Rotterdam,Rotterdam,Zuid-Holland,VBO,4.459749,51.877023
Melchertstraat,121,,,3084RK,Rotterdam,Rotterdam,Zuid-Holland,VBO,4.459652,51.876953
Melchertstraat,123,,,3084RK,Rotterdam,Rotterdam,Zuid-Holland,VBO,4.459592,51.876897
Melchertstraat,125,,,3084RK,Rotterdam,Rotterdam,Zuid-Holland,VBO,4.459523,51.876812
Melchertstraat,127,,,3084RK,Rotterdam,Rotterdam,Zuid-Holland,VBO,4.459457,51.876750
Melchertstraat,2,B,,3084RL,Rotterdam,Rotterdam,Zuid-Holland,VBO,4.463619,51.881101
Melchertstraat,4,,,3084RL,Rotterdam,Rotterdam,Zuid-Holland,VBO,4.463607,51.881043
Melchertstraat,6,,,3084RL,Rotterdam,Rotterdam,Zuid-Holland,VBO,4.463585,51.880934
Melchertstraat,8,,,3084RL,Rotterdam,Rotterdam,Zuid-Holland,VBO,4.463566,51.880869
Melchertstraat,10,,,3084RL,Rotterdam,Rotterdam,Zuid-Holland,VBO,4.463522,51.880729
Melchertstraat,12,,,3084RL,Rotterdam,Rotterdam,Zuid-Holland,VBO,4.463495,51.880661
Melchertstraat,14,,,3084RL,Rotterdam,Rotterdam,Zuid-Holland,VBO,4.463454,51.880556
Melchertstraat,16,,,3084RL,Rotterdam,Rotterdam,Zuid-Holland,VBO,4.463429,51.880496
Melchertstraat,18,,,3084RL,Rotterdam,Rotterdam,Zuid-Holland,VBO,4.463272,51.880179
Melchertstraat,20,,,3084RL,Rotterdam,Rotterdam,Zuid-Holland,VBO,4.463227,51.880112
Melchertstraat,22,,,3084RL,Rotterdam,Rotterdam,Zuid-Holland,VBO,4.463189,51.880053
Melchertstraat,24,,,3084RL,Rotterdam,Rotterdam,Zuid-Holland,VBO,4.463122,51.879963
Melchertstraat,26,,,3084RL,Rotterdam,Rotterdam,Zuid-Holland,VBO,4.463073,51.879904
Melchertstraat,28,,,3084RL,Rotterdam,Rotterdam,Zuid-Holland,VBO,4.463024,51.879845
Melchertstraat,30,,,3084RL,Rotterdam,Rotterdam,Zuid-Holland,VBO,4.462971,51.879782
Melchertstraat,32,,,3084RL,Rotterdam,Rotterdam,Zuid-Holland,VBO,4.462803,51.879610
Melchertstraat,34,,,3084RL,Rotterdam,Rotterdam,Zuid-Holland,VBO,4.462736,51.879546
Melchertstraat,40,,,3084RM,Rotterdam,Rotterdam,Zuid-Holland,VBO,4.462265,51.879113
Melchertstraat,42,,,3084RM,Rotterdam,Rotterdam,Zuid-Holland,VBO,4.462203,51.879054
Melchertstraat,44,,,3084RM,Rotterdam,Rotterdam,Zuid-Holland,VBO,4.462141,51.878997
Melchertstraat,46,,,3084RM,Rotterdam,Rotterdam,Zuid-Holland,VBO,4.462081,51.878941
Melchertstraat,48,,,3084RM,Rotterdam,Rotterdam,Zuid-Holland,VBO,4.462019,51.878864
Melchertstraat,50,,,3084RM,Rotterdam,Rotterdam,Zuid-Holland,VBO,4.461959,51.878807
Melchertstraat,52,,,3084RM,Rotterdam,Rotterdam,Zuid-Holland,VBO,4.461864,51.878737
Melchertstraat,54,,,3084RM,Rotterdam,Rotterdam,Zuid-Holland,VBO,4.461809,51.878685
Melchertstraat,56,,,3084RM,Rotterdam,Rotterdam,Zuid-Holland,VBO,4.461726,51.878609
Melchertstraat,58,,,3084RM,Rotterdam,Rotterdam,Zuid-Holland,VBO,4.461665,51.878552
Melchertstraat,60,,,3084RM,Rotterdam,Rotterdam,Zuid-Holland,VBO,4.461425,51.878329
Melchertstraat,62,,,3084RM,Rotterdam,Rotterdam,Zuid-Holland,VBO,4.461360,51.878268
Melchertstraat,64,,,3084RM,Rotterdam,Rotterdam,Zuid-Holland,VBO,4.461301,51.878213
Melchertstraat,66,,,3084RM,Rotterdam,Rotterdam,Zuid-Holland,VBO,4.461245,51.878160
Melchertstraat,68,,,3084RM,Rotterdam,Rotterdam,Zuid-Holland,VBO,4.461116,51.878017
Melchertstraat,70,,,3084RM,Rotterdam,Rotterdam,Zuid-Holland,VBO,4.461057,51.877963
Melchertstraat,72,,,3084RM,Rotterdam,Rotterdam,Zuid-Holland,VBO,4.460998,51.877907
Melchertstraat,74,,,3084RM,Rotterdam,Rotterdam,Zuid-Holland,VBO,4.460852,51.877789
Melchertstraat,76,,,3084RM,Rotterdam,Rotterdam,Zuid-Holland,VBO,4.460791,51.877731
Melchertstraat,78,,,3084RM,Rotterdam,Rotterdam,Zuid-Holland,VBO,4.460730,51.877676
Melchertstraat,80,,,3084RN,Rotterdam,Rotterdam,Zuid-Holland,VBO,4.460507,51.877446
Melchertstraat,82,,,3084RN,Rotterdam,Rotterdam,Zuid-Holland,VBO,4.460446,51.877392
Melchertstraat,84,,,3084RN,Rotterdam,Rotterdam,Zuid-Holland,VBO,4.460378,51.877331
Melchertstraat,86,,,3084RN,Rotterdam,Rotterdam,Zuid-Holland,VBO,4.460323,51.877276
Melchertstraat,88,,,3084RN,Rotterdam,Rotterdam,Zuid-Holland,VBO,4.460186,51.877170
Melchertstraat,90,,,3084RN,Rotterdam,Rotterdam,Zuid-Holland,VBO,4.460127,51.877115
Melchertstraat,92,,,3084RN,Rotterdam,Rotterdam,Zuid-Holland,VBO,4.460068,51.877060
Melchertstraat,94,,,3084RN,Rotterdam,Rotterdam,Zuid-Holland,VBO,4.460014,51.877009
Melchertstraat,96,,,3084RN,Rotterdam,Rotterdam,Zuid-Holland,VBO,4.459944,51.876925
Melchertstraat,98,,,3084RN,Rotterdam,Rotterdam,Zuid-Holland,VBO,4.459889,51.876873
Melchertstraat,100,,,3084RN,Rotterdam,Rotterdam,Zuid-Holland,VBO,4.459792,51.876803
Melchertstraat,102,,,3084RN,Rotterdam,Rotterdam,Zuid-Holland,VBO,4.459731,51.876747
Minkestraat,1,,,3084RP,Rotterdam,Rotterdam,Zuid-Holland,VBO,4.463836,51.880370
Minkestraat,3,,,3084RP,Rotterdam,Rotterdam,Zuid-Holland,VBO,4.463439,51.880392
Minkestraat,5,,,3084RP,Rotterdam,Rotterdam,Zuid-Holland,VBO,4.463165,51.880406
Minkestraat,7,,,3084RP,Rotterdam,Rotterdam,Zuid-Holland,VBO,4.462760,51.880427
Minkestraat,9,,,3084RP,Rotterdam,Rotterdam,Zuid-Holland,VBO,4.462483,51.880444
Minkestraat,11,,,3084RP,Rotterdam,Rotterdam,Zuid-Holland,VBO,4.462119,51.880463
Warmoldstraat,1,,,3084RR,Rotterdam,Rotterdam,Zuid-Holland,VBO,4.463692,51.881201
Warmoldstraat,3,,,3084RR,Rotterdam,Rotterdam,Zuid-Holland,VBO,4.464124,51.881187
Warmoldstraat,5,,,3084RR,Rotterdam,Rotterdam,Zuid-Holland,VBO,4.464126,51.881087
Warmoldstraat,7,,,3084RR,Rotterdam,Rotterdam,Zuid-Holland,VBO,4.464109,51.881024
Warmoldstraat,9,,,3084RR,Rotterdam,Rotterdam,Zuid-Holland,VBO,4.464080,51.880911
Warmoldstraat,11,,,3084RR,Rotterdam,Rotterdam,Zuid-Holland,VBO,4.464037,51.880842
Warmoldstraat,13,,,3084RR,Rotterdam,Rotterdam,Zuid-Holland,VBO,4.463983,51.880704
Warmoldstraat,15,,,3084RR,Rotterdam,Rotterdam,Zuid-Holland,VBO,4.463955,51.880634
Warmoldstraat,17,,,3084RR,Rotterdam,Rotterdam,Zuid-Holland,VBO,4.463909,51.880525
Warmoldstraat,19,,,3084RR,Rotterdam,Rotterdam,Zuid-Holland,VBO,4.463878,51.880461
Warmoldstraat,21,,,3084RR,Rotterdam,Rotterdam,Zuid-Holland,VBO,4.463699,51.880148
Warmoldstraat,23,,,3084RR,Rotterdam,Rotterdam,Zuid-Holland,VBO,4.463654,51.880081
Warmoldstraat,25,,,3084RR,Rotterdam,Rotterdam,Zuid-Holland,VBO,4.463612,51.880018
Warmoldstraat,27,,,3084RR,Rotterdam,Rotterdam,Zuid-Holland,VBO,4.463573,51.879957
Warmoldstraat,29,,,3084RR,Rotterdam,Rotterdam,Zuid-Holland,VBO,4.463503,51.879861
Warmoldstraat,31,,,3084RR,Rotterdam,Rotterdam,Zuid-Holland,VBO,4.463455,51.879800
Warmoldstraat,33,,,3084RR,Rotterdam,Rotterdam,Zuid-Holland,VBO,4.463408,51.879738
Warmoldstraat,35,,,3084RR,Rotterdam,Rotterdam,Zuid-Holland,VBO,4.463267,51.879578
Warmoldstraat,41,,,3084RS,Rotterdam,Rotterdam,Zuid-Holland,VBO,4.462717,51.879048
Warmoldstraat,43,,,3084RS,Rotterdam,Rotterdam,Zuid-Holland,VBO,4.462653,51.878989
Warmoldstraat,45,,,3084RS,Rotterdam,Rotterdam,Zuid-Holland,VBO,4.462595,51.878935
Warmoldstraat,47,,,3084RS,Rotterdam,Rotterdam,Zuid-Holland,VBO,4.462536,51.878878
Warmoldstraat,49,,,3084RS,Rotterdam,Rotterdam,Zuid-Holland,VBO,4.462460,51.878807
Warmoldstraat,51,,,3084RS,Rotterdam,Rotterdam,Zuid-Holland,VBO,4.462403,51.878754
Warmoldstraat,53,,,3084RS,Rotterdam,Rotterdam,Zuid-Holland,VBO,4.462307,51.878663
Warmoldstraat,55,,,3084RS,Rotterdam,Rotterdam,Zuid-Holland,VBO,4.462245,51.878605
Warmoldstraat,57,,,3084RS,Rotterdam,Rotterdam,Zuid-Holland,VBO,4.462173,51.878537
Warmoldstraat,59,,,3084RS,Rotterdam,Rotterdam,Zuid-Holland,VBO,4.462110,51.878476
Warmoldstraat,61,,,3084RS,Rotterdam,Rotterdam,Zuid-Holland,VBO,4.461863,51.878251
Warmoldstraat,63,,,3084RS,Rotterdam,Rotterdam,Zuid-Holland,VBO,4.461798,51.878192
Warmoldstraat,65,,,3084RS,Rotterdam,Rotterdam,Zuid-Holland,VBO,4.461739,51.878136
Warmoldstraat,67,,,3084RS,Rotterdam,Rotterdam,Zuid-Holland,VBO,4.461679,51.878080
Warmoldstraat,69,,,3084RS,Rotterdam,Rotterdam,Zuid-Holland,VBO,4.461535,51.877946
Warmoldstraat,71,,,3084RS,Rotterdam,Rotterdam,Zuid-Holland,VBO,4.461469,51.877884
Warmoldstraat,73,,,3084RS,Rotterdam,Rotterdam,Zuid-Holland,VBO,4.461409,51.877828
Warmoldstraat,75,,,3084RS,Rotterdam,Rotterdam,Zuid-Holland,VBO,4.461351,51.877774
Warmoldstraat,77,,,3084RS,Rotterdam,Rotterdam,Zuid-Holland,VBO,4.461275,51.877702
Warmoldstraat,79,,,3084RS,Rotterdam,Rotterdam,Zuid-Holland,VBO,4.461214,51.877645
Warmoldstraat,81,,,3084RS,Rotterdam,Rotterdam,Zuid-Holland,VBO,4.461152,51.877586
Warmoldstraat,83,,,3084RT,Rotterdam,Rotterdam,Zuid-Holland,VBO,4.460914,51.877362
Warmoldstraat,85,,,3084RT,Rotterdam,Rotterdam,Zuid-Holland,VBO,4.460847,51.877299
Warmoldstraat,87,,,3084RT,Rotterdam,Rotterdam,Zuid-Holland,VBO,4.460789,51.877245
Warmoldstraat,89,,,3084RT,Rotterdam,Rotterdam,Zuid-Holland,VBO,4.460731,51.877193
Warmoldstraat,91,,,3084RT,Rotterdam,Rotterdam,Zuid-Holland,VBO,4.460650,51.877116
Warmoldstraat,93,,,3084RT,Rotterdam,Rotterdam,Zuid-Holland,VBO,4.460592,51.877064
Warmoldstraat,95,,,3084RT,Rotterdam,Rotterdam,Zuid-Holland,VBO,4.460532,51.877007
Warmoldstraat,97,,,3084RT,Rotterdam,Rotterdam,Zuid-Holland,VBO,4.460469,51.876949
Warmoldstraat,99,,,3084RT,Rotterdam,Rotterdam,Zuid-Holland,VBO,4.460386,51.876871
Warmoldstraat,101,,,3084RT,Rotterdam,Rotterdam,Zuid-Holland,VBO,4.460312,51.876822
Warmoldstraat,103,,,3084RT,Rotterdam,Rotterdam,Zuid-Holland,VBO,4.460231,51.876748
Warmoldstraat,105,,,3084RT,Rotterdam,Rotterdam,Zuid-Holland,VBO,4.460169,51.876688
Brammertstraat,1,,,3084RV,Rotterdam,Rotterdam,Zuid-Holland,VBO,4.464480,51.881683
Brammertstraat,10,,,3084RV,Rotterdam,Rotterdam,Zuid-Holland,VBO,4.466648,51.881809
Gerlindestraat,1,,,3084RW,Rotterdam,Rotterdam,Zuid-Holland,VBO,4.458749,51.880386
Gerlindestraat,3,,,3084RW,Rotterdam,Rotterdam,Zuid-Holland,VBO,4.458868,51.880243
Gerlindestraat,4,,,3084RW,Rotterdam,Rotterdam,Zuid-Holland,VBO,4.459213,51.880043
Gerlindestraat,5,,,3084RW,Rotterdam,Rotterdam,Zuid-Holland,VBO,4.458712,51.880049
Gerlindestraat,7,,,3084RW,Rotterdam,Rotterdam,Zuid-Holland,VBO,4.458808,51.879860
Gerlindestraat,9,,,3084RW,Rotterdam,Rotterdam,Zuid-Holland,VBO,4.458626,51.879765
Gerlindestraat,11,,,3084RW,Rotterdam,Rotterdam,Zuid-Holland,VBO,4.458693,51.879685
Mathildestraat,1,,,3084RX,Rotterdam,Rotterdam,Zuid-Holland,VBO,4.459342,51.880341
Mathildestraat,2,,,3084RX,Rotterdam,Rotterdam,Zuid-Holland,VBO,4.459856,51.880260
Mathildestraat,3,,,3084RX,Rotterdam,Rotterdam,Zuid-Holland,VBO,4.459461,51.880200
Mathildestraat,4,,,3084RX,Rotterdam,Rotterdam,Zuid-Holland,VBO,4.459974,51.880119
Mathildestraat,5,,,3084RX,Rotterdam,Rotterdam,Zuid-Holland,VBO,4.459219,51.879720
Mathildestraat,6,,,3084RX,Rotterdam,Rotterdam,Zuid-Holland,VBO,4.459817,51.879926
Mathildestraat,7,,,3084RX,Rotterdam,Rotterdam,Zuid-Holland,VBO,4.459286,51.879640
Mathildestraat,8,,,3084RX,Rotterdam,Rotterdam,Zuid-Holland,VBO,4.460018,51.879762
Mathildestraat,10,,,3084RX,Rotterdam,Rotterdam,Zuid-Holland,VBO,4.459819,51.879668
Mathildestraat,12,,,3084RX,Rotterdam,Rotterdam,Zuid-Holland,VBO,4.459885,51.879588
