openbareruimtenaam,huisnummer,huisletter,huisnummertoevoeging,postcode,woonplaatsnaam,gemeentenaam,provincienaam,typeadresseerbaarobject,longitude,latitude
Slotboomplein,75,,,3089GK,Rotterdam,Rotterdam,Zuid-Holland,VBO,4.470922,51.888647
Directiekade,2,,,3089JA,Rotterdam,Rotterdam,Zuid-Holland,VBO,4.425143,51.897401
Directiekade,4,,,3089JA,Rotterdam,Rotterdam,Zuid-Holland,VBO,4.424885,51.897455
Directiekade,6,,,3089JA,Rotterdam,Rotterdam,Zuid-Holland,VBO,4.424619,51.897416
Directiekade,8,,,3089JA,Rotterdam,Rotterdam,Zuid-Holland,VBO,4.424379,51.897379
Directiekade,10,,,3089JA,Rotterdam,Rotterdam,Zuid-Holland,VBO,4.424184,51.897237
Directiekade,12,,,3089JA,Rotterdam,Rotterdam,Zuid-Holland,VBO,4.423774,51.897138
Directiekade,14,,,3089JA,Rotterdam,Rotterdam,Zuid-Holland,VBO,4.423380,51.897136
Directiekade,15,,,3089JA,Rotterdam,Rotterdam,Zuid-Holland,VBO,4.423354,51.897542
Directiekade,16,,,3089JA,Rotterdam,Rotterdam,Zuid-Holland,VBO,4.423138,51.897094
Directiekade,18,,,3089JA,Rotterdam,Rotterdam,Zuid-Holland,VBO,4.422989,51.897080
Directiekade,32,,,3089JA,Rotterdam,Rotterdam,Zuid-Holland,VBO,4.421850,51.896839
Heijplaatstraat,1,A,,3089JB,Rotterdam,Rotterdam,Zuid-Holland,VBO,4.422764,51.896896
Heijplaatstraat,1,B,,3089JB,Rotterdam,Rotterdam,Zuid-Holland,VBO,4.422742,51.896892
Heijplaatstraat,3,,,3089JB,Rotterdam,Rotterdam,Zuid-Holland,VBO,4.422243,51.896829
Heijplaatstraat,7,,,3089JB,Rotterdam,Rotterdam,Zuid-Holland,VBO,4.421876,51.896770
Heijplaatstraat,17,,,3089JB,Rotterdam,Rotterdam,Zuid-Holland,VBO,4.421199,51.896660
Heijplaatstraat,21,,,3089JB,Rotterdam,Rotterdam,Zuid-Holland,VBO,4.420394,51.896525
Heijplaatstraat,23,,,3089JB,Rotterdam,Rotterdam,Zuid-Holland,VBO,4.420394,51.896525
Heijplaatweg,4,,,3089JC,Rotterdam,Rotterdam,Zuid-Holland,VBO,4.431854,51.898882
Heijplaatweg,7,,,3089JC,Rotterdam,Rotterdam,Zuid-Holland,VBO,4.430735,51.898764
Heijplaatweg,9,,,3089JC,Rotterdam,Rotterdam,Zuid-Holland,VBO,4.430735,51.898764
Heijplaatweg,10,,,3089JC,Rotterdam,Rotterdam,Zuid-Holland,VBO,4.427333,51.897238
Heijplaatweg,15,,,3089JC,Rotterdam,Rotterdam,Zuid-Holland,VBO,4.430735,51.898764
Heijplaatweg,16,,,3089JC,Rotterdam,Rotterdam,Zuid-Holland,VBO,4.424454,51.896275
Heijplaatweg,25,,,3089JC,Rotterdam,Rotterdam,Zuid-Holland,VBO,4.425590,51.897492
Heijplaatweg,33,,,3089JC,Rotterdam,Rotterdam,Zuid-Holland,VBO,4.426950,51.898949
Heijplaatweg,35,,,3089JC,Rotterdam,Rotterdam,Zuid-Holland,VBO,4.426207,51.899646
Heijplaatweg,51,,,3089JC,Rotterdam,Rotterdam,Zuid-Holland,VBO,4.428709,51.899075
Ophemertstraat,1,,,3089JD,Rotterdam,Rotterdam,Zuid-Holland,VBO,4.430658,51.882950
Ophemertstraat,9,,,3089JD,Rotterdam,Rotterdam,Zuid-Holland,VBO,4.430010,51.884211
Ophemertstraat,11,,,3089JD,Rotterdam,Rotterdam,Zuid-Holland,VBO,4.431272,51.884769
Ophemertstraat,43,,,3089JD,Rotterdam,Rotterdam,Zuid-Holland,VBO,4.432726,51.885355
Ophemertstraat,45,,,3089JD,Rotterdam,Rotterdam,Zuid-Holland,VBO,4.432989,51.885443
Ophemertstraat,67,,,3089JD,Rotterdam,Rotterdam,Zuid-Holland,VBO,4.435050,51.885704
Ophemertstraat,71,,,3089JD,Rotterdam,Rotterdam,Zuid-Holland,VBO,4.435731,51.886326
Ophemertstraat,85,,,3089JD,Rotterdam,Rotterdam,Zuid-Holland,VBO,4.437047,51.886747
Ophemertstraat,10,,,3089JE,Rotterdam,Rotterdam,Zuid-Holland,VBO,4.427559,51.886206
Ophemertstraat,42,,,3089JE,Rotterdam,Rotterdam,Zuid-Holland,VBO,4.432447,51.885615
Ophemertstraat,50,,,3089JE,Rotterdam,Rotterdam,Zuid-Holland,VBO,4.433244,51.885875
Ophemertstraat,56,,,3089JE,Rotterdam,Rotterdam,Zuid-Holland,VBO,4.433904,51.886060
Ophemertstraat,60,,,3089JE,Rotterdam,Rotterdam,Zuid-Holland,VBO,4.434518,51.886285
Rondolaan,76,,,3089JG,Rotterdam,Rotterdam,Zuid-Holland,VBO,4.423884,51.893289
Waalhaven Z.z.,11,,,3089JH,Rotterdam,Rotterdam,Zuid-Holland,VBO,4.450378,51.878861
Waalhaven Z.z.,17,,,3089JH,Rotterdam,Rotterdam,Zuid-Holland,VBO,4.449957,51.878705
Waalhaven Z.z.,19,,,3089JH,Rotterdam,Rotterdam,Zuid-Holland,VBO,4.449306,51.879003
Waalhaven Z.z.,21,,,3089JH,Rotterdam,Rotterdam,Zuid-Holland,VBO,4.448323,51.879047
Waalhaven Z.z.,31,,,3089JH,Rotterdam,Rotterdam,Zuid-Holland,VBO,4.446330,51.878835
Waalhaven Z.z.,35,,,3089JH,Rotterdam,Rotterdam,Zuid-Holland,VBO,4.445307,51.878963
Waalhavenweg,50,,,3089JJ,Rotterdam,Rotterdam,Zuid-Holland,VBO,4.427559,51.886206
Zaltbommelstraat,10,,,3089JK,Rotterdam,Rotterdam,Zuid-Holland,VBO,4.426306,51.890373
Zaltbommelstraat,20,,,3089JK,Rotterdam,Rotterdam,Zuid-Holland,VBO,4.436142,51.890531
Zaltbommelstraat,30,,,3089JK,Rotterdam,Rotterdam,Zuid-Holland,VBO,4.436142,51.890531
Zaltbommelstraat,32,,,3089JK,Rotterdam,Rotterdam,Zuid-Holland,VBO,4.429272,51.887836
Droogdokweg,40,,,3089JL,Rotterdam,Rotterdam,Zuid-Holland,VBO,4.422259,51.895828
Droogdokweg,92,,,3089JL,Rotterdam,Rotterdam,Zuid-Holland,VBO,4.425609,51.892618
Droogdokweg,71,,,3089JN,Rotterdam,Rotterdam,Zuid-Holland,VBO,4.422802,51.894431
Droogdokweg,99,,,3089JN,Rotterdam,Rotterdam,Zuid-Holland,VBO,4.422666,51.894102
Klinknagelstraat,2,,,3089JP,Rotterdam,Rotterdam,Zuid-Holland,VBO,4.420125,51.896531
Klinknagelstraat,4,,,3089JP,Rotterdam,Rotterdam,Zuid-Holland,VBO,4.419988,51.896535
Klinknagelstraat,6,,,3089JP,Rotterdam,Rotterdam,Zuid-Holland,VBO,4.419389,51.896487
Klinknagelstraat,8,,,3089JP,Rotterdam,Rotterdam,Zuid-Holland,VBO,4.419200,51.896444
RDM-kade,55,,,3089JR,Rotterdam,Rotterdam,Zuid-Holland,VBO,4.419767,51.897696
RDM-kade,59,,,3089JR,Rotterdam,Rotterdam,Zuid-Holland,VBO,4.419791,51.897570
RDM-straat,1,,,3089JS,Rotterdam,Rotterdam,Zuid-Holland,VBO,4.419451,51.898914
RDM-plein,10,,,3089JT,Rotterdam,Rotterdam,Zuid-Holland,VBO,4.418637,51.898898
RDM-plein,12,,,3089JT,Rotterdam,Rotterdam,Zuid-Holland,VBO,4.418663,51.898736
De Rotterdamweg,1,,,3089JV,Rotterdam,Rotterdam,Zuid-Holland,VBO,4.414045,51.898666
De Rotterdamweg,5,,,3089JV,Rotterdam,Rotterdam,Zuid-Holland,VBO,4.414984,51.898306
De Rotterdamweg,9,,,3089JV,Rotterdam,Rotterdam,Zuid-Holland,VBO,4.415277,51.896877
De Rotterdamweg,40,,,3089JV,Rotterdam,Rotterdam,Zuid-Holland,VBO,4.416919,51.895516
Scheepsbouwweg,1,,,3089JW,Rotterdam,Rotterdam,Zuid-Holland,VBO,4.418158,51.897398
Scheepsbouwweg,2,,,3089JW,Rotterdam,Rotterdam,Zuid-Holland,VBO,4.418163,51.898395
Scheepsbouwweg,3,,,3089JW,Rotterdam,Rotterdam,Zuid-Holland,VBO,4.418205,51.897330
Scheepsbouwweg,7,,,3089JW,Rotterdam,Rotterdam,Zuid-Holland,VBO,4.418215,51.897261
Scheepsbouwweg,8,,,3089JW,Rotterdam,Rotterdam,Zuid-Holland,VBO,4.419767,51.897696
Scheepsbouwweg,15,,,3089JW,Rotterdam,Rotterdam,Zuid-Holland,VBO,4.418357,51.896705
Scheepsbouwweg,21,,,3089JW,Rotterdam,Rotterdam,Zuid-Holland,VBO,4.418414,51.896340
Scheepsbouwweg,45,,,3089JW,Rotterdam,Rotterdam,Zuid-Holland,VBO,4.418658,51.895218
Scheepsbouwweg,55,,,3089JW,Rotterdam,Rotterdam,Zuid-Holland,VBO,4.418940,51.893770
Scheepsbouwweg,59,,,3089JW,Rotterdam,Rotterdam,Zuid-Holland,VBO,4.418910,51.893341
Scheepsbouwweg,61,,,3089JW,Rotterdam,Rotterdam,Zuid-Holland,VBO,4.418910,51.893341
Scheepsbouwweg,63,,,3089JW,Rotterdam,Rotterdam,Zuid-Holland,VBO,4.418910,51.893341
Scheepsbouwweg,65,,,3089JW,Rotterdam,Rotterdam,Zuid-Holland,VBO,4.418910,51.893341
Scheepsbouwweg,67,,,3089JW,Rotterdam,Rotterdam,Zuid-Holland,VBO,4.418910,51.893341
Scheepsbouwweg,69,,,3089JW,Rotterdam,Rotterdam,Zuid-Holland,VBO,4.418910,51.893341
Scheepsbouwweg,75,,,3089JW,Rotterdam,Rotterdam,Zuid-Holland,VBO,4.418561,51.893325
Scheepsbouwplein,3,,,3089JX,Rotterdam,Rotterdam,Zuid-Holland,VBO,4.416210,51.899173
Arie den Toomweg,2,,,3089KA,Rotterdam,Rotterdam,Zuid-Holland,VBO,4.421476,51.889585
Arie den Toomweg,4,,,3089KA,Rotterdam,Rotterdam,Zuid-Holland,VBO,4.421462,51.889560
Arie den Toomweg,6,,,3089KA,Rotterdam,Rotterdam,Zuid-Holland,VBO,4.421447,51.889534
Arie den Toomweg,8,,,3089KA,Rotterdam,Rotterdam,Zuid-Holland,VBO,4.421433,51.889510
Arie den Toomweg,10,,,3089KA,Rotterdam,Rotterdam,Zuid-Holland,VBO,4.421417,51.889484
Arie den Toomweg,12,,,3089KA,Rotterdam,Rotterdam,Zuid-Holland,VBO,4.421402,51.889458
Arie den Toomweg,14,,,3089KA,Rotterdam,Rotterdam,Zuid-Holland,VBO,4.421388,51.889432
Arie den Toomweg,16,,,3089KA,Rotterdam,Rotterdam,Zuid-Holland,VBO,4.421373,51.889404
Arie den Toomweg,18,,,3089KA,Rotterdam,Rotterdam,Zuid-Holland,VBO,4.421204,51.889073
Arie den Toomweg,19,,,3089KA,Rotterdam,Rotterdam,Zuid-Holland,VBO,4.420889,51.889235
Arie den Toomweg,20,,,3089KA,Rotterdam,Rotterdam,Zuid-Holland,VBO,4.421180,51.889050
Arie den Toomweg,22,,,3089KA,Rotterdam,Rotterdam,Zuid-Holland,VBO,4.421165,51.889024
Arie den Toomweg,23,,,3089KA,Rotterdam,Rotterdam,Zuid-Holland,VBO,4.420848,51.889080
Arie den Toomweg,24,,,3089KA,Rotterdam,Rotterdam,Zuid-Holland,VBO,4.421149,51.888998
Arie den Toomweg,25,,,3089KA,Rotterdam,Rotterdam,Zuid-Holland,VBO,4.420704,51.888984
Arie den Toomweg,26,,,3089KA,Rotterdam,Rotterdam,Zuid-Holland,VBO,4.421136,51.888974
Arie den Toomweg,27,,,3089KA,Rotterdam,Rotterdam,Zuid-Holland,VBO,4.420722,51.888858
Arie den Toomweg,28,,,3089KA,Rotterdam,Rotterdam,Zuid-Holland,VBO,4.421121,51.888948
Arie den Toomweg,30,,,3089KA,Rotterdam,Rotterdam,Zuid-Holland,VBO,4.421107,51.888921
Arie den Toomweg,31,,,3089KA,Rotterdam,Rotterdam,Zuid-Holland,VBO,4.419950,51.887802
Arie den Toomweg,32,,,3089KA,Rotterdam,Rotterdam,Zuid-Holland,VBO,4.421092,51.888895
Arie den Toomweg,37,,,3089KA,Rotterdam,Rotterdam,Zuid-Holland,VBO,4.419730,51.887423
Arie den Toomweg,40,,,3089KA,Rotterdam,Rotterdam,Zuid-Holland,VBO,4.421084,51.888066
Bunschotenweg,1,,,3089KB,Rotterdam,Rotterdam,Zuid-Holland,VBO,4.425471,51.886588
Bunschotenweg,11,,,3089KB,Rotterdam,Rotterdam,Zuid-Holland,VBO,4.423985,51.886602
Bunschotenweg,99,,,3089KB,Rotterdam,Rotterdam,Zuid-Holland,VBO,4.419950,51.887802
Bunschotenweg,115,,,3089KB,Rotterdam,Rotterdam,Zuid-Holland,VBO,4.415925,51.888200
Bunschotenweg,123,,,3089KB,Rotterdam,Rotterdam,Zuid-Holland,VBO,4.414748,51.888544
Bunschotenweg,125,,,3089KB,Rotterdam,Rotterdam,Zuid-Holland,VBO,4.414659,51.888547
Bunschotenweg,127,,,3089KB,Rotterdam,Rotterdam,Zuid-Holland,VBO,4.412986,51.888742
Bunschotenweg,129,,,3089KB,Rotterdam,Rotterdam,Zuid-Holland,VBO,4.412610,51.888826
Bunschotenweg,131,,,3089KB,Rotterdam,Rotterdam,Zuid-Holland,VBO,4.412262,51.888901
Bunschotenweg,133,,,3089KB,Rotterdam,Rotterdam,Zuid-Holland,VBO,4.411319,51.889108
Bunschotenweg,141,,,3089KB,Rotterdam,Rotterdam,Zuid-Holland,VBO,4.405873,51.890310
Bunschotenweg,145,,,3089KB,Rotterdam,Rotterdam,Zuid-Holland,VBO,4.405248,51.890398
Bunschotenweg,2,,,3089KC,Rotterdam,Rotterdam,Zuid-Holland,VBO,4.427559,51.886206
Bunschotenweg,8,,,3089KC,Rotterdam,Rotterdam,Zuid-Holland,VBO,4.427559,51.886206
Bunschotenweg,10,,,3089KC,Rotterdam,Rotterdam,Zuid-Holland,VBO,4.423148,51.886096
Bunschotenweg,12,,,3089KC,Rotterdam,Rotterdam,Zuid-Holland,VBO,4.422036,51.886114
Bunschotenweg,58,,,3089KC,Rotterdam,Rotterdam,Zuid-Holland,VBO,4.418441,51.886455
Bunschotenweg,60,,,3089KC,Rotterdam,Rotterdam,Zuid-Holland,VBO,4.418557,51.887197
Bunschotenweg,100,,,3089KC,Rotterdam,Rotterdam,Zuid-Holland,VBO,4.415403,51.887900
Bunschotenweg,110,,,3089KC,Rotterdam,Rotterdam,Zuid-Holland,VBO,4.415102,51.887944
Bunschotenweg,114,,,3089KC,Rotterdam,Rotterdam,Zuid-Holland,VBO,4.414084,51.888074
Bunschotenweg,116,,,3089KC,Rotterdam,Rotterdam,Zuid-Holland,VBO,4.414024,51.887959
Bunschotenweg,122,,,3089KC,Rotterdam,Rotterdam,Zuid-Holland,VBO,4.413246,51.888309
Bunschotenweg,124,,,3089KC,Rotterdam,Rotterdam,Zuid-Holland,VBO,4.413246,51.888309
Bunschotenweg,126,,,3089KC,Rotterdam,Rotterdam,Zuid-Holland,VBO,4.413246,51.888309
Bunschotenweg,132,,,3089KC,Rotterdam,Rotterdam,Zuid-Holland,VBO,4.411802,51.888675
Bunschotenweg,134,,,3089KC,Rotterdam,Rotterdam,Zuid-Holland,VBO,4.410534,51.888429
Bunschotenweg,160,,,3089KC,Rotterdam,Rotterdam,Zuid-Holland,VBO,4.407054,51.889679
Bunschotenweg,180,,,3089KC,Rotterdam,Rotterdam,Zuid-Holland,VBO,4.406050,51.889799
Bunschotenweg,200,,,3089KC,Rotterdam,Rotterdam,Zuid-Holland,VBO,4.403960,51.890545
Eemhavenstraat,1,,,3089KD,Rotterdam,Rotterdam,Zuid-Holland,VBO,4.412917,51.891524
Eemhavenstraat,2,,,3089KD,Rotterdam,Rotterdam,Zuid-Holland,VBO,4.413286,51.891542
Eemhavenstraat,3,,,3089KD,Rotterdam,Rotterdam,Zuid-Holland,VBO,4.412688,51.891127
Eemhavenstraat,7,,,3089KD,Rotterdam,Rotterdam,Zuid-Holland,VBO,4.412234,51.891768
Eemhavenstraat,8,,,3089KD,Rotterdam,Rotterdam,Zuid-Holland,VBO,4.412972,51.890608
Eemhavenstraat,10,,,3089KD,Rotterdam,Rotterdam,Zuid-Holland,VBO,4.412972,51.890608
Eemhavenweg,25,,,3089KE,Rotterdam,Rotterdam,Zuid-Holland,VBO,4.419314,51.890580
Eemhavenweg,35,,,3089KE,Rotterdam,Rotterdam,Zuid-Holland,VBO,4.415498,51.891567
Eemhavenweg,39,,,3089KE,Rotterdam,Rotterdam,Zuid-Holland,VBO,4.413425,51.891945
Eemhavenweg,121,,,3089KE,Rotterdam,Rotterdam,Zuid-Holland,VBO,4.402639,51.894278
Eemhavenweg,123,,,3089KE,Rotterdam,Rotterdam,Zuid-Holland,VBO,4.402639,51.894278
Eemhavenweg,125,,,3089KE,Rotterdam,Rotterdam,Zuid-Holland,VBO,4.402733,51.894557
Eemhavenweg,127,B,,3089KE,Rotterdam,Rotterdam,Zuid-Holland,VBO,4.403166,51.894494
Eemhavenweg,127,,,3089KE,Rotterdam,Rotterdam,Zuid-Holland,VBO,4.403017,51.894812
Eemhavenweg,129,,,3089KE,Rotterdam,Rotterdam,Zuid-Holland,VBO,4.403019,51.894631
Eemhavenweg,131,,,3089KE,Rotterdam,Rotterdam,Zuid-Holland,VBO,4.402130,51.894397
Eemhavenweg,151,,,3089KE,Rotterdam,Rotterdam,Zuid-Holland,VBO,4.399453,51.895209
Eemhavenweg,10,,,3089KG,Rotterdam,Rotterdam,Zuid-Holland,VBO,4.419791,51.889924
Eemhavenweg,14,,,3089KG,Rotterdam,Rotterdam,Zuid-Holland,VBO,4.418788,51.889474
Eemhavenweg,16,,,3089KG,Rotterdam,Rotterdam,Zuid-Holland,VBO,4.418732,51.890201
Eemhavenweg,18,,,3089KG,Rotterdam,Rotterdam,Zuid-Holland,VBO,4.417631,51.890596
Eemhavenweg,20,A,,3089KG,Rotterdam,Rotterdam,Zuid-Holland,VBO,4.417144,51.890655
Eemhavenweg,20,B,,3089KG,Rotterdam,Rotterdam,Zuid-Holland,VBO,4.417010,51.890417
Eemhavenweg,20,C,,3089KG,Rotterdam,Rotterdam,Zuid-Holland,VBO,4.416738,51.889938
Eemhavenweg,20,D,,3089KG,Rotterdam,Rotterdam,Zuid-Holland,VBO,4.416654,51.889797
Eemhavenweg,24,A,,3089KG,Rotterdam,Rotterdam,Zuid-Holland,VBO,4.416043,51.890941
Eemhavenweg,24,B,,3089KG,Rotterdam,Rotterdam,Zuid-Holland,VBO,4.416043,51.890941
Eemhavenweg,26,,,3089KG,Rotterdam,Rotterdam,Zuid-Holland,VBO,4.415588,51.891041
Eemhavenweg,32,,,3089KG,Rotterdam,Rotterdam,Zuid-Holland,VBO,4.413958,51.891400
Eemhavenweg,40,,,3089KG,Rotterdam,Rotterdam,Zuid-Holland,VBO,4.412917,51.891524
Eemhavenweg,42,,,3089KH,Rotterdam,Rotterdam,Zuid-Holland,VBO,4.412234,51.891768
Eemhavenweg,44,,,3089KH,Rotterdam,Rotterdam,Zuid-Holland,VBO,4.412234,51.891768
Eemhavenweg,48,,,3089KH,Rotterdam,Rotterdam,Zuid-Holland,VBO,4.410536,51.891820
Eemhavenweg,50,,,3089KH,Rotterdam,Rotterdam,Zuid-Holland,VBO,4.410166,51.892000
Eemhavenweg,52,,,3089KH,Rotterdam,Rotterdam,Zuid-Holland,VBO,4.410166,51.892000
Eemhavenweg,54,,,3089KH,Rotterdam,Rotterdam,Zuid-Holland,VBO,4.410166,51.892000
Eemhavenweg,56,,,3089KH,Rotterdam,Rotterdam,Zuid-Holland,VBO,4.410166,51.892000
Eemhavenweg,68,,,3089KH,Rotterdam,Rotterdam,Zuid-Holland,VBO,4.409300,51.892253
Eemhavenweg,70,,,3089KH,Rotterdam,Rotterdam,Zuid-Holland,VBO,4.408343,51.892481
Den Hamweg,11,,,3089KK,Rotterdam,Rotterdam,Zuid-Holland,VBO,4.427693,51.881238
Den Hamweg,30,,,3089KK,Rotterdam,Rotterdam,Zuid-Holland,VBO,4.419710,51.881417
Den Hamweg,55,,,3089KK,Rotterdam,Rotterdam,Zuid-Holland,VBO,4.422448,51.882360
Oostbroekweg,4,,,3089KL,Rotterdam,Rotterdam,Zuid-Holland,VBO,4.423985,51.886602
Oostbroekweg,15,,,3089KL,Rotterdam,Rotterdam,Zuid-Holland,VBO,4.423891,51.887300
Reeweg,25,,,3089KM,Rotterdam,Rotterdam,Zuid-Holland,VBO,4.431229,51.877275
Reeweg,31,,,3089KM,Rotterdam,Rotterdam,Zuid-Holland,VBO,4.430144,51.877731
Reeweg,35,,,3089KM,Rotterdam,Rotterdam,Zuid-Holland,VBO,4.427471,51.877848
Spakenburgweg,45,,,3089KN,Rotterdam,Rotterdam,Zuid-Holland,VBO,4.420205,51.882032
Spakenburgweg,50,,,3089KN,Rotterdam,Rotterdam,Zuid-Holland,VBO,4.419710,51.881417
Spakenburgweg,52,,,3089KN,Rotterdam,Rotterdam,Zuid-Holland,VBO,4.419710,51.881417
Spakenburgweg,54,,,3089KN,Rotterdam,Rotterdam,Zuid-Holland,VBO,4.419710,51.881417
Quarantaineweg,1,B,,3089KP,Rotterdam,Rotterdam,Zuid-Holland,VBO,4.411275,51.896306
Quarantaineweg,1,C,,3089KP,Rotterdam,Rotterdam,Zuid-Holland,VBO,4.411156,51.896809
Quarantaineweg,1,D,,3089KP,Rotterdam,Rotterdam,Zuid-Holland,VBO,4.410860,51.897248
Quarantaineweg,1,E,,3089KP,Rotterdam,Rotterdam,Zuid-Holland,VBO,4.410292,51.897246
Quarantaineweg,1,F,,3089KP,Rotterdam,Rotterdam,Zuid-Holland,VBO,4.409950,51.897085
Quarantaineweg,1,G,,3089KP,Rotterdam,Rotterdam,Zuid-Holland,VBO,4.408940,51.897079
Quarantaineweg,1,H,,3089KP,Rotterdam,Rotterdam,Zuid-Holland,VBO,4.408938,51.896489
Quarantaineweg,1,K,,3089KP,Rotterdam,Rotterdam,Zuid-Holland,VBO,4.408490,51.896456
Quarantaineweg,1,,,3089KP,Rotterdam,Rotterdam,Zuid-Holland,VBO,4.409095,51.897080
Quarantaineweg,5,,,3089KP,Rotterdam,Rotterdam,Zuid-Holland,VBO,4.405193,51.896149
Quarantaineweg,9,,,3089KP,Rotterdam,Rotterdam,Zuid-Holland,VBO,4.406401,51.896111
Quarantaineweg,10,,,3089KP,Rotterdam,Rotterdam,Zuid-Holland,VBO,4.407369,51.895433
Quarantaineweg,33,,,3089KP,Rotterdam,Rotterdam,Zuid-Holland,VBO,4.409538,51.895512
Quarantaineweg,35,,,3089KP,Rotterdam,Rotterdam,Zuid-Holland,VBO,4.409727,51.895454
Quarantaineweg,45,,,3089KP,Rotterdam,Rotterdam,Zuid-Holland,VBO,4.410288,51.895483
Quarantaineweg,100,,,3089KP,Rotterdam,Rotterdam,Zuid-Holland,VBO,4.413547,51.892450
Quarantaineweg,102,,,3089KP,Rotterdam,Rotterdam,Zuid-Holland,VBO,4.413533,51.892424
Quarantaineweg,104,,,3089KP,Rotterdam,Rotterdam,Zuid-Holland,VBO,4.413519,51.892399
Quarantaineweg,106,,,3089KP,Rotterdam,Rotterdam,Zuid-Holland,VBO,4.413505,51.892374
Quarantaineweg,108,,,3089KP,Rotterdam,Rotterdam,Zuid-Holland,VBO,4.413489,51.892348
Quarantaineweg,110,,,3089KP,Rotterdam,Rotterdam,Zuid-Holland,VBO,4.413476,51.892324
Quarantaineweg,112,,,3089KP,Rotterdam,Rotterdam,Zuid-Holland,VBO,4.413461,51.892298
Quarantaineweg,114,,,3089KP,Rotterdam,Rotterdam,Zuid-Holland,VBO,4.413447,51.892273
Quarantaineweg,116,,,3089KP,Rotterdam,Rotterdam,Zuid-Holland,VBO,4.413431,51.892246
Quarantaineweg,118,,,3089KP,Rotterdam,Rotterdam,Zuid-Holland,VBO,4.413417,51.892219
Quarantaineweg,120,,,3089KP,Rotterdam,Rotterdam,Zuid-Holland,VBO,4.413403,51.892195
Quarantaineweg,122,,,3089KP,Rotterdam,Rotterdam,Zuid-Holland,VBO,4.413389,51.892169
Quarantaineweg,124,,,3089KP,Rotterdam,Rotterdam,Zuid-Holland,VBO,4.413374,51.892144
Quarantaineweg,126,,,3089KP,Rotterdam,Rotterdam,Zuid-Holland,VBO,4.413361,51.892120
Quarantaineweg,128,,,3089KP,Rotterdam,Rotterdam,Zuid-Holland,VBO,4.413345,51.892094
Quarantaineweg,130,,,3089KP,Rotterdam,Rotterdam,Zuid-Holland,VBO,4.413331,51.892070
Quarantaineweg,132,,,3089KP,Rotterdam,Rotterdam,Zuid-Holland,VBO,4.413316,51.892043
Quarantaineweg,134,,,3089KP,Rotterdam,Rotterdam,Zuid-Holland,VBO,4.413302,51.892017
Quarantaineweg,136,,,3089KP,Rotterdam,Rotterdam,Zuid-Holland,VBO,4.413287,51.891991
Quarantaineweg,138,,,3089KP,Rotterdam,Rotterdam,Zuid-Holland,VBO,4.413271,51.891966
Waalhaven W.z.,50,,,3089KR,Rotterdam,Rotterdam,Zuid-Holland,VBO,4.433713,51.879916
Waalhaven W.z.,60,,,3089KR,Rotterdam,Rotterdam,Zuid-Holland,VBO,4.433713,51.879916
Waalhaven W.z.,62,,,3089KR,Rotterdam,Rotterdam,Zuid-Holland,VBO,4.432360,51.882592
Eemlandweg,13,,,3089KS,Rotterdam,Rotterdam,Zuid-Holland,VBO,4.427350,51.883393
Eemlandweg,100,,,3089KS,Rotterdam,Rotterdam,Zuid-Holland,VBO,4.418350,51.885523
Alcorplein,2,,,3089PA,Rotterdam,Rotterdam,Zuid-Holland,VBO,4.421955,51.892700
Alcorplein,3,,,3089PA,Rotterdam,Rotterdam,Zuid-Holland,VBO,4.421901,51.892657
Alcorplein,4,,,3089PA,Rotterdam,Rotterdam,Zuid-Holland,VBO,4.421907,51.892608
Alcorplein,5,A,,3089PA,Rotterdam,Rotterdam,Zuid-Holland,VBO,4.421954,51.892552
Alcorplein,5,B,,3089PA,Rotterdam,Rotterdam,Zuid-Holland,VBO,4.421954,51.892552
Alcorplein,6,,,3089PA,Rotterdam,Rotterdam,Zuid-Holland,VBO,4.422000,51.892499
Alcorplein,7,A,,3089PA,Rotterdam,Rotterdam,Zuid-Holland,VBO,4.422047,51.892443
Alcorplein,7,B,,3089PA,Rotterdam,Rotterdam,Zuid-Holland,VBO,4.422047,51.892443
Alcorplein,8,,,3089PA,Rotterdam,Rotterdam,Zuid-Holland,VBO,4.422104,51.892390
Alcorplein,9,A,,3089PA,Rotterdam,Rotterdam,Zuid-Holland,VBO,4.422149,51.892337
Alcorplein,9,B,,3089PA,Rotterdam,Rotterdam,Zuid-Holland,VBO,4.422149,51.892337
Alcorplein,10,,,3089PA,Rotterdam,Rotterdam,Zuid-Holland,VBO,4.422405,51.892191
Alcorplein,12,,,3089PA,Rotterdam,Rotterdam,Zuid-Holland,VBO,4.422624,51.892330
Alcorplein,13,A,,3089PA,Rotterdam,Rotterdam,Zuid-Holland,VBO,4.422512,51.892463
Alcorplein,13,B,,3089PA,Rotterdam,Rotterdam,Zuid-Holland,VBO,4.422512,51.892463
Alcorplein,14,,,3089PA,Rotterdam,Rotterdam,Zuid-Holland,VBO,4.422631,51.892613
Alcorplein,16,,,3089PA,Rotterdam,Rotterdam,Zuid-Holland,VBO,4.422478,51.892774
Alcorplein,17,,,3089PA,Rotterdam,Rotterdam,Zuid-Holland,VBO,4.422544,51.892795
Alcorplein,18,,,3089PA,Rotterdam,Rotterdam,Zuid-Holland,VBO,4.422609,51.892816
Alcorstraat,1,,,3089PB,Rotterdam,Rotterdam,Zuid-Holland,VBO,4.421241,51.893740
Alcorstraat,2,,,3089PB,Rotterdam,Rotterdam,Zuid-Holland,VBO,4.421519,51.893755
Alcorstraat,4,,,3089PB,Rotterdam,Rotterdam,Zuid-Holland,VBO,4.421554,51.893711
Alcorstraat,5,,,3089PB,Rotterdam,Rotterdam,Zuid-Holland,VBO,4.421339,51.893636
Alcorstraat,6,,,3089PB,Rotterdam,Rotterdam,Zuid-Holland,VBO,4.421682,51.893632
Alcorstraat,7,,,3089PB,Rotterdam,Rotterdam,Zuid-Holland,VBO,4.421395,51.893609
Alcorstraat,8,,,3089PB,Rotterdam,Rotterdam,Zuid-Holland,VBO,4.421729,51.893577
Alcorstraat,11,,,3089PB,Rotterdam,Rotterdam,Zuid-Holland,VBO,4.421438,51.893533
Alcorstraat,12,,,3089PB,Rotterdam,Rotterdam,Zuid-Holland,VBO,4.421993,51.893194
Alcorstraat,13,,,3089PB,Rotterdam,Rotterdam,Zuid-Holland,VBO,4.421468,51.893496
Alcorstraat,15,,,3089PB,Rotterdam,Rotterdam,Zuid-Holland,VBO,4.421519,51.893464
Alcorstraat,16,,,3089PB,Rotterdam,Rotterdam,Zuid-Holland,VBO,4.422166,51.893090
Alcorstraat,18,,,3089PB,Rotterdam,Rotterdam,Zuid-Holland,VBO,4.422199,51.893050
Alcorstraat,19,,,3089PB,Rotterdam,Rotterdam,Zuid-Holland,VBO,4.421564,51.893338
Alcorstraat,20,,,3089PB,Rotterdam,Rotterdam,Zuid-Holland,VBO,4.422234,51.893008
Alcorstraat,21,,,3089PB,Rotterdam,Rotterdam,Zuid-Holland,VBO,4.421742,51.893160
Alcorstraat,22,,,3089PB,Rotterdam,Rotterdam,Zuid-Holland,VBO,4.422270,51.892966
Alcorstraat,23,,,3089PB,Rotterdam,Rotterdam,Zuid-Holland,VBO,4.421780,51.893115
Alcorstraat,24,,,3089PB,Rotterdam,Rotterdam,Zuid-Holland,VBO,4.422304,51.892927
Alcorstraat,25,,,3089PB,Rotterdam,Rotterdam,Zuid-Holland,VBO,4.421730,51.892826
Alcorstraat,27,,,3089PB,Rotterdam,Rotterdam,Zuid-Holland,VBO,4.422018,51.892835
Alcorstraat,29,,,3089PB,Rotterdam,Rotterdam,Zuid-Holland,VBO,4.422057,51.892790
Aurorastraat,3,,,3089PC,Rotterdam,Rotterdam,Zuid-Holland,VBO,4.423717,51.890444
Aurorastraat,4,,,3089PC,Rotterdam,Rotterdam,Zuid-Holland,VBO,4.423906,51.890275
Aurorastraat,5,,,3089PC,Rotterdam,Rotterdam,Zuid-Holland,VBO,4.423649,51.890422
Aurorastraat,6,,,3089PC,Rotterdam,Rotterdam,Zuid-Holland,VBO,4.423835,51.890252
Courzandseweg,17,,,3089PD,Rotterdam,Rotterdam,Zuid-Holland,VBO,4.419237,51.895289
Courzandseweg,18,,,3089PD,Rotterdam,Rotterdam,Zuid-Holland,VBO,4.419248,51.895231
Courzandseweg,19,,,3089PD,Rotterdam,Rotterdam,Zuid-Holland,VBO,4.419278,51.895193
Courzandseweg,20,A,,3089PD,Rotterdam,Rotterdam,Zuid-Holland,VBO,4.419363,51.895140
Courzandseweg,20,B,,3089PD,Rotterdam,Rotterdam,Zuid-Holland,VBO,4.419363,51.895140
Courzandseweg,21,,,3089PD,Rotterdam,Rotterdam,Zuid-Holland,VBO,4.419572,51.895234
Courzandseweg,22,,,3089PD,Rotterdam,Rotterdam,Zuid-Holland,VBO,4.419394,51.894950
Courzandseweg,23,,,3089PD,Rotterdam,Rotterdam,Zuid-Holland,VBO,4.419443,51.894891
Courzandseweg,24,,,3089PD,Rotterdam,Rotterdam,Zuid-Holland,VBO,4.419530,51.894751
Courzandseweg,25,,,3089PD,Rotterdam,Rotterdam,Zuid-Holland,VBO,4.419555,51.894720
Courzandseweg,26,,,3089PD,Rotterdam,Rotterdam,Zuid-Holland,VBO,4.419666,51.894590
Courzandseweg,27,,,3089PD,Rotterdam,Rotterdam,Zuid-Holland,VBO,4.419715,51.894532
Courzandseweg,28,,,3089PD,Rotterdam,Rotterdam,Zuid-Holland,VBO,4.419817,51.894411
Courzandseweg,29,,,3089PD,Rotterdam,Rotterdam,Zuid-Holland,VBO,4.419856,51.894364
Courzandseweg,30,,,3089PD,Rotterdam,Rotterdam,Zuid-Holland,VBO,4.419985,51.894249
Courzandseweg,31,,,3089PD,Rotterdam,Rotterdam,Zuid-Holland,VBO,4.420034,51.894190
Courzandseweg,33,,,3089PD,Rotterdam,Rotterdam,Zuid-Holland,VBO,4.420259,51.893878
Courzandseweg,34,,,3089PD,Rotterdam,Rotterdam,Zuid-Holland,VBO,4.420298,51.893834
Courzandseweg,35,,,3089PD,Rotterdam,Rotterdam,Zuid-Holland,VBO,4.420371,51.893748
Courzandseweg,36,,,3089PD,Rotterdam,Rotterdam,Zuid-Holland,VBO,4.420409,51.893704
Courzandseweg,38,,,3089PE,Rotterdam,Rotterdam,Zuid-Holland,VBO,4.420612,51.893479
Courzandseweg,40,,,3089PE,Rotterdam,Rotterdam,Zuid-Holland,VBO,4.420680,51.893329
Courzandseweg,41,,,3089PE,Rotterdam,Rotterdam,Zuid-Holland,VBO,4.420872,51.893171
Courzandseweg,45,,,3089PE,Rotterdam,Rotterdam,Zuid-Holland,VBO,4.421402,51.892572
Courzandseweg,46,,,3089PE,Rotterdam,Rotterdam,Zuid-Holland,VBO,4.421500,51.892501
Courzandseweg,47,,,3089PE,Rotterdam,Rotterdam,Zuid-Holland,VBO,4.421596,51.892390
Courzandseweg,49,,,3089PE,Rotterdam,Rotterdam,Zuid-Holland,VBO,4.421752,51.892286
Courzandseweg,51,,,3089PE,Rotterdam,Rotterdam,Zuid-Holland,VBO,4.421685,51.891453
Courzandseweg,52,,,3089PE,Rotterdam,Rotterdam,Zuid-Holland,VBO,4.422007,51.891908
Courzandseweg,53,,,3089PE,Rotterdam,Rotterdam,Zuid-Holland,VBO,4.422132,51.891758
Courzandseweg,54,,,3089PE,Rotterdam,Rotterdam,Zuid-Holland,VBO,4.422198,51.891677
Courzandseweg,55,,,3089PE,Rotterdam,Rotterdam,Zuid-Holland,VBO,4.422296,51.891531
Courzandseweg,56,,,3089PE,Rotterdam,Rotterdam,Zuid-Holland,VBO,4.422340,51.891470
Courzandseweg,57,,,3089PE,Rotterdam,Rotterdam,Zuid-Holland,VBO,4.422403,51.891403
Courzandseweg,58,,,3089PE,Rotterdam,Rotterdam,Zuid-Holland,VBO,4.422480,51.891277
Courzandseweg,59,,,3089PE,Rotterdam,Rotterdam,Zuid-Holland,VBO,4.422519,51.891229
Courzandseweg,60,,,3089PE,Rotterdam,Rotterdam,Zuid-Holland,VBO,4.422559,51.891180
Courzandseweg,61,,,3089PG,Rotterdam,Rotterdam,Zuid-Holland,VBO,4.422735,51.890971
Courzandseweg,62,,,3089PG,Rotterdam,Rotterdam,Zuid-Holland,VBO,4.422775,51.890923
Courzandseweg,63,,,3089PG,Rotterdam,Rotterdam,Zuid-Holland,VBO,4.422815,51.890876
Courzandseweg,64,,,3089PG,Rotterdam,Rotterdam,Zuid-Holland,VBO,4.423064,51.890874
Courzandseweg,66,,,3089PG,Rotterdam,Rotterdam,Zuid-Holland,VBO,4.423013,51.890734
Courzandseweg,67,,,3089PG,Rotterdam,Rotterdam,Zuid-Holland,VBO,4.423070,51.890667
Courzandseweg,68,,,3089PG,Rotterdam,Rotterdam,Zuid-Holland,VBO,4.423126,51.890599
Courzandseweg,70,,,3089PG,Rotterdam,Rotterdam,Zuid-Holland,VBO,4.423252,51.890403
Courzandseweg,71,,,3089PG,Rotterdam,Rotterdam,Zuid-Holland,VBO,4.423299,51.890348
Courzandseweg,72,,,3089PG,Rotterdam,Rotterdam,Zuid-Holland,VBO,4.423609,51.890187
Courzandseweg,103,,,3089PG,Rotterdam,Rotterdam,Zuid-Holland,VBO,4.422551,51.890538
Courzandseweg,104,,,3089PG,Rotterdam,Rotterdam,Zuid-Holland,VBO,4.422551,51.890538
Courzandseweg,105,,,3089PG,Rotterdam,Rotterdam,Zuid-Holland,VBO,4.422551,51.890538
Courzandseweg,106,,,3089PG,Rotterdam,Rotterdam,Zuid-Holland,VBO,4.422551,51.890538
Courzandseweg,107,,,3089PG,Rotterdam,Rotterdam,Zuid-Holland,VBO,4.422551,51.890538
Courzandseweg,108,,,3089PG,Rotterdam,Rotterdam,Zuid-Holland,VBO,4.422551,51.890538
Courzandseweg,109,,,3089PG,Rotterdam,Rotterdam,Zuid-Holland,VBO,4.422551,51.890538
Courzandseweg,110,,,3089PG,Rotterdam,Rotterdam,Zuid-Holland,VBO,4.422551,51.890538
Courzandseweg,111,,,3089PG,Rotterdam,Rotterdam,Zuid-Holland,VBO,4.422551,51.890538
Courzandseweg,112,,,3089PG,Rotterdam,Rotterdam,Zuid-Holland,VBO,4.422551,51.890538
Courzandseweg,113,,,3089PG,Rotterdam,Rotterdam,Zuid-Holland,VBO,4.422551,51.890538
Courzandseweg,114,,,3089PG,Rotterdam,Rotterdam,Zuid-Holland,VBO,4.422551,51.890538
Courzandseweg,115,,,3089PG,Rotterdam,Rotterdam,Zuid-Holland,VBO,4.422551,51.890538
Courzandseweg,116,,,3089PG,Rotterdam,Rotterdam,Zuid-Holland,VBO,4.422551,51.890538
Courzandseweg,117,,,3089PG,Rotterdam,Rotterdam,Zuid-Holland,VBO,4.422551,51.890538
Courzandseweg,118,,,3089PG,Rotterdam,Rotterdam,Zuid-Holland,VBO,4.422551,51.890538
Courzandseweg,119,,,3089PG,Rotterdam,Rotterdam,Zuid-Holland,VBO,4.422551,51.890538
Courzandseweg,120,,,3089PG,Rotterdam,Rotterdam,Zuid-Holland,VBO,4.422551,51.890538
Courzandseweg,121,,,3089PG,Rotterdam,Rotterdam,Zuid-Holland,VBO,4.422551,51.890538
Courzandseweg,122,,,3089PG,Rotterdam,Rotterdam,Zuid-Holland,VBO,4.422551,51.890538
Courzandseweg,123,,,3089PG,Rotterdam,Rotterdam,Zuid-Holland,VBO,4.422551,51.890538
Courzandseweg,124,,,3089PG,Rotterdam,Rotterdam,Zuid-Holland,VBO,4.422551,51.890538
Courzandseweg,125,,,3089PG,Rotterdam,Rotterdam,Zuid-Holland,VBO,4.422551,51.890538
Courzandseweg,126,,,3089PG,Rotterdam,Rotterdam,Zuid-Holland,VBO,4.422551,51.890538
Courzandseweg,127,,,3089PG,Rotterdam,Rotterdam,Zuid-Holland,VBO,4.422551,51.890538
Courzandseweg,128,,,3089PG,Rotterdam,Rotterdam,Zuid-Holland,VBO,4.422551,51.890538
Courzandseweg,129,,,3089PG,Rotterdam,Rotterdam,Zuid-Holland,VBO,4.422551,51.890538
Courzandseweg,130,,,3089PG,Rotterdam,Rotterdam,Zuid-Holland,VBO,4.422551,51.890538
Courzandseweg,131,,,3089PG,Rotterdam,Rotterdam,Zuid-Holland,VBO,4.422551,51.890538
Courzandseweg,132,,,3089PG,Rotterdam,Rotterdam,Zuid-Holland,VBO,4.422551,51.890538
Courzandseweg,133,,,3089PG,Rotterdam,Rotterdam,Zuid-Holland,VBO,4.422551,51.890538
Courzandseweg,134,,,3089PG,Rotterdam,Rotterdam,Zuid-Holland,VBO,4.422551,51.890538
Courzandseweg,135,,,3089PG,Rotterdam,Rotterdam,Zuid-Holland,VBO,4.422551,51.890538
Courzandseweg,136,,,3089PG,Rotterdam,Rotterdam,Zuid-Holland,VBO,4.422551,51.890538
Heysedijk,19,,,3089PH,Rotterdam,Rotterdam,Zuid-Holland,VBO,4.424161,51.889924
Heysedijk,21,,,3089PH,Rotterdam,Rotterdam,Zuid-Holland,VBO,4.424044,51.889887
Heysedijk,24,,,3089PH,Rotterdam,Rotterdam,Zuid-Holland,VBO,4.424161,51.889605
Linertonstraat,2,,,3089PJ,Rotterdam,Rotterdam,Zuid-Holland,VBO,4.423624,51.892074
Linertonstraat,4,,,3089PJ,Rotterdam,Rotterdam,Zuid-Holland,VBO,4.423355,51.891977
Linertonstraat,6,,,3089PJ,Rotterdam,Rotterdam,Zuid-Holland,VBO,4.423273,51.891951
Linertonstraat,8,,,3089PJ,Rotterdam,Rotterdam,Zuid-Holland,VBO,4.423192,51.891924
Linertonstraat,10,,,3089PJ,Rotterdam,Rotterdam,Zuid-Holland,VBO,4.423108,51.891897
Linertonstraat,12,,,3089PJ,Rotterdam,Rotterdam,Zuid-Holland,VBO,4.423026,51.891871
Neptunusstraat,2,A,,3089PK,Rotterdam,Rotterdam,Zuid-Holland,VBO,4.422221,51.892197
Neptunusstraat,2,B,,3089PK,Rotterdam,Rotterdam,Zuid-Holland,VBO,4.422221,51.892197
Neptunusstraat,5,,,3089PK,Rotterdam,Rotterdam,Zuid-Holland,VBO,4.421839,51.892355
Neptunusstraat,7,,,3089PK,Rotterdam,Rotterdam,Zuid-Holland,VBO,4.421915,51.892251
Neptunusstraat,8,,,3089PK,Rotterdam,Rotterdam,Zuid-Holland,VBO,4.421946,51.892015
Rondolaan,21,,,3089PL,Rotterdam,Rotterdam,Zuid-Holland,VBO,4.421608,51.895769
Rondolaan,23,,,3089PL,Rotterdam,Rotterdam,Zuid-Holland,VBO,4.421531,51.895737
Rondolaan,25,,,3089PL,Rotterdam,Rotterdam,Zuid-Holland,VBO,4.421505,51.895687
Rondolaan,27,,,3089PL,Rotterdam,Rotterdam,Zuid-Holland,VBO,4.421495,51.895579
Rondolaan,29,A,,3089PL,Rotterdam,Rotterdam,Zuid-Holland,VBO,4.421468,51.895513
Rondolaan,29,B,,3089PL,Rotterdam,Rotterdam,Zuid-Holland,VBO,4.421468,51.895513
Rondolaan,31,A,,3089PL,Rotterdam,Rotterdam,Zuid-Holland,VBO,4.421337,51.895505
Rondolaan,31,B,,3089PL,Rotterdam,Rotterdam,Zuid-Holland,VBO,4.421337,51.895505
Rondolaan,35,A,,3089PM,Rotterdam,Rotterdam,Zuid-Holland,VBO,4.420842,51.895273
Rondolaan,35,B,,3089PM,Rotterdam,Rotterdam,Zuid-Holland,VBO,4.420842,51.895273
Rondolaan,37,A,,3089PM,Rotterdam,Rotterdam,Zuid-Holland,VBO,4.420906,51.895199
Rondolaan,37,B,,3089PM,Rotterdam,Rotterdam,Zuid-Holland,VBO,4.420906,51.895199
Rondolaan,39,A,,3089PM,Rotterdam,Rotterdam,Zuid-Holland,VBO,4.420958,51.895135
Rondolaan,39,B,,3089PM,Rotterdam,Rotterdam,Zuid-Holland,VBO,4.420958,51.895135
Rondolaan,41,,,3089PM,Rotterdam,Rotterdam,Zuid-Holland,VBO,4.421032,51.895066
Rondolaan,43,,,3089PM,Rotterdam,Rotterdam,Zuid-Holland,VBO,4.421089,51.894998
Rondolaan,47,,,3089PM,Rotterdam,Rotterdam,Zuid-Holland,VBO,4.421233,51.894895
Rondolaan,49,,,3089PM,Rotterdam,Rotterdam,Zuid-Holland,VBO,4.421277,51.894842
Rondolaan,51,,,3089PM,Rotterdam,Rotterdam,Zuid-Holland,VBO,4.421321,51.894791
Rondolaan,53,,,3089PM,Rotterdam,Rotterdam,Zuid-Holland,VBO,4.421363,51.894739
Rondolaan,57,,,3089PN,Rotterdam,Rotterdam,Zuid-Holland,VBO,4.422029,51.893921
Rondolaan,59,,,3089PN,Rotterdam,Rotterdam,Zuid-Holland,VBO,4.422066,51.893877
Rondolaan,61,,,3089PN,Rotterdam,Rotterdam,Zuid-Holland,VBO,4.422102,51.893769
Rondolaan,63,,,3089PN,Rotterdam,Rotterdam,Zuid-Holland,VBO,4.422149,51.893712
Rondolaan,65,,,3089PN,Rotterdam,Rotterdam,Zuid-Holland,VBO,4.422469,51.893395
Rondolaan,67,,,3089PN,Rotterdam,Rotterdam,Zuid-Holland,VBO,4.422501,51.893353
Rondolaan,69,,,3089PN,Rotterdam,Rotterdam,Zuid-Holland,VBO,4.422536,51.893313
Rondolaan,71,,,3089PN,Rotterdam,Rotterdam,Zuid-Holland,VBO,4.422571,51.893272
Rondolaan,73,,,3089PN,Rotterdam,Rotterdam,Zuid-Holland,VBO,4.422606,51.893231
Rondolaan,75,,,3089PN,Rotterdam,Rotterdam,Zuid-Holland,VBO,4.422640,51.893191
Rondolaan,77,,,3089PN,Rotterdam,Rotterdam,Zuid-Holland,VBO,4.422674,51.893151
Rondolaan,79,,,3089PN,Rotterdam,Rotterdam,Zuid-Holland,VBO,4.422708,51.893112
Rondolaan,81,,,3089PN,Rotterdam,Rotterdam,Zuid-Holland,VBO,4.422745,51.893070
Rondolaan,83,,,3089PN,Rotterdam,Rotterdam,Zuid-Holland,VBO,4.422856,51.892803
Rondolaan,85,,,3089PN,Rotterdam,Rotterdam,Zuid-Holland,VBO,4.423052,51.892706
Rondolaan,87,,,3089PN,Rotterdam,Rotterdam,Zuid-Holland,VBO,4.423089,51.892666
Rondolaan,89,,,3089PN,Rotterdam,Rotterdam,Zuid-Holland,VBO,4.423123,51.892625
Rondolaan,91,,,3089PN,Rotterdam,Rotterdam,Zuid-Holland,VBO,4.423154,51.892587
Rondolaan,93,,,3089PN,Rotterdam,Rotterdam,Zuid-Holland,VBO,4.423192,51.892543
Rondolaan,95,,,3089PN,Rotterdam,Rotterdam,Zuid-Holland,VBO,4.423226,51.892500
Rondolaan,97,,,3089PN,Rotterdam,Rotterdam,Zuid-Holland,VBO,4.423260,51.892460
Rondolaan,99,,,3089PN,Rotterdam,Rotterdam,Zuid-Holland,VBO,4.423292,51.892421
Rondolaan,101,A,,3089PN,Rotterdam,Rotterdam,Zuid-Holland,VBO,4.423319,51.892383
Rondolaan,101,B,,3089PN,Rotterdam,Rotterdam,Zuid-Holland,VBO,4.423355,51.892339
Rondolaan,103,A,,3089PN,Rotterdam,Rotterdam,Zuid-Holland,VBO,4.423389,51.892298
Rondolaan,103,B,,3089PN,Rotterdam,Rotterdam,Zuid-Holland,VBO,4.423431,51.892257
Rondolaan,107,A,,3089PR,Rotterdam,Rotterdam,Zuid-Holland,VBO,4.423684,51.892007
Rondolaan,107,B,,3089PR,Rotterdam,Rotterdam,Zuid-Holland,VBO,4.423726,51.891958
Rondolaan,109,A,,3089PR,Rotterdam,Rotterdam,Zuid-Holland,VBO,4.423729,51.891875
Rondolaan,109,B,,3089PR,Rotterdam,Rotterdam,Zuid-Holland,VBO,4.423766,51.891832
Rondolaan,111,A,,3089PR,Rotterdam,Rotterdam,Zuid-Holland,VBO,4.423799,51.891792
Rondolaan,111,B,,3089PR,Rotterdam,Rotterdam,Zuid-Holland,VBO,4.423834,51.891751
Rondolaan,113,A,,3089PR,Rotterdam,Rotterdam,Zuid-Holland,VBO,4.423869,51.891710
Rondolaan,113,B,,3089PR,Rotterdam,Rotterdam,Zuid-Holland,VBO,4.423903,51.891670
Rondolaan,115,A,,3089PR,Rotterdam,Rotterdam,Zuid-Holland,VBO,4.423938,51.891628
Rondolaan,115,B,,3089PR,Rotterdam,Rotterdam,Zuid-Holland,VBO,4.423972,51.891588
Rondolaan,117,A,,3089PR,Rotterdam,Rotterdam,Zuid-Holland,VBO,4.424008,51.891547
Rondolaan,117,B,,3089PR,Rotterdam,Rotterdam,Zuid-Holland,VBO,4.424042,51.891506
Rondolaan,119,A,,3089PR,Rotterdam,Rotterdam,Zuid-Holland,VBO,4.424077,51.891465
Rondolaan,119,B,,3089PR,Rotterdam,Rotterdam,Zuid-Holland,VBO,4.424112,51.891423
Rondolaan,121,A,,3089PR,Rotterdam,Rotterdam,Zuid-Holland,VBO,4.424146,51.891383
Rondolaan,121,B,,3089PR,Rotterdam,Rotterdam,Zuid-Holland,VBO,4.424179,51.891343
Rondolaan,123,,,3089PR,Rotterdam,Rotterdam,Zuid-Holland,VBO,4.424214,51.891302
Rondolaan,125,,,3089PR,Rotterdam,Rotterdam,Zuid-Holland,VBO,4.424318,51.891259
Rondolaan,127,,,3089PR,Rotterdam,Rotterdam,Zuid-Holland,VBO,4.424359,51.891209
Rondolaan,131,,,3089PR,Rotterdam,Rotterdam,Zuid-Holland,VBO,4.424734,51.890737
Rondolaan,133,,,3089PR,Rotterdam,Rotterdam,Zuid-Holland,VBO,4.424770,51.890695
Rondolaan,135,,,3089PR,Rotterdam,Rotterdam,Zuid-Holland,VBO,4.424809,51.890648
Rondolaan,137,,,3089PR,Rotterdam,Rotterdam,Zuid-Holland,VBO,4.424841,51.890611
Rondolaan,139,,,3089PR,Rotterdam,Rotterdam,Zuid-Holland,VBO,4.424877,51.890568
Rondolaan,141,,,3089PR,Rotterdam,Rotterdam,Zuid-Holland,VBO,4.424915,51.890523
Rondolaan,143,,,3089PR,Rotterdam,Rotterdam,Zuid-Holland,VBO,4.424979,51.890447
Rondolaan,145,,,3089PR,Rotterdam,Rotterdam,Zuid-Holland,VBO,4.425016,51.890404
Rondolaan,147,,,3089PR,Rotterdam,Rotterdam,Zuid-Holland,VBO,4.425055,51.890357
Rondolaan,149,,,3089PR,Rotterdam,Rotterdam,Zuid-Holland,VBO,4.425094,51.890310
Rondolaan,151,,,3089PR,Rotterdam,Rotterdam,Zuid-Holland,VBO,4.425130,51.890268
Rondolaan,153,,,3089PR,Rotterdam,Rotterdam,Zuid-Holland,VBO,4.425169,51.890222
Sirrahstraat,1,,,3089PS,Rotterdam,Rotterdam,Zuid-Holland,VBO,4.422263,51.893582
Sirrahstraat,3,,,3089PS,Rotterdam,Rotterdam,Zuid-Holland,VBO,4.422180,51.893555
Sirrahstraat,5,,,3089PS,Rotterdam,Rotterdam,Zuid-Holland,VBO,4.422105,51.893530
Sirrahstraat,9,,,3089PS,Rotterdam,Rotterdam,Zuid-Holland,VBO,4.421999,51.893495
Sirrahstraat,11,,,3089PS,Rotterdam,Rotterdam,Zuid-Holland,VBO,4.421917,51.893482
Sirrahstraat,12,,,3089PS,Rotterdam,Rotterdam,Zuid-Holland,VBO,4.421511,51.893111
Sirrahstraat,13,,,3089PS,Rotterdam,Rotterdam,Zuid-Holland,VBO,4.421837,51.893456
Sirrahstraat,14,,,3089PS,Rotterdam,Rotterdam,Zuid-Holland,VBO,4.421436,51.893087
Sirrahstraat,16,,,3089PS,Rotterdam,Rotterdam,Zuid-Holland,VBO,4.421363,51.893063
Sirrahstraat,17,,,3089PS,Rotterdam,Rotterdam,Zuid-Holland,VBO,4.421506,51.893309
Sirrahstraat,18,,,3089PS,Rotterdam,Rotterdam,Zuid-Holland,VBO,4.421288,51.893039
Sirrahstraat,19,,,3089PS,Rotterdam,Rotterdam,Zuid-Holland,VBO,4.421389,51.893258
Sirrahstraat,20,,,3089PS,Rotterdam,Rotterdam,Zuid-Holland,VBO,4.421214,51.893015
Sirrahstraat,21,,,3089PS,Rotterdam,Rotterdam,Zuid-Holland,VBO,4.421328,51.893251
Sirrahstraat,23,,,3089PS,Rotterdam,Rotterdam,Zuid-Holland,VBO,4.421268,51.893231
Sirrahstraat,25,,,3089PS,Rotterdam,Rotterdam,Zuid-Holland,VBO,4.421208,51.893212
Sirrahstraat,27,,,3089PS,Rotterdam,Rotterdam,Zuid-Holland,VBO,4.421144,51.893191
Sirrahstraat,29,,,3089PS,Rotterdam,Rotterdam,Zuid-Holland,VBO,4.421099,51.893163
Sirrahstraat,31,,,3089PS,Rotterdam,Rotterdam,Zuid-Holland,VBO,4.420979,51.893149
Streefkerkstraat,3,,,3089PT,Rotterdam,Rotterdam,Zuid-Holland,VBO,4.422498,51.892112
Streefkerkstraat,5,,,3089PT,Rotterdam,Rotterdam,Zuid-Holland,VBO,4.422534,51.892053
Streefkerkstraat,7,,,3089PT,Rotterdam,Rotterdam,Zuid-Holland,VBO,4.422578,51.892001
Streefkerkstraat,9,,,3089PT,Rotterdam,Rotterdam,Zuid-Holland,VBO,4.422622,51.891946
Streefkerkstraat,11,,,3089PT,Rotterdam,Rotterdam,Zuid-Holland,VBO,4.422650,51.891889
Streefkerkstraat,13,,,3089PT,Rotterdam,Rotterdam,Zuid-Holland,VBO,4.422707,51.891835
Streefkerkstraat,15,A,,3089PT,Rotterdam,Rotterdam,Zuid-Holland,VBO,4.422683,51.891727
Streefkerkstraat,15,B,,3089PT,Rotterdam,Rotterdam,Zuid-Holland,VBO,4.422683,51.891727
Streefkerkstraat,17,A,,3089PT,Rotterdam,Rotterdam,Zuid-Holland,VBO,4.422677,51.891661
Streefkerkstraat,17,B,,3089PT,Rotterdam,Rotterdam,Zuid-Holland,VBO,4.422677,51.891661
Streefkerkstraat,19,A,,3089PT,Rotterdam,Rotterdam,Zuid-Holland,VBO,4.422717,51.891616
Streefkerkstraat,19,B,,3089PT,Rotterdam,Rotterdam,Zuid-Holland,VBO,4.422717,51.891616
Streefkerkstraat,21,,,3089PT,Rotterdam,Rotterdam,Zuid-Holland,VBO,4.422764,51.891560
Streefkerkstraat,23,B,,3089PT,Rotterdam,Rotterdam,Zuid-Holland,VBO,4.422808,51.891508
Streefkerkstraat,25,A,,3089PT,Rotterdam,Rotterdam,Zuid-Holland,VBO,4.422840,51.891466
Streefkerkstraat,25,B,,3089PT,Rotterdam,Rotterdam,Zuid-Holland,VBO,4.422840,51.891466
Streefkerkstraat,29,,,3089PV,Rotterdam,Rotterdam,Zuid-Holland,VBO,4.423295,51.890984
Streefkerkstraat,31,,,3089PV,Rotterdam,Rotterdam,Zuid-Holland,VBO,4.423334,51.890938
Streefkerkstraat,33,,,3089PV,Rotterdam,Rotterdam,Zuid-Holland,VBO,4.423372,51.890893
Streefkerkstraat,35,,,3089PV,Rotterdam,Rotterdam,Zuid-Holland,VBO,4.423411,51.890848
Streefkerkstraat,37,,,3089PV,Rotterdam,Rotterdam,Zuid-Holland,VBO,4.423449,51.890802
Streefkerkstraat,39,,,3089PV,Rotterdam,Rotterdam,Zuid-Holland,VBO,4.423488,51.890756
Streefkerkstraat,41,,,3089PV,Rotterdam,Rotterdam,Zuid-Holland,VBO,4.423526,51.890711
Streefkerkstraat,43,,,3089PV,Rotterdam,Rotterdam,Zuid-Holland,VBO,4.423564,51.890666
Streefkerkstraat,45,,,3089PV,Rotterdam,Rotterdam,Zuid-Holland,VBO,4.423824,51.890654
Streefkerkstraat,47,,,3089PV,Rotterdam,Rotterdam,Zuid-Holland,VBO,4.423863,51.890608
Streefkerkstraat,49,,,3089PV,Rotterdam,Rotterdam,Zuid-Holland,VBO,4.423903,51.890562
Streefkerkstraat,51,,,3089PV,Rotterdam,Rotterdam,Zuid-Holland,VBO,4.423943,51.890516
Streefkerkstraat,2,A,,3089PW,Rotterdam,Rotterdam,Zuid-Holland,VBO,4.422695,51.892271
Streefkerkstraat,2,B,,3089PW,Rotterdam,Rotterdam,Zuid-Holland,VBO,4.422695,51.892271
Streefkerkstraat,4,,,3089PW,Rotterdam,Rotterdam,Zuid-Holland,VBO,4.422749,51.892220
Streefkerkstraat,6,,,3089PW,Rotterdam,Rotterdam,Zuid-Holland,VBO,4.422792,51.892168
Streefkerkstraat,8,,,3089PW,Rotterdam,Rotterdam,Zuid-Holland,VBO,4.422837,51.892113
Streefkerkstraat,10,,,3089PW,Rotterdam,Rotterdam,Zuid-Holland,VBO,4.422881,51.892059
Streefkerkstraat,12,,,3089PW,Rotterdam,Rotterdam,Zuid-Holland,VBO,4.422918,51.892002
Streefkerkstraat,16,,,3089PW,Rotterdam,Rotterdam,Zuid-Holland,VBO,4.423019,51.891757
Streefkerkstraat,18,,,3089PW,Rotterdam,Rotterdam,Zuid-Holland,VBO,4.423178,51.891691
Streefkerkstraat,20,,,3089PW,Rotterdam,Rotterdam,Zuid-Holland,VBO,4.423215,51.891648
Streefkerkstraat,22,,,3089PW,Rotterdam,Rotterdam,Zuid-Holland,VBO,4.423254,51.891601
Streefkerkstraat,24,,,3089PW,Rotterdam,Rotterdam,Zuid-Holland,VBO,4.423291,51.891556
Streefkerkstraat,26,,,3089PW,Rotterdam,Rotterdam,Zuid-Holland,VBO,4.423330,51.891510
Streefkerkstraat,28,,,3089PW,Rotterdam,Rotterdam,Zuid-Holland,VBO,4.423363,51.891471
Streefkerkstraat,30,,,3089PW,Rotterdam,Rotterdam,Zuid-Holland,VBO,4.423406,51.891416
Streefkerkstraat,32,,,3089PW,Rotterdam,Rotterdam,Zuid-Holland,VBO,4.423443,51.891370
Streefkerkstraat,34,,,3089PW,Rotterdam,Rotterdam,Zuid-Holland,VBO,4.423482,51.891324
Streefkerkstraat,36,,,3089PW,Rotterdam,Rotterdam,Zuid-Holland,VBO,4.423520,51.891279
Streefkerkstraat,38,,,3089PW,Rotterdam,Rotterdam,Zuid-Holland,VBO,4.423558,51.891233
Streefkerkstraat,40,,,3089PW,Rotterdam,Rotterdam,Zuid-Holland,VBO,4.423596,51.891188
Streefkerkstraat,42,,,3089PW,Rotterdam,Rotterdam,Zuid-Holland,VBO,4.423634,51.891142
Streefkerkstraat,52,,,3089PW,Rotterdam,Rotterdam,Zuid-Holland,VBO,4.424290,51.890597
Streefkerkstraat,54,,,3089PW,Rotterdam,Rotterdam,Zuid-Holland,VBO,4.424326,51.890554
Streefkerkstraat,56,,,3089PW,Rotterdam,Rotterdam,Zuid-Holland,VBO,4.424363,51.890512
Streefkerkstraat,58,,,3089PW,Rotterdam,Rotterdam,Zuid-Holland,VBO,4.424401,51.890466
Streefkerkstraat,60,,,3089PW,Rotterdam,Rotterdam,Zuid-Holland,VBO,4.424439,51.890422
Streefkerkstraat,62,,,3089PW,Rotterdam,Rotterdam,Zuid-Holland,VBO,4.424478,51.890376
Streefkerkstraat,64,,,3089PW,Rotterdam,Rotterdam,Zuid-Holland,VBO,4.424544,51.890297
Streefkerkstraat,66,,,3089PW,Rotterdam,Rotterdam,Zuid-Holland,VBO,4.424582,51.890257
Streefkerkstraat,68,,,3089PW,Rotterdam,Rotterdam,Zuid-Holland,VBO,4.424616,51.890215
Streefkerkstraat,70,,,3089PW,Rotterdam,Rotterdam,Zuid-Holland,VBO,4.424652,51.890171
Streefkerkstraat,72,,,3089PW,Rotterdam,Rotterdam,Zuid-Holland,VBO,4.424687,51.890128
Streefkerkstraat,74,,,3089PW,Rotterdam,Rotterdam,Zuid-Holland,VBO,4.424722,51.890085
Victorieuxstraat,1,,,3089PX,Rotterdam,Rotterdam,Zuid-Holland,VBO,4.422990,51.891315
Victorieuxstraat,2,,,3089PX,Rotterdam,Rotterdam,Zuid-Holland,VBO,4.423137,51.891135
Victorieuxstraat,3,,,3089PX,Rotterdam,Rotterdam,Zuid-Holland,VBO,4.422913,51.891291
Victorieuxstraat,4,,,3089PX,Rotterdam,Rotterdam,Zuid-Holland,VBO,4.423063,51.891111
Victorieuxstraat,5,,,3089PX,Rotterdam,Rotterdam,Zuid-Holland,VBO,4.422838,51.891266
Victorieuxstraat,6,,,3089PX,Rotterdam,Rotterdam,Zuid-Holland,VBO,4.422989,51.891087
Victorieuxstraat,7,,,3089PX,Rotterdam,Rotterdam,Zuid-Holland,VBO,4.422762,51.891242
Victorieuxstraat,8,,,3089PX,Rotterdam,Rotterdam,Zuid-Holland,VBO,4.422914,51.891063
Victorieuxstraat,20,,,3089PX,Rotterdam,Rotterdam,Zuid-Holland,VBO,4.422276,51.890691
Victorieuxstraat,22,,,3089PX,Rotterdam,Rotterdam,Zuid-Holland,VBO,4.422276,51.890691
Victorieuxstraat,24,,,3089PX,Rotterdam,Rotterdam,Zuid-Holland,VBO,4.422276,51.890691
Victorieuxstraat,26,,,3089PX,Rotterdam,Rotterdam,Zuid-Holland,VBO,4.422276,51.890691
Victorieuxstraat,28,,,3089PX,Rotterdam,Rotterdam,Zuid-Holland,VBO,4.422276,51.890691
Victorieuxstraat,30,,,3089PX,Rotterdam,Rotterdam,Zuid-Holland,VBO,4.422276,51.890691
Victorieuxstraat,32,,,3089PX,Rotterdam,Rotterdam,Zuid-Holland,VBO,4.422276,51.890691
Victorieuxstraat,34,,,3089PX,Rotterdam,Rotterdam,Zuid-Holland,VBO,4.422276,51.890691
Victorieuxstraat,36,,,3089PX,Rotterdam,Rotterdam,Zuid-Holland,VBO,4.422276,51.890691
Victorieuxstraat,38,,,3089PX,Rotterdam,Rotterdam,Zuid-Holland,VBO,4.422276,51.890691
Victorieuxstraat,40,,,3089PX,Rotterdam,Rotterdam,Zuid-Holland,VBO,4.422276,51.890691
Victorieuxstraat,42,,,3089PX,Rotterdam,Rotterdam,Zuid-Holland,VBO,4.422276,51.890691
Victorieuxstraat,44,,,3089PX,Rotterdam,Rotterdam,Zuid-Holland,VBO,4.422276,51.890691
Victorieuxstraat,46,,,3089PX,Rotterdam,Rotterdam,Zuid-Holland,VBO,4.422276,51.890691
Victorieuxstraat,48,,,3089PX,Rotterdam,Rotterdam,Zuid-Holland,VBO,4.422276,51.890691
Victorieuxstraat,50,,,3089PX,Rotterdam,Rotterdam,Zuid-Holland,VBO,4.422276,51.890691
Victorieuxstraat,52,,,3089PX,Rotterdam,Rotterdam,Zuid-Holland,VBO,4.422276,51.890691
Victorieuxstraat,54,,,3089PX,Rotterdam,Rotterdam,Zuid-Holland,VBO,4.422276,51.890691
Victorieuxstraat,56,,,3089PX,Rotterdam,Rotterdam,Zuid-Holland,VBO,4.422276,51.890691
Victorieuxstraat,58,,,3089PX,Rotterdam,Rotterdam,Zuid-Holland,VBO,4.422276,51.890691
Victorieuxstraat,60,,,3089PX,Rotterdam,Rotterdam,Zuid-Holland,VBO,4.422276,51.890691
Victorieuxstraat,62,,,3089PX,Rotterdam,Rotterdam,Zuid-Holland,VBO,4.422276,51.890691
Victorieuxstraat,64,,,3089PX,Rotterdam,Rotterdam,Zuid-Holland,VBO,4.422276,51.890691
Victorieuxstraat,66,,,3089PX,Rotterdam,Rotterdam,Zuid-Holland,VBO,4.422276,51.890691
Victorieuxstraat,68,,,3089PX,Rotterdam,Rotterdam,Zuid-Holland,VBO,4.422276,51.890691
Victorieuxstraat,70,,,3089PX,Rotterdam,Rotterdam,Zuid-Holland,VBO,4.422276,51.890691
Victorieuxstraat,72,,,3089PX,Rotterdam,Rotterdam,Zuid-Holland,VBO,4.422276,51.890691
Victorieuxstraat,74,,,3089PX,Rotterdam,Rotterdam,Zuid-Holland,VBO,4.422276,51.890691
Victorieuxstraat,76,,,3089PX,Rotterdam,Rotterdam,Zuid-Holland,VBO,4.422276,51.890691
Victorieuxstraat,80,,,3089PX,Rotterdam,Rotterdam,Zuid-Holland,VBO,4.421998,51.890692
Victorieuxstraat,84,,,3089PX,Rotterdam,Rotterdam,Zuid-Holland,VBO,4.421998,51.890692
Victorieuxstraat,86,,,3089PX,Rotterdam,Rotterdam,Zuid-Holland,VBO,4.421292,51.890198
Victorieuxstraat,88,,,3089PX,Rotterdam,Rotterdam,Zuid-Holland,VBO,4.421292,51.890198
Victorieuxstraat,90,,,3089PX,Rotterdam,Rotterdam,Zuid-Holland,VBO,4.421292,51.890198
Victorieuxstraat,92,,,3089PX,Rotterdam,Rotterdam,Zuid-Holland,VBO,4.421292,51.890198
Victorieuxstraat,94,,,3089PX,Rotterdam,Rotterdam,Zuid-Holland,VBO,4.421292,51.890198
Victorieuxstraat,96,,,3089PX,Rotterdam,Rotterdam,Zuid-Holland,VBO,4.421292,51.890198
Victorieuxstraat,98,,,3089PX,Rotterdam,Rotterdam,Zuid-Holland,VBO,4.421292,51.890198
Victorieuxstraat,100,,,3089PX,Rotterdam,Rotterdam,Zuid-Holland,VBO,4.421292,51.890198
Victorieuxstraat,102,,,3089PX,Rotterdam,Rotterdam,Zuid-Holland,VBO,4.421292,51.890198
Victorieuxstraat,104,,,3089PX,Rotterdam,Rotterdam,Zuid-Holland,VBO,4.421292,51.890198
Victorieuxstraat,106,,,3089PX,Rotterdam,Rotterdam,Zuid-Holland,VBO,4.421292,51.890198
Victorieuxstraat,108,,,3089PX,Rotterdam,Rotterdam,Zuid-Holland,VBO,4.421292,51.890198
Victorieuxstraat,110,,,3089PX,Rotterdam,Rotterdam,Zuid-Holland,VBO,4.421292,51.890198
Victorieuxstraat,112,,,3089PX,Rotterdam,Rotterdam,Zuid-Holland,VBO,4.421292,51.890198
Victorieuxstraat,114,,,3089PX,Rotterdam,Rotterdam,Zuid-Holland,VBO,4.421292,51.890198
Victorieuxstraat,116,,,3089PX,Rotterdam,Rotterdam,Zuid-Holland,VBO,4.421292,51.890198
Victorieuxstraat,118,,,3089PX,Rotterdam,Rotterdam,Zuid-Holland,VBO,4.421292,51.890198
Victorieuxstraat,120,,,3089PX,Rotterdam,Rotterdam,Zuid-Holland,VBO,4.421292,51.890198
Victorieuxstraat,122,,,3089PX,Rotterdam,Rotterdam,Zuid-Holland,VBO,4.421292,51.890198
Victorieuxstraat,124,,,3089PX,Rotterdam,Rotterdam,Zuid-Holland,VBO,4.421292,51.890198
Victorieuxstraat,126,,,3089PX,Rotterdam,Rotterdam,Zuid-Holland,VBO,4.421292,51.890198
Victorieuxstraat,128,,,3089PX,Rotterdam,Rotterdam,Zuid-Holland,VBO,4.421292,51.890198
Victorieuxstraat,130,,,3089PX,Rotterdam,Rotterdam,Zuid-Holland,VBO,4.421292,51.890198
Victorieuxstraat,132,,,3089PX,Rotterdam,Rotterdam,Zuid-Holland,VBO,4.421292,51.890198
Victorieuxstraat,134,,,3089PX,Rotterdam,Rotterdam,Zuid-Holland,VBO,4.421292,51.890198
Victorieuxstraat,136,,,3089PX,Rotterdam,Rotterdam,Zuid-Holland,VBO,4.421292,51.890198
Victorieuxstraat,138,,,3089PX,Rotterdam,Rotterdam,Zuid-Holland,VBO,4.421292,51.890198
Victorieuxstraat,140,,,3089PX,Rotterdam,Rotterdam,Zuid-Holland,VBO,4.421292,51.890198
Victorieuxstraat,142,,,3089PX,Rotterdam,Rotterdam,Zuid-Holland,VBO,4.421292,51.890198
Victorieuxstraat,144,,,3089PX,Rotterdam,Rotterdam,Zuid-Holland,VBO,4.421292,51.890198
Zaandijkstraat,1,,,3089PZ,Rotterdam,Rotterdam,Zuid-Holland,VBO,4.424418,51.891144
Zaandijkstraat,2,,,3089PZ,Rotterdam,Rotterdam,Zuid-Holland,VBO,4.424554,51.890911
Zaandijkstraat,4,,,3089PZ,Rotterdam,Rotterdam,Zuid-Holland,VBO,4.424487,51.890889
Zaandijkstraat,5,,,3089PZ,Rotterdam,Rotterdam,Zuid-Holland,VBO,4.423975,51.890995
Zaandijkstraat,6,,,3089PZ,Rotterdam,Rotterdam,Zuid-Holland,VBO,4.424410,51.890864
Zaandijkstraat,7,,,3089PZ,Rotterdam,Rotterdam,Zuid-Holland,VBO,4.423975,51.890995
Zaandijkstraat,8,,,3089PZ,Rotterdam,Rotterdam,Zuid-Holland,VBO,4.424346,51.890843
Zaandijkstraat,10,,,3089PZ,Rotterdam,Rotterdam,Zuid-Holland,VBO,4.424278,51.890821
Zaandijkstraat,12,,,3089PZ,Rotterdam,Rotterdam,Zuid-Holland,VBO,4.424210,51.890799
Zaandijkstraat,14,,,3089PZ,Rotterdam,Rotterdam,Zuid-Holland,VBO,4.424134,51.890774
Alwinastraat,3,,,3089RA,Rotterdam,Rotterdam,Zuid-Holland,VBO,4.420150,51.896204
Alwinastraat,5,,,3089RA,Rotterdam,Rotterdam,Zuid-Holland,VBO,4.420181,51.896162
Alwinastraat,6,,,3089RA,Rotterdam,Rotterdam,Zuid-Holland,VBO,4.420611,51.896178
Alwinastraat,7,,,3089RA,Rotterdam,Rotterdam,Zuid-Holland,VBO,4.420166,51.896105
Alwinastraat,8,,,3089RA,Rotterdam,Rotterdam,Zuid-Holland,VBO,4.420638,51.896138
Alwinastraat,9,,,3089RA,Rotterdam,Rotterdam,Zuid-Holland,VBO,4.420194,51.896067
Alwinastraat,10,,,3089RA,Rotterdam,Rotterdam,Zuid-Holland,VBO,4.420669,51.896099
Alwinastraat,11,,,3089RA,Rotterdam,Rotterdam,Zuid-Holland,VBO,4.420228,51.896021
Alwinastraat,12,,,3089RA,Rotterdam,Rotterdam,Zuid-Holland,VBO,4.420703,51.896057
Alwinastraat,13,,,3089RA,Rotterdam,Rotterdam,Zuid-Holland,VBO,4.420262,51.895975
Alwinastraat,14,,,3089RA,Rotterdam,Rotterdam,Zuid-Holland,VBO,4.420735,51.896017
Alwinastraat,15,,,3089RA,Rotterdam,Rotterdam,Zuid-Holland,VBO,4.420293,51.895934
Alwinastraat,17,,,3089RA,Rotterdam,Rotterdam,Zuid-Holland,VBO,4.420357,51.895904
Alwinastraat,18,,,3089RA,Rotterdam,Rotterdam,Zuid-Holland,VBO,4.421045,51.895729
Alwinastraat,19,,,3089RA,Rotterdam,Rotterdam,Zuid-Holland,VBO,4.420600,51.895644
Alwinastraat,20,,,3089RA,Rotterdam,Rotterdam,Zuid-Holland,VBO,4.421078,51.895687
Alwinastraat,21,,,3089RA,Rotterdam,Rotterdam,Zuid-Holland,VBO,4.420607,51.895589
Alwinastraat,22,,,3089RA,Rotterdam,Rotterdam,Zuid-Holland,VBO,4.421117,51.895639
Alwinastraat,23,,,3089RA,Rotterdam,Rotterdam,Zuid-Holland,VBO,4.420685,51.895544
Alwinastraat,24,,,3089RA,Rotterdam,Rotterdam,Zuid-Holland,VBO,4.421140,51.895543
Alwinastraat,26,A,,3089RA,Rotterdam,Rotterdam,Zuid-Holland,VBO,4.421192,51.895484
Alwinastraat,26,B,,3089RA,Rotterdam,Rotterdam,Zuid-Holland,VBO,4.421192,51.895484
Alwinastraat,27,,,3089RA,Rotterdam,Rotterdam,Zuid-Holland,VBO,4.420746,51.895406
Alwinastraat,29,,,3089RA,Rotterdam,Rotterdam,Zuid-Holland,VBO,4.420795,51.895348
Bisonstraat,3,,,3089RB,Rotterdam,Rotterdam,Zuid-Holland,VBO,4.421235,51.896426
Bisonstraat,4,,,3089RB,Rotterdam,Rotterdam,Zuid-Holland,VBO,4.421484,51.896466
Bisonstraat,5,,,3089RB,Rotterdam,Rotterdam,Zuid-Holland,VBO,4.421253,51.896384
Bisonstraat,6,,,3089RB,Rotterdam,Rotterdam,Zuid-Holland,VBO,4.421501,51.896423
Bisonstraat,7,,,3089RB,Rotterdam,Rotterdam,Zuid-Holland,VBO,4.421352,51.896349
Bisonstraat,8,,,3089RB,Rotterdam,Rotterdam,Zuid-Holland,VBO,4.421449,51.896364
Bisonstraat,9,,,3089RB,Rotterdam,Rotterdam,Zuid-Holland,VBO,4.421381,51.896302
Bisonstraat,10,,,3089RB,Rotterdam,Rotterdam,Zuid-Holland,VBO,4.421477,51.896324
Bisonstraat,11,,,3089RB,Rotterdam,Rotterdam,Zuid-Holland,VBO,4.421340,51.896239
Bisonstraat,12,,,3089RB,Rotterdam,Rotterdam,Zuid-Holland,VBO,4.421577,51.896301
Bisonstraat,13,,,3089RB,Rotterdam,Rotterdam,Zuid-Holland,VBO,4.421372,51.896197
Bisonstraat,14,,,3089RB,Rotterdam,Rotterdam,Zuid-Holland,VBO,4.421605,51.896266
Heijplaatstraat,10,,,3089RC,Rotterdam,Rotterdam,Zuid-Holland,VBO,4.421879,51.896577
Heijplaatstraat,12,,,3089RC,Rotterdam,Rotterdam,Zuid-Holland,VBO,4.421790,51.896563
Heijplaatstraat,14,,,3089RC,Rotterdam,Rotterdam,Zuid-Holland,VBO,4.421706,51.896541
Heijplaatstraat,18,,,3089RC,Rotterdam,Rotterdam,Zuid-Holland,VBO,4.421500,51.896538
Heijplaatstraat,20,,,3089RC,Rotterdam,Rotterdam,Zuid-Holland,VBO,4.421175,51.896485
Heijplaatstraat,24,,,3089RC,Rotterdam,Rotterdam,Zuid-Holland,VBO,4.420942,51.896448
Heijplaatstraat,26,,,3089RC,Rotterdam,Rotterdam,Zuid-Holland,VBO,4.420870,51.896437
Heijplaatstraat,28,,,3089RC,Rotterdam,Rotterdam,Zuid-Holland,VBO,4.420804,51.896411
Heijplaatstraat,30,,,3089RC,Rotterdam,Rotterdam,Zuid-Holland,VBO,4.420732,51.896399
Heijplaatstraat,32,,,3089RC,Rotterdam,Rotterdam,Zuid-Holland,VBO,4.420667,51.896389
Heijplaatstraat,34,,,3089RC,Rotterdam,Rotterdam,Zuid-Holland,VBO,4.420589,51.896392
Heijplaatstraat,36,,,3089RC,Rotterdam,Rotterdam,Zuid-Holland,VBO,4.420517,51.896381
Heijplaatstraat,38,,,3089RC,Rotterdam,Rotterdam,Zuid-Holland,VBO,4.420058,51.896305
Heijplaatstraat,40,,,3089RC,Rotterdam,Rotterdam,Zuid-Holland,VBO,4.419970,51.896318
Heijplaatstraat,42,,,3089RC,Rotterdam,Rotterdam,Zuid-Holland,VBO,4.419896,51.896312
Heijplaatstraat,46,,,3089RC,Rotterdam,Rotterdam,Zuid-Holland,VBO,4.419749,51.896300
Heijplaatstraat,48,,,3089RC,Rotterdam,Rotterdam,Zuid-Holland,VBO,4.419671,51.896294
Heijplaatstraat,50,,,3089RC,Rotterdam,Rotterdam,Zuid-Holland,VBO,4.419598,51.896287
Heijplaatstraat,52,,,3089RC,Rotterdam,Rotterdam,Zuid-Holland,VBO,4.419530,51.896258
Heijplaatstraat,54,,,3089RC,Rotterdam,Rotterdam,Zuid-Holland,VBO,4.419457,51.896252
Heijplaatstraat,56,,,3089RC,Rotterdam,Rotterdam,Zuid-Holland,VBO,4.419386,51.896246
Heijplaatstraat,58,,,3089RC,Rotterdam,Rotterdam,Zuid-Holland,VBO,4.419316,51.896230
Heijplaatstraat,60,,,3089RC,Rotterdam,Rotterdam,Zuid-Holland,VBO,4.419019,51.896206
Heijplaatstraat,62,,,3089RC,Rotterdam,Rotterdam,Zuid-Holland,VBO,4.418944,51.896212
Heijplaatstraat,64,,,3089RC,Rotterdam,Rotterdam,Zuid-Holland,VBO,4.418865,51.896205
Letostraat,5,,,3089RD,Rotterdam,Rotterdam,Zuid-Holland,VBO,4.420373,51.894283
Letostraat,8,,,3089RD,Rotterdam,Rotterdam,Zuid-Holland,VBO,4.420830,51.894235
Letostraat,10,,,3089RD,Rotterdam,Rotterdam,Zuid-Holland,VBO,4.420752,51.894210
Letostraat,12,,,3089RD,Rotterdam,Rotterdam,Zuid-Holland,VBO,4.420698,51.894131
Letostraat,14,,,3089RD,Rotterdam,Rotterdam,Zuid-Holland,VBO,4.420624,51.894105
Letostraat,16,,,3089RD,Rotterdam,Rotterdam,Zuid-Holland,VBO,4.420548,51.894085
Letostraat,18,,,3089RD,Rotterdam,Rotterdam,Zuid-Holland,VBO,4.420470,51.894059
Letostraat,20,,,3089RD,Rotterdam,Rotterdam,Zuid-Holland,VBO,4.420396,51.894036
Letostraat,22,,,3089RD,Rotterdam,Rotterdam,Zuid-Holland,VBO,4.420262,51.894051
Letostraat,24,,,3089RD,Rotterdam,Rotterdam,Zuid-Holland,VBO,4.420199,51.894031
Mijdrechtstraat,1,,,3089RE,Rotterdam,Rotterdam,Zuid-Holland,VBO,4.421366,51.896146
Mijdrechtstraat,3,,,3089RE,Rotterdam,Rotterdam,Zuid-Holland,VBO,4.421181,51.896123
Mijdrechtstraat,5,,,3089RE,Rotterdam,Rotterdam,Zuid-Holland,VBO,4.421111,51.896104
Mijdrechtstraat,7,,,3089RE,Rotterdam,Rotterdam,Zuid-Holland,VBO,4.421049,51.896085
Mijdrechtstraat,9,,,3089RE,Rotterdam,Rotterdam,Zuid-Holland,VBO,4.420984,51.896062
Mijdrechtstraat,13,,,3089RE,Rotterdam,Rotterdam,Zuid-Holland,VBO,4.420802,51.895988
Mijdrechtstraat,15,,,3089RE,Rotterdam,Rotterdam,Zuid-Holland,VBO,4.420359,51.895861
Mijdrechtstraat,19,,,3089RE,Rotterdam,Rotterdam,Zuid-Holland,VBO,4.420118,51.895794
Mijdrechtstraat,21,,,3089RE,Rotterdam,Rotterdam,Zuid-Holland,VBO,4.420039,51.895771
Mijdrechtstraat,25,,,3089RE,Rotterdam,Rotterdam,Zuid-Holland,VBO,4.419828,51.895717
Mijdrechtstraat,27,,,3089RE,Rotterdam,Rotterdam,Zuid-Holland,VBO,4.419562,51.895641
Mijdrechtstraat,29,,,3089RE,Rotterdam,Rotterdam,Zuid-Holland,VBO,4.419404,51.895595
Mijdrechtstraat,31,,,3089RE,Rotterdam,Rotterdam,Zuid-Holland,VBO,4.419323,51.895572
Mijdrechtstraat,33,,,3089RE,Rotterdam,Rotterdam,Zuid-Holland,VBO,4.419246,51.895549
Mijdrechtstraat,35,,,3089RE,Rotterdam,Rotterdam,Zuid-Holland,VBO,4.419102,51.895527
Mijdrechtstraat,37,,,3089RE,Rotterdam,Rotterdam,Zuid-Holland,VBO,4.419044,51.895505
Mijdrechtstraat,4,,,3089RG,Rotterdam,Rotterdam,Zuid-Holland,VBO,4.421293,51.895959
Mijdrechtstraat,6,,,3089RG,Rotterdam,Rotterdam,Zuid-Holland,VBO,4.421244,51.895908
Mijdrechtstraat,8,,,3089RG,Rotterdam,Rotterdam,Zuid-Holland,VBO,4.421168,51.895888
Mijdrechtstraat,10,,,3089RG,Rotterdam,Rotterdam,Zuid-Holland,VBO,4.421083,51.895861
Mijdrechtstraat,14,,,3089RG,Rotterdam,Rotterdam,Zuid-Holland,VBO,4.420490,51.895712
Mijdrechtstraat,18,,,3089RG,Rotterdam,Rotterdam,Zuid-Holland,VBO,4.420238,51.895641
Mijdrechtstraat,20,,,3089RG,Rotterdam,Rotterdam,Zuid-Holland,VBO,4.420155,51.895617
Mijdrechtstraat,24,,,3089RG,Rotterdam,Rotterdam,Zuid-Holland,VBO,4.419949,51.895558
Mijdrechtstraat,26,,,3089RG,Rotterdam,Rotterdam,Zuid-Holland,VBO,4.419659,51.895475
Mijdrechtstraat,28,,,3089RG,Rotterdam,Rotterdam,Zuid-Holland,VBO,4.419506,51.895432
Mijdrechtstraat,30,,,3089RG,Rotterdam,Rotterdam,Zuid-Holland,VBO,4.419429,51.895409
Mijdrechtstraat,32,,,3089RG,Rotterdam,Rotterdam,Zuid-Holland,VBO,4.419359,51.895390
Mijdrechtstraat,34,,,3089RG,Rotterdam,Rotterdam,Zuid-Holland,VBO,4.419249,51.895337
Rondoplein,1,,,3089RH,Rotterdam,Rotterdam,Zuid-Holland,VBO,4.421371,51.894669
Rondoplein,2,,,3089RH,Rotterdam,Rotterdam,Zuid-Holland,VBO,4.421186,51.894640
Rondoplein,3,,,3089RH,Rotterdam,Rotterdam,Zuid-Holland,VBO,4.421121,51.894619
Rondoplein,4,,,3089RH,Rotterdam,Rotterdam,Zuid-Holland,VBO,4.421054,51.894597
Rondoplein,10,,,3089RH,Rotterdam,Rotterdam,Zuid-Holland,VBO,4.421170,51.894124
Rondoplein,14,,,3089RH,Rotterdam,Rotterdam,Zuid-Holland,VBO,4.421713,51.893818
Rondoplein,15,,,3089RH,Rotterdam,Rotterdam,Zuid-Holland,VBO,4.421781,51.893839
Rondoplein,16,,,3089RH,Rotterdam,Rotterdam,Zuid-Holland,VBO,4.421845,51.893860
Turbiniastraat,4,,,3089RJ,Rotterdam,Rotterdam,Zuid-Holland,VBO,4.421129,51.893759
Turbiniastraat,6,,,3089RJ,Rotterdam,Rotterdam,Zuid-Holland,VBO,4.421000,51.893716
Turbiniastraat,7,,,3089RJ,Rotterdam,Rotterdam,Zuid-Holland,VBO,4.421069,51.893932
Turbiniastraat,8,,,3089RJ,Rotterdam,Rotterdam,Zuid-Holland,VBO,4.420946,51.893698
Turbiniastraat,9,,,3089RJ,Rotterdam,Rotterdam,Zuid-Holland,VBO,4.420993,51.893908
Turbiniastraat,10,,,3089RJ,Rotterdam,Rotterdam,Zuid-Holland,VBO,4.420889,51.893680
Turbiniastraat,11,,,3089RJ,Rotterdam,Rotterdam,Zuid-Holland,VBO,4.420873,51.893878
Turbiniastraat,12,,,3089RJ,Rotterdam,Rotterdam,Zuid-Holland,VBO,4.420829,51.893660
Turbiniastraat,13,,,3089RJ,Rotterdam,Rotterdam,Zuid-Holland,VBO,4.420807,51.893838
Turbiniastraat,14,,,3089RJ,Rotterdam,Rotterdam,Zuid-Holland,VBO,4.420775,51.893640
Turbiniastraat,15,,,3089RJ,Rotterdam,Rotterdam,Zuid-Holland,VBO,4.420736,51.893815
Turbiniastraat,16,,,3089RJ,Rotterdam,Rotterdam,Zuid-Holland,VBO,4.420710,51.893618
Turbiniastraat,17,,,3089RJ,Rotterdam,Rotterdam,Zuid-Holland,VBO,4.420662,51.893790
Turbiniastraat,18,,,3089RJ,Rotterdam,Rotterdam,Zuid-Holland,VBO,4.420604,51.893554
Turbiniastraat,19,,,3089RJ,Rotterdam,Rotterdam,Zuid-Holland,VBO,4.420581,51.893784
Vestaplein,3,,,3089RK,Rotterdam,Rotterdam,Zuid-Holland,VBO,4.419052,51.896070
Vestaplein,4,,,3089RK,Rotterdam,Rotterdam,Zuid-Holland,VBO,4.419388,51.896022
Vestaplein,5,A,,3089RK,Rotterdam,Rotterdam,Zuid-Holland,VBO,4.419113,51.896022
Vestaplein,5,B,,3089RK,Rotterdam,Rotterdam,Zuid-Holland,VBO,4.419113,51.896022
Vestaplein,6,,,3089RK,Rotterdam,Rotterdam,Zuid-Holland,VBO,4.419495,51.896055
Vestaplein,7,,,3089RK,Rotterdam,Rotterdam,Zuid-Holland,VBO,4.419157,51.895964
Vestaplein,8,A,,3089RK,Rotterdam,Rotterdam,Zuid-Holland,VBO,4.419586,51.896081
Vestaplein,8,B,,3089RK,Rotterdam,Rotterdam,Zuid-Holland,VBO,4.419586,51.896081
Vestaplein,9,,,3089RK,Rotterdam,Rotterdam,Zuid-Holland,VBO,4.419168,51.895903
Vestaplein,10,,,3089RK,Rotterdam,Rotterdam,Zuid-Holland,VBO,4.419658,51.896047
Vestaplein,11,A,,3089RK,Rotterdam,Rotterdam,Zuid-Holland,VBO,4.419211,51.895849
Vestaplein,11,B,,3089RK,Rotterdam,Rotterdam,Zuid-Holland,VBO,4.419211,51.895849
Vestaplein,12,,,3089RK,Rotterdam,Rotterdam,Zuid-Holland,VBO,4.419686,51.896008
Vestaplein,13,A,,3089RK,Rotterdam,Rotterdam,Zuid-Holland,VBO,4.419249,51.895793
Vestaplein,13,B,,3089RK,Rotterdam,Rotterdam,Zuid-Holland,VBO,4.419249,51.895793
Vestaplein,14,A,,3089RK,Rotterdam,Rotterdam,Zuid-Holland,VBO,4.419712,51.895942
Vestaplein,14,B,,3089RK,Rotterdam,Rotterdam,Zuid-Holland,VBO,4.419712,51.895942
Vestaplein,14,C,,3089RK,Rotterdam,Rotterdam,Zuid-Holland,VBO,4.419712,51.895942
Vestaplein,16,,,3089RK,Rotterdam,Rotterdam,Zuid-Holland,VBO,4.419782,51.895885
Vestaplein,17,,,3089RK,Rotterdam,Rotterdam,Zuid-Holland,VBO,4.419435,51.895738
Vestaplein,18,,,3089RK,Rotterdam,Rotterdam,Zuid-Holland,VBO,4.419811,51.895846
Vestaplein,19,,,3089RK,Rotterdam,Rotterdam,Zuid-Holland,VBO,4.419533,51.895720
Vestaplein,20,,,3089RK,Rotterdam,Rotterdam,Zuid-Holland,VBO,4.419732,51.895775
Vestaplein,21,,,3089RK,Rotterdam,Rotterdam,Zuid-Holland,VBO,4.419563,51.895679
Vestaplein,22,,,3089RK,Rotterdam,Rotterdam,Zuid-Holland,VBO,4.419761,51.895736
Vestastraat,1,,,3089RL,Rotterdam,Rotterdam,Zuid-Holland,VBO,4.419757,51.895440
Vestastraat,3,,,3089RL,Rotterdam,Rotterdam,Zuid-Holland,VBO,4.419787,51.895398
Vestastraat,5,,,3089RL,Rotterdam,Rotterdam,Zuid-Holland,VBO,4.419793,51.895346
Vestastraat,7,,,3089RL,Rotterdam,Rotterdam,Zuid-Holland,VBO,4.419876,51.895294
Vestastraat,9,,,3089RL,Rotterdam,Rotterdam,Zuid-Holland,VBO,4.419922,51.895237
Vestastraat,15,,,3089RL,Rotterdam,Rotterdam,Zuid-Holland,VBO,4.419978,51.894910
Vestastraat,19,A,,3089RL,Rotterdam,Rotterdam,Zuid-Holland,VBO,4.420434,51.894718
Vestastraat,19,B,,3089RL,Rotterdam,Rotterdam,Zuid-Holland,VBO,4.420434,51.894718
Vestastraat,19,C,,3089RL,Rotterdam,Rotterdam,Zuid-Holland,VBO,4.420434,51.894718
Vestastraat,19,D,,3089RL,Rotterdam,Rotterdam,Zuid-Holland,VBO,4.420434,51.894718
Vestastraat,19,E,,3089RL,Rotterdam,Rotterdam,Zuid-Holland,VBO,4.420383,51.894707
Vestastraat,21,,,3089RL,Rotterdam,Rotterdam,Zuid-Holland,VBO,4.420490,51.894618
Vestastraat,23,,,3089RL,Rotterdam,Rotterdam,Zuid-Holland,VBO,4.420556,51.894570
Vestastraat,25,,,3089RL,Rotterdam,Rotterdam,Zuid-Holland,VBO,4.420587,51.894533
Vestastraat,29,,,3089RL,Rotterdam,Rotterdam,Zuid-Holland,VBO,4.420645,51.894463
Vestastraat,31,,,3089RL,Rotterdam,Rotterdam,Zuid-Holland,VBO,4.420683,51.894422
Vestastraat,33,,,3089RL,Rotterdam,Rotterdam,Zuid-Holland,VBO,4.420706,51.894358
Vestastraat,2,,,3089RM,Rotterdam,Rotterdam,Zuid-Holland,VBO,4.419969,51.895498
Vestastraat,4,,,3089RM,Rotterdam,Rotterdam,Zuid-Holland,VBO,4.419996,51.895460
Vestastraat,6,,,3089RM,Rotterdam,Rotterdam,Zuid-Holland,VBO,4.420063,51.895422
Vestastraat,8,A,,3089RM,Rotterdam,Rotterdam,Zuid-Holland,VBO,4.420082,51.895359
Vestastraat,8,B,,3089RM,Rotterdam,Rotterdam,Zuid-Holland,VBO,4.420082,51.895359
Vestastraat,10,A,,3089RM,Rotterdam,Rotterdam,Zuid-Holland,VBO,4.420129,51.895302
Vestastraat,10,B,,3089RM,Rotterdam,Rotterdam,Zuid-Holland,VBO,4.420129,51.895302
Vestastraat,12,A,,3089RM,Rotterdam,Rotterdam,Zuid-Holland,VBO,4.420307,51.895277
Vestastraat,12,B,,3089RM,Rotterdam,Rotterdam,Zuid-Holland,VBO,4.420307,51.895277
Vestastraat,14,A,,3089RM,Rotterdam,Rotterdam,Zuid-Holland,VBO,4.420365,51.895206
Vestastraat,14,B,,3089RM,Rotterdam,Rotterdam,Zuid-Holland,VBO,4.420365,51.895206
Vestastraat,16,A,,3089RM,Rotterdam,Rotterdam,Zuid-Holland,VBO,4.420437,51.895133
Vestastraat,16,B,,3089RM,Rotterdam,Rotterdam,Zuid-Holland,VBO,4.420437,51.895133
Vestastraat,18,A,,3089RM,Rotterdam,Rotterdam,Zuid-Holland,VBO,4.420492,51.895069
Vestastraat,18,B,,3089RM,Rotterdam,Rotterdam,Zuid-Holland,VBO,4.420492,51.895069
Vestastraat,20,A,,3089RM,Rotterdam,Rotterdam,Zuid-Holland,VBO,4.420547,51.895003
Vestastraat,20,B,,3089RM,Rotterdam,Rotterdam,Zuid-Holland,VBO,4.420547,51.895003
Vestastraat,22,A,,3089RM,Rotterdam,Rotterdam,Zuid-Holland,VBO,4.420601,51.894928
Vestastraat,22,B,,3089RM,Rotterdam,Rotterdam,Zuid-Holland,VBO,4.420601,51.894928
Vestastraat,24,A,,3089RM,Rotterdam,Rotterdam,Zuid-Holland,VBO,4.420655,51.894863
Vestastraat,24,B,,3089RM,Rotterdam,Rotterdam,Zuid-Holland,VBO,4.420655,51.894863
Vestastraat,26,A,,3089RM,Rotterdam,Rotterdam,Zuid-Holland,VBO,4.420654,51.894784
Vestastraat,26,B,,3089RM,Rotterdam,Rotterdam,Zuid-Holland,VBO,4.420654,51.894784
Vestastraat,28,,,3089RM,Rotterdam,Rotterdam,Zuid-Holland,VBO,4.420769,51.894729
Vestastraat,30,,,3089RM,Rotterdam,Rotterdam,Zuid-Holland,VBO,4.420802,51.894690
Vestastraat,32,A,,3089RM,Rotterdam,Rotterdam,Zuid-Holland,VBO,4.420809,51.894614
Vestastraat,32,B,,3089RM,Rotterdam,Rotterdam,Zuid-Holland,VBO,4.420809,51.894614
Vestastraat,34,A,,3089RM,Rotterdam,Rotterdam,Zuid-Holland,VBO,4.420879,51.894533
Vestastraat,34,B,,3089RM,Rotterdam,Rotterdam,Zuid-Holland,VBO,4.420879,51.894533
Baandersstraat,5,,,3089RN,Rotterdam,Rotterdam,Zuid-Holland,VBO,4.421991,51.896349
Baandersstraat,7,,,3089RN,Rotterdam,Rotterdam,Zuid-Holland,VBO,4.421907,51.896325
Baandersstraat,9,,,3089RN,Rotterdam,Rotterdam,Zuid-Holland,VBO,4.421806,51.896306
Baandersstraat,11,,,3089RN,Rotterdam,Rotterdam,Zuid-Holland,VBO,4.421654,51.896234
Baandersstraat,13,,,3089RN,Rotterdam,Rotterdam,Zuid-Holland,VBO,4.421534,51.895997
Baandersstraat,15,,,3089RN,Rotterdam,Rotterdam,Zuid-Holland,VBO,4.421582,51.895951
Baandersstraat,17,,,3089RN,Rotterdam,Rotterdam,Zuid-Holland,VBO,4.421643,51.895919
Baandersstraat,19,,,3089RN,Rotterdam,Rotterdam,Zuid-Holland,VBO,4.421717,51.895892
Ampenanstraat,1,A,,3089SE,Rotterdam,Rotterdam,Zuid-Holland,VBO,4.420965,51.891509
Ampenanstraat,1,B,,3089SE,Rotterdam,Rotterdam,Zuid-Holland,VBO,4.421018,51.891449
Ampenanstraat,3,B,,3089SE,Rotterdam,Rotterdam,Zuid-Holland,VBO,4.420943,51.891425
Ampenanstraat,5,A,,3089SE,Rotterdam,Rotterdam,Zuid-Holland,VBO,4.420825,51.891464
Ampenanstraat,5,B,,3089SE,Rotterdam,Rotterdam,Zuid-Holland,VBO,4.420874,51.891402
Ampenanstraat,7,A,,3089SE,Rotterdam,Rotterdam,Zuid-Holland,VBO,4.420758,51.891445
Ampenanstraat,7,B,,3089SE,Rotterdam,Rotterdam,Zuid-Holland,VBO,4.420800,51.891378
Ampenanstraat,9,A,,3089SE,Rotterdam,Rotterdam,Zuid-Holland,VBO,4.420542,51.891375
Ampenanstraat,9,B,,3089SE,Rotterdam,Rotterdam,Zuid-Holland,VBO,4.420734,51.891357
Ampenanstraat,11,A,,3089SE,Rotterdam,Rotterdam,Zuid-Holland,VBO,4.420542,51.891375
Ampenanstraat,11,B,,3089SE,Rotterdam,Rotterdam,Zuid-Holland,VBO,4.420652,51.891345
Ampenanstraat,13,A,,3089SE,Rotterdam,Rotterdam,Zuid-Holland,VBO,4.420542,51.891375
Ampenanstraat,13,B,,3089SE,Rotterdam,Rotterdam,Zuid-Holland,VBO,4.420587,51.891323
Ampenanstraat,15,A,,3089SE,Rotterdam,Rotterdam,Zuid-Holland,VBO,4.420507,51.891316
Ampenanstraat,15,B,,3089SE,Rotterdam,Rotterdam,Zuid-Holland,VBO,4.420514,51.891300
Boudewijns-Hartslandstraat,1,,,3089SH,Rotterdam,Rotterdam,Zuid-Holland,VBO,4.421974,51.888658
Boudewijns-Hartslandstraat,2,,,3089SH,Rotterdam,Rotterdam,Zuid-Holland,VBO,4.421905,51.888675
Boudewijns-Hartslandstraat,3,,,3089SH,Rotterdam,Rotterdam,Zuid-Holland,VBO,4.421832,51.888691
Boudewijns-Hartslandstraat,4,,,3089SH,Rotterdam,Rotterdam,Zuid-Holland,VBO,4.421759,51.888706
Boudewijns-Hartslandstraat,5,,,3089SH,Rotterdam,Rotterdam,Zuid-Holland,VBO,4.421687,51.888722
Boudewijns-Hartslandstraat,6,,,3089SH,Rotterdam,Rotterdam,Zuid-Holland,VBO,4.421614,51.888738
Boudewijns-Hartslandstraat,7,,,3089SH,Rotterdam,Rotterdam,Zuid-Holland,VBO,4.421542,51.888753
Boudewijns-Hartslandstraat,8,,,3089SH,Rotterdam,Rotterdam,Zuid-Holland,VBO,4.421469,51.888769
Boudewijns-Hartslandstraat,9,,,3089SH,Rotterdam,Rotterdam,Zuid-Holland,VBO,4.421394,51.888785
Deijffelsestraat,1,,,3089SK,Rotterdam,Rotterdam,Zuid-Holland,VBO,4.422258,51.889169
Deijffelsestraat,2,,,3089SK,Rotterdam,Rotterdam,Zuid-Holland,VBO,4.422180,51.889185
Deijffelsestraat,3,,,3089SK,Rotterdam,Rotterdam,Zuid-Holland,VBO,4.422098,51.889203
Deijffelsestraat,4,,,3089SK,Rotterdam,Rotterdam,Zuid-Holland,VBO,4.422016,51.889221
Deijffelsestraat,5,,,3089SK,Rotterdam,Rotterdam,Zuid-Holland,VBO,4.421933,51.889239
Deijffelsestraat,6,,,3089SK,Rotterdam,Rotterdam,Zuid-Holland,VBO,4.421851,51.889258
Deijffelsestraat,7,,,3089SK,Rotterdam,Rotterdam,Zuid-Holland,VBO,4.421769,51.889275
Deijffelsestraat,8,,,3089SK,Rotterdam,Rotterdam,Zuid-Holland,VBO,4.421687,51.889293
Elimstraat,1,,,3089SL,Rotterdam,Rotterdam,Zuid-Holland,VBO,4.422403,51.889423
Elimstraat,2,,,3089SL,Rotterdam,Rotterdam,Zuid-Holland,VBO,4.422322,51.889441
Elimstraat,3,,,3089SL,Rotterdam,Rotterdam,Zuid-Holland,VBO,4.422241,51.889459
Elimstraat,4,,,3089SL,Rotterdam,Rotterdam,Zuid-Holland,VBO,4.422159,51.889478
Elimstraat,5,,,3089SL,Rotterdam,Rotterdam,Zuid-Holland,VBO,4.422078,51.889495
Elimstraat,6,,,3089SL,Rotterdam,Rotterdam,Zuid-Holland,VBO,4.421996,51.889513
Elimstraat,7,,,3089SL,Rotterdam,Rotterdam,Zuid-Holland,VBO,4.421915,51.889531
Elimstraat,8,,,3089SL,Rotterdam,Rotterdam,Zuid-Holland,VBO,4.421829,51.889550
Karimunstraat,18,,,3089SM,Rotterdam,Rotterdam,Zuid-Holland,VBO,4.419788,51.891202
Karimunstraat,20,,,3089SM,Rotterdam,Rotterdam,Zuid-Holland,VBO,4.419788,51.891202
Karimunstraat,24,,,3089SM,Rotterdam,Rotterdam,Zuid-Holland,VBO,4.418561,51.890933
Kiesheidstraat,1,,,3089SN,Rotterdam,Rotterdam,Zuid-Holland,VBO,4.422122,51.888915
Kiesheidstraat,2,,,3089SN,Rotterdam,Rotterdam,Zuid-Holland,VBO,4.422051,51.888930
Kiesheidstraat,3,,,3089SN,Rotterdam,Rotterdam,Zuid-Holland,VBO,4.421978,51.888945
Kiesheidstraat,4,,,3089SN,Rotterdam,Rotterdam,Zuid-Holland,VBO,4.421902,51.888963
Kiesheidstraat,5,,,3089SN,Rotterdam,Rotterdam,Zuid-Holland,VBO,4.421784,51.888988
Kiesheidstraat,6,,,3089SN,Rotterdam,Rotterdam,Zuid-Holland,VBO,4.421703,51.889005
Kiesheidstraat,7,,,3089SN,Rotterdam,Rotterdam,Zuid-Holland,VBO,4.421621,51.889023
Kiesheidstraat,8,,,3089SN,Rotterdam,Rotterdam,Zuid-Holland,VBO,4.421541,51.889041
Koedoodstraat,2,,,3089ST,Rotterdam,Rotterdam,Zuid-Holland,VBO,4.422588,51.889244
Koedoodstraat,4,,,3089ST,Rotterdam,Rotterdam,Zuid-Holland,VBO,4.422573,51.889218
Koedoodstraat,6,,,3089ST,Rotterdam,Rotterdam,Zuid-Holland,VBO,4.422558,51.889191
Koedoodstraat,8,,,3089ST,Rotterdam,Rotterdam,Zuid-Holland,VBO,4.422543,51.889165
Koedoodstraat,30,,,3089ST,Rotterdam,Rotterdam,Zuid-Holland,VBO,4.422479,51.888352
Koedoodstraat,32,,,3089ST,Rotterdam,Rotterdam,Zuid-Holland,VBO,4.422479,51.888352
Koedoodstraat,34,,,3089ST,Rotterdam,Rotterdam,Zuid-Holland,VBO,4.422479,51.888352
Koedoodstraat,36,,,3089ST,Rotterdam,Rotterdam,Zuid-Holland,VBO,4.422479,51.888352
Koedoodstraat,38,,,3089ST,Rotterdam,Rotterdam,Zuid-Holland,VBO,4.422479,51.888352
Koedoodstraat,40,,,3089ST,Rotterdam,Rotterdam,Zuid-Holland,VBO,4.422479,51.888352
Koedoodstraat,42,,,3089ST,Rotterdam,Rotterdam,Zuid-Holland,VBO,4.422479,51.888352
Koedoodstraat,44,,,3089ST,Rotterdam,Rotterdam,Zuid-Holland,VBO,4.422420,51.888248
Koedoodstraat,46,,,3089ST,Rotterdam,Rotterdam,Zuid-Holland,VBO,4.422420,51.888248
Koedoodstraat,48,,,3089ST,Rotterdam,Rotterdam,Zuid-Holland,VBO,4.422420,51.888248
Koedoodstraat,50,,,3089ST,Rotterdam,Rotterdam,Zuid-Holland,VBO,4.422420,51.888248
Koedoodstraat,52,,,3089ST,Rotterdam,Rotterdam,Zuid-Holland,VBO,4.422420,51.888248
Koedoodstraat,54,,,3089ST,Rotterdam,Rotterdam,Zuid-Holland,VBO,4.422420,51.888248
Koedoodstraat,56,,,3089ST,Rotterdam,Rotterdam,Zuid-Holland,VBO,4.422420,51.888248
Koedoodstraat,58,,,3089ST,Rotterdam,Rotterdam,Zuid-Holland,VBO,4.422362,51.888143
Koedoodstraat,60,,,3089ST,Rotterdam,Rotterdam,Zuid-Holland,VBO,4.422362,51.888143
Koedoodstraat,62,,,3089ST,Rotterdam,Rotterdam,Zuid-Holland,VBO,4.422362,51.888143
Koedoodstraat,64,,,3089ST,Rotterdam,Rotterdam,Zuid-Holland,VBO,4.422362,51.888143
Koedoodstraat,66,,,3089ST,Rotterdam,Rotterdam,Zuid-Holland,VBO,4.422362,51.888143
Koedoodstraat,68,,,3089ST,Rotterdam,Rotterdam,Zuid-Holland,VBO,4.422362,51.888143
Koedoodstraat,70,,,3089ST,Rotterdam,Rotterdam,Zuid-Holland,VBO,4.422362,51.888143
Koedoodstraat,72,,,3089ST,Rotterdam,Rotterdam,Zuid-Holland,VBO,4.422299,51.888035
Koedoodstraat,74,,,3089ST,Rotterdam,Rotterdam,Zuid-Holland,VBO,4.422299,51.888035
Koedoodstraat,76,,,3089ST,Rotterdam,Rotterdam,Zuid-Holland,VBO,4.422299,51.888035
Koedoodstraat,78,,,3089ST,Rotterdam,Rotterdam,Zuid-Holland,VBO,4.422299,51.888035
Koedoodstraat,80,,,3089ST,Rotterdam,Rotterdam,Zuid-Holland,VBO,4.422299,51.888035
Koedoodstraat,82,,,3089ST,Rotterdam,Rotterdam,Zuid-Holland,VBO,4.422299,51.888035
Koedoodstraat,84,,,3089ST,Rotterdam,Rotterdam,Zuid-Holland,VBO,4.422299,51.888035
Waarderstraat,1,,,3089SW,Rotterdam,Rotterdam,Zuid-Holland,VBO,4.422741,51.889247
Waarderstraat,2,,,3089SW,Rotterdam,Rotterdam,Zuid-Holland,VBO,4.422842,51.889226
Waarderstraat,3,,,3089SW,Rotterdam,Rotterdam,Zuid-Holland,VBO,4.422943,51.889202
Waarderstraat,4,,,3089SW,Rotterdam,Rotterdam,Zuid-Holland,VBO,4.423052,51.889178
Waarderstraat,5,,,3089SW,Rotterdam,Rotterdam,Zuid-Holland,VBO,4.423154,51.889155
Zeven Provinciënplein,1,,,3089SX,Rotterdam,Rotterdam,Zuid-Holland,VBO,4.420965,51.891509
Zeven Provinciënplein,2,,,3089SX,Rotterdam,Rotterdam,Zuid-Holland,VBO,4.420895,51.891487
Zeven Provinciënplein,3,,,3089SX,Rotterdam,Rotterdam,Zuid-Holland,VBO,4.420825,51.891464
Zeven Provinciënplein,4,,,3089SX,Rotterdam,Rotterdam,Zuid-Holland,VBO,4.420758,51.891445
Zeven Provinciënplein,5,,,3089SX,Rotterdam,Rotterdam,Zuid-Holland,VBO,4.420542,51.891375
Zeven Provinciënplein,6,,,3089SX,Rotterdam,Rotterdam,Zuid-Holland,VBO,4.420542,51.891375
Zeven Provinciënplein,7,,,3089SX,Rotterdam,Rotterdam,Zuid-Holland,VBO,4.420542,51.891375
Zeven Provinciënplein,9,,,3089SX,Rotterdam,Rotterdam,Zuid-Holland,VBO,4.420507,51.891316
Zeven Provinciënplein,10,,,3089SX,Rotterdam,Rotterdam,Zuid-Holland,VBO,4.420364,51.891482
Corydastraat,21,,,3089TA,Rotterdam,Rotterdam,Zuid-Holland,VBO,4.419031,51.891315
Corydastraat,41,,,3089TA,Rotterdam,Rotterdam,Zuid-Holland,VBO,4.419736,51.890730
Duivendrechtstraat,1,,,3089TD,Rotterdam,Rotterdam,Zuid-Holland,VBO,4.417187,51.891483
Duivendrechtstraat,3,,,3089TD,Rotterdam,Rotterdam,Zuid-Holland,VBO,4.417222,51.891439
Duivendrechtstraat,5,,,3089TD,Rotterdam,Rotterdam,Zuid-Holland,VBO,4.417260,51.891392
Duivendrechtstraat,7,,,3089TD,Rotterdam,Rotterdam,Zuid-Holland,VBO,4.417294,51.891350
Duivendrechtstraat,9,,,3089TD,Rotterdam,Rotterdam,Zuid-Holland,VBO,4.417379,51.891302
Duivendrechtstraat,11,,,3089TD,Rotterdam,Rotterdam,Zuid-Holland,VBO,4.417402,51.891252
Duivendrechtstraat,13,,,3089TD,Rotterdam,Rotterdam,Zuid-Holland,VBO,4.417439,51.891209
Duivendrechtstraat,15,,,3089TD,Rotterdam,Rotterdam,Zuid-Holland,VBO,4.417477,51.891165
Duivendrechtstraat,17,,,3089TD,Rotterdam,Rotterdam,Zuid-Holland,VBO,4.417515,51.891121
Duivendrechtstraat,19,,,3089TD,Rotterdam,Rotterdam,Zuid-Holland,VBO,4.417550,51.891077
Heysekade,1,,,3089TE,Rotterdam,Rotterdam,Zuid-Holland,VBO,4.420537,51.892801
Heysekade,2,A,,3089TE,Rotterdam,Rotterdam,Zuid-Holland,VBO,4.420512,51.892682
Heysekade,2,B,,3089TE,Rotterdam,Rotterdam,Zuid-Holland,VBO,4.420512,51.892682
Heysekade,2,C,,3089TE,Rotterdam,Rotterdam,Zuid-Holland,VBO,4.420512,51.892682
Heysekade,2,D,,3089TE,Rotterdam,Rotterdam,Zuid-Holland,VBO,4.420512,51.892682
Heysekade,2,E,,3089TE,Rotterdam,Rotterdam,Zuid-Holland,VBO,4.420512,51.892682
Heysekade,2,F,,3089TE,Rotterdam,Rotterdam,Zuid-Holland,VBO,4.420512,51.892682
Heysekade,2,G,,3089TE,Rotterdam,Rotterdam,Zuid-Holland,VBO,4.420512,51.892682
Heysekade,2,H,,3089TE,Rotterdam,Rotterdam,Zuid-Holland,VBO,4.420513,51.892682
Heysekade,2,J,,3089TE,Rotterdam,Rotterdam,Zuid-Holland,VBO,4.420512,51.892682
Heysekade,2,K,,3089TE,Rotterdam,Rotterdam,Zuid-Holland,VBO,4.420512,51.892682
Heysekade,2,L,,3089TE,Rotterdam,Rotterdam,Zuid-Holland,VBO,4.420512,51.892682
Heysekade,2,M,,3089TE,Rotterdam,Rotterdam,Zuid-Holland,VBO,4.420512,51.892682
Heysekade,2,N,,3089TE,Rotterdam,Rotterdam,Zuid-Holland,VBO,4.420512,51.892682
Heysekade,2,P,,3089TE,Rotterdam,Rotterdam,Zuid-Holland,VBO,4.420513,51.892682
Heysekade,2,Q,,3089TE,Rotterdam,Rotterdam,Zuid-Holland,VBO,4.420512,51.892682
Heysekade,2,R,,3089TE,Rotterdam,Rotterdam,Zuid-Holland,VBO,4.420512,51.892682
Heysekade,3,A,,3089TE,Rotterdam,Rotterdam,Zuid-Holland,VBO,4.420512,51.892682
Heysekade,3,B,,3089TE,Rotterdam,Rotterdam,Zuid-Holland,VBO,4.420512,51.892682
Heysekade,3,C,,3089TE,Rotterdam,Rotterdam,Zuid-Holland,VBO,4.420512,51.892682
Heysekade,3,D,,3089TE,Rotterdam,Rotterdam,Zuid-Holland,VBO,4.420512,51.892682
Heysekade,3,E,,3089TE,Rotterdam,Rotterdam,Zuid-Holland,VBO,4.420512,51.892682
Heysekade,3,F,,3089TE,Rotterdam,Rotterdam,Zuid-Holland,VBO,4.420512,51.892682
Heysekade,3,G,,3089TE,Rotterdam,Rotterdam,Zuid-Holland,VBO,4.420512,51.892682
Heysekade,3,H,,3089TE,Rotterdam,Rotterdam,Zuid-Holland,VBO,4.420511,51.892682
Heysekade,3,J,,3089TE,Rotterdam,Rotterdam,Zuid-Holland,VBO,4.420512,51.892682
Heysekade,3,K,,3089TE,Rotterdam,Rotterdam,Zuid-Holland,VBO,4.420512,51.892682
Heysekade,3,L,,3089TE,Rotterdam,Rotterdam,Zuid-Holland,VBO,4.420511,51.892682
Heysekade,3,M,,3089TE,Rotterdam,Rotterdam,Zuid-Holland,VBO,4.420513,51.892682
Heysekade,3,N,,3089TE,Rotterdam,Rotterdam,Zuid-Holland,VBO,4.420512,51.892682
Heysekade,3,P,,3089TE,Rotterdam,Rotterdam,Zuid-Holland,VBO,4.420511,51.892682
Heysekade,3,Q,,3089TE,Rotterdam,Rotterdam,Zuid-Holland,VBO,4.420512,51.892682
Heysekade,3,R,,3089TE,Rotterdam,Rotterdam,Zuid-Holland,VBO,4.420512,51.892682
Heysekade,4,,,3089TE,Rotterdam,Rotterdam,Zuid-Holland,VBO,4.420341,51.892705
Heysekade,17,,,3089TH,Rotterdam,Rotterdam,Zuid-Holland,VBO,4.417852,51.891950
Heysekade,21,A,,3089TH,Rotterdam,Rotterdam,Zuid-Holland,VBO,4.417048,51.891674
Heysekade,21,B,,3089TH,Rotterdam,Rotterdam,Zuid-Holland,VBO,4.417048,51.891674
Heysekade,21,C,,3089TH,Rotterdam,Rotterdam,Zuid-Holland,VBO,4.417048,51.891674
Heysekade,22,A,,3089TH,Rotterdam,Rotterdam,Zuid-Holland,VBO,4.416904,51.891628
Heysekade,22,B,,3089TH,Rotterdam,Rotterdam,Zuid-Holland,VBO,4.416904,51.891628
Heysekade,22,C,,3089TH,Rotterdam,Rotterdam,Zuid-Holland,VBO,4.416904,51.891628
Heysekade,23,A,,3089TH,Rotterdam,Rotterdam,Zuid-Holland,VBO,4.416753,51.891578
Heysekade,23,B,,3089TH,Rotterdam,Rotterdam,Zuid-Holland,VBO,4.416753,51.891578
Heysekade,23,C,,3089TH,Rotterdam,Rotterdam,Zuid-Holland,VBO,4.416753,51.891578
Heysekade,24,A,,3089TH,Rotterdam,Rotterdam,Zuid-Holland,VBO,4.416606,51.891531
Heysekade,24,B,,3089TH,Rotterdam,Rotterdam,Zuid-Holland,VBO,4.416606,51.891531
Heysekade,24,C,,3089TH,Rotterdam,Rotterdam,Zuid-Holland,VBO,4.416606,51.891531
Guldelandstraat,1,,,3089TL,Rotterdam,Rotterdam,Zuid-Holland,VBO,4.422589,51.889005
Guldelandstraat,2,,,3089TL,Rotterdam,Rotterdam,Zuid-Holland,VBO,4.422675,51.888987
Guldelandstraat,3,,,3089TL,Rotterdam,Rotterdam,Zuid-Holland,VBO,4.422756,51.888970
Guldelandstraat,4,,,3089TL,Rotterdam,Rotterdam,Zuid-Holland,VBO,4.422834,51.888952
Guldelandstraat,5,,,3089TL,Rotterdam,Rotterdam,Zuid-Holland,VBO,4.422921,51.888933
Guldelandstraat,6,,,3089TL,Rotterdam,Rotterdam,Zuid-Holland,VBO,4.423007,51.888915
Hoenderhoekstraat,1,,,3089TM,Rotterdam,Rotterdam,Zuid-Holland,VBO,4.422451,51.888761
Hoenderhoekstraat,2,,,3089TM,Rotterdam,Rotterdam,Zuid-Holland,VBO,4.422534,51.888744
Hoenderhoekstraat,3,,,3089TM,Rotterdam,Rotterdam,Zuid-Holland,VBO,4.422617,51.888725
Hoenderhoekstraat,4,,,3089TM,Rotterdam,Rotterdam,Zuid-Holland,VBO,4.422698,51.888708
Hoenderhoekstraat,5,,,3089TM,Rotterdam,Rotterdam,Zuid-Holland,VBO,4.422782,51.888690
Hoenderhoekstraat,6,,,3089TM,Rotterdam,Rotterdam,Zuid-Holland,VBO,4.422865,51.888670
Karapad,1,,,3089TN,Rotterdam,Rotterdam,Zuid-Holland,VBO,4.416936,51.891126
Karapad,3,,,3089TN,Rotterdam,Rotterdam,Zuid-Holland,VBO,4.416899,51.891168
Karapad,5,,,3089TN,Rotterdam,Rotterdam,Zuid-Holland,VBO,4.416861,51.891214
Karapad,7,,,3089TN,Rotterdam,Rotterdam,Zuid-Holland,VBO,4.416828,51.891255
Karapad,9,,,3089TN,Rotterdam,Rotterdam,Zuid-Holland,VBO,4.416791,51.891298
Karapad,11,,,3089TN,Rotterdam,Rotterdam,Zuid-Holland,VBO,4.416755,51.891340
Rimonpad,2,,,3089TP,Rotterdam,Rotterdam,Zuid-Holland,VBO,4.416274,51.891401
Rimonpad,4,,,3089TP,Rotterdam,Rotterdam,Zuid-Holland,VBO,4.416310,51.891358
Rimonpad,6,,,3089TP,Rotterdam,Rotterdam,Zuid-Holland,VBO,4.416346,51.891313
Rimonpad,8,,,3089TP,Rotterdam,Rotterdam,Zuid-Holland,VBO,4.416383,51.891272
