openbareruimtenaam,huisnummer,huisletter,huisnummertoevoeging,postcode,woonplaatsnaam,gemeentenaam,provincienaam,typeadresseerbaarobject,longitude,latitude
Aleida van Strijenlaan,1,,,3211AA,Geervliet,Nissewaard,Zuid-Holland,VBO,4.264208,51.860503
Aleida van Strijenlaan,2,,,3211AA,Geervliet,Nissewaard,Zuid-Holland,VBO,4.263938,51.860248
Aleida van Strijenlaan,3,,,3211AA,Geervliet,Nissewaard,Zuid-Holland,VBO,4.264339,51.860486
Aleida van Strijenlaan,4,,,3211AA,Geervliet,Nissewaard,Zuid-Holland,VBO,4.264054,51.860258
Aleida van Strijenlaan,5,,,3211AA,Geervliet,Nissewaard,Zuid-Holland,VBO,4.264412,51.860487
Aleida van Strijenlaan,6,,,3211AA,Geervliet,Nissewaard,Zuid-Holland,VBO,4.264156,51.860259
Aleida van Strijenlaan,7,,,3211AA,Geervliet,Nissewaard,Zuid-Holland,VBO,4.264528,51.860470
Aleida van Strijenlaan,8,,,3211AA,Geervliet,Nissewaard,Zuid-Holland,VBO,4.264257,51.860269
Aleida van Strijenlaan,9,,,3211AA,Geervliet,Nissewaard,Zuid-Holland,VBO,4.264630,51.860462
Aleida van Strijenlaan,10,,,3211AA,Geervliet,Nissewaard,Zuid-Holland,VBO,4.264373,51.860280
Bernisseweg,1,,,3211AB,Geervliet,Nissewaard,Zuid-Holland,VBO,4.262307,51.859891
Bernisseweg,3,,,3211AB,Geervliet,Nissewaard,Zuid-Holland,VBO,4.262604,51.859899
Bernisseweg,5,,,3211AB,Geervliet,Nissewaard,Zuid-Holland,VBO,4.263060,51.859966
Bernisseweg,7,,,3211AB,Geervliet,Nissewaard,Zuid-Holland,VBO,4.263221,51.859913
Bernisseweg,9,,,3211AB,Geervliet,Nissewaard,Zuid-Holland,VBO,4.263322,51.859919
Bernisseweg,11,,,3211AB,Geervliet,Nissewaard,Zuid-Holland,VBO,4.263524,51.859984
Bernisseweg,13,,,3211AB,Geervliet,Nissewaard,Zuid-Holland,VBO,4.263625,51.859994
Bernisseweg,15,,,3211AB,Geervliet,Nissewaard,Zuid-Holland,VBO,4.264003,51.859979
Bernisseweg,17,,,3211AB,Geervliet,Nissewaard,Zuid-Holland,VBO,4.264105,51.859971
Bernisseweg,19,,,3211AB,Geervliet,Nissewaard,Zuid-Holland,VBO,4.264308,51.859969
Bernisseweg,21,,,3211AB,Geervliet,Nissewaard,Zuid-Holland,VBO,4.264410,51.859983
Bernisseweg,23,,,3211AB,Geervliet,Nissewaard,Zuid-Holland,VBO,4.264525,51.859993
Bernisseweg,27,,,3211AB,Geervliet,Nissewaard,Zuid-Holland,VBO,4.265193,51.860018
Bernisseweg,29,,,3211AB,Geervliet,Nissewaard,Zuid-Holland,VBO,4.265294,51.860041
Bernisseweg,31,,,3211AB,Geervliet,Nissewaard,Zuid-Holland,VBO,4.265468,51.860047
Bernisseweg,33,,,3211AB,Geervliet,Nissewaard,Zuid-Holland,VBO,4.265584,51.860039
Bernisseweg,35,,,3211AB,Geervliet,Nissewaard,Zuid-Holland,VBO,4.266164,51.860081
Bernisseweg,37,,,3211AB,Geervliet,Nissewaard,Zuid-Holland,VBO,4.266236,51.860109
Bernisseweg,39,,,3211AB,Geervliet,Nissewaard,Zuid-Holland,VBO,4.266322,51.860145
Bernisseweg,41,,,3211AB,Geervliet,Nissewaard,Zuid-Holland,VBO,4.266394,51.860173
Bernisseweg,43,,,3211AB,Geervliet,Nissewaard,Zuid-Holland,VBO,4.266466,51.860201
Bernisseweg,45,,,3211AB,Geervliet,Nissewaard,Zuid-Holland,VBO,4.266538,51.860228
Bernisseweg,47,,,3211AB,Geervliet,Nissewaard,Zuid-Holland,VBO,4.266639,51.860256
Bernisseweg,49,,,3211AB,Geervliet,Nissewaard,Zuid-Holland,VBO,4.266710,51.860284
Boomgaardweg,1,,,3211AC,Geervliet,Nissewaard,Zuid-Holland,VBO,4.260525,51.861465
Boomgaardweg,3,,,3211AC,Geervliet,Nissewaard,Zuid-Holland,VBO,4.260568,51.861511
Boomgaardweg,5,,,3211AC,Geervliet,Nissewaard,Zuid-Holland,VBO,4.260610,51.861556
Boomgaardweg,7,,,3211AC,Geervliet,Nissewaard,Zuid-Holland,VBO,4.260652,51.861637
Boomgaardweg,9,,,3211AC,Geervliet,Nissewaard,Zuid-Holland,VBO,4.260694,51.861683
Boomgaardweg,11,,,3211AC,Geervliet,Nissewaard,Zuid-Holland,VBO,4.260736,51.861737
Boomgaardweg,13,,,3211AC,Geervliet,Nissewaard,Zuid-Holland,VBO,4.260779,51.861782
Boomgaardweg,15,,,3211AC,Geervliet,Nissewaard,Zuid-Holland,VBO,4.260821,51.861828
Boomgaardweg,17,,,3211AC,Geervliet,Nissewaard,Zuid-Holland,VBO,4.260864,51.861873
Boomgaardweg,19,,,3211AC,Geervliet,Nissewaard,Zuid-Holland,VBO,4.260906,51.861918
Boomgaardweg,21,,,3211AC,Geervliet,Nissewaard,Zuid-Holland,VBO,4.260963,51.861964
Boomgaardweg,23,,,3211AC,Geervliet,Nissewaard,Zuid-Holland,VBO,4.261005,51.862018
Boomgaardweg,25,,,3211AC,Geervliet,Nissewaard,Zuid-Holland,VBO,4.261047,51.862063
Boomgaardweg,27,,,3211AC,Geervliet,Nissewaard,Zuid-Holland,VBO,4.261090,51.862109
Boomgaardweg,29,,,3211AC,Geervliet,Nissewaard,Zuid-Holland,VBO,4.261118,51.862163
Boomgaardweg,31,,,3211AC,Geervliet,Nissewaard,Zuid-Holland,VBO,4.261197,51.862213
Boomgaardweg,41,,,3211AD,Geervliet,Nissewaard,Zuid-Holland,VBO,4.261819,51.861972
Boomgaardweg,43,,,3211AD,Geervliet,Nissewaard,Zuid-Holland,VBO,4.261950,51.861964
Boomgaardweg,45,,,3211AD,Geervliet,Nissewaard,Zuid-Holland,VBO,4.262023,51.861947
Boomgaardweg,47,,,3211AD,Geervliet,Nissewaard,Zuid-Holland,VBO,4.262110,51.861939
Boomgaardweg,49,,,3211AD,Geervliet,Nissewaard,Zuid-Holland,VBO,4.262198,51.861922
Boomgaardweg,51,,,3211AD,Geervliet,Nissewaard,Zuid-Holland,VBO,4.262285,51.861914
Boomgaardweg,53,,,3211AD,Geervliet,Nissewaard,Zuid-Holland,VBO,4.262373,51.861896
Boomgaardweg,55,,,3211AD,Geervliet,Nissewaard,Zuid-Holland,VBO,4.262555,51.861880
Boomgaardweg,57,,,3211AD,Geervliet,Nissewaard,Zuid-Holland,VBO,4.262664,51.861872
Boomgaardweg,59,a,,3211AD,Geervliet,Nissewaard,Zuid-Holland,VBO,4.262875,51.861865
Boomgaardweg,59,b,,3211AD,Geervliet,Nissewaard,Zuid-Holland,VBO,4.262998,51.861844
Boomgaardweg,61,,,3211AD,Geervliet,Nissewaard,Zuid-Holland,VBO,4.263130,51.861796
Boomgaardweg,63,,,3211AD,Geervliet,Nissewaard,Zuid-Holland,VBO,4.263218,51.861779
Boomgaardweg,65,,,3211AD,Geervliet,Nissewaard,Zuid-Holland,VBO,4.263320,51.861753
Boomgaardweg,67,,,3211AD,Geervliet,Nissewaard,Zuid-Holland,VBO,4.263408,51.861735
Boomgaardweg,69,,,3211AD,Geervliet,Nissewaard,Zuid-Holland,VBO,4.263495,51.861727
Boomgaardweg,71,,,3211AD,Geervliet,Nissewaard,Zuid-Holland,VBO,4.263582,51.861719
Boomgaardweg,73,,,3211AD,Geervliet,Nissewaard,Zuid-Holland,VBO,4.263670,51.861711
Boomgaardweg,81,,,3211AD,Geervliet,Nissewaard,Zuid-Holland,VBO,4.264238,51.861609
Boomgaardweg,83,,,3211AD,Geervliet,Nissewaard,Zuid-Holland,VBO,4.264240,51.861564
Boomgaardweg,85,,,3211AD,Geervliet,Nissewaard,Zuid-Holland,VBO,4.264270,51.861501
Boomgaardweg,87,,,3211AD,Geervliet,Nissewaard,Zuid-Holland,VBO,4.264271,51.861447
Boomgaardweg,89,,,3211AD,Geervliet,Nissewaard,Zuid-Holland,VBO,4.264302,51.861398
Boomgaardweg,91,,,3211AD,Geervliet,Nissewaard,Zuid-Holland,VBO,4.264303,51.861340
Burgemeester van der Minnelaan,3,,,3211AE,Geervliet,Nissewaard,Zuid-Holland,VBO,4.258649,51.861326
Burgemeester van der Minnelaan,4,,,3211AE,Geervliet,Nissewaard,Zuid-Holland,VBO,4.258102,51.860817
Burgemeester van der Minnelaan,6,,,3211AE,Geervliet,Nissewaard,Zuid-Holland,VBO,4.258160,51.860849
Burgemeester van der Minnelaan,7,,,3211AE,Geervliet,Nissewaard,Zuid-Holland,VBO,4.260087,51.861281
Burgemeester van der Minnelaan,8,,,3211AE,Geervliet,Nissewaard,Zuid-Holland,VBO,4.258232,51.860850
Burgemeester van der Minnelaan,12,,,3211AE,Geervliet,Nissewaard,Zuid-Holland,VBO,4.259080,51.860930
Burgemeester van der Minnelaan,14,,,3211AE,Geervliet,Nissewaard,Zuid-Holland,VBO,4.259464,51.860943
Burgemeester van der Minnelaan,16,,,3211AE,Geervliet,Nissewaard,Zuid-Holland,VBO,4.259856,51.861014
Burgemeester van der Minnelaan,18,,,3211AE,Geervliet,Nissewaard,Zuid-Holland,VBO,4.260086,51.861038
Cornelis de Wittlaan,2,,,3211AG,Geervliet,Nissewaard,Zuid-Holland,VBO,4.262975,51.861057
Cornelis de Wittlaan,4,,,3211AG,Geervliet,Nissewaard,Zuid-Holland,VBO,4.263061,51.861067
Cornelis de Wittlaan,6,,,3211AG,Geervliet,Nissewaard,Zuid-Holland,VBO,4.263163,51.861077
Cornelis de Wittlaan,8,,,3211AG,Geervliet,Nissewaard,Zuid-Holland,VBO,4.263250,51.861078
Cornelis de Wittlaan,10,,,3211AG,Geervliet,Nissewaard,Zuid-Holland,VBO,4.263337,51.861097
Cornelis de Wittlaan,12,,,3211AG,Geervliet,Nissewaard,Zuid-Holland,VBO,4.263409,51.861097
Cornelis de Wittlaan,14,,,3211AG,Geervliet,Nissewaard,Zuid-Holland,VBO,4.263482,51.861098
Cornelis de Wittlaan,15,,,3211AG,Geervliet,Nissewaard,Zuid-Holland,VBO,4.264578,51.861369
Cornelis de Wittlaan,16,,,3211AG,Geervliet,Nissewaard,Zuid-Holland,VBO,4.263569,51.861108
Cornelis de Wittlaan,17,,,3211AG,Geervliet,Nissewaard,Zuid-Holland,VBO,4.264665,51.861379
Cornelis de Wittlaan,18,,,3211AG,Geervliet,Nissewaard,Zuid-Holland,VBO,4.263670,51.861118
Cornelis de Wittlaan,19,,,3211AG,Geervliet,Nissewaard,Zuid-Holland,VBO,4.264766,51.861407
Cornelis de Wittlaan,20,,,3211AG,Geervliet,Nissewaard,Zuid-Holland,VBO,4.263742,51.861118
Cornelis de Wittlaan,21,,,3211AG,Geervliet,Nissewaard,Zuid-Holland,VBO,4.264838,51.861417
Cornelis de Wittlaan,22,,,3211AG,Geervliet,Nissewaard,Zuid-Holland,VBO,4.264352,51.861142
Cornelis de Wittlaan,23,,,3211AG,Geervliet,Nissewaard,Zuid-Holland,VBO,4.264940,51.861400
Cornelis de Wittlaan,24,,,3211AG,Geervliet,Nissewaard,Zuid-Holland,VBO,4.264439,51.861152
Cornelis de Wittlaan,25,,,3211AG,Geervliet,Nissewaard,Zuid-Holland,VBO,4.265027,51.861409
Cornelis de Wittlaan,26,,,3211AG,Geervliet,Nissewaard,Zuid-Holland,VBO,4.264844,51.861201
Cornelis de Wittlaan,28,,,3211AG,Geervliet,Nissewaard,Zuid-Holland,VBO,4.264902,51.861201
Cornelis de Wittlaan,30,,,3211AG,Geervliet,Nissewaard,Zuid-Holland,VBO,4.264989,51.861202
Cornelis de Wittlaan,32,,,3211AG,Geervliet,Nissewaard,Zuid-Holland,VBO,4.265076,51.861212
Cornelis de Wittlaan,34,,,3211AG,Geervliet,Nissewaard,Zuid-Holland,VBO,4.265177,51.861231
Cornelis de Wittlaan,36,,,3211AG,Geervliet,Nissewaard,Zuid-Holland,VBO,4.265264,51.861232
Cornelis de Wittlaan,38,,,3211AG,Geervliet,Nissewaard,Zuid-Holland,VBO,4.265336,51.861242
Dorpsplein,1,a,,3211AH,Geervliet,Nissewaard,Zuid-Holland,VBO,4.257718,51.860512
Dorpsplein,1,,,3211AH,Geervliet,Nissewaard,Zuid-Holland,VBO,4.257675,51.860485
Dorpsplein,2,,,3211AH,Geervliet,Nissewaard,Zuid-Holland,VBO,4.257930,51.860739
Dorpsplein,3,,,3211AH,Geervliet,Nissewaard,Zuid-Holland,VBO,4.257769,51.860845
Dorpsplein,4,,,3211AH,Geervliet,Nissewaard,Zuid-Holland,VBO,4.257479,51.860784
Dorpsplein,5,,,3211AH,Geervliet,Nissewaard,Zuid-Holland,VBO,4.257474,51.860681
Dorpsplein,6,,,3211AH,Geervliet,Nissewaard,Zuid-Holland,VBO,4.257527,51.860609
Egmondplein,5,,,3211AJ,Geervliet,Nissewaard,Zuid-Holland,VBO,4.264249,51.861762
Egmondplein,6,,,3211AJ,Geervliet,Nissewaard,Zuid-Holland,VBO,4.264248,51.861824
Egmondplein,7,,,3211AJ,Geervliet,Nissewaard,Zuid-Holland,VBO,4.264275,51.861879
Egmondplein,8,,,3211AJ,Geervliet,Nissewaard,Zuid-Holland,VBO,4.264303,51.861942
Egmondplein,9,,,3211AJ,Geervliet,Nissewaard,Zuid-Holland,VBO,4.264271,51.862031
Egmondplein,10,,,3211AJ,Geervliet,Nissewaard,Zuid-Holland,VBO,4.263951,51.862073
Egmondplein,11,,,3211AJ,Geervliet,Nissewaard,Zuid-Holland,VBO,4.263880,51.862019
Egmondplein,12,,,3211AJ,Geervliet,Nissewaard,Zuid-Holland,VBO,4.263852,51.861946
Egmondplein,13,,,3211AJ,Geervliet,Nissewaard,Zuid-Holland,VBO,4.263810,51.861892
Egmondplein,14,,,3211AJ,Geervliet,Nissewaard,Zuid-Holland,VBO,4.263768,51.861838
H M Preuijt JDzn laan,1,,,3211AK,Geervliet,Nissewaard,Zuid-Holland,VBO,4.263593,51.860137
H M Preuijt JDzn laan,3,,,3211AK,Geervliet,Nissewaard,Zuid-Holland,VBO,4.263606,51.860200
H M Preuijt JDzn laan,5,,,3211AK,Geervliet,Nissewaard,Zuid-Holland,VBO,4.263605,51.860245
H M Preuijt JDzn laan,7,,,3211AK,Geervliet,Nissewaard,Zuid-Holland,VBO,4.263603,51.860290
H M Preuijt JDzn laan,9,,,3211AK,Geervliet,Nissewaard,Zuid-Holland,VBO,4.263617,51.860344
H M Preuijt JDzn laan,11,,,3211AK,Geervliet,Nissewaard,Zuid-Holland,VBO,4.263572,51.860380
H M Preuijt JDzn laan,13,,,3211AK,Geervliet,Nissewaard,Zuid-Holland,VBO,4.263600,51.860434
H M Preuijt JDzn laan,15,,,3211AK,Geervliet,Nissewaard,Zuid-Holland,VBO,4.263570,51.860479
H M Preuijt JDzn laan,17,,,3211AK,Geervliet,Nissewaard,Zuid-Holland,VBO,4.263525,51.860532
Hendrik Ponseweg,1,,,3211AL,Geervliet,Nissewaard,Zuid-Holland,VBO,4.260809,51.858268
Hendrik Ponseweg,3,,,3211AL,Geervliet,Nissewaard,Zuid-Holland,VBO,4.260840,51.858187
Hendrik Ponseweg,5,,,3211AL,Geervliet,Nissewaard,Zuid-Holland,VBO,4.261001,51.857958
Hendrik Ponseweg,7,,,3211AL,Geervliet,Nissewaard,Zuid-Holland,VBO,4.261589,51.856489
Hoflaan,1,,,3211AM,Geervliet,Nissewaard,Zuid-Holland,VBO,4.261783,51.860515
Hoflaan,2,,,3211AM,Geervliet,Nissewaard,Zuid-Holland,VBO,4.261875,51.860310
Hoflaan,3,,,3211AM,Geervliet,Nissewaard,Zuid-Holland,VBO,4.261855,51.860525
Hoflaan,5,,,3211AM,Geervliet,Nissewaard,Zuid-Holland,VBO,4.261928,51.860526
Hoflaan,7,,,3211AM,Geervliet,Nissewaard,Zuid-Holland,VBO,4.261986,51.860535
Hoflaan,9,,,3211AM,Geervliet,Nissewaard,Zuid-Holland,VBO,4.262058,51.860545
Hoflaan,11,,,3211AM,Geervliet,Nissewaard,Zuid-Holland,VBO,4.262131,51.860555
Jacob van Gaesbeeklaan,2,,,3211AN,Geervliet,Nissewaard,Zuid-Holland,VBO,4.264188,51.860700
Jacob van Gaesbeeklaan,4,,,3211AN,Geervliet,Nissewaard,Zuid-Holland,VBO,4.264173,51.860754
Jacob van Gaesbeeklaan,6,,,3211AN,Geervliet,Nissewaard,Zuid-Holland,VBO,4.264157,51.860817
Jacob van Gaesbeeklaan,8,,,3211AN,Geervliet,Nissewaard,Zuid-Holland,VBO,4.264141,51.860862
Jacob van Gaesbeeklaan,10,,,3211AN,Geervliet,Nissewaard,Zuid-Holland,VBO,4.264125,51.860924
Jacob van Gaesbeeklaan,12,,,3211AN,Geervliet,Nissewaard,Zuid-Holland,VBO,4.264124,51.860969
Jacob van Gaesbeeklaan,14,,,3211AN,Geervliet,Nissewaard,Zuid-Holland,VBO,4.264108,51.861032
Jacob van Gaesbeeklaan,16,,,3211AN,Geervliet,Nissewaard,Zuid-Holland,VBO,4.264092,51.861077
Jacob van Gaesbeeklaan,18,,,3211AN,Geervliet,Nissewaard,Zuid-Holland,VBO,4.264076,51.861131
Kaaistraat,2,,,3211AP,Geervliet,Nissewaard,Zuid-Holland,VBO,4.257280,51.860333
Kaaistraat,6,,,3211AP,Geervliet,Nissewaard,Zuid-Holland,VBO,4.257474,51.860411
Kaaistraat,8,,,3211AP,Geervliet,Nissewaard,Zuid-Holland,VBO,4.257531,51.860430
Kaaistraat,10,,,3211AP,Geervliet,Nissewaard,Zuid-Holland,VBO,4.257589,51.860448
Kerkplein,1,a,,3211AR,Geervliet,Nissewaard,Zuid-Holland,VBO,4.258781,51.859746
Kerkplein,1,,,3211AR,Geervliet,Nissewaard,Zuid-Holland,VBO,4.258761,51.859807
Kerkplein,2,,,3211AR,Geervliet,Nissewaard,Zuid-Holland,VBO,4.258857,51.859678
Kerkplein,6,,,3211AR,Geervliet,Nissewaard,Zuid-Holland,VBO,4.259357,51.859431
Kerkplein,7,a,,3211AR,Geervliet,Nissewaard,Zuid-Holland,VBO,4.259057,51.859806
Kerkplein,7,,,3211AR,Geervliet,Nissewaard,Zuid-Holland,VBO,4.259289,51.859826
Kerkplein,8,,,3211AR,Geervliet,Nissewaard,Zuid-Holland,VBO,4.258906,51.860020
Kerkstraat,1,,,3211AS,Geervliet,Nissewaard,Zuid-Holland,VBO,4.258019,51.860659
Kerkstraat,3,,,3211AS,Geervliet,Nissewaard,Zuid-Holland,VBO,4.258093,51.860615
Kerkstraat,4,,,3211AS,Geervliet,Nissewaard,Zuid-Holland,VBO,4.257862,51.860559
Kerkstraat,5,,,3211AS,Geervliet,Nissewaard,Zuid-Holland,VBO,4.258197,51.860535
Kerkstraat,6,,,3211AS,Geervliet,Nissewaard,Zuid-Holland,VBO,4.257995,51.860470
Kerkstraat,7,,,3211AS,Geervliet,Nissewaard,Zuid-Holland,VBO,4.258271,51.860482
Kerkstraat,8,a,,3211AS,Geervliet,Nissewaard,Zuid-Holland,VBO,4.258232,51.860302
Kerkstraat,8,,,3211AS,Geervliet,Nissewaard,Zuid-Holland,VBO,4.258173,51.860337
Kerkstraat,9,,,3211AS,Geervliet,Nissewaard,Zuid-Holland,VBO,4.258388,51.860420
Kerkstraat,12,,,3211AS,Geervliet,Nissewaard,Zuid-Holland,VBO,4.258328,51.860208
Kerkstraat,13,,,3211AS,Geervliet,Nissewaard,Zuid-Holland,VBO,4.258610,51.860251
Kerkstraat,14,,,3211AS,Geervliet,Nissewaard,Zuid-Holland,VBO,4.258511,51.860142
Kerkstraat,15,,,3211AS,Geervliet,Nissewaard,Zuid-Holland,VBO,4.258713,51.860225
Kerkstraat,16,,,3211AS,Geervliet,Nissewaard,Zuid-Holland,VBO,4.258600,51.860089
Kerkstraat,18,,,3211AS,Geervliet,Nissewaard,Zuid-Holland,VBO,4.258718,51.860001
Landpoortstraat,1,,,3211AT,Geervliet,Nissewaard,Zuid-Holland,VBO,4.260063,51.860211
Landpoortstraat,2,,,3211AT,Geervliet,Nissewaard,Zuid-Holland,VBO,4.259440,51.860160
Landpoortstraat,10,,,3211AT,Geervliet,Nissewaard,Zuid-Holland,VBO,4.261111,51.859538
Markenburglaan,1,,,3211AV,Geervliet,Nissewaard,Zuid-Holland,VBO,4.261567,51.861592
Markenburglaan,2,,,3211AV,Geervliet,Nissewaard,Zuid-Holland,VBO,4.261657,51.860910
Markenburglaan,4,,,3211AV,Geervliet,Nissewaard,Zuid-Holland,VBO,4.261729,51.860919
Markenburglaan,6,,,3211AV,Geervliet,Nissewaard,Zuid-Holland,VBO,4.261816,51.860929
Markenburglaan,8,,,3211AV,Geervliet,Nissewaard,Zuid-Holland,VBO,4.261918,51.860939
Markenburglaan,10,,,3211AV,Geervliet,Nissewaard,Zuid-Holland,VBO,4.262019,51.860967
Markenburglaan,12,,,3211AV,Geervliet,Nissewaard,Zuid-Holland,VBO,4.262105,51.860977
Markenburglaan,14,,,3211AV,Geervliet,Nissewaard,Zuid-Holland,VBO,4.262207,51.860987
Markenburglaan,16,,,3211AV,Geervliet,Nissewaard,Zuid-Holland,VBO,4.262265,51.860987
Molenstraat,1,a,,3211AW,Geervliet,Nissewaard,Zuid-Holland,VBO,4.258475,51.859836
Molenstraat,1,,,3211AW,Geervliet,Nissewaard,Zuid-Holland,VBO,4.258754,51.859888
Molenstraat,2,a,,3211AW,Geervliet,Nissewaard,Zuid-Holland,VBO,4.258558,51.860035
Molenstraat,2,,,3211AW,Geervliet,Nissewaard,Zuid-Holland,VBO,4.258618,51.859946
Molenstraat,3,,,3211AW,Geervliet,Nissewaard,Zuid-Holland,VBO,4.258230,51.859771
Molenstraat,4,,,3211AW,Geervliet,Nissewaard,Zuid-Holland,VBO,4.258415,51.859926
Molenstraat,6,,,3211AW,Geervliet,Nissewaard,Zuid-Holland,VBO,4.258343,51.859925
Molenstraat,7,,,3211AW,Geervliet,Nissewaard,Zuid-Holland,VBO,4.257891,51.859705
Molenstraat,8,,,3211AW,Geervliet,Nissewaard,Zuid-Holland,VBO,4.258226,51.859933
Molenstraat,10,,,3211AW,Geervliet,Nissewaard,Zuid-Holland,VBO,4.258154,51.859914
Molenstraat,11,,,3211AW,Geervliet,Nissewaard,Zuid-Holland,VBO,4.257596,51.859608
Molenstraat,12,,,3211AW,Geervliet,Nissewaard,Zuid-Holland,VBO,4.258096,51.859905
Molenstraat,13,a,,3211AW,Geervliet,Nissewaard,Zuid-Holland,VBO,4.257207,51.859518
Molenstraat,13,,,3211AW,Geervliet,Nissewaard,Zuid-Holland,VBO,4.257303,51.859581
Molenstraat,14,,,3211AW,Geervliet,Nissewaard,Zuid-Holland,VBO,4.258024,51.859886
Molenstraat,16,,,3211AW,Geervliet,Nissewaard,Zuid-Holland,VBO,4.257923,51.859849
Molenstraat,18,,,3211AW,Geervliet,Nissewaard,Zuid-Holland,VBO,4.257851,51.859839
Molenstraat,20,,,3211AW,Geervliet,Nissewaard,Zuid-Holland,VBO,4.257765,51.859803
Molenstraat,22,,,3211AW,Geervliet,Nissewaard,Zuid-Holland,VBO,4.257172,51.859707
Molenstraat,24,,,3211AW,Geervliet,Nissewaard,Zuid-Holland,VBO,4.257086,51.859679
Molenstraat,26,,,3211AW,Geervliet,Nissewaard,Zuid-Holland,VBO,4.256917,51.859763
Nicolaas van Puttenlaan,1,,,3211AX,Geervliet,Nissewaard,Zuid-Holland,VBO,4.264815,51.860023
Nicolaas van Puttenlaan,2,,,3211AX,Geervliet,Nissewaard,Zuid-Holland,VBO,4.265087,51.860169
Nicolaas van Puttenlaan,3,,,3211AX,Geervliet,Nissewaard,Zuid-Holland,VBO,4.264799,51.860068
Nicolaas van Puttenlaan,4,,,3211AX,Geervliet,Nissewaard,Zuid-Holland,VBO,4.265071,51.860232
Nicolaas van Puttenlaan,5,,,3211AX,Geervliet,Nissewaard,Zuid-Holland,VBO,4.264783,51.860140
Nicolaas van Puttenlaan,6,,,3211AX,Geervliet,Nissewaard,Zuid-Holland,VBO,4.265056,51.860277
Nicolaas van Puttenlaan,7,,,3211AX,Geervliet,Nissewaard,Zuid-Holland,VBO,4.264760,51.860207
Nicolaas van Puttenlaan,8,,,3211AX,Geervliet,Nissewaard,Zuid-Holland,VBO,4.265040,51.860322
Nicolaas van Puttenlaan,9,,,3211AX,Geervliet,Nissewaard,Zuid-Holland,VBO,4.264751,51.860256
Nicolaas van Puttenlaan,10,,,3211AX,Geervliet,Nissewaard,Zuid-Holland,VBO,4.265053,51.860376
Nicolaas van Puttenlaan,11,,,3211AX,Geervliet,Nissewaard,Zuid-Holland,VBO,4.264638,51.860714
Nicolaas van Puttenlaan,12,,,3211AX,Geervliet,Nissewaard,Zuid-Holland,VBO,4.265008,51.860438
Nicolaas van Puttenlaan,13,,,3211AX,Geervliet,Nissewaard,Zuid-Holland,VBO,4.264637,51.860776
Nicolaas van Puttenlaan,14,,,3211AX,Geervliet,Nissewaard,Zuid-Holland,VBO,4.264992,51.860483
Nicolaas van Puttenlaan,15,,,3211AX,Geervliet,Nissewaard,Zuid-Holland,VBO,4.264606,51.860821
Nicolaas van Puttenlaan,16,,,3211AX,Geervliet,Nissewaard,Zuid-Holland,VBO,4.264991,51.860546
Nicolaas van Puttenlaan,17,,,3211AX,Geervliet,Nissewaard,Zuid-Holland,VBO,4.264620,51.860875
Nicolaas van Puttenlaan,18,,,3211AX,Geervliet,Nissewaard,Zuid-Holland,VBO,4.264959,51.860654
Nicolaas van Puttenlaan,19,,,3211AX,Geervliet,Nissewaard,Zuid-Holland,VBO,4.264575,51.860920
Nicolaas van Puttenlaan,20,,,3211AX,Geervliet,Nissewaard,Zuid-Holland,VBO,4.264943,51.860707
Nicolaas van Puttenlaan,21,,,3211AX,Geervliet,Nissewaard,Zuid-Holland,VBO,4.264588,51.860992
Nicolaas van Puttenlaan,22,,,3211AX,Geervliet,Nissewaard,Zuid-Holland,VBO,4.264927,51.860761
Nicolaas van Puttenlaan,23,,,3211AX,Geervliet,Nissewaard,Zuid-Holland,VBO,4.264511,51.861153
Nicolaas van Puttenlaan,24,,,3211AX,Geervliet,Nissewaard,Zuid-Holland,VBO,4.264926,51.860815
Nicolaas van Puttenlaan,26,,,3211AX,Geervliet,Nissewaard,Zuid-Holland,VBO,4.264910,51.860869
Nicolaas van Puttenlaan,28,,,3211AX,Geervliet,Nissewaard,Zuid-Holland,VBO,4.264894,51.860923
Nicolaas van Puttenlaan,30,,,3211AX,Geervliet,Nissewaard,Zuid-Holland,VBO,4.264879,51.860968
Nicolaas van Puttenlaan,32,,,3211AX,Geervliet,Nissewaard,Zuid-Holland,VBO,4.264891,51.861040
Noorddijk,2,,,3211AZ,Geervliet,Nissewaard,Zuid-Holland,VBO,4.258036,51.861729
Noorddijk,3,a,,3211AZ,Geervliet,Nissewaard,Zuid-Holland,VBO,4.258211,51.862288
Noorddijk,3,b,,3211AZ,Geervliet,Nissewaard,Zuid-Holland,VBO,4.257663,51.863533
Noorddijk,3,,,3211AZ,Geervliet,Nissewaard,Zuid-Holland,VBO,4.258126,51.862188
Noorddijk,4,,,3211AZ,Geervliet,Nissewaard,Zuid-Holland,VBO,4.252190,51.866706
Noorddijk,5,a,,3211AZ,Geervliet,Nissewaard,Zuid-Holland,VBO,4.282510,51.863058
Noorddijk,5,,,3211AZ,Geervliet,Nissewaard,Zuid-Holland,VBO,4.281712,51.863069
Noorddijk,18,a,,3211AZ,Geervliet,Nissewaard,Zuid-Holland,VBO,4.283932,51.863126
Oude Singel,1,,,3211BA,Geervliet,Nissewaard,Zuid-Holland,VBO,4.258902,51.861944
Oude Singel,2,,,3211BA,Geervliet,Nissewaard,Zuid-Holland,VBO,4.259731,51.861314
Oude Singel,3,,,3211BA,Geervliet,Nissewaard,Zuid-Holland,VBO,4.259106,51.861892
Oude Singel,5,,,3211BA,Geervliet,Nissewaard,Zuid-Holland,VBO,4.259376,51.861859
Oude Singel,7,,,3211BA,Geervliet,Nissewaard,Zuid-Holland,VBO,4.259646,51.861780
Oude Singel,8,,,3211BA,Geervliet,Nissewaard,Zuid-Holland,VBO,4.260807,51.860636
Oude Singel,10,,,3211BA,Geervliet,Nissewaard,Zuid-Holland,VBO,4.260132,51.860347
Oude Singel,14,,,3211BA,Geervliet,Nissewaard,Zuid-Holland,VBO,4.260912,51.859923
Oude Singel,16,,,3211BA,Geervliet,Nissewaard,Zuid-Holland,VBO,4.261452,51.859519
Oude Singel,20,,,3211BA,Geervliet,Nissewaard,Zuid-Holland,VBO,4.261903,51.859475
Oude Singel,21,,,3211BA,Geervliet,Nissewaard,Zuid-Holland,VBO,4.261368,51.860853
Oude Singel,23,,,3211BA,Geervliet,Nissewaard,Zuid-Holland,VBO,4.261398,51.860817
Oude Singel,25,,,3211BA,Geervliet,Nissewaard,Zuid-Holland,VBO,4.261446,51.860638
Oude Singel,27,,,3211BA,Geervliet,Nissewaard,Zuid-Holland,VBO,4.261494,51.860459
Oude Singel,29,,,3211BA,Geervliet,Nissewaard,Zuid-Holland,VBO,4.261556,51.860297
Oude Singel,31,,,3211BA,Geervliet,Nissewaard,Zuid-Holland,VBO,4.261589,51.860145
Oude Singel,33,,,3211BA,Geervliet,Nissewaard,Zuid-Holland,VBO,4.261605,51.860109
Oude Singel,35,,,3211BA,Geervliet,Nissewaard,Zuid-Holland,VBO,4.261651,51.860011
Oude Singel,37,,,3211BA,Geervliet,Nissewaard,Zuid-Holland,VBO,4.261666,51.859957
Oude Singel,39,,,3211BA,Geervliet,Nissewaard,Zuid-Holland,VBO,4.261698,51.859840
Oude Singel,41,,,3211BA,Geervliet,Nissewaard,Zuid-Holland,VBO,4.261789,51.859862
Oude Singel,43,,,3211BA,Geervliet,Nissewaard,Zuid-Holland,VBO,4.262038,51.859890
Professor de Snoolaan,1,a,,3211BB,Geervliet,Nissewaard,Zuid-Holland,VBO,4.262451,51.860212
Professor de Snoolaan,1,,,3211BB,Geervliet,Nissewaard,Zuid-Holland,VBO,4.262455,51.860333
Professor de Snoolaan,2,,,3211BB,Geervliet,Nissewaard,Zuid-Holland,VBO,4.262998,51.860123
Professor de Snoolaan,3,,,3211BB,Geervliet,Nissewaard,Zuid-Holland,VBO,4.262424,51.860414
Professor de Snoolaan,4,,,3211BB,Geervliet,Nissewaard,Zuid-Holland,VBO,4.262982,51.860176
Professor de Snoolaan,5,,,3211BB,Geervliet,Nissewaard,Zuid-Holland,VBO,4.262464,51.860567
Professor de Snoolaan,6,,,3211BB,Geervliet,Nissewaard,Zuid-Holland,VBO,4.262922,51.860248
Professor de Snoolaan,7,,,3211BB,Geervliet,Nissewaard,Zuid-Holland,VBO,4.262434,51.860630
Professor de Snoolaan,8,,,3211BB,Geervliet,Nissewaard,Zuid-Holland,VBO,4.262920,51.860320
Professor de Snoolaan,9,,,3211BB,Geervliet,Nissewaard,Zuid-Holland,VBO,4.262418,51.860674
Professor de Snoolaan,10,,,3211BB,Geervliet,Nissewaard,Zuid-Holland,VBO,4.262889,51.860409
Professor de Snoolaan,11,,,3211BB,Geervliet,Nissewaard,Zuid-Holland,VBO,4.262402,51.860719
Professor de Snoolaan,12,,,3211BB,Geervliet,Nissewaard,Zuid-Holland,VBO,4.262873,51.860454
Professor de Snoolaan,13,,,3211BB,Geervliet,Nissewaard,Zuid-Holland,VBO,4.262387,51.860764
Professor de Snoolaan,14,,,3211BB,Geervliet,Nissewaard,Zuid-Holland,VBO,4.262707,51.860731
Professor de Snoolaan,15,,,3211BB,Geervliet,Nissewaard,Zuid-Holland,VBO,4.262371,51.860800
Professor de Snoolaan,16,,,3211BB,Geervliet,Nissewaard,Zuid-Holland,VBO,4.262676,51.860785
Professor de Snoolaan,18,,,3211BB,Geervliet,Nissewaard,Zuid-Holland,VBO,4.262660,51.860856
Professor de Snoolaan,20,,,3211BB,Geervliet,Nissewaard,Zuid-Holland,VBO,4.262645,51.860892
Professor de Snoolaan,22,,,3211BB,Geervliet,Nissewaard,Zuid-Holland,VBO,4.262629,51.860955
Professor de Snoolaan,24,,,3211BB,Geervliet,Nissewaard,Zuid-Holland,VBO,4.262598,51.861009
Sweder van Abcoudelaan,1,,,3211BC,Geervliet,Nissewaard,Zuid-Holland,VBO,4.263055,51.860725
Sweder van Abcoudelaan,3,,,3211BC,Geervliet,Nissewaard,Zuid-Holland,VBO,4.263142,51.860744
Sweder van Abcoudelaan,5,,,3211BC,Geervliet,Nissewaard,Zuid-Holland,VBO,4.263215,51.860745
Sweder van Abcoudelaan,7,,,3211BC,Geervliet,Nissewaard,Zuid-Holland,VBO,4.263316,51.860746
Sweder van Abcoudelaan,9,,,3211BC,Geervliet,Nissewaard,Zuid-Holland,VBO,4.263403,51.860756
Sweder van Abcoudelaan,11,,,3211BC,Geervliet,Nissewaard,Zuid-Holland,VBO,4.263490,51.860765
Sweder van Abcoudelaan,13,,,3211BC,Geervliet,Nissewaard,Zuid-Holland,VBO,4.263577,51.860775
Sweder van Abcoudelaan,15,,,3211BC,Geervliet,Nissewaard,Zuid-Holland,VBO,4.263664,51.860776
Sweder van Abcoudelaan,17,,,3211BC,Geervliet,Nissewaard,Zuid-Holland,VBO,4.263751,51.860786
Sweder van Abcoudelaan,19,,,3211BC,Geervliet,Nissewaard,Zuid-Holland,VBO,4.263823,51.860796
Schoolstraat,2,,,3211BD,Geervliet,Nissewaard,Zuid-Holland,VBO,4.258938,51.860506
Schoolstraat,3,,,3211BD,Geervliet,Nissewaard,Zuid-Holland,VBO,4.258492,51.860915
Schoolstraat,5,,,3211BD,Geervliet,Nissewaard,Zuid-Holland,VBO,4.258082,51.861037
Schoolstraat,7,,,3211BD,Geervliet,Nissewaard,Zuid-Holland,VBO,4.257964,51.861135
Schoolstraat,8,,,3211BD,Geervliet,Nissewaard,Zuid-Holland,VBO,4.257617,51.861644
Schoolstraat,9,,,3211BD,Geervliet,Nissewaard,Zuid-Holland,VBO,4.257875,51.861188
Schoolstraat,11,,,3211BD,Geervliet,Nissewaard,Zuid-Holland,VBO,4.257801,51.861259
Schoolstraat,13,,,3211BD,Geervliet,Nissewaard,Zuid-Holland,VBO,4.257713,51.861312
Schoolstraat,15,,,3211BD,Geervliet,Nissewaard,Zuid-Holland,VBO,4.257639,51.861357
Schoolstraat,17,,,3211BD,Geervliet,Nissewaard,Zuid-Holland,VBO,4.257569,51.861407
Schoolstraat,19,,,3211BD,Geervliet,Nissewaard,Zuid-Holland,VBO,4.257543,51.861425
Schoolstraat,21,,,3211BD,Geervliet,Nissewaard,Zuid-Holland,VBO,4.257535,51.861454
Sportlaan,2,,,3211BE,Geervliet,Nissewaard,Zuid-Holland,VBO,4.255765,51.857356
Sportlaan,4,,,3211BE,Geervliet,Nissewaard,Zuid-Holland,VBO,4.255724,51.857248
Sportlaan,6,,,3211BE,Geervliet,Nissewaard,Zuid-Holland,VBO,4.255698,51.857122
Spuikade,1,,,3211BG,Geervliet,Nissewaard,Zuid-Holland,VBO,4.256995,51.859351
Spuikade,2,,,3211BG,Geervliet,Nissewaard,Zuid-Holland,VBO,4.255788,51.860476
Spuikade,3,a,,3211BG,Geervliet,Nissewaard,Zuid-Holland,VBO,4.256020,51.859327
Spuikade,3,,,3211BG,Geervliet,Nissewaard,Zuid-Holland,VBO,4.256083,51.859157
Spuikade,5,,,3211BG,Geervliet,Nissewaard,Zuid-Holland,VBO,4.256017,51.859462
Spuikade,7,,,3211BG,Geervliet,Nissewaard,Zuid-Holland,VBO,4.255912,51.859610
Spuikade,9,,,3211BG,Geervliet,Nissewaard,Zuid-Holland,VBO,4.255880,51.859695
Spuikade,11,,,3211BG,Geervliet,Nissewaard,Zuid-Holland,VBO,4.255601,51.859836
Spuikade,13,,,3211BG,Geervliet,Nissewaard,Zuid-Holland,VBO,4.255483,51.859920
Spuikade,15,,,3211BG,Geervliet,Nissewaard,Zuid-Holland,VBO,4.254874,51.859958
Spuistraat,1,,,3211BH,Geervliet,Nissewaard,Zuid-Holland,VBO,4.257364,51.860158
Spuistraat,2,,,3211BH,Geervliet,Nissewaard,Zuid-Holland,VBO,4.257147,51.860129
Spuistraat,3,,,3211BH,Geervliet,Nissewaard,Zuid-Holland,VBO,4.257515,51.859944
Spuistraat,4,,,3211BH,Geervliet,Nissewaard,Zuid-Holland,VBO,4.256998,51.859998
Spuistraat,5,,,3211BH,Geervliet,Nissewaard,Zuid-Holland,VBO,4.257530,51.859890
Spuistraat,6,,,3211BH,Geervliet,Nissewaard,Zuid-Holland,VBO,4.257274,51.859708
Spuistraat,7,,,3211BH,Geervliet,Nissewaard,Zuid-Holland,VBO,4.257546,51.859836
St Anthonieplein,1,a,,3211BJ,Geervliet,Nissewaard,Zuid-Holland,VBO,4.259110,51.860022
St Anthonieplein,1,,,3211BJ,Geervliet,Nissewaard,Zuid-Holland,VBO,4.258963,51.860075
St Anthonieplein,3,,,3211BJ,Geervliet,Nissewaard,Zuid-Holland,VBO,4.259093,51.860121
St Anthonieplein,5,,,3211BJ,Geervliet,Nissewaard,Zuid-Holland,VBO,4.259237,51.860149
Starckplein,1,,,3211BK,Geervliet,Nissewaard,Zuid-Holland,VBO,4.261844,51.862125
Starckplein,2,,,3211BK,Geervliet,Nissewaard,Zuid-Holland,VBO,4.261843,51.862188
Starckplein,3,,,3211BK,Geervliet,Nissewaard,Zuid-Holland,VBO,4.261841,51.862260
Starckplein,4,,,3211BK,Geervliet,Nissewaard,Zuid-Holland,VBO,4.261854,51.862332
Starckplein,5,,,3211BK,Geervliet,Nissewaard,Zuid-Holland,VBO,4.261852,51.862395
Starckplein,6,,,3211BK,Geervliet,Nissewaard,Zuid-Holland,VBO,4.261546,51.862446
Starckplein,7,,,3211BK,Geervliet,Nissewaard,Zuid-Holland,VBO,4.261504,51.862382
Starckplein,8,,,3211BK,Geervliet,Nissewaard,Zuid-Holland,VBO,4.261476,51.862328
Starckplein,9,,,3211BK,Geervliet,Nissewaard,Zuid-Holland,VBO,4.261420,51.862265
Starckplein,10,,,3211BK,Geervliet,Nissewaard,Zuid-Holland,VBO,4.261378,51.862210
Stationssingel,2,,,3211BL,Geervliet,Nissewaard,Zuid-Holland,VBO,4.258437,51.858461
Stationssingel,4,,,3211BL,Geervliet,Nissewaard,Zuid-Holland,VBO,4.257574,51.858147
Stationssingel,6,,,3211BL,Geervliet,Nissewaard,Zuid-Holland,VBO,4.257532,51.858083
Stationssingel,8,,,3211BL,Geervliet,Nissewaard,Zuid-Holland,VBO,4.257215,51.858018
Stationssingel,10,,,3211BL,Geervliet,Nissewaard,Zuid-Holland,VBO,4.257099,51.857998
Stationssingel,12,,,3211BL,Geervliet,Nissewaard,Zuid-Holland,VBO,4.256853,51.857960
Stationssingel,14,,,3211BL,Geervliet,Nissewaard,Zuid-Holland,VBO,4.256737,51.857937
Stationssingel,16,,,3211BL,Geervliet,Nissewaard,Zuid-Holland,VBO,4.256448,51.857902
Stationssingel,18,,,3211BL,Geervliet,Nissewaard,Zuid-Holland,VBO,4.256360,51.857946
Stationssingel,20,,,3211BL,Geervliet,Nissewaard,Zuid-Holland,VBO,4.256384,51.858153
Stationssingel,22,,,3211BL,Geervliet,Nissewaard,Zuid-Holland,VBO,4.256411,51.858226
Stationssingel,24,,,3211BL,Geervliet,Nissewaard,Zuid-Holland,VBO,4.256581,51.858380
Stationssingel,26,,,3211BL,Geervliet,Nissewaard,Zuid-Holland,VBO,4.256594,51.858443
Toldijk,2,,,3211BM,Geervliet,Nissewaard,Zuid-Holland,VBO,4.256760,51.861663
Toldijk,3,,,3211BM,Geervliet,Nissewaard,Zuid-Holland,VBO,4.256255,51.861534
Toldijk,4,,,3211BM,Geervliet,Nissewaard,Zuid-Holland,VBO,4.256801,51.861930
Toldijk,5,a,,3211BM,Geervliet,Nissewaard,Zuid-Holland,VBO,4.256116,51.861648
Toldijk,5,,,3211BM,Geervliet,Nissewaard,Zuid-Holland,VBO,4.255876,51.861582
Toldijk,8,,,3211BM,Geervliet,Nissewaard,Zuid-Holland,VBO,4.256802,51.862310
Toldijk,10,,,3211BM,Geervliet,Nissewaard,Zuid-Holland,VBO,4.252826,51.863387
Toldijk,12,a,,3211BM,Geervliet,Nissewaard,Zuid-Holland,VBO,4.252334,51.863670
Toldijk,12,,,3211BM,Geervliet,Nissewaard,Zuid-Holland,VBO,4.252474,51.863518
Toldijk,20,,,3211BM,Geervliet,Nissewaard,Zuid-Holland,VBO,4.248468,51.864621
Tolstraat,1,,,3211BN,Geervliet,Nissewaard,Zuid-Holland,VBO,4.257390,51.860842
Tolstraat,3,,,3211BN,Geervliet,Nissewaard,Zuid-Holland,VBO,4.257331,51.860886
Tolstraat,4,a,,3211BN,Geervliet,Nissewaard,Zuid-Holland,VBO,4.257718,51.861088
Tolstraat,4,,,3211BN,Geervliet,Nissewaard,Zuid-Holland,VBO,4.257663,51.860961
Tolstraat,5,,,3211BN,Geervliet,Nissewaard,Zuid-Holland,VBO,4.257228,51.860939
Tolstraat,7,,,3211BN,Geervliet,Nissewaard,Zuid-Holland,VBO,4.257065,51.861063
Tolstraat,8,,,3211BN,Geervliet,Nissewaard,Zuid-Holland,VBO,4.257309,51.861189
Tolstraat,9,,,3211BN,Geervliet,Nissewaard,Zuid-Holland,VBO,4.257154,51.861010
Tolstraat,10,,,3211BN,Geervliet,Nissewaard,Zuid-Holland,VBO,4.257170,51.861253
Tolstraat,11,,,3211BN,Geervliet,Nissewaard,Zuid-Holland,VBO,4.256955,51.861125
Tolstraat,12,,,3211BN,Geervliet,Nissewaard,Zuid-Holland,VBO,4.257065,51.861360
Tolstraat,13,,,3211BN,Geervliet,Nissewaard,Zuid-Holland,VBO,4.256888,51.861179
Tolstraat,14,,,3211BN,Geervliet,Nissewaard,Zuid-Holland,VBO,4.256867,51.861466
Tolstraat,15,,,3211BN,Geervliet,Nissewaard,Zuid-Holland,VBO,4.256844,51.861214
Tolstraat,17,,,3211BN,Geervliet,Nissewaard,Zuid-Holland,VBO,4.256828,51.861259
Tolstraat,19,,,3211BN,Geervliet,Nissewaard,Zuid-Holland,VBO,4.256799,51.861286
Tolstraat,21,,,3211BN,Geervliet,Nissewaard,Zuid-Holland,VBO,4.256769,51.861321
Tolstraat,23,,,3211BN,Geervliet,Nissewaard,Zuid-Holland,VBO,4.256738,51.861366
Visserszijde,1,,,3211BP,Geervliet,Nissewaard,Zuid-Holland,VBO,4.256967,51.860361
Visserszijde,2,,,3211BP,Geervliet,Nissewaard,Zuid-Holland,VBO,4.256927,51.860691
Visserszijde,3,,,3211BP,Geervliet,Nissewaard,Zuid-Holland,VBO,4.256885,51.860455
Visserszijde,4,,,3211BP,Geervliet,Nissewaard,Zuid-Holland,VBO,4.256782,51.860800
Visserszijde,5,,,3211BP,Geervliet,Nissewaard,Zuid-Holland,VBO,4.256665,51.860543
Visserszijde,6,a,,3211BP,Geervliet,Nissewaard,Zuid-Holland,VBO,4.256723,51.860826
Visserszijde,6,,,3211BP,Geervliet,Nissewaard,Zuid-Holland,VBO,4.256679,51.860862
Visserszijde,7,,,3211BP,Geervliet,Nissewaard,Zuid-Holland,VBO,4.256712,51.860682
Visserszijde,8,,,3211BP,Geervliet,Nissewaard,Zuid-Holland,VBO,4.256531,51.860950
Visserszijde,9,,,3211BP,Geervliet,Nissewaard,Zuid-Holland,VBO,4.256639,51.860718
Visserszijde,10,a,,3211BP,Geervliet,Nissewaard,Zuid-Holland,VBO,4.256237,51.861082
Visserszijde,10,,,3211BP,Geervliet,Nissewaard,Zuid-Holland,VBO,4.256391,51.861034
Visserszijde,11,,,3211BP,Geervliet,Nissewaard,Zuid-Holland,VBO,4.256492,51.860788
Visserszijde,12,,,3211BP,Geervliet,Nissewaard,Zuid-Holland,VBO,4.256105,51.861171
Visserszijde,13,,,3211BP,Geervliet,Nissewaard,Zuid-Holland,VBO,4.255868,51.860920
Visserszijde,14,,,3211BP,Geervliet,Nissewaard,Zuid-Holland,VBO,4.255930,51.861187
Visserszijde,15,,,3211BP,Geervliet,Nissewaard,Zuid-Holland,VBO,4.255846,51.861052
Visserszijde,16,,,3211BP,Geervliet,Nissewaard,Zuid-Holland,VBO,4.255783,51.861258
Visserszijde,17,,,3211BP,Geervliet,Nissewaard,Zuid-Holland,VBO,4.255758,51.861078
Visserszijde,18,,,3211BP,Geervliet,Nissewaard,Zuid-Holland,VBO,4.255670,51.861304
Visserszijde,19,,,3211BP,Geervliet,Nissewaard,Zuid-Holland,VBO,4.255685,51.861095
Visserszijde,20,,,3211BP,Geervliet,Nissewaard,Zuid-Holland,VBO,4.255369,51.861267
Visserszijde,21,,,3211BP,Geervliet,Nissewaard,Zuid-Holland,VBO,4.255553,51.861148
Visserszijde,22,,,3211BP,Geervliet,Nissewaard,Zuid-Holland,VBO,4.255348,51.861227
Visserszijde,23,,,3211BP,Geervliet,Nissewaard,Zuid-Holland,VBO,4.255336,51.860954
Visserszijde,24,,,3211BP,Geervliet,Nissewaard,Zuid-Holland,VBO,4.255248,51.861185
Visserszijde,26,,,3211BP,Geervliet,Nissewaard,Zuid-Holland,VBO,4.255082,51.861134
Landswerf,1,,,3211BR,Geervliet,Nissewaard,Zuid-Holland,VBO,4.259601,51.860391
Landswerf,2,,,3211BR,Geervliet,Nissewaard,Zuid-Holland,VBO,4.259727,51.860489
Barakkenslop,1,,,3211BS,Geervliet,Nissewaard,Zuid-Holland,VBO,4.257417,51.860366
Barakkenslop,3,,,3211BS,Geervliet,Nissewaard,Zuid-Holland,VBO,4.257521,51.860277
Gruttersslop,1,a,,3211BT,Geervliet,Nissewaard,Zuid-Holland,VBO,4.257682,51.860224
Gruttersslop,1,,,3211BT,Geervliet,Nissewaard,Zuid-Holland,VBO,4.257595,51.860206
Gruttersslop,2,,,3211BT,Geervliet,Nissewaard,Zuid-Holland,VBO,4.257672,51.860017
Gruttersslop,3,a,,3211BT,Geervliet,Nissewaard,Zuid-Holland,VBO,4.257739,51.860261
Gruttersslop,3,,,3211BT,Geervliet,Nissewaard,Zuid-Holland,VBO,4.257710,51.860261
Gruttersslop,4,,,3211BT,Geervliet,Nissewaard,Zuid-Holland,VBO,4.257730,51.860045
Gruttersslop,5,a,,3211BT,Geervliet,Nissewaard,Zuid-Holland,VBO,4.257782,51.860279
Gruttersslop,5,,,3211BT,Geervliet,Nissewaard,Zuid-Holland,VBO,4.257781,51.860306
Gruttersslop,6,,,3211BT,Geervliet,Nissewaard,Zuid-Holland,VBO,4.257846,51.860055
Gruttersslop,7,,,3211BT,Geervliet,Nissewaard,Zuid-Holland,VBO,4.257868,51.860307
Gruttersslop,8,,,3211BT,Geervliet,Nissewaard,Zuid-Holland,VBO,4.257918,51.860083
Gruttersslop,9,,,3211BT,Geervliet,Nissewaard,Zuid-Holland,VBO,4.257846,51.860347
Gruttersslop,10,,,3211BT,Geervliet,Nissewaard,Zuid-Holland,VBO,4.257929,51.860200
Gruttersslop,12,,,3211BT,Geervliet,Nissewaard,Zuid-Holland,VBO,4.258030,51.860246
Oude Noordlandsedijk,1,,,3211BV,Geervliet,Nissewaard,Zuid-Holland,VBO,4.250790,51.864643
Dankerseweg,10,,,3211LA,Geervliet,Nissewaard,Zuid-Holland,VBO,4.269645,51.857606
Groene Kruisweg,1,,,3211LB,Geervliet,Nissewaard,Zuid-Holland,VBO,4.258228,51.859281
Groene Kruisweg,2,a,,3211LB,Geervliet,Nissewaard,Zuid-Holland,VBO,4.248110,51.858766
Groene Kruisweg,2,,,3211LB,Geervliet,Nissewaard,Zuid-Holland,VBO,4.247627,51.858815
Groene Kruisweg,3,,,3211LB,Geervliet,Nissewaard,Zuid-Holland,VBO,4.272180,51.859572
Groene Kruisweg,10,,,3211LB,Geervliet,Nissewaard,Zuid-Holland,VBO,4.248038,51.859223
Hogelandseweg,18,,,3211LC,Geervliet,Nissewaard,Zuid-Holland,VBO,4.283995,51.862335
Hogelandseweg,20,,,3211LC,Geervliet,Nissewaard,Zuid-Holland,VBO,4.284207,51.861189
Konijnendijk,1,a,,3211LD,Geervliet,Nissewaard,Zuid-Holland,VBO,4.271831,51.849622
Konijnendijk,1,b,,3211LD,Geervliet,Nissewaard,Zuid-Holland,VBO,4.271616,51.849211
Konijnendijk,1,,,3211LD,Geervliet,Nissewaard,Zuid-Holland,VBO,4.270117,51.849098
Konijnendijk,2,,,3211LD,Geervliet,Nissewaard,Zuid-Holland,VBO,4.278021,51.848454
Konijnendijk,3,a,,3211LD,Geervliet,Nissewaard,Zuid-Holland,VBO,4.278217,51.849939
Konijnendijk,3,,,3211LD,Geervliet,Nissewaard,Zuid-Holland,VBO,4.274215,51.849775
Konijnendijk,5,,,3211LD,Geervliet,Nissewaard,Zuid-Holland,VBO,4.282002,51.849467
Konijnendijk,6,,,3211LD,Geervliet,Nissewaard,Zuid-Holland,VBO,4.290583,51.847565
Konijnendijk,7,,,3211LD,Geervliet,Nissewaard,Zuid-Holland,VBO,4.285381,51.850177
Polderweg,2,,,3211LE,Geervliet,Nissewaard,Zuid-Holland,VBO,4.266151,51.858566
Polderweg,4,,,3211LE,Geervliet,Nissewaard,Zuid-Holland,VBO,4.266326,51.858249
Polderweg,6,,,3211LE,Geervliet,Nissewaard,Zuid-Holland,VBO,4.266453,51.857791
Polderweg,8,,,3211LE,Geervliet,Nissewaard,Zuid-Holland,VBO,4.266439,51.857198
Polderweg,10,a,,3211LE,Geervliet,Nissewaard,Zuid-Holland,VBO,4.267596,51.854431
Polderweg,10,b,,3211LE,Geervliet,Nissewaard,Zuid-Holland,VBO,4.266457,51.854726
Polderweg,10,,,3211LE,Geervliet,Nissewaard,Zuid-Holland,VBO,4.267375,51.854294
Ringdijk,1,,,3211LG,Geervliet,Nissewaard,Zuid-Holland,VBO,4.251462,51.858169
Ringdijk,2,,,3211LG,Geervliet,Nissewaard,Zuid-Holland,VBO,4.251765,51.857102
Ringdijk,3,,,3211LG,Geervliet,Nissewaard,Zuid-Holland,VBO,4.274976,51.847751
Ringdijk,4,a,,3211LG,Geervliet,Nissewaard,Zuid-Holland,VBO,4.252909,51.853724
Ringdijk,4,,,3211LG,Geervliet,Nissewaard,Zuid-Holland,VBO,4.251854,51.856617
Ringdijk,5,,,3211LG,Geervliet,Nissewaard,Zuid-Holland,VBO,4.272449,51.847214
Ringdijk,6,,,3211LG,Geervliet,Nissewaard,Zuid-Holland,VBO,4.253605,51.853192
Ringdijk,8,,,3211LG,Geervliet,Nissewaard,Zuid-Holland,VBO,4.255880,51.852180
Ringdijk,10,a,,3211LG,Geervliet,Nissewaard,Zuid-Holland,VBO,4.257084,51.850510
Ringdijk,10,b,,3211LG,Geervliet,Nissewaard,Zuid-Holland,VBO,4.256795,51.851613
Ringdijk,10,c,,3211LG,Geervliet,Nissewaard,Zuid-Holland,VBO,4.256514,51.850773
Ringdijk,10,,,3211LG,Geervliet,Nissewaard,Zuid-Holland,VBO,4.255969,51.852109
Ringdijk,12,,,3211LG,Geervliet,Nissewaard,Zuid-Holland,VBO,4.260297,51.849723
Ringdijk,14,,,3211LG,Geervliet,Nissewaard,Zuid-Holland,VBO,4.260596,51.848198
Oud Hoenderhoeksedijk,1,,,3211LH,Geervliet,Nissewaard,Zuid-Holland,VBO,4.248587,51.852091
Oud Hoenderhoeksedijk,3,,,3211LH,Geervliet,Nissewaard,Zuid-Holland,VBO,4.246887,51.853082
Beresteinweg,1,,,3211XA,Geervliet,Nissewaard,Zuid-Holland,VBO,4.261883,51.862907
Beresteinweg,2,,,3211XA,Geervliet,Nissewaard,Zuid-Holland,VBO,4.262247,51.862857
Beresteinweg,3,,,3211XA,Geervliet,Nissewaard,Zuid-Holland,VBO,4.261911,51.862962
Beresteinweg,4,,,3211XA,Geervliet,Nissewaard,Zuid-Holland,VBO,4.262275,51.862911
Beresteinweg,5,,,3211XA,Geervliet,Nissewaard,Zuid-Holland,VBO,4.261938,51.863016
Beresteinweg,6,,,3211XA,Geervliet,Nissewaard,Zuid-Holland,VBO,4.262288,51.862956
Beresteinweg,7,,,3211XA,Geervliet,Nissewaard,Zuid-Holland,VBO,4.261966,51.863079
Beresteinweg,8,,,3211XA,Geervliet,Nissewaard,Zuid-Holland,VBO,4.262316,51.863019
Beresteinweg,9,,,3211XA,Geervliet,Nissewaard,Zuid-Holland,VBO,4.261964,51.863133
Beresteinweg,10,,,3211XA,Geervliet,Nissewaard,Zuid-Holland,VBO,4.262344,51.863065
Dr W Dreesplein,1,,,3211XB,Geervliet,Nissewaard,Zuid-Holland,VBO,4.261556,51.863192
Dr W Dreesplein,2,,,3211XB,Geervliet,Nissewaard,Zuid-Holland,VBO,4.261522,51.863106
Dr W Dreesplein,3,,,3211XB,Geervliet,Nissewaard,Zuid-Holland,VBO,4.261341,51.863082
Dr W Dreesplein,4,,,3211XB,Geervliet,Nissewaard,Zuid-Holland,VBO,4.261254,51.863081
Dr W Dreesplein,5,,,3211XB,Geervliet,Nissewaard,Zuid-Holland,VBO,4.261167,51.863098
Dr W Dreesplein,6,,,3211XB,Geervliet,Nissewaard,Zuid-Holland,VBO,4.261094,51.863116
Dr W Dreesplein,7,,,3211XB,Geervliet,Nissewaard,Zuid-Holland,VBO,4.261004,51.863241
Dr W Dreesplein,8,,,3211XB,Geervliet,Nissewaard,Zuid-Holland,VBO,4.261031,51.863295
Dr W Dreesplein,9,,,3211XB,Geervliet,Nissewaard,Zuid-Holland,VBO,4.261044,51.863349
Dr W Dreesplein,10,,,3211XB,Geervliet,Nissewaard,Zuid-Holland,VBO,4.261058,51.863403
Dr W Dreesplein,11,,,3211XB,Geervliet,Nissewaard,Zuid-Holland,VBO,4.261027,51.863457
Griendweg,1,,,3211XC,Geervliet,Nissewaard,Zuid-Holland,VBO,4.266911,51.860403
Griendweg,3,,,3211XC,Geervliet,Nissewaard,Zuid-Holland,VBO,4.266938,51.860457
Griendweg,5,,,3211XC,Geervliet,Nissewaard,Zuid-Holland,VBO,4.266922,51.860520
Griendweg,7,,,3211XC,Geervliet,Nissewaard,Zuid-Holland,VBO,4.266907,51.860564
Griendweg,9,,,3211XC,Geervliet,Nissewaard,Zuid-Holland,VBO,4.266773,51.860671
Griendweg,11,,,3211XC,Geervliet,Nissewaard,Zuid-Holland,VBO,4.266700,51.860715
Griendweg,13,,,3211XC,Geervliet,Nissewaard,Zuid-Holland,VBO,4.266655,51.860760
Griendweg,15,,,3211XC,Geervliet,Nissewaard,Zuid-Holland,VBO,4.266581,51.860804
Griendweg,17,,,3211XC,Geervliet,Nissewaard,Zuid-Holland,VBO,4.266477,51.860920
Griendweg,19,,,3211XC,Geervliet,Nissewaard,Zuid-Holland,VBO,4.266446,51.860973
Griendweg,21,,,3211XC,Geervliet,Nissewaard,Zuid-Holland,VBO,4.266430,51.861036
Griendweg,23,,,3211XC,Geervliet,Nissewaard,Zuid-Holland,VBO,4.266415,51.861081
Griendweg,25,,,3211XC,Geervliet,Nissewaard,Zuid-Holland,VBO,4.266731,51.861205
Griendweg,27,,,3211XC,Geervliet,Nissewaard,Zuid-Holland,VBO,4.266745,51.861246
Griendweg,29,,,3211XC,Geervliet,Nissewaard,Zuid-Holland,VBO,4.266728,51.861309
Griendweg,31,,,3211XC,Geervliet,Nissewaard,Zuid-Holland,VBO,4.266712,51.861372
Griendweg,33,,,3211XC,Geervliet,Nissewaard,Zuid-Holland,VBO,4.266697,51.861416
Griendweg,35,,,3211XC,Geervliet,Nissewaard,Zuid-Holland,VBO,4.266696,51.861461
Griendweg,37,,,3211XC,Geervliet,Nissewaard,Zuid-Holland,VBO,4.266547,51.861586
Griendweg,39,,,3211XC,Geervliet,Nissewaard,Zuid-Holland,VBO,4.266488,51.861630
Griendweg,41,,,3211XC,Geervliet,Nissewaard,Zuid-Holland,VBO,4.266415,51.861656
Griendweg,43,,,3211XC,Geervliet,Nissewaard,Zuid-Holland,VBO,4.266356,51.861701
Griendweg,45,,,3211XC,Geervliet,Nissewaard,Zuid-Holland,VBO,4.266251,51.861817
Griendweg,47,,,3211XC,Geervliet,Nissewaard,Zuid-Holland,VBO,4.266235,51.861888
Griendweg,49,,,3211XC,Geervliet,Nissewaard,Zuid-Holland,VBO,4.266219,51.861933
Griendweg,51,,,3211XC,Geervliet,Nissewaard,Zuid-Holland,VBO,4.266160,51.861996
Griendweg,53,,,3211XC,Geervliet,Nissewaard,Zuid-Holland,VBO,4.266535,51.862098
Griendweg,55,,,3211XC,Geervliet,Nissewaard,Zuid-Holland,VBO,4.266504,51.862161
Griendweg,57,,,3211XC,Geervliet,Nissewaard,Zuid-Holland,VBO,4.266488,51.862214
Griendweg,59,,,3211XC,Geervliet,Nissewaard,Zuid-Holland,VBO,4.266487,51.862268
Griendweg,61,,,3211XC,Geervliet,Nissewaard,Zuid-Holland,VBO,4.266428,51.862313
Griendweg,63,,,3211XC,Geervliet,Nissewaard,Zuid-Holland,VBO,4.266470,51.862376
Griendweg,65,,,3211XC,Geervliet,Nissewaard,Zuid-Holland,VBO,4.266379,51.862537
Griendweg,67,,,3211XC,Geervliet,Nissewaard,Zuid-Holland,VBO,4.266277,51.862536
Griendweg,69,,,3211XC,Geervliet,Nissewaard,Zuid-Holland,VBO,4.266189,51.862562
Hooftweg,2,,,3211XD,Geervliet,Nissewaard,Zuid-Holland,VBO,4.260286,51.863659
Hooftweg,4,,,3211XD,Geervliet,Nissewaard,Zuid-Holland,VBO,4.260225,51.863602
Hooftweg,6,,,3211XD,Geervliet,Nissewaard,Zuid-Holland,VBO,4.260187,51.863559
Hooftweg,8,,,3211XD,Geervliet,Nissewaard,Zuid-Holland,VBO,4.260209,51.863505
Hooftweg,10,,,3211XD,Geervliet,Nissewaard,Zuid-Holland,VBO,4.260171,51.863457
Hooftweg,61,,,3211XE,Geervliet,Nissewaard,Zuid-Holland,VBO,4.265938,51.862739
Hooftweg,63,,,3211XE,Geervliet,Nissewaard,Zuid-Holland,VBO,4.265879,51.862757
Hooftweg,65,,,3211XE,Geervliet,Nissewaard,Zuid-Holland,VBO,4.265777,51.862783
Hooftweg,67,,,3211XE,Geervliet,Nissewaard,Zuid-Holland,VBO,4.264830,51.862918
Hooftweg,69,,,3211XE,Geervliet,Nissewaard,Zuid-Holland,VBO,4.264713,51.862935
Hooftweg,71,,,3211XE,Geervliet,Nissewaard,Zuid-Holland,VBO,4.264626,51.862943
Hooftweg,73,,,3211XE,Geervliet,Nissewaard,Zuid-Holland,VBO,4.264553,51.862951
Hooftweg,75,,,3211XE,Geervliet,Nissewaard,Zuid-Holland,VBO,4.264437,51.862950
Hooftweg,77,,,3211XE,Geervliet,Nissewaard,Zuid-Holland,VBO,4.264365,51.862940
Hooftweg,79,,,3211XE,Geervliet,Nissewaard,Zuid-Holland,VBO,4.264015,51.862991
Hooftweg,81,,,3211XE,Geervliet,Nissewaard,Zuid-Holland,VBO,4.263928,51.863008
Hooftweg,83,,,3211XE,Geervliet,Nissewaard,Zuid-Holland,VBO,4.263826,51.863025
Hooftweg,85,,,3211XE,Geervliet,Nissewaard,Zuid-Holland,VBO,4.263724,51.863042
Hooftweg,87,,,3211XE,Geervliet,Nissewaard,Zuid-Holland,VBO,4.263665,51.863041
Hooftweg,89,,,3211XE,Geervliet,Nissewaard,Zuid-Holland,VBO,4.263549,51.863040
Hooftweg,91,,,3211XE,Geervliet,Nissewaard,Zuid-Holland,VBO,4.262864,51.863169
Hooftweg,93,,,3211XE,Geervliet,Nissewaard,Zuid-Holland,VBO,4.262769,51.863186
Hooftweg,95,,,3211XE,Geervliet,Nissewaard,Zuid-Holland,VBO,4.262689,51.863203
Hooftweg,97,,,3211XE,Geervliet,Nissewaard,Zuid-Holland,VBO,4.262601,51.863220
Hooftweg,99,,,3211XE,Geervliet,Nissewaard,Zuid-Holland,VBO,4.262499,51.863228
Hooftweg,101,,,3211XE,Geervliet,Nissewaard,Zuid-Holland,VBO,4.262412,51.863245
Hooftweg,103,,,3211XE,Geervliet,Nissewaard,Zuid-Holland,VBO,4.262033,51.863313
Hooftweg,105,,,3211XE,Geervliet,Nissewaard,Zuid-Holland,VBO,4.261960,51.863322
Hooftweg,107,,,3211XE,Geervliet,Nissewaard,Zuid-Holland,VBO,4.261858,51.863339
Hooftweg,109,,,3211XE,Geervliet,Nissewaard,Zuid-Holland,VBO,4.261785,51.863356
Hooftweg,111,,,3211XE,Geervliet,Nissewaard,Zuid-Holland,VBO,4.261697,51.863364
Hooftweg,113,,,3211XE,Geervliet,Nissewaard,Zuid-Holland,VBO,4.261595,51.863381
Hooftweg,115,,,3211XE,Geervliet,Nissewaard,Zuid-Holland,VBO,4.260619,51.863534
Hooftweg,117,,,3211XE,Geervliet,Nissewaard,Zuid-Holland,VBO,4.260577,51.863470
Hooftweg,119,,,3211XE,Geervliet,Nissewaard,Zuid-Holland,VBO,4.260534,51.863425
Hooftweg,121,,,3211XE,Geervliet,Nissewaard,Zuid-Holland,VBO,4.260507,51.863371
Hooftweg,123,,,3211XE,Geervliet,Nissewaard,Zuid-Holland,VBO,4.260479,51.863316
Polderlaan,5,,,3211XG,Geervliet,Nissewaard,Zuid-Holland,VBO,4.265594,51.860210
Polderlaan,7,,,3211XG,Geervliet,Nissewaard,Zuid-Holland,VBO,4.265564,51.860255
Polderlaan,9,,,3211XG,Geervliet,Nissewaard,Zuid-Holland,VBO,4.265563,51.860318
Polderlaan,11,,,3211XG,Geervliet,Nissewaard,Zuid-Holland,VBO,4.265547,51.860372
Polderlaan,13,,,3211XG,Geervliet,Nissewaard,Zuid-Holland,VBO,4.265531,51.860425
Polderlaan,15,,,3211XG,Geervliet,Nissewaard,Zuid-Holland,VBO,4.265530,51.860479
Polderlaan,17,,,3211XG,Geervliet,Nissewaard,Zuid-Holland,VBO,4.265499,51.860533
Polderlaan,19,,,3211XG,Geervliet,Nissewaard,Zuid-Holland,VBO,4.265498,51.860587
Polderlaan,21,a,,3211XG,Geervliet,Nissewaard,Zuid-Holland,VBO,4.265220,51.860665
Polderlaan,21,,,3211XG,Geervliet,Nissewaard,Zuid-Holland,VBO,4.265451,51.860712
Polderlaan,23,,,3211XG,Geervliet,Nissewaard,Zuid-Holland,VBO,4.265450,51.860775
Polderlaan,25,,,3211XG,Geervliet,Nissewaard,Zuid-Holland,VBO,4.265420,51.860820
Polderlaan,27,,,3211XG,Geervliet,Nissewaard,Zuid-Holland,VBO,4.265404,51.860856
Polderlaan,29,,,3211XG,Geervliet,Nissewaard,Zuid-Holland,VBO,4.265388,51.860909
Polderlaan,31,,,3211XG,Geervliet,Nissewaard,Zuid-Holland,VBO,4.265387,51.860963
Polderlaan,33,,,3211XG,Geervliet,Nissewaard,Zuid-Holland,VBO,4.265371,51.861008
Polderlaan,35,,,3211XG,Geervliet,Nissewaard,Zuid-Holland,VBO,4.265369,51.861089
Polderlaan,39,,,3211XH,Geervliet,Nissewaard,Zuid-Holland,VBO,4.265273,51.861448
Polderlaan,41,,,3211XH,Geervliet,Nissewaard,Zuid-Holland,VBO,4.265257,51.861501
Polderlaan,43,,,3211XH,Geervliet,Nissewaard,Zuid-Holland,VBO,4.265242,51.861537
Polderlaan,45,,,3211XH,Geervliet,Nissewaard,Zuid-Holland,VBO,4.265226,51.861591
Polderlaan,47,,,3211XH,Geervliet,Nissewaard,Zuid-Holland,VBO,4.265210,51.861645
Polderlaan,49,,,3211XH,Geervliet,Nissewaard,Zuid-Holland,VBO,4.265209,51.861708
Polderlaan,51,,,3211XH,Geervliet,Nissewaard,Zuid-Holland,VBO,4.265193,51.861771
Polderlaan,53,,,3211XH,Geervliet,Nissewaard,Zuid-Holland,VBO,4.265191,51.861824
Polderlaan,55,,,3211XH,Geervliet,Nissewaard,Zuid-Holland,VBO,4.264855,51.861902
Polderlaan,57,,,3211XH,Geervliet,Nissewaard,Zuid-Holland,VBO,4.264768,51.861892
Polderlaan,59,,,3211XH,Geervliet,Nissewaard,Zuid-Holland,VBO,4.264681,51.861900
Polderlaan,61,,,3211XH,Geervliet,Nissewaard,Zuid-Holland,VBO,4.264608,51.861918
Polderlaan,63,,,3211XH,Geervliet,Nissewaard,Zuid-Holland,VBO,4.264521,51.861935
Polderlaan,89,,,3211XH,Geervliet,Nissewaard,Zuid-Holland,VBO,4.261298,51.862488
Polderlaan,91,,,3211XH,Geervliet,Nissewaard,Zuid-Holland,VBO,4.261211,51.862496
Polderlaan,93,,,3211XH,Geervliet,Nissewaard,Zuid-Holland,VBO,4.261138,51.862505
Polderlaan,95,,,3211XH,Geervliet,Nissewaard,Zuid-Holland,VBO,4.261043,51.862522
Polderlaan,97,,,3211XH,Geervliet,Nissewaard,Zuid-Holland,VBO,4.260934,51.862539
Polderlaan,99,,,3211XJ,Geervliet,Nissewaard,Zuid-Holland,VBO,4.260764,51.862357
Polderlaan,101,,,3211XJ,Geervliet,Nissewaard,Zuid-Holland,VBO,4.260722,51.862303
Polderlaan,103,,,3211XJ,Geervliet,Nissewaard,Zuid-Holland,VBO,4.260680,51.862249
Polderlaan,105,,,3211XJ,Geervliet,Nissewaard,Zuid-Holland,VBO,4.260652,51.862203
Polderlaan,107,,,3211XJ,Geervliet,Nissewaard,Zuid-Holland,VBO,4.260610,51.862149
Polderlaan,109,,,3211XJ,Geervliet,Nissewaard,Zuid-Holland,VBO,4.260582,51.862104
Polderlaan,111,,,3211XJ,Geervliet,Nissewaard,Zuid-Holland,VBO,4.260482,51.862022
Polderlaan,113,,,3211XJ,Geervliet,Nissewaard,Zuid-Holland,VBO,4.260440,51.861977
Polderlaan,115,,,3211XJ,Geervliet,Nissewaard,Zuid-Holland,VBO,4.260383,51.861922
Polderlaan,117,,,3211XJ,Geervliet,Nissewaard,Zuid-Holland,VBO,4.260341,51.861877
Polderlaan,119,,,3211XJ,Geervliet,Nissewaard,Zuid-Holland,VBO,4.260298,51.861832
Polderlaan,121,,,3211XJ,Geervliet,Nissewaard,Zuid-Holland,VBO,4.260256,51.861786
Polderlaan,123,,,3211XJ,Geervliet,Nissewaard,Zuid-Holland,VBO,4.260185,51.861732
Polderlaan,125,,,3211XJ,Geervliet,Nissewaard,Zuid-Holland,VBO,4.260142,51.861695
Polderlaan,127,,,3211XJ,Geervliet,Nissewaard,Zuid-Holland,VBO,4.260100,51.861650
Polderlaan,129,,,3211XJ,Geervliet,Nissewaard,Zuid-Holland,VBO,4.260086,51.861605
Polderlaan,6,,,3211XK,Geervliet,Nissewaard,Zuid-Holland,VBO,4.266072,51.860287
Polderlaan,8,,,3211XK,Geervliet,Nissewaard,Zuid-Holland,VBO,4.266055,51.860359
Polderlaan,10,,,3211XK,Geervliet,Nissewaard,Zuid-Holland,VBO,4.266039,51.860412
Polderlaan,12,,,3211XK,Geervliet,Nissewaard,Zuid-Holland,VBO,4.266039,51.860448
Polderlaan,14,,,3211XK,Geervliet,Nissewaard,Zuid-Holland,VBO,4.266023,51.860502
Polderlaan,16,,,3211XK,Geervliet,Nissewaard,Zuid-Holland,VBO,4.266028,51.860578
Polderlaan,18,,,3211XK,Geervliet,Nissewaard,Zuid-Holland,VBO,4.265988,51.860726
Polderlaan,20,,,3211XK,Geervliet,Nissewaard,Zuid-Holland,VBO,4.265972,51.860789
Polderlaan,22,,,3211XK,Geervliet,Nissewaard,Zuid-Holland,VBO,4.265971,51.860843
Polderlaan,24,,,3211XK,Geervliet,Nissewaard,Zuid-Holland,VBO,4.265955,51.860897
Polderlaan,26,,,3211XK,Geervliet,Nissewaard,Zuid-Holland,VBO,4.265938,51.860987
Polderlaan,28,,,3211XK,Geervliet,Nissewaard,Zuid-Holland,VBO,4.265922,51.861049
Polderlaan,30,,,3211XK,Geervliet,Nissewaard,Zuid-Holland,VBO,4.265921,51.861094
Polderlaan,32,,,3211XK,Geervliet,Nissewaard,Zuid-Holland,VBO,4.265905,51.861166
Polderlaan,34,,,3211XK,Geervliet,Nissewaard,Zuid-Holland,VBO,4.265874,51.861211
Polderlaan,36,,,3211XK,Geervliet,Nissewaard,Zuid-Holland,VBO,4.265873,51.861265
Polderlaan,38,,,3211XK,Geervliet,Nissewaard,Zuid-Holland,VBO,4.265892,51.861359
Polderlaan,40,,,3211XK,Geervliet,Nissewaard,Zuid-Holland,VBO,4.265826,51.861417
Polderlaan,42,,,3211XK,Geervliet,Nissewaard,Zuid-Holland,VBO,4.265810,51.861471
Polderlaan,44,,,3211XK,Geervliet,Nissewaard,Zuid-Holland,VBO,4.265794,51.861516
Polderlaan,46,,,3211XK,Geervliet,Nissewaard,Zuid-Holland,VBO,4.265732,51.861695
Polderlaan,48,,,3211XK,Geervliet,Nissewaard,Zuid-Holland,VBO,4.265716,51.861740
Polderlaan,50,,,3211XK,Geervliet,Nissewaard,Zuid-Holland,VBO,4.265700,51.861793
Polderlaan,52,,,3211XK,Geervliet,Nissewaard,Zuid-Holland,VBO,4.265684,51.861856
Polderlaan,54,,,3211XK,Geervliet,Nissewaard,Zuid-Holland,VBO,4.265668,51.861901
Polderlaan,56,,,3211XK,Geervliet,Nissewaard,Zuid-Holland,VBO,4.265653,51.861955
Polderlaan,58,,,3211XL,Geervliet,Nissewaard,Zuid-Holland,VBO,4.265110,51.862183
Polderlaan,60,,,3211XL,Geervliet,Nissewaard,Zuid-Holland,VBO,4.265022,51.862218
Polderlaan,62,,,3211XL,Geervliet,Nissewaard,Zuid-Holland,VBO,4.264949,51.862236
Polderlaan,64,,,3211XL,Geervliet,Nissewaard,Zuid-Holland,VBO,4.264861,51.862253
Polderlaan,66,,,3211XL,Geervliet,Nissewaard,Zuid-Holland,VBO,4.264774,51.862270
Polderlaan,68,,,3211XL,Geervliet,Nissewaard,Zuid-Holland,VBO,4.264686,51.862287
Polderlaan,70,,,3211XL,Geervliet,Nissewaard,Zuid-Holland,VBO,4.264599,51.862304
Polderlaan,72,,,3211XL,Geervliet,Nissewaard,Zuid-Holland,VBO,4.264511,51.862303
Polderlaan,74,,,3211XL,Geervliet,Nissewaard,Zuid-Holland,VBO,4.264337,51.862311
Polderlaan,76,,,3211XL,Geervliet,Nissewaard,Zuid-Holland,VBO,4.264264,51.862328
Polderlaan,78,,,3211XL,Geervliet,Nissewaard,Zuid-Holland,VBO,4.264162,51.862345
Polderlaan,80,,,3211XL,Geervliet,Nissewaard,Zuid-Holland,VBO,4.264089,51.862353
Polderlaan,82,,,3211XL,Geervliet,Nissewaard,Zuid-Holland,VBO,4.263796,51.862476
Polderlaan,84,,,3211XL,Geervliet,Nissewaard,Zuid-Holland,VBO,4.263708,51.862446
Polderlaan,86,,,3211XL,Geervliet,Nissewaard,Zuid-Holland,VBO,4.263608,51.862448
Polderlaan,88,,,3211XL,Geervliet,Nissewaard,Zuid-Holland,VBO,4.263534,51.862483
Polderlaan,90,,,3211XL,Geervliet,Nissewaard,Zuid-Holland,VBO,4.263447,51.862482
Polderlaan,92,,,3211XL,Geervliet,Nissewaard,Zuid-Holland,VBO,4.263345,51.862490
Polderlaan,94,,,3211XL,Geervliet,Nissewaard,Zuid-Holland,VBO,4.263185,51.862506
Polderlaan,96,,,3211XL,Geervliet,Nissewaard,Zuid-Holland,VBO,4.263112,51.862542
Polderlaan,98,,,3211XL,Geervliet,Nissewaard,Zuid-Holland,VBO,4.263024,51.862550
Polderlaan,100,,,3211XL,Geervliet,Nissewaard,Zuid-Holland,VBO,4.262951,51.862567
Polderlaan,102,,,3211XL,Geervliet,Nissewaard,Zuid-Holland,VBO,4.262849,51.862584
Polderlaan,104,,,3211XL,Geervliet,Nissewaard,Zuid-Holland,VBO,4.262762,51.862583
Polderlaan,106,,,3211XL,Geervliet,Nissewaard,Zuid-Holland,VBO,4.262609,51.862618
Polderlaan,108,,,3211XL,Geervliet,Nissewaard,Zuid-Holland,VBO,4.262500,51.862626
Polderlaan,110,,,3211XL,Geervliet,Nissewaard,Zuid-Holland,VBO,4.262427,51.862634
Polderlaan,112,,,3211XL,Geervliet,Nissewaard,Zuid-Holland,VBO,4.262372,51.862681
Polderlaan,114,,,3211XL,Geervliet,Nissewaard,Zuid-Holland,VBO,4.262252,51.862668
Polderlaan,116,,,3211XL,Geervliet,Nissewaard,Zuid-Holland,VBO,4.262150,51.862685
Polderlaan,118,,,3211XM,Geervliet,Nissewaard,Zuid-Holland,VBO,4.261859,51.862718
Polderlaan,120,,,3211XM,Geervliet,Nissewaard,Zuid-Holland,VBO,4.261757,51.862735
Polderlaan,122,,,3211XM,Geervliet,Nissewaard,Zuid-Holland,VBO,4.261684,51.862744
Polderlaan,124,,,3211XM,Geervliet,Nissewaard,Zuid-Holland,VBO,4.261582,51.862752
Polderlaan,126,,,3211XM,Geervliet,Nissewaard,Zuid-Holland,VBO,4.261421,51.862786
Polderlaan,128,,,3211XM,Geervliet,Nissewaard,Zuid-Holland,VBO,4.261334,51.862803
Polderlaan,130,,,3211XM,Geervliet,Nissewaard,Zuid-Holland,VBO,4.261232,51.862820
Polderlaan,132,,,3211XM,Geervliet,Nissewaard,Zuid-Holland,VBO,4.261159,51.862829
Polderlaan,134,,,3211XM,Geervliet,Nissewaard,Zuid-Holland,VBO,4.261072,51.862837
Polderlaan,136,,,3211XM,Geervliet,Nissewaard,Zuid-Holland,VBO,4.260999,51.862845
Polderlaan,138,,,3211XM,Geervliet,Nissewaard,Zuid-Holland,VBO,4.260883,51.862853
Polderlaan,140,,,3211XM,Geervliet,Nissewaard,Zuid-Holland,VBO,4.260787,51.862892
Polderlaan,142,,,3211XM,Geervliet,Nissewaard,Zuid-Holland,VBO,4.260466,51.862669
Polderlaan,144,,,3211XM,Geervliet,Nissewaard,Zuid-Holland,VBO,4.260409,51.862615
Polderlaan,146,,,3211XM,Geervliet,Nissewaard,Zuid-Holland,VBO,4.260367,51.862560
Polderlaan,148,,,3211XM,Geervliet,Nissewaard,Zuid-Holland,VBO,4.260310,51.862506
Polderlaan,150,,,3211XM,Geervliet,Nissewaard,Zuid-Holland,VBO,4.260254,51.862442
Polderlaan,152,,,3211XM,Geervliet,Nissewaard,Zuid-Holland,VBO,4.260185,51.862316
Polderlaan,154,,,3211XM,Geervliet,Nissewaard,Zuid-Holland,VBO,4.260114,51.862243
Prof Gerbrandyplein,1,,,3211XN,Geervliet,Nissewaard,Zuid-Holland,VBO,4.263524,51.862887
Prof Gerbrandyplein,2,,,3211XN,Geervliet,Nissewaard,Zuid-Holland,VBO,4.263497,51.862824
Prof Gerbrandyplein,3,,,3211XN,Geervliet,Nissewaard,Zuid-Holland,VBO,4.263483,51.862770
Prof Gerbrandyplein,4,,,3211XN,Geervliet,Nissewaard,Zuid-Holland,VBO,4.263222,51.862776
Prof Gerbrandyplein,5,,,3211XN,Geervliet,Nissewaard,Zuid-Holland,VBO,4.263120,51.862793
Prof Gerbrandyplein,6,,,3211XN,Geervliet,Nissewaard,Zuid-Holland,VBO,4.263033,51.862802
Prof Gerbrandyplein,7,,,3211XN,Geervliet,Nissewaard,Zuid-Holland,VBO,4.262945,51.862819
Prof Gerbrandyplein,8,,,3211XN,Geervliet,Nissewaard,Zuid-Holland,VBO,4.262755,51.862880
Prof Gerbrandyplein,9,,,3211XN,Geervliet,Nissewaard,Zuid-Holland,VBO,4.262782,51.862934
Prof Gerbrandyplein,10,,,3211XN,Geervliet,Nissewaard,Zuid-Holland,VBO,4.262810,51.862997
Professor Oudplein,1,,,3211XP,Geervliet,Nissewaard,Zuid-Holland,VBO,4.265529,51.862834
Professor Oudplein,2,,,3211XP,Geervliet,Nissewaard,Zuid-Holland,VBO,4.265516,51.862789
Professor Oudplein,3,,,3211XP,Geervliet,Nissewaard,Zuid-Holland,VBO,4.265444,51.862762
Professor Oudplein,4,,,3211XP,Geervliet,Nissewaard,Zuid-Holland,VBO,4.265416,51.862699
Professor Oudplein,5,,,3211XP,Geervliet,Nissewaard,Zuid-Holland,VBO,4.265374,51.862653
Professor Oudplein,6,,,3211XP,Geervliet,Nissewaard,Zuid-Holland,VBO,4.265332,51.862599
Professor Oudplein,7,,,3211XP,Geervliet,Nissewaard,Zuid-Holland,VBO,4.265289,51.862562
Professor Oudplein,8,,,3211XP,Geervliet,Nissewaard,Zuid-Holland,VBO,4.265276,51.862508
Professor Oudplein,9,,,3211XP,Geervliet,Nissewaard,Zuid-Holland,VBO,4.265030,51.862479
Professor Oudplein,10,,,3211XP,Geervliet,Nissewaard,Zuid-Holland,VBO,4.264942,51.862496
Professor Oudplein,11,,,3211XP,Geervliet,Nissewaard,Zuid-Holland,VBO,4.264869,51.862505
Professor Oudplein,12,,,3211XP,Geervliet,Nissewaard,Zuid-Holland,VBO,4.264767,51.862531
Professor Oudplein,13,,,3211XP,Geervliet,Nissewaard,Zuid-Holland,VBO,4.264677,51.862638
Professor Oudplein,14,,,3211XP,Geervliet,Nissewaard,Zuid-Holland,VBO,4.264749,51.862692
Professor Oudplein,15,,,3211XP,Geervliet,Nissewaard,Zuid-Holland,VBO,4.264733,51.862746
Schellinxweg,2,,,3211XR,Geervliet,Nissewaard,Zuid-Holland,VBO,4.260700,51.863031
Schellinxweg,3,,,3211XR,Geervliet,Nissewaard,Zuid-Holland,VBO,4.260521,51.862787
Schellinxweg,4,,,3211XR,Geervliet,Nissewaard,Zuid-Holland,VBO,4.260630,51.863084
Schellinxweg,5,,,3211XR,Geervliet,Nissewaard,Zuid-Holland,VBO,4.260462,51.862849
Schellinxweg,6,,,3211XR,Geervliet,Nissewaard,Zuid-Holland,VBO,4.260600,51.863138
Schellinxweg,7,,,3211XR,Geervliet,Nissewaard,Zuid-Holland,VBO,4.260416,51.862920
Schellinxweg,8,,,3211XR,Geervliet,Nissewaard,Zuid-Holland,VBO,4.260554,51.863200
Schellinxweg,9,,,3211XR,Geervliet,Nissewaard,Zuid-Holland,VBO,4.260313,51.862973
Schellinxweg,11,,,3211XR,Geervliet,Nissewaard,Zuid-Holland,VBO,4.260254,51.863027
Schellinxweg,13,,,3211XR,Geervliet,Nissewaard,Zuid-Holland,VBO,4.260236,51.863050
Schepenweg,1,,,3211XS,Geervliet,Nissewaard,Zuid-Holland,VBO,4.265402,51.862114
Schepenweg,2,,,3211XS,Geervliet,Nissewaard,Zuid-Holland,VBO,4.265722,51.862072
Schepenweg,3,,,3211XS,Geervliet,Nissewaard,Zuid-Holland,VBO,4.265473,51.862169
Schepenweg,4,,,3211XS,Geervliet,Nissewaard,Zuid-Holland,VBO,4.265764,51.862127
Schepenweg,5,,,3211XS,Geervliet,Nissewaard,Zuid-Holland,VBO,4.265515,51.862223
Schepenweg,6,,,3211XS,Geervliet,Nissewaard,Zuid-Holland,VBO,4.265807,51.862172
Schepenweg,7,,,3211XS,Geervliet,Nissewaard,Zuid-Holland,VBO,4.265558,51.862259
Schepenweg,8,,,3211XS,Geervliet,Nissewaard,Zuid-Holland,VBO,4.265835,51.862217
Schepenweg,9,,,3211XS,Geervliet,Nissewaard,Zuid-Holland,VBO,4.265628,51.862350
Schepenweg,10,,,3211XS,Geervliet,Nissewaard,Zuid-Holland,VBO,4.265877,51.862262
Schepenweg,11,,,3211XS,Geervliet,Nissewaard,Zuid-Holland,VBO,4.265671,51.862386
Schepenweg,12,,,3211XS,Geervliet,Nissewaard,Zuid-Holland,VBO,4.265920,51.862308
Schepenweg,13,,,3211XS,Geervliet,Nissewaard,Zuid-Holland,VBO,4.265713,51.862450
Schepenweg,14,,,3211XS,Geervliet,Nissewaard,Zuid-Holland,VBO,4.265991,51.862353
Schepenweg,15,,,3211XS,Geervliet,Nissewaard,Zuid-Holland,VBO,4.265755,51.862495
Schepenweg,16,,,3211XS,Geervliet,Nissewaard,Zuid-Holland,VBO,4.266019,51.862408
Schepenweg,17,,,3211XS,Geervliet,Nissewaard,Zuid-Holland,VBO,4.265798,51.862540
Schepenweg,19,,,3211XS,Geervliet,Nissewaard,Zuid-Holland,VBO,4.265840,51.862586
van der Werveweg,1,,,3211XT,Geervliet,Nissewaard,Zuid-Holland,VBO,4.263851,51.862603
van der Werveweg,2,,,3211XT,Geervliet,Nissewaard,Zuid-Holland,VBO,4.264186,51.862552
van der Werveweg,3,,,3211XT,Geervliet,Nissewaard,Zuid-Holland,VBO,4.263864,51.862657
van der Werveweg,4,,,3211XT,Geervliet,Nissewaard,Zuid-Holland,VBO,4.264199,51.862615
van der Werveweg,5,,,3211XT,Geervliet,Nissewaard,Zuid-Holland,VBO,4.263891,51.862711
van der Werveweg,6,,,3211XT,Geervliet,Nissewaard,Zuid-Holland,VBO,4.264241,51.862660
van der Werveweg,7,,,3211XT,Geervliet,Nissewaard,Zuid-Holland,VBO,4.263919,51.862765
van der Werveweg,8,,,3211XT,Geervliet,Nissewaard,Zuid-Holland,VBO,4.264255,51.862705
van der Werveweg,9,,,3211XT,Geervliet,Nissewaard,Zuid-Holland,VBO,4.263889,51.862828
van der Werveweg,10,,,3211XT,Geervliet,Nissewaard,Zuid-Holland,VBO,4.264297,51.862760
Kapittelpad,1,a,,3211XV,Geervliet,Nissewaard,Zuid-Holland,VBO,4.259943,51.862098
Kapittelpad,1,,,3211XV,Geervliet,Nissewaard,Zuid-Holland,VBO,4.259972,51.862125
Kapittelpad,3,a,,3211XV,Geervliet,Nissewaard,Zuid-Holland,VBO,4.259885,51.862115
Kapittelpad,3,,,3211XV,Geervliet,Nissewaard,Zuid-Holland,VBO,4.259913,51.862151
Kapittelpad,5,a,,3211XV,Geervliet,Nissewaard,Zuid-Holland,VBO,4.259811,51.862141
Kapittelpad,5,,,3211XV,Geervliet,Nissewaard,Zuid-Holland,VBO,4.259826,51.862160
Kapittelpad,7,a,,3211XV,Geervliet,Nissewaard,Zuid-Holland,VBO,4.259724,51.862159
Kapittelpad,7,,,3211XV,Geervliet,Nissewaard,Zuid-Holland,VBO,4.259752,51.862186
Kapittelpad,9,a,,3211XV,Geervliet,Nissewaard,Zuid-Holland,VBO,4.259665,51.862185
Kapittelpad,9,,,3211XV,Geervliet,Nissewaard,Zuid-Holland,VBO,4.259694,51.862212
Kapittelpad,11,a,,3211XV,Geervliet,Nissewaard,Zuid-Holland,VBO,4.259592,51.862211
Kapittelpad,11,,,3211XV,Geervliet,Nissewaard,Zuid-Holland,VBO,4.259606,51.862229
Kapittelpad,13,a,,3211XV,Geervliet,Nissewaard,Zuid-Holland,VBO,4.259533,51.862229
Kapittelpad,13,,,3211XV,Geervliet,Nissewaard,Zuid-Holland,VBO,4.259562,51.862256
Roosendaelweg,1,,,3211XW,Geervliet,Nissewaard,Zuid-Holland,VBO,4.259298,51.862919
Roosendaelweg,2,,,3211XW,Geervliet,Nissewaard,Zuid-Holland,VBO,4.259711,51.862370
Roosendaelweg,3,,,3211XW,Geervliet,Nissewaard,Zuid-Holland,VBO,4.259253,51.862972
Roosendaelweg,4,,,3211XW,Geervliet,Nissewaard,Zuid-Holland,VBO,4.259754,51.862411
Roosendaelweg,5,,,3211XW,Geervliet,Nissewaard,Zuid-Holland,VBO,4.259267,51.863017
Roosendaelweg,6,,,3211XW,Geervliet,Nissewaard,Zuid-Holland,VBO,4.259804,51.862447
Roosendaelweg,7,,,3211XW,Geervliet,Nissewaard,Zuid-Holland,VBO,4.259280,51.863071
Roosendaelweg,8,,,3211XW,Geervliet,Nissewaard,Zuid-Holland,VBO,4.259824,51.862492
Roosendaelweg,9,,,3211XW,Geervliet,Nissewaard,Zuid-Holland,VBO,4.259272,51.863116
Roosendaelweg,10,,,3211XW,Geervliet,Nissewaard,Zuid-Holland,VBO,4.259918,51.862520
Roosendaelweg,11,,,3211XW,Geervliet,Nissewaard,Zuid-Holland,VBO,4.259267,51.863176
Roosendaelweg,12,,,3211XW,Geervliet,Nissewaard,Zuid-Holland,VBO,4.259961,51.862556
Roosendaelweg,13,,,3211XW,Geervliet,Nissewaard,Zuid-Holland,VBO,4.259305,51.863215
Roosendaelweg,14,,,3211XW,Geervliet,Nissewaard,Zuid-Holland,VBO,4.260003,51.862602
Roosendaelweg,15,,,3211XW,Geervliet,Nissewaard,Zuid-Holland,VBO,4.259441,51.863324
Roosendaelweg,16,,,3211XW,Geervliet,Nissewaard,Zuid-Holland,VBO,4.260060,51.862647
Roosendaelweg,17,,,3211XW,Geervliet,Nissewaard,Zuid-Holland,VBO,4.259520,51.863352
Roosendaelweg,18,,,3211XW,Geervliet,Nissewaard,Zuid-Holland,VBO,4.260014,51.862755
Roosendaelweg,19,,,3211XW,Geervliet,Nissewaard,Zuid-Holland,VBO,4.259592,51.863371
Roosendaelweg,20,,,3211XW,Geervliet,Nissewaard,Zuid-Holland,VBO,4.259969,51.862799
Roosendaelweg,21,,,3211XW,Geervliet,Nissewaard,Zuid-Holland,VBO,4.259664,51.863390
Roosendaelweg,22,,,3211XW,Geervliet,Nissewaard,Zuid-Holland,VBO,4.259925,51.862835
Roosendaelweg,23,,,3211XW,Geervliet,Nissewaard,Zuid-Holland,VBO,4.259751,51.863381
Roosendaelweg,24,,,3211XW,Geervliet,Nissewaard,Zuid-Holland,VBO,4.259894,51.862888
Roosendaelweg,25,,,3211XW,Geervliet,Nissewaard,Zuid-Holland,VBO,4.259838,51.863391
Roosendaelweg,26,,,3211XW,Geervliet,Nissewaard,Zuid-Holland,VBO,4.259850,51.862924
Roosendaelweg,27,,,3211XW,Geervliet,Nissewaard,Zuid-Holland,VBO,4.259910,51.863410
Roosendaelweg,28,,,3211XW,Geervliet,Nissewaard,Zuid-Holland,VBO,4.259835,51.862960
Roosendaelweg,29,,,3211XW,Geervliet,Nissewaard,Zuid-Holland,VBO,4.260012,51.863420
Roosendaelweg,30,,,3211XW,Geervliet,Nissewaard,Zuid-Holland,VBO,4.259802,51.863110
Roosendaelweg,32,,,3211XW,Geervliet,Nissewaard,Zuid-Holland,VBO,4.259918,51.863118
Roosendaelweg,34,,,3211XW,Geervliet,Nissewaard,Zuid-Holland,VBO,4.260025,51.863177
Roosendaelweg,36,,,3211XW,Geervliet,Nissewaard,Zuid-Holland,VBO,4.260148,51.863187
Prinses Julianaplein,1,,,3211XX,Geervliet,Nissewaard,Zuid-Holland,VBO,4.259225,51.862666
Reede,1,,,3211XZ,Geervliet,Nissewaard,Zuid-Holland,VBO,4.262319,51.862318
Reede,2,,,3211XZ,Geervliet,Nissewaard,Zuid-Holland,VBO,4.262291,51.862255
Reede,3,,,3211XZ,Geervliet,Nissewaard,Zuid-Holland,VBO,4.262293,51.862201
Reede,4,,,3211XZ,Geervliet,Nissewaard,Zuid-Holland,VBO,4.262251,51.862129
Reede,5,,,3211XZ,Geervliet,Nissewaard,Zuid-Holland,VBO,4.262682,51.862295
Reede,6,,,3211XZ,Geervliet,Nissewaard,Zuid-Holland,VBO,4.262684,51.862241
Reede,7,,,3211XZ,Geervliet,Nissewaard,Zuid-Holland,VBO,4.262657,51.862160
Reede,8,,,3211XZ,Geervliet,Nissewaard,Zuid-Holland,VBO,4.262687,51.862097
Reede,9,,,3211XZ,Geervliet,Nissewaard,Zuid-Holland,VBO,4.263179,51.862183
Reede,10,,,3211XZ,Geervliet,Nissewaard,Zuid-Holland,VBO,4.263122,51.862137
Reede,11,,,3211XZ,Geervliet,Nissewaard,Zuid-Holland,VBO,4.263080,51.862083
Reede,12,,,3211XZ,Geervliet,Nissewaard,Zuid-Holland,VBO,4.263052,51.862029
Reede,13,,,3211XZ,Geervliet,Nissewaard,Zuid-Holland,VBO,4.263499,51.862141
Reede,14,,,3211XZ,Geervliet,Nissewaard,Zuid-Holland,VBO,4.263457,51.862069
Reede,15,,,3211XZ,Geervliet,Nissewaard,Zuid-Holland,VBO,4.263444,51.862015
Reede,16,,,3211XZ,Geervliet,Nissewaard,Zuid-Holland,VBO,4.263431,51.861951
