openbareruimtenaam,huisnummer,huisletter,huisnummertoevoeging,postcode,woonplaatsnaam,gemeentenaam,provincienaam,typeadresseerbaarobject,longitude,latitude
Hellevoetse Achterweg,1,,,3222AA,Hellevoetsluis,Hellevoetsluis,Zuid-Holland,VBO,4.122213,51.837511
Hellevoetse Achterweg,2,,,3222AA,Hellevoetsluis,Hellevoetsluis,Zuid-Holland,VBO,4.122204,51.837808
Hellevoetse Achterweg,3,,,3222AA,Hellevoetsluis,Hellevoetsluis,Zuid-Holland,VBO,4.122066,51.837555
Hellevoetse Achterweg,4,,,3222AA,Hellevoetsluis,Hellevoetsluis,Zuid-Holland,VBO,4.120387,51.837932
Hellevoetse Achterweg,5,,,3222AA,Hellevoetsluis,Hellevoetsluis,Zuid-Holland,VBO,4.121460,51.837449
Hellevoetse Achterweg,6,a,,3222AA,Hellevoetsluis,Hellevoetsluis,Zuid-Holland,VBO,4.118865,51.837889
Hellevoetse Achterweg,6,,,3222AA,Hellevoetsluis,Hellevoetsluis,Zuid-Holland,VBO,4.118865,51.837889
Moriaanseweg West,1,a,,3222AB,Hellevoetsluis,Hellevoetsluis,Zuid-Holland,VBO,4.123744,51.837771
Moriaanseweg West,1,b,,3222AB,Hellevoetsluis,Hellevoetsluis,Zuid-Holland,VBO,4.123710,51.837773
Moriaanseweg West,1,,,3222AB,Hellevoetsluis,Hellevoetsluis,Zuid-Holland,VBO,4.123698,51.837842
Moriaanseweg West,3,,,3222AB,Hellevoetsluis,Hellevoetsluis,Zuid-Holland,VBO,4.123756,51.837843
Moriaanseweg West,5,,,3222AB,Hellevoetsluis,Hellevoetsluis,Zuid-Holland,VBO,4.124075,51.837864
Moriaanseweg West,7,,,3222AB,Hellevoetsluis,Hellevoetsluis,Zuid-Holland,VBO,4.124365,51.837858
Moriaanseweg West,9,,,3222AB,Hellevoetsluis,Hellevoetsluis,Zuid-Holland,VBO,4.124481,51.837860
Moriaanseweg West,11,,,3222AB,Hellevoetsluis,Hellevoetsluis,Zuid-Holland,VBO,4.124713,51.837880
Moriaanseweg West,13,,,3222AB,Hellevoetsluis,Hellevoetsluis,Zuid-Holland,VBO,4.124872,51.837909
Moriaanseweg West,15,,,3222AB,Hellevoetsluis,Hellevoetsluis,Zuid-Holland,VBO,4.125117,51.837965
Moriaanseweg West,17,,,3222AB,Hellevoetsluis,Hellevoetsluis,Zuid-Holland,VBO,4.125276,51.837967
Moriaanseweg West,19,,,3222AB,Hellevoetsluis,Hellevoetsluis,Zuid-Holland,VBO,4.125450,51.837996
Moriaanseweg West,21,,,3222AB,Hellevoetsluis,Hellevoetsluis,Zuid-Holland,VBO,4.125522,51.838006
Moriaanseweg West,23,,,3222AB,Hellevoetsluis,Hellevoetsluis,Zuid-Holland,VBO,4.125653,51.837998
Moriaanseweg West,25,,,3222AB,Hellevoetsluis,Hellevoetsluis,Zuid-Holland,VBO,4.125812,51.838009
Moriaanseweg West,27,,,3222AB,Hellevoetsluis,Hellevoetsluis,Zuid-Holland,VBO,4.125957,51.838028
Moriaanseweg West,29,,,3222AB,Hellevoetsluis,Hellevoetsluis,Zuid-Holland,VBO,4.126043,51.838038
Moriaanseweg West,31,,,3222AB,Hellevoetsluis,Hellevoetsluis,Zuid-Holland,VBO,4.126116,51.838039
Moriaanseweg West,33,,,3222AB,Hellevoetsluis,Hellevoetsluis,Zuid-Holland,VBO,4.126203,51.838049
Moriaanseweg West,35,,,3222AB,Hellevoetsluis,Hellevoetsluis,Zuid-Holland,VBO,4.126304,51.838059
Moriaanseweg West,37,,,3222AB,Hellevoetsluis,Hellevoetsluis,Zuid-Holland,VBO,4.126391,51.838069
Moriaanseweg West,39,,,3222AB,Hellevoetsluis,Hellevoetsluis,Zuid-Holland,VBO,4.126477,51.838088
Moriaanseweg West,41,,,3222AB,Hellevoetsluis,Hellevoetsluis,Zuid-Holland,VBO,4.126637,51.838080
Moriaanseweg West,43,,,3222AB,Hellevoetsluis,Hellevoetsluis,Zuid-Holland,VBO,4.126796,51.838109
Moriaanseweg West,45,a,,3222AB,Hellevoetsluis,Hellevoetsluis,Zuid-Holland,VBO,4.127143,51.838140
Moriaanseweg West,45,,,3222AB,Hellevoetsluis,Hellevoetsluis,Zuid-Holland,VBO,4.126970,51.838120
Moriaanseweg West,47,,,3222AB,Hellevoetsluis,Hellevoetsluis,Zuid-Holland,VBO,4.127968,51.838248
Moriaanseweg West,49,,,3222AB,Hellevoetsluis,Hellevoetsluis,Zuid-Holland,VBO,4.128785,51.838299
Moriaanseweg West,51,,,3222AB,Hellevoetsluis,Hellevoetsluis,Zuid-Holland,VBO,4.128953,51.838312
Moriaanseweg West,53,,,3222AB,Hellevoetsluis,Hellevoetsluis,Zuid-Holland,VBO,4.129085,51.838251
Moriaanseweg West,55,,,3222AB,Hellevoetsluis,Hellevoetsluis,Zuid-Holland,VBO,4.129157,51.838260
Moriaanseweg West,57,,,3222AB,Hellevoetsluis,Hellevoetsluis,Zuid-Holland,VBO,4.129287,51.838289
Moriaanseweg West,59,,,3222AB,Hellevoetsluis,Hellevoetsluis,Zuid-Holland,VBO,4.129374,51.838290
Moriaanseweg West,61,,,3222AB,Hellevoetsluis,Hellevoetsluis,Zuid-Holland,VBO,4.129562,51.838301
Moriaanseweg West,63,,,3222AB,Hellevoetsluis,Hellevoetsluis,Zuid-Holland,VBO,4.129561,51.838346
Moriaanseweg West,69,,,3222AC,Hellevoetsluis,Hellevoetsluis,Zuid-Holland,VBO,4.130055,51.838333
Moriaanseweg West,71,a,,3222AC,Hellevoetsluis,Hellevoetsluis,Zuid-Holland,VBO,4.130622,51.838806
Moriaanseweg West,71,b,,3222AC,Hellevoetsluis,Hellevoetsluis,Zuid-Holland,VBO,4.130623,51.838770
Moriaanseweg West,71,c,,3222AC,Hellevoetsluis,Hellevoetsluis,Zuid-Holland,VBO,4.130638,51.838753
Moriaanseweg West,71,d,,3222AC,Hellevoetsluis,Hellevoetsluis,Zuid-Holland,VBO,4.130639,51.838717
Moriaanseweg West,71,e,,3222AC,Hellevoetsluis,Hellevoetsluis,Zuid-Holland,VBO,4.130640,51.838690
Moriaanseweg West,71,,,3222AC,Hellevoetsluis,Hellevoetsluis,Zuid-Holland,VBO,4.130258,51.838335
Moriaanseweg West,73,,,3222AC,Hellevoetsluis,Hellevoetsluis,Zuid-Holland,VBO,4.130444,51.838427
Moriaanseweg West,75,,,3222AC,Hellevoetsluis,Hellevoetsluis,Zuid-Holland,VBO,4.130516,51.838428
Moriaanseweg West,77,,,3222AC,Hellevoetsluis,Hellevoetsluis,Zuid-Holland,VBO,4.130589,51.838428
Moriaanseweg West,79,,,3222AC,Hellevoetsluis,Hellevoetsluis,Zuid-Holland,VBO,4.130676,51.838438
Moriaanseweg West,81,,,3222AC,Hellevoetsluis,Hellevoetsluis,Zuid-Holland,VBO,4.130894,51.838414
Moriaanseweg West,83,,,3222AC,Hellevoetsluis,Hellevoetsluis,Zuid-Holland,VBO,4.130967,51.838415
Moriaanseweg West,85,,,3222AC,Hellevoetsluis,Hellevoetsluis,Zuid-Holland,VBO,4.131112,51.838416
Moriaanseweg West,89,,,3222AC,Hellevoetsluis,Hellevoetsluis,Zuid-Holland,VBO,4.131314,51.838445
Moriaanseweg West,93,,,3222AC,Hellevoetsluis,Hellevoetsluis,Zuid-Holland,VBO,4.131517,51.838456
Moriaanseweg West,95,,,3222AC,Hellevoetsluis,Hellevoetsluis,Zuid-Holland,VBO,4.131604,51.838457
Moriaanseweg West,97,,,3222AC,Hellevoetsluis,Hellevoetsluis,Zuid-Holland,VBO,4.131822,51.838460
Moriaanseweg West,99,,,3222AC,Hellevoetsluis,Hellevoetsluis,Zuid-Holland,VBO,4.132039,51.838480
Moriaanseweg West,103,,WINK,3222AC,Hellevoetsluis,Hellevoetsluis,Zuid-Holland,VBO,4.132241,51.838500
Moriaanseweg West,103,,,3222AC,Hellevoetsluis,Hellevoetsluis,Zuid-Holland,VBO,4.132198,51.838491
Moriaanseweg West,107,,,3222AC,Hellevoetsluis,Hellevoetsluis,Zuid-Holland,VBO,4.132343,51.838483
Moriaanseweg West,109,,,3222AC,Hellevoetsluis,Hellevoetsluis,Zuid-Holland,VBO,4.132416,51.838493
Moriaanseweg West,111,,,3222AC,Hellevoetsluis,Hellevoetsluis,Zuid-Holland,VBO,4.132502,51.838512
Moriaanseweg West,113,,LOOD,3222AC,Hellevoetsluis,Hellevoetsluis,Zuid-Holland,VBO,4.132734,51.838541
Moriaanseweg West,113,,,3222AC,Hellevoetsluis,Hellevoetsluis,Zuid-Holland,VBO,4.132705,51.838532
Moriaanseweg West,125,,,3222AC,Hellevoetsluis,Hellevoetsluis,Zuid-Holland,VBO,4.133386,51.838575
Moriaanseweg West,127,,,3222AC,Hellevoetsluis,Hellevoetsluis,Zuid-Holland,VBO,4.133458,51.838576
Moriaanseweg West,129,,,3222AC,Hellevoetsluis,Hellevoetsluis,Zuid-Holland,VBO,4.133545,51.838577
Moriaanseweg West,131,,,3222AC,Hellevoetsluis,Hellevoetsluis,Zuid-Holland,VBO,4.133617,51.838587
Moriaanseweg West,133,,,3222AC,Hellevoetsluis,Hellevoetsluis,Zuid-Holland,VBO,4.133719,51.838588
Moriaanseweg West,135,,,3222AC,Hellevoetsluis,Hellevoetsluis,Zuid-Holland,VBO,4.133806,51.838598
Moriaanseweg West,137,,,3222AC,Hellevoetsluis,Hellevoetsluis,Zuid-Holland,VBO,4.133878,51.838607
Moriaanseweg West,2,a,,3222AD,Hellevoetsluis,Hellevoetsluis,Zuid-Holland,VBO,4.129295,51.838001
Moriaanseweg West,2,b,,3222AD,Hellevoetsluis,Hellevoetsluis,Zuid-Holland,VBO,4.128999,51.837701
Moriaanseweg West,2,,,3222AD,Hellevoetsluis,Hellevoetsluis,Zuid-Holland,VBO,4.128951,51.837863
Moriaanseweg West,4,,,3222AD,Hellevoetsluis,Hellevoetsluis,Zuid-Holland,VBO,4.129382,51.838002
Moriaanseweg West,6,,,3222AD,Hellevoetsluis,Hellevoetsluis,Zuid-Holland,VBO,4.129497,51.838048
Moriaanseweg West,8,,,3222AD,Hellevoetsluis,Hellevoetsluis,Zuid-Holland,VBO,4.129483,51.838021
Moriaanseweg West,10,,,3222AD,Hellevoetsluis,Hellevoetsluis,Zuid-Holland,VBO,4.129715,51.838042
Moriaanseweg West,12,,,3222AD,Hellevoetsluis,Hellevoetsluis,Zuid-Holland,VBO,4.129787,51.838042
Moriaanseweg West,14,,,3222AD,Hellevoetsluis,Hellevoetsluis,Zuid-Holland,VBO,4.129845,51.838052
Moriaanseweg West,16,,,3222AD,Hellevoetsluis,Hellevoetsluis,Zuid-Holland,VBO,4.129946,51.838062
Moriaanseweg West,18,,,3222AD,Hellevoetsluis,Hellevoetsluis,Zuid-Holland,VBO,4.130033,51.838063
Moriaanseweg West,20,a,,3222AD,Hellevoetsluis,Hellevoetsluis,Zuid-Holland,VBO,4.130266,51.838056
Moriaanseweg West,20,,,3222AD,Hellevoetsluis,Hellevoetsluis,Zuid-Holland,VBO,4.130192,51.838083
Moriaanseweg West,22,,,3222AD,Hellevoetsluis,Hellevoetsluis,Zuid-Holland,VBO,4.130381,51.838094
Moriaanseweg West,24,,,3222AD,Hellevoetsluis,Hellevoetsluis,Zuid-Holland,VBO,4.130569,51.838105
Moriaanseweg West,28,,,3222AD,Hellevoetsluis,Hellevoetsluis,Zuid-Holland,VBO,4.130757,51.838116
Moriaanseweg West,30,,,3222AD,Hellevoetsluis,Hellevoetsluis,Zuid-Holland,VBO,4.130887,51.838135
Moriaanseweg West,32,,,3222AD,Hellevoetsluis,Hellevoetsluis,Zuid-Holland,VBO,4.130974,51.838136
Moriaanseweg West,34,,,3222AD,Hellevoetsluis,Hellevoetsluis,Zuid-Holland,VBO,4.131148,51.838156
Moriaanseweg West,36,,,3222AD,Hellevoetsluis,Hellevoetsluis,Zuid-Holland,VBO,4.131278,51.838166
Moriaanseweg West,38,,,3222AD,Hellevoetsluis,Hellevoetsluis,Zuid-Holland,VBO,4.131405,51.837996
Moriaanseweg West,40,,,3222AD,Hellevoetsluis,Hellevoetsluis,Zuid-Holland,VBO,4.131467,51.838177
Moriaanseweg West,42,,,3222AD,Hellevoetsluis,Hellevoetsluis,Zuid-Holland,VBO,4.131539,51.838187
Moriaanseweg West,44,,,3222AD,Hellevoetsluis,Hellevoetsluis,Zuid-Holland,VBO,4.131655,51.838179
Moriaanseweg West,46,,WON,3222AD,Hellevoetsluis,Hellevoetsluis,Zuid-Holland,VBO,4.131757,51.838171
Moriaanseweg West,46,,,3222AD,Hellevoetsluis,Hellevoetsluis,Zuid-Holland,VBO,4.131742,51.838180
Moriaanseweg West,48,,,3222AD,Hellevoetsluis,Hellevoetsluis,Zuid-Holland,VBO,4.131858,51.838190
Moriaanseweg West,54,,,3222AD,Hellevoetsluis,Hellevoetsluis,Zuid-Holland,VBO,4.132267,51.838105
Moriaanseweg West,56,,,3222AD,Hellevoetsluis,Hellevoetsluis,Zuid-Holland,VBO,4.132495,51.838260
Moriaanseweg West,60,,,3222AD,Hellevoetsluis,Hellevoetsluis,Zuid-Holland,VBO,4.132726,51.838281
Moriaanseweg West,62,a,,3222AD,Hellevoetsluis,Hellevoetsluis,Zuid-Holland,VBO,4.133916,51.838372
Moriaanseweg West,62,,TANK,3222AD,Hellevoetsluis,Hellevoetsluis,Zuid-Holland,VBO,4.133495,51.838307
Moriaanseweg West,62,,,3222AD,Hellevoetsluis,Hellevoetsluis,Zuid-Holland,VBO,4.133365,51.838278
Ring,1,a,,3222AE,Hellevoetsluis,Hellevoetsluis,Zuid-Holland,VBO,4.122851,51.838022
Ring,1,b,,3222AE,Hellevoetsluis,Hellevoetsluis,Zuid-Holland,VBO,4.122735,51.838038
Ring,1,,,3222AE,Hellevoetsluis,Hellevoetsluis,Zuid-Holland,VBO,4.122953,51.838005
Ring,2,,,3222AE,Hellevoetsluis,Hellevoetsluis,Zuid-Holland,VBO,4.123063,51.838249
Ring,3,a,,3222AE,Hellevoetsluis,Hellevoetsluis,Zuid-Holland,VBO,4.122544,51.838117
Ring,3,b,,3222AE,Hellevoetsluis,Hellevoetsluis,Zuid-Holland,VBO,4.122485,51.838144
Ring,3,c,,3222AE,Hellevoetsluis,Hellevoetsluis,Zuid-Holland,VBO,4.122426,51.838179
Ring,3,,,3222AE,Hellevoetsluis,Hellevoetsluis,Zuid-Holland,VBO,4.122603,51.838091
Ring,5,a,,3222AE,Hellevoetsluis,Hellevoetsluis,Zuid-Holland,VBO,4.122408,51.838305
Ring,5,b,,3222AE,Hellevoetsluis,Hellevoetsluis,Zuid-Holland,VBO,4.122421,51.838350
Ring,5,,,3222AE,Hellevoetsluis,Hellevoetsluis,Zuid-Holland,VBO,4.122395,51.838251
Ring,7,a,,3222AE,Hellevoetsluis,Hellevoetsluis,Zuid-Holland,VBO,4.122491,51.838458
Ring,7,b,,3222AE,Hellevoetsluis,Hellevoetsluis,Zuid-Holland,VBO,4.122533,51.838504
Ring,7,,,3222AE,Hellevoetsluis,Hellevoetsluis,Zuid-Holland,VBO,4.122448,51.838422
Ring,9,a,,3222AE,Hellevoetsluis,Hellevoetsluis,Zuid-Holland,VBO,4.122457,51.838647
Ring,9,b,,3222AE,Hellevoetsluis,Hellevoetsluis,Zuid-Holland,VBO,4.122398,51.838664
Ring,9,,,3222AE,Hellevoetsluis,Hellevoetsluis,Zuid-Holland,VBO,4.122530,51.838612
Ring,11,,,3222AE,Hellevoetsluis,Hellevoetsluis,Zuid-Holland,VBO,4.122720,51.838569
Ring,13,,,3222AE,Hellevoetsluis,Hellevoetsluis,Zuid-Holland,VBO,4.122981,51.838563
Ring,14,,,3222AE,Hellevoetsluis,Hellevoetsluis,Zuid-Holland,VBO,4.123083,51.838564
Ring,15,,,3222AE,Hellevoetsluis,Hellevoetsluis,Zuid-Holland,VBO,4.123228,51.838547
Ring,16,,,3222AE,Hellevoetsluis,Hellevoetsluis,Zuid-Holland,VBO,4.123287,51.838530
Smitsweg,1,,,3222AG,Hellevoetsluis,Hellevoetsluis,Zuid-Holland,VBO,4.122629,51.835592
Smitsweg,5,,,3222AG,Hellevoetsluis,Hellevoetsluis,Zuid-Holland,VBO,4.123320,51.835815
Smitsweg,7,,,3222AG,Hellevoetsluis,Hellevoetsluis,Zuid-Holland,VBO,4.123303,51.835878
Smitsweg,9,,,3222AG,Hellevoetsluis,Hellevoetsluis,Zuid-Holland,VBO,4.123315,51.835977
Smitsweg,13,,,3222AG,Hellevoetsluis,Hellevoetsluis,Zuid-Holland,VBO,4.123296,51.836139
Smitsweg,15,,,3222AG,Hellevoetsluis,Hellevoetsluis,Zuid-Holland,VBO,4.123295,51.836193
Smitsweg,17,,,3222AG,Hellevoetsluis,Hellevoetsluis,Zuid-Holland,VBO,4.123292,51.836283
Smitsweg,19,,,3222AG,Hellevoetsluis,Hellevoetsluis,Zuid-Holland,VBO,4.123304,51.836373
Smitsweg,21,,,3222AG,Hellevoetsluis,Hellevoetsluis,Zuid-Holland,VBO,4.123286,51.836498
Smitsweg,23,,,3222AG,Hellevoetsluis,Hellevoetsluis,Zuid-Holland,VBO,4.123284,51.836552
Smitsweg,25,,,3222AG,Hellevoetsluis,Hellevoetsluis,Zuid-Holland,VBO,4.123282,51.836651
Smitsweg,27,,,3222AG,Hellevoetsluis,Hellevoetsluis,Zuid-Holland,VBO,4.123280,51.836696
Smitsweg,29,,,3222AG,Hellevoetsluis,Hellevoetsluis,Zuid-Holland,VBO,4.122676,51.837040
Smitsweg,31,,,3222AG,Hellevoetsluis,Hellevoetsluis,Zuid-Holland,VBO,4.123156,51.837495
Smitsweg,35,,,3222AG,Hellevoetsluis,Hellevoetsluis,Zuid-Holland,VBO,4.123207,51.837774
Smitsweg,37,,,3222AG,Hellevoetsluis,Hellevoetsluis,Zuid-Holland,VBO,4.123220,51.837828
Smitsweg,39,,,3222AG,Hellevoetsluis,Hellevoetsluis,Zuid-Holland,VBO,4.123233,51.837882
Smitsweg,41,a,,3222AG,Hellevoetsluis,Hellevoetsluis,Zuid-Holland,VBO,4.123259,51.837981
Smitsweg,41,,,3222AG,Hellevoetsluis,Hellevoetsluis,Zuid-Holland,VBO,4.123246,51.837927
Smitsweg,43,,WIWO,3222AG,Hellevoetsluis,Hellevoetsluis,Zuid-Holland,VBO,4.123433,51.838495
Smitsweg,47,,,3222AG,Hellevoetsluis,Hellevoetsluis,Zuid-Holland,VBO,4.123501,51.838649
Smitsweg,49,,,3222AG,Hellevoetsluis,Hellevoetsluis,Zuid-Holland,VBO,4.123558,51.838713
Smitsweg,51,a,,3222AG,Hellevoetsluis,Hellevoetsluis,Zuid-Holland,VBO,4.123641,51.838848
Smitsweg,51,,,3222AG,Hellevoetsluis,Hellevoetsluis,Zuid-Holland,VBO,4.123665,51.838861
Smitsweg,53,,,3222AG,Hellevoetsluis,Hellevoetsluis,Zuid-Holland,VBO,4.123797,51.838976
Smitsweg,55,,,3222AG,Hellevoetsluis,Hellevoetsluis,Zuid-Holland,VBO,4.123866,51.839102
Smitsweg,57,,,3222AG,Hellevoetsluis,Hellevoetsluis,Zuid-Holland,VBO,4.123893,51.839184
Smitsweg,59,,,3222AG,Hellevoetsluis,Hellevoetsluis,Zuid-Holland,VBO,4.123934,51.839256
Smitsweg,61,,,3222AG,Hellevoetsluis,Hellevoetsluis,Zuid-Holland,VBO,4.124015,51.839482
Smitsweg,63,,,3222AG,Hellevoetsluis,Hellevoetsluis,Zuid-Holland,VBO,4.123858,51.839911
Smitsweg,2,,,3222AH,Hellevoetsluis,Hellevoetsluis,Zuid-Holland,VBO,4.123942,51.834312
Smitsweg,4,,,3222AH,Hellevoetsluis,Hellevoetsluis,Zuid-Holland,VBO,4.123941,51.834366
Smitsweg,6,,,3222AH,Hellevoetsluis,Hellevoetsluis,Zuid-Holland,VBO,4.123925,51.834420
Smitsweg,8,,,3222AH,Hellevoetsluis,Hellevoetsluis,Zuid-Holland,VBO,4.123923,51.834474
Smitsweg,10,,,3222AH,Hellevoetsluis,Hellevoetsluis,Zuid-Holland,VBO,4.123921,51.834536
Smitsweg,12,,,3222AH,Hellevoetsluis,Hellevoetsluis,Zuid-Holland,VBO,4.123920,51.834590
Smitsweg,14,,,3222AH,Hellevoetsluis,Hellevoetsluis,Zuid-Holland,VBO,4.123917,51.834689
Smitsweg,16,,,3222AH,Hellevoetsluis,Hellevoetsluis,Zuid-Holland,VBO,4.123901,51.834743
Smitsweg,18,,,3222AH,Hellevoetsluis,Hellevoetsluis,Zuid-Holland,VBO,4.123900,51.834797
Smitsweg,20,,,3222AH,Hellevoetsluis,Hellevoetsluis,Zuid-Holland,VBO,4.123898,51.834851
Smitsweg,22,,,3222AH,Hellevoetsluis,Hellevoetsluis,Zuid-Holland,VBO,4.123897,51.834905
Smitsweg,24,,,3222AH,Hellevoetsluis,Hellevoetsluis,Zuid-Holland,VBO,4.123895,51.834959
Smitsweg,26,,,3222AH,Hellevoetsluis,Hellevoetsluis,Zuid-Holland,VBO,4.123879,51.835012
Smitsweg,28,,,3222AH,Hellevoetsluis,Hellevoetsluis,Zuid-Holland,VBO,4.123878,51.835066
Smitsweg,30,,,3222AH,Hellevoetsluis,Hellevoetsluis,Zuid-Holland,VBO,4.123821,51.835515
Smitsweg,32,,,3222AH,Hellevoetsluis,Hellevoetsluis,Zuid-Holland,VBO,4.123820,51.835569
Smitsweg,34,,,3222AH,Hellevoetsluis,Hellevoetsluis,Zuid-Holland,VBO,4.123818,51.835623
Smitsweg,36,,,3222AH,Hellevoetsluis,Hellevoetsluis,Zuid-Holland,VBO,4.123817,51.835677
Smitsweg,38,,,3222AH,Hellevoetsluis,Hellevoetsluis,Zuid-Holland,VBO,4.123801,51.835731
Smitsweg,40,,,3222AH,Hellevoetsluis,Hellevoetsluis,Zuid-Holland,VBO,4.123799,51.835785
Smitsweg,42,,,3222AH,Hellevoetsluis,Hellevoetsluis,Zuid-Holland,VBO,4.123782,51.835892
Smitsweg,44,,,3222AH,Hellevoetsluis,Hellevoetsluis,Zuid-Holland,VBO,4.123765,51.835964
Smitsweg,46,,,3222AH,Hellevoetsluis,Hellevoetsluis,Zuid-Holland,VBO,4.123764,51.836027
Smitsweg,48,,,3222AH,Hellevoetsluis,Hellevoetsluis,Zuid-Holland,VBO,4.123762,51.836090
Smitsweg,50,,,3222AH,Hellevoetsluis,Hellevoetsluis,Zuid-Holland,VBO,4.123746,51.836153
Smitsweg,52,,,3222AH,Hellevoetsluis,Hellevoetsluis,Zuid-Holland,VBO,4.123744,51.836225
Smitsweg,58,,,3222AJ,Hellevoetsluis,Hellevoetsluis,Zuid-Holland,VBO,4.123598,51.837787
Smitsweg,60,,,3222AJ,Hellevoetsluis,Hellevoetsluis,Zuid-Holland,VBO,4.123550,51.837948
Smitsweg,64,,,3222AJ,Hellevoetsluis,Hellevoetsluis,Zuid-Holland,VBO,4.123678,51.838031
Smitsweg,66,,,3222AJ,Hellevoetsluis,Hellevoetsluis,Zuid-Holland,VBO,4.123689,51.838157
Smitsweg,70,,,3222AJ,Hellevoetsluis,Hellevoetsluis,Zuid-Holland,VBO,4.123701,51.838256
Smitsweg,72,a,,3222AJ,Hellevoetsluis,Hellevoetsluis,Zuid-Holland,VBO,4.124348,51.838223
Smitsweg,72,,,3222AJ,Hellevoetsluis,Hellevoetsluis,Zuid-Holland,VBO,4.123890,51.838258
Smitsweg,74,,,3222AJ,Hellevoetsluis,Hellevoetsluis,Zuid-Holland,VBO,4.123915,51.838384
Smitsweg,76,,,3222AJ,Hellevoetsluis,Hellevoetsluis,Zuid-Holland,VBO,4.124438,51.838353
Smitsweg,78,,,3222AJ,Hellevoetsluis,Hellevoetsluis,Zuid-Holland,VBO,4.123883,51.838491
Smitsweg,80,,,3222AJ,Hellevoetsluis,Hellevoetsluis,Zuid-Holland,VBO,4.124259,51.838531
Smitsweg,84,,,3222AJ,Hellevoetsluis,Hellevoetsluis,Zuid-Holland,VBO,4.123921,51.838689
Smitsweg,88,,,3222AJ,Hellevoetsluis,Hellevoetsluis,Zuid-Holland,VBO,4.124000,51.838784
Smitsweg,90,,,3222AJ,Hellevoetsluis,Hellevoetsluis,Zuid-Holland,VBO,4.124032,51.838879
Smitsweg,92,,,3222AJ,Hellevoetsluis,Hellevoetsluis,Zuid-Holland,VBO,4.124088,51.838961
Smitsweg,94,,,3222AJ,Hellevoetsluis,Hellevoetsluis,Zuid-Holland,VBO,4.124779,51.839139
Smitsweg,96,,,3222AJ,Hellevoetsluis,Hellevoetsluis,Zuid-Holland,VBO,4.124839,51.840641
Tolweg West,1,,,3222AK,Hellevoetsluis,Hellevoetsluis,Zuid-Holland,VBO,4.128267,51.834277
Tolweg West,3,,,3222AK,Hellevoetsluis,Hellevoetsluis,Zuid-Holland,VBO,4.128780,51.834361
Tolweg West,5,,,3222AK,Hellevoetsluis,Hellevoetsluis,Zuid-Holland,VBO,4.129065,51.834295
Tolweg West,11,,,3222AK,Hellevoetsluis,Hellevoetsluis,Zuid-Holland,VBO,4.130296,51.834371
Tolweg West,15,,,3222AK,Hellevoetsluis,Hellevoetsluis,Zuid-Holland,VBO,4.130730,51.834421
Tolweg West,17,,,3222AK,Hellevoetsluis,Hellevoetsluis,Zuid-Holland,VBO,4.130933,51.834432
Verlengde Lagelandseweg,4,a,,3222AL,Hellevoetsluis,Hellevoetsluis,Zuid-Holland,VBO,4.136836,51.842882
Verlengde Lagelandseweg,4,b,,3222AL,Hellevoetsluis,Hellevoetsluis,Zuid-Holland,VBO,4.136819,51.842954
Verlengde Lagelandseweg,4,c,,3222AL,Hellevoetsluis,Hellevoetsluis,Zuid-Holland,VBO,4.136786,51.843097
Verlengde Lagelandseweg,4,d,,3222AL,Hellevoetsluis,Hellevoetsluis,Zuid-Holland,VBO,4.136799,51.843160
Verlengde Lagelandseweg,4,e,,3222AL,Hellevoetsluis,Hellevoetsluis,Zuid-Holland,VBO,4.136691,51.843411
Verlengde Lagelandseweg,4,f,,3222AL,Hellevoetsluis,Hellevoetsluis,Zuid-Holland,VBO,4.136689,51.843474
Verlengde Lagelandseweg,6,,,3222AL,Hellevoetsluis,Hellevoetsluis,Zuid-Holland,VBO,4.136871,51.843718
Verlengde Lagelandseweg,8,,,3222AL,Hellevoetsluis,Hellevoetsluis,Zuid-Holland,VBO,4.136548,51.844371
Verlengde Lagelandseweg,10,,,3222AL,Hellevoetsluis,Hellevoetsluis,Zuid-Holland,VBO,4.136510,51.844676
Fazantenlaan,1,a,,3222AM,Hellevoetsluis,Hellevoetsluis,Zuid-Holland,VBO,4.119800,51.835067
Fazantenlaan,1,b,,3222AM,Hellevoetsluis,Hellevoetsluis,Zuid-Holland,VBO,4.120799,51.835027
Fazantenlaan,1,c,,3222AM,Hellevoetsluis,Hellevoetsluis,Zuid-Holland,VBO,4.121192,51.834354
Fazantenlaan,1,,,3222AM,Hellevoetsluis,Hellevoetsluis,Zuid-Holland,VBO,4.118911,51.834186
Fazantenlaan,2,,,3222AM,Hellevoetsluis,Hellevoetsluis,Zuid-Holland,VBO,4.118816,51.834445
Fazantenlaan,4,b,,3222AM,Hellevoetsluis,Hellevoetsluis,Zuid-Holland,VBO,4.117150,51.834877
Fazantenlaan,4,,,3222AM,Hellevoetsluis,Hellevoetsluis,Zuid-Holland,VBO,4.117191,51.834307
Fazantenlaan,6,a,,3222AM,Hellevoetsluis,Hellevoetsluis,Zuid-Holland,VBO,4.116554,51.834924
Gruttostraat,1,,,3222BA,Hellevoetsluis,Hellevoetsluis,Zuid-Holland,VBO,4.125538,51.836397
Gruttostraat,3,,,3222BA,Hellevoetsluis,Hellevoetsluis,Zuid-Holland,VBO,4.125539,51.836343
Gruttostraat,5,,,3222BA,Hellevoetsluis,Hellevoetsluis,Zuid-Holland,VBO,4.125556,51.836289
Gruttostraat,7,,,3222BA,Hellevoetsluis,Hellevoetsluis,Zuid-Holland,VBO,4.125572,51.836235
Gruttostraat,9,,,3222BA,Hellevoetsluis,Hellevoetsluis,Zuid-Holland,VBO,4.125573,51.836181
Gruttostraat,11,,,3222BA,Hellevoetsluis,Hellevoetsluis,Zuid-Holland,VBO,4.125589,51.836136
Gruttostraat,13,,,3222BA,Hellevoetsluis,Hellevoetsluis,Zuid-Holland,VBO,4.125591,51.836047
Gruttostraat,15,,,3222BA,Hellevoetsluis,Hellevoetsluis,Zuid-Holland,VBO,4.125593,51.836002
Gruttostraat,17,,,3222BA,Hellevoetsluis,Hellevoetsluis,Zuid-Holland,VBO,4.125609,51.835948
Gruttostraat,19,,,3222BA,Hellevoetsluis,Hellevoetsluis,Zuid-Holland,VBO,4.125625,51.835894
Gruttostraat,21,,,3222BA,Hellevoetsluis,Hellevoetsluis,Zuid-Holland,VBO,4.125626,51.835840
Gruttostraat,23,a,,3222BA,Hellevoetsluis,Hellevoetsluis,Zuid-Holland,VBO,4.125930,51.835349
Gruttostraat,23,,,3222BA,Hellevoetsluis,Hellevoetsluis,Zuid-Holland,VBO,4.125642,51.835786
Gruttostraat,25,a,,3222BA,Hellevoetsluis,Hellevoetsluis,Zuid-Holland,VBO,4.125827,51.834890
Gruttostraat,25,b,,3222BA,Hellevoetsluis,Hellevoetsluis,Zuid-Holland,VBO,4.125827,51.834890
Gruttostraat,25,c,,3222BA,Hellevoetsluis,Hellevoetsluis,Zuid-Holland,VBO,4.125827,51.834890
Gruttostraat,25,d,,3222BA,Hellevoetsluis,Hellevoetsluis,Zuid-Holland,VBO,4.125827,51.834890
Gruttostraat,25,e,,3222BA,Hellevoetsluis,Hellevoetsluis,Zuid-Holland,VBO,4.125827,51.834890
Gruttostraat,25,,,3222BA,Hellevoetsluis,Hellevoetsluis,Zuid-Holland,VBO,4.125827,51.834890
Gruttostraat,27,,,3222BA,Hellevoetsluis,Hellevoetsluis,Zuid-Holland,VBO,4.125809,51.835015
Gruttostraat,29,,,3222BA,Hellevoetsluis,Hellevoetsluis,Zuid-Holland,VBO,4.125809,51.835015
Gruttostraat,31,,,3222BA,Hellevoetsluis,Hellevoetsluis,Zuid-Holland,VBO,4.125809,51.835015
Gruttostraat,33,,,3222BA,Hellevoetsluis,Hellevoetsluis,Zuid-Holland,VBO,4.125809,51.835015
Gruttostraat,35,,,3222BA,Hellevoetsluis,Hellevoetsluis,Zuid-Holland,VBO,4.125809,51.835015
Gruttostraat,37,,,3222BA,Hellevoetsluis,Hellevoetsluis,Zuid-Holland,VBO,4.125809,51.835015
Gruttostraat,39,,,3222BA,Hellevoetsluis,Hellevoetsluis,Zuid-Holland,VBO,4.125809,51.835015
Gruttostraat,41,,,3222BA,Hellevoetsluis,Hellevoetsluis,Zuid-Holland,VBO,4.125809,51.835015
Gruttostraat,43,,,3222BA,Hellevoetsluis,Hellevoetsluis,Zuid-Holland,VBO,4.125809,51.835015
Gruttostraat,45,,,3222BA,Hellevoetsluis,Hellevoetsluis,Zuid-Holland,VBO,4.125809,51.835015
Gruttostraat,47,,,3222BA,Hellevoetsluis,Hellevoetsluis,Zuid-Holland,VBO,4.125809,51.835015
Gruttostraat,49,,,3222BA,Hellevoetsluis,Hellevoetsluis,Zuid-Holland,VBO,4.125809,51.835015
Gruttostraat,51,,,3222BA,Hellevoetsluis,Hellevoetsluis,Zuid-Holland,VBO,4.125809,51.835015
Gruttostraat,53,,,3222BA,Hellevoetsluis,Hellevoetsluis,Zuid-Holland,VBO,4.125809,51.835015
Gruttostraat,55,,,3222BA,Hellevoetsluis,Hellevoetsluis,Zuid-Holland,VBO,4.125809,51.835015
Gruttostraat,57,,,3222BA,Hellevoetsluis,Hellevoetsluis,Zuid-Holland,VBO,4.125809,51.835015
Gruttostraat,59,,,3222BA,Hellevoetsluis,Hellevoetsluis,Zuid-Holland,VBO,4.125809,51.835015
Gruttostraat,61,,,3222BA,Hellevoetsluis,Hellevoetsluis,Zuid-Holland,VBO,4.125809,51.835015
Gruttostraat,2,,,3222BB,Hellevoetsluis,Hellevoetsluis,Zuid-Holland,VBO,4.125129,51.836509
Gruttostraat,4,,,3222BB,Hellevoetsluis,Hellevoetsluis,Zuid-Holland,VBO,4.125130,51.836455
Gruttostraat,6,,,3222BB,Hellevoetsluis,Hellevoetsluis,Zuid-Holland,VBO,4.125146,51.836401
Gruttostraat,8,,,3222BB,Hellevoetsluis,Hellevoetsluis,Zuid-Holland,VBO,4.125148,51.836347
Gruttostraat,10,,,3222BB,Hellevoetsluis,Hellevoetsluis,Zuid-Holland,VBO,4.125163,51.836303
Gruttostraat,12,,,3222BB,Hellevoetsluis,Hellevoetsluis,Zuid-Holland,VBO,4.125179,51.836249
Gruttostraat,14,,,3222BB,Hellevoetsluis,Hellevoetsluis,Zuid-Holland,VBO,4.125124,51.836158
Gruttostraat,16,,,3222BB,Hellevoetsluis,Hellevoetsluis,Zuid-Holland,VBO,4.125140,51.836105
Gruttostraat,18,,,3222BB,Hellevoetsluis,Hellevoetsluis,Zuid-Holland,VBO,4.125156,51.836051
Gruttostraat,20,,,3222BB,Hellevoetsluis,Hellevoetsluis,Zuid-Holland,VBO,4.125157,51.835997
Gruttostraat,22,,,3222BB,Hellevoetsluis,Hellevoetsluis,Zuid-Holland,VBO,4.125173,51.835943
Gruttostraat,24,,,3222BB,Hellevoetsluis,Hellevoetsluis,Zuid-Holland,VBO,4.125175,51.835898
Gruttostraat,26,,,3222BB,Hellevoetsluis,Hellevoetsluis,Zuid-Holland,VBO,4.125191,51.835845
Gruttostraat,28,,,3222BB,Hellevoetsluis,Hellevoetsluis,Zuid-Holland,VBO,4.125207,51.835791
Gruttostraat,30,,,3222BB,Hellevoetsluis,Hellevoetsluis,Zuid-Holland,VBO,4.125292,51.835342
Gruttostraat,32,,,3222BB,Hellevoetsluis,Hellevoetsluis,Zuid-Holland,VBO,4.125308,51.835288
Gruttostraat,34,,,3222BB,Hellevoetsluis,Hellevoetsluis,Zuid-Holland,VBO,4.125309,51.835235
Gruttostraat,36,,,3222BB,Hellevoetsluis,Hellevoetsluis,Zuid-Holland,VBO,4.125325,51.835181
Gruttostraat,38,,,3222BB,Hellevoetsluis,Hellevoetsluis,Zuid-Holland,VBO,4.125341,51.835127
Gruttostraat,40,,,3222BB,Hellevoetsluis,Hellevoetsluis,Zuid-Holland,VBO,4.125343,51.835073
Gruttostraat,42,,,3222BB,Hellevoetsluis,Hellevoetsluis,Zuid-Holland,VBO,4.125302,51.834983
Gruttostraat,44,,,3222BB,Hellevoetsluis,Hellevoetsluis,Zuid-Holland,VBO,4.125303,51.834929
Gruttostraat,46,,,3222BB,Hellevoetsluis,Hellevoetsluis,Zuid-Holland,VBO,4.125319,51.834875
Gruttostraat,48,,,3222BB,Hellevoetsluis,Hellevoetsluis,Zuid-Holland,VBO,4.125321,51.834821
Gruttostraat,50,,,3222BB,Hellevoetsluis,Hellevoetsluis,Zuid-Holland,VBO,4.125337,51.834767
Gruttostraat,52,,,3222BB,Hellevoetsluis,Hellevoetsluis,Zuid-Holland,VBO,4.125353,51.834714
Gruttostraat,54,,,3222BB,Hellevoetsluis,Hellevoetsluis,Zuid-Holland,VBO,4.125354,51.834660
Gruttostraat,56,,,3222BB,Hellevoetsluis,Hellevoetsluis,Zuid-Holland,VBO,4.125370,51.834606
Hoonaartstraat,2,,,3222BC,Hellevoetsluis,Hellevoetsluis,Zuid-Holland,VBO,4.123739,51.836395
Hoonaartstraat,4,,,3222BC,Hellevoetsluis,Hellevoetsluis,Zuid-Holland,VBO,4.123840,51.836405
Hoonaartstraat,10,,,3222BC,Hellevoetsluis,Hellevoetsluis,Zuid-Holland,VBO,4.124608,51.836459
Hoonaartstraat,12,,,3222BC,Hellevoetsluis,Hellevoetsluis,Zuid-Holland,VBO,4.124695,51.836459
Hoonaartstraat,14,,,3222BC,Hellevoetsluis,Hellevoetsluis,Zuid-Holland,VBO,4.124781,51.836469
Hoonaartstraat,16,,,3222BC,Hellevoetsluis,Hellevoetsluis,Zuid-Holland,VBO,4.124868,51.836479
Hoonaartstraat,18,,,3222BC,Hellevoetsluis,Hellevoetsluis,Zuid-Holland,VBO,4.125505,51.836549
Hoonaartstraat,20,,,3222BC,Hellevoetsluis,Hellevoetsluis,Zuid-Holland,VBO,4.125592,51.836550
Hoonaartstraat,22,,,3222BC,Hellevoetsluis,Hellevoetsluis,Zuid-Holland,VBO,4.125679,51.836560
Hoonaartstraat,24,,,3222BC,Hellevoetsluis,Hellevoetsluis,Zuid-Holland,VBO,4.125765,51.836570
Hoonaartstraat,26,,,3222BC,Hellevoetsluis,Hellevoetsluis,Zuid-Holland,VBO,4.126388,51.836613
Hoonaartstraat,28,,,3222BC,Hellevoetsluis,Hellevoetsluis,Zuid-Holland,VBO,4.126475,51.836622
Hoonaartstraat,30,,,3222BC,Hellevoetsluis,Hellevoetsluis,Zuid-Holland,VBO,4.126562,51.836632
Hoonaartstraat,32,,,3222BC,Hellevoetsluis,Hellevoetsluis,Zuid-Holland,VBO,4.126649,51.836633
Hoonaartstraat,34,,,3222BC,Hellevoetsluis,Hellevoetsluis,Zuid-Holland,VBO,4.126735,51.836643
Hoonaartstraat,36,,,3222BC,Hellevoetsluis,Hellevoetsluis,Zuid-Holland,VBO,4.126822,51.836653
Hoonaartstraat,38,,,3222BC,Hellevoetsluis,Hellevoetsluis,Zuid-Holland,VBO,4.126909,51.836654
Kluutstraat,1,,,3222BD,Hellevoetsluis,Hellevoetsluis,Zuid-Holland,VBO,4.124641,51.836306
Kluutstraat,3,,,3222BD,Hellevoetsluis,Hellevoetsluis,Zuid-Holland,VBO,4.124657,51.836252
Kluutstraat,5,,,3222BD,Hellevoetsluis,Hellevoetsluis,Zuid-Holland,VBO,4.124658,51.836198
Kluutstraat,7,,,3222BD,Hellevoetsluis,Hellevoetsluis,Zuid-Holland,VBO,4.124674,51.836145
Kluutstraat,9,,,3222BD,Hellevoetsluis,Hellevoetsluis,Zuid-Holland,VBO,4.124676,51.836091
Kluutstraat,11,,,3222BD,Hellevoetsluis,Hellevoetsluis,Zuid-Holland,VBO,4.124692,51.836046
Kluutstraat,13,,,3222BD,Hellevoetsluis,Hellevoetsluis,Zuid-Holland,VBO,4.124708,51.835992
Kluutstraat,15,,,3222BD,Hellevoetsluis,Hellevoetsluis,Zuid-Holland,VBO,4.124709,51.835938
Kluutstraat,17,,,3222BD,Hellevoetsluis,Hellevoetsluis,Zuid-Holland,VBO,4.124683,51.835848
Kluutstraat,19,,,3222BD,Hellevoetsluis,Hellevoetsluis,Zuid-Holland,VBO,4.124699,51.835794
Kluutstraat,21,,,3222BD,Hellevoetsluis,Hellevoetsluis,Zuid-Holland,VBO,4.124715,51.835741
Kluutstraat,23,,,3222BD,Hellevoetsluis,Hellevoetsluis,Zuid-Holland,VBO,4.124716,51.835687
Kluutstraat,25,,,3222BD,Hellevoetsluis,Hellevoetsluis,Zuid-Holland,VBO,4.124732,51.835642
Kluutstraat,27,,,3222BD,Hellevoetsluis,Hellevoetsluis,Zuid-Holland,VBO,4.124748,51.835588
Kluutstraat,29,,,3222BD,Hellevoetsluis,Hellevoetsluis,Zuid-Holland,VBO,4.124806,51.835085
Kluutstraat,31,,,3222BD,Hellevoetsluis,Hellevoetsluis,Zuid-Holland,VBO,4.124807,51.835031
Kluutstraat,33,,,3222BD,Hellevoetsluis,Hellevoetsluis,Zuid-Holland,VBO,4.124823,51.834978
Kluutstraat,35,,,3222BD,Hellevoetsluis,Hellevoetsluis,Zuid-Holland,VBO,4.124825,51.834924
Kluutstraat,37,,,3222BD,Hellevoetsluis,Hellevoetsluis,Zuid-Holland,VBO,4.124841,51.834870
Kluutstraat,39,,,3222BD,Hellevoetsluis,Hellevoetsluis,Zuid-Holland,VBO,4.124842,51.834816
Kluutstraat,41,,,3222BD,Hellevoetsluis,Hellevoetsluis,Zuid-Holland,VBO,4.124858,51.834762
Kluutstraat,43,,,3222BD,Hellevoetsluis,Hellevoetsluis,Zuid-Holland,VBO,4.124803,51.834654
Kluutstraat,45,,,3222BD,Hellevoetsluis,Hellevoetsluis,Zuid-Holland,VBO,4.124819,51.834600
Kluutstraat,47,,,3222BD,Hellevoetsluis,Hellevoetsluis,Zuid-Holland,VBO,4.124835,51.834546
Kluutstraat,49,,,3222BD,Hellevoetsluis,Hellevoetsluis,Zuid-Holland,VBO,4.124837,51.834492
Kluutstraat,51,,,3222BD,Hellevoetsluis,Hellevoetsluis,Zuid-Holland,VBO,4.124853,51.834439
Kluutstraat,53,,,3222BD,Hellevoetsluis,Hellevoetsluis,Zuid-Holland,VBO,4.124869,51.834385
Kluutstraat,2,,,3222BE,Hellevoetsluis,Hellevoetsluis,Zuid-Holland,VBO,4.124260,51.836437
Kluutstraat,4,,,3222BE,Hellevoetsluis,Hellevoetsluis,Zuid-Holland,VBO,4.124276,51.836392
Kluutstraat,6,,,3222BE,Hellevoetsluis,Hellevoetsluis,Zuid-Holland,VBO,4.124277,51.836338
Kluutstraat,8,,,3222BE,Hellevoetsluis,Hellevoetsluis,Zuid-Holland,VBO,4.124293,51.836284
Kluutstraat,10,,,3222BE,Hellevoetsluis,Hellevoetsluis,Zuid-Holland,VBO,4.124294,51.836239
Kluutstraat,12,,,3222BE,Hellevoetsluis,Hellevoetsluis,Zuid-Holland,VBO,4.124310,51.836186
Kluutstraat,14,,,3222BE,Hellevoetsluis,Hellevoetsluis,Zuid-Holland,VBO,4.124240,51.836095
Kluutstraat,16,,,3222BE,Hellevoetsluis,Hellevoetsluis,Zuid-Holland,VBO,4.124257,51.836041
Kluutstraat,18,,,3222BE,Hellevoetsluis,Hellevoetsluis,Zuid-Holland,VBO,4.124273,51.835987
Kluutstraat,20,,,3222BE,Hellevoetsluis,Hellevoetsluis,Zuid-Holland,VBO,4.124274,51.835934
Kluutstraat,22,,,3222BE,Hellevoetsluis,Hellevoetsluis,Zuid-Holland,VBO,4.124290,51.835880
Kluutstraat,24,,,3222BE,Hellevoetsluis,Hellevoetsluis,Zuid-Holland,VBO,4.124306,51.835826
Kluutstraat,26,,,3222BE,Hellevoetsluis,Hellevoetsluis,Zuid-Holland,VBO,4.124308,51.835772
Kluutstraat,28,,,3222BE,Hellevoetsluis,Hellevoetsluis,Zuid-Holland,VBO,4.124324,51.835718
Kluutstraat,30,,,3222BE,Hellevoetsluis,Hellevoetsluis,Zuid-Holland,VBO,4.124380,51.835270
Kluutstraat,32,,,3222BE,Hellevoetsluis,Hellevoetsluis,Zuid-Holland,VBO,4.124396,51.835216
Kluutstraat,34,,,3222BE,Hellevoetsluis,Hellevoetsluis,Zuid-Holland,VBO,4.124412,51.835162
Kluutstraat,36,,,3222BE,Hellevoetsluis,Hellevoetsluis,Zuid-Holland,VBO,4.124413,51.835108
Kluutstraat,38,,,3222BE,Hellevoetsluis,Hellevoetsluis,Zuid-Holland,VBO,4.124373,51.835000
Kluutstraat,40,,,3222BE,Hellevoetsluis,Hellevoetsluis,Zuid-Holland,VBO,4.124374,51.834946
Kluutstraat,42,,,3222BE,Hellevoetsluis,Hellevoetsluis,Zuid-Holland,VBO,4.124390,51.834892
Kluutstraat,44,,,3222BE,Hellevoetsluis,Hellevoetsluis,Zuid-Holland,VBO,4.124406,51.834838
Kluutstraat,46,,,3222BE,Hellevoetsluis,Hellevoetsluis,Zuid-Holland,VBO,4.124408,51.834784
Kluutstraat,48,,,3222BE,Hellevoetsluis,Hellevoetsluis,Zuid-Holland,VBO,4.124424,51.834731
Kluutstraat,50,,,3222BE,Hellevoetsluis,Hellevoetsluis,Zuid-Holland,VBO,4.124425,51.834677
Kluutstraat,52,,,3222BE,Hellevoetsluis,Hellevoetsluis,Zuid-Holland,VBO,4.124441,51.834623
Kluutstraat,54,,,3222BE,Hellevoetsluis,Hellevoetsluis,Zuid-Holland,VBO,4.124457,51.834569
Kluutstraat,56,,,3222BE,Hellevoetsluis,Hellevoetsluis,Zuid-Holland,VBO,4.124459,51.834515
Meeuwenlaan,1,,,3222BG,Hellevoetsluis,Hellevoetsluis,Zuid-Holland,VBO,4.124141,51.835519
Meeuwenlaan,2,,,3222BG,Hellevoetsluis,Hellevoetsluis,Zuid-Holland,VBO,4.123859,51.835210
Meeuwenlaan,3,,,3222BG,Hellevoetsluis,Hellevoetsluis,Zuid-Holland,VBO,4.124228,51.835520
Meeuwenlaan,4,,,3222BG,Hellevoetsluis,Hellevoetsluis,Zuid-Holland,VBO,4.123946,51.835220
Meeuwenlaan,5,,,3222BG,Hellevoetsluis,Hellevoetsluis,Zuid-Holland,VBO,4.124314,51.835529
Meeuwenlaan,6,,,3222BG,Hellevoetsluis,Hellevoetsluis,Zuid-Holland,VBO,4.124033,51.835221
Meeuwenlaan,7,,,3222BG,Hellevoetsluis,Hellevoetsluis,Zuid-Holland,VBO,4.124401,51.835539
Meeuwenlaan,8,,,3222BG,Hellevoetsluis,Hellevoetsluis,Zuid-Holland,VBO,4.124120,51.835231
Meeuwenlaan,9,,,3222BG,Hellevoetsluis,Hellevoetsluis,Zuid-Holland,VBO,4.125024,51.835582
Meeuwenlaan,10,,,3222BG,Hellevoetsluis,Hellevoetsluis,Zuid-Holland,VBO,4.124757,51.835274
Meeuwenlaan,11,,,3222BG,Hellevoetsluis,Hellevoetsluis,Zuid-Holland,VBO,4.125111,51.835592
Meeuwenlaan,12,,,3222BG,Hellevoetsluis,Hellevoetsluis,Zuid-Holland,VBO,4.124844,51.835283
Meeuwenlaan,13,,,3222BG,Hellevoetsluis,Hellevoetsluis,Zuid-Holland,VBO,4.125183,51.835593
Meeuwenlaan,14,,,3222BG,Hellevoetsluis,Hellevoetsluis,Zuid-Holland,VBO,4.124930,51.835293
Meeuwenlaan,15,,,3222BG,Hellevoetsluis,Hellevoetsluis,Zuid-Holland,VBO,4.125270,51.835603
Meeuwenlaan,16,,,3222BG,Hellevoetsluis,Hellevoetsluis,Zuid-Holland,VBO,4.125017,51.835294
Meeuwenlaan,17,,,3222BG,Hellevoetsluis,Hellevoetsluis,Zuid-Holland,VBO,4.125720,51.835599
Meeuwenlaan,19,,,3222BG,Hellevoetsluis,Hellevoetsluis,Zuid-Holland,VBO,4.125807,51.835608
Meeuwenlaan,21,,,3222BG,Hellevoetsluis,Hellevoetsluis,Zuid-Holland,VBO,4.125894,51.835618
Meeuwenlaan,23,,,3222BG,Hellevoetsluis,Hellevoetsluis,Zuid-Holland,VBO,4.125981,51.835619
Meeuwenlaan,25,,,3222BG,Hellevoetsluis,Hellevoetsluis,Zuid-Holland,VBO,4.126067,51.835629
Meeuwenlaan,27,,,3222BG,Hellevoetsluis,Hellevoetsluis,Zuid-Holland,VBO,4.126154,51.835630
Meeuwenlaan,33,,,3222BG,Hellevoetsluis,Hellevoetsluis,Zuid-Holland,VBO,4.127081,51.835173
Meeuwenlaan,35,,,3222BG,Hellevoetsluis,Hellevoetsluis,Zuid-Holland,VBO,4.127337,51.835364
Meeuwenlaan,37,,,3222BG,Hellevoetsluis,Hellevoetsluis,Zuid-Holland,VBO,4.127387,51.835140
Pluvierhof,1,,,3222BH,Hellevoetsluis,Hellevoetsluis,Zuid-Holland,VBO,4.127616,51.834747
Pluvierhof,3,,,3222BH,Hellevoetsluis,Hellevoetsluis,Zuid-Holland,VBO,4.127616,51.834747
Pluvierhof,5,,,3222BH,Hellevoetsluis,Hellevoetsluis,Zuid-Holland,VBO,4.127616,51.834747
Pluvierhof,7,,,3222BH,Hellevoetsluis,Hellevoetsluis,Zuid-Holland,VBO,4.127616,51.834747
Pluvierhof,9,,,3222BH,Hellevoetsluis,Hellevoetsluis,Zuid-Holland,VBO,4.127616,51.834747
Pluvierhof,11,,,3222BH,Hellevoetsluis,Hellevoetsluis,Zuid-Holland,VBO,4.127616,51.834747
Pluvierhof,15,,,3222BH,Hellevoetsluis,Hellevoetsluis,Zuid-Holland,VBO,4.127665,51.834550
Pluvierhof,17,,,3222BH,Hellevoetsluis,Hellevoetsluis,Zuid-Holland,VBO,4.127665,51.834550
Pluvierhof,19,,,3222BH,Hellevoetsluis,Hellevoetsluis,Zuid-Holland,VBO,4.127665,51.834550
Pluvierhof,21,,,3222BH,Hellevoetsluis,Hellevoetsluis,Zuid-Holland,VBO,4.127665,51.834550
Pluvierhof,23,,,3222BH,Hellevoetsluis,Hellevoetsluis,Zuid-Holland,VBO,4.127665,51.834550
Pluvierhof,25,,,3222BH,Hellevoetsluis,Hellevoetsluis,Zuid-Holland,VBO,4.127665,51.834550
Pluvierhof,43,,,3222BH,Hellevoetsluis,Hellevoetsluis,Zuid-Holland,VBO,4.127665,51.834550
Pluvierhof,45,,,3222BH,Hellevoetsluis,Hellevoetsluis,Zuid-Holland,VBO,4.127665,51.834550
Pluvierhof,47,,,3222BH,Hellevoetsluis,Hellevoetsluis,Zuid-Holland,VBO,4.127665,51.834550
Pluvierhof,49,,,3222BH,Hellevoetsluis,Hellevoetsluis,Zuid-Holland,VBO,4.127327,51.834186
Pluvierhof,51,,,3222BH,Hellevoetsluis,Hellevoetsluis,Zuid-Holland,VBO,4.127211,51.834176
Pluvierhof,53,,,3222BH,Hellevoetsluis,Hellevoetsluis,Zuid-Holland,VBO,4.127183,51.834149
Pluvierhof,71,,,3222BH,Hellevoetsluis,Hellevoetsluis,Zuid-Holland,VBO,4.127268,51.834222
Pluvierhof,73,,,3222BH,Hellevoetsluis,Hellevoetsluis,Zuid-Holland,VBO,4.127210,51.834221
Pluvierhof,75,,,3222BH,Hellevoetsluis,Hellevoetsluis,Zuid-Holland,VBO,4.127181,51.834212
Pluvierhof,79,,,3222BH,Hellevoetsluis,Hellevoetsluis,Zuid-Holland,VBO,4.127123,51.834184
Pluvierhof,81,,,3222BH,Hellevoetsluis,Hellevoetsluis,Zuid-Holland,VBO,4.127269,51.834186
Pluvierhof,101,,,3222BH,Hellevoetsluis,Hellevoetsluis,Zuid-Holland,VBO,4.127413,51.834214
Pluvierhof,103,,,3222BH,Hellevoetsluis,Hellevoetsluis,Zuid-Holland,VBO,4.127413,51.834214
Pluvierhof,105,,,3222BH,Hellevoetsluis,Hellevoetsluis,Zuid-Holland,VBO,4.127413,51.834214
Pluvierhof,107,,,3222BH,Hellevoetsluis,Hellevoetsluis,Zuid-Holland,VBO,4.127413,51.834214
Pluvierhof,109,,,3222BH,Hellevoetsluis,Hellevoetsluis,Zuid-Holland,VBO,4.127413,51.834214
Pluvierhof,111,,,3222BH,Hellevoetsluis,Hellevoetsluis,Zuid-Holland,VBO,4.127413,51.834214
Pluvierhof,113,,,3222BH,Hellevoetsluis,Hellevoetsluis,Zuid-Holland,VBO,4.127413,51.834214
Pluvierhof,115,,,3222BH,Hellevoetsluis,Hellevoetsluis,Zuid-Holland,VBO,4.127413,51.834214
Pluvierhof,117,,,3222BH,Hellevoetsluis,Hellevoetsluis,Zuid-Holland,VBO,4.127413,51.834214
Pluvierhof,119,,,3222BH,Hellevoetsluis,Hellevoetsluis,Zuid-Holland,VBO,4.127413,51.834214
Pluvierhof,121,,,3222BH,Hellevoetsluis,Hellevoetsluis,Zuid-Holland,VBO,4.127413,51.834214
Pluvierhof,123,,,3222BH,Hellevoetsluis,Hellevoetsluis,Zuid-Holland,VBO,4.127413,51.834214
Pluvierhof,125,,,3222BH,Hellevoetsluis,Hellevoetsluis,Zuid-Holland,VBO,4.127413,51.834214
Pluvierhof,127,,,3222BH,Hellevoetsluis,Hellevoetsluis,Zuid-Holland,VBO,4.127413,51.834214
Pluvierhof,129,,,3222BH,Hellevoetsluis,Hellevoetsluis,Zuid-Holland,VBO,4.127413,51.834214
Pluvierhof,131,,,3222BH,Hellevoetsluis,Hellevoetsluis,Zuid-Holland,VBO,4.127413,51.834214
Pluvierhof,133,,,3222BH,Hellevoetsluis,Hellevoetsluis,Zuid-Holland,VBO,4.127413,51.834214
Pluvierhof,135,,,3222BH,Hellevoetsluis,Hellevoetsluis,Zuid-Holland,VBO,4.127413,51.834214
Pluvierhof,137,,,3222BH,Hellevoetsluis,Hellevoetsluis,Zuid-Holland,VBO,4.127413,51.834214
Pluvierhof,139,,,3222BH,Hellevoetsluis,Hellevoetsluis,Zuid-Holland,VBO,4.127413,51.834214
Pluvierhof,141,,,3222BH,Hellevoetsluis,Hellevoetsluis,Zuid-Holland,VBO,4.127413,51.834214
Pluvierhof,143,,,3222BH,Hellevoetsluis,Hellevoetsluis,Zuid-Holland,VBO,4.127413,51.834214
Pluvierhof,145,,,3222BH,Hellevoetsluis,Hellevoetsluis,Zuid-Holland,VBO,4.127413,51.834214
Pluvierhof,147,,,3222BH,Hellevoetsluis,Hellevoetsluis,Zuid-Holland,VBO,4.127413,51.834214
Pluvierhof,149,,,3222BH,Hellevoetsluis,Hellevoetsluis,Zuid-Holland,VBO,4.127413,51.834214
Pluvierhof,151,,,3222BH,Hellevoetsluis,Hellevoetsluis,Zuid-Holland,VBO,4.127413,51.834214
Pluvierhof,153,,,3222BH,Hellevoetsluis,Hellevoetsluis,Zuid-Holland,VBO,4.127413,51.834214
Pluvierhof,155,,,3222BH,Hellevoetsluis,Hellevoetsluis,Zuid-Holland,VBO,4.127413,51.834214
Pluvierhof,157,,,3222BH,Hellevoetsluis,Hellevoetsluis,Zuid-Holland,VBO,4.127413,51.834214
Pluvierhof,159,,,3222BH,Hellevoetsluis,Hellevoetsluis,Zuid-Holland,VBO,4.127413,51.834214
Pluvierhof,161,,,3222BH,Hellevoetsluis,Hellevoetsluis,Zuid-Holland,VBO,4.127413,51.834214
Pluvierhof,163,,,3222BH,Hellevoetsluis,Hellevoetsluis,Zuid-Holland,VBO,4.126457,51.834150
Pluvierhof,165,,,3222BH,Hellevoetsluis,Hellevoetsluis,Zuid-Holland,VBO,4.126457,51.834150
Pluvierhof,167,,,3222BH,Hellevoetsluis,Hellevoetsluis,Zuid-Holland,VBO,4.126457,51.834150
Pluvierhof,169,,,3222BH,Hellevoetsluis,Hellevoetsluis,Zuid-Holland,VBO,4.126457,51.834150
Pluvierhof,171,,,3222BH,Hellevoetsluis,Hellevoetsluis,Zuid-Holland,VBO,4.126457,51.834150
Pluvierhof,173,,,3222BH,Hellevoetsluis,Hellevoetsluis,Zuid-Holland,VBO,4.126457,51.834150
Pluvierhof,175,,,3222BH,Hellevoetsluis,Hellevoetsluis,Zuid-Holland,VBO,4.126457,51.834150
Pluvierhof,177,,,3222BH,Hellevoetsluis,Hellevoetsluis,Zuid-Holland,VBO,4.126457,51.834150
Pluvierhof,179,,,3222BH,Hellevoetsluis,Hellevoetsluis,Zuid-Holland,VBO,4.126457,51.834150
Pluvierhof,181,,,3222BH,Hellevoetsluis,Hellevoetsluis,Zuid-Holland,VBO,4.126457,51.834150
Pluvierhof,183,,,3222BH,Hellevoetsluis,Hellevoetsluis,Zuid-Holland,VBO,4.126457,51.834150
Pluvierhof,185,,,3222BH,Hellevoetsluis,Hellevoetsluis,Zuid-Holland,VBO,4.126457,51.834150
Pluvierhof,187,,,3222BH,Hellevoetsluis,Hellevoetsluis,Zuid-Holland,VBO,4.126457,51.834150
Pluvierhof,189,,,3222BH,Hellevoetsluis,Hellevoetsluis,Zuid-Holland,VBO,4.126457,51.834150
Pluvierhof,191,,,3222BH,Hellevoetsluis,Hellevoetsluis,Zuid-Holland,VBO,4.126457,51.834150
Pluvierhof,193,,,3222BH,Hellevoetsluis,Hellevoetsluis,Zuid-Holland,VBO,4.126457,51.834150
Pluvierhof,195,,,3222BH,Hellevoetsluis,Hellevoetsluis,Zuid-Holland,VBO,4.126457,51.834150
Pluvierhof,197,,,3222BH,Hellevoetsluis,Hellevoetsluis,Zuid-Holland,VBO,4.126457,51.834150
Pluvierhof,199,,,3222BH,Hellevoetsluis,Hellevoetsluis,Zuid-Holland,VBO,4.126457,51.834150
Pluvierhof,201,,,3222BH,Hellevoetsluis,Hellevoetsluis,Zuid-Holland,VBO,4.126457,51.834150
Pluvierhof,203,,,3222BH,Hellevoetsluis,Hellevoetsluis,Zuid-Holland,VBO,4.126457,51.834150
Pluvierhof,205,,,3222BH,Hellevoetsluis,Hellevoetsluis,Zuid-Holland,VBO,4.126514,51.834169
Pluvierhof,2,,,3222BJ,Hellevoetsluis,Hellevoetsluis,Zuid-Holland,VBO,4.127190,51.834922
Pluvierhof,4,,,3222BJ,Hellevoetsluis,Hellevoetsluis,Zuid-Holland,VBO,4.127206,51.834868
Pluvierhof,6,,,3222BJ,Hellevoetsluis,Hellevoetsluis,Zuid-Holland,VBO,4.127222,51.834815
Pluvierhof,8,,,3222BJ,Hellevoetsluis,Hellevoetsluis,Zuid-Holland,VBO,4.127223,51.834761
Pluvierhof,10,,,3222BJ,Hellevoetsluis,Hellevoetsluis,Zuid-Holland,VBO,4.127239,51.834716
Pluvierhof,12,,,3222BJ,Hellevoetsluis,Hellevoetsluis,Zuid-Holland,VBO,4.127241,51.834662
Pluvierhof,14,,,3222BJ,Hellevoetsluis,Hellevoetsluis,Zuid-Holland,VBO,4.127257,51.834608
Pluvierhof,16,,,3222BJ,Hellevoetsluis,Hellevoetsluis,Zuid-Holland,VBO,4.127273,51.834554
Pluvierhof,18,,,3222BJ,Hellevoetsluis,Hellevoetsluis,Zuid-Holland,VBO,4.127274,51.834501
Pluvierhof,20,,,3222BJ,Hellevoetsluis,Hellevoetsluis,Zuid-Holland,VBO,4.126825,51.834469
Pluvierhof,22,,,3222BJ,Hellevoetsluis,Hellevoetsluis,Zuid-Holland,VBO,4.126824,51.834514
Pluvierhof,24,,,3222BJ,Hellevoetsluis,Hellevoetsluis,Zuid-Holland,VBO,4.126808,51.834567
Pluvierhof,26,,,3222BJ,Hellevoetsluis,Hellevoetsluis,Zuid-Holland,VBO,4.126792,51.834621
Pluvierhof,28,,,3222BJ,Hellevoetsluis,Hellevoetsluis,Zuid-Holland,VBO,4.126791,51.834675
Pluvierhof,30,,,3222BJ,Hellevoetsluis,Hellevoetsluis,Zuid-Holland,VBO,4.126775,51.834729
Pluvierhof,32,,,3222BJ,Hellevoetsluis,Hellevoetsluis,Zuid-Holland,VBO,4.126758,51.834783
Pluvierhof,34,,,3222BJ,Hellevoetsluis,Hellevoetsluis,Zuid-Holland,VBO,4.126757,51.834837
Pluvierhof,36,,TRAF,3222BJ,Hellevoetsluis,Hellevoetsluis,Zuid-Holland,VBO,4.126797,51.834945
Pluvierhof,36,,,3222BJ,Hellevoetsluis,Hellevoetsluis,Zuid-Holland,VBO,4.126741,51.834890
Rietgansstraat,1,a,,3222BK,Hellevoetsluis,Hellevoetsluis,Zuid-Holland,VBO,4.127436,51.836507
Rietgansstraat,1,b,,3222BK,Hellevoetsluis,Hellevoetsluis,Zuid-Holland,VBO,4.127436,51.836507
Rietgansstraat,1,c,,3222BK,Hellevoetsluis,Hellevoetsluis,Zuid-Holland,VBO,4.127436,51.836507
Rietgansstraat,1,d,,3222BK,Hellevoetsluis,Hellevoetsluis,Zuid-Holland,VBO,4.127436,51.836507
Rietgansstraat,1,e,,3222BK,Hellevoetsluis,Hellevoetsluis,Zuid-Holland,VBO,4.127436,51.836507
Rietgansstraat,1,,,3222BK,Hellevoetsluis,Hellevoetsluis,Zuid-Holland,VBO,4.127436,51.836507
Rietgansstraat,3,,,3222BK,Hellevoetsluis,Hellevoetsluis,Zuid-Holland,VBO,4.127403,51.836650
Rietgansstraat,5,,,3222BK,Hellevoetsluis,Hellevoetsluis,Zuid-Holland,VBO,4.127403,51.836650
Rietgansstraat,7,,,3222BK,Hellevoetsluis,Hellevoetsluis,Zuid-Holland,VBO,4.127403,51.836650
Rietgansstraat,9,,,3222BK,Hellevoetsluis,Hellevoetsluis,Zuid-Holland,VBO,4.127403,51.836650
Rietgansstraat,11,,,3222BK,Hellevoetsluis,Hellevoetsluis,Zuid-Holland,VBO,4.127403,51.836650
Rietgansstraat,13,,,3222BK,Hellevoetsluis,Hellevoetsluis,Zuid-Holland,VBO,4.127403,51.836650
Rietgansstraat,15,,,3222BK,Hellevoetsluis,Hellevoetsluis,Zuid-Holland,VBO,4.127403,51.836650
Rietgansstraat,17,,,3222BK,Hellevoetsluis,Hellevoetsluis,Zuid-Holland,VBO,4.127403,51.836650
Rietgansstraat,19,,,3222BK,Hellevoetsluis,Hellevoetsluis,Zuid-Holland,VBO,4.127403,51.836650
Rietgansstraat,21,,,3222BK,Hellevoetsluis,Hellevoetsluis,Zuid-Holland,VBO,4.127403,51.836650
Rietgansstraat,23,,,3222BK,Hellevoetsluis,Hellevoetsluis,Zuid-Holland,VBO,4.127403,51.836650
Rietgansstraat,25,,,3222BK,Hellevoetsluis,Hellevoetsluis,Zuid-Holland,VBO,4.127403,51.836650
Rietgansstraat,27,,,3222BK,Hellevoetsluis,Hellevoetsluis,Zuid-Holland,VBO,4.127403,51.836650
Rietgansstraat,29,,,3222BK,Hellevoetsluis,Hellevoetsluis,Zuid-Holland,VBO,4.127403,51.836650
Rietgansstraat,31,,,3222BK,Hellevoetsluis,Hellevoetsluis,Zuid-Holland,VBO,4.127403,51.836650
Rietgansstraat,33,,,3222BK,Hellevoetsluis,Hellevoetsluis,Zuid-Holland,VBO,4.127403,51.836650
Rietgansstraat,35,,,3222BK,Hellevoetsluis,Hellevoetsluis,Zuid-Holland,VBO,4.127403,51.836650
Rietgansstraat,37,,,3222BK,Hellevoetsluis,Hellevoetsluis,Zuid-Holland,VBO,4.127436,51.836516
Scholeksterstraat,1,,,3222BL,Hellevoetsluis,Hellevoetsluis,Zuid-Holland,VBO,4.126454,51.836335
Scholeksterstraat,2,,,3222BL,Hellevoetsluis,Hellevoetsluis,Zuid-Holland,VBO,4.126503,51.836128
Scholeksterstraat,3,,,3222BL,Hellevoetsluis,Hellevoetsluis,Zuid-Holland,VBO,4.126541,51.836344
Scholeksterstraat,4,,,3222BL,Hellevoetsluis,Hellevoetsluis,Zuid-Holland,VBO,4.126590,51.836138
Scholeksterstraat,5,,,3222BL,Hellevoetsluis,Hellevoetsluis,Zuid-Holland,VBO,4.126628,51.836345
Scholeksterstraat,6,,,3222BL,Hellevoetsluis,Hellevoetsluis,Zuid-Holland,VBO,4.126677,51.836148
Scholeksterstraat,7,,,3222BL,Hellevoetsluis,Hellevoetsluis,Zuid-Holland,VBO,4.126714,51.836355
Scholeksterstraat,8,,,3222BL,Hellevoetsluis,Hellevoetsluis,Zuid-Holland,VBO,4.126764,51.836149
Scholeksterstraat,9,,,3222BL,Hellevoetsluis,Hellevoetsluis,Zuid-Holland,VBO,4.126801,51.836365
Scholeksterstraat,10,,,3222BL,Hellevoetsluis,Hellevoetsluis,Zuid-Holland,VBO,4.126836,51.836159
Scholeksterstraat,11,,,3222BL,Hellevoetsluis,Hellevoetsluis,Zuid-Holland,VBO,4.126874,51.836366
Scholeksterstraat,12,,,3222BL,Hellevoetsluis,Hellevoetsluis,Zuid-Holland,VBO,4.126923,51.836160
Scholeksterstraat,13,,,3222BL,Hellevoetsluis,Hellevoetsluis,Zuid-Holland,VBO,4.126961,51.836376
Scholeksterstraat,14,,,3222BL,Hellevoetsluis,Hellevoetsluis,Zuid-Holland,VBO,4.127010,51.836170
Scholeksterstraat,16,,,3222BL,Hellevoetsluis,Hellevoetsluis,Zuid-Holland,VBO,4.127200,51.836127
Scholeksterstraat,18,,,3222BL,Hellevoetsluis,Hellevoetsluis,Zuid-Holland,VBO,4.127431,51.836174
Sternstraat,1,a,,3222BM,Hellevoetsluis,Hellevoetsluis,Zuid-Holland,VBO,4.126617,51.835689
Sternstraat,1,b,,3222BM,Hellevoetsluis,Hellevoetsluis,Zuid-Holland,VBO,4.126617,51.835689
Sternstraat,1,c,,3222BM,Hellevoetsluis,Hellevoetsluis,Zuid-Holland,VBO,4.126617,51.835689
Sternstraat,1,d,,3222BM,Hellevoetsluis,Hellevoetsluis,Zuid-Holland,VBO,4.126617,51.835689
Sternstraat,1,e,,3222BM,Hellevoetsluis,Hellevoetsluis,Zuid-Holland,VBO,4.126617,51.835689
Sternstraat,1,,,3222BM,Hellevoetsluis,Hellevoetsluis,Zuid-Holland,VBO,4.126617,51.835689
Sternstraat,3,,,3222BM,Hellevoetsluis,Hellevoetsluis,Zuid-Holland,VBO,4.126643,51.835797
Sternstraat,5,,,3222BM,Hellevoetsluis,Hellevoetsluis,Zuid-Holland,VBO,4.126643,51.835797
Sternstraat,7,,,3222BM,Hellevoetsluis,Hellevoetsluis,Zuid-Holland,VBO,4.126643,51.835797
Sternstraat,9,,,3222BM,Hellevoetsluis,Hellevoetsluis,Zuid-Holland,VBO,4.126643,51.835797
Sternstraat,11,,,3222BM,Hellevoetsluis,Hellevoetsluis,Zuid-Holland,VBO,4.126643,51.835797
Sternstraat,13,,,3222BM,Hellevoetsluis,Hellevoetsluis,Zuid-Holland,VBO,4.126643,51.835797
Sternstraat,15,,,3222BM,Hellevoetsluis,Hellevoetsluis,Zuid-Holland,VBO,4.126643,51.835797
Sternstraat,17,,,3222BM,Hellevoetsluis,Hellevoetsluis,Zuid-Holland,VBO,4.126643,51.835797
Sternstraat,19,,,3222BM,Hellevoetsluis,Hellevoetsluis,Zuid-Holland,VBO,4.126643,51.835797
Sternstraat,21,,,3222BM,Hellevoetsluis,Hellevoetsluis,Zuid-Holland,VBO,4.126643,51.835797
Sternstraat,23,,,3222BM,Hellevoetsluis,Hellevoetsluis,Zuid-Holland,VBO,4.126643,51.835797
Sternstraat,25,,,3222BM,Hellevoetsluis,Hellevoetsluis,Zuid-Holland,VBO,4.126643,51.835797
Sternstraat,27,,,3222BM,Hellevoetsluis,Hellevoetsluis,Zuid-Holland,VBO,4.126643,51.835797
Sternstraat,29,,,3222BM,Hellevoetsluis,Hellevoetsluis,Zuid-Holland,VBO,4.126643,51.835797
Sternstraat,31,,,3222BM,Hellevoetsluis,Hellevoetsluis,Zuid-Holland,VBO,4.126618,51.835662
Sternstraat,33,,,3222BM,Hellevoetsluis,Hellevoetsluis,Zuid-Holland,VBO,4.126643,51.835797
Sternstraat,35,,,3222BM,Hellevoetsluis,Hellevoetsluis,Zuid-Holland,VBO,4.126586,51.835752
Sternstraat,37,,,3222BM,Hellevoetsluis,Hellevoetsluis,Zuid-Holland,VBO,4.126643,51.835797
Sternstraat,2,,,3222BN,Hellevoetsluis,Hellevoetsluis,Zuid-Holland,VBO,4.126026,51.836573
Sternstraat,4,,,3222BN,Hellevoetsluis,Hellevoetsluis,Zuid-Holland,VBO,4.126042,51.836519
Sternstraat,6,,,3222BN,Hellevoetsluis,Hellevoetsluis,Zuid-Holland,VBO,4.126044,51.836465
Sternstraat,8,,,3222BN,Hellevoetsluis,Hellevoetsluis,Zuid-Holland,VBO,4.126060,51.836420
Sternstraat,10,,,3222BN,Hellevoetsluis,Hellevoetsluis,Zuid-Holland,VBO,4.126076,51.836366
Sternstraat,12,,,3222BN,Hellevoetsluis,Hellevoetsluis,Zuid-Holland,VBO,4.126077,51.836313
Sternstraat,14,,,3222BN,Hellevoetsluis,Hellevoetsluis,Zuid-Holland,VBO,4.126050,51.836231
Sternstraat,16,,,3222BN,Hellevoetsluis,Hellevoetsluis,Zuid-Holland,VBO,4.126067,51.836169
Sternstraat,18,,,3222BN,Hellevoetsluis,Hellevoetsluis,Zuid-Holland,VBO,4.126083,51.836115
Sternstraat,20,,,3222BN,Hellevoetsluis,Hellevoetsluis,Zuid-Holland,VBO,4.126085,51.836052
Sternstraat,22,,,3222BN,Hellevoetsluis,Hellevoetsluis,Zuid-Holland,VBO,4.126101,51.835998
Sternstraat,24,,,3222BN,Hellevoetsluis,Hellevoetsluis,Zuid-Holland,VBO,4.126117,51.835944
Sternstraat,26,,,3222BN,Hellevoetsluis,Hellevoetsluis,Zuid-Holland,VBO,4.126118,51.835881
Sternstraat,28,,,3222BN,Hellevoetsluis,Hellevoetsluis,Zuid-Holland,VBO,4.126134,51.835828
Wulpstraat,1,,,3222BP,Hellevoetsluis,Hellevoetsluis,Zuid-Holland,VBO,4.124261,51.834324
Wulpstraat,3,,,3222BP,Hellevoetsluis,Hellevoetsluis,Zuid-Holland,VBO,4.124334,51.834325
Wulpstraat,5,,,3222BP,Hellevoetsluis,Hellevoetsluis,Zuid-Holland,VBO,4.124420,51.834335
Wulpstraat,7,,,3222BP,Hellevoetsluis,Hellevoetsluis,Zuid-Holland,VBO,4.124507,51.834336
Wulpstraat,9,,,3222BP,Hellevoetsluis,Hellevoetsluis,Zuid-Holland,VBO,4.125159,51.834388
Wulpstraat,11,,,3222BP,Hellevoetsluis,Hellevoetsluis,Zuid-Holland,VBO,4.125231,51.834398
Wulpstraat,13,,,3222BP,Hellevoetsluis,Hellevoetsluis,Zuid-Holland,VBO,4.125318,51.834399
Wulpstraat,15,,,3222BP,Hellevoetsluis,Hellevoetsluis,Zuid-Holland,VBO,4.125405,51.834409
Wulpstraat,2,,,3222BR,Hellevoetsluis,Hellevoetsluis,Zuid-Holland,VBO,4.124285,51.834001
Wulpstraat,4,,,3222BR,Hellevoetsluis,Hellevoetsluis,Zuid-Holland,VBO,4.124285,51.834001
Wulpstraat,6,,,3222BR,Hellevoetsluis,Hellevoetsluis,Zuid-Holland,VBO,4.124285,51.834001
Wulpstraat,8,,,3222BR,Hellevoetsluis,Hellevoetsluis,Zuid-Holland,VBO,4.124285,51.834001
Wulpstraat,10,,,3222BR,Hellevoetsluis,Hellevoetsluis,Zuid-Holland,VBO,4.124285,51.834001
Wulpstraat,12,,,3222BR,Hellevoetsluis,Hellevoetsluis,Zuid-Holland,VBO,4.124285,51.834001
Wulpstraat,14,,,3222BR,Hellevoetsluis,Hellevoetsluis,Zuid-Holland,VBO,4.124285,51.834001
Wulpstraat,16,,,3222BR,Hellevoetsluis,Hellevoetsluis,Zuid-Holland,VBO,4.124285,51.834001
Wulpstraat,18,,,3222BR,Hellevoetsluis,Hellevoetsluis,Zuid-Holland,VBO,4.124285,51.834001
Wulpstraat,20,,,3222BR,Hellevoetsluis,Hellevoetsluis,Zuid-Holland,VBO,4.124285,51.834001
Wulpstraat,22,,,3222BR,Hellevoetsluis,Hellevoetsluis,Zuid-Holland,VBO,4.124285,51.834001
Wulpstraat,24,,,3222BR,Hellevoetsluis,Hellevoetsluis,Zuid-Holland,VBO,4.124285,51.834001
Wulpstraat,26,,,3222BR,Hellevoetsluis,Hellevoetsluis,Zuid-Holland,VBO,4.124285,51.834001
Wulpstraat,28,,,3222BR,Hellevoetsluis,Hellevoetsluis,Zuid-Holland,VBO,4.124285,51.834001
Wulpstraat,30,,,3222BR,Hellevoetsluis,Hellevoetsluis,Zuid-Holland,VBO,4.124285,51.834001
Wulpstraat,32,,,3222BR,Hellevoetsluis,Hellevoetsluis,Zuid-Holland,VBO,4.124285,51.834001
Wulpstraat,34,,,3222BR,Hellevoetsluis,Hellevoetsluis,Zuid-Holland,VBO,4.124285,51.834001
Wulpstraat,36,,,3222BR,Hellevoetsluis,Hellevoetsluis,Zuid-Holland,VBO,4.124285,51.834001
Wulpstraat,38,,,3222BR,Hellevoetsluis,Hellevoetsluis,Zuid-Holland,VBO,4.124285,51.834001
Wulpstraat,40,,,3222BR,Hellevoetsluis,Hellevoetsluis,Zuid-Holland,VBO,4.124285,51.834001
Wulpstraat,42,,,3222BR,Hellevoetsluis,Hellevoetsluis,Zuid-Holland,VBO,4.124285,51.834001
Wulpstraat,44,,,3222BR,Hellevoetsluis,Hellevoetsluis,Zuid-Holland,VBO,4.124285,51.834001
Wulpstraat,46,,,3222BR,Hellevoetsluis,Hellevoetsluis,Zuid-Holland,VBO,4.124285,51.834001
Wulpstraat,48,,,3222BR,Hellevoetsluis,Hellevoetsluis,Zuid-Holland,VBO,4.124285,51.834001
Wulpstraat,50,,,3222BR,Hellevoetsluis,Hellevoetsluis,Zuid-Holland,VBO,4.124285,51.834001
Wulpstraat,52,,,3222BR,Hellevoetsluis,Hellevoetsluis,Zuid-Holland,VBO,4.124285,51.834001
Wulpstraat,54,,,3222BR,Hellevoetsluis,Hellevoetsluis,Zuid-Holland,VBO,4.124285,51.834001
Wulpstraat,56,,,3222BR,Hellevoetsluis,Hellevoetsluis,Zuid-Holland,VBO,4.124285,51.834001
Wulpstraat,58,,,3222BR,Hellevoetsluis,Hellevoetsluis,Zuid-Holland,VBO,4.124285,51.834001
Wulpstraat,60,,,3222BR,Hellevoetsluis,Hellevoetsluis,Zuid-Holland,VBO,4.124285,51.834001
Wulpstraat,62,,,3222BR,Hellevoetsluis,Hellevoetsluis,Zuid-Holland,VBO,4.124285,51.834001
Wulpstraat,64,,,3222BR,Hellevoetsluis,Hellevoetsluis,Zuid-Holland,VBO,4.124285,51.834001
Wulpstraat,66,,,3222BR,Hellevoetsluis,Hellevoetsluis,Zuid-Holland,VBO,4.124285,51.834001
Wulpstraat,72,,,3222BR,Hellevoetsluis,Hellevoetsluis,Zuid-Holland,VBO,4.125023,51.834072
Wulpstraat,74,,,3222BR,Hellevoetsluis,Hellevoetsluis,Zuid-Holland,VBO,4.125023,51.834072
Wulpstraat,76,,,3222BR,Hellevoetsluis,Hellevoetsluis,Zuid-Holland,VBO,4.125023,51.834072
Wulpstraat,78,,,3222BR,Hellevoetsluis,Hellevoetsluis,Zuid-Holland,VBO,4.125023,51.834072
Wulpstraat,80,,,3222BR,Hellevoetsluis,Hellevoetsluis,Zuid-Holland,VBO,4.125023,51.834072
Wulpstraat,82,,,3222BR,Hellevoetsluis,Hellevoetsluis,Zuid-Holland,VBO,4.125023,51.834072
Wulpstraat,84,,,3222BR,Hellevoetsluis,Hellevoetsluis,Zuid-Holland,VBO,4.125023,51.834072
Wulpstraat,86,,,3222BR,Hellevoetsluis,Hellevoetsluis,Zuid-Holland,VBO,4.125023,51.834072
Wulpstraat,88,,,3222BR,Hellevoetsluis,Hellevoetsluis,Zuid-Holland,VBO,4.125023,51.834072
Wulpstraat,90,,,3222BR,Hellevoetsluis,Hellevoetsluis,Zuid-Holland,VBO,4.125023,51.834072
Wulpstraat,92,,,3222BR,Hellevoetsluis,Hellevoetsluis,Zuid-Holland,VBO,4.125023,51.834072
Wulpstraat,94,,,3222BR,Hellevoetsluis,Hellevoetsluis,Zuid-Holland,VBO,4.125023,51.834072
Wulpstraat,96,,,3222BR,Hellevoetsluis,Hellevoetsluis,Zuid-Holland,VBO,4.125023,51.834072
Wulpstraat,98,,,3222BR,Hellevoetsluis,Hellevoetsluis,Zuid-Holland,VBO,4.125023,51.834072
Wulpstraat,100,,,3222BR,Hellevoetsluis,Hellevoetsluis,Zuid-Holland,VBO,4.125023,51.834072
Wulpstraat,102,,,3222BR,Hellevoetsluis,Hellevoetsluis,Zuid-Holland,VBO,4.125023,51.834072
Wulpstraat,104,,,3222BR,Hellevoetsluis,Hellevoetsluis,Zuid-Holland,VBO,4.125023,51.834072
Wulpstraat,106,,,3222BR,Hellevoetsluis,Hellevoetsluis,Zuid-Holland,VBO,4.125023,51.834072
Wulpstraat,108,,,3222BR,Hellevoetsluis,Hellevoetsluis,Zuid-Holland,VBO,4.125023,51.834072
Wulpstraat,110,,,3222BR,Hellevoetsluis,Hellevoetsluis,Zuid-Holland,VBO,4.125617,51.834087
Wulpstraat,112,,,3222BR,Hellevoetsluis,Hellevoetsluis,Zuid-Holland,VBO,4.125617,51.834087
Wulpstraat,114,,,3222BR,Hellevoetsluis,Hellevoetsluis,Zuid-Holland,VBO,4.125617,51.834087
Wulpstraat,116,,,3222BR,Hellevoetsluis,Hellevoetsluis,Zuid-Holland,VBO,4.125617,51.834087
Wulpstraat,118,,,3222BR,Hellevoetsluis,Hellevoetsluis,Zuid-Holland,VBO,4.125617,51.834087
Wulpstraat,120,,,3222BR,Hellevoetsluis,Hellevoetsluis,Zuid-Holland,VBO,4.125617,51.834087
Wulpstraat,122,,,3222BR,Hellevoetsluis,Hellevoetsluis,Zuid-Holland,VBO,4.125617,51.834087
Wulpstraat,124,,,3222BR,Hellevoetsluis,Hellevoetsluis,Zuid-Holland,VBO,4.125617,51.834087
Wulpstraat,126,,,3222BR,Hellevoetsluis,Hellevoetsluis,Zuid-Holland,VBO,4.125617,51.834087
Wulpstraat,128,,,3222BR,Hellevoetsluis,Hellevoetsluis,Zuid-Holland,VBO,4.125617,51.834087
Wulpstraat,130,,,3222BR,Hellevoetsluis,Hellevoetsluis,Zuid-Holland,VBO,4.125617,51.834087
Wulpstraat,132,,,3222BR,Hellevoetsluis,Hellevoetsluis,Zuid-Holland,VBO,4.125617,51.834087
Wulpstraat,134,,,3222BR,Hellevoetsluis,Hellevoetsluis,Zuid-Holland,VBO,4.125617,51.834087
Wulpstraat,136,,,3222BR,Hellevoetsluis,Hellevoetsluis,Zuid-Holland,VBO,4.125617,51.834087
Wulpstraat,138,,,3222BR,Hellevoetsluis,Hellevoetsluis,Zuid-Holland,VBO,4.125617,51.834087
Wulpstraat,140,,,3222BR,Hellevoetsluis,Hellevoetsluis,Zuid-Holland,VBO,4.125617,51.834087
Wulpstraat,142,,,3222BR,Hellevoetsluis,Hellevoetsluis,Zuid-Holland,VBO,4.125617,51.834087
Wulpstraat,144,,,3222BR,Hellevoetsluis,Hellevoetsluis,Zuid-Holland,VBO,4.125617,51.834087
Wulpstraat,146,,,3222BR,Hellevoetsluis,Hellevoetsluis,Zuid-Holland,VBO,4.125617,51.834087
Wulpstraat,148,,,3222BR,Hellevoetsluis,Hellevoetsluis,Zuid-Holland,VBO,4.125617,51.834087
Wulpstraat,150,,,3222BR,Hellevoetsluis,Hellevoetsluis,Zuid-Holland,VBO,4.125617,51.834087
Wulpstraat,152,,,3222BR,Hellevoetsluis,Hellevoetsluis,Zuid-Holland,VBO,4.125617,51.834087
Aalbrecht van Beijerenstraat,1,,,3222CA,Hellevoetsluis,Hellevoetsluis,Zuid-Holland,VBO,4.131615,51.835903
Aalbrecht van Beijerenstraat,3,,,3222CA,Hellevoetsluis,Hellevoetsluis,Zuid-Holland,VBO,4.131608,51.835707
Aalbrecht van Beijerenstraat,5,,,3222CA,Hellevoetsluis,Hellevoetsluis,Zuid-Holland,VBO,4.131871,51.835445
Aalbrecht van Beijerenstraat,13,,,3222CA,Hellevoetsluis,Hellevoetsluis,Zuid-Holland,VBO,4.130956,51.834639
Aalbrecht van Beijerenstraat,15,,,3222CA,Hellevoetsluis,Hellevoetsluis,Zuid-Holland,VBO,4.130912,51.834638
Aalbrecht van Beijerenstraat,17,,,3222CA,Hellevoetsluis,Hellevoetsluis,Zuid-Holland,VBO,4.130869,51.834638
Aalbrecht van Beijerenstraat,19,,,3222CA,Hellevoetsluis,Hellevoetsluis,Zuid-Holland,VBO,4.130826,51.834629
Aalbrecht van Beijerenstraat,21,,,3222CA,Hellevoetsluis,Hellevoetsluis,Zuid-Holland,VBO,4.130792,51.834808
Aalbrecht van Beijerenstraat,23,,,3222CA,Hellevoetsluis,Hellevoetsluis,Zuid-Holland,VBO,4.130835,51.834808
Aalbrecht van Beijerenstraat,25,,,3222CA,Hellevoetsluis,Hellevoetsluis,Zuid-Holland,VBO,4.130833,51.834871
Aalbrecht van Beijerenstraat,27,,,3222CA,Hellevoetsluis,Hellevoetsluis,Zuid-Holland,VBO,4.130730,51.834951
Aalbrecht van Beijerenstraat,29,,,3222CA,Hellevoetsluis,Hellevoetsluis,Zuid-Holland,VBO,4.130643,51.834941
Aalbrecht van Beijerenstraat,31,,,3222CA,Hellevoetsluis,Hellevoetsluis,Zuid-Holland,VBO,4.130556,51.834931
Aalbrecht van Beijerenstraat,33,,,3222CA,Hellevoetsluis,Hellevoetsluis,Zuid-Holland,VBO,4.130559,51.834805
Aalbrecht van Beijerenstraat,35,,,3222CA,Hellevoetsluis,Hellevoetsluis,Zuid-Holland,VBO,4.130576,51.834752
Aalbrecht van Beijerenstraat,37,,,3222CA,Hellevoetsluis,Hellevoetsluis,Zuid-Holland,VBO,4.130577,51.834698
Aalbrecht van Beijerenstraat,39,,,3222CA,Hellevoetsluis,Hellevoetsluis,Zuid-Holland,VBO,4.130593,51.834644
Aalbrecht van Beijerenstraat,41,,,3222CA,Hellevoetsluis,Hellevoetsluis,Zuid-Holland,VBO,4.130609,51.834590
Aalbrecht van Beijerenstraat,43,,,3222CA,Hellevoetsluis,Hellevoetsluis,Zuid-Holland,VBO,4.130218,51.834559
Aalbrecht van Beijerenstraat,45,,,3222CA,Hellevoetsluis,Hellevoetsluis,Zuid-Holland,VBO,4.130217,51.834613
Aalbrecht van Beijerenstraat,47,,,3222CA,Hellevoetsluis,Hellevoetsluis,Zuid-Holland,VBO,4.130201,51.834667
Aalbrecht van Beijerenstraat,49,,,3222CA,Hellevoetsluis,Hellevoetsluis,Zuid-Holland,VBO,4.130185,51.834721
Aalbrecht van Beijerenstraat,51,,,3222CA,Hellevoetsluis,Hellevoetsluis,Zuid-Holland,VBO,4.130183,51.834774
Aalbrecht van Beijerenstraat,53,,,3222CA,Hellevoetsluis,Hellevoetsluis,Zuid-Holland,VBO,4.130107,51.834899
Aalbrecht van Beijerenstraat,55,,,3222CA,Hellevoetsluis,Hellevoetsluis,Zuid-Holland,VBO,4.130020,51.834890
Aalbrecht van Beijerenstraat,57,,,3222CA,Hellevoetsluis,Hellevoetsluis,Zuid-Holland,VBO,4.129933,51.834889
Aalbrecht van Beijerenstraat,59,,,3222CA,Hellevoetsluis,Hellevoetsluis,Zuid-Holland,VBO,4.129846,51.834879
Aalbrecht van Beijerenstraat,61,,,3222CA,Hellevoetsluis,Hellevoetsluis,Zuid-Holland,VBO,4.129774,51.834869
Aalbrecht van Beijerenstraat,63,,,3222CA,Hellevoetsluis,Hellevoetsluis,Zuid-Holland,VBO,4.129369,51.834847
Aalbrecht van Beijerenstraat,65,,,3222CA,Hellevoetsluis,Hellevoetsluis,Zuid-Holland,VBO,4.129282,51.834837
Aalbrecht van Beijerenstraat,67,,,3222CA,Hellevoetsluis,Hellevoetsluis,Zuid-Holland,VBO,4.129195,51.834836
Aalbrecht van Beijerenstraat,69,,,3222CA,Hellevoetsluis,Hellevoetsluis,Zuid-Holland,VBO,4.129108,51.834826
Aalbrecht van Beijerenstraat,71,,,3222CA,Hellevoetsluis,Hellevoetsluis,Zuid-Holland,VBO,4.129036,51.834816
Aalbrecht van Beijerenstraat,73,,,3222CA,Hellevoetsluis,Hellevoetsluis,Zuid-Holland,VBO,4.129010,51.834681
Aalbrecht van Beijerenstraat,75,,,3222CA,Hellevoetsluis,Hellevoetsluis,Zuid-Holland,VBO,4.129012,51.834627
Aalbrecht van Beijerenstraat,77,,,3222CA,Hellevoetsluis,Hellevoetsluis,Zuid-Holland,VBO,4.129028,51.834573
Aalbrecht van Beijerenstraat,79,,,3222CA,Hellevoetsluis,Hellevoetsluis,Zuid-Holland,VBO,4.129044,51.834520
Aalbrecht van Beijerenstraat,81,,,3222CA,Hellevoetsluis,Hellevoetsluis,Zuid-Holland,VBO,4.128653,51.834488
Aalbrecht van Beijerenstraat,83,,,3222CA,Hellevoetsluis,Hellevoetsluis,Zuid-Holland,VBO,4.128637,51.834542
Aalbrecht van Beijerenstraat,85,,,3222CA,Hellevoetsluis,Hellevoetsluis,Zuid-Holland,VBO,4.128636,51.834596
Aalbrecht van Beijerenstraat,87,,,3222CA,Hellevoetsluis,Hellevoetsluis,Zuid-Holland,VBO,4.128619,51.834650
Aalbrecht van Beijerenstraat,89,,,3222CA,Hellevoetsluis,Hellevoetsluis,Zuid-Holland,VBO,4.128514,51.834784
Aalbrecht van Beijerenstraat,91,,,3222CA,Hellevoetsluis,Hellevoetsluis,Zuid-Holland,VBO,4.128427,51.834774
Aalbrecht van Beijerenstraat,93,,,3222CA,Hellevoetsluis,Hellevoetsluis,Zuid-Holland,VBO,4.128341,51.834764
Aalbrecht van Beijerenstraat,95,,,3222CA,Hellevoetsluis,Hellevoetsluis,Zuid-Holland,VBO,4.128254,51.834763
Aalbrecht van Beijerenstraat,97,,,3222CA,Hellevoetsluis,Hellevoetsluis,Zuid-Holland,VBO,4.128167,51.834753
Aalbrecht van Beijerenstraat,2,,,3222CB,Hellevoetsluis,Hellevoetsluis,Zuid-Holland,VBO,4.131177,51.836080
Aalbrecht van Beijerenstraat,4,,,3222CB,Hellevoetsluis,Hellevoetsluis,Zuid-Holland,VBO,4.131193,51.836026
Aalbrecht van Beijerenstraat,6,,,3222CB,Hellevoetsluis,Hellevoetsluis,Zuid-Holland,VBO,4.131194,51.835972
Aalbrecht van Beijerenstraat,8,,,3222CB,Hellevoetsluis,Hellevoetsluis,Zuid-Holland,VBO,4.131210,51.835918
Aalbrecht van Beijerenstraat,10,,,3222CB,Hellevoetsluis,Hellevoetsluis,Zuid-Holland,VBO,4.131212,51.835873
Aalbrecht van Beijerenstraat,12,,,3222CB,Hellevoetsluis,Hellevoetsluis,Zuid-Holland,VBO,4.131228,51.835819
Aalbrecht van Beijerenstraat,14,,,3222CB,Hellevoetsluis,Hellevoetsluis,Zuid-Holland,VBO,4.131244,51.835766
Aalbrecht van Beijerenstraat,16,,,3222CB,Hellevoetsluis,Hellevoetsluis,Zuid-Holland,VBO,4.131261,51.835667
Aalbrecht van Beijerenstraat,18,,,3222CB,Hellevoetsluis,Hellevoetsluis,Zuid-Holland,VBO,4.131277,51.835613
Aalbrecht van Beijerenstraat,20,,,3222CB,Hellevoetsluis,Hellevoetsluis,Zuid-Holland,VBO,4.131278,51.835568
Aalbrecht van Beijerenstraat,22,,,3222CB,Hellevoetsluis,Hellevoetsluis,Zuid-Holland,VBO,4.131294,51.835514
Aalbrecht van Beijerenstraat,24,,,3222CB,Hellevoetsluis,Hellevoetsluis,Zuid-Holland,VBO,4.131296,51.835461
Aalbrecht van Beijerenstraat,26,,,3222CB,Hellevoetsluis,Hellevoetsluis,Zuid-Holland,VBO,4.131312,51.835407
Aalbrecht van Beijerenstraat,32,,,3222CB,Hellevoetsluis,Hellevoetsluis,Zuid-Holland,VBO,4.131114,51.835225
Aalbrecht van Beijerenstraat,34,,,3222CB,Hellevoetsluis,Hellevoetsluis,Zuid-Holland,VBO,4.131027,51.835215
Aalbrecht van Beijerenstraat,36,,,3222CB,Hellevoetsluis,Hellevoetsluis,Zuid-Holland,VBO,4.130954,51.835214
Aalbrecht van Beijerenstraat,38,,,3222CB,Hellevoetsluis,Hellevoetsluis,Zuid-Holland,VBO,4.130579,51.835138
Aalbrecht van Beijerenstraat,40,,,3222CB,Hellevoetsluis,Hellevoetsluis,Zuid-Holland,VBO,4.130492,51.835128
Aalbrecht van Beijerenstraat,42,,,3222CB,Hellevoetsluis,Hellevoetsluis,Zuid-Holland,VBO,4.130406,51.835118
Aalbrecht van Beijerenstraat,44,,,3222CB,Hellevoetsluis,Hellevoetsluis,Zuid-Holland,VBO,4.130319,51.835118
Aalbrecht van Beijerenstraat,46,,,3222CB,Hellevoetsluis,Hellevoetsluis,Zuid-Holland,VBO,4.130232,51.835108
Aalbrecht van Beijerenstraat,48,,,3222CB,Hellevoetsluis,Hellevoetsluis,Zuid-Holland,VBO,4.129783,51.835076
Aalbrecht van Beijerenstraat,50,,,3222CB,Hellevoetsluis,Hellevoetsluis,Zuid-Holland,VBO,4.129696,51.835066
Aalbrecht van Beijerenstraat,52,,,3222CB,Hellevoetsluis,Hellevoetsluis,Zuid-Holland,VBO,4.129609,51.835056
Aalbrecht van Beijerenstraat,54,,,3222CB,Hellevoetsluis,Hellevoetsluis,Zuid-Holland,VBO,4.129522,51.835055
Aalbrecht van Beijerenstraat,56,,,3222CB,Hellevoetsluis,Hellevoetsluis,Zuid-Holland,VBO,4.129450,51.835045
Aalbrecht van Beijerenstraat,58,,,3222CB,Hellevoetsluis,Hellevoetsluis,Zuid-Holland,VBO,4.129015,51.835023
Aalbrecht van Beijerenstraat,60,,,3222CB,Hellevoetsluis,Hellevoetsluis,Zuid-Holland,VBO,4.128929,51.835013
Aalbrecht van Beijerenstraat,62,,,3222CB,Hellevoetsluis,Hellevoetsluis,Zuid-Holland,VBO,4.128842,51.835012
Aalbrecht van Beijerenstraat,64,,,3222CB,Hellevoetsluis,Hellevoetsluis,Zuid-Holland,VBO,4.128755,51.835002
Aalbrecht van Beijerenstraat,66,,,3222CB,Hellevoetsluis,Hellevoetsluis,Zuid-Holland,VBO,4.128668,51.834992
Aalbrecht van Beijerenstraat,68,,,3222CB,Hellevoetsluis,Hellevoetsluis,Zuid-Holland,VBO,4.128595,51.834991
Ambachtsstraat,1,a,,3222CC,Hellevoetsluis,Hellevoetsluis,Zuid-Holland,VBO,4.132273,51.837898
Ambachtsstraat,1,,,3222CC,Hellevoetsluis,Hellevoetsluis,Zuid-Holland,VBO,4.132306,51.837728
Ambachtsstraat,3,,,3222CC,Hellevoetsluis,Hellevoetsluis,Zuid-Holland,VBO,4.132393,51.837729
Ambachtsstraat,5,,,3222CC,Hellevoetsluis,Hellevoetsluis,Zuid-Holland,VBO,4.132480,51.837739
Ambachtsstraat,7,,,3222CC,Hellevoetsluis,Hellevoetsluis,Zuid-Holland,VBO,4.132567,51.837748
Ambachtsstraat,9,,,3222CC,Hellevoetsluis,Hellevoetsluis,Zuid-Holland,VBO,4.132654,51.837749
Ambachtsstraat,12,,,3222CC,Hellevoetsluis,Hellevoetsluis,Zuid-Holland,VBO,4.133311,51.837972
Cornelis van Kleiburgstraat,1,,,3222CD,Hellevoetsluis,Hellevoetsluis,Zuid-Holland,VBO,4.129374,51.837768
Cornelis van Kleiburgstraat,2,a,,3222CD,Hellevoetsluis,Hellevoetsluis,Zuid-Holland,VBO,4.129128,51.837235
Cornelis van Kleiburgstraat,2,b,,3222CD,Hellevoetsluis,Hellevoetsluis,Zuid-Holland,VBO,4.129103,51.837073
Cornelis van Kleiburgstraat,2,c,,3222CD,Hellevoetsluis,Hellevoetsluis,Zuid-Holland,VBO,4.129092,51.836947
Cornelis van Kleiburgstraat,2,,,3222CD,Hellevoetsluis,Hellevoetsluis,Zuid-Holland,VBO,4.129139,51.837334
Cornelis van Kleiburgstraat,3,,,3222CD,Hellevoetsluis,Hellevoetsluis,Zuid-Holland,VBO,4.129390,51.837714
Cornelis van Kleiburgstraat,4,,,3222CD,Hellevoetsluis,Hellevoetsluis,Zuid-Holland,VBO,4.128278,51.836480
Cornelis van Kleiburgstraat,5,,,3222CD,Hellevoetsluis,Hellevoetsluis,Zuid-Holland,VBO,4.129392,51.837661
Cornelis van Kleiburgstraat,6,,,3222CD,Hellevoetsluis,Hellevoetsluis,Zuid-Holland,VBO,4.128458,51.836284
Cornelis van Kleiburgstraat,7,,,3222CD,Hellevoetsluis,Hellevoetsluis,Zuid-Holland,VBO,4.129408,51.837607
Cornelis van Kleiburgstraat,8,,,3222CD,Hellevoetsluis,Hellevoetsluis,Zuid-Holland,VBO,4.128191,51.836338
Cornelis van Kleiburgstraat,9,,,3222CD,Hellevoetsluis,Hellevoetsluis,Zuid-Holland,VBO,4.129450,51.837140
Cornelis van Kleiburgstraat,10,,,3222CD,Hellevoetsluis,Hellevoetsluis,Zuid-Holland,VBO,4.128011,51.836171
Cornelis van Kleiburgstraat,11,,,3222CD,Hellevoetsluis,Hellevoetsluis,Zuid-Holland,VBO,4.129465,51.837095
Cornelis van Kleiburgstraat,12,,,3222CD,Hellevoetsluis,Hellevoetsluis,Zuid-Holland,VBO,4.128320,51.836004
Cornelis van Kleiburgstraat,13,,,3222CD,Hellevoetsluis,Hellevoetsluis,Zuid-Holland,VBO,4.129467,51.837041
Cornelis van Kleiburgstraat,14,,,3222CD,Hellevoetsluis,Hellevoetsluis,Zuid-Holland,VBO,4.128152,51.835786
Cornelis van Kleiburgstraat,15,,,3222CD,Hellevoetsluis,Hellevoetsluis,Zuid-Holland,VBO,4.129483,51.836987
Cornelis van Kleiburgstraat,16,,,3222CD,Hellevoetsluis,Hellevoetsluis,Zuid-Holland,VBO,4.127954,51.835605
Cornelis van Kleiburgstraat,17,a,,3222CD,Hellevoetsluis,Hellevoetsluis,Zuid-Holland,VBO,4.128530,51.835269
Cornelis van Kleiburgstraat,17,b,,3222CD,Hellevoetsluis,Hellevoetsluis,Zuid-Holland,VBO,4.128573,51.835270
Cornelis van Kleiburgstraat,17,c,,3222CD,Hellevoetsluis,Hellevoetsluis,Zuid-Holland,VBO,4.128631,51.835270
Cornelis van Kleiburgstraat,17,d,,3222CD,Hellevoetsluis,Hellevoetsluis,Zuid-Holland,VBO,4.128674,51.835280
Cornelis van Kleiburgstraat,17,e,,3222CD,Hellevoetsluis,Hellevoetsluis,Zuid-Holland,VBO,4.128732,51.835280
Cornelis van Kleiburgstraat,17,f,,3222CD,Hellevoetsluis,Hellevoetsluis,Zuid-Holland,VBO,4.128531,51.835215
Cornelis van Kleiburgstraat,17,g,,3222CD,Hellevoetsluis,Hellevoetsluis,Zuid-Holland,VBO,4.128589,51.835216
Cornelis van Kleiburgstraat,17,h,,3222CD,Hellevoetsluis,Hellevoetsluis,Zuid-Holland,VBO,4.128632,51.835225
Cornelis van Kleiburgstraat,17,i,,3222CD,Hellevoetsluis,Hellevoetsluis,Zuid-Holland,VBO,4.128690,51.835226
Cornelis van Kleiburgstraat,18,,,3222CD,Hellevoetsluis,Hellevoetsluis,Zuid-Holland,VBO,4.127855,51.836035
Cornelis van Kleiburgstraat,19,,,3222CD,Hellevoetsluis,Hellevoetsluis,Zuid-Holland,VBO,4.128268,51.835284
Cornelis van Kleiburgstraat,20,,,3222CD,Hellevoetsluis,Hellevoetsluis,Zuid-Holland,VBO,4.127716,51.835827
Cornelis van Kleiburgstraat,21,,,3222CD,Hellevoetsluis,Hellevoetsluis,Zuid-Holland,VBO,4.128284,51.835231
Cornelis van Kleiburgstraat,22,,,3222CD,Hellevoetsluis,Hellevoetsluis,Zuid-Holland,VBO,4.127604,51.835682
Cornelis van Kleiburgstraat,23,,,3222CD,Hellevoetsluis,Hellevoetsluis,Zuid-Holland,VBO,4.128286,51.835177
Cornelis van Kleiburgstraat,24,,,3222CD,Hellevoetsluis,Hellevoetsluis,Zuid-Holland,VBO,4.127450,51.835473
Cornelis van Kleiburgstraat,25,,,3222CD,Hellevoetsluis,Hellevoetsluis,Zuid-Holland,VBO,4.128302,51.835123
Cornelis van Kleiburgstraat,26,,,3222CD,Hellevoetsluis,Hellevoetsluis,Zuid-Holland,VBO,4.127743,51.835387
Cornelis van Kleiburgstraat,27,,,3222CD,Hellevoetsluis,Hellevoetsluis,Zuid-Holland,VBO,4.128303,51.835069
Cornelis van Kleiburgstraat,28,,,3222CD,Hellevoetsluis,Hellevoetsluis,Zuid-Holland,VBO,4.127705,51.835188
Cornelis van Kleiburgstraat,29,,,3222CD,Hellevoetsluis,Hellevoetsluis,Zuid-Holland,VBO,4.128319,51.835015
Cornelis van Kleiburgstraat,31,,,3222CD,Hellevoetsluis,Hellevoetsluis,Zuid-Holland,VBO,4.128171,51.834618
Cornelis van Kleiburgstraat,33,,,3222CD,Hellevoetsluis,Hellevoetsluis,Zuid-Holland,VBO,4.128187,51.834564
Cornelis van Kleiburgstraat,35,,,3222CD,Hellevoetsluis,Hellevoetsluis,Zuid-Holland,VBO,4.128188,51.834510
Cornelis van Kleiburgstraat,37,,,3222CD,Hellevoetsluis,Hellevoetsluis,Zuid-Holland,VBO,4.128204,51.834457
Culhemiusstraat,1,,,3222CE,Hellevoetsluis,Hellevoetsluis,Zuid-Holland,VBO,4.131785,51.837165
Culhemiusstraat,2,,,3222CE,Hellevoetsluis,Hellevoetsluis,Zuid-Holland,VBO,4.131485,51.837000
Culhemiusstraat,3,,,3222CE,Hellevoetsluis,Hellevoetsluis,Zuid-Holland,VBO,4.131801,51.837111
Culhemiusstraat,4,,,3222CE,Hellevoetsluis,Hellevoetsluis,Zuid-Holland,VBO,4.131501,51.836946
Culhemiusstraat,5,,,3222CE,Hellevoetsluis,Hellevoetsluis,Zuid-Holland,VBO,4.131803,51.837048
Culhemiusstraat,6,,,3222CE,Hellevoetsluis,Hellevoetsluis,Zuid-Holland,VBO,4.131502,51.836901
Culhemiusstraat,7,,,3222CE,Hellevoetsluis,Hellevoetsluis,Zuid-Holland,VBO,4.131819,51.836985
Culhemiusstraat,8,,,3222CE,Hellevoetsluis,Hellevoetsluis,Zuid-Holland,VBO,4.131504,51.836847
Culhemiusstraat,9,,,3222CE,Hellevoetsluis,Hellevoetsluis,Zuid-Holland,VBO,4.132065,51.837006
Culhemiusstraat,10,,,3222CE,Hellevoetsluis,Hellevoetsluis,Zuid-Holland,VBO,4.131520,51.836802
Culhemiusstraat,11,,,3222CE,Hellevoetsluis,Hellevoetsluis,Zuid-Holland,VBO,4.132109,51.837006
Culhemiusstraat,12,,,3222CE,Hellevoetsluis,Hellevoetsluis,Zuid-Holland,VBO,4.131351,51.836603
Culhemiusstraat,13,,,3222CE,Hellevoetsluis,Hellevoetsluis,Zuid-Holland,VBO,4.132152,51.837016
Culhemiusstraat,15,,,3222CE,Hellevoetsluis,Hellevoetsluis,Zuid-Holland,VBO,4.132196,51.837016
Culhemiusstraat,17,,,3222CE,Hellevoetsluis,Hellevoetsluis,Zuid-Holland,VBO,4.132239,51.837017
Culhemiusstraat,19,,,3222CE,Hellevoetsluis,Hellevoetsluis,Zuid-Holland,VBO,4.132283,51.837017
Daniël Willemsstraat,1,,,3222CG,Hellevoetsluis,Hellevoetsluis,Zuid-Holland,VBO,4.129181,51.836355
Daniël Willemsstraat,2,,,3222CG,Hellevoetsluis,Hellevoetsluis,Zuid-Holland,VBO,4.129002,51.835499
Daniël Willemsstraat,3,,,3222CG,Hellevoetsluis,Hellevoetsluis,Zuid-Holland,VBO,4.129183,51.836301
Daniël Willemsstraat,4,,,3222CG,Hellevoetsluis,Hellevoetsluis,Zuid-Holland,VBO,4.129018,51.835445
Daniël Willemsstraat,5,,,3222CG,Hellevoetsluis,Hellevoetsluis,Zuid-Holland,VBO,4.129199,51.836247
Daniël Willemsstraat,6,,,3222CG,Hellevoetsluis,Hellevoetsluis,Zuid-Holland,VBO,4.129034,51.835391
Daniël Willemsstraat,7,,,3222CG,Hellevoetsluis,Hellevoetsluis,Zuid-Holland,VBO,4.129215,51.836193
Daniël Willemsstraat,8,,,3222CG,Hellevoetsluis,Hellevoetsluis,Zuid-Holland,VBO,4.129036,51.835337
Daniël Willemsstraat,9,,,3222CG,Hellevoetsluis,Hellevoetsluis,Zuid-Holland,VBO,4.129216,51.836139
Daniël Willemsstraat,10,,,3222CG,Hellevoetsluis,Hellevoetsluis,Zuid-Holland,VBO,4.129051,51.835293
Daniël Willemsstraat,11,,,3222CG,Hellevoetsluis,Hellevoetsluis,Zuid-Holland,VBO,4.129232,51.836095
Daniël Willemsstraat,12,,,3222CG,Hellevoetsluis,Hellevoetsluis,Zuid-Holland,VBO,4.129053,51.835239
Daniël Willemsstraat,13,,,3222CG,Hellevoetsluis,Hellevoetsluis,Zuid-Holland,VBO,4.129234,51.836041
Daniël Willemsstraat,14,c,,3222CG,Hellevoetsluis,Hellevoetsluis,Zuid-Holland,VBO,4.128776,51.835290
Daniël Willemsstraat,14,d,,3222CG,Hellevoetsluis,Hellevoetsluis,Zuid-Holland,VBO,4.128819,51.835290
Daniël Willemsstraat,14,e,,3222CG,Hellevoetsluis,Hellevoetsluis,Zuid-Holland,VBO,4.128734,51.835226
Daniël Willemsstraat,14,f,,3222CG,Hellevoetsluis,Hellevoetsluis,Zuid-Holland,VBO,4.128792,51.835236
Daniël Willemsstraat,14,g,,3222CG,Hellevoetsluis,Hellevoetsluis,Zuid-Holland,VBO,4.128835,51.835236
Daniël Willemsstraat,15,,,3222CG,Hellevoetsluis,Hellevoetsluis,Zuid-Holland,VBO,4.129250,51.835987
Daniël Willemsstraat,17,,,3222CG,Hellevoetsluis,Hellevoetsluis,Zuid-Holland,VBO,4.129266,51.835933
Daniël Willemsstraat,19,,,3222CG,Hellevoetsluis,Hellevoetsluis,Zuid-Holland,VBO,4.129267,51.835879
Daniël Willemsstraat,21,,,3222CG,Hellevoetsluis,Hellevoetsluis,Zuid-Holland,VBO,4.129300,51.835727
Daniël Willemsstraat,23,,,3222CG,Hellevoetsluis,Hellevoetsluis,Zuid-Holland,VBO,4.129316,51.835682
Daniël Willemsstraat,25,,,3222CG,Hellevoetsluis,Hellevoetsluis,Zuid-Holland,VBO,4.129318,51.835628
Daniël Willemsstraat,27,,,3222CG,Hellevoetsluis,Hellevoetsluis,Zuid-Holland,VBO,4.129334,51.835574
Daniël Willemsstraat,29,,,3222CG,Hellevoetsluis,Hellevoetsluis,Zuid-Holland,VBO,4.129350,51.835521
Daniël Willemsstraat,31,,,3222CG,Hellevoetsluis,Hellevoetsluis,Zuid-Holland,VBO,4.129370,51.835323
Daniël Willemsstraat,33,,,3222CG,Hellevoetsluis,Hellevoetsluis,Zuid-Holland,VBO,4.129371,51.835269
Hendrik Boogaardstraat,1,,,3222CH,Hellevoetsluis,Hellevoetsluis,Zuid-Holland,VBO,4.131036,51.836968
Hendrik Boogaardstraat,2,,,3222CH,Hellevoetsluis,Hellevoetsluis,Zuid-Holland,VBO,4.130684,51.837090
Hendrik Boogaardstraat,3,,,3222CH,Hellevoetsluis,Hellevoetsluis,Zuid-Holland,VBO,4.131038,51.836914
Hendrik Boogaardstraat,4,,,3222CH,Hellevoetsluis,Hellevoetsluis,Zuid-Holland,VBO,4.130700,51.837036
Hendrik Boogaardstraat,5,,,3222CH,Hellevoetsluis,Hellevoetsluis,Zuid-Holland,VBO,4.131054,51.836860
Hendrik Boogaardstraat,6,,,3222CH,Hellevoetsluis,Hellevoetsluis,Zuid-Holland,VBO,4.130716,51.836983
Hendrik Boogaardstraat,7,,,3222CH,Hellevoetsluis,Hellevoetsluis,Zuid-Holland,VBO,4.131069,51.836816
Hendrik Boogaardstraat,8,,,3222CH,Hellevoetsluis,Hellevoetsluis,Zuid-Holland,VBO,4.130718,51.836938
Hendrik Boogaardstraat,9,,,3222CH,Hellevoetsluis,Hellevoetsluis,Zuid-Holland,VBO,4.131071,51.836762
Hendrik Boogaardstraat,10,,,3222CH,Hellevoetsluis,Hellevoetsluis,Zuid-Holland,VBO,4.130733,51.836893
Hein Ewoutsstraat,1,,,3222CJ,Hellevoetsluis,Hellevoetsluis,Zuid-Holland,VBO,4.129763,51.834734
Hein Ewoutsstraat,2,,,3222CJ,Hellevoetsluis,Hellevoetsluis,Zuid-Holland,VBO,4.129445,51.834713
Hein Ewoutsstraat,3,,,3222CJ,Hellevoetsluis,Hellevoetsluis,Zuid-Holland,VBO,4.129779,51.834680
Hein Ewoutsstraat,4,,,3222CJ,Hellevoetsluis,Hellevoetsluis,Zuid-Holland,VBO,4.129461,51.834659
Hein Ewoutsstraat,5,,,3222CJ,Hellevoetsluis,Hellevoetsluis,Zuid-Holland,VBO,4.129795,51.834626
Hein Ewoutsstraat,6,,,3222CJ,Hellevoetsluis,Hellevoetsluis,Zuid-Holland,VBO,4.129477,51.834605
Hein Ewoutsstraat,7,,,3222CJ,Hellevoetsluis,Hellevoetsluis,Zuid-Holland,VBO,4.129871,51.834510
Hein Ewoutsstraat,8,,,3222CJ,Hellevoetsluis,Hellevoetsluis,Zuid-Holland,VBO,4.129478,51.834551
Hein Ewoutsstraat,10,,,3222CJ,Hellevoetsluis,Hellevoetsluis,Zuid-Holland,VBO,4.129498,51.834363
Hoonaartstraat,1,,,3222CK,Hellevoetsluis,Hellevoetsluis,Zuid-Holland,VBO,4.129589,51.836809
Hoonaartstraat,3,,,3222CK,Hellevoetsluis,Hellevoetsluis,Zuid-Holland,VBO,4.129662,51.836818
Hoonaartstraat,5,,,3222CK,Hellevoetsluis,Hellevoetsluis,Zuid-Holland,VBO,4.129749,51.836819
Hoonaartstraat,7,,,3222CK,Hellevoetsluis,Hellevoetsluis,Zuid-Holland,VBO,4.129836,51.836829
Hoonaartstraat,9,,,3222CK,Hellevoetsluis,Hellevoetsluis,Zuid-Holland,VBO,4.129923,51.836830
Hoonaartstraat,11,,,3222CK,Hellevoetsluis,Hellevoetsluis,Zuid-Holland,VBO,4.130009,51.836840
Hoonaartstraat,13,,,3222CK,Hellevoetsluis,Hellevoetsluis,Zuid-Holland,VBO,4.130333,51.836673
Hoonaartstraat,15,,,3222CK,Hellevoetsluis,Hellevoetsluis,Zuid-Holland,VBO,4.130420,51.836683
Hoonaartstraat,17,,,3222CK,Hellevoetsluis,Hellevoetsluis,Zuid-Holland,VBO,4.130507,51.836684
Hoonaartstraat,19,,,3222CK,Hellevoetsluis,Hellevoetsluis,Zuid-Holland,VBO,4.130594,51.836694
Hoonaartstraat,21,,,3222CK,Hellevoetsluis,Hellevoetsluis,Zuid-Holland,VBO,4.130681,51.836703
Hoonaartstraat,23,,,3222CK,Hellevoetsluis,Hellevoetsluis,Zuid-Holland,VBO,4.130768,51.836704
Hoonaartstraat,25,,,3222CK,Hellevoetsluis,Hellevoetsluis,Zuid-Holland,VBO,4.131191,51.836601
Hoonaartstraat,27,,,3222CK,Hellevoetsluis,Hellevoetsluis,Zuid-Holland,VBO,4.132131,51.836634
Hoonaartstraat,40,,,3222CL,Hellevoetsluis,Hellevoetsluis,Zuid-Holland,VBO,4.129148,51.836498
Hoonaartstraat,42,,,3222CL,Hellevoetsluis,Hellevoetsluis,Zuid-Holland,VBO,4.129235,51.836508
Hoonaartstraat,44,,,3222CL,Hellevoetsluis,Hellevoetsluis,Zuid-Holland,VBO,4.129322,51.836509
Hoonaartstraat,46,,,3222CL,Hellevoetsluis,Hellevoetsluis,Zuid-Holland,VBO,4.129409,51.836519
Hoonaartstraat,48,,,3222CL,Hellevoetsluis,Hellevoetsluis,Zuid-Holland,VBO,4.129496,51.836529
Hoonaartstraat,50,,,3222CL,Hellevoetsluis,Hellevoetsluis,Zuid-Holland,VBO,4.129583,51.836530
Hoonaartstraat,52,,,3222CL,Hellevoetsluis,Hellevoetsluis,Zuid-Holland,VBO,4.129936,51.836345
Hoonaartstraat,54,,,3222CL,Hellevoetsluis,Hellevoetsluis,Zuid-Holland,VBO,4.130023,51.836355
Hoonaartstraat,56,,,3222CL,Hellevoetsluis,Hellevoetsluis,Zuid-Holland,VBO,4.130110,51.836356
Hoonaartstraat,58,,,3222CL,Hellevoetsluis,Hellevoetsluis,Zuid-Holland,VBO,4.130197,51.836366
Hoonaartstraat,60,,,3222CL,Hellevoetsluis,Hellevoetsluis,Zuid-Holland,VBO,4.130284,51.836376
Hoonaartstraat,62,,,3222CL,Hellevoetsluis,Hellevoetsluis,Zuid-Holland,VBO,4.130371,51.836377
Hoonaartstraat,64,b,,3222CL,Hellevoetsluis,Hellevoetsluis,Zuid-Holland,VBO,4.130784,51.836138
Hoonaartstraat,64,,,3222CL,Hellevoetsluis,Hellevoetsluis,Zuid-Holland,VBO,4.130738,51.836210
Hoonaartstraat,66,a,,3222CL,Hellevoetsluis,Hellevoetsluis,Zuid-Holland,VBO,4.130928,51.836167
Hoonaartstraat,66,,WINK,3222CL,Hellevoetsluis,Hellevoetsluis,Zuid-Holland,VBO,4.130897,51.836220
Hoonaartstraat,68,,WINK,3222CL,Hellevoetsluis,Hellevoetsluis,Zuid-Holland,VBO,4.131023,51.836121
Hoonaartstraat,68,,,3222CL,Hellevoetsluis,Hellevoetsluis,Zuid-Holland,VBO,4.131023,51.836121
Hoonaartstraat,70,,WINK,3222CL,Hellevoetsluis,Hellevoetsluis,Zuid-Holland,VBO,4.131129,51.836232
Hoonaartstraat,70,,,3222CL,Hellevoetsluis,Hellevoetsluis,Zuid-Holland,VBO,4.131129,51.836241
Hoonaartstraat,72,,,3222CL,Hellevoetsluis,Hellevoetsluis,Zuid-Holland,VBO,4.131743,51.836059
Jan Geelstraat,2,,,3222CM,Hellevoetsluis,Hellevoetsluis,Zuid-Holland,VBO,4.128336,51.835456
Jan Geelstraat,4,,,3222CM,Hellevoetsluis,Hellevoetsluis,Zuid-Holland,VBO,4.128423,51.835466
Jan Geelstraat,6,,,3222CM,Hellevoetsluis,Hellevoetsluis,Zuid-Holland,VBO,4.128495,51.835467
Jan Geelstraat,8,,,3222CM,Hellevoetsluis,Hellevoetsluis,Zuid-Holland,VBO,4.128582,51.835476
Jan Geelstraat,10,,,3222CM,Hellevoetsluis,Hellevoetsluis,Zuid-Holland,VBO,4.128669,51.835486
Jan Geelstraat,12,,,3222CM,Hellevoetsluis,Hellevoetsluis,Zuid-Holland,VBO,4.128756,51.835487
Karel de Stoutestraat,1,,,3222CN,Hellevoetsluis,Hellevoetsluis,Zuid-Holland,VBO,4.129713,51.837583
Karel de Stoutestraat,3,,,3222CN,Hellevoetsluis,Hellevoetsluis,Zuid-Holland,VBO,4.129800,51.837593
Karel de Stoutestraat,5,,,3222CN,Hellevoetsluis,Hellevoetsluis,Zuid-Holland,VBO,4.129872,51.837594
Karel de Stoutestraat,7,,,3222CN,Hellevoetsluis,Hellevoetsluis,Zuid-Holland,VBO,4.130077,51.837542
Karel de Stoutestraat,9,,,3222CN,Hellevoetsluis,Hellevoetsluis,Zuid-Holland,VBO,4.130149,51.837552
Karel de Stoutestraat,11,,,3222CN,Hellevoetsluis,Hellevoetsluis,Zuid-Holland,VBO,4.130236,51.837553
Karel de Stoutestraat,13,,,3222CN,Hellevoetsluis,Hellevoetsluis,Zuid-Holland,VBO,4.130441,51.837492
Karel de Stoutestraat,15,,,3222CN,Hellevoetsluis,Hellevoetsluis,Zuid-Holland,VBO,4.130528,51.837502
Karel de Stoutestraat,17,,,3222CN,Hellevoetsluis,Hellevoetsluis,Zuid-Holland,VBO,4.130615,51.837503
Karel de Stoutestraat,19,,,3222CN,Hellevoetsluis,Hellevoetsluis,Zuid-Holland,VBO,4.130790,51.837451
Karel de Stoutestraat,21,,,3222CN,Hellevoetsluis,Hellevoetsluis,Zuid-Holland,VBO,4.130892,51.837461
Karel de Stoutestraat,23,a,,3222CN,Hellevoetsluis,Hellevoetsluis,Zuid-Holland,VBO,4.130813,51.837667
Karel de Stoutestraat,23,b,,3222CN,Hellevoetsluis,Hellevoetsluis,Zuid-Holland,VBO,4.130857,51.837667
Karel de Stoutestraat,23,c,,3222CN,Hellevoetsluis,Hellevoetsluis,Zuid-Holland,VBO,4.130900,51.837677
Karel de Stoutestraat,23,d,,3222CN,Hellevoetsluis,Hellevoetsluis,Zuid-Holland,VBO,4.130944,51.837677
Karel de Stoutestraat,23,e,,3222CN,Hellevoetsluis,Hellevoetsluis,Zuid-Holland,VBO,4.130987,51.837678
Karel de Stoutestraat,23,f,,3222CN,Hellevoetsluis,Hellevoetsluis,Zuid-Holland,VBO,4.131031,51.837687
Karel de Stoutestraat,23,,,3222CN,Hellevoetsluis,Hellevoetsluis,Zuid-Holland,VBO,4.130964,51.837462
Karel de Stoutestraat,25,a,,3222CN,Hellevoetsluis,Hellevoetsluis,Zuid-Holland,VBO,4.131074,51.837688
Karel de Stoutestraat,25,b,,3222CN,Hellevoetsluis,Hellevoetsluis,Zuid-Holland,VBO,4.131132,51.837688
Karel de Stoutestraat,25,c,,3222CN,Hellevoetsluis,Hellevoetsluis,Zuid-Holland,VBO,4.131176,51.837689
Karel de Stoutestraat,25,d,,3222CN,Hellevoetsluis,Hellevoetsluis,Zuid-Holland,VBO,4.131204,51.837698
Karel de Stoutestraat,25,e,,3222CN,Hellevoetsluis,Hellevoetsluis,Zuid-Holland,VBO,4.131387,51.837719
Karel de Stoutestraat,25,f,,3222CN,Hellevoetsluis,Hellevoetsluis,Zuid-Holland,VBO,4.131291,51.837708
Karel de Stoutestraat,25,g,,3222CN,Hellevoetsluis,Hellevoetsluis,Zuid-Holland,VBO,4.131335,51.837708
Karel de Stoutestraat,25,h,,3222CN,Hellevoetsluis,Hellevoetsluis,Zuid-Holland,VBO,4.131378,51.837709
Karel de Stoutestraat,25,i,,3222CN,Hellevoetsluis,Hellevoetsluis,Zuid-Holland,VBO,4.131421,51.837718
Karel de Stoutestraat,25,j,,3222CN,Hellevoetsluis,Hellevoetsluis,Zuid-Holland,VBO,4.131465,51.837719
Karel de Stoutestraat,25,k,,3222CN,Hellevoetsluis,Hellevoetsluis,Zuid-Holland,VBO,4.131508,51.837728
Karel de Stoutestraat,25,l,,3222CN,Hellevoetsluis,Hellevoetsluis,Zuid-Holland,VBO,4.131537,51.837728
Karel de Stoutestraat,25,m,,3222CN,Hellevoetsluis,Hellevoetsluis,Zuid-Holland,VBO,4.131581,51.837729
Karel de Stoutestraat,25,n,,3222CN,Hellevoetsluis,Hellevoetsluis,Zuid-Holland,VBO,4.131584,51.837621
Karel de Stoutestraat,25,o,,3222CN,Hellevoetsluis,Hellevoetsluis,Zuid-Holland,VBO,4.131453,51.837611
Karel de Stoutestraat,25,p,,3222CN,Hellevoetsluis,Hellevoetsluis,Zuid-Holland,VBO,4.131323,51.837600
Karel de Stoutestraat,25,q,,3222CN,Hellevoetsluis,Hellevoetsluis,Zuid-Holland,VBO,4.131207,51.837590
Karel de Stoutestraat,25,,,3222CN,Hellevoetsluis,Hellevoetsluis,Zuid-Holland,VBO,4.131140,51.837410
Karel de Stoutestraat,27,,,3222CN,Hellevoetsluis,Hellevoetsluis,Zuid-Holland,VBO,4.131227,51.837419
Karel de Stoutestraat,29,,,3222CN,Hellevoetsluis,Hellevoetsluis,Zuid-Holland,VBO,4.131314,51.837420
Karel de Stoutestraat,31,,,3222CN,Hellevoetsluis,Hellevoetsluis,Zuid-Holland,VBO,4.131400,51.837430
Karel de Stoutestraat,33,,,3222CN,Hellevoetsluis,Hellevoetsluis,Zuid-Holland,VBO,4.131487,51.837440
Karel de Stoutestraat,35,,,3222CN,Hellevoetsluis,Hellevoetsluis,Zuid-Holland,VBO,4.131574,51.837441
Karel de Stoutestraat,37,,,3222CN,Hellevoetsluis,Hellevoetsluis,Zuid-Holland,VBO,4.131735,51.837398
Karel de Stoutestraat,39,,,3222CN,Hellevoetsluis,Hellevoetsluis,Zuid-Holland,VBO,4.131968,51.837373
Karel de Stoutestraat,2,,,3222CP,Hellevoetsluis,Hellevoetsluis,Zuid-Holland,VBO,4.129460,51.837302
Karel de Stoutestraat,4,,,3222CP,Hellevoetsluis,Hellevoetsluis,Zuid-Holland,VBO,4.129546,51.837312
Karel de Stoutestraat,6,,,3222CP,Hellevoetsluis,Hellevoetsluis,Zuid-Holland,VBO,4.129633,51.837313
Karel de Stoutestraat,8,,,3222CP,Hellevoetsluis,Hellevoetsluis,Zuid-Holland,VBO,4.129720,51.837322
Karel de Stoutestraat,10,,,3222CP,Hellevoetsluis,Hellevoetsluis,Zuid-Holland,VBO,4.129793,51.837323
Karel de Stoutestraat,12,,,3222CP,Hellevoetsluis,Hellevoetsluis,Zuid-Holland,VBO,4.130202,51.837211
Karel de Stoutestraat,14,,,3222CP,Hellevoetsluis,Hellevoetsluis,Zuid-Holland,VBO,4.130289,51.837221
Karel de Stoutestraat,16,,,3222CP,Hellevoetsluis,Hellevoetsluis,Zuid-Holland,VBO,4.130376,51.837231
Karel de Stoutestraat,18,,,3222CP,Hellevoetsluis,Hellevoetsluis,Zuid-Holland,VBO,4.130463,51.837232
Karel de Stoutestraat,20,,,3222CP,Hellevoetsluis,Hellevoetsluis,Zuid-Holland,VBO,4.130550,51.837241
Karel de Stoutestraat,22,,,3222CP,Hellevoetsluis,Hellevoetsluis,Zuid-Holland,VBO,4.130636,51.837251
Karel de Stoutestraat,24,,,3222CP,Hellevoetsluis,Hellevoetsluis,Zuid-Holland,VBO,4.131003,51.837129
Karel de Stoutestraat,26,,,3222CP,Hellevoetsluis,Hellevoetsluis,Zuid-Holland,VBO,4.131090,51.837130
Karel de Stoutestraat,28,,,3222CP,Hellevoetsluis,Hellevoetsluis,Zuid-Holland,VBO,4.131162,51.837140
Karel de Stoutestraat,30,,,3222CP,Hellevoetsluis,Hellevoetsluis,Zuid-Holland,VBO,4.131249,51.837141
Karel de Stoutestraat,32,,,3222CP,Hellevoetsluis,Hellevoetsluis,Zuid-Holland,VBO,4.131336,51.837151
Karel de Stoutestraat,34,,,3222CP,Hellevoetsluis,Hellevoetsluis,Zuid-Holland,VBO,4.131422,51.837161
Karel de Stoutestraat,36,,,3222CP,Hellevoetsluis,Hellevoetsluis,Zuid-Holland,VBO,4.132090,51.837177
Karel de Stoutestraat,38,,,3222CP,Hellevoetsluis,Hellevoetsluis,Zuid-Holland,VBO,4.132191,51.837187
Karel de Stoutestraat,40,,,3222CP,Hellevoetsluis,Hellevoetsluis,Zuid-Holland,VBO,4.132475,51.837406
Karel de Stoutestraat,42,,,3222CP,Hellevoetsluis,Hellevoetsluis,Zuid-Holland,VBO,4.132457,51.837514
P C de Vinckstraat,1,a,,3222CR,Hellevoetsluis,Hellevoetsluis,Zuid-Holland,VBO,4.130757,51.836039
P C de Vinckstraat,1,,,3222CR,Hellevoetsluis,Hellevoetsluis,Zuid-Holland,VBO,4.130755,51.836129
P C de Vinckstraat,2,a,,3222CR,Hellevoetsluis,Hellevoetsluis,Zuid-Holland,VBO,4.130389,51.836224
P C de Vinckstraat,2,,,3222CR,Hellevoetsluis,Hellevoetsluis,Zuid-Holland,VBO,4.130387,51.836296
P C de Vinckstraat,3,,,3222CR,Hellevoetsluis,Hellevoetsluis,Zuid-Holland,VBO,4.130759,51.835994
P C de Vinckstraat,4,,,3222CR,Hellevoetsluis,Hellevoetsluis,Zuid-Holland,VBO,4.130406,51.836161
P C de Vinckstraat,5,,,3222CR,Hellevoetsluis,Hellevoetsluis,Zuid-Holland,VBO,4.130775,51.835940
P C de Vinckstraat,6,,,3222CR,Hellevoetsluis,Hellevoetsluis,Zuid-Holland,VBO,4.130439,51.836009
P C de Vinckstraat,7,,,3222CR,Hellevoetsluis,Hellevoetsluis,Zuid-Holland,VBO,4.130791,51.835887
P C de Vinckstraat,8,,,3222CR,Hellevoetsluis,Hellevoetsluis,Zuid-Holland,VBO,4.130440,51.835964
P C de Vinckstraat,9,,,3222CR,Hellevoetsluis,Hellevoetsluis,Zuid-Holland,VBO,4.130792,51.835833
P C de Vinckstraat,10,,,3222CR,Hellevoetsluis,Hellevoetsluis,Zuid-Holland,VBO,4.130473,51.835820
P C de Vinckstraat,11,,,3222CR,Hellevoetsluis,Hellevoetsluis,Zuid-Holland,VBO,4.130808,51.835779
P C de Vinckstraat,12,,,3222CR,Hellevoetsluis,Hellevoetsluis,Zuid-Holland,VBO,4.130489,51.835767
P C de Vinckstraat,13,,,3222CR,Hellevoetsluis,Hellevoetsluis,Zuid-Holland,VBO,4.130809,51.835734
P C de Vinckstraat,14,,,3222CR,Hellevoetsluis,Hellevoetsluis,Zuid-Holland,VBO,4.130523,51.835605
P C de Vinckstraat,15,,,3222CR,Hellevoetsluis,Hellevoetsluis,Zuid-Holland,VBO,4.130827,51.835635
P C de Vinckstraat,16,,,3222CR,Hellevoetsluis,Hellevoetsluis,Zuid-Holland,VBO,4.130524,51.835551
P C de Vinckstraat,17,,,3222CR,Hellevoetsluis,Hellevoetsluis,Zuid-Holland,VBO,4.130843,51.835582
P C de Vinckstraat,18,,,3222CR,Hellevoetsluis,Hellevoetsluis,Zuid-Holland,VBO,4.130557,51.835417
P C de Vinckstraat,19,,,3222CR,Hellevoetsluis,Hellevoetsluis,Zuid-Holland,VBO,4.130859,51.835528
P C de Vinckstraat,20,,,3222CR,Hellevoetsluis,Hellevoetsluis,Zuid-Holland,VBO,4.130558,51.835363
P C de Vinckstraat,21,,,3222CR,Hellevoetsluis,Hellevoetsluis,Zuid-Holland,VBO,4.130860,51.835474
P C de Vinckstraat,23,,,3222CR,Hellevoetsluis,Hellevoetsluis,Zuid-Holland,VBO,4.130876,51.835420
P C de Vinckstraat,25,,,3222CR,Hellevoetsluis,Hellevoetsluis,Zuid-Holland,VBO,4.130892,51.835366
Steijaartlaan,1,,,3222CS,Hellevoetsluis,Hellevoetsluis,Zuid-Holland,VBO,4.130235,51.837058
Steijaartlaan,2,,,3222CS,Hellevoetsluis,Hellevoetsluis,Zuid-Holland,VBO,4.129913,51.837172
Steijaartlaan,3,,,3222CS,Hellevoetsluis,Hellevoetsluis,Zuid-Holland,VBO,4.130251,51.837005
Steijaartlaan,4,,,3222CS,Hellevoetsluis,Hellevoetsluis,Zuid-Holland,VBO,4.129929,51.837118
Steijaartlaan,5,,,3222CS,Hellevoetsluis,Hellevoetsluis,Zuid-Holland,VBO,4.130267,51.836960
Steijaartlaan,6,,,3222CS,Hellevoetsluis,Hellevoetsluis,Zuid-Holland,VBO,4.129930,51.837073
Steijaartlaan,7,,,3222CS,Hellevoetsluis,Hellevoetsluis,Zuid-Holland,VBO,4.130269,51.836906
Steijaartlaan,8,,,3222CS,Hellevoetsluis,Hellevoetsluis,Zuid-Holland,VBO,4.129946,51.837019
Steijaartlaan,9,,,3222CS,Hellevoetsluis,Hellevoetsluis,Zuid-Holland,VBO,4.130285,51.836852
Willems Fopsstraat,1,,,3222CT,Hellevoetsluis,Hellevoetsluis,Zuid-Holland,VBO,4.129969,51.836201
Willems Fopsstraat,2,,,3222CT,Hellevoetsluis,Hellevoetsluis,Zuid-Holland,VBO,4.129601,51.836386
Willems Fopsstraat,3,,,3222CT,Hellevoetsluis,Hellevoetsluis,Zuid-Holland,VBO,4.129971,51.836148
Willems Fopsstraat,4,,,3222CT,Hellevoetsluis,Hellevoetsluis,Zuid-Holland,VBO,4.129617,51.836333
Willems Fopsstraat,5,,,3222CT,Hellevoetsluis,Hellevoetsluis,Zuid-Holland,VBO,4.129987,51.836094
Willems Fopsstraat,6,,,3222CT,Hellevoetsluis,Hellevoetsluis,Zuid-Holland,VBO,4.129619,51.836279
Willems Fopsstraat,7,,,3222CT,Hellevoetsluis,Hellevoetsluis,Zuid-Holland,VBO,4.130003,51.836040
Willems Fopsstraat,8,,,3222CT,Hellevoetsluis,Hellevoetsluis,Zuid-Holland,VBO,4.129635,51.836225
Willems Fopsstraat,9,,,3222CT,Hellevoetsluis,Hellevoetsluis,Zuid-Holland,VBO,4.130004,51.835986
Willems Fopsstraat,10,,,3222CT,Hellevoetsluis,Hellevoetsluis,Zuid-Holland,VBO,4.129651,51.836180
Willems Fopsstraat,11,,,3222CT,Hellevoetsluis,Hellevoetsluis,Zuid-Holland,VBO,4.130020,51.835941
Willems Fopsstraat,12,,,3222CT,Hellevoetsluis,Hellevoetsluis,Zuid-Holland,VBO,4.129652,51.836126
Willems Fopsstraat,13,,,3222CT,Hellevoetsluis,Hellevoetsluis,Zuid-Holland,VBO,4.130021,51.835887
Willems Fopsstraat,14,,,3222CT,Hellevoetsluis,Hellevoetsluis,Zuid-Holland,VBO,4.129668,51.836072
Willems Fopsstraat,15,,,3222CT,Hellevoetsluis,Hellevoetsluis,Zuid-Holland,VBO,4.130037,51.835834
Willems Fopsstraat,16,,,3222CT,Hellevoetsluis,Hellevoetsluis,Zuid-Holland,VBO,4.129684,51.836019
Willems Fopsstraat,17,,,3222CT,Hellevoetsluis,Hellevoetsluis,Zuid-Holland,VBO,4.130053,51.835780
Willems Fopsstraat,18,,,3222CT,Hellevoetsluis,Hellevoetsluis,Zuid-Holland,VBO,4.129686,51.835965
Willems Fopsstraat,19,,,3222CT,Hellevoetsluis,Hellevoetsluis,Zuid-Holland,VBO,4.130055,51.835726
Willems Fopsstraat,20,,,3222CT,Hellevoetsluis,Hellevoetsluis,Zuid-Holland,VBO,4.129702,51.835911
Willems Fopsstraat,21,,,3222CT,Hellevoetsluis,Hellevoetsluis,Zuid-Holland,VBO,4.130088,51.835573
Willems Fopsstraat,22,,,3222CT,Hellevoetsluis,Hellevoetsluis,Zuid-Holland,VBO,4.129735,51.835767
Willems Fopsstraat,23,,,3222CT,Hellevoetsluis,Hellevoetsluis,Zuid-Holland,VBO,4.130104,51.835529
Willems Fopsstraat,24,,,3222CT,Hellevoetsluis,Hellevoetsluis,Zuid-Holland,VBO,4.129736,51.835714
Willems Fopsstraat,25,,,3222CT,Hellevoetsluis,Hellevoetsluis,Zuid-Holland,VBO,4.130106,51.835475
Willems Fopsstraat,26,,,3222CT,Hellevoetsluis,Hellevoetsluis,Zuid-Holland,VBO,4.129752,51.835660
Willems Fopsstraat,27,,,3222CT,Hellevoetsluis,Hellevoetsluis,Zuid-Holland,VBO,4.130122,51.835421
Willems Fopsstraat,28,,,3222CT,Hellevoetsluis,Hellevoetsluis,Zuid-Holland,VBO,4.129768,51.835606
Willems Fopsstraat,29,,,3222CT,Hellevoetsluis,Hellevoetsluis,Zuid-Holland,VBO,4.130138,51.835367
Willems Fopsstraat,30,,,3222CT,Hellevoetsluis,Hellevoetsluis,Zuid-Holland,VBO,4.129770,51.835552
Willems Fopsstraat,31,,,3222CT,Hellevoetsluis,Hellevoetsluis,Zuid-Holland,VBO,4.130139,51.835313
Willems Fopsstraat,32,,,3222CT,Hellevoetsluis,Hellevoetsluis,Zuid-Holland,VBO,4.129786,51.835498
Willems Fopsstraat,34,,,3222CT,Hellevoetsluis,Hellevoetsluis,Zuid-Holland,VBO,4.129802,51.835445
Willems Fopsstraat,36,,,3222CT,Hellevoetsluis,Hellevoetsluis,Zuid-Holland,VBO,4.129803,51.835391
Spandonkstraat,1,,,3222CV,Hellevoetsluis,Hellevoetsluis,Zuid-Holland,VBO,4.128631,51.837356
Spandonkstraat,2,,,3222CV,Hellevoetsluis,Hellevoetsluis,Zuid-Holland,VBO,4.128618,51.837293
Spandonkstraat,3,,,3222CV,Hellevoetsluis,Hellevoetsluis,Zuid-Holland,VBO,4.128621,51.837194
Spandonkstraat,4,,,3222CV,Hellevoetsluis,Hellevoetsluis,Zuid-Holland,VBO,4.128610,51.837077
Spandonkstraat,5,,,3222CV,Hellevoetsluis,Hellevoetsluis,Zuid-Holland,VBO,4.128598,51.836987
Boutweg,1,,,3222EA,Hellevoetsluis,Hellevoetsluis,Zuid-Holland,VBO,4.112740,51.839468
Boutweg,3,,,3222EA,Hellevoetsluis,Hellevoetsluis,Zuid-Holland,VBO,4.114561,51.842795
Duindijk,2,,,3222EB,Hellevoetsluis,Hellevoetsluis,Zuid-Holland,VBO,4.083240,51.847414
Duindijk,4,,,3222EB,Hellevoetsluis,Hellevoetsluis,Zuid-Holland,VBO,4.084537,51.849235
Duindijk,6,,TRAN,3222EB,Hellevoetsluis,Hellevoetsluis,Zuid-Holland,VBO,4.088943,51.852466
Duindijk,6,,,3222EB,Hellevoetsluis,Hellevoetsluis,Zuid-Holland,VBO,4.089370,51.852273
Duinweg,23,,,3222EC,Hellevoetsluis,Hellevoetsluis,Zuid-Holland,VBO,4.081913,51.847120
Duinweg,25,,,3222EC,Hellevoetsluis,Hellevoetsluis,Zuid-Holland,VBO,4.080794,51.843153
Dwarsweg,2,,,3222EE,Hellevoetsluis,Hellevoetsluis,Zuid-Holland,VBO,4.107470,51.836480
Gaarweg,1,,,3222EG,Hellevoetsluis,Hellevoetsluis,Zuid-Holland,VBO,4.113793,51.843803
Hellevoetse Achterweg,7,A,2,3222EH,Hellevoetsluis,Hellevoetsluis,Zuid-Holland,VBO,4.108431,51.836364
Hellevoetse Achterweg,7,,BEDR,3222EH,Hellevoetsluis,Hellevoetsluis,Zuid-Holland,VBO,4.177598,51.840311
Hellevoetse Achterweg,7,,,3222EH,Hellevoetsluis,Hellevoetsluis,Zuid-Holland,VBO,4.108431,51.836364
Hellevoetse Achterweg,8,O,,3222EH,Hellevoetsluis,Hellevoetsluis,Zuid-Holland,VBO,4.110149,51.837183
Hellevoetse Achterweg,8,,,3222EH,Hellevoetsluis,Hellevoetsluis,Zuid-Holland,VBO,4.110149,51.837183
Hellevoetse Achterweg,10,,,3222EH,Hellevoetsluis,Hellevoetsluis,Zuid-Holland,VBO,4.097235,51.836152
Hellevoetse Achterweg,11,,,3222EH,Hellevoetsluis,Hellevoetsluis,Zuid-Holland,VBO,4.106489,51.836280
Ikkerseweg,1,,,3222EJ,Hellevoetsluis,Hellevoetsluis,Zuid-Holland,VBO,4.109271,51.849201
Ikkerseweg,2,a,,3222EJ,Hellevoetsluis,Hellevoetsluis,Zuid-Holland,VBO,4.108675,51.849743
Ikkerseweg,2,,,3222EJ,Hellevoetsluis,Hellevoetsluis,Zuid-Holland,VBO,4.109561,51.849717
Ikkerseweg,4,,,3222EJ,Hellevoetsluis,Hellevoetsluis,Zuid-Holland,VBO,4.110864,51.849335
Kleiweg,1,,BEDR,3222EK,Hellevoetsluis,Hellevoetsluis,Zuid-Holland,VBO,4.099248,51.839824
Kleiweg,1,,,3222EK,Hellevoetsluis,Hellevoetsluis,Zuid-Holland,VBO,4.099061,51.840194
Kleiweg,2,,,3222EK,Hellevoetsluis,Hellevoetsluis,Zuid-Holland,VBO,4.111792,51.841156
Kleiweg,3,,,3222EK,Hellevoetsluis,Hellevoetsluis,Zuid-Holland,VBO,4.100143,51.839986
Kleiweg,4,,,3222EK,Hellevoetsluis,Hellevoetsluis,Zuid-Holland,VBO,4.111518,51.841099
Kleiweg,6,,,3222EK,Hellevoetsluis,Hellevoetsluis,Zuid-Holland,VBO,4.109195,51.841155
Kleiweg,8,,,3222EK,Hellevoetsluis,Hellevoetsluis,Zuid-Holland,VBO,4.108334,51.840813
Kleiweg,12,,,3222EK,Hellevoetsluis,Hellevoetsluis,Zuid-Holland,VBO,4.104142,51.840722
Quacksedijk,2,,,3222EL,Hellevoetsluis,Hellevoetsluis,Zuid-Holland,VBO,4.095895,51.853010
Stormweg,1,,,3222EM,Hellevoetsluis,Hellevoetsluis,Zuid-Holland,VBO,4.126524,51.840560
Stormweg,2,,,3222EM,Hellevoetsluis,Hellevoetsluis,Zuid-Holland,VBO,4.122705,51.841679
Stormweg,3,,,3222EM,Hellevoetsluis,Hellevoetsluis,Zuid-Holland,VBO,4.126349,51.840594
Stormweg,4,,,3222EM,Hellevoetsluis,Hellevoetsluis,Zuid-Holland,VBO,4.122487,51.841703
Stormweg,5,,,3222EM,Hellevoetsluis,Hellevoetsluis,Zuid-Holland,VBO,4.126415,51.840325
Stormweg,6,,,3222EM,Hellevoetsluis,Hellevoetsluis,Zuid-Holland,VBO,4.122283,51.841737
Stormweg,7,,,3222EM,Hellevoetsluis,Hellevoetsluis,Zuid-Holland,VBO,4.125918,51.840437
Stormweg,8,,,3222EM,Hellevoetsluis,Hellevoetsluis,Zuid-Holland,VBO,4.122034,51.841797
Stormweg,9,,,3222EM,Hellevoetsluis,Hellevoetsluis,Zuid-Holland,VBO,4.126028,51.840654
Stormweg,11,,,3222EM,Hellevoetsluis,Hellevoetsluis,Zuid-Holland,VBO,4.125853,51.840679
Stormweg,13,,,3222EM,Hellevoetsluis,Hellevoetsluis,Zuid-Holland,VBO,4.125678,51.840713
Stormweg,15,,,3222EM,Hellevoetsluis,Hellevoetsluis,Zuid-Holland,VBO,4.125517,51.840756
Stormweg,17,,,3222EM,Hellevoetsluis,Hellevoetsluis,Zuid-Holland,VBO,4.125597,51.840496
Stormweg,19,,,3222EM,Hellevoetsluis,Hellevoetsluis,Zuid-Holland,VBO,4.125144,51.840626
Stormweg,21,,,3222EM,Hellevoetsluis,Hellevoetsluis,Zuid-Holland,VBO,4.125168,51.840806
Stormweg,23,,,3222EM,Hellevoetsluis,Hellevoetsluis,Zuid-Holland,VBO,4.124993,51.840840
Tussenweg,2,,,3222EN,Hellevoetsluis,Hellevoetsluis,Zuid-Holland,VBO,4.099353,51.844275
Tussenweg,3,,,3222EN,Hellevoetsluis,Hellevoetsluis,Zuid-Holland,VBO,4.100345,51.843602
Tussenweg,4,,,3222EN,Hellevoetsluis,Hellevoetsluis,Zuid-Holland,VBO,4.097521,51.844902
Voorvorseweg,1,,,3222EP,Hellevoetsluis,Hellevoetsluis,Zuid-Holland,VBO,4.126567,51.842134
Westdijk,5,a,,3222ER,Hellevoetsluis,Hellevoetsluis,Zuid-Holland,VBO,4.096553,51.835632
Westdijk,5,,,3222ER,Hellevoetsluis,Hellevoetsluis,Zuid-Holland,VBO,4.096671,51.835067
Westdijk,7,,,3222ER,Hellevoetsluis,Hellevoetsluis,Zuid-Holland,VBO,4.096471,51.835955
Westdijk,11,,,3222ER,Hellevoetsluis,Hellevoetsluis,Zuid-Holland,VBO,4.096350,51.837140
Westdijk,13,,TRAF,3222ER,Hellevoetsluis,Hellevoetsluis,Zuid-Holland,VBO,4.096375,51.837293
Westdijk,13,,,3222ER,Hellevoetsluis,Hellevoetsluis,Zuid-Holland,VBO,4.096363,51.837447
Westdijk,15,,,3222ER,Hellevoetsluis,Hellevoetsluis,Zuid-Holland,VBO,4.096418,51.837833
Westdijk,17,,,3222ER,Hellevoetsluis,Hellevoetsluis,Zuid-Holland,VBO,4.096430,51.838426
Westdijk,19,,,3222ER,Hellevoetsluis,Hellevoetsluis,Zuid-Holland,VBO,4.096442,51.838498
Westdijk,21,b,,3222ER,Hellevoetsluis,Hellevoetsluis,Zuid-Holland,VBO,4.097352,51.840171
Westdijk,21,,,3222ER,Hellevoetsluis,Hellevoetsluis,Zuid-Holland,VBO,4.096945,51.839700
Westdijk,23,,,3222ER,Hellevoetsluis,Hellevoetsluis,Zuid-Holland,VBO,4.097905,51.840609
Westdijk,25,,,3222ER,Hellevoetsluis,Hellevoetsluis,Zuid-Holland,VBO,4.097976,51.840664
Westdijk,27,,,3222ER,Hellevoetsluis,Hellevoetsluis,Zuid-Holland,VBO,4.098046,51.840754
Westdijk,29,,,3222ER,Hellevoetsluis,Hellevoetsluis,Zuid-Holland,VBO,4.098215,51.840927
Westdijk,31,,,3222ER,Hellevoetsluis,Hellevoetsluis,Zuid-Holland,VBO,4.098823,51.841491
Westdijk,33,,,3222ER,Hellevoetsluis,Hellevoetsluis,Zuid-Holland,VBO,4.099671,51.842282
Westdijk,35,,,3222ER,Hellevoetsluis,Hellevoetsluis,Zuid-Holland,VBO,4.100039,51.842610
Westdijk,39,,,3222ER,Hellevoetsluis,Hellevoetsluis,Zuid-Holland,VBO,4.100605,51.843120
Westdijk,41,,,3222ER,Hellevoetsluis,Hellevoetsluis,Zuid-Holland,VBO,4.101525,51.843957
Westdijk,43,,,3222ER,Hellevoetsluis,Hellevoetsluis,Zuid-Holland,VBO,4.102794,51.845238
Westdijk,45,,,3222ER,Hellevoetsluis,Hellevoetsluis,Zuid-Holland,VBO,4.103826,51.846220
Westdijk,47,,,3222ER,Hellevoetsluis,Hellevoetsluis,Zuid-Holland,VBO,4.104776,51.846995
Westdijk,49,,,3222ER,Hellevoetsluis,Hellevoetsluis,Zuid-Holland,VBO,4.104877,51.848030
Westdijk,51,,,3222ER,Hellevoetsluis,Hellevoetsluis,Zuid-Holland,VBO,4.106433,51.848442
Westdijk,57,,,3222ER,Hellevoetsluis,Hellevoetsluis,Zuid-Holland,VBO,4.109167,51.850809
Westdijk,59,,,3222ER,Hellevoetsluis,Hellevoetsluis,Zuid-Holland,VBO,4.110674,51.851931
Westdijk,61,,,3222ER,Hellevoetsluis,Hellevoetsluis,Zuid-Holland,VBO,4.110858,51.852104
Westdijk,2,,,3222ES,Hellevoetsluis,Hellevoetsluis,Zuid-Holland,VBO,4.096563,51.836801
Westdijk,4,,,3222ES,Hellevoetsluis,Hellevoetsluis,Zuid-Holland,VBO,4.096629,51.837044
Westdijk,6,,,3222ES,Hellevoetsluis,Hellevoetsluis,Zuid-Holland,VBO,4.097672,51.840148
Rijksstraatweg,9,,,3222KA,Hellevoetsluis,Hellevoetsluis,Zuid-Holland,VBO,4.131331,51.834733
Rijksstraatweg,11,,,3222KA,Hellevoetsluis,Hellevoetsluis,Zuid-Holland,VBO,4.131430,51.834824
Rijksstraatweg,13,,,3222KA,Hellevoetsluis,Hellevoetsluis,Zuid-Holland,VBO,4.131513,51.834951
Rijksstraatweg,15,,,3222KA,Hellevoetsluis,Hellevoetsluis,Zuid-Holland,VBO,4.131782,51.835187
Rijksstraatweg,17,,,3222KA,Hellevoetsluis,Hellevoetsluis,Zuid-Holland,VBO,4.131738,51.835214
Rijksstraatweg,19,,,3222KA,Hellevoetsluis,Hellevoetsluis,Zuid-Holland,VBO,4.131881,51.835278
Rijksstraatweg,21,,,3222KA,Hellevoetsluis,Hellevoetsluis,Zuid-Holland,VBO,4.131924,51.835323
Rijksstraatweg,23,,,3222KA,Hellevoetsluis,Hellevoetsluis,Zuid-Holland,VBO,4.131871,51.835445
Rijksstraatweg,27,,,3222KA,Hellevoetsluis,Hellevoetsluis,Zuid-Holland,VBO,4.132006,51.835495
Rijksstraatweg,29,a,,3222KA,Hellevoetsluis,Hellevoetsluis,Zuid-Holland,VBO,4.131998,51.835579
Rijksstraatweg,29,,,3222KA,Hellevoetsluis,Hellevoetsluis,Zuid-Holland,VBO,4.131990,51.835578
Rijksstraatweg,31,,,3222KA,Hellevoetsluis,Hellevoetsluis,Zuid-Holland,VBO,4.132204,51.835668
Rijksstraatweg,33,,BEDR,3222KA,Hellevoetsluis,Hellevoetsluis,Zuid-Holland,VBO,4.132245,51.835758
Rijksstraatweg,35,,,3222KA,Hellevoetsluis,Hellevoetsluis,Zuid-Holland,VBO,4.132080,51.835800
Rijksstraatweg,37,,,3222KA,Hellevoetsluis,Hellevoetsluis,Zuid-Holland,VBO,4.132080,51.835800
Rijksstraatweg,39,a,,3222KA,Hellevoetsluis,Hellevoetsluis,Zuid-Holland,VBO,4.132219,51.835875
Rijksstraatweg,39,,,3222KA,Hellevoetsluis,Hellevoetsluis,Zuid-Holland,VBO,4.132328,51.835894
Rijksstraatweg,41,,,3222KA,Hellevoetsluis,Hellevoetsluis,Zuid-Holland,VBO,4.133273,51.837405
Rijksstraatweg,43,,,3222KA,Hellevoetsluis,Hellevoetsluis,Zuid-Holland,VBO,4.133501,51.837570
Rijksstraatweg,47,,,3222KA,Hellevoetsluis,Hellevoetsluis,Zuid-Holland,VBO,4.133556,51.837651
Rijksstraatweg,49,,,3222KA,Hellevoetsluis,Hellevoetsluis,Zuid-Holland,VBO,4.133583,51.837723
Rijksstraatweg,51,,,3222KA,Hellevoetsluis,Hellevoetsluis,Zuid-Holland,VBO,4.133611,51.837769
Rijksstraatweg,53,,,3222KA,Hellevoetsluis,Hellevoetsluis,Zuid-Holland,VBO,4.133638,51.837859
Rijksstraatweg,59,a,,3222KA,Hellevoetsluis,Hellevoetsluis,Zuid-Holland,VBO,4.133920,51.838149
Rijksstraatweg,59,,,3222KA,Hellevoetsluis,Hellevoetsluis,Zuid-Holland,VBO,4.133904,51.838203
Rijksstraatweg,61,,,3222KA,Hellevoetsluis,Hellevoetsluis,Zuid-Holland,VBO,4.133974,51.838285
Rijksstraatweg,63,,WINK,3222KA,Hellevoetsluis,Hellevoetsluis,Zuid-Holland,VBO,4.133929,51.838356
Rijksstraatweg,63,,,3222KA,Hellevoetsluis,Hellevoetsluis,Zuid-Holland,VBO,4.134000,51.838384
Rijksstraatweg,65,,BEDR,3222KB,Hellevoetsluis,Hellevoetsluis,Zuid-Holland,VBO,4.133523,51.839055
Rijksstraatweg,65,,,3222KB,Hellevoetsluis,Hellevoetsluis,Zuid-Holland,VBO,4.134255,51.838629
Rijksstraatweg,67,,,3222KB,Hellevoetsluis,Hellevoetsluis,Zuid-Holland,VBO,4.134311,51.838711
Rijksstraatweg,69,,WINK,3222KB,Hellevoetsluis,Hellevoetsluis,Zuid-Holland,VBO,4.134364,51.838882
Rijksstraatweg,71,,,3222KB,Hellevoetsluis,Hellevoetsluis,Zuid-Holland,VBO,4.134315,51.839062
Rijksstraatweg,75,,,3222KB,Hellevoetsluis,Hellevoetsluis,Zuid-Holland,VBO,4.134616,51.839218
Rijksstraatweg,77,,,3222KB,Hellevoetsluis,Hellevoetsluis,Zuid-Holland,VBO,4.134597,51.839379
Rijksstraatweg,79,,,3222KB,Hellevoetsluis,Hellevoetsluis,Zuid-Holland,VBO,4.134724,51.839488
Rijksstraatweg,81,,ARTS,3222KB,Hellevoetsluis,Hellevoetsluis,Zuid-Holland,VBO,4.134759,51.839803
Rijksstraatweg,81,,,3222KB,Hellevoetsluis,Hellevoetsluis,Zuid-Holland,VBO,4.134760,51.839759
Rijksstraatweg,83,,HOWO,3222KB,Hellevoetsluis,Hellevoetsluis,Zuid-Holland,VBO,4.134926,51.840048
Rijksstraatweg,85,,,3222KB,Hellevoetsluis,Hellevoetsluis,Zuid-Holland,VBO,4.135466,51.840485
Rijksstraatweg,87,,,3222KB,Hellevoetsluis,Hellevoetsluis,Zuid-Holland,VBO,4.135607,51.840728
Rijksstraatweg,89,,,3222KB,Hellevoetsluis,Hellevoetsluis,Zuid-Holland,VBO,4.135652,51.840795
Rijksstraatweg,91,,,3222KB,Hellevoetsluis,Hellevoetsluis,Zuid-Holland,VBO,4.135697,51.840868
Rijksstraatweg,93,,,3222KB,Hellevoetsluis,Hellevoetsluis,Zuid-Holland,VBO,4.135742,51.840946
Rijksstraatweg,101,,,3222KB,Hellevoetsluis,Hellevoetsluis,Zuid-Holland,VBO,4.135886,51.841020
Rijksstraatweg,103,,,3222KB,Hellevoetsluis,Hellevoetsluis,Zuid-Holland,VBO,4.135913,51.841083
Rijksstraatweg,105,,,3222KB,Hellevoetsluis,Hellevoetsluis,Zuid-Holland,VBO,4.135926,51.841146
Rijksstraatweg,107,,,3222KB,Hellevoetsluis,Hellevoetsluis,Zuid-Holland,VBO,4.136025,51.841237
Rijksstraatweg,109,,,3222KB,Hellevoetsluis,Hellevoetsluis,Zuid-Holland,VBO,4.136037,51.841345
Rijksstraatweg,111,,,3222KB,Hellevoetsluis,Hellevoetsluis,Zuid-Holland,VBO,4.136179,51.841437
Rijksstraatweg,113,,,3222KB,Hellevoetsluis,Hellevoetsluis,Zuid-Holland,VBO,4.136207,51.841482
Rijksstraatweg,115,,,3222KB,Hellevoetsluis,Hellevoetsluis,Zuid-Holland,VBO,4.136263,51.841545
Rijksstraatweg,117,,,3222KB,Hellevoetsluis,Hellevoetsluis,Zuid-Holland,VBO,4.136291,51.841600
Rijksstraatweg,119,,,3222KB,Hellevoetsluis,Hellevoetsluis,Zuid-Holland,VBO,4.136361,51.841681
Rijksstraatweg,121,,,3222KB,Hellevoetsluis,Hellevoetsluis,Zuid-Holland,VBO,4.136389,51.841727
Rijksstraatweg,123,,,3222KB,Hellevoetsluis,Hellevoetsluis,Zuid-Holland,VBO,4.136417,51.841772
Rijksstraatweg,125,,,3222KB,Hellevoetsluis,Hellevoetsluis,Zuid-Holland,VBO,4.136459,51.841817
Rijksstraatweg,127,,,3222KC,Hellevoetsluis,Hellevoetsluis,Zuid-Holland,VBO,4.136989,51.842605
Rijksstraatweg,131,,,3222KC,Hellevoetsluis,Hellevoetsluis,Zuid-Holland,VBO,4.137143,51.842795
Rijksstraatweg,133,a,,3222KC,Hellevoetsluis,Hellevoetsluis,Zuid-Holland,VBO,4.137221,51.843006
Rijksstraatweg,133,b,,3222KC,Hellevoetsluis,Hellevoetsluis,Zuid-Holland,VBO,4.137268,51.843070
Rijksstraatweg,133,c,,3222KC,Hellevoetsluis,Hellevoetsluis,Zuid-Holland,VBO,4.137334,51.843185
Rijksstraatweg,133,d,,3222KC,Hellevoetsluis,Hellevoetsluis,Zuid-Holland,VBO,4.137369,51.843230
Rijksstraatweg,133,e,,3222KC,Hellevoetsluis,Hellevoetsluis,Zuid-Holland,VBO,4.137448,51.843323
Rijksstraatweg,133,f,,3222KC,Hellevoetsluis,Hellevoetsluis,Zuid-Holland,VBO,4.137480,51.843371
Rijksstraatweg,133,,,3222KC,Hellevoetsluis,Hellevoetsluis,Zuid-Holland,VBO,4.137171,51.842841
Rijksstraatweg,137,,,3222KC,Hellevoetsluis,Hellevoetsluis,Zuid-Holland,VBO,4.137629,51.843574
Rijksstraatweg,139,,,3222KC,Hellevoetsluis,Hellevoetsluis,Zuid-Holland,VBO,4.137758,51.843647
Rijksstraatweg,141,,,3222KC,Hellevoetsluis,Hellevoetsluis,Zuid-Holland,VBO,4.137785,51.843701
Rijksstraatweg,143,,,3222KC,Hellevoetsluis,Hellevoetsluis,Zuid-Holland,VBO,4.137828,51.843737
Rijksstraatweg,145,,,3222KC,Hellevoetsluis,Hellevoetsluis,Zuid-Holland,VBO,4.137855,51.843792
Rijksstraatweg,147,,,3222KC,Hellevoetsluis,Hellevoetsluis,Zuid-Holland,VBO,4.137866,51.843954
Rijksstraatweg,149,,,3222KC,Hellevoetsluis,Hellevoetsluis,Zuid-Holland,VBO,4.137949,51.844080
Rijksstraatweg,151,,,3222KC,Hellevoetsluis,Hellevoetsluis,Zuid-Holland,VBO,4.137740,51.844276
Rijksstraatweg,153,,,3222KC,Hellevoetsluis,Hellevoetsluis,Zuid-Holland,VBO,4.138071,51.844378
Rijksstraatweg,155,,,3222KC,Hellevoetsluis,Hellevoetsluis,Zuid-Holland,VBO,4.138199,51.844479
Rijksstraatweg,157,a,,3222KC,Hellevoetsluis,Hellevoetsluis,Zuid-Holland,VBO,4.138254,51.844614
Rijksstraatweg,157,,,3222KC,Hellevoetsluis,Hellevoetsluis,Zuid-Holland,VBO,4.138269,51.844578
Rijksstraatweg,159,,,3222KC,Hellevoetsluis,Hellevoetsluis,Zuid-Holland,VBO,4.138827,51.845375
Rijksstraatweg,161,,,3222KC,Hellevoetsluis,Hellevoetsluis,Zuid-Holland,VBO,4.138954,51.845520
Rijksstraatweg,167,a,,3222KD,Hellevoetsluis,Hellevoetsluis,Zuid-Holland,VBO,4.138966,51.847174
Rijksstraatweg,167,,WON,3222KD,Hellevoetsluis,Hellevoetsluis,Zuid-Holland,VBO,4.139533,51.846623
Rijksstraatweg,167,,,3222KD,Hellevoetsluis,Hellevoetsluis,Zuid-Holland,VBO,4.139520,51.846578
Rijksstraatweg,169,,,3222KD,Hellevoetsluis,Hellevoetsluis,Zuid-Holland,VBO,4.139173,51.849136
Rijksstraatweg,173,,,3222KD,Hellevoetsluis,Hellevoetsluis,Zuid-Holland,VBO,4.139177,51.849514
Rijksstraatweg,175,,,3222KD,Hellevoetsluis,Hellevoetsluis,Zuid-Holland,VBO,4.139006,51.849917
Rijksstraatweg,177,,,3222KD,Hellevoetsluis,Hellevoetsluis,Zuid-Holland,VBO,4.139015,51.850032
Rijksstraatweg,179,,,3222KD,Hellevoetsluis,Hellevoetsluis,Zuid-Holland,VBO,4.138913,51.850140
Rijksstraatweg,183,,,3222KD,Hellevoetsluis,Hellevoetsluis,Zuid-Holland,VBO,4.138918,51.850221
Rijksstraatweg,185,,,3222KD,Hellevoetsluis,Hellevoetsluis,Zuid-Holland,VBO,4.138764,51.850274
Rijksstraatweg,187,,,3222KD,Hellevoetsluis,Hellevoetsluis,Zuid-Holland,VBO,4.138704,51.850354
Rijksstraatweg,189,,,3222KD,Hellevoetsluis,Hellevoetsluis,Zuid-Holland,VBO,4.138608,51.850659
Rijksstraatweg,191,,,3222KD,Hellevoetsluis,Hellevoetsluis,Zuid-Holland,VBO,4.138463,51.851187
Rijksstraatweg,195,,,3222KD,Hellevoetsluis,Hellevoetsluis,Zuid-Holland,VBO,4.138388,51.851276
Rijksstraatweg,197,,,3222KD,Hellevoetsluis,Hellevoetsluis,Zuid-Holland,VBO,4.138474,51.851313
Rijksstraatweg,199,,,3222KD,Hellevoetsluis,Hellevoetsluis,Zuid-Holland,VBO,4.138515,51.851422
Rijksstraatweg,201,,,3222KD,Hellevoetsluis,Hellevoetsluis,Zuid-Holland,VBO,4.138546,51.851602
Rijksstraatweg,203,,,3222KD,Hellevoetsluis,Hellevoetsluis,Zuid-Holland,VBO,4.138449,51.851691
Rijksstraatweg,205,,,3222KD,Hellevoetsluis,Hellevoetsluis,Zuid-Holland,VBO,4.138720,51.851864
Rijksstraatweg,207,,,3222KD,Hellevoetsluis,Hellevoetsluis,Zuid-Holland,VBO,4.138925,51.852325
Rijksstraatweg,209,,,3222KD,Hellevoetsluis,Hellevoetsluis,Zuid-Holland,VBO,4.138994,51.852469
Rijksstraatweg,211,,,3222KD,Hellevoetsluis,Hellevoetsluis,Zuid-Holland,VBO,4.139050,51.852533
Rijksstraatweg,213,,,3222KD,Hellevoetsluis,Hellevoetsluis,Zuid-Holland,VBO,4.139121,51.852606
Rijksstraatweg,215,,,3222KD,Hellevoetsluis,Hellevoetsluis,Zuid-Holland,VBO,4.139147,51.852687
Rijksstraatweg,217,,,3222KD,Hellevoetsluis,Hellevoetsluis,Zuid-Holland,VBO,4.139139,51.852755
Rijksstraatweg,219,,,3222KD,Hellevoetsluis,Hellevoetsluis,Zuid-Holland,VBO,4.139216,51.852840
Rijksstraatweg,221,a,,3222KD,Hellevoetsluis,Hellevoetsluis,Zuid-Holland,VBO,4.139581,51.853429
Rijksstraatweg,221,,,3222KD,Hellevoetsluis,Hellevoetsluis,Zuid-Holland,VBO,4.139382,51.853112
Rijksstraatweg,223,,,3222KD,Hellevoetsluis,Hellevoetsluis,Zuid-Holland,VBO,4.139817,51.853683
Rijksstraatweg,225,,,3222KD,Hellevoetsluis,Hellevoetsluis,Zuid-Holland,VBO,4.140086,51.853928
Rijksstraatweg,227,,,3222KD,Hellevoetsluis,Hellevoetsluis,Zuid-Holland,VBO,4.140228,51.854029
Rijksstraatweg,229,,,3222KD,Hellevoetsluis,Hellevoetsluis,Zuid-Holland,VBO,4.140342,51.854120
Rijksstraatweg,231,,,3222KD,Hellevoetsluis,Hellevoetsluis,Zuid-Holland,VBO,4.140512,51.854256
Rijksstraatweg,237,,,3222KD,Hellevoetsluis,Hellevoetsluis,Zuid-Holland,VBO,4.140272,51.854551
Rijksstraatweg,239,,,3222KD,Hellevoetsluis,Hellevoetsluis,Zuid-Holland,VBO,4.140369,51.854686
Rijksstraatweg,241,,,3222KD,Hellevoetsluis,Hellevoetsluis,Zuid-Holland,VBO,4.140779,51.854565
Rijksstraatweg,243,,,3222KD,Hellevoetsluis,Hellevoetsluis,Zuid-Holland,VBO,4.141067,51.854640
Rijksstraatweg,245,,,3222KD,Hellevoetsluis,Hellevoetsluis,Zuid-Holland,VBO,4.141496,51.854905
Rijksstraatweg,247,a,,3222KE,Hellevoetsluis,Hellevoetsluis,Zuid-Holland,VBO,4.142428,51.855320
Rijksstraatweg,247,b,,3222KE,Hellevoetsluis,Hellevoetsluis,Zuid-Holland,VBO,4.142428,51.855320
Rijksstraatweg,247,c,,3222KE,Hellevoetsluis,Hellevoetsluis,Zuid-Holland,VBO,4.142428,51.855320
Rijksstraatweg,247,d,,3222KE,Hellevoetsluis,Hellevoetsluis,Zuid-Holland,VBO,4.142428,51.855320
Rijksstraatweg,247,e,,3222KE,Hellevoetsluis,Hellevoetsluis,Zuid-Holland,VBO,4.142428,51.855320
Rijksstraatweg,247,f,,3222KE,Hellevoetsluis,Hellevoetsluis,Zuid-Holland,VBO,4.142428,51.855320
Rijksstraatweg,247,,,3222KE,Hellevoetsluis,Hellevoetsluis,Zuid-Holland,VBO,4.141893,51.855763
Rijksstraatweg,249,,,3222KE,Hellevoetsluis,Hellevoetsluis,Zuid-Holland,VBO,4.142803,51.855395
Rijksstraatweg,253,,,3222KE,Hellevoetsluis,Hellevoetsluis,Zuid-Holland,VBO,4.142789,51.855386
Rijksstraatweg,255,,,3222KE,Hellevoetsluis,Hellevoetsluis,Zuid-Holland,VBO,4.143176,51.855552
Rijksstraatweg,257,,,3222KE,Hellevoetsluis,Hellevoetsluis,Zuid-Holland,VBO,4.143320,51.855599
Rijksstraatweg,259,,,3222KE,Hellevoetsluis,Hellevoetsluis,Zuid-Holland,VBO,4.143435,51.855627
Rijksstraatweg,261,,,3222KE,Hellevoetsluis,Hellevoetsluis,Zuid-Holland,VBO,4.143694,51.855715
Rijksstraatweg,263,,,3222KE,Hellevoetsluis,Hellevoetsluis,Zuid-Holland,VBO,4.143917,51.855797
Rijksstraatweg,265,,,3222KE,Hellevoetsluis,Hellevoetsluis,Zuid-Holland,VBO,4.144067,51.855876
Rijksstraatweg,267,,,3222KE,Hellevoetsluis,Hellevoetsluis,Zuid-Holland,VBO,4.144197,51.855914
Rijksstraatweg,269,,,3222KE,Hellevoetsluis,Hellevoetsluis,Zuid-Holland,VBO,4.144554,51.856106
Rijksstraatweg,271,,,3222KE,Hellevoetsluis,Hellevoetsluis,Zuid-Holland,VBO,4.144896,51.856361
Rijksstraatweg,273,,,3222KE,Hellevoetsluis,Hellevoetsluis,Zuid-Holland,VBO,4.144967,51.856407
Rijksstraatweg,277,,,3222KE,Hellevoetsluis,Hellevoetsluis,Zuid-Holland,VBO,4.145853,51.856929
Rijksstraatweg,279,,,3222KE,Hellevoetsluis,Hellevoetsluis,Zuid-Holland,VBO,4.145940,51.856930
Rijksstraatweg,281,,,3222KE,Hellevoetsluis,Hellevoetsluis,Zuid-Holland,VBO,4.146041,51.856949
Rijksstraatweg,283,,,3222KE,Hellevoetsluis,Hellevoetsluis,Zuid-Holland,VBO,4.146128,51.856950
Rijksstraatweg,285,,,3222KE,Hellevoetsluis,Hellevoetsluis,Zuid-Holland,VBO,4.146261,51.856861
Rijksstraatweg,287,a,,3222KE,Hellevoetsluis,Hellevoetsluis,Zuid-Holland,VBO,4.147042,51.856977
Rijksstraatweg,287,,,3222KE,Hellevoetsluis,Hellevoetsluis,Zuid-Holland,VBO,4.146738,51.856929
Rijksstraatweg,289,,,3222KE,Hellevoetsluis,Hellevoetsluis,Zuid-Holland,VBO,4.147674,51.857227
Rijksstraatweg,291,,BEDR,3222KE,Hellevoetsluis,Hellevoetsluis,Zuid-Holland,VBO,4.148850,51.858273
Rijksstraatweg,291,,,3222KE,Hellevoetsluis,Hellevoetsluis,Zuid-Holland,VBO,4.148479,51.858044
Rijksstraatweg,293,,,3222KE,Hellevoetsluis,Hellevoetsluis,Zuid-Holland,VBO,4.150016,51.858088
Rijksstraatweg,295,,,3222KE,Hellevoetsluis,Hellevoetsluis,Zuid-Holland,VBO,4.150174,51.858170
Rijksstraatweg,297,,,3222KE,Hellevoetsluis,Hellevoetsluis,Zuid-Holland,VBO,4.150260,51.858216
Rijksstraatweg,299,,,3222KE,Hellevoetsluis,Hellevoetsluis,Zuid-Holland,VBO,4.150531,51.858399
Rijksstraatweg,301,,LOOD,3222KE,Hellevoetsluis,Hellevoetsluis,Zuid-Holland,VBO,4.150561,51.858884
Rijksstraatweg,301,,,3222KE,Hellevoetsluis,Hellevoetsluis,Zuid-Holland,VBO,4.150803,51.858527
Rijksstraatweg,303,,,3222KE,Hellevoetsluis,Hellevoetsluis,Zuid-Holland,VBO,4.150975,51.858610
Rijksstraatweg,305,,,3222KE,Hellevoetsluis,Hellevoetsluis,Zuid-Holland,VBO,4.151131,51.858720
Rijksstraatweg,307,,,3222KE,Hellevoetsluis,Hellevoetsluis,Zuid-Holland,VBO,4.151446,51.858912
Rijksstraatweg,309,,,3222KE,Hellevoetsluis,Hellevoetsluis,Zuid-Holland,VBO,4.151532,51.858948
Rijksstraatweg,311,,,3222KE,Hellevoetsluis,Hellevoetsluis,Zuid-Holland,VBO,4.151890,51.859123
Rijksstraatweg,315,,,3222KE,Hellevoetsluis,Hellevoetsluis,Zuid-Holland,VBO,4.152388,51.859488
Rijksstraatweg,317,,,3222KE,Hellevoetsluis,Hellevoetsluis,Zuid-Holland,VBO,4.152615,51.859688
Rijksstraatweg,319,,,3222KE,Hellevoetsluis,Hellevoetsluis,Zuid-Holland,VBO,4.152691,51.859763
Rijksstraatweg,321,a,,3222KG,Hellevoetsluis,Hellevoetsluis,Zuid-Holland,VBO,4.157829,51.869172
Rijksstraatweg,321,,,3222KG,Hellevoetsluis,Hellevoetsluis,Zuid-Holland,VBO,4.157943,51.869237
Rijksstraatweg,323,,,3222KG,Hellevoetsluis,Hellevoetsluis,Zuid-Holland,VBO,4.155273,51.872364
Rijksstraatweg,325,,,3222KG,Hellevoetsluis,Hellevoetsluis,Zuid-Holland,VBO,4.154270,51.873459
Rijksstraatweg,327,,,3222KG,Hellevoetsluis,Hellevoetsluis,Zuid-Holland,VBO,4.152450,51.876802
Rijksstraatweg,329,,,3222KG,Hellevoetsluis,Hellevoetsluis,Zuid-Holland,VBO,4.154588,51.877211
Breeweg,2,,,3222LA,Hellevoetsluis,Hellevoetsluis,Zuid-Holland,VBO,4.126886,51.863936
Gootseweg,1,,,3222LB,Hellevoetsluis,Hellevoetsluis,Zuid-Holland,VBO,4.141557,51.855292
Gootseweg,7,,,3222LB,Hellevoetsluis,Hellevoetsluis,Zuid-Holland,VBO,4.135976,51.859197
Gootseweg,9,,,3222LB,Hellevoetsluis,Hellevoetsluis,Zuid-Holland,VBO,4.135961,51.859224
Gootseweg,10,,,3222LB,Hellevoetsluis,Hellevoetsluis,Zuid-Holland,VBO,4.132225,51.862680
Kloosterweg,1,,,3222LC,Hellevoetsluis,Hellevoetsluis,Zuid-Holland,VBO,4.130459,51.864406
Langeweg,1,,,3222LD,Hellevoetsluis,Hellevoetsluis,Zuid-Holland,VBO,4.152890,51.868698
Langeweg,2,,,3222LD,Hellevoetsluis,Hellevoetsluis,Zuid-Holland,VBO,4.151529,51.868019
Langeweg,3,,,3222LD,Hellevoetsluis,Hellevoetsluis,Zuid-Holland,VBO,4.150587,51.866912
Langeweg,4,,,3222LD,Hellevoetsluis,Hellevoetsluis,Zuid-Holland,VBO,4.150371,51.867386
Langeweg,6,,,3222LD,Hellevoetsluis,Hellevoetsluis,Zuid-Holland,VBO,4.148115,51.866526
Langeweg,8,,,3222LD,Hellevoetsluis,Hellevoetsluis,Zuid-Holland,VBO,4.141649,51.862988
Middelweg,1,,,3222LE,Hellevoetsluis,Hellevoetsluis,Zuid-Holland,VBO,4.136708,51.865776
Middelweg,2,,,3222LE,Hellevoetsluis,Hellevoetsluis,Zuid-Holland,VBO,4.132882,51.871255
Middelweg,4,,,3222LE,Hellevoetsluis,Hellevoetsluis,Zuid-Holland,VBO,4.132461,51.870729
Middelweg,6,,,3222LE,Hellevoetsluis,Hellevoetsluis,Zuid-Holland,VBO,4.132772,51.873123
Middelweg,8,,,3222LE,Hellevoetsluis,Hellevoetsluis,Zuid-Holland,VBO,4.129252,51.872780
Noorddijk,1,,,3222LG,Hellevoetsluis,Hellevoetsluis,Zuid-Holland,VBO,4.137970,51.852225
Noorddijk,3,,,3222LG,Hellevoetsluis,Hellevoetsluis,Zuid-Holland,VBO,4.131619,51.853029
Noorddijk,4,a,,3222LG,Hellevoetsluis,Hellevoetsluis,Zuid-Holland,VBO,4.137469,51.852507
Noorddijk,4,,,3222LG,Hellevoetsluis,Hellevoetsluis,Zuid-Holland,VBO,4.138548,51.852330
Noorddijk,6,,,3222LG,Hellevoetsluis,Hellevoetsluis,Zuid-Holland,VBO,4.136799,51.852554
Noorddijk,8,,,3222LG,Hellevoetsluis,Hellevoetsluis,Zuid-Holland,VBO,4.133189,51.853990
Sliklandseweg,1,a,,3222LH,Hellevoetsluis,Hellevoetsluis,Zuid-Holland,VBO,4.139726,51.861125
Sliklandseweg,1,,,3222LH,Hellevoetsluis,Hellevoetsluis,Zuid-Holland,VBO,4.135149,51.859197
Sliklandseweg,2,,,3222LH,Hellevoetsluis,Hellevoetsluis,Zuid-Holland,VBO,4.139078,51.862529
Sliklandseweg,3,,,3222LH,Hellevoetsluis,Hellevoetsluis,Zuid-Holland,VBO,4.134418,51.858830
Sliklandseweg,5,,,3222LH,Hellevoetsluis,Hellevoetsluis,Zuid-Holland,VBO,4.131017,51.858479
Sluisweg,1,,,3222LJ,Hellevoetsluis,Hellevoetsluis,Zuid-Holland,VBO,4.153100,51.874292
Sluisweg,2,,,3222LJ,Hellevoetsluis,Hellevoetsluis,Zuid-Holland,VBO,4.149372,51.873612
Sluisweg,3,,,3222LJ,Hellevoetsluis,Hellevoetsluis,Zuid-Holland,VBO,4.151504,51.873708
Sluisweg,4,,,3222LJ,Hellevoetsluis,Hellevoetsluis,Zuid-Holland,VBO,4.148681,51.873400
Sluisweg,6,,BEDR,3222LJ,Hellevoetsluis,Hellevoetsluis,Zuid-Holland,VBO,4.146958,51.873211
Sluisweg,6,,,3222LJ,Hellevoetsluis,Hellevoetsluis,Zuid-Holland,VBO,4.147437,51.873207
Sluisweg,8,a,,3222LJ,Hellevoetsluis,Hellevoetsluis,Zuid-Holland,VBO,4.138654,51.870489
Sluisweg,8,,,3222LJ,Hellevoetsluis,Hellevoetsluis,Zuid-Holland,VBO,4.139448,51.870633
Sluisweg,10,,,3222LJ,Hellevoetsluis,Hellevoetsluis,Zuid-Holland,VBO,4.138209,51.870296
Vingerlingseweg,1,,,3222LK,Hellevoetsluis,Hellevoetsluis,Zuid-Holland,VBO,4.120568,51.851625
Vingerlingseweg,3,,,3222LK,Hellevoetsluis,Hellevoetsluis,Zuid-Holland,VBO,4.119707,51.851786
Vingerlingseweg,5,,,3222LK,Hellevoetsluis,Hellevoetsluis,Zuid-Holland,VBO,4.113991,51.852686
Westdijk,10,,,3222LL,Hellevoetsluis,Hellevoetsluis,Zuid-Holland,VBO,4.119505,51.854850
Westdijk,63,,WON,3222LL,Hellevoetsluis,Hellevoetsluis,Zuid-Holland,VBO,4.113020,51.853665
Westdijk,63,,,3222LL,Hellevoetsluis,Hellevoetsluis,Zuid-Holland,VBO,4.112690,51.853795
Westdijk,65,,,3222LL,Hellevoetsluis,Hellevoetsluis,Zuid-Holland,VBO,4.116363,51.855067
Westdijk,67,,,3222LL,Hellevoetsluis,Hellevoetsluis,Zuid-Holland,VBO,4.119319,51.855243
Egelantier,1,a,,3222VA,Hellevoetsluis,Hellevoetsluis,Zuid-Holland,VBO,4.133943,51.841485
Egelantier,1,b,,3222VA,Hellevoetsluis,Hellevoetsluis,Zuid-Holland,VBO,4.133886,51.841457
Egelantier,1,c,,3222VA,Hellevoetsluis,Hellevoetsluis,Zuid-Holland,VBO,4.133843,51.841430
Egelantier,1,d,,3222VA,Hellevoetsluis,Hellevoetsluis,Zuid-Holland,VBO,4.133801,51.841393
Egelantier,1,e,,3222VA,Hellevoetsluis,Hellevoetsluis,Zuid-Holland,VBO,4.133743,51.841375
Egelantier,1,f,,3222VA,Hellevoetsluis,Hellevoetsluis,Zuid-Holland,VBO,4.133701,51.841338
Egelantier,1,g,,3222VA,Hellevoetsluis,Hellevoetsluis,Zuid-Holland,VBO,4.133658,51.841311
Egelantier,3,,,3222VA,Hellevoetsluis,Hellevoetsluis,Zuid-Holland,VBO,4.133986,51.841494
Egelantier,5,,,3222VA,Hellevoetsluis,Hellevoetsluis,Zuid-Holland,VBO,4.133957,51.841503
Egelantier,7,,,3222VA,Hellevoetsluis,Hellevoetsluis,Zuid-Holland,VBO,4.134014,51.841557
Egelantier,9,,,3222VA,Hellevoetsluis,Hellevoetsluis,Zuid-Holland,VBO,4.134043,51.841540
Egelantier,11,,,3222VA,Hellevoetsluis,Hellevoetsluis,Zuid-Holland,VBO,4.134058,51.841522
Egelantier,13,,,3222VA,Hellevoetsluis,Hellevoetsluis,Zuid-Holland,VBO,4.134044,51.841504
Egelantier,15,,,3222VA,Hellevoetsluis,Hellevoetsluis,Zuid-Holland,VBO,4.134016,51.841485
Egelantier,17,,,3222VA,Hellevoetsluis,Hellevoetsluis,Zuid-Holland,VBO,4.133987,51.841476
Egelantier,19,,,3222VA,Hellevoetsluis,Hellevoetsluis,Zuid-Holland,VBO,4.133958,51.841485
Egelantier,21,,,3222VA,Hellevoetsluis,Hellevoetsluis,Zuid-Holland,VBO,4.133928,51.841503
Egelantier,23,,,3222VA,Hellevoetsluis,Hellevoetsluis,Zuid-Holland,VBO,4.134043,51.841558
Egelantier,25,,,3222VA,Hellevoetsluis,Hellevoetsluis,Zuid-Holland,VBO,4.134072,51.841540
Egelantier,27,,,3222VA,Hellevoetsluis,Hellevoetsluis,Zuid-Holland,VBO,4.134073,51.841522
Egelantier,29,,,3222VA,Hellevoetsluis,Hellevoetsluis,Zuid-Holland,VBO,4.134073,51.841504
Egelantier,31,,,3222VA,Hellevoetsluis,Hellevoetsluis,Zuid-Holland,VBO,4.134045,51.841486
Egelantier,33,,,3222VA,Hellevoetsluis,Hellevoetsluis,Zuid-Holland,VBO,4.134016,51.841468
Egelantier,35,,,3222VB,Hellevoetsluis,Hellevoetsluis,Zuid-Holland,VBO,4.133987,51.841467
Egelantier,37,,,3222VB,Hellevoetsluis,Hellevoetsluis,Zuid-Holland,VBO,4.133958,51.841467
Egelantier,39,,,3222VB,Hellevoetsluis,Hellevoetsluis,Zuid-Holland,VBO,4.133929,51.841485
Egelantier,41,,,3222VB,Hellevoetsluis,Hellevoetsluis,Zuid-Holland,VBO,4.134057,51.841576
Egelantier,43,,,3222VB,Hellevoetsluis,Hellevoetsluis,Zuid-Holland,VBO,4.134071,51.841567
Egelantier,45,,,3222VB,Hellevoetsluis,Hellevoetsluis,Zuid-Holland,VBO,4.134087,51.841540
Egelantier,47,,,3222VB,Hellevoetsluis,Hellevoetsluis,Zuid-Holland,VBO,4.134102,51.841522
Egelantier,49,,,3222VB,Hellevoetsluis,Hellevoetsluis,Zuid-Holland,VBO,4.134088,51.841504
Egelantier,51,,,3222VB,Hellevoetsluis,Hellevoetsluis,Zuid-Holland,VBO,4.134074,51.841477
Egelantier,53,,,3222VB,Hellevoetsluis,Hellevoetsluis,Zuid-Holland,VBO,4.134060,51.841468
Egelantier,55,,,3222VB,Hellevoetsluis,Hellevoetsluis,Zuid-Holland,VBO,4.134016,51.841459
Egelantier,57,,,3222VB,Hellevoetsluis,Hellevoetsluis,Zuid-Holland,VBO,4.133988,51.841449
Egelantier,59,,,3222VB,Hellevoetsluis,Hellevoetsluis,Zuid-Holland,VBO,4.133958,51.841458
Egelantier,61,,,3222VB,Hellevoetsluis,Hellevoetsluis,Zuid-Holland,VBO,4.133915,51.841466
Egelantier,63,,,3222VB,Hellevoetsluis,Hellevoetsluis,Zuid-Holland,VBO,4.133900,51.841475
Egelantier,65,,,3222VB,Hellevoetsluis,Hellevoetsluis,Zuid-Holland,VBO,4.134085,51.841585
Egelantier,67,,,3222VC,Hellevoetsluis,Hellevoetsluis,Zuid-Holland,VBO,4.134100,51.841567
Egelantier,69,,,3222VC,Hellevoetsluis,Hellevoetsluis,Zuid-Holland,VBO,4.134116,51.841540
Egelantier,71,,,3222VC,Hellevoetsluis,Hellevoetsluis,Zuid-Holland,VBO,4.134116,51.841523
Egelantier,73,a,,3222VC,Hellevoetsluis,Hellevoetsluis,Zuid-Holland,VBO,4.133745,51.841294
Egelantier,73,,,3222VC,Hellevoetsluis,Hellevoetsluis,Zuid-Holland,VBO,4.134117,51.841505
Egelantier,75,,,3222VC,Hellevoetsluis,Hellevoetsluis,Zuid-Holland,VBO,4.134103,51.841477
Egelantier,77,,,3222VC,Hellevoetsluis,Hellevoetsluis,Zuid-Holland,VBO,4.134089,51.841468
Egelantier,79,,,3222VC,Hellevoetsluis,Hellevoetsluis,Zuid-Holland,VBO,4.134060,51.841450
Egelantier,81,,,3222VC,Hellevoetsluis,Hellevoetsluis,Zuid-Holland,VBO,4.134017,51.841441
Egelantier,83,,,3222VC,Hellevoetsluis,Hellevoetsluis,Zuid-Holland,VBO,4.133988,51.841440
Egelantier,85,,,3222VC,Hellevoetsluis,Hellevoetsluis,Zuid-Holland,VBO,4.133959,51.841440
Egelantier,87,,,3222VC,Hellevoetsluis,Hellevoetsluis,Zuid-Holland,VBO,4.133915,51.841448
Egelantier,89,a,,3222VC,Hellevoetsluis,Hellevoetsluis,Zuid-Holland,VBO,4.133759,51.841312
Egelantier,89,,,3222VC,Hellevoetsluis,Hellevoetsluis,Zuid-Holland,VBO,4.133886,51.841457
Egelantier,91,,,3222VC,Hellevoetsluis,Hellevoetsluis,Zuid-Holland,VBO,4.134114,51.841585
Egelantier,93,,,3222VC,Hellevoetsluis,Hellevoetsluis,Zuid-Holland,VBO,4.134129,51.841568
Egelantier,95,,,3222VC,Hellevoetsluis,Hellevoetsluis,Zuid-Holland,VBO,4.134145,51.841541
Egelantier,97,,,3222VC,Hellevoetsluis,Hellevoetsluis,Zuid-Holland,VBO,4.134145,51.841523
Egelantier,99,a,,3222VD,Hellevoetsluis,Hellevoetsluis,Zuid-Holland,VBO,4.133972,51.840955
Egelantier,99,b,,3222VD,Hellevoetsluis,Hellevoetsluis,Zuid-Holland,VBO,4.133886,51.840945
Egelantier,99,c,,3222VD,Hellevoetsluis,Hellevoetsluis,Zuid-Holland,VBO,4.133784,51.840944
Egelantier,99,d,,3222VD,Hellevoetsluis,Hellevoetsluis,Zuid-Holland,VBO,4.133683,51.840934
Egelantier,99,e,,3222VD,Hellevoetsluis,Hellevoetsluis,Zuid-Holland,VBO,4.133407,51.840922
Egelantier,99,f,,3222VD,Hellevoetsluis,Hellevoetsluis,Zuid-Holland,VBO,4.133292,51.840911
Egelantier,99,g,,3222VD,Hellevoetsluis,Hellevoetsluis,Zuid-Holland,VBO,4.133190,51.840901
Egelantier,101,,,3222VD,Hellevoetsluis,Hellevoetsluis,Zuid-Holland,VBO,4.133494,51.840932
Egelantier,103,,,3222VD,Hellevoetsluis,Hellevoetsluis,Zuid-Holland,VBO,4.133566,51.840968
Egelantier,105,,,3222VD,Hellevoetsluis,Hellevoetsluis,Zuid-Holland,VBO,4.133595,51.840951
Egelantier,107,,,3222VD,Hellevoetsluis,Hellevoetsluis,Zuid-Holland,VBO,4.133567,51.840932
Egelantier,109,,,3222VD,Hellevoetsluis,Hellevoetsluis,Zuid-Holland,VBO,4.133537,51.840950
Egelantier,111,,,3222VD,Hellevoetsluis,Hellevoetsluis,Zuid-Holland,VBO,4.133595,51.840969
Egelantier,113,,,3222VD,Hellevoetsluis,Hellevoetsluis,Zuid-Holland,VBO,4.133610,51.840951
Egelantier,115,,,3222VD,Hellevoetsluis,Hellevoetsluis,Zuid-Holland,VBO,4.133596,51.840933
Egelantier,117,,,3222VD,Hellevoetsluis,Hellevoetsluis,Zuid-Holland,VBO,4.133567,51.840923
Egelantier,119,,,3222VD,Hellevoetsluis,Hellevoetsluis,Zuid-Holland,VBO,4.133538,51.840932
Egelantier,121,,,3222VD,Hellevoetsluis,Hellevoetsluis,Zuid-Holland,VBO,4.133523,51.840950
Egelantier,123,,,3222VD,Hellevoetsluis,Hellevoetsluis,Zuid-Holland,VBO,4.133624,51.840969
Egelantier,125,,,3222VD,Hellevoetsluis,Hellevoetsluis,Zuid-Holland,VBO,4.133639,51.840951
Egelantier,127,,,3222VD,Hellevoetsluis,Hellevoetsluis,Zuid-Holland,VBO,4.133625,51.840933
Egelantier,129,,,3222VD,Hellevoetsluis,Hellevoetsluis,Zuid-Holland,VBO,4.133596,51.840915
Egelantier,131,,,3222VD,Hellevoetsluis,Hellevoetsluis,Zuid-Holland,VBO,4.133567,51.840905
Egelantier,133,,,3222VE,Hellevoetsluis,Hellevoetsluis,Zuid-Holland,VBO,4.133538,51.840914
Egelantier,135,,,3222VE,Hellevoetsluis,Hellevoetsluis,Zuid-Holland,VBO,4.133509,51.840932
Egelantier,137,,,3222VE,Hellevoetsluis,Hellevoetsluis,Zuid-Holland,VBO,4.133494,51.840950
Egelantier,139,,,3222VE,Hellevoetsluis,Hellevoetsluis,Zuid-Holland,VBO,4.133653,51.840969
Egelantier,141,,,3222VE,Hellevoetsluis,Hellevoetsluis,Zuid-Holland,VBO,4.133653,51.840951
Egelantier,143,,,3222VE,Hellevoetsluis,Hellevoetsluis,Zuid-Holland,VBO,4.133654,51.840933
Egelantier,145,,,3222VE,Hellevoetsluis,Hellevoetsluis,Zuid-Holland,VBO,4.133625,51.840915
Egelantier,147,,,3222VE,Hellevoetsluis,Hellevoetsluis,Zuid-Holland,VBO,4.133597,51.840897
Egelantier,149,,,3222VE,Hellevoetsluis,Hellevoetsluis,Zuid-Holland,VBO,4.133568,51.840896
Egelantier,151,,,3222VE,Hellevoetsluis,Hellevoetsluis,Zuid-Holland,VBO,4.133539,51.840896
Egelantier,153,,,3222VE,Hellevoetsluis,Hellevoetsluis,Zuid-Holland,VBO,4.133509,51.840914
Egelantier,155,,,3222VE,Hellevoetsluis,Hellevoetsluis,Zuid-Holland,VBO,4.133480,51.840931
Egelantier,157,,,3222VE,Hellevoetsluis,Hellevoetsluis,Zuid-Holland,VBO,4.133479,51.840949
Egelantier,159,,,3222VE,Hellevoetsluis,Hellevoetsluis,Zuid-Holland,VBO,4.133667,51.840969
Egelantier,161,,,3222VE,Hellevoetsluis,Hellevoetsluis,Zuid-Holland,VBO,4.133682,51.840952
Egelantier,163,,,3222VE,Hellevoetsluis,Hellevoetsluis,Zuid-Holland,VBO,4.133668,51.840933
Egelantier,165,,,3222VG,Hellevoetsluis,Hellevoetsluis,Zuid-Holland,VBO,4.133654,51.840906
Egelantier,167,,,3222VG,Hellevoetsluis,Hellevoetsluis,Zuid-Holland,VBO,4.133640,51.840897
Egelantier,169,,,3222VG,Hellevoetsluis,Hellevoetsluis,Zuid-Holland,VBO,4.133597,51.840888
Egelantier,171,,,3222VG,Hellevoetsluis,Hellevoetsluis,Zuid-Holland,VBO,4.133568,51.840878
Egelantier,173,,,3222VG,Hellevoetsluis,Hellevoetsluis,Zuid-Holland,VBO,4.133539,51.840887
Egelantier,175,,,3222VG,Hellevoetsluis,Hellevoetsluis,Zuid-Holland,VBO,4.133495,51.840896
Egelantier,177,,,3222VG,Hellevoetsluis,Hellevoetsluis,Zuid-Holland,VBO,4.133480,51.840904
Egelantier,179,,,3222VG,Hellevoetsluis,Hellevoetsluis,Zuid-Holland,VBO,4.133465,51.840931
Egelantier,181,,,3222VG,Hellevoetsluis,Hellevoetsluis,Zuid-Holland,VBO,4.133450,51.840949
Egelantier,183,,,3222VG,Hellevoetsluis,Hellevoetsluis,Zuid-Holland,VBO,4.133696,51.840970
Egelantier,185,,,3222VG,Hellevoetsluis,Hellevoetsluis,Zuid-Holland,VBO,4.133697,51.840952
Egelantier,187,,,3222VG,Hellevoetsluis,Hellevoetsluis,Zuid-Holland,VBO,4.133697,51.840934
Egelantier,189,,,3222VG,Hellevoetsluis,Hellevoetsluis,Zuid-Holland,VBO,4.133683,51.840907
Egelantier,191,,,3222VG,Hellevoetsluis,Hellevoetsluis,Zuid-Holland,VBO,4.133669,51.840888
Egelantier,193,,,3222VG,Hellevoetsluis,Hellevoetsluis,Zuid-Holland,VBO,4.133641,51.840879
Egelantier,195,,,3222VG,Hellevoetsluis,Hellevoetsluis,Zuid-Holland,VBO,4.133539,51.840869
Egelantier,197,a,,3222VH,Hellevoetsluis,Hellevoetsluis,Zuid-Holland,VBO,4.132668,51.840896
Egelantier,197,b,,3222VH,Hellevoetsluis,Hellevoetsluis,Zuid-Holland,VBO,4.132356,51.841171
Egelantier,197,c,,3222VH,Hellevoetsluis,Hellevoetsluis,Zuid-Holland,VBO,4.132311,51.841198
Egelantier,197,d,,3222VH,Hellevoetsluis,Hellevoetsluis,Zuid-Holland,VBO,4.132267,51.841224
Egelantier,197,e,,3222VH,Hellevoetsluis,Hellevoetsluis,Zuid-Holland,VBO,4.132223,51.841251
Egelantier,197,f,,3222VH,Hellevoetsluis,Hellevoetsluis,Zuid-Holland,VBO,4.132193,51.841277
Egelantier,197,g,,3222VH,Hellevoetsluis,Hellevoetsluis,Zuid-Holland,VBO,4.132148,51.841313
Egelantier,199,,,3222VH,Hellevoetsluis,Hellevoetsluis,Zuid-Holland,VBO,4.132457,51.841172
Egelantier,201,,,3222VH,Hellevoetsluis,Hellevoetsluis,Zuid-Holland,VBO,4.132487,51.841155
Egelantier,203,,,3222VH,Hellevoetsluis,Hellevoetsluis,Zuid-Holland,VBO,4.132458,51.841136
Egelantier,205,,,3222VH,Hellevoetsluis,Hellevoetsluis,Zuid-Holland,VBO,4.132429,51.841154
Egelantier,207,,,3222VH,Hellevoetsluis,Hellevoetsluis,Zuid-Holland,VBO,4.132487,51.841137
Egelantier,209,,,3222VH,Hellevoetsluis,Hellevoetsluis,Zuid-Holland,VBO,4.132458,51.841127
Egelantier,211,,,3222VH,Hellevoetsluis,Hellevoetsluis,Zuid-Holland,VBO,4.132429,51.841136
Egelantier,213,,,3222VH,Hellevoetsluis,Hellevoetsluis,Zuid-Holland,VBO,4.132414,51.841154
Egelantier,215,,,3222VH,Hellevoetsluis,Hellevoetsluis,Zuid-Holland,VBO,4.132428,51.841172
Egelantier,217,,,3222VH,Hellevoetsluis,Hellevoetsluis,Zuid-Holland,VBO,4.132516,51.841137
Egelantier,219,,,3222VH,Hellevoetsluis,Hellevoetsluis,Zuid-Holland,VBO,4.132488,51.841119
Egelantier,221,a,,3222VH,Hellevoetsluis,Hellevoetsluis,Zuid-Holland,VBO,4.132223,51.841233
Egelantier,221,,,3222VH,Hellevoetsluis,Hellevoetsluis,Zuid-Holland,VBO,4.132459,51.841109
Egelantier,223,,,3222VH,Hellevoetsluis,Hellevoetsluis,Zuid-Holland,VBO,4.132430,51.841118
Egelantier,225,,,3222VH,Hellevoetsluis,Hellevoetsluis,Zuid-Holland,VBO,4.132400,51.841136
Egelantier,227,,,3222VH,Hellevoetsluis,Hellevoetsluis,Zuid-Holland,VBO,4.132385,51.841153
Egelantier,229,,,3222VH,Hellevoetsluis,Hellevoetsluis,Zuid-Holland,VBO,4.132399,51.841172
Egelantier,231,,,3222VJ,Hellevoetsluis,Hellevoetsluis,Zuid-Holland,VBO,4.132429,51.841154
Egelantier,233,,,3222VJ,Hellevoetsluis,Hellevoetsluis,Zuid-Holland,VBO,4.132458,51.841154
Egelantier,235,,,3222VJ,Hellevoetsluis,Hellevoetsluis,Zuid-Holland,VBO,4.132458,51.841145
Egelantier,237,a,,3222VJ,Hellevoetsluis,Hellevoetsluis,Zuid-Holland,VBO,4.132238,51.841224
Egelantier,237,,,3222VJ,Hellevoetsluis,Hellevoetsluis,Zuid-Holland,VBO,4.132428,51.841163
Egelantier,239,,,3222VJ,Hellevoetsluis,Hellevoetsluis,Zuid-Holland,VBO,4.132487,51.841146
Egelantier,241,,,3222VJ,Hellevoetsluis,Hellevoetsluis,Zuid-Holland,VBO,4.132458,51.841136
Egelantier,243,,,3222VJ,Hellevoetsluis,Hellevoetsluis,Zuid-Holland,VBO,4.132429,51.841145
Egelantier,245,,,3222VJ,Hellevoetsluis,Hellevoetsluis,Zuid-Holland,VBO,4.132414,51.841163
Egelantier,247,,,3222VJ,Hellevoetsluis,Hellevoetsluis,Zuid-Holland,VBO,4.132428,51.841181
Egelantier,249,,,3222VJ,Hellevoetsluis,Hellevoetsluis,Zuid-Holland,VBO,4.132487,51.841128
Egelantier,251,,,3222VJ,Hellevoetsluis,Hellevoetsluis,Zuid-Holland,VBO,4.132459,51.841118
Egelantier,253,,,3222VJ,Hellevoetsluis,Hellevoetsluis,Zuid-Holland,VBO,4.132429,51.841127
Egelantier,255,,,3222VJ,Hellevoetsluis,Hellevoetsluis,Zuid-Holland,VBO,4.132400,51.841145
Egelantier,257,,,3222VJ,Hellevoetsluis,Hellevoetsluis,Zuid-Holland,VBO,4.132385,51.841162
Egelantier,259,,,3222VJ,Hellevoetsluis,Hellevoetsluis,Zuid-Holland,VBO,4.132399,51.841181
Egelantier,261,,,3222VJ,Hellevoetsluis,Hellevoetsluis,Zuid-Holland,VBO,4.132427,51.841199
Egelantier,263,,,3222VK,Hellevoetsluis,Hellevoetsluis,Zuid-Holland,VBO,4.132428,51.841190
Egelantier,265,,,3222VK,Hellevoetsluis,Hellevoetsluis,Zuid-Holland,VBO,4.132517,51.841119
Egelantier,267,,,3222VK,Hellevoetsluis,Hellevoetsluis,Zuid-Holland,VBO,4.132488,51.841101
Egelantier,269,,,3222VK,Hellevoetsluis,Hellevoetsluis,Zuid-Holland,VBO,4.132459,51.841100
Egelantier,271,,,3222VK,Hellevoetsluis,Hellevoetsluis,Zuid-Holland,VBO,4.132430,51.841100
Egelantier,273,,,3222VK,Hellevoetsluis,Hellevoetsluis,Zuid-Holland,VBO,4.132401,51.841118
Egelantier,275,,,3222VK,Hellevoetsluis,Hellevoetsluis,Zuid-Holland,VBO,4.132371,51.841135
Egelantier,277,,,3222VK,Hellevoetsluis,Hellevoetsluis,Zuid-Holland,VBO,4.132371,51.841153
Egelantier,279,,,3222VK,Hellevoetsluis,Hellevoetsluis,Zuid-Holland,VBO,4.132370,51.841171
Egelantier,281,,,3222VK,Hellevoetsluis,Hellevoetsluis,Zuid-Holland,VBO,4.132399,51.841190
Egelantier,283,,,3222VK,Hellevoetsluis,Hellevoetsluis,Zuid-Holland,VBO,4.132546,51.841110
Egelantier,285,,,3222VK,Hellevoetsluis,Hellevoetsluis,Zuid-Holland,VBO,4.132532,51.841101
Egelantier,287,,,3222VK,Hellevoetsluis,Hellevoetsluis,Zuid-Holland,VBO,4.132488,51.841092
Egelantier,289,,,3222VK,Hellevoetsluis,Hellevoetsluis,Zuid-Holland,VBO,4.132460,51.841082
Egelantier,291,,,3222VK,Hellevoetsluis,Hellevoetsluis,Zuid-Holland,VBO,4.132430,51.841091
Egelantier,293,,,3222VK,Hellevoetsluis,Hellevoetsluis,Zuid-Holland,VBO,4.132387,51.841100
Gentiaan,1,a,,3222VL,Hellevoetsluis,Hellevoetsluis,Zuid-Holland,VBO,4.135324,51.841401
Gentiaan,1,b,,3222VL,Hellevoetsluis,Hellevoetsluis,Zuid-Holland,VBO,4.135250,51.841454
Gentiaan,1,c,,3222VL,Hellevoetsluis,Hellevoetsluis,Zuid-Holland,VBO,4.135206,51.841489
Gentiaan,1,d,,3222VL,Hellevoetsluis,Hellevoetsluis,Zuid-Holland,VBO,4.134969,51.841631
Gentiaan,1,e,,3222VL,Hellevoetsluis,Hellevoetsluis,Zuid-Holland,VBO,4.134910,51.841675
Gentiaan,1,f,,3222VL,Hellevoetsluis,Hellevoetsluis,Zuid-Holland,VBO,4.134851,51.841719
Gentiaan,1,g,,3222VL,Hellevoetsluis,Hellevoetsluis,Zuid-Holland,VBO,4.134807,51.841746
Gentiaan,3,,,3222VL,Hellevoetsluis,Hellevoetsluis,Zuid-Holland,VBO,4.135000,51.841559
Gentiaan,5,,,3222VL,Hellevoetsluis,Hellevoetsluis,Zuid-Holland,VBO,4.135000,51.841559
Gentiaan,7,,,3222VL,Hellevoetsluis,Hellevoetsluis,Zuid-Holland,VBO,4.135000,51.841559
Gentiaan,9,,,3222VL,Hellevoetsluis,Hellevoetsluis,Zuid-Holland,VBO,4.135000,51.841559
Gentiaan,11,,,3222VL,Hellevoetsluis,Hellevoetsluis,Zuid-Holland,VBO,4.135000,51.841559
Gentiaan,13,,,3222VL,Hellevoetsluis,Hellevoetsluis,Zuid-Holland,VBO,4.135000,51.841559
Gentiaan,15,,,3222VL,Hellevoetsluis,Hellevoetsluis,Zuid-Holland,VBO,4.135000,51.841559
Gentiaan,17,,,3222VL,Hellevoetsluis,Hellevoetsluis,Zuid-Holland,VBO,4.135000,51.841559
Gentiaan,19,,,3222VL,Hellevoetsluis,Hellevoetsluis,Zuid-Holland,VBO,4.135000,51.841559
Gentiaan,21,,,3222VL,Hellevoetsluis,Hellevoetsluis,Zuid-Holland,VBO,4.135000,51.841559
Gentiaan,23,,,3222VL,Hellevoetsluis,Hellevoetsluis,Zuid-Holland,VBO,4.135000,51.841559
Gentiaan,25,,,3222VL,Hellevoetsluis,Hellevoetsluis,Zuid-Holland,VBO,4.135000,51.841559
Gentiaan,27,,,3222VL,Hellevoetsluis,Hellevoetsluis,Zuid-Holland,VBO,4.135000,51.841559
Gentiaan,29,,,3222VL,Hellevoetsluis,Hellevoetsluis,Zuid-Holland,VBO,4.135000,51.841559
Gentiaan,31,,,3222VL,Hellevoetsluis,Hellevoetsluis,Zuid-Holland,VBO,4.135000,51.841559
Gentiaan,33,,,3222VL,Hellevoetsluis,Hellevoetsluis,Zuid-Holland,VBO,4.135000,51.841559
Gentiaan,35,,,3222VM,Hellevoetsluis,Hellevoetsluis,Zuid-Holland,VBO,4.135000,51.841559
Gentiaan,37,,,3222VM,Hellevoetsluis,Hellevoetsluis,Zuid-Holland,VBO,4.135000,51.841559
Gentiaan,39,,,3222VM,Hellevoetsluis,Hellevoetsluis,Zuid-Holland,VBO,4.135000,51.841559
Gentiaan,41,,,3222VM,Hellevoetsluis,Hellevoetsluis,Zuid-Holland,VBO,4.135000,51.841559
Gentiaan,43,,,3222VM,Hellevoetsluis,Hellevoetsluis,Zuid-Holland,VBO,4.135000,51.841559
Gentiaan,45,,,3222VM,Hellevoetsluis,Hellevoetsluis,Zuid-Holland,VBO,4.135000,51.841559
Gentiaan,47,,,3222VM,Hellevoetsluis,Hellevoetsluis,Zuid-Holland,VBO,4.135000,51.841559
Gentiaan,49,,,3222VM,Hellevoetsluis,Hellevoetsluis,Zuid-Holland,VBO,4.135000,51.841559
Gentiaan,51,,,3222VM,Hellevoetsluis,Hellevoetsluis,Zuid-Holland,VBO,4.135000,51.841559
Gentiaan,53,,,3222VM,Hellevoetsluis,Hellevoetsluis,Zuid-Holland,VBO,4.135000,51.841559
Gentiaan,55,,,3222VM,Hellevoetsluis,Hellevoetsluis,Zuid-Holland,VBO,4.135000,51.841559
Gentiaan,57,,,3222VM,Hellevoetsluis,Hellevoetsluis,Zuid-Holland,VBO,4.135000,51.841559
Gentiaan,59,,,3222VM,Hellevoetsluis,Hellevoetsluis,Zuid-Holland,VBO,4.135000,51.841559
Gentiaan,61,,,3222VM,Hellevoetsluis,Hellevoetsluis,Zuid-Holland,VBO,4.135000,51.841559
Gentiaan,63,,,3222VM,Hellevoetsluis,Hellevoetsluis,Zuid-Holland,VBO,4.135000,51.841559
Gentiaan,65,,,3222VM,Hellevoetsluis,Hellevoetsluis,Zuid-Holland,VBO,4.135000,51.841559
Gentiaan,67,,,3222VN,Hellevoetsluis,Hellevoetsluis,Zuid-Holland,VBO,4.135000,51.841559
Gentiaan,69,,,3222VN,Hellevoetsluis,Hellevoetsluis,Zuid-Holland,VBO,4.135000,51.841559
Gentiaan,71,,,3222VN,Hellevoetsluis,Hellevoetsluis,Zuid-Holland,VBO,4.135000,51.841559
Gentiaan,73,a,,3222VN,Hellevoetsluis,Hellevoetsluis,Zuid-Holland,VBO,4.135000,51.841559
Gentiaan,73,,,3222VN,Hellevoetsluis,Hellevoetsluis,Zuid-Holland,VBO,4.135000,51.841559
Gentiaan,75,,,3222VN,Hellevoetsluis,Hellevoetsluis,Zuid-Holland,VBO,4.135000,51.841559
Gentiaan,77,,,3222VN,Hellevoetsluis,Hellevoetsluis,Zuid-Holland,VBO,4.135000,51.841559
Gentiaan,79,,,3222VN,Hellevoetsluis,Hellevoetsluis,Zuid-Holland,VBO,4.135000,51.841559
Gentiaan,81,,,3222VN,Hellevoetsluis,Hellevoetsluis,Zuid-Holland,VBO,4.135000,51.841559
Gentiaan,83,,,3222VN,Hellevoetsluis,Hellevoetsluis,Zuid-Holland,VBO,4.135000,51.841559
Gentiaan,85,,,3222VN,Hellevoetsluis,Hellevoetsluis,Zuid-Holland,VBO,4.135000,51.841559
Gentiaan,87,,,3222VN,Hellevoetsluis,Hellevoetsluis,Zuid-Holland,VBO,4.135000,51.841559
Gentiaan,89,,,3222VN,Hellevoetsluis,Hellevoetsluis,Zuid-Holland,VBO,4.135000,51.841559
Gentiaan,91,,,3222VN,Hellevoetsluis,Hellevoetsluis,Zuid-Holland,VBO,4.135000,51.841559
Gentiaan,93,,,3222VN,Hellevoetsluis,Hellevoetsluis,Zuid-Holland,VBO,4.135000,51.841559
Gentiaan,95,,,3222VN,Hellevoetsluis,Hellevoetsluis,Zuid-Holland,VBO,4.135000,51.841559
Gentiaan,97,,,3222VN,Hellevoetsluis,Hellevoetsluis,Zuid-Holland,VBO,4.135000,51.841559
Parnassialaan,1,a,,3222VP,Hellevoetsluis,Hellevoetsluis,Zuid-Holland,VBO,4.130484,51.840621
Parnassialaan,1,b,,3222VP,Hellevoetsluis,Hellevoetsluis,Zuid-Holland,VBO,4.130557,51.840621
Parnassialaan,1,c,,3222VP,Hellevoetsluis,Hellevoetsluis,Zuid-Holland,VBO,4.130615,51.840631
Parnassialaan,1,d,,3222VP,Hellevoetsluis,Hellevoetsluis,Zuid-Holland,VBO,4.130687,51.840632
Parnassialaan,1,e,,3222VP,Hellevoetsluis,Hellevoetsluis,Zuid-Holland,VBO,4.130759,51.840642
Parnassialaan,1,f,,3222VP,Hellevoetsluis,Hellevoetsluis,Zuid-Holland,VBO,4.130817,51.840651
Parnassialaan,1,g,,3222VP,Hellevoetsluis,Hellevoetsluis,Zuid-Holland,VBO,4.131049,51.840663
Parnassialaan,3,,,3222VP,Hellevoetsluis,Hellevoetsluis,Zuid-Holland,VBO,4.130457,51.840566
Parnassialaan,5,,,3222VP,Hellevoetsluis,Hellevoetsluis,Zuid-Holland,VBO,4.130457,51.840566
Parnassialaan,7,,,3222VP,Hellevoetsluis,Hellevoetsluis,Zuid-Holland,VBO,4.130457,51.840566
Parnassialaan,9,,,3222VP,Hellevoetsluis,Hellevoetsluis,Zuid-Holland,VBO,4.130457,51.840566
Parnassialaan,11,,,3222VP,Hellevoetsluis,Hellevoetsluis,Zuid-Holland,VBO,4.130457,51.840566
Parnassialaan,13,,,3222VP,Hellevoetsluis,Hellevoetsluis,Zuid-Holland,VBO,4.130457,51.840566
Parnassialaan,15,,,3222VP,Hellevoetsluis,Hellevoetsluis,Zuid-Holland,VBO,4.130457,51.840566
Parnassialaan,17,,,3222VP,Hellevoetsluis,Hellevoetsluis,Zuid-Holland,VBO,4.130457,51.840566
Parnassialaan,19,,,3222VP,Hellevoetsluis,Hellevoetsluis,Zuid-Holland,VBO,4.130457,51.840566
Parnassialaan,21,,,3222VP,Hellevoetsluis,Hellevoetsluis,Zuid-Holland,VBO,4.130457,51.840566
Parnassialaan,23,,,3222VP,Hellevoetsluis,Hellevoetsluis,Zuid-Holland,VBO,4.130457,51.840566
Parnassialaan,25,a,,3222VP,Hellevoetsluis,Hellevoetsluis,Zuid-Holland,VBO,4.130457,51.840566
Parnassialaan,25,,,3222VP,Hellevoetsluis,Hellevoetsluis,Zuid-Holland,VBO,4.130457,51.840566
Parnassialaan,27,a,,3222VP,Hellevoetsluis,Hellevoetsluis,Zuid-Holland,VBO,4.130457,51.840566
Parnassialaan,27,,,3222VP,Hellevoetsluis,Hellevoetsluis,Zuid-Holland,VBO,4.130457,51.840566
Parnassialaan,29,,,3222VP,Hellevoetsluis,Hellevoetsluis,Zuid-Holland,VBO,4.130457,51.840566
Parnassialaan,31,,,3222VP,Hellevoetsluis,Hellevoetsluis,Zuid-Holland,VBO,4.130457,51.840566
Parnassialaan,33,,,3222VP,Hellevoetsluis,Hellevoetsluis,Zuid-Holland,VBO,4.130457,51.840566
Parnassialaan,35,,,3222VR,Hellevoetsluis,Hellevoetsluis,Zuid-Holland,VBO,4.130457,51.840566
Parnassialaan,37,,,3222VR,Hellevoetsluis,Hellevoetsluis,Zuid-Holland,VBO,4.130457,51.840566
Parnassialaan,39,,,3222VR,Hellevoetsluis,Hellevoetsluis,Zuid-Holland,VBO,4.130457,51.840566
Parnassialaan,41,,,3222VR,Hellevoetsluis,Hellevoetsluis,Zuid-Holland,VBO,4.130457,51.840566
Parnassialaan,43,,,3222VR,Hellevoetsluis,Hellevoetsluis,Zuid-Holland,VBO,4.130457,51.840566
Parnassialaan,45,,,3222VR,Hellevoetsluis,Hellevoetsluis,Zuid-Holland,VBO,4.130457,51.840566
Parnassialaan,47,,,3222VR,Hellevoetsluis,Hellevoetsluis,Zuid-Holland,VBO,4.130457,51.840566
Parnassialaan,49,,,3222VR,Hellevoetsluis,Hellevoetsluis,Zuid-Holland,VBO,4.130457,51.840566
Parnassialaan,51,,,3222VR,Hellevoetsluis,Hellevoetsluis,Zuid-Holland,VBO,4.130457,51.840566
Parnassialaan,53,,,3222VR,Hellevoetsluis,Hellevoetsluis,Zuid-Holland,VBO,4.130457,51.840566
Parnassialaan,55,,,3222VR,Hellevoetsluis,Hellevoetsluis,Zuid-Holland,VBO,4.130457,51.840566
Parnassialaan,57,,,3222VR,Hellevoetsluis,Hellevoetsluis,Zuid-Holland,VBO,4.130457,51.840566
Parnassialaan,59,,,3222VR,Hellevoetsluis,Hellevoetsluis,Zuid-Holland,VBO,4.130457,51.840566
Parnassialaan,61,,,3222VR,Hellevoetsluis,Hellevoetsluis,Zuid-Holland,VBO,4.130457,51.840566
Parnassialaan,63,,,3222VR,Hellevoetsluis,Hellevoetsluis,Zuid-Holland,VBO,4.130457,51.840566
Parnassialaan,65,,,3222VR,Hellevoetsluis,Hellevoetsluis,Zuid-Holland,VBO,4.130457,51.840566
Parnassialaan,67,,,3222VS,Hellevoetsluis,Hellevoetsluis,Zuid-Holland,VBO,4.130457,51.840566
Parnassialaan,69,,,3222VS,Hellevoetsluis,Hellevoetsluis,Zuid-Holland,VBO,4.130457,51.840566
Parnassialaan,71,,,3222VS,Hellevoetsluis,Hellevoetsluis,Zuid-Holland,VBO,4.130457,51.840566
Parnassialaan,73,,,3222VS,Hellevoetsluis,Hellevoetsluis,Zuid-Holland,VBO,4.130457,51.840566
Parnassialaan,75,,,3222VS,Hellevoetsluis,Hellevoetsluis,Zuid-Holland,VBO,4.130457,51.840566
Parnassialaan,77,,,3222VS,Hellevoetsluis,Hellevoetsluis,Zuid-Holland,VBO,4.130457,51.840566
Parnassialaan,79,,,3222VS,Hellevoetsluis,Hellevoetsluis,Zuid-Holland,VBO,4.130457,51.840566
Parnassialaan,81,,,3222VS,Hellevoetsluis,Hellevoetsluis,Zuid-Holland,VBO,4.130457,51.840566
Parnassialaan,83,,,3222VS,Hellevoetsluis,Hellevoetsluis,Zuid-Holland,VBO,4.130457,51.840566
Parnassialaan,85,,,3222VS,Hellevoetsluis,Hellevoetsluis,Zuid-Holland,VBO,4.130457,51.840566
Parnassialaan,87,,,3222VS,Hellevoetsluis,Hellevoetsluis,Zuid-Holland,VBO,4.131380,51.840663
Parnassialaan,89,,,3222VS,Hellevoetsluis,Hellevoetsluis,Zuid-Holland,VBO,4.130457,51.840566
Parnassialaan,91,,,3222VS,Hellevoetsluis,Hellevoetsluis,Zuid-Holland,VBO,4.130457,51.840566
Parnassialaan,93,,,3222VS,Hellevoetsluis,Hellevoetsluis,Zuid-Holland,VBO,4.130457,51.840566
Parnassialaan,95,,,3222VS,Hellevoetsluis,Hellevoetsluis,Zuid-Holland,VBO,4.130457,51.840566
Parnassialaan,97,,,3222VS,Hellevoetsluis,Hellevoetsluis,Zuid-Holland,VBO,4.130457,51.840566
Parnassialaan,99,a,,3222VT,Hellevoetsluis,Hellevoetsluis,Zuid-Holland,VBO,4.131052,51.841067
Parnassialaan,99,b,,3222VT,Hellevoetsluis,Hellevoetsluis,Zuid-Holland,VBO,4.131110,51.841095
Parnassialaan,99,c,,3222VT,Hellevoetsluis,Hellevoetsluis,Zuid-Holland,VBO,4.131167,51.841122
Parnassialaan,99,d,,3222VT,Hellevoetsluis,Hellevoetsluis,Zuid-Holland,VBO,4.131195,51.841150
Parnassialaan,99,e,,3222VT,Hellevoetsluis,Hellevoetsluis,Zuid-Holland,VBO,4.131252,51.841177
Parnassialaan,99,f,,3222VT,Hellevoetsluis,Hellevoetsluis,Zuid-Holland,VBO,4.131295,51.841205
Parnassialaan,99,g,,3222VT,Hellevoetsluis,Hellevoetsluis,Zuid-Holland,VBO,4.131481,51.841315
Parnassialaan,101,,,3222VT,Hellevoetsluis,Hellevoetsluis,Zuid-Holland,VBO,4.131311,51.841142
Parnassialaan,103,,,3222VT,Hellevoetsluis,Hellevoetsluis,Zuid-Holland,VBO,4.131311,51.841142
Parnassialaan,105,,,3222VT,Hellevoetsluis,Hellevoetsluis,Zuid-Holland,VBO,4.131311,51.841142
Parnassialaan,107,,,3222VT,Hellevoetsluis,Hellevoetsluis,Zuid-Holland,VBO,4.131311,51.841142
Parnassialaan,109,,,3222VT,Hellevoetsluis,Hellevoetsluis,Zuid-Holland,VBO,4.131311,51.841142
Parnassialaan,111,,,3222VT,Hellevoetsluis,Hellevoetsluis,Zuid-Holland,VBO,4.131311,51.841142
Parnassialaan,113,,,3222VT,Hellevoetsluis,Hellevoetsluis,Zuid-Holland,VBO,4.131311,51.841142
Parnassialaan,115,,,3222VT,Hellevoetsluis,Hellevoetsluis,Zuid-Holland,VBO,4.131311,51.841142
Parnassialaan,117,,,3222VT,Hellevoetsluis,Hellevoetsluis,Zuid-Holland,VBO,4.131311,51.841142
Parnassialaan,119,,,3222VT,Hellevoetsluis,Hellevoetsluis,Zuid-Holland,VBO,4.131311,51.841142
Parnassialaan,121,,,3222VT,Hellevoetsluis,Hellevoetsluis,Zuid-Holland,VBO,4.131311,51.841142
Parnassialaan,123,,,3222VT,Hellevoetsluis,Hellevoetsluis,Zuid-Holland,VBO,4.131311,51.841142
Parnassialaan,125,,,3222VT,Hellevoetsluis,Hellevoetsluis,Zuid-Holland,VBO,4.131311,51.841142
Parnassialaan,127,,,3222VT,Hellevoetsluis,Hellevoetsluis,Zuid-Holland,VBO,4.131311,51.841142
Parnassialaan,129,,,3222VT,Hellevoetsluis,Hellevoetsluis,Zuid-Holland,VBO,4.131311,51.841142
Parnassialaan,131,,,3222VT,Hellevoetsluis,Hellevoetsluis,Zuid-Holland,VBO,4.131311,51.841142
Parnassialaan,133,,,3222VV,Hellevoetsluis,Hellevoetsluis,Zuid-Holland,VBO,4.131311,51.841142
Parnassialaan,135,,,3222VV,Hellevoetsluis,Hellevoetsluis,Zuid-Holland,VBO,4.131311,51.841142
Parnassialaan,137,,,3222VV,Hellevoetsluis,Hellevoetsluis,Zuid-Holland,VBO,4.131311,51.841142
Parnassialaan,139,,,3222VV,Hellevoetsluis,Hellevoetsluis,Zuid-Holland,VBO,4.131311,51.841142
Parnassialaan,141,,,3222VV,Hellevoetsluis,Hellevoetsluis,Zuid-Holland,VBO,4.131311,51.841142
Parnassialaan,143,,,3222VV,Hellevoetsluis,Hellevoetsluis,Zuid-Holland,VBO,4.131311,51.841142
Parnassialaan,145,,,3222VV,Hellevoetsluis,Hellevoetsluis,Zuid-Holland,VBO,4.131311,51.841142
Parnassialaan,147,,,3222VV,Hellevoetsluis,Hellevoetsluis,Zuid-Holland,VBO,4.131311,51.841142
Parnassialaan,149,,,3222VV,Hellevoetsluis,Hellevoetsluis,Zuid-Holland,VBO,4.131311,51.841142
Parnassialaan,151,,,3222VV,Hellevoetsluis,Hellevoetsluis,Zuid-Holland,VBO,4.131311,51.841142
Parnassialaan,153,,,3222VV,Hellevoetsluis,Hellevoetsluis,Zuid-Holland,VBO,4.131311,51.841142
Parnassialaan,155,a,,3222VV,Hellevoetsluis,Hellevoetsluis,Zuid-Holland,VBO,4.131311,51.841142
Parnassialaan,155,,,3222VV,Hellevoetsluis,Hellevoetsluis,Zuid-Holland,VBO,4.131311,51.841142
Parnassialaan,157,,,3222VV,Hellevoetsluis,Hellevoetsluis,Zuid-Holland,VBO,4.131311,51.841142
Parnassialaan,159,,,3222VV,Hellevoetsluis,Hellevoetsluis,Zuid-Holland,VBO,4.131311,51.841142
Parnassialaan,161,,,3222VV,Hellevoetsluis,Hellevoetsluis,Zuid-Holland,VBO,4.131311,51.841142
Parnassialaan,163,,,3222VV,Hellevoetsluis,Hellevoetsluis,Zuid-Holland,VBO,4.131311,51.841142
Parnassialaan,165,,,3222VW,Hellevoetsluis,Hellevoetsluis,Zuid-Holland,VBO,4.131311,51.841142
Parnassialaan,167,,,3222VW,Hellevoetsluis,Hellevoetsluis,Zuid-Holland,VBO,4.131311,51.841142
Parnassialaan,169,,,3222VW,Hellevoetsluis,Hellevoetsluis,Zuid-Holland,VBO,4.131311,51.841142
Parnassialaan,171,a,,3222VW,Hellevoetsluis,Hellevoetsluis,Zuid-Holland,VBO,4.131311,51.841142
Parnassialaan,171,,,3222VW,Hellevoetsluis,Hellevoetsluis,Zuid-Holland,VBO,4.131311,51.841142
Parnassialaan,173,,,3222VW,Hellevoetsluis,Hellevoetsluis,Zuid-Holland,VBO,4.131311,51.841142
Parnassialaan,175,,,3222VW,Hellevoetsluis,Hellevoetsluis,Zuid-Holland,VBO,4.131311,51.841142
Parnassialaan,177,,,3222VW,Hellevoetsluis,Hellevoetsluis,Zuid-Holland,VBO,4.131311,51.841142
Parnassialaan,179,,,3222VW,Hellevoetsluis,Hellevoetsluis,Zuid-Holland,VBO,4.131311,51.841142
Parnassialaan,181,,,3222VW,Hellevoetsluis,Hellevoetsluis,Zuid-Holland,VBO,4.131311,51.841142
Parnassialaan,183,,,3222VW,Hellevoetsluis,Hellevoetsluis,Zuid-Holland,VBO,4.131311,51.841142
Parnassialaan,185,,,3222VW,Hellevoetsluis,Hellevoetsluis,Zuid-Holland,VBO,4.131311,51.841142
Parnassialaan,187,a,,3222VW,Hellevoetsluis,Hellevoetsluis,Zuid-Holland,VBO,4.131311,51.841142
Parnassialaan,187,,,3222VW,Hellevoetsluis,Hellevoetsluis,Zuid-Holland,VBO,4.131311,51.841142
Parnassialaan,189,,,3222VW,Hellevoetsluis,Hellevoetsluis,Zuid-Holland,VBO,4.131311,51.841142
Parnassialaan,191,,,3222VW,Hellevoetsluis,Hellevoetsluis,Zuid-Holland,VBO,4.131311,51.841142
Parnassialaan,193,,,3222VW,Hellevoetsluis,Hellevoetsluis,Zuid-Holland,VBO,4.131311,51.841142
Parnassialaan,195,,,3222VW,Hellevoetsluis,Hellevoetsluis,Zuid-Holland,VBO,4.131311,51.841142
Bremstraat,1,,,3222XA,Hellevoetsluis,Hellevoetsluis,Zuid-Holland,VBO,4.129332,51.839166
Bremstraat,2,a,,3222XA,Hellevoetsluis,Hellevoetsluis,Zuid-Holland,VBO,4.130063,51.838567
Bremstraat,2,b,,3222XA,Hellevoetsluis,Hellevoetsluis,Zuid-Holland,VBO,4.130062,51.838612
Bremstraat,2,,,3222XA,Hellevoetsluis,Hellevoetsluis,Zuid-Holland,VBO,4.130072,51.838747
Bremstraat,4,,,3222XA,Hellevoetsluis,Hellevoetsluis,Zuid-Holland,VBO,4.130056,51.838800
Bremstraat,6,,,3222XA,Hellevoetsluis,Hellevoetsluis,Zuid-Holland,VBO,4.130040,51.838854
Bremstraat,8,,,3222XA,Hellevoetsluis,Hellevoetsluis,Zuid-Holland,VBO,4.130038,51.838917
Bremstraat,10,,,3222XA,Hellevoetsluis,Hellevoetsluis,Zuid-Holland,VBO,4.130186,51.839341
Bremstraat,12,,,3222XA,Hellevoetsluis,Hellevoetsluis,Zuid-Holland,VBO,4.130170,51.839395
Bremstraat,14,,,3222XA,Hellevoetsluis,Hellevoetsluis,Zuid-Holland,VBO,4.130154,51.839449
Bremstraat,16,,,3222XA,Hellevoetsluis,Hellevoetsluis,Zuid-Holland,VBO,4.130153,51.839502
Bremstraat,18,,,3222XA,Hellevoetsluis,Hellevoetsluis,Zuid-Holland,VBO,4.130137,51.839556
Bremstraat,20,,,3222XA,Hellevoetsluis,Hellevoetsluis,Zuid-Holland,VBO,4.130135,51.839610
Bremstraat,22,,,3222XA,Hellevoetsluis,Hellevoetsluis,Zuid-Holland,VBO,4.130119,51.839664
Bremstraat,24,,,3222XA,Hellevoetsluis,Hellevoetsluis,Zuid-Holland,VBO,4.130118,51.839718
Bremstraat,26,,,3222XA,Hellevoetsluis,Hellevoetsluis,Zuid-Holland,VBO,4.130101,51.839808
Bremstraat,28,,,3222XA,Hellevoetsluis,Hellevoetsluis,Zuid-Holland,VBO,4.130085,51.839861
Bremstraat,30,,,3222XA,Hellevoetsluis,Hellevoetsluis,Zuid-Holland,VBO,4.130069,51.839915
Bremstraat,32,,,3222XA,Hellevoetsluis,Hellevoetsluis,Zuid-Holland,VBO,4.130067,51.839969
Distelstraat,1,,,3222XB,Hellevoetsluis,Hellevoetsluis,Zuid-Holland,VBO,4.132496,51.839258
Distelstraat,3,,,3222XB,Hellevoetsluis,Hellevoetsluis,Zuid-Holland,VBO,4.132394,51.839257
Distelstraat,5,,,3222XB,Hellevoetsluis,Hellevoetsluis,Zuid-Holland,VBO,4.132308,51.839247
Distelstraat,7,,,3222XB,Hellevoetsluis,Hellevoetsluis,Zuid-Holland,VBO,4.132221,51.839246
Distelstraat,9,,,3222XB,Hellevoetsluis,Hellevoetsluis,Zuid-Holland,VBO,4.132134,51.839236
Distelstraat,11,,,3222XB,Hellevoetsluis,Hellevoetsluis,Zuid-Holland,VBO,4.132047,51.839226
Distelstraat,13,,,3222XB,Hellevoetsluis,Hellevoetsluis,Zuid-Holland,VBO,4.131960,51.839225
Distelstraat,15,,,3222XB,Hellevoetsluis,Hellevoetsluis,Zuid-Holland,VBO,4.131859,51.839215
Distelstraat,17,a,,3222XB,Hellevoetsluis,Hellevoetsluis,Zuid-Holland,VBO,4.132545,51.839070
Distelstraat,17,b,,3222XB,Hellevoetsluis,Hellevoetsluis,Zuid-Holland,VBO,4.132502,51.839051
Distelstraat,17,c,,3222XB,Hellevoetsluis,Hellevoetsluis,Zuid-Holland,VBO,4.132444,51.839051
Distelstraat,17,d,,3222XB,Hellevoetsluis,Hellevoetsluis,Zuid-Holland,VBO,4.132400,51.839041
Distelstraat,17,e,,3222XB,Hellevoetsluis,Hellevoetsluis,Zuid-Holland,VBO,4.132357,51.839041
Distelstraat,17,f,,3222XB,Hellevoetsluis,Hellevoetsluis,Zuid-Holland,VBO,4.132313,51.839040
Distelstraat,17,g,,3222XB,Hellevoetsluis,Hellevoetsluis,Zuid-Holland,VBO,4.132270,51.839040
Distelstraat,17,h,,3222XB,Hellevoetsluis,Hellevoetsluis,Zuid-Holland,VBO,4.132227,51.839030
Distelstraat,17,i,,3222XB,Hellevoetsluis,Hellevoetsluis,Zuid-Holland,VBO,4.132183,51.839030
Distelstraat,17,j,,3222XB,Hellevoetsluis,Hellevoetsluis,Zuid-Holland,VBO,4.132139,51.839029
Distelstraat,17,k,,3222XB,Hellevoetsluis,Hellevoetsluis,Zuid-Holland,VBO,4.132081,51.839029
Distelstraat,17,l,,3222XB,Hellevoetsluis,Hellevoetsluis,Zuid-Holland,VBO,4.132053,51.839019
Distelstraat,17,m,,3222XB,Hellevoetsluis,Hellevoetsluis,Zuid-Holland,VBO,4.132009,51.839019
Distelstraat,17,n,,3222XB,Hellevoetsluis,Hellevoetsluis,Zuid-Holland,VBO,4.131966,51.839018
Distelstraat,17,o,,3222XB,Hellevoetsluis,Hellevoetsluis,Zuid-Holland,VBO,4.131908,51.839018
Distelstraat,17,p,,3222XB,Hellevoetsluis,Hellevoetsluis,Zuid-Holland,VBO,4.131864,51.839008
Distelstraat,17,q,,3222XB,Hellevoetsluis,Hellevoetsluis,Zuid-Holland,VBO,4.131821,51.839008
Distelstraat,17,,,3222XB,Hellevoetsluis,Hellevoetsluis,Zuid-Holland,VBO,4.131772,51.839214
Distelstraat,19,a,,3222XB,Hellevoetsluis,Hellevoetsluis,Zuid-Holland,VBO,4.132377,51.838843
Distelstraat,19,,,3222XB,Hellevoetsluis,Hellevoetsluis,Zuid-Holland,VBO,4.131584,51.839158
Distelstraat,21,,,3222XB,Hellevoetsluis,Hellevoetsluis,Zuid-Holland,VBO,4.131497,51.839157
Distelstraat,23,,,3222XB,Hellevoetsluis,Hellevoetsluis,Zuid-Holland,VBO,4.131396,51.839147
Distelstraat,25,,,3222XB,Hellevoetsluis,Hellevoetsluis,Zuid-Holland,VBO,4.131309,51.839137
Distelstraat,27,,,3222XB,Hellevoetsluis,Hellevoetsluis,Zuid-Holland,VBO,4.131222,51.839136
Distelstraat,29,,,3222XB,Hellevoetsluis,Hellevoetsluis,Zuid-Holland,VBO,4.131135,51.839126
Distelstraat,31,,,3222XB,Hellevoetsluis,Hellevoetsluis,Zuid-Holland,VBO,4.131048,51.839126
Distelstraat,33,,,3222XB,Hellevoetsluis,Hellevoetsluis,Zuid-Holland,VBO,4.130962,51.839116
Distelstraat,35,,,3222XB,Hellevoetsluis,Hellevoetsluis,Zuid-Holland,VBO,4.130817,51.839105
Distelstraat,37,,,3222XB,Hellevoetsluis,Hellevoetsluis,Zuid-Holland,VBO,4.130730,51.839095
Distelstraat,39,,,3222XB,Hellevoetsluis,Hellevoetsluis,Zuid-Holland,VBO,4.130643,51.839094
Distelstraat,41,,,3222XB,Hellevoetsluis,Hellevoetsluis,Zuid-Holland,VBO,4.130556,51.839084
Distelstraat,43,,,3222XB,Hellevoetsluis,Hellevoetsluis,Zuid-Holland,VBO,4.130469,51.839083
Distelstraat,45,,,3222XB,Hellevoetsluis,Hellevoetsluis,Zuid-Holland,VBO,4.130382,51.839073
Distelstraat,47,,,3222XB,Hellevoetsluis,Hellevoetsluis,Zuid-Holland,VBO,4.130296,51.839064
Distelstraat,49,,,3222XB,Hellevoetsluis,Hellevoetsluis,Zuid-Holland,VBO,4.130209,51.839063
Distelstraat,51,,,3222XB,Hellevoetsluis,Hellevoetsluis,Zuid-Holland,VBO,4.130122,51.839053
Distelstraat,2,,,3222XC,Hellevoetsluis,Hellevoetsluis,Zuid-Holland,VBO,4.134053,51.839607
Distelstraat,4,,,3222XC,Hellevoetsluis,Hellevoetsluis,Zuid-Holland,VBO,4.133967,51.839597
Distelstraat,6,,,3222XC,Hellevoetsluis,Hellevoetsluis,Zuid-Holland,VBO,4.133880,51.839596
Distelstraat,8,,,3222XC,Hellevoetsluis,Hellevoetsluis,Zuid-Holland,VBO,4.133778,51.839586
Distelstraat,10,,,3222XC,Hellevoetsluis,Hellevoetsluis,Zuid-Holland,VBO,4.133127,51.839525
Distelstraat,12,,,3222XC,Hellevoetsluis,Hellevoetsluis,Zuid-Holland,VBO,4.133040,51.839524
Distelstraat,14,,,3222XC,Hellevoetsluis,Hellevoetsluis,Zuid-Holland,VBO,4.132953,51.839514
Distelstraat,16,,,3222XC,Hellevoetsluis,Hellevoetsluis,Zuid-Holland,VBO,4.132866,51.839505
Distelstraat,18,,,3222XC,Hellevoetsluis,Hellevoetsluis,Zuid-Holland,VBO,4.132779,51.839504
Distelstraat,20,,,3222XC,Hellevoetsluis,Hellevoetsluis,Zuid-Holland,VBO,4.132693,51.839494
Distelstraat,22,,,3222XC,Hellevoetsluis,Hellevoetsluis,Zuid-Holland,VBO,4.132330,51.839472
Distelstraat,24,,,3222XC,Hellevoetsluis,Hellevoetsluis,Zuid-Holland,VBO,4.132244,51.839462
Distelstraat,26,,,3222XC,Hellevoetsluis,Hellevoetsluis,Zuid-Holland,VBO,4.132156,51.839461
Distelstraat,28,,,3222XC,Hellevoetsluis,Hellevoetsluis,Zuid-Holland,VBO,4.132070,51.839451
Distelstraat,30,,,3222XC,Hellevoetsluis,Hellevoetsluis,Zuid-Holland,VBO,4.131983,51.839441
Distelstraat,32,,,3222XC,Hellevoetsluis,Hellevoetsluis,Zuid-Holland,VBO,4.131896,51.839440
Distelstraat,34,,,3222XC,Hellevoetsluis,Hellevoetsluis,Zuid-Holland,VBO,4.131534,51.839409
Distelstraat,36,,,3222XC,Hellevoetsluis,Hellevoetsluis,Zuid-Holland,VBO,4.131447,51.839408
Distelstraat,38,,,3222XC,Hellevoetsluis,Hellevoetsluis,Zuid-Holland,VBO,4.131360,51.839399
Distelstraat,40,,,3222XC,Hellevoetsluis,Hellevoetsluis,Zuid-Holland,VBO,4.131273,51.839398
Distelstraat,42,,,3222XC,Hellevoetsluis,Hellevoetsluis,Zuid-Holland,VBO,4.131186,51.839388
Distelstraat,44,,,3222XC,Hellevoetsluis,Hellevoetsluis,Zuid-Holland,VBO,4.131099,51.839378
Distelstraat,46,,,3222XC,Hellevoetsluis,Hellevoetsluis,Zuid-Holland,VBO,4.130752,51.839356
Distelstraat,48,,,3222XC,Hellevoetsluis,Hellevoetsluis,Zuid-Holland,VBO,4.130665,51.839355
Distelstraat,50,,,3222XC,Hellevoetsluis,Hellevoetsluis,Zuid-Holland,VBO,4.130578,51.839345
Distelstraat,52,,,3222XC,Hellevoetsluis,Hellevoetsluis,Zuid-Holland,VBO,4.130491,51.839335
Duindoornstraat,1,,,3222XD,Hellevoetsluis,Hellevoetsluis,Zuid-Holland,VBO,4.126586,51.838359
Duindoornstraat,3,,,3222XD,Hellevoetsluis,Hellevoetsluis,Zuid-Holland,VBO,4.126585,51.838403
Duindoornstraat,5,,,3222XD,Hellevoetsluis,Hellevoetsluis,Zuid-Holland,VBO,4.126569,51.838448
Duindoornstraat,7,,,3222XD,Hellevoetsluis,Hellevoetsluis,Zuid-Holland,VBO,4.126568,51.838493
Duindoornstraat,9,,,3222XD,Hellevoetsluis,Hellevoetsluis,Zuid-Holland,VBO,4.126552,51.838538
Duindoornstraat,11,,,3222XD,Hellevoetsluis,Hellevoetsluis,Zuid-Holland,VBO,4.126550,51.838592
Duindoornstraat,13,,,3222XD,Hellevoetsluis,Hellevoetsluis,Zuid-Holland,VBO,4.126535,51.838637
Duindoornstraat,15,,,3222XD,Hellevoetsluis,Hellevoetsluis,Zuid-Holland,VBO,4.126533,51.838682
Duindoornstraat,17,,,3222XD,Hellevoetsluis,Hellevoetsluis,Zuid-Holland,VBO,4.126518,51.838726
Duindoornstraat,19,,,3222XD,Hellevoetsluis,Hellevoetsluis,Zuid-Holland,VBO,4.126516,51.838771
Duindoornstraat,21,,,3222XD,Hellevoetsluis,Hellevoetsluis,Zuid-Holland,VBO,4.126558,51.838835
Duindoornstraat,23,,,3222XD,Hellevoetsluis,Hellevoetsluis,Zuid-Holland,VBO,4.126601,51.838871
Duindoornstraat,25,,,3222XD,Hellevoetsluis,Hellevoetsluis,Zuid-Holland,VBO,4.126643,51.838908
Duindoornstraat,27,,,3222XD,Hellevoetsluis,Hellevoetsluis,Zuid-Holland,VBO,4.126686,51.838944
Duindoornstraat,29,,,3222XD,Hellevoetsluis,Hellevoetsluis,Zuid-Holland,VBO,4.126728,51.838980
Duindoornstraat,31,,,3222XD,Hellevoetsluis,Hellevoetsluis,Zuid-Holland,VBO,4.126771,51.839017
Duindoornstraat,33,,,3222XD,Hellevoetsluis,Hellevoetsluis,Zuid-Holland,VBO,4.126813,51.839053
Duindoornstraat,35,,,3222XD,Hellevoetsluis,Hellevoetsluis,Zuid-Holland,VBO,4.126856,51.839090
Duindoornstraat,37,,,3222XD,Hellevoetsluis,Hellevoetsluis,Zuid-Holland,VBO,4.126884,51.839126
Duindoornstraat,39,,,3222XD,Hellevoetsluis,Hellevoetsluis,Zuid-Holland,VBO,4.126849,51.839323
Duindoornstraat,41,,,3222XD,Hellevoetsluis,Hellevoetsluis,Zuid-Holland,VBO,4.126833,51.839368
Duindoornstraat,43,,,3222XD,Hellevoetsluis,Hellevoetsluis,Zuid-Holland,VBO,4.126832,51.839413
Duindoornstraat,45,,,3222XD,Hellevoetsluis,Hellevoetsluis,Zuid-Holland,VBO,4.126816,51.839458
Duindoornstraat,47,,,3222XD,Hellevoetsluis,Hellevoetsluis,Zuid-Holland,VBO,4.126815,51.839503
Duindoornstraat,49,,,3222XD,Hellevoetsluis,Hellevoetsluis,Zuid-Holland,VBO,4.126799,51.839547
Duindoornstraat,51,,,3222XD,Hellevoetsluis,Hellevoetsluis,Zuid-Holland,VBO,4.126798,51.839592
Duindoornstraat,53,,,3222XD,Hellevoetsluis,Hellevoetsluis,Zuid-Holland,VBO,4.126782,51.839637
Duindoornstraat,55,,,3222XD,Hellevoetsluis,Hellevoetsluis,Zuid-Holland,VBO,4.126781,51.839682
Duindoornstraat,57,,,3222XD,Hellevoetsluis,Hellevoetsluis,Zuid-Holland,VBO,4.126765,51.839727
Duindoornstraat,2,a,PRAK,3222XE,Hellevoetsluis,Hellevoetsluis,Zuid-Holland,VBO,4.127609,51.838471
Duindoornstraat,2,a,,3222XE,Hellevoetsluis,Hellevoetsluis,Zuid-Holland,VBO,4.127542,51.838414
Duindoornstraat,2,b,,3222XE,Hellevoetsluis,Hellevoetsluis,Zuid-Holland,VBO,4.127492,51.838647
Duindoornstraat,2,c,,3222XE,Hellevoetsluis,Hellevoetsluis,Zuid-Holland,VBO,4.127796,51.838686
Duindoornstraat,2,d,,3222XE,Hellevoetsluis,Hellevoetsluis,Zuid-Holland,VBO,4.127805,51.838884
Duindoornstraat,2,e,,3222XE,Hellevoetsluis,Hellevoetsluis,Zuid-Holland,VBO,4.127442,51.838889
Duindoornstraat,2,,,3222XE,Hellevoetsluis,Hellevoetsluis,Zuid-Holland,VBO,4.127434,51.839150
Duindoornstraat,4,,,3222XE,Hellevoetsluis,Hellevoetsluis,Zuid-Holland,VBO,4.127737,51.839216
Duindoornstraat,6,,,3222XE,Hellevoetsluis,Hellevoetsluis,Zuid-Holland,VBO,4.128084,51.839265
Duindoornstraat,8,,,3222XE,Hellevoetsluis,Hellevoetsluis,Zuid-Holland,VBO,4.127579,51.839682
Duindoornstraat,10,,,3222XE,Hellevoetsluis,Hellevoetsluis,Zuid-Holland,VBO,4.127651,51.839691
Duindoornstraat,12,,,3222XE,Hellevoetsluis,Hellevoetsluis,Zuid-Holland,VBO,4.127739,51.839692
Duindoornstraat,14,,,3222XE,Hellevoetsluis,Hellevoetsluis,Zuid-Holland,VBO,4.127825,51.839702
Duindoornstraat,16,,,3222XE,Hellevoetsluis,Hellevoetsluis,Zuid-Holland,VBO,4.127912,51.839703
Duindoornstraat,18,,,3222XE,Hellevoetsluis,Hellevoetsluis,Zuid-Holland,VBO,4.127999,51.839713
Duindoornstraat,20,,,3222XE,Hellevoetsluis,Hellevoetsluis,Zuid-Holland,VBO,4.128100,51.839723
Duindoornstraat,22,,,3222XE,Hellevoetsluis,Hellevoetsluis,Zuid-Holland,VBO,4.128187,51.839724
Duindoornstraat,24,,,3222XE,Hellevoetsluis,Hellevoetsluis,Zuid-Holland,VBO,4.127245,51.839696
Duindoornstraat,26,,,3222XE,Hellevoetsluis,Hellevoetsluis,Zuid-Holland,VBO,4.127229,51.839750
Duindoornstraat,28,,,3222XE,Hellevoetsluis,Hellevoetsluis,Zuid-Holland,VBO,4.127227,51.839804
Duindoornstraat,30,,,3222XE,Hellevoetsluis,Hellevoetsluis,Zuid-Holland,VBO,4.127211,51.839858
Duindoornstraat,32,,,3222XE,Hellevoetsluis,Hellevoetsluis,Zuid-Holland,VBO,4.127195,51.839911
Duindoornstraat,34,,,3222XE,Hellevoetsluis,Hellevoetsluis,Zuid-Holland,VBO,4.127194,51.839974
Duindoornstraat,36,,,3222XE,Hellevoetsluis,Hellevoetsluis,Zuid-Holland,VBO,4.127141,51.840306
Duindoornstraat,38,,,3222XE,Hellevoetsluis,Hellevoetsluis,Zuid-Holland,VBO,4.127139,51.840360
Duindoornstraat,40,,,3222XE,Hellevoetsluis,Hellevoetsluis,Zuid-Holland,VBO,4.127123,51.840414
Duindoornstraat,42,,,3222XE,Hellevoetsluis,Hellevoetsluis,Zuid-Holland,VBO,4.127107,51.840468
Duindoornstraat,44,,,3222XE,Hellevoetsluis,Hellevoetsluis,Zuid-Holland,VBO,4.127106,51.840522
Duindoornstraat,46,,,3222XE,Hellevoetsluis,Hellevoetsluis,Zuid-Holland,VBO,4.127090,51.840575
Haagwinde,10,,,3222XG,Hellevoetsluis,Hellevoetsluis,Zuid-Holland,VBO,4.128954,51.840838
Haagwinde,12,,,3222XG,Hellevoetsluis,Hellevoetsluis,Zuid-Holland,VBO,4.129100,51.840840
Haagwinde,14,,,3222XG,Hellevoetsluis,Hellevoetsluis,Zuid-Holland,VBO,4.129260,51.840805
Haagwinde,16,,,3222XG,Hellevoetsluis,Hellevoetsluis,Zuid-Holland,VBO,4.129405,51.840825
Haagwinde,18,,,3222XG,Hellevoetsluis,Hellevoetsluis,Zuid-Holland,VBO,4.129550,51.840835
Haagwinde,20,,,3222XG,Hellevoetsluis,Hellevoetsluis,Zuid-Holland,VBO,4.129765,51.840919
Haagwinde,22,,,3222XG,Hellevoetsluis,Hellevoetsluis,Zuid-Holland,VBO,4.129850,51.841000
Haagwinde,24,,,3222XG,Hellevoetsluis,Hellevoetsluis,Zuid-Holland,VBO,4.129935,51.841073
Haagwinde,26,,,3222XG,Hellevoetsluis,Hellevoetsluis,Zuid-Holland,VBO,4.130020,51.841146
Haagwinde,28,,,3222XG,Hellevoetsluis,Hellevoetsluis,Zuid-Holland,VBO,4.130119,51.841219
Haagwinde,30,,,3222XG,Hellevoetsluis,Hellevoetsluis,Zuid-Holland,VBO,4.130234,51.841274
Haagwinde,32,,,3222XG,Hellevoetsluis,Hellevoetsluis,Zuid-Holland,VBO,4.130333,51.841347
Haagwinde,34,,,3222XG,Hellevoetsluis,Hellevoetsluis,Zuid-Holland,VBO,4.129723,51.841377
Haagwinde,36,,,3222XG,Hellevoetsluis,Hellevoetsluis,Zuid-Holland,VBO,4.129638,51.841322
Haagwinde,38,,,3222XG,Hellevoetsluis,Hellevoetsluis,Zuid-Holland,VBO,4.129552,51.841258
Haagwinde,40,,,3222XG,Hellevoetsluis,Hellevoetsluis,Zuid-Holland,VBO,4.129467,51.841203
Haagwinde,42,,,3222XG,Hellevoetsluis,Hellevoetsluis,Zuid-Holland,VBO,4.129092,51.841118
Haagwinde,44,,,3222XG,Hellevoetsluis,Hellevoetsluis,Zuid-Holland,VBO,4.128976,51.841108
Haagwinde,46,,,3222XH,Hellevoetsluis,Hellevoetsluis,Zuid-Holland,VBO,4.128845,51.841107
Haagwinde,48,,,3222XH,Hellevoetsluis,Hellevoetsluis,Zuid-Holland,VBO,4.128715,51.841096
Haagwinde,50,,,3222XH,Hellevoetsluis,Hellevoetsluis,Zuid-Holland,VBO,4.128483,51.841076
Haagwinde,52,,,3222XH,Hellevoetsluis,Hellevoetsluis,Zuid-Holland,VBO,4.128397,51.841066
Haagwinde,54,,,3222XH,Hellevoetsluis,Hellevoetsluis,Zuid-Holland,VBO,4.128310,51.841065
Haagwinde,56,,,3222XH,Hellevoetsluis,Hellevoetsluis,Zuid-Holland,VBO,4.128223,51.841055
Haagwinde,58,,,3222XH,Hellevoetsluis,Hellevoetsluis,Zuid-Holland,VBO,4.128136,51.841054
Haagwinde,60,,,3222XH,Hellevoetsluis,Hellevoetsluis,Zuid-Holland,VBO,4.128049,51.841044
Haagwinde,62,,,3222XH,Hellevoetsluis,Hellevoetsluis,Zuid-Holland,VBO,4.127888,51.841078
Haagwinde,64,,,3222XH,Hellevoetsluis,Hellevoetsluis,Zuid-Holland,VBO,4.127802,51.841068
Haagwinde,66,,,3222XH,Hellevoetsluis,Hellevoetsluis,Zuid-Holland,VBO,4.127715,51.841058
Haagwinde,68,,,3222XH,Hellevoetsluis,Hellevoetsluis,Zuid-Holland,VBO,4.127628,51.841058
Haagwinde,70,,,3222XH,Hellevoetsluis,Hellevoetsluis,Zuid-Holland,VBO,4.127512,51.841047
Haagwinde,72,,,3222XH,Hellevoetsluis,Hellevoetsluis,Zuid-Holland,VBO,4.127425,51.841037
Haagwinde,74,,,3222XH,Hellevoetsluis,Hellevoetsluis,Zuid-Holland,VBO,4.127338,51.841036
Haagwinde,76,,,3222XH,Hellevoetsluis,Hellevoetsluis,Zuid-Holland,VBO,4.127251,51.841027
Haagwinde,78,,,3222XH,Hellevoetsluis,Hellevoetsluis,Zuid-Holland,VBO,4.127164,51.841026
Haagwinde,80,,,3222XH,Hellevoetsluis,Hellevoetsluis,Zuid-Holland,VBO,4.127077,51.841016
Helmstraat,1,a,,3222XJ,Hellevoetsluis,Hellevoetsluis,Zuid-Holland,VBO,4.134466,51.840430
Helmstraat,1,b,,3222XJ,Hellevoetsluis,Hellevoetsluis,Zuid-Holland,VBO,4.134349,51.840446
Helmstraat,1,,,3222XJ,Hellevoetsluis,Hellevoetsluis,Zuid-Holland,VBO,4.133596,51.840384
Helmstraat,3,,,3222XJ,Hellevoetsluis,Hellevoetsluis,Zuid-Holland,VBO,4.133510,51.840374
Helmstraat,5,,,3222XJ,Hellevoetsluis,Hellevoetsluis,Zuid-Holland,VBO,4.133423,51.840373
Helmstraat,7,,,3222XJ,Hellevoetsluis,Hellevoetsluis,Zuid-Holland,VBO,4.133336,51.840364
Helmstraat,9,,,3222XJ,Hellevoetsluis,Hellevoetsluis,Zuid-Holland,VBO,4.132988,51.840351
Helmstraat,11,,,3222XJ,Hellevoetsluis,Hellevoetsluis,Zuid-Holland,VBO,4.132887,51.840341
Helmstraat,13,,,3222XJ,Hellevoetsluis,Hellevoetsluis,Zuid-Holland,VBO,4.132785,51.840340
Helmstraat,15,,,3222XJ,Hellevoetsluis,Hellevoetsluis,Zuid-Holland,VBO,4.132698,51.840330
Helmstraat,17,,,3222XJ,Hellevoetsluis,Hellevoetsluis,Zuid-Holland,VBO,4.132597,51.840320
Helmstraat,19,,,3222XJ,Hellevoetsluis,Hellevoetsluis,Zuid-Holland,VBO,4.132524,51.840319
Helmstraat,21,,,3222XJ,Hellevoetsluis,Hellevoetsluis,Zuid-Holland,VBO,4.132177,51.840288
Helmstraat,23,,,3222XJ,Hellevoetsluis,Hellevoetsluis,Zuid-Holland,VBO,4.132090,51.840287
Helmstraat,25,,,3222XJ,Hellevoetsluis,Hellevoetsluis,Zuid-Holland,VBO,4.132003,51.840277
Helmstraat,27,,,3222XJ,Hellevoetsluis,Hellevoetsluis,Zuid-Holland,VBO,4.131916,51.840276
Helmstraat,29,,,3222XJ,Hellevoetsluis,Hellevoetsluis,Zuid-Holland,VBO,4.131829,51.840267
Helmstraat,31,,,3222XJ,Hellevoetsluis,Hellevoetsluis,Zuid-Holland,VBO,4.131757,51.840257
Helmstraat,33,,,3222XK,Hellevoetsluis,Hellevoetsluis,Zuid-Holland,VBO,4.131380,51.840235
Helmstraat,35,,,3222XK,Hellevoetsluis,Hellevoetsluis,Zuid-Holland,VBO,4.131294,51.840225
Helmstraat,37,,,3222XK,Hellevoetsluis,Hellevoetsluis,Zuid-Holland,VBO,4.131206,51.840224
Helmstraat,39,,,3222XK,Hellevoetsluis,Hellevoetsluis,Zuid-Holland,VBO,4.131120,51.840214
Helmstraat,41,,,3222XK,Hellevoetsluis,Hellevoetsluis,Zuid-Holland,VBO,4.131033,51.840213
Helmstraat,43,,,3222XK,Hellevoetsluis,Hellevoetsluis,Zuid-Holland,VBO,4.130946,51.840203
Helmstraat,45,,,3222XK,Hellevoetsluis,Hellevoetsluis,Zuid-Holland,VBO,4.130294,51.840160
Helmstraat,47,,,3222XK,Hellevoetsluis,Hellevoetsluis,Zuid-Holland,VBO,4.130207,51.840150
Helmstraat,49,,,3222XK,Hellevoetsluis,Hellevoetsluis,Zuid-Holland,VBO,4.130120,51.840149
Helmstraat,51,,,3222XK,Hellevoetsluis,Hellevoetsluis,Zuid-Holland,VBO,4.130033,51.840139
Helmstraat,53,,,3222XK,Hellevoetsluis,Hellevoetsluis,Zuid-Holland,VBO,4.128116,51.840721
Helmstraat,55,,,3222XK,Hellevoetsluis,Hellevoetsluis,Zuid-Holland,VBO,4.128132,51.840667
Helmstraat,57,,,3222XK,Hellevoetsluis,Hellevoetsluis,Zuid-Holland,VBO,4.128148,51.840614
Helmstraat,59,,,3222XK,Hellevoetsluis,Hellevoetsluis,Zuid-Holland,VBO,4.128150,51.840560
Helmstraat,61,,,3222XK,Hellevoetsluis,Hellevoetsluis,Zuid-Holland,VBO,4.127827,51.840682
Helmstraat,63,,,3222XK,Hellevoetsluis,Hellevoetsluis,Zuid-Holland,VBO,4.127740,51.840672
Helmstraat,65,,,3222XK,Hellevoetsluis,Hellevoetsluis,Zuid-Holland,VBO,4.127653,51.840662
Helmstraat,67,,,3222XK,Hellevoetsluis,Hellevoetsluis,Zuid-Holland,VBO,4.127566,51.840661
Helmstraat,69,,,3222XK,Hellevoetsluis,Hellevoetsluis,Zuid-Holland,VBO,4.127479,51.840651
Helmstraat,71,a,,3222XK,Hellevoetsluis,Hellevoetsluis,Zuid-Holland,VBO,4.127262,51.840640
Helmstraat,71,b,,3222XK,Hellevoetsluis,Hellevoetsluis,Zuid-Holland,VBO,4.127264,51.840635
Helmstraat,71,,,3222XK,Hellevoetsluis,Hellevoetsluis,Zuid-Holland,VBO,4.127392,51.840650
Meidoornstraat,1,,,3222XL,Hellevoetsluis,Hellevoetsluis,Zuid-Holland,VBO,4.132797,51.838884
Meidoornstraat,2,,,3222XL,Hellevoetsluis,Hellevoetsluis,Zuid-Holland,VBO,4.133156,51.839013
Meidoornstraat,3,,,3222XL,Hellevoetsluis,Hellevoetsluis,Zuid-Holland,VBO,4.132795,51.838937
Meidoornstraat,4,,,3222XL,Hellevoetsluis,Hellevoetsluis,Zuid-Holland,VBO,4.133140,51.839058
Meidoornstraat,5,,,3222XL,Hellevoetsluis,Hellevoetsluis,Zuid-Holland,VBO,4.132779,51.838991
Meidoornstraat,6,,,3222XL,Hellevoetsluis,Hellevoetsluis,Zuid-Holland,VBO,4.133124,51.839103
Meidoornstraat,7,,,3222XL,Hellevoetsluis,Hellevoetsluis,Zuid-Holland,VBO,4.132778,51.839045
Meidoornstraat,8,,,3222XL,Hellevoetsluis,Hellevoetsluis,Zuid-Holland,VBO,4.133123,51.839148
Meidoornstraat,9,,,3222XL,Hellevoetsluis,Hellevoetsluis,Zuid-Holland,VBO,4.132762,51.839099
Meidoornstraat,10,,,3222XL,Hellevoetsluis,Hellevoetsluis,Zuid-Holland,VBO,4.133107,51.839201
Meidoornstraat,11,,,3222XL,Hellevoetsluis,Hellevoetsluis,Zuid-Holland,VBO,4.132745,51.839162
Meidoornstraat,12,,,3222XL,Hellevoetsluis,Hellevoetsluis,Zuid-Holland,VBO,4.133106,51.839237
Meidoornstraat,13,,,3222XL,Hellevoetsluis,Hellevoetsluis,Zuid-Holland,VBO,4.132744,51.839216
Meidoornstraat,14,,,3222XL,Hellevoetsluis,Hellevoetsluis,Zuid-Holland,VBO,4.133090,51.839282
Meidoornstraat,15,,,3222XL,Hellevoetsluis,Hellevoetsluis,Zuid-Holland,VBO,4.132728,51.839269
Meidoornstraat,16,,,3222XL,Hellevoetsluis,Hellevoetsluis,Zuid-Holland,VBO,4.133089,51.839327
Tenellalaan,1,,,3222XM,Hellevoetsluis,Hellevoetsluis,Zuid-Holland,VBO,4.133976,51.839786
Tenellalaan,3,,,3222XM,Hellevoetsluis,Hellevoetsluis,Zuid-Holland,VBO,4.133960,51.839849
Tenellalaan,5,,,3222XM,Hellevoetsluis,Hellevoetsluis,Zuid-Holland,VBO,4.133958,51.839903
Tenellalaan,7,,,3222XM,Hellevoetsluis,Hellevoetsluis,Zuid-Holland,VBO,4.133942,51.839957
Tenellalaan,9,,,3222XM,Hellevoetsluis,Hellevoetsluis,Zuid-Holland,VBO,4.133941,51.840010
Tenellalaan,11,,,3222XM,Hellevoetsluis,Hellevoetsluis,Zuid-Holland,VBO,4.133924,51.840073
Tenellalaan,13,,,3222XM,Hellevoetsluis,Hellevoetsluis,Zuid-Holland,VBO,4.133922,51.840163
Tenellalaan,15,,,3222XM,Hellevoetsluis,Hellevoetsluis,Zuid-Holland,VBO,4.133906,51.840217
Tenellalaan,17,,,3222XM,Hellevoetsluis,Hellevoetsluis,Zuid-Holland,VBO,4.133904,51.840271
Tenellalaan,19,,,3222XM,Hellevoetsluis,Hellevoetsluis,Zuid-Holland,VBO,4.133888,51.840325
Tenellalaan,21,,,3222XM,Hellevoetsluis,Hellevoetsluis,Zuid-Holland,VBO,4.133887,51.840378
Tenellalaan,23,,,3222XM,Hellevoetsluis,Hellevoetsluis,Zuid-Holland,VBO,4.133871,51.840432
Tijmstraat,1,,,3222XN,Hellevoetsluis,Hellevoetsluis,Zuid-Holland,VBO,4.129132,51.840184
Tijmstraat,2,,,3222XN,Hellevoetsluis,Hellevoetsluis,Zuid-Holland,VBO,4.128905,51.840523
Tijmstraat,3,,,3222XN,Hellevoetsluis,Hellevoetsluis,Zuid-Holland,VBO,4.129047,51.840120
Tijmstraat,4,,,3222XN,Hellevoetsluis,Hellevoetsluis,Zuid-Holland,VBO,4.128805,51.840468
Tijmstraat,5,,,3222XN,Hellevoetsluis,Hellevoetsluis,Zuid-Holland,VBO,4.128976,51.840056
Tijmstraat,6,,,3222XN,Hellevoetsluis,Hellevoetsluis,Zuid-Holland,VBO,4.128720,51.840404
Tijmstraat,7,,,3222XN,Hellevoetsluis,Hellevoetsluis,Zuid-Holland,VBO,4.128905,51.840002
Tijmstraat,8,,,3222XN,Hellevoetsluis,Hellevoetsluis,Zuid-Holland,VBO,4.128678,51.840332
Varenstraat,1,,,3222XP,Hellevoetsluis,Hellevoetsluis,Zuid-Holland,VBO,4.133075,51.839839
Varenstraat,2,,,3222XP,Hellevoetsluis,Hellevoetsluis,Zuid-Holland,VBO,4.133489,51.839565
Varenstraat,3,,,3222XP,Hellevoetsluis,Hellevoetsluis,Zuid-Holland,VBO,4.132988,51.839829
Varenstraat,4,,,3222XP,Hellevoetsluis,Hellevoetsluis,Zuid-Holland,VBO,4.133473,51.839619
Varenstraat,5,,,3222XP,Hellevoetsluis,Hellevoetsluis,Zuid-Holland,VBO,4.132901,51.839820
Varenstraat,6,,,3222XP,Hellevoetsluis,Hellevoetsluis,Zuid-Holland,VBO,4.133471,51.839682
Varenstraat,7,,,3222XP,Hellevoetsluis,Hellevoetsluis,Zuid-Holland,VBO,4.132814,51.839819
Varenstraat,8,,,3222XP,Hellevoetsluis,Hellevoetsluis,Zuid-Holland,VBO,4.133455,51.839736
Varenstraat,9,,,3222XP,Hellevoetsluis,Hellevoetsluis,Zuid-Holland,VBO,4.132727,51.839809
Varenstraat,10,,,3222XP,Hellevoetsluis,Hellevoetsluis,Zuid-Holland,VBO,4.133439,51.839789
Varenstraat,11,,,3222XP,Hellevoetsluis,Hellevoetsluis,Zuid-Holland,VBO,4.132640,51.839808
Varenstraat,12,,,3222XP,Hellevoetsluis,Hellevoetsluis,Zuid-Holland,VBO,4.133437,51.839843
Varenstraat,13,,,3222XP,Hellevoetsluis,Hellevoetsluis,Zuid-Holland,VBO,4.132295,51.839714
Varenstraat,14,,,3222XP,Hellevoetsluis,Hellevoetsluis,Zuid-Holland,VBO,4.133435,51.839942
Varenstraat,15,,,3222XP,Hellevoetsluis,Hellevoetsluis,Zuid-Holland,VBO,4.132279,51.839768
Varenstraat,16,,,3222XP,Hellevoetsluis,Hellevoetsluis,Zuid-Holland,VBO,4.133419,51.839996
Varenstraat,17,,,3222XP,Hellevoetsluis,Hellevoetsluis,Zuid-Holland,VBO,4.132277,51.839822
Varenstraat,18,,,3222XP,Hellevoetsluis,Hellevoetsluis,Zuid-Holland,VBO,4.133417,51.840050
Varenstraat,19,,,3222XP,Hellevoetsluis,Hellevoetsluis,Zuid-Holland,VBO,4.132261,51.839876
Varenstraat,20,,,3222XP,Hellevoetsluis,Hellevoetsluis,Zuid-Holland,VBO,4.133401,51.840104
Varenstraat,21,,,3222XP,Hellevoetsluis,Hellevoetsluis,Zuid-Holland,VBO,4.132260,51.839930
Varenstraat,22,,,3222XP,Hellevoetsluis,Hellevoetsluis,Zuid-Holland,VBO,4.133385,51.840157
Varenstraat,23,,,3222XP,Hellevoetsluis,Hellevoetsluis,Zuid-Holland,VBO,4.132244,51.839983
Varenstraat,24,,,3222XP,Hellevoetsluis,Hellevoetsluis,Zuid-Holland,VBO,4.133384,51.840211
Varenstraat,25,,,3222XP,Hellevoetsluis,Hellevoetsluis,Zuid-Holland,VBO,4.132228,51.840037
Varenstraat,26,,,3222XP,Hellevoetsluis,Hellevoetsluis,Zuid-Holland,VBO,4.133025,51.840055
Varenstraat,27,,,3222XP,Hellevoetsluis,Hellevoetsluis,Zuid-Holland,VBO,4.132226,51.840091
Varenstraat,28,,,3222XP,Hellevoetsluis,Hellevoetsluis,Zuid-Holland,VBO,4.132938,51.840045
Varenstraat,30,,,3222XP,Hellevoetsluis,Hellevoetsluis,Zuid-Holland,VBO,4.132851,51.840044
Varenstraat,32,,,3222XP,Hellevoetsluis,Hellevoetsluis,Zuid-Holland,VBO,4.132765,51.840034
Varenstraat,34,,,3222XP,Hellevoetsluis,Hellevoetsluis,Zuid-Holland,VBO,4.132677,51.840033
Varenstraat,36,,,3222XP,Hellevoetsluis,Hellevoetsluis,Zuid-Holland,VBO,4.132591,51.840023
Zeeasterstraat,1,,,3222XR,Hellevoetsluis,Hellevoetsluis,Zuid-Holland,VBO,4.131482,51.839723
Zeeasterstraat,2,,,3222XR,Hellevoetsluis,Hellevoetsluis,Zuid-Holland,VBO,4.131846,51.839682
Zeeasterstraat,3,,,3222XR,Hellevoetsluis,Hellevoetsluis,Zuid-Holland,VBO,4.131380,51.839713
Zeeasterstraat,4,,,3222XR,Hellevoetsluis,Hellevoetsluis,Zuid-Holland,VBO,4.131830,51.839727
Zeeasterstraat,5,,,3222XR,Hellevoetsluis,Hellevoetsluis,Zuid-Holland,VBO,4.131294,51.839703
Zeeasterstraat,6,,,3222XR,Hellevoetsluis,Hellevoetsluis,Zuid-Holland,VBO,4.131828,51.839781
Zeeasterstraat,7,,,3222XR,Hellevoetsluis,Hellevoetsluis,Zuid-Holland,VBO,4.131192,51.839702
Zeeasterstraat,8,,,3222XR,Hellevoetsluis,Hellevoetsluis,Zuid-Holland,VBO,4.131812,51.839835
Zeeasterstraat,9,,,3222XR,Hellevoetsluis,Hellevoetsluis,Zuid-Holland,VBO,4.131091,51.839692
Zeeasterstraat,10,,,3222XR,Hellevoetsluis,Hellevoetsluis,Zuid-Holland,VBO,4.131796,51.839898
Zeeasterstraat,11,,,3222XR,Hellevoetsluis,Hellevoetsluis,Zuid-Holland,VBO,4.130989,51.839682
Zeeasterstraat,12,,,3222XR,Hellevoetsluis,Hellevoetsluis,Zuid-Holland,VBO,4.131795,51.839952
Zeeasterstraat,13,,,3222XR,Hellevoetsluis,Hellevoetsluis,Zuid-Holland,VBO,4.130702,51.839571
Zeeasterstraat,14,,,3222XR,Hellevoetsluis,Hellevoetsluis,Zuid-Holland,VBO,4.131779,51.840005
Zeeasterstraat,15,,,3222XR,Hellevoetsluis,Hellevoetsluis,Zuid-Holland,VBO,4.130701,51.839625
Zeeasterstraat,16,,,3222XR,Hellevoetsluis,Hellevoetsluis,Zuid-Holland,VBO,4.131777,51.840059
Zeeasterstraat,17,,,3222XR,Hellevoetsluis,Hellevoetsluis,Zuid-Holland,VBO,4.130685,51.839679
Zeeasterstraat,18,,,3222XR,Hellevoetsluis,Hellevoetsluis,Zuid-Holland,VBO,4.131432,51.839939
Zeeasterstraat,19,,,3222XR,Hellevoetsluis,Hellevoetsluis,Zuid-Holland,VBO,4.130683,51.839733
Zeeasterstraat,20,,,3222XR,Hellevoetsluis,Hellevoetsluis,Zuid-Holland,VBO,4.131345,51.839938
Zeeasterstraat,21,,,3222XR,Hellevoetsluis,Hellevoetsluis,Zuid-Holland,VBO,4.130666,51.839823
Zeeasterstraat,22,,,3222XR,Hellevoetsluis,Hellevoetsluis,Zuid-Holland,VBO,4.131258,51.839928
Zeeasterstraat,23,,,3222XR,Hellevoetsluis,Hellevoetsluis,Zuid-Holland,VBO,4.130650,51.839885
Zeeasterstraat,24,,,3222XR,Hellevoetsluis,Hellevoetsluis,Zuid-Holland,VBO,4.131171,51.839918
Zeeasterstraat,25,,,3222XR,Hellevoetsluis,Hellevoetsluis,Zuid-Holland,VBO,4.130648,51.839939
Zeeasterstraat,26,,,3222XR,Hellevoetsluis,Hellevoetsluis,Zuid-Holland,VBO,4.131084,51.839917
Zeeasterstraat,27,,,3222XR,Hellevoetsluis,Hellevoetsluis,Zuid-Holland,VBO,4.130632,51.839993
Zeeasterstraat,28,,,3222XR,Hellevoetsluis,Hellevoetsluis,Zuid-Holland,VBO,4.130998,51.839907
Zeeasterstraat,29,,,3222XR,Hellevoetsluis,Hellevoetsluis,Zuid-Holland,VBO,4.130631,51.840038
Zeeasterstraat,31,,,3222XR,Hellevoetsluis,Hellevoetsluis,Zuid-Holland,VBO,4.130615,51.840092
Zeeasterstraat,33,,,3222XR,Hellevoetsluis,Hellevoetsluis,Zuid-Holland,VBO,4.130599,51.840146
Zeeasterstraat,35,,,3222XR,Hellevoetsluis,Hellevoetsluis,Zuid-Holland,VBO,4.130598,51.840199
Zeekraal,1,,,3222XS,Hellevoetsluis,Hellevoetsluis,Zuid-Holland,VBO,4.129610,51.838670
Zeekraal,3,,,3222XS,Hellevoetsluis,Hellevoetsluis,Zuid-Holland,VBO,4.129523,51.838660
Zeekraal,5,,,3222XS,Hellevoetsluis,Hellevoetsluis,Zuid-Holland,VBO,4.129436,51.838659
Zeekraal,7,,,3222XS,Hellevoetsluis,Hellevoetsluis,Zuid-Holland,VBO,4.129349,51.838649
Zeekraal,9,,,3222XS,Hellevoetsluis,Hellevoetsluis,Zuid-Holland,VBO,4.129262,51.838648
Zeekraal,11,,,3222XS,Hellevoetsluis,Hellevoetsluis,Zuid-Holland,VBO,4.129161,51.838638
Zeekraal,13,,,3222XS,Hellevoetsluis,Hellevoetsluis,Zuid-Holland,VBO,4.129074,51.838628
Zeekraal,15,,,3222XS,Hellevoetsluis,Hellevoetsluis,Zuid-Holland,VBO,4.128987,51.838627
Zeekraal,17,a,,3222XS,Hellevoetsluis,Hellevoetsluis,Zuid-Holland,VBO,4.128831,51.838491
Zeekraal,17,b,,3222XS,Hellevoetsluis,Hellevoetsluis,Zuid-Holland,VBO,4.128788,51.838490
Zeekraal,17,c,,3222XS,Hellevoetsluis,Hellevoetsluis,Zuid-Holland,VBO,4.128759,51.838481
Zeekraal,17,d,,3222XS,Hellevoetsluis,Hellevoetsluis,Zuid-Holland,VBO,4.128701,51.838480
Zeekraal,17,e,,3222XS,Hellevoetsluis,Hellevoetsluis,Zuid-Holland,VBO,4.128672,51.838480
Zeekraal,17,f,,3222XS,Hellevoetsluis,Hellevoetsluis,Zuid-Holland,VBO,4.128629,51.838479
Zeekraal,17,g,,3222XS,Hellevoetsluis,Hellevoetsluis,Zuid-Holland,VBO,4.128600,51.838470
Zeekraal,17,h,,3222XS,Hellevoetsluis,Hellevoetsluis,Zuid-Holland,VBO,4.128556,51.838470
Zeekraal,17,i,,3222XS,Hellevoetsluis,Hellevoetsluis,Zuid-Holland,VBO,4.128513,51.838469
Zeekraal,17,j,,3222XS,Hellevoetsluis,Hellevoetsluis,Zuid-Holland,VBO,4.128470,51.838460
Zeekraal,17,k,,3222XS,Hellevoetsluis,Hellevoetsluis,Zuid-Holland,VBO,4.128426,51.838459
Zeekraal,17,,,3222XS,Hellevoetsluis,Hellevoetsluis,Zuid-Holland,VBO,4.128900,51.838617
Zeekraal,19,,,3222XS,Hellevoetsluis,Hellevoetsluis,Zuid-Holland,VBO,4.128594,51.838686
Zeekraal,21,,,3222XS,Hellevoetsluis,Hellevoetsluis,Zuid-Holland,VBO,4.128592,51.838740
Zeekraal,23,,,3222XS,Hellevoetsluis,Hellevoetsluis,Zuid-Holland,VBO,4.128576,51.838793
Zeekraal,25,,,3222XS,Hellevoetsluis,Hellevoetsluis,Zuid-Holland,VBO,4.128575,51.838847
Zilverschoon,2,,,3222XT,Hellevoetsluis,Hellevoetsluis,Zuid-Holland,VBO,4.127513,51.839987
Zilverschoon,4,,,3222XT,Hellevoetsluis,Hellevoetsluis,Zuid-Holland,VBO,4.127600,51.839988
Zilverschoon,6,,,3222XT,Hellevoetsluis,Hellevoetsluis,Zuid-Holland,VBO,4.127686,51.839997
Zilverschoon,8,,,3222XT,Hellevoetsluis,Hellevoetsluis,Zuid-Holland,VBO,4.127788,51.839999
Zilverschoon,10,,,3222XT,Hellevoetsluis,Hellevoetsluis,Zuid-Holland,VBO,4.128313,51.839914
Zilverschoon,12,,,3222XT,Hellevoetsluis,Hellevoetsluis,Zuid-Holland,VBO,4.128311,51.839968
Zilverschoon,14,,,3222XT,Hellevoetsluis,Hellevoetsluis,Zuid-Holland,VBO,4.128295,51.840022
Zilverschoon,16,,,3222XT,Hellevoetsluis,Hellevoetsluis,Zuid-Holland,VBO,4.128294,51.840076
Zilverschoon,18,,,3222XT,Hellevoetsluis,Hellevoetsluis,Zuid-Holland,VBO,4.128277,51.840139
Zilverschoon,20,,,3222XT,Hellevoetsluis,Hellevoetsluis,Zuid-Holland,VBO,4.128261,51.840192
Zilverschoon,22,,,3222XT,Hellevoetsluis,Hellevoetsluis,Zuid-Holland,VBO,4.128260,51.840246
Zilverschoon,24,,,3222XT,Hellevoetsluis,Hellevoetsluis,Zuid-Holland,VBO,4.128244,51.840300
Zilverschoon,26,,,3222XT,Hellevoetsluis,Hellevoetsluis,Zuid-Holland,VBO,4.128069,51.840334
Zilverschoon,28,,,3222XT,Hellevoetsluis,Hellevoetsluis,Zuid-Holland,VBO,4.127982,51.840333
Zilverschoon,30,,,3222XT,Hellevoetsluis,Hellevoetsluis,Zuid-Holland,VBO,4.127895,51.840323
Zilverschoon,32,,,3222XT,Hellevoetsluis,Hellevoetsluis,Zuid-Holland,VBO,4.127808,51.840313
Zilverschoon,34,,,3222XT,Hellevoetsluis,Hellevoetsluis,Zuid-Holland,VBO,4.127721,51.840312
Zilverschoon,36,,,3222XT,Hellevoetsluis,Hellevoetsluis,Zuid-Holland,VBO,4.127634,51.840303
Zilverschoon,38,,,3222XT,Hellevoetsluis,Hellevoetsluis,Zuid-Holland,VBO,4.127547,51.840302
Zilverschoon,40,,,3222XT,Hellevoetsluis,Hellevoetsluis,Zuid-Holland,VBO,4.127461,51.840292
