openbareruimtenaam,huisnummer,huisletter,huisnummertoevoeging,postcode,woonplaatsnaam,gemeentenaam,provincienaam,typeadresseerbaarobject,longitude,latitude
Amaliapad,1,,,3251AA,Stellendam,Goeree-Overflakkee,Zuid-Holland,VBO,4.023613,51.806727
Amaliapad,3,,,3251AA,Stellendam,Goeree-Overflakkee,Zuid-Holland,VBO,4.023491,51.806793
Amaliapad,5,,,3251AA,Stellendam,Goeree-Overflakkee,Zuid-Holland,VBO,4.023410,51.806834
Amaliapad,7,,,3251AA,Stellendam,Goeree-Overflakkee,Zuid-Holland,VBO,4.023336,51.806877
Amaliapad,9,,,3251AA,Stellendam,Goeree-Overflakkee,Zuid-Holland,VBO,4.023252,51.806933
Amaliapad,11,,,3251AA,Stellendam,Goeree-Overflakkee,Zuid-Holland,VBO,4.023199,51.806964
Amaliapad,13,,,3251AA,Stellendam,Goeree-Overflakkee,Zuid-Holland,VBO,4.023209,51.807091
Amaliapad,15,,,3251AA,Stellendam,Goeree-Overflakkee,Zuid-Holland,VBO,4.023156,51.807118
Amaliapad,17,,,3251AA,Stellendam,Goeree-Overflakkee,Zuid-Holland,VBO,4.023106,51.807149
Amaliapad,19,,,3251AA,Stellendam,Goeree-Overflakkee,Zuid-Holland,VBO,4.023055,51.807179
Amaliapad,21,,,3251AA,Stellendam,Goeree-Overflakkee,Zuid-Holland,VBO,4.023002,51.807208
Amaliapad,23,,,3251AA,Stellendam,Goeree-Overflakkee,Zuid-Holland,VBO,4.022946,51.807243
Amaliapad,25,,,3251AA,Stellendam,Goeree-Overflakkee,Zuid-Holland,VBO,4.023174,51.807063
Amaliapad,27,,,3251AA,Stellendam,Goeree-Overflakkee,Zuid-Holland,VBO,4.023121,51.807092
Amaliapad,29,,,3251AA,Stellendam,Goeree-Overflakkee,Zuid-Holland,VBO,4.023071,51.807119
Amaliapad,31,,,3251AA,Stellendam,Goeree-Overflakkee,Zuid-Holland,VBO,4.023021,51.807147
Amaliapad,33,,,3251AA,Stellendam,Goeree-Overflakkee,Zuid-Holland,VBO,4.022967,51.807181
Amaliapad,35,,,3251AA,Stellendam,Goeree-Overflakkee,Zuid-Holland,VBO,4.022909,51.807214
Amaliapad,37,,,3251AA,Stellendam,Goeree-Overflakkee,Zuid-Holland,VBO,4.023155,51.807028
Amaliapad,39,,,3251AA,Stellendam,Goeree-Overflakkee,Zuid-Holland,VBO,4.023101,51.807056
Amaliapad,41,,,3251AA,Stellendam,Goeree-Overflakkee,Zuid-Holland,VBO,4.023056,51.807084
Amaliapad,43,,,3251AA,Stellendam,Goeree-Overflakkee,Zuid-Holland,VBO,4.023008,51.807112
Amaliapad,45,,,3251AA,Stellendam,Goeree-Overflakkee,Zuid-Holland,VBO,4.022960,51.807141
Amaliapad,47,,,3251AA,Stellendam,Goeree-Overflakkee,Zuid-Holland,VBO,4.022909,51.807171
Amaliapad,49,,,3251AA,Stellendam,Goeree-Overflakkee,Zuid-Holland,VBO,4.022854,51.807196
Amaliapad,51,,,3251AA,Stellendam,Goeree-Overflakkee,Zuid-Holland,VBO,4.023119,51.807000
Amaliapad,53,,,3251AA,Stellendam,Goeree-Overflakkee,Zuid-Holland,VBO,4.023074,51.807025
Amaliapad,55,,,3251AA,Stellendam,Goeree-Overflakkee,Zuid-Holland,VBO,4.023026,51.807057
Amaliapad,57,,,3251AA,Stellendam,Goeree-Overflakkee,Zuid-Holland,VBO,4.022978,51.807086
Amaliapad,59,,,3251AA,Stellendam,Goeree-Overflakkee,Zuid-Holland,VBO,4.022928,51.807113
Amaliapad,61,,,3251AA,Stellendam,Goeree-Overflakkee,Zuid-Holland,VBO,4.022879,51.807142
Amaliapad,63,,,3251AA,Stellendam,Goeree-Overflakkee,Zuid-Holland,VBO,4.022820,51.807167
Amaliapad,65,,,3251AA,Stellendam,Goeree-Overflakkee,Zuid-Holland,VBO,4.023079,51.806972
Amaliapad,67,,,3251AA,Stellendam,Goeree-Overflakkee,Zuid-Holland,VBO,4.023033,51.806997
Amaliapad,69,,,3251AA,Stellendam,Goeree-Overflakkee,Zuid-Holland,VBO,4.022990,51.807026
Amaliapad,71,,,3251AA,Stellendam,Goeree-Overflakkee,Zuid-Holland,VBO,4.022940,51.807055
Amaliapad,73,,,3251AA,Stellendam,Goeree-Overflakkee,Zuid-Holland,VBO,4.022889,51.807086
Amaliapad,75,,,3251AA,Stellendam,Goeree-Overflakkee,Zuid-Holland,VBO,4.022838,51.807112
Bosschieterstraat,1,,,3251AB,Stellendam,Goeree-Overflakkee,Zuid-Holland,VBO,4.029065,51.805542
Bosschieterstraat,2,,,3251AB,Stellendam,Goeree-Overflakkee,Zuid-Holland,VBO,4.028594,51.805793
Bosschieterstraat,4,,,3251AB,Stellendam,Goeree-Overflakkee,Zuid-Holland,VBO,4.028503,51.805666
Bosschieterstraat,6,,,3251AB,Stellendam,Goeree-Overflakkee,Zuid-Holland,VBO,4.028131,51.805500
Bosschieterstraat,7,,,3251AB,Stellendam,Goeree-Overflakkee,Zuid-Holland,VBO,4.028830,51.805391
Bosschieterstraat,9,,,3251AB,Stellendam,Goeree-Overflakkee,Zuid-Holland,VBO,4.028642,51.805398
Bosschieterstraat,12,,,3251AB,Stellendam,Goeree-Overflakkee,Zuid-Holland,VBO,4.027792,51.805211
Bosschieterstraat,14,,,3251AB,Stellendam,Goeree-Overflakkee,Zuid-Holland,VBO,4.027441,51.804836
Bosschieterstraat,16,,,3251AB,Stellendam,Goeree-Overflakkee,Zuid-Holland,VBO,4.027369,51.804799
Bosschieterstraat,18,,,3251AB,Stellendam,Goeree-Overflakkee,Zuid-Holland,VBO,4.027149,51.804775
Bosschieterstraat,20,,,3251AB,Stellendam,Goeree-Overflakkee,Zuid-Holland,VBO,4.027167,51.804779
Bosschieterstraat,22,,,3251AB,Stellendam,Goeree-Overflakkee,Zuid-Holland,VBO,4.027149,51.804775
Bosschieterstraat,24,,,3251AB,Stellendam,Goeree-Overflakkee,Zuid-Holland,VBO,4.027149,51.804775
Bosschieterstraat,29,,,3251AB,Stellendam,Goeree-Overflakkee,Zuid-Holland,VBO,4.027633,51.804712
Bosschieterstraat,31,,,3251AB,Stellendam,Goeree-Overflakkee,Zuid-Holland,VBO,4.027590,51.804676
Bosschieterstraat,33,,,3251AB,Stellendam,Goeree-Overflakkee,Zuid-Holland,VBO,4.027548,51.804639
Bosschieterstraat,35,,,3251AB,Stellendam,Goeree-Overflakkee,Zuid-Holland,VBO,4.027491,51.804612
Bosschieterstraat,39,,,3251AB,Stellendam,Goeree-Overflakkee,Zuid-Holland,VBO,4.027306,51.804493
Bosschieterstraat,41,,,3251AB,Stellendam,Goeree-Overflakkee,Zuid-Holland,VBO,4.027235,51.804456
Deltastraat,1,,,3251AC,Stellendam,Goeree-Overflakkee,Zuid-Holland,VBO,4.026125,51.803757
Deltastraat,2,,,3251AC,Stellendam,Goeree-Overflakkee,Zuid-Holland,VBO,4.026233,51.804013
Deltastraat,3,,,3251AC,Stellendam,Goeree-Overflakkee,Zuid-Holland,VBO,4.025815,51.803918
Deltastraat,4,,,3251AC,Stellendam,Goeree-Overflakkee,Zuid-Holland,VBO,4.026160,51.804039
Deltastraat,5,,,3251AC,Stellendam,Goeree-Overflakkee,Zuid-Holland,VBO,4.025342,51.804236
Deltastraat,6,,,3251AC,Stellendam,Goeree-Overflakkee,Zuid-Holland,VBO,4.026070,51.804128
Deltastraat,7,,,3251AC,Stellendam,Goeree-Overflakkee,Zuid-Holland,VBO,4.025268,51.804271
Deltastraat,8,,,3251AC,Stellendam,Goeree-Overflakkee,Zuid-Holland,VBO,4.026025,51.804168
Deltastraat,10,,,3251AC,Stellendam,Goeree-Overflakkee,Zuid-Holland,VBO,4.025864,51.804224
Deltastraat,12,,,3251AC,Stellendam,Goeree-Overflakkee,Zuid-Holland,VBO,4.025790,51.804259
Deltastraat,14,,,3251AC,Stellendam,Goeree-Overflakkee,Zuid-Holland,VBO,4.025672,51.804330
Deltastraat,16,,,3251AC,Stellendam,Goeree-Overflakkee,Zuid-Holland,VBO,4.025599,51.804365
Deltastraat,18,,,3251AC,Stellendam,Goeree-Overflakkee,Zuid-Holland,VBO,4.025437,51.804435
Deltastraat,20,,,3251AC,Stellendam,Goeree-Overflakkee,Zuid-Holland,VBO,4.025361,51.804542
Dreef,1,,,3251AD,Stellendam,Goeree-Overflakkee,Zuid-Holland,VBO,4.026778,51.802752
Dreef,2,,,3251AD,Stellendam,Goeree-Overflakkee,Zuid-Holland,VBO,4.026918,51.802457
Dreef,3,,,3251AD,Stellendam,Goeree-Overflakkee,Zuid-Holland,VBO,4.026911,51.802672
Dreef,4,,,3251AD,Stellendam,Goeree-Overflakkee,Zuid-Holland,VBO,4.027021,51.802404
Dreef,5,,,3251AD,Stellendam,Goeree-Overflakkee,Zuid-Holland,VBO,4.026970,51.802637
Dreef,6,,,3251AD,Stellendam,Goeree-Overflakkee,Zuid-Holland,VBO,4.027110,51.802351
Dreef,7,,,3251AD,Stellendam,Goeree-Overflakkee,Zuid-Holland,VBO,4.027118,51.802558
Dreef,8,,,3251AD,Stellendam,Goeree-Overflakkee,Zuid-Holland,VBO,4.027198,51.802298
Dreef,9,,,3251AD,Stellendam,Goeree-Overflakkee,Zuid-Holland,VBO,4.027177,51.802523
Dreef,10,,,3251AD,Stellendam,Goeree-Overflakkee,Zuid-Holland,VBO,4.027286,51.802254
Dreef,11,,,3251AD,Stellendam,Goeree-Overflakkee,Zuid-Holland,VBO,4.027295,51.802452
Dreef,12,,,3251AD,Stellendam,Goeree-Overflakkee,Zuid-Holland,VBO,4.027375,51.802201
Dreef,13,,,3251AD,Stellendam,Goeree-Overflakkee,Zuid-Holland,VBO,4.027369,51.802417
Dreef,14,,,3251AD,Stellendam,Goeree-Overflakkee,Zuid-Holland,VBO,4.027464,51.802148
Dreef,15,,,3251AD,Stellendam,Goeree-Overflakkee,Zuid-Holland,VBO,4.027501,51.802347
Dreef,16,,,3251AD,Stellendam,Goeree-Overflakkee,Zuid-Holland,VBO,4.027552,51.802104
Dreef,17,,,3251AD,Stellendam,Goeree-Overflakkee,Zuid-Holland,VBO,4.027603,51.802310
Dreef,18,,,3251AD,Stellendam,Goeree-Overflakkee,Zuid-Holland,VBO,4.027628,51.801979
Dreef,19,,,3251AD,Stellendam,Goeree-Overflakkee,Zuid-Holland,VBO,4.027636,51.802291
Dreef,20,,,3251AD,Stellendam,Goeree-Overflakkee,Zuid-Holland,VBO,4.027599,51.801997
Dreef,21,,,3251AD,Stellendam,Goeree-Overflakkee,Zuid-Holland,VBO,4.027670,51.802272
Dreef,22,,,3251AD,Stellendam,Goeree-Overflakkee,Zuid-Holland,VBO,4.027584,51.802006
Eendrachtsdijk,1,,,3251AG,Stellendam,Goeree-Overflakkee,Zuid-Holland,VBO,4.032364,51.804722
Eendrachtsdijk,2,,,3251AG,Stellendam,Goeree-Overflakkee,Zuid-Holland,VBO,4.031120,51.803045
Eendrachtsdijk,3,,,3251AG,Stellendam,Goeree-Overflakkee,Zuid-Holland,VBO,4.032757,51.802852
Eendrachtsdijk,5,,,3251AG,Stellendam,Goeree-Overflakkee,Zuid-Holland,VBO,4.033270,51.802247
Eendrachtsdijk,6,,,3251AG,Stellendam,Goeree-Overflakkee,Zuid-Holland,VBO,4.031971,51.802209
Eendrachtsdijk,8,,,3251AG,Stellendam,Goeree-Overflakkee,Zuid-Holland,VBO,4.032094,51.801781
Eendrachtsdijk,10,A,,3251AG,Stellendam,Goeree-Overflakkee,Zuid-Holland,VBO,4.033105,51.800422
Eendrachtsdijk,10,B,,3251AG,Stellendam,Goeree-Overflakkee,Zuid-Holland,VBO,4.031420,51.799308
Eendrachtsdijk,10,C,,3251AG,Stellendam,Goeree-Overflakkee,Zuid-Holland,VBO,4.032558,51.801488
Eendrachtsdijk,10,,,3251AG,Stellendam,Goeree-Overflakkee,Zuid-Holland,VBO,4.032919,51.800099
Eendrachtsdijk,12,,,3251AG,Stellendam,Goeree-Overflakkee,Zuid-Holland,VBO,4.033534,51.799917
Eendrachtsdijk,14,,,3251AG,Stellendam,Goeree-Overflakkee,Zuid-Holland,VBO,4.033732,51.799587
Eendrachtsdijk,16,,,3251AG,Stellendam,Goeree-Overflakkee,Zuid-Holland,VBO,4.034627,51.798258
Eendrachtsweg,1,,,3251AH,Stellendam,Goeree-Overflakkee,Zuid-Holland,VBO,4.030720,51.803606
Eendrachtsweg,2,,,3251AH,Stellendam,Goeree-Overflakkee,Zuid-Holland,VBO,4.030678,51.803732
Eendrachtsweg,3,,,3251AH,Stellendam,Goeree-Overflakkee,Zuid-Holland,VBO,4.030506,51.803849
Eendrachtsweg,5,,,3251AH,Stellendam,Goeree-Overflakkee,Zuid-Holland,VBO,4.029677,51.805212
Eendrachtsweg,6,,,3251AH,Stellendam,Goeree-Overflakkee,Zuid-Holland,VBO,4.029221,51.805683
Eendrachtsweg,7,,,3251AH,Stellendam,Goeree-Overflakkee,Zuid-Holland,VBO,4.029196,51.805764
Eendrachtsweg,8,,,3251AH,Stellendam,Goeree-Overflakkee,Zuid-Holland,VBO,4.028726,51.806288
Eendrachtsweg,9,,,3251AH,Stellendam,Goeree-Overflakkee,Zuid-Holland,VBO,4.028628,51.806333
Eendrachtsweg,10,,,3251AH,Stellendam,Goeree-Overflakkee,Zuid-Holland,VBO,4.028569,51.806377
Eendrachtsweg,12,,,3251AH,Stellendam,Goeree-Overflakkee,Zuid-Holland,VBO,4.028495,51.806421
Eendrachtsweg,13,,,3251AH,Stellendam,Goeree-Overflakkee,Zuid-Holland,VBO,4.028184,51.806157
Eendrachtsweg,14,,,3251AH,Stellendam,Goeree-Overflakkee,Zuid-Holland,VBO,4.028403,51.806582
Eendrachtsweg,15,,,3251AH,Stellendam,Goeree-Overflakkee,Zuid-Holland,VBO,4.028278,51.806868
Eendrachtsweg,16,,,3251AH,Stellendam,Goeree-Overflakkee,Zuid-Holland,VBO,4.028190,51.806921
Eendrachtsweg,17,A,,3251AH,Stellendam,Goeree-Overflakkee,Zuid-Holland,VBO,4.028093,51.807253
Eendrachtsweg,17,,,3251AH,Stellendam,Goeree-Overflakkee,Zuid-Holland,VBO,4.027954,51.807035
Eendrachtsweg,18,,,3251AH,Stellendam,Goeree-Overflakkee,Zuid-Holland,VBO,4.027659,51.807212
Eendrachtsweg,19,,,3251AH,Stellendam,Goeree-Overflakkee,Zuid-Holland,VBO,4.027512,51.807291
Eendrachtsweg,20,,,3251AH,Stellendam,Goeree-Overflakkee,Zuid-Holland,VBO,4.027083,51.807565
Eendrachtsweg,21,,,3251AH,Stellendam,Goeree-Overflakkee,Zuid-Holland,VBO,4.027024,51.807600
Eendrachtsweg,22,,,3251AH,Stellendam,Goeree-Overflakkee,Zuid-Holland,VBO,4.026965,51.807626
Eendrachtsweg,23,,,3251AH,Stellendam,Goeree-Overflakkee,Zuid-Holland,VBO,4.026858,51.807661
Eendrachtsweg,24,,,3251AH,Stellendam,Goeree-Overflakkee,Zuid-Holland,VBO,4.026400,51.808069
Eendrachtsweg,25,,,3251AH,Stellendam,Goeree-Overflakkee,Zuid-Holland,VBO,4.026341,51.808104
Eendrachtsweg,26,,,3251AH,Stellendam,Goeree-Overflakkee,Zuid-Holland,VBO,4.026268,51.808148
Eendrachtsweg,27,,,3251AH,Stellendam,Goeree-Overflakkee,Zuid-Holland,VBO,4.025723,51.808430
Eendrachtsweg,28,,,3251AH,Stellendam,Goeree-Overflakkee,Zuid-Holland,VBO,4.025648,51.808483
Eendrachtsweg,29,,,3251AH,Stellendam,Goeree-Overflakkee,Zuid-Holland,VBO,4.025142,51.808785
Eendrachtsweg,30,,,3251AH,Stellendam,Goeree-Overflakkee,Zuid-Holland,VBO,4.024970,51.808852
Eendrachtsweg,31,,,3251AH,Stellendam,Goeree-Overflakkee,Zuid-Holland,VBO,4.024734,51.808985
Eendrachtsweg,32,,,3251AH,Stellendam,Goeree-Overflakkee,Zuid-Holland,VBO,4.024395,51.809160
Eendrachtsweg,33,,,3251AH,Stellendam,Goeree-Overflakkee,Zuid-Holland,VBO,4.024081,51.809004
Eendrachtsweg,34,,,3251AH,Stellendam,Goeree-Overflakkee,Zuid-Holland,VBO,4.023912,51.808849
Eendrachtsweg,35,,,3251AH,Stellendam,Goeree-Overflakkee,Zuid-Holland,VBO,4.025821,51.809176
Elve,1,,,3251AJ,Stellendam,Goeree-Overflakkee,Zuid-Holland,VBO,4.027697,51.806924
Elve,3,,,3251AJ,Stellendam,Goeree-Overflakkee,Zuid-Holland,VBO,4.027513,51.806778
Elve,5,,,3251AJ,Stellendam,Goeree-Overflakkee,Zuid-Holland,VBO,4.026927,51.806250
Elve,7,,,3251AJ,Stellendam,Goeree-Overflakkee,Zuid-Holland,VBO,4.026478,51.805993
Fortjesweg,1,,,3251AK,Stellendam,Goeree-Overflakkee,Zuid-Holland,VBO,4.029413,51.803879
Fortjesweg,2,,,3251AK,Stellendam,Goeree-Overflakkee,Zuid-Holland,VBO,4.028605,51.803986
Fortjesweg,4,,,3251AK,Stellendam,Goeree-Overflakkee,Zuid-Holland,VBO,4.028649,51.803969
Fortjesweg,6,,,3251AK,Stellendam,Goeree-Overflakkee,Zuid-Holland,VBO,4.028685,51.803951
Fortjesweg,8,,,3251AK,Stellendam,Goeree-Overflakkee,Zuid-Holland,VBO,4.028729,51.803934
Fortjesweg,10,,,3251AK,Stellendam,Goeree-Overflakkee,Zuid-Holland,VBO,4.028759,51.803907
Fortjesweg,12,,,3251AK,Stellendam,Goeree-Overflakkee,Zuid-Holland,VBO,4.028796,51.803885
Fortjesweg,14,,,3251AK,Stellendam,Goeree-Overflakkee,Zuid-Holland,VBO,4.028926,51.803666
Fortjesweg,16,,,3251AK,Stellendam,Goeree-Overflakkee,Zuid-Holland,VBO,4.028862,51.803630
Fortjesweg,18,,,3251AK,Stellendam,Goeree-Overflakkee,Zuid-Holland,VBO,4.028798,51.803575
Fortjesweg,20,,,3251AK,Stellendam,Goeree-Overflakkee,Zuid-Holland,VBO,4.028734,51.803547
Fortjesweg,22,,,3251AK,Stellendam,Goeree-Overflakkee,Zuid-Holland,VBO,4.028655,51.803502
Fortjesweg,24,,,3251AK,Stellendam,Goeree-Overflakkee,Zuid-Holland,VBO,4.028914,51.803819
Fortjesweg,26,,,3251AK,Stellendam,Goeree-Overflakkee,Zuid-Holland,VBO,4.028987,51.803793
Fortjesweg,28,,,3251AK,Stellendam,Goeree-Overflakkee,Zuid-Holland,VBO,4.029039,51.803758
Fortjesweg,30,,,3251AK,Stellendam,Goeree-Overflakkee,Zuid-Holland,VBO,4.029098,51.803740
Fortjesweg,32,,,3251AK,Stellendam,Goeree-Overflakkee,Zuid-Holland,VBO,4.029467,51.803520
Fortjesweg,34,,,3251AK,Stellendam,Goeree-Overflakkee,Zuid-Holland,VBO,4.029541,51.803467
Kerkhoflaan,1,,,3251AL,Stellendam,Goeree-Overflakkee,Zuid-Holland,VBO,4.024893,51.803260
Kerkhoflaan,2,,,3251AL,Stellendam,Goeree-Overflakkee,Zuid-Holland,VBO,4.025395,51.803446
Kerkhoflaan,3,,,3251AL,Stellendam,Goeree-Overflakkee,Zuid-Holland,VBO,4.024212,51.803693
Kerkhoflaan,5,,,3251AL,Stellendam,Goeree-Overflakkee,Zuid-Holland,VBO,4.024212,51.803693
Kerkhoflaan,6,,,3251AL,Stellendam,Goeree-Overflakkee,Zuid-Holland,VBO,4.024910,51.803638
Kerkhoflaan,7,,,3251AL,Stellendam,Goeree-Overflakkee,Zuid-Holland,VBO,4.024212,51.803693
Kerkhoflaan,8,,,3251AL,Stellendam,Goeree-Overflakkee,Zuid-Holland,VBO,4.024851,51.803664
Kerkhoflaan,10,,,3251AL,Stellendam,Goeree-Overflakkee,Zuid-Holland,VBO,4.024825,51.803727
Kerkhoflaan,12,,,3251AL,Stellendam,Goeree-Overflakkee,Zuid-Holland,VBO,4.024718,51.803744
Kerkhoflaan,14,,,3251AL,Stellendam,Goeree-Overflakkee,Zuid-Holland,VBO,4.024674,51.803770
Kerkhoflaan,16,,,3251AL,Stellendam,Goeree-Overflakkee,Zuid-Holland,VBO,4.024586,51.803814
Kerkhoflaan,18,,,3251AL,Stellendam,Goeree-Overflakkee,Zuid-Holland,VBO,4.024527,51.803849
Kerkhoflaan,20,,,3251AL,Stellendam,Goeree-Overflakkee,Zuid-Holland,VBO,4.024453,51.803884
Kerksteeg,1,,,3251AM,Stellendam,Goeree-Overflakkee,Zuid-Holland,VBO,4.028443,51.805252
Kerksteeg,4,,,3251AM,Stellendam,Goeree-Overflakkee,Zuid-Holland,VBO,4.028617,51.805254
Keijzerstraat,1,,,3251AN,Stellendam,Goeree-Overflakkee,Zuid-Holland,VBO,4.024622,51.807401
Keijzerstraat,2,,,3251AN,Stellendam,Goeree-Overflakkee,Zuid-Holland,VBO,4.024313,51.808054
Keijzerstraat,3,,,3251AN,Stellendam,Goeree-Overflakkee,Zuid-Holland,VBO,4.024564,51.807427
Keijzerstraat,4,,,3251AN,Stellendam,Goeree-Overflakkee,Zuid-Holland,VBO,4.024239,51.808098
Keijzerstraat,5,,,3251AN,Stellendam,Goeree-Overflakkee,Zuid-Holland,VBO,4.024519,51.807463
Keijzerstraat,6,,,3251AN,Stellendam,Goeree-Overflakkee,Zuid-Holland,VBO,4.024451,51.808262
Keijzerstraat,7,,,3251AN,Stellendam,Goeree-Overflakkee,Zuid-Holland,VBO,4.024446,51.807498
Keijzerstraat,8,,,3251AN,Stellendam,Goeree-Overflakkee,Zuid-Holland,VBO,4.024530,51.808305
Keijzerstraat,9,,,3251AN,Stellendam,Goeree-Overflakkee,Zuid-Holland,VBO,4.024372,51.807533
Keijzerstraat,10,,,3251AN,Stellendam,Goeree-Overflakkee,Zuid-Holland,VBO,4.024681,51.808346
Keijzerstraat,11,,,3251AN,Stellendam,Goeree-Overflakkee,Zuid-Holland,VBO,4.024313,51.807577
Keijzerstraat,12,,,3251AN,Stellendam,Goeree-Overflakkee,Zuid-Holland,VBO,4.024781,51.808392
Keijzerstraat,13,,,3251AN,Stellendam,Goeree-Overflakkee,Zuid-Holland,VBO,4.024239,51.807621
Keijzerstraat,14,,,3251AN,Stellendam,Goeree-Overflakkee,Zuid-Holland,VBO,4.024940,51.808412
Keijzerstraat,15,,,3251AN,Stellendam,Goeree-Overflakkee,Zuid-Holland,VBO,4.024166,51.807630
Keijzerstraat,16,A,,3251AN,Stellendam,Goeree-Overflakkee,Zuid-Holland,VBO,4.025460,51.808280
Keijzerstraat,16,B,,3251AN,Stellendam,Goeree-Overflakkee,Zuid-Holland,VBO,4.025368,51.808278
Keijzerstraat,16,C,,3251AN,Stellendam,Goeree-Overflakkee,Zuid-Holland,VBO,4.024246,51.807596
Keijzerstraat,16,,,3251AN,Stellendam,Goeree-Overflakkee,Zuid-Holland,VBO,4.025040,51.808467
Keijzerstraat,17,,,3251AN,Stellendam,Goeree-Overflakkee,Zuid-Holland,VBO,4.024121,51.807683
Keijzerstraat,18,,,3251AN,Stellendam,Goeree-Overflakkee,Zuid-Holland,VBO,4.025299,51.808517
Keijzerstraat,19,,,3251AN,Stellendam,Goeree-Overflakkee,Zuid-Holland,VBO,4.024062,51.807718
Keijzerstraat,20,,,3251AN,Stellendam,Goeree-Overflakkee,Zuid-Holland,VBO,4.025399,51.808588
Keijzerstraat,21,,,3251AN,Stellendam,Goeree-Overflakkee,Zuid-Holland,VBO,4.024003,51.807745
Keijzerstraat,23,,,3251AN,Stellendam,Goeree-Overflakkee,Zuid-Holland,VBO,4.023944,51.807789
Keijzerstraat,25,,,3251AN,Stellendam,Goeree-Overflakkee,Zuid-Holland,VBO,4.023884,51.807842
Keijzerstraat,27,,,3251AN,Stellendam,Goeree-Overflakkee,Zuid-Holland,VBO,4.023825,51.807868
Keijzerstraat,29,,,3251AN,Stellendam,Goeree-Overflakkee,Zuid-Holland,VBO,4.023766,51.807913
Keijzerstraat,31,,,3251AN,Stellendam,Goeree-Overflakkee,Zuid-Holland,VBO,4.023692,51.807948
Keijzerstraat,55,,,3251AN,Stellendam,Goeree-Overflakkee,Zuid-Holland,VBO,4.024357,51.808522
Keijzerstraat,57,,,3251AN,Stellendam,Goeree-Overflakkee,Zuid-Holland,VBO,4.024297,51.808557
Keijzerstraat,59,,,3251AN,Stellendam,Goeree-Overflakkee,Zuid-Holland,VBO,4.024224,51.808601
Keijzerstraat,61,,,3251AN,Stellendam,Goeree-Overflakkee,Zuid-Holland,VBO,4.024135,51.808645
Keijzerstraat,63,,,3251AN,Stellendam,Goeree-Overflakkee,Zuid-Holland,VBO,4.024091,51.808680
Keijzerstraat,65,,,3251AN,Stellendam,Goeree-Overflakkee,Zuid-Holland,VBO,4.024032,51.808707
Keijzerstraat,67,,,3251AN,Stellendam,Goeree-Overflakkee,Zuid-Holland,VBO,4.024362,51.808809
Keijzerstraat,69,,,3251AN,Stellendam,Goeree-Overflakkee,Zuid-Holland,VBO,4.024450,51.808775
Keijzerstraat,71,,,3251AN,Stellendam,Goeree-Overflakkee,Zuid-Holland,VBO,4.024674,51.808714
Mr Iman Caustraat,1,A,,3251AP,Stellendam,Goeree-Overflakkee,Zuid-Holland,VBO,4.029986,51.804569
Mr Iman Caustraat,1,B,,3251AP,Stellendam,Goeree-Overflakkee,Zuid-Holland,VBO,4.029912,51.804631
Mr Iman Caustraat,1,C,,3251AP,Stellendam,Goeree-Overflakkee,Zuid-Holland,VBO,4.030102,51.804742
Mr Iman Caustraat,1,D,,3251AP,Stellendam,Goeree-Overflakkee,Zuid-Holland,VBO,4.029853,51.804675
Mr Iman Caustraat,1,E,,3251AP,Stellendam,Goeree-Overflakkee,Zuid-Holland,VBO,4.029778,51.804737
Mr Iman Caustraat,1,,,3251AP,Stellendam,Goeree-Overflakkee,Zuid-Holland,VBO,4.029969,51.804847
Mr Iman Caustraat,3,,,3251AP,Stellendam,Goeree-Overflakkee,Zuid-Holland,VBO,4.030006,51.804411
Mr Iman Caustraat,5,,,3251AP,Stellendam,Goeree-Overflakkee,Zuid-Holland,VBO,4.029733,51.804633
Mr Iman Caustraat,7,,,3251AP,Stellendam,Goeree-Overflakkee,Zuid-Holland,VBO,4.029580,51.804573
Mr Iman Caustraat,9,,,3251AP,Stellendam,Goeree-Overflakkee,Zuid-Holland,VBO,4.029495,51.804509
Mr Iman Caustraat,11,,,3251AP,Stellendam,Goeree-Overflakkee,Zuid-Holland,VBO,4.029395,51.804454
Mr Iman Caustraat,13,,,3251AP,Stellendam,Goeree-Overflakkee,Zuid-Holland,VBO,4.029198,51.804351
Mr Iman Caustraat,15,,,3251AP,Stellendam,Goeree-Overflakkee,Zuid-Holland,VBO,4.029192,51.804207
Mr Iman Caustraat,17,,,3251AP,Stellendam,Goeree-Overflakkee,Zuid-Holland,VBO,4.029060,51.804165
Mr Iman Caustraat,19,,,3251AP,Stellendam,Goeree-Overflakkee,Zuid-Holland,VBO,4.028911,51.804170
Mr Iman Caustraat,21,A,,3251AP,Stellendam,Goeree-Overflakkee,Zuid-Holland,VBO,4.028535,51.803900
Mr Iman Caustraat,21,,,3251AP,Stellendam,Goeree-Overflakkee,Zuid-Holland,VBO,4.028506,51.803873
Mr Iman Caustraat,23,,,3251AP,Stellendam,Goeree-Overflakkee,Zuid-Holland,VBO,4.028521,51.803873
Mr Iman Caustraat,25,,,3251AP,Stellendam,Goeree-Overflakkee,Zuid-Holland,VBO,4.028464,51.803836
Mr Iman Caustraat,27,,,3251AP,Stellendam,Goeree-Overflakkee,Zuid-Holland,VBO,4.028448,51.803827
Mr Iman Caustraat,29,,,3251AP,Stellendam,Goeree-Overflakkee,Zuid-Holland,VBO,4.028405,51.803800
Mr Iman Caustraat,31,,,3251AP,Stellendam,Goeree-Overflakkee,Zuid-Holland,VBO,4.028272,51.803713
Mr Iman Caustraat,33,,,3251AP,Stellendam,Goeree-Overflakkee,Zuid-Holland,VBO,4.028282,51.803619
Mr Iman Caustraat,35,,,3251AP,Stellendam,Goeree-Overflakkee,Zuid-Holland,VBO,4.028133,51.803511
Mr Iman Caustraat,37,,,3251AP,Stellendam,Goeree-Overflakkee,Zuid-Holland,VBO,4.027988,51.803530
Mr Iman Caustraat,39,,,3251AP,Stellendam,Goeree-Overflakkee,Zuid-Holland,VBO,4.027947,51.803430
Mr Iman Caustraat,41,,,3251AP,Stellendam,Goeree-Overflakkee,Zuid-Holland,VBO,4.027817,51.803429
Mr Iman Caustraat,43,,,3251AP,Stellendam,Goeree-Overflakkee,Zuid-Holland,VBO,4.027757,51.803350
Mr Iman Caustraat,45,,,3251AP,Stellendam,Goeree-Overflakkee,Zuid-Holland,VBO,4.027604,51.803256
Mr Iman Caustraat,47,,,3251AP,Stellendam,Goeree-Overflakkee,Zuid-Holland,VBO,4.027533,51.803210
Mr Iman Caustraat,49,,,3251AP,Stellendam,Goeree-Overflakkee,Zuid-Holland,VBO,4.027434,51.803146
Mr Iman Caustraat,51,,,3251AP,Stellendam,Goeree-Overflakkee,Zuid-Holland,VBO,4.027362,51.803109
Mr Iman Caustraat,53,,,3251AP,Stellendam,Goeree-Overflakkee,Zuid-Holland,VBO,4.027295,51.803039
Mr Iman Caustraat,55,A,,3251AP,Stellendam,Goeree-Overflakkee,Zuid-Holland,VBO,4.027306,51.802798
Mr Iman Caustraat,55,,,3251AP,Stellendam,Goeree-Overflakkee,Zuid-Holland,VBO,4.027091,51.802953
Mr Iman Caustraat,63,,,3251AP,Stellendam,Goeree-Overflakkee,Zuid-Holland,VBO,4.026518,51.802501
Mr Iman Caustraat,65,,,3251AP,Stellendam,Goeree-Overflakkee,Zuid-Holland,VBO,4.026405,51.802401
Mr Iman Caustraat,67,,,3251AP,Stellendam,Goeree-Overflakkee,Zuid-Holland,VBO,4.026234,51.802300
Mr Iman Caustraat,69,,,3251AP,Stellendam,Goeree-Overflakkee,Zuid-Holland,VBO,4.026026,51.802231
Mr Iman Caustraat,71,,,3251AP,Stellendam,Goeree-Overflakkee,Zuid-Holland,VBO,4.025926,51.802184
Mr Iman Caustraat,73,,,3251AP,Stellendam,Goeree-Overflakkee,Zuid-Holland,VBO,4.025884,51.802130
Mr Iman Caustraat,75,,,3251AP,Stellendam,Goeree-Overflakkee,Zuid-Holland,VBO,4.025787,51.801958
Mr Iman Caustraat,77,,,3251AP,Stellendam,Goeree-Overflakkee,Zuid-Holland,VBO,4.025500,51.801874
Mr Iman Caustraat,79,,,3251AP,Stellendam,Goeree-Overflakkee,Zuid-Holland,VBO,4.025415,51.801810
Mr Iman Caustraat,81,,,3251AP,Stellendam,Goeree-Overflakkee,Zuid-Holland,VBO,4.025318,51.801656
Mr Iman Caustraat,83,,,3251AP,Stellendam,Goeree-Overflakkee,Zuid-Holland,VBO,4.025131,51.801609
Mr Iman Caustraat,85,,,3251AP,Stellendam,Goeree-Overflakkee,Zuid-Holland,VBO,4.025046,51.801554
Mr Iman Caustraat,87,,,3251AP,Stellendam,Goeree-Overflakkee,Zuid-Holland,VBO,4.024946,51.801508
Mr Iman Caustraat,89,,,3251AP,Stellendam,Goeree-Overflakkee,Zuid-Holland,VBO,4.024890,51.801435
Mr Iman Caustraat,2,,,3251AR,Stellendam,Goeree-Overflakkee,Zuid-Holland,VBO,4.029689,51.805055
Mr Iman Caustraat,4,,,3251AR,Stellendam,Goeree-Overflakkee,Zuid-Holland,VBO,4.029605,51.805007
Mr Iman Caustraat,14,,,3251AR,Stellendam,Goeree-Overflakkee,Zuid-Holland,VBO,4.029335,51.804768
Mr Iman Caustraat,28,,,3251AR,Stellendam,Goeree-Overflakkee,Zuid-Holland,VBO,4.028680,51.804363
Mr Iman Caustraat,30,,,3251AR,Stellendam,Goeree-Overflakkee,Zuid-Holland,VBO,4.028384,51.804400
Mr Iman Caustraat,34,,,3251AR,Stellendam,Goeree-Overflakkee,Zuid-Holland,VBO,4.028369,51.804087
Mr Iman Caustraat,40,,,3251AR,Stellendam,Goeree-Overflakkee,Zuid-Holland,VBO,4.028061,51.803914
Mr Iman Caustraat,42,,,3251AR,Stellendam,Goeree-Overflakkee,Zuid-Holland,VBO,4.027815,51.803791
Mr Iman Caustraat,44,,,3251AR,Stellendam,Goeree-Overflakkee,Zuid-Holland,VBO,4.027792,51.803770
Mr Iman Caustraat,46,,,3251AR,Stellendam,Goeree-Overflakkee,Zuid-Holland,VBO,4.027755,51.803749
Mr Iman Caustraat,48,,,3251AR,Stellendam,Goeree-Overflakkee,Zuid-Holland,VBO,4.027725,51.803725
Mr Iman Caustraat,50,,,3251AR,Stellendam,Goeree-Overflakkee,Zuid-Holland,VBO,4.027766,51.803671
Mr Iman Caustraat,52,,,3251AR,Stellendam,Goeree-Overflakkee,Zuid-Holland,VBO,4.027709,51.803625
Mr Iman Caustraat,54,,,3251AR,Stellendam,Goeree-Overflakkee,Zuid-Holland,VBO,4.027638,51.803580
Mr Iman Caustraat,56,,,3251AR,Stellendam,Goeree-Overflakkee,Zuid-Holland,VBO,4.027595,51.803552
Mr Iman Caustraat,58,,,3251AR,Stellendam,Goeree-Overflakkee,Zuid-Holland,VBO,4.027524,51.803506
Mr Iman Caustraat,60,,,3251AR,Stellendam,Goeree-Overflakkee,Zuid-Holland,VBO,4.027365,51.803487
Mr Iman Caustraat,72,,,3251AR,Stellendam,Goeree-Overflakkee,Zuid-Holland,VBO,4.026285,51.802755
Mr Iman Caustraat,76,,,3251AR,Stellendam,Goeree-Overflakkee,Zuid-Holland,VBO,4.024963,51.801877
Nieuweweg,1,,,3251AS,Stellendam,Goeree-Overflakkee,Zuid-Holland,VBO,4.030488,51.803810
Nieuweweg,3,,,3251AS,Stellendam,Goeree-Overflakkee,Zuid-Holland,VBO,4.030318,51.803769
Nieuweweg,5,,,3251AS,Stellendam,Goeree-Overflakkee,Zuid-Holland,VBO,4.030217,51.803663
Nieuweweg,7,,,3251AS,Stellendam,Goeree-Overflakkee,Zuid-Holland,VBO,4.030189,51.803609
Nieuweweg,9,,,3251AS,Stellendam,Goeree-Overflakkee,Zuid-Holland,VBO,4.030004,51.803490
Nieuweweg,11,,,3251AS,Stellendam,Goeree-Overflakkee,Zuid-Holland,VBO,4.029933,51.803435
Nieuweweg,15,,,3251AS,Stellendam,Goeree-Overflakkee,Zuid-Holland,VBO,4.029813,51.803330
Nieuweweg,17,,,3251AS,Stellendam,Goeree-Overflakkee,Zuid-Holland,VBO,4.029735,51.803289
Nieuweweg,19,,,3251AS,Stellendam,Goeree-Overflakkee,Zuid-Holland,VBO,4.029628,51.803239
Nieuweweg,21,,,3251AS,Stellendam,Goeree-Overflakkee,Zuid-Holland,VBO,4.029574,51.803094
Nieuweweg,23,,,3251AS,Stellendam,Goeree-Overflakkee,Zuid-Holland,VBO,4.029422,51.803088
Nieuweweg,25,,,3251AS,Stellendam,Goeree-Overflakkee,Zuid-Holland,VBO,4.029425,51.802989
Nieuweweg,27,,,3251AS,Stellendam,Goeree-Overflakkee,Zuid-Holland,VBO,4.029280,51.802978
Nieuweweg,29,,,3251AS,Stellendam,Goeree-Overflakkee,Zuid-Holland,VBO,4.029276,51.802879
Nieuweweg,31,,,3251AS,Stellendam,Goeree-Overflakkee,Zuid-Holland,VBO,4.029183,51.802833
Nieuweweg,33,,,3251AS,Stellendam,Goeree-Overflakkee,Zuid-Holland,VBO,4.029108,51.802781
Nieuweweg,35,,,3251AS,Stellendam,Goeree-Overflakkee,Zuid-Holland,VBO,4.029061,51.802703
Nieuweweg,37,,,3251AS,Stellendam,Goeree-Overflakkee,Zuid-Holland,VBO,4.028926,51.802687
Nieuweweg,39,,,3251AS,Stellendam,Goeree-Overflakkee,Zuid-Holland,VBO,4.028856,51.802623
Nieuweweg,41,,,3251AS,Stellendam,Goeree-Overflakkee,Zuid-Holland,VBO,4.028770,51.802568
Nieuweweg,43,,,3251AS,Stellendam,Goeree-Overflakkee,Zuid-Holland,VBO,4.028795,51.802487
Nieuweweg,45,,,3251AS,Stellendam,Goeree-Overflakkee,Zuid-Holland,VBO,4.028629,51.802449
Nieuweweg,47,,,3251AS,Stellendam,Goeree-Overflakkee,Zuid-Holland,VBO,4.028572,51.802413
Nieuweweg,49,,,3251AS,Stellendam,Goeree-Overflakkee,Zuid-Holland,VBO,4.028516,51.802349
Nieuweweg,51,,,3251AS,Stellendam,Goeree-Overflakkee,Zuid-Holland,VBO,4.028459,51.802304
Nieuweweg,53,,,3251AS,Stellendam,Goeree-Overflakkee,Zuid-Holland,VBO,4.028345,51.802248
Nieuweweg,55,,,3251AS,Stellendam,Goeree-Overflakkee,Zuid-Holland,VBO,4.028274,51.802194
Nieuweweg,57,,,3251AS,Stellendam,Goeree-Overflakkee,Zuid-Holland,VBO,4.028204,51.802130
Nieuweweg,59,,,3251AS,Stellendam,Goeree-Overflakkee,Zuid-Holland,VBO,4.028120,51.802008
Nieuweweg,63,,,3251AS,Stellendam,Goeree-Overflakkee,Zuid-Holland,VBO,4.027987,51.801860
Nieuweweg,65,,,3251AS,Stellendam,Goeree-Overflakkee,Zuid-Holland,VBO,4.027834,51.801892
Nieuweweg,67,,,3251AS,Stellendam,Goeree-Overflakkee,Zuid-Holland,VBO,4.027763,51.801828
Nieuweweg,69,,,3251AS,Stellendam,Goeree-Overflakkee,Zuid-Holland,VBO,4.027663,51.801773
Nieuweweg,71,,,3251AS,Stellendam,Goeree-Overflakkee,Zuid-Holland,VBO,4.027578,51.801709
Nieuweweg,73,,,3251AS,Stellendam,Goeree-Overflakkee,Zuid-Holland,VBO,4.027481,51.801582
Nieuweweg,77,,,3251AS,Stellendam,Goeree-Overflakkee,Zuid-Holland,VBO,4.027355,51.801410
Nieuweweg,79,,,3251AS,Stellendam,Goeree-Overflakkee,Zuid-Holland,VBO,4.027084,51.801290
Nieuweweg,81,,,3251AS,Stellendam,Goeree-Overflakkee,Zuid-Holland,VBO,4.026928,51.801171
Nieuweweg,85,,,3251AS,Stellendam,Goeree-Overflakkee,Zuid-Holland,VBO,4.026757,51.801052
Nieuweweg,87,,,3251AS,Stellendam,Goeree-Overflakkee,Zuid-Holland,VBO,4.026701,51.801007
Nieuweweg,89,,,3251AS,Stellendam,Goeree-Overflakkee,Zuid-Holland,VBO,4.026571,51.800969
Nieuweweg,91,,,3251AS,Stellendam,Goeree-Overflakkee,Zuid-Holland,VBO,4.026487,51.800869
Nieuweweg,2,,,3251AT,Stellendam,Goeree-Overflakkee,Zuid-Holland,VBO,4.030377,51.804115
Nieuweweg,6,,,3251AT,Stellendam,Goeree-Overflakkee,Zuid-Holland,VBO,4.030279,51.803988
Nieuweweg,8,,,3251AT,Stellendam,Goeree-Overflakkee,Zuid-Holland,VBO,4.030193,51.803951
Nieuweweg,10,,,3251AT,Stellendam,Goeree-Overflakkee,Zuid-Holland,VBO,4.030137,51.803896
Nieuweweg,12,,,3251AT,Stellendam,Goeree-Overflakkee,Zuid-Holland,VBO,4.030051,51.803859
Nieuweweg,16,,,3251AT,Stellendam,Goeree-Overflakkee,Zuid-Holland,VBO,4.029923,51.803768
Nieuweweg,24,,,3251AT,Stellendam,Goeree-Overflakkee,Zuid-Holland,VBO,4.029485,51.803385
Nieuweweg,26,,,3251AT,Stellendam,Goeree-Overflakkee,Zuid-Holland,VBO,4.029384,51.803369
Nieuweweg,28,,,3251AT,Stellendam,Goeree-Overflakkee,Zuid-Holland,VBO,4.029372,51.803303
Nieuweweg,30,,,3251AT,Stellendam,Goeree-Overflakkee,Zuid-Holland,VBO,4.029271,51.803266
Nieuweweg,32,,,3251AT,Stellendam,Goeree-Overflakkee,Zuid-Holland,VBO,4.029216,51.803193
Nieuweweg,34,,,3251AT,Stellendam,Goeree-Overflakkee,Zuid-Holland,VBO,4.029059,51.803143
Nieuweweg,36,,,3251AT,Stellendam,Goeree-Overflakkee,Zuid-Holland,VBO,4.028988,51.803047
Nieuweweg,38,,,3251AT,Stellendam,Goeree-Overflakkee,Zuid-Holland,VBO,4.028917,51.803001
Nieuweweg,40,,,3251AT,Stellendam,Goeree-Overflakkee,Zuid-Holland,VBO,4.028891,51.802911
Nieuweweg,44,,,3251AT,Stellendam,Goeree-Overflakkee,Zuid-Holland,VBO,4.028705,51.802828
Nieuweweg,46,,,3251AT,Stellendam,Goeree-Overflakkee,Zuid-Holland,VBO,4.028634,51.802782
Nieuweweg,48,,,3251AT,Stellendam,Goeree-Overflakkee,Zuid-Holland,VBO,4.028578,51.802701
Nieuweweg,50,,,3251AT,Stellendam,Goeree-Overflakkee,Zuid-Holland,VBO,4.028507,51.802655
Nieuweweg,52,,,3251AT,Stellendam,Goeree-Overflakkee,Zuid-Holland,VBO,4.028392,51.802609
Nieuweweg,54,,,3251AT,Stellendam,Goeree-Overflakkee,Zuid-Holland,VBO,4.028270,51.802591
Nieuweweg,56,,,3251AT,Stellendam,Goeree-Overflakkee,Zuid-Holland,VBO,4.028192,51.802528
Nieuweweg,60,,,3251AT,Stellendam,Goeree-Overflakkee,Zuid-Holland,VBO,4.028052,51.802344
Nieuweweg,62,,,3251AT,Stellendam,Goeree-Overflakkee,Zuid-Holland,VBO,4.027967,51.802271
Nieuweweg,66,,,3251AT,Stellendam,Goeree-Overflakkee,Zuid-Holland,VBO,4.027797,51.802143
Nieuweweg,70,,,3251AT,Stellendam,Goeree-Overflakkee,Zuid-Holland,VBO,4.027441,51.801923
Nieuweweg,72,,,3251AT,Stellendam,Goeree-Overflakkee,Zuid-Holland,VBO,4.027386,51.801842
Nieuweweg,76,,,3251AT,Stellendam,Goeree-Overflakkee,Zuid-Holland,VBO,4.027176,51.801700
Nieuweweg,78,,,3251AT,Stellendam,Goeree-Overflakkee,Zuid-Holland,VBO,4.027117,51.801614
Nieuweweg,80,,,3251AT,Stellendam,Goeree-Overflakkee,Zuid-Holland,VBO,4.027046,51.801568
Nieuweweg,84,,,3251AT,Stellendam,Goeree-Overflakkee,Zuid-Holland,VBO,4.026890,51.801458
Nieuweweg,86,,,3251AT,Stellendam,Goeree-Overflakkee,Zuid-Holland,VBO,4.026805,51.801404
Nieuweweg,90,,,3251AT,Stellendam,Goeree-Overflakkee,Zuid-Holland,VBO,4.026603,51.801285
Nieuweweg,92,,,3251AT,Stellendam,Goeree-Overflakkee,Zuid-Holland,VBO,4.026477,51.801202
Nieuweweg,94,,,3251AT,Stellendam,Goeree-Overflakkee,Zuid-Holland,VBO,4.026349,51.801111
Nieuweweg,96,,,3251AT,Stellendam,Goeree-Overflakkee,Zuid-Holland,VBO,4.026236,51.801019
Nieuweweg,98,,,3251AT,Stellendam,Goeree-Overflakkee,Zuid-Holland,VBO,4.026123,51.800928
Nieuweweg,100,,,3251AT,Stellendam,Goeree-Overflakkee,Zuid-Holland,VBO,4.025952,51.800836
Raadhuisplein,1,,,3251AV,Stellendam,Goeree-Overflakkee,Zuid-Holland,VBO,4.024808,51.801965
Scharrezeeweg,1,A,,3251AW,Stellendam,Goeree-Overflakkee,Zuid-Holland,VBO,4.034315,51.801886
Scharrezeeweg,1,,,3251AW,Stellendam,Goeree-Overflakkee,Zuid-Holland,VBO,4.034290,51.801751
Scharrezeeweg,2,A,,3251AW,Stellendam,Goeree-Overflakkee,Zuid-Holland,VBO,4.034163,51.802246
Scharrezeeweg,2,,,3251AW,Stellendam,Goeree-Overflakkee,Zuid-Holland,VBO,4.034027,51.802750
Scharrezeeweg,4,A,,3251AW,Stellendam,Goeree-Overflakkee,Zuid-Holland,VBO,4.035859,51.800708
Scharrezeeweg,4,,,3251AW,Stellendam,Goeree-Overflakkee,Zuid-Holland,VBO,4.034498,51.801298
Schoolstraat,1,,,3251AX,Stellendam,Goeree-Overflakkee,Zuid-Holland,VBO,4.027524,51.804972
Schoolstraat,3,,,3251AX,Stellendam,Goeree-Overflakkee,Zuid-Holland,VBO,4.027376,51.805060
Schoolstraat,5,,,3251AX,Stellendam,Goeree-Overflakkee,Zuid-Holland,VBO,4.027214,51.805139
Schoolstraat,7,,,3251AX,Stellendam,Goeree-Overflakkee,Zuid-Holland,VBO,4.027096,51.805218
Schoolstraat,9,,,3251AX,Stellendam,Goeree-Overflakkee,Zuid-Holland,VBO,4.026919,51.805306
Schoolstraat,11,,,3251AX,Stellendam,Goeree-Overflakkee,Zuid-Holland,VBO,4.026831,51.805341
Schoolstraat,15,,,3251AX,Stellendam,Goeree-Overflakkee,Zuid-Holland,VBO,4.026491,51.805553
Schoolstraat,17,,,3251AX,Stellendam,Goeree-Overflakkee,Zuid-Holland,VBO,4.026359,51.805605
Schoolstraat,19,,,3251AX,Stellendam,Goeree-Overflakkee,Zuid-Holland,VBO,4.025727,51.805657
Schoolstraat,21,,,3251AX,Stellendam,Goeree-Overflakkee,Zuid-Holland,VBO,4.024619,51.806565
Schoolstraat,23,A,,3251AX,Stellendam,Goeree-Overflakkee,Zuid-Holland,VBO,4.024272,51.806507
Schoolstraat,23,,,3251AX,Stellendam,Goeree-Overflakkee,Zuid-Holland,VBO,4.024516,51.806618
Schoolstraat,25,,,3251AX,Stellendam,Goeree-Overflakkee,Zuid-Holland,VBO,4.024310,51.806705
Schoolstraat,27,,,3251AX,Stellendam,Goeree-Overflakkee,Zuid-Holland,VBO,4.024236,51.806749
Schoolstraat,29,,,3251AX,Stellendam,Goeree-Overflakkee,Zuid-Holland,VBO,4.024029,51.806968
Schoolstraat,31,,,3251AX,Stellendam,Goeree-Overflakkee,Zuid-Holland,VBO,4.023958,51.807003
Schoolstraat,33,,,3251AX,Stellendam,Goeree-Overflakkee,Zuid-Holland,VBO,4.023887,51.807041
Schoolstraat,35,,,3251AX,Stellendam,Goeree-Overflakkee,Zuid-Holland,VBO,4.023760,51.807115
Schoolstraat,37,,,3251AX,Stellendam,Goeree-Overflakkee,Zuid-Holland,VBO,4.023694,51.807147
Schoolstraat,39,,,3251AX,Stellendam,Goeree-Overflakkee,Zuid-Holland,VBO,4.023629,51.807182
Schoolstraat,41,,,3251AX,Stellendam,Goeree-Overflakkee,Zuid-Holland,VBO,4.023574,51.807227
Schoolstraat,43,,,3251AX,Stellendam,Goeree-Overflakkee,Zuid-Holland,VBO,4.023117,51.807481
Schoolstraat,45,,,3251AX,Stellendam,Goeree-Overflakkee,Zuid-Holland,VBO,4.023055,51.807516
Schoolstraat,47,,,3251AX,Stellendam,Goeree-Overflakkee,Zuid-Holland,VBO,4.022990,51.807549
Schoolstraat,49,,,3251AX,Stellendam,Goeree-Overflakkee,Zuid-Holland,VBO,4.022925,51.807587
Schoolstraat,51,,,3251AX,Stellendam,Goeree-Overflakkee,Zuid-Holland,VBO,4.022798,51.807661
Schoolstraat,53,,,3251AX,Stellendam,Goeree-Overflakkee,Zuid-Holland,VBO,4.022727,51.807695
Schoolstraat,55,,,3251AX,Stellendam,Goeree-Overflakkee,Zuid-Holland,VBO,4.022661,51.807737
Schoolstraat,57,,,3251AX,Stellendam,Goeree-Overflakkee,Zuid-Holland,VBO,4.022308,51.807839
Schoolstraat,59,,,3251AX,Stellendam,Goeree-Overflakkee,Zuid-Holland,VBO,4.022171,51.807965
Schoolstraat,6,,,3251AZ,Stellendam,Goeree-Overflakkee,Zuid-Holland,VBO,4.026053,51.806132
Schoolstraat,8,,,3251AZ,Stellendam,Goeree-Overflakkee,Zuid-Holland,VBO,4.025906,51.806193
Schoolstraat,10,,,3251AZ,Stellendam,Goeree-Overflakkee,Zuid-Holland,VBO,4.025640,51.806361
Schoolstraat,12,,,3251AZ,Stellendam,Goeree-Overflakkee,Zuid-Holland,VBO,4.025581,51.806396
Schoolstraat,14,,,3251AZ,Stellendam,Goeree-Overflakkee,Zuid-Holland,VBO,4.025536,51.806432
Schoolstraat,16,,,3251AZ,Stellendam,Goeree-Overflakkee,Zuid-Holland,VBO,4.025463,51.806467
Schoolstraat,18,,,3251AZ,Stellendam,Goeree-Overflakkee,Zuid-Holland,VBO,4.025375,51.806484
Schoolstraat,20,,,3251AZ,Stellendam,Goeree-Overflakkee,Zuid-Holland,VBO,4.025316,51.806528
Schoolstraat,22,,,3251AZ,Stellendam,Goeree-Overflakkee,Zuid-Holland,VBO,4.025242,51.806572
Schoolstraat,24,,,3251AZ,Stellendam,Goeree-Overflakkee,Zuid-Holland,VBO,4.025201,51.806632
Schoolstraat,26,,,3251AZ,Stellendam,Goeree-Overflakkee,Zuid-Holland,VBO,4.024754,51.806872
Schoolstraat,28,,,3251AZ,Stellendam,Goeree-Overflakkee,Zuid-Holland,VBO,4.024695,51.806908
Schoolstraat,30,,,3251AZ,Stellendam,Goeree-Overflakkee,Zuid-Holland,VBO,4.024636,51.806943
Schoolstraat,32,,,3251AZ,Stellendam,Goeree-Overflakkee,Zuid-Holland,VBO,4.024562,51.806987
Schoolstraat,34,,,3251AZ,Stellendam,Goeree-Overflakkee,Zuid-Holland,VBO,4.024311,51.807146
Schoolstraat,36,,,3251AZ,Stellendam,Goeree-Overflakkee,Zuid-Holland,VBO,4.024238,51.807181
Schoolstraat,38,,,3251AZ,Stellendam,Goeree-Overflakkee,Zuid-Holland,VBO,4.024179,51.807216
Schoolstraat,40,,,3251AZ,Stellendam,Goeree-Overflakkee,Zuid-Holland,VBO,4.024104,51.807269
Schoolstraat,42,,,3251AZ,Stellendam,Goeree-Overflakkee,Zuid-Holland,VBO,4.024031,51.807313
Schoolstraat,44,,,3251AZ,Stellendam,Goeree-Overflakkee,Zuid-Holland,VBO,4.023971,51.807349
Schoolstraat,46,,,3251AZ,Stellendam,Goeree-Overflakkee,Zuid-Holland,VBO,4.023927,51.807375
Schoolstraat,48,,,3251AZ,Stellendam,Goeree-Overflakkee,Zuid-Holland,VBO,4.023868,51.807419
Schoolstraat,50,,,3251AZ,Stellendam,Goeree-Overflakkee,Zuid-Holland,VBO,4.023780,51.807445
Schoolstraat,52,,,3251AZ,Stellendam,Goeree-Overflakkee,Zuid-Holland,VBO,4.023706,51.807489
Schoolstraat,54,,,3251AZ,Stellendam,Goeree-Overflakkee,Zuid-Holland,VBO,4.023662,51.807516
Schoolstraat,56,,,3251AZ,Stellendam,Goeree-Overflakkee,Zuid-Holland,VBO,4.023603,51.807560
Schoolstraat,58,,,3251AZ,Stellendam,Goeree-Overflakkee,Zuid-Holland,VBO,4.023543,51.807595
Schoolstraat,60,,,3251AZ,Stellendam,Goeree-Overflakkee,Zuid-Holland,VBO,4.023470,51.807630
Schoolstraat,62,,,3251AZ,Stellendam,Goeree-Overflakkee,Zuid-Holland,VBO,4.023426,51.807657
Schoolstraat,64,,,3251AZ,Stellendam,Goeree-Overflakkee,Zuid-Holland,VBO,4.023293,51.807718
Schoolstraat,66,,,3251AZ,Stellendam,Goeree-Overflakkee,Zuid-Holland,VBO,4.023249,51.807754
Schoolstraat,68,,,3251AZ,Stellendam,Goeree-Overflakkee,Zuid-Holland,VBO,4.023132,51.807779
Schoolstraat,70,,,3251AZ,Stellendam,Goeree-Overflakkee,Zuid-Holland,VBO,4.023073,51.807815
Schoolstraat,72,,,3251AZ,Stellendam,Goeree-Overflakkee,Zuid-Holland,VBO,4.023014,51.807850
Schoolstraat,74,,,3251AZ,Stellendam,Goeree-Overflakkee,Zuid-Holland,VBO,4.022940,51.807885
Schoolstraat,76,,,3251AZ,Stellendam,Goeree-Overflakkee,Zuid-Holland,VBO,4.022910,51.807930
Tuinstraat,1,,,3251BA,Stellendam,Goeree-Overflakkee,Zuid-Holland,VBO,4.025675,51.803764
Tuinstraat,4,,,3251BA,Stellendam,Goeree-Overflakkee,Zuid-Holland,VBO,4.025323,51.803894
Tuinstraat,6,,,3251BA,Stellendam,Goeree-Overflakkee,Zuid-Holland,VBO,4.025252,51.803840
Tuinstraat,8,,,3251BA,Stellendam,Goeree-Overflakkee,Zuid-Holland,VBO,4.025181,51.803794
Tuinstraat,10,,,3251BA,Stellendam,Goeree-Overflakkee,Zuid-Holland,VBO,4.025124,51.803748
Voorstraat,1,,,3251BB,Stellendam,Goeree-Overflakkee,Zuid-Holland,VBO,4.029573,51.805292
Voorstraat,3,,,3251BB,Stellendam,Goeree-Overflakkee,Zuid-Holland,VBO,4.029597,51.805202
Voorstraat,5,,,3251BB,Stellendam,Goeree-Overflakkee,Zuid-Holland,VBO,4.029528,51.805186
Voorstraat,7,,,3251BB,Stellendam,Goeree-Overflakkee,Zuid-Holland,VBO,4.029418,51.805155
Voorstraat,9,,,3251BB,Stellendam,Goeree-Overflakkee,Zuid-Holland,VBO,4.029448,51.805019
Voorstraat,11,,,3251BB,Stellendam,Goeree-Overflakkee,Zuid-Holland,VBO,4.029305,51.805055
Voorstraat,13,,,3251BB,Stellendam,Goeree-Overflakkee,Zuid-Holland,VBO,4.029262,51.805019
Voorstraat,15,,,3251BB,Stellendam,Goeree-Overflakkee,Zuid-Holland,VBO,4.029224,51.804991
Voorstraat,17,,,3251BB,Stellendam,Goeree-Overflakkee,Zuid-Holland,VBO,4.029134,51.804954
Voorstraat,19,,,3251BB,Stellendam,Goeree-Overflakkee,Zuid-Holland,VBO,4.029077,51.804918
Voorstraat,21,,,3251BB,Stellendam,Goeree-Overflakkee,Zuid-Holland,VBO,4.029020,51.804881
Voorstraat,23,,,3251BB,Stellendam,Goeree-Overflakkee,Zuid-Holland,VBO,4.028963,51.804845
Voorstraat,25,,,3251BB,Stellendam,Goeree-Overflakkee,Zuid-Holland,VBO,4.028906,51.804808
Voorstraat,27,,,3251BB,Stellendam,Goeree-Overflakkee,Zuid-Holland,VBO,4.028889,51.804742
Voorstraat,29,,,3251BB,Stellendam,Goeree-Overflakkee,Zuid-Holland,VBO,4.028778,51.804726
Voorstraat,31,,,3251BB,Stellendam,Goeree-Overflakkee,Zuid-Holland,VBO,4.028721,51.804680
Voorstraat,33,,,3251BB,Stellendam,Goeree-Overflakkee,Zuid-Holland,VBO,4.028622,51.804625
Voorstraat,35,,,3251BB,Stellendam,Goeree-Overflakkee,Zuid-Holland,VBO,4.028616,51.804571
Voorstraat,37,,,3251BB,Stellendam,Goeree-Overflakkee,Zuid-Holland,VBO,4.028443,51.804533
Voorstraat,39,,,3251BB,Stellendam,Goeree-Overflakkee,Zuid-Holland,VBO,4.028134,51.804821
Voorstraat,41,,,3251BB,Stellendam,Goeree-Overflakkee,Zuid-Holland,VBO,4.028324,51.804406
Voorstraat,43,,,3251BB,Stellendam,Goeree-Overflakkee,Zuid-Holland,VBO,4.028195,51.804332
Voorstraat,45,,,3251BB,Stellendam,Goeree-Overflakkee,Zuid-Holland,VBO,4.028081,51.804277
Voorstraat,47,,,3251BB,Stellendam,Goeree-Overflakkee,Zuid-Holland,VBO,4.028015,51.804238
Voorstraat,49,,,3251BB,Stellendam,Goeree-Overflakkee,Zuid-Holland,VBO,4.028019,51.804168
Voorstraat,51,,,3251BB,Stellendam,Goeree-Overflakkee,Zuid-Holland,VBO,4.027978,51.804096
Voorstraat,53,,,3251BB,Stellendam,Goeree-Overflakkee,Zuid-Holland,VBO,4.027854,51.804122
Voorstraat,55,,,3251BB,Stellendam,Goeree-Overflakkee,Zuid-Holland,VBO,4.027812,51.804067
Voorstraat,57,,,3251BB,Stellendam,Goeree-Overflakkee,Zuid-Holland,VBO,4.027808,51.803964
Voorstraat,59,,,3251BC,Stellendam,Goeree-Overflakkee,Zuid-Holland,VBO,4.027564,51.803871
Voorstraat,65,,,3251BC,Stellendam,Goeree-Overflakkee,Zuid-Holland,VBO,4.027201,51.803655
Voorstraat,67,,,3251BC,Stellendam,Goeree-Overflakkee,Zuid-Holland,VBO,4.027038,51.803543
Voorstraat,71,,,3251BC,Stellendam,Goeree-Overflakkee,Zuid-Holland,VBO,4.026931,51.803473
Voorstraat,73,,,3251BC,Stellendam,Goeree-Overflakkee,Zuid-Holland,VBO,4.026874,51.803445
Voorstraat,75,,,3251BC,Stellendam,Goeree-Overflakkee,Zuid-Holland,VBO,4.026817,51.803399
Voorstraat,77,,,3251BC,Stellendam,Goeree-Overflakkee,Zuid-Holland,VBO,4.026753,51.803252
Voorstraat,79,,,3251BC,Stellendam,Goeree-Overflakkee,Zuid-Holland,VBO,4.026376,51.803125
Voorstraat,81,,,3251BC,Stellendam,Goeree-Overflakkee,Zuid-Holland,VBO,4.026289,51.803106
Voorstraat,83,,,3251BC,Stellendam,Goeree-Overflakkee,Zuid-Holland,VBO,4.026248,51.803042
Voorstraat,85,,,3251BC,Stellendam,Goeree-Overflakkee,Zuid-Holland,VBO,4.026147,51.803005
Voorstraat,89,,,3251BC,Stellendam,Goeree-Overflakkee,Zuid-Holland,VBO,4.026078,51.802914
Voorstraat,91,,,3251BC,Stellendam,Goeree-Overflakkee,Zuid-Holland,VBO,4.026021,51.802878
Voorstraat,93,,,3251BC,Stellendam,Goeree-Overflakkee,Zuid-Holland,VBO,4.025979,51.802832
Voorstraat,95,,,3251BC,Stellendam,Goeree-Overflakkee,Zuid-Holland,VBO,4.025907,51.802795
Voorstraat,97,,,3251BC,Stellendam,Goeree-Overflakkee,Zuid-Holland,VBO,4.025851,51.802750
Voorstraat,99,,,3251BC,Stellendam,Goeree-Overflakkee,Zuid-Holland,VBO,4.025779,51.802713
Voorstraat,101,,,3251BC,Stellendam,Goeree-Overflakkee,Zuid-Holland,VBO,4.025679,51.802667
Voorstraat,103,,,3251BC,Stellendam,Goeree-Overflakkee,Zuid-Holland,VBO,4.025652,51.802613
Voorstraat,105,,,3251BC,Stellendam,Goeree-Overflakkee,Zuid-Holland,VBO,4.025580,51.802576
Voorstraat,107,,,3251BC,Stellendam,Goeree-Overflakkee,Zuid-Holland,VBO,4.025481,51.802503
Voorstraat,109,,,3251BC,Stellendam,Goeree-Overflakkee,Zuid-Holland,VBO,4.025324,51.802420
Voorstraat,111,,,3251BC,Stellendam,Goeree-Overflakkee,Zuid-Holland,VBO,4.024473,51.801785
Voorstraat,113,,,3251BC,Stellendam,Goeree-Overflakkee,Zuid-Holland,VBO,4.024426,51.801683
Voorstraat,115,,,3251BC,Stellendam,Goeree-Overflakkee,Zuid-Holland,VBO,4.024309,51.801685
Voorstraat,117,,,3251BC,Stellendam,Goeree-Overflakkee,Zuid-Holland,VBO,4.023963,51.801406
Voorstraat,119,,,3251BC,Stellendam,Goeree-Overflakkee,Zuid-Holland,VBO,4.023722,51.801224
Voorstraat,121,,,3251BC,Stellendam,Goeree-Overflakkee,Zuid-Holland,VBO,4.023665,51.801187
Voorstraat,123,,,3251BC,Stellendam,Goeree-Overflakkee,Zuid-Holland,VBO,4.023466,51.801041
Voorstraat,125,,,3251BC,Stellendam,Goeree-Overflakkee,Zuid-Holland,VBO,4.023395,51.801004
Voorstraat,127,,,3251BC,Stellendam,Goeree-Overflakkee,Zuid-Holland,VBO,4.023182,51.800858
Voorstraat,129,,,3251BC,Stellendam,Goeree-Overflakkee,Zuid-Holland,VBO,4.023125,51.800821
Voorstraat,131,,,3251BC,Stellendam,Goeree-Overflakkee,Zuid-Holland,VBO,4.022819,51.800629
Voorstraat,133,,,3251BC,Stellendam,Goeree-Overflakkee,Zuid-Holland,VBO,4.022649,51.800506
Voorstraat,135,,,3251BC,Stellendam,Goeree-Overflakkee,Zuid-Holland,VBO,4.022500,51.800401
Voorstraat,137,,,3251BC,Stellendam,Goeree-Overflakkee,Zuid-Holland,VBO,4.022315,51.800286
Voorstraat,139,,,3251BC,Stellendam,Goeree-Overflakkee,Zuid-Holland,VBO,4.022179,51.800153
Voorstraat,141,,,3251BC,Stellendam,Goeree-Overflakkee,Zuid-Holland,VBO,4.021520,51.799711
Voorstraat,143,,,3251BC,Stellendam,Goeree-Overflakkee,Zuid-Holland,VBO,4.021793,51.799790
Voorstraat,145,,,3251BC,Stellendam,Goeree-Overflakkee,Zuid-Holland,VBO,4.021279,51.799541
Voorstraat,2,,,3251BD,Stellendam,Goeree-Overflakkee,Zuid-Holland,VBO,4.029245,51.805549
Voorstraat,6,,,3251BD,Stellendam,Goeree-Overflakkee,Zuid-Holland,VBO,4.029142,51.805395
Voorstraat,8,,,3251BD,Stellendam,Goeree-Overflakkee,Zuid-Holland,VBO,4.029122,51.805332
Voorstraat,10,,,3251BD,Stellendam,Goeree-Overflakkee,Zuid-Holland,VBO,4.028992,51.805310
Voorstraat,12,,,3251BD,Stellendam,Goeree-Overflakkee,Zuid-Holland,VBO,4.028863,51.805269
Voorstraat,14,,,3251BD,Stellendam,Goeree-Overflakkee,Zuid-Holland,VBO,4.028895,51.805167
Voorstraat,16,,,3251BD,Stellendam,Goeree-Overflakkee,Zuid-Holland,VBO,4.028853,51.805113
Voorstraat,18,,,3251BD,Stellendam,Goeree-Overflakkee,Zuid-Holland,VBO,4.028738,51.805085
Voorstraat,20,,,3251BD,Stellendam,Goeree-Overflakkee,Zuid-Holland,VBO,4.028681,51.805048
Voorstraat,22,,,3251BD,Stellendam,Goeree-Overflakkee,Zuid-Holland,VBO,4.028625,51.805002
Voorstraat,24,,,3251BD,Stellendam,Goeree-Overflakkee,Zuid-Holland,VBO,4.028569,51.804939
Voorstraat,26,,,3251BD,Stellendam,Goeree-Overflakkee,Zuid-Holland,VBO,4.028468,51.804893
Voorstraat,28,,,3251BD,Stellendam,Goeree-Overflakkee,Zuid-Holland,VBO,4.028316,51.804895
Voorstraat,30,,,3251BD,Stellendam,Goeree-Overflakkee,Zuid-Holland,VBO,4.028297,51.804819
Voorstraat,32,,,3251BD,Stellendam,Goeree-Overflakkee,Zuid-Holland,VBO,4.028167,51.804781
Voorstraat,34,,,3251BD,Stellendam,Goeree-Overflakkee,Zuid-Holland,VBO,4.028048,51.804650
Voorstraat,36,,,3251BD,Stellendam,Goeree-Overflakkee,Zuid-Holland,VBO,4.028014,51.804582
Voorstraat,38,,,3251BD,Stellendam,Goeree-Overflakkee,Zuid-Holland,VBO,4.027957,51.804545
Voorstraat,40,,,3251BD,Stellendam,Goeree-Overflakkee,Zuid-Holland,VBO,4.027840,51.804562
Voorstraat,42,,,3251BD,Stellendam,Goeree-Overflakkee,Zuid-Holland,VBO,4.027843,51.804490
Voorstraat,44,,,3251BD,Stellendam,Goeree-Overflakkee,Zuid-Holland,VBO,4.027800,51.804454
Voorstraat,46,,,3251BD,Stellendam,Goeree-Overflakkee,Zuid-Holland,VBO,4.027759,51.804381
Voorstraat,48,,,3251BD,Stellendam,Goeree-Overflakkee,Zuid-Holland,VBO,4.027578,51.804370
Voorstraat,50,,,3251BD,Stellendam,Goeree-Overflakkee,Zuid-Holland,VBO,4.027617,51.804290
Voorstraat,52,,,3251BD,Stellendam,Goeree-Overflakkee,Zuid-Holland,VBO,4.027574,51.804244
Voorstraat,56,,,3251BE,Stellendam,Goeree-Overflakkee,Zuid-Holland,VBO,4.027304,51.804103
Voorstraat,58,,,3251BE,Stellendam,Goeree-Overflakkee,Zuid-Holland,VBO,4.026905,51.803850
Voorstraat,60,,,3251BE,Stellendam,Goeree-Overflakkee,Zuid-Holland,VBO,4.026819,51.803795
Voorstraat,62,,,3251BE,Stellendam,Goeree-Overflakkee,Zuid-Holland,VBO,4.026763,51.803758
Voorstraat,64,,,3251BE,Stellendam,Goeree-Overflakkee,Zuid-Holland,VBO,4.026720,51.803731
Voorstraat,66,,,3251BE,Stellendam,Goeree-Overflakkee,Zuid-Holland,VBO,4.026663,51.803694
Voorstraat,68,,,3251BE,Stellendam,Goeree-Overflakkee,Zuid-Holland,VBO,4.026435,51.803548
Voorstraat,70,,,3251BE,Stellendam,Goeree-Overflakkee,Zuid-Holland,VBO,4.026393,51.803520
Voorstraat,72,,,3251BE,Stellendam,Goeree-Overflakkee,Zuid-Holland,VBO,4.026366,51.803457
Voorstraat,74,,,3251BE,Stellendam,Goeree-Overflakkee,Zuid-Holland,VBO,4.026293,51.803447
Voorstraat,76,,,3251BE,Stellendam,Goeree-Overflakkee,Zuid-Holland,VBO,4.026237,51.803411
Voorstraat,78,,,3251BE,Stellendam,Goeree-Overflakkee,Zuid-Holland,VBO,4.026180,51.803374
Voorstraat,80,,,3251BE,Stellendam,Goeree-Overflakkee,Zuid-Holland,VBO,4.026078,51.803368
Voorstraat,82,,,3251BE,Stellendam,Goeree-Overflakkee,Zuid-Holland,VBO,4.026066,51.803301
Voorstraat,84,,,3251BE,Stellendam,Goeree-Overflakkee,Zuid-Holland,VBO,4.026009,51.803264
Voorstraat,86,,,3251BE,Stellendam,Goeree-Overflakkee,Zuid-Holland,VBO,4.025952,51.803227
Voorstraat,88,,,3251BE,Stellendam,Goeree-Overflakkee,Zuid-Holland,VBO,4.025851,51.803204
Voorstraat,90,,,3251BE,Stellendam,Goeree-Overflakkee,Zuid-Holland,VBO,4.025838,51.803154
Voorstraat,92,,,3251BE,Stellendam,Goeree-Overflakkee,Zuid-Holland,VBO,4.025782,51.803109
Voorstraat,94,A,,3251BE,Stellendam,Goeree-Overflakkee,Zuid-Holland,VBO,4.024221,51.802310
Voorstraat,94,,,3251BE,Stellendam,Goeree-Overflakkee,Zuid-Holland,VBO,4.024585,51.802400
Voorstraat,96,A,,3251BE,Stellendam,Goeree-Overflakkee,Zuid-Holland,VBO,4.028134,51.804821
Voorstraat,96,,,3251BE,Stellendam,Goeree-Overflakkee,Zuid-Holland,VBO,4.024074,51.802037
Voorstraat,98,A,,3251BE,Stellendam,Goeree-Overflakkee,Zuid-Holland,VBO,4.023371,51.801543
Voorstraat,98,,,3251BE,Stellendam,Goeree-Overflakkee,Zuid-Holland,VBO,4.023549,51.801653
Voorstraat,100,,,3251BE,Stellendam,Goeree-Overflakkee,Zuid-Holland,VBO,4.023180,51.801397
Voorstraat,102,A,,3251BE,Stellendam,Goeree-Overflakkee,Zuid-Holland,VBO,4.022787,51.801191
Voorstraat,102,,,3251BE,Stellendam,Goeree-Overflakkee,Zuid-Holland,VBO,4.023023,51.801297
Voorstraat,104,A,,3251BE,Stellendam,Goeree-Overflakkee,Zuid-Holland,VBO,4.022245,51.800800
Voorstraat,104,,,3251BE,Stellendam,Goeree-Overflakkee,Zuid-Holland,VBO,4.022497,51.800967
Voorstraat,108,,,3251BE,Stellendam,Goeree-Overflakkee,Zuid-Holland,VBO,4.021671,51.800463
Voorstraat,110,,,3251BE,Stellendam,Goeree-Overflakkee,Zuid-Holland,VBO,4.021233,51.800107
Voorstraat,112,,,3251BE,Stellendam,Goeree-Overflakkee,Zuid-Holland,VBO,4.020878,51.799842
Willem de Jagerstraat,1,,,3251BG,Stellendam,Goeree-Overflakkee,Zuid-Holland,VBO,4.023660,51.808064
Willem de Jagerstraat,2,,,3251BG,Stellendam,Goeree-Overflakkee,Zuid-Holland,VBO,4.023739,51.808326
Willem de Jagerstraat,3,,,3251BG,Stellendam,Goeree-Overflakkee,Zuid-Holland,VBO,4.023600,51.808108
Willem de Jagerstraat,4,,,3251BG,Stellendam,Goeree-Overflakkee,Zuid-Holland,VBO,4.023810,51.808381
Willem de Jagerstraat,5,,,3251BG,Stellendam,Goeree-Overflakkee,Zuid-Holland,VBO,4.023527,51.808135
Willem de Jagerstraat,6,,,3251BG,Stellendam,Goeree-Overflakkee,Zuid-Holland,VBO,4.023867,51.808417
Willem de Jagerstraat,7,,,3251BG,Stellendam,Goeree-Overflakkee,Zuid-Holland,VBO,4.023468,51.808170
Willem de Jagerstraat,8,,,3251BG,Stellendam,Goeree-Overflakkee,Zuid-Holland,VBO,4.023924,51.808454
Willem de Jagerstraat,9,,,3251BG,Stellendam,Goeree-Overflakkee,Zuid-Holland,VBO,4.023437,51.808232
Willem de Jagerstraat,10,,,3251BG,Stellendam,Goeree-Overflakkee,Zuid-Holland,VBO,4.023966,51.808490
Willem de Jagerstraat,11,A,,3251BG,Stellendam,Goeree-Overflakkee,Zuid-Holland,VBO,4.023141,51.808095
Willem de Jagerstraat,11,B,,3251BG,Stellendam,Goeree-Overflakkee,Zuid-Holland,VBO,4.023141,51.808095
Willem de Jagerstraat,11,C,,3251BG,Stellendam,Goeree-Overflakkee,Zuid-Holland,VBO,4.023197,51.808063
Willem de Jagerstraat,11,D,,3251BG,Stellendam,Goeree-Overflakkee,Zuid-Holland,VBO,4.023197,51.808063
Willem de Jagerstraat,11,E,,3251BG,Stellendam,Goeree-Overflakkee,Zuid-Holland,VBO,4.023260,51.808026
Willem de Jagerstraat,11,F,,3251BG,Stellendam,Goeree-Overflakkee,Zuid-Holland,VBO,4.023260,51.808026
Willem de Jagerstraat,11,G,,3251BG,Stellendam,Goeree-Overflakkee,Zuid-Holland,VBO,4.023393,51.807937
Willem de Jagerstraat,11,H,,3251BG,Stellendam,Goeree-Overflakkee,Zuid-Holland,VBO,4.023393,51.807937
Willem de Jagerstraat,11,I,,3251BG,Stellendam,Goeree-Overflakkee,Zuid-Holland,VBO,4.023326,51.807988
Willem de Jagerstraat,11,J,,3251BG,Stellendam,Goeree-Overflakkee,Zuid-Holland,VBO,4.023326,51.807988
Willem de Jagerstraat,11,K,,3251BG,Stellendam,Goeree-Overflakkee,Zuid-Holland,VBO,4.023326,51.807988
Willem de Jagerstraat,11,,,3251BG,Stellendam,Goeree-Overflakkee,Zuid-Holland,VBO,4.023364,51.808267
Willem de Jagerstraat,12,,,3251BG,Stellendam,Goeree-Overflakkee,Zuid-Holland,VBO,4.023572,51.808576
Willem de Jagerstraat,14,,,3251BG,Stellendam,Goeree-Overflakkee,Zuid-Holland,VBO,4.023498,51.808611
Willem de Jagerstraat,16,,,3251BG,Stellendam,Goeree-Overflakkee,Zuid-Holland,VBO,4.023365,51.808699
Willem de Jagerstraat,18,,,3251BG,Stellendam,Goeree-Overflakkee,Zuid-Holland,VBO,4.023277,51.808743
Willem de Jagerstraat,30,,,3251BG,Stellendam,Goeree-Overflakkee,Zuid-Holland,VBO,4.023153,51.808535
Willem de Jagerstraat,32,,,3251BG,Stellendam,Goeree-Overflakkee,Zuid-Holland,VBO,4.023081,51.808489
Willem de Jagerstraat,34,,,3251BG,Stellendam,Goeree-Overflakkee,Zuid-Holland,VBO,4.023010,51.808443
Willem de Jagerstraat,36,,,3251BG,Stellendam,Goeree-Overflakkee,Zuid-Holland,VBO,4.022939,51.808397
Willem de Jagerstraat,38,,,3251BG,Stellendam,Goeree-Overflakkee,Zuid-Holland,VBO,4.022810,51.808342
Willem de Jagerstraat,40,,,3251BG,Stellendam,Goeree-Overflakkee,Zuid-Holland,VBO,4.022725,51.808287
Willem de Jagerstraat,42,,,3251BG,Stellendam,Goeree-Overflakkee,Zuid-Holland,VBO,4.022612,51.808190
Willem de Jagerstraat,44,,,3251BG,Stellendam,Goeree-Overflakkee,Zuid-Holland,VBO,4.022527,51.808132
Willem de Jagerstraat,46,,,3251BG,Stellendam,Goeree-Overflakkee,Zuid-Holland,VBO,4.022103,51.807767
Willem de Jagerstraat,48,,,3251BG,Stellendam,Goeree-Overflakkee,Zuid-Holland,VBO,4.022031,51.807731
Willem de Jagerstraat,50,,,3251BG,Stellendam,Goeree-Overflakkee,Zuid-Holland,VBO,4.021974,51.807694
Willem de Jagerstraat,52,,,3251BG,Stellendam,Goeree-Overflakkee,Zuid-Holland,VBO,4.021889,51.807639
Willem de Jagerstraat,54,,,3251BG,Stellendam,Goeree-Overflakkee,Zuid-Holland,VBO,4.021775,51.807575
Willem de Jagerstraat,56,,,3251BG,Stellendam,Goeree-Overflakkee,Zuid-Holland,VBO,4.021718,51.807538
Willem de Jagerstraat,58,,,3251BG,Stellendam,Goeree-Overflakkee,Zuid-Holland,VBO,4.021647,51.807492
Willem de Jagerstraat,60,,,3251BG,Stellendam,Goeree-Overflakkee,Zuid-Holland,VBO,4.021590,51.807447
Willem de Jagerstraat,62,,,3251BG,Stellendam,Goeree-Overflakkee,Zuid-Holland,VBO,4.021519,51.807410
Willem de Jagerstraat,64,,,3251BG,Stellendam,Goeree-Overflakkee,Zuid-Holland,VBO,4.021448,51.807355
Willem de Jagerstraat,66,,,3251BG,Stellendam,Goeree-Overflakkee,Zuid-Holland,VBO,4.021391,51.807310
Willem de Jagerstraat,68,,,3251BG,Stellendam,Goeree-Overflakkee,Zuid-Holland,VBO,4.021271,51.807306
Parkhaven,1,,,3251BK,Stellendam,Goeree-Overflakkee,Zuid-Holland,STA,4.033135,51.805833
Parkhaven,2,,,3251BK,Stellendam,Goeree-Overflakkee,Zuid-Holland,STA,4.033004,51.805853
Parkhaven,3,,,3251BK,Stellendam,Goeree-Overflakkee,Zuid-Holland,STA,4.032845,51.805876
Parkhaven,4,,,3251BK,Stellendam,Goeree-Overflakkee,Zuid-Holland,STA,4.032693,51.805892
Parkhaven,5,,,3251BK,Stellendam,Goeree-Overflakkee,Zuid-Holland,STA,4.032537,51.805905
Parkhaven,6,,,3251BK,Stellendam,Goeree-Overflakkee,Zuid-Holland,STA,4.032385,51.805927
Parkhaven,7,,,3251BK,Stellendam,Goeree-Overflakkee,Zuid-Holland,STA,4.032505,51.806110
Parkhaven,8,,,3251BK,Stellendam,Goeree-Overflakkee,Zuid-Holland,STA,4.032681,51.806094
Parkhaven,9,,,3251BK,Stellendam,Goeree-Overflakkee,Zuid-Holland,STA,4.032847,51.806078
Parkhaven,10,,,3251BK,Stellendam,Goeree-Overflakkee,Zuid-Holland,STA,4.032991,51.806052
Parkhaven,11,,,3251BK,Stellendam,Goeree-Overflakkee,Zuid-Holland,STA,4.033123,51.806051
Azaleastraat,2,,,3251CA,Stellendam,Goeree-Overflakkee,Zuid-Holland,VBO,4.022810,51.804054
Azaleastraat,4,,,3251CA,Stellendam,Goeree-Overflakkee,Zuid-Holland,VBO,4.022839,51.804036
Azaleastraat,6,,,3251CA,Stellendam,Goeree-Overflakkee,Zuid-Holland,VBO,4.022869,51.804019
Azaleastraat,8,,,3251CA,Stellendam,Goeree-Overflakkee,Zuid-Holland,VBO,4.022884,51.804001
Azaleastraat,10,,,3251CA,Stellendam,Goeree-Overflakkee,Zuid-Holland,VBO,4.022913,51.803983
Azaleastraat,11,,,3251CA,Stellendam,Goeree-Overflakkee,Zuid-Holland,VBO,4.022942,51.803975
Azaleastraat,12,,,3251CA,Stellendam,Goeree-Overflakkee,Zuid-Holland,VBO,4.022972,51.803957
Azaleastraat,13,,,3251CA,Stellendam,Goeree-Overflakkee,Zuid-Holland,VBO,4.023002,51.803939
Azaleastraat,14,,,3251CA,Stellendam,Goeree-Overflakkee,Zuid-Holland,VBO,4.023031,51.803922
Azaleastraat,15,,,3251CA,Stellendam,Goeree-Overflakkee,Zuid-Holland,VBO,4.023060,51.803913
Azaleastraat,16,,,3251CA,Stellendam,Goeree-Overflakkee,Zuid-Holland,VBO,4.023090,51.803895
Azaleastraat,17,,,3251CA,Stellendam,Goeree-Overflakkee,Zuid-Holland,VBO,4.023120,51.803869
Azaleastraat,18,,,3251CA,Stellendam,Goeree-Overflakkee,Zuid-Holland,VBO,4.023164,51.803851
Azaleastraat,19,,,3251CA,Stellendam,Goeree-Overflakkee,Zuid-Holland,VBO,4.021407,51.804388
Azaleastraat,20,,,3251CA,Stellendam,Goeree-Overflakkee,Zuid-Holland,VBO,4.021441,51.804703
Azaleastraat,21,,,3251CA,Stellendam,Goeree-Overflakkee,Zuid-Holland,VBO,4.021363,51.804415
Azaleastraat,22,,,3251CA,Stellendam,Goeree-Overflakkee,Zuid-Holland,VBO,4.021383,51.804721
Azaleastraat,23,,,3251CA,Stellendam,Goeree-Overflakkee,Zuid-Holland,VBO,4.021297,51.804445
Azaleastraat,24,,,3251CA,Stellendam,Goeree-Overflakkee,Zuid-Holland,VBO,4.021338,51.804756
Azaleastraat,25,,,3251CA,Stellendam,Goeree-Overflakkee,Zuid-Holland,VBO,4.021235,51.804485
Azaleastraat,26,,,3251CA,Stellendam,Goeree-Overflakkee,Zuid-Holland,VBO,4.021264,51.804800
Azaleastraat,27,,,3251CA,Stellendam,Goeree-Overflakkee,Zuid-Holland,VBO,4.021099,51.804528
Azaleastraat,28,,,3251CA,Stellendam,Goeree-Overflakkee,Zuid-Holland,VBO,4.020274,51.805427
Azaleastraat,29,,,3251CA,Stellendam,Goeree-Overflakkee,Zuid-Holland,VBO,4.021068,51.804591
Azaleastraat,30,,,3251CA,Stellendam,Goeree-Overflakkee,Zuid-Holland,VBO,4.020230,51.805453
Azaleastraat,31,,,3251CA,Stellendam,Goeree-Overflakkee,Zuid-Holland,VBO,4.021002,51.804613
Azaleastraat,32,,,3251CA,Stellendam,Goeree-Overflakkee,Zuid-Holland,VBO,4.020170,51.805489
Azaleastraat,33,,,3251CA,Stellendam,Goeree-Overflakkee,Zuid-Holland,VBO,4.020950,51.804635
Azaleastraat,34,,,3251CA,Stellendam,Goeree-Overflakkee,Zuid-Holland,VBO,4.020112,51.805515
Azaleastraat,35,,,3251CA,Stellendam,Goeree-Overflakkee,Zuid-Holland,VBO,4.020581,51.804846
Azaleastraat,36,,,3251CA,Stellendam,Goeree-Overflakkee,Zuid-Holland,VBO,4.020053,51.805550
Azaleastraat,37,,,3251CA,Stellendam,Goeree-Overflakkee,Zuid-Holland,VBO,4.020508,51.804881
Azaleastraat,39,,,3251CA,Stellendam,Goeree-Overflakkee,Zuid-Holland,VBO,4.020345,51.804978
Azaleastraat,41,,,3251CA,Stellendam,Goeree-Overflakkee,Zuid-Holland,VBO,4.020257,51.805013
Azaleastraat,43,,,3251CA,Stellendam,Goeree-Overflakkee,Zuid-Holland,VBO,4.020005,51.805217
Azaleastraat,45,,,3251CA,Stellendam,Goeree-Overflakkee,Zuid-Holland,VBO,4.019931,51.805261
Azaleastraat,47,,,3251CA,Stellendam,Goeree-Overflakkee,Zuid-Holland,VBO,4.019813,51.805323
Azaleastraat,49,,,3251CA,Stellendam,Goeree-Overflakkee,Zuid-Holland,VBO,4.019739,51.805367
Azaleastraat,51,,,3251CA,Stellendam,Goeree-Overflakkee,Zuid-Holland,VBO,4.019636,51.805428
Azaleastraat,53,,,3251CA,Stellendam,Goeree-Overflakkee,Zuid-Holland,VBO,4.019461,51.805453
Azaleastraat,55,,,3251CA,Stellendam,Goeree-Overflakkee,Zuid-Holland,VBO,4.019314,51.805532
Azaleastraat,57,,,3251CA,Stellendam,Goeree-Overflakkee,Zuid-Holland,VBO,4.019700,51.805708
Azaleastraat,59,,,3251CA,Stellendam,Goeree-Overflakkee,Zuid-Holland,VBO,4.019757,51.805744
Azaleastraat,61,,,3251CA,Stellendam,Goeree-Overflakkee,Zuid-Holland,VBO,4.019799,51.805781
Azaleastraat,63,,,3251CA,Stellendam,Goeree-Overflakkee,Zuid-Holland,VBO,4.019856,51.805817
Azaleastraat,65,,,3251CA,Stellendam,Goeree-Overflakkee,Zuid-Holland,VBO,4.019883,51.805872
Azaleastraat,67,,,3251CA,Stellendam,Goeree-Overflakkee,Zuid-Holland,VBO,4.019941,51.805899
Azaleastraat,81,,,3251CA,Stellendam,Goeree-Overflakkee,Zuid-Holland,VBO,4.020158,51.805911
Azaleastraat,83,,,3251CA,Stellendam,Goeree-Overflakkee,Zuid-Holland,VBO,4.020217,51.805876
Azaleastraat,85,,,3251CA,Stellendam,Goeree-Overflakkee,Zuid-Holland,VBO,4.020290,51.805841
Azaleastraat,87,,,3251CA,Stellendam,Goeree-Overflakkee,Zuid-Holland,VBO,4.020335,51.805814
Brielsestraat,1,,,3251CC,Stellendam,Goeree-Overflakkee,Zuid-Holland,VBO,4.026054,51.808011
Brielsestraat,3,,,3251CC,Stellendam,Goeree-Overflakkee,Zuid-Holland,VBO,4.026012,51.807984
Brielsestraat,5,,,3251CC,Stellendam,Goeree-Overflakkee,Zuid-Holland,VBO,4.025955,51.807947
Brielsestraat,7,,,3251CC,Stellendam,Goeree-Overflakkee,Zuid-Holland,VBO,4.025898,51.807892
Brielsestraat,9,,,3251CC,Stellendam,Goeree-Overflakkee,Zuid-Holland,VBO,4.025842,51.807838
Brielsestraat,11,,,3251CC,Stellendam,Goeree-Overflakkee,Zuid-Holland,VBO,4.025771,51.807801
Brielsestraat,13,,,3251CC,Stellendam,Goeree-Overflakkee,Zuid-Holland,VBO,4.025686,51.807728
Brielsestraat,15,,,3251CC,Stellendam,Goeree-Overflakkee,Zuid-Holland,VBO,4.025629,51.807692
Brielsestraat,17,,,3251CC,Stellendam,Goeree-Overflakkee,Zuid-Holland,VBO,4.025572,51.807664
Brielsestraat,19,,,3251CC,Stellendam,Goeree-Overflakkee,Zuid-Holland,VBO,4.025515,51.807618
Brielsestraat,21,,,3251CC,Stellendam,Goeree-Overflakkee,Zuid-Holland,VBO,4.025458,51.807582
Brielsestraat,23,,,3251CC,Stellendam,Goeree-Overflakkee,Zuid-Holland,VBO,4.025401,51.807545
Brielsestraat,25,,,3251CC,Stellendam,Goeree-Overflakkee,Zuid-Holland,VBO,4.025344,51.807508
Brielsestraat,27,,,3251CC,Stellendam,Goeree-Overflakkee,Zuid-Holland,VBO,4.025288,51.807445
Brielsestraat,29,,,3251CC,Stellendam,Goeree-Overflakkee,Zuid-Holland,VBO,4.025216,51.807426
Brielsestraat,31,,,3251CC,Stellendam,Goeree-Overflakkee,Zuid-Holland,VBO,4.025160,51.807380
Brielsestraat,33,,,3251CC,Stellendam,Goeree-Overflakkee,Zuid-Holland,VBO,4.025103,51.807344
Brielsestraat,35,,,3251CC,Stellendam,Goeree-Overflakkee,Zuid-Holland,VBO,4.024974,51.807270
Brielsestraat,37,,,3251CC,Stellendam,Goeree-Overflakkee,Zuid-Holland,VBO,4.024918,51.807234
Brielsestraat,39,,,3251CC,Stellendam,Goeree-Overflakkee,Zuid-Holland,VBO,4.024861,51.807197
Brielsestraat,41,,,3251CC,Stellendam,Goeree-Overflakkee,Zuid-Holland,VBO,4.024804,51.807161
Brielsestraat,43,,,3251CC,Stellendam,Goeree-Overflakkee,Zuid-Holland,VBO,4.024747,51.807115
Brielsestraat,49,,,3251CC,Stellendam,Goeree-Overflakkee,Zuid-Holland,VBO,4.024293,51.806603
Brielsestraat,51,,,3251CC,Stellendam,Goeree-Overflakkee,Zuid-Holland,VBO,4.024024,51.806585
Brielsestraat,53,,,3251CC,Stellendam,Goeree-Overflakkee,Zuid-Holland,VBO,4.023844,51.806525
Brielsestraat,55,,,3251CC,Stellendam,Goeree-Overflakkee,Zuid-Holland,VBO,4.023795,51.806457
Brielsestraat,57,,,3251CC,Stellendam,Goeree-Overflakkee,Zuid-Holland,VBO,4.023697,51.806357
Brielsestraat,59,,,3251CC,Stellendam,Goeree-Overflakkee,Zuid-Holland,VBO,4.023622,51.806286
Brielsestraat,61,,,3251CD,Stellendam,Goeree-Overflakkee,Zuid-Holland,VBO,4.023011,51.806007
Brielsestraat,63,,,3251CD,Stellendam,Goeree-Overflakkee,Zuid-Holland,VBO,4.022955,51.805970
Brielsestraat,65,,,3251CD,Stellendam,Goeree-Overflakkee,Zuid-Holland,VBO,4.022883,51.805925
Brielsestraat,67,,,3251CD,Stellendam,Goeree-Overflakkee,Zuid-Holland,VBO,4.022812,51.805879
Brielsestraat,69,,,3251CD,Stellendam,Goeree-Overflakkee,Zuid-Holland,VBO,4.022756,51.805833
Brielsestraat,71,,,3251CD,Stellendam,Goeree-Overflakkee,Zuid-Holland,VBO,4.022685,51.805787
Brielsestraat,73,,,3251CD,Stellendam,Goeree-Overflakkee,Zuid-Holland,VBO,4.022175,51.805386
Brielsestraat,75,,,3251CD,Stellendam,Goeree-Overflakkee,Zuid-Holland,VBO,4.022118,51.805349
Brielsestraat,77,,,3251CD,Stellendam,Goeree-Overflakkee,Zuid-Holland,VBO,4.022061,51.805313
Brielsestraat,79,,,3251CD,Stellendam,Goeree-Overflakkee,Zuid-Holland,VBO,4.022018,51.805285
Brielsestraat,81,,,3251CD,Stellendam,Goeree-Overflakkee,Zuid-Holland,VBO,4.021933,51.805221
Brielsestraat,83,,,3251CD,Stellendam,Goeree-Overflakkee,Zuid-Holland,VBO,4.021876,51.805194
Brielsestraat,85,,,3251CD,Stellendam,Goeree-Overflakkee,Zuid-Holland,VBO,4.021834,51.805157
Brielsestraat,87,,,3251CD,Stellendam,Goeree-Overflakkee,Zuid-Holland,VBO,4.021777,51.805121
Brielsestraat,89,,,3251CD,Stellendam,Goeree-Overflakkee,Zuid-Holland,VBO,4.021722,51.805021
Brielsestraat,91,,,3251CD,Stellendam,Goeree-Overflakkee,Zuid-Holland,VBO,4.021650,51.804984
Brielsestraat,93,,,3251CD,Stellendam,Goeree-Overflakkee,Zuid-Holland,VBO,4.021608,51.804948
Brielsestraat,95,,,3251CD,Stellendam,Goeree-Overflakkee,Zuid-Holland,VBO,4.021551,51.804911
Brielsestraat,97,,,3251CD,Stellendam,Goeree-Overflakkee,Zuid-Holland,VBO,4.020723,51.804470
Brielsestraat,99,,,3251CD,Stellendam,Goeree-Overflakkee,Zuid-Holland,VBO,4.020667,51.804425
Brielsestraat,101,,,3251CD,Stellendam,Goeree-Overflakkee,Zuid-Holland,VBO,4.020510,51.804324
Brielsestraat,103,,,3251CD,Stellendam,Goeree-Overflakkee,Zuid-Holland,VBO,4.020453,51.804296
Brielsestraat,2,,,3251CE,Stellendam,Goeree-Overflakkee,Zuid-Holland,VBO,4.026016,51.808325
Brielsestraat,4,,,3251CE,Stellendam,Goeree-Overflakkee,Zuid-Holland,VBO,4.025916,51.808270
Brielsestraat,6,,,3251CE,Stellendam,Goeree-Overflakkee,Zuid-Holland,VBO,4.025817,51.808188
Brielsestraat,8,,,3251CE,Stellendam,Goeree-Overflakkee,Zuid-Holland,VBO,4.025717,51.808142
Brielsestraat,10,,,3251CE,Stellendam,Goeree-Overflakkee,Zuid-Holland,VBO,4.025490,51.807969
Brielsestraat,12,,,3251CE,Stellendam,Goeree-Overflakkee,Zuid-Holland,VBO,4.025416,51.808013
Brielsestraat,14,,,3251CE,Stellendam,Goeree-Overflakkee,Zuid-Holland,VBO,4.025327,51.808075
Brielsestraat,16,,,3251CE,Stellendam,Goeree-Overflakkee,Zuid-Holland,VBO,4.025224,51.808118
Brielsestraat,18,,,3251CE,Stellendam,Goeree-Overflakkee,Zuid-Holland,VBO,4.024962,51.808160
Brielsestraat,20,,,3251CE,Stellendam,Goeree-Overflakkee,Zuid-Holland,VBO,4.024920,51.808124
Brielsestraat,22,,,3251CE,Stellendam,Goeree-Overflakkee,Zuid-Holland,VBO,4.024791,51.808050
Brielsestraat,24,,,3251CE,Stellendam,Goeree-Overflakkee,Zuid-Holland,VBO,4.024735,51.807996
Brielsestraat,26,,,3251CE,Stellendam,Goeree-Overflakkee,Zuid-Holland,VBO,4.024607,51.807922
Brielsestraat,28,,,3251CE,Stellendam,Goeree-Overflakkee,Zuid-Holland,VBO,4.024536,51.807877
Brielsestraat,30,,,3251CE,Stellendam,Goeree-Overflakkee,Zuid-Holland,VBO,4.023058,51.806623
Brielsestraat,32,,,3251CE,Stellendam,Goeree-Overflakkee,Zuid-Holland,VBO,4.022371,51.806072
Brielsestraat,34,,,3251CE,Stellendam,Goeree-Overflakkee,Zuid-Holland,VBO,4.022343,51.806053
Brielsestraat,36,,,3251CE,Stellendam,Goeree-Overflakkee,Zuid-Holland,VBO,4.022301,51.806017
Brielsestraat,38,,,3251CE,Stellendam,Goeree-Overflakkee,Zuid-Holland,VBO,4.022229,51.805980
Brielsestraat,40,,,3251CE,Stellendam,Goeree-Overflakkee,Zuid-Holland,VBO,4.022217,51.805917
Brielsestraat,42,,,3251CE,Stellendam,Goeree-Overflakkee,Zuid-Holland,VBO,4.022174,51.805880
Brielsestraat,44,,,3251CE,Stellendam,Goeree-Overflakkee,Zuid-Holland,VBO,4.022117,51.805853
Brielsestraat,46,,,3251CE,Stellendam,Goeree-Overflakkee,Zuid-Holland,VBO,4.022060,51.805816
Brielsestraat,48,,,3251CE,Stellendam,Goeree-Overflakkee,Zuid-Holland,VBO,4.021477,51.805450
Brielsestraat,50,,,3251CE,Stellendam,Goeree-Overflakkee,Zuid-Holland,VBO,4.021434,51.805422
Brielsestraat,52,,,3251CE,Stellendam,Goeree-Overflakkee,Zuid-Holland,VBO,4.021377,51.805386
Brielsestraat,54,,,3251CE,Stellendam,Goeree-Overflakkee,Zuid-Holland,VBO,4.021335,51.805358
Brielsestraat,56,,,3251CE,Stellendam,Goeree-Overflakkee,Zuid-Holland,VBO,4.021278,51.805313
Brielsestraat,58,,,3251CE,Stellendam,Goeree-Overflakkee,Zuid-Holland,VBO,4.021221,51.805276
Brielsestraat,60,,,3251CE,Stellendam,Goeree-Overflakkee,Zuid-Holland,VBO,4.021122,51.805194
Brielsestraat,62,,,3251CE,Stellendam,Goeree-Overflakkee,Zuid-Holland,VBO,4.021080,51.805158
Brielsestraat,64,,,3251CE,Stellendam,Goeree-Overflakkee,Zuid-Holland,VBO,4.021023,51.805121
Brielsestraat,66,,,3251CE,Stellendam,Goeree-Overflakkee,Zuid-Holland,VBO,4.020951,51.805084
Brielsestraat,68,,,3251CE,Stellendam,Goeree-Overflakkee,Zuid-Holland,VBO,4.020895,51.805039
Brielsestraat,70,,,3251CE,Stellendam,Goeree-Overflakkee,Zuid-Holland,VBO,4.020838,51.805011
Brielsestraat,72,,,3251CE,Stellendam,Goeree-Overflakkee,Zuid-Holland,VBO,4.020383,51.804700
Brielsestraat,74,,,3251CE,Stellendam,Goeree-Overflakkee,Zuid-Holland,VBO,4.020284,51.804627
Brielsestraat,76,,,3251CE,Stellendam,Goeree-Overflakkee,Zuid-Holland,VBO,4.020205,51.804594
Brielsestraat,84,,,3251CE,Stellendam,Goeree-Overflakkee,Zuid-Holland,VBO,4.020100,51.804463
Brielsestraat,86,,,3251CE,Stellendam,Goeree-Overflakkee,Zuid-Holland,VBO,4.019928,51.804398
Brielsestraat,88,,,3251CE,Stellendam,Goeree-Overflakkee,Zuid-Holland,VBO,4.019744,51.804261
Dahliapad,1,,,3251CH,Stellendam,Goeree-Overflakkee,Zuid-Holland,VBO,4.024013,51.805506
Dahliapad,3,,,3251CH,Stellendam,Goeree-Overflakkee,Zuid-Holland,VBO,4.023970,51.805470
Dahliapad,5,,,3251CH,Stellendam,Goeree-Overflakkee,Zuid-Holland,VBO,4.023914,51.805415
Dahliapad,7,,,3251CH,Stellendam,Goeree-Overflakkee,Zuid-Holland,VBO,4.023843,51.805360
Dahliapad,9,,,3251CH,Stellendam,Goeree-Overflakkee,Zuid-Holland,VBO,4.023786,51.805333
Dahliapad,11,,,3251CH,Stellendam,Goeree-Overflakkee,Zuid-Holland,VBO,4.023715,51.805296
Dahliapad,13,,,3251CH,Stellendam,Goeree-Overflakkee,Zuid-Holland,VBO,4.023643,51.805250
Dahliapad,15,,,3251CH,Stellendam,Goeree-Overflakkee,Zuid-Holland,VBO,4.023587,51.805205
Dahliapad,17,,,3251CH,Stellendam,Goeree-Overflakkee,Zuid-Holland,VBO,4.023391,51.804951
Dahliapad,19,,,3251CH,Stellendam,Goeree-Overflakkee,Zuid-Holland,VBO,4.023347,51.804977
Dahliapad,21,,,3251CH,Stellendam,Goeree-Overflakkee,Zuid-Holland,VBO,4.023274,51.805012
Dahliapad,23,,,3251CH,Stellendam,Goeree-Overflakkee,Zuid-Holland,VBO,4.023229,51.805039
Dahliapad,25,,,3251CH,Stellendam,Goeree-Overflakkee,Zuid-Holland,VBO,4.023030,51.804920
Dahliapad,27,,,3251CH,Stellendam,Goeree-Overflakkee,Zuid-Holland,VBO,4.022973,51.804892
Dahliapad,29,,,3251CH,Stellendam,Goeree-Overflakkee,Zuid-Holland,VBO,4.022930,51.804855
Dahliapad,31,,,3251CH,Stellendam,Goeree-Overflakkee,Zuid-Holland,VBO,4.022873,51.804828
Dahliapad,33,,,3251CH,Stellendam,Goeree-Overflakkee,Zuid-Holland,VBO,4.022744,51.804790
Dahliapad,35,,,3251CH,Stellendam,Goeree-Overflakkee,Zuid-Holland,VBO,4.022701,51.804763
Dahliapad,37,,,3251CH,Stellendam,Goeree-Overflakkee,Zuid-Holland,VBO,4.022659,51.804726
Dahliapad,39,,,3251CH,Stellendam,Goeree-Overflakkee,Zuid-Holland,VBO,4.022602,51.804690
Dahliapad,41,,,3251CH,Stellendam,Goeree-Overflakkee,Zuid-Holland,VBO,4.022559,51.804662
Dahliapad,43,,,3251CH,Stellendam,Goeree-Overflakkee,Zuid-Holland,VBO,4.022502,51.804626
Dahliapad,47,,,3251CJ,Stellendam,Goeree-Overflakkee,Zuid-Holland,VBO,4.022729,51.804323
Dahliapad,49,,,3251CJ,Stellendam,Goeree-Overflakkee,Zuid-Holland,VBO,4.022700,51.804304
Dahliapad,51,,,3251CJ,Stellendam,Goeree-Overflakkee,Zuid-Holland,VBO,4.022728,51.804341
Dahliapad,53,,,3251CJ,Stellendam,Goeree-Overflakkee,Zuid-Holland,VBO,4.022743,51.804323
Dahliapad,55,,,3251CJ,Stellendam,Goeree-Overflakkee,Zuid-Holland,VBO,4.022729,51.804305
Dahliapad,57,,,3251CJ,Stellendam,Goeree-Overflakkee,Zuid-Holland,VBO,4.022701,51.804295
Dahliapad,59,,,3251CJ,Stellendam,Goeree-Overflakkee,Zuid-Holland,VBO,4.022671,51.804304
Dahliapad,61,,,3251CJ,Stellendam,Goeree-Overflakkee,Zuid-Holland,VBO,4.022757,51.804341
Dahliapad,63,,,3251CJ,Stellendam,Goeree-Overflakkee,Zuid-Holland,VBO,4.022772,51.804323
Dahliapad,65,,,3251CJ,Stellendam,Goeree-Overflakkee,Zuid-Holland,VBO,4.022758,51.804305
Dahliapad,67,,,3251CJ,Stellendam,Goeree-Overflakkee,Zuid-Holland,VBO,4.022354,51.804246
Dahliapad,69,,,3251CJ,Stellendam,Goeree-Overflakkee,Zuid-Holland,VBO,4.022384,51.804229
Dahliapad,71,,,3251CJ,Stellendam,Goeree-Overflakkee,Zuid-Holland,VBO,4.022355,51.804211
Dahliapad,73,,,3251CJ,Stellendam,Goeree-Overflakkee,Zuid-Holland,VBO,4.022326,51.804228
Dahliapad,75,,,3251CJ,Stellendam,Goeree-Overflakkee,Zuid-Holland,VBO,4.022238,51.804245
Dahliapad,77,,,3251CJ,Stellendam,Goeree-Overflakkee,Zuid-Holland,VBO,4.022340,51.804228
Dahliapad,79,,,3251CJ,Stellendam,Goeree-Overflakkee,Zuid-Holland,VBO,4.022384,51.804211
Dahliapad,81,,,3251CJ,Stellendam,Goeree-Overflakkee,Zuid-Holland,VBO,4.022356,51.804202
Dahliapad,83,,,3251CJ,Stellendam,Goeree-Overflakkee,Zuid-Holland,VBO,4.022326,51.804210
Dahliapad,85,,,3251CJ,Stellendam,Goeree-Overflakkee,Zuid-Holland,VBO,4.022311,51.804228
Dahliapad,87,,,3251CJ,Stellendam,Goeree-Overflakkee,Zuid-Holland,VBO,4.022325,51.804246
Dahliapad,89,,,3251CJ,Stellendam,Goeree-Overflakkee,Zuid-Holland,VBO,4.022413,51.804211
Dahliapad,91,,,3251CJ,Stellendam,Goeree-Overflakkee,Zuid-Holland,VBO,4.022385,51.804193
Dahliapad,2,,,3251CK,Stellendam,Goeree-Overflakkee,Zuid-Holland,VBO,4.023232,51.805416
Dahliapad,4,,,3251CK,Stellendam,Goeree-Overflakkee,Zuid-Holland,VBO,4.023190,51.805389
Dahliapad,6,,,3251CK,Stellendam,Goeree-Overflakkee,Zuid-Holland,VBO,4.023133,51.805352
Dahliapad,8,,,3251CK,Stellendam,Goeree-Overflakkee,Zuid-Holland,VBO,4.023076,51.805316
Dahliapad,10,,,3251CK,Stellendam,Goeree-Overflakkee,Zuid-Holland,VBO,4.023048,51.805288
Dahliapad,12,,,3251CK,Stellendam,Goeree-Overflakkee,Zuid-Holland,VBO,4.022991,51.805261
Dahliapad,14,,,3251CK,Stellendam,Goeree-Overflakkee,Zuid-Holland,VBO,4.022709,51.804970
Dahliapad,16,,,3251CK,Stellendam,Goeree-Overflakkee,Zuid-Holland,VBO,4.022665,51.804996
Dahliapad,18,,,3251CK,Stellendam,Goeree-Overflakkee,Zuid-Holland,VBO,4.022591,51.805031
Dahliapad,20,,,3251CK,Stellendam,Goeree-Overflakkee,Zuid-Holland,VBO,4.022532,51.805067
Dahliapad,22,,,3251CK,Stellendam,Goeree-Overflakkee,Zuid-Holland,VBO,4.022488,51.805102
Dahliapad,24,,,3251CK,Stellendam,Goeree-Overflakkee,Zuid-Holland,VBO,4.022414,51.805137
Dahliapad,26,,,3251CK,Stellendam,Goeree-Overflakkee,Zuid-Holland,VBO,4.022161,51.804891
Dahliapad,28,A,,3251CK,Stellendam,Goeree-Overflakkee,Zuid-Holland,VBO,4.022295,51.804758
Dahliapad,28,,,3251CK,Stellendam,Goeree-Overflakkee,Zuid-Holland,VBO,4.022104,51.804855
Dahliapad,30,,,3251CK,Stellendam,Goeree-Overflakkee,Zuid-Holland,VBO,4.022062,51.804809
Dahliapad,32,,,3251CK,Stellendam,Goeree-Overflakkee,Zuid-Holland,VBO,4.022005,51.804782
Dahliapad,34,,,3251CK,Stellendam,Goeree-Overflakkee,Zuid-Holland,VBO,4.021979,51.804683
Dahliapad,36,,,3251CK,Stellendam,Goeree-Overflakkee,Zuid-Holland,VBO,4.021914,51.804655
Dahliapad,38,,,3251CK,Stellendam,Goeree-Overflakkee,Zuid-Holland,VBO,4.021879,51.804618
Dahliapad,40,,,3251CK,Stellendam,Goeree-Overflakkee,Zuid-Holland,VBO,4.021793,51.804591
Dahliapad,42,,,3251CK,Stellendam,Goeree-Overflakkee,Zuid-Holland,VBO,4.021751,51.804545
Dahliapad,44,,,3251CK,Stellendam,Goeree-Overflakkee,Zuid-Holland,VBO,4.021693,51.804526
Fresiapad,1,,,3251CL,Stellendam,Goeree-Overflakkee,Zuid-Holland,VBO,4.024215,51.804574
Fresiapad,3,,,3251CL,Stellendam,Goeree-Overflakkee,Zuid-Holland,VBO,4.024186,51.804555
Fresiapad,5,,,3251CL,Stellendam,Goeree-Overflakkee,Zuid-Holland,VBO,4.024158,51.804537
Fresiapad,7,,,3251CL,Stellendam,Goeree-Overflakkee,Zuid-Holland,VBO,4.024115,51.804510
Fresiapad,9,,,3251CL,Stellendam,Goeree-Overflakkee,Zuid-Holland,VBO,4.024087,51.804491
Fresiapad,11,,,3251CL,Stellendam,Goeree-Overflakkee,Zuid-Holland,VBO,4.024058,51.804473
Fresiapad,13,,,3251CL,Stellendam,Goeree-Overflakkee,Zuid-Holland,VBO,4.024030,51.804455
Fresiapad,15,,,3251CL,Stellendam,Goeree-Overflakkee,Zuid-Holland,VBO,4.024002,51.804436
Fresiapad,17,,,3251CL,Stellendam,Goeree-Overflakkee,Zuid-Holland,VBO,4.023988,51.804418
Fresiapad,19,,,3251CL,Stellendam,Goeree-Overflakkee,Zuid-Holland,VBO,4.023974,51.804400
Fresiapad,21,,,3251CL,Stellendam,Goeree-Overflakkee,Zuid-Holland,VBO,4.023802,51.804326
Fresiapad,23,,,3251CL,Stellendam,Goeree-Overflakkee,Zuid-Holland,VBO,4.023788,51.804308
Fresiapad,25,,,3251CL,Stellendam,Goeree-Overflakkee,Zuid-Holland,VBO,4.023759,51.804299
Fresiapad,27,,,3251CL,Stellendam,Goeree-Overflakkee,Zuid-Holland,VBO,4.023745,51.804281
Fresiapad,29,,,3251CL,Stellendam,Goeree-Overflakkee,Zuid-Holland,VBO,4.023731,51.804271
Fresiapad,31,,,3251CL,Stellendam,Goeree-Overflakkee,Zuid-Holland,VBO,4.023717,51.804262
Fresiapad,33,,,3251CL,Stellendam,Goeree-Overflakkee,Zuid-Holland,VBO,4.023703,51.804253
Fresiapad,35,,,3251CL,Stellendam,Goeree-Overflakkee,Zuid-Holland,VBO,4.023689,51.804235
Fresiapad,37,,,3251CL,Stellendam,Goeree-Overflakkee,Zuid-Holland,VBO,4.023660,51.804226
Fresiapad,39,,,3251CL,Stellendam,Goeree-Overflakkee,Zuid-Holland,VBO,4.023646,51.804217
Fresiapad,41,,,3251CL,Stellendam,Goeree-Overflakkee,Zuid-Holland,VBO,4.023617,51.804198
Fresiapad,43,,,3251CL,Stellendam,Goeree-Overflakkee,Zuid-Holland,VBO,4.023603,51.804180
Fresiapad,45,,,3251CL,Stellendam,Goeree-Overflakkee,Zuid-Holland,VBO,4.023560,51.804162
Fresiapad,47,,,3251CL,Stellendam,Goeree-Overflakkee,Zuid-Holland,VBO,4.023546,51.804143
Gladiolenpad,1,,,3251CM,Stellendam,Goeree-Overflakkee,Zuid-Holland,VBO,4.021735,51.805543
Gladiolenpad,2,,,3251CM,Stellendam,Goeree-Overflakkee,Zuid-Holland,VBO,4.021795,51.805939
Gladiolenpad,3,,,3251CM,Stellendam,Goeree-Overflakkee,Zuid-Holland,VBO,4.021676,51.805578
Gladiolenpad,4,,,3251CM,Stellendam,Goeree-Overflakkee,Zuid-Holland,VBO,4.021736,51.805974
Gladiolenpad,5,,,3251CM,Stellendam,Goeree-Overflakkee,Zuid-Holland,VBO,4.021632,51.805604
Gladiolenpad,6,,,3251CM,Stellendam,Goeree-Overflakkee,Zuid-Holland,VBO,4.021052,51.806056
Gladiolenpad,7,,,3251CM,Stellendam,Goeree-Overflakkee,Zuid-Holland,VBO,4.021437,51.805800
Gladiolenpad,8,,,3251CM,Stellendam,Goeree-Overflakkee,Zuid-Holland,VBO,4.020996,51.806011
Gladiolenpad,9,,,3251CM,Stellendam,Goeree-Overflakkee,Zuid-Holland,VBO,4.021394,51.805772
Gladiolenpad,10,,,3251CM,Stellendam,Goeree-Overflakkee,Zuid-Holland,VBO,4.020854,51.805910
Gladiolenpad,11,,,3251CM,Stellendam,Goeree-Overflakkee,Zuid-Holland,VBO,4.021352,51.805727
Gladiolenpad,12,,,3251CM,Stellendam,Goeree-Overflakkee,Zuid-Holland,VBO,4.020797,51.805873
Gladiolenpad,13,,,3251CM,Stellendam,Goeree-Overflakkee,Zuid-Holland,VBO,4.021310,51.805691
Gladiolenpad,14,,,3251CM,Stellendam,Goeree-Overflakkee,Zuid-Holland,VBO,4.020669,51.805773
Gladiolenpad,15,,,3251CM,Stellendam,Goeree-Overflakkee,Zuid-Holland,VBO,4.021078,51.805679
Gladiolenpad,16,,,3251CM,Stellendam,Goeree-Overflakkee,Zuid-Holland,VBO,4.020584,51.805727
Gladiolenpad,17,,,3251CM,Stellendam,Goeree-Overflakkee,Zuid-Holland,VBO,4.021050,51.805661
Gladiolenpad,19,,,3251CM,Stellendam,Goeree-Overflakkee,Zuid-Holland,VBO,4.020948,51.805659
Gladiolenpad,21,,,3251CM,Stellendam,Goeree-Overflakkee,Zuid-Holland,VBO,4.020906,51.805611
Gladiolenpad,23,,,3251CM,Stellendam,Goeree-Overflakkee,Zuid-Holland,VBO,4.020852,51.805474
Gladiolenpad,25,,,3251CM,Stellendam,Goeree-Overflakkee,Zuid-Holland,VBO,4.020817,51.805456
Gladiolenpad,27,,,3251CM,Stellendam,Goeree-Overflakkee,Zuid-Holland,VBO,4.020700,51.805394
Gladiolenpad,29,,,3251CM,Stellendam,Goeree-Overflakkee,Zuid-Holland,VBO,4.020666,51.805422
Gladiolenpad,31,,,3251CM,Stellendam,Goeree-Overflakkee,Zuid-Holland,VBO,4.020594,51.805377
Gladiolenpad,33,,,3251CM,Stellendam,Goeree-Overflakkee,Zuid-Holland,VBO,4.020566,51.805349
Gladiolenpad,35,,,3251CM,Stellendam,Goeree-Overflakkee,Zuid-Holland,VBO,4.020509,51.805313
Gladiolenpad,37,,,3251CM,Stellendam,Goeree-Overflakkee,Zuid-Holland,VBO,4.020467,51.805285
Henri Dunantstraat,1,,,3251CN,Stellendam,Goeree-Overflakkee,Zuid-Holland,VBO,4.022531,51.803682
Henri Dunantstraat,2,,,3251CN,Stellendam,Goeree-Overflakkee,Zuid-Holland,VBO,4.021371,51.803678
Henri Dunantstraat,3,,,3251CN,Stellendam,Goeree-Overflakkee,Zuid-Holland,VBO,4.022425,51.803675
Henri Dunantstraat,4,,,3251CN,Stellendam,Goeree-Overflakkee,Zuid-Holland,VBO,4.021185,51.803601
Henri Dunantstraat,5,,,3251CN,Stellendam,Goeree-Overflakkee,Zuid-Holland,VBO,4.022241,51.803661
Henri Dunantstraat,6,,,3251CN,Stellendam,Goeree-Overflakkee,Zuid-Holland,VBO,4.021023,51.803530
Henri Dunantstraat,7,,,3251CN,Stellendam,Goeree-Overflakkee,Zuid-Holland,VBO,4.022199,51.803642
Henri Dunantstraat,9,A,,3251CN,Stellendam,Goeree-Overflakkee,Zuid-Holland,VBO,4.021991,51.803555
Henri Dunantstraat,9,,,3251CN,Stellendam,Goeree-Overflakkee,Zuid-Holland,VBO,4.022127,51.803624
Henri Dunantstraat,11,,,3251CN,Stellendam,Goeree-Overflakkee,Zuid-Holland,VBO,4.021824,51.803548
Henri Dunantstraat,13,,,3251CN,Stellendam,Goeree-Overflakkee,Zuid-Holland,VBO,4.021767,51.803529
Henri Dunantstraat,15,,,3251CN,Stellendam,Goeree-Overflakkee,Zuid-Holland,VBO,4.021709,51.803511
Henri Dunantstraat,17,,,3251CN,Stellendam,Goeree-Overflakkee,Zuid-Holland,VBO,4.021638,51.803483
Haagsestraat,1,,,3251CP,Stellendam,Goeree-Overflakkee,Zuid-Holland,VBO,4.026655,51.805411
Haagsestraat,3,,,3251CP,Stellendam,Goeree-Overflakkee,Zuid-Holland,VBO,4.026570,51.805314
Haagsestraat,5,,,3251CP,Stellendam,Goeree-Overflakkee,Zuid-Holland,VBO,4.026560,51.805320
Haagsestraat,7,,,3251CP,Stellendam,Goeree-Overflakkee,Zuid-Holland,VBO,4.026484,51.805301
Haagsestraat,9,,,3251CP,Stellendam,Goeree-Overflakkee,Zuid-Holland,VBO,4.025958,51.804954
Haagsestraat,11,,,3251CP,Stellendam,Goeree-Overflakkee,Zuid-Holland,VBO,4.025927,51.804903
Haagsestraat,13,,,3251CP,Stellendam,Goeree-Overflakkee,Zuid-Holland,VBO,4.025816,51.804862
Haagsestraat,15,,,3251CP,Stellendam,Goeree-Overflakkee,Zuid-Holland,VBO,4.025745,51.804816
Haagsestraat,17,,,3251CP,Stellendam,Goeree-Overflakkee,Zuid-Holland,VBO,4.025688,51.804780
Haagsestraat,19,,,3251CP,Stellendam,Goeree-Overflakkee,Zuid-Holland,VBO,4.025602,51.804725
Haagsestraat,21,,,3251CP,Stellendam,Goeree-Overflakkee,Zuid-Holland,VBO,4.025532,51.804670
Haagsestraat,23,,,3251CP,Stellendam,Goeree-Overflakkee,Zuid-Holland,VBO,4.025054,51.804161
Haagsestraat,25,,,3251CP,Stellendam,Goeree-Overflakkee,Zuid-Holland,VBO,4.024997,51.804124
Haagsestraat,27,,,3251CP,Stellendam,Goeree-Overflakkee,Zuid-Holland,VBO,4.024926,51.804079
Haagsestraat,29,,,3251CP,Stellendam,Goeree-Overflakkee,Zuid-Holland,VBO,4.024855,51.804033
Haagsestraat,31,,,3251CP,Stellendam,Goeree-Overflakkee,Zuid-Holland,VBO,4.024798,51.803996
Haagsestraat,33,,,3251CP,Stellendam,Goeree-Overflakkee,Zuid-Holland,VBO,4.024741,51.803951
Haagsestraat,35,,,3251CP,Stellendam,Goeree-Overflakkee,Zuid-Holland,VBO,4.024024,51.803700
Haagsestraat,37,,,3251CP,Stellendam,Goeree-Overflakkee,Zuid-Holland,VBO,4.023952,51.803672
Haagsestraat,39,,,3251CP,Stellendam,Goeree-Overflakkee,Zuid-Holland,VBO,4.023880,51.803644
Haagsestraat,41,,,3251CP,Stellendam,Goeree-Overflakkee,Zuid-Holland,VBO,4.023809,51.803616
Haagsestraat,43,,,3251CP,Stellendam,Goeree-Overflakkee,Zuid-Holland,VBO,4.023723,51.803588
Haagsestraat,45,,,3251CP,Stellendam,Goeree-Overflakkee,Zuid-Holland,VBO,4.023651,51.803560
Haagsestraat,47,,,3251CP,Stellendam,Goeree-Overflakkee,Zuid-Holland,VBO,4.023580,51.803524
Haagsestraat,49,,,3251CP,Stellendam,Goeree-Overflakkee,Zuid-Holland,VBO,4.023508,51.803496
Haagsestraat,2,A,,3251CR,Stellendam,Goeree-Overflakkee,Zuid-Holland,VBO,4.025851,51.805141
Haagsestraat,2,B,,3251CR,Stellendam,Goeree-Overflakkee,Zuid-Holland,VBO,4.025780,51.805095
Haagsestraat,2,C,,3251CR,Stellendam,Goeree-Overflakkee,Zuid-Holland,VBO,4.025692,51.805069
Haagsestraat,2,,,3251CR,Stellendam,Goeree-Overflakkee,Zuid-Holland,VBO,4.025594,51.805003
Haagsestraat,4,A,,3251CR,Stellendam,Goeree-Overflakkee,Zuid-Holland,VBO,4.024584,51.804535
Haagsestraat,4,,,3251CR,Stellendam,Goeree-Overflakkee,Zuid-Holland,VBO,4.025552,51.804949
Haagsestraat,6,,,3251CR,Stellendam,Goeree-Overflakkee,Zuid-Holland,VBO,4.024560,51.804288
Haagsestraat,8,,,3251CR,Stellendam,Goeree-Overflakkee,Zuid-Holland,VBO,4.024499,51.804314
Haagsestraat,10,,,3251CR,Stellendam,Goeree-Overflakkee,Zuid-Holland,VBO,4.024454,51.804351
Haagsestraat,12,,,3251CR,Stellendam,Goeree-Overflakkee,Zuid-Holland,VBO,4.024377,51.804369
Haagsestraat,14,,,3251CR,Stellendam,Goeree-Overflakkee,Zuid-Holland,VBO,4.024319,51.804402
Haagsestraat,16,,,3251CR,Stellendam,Goeree-Overflakkee,Zuid-Holland,VBO,4.024378,51.804159
Haagsestraat,18,,,3251CR,Stellendam,Goeree-Overflakkee,Zuid-Holland,VBO,4.024325,51.804129
Haagsestraat,20,,,3251CR,Stellendam,Goeree-Overflakkee,Zuid-Holland,VBO,4.024274,51.804094
Haagsestraat,22,,,3251CR,Stellendam,Goeree-Overflakkee,Zuid-Holland,VBO,4.024230,51.804059
Haagsestraat,24,,,3251CR,Stellendam,Goeree-Overflakkee,Zuid-Holland,VBO,4.024178,51.804024
Haagsestraat,26,,,3251CR,Stellendam,Goeree-Overflakkee,Zuid-Holland,VBO,4.024032,51.803948
Haagsestraat,28,,,3251CR,Stellendam,Goeree-Overflakkee,Zuid-Holland,VBO,4.023960,51.803923
Haagsestraat,30,,,3251CR,Stellendam,Goeree-Overflakkee,Zuid-Holland,VBO,4.023859,51.803924
Haagsestraat,32,,,3251CR,Stellendam,Goeree-Overflakkee,Zuid-Holland,VBO,4.023808,51.803902
Haagsestraat,34,,,3251CR,Stellendam,Goeree-Overflakkee,Zuid-Holland,VBO,4.023743,51.803871
Haagsestraat,36,,,3251CR,Stellendam,Goeree-Overflakkee,Zuid-Holland,VBO,4.023673,51.803846
Haagsestraat,38,,,3251CR,Stellendam,Goeree-Overflakkee,Zuid-Holland,VBO,4.023601,51.803812
Haagsestraat,40,,,3251CR,Stellendam,Goeree-Overflakkee,Zuid-Holland,VBO,4.023533,51.803789
Haagsestraat,42,,,3251CR,Stellendam,Goeree-Overflakkee,Zuid-Holland,VBO,4.023467,51.803767
Haagsestraat,44,,,3251CR,Stellendam,Goeree-Overflakkee,Zuid-Holland,VBO,4.023407,51.803740
Haagsestraat,46,,,3251CR,Stellendam,Goeree-Overflakkee,Zuid-Holland,VBO,4.023340,51.803716
Koning Haakonstraat,1,,,3251CS,Stellendam,Goeree-Overflakkee,Zuid-Holland,VBO,4.023336,51.803413
Koning Haakonstraat,2,,,3251CS,Stellendam,Goeree-Overflakkee,Zuid-Holland,VBO,4.023072,51.803536
Koning Haakonstraat,3,,,3251CS,Stellendam,Goeree-Overflakkee,Zuid-Holland,VBO,4.023294,51.803385
Koning Haakonstraat,4,,,3251CS,Stellendam,Goeree-Overflakkee,Zuid-Holland,VBO,4.022840,51.803542
Koning Haakonstraat,5,,,3251CS,Stellendam,Goeree-Overflakkee,Zuid-Holland,VBO,4.023237,51.803340
Koning Haakonstraat,6,,,3251CS,Stellendam,Goeree-Overflakkee,Zuid-Holland,VBO,4.022859,51.803389
Koning Haakonstraat,7,,,3251CS,Stellendam,Goeree-Overflakkee,Zuid-Holland,VBO,4.023154,51.803217
Koning Haakonstraat,8,,,3251CS,Stellendam,Goeree-Overflakkee,Zuid-Holland,VBO,4.022642,51.803357
Koning Haakonstraat,9,,,3251CS,Stellendam,Goeree-Overflakkee,Zuid-Holland,VBO,4.022969,51.803094
Koning Haakonstraat,10,,,3251CS,Stellendam,Goeree-Overflakkee,Zuid-Holland,VBO,4.022585,51.803323
Koning Haakonstraat,12,,,3251CS,Stellendam,Goeree-Overflakkee,Zuid-Holland,VBO,4.022442,51.803259
Koning Haakonstraat,13,,,3251CS,Stellendam,Goeree-Overflakkee,Zuid-Holland,VBO,4.022783,51.803002
Koning Haakonstraat,14,,,3251CS,Stellendam,Goeree-Overflakkee,Zuid-Holland,VBO,4.022385,51.803222
Koning Haakonstraat,15,,,3251CS,Stellendam,Goeree-Overflakkee,Zuid-Holland,VBO,4.022742,51.802921
Koning Haakonstraat,16,,,3251CS,Stellendam,Goeree-Overflakkee,Zuid-Holland,VBO,4.022271,51.803149
Koning Haakonstraat,17,A,,3251CS,Stellendam,Goeree-Overflakkee,Zuid-Holland,VBO,4.022305,51.803128
Koning Haakonstraat,17,,,3251CS,Stellendam,Goeree-Overflakkee,Zuid-Holland,VBO,4.022580,51.802880
Koning Haakonstraat,18,,,3251CS,Stellendam,Goeree-Overflakkee,Zuid-Holland,VBO,4.022215,51.803112
Koning Haakonstraat,19,,,3251CS,Stellendam,Goeree-Overflakkee,Zuid-Holland,VBO,4.022599,51.802874
Korenbloempad,1,,,3251CT,Stellendam,Goeree-Overflakkee,Zuid-Holland,VBO,4.023830,51.804839
Korenbloempad,3,,,3251CT,Stellendam,Goeree-Overflakkee,Zuid-Holland,VBO,4.023859,51.804821
Korenbloempad,5,,,3251CT,Stellendam,Goeree-Overflakkee,Zuid-Holland,VBO,4.023831,51.804803
Korenbloempad,7,,,3251CT,Stellendam,Goeree-Overflakkee,Zuid-Holland,VBO,4.023801,51.804821
Korenbloempad,9,,,3251CT,Stellendam,Goeree-Overflakkee,Zuid-Holland,VBO,4.023859,51.804839
Korenbloempad,11,,,3251CT,Stellendam,Goeree-Overflakkee,Zuid-Holland,VBO,4.023874,51.804821
Korenbloempad,13,,,3251CT,Stellendam,Goeree-Overflakkee,Zuid-Holland,VBO,4.023860,51.804803
Korenbloempad,15,,,3251CT,Stellendam,Goeree-Overflakkee,Zuid-Holland,VBO,4.023831,51.804794
Korenbloempad,17,,,3251CT,Stellendam,Goeree-Overflakkee,Zuid-Holland,VBO,4.023802,51.804803
Korenbloempad,19,,,3251CT,Stellendam,Goeree-Overflakkee,Zuid-Holland,VBO,4.023858,51.804857
Korenbloempad,21,,,3251CT,Stellendam,Goeree-Overflakkee,Zuid-Holland,VBO,4.023888,51.804840
Korenbloempad,23,,,3251CT,Stellendam,Goeree-Overflakkee,Zuid-Holland,VBO,4.023903,51.804822
Korenbloempad,25,,,3251CT,Stellendam,Goeree-Overflakkee,Zuid-Holland,VBO,4.023889,51.804804
Korenbloempad,27,,,3251CT,Stellendam,Goeree-Overflakkee,Zuid-Holland,VBO,4.023860,51.804785
Korenbloempad,29,,,3251CT,Stellendam,Goeree-Overflakkee,Zuid-Holland,VBO,4.023400,51.804654
Korenbloempad,31,,,3251CT,Stellendam,Goeree-Overflakkee,Zuid-Holland,VBO,4.023430,51.804637
Korenbloempad,33,,,3251CT,Stellendam,Goeree-Overflakkee,Zuid-Holland,VBO,4.023402,51.804618
Korenbloempad,35,,,3251CT,Stellendam,Goeree-Overflakkee,Zuid-Holland,VBO,4.023372,51.804636
Korenbloempad,37,B,,3251CT,Stellendam,Goeree-Overflakkee,Zuid-Holland,VBO,4.023465,51.804599
Korenbloempad,37,,,3251CT,Stellendam,Goeree-Overflakkee,Zuid-Holland,VBO,4.023431,51.804619
Korenbloempad,39,,,3251CT,Stellendam,Goeree-Overflakkee,Zuid-Holland,VBO,4.023402,51.804609
Meidoornstraat,1,,,3251CV,Stellendam,Goeree-Overflakkee,Zuid-Holland,VBO,4.028059,51.806443
Meidoornstraat,2,,,3251CV,Stellendam,Goeree-Overflakkee,Zuid-Holland,VBO,4.028079,51.806749
Meidoornstraat,3,,,3251CV,Stellendam,Goeree-Overflakkee,Zuid-Holland,VBO,4.027960,51.806370
Meidoornstraat,4,,,3251CV,Stellendam,Goeree-Overflakkee,Zuid-Holland,VBO,4.028036,51.806722
Meidoornstraat,5,,,3251CV,Stellendam,Goeree-Overflakkee,Zuid-Holland,VBO,4.027875,51.806315
Meidoornstraat,6,,,3251CV,Stellendam,Goeree-Overflakkee,Zuid-Holland,VBO,4.027994,51.806694
Meidoornstraat,7,,,3251CV,Stellendam,Goeree-Overflakkee,Zuid-Holland,VBO,4.027761,51.806233
Meidoornstraat,8,,,3251CV,Stellendam,Goeree-Overflakkee,Zuid-Holland,VBO,4.027909,51.806621
Meidoornstraat,9,,,3251CV,Stellendam,Goeree-Overflakkee,Zuid-Holland,VBO,4.027661,51.806178
Meidoornstraat,10,,,3251CV,Stellendam,Goeree-Overflakkee,Zuid-Holland,VBO,4.027809,51.806557
Meidoornstraat,11,,,3251CV,Stellendam,Goeree-Overflakkee,Zuid-Holland,VBO,4.027548,51.806096
Meidoornstraat,12,,,3251CV,Stellendam,Goeree-Overflakkee,Zuid-Holland,VBO,4.027738,51.806520
Meidoornstraat,13,,,3251CV,Stellendam,Goeree-Overflakkee,Zuid-Holland,VBO,4.027477,51.806050
Meidoornstraat,14,,,3251CV,Stellendam,Goeree-Overflakkee,Zuid-Holland,VBO,4.027652,51.806465
Meidoornstraat,15,,,3251CV,Stellendam,Goeree-Overflakkee,Zuid-Holland,VBO,4.027348,51.805968
Meidoornstraat,16,,,3251CV,Stellendam,Goeree-Overflakkee,Zuid-Holland,VBO,4.027596,51.806429
Meidoornstraat,17,,,3251CV,Stellendam,Goeree-Overflakkee,Zuid-Holland,VBO,4.027278,51.805913
Meidoornstraat,18,,,3251CV,Stellendam,Goeree-Overflakkee,Zuid-Holland,VBO,4.027512,51.806320
Meidoornstraat,19,,,3251CV,Stellendam,Goeree-Overflakkee,Zuid-Holland,VBO,4.027164,51.805840
Meidoornstraat,20,,,3251CV,Stellendam,Goeree-Overflakkee,Zuid-Holland,VBO,4.027368,51.806273
Meidoornstraat,21,,,3251CV,Stellendam,Goeree-Overflakkee,Zuid-Holland,VBO,4.027067,51.805677
Meidoornstraat,22,,,3251CV,Stellendam,Goeree-Overflakkee,Zuid-Holland,VBO,4.027297,51.806219
Meidoornstraat,23,,,3251CV,Stellendam,Goeree-Overflakkee,Zuid-Holland,VBO,4.026998,51.805577
Meidoornstraat,24,,,3251CV,Stellendam,Goeree-Overflakkee,Zuid-Holland,VBO,4.027212,51.806173
Meidoornstraat,26,,,3251CV,Stellendam,Goeree-Overflakkee,Zuid-Holland,VBO,4.027112,51.806109
Meidoornstraat,28,,,3251CV,Stellendam,Goeree-Overflakkee,Zuid-Holland,VBO,4.027056,51.806063
Meidoornstraat,30,,,3251CV,Stellendam,Goeree-Overflakkee,Zuid-Holland,VBO,4.026987,51.806040
Meidoornstraat,32,,,3251CV,Stellendam,Goeree-Overflakkee,Zuid-Holland,VBO,4.026942,51.805981
Meidoornstraat,34,,,3251CV,Stellendam,Goeree-Overflakkee,Zuid-Holland,VBO,4.026871,51.805944
Meidoornstraat,36,,,3251CV,Stellendam,Goeree-Overflakkee,Zuid-Holland,VBO,4.026844,51.805881
Meidoornstraat,38,,,3251CV,Stellendam,Goeree-Overflakkee,Zuid-Holland,VBO,4.026700,51.805843
Meidoornstraat,40,,,3251CV,Stellendam,Goeree-Overflakkee,Zuid-Holland,VBO,4.026614,51.805797
Tulpenpad,1,,,3251CW,Stellendam,Goeree-Overflakkee,Zuid-Holland,VBO,4.022090,51.806266
Tulpenpad,2,,,3251CW,Stellendam,Goeree-Overflakkee,Zuid-Holland,VBO,4.021765,51.806478
Tulpenpad,3,,,3251CW,Stellendam,Goeree-Overflakkee,Zuid-Holland,VBO,4.022033,51.806229
Tulpenpad,4,,,3251CW,Stellendam,Goeree-Overflakkee,Zuid-Holland,VBO,4.021693,51.806441
Tulpenpad,5,,,3251CW,Stellendam,Goeree-Overflakkee,Zuid-Holland,VBO,4.021977,51.806184
Tulpenpad,6,,,3251CW,Stellendam,Goeree-Overflakkee,Zuid-Holland,VBO,4.021551,51.806359
Tulpenpad,7,,,3251CW,Stellendam,Goeree-Overflakkee,Zuid-Holland,VBO,4.021920,51.806138
Tulpenpad,9,,,3251CW,Stellendam,Goeree-Overflakkee,Zuid-Holland,VBO,4.021516,51.806071
Tulpenpad,10,,,3251CW,Stellendam,Goeree-Overflakkee,Zuid-Holland,VBO,4.021327,51.806554
Tulpenpad,11,,,3251CW,Stellendam,Goeree-Overflakkee,Zuid-Holland,VBO,4.021427,51.806123
Tulpenpad,12,,,3251CW,Stellendam,Goeree-Overflakkee,Zuid-Holland,VBO,4.021151,51.806642
Tulpenpad,13,,,3251CW,Stellendam,Goeree-Overflakkee,Zuid-Holland,VBO,4.021280,51.806203
Tulpenpad,14,,,3251CW,Stellendam,Goeree-Overflakkee,Zuid-Holland,VBO,4.021191,51.806732
Tulpenpad,15,,,3251CW,Stellendam,Goeree-Overflakkee,Zuid-Holland,VBO,4.021221,51.806238
Tulpenpad,17,,,3251CW,Stellendam,Goeree-Overflakkee,Zuid-Holland,VBO,4.021073,51.806317
Tulpenpad,19,,,3251CW,Stellendam,Goeree-Overflakkee,Zuid-Holland,VBO,4.021029,51.806353
Tulpenpad,21,,,3251CW,Stellendam,Goeree-Overflakkee,Zuid-Holland,VBO,4.020896,51.806423
Tulpenpad,23,,,3251CW,Stellendam,Goeree-Overflakkee,Zuid-Holland,VBO,4.020852,51.806449
Tulpenpad,25,,,3251CW,Stellendam,Goeree-Overflakkee,Zuid-Holland,VBO,4.020772,51.806700
Tulpenpad,27,,,3251CW,Stellendam,Goeree-Overflakkee,Zuid-Holland,VBO,4.020698,51.806735
Tulpenpad,29,,,3251CW,Stellendam,Goeree-Overflakkee,Zuid-Holland,VBO,4.020654,51.806771
Tulpenpad,31,,,3251CW,Stellendam,Goeree-Overflakkee,Zuid-Holland,VBO,4.020595,51.806797
Tulpenpad,33,,,3251CW,Stellendam,Goeree-Overflakkee,Zuid-Holland,VBO,4.020522,51.806823
Tulpenpad,35,,,3251CW,Stellendam,Goeree-Overflakkee,Zuid-Holland,VBO,4.020462,51.806858
Tulpenpad,43,,,3251CW,Stellendam,Goeree-Overflakkee,Zuid-Holland,VBO,4.020851,51.806962
Tulpenpad,45,,,3251CW,Stellendam,Goeree-Overflakkee,Zuid-Holland,VBO,4.020893,51.806998
Tulpenpad,47,,,3251CW,Stellendam,Goeree-Overflakkee,Zuid-Holland,VBO,4.020935,51.807044
Tulpenpad,49,,,3251CW,Stellendam,Goeree-Overflakkee,Zuid-Holland,VBO,4.020978,51.807080
Tulpenpad,51,,,3251CW,Stellendam,Goeree-Overflakkee,Zuid-Holland,VBO,4.021035,51.807117
Tulpenpad,53,,,3251CW,Stellendam,Goeree-Overflakkee,Zuid-Holland,VBO,4.021092,51.807153
Tulpenpad,55,,,3251CW,Stellendam,Goeree-Overflakkee,Zuid-Holland,VBO,4.021149,51.807181
Zonnebloempad,2,,,3251CX,Stellendam,Goeree-Overflakkee,Zuid-Holland,VBO,4.022753,51.805447
Zonnebloempad,4,,,3251CX,Stellendam,Goeree-Overflakkee,Zuid-Holland,VBO,4.022794,51.805528
Zonnebloempad,6,,,3251CX,Stellendam,Goeree-Overflakkee,Zuid-Holland,VBO,4.022692,51.805545
Zonnebloempad,8,,,3251CX,Stellendam,Goeree-Overflakkee,Zuid-Holland,VBO,4.022626,51.805571
Zonnebloempad,10,,,3251CX,Stellendam,Goeree-Overflakkee,Zuid-Holland,VBO,4.022574,51.805606
Zonnebloempad,12,,,3251CX,Stellendam,Goeree-Overflakkee,Zuid-Holland,VBO,4.022515,51.805642
Narcissenpad,1,,,3251CZ,Stellendam,Goeree-Overflakkee,Zuid-Holland,VBO,4.020771,51.806260
Narcissenpad,2,,,3251CZ,Stellendam,Goeree-Overflakkee,Zuid-Holland,VBO,4.020426,51.806633
Narcissenpad,3,,,3251CZ,Stellendam,Goeree-Overflakkee,Zuid-Holland,VBO,4.020713,51.806232
Narcissenpad,4,,,3251CZ,Stellendam,Goeree-Overflakkee,Zuid-Holland,VBO,4.020369,51.806597
Narcissenpad,5,,,3251CZ,Stellendam,Goeree-Overflakkee,Zuid-Holland,VBO,4.020671,51.806196
Narcissenpad,6,,,3251CZ,Stellendam,Goeree-Overflakkee,Zuid-Holland,VBO,4.020327,51.806560
Narcissenpad,7,,,3251CZ,Stellendam,Goeree-Overflakkee,Zuid-Holland,VBO,4.020614,51.806150
Narcissenpad,8,,,3251CZ,Stellendam,Goeree-Overflakkee,Zuid-Holland,VBO,4.020270,51.806523
Narcissenpad,9,,,3251CZ,Stellendam,Goeree-Overflakkee,Zuid-Holland,VBO,4.020557,51.806122
Narcissenpad,10,,,3251CZ,Stellendam,Goeree-Overflakkee,Zuid-Holland,VBO,4.020198,51.806487
Narcissenpad,11,,,3251CZ,Stellendam,Goeree-Overflakkee,Zuid-Holland,VBO,4.020486,51.806077
Narcissenpad,12,,,3251CZ,Stellendam,Goeree-Overflakkee,Zuid-Holland,VBO,4.020141,51.806459
Narcissenpad,13,A,,3251CZ,Stellendam,Goeree-Overflakkee,Zuid-Holland,VBO,4.020446,51.805983
Narcissenpad,13,,,3251CZ,Stellendam,Goeree-Overflakkee,Zuid-Holland,VBO,4.020503,51.806014
Narcissenpad,14,,,3251CZ,Stellendam,Goeree-Overflakkee,Zuid-Holland,VBO,4.020099,51.806423
Narcissenpad,15,,,3251CZ,Stellendam,Goeree-Overflakkee,Zuid-Holland,VBO,4.020211,51.806055
Narcissenpad,16,,,3251CZ,Stellendam,Goeree-Overflakkee,Zuid-Holland,VBO,4.020027,51.806395
Narcissenpad,17,,,3251CZ,Stellendam,Goeree-Overflakkee,Zuid-Holland,VBO,4.020153,51.806082
Narcissenpad,19,,,3251CZ,Stellendam,Goeree-Overflakkee,Zuid-Holland,VBO,4.020093,51.806117
Narcissenpad,20,,,3251CZ,Stellendam,Goeree-Overflakkee,Zuid-Holland,VBO,4.018702,51.805624
Narcissenpad,21,,,3251CZ,Stellendam,Goeree-Overflakkee,Zuid-Holland,VBO,4.020035,51.806143
Narcissenpad,22,,,3251CZ,Stellendam,Goeree-Overflakkee,Zuid-Holland,VBO,4.018735,51.805472
Narcissenpad,23,,,3251CZ,Stellendam,Goeree-Overflakkee,Zuid-Holland,VBO,4.019961,51.806169
Narcissenpad,24,,,3251CZ,Stellendam,Goeree-Overflakkee,Zuid-Holland,VBO,4.018738,51.805382
Narcissenpad,25,,,3251CZ,Stellendam,Goeree-Overflakkee,Zuid-Holland,VBO,4.019902,51.806205
Narcissenpad,26,,,3251CZ,Stellendam,Goeree-Overflakkee,Zuid-Holland,VBO,4.018490,51.805442
Narcissenpad,27,,,3251CZ,Stellendam,Goeree-Overflakkee,Zuid-Holland,VBO,4.019843,51.806240
Narcissenpad,28,,,3251CZ,Stellendam,Goeree-Overflakkee,Zuid-Holland,VBO,4.018286,51.805323
Narcissenpad,29,,,3251CZ,Stellendam,Goeree-Overflakkee,Zuid-Holland,VBO,4.019784,51.806275
Narcissenpad,30,,,3251CZ,Stellendam,Goeree-Overflakkee,Zuid-Holland,VBO,4.018193,51.805178
Narcissenpad,31,,,3251CZ,Stellendam,Goeree-Overflakkee,Zuid-Holland,VBO,4.019600,51.806120
Narcissenpad,32,,,3251CZ,Stellendam,Goeree-Overflakkee,Zuid-Holland,VBO,4.018428,51.805100
Narcissenpad,33,,,3251CZ,Stellendam,Goeree-Overflakkee,Zuid-Holland,VBO,4.019574,51.806043
Narcissenpad,34,A,,3251CZ,Stellendam,Goeree-Overflakkee,Zuid-Holland,VBO,4.020307,51.806567
Narcissenpad,34,,,3251CZ,Stellendam,Goeree-Overflakkee,Zuid-Holland,VBO,4.018635,51.804967
Narcissenpad,35,,,3251CZ,Stellendam,Goeree-Overflakkee,Zuid-Holland,VBO,4.019538,51.806021
Narcissenpad,36,,,3251CZ,Stellendam,Goeree-Overflakkee,Zuid-Holland,VBO,4.018878,51.805087
Narcissenpad,37,,,3251CZ,Stellendam,Goeree-Overflakkee,Zuid-Holland,VBO,4.019474,51.805975
Narcissenpad,38,,,3251CZ,Stellendam,Goeree-Overflakkee,Zuid-Holland,VBO,4.019230,51.804929
Narcissenpad,39,,,3251CZ,Stellendam,Goeree-Overflakkee,Zuid-Holland,VBO,4.019453,51.805945
Narcissenpad,40,,,3251CZ,Stellendam,Goeree-Overflakkee,Zuid-Holland,VBO,4.018974,51.804791
Narcissenpad,41,,,3251CZ,Stellendam,Goeree-Overflakkee,Zuid-Holland,VBO,4.019317,51.805901
Narcissenpad,42,,,3251CZ,Stellendam,Goeree-Overflakkee,Zuid-Holland,VBO,4.019180,51.804677
Narcissenpad,43,,,3251CZ,Stellendam,Goeree-Overflakkee,Zuid-Holland,VBO,4.019260,51.805864
Narcissenpad,44,,,3251CZ,Stellendam,Goeree-Overflakkee,Zuid-Holland,VBO,4.019299,51.804575
Narcissenpad,45,,,3251CZ,Stellendam,Goeree-Overflakkee,Zuid-Holland,VBO,4.019217,51.805837
Narcissenpad,46,,,3251CZ,Stellendam,Goeree-Overflakkee,Zuid-Holland,VBO,4.019577,51.804484
Narcissenpad,47,,,3251CZ,Stellendam,Goeree-Overflakkee,Zuid-Holland,VBO,4.019146,51.805791
Narcissenpad,48,,,3251CZ,Stellendam,Goeree-Overflakkee,Zuid-Holland,VBO,4.019689,51.804614
Narcissenpad,49,,,3251CZ,Stellendam,Goeree-Overflakkee,Zuid-Holland,VBO,4.019104,51.805764
Narcissenpad,50,,,3251CZ,Stellendam,Goeree-Overflakkee,Zuid-Holland,VBO,4.019792,51.804714
Narcissenpad,52,,,3251CZ,Stellendam,Goeree-Overflakkee,Zuid-Holland,VBO,4.019917,51.804775
Narcissenpad,54,,,3251CZ,Stellendam,Goeree-Overflakkee,Zuid-Holland,VBO,4.019959,51.804812
Narcissenpad,56,,,3251CZ,Stellendam,Goeree-Overflakkee,Zuid-Holland,VBO,4.020016,51.804848
Narcissenpad,58,,,3251CZ,Stellendam,Goeree-Overflakkee,Zuid-Holland,VBO,4.020058,51.804885
Narcissenpad,63,,,3251CZ,Stellendam,Goeree-Overflakkee,Zuid-Holland,VBO,4.019141,51.805477
Narcissenpad,65,,,3251CZ,Stellendam,Goeree-Overflakkee,Zuid-Holland,VBO,4.019218,51.805334
Narcissenpad,67,,,3251CZ,Stellendam,Goeree-Overflakkee,Zuid-Holland,VBO,4.019439,51.805210
Narcissenpad,69,,,3251CZ,Stellendam,Goeree-Overflakkee,Zuid-Holland,VBO,4.019632,51.805087
Irissenpad,1,,,3251DA,Stellendam,Goeree-Overflakkee,Zuid-Holland,VBO,4.021702,51.804239
Irissenpad,2,,,3251DA,Stellendam,Goeree-Overflakkee,Zuid-Holland,VBO,4.021181,51.804215
Irissenpad,3,,,3251DA,Stellendam,Goeree-Overflakkee,Zuid-Holland,VBO,4.021645,51.804193
Irissenpad,4,,,3251DA,Stellendam,Goeree-Overflakkee,Zuid-Holland,VBO,4.021016,51.804143
Irissenpad,5,,,3251DA,Stellendam,Goeree-Overflakkee,Zuid-Holland,VBO,4.021588,51.804166
Irissenpad,6,,,3251DA,Stellendam,Goeree-Overflakkee,Zuid-Holland,VBO,4.020869,51.804069
Irissenpad,7,,,3251DA,Stellendam,Goeree-Overflakkee,Zuid-Holland,VBO,4.021532,51.804120
Irissenpad,9,,,3251DA,Stellendam,Goeree-Overflakkee,Zuid-Holland,VBO,4.021519,51.804066
Irissenpad,11,,,3251DA,Stellendam,Goeree-Overflakkee,Zuid-Holland,VBO,4.021418,51.804047
Irissenpad,13,,,3251DA,Stellendam,Goeree-Overflakkee,Zuid-Holland,VBO,4.021592,51.803908
Irissenpad,15,,,3251DA,Stellendam,Goeree-Overflakkee,Zuid-Holland,VBO,4.021665,51.803870
Irissenpad,17,,,3251DA,Stellendam,Goeree-Overflakkee,Zuid-Holland,VBO,4.021657,51.803816
Irissenpad,19,,,3251DA,Stellendam,Goeree-Overflakkee,Zuid-Holland,VBO,4.021687,51.803771
Irissenpad,21,,,3251DA,Stellendam,Goeree-Overflakkee,Zuid-Holland,VBO,4.021717,51.803727
Irissenpad,23,,,3251DA,Stellendam,Goeree-Overflakkee,Zuid-Holland,VBO,4.020804,51.803716
Irissenpad,25,,,3251DA,Stellendam,Goeree-Overflakkee,Zuid-Holland,VBO,4.020623,51.803813
Irissenpad,27,,,3251DA,Stellendam,Goeree-Overflakkee,Zuid-Holland,VBO,4.020464,51.803928
Irissenpad,29,,,3251DA,Stellendam,Goeree-Overflakkee,Zuid-Holland,VBO,4.020302,51.804007
Irissenpad,31,,,3251DA,Stellendam,Goeree-Overflakkee,Zuid-Holland,VBO,4.020092,51.804115
Damweg,1,A,,3251LB,Stellendam,Goeree-Overflakkee,Zuid-Holland,VBO,4.011903,51.803233
Damweg,1,,,3251LB,Stellendam,Goeree-Overflakkee,Zuid-Holland,VBO,4.011060,51.803728
Damweg,3,,,3251LB,Stellendam,Goeree-Overflakkee,Zuid-Holland,VBO,4.026095,51.795121
Damweg,5,A,,3251LB,Stellendam,Goeree-Overflakkee,Zuid-Holland,VBO,4.032920,51.790885
Damweg,5,,,3251LB,Stellendam,Goeree-Overflakkee,Zuid-Holland,VBO,4.032836,51.791297
Deltahaven,1,,,3251LC,Stellendam,Goeree-Overflakkee,Zuid-Holland,VBO,4.039491,51.822289
Deltahaven,2,,,3251LC,Stellendam,Goeree-Overflakkee,Zuid-Holland,VBO,4.038881,51.821841
Deltahaven,3,C,,3251LC,Stellendam,Goeree-Overflakkee,Zuid-Holland,VBO,4.038426,51.821512
Deltahaven,3,,,3251LC,Stellendam,Goeree-Overflakkee,Zuid-Holland,VBO,4.038212,51.821393
Deltahaven,4,,,3251LC,Stellendam,Goeree-Overflakkee,Zuid-Holland,VBO,4.038325,51.821026
Deltahaven,5,,,3251LC,Stellendam,Goeree-Overflakkee,Zuid-Holland,VBO,4.038269,51.820450
Deltahaven,6,,,3251LC,Stellendam,Goeree-Overflakkee,Zuid-Holland,VBO,4.038610,51.820692
Deltahaven,7,,,3251LC,Stellendam,Goeree-Overflakkee,Zuid-Holland,VBO,4.038918,51.820839
Deltahaven,8,,,3251LC,Stellendam,Goeree-Overflakkee,Zuid-Holland,VBO,4.038874,51.820601
Deltahaven,11,,,3251LC,Stellendam,Goeree-Overflakkee,Zuid-Holland,VBO,4.038482,51.820138
Deltahaven,12,,,3251LC,Stellendam,Goeree-Overflakkee,Zuid-Holland,VBO,4.038848,51.820323
Deltahaven,13,,,3251LC,Stellendam,Goeree-Overflakkee,Zuid-Holland,VBO,4.039212,51.820454
Deltahaven,14,,,3251LC,Stellendam,Goeree-Overflakkee,Zuid-Holland,VBO,4.039558,51.820252
Deltahaven,17,,,3251LC,Stellendam,Goeree-Overflakkee,Zuid-Holland,VBO,4.040000,51.820202
Deltahaven,18,,,3251LC,Stellendam,Goeree-Overflakkee,Zuid-Holland,VBO,4.040142,51.819979
Deltahaven,21,,,3251LC,Stellendam,Goeree-Overflakkee,Zuid-Holland,VBO,4.040604,51.819849
Deltahaven,22,,,3251LC,Stellendam,Goeree-Overflakkee,Zuid-Holland,VBO,4.040391,51.819350
Deltahaven,23,,,3251LC,Stellendam,Goeree-Overflakkee,Zuid-Holland,VBO,4.040170,51.819321
Deltahaven,24,,,3251LC,Stellendam,Goeree-Overflakkee,Zuid-Holland,VBO,4.040429,51.819183
Deltahaven,25,,,3251LC,Stellendam,Goeree-Overflakkee,Zuid-Holland,VBO,4.040706,51.819012
Deltahaven,26,,,3251LC,Stellendam,Goeree-Overflakkee,Zuid-Holland,VBO,4.040833,51.819140
Deltahaven,27,,,3251LC,Stellendam,Goeree-Overflakkee,Zuid-Holland,VBO,4.041095,51.819098
Deltahaven,28,,,3251LC,Stellendam,Goeree-Overflakkee,Zuid-Holland,VBO,4.041010,51.819025
Deltahaven,29,,,3251LC,Stellendam,Goeree-Overflakkee,Zuid-Holland,VBO,4.041205,51.818820
Deltahaven,30,,,3251LC,Stellendam,Goeree-Overflakkee,Zuid-Holland,VBO,4.041487,51.819066
Deltahaven,31,,,3251LC,Stellendam,Goeree-Overflakkee,Zuid-Holland,VBO,4.041668,51.819214
Deltahaven,32,,,3251LC,Stellendam,Goeree-Overflakkee,Zuid-Holland,VBO,4.041773,51.819296
Deltahaven,33,,,3251LC,Stellendam,Goeree-Overflakkee,Zuid-Holland,VBO,4.041307,51.819280
Deltahaven,36,,,3251LC,Stellendam,Goeree-Overflakkee,Zuid-Holland,VBO,4.041101,51.819395
Deltahaven,39,A,,3251LC,Stellendam,Goeree-Overflakkee,Zuid-Holland,VBO,4.041565,51.819391
Deltahaven,39,B,,3251LC,Stellendam,Goeree-Overflakkee,Zuid-Holland,VBO,4.041336,51.819519
Deltahaven,39,C,,3251LC,Stellendam,Goeree-Overflakkee,Zuid-Holland,VBO,4.041108,51.819646
Deltahaven,39,,,3251LC,Stellendam,Goeree-Overflakkee,Zuid-Holland,VBO,4.040757,51.819570
Deltahaven,40,,,3251LC,Stellendam,Goeree-Overflakkee,Zuid-Holland,VBO,4.042366,51.818115
Deltahaven,41,,,3251LC,Stellendam,Goeree-Overflakkee,Zuid-Holland,VBO,4.040886,51.819770
Deltahaven,44,,,3251LC,Stellendam,Goeree-Overflakkee,Zuid-Holland,VBO,4.044739,51.816542
Deltahaven,58,,,3251LC,Stellendam,Goeree-Overflakkee,Zuid-Holland,VBO,4.046985,51.819057
Deltahaven,60,A,,3251LC,Stellendam,Goeree-Overflakkee,Zuid-Holland,VBO,4.048401,51.819883
Deltahaven,60,,,3251LC,Stellendam,Goeree-Overflakkee,Zuid-Holland,VBO,4.048122,51.819210
Deltahaven,61,,,3251LC,Stellendam,Goeree-Overflakkee,Zuid-Holland,VBO,4.048890,51.819918
Deltahaven,63,,,3251LC,Stellendam,Goeree-Overflakkee,Zuid-Holland,VBO,4.048785,51.820020
Deltahaven,65,,,3251LC,Stellendam,Goeree-Overflakkee,Zuid-Holland,VBO,4.048785,51.820020
Deltahaven,67,,,3251LC,Stellendam,Goeree-Overflakkee,Zuid-Holland,VBO,4.048785,51.820020
Deltahaven,69,,,3251LC,Stellendam,Goeree-Overflakkee,Zuid-Holland,VBO,4.048785,51.820020
Deltahaven,71,,,3251LC,Stellendam,Goeree-Overflakkee,Zuid-Holland,VBO,4.048785,51.820020
Deltahaven,73,,,3251LC,Stellendam,Goeree-Overflakkee,Zuid-Holland,VBO,4.048785,51.820020
Deltahaven,75,,,3251LC,Stellendam,Goeree-Overflakkee,Zuid-Holland,VBO,4.048785,51.820020
Haringvlietplein,1,,,3251LD,Stellendam,Goeree-Overflakkee,Zuid-Holland,VBO,4.044233,51.827705
Haringvlietplein,2,,,3251LD,Stellendam,Goeree-Overflakkee,Zuid-Holland,VBO,4.044234,51.827759
Haringvlietplein,3,,,3251LD,Stellendam,Goeree-Overflakkee,Zuid-Holland,VBO,4.044170,51.826154
Korteweg,1,A,,3251LE,Stellendam,Goeree-Overflakkee,Zuid-Holland,VBO,4.027381,51.810184
Korteweg,1,B,,3251LE,Stellendam,Goeree-Overflakkee,Zuid-Holland,VBO,4.026241,51.810458
Korteweg,1,,,3251LE,Stellendam,Goeree-Overflakkee,Zuid-Holland,VBO,4.027895,51.809489
Korteweg,2,a,,3251LE,Stellendam,Goeree-Overflakkee,Zuid-Holland,VBO,4.025729,51.810791
Korteweg,2,B,,3251LE,Stellendam,Goeree-Overflakkee,Zuid-Holland,VBO,4.025709,51.810888
Korteweg,2,C,,3251LE,Stellendam,Goeree-Overflakkee,Zuid-Holland,VBO,4.025659,51.810839
Korteweg,2,,,3251LE,Stellendam,Goeree-Overflakkee,Zuid-Holland,VBO,4.025647,51.810903
Korteweg,4,,,3251LE,Stellendam,Goeree-Overflakkee,Zuid-Holland,VBO,4.025334,51.811198
Korteweg,6,,,3251LE,Stellendam,Goeree-Overflakkee,Zuid-Holland,VBO,4.025022,51.811440
Kruisweg,2,,,3251LG,Stellendam,Goeree-Overflakkee,Zuid-Holland,VBO,4.016994,51.813155
Kruisweg,4,,,3251LG,Stellendam,Goeree-Overflakkee,Zuid-Holland,VBO,4.015519,51.813489
Langeweg,1,,,3251LH,Stellendam,Goeree-Overflakkee,Zuid-Holland,VBO,4.049091,51.786710
Langeweg,2,,,3251LH,Stellendam,Goeree-Overflakkee,Zuid-Holland,VBO,4.036959,51.794482
Langeweg,4,,,3251LH,Stellendam,Goeree-Overflakkee,Zuid-Holland,VBO,4.036224,51.795058
Langeweg,6,,,3251LH,Stellendam,Goeree-Overflakkee,Zuid-Holland,VBO,4.030098,51.798448
Langeweg,8,,,3251LH,Stellendam,Goeree-Overflakkee,Zuid-Holland,VBO,4.028717,51.799459
Langeweg,10,,,3251LH,Stellendam,Goeree-Overflakkee,Zuid-Holland,VBO,4.027466,51.799910
Langeweg,12,,,3251LH,Stellendam,Goeree-Overflakkee,Zuid-Holland,VBO,4.027135,51.800068
Langeweg,14,,,3251LH,Stellendam,Goeree-Overflakkee,Zuid-Holland,VBO,4.026869,51.800236
Langeweg,16,A,,3251LH,Stellendam,Goeree-Overflakkee,Zuid-Holland,VBO,4.026463,51.800519
Langeweg,16,,,3251LH,Stellendam,Goeree-Overflakkee,Zuid-Holland,VBO,4.026748,51.800396
Langeweg,18,,,3251LH,Stellendam,Goeree-Overflakkee,Zuid-Holland,VBO,4.026220,51.800597
Langeweg,20,,,3251LH,Stellendam,Goeree-Overflakkee,Zuid-Holland,VBO,4.026161,51.800641
Langeweg,24,,,3251LH,Stellendam,Goeree-Overflakkee,Zuid-Holland,VBO,4.025748,51.800879
Langeweg,26,A,,3251LH,Stellendam,Goeree-Overflakkee,Zuid-Holland,VBO,4.025496,51.801033
Langeweg,26,B,,3251LH,Stellendam,Goeree-Overflakkee,Zuid-Holland,VBO,4.025129,51.801193
Langeweg,26,,,3251LH,Stellendam,Goeree-Overflakkee,Zuid-Holland,VBO,4.025615,51.800958
Langeweg,28,,,3251LH,Stellendam,Goeree-Overflakkee,Zuid-Holland,VBO,4.024996,51.801266
Langeweg,30,,,3251LH,Stellendam,Goeree-Overflakkee,Zuid-Holland,VBO,4.024775,51.801380
Langeweg,31,,,3251LH,Stellendam,Goeree-Overflakkee,Zuid-Holland,VBO,4.026188,51.800228
Langeweg,32,,,3251LH,Stellendam,Goeree-Overflakkee,Zuid-Holland,VBO,4.024480,51.801565
Langeweg,33,,,3251LH,Stellendam,Goeree-Overflakkee,Zuid-Holland,VBO,4.026055,51.800307
Langeweg,34,,,3251LH,Stellendam,Goeree-Overflakkee,Zuid-Holland,VBO,4.023576,51.802220
Langeweg,35,,,3251LH,Stellendam,Goeree-Overflakkee,Zuid-Holland,VBO,4.025966,51.800351
Langeweg,36,,,3251LH,Stellendam,Goeree-Overflakkee,Zuid-Holland,VBO,4.023516,51.802255
Langeweg,37,,,3251LH,Stellendam,Goeree-Overflakkee,Zuid-Holland,VBO,4.025863,51.800413
Langeweg,38,,,3251LH,Stellendam,Goeree-Overflakkee,Zuid-Holland,VBO,4.023472,51.802282
Langeweg,39,,,3251LH,Stellendam,Goeree-Overflakkee,Zuid-Holland,VBO,4.025774,51.800466
Langeweg,40,,,3251LH,Stellendam,Goeree-Overflakkee,Zuid-Holland,VBO,4.023399,51.802317
Langeweg,41,,,3251LH,Stellendam,Goeree-Overflakkee,Zuid-Holland,VBO,4.025671,51.800518
Langeweg,42,,,3251LH,Stellendam,Goeree-Overflakkee,Zuid-Holland,VBO,4.023338,51.802415
Langeweg,43,,,3251LH,Stellendam,Goeree-Overflakkee,Zuid-Holland,VBO,4.025583,51.800562
Langeweg,44,,,3251LH,Stellendam,Goeree-Overflakkee,Zuid-Holland,VBO,4.023208,51.802391
Langeweg,45,,,3251LH,Stellendam,Goeree-Overflakkee,Zuid-Holland,VBO,4.025480,51.800624
Langeweg,46,,,3251LH,Stellendam,Goeree-Overflakkee,Zuid-Holland,VBO,4.023207,51.802432
Langeweg,47,,,3251LH,Stellendam,Goeree-Overflakkee,Zuid-Holland,VBO,4.025420,51.800668
Langeweg,48,,,3251LH,Stellendam,Goeree-Overflakkee,Zuid-Holland,VBO,4.023090,51.802462
Langeweg,49,,,3251LH,Stellendam,Goeree-Overflakkee,Zuid-Holland,VBO,4.025024,51.800835
Langeweg,50,A,,3251LH,Stellendam,Goeree-Overflakkee,Zuid-Holland,VBO,4.023072,51.802565
Langeweg,50,,,3251LH,Stellendam,Goeree-Overflakkee,Zuid-Holland,VBO,4.023015,51.802537
Langeweg,51,,,3251LH,Stellendam,Goeree-Overflakkee,Zuid-Holland,VBO,4.024979,51.800870
Langeweg,52,,,3251LH,Stellendam,Goeree-Overflakkee,Zuid-Holland,VBO,4.022985,51.802564
Langeweg,53,,,3251LH,Stellendam,Goeree-Overflakkee,Zuid-Holland,VBO,4.024699,51.801020
Langeweg,54,,,3251LH,Stellendam,Goeree-Overflakkee,Zuid-Holland,VBO,4.022912,51.802590
Langeweg,55,A,,3251LH,Stellendam,Goeree-Overflakkee,Zuid-Holland,VBO,4.024277,51.801206
Langeweg,55,B,,3251LH,Stellendam,Goeree-Overflakkee,Zuid-Holland,VBO,4.023241,51.801785
Langeweg,55,,,3251LH,Stellendam,Goeree-Overflakkee,Zuid-Holland,VBO,4.024390,51.801187
Langeweg,56,,,3251LH,Stellendam,Goeree-Overflakkee,Zuid-Holland,VBO,4.022838,51.802634
Langeweg,57,,,3251LH,Stellendam,Goeree-Overflakkee,Zuid-Holland,VBO,4.023062,51.801953
Langeweg,58,,,3251LH,Stellendam,Goeree-Overflakkee,Zuid-Holland,VBO,4.022533,51.802648
Langeweg,59,,,3251LH,Stellendam,Goeree-Overflakkee,Zuid-Holland,VBO,4.021865,51.802207
Langeweg,60,,,3251LH,Stellendam,Goeree-Overflakkee,Zuid-Holland,VBO,4.022460,51.802684
Langeweg,62,,,3251LH,Stellendam,Goeree-Overflakkee,Zuid-Holland,VBO,4.022135,51.802860
Langeweg,63,A,,3251LH,Stellendam,Goeree-Overflakkee,Zuid-Holland,VBO,4.021072,51.803027
Langeweg,63,,,3251LH,Stellendam,Goeree-Overflakkee,Zuid-Holland,VBO,4.021030,51.802727
Langeweg,64,,,3251LH,Stellendam,Goeree-Overflakkee,Zuid-Holland,VBO,4.022061,51.802904
Langeweg,66,,,3251LH,Stellendam,Goeree-Overflakkee,Zuid-Holland,VBO,4.021958,51.802965
Langeweg,68,,,3251LH,Stellendam,Goeree-Overflakkee,Zuid-Holland,VBO,4.021884,51.803009
Langeweg,70,,,3251LH,Stellendam,Goeree-Overflakkee,Zuid-Holland,VBO,4.021812,51.803134
Langeweg,71,,,3251LH,Stellendam,Goeree-Overflakkee,Zuid-Holland,VBO,4.019347,51.803942
Langeweg,72,A,,3251LH,Stellendam,Goeree-Overflakkee,Zuid-Holland,VBO,4.021759,51.803305
Langeweg,72,B,,3251LH,Stellendam,Goeree-Overflakkee,Zuid-Holland,VBO,4.022136,51.803327
Langeweg,72,,,3251LH,Stellendam,Goeree-Overflakkee,Zuid-Holland,VBO,4.021631,51.803222
Langeweg,74,,,3251LH,Stellendam,Goeree-Overflakkee,Zuid-Holland,VBO,4.021427,51.803274
Langeweg,76,,,3251LH,Stellendam,Goeree-Overflakkee,Zuid-Holland,VBO,4.021368,51.803309
Langeweg,78,,,3251LH,Stellendam,Goeree-Overflakkee,Zuid-Holland,VBO,4.021309,51.803326
Langeweg,81,,,3251LH,Stellendam,Goeree-Overflakkee,Zuid-Holland,VBO,4.017289,51.804889
Meester Snijderweg,1,,,3251LJ,Stellendam,Goeree-Overflakkee,Zuid-Holland,VBO,4.038688,51.819556
Meester Snijderweg,2,,,3251LJ,Stellendam,Goeree-Overflakkee,Zuid-Holland,VBO,4.037038,51.820000
Meester Snijderweg,3,A,,3251LJ,Stellendam,Goeree-Overflakkee,Zuid-Holland,VBO,4.029431,51.825894
Meester Snijderweg,3,,,3251LJ,Stellendam,Goeree-Overflakkee,Zuid-Holland,VBO,4.032626,51.825003
Meester Snijderweg,5,,,3251LJ,Stellendam,Goeree-Overflakkee,Zuid-Holland,VBO,4.031582,51.825557
Meester Snijderweg,7,A,,3251LJ,Stellendam,Goeree-Overflakkee,Zuid-Holland,VBO,4.032176,51.824642
Meester Snijderweg,7,B,,3251LJ,Stellendam,Goeree-Overflakkee,Zuid-Holland,VBO,4.030455,51.825618
Meester Snijderweg,18,,,3251LJ,Stellendam,Goeree-Overflakkee,Zuid-Holland,VBO,4.041151,51.817525
Meester Snijderweg,27,,,3251LJ,Stellendam,Goeree-Overflakkee,Zuid-Holland,VBO,4.033006,51.824255
Meester Snijderweg,29,,,3251LJ,Stellendam,Goeree-Overflakkee,Zuid-Holland,VBO,4.033123,51.824202
Meester Snijderweg,31,,,3251LJ,Stellendam,Goeree-Overflakkee,Zuid-Holland,VBO,4.033241,51.824149
Meester Snijderweg,33,,,3251LJ,Stellendam,Goeree-Overflakkee,Zuid-Holland,VBO,4.033344,51.824097
Meester Snijderweg,35,,,3251LJ,Stellendam,Goeree-Overflakkee,Zuid-Holland,VBO,4.033535,51.824000
Meester Snijderweg,37,,,3251LJ,Stellendam,Goeree-Overflakkee,Zuid-Holland,VBO,4.033653,51.823938
Meester Snijderweg,39,,,3251LJ,Stellendam,Goeree-Overflakkee,Zuid-Holland,VBO,4.033757,51.823886
Meester Snijderweg,41,,,3251LJ,Stellendam,Goeree-Overflakkee,Zuid-Holland,VBO,4.033874,51.823824
Meester Snijderweg,55,,,3251LJ,Stellendam,Goeree-Overflakkee,Zuid-Holland,VBO,4.034547,51.823634
Meester Snijderweg,57,,,3251LJ,Stellendam,Goeree-Overflakkee,Zuid-Holland,VBO,4.034836,51.823206
Meester Snijderweg,59,,,3251LJ,Stellendam,Goeree-Overflakkee,Zuid-Holland,VBO,4.034935,51.823279
Meester Snijderweg,61,,,3251LJ,Stellendam,Goeree-Overflakkee,Zuid-Holland,VBO,4.035006,51.823352
Meester Snijderweg,63,,,3251LJ,Stellendam,Goeree-Overflakkee,Zuid-Holland,VBO,4.035105,51.823425
Meester Snijderweg,65,,,3251LJ,Stellendam,Goeree-Overflakkee,Zuid-Holland,VBO,4.035205,51.823480
Meester Snijderweg,67,,,3251LJ,Stellendam,Goeree-Overflakkee,Zuid-Holland,VBO,4.035289,51.823562
Meester Snijderweg,69,,,3251LJ,Stellendam,Goeree-Overflakkee,Zuid-Holland,VBO,4.035366,51.822942
Meester Snijderweg,71,,,3251LJ,Stellendam,Goeree-Overflakkee,Zuid-Holland,VBO,4.035451,51.822997
Meester Snijderweg,73,,,3251LJ,Stellendam,Goeree-Overflakkee,Zuid-Holland,VBO,4.035551,51.823079
Meester Snijderweg,75,,,3251LJ,Stellendam,Goeree-Overflakkee,Zuid-Holland,VBO,4.035650,51.823134
Meester Snijderweg,77,,,3251LJ,Stellendam,Goeree-Overflakkee,Zuid-Holland,VBO,4.035750,51.823207
Meester Snijderweg,79,,,3251LJ,Stellendam,Goeree-Overflakkee,Zuid-Holland,VBO,4.035835,51.823271
Middelweg,1,,,3251LK,Stellendam,Goeree-Overflakkee,Zuid-Holland,VBO,4.017695,51.821110
Middelweg,2,A,,3251LK,Stellendam,Goeree-Overflakkee,Zuid-Holland,VBO,4.017187,51.823487
Middelweg,2,,,3251LK,Stellendam,Goeree-Overflakkee,Zuid-Holland,VBO,4.017305,51.823196
Middelweg,4,,,3251LK,Stellendam,Goeree-Overflakkee,Zuid-Holland,VBO,4.016841,51.822485
Molenkade,1,,,3251LL,Stellendam,Goeree-Overflakkee,Zuid-Holland,VBO,4.030809,51.806034
Molenkade,1,,,3251LL,Stellendam,Goeree-Overflakkee,Zuid-Holland,VBO,4.030775,51.806075
Molenkade,3,,,3251LL,Stellendam,Goeree-Overflakkee,Zuid-Holland,VBO,4.030773,51.806083
Molenkade,5,,,3251LL,Stellendam,Goeree-Overflakkee,Zuid-Holland,VBO,4.030505,51.806422
Molenkade,7,,,3251LL,Stellendam,Goeree-Overflakkee,Zuid-Holland,VBO,4.030443,51.806453
Molenkade,9,,,3251LL,Stellendam,Goeree-Overflakkee,Zuid-Holland,VBO,4.030451,51.806462
Molenkade,11,,,3251LL,Stellendam,Goeree-Overflakkee,Zuid-Holland,VBO,4.030391,51.806542
Molenkade,13,,,3251LL,Stellendam,Goeree-Overflakkee,Zuid-Holland,VBO,4.030315,51.806649
Molenkade,15,,,3251LL,Stellendam,Goeree-Overflakkee,Zuid-Holland,VBO,4.030285,51.806703
Molenkade,19,,,3251LL,Stellendam,Goeree-Overflakkee,Zuid-Holland,VBO,4.030163,51.806890
Molenkade,23,,,3251LL,Stellendam,Goeree-Overflakkee,Zuid-Holland,VBO,4.030087,51.807006
Molenkade,25,,,3251LL,Stellendam,Goeree-Overflakkee,Zuid-Holland,VBO,4.029923,51.807148
Molenkade,29,A,,3251LL,Stellendam,Goeree-Overflakkee,Zuid-Holland,VBO,4.029750,51.807371
Molenkade,29,,,3251LL,Stellendam,Goeree-Overflakkee,Zuid-Holland,VBO,4.029773,51.807326
Molenkade,31,,,3251LL,Stellendam,Goeree-Overflakkee,Zuid-Holland,VBO,4.029622,51.807522
Molenkade,35,,,3251LL,Stellendam,Goeree-Overflakkee,Zuid-Holland,VBO,4.029487,51.807673
Molenkade,37,,,3251LL,Stellendam,Goeree-Overflakkee,Zuid-Holland,VBO,4.029464,51.807718
Molenkade,41,,,3251LL,Stellendam,Goeree-Overflakkee,Zuid-Holland,VBO,4.029380,51.807834
Molenkade,43,,,3251LL,Stellendam,Goeree-Overflakkee,Zuid-Holland,VBO,4.029321,51.807887
Molenkade,45,,,3251LL,Stellendam,Goeree-Overflakkee,Zuid-Holland,VBO,4.029275,51.807950
Molenkade,47,,,3251LL,Stellendam,Goeree-Overflakkee,Zuid-Holland,VBO,4.029258,51.808030
Molenkade,49,,,3251LL,Stellendam,Goeree-Overflakkee,Zuid-Holland,VBO,4.029125,51.808128
Molenkade,55,,,3251LL,Stellendam,Goeree-Overflakkee,Zuid-Holland,VBO,4.029033,51.808279
Molenkade,57,,,3251LL,Stellendam,Goeree-Overflakkee,Zuid-Holland,VBO,4.028974,51.808342
Molenkade,59,,,3251LL,Stellendam,Goeree-Overflakkee,Zuid-Holland,VBO,4.028869,51.808439
Molenkade,2,A,,3251LM,Stellendam,Goeree-Overflakkee,Zuid-Holland,VBO,4.031061,51.806141
Molenkade,2,,,3251LM,Stellendam,Goeree-Overflakkee,Zuid-Holland,VBO,4.031045,51.806142
Molenkade,4,,,3251LM,Stellendam,Goeree-Overflakkee,Zuid-Holland,VBO,4.031061,51.806141
Molenkade,6,,,3251LM,Stellendam,Goeree-Overflakkee,Zuid-Holland,VBO,4.030947,51.806369
Molenkade,8,,,3251LM,Stellendam,Goeree-Overflakkee,Zuid-Holland,VBO,4.030859,51.806422
Molenkade,10,,,3251LM,Stellendam,Goeree-Overflakkee,Zuid-Holland,VBO,4.030787,51.806456
Molenkade,12,,,3251LM,Stellendam,Goeree-Overflakkee,Zuid-Holland,VBO,4.030737,51.806500
Molenkade,14,A,,3251LM,Stellendam,Goeree-Overflakkee,Zuid-Holland,VBO,4.030666,51.806597
Molenkade,14,,,3251LM,Stellendam,Goeree-Overflakkee,Zuid-Holland,VBO,4.030702,51.806550
Molenkade,16,A,,3251LM,Stellendam,Goeree-Overflakkee,Zuid-Holland,VBO,4.030582,51.806707
Molenkade,16,,,3251LM,Stellendam,Goeree-Overflakkee,Zuid-Holland,VBO,4.030627,51.806654
Molenkade,18,A,,3251LM,Stellendam,Goeree-Overflakkee,Zuid-Holland,VBO,4.030493,51.806833
Molenkade,18,,,3251LM,Stellendam,Goeree-Overflakkee,Zuid-Holland,VBO,4.030529,51.806774
Molenkade,22,,,3251LM,Stellendam,Goeree-Overflakkee,Zuid-Holland,VBO,4.030456,51.806927
Molenkade,24,,,3251LM,Stellendam,Goeree-Overflakkee,Zuid-Holland,VBO,4.030392,51.806974
Molenkade,26,,,3251LM,Stellendam,Goeree-Overflakkee,Zuid-Holland,VBO,4.030333,51.807027
Molenkade,28,,,3251LM,Stellendam,Goeree-Overflakkee,Zuid-Holland,VBO,4.030287,51.807107
Molenkade,30,,,3251LM,Stellendam,Goeree-Overflakkee,Zuid-Holland,VBO,4.030167,51.807250
Molenkade,32,,,3251LM,Stellendam,Goeree-Overflakkee,Zuid-Holland,VBO,4.030091,51.807339
Molenkade,34,,,3251LM,Stellendam,Goeree-Overflakkee,Zuid-Holland,VBO,4.030017,51.807401
Molenkade,36,,,3251LM,Stellendam,Goeree-Overflakkee,Zuid-Holland,VBO,4.030052,51.807460
Molenkade,38,,,3251LM,Stellendam,Goeree-Overflakkee,Zuid-Holland,VBO,4.029956,51.807499
Molenkade,40,,,3251LM,Stellendam,Goeree-Overflakkee,Zuid-Holland,VBO,4.029925,51.807553
Molenkade,42,,,3251LM,Stellendam,Goeree-Overflakkee,Zuid-Holland,VBO,4.029895,51.807606
Molenkade,44,,,3251LM,Stellendam,Goeree-Overflakkee,Zuid-Holland,VBO,4.029850,51.807642
Molenkade,46,,,3251LM,Stellendam,Goeree-Overflakkee,Zuid-Holland,VBO,4.029805,51.807686
Molenkade,48,,,3251LM,Stellendam,Goeree-Overflakkee,Zuid-Holland,VBO,4.029789,51.807740
Molenkade,50,,,3251LM,Stellendam,Goeree-Overflakkee,Zuid-Holland,VBO,4.029745,51.807775
Molenkade,52,,,3251LM,Stellendam,Goeree-Overflakkee,Zuid-Holland,VBO,4.029714,51.807820
Molenkade,54,,,3251LM,Stellendam,Goeree-Overflakkee,Zuid-Holland,VBO,4.029669,51.807873
Molenkade,56,,,3251LM,Stellendam,Goeree-Overflakkee,Zuid-Holland,VBO,4.029624,51.807936
Molenkade,58,,,3251LM,Stellendam,Goeree-Overflakkee,Zuid-Holland,VBO,4.029579,51.807980
Molenkade,60,,,3251LM,Stellendam,Goeree-Overflakkee,Zuid-Holland,VBO,4.029520,51.808015
Molenkade,62,,,3251LM,Stellendam,Goeree-Overflakkee,Zuid-Holland,VBO,4.029475,51.808069
Molenkade,64,,,3251LM,Stellendam,Goeree-Overflakkee,Zuid-Holland,VBO,4.029481,51.808120
Molenkade,66,,,3251LM,Stellendam,Goeree-Overflakkee,Zuid-Holland,VBO,4.029447,51.808161
Molenkade,68,,,3251LM,Stellendam,Goeree-Overflakkee,Zuid-Holland,VBO,4.029369,51.808220
Molenkade,70,,,3251LM,Stellendam,Goeree-Overflakkee,Zuid-Holland,VBO,4.029308,51.808300
Molenkade,72,,,3251LM,Stellendam,Goeree-Overflakkee,Zuid-Holland,VBO,4.029312,51.808381
Molenkade,74,A,,3251LM,Stellendam,Goeree-Overflakkee,Zuid-Holland,VBO,4.029112,51.808550
Molenkade,74,,,3251LM,Stellendam,Goeree-Overflakkee,Zuid-Holland,VBO,4.029232,51.808416
Molenkade,76,,,3251LM,Stellendam,Goeree-Overflakkee,Zuid-Holland,VBO,4.029304,51.808691
Molenkade,78,,,3251LM,Stellendam,Goeree-Overflakkee,Zuid-Holland,VBO,4.029007,51.808684
Molenkade,80,A,,3251LM,Stellendam,Goeree-Overflakkee,Zuid-Holland,VBO,4.029213,51.809023
Molenkade,80,,,3251LM,Stellendam,Goeree-Overflakkee,Zuid-Holland,VBO,4.028931,51.808806
Molenkade,82,,,3251LM,Stellendam,Goeree-Overflakkee,Zuid-Holland,VBO,4.028835,51.809083
Plaatweg,1,A,,3251LN,Stellendam,Goeree-Overflakkee,Zuid-Holland,VBO,4.038677,51.797612
Plaatweg,1,,,3251LN,Stellendam,Goeree-Overflakkee,Zuid-Holland,VBO,4.044583,51.796727
Plaatweg,2,,,3251LN,Stellendam,Goeree-Overflakkee,Zuid-Holland,VBO,4.046609,51.794656
Plaatweg,2,,,3251LN,Stellendam,Goeree-Overflakkee,Zuid-Holland,VBO,4.046625,51.794635
Plaatweg,3,A,,3251LN,Stellendam,Goeree-Overflakkee,Zuid-Holland,VBO,4.045103,51.796059
Plaatweg,3,,,3251LN,Stellendam,Goeree-Overflakkee,Zuid-Holland,VBO,4.044916,51.796470
Plaatweg,4,,,3251LN,Stellendam,Goeree-Overflakkee,Zuid-Holland,VBO,4.046847,51.794506
Plaatweg,6,,,3251LN,Stellendam,Goeree-Overflakkee,Zuid-Holland,VBO,4.047257,51.794286
Plaatweg,7,,,3251LN,Stellendam,Goeree-Overflakkee,Zuid-Holland,VBO,4.059398,51.788149
Nijverheidsweg,1,A,,3251LP,Stellendam,Goeree-Overflakkee,Zuid-Holland,VBO,4.040220,51.817410
Nijverheidsweg,1,B,,3251LP,Stellendam,Goeree-Overflakkee,Zuid-Holland,VBO,4.038864,51.817535
Nijverheidsweg,1,C,,3251LP,Stellendam,Goeree-Overflakkee,Zuid-Holland,VBO,4.039294,51.817326
Nijverheidsweg,1,D,,3251LP,Stellendam,Goeree-Overflakkee,Zuid-Holland,VBO,4.039294,51.817326
Nijverheidsweg,1,E,,3251LP,Stellendam,Goeree-Overflakkee,Zuid-Holland,VBO,4.039294,51.817326
Nijverheidsweg,1,F,,3251LP,Stellendam,Goeree-Overflakkee,Zuid-Holland,VBO,4.039294,51.817326
Nijverheidsweg,1,G,,3251LP,Stellendam,Goeree-Overflakkee,Zuid-Holland,VBO,4.039294,51.817326
Nijverheidsweg,1,,,3251LP,Stellendam,Goeree-Overflakkee,Zuid-Holland,VBO,4.039294,51.817326
Nijverheidsweg,2,,,3251LP,Stellendam,Goeree-Overflakkee,Zuid-Holland,VBO,4.038089,51.817522
Nijverheidsweg,3,,,3251LP,Stellendam,Goeree-Overflakkee,Zuid-Holland,VBO,4.039556,51.817049
Nijverheidsweg,4,,,3251LP,Stellendam,Goeree-Overflakkee,Zuid-Holland,VBO,4.037797,51.817343
Nijverheidsweg,5,,,3251LP,Stellendam,Goeree-Overflakkee,Zuid-Holland,VBO,4.040422,51.816702
Nijverheidsweg,8,,,3251LP,Stellendam,Goeree-Overflakkee,Zuid-Holland,VBO,4.038135,51.816861
Nijverheidsweg,10,,,3251LP,Stellendam,Goeree-Overflakkee,Zuid-Holland,VBO,4.038322,51.817099
Nijverheidsweg,11,,,3251LP,Stellendam,Goeree-Overflakkee,Zuid-Holland,VBO,4.040612,51.816332
Nijverheidsweg,12,,,3251LP,Stellendam,Goeree-Overflakkee,Zuid-Holland,VBO,4.038498,51.816937
Nijverheidsweg,13,A,,3251LP,Stellendam,Goeree-Overflakkee,Zuid-Holland,VBO,4.040984,51.816607
Nijverheidsweg,13,B,,3251LP,Stellendam,Goeree-Overflakkee,Zuid-Holland,VBO,4.041076,51.816682
Nijverheidsweg,13,,,3251LP,Stellendam,Goeree-Overflakkee,Zuid-Holland,VBO,4.040842,51.816545
Nijverheidsweg,14,,,3251LP,Stellendam,Goeree-Overflakkee,Zuid-Holland,VBO,4.038819,51.816562
Nijverheidsweg,15,A,,3251LP,Stellendam,Goeree-Overflakkee,Zuid-Holland,VBO,4.041308,51.816814
Nijverheidsweg,15,B,,3251LP,Stellendam,Goeree-Overflakkee,Zuid-Holland,VBO,4.041324,51.816910
Nijverheidsweg,15,,,3251LP,Stellendam,Goeree-Overflakkee,Zuid-Holland,VBO,4.041146,51.816752
Nijverheidsweg,16,,,3251LP,Stellendam,Goeree-Overflakkee,Zuid-Holland,VBO,4.039151,51.816440
Nijverheidsweg,17,,,3251LP,Stellendam,Goeree-Overflakkee,Zuid-Holland,VBO,4.041719,51.816912
Nijverheidsweg,19,,,3251LP,Stellendam,Goeree-Overflakkee,Zuid-Holland,VBO,4.041997,51.817063
Nijverheidsweg,20,,,3251LP,Stellendam,Goeree-Overflakkee,Zuid-Holland,VBO,4.039521,51.816146
Nijverheidsweg,21,,,3251LP,Stellendam,Goeree-Overflakkee,Zuid-Holland,VBO,4.042071,51.817365
Nijverheidsweg,22,,,3251LP,Stellendam,Goeree-Overflakkee,Zuid-Holland,VBO,4.040490,51.815882
Nijverheidsweg,24,A,,3251LP,Stellendam,Goeree-Overflakkee,Zuid-Holland,VBO,4.041045,51.815924
Nijverheidsweg,24,,,3251LP,Stellendam,Goeree-Overflakkee,Zuid-Holland,VBO,4.041144,51.815997
Nijverheidsweg,26,,,3251LP,Stellendam,Goeree-Overflakkee,Zuid-Holland,VBO,4.041437,51.816137
Nijverheidsweg,28,,,3251LP,Stellendam,Goeree-Overflakkee,Zuid-Holland,VBO,4.041782,51.816343
Nijverheidsweg,30,,,3251LP,Stellendam,Goeree-Overflakkee,Zuid-Holland,VBO,4.042125,51.816426
Nijverheidsweg,32,,,3251LP,Stellendam,Goeree-Overflakkee,Zuid-Holland,VBO,4.042539,51.816744
Nijverheidsweg,34,,,3251LP,Stellendam,Goeree-Overflakkee,Zuid-Holland,VBO,4.042917,51.816855
Sluisplein,1,,,3251LR,Stellendam,Goeree-Overflakkee,Zuid-Holland,VBO,4.038729,51.823511
Sluisplein,2,,,3251LR,Stellendam,Goeree-Overflakkee,Zuid-Holland,VBO,4.039058,51.823174
Spuipad,1,,,3251LS,Stellendam,Goeree-Overflakkee,Zuid-Holland,VBO,4.030443,51.805302
Spuipad,2,,,3251LS,Stellendam,Goeree-Overflakkee,Zuid-Holland,VBO,4.030338,51.805409
Spuipad,3,,,3251LS,Stellendam,Goeree-Overflakkee,Zuid-Holland,VBO,4.030218,51.805533
Spuipad,4,,,3251LS,Stellendam,Goeree-Overflakkee,Zuid-Holland,VBO,4.030143,51.805631
Spuipad,6,,,3251LS,Stellendam,Goeree-Overflakkee,Zuid-Holland,VBO,4.030024,51.805720
Spuipad,8,,,3251LS,Stellendam,Goeree-Overflakkee,Zuid-Holland,VBO,4.029976,51.805872
Spuipad,9,,,3251LS,Stellendam,Goeree-Overflakkee,Zuid-Holland,VBO,4.029931,51.805925
Spuipad,10,,,3251LS,Stellendam,Goeree-Overflakkee,Zuid-Holland,VBO,4.029842,51.806005
Spuipad,11,,,3251LS,Stellendam,Goeree-Overflakkee,Zuid-Holland,VBO,4.029808,51.806171
Spuipad,12,,,3251LS,Stellendam,Goeree-Overflakkee,Zuid-Holland,VBO,4.029708,51.806244
Spuipad,13,,,3251LS,Stellendam,Goeree-Overflakkee,Zuid-Holland,VBO,4.029600,51.806335
Spuipad,14,,,3251LS,Stellendam,Goeree-Overflakkee,Zuid-Holland,VBO,4.029466,51.806424
Spuipad,15,,,3251LS,Stellendam,Goeree-Overflakkee,Zuid-Holland,VBO,4.029493,51.806487
Spuipad,16,,,3251LS,Stellendam,Goeree-Overflakkee,Zuid-Holland,VBO,4.029397,51.806567
Spuipad,17,,,3251LS,Stellendam,Goeree-Overflakkee,Zuid-Holland,VBO,4.029396,51.806590
Spuipad,18,A,,3251LS,Stellendam,Goeree-Overflakkee,Zuid-Holland,VBO,4.029395,51.806881
Spuipad,18,,,3251LS,Stellendam,Goeree-Overflakkee,Zuid-Holland,VBO,4.029358,51.806647
Spuipad,20,,,3251LS,Stellendam,Goeree-Overflakkee,Zuid-Holland,VBO,4.029169,51.806838
Spuipad,21,,,3251LS,Stellendam,Goeree-Overflakkee,Zuid-Holland,VBO,4.028968,51.807083
Spuipad,22,,,3251LS,Stellendam,Goeree-Overflakkee,Zuid-Holland,VBO,4.028803,51.807270
Spuipad,23,,,3251LS,Stellendam,Goeree-Overflakkee,Zuid-Holland,VBO,4.028742,51.807359
Spuipad,24,,,3251LS,Stellendam,Goeree-Overflakkee,Zuid-Holland,VBO,4.028591,51.807564
Spuipad,25,,,3251LS,Stellendam,Goeree-Overflakkee,Zuid-Holland,VBO,4.028490,51.807696
Stellendamse haven,1,,,3251LT,Stellendam,Goeree-Overflakkee,Zuid-Holland,VBO,4.030564,51.805609
Stellendamse haven,3,,,3251LT,Stellendam,Goeree-Overflakkee,Zuid-Holland,VBO,4.031187,51.805964
Stellendamse haven,4,,,3251LT,Stellendam,Goeree-Overflakkee,Zuid-Holland,VBO,4.031294,51.806166
Zandgorsweg,1,a,,3251LV,Stellendam,Goeree-Overflakkee,Zuid-Holland,VBO,4.019828,51.821089
Zandgorsweg,1,A,,3251LV,Stellendam,Goeree-Overflakkee,Zuid-Holland,VBO,4.020113,51.820779
Zandgorsweg,1,,,3251LV,Stellendam,Goeree-Overflakkee,Zuid-Holland,VBO,4.020501,51.820509
Zandgorsweg,3,A,,3251LV,Stellendam,Goeree-Overflakkee,Zuid-Holland,VBO,4.017357,51.823169
Zandgorsweg,3,,,3251LV,Stellendam,Goeree-Overflakkee,Zuid-Holland,VBO,4.018772,51.822573
Zandgorsweg,5,,,3251LV,Stellendam,Goeree-Overflakkee,Zuid-Holland,VBO,4.015559,51.824079
Onderdemolen,1,,,3251LW,Stellendam,Goeree-Overflakkee,Zuid-Holland,VBO,4.029362,51.810863
Onderdemolen,2,,,3251LW,Stellendam,Goeree-Overflakkee,Zuid-Holland,VBO,4.029460,51.810963
Onderdemolen,3,,,3251LW,Stellendam,Goeree-Overflakkee,Zuid-Holland,VBO,4.029564,51.810901
Onderdemolen,4,,,3251LW,Stellendam,Goeree-Overflakkee,Zuid-Holland,VBO,4.029724,51.810885
Onderdemolen,5,,,3251LW,Stellendam,Goeree-Overflakkee,Zuid-Holland,VBO,4.029869,51.810869
Onderdemolen,6,,,3251LW,Stellendam,Goeree-Overflakkee,Zuid-Holland,VBO,4.030088,51.810809
Onderdemolen,7,,,3251LW,Stellendam,Goeree-Overflakkee,Zuid-Holland,VBO,4.029989,51.810727
Onderdemolen,8,,,3251LW,Stellendam,Goeree-Overflakkee,Zuid-Holland,VBO,4.029861,51.810644
Onderdemolen,9,,,3251LW,Stellendam,Goeree-Overflakkee,Zuid-Holland,VBO,4.029555,51.810704
Onderdemolen,10,,,3251LW,Stellendam,Goeree-Overflakkee,Zuid-Holland,VBO,4.029558,51.810605
Onderdemolen,11,,,3251LW,Stellendam,Goeree-Overflakkee,Zuid-Holland,VBO,4.029661,51.810543
Onderdemolen,12,,,3251LW,Stellendam,Goeree-Overflakkee,Zuid-Holland,VBO,4.029750,51.810490
Onderdemolen,13,,,3251LW,Stellendam,Goeree-Overflakkee,Zuid-Holland,VBO,4.029853,51.810446
Onderdemolen,14,,,3251LW,Stellendam,Goeree-Overflakkee,Zuid-Holland,VBO,4.029264,51.810727
Onderdemolen,15,,,3251LW,Stellendam,Goeree-Overflakkee,Zuid-Holland,VBO,4.029267,51.810637
Onderdemolen,16,,,3251LW,Stellendam,Goeree-Overflakkee,Zuid-Holland,VBO,4.029241,51.810529
Onderdemolen,17,,,3251LW,Stellendam,Goeree-Overflakkee,Zuid-Holland,VBO,4.029230,51.810430
Onderdemolen,18,,,3251LW,Stellendam,Goeree-Overflakkee,Zuid-Holland,VBO,4.029448,51.810415
Onderdemolen,19,,,3251LW,Stellendam,Goeree-Overflakkee,Zuid-Holland,VBO,4.029465,51.810325
Onderdemolen,20,,,3251LW,Stellendam,Goeree-Overflakkee,Zuid-Holland,VBO,4.029395,51.810243
Onderdemolen,21,,,3251LW,Stellendam,Goeree-Overflakkee,Zuid-Holland,VBO,4.029264,51.810260
Onderdemolen,22,,,3251LW,Stellendam,Goeree-Overflakkee,Zuid-Holland,VBO,4.029151,51.810159
Onderdemolen,23,,,3251LW,Stellendam,Goeree-Overflakkee,Zuid-Holland,VBO,4.029170,51.810007
Onderdemolen,24,,,3251LW,Stellendam,Goeree-Overflakkee,Zuid-Holland,VBO,4.029158,51.809917
Onderdemolen,25,,,3251LW,Stellendam,Goeree-Overflakkee,Zuid-Holland,VBO,4.029146,51.809827
Onderdemolen,26,,,3251LW,Stellendam,Goeree-Overflakkee,Zuid-Holland,VBO,4.029135,51.809728
Onderdemolen,27,,,3251LW,Stellendam,Goeree-Overflakkee,Zuid-Holland,VBO,4.029210,51.809639
Onderdemolen,28,,,3251LW,Stellendam,Goeree-Overflakkee,Zuid-Holland,VBO,4.029377,51.809398
Onderdemolen,29,,,3251LW,Stellendam,Goeree-Overflakkee,Zuid-Holland,VBO,4.029509,51.809328
Onderdemolen,30,,,3251LW,Stellendam,Goeree-Overflakkee,Zuid-Holland,VBO,4.029758,51.809277
Onderdemolen,31,,,3251LW,Stellendam,Goeree-Overflakkee,Zuid-Holland,VBO,4.029644,51.809194
Onderdemolen,32,,,3251LW,Stellendam,Goeree-Overflakkee,Zuid-Holland,VBO,4.029588,51.809122
Onderdemolen,33,,,3251LW,Stellendam,Goeree-Overflakkee,Zuid-Holland,VBO,4.029826,51.809403
Onderdemolen,34,,,3251LW,Stellendam,Goeree-Overflakkee,Zuid-Holland,VBO,4.029809,51.809502
Onderdemolen,35,,,3251LW,Stellendam,Goeree-Overflakkee,Zuid-Holland,VBO,4.029677,51.809536
Onderdemolen,36,,,3251LW,Stellendam,Goeree-Overflakkee,Zuid-Holland,VBO,4.029515,51.809624
Onderdemolen,37,,,3251LW,Stellendam,Goeree-Overflakkee,Zuid-Holland,VBO,4.029512,51.809723
Onderdemolen,38,,,3251LW,Stellendam,Goeree-Overflakkee,Zuid-Holland,VBO,4.029466,51.809813
Onderdemolen,39,,,3251LW,Stellendam,Goeree-Overflakkee,Zuid-Holland,VBO,4.029478,51.809903
Onderdemolen,40,,,3251LW,Stellendam,Goeree-Overflakkee,Zuid-Holland,VBO,4.029504,51.810002
Onderdemolen,41,,,3251LW,Stellendam,Goeree-Overflakkee,Zuid-Holland,VBO,4.029589,51.810066
Onderdemolen,42,,,3251LW,Stellendam,Goeree-Overflakkee,Zuid-Holland,VBO,4.029734,51.810049
Onderdemolen,43,,,3251LW,Stellendam,Goeree-Overflakkee,Zuid-Holland,VBO,4.029768,51.809897
Onderdemolen,44,,,3251LW,Stellendam,Goeree-Overflakkee,Zuid-Holland,VBO,4.029914,51.809863
Onderdemolen,45,,,3251LW,Stellendam,Goeree-Overflakkee,Zuid-Holland,VBO,4.030244,51.809992
Onderdemolen,46,,,3251LW,Stellendam,Goeree-Overflakkee,Zuid-Holland,VBO,4.030097,51.810054
Onderdemolen,47,,,3251LW,Stellendam,Goeree-Overflakkee,Zuid-Holland,VBO,4.029950,51.810106
Onderdemolen,48,,,3251LW,Stellendam,Goeree-Overflakkee,Zuid-Holland,VBO,4.029976,51.810214
Onderdemolen,49,,,3251LW,Stellendam,Goeree-Overflakkee,Zuid-Holland,VBO,4.030089,51.810296
Onderdemolen,50,,,3251LW,Stellendam,Goeree-Overflakkee,Zuid-Holland,VBO,4.030221,51.810271
Onderdemolen,51,,,3251LW,Stellendam,Goeree-Overflakkee,Zuid-Holland,VBO,4.030414,51.810111
Onderdemolen,52,,,3251LW,Stellendam,Goeree-Overflakkee,Zuid-Holland,VBO,4.030470,51.810184
Onderdemolen,53,,,3251LW,Stellendam,Goeree-Overflakkee,Zuid-Holland,VBO,4.030511,51.810265
Onderdemolen,54,,,3251LW,Stellendam,Goeree-Overflakkee,Zuid-Holland,VBO,4.030463,51.810399
Onderdemolen,55,,,3251LW,Stellendam,Goeree-Overflakkee,Zuid-Holland,VBO,4.030403,51.810489
Onderdemolen,56,,,3251LW,Stellendam,Goeree-Overflakkee,Zuid-Holland,VBO,4.030226,51.810585
Onderdemolen,57,,,3251LW,Stellendam,Goeree-Overflakkee,Zuid-Holland,VBO,4.031588,51.809657
Onderdemolen,58,,,3251LW,Stellendam,Goeree-Overflakkee,Zuid-Holland,VBO,4.031570,51.809765
Onderdemolen,59,,,3251LW,Stellendam,Goeree-Overflakkee,Zuid-Holland,VBO,4.031596,51.809864
Onderdemolen,60,,,3251LW,Stellendam,Goeree-Overflakkee,Zuid-Holland,VBO,4.031728,51.809821
Onderdemolen,61,,,3251LW,Stellendam,Goeree-Overflakkee,Zuid-Holland,VBO,4.031709,51.809982
Onderdemolen,62,,,3251LW,Stellendam,Goeree-Overflakkee,Zuid-Holland,VBO,4.031562,51.810035
Onderdemolen,63,,,3251LW,Stellendam,Goeree-Overflakkee,Zuid-Holland,VBO,4.031416,51.810051
Onderdemolen,64,,,3251LW,Stellendam,Goeree-Overflakkee,Zuid-Holland,VBO,4.031256,51.810067
Onderdemolen,67,,,3251LW,Stellendam,Goeree-Overflakkee,Zuid-Holland,VBO,4.031527,51.810232
Onderdemolen,68,,,3251LW,Stellendam,Goeree-Overflakkee,Zuid-Holland,VBO,4.031703,51.810180
Onderdemolen,69,,,3251LW,Stellendam,Goeree-Overflakkee,Zuid-Holland,VBO,4.031772,51.810289
Onderdemolen,70,,,3251LW,Stellendam,Goeree-Overflakkee,Zuid-Holland,VBO,4.031886,51.810362
Onderdemolen,71,,,3251LW,Stellendam,Goeree-Overflakkee,Zuid-Holland,VBO,4.032018,51.810318
Onderdemolen,72,,,3251LW,Stellendam,Goeree-Overflakkee,Zuid-Holland,VBO,4.032177,51.810329
Onderdemolen,73,,,3251LW,Stellendam,Goeree-Overflakkee,Zuid-Holland,VBO,4.032297,51.810187
Onderdemolen,74,,,3251LW,Stellendam,Goeree-Overflakkee,Zuid-Holland,VBO,4.032228,51.810087
Onderdemolen,75,,,3251LW,Stellendam,Goeree-Overflakkee,Zuid-Holland,VBO,4.032389,51.810017
Onderdemolen,76,,,3251LW,Stellendam,Goeree-Overflakkee,Zuid-Holland,VBO,4.032027,51.810004
Onderdemolen,77,,,3251LW,Stellendam,Goeree-Overflakkee,Zuid-Holland,VBO,4.032015,51.809914
Onderdemolen,78,,,3251LW,Stellendam,Goeree-Overflakkee,Zuid-Holland,VBO,4.031989,51.809815
Onderdemolen,79,,,3251LW,Stellendam,Goeree-Overflakkee,Zuid-Holland,VBO,4.032194,51.809745
Onderdemolen,80,,,3251LW,Stellendam,Goeree-Overflakkee,Zuid-Holland,VBO,4.032110,51.809654
Onderdemolen,81,,,3251LW,Stellendam,Goeree-Overflakkee,Zuid-Holland,VBO,4.032301,51.809585
Onderdemolen,82,,,3251LW,Stellendam,Goeree-Overflakkee,Zuid-Holland,VBO,4.032528,51.809731
Onderdemolen,83,,,3251LW,Stellendam,Goeree-Overflakkee,Zuid-Holland,VBO,4.032531,51.809623
Onderdemolen,84,,,3251LW,Stellendam,Goeree-Overflakkee,Zuid-Holland,VBO,4.032693,51.809553
Onderdemolen,85,,,3251LW,Stellendam,Goeree-Overflakkee,Zuid-Holland,VBO,4.032626,51.809391
Onderdemolen,86,,,3251LW,Stellendam,Goeree-Overflakkee,Zuid-Holland,VBO,4.032571,51.809282
Onderdemolen,87,,,3251LW,Stellendam,Goeree-Overflakkee,Zuid-Holland,VBO,4.032425,51.809298
Onderdemolen,88,,,3251LW,Stellendam,Goeree-Overflakkee,Zuid-Holland,VBO,4.032233,51.809422
Onderdemolen,89,,,3251LW,Stellendam,Goeree-Overflakkee,Zuid-Holland,VBO,4.032087,51.809465
Onderdemolen,90,,,3251LW,Stellendam,Goeree-Overflakkee,Zuid-Holland,VBO,4.031927,51.809481
Onderdemolen,91,,,3251LW,Stellendam,Goeree-Overflakkee,Zuid-Holland,VBO,4.032033,51.809312
Onderdemolen,92,,,3251LW,Stellendam,Goeree-Overflakkee,Zuid-Holland,VBO,4.032051,51.809195
Onderdemolen,93,,,3251LW,Stellendam,Goeree-Overflakkee,Zuid-Holland,VBO,4.032040,51.809087
Onderdemolen,94,,,3251LW,Stellendam,Goeree-Overflakkee,Zuid-Holland,VBO,4.032200,51.809062
Onderdemolen,95,,,3251LW,Stellendam,Goeree-Overflakkee,Zuid-Holland,VBO,4.032419,51.809020
Onderdemolen,96,,,3251LW,Stellendam,Goeree-Overflakkee,Zuid-Holland,VBO,4.032294,51.808856
Onderdemolen,97,,,3251LW,Stellendam,Goeree-Overflakkee,Zuid-Holland,VBO,4.032239,51.808748
Onderdemolen,98,,,3251LW,Stellendam,Goeree-Overflakkee,Zuid-Holland,VBO,4.031993,51.808736
Onderdemolen,99,,,3251LW,Stellendam,Goeree-Overflakkee,Zuid-Holland,VBO,4.031831,51.808788
Onderdemolen,100,,,3251LW,Stellendam,Goeree-Overflakkee,Zuid-Holland,VBO,4.031637,51.809002
Onderdemolen,101,,,3251LW,Stellendam,Goeree-Overflakkee,Zuid-Holland,VBO,4.031596,51.808911
Onderdemolen,102,,,3251LW,Stellendam,Goeree-Overflakkee,Zuid-Holland,VBO,4.031449,51.808964
Onderdemolen,103,,,3251LW,Stellendam,Goeree-Overflakkee,Zuid-Holland,VBO,4.031304,51.808980
Onderdemolen,104,,,3251LW,Stellendam,Goeree-Overflakkee,Zuid-Holland,VBO,4.031172,51.809032
Onderdemolen,105,,,3251LW,Stellendam,Goeree-Overflakkee,Zuid-Holland,VBO,4.031226,51.809141
Onderdemolen,106,,,3251LW,Stellendam,Goeree-Overflakkee,Zuid-Holland,VBO,4.031282,51.809222
Onderdemolen,107,,,3251LW,Stellendam,Goeree-Overflakkee,Zuid-Holland,VBO,4.031499,51.809225
Onderdemolen,108,,,3251LW,Stellendam,Goeree-Overflakkee,Zuid-Holland,VBO,4.031728,51.809335
Onderdemolen,109,,,3251LW,Stellendam,Goeree-Overflakkee,Zuid-Holland,VBO,4.031724,51.809470
Onderdemolen,110,,,3251LW,Stellendam,Goeree-Overflakkee,Zuid-Holland,VBO,4.031378,51.809403
Onderdemolen,111,,,3251LW,Stellendam,Goeree-Overflakkee,Zuid-Holland,VBO,4.031261,51.809429
Onderdemolen,112,,,3251LW,Stellendam,Goeree-Overflakkee,Zuid-Holland,VBO,4.031115,51.809472
Onderdemolen,113,,,3251LW,Stellendam,Goeree-Overflakkee,Zuid-Holland,VBO,4.031112,51.809571
Onderdemolen,114,,,3251LW,Stellendam,Goeree-Overflakkee,Zuid-Holland,VBO,4.030289,51.808492
Onderdemolen,115,,,3251LW,Stellendam,Goeree-Overflakkee,Zuid-Holland,VBO,4.030406,51.808439
Onderdemolen,116,,,3251LW,Stellendam,Goeree-Overflakkee,Zuid-Holland,VBO,4.030653,51.808442
Onderdemolen,117,,,3251LW,Stellendam,Goeree-Overflakkee,Zuid-Holland,VBO,4.030708,51.808532
Onderdemolen,118,,,3251LW,Stellendam,Goeree-Overflakkee,Zuid-Holland,VBO,4.030691,51.808631
Onderdemolen,119,,,3251LW,Stellendam,Goeree-Overflakkee,Zuid-Holland,VBO,4.030587,51.808693
Onderdemolen,120,,,3251LW,Stellendam,Goeree-Overflakkee,Zuid-Holland,VBO,4.030441,51.808736
Onderdemolen,121,,,3251LW,Stellendam,Goeree-Overflakkee,Zuid-Holland,VBO,4.030438,51.808835
Onderdemolen,122,,,3251LW,Stellendam,Goeree-Overflakkee,Zuid-Holland,VBO,4.030109,51.808687
Onderdemolen,123,,,3251LW,Stellendam,Goeree-Overflakkee,Zuid-Holland,VBO,4.030149,51.808787
Onderdemolen,124,,,3251LW,Stellendam,Goeree-Overflakkee,Zuid-Holland,VBO,4.030147,51.808877
Onderdemolen,125,,,3251LW,Stellendam,Goeree-Overflakkee,Zuid-Holland,VBO,4.029987,51.808893
Onderdemolen,126,,,3251LW,Stellendam,Goeree-Overflakkee,Zuid-Holland,VBO,4.029968,51.809036
Onderdemolen,127,,,3251LW,Stellendam,Goeree-Overflakkee,Zuid-Holland,VBO,4.030052,51.809118
Onderdemolen,128,,,3251LW,Stellendam,Goeree-Overflakkee,Zuid-Holland,VBO,4.030198,51.809102
Onderdemolen,129,,,3251LW,Stellendam,Goeree-Overflakkee,Zuid-Holland,VBO,4.030359,51.809050
Onderdemolen,130,,,3251LW,Stellendam,Goeree-Overflakkee,Zuid-Holland,VBO,4.030607,51.809008
Onderdemolen,131,,,3251LW,Stellendam,Goeree-Overflakkee,Zuid-Holland,VBO,4.030739,51.808955
Onderdemolen,132,,,3251LW,Stellendam,Goeree-Overflakkee,Zuid-Holland,VBO,4.030727,51.808856
Onderdemolen,133,,,3251LW,Stellendam,Goeree-Overflakkee,Zuid-Holland,VBO,4.030946,51.808823
Onderdemolen,134,,,3251LW,Stellendam,Goeree-Overflakkee,Zuid-Holland,VBO,4.030920,51.808733
Onderdemolen,135,,,3251LW,Stellendam,Goeree-Overflakkee,Zuid-Holland,VBO,4.030982,51.808599
Onderdemolen,136,,,3251LW,Stellendam,Goeree-Overflakkee,Zuid-Holland,VBO,4.031156,51.808592
Onderdemolen,137,,,3251LW,Stellendam,Goeree-Overflakkee,Zuid-Holland,VBO,4.031341,51.808711
Onderdemolen,138,,,3251LW,Stellendam,Goeree-Overflakkee,Zuid-Holland,VBO,4.031488,51.808640
Onderdemolen,139,,,3251LW,Stellendam,Goeree-Overflakkee,Zuid-Holland,VBO,4.031633,51.808624
Onderdemolen,140,,,3251LW,Stellendam,Goeree-Overflakkee,Zuid-Holland,VBO,4.031933,51.808533
Onderdemolen,141,,,3251LW,Stellendam,Goeree-Overflakkee,Zuid-Holland,VBO,4.029460,51.809817
Onderdemolen,142,,,3251LW,Stellendam,Goeree-Overflakkee,Zuid-Holland,VBO,4.032061,51.808386
Onderdemolen,143,,,3251LW,Stellendam,Goeree-Overflakkee,Zuid-Holland,VBO,4.032005,51.808314
Onderdemolen,144,,,3251LW,Stellendam,Goeree-Overflakkee,Zuid-Holland,VBO,4.031979,51.808215
Onderdemolen,145,,,3251LW,Stellendam,Goeree-Overflakkee,Zuid-Holland,VBO,4.031866,51.808132
Onderdemolen,146,,,3251LW,Stellendam,Goeree-Overflakkee,Zuid-Holland,VBO,4.031734,51.808167
Onderdemolen,147,,,3251LW,Stellendam,Goeree-Overflakkee,Zuid-Holland,VBO,4.031602,51.808210
Onderdemolen,148,,,3251LW,Stellendam,Goeree-Overflakkee,Zuid-Holland,VBO,4.031655,51.808373
Onderdemolen,149,,,3251LW,Stellendam,Goeree-Overflakkee,Zuid-Holland,VBO,4.031524,51.808407
Onderdemolen,150,,,3251LW,Stellendam,Goeree-Overflakkee,Zuid-Holland,VBO,4.031364,51.808414
Onderdemolen,151,,,3251LW,Stellendam,Goeree-Overflakkee,Zuid-Holland,VBO,4.029460,51.809817
Onderdemolen,152,,,3251LW,Stellendam,Goeree-Overflakkee,Zuid-Holland,VBO,4.031091,51.808330
Onderdemolen,153,,,3251LW,Stellendam,Goeree-Overflakkee,Zuid-Holland,VBO,4.031065,51.808231
Onderdemolen,154,,,3251LW,Stellendam,Goeree-Overflakkee,Zuid-Holland,VBO,4.031212,51.808179
Onderdemolen,155,,,3251LW,Stellendam,Goeree-Overflakkee,Zuid-Holland,VBO,4.031344,51.808126
Onderdemolen,156,,,3251LW,Stellendam,Goeree-Overflakkee,Zuid-Holland,VBO,4.031493,51.807984
Onderdemolen,157,,,3251LW,Stellendam,Goeree-Overflakkee,Zuid-Holland,VBO,4.031654,51.807950
Onderdemolen,158,,,3251LW,Stellendam,Goeree-Overflakkee,Zuid-Holland,VBO,4.031800,51.807907
Onderdemolen,159,,,3251LW,Stellendam,Goeree-Overflakkee,Zuid-Holland,VBO,4.031774,51.807808
Onderdemolen,160,,,3251LW,Stellendam,Goeree-Overflakkee,Zuid-Holland,VBO,4.031689,51.807726
Onderdemolen,161,,,3251LW,Stellendam,Goeree-Overflakkee,Zuid-Holland,VBO,4.031502,51.807697
Onderdemolen,162,,,3251LW,Stellendam,Goeree-Overflakkee,Zuid-Holland,VBO,4.031356,51.807713
Onderdemolen,163,,,3251LW,Stellendam,Goeree-Overflakkee,Zuid-Holland,VBO,4.031286,51.807622
Onderdemolen,164,,,3251LW,Stellendam,Goeree-Overflakkee,Zuid-Holland,VBO,4.031493,51.807517
Onderdemolen,165,,,3251LW,Stellendam,Goeree-Overflakkee,Zuid-Holland,VBO,4.031610,51.807464
Onderdemolen,166,,,3251LW,Stellendam,Goeree-Overflakkee,Zuid-Holland,VBO,4.029460,51.809817
Onderdemolen,167,,,3251LW,Stellendam,Goeree-Overflakkee,Zuid-Holland,VBO,4.031500,51.807274
Onderdemolen,168,,,3251LW,Stellendam,Goeree-Overflakkee,Zuid-Holland,VBO,4.031418,51.807111
Onderdemolen,169,,,3251LW,Stellendam,Goeree-Overflakkee,Zuid-Holland,VBO,4.031272,51.807155
Onderdemolen,170,,,3251LW,Stellendam,Goeree-Overflakkee,Zuid-Holland,VBO,4.031125,51.807207
Onderdemolen,171,,,3251LW,Stellendam,Goeree-Overflakkee,Zuid-Holland,VBO,4.031017,51.807421
Onderdemolen,172,,,3251LW,Stellendam,Goeree-Overflakkee,Zuid-Holland,VBO,4.031028,51.807529
Onderdemolen,173,,,3251LW,Stellendam,Goeree-Overflakkee,Zuid-Holland,VBO,4.031069,51.807629
Onderdemolen,174,,,3251LW,Stellendam,Goeree-Overflakkee,Zuid-Holland,VBO,4.030820,51.807716
Onderdemolen,175,,,3251LW,Stellendam,Goeree-Overflakkee,Zuid-Holland,VBO,4.030673,51.807768
Onderdemolen,176,,,3251LW,Stellendam,Goeree-Overflakkee,Zuid-Holland,VBO,4.031063,51.807817
Onderdemolen,177,,,3251LW,Stellendam,Goeree-Overflakkee,Zuid-Holland,VBO,4.031046,51.807916
Onderdemolen,178,,,3251LW,Stellendam,Goeree-Overflakkee,Zuid-Holland,VBO,4.031042,51.808051
Onderdemolen,179,,,3251LW,Stellendam,Goeree-Overflakkee,Zuid-Holland,VBO,4.030910,51.808076
Onderdemolen,180,,,3251LW,Stellendam,Goeree-Overflakkee,Zuid-Holland,VBO,4.030779,51.808093
Onderdemolen,181,,,3251LW,Stellendam,Goeree-Overflakkee,Zuid-Holland,VBO,4.030620,51.808100
Onderdemolen,182,,,3251LW,Stellendam,Goeree-Overflakkee,Zuid-Holland,VBO,4.030487,51.808170
Onderdemolen,183,,,3251LW,Stellendam,Goeree-Overflakkee,Zuid-Holland,VBO,4.030312,51.808195
Zuiderdiepstraatweg,2,A,,3251LW,Stellendam,Goeree-Overflakkee,Zuid-Holland,VBO,4.031032,51.809804
Zuiderdiepstraatweg,2,B,,3251LW,Stellendam,Goeree-Overflakkee,Zuid-Holland,VBO,4.030685,51.809782
Zuiderdiepstraatweg,2,,,3251LW,Stellendam,Goeree-Overflakkee,Zuid-Holland,VBO,4.029970,51.812326
Zuiderdiepstraatweg,4,,,3251LW,Stellendam,Goeree-Overflakkee,Zuid-Holland,VBO,4.031260,51.810714
Zuiderdiepstraatweg,8,,,3251LW,Stellendam,Goeree-Overflakkee,Zuid-Holland,VBO,4.029711,51.812278
Zuiderdiepstraatweg,10,,,3251LW,Stellendam,Goeree-Overflakkee,Zuid-Holland,VBO,4.029513,51.812114
Zuiderdiepstraatweg,14,,,3251LW,Stellendam,Goeree-Overflakkee,Zuid-Holland,VBO,4.029562,51.812385
Zuiderdiepstraatweg,16,,,3251LW,Stellendam,Goeree-Overflakkee,Zuid-Holland,VBO,4.029344,51.811676
Zuiderdiepstraatweg,18,,,3251LW,Stellendam,Goeree-Overflakkee,Zuid-Holland,VBO,4.029405,51.811834
Zuiderdiepstraatweg,20,,,3251LW,Stellendam,Goeree-Overflakkee,Zuid-Holland,VBO,4.029418,51.811889
Zuiderdiepstraatweg,22,,,3251LW,Stellendam,Goeree-Overflakkee,Zuid-Holland,VBO,4.029416,51.811951
Zuiderdiepstraatweg,24,,,3251LW,Stellendam,Goeree-Overflakkee,Zuid-Holland,VBO,4.029429,51.812015
Zuiderdiepstraatweg,26,A,,3251LW,Stellendam,Goeree-Overflakkee,Zuid-Holland,VBO,4.030086,51.812319
Zuiderdiepstraatweg,28,,,3251LW,Stellendam,Goeree-Overflakkee,Zuid-Holland,VBO,4.029900,51.812545
Zuiderdiepstraatweg,40,A,,3251LW,Stellendam,Goeree-Overflakkee,Zuid-Holland,VBO,4.029961,51.813832
Zuiderdiepstraatweg,40,,,3251LW,Stellendam,Goeree-Overflakkee,Zuid-Holland,VBO,4.030834,51.813015
Zuiderdiepstraatweg,42,A,,3251LW,Stellendam,Goeree-Overflakkee,Zuid-Holland,VBO,4.032551,51.811376
Zuiderdiepstraatweg,42,,,3251LW,Stellendam,Goeree-Overflakkee,Zuid-Holland,VBO,4.031021,51.814990
Delta-Industrieweg,1,,,3251LX,Stellendam,Goeree-Overflakkee,Zuid-Holland,VBO,4.040577,51.818472
Delta-Industrieweg,2,,,3251LX,Stellendam,Goeree-Overflakkee,Zuid-Holland,VBO,4.039365,51.819240
Delta-Industrieweg,3,,,3251LX,Stellendam,Goeree-Overflakkee,Zuid-Holland,VBO,4.040259,51.818258
Delta-Industrieweg,8,,,3251LX,Stellendam,Goeree-Overflakkee,Zuid-Holland,VBO,4.039105,51.818572
Delta-Industrieweg,9,A,,3251LX,Stellendam,Goeree-Overflakkee,Zuid-Holland,VBO,4.039307,51.817376
Delta-Industrieweg,9,,,3251LX,Stellendam,Goeree-Overflakkee,Zuid-Holland,VBO,4.039555,51.817732
Delta-Industrieweg,10,,,3251LX,Stellendam,Goeree-Overflakkee,Zuid-Holland,VBO,4.039002,51.818283
Delta-Industrieweg,11,A,,3251LX,Stellendam,Goeree-Overflakkee,Zuid-Holland,VBO,4.037825,51.817838
Delta-Industrieweg,11,,,3251LX,Stellendam,Goeree-Overflakkee,Zuid-Holland,VBO,4.038286,51.817704
Delta-Industrieweg,13,,,3251LX,Stellendam,Goeree-Overflakkee,Zuid-Holland,VBO,4.037372,51.817970
Delta-Industrieweg,14,,,3251LX,Stellendam,Goeree-Overflakkee,Zuid-Holland,VBO,4.038751,51.818165
Delta-Industrieweg,15,,,3251LX,Stellendam,Goeree-Overflakkee,Zuid-Holland,VBO,4.036942,51.818127
Delta-Industrieweg,16,A,,3251LX,Stellendam,Goeree-Overflakkee,Zuid-Holland,VBO,4.038678,51.818423
Delta-Industrieweg,17,,,3251LX,Stellendam,Goeree-Overflakkee,Zuid-Holland,VBO,4.036330,51.818510
Delta-Industrieweg,18,,,3251LX,Stellendam,Goeree-Overflakkee,Zuid-Holland,VBO,4.038053,51.818390
Delta-Industrieweg,19,,,3251LX,Stellendam,Goeree-Overflakkee,Zuid-Holland,VBO,4.035963,51.818994
Delta-Industrieweg,20,,,3251LX,Stellendam,Goeree-Overflakkee,Zuid-Holland,VBO,4.037907,51.818497
Delta-Industrieweg,21,,,3251LX,Stellendam,Goeree-Overflakkee,Zuid-Holland,VBO,4.035749,51.818751
Delta-Industrieweg,34,A,,3251LX,Stellendam,Goeree-Overflakkee,Zuid-Holland,VBO,4.036669,51.819146
Delta-Industrieweg,34,,,3251LX,Stellendam,Goeree-Overflakkee,Zuid-Holland,VBO,4.037033,51.818966
Delta-Industrieweg,36,,,3251LX,Stellendam,Goeree-Overflakkee,Zuid-Holland,VBO,4.036887,51.819625
Delta-Industrieweg,38,,,3251LX,Stellendam,Goeree-Overflakkee,Zuid-Holland,VBO,4.036018,51.819823
Delta-Industrieweg,40,,,3251LX,Stellendam,Goeree-Overflakkee,Zuid-Holland,VBO,4.035260,51.819714
Delta-Industrieweg,42,,,3251LX,Stellendam,Goeree-Overflakkee,Zuid-Holland,VBO,4.034732,51.819503
Scheelhoekweg,1,,,3251LZ,Stellendam,Goeree-Overflakkee,Zuid-Holland,VBO,4.038434,51.819418
Scheelhoekweg,2,,,3251LZ,Stellendam,Goeree-Overflakkee,Zuid-Holland,VBO,4.038052,51.819811
Scheelhoekweg,3,,,3251LZ,Stellendam,Goeree-Overflakkee,Zuid-Holland,VBO,4.039101,51.819309
Scheelhoekweg,4,,,3251LZ,Stellendam,Goeree-Overflakkee,Zuid-Holland,VBO,4.037743,51.819619
Scheelhoekweg,6,,,3251LZ,Stellendam,Goeree-Overflakkee,Zuid-Holland,VBO,4.037590,51.819408
Scheelhoekweg,8,,,3251LZ,Stellendam,Goeree-Overflakkee,Zuid-Holland,VBO,4.037373,51.819300
Scheelhoekweg,9,,,3251LZ,Stellendam,Goeree-Overflakkee,Zuid-Holland,VBO,4.038123,51.819034
Scheelhoekweg,11,,,3251LZ,Stellendam,Goeree-Overflakkee,Zuid-Holland,VBO,4.037731,51.818805
Scheelhoekweg,12,,,3251LZ,Stellendam,Goeree-Overflakkee,Zuid-Holland,VBO,4.037141,51.819133
Halsweg,2,,,3251NA,Stellendam,Goeree-Overflakkee,Zuid-Holland,VBO,4.075681,51.791496
Tiendeweg,1,,,3251NB,Stellendam,Goeree-Overflakkee,Zuid-Holland,VBO,4.069459,51.790744
Noordereiland,1,,,3251NC,Stellendam,Goeree-Overflakkee,Zuid-Holland,VBO,4.048769,51.820058
Pampus,1,,,3251ND,Stellendam,Goeree-Overflakkee,Zuid-Holland,VBO,4.027064,51.814207
Pampus,4,A,,3251ND,Stellendam,Goeree-Overflakkee,Zuid-Holland,VBO,4.027205,51.813462
Pampus,4,,,3251ND,Stellendam,Goeree-Overflakkee,Zuid-Holland,VBO,4.027205,51.813462
Pampus,6,,,3251ND,Stellendam,Goeree-Overflakkee,Zuid-Holland,VBO,4.026954,51.813291
Pampus,13,,,3251ND,Stellendam,Goeree-Overflakkee,Zuid-Holland,VBO,4.028373,51.812691
Pampus,17,,,3251ND,Stellendam,Goeree-Overflakkee,Zuid-Holland,VBO,4.027683,51.813110
Pampus,19,,,3251ND,Stellendam,Goeree-Overflakkee,Zuid-Holland,VBO,4.027332,51.812942
Pampus,20,,,3251ND,Stellendam,Goeree-Overflakkee,Zuid-Holland,VBO,4.026185,51.812760
Pampus,21,,,3251ND,Stellendam,Goeree-Overflakkee,Zuid-Holland,VBO,4.027648,51.812769
Pampus,22,,,3251ND,Stellendam,Goeree-Overflakkee,Zuid-Holland,VBO,4.026084,51.812705
Pampus,24,,,3251ND,Stellendam,Goeree-Overflakkee,Zuid-Holland,VBO,4.026011,51.812636
Pampus,25,,,3251ND,Stellendam,Goeree-Overflakkee,Zuid-Holland,VBO,4.028453,51.812073
Pampus,26,A,,3251ND,Stellendam,Goeree-Overflakkee,Zuid-Holland,VBO,4.026417,51.812312
Pampus,26,,,3251ND,Stellendam,Goeree-Overflakkee,Zuid-Holland,VBO,4.025907,51.812587
Pampus,28,,,3251ND,Stellendam,Goeree-Overflakkee,Zuid-Holland,VBO,4.025791,51.812509
Pampus,30,,,3251ND,Stellendam,Goeree-Overflakkee,Zuid-Holland,VBO,4.025727,51.812468
Pampus,31,,,3251ND,Stellendam,Goeree-Overflakkee,Zuid-Holland,VBO,4.026921,51.812642
Pampus,33,,,3251ND,Stellendam,Goeree-Overflakkee,Zuid-Holland,VBO,4.026676,51.812476
Pampus,35,,,3251ND,Stellendam,Goeree-Overflakkee,Zuid-Holland,VBO,4.026569,51.812425
Pampus,37,,,3251ND,Stellendam,Goeree-Overflakkee,Zuid-Holland,VBO,4.026497,51.812357
Pampus,39,,,3251ND,Stellendam,Goeree-Overflakkee,Zuid-Holland,VBO,4.026392,51.812307
Pampus,41,,,3251ND,Stellendam,Goeree-Overflakkee,Zuid-Holland,VBO,4.026321,51.812238
Pampus,43,,,3251ND,Stellendam,Goeree-Overflakkee,Zuid-Holland,VBO,4.026214,51.812188
Hinder,2,,,3251NE,Stellendam,Goeree-Overflakkee,Zuid-Holland,VBO,4.025003,51.812511
Hinder,4,,,3251NE,Stellendam,Goeree-Overflakkee,Zuid-Holland,VBO,4.024916,51.812451
Hinder,6,,,3251NE,Stellendam,Goeree-Overflakkee,Zuid-Holland,VBO,4.024830,51.812393
Hinder,8,,,3251NE,Stellendam,Goeree-Overflakkee,Zuid-Holland,VBO,4.024730,51.812332
Hinder,10,,,3251NE,Stellendam,Goeree-Overflakkee,Zuid-Holland,VBO,4.024649,51.812280
Hinder,12,,,3251NE,Stellendam,Goeree-Overflakkee,Zuid-Holland,VBO,4.024455,51.812388
Hinder,14,,,3251NE,Stellendam,Goeree-Overflakkee,Zuid-Holland,VBO,4.024542,51.812443
Hinder,16,,,3251NE,Stellendam,Goeree-Overflakkee,Zuid-Holland,VBO,4.024626,51.812505
Hinder,18,,,3251NE,Stellendam,Goeree-Overflakkee,Zuid-Holland,VBO,4.024725,51.812565
Hinder,20,,,3251NE,Stellendam,Goeree-Overflakkee,Zuid-Holland,VBO,4.024821,51.812625
Deltageul,1,,,3251NG,Stellendam,Goeree-Overflakkee,Zuid-Holland,VBO,4.026124,51.814111
Deltageul,2,,,3251NG,Stellendam,Goeree-Overflakkee,Zuid-Holland,VBO,4.024181,51.812743
Deltageul,3,,,3251NG,Stellendam,Goeree-Overflakkee,Zuid-Holland,VBO,4.026032,51.814043
Deltageul,5,,,3251NG,Stellendam,Goeree-Overflakkee,Zuid-Holland,VBO,4.025911,51.813956
Deltageul,7,,,3251NG,Stellendam,Goeree-Overflakkee,Zuid-Holland,VBO,4.025861,51.813924
Deltageul,9,,,3251NG,Stellendam,Goeree-Overflakkee,Zuid-Holland,VBO,4.025769,51.813869
Deltageul,11,,,3251NG,Stellendam,Goeree-Overflakkee,Zuid-Holland,VBO,4.025662,51.813800
Deltageul,13,,,3251NG,Stellendam,Goeree-Overflakkee,Zuid-Holland,VBO,4.025548,51.813718
Deltageul,15,,,3251NG,Stellendam,Goeree-Overflakkee,Zuid-Holland,VBO,4.025427,51.813640
Deltageul,17,,,3251NG,Stellendam,Goeree-Overflakkee,Zuid-Holland,VBO,4.025363,51.813599
Deltageul,19,,,3251NG,Stellendam,Goeree-Overflakkee,Zuid-Holland,VBO,4.025214,51.813516
Deltageul,20,,,3251NG,Stellendam,Goeree-Overflakkee,Zuid-Holland,VBO,4.025194,51.812097
Deltageul,21,,,3251NG,Stellendam,Goeree-Overflakkee,Zuid-Holland,VBO,4.025828,51.813825
Deltageul,22,,,3251NG,Stellendam,Goeree-Overflakkee,Zuid-Holland,VBO,4.025852,51.811981
Deltageul,23,,,3251NG,Stellendam,Goeree-Overflakkee,Zuid-Holland,VBO,4.025835,51.813829
Deltageul,25,,,3251NG,Stellendam,Goeree-Overflakkee,Zuid-Holland,VBO,4.026156,51.814004
Deltageul,27,,,3251NG,Stellendam,Goeree-Overflakkee,Zuid-Holland,VBO,4.025765,51.813787
Deltageul,28,,,3251NG,Stellendam,Goeree-Overflakkee,Zuid-Holland,VBO,4.026080,51.811636
Deltageul,29,,,3251NG,Stellendam,Goeree-Overflakkee,Zuid-Holland,VBO,4.026063,51.813949
Deltageul,31,,,3251NG,Stellendam,Goeree-Overflakkee,Zuid-Holland,VBO,4.026036,51.813903
Deltageul,33,,,3251NG,Stellendam,Goeree-Overflakkee,Zuid-Holland,VBO,4.025765,51.813787
Deltageul,35,,,3251NG,Stellendam,Goeree-Overflakkee,Zuid-Holland,VBO,4.025964,51.813867
Deltageul,37,,,3251NG,Stellendam,Goeree-Overflakkee,Zuid-Holland,VBO,4.025851,51.813789
Deltageul,39,,,3251NG,Stellendam,Goeree-Overflakkee,Zuid-Holland,VBO,4.025765,51.813787
Deltageul,41,,,3251NG,Stellendam,Goeree-Overflakkee,Zuid-Holland,VBO,4.025780,51.813739
Deltageul,43,,,3251NG,Stellendam,Goeree-Overflakkee,Zuid-Holland,VBO,4.025723,51.813707
Deltageul,45,,,3251NG,Stellendam,Goeree-Overflakkee,Zuid-Holland,VBO,4.025659,51.813670
Deltageul,47,,,3251NG,Stellendam,Goeree-Overflakkee,Zuid-Holland,VBO,4.025765,51.813787
Deltageul,49,,,3251NG,Stellendam,Goeree-Overflakkee,Zuid-Holland,VBO,4.025502,51.813556
Deltageul,51,,,3251NG,Stellendam,Goeree-Overflakkee,Zuid-Holland,VBO,4.025495,51.813560
Deltageul,53,,,3251NG,Stellendam,Goeree-Overflakkee,Zuid-Holland,VBO,4.025502,51.813565
Deltageul,55,,,3251NG,Stellendam,Goeree-Overflakkee,Zuid-Holland,VBO,4.025502,51.813556
Deltageul,57,,,3251NG,Stellendam,Goeree-Overflakkee,Zuid-Holland,VBO,4.025374,51.813473
Deltageul,59,,,3251NG,Stellendam,Goeree-Overflakkee,Zuid-Holland,VBO,4.025310,51.813441
Deltageul,61,,,3251NG,Stellendam,Goeree-Overflakkee,Zuid-Holland,VBO,4.026504,51.813922
Deltageul,63,,,3251NG,Stellendam,Goeree-Overflakkee,Zuid-Holland,VBO,4.026434,51.813829
Deltageul,65,,,3251NG,Stellendam,Goeree-Overflakkee,Zuid-Holland,VBO,4.026199,51.813643
Deltageul,67,,,3251NG,Stellendam,Goeree-Overflakkee,Zuid-Holland,VBO,4.026002,51.813593
Deltageul,69,,,3251NG,Stellendam,Goeree-Overflakkee,Zuid-Holland,VBO,4.025756,51.813410
Deltageul,71,,,3251NG,Stellendam,Goeree-Overflakkee,Zuid-Holland,VBO,4.025628,51.813346
Deltageul,101,,,3251NG,Stellendam,Goeree-Overflakkee,Zuid-Holland,VBO,4.024763,51.813159
Deltageul,103,,,3251NG,Stellendam,Goeree-Overflakkee,Zuid-Holland,VBO,4.025559,51.812869
Vissersweg,1,A,,3251NH,Stellendam,Goeree-Overflakkee,Zuid-Holland,VBO,4.003806,51.815194
Vissersweg,1,,,3251NH,Stellendam,Goeree-Overflakkee,Zuid-Holland,VBO,4.011732,51.814002
De Meutelaer,1,,,3251NJ,Stellendam,Goeree-Overflakkee,Zuid-Holland,VBO,4.022673,51.802058
De Meutelaer,13,,,3251NJ,Stellendam,Goeree-Overflakkee,Zuid-Holland,VBO,4.021711,51.801427
De Meutelaer,15,,,3251NJ,Stellendam,Goeree-Overflakkee,Zuid-Holland,VBO,4.021655,51.801388
De Meutelaer,17,,,3251NJ,Stellendam,Goeree-Overflakkee,Zuid-Holland,VBO,4.021603,51.801359
De Meutelaer,19,,,3251NJ,Stellendam,Goeree-Overflakkee,Zuid-Holland,VBO,4.021556,51.801323
De Meutelaer,21,,,3251NJ,Stellendam,Goeree-Overflakkee,Zuid-Holland,VBO,4.021506,51.801289
De Meutelaer,23,,,3251NJ,Stellendam,Goeree-Overflakkee,Zuid-Holland,VBO,4.021456,51.801255
De Meutelaer,25,,,3251NJ,Stellendam,Goeree-Overflakkee,Zuid-Holland,VBO,4.021409,51.801219
De Meutelaer,27,,,3251NJ,Stellendam,Goeree-Overflakkee,Zuid-Holland,VBO,4.021357,51.801185
Molenhof,1,,,3251NZ,Stellendam,Goeree-Overflakkee,Zuid-Holland,VBO,4.030735,51.806875
Molenhof,2,,,3251NZ,Stellendam,Goeree-Overflakkee,Zuid-Holland,VBO,4.030924,51.806722
Molenhof,3,,,3251NZ,Stellendam,Goeree-Overflakkee,Zuid-Holland,VBO,4.030796,51.806892
Molenhof,4,,,3251NZ,Stellendam,Goeree-Overflakkee,Zuid-Holland,VBO,4.030987,51.806742
Molenhof,5,,,3251NZ,Stellendam,Goeree-Overflakkee,Zuid-Holland,VBO,4.030855,51.806912
Molenhof,6,,,3251NZ,Stellendam,Goeree-Overflakkee,Zuid-Holland,VBO,4.031049,51.806761
Molenhof,7,,,3251NZ,Stellendam,Goeree-Overflakkee,Zuid-Holland,VBO,4.030922,51.806931
Blazer,1,,,3251PA,Stellendam,Goeree-Overflakkee,Zuid-Holland,VBO,4.024766,51.800247
Blazer,2,,,3251PA,Stellendam,Goeree-Overflakkee,Zuid-Holland,VBO,4.024899,51.800653
Blazer,3,,,3251PA,Stellendam,Goeree-Overflakkee,Zuid-Holland,VBO,4.024709,51.800220
Blazer,4,,,3251PA,Stellendam,Goeree-Overflakkee,Zuid-Holland,VBO,4.024842,51.800608
Blazer,5,,,3251PA,Stellendam,Goeree-Overflakkee,Zuid-Holland,VBO,4.024652,51.800183
Blazer,6,,,3251PA,Stellendam,Goeree-Overflakkee,Zuid-Holland,VBO,4.024771,51.800562
Blazer,7,,,3251PA,Stellendam,Goeree-Overflakkee,Zuid-Holland,VBO,4.024610,51.800147
Blazer,8,,,3251PA,Stellendam,Goeree-Overflakkee,Zuid-Holland,VBO,4.024714,51.800534
Blazer,9,,,3251PA,Stellendam,Goeree-Overflakkee,Zuid-Holland,VBO,4.024553,51.800110
Blazer,10,,,3251PA,Stellendam,Goeree-Overflakkee,Zuid-Holland,VBO,4.024600,51.800452
Blazer,11,,,3251PA,Stellendam,Goeree-Overflakkee,Zuid-Holland,VBO,4.024496,51.800073
Blazer,12,,,3251PA,Stellendam,Goeree-Overflakkee,Zuid-Holland,VBO,4.024544,51.800415
Blazer,13,,,3251PA,Stellendam,Goeree-Overflakkee,Zuid-Holland,VBO,4.024454,51.800037
Blazer,14,,,3251PA,Stellendam,Goeree-Overflakkee,Zuid-Holland,VBO,4.024472,51.800370
Blazer,15,A,,3251PA,Stellendam,Goeree-Overflakkee,Zuid-Holland,VBO,4.024369,51.799946
Blazer,15,,,3251PA,Stellendam,Goeree-Overflakkee,Zuid-Holland,VBO,4.024397,51.800000
Blazer,16,,,3251PA,Stellendam,Goeree-Overflakkee,Zuid-Holland,VBO,4.024416,51.800324
Blazer,17,,,3251PA,Stellendam,Goeree-Overflakkee,Zuid-Holland,VBO,4.024109,51.799916
Blazer,19,,,3251PA,Stellendam,Goeree-Overflakkee,Zuid-Holland,VBO,4.024079,51.799943
Blazer,21,,,3251PA,Stellendam,Goeree-Overflakkee,Zuid-Holland,VBO,4.023991,51.799978
Blazer,22,,,3251PA,Stellendam,Goeree-Overflakkee,Zuid-Holland,VBO,4.024202,51.800214
Blazer,23,,,3251PA,Stellendam,Goeree-Overflakkee,Zuid-Holland,VBO,4.023947,51.800004
Blazer,24,,,3251PA,Stellendam,Goeree-Overflakkee,Zuid-Holland,VBO,4.024158,51.800231
Blazer,25,,,3251PA,Stellendam,Goeree-Overflakkee,Zuid-Holland,VBO,4.023755,51.800119
Blazer,26,,,3251PA,Stellendam,Goeree-Overflakkee,Zuid-Holland,VBO,4.024084,51.800275
Blazer,27,,,3251PA,Stellendam,Goeree-Overflakkee,Zuid-Holland,VBO,4.023711,51.800145
Blazer,28,,,3251PA,Stellendam,Goeree-Overflakkee,Zuid-Holland,VBO,4.024040,51.800302
Blazer,29,,,3251PA,Stellendam,Goeree-Overflakkee,Zuid-Holland,VBO,4.023637,51.800189
Blazer,30,,,3251PA,Stellendam,Goeree-Overflakkee,Zuid-Holland,VBO,4.023994,51.800355
Blazer,31,,,3251PA,Stellendam,Goeree-Overflakkee,Zuid-Holland,VBO,4.023593,51.800207
Blazer,32,,,3251PA,Stellendam,Goeree-Overflakkee,Zuid-Holland,VBO,4.023950,51.800382
Blazer,33,,,3251PA,Stellendam,Goeree-Overflakkee,Zuid-Holland,VBO,4.023239,51.800400
Blazer,34,,,3251PA,Stellendam,Goeree-Overflakkee,Zuid-Holland,VBO,4.023848,51.800407
Blazer,35,,,3251PA,Stellendam,Goeree-Overflakkee,Zuid-Holland,VBO,4.023180,51.800436
Blazer,36,,,3251PA,Stellendam,Goeree-Overflakkee,Zuid-Holland,VBO,4.023804,51.800434
Botter,1,,,3251PB,Stellendam,Goeree-Overflakkee,Zuid-Holland,VBO,4.024543,51.800910
Botter,2,,,3251PB,Stellendam,Goeree-Overflakkee,Zuid-Holland,VBO,4.023951,51.800831
Botter,3,,,3251PB,Stellendam,Goeree-Overflakkee,Zuid-Holland,VBO,4.024486,51.800873
Botter,4,,,3251PB,Stellendam,Goeree-Overflakkee,Zuid-Holland,VBO,4.023894,51.800794
Botter,5,,,3251PB,Stellendam,Goeree-Overflakkee,Zuid-Holland,VBO,4.024429,51.800837
Botter,6,,,3251PB,Stellendam,Goeree-Overflakkee,Zuid-Holland,VBO,4.023837,51.800758
Botter,7,,,3251PB,Stellendam,Goeree-Overflakkee,Zuid-Holland,VBO,4.024372,51.800800
Botter,8,,,3251PB,Stellendam,Goeree-Overflakkee,Zuid-Holland,VBO,4.023780,51.800730
Botter,9,,,3251PB,Stellendam,Goeree-Overflakkee,Zuid-Holland,VBO,4.024316,51.800763
Botter,10,,,3251PB,Stellendam,Goeree-Overflakkee,Zuid-Holland,VBO,4.023709,51.800693
Botter,11,,,3251PB,Stellendam,Goeree-Overflakkee,Zuid-Holland,VBO,4.024231,51.800699
Botter,12,,,3251PB,Stellendam,Goeree-Overflakkee,Zuid-Holland,VBO,4.023666,51.800657
Botter,13,,,3251PB,Stellendam,Goeree-Overflakkee,Zuid-Holland,VBO,4.024173,51.800672
Botter,14,,,3251PB,Stellendam,Goeree-Overflakkee,Zuid-Holland,VBO,4.023609,51.800620
Botter,15,,,3251PB,Stellendam,Goeree-Overflakkee,Zuid-Holland,VBO,4.024117,51.800626
Botter,16,,,3251PB,Stellendam,Goeree-Overflakkee,Zuid-Holland,VBO,4.023552,51.800593
Botter,17,,,3251PB,Stellendam,Goeree-Overflakkee,Zuid-Holland,VBO,4.024060,51.800599
Botter,18,,,3251PB,Stellendam,Goeree-Overflakkee,Zuid-Holland,VBO,4.023495,51.800556
Botter,19,,,3251PB,Stellendam,Goeree-Overflakkee,Zuid-Holland,VBO,4.024003,51.800553
Hoogaars,1,,,3251PC,Stellendam,Goeree-Overflakkee,Zuid-Holland,VBO,4.025007,51.800430
Hoogaars,2,,,3251PC,Stellendam,Goeree-Overflakkee,Zuid-Holland,VBO,4.025143,51.800004
Hoogaars,3,,,3251PC,Stellendam,Goeree-Overflakkee,Zuid-Holland,VBO,4.025066,51.800395
Hoogaars,4,,,3251PC,Stellendam,Goeree-Overflakkee,Zuid-Holland,VBO,4.025122,51.799982
Hoogaars,5,,,3251PC,Stellendam,Goeree-Overflakkee,Zuid-Holland,VBO,4.025140,51.800359
Hoogaars,6,,,3251PC,Stellendam,Goeree-Overflakkee,Zuid-Holland,VBO,4.025014,51.799956
Hoogaars,7,,,3251PC,Stellendam,Goeree-Overflakkee,Zuid-Holland,VBO,4.025184,51.800324
Hoogaars,8,,,3251PC,Stellendam,Goeree-Overflakkee,Zuid-Holland,VBO,4.024913,51.799886
Hoogaars,9,,,3251PC,Stellendam,Goeree-Overflakkee,Zuid-Holland,VBO,4.025243,51.800289
Hoogaars,10,,,3251PC,Stellendam,Goeree-Overflakkee,Zuid-Holland,VBO,4.024859,51.799821
Hoogaars,11,,,3251PC,Stellendam,Goeree-Overflakkee,Zuid-Holland,VBO,4.025302,51.800262
Hoogaars,12,,,3251PC,Stellendam,Goeree-Overflakkee,Zuid-Holland,VBO,4.024823,51.799798
Hoogaars,13,,,3251PC,Stellendam,Goeree-Overflakkee,Zuid-Holland,VBO,4.025361,51.800227
Hoogaars,14,,,3251PC,Stellendam,Goeree-Overflakkee,Zuid-Holland,VBO,4.024721,51.799759
Hoogaars,15,,,3251PC,Stellendam,Goeree-Overflakkee,Zuid-Holland,VBO,4.025436,51.800156
Hoogaars,17,,,3251PC,Stellendam,Goeree-Overflakkee,Zuid-Holland,VBO,4.025495,51.800130
Hoogaars,18,A,,3251PC,Stellendam,Goeree-Overflakkee,Zuid-Holland,VBO,4.024455,51.799524
Hoogaars,19,,,3251PC,Stellendam,Goeree-Overflakkee,Zuid-Holland,VBO,4.025554,51.800095
Hoogaars,20,,,3251PC,Stellendam,Goeree-Overflakkee,Zuid-Holland,VBO,4.024183,51.799386
Hoogaars,21,,,3251PC,Stellendam,Goeree-Overflakkee,Zuid-Holland,VBO,4.025613,51.800059
Hoogaars,22,,,3251PC,Stellendam,Goeree-Overflakkee,Zuid-Holland,VBO,4.024124,51.799413
Hoogaars,23,,,3251PC,Stellendam,Goeree-Overflakkee,Zuid-Holland,VBO,4.025657,51.800033
Hoogaars,24,,,3251PC,Stellendam,Goeree-Overflakkee,Zuid-Holland,VBO,4.024065,51.799448
Hoogaars,25,,,3251PC,Stellendam,Goeree-Overflakkee,Zuid-Holland,VBO,4.025731,51.799989
Hoogaars,26,,,3251PC,Stellendam,Goeree-Overflakkee,Zuid-Holland,VBO,4.023881,51.799567
Hoogaars,27,,,3251PC,Stellendam,Goeree-Overflakkee,Zuid-Holland,VBO,4.025430,51.799868
Hoogaars,28,,,3251PC,Stellendam,Goeree-Overflakkee,Zuid-Holland,VBO,4.023843,51.799607
Hoogaars,29,,,3251PC,Stellendam,Goeree-Overflakkee,Zuid-Holland,VBO,4.025387,51.799841
Hoogaars,30,,,3251PC,Stellendam,Goeree-Overflakkee,Zuid-Holland,VBO,4.023784,51.799629
Hoogaars,31,,,3251PC,Stellendam,Goeree-Overflakkee,Zuid-Holland,VBO,4.025259,51.799759
Hoogaars,32,,,3251PC,Stellendam,Goeree-Overflakkee,Zuid-Holland,VBO,4.023592,51.799744
Hoogaars,33,,,3251PC,Stellendam,Goeree-Overflakkee,Zuid-Holland,VBO,4.025202,51.799731
Hoogaars,34,,,3251PC,Stellendam,Goeree-Overflakkee,Zuid-Holland,VBO,4.023591,51.799802
Hoogaars,35,,,3251PC,Stellendam,Goeree-Overflakkee,Zuid-Holland,VBO,4.025089,51.799649
Hoogaars,36,,,3251PC,Stellendam,Goeree-Overflakkee,Zuid-Holland,VBO,4.023482,51.799810
Hoogaars,37,,,3251PC,Stellendam,Goeree-Overflakkee,Zuid-Holland,VBO,4.025032,51.799612
Hoogaars,38,,,3251PC,Stellendam,Goeree-Overflakkee,Zuid-Holland,VBO,4.023268,51.799915
Hoogaars,39,,,3251PC,Stellendam,Goeree-Overflakkee,Zuid-Holland,VBO,4.024918,51.799539
Hoogaars,40,,,3251PC,Stellendam,Goeree-Overflakkee,Zuid-Holland,VBO,4.023223,51.799960
Hoogaars,41,,,3251PC,Stellendam,Goeree-Overflakkee,Zuid-Holland,VBO,4.024861,51.799493
Hoogaars,42,,,3251PC,Stellendam,Goeree-Overflakkee,Zuid-Holland,VBO,4.023157,51.799986
Hoogaars,43,,,3251PC,Stellendam,Goeree-Overflakkee,Zuid-Holland,VBO,4.024573,51.799298
Hoogaars,45,,,3251PC,Stellendam,Goeree-Overflakkee,Zuid-Holland,VBO,4.024516,51.799264
Hoogaars,47,,,3251PC,Stellendam,Goeree-Overflakkee,Zuid-Holland,VBO,4.024412,51.799153
Hoogaars,49,,,3251PC,Stellendam,Goeree-Overflakkee,Zuid-Holland,VBO,4.024307,51.799127
Hoogaars,51,,,3251PC,Stellendam,Goeree-Overflakkee,Zuid-Holland,VBO,4.024150,51.799035
Hoogaars,53,,,3251PC,Stellendam,Goeree-Overflakkee,Zuid-Holland,VBO,4.023999,51.799231
Hoogaars,55,,,3251PC,Stellendam,Goeree-Overflakkee,Zuid-Holland,VBO,4.023822,51.799328
Hoogaars,57,,,3251PC,Stellendam,Goeree-Overflakkee,Zuid-Holland,VBO,4.023675,51.799425
Hoogaars,59,,,3251PC,Stellendam,Goeree-Overflakkee,Zuid-Holland,VBO,4.023512,51.799522
Hoogaars,61,,,3251PC,Stellendam,Goeree-Overflakkee,Zuid-Holland,VBO,4.023285,51.799596
Hoogaars,63,,,3251PC,Stellendam,Goeree-Overflakkee,Zuid-Holland,VBO,4.023159,51.799707
Hoogaars,65,,,3251PC,Stellendam,Goeree-Overflakkee,Zuid-Holland,VBO,4.023011,51.799795
Hoogaars,67,,,3251PC,Stellendam,Goeree-Overflakkee,Zuid-Holland,VBO,4.022834,51.799901
Hoogaars,69,,,3251PC,Stellendam,Goeree-Overflakkee,Zuid-Holland,VBO,4.022686,51.799989
Hoogaars,71,,,3251PC,Stellendam,Goeree-Overflakkee,Zuid-Holland,VBO,4.022842,51.800099
Hoogaars,73,,,3251PC,Stellendam,Goeree-Overflakkee,Zuid-Holland,VBO,4.023013,51.800200
Johan Frisopad,2,,,3251XA,Stellendam,Goeree-Overflakkee,Zuid-Holland,VBO,4.022097,51.807471
Johan Frisopad,4,,,3251XA,Stellendam,Goeree-Overflakkee,Zuid-Holland,VBO,4.022113,51.807408
Johan Frisopad,6,,,3251XA,Stellendam,Goeree-Overflakkee,Zuid-Holland,VBO,4.022216,51.807382
Johan Frisopad,8,,,3251XA,Stellendam,Goeree-Overflakkee,Zuid-Holland,VBO,4.022275,51.807347
Johan Frisopad,10,,,3251XA,Stellendam,Goeree-Overflakkee,Zuid-Holland,VBO,4.022334,51.807312
Johan Frisopad,12,,,3251XA,Stellendam,Goeree-Overflakkee,Zuid-Holland,VBO,4.022437,51.807259
Johan Frisopad,14,,,3251XA,Stellendam,Goeree-Overflakkee,Zuid-Holland,VBO,4.022193,51.807175
Johan Frisopad,16,,,3251XA,Stellendam,Goeree-Overflakkee,Zuid-Holland,VBO,4.022136,51.807130
Johan Frisopad,18,,,3251XA,Stellendam,Goeree-Overflakkee,Zuid-Holland,VBO,4.022080,51.807093
Johan Frisopad,20,,,3251XA,Stellendam,Goeree-Overflakkee,Zuid-Holland,VBO,4.022023,51.807038
Johan Frisopad,22,,,3251XA,Stellendam,Goeree-Overflakkee,Zuid-Holland,VBO,4.021952,51.807002
Johan Frisopad,24,,,3251XA,Stellendam,Goeree-Overflakkee,Zuid-Holland,VBO,4.021881,51.806956
Koningin Emmastraat,2,,,3251XB,Stellendam,Goeree-Overflakkee,Zuid-Holland,VBO,4.026920,51.807194
Koningin Emmastraat,4,,,3251XB,Stellendam,Goeree-Overflakkee,Zuid-Holland,VBO,4.026846,51.807238
Koningin Emmastraat,6,,,3251XB,Stellendam,Goeree-Overflakkee,Zuid-Holland,VBO,4.026756,51.807327
Koningin Emmastraat,8,,,3251XB,Stellendam,Goeree-Overflakkee,Zuid-Holland,VBO,4.026707,51.807380
Koningin Julianastraat,1,,,3251XC,Stellendam,Goeree-Overflakkee,Zuid-Holland,VBO,4.027355,51.807208
Koningin Julianastraat,2,,,3251XC,Stellendam,Goeree-Overflakkee,Zuid-Holland,VBO,4.027275,51.807432
Koningin Julianastraat,3,,,3251XC,Stellendam,Goeree-Overflakkee,Zuid-Holland,VBO,4.027298,51.807163
Koningin Julianastraat,4,,,3251XC,Stellendam,Goeree-Overflakkee,Zuid-Holland,VBO,4.027233,51.807395
Koningin Julianastraat,5,,,3251XC,Stellendam,Goeree-Overflakkee,Zuid-Holland,VBO,4.027241,51.807135
Koningin Julianastraat,6,,,3251XC,Stellendam,Goeree-Overflakkee,Zuid-Holland,VBO,4.027176,51.807350
Koningin Julianastraat,7,,,3251XC,Stellendam,Goeree-Overflakkee,Zuid-Holland,VBO,4.027170,51.807080
Koningin Julianastraat,8,,,3251XC,Stellendam,Goeree-Overflakkee,Zuid-Holland,VBO,4.027105,51.807304
Koningin Julianastraat,9,,,3251XC,Stellendam,Goeree-Overflakkee,Zuid-Holland,VBO,4.027128,51.807017
Koningin Julianastraat,10,,,3251XC,Stellendam,Goeree-Overflakkee,Zuid-Holland,VBO,4.026663,51.807050
Koningin Julianastraat,11,,,3251XC,Stellendam,Goeree-Overflakkee,Zuid-Holland,VBO,4.027071,51.806980
Koningin Julianastraat,12,,,3251XC,Stellendam,Goeree-Overflakkee,Zuid-Holland,VBO,4.026650,51.806993
Koningin Julianastraat,13,,,3251XC,Stellendam,Goeree-Overflakkee,Zuid-Holland,VBO,4.027000,51.806934
Koningin Julianastraat,14,,,3251XC,Stellendam,Goeree-Overflakkee,Zuid-Holland,VBO,4.026565,51.806947
Koningin Julianastraat,15,,,3251XC,Stellendam,Goeree-Overflakkee,Zuid-Holland,VBO,4.026944,51.806889
Koningin Julianastraat,16,,,3251XC,Stellendam,Goeree-Overflakkee,Zuid-Holland,VBO,4.026508,51.806902
Koningin Julianastraat,17,,,3251XC,Stellendam,Goeree-Overflakkee,Zuid-Holland,VBO,4.026887,51.806843
Koningin Julianastraat,18,,,3251XC,Stellendam,Goeree-Overflakkee,Zuid-Holland,VBO,4.026028,51.806635
Koningin Julianastraat,19,,,3251XC,Stellendam,Goeree-Overflakkee,Zuid-Holland,VBO,4.026816,51.806806
Koningin Julianastraat,20,,,3251XC,Stellendam,Goeree-Overflakkee,Zuid-Holland,VBO,4.025966,51.806605
Koningin Julianastraat,21,,,3251XC,Stellendam,Goeree-Overflakkee,Zuid-Holland,VBO,4.026744,51.806770
Koningin Julianastraat,22,,,3251XC,Stellendam,Goeree-Overflakkee,Zuid-Holland,VBO,4.025939,51.806544
Koningin Julianastraat,23,,,3251XC,Stellendam,Goeree-Overflakkee,Zuid-Holland,VBO,4.026680,51.806742
Koningin Julianastraat,24,,,3251XC,Stellendam,Goeree-Overflakkee,Zuid-Holland,VBO,4.025897,51.806508
Koningin Julianastraat,25,,,3251XC,Stellendam,Goeree-Overflakkee,Zuid-Holland,VBO,4.026601,51.806705
Koningin Julianastraat,27,,,3251XC,Stellendam,Goeree-Overflakkee,Zuid-Holland,VBO,4.026530,51.806650
Koningin Julianastraat,29,,,3251XC,Stellendam,Goeree-Overflakkee,Zuid-Holland,VBO,4.026467,51.806596
Koningin Julianastraat,31,,,3251XC,Stellendam,Goeree-Overflakkee,Zuid-Holland,VBO,4.026432,51.806559
Koningin Julianastraat,33,,,3251XC,Stellendam,Goeree-Overflakkee,Zuid-Holland,VBO,4.026331,51.806522
Koningin Julianastraat,35,,,3251XC,Stellendam,Goeree-Overflakkee,Zuid-Holland,VBO,4.026275,51.806476
Koningin Julianastraat,37,,,3251XC,Stellendam,Goeree-Overflakkee,Zuid-Holland,VBO,4.026232,51.806431
Koningin Julianastraat,39,,,3251XC,Stellendam,Goeree-Overflakkee,Zuid-Holland,VBO,4.026176,51.806394
Koningin Julianastraat,41,,,3251XC,Stellendam,Goeree-Overflakkee,Zuid-Holland,VBO,4.026119,51.806349
Koningin Julianastraat,43,,,3251XC,Stellendam,Goeree-Overflakkee,Zuid-Holland,VBO,4.026062,51.806312
Koningin Wilhelminastraat,1,,,3251XD,Stellendam,Goeree-Overflakkee,Zuid-Holland,VBO,4.026247,51.804759
Koningin Wilhelminastraat,2,,,3251XD,Stellendam,Goeree-Overflakkee,Zuid-Holland,VBO,4.027042,51.804598
Koningin Wilhelminastraat,3,,,3251XD,Stellendam,Goeree-Overflakkee,Zuid-Holland,VBO,4.026154,51.804695
Koningin Wilhelminastraat,4,,,3251XD,Stellendam,Goeree-Overflakkee,Zuid-Holland,VBO,4.026983,51.804633
Koningin Wilhelminastraat,5,,,3251XD,Stellendam,Goeree-Overflakkee,Zuid-Holland,VBO,4.025825,51.804565
Koningin Wilhelminastraat,6,,,3251XD,Stellendam,Goeree-Overflakkee,Zuid-Holland,VBO,4.026909,51.804668
Koningin Wilhelminastraat,7,,,3251XD,Stellendam,Goeree-Overflakkee,Zuid-Holland,VBO,4.025935,51.804522
Koningin Wilhelminastraat,8,,,3251XD,Stellendam,Goeree-Overflakkee,Zuid-Holland,VBO,4.026775,51.804774
Koningin Wilhelminastraat,9,,,3251XD,Stellendam,Goeree-Overflakkee,Zuid-Holland,VBO,4.026016,51.804469
Koningin Wilhelminastraat,10,,,3251XD,Stellendam,Goeree-Overflakkee,Zuid-Holland,VBO,4.026598,51.804889
Koningin Wilhelminastraat,11,,,3251XD,Stellendam,Goeree-Overflakkee,Zuid-Holland,VBO,4.026119,51.804407
Koningin Wilhelminastraat,12,,,3251XD,Stellendam,Goeree-Overflakkee,Zuid-Holland,VBO,4.026524,51.804924
Koningin Wilhelminastraat,13,,,3251XD,Stellendam,Goeree-Overflakkee,Zuid-Holland,VBO,4.026201,51.804359
Koningin Wilhelminastraat,14,,,3251XD,Stellendam,Goeree-Overflakkee,Zuid-Holland,VBO,4.026378,51.804976
Koningin Wilhelminastraat,15,,,3251XD,Stellendam,Goeree-Overflakkee,Zuid-Holland,VBO,4.026304,51.804310
Koningin Wilhelminastraat,16,,,3251XD,Stellendam,Goeree-Overflakkee,Zuid-Holland,VBO,4.026334,51.805003
Koningin Wilhelminastraat,17,,,3251XD,Stellendam,Goeree-Overflakkee,Zuid-Holland,VBO,4.026407,51.804253
Koningin Wilhelminastraat,18,,,3251XD,Stellendam,Goeree-Overflakkee,Zuid-Holland,VBO,4.026260,51.805047
Koningin Wilhelminastraat,19,,,3251XD,Stellendam,Goeree-Overflakkee,Zuid-Holland,VBO,4.026510,51.804200
Oranjeplein,1,,,3251XE,Stellendam,Goeree-Overflakkee,Zuid-Holland,VBO,4.025533,51.806063
Oranjeplein,2,,,3251XE,Stellendam,Goeree-Overflakkee,Zuid-Holland,VBO,4.025105,51.806319
Oranjeplein,3,,,3251XE,Stellendam,Goeree-Overflakkee,Zuid-Holland,VBO,4.025400,51.806152
Oranjeplein,5,,,3251XE,Stellendam,Goeree-Overflakkee,Zuid-Holland,VBO,4.025357,51.806115
Oranjeplein,6,,,3251XE,Stellendam,Goeree-Overflakkee,Zuid-Holland,VBO,4.025015,51.806399
Oranjeplein,7,,,3251XE,Stellendam,Goeree-Overflakkee,Zuid-Holland,VBO,4.025353,51.805795
Oranjeplein,8,A,,3251XE,Stellendam,Goeree-Overflakkee,Zuid-Holland,VBO,4.024971,51.806201
Oranjeplein,8,,,3251XE,Stellendam,Goeree-Overflakkee,Zuid-Holland,VBO,4.025066,51.806148
Oranjeplein,9,,,3251XE,Stellendam,Goeree-Overflakkee,Zuid-Holland,VBO,4.025353,51.805795
Oranjeplein,10,,,3251XE,Stellendam,Goeree-Overflakkee,Zuid-Holland,VBO,4.024922,51.806110
Oranjeplein,11,,,3251XE,Stellendam,Goeree-Overflakkee,Zuid-Holland,VBO,4.025175,51.805924
Oranjeplein,12,,,3251XE,Stellendam,Goeree-Overflakkee,Zuid-Holland,VBO,4.025206,51.805844
Oranjeplein,13,,,3251XE,Stellendam,Goeree-Overflakkee,Zuid-Holland,VBO,4.025353,51.805795
Oranjeplein,14,,,3251XE,Stellendam,Goeree-Overflakkee,Zuid-Holland,VBO,4.025148,51.805861
Oranjeplein,15,,,3251XE,Stellendam,Goeree-Overflakkee,Zuid-Holland,VBO,4.025361,51.805998
Oranjeplein,16,,,3251XE,Stellendam,Goeree-Overflakkee,Zuid-Holland,VBO,4.025236,51.805817
Oranjeplein,18,,,3251XE,Stellendam,Goeree-Overflakkee,Zuid-Holland,VBO,4.025295,51.805791
Oranjestraat,1,,,3251XG,Stellendam,Goeree-Overflakkee,Zuid-Holland,VBO,4.025182,51.805673
Oranjestraat,2,,,3251XG,Stellendam,Goeree-Overflakkee,Zuid-Holland,VBO,4.024819,51.805695
Oranjestraat,3,,,3251XG,Stellendam,Goeree-Overflakkee,Zuid-Holland,VBO,4.025126,51.805627
Oranjestraat,4,,,3251XG,Stellendam,Goeree-Overflakkee,Zuid-Holland,VBO,4.024662,51.805613
Oranjestraat,5,,,3251XG,Stellendam,Goeree-Overflakkee,Zuid-Holland,VBO,4.024997,51.805554
Oranjestraat,6,,,3251XG,Stellendam,Goeree-Overflakkee,Zuid-Holland,VBO,4.024605,51.805576
Oranjestraat,7,,,3251XG,Stellendam,Goeree-Overflakkee,Zuid-Holland,VBO,4.024934,51.805499
Oranjestraat,8,,,3251XG,Stellendam,Goeree-Overflakkee,Zuid-Holland,VBO,4.024520,51.805521
Prinses Beatrixstraat,1,,,3251XH,Stellendam,Goeree-Overflakkee,Zuid-Holland,VBO,4.024731,51.806207
Prinses Beatrixstraat,2,,,3251XH,Stellendam,Goeree-Overflakkee,Zuid-Holland,VBO,4.024389,51.806482
Prinses Beatrixstraat,3,,,3251XH,Stellendam,Goeree-Overflakkee,Zuid-Holland,VBO,4.024660,51.806161
Prinses Beatrixstraat,4,,,3251XH,Stellendam,Goeree-Overflakkee,Zuid-Holland,VBO,4.024251,51.806246
Prinses Beatrixstraat,5,,,3251XH,Stellendam,Goeree-Overflakkee,Zuid-Holland,VBO,4.024546,51.806079
Prinses Beatrixstraat,6,,,3251XH,Stellendam,Goeree-Overflakkee,Zuid-Holland,VBO,4.023949,51.806162
Prinses Beatrixstraat,7,,,3251XH,Stellendam,Goeree-Overflakkee,Zuid-Holland,VBO,4.024490,51.806033
Prinses Beatrixstraat,8,,,3251XH,Stellendam,Goeree-Overflakkee,Zuid-Holland,VBO,4.023678,51.806024
Prinses Beatrixstraat,9,,,3251XH,Stellendam,Goeree-Overflakkee,Zuid-Holland,VBO,4.024376,51.805951
Prinses Beatrixstraat,11,,,3251XH,Stellendam,Goeree-Overflakkee,Zuid-Holland,VBO,4.024313,51.805896
Prins Bernhardstraat,1,,,3251XJ,Stellendam,Goeree-Overflakkee,Zuid-Holland,VBO,4.026676,51.807605
Prins Bernhardstraat,2,,,3251XJ,Stellendam,Goeree-Overflakkee,Zuid-Holland,VBO,4.026609,51.807901
Prins Bernhardstraat,3,,,3251XJ,Stellendam,Goeree-Overflakkee,Zuid-Holland,VBO,4.026619,51.807568
Prins Bernhardstraat,4,,,3251XJ,Stellendam,Goeree-Overflakkee,Zuid-Holland,VBO,4.026552,51.807855
Prins Bernhardstraat,5,,,3251XJ,Stellendam,Goeree-Overflakkee,Zuid-Holland,VBO,4.026576,51.807523
Prins Bernhardstraat,6,,,3251XJ,Stellendam,Goeree-Overflakkee,Zuid-Holland,VBO,4.026481,51.807818
Prins Bernhardstraat,7,,,3251XJ,Stellendam,Goeree-Overflakkee,Zuid-Holland,VBO,4.026505,51.807477
Prins Bernhardstraat,9,,,3251XJ,Stellendam,Goeree-Overflakkee,Zuid-Holland,VBO,4.026322,51.807322
Prins Bernhardstraat,10,,,3251XJ,Stellendam,Goeree-Overflakkee,Zuid-Holland,VBO,4.026324,51.807727
Prins Bernhardstraat,11,,,3251XJ,Stellendam,Goeree-Overflakkee,Zuid-Holland,VBO,4.026236,51.807285
Prins Bernhardstraat,12,,,3251XJ,Stellendam,Goeree-Overflakkee,Zuid-Holland,VBO,4.026267,51.807681
Prins Bernhardstraat,13,,,3251XJ,Stellendam,Goeree-Overflakkee,Zuid-Holland,VBO,4.025866,51.807038
Prins Bernhardstraat,14,,,3251XJ,Stellendam,Goeree-Overflakkee,Zuid-Holland,VBO,4.026210,51.807644
Prins Bernhardstraat,15,B,,3251XJ,Stellendam,Goeree-Overflakkee,Zuid-Holland,VBO,4.025900,51.806877
Prins Bernhardstraat,15,,,3251XJ,Stellendam,Goeree-Overflakkee,Zuid-Holland,VBO,4.025780,51.806997
Prins Bernhardstraat,16,,,3251XJ,Stellendam,Goeree-Overflakkee,Zuid-Holland,VBO,4.026153,51.807608
Prins Bernhardstraat,18,,,3251XJ,Stellendam,Goeree-Overflakkee,Zuid-Holland,VBO,4.025985,51.807426
Prins Bernhardstraat,20,,,3251XJ,Stellendam,Goeree-Overflakkee,Zuid-Holland,VBO,4.025941,51.807452
Prins Bernhardstraat,22,,,3251XJ,Stellendam,Goeree-Overflakkee,Zuid-Holland,VBO,4.025852,51.807496
Prins Bernhardstraat,24,,,3251XJ,Stellendam,Goeree-Overflakkee,Zuid-Holland,VBO,4.025797,51.807551
Prins Bernhardstraat,28,,,3251XJ,Stellendam,Goeree-Overflakkee,Zuid-Holland,VBO,4.025756,51.807324
Prins Bernhardstraat,30,,,3251XJ,Stellendam,Goeree-Overflakkee,Zuid-Holland,VBO,4.025671,51.807269
Prins Bernhardstraat,32,,,3251XJ,Stellendam,Goeree-Overflakkee,Zuid-Holland,VBO,4.025508,51.807211
Prins Bernhardstraat,34,,,3251XJ,Stellendam,Goeree-Overflakkee,Zuid-Holland,VBO,4.025500,51.807160
Prins Bernhardstraat,36,,,3251XJ,Stellendam,Goeree-Overflakkee,Zuid-Holland,VBO,4.025429,51.807114
Prins Bernhardstraat,38,,,3251XJ,Stellendam,Goeree-Overflakkee,Zuid-Holland,VBO,4.025358,51.807059
Prins Bernhardstraat,40,,,3251XJ,Stellendam,Goeree-Overflakkee,Zuid-Holland,VBO,4.025301,51.807022
Prins Bernhardstraat,42,,,3251XJ,Stellendam,Goeree-Overflakkee,Zuid-Holland,VBO,4.025246,51.806932
Prins Bernhardstraat,44,,,3251XJ,Stellendam,Goeree-Overflakkee,Zuid-Holland,VBO,4.025175,51.806886
Prins Bernhardstraat,46,,,3251XJ,Stellendam,Goeree-Overflakkee,Zuid-Holland,VBO,4.025118,51.806850
Prins Bernhardstraat,48,,,3251XJ,Stellendam,Goeree-Overflakkee,Zuid-Holland,VBO,4.025047,51.806804
Prins Bernhardstraat,50,,,3251XJ,Stellendam,Goeree-Overflakkee,Zuid-Holland,VBO,4.024975,51.806758
Prins Hendrikstraat,2,,,3251XK,Stellendam,Goeree-Overflakkee,Zuid-Holland,VBO,4.026213,51.807060
Prins Hendrikstraat,4,,,3251XK,Stellendam,Goeree-Overflakkee,Zuid-Holland,VBO,4.026140,51.807095
Prins Hendrikstraat,6,,,3251XK,Stellendam,Goeree-Overflakkee,Zuid-Holland,VBO,4.026066,51.807139
Prins Hendrikstraat,8,,,3251XK,Stellendam,Goeree-Overflakkee,Zuid-Holland,VBO,4.026007,51.807175
Prinses Irenestraat,1,,,3251XL,Stellendam,Goeree-Overflakkee,Zuid-Holland,VBO,4.025818,51.806705
Prinses Irenestraat,2,,,3251XL,Stellendam,Goeree-Overflakkee,Zuid-Holland,VBO,4.026309,51.806773
Prinses Irenestraat,3,,,3251XL,Stellendam,Goeree-Overflakkee,Zuid-Holland,VBO,4.025745,51.806740
Prinses Irenestraat,4,,,3251XL,Stellendam,Goeree-Overflakkee,Zuid-Holland,VBO,4.026227,51.806828
Prinses Irenestraat,5,,,3251XL,Stellendam,Goeree-Overflakkee,Zuid-Holland,VBO,4.025685,51.806775
Prinses Irenestraat,6,B,,3251XL,Stellendam,Goeree-Overflakkee,Zuid-Holland,VBO,4.025957,51.806904
Prinses Irenestraat,7,,,3251XL,Stellendam,Goeree-Overflakkee,Zuid-Holland,VBO,4.025611,51.806828
Prinses Irenestraat,9,,,3251XL,Stellendam,Goeree-Overflakkee,Zuid-Holland,VBO,4.025553,51.806855
Prinses Irenestraat,11,,,3251XL,Stellendam,Goeree-Overflakkee,Zuid-Holland,VBO,4.025479,51.806899
Prinses Margrietstraat,1,,,3251XM,Stellendam,Goeree-Overflakkee,Zuid-Holland,VBO,4.025631,51.805219
Prinses Margrietstraat,3,,,3251XM,Stellendam,Goeree-Overflakkee,Zuid-Holland,VBO,4.025572,51.805255
Prinses Margrietstraat,5,,,3251XM,Stellendam,Goeree-Overflakkee,Zuid-Holland,VBO,4.025483,51.805308
Prinses Margrietstraat,7,,,3251XM,Stellendam,Goeree-Overflakkee,Zuid-Holland,VBO,4.025395,51.805352
Prinses Margrietstraat,15,,,3251XM,Stellendam,Goeree-Overflakkee,Zuid-Holland,VBO,4.025043,51.805408
Prinses Margrietstraat,17,,,3251XM,Stellendam,Goeree-Overflakkee,Zuid-Holland,VBO,4.025043,51.805408
Prinses Margrietstraat,19,,,3251XM,Stellendam,Goeree-Overflakkee,Zuid-Holland,VBO,4.025043,51.805408
Prinses Margrietstraat,21,,,3251XM,Stellendam,Goeree-Overflakkee,Zuid-Holland,VBO,4.025043,51.805408
Prinses Margrietstraat,23,,,3251XM,Stellendam,Goeree-Overflakkee,Zuid-Holland,VBO,4.025043,51.805408
Prinses Margrietstraat,25,,,3251XM,Stellendam,Goeree-Overflakkee,Zuid-Holland,VBO,4.025043,51.805408
Prinses Margrietstraat,27,,,3251XM,Stellendam,Goeree-Overflakkee,Zuid-Holland,VBO,4.025043,51.805408
Prinses Margrietstraat,29,,,3251XM,Stellendam,Goeree-Overflakkee,Zuid-Holland,VBO,4.025193,51.805313
Prinses Margrietstraat,31,,,3251XM,Stellendam,Goeree-Overflakkee,Zuid-Holland,VBO,4.025137,51.805465
Prinses Margrietstraat,33,,,3251XM,Stellendam,Goeree-Overflakkee,Zuid-Holland,VBO,4.025137,51.805465
Prinses Margrietstraat,35,,,3251XM,Stellendam,Goeree-Overflakkee,Zuid-Holland,VBO,4.025137,51.805465
Prinses Margrietstraat,37,,,3251XM,Stellendam,Goeree-Overflakkee,Zuid-Holland,VBO,4.025137,51.805465
Prinses Margrietstraat,39,,,3251XM,Stellendam,Goeree-Overflakkee,Zuid-Holland,VBO,4.025137,51.805465
Prinses Margrietstraat,41,,,3251XM,Stellendam,Goeree-Overflakkee,Zuid-Holland,VBO,4.025137,51.805465
Prinses Margrietstraat,43,,,3251XM,Stellendam,Goeree-Overflakkee,Zuid-Holland,VBO,4.025137,51.805465
Prinses Marijkestraat,1,,,3251XN,Stellendam,Goeree-Overflakkee,Zuid-Holland,VBO,4.025339,51.804803
Prinses Marijkestraat,3,,,3251XN,Stellendam,Goeree-Overflakkee,Zuid-Holland,VBO,4.025265,51.804838
Prinses Marijkestraat,5,,,3251XN,Stellendam,Goeree-Overflakkee,Zuid-Holland,VBO,4.025206,51.804882
Prinses Marijkestraat,7,,,3251XN,Stellendam,Goeree-Overflakkee,Zuid-Holland,VBO,4.025133,51.804917
Prinses Marijkestraat,9,,,3251XN,Stellendam,Goeree-Overflakkee,Zuid-Holland,VBO,4.025073,51.804952
Prinses Marijkestraat,11,,,3251XN,Stellendam,Goeree-Overflakkee,Zuid-Holland,VBO,4.025014,51.804988
Prinses Marijkestraat,13,,,3251XN,Stellendam,Goeree-Overflakkee,Zuid-Holland,VBO,4.024941,51.805032
Prinses Marijkestraat,15,,,3251XN,Stellendam,Goeree-Overflakkee,Zuid-Holland,VBO,4.024618,51.805163
Prinses Marijkestraat,17,,,3251XN,Stellendam,Goeree-Overflakkee,Zuid-Holland,VBO,4.024559,51.805198
Prinses Marijkestraat,19,,,3251XN,Stellendam,Goeree-Overflakkee,Zuid-Holland,VBO,4.024485,51.805242
Prinses Marijkestraat,21,,,3251XN,Stellendam,Goeree-Overflakkee,Zuid-Holland,VBO,4.024396,51.805286
Prinses Marijkestraat,23,,,3251XN,Stellendam,Goeree-Overflakkee,Zuid-Holland,VBO,4.024323,51.805312
Prinses Marijkestraat,25,,,3251XN,Stellendam,Goeree-Overflakkee,Zuid-Holland,VBO,4.024249,51.805356
Prinses Marijkestraat,27,,,3251XN,Stellendam,Goeree-Overflakkee,Zuid-Holland,VBO,4.023777,51.805611
Prinses Marijkestraat,29,,,3251XN,Stellendam,Goeree-Overflakkee,Zuid-Holland,VBO,4.023733,51.805647
Prinses Marijkestraat,31,,,3251XN,Stellendam,Goeree-Overflakkee,Zuid-Holland,VBO,4.023674,51.805682
Prinses Marijkestraat,33,,,3251XN,Stellendam,Goeree-Overflakkee,Zuid-Holland,VBO,4.023586,51.805726
Prinses Marijkestraat,35,,,3251XN,Stellendam,Goeree-Overflakkee,Zuid-Holland,VBO,4.023497,51.805770
Prinses Marijkestraat,37,,,3251XN,Stellendam,Goeree-Overflakkee,Zuid-Holland,VBO,4.023438,51.805814
Prinses Marijkestraat,39,,,3251XN,Stellendam,Goeree-Overflakkee,Zuid-Holland,VBO,4.023379,51.805850
Prinses Marijkestraat,41,,,3251XN,Stellendam,Goeree-Overflakkee,Zuid-Holland,VBO,4.023305,51.805885
Prinses Marijkestraat,45,,,3251XN,Stellendam,Goeree-Overflakkee,Zuid-Holland,VBO,4.022612,51.806254
Prinses Marijkestraat,47,,,3251XN,Stellendam,Goeree-Overflakkee,Zuid-Holland,VBO,4.022317,51.806442
Prinses Marijkestraat,49,,,3251XN,Stellendam,Goeree-Overflakkee,Zuid-Holland,VBO,4.021964,51.806588
Prinses Marijkestraat,51,,,3251XN,Stellendam,Goeree-Overflakkee,Zuid-Holland,VBO,4.021876,51.806641
Prinses Marijkestraat,53,,,3251XN,Stellendam,Goeree-Overflakkee,Zuid-Holland,VBO,4.021699,51.806738
Prinses Marijkestraat,55,,,3251XN,Stellendam,Goeree-Overflakkee,Zuid-Holland,VBO,4.021434,51.806852
Prinses Marijkestraat,57,,,3251XN,Stellendam,Goeree-Overflakkee,Zuid-Holland,VBO,4.021346,51.806905
Prinses Marijkestraat,2,,,3251XP,Stellendam,Goeree-Overflakkee,Zuid-Holland,VBO,4.025346,51.805045
Prinses Marijkestraat,4,,,3251XP,Stellendam,Goeree-Overflakkee,Zuid-Holland,VBO,4.025287,51.805072
Prinses Marijkestraat,6,,,3251XP,Stellendam,Goeree-Overflakkee,Zuid-Holland,VBO,4.025155,51.805133
Prinses Marijkestraat,8,,,3251XP,Stellendam,Goeree-Overflakkee,Zuid-Holland,VBO,4.025081,51.805177
Prinses Marijkestraat,10,,,3251XP,Stellendam,Goeree-Overflakkee,Zuid-Holland,VBO,4.024963,51.805248
Prinses Marijkestraat,12,,,3251XP,Stellendam,Goeree-Overflakkee,Zuid-Holland,VBO,4.024904,51.805283
Prinses Marijkestraat,14,,,3251XP,Stellendam,Goeree-Overflakkee,Zuid-Holland,VBO,4.024772,51.805344
Prinses Marijkestraat,16,A,,3251XP,Stellendam,Goeree-Overflakkee,Zuid-Holland,VBO,4.025109,51.805951
Prinses Marijkestraat,16,B,,3251XP,Stellendam,Goeree-Overflakkee,Zuid-Holland,VBO,4.025087,51.805932
Prinses Marijkestraat,16,C,,3251XP,Stellendam,Goeree-Overflakkee,Zuid-Holland,VBO,4.025080,51.805923
Prinses Marijkestraat,16,D,,3251XP,Stellendam,Goeree-Overflakkee,Zuid-Holland,VBO,4.025123,51.805946
Prinses Marijkestraat,16,E,,3251XP,Stellendam,Goeree-Overflakkee,Zuid-Holland,VBO,4.025180,51.805992
Prinses Marijkestraat,16,F,,3251XP,Stellendam,Goeree-Overflakkee,Zuid-Holland,VBO,4.025073,51.805928
Prinses Marijkestraat,16,G,,3251XP,Stellendam,Goeree-Overflakkee,Zuid-Holland,VBO,4.024730,51.805908
Prinses Marijkestraat,16,H,,3251XP,Stellendam,Goeree-Overflakkee,Zuid-Holland,VBO,4.024745,51.805900
Prinses Marijkestraat,16,I,,3251XP,Stellendam,Goeree-Overflakkee,Zuid-Holland,VBO,4.024759,51.805893
Prinses Marijkestraat,16,J,,3251XP,Stellendam,Goeree-Overflakkee,Zuid-Holland,VBO,4.024771,51.805885
Prinses Marijkestraat,16,K,,3251XP,Stellendam,Goeree-Overflakkee,Zuid-Holland,VBO,4.024785,51.805878
Prinses Marijkestraat,16,L,,3251XP,Stellendam,Goeree-Overflakkee,Zuid-Holland,VBO,4.024701,51.805924
Prinses Marijkestraat,16,M,,3251XP,Stellendam,Goeree-Overflakkee,Zuid-Holland,VBO,4.024716,51.805917
Prinses Marijkestraat,16,,,3251XP,Stellendam,Goeree-Overflakkee,Zuid-Holland,VBO,4.024713,51.805380
Prinses Marijkestraat,18,,,3251XP,Stellendam,Goeree-Overflakkee,Zuid-Holland,VBO,4.024308,51.805676
Prinses Marijkestraat,20,,,3251XP,Stellendam,Goeree-Overflakkee,Zuid-Holland,VBO,4.024248,51.805722
Prinses Marijkestraat,22,,,3251XP,Stellendam,Goeree-Overflakkee,Zuid-Holland,VBO,4.024107,51.805741
Prinses Marijkestraat,24,,,3251XP,Stellendam,Goeree-Overflakkee,Zuid-Holland,VBO,4.024048,51.805785
Prinses Marijkestraat,26,,,3251XP,Stellendam,Goeree-Overflakkee,Zuid-Holland,VBO,4.023470,51.806174
Prinses Marijkestraat,28,,,3251XP,Stellendam,Goeree-Overflakkee,Zuid-Holland,VBO,4.023382,51.806218
Prinses Marijkestraat,30,,,3251XP,Stellendam,Goeree-Overflakkee,Zuid-Holland,VBO,4.023094,51.806624
Prinses Marijkestraat,48,,,3251XP,Stellendam,Goeree-Overflakkee,Zuid-Holland,VBO,4.021658,51.807115
Prinses Marijkestraat,50,,,3251XP,Stellendam,Goeree-Overflakkee,Zuid-Holland,VBO,4.021609,51.807177
