openbareruimtenaam,huisnummer,huisletter,huisnummertoevoeging,postcode,woonplaatsnaam,gemeentenaam,provincienaam,typeadresseerbaarobject,longitude,latitude
Kade,2,,,3265AA,Piershil,Korendijk,Zuid-Holland,VBO,4.312097,51.793574
Kade,4,,,3265AA,Piershil,Korendijk,Zuid-Holland,VBO,4.311960,51.793514
Kade,6,,,3265AA,Piershil,Korendijk,Zuid-Holland,VBO,4.311851,51.793526
Kade,8,,,3265AA,Piershil,Korendijk,Zuid-Holland,VBO,4.311787,51.793485
Kade,12,,,3265AA,Piershil,Korendijk,Zuid-Holland,VBO,4.311600,51.793443
Kade,14,,,3265AA,Piershil,Korendijk,Zuid-Holland,VBO,4.311488,51.793426
Kade,16,,,3265AA,Piershil,Korendijk,Zuid-Holland,VBO,4.311424,51.793336
Kade,18,,,3265AA,Piershil,Korendijk,Zuid-Holland,VBO,4.311270,51.793274
Kade,22,A,,3265AA,Piershil,Korendijk,Zuid-Holland,VBO,4.310691,51.793228
Kade,22,B,,3265AA,Piershil,Korendijk,Zuid-Holland,VBO,4.310756,51.793548
Kade,22,C,,3265AA,Piershil,Korendijk,Zuid-Holland,VBO,4.311004,51.793505
Kade,22,D,,3265AA,Piershil,Korendijk,Zuid-Holland,VBO,4.310989,51.793505
Kade,22,E,,3265AA,Piershil,Korendijk,Zuid-Holland,VBO,4.310831,51.793459
Kade,24,,,3265AA,Piershil,Korendijk,Zuid-Holland,VBO,4.310019,51.793325
Kade,26,,,3265AA,Piershil,Korendijk,Zuid-Holland,VBO,4.309873,51.794106
Kade,28,,,3265AA,Piershil,Korendijk,Zuid-Holland,VBO,4.309583,51.794103
Kade,30,,,3265AA,Piershil,Korendijk,Zuid-Holland,VBO,4.311545,51.793924
Kade,32,,,3265AA,Piershil,Korendijk,Zuid-Holland,VBO,4.311566,51.794229
Molendijk,1,,,3265AB,Piershil,Korendijk,Zuid-Holland,VBO,4.312087,51.793659
Molendijk,2,,,3265AB,Piershil,Korendijk,Zuid-Holland,VBO,4.312782,51.798929
Molendijk,3,,,3265AB,Piershil,Korendijk,Zuid-Holland,VBO,4.312071,51.793713
Molendijk,5,,,3265AB,Piershil,Korendijk,Zuid-Holland,VBO,4.312056,51.793739
Molendijk,7,,,3265AB,Piershil,Korendijk,Zuid-Holland,VBO,4.311990,51.793793
Molendijk,9,,,3265AB,Piershil,Korendijk,Zuid-Holland,VBO,4.312025,51.793829
Molendijk,11,,,3265AB,Piershil,Korendijk,Zuid-Holland,VBO,4.311995,51.793883
Molendijk,13,,,3265AB,Piershil,Korendijk,Zuid-Holland,VBO,4.311993,51.793946
Molendijk,15,,,3265AB,Piershil,Korendijk,Zuid-Holland,VBO,4.311992,51.793991
Molendijk,17,,,3265AB,Piershil,Korendijk,Zuid-Holland,VBO,4.311962,51.794044
Molendijk,19,,,3265AB,Piershil,Korendijk,Zuid-Holland,VBO,4.311958,51.794206
Molendijk,21,,,3265AB,Piershil,Korendijk,Zuid-Holland,VBO,4.311941,51.794323
Molendijk,23,,,3265AB,Piershil,Korendijk,Zuid-Holland,VBO,4.311954,51.794377
Molendijk,25,,,3265AB,Piershil,Korendijk,Zuid-Holland,VBO,4.311936,51.794520
Molendijk,27,,,3265AB,Piershil,Korendijk,Zuid-Holland,VBO,4.311920,51.794601
Molendijk,29,A,,3265AB,Piershil,Korendijk,Zuid-Holland,VBO,4.311698,51.794788
Molendijk,29,B,,3265AB,Piershil,Korendijk,Zuid-Holland,VBO,4.311712,51.794815
Molendijk,29,C,,3265AB,Piershil,Korendijk,Zuid-Holland,VBO,4.311697,51.794842
Molendijk,29,D,,3265AB,Piershil,Korendijk,Zuid-Holland,VBO,4.311696,51.794869
Molendijk,29,E,,3265AB,Piershil,Korendijk,Zuid-Holland,VBO,4.311681,51.794896
Molendijk,29,F,,3265AB,Piershil,Korendijk,Zuid-Holland,VBO,4.311709,51.794923
Molendijk,29,G,,3265AB,Piershil,Korendijk,Zuid-Holland,VBO,4.311708,51.794959
Molendijk,29,H,,3265AB,Piershil,Korendijk,Zuid-Holland,VBO,4.311564,51.794913
Molendijk,29,J,,3265AB,Piershil,Korendijk,Zuid-Holland,VBO,4.311568,51.794751
Molendijk,31,A,,3265AB,Piershil,Korendijk,Zuid-Holland,VBO,4.311514,51.795802
Molendijk,31,,,3265AB,Piershil,Korendijk,Zuid-Holland,VBO,4.311649,51.795012
Molendijk,33,,,3265AB,Piershil,Korendijk,Zuid-Holland,VBO,4.311830,51.795342
Molendijk,35,,,3265AB,Piershil,Korendijk,Zuid-Holland,VBO,4.311793,51.795670
Molendijk,37,,,3265AB,Piershil,Korendijk,Zuid-Holland,VBO,4.311617,51.796037
Molendijk,39,,,3265AB,Piershil,Korendijk,Zuid-Holland,VBO,4.311760,51.796424
Molendijk,41,,,3265AB,Piershil,Korendijk,Zuid-Holland,VBO,4.311706,51.796891
Molendijk,43,A,,3265AB,Piershil,Korendijk,Zuid-Holland,VBO,4.311624,51.797295
Molendijk,43,,,3265AB,Piershil,Korendijk,Zuid-Holland,VBO,4.311603,51.798158
Molendijk,45,,,3265AB,Piershil,Korendijk,Zuid-Holland,VBO,4.311656,51.797466
Molendijk,47,,,3265AB,Piershil,Korendijk,Zuid-Holland,VBO,4.311110,51.799673
Molenpad,1,,,3265AC,Piershil,Korendijk,Zuid-Holland,VBO,4.312376,51.793715
Molenpad,2,,,3265AC,Piershil,Korendijk,Zuid-Holland,VBO,4.312374,51.793778
Molenpad,3,,,3265AC,Piershil,Korendijk,Zuid-Holland,VBO,4.312359,51.793832
Molenpad,4,,,3265AC,Piershil,Korendijk,Zuid-Holland,VBO,4.312357,51.793877
Molenpad,8,,,3265AC,Piershil,Korendijk,Zuid-Holland,VBO,4.312356,51.793987
Oudendijk,1,,,3265AD,Piershil,Korendijk,Zuid-Holland,VBO,4.311965,51.800004
Oudendijk,2,,,3265AD,Piershil,Korendijk,Zuid-Holland,VBO,4.321906,51.800221
Oudendijk,3,,,3265AD,Piershil,Korendijk,Zuid-Holland,VBO,4.312216,51.800119
Oudendijk,4,B,,3265AD,Piershil,Korendijk,Zuid-Holland,VBO,4.322821,51.800741
Oudendijk,4,,,3265AD,Piershil,Korendijk,Zuid-Holland,VBO,4.323118,51.800465
Oudendijk,5,A,,3265AD,Piershil,Korendijk,Zuid-Holland,VBO,4.315717,51.801369
Oudendijk,6,A,,3265AD,Piershil,Korendijk,Zuid-Holland,VBO,4.325725,51.800574
Oudendijk,6,,,3265AD,Piershil,Korendijk,Zuid-Holland,VBO,4.323580,51.800541
Oudendijk,7,,,3265AD,Piershil,Korendijk,Zuid-Holland,VBO,4.316768,51.801073
Oudendijk,9,,,3265AD,Piershil,Korendijk,Zuid-Holland,VBO,4.319515,51.801062
Oudendijk,11,,,3265AD,Piershil,Korendijk,Zuid-Holland,VBO,4.321204,51.801266
Steegjesdijk,1,,,3265AE,Piershil,Korendijk,Zuid-Holland,VBO,4.312783,51.790640
Steegjesdijk,3,,,3265AE,Piershil,Korendijk,Zuid-Holland,VBO,4.312055,51.790530
Steegjesdijk,5,,,3265AE,Piershil,Korendijk,Zuid-Holland,VBO,4.310652,51.790616
Steegjesdijk,6,,,3265AE,Piershil,Korendijk,Zuid-Holland,VBO,4.311918,51.791868
Steegjesdijk,7,,,3265AE,Piershil,Korendijk,Zuid-Holland,VBO,4.310345,51.790128
Steegjesdijk,8,,,3265AE,Piershil,Korendijk,Zuid-Holland,VBO,4.310257,51.791386
Spuiweg,1,,,3265AG,Piershil,Korendijk,Zuid-Holland,VBO,4.310963,51.800660
Spuiweg,3,,,3265AG,Piershil,Korendijk,Zuid-Holland,VBO,4.310548,51.801505
Beatrixstraat,1,,,3265BA,Piershil,Korendijk,Zuid-Holland,VBO,4.313001,51.793932
Beatrixstraat,2,,,3265BA,Piershil,Korendijk,Zuid-Holland,VBO,4.313480,51.794238
Beatrixstraat,4,,,3265BA,Piershil,Korendijk,Zuid-Holland,VBO,4.313233,51.794245
Beatrixstraat,6,,,3265BA,Piershil,Korendijk,Zuid-Holland,VBO,4.313146,51.794253
Beatrixstraat,8,,,3265BA,Piershil,Korendijk,Zuid-Holland,VBO,4.313074,51.794234
Beatrixstraat,10,,,3265BA,Piershil,Korendijk,Zuid-Holland,VBO,4.312987,51.794233
Beatrixstraat,12,,,3265BA,Piershil,Korendijk,Zuid-Holland,VBO,4.312899,51.794255
Beatrixstraat,14,,,3265BA,Piershil,Korendijk,Zuid-Holland,VBO,4.312813,51.794214
Beatrixstraat,16,,,3265BA,Piershil,Korendijk,Zuid-Holland,VBO,4.312509,51.794193
Beatrixstraat,18,,,3265BA,Piershil,Korendijk,Zuid-Holland,VBO,4.312508,51.794247
Beatrixstraat,20,,,3265BA,Piershil,Korendijk,Zuid-Holland,VBO,4.312492,51.794310
Beatrixstraat,22,,,3265BA,Piershil,Korendijk,Zuid-Holland,VBO,4.312491,51.794355
Beatrixstraat,24,,,3265BA,Piershil,Korendijk,Zuid-Holland,VBO,4.312475,51.794417
Beatrixstraat,26,,,3265BA,Piershil,Korendijk,Zuid-Holland,VBO,4.312459,51.794471
Beatrixstraat,28,,,3265BA,Piershil,Korendijk,Zuid-Holland,VBO,4.312454,51.794678
Beatrixstraat,30,,,3265BA,Piershil,Korendijk,Zuid-Holland,VBO,4.312455,51.794943
Beatrixstraat,32,,,3265BA,Piershil,Korendijk,Zuid-Holland,VBO,4.312445,51.795082
Beatrixstraat,34,,,3265BA,Piershil,Korendijk,Zuid-Holland,VBO,4.312411,51.795298
Beatrixstraat,36,,,3265BA,Piershil,Korendijk,Zuid-Holland,VBO,4.312414,51.795455
Beatrixstraat,38,,,3265BA,Piershil,Korendijk,Zuid-Holland,VBO,4.312281,51.795863
Beatrixstraat,40,,,3265BA,Piershil,Korendijk,Zuid-Holland,VBO,4.312262,51.796052
Beatrixstraat,42,,,3265BA,Piershil,Korendijk,Zuid-Holland,VBO,4.312343,51.796322
Beatrixstraat,44,,,3265BA,Piershil,Korendijk,Zuid-Holland,VBO,4.312327,51.796385
Beatrixstraat,46,,,3265BA,Piershil,Korendijk,Zuid-Holland,VBO,4.312340,51.796439
Beatrixstraat,48,,,3265BA,Piershil,Korendijk,Zuid-Holland,VBO,4.312353,51.796484
Beatrixstraat,50,,,3265BA,Piershil,Korendijk,Zuid-Holland,VBO,4.312352,51.796556
Beatrixstraat,52,,,3265BA,Piershil,Korendijk,Zuid-Holland,VBO,4.312321,51.796609
Christinastraat,1,A,,3265BB,Piershil,Korendijk,Zuid-Holland,VBO,4.312899,51.795482
Christinastraat,1,,,3265BB,Piershil,Korendijk,Zuid-Holland,VBO,4.312747,51.795777
Christinastraat,3,,,3265BB,Piershil,Korendijk,Zuid-Holland,VBO,4.312834,51.795796
Christinastraat,5,,,3265BB,Piershil,Korendijk,Zuid-Holland,VBO,4.312920,51.795806
Christinastraat,7,,,3265BB,Piershil,Korendijk,Zuid-Holland,VBO,4.313007,51.795825
Christinastraat,9,,,3265BB,Piershil,Korendijk,Zuid-Holland,VBO,4.313123,51.795826
Heullaan,1,,,3265BC,Piershil,Korendijk,Zuid-Holland,VBO,4.317401,51.793636
Heullaan,2,,,3265BC,Piershil,Korendijk,Zuid-Holland,VBO,4.316777,51.793762
Heullaan,3,,,3265BC,Piershil,Korendijk,Zuid-Holland,VBO,4.317338,51.793536
Heullaan,4,,,3265BC,Piershil,Korendijk,Zuid-Holland,VBO,4.316865,51.793758
Heullaan,5,,,3265BC,Piershil,Korendijk,Zuid-Holland,VBO,4.317369,51.793428
Heullaan,6,,,3265BC,Piershil,Korendijk,Zuid-Holland,VBO,4.317035,51.793719
Heullaan,7,,,3265BC,Piershil,Korendijk,Zuid-Holland,VBO,4.317358,51.793294
Heullaan,8,,,3265BC,Piershil,Korendijk,Zuid-Holland,VBO,4.317109,51.793689
Heullaan,9,,,3265BC,Piershil,Korendijk,Zuid-Holland,VBO,4.317362,51.793114
Heullaan,10,,,3265BC,Piershil,Korendijk,Zuid-Holland,VBO,4.317065,51.793426
Heullaan,12,,,3265BC,Piershil,Korendijk,Zuid-Holland,VBO,4.317067,51.793345
Heullaan,14,,,3265BC,Piershil,Korendijk,Zuid-Holland,VBO,4.317069,51.793264
Heullaan,16,,,3265BC,Piershil,Korendijk,Zuid-Holland,VBO,4.317071,51.793156
Heullaan,18,,,3265BC,Piershil,Korendijk,Zuid-Holland,VBO,4.317075,51.793003
Heullaan,20,,,3265BC,Piershil,Korendijk,Zuid-Holland,VBO,4.317034,51.792882
Irenestraat,1,,,3265BD,Piershil,Korendijk,Zuid-Holland,VBO,4.312671,51.794698
Irenestraat,2,,,3265BD,Piershil,Korendijk,Zuid-Holland,VBO,4.312749,51.794492
Irenestraat,3,,,3265BD,Piershil,Korendijk,Zuid-Holland,VBO,4.312903,51.794727
Irenestraat,4,,,3265BD,Piershil,Korendijk,Zuid-Holland,VBO,4.312850,51.794493
Irenestraat,5,,,3265BD,Piershil,Korendijk,Zuid-Holland,VBO,4.313004,51.794737
Irenestraat,6,,,3265BD,Piershil,Korendijk,Zuid-Holland,VBO,4.312937,51.794494
Irenestraat,7,,,3265BD,Piershil,Korendijk,Zuid-Holland,VBO,4.313091,51.794747
Irenestraat,8,,,3265BD,Piershil,Korendijk,Zuid-Holland,VBO,4.313038,51.794504
Irenestraat,9,,,3265BD,Piershil,Korendijk,Zuid-Holland,VBO,4.313192,51.794757
Irenestraat,10,,,3265BD,Piershil,Korendijk,Zuid-Holland,VBO,4.313125,51.794504
Irenestraat,12,,,3265BD,Piershil,Korendijk,Zuid-Holland,VBO,4.313227,51.794514
Koningin Julianastraat,1,A,,3265BE,Piershil,Korendijk,Zuid-Holland,VBO,4.313707,51.794114
Koningin Julianastraat,1,B,,3265BE,Piershil,Korendijk,Zuid-Holland,VBO,4.313775,51.794016
Koningin Julianastraat,1,,,3265BE,Piershil,Korendijk,Zuid-Holland,VBO,4.313754,51.794276
Koningin Julianastraat,3,,,3265BE,Piershil,Korendijk,Zuid-Holland,VBO,4.313723,51.794348
Koningin Julianastraat,5,,,3265BE,Piershil,Korendijk,Zuid-Holland,VBO,4.313693,51.794402
Koningin Julianastraat,7,,,3265BE,Piershil,Korendijk,Zuid-Holland,VBO,4.313677,51.794464
Koningin Julianastraat,9,,,3265BE,Piershil,Korendijk,Zuid-Holland,VBO,4.313661,51.794527
Koningin Julianastraat,11,,,3265BE,Piershil,Korendijk,Zuid-Holland,VBO,4.313631,51.794590
Koningin Julianastraat,13,,,3265BE,Piershil,Korendijk,Zuid-Holland,VBO,4.313542,51.794679
Koningin Julianastraat,15,,,3265BE,Piershil,Korendijk,Zuid-Holland,VBO,4.313554,51.794751
Koningin Julianastraat,17,,,3265BE,Piershil,Korendijk,Zuid-Holland,VBO,4.313539,51.794805
Koningin Julianastraat,19,,,3265BE,Piershil,Korendijk,Zuid-Holland,VBO,4.313508,51.794867
Koningin Julianastraat,21,,,3265BE,Piershil,Korendijk,Zuid-Holland,VBO,4.313448,51.794943
Koningin Julianastraat,23,,,3265BE,Piershil,Korendijk,Zuid-Holland,VBO,4.313447,51.795020
Koningin Julianastraat,25,,,3265BE,Piershil,Korendijk,Zuid-Holland,VBO,4.313431,51.795073
Koningin Julianastraat,27,,,3265BE,Piershil,Korendijk,Zuid-Holland,VBO,4.313379,51.795127
Koningin Julianastraat,29,,,3265BE,Piershil,Korendijk,Zuid-Holland,VBO,4.313220,51.795404
Koningin Julianastraat,2,,,3265BG,Piershil,Korendijk,Zuid-Holland,VBO,4.314158,51.794370
Koningin Julianastraat,4,,,3265BG,Piershil,Korendijk,Zuid-Holland,VBO,4.314060,51.794508
Koningin Julianastraat,6,,,3265BG,Piershil,Korendijk,Zuid-Holland,VBO,4.314038,51.794549
Koningin Julianastraat,8,,,3265BG,Piershil,Korendijk,Zuid-Holland,VBO,4.314029,51.794625
Koningin Julianastraat,10,,,3265BG,Piershil,Korendijk,Zuid-Holland,VBO,4.314013,51.794656
Koningin Julianastraat,12,,,3265BG,Piershil,Korendijk,Zuid-Holland,VBO,4.313975,51.794723
Koningin Julianastraat,14,,,3265BG,Piershil,Korendijk,Zuid-Holland,VBO,4.313967,51.794755
Koningin Julianastraat,16,,,3265BG,Piershil,Korendijk,Zuid-Holland,VBO,4.313915,51.794840
Koningin Julianastraat,18,,,3265BG,Piershil,Korendijk,Zuid-Holland,VBO,4.313891,51.794911
Koningin Julianastraat,20,,,3265BG,Piershil,Korendijk,Zuid-Holland,VBO,4.313839,51.794960
Koningin Julianastraat,22,,,3265BG,Piershil,Korendijk,Zuid-Holland,VBO,4.313809,51.795014
Koningin Julianastraat,24,,,3265BG,Piershil,Korendijk,Zuid-Holland,VBO,4.313793,51.795068
Koningin Julianastraat,26,,,3265BG,Piershil,Korendijk,Zuid-Holland,VBO,4.313806,51.795131
Koningin Julianastraat,28,,,3265BG,Piershil,Korendijk,Zuid-Holland,VBO,4.313716,51.795265
Koningin Julianastraat,30,,,3265BG,Piershil,Korendijk,Zuid-Holland,VBO,4.313693,51.795314
Koningin Julianastraat,32,,,3265BG,Piershil,Korendijk,Zuid-Holland,VBO,4.313641,51.795372
Koningin Julianastraat,34,,,3265BG,Piershil,Korendijk,Zuid-Holland,VBO,4.313611,51.795435
Koningin Julianastraat,36,,,3265BG,Piershil,Korendijk,Zuid-Holland,VBO,4.313595,51.795488
Koningin Julianastraat,38,,,3265BG,Piershil,Korendijk,Zuid-Holland,VBO,4.313622,51.795561
Koningin Julianastraat,40,,,3265BG,Piershil,Korendijk,Zuid-Holland,VBO,4.313533,51.795650
Koningin Julianastraat,42,,,3265BG,Piershil,Korendijk,Zuid-Holland,VBO,4.313503,51.795703
Koningin Julianastraat,44,,,3265BG,Piershil,Korendijk,Zuid-Holland,VBO,4.313487,51.795748
Koningin Julianastraat,46,,,3265BG,Piershil,Korendijk,Zuid-Holland,VBO,4.313471,51.795811
Koningin Julianastraat,48,,,3265BG,Piershil,Korendijk,Zuid-Holland,VBO,4.313484,51.795869
Koningin Julianastraat,50,,,3265BG,Piershil,Korendijk,Zuid-Holland,VBO,4.313461,51.795937
Koningin Julianastraat,52,,,3265BG,Piershil,Korendijk,Zuid-Holland,VBO,4.313422,51.796053
Koningin Wilhelminastraat,1,A,,3265BH,Piershil,Korendijk,Zuid-Holland,VBO,4.315251,51.794749
Koningin Wilhelminastraat,1,,,3265BH,Piershil,Korendijk,Zuid-Holland,VBO,4.314991,51.794692
Koningin Wilhelminastraat,3,,,3265BH,Piershil,Korendijk,Zuid-Holland,VBO,4.316239,51.794955
Koningin Wilhelminastraat,5,,,3265BH,Piershil,Korendijk,Zuid-Holland,VBO,4.315988,51.795019
Koningin Wilhelminastraat,7,,,3265BH,Piershil,Korendijk,Zuid-Holland,VBO,4.316855,51.795051
Koningin Wilhelminastraat,9,,,3265BH,Piershil,Korendijk,Zuid-Holland,VBO,4.316897,51.795312
Koningin Wilhelminastraat,11,,,3265BH,Piershil,Korendijk,Zuid-Holland,VBO,4.316881,51.795370
Koningin Wilhelminastraat,13,,,3265BH,Piershil,Korendijk,Zuid-Holland,VBO,4.316865,51.795428
Koningin Wilhelminastraat,15,,,3265BH,Piershil,Korendijk,Zuid-Holland,VBO,4.316842,51.795487
Koningin Wilhelminastraat,17,,,3265BH,Piershil,Korendijk,Zuid-Holland,VBO,4.316869,51.795568
Koningin Wilhelminastraat,19,,,3265BH,Piershil,Korendijk,Zuid-Holland,VBO,4.316686,51.795652
Koningin Wilhelminastraat,21,,,3265BH,Piershil,Korendijk,Zuid-Holland,VBO,4.316677,51.795714
Koningin Wilhelminastraat,23,,,3265BH,Piershil,Korendijk,Zuid-Holland,VBO,4.316673,51.795782
Koningin Wilhelminastraat,25,,,3265BH,Piershil,Korendijk,Zuid-Holland,VBO,4.316646,51.795826
Koningin Wilhelminastraat,27,,,3265BH,Piershil,Korendijk,Zuid-Holland,VBO,4.316637,51.795885
Koningin Wilhelminastraat,29,,,3265BH,Piershil,Korendijk,Zuid-Holland,VBO,4.316614,51.795934
Koningin Wilhelminastraat,31,,,3265BH,Piershil,Korendijk,Zuid-Holland,VBO,4.316620,51.795988
Koningin Wilhelminastraat,33,,,3265BH,Piershil,Korendijk,Zuid-Holland,VBO,4.316492,51.796180
Koningin Wilhelminastraat,35,,,3265BH,Piershil,Korendijk,Zuid-Holland,VBO,4.316462,51.796234
Koningin Wilhelminastraat,37,,,3265BH,Piershil,Korendijk,Zuid-Holland,VBO,4.316446,51.796288
Koningin Wilhelminastraat,39,,,3265BH,Piershil,Korendijk,Zuid-Holland,VBO,4.316431,51.796332
Koningin Wilhelminastraat,41,,,3265BH,Piershil,Korendijk,Zuid-Holland,VBO,4.316430,51.796377
Koningin Wilhelminastraat,43,,,3265BH,Piershil,Korendijk,Zuid-Holland,VBO,4.316355,51.796458
Koningin Wilhelminastraat,45,,,3265BH,Piershil,Korendijk,Zuid-Holland,VBO,4.316339,51.796511
Koningin Wilhelminastraat,47,,,3265BH,Piershil,Korendijk,Zuid-Holland,VBO,4.316338,51.796565
Koningin Wilhelminastraat,49,,,3265BH,Piershil,Korendijk,Zuid-Holland,VBO,4.316308,51.796610
Koningin Wilhelminastraat,51,,,3265BH,Piershil,Korendijk,Zuid-Holland,VBO,4.316343,51.796678
Koningin Wilhelminastraat,53,,,3265BH,Piershil,Korendijk,Zuid-Holland,VBO,4.316161,51.796986
Koningin Wilhelminastraat,55,,,3265BH,Piershil,Korendijk,Zuid-Holland,VBO,4.316107,51.797147
Koningin Wilhelminastraat,57,,,3265BH,Piershil,Korendijk,Zuid-Holland,VBO,4.316090,51.797255
Koningin Wilhelminastraat,2,,,3265BJ,Piershil,Korendijk,Zuid-Holland,VBO,4.315098,51.794450
Koningin Wilhelminastraat,4,,,3265BJ,Piershil,Korendijk,Zuid-Holland,VBO,4.315373,51.794489
Koningin Wilhelminastraat,6,,,3265BJ,Piershil,Korendijk,Zuid-Holland,VBO,4.315474,51.794499
Koningin Wilhelminastraat,8,,,3265BJ,Piershil,Korendijk,Zuid-Holland,VBO,4.315762,51.794564
Koningin Wilhelminastraat,10,,,3265BJ,Piershil,Korendijk,Zuid-Holland,VBO,4.315849,51.794574
Koningin Wilhelminastraat,12,,,3265BJ,Piershil,Korendijk,Zuid-Holland,VBO,4.315936,51.794584
Koningin Wilhelminastraat,14,,,3265BJ,Piershil,Korendijk,Zuid-Holland,VBO,4.316037,51.794594
Koningin Wilhelminastraat,16,,,3265BJ,Piershil,Korendijk,Zuid-Holland,VBO,4.316138,51.794604
Koningin Wilhelminastraat,18,,,3265BJ,Piershil,Korendijk,Zuid-Holland,VBO,4.316225,51.794614
Koningin Wilhelminastraat,20,,,3265BJ,Piershil,Korendijk,Zuid-Holland,VBO,4.316312,51.794605
Koningin Wilhelminastraat,22,A,,3265BJ,Piershil,Korendijk,Zuid-Holland,VBO,4.316464,51.794319
Koningin Wilhelminastraat,22,B,,3265BJ,Piershil,Korendijk,Zuid-Holland,VBO,4.316449,51.794346
Koningin Wilhelminastraat,22,C,,3265BJ,Piershil,Korendijk,Zuid-Holland,VBO,4.316434,51.794364
Koningin Wilhelminastraat,22,D,,3265BJ,Piershil,Korendijk,Zuid-Holland,VBO,4.316419,51.794400
Koningin Wilhelminastraat,22,E,,3265BJ,Piershil,Korendijk,Zuid-Holland,VBO,4.316404,51.794417
Koningin Wilhelminastraat,22,F,,3265BJ,Piershil,Korendijk,Zuid-Holland,VBO,4.316389,51.794444
Koningin Wilhelminastraat,22,,,3265BJ,Piershil,Korendijk,Zuid-Holland,VBO,4.316399,51.794611
Koningin Wilhelminastraat,24,,,3265BJ,Piershil,Korendijk,Zuid-Holland,VBO,4.317152,51.794667
Koningin Wilhelminastraat,26,,,3265BJ,Piershil,Korendijk,Zuid-Holland,VBO,4.317237,51.794722
Koningin Wilhelminastraat,28,,,3265BJ,Piershil,Korendijk,Zuid-Holland,VBO,4.317338,51.794750
Koningin Wilhelminastraat,30,,,3265BJ,Piershil,Korendijk,Zuid-Holland,VBO,4.317425,51.794768
Koningin Wilhelminastraat,32,,,3265BJ,Piershil,Korendijk,Zuid-Holland,VBO,4.317497,51.794787
Koningin Wilhelminastraat,34,,,3265BJ,Piershil,Korendijk,Zuid-Holland,VBO,4.317583,51.794806
Koningin Wilhelminastraat,36,A,,3265BJ,Piershil,Korendijk,Zuid-Holland,VBO,4.317688,51.794645
Koningin Wilhelminastraat,36,B,,3265BJ,Piershil,Korendijk,Zuid-Holland,VBO,4.317732,51.794654
Koningin Wilhelminastraat,36,,,3265BJ,Piershil,Korendijk,Zuid-Holland,VBO,4.317655,51.794833
Koningin Wilhelminastraat,38,,,3265BJ,Piershil,Korendijk,Zuid-Holland,VBO,4.317769,51.794915
Koningin Wilhelminastraat,40,,,3265BJ,Piershil,Korendijk,Zuid-Holland,VBO,4.317739,51.794969
Koningin Wilhelminastraat,42,,,3265BJ,Piershil,Korendijk,Zuid-Holland,VBO,4.317709,51.795014
Koningin Wilhelminastraat,44,,,3265BJ,Piershil,Korendijk,Zuid-Holland,VBO,4.317678,51.795076
Koningin Wilhelminastraat,46,,,3265BK,Piershil,Korendijk,Zuid-Holland,VBO,4.317501,51.795210
Koningin Wilhelminastraat,48,,,3265BK,Piershil,Korendijk,Zuid-Holland,VBO,4.317617,51.795220
Koningin Wilhelminastraat,50,,,3265BK,Piershil,Korendijk,Zuid-Holland,VBO,4.317689,51.795238
Koningin Wilhelminastraat,52,,,3265BK,Piershil,Korendijk,Zuid-Holland,VBO,4.317746,51.795257
Koningin Wilhelminastraat,54,,,3265BK,Piershil,Korendijk,Zuid-Holland,VBO,4.317554,51.795435
Koningin Wilhelminastraat,56,,,3265BK,Piershil,Korendijk,Zuid-Holland,VBO,4.317480,51.795497
Koningin Wilhelminastraat,58,,,3265BK,Piershil,Korendijk,Zuid-Holland,VBO,4.317420,51.795559
Koningin Wilhelminastraat,60,,,3265BK,Piershil,Korendijk,Zuid-Holland,VBO,4.317432,51.795685
Koningin Wilhelminastraat,62,,,3265BK,Piershil,Korendijk,Zuid-Holland,VBO,4.317344,51.795729
Koningin Wilhelminastraat,64,,,3265BK,Piershil,Korendijk,Zuid-Holland,VBO,4.317342,51.795810
Koningin Wilhelminastraat,66,,,3265BK,Piershil,Korendijk,Zuid-Holland,VBO,4.317245,51.795908
Koningin Wilhelminastraat,68,,,3265BK,Piershil,Korendijk,Zuid-Holland,VBO,4.317250,51.796007
Koningin Wilhelminastraat,70,,,3265BK,Piershil,Korendijk,Zuid-Holland,VBO,4.317218,51.796142
Koningin Wilhelminastraat,72,,,3265BK,Piershil,Korendijk,Zuid-Holland,VBO,4.317100,51.796213
Koningin Wilhelminastraat,74,,,3265BK,Piershil,Korendijk,Zuid-Holland,VBO,4.317127,51.796312
Koningin Wilhelminastraat,76,,,3265BK,Piershil,Korendijk,Zuid-Holland,VBO,4.317038,51.796383
Koningin Wilhelminastraat,78,,,3265BK,Piershil,Korendijk,Zuid-Holland,VBO,4.316993,51.796454
Koningin Wilhelminastraat,80,,,3265BK,Piershil,Korendijk,Zuid-Holland,VBO,4.316984,51.796535
Koningin Wilhelminastraat,82,,,3265BK,Piershil,Korendijk,Zuid-Holland,VBO,4.316946,51.796625
Koningin Wilhelminastraat,84,,,3265BK,Piershil,Korendijk,Zuid-Holland,VBO,4.316872,51.796678
Koningin Wilhelminastraat,86,,,3265BK,Piershil,Korendijk,Zuid-Holland,VBO,4.316855,51.796777
Koningin Wilhelminastraat,88,,,3265BK,Piershil,Korendijk,Zuid-Holland,VBO,4.316736,51.796919
Koningin Wilhelminastraat,90,,,3265BK,Piershil,Korendijk,Zuid-Holland,VBO,4.316630,51.797116
Koningin Wilhelminastraat,92,,,3265BK,Piershil,Korendijk,Zuid-Holland,VBO,4.316553,51.797277
Margrietstraat,1,,,3265BL,Piershil,Korendijk,Zuid-Holland,VBO,4.312776,51.796393
Margrietstraat,2,,,3265BL,Piershil,Korendijk,Zuid-Holland,VBO,4.312711,51.796083
Margrietstraat,3,,,3265BL,Piershil,Korendijk,Zuid-Holland,VBO,4.312949,51.796422
Margrietstraat,4,,,3265BL,Piershil,Korendijk,Zuid-Holland,VBO,4.312812,51.796111
Margrietstraat,5,,,3265BL,Piershil,Korendijk,Zuid-Holland,VBO,4.313080,51.796419
Margrietstraat,6,,,3265BL,Piershil,Korendijk,Zuid-Holland,VBO,4.312898,51.796120
Margrietstraat,7,,,3265BL,Piershil,Korendijk,Zuid-Holland,VBO,4.313196,51.796420
Margrietstraat,8,,,3265BL,Piershil,Korendijk,Zuid-Holland,VBO,4.313029,51.796117
Margrietstraat,9,,,3265BL,Piershil,Korendijk,Zuid-Holland,VBO,4.313282,51.796429
Margrietstraat,10,,,3265BL,Piershil,Korendijk,Zuid-Holland,VBO,4.313622,51.796190
Margrietstraat,11,,,3265BL,Piershil,Korendijk,Zuid-Holland,VBO,4.313384,51.796448
Margrietstraat,12,,,3265BL,Piershil,Korendijk,Zuid-Holland,VBO,4.313708,51.796200
Margrietstraat,13,,,3265BL,Piershil,Korendijk,Zuid-Holland,VBO,4.313470,51.796458
Margrietstraat,14,,,3265BL,Piershil,Korendijk,Zuid-Holland,VBO,4.313795,51.796209
Margrietstraat,15,,,3265BL,Piershil,Korendijk,Zuid-Holland,VBO,4.313543,51.796468
Margrietstraat,16,,,3265BL,Piershil,Korendijk,Zuid-Holland,VBO,4.314113,51.796266
Margrietstraat,17,,,3265BL,Piershil,Korendijk,Zuid-Holland,VBO,4.313731,51.796487
Margrietstraat,18,,,3265BL,Piershil,Korendijk,Zuid-Holland,VBO,4.314200,51.796267
Margrietstraat,19,,,3265BL,Piershil,Korendijk,Zuid-Holland,VBO,4.313832,51.796497
Margrietstraat,20,,,3265BL,Piershil,Korendijk,Zuid-Holland,VBO,4.314315,51.796286
Margrietstraat,21,,,3265BL,Piershil,Korendijk,Zuid-Holland,VBO,4.313904,51.796498
Margrietstraat,22,,,3265BL,Piershil,Korendijk,Zuid-Holland,VBO,4.314445,51.796323
Margrietstraat,23,,,3265BL,Piershil,Korendijk,Zuid-Holland,VBO,4.314005,51.796526
Margrietstraat,24,,,3265BL,Piershil,Korendijk,Zuid-Holland,VBO,4.314517,51.796333
Margrietstraat,25,,,3265BL,Piershil,Korendijk,Zuid-Holland,VBO,4.314092,51.796536
Margrietstraat,26,,,3265BL,Piershil,Korendijk,Zuid-Holland,VBO,4.314604,51.796352
Margrietstraat,27,,,3265BL,Piershil,Korendijk,Zuid-Holland,VBO,4.314193,51.796546
Margrietstraat,28,,,3265BL,Piershil,Korendijk,Zuid-Holland,VBO,4.315023,51.796373
Margrietstraat,30,,,3265BL,Piershil,Korendijk,Zuid-Holland,VBO,4.315096,51.796383
Margrietstraat,31,,,3265BL,Piershil,Korendijk,Zuid-Holland,VBO,4.315205,51.796672
Margrietstraat,32,,,3265BL,Piershil,Korendijk,Zuid-Holland,VBO,4.315168,51.796393
Margrietstraat,33,,,3265BL,Piershil,Korendijk,Zuid-Holland,VBO,4.315203,51.796735
Margrietstraat,34,,,3265BL,Piershil,Korendijk,Zuid-Holland,VBO,4.315240,51.796411
Margrietstraat,35,,,3265BL,Piershil,Korendijk,Zuid-Holland,VBO,4.315202,51.796789
Margrietstraat,36,,,3265BL,Piershil,Korendijk,Zuid-Holland,VBO,4.315327,51.796430
Margrietstraat,37,A,,3265BL,Piershil,Korendijk,Zuid-Holland,VBO,4.315069,51.796895
Margrietstraat,37,B,,3265BL,Piershil,Korendijk,Zuid-Holland,VBO,4.315070,51.796868
Margrietstraat,37,,,3265BL,Piershil,Korendijk,Zuid-Holland,VBO,4.315137,51.797085
Margrietstraat,38,,,3265BL,Piershil,Korendijk,Zuid-Holland,VBO,4.315399,51.796440
Margrietstraat,39,,,3265BL,Piershil,Korendijk,Zuid-Holland,VBO,4.315000,51.797047
Margrietstraat,40,,,3265BL,Piershil,Korendijk,Zuid-Holland,VBO,4.315471,51.796449
Margrietstraat,41,,,3265BL,Piershil,Korendijk,Zuid-Holland,VBO,4.315530,51.797007
Margrietstraat,42,,,3265BL,Piershil,Korendijk,Zuid-Holland,VBO,4.315564,51.796500
Margrietstraat,43,,,3265BL,Piershil,Korendijk,Zuid-Holland,VBO,4.315512,51.797160
Mauritsstraat,1,,,3265BM,Piershil,Korendijk,Zuid-Holland,VBO,4.314379,51.795442
Mauritsstraat,3,,,3265BM,Piershil,Korendijk,Zuid-Holland,VBO,4.314509,51.795434
Mauritsstraat,5,,,3265BM,Piershil,Korendijk,Zuid-Holland,VBO,4.314556,51.795491
Mauritsstraat,7,,,3265BM,Piershil,Korendijk,Zuid-Holland,VBO,4.314683,51.795453
Mauritsstraat,9,,,3265BM,Piershil,Korendijk,Zuid-Holland,VBO,4.314755,51.795463
Mauritsstraat,11,,,3265BM,Piershil,Korendijk,Zuid-Holland,VBO,4.315029,51.795538
Mauritsstraat,13,,,3265BM,Piershil,Korendijk,Zuid-Holland,VBO,4.315130,51.795556
Mauritsstraat,15,,,3265BM,Piershil,Korendijk,Zuid-Holland,VBO,4.315217,51.795566
Mauritsstraat,17,,,3265BM,Piershil,Korendijk,Zuid-Holland,VBO,4.315303,51.795603
Mauritsstraat,19,,,3265BM,Piershil,Korendijk,Zuid-Holland,VBO,4.315649,51.795660
Mauritsstraat,21,,,3265BM,Piershil,Korendijk,Zuid-Holland,VBO,4.315590,51.795700
Mauritsstraat,23,,,3265BM,Piershil,Korendijk,Zuid-Holland,VBO,4.315618,51.795768
Mauritsstraat,25,,,3265BM,Piershil,Korendijk,Zuid-Holland,VBO,4.315559,51.795803
Mauritsstraat,27,,,3265BM,Piershil,Korendijk,Zuid-Holland,VBO,4.315543,51.795866
Mauritsstraat,29,,,3265BM,Piershil,Korendijk,Zuid-Holland,VBO,4.315523,51.795911
Mauritsstraat,2,,,3265BN,Piershil,Korendijk,Zuid-Holland,VBO,4.314661,51.795148
Mauritsstraat,4,,,3265BN,Piershil,Korendijk,Zuid-Holland,VBO,4.314747,51.795193
Mauritsstraat,6,,,3265BN,Piershil,Korendijk,Zuid-Holland,VBO,4.314833,51.795221
Mauritsstraat,8,,,3265BN,Piershil,Korendijk,Zuid-Holland,VBO,4.314942,51.795218
Mauritsstraat,10,,,3265BN,Piershil,Korendijk,Zuid-Holland,VBO,4.315281,51.795288
Mauritsstraat,12,,,3265BN,Piershil,Korendijk,Zuid-Holland,VBO,4.315341,51.795226
Mauritsstraat,14,,,3265BN,Piershil,Korendijk,Zuid-Holland,VBO,4.315357,51.795163
Mauritsstraat,16,,,3265BN,Piershil,Korendijk,Zuid-Holland,VBO,4.315387,51.795100
Mauritsstraat,18,,,3265BN,Piershil,Korendijk,Zuid-Holland,VBO,4.315403,51.795038
Mauritsstraat,20,,,3265BN,Piershil,Korendijk,Zuid-Holland,VBO,4.315390,51.794975
Mauritsstraat,22,,,3265BN,Piershil,Korendijk,Zuid-Holland,VBO,4.315651,51.795292
Mauritsstraat,24,,,3265BN,Piershil,Korendijk,Zuid-Holland,VBO,4.315738,51.795297
Mauritsstraat,26,,,3265BN,Piershil,Korendijk,Zuid-Holland,VBO,4.315822,51.795290
Mauritsstraat,28,,,3265BN,Piershil,Korendijk,Zuid-Holland,VBO,4.315926,51.795312
Mauritsstraat,30,,,3265BN,Piershil,Korendijk,Zuid-Holland,VBO,4.316005,51.795313
Mauritsstraat,32,,,3265BN,Piershil,Korendijk,Zuid-Holland,VBO,4.316092,51.795349
Mauritsstraat,34,,,3265BN,Piershil,Korendijk,Zuid-Holland,VBO,4.316186,51.795337
Mauritsstraat,36,,,3265BN,Piershil,Korendijk,Zuid-Holland,VBO,4.316506,51.795290
Mauritsstraat,38,,,3265BN,Piershil,Korendijk,Zuid-Holland,VBO,4.316497,51.795358
Mauritsstraat,40,,,3265BN,Piershil,Korendijk,Zuid-Holland,VBO,4.316481,51.795416
Mauritsstraat,42,,,3265BN,Piershil,Korendijk,Zuid-Holland,VBO,4.316480,51.795474
Mauritsstraat,44,,,3265BN,Piershil,Korendijk,Zuid-Holland,VBO,4.316407,51.795505
Mauritsstraat,46,,,3265BN,Piershil,Korendijk,Zuid-Holland,VBO,4.316100,51.795606
Mauritsstraat,48,,,3265BN,Piershil,Korendijk,Zuid-Holland,VBO,4.316120,51.795678
Mauritsstraat,50,,,3265BN,Piershil,Korendijk,Zuid-Holland,VBO,4.316112,51.795727
Mauritsstraat,52,,,3265BN,Piershil,Korendijk,Zuid-Holland,VBO,4.316103,51.795790
Mauritsstraat,54,,,3265BN,Piershil,Korendijk,Zuid-Holland,VBO,4.316094,51.795844
Mauritsstraat,56,,,3265BN,Piershil,Korendijk,Zuid-Holland,VBO,4.316078,51.795902
Mauritsstraat,58,,,3265BN,Piershil,Korendijk,Zuid-Holland,VBO,4.316063,51.795956
Oranjestraat,1,A,,3265BP,Piershil,Korendijk,Zuid-Holland,VBO,4.316480,51.794265
Oranjestraat,1,,,3265BP,Piershil,Korendijk,Zuid-Holland,VBO,4.316824,51.794439
Oranjestraat,2,A,,3265BP,Piershil,Korendijk,Zuid-Holland,VBO,4.317406,51.794310
Oranjestraat,2,D,,3265BP,Piershil,Korendijk,Zuid-Holland,VBO,4.318086,51.794379
Oranjestraat,2,E,,3265BP,Piershil,Korendijk,Zuid-Holland,VBO,4.318169,51.794546
Oranjestraat,2,,,3265BP,Piershil,Korendijk,Zuid-Holland,VBO,4.317243,51.794488
Oranjestraat,3,,,3265BP,Piershil,Korendijk,Zuid-Holland,VBO,4.316822,51.794493
Oranjestraat,4,,,3265BP,Piershil,Korendijk,Zuid-Holland,VBO,4.317227,51.794533
Oranjestraat,5,,,3265BP,Piershil,Korendijk,Zuid-Holland,VBO,4.316806,51.794556
Oranjestraat,6,,,3265BP,Piershil,Korendijk,Zuid-Holland,VBO,4.318104,51.794589
Oranjestraat,7,,,3265BP,Piershil,Korendijk,Zuid-Holland,VBO,4.316805,51.794601
Oranjestraat,8,,,3265BP,Piershil,Korendijk,Zuid-Holland,VBO,4.318087,51.794621
Oranjestraat,9,,,3265BP,Piershil,Korendijk,Zuid-Holland,VBO,4.316789,51.794664
Oranjestraat,10,,,3265BP,Piershil,Korendijk,Zuid-Holland,VBO,4.318075,51.794661
Oranjestraat,12,,,3265BP,Piershil,Korendijk,Zuid-Holland,VBO,4.318055,51.794698
Oranjestraat,14,,,3265BP,Piershil,Korendijk,Zuid-Holland,VBO,4.318034,51.794737
Oranjestraat,16,,,3265BP,Piershil,Korendijk,Zuid-Holland,VBO,4.318016,51.794774
Oranjestraat,18,,,3265BP,Piershil,Korendijk,Zuid-Holland,VBO,4.318183,51.794606
Oranjestraat,20,,,3265BP,Piershil,Korendijk,Zuid-Holland,VBO,4.318163,51.794638
Oranjestraat,22,,,3265BP,Piershil,Korendijk,Zuid-Holland,VBO,4.318145,51.794674
Oranjestraat,24,,,3265BP,Piershil,Korendijk,Zuid-Holland,VBO,4.318126,51.794710
Oranjestraat,26,,,3265BP,Piershil,Korendijk,Zuid-Holland,VBO,4.318107,51.794750
Oranjestraat,28,,,3265BP,Piershil,Korendijk,Zuid-Holland,VBO,4.318087,51.794789
Prins Bernhardstraat,1,,,3265BR,Piershil,Korendijk,Zuid-Holland,VBO,4.314655,51.794509
Prins Bernhardstraat,3,,,3265BR,Piershil,Korendijk,Zuid-Holland,VBO,4.314457,51.794612
Prins Bernhardstraat,5,,,3265BR,Piershil,Korendijk,Zuid-Holland,VBO,4.314438,51.794669
Prins Bernhardstraat,7,,,3265BR,Piershil,Korendijk,Zuid-Holland,VBO,4.314415,51.794727
Prins Bernhardstraat,9,,,3265BR,Piershil,Korendijk,Zuid-Holland,VBO,4.314393,51.794784
Prins Bernhardstraat,11,,,3265BR,Piershil,Korendijk,Zuid-Holland,VBO,4.314372,51.794841
Prins Bernhardstraat,13,,,3265BR,Piershil,Korendijk,Zuid-Holland,VBO,4.314348,51.794899
Prins Bernhardstraat,15,,,3265BR,Piershil,Korendijk,Zuid-Holland,VBO,4.314326,51.794959
Prins Bernhardstraat,23,,,3265BR,Piershil,Korendijk,Zuid-Holland,VBO,4.314321,51.795127
Prins Bernhardstraat,25,,,3265BR,Piershil,Korendijk,Zuid-Holland,VBO,4.314212,51.795153
Prins Bernhardstraat,27,,,3265BR,Piershil,Korendijk,Zuid-Holland,VBO,4.314140,51.795107
Prins Bernhardstraat,29,,,3265BR,Piershil,Korendijk,Zuid-Holland,VBO,4.313974,51.795393
Prins Bernhardstraat,31,,,3265BR,Piershil,Korendijk,Zuid-Holland,VBO,4.314119,51.795376
Prins Bernhardstraat,33,,,3265BR,Piershil,Korendijk,Zuid-Holland,VBO,4.314014,51.795533
Prins Bernhardstraat,35,,,3265BR,Piershil,Korendijk,Zuid-Holland,VBO,4.313976,51.795604
Prins Bernhardstraat,37,,,3265BR,Piershil,Korendijk,Zuid-Holland,VBO,4.313945,51.795698
Prins Bernhardstraat,39,,,3265BR,Piershil,Korendijk,Zuid-Holland,VBO,4.313965,51.795762
Prins Bernhardstraat,41,,,3265BR,Piershil,Korendijk,Zuid-Holland,VBO,4.313949,51.795815
Prins Bernhardstraat,43,,,3265BR,Piershil,Korendijk,Zuid-Holland,VBO,4.313934,51.795869
Prins Bernhardstraat,45,,,3265BR,Piershil,Korendijk,Zuid-Holland,VBO,4.313903,51.795932
Prins Bernhardstraat,47,,,3265BR,Piershil,Korendijk,Zuid-Holland,VBO,4.313837,51.795990
Prins Bernhardstraat,2,,,3265BS,Piershil,Korendijk,Zuid-Holland,VBO,4.314796,51.794960
Prins Bernhardstraat,4,,,3265BS,Piershil,Korendijk,Zuid-Holland,VBO,4.314912,51.794979
Prins Bernhardstraat,6,,,3265BS,Piershil,Korendijk,Zuid-Holland,VBO,4.314998,51.794998
Prins Bernhardstraat,8,,,3265BS,Piershil,Korendijk,Zuid-Holland,VBO,4.315099,51.795026
Voorstraat,1,A,,3265BT,Piershil,Korendijk,Zuid-Holland,VBO,4.312537,51.793660
Voorstraat,1,,,3265BT,Piershil,Korendijk,Zuid-Holland,VBO,4.312559,51.793689
Voorstraat,1,,,3265BT,Piershil,Korendijk,Zuid-Holland,VBO,4.312639,51.793619
Voorstraat,3,,,3265BT,Piershil,Korendijk,Zuid-Holland,VBO,4.312704,51.793651
Voorstraat,5,,,3265BT,Piershil,Korendijk,Zuid-Holland,VBO,4.312812,51.793657
Voorstraat,7,,,3265BT,Piershil,Korendijk,Zuid-Holland,VBO,4.312913,51.793698
Voorstraat,9,,,3265BT,Piershil,Korendijk,Zuid-Holland,VBO,4.313000,51.793676
Voorstraat,11,,,3265BT,Piershil,Korendijk,Zuid-Holland,VBO,4.313116,51.793677
Voorstraat,13,,,3265BT,Piershil,Korendijk,Zuid-Holland,VBO,4.313275,51.793706
Voorstraat,15,,,3265BT,Piershil,Korendijk,Zuid-Holland,VBO,4.313412,51.793871
Voorstraat,17,,,3265BT,Piershil,Korendijk,Zuid-Holland,VBO,4.313601,51.793759
Voorstraat,19,,,3265BT,Piershil,Korendijk,Zuid-Holland,VBO,4.313766,51.793773
Voorstraat,21,,,3265BT,Piershil,Korendijk,Zuid-Holland,VBO,4.313897,51.793774
Voorstraat,23,,,3265BT,Piershil,Korendijk,Zuid-Holland,VBO,4.314149,51.793817
Voorstraat,25,,,3265BT,Piershil,Korendijk,Zuid-Holland,VBO,4.314207,51.793827
Voorstraat,27,,,3265BT,Piershil,Korendijk,Zuid-Holland,VBO,4.314301,51.793841
Voorstraat,29,,,3265BT,Piershil,Korendijk,Zuid-Holland,VBO,4.314762,51.793944
Voorstraat,31,,,3265BT,Piershil,Korendijk,Zuid-Holland,VBO,4.315488,51.794050
Voorstraat,33,A,,3265BT,Piershil,Korendijk,Zuid-Holland,VBO,4.316092,51.794127
Voorstraat,33,B,,3265BT,Piershil,Korendijk,Zuid-Holland,VBO,4.316292,51.794237
Voorstraat,33,C,,3265BT,Piershil,Korendijk,Zuid-Holland,VBO,4.316352,51.794165
Voorstraat,33,,,3265BT,Piershil,Korendijk,Zuid-Holland,VBO,4.316101,51.794334
Voorstraat,35,,,3265BT,Piershil,Korendijk,Zuid-Holland,VBO,4.316715,51.794115
Voorstraat,37,,,3265BT,Piershil,Korendijk,Zuid-Holland,VBO,4.316952,51.794220
Voorstraat,39,,,3265BT,Piershil,Korendijk,Zuid-Holland,VBO,4.317478,51.794045
Voorstraat,41,A,,3265BT,Piershil,Korendijk,Zuid-Holland,VBO,4.317873,51.794179
Voorstraat,41,,,3265BT,Piershil,Korendijk,Zuid-Holland,VBO,4.317774,51.794079
Voorstraat,43,,,3265BT,Piershil,Korendijk,Zuid-Holland,VBO,4.318226,51.793967
Voorstraat,45,,,3265BT,Piershil,Korendijk,Zuid-Holland,VBO,4.318434,51.794075
Voorstraat,2,,,3265BV,Piershil,Korendijk,Zuid-Holland,VBO,4.312412,51.793410
Voorstraat,4,,,3265BV,Piershil,Korendijk,Zuid-Holland,VBO,4.312527,51.793438
Voorstraat,6,,,3265BV,Piershil,Korendijk,Zuid-Holland,VBO,4.312687,51.793440
Voorstraat,8,,,3265BV,Piershil,Korendijk,Zuid-Holland,VBO,4.312788,51.793459
Voorstraat,10,A,,3265BV,Piershil,Korendijk,Zuid-Holland,VBO,4.312990,51.793478
Voorstraat,10,B,,3265BV,Piershil,Korendijk,Zuid-Holland,VBO,4.313092,51.793461
Voorstraat,10,,,3265BV,Piershil,Korendijk,Zuid-Holland,VBO,4.312904,51.793451
Voorstraat,12,A,,3265BV,Piershil,Korendijk,Zuid-Holland,VBO,4.313310,51.793463
Voorstraat,12,,,3265BV,Piershil,Korendijk,Zuid-Holland,VBO,4.313193,51.793489
Voorstraat,14,,,3265BV,Piershil,Korendijk,Zuid-Holland,VBO,4.313512,51.793470
Voorstraat,16,,,3265BV,Piershil,Korendijk,Zuid-Holland,VBO,4.313522,51.793384
Voorstraat,18,,,3265BV,Piershil,Korendijk,Zuid-Holland,VBO,4.313656,51.793511
Voorstraat,20,A,,3265BV,Piershil,Korendijk,Zuid-Holland,VBO,4.313982,51.793427
Voorstraat,20,,,3265BV,Piershil,Korendijk,Zuid-Holland,VBO,4.313948,51.793433
Voorstraat,22,,,3265BV,Piershil,Korendijk,Zuid-Holland,VBO,4.314353,51.793464
Voorstraat,24,A,,3265BV,Piershil,Korendijk,Zuid-Holland,VBO,4.315012,51.793218
Voorstraat,24,B,,3265BV,Piershil,Korendijk,Zuid-Holland,VBO,4.315041,51.793183
Voorstraat,24,,,3265BV,Piershil,Korendijk,Zuid-Holland,VBO,4.314549,51.793463
Voorstraat,26,,W1,3265BV,Piershil,Korendijk,Zuid-Holland,VBO,4.316026,51.793155
Voorstraat,26,,W10,3265BV,Piershil,Korendijk,Zuid-Holland,VBO,4.315359,51.793181
Voorstraat,26,,W11,3265BV,Piershil,Korendijk,Zuid-Holland,VBO,4.315366,51.793116
Voorstraat,26,,W12,3265BV,Piershil,Korendijk,Zuid-Holland,VBO,4.315217,51.793179
Voorstraat,26,,W13,3265BV,Piershil,Korendijk,Zuid-Holland,VBO,4.315212,51.793112
Voorstraat,26,,W131,3265BV,Piershil,Korendijk,Zuid-Holland,VBO,4.315794,51.793354
Voorstraat,26,,W132,3265BV,Piershil,Korendijk,Zuid-Holland,VBO,4.315908,51.793358
Voorstraat,26,,W133,3265BV,Piershil,Korendijk,Zuid-Holland,VBO,4.315788,51.793462
Voorstraat,26,,W134,3265BV,Piershil,Korendijk,Zuid-Holland,VBO,4.315902,51.793464
Voorstraat,26,,W136,3265BV,Piershil,Korendijk,Zuid-Holland,VBO,4.315855,51.793515
Voorstraat,26,,W14,3265BV,Piershil,Korendijk,Zuid-Holland,VBO,4.315913,51.793282
Voorstraat,26,,W15,3265BV,Piershil,Korendijk,Zuid-Holland,VBO,4.315794,51.793354
Voorstraat,26,,W16,3265BV,Piershil,Korendijk,Zuid-Holland,VBO,4.315908,51.793358
Voorstraat,26,,W17,3265BV,Piershil,Korendijk,Zuid-Holland,VBO,4.315788,51.793462
Voorstraat,26,,W18,3265BV,Piershil,Korendijk,Zuid-Holland,VBO,4.315902,51.793464
Voorstraat,26,,W201,3265BV,Piershil,Korendijk,Zuid-Holland,VBO,4.316026,51.793155
Voorstraat,26,,W202,3265BV,Piershil,Korendijk,Zuid-Holland,VBO,4.315915,51.793056
Voorstraat,26,,W203,3265BV,Piershil,Korendijk,Zuid-Holland,VBO,4.316030,51.793058
Voorstraat,26,,W204,3265BV,Piershil,Korendijk,Zuid-Holland,VBO,4.315920,51.792952
Voorstraat,26,,W205,3265BV,Piershil,Korendijk,Zuid-Holland,VBO,4.316038,51.792954
Voorstraat,26,,W206,3265BV,Piershil,Korendijk,Zuid-Holland,VBO,4.315935,51.792838
Voorstraat,26,,W207,3265BV,Piershil,Korendijk,Zuid-Holland,VBO,4.316044,51.792840
Voorstraat,26,,W208,3265BV,Piershil,Korendijk,Zuid-Holland,VBO,4.315704,51.793194
Voorstraat,26,,W209,3265BV,Piershil,Korendijk,Zuid-Holland,VBO,4.315707,51.793125
Voorstraat,26,,W210,3265BV,Piershil,Korendijk,Zuid-Holland,VBO,4.315534,51.793190
Voorstraat,26,,W211,3265BV,Piershil,Korendijk,Zuid-Holland,VBO,4.315539,51.793121
Voorstraat,26,,W212,3265BV,Piershil,Korendijk,Zuid-Holland,VBO,4.315359,51.793181
Voorstraat,26,,W213,3265BV,Piershil,Korendijk,Zuid-Holland,VBO,4.315366,51.793116
Voorstraat,26,,W214,3265BV,Piershil,Korendijk,Zuid-Holland,VBO,4.315217,51.793179
Voorstraat,26,,W215,3265BV,Piershil,Korendijk,Zuid-Holland,VBO,4.315212,51.793112
Voorstraat,26,,W218,3265BV,Piershil,Korendijk,Zuid-Holland,VBO,4.315913,51.793282
Voorstraat,26,,W219,3265BV,Piershil,Korendijk,Zuid-Holland,VBO,4.315794,51.793354
Voorstraat,26,,W220,3265BV,Piershil,Korendijk,Zuid-Holland,VBO,4.315908,51.793358
Voorstraat,26,,W221,3265BV,Piershil,Korendijk,Zuid-Holland,VBO,4.315788,51.793462
Voorstraat,26,,W222,3265BV,Piershil,Korendijk,Zuid-Holland,VBO,4.315902,51.793464
Voorstraat,26,,W224,3265BV,Piershil,Korendijk,Zuid-Holland,VBO,4.315855,51.793515
Voorstraat,26,,W3,3265BV,Piershil,Korendijk,Zuid-Holland,VBO,4.316030,51.793058
Voorstraat,26,,W4,3265BV,Piershil,Korendijk,Zuid-Holland,VBO,4.315920,51.792952
Voorstraat,26,,W5,3265BV,Piershil,Korendijk,Zuid-Holland,VBO,4.316038,51.792954
Voorstraat,26,,W6,3265BV,Piershil,Korendijk,Zuid-Holland,VBO,4.315935,51.792838
Voorstraat,26,,W7,3265BV,Piershil,Korendijk,Zuid-Holland,VBO,4.316044,51.792840
Voorstraat,26,,,3265BV,Piershil,Korendijk,Zuid-Holland,VBO,4.315879,51.793163
Voorstraat,28,,,3265BV,Piershil,Korendijk,Zuid-Holland,VBO,4.316480,51.793654
Voorstraat,30,,,3265BV,Piershil,Korendijk,Zuid-Holland,VBO,4.318119,51.793615
Willem-Alexanderstraat,1,,,3265BW,Piershil,Korendijk,Zuid-Holland,VBO,4.314575,51.797035
Willem-Alexanderstraat,2,,,3265BW,Piershil,Korendijk,Zuid-Holland,VBO,4.312676,51.796653
Willem-Alexanderstraat,3,,,3265BW,Piershil,Korendijk,Zuid-Holland,VBO,4.314661,51.796986
Willem-Alexanderstraat,4,,,3265BW,Piershil,Korendijk,Zuid-Holland,VBO,4.312835,51.796664
Willem-Alexanderstraat,5,,,3265BW,Piershil,Korendijk,Zuid-Holland,VBO,4.314605,51.796918
Willem-Alexanderstraat,6,,,3265BW,Piershil,Korendijk,Zuid-Holland,VBO,4.312957,51.796705
Willem-Alexanderstraat,7,,,3265BW,Piershil,Korendijk,Zuid-Holland,VBO,4.314650,51.796855
Willem-Alexanderstraat,8,,,3265BW,Piershil,Korendijk,Zuid-Holland,VBO,4.313043,51.796733
Willem-Alexanderstraat,9,,,3265BW,Piershil,Korendijk,Zuid-Holland,VBO,4.314673,51.796784
Willem-Alexanderstraat,10,,,3265BW,Piershil,Korendijk,Zuid-Holland,VBO,4.313145,51.796743
Willem-Alexanderstraat,11,,,3265BW,Piershil,Korendijk,Zuid-Holland,VBO,4.314668,51.796712
Willem-Alexanderstraat,12,,,3265BW,Piershil,Korendijk,Zuid-Holland,VBO,4.313232,51.796744
Willem-Alexanderstraat,13,,,3265BW,Piershil,Korendijk,Zuid-Holland,VBO,4.314683,51.796658
Willem-Alexanderstraat,14,,,3265BW,Piershil,Korendijk,Zuid-Holland,VBO,4.313318,51.796762
Willem-Alexanderstraat,15,,,3265BW,Piershil,Korendijk,Zuid-Holland,VBO,4.314685,51.796595
Willem-Alexanderstraat,16,,,3265BW,Piershil,Korendijk,Zuid-Holland,VBO,4.313420,51.796763
Willem-Alexanderstraat,18,,,3265BW,Piershil,Korendijk,Zuid-Holland,VBO,4.313593,51.796774
Willem-Alexanderstraat,20,,,3265BW,Piershil,Korendijk,Zuid-Holland,VBO,4.313694,51.796802
Willem-Alexanderstraat,22,,,3265BW,Piershil,Korendijk,Zuid-Holland,VBO,4.313766,51.796820
Willem-Alexanderstraat,24,,,3265BW,Piershil,Korendijk,Zuid-Holland,VBO,4.313868,51.796812
Willem-Alexanderstraat,26,,,3265BW,Piershil,Korendijk,Zuid-Holland,VBO,4.313955,51.796822
Willem-Alexanderstraat,28,,,3265BW,Piershil,Korendijk,Zuid-Holland,VBO,4.314070,51.796841
Van Vollenhovenstraat,1,,,3265BX,Piershil,Korendijk,Zuid-Holland,VBO,4.314208,51.795935
Van Vollenhovenstraat,2,,,3265BX,Piershil,Korendijk,Zuid-Holland,VBO,4.314300,51.795720
Van Vollenhovenstraat,3,,,3265BX,Piershil,Korendijk,Zuid-Holland,VBO,4.314294,51.795944
Van Vollenhovenstraat,4,A,,3265BX,Piershil,Korendijk,Zuid-Holland,VBO,4.314375,51.795603
Van Vollenhovenstraat,4,,,3265BX,Piershil,Korendijk,Zuid-Holland,VBO,4.314372,51.795729
Van Vollenhovenstraat,5,,,3265BX,Piershil,Korendijk,Zuid-Holland,VBO,4.314381,51.795954
Van Vollenhovenstraat,6,,,3265BX,Piershil,Korendijk,Zuid-Holland,VBO,4.314473,51.795739
Van Vollenhovenstraat,7,,,3265BX,Piershil,Korendijk,Zuid-Holland,VBO,4.314468,51.795964
Van Vollenhovenstraat,8,,,3265BX,Piershil,Korendijk,Zuid-Holland,VBO,4.314545,51.795749
Van Vollenhovenstraat,9,,,3265BX,Piershil,Korendijk,Zuid-Holland,VBO,4.314575,51.796032
Van Vollenhovenstraat,10,,,3265BX,Piershil,Korendijk,Zuid-Holland,VBO,4.315007,51.795843
Van Vollenhovenstraat,11,,,3265BX,Piershil,Korendijk,Zuid-Holland,VBO,4.314683,51.796047
Van Vollenhovenstraat,12,,,3265BX,Piershil,Korendijk,Zuid-Holland,VBO,4.315064,51.795870
Van Vollenhovenstraat,13,,,3265BX,Piershil,Korendijk,Zuid-Holland,VBO,4.314756,51.796056
Van Vollenhovenstraat,14,,,3265BX,Piershil,Korendijk,Zuid-Holland,VBO,4.315137,51.795871
Van Vollenhovenstraat,15,,,3265BX,Piershil,Korendijk,Zuid-Holland,VBO,4.314828,51.796066
Van Vollenhovenstraat,16,,,3265BX,Piershil,Korendijk,Zuid-Holland,VBO,4.315223,51.795899
Van Vollenhovenstraat,17,,,3265BX,Piershil,Korendijk,Zuid-Holland,VBO,4.314900,51.796076
Van Vollenhovenstraat,19,,,3265BX,Piershil,Korendijk,Zuid-Holland,VBO,4.314987,51.796085
Van Vollenhovenstraat,21,,,3265BX,Piershil,Korendijk,Zuid-Holland,VBO,4.315132,51.796091
Van Vollenhovenstraat,23,,,3265BX,Piershil,Korendijk,Zuid-Holland,VBO,4.315233,51.796097
Van Vollenhovenstraat,25,,,3265BX,Piershil,Korendijk,Zuid-Holland,VBO,4.315320,51.796098
Van Vollenhovenstraat,27,,,3265BX,Piershil,Korendijk,Zuid-Holland,VBO,4.315392,51.796107
Van Vollenhovenstraat,29,,,3265BX,Piershil,Korendijk,Zuid-Holland,VBO,4.315464,51.796117
Van Vollenhovenstraat,31,,,3265BX,Piershil,Korendijk,Zuid-Holland,VBO,4.315537,51.796135
Heemlaan,1,,,3265BZ,Piershil,Korendijk,Zuid-Holland,VBO,4.316454,51.793510
Heemlaan,2,,,3265BZ,Piershil,Korendijk,Zuid-Holland,VBO,4.315980,51.792733
Heemlaan,3,,,3265BZ,Piershil,Korendijk,Zuid-Holland,VBO,4.316412,51.793447
Heemlaan,4,,,3265BZ,Piershil,Korendijk,Zuid-Holland,VBO,4.315967,51.792661
Heemlaan,5,,,3265BZ,Piershil,Korendijk,Zuid-Holland,VBO,4.316400,51.793348
Heemlaan,6,,,3265BZ,Piershil,Korendijk,Zuid-Holland,VBO,4.315969,51.792598
Heemlaan,7,,,3265BZ,Piershil,Korendijk,Zuid-Holland,VBO,4.316482,51.793268
Heemlaan,8,,,3265BZ,Piershil,Korendijk,Zuid-Holland,VBO,4.315970,51.792535
Heemlaan,9,,,3265BZ,Piershil,Korendijk,Zuid-Holland,VBO,4.316433,51.793168
Heemlaan,10,,,3265BZ,Piershil,Korendijk,Zuid-Holland,VBO,4.315971,51.792481
Heemlaan,11,,,3265BZ,Piershil,Korendijk,Zuid-Holland,VBO,4.316405,51.793132
Heemlaan,12,,,3265BZ,Piershil,Korendijk,Zuid-Holland,VBO,4.315922,51.792705
Heemlaan,13,,,3265BZ,Piershil,Korendijk,Zuid-Holland,VBO,4.316422,51.793024
Heemlaan,14,,,3265BZ,Piershil,Korendijk,Zuid-Holland,VBO,4.315924,51.792651
Heemlaan,15,,,3265BZ,Piershil,Korendijk,Zuid-Holland,VBO,4.316453,51.792971
Heemlaan,16,,,3265BZ,Piershil,Korendijk,Zuid-Holland,VBO,4.315940,51.792588
Heemlaan,17,,,3265BZ,Piershil,Korendijk,Zuid-Holland,VBO,4.316483,51.792926
Heemlaan,18,,,3265BZ,Piershil,Korendijk,Zuid-Holland,VBO,4.315941,51.792535
Heemlaan,19,,,3265BZ,Piershil,Korendijk,Zuid-Holland,VBO,4.316572,51.792828
Heemlaan,20,,,3265BZ,Piershil,Korendijk,Zuid-Holland,VBO,4.315942,51.792481
Heemlaan,21,,,3265BZ,Piershil,Korendijk,Zuid-Holland,VBO,4.316514,51.792809
Heemlaan,23,,,3265BZ,Piershil,Korendijk,Zuid-Holland,VBO,4.316428,51.792791
Heemlaan,25,,,3265BZ,Piershil,Korendijk,Zuid-Holland,VBO,4.316446,51.792629
Heemlaan,27,,,3265BZ,Piershil,Korendijk,Zuid-Holland,VBO,4.316448,51.792566
Heemlaan,29,,,3265BZ,Piershil,Korendijk,Zuid-Holland,VBO,4.316449,51.792521
Heemlaan,31,,,3265BZ,Piershil,Korendijk,Zuid-Holland,VBO,4.316450,51.792476
Heemlaan,33,,,3265BZ,Piershil,Korendijk,Zuid-Holland,VBO,4.316466,51.792413
Heemlaan,39,,,3265BZ,Piershil,Korendijk,Zuid-Holland,VBO,4.316540,51.792014
Heemlaan,41,,,3265BZ,Piershil,Korendijk,Zuid-Holland,VBO,4.316550,51.791920
Heemlaan,43,,,3265BZ,Piershil,Korendijk,Zuid-Holland,VBO,4.316552,51.791834
Heemlaan,45,,,3265BZ,Piershil,Korendijk,Zuid-Holland,VBO,4.316561,51.791745
Heemlaan,47,,,3265BZ,Piershil,Korendijk,Zuid-Holland,VBO,4.316556,51.791650
Heemlaan,49,,,3265BZ,Piershil,Korendijk,Zuid-Holland,VBO,4.316559,51.791556
Kievitstraat,1,,,3265CB,Piershil,Korendijk,Zuid-Holland,VBO,4.315976,51.792283
Kievitstraat,2,,,3265CB,Piershil,Korendijk,Zuid-Holland,VBO,4.315826,51.792489
Kievitstraat,3,,,3265CB,Piershil,Korendijk,Zuid-Holland,VBO,4.315752,51.792254
Kievitstraat,4,,,3265CB,Piershil,Korendijk,Zuid-Holland,VBO,4.315710,51.792487
Kievitstraat,5,,,3265CB,Piershil,Korendijk,Zuid-Holland,VBO,4.315440,51.792278
Kievitstraat,6,,,3265CB,Piershil,Korendijk,Zuid-Holland,VBO,4.315609,51.792487
Kievitstraat,7,,,3265CB,Piershil,Korendijk,Zuid-Holland,VBO,4.315164,51.792285
Kievitstraat,8,,,3265CB,Piershil,Korendijk,Zuid-Holland,VBO,4.315522,51.792477
Kievitstraat,9,,,3265CB,Piershil,Korendijk,Zuid-Holland,VBO,4.314701,51.792254
Kievitstraat,10,,,3265CB,Piershil,Korendijk,Zuid-Holland,VBO,4.315421,51.792467
Kievitstraat,11,,,3265CB,Piershil,Korendijk,Zuid-Holland,VBO,4.314266,51.792259
Kievitstraat,12,,,3265CB,Piershil,Korendijk,Zuid-Holland,VBO,4.315811,51.792506
Kievitstraat,13,,,3265CB,Piershil,Korendijk,Zuid-Holland,VBO,4.314269,51.792203
Kievitstraat,14,,,3265CB,Piershil,Korendijk,Zuid-Holland,VBO,4.315710,51.792505
Kievitstraat,15,,,3265CB,Piershil,Korendijk,Zuid-Holland,VBO,4.314273,51.792144
Kievitstraat,16,,,3265CB,Piershil,Korendijk,Zuid-Holland,VBO,4.315623,51.792496
Kievitstraat,17,,,3265CB,Piershil,Korendijk,Zuid-Holland,VBO,4.314276,51.792084
Kievitstraat,18,,,3265CB,Piershil,Korendijk,Zuid-Holland,VBO,4.315522,51.792495
Kievitstraat,19,,,3265CB,Piershil,Korendijk,Zuid-Holland,VBO,4.314280,51.791995
Kievitstraat,20,,,3265CB,Piershil,Korendijk,Zuid-Holland,VBO,4.315420,51.792494
Kievitstraat,21,,,3265CB,Piershil,Korendijk,Zuid-Holland,VBO,4.314282,51.791940
Kievitstraat,22,,,3265CB,Piershil,Korendijk,Zuid-Holland,VBO,4.315157,51.792581
Kievitstraat,23,,,3265CB,Piershil,Korendijk,Zuid-Holland,VBO,4.314287,51.791881
Kievitstraat,24,,,3265CB,Piershil,Korendijk,Zuid-Holland,VBO,4.315157,51.792572
Kievitstraat,25,,,3265CB,Piershil,Korendijk,Zuid-Holland,VBO,4.314289,51.791821
Kievitstraat,26,,,3265CB,Piershil,Korendijk,Zuid-Holland,VBO,4.315158,51.792563
Kievitstraat,27,,,3265CB,Piershil,Korendijk,Zuid-Holland,VBO,4.314639,51.791850
Kievitstraat,28,,,3265CB,Piershil,Korendijk,Zuid-Holland,VBO,4.315157,51.792577
Kievitstraat,30,,,3265CB,Piershil,Korendijk,Zuid-Holland,VBO,4.315186,51.792582
Kievitstraat,32,,,3265CB,Piershil,Korendijk,Zuid-Holland,VBO,4.315186,51.792573
Kievitstraat,33,,,3265CB,Piershil,Korendijk,Zuid-Holland,VBO,4.315221,51.791888
Kievitstraat,34,,,3265CB,Piershil,Korendijk,Zuid-Holland,VBO,4.315186,51.792568
Kievitstraat,35,,,3265CB,Piershil,Korendijk,Zuid-Holland,VBO,4.315462,51.791866
Kievitstraat,36,,,3265CB,Piershil,Korendijk,Zuid-Holland,VBO,4.315187,51.792559
Kievitstraat,37,,,3265CB,Piershil,Korendijk,Zuid-Holland,VBO,4.315685,51.791889
Kievitstraat,38,,,3265CB,Piershil,Korendijk,Zuid-Holland,VBO,4.315230,51.792582
Kievitstraat,40,,,3265CB,Piershil,Korendijk,Zuid-Holland,VBO,4.315230,51.792573
Kievitstraat,41,,,3265CB,Piershil,Korendijk,Zuid-Holland,VBO,4.316059,51.791866
Kievitstraat,42,,,3265CB,Piershil,Korendijk,Zuid-Holland,VBO,4.315244,51.792564
Kievitstraat,44,,,3265CB,Piershil,Korendijk,Zuid-Holland,VBO,4.315245,51.792551
Kievitstraat,46,,,3265CB,Piershil,Korendijk,Zuid-Holland,VBO,4.315245,51.792542
Kievitstraat,48,,,3265CB,Piershil,Korendijk,Zuid-Holland,VBO,4.315287,51.792587
Kievitstraat,50,,,3265CB,Piershil,Korendijk,Zuid-Holland,VBO,4.315288,51.792574
Kievitstraat,52,,,3265CB,Piershil,Korendijk,Zuid-Holland,VBO,4.315288,51.792560
Kievitstraat,54,,,3265CB,Piershil,Korendijk,Zuid-Holland,VBO,4.315288,51.792551
Kievitstraat,56,,,3265CB,Piershil,Korendijk,Zuid-Holland,VBO,4.315296,51.792533
Kievitstraat,58,,,3265CB,Piershil,Korendijk,Zuid-Holland,VBO,4.314804,51.792484
Kievitstraat,60,,,3265CB,Piershil,Korendijk,Zuid-Holland,VBO,4.314382,51.792547
Kievitstraat,62,,,3265CB,Piershil,Korendijk,Zuid-Holland,VBO,4.313805,51.792443
Kievitstraat,64,,,3265CB,Piershil,Korendijk,Zuid-Holland,VBO,4.313650,51.792248
Kievitstraat,66,,,3265CB,Piershil,Korendijk,Zuid-Holland,VBO,4.313582,51.792050
Kievitstraat,68,,,3265CB,Piershil,Korendijk,Zuid-Holland,VBO,4.313668,51.791813
Kievitstraat,70,,,3265CB,Piershil,Korendijk,Zuid-Holland,VBO,4.313773,51.791661
Kievitstraat,72,,,3265CB,Piershil,Korendijk,Zuid-Holland,VBO,4.314355,51.791585
Kievitstraat,74,,,3265CB,Piershil,Korendijk,Zuid-Holland,VBO,4.314789,51.791594
Kievitstraat,76,,,3265CB,Piershil,Korendijk,Zuid-Holland,VBO,4.315035,51.791609
Kievitstraat,78,,,3265CB,Piershil,Korendijk,Zuid-Holland,VBO,4.315384,51.791586
Kievitstraat,80,,,3265CB,Piershil,Korendijk,Zuid-Holland,VBO,4.315781,51.791630
Kievitstraat,82,,,3265CB,Piershil,Korendijk,Zuid-Holland,VBO,4.316079,51.791628
Johan Frisopad,1,,,3265CC,Piershil,Korendijk,Zuid-Holland,VBO,4.316065,51.796154
Johan Frisopad,2,,,3265CC,Piershil,Korendijk,Zuid-Holland,VBO,4.316064,51.796221
Johan Frisopad,3,,,3265CC,Piershil,Korendijk,Zuid-Holland,VBO,4.316048,51.796257
Johan Frisopad,4,,,3265CC,Piershil,Korendijk,Zuid-Holland,VBO,4.316032,51.796320
Johan Frisopad,5,,,3265CC,Piershil,Korendijk,Zuid-Holland,VBO,4.316024,51.796351
Johan Frisopad,6,,,3265CC,Piershil,Korendijk,Zuid-Holland,VBO,4.315906,51.796444
Johan Frisopad,7,,,3265CC,Piershil,Korendijk,Zuid-Holland,VBO,4.315876,51.796507
Johan Frisopad,8,,,3265CC,Piershil,Korendijk,Zuid-Holland,VBO,4.315874,51.796561
Johan Frisopad,9,,,3265CC,Piershil,Korendijk,Zuid-Holland,VBO,4.315844,51.796633
Reigerstraat,2,,,3265CD,Piershil,Korendijk,Zuid-Holland,VBO,4.316904,51.791640
Reigerstraat,4,,,3265CD,Piershil,Korendijk,Zuid-Holland,VBO,4.317165,51.791674
Reigerstraat,6,,,3265CD,Piershil,Korendijk,Zuid-Holland,VBO,4.317526,51.791713
Reigerstraat,8,,,3265CD,Piershil,Korendijk,Zuid-Holland,VBO,4.317525,51.791767
Reigerstraat,10,,,3265CD,Piershil,Korendijk,Zuid-Holland,VBO,4.317553,51.791812
Reigerstraat,12,,,3265CD,Piershil,Korendijk,Zuid-Holland,VBO,4.317566,51.791857
Reigerstraat,14,,,3265CD,Piershil,Korendijk,Zuid-Holland,VBO,4.317580,51.791902
Reigerstraat,16,,,3265CD,Piershil,Korendijk,Zuid-Holland,VBO,4.317578,51.791956
Reigerstraat,18,,,3265CD,Piershil,Korendijk,Zuid-Holland,VBO,4.317675,51.792164
Reigerstraat,20,,,3265CD,Piershil,Korendijk,Zuid-Holland,VBO,4.317674,51.792182
Reigerstraat,22,,,3265CD,Piershil,Korendijk,Zuid-Holland,VBO,4.317674,51.792209
Reigerstraat,24,,,3265CD,Piershil,Korendijk,Zuid-Holland,VBO,4.317673,51.792236
Reigerstraat,26,,,3265CD,Piershil,Korendijk,Zuid-Holland,VBO,4.317687,51.792272
Reigerstraat,28,,,3265CD,Piershil,Korendijk,Zuid-Holland,VBO,4.317701,51.792290
Reigerstraat,30,,,3265CD,Piershil,Korendijk,Zuid-Holland,VBO,4.317714,51.792335
Reigerstraat,32,,,3265CD,Piershil,Korendijk,Zuid-Holland,VBO,4.317699,51.792362
Reigerstraat,34,,,3265CD,Piershil,Korendijk,Zuid-Holland,VBO,4.317698,51.792398
Reigerstraat,36,,,3265CD,Piershil,Korendijk,Zuid-Holland,VBO,4.317698,51.792425
Reigerstraat,38,,,3265CD,Piershil,Korendijk,Zuid-Holland,VBO,4.317726,51.792461
Reigerstraat,40,,,3265CD,Piershil,Korendijk,Zuid-Holland,VBO,4.317711,51.792479
Reigerstraat,42,,,3265CD,Piershil,Korendijk,Zuid-Holland,VBO,4.317739,51.792506
Reigerstraat,44,,,3265CD,Piershil,Korendijk,Zuid-Holland,VBO,4.317739,51.792533
Reigerstraat,46,,,3265CD,Piershil,Korendijk,Zuid-Holland,VBO,4.317767,51.792551
Reigerstraat,48,,,3265CD,Piershil,Korendijk,Zuid-Holland,VBO,4.317766,51.792578
Reigerstraat,50,,,3265CD,Piershil,Korendijk,Zuid-Holland,VBO,4.317878,51.792768
Reigerstraat,52,,,3265CD,Piershil,Korendijk,Zuid-Holland,VBO,4.317877,51.792822
Reigerstraat,54,,,3265CD,Piershil,Korendijk,Zuid-Holland,VBO,4.317890,51.792867
Reigerstraat,56,,,3265CD,Piershil,Korendijk,Zuid-Holland,VBO,4.317904,51.792912
Reigerstraat,58,,,3265CD,Piershil,Korendijk,Zuid-Holland,VBO,4.317917,51.792966
Reigerstraat,60,,,3265CD,Piershil,Korendijk,Zuid-Holland,VBO,4.317945,51.793002
Reigerstraat,62,,,3265CD,Piershil,Korendijk,Zuid-Holland,VBO,4.317944,51.793056
Reigerstraat,64,,,3265CD,Piershil,Korendijk,Zuid-Holland,VBO,4.317972,51.793101
Fazantstraat,1,,,3265CE,Piershil,Korendijk,Zuid-Holland,VBO,4.316940,51.792278
Fazantstraat,2,,,3265CE,Piershil,Korendijk,Zuid-Holland,VBO,4.316795,51.791972
Fazantstraat,3,,,3265CE,Piershil,Korendijk,Zuid-Holland,VBO,4.316921,51.792476
Fazantstraat,4,,,3265CE,Piershil,Korendijk,Zuid-Holland,VBO,4.316947,51.791973
Fazantstraat,5,,,3265CE,Piershil,Korendijk,Zuid-Holland,VBO,4.316925,51.792602
Fazantstraat,6,,,3265CE,Piershil,Korendijk,Zuid-Holland,VBO,4.317071,51.791974
Fazantstraat,8,,,3265CE,Piershil,Korendijk,Zuid-Holland,VBO,4.317208,51.791975
Fazantstraat,10,,,3265CE,Piershil,Korendijk,Zuid-Holland,VBO,4.317284,51.792461
Fazantstraat,12,,,3265CE,Piershil,Korendijk,Zuid-Holland,VBO,4.317273,51.792601
Fazantstraat,14,,,3265CE,Piershil,Korendijk,Zuid-Holland,VBO,4.317391,51.792817
Meerkoet,3,,,3265CV,Piershil,Korendijk,Zuid-Holland,VBO,4.319741,51.793034
Meerkoet,5,,,3265CV,Piershil,Korendijk,Zuid-Holland,VBO,4.319766,51.792971
Meerkoet,9,,,3265CV,Piershil,Korendijk,Zuid-Holland,VBO,4.319870,51.792727
Meerkoet,11,,,3265CV,Piershil,Korendijk,Zuid-Holland,VBO,4.319901,51.792661
Meerkoet,13,,,3265CV,Piershil,Korendijk,Zuid-Holland,VBO,4.319943,51.792590
Meerkoet,15,,,3265CV,Piershil,Korendijk,Zuid-Holland,VBO,4.319972,51.792533
Meerkoet,17,,,3265CV,Piershil,Korendijk,Zuid-Holland,VBO,4.320007,51.792464
Meerkoet,19,,,3265CV,Piershil,Korendijk,Zuid-Holland,VBO,4.320035,51.792398
Smient,2,,,3265CW,Piershil,Korendijk,Zuid-Holland,VBO,4.319208,51.792555
Smient,4,,,3265CW,Piershil,Korendijk,Zuid-Holland,VBO,4.319110,51.792558
Smient,6,,,3265CW,Piershil,Korendijk,Zuid-Holland,VBO,4.318948,51.792570
Smient,8,,,3265CW,Piershil,Korendijk,Zuid-Holland,VBO,4.318849,51.792572
Smient,10,,,3265CW,Piershil,Korendijk,Zuid-Holland,VBO,4.318754,51.792574
Smient,12,,,3265CW,Piershil,Korendijk,Zuid-Holland,VBO,4.318650,51.792580
Smient,14,,,3265CW,Piershil,Korendijk,Zuid-Holland,VBO,4.318557,51.792584
Smient,16,,,3265CW,Piershil,Korendijk,Zuid-Holland,VBO,4.318460,51.792589
Waterhoen,1,,,3265CX,Piershil,Korendijk,Zuid-Holland,VBO,4.319177,51.792839
Waterhoen,3,,,3265CX,Piershil,Korendijk,Zuid-Holland,VBO,4.319086,51.792840
Waterhoen,5,,,3265CX,Piershil,Korendijk,Zuid-Holland,VBO,4.319001,51.792847
Waterhoen,7,,,3265CX,Piershil,Korendijk,Zuid-Holland,VBO,4.318912,51.792849
Waterhoen,9,,,3265CX,Piershil,Korendijk,Zuid-Holland,VBO,4.318836,51.792856
Waterhoen,11,,,3265CX,Piershil,Korendijk,Zuid-Holland,VBO,4.318662,51.792852
Waterhoen,13,,,3265CX,Piershil,Korendijk,Zuid-Holland,VBO,4.318560,51.792856
Fuut,1,,,3265CZ,Piershil,Korendijk,Zuid-Holland,VBO,4.319036,51.793232
Fuut,3,,,3265CZ,Piershil,Korendijk,Zuid-Holland,VBO,4.318960,51.793233
Fuut,5,,,3265CZ,Piershil,Korendijk,Zuid-Holland,VBO,4.318882,51.793238
Fuut,7,,,3265CZ,Piershil,Korendijk,Zuid-Holland,VBO,4.318806,51.793243
Fuut,9,,,3265CZ,Piershil,Korendijk,Zuid-Holland,VBO,4.318725,51.793247
Fuut,11,,,3265CZ,Piershil,Korendijk,Zuid-Holland,VBO,4.318648,51.793249
Dorpsweg,9,A,,3265LA,Piershil,Korendijk,Zuid-Holland,VBO,4.343198,51.801733
Dorpsweg,9,B,,3265LA,Piershil,Korendijk,Zuid-Holland,VBO,4.343145,51.801535
Dorpsweg,11,,,3265LA,Piershil,Korendijk,Zuid-Holland,VBO,4.343014,51.799979
Nieuw-Piershilseweg,1,,,3265LC,Piershil,Korendijk,Zuid-Holland,VBO,4.341862,51.798245
Nieuw-Piershilseweg,2,A,,3265LC,Piershil,Korendijk,Zuid-Holland,VBO,4.345565,51.799049
Nieuw-Piershilseweg,2,,,3265LC,Piershil,Korendijk,Zuid-Holland,VBO,4.345475,51.798571
Nieuw-Piershilseweg,3,,,3265LC,Piershil,Korendijk,Zuid-Holland,VBO,4.356516,51.798193
Nieuw-Piershilseweg,4,A,,3265LC,Piershil,Korendijk,Zuid-Holland,VBO,4.348622,51.798536
Nieuw-Piershilseweg,4,,,3265LC,Piershil,Korendijk,Zuid-Holland,VBO,4.348152,51.798483
Nieuw-Piershilseweg,5,A,,3265LC,Piershil,Korendijk,Zuid-Holland,VBO,4.357635,51.798104
Nieuw-Piershilseweg,5,,,3265LC,Piershil,Korendijk,Zuid-Holland,VBO,4.357470,51.798026
Nieuw-Piershilseweg,6,,,3265LC,Piershil,Korendijk,Zuid-Holland,VBO,4.350901,51.798422
Nieuw-Piershilseweg,7,,,3265LC,Piershil,Korendijk,Zuid-Holland,VBO,4.359800,51.797880
Nieuw-Piershilseweg,9,A,,3265LC,Piershil,Korendijk,Zuid-Holland,VBO,4.360499,51.797760
Nieuw-Piershilseweg,9,,,3265LC,Piershil,Korendijk,Zuid-Holland,VBO,4.361138,51.797707
Nieuw-Piershilseweg,11,,,3265LC,Piershil,Korendijk,Zuid-Holland,VBO,4.362879,51.797655
Kostverlorendijk,1,A,,3265LD,Piershil,Korendijk,Zuid-Holland,VBO,4.323378,51.781451
Kostverlorendijk,1,,,3265LD,Piershil,Korendijk,Zuid-Holland,VBO,4.323279,51.781329
Kostverlorendijk,2,,,3265LD,Piershil,Korendijk,Zuid-Holland,VBO,4.322640,51.780784
Kostverlorendijk,3,A,,3265LD,Piershil,Korendijk,Zuid-Holland,VBO,4.329624,51.782389
Kostverlorendijk,3,,,3265LD,Piershil,Korendijk,Zuid-Holland,VBO,4.329867,51.782216
Kostverlorendijk,4,,,3265LD,Piershil,Korendijk,Zuid-Holland,VBO,4.322814,51.780803
Oosthoek,1,,,3265LE,Piershil,Korendijk,Zuid-Holland,VBO,4.332635,51.802061
Oosthoek,2,,,3265LE,Piershil,Korendijk,Zuid-Holland,VBO,4.332024,51.802173
Oosthoek,3,,,3265LE,Piershil,Korendijk,Zuid-Holland,VBO,4.333470,51.801691
Oosthoek,4,,,3265LE,Piershil,Korendijk,Zuid-Holland,VBO,4.341592,51.797836
Oosthoek,5,,,3265LE,Piershil,Korendijk,Zuid-Holland,VBO,4.334511,51.801215
Oosthoek,6,,,3265LE,Piershil,Korendijk,Zuid-Holland,VBO,4.341540,51.793361
Oosthoek,7,,,3265LE,Piershil,Korendijk,Zuid-Holland,VBO,4.334877,51.801061
Oosthoek,8,,,3265LE,Piershil,Korendijk,Zuid-Holland,VBO,4.340206,51.791351
Oosthoek,9,,,3265LE,Piershil,Korendijk,Zuid-Holland,VBO,4.335491,51.800817
Oosthoek,10,,,3265LE,Piershil,Korendijk,Zuid-Holland,VBO,4.337029,51.788321
Oosthoek,11,A,,3265LE,Piershil,Korendijk,Zuid-Holland,VBO,4.337200,51.800296
Oosthoek,11,,,3265LE,Piershil,Korendijk,Zuid-Holland,VBO,4.336152,51.800475
Oosthoek,13,,,3265LE,Piershil,Korendijk,Zuid-Holland,VBO,4.337603,51.799818
Oosthoek,15,,,3265LE,Piershil,Korendijk,Zuid-Holland,VBO,4.338100,51.799634
Oosthoek,19,,,3265LE,Piershil,Korendijk,Zuid-Holland,VBO,4.339155,51.799126
Oosthoek,21,,,3265LE,Piershil,Korendijk,Zuid-Holland,VBO,4.339683,51.798884
Oosthoek,23,,,3265LE,Piershil,Korendijk,Zuid-Holland,VBO,4.340209,51.799001
Oosthoek,25,,,3265LE,Piershil,Korendijk,Zuid-Holland,VBO,4.340868,51.798405
Oosthoek,27,,,3265LE,Piershil,Korendijk,Zuid-Holland,VBO,4.337871,51.787640
Oosthoek,29,,,3265LE,Piershil,Korendijk,Zuid-Holland,VBO,4.336321,51.783905
Oosthoek,31,,,3265LE,Piershil,Korendijk,Zuid-Holland,VBO,4.334888,51.783178
Oud Piershilseweg,1,A,,3265LG,Piershil,Korendijk,Zuid-Holland,VBO,4.319408,51.793977
Oud Piershilseweg,1,,,3265LG,Piershil,Korendijk,Zuid-Holland,VBO,4.319778,51.793954
Oud Piershilseweg,2,,,3265LG,Piershil,Korendijk,Zuid-Holland,VBO,4.319551,51.793574
Oud Piershilseweg,3,,,3265LG,Piershil,Korendijk,Zuid-Holland,VBO,4.320141,51.793930
Oud Piershilseweg,4,A,,3265LG,Piershil,Korendijk,Zuid-Holland,VBO,4.326641,51.793666
Oud Piershilseweg,4,,,3265LG,Piershil,Korendijk,Zuid-Holland,VBO,4.320382,51.793555
Oud Piershilseweg,5,,,3265LG,Piershil,Korendijk,Zuid-Holland,VBO,4.320490,51.794120
Oud Piershilseweg,6,,,3265LG,Piershil,Korendijk,Zuid-Holland,VBO,4.336401,51.797232
Oud Piershilseweg,7,,,3265LG,Piershil,Korendijk,Zuid-Holland,VBO,4.321102,51.794042
Oud Piershilseweg,8,,,3265LG,Piershil,Korendijk,Zuid-Holland,VBO,4.339653,51.798290
Oud Piershilseweg,9,,,3265LG,Piershil,Korendijk,Zuid-Holland,VBO,4.322233,51.794327
Oud Piershilseweg,11,A,,3265LG,Piershil,Korendijk,Zuid-Holland,VBO,4.323031,51.794427
Oud Piershilseweg,11,,,3265LG,Piershil,Korendijk,Zuid-Holland,VBO,4.322776,51.794080
Sluisjesdijk,1,A,,3265LH,Piershil,Korendijk,Zuid-Holland,VBO,4.312519,51.793168
Sluisjesdijk,1,,,3265LH,Piershil,Korendijk,Zuid-Holland,VBO,4.312519,51.793177
Sluisjesdijk,3,,,3265LH,Piershil,Korendijk,Zuid-Holland,VBO,4.312522,51.793061
Sluisjesdijk,5,,,3265LH,Piershil,Korendijk,Zuid-Holland,VBO,4.312666,51.792801
Sluisjesdijk,7,,,3265LH,Piershil,Korendijk,Zuid-Holland,VBO,4.312922,51.792066
Sluisjesdijk,9,,,3265LH,Piershil,Korendijk,Zuid-Holland,VBO,4.312984,51.791914
Sluisjesdijk,11,,,3265LH,Piershil,Korendijk,Zuid-Holland,VBO,4.313195,51.791584
Sluisjesdijk,15,,,3265LH,Piershil,Korendijk,Zuid-Holland,VBO,4.313674,51.790875
Sluisjesdijk,17,,,3265LH,Piershil,Korendijk,Zuid-Holland,VBO,4.313735,51.790797
Sluisjesdijk,19,,,3265LH,Piershil,Korendijk,Zuid-Holland,VBO,4.313945,51.790558
Sluisjesdijk,21,,,3265LH,Piershil,Korendijk,Zuid-Holland,VBO,4.314014,51.790364
Sluisjesdijk,23,,,3265LH,Piershil,Korendijk,Zuid-Holland,VBO,4.314191,51.790222
Sluisjesdijk,25,,,3265LH,Piershil,Korendijk,Zuid-Holland,VBO,4.314592,51.789538
Sluisjesdijk,27,,,3265LH,Piershil,Korendijk,Zuid-Holland,VBO,4.315431,51.788377
Sluisjesdijk,29,,,3265LH,Piershil,Korendijk,Zuid-Holland,VBO,4.315573,51.788207
Sluisjesdijk,31,,,3265LH,Piershil,Korendijk,Zuid-Holland,VBO,4.315747,51.787885
Sluisjesdijk,33,,,3265LH,Piershil,Korendijk,Zuid-Holland,VBO,4.317062,51.786239
Sluisjesdijk,35,,,3265LH,Piershil,Korendijk,Zuid-Holland,VBO,4.318446,51.784692
Sluisjesdijk,37,,,3265LH,Piershil,Korendijk,Zuid-Holland,VBO,4.319477,51.784000
Sluisjesdijk,4,,,3265LJ,Piershil,Korendijk,Zuid-Holland,VBO,4.312189,51.793049
Sluisjesdijk,6,,,3265LJ,Piershil,Korendijk,Zuid-Holland,VBO,4.312264,51.792914
Sluisjesdijk,8,,,3265LJ,Piershil,Korendijk,Zuid-Holland,VBO,4.312288,51.792738
Sluisjesdijk,12,,,3265LJ,Piershil,Korendijk,Zuid-Holland,VBO,4.312401,51.792655
Sluisjesdijk,14,,,3265LJ,Piershil,Korendijk,Zuid-Holland,VBO,4.312432,51.792583
Sluisjesdijk,18,,,3265LJ,Piershil,Korendijk,Zuid-Holland,VBO,4.312508,51.792422
Sluisjesdijk,20,,,3265LJ,Piershil,Korendijk,Zuid-Holland,VBO,4.312584,51.792297
Sluisjesdijk,22,,,3265LJ,Piershil,Korendijk,Zuid-Holland,VBO,4.312624,51.792113
Sluisjesdijk,24,,,3265LJ,Piershil,Korendijk,Zuid-Holland,VBO,4.312677,51.792046
Sluisjesdijk,26,,,3265LJ,Piershil,Korendijk,Zuid-Holland,VBO,4.312752,51.791930
Sluisjesdijk,28,,,3265LJ,Piershil,Korendijk,Zuid-Holland,VBO,4.312917,51.791680
Sluisjesdijk,32,,,3265LJ,Piershil,Korendijk,Zuid-Holland,VBO,4.313039,51.791429
Sluisjesdijk,34,,,3265LJ,Piershil,Korendijk,Zuid-Holland,VBO,4.313486,51.790638
Sluisjesdijk,36,,,3265LJ,Piershil,Korendijk,Zuid-Holland,VBO,4.313994,51.789977
Sluisjesdijk,38,,,3265LJ,Piershil,Korendijk,Zuid-Holland,VBO,4.314721,51.788959
Sluisjesdijk,40,,,3265LJ,Piershil,Korendijk,Zuid-Holland,VBO,4.314796,51.788883
Sluisjesdijk,42,,,3265LJ,Piershil,Korendijk,Zuid-Holland,VBO,4.314954,51.788611
Sluisjesdijk,44,,,3265LJ,Piershil,Korendijk,Zuid-Holland,VBO,4.315442,51.787892
Sluisjesdijk,46,A,,3265LJ,Piershil,Korendijk,Zuid-Holland,VBO,4.317118,51.785225
Sluisjesdijk,46,,,3265LJ,Piershil,Korendijk,Zuid-Holland,VBO,4.316616,51.786379
Sluisjesdijk,48,A,,3265LJ,Piershil,Korendijk,Zuid-Holland,VBO,4.317345,51.783441
Sluisjesdijk,48,,,3265LJ,Piershil,Korendijk,Zuid-Holland,VBO,4.318326,51.784277
Sluisjesdijk,50,,,3265LJ,Piershil,Korendijk,Zuid-Holland,VBO,4.318016,51.783254
Sluisjesdijk,52,,,3265LJ,Piershil,Korendijk,Zuid-Holland,VBO,4.321315,51.781068
Sluisjesdijk,54,,,3265LJ,Piershil,Korendijk,Zuid-Holland,VBO,4.321549,51.780949
Zwartsluisje,1,,,3265LK,Piershil,Korendijk,Zuid-Holland,VBO,4.322281,51.780655
Zwartsluisje,2,,,3265LK,Piershil,Korendijk,Zuid-Holland,VBO,4.322043,51.780293
Zwartsluisje,3,,,3265LK,Piershil,Korendijk,Zuid-Holland,VBO,4.323633,51.778627
Zwartsluisje,4,A,,3265LK,Piershil,Korendijk,Zuid-Holland,VBO,4.322248,51.779895
Zwartsluisje,4,,,3265LK,Piershil,Korendijk,Zuid-Holland,VBO,4.322282,51.779972
Zwartsluisje,6,,,3265LK,Piershil,Korendijk,Zuid-Holland,VBO,4.322597,51.779543
Zwartsluisje,8,,,3265LK,Piershil,Korendijk,Zuid-Holland,VBO,4.322746,51.779347
Zwartsluisje,10,,,3265LK,Piershil,Korendijk,Zuid-Holland,VBO,4.322986,51.779034
Zwartsluisje,12,,,3265LK,Piershil,Korendijk,Zuid-Holland,VBO,4.323342,51.778669
Zwartsluisje,14,,,3265LK,Piershil,Korendijk,Zuid-Holland,VBO,4.323597,51.778321
Dromweg,1,A,,3265LL,Piershil,Korendijk,Zuid-Holland,VBO,4.335917,51.781955
Dromweg,1,,,3265LL,Piershil,Korendijk,Zuid-Holland,VBO,4.335387,51.781681
Buitenom,7,A,,3265LM,Nieuw-Beijerland,Korendijk,Zuid-Holland,VBO,4.347868,51.807339
Buitenom,7,,,3265LM,Piershil,Korendijk,Zuid-Holland,VBO,4.320366,51.791757
