openbareruimtenaam,huisnummer,huisletter,huisnummertoevoeging,postcode,woonplaatsnaam,gemeentenaam,provincienaam,typeadresseerbaarobject,longitude,latitude
Ampèrestraat,2,A,,3316AA,Dordrecht,Dordrecht,Zuid-Holland,VBO,4.647844,51.804267
Ampèrestraat,3,,,3316AA,Dordrecht,Dordrecht,Zuid-Holland,VBO,4.649387,51.804784
Ampèrestraat,5,,,3316AA,Dordrecht,Dordrecht,Zuid-Holland,VBO,4.649307,51.804496
Archimedesstraat,2,,,3316AB,Dordrecht,Dordrecht,Zuid-Holland,VBO,4.646239,51.800205
Archimedesstraat,12,,,3316AB,Dordrecht,Dordrecht,Zuid-Holland,VBO,4.646202,51.799968
Archimedesstraat,20,,,3316AB,Dordrecht,Dordrecht,Zuid-Holland,VBO,4.646197,51.799800
Lorentzstraat,1,A,,3316AB,Dordrecht,Dordrecht,Zuid-Holland,VBO,4.647099,51.800089
Lorentzstraat,1,B,,3316AB,Dordrecht,Dordrecht,Zuid-Holland,VBO,4.647092,51.799992
Lorentzstraat,3,,,3316AB,Dordrecht,Dordrecht,Zuid-Holland,VBO,4.647084,51.799897
Celsiusstraat,1,A,,3316AC,Dordrecht,Dordrecht,Zuid-Holland,VBO,4.643923,51.798883
Celsiusstraat,3,,,3316AC,Dordrecht,Dordrecht,Zuid-Holland,VBO,4.643897,51.799021
Celsiusstraat,5,A,,3316AC,Dordrecht,Dordrecht,Zuid-Holland,VBO,4.644095,51.798589
Celsiusstraat,5,B,,3316AC,Dordrecht,Dordrecht,Zuid-Holland,VBO,4.644084,51.798341
Celsiusstraat,5,,,3316AC,Dordrecht,Dordrecht,Zuid-Holland,VBO,4.644092,51.798458
Celsiusstraat,6,,,3316AC,Dordrecht,Dordrecht,Zuid-Holland,VBO,4.644639,51.798588
Celsiusstraat,8,,,3316AC,Dordrecht,Dordrecht,Zuid-Holland,VBO,4.644844,51.798496
Dokweg,5,,,3316AD,Dordrecht,Dordrecht,Zuid-Holland,VBO,4.651955,51.810058
Dokweg,7,,,3316AD,Dordrecht,Dordrecht,Zuid-Holland,VBO,4.651925,51.810033
Dokweg,9,,,3316AD,Dordrecht,Dordrecht,Zuid-Holland,VBO,4.651890,51.809999
Dokweg,11,,,3316AD,Dordrecht,Dordrecht,Zuid-Holland,VBO,4.651827,51.809944
Dokweg,13,,,3316AD,Dordrecht,Dordrecht,Zuid-Holland,VBO,4.651796,51.809918
Dokweg,15,,,3316AD,Dordrecht,Dordrecht,Zuid-Holland,VBO,4.651734,51.809863
Dokweg,17,,,3316AD,Dordrecht,Dordrecht,Zuid-Holland,VBO,4.651703,51.809836
Dokweg,19,A,,3316AD,Dordrecht,Dordrecht,Zuid-Holland,VBO,4.651168,51.809449
Edisonstraat,1,,,3316AE,Dordrecht,Dordrecht,Zuid-Holland,VBO,4.647941,51.805418
Edisonstraat,5,B,,3316AE,Dordrecht,Dordrecht,Zuid-Holland,VBO,4.647876,51.804771
Edisonstraat,7,,,3316AE,Dordrecht,Dordrecht,Zuid-Holland,VBO,4.647380,51.804357
Edisonstraat,12,,,3316AE,Dordrecht,Dordrecht,Zuid-Holland,VBO,4.648070,51.804632
Fahrenheitstraat,5,,,3316AG,Dordrecht,Dordrecht,Zuid-Holland,VBO,4.641999,51.798811
Fahrenheitstraat,7,,,3316AG,Dordrecht,Dordrecht,Zuid-Holland,VBO,4.642310,51.798807
Fahrenheitstraat,8,,,3316AG,Dordrecht,Dordrecht,Zuid-Holland,VBO,4.643077,51.798674
Fahrenheitstraat,9,,,3316AG,Dordrecht,Dordrecht,Zuid-Holland,VBO,4.642524,51.798804
Fahrenheitstraat,10,,,3316AG,Dordrecht,Dordrecht,Zuid-Holland,VBO,4.643303,51.798676
Fahrenheitstraat,12,,,3316AG,Dordrecht,Dordrecht,Zuid-Holland,VBO,4.643396,51.798681
Fahrenheitstraat,14,,,3316AG,Dordrecht,Dordrecht,Zuid-Holland,VBO,4.643487,51.798678
Fahrenheitstraat,15,,,3316AG,Dordrecht,Dordrecht,Zuid-Holland,VBO,4.643354,51.798827
Fahrenheitstraat,16,,,3316AG,Dordrecht,Dordrecht,Zuid-Holland,VBO,4.643922,51.798649
Faradaystraat,1,,,3316AH,Dordrecht,Dordrecht,Zuid-Holland,VBO,4.643713,51.799774
Faradaystraat,3,,,3316AH,Dordrecht,Dordrecht,Zuid-Holland,VBO,4.643815,51.800336
Faradaystraat,10,,,3316AH,Dordrecht,Dordrecht,Zuid-Holland,VBO,4.644022,51.800336
Archimedesstraat,5,,,3316AJ,Dordrecht,Dordrecht,Zuid-Holland,VBO,4.645658,51.799968
Archimedesstraat,7,,,3316AJ,Dordrecht,Dordrecht,Zuid-Holland,VBO,4.645489,51.799963
Archimedesstraat,9,,,3316AJ,Dordrecht,Dordrecht,Zuid-Holland,VBO,4.645263,51.799926
Archimedesstraat,11,,,3316AJ,Dordrecht,Dordrecht,Zuid-Holland,VBO,4.645918,51.799787
Archimedesstraat,13,,,3316AJ,Dordrecht,Dordrecht,Zuid-Holland,VBO,4.645713,51.799770
Archimedesstraat,15,,,3316AJ,Dordrecht,Dordrecht,Zuid-Holland,VBO,4.645615,51.799770
Archimedesstraat,17,,,3316AJ,Dordrecht,Dordrecht,Zuid-Holland,VBO,4.645462,51.799776
Archimedesstraat,19,,,3316AJ,Dordrecht,Dordrecht,Zuid-Holland,VBO,4.645350,51.799777
Archimedesstraat,21,,,3316AJ,Dordrecht,Dordrecht,Zuid-Holland,VBO,4.645897,51.799560
Laan der Verenigde Naties,1,,,3316AK,Dordrecht,Dordrecht,Zuid-Holland,VBO,4.649281,51.807779
Laan der Verenigde Naties,9,,,3316AK,Dordrecht,Dordrecht,Zuid-Holland,VBO,4.648775,51.807098
Laan der Verenigde Naties,55,,,3316AK,Dordrecht,Dordrecht,Zuid-Holland,VBO,4.648260,51.806727
Laan der Verenigde Naties,57,,,3316AK,Dordrecht,Dordrecht,Zuid-Holland,VBO,4.648279,51.806742
Laan der Verenigde Naties,59,,,3316AK,Dordrecht,Dordrecht,Zuid-Holland,VBO,4.648297,51.806757
Laan der Verenigde Naties,61,,,3316AK,Dordrecht,Dordrecht,Zuid-Holland,VBO,4.648315,51.806772
Laan der Verenigde Naties,63,,,3316AK,Dordrecht,Dordrecht,Zuid-Holland,VBO,4.648332,51.806787
Laan der Verenigde Naties,65,,,3316AK,Dordrecht,Dordrecht,Zuid-Holland,VBO,4.648350,51.806803
Laan der Verenigde Naties,67,,,3316AK,Dordrecht,Dordrecht,Zuid-Holland,VBO,4.648369,51.806819
Laan der Verenigde Naties,75,,,3316AK,Dordrecht,Dordrecht,Zuid-Holland,VBO,4.647841,51.806354
Laan der Verenigde Naties,81,A,,3316AK,Dordrecht,Dordrecht,Zuid-Holland,VBO,4.647796,51.806548
Laan der Verenigde Naties,83,,,3316AK,Dordrecht,Dordrecht,Zuid-Holland,VBO,4.647610,51.806144
Laan der Verenigde Naties,89,,,3316AK,Dordrecht,Dordrecht,Zuid-Holland,VBO,4.647532,51.806073
Laan der Verenigde Naties,95,,,3316AK,Dordrecht,Dordrecht,Zuid-Holland,VBO,4.647477,51.806024
Laan der Verenigde Naties,101,,,3316AK,Dordrecht,Dordrecht,Zuid-Holland,VBO,4.647373,51.805929
Laan der Verenigde Naties,109,,,3316AK,Dordrecht,Dordrecht,Zuid-Holland,VBO,4.647038,51.805627
Laan der Verenigde Naties,111,,,3316AK,Dordrecht,Dordrecht,Zuid-Holland,VBO,4.646474,51.805163
Louterbloemenstraat,11,,,3316AL,Dordrecht,Dordrecht,Zuid-Holland,VBO,4.643596,51.798179
Newtonstraat,12,,,3316AL,Dordrecht,Dordrecht,Zuid-Holland,VBO,4.645143,51.799801
Newtonstraat,14,,,3316AL,Dordrecht,Dordrecht,Zuid-Holland,VBO,4.645123,51.799576
Marconiweg,1,,,3316AM,Dordrecht,Dordrecht,Zuid-Holland,VBO,4.641908,51.799591
Marconiweg,2,A,,3316AM,Dordrecht,Dordrecht,Zuid-Holland,VBO,4.642061,51.799308
Marconiweg,2,,,3316AM,Dordrecht,Dordrecht,Zuid-Holland,VBO,4.641822,51.799322
Marconiweg,3,,,3316AM,Dordrecht,Dordrecht,Zuid-Holland,VBO,4.642343,51.799581
Marconiweg,4,,,3316AM,Dordrecht,Dordrecht,Zuid-Holland,VBO,4.642322,51.799302
Marconiweg,5,,,3316AM,Dordrecht,Dordrecht,Zuid-Holland,VBO,4.643027,51.799746
Marconiweg,6,,,3316AM,Dordrecht,Dordrecht,Zuid-Holland,VBO,4.642527,51.799299
Marconiweg,8,,,3316AM,Dordrecht,Dordrecht,Zuid-Holland,VBO,4.643008,51.799341
Marconiweg,11,,,3316AM,Dordrecht,Dordrecht,Zuid-Holland,VBO,4.644587,51.799533
Marconiweg,12,,,3316AM,Dordrecht,Dordrecht,Zuid-Holland,VBO,4.643859,51.799257
Marconiweg,13,A,,3316AM,Dordrecht,Dordrecht,Zuid-Holland,VBO,4.645674,51.799583
Marconiweg,13,,,3316AM,Dordrecht,Dordrecht,Zuid-Holland,VBO,4.645382,51.799589
Marconiweg,14,,,3316AM,Dordrecht,Dordrecht,Zuid-Holland,VBO,4.644082,51.799352
Marconiweg,15,,,3316AM,Dordrecht,Dordrecht,Zuid-Holland,VBO,4.646385,51.799506
Marconiweg,16,,,3316AM,Dordrecht,Dordrecht,Zuid-Holland,VBO,4.645291,51.799346
Marconiweg,17,,,3316AM,Dordrecht,Dordrecht,Zuid-Holland,VBO,4.646773,51.799488
Marconiweg,24,,,3316AM,Dordrecht,Dordrecht,Zuid-Holland,VBO,4.647416,51.799105
Nijverheidstraat,1,,,3316AP,Dordrecht,Dordrecht,Zuid-Holland,VBO,4.643903,51.800769
Nijverheidstraat,4,,,3316AP,Dordrecht,Dordrecht,Zuid-Holland,VBO,4.643077,51.800466
Nijverheidstraat,6,A,,3316AP,Dordrecht,Dordrecht,Zuid-Holland,VBO,4.644074,51.800493
Nijverheidstraat,6,,,3316AP,Dordrecht,Dordrecht,Zuid-Holland,VBO,4.644224,51.800492
Nijverheidstraat,8,,,3316AP,Dordrecht,Dordrecht,Zuid-Holland,VBO,4.644810,51.800455
Nijverheidstraat,10,,,3316AP,Dordrecht,Dordrecht,Zuid-Holland,VBO,4.645677,51.800357
Nijverheidstraat,11,,,3316AP,Dordrecht,Dordrecht,Zuid-Holland,VBO,4.644227,51.800771
Nijverheidstraat,12,A,,3316AP,Dordrecht,Dordrecht,Zuid-Holland,VBO,4.646479,51.800413
Nijverheidstraat,14,,,3316AP,Dordrecht,Dordrecht,Zuid-Holland,VBO,4.646955,51.800447
Nijverheidstraat,31,,,3316AP,Dordrecht,Dordrecht,Zuid-Holland,VBO,4.645026,51.801003
Nijverheidstraat,53,,,3316AP,Dordrecht,Dordrecht,Zuid-Holland,VBO,4.645928,51.800785
Nijverheidstraat,55,A,,3316AP,Dordrecht,Dordrecht,Zuid-Holland,VBO,4.646446,51.800729
Nijverheidstraat,55,,,3316AP,Dordrecht,Dordrecht,Zuid-Holland,VBO,4.646153,51.800777
Nijverheidstraat,65,,,3316AP,Dordrecht,Dordrecht,Zuid-Holland,VBO,4.646974,51.800726
Nijverheidstraat,67,A,,3316AP,Dordrecht,Dordrecht,Zuid-Holland,VBO,4.646916,51.800903
Nijverheidstraat,77,,,3316AP,Dordrecht,Dordrecht,Zuid-Holland,VBO,4.646621,51.801310
Nijverheidstraat,87,,,3316AP,Dordrecht,Dordrecht,Zuid-Holland,VBO,4.647739,51.800709
Nijverheidstraat,89,,,3316AP,Dordrecht,Dordrecht,Zuid-Holland,VBO,4.647626,51.800705
Nijverheidstraat,91,,,3316AP,Dordrecht,Dordrecht,Zuid-Holland,VBO,4.647935,51.800727
Nijverheidstraat,93,,,3316AP,Dordrecht,Dordrecht,Zuid-Holland,VBO,4.647921,51.800741
Nijverheidstraat,95,,,3316AP,Dordrecht,Dordrecht,Zuid-Holland,VBO,4.648701,51.801249
Réaumurstraat,4,,,3316AR,Dordrecht,Dordrecht,Zuid-Holland,VBO,4.642821,51.798925
Réaumurstraat,5,,,3316AR,Dordrecht,Dordrecht,Zuid-Holland,VBO,4.642606,51.798312
Réaumurstraat,6,,,3316AR,Dordrecht,Dordrecht,Zuid-Holland,VBO,4.642809,51.798585
Réaumurstraat,7,,,3316AR,Dordrecht,Dordrecht,Zuid-Holland,VBO,4.642608,51.798225
Réaumurstraat,8,,,3316AR,Dordrecht,Dordrecht,Zuid-Holland,VBO,4.642895,51.798258
's-Gravendeelsedijk,155,,,3316AS,Dordrecht,Dordrecht,Zuid-Holland,VBO,4.640597,51.798744
's-Gravendeelsedijk,157,,,3316AS,Dordrecht,Dordrecht,Zuid-Holland,VBO,4.640540,51.798676
's-Gravendeelsedijk,159,,,3316AS,Dordrecht,Dordrecht,Zuid-Holland,VBO,4.640496,51.798612
's-Gravendeelsedijk,169,,,3316AS,Dordrecht,Dordrecht,Zuid-Holland,VBO,4.640416,51.798530
's-Gravendeelsedijk,175,D,,3316AS,Dordrecht,Dordrecht,Zuid-Holland,VBO,4.641020,51.796625
's-Gravendeelsedijk,175,,,3316AS,Dordrecht,Dordrecht,Zuid-Holland,VBO,4.639305,51.797059
Simon Stevinstraat,1,,,3316AT,Dordrecht,Dordrecht,Zuid-Holland,VBO,4.642700,51.800130
Simon Stevinstraat,3,,,3316AT,Dordrecht,Dordrecht,Zuid-Holland,VBO,4.642550,51.799959
Simon Stevinstraat,5,,,3316AT,Dordrecht,Dordrecht,Zuid-Holland,VBO,4.642644,51.799811
Simon Stevinstraat,6,,,3316AT,Dordrecht,Dordrecht,Zuid-Holland,VBO,4.642951,51.800281
Van Leeuwenhoekweg,5,,,3316AV,Dordrecht,Dordrecht,Zuid-Holland,VBO,4.642299,51.797785
Van Leeuwenhoekweg,20,,,3316AV,Dordrecht,Dordrecht,Zuid-Holland,VBO,4.638676,51.801079
Van Leeuwenhoekweg,21,A,,3316AV,Dordrecht,Dordrecht,Zuid-Holland,VBO,4.635933,51.798221
Van Leeuwenhoekweg,21,B,,3316AV,Dordrecht,Dordrecht,Zuid-Holland,VBO,4.634813,51.800407
Van Leeuwenhoekweg,21,T,,3316AV,Dordrecht,Dordrecht,Zuid-Holland,VBO,4.636330,51.798671
Van Leeuwenhoekweg,21,,,3316AV,Dordrecht,Dordrecht,Zuid-Holland,VBO,4.634928,51.799462
Van Leeuwenhoekweg,33,,,3316AV,Dordrecht,Dordrecht,Zuid-Holland,VBO,4.633786,51.800804
Voltastraat,2,,,3316AW,Dordrecht,Dordrecht,Zuid-Holland,VBO,4.649298,51.804916
Voltastraat,4,,,3316AW,Dordrecht,Dordrecht,Zuid-Holland,VBO,4.648964,51.804921
Voltastraat,5,,,3316AW,Dordrecht,Dordrecht,Zuid-Holland,VBO,4.649191,51.805055
Voltastraat,6,,,3316AW,Dordrecht,Dordrecht,Zuid-Holland,VBO,4.648786,51.804925
Wattstraat,1,,,3316AX,Dordrecht,Dordrecht,Zuid-Holland,VBO,4.648911,51.805752
Wattstraat,2,A,,3316AX,Dordrecht,Dordrecht,Zuid-Holland,VBO,4.649269,51.805359
Wattstraat,3,,,3316AX,Dordrecht,Dordrecht,Zuid-Holland,VBO,4.648729,51.805739
Wattstraat,4,,,3316AX,Dordrecht,Dordrecht,Zuid-Holland,VBO,4.649154,51.805609
Wattstraat,5,,,3316AX,Dordrecht,Dordrecht,Zuid-Holland,VBO,4.648334,51.805753
Wattstraat,8,,,3316AX,Dordrecht,Dordrecht,Zuid-Holland,VBO,4.648447,51.805576
's-Gravendeelsedijk,100,,,3316AZ,Dordrecht,Dordrecht,Zuid-Holland,VBO,4.644271,51.802859
's-Gravendeelsedijk,104,,,3316AZ,Dordrecht,Dordrecht,Zuid-Holland,VBO,4.644201,51.802749
's-Gravendeelsedijk,200,,,3316AZ,Dordrecht,Dordrecht,Zuid-Holland,VBO,4.643047,51.801428
Achthoevenstraat,1,,,3316BA,Dordrecht,Dordrecht,Zuid-Holland,VBO,4.634777,51.783555
Achthoevenstraat,3,,,3316BA,Dordrecht,Dordrecht,Zuid-Holland,VBO,4.634385,51.782779
Amstelwijckweg,1,A,,3316BB,Dordrecht,Dordrecht,Zuid-Holland,VBO,4.648275,51.784346
Amstelwijckweg,1,,,3316BB,Dordrecht,Dordrecht,Zuid-Holland,VBO,4.647981,51.784636
Amstelwijckweg,2,B,,3316BB,Dordrecht,Dordrecht,Zuid-Holland,VBO,4.648127,51.782860
Amstelwijckweg,2,C,,3316BB,Dordrecht,Dordrecht,Zuid-Holland,VBO,4.648141,51.783684
Amstelwijckweg,4,,,3316BB,Dordrecht,Dordrecht,Zuid-Holland,VBO,4.648333,51.783307
Amstelwijckweg,6,,,3316BB,Dordrecht,Dordrecht,Zuid-Holland,VBO,4.648332,51.783554
Amstelwijckweg,10,A,,3316BB,Dordrecht,Dordrecht,Zuid-Holland,VBO,4.647725,51.784059
Amstelwijckweg,10,B,,3316BB,Dordrecht,Dordrecht,Zuid-Holland,VBO,4.648062,51.781590
Amstelwijckweg,10,C,,3316BB,Dordrecht,Dordrecht,Zuid-Holland,VBO,4.647526,51.781182
Amstelwijckweg,10,E,,3316BB,Dordrecht,Dordrecht,Zuid-Holland,VBO,4.648855,51.781190
Amstelwijckweg,10,F,,3316BB,Dordrecht,Dordrecht,Zuid-Holland,VBO,4.649296,51.780974
Amstelwijckweg,10,G,,3316BB,Dordrecht,Dordrecht,Zuid-Holland,VBO,4.648924,51.780673
Amstelwijckweg,10,I,,3316BB,Dordrecht,Dordrecht,Zuid-Holland,VBO,4.649093,51.779872
Amstelwijckweg,10,J,,3316BB,Dordrecht,Dordrecht,Zuid-Holland,VBO,4.649504,51.779670
Amstelwijckweg,10,,,3316BB,Dordrecht,Dordrecht,Zuid-Holland,VBO,4.647642,51.783858
Amstelwijckweg,11,,,3316BB,Dordrecht,Dordrecht,Zuid-Holland,VBO,4.649351,51.781908
Amstelwijckweg,12,,,3316BB,Dordrecht,Dordrecht,Zuid-Holland,VBO,4.646762,51.784151
Amstelwijckweg,14,A,,3316BB,Dordrecht,Dordrecht,Zuid-Holland,VBO,4.645151,51.784576
Amstelwijckweg,14,,,3316BB,Dordrecht,Dordrecht,Zuid-Holland,VBO,4.645933,51.781995
Amstelwijckweg,15,,,3316BB,Dordrecht,Dordrecht,Zuid-Holland,VBO,4.648696,51.782226
Amstelwijckweg,16,A,,3316BB,Dordrecht,Dordrecht,Zuid-Holland,VBO,4.642027,51.783860
Amstelwijckweg,16,B,,3316BB,Dordrecht,Dordrecht,Zuid-Holland,VBO,4.641947,51.783639
Amstelwijckweg,16,,,3316BB,Dordrecht,Dordrecht,Zuid-Holland,VBO,4.642347,51.784259
Amstelwijckweg,17,,,3316BB,Dordrecht,Dordrecht,Zuid-Holland,VBO,4.649391,51.782530
Amstelwijckweg,18,A,,3316BB,Dordrecht,Dordrecht,Zuid-Holland,VBO,4.641144,51.784020
Amstelwijckweg,18,,,3316BB,Dordrecht,Dordrecht,Zuid-Holland,VBO,4.640932,51.784243
Amstelwijckweg,20,,,3316BB,Dordrecht,Dordrecht,Zuid-Holland,VBO,4.640642,51.784249
Amstelwijckweg,21,,,3316BB,Dordrecht,Dordrecht,Zuid-Holland,VBO,4.649748,51.782523
Amstelwijckweg,22,,,3316BB,Dordrecht,Dordrecht,Zuid-Holland,VBO,4.640396,51.784258
Amstelwijckweg,26,,,3316BB,Dordrecht,Dordrecht,Zuid-Holland,VBO,4.634678,51.784419
Amstelwijckweg,28,,,3316BB,Dordrecht,Dordrecht,Zuid-Holland,VBO,4.634409,51.784425
Amstelwijckweg,30,,,3316BB,Dordrecht,Dordrecht,Zuid-Holland,VBO,4.634333,51.784427
Amstelwijckweg,32,,,3316BB,Dordrecht,Dordrecht,Zuid-Holland,VBO,4.634083,51.784445
Amstelwijckweg,34,,,3316BB,Dordrecht,Dordrecht,Zuid-Holland,VBO,4.633874,51.784439
Amstelwijckweg,36,,,3316BB,Dordrecht,Dordrecht,Zuid-Holland,VBO,4.633622,51.784445
Amstelwijckweg,38,,,3316BB,Dordrecht,Dordrecht,Zuid-Holland,VBO,4.633367,51.784449
Amstelwijckweg,40,,,3316BB,Dordrecht,Dordrecht,Zuid-Holland,VBO,4.633156,51.784457
Amstelwijckweg,42,,,3316BB,Dordrecht,Dordrecht,Zuid-Holland,VBO,4.633063,51.784459
Amstelwijckweg,44,A,,3316BB,Dordrecht,Dordrecht,Zuid-Holland,VBO,4.632584,51.784362
Amstelwijckweg,44,,,3316BB,Dordrecht,Dordrecht,Zuid-Holland,VBO,4.632825,51.784465
Amstelwijckweg,46,,,3316BB,Dordrecht,Dordrecht,Zuid-Holland,VBO,4.632341,51.784471
Amstelwijckweg,48,,,3316BB,Dordrecht,Dordrecht,Zuid-Holland,VBO,4.631641,51.784409
Amstelwijckweg,50,A,,3316BB,Dordrecht,Dordrecht,Zuid-Holland,VBO,4.631316,51.784244
Amstelwijckweg,50,,,3316BB,Dordrecht,Dordrecht,Zuid-Holland,VBO,4.631345,51.784512
Amstelwijckweg,52,,,3316BB,Dordrecht,Dordrecht,Zuid-Holland,VBO,4.631071,51.784519
Amstelwijckweg,54,,,3316BB,Dordrecht,Dordrecht,Zuid-Holland,VBO,4.630762,51.784525
Amstelwijckweg,56,,,3316BB,Dordrecht,Dordrecht,Zuid-Holland,VBO,4.630437,51.784532
Amstelwijckweg,58,,,3316BB,Dordrecht,Dordrecht,Zuid-Holland,VBO,4.630368,51.784534
Kilkade,2,,,3316BC,Dordrecht,Dordrecht,Zuid-Holland,VBO,4.646397,51.791172
Kilkade,4,,,3316BC,Dordrecht,Dordrecht,Zuid-Holland,VBO,4.646387,51.791220
Kilkade,8,A,,3316BC,Dordrecht,Dordrecht,Zuid-Holland,VBO,4.643497,51.791026
Kilkade,8,,,3316BC,Dordrecht,Dordrecht,Zuid-Holland,VBO,4.643488,51.790806
Kilkade,10,,,3316BC,Dordrecht,Dordrecht,Zuid-Holland,VBO,4.643633,51.790801
Kilkade,12,A,,3316BC,Dordrecht,Dordrecht,Zuid-Holland,VBO,4.641651,51.791170
Kilkade,12,,,3316BC,Dordrecht,Dordrecht,Zuid-Holland,VBO,4.642351,51.791189
Kilkade,12,,,3316BC,Dordrecht,Dordrecht,Zuid-Holland,VBO,4.642878,51.791337
Kilkade,18,,,3316BC,Dordrecht,Dordrecht,Zuid-Holland,VBO,4.640601,51.791497
Kilkade,23,,,3316BC,Dordrecht,Dordrecht,Zuid-Holland,VBO,4.642473,51.791955
Kilkade,30,,,3316BC,Dordrecht,Dordrecht,Zuid-Holland,VBO,4.638658,51.791446
Kilkade,39,,,3316BC,Dordrecht,Dordrecht,Zuid-Holland,VBO,4.640811,51.792217
Kilkade,43,,,3316BC,Dordrecht,Dordrecht,Zuid-Holland,VBO,4.640491,51.792455
Kilkade,45,,,3316BC,Dordrecht,Dordrecht,Zuid-Holland,VBO,4.640830,51.792495
Kilkade,53,,,3316BC,Dordrecht,Dordrecht,Zuid-Holland,VBO,4.639992,51.791910
Kilkade,59,,,3316BC,Dordrecht,Dordrecht,Zuid-Holland,VBO,4.638042,51.791938
Kreekweg,1,,,3316BD,Dordrecht,Dordrecht,Zuid-Holland,VBO,4.646478,51.788359
Kreekweg,4,,,3316BD,Dordrecht,Dordrecht,Zuid-Holland,VBO,4.643531,51.788156
Kreekweg,10,,,3316BD,Dordrecht,Dordrecht,Zuid-Holland,VBO,4.640679,51.788048
Kreekweg,11,,,3316BD,Dordrecht,Dordrecht,Zuid-Holland,VBO,4.640243,51.788572
Kreekweg,13,,,3316BD,Dordrecht,Dordrecht,Zuid-Holland,VBO,4.640485,51.788567
Mijlweg,27,,,3316BE,Dordrecht,Dordrecht,Zuid-Holland,VBO,4.648460,51.800315
Mijlweg,29,,,3316BE,Dordrecht,Dordrecht,Zuid-Holland,VBO,4.648406,51.800084
Mijlweg,31,,,3316BE,Dordrecht,Dordrecht,Zuid-Holland,VBO,4.648351,51.799852
Mijlweg,33,,,3316BE,Dordrecht,Dordrecht,Zuid-Holland,VBO,4.648296,51.799621
Mijlweg,49,,,3316BE,Dordrecht,Dordrecht,Zuid-Holland,VBO,4.648078,51.795079
Mijlweg,50,,,3316BE,Dordrecht,Dordrecht,Zuid-Holland,VBO,4.649073,51.787667
Mijlweg,51,A,,3316BE,Dordrecht,Dordrecht,Zuid-Holland,VBO,4.648022,51.794291
Mijlweg,51,B,,3316BE,Dordrecht,Dordrecht,Zuid-Holland,VBO,4.647864,51.794000
Mijlweg,51,C,,3316BE,Dordrecht,Dordrecht,Zuid-Holland,VBO,4.647849,51.793764
Mijlweg,51,D,,3316BE,Dordrecht,Dordrecht,Zuid-Holland,VBO,4.647974,51.793561
Mijlweg,51,E,,3316BE,Dordrecht,Dordrecht,Zuid-Holland,VBO,4.647818,51.793278
Mijlweg,51,F,,3316BE,Dordrecht,Dordrecht,Zuid-Holland,VBO,4.647962,51.793408
Mijlweg,51,T,,3316BE,Dordrecht,Dordrecht,Zuid-Holland,VBO,4.647327,51.794342
Mijlweg,53,A,,3316BE,Dordrecht,Dordrecht,Zuid-Holland,VBO,4.647816,51.793200
Mijlweg,53,B,,3316BE,Dordrecht,Dordrecht,Zuid-Holland,VBO,4.647804,51.793107
Mijlweg,53,C,,3316BE,Dordrecht,Dordrecht,Zuid-Holland,VBO,4.647758,51.792948
Mijlweg,53,D,,3316BE,Dordrecht,Dordrecht,Zuid-Holland,VBO,4.647791,51.792757
Mijlweg,53,E,,3316BE,Dordrecht,Dordrecht,Zuid-Holland,VBO,4.647700,51.792645
Mijlweg,54,,,3316BE,Dordrecht,Dordrecht,Zuid-Holland,VBO,4.649058,51.787541
Mijlweg,55,A,,3316BE,Dordrecht,Dordrecht,Zuid-Holland,VBO,4.647461,51.792566
Mijlweg,55,B,,3316BE,Dordrecht,Dordrecht,Zuid-Holland,VBO,4.647225,51.792408
Mijlweg,55,C,,3316BE,Dordrecht,Dordrecht,Zuid-Holland,VBO,4.647003,51.792306
Mijlweg,55,D,,3316BE,Dordrecht,Dordrecht,Zuid-Holland,VBO,4.646787,51.792152
Mijlweg,55,E,,3316BE,Dordrecht,Dordrecht,Zuid-Holland,VBO,4.646918,51.792181
Mijlweg,57,T,,3316BE,Dordrecht,Dordrecht,Zuid-Holland,VBO,4.648037,51.792094
Mijlweg,61,A,,3316BE,Dordrecht,Dordrecht,Zuid-Holland,VBO,4.648074,51.791219
Mijlweg,61,B,,3316BE,Dordrecht,Dordrecht,Zuid-Holland,VBO,4.647952,51.790911
Mijlweg,61,T,,3316BE,Dordrecht,Dordrecht,Zuid-Holland,VBO,4.647879,51.790868
Mijlweg,61,,,3316BE,Dordrecht,Dordrecht,Zuid-Holland,VBO,4.648029,51.791203
Mijlweg,63,A,,3316BE,Dordrecht,Dordrecht,Zuid-Holland,VBO,4.648398,51.790590
Mijlweg,63,B,,3316BE,Dordrecht,Dordrecht,Zuid-Holland,VBO,4.648375,51.790568
Mijlweg,63,,,3316BE,Dordrecht,Dordrecht,Zuid-Holland,VBO,4.648395,51.790541
Mijlweg,65,,,3316BE,Dordrecht,Dordrecht,Zuid-Holland,VBO,4.648420,51.790246
Mijlweg,67,A,,3316BE,Dordrecht,Dordrecht,Zuid-Holland,VBO,4.648149,51.789645
Mijlweg,67,,,3316BE,Dordrecht,Dordrecht,Zuid-Holland,VBO,4.648405,51.790040
Mijlweg,69,,,3316BE,Dordrecht,Dordrecht,Zuid-Holland,VBO,4.648490,51.788980
Mijlweg,71,,,3316BE,Dordrecht,Dordrecht,Zuid-Holland,VBO,4.648364,51.788459
Mijlweg,73,T,,3316BE,Dordrecht,Dordrecht,Zuid-Holland,VBO,4.648296,51.788151
Mijlweg,73,,,3316BE,Dordrecht,Dordrecht,Zuid-Holland,VBO,4.648317,51.788459
Mijlweg,75,,,3316BE,Dordrecht,Dordrecht,Zuid-Holland,VBO,4.648431,51.787870
Mijlweg,77,,,3316BE,Dordrecht,Dordrecht,Zuid-Holland,VBO,4.648351,51.787158
Mijlweg,79,,,3316BE,Dordrecht,Dordrecht,Zuid-Holland,VBO,4.648341,51.786828
Mijlweg,81,,,3316BE,Dordrecht,Dordrecht,Zuid-Holland,VBO,4.648207,51.786487
Mijlweg,83,,,3316BE,Dordrecht,Dordrecht,Zuid-Holland,VBO,4.647890,51.786093
Wieldrechtseweg,11,,,3316BG,Dordrecht,Dordrecht,Zuid-Holland,VBO,4.647463,51.790324
Wieldrechtseweg,20,,,3316BG,Dordrecht,Dordrecht,Zuid-Holland,VBO,4.646590,51.789416
Wieldrechtseweg,24,,,3316BG,Dordrecht,Dordrecht,Zuid-Holland,VBO,4.645770,51.788105
Wieldrechtseweg,25,,,3316BG,Dordrecht,Dordrecht,Zuid-Holland,VBO,4.646025,51.787210
Wieldrechtseweg,26,D,,3316BG,Dordrecht,Dordrecht,Zuid-Holland,VBO,4.646312,51.787198
Wieldrechtseweg,26,E,,3316BG,Dordrecht,Dordrecht,Zuid-Holland,VBO,4.644885,51.787170
Wieldrechtseweg,26,,,3316BG,Dordrecht,Dordrecht,Zuid-Holland,VBO,4.646473,51.786983
Wieldrechtseweg,28,,,3316BG,Dordrecht,Dordrecht,Zuid-Holland,VBO,4.646458,51.786642
Wieldrechtseweg,30,,,3316BG,Dordrecht,Dordrecht,Zuid-Holland,VBO,4.646353,51.786218
Wieldrechtseweg,32,A,,3316BG,Dordrecht,Dordrecht,Zuid-Holland,VBO,4.646404,51.785887
Wieldrechtseweg,32,,,3316BG,Dordrecht,Dordrecht,Zuid-Holland,VBO,4.646410,51.785832
Wieldrechtseweg,32,,,3316BG,Dordrecht,Dordrecht,Zuid-Holland,VBO,4.646433,51.785942
Wieldrechtseweg,34,A,,3316BG,Dordrecht,Dordrecht,Zuid-Holland,VBO,4.646183,51.785612
Wieldrechtseweg,34,B,,3316BG,Dordrecht,Dordrecht,Zuid-Holland,VBO,4.646176,51.785516
Wieldrechtseweg,34,,,3316BG,Dordrecht,Dordrecht,Zuid-Holland,VBO,4.646188,51.785709
Wieldrechtseweg,35,A,,3316BG,Dordrecht,Dordrecht,Zuid-Holland,VBO,4.642950,51.784965
Wieldrechtseweg,35,,,3316BG,Dordrecht,Dordrecht,Zuid-Holland,VBO,4.644892,51.785851
Wieldrechtseweg,36,,,3316BG,Dordrecht,Dordrecht,Zuid-Holland,VBO,4.641881,51.785295
Wieldrechtseweg,37,,,3316BG,Dordrecht,Dordrecht,Zuid-Holland,VBO,4.639261,51.785060
Wieldrechtseweg,38,,,3316BG,Dordrecht,Dordrecht,Zuid-Holland,VBO,4.638145,51.786100
Wieldrechtseweg,39,,,3316BG,Dordrecht,Dordrecht,Zuid-Holland,VBO,4.638614,51.785069
Wieldrechtseweg,41,,,3316BG,Dordrecht,Dordrecht,Zuid-Holland,VBO,4.636093,51.785111
Wieldrechtseweg,48,,,3316BG,Dordrecht,Dordrecht,Zuid-Holland,VBO,4.631782,51.785804
Wieldrechtseweg,50,,,3316BG,Dordrecht,Dordrecht,Zuid-Holland,VBO,4.630872,51.785654
Wieldrechtseweg,52,,,3316BG,Dordrecht,Dordrecht,Zuid-Holland,VBO,4.629541,51.784827
Wielhovenstraat,1,,,3316BJ,Dordrecht,Dordrecht,Zuid-Holland,VBO,4.634626,51.783776
Wielhovenstraat,3,,,3316BJ,Dordrecht,Dordrecht,Zuid-Holland,VBO,4.634508,51.783778
Wielhovenstraat,5,,,3316BJ,Dordrecht,Dordrecht,Zuid-Holland,VBO,4.634341,51.783779
Wielhovenstraat,7,,,3316BJ,Dordrecht,Dordrecht,Zuid-Holland,VBO,4.634222,51.783780
Wielhovenstraat,9,,,3316BJ,Dordrecht,Dordrecht,Zuid-Holland,VBO,4.634053,51.783782
Wielhovenstraat,11,,,3316BJ,Dordrecht,Dordrecht,Zuid-Holland,VBO,4.633861,51.783782
Wielhovenstraat,13,A,,3316BJ,Dordrecht,Dordrecht,Zuid-Holland,VBO,4.633711,51.783972
Wielhovenstraat,13,B,,3316BJ,Dordrecht,Dordrecht,Zuid-Holland,VBO,4.633513,51.783978
Wielhovenstraat,19,,,3316BJ,Dordrecht,Dordrecht,Zuid-Holland,VBO,4.633579,51.783785
Wielhovenstraat,25,,,3316BJ,Dordrecht,Dordrecht,Zuid-Holland,VBO,4.633355,51.783787
Wielhovenstraat,27,,,3316BJ,Dordrecht,Dordrecht,Zuid-Holland,VBO,4.633073,51.783788
Wielhovenstraat,29,,,3316BJ,Dordrecht,Dordrecht,Zuid-Holland,VBO,4.632800,51.783789
Wielhovenstraat,33,,,3316BJ,Dordrecht,Dordrecht,Zuid-Holland,VBO,4.632389,51.783793
Wielhovenstraat,35,,,3316BJ,Dordrecht,Dordrecht,Zuid-Holland,VBO,4.632289,51.783794
Wielhovenstraat,41,,,3316BJ,Dordrecht,Dordrecht,Zuid-Holland,VBO,4.631036,51.783700
Wielhovenstraat,43,,,3316BJ,Dordrecht,Dordrecht,Zuid-Holland,VBO,4.630951,51.783702
Wielhovenstraat,45,,,3316BJ,Dordrecht,Dordrecht,Zuid-Holland,VBO,4.630855,51.783705
Wielhovenstraat,47,,,3316BJ,Dordrecht,Dordrecht,Zuid-Holland,VBO,4.630769,51.783707
Wielhovenstraat,49,,,3316BJ,Dordrecht,Dordrecht,Zuid-Holland,VBO,4.630675,51.783709
Wielhovenstraat,53,,,3316BJ,Dordrecht,Dordrecht,Zuid-Holland,VBO,4.630682,51.783993
Wielhovenstraat,55,,,3316BJ,Dordrecht,Dordrecht,Zuid-Holland,VBO,4.630686,51.784046
Wielhovenstraat,57,,,3316BJ,Dordrecht,Dordrecht,Zuid-Holland,VBO,4.630693,51.784131
Wielhovenstraat,59,,,3316BJ,Dordrecht,Dordrecht,Zuid-Holland,VBO,4.630697,51.784183
Wielhovenstraat,2,,,3316BK,Dordrecht,Dordrecht,Zuid-Holland,VBO,4.634559,51.783616
Wielhovenstraat,4,,,3316BK,Dordrecht,Dordrecht,Zuid-Holland,VBO,4.634468,51.783617
Wielhovenstraat,6,,,3316BK,Dordrecht,Dordrecht,Zuid-Holland,VBO,4.634381,51.783618
Wielhovenstraat,8,,,3316BK,Dordrecht,Dordrecht,Zuid-Holland,VBO,4.634287,51.783618
Wielhovenstraat,10,,,3316BK,Dordrecht,Dordrecht,Zuid-Holland,VBO,4.634148,51.783619
Wielhovenstraat,12,,,3316BK,Dordrecht,Dordrecht,Zuid-Holland,VBO,4.634054,51.783620
Wielhovenstraat,14,,,3316BK,Dordrecht,Dordrecht,Zuid-Holland,VBO,4.633891,51.783607
Wielhovenstraat,16,,,3316BK,Dordrecht,Dordrecht,Zuid-Holland,VBO,4.633796,51.783608
Wielhovenstraat,18,,,3316BK,Dordrecht,Dordrecht,Zuid-Holland,VBO,4.633630,51.783622
Wielhovenstraat,20,,,3316BK,Dordrecht,Dordrecht,Zuid-Holland,VBO,4.633544,51.783622
Wielhovenstraat,22,,,3316BK,Dordrecht,Dordrecht,Zuid-Holland,VBO,4.633451,51.783623
Wielhovenstraat,24,,,3316BK,Dordrecht,Dordrecht,Zuid-Holland,VBO,4.633362,51.783623
Wielhovenstraat,26,,,3316BK,Dordrecht,Dordrecht,Zuid-Holland,VBO,4.633176,51.783633
Wielhovenstraat,28,,,3316BK,Dordrecht,Dordrecht,Zuid-Holland,VBO,4.632970,51.783625
Wielhovenstraat,30,,,3316BK,Dordrecht,Dordrecht,Zuid-Holland,VBO,4.632866,51.783625
Wielhovenstraat,32,,,3316BK,Dordrecht,Dordrecht,Zuid-Holland,VBO,4.632710,51.783596
Wielhovenstraat,34,,,3316BK,Dordrecht,Dordrecht,Zuid-Holland,VBO,4.632626,51.783585
Wielhovenstraat,36,,,3316BK,Dordrecht,Dordrecht,Zuid-Holland,VBO,4.632475,51.783564
Wielhovenstraat,38,,,3316BK,Dordrecht,Dordrecht,Zuid-Holland,VBO,4.632385,51.783551
Wielhovenstraat,40,,,3316BK,Dordrecht,Dordrecht,Zuid-Holland,VBO,4.632104,51.783519
Wielhovenstraat,42,,,3316BK,Dordrecht,Dordrecht,Zuid-Holland,VBO,4.632007,51.783521
Wielhovenstraat,44,,,3316BK,Dordrecht,Dordrecht,Zuid-Holland,VBO,4.631918,51.783522
Wielhovenstraat,46,,,3316BK,Dordrecht,Dordrecht,Zuid-Holland,VBO,4.631827,51.783524
Wielhovenstraat,48,,,3316BK,Dordrecht,Dordrecht,Zuid-Holland,VBO,4.631734,51.783525
Wielhovenstraat,50,,,3316BK,Dordrecht,Dordrecht,Zuid-Holland,VBO,4.631649,51.783527
Wielhovenstraat,52,,,3316BK,Dordrecht,Dordrecht,Zuid-Holland,VBO,4.631557,51.783528
Wielhovenstraat,54,,,3316BK,Dordrecht,Dordrecht,Zuid-Holland,VBO,4.631467,51.783530
Wielhovenstraat,56,A,,3316BK,Dordrecht,Dordrecht,Zuid-Holland,VBO,4.630707,51.783417
Wielhovenstraat,56,,,3316BK,Dordrecht,Dordrecht,Zuid-Holland,VBO,4.630622,51.783536
Wielhovenstraat,58,A,,3316BK,Dordrecht,Dordrecht,Zuid-Holland,VBO,4.630589,51.782953
Wielhovenstraat,58,,,3316BK,Dordrecht,Dordrecht,Zuid-Holland,VBO,4.630604,51.783291
Wielhovenstraat,60,A,,3316BK,Dordrecht,Dordrecht,Zuid-Holland,VBO,4.630197,51.783010
Wielhovenstraat,62,A,,3316BK,Dordrecht,Dordrecht,Zuid-Holland,VBO,4.629937,51.783600
Wielhovenstraat,62,,,3316BK,Dordrecht,Dordrecht,Zuid-Holland,VBO,4.630354,51.783756
Wielhovenstraat,64,,,3316BK,Dordrecht,Dordrecht,Zuid-Holland,VBO,4.630403,51.783949
Wielhovenstraat,66,,,3316BK,Dordrecht,Dordrecht,Zuid-Holland,VBO,4.630411,51.784024
Wielhovenstraat,66,,,3316BK,Dordrecht,Dordrecht,Zuid-Holland,VBO,4.630413,51.783989
Wielhovenstraat,68,T,,3316BK,Dordrecht,Dordrecht,Zuid-Holland,VBO,4.630345,51.784119
Wielhovenstraat,68,,,3316BK,Dordrecht,Dordrecht,Zuid-Holland,VBO,4.630068,51.784186
Donker Duyvisweg,1,A,,3316BL,Dordrecht,Dordrecht,Zuid-Holland,VBO,4.627049,51.788924
Donker Duyvisweg,35,,,3316BL,Dordrecht,Dordrecht,Zuid-Holland,VBO,4.629163,51.789088
Donker Duyvisweg,45,,,3316BL,Dordrecht,Dordrecht,Zuid-Holland,VBO,4.628108,51.789272
Donker Duyvisweg,60,,,3316BL,Dordrecht,Dordrecht,Zuid-Holland,VBO,4.627341,51.791083
Donker Duyvisweg,63,,,3316BL,Dordrecht,Dordrecht,Zuid-Holland,VBO,4.628241,51.790922
Donker Duyvisweg,70,,,3316BL,Dordrecht,Dordrecht,Zuid-Holland,VBO,4.627803,51.792021
Donker Duyvisweg,75,,,3316BL,Dordrecht,Dordrecht,Zuid-Holland,VBO,4.630039,51.791203
Donker Duyvisweg,93,,,3316BL,Dordrecht,Dordrecht,Zuid-Holland,VBO,4.629040,51.793475
Donker Duyvisweg,95,,,3316BL,Dordrecht,Dordrecht,Zuid-Holland,VBO,4.628933,51.793661
Donker Duyvisweg,135,,,3316BL,Dordrecht,Dordrecht,Zuid-Holland,VBO,4.627998,51.794996
Donker Duyvisweg,277,,,3316BL,Dordrecht,Dordrecht,Zuid-Holland,VBO,4.628859,51.797312
Donker Duyvisweg,281,,,3316BL,Dordrecht,Dordrecht,Zuid-Holland,VBO,4.628877,51.797367
Donker Duyvisweg,285,,,3316BL,Dordrecht,Dordrecht,Zuid-Holland,VBO,4.628914,51.797494
Donker Duyvisweg,289,,,3316BL,Dordrecht,Dordrecht,Zuid-Holland,VBO,4.628936,51.797548
Donker Duyvisweg,293,,,3316BL,Dordrecht,Dordrecht,Zuid-Holland,VBO,4.628975,51.797676
Donker Duyvisweg,297,,,3316BL,Dordrecht,Dordrecht,Zuid-Holland,VBO,4.628987,51.797713
Donker Duyvisweg,301,,,3316BL,Dordrecht,Dordrecht,Zuid-Holland,VBO,4.628278,51.798025
Donker Duyvisweg,44,,,3316BM,Dordrecht,Dordrecht,Zuid-Holland,VBO,4.627188,51.789314
Donker Duyvisweg,56,,,3316BM,Dordrecht,Dordrecht,Zuid-Holland,VBO,4.627639,51.790385
Boogaerdtstraat,2,,,3316BN,Dordrecht,Dordrecht,Zuid-Holland,VBO,4.627099,51.796230
Boogaerdtstraat,5,A,,3316BN,Dordrecht,Dordrecht,Zuid-Holland,VBO,4.628022,51.796501
Boogaerdtstraat,5,,,3316BN,Dordrecht,Dordrecht,Zuid-Holland,VBO,4.626731,51.796621
Jacobus Lipsweg,2,,,3316BP,Dordrecht,Dordrecht,Zuid-Holland,VBO,4.628149,51.793308
Jacobus Lipsweg,5,A,,3316BP,Dordrecht,Dordrecht,Zuid-Holland,VBO,4.627761,51.793953
Jacobus Lipsweg,5,,,3316BP,Dordrecht,Dordrecht,Zuid-Holland,VBO,4.627760,51.793930
Jacobus Lipsweg,9,,,3316BP,Dordrecht,Dordrecht,Zuid-Holland,VBO,4.627236,51.793915
Jacobus Lipsweg,30,,,3316BP,Dordrecht,Dordrecht,Zuid-Holland,VBO,4.625608,51.793417
Jacobus Lipsweg,38,,,3316BP,Dordrecht,Dordrecht,Zuid-Holland,VBO,4.625465,51.793754
Jacobus Lipsweg,39,,,3316BP,Dordrecht,Dordrecht,Zuid-Holland,VBO,4.626211,51.793683
Jacobus Lipsweg,41,,,3316BP,Dordrecht,Dordrecht,Zuid-Holland,VBO,4.626142,51.793841
Jacobus Lipsweg,43,,,3316BP,Dordrecht,Dordrecht,Zuid-Holland,VBO,4.626097,51.793944
Jacobus Lipsweg,45,,,3316BP,Dordrecht,Dordrecht,Zuid-Holland,VBO,4.626059,51.794030
Jacobus Lipsweg,46,,,3316BP,Dordrecht,Dordrecht,Zuid-Holland,VBO,4.625285,51.794007
Jacobus Lipsweg,47,,,3316BP,Dordrecht,Dordrecht,Zuid-Holland,VBO,4.626009,51.794145
Jacobus Lipsweg,49,,,3316BP,Dordrecht,Dordrecht,Zuid-Holland,VBO,4.625941,51.794300
Jacobus Lipsweg,51,,,3316BP,Dordrecht,Dordrecht,Zuid-Holland,VBO,4.625932,51.794751
Jacobus Lipsweg,68,,,3316BP,Dordrecht,Dordrecht,Zuid-Holland,VBO,4.625336,51.794966
Jacobus Lipsweg,72,,,3316BP,Dordrecht,Dordrecht,Zuid-Holland,VBO,4.624743,51.794938
Jacobus Lipsweg,80,,,3316BP,Dordrecht,Dordrecht,Zuid-Holland,VBO,4.624785,51.795251
Jacobus Lipsweg,81,,,3316BP,Dordrecht,Dordrecht,Zuid-Holland,VBO,4.625896,51.795748
Jacobus Lipsweg,84,,,3316BP,Dordrecht,Dordrecht,Zuid-Holland,VBO,4.625296,51.795749
Jacobus Lipsweg,91,,,3316BP,Dordrecht,Dordrecht,Zuid-Holland,VBO,4.625967,51.796349
Jacobus Lipsweg,102,,,3316BP,Dordrecht,Dordrecht,Zuid-Holland,VBO,4.625490,51.796202
Jacobus Lipsweg,110,,,3316BP,Dordrecht,Dordrecht,Zuid-Holland,VBO,4.625585,51.796465
Jacobus Lipsweg,112,,,3316BP,Dordrecht,Dordrecht,Zuid-Holland,VBO,4.625229,51.796680
Jacobus Lipsweg,114,,,3316BP,Dordrecht,Dordrecht,Zuid-Holland,VBO,4.625650,51.796592
Jacobus Lipsweg,116,,,3316BP,Dordrecht,Dordrecht,Zuid-Holland,VBO,4.625736,51.796783
Jacobus Lipsweg,118,,,3316BP,Dordrecht,Dordrecht,Zuid-Holland,VBO,4.625335,51.796829
Jacobus Lipsweg,120,,,3316BP,Dordrecht,Dordrecht,Zuid-Holland,VBO,4.625854,51.797032
Jacobus Lipsweg,122,,,3316BP,Dordrecht,Dordrecht,Zuid-Holland,VBO,4.625471,51.797129
Jacobus Lipsweg,124,,,3316BP,Dordrecht,Dordrecht,Zuid-Holland,VBO,4.625896,51.797315
Jacobus Lipsweg,130,,,3316BP,Dordrecht,Dordrecht,Zuid-Holland,VBO,4.626184,51.797497
Jacobus Lipsweg,132,,,3316BP,Dordrecht,Dordrecht,Zuid-Holland,VBO,4.626432,51.797753
Rudolf A. Jasstraat,4,,,3316BR,Dordrecht,Dordrecht,Zuid-Holland,VBO,4.627580,51.794346
Rudolf A. Jasstraat,5,,,3316BR,Dordrecht,Dordrecht,Zuid-Holland,VBO,4.627509,51.794880
Rudolf A. Jasstraat,10,,,3316BR,Dordrecht,Dordrecht,Zuid-Holland,VBO,4.626576,51.793724
Rudolf A. Jasstraat,12,,,3316BR,Dordrecht,Dordrecht,Zuid-Holland,VBO,4.626545,51.793796
Rudolf A. Jasstraat,14,,,3316BR,Dordrecht,Dordrecht,Zuid-Holland,VBO,4.626525,51.793841
Rudolf A. Jasstraat,16,,,3316BR,Dordrecht,Dordrecht,Zuid-Holland,VBO,4.626503,51.793894
Rudolf A. Jasstraat,18,,,3316BR,Dordrecht,Dordrecht,Zuid-Holland,VBO,4.626482,51.793944
Rudolf A. Jasstraat,20,,,3316BR,Dordrecht,Dordrecht,Zuid-Holland,VBO,4.626462,51.793991
Rudolf A. Jasstraat,22,,,3316BR,Dordrecht,Dordrecht,Zuid-Holland,VBO,4.626443,51.794035
Rudolf A. Jasstraat,24,,,3316BR,Dordrecht,Dordrecht,Zuid-Holland,VBO,4.626424,51.794077
Rudolf A. Jasstraat,26,,,3316BR,Dordrecht,Dordrecht,Zuid-Holland,VBO,4.626406,51.794120
Rudolf A. Jasstraat,28,,,3316BR,Dordrecht,Dordrecht,Zuid-Holland,VBO,4.626387,51.794166
Rudolf A. Jasstraat,30,,,3316BR,Dordrecht,Dordrecht,Zuid-Holland,VBO,4.626315,51.794333
Redeléstraat,2,,,3316BS,Dordrecht,Dordrecht,Zuid-Holland,VBO,4.627361,51.795254
Pieter Hoebeeweg,32,,,3316BT,Dordrecht,Dordrecht,Zuid-Holland,VBO,4.628306,51.795540
Pieter Hoebeeweg,46,,,3316BT,Dordrecht,Dordrecht,Zuid-Holland,VBO,4.629446,51.796316
Pieter Hoebeeweg,74,,,3316BT,Dordrecht,Dordrecht,Zuid-Holland,VBO,4.629560,51.797243
Pieter Hoebeeweg,78,,,3316BT,Dordrecht,Dordrecht,Zuid-Holland,VBO,4.629573,51.797282
Pieter Hoebeeweg,82,,,3316BT,Dordrecht,Dordrecht,Zuid-Holland,VBO,4.629406,51.797626
Pieter Hoebeeweg,99,,,3316BT,Dordrecht,Dordrecht,Zuid-Holland,VBO,4.630253,51.797681
Zernikestraat,25,,,3316BZ,Dordrecht,Dordrecht,Zuid-Holland,VBO,4.641956,51.775581
Zernikestraat,29,,,3316BZ,Dordrecht,Dordrecht,Zuid-Holland,VBO,4.642038,51.775461
Zernikestraat,35,A,,3316BZ,Dordrecht,Dordrecht,Zuid-Holland,VBO,4.641601,51.774830
Zernikestraat,35,,,3316BZ,Dordrecht,Dordrecht,Zuid-Holland,VBO,4.641627,51.775100
Zernikestraat,45,,,3316BZ,Dordrecht,Dordrecht,Zuid-Holland,VBO,4.641682,51.774766
Zernikestraat,47,,,3316BZ,Dordrecht,Dordrecht,Zuid-Holland,VBO,4.641667,51.774554
Zernikestraat,53,,,3316BZ,Dordrecht,Dordrecht,Zuid-Holland,VBO,4.641670,51.774221
Zernikestraat,67,,,3316BZ,Dordrecht,Dordrecht,Zuid-Holland,VBO,4.642229,51.773952
Zernikestraat,75,,,3316BZ,Dordrecht,Dordrecht,Zuid-Holland,VBO,4.641505,51.773617
's-Gravendeelsedijk,10,,,3316CA,Dordrecht,Dordrecht,Zuid-Holland,VBO,4.645262,51.804014
's-Gravendeelsedijk,30,,,3316CA,Dordrecht,Dordrecht,Zuid-Holland,VBO,4.645366,51.803533
's-Gravendeelsedijk,50,,,3316CA,Dordrecht,Dordrecht,Zuid-Holland,VBO,4.645546,51.803239
's-Gravendeelsedijk,70,,,3316CA,Dordrecht,Dordrecht,Zuid-Holland,VBO,4.645730,51.802950
Calandstraat,1,,,3316EA,Dordrecht,Dordrecht,Zuid-Holland,VBO,4.644963,51.779729
Calandstraat,3,,,3316EA,Dordrecht,Dordrecht,Zuid-Holland,VBO,4.645416,51.779701
Calandstraat,4,,,3316EA,Dordrecht,Dordrecht,Zuid-Holland,VBO,4.645137,51.780180
Calandstraat,5,,,3316EA,Dordrecht,Dordrecht,Zuid-Holland,VBO,4.645640,51.779732
Calandstraat,7,,,3316EA,Dordrecht,Dordrecht,Zuid-Holland,VBO,4.646464,51.779754
Calandstraat,14,,,3316EA,Dordrecht,Dordrecht,Zuid-Holland,VBO,4.646164,51.780047
Calandstraat,16,,,3316EA,Dordrecht,Dordrecht,Zuid-Holland,VBO,4.646253,51.780060
Calandstraat,17,,,3316EA,Dordrecht,Dordrecht,Zuid-Holland,VBO,4.648357,51.778882
Calandstraat,18,,,3316EA,Dordrecht,Dordrecht,Zuid-Holland,VBO,4.646357,51.780242
Calandstraat,20,,,3316EA,Dordrecht,Dordrecht,Zuid-Holland,VBO,4.646360,51.780309
Calandstraat,24,A,,3316EA,Dordrecht,Dordrecht,Zuid-Holland,VBO,4.646437,51.780557
Calandstraat,24,B,,3316EA,Dordrecht,Dordrecht,Zuid-Holland,VBO,4.646452,51.780745
Calandstraat,24,,,3316EA,Dordrecht,Dordrecht,Zuid-Holland,VBO,4.646438,51.780483
Calandstraat,26,A,,3316EA,Dordrecht,Dordrecht,Zuid-Holland,VBO,4.646870,51.780746
Calandstraat,26,B,,3316EA,Dordrecht,Dordrecht,Zuid-Holland,VBO,4.646926,51.780664
Calandstraat,26,,,3316EA,Dordrecht,Dordrecht,Zuid-Holland,VBO,4.646750,51.780922
Calandstraat,28,,,3316EA,Dordrecht,Dordrecht,Zuid-Holland,VBO,4.646729,51.780472
Calandstraat,29,,,3316EA,Dordrecht,Dordrecht,Zuid-Holland,VBO,4.648483,51.777655
Calandstraat,32,,,3316EA,Dordrecht,Dordrecht,Zuid-Holland,VBO,4.646764,51.780149
Calandstraat,33,,,3316EA,Dordrecht,Dordrecht,Zuid-Holland,VBO,4.648459,51.777266
Calandstraat,34,,,3316EA,Dordrecht,Dordrecht,Zuid-Holland,VBO,4.646784,51.780243
Calandstraat,36,,,3316EA,Dordrecht,Dordrecht,Zuid-Holland,VBO,4.646751,51.780137
Calandstraat,41,,,3316EA,Dordrecht,Dordrecht,Zuid-Holland,VBO,4.648125,51.776433
Calandstraat,42,,,3316EA,Dordrecht,Dordrecht,Zuid-Holland,VBO,4.647644,51.780145
Calandstraat,44,,,3316EA,Dordrecht,Dordrecht,Zuid-Holland,VBO,4.649082,51.778704
Calandstraat,46,,,3316EA,Dordrecht,Dordrecht,Zuid-Holland,VBO,4.649089,51.778869
Kilweg,10,,,3316EB,Dordrecht,Dordrecht,Zuid-Holland,VBO,4.643661,51.776992
Leeghwaterstraat,6,,,3316EC,Dordrecht,Dordrecht,Zuid-Holland,VBO,4.647156,51.778508
Leeghwaterstraat,12,,,3316EC,Dordrecht,Dordrecht,Zuid-Holland,VBO,4.644924,51.778483
Leeghwaterstraat,21,A,,3316EC,Dordrecht,Dordrecht,Zuid-Holland,VBO,4.646655,51.778707
Leeghwaterstraat,21,,,3316EC,Dordrecht,Dordrecht,Zuid-Holland,VBO,4.646512,51.778701
Leeghwaterstraat,23,,,3316EC,Dordrecht,Dordrecht,Zuid-Holland,VBO,4.646044,51.778734
Leeghwaterstraat,25,,,3316EC,Dordrecht,Dordrecht,Zuid-Holland,VBO,4.645844,51.778744
Leeghwaterstraat,29,,,3316EC,Dordrecht,Dordrecht,Zuid-Holland,VBO,4.645272,51.779021
Rijksstraatweg,1,A,,3316EE,Dordrecht,Dordrecht,Zuid-Holland,VBO,4.644078,51.783970
Rijksstraatweg,1,,,3316EE,Dordrecht,Dordrecht,Zuid-Holland,VBO,4.644856,51.783932
Rijksstraatweg,7,,,3316EE,Dordrecht,Dordrecht,Zuid-Holland,VBO,4.643607,51.783495
Rijksstraatweg,31,A,,3316EE,Dordrecht,Dordrecht,Zuid-Holland,VBO,4.643339,51.775247
Rijksstraatweg,31,,,3316EE,Dordrecht,Dordrecht,Zuid-Holland,VBO,4.643795,51.775245
Rijksstraatweg,33,A,,3316EE,Dordrecht,Dordrecht,Zuid-Holland,VBO,4.643333,51.775177
Rijksstraatweg,33,,,3316EE,Dordrecht,Dordrecht,Zuid-Holland,VBO,4.643793,51.775194
Rijksstraatweg,35,,,3316EE,Dordrecht,Dordrecht,Zuid-Holland,VBO,4.643753,51.775052
Rijksstraatweg,37,,,3316EE,Dordrecht,Dordrecht,Zuid-Holland,VBO,4.643734,51.774865
Rijksstraatweg,39,,,3316EE,Dordrecht,Dordrecht,Zuid-Holland,VBO,4.643745,51.774717
Rijksstraatweg,41,,,3316EE,Dordrecht,Dordrecht,Zuid-Holland,VBO,4.643748,51.774601
Rijksstraatweg,43,,,3316EE,Dordrecht,Dordrecht,Zuid-Holland,VBO,4.643747,51.774546
Rijksstraatweg,45,,,3316EE,Dordrecht,Dordrecht,Zuid-Holland,VBO,4.643732,51.774435
Rijksstraatweg,47,,,3316EE,Dordrecht,Dordrecht,Zuid-Holland,VBO,4.643730,51.774380
Rijksstraatweg,49,,,3316EE,Dordrecht,Dordrecht,Zuid-Holland,VBO,4.643729,51.774266
Rijksstraatweg,51,,,3316EE,Dordrecht,Dordrecht,Zuid-Holland,VBO,4.643727,51.774206
Rijksstraatweg,53,,,3316EE,Dordrecht,Dordrecht,Zuid-Holland,VBO,4.643750,51.774091
Rijksstraatweg,55,,,3316EE,Dordrecht,Dordrecht,Zuid-Holland,VBO,4.643749,51.773976
Rijksstraatweg,57,,,3316EE,Dordrecht,Dordrecht,Zuid-Holland,VBO,4.643714,51.773739
Rijksstraatweg,79,,,3316EE,Dordrecht,Dordrecht,Zuid-Holland,VBO,4.643583,51.771733
Rijksstraatweg,81,,,3316EE,Dordrecht,Dordrecht,Zuid-Holland,VBO,4.641722,51.771014
Rijksstraatweg,83,A,,3316EE,Dordrecht,Dordrecht,Zuid-Holland,VBO,4.643524,51.771082
Rijksstraatweg,83,B,,3316EE,Dordrecht,Dordrecht,Zuid-Holland,VBO,4.643521,51.771032
Rijksstraatweg,83,C,,3316EE,Dordrecht,Dordrecht,Zuid-Holland,VBO,4.643518,51.770987
Rijksstraatweg,83,D,,3316EE,Dordrecht,Dordrecht,Zuid-Holland,VBO,4.643515,51.770942
Rijksstraatweg,83,E,,3316EE,Dordrecht,Dordrecht,Zuid-Holland,VBO,4.643511,51.770895
Rijksstraatweg,83,F,,3316EE,Dordrecht,Dordrecht,Zuid-Holland,VBO,4.643508,51.770849
Rijksstraatweg,85,A,,3316EE,Dordrecht,Dordrecht,Zuid-Holland,VBO,4.643441,51.770750
Rijksstraatweg,85,B,,3316EE,Dordrecht,Dordrecht,Zuid-Holland,VBO,4.643438,51.770703
Rijksstraatweg,85,C,,3316EE,Dordrecht,Dordrecht,Zuid-Holland,VBO,4.643435,51.770657
Rijksstraatweg,87,A,,3316EE,Dordrecht,Dordrecht,Zuid-Holland,VBO,4.643458,51.770556
Rijksstraatweg,87,B,,3316EE,Dordrecht,Dordrecht,Zuid-Holland,VBO,4.643455,51.770508
Rijksstraatweg,87,C,,3316EE,Dordrecht,Dordrecht,Zuid-Holland,VBO,4.643452,51.770463
Rijksstraatweg,87,D,,3316EE,Dordrecht,Dordrecht,Zuid-Holland,VBO,4.643448,51.770416
Rijksstraatweg,89,A,,3316EE,Dordrecht,Dordrecht,Zuid-Holland,VBO,4.643463,51.770176
Rijksstraatweg,89,B,,3316EE,Dordrecht,Dordrecht,Zuid-Holland,VBO,4.643459,51.770130
Rijksstraatweg,89,C,,3316EE,Dordrecht,Dordrecht,Zuid-Holland,VBO,4.643456,51.770082
Rijksstraatweg,89,D,,3316EE,Dordrecht,Dordrecht,Zuid-Holland,VBO,4.643452,51.770037
Rijksstraatweg,89,E,,3316EE,Dordrecht,Dordrecht,Zuid-Holland,VBO,4.643449,51.769991
Rijksstraatweg,89,F,,3316EE,Dordrecht,Dordrecht,Zuid-Holland,VBO,4.643445,51.769945
Rijksstraatweg,91,A,,3316EE,Dordrecht,Dordrecht,Zuid-Holland,VBO,4.643379,51.769844
Rijksstraatweg,91,B,,3316EE,Dordrecht,Dordrecht,Zuid-Holland,VBO,4.643376,51.769798
Rijksstraatweg,91,C,,3316EE,Dordrecht,Dordrecht,Zuid-Holland,VBO,4.643372,51.769753
Rijksstraatweg,93,A,,3316EE,Dordrecht,Dordrecht,Zuid-Holland,VBO,4.643386,51.769486
Rijksstraatweg,93,B,,3316EE,Dordrecht,Dordrecht,Zuid-Holland,VBO,4.643382,51.769442
Rijksstraatweg,93,C,,3316EE,Dordrecht,Dordrecht,Zuid-Holland,VBO,4.643379,51.769397
Rijksstraatweg,93,D,,3316EE,Dordrecht,Dordrecht,Zuid-Holland,VBO,4.643376,51.769350
Rijksstraatweg,93,E,,3316EE,Dordrecht,Dordrecht,Zuid-Holland,VBO,4.643372,51.769306
Rijksstraatweg,93,F,,3316EE,Dordrecht,Dordrecht,Zuid-Holland,VBO,4.643369,51.769259
Rijksstraatweg,95,A,,3316EE,Dordrecht,Dordrecht,Zuid-Holland,VBO,4.643323,51.768996
Rijksstraatweg,95,B,,3316EE,Dordrecht,Dordrecht,Zuid-Holland,VBO,4.643317,51.768934
Rijksstraatweg,95,C,,3316EE,Dordrecht,Dordrecht,Zuid-Holland,VBO,4.643341,51.768814
Rijksstraatweg,95,D,,3316EE,Dordrecht,Dordrecht,Zuid-Holland,VBO,4.643336,51.768750
Rijksstraatweg,95,E,,3316EE,Dordrecht,Dordrecht,Zuid-Holland,VBO,4.643267,51.768632
Rijksstraatweg,95,F,,3316EE,Dordrecht,Dordrecht,Zuid-Holland,VBO,4.643265,51.768572
Rijksstraatweg,99,,,3316EE,Dordrecht,Dordrecht,Zuid-Holland,VBO,4.642927,51.767777
Rijksstraatweg,101,,,3316EE,Dordrecht,Dordrecht,Zuid-Holland,VBO,4.643258,51.767701
Rijksstraatweg,103,,,3316EG,Dordrecht,Dordrecht,Zuid-Holland,VBO,4.643271,51.767553
Rijksstraatweg,105,,,3316EG,Dordrecht,Dordrecht,Zuid-Holland,VBO,4.643266,51.767499
Rijksstraatweg,107,,,3316EG,Dordrecht,Dordrecht,Zuid-Holland,VBO,4.643259,51.767421
Rijksstraatweg,109,,,3316EG,Dordrecht,Dordrecht,Zuid-Holland,VBO,4.643255,51.767371
Rijksstraatweg,111,,,3316EG,Dordrecht,Dordrecht,Zuid-Holland,VBO,4.643252,51.767305
Rijksstraatweg,113,A,,3316EG,Dordrecht,Dordrecht,Zuid-Holland,VBO,4.640566,51.768147
Rijksstraatweg,113,,,3316EG,Dordrecht,Dordrecht,Zuid-Holland,VBO,4.642705,51.767427
Rijksstraatweg,119,,,3316EG,Dordrecht,Dordrecht,Zuid-Holland,VBO,4.643233,51.767051
Rijksstraatweg,121,,,3316EG,Dordrecht,Dordrecht,Zuid-Holland,VBO,4.643229,51.766998
Rijksstraatweg,123,A,,3316EG,Dordrecht,Dordrecht,Zuid-Holland,VBO,4.642625,51.766763
Rijksstraatweg,123,,,3316EG,Dordrecht,Dordrecht,Zuid-Holland,VBO,4.643207,51.766823
Rijksstraatweg,125,,,3316EG,Dordrecht,Dordrecht,Zuid-Holland,VBO,4.643187,51.766631
Rijksstraatweg,127,,,3316EG,Dordrecht,Dordrecht,Zuid-Holland,VBO,4.643180,51.766562
Rijksstraatweg,129,,,3316EG,Dordrecht,Dordrecht,Zuid-Holland,VBO,4.643174,51.766397
Rijksstraatweg,131,,,3316EG,Dordrecht,Dordrecht,Zuid-Holland,VBO,4.642827,51.766415
Rijksstraatweg,135,,,3316EG,Dordrecht,Dordrecht,Zuid-Holland,VBO,4.643156,51.766126
Rijksstraatweg,137,,,3316EG,Dordrecht,Dordrecht,Zuid-Holland,VBO,4.643000,51.765932
Rijksstraatweg,139,,,3316EG,Dordrecht,Dordrecht,Zuid-Holland,VBO,4.643160,51.765787
Rijksstraatweg,141,,,3316EG,Dordrecht,Dordrecht,Zuid-Holland,VBO,4.643149,51.765608
Rijksstraatweg,143,,,3316EG,Dordrecht,Dordrecht,Zuid-Holland,VBO,4.643140,51.765486
Rijksstraatweg,147,,,3316EG,Dordrecht,Dordrecht,Zuid-Holland,VBO,4.643122,51.765343
Rijksstraatweg,149,,,3316EG,Dordrecht,Dordrecht,Zuid-Holland,VBO,4.643117,51.765215
Rijksstraatweg,151,,,3316EG,Dordrecht,Dordrecht,Zuid-Holland,VBO,4.643113,51.765171
Rijksstraatweg,155,A,,3316EG,Dordrecht,Dordrecht,Zuid-Holland,VBO,4.641947,51.764371
Rijksstraatweg,155,,,3316EG,Dordrecht,Dordrecht,Zuid-Holland,VBO,4.642827,51.764382
Rijksstraatweg,157,,,3316EG,Dordrecht,Dordrecht,Zuid-Holland,VBO,4.642805,51.764381
Rijksstraatweg,167,,,3316EG,Dordrecht,Dordrecht,Zuid-Holland,VBO,4.641451,51.759837
Rijksstraatweg,171,,,3316EG,Dordrecht,Dordrecht,Zuid-Holland,VBO,4.640102,51.756498
Rijksstraatweg,181,,,3316EG,Dordrecht,Dordrecht,Zuid-Holland,VBO,4.633591,51.749884
Rijksstraatweg,185,,,3316EG,Dordrecht,Dordrecht,Zuid-Holland,VBO,4.634021,51.749457
Rijksstraatweg,195,A,,3316EG,Dordrecht,Dordrecht,Zuid-Holland,VBO,4.631122,51.732583
Rijksstraatweg,195,B,,3316EG,Dordrecht,Dordrecht,Zuid-Holland,VBO,4.631138,51.732527
Rijksstraatweg,195,C,,3316EG,Dordrecht,Dordrecht,Zuid-Holland,VBO,4.631154,51.732473
Rijksstraatweg,195,D,,3316EG,Dordrecht,Dordrecht,Zuid-Holland,VBO,4.631096,51.732579
Rijksstraatweg,195,,,3316EG,Dordrecht,Dordrecht,Zuid-Holland,VBO,4.631108,51.732625
Rijksstraatweg,203,,,3316EG,Dordrecht,Dordrecht,Zuid-Holland,VBO,4.629295,51.729039
Rijksstraatweg,321,,,3316EG,Dordrecht,Dordrecht,Zuid-Holland,VBO,4.628152,51.726400
Rijksstraatweg,323,,,3316EG,Dordrecht,Dordrecht,Zuid-Holland,VBO,4.628132,51.726356
Rijksstraatweg,325,,,3316EG,Dordrecht,Dordrecht,Zuid-Holland,VBO,4.628111,51.726312
Rijksstraatweg,327,,,3316EG,Dordrecht,Dordrecht,Zuid-Holland,VBO,4.628091,51.726269
Rijksstraatweg,329,,,3316EG,Dordrecht,Dordrecht,Zuid-Holland,VBO,4.628071,51.726225
Rijksstraatweg,331,,,3316EG,Dordrecht,Dordrecht,Zuid-Holland,VBO,4.628049,51.726179
Rijksstraatweg,333,,,3316EG,Dordrecht,Dordrecht,Zuid-Holland,VBO,4.628029,51.726136
Rijksstraatweg,335,,,3316EG,Dordrecht,Dordrecht,Zuid-Holland,VBO,4.628008,51.726092
Rijksstraatweg,337,,,3316EG,Dordrecht,Dordrecht,Zuid-Holland,VBO,4.627988,51.726049
Rijksstraatweg,339,,,3316EG,Dordrecht,Dordrecht,Zuid-Holland,VBO,4.627967,51.726004
Rijksstraatweg,341,,,3316EG,Dordrecht,Dordrecht,Zuid-Holland,VBO,4.627947,51.725960
Rijksstraatweg,343,,,3316EG,Dordrecht,Dordrecht,Zuid-Holland,VBO,4.627927,51.725917
Rijksstraatweg,345,,,3316EG,Dordrecht,Dordrecht,Zuid-Holland,VBO,4.627930,51.725877
Rijksstraatweg,347,,,3316EG,Dordrecht,Dordrecht,Zuid-Holland,VBO,4.627917,51.725849
Rijksstraatweg,349,,,3316EG,Dordrecht,Dordrecht,Zuid-Holland,VBO,4.627904,51.725818
Rijksstraatweg,351,,,3316EG,Dordrecht,Dordrecht,Zuid-Holland,VBO,4.627890,51.725789
Rijksstraatweg,365,,,3316EG,Dordrecht,Dordrecht,Zuid-Holland,LIG,4.626775,51.720864
Rijksstraatweg,10,A,,3316EH,Dordrecht,Dordrecht,Zuid-Holland,VBO,4.645779,51.781327
Rijksstraatweg,10,,,3316EH,Dordrecht,Dordrecht,Zuid-Holland,VBO,4.644876,51.781305
Rijksstraatweg,12,,,3316EH,Dordrecht,Dordrecht,Zuid-Holland,VBO,4.645274,51.780685
Rijksstraatweg,16,,,3316EH,Dordrecht,Dordrecht,Zuid-Holland,VBO,4.644738,51.779403
Rijksstraatweg,18,,,3316EH,Dordrecht,Dordrecht,Zuid-Holland,VBO,4.644696,51.779326
Rijksstraatweg,20,,,3316EH,Dordrecht,Dordrecht,Zuid-Holland,VBO,4.644661,51.779263
Rijksstraatweg,22,,,3316EH,Dordrecht,Dordrecht,Zuid-Holland,VBO,4.644691,51.779198
Rijksstraatweg,24,,,3316EH,Dordrecht,Dordrecht,Zuid-Holland,VBO,4.644722,51.779118
Rijksstraatweg,28,,,3316EH,Dordrecht,Dordrecht,Zuid-Holland,VBO,4.645682,51.775360
Rijksstraatweg,30,A,,3316EH,Dordrecht,Dordrecht,Zuid-Holland,VBO,4.647765,51.774904
Rijksstraatweg,30,,,3316EH,Dordrecht,Dordrecht,Zuid-Holland,VBO,4.647233,51.774784
Rijksstraatweg,32,,,3316EH,Dordrecht,Dordrecht,Zuid-Holland,VBO,4.647291,51.774161
Rijksstraatweg,40,A,,3316EH,Dordrecht,Dordrecht,Zuid-Holland,VBO,4.644707,51.773516
Rijksstraatweg,40,B,,3316EH,Dordrecht,Dordrecht,Zuid-Holland,VBO,4.644214,51.773680
Rijksstraatweg,40,,,3316EH,Dordrecht,Dordrecht,Zuid-Holland,VBO,4.644179,51.773230
Rijksstraatweg,42,,,3316EH,Dordrecht,Dordrecht,Zuid-Holland,VBO,4.644165,51.773008
Rijksstraatweg,52,,,3316EH,Dordrecht,Dordrecht,Zuid-Holland,VBO,4.644201,51.771192
Rijksstraatweg,54,A,,3316EH,Dordrecht,Dordrecht,Zuid-Holland,VBO,4.643978,51.770715
Rijksstraatweg,54,B,,3316EH,Dordrecht,Dordrecht,Zuid-Holland,VBO,4.643976,51.770669
Rijksstraatweg,54,C,,3316EH,Dordrecht,Dordrecht,Zuid-Holland,VBO,4.643971,51.770623
Rijksstraatweg,54,D,,3316EH,Dordrecht,Dordrecht,Zuid-Holland,VBO,4.643968,51.770575
Rijksstraatweg,54,E,,3316EH,Dordrecht,Dordrecht,Zuid-Holland,VBO,4.643922,51.770321
Rijksstraatweg,54,F,,3316EH,Dordrecht,Dordrecht,Zuid-Holland,VBO,4.643918,51.770274
Rijksstraatweg,54,G,,3316EH,Dordrecht,Dordrecht,Zuid-Holland,VBO,4.643915,51.770228
Rijksstraatweg,54,H,,3316EH,Dordrecht,Dordrecht,Zuid-Holland,VBO,4.643911,51.770184
Rijksstraatweg,54,I,,3316EH,Dordrecht,Dordrecht,Zuid-Holland,VBO,4.643908,51.770136
Rijksstraatweg,54,J,,3316EH,Dordrecht,Dordrecht,Zuid-Holland,VBO,4.643904,51.770091
Rijksstraatweg,54,K,,3316EH,Dordrecht,Dordrecht,Zuid-Holland,VBO,4.643901,51.770046
Rijksstraatweg,54,L,,3316EH,Dordrecht,Dordrecht,Zuid-Holland,VBO,4.643897,51.770002
Rijksstraatweg,56,A,,3316EH,Dordrecht,Dordrecht,Zuid-Holland,VBO,4.643884,51.769473
Rijksstraatweg,56,,,3316EH,Dordrecht,Dordrecht,Zuid-Holland,VBO,4.643891,51.769785
Rijksstraatweg,58,,,3316EH,Dordrecht,Dordrecht,Zuid-Holland,VBO,4.644339,51.769270
Rijksstraatweg,60,B,,3316EH,Dordrecht,Dordrecht,Zuid-Holland,VBO,4.644317,51.769115
Rijksstraatweg,62,A,,3316EH,Dordrecht,Dordrecht,Zuid-Holland,VBO,4.644092,51.768747
Rijksstraatweg,62,,,3316EH,Dordrecht,Dordrecht,Zuid-Holland,VBO,4.643899,51.768895
Rijksstraatweg,64,,,3316EH,Dordrecht,Dordrecht,Zuid-Holland,VBO,4.643809,51.768690
Rijksstraatweg,66,,,3316EH,Dordrecht,Dordrecht,Zuid-Holland,VBO,4.644157,51.768239
Rijksstraatweg,68,,,3316EH,Dordrecht,Dordrecht,Zuid-Holland,VBO,4.643831,51.768130
Rijksstraatweg,74,,,3316EH,Dordrecht,Dordrecht,Zuid-Holland,VBO,4.643922,51.766797
Rijksstraatweg,76,,,3316EH,Dordrecht,Dordrecht,Zuid-Holland,VBO,4.643866,51.766419
Rijksstraatweg,78,,,3316EH,Dordrecht,Dordrecht,Zuid-Holland,VBO,4.643858,51.766324
Rijksstraatweg,80,,,3316EH,Dordrecht,Dordrecht,Zuid-Holland,VBO,4.643654,51.766012
Rijksstraatweg,82,,,3316EH,Dordrecht,Dordrecht,Zuid-Holland,VBO,4.643646,51.765880
Rijksstraatweg,84,,,3316EH,Dordrecht,Dordrecht,Zuid-Holland,VBO,4.643803,51.765704
Rijksstraatweg,86,,,3316EH,Dordrecht,Dordrecht,Zuid-Holland,VBO,4.643764,51.765627
Rijksstraatweg,88,,,3316EH,Dordrecht,Dordrecht,Zuid-Holland,VBO,4.643841,51.765555
Rijksstraatweg,90,A,,3316EH,Dordrecht,Dordrecht,Zuid-Holland,VBO,4.643808,51.765043
Rijksstraatweg,90,,,3316EH,Dordrecht,Dordrecht,Zuid-Holland,VBO,4.643828,51.765322
Rijksstraatweg,92,B,,3316EH,Dordrecht,Dordrecht,Zuid-Holland,VBO,4.643666,51.764457
Rijksstraatweg,92,C,,3316EH,Dordrecht,Dordrecht,Zuid-Holland,VBO,4.644152,51.764416
Rijksstraatweg,92,,,3316EH,Dordrecht,Dordrecht,Zuid-Holland,VBO,4.643519,51.764410
Rijksstraatweg,100,,,3316EH,Dordrecht,Dordrecht,Zuid-Holland,VBO,4.643706,51.763401
Rijksstraatweg,104,,,3316EJ,Dordrecht,Dordrecht,Zuid-Holland,VBO,4.642740,51.760500
Rijksstraatweg,108,,,3316EJ,Dordrecht,Dordrecht,Zuid-Holland,VBO,4.641685,51.758288
Rijksstraatweg,110,,,3316EJ,Dordrecht,Dordrecht,Zuid-Holland,VBO,4.641625,51.758086
Rijksstraatweg,112,,,3316EJ,Dordrecht,Dordrecht,Zuid-Holland,VBO,4.641434,51.757671
Rijksstraatweg,126,,,3316EJ,Dordrecht,Dordrecht,Zuid-Holland,VBO,4.637422,51.747525
Rijksstraatweg,134,A,,3316EJ,Dordrecht,Dordrecht,Zuid-Holland,VBO,4.635891,51.743923
Rijksstraatweg,134,B,,3316EJ,Dordrecht,Dordrecht,Zuid-Holland,VBO,4.635500,51.742957
Rijksstraatweg,134,C,,3316EJ,Dordrecht,Dordrecht,Zuid-Holland,VBO,4.636213,51.744081
Rijksstraatweg,134,,,3316EJ,Dordrecht,Dordrecht,Zuid-Holland,VBO,4.636395,51.743597
Rijksstraatweg,136,,,3316EJ,Dordrecht,Dordrecht,Zuid-Holland,VBO,4.636190,51.742807
Rijksstraatweg,138,,,3316EJ,Dordrecht,Dordrecht,Zuid-Holland,VBO,4.635832,51.742697
Rijksstraatweg,142,,,3316EJ,Dordrecht,Dordrecht,Zuid-Holland,VBO,4.635251,51.741131
Rijksstraatweg,150,,,3316EJ,Dordrecht,Dordrecht,Zuid-Holland,VBO,4.632604,51.734816
Rijksstraatweg,160,,,3316EJ,Dordrecht,Dordrecht,Zuid-Holland,VBO,4.631091,51.732223
Rijksstraatweg,162,A,,3316EJ,Dordrecht,Dordrecht,Zuid-Holland,VBO,4.630893,51.731956
Rijksstraatweg,162,C,,3316EJ,Dordrecht,Dordrecht,Zuid-Holland,VBO,4.630807,51.731748
Rijksstraatweg,162,D,,3316EJ,Dordrecht,Dordrecht,Zuid-Holland,VBO,4.630771,51.731662
Rijksstraatweg,162,E,,3316EJ,Dordrecht,Dordrecht,Zuid-Holland,VBO,4.630736,51.731577
Rijksstraatweg,162,F,,3316EJ,Dordrecht,Dordrecht,Zuid-Holland,VBO,4.630966,51.732022
Rijksstraatweg,162,,,3316EJ,Dordrecht,Dordrecht,Zuid-Holland,VBO,4.630853,51.731849
Rijksstraatweg,164,,,3316EJ,Dordrecht,Dordrecht,Zuid-Holland,VBO,4.630804,51.731337
Rijksstraatweg,166,,,3316EJ,Dordrecht,Dordrecht,Zuid-Holland,VBO,4.630569,51.731155
Rijksstraatweg,168,,,3316EJ,Dordrecht,Dordrecht,Zuid-Holland,VBO,4.630484,51.730953
Rijksstraatweg,170,,,3316EJ,Dordrecht,Dordrecht,Zuid-Holland,VBO,4.630461,51.730894
Rijksstraatweg,172,,,3316EJ,Dordrecht,Dordrecht,Zuid-Holland,VBO,4.630414,51.730762
Rijksstraatweg,174,,,3316EJ,Dordrecht,Dordrecht,Zuid-Holland,VBO,4.630327,51.730564
Rijksstraatweg,178,,,3316EJ,Dordrecht,Dordrecht,Zuid-Holland,VBO,4.630248,51.730375
Rijksstraatweg,180,,,3316EJ,Dordrecht,Dordrecht,Zuid-Holland,VBO,4.630197,51.730237
Rijksstraatweg,184,,,3316EJ,Dordrecht,Dordrecht,Zuid-Holland,VBO,4.630665,51.729753
Rijksstraatweg,186,G,1,3316EJ,Dordrecht,Dordrecht,Zuid-Holland,VBO,4.629486,51.725943
Rijksstraatweg,186,G,2,3316EJ,Dordrecht,Dordrecht,Zuid-Holland,VBO,4.629970,51.725894
Rijksstraatweg,186,,,3316EJ,Dordrecht,Dordrecht,Zuid-Holland,VBO,4.629352,51.725425
Rijksstraatweg,188,,,3316EJ,Dordrecht,Dordrecht,Zuid-Holland,VBO,4.629087,51.727169
Rijksstraatweg,190,,,3316EJ,Dordrecht,Dordrecht,Zuid-Holland,VBO,4.629110,51.727167
Rijksstraatweg,220,,,3316EJ,Dordrecht,Dordrecht,Zuid-Holland,VBO,4.628373,51.721567
Rijksstraatweg,222,,,3316EJ,Dordrecht,Dordrecht,Zuid-Holland,VBO,4.628344,51.721566
Vierlinghstraat,6,,,3316EL,Dordrecht,Dordrecht,Zuid-Holland,VBO,4.647875,51.777679
Vierlinghstraat,8,,,3316EL,Dordrecht,Dordrecht,Zuid-Holland,VBO,4.647610,51.777687
Vierlinghstraat,14,,,3316EL,Dordrecht,Dordrecht,Zuid-Holland,VBO,4.646961,51.777679
Vierlinghstraat,16,,,3316EL,Dordrecht,Dordrecht,Zuid-Holland,VBO,4.646944,51.777488
Vierlinghstraat,18,,,3316EL,Dordrecht,Dordrecht,Zuid-Holland,VBO,4.646931,51.777302
Vierlinghstraat,22,,,3316EL,Dordrecht,Dordrecht,Zuid-Holland,VBO,4.646770,51.777704
Vierlinghstraat,24,,,3316EL,Dordrecht,Dordrecht,Zuid-Holland,VBO,4.646165,51.777821
Vierlinghstraat,46,A,,3316EL,Dordrecht,Dordrecht,Zuid-Holland,VBO,4.645021,51.777247
Vierlinghstraat,46,B,,3316EL,Dordrecht,Dordrecht,Zuid-Holland,VBO,4.644908,51.777252
Vierlinghstraat,52,,,3316EL,Dordrecht,Dordrecht,Zuid-Holland,VBO,4.644807,51.776727
Vierlinghstraat,56,,,3316EL,Dordrecht,Dordrecht,Zuid-Holland,VBO,4.644872,51.776228
Vierlinghstraat,60,,,3316EL,Dordrecht,Dordrecht,Zuid-Holland,VBO,4.644858,51.776008
Vierlinghstraat,64,,,3316EL,Dordrecht,Dordrecht,Zuid-Holland,VBO,4.644849,51.775867
Wieldrechtse Zeedijk,35,,,3316EM,Dordrecht,Dordrecht,Zuid-Holland,VBO,4.643907,51.763127
Wieldrechtse Zeedijk,41,,,3316EM,Dordrecht,Dordrecht,Zuid-Holland,VBO,4.643383,51.762902
Wieldrechtse Zeedijk,43,,,3316EN,Dordrecht,Dordrecht,Zuid-Holland,VBO,4.642911,51.762786
Wieldrechtse Zeedijk,47,,,3316EN,Dordrecht,Dordrecht,Zuid-Holland,VBO,4.642147,51.762626
Wieldrechtse Zeedijk,49,B,,3316EN,Dordrecht,Dordrecht,Zuid-Holland,VBO,4.641697,51.762537
Wieldrechtse Zeedijk,49,C,,3316EN,Dordrecht,Dordrecht,Zuid-Holland,VBO,4.641342,51.762444
Wieldrechtse Zeedijk,49,,,3316EN,Dordrecht,Dordrecht,Zuid-Holland,VBO,4.642080,51.762606
Wieldrechtse Zeedijk,51,,,3316EN,Dordrecht,Dordrecht,Zuid-Holland,VBO,4.640706,51.762269
Wieldrechtse Zeedijk,53,,,3316EN,Dordrecht,Dordrecht,Zuid-Holland,VBO,4.640389,51.762192
Wieldrechtse Zeedijk,55,,,3316EN,Dordrecht,Dordrecht,Zuid-Holland,VBO,4.640287,51.762166
Wieldrechtse Zeedijk,59,,,3316EN,Dordrecht,Dordrecht,Zuid-Holland,VBO,4.639767,51.762025
Wieldrechtse Zeedijk,61,,,3316EN,Dordrecht,Dordrecht,Zuid-Holland,VBO,4.639260,51.761896
Wieldrechtse Zeedijk,63,,,3316EN,Dordrecht,Dordrecht,Zuid-Holland,VBO,4.639105,51.761855
Wieldrechtse Zeedijk,67,,,3316EN,Dordrecht,Dordrecht,Zuid-Holland,VBO,4.638542,51.761698
Wieldrechtse Zeedijk,69,,,3316EN,Dordrecht,Dordrecht,Zuid-Holland,VBO,4.638178,51.761595
Wieldrechtse Zeedijk,71,,,3316EN,Dordrecht,Dordrecht,Zuid-Holland,VBO,4.638080,51.761570
Wieldrechtse Zeedijk,73,,,3316EN,Dordrecht,Dordrecht,Zuid-Holland,VBO,4.637765,51.761520
Wieldrechtse Zeedijk,199,A,,3316EN,Dordrecht,Dordrecht,Zuid-Holland,VBO,4.630249,51.769819
Wieldrechtse Zeedijk,215,,,3316EN,Dordrecht,Dordrecht,Zuid-Holland,VBO,4.629695,51.770521
Wieldrechtse Zeedijk,68,,,3316EP,Dordrecht,Dordrecht,Zuid-Holland,VBO,4.645423,51.763335
Wieldrechtse Zeedijk,70,,,3316EP,Dordrecht,Dordrecht,Zuid-Holland,VBO,4.644959,51.763190
Wieldrechtse Zeedijk,72,,,3316EP,Dordrecht,Dordrecht,Zuid-Holland,VBO,4.644860,51.763163
Wieldrechtse Zeedijk,74,,,3316EP,Dordrecht,Dordrecht,Zuid-Holland,VBO,4.644421,51.763062
Wieldrechtse Zeedijk,76,,,3316EP,Dordrecht,Dordrecht,Zuid-Holland,VBO,4.644326,51.763036
Wieldrechtse Zeedijk,78,,,3316EP,Dordrecht,Dordrecht,Zuid-Holland,VBO,4.643404,51.762824
Wieldrechtse Zeedijk,82,,,3316EP,Dordrecht,Dordrecht,Zuid-Holland,VBO,4.643270,51.762791
Wieldrechtse Zeedijk,86,,,3316ER,Dordrecht,Dordrecht,Zuid-Holland,VBO,4.642751,51.762626
Wieldrechtse Zeedijk,90,,,3316ER,Dordrecht,Dordrecht,Zuid-Holland,VBO,4.642184,51.762473
Wieldrechtse Zeedijk,92,,,3316ER,Dordrecht,Dordrecht,Zuid-Holland,VBO,4.641523,51.762342
Wieldrechtse Zeedijk,94,,,3316ER,Dordrecht,Dordrecht,Zuid-Holland,VBO,4.640678,51.762076
Wieldrechtse Zeedijk,96,,,3316ER,Dordrecht,Dordrecht,Zuid-Holland,VBO,4.640406,51.762009
Wieldrechtse Zeedijk,98,,,3316ER,Dordrecht,Dordrecht,Zuid-Holland,VBO,4.639797,51.761847
Wieldrechtse Zeedijk,100,,,3316ER,Dordrecht,Dordrecht,Zuid-Holland,VBO,4.639671,51.761814
Wieldrechtse Zeedijk,102,,,3316ER,Dordrecht,Dordrecht,Zuid-Holland,VBO,4.639293,51.761714
Wieldrechtse Zeedijk,104,B,,3316ER,Dordrecht,Dordrecht,Zuid-Holland,VBO,4.638267,51.761473
Wieldrechtse Zeedijk,104,,,3316ER,Dordrecht,Dordrecht,Zuid-Holland,VBO,4.638535,51.761490
Kiltunnelweg,102,,,3316ES,Dordrecht,Dordrecht,Zuid-Holland,VBO,4.629966,51.772875
Kiltunnelweg,103,,,3316ES,Dordrecht,Dordrecht,Zuid-Holland,VBO,4.638661,51.772368
Cornelis Lelystraat,9,,,3316ET,Dordrecht,Dordrecht,Zuid-Holland,VBO,4.647223,51.779019
Cornelis Lelystraat,11,,,3316ET,Dordrecht,Dordrecht,Zuid-Holland,VBO,4.647169,51.779635
Cornelis Lelystraat,12,,,3316ET,Dordrecht,Dordrecht,Zuid-Holland,VBO,4.646617,51.779044
Buys Ballotstraat,10,A,,3316GA,Dordrecht,Dordrecht,Zuid-Holland,VBO,4.638088,51.780632
Bessemerstraat,1,,,3316GB,Dordrecht,Dordrecht,Zuid-Holland,VBO,4.640851,51.779014
Bessemerstraat,3,,,3316GB,Dordrecht,Dordrecht,Zuid-Holland,VBO,4.640839,51.778848
Bessemerstraat,4,,,3316GB,Dordrecht,Dordrecht,Zuid-Holland,VBO,4.641351,51.779237
Bessemerstraat,5,,,3316GB,Dordrecht,Dordrecht,Zuid-Holland,VBO,4.640832,51.778657
Bessemerstraat,6,,,3316GB,Dordrecht,Dordrecht,Zuid-Holland,VBO,4.641343,51.779105
Bessemerstraat,7,,,3316GB,Dordrecht,Dordrecht,Zuid-Holland,VBO,4.640804,51.778485
Bessemerstraat,8,,,3316GB,Dordrecht,Dordrecht,Zuid-Holland,VBO,4.641334,51.778964
Bessemerstraat,9,,,3316GB,Dordrecht,Dordrecht,Zuid-Holland,VBO,4.640797,51.778309
Bessemerstraat,10,,,3316GB,Dordrecht,Dordrecht,Zuid-Holland,VBO,4.641329,51.778839
Bunsenstraat,1,,,3316GC,Dordrecht,Dordrecht,Zuid-Holland,VBO,4.631940,51.779870
Bunsenstraat,3,,,3316GC,Dordrecht,Dordrecht,Zuid-Holland,VBO,4.631931,51.779657
Bunsenstraat,5,,,3316GC,Dordrecht,Dordrecht,Zuid-Holland,VBO,4.631914,51.779459
Bunsenstraat,10,,,3316GC,Dordrecht,Dordrecht,Zuid-Holland,VBO,4.632561,51.779349
Bunsenstraat,12,,,3316GC,Dordrecht,Dordrecht,Zuid-Holland,VBO,4.632548,51.779192
Bunsenstraat,13,,,3316GC,Dordrecht,Dordrecht,Zuid-Holland,VBO,4.631050,51.778805
Bunsenstraat,15,,,3316GC,Dordrecht,Dordrecht,Zuid-Holland,VBO,4.631065,51.778987
Bunsenstraat,17,,,3316GC,Dordrecht,Dordrecht,Zuid-Holland,VBO,4.631071,51.779190
Bunsenstraat,18,,,3316GC,Dordrecht,Dordrecht,Zuid-Holland,VBO,4.632437,51.778945
Bunsenstraat,19,,,3316GC,Dordrecht,Dordrecht,Zuid-Holland,VBO,4.632012,51.779170
Bunsenstraat,21,,,3316GC,Dordrecht,Dordrecht,Zuid-Holland,VBO,4.631999,51.778979
Bunsenstraat,22,,,3316GC,Dordrecht,Dordrecht,Zuid-Holland,VBO,4.632476,51.778433
Bunsenstraat,23,,,3316GC,Dordrecht,Dordrecht,Zuid-Holland,VBO,4.631983,51.778749
Bunsenstraat,32,,,3316GC,Dordrecht,Dordrecht,Zuid-Holland,VBO,4.632376,51.777979
Bunsenstraat,34,,,3316GC,Dordrecht,Dordrecht,Zuid-Holland,VBO,4.633892,51.777694
Bunsenstraat,38,A,,3316GC,Dordrecht,Dordrecht,Zuid-Holland,VBO,4.632291,51.776542
Bunsenstraat,38,,,3316GC,Dordrecht,Dordrecht,Zuid-Holland,VBO,4.632858,51.777318
Bunsenstraat,47,,,3316GC,Dordrecht,Dordrecht,Zuid-Holland,VBO,4.631803,51.778326
Bunsenstraat,49,,,3316GC,Dordrecht,Dordrecht,Zuid-Holland,VBO,4.631813,51.777874
Bunsenstraat,61,,,3316GC,Dordrecht,Dordrecht,Zuid-Holland,VBO,4.631888,51.777340
Bunsenstraat,63,,,3316GC,Dordrecht,Dordrecht,Zuid-Holland,VBO,4.631282,51.777189
Bunsenstraat,65,,,3316GC,Dordrecht,Dordrecht,Zuid-Holland,VBO,4.630748,51.777205
Bunsenstraat,72,,,3316GC,Dordrecht,Dordrecht,Zuid-Holland,VBO,4.632258,51.775703
Bunsenstraat,79,,,3316GC,Dordrecht,Dordrecht,Zuid-Holland,VBO,4.631835,51.776590
Bunsenstraat,90,,,3316GC,Dordrecht,Dordrecht,Zuid-Holland,VBO,4.632276,51.775253
Bunsenstraat,95,,,3316GC,Dordrecht,Dordrecht,Zuid-Holland,VBO,4.631747,51.775944
Bunsenstraat,125,,,3316GC,Dordrecht,Dordrecht,Zuid-Holland,VBO,4.631526,51.774780
Daltonstraat,1,,,3316GD,Dordrecht,Dordrecht,Zuid-Holland,VBO,4.637988,51.779715
Daltonstraat,5,,,3316GD,Dordrecht,Dordrecht,Zuid-Holland,VBO,4.637977,51.779175
Daltonstraat,6,,,3316GD,Dordrecht,Dordrecht,Zuid-Holland,VBO,4.638268,51.778803
Daltonstraat,7,,,3316GD,Dordrecht,Dordrecht,Zuid-Holland,VBO,4.637968,51.779041
Daltonstraat,8,,,3316GD,Dordrecht,Dordrecht,Zuid-Holland,VBO,4.638297,51.778509
Daltonstraat,9,,,3316GD,Dordrecht,Dordrecht,Zuid-Holland,VBO,4.637950,51.778775
Daltonstraat,10,,,3316GD,Dordrecht,Dordrecht,Zuid-Holland,VBO,4.638288,51.778349
Daltonstraat,12,,,3316GD,Dordrecht,Dordrecht,Zuid-Holland,VBO,4.638663,51.778186
Daltonstraat,14,,,3316GD,Dordrecht,Dordrecht,Zuid-Holland,VBO,4.638270,51.778021
Daltonstraat,16,,,3316GD,Dordrecht,Dordrecht,Zuid-Holland,VBO,4.638455,51.777866
Daltonstraat,17,A,,3316GD,Dordrecht,Dordrecht,Zuid-Holland,VBO,4.637911,51.778116
Daltonstraat,17,,,3316GD,Dordrecht,Dordrecht,Zuid-Holland,VBO,4.637936,51.778499
Daltonstraat,19,,,3316GD,Dordrecht,Dordrecht,Zuid-Holland,VBO,4.637861,51.777622
Daltonstraat,25,,,3316GD,Dordrecht,Dordrecht,Zuid-Holland,VBO,4.637753,51.777041
Daltonstraat,27,,,3316GD,Dordrecht,Dordrecht,Zuid-Holland,VBO,4.637749,51.776991
Daltonstraat,30,A,,3316GD,Dordrecht,Dordrecht,Zuid-Holland,VBO,4.638297,51.777142
Daltonstraat,30,B,,3316GD,Dordrecht,Dordrecht,Zuid-Holland,VBO,4.638347,51.777141
Daltonstraat,30,C,,3316GD,Dordrecht,Dordrecht,Zuid-Holland,VBO,4.638350,51.777101
Daltonstraat,30,D,,3316GD,Dordrecht,Dordrecht,Zuid-Holland,VBO,4.638444,51.777138
Daltonstraat,30,E,,3316GD,Dordrecht,Dordrecht,Zuid-Holland,VBO,4.638492,51.777137
Daltonstraat,30,F,,3316GD,Dordrecht,Dordrecht,Zuid-Holland,VBO,4.638538,51.777167
Daltonstraat,30,,,3316GD,Dordrecht,Dordrecht,Zuid-Holland,VBO,4.638378,51.777227
Daltonstraat,32,,,3316GD,Dordrecht,Dordrecht,Zuid-Holland,VBO,4.638311,51.776915
Daltonstraat,35,A,,3316GD,Dordrecht,Dordrecht,Zuid-Holland,VBO,4.637871,51.776493
Daltonstraat,35,,,3316GD,Dordrecht,Dordrecht,Zuid-Holland,VBO,4.637882,51.776783
Daltonstraat,40,,,3316GD,Dordrecht,Dordrecht,Zuid-Holland,VBO,4.638287,51.776611
Daltonstraat,43,,,3316GD,Dordrecht,Dordrecht,Zuid-Holland,VBO,4.637786,51.776298
Daltonstraat,48,,,3316GD,Dordrecht,Dordrecht,Zuid-Holland,VBO,4.638099,51.776072
Daltonstraat,49,,,3316GD,Dordrecht,Dordrecht,Zuid-Holland,VBO,4.637782,51.776075
Daltonstraat,54,,,3316GD,Dordrecht,Dordrecht,Zuid-Holland,VBO,4.638154,51.775672
Daltonstraat,65,,,3316GD,Dordrecht,Dordrecht,Zuid-Holland,VBO,4.637727,51.775411
Daltonstraat,78,,,3316GD,Dordrecht,Dordrecht,Zuid-Holland,VBO,4.638031,51.775012
Debijestraat,4,,,3316GE,Dordrecht,Dordrecht,Zuid-Holland,VBO,4.635518,51.781345
Debijestraat,5,,,3316GE,Dordrecht,Dordrecht,Zuid-Holland,VBO,4.635118,51.781239
Debijestraat,6,,,3316GE,Dordrecht,Dordrecht,Zuid-Holland,VBO,4.635567,51.781195
Debijestraat,8,,,3316GE,Dordrecht,Dordrecht,Zuid-Holland,VBO,4.635563,51.781113
Debijestraat,10,,,3316GE,Dordrecht,Dordrecht,Zuid-Holland,VBO,4.635559,51.781038
Debijestraat,14,,,3316GE,Dordrecht,Dordrecht,Zuid-Holland,VBO,4.635477,51.780797
Debijestraat,18,,,3316GE,Dordrecht,Dordrecht,Zuid-Holland,VBO,4.635466,51.780599
Einsteinstraat,5,,,3316GG,Dordrecht,Dordrecht,Zuid-Holland,VBO,4.636474,51.779177
Einsteinstraat,6,,,3316GG,Dordrecht,Dordrecht,Zuid-Holland,VBO,4.636873,51.779242
Einsteinstraat,7,,,3316GG,Dordrecht,Dordrecht,Zuid-Holland,VBO,4.636346,51.778744
Einsteinstraat,8,,,3316GG,Dordrecht,Dordrecht,Zuid-Holland,VBO,4.636867,51.779023
Einsteinstraat,9,,,3316GG,Dordrecht,Dordrecht,Zuid-Holland,VBO,4.636501,51.778467
Einsteinstraat,12,,,3316GG,Dordrecht,Dordrecht,Zuid-Holland,VBO,4.636881,51.778523
Einsteinstraat,13,,,3316GG,Dordrecht,Dordrecht,Zuid-Holland,VBO,4.636439,51.778056
Einsteinstraat,14,A,,3316GG,Dordrecht,Dordrecht,Zuid-Holland,VBO,4.637089,51.778449
Einsteinstraat,14,B,,3316GG,Dordrecht,Dordrecht,Zuid-Holland,VBO,4.637151,51.778447
Einsteinstraat,14,C,,3316GG,Dordrecht,Dordrecht,Zuid-Holland,VBO,4.637263,51.778444
Einsteinstraat,14,D,,3316GG,Dordrecht,Dordrecht,Zuid-Holland,VBO,4.637325,51.778443
Einsteinstraat,14,E,,3316GG,Dordrecht,Dordrecht,Zuid-Holland,VBO,4.637438,51.778440
Einsteinstraat,14,F,,3316GG,Dordrecht,Dordrecht,Zuid-Holland,VBO,4.637499,51.778438
Einsteinstraat,14,G,,3316GG,Dordrecht,Dordrecht,Zuid-Holland,VBO,4.637610,51.778435
Einsteinstraat,14,H,,3316GG,Dordrecht,Dordrecht,Zuid-Holland,VBO,4.637671,51.778434
Einsteinstraat,14,K,,3316GG,Dordrecht,Dordrecht,Zuid-Holland,VBO,4.637780,51.778420
Einsteinstraat,14,,,3316GG,Dordrecht,Dordrecht,Zuid-Holland,VBO,4.636876,51.778452
Einsteinstraat,16,A,,3316GG,Dordrecht,Dordrecht,Zuid-Holland,VBO,4.637077,51.778216
Einsteinstraat,16,B,,3316GG,Dordrecht,Dordrecht,Zuid-Holland,VBO,4.637137,51.778214
Einsteinstraat,16,C,,3316GG,Dordrecht,Dordrecht,Zuid-Holland,VBO,4.637247,51.778212
Einsteinstraat,16,D,,3316GG,Dordrecht,Dordrecht,Zuid-Holland,VBO,4.637313,51.778210
Einsteinstraat,16,E,,3316GG,Dordrecht,Dordrecht,Zuid-Holland,VBO,4.637421,51.778207
Einsteinstraat,16,F,,3316GG,Dordrecht,Dordrecht,Zuid-Holland,VBO,4.637487,51.778206
Einsteinstraat,16,G,,3316GG,Dordrecht,Dordrecht,Zuid-Holland,VBO,4.637596,51.778203
Einsteinstraat,16,H,,3316GG,Dordrecht,Dordrecht,Zuid-Holland,VBO,4.637659,51.778201
Einsteinstraat,16,K,,3316GG,Dordrecht,Dordrecht,Zuid-Holland,VBO,4.637778,51.778210
Einsteinstraat,16,,,3316GG,Dordrecht,Dordrecht,Zuid-Holland,VBO,4.636861,51.778214
Einsteinstraat,17,,,3316GG,Dordrecht,Dordrecht,Zuid-Holland,VBO,4.636402,51.777777
Einsteinstraat,18,,,3316GG,Dordrecht,Dordrecht,Zuid-Holland,VBO,4.636856,51.778144
Einsteinstraat,29,,,3316GG,Dordrecht,Dordrecht,Zuid-Holland,VBO,4.636276,51.777157
Einsteinstraat,31,,,3316GG,Dordrecht,Dordrecht,Zuid-Holland,VBO,4.636312,51.776909
Einsteinstraat,33,,,3316GG,Dordrecht,Dordrecht,Zuid-Holland,VBO,4.636296,51.776769
Einsteinstraat,35,,,3316GG,Dordrecht,Dordrecht,Zuid-Holland,VBO,4.636293,51.776622
Einsteinstraat,37,,,3316GG,Dordrecht,Dordrecht,Zuid-Holland,VBO,4.636294,51.776468
Einsteinstraat,38,,,3316GG,Dordrecht,Dordrecht,Zuid-Holland,VBO,4.636756,51.777227
Einsteinstraat,44,,,3316GG,Dordrecht,Dordrecht,Zuid-Holland,VBO,4.636904,51.777019
Einsteinstraat,46,,,3316GG,Dordrecht,Dordrecht,Zuid-Holland,VBO,4.636959,51.776853
Einsteinstraat,48,,,3316GG,Dordrecht,Dordrecht,Zuid-Holland,VBO,4.636955,51.776813
Einsteinstraat,50,,,3316GG,Dordrecht,Dordrecht,Zuid-Holland,VBO,4.636883,51.776651
Einsteinstraat,54,,,3316GG,Dordrecht,Dordrecht,Zuid-Holland,VBO,4.636658,51.776484
Einsteinstraat,60,,,3316GG,Dordrecht,Dordrecht,Zuid-Holland,VBO,4.636661,51.776290
Einsteinstraat,61,A,,3316GG,Dordrecht,Dordrecht,Zuid-Holland,VBO,4.636343,51.776348
Einsteinstraat,61,B,,3316GG,Dordrecht,Dordrecht,Zuid-Holland,VBO,4.636245,51.776351
Einsteinstraat,61,C,,3316GG,Dordrecht,Dordrecht,Zuid-Holland,VBO,4.636161,51.776354
Einsteinstraat,61,D,,3316GG,Dordrecht,Dordrecht,Zuid-Holland,VBO,4.636072,51.776355
Einsteinstraat,61,E,,3316GG,Dordrecht,Dordrecht,Zuid-Holland,VBO,4.635984,51.776356
Einsteinstraat,61,F,,3316GG,Dordrecht,Dordrecht,Zuid-Holland,VBO,4.635895,51.776357
Einsteinstraat,61,G,,3316GG,Dordrecht,Dordrecht,Zuid-Holland,VBO,4.635796,51.776358
Einsteinstraat,61,H,,3316GG,Dordrecht,Dordrecht,Zuid-Holland,VBO,4.635707,51.776361
Einsteinstraat,61,I,,3316GG,Dordrecht,Dordrecht,Zuid-Holland,VBO,4.635622,51.776363
Einsteinstraat,61,J,,3316GG,Dordrecht,Dordrecht,Zuid-Holland,VBO,4.635528,51.776367
Einsteinstraat,61,K,,3316GG,Dordrecht,Dordrecht,Zuid-Holland,VBO,4.635440,51.776369
Einsteinstraat,61,L,,3316GG,Dordrecht,Dordrecht,Zuid-Holland,VBO,4.635341,51.776372
Einsteinstraat,61,M,,3316GG,Dordrecht,Dordrecht,Zuid-Holland,VBO,4.635265,51.776372
Einsteinstraat,61,N,,3316GG,Dordrecht,Dordrecht,Zuid-Holland,VBO,4.635254,51.776209
Einsteinstraat,61,O,,3316GG,Dordrecht,Dordrecht,Zuid-Holland,VBO,4.635324,51.776207
Einsteinstraat,61,P,,3316GG,Dordrecht,Dordrecht,Zuid-Holland,VBO,4.635417,51.776205
Einsteinstraat,61,Q,,3316GG,Dordrecht,Dordrecht,Zuid-Holland,VBO,4.635518,51.776204
Einsteinstraat,61,R,,3316GG,Dordrecht,Dordrecht,Zuid-Holland,VBO,4.635616,51.776200
Einsteinstraat,61,S,,3316GG,Dordrecht,Dordrecht,Zuid-Holland,VBO,4.635703,51.776197
Einsteinstraat,61,T,,3316GG,Dordrecht,Dordrecht,Zuid-Holland,VBO,4.635787,51.776197
Einsteinstraat,61,U,,3316GG,Dordrecht,Dordrecht,Zuid-Holland,VBO,4.635881,51.776194
Einsteinstraat,61,V,,3316GG,Dordrecht,Dordrecht,Zuid-Holland,VBO,4.635971,51.776194
Einsteinstraat,61,W,,3316GG,Dordrecht,Dordrecht,Zuid-Holland,VBO,4.636063,51.776192
Einsteinstraat,61,X,,3316GG,Dordrecht,Dordrecht,Zuid-Holland,VBO,4.636152,51.776190
Einsteinstraat,61,Y,,3316GG,Dordrecht,Dordrecht,Zuid-Holland,VBO,4.636236,51.776188
Einsteinstraat,61,Z,,3316GG,Dordrecht,Dordrecht,Zuid-Holland,VBO,4.636346,51.776186
Einsteinstraat,67,,1,3316GG,Dordrecht,Dordrecht,Zuid-Holland,VBO,4.636267,51.775897
Einsteinstraat,67,,10,3316GG,Dordrecht,Dordrecht,Zuid-Holland,VBO,4.636212,51.775943
Einsteinstraat,67,,11,3316GG,Dordrecht,Dordrecht,Zuid-Holland,VBO,4.636215,51.775988
Einsteinstraat,67,,12,3316GG,Dordrecht,Dordrecht,Zuid-Holland,VBO,4.636218,51.776033
Einsteinstraat,67,,13,3316GG,Dordrecht,Dordrecht,Zuid-Holland,VBO,4.636180,51.775899
Einsteinstraat,67,,14,3316GG,Dordrecht,Dordrecht,Zuid-Holland,VBO,4.636183,51.775944
Einsteinstraat,67,,15,3316GG,Dordrecht,Dordrecht,Zuid-Holland,VBO,4.636186,51.775989
Einsteinstraat,67,,16,3316GG,Dordrecht,Dordrecht,Zuid-Holland,VBO,4.636148,51.775900
Einsteinstraat,67,,17,3316GG,Dordrecht,Dordrecht,Zuid-Holland,VBO,4.636189,51.776033
Einsteinstraat,67,,18,3316GG,Dordrecht,Dordrecht,Zuid-Holland,VBO,4.636154,51.775945
Einsteinstraat,67,,19,3316GG,Dordrecht,Dordrecht,Zuid-Holland,VBO,4.636157,51.775989
Einsteinstraat,67,,2,3316GG,Dordrecht,Dordrecht,Zuid-Holland,VBO,4.636270,51.775942
Einsteinstraat,67,,20,3316GG,Dordrecht,Dordrecht,Zuid-Holland,VBO,4.636160,51.776034
Einsteinstraat,67,,3,3316GG,Dordrecht,Dordrecht,Zuid-Holland,VBO,4.636273,51.775987
Einsteinstraat,67,,30,3316GG,Dordrecht,Dordrecht,Zuid-Holland,VBO,4.636094,51.775908
Einsteinstraat,67,,31,3316GG,Dordrecht,Dordrecht,Zuid-Holland,VBO,4.636097,51.775969
Einsteinstraat,67,,32,3316GG,Dordrecht,Dordrecht,Zuid-Holland,VBO,4.636101,51.776029
Einsteinstraat,67,,33,3316GG,Dordrecht,Dordrecht,Zuid-Holland,VBO,4.636065,51.775909
Einsteinstraat,67,,34,3316GG,Dordrecht,Dordrecht,Zuid-Holland,VBO,4.636068,51.775969
Einsteinstraat,67,,35,3316GG,Dordrecht,Dordrecht,Zuid-Holland,VBO,4.636072,51.776030
Einsteinstraat,67,,36,3316GG,Dordrecht,Dordrecht,Zuid-Holland,VBO,4.636036,51.775910
Einsteinstraat,67,,37,3316GG,Dordrecht,Dordrecht,Zuid-Holland,VBO,4.636039,51.775970
Einsteinstraat,67,,38,3316GG,Dordrecht,Dordrecht,Zuid-Holland,VBO,4.636043,51.776030
Einsteinstraat,67,,39,3316GG,Dordrecht,Dordrecht,Zuid-Holland,VBO,4.636007,51.775910
Einsteinstraat,67,,4,3316GG,Dordrecht,Dordrecht,Zuid-Holland,VBO,4.636275,51.776031
Einsteinstraat,67,,40,3316GG,Dordrecht,Dordrecht,Zuid-Holland,VBO,4.636011,51.775971
Einsteinstraat,67,,41,3316GG,Dordrecht,Dordrecht,Zuid-Holland,VBO,4.636014,51.776031
Einsteinstraat,67,,42,3316GG,Dordrecht,Dordrecht,Zuid-Holland,VBO,4.635978,51.775911
Einsteinstraat,67,,43,3316GG,Dordrecht,Dordrecht,Zuid-Holland,VBO,4.635982,51.775971
Einsteinstraat,67,,44,3316GG,Dordrecht,Dordrecht,Zuid-Holland,VBO,4.635985,51.776032
Einsteinstraat,67,,45,3316GG,Dordrecht,Dordrecht,Zuid-Holland,VBO,4.635949,51.775912
Einsteinstraat,67,,46,3316GG,Dordrecht,Dordrecht,Zuid-Holland,VBO,4.635953,51.775972
Einsteinstraat,67,,47,3316GG,Dordrecht,Dordrecht,Zuid-Holland,VBO,4.635956,51.776033
Einsteinstraat,67,,48,3316GG,Dordrecht,Dordrecht,Zuid-Holland,VBO,4.635920,51.775912
Einsteinstraat,67,,48A,3316GG,Dordrecht,Dordrecht,Zuid-Holland,VBO,4.636126,51.775968
Einsteinstraat,67,,49,3316GG,Dordrecht,Dordrecht,Zuid-Holland,VBO,4.635924,51.775973
Einsteinstraat,67,,5,3316GG,Dordrecht,Dordrecht,Zuid-Holland,VBO,4.636238,51.775898
Einsteinstraat,67,,50,3316GG,Dordrecht,Dordrecht,Zuid-Holland,VBO,4.635928,51.776033
Einsteinstraat,67,,51,3316GG,Dordrecht,Dordrecht,Zuid-Holland,VBO,4.635891,51.775913
Einsteinstraat,67,,52,3316GG,Dordrecht,Dordrecht,Zuid-Holland,VBO,4.635895,51.775974
Einsteinstraat,67,,53,3316GG,Dordrecht,Dordrecht,Zuid-Holland,VBO,4.635899,51.776034
Einsteinstraat,67,,54,3316GG,Dordrecht,Dordrecht,Zuid-Holland,VBO,4.635862,51.775914
Einsteinstraat,67,,55,3316GG,Dordrecht,Dordrecht,Zuid-Holland,VBO,4.635866,51.775974
Einsteinstraat,67,,56,3316GG,Dordrecht,Dordrecht,Zuid-Holland,VBO,4.635870,51.776035
Einsteinstraat,67,,57,3316GG,Dordrecht,Dordrecht,Zuid-Holland,VBO,4.635833,51.775914
Einsteinstraat,67,,58,3316GG,Dordrecht,Dordrecht,Zuid-Holland,VBO,4.635837,51.775975
Einsteinstraat,67,,59,3316GG,Dordrecht,Dordrecht,Zuid-Holland,VBO,4.635804,51.775915
Einsteinstraat,67,,6,3316GG,Dordrecht,Dordrecht,Zuid-Holland,VBO,4.636241,51.775943
Einsteinstraat,67,,60,3316GG,Dordrecht,Dordrecht,Zuid-Holland,VBO,4.635841,51.776035
Einsteinstraat,67,,61,3316GG,Dordrecht,Dordrecht,Zuid-Holland,VBO,4.635808,51.775976
Einsteinstraat,67,,7,3316GG,Dordrecht,Dordrecht,Zuid-Holland,VBO,4.636244,51.775987
Einsteinstraat,67,,8,3316GG,Dordrecht,Dordrecht,Zuid-Holland,VBO,4.636246,51.776032
Einsteinstraat,67,,9,3316GG,Dordrecht,Dordrecht,Zuid-Holland,VBO,4.636209,51.775899
Einsteinstraat,67,,,3316GG,Dordrecht,Dordrecht,Zuid-Holland,VBO,4.636326,51.775963
Einsteinstraat,68,,,3316GG,Dordrecht,Dordrecht,Zuid-Holland,VBO,4.636668,51.776141
Einsteinstraat,70,A,,3316GG,Dordrecht,Dordrecht,Zuid-Holland,VBO,4.636976,51.776137
Einsteinstraat,70,,,3316GG,Dordrecht,Dordrecht,Zuid-Holland,VBO,4.636640,51.775858
Einsteinstraat,71,,,3316GG,Dordrecht,Dordrecht,Zuid-Holland,VBO,4.636299,51.775701
Einsteinstraat,83,,,3316GG,Dordrecht,Dordrecht,Zuid-Holland,VBO,4.636321,51.775496
Einsteinstraat,85,,,3316GG,Dordrecht,Dordrecht,Zuid-Holland,VBO,4.636315,51.775336
Galvanistraat,1,,,3316GH,Dordrecht,Dordrecht,Zuid-Holland,VBO,4.639661,51.783749
Galvanistraat,5,,,3316GH,Dordrecht,Dordrecht,Zuid-Holland,VBO,4.639705,51.783145
Galvanistraat,7,,,3316GH,Dordrecht,Dordrecht,Zuid-Holland,VBO,4.639247,51.783222
Galvanistraat,9,,,3316GH,Dordrecht,Dordrecht,Zuid-Holland,VBO,4.639137,51.783225
Galvanistraat,11,,,3316GH,Dordrecht,Dordrecht,Zuid-Holland,VBO,4.639023,51.783229
Galvanistraat,13,,,3316GH,Dordrecht,Dordrecht,Zuid-Holland,VBO,4.638880,51.783232
Galvanistraat,15,,,3316GH,Dordrecht,Dordrecht,Zuid-Holland,VBO,4.638770,51.783234
Galvanistraat,19,,,3316GH,Dordrecht,Dordrecht,Zuid-Holland,VBO,4.638348,51.783213
Galvanistraat,27,,,3316GH,Dordrecht,Dordrecht,Zuid-Holland,VBO,4.637433,51.783165
Galvanistraat,32,,,3316GH,Dordrecht,Dordrecht,Zuid-Holland,VBO,4.636489,51.782929
Galvanistraat,35,,,3316GH,Dordrecht,Dordrecht,Zuid-Holland,VBO,4.636408,51.783340
Galvanistraat,39,,,3316GH,Dordrecht,Dordrecht,Zuid-Holland,VBO,4.636091,51.782735
Galvanistraat,45,,,3316GH,Dordrecht,Dordrecht,Zuid-Holland,VBO,4.636121,51.782419
Galvanistraat,55,,,3316GH,Dordrecht,Dordrecht,Zuid-Holland,VBO,4.636081,51.781817
Helmholtzstraat,1,,,3316GJ,Dordrecht,Dordrecht,Zuid-Holland,VBO,4.631563,51.780627
Helmholtzstraat,1,,,3316GJ,Dordrecht,Dordrecht,Zuid-Holland,VBO,4.632425,51.781862
Helmholtzstraat,2,A,,3316GJ,Dordrecht,Dordrecht,Zuid-Holland,VBO,4.632562,51.781221
Helmholtzstraat,5,A,,3316GJ,Dordrecht,Dordrecht,Zuid-Holland,VBO,4.632153,51.780775
Helmholtzstraat,5,B,,3316GJ,Dordrecht,Dordrecht,Zuid-Holland,VBO,4.632152,51.780814
Helmholtzstraat,5,C,,3316GJ,Dordrecht,Dordrecht,Zuid-Holland,VBO,4.632158,51.780856
Helmholtzstraat,5,D,,3316GJ,Dordrecht,Dordrecht,Zuid-Holland,VBO,4.632162,51.780889
Helmholtzstraat,5,E,,3316GJ,Dordrecht,Dordrecht,Zuid-Holland,VBO,4.632162,51.780927
Helmholtzstraat,5,F,,3316GJ,Dordrecht,Dordrecht,Zuid-Holland,VBO,4.632166,51.780961
Helmholtzstraat,5,G,,3316GJ,Dordrecht,Dordrecht,Zuid-Holland,VBO,4.632168,51.780988
Helmholtzstraat,5,H,,3316GJ,Dordrecht,Dordrecht,Zuid-Holland,VBO,4.632169,51.781026
Helmholtzstraat,5,J,,3316GJ,Dordrecht,Dordrecht,Zuid-Holland,VBO,4.632171,51.781063
Helmholtzstraat,5,K,,3316GJ,Dordrecht,Dordrecht,Zuid-Holland,VBO,4.632174,51.781097
Helmholtzstraat,5,L,,3316GJ,Dordrecht,Dordrecht,Zuid-Holland,VBO,4.632178,51.781128
Helmholtzstraat,5,M,,3316GJ,Dordrecht,Dordrecht,Zuid-Holland,VBO,4.632179,51.781160
Helmholtzstraat,5,N,,3316GJ,Dordrecht,Dordrecht,Zuid-Holland,VBO,4.632182,51.781197
Helmholtzstraat,5,P,,3316GJ,Dordrecht,Dordrecht,Zuid-Holland,VBO,4.632182,51.781231
Helmholtzstraat,5,Q,,3316GJ,Dordrecht,Dordrecht,Zuid-Holland,VBO,4.632184,51.781272
Helmholtzstraat,5,R,,3316GJ,Dordrecht,Dordrecht,Zuid-Holland,VBO,4.632188,51.781309
Helmholtzstraat,5,S,,3316GJ,Dordrecht,Dordrecht,Zuid-Holland,VBO,4.632190,51.781348
Helmholtzstraat,5,T,,3316GJ,Dordrecht,Dordrecht,Zuid-Holland,VBO,4.632193,51.781380
Helmholtzstraat,5,U,,3316GJ,Dordrecht,Dordrecht,Zuid-Holland,VBO,4.632200,51.781418
Helmholtzstraat,5,,,3316GJ,Dordrecht,Dordrecht,Zuid-Holland,VBO,4.631971,51.781318
Helmholtzstraat,11,,,3316GJ,Dordrecht,Dordrecht,Zuid-Holland,VBO,4.630918,51.781698
Kamerlingh Onnesweg,1,,,3316GK,Dordrecht,Dordrecht,Zuid-Holland,VBO,4.643484,51.781057
Kamerlingh Onnesweg,3,,,3316GK,Dordrecht,Dordrecht,Zuid-Holland,VBO,4.643690,51.779835
Kamerlingh Onnesweg,7,,,3316GK,Dordrecht,Dordrecht,Zuid-Holland,VBO,4.639421,51.780135
Kamerlingh Onnesweg,9,,,3316GK,Dordrecht,Dordrecht,Zuid-Holland,VBO,4.639212,51.780140
Kamerlingh Onnesweg,13,,,3316GK,Dordrecht,Dordrecht,Zuid-Holland,VBO,4.638787,51.780151
Kamerlingh Onnesweg,19,,,3316GK,Dordrecht,Dordrecht,Zuid-Holland,VBO,4.638129,51.780167
Kamerlingh Onnesweg,23,,,3316GK,Dordrecht,Dordrecht,Zuid-Holland,VBO,4.637267,51.780205
Kamerlingh Onnesweg,25,,,3316GK,Dordrecht,Dordrecht,Zuid-Holland,VBO,4.635487,51.780268
Kamerlingh Onnesweg,31,,,3316GK,Dordrecht,Dordrecht,Zuid-Holland,VBO,4.635033,51.780225
Kamerlingh Onnesweg,33,,,3316GK,Dordrecht,Dordrecht,Zuid-Holland,VBO,4.634758,51.780232
Kamerlingh Onnesweg,35,,,3316GK,Dordrecht,Dordrecht,Zuid-Holland,VBO,4.634467,51.780239
Kamerlingh Onnesweg,37,A,,3316GK,Dordrecht,Dordrecht,Zuid-Holland,VBO,4.634114,51.780260
Kamerlingh Onnesweg,37,,,3316GK,Dordrecht,Dordrecht,Zuid-Holland,VBO,4.634108,51.780246
Kamerlingh Onnesweg,51,,,3316GK,Dordrecht,Dordrecht,Zuid-Holland,VBO,4.632548,51.780344
Kamerlingh Onnesweg,55,,,3316GK,Dordrecht,Dordrecht,Zuid-Holland,VBO,4.632105,51.780305
Kamerlingh Onnesweg,57,,,3316GK,Dordrecht,Dordrecht,Zuid-Holland,VBO,4.631821,51.780305
Kamerlingh Onnesweg,61,,,3316GK,Dordrecht,Dordrecht,Zuid-Holland,VBO,4.631540,51.780517
Kamerlingh Onnesweg,63,,,3316GK,Dordrecht,Dordrecht,Zuid-Holland,VBO,4.631138,51.780531
Kamerlingh Onnesweg,2,,,3316GL,Dordrecht,Dordrecht,Zuid-Holland,VBO,4.643051,51.779582
Kamerlingh Onnesweg,4,A,,3316GL,Dordrecht,Dordrecht,Zuid-Holland,VBO,4.641685,51.779612
Kamerlingh Onnesweg,4,,,3316GL,Dordrecht,Dordrecht,Zuid-Holland,VBO,4.642279,51.779605
Kamerlingh Onnesweg,6,,,3316GL,Dordrecht,Dordrecht,Zuid-Holland,VBO,4.640931,51.779269
Kamerlingh Onnesweg,8,,,3316GL,Dordrecht,Dordrecht,Zuid-Holland,VBO,4.640068,51.779719
Kamerlingh Onnesweg,10,A,,3316GL,Dordrecht,Dordrecht,Zuid-Holland,VBO,4.638726,51.779743
Kamerlingh Onnesweg,10,,,3316GL,Dordrecht,Dordrecht,Zuid-Holland,VBO,4.639364,51.779713
Kamerlingh Onnesweg,14,,,3316GL,Dordrecht,Dordrecht,Zuid-Holland,VBO,4.637627,51.779755
Kamerlingh Onnesweg,16,,,3316GL,Dordrecht,Dordrecht,Zuid-Holland,VBO,4.637440,51.779760
Kamerlingh Onnesweg,18,,,3316GL,Dordrecht,Dordrecht,Zuid-Holland,VBO,4.637194,51.779766
Kamerlingh Onnesweg,20,,,3316GL,Dordrecht,Dordrecht,Zuid-Holland,VBO,4.636949,51.779772
Kamerlingh Onnesweg,28,,,3316GL,Dordrecht,Dordrecht,Zuid-Holland,VBO,4.635876,51.779801
Kamerlingh Onnesweg,32,,,3316GL,Dordrecht,Dordrecht,Zuid-Holland,VBO,4.634828,51.779853
Kamerlingh Onnesweg,44,,,3316GL,Dordrecht,Dordrecht,Zuid-Holland,VBO,4.633512,51.779890
Kamerlingh Onnesweg,46,,,3316GL,Dordrecht,Dordrecht,Zuid-Holland,VBO,4.633307,51.779895
Kamerlingh Onnesweg,50,,,3316GL,Dordrecht,Dordrecht,Zuid-Holland,VBO,4.632962,51.779901
Kamerlingh Onnesweg,52,,,3316GL,Dordrecht,Dordrecht,Zuid-Holland,VBO,4.632676,51.779909
Kamerlingh Onnesweg,62,,,3316GL,Dordrecht,Dordrecht,Zuid-Holland,VBO,4.631100,51.779948
Kelvinstraat,3,,,3316GM,Dordrecht,Dordrecht,Zuid-Holland,VBO,4.638463,51.777596
Kelvinstraat,5,,,3316GM,Dordrecht,Dordrecht,Zuid-Holland,VBO,4.637514,51.777615
Kelvinstraat,10,,,3316GM,Dordrecht,Dordrecht,Zuid-Holland,VBO,4.638919,51.777049
Kelvinstraat,13,,,3316GM,Dordrecht,Dordrecht,Zuid-Holland,VBO,4.635474,51.777661
Kelvinstraat,25,,,3316GM,Dordrecht,Dordrecht,Zuid-Holland,VBO,4.632550,51.777724
Madame Curiestraat,2,A,,3316GN,Dordrecht,Dordrecht,Zuid-Holland,VBO,4.639893,51.779635
Madame Curiestraat,2,B,,3316GN,Dordrecht,Dordrecht,Zuid-Holland,VBO,4.639895,51.779656
Madame Curiestraat,2,C,,3316GN,Dordrecht,Dordrecht,Zuid-Holland,VBO,4.639895,51.779677
Madame Curiestraat,2,D,,3316GN,Dordrecht,Dordrecht,Zuid-Holland,VBO,4.639897,51.779697
Madame Curiestraat,2,E,,3316GN,Dordrecht,Dordrecht,Zuid-Holland,VBO,4.639896,51.779717
Madame Curiestraat,2,,,3316GN,Dordrecht,Dordrecht,Zuid-Holland,VBO,4.639860,51.779665
Madame Curiestraat,6,,,3316GN,Dordrecht,Dordrecht,Zuid-Holland,VBO,4.639816,51.779328
Madame Curiestraat,9,,,3316GN,Dordrecht,Dordrecht,Zuid-Holland,VBO,4.639393,51.778171
Madame Curiestraat,10,,,3316GN,Dordrecht,Dordrecht,Zuid-Holland,VBO,4.639810,51.779071
Madame Curiestraat,11,,,3316GN,Dordrecht,Dordrecht,Zuid-Holland,VBO,4.639288,51.777788
Madame Curiestraat,15,,,3316GN,Dordrecht,Dordrecht,Zuid-Holland,VBO,4.639305,51.777632
Madame Curiestraat,16,,,3316GN,Dordrecht,Dordrecht,Zuid-Holland,VBO,4.639829,51.778708
Madame Curiestraat,18,,,3316GN,Dordrecht,Dordrecht,Zuid-Holland,VBO,4.639760,51.778399
Madame Curiestraat,20,,,3316GN,Dordrecht,Dordrecht,Zuid-Holland,VBO,4.639750,51.778160
Madame Curiestraat,22,,,3316GN,Dordrecht,Dordrecht,Zuid-Holland,VBO,4.639735,51.777954
Madame Curiestraat,24,A,,3316GN,Dordrecht,Dordrecht,Zuid-Holland,VBO,4.640321,51.777401
Madame Curiestraat,24,,,3316GN,Dordrecht,Dordrecht,Zuid-Holland,VBO,4.639711,51.777599
Madame Curiestraat,26,,,3316GN,Dordrecht,Dordrecht,Zuid-Holland,VBO,4.639451,51.777363
Maxwellstraat,2,,,3316GP,Dordrecht,Dordrecht,Zuid-Holland,VBO,4.639484,51.781425
Maxwellstraat,5,,,3316GP,Dordrecht,Dordrecht,Zuid-Holland,VBO,4.639617,51.781652
Maxwellstraat,6,,,3316GP,Dordrecht,Dordrecht,Zuid-Holland,VBO,4.638984,51.781437
Maxwellstraat,12,,,3316GP,Dordrecht,Dordrecht,Zuid-Holland,VBO,4.638222,51.781455
Maxwellstraat,22,B,,3316GP,Dordrecht,Dordrecht,Zuid-Holland,VBO,4.635555,51.781497
Maxwellstraat,22,,,3316GP,Dordrecht,Dordrecht,Zuid-Holland,VBO,4.635788,51.781483
Maxwellstraat,27,,,3316GP,Dordrecht,Dordrecht,Zuid-Holland,VBO,4.636522,51.781871
Maxwellstraat,35,,,3316GP,Dordrecht,Dordrecht,Zuid-Holland,VBO,4.635603,51.781732
Maxwellstraat,39,,,3316GP,Dordrecht,Dordrecht,Zuid-Holland,VBO,4.635302,51.781774
Maxwellstraat,41,,,3316GP,Dordrecht,Dordrecht,Zuid-Holland,VBO,4.634837,51.781833
Maxwellstraat,42,,,3316GP,Dordrecht,Dordrecht,Zuid-Holland,VBO,4.633444,51.781564
Maxwellstraat,45,,,3316GP,Dordrecht,Dordrecht,Zuid-Holland,VBO,4.634476,51.781758
Maxwellstraat,49,,,3316GP,Dordrecht,Dordrecht,Zuid-Holland,VBO,4.634014,51.781801
Maxwellstraat,50,,,3316GP,Dordrecht,Dordrecht,Zuid-Holland,VBO,4.632872,51.781482
Maxwellstraat,53,,,3316GP,Dordrecht,Dordrecht,Zuid-Holland,VBO,4.633716,51.781777
Maxwellstraat,55,,,3316GP,Dordrecht,Dordrecht,Zuid-Holland,VBO,4.633390,51.781849
Maxwellstraat,59,,,3316GP,Dordrecht,Dordrecht,Zuid-Holland,VBO,4.633151,51.781819
Pascalstraat,15,,,3316GR,Dordrecht,Dordrecht,Zuid-Holland,VBO,4.633615,51.778976
Pascalstraat,16,,,3316GR,Dordrecht,Dordrecht,Zuid-Holland,VBO,4.633913,51.778894
Pascalstraat,21,,,3316GR,Dordrecht,Dordrecht,Zuid-Holland,VBO,4.633578,51.778451
Pascalstraat,22,,,3316GR,Dordrecht,Dordrecht,Zuid-Holland,VBO,4.633854,51.778562
Pascalstraat,24,,,3316GR,Dordrecht,Dordrecht,Zuid-Holland,VBO,4.633959,51.778394
Pascalstraat,28,,,3316GR,Dordrecht,Dordrecht,Zuid-Holland,VBO,4.633835,51.778128
Pascalstraat,38,,,3316GR,Dordrecht,Dordrecht,Zuid-Holland,VBO,4.633876,51.777192
Pascalstraat,50,,,3316GR,Dordrecht,Dordrecht,Zuid-Holland,VBO,4.633742,51.776698
Pascalstraat,60,,,3316GR,Dordrecht,Dordrecht,Zuid-Holland,VBO,4.633737,51.776394
Pascalstraat,70,,,3316GR,Dordrecht,Dordrecht,Zuid-Holland,VBO,4.633739,51.776033
Pascalstraat,80,,,3316GR,Dordrecht,Dordrecht,Zuid-Holland,VBO,4.633727,51.775491
Pascalstraat,81,,,3316GR,Dordrecht,Dordrecht,Zuid-Holland,VBO,4.634217,51.775185
Pascalstraat,85,,,3316GR,Dordrecht,Dordrecht,Zuid-Holland,VBO,4.633300,51.775205
Pascalstraat,88,,,3316GR,Dordrecht,Dordrecht,Zuid-Holland,VBO,4.633640,51.775058
Pascalstraat,100,,,3316GR,Dordrecht,Dordrecht,Zuid-Holland,VBO,4.633760,51.774514
Planckstraat,5,,,3316GS,Dordrecht,Dordrecht,Zuid-Holland,VBO,4.634930,51.779119
Planckstraat,7,,,3316GS,Dordrecht,Dordrecht,Zuid-Holland,VBO,4.635034,51.778859
Planckstraat,9,,,3316GS,Dordrecht,Dordrecht,Zuid-Holland,VBO,4.635045,51.778644
Planckstraat,11,,,3316GS,Dordrecht,Dordrecht,Zuid-Holland,VBO,4.635037,51.778396
Planckstraat,13,,,3316GS,Dordrecht,Dordrecht,Zuid-Holland,VBO,4.634980,51.778135
Planckstraat,15,A,,3316GS,Dordrecht,Dordrecht,Zuid-Holland,VBO,4.635015,51.777690
Planckstraat,15,,,3316GS,Dordrecht,Dordrecht,Zuid-Holland,VBO,4.634956,51.777678
Planckstraat,17,A,,3316GS,Dordrecht,Dordrecht,Zuid-Holland,VBO,4.634966,51.776885
Planckstraat,21,,,3316GS,Dordrecht,Dordrecht,Zuid-Holland,VBO,4.634863,51.777209
Planckstraat,37,,,3316GS,Dordrecht,Dordrecht,Zuid-Holland,VBO,4.634955,51.776774
Planckstraat,43,,,3316GS,Dordrecht,Dordrecht,Zuid-Holland,VBO,4.634860,51.776558
Planckstraat,44,,,3316GS,Dordrecht,Dordrecht,Zuid-Holland,VBO,4.635308,51.776783
Planckstraat,46,,,3316GS,Dordrecht,Dordrecht,Zuid-Holland,VBO,4.635303,51.776642
Planckstraat,48,,,3316GS,Dordrecht,Dordrecht,Zuid-Holland,VBO,4.635295,51.776495
Planckstraat,49,,,3316GS,Dordrecht,Dordrecht,Zuid-Holland,VBO,4.634662,51.776299
Planckstraat,53,,,3316GS,Dordrecht,Dordrecht,Zuid-Holland,VBO,4.634888,51.776044
Planckstraat,57,,,3316GS,Dordrecht,Dordrecht,Zuid-Holland,VBO,4.634833,51.775795
Planckstraat,61,,,3316GS,Dordrecht,Dordrecht,Zuid-Holland,VBO,4.634825,51.775620
Planckstraat,63,,,3316GS,Dordrecht,Dordrecht,Zuid-Holland,VBO,4.634816,51.775455
Planckstraat,69,,,3316GS,Dordrecht,Dordrecht,Zuid-Holland,VBO,4.634826,51.775130
Planckstraat,76,,,3316GS,Dordrecht,Dordrecht,Zuid-Holland,VBO,4.635136,51.775454
Planckstraat,77,,,3316GS,Dordrecht,Dordrecht,Zuid-Holland,VBO,4.634807,51.774843
Planckstraat,80,,,3316GS,Dordrecht,Dordrecht,Zuid-Holland,VBO,4.635126,51.775242
Planckstraat,82,,,3316GS,Dordrecht,Dordrecht,Zuid-Holland,VBO,4.635121,51.775180
Planckstraat,84,,,3316GS,Dordrecht,Dordrecht,Zuid-Holland,VBO,4.635316,51.775169
Planckstraat,86,,,3316GS,Dordrecht,Dordrecht,Zuid-Holland,VBO,4.635418,51.775167
Planckstraat,88,,,3316GS,Dordrecht,Dordrecht,Zuid-Holland,VBO,4.635598,51.775162
Planckstraat,90,,,3316GS,Dordrecht,Dordrecht,Zuid-Holland,VBO,4.635588,51.775001
Planckstraat,92,,,3316GS,Dordrecht,Dordrecht,Zuid-Holland,VBO,4.635444,51.775005
Planckstraat,94,,,3316GS,Dordrecht,Dordrecht,Zuid-Holland,VBO,4.635306,51.775007
Planckstraat,96,,,3316GS,Dordrecht,Dordrecht,Zuid-Holland,VBO,4.635110,51.775004
Planckstraat,98,,,3316GS,Dordrecht,Dordrecht,Zuid-Holland,VBO,4.635108,51.774927
Röntgenstraat,9,,,3316GT,Dordrecht,Dordrecht,Zuid-Holland,VBO,4.633701,51.780950
Röntgenstraat,19,,,3316GT,Dordrecht,Dordrecht,Zuid-Holland,VBO,4.633546,51.780406
Snelliusstraat,1,,,3316GV,Dordrecht,Dordrecht,Zuid-Holland,VBO,4.639674,51.782684
Snelliusstraat,7,,,3316GV,Dordrecht,Dordrecht,Zuid-Holland,VBO,4.639303,51.781876
Snelliusstraat,12,,,3316GV,Dordrecht,Dordrecht,Zuid-Holland,VBO,4.640077,51.782695
Stephensonstraat,10,,,3316GW,Dordrecht,Dordrecht,Zuid-Holland,VBO,4.638507,51.781713
Van 't Hoffstraat,5,,,3316GX,Dordrecht,Dordrecht,Zuid-Holland,VBO,4.636042,51.781187
Van 't Hoffstraat,7,,,3316GX,Dordrecht,Dordrecht,Zuid-Holland,VBO,4.636036,51.781102
Van 't Hoffstraat,9,,,3316GX,Dordrecht,Dordrecht,Zuid-Holland,VBO,4.636027,51.781019
Van 't Hoffstraat,12,,,3316GX,Dordrecht,Dordrecht,Zuid-Holland,VBO,4.636314,51.780275
Pieter Zeemanweg,16,A,,3316GZ,Dordrecht,Dordrecht,Zuid-Holland,VBO,4.642099,51.776487
Pieter Zeemanweg,16,,,3316GZ,Dordrecht,Dordrecht,Zuid-Holland,VBO,4.643339,51.776148
Pieter Zeemanweg,17,,,3316GZ,Dordrecht,Dordrecht,Zuid-Holland,VBO,4.643178,51.777362
Pieter Zeemanweg,20,,,3316GZ,Dordrecht,Dordrecht,Zuid-Holland,VBO,4.642373,51.776433
Pieter Zeemanweg,30,A,,3316GZ,Dordrecht,Dordrecht,Zuid-Holland,VBO,4.641964,51.776393
Pieter Zeemanweg,30,B,,3316GZ,Dordrecht,Dordrecht,Zuid-Holland,VBO,4.641961,51.776347
Pieter Zeemanweg,30,C,,3316GZ,Dordrecht,Dordrecht,Zuid-Holland,VBO,4.641959,51.776301
Pieter Zeemanweg,30,D,,3316GZ,Dordrecht,Dordrecht,Zuid-Holland,VBO,4.641956,51.776256
Pieter Zeemanweg,30,E,,3316GZ,Dordrecht,Dordrecht,Zuid-Holland,VBO,4.641953,51.776210
Pieter Zeemanweg,30,F,,3316GZ,Dordrecht,Dordrecht,Zuid-Holland,VBO,4.641950,51.776164
Pieter Zeemanweg,30,G,,3316GZ,Dordrecht,Dordrecht,Zuid-Holland,VBO,4.641947,51.776118
Pieter Zeemanweg,30,H,,3316GZ,Dordrecht,Dordrecht,Zuid-Holland,VBO,4.641944,51.776072
Pieter Zeemanweg,30,K,,3316GZ,Dordrecht,Dordrecht,Zuid-Holland,VBO,4.641941,51.776027
Pieter Zeemanweg,30,M,,3316GZ,Dordrecht,Dordrecht,Zuid-Holland,VBO,4.641938,51.775981
Pieter Zeemanweg,30,N,,3316GZ,Dordrecht,Dordrecht,Zuid-Holland,VBO,4.641934,51.775924
Pieter Zeemanweg,30,P,,3316GZ,Dordrecht,Dordrecht,Zuid-Holland,VBO,4.641649,51.775933
Pieter Zeemanweg,30,Q,,3316GZ,Dordrecht,Dordrecht,Zuid-Holland,VBO,4.641653,51.775989
Pieter Zeemanweg,30,R,,3316GZ,Dordrecht,Dordrecht,Zuid-Holland,VBO,4.641656,51.776035
Pieter Zeemanweg,30,S,,3316GZ,Dordrecht,Dordrecht,Zuid-Holland,VBO,4.641659,51.776081
Pieter Zeemanweg,30,T,,3316GZ,Dordrecht,Dordrecht,Zuid-Holland,VBO,4.641662,51.776127
Pieter Zeemanweg,30,U,,3316GZ,Dordrecht,Dordrecht,Zuid-Holland,VBO,4.641665,51.776173
Pieter Zeemanweg,30,V,,3316GZ,Dordrecht,Dordrecht,Zuid-Holland,VBO,4.641668,51.776219
Pieter Zeemanweg,30,W,,3316GZ,Dordrecht,Dordrecht,Zuid-Holland,VBO,4.641671,51.776264
Pieter Zeemanweg,30,X,,3316GZ,Dordrecht,Dordrecht,Zuid-Holland,VBO,4.641674,51.776310
Pieter Zeemanweg,30,Y,,3316GZ,Dordrecht,Dordrecht,Zuid-Holland,VBO,4.641677,51.776356
Pieter Zeemanweg,30,Z,,3316GZ,Dordrecht,Dordrecht,Zuid-Holland,VBO,4.641680,51.776402
Pieter Zeemanweg,36,,,3316GZ,Dordrecht,Dordrecht,Zuid-Holland,VBO,4.641168,51.776376
Pieter Zeemanweg,43,,,3316GZ,Dordrecht,Dordrecht,Zuid-Holland,VBO,4.640230,51.776771
Pieter Zeemanweg,47,,,3316GZ,Dordrecht,Dordrecht,Zuid-Holland,VBO,4.639680,51.776976
Pieter Zeemanweg,50,,,3316GZ,Dordrecht,Dordrecht,Zuid-Holland,VBO,4.640236,51.776340
Pieter Zeemanweg,57,,,3316GZ,Dordrecht,Dordrecht,Zuid-Holland,VBO,4.639303,51.776596
Pieter Zeemanweg,61,,,3316GZ,Dordrecht,Dordrecht,Zuid-Holland,VBO,4.639272,51.776234
Pieter Zeemanweg,71,,,3316GZ,Dordrecht,Dordrecht,Zuid-Holland,VBO,4.639240,51.775938
Pieter Zeemanweg,75,,,3316GZ,Dordrecht,Dordrecht,Zuid-Holland,VBO,4.639157,51.775711
Pieter Zeemanweg,76,,,3316GZ,Dordrecht,Dordrecht,Zuid-Holland,VBO,4.639971,51.775769
Pieter Zeemanweg,77,,,3316GZ,Dordrecht,Dordrecht,Zuid-Holland,VBO,4.639217,51.775561
Pieter Zeemanweg,79,,,3316GZ,Dordrecht,Dordrecht,Zuid-Holland,VBO,4.639212,51.775496
Pieter Zeemanweg,83,,,3316GZ,Dordrecht,Dordrecht,Zuid-Holland,VBO,4.639246,51.775208
Pieter Zeemanweg,93,,,3316GZ,Dordrecht,Dordrecht,Zuid-Holland,VBO,4.639223,51.774916
Pieter Zeemanweg,97,,,3316GZ,Dordrecht,Dordrecht,Zuid-Holland,VBO,4.639206,51.774718
Pieter Zeemanweg,104,,,3316GZ,Dordrecht,Dordrecht,Zuid-Holland,VBO,4.639997,51.774487
Pieter Zeemanweg,107,,,3316GZ,Dordrecht,Dordrecht,Zuid-Holland,VBO,4.639101,51.774422
Pieter Zeemanweg,116,,,3316GZ,Dordrecht,Dordrecht,Zuid-Holland,VBO,4.639179,51.773949
Pieter Zeemanweg,119,,,3316GZ,Dordrecht,Dordrecht,Zuid-Holland,VBO,4.638315,51.774393
Pieter Zeemanweg,121,,,3316GZ,Dordrecht,Dordrecht,Zuid-Holland,VBO,4.638098,51.774408
Pieter Zeemanweg,122,,,3316GZ,Dordrecht,Dordrecht,Zuid-Holland,VBO,4.638564,51.773992
Pieter Zeemanweg,131,,,3316GZ,Dordrecht,Dordrecht,Zuid-Holland,VBO,4.637283,51.774425
Pieter Zeemanweg,133,,,3316GZ,Dordrecht,Dordrecht,Zuid-Holland,VBO,4.636836,51.774442
Pieter Zeemanweg,135,,,3316GZ,Dordrecht,Dordrecht,Zuid-Holland,VBO,4.637284,51.774443
Pieter Zeemanweg,137,,,3316GZ,Dordrecht,Dordrecht,Zuid-Holland,VBO,4.637285,51.774461
Pieter Zeemanweg,145,,,3316GZ,Dordrecht,Dordrecht,Zuid-Holland,VBO,4.636213,51.774385
Pieter Zeemanweg,146,,,3316GZ,Dordrecht,Dordrecht,Zuid-Holland,VBO,4.636830,51.773969
Pieter Zeemanweg,155,A,,3316GZ,Dordrecht,Dordrecht,Zuid-Holland,VBO,4.635189,51.774394
Pieter Zeemanweg,155,B,,3316GZ,Dordrecht,Dordrecht,Zuid-Holland,VBO,4.635411,51.774598
Pieter Zeemanweg,155,C,,3316GZ,Dordrecht,Dordrecht,Zuid-Holland,VBO,4.635347,51.774796
Pieter Zeemanweg,155,,,3316GZ,Dordrecht,Dordrecht,Zuid-Holland,VBO,4.635498,51.774377
Pieter Zeemanweg,167,,,3316GZ,Dordrecht,Dordrecht,Zuid-Holland,VBO,4.634525,51.774405
Pieter Zeemanweg,170,,,3316GZ,Dordrecht,Dordrecht,Zuid-Holland,VBO,4.635377,51.774078
Pieter Zeemanweg,175,,,3316GZ,Dordrecht,Dordrecht,Zuid-Holland,VBO,4.633165,51.774575
Pieter Zeemanweg,188,,,3316GZ,Dordrecht,Dordrecht,Zuid-Holland,VBO,4.634108,51.774013
Pieter Zeemanweg,200,,,3316GZ,Dordrecht,Dordrecht,Zuid-Holland,VBO,4.633143,51.773994
Pieter Zeemanweg,218,,,3316GZ,Dordrecht,Dordrecht,Zuid-Holland,VBO,4.632178,51.774204
Pieter Zeemanweg,240,A,,3316GZ,Dordrecht,Dordrecht,Zuid-Holland,VBO,4.631540,51.773843
Pieter Zeemanweg,240,,,3316GZ,Dordrecht,Dordrecht,Zuid-Holland,VBO,4.630984,51.773994
Keerweer,1,,,3316KA,Dordrecht,Dordrecht,Zuid-Holland,VBO,4.644038,51.771734
Keerweer,3,,,3316KA,Dordrecht,Dordrecht,Zuid-Holland,VBO,4.644091,51.771425
Keerweer,20,,,3316KA,Dordrecht,Dordrecht,Zuid-Holland,VBO,4.644246,51.769775
Keerweer,23,,,3316KA,Dordrecht,Dordrecht,Zuid-Holland,VBO,4.644226,51.769506
Keerweer,29,,,3316KA,Dordrecht,Dordrecht,Zuid-Holland,VBO,4.644830,51.769307
Keerweer,30,,,3316KA,Dordrecht,Dordrecht,Zuid-Holland,VBO,4.644839,51.769357
Keerweer,33,,,3316KA,Dordrecht,Dordrecht,Zuid-Holland,VBO,4.644878,51.769558
Keerweer,34,,,3316KA,Dordrecht,Dordrecht,Zuid-Holland,VBO,4.644831,51.769727
Keerweer,37,,,3316KA,Dordrecht,Dordrecht,Zuid-Holland,VBO,4.644856,51.769877
Keerweer,38,,,3316KA,Dordrecht,Dordrecht,Zuid-Holland,VBO,4.644878,51.770040
Keerweer,41,,,3316KA,Dordrecht,Dordrecht,Zuid-Holland,VBO,4.644902,51.770187
Keerweer,42,,,3316KA,Dordrecht,Dordrecht,Zuid-Holland,VBO,4.644928,51.770361
Keerweer,45,,,3316KA,Dordrecht,Dordrecht,Zuid-Holland,VBO,4.644949,51.770504
Keerweer,46,,,3316KA,Dordrecht,Dordrecht,Zuid-Holland,VBO,4.644974,51.770671
Keerweer,49,,,3316KA,Dordrecht,Dordrecht,Zuid-Holland,VBO,4.644997,51.770817
Keerweer,50,,,3316KA,Dordrecht,Dordrecht,Zuid-Holland,VBO,4.645020,51.770987
Keerweer,53,,,3316KA,Dordrecht,Dordrecht,Zuid-Holland,VBO,4.645044,51.771134
Keerweer,54,,,3316KA,Dordrecht,Dordrecht,Zuid-Holland,VBO,4.645068,51.771297
Keerweer,62,,,3316KA,Dordrecht,Dordrecht,Zuid-Holland,VBO,4.645164,51.771919
Labradoriet,300,,,3316KB,Dordrecht,Dordrecht,Zuid-Holland,VBO,4.637313,51.769690
Labradoriet,310,,,3316KB,Dordrecht,Dordrecht,Zuid-Holland,VBO,4.638259,51.769554
Labradoriet,320,,,3316KB,Dordrecht,Dordrecht,Zuid-Holland,VBO,4.638212,51.769449
Labradoriet,330,,,3316KB,Dordrecht,Dordrecht,Zuid-Holland,VBO,4.637514,51.770148
Labradoriet,340,,,3316KB,Dordrecht,Dordrecht,Zuid-Holland,VBO,4.638426,51.770538
Labradoriet,350,,,3316KB,Dordrecht,Dordrecht,Zuid-Holland,VBO,4.639787,51.770099
Carneool,100,,,3316KC,Dordrecht,Dordrecht,Zuid-Holland,VBO,4.642842,51.769721
Carneool,102,,,3316KC,Dordrecht,Dordrecht,Zuid-Holland,VBO,4.642846,51.769767
Carneool,104,,,3316KC,Dordrecht,Dordrecht,Zuid-Holland,VBO,4.642849,51.769814
Carneool,106,,,3316KC,Dordrecht,Dordrecht,Zuid-Holland,VBO,4.642853,51.769862
Carneool,108,,,3316KC,Dordrecht,Dordrecht,Zuid-Holland,VBO,4.642856,51.769907
Carneool,110,,,3316KC,Dordrecht,Dordrecht,Zuid-Holland,VBO,4.642860,51.769953
Carneool,112,,,3316KC,Dordrecht,Dordrecht,Zuid-Holland,VBO,4.642864,51.770001
Carneool,114,,,3316KC,Dordrecht,Dordrecht,Zuid-Holland,VBO,4.642867,51.770047
Carneool,116,,,3316KC,Dordrecht,Dordrecht,Zuid-Holland,VBO,4.642871,51.770095
Carneool,118,,,3316KC,Dordrecht,Dordrecht,Zuid-Holland,VBO,4.642875,51.770141
Carneool,120,,,3316KC,Dordrecht,Dordrecht,Zuid-Holland,VBO,4.642878,51.770187
Carneool,122,,,3316KC,Dordrecht,Dordrecht,Zuid-Holland,VBO,4.642882,51.770235
Carneool,124,,,3316KC,Dordrecht,Dordrecht,Zuid-Holland,VBO,4.642893,51.770377
Carneool,126,,,3316KC,Dordrecht,Dordrecht,Zuid-Holland,VBO,4.642896,51.770420
Carneool,128,,,3316KC,Dordrecht,Dordrecht,Zuid-Holland,VBO,4.642900,51.770468
Carneool,130,,,3316KC,Dordrecht,Dordrecht,Zuid-Holland,VBO,4.642903,51.770515
Carneool,132,,,3316KC,Dordrecht,Dordrecht,Zuid-Holland,VBO,4.642907,51.770563
Carneool,134,,,3316KC,Dordrecht,Dordrecht,Zuid-Holland,VBO,4.642911,51.770610
Carneool,136,,,3316KC,Dordrecht,Dordrecht,Zuid-Holland,VBO,4.642914,51.770655
Carneool,138,,,3316KC,Dordrecht,Dordrecht,Zuid-Holland,VBO,4.642918,51.770701
Carneool,140,,,3316KC,Dordrecht,Dordrecht,Zuid-Holland,VBO,4.642921,51.770746
Carneool,142,,,3316KC,Dordrecht,Dordrecht,Zuid-Holland,VBO,4.642925,51.770796
Carneool,144,,,3316KC,Dordrecht,Dordrecht,Zuid-Holland,VBO,4.642929,51.770840
Carneool,146,,,3316KC,Dordrecht,Dordrecht,Zuid-Holland,VBO,4.642932,51.770887
Carneool,400,,,3316KC,Dordrecht,Dordrecht,Zuid-Holland,VBO,4.641496,51.770247
Carneool,600,,,3316KC,Dordrecht,Dordrecht,Zuid-Holland,VBO,4.642174,51.770373
Zirkoon,100,,,3316KD,Dordrecht,Dordrecht,Zuid-Holland,VBO,4.642833,51.769450
Zirkoon,102,,,3316KD,Dordrecht,Dordrecht,Zuid-Holland,VBO,4.642830,51.769403
Zirkoon,104,,,3316KD,Dordrecht,Dordrecht,Zuid-Holland,VBO,4.642826,51.769358
Zirkoon,106,,,3316KD,Dordrecht,Dordrecht,Zuid-Holland,VBO,4.642822,51.769310
Zirkoon,108,,,3316KD,Dordrecht,Dordrecht,Zuid-Holland,VBO,4.642819,51.769262
Zirkoon,110,,,3316KD,Dordrecht,Dordrecht,Zuid-Holland,VBO,4.642815,51.769217
Zirkoon,112,,,3316KD,Dordrecht,Dordrecht,Zuid-Holland,VBO,4.642802,51.769085
Zirkoon,114,,,3316KD,Dordrecht,Dordrecht,Zuid-Holland,VBO,4.642799,51.769039
Zirkoon,116,,,3316KD,Dordrecht,Dordrecht,Zuid-Holland,VBO,4.642795,51.768992
Zirkoon,118,,,3316KD,Dordrecht,Dordrecht,Zuid-Holland,VBO,4.642792,51.768945
Zirkoon,120,,,3316KD,Dordrecht,Dordrecht,Zuid-Holland,VBO,4.642788,51.768898
Zirkoon,122,,,3316KD,Dordrecht,Dordrecht,Zuid-Holland,VBO,4.642784,51.768852
Zirkoon,124,,,3316KD,Dordrecht,Dordrecht,Zuid-Holland,VBO,4.642781,51.768805
Zirkoon,126,,,3316KD,Dordrecht,Dordrecht,Zuid-Holland,VBO,4.642777,51.768758
Zirkoon,128,,,3316KD,Dordrecht,Dordrecht,Zuid-Holland,VBO,4.642771,51.768621
Zirkoon,130,,,3316KD,Dordrecht,Dordrecht,Zuid-Holland,VBO,4.642767,51.768572
Zirkoon,132,,,3316KD,Dordrecht,Dordrecht,Zuid-Holland,VBO,4.642763,51.768528
Zirkoon,134,,,3316KD,Dordrecht,Dordrecht,Zuid-Holland,VBO,4.642760,51.768483
Zirkoon,136,,,3316KD,Dordrecht,Dordrecht,Zuid-Holland,VBO,4.642756,51.768433
Robijn,3,T,,3316KE,Dordrecht,Dordrecht,Zuid-Holland,VBO,4.643303,51.769569
Robijn,200,,,3316KE,Dordrecht,Dordrecht,Zuid-Holland,VBO,4.638177,51.768774
Robijn,400,T,,3316KE,Dordrecht,Dordrecht,Zuid-Holland,VBO,4.639165,51.769005
Robijn,400,,,3316KE,Dordrecht,Dordrecht,Zuid-Holland,VBO,4.638904,51.768945
Robijn,600,T,,3316KE,Dordrecht,Dordrecht,Zuid-Holland,VBO,4.639212,51.769029
Robijn,600,,,3316KE,Dordrecht,Dordrecht,Zuid-Holland,VBO,4.639673,51.769050
Robijn,800,,,3316KE,Dordrecht,Dordrecht,Zuid-Holland,VBO,4.640323,51.769124
Robijn,900,,,3316KE,Dordrecht,Dordrecht,Zuid-Holland,VBO,4.641716,51.769682
Robijn,910,,,3316KE,Dordrecht,Dordrecht,Zuid-Holland,VBO,4.641764,51.769695
Robijn,920,,,3316KE,Dordrecht,Dordrecht,Zuid-Holland,VBO,4.641814,51.769703
Robijn,930,,,3316KE,Dordrecht,Dordrecht,Zuid-Holland,VBO,4.641861,51.769714
Robijn,940,,,3316KE,Dordrecht,Dordrecht,Zuid-Holland,VBO,4.641908,51.769726
Robijn,950,,,3316KE,Dordrecht,Dordrecht,Zuid-Holland,VBO,4.641963,51.769738
Heliotroopring,300,T,,3316KG,Dordrecht,Dordrecht,Zuid-Holland,VBO,4.637666,51.763558
Heliotroopring,300,,,3316KG,Dordrecht,Dordrecht,Zuid-Holland,VBO,4.637402,51.763919
Heliotroopring,500,,,3316KG,Dordrecht,Dordrecht,Zuid-Holland,VBO,4.639660,51.764523
Heliotroopring,700,,,3316KG,Dordrecht,Dordrecht,Zuid-Holland,VBO,4.639298,51.765551
Heliotroopring,1200,,,3316KG,Dordrecht,Dordrecht,Zuid-Holland,VBO,4.636605,51.768517
Heliotroopring,1220,,,3316KG,Dordrecht,Dordrecht,Zuid-Holland,VBO,4.636999,51.768328
Olivijn,200,,,3316KH,Dordrecht,Dordrecht,Zuid-Holland,VBO,4.638808,51.766501
Olivijn,500,,,3316KH,Dordrecht,Dordrecht,Zuid-Holland,VBO,4.636701,51.767537
Olivijn,600,T,,3316KH,Dordrecht,Dordrecht,Zuid-Holland,VBO,4.637522,51.766617
Olivijn,600,,,3316KH,Dordrecht,Dordrecht,Zuid-Holland,VBO,4.637282,51.766906
Olivijn,800,,,3316KH,Dordrecht,Dordrecht,Zuid-Holland,VBO,4.638089,51.767696
Smaragd,500,,,3316KJ,Dordrecht,Dordrecht,Zuid-Holland,VBO,4.640543,51.767065
Aventurijn,171,,,3316LB,Dordrecht,Dordrecht,Zuid-Holland,VBO,4.631372,51.768977
Aventurijn,181,,,3316LB,Dordrecht,Dordrecht,Zuid-Holland,VBO,4.631474,51.768974
Aventurijn,191,,,3316LB,Dordrecht,Dordrecht,Zuid-Holland,VBO,4.630980,51.768988
Aventurijn,192,,,3316LB,Dordrecht,Dordrecht,Zuid-Holland,VBO,4.631718,51.769304
Aventurijn,194,,,3316LB,Dordrecht,Dordrecht,Zuid-Holland,VBO,4.631628,51.769307
Aventurijn,196,,,3316LB,Dordrecht,Dordrecht,Zuid-Holland,VBO,4.631486,51.769311
Aventurijn,198,,,3316LB,Dordrecht,Dordrecht,Zuid-Holland,VBO,4.631422,51.769447
Aventurijn,200,,,3316LB,Dordrecht,Dordrecht,Zuid-Holland,VBO,4.631425,51.769524
Aventurijn,202,,,3316LB,Dordrecht,Dordrecht,Zuid-Holland,VBO,4.631436,51.769619
Aventurijn,204,,,3316LB,Dordrecht,Dordrecht,Zuid-Holland,VBO,4.631447,51.769737
Aventurijn,206,,,3316LB,Dordrecht,Dordrecht,Zuid-Holland,VBO,4.631658,51.769673
Aventurijn,208,,,3316LB,Dordrecht,Dordrecht,Zuid-Holland,VBO,4.631750,51.769637
Aventurijn,210,,,3316LB,Dordrecht,Dordrecht,Zuid-Holland,VBO,4.631943,51.769705
Aventurijn,212,,,3316LB,Dordrecht,Dordrecht,Zuid-Holland,VBO,4.631888,51.769746
Aventurijn,214,,,3316LB,Dordrecht,Dordrecht,Zuid-Holland,VBO,4.631826,51.769788
Aventurijn,216,,,3316LB,Dordrecht,Dordrecht,Zuid-Holland,VBO,4.631755,51.769838
Aventurijn,218,,,3316LB,Dordrecht,Dordrecht,Zuid-Holland,VBO,4.631662,51.769976
Aventurijn,220,,,3316LB,Dordrecht,Dordrecht,Zuid-Holland,VBO,4.631764,51.770000
Aventurijn,221,,,3316LB,Dordrecht,Dordrecht,Zuid-Holland,VBO,4.630532,51.768967
Aventurijn,221,,,3316LB,Dordrecht,Dordrecht,Zuid-Holland,VBO,4.630537,51.768944
Aventurijn,222,,,3316LB,Dordrecht,Dordrecht,Zuid-Holland,VBO,4.631908,51.770034
Aventurijn,223,,,3316LB,Dordrecht,Dordrecht,Zuid-Holland,VBO,4.630423,51.768968
Aventurijn,223,,,3316LB,Dordrecht,Dordrecht,Zuid-Holland,VBO,4.630436,51.768936
Aventurijn,224,,,3316LB,Dordrecht,Dordrecht,Zuid-Holland,VBO,4.632051,51.770069
Aventurijn,225,,,3316LB,Dordrecht,Dordrecht,Zuid-Holland,VBO,4.630329,51.768977
Aventurijn,225,,,3316LB,Dordrecht,Dordrecht,Zuid-Holland,VBO,4.630336,51.768941
Aventurijn,226,,,3316LB,Dordrecht,Dordrecht,Zuid-Holland,VBO,4.632179,51.769944
Aventurijn,228,,,3316LB,Dordrecht,Dordrecht,Zuid-Holland,VBO,4.632215,51.769884
Aventurijn,230,,,3316LB,Dordrecht,Dordrecht,Zuid-Holland,VBO,4.632252,51.769824
Aventurijn,232,,,3316LB,Dordrecht,Dordrecht,Zuid-Holland,VBO,4.632289,51.769765
Aventurijn,234,,,3316LB,Dordrecht,Dordrecht,Zuid-Holland,VBO,4.632541,51.769814
Aventurijn,236,,,3316LB,Dordrecht,Dordrecht,Zuid-Holland,VBO,4.632499,51.769881
Aventurijn,238,,,3316LB,Dordrecht,Dordrecht,Zuid-Holland,VBO,4.632463,51.769938
Aventurijn,240,,,3316LB,Dordrecht,Dordrecht,Zuid-Holland,VBO,4.632424,51.770001
Aventurijn,244,,,3316LB,Dordrecht,Dordrecht,Zuid-Holland,VBO,4.632395,51.770149
Aventurijn,246,,,3316LB,Dordrecht,Dordrecht,Zuid-Holland,VBO,4.632525,51.770180
Aventurijn,248,,,3316LB,Dordrecht,Dordrecht,Zuid-Holland,VBO,4.632663,51.770213
Aventurijn,252,,,3316LB,Dordrecht,Dordrecht,Zuid-Holland,VBO,4.632806,51.770092
Aventurijn,254,,,3316LB,Dordrecht,Dordrecht,Zuid-Holland,VBO,4.632844,51.770030
Aventurijn,256,,,3316LB,Dordrecht,Dordrecht,Zuid-Holland,VBO,4.632878,51.769975
Aventurijn,258,,,3316LB,Dordrecht,Dordrecht,Zuid-Holland,VBO,4.632915,51.769917
Aventurijn,260,,,3316LB,Dordrecht,Dordrecht,Zuid-Holland,VBO,4.632949,51.769862
Aventurijn,298,T,,3316LB,Dordrecht,Dordrecht,Zuid-Holland,VBO,4.632916,51.770279
Aventurijn,300,,,3316LB,Dordrecht,Dordrecht,Zuid-Holland,VBO,4.630866,51.769599
Aventurijn,600,,,3316LB,Dordrecht,Dordrecht,Zuid-Holland,VBO,4.633112,51.770328
Aventurijn,800,,,3316LB,Dordrecht,Dordrecht,Zuid-Holland,VBO,4.633700,51.770451
Aventurijn,802,,,3316LB,Dordrecht,Dordrecht,Zuid-Holland,VBO,4.633729,51.770405
Aventurijn,804,,,3316LB,Dordrecht,Dordrecht,Zuid-Holland,VBO,4.633755,51.770363
Aventurijn,806,,,3316LB,Dordrecht,Dordrecht,Zuid-Holland,VBO,4.633782,51.770319
Aventurijn,808,,,3316LB,Dordrecht,Dordrecht,Zuid-Holland,VBO,4.633809,51.770275
Aventurijn,810,,,3316LB,Dordrecht,Dordrecht,Zuid-Holland,VBO,4.633836,51.770232
Aventurijn,812,,,3316LB,Dordrecht,Dordrecht,Zuid-Holland,VBO,4.633864,51.770187
Aventurijn,814,,,3316LB,Dordrecht,Dordrecht,Zuid-Holland,VBO,4.633889,51.770146
Aventurijn,816,,,3316LB,Dordrecht,Dordrecht,Zuid-Holland,VBO,4.633918,51.770099
Aventurijn,818,,,3316LB,Dordrecht,Dordrecht,Zuid-Holland,VBO,4.633945,51.770056
Aventurijn,820,,,3316LB,Dordrecht,Dordrecht,Zuid-Holland,VBO,4.634254,51.770102
Aventurijn,822,,,3316LB,Dordrecht,Dordrecht,Zuid-Holland,VBO,4.634228,51.770137
Aventurijn,824,,,3316LB,Dordrecht,Dordrecht,Zuid-Holland,VBO,4.634200,51.770182
Aventurijn,826,,,3316LB,Dordrecht,Dordrecht,Zuid-Holland,VBO,4.634173,51.770227
Aventurijn,828,,,3316LB,Dordrecht,Dordrecht,Zuid-Holland,VBO,4.634147,51.770269
Aventurijn,830,,,3316LB,Dordrecht,Dordrecht,Zuid-Holland,VBO,4.634119,51.770313
Aventurijn,832,,,3316LB,Dordrecht,Dordrecht,Zuid-Holland,VBO,4.634093,51.770356
Aventurijn,834,,,3316LB,Dordrecht,Dordrecht,Zuid-Holland,VBO,4.634065,51.770401
Aventurijn,836,,,3316LB,Dordrecht,Dordrecht,Zuid-Holland,VBO,4.634038,51.770444
Aventurijn,838,,,3316LB,Dordrecht,Dordrecht,Zuid-Holland,VBO,4.634012,51.770486
Aventurijn,840,,,3316LB,Dordrecht,Dordrecht,Zuid-Holland,VBO,4.633984,51.770532
Aventurijn,1000,,,3316LB,Dordrecht,Dordrecht,Zuid-Holland,VBO,4.634245,51.770595
Aventurijn,1004,,,3316LB,Dordrecht,Dordrecht,Zuid-Holland,VBO,4.634478,51.770650
Aventurijn,1008,,,3316LB,Dordrecht,Dordrecht,Zuid-Holland,VBO,4.634552,51.770668
Aventurijn,1012,,,3316LB,Dordrecht,Dordrecht,Zuid-Holland,VBO,4.634788,51.770725
Aventurijn,1016,,,3316LB,Dordrecht,Dordrecht,Zuid-Holland,VBO,4.634849,51.770740
Aventurijn,1018,,,3316LB,Dordrecht,Dordrecht,Zuid-Holland,VBO,4.634890,51.770488
Aventurijn,1020,,,3316LB,Dordrecht,Dordrecht,Zuid-Holland,VBO,4.634844,51.770413
Aventurijn,1024,,,3316LB,Dordrecht,Dordrecht,Zuid-Holland,VBO,4.634778,51.770222
Aventurijn,1028,,,3316LB,Dordrecht,Dordrecht,Zuid-Holland,VBO,4.634707,51.770206
Aventurijn,1032,,,3316LB,Dordrecht,Dordrecht,Zuid-Holland,VBO,4.634647,51.770192
Aventurijn,1036,,,3316LB,Dordrecht,Dordrecht,Zuid-Holland,VBO,4.634583,51.770173
Aventurijn,1040,,,3316LB,Dordrecht,Dordrecht,Zuid-Holland,VBO,4.634515,51.770156
Aventurijn,1044,,,3316LB,Dordrecht,Dordrecht,Zuid-Holland,VBO,4.634432,51.770265
Aventurijn,1048,,,3316LB,Dordrecht,Dordrecht,Zuid-Holland,VBO,4.634373,51.770358
Aventurijn,1200,T,,3316LB,Dordrecht,Dordrecht,Zuid-Holland,VBO,4.635901,51.771011
Aventurijn,1200,,,3316LB,Dordrecht,Dordrecht,Zuid-Holland,VBO,4.636171,51.770618
Aventurijn,1400,,,3316LB,Dordrecht,Dordrecht,Zuid-Holland,VBO,4.635646,51.769631
Aventurijn,1410,,,3316LB,Dordrecht,Dordrecht,Zuid-Holland,VBO,4.635483,51.769501
Aventurijn,1420,,,3316LB,Dordrecht,Dordrecht,Zuid-Holland,VBO,4.635316,51.769413
Toermalijnring,100,,,3316LC,Dordrecht,Dordrecht,Zuid-Holland,VBO,4.635190,51.768854
Toermalijnring,210,,,3316LC,Dordrecht,Dordrecht,Zuid-Holland,VBO,4.635118,51.769291
Toermalijnring,220,,,3316LC,Dordrecht,Dordrecht,Zuid-Holland,VBO,4.634977,51.769303
Toermalijnring,230,,,3316LC,Dordrecht,Dordrecht,Zuid-Holland,VBO,4.634819,51.769316
Toermalijnring,240,,,3316LC,Dordrecht,Dordrecht,Zuid-Holland,VBO,4.634798,51.769476
Toermalijnring,250,,,3316LC,Dordrecht,Dordrecht,Zuid-Holland,VBO,4.634832,51.769622
Toermalijnring,300,,,3316LC,Dordrecht,Dordrecht,Zuid-Holland,VBO,4.634189,51.768916
Toermalijnring,310,,,3316LC,Dordrecht,Dordrecht,Zuid-Holland,VBO,4.633944,51.768921
Toermalijnring,320,,,3316LC,Dordrecht,Dordrecht,Zuid-Holland,VBO,4.633684,51.768930
Toermalijnring,330,,,3316LC,Dordrecht,Dordrecht,Zuid-Holland,VBO,4.633434,51.768935
Toermalijnring,350,T,,3316LC,Dordrecht,Dordrecht,Zuid-Holland,VBO,4.633239,51.768974
Toermalijnring,500,,,3316LC,Dordrecht,Dordrecht,Zuid-Holland,VBO,4.633029,51.768990
Toermalijnring,504,,,3316LC,Dordrecht,Dordrecht,Zuid-Holland,VBO,4.632927,51.768993
Toermalijnring,508,,,3316LC,Dordrecht,Dordrecht,Zuid-Holland,VBO,4.632826,51.768996
Toermalijnring,512,,,3316LC,Dordrecht,Dordrecht,Zuid-Holland,VBO,4.632722,51.768999
Toermalijnring,516,,,3316LC,Dordrecht,Dordrecht,Zuid-Holland,VBO,4.632616,51.769002
Toermalijnring,520,,,3316LC,Dordrecht,Dordrecht,Zuid-Holland,VBO,4.632520,51.769005
Toermalijnring,524,,,3316LC,Dordrecht,Dordrecht,Zuid-Holland,VBO,4.632409,51.769008
Toermalijnring,528,,,3316LC,Dordrecht,Dordrecht,Zuid-Holland,VBO,4.632335,51.769011
Toermalijnring,532,,,3316LC,Dordrecht,Dordrecht,Zuid-Holland,VBO,4.632294,51.768851
Toermalijnring,536,,,3316LC,Dordrecht,Dordrecht,Zuid-Holland,VBO,4.632397,51.768848
Toermalijnring,540,,,3316LC,Dordrecht,Dordrecht,Zuid-Holland,VBO,4.632503,51.768845
Toermalijnring,544,,,3316LC,Dordrecht,Dordrecht,Zuid-Holland,VBO,4.632610,51.768841
Toermalijnring,548,,,3316LC,Dordrecht,Dordrecht,Zuid-Holland,VBO,4.632709,51.768839
Toermalijnring,552,,,3316LC,Dordrecht,Dordrecht,Zuid-Holland,VBO,4.632811,51.768836
Toermalijnring,556,,,3316LC,Dordrecht,Dordrecht,Zuid-Holland,VBO,4.632910,51.768833
Toermalijnring,560,,,3316LC,Dordrecht,Dordrecht,Zuid-Holland,VBO,4.633013,51.768830
Toermalijnring,600,,,3316LC,Dordrecht,Dordrecht,Zuid-Holland,VBO,4.633570,51.769360
Toermalijnring,800,,,3316LC,Dordrecht,Dordrecht,Zuid-Holland,VBO,4.632895,51.769385
Toermalijnring,850,,,3316LC,Dordrecht,Dordrecht,Zuid-Holland,VBO,4.632688,51.769391
Toermalijnring,902,,,3316LC,Dordrecht,Dordrecht,Zuid-Holland,VBO,4.632182,51.767182
Toermalijnring,904,,,3316LC,Dordrecht,Dordrecht,Zuid-Holland,VBO,4.632178,51.767132
Toermalijnring,906,,,3316LC,Dordrecht,Dordrecht,Zuid-Holland,VBO,4.632173,51.767073
Toermalijnring,908,,,3316LC,Dordrecht,Dordrecht,Zuid-Holland,VBO,4.632167,51.767009
Toermalijnring,910,,,3316LC,Dordrecht,Dordrecht,Zuid-Holland,VBO,4.632167,51.766963
Toermalijnring,912,,,3316LC,Dordrecht,Dordrecht,Zuid-Holland,VBO,4.632275,51.766968
Toermalijnring,914,,,3316LC,Dordrecht,Dordrecht,Zuid-Holland,VBO,4.632369,51.766966
Toermalijnring,916,,,3316LC,Dordrecht,Dordrecht,Zuid-Holland,VBO,4.632488,51.766962
Toermalijnring,918,,,3316LC,Dordrecht,Dordrecht,Zuid-Holland,VBO,4.632598,51.766954
Toermalijnring,920,,,3316LC,Dordrecht,Dordrecht,Zuid-Holland,VBO,4.632676,51.766954
Toermalijnring,1000,,,3316LC,Dordrecht,Dordrecht,Zuid-Holland,VBO,4.632183,51.769389
Toermalijnring,1020,,,3316LC,Dordrecht,Dordrecht,Zuid-Holland,VBO,4.631653,51.768916
Toermalijnring,1040,,,3316LC,Dordrecht,Dordrecht,Zuid-Holland,VBO,4.631646,51.768824
Toermalijnring,1100,,,3316LC,Dordrecht,Dordrecht,Zuid-Holland,VBO,4.632076,51.766489
Toermalijnring,1104,,,3316LC,Dordrecht,Dordrecht,Zuid-Holland,VBO,4.632072,51.766426
Toermalijnring,1108,,,3316LC,Dordrecht,Dordrecht,Zuid-Holland,VBO,4.632067,51.766360
Toermalijnring,1112,,,3316LC,Dordrecht,Dordrecht,Zuid-Holland,VBO,4.632062,51.766295
Toermalijnring,1116,,,3316LC,Dordrecht,Dordrecht,Zuid-Holland,VBO,4.632058,51.766224
Toermalijnring,1200,,,3316LC,Dordrecht,Dordrecht,Zuid-Holland,VBO,4.631600,51.768675
Toermalijnring,1210,,,3316LC,Dordrecht,Dordrecht,Zuid-Holland,VBO,4.631589,51.768592
Toermalijnring,1300,,,3316LC,Dordrecht,Dordrecht,Zuid-Holland,VBO,4.632018,51.765764
Toermalijnring,1304,,,3316LC,Dordrecht,Dordrecht,Zuid-Holland,VBO,4.632012,51.765685
Toermalijnring,1308,,,3316LC,Dordrecht,Dordrecht,Zuid-Holland,VBO,4.632006,51.765604
Toermalijnring,1312,,,3316LC,Dordrecht,Dordrecht,Zuid-Holland,VBO,4.632000,51.765520
Toermalijnring,1316,,,3316LC,Dordrecht,Dordrecht,Zuid-Holland,VBO,4.631995,51.765444
Toermalijnring,1320,,,3316LC,Dordrecht,Dordrecht,Zuid-Holland,VBO,4.631988,51.765374
Toermalijnring,1324,,,3316LC,Dordrecht,Dordrecht,Zuid-Holland,VBO,4.631986,51.765302
Toermalijnring,1328,,,3316LC,Dordrecht,Dordrecht,Zuid-Holland,VBO,4.631978,51.765226
Toermalijnring,1600,,,3316LC,Dordrecht,Dordrecht,Zuid-Holland,VBO,4.631534,51.767490
Toermalijnring,1800,,,3316LC,Dordrecht,Dordrecht,Zuid-Holland,VBO,4.631507,51.767123
Toermalijnring,1804,,,3316LC,Dordrecht,Dordrecht,Zuid-Holland,VBO,4.631497,51.767000
Toermalijnring,1808,,,3316LC,Dordrecht,Dordrecht,Zuid-Holland,VBO,4.631489,51.766886
Toermalijnring,2000,T,,3316LC,Dordrecht,Dordrecht,Zuid-Holland,VBO,4.631342,51.765069
Toermalijnring,2000,,,3316LC,Dordrecht,Dordrecht,Zuid-Holland,VBO,4.631414,51.765819
Malachiet,100,,,3316LD,Dordrecht,Dordrecht,Zuid-Holland,VBO,4.634797,51.768277
Malachiet,200,,,3316LD,Dordrecht,Dordrecht,Zuid-Holland,VBO,4.634236,51.768718
Malachiet,300,,,3316LD,Dordrecht,Dordrecht,Zuid-Holland,VBO,4.634656,51.767978
Malachiet,1300,,,3316LD,Dordrecht,Dordrecht,Zuid-Holland,VBO,4.633112,51.767156
Malachiet,1310,,,3316LD,Dordrecht,Dordrecht,Zuid-Holland,VBO,4.632678,51.767164
Malachiet,1312,,,3316LD,Dordrecht,Dordrecht,Zuid-Holland,VBO,4.632604,51.767168
Malachiet,1314,,,3316LD,Dordrecht,Dordrecht,Zuid-Holland,VBO,4.632516,51.767172
Malachiet,1316,,,3316LD,Dordrecht,Dordrecht,Zuid-Holland,VBO,4.632393,51.767176
Malachiet,1318,,,3316LD,Dordrecht,Dordrecht,Zuid-Holland,VBO,4.632312,51.767179
Opaal,100,,,3316LE,Dordrecht,Dordrecht,Zuid-Holland,VBO,4.632303,51.768507
Opaal,300,,,3316LE,Dordrecht,Dordrecht,Zuid-Holland,VBO,4.633402,51.768521
Opaal,310,,,3316LE,Dordrecht,Dordrecht,Zuid-Holland,VBO,4.633657,51.768511
Opaal,320,,,3316LE,Dordrecht,Dordrecht,Zuid-Holland,VBO,4.633914,51.768509
Opaal,330,,,3316LE,Dordrecht,Dordrecht,Zuid-Holland,VBO,4.634167,51.768499
Opaal,600,,,3316LE,Dordrecht,Dordrecht,Zuid-Holland,VBO,4.633842,51.768097
Spinel,50,,,3316LG,Dordrecht,Dordrecht,Zuid-Holland,VBO,4.631354,51.768575
Spinel,100,,,3316LG,Dordrecht,Dordrecht,Zuid-Holland,VBO,4.631553,51.768078
Spinel,200,,,3316LG,Dordrecht,Dordrecht,Zuid-Holland,VBO,4.630900,51.768566
Spinel,400,,,3316LG,Dordrecht,Dordrecht,Zuid-Holland,VBO,4.630198,51.768575
Jade,100,,,3316LJ,Dordrecht,Dordrecht,Zuid-Holland,VBO,4.632284,51.766219
Jade,104,,,3316LJ,Dordrecht,Dordrecht,Zuid-Holland,VBO,4.632289,51.766287
Jade,108,,,3316LJ,Dordrecht,Dordrecht,Zuid-Holland,VBO,4.632295,51.766354
Jade,112,,,3316LJ,Dordrecht,Dordrecht,Zuid-Holland,VBO,4.632299,51.766416
Jade,116,,,3316LJ,Dordrecht,Dordrecht,Zuid-Holland,VBO,4.632306,51.766481
Jade,120,,,3316LJ,Dordrecht,Dordrecht,Zuid-Holland,VBO,4.632578,51.766480
Jade,124,,,3316LJ,Dordrecht,Dordrecht,Zuid-Holland,VBO,4.632573,51.766417
Jade,128,,,3316LJ,Dordrecht,Dordrecht,Zuid-Holland,VBO,4.632568,51.766349
Jade,132,,,3316LJ,Dordrecht,Dordrecht,Zuid-Holland,VBO,4.632563,51.766281
Jade,136,,,3316LJ,Dordrecht,Dordrecht,Zuid-Holland,VBO,4.632558,51.766213
Jade,140,,,3316LJ,Dordrecht,Dordrecht,Zuid-Holland,VBO,4.632793,51.766205
Jade,144,,,3316LJ,Dordrecht,Dordrecht,Zuid-Holland,VBO,4.632798,51.766273
Jade,148,,,3316LJ,Dordrecht,Dordrecht,Zuid-Holland,VBO,4.632803,51.766341
Jade,152,,,3316LJ,Dordrecht,Dordrecht,Zuid-Holland,VBO,4.632808,51.766409
Jade,156,,,3316LJ,Dordrecht,Dordrecht,Zuid-Holland,VBO,4.632813,51.766472
Jade,200,,,3316LJ,Dordrecht,Dordrecht,Zuid-Holland,VBO,4.632083,51.765881
Jade,204,,,3316LJ,Dordrecht,Dordrecht,Zuid-Holland,VBO,4.632196,51.765878
Jade,208,,,3316LJ,Dordrecht,Dordrecht,Zuid-Holland,VBO,4.632321,51.765874
Jade,212,,,3316LJ,Dordrecht,Dordrecht,Zuid-Holland,VBO,4.632355,51.765761
Jade,216,,,3316LJ,Dordrecht,Dordrecht,Zuid-Holland,VBO,4.632350,51.765697
Jade,220,,,3316LJ,Dordrecht,Dordrecht,Zuid-Holland,VBO,4.632345,51.765628
Jade,224,,,3316LJ,Dordrecht,Dordrecht,Zuid-Holland,VBO,4.632341,51.765565
Jade,228,,,3316LJ,Dordrecht,Dordrecht,Zuid-Holland,VBO,4.632336,51.765504
Jade,232,,,3316LJ,Dordrecht,Dordrecht,Zuid-Holland,VBO,4.632330,51.765434
Jade,236,,,3316LJ,Dordrecht,Dordrecht,Zuid-Holland,VBO,4.632325,51.765355
Jade,240,,,3316LJ,Dordrecht,Dordrecht,Zuid-Holland,VBO,4.632316,51.765269
Jade,300,,,3316LJ,Dordrecht,Dordrecht,Zuid-Holland,VBO,4.633318,51.766214
Jade,320,,,3316LJ,Dordrecht,Dordrecht,Zuid-Holland,VBO,4.633718,51.766234
Jade,400,,,3316LJ,Dordrecht,Dordrecht,Zuid-Holland,VBO,4.632889,51.765858
Jade,410,,,3316LJ,Dordrecht,Dordrecht,Zuid-Holland,VBO,4.633449,51.765829
Saffier,2,,,3316LN,Dordrecht,Dordrecht,Zuid-Holland,VBO,4.630935,51.762745
Saffier,100,T,,3316LN,Dordrecht,Dordrecht,Zuid-Holland,VBO,4.631911,51.762358
Saffier,300,,,3316LN,Dordrecht,Dordrecht,Zuid-Holland,VBO,4.630827,51.761917
Saffier,300,,,3316LN,Dordrecht,Dordrecht,Zuid-Holland,VBO,4.633687,51.762231
Saffier,302,,,3316LN,Dordrecht,Dordrecht,Zuid-Holland,VBO,4.630093,51.761851
