openbareruimtenaam,huisnummer,huisletter,huisnummertoevoeging,postcode,woonplaatsnaam,gemeentenaam,provincienaam,typeadresseerbaarobject,longitude,latitude
Bruningsstraat,1,,,3364AA,Sliedrecht,Sliedrecht,Zuid-Holland,VBO,4.764875,51.831340
Bruningsstraat,6,,,3364AA,Sliedrecht,Sliedrecht,Zuid-Holland,VBO,4.765450,51.830278
Bruningsstraat,8,,,3364AA,Sliedrecht,Sliedrecht,Zuid-Holland,VBO,4.765344,51.829947
Calandstraat,1,,,3364AB,Sliedrecht,Sliedrecht,Zuid-Holland,VBO,4.773552,51.829887
Calandstraat,3,,nut,3364AB,Sliedrecht,Sliedrecht,Zuid-Holland,VBO,4.773169,51.829922
Calandstraat,3,,,3364AB,Sliedrecht,Sliedrecht,Zuid-Holland,VBO,4.773485,51.829734
Calandstraat,4,,,3364AB,Sliedrecht,Sliedrecht,Zuid-Holland,VBO,4.773919,51.829271
Calandstraat,15,,nut,3364AB,Sliedrecht,Sliedrecht,Zuid-Holland,VBO,4.773283,51.829222
Calandstraat,18,,,3364AB,Sliedrecht,Sliedrecht,Zuid-Holland,VBO,4.773536,51.828570
Calandstraat,21,,,3364AB,Sliedrecht,Sliedrecht,Zuid-Holland,VBO,4.773137,51.828938
Calandstraat,23,,nut,3364AB,Sliedrecht,Sliedrecht,Zuid-Holland,VBO,4.772799,51.828785
Calandstraat,23,,,3364AB,Sliedrecht,Sliedrecht,Zuid-Holland,VBO,4.773018,51.828814
Calandstraat,24,,,3364AB,Sliedrecht,Sliedrecht,Zuid-Holland,VBO,4.773536,51.828570
Calandstraat,26,,,3364AB,Sliedrecht,Sliedrecht,Zuid-Holland,VBO,4.773400,51.828446
Conradstraat,8,,,3364AC,Sliedrecht,Sliedrecht,Zuid-Holland,VBO,4.774161,51.829130
Conradstraat,10,,,3364AC,Sliedrecht,Sliedrecht,Zuid-Holland,VBO,4.774033,51.829527
Conradstraat,12,,,3364AC,Sliedrecht,Sliedrecht,Zuid-Holland,VBO,4.773797,51.829506
Krausstraat,16,,nut,3364AD,Sliedrecht,Sliedrecht,Zuid-Holland,VBO,4.769759,51.829129
Krausstraat,16,,,3364AD,Sliedrecht,Sliedrecht,Zuid-Holland,VBO,4.770323,51.829433
Leeghwaterstraat,1,,,3364AE,Sliedrecht,Sliedrecht,Zuid-Holland,VBO,4.772786,51.828619
Leeghwaterstraat,3,,,3364AE,Sliedrecht,Sliedrecht,Zuid-Holland,VBO,4.772656,51.828754
Leeghwaterstraat,7,,,3364AE,Sliedrecht,Sliedrecht,Zuid-Holland,VBO,4.772390,51.828767
Leeghwaterstraat,13,,nut,3364AE,Sliedrecht,Sliedrecht,Zuid-Holland,VBO,4.771761,51.828503
Leeghwaterstraat,23,,,3364AE,Sliedrecht,Sliedrecht,Zuid-Holland,VBO,4.770731,51.828884
Leeghwaterstraat,25,,,3364AE,Sliedrecht,Sliedrecht,Zuid-Holland,VBO,4.770731,51.828884
Leeghwaterstraat,27,,,3364AE,Sliedrecht,Sliedrecht,Zuid-Holland,VBO,4.770731,51.828884
Leeghwaterstraat,29,,,3364AE,Sliedrecht,Sliedrecht,Zuid-Holland,VBO,4.770731,51.828884
Leeghwaterstraat,31,,,3364AE,Sliedrecht,Sliedrecht,Zuid-Holland,VBO,4.770731,51.828884
Leeghwaterstraat,33,,,3364AE,Sliedrecht,Sliedrecht,Zuid-Holland,VBO,4.770731,51.828884
Leeghwaterstraat,35,,,3364AE,Sliedrecht,Sliedrecht,Zuid-Holland,VBO,4.770731,51.828884
Leeghwaterstraat,43,,,3364AE,Sliedrecht,Sliedrecht,Zuid-Holland,VBO,4.768915,51.829246
Leeghwaterstraat,45,,,3364AE,Sliedrecht,Sliedrecht,Zuid-Holland,VBO,4.767228,51.829503
Leeghwaterstraat,46,,,3364AE,Sliedrecht,Sliedrecht,Zuid-Holland,VBO,4.767228,51.829503
Leeghwaterstraat,47,,,3364AE,Sliedrecht,Sliedrecht,Zuid-Holland,VBO,4.767228,51.829503
Leeghwaterstraat,48,,,3364AE,Sliedrecht,Sliedrecht,Zuid-Holland,VBO,4.767228,51.829503
Leeghwaterstraat,49,,,3364AE,Sliedrecht,Sliedrecht,Zuid-Holland,VBO,4.767228,51.829503
Leeghwaterstraat,50,,,3364AE,Sliedrecht,Sliedrecht,Zuid-Holland,VBO,4.767228,51.829503
Leeghwaterstraat,51,,nut,3364AE,Sliedrecht,Sliedrecht,Zuid-Holland,VBO,4.766017,51.829940
Leeghwaterstraat,51,,,3364AE,Sliedrecht,Sliedrecht,Zuid-Holland,VBO,4.766067,51.829631
Leeghwaterstraat,53,,,3364AE,Sliedrecht,Sliedrecht,Zuid-Holland,VBO,4.765798,51.829848
Leeghwaterstraat,55,,,3364AE,Sliedrecht,Sliedrecht,Zuid-Holland,VBO,4.765200,51.829636
Leeghwaterstraat,59,,,3364AE,Sliedrecht,Sliedrecht,Zuid-Holland,VBO,4.764127,51.830030
Leeghwaterstraat,61,,,3364AE,Sliedrecht,Sliedrecht,Zuid-Holland,VBO,4.763764,51.829689
Leeghwaterstraat,63,,nut,3364AE,Sliedrecht,Sliedrecht,Zuid-Holland,VBO,4.763696,51.829717
Leeghwaterstraat,63,,,3364AE,Sliedrecht,Sliedrecht,Zuid-Holland,VBO,4.763358,51.830089
Leeghwaterstraat,65,,,3364AE,Sliedrecht,Sliedrecht,Zuid-Holland,VBO,4.763358,51.830089
Leeghwaterstraat,67,,,3364AE,Sliedrecht,Sliedrecht,Zuid-Holland,VBO,4.763358,51.830089
Leeghwaterstraat,69,,,3364AE,Sliedrecht,Sliedrecht,Zuid-Holland,VBO,4.762191,51.830366
Leeghwaterstraat,71,,,3364AE,Sliedrecht,Sliedrecht,Zuid-Holland,VBO,4.761705,51.830094
Leeghwaterstraat,73,,,3364AE,Sliedrecht,Sliedrecht,Zuid-Holland,VBO,4.760739,51.830236
Leeghwaterstraat,85,,,3364AE,Sliedrecht,Sliedrecht,Zuid-Holland,VBO,4.757923,51.830955
Leeghwaterstraat,91,,,3364AE,Sliedrecht,Sliedrecht,Zuid-Holland,VBO,4.755631,51.830759
Leeghwaterstraat,95,,,3364AE,Sliedrecht,Sliedrecht,Zuid-Holland,VBO,4.755631,51.830759
Leeghwaterstraat,97,,,3364AE,Sliedrecht,Sliedrecht,Zuid-Holland,VBO,4.755631,51.830759
Leeghwaterstraat,99,,,3364AE,Sliedrecht,Sliedrecht,Zuid-Holland,VBO,4.755631,51.830759
Leeghwaterstraat,101,,,3364AE,Sliedrecht,Sliedrecht,Zuid-Holland,VBO,4.753653,51.830992
Leeghwaterstraat,103,,,3364AE,Sliedrecht,Sliedrecht,Zuid-Holland,VBO,4.753653,51.830992
Leeghwaterstraat,105,,,3364AE,Sliedrecht,Sliedrecht,Zuid-Holland,VBO,4.753653,51.830992
Leeghwaterstraat,107,,,3364AE,Sliedrecht,Sliedrecht,Zuid-Holland,VBO,4.753653,51.830992
Leeghwaterstraat,109,,,3364AE,Sliedrecht,Sliedrecht,Zuid-Holland,VBO,4.753653,51.830992
Leeghwaterstraat,111,,,3364AE,Sliedrecht,Sliedrecht,Zuid-Holland,VBO,4.753653,51.830992
Leeghwaterstraat,225,,nut,3364AE,Sliedrecht,Sliedrecht,Zuid-Holland,VBO,4.750042,51.831506
Leeghwaterstraat,225,,,3364AE,Sliedrecht,Sliedrecht,Zuid-Holland,VBO,4.752118,51.831570
Leeghwaterstraat,227,,,3364AE,Sliedrecht,Sliedrecht,Zuid-Holland,VBO,4.751109,51.832160
Leeghwaterstraat,229,,,3364AE,Sliedrecht,Sliedrecht,Zuid-Holland,VBO,4.751138,51.832199
Leeghwaterstraat,231,,,3364AE,Sliedrecht,Sliedrecht,Zuid-Holland,VBO,4.751166,51.832238
Leeghwaterstraat,233,,,3364AE,Sliedrecht,Sliedrecht,Zuid-Holland,VBO,4.751194,51.832278
Leeghwaterstraat,235,a,,3364AE,Sliedrecht,Sliedrecht,Zuid-Holland,VBO,4.751776,51.832086
Leeghwaterstraat,235,b,,3364AE,Sliedrecht,Sliedrecht,Zuid-Holland,VBO,4.751776,51.832086
Leeghwaterstraat,235,c,,3364AE,Sliedrecht,Sliedrecht,Zuid-Holland,VBO,4.751776,51.832086
Leeghwaterstraat,235,,,3364AE,Sliedrecht,Sliedrecht,Zuid-Holland,VBO,4.751223,51.832317
Leeghwaterstraat,237,,,3364AE,Sliedrecht,Sliedrecht,Zuid-Holland,VBO,4.751946,51.832595
Leeghwaterstraat,239,,,3364AE,Sliedrecht,Sliedrecht,Zuid-Holland,VBO,4.751946,51.832595
Leeghwaterstraat,241,,,3364AE,Sliedrecht,Sliedrecht,Zuid-Holland,VBO,4.751946,51.832595
Leeghwaterstraat,243,,,3364AE,Sliedrecht,Sliedrecht,Zuid-Holland,VBO,4.751946,51.832595
Leemansstraat,8,,,3364AG,Sliedrecht,Sliedrecht,Zuid-Holland,VBO,4.767228,51.829503
Leemansstraat,9,,,3364AG,Sliedrecht,Sliedrecht,Zuid-Holland,VBO,4.766187,51.830161
Leemansstraat,10,,,3364AG,Sliedrecht,Sliedrecht,Zuid-Holland,VBO,4.767228,51.829503
Leemansstraat,13,,,3364AG,Sliedrecht,Sliedrecht,Zuid-Holland,VBO,4.766067,51.829631
Leemansstraat,14,,,3364AG,Sliedrecht,Sliedrecht,Zuid-Holland,VBO,4.767228,51.829503
Lelystraat,1,,,3364AH,Sliedrecht,Sliedrecht,Zuid-Holland,VBO,4.773167,51.829922
Lelystraat,9,,,3364AH,Sliedrecht,Sliedrecht,Zuid-Holland,VBO,4.772795,51.829914
Lelystraat,17,,,3364AH,Sliedrecht,Sliedrecht,Zuid-Holland,VBO,4.772406,51.829934
Lelystraat,29,,,3364AH,Sliedrecht,Sliedrecht,Zuid-Holland,VBO,4.771659,51.829879
Lelystraat,31,,,3364AH,Sliedrecht,Sliedrecht,Zuid-Holland,VBO,4.771619,51.830161
Lelystraat,49,,,3364AH,Sliedrecht,Sliedrecht,Zuid-Holland,VBO,4.770942,51.830208
Lelystraat,51,,,3364AH,Sliedrecht,Sliedrecht,Zuid-Holland,VBO,4.769773,51.830342
Lelystraat,53,,,3364AH,Sliedrecht,Sliedrecht,Zuid-Holland,VBO,4.769104,51.830478
Lelystraat,55,,,3364AH,Sliedrecht,Sliedrecht,Zuid-Holland,VBO,4.768567,51.830570
Lelystraat,57,a,,3364AH,Sliedrecht,Sliedrecht,Zuid-Holland,VBO,4.768106,51.830490
Lelystraat,57,b,,3364AH,Sliedrecht,Sliedrecht,Zuid-Holland,VBO,4.768106,51.830490
Lelystraat,57,c,,3364AH,Sliedrecht,Sliedrecht,Zuid-Holland,VBO,4.768141,51.830570
Lelystraat,57,d,,3364AH,Sliedrecht,Sliedrecht,Zuid-Holland,VBO,4.768159,51.830614
Lelystraat,57,e,,3364AH,Sliedrecht,Sliedrecht,Zuid-Holland,VBO,4.768178,51.830657
Lelystraat,57,f,,3364AH,Sliedrecht,Sliedrecht,Zuid-Holland,VBO,4.768197,51.830701
Lelystraat,57,g,,3364AH,Sliedrecht,Sliedrecht,Zuid-Holland,VBO,4.768216,51.830744
Lelystraat,57,h,,3364AH,Sliedrecht,Sliedrecht,Zuid-Holland,VBO,4.768235,51.830788
Lelystraat,57,i,,3364AH,Sliedrecht,Sliedrecht,Zuid-Holland,VBO,4.768254,51.830831
Lelystraat,57,j,,3364AH,Sliedrecht,Sliedrecht,Zuid-Holland,VBO,4.768273,51.830875
Lelystraat,57,k,,3364AH,Sliedrecht,Sliedrecht,Zuid-Holland,VBO,4.768291,51.830918
Lelystraat,57,l,,3364AH,Sliedrecht,Sliedrecht,Zuid-Holland,VBO,4.768310,51.830962
Lelystraat,57,m,,3364AH,Sliedrecht,Sliedrecht,Zuid-Holland,VBO,4.768335,51.831019
Lelystraat,59,,,3364AH,Sliedrecht,Sliedrecht,Zuid-Holland,VBO,4.767906,51.830795
Lelystraat,61,,,3364AH,Sliedrecht,Sliedrecht,Zuid-Holland,VBO,4.767478,51.830622
Lelystraat,63,,nut,3364AH,Sliedrecht,Sliedrecht,Zuid-Holland,VBO,4.766611,51.830701
Lelystraat,63,,,3364AH,Sliedrecht,Sliedrecht,Zuid-Holland,VBO,4.767223,51.830649
Lelystraat,67,,,3364AH,Sliedrecht,Sliedrecht,Zuid-Holland,VBO,4.766081,51.831119
Lelystraat,73,,,3364AH,Sliedrecht,Sliedrecht,Zuid-Holland,VBO,4.765758,51.830988
Lelystraat,93,a,,3364AH,Sliedrecht,Sliedrecht,Zuid-Holland,VBO,4.763206,51.831651
Lelystraat,93,b,,3364AH,Sliedrecht,Sliedrecht,Zuid-Holland,VBO,4.763203,51.831651
Lelystraat,93,c,,3364AH,Sliedrecht,Sliedrecht,Zuid-Holland,VBO,4.763206,51.831647
Lelystraat,93,d,,3364AH,Sliedrecht,Sliedrecht,Zuid-Holland,VBO,4.763206,51.831651
Lelystraat,93,e,,3364AH,Sliedrecht,Sliedrecht,Zuid-Holland,VBO,4.763203,51.831649
Lelystraat,93,f,,3364AH,Sliedrecht,Sliedrecht,Zuid-Holland,VBO,4.763203,51.831649
Lelystraat,93,g,,3364AH,Sliedrecht,Sliedrecht,Zuid-Holland,VBO,4.763200,51.831649
Lelystraat,93,h,,3364AH,Sliedrecht,Sliedrecht,Zuid-Holland,VBO,4.763203,51.831651
Lelystraat,93,i,,3364AH,Sliedrecht,Sliedrecht,Zuid-Holland,VBO,4.763203,51.831651
Lelystraat,93,j,,3364AH,Sliedrecht,Sliedrecht,Zuid-Holland,VBO,4.763203,51.831649
Lelystraat,93,k,,3364AH,Sliedrecht,Sliedrecht,Zuid-Holland,VBO,4.763203,51.831649
Lelystraat,93,l,,3364AH,Sliedrecht,Sliedrecht,Zuid-Holland,VBO,4.763200,51.831649
Lelystraat,93,m,,3364AH,Sliedrecht,Sliedrecht,Zuid-Holland,VBO,4.763203,51.831649
Lelystraat,93,n,,3364AH,Sliedrecht,Sliedrecht,Zuid-Holland,VBO,4.763203,51.831649
Lelystraat,93,o,,3364AH,Sliedrecht,Sliedrecht,Zuid-Holland,VBO,4.763203,51.831649
Lelystraat,93,p,,3364AH,Sliedrecht,Sliedrecht,Zuid-Holland,VBO,4.763203,51.831649
Lelystraat,93,,,3364AH,Sliedrecht,Sliedrecht,Zuid-Holland,VBO,4.764062,51.831502
Lelystraat,95,a,,3364AH,Sliedrecht,Sliedrecht,Zuid-Holland,VBO,4.762643,51.831757
Lelystraat,97,,,3364AH,Sliedrecht,Sliedrecht,Zuid-Holland,VBO,4.762166,51.831796
Lelystraat,99,,,3364AH,Sliedrecht,Sliedrecht,Zuid-Holland,VBO,4.761370,51.831784
Lelystraat,101,,,3364AH,Sliedrecht,Sliedrecht,Zuid-Holland,VBO,4.761505,51.832043
Lelystraat,107,,,3364AH,Sliedrecht,Sliedrecht,Zuid-Holland,VBO,4.760669,51.832155
Lelystraat,109,,,3364AH,Sliedrecht,Sliedrecht,Zuid-Holland,VBO,4.760434,51.831882
Lelystraat,111,,,3364AH,Sliedrecht,Sliedrecht,Zuid-Holland,VBO,4.759770,51.832285
Lelystraat,12,,,3364AJ,Sliedrecht,Sliedrecht,Zuid-Holland,VBO,4.772935,51.829366
Lelystraat,14,,,3364AJ,Sliedrecht,Sliedrecht,Zuid-Holland,VBO,4.772762,51.829395
Lelystraat,16,,,3364AJ,Sliedrecht,Sliedrecht,Zuid-Holland,VBO,4.772592,51.829423
Lelystraat,18,,,3364AJ,Sliedrecht,Sliedrecht,Zuid-Holland,VBO,4.772426,51.829450
Lelystraat,24,,,3364AJ,Sliedrecht,Sliedrecht,Zuid-Holland,VBO,4.771697,51.829564
Lelystraat,30,,,3364AJ,Sliedrecht,Sliedrecht,Zuid-Holland,VBO,4.771376,51.829503
Lelystraat,34,,,3364AJ,Sliedrecht,Sliedrecht,Zuid-Holland,VBO,4.771376,51.829503
Lelystraat,36,a,,3364AJ,Sliedrecht,Sliedrecht,Zuid-Holland,VBO,4.771225,51.829638
Lelystraat,36,,,3364AJ,Sliedrecht,Sliedrecht,Zuid-Holland,VBO,4.771225,51.829638
Lelystraat,38,,,3364AJ,Sliedrecht,Sliedrecht,Zuid-Holland,VBO,4.770832,51.829610
Lelystraat,48,,,3364AJ,Sliedrecht,Sliedrecht,Zuid-Holland,VBO,4.769460,51.829911
Lelystraat,50,,,3364AJ,Sliedrecht,Sliedrecht,Zuid-Holland,VBO,4.768748,51.829880
Lelystraat,60,,,3364AJ,Sliedrecht,Sliedrecht,Zuid-Holland,VBO,4.767762,51.830095
Lelystraat,92,,,3364AJ,Sliedrecht,Sliedrecht,Zuid-Holland,VBO,4.766461,51.830372
Lelystraat,94,,,3364AJ,Sliedrecht,Sliedrecht,Zuid-Holland,VBO,4.766191,51.830410
Lelystraat,98,,,3364AJ,Sliedrecht,Sliedrecht,Zuid-Holland,VBO,4.765927,51.830557
Lelystraat,100,,,3364AJ,Sliedrecht,Sliedrecht,Zuid-Holland,VBO,4.765890,51.830431
Lelystraat,106,,,3364AJ,Sliedrecht,Sliedrecht,Zuid-Holland,VBO,4.765506,51.830538
Lelystraat,120,a,,3364AJ,Sliedrecht,Sliedrecht,Zuid-Holland,VBO,4.761813,51.831209
Lelystraat,120,,,3364AJ,Sliedrecht,Sliedrecht,Zuid-Holland,VBO,4.762251,51.831077
Lelystraat,122,a,nut,3364AJ,Sliedrecht,Sliedrecht,Zuid-Holland,VBO,4.761284,51.831396
Lelystraat,122,b,nut,3364AJ,Sliedrecht,Sliedrecht,Zuid-Holland,VBO,4.761238,51.831273
Lelystraat,122,,,3364AJ,Sliedrecht,Sliedrecht,Zuid-Holland,VBO,4.760935,51.831353
Lelystraat,128,,,3364AJ,Sliedrecht,Sliedrecht,Zuid-Holland,VBO,4.759078,51.831595
Parallelweg,3,,,3364AK,Sliedrecht,Sliedrecht,Zuid-Holland,VBO,4.780356,51.829977
Parallelweg,7,,,3364AK,Sliedrecht,Sliedrecht,Zuid-Holland,VBO,4.779445,51.830415
Parallelweg,11,,,3364AK,Sliedrecht,Sliedrecht,Zuid-Holland,VBO,4.777638,51.830392
Parallelweg,15,,nut,3364AK,Sliedrecht,Sliedrecht,Zuid-Holland,VBO,4.772053,51.831290
Parallelweg,15,,,3364AK,Sliedrecht,Sliedrecht,Zuid-Holland,VBO,4.770937,51.831592
Parallelweg,17,a,,3364AK,Sliedrecht,Sliedrecht,Zuid-Holland,VBO,4.768358,51.832153
Parallelweg,17,b,,3364AK,Sliedrecht,Sliedrecht,Zuid-Holland,VBO,4.768478,51.833139
Parallelweg,17,,,3364AK,Sliedrecht,Sliedrecht,Zuid-Holland,VBO,4.771588,51.834190
Parallelweg,19,a,,3364AK,Sliedrecht,Sliedrecht,Zuid-Holland,VBO,4.766704,51.832404
Parallelweg,19,b,,3364AK,Sliedrecht,Sliedrecht,Zuid-Holland,VBO,4.765821,51.832589
Parallelweg,19,c,,3364AK,Sliedrecht,Sliedrecht,Zuid-Holland,VBO,4.765732,51.835335
Parallelweg,19,d,,3364AK,Sliedrecht,Sliedrecht,Zuid-Holland,VBO,4.765142,51.835786
Parallelweg,19,e,,3364AK,Sliedrecht,Sliedrecht,Zuid-Holland,VBO,4.764838,51.835246
Parallelweg,19,,nut,3364AK,Sliedrecht,Sliedrecht,Zuid-Holland,VBO,4.758790,51.834073
Parallelweg,19,,,3364AK,Sliedrecht,Sliedrecht,Zuid-Holland,VBO,4.770575,51.834378
Parallelweg,21,,,3364AK,Sliedrecht,Sliedrecht,Zuid-Holland,VBO,4.759494,51.836771
Parallelweg,23,,,3364AK,Sliedrecht,Sliedrecht,Zuid-Holland,VBO,4.759856,51.836703
Parallelweg,2,,,3364AL,Sliedrecht,Sliedrecht,Zuid-Holland,VBO,4.769770,51.830694
Parallelweg,4,a,,3364AL,Sliedrecht,Sliedrecht,Zuid-Holland,VBO,4.750099,51.832362
Parallelweg,4,b,,3364AL,Sliedrecht,Sliedrecht,Zuid-Holland,VBO,4.750099,51.832362
Parallelweg,4,c,,3364AL,Sliedrecht,Sliedrecht,Zuid-Holland,VBO,4.750099,51.832362
Parallelweg,4,,,3364AL,Sliedrecht,Sliedrecht,Zuid-Holland,VBO,4.750099,51.832362
Parallelweg,8,a,,3364AL,Sliedrecht,Sliedrecht,Zuid-Holland,VBO,4.742543,51.826409
Parallelweg,8,,,3364AL,Sliedrecht,Sliedrecht,Zuid-Holland,VBO,4.742508,51.826260
Parallelweg,10,,,3364AL,Sliedrecht,Sliedrecht,Zuid-Holland,VBO,4.742577,51.825679
Parallelweg,16,,,3364AL,Sliedrecht,Sliedrecht,Zuid-Holland,VBO,4.742473,51.825622
Parallelweg,18,,,3364AL,Sliedrecht,Sliedrecht,Zuid-Holland,VBO,4.742457,51.825224
Parallelweg,20,,,3364AL,Sliedrecht,Sliedrecht,Zuid-Holland,VBO,4.742936,51.825159
Parallelweg,28,,,3364AL,Sliedrecht,Sliedrecht,Zuid-Holland,VBO,4.742481,51.824876
Parallelweg,30,,,3364AL,Sliedrecht,Sliedrecht,Zuid-Holland,VBO,4.742599,51.824802
Parallelweg,32,,,3364AL,Sliedrecht,Sliedrecht,Zuid-Holland,VBO,4.742546,51.824728
Parallelweg,36,,,3364AL,Sliedrecht,Sliedrecht,Zuid-Holland,VBO,4.742826,51.824627
Parallelweg,38,,,3364AL,Sliedrecht,Sliedrecht,Zuid-Holland,VBO,4.742136,51.823907
Stationsplein,4,,nut,3364AM,Sliedrecht,Sliedrecht,Zuid-Holland,VBO,4.774878,51.830056
Stationsplein,8,,,3364AM,Sliedrecht,Sliedrecht,Zuid-Holland,VBO,4.778155,51.829437
Stationsweg,191,,,3364AN,Sliedrecht,Sliedrecht,Zuid-Holland,VBO,4.774884,51.828255
Stationsweg,193,,,3364AN,Sliedrecht,Sliedrecht,Zuid-Holland,VBO,4.774938,51.828315
Stationsweg,195,,,3364AN,Sliedrecht,Sliedrecht,Zuid-Holland,VBO,4.774897,51.828372
Stationsweg,197,,,3364AN,Sliedrecht,Sliedrecht,Zuid-Holland,VBO,4.774915,51.828438
Stationsweg,199,,,3364AN,Sliedrecht,Sliedrecht,Zuid-Holland,VBO,4.775061,51.828500
Stationsweg,201,,,3364AN,Sliedrecht,Sliedrecht,Zuid-Holland,VBO,4.775079,51.828559
Stationsweg,203,,,3364AN,Sliedrecht,Sliedrecht,Zuid-Holland,VBO,4.775081,51.828602
Stationsweg,205,,,3364AN,Sliedrecht,Sliedrecht,Zuid-Holland,VBO,4.775107,51.828664
Stationsweg,207,,,3364AN,Sliedrecht,Sliedrecht,Zuid-Holland,VBO,4.775160,51.828745
Stationsweg,209,,,3364AN,Sliedrecht,Sliedrecht,Zuid-Holland,VBO,4.775167,51.828806
Stationsweg,211,,,3364AN,Sliedrecht,Sliedrecht,Zuid-Holland,VBO,4.775198,51.828848
Stationsweg,213,,,3364AN,Sliedrecht,Sliedrecht,Zuid-Holland,VBO,4.775207,51.828902
Stationsweg,215,,,3364AN,Sliedrecht,Sliedrecht,Zuid-Holland,VBO,4.775230,51.828957
Stationsweg,217,,,3364AN,Sliedrecht,Sliedrecht,Zuid-Holland,VBO,4.775203,51.829043
Stationsweg,219,,,3364AN,Sliedrecht,Sliedrecht,Zuid-Holland,VBO,4.775192,51.829075
Stationsweg,221,,,3364AN,Sliedrecht,Sliedrecht,Zuid-Holland,VBO,4.775242,51.829148
Stationsweg,223,,,3364AN,Sliedrecht,Sliedrecht,Zuid-Holland,VBO,4.775228,51.829180
Stationsweg,225,,,3364AN,Sliedrecht,Sliedrecht,Zuid-Holland,VBO,4.775301,51.829282
Stationsweg,233,,,3364AN,Sliedrecht,Sliedrecht,Zuid-Holland,VBO,4.775471,51.829505
Stationsweg,172,,,3364AP,Sliedrecht,Sliedrecht,Zuid-Holland,VBO,4.774367,51.828338
Stationsweg,174,,,3364AP,Sliedrecht,Sliedrecht,Zuid-Holland,VBO,4.774398,51.828398
Stationsweg,176,,,3364AP,Sliedrecht,Sliedrecht,Zuid-Holland,VBO,4.774451,51.828459
Stationsweg,178,,,3364AP,Sliedrecht,Sliedrecht,Zuid-Holland,VBO,4.774449,51.828505
Stationsweg,182,a,,3364AP,Sliedrecht,Sliedrecht,Zuid-Holland,VBO,4.774421,51.828580
Stationsweg,182,,,3364AP,Sliedrecht,Sliedrecht,Zuid-Holland,VBO,4.774499,51.828621
Stationsweg,184,,,3364AP,Sliedrecht,Sliedrecht,Zuid-Holland,VBO,4.774546,51.828700
Stationsweg,186,,,3364AP,Sliedrecht,Sliedrecht,Zuid-Holland,VBO,4.774532,51.828729
Stationsweg,188,,,3364AP,Sliedrecht,Sliedrecht,Zuid-Holland,VBO,4.774579,51.828787
Stationsweg,190,,,3364AP,Sliedrecht,Sliedrecht,Zuid-Holland,VBO,4.774568,51.828816
Stationsweg,192,,,3364AP,Sliedrecht,Sliedrecht,Zuid-Holland,VBO,4.774575,51.828868
Stationsweg,194,,,3364AP,Sliedrecht,Sliedrecht,Zuid-Holland,VBO,4.774658,51.828959
Stationsweg,196,,,3364AP,Sliedrecht,Sliedrecht,Zuid-Holland,VBO,4.774682,51.829035
Stationsweg,198,,,3364AP,Sliedrecht,Sliedrecht,Zuid-Holland,VBO,4.774681,51.829092
Stationsweg,200,,,3364AP,Sliedrecht,Sliedrecht,Zuid-Holland,VBO,4.774751,51.829176
Stationsweg,204,,,3364AP,Sliedrecht,Sliedrecht,Zuid-Holland,VBO,4.774781,51.829300
Stationsweg,206,,,3364AP,Sliedrecht,Sliedrecht,Zuid-Holland,VBO,4.774816,51.829377
Stieltjesstraat,1,,,3364AR,Sliedrecht,Sliedrecht,Zuid-Holland,VBO,4.760867,51.831068
Stieltjesstraat,2,,,3364AR,Sliedrecht,Sliedrecht,Zuid-Holland,VBO,4.761813,51.831209
Stieltjesstraat,3,,,3364AR,Sliedrecht,Sliedrecht,Zuid-Holland,VBO,4.760839,51.830747
Stieltjesstraat,4,,,3364AR,Sliedrecht,Sliedrecht,Zuid-Holland,VBO,4.761813,51.831209
Stieltjesstraat,5,,,3364AR,Sliedrecht,Sliedrecht,Zuid-Holland,VBO,4.760739,51.830236
Stieltjesstraat,6,,,3364AR,Sliedrecht,Sliedrecht,Zuid-Holland,VBO,4.761813,51.831209
Stieltjesstraat,8,,,3364AR,Sliedrecht,Sliedrecht,Zuid-Holland,VBO,4.761813,51.831209
Vierlinghstraat,1,,,3364AS,Sliedrecht,Sliedrecht,Zuid-Holland,VBO,4.771588,51.829394
Vierlinghstraat,2,,,3364AS,Sliedrecht,Sliedrecht,Zuid-Holland,VBO,4.772293,51.829532
Vierlinghstraat,3,,,3364AS,Sliedrecht,Sliedrecht,Zuid-Holland,VBO,4.771850,51.829359
Vierlinghstraat,4,,,3364AS,Sliedrecht,Sliedrecht,Zuid-Holland,VBO,4.772243,51.829341
Vierlinghstraat,5,,,3364AS,Sliedrecht,Sliedrecht,Zuid-Holland,VBO,4.771296,51.829339
Vierlinghstraat,6,a,,3364AS,Sliedrecht,Sliedrecht,Zuid-Holland,VBO,4.772175,51.829031
Vierlinghstraat,6,,,3364AS,Sliedrecht,Sliedrecht,Zuid-Holland,VBO,4.772175,51.829031
Vierlinghstraat,8,,,3364AS,Sliedrecht,Sliedrecht,Zuid-Holland,VBO,4.772175,51.829031
Vierlinghstraat,15,,,3364AS,Sliedrecht,Sliedrecht,Zuid-Holland,VBO,4.771296,51.829339
Vierlinghstraat,17,,,3364AS,Sliedrecht,Sliedrecht,Zuid-Holland,VBO,4.771296,51.829339
Vierlinghstraat,19,,,3364AS,Sliedrecht,Sliedrecht,Zuid-Holland,VBO,4.771296,51.829339
Vierlinghstraat,21,,,3364AS,Sliedrecht,Sliedrecht,Zuid-Holland,VBO,4.771296,51.829339
Vierlinghstraat,23,,,3364AS,Sliedrecht,Sliedrecht,Zuid-Holland,VBO,4.771296,51.829339
Vierlinghstraat,25,,,3364AS,Sliedrecht,Sliedrecht,Zuid-Holland,VBO,4.771296,51.829339
Vierlinghstraat,27,,,3364AS,Sliedrecht,Sliedrecht,Zuid-Holland,VBO,4.771296,51.829339
Sportlaan,1,a,,3364AT,Sliedrecht,Sliedrecht,Zuid-Holland,VBO,4.783026,51.827911
Sportlaan,1,,nut,3364AT,Sliedrecht,Sliedrecht,Zuid-Holland,VBO,4.784894,51.828039
Sportlaan,1,,,3364AT,Sliedrecht,Sliedrecht,Zuid-Holland,VBO,4.783026,51.827911
Sportlaan,3,,,3364AT,Sliedrecht,Sliedrecht,Zuid-Holland,VBO,4.785188,51.827504
Sportlaan,7,,,3364AT,Sliedrecht,Sliedrecht,Zuid-Holland,VBO,4.789801,51.827831
Sportlaan,9,,,3364AT,Sliedrecht,Sliedrecht,Zuid-Holland,VBO,4.792666,51.828149
Sportlaan,11,,,3364AT,Sliedrecht,Sliedrecht,Zuid-Holland,VBO,4.793125,51.827795
Wijngaardsedijk,1,,,3364AV,Sliedrecht,Sliedrecht,Zuid-Holland,VBO,4.801831,51.845899
Wijngaardsedijk,3,,,3364AV,Sliedrecht,Sliedrecht,Zuid-Holland,VBO,4.774297,51.845328
Zwijnskade,99,,nut,3364AV,Sliedrecht,Sliedrecht,Zuid-Holland,VBO,4.802477,51.846235
Beyerinckstraat,1,,,3364AX,Sliedrecht,Sliedrecht,Zuid-Holland,VBO,4.757979,51.832907
Beyerinckstraat,2,a,,3364AX,Sliedrecht,Sliedrecht,Zuid-Holland,STA,4.758727,51.832442
Beyerinckstraat,2,b,,3364AX,Sliedrecht,Sliedrecht,Zuid-Holland,STA,4.758838,51.832421
Beyerinckstraat,2,c,,3364AX,Sliedrecht,Sliedrecht,Zuid-Holland,STA,4.758950,51.832401
Beyerinckstraat,2,d,,3364AX,Sliedrecht,Sliedrecht,Zuid-Holland,STA,4.759061,51.832380
Beyerinckstraat,2,e,,3364AX,Sliedrecht,Sliedrecht,Zuid-Holland,STA,4.759567,51.832561
Beyerinckstraat,2,f,,3364AX,Sliedrecht,Sliedrecht,Zuid-Holland,STA,4.759456,51.832581
Beyerinckstraat,2,g,,3364AX,Sliedrecht,Sliedrecht,Zuid-Holland,STA,4.759344,51.832601
Beyerinckstraat,2,h,,3364AX,Sliedrecht,Sliedrecht,Zuid-Holland,STA,4.759233,51.832622
Beyerinckstraat,2,k,,3364AX,Sliedrecht,Sliedrecht,Zuid-Holland,STA,4.759038,51.832657
Beyerinckstraat,2,l,,3364AX,Sliedrecht,Sliedrecht,Zuid-Holland,STA,4.758927,51.832677
Beyerinckstraat,2,m,,3364AX,Sliedrecht,Sliedrecht,Zuid-Holland,STA,4.758815,51.832698
Beyerinckstraat,2,n,,3364AX,Sliedrecht,Sliedrecht,Zuid-Holland,STA,4.758704,51.832718
Beyerinckstraat,3,,,3364AX,Sliedrecht,Sliedrecht,Zuid-Holland,VBO,4.757942,51.832853
Beyerinckstraat,10,,,3364AX,Sliedrecht,Sliedrecht,Zuid-Holland,VBO,4.758276,51.831772
Marisstraat,1,,,3364AZ,Sliedrecht,Sliedrecht,Zuid-Holland,VBO,4.755857,51.833012
Marisstraat,2,,,3364AZ,Sliedrecht,Sliedrecht,Zuid-Holland,VBO,4.757073,51.832457
Marisstraat,8,,,3364AZ,Sliedrecht,Sliedrecht,Zuid-Holland,VBO,4.755515,51.831436
Marisstraat,14,,,3364AZ,Sliedrecht,Sliedrecht,Zuid-Holland,VBO,4.755631,51.830759
Marisstraat,21,,,3364AZ,Sliedrecht,Sliedrecht,Zuid-Holland,VBO,4.754625,51.831600
Marisstraat,23,,,3364AZ,Sliedrecht,Sliedrecht,Zuid-Holland,VBO,4.754625,51.831600
Marisstraat,25,,,3364AZ,Sliedrecht,Sliedrecht,Zuid-Holland,VBO,4.754625,51.831600
Marisstraat,27,,,3364AZ,Sliedrecht,Sliedrecht,Zuid-Holland,VBO,4.754625,51.831600
Ringersstraat,1,,,3364BA,Sliedrecht,Sliedrecht,Zuid-Holland,VBO,4.753321,51.832867
Ringersstraat,2,,,3364BA,Sliedrecht,Sliedrecht,Zuid-Holland,VBO,4.754393,51.832527
Ringersstraat,3,,,3364BA,Sliedrecht,Sliedrecht,Zuid-Holland,VBO,4.752846,51.832497
Ringersstraat,7,,nut,3364BA,Sliedrecht,Sliedrecht,Zuid-Holland,VBO,4.752996,51.831979
Ringersstraat,7,,,3364BA,Sliedrecht,Sliedrecht,Zuid-Holland,VBO,4.752585,51.832204
Ringersstraat,12,,nut,3364BA,Sliedrecht,Sliedrecht,Zuid-Holland,VBO,4.754235,51.832070
Ringersstraat,12,,,3364BA,Sliedrecht,Sliedrecht,Zuid-Holland,VBO,4.753680,51.831857
Ringersstraat,16,,,3364BA,Sliedrecht,Sliedrecht,Zuid-Holland,VBO,4.753680,51.831857
Blankenstraat,1,,nut,3364BB,Sliedrecht,Sliedrecht,Zuid-Holland,VBO,4.757203,51.831546
Blankenstraat,2,,,3364BB,Sliedrecht,Sliedrecht,Zuid-Holland,VBO,4.756475,51.831154
Blankenstraat,4,,,3364BB,Sliedrecht,Sliedrecht,Zuid-Holland,VBO,4.755900,51.831279
Kweldamweg,1,a,,3364BC,Sliedrecht,Sliedrecht,Zuid-Holland,VBO,4.785224,51.834177
Kweldamweg,1,b,,3364BC,Sliedrecht,Sliedrecht,Zuid-Holland,VBO,4.788383,51.833815
Kweldamweg,2,a,,3364BC,Sliedrecht,Sliedrecht,Zuid-Holland,VBO,4.786097,51.834467
Kweldamweg,2,,,3364BC,Sliedrecht,Sliedrecht,Zuid-Holland,VBO,4.786019,51.834121
Kweldamweg,4,,,3364BC,Sliedrecht,Sliedrecht,Zuid-Holland,VBO,4.786790,51.834076
Kweldamweg,6,,,3364BC,Sliedrecht,Sliedrecht,Zuid-Holland,VBO,4.788371,51.833837
Kweldamweg,8,,,3364BC,Sliedrecht,Sliedrecht,Zuid-Holland,VBO,4.789451,51.834270
Kweldamweg,10,,,3364BC,Sliedrecht,Sliedrecht,Zuid-Holland,VBO,4.790231,51.833862
Kweldamweg,30,,,3364BC,Sliedrecht,Sliedrecht,Zuid-Holland,VBO,4.800171,51.833943
Kweldamweg,36,,,3364BC,Sliedrecht,Sliedrecht,Zuid-Holland,VBO,4.802487,51.833802
Kweldamweg,49,,,3364BC,Sliedrecht,Sliedrecht,Zuid-Holland,VBO,4.798587,51.832831
Kweldamweg,50,,nut,3364BC,Sliedrecht,Sliedrecht,Zuid-Holland,VBO,4.799215,51.830423
Kweldamweg,51,,,3364BC,Sliedrecht,Sliedrecht,Zuid-Holland,VBO,4.799328,51.830071
Cruquiusstraat,7,,,3364BD,Sliedrecht,Sliedrecht,Zuid-Holland,VBO,4.767228,51.829503
Brouwerstraat,1,,,3364BE,Sliedrecht,Sliedrecht,Zuid-Holland,VBO,4.749746,51.831945
Brouwerstraat,2,,,3364BE,Sliedrecht,Sliedrecht,Zuid-Holland,VBO,4.748646,51.831982
Brouwerstraat,4,,,3364BE,Sliedrecht,Sliedrecht,Zuid-Holland,VBO,4.748646,51.831982
Brouwerstraat,5,,,3364BE,Sliedrecht,Sliedrecht,Zuid-Holland,VBO,4.749746,51.831945
Brouwerstraat,6,,,3364BE,Sliedrecht,Sliedrecht,Zuid-Holland,VBO,4.748646,51.831982
Brouwerstraat,10,,,3364BE,Sliedrecht,Sliedrecht,Zuid-Holland,VBO,4.748646,51.831982
Brouwerstraat,13,,,3364BE,Sliedrecht,Sliedrecht,Zuid-Holland,VBO,4.749746,51.831945
Brouwerstraat,17,,,3364BE,Sliedrecht,Sliedrecht,Zuid-Holland,VBO,4.749746,51.831945
Brouwerstraat,21,,,3364BE,Sliedrecht,Sliedrecht,Zuid-Holland,VBO,4.749746,51.831945
Brouwerstraat,25,,,3364BE,Sliedrecht,Sliedrecht,Zuid-Holland,VBO,4.749746,51.831945
Stationspark,1,,nut,3364DA,Sliedrecht,Sliedrecht,Zuid-Holland,VBO,4.778117,51.828408
Stationspark,100,,,3364DA,Sliedrecht,Sliedrecht,Zuid-Holland,VBO,4.778182,51.828740
Stationspark,125,,,3364DA,Sliedrecht,Sliedrecht,Zuid-Holland,VBO,4.778634,51.828657
Stationspark,200,,,3364DA,Sliedrecht,Sliedrecht,Zuid-Holland,VBO,4.778519,51.828164
Stationspark,300,,,3364DA,Sliedrecht,Sliedrecht,Zuid-Holland,VBO,4.777844,51.828170
Stationspark,310,a,,3364DA,Sliedrecht,Sliedrecht,Zuid-Holland,VBO,4.777844,51.828170
Stationspark,310,,,3364DA,Sliedrecht,Sliedrecht,Zuid-Holland,VBO,4.777844,51.828170
Stationspark,401,,,3364DA,Sliedrecht,Sliedrecht,Zuid-Holland,VBO,4.777258,51.828351
Stationspark,402,,,3364DA,Sliedrecht,Sliedrecht,Zuid-Holland,VBO,4.777258,51.828351
Stationspark,403,,,3364DA,Sliedrecht,Sliedrecht,Zuid-Holland,VBO,4.777258,51.828351
Stationspark,404,,,3364DA,Sliedrecht,Sliedrecht,Zuid-Holland,VBO,4.777258,51.828351
Stationspark,405,,,3364DA,Sliedrecht,Sliedrecht,Zuid-Holland,VBO,4.777258,51.828351
Stationspark,410,,,3364DA,Sliedrecht,Sliedrecht,Zuid-Holland,VBO,4.777258,51.828351
Stationspark,425,,,3364DA,Sliedrecht,Sliedrecht,Zuid-Holland,VBO,4.777258,51.828351
Stationspark,450,,,3364DA,Sliedrecht,Sliedrecht,Zuid-Holland,VBO,4.777258,51.828351
Stationspark,480,,,3364DA,Sliedrecht,Sliedrecht,Zuid-Holland,VBO,4.777258,51.828351
Stationspark,490,,,3364DA,Sliedrecht,Sliedrecht,Zuid-Holland,VBO,4.777258,51.828351
Stationspark,500,a,,3364DA,Sliedrecht,Sliedrecht,Zuid-Holland,VBO,4.776657,51.828337
Stationspark,500,b,,3364DA,Sliedrecht,Sliedrecht,Zuid-Holland,VBO,4.776657,51.828337
Stationspark,500,,,3364DA,Sliedrecht,Sliedrecht,Zuid-Holland,VBO,4.776657,51.828337
Stationspark,550,a,,3364DA,Sliedrecht,Sliedrecht,Zuid-Holland,VBO,4.776756,51.828531
Stationspark,550,,,3364DA,Sliedrecht,Sliedrecht,Zuid-Holland,VBO,4.776756,51.828531
Stationspark,600,,,3364DA,Sliedrecht,Sliedrecht,Zuid-Holland,VBO,4.776055,51.828420
Stationspark,625,,,3364DA,Sliedrecht,Sliedrecht,Zuid-Holland,VBO,4.776055,51.828420
Stationspark,630,,,3364DA,Sliedrecht,Sliedrecht,Zuid-Holland,VBO,4.776156,51.828611
Stationspark,700,,,3364DA,Sliedrecht,Sliedrecht,Zuid-Holland,VBO,4.776179,51.829006
Stationspark,701,,,3364DA,Sliedrecht,Sliedrecht,Zuid-Holland,VBO,4.776179,51.829006
Stationspark,704,,,3364DA,Sliedrecht,Sliedrecht,Zuid-Holland,VBO,4.776179,51.829006
Stationspark,705,,,3364DA,Sliedrecht,Sliedrecht,Zuid-Holland,VBO,4.776179,51.829006
Stationspark,708,,,3364DA,Sliedrecht,Sliedrecht,Zuid-Holland,VBO,4.776179,51.829006
Stationspark,709,,,3364DA,Sliedrecht,Sliedrecht,Zuid-Holland,VBO,4.776179,51.829006
Stationspark,725,,,3364DA,Sliedrecht,Sliedrecht,Zuid-Holland,VBO,4.776292,51.829232
Stationspark,730,,,3364DA,Sliedrecht,Sliedrecht,Zuid-Holland,VBO,4.776292,51.829232
Stationspark,750,,,3364DA,Sliedrecht,Sliedrecht,Zuid-Holland,VBO,4.776617,51.829169
Stationspark,775,,,3364DA,Sliedrecht,Sliedrecht,Zuid-Holland,VBO,4.776506,51.828947
Stationspark,800,,,3364DA,Sliedrecht,Sliedrecht,Zuid-Holland,VBO,4.776981,51.828871
Stationspark,825,,,3364DA,Sliedrecht,Sliedrecht,Zuid-Holland,VBO,4.777072,51.829054
Stationspark,827,,,3364DA,Sliedrecht,Sliedrecht,Zuid-Holland,VBO,4.777059,51.829061
Stationspark,830,,,3364DA,Sliedrecht,Sliedrecht,Zuid-Holland,VBO,4.777072,51.829054
Stationspark,831,,,3364DA,Sliedrecht,Sliedrecht,Zuid-Holland,VBO,4.777072,51.829054
Stationspark,832,,,3364DA,Sliedrecht,Sliedrecht,Zuid-Holland,VBO,4.777072,51.829054
Stationspark,833,,,3364DA,Sliedrecht,Sliedrecht,Zuid-Holland,VBO,4.777072,51.829054
Stationspark,834,,,3364DA,Sliedrecht,Sliedrecht,Zuid-Holland,VBO,4.777072,51.829054
Stationspark,850,,,3364DA,Sliedrecht,Sliedrecht,Zuid-Holland,VBO,4.777544,51.828877
Stationspark,1000,,,3364DA,Sliedrecht,Sliedrecht,Zuid-Holland,VBO,4.779489,51.827935
Kubus,1,,,3364DG,Sliedrecht,Sliedrecht,Zuid-Holland,VBO,4.794825,51.827744
Kubus,3,,,3364DG,Sliedrecht,Sliedrecht,Zuid-Holland,VBO,4.794825,51.827744
Kubus,5,,,3364DG,Sliedrecht,Sliedrecht,Zuid-Holland,VBO,4.794825,51.827744
Kubus,6,,,3364DG,Sliedrecht,Sliedrecht,Zuid-Holland,VBO,4.795688,51.826764
Kubus,7,,,3364DG,Sliedrecht,Sliedrecht,Zuid-Holland,VBO,4.794825,51.827744
Kubus,9,,,3364DG,Sliedrecht,Sliedrecht,Zuid-Holland,VBO,4.794825,51.827744
Kubus,10,,,3364DG,Sliedrecht,Sliedrecht,Zuid-Holland,VBO,4.795688,51.826764
Kubus,11,,,3364DG,Sliedrecht,Sliedrecht,Zuid-Holland,VBO,4.794825,51.827744
Kubus,13,,,3364DG,Sliedrecht,Sliedrecht,Zuid-Holland,VBO,4.794825,51.827744
Kubus,14,,,3364DG,Sliedrecht,Sliedrecht,Zuid-Holland,VBO,4.795688,51.826764
Kubus,20,,,3364DG,Sliedrecht,Sliedrecht,Zuid-Holland,VBO,4.795624,51.826174
Kubus,21,,,3364DG,Sliedrecht,Sliedrecht,Zuid-Holland,VBO,4.794825,51.827744
Kubus,31,,,3364DG,Sliedrecht,Sliedrecht,Zuid-Holland,VBO,4.794825,51.827744
Kubus,41,,,3364DG,Sliedrecht,Sliedrecht,Zuid-Holland,VBO,4.794825,51.827744
Kubus,50,,,3364DG,Sliedrecht,Sliedrecht,Zuid-Holland,VBO,4.796166,51.826022
Kubus,51,,nut,3364DG,Sliedrecht,Sliedrecht,Zuid-Holland,VBO,4.795347,51.826378
Kubus,51,,,3364DG,Sliedrecht,Sliedrecht,Zuid-Holland,VBO,4.794626,51.827146
Kubus,57,,,3364DG,Sliedrecht,Sliedrecht,Zuid-Holland,VBO,4.794626,51.827146
Kubus,60,,,3364DG,Sliedrecht,Sliedrecht,Zuid-Holland,VBO,4.796166,51.826022
Kubus,65,,,3364DG,Sliedrecht,Sliedrecht,Zuid-Holland,VBO,4.794626,51.827146
Kubus,67,,,3364DG,Sliedrecht,Sliedrecht,Zuid-Holland,VBO,4.794626,51.827146
Kubus,70,,,3364DG,Sliedrecht,Sliedrecht,Zuid-Holland,VBO,4.796166,51.826022
Kubus,75,,,3364DG,Sliedrecht,Sliedrecht,Zuid-Holland,VBO,4.794626,51.827146
Kubus,83,,,3364DG,Sliedrecht,Sliedrecht,Zuid-Holland,VBO,4.794626,51.827146
Kubus,91,,,3364DG,Sliedrecht,Sliedrecht,Zuid-Holland,VBO,4.794626,51.827146
Kubus,99,,,3364DG,Sliedrecht,Sliedrecht,Zuid-Holland,VBO,4.794626,51.827146
Kubus,100,,,3364DG,Sliedrecht,Sliedrecht,Zuid-Holland,VBO,4.796769,51.826050
Kubus,101,,,3364DG,Sliedrecht,Sliedrecht,Zuid-Holland,VBO,4.794720,51.826746
Kubus,120,,,3364DG,Sliedrecht,Sliedrecht,Zuid-Holland,VBO,4.796769,51.826050
Kubus,121,,,3364DG,Sliedrecht,Sliedrecht,Zuid-Holland,VBO,4.794720,51.826746
Kubus,130,,,3364DG,Sliedrecht,Sliedrecht,Zuid-Holland,VBO,4.796769,51.826050
Kubus,141,,,3364DG,Sliedrecht,Sliedrecht,Zuid-Holland,VBO,4.794720,51.826746
Kubus,151,,,3364DG,Sliedrecht,Sliedrecht,Zuid-Holland,VBO,4.794728,51.826284
Kubus,152,,,3364DG,Sliedrecht,Sliedrecht,Zuid-Holland,VBO,4.797287,51.826139
Kubus,155,,,3364DG,Sliedrecht,Sliedrecht,Zuid-Holland,VBO,4.794728,51.826284
Kubus,160,,,3364DG,Sliedrecht,Sliedrecht,Zuid-Holland,VBO,4.797287,51.826139
Kubus,172,,,3364DG,Sliedrecht,Sliedrecht,Zuid-Holland,VBO,4.797287,51.826139
Kubus,180,,,3364DG,Sliedrecht,Sliedrecht,Zuid-Holland,VBO,4.797287,51.826139
Kubus,181,,,3364DG,Sliedrecht,Sliedrecht,Zuid-Holland,VBO,4.794728,51.826284
Kubus,190,,,3364DG,Sliedrecht,Sliedrecht,Zuid-Holland,VBO,4.797287,51.826139
Kubus,200,,,3364DG,Sliedrecht,Sliedrecht,Zuid-Holland,VBO,4.797974,51.826050
Parabool,1,,,3364DH,Sliedrecht,Sliedrecht,Zuid-Holland,VBO,4.797911,51.827553
Parabool,2,,,3364DH,Sliedrecht,Sliedrecht,Zuid-Holland,VBO,4.795601,51.828369
Parabool,11,,,3364DH,Sliedrecht,Sliedrecht,Zuid-Holland,VBO,4.797946,51.827815
Parabool,28,,,3364DH,Sliedrecht,Sliedrecht,Zuid-Holland,VBO,4.795642,51.828081
Parabool,50,,,3364DH,Sliedrecht,Sliedrecht,Zuid-Holland,VBO,4.796309,51.828001
Parabool,51,,,3364DH,Sliedrecht,Sliedrecht,Zuid-Holland,VBO,4.798114,51.828301
Parabool,61,,,3364DH,Sliedrecht,Sliedrecht,Zuid-Holland,VBO,4.798114,51.828301
Parabool,100,,,3364DH,Sliedrecht,Sliedrecht,Zuid-Holland,VBO,4.796165,51.827670
Parabool,101,,,3364DH,Sliedrecht,Sliedrecht,Zuid-Holland,VBO,4.798114,51.828301
Parabool,102,,,3364DH,Sliedrecht,Sliedrecht,Zuid-Holland,VBO,4.796165,51.827670
Parabool,104,,,3364DH,Sliedrecht,Sliedrecht,Zuid-Holland,VBO,4.796165,51.827670
Parabool,111,,,3364DH,Sliedrecht,Sliedrecht,Zuid-Holland,VBO,4.798114,51.828301
Parabool,112,,,3364DH,Sliedrecht,Sliedrecht,Zuid-Holland,VBO,4.796165,51.827670
Parabool,116,,,3364DH,Sliedrecht,Sliedrecht,Zuid-Holland,VBO,4.796165,51.827670
Parabool,120,,,3364DH,Sliedrecht,Sliedrecht,Zuid-Holland,VBO,4.796165,51.827670
Parabool,124,,,3364DH,Sliedrecht,Sliedrecht,Zuid-Holland,VBO,4.796165,51.827670
Parabool,128,,,3364DH,Sliedrecht,Sliedrecht,Zuid-Holland,VBO,4.796165,51.827670
Parabool,132,,,3364DH,Sliedrecht,Sliedrecht,Zuid-Holland,VBO,4.796165,51.827670
Parabool,150,,,3364DH,Sliedrecht,Sliedrecht,Zuid-Holland,VBO,4.796875,51.827755
Parabool,160,,,3364DH,Sliedrecht,Sliedrecht,Zuid-Holland,VBO,4.796875,51.827755
Parabool,198,,,3364DH,Sliedrecht,Sliedrecht,Zuid-Holland,VBO,4.796783,51.828062
Parabool,200,,,3364DH,Sliedrecht,Sliedrecht,Zuid-Holland,VBO,4.797036,51.828315
Parabool,202,,,3364DH,Sliedrecht,Sliedrecht,Zuid-Holland,VBO,4.796799,51.828304
Parabool,204,,,3364DH,Sliedrecht,Sliedrecht,Zuid-Holland,VBO,4.796244,51.828398
Prisma,1,,,3364DJ,Sliedrecht,Sliedrecht,Zuid-Holland,VBO,4.800162,51.827280
Prisma,2,,,3364DJ,Sliedrecht,Sliedrecht,Zuid-Holland,VBO,4.799106,51.827580
Prisma,12,,,3364DJ,Sliedrecht,Sliedrecht,Zuid-Holland,VBO,4.799106,51.827580
Prisma,15,,,3364DJ,Sliedrecht,Sliedrecht,Zuid-Holland,VBO,4.800120,51.827638
Prisma,17,,,3364DJ,Sliedrecht,Sliedrecht,Zuid-Holland,VBO,4.800120,51.827638
Prisma,19,,,3364DJ,Sliedrecht,Sliedrecht,Zuid-Holland,VBO,4.800110,51.827615
Prisma,21,,,3364DJ,Sliedrecht,Sliedrecht,Zuid-Holland,VBO,4.800162,51.827280
Prisma,22,,,3364DJ,Sliedrecht,Sliedrecht,Zuid-Holland,VBO,4.799106,51.827580
Prisma,23,,,3364DJ,Sliedrecht,Sliedrecht,Zuid-Holland,VBO,4.800548,51.827609
Prisma,32,,,3364DJ,Sliedrecht,Sliedrecht,Zuid-Holland,VBO,4.799106,51.827580
Prisma,50,,,3364DJ,Sliedrecht,Sliedrecht,Zuid-Holland,VBO,4.799834,51.828364
Prisma,51,,,3364DJ,Sliedrecht,Sliedrecht,Zuid-Holland,VBO,4.800835,51.827320
Prisma,57,,,3364DJ,Sliedrecht,Sliedrecht,Zuid-Holland,VBO,4.800835,51.827320
Prisma,59,,,3364DJ,Sliedrecht,Sliedrecht,Zuid-Holland,VBO,4.800835,51.827320
Prisma,61,,,3364DJ,Sliedrecht,Sliedrecht,Zuid-Holland,VBO,4.800835,51.827320
Prisma,63,,,3364DJ,Sliedrecht,Sliedrecht,Zuid-Holland,VBO,4.800835,51.827320
Prisma,65,,,3364DJ,Sliedrecht,Sliedrecht,Zuid-Holland,VBO,4.800835,51.827320
Prisma,67,,,3364DJ,Sliedrecht,Sliedrecht,Zuid-Holland,VBO,4.800835,51.827320
Prisma,73,,,3364DJ,Sliedrecht,Sliedrecht,Zuid-Holland,VBO,4.801378,51.827255
Prisma,75,,,3364DJ,Sliedrecht,Sliedrecht,Zuid-Holland,VBO,4.801378,51.827255
Prisma,77,,,3364DJ,Sliedrecht,Sliedrecht,Zuid-Holland,VBO,4.801378,51.827255
Prisma,79,,,3364DJ,Sliedrecht,Sliedrecht,Zuid-Holland,VBO,4.801378,51.827255
Prisma,81,,,3364DJ,Sliedrecht,Sliedrecht,Zuid-Holland,VBO,4.801378,51.827255
Prisma,83,,,3364DJ,Sliedrecht,Sliedrecht,Zuid-Holland,VBO,4.801378,51.827255
Prisma,85,,,3364DJ,Sliedrecht,Sliedrecht,Zuid-Holland,VBO,4.801378,51.827255
Prisma,87,,,3364DJ,Sliedrecht,Sliedrecht,Zuid-Holland,VBO,4.801378,51.827255
Prisma,89,,,3364DJ,Sliedrecht,Sliedrecht,Zuid-Holland,VBO,4.801378,51.827255
Prisma,91,,,3364DJ,Sliedrecht,Sliedrecht,Zuid-Holland,VBO,4.801378,51.827255
Prisma,93,,,3364DJ,Sliedrecht,Sliedrecht,Zuid-Holland,VBO,4.801378,51.827255
Prisma,95,,,3364DJ,Sliedrecht,Sliedrecht,Zuid-Holland,VBO,4.801378,51.827255
Prisma,97,,,3364DJ,Sliedrecht,Sliedrecht,Zuid-Holland,VBO,4.801378,51.827255
Prisma,99,,,3364DJ,Sliedrecht,Sliedrecht,Zuid-Holland,VBO,4.801378,51.827255
Prisma,100,,,3364DJ,Sliedrecht,Sliedrecht,Zuid-Holland,VBO,4.800611,51.828328
Prisma,101,,,3364DJ,Sliedrecht,Sliedrecht,Zuid-Holland,VBO,4.802640,51.826853
Prisma,200,,nut,3364DJ,Sliedrecht,Sliedrecht,Zuid-Holland,VBO,4.800998,51.827927
Prisma,200,,,3364DJ,Sliedrecht,Sliedrecht,Zuid-Holland,VBO,4.802113,51.828257
Sportlaan,53,,,3364DK,Sliedrecht,Sliedrecht,Zuid-Holland,VBO,4.795688,51.826764
Sportlaan,101,,,3364DK,Sliedrecht,Sliedrecht,Zuid-Holland,VBO,4.796196,51.826852
Sportlaan,125,,,3364DK,Sliedrecht,Sliedrecht,Zuid-Holland,VBO,4.796196,51.826852
Sportlaan,151,,,3364DK,Sliedrecht,Sliedrecht,Zuid-Holland,VBO,4.796763,51.826685
Sportlaan,201,,nut,3364DK,Sliedrecht,Sliedrecht,Zuid-Holland,VBO,4.797110,51.827047
Sportlaan,201,,,3364DK,Sliedrecht,Sliedrecht,Zuid-Holland,VBO,4.797287,51.826782
Sportlaan,251,,,3364DK,Sliedrecht,Sliedrecht,Zuid-Holland,VBO,4.797892,51.826736
Sportlaan,253,,,3364DK,Sliedrecht,Sliedrecht,Zuid-Holland,VBO,4.797892,51.826736
Sportlaan,255,,,3364DK,Sliedrecht,Sliedrecht,Zuid-Holland,VBO,4.797892,51.826736
Sportlaan,257,,,3364DK,Sliedrecht,Sliedrecht,Zuid-Holland,VBO,4.797892,51.826736
Sportlaan,259,,,3364DK,Sliedrecht,Sliedrecht,Zuid-Holland,VBO,4.797892,51.826736
Sportlaan,261,,,3364DK,Sliedrecht,Sliedrecht,Zuid-Holland,VBO,4.797892,51.826736
Sportlaan,265,,,3364DK,Sliedrecht,Sliedrecht,Zuid-Holland,VBO,4.797892,51.826736
Sportlaan,271,,,3364DK,Sliedrecht,Sliedrecht,Zuid-Holland,VBO,4.797892,51.826736
Sportlaan,275,,,3364DK,Sliedrecht,Sliedrecht,Zuid-Holland,VBO,4.797892,51.826736
Sportlaan,281,,,3364DK,Sliedrecht,Sliedrecht,Zuid-Holland,VBO,4.797892,51.826736
Sportlaan,301,,,3364DK,Sliedrecht,Sliedrecht,Zuid-Holland,VBO,4.799549,51.826563
Sportlaan,351,,nut,3364DK,Sliedrecht,Sliedrecht,Zuid-Holland,VBO,4.801173,51.826506
Sportlaan,351,,,3364DK,Sliedrecht,Sliedrecht,Zuid-Holland,VBO,4.800705,51.826283
Sportlaan,361,,,3364DK,Sliedrecht,Sliedrecht,Zuid-Holland,VBO,4.800705,51.826283
Sportlaan,375,,,3364DK,Sliedrecht,Sliedrecht,Zuid-Holland,VBO,4.800705,51.826283
Sportlaan,381,,,3364DK,Sliedrecht,Sliedrecht,Zuid-Holland,VBO,4.800367,51.825854
Sportlaan,391,,,3364DK,Sliedrecht,Sliedrecht,Zuid-Holland,VBO,4.800367,51.825854
Sportlaan,401,,,3364DK,Sliedrecht,Sliedrecht,Zuid-Holland,VBO,4.801841,51.825921
Sportlaan,451,,,3364DK,Sliedrecht,Sliedrecht,Zuid-Holland,VBO,4.802796,51.825826
Trapezium,50,,,3364DL,Sliedrecht,Sliedrecht,Zuid-Holland,VBO,4.799572,51.826138
Trapezium,60,,,3364DL,Sliedrecht,Sliedrecht,Zuid-Holland,VBO,4.799572,51.826138
Trapezium,100,,nut,3364DL,Sliedrecht,Sliedrecht,Zuid-Holland,VBO,4.798897,51.826040
Trapezium,120,,,3364DL,Sliedrecht,Sliedrecht,Zuid-Holland,VBO,4.799235,51.825248
Trapezium,150,,,3364DL,Sliedrecht,Sliedrecht,Zuid-Holland,VBO,4.799837,51.825014
Trapezium,170,,,3364DL,Sliedrecht,Sliedrecht,Zuid-Holland,VBO,4.799863,51.825343
Trapezium,200,,,3364DL,Sliedrecht,Sliedrecht,Zuid-Holland,VBO,4.800834,51.825452
Trapezium,204,,,3364DL,Sliedrecht,Sliedrecht,Zuid-Holland,VBO,4.800834,51.825452
Trapezium,210,,,3364DL,Sliedrecht,Sliedrecht,Zuid-Holland,VBO,4.800621,51.824885
Trapezium,214,,,3364DL,Sliedrecht,Sliedrecht,Zuid-Holland,VBO,4.800621,51.824885
Trapezium,220,,,3364DL,Sliedrecht,Sliedrecht,Zuid-Holland,VBO,4.800621,51.824885
Trapezium,224,,,3364DL,Sliedrecht,Sliedrecht,Zuid-Holland,VBO,4.800968,51.824786
Trapezium,230,,,3364DL,Sliedrecht,Sliedrecht,Zuid-Holland,VBO,4.800968,51.824786
Trapezium,234,,,3364DL,Sliedrecht,Sliedrecht,Zuid-Holland,VBO,4.800968,51.824786
Trapezium,240,,,3364DL,Sliedrecht,Sliedrecht,Zuid-Holland,VBO,4.800834,51.825452
Trapezium,244,,,3364DL,Sliedrecht,Sliedrecht,Zuid-Holland,VBO,4.800834,51.825452
Trapezium,250,,,3364DL,Sliedrecht,Sliedrecht,Zuid-Holland,VBO,4.801638,51.824811
Trapezium,300,,nut,3364DL,Sliedrecht,Sliedrecht,Zuid-Holland,VBO,4.803231,51.824601
Trapezium,300,,,3364DL,Sliedrecht,Sliedrecht,Zuid-Holland,VBO,4.802610,51.824403
Trapezium,302,,,3364DL,Sliedrecht,Sliedrecht,Zuid-Holland,VBO,4.802610,51.824403
Trapezium,304,,,3364DL,Sliedrecht,Sliedrecht,Zuid-Holland,VBO,4.802610,51.824403
Trapezium,308,,,3364DL,Sliedrecht,Sliedrecht,Zuid-Holland,VBO,4.802610,51.824403
Trapezium,310,,,3364DL,Sliedrecht,Sliedrecht,Zuid-Holland,VBO,4.802610,51.824403
Trapezium,320,,,3364DL,Sliedrecht,Sliedrecht,Zuid-Holland,VBO,4.802610,51.824403
Trapezium,322,,,3364DL,Sliedrecht,Sliedrecht,Zuid-Holland,VBO,4.802610,51.824403
Trapezium,330,,,3364DL,Sliedrecht,Sliedrecht,Zuid-Holland,VBO,4.802610,51.824403
Trapezium,332,,,3364DL,Sliedrecht,Sliedrecht,Zuid-Holland,VBO,4.802610,51.824403
Trapezium,340,,,3364DL,Sliedrecht,Sliedrecht,Zuid-Holland,VBO,4.802610,51.824403
Trapezium,350,,,3364DL,Sliedrecht,Sliedrecht,Zuid-Holland,VBO,4.802503,51.825010
Trapezium,400,,,3364DL,Sliedrecht,Sliedrecht,Zuid-Holland,VBO,4.802764,51.825406
