openbareruimtenaam,huisnummer,huisletter,huisnummertoevoeging,postcode,woonplaatsnaam,gemeentenaam,provincienaam,typeadresseerbaarobject,longitude,latitude
4e Garnizoensdok,8,,,3439JD,Nieuwegein,Nieuwegein,Utrecht,VBO,5.117666,52.024026
5e Garnizoensdok,7,,,3439JE,Nieuwegein,Nieuwegein,Utrecht,VBO,5.117913,52.024571
Mobilisatiedok,4,,,3439JG,Nieuwegein,Nieuwegein,Utrecht,VBO,5.118515,52.021632
Mobilisatiedok,10,,,3439JG,Nieuwegein,Nieuwegein,Utrecht,VBO,5.119073,52.023261
Ravelijndok,2,,,3439JH,Nieuwegein,Nieuwegein,Utrecht,VBO,5.120920,52.023907
Inundatiedok,18,,,3439JJ,Nieuwegein,Nieuwegein,Utrecht,VBO,5.118976,52.020128
Inundatiedok,34,,,3439JJ,Nieuwegein,Nieuwegein,Utrecht,VBO,5.122703,52.022206
Inundatiedok,35,,,3439JJ,Nieuwegein,Nieuwegein,Utrecht,VBO,5.122235,52.023932
Inundatiedok,37,,,3439JJ,Nieuwegein,Nieuwegein,Utrecht,VBO,5.122307,52.024626
Inundatiedok,38,,,3439JJ,Nieuwegein,Nieuwegein,Utrecht,VBO,5.123219,52.024071
Divisiedok,2,,,3439JM,Nieuwegein,Nieuwegein,Utrecht,VBO,5.121274,52.019267
Zuidersluis,1,A,,3439LA,Nieuwegein,Nieuwegein,Utrecht,VBO,5.101762,52.044809
Zuidersluis,1,,,3439LA,Nieuwegein,Nieuwegein,Utrecht,VBO,5.102625,52.045620
Zuidersluis,2,,,3439LA,Nieuwegein,Nieuwegein,Utrecht,VBO,5.102860,52.045857
Zuidersluis,3,,,3439LA,Nieuwegein,Nieuwegein,Utrecht,VBO,5.102904,52.045903
Zuidersluis,4,,,3439LA,Nieuwegein,Nieuwegein,Utrecht,VBO,5.103186,52.046213
Zuidersluis,5,,,3439LA,Nieuwegein,Nieuwegein,Utrecht,VBO,5.103235,52.046274
Zuidersluis,6,,,3439LA,Nieuwegein,Nieuwegein,Utrecht,VBO,5.103293,52.046348
Zuidersluis,7,,,3439LA,Nieuwegein,Nieuwegein,Utrecht,VBO,5.103348,52.045695
De Liesbosch,1,,,3439LB,Nieuwegein,Nieuwegein,Utrecht,VBO,5.110016,52.051431
De Liesbosch,4,A,,3439LB,Nieuwegein,Nieuwegein,Utrecht,VBO,5.110663,52.051033
De Liesbosch,4,B,,3439LB,Nieuwegein,Nieuwegein,Utrecht,VBO,5.110935,52.050990
De Liesbosch,4,C,,3439LB,Nieuwegein,Nieuwegein,Utrecht,VBO,5.111096,52.050961
De Liesbosch,4,D,,3439LB,Nieuwegein,Nieuwegein,Utrecht,VBO,5.111205,52.050943
De Liesbosch,4,E,,3439LB,Nieuwegein,Nieuwegein,Utrecht,VBO,5.111310,52.050925
De Liesbosch,4,F,,3439LB,Nieuwegein,Nieuwegein,Utrecht,VBO,5.111412,52.050907
De Liesbosch,33,,,3439LB,Nieuwegein,Nieuwegein,Utrecht,VBO,5.110854,52.053345
De Liesbosch,35,A,,3439LB,Nieuwegein,Nieuwegein,Utrecht,VBO,5.110494,52.053808
De Liesbosch,39,,,3439LB,Nieuwegein,Nieuwegein,Utrecht,VBO,5.109679,52.054612
De Liesbosch,8,A,,3439LC,Nieuwegein,Nieuwegein,Utrecht,VBO,5.111780,52.050823
De Liesbosch,8,B,,3439LC,Nieuwegein,Nieuwegein,Utrecht,VBO,5.111813,52.050891
De Liesbosch,8,C,,3439LC,Nieuwegein,Nieuwegein,Utrecht,VBO,5.111837,52.050945
De Liesbosch,8,D,,3439LC,Nieuwegein,Nieuwegein,Utrecht,VBO,5.111857,52.051000
De Liesbosch,8,E,,3439LC,Nieuwegein,Nieuwegein,Utrecht,VBO,5.111883,52.051054
De Liesbosch,8,F,,3439LC,Nieuwegein,Nieuwegein,Utrecht,VBO,5.111907,52.051108
De Liesbosch,8,G,,3439LC,Nieuwegein,Nieuwegein,Utrecht,VBO,5.111932,52.051161
De Liesbosch,8,H,,3439LC,Nieuwegein,Nieuwegein,Utrecht,VBO,5.111958,52.051216
De Liesbosch,8,J,,3439LC,Nieuwegein,Nieuwegein,Utrecht,VBO,5.111980,52.051272
De Liesbosch,12,A,,3439LC,Nieuwegein,Nieuwegein,Utrecht,VBO,5.110774,52.051404
De Liesbosch,12,B,,3439LC,Nieuwegein,Nieuwegein,Utrecht,VBO,5.110744,52.051341
De Liesbosch,12,C,,3439LC,Nieuwegein,Nieuwegein,Utrecht,VBO,5.110716,52.051279
De Liesbosch,12,D,,3439LC,Nieuwegein,Nieuwegein,Utrecht,VBO,5.110691,52.051220
De Liesbosch,12,E,,3439LC,Nieuwegein,Nieuwegein,Utrecht,VBO,5.110813,52.051248
De Liesbosch,12,F,,3439LC,Nieuwegein,Nieuwegein,Utrecht,VBO,5.110903,52.051235
De Liesbosch,12,G,,3439LC,Nieuwegein,Nieuwegein,Utrecht,VBO,5.110995,52.051218
De Liesbosch,12,H,,3439LC,Nieuwegein,Nieuwegein,Utrecht,VBO,5.111079,52.051205
De Liesbosch,12,J,,3439LC,Nieuwegein,Nieuwegein,Utrecht,VBO,5.111165,52.051190
De Liesbosch,12,K,,3439LC,Nieuwegein,Nieuwegein,Utrecht,VBO,5.111245,52.051178
De Liesbosch,12,L,,3439LC,Nieuwegein,Nieuwegein,Utrecht,VBO,5.111331,52.051164
De Liesbosch,12,M,,3439LC,Nieuwegein,Nieuwegein,Utrecht,VBO,5.111415,52.051150
De Liesbosch,12,N,,3439LC,Nieuwegein,Nieuwegein,Utrecht,VBO,5.111501,52.051136
De Liesbosch,12,P,,3439LC,Nieuwegein,Nieuwegein,Utrecht,VBO,5.111581,52.051119
De Liesbosch,12,Q,,3439LC,Nieuwegein,Nieuwegein,Utrecht,VBO,5.111627,52.051258
De Liesbosch,12,R,,3439LC,Nieuwegein,Nieuwegein,Utrecht,VBO,5.111552,52.051273
De Liesbosch,12,S,,3439LC,Nieuwegein,Nieuwegein,Utrecht,VBO,5.111475,52.051286
De Liesbosch,12,T,,3439LC,Nieuwegein,Nieuwegein,Utrecht,VBO,5.111395,52.051301
De Liesbosch,12,U,,3439LC,Nieuwegein,Nieuwegein,Utrecht,VBO,5.111311,52.051315
De Liesbosch,12,V,,3439LC,Nieuwegein,Nieuwegein,Utrecht,VBO,5.111227,52.051328
De Liesbosch,12,W,,3439LC,Nieuwegein,Nieuwegein,Utrecht,VBO,5.111140,52.051341
De Liesbosch,12,X,,3439LC,Nieuwegein,Nieuwegein,Utrecht,VBO,5.111051,52.051356
De Liesbosch,12,Y,,3439LC,Nieuwegein,Nieuwegein,Utrecht,VBO,5.110966,52.051369
De Liesbosch,12,Z,,3439LC,Nieuwegein,Nieuwegein,Utrecht,VBO,5.110868,52.051384
De Liesbosch,14,A,,3439LC,Nieuwegein,Nieuwegein,Utrecht,VBO,5.110879,52.051629
De Liesbosch,14,B,,3439LC,Nieuwegein,Nieuwegein,Utrecht,VBO,5.110905,52.051694
De Liesbosch,14,C,,3439LC,Nieuwegein,Nieuwegein,Utrecht,VBO,5.110933,52.051759
De Liesbosch,14,D,,3439LC,Nieuwegein,Nieuwegein,Utrecht,VBO,5.110959,52.051829
De Liesbosch,14,E,,3439LC,Nieuwegein,Nieuwegein,Utrecht,VBO,5.111067,52.051801
De Liesbosch,14,F,,3439LC,Nieuwegein,Nieuwegein,Utrecht,VBO,5.111150,52.051788
De Liesbosch,14,G,,3439LC,Nieuwegein,Nieuwegein,Utrecht,VBO,5.110993,52.051633
De Liesbosch,14,H,,3439LC,Nieuwegein,Nieuwegein,Utrecht,VBO,5.111074,52.051621
De Liesbosch,16,,,3439LC,Nieuwegein,Nieuwegein,Utrecht,VBO,5.111167,52.051606
De Liesbosch,18,A,,3439LC,Nieuwegein,Nieuwegein,Utrecht,VBO,5.111268,52.051630
De Liesbosch,18,,,3439LC,Nieuwegein,Nieuwegein,Utrecht,VBO,5.111255,52.051591
De Liesbosch,20,,,3439LC,Nieuwegein,Nieuwegein,Utrecht,VBO,5.111332,52.051579
De Liesbosch,22,,,3439LC,Nieuwegein,Nieuwegein,Utrecht,VBO,5.111419,52.051564
De Liesbosch,24,,,3439LC,Nieuwegein,Nieuwegein,Utrecht,VBO,5.111500,52.051548
De Liesbosch,26,,,3439LC,Nieuwegein,Nieuwegein,Utrecht,VBO,5.111580,52.051536
De Liesbosch,28,,,3439LC,Nieuwegein,Nieuwegein,Utrecht,VBO,5.111664,52.051522
De Liesbosch,30,,,3439LC,Nieuwegein,Nieuwegein,Utrecht,VBO,5.111751,52.051507
De Liesbosch,32,,,3439LC,Nieuwegein,Nieuwegein,Utrecht,VBO,5.111827,52.051671
De Liesbosch,34,,,3439LC,Nieuwegein,Nieuwegein,Utrecht,VBO,5.111739,52.051686
De Liesbosch,36,,,3439LC,Nieuwegein,Nieuwegein,Utrecht,VBO,5.111661,52.051699
De Liesbosch,38,,,3439LC,Nieuwegein,Nieuwegein,Utrecht,VBO,5.111573,52.051714
De Liesbosch,40,A,,3439LC,Nieuwegein,Nieuwegein,Utrecht,VBO,5.111461,52.051701
De Liesbosch,40,,,3439LC,Nieuwegein,Nieuwegein,Utrecht,VBO,5.111482,52.051732
De Liesbosch,42,,,3439LC,Nieuwegein,Nieuwegein,Utrecht,VBO,5.111400,52.051745
De Liesbosch,44,,,3439LC,Nieuwegein,Nieuwegein,Utrecht,VBO,5.111321,52.051757
De Liesbosch,46,,,3439LC,Nieuwegein,Nieuwegein,Utrecht,VBO,5.111235,52.051773
De Liesbosch,48,,,3439LC,Nieuwegein,Nieuwegein,Utrecht,VBO,5.112002,52.051326
De Liesbosch,50,,,3439LC,Nieuwegein,Nieuwegein,Utrecht,VBO,5.112026,52.051380
De Liesbosch,52,,,3439LC,Nieuwegein,Nieuwegein,Utrecht,VBO,5.112050,52.051437
De Liesbosch,54,,,3439LC,Nieuwegein,Nieuwegein,Utrecht,VBO,5.112072,52.051492
De Liesbosch,56,,,3439LC,Nieuwegein,Nieuwegein,Utrecht,VBO,5.112099,52.051546
De Liesbosch,58,,,3439LC,Nieuwegein,Nieuwegein,Utrecht,VBO,5.112121,52.051596
De Liesbosch,60,,,3439LC,Nieuwegein,Nieuwegein,Utrecht,VBO,5.112147,52.051653
De Liesbosch,62,,,3439LC,Nieuwegein,Nieuwegein,Utrecht,VBO,5.112170,52.051708
De Liesbosch,64,,,3439LC,Nieuwegein,Nieuwegein,Utrecht,VBO,5.112196,52.051766
De Liesbosch,70,,,3439LC,Nieuwegein,Nieuwegein,Utrecht,VBO,5.111251,52.052244
De Liesbosch,72,,,3439LC,Nieuwegein,Nieuwegein,Utrecht,VBO,5.111399,52.052564
De Liesbosch,82,A,,3439LC,Nieuwegein,Nieuwegein,Utrecht,VBO,5.112140,52.052082
De Liesbosch,82,B,,3439LC,Nieuwegein,Nieuwegein,Utrecht,VBO,5.112238,52.052064
De Liesbosch,82,C,,3439LC,Nieuwegein,Nieuwegein,Utrecht,VBO,5.112345,52.052050
De Liesbosch,82,D,,3439LC,Nieuwegein,Nieuwegein,Utrecht,VBO,5.112448,52.052031
De Liesbosch,82,E,,3439LC,Nieuwegein,Nieuwegein,Utrecht,VBO,5.111948,52.051920
De Liesbosch,82,G,,3439LC,Nieuwegein,Nieuwegein,Utrecht,VBO,5.112159,52.051879
De Liesbosch,82,H,,3439LC,Nieuwegein,Nieuwegein,Utrecht,VBO,5.112272,52.051863
De Liesbosch,82,J,,3439LC,Nieuwegein,Nieuwegein,Utrecht,VBO,5.112364,52.051848
De Liesbosch,82,,,3439LC,Nieuwegein,Nieuwegein,Utrecht,VBO,5.112038,52.052097
De Liesbosch,88,,,3439LC,Nieuwegein,Nieuwegein,Utrecht,VBO,5.112336,52.052364
De Liesbosch,90,,,3439LC,Nieuwegein,Nieuwegein,Utrecht,VBO,5.111737,52.053768
De Liesbosch,100,,,3439LC,Nieuwegein,Nieuwegein,Utrecht,VBO,5.112239,52.055149
Ravenswade,1,A,,3439LD,Nieuwegein,Nieuwegein,Utrecht,VBO,5.117523,52.049659
Ravenswade,1,C,,3439LD,Nieuwegein,Nieuwegein,Utrecht,VBO,5.116607,52.049968
Ravenswade,1,F,,3439LD,Nieuwegein,Nieuwegein,Utrecht,VBO,5.117019,52.049739
Ravenswade,1,G,,3439LD,Nieuwegein,Nieuwegein,Utrecht,VBO,5.116982,52.049654
Ravenswade,1,H,,3439LD,Nieuwegein,Nieuwegein,Utrecht,VBO,5.116951,52.049563
Ravenswade,1,J,,3439LD,Nieuwegein,Nieuwegein,Utrecht,VBO,5.116913,52.049479
Ravenswade,1,K,,3439LD,Nieuwegein,Nieuwegein,Utrecht,VBO,5.116883,52.049390
Ravenswade,1,L,,3439LD,Nieuwegein,Nieuwegein,Utrecht,VBO,5.116849,52.049301
Ravenswade,1,M,,3439LD,Nieuwegein,Nieuwegein,Utrecht,VBO,5.116925,52.049200
Ravenswade,1,N,,3439LD,Nieuwegein,Nieuwegein,Utrecht,VBO,5.116751,52.049230
Ravenswade,1,,,3439LD,Nieuwegein,Nieuwegein,Utrecht,VBO,5.118115,52.049462
Ravenswade,2,A,,3439LD,Nieuwegein,Nieuwegein,Utrecht,VBO,5.117896,52.050695
Ravenswade,2,B,,3439LD,Nieuwegein,Nieuwegein,Utrecht,VBO,5.117956,52.050807
Ravenswade,2,,,3439LD,Nieuwegein,Nieuwegein,Utrecht,VBO,5.118151,52.050606
Ravenswade,3,,,3439LD,Nieuwegein,Nieuwegein,Utrecht,VBO,5.114031,52.050074
Ravenswade,4,A,,3439LD,Nieuwegein,Nieuwegein,Utrecht,VBO,5.118274,52.051287
Ravenswade,4,B,,3439LD,Nieuwegein,Nieuwegein,Utrecht,VBO,5.118392,52.051549
Ravenswade,5,,,3439LD,Nieuwegein,Nieuwegein,Utrecht,VBO,5.114853,52.050114
Ravenswade,9,,,3439LD,Nieuwegein,Nieuwegein,Utrecht,VBO,5.112593,52.050173
Ravenswade,12,,,3439LD,Nieuwegein,Nieuwegein,Utrecht,VBO,5.118991,52.055170
Ravenswade,15,,,3439LD,Nieuwegein,Nieuwegein,Utrecht,VBO,5.109181,52.050288
Ravenswade,16,A,,3439LD,Nieuwegein,Nieuwegein,Utrecht,VBO,5.116598,52.055805
Ravenswade,18,,,3439LD,Nieuwegein,Nieuwegein,Utrecht,VBO,5.114822,52.055066
Ravenswade,20,,,3439LD,Nieuwegein,Nieuwegein,Utrecht,VBO,5.114775,52.054966
Ravenswade,22,,,3439LD,Nieuwegein,Nieuwegein,Utrecht,VBO,5.114730,52.054866
Ravenswade,24,,,3439LD,Nieuwegein,Nieuwegein,Utrecht,VBO,5.114677,52.054755
Ravenswade,26,,,3439LD,Nieuwegein,Nieuwegein,Utrecht,VBO,5.114627,52.054643
Ravenswade,28,,,3439LD,Nieuwegein,Nieuwegein,Utrecht,VBO,5.114582,52.054555
Ravenswade,30,,,3439LD,Nieuwegein,Nieuwegein,Utrecht,VBO,5.114535,52.054450
Ravenswade,32,,,3439LD,Nieuwegein,Nieuwegein,Utrecht,VBO,5.114484,52.054345
Ravenswade,34,,,3439LD,Nieuwegein,Nieuwegein,Utrecht,VBO,5.114440,52.054240
Ravenswade,36,,,3439LD,Nieuwegein,Nieuwegein,Utrecht,VBO,5.114381,52.054125
Ravenswade,38,,,3439LD,Nieuwegein,Nieuwegein,Utrecht,VBO,5.115805,52.054087
Ravenswade,40,,,3439LD,Nieuwegein,Nieuwegein,Utrecht,VBO,5.117704,52.053649
Ravenswade,42,,,3439LD,Nieuwegein,Nieuwegein,Utrecht,VBO,5.116268,52.052989
Ravenswade,44,,,3439LD,Nieuwegein,Nieuwegein,Utrecht,VBO,5.115628,52.052203
Ravenswade,48,,,3439LD,Nieuwegein,Nieuwegein,Utrecht,VBO,5.117582,52.052435
Ravenswade,54,A,,3439LD,Nieuwegein,Nieuwegein,Utrecht,VBO,5.116582,52.051189
Ravenswade,54,B,,3439LD,Nieuwegein,Nieuwegein,Utrecht,VBO,5.116306,52.051226
Ravenswade,54,C,,3439LD,Nieuwegein,Nieuwegein,Utrecht,VBO,5.116498,52.051495
Ravenswade,54,K,,3439LD,Nieuwegein,Nieuwegein,Utrecht,VBO,5.117380,52.051540
Ravenswade,54,S,,3439LD,Nieuwegein,Nieuwegein,Utrecht,VBO,5.116210,52.050532
Ravenswade,54,T,,3439LD,Nieuwegein,Nieuwegein,Utrecht,VBO,5.116293,52.050658
Ravenswade,54,V,,3439LD,Nieuwegein,Nieuwegein,Utrecht,VBO,5.115985,52.050565
Ravenswade,54,W,,3439LD,Nieuwegein,Nieuwegein,Utrecht,VBO,5.116050,52.050702
Ravenswade,54,,,3439LD,Nieuwegein,Nieuwegein,Utrecht,VBO,5.116921,52.050988
Ravenswade,56,B,,3439LD,Nieuwegein,Nieuwegein,Utrecht,VBO,5.116733,52.051633
Ravenswade,56,R,,3439LD,Nieuwegein,Nieuwegein,Utrecht,VBO,5.116833,52.050525
Ravenswade,56,S,,3439LD,Nieuwegein,Nieuwegein,Utrecht,VBO,5.116887,52.050660
Ravenswade,56,,,3439LD,Nieuwegein,Nieuwegein,Utrecht,VBO,5.116457,52.051676
Ravenswade,58,,,3439LD,Nieuwegein,Nieuwegein,Utrecht,VBO,5.116086,52.051738
Ravenswade,60,,,3439LD,Nieuwegein,Nieuwegein,Utrecht,VBO,5.115955,52.051465
Ravenswade,62,A,,3439LD,Nieuwegein,Nieuwegein,Utrecht,VBO,5.115052,52.051457
Ravenswade,62,B,,3439LD,Nieuwegein,Nieuwegein,Utrecht,VBO,5.115076,52.051507
Ravenswade,62,,,3439LD,Nieuwegein,Nieuwegein,Utrecht,VBO,5.115026,52.051410
Ravenswade,64,,,3439LD,Nieuwegein,Nieuwegein,Utrecht,VBO,5.114349,52.051772
Ravenswade,66,,,3439LD,Nieuwegein,Nieuwegein,Utrecht,VBO,5.114461,52.052019
Ravenswade,68,,,3439LD,Nieuwegein,Nieuwegein,Utrecht,VBO,5.114163,52.052022
Ravenswade,70,,,3439LD,Nieuwegein,Nieuwegein,Utrecht,VBO,5.114131,52.051954
Ravenswade,72,,,3439LD,Nieuwegein,Nieuwegein,Utrecht,VBO,5.114053,52.051808
Ravenswade,74,,,3439LD,Nieuwegein,Nieuwegein,Utrecht,VBO,5.114003,52.051669
Ravenswade,76,,,3439LD,Nieuwegein,Nieuwegein,Utrecht,VBO,5.113803,52.051594
Ravenswade,78,A,,3439LD,Nieuwegein,Nieuwegein,Utrecht,VBO,5.113671,52.051465
Ravenswade,78,B,,3439LD,Nieuwegein,Nieuwegein,Utrecht,VBO,5.113587,52.051483
Ravenswade,78,,,3439LD,Nieuwegein,Nieuwegein,Utrecht,VBO,5.113752,52.051453
Ravenswade,80,,,3439LD,Nieuwegein,Nieuwegein,Utrecht,VBO,5.113680,52.051315
Ravenswade,82,,,3439LD,Nieuwegein,Nieuwegein,Utrecht,VBO,5.113778,52.051181
Ravenswade,84,,,3439LD,Nieuwegein,Nieuwegein,Utrecht,VBO,5.113733,52.051086
Ravenswade,86,,,3439LD,Nieuwegein,Nieuwegein,Utrecht,VBO,5.113666,52.050952
Ravenswade,88,,,3439LD,Nieuwegein,Nieuwegein,Utrecht,VBO,5.113581,52.050784
Ravenswade,90,,,3439LD,Nieuwegein,Nieuwegein,Utrecht,VBO,5.114104,52.050694
Ravenswade,92,,,3439LD,Nieuwegein,Nieuwegein,Utrecht,VBO,5.113993,52.050983
Ravenswade,94,,,3439LD,Nieuwegein,Nieuwegein,Utrecht,VBO,5.114079,52.051162
Ravenswade,96,,,3439LD,Nieuwegein,Nieuwegein,Utrecht,VBO,5.114908,52.051238
Ravenswade,98,A,,3439LD,Nieuwegein,Nieuwegein,Utrecht,VBO,5.115565,52.051028
Ravenswade,98,B,,3439LD,Nieuwegein,Nieuwegein,Utrecht,VBO,5.115362,52.051062
Ravenswade,98,,,3439LD,Nieuwegein,Nieuwegein,Utrecht,VBO,5.115739,52.050992
Ravenswade,100,,,3439LD,Nieuwegein,Nieuwegein,Utrecht,VBO,5.115565,52.050598
Ravenswade,102,,,3439LD,Nieuwegein,Nieuwegein,Utrecht,VBO,5.112441,52.050984
Ravenswade,106,,,3439LD,Nieuwegein,Nieuwegein,Utrecht,VBO,5.112690,52.051566
Ravenswade,108,,,3439LD,Nieuwegein,Nieuwegein,Utrecht,VBO,5.112734,52.051758
Ravenswade,110,,,3439LD,Nieuwegein,Nieuwegein,Utrecht,VBO,5.112960,52.052160
Ravenswade,112,,,3439LD,Nieuwegein,Nieuwegein,Utrecht,VBO,5.113042,52.052334
Ravenswade,114,A,,3439LD,Nieuwegein,Nieuwegein,Utrecht,VBO,5.113151,52.052862
Ravenswade,114,,,3439LD,Nieuwegein,Nieuwegein,Utrecht,VBO,5.113233,52.052725
Ravenswade,116,,,3439LD,Nieuwegein,Nieuwegein,Utrecht,VBO,5.113057,52.052637
Ravenswade,118,,,3439LD,Nieuwegein,Nieuwegein,Utrecht,VBO,5.113296,52.052996
Ravenswade,120,,,3439LD,Nieuwegein,Nieuwegein,Utrecht,VBO,5.113324,52.053072
Ravenswade,122,,,3439LD,Nieuwegein,Nieuwegein,Utrecht,VBO,5.113420,52.053284
Ravenswade,124,,,3439LD,Nieuwegein,Nieuwegein,Utrecht,VBO,5.113458,52.053362
Ravenswade,126,,,3439LD,Nieuwegein,Nieuwegein,Utrecht,VBO,5.113505,52.053619
Ravenswade,128,,,3439LD,Nieuwegein,Nieuwegein,Utrecht,VBO,5.113678,52.053911
Ravenswade,130,,,3439LD,Nieuwegein,Nieuwegein,Utrecht,VBO,5.113921,52.054216
Ravenswade,132,A,,3439LD,Nieuwegein,Nieuwegein,Utrecht,VBO,5.113937,52.054495
Ravenswade,132,,,3439LD,Nieuwegein,Nieuwegein,Utrecht,VBO,5.114055,52.054638
Ravenswade,134,,,3439LD,Nieuwegein,Nieuwegein,Utrecht,VBO,5.114133,52.054841
Ravenswade,150,A,,3439LD,Nieuwegein,Nieuwegein,Utrecht,VBO,5.114370,52.055503
Ravenswade,150,B,,3439LD,Nieuwegein,Nieuwegein,Utrecht,VBO,5.114435,52.055633
Ravenswade,150,C,,3439LD,Nieuwegein,Nieuwegein,Utrecht,VBO,5.114481,52.055754
Ravenswade,150,D,,3439LD,Nieuwegein,Nieuwegein,Utrecht,VBO,5.114531,52.055865
Ravenswade,150,E,,3439LD,Nieuwegein,Nieuwegein,Utrecht,VBO,5.114589,52.055991
Ravenswade,150,F,,3439LD,Nieuwegein,Nieuwegein,Utrecht,VBO,5.114651,52.056115
Ravenswade,150,G,,3439LD,Nieuwegein,Nieuwegein,Utrecht,VBO,5.114700,52.056244
Ravenswade,150,H,,3439LD,Nieuwegein,Nieuwegein,Utrecht,VBO,5.114753,52.056362
Ravenswade,150,N,,3439LD,Nieuwegein,Nieuwegein,Utrecht,VBO,5.114376,52.056430
Ravenswade,150,P,,3439LD,Nieuwegein,Nieuwegein,Utrecht,VBO,5.114325,52.056303
Ravenswade,150,Q,,3439LD,Nieuwegein,Nieuwegein,Utrecht,VBO,5.114270,52.056179
Ravenswade,150,R,,3439LD,Nieuwegein,Nieuwegein,Utrecht,VBO,5.114214,52.056055
Ravenswade,150,S,,3439LD,Nieuwegein,Nieuwegein,Utrecht,VBO,5.114161,52.055924
Ravenswade,150,T,,3439LD,Nieuwegein,Nieuwegein,Utrecht,VBO,5.114108,52.055817
Ravenswade,150,U,,3439LD,Nieuwegein,Nieuwegein,Utrecht,VBO,5.114063,52.055689
Ravenswade,150,V,,3439LD,Nieuwegein,Nieuwegein,Utrecht,VBO,5.114016,52.055570
Ravenswade,158,,,3439LD,Nieuwegein,Nieuwegein,Utrecht,VBO,5.114649,52.056548
Ravenswade,160,A,,3439LD,Nieuwegein,Nieuwegein,Utrecht,VBO,5.114980,52.056804
Ravenswade,160,,,3439LD,Nieuwegein,Nieuwegein,Utrecht,VBO,5.114797,52.056833
Ravenswade,162,,,3439LD,Nieuwegein,Nieuwegein,Utrecht,VBO,5.114512,52.056880
Ravenswade,200,A,,3439LD,Nieuwegein,Nieuwegein,Utrecht,VBO,5.109337,52.051095
Ravenswade,200,,,3439LD,Nieuwegein,Nieuwegein,Utrecht,VBO,5.109279,52.051061
Ravenswade,210,A,,3439LD,Nieuwegein,Nieuwegein,Utrecht,VBO,5.109094,52.051071
Ravenswade,210,B,,3439LD,Nieuwegein,Nieuwegein,Utrecht,VBO,5.109133,52.051153
Ravenswade,210,C,,3439LD,Nieuwegein,Nieuwegein,Utrecht,VBO,5.109170,52.051243
Ravenswade,210,D,,3439LD,Nieuwegein,Nieuwegein,Utrecht,VBO,5.109211,52.051329
Ravenswade,210,E,,3439LD,Nieuwegein,Nieuwegein,Utrecht,VBO,5.109248,52.051412
Ravenswade,212,A,,3439LD,Nieuwegein,Nieuwegein,Utrecht,VBO,5.108910,52.051053
Ravenswade,212,B,,3439LD,Nieuwegein,Nieuwegein,Utrecht,VBO,5.108951,52.051144
Ravenswade,212,C,,3439LD,Nieuwegein,Nieuwegein,Utrecht,VBO,5.108994,52.051243
Ravenswade,212,D,,3439LD,Nieuwegein,Nieuwegein,Utrecht,VBO,5.109040,52.051342
Ravenswade,212,E,,3439LD,Nieuwegein,Nieuwegein,Utrecht,VBO,5.109084,52.051438
Ravenswade,220,,,3439LD,Nieuwegein,Nieuwegein,Utrecht,VBO,5.108330,52.051038
Ravenswade,240,,,3439LD,Nieuwegein,Nieuwegein,Utrecht,VBO,5.108179,52.051084
Veldwade,2,,,3439LE,Nieuwegein,Nieuwegein,Utrecht,VBO,5.115476,52.049958
Veldwade,3,,,3439LE,Nieuwegein,Nieuwegein,Utrecht,VBO,5.115750,52.048568
Veldwade,8,,,3439LE,Nieuwegein,Nieuwegein,Utrecht,VBO,5.115318,52.049496
Veldwade,10,,,3439LE,Nieuwegein,Nieuwegein,Utrecht,VBO,5.115090,52.049112
Veldwade,14,,,3439LE,Nieuwegein,Nieuwegein,Utrecht,VBO,5.115037,52.048747
Veldwade,18,,,3439LE,Nieuwegein,Nieuwegein,Utrecht,VBO,5.114893,52.048396
Veldwade,20,,,3439LE,Nieuwegein,Nieuwegein,Utrecht,VBO,5.114713,52.047940
Veldwade,22,,,3439LE,Nieuwegein,Nieuwegein,Utrecht,VBO,5.114354,52.047533
Veldwade,26,,,3439LE,Nieuwegein,Nieuwegein,Utrecht,VBO,5.114384,52.047096
Laagraven,1,,,3439LG,Nieuwegein,Nieuwegein,Utrecht,VBO,5.121778,52.050827
Laagraven,2,A,,3439LG,Nieuwegein,Nieuwegein,Utrecht,VBO,5.123262,52.052040
Laagraven,2,B,,3439LG,Nieuwegein,Nieuwegein,Utrecht,VBO,5.123564,52.051988
Laagraven,2,,,3439LG,Nieuwegein,Nieuwegein,Utrecht,VBO,5.122978,52.052094
Laagraven,3,,,3439LG,Nieuwegein,Nieuwegein,Utrecht,VBO,5.121927,52.051262
Laagraven,4,,,3439LG,Nieuwegein,Nieuwegein,Utrecht,VBO,5.123114,52.052441
Laagraven,5,A,,3439LG,Nieuwegein,Nieuwegein,Utrecht,VBO,5.121362,52.051746
Laagraven,5,B,,3439LG,Nieuwegein,Nieuwegein,Utrecht,VBO,5.121891,52.051725
Laagraven,5,C,,3439LG,Nieuwegein,Nieuwegein,Utrecht,VBO,5.121968,52.051551
Laagraven,5,D,,3439LG,Nieuwegein,Nieuwegein,Utrecht,VBO,5.122037,52.051673
Laagraven,5,,,3439LG,Nieuwegein,Nieuwegein,Utrecht,VBO,5.121677,52.051694
Laagraven,6,,,3439LG,Nieuwegein,Nieuwegein,Utrecht,VBO,5.123227,52.052673
Laagraven,7,,,3439LG,Nieuwegein,Nieuwegein,Utrecht,VBO,5.122476,52.052745
Laagraven,8,,,3439LG,Nieuwegein,Nieuwegein,Utrecht,VBO,5.123940,52.052757
Laagraven,9,,,3439LG,Nieuwegein,Nieuwegein,Utrecht,VBO,5.123725,52.052272
Laagraven,11,,,3439LG,Nieuwegein,Nieuwegein,Utrecht,VBO,5.123665,52.053443
Laagraven,12,,,3439LG,Nieuwegein,Nieuwegein,Utrecht,VBO,5.123719,52.053072
Laagraven,15,C,,3439LG,Nieuwegein,Nieuwegein,Utrecht,VBO,5.124811,52.053151
Laagraven,17,,,3439LG,Nieuwegein,Nieuwegein,Utrecht,VBO,5.124657,52.052917
Laagraven,19,,,3439LH,Nieuwegein,Nieuwegein,Utrecht,VBO,5.124593,52.052788
Laagraven,21,,,3439LH,Nieuwegein,Nieuwegein,Utrecht,VBO,5.124551,52.052682
Laagraven,23,,,3439LH,Nieuwegein,Nieuwegein,Utrecht,VBO,5.124501,52.052569
Laagraven,25,,,3439LH,Nieuwegein,Nieuwegein,Utrecht,VBO,5.124452,52.052464
Laagraven,27,,,3439LH,Nieuwegein,Nieuwegein,Utrecht,VBO,5.124396,52.052365
Laagraven,29,,,3439LH,Nieuwegein,Nieuwegein,Utrecht,VBO,5.124349,52.052276
Laagraven,33,,,3439LJ,Nieuwegein,Nieuwegein,Utrecht,VBO,5.124301,52.052167
Laagraven,35,A,,3439LJ,Nieuwegein,Nieuwegein,Utrecht,VBO,5.124244,52.052029
Laagraven,35,,,3439LJ,Nieuwegein,Nieuwegein,Utrecht,VBO,5.124263,52.052090
Laagraven,37,,,3439LJ,Nieuwegein,Nieuwegein,Utrecht,VBO,5.124223,52.051965
Laagraven,40,A,,3439LK,Nieuwegein,Nieuwegein,Utrecht,VBO,5.124581,52.054831
Laagraven,40,,,3439LK,Nieuwegein,Nieuwegein,Utrecht,VBO,5.125376,52.054707
Laagraven,41,,,3439LK,Nieuwegein,Nieuwegein,Utrecht,VBO,5.123960,52.051444
Laagraven,42,,,3439LK,Nieuwegein,Nieuwegein,Utrecht,VBO,5.122770,52.054086
Laagraven,43,,,3439LK,Nieuwegein,Nieuwegein,Utrecht,VBO,5.123912,52.051307
Laagraven,44,,,3439LK,Nieuwegein,Nieuwegein,Utrecht,VBO,5.123833,52.054135
Laagraven,45,A,,3439LK,Nieuwegein,Nieuwegein,Utrecht,VBO,5.123563,52.051516
Laagraven,45,B,,3439LK,Nieuwegein,Nieuwegein,Utrecht,VBO,5.123579,52.051363
Laagraven,47,A,,3439LK,Nieuwegein,Nieuwegein,Utrecht,VBO,5.123332,52.051409
Laagraven,47,B,,3439LK,Nieuwegein,Nieuwegein,Utrecht,VBO,5.123164,52.051437
Laagraven,47,,,3439LK,Nieuwegein,Nieuwegein,Utrecht,VBO,5.123309,52.051554
Laagraven,49,,,3439LK,Nieuwegein,Nieuwegein,Utrecht,VBO,5.122806,52.051489
Laagraven,51,,,3439LL,Nieuwegein,Nieuwegein,Utrecht,VBO,5.122452,52.051060
Laagraven,53,,,3439LL,Nieuwegein,Nieuwegein,Utrecht,VBO,5.122746,52.051007
Laagraven,55,,,3439LL,Nieuwegein,Nieuwegein,Utrecht,VBO,5.123006,52.050958
Laagraven,57,,,3439LL,Nieuwegein,Nieuwegein,Utrecht,VBO,5.123249,52.050916
Laagraven,59,,,3439LL,Nieuwegein,Nieuwegein,Utrecht,VBO,5.123483,52.050876
Laagraven,61,,,3439LL,Nieuwegein,Nieuwegein,Utrecht,VBO,5.123752,52.050834
Laagraven,63,,,3439LL,Nieuwegein,Nieuwegein,Utrecht,VBO,5.122318,52.050489
Ringwade,1,,,3439LM,Nieuwegein,Nieuwegein,Utrecht,VBO,5.111033,52.057603
Ringwade,2,,,3439LM,Nieuwegein,Nieuwegein,Utrecht,VBO,5.111964,52.056754
Ringwade,3,,,3439LM,Nieuwegein,Nieuwegein,Utrecht,VBO,5.111086,52.057580
Ringwade,4,,,3439LM,Nieuwegein,Nieuwegein,Utrecht,VBO,5.112504,52.057664
Ringwade,5,,,3439LM,Nieuwegein,Nieuwegein,Utrecht,VBO,5.111135,52.057572
Ringwade,6,A,,3439LM,Nieuwegein,Nieuwegein,Utrecht,VBO,5.113673,52.057070
Ringwade,6,,,3439LM,Nieuwegein,Nieuwegein,Utrecht,VBO,5.113516,52.057435
Ringwade,7,,,3439LM,Nieuwegein,Nieuwegein,Utrecht,VBO,5.111192,52.057564
Ringwade,21,,,3439LM,Nieuwegein,Nieuwegein,Utrecht,VBO,5.110965,52.057297
Ringwade,31,,,3439LM,Nieuwegein,Nieuwegein,Utrecht,VBO,5.110770,52.056808
Ringwade,41,,,3439LM,Nieuwegein,Nieuwegein,Utrecht,VBO,5.110654,52.056342
Ringwade,43,,,3439LM,Nieuwegein,Nieuwegein,Utrecht,VBO,5.110594,52.056385
Ringwade,51,,,3439LM,Nieuwegein,Nieuwegein,Utrecht,VBO,5.110657,52.055918
Ringwade,61,,,3439LM,Nieuwegein,Nieuwegein,Utrecht,VBO,5.110411,52.055483
Ringwade,71,,,3439LM,Nieuwegein,Nieuwegein,Utrecht,VBO,5.110257,52.054997
Overeindseweg,32,,,3439LN,Nieuwegein,Nieuwegein,Utrecht,VBO,5.117299,52.037770
Koppeldijk,12,,,3439LP,Nieuwegein,Nieuwegein,Utrecht,VBO,5.127761,52.045432
Koppeldijk,14,,,3439LP,Nieuwegein,Nieuwegein,Utrecht,VBO,5.127705,52.045618
Koppeldijk,16,A,,3439LP,Nieuwegein,Nieuwegein,Utrecht,VBO,5.129273,52.049177
Koppeldijk,16,B,,3439LP,Nieuwegein,Nieuwegein,Utrecht,VBO,5.128916,52.049265
Koppeldijk,18,,,3439LP,Nieuwegein,Nieuwegein,Utrecht,VBO,5.128609,52.049535
Overeindseweg,5,,,3439LP,Nieuwegein,Nieuwegein,Utrecht,VBO,5.110324,52.042682
Overeindseweg,25,A,,3439LP,Nieuwegein,Nieuwegein,Utrecht,VBO,5.116172,52.038403
Overeindseweg,25,B,,3439LP,Nieuwegein,Nieuwegein,Utrecht,VBO,5.116646,52.039377
Overeindseweg,25,,,3439LP,Nieuwegein,Nieuwegein,Utrecht,VBO,5.116282,52.038166
Overeindseweg,27,,,3439LP,Nieuwegein,Nieuwegein,Utrecht,VBO,5.118029,52.038207
Overeindseweg,29,,,3439LP,Nieuwegein,Nieuwegein,Utrecht,VBO,5.118835,52.038253
Overeindseweg,31,A,,3439LP,Nieuwegein,Nieuwegein,Utrecht,VBO,5.120929,52.038310
Overeindseweg,31,,,3439LP,Nieuwegein,Nieuwegein,Utrecht,VBO,5.120516,52.038388
Overeindseweg,33,A,,3439LP,Nieuwegein,Nieuwegein,Utrecht,VBO,5.122334,52.038362
Overeindseweg,33,,,3439LP,Nieuwegein,Nieuwegein,Utrecht,VBO,5.122087,52.038329
Overeindseweg,34,A,,3439LP,Nieuwegein,Nieuwegein,Utrecht,VBO,5.117913,52.037769
Overeindseweg,35,,,3439LP,Nieuwegein,Nieuwegein,Utrecht,VBO,5.124697,52.038433
Overeindseweg,36,A,,3439LP,Nieuwegein,Nieuwegein,Utrecht,VBO,5.122676,52.037884
Overeindseweg,36,,,3439LP,Nieuwegein,Nieuwegein,Utrecht,VBO,5.122692,52.038062
Overeindseweg,38,A,,3439LP,Nieuwegein,Nieuwegein,Utrecht,VBO,5.122940,52.037861
Overeindseweg,38,,,3439LP,Nieuwegein,Nieuwegein,Utrecht,VBO,5.122948,52.038043
2e Veld,1,,,3439LR,Nieuwegein,Nieuwegein,Utrecht,VBO,5.116839,52.040986
2e Veld,2,,,3439LR,Nieuwegein,Nieuwegein,Utrecht,VBO,5.116619,52.040955
2e Veld,6,A,,3439LR,Nieuwegein,Nieuwegein,Utrecht,VBO,5.118320,52.045395
2e Veld,6,,,3439LR,Nieuwegein,Nieuwegein,Utrecht,VBO,5.118304,52.045344
Vuilcop,1,,,3439LS,Nieuwegein,Nieuwegein,Utrecht,VBO,5.121360,52.028955
Vuilcop,3,A,,3439LS,Nieuwegein,Nieuwegein,Utrecht,VBO,5.121338,52.028854
Vuilcop,3,,,3439LS,Nieuwegein,Nieuwegein,Utrecht,VBO,5.121550,52.028736
Vuilcop,12,,,3439LS,Nieuwegein,Nieuwegein,Utrecht,VBO,5.122105,52.027819
Heemsteedsebrug,1,,,3439LT,Nieuwegein,Nieuwegein,Utrecht,VBO,5.114876,52.034867
Groenendael,1,,,3439LV,Nieuwegein,Nieuwegein,Utrecht,VBO,5.110939,52.031867
Groenendael,2,,,3439LV,Nieuwegein,Nieuwegein,Utrecht,VBO,5.112718,52.031231
Groenendael,3,,,3439LV,Nieuwegein,Nieuwegein,Utrecht,VBO,5.112810,52.030970
Groenendael,4,,,3439LV,Nieuwegein,Nieuwegein,Utrecht,VBO,5.112894,52.030708
Groenendael,6,,,3439LV,Nieuwegein,Nieuwegein,Utrecht,VBO,5.112122,52.029770
Plettenburg,1,A,,3439LW,Nieuwegein,Nieuwegein,Utrecht,VBO,5.100026,52.033572
Plettenburg,1,B,,3439LW,Nieuwegein,Nieuwegein,Utrecht,VBO,5.100090,52.033732
Plettenburg,1,,,3439LW,Nieuwegein,Nieuwegein,Utrecht,VBO,5.099998,52.033416
Plettenburg,2,,,3439LW,Nieuwegein,Nieuwegein,Utrecht,VBO,5.100487,52.033720
Plettenburg,3,,,3439LW,Nieuwegein,Nieuwegein,Utrecht,VBO,5.100141,52.033911
Plettenburg,4,,,3439LW,Nieuwegein,Nieuwegein,Utrecht,VBO,5.100470,52.033837
Plettenburg,5,,,3439LW,Nieuwegein,Nieuwegein,Utrecht,VBO,5.100269,52.034859
Plettenburg,6,A,,3439LW,Nieuwegein,Nieuwegein,Utrecht,VBO,5.100535,52.034066
Plettenburg,6,,,3439LW,Nieuwegein,Nieuwegein,Utrecht,VBO,5.100519,52.034025
Plettenburg,7,,,3439LW,Nieuwegein,Nieuwegein,Utrecht,VBO,5.100166,52.035301
Plettenburg,8,,,3439LW,Nieuwegein,Nieuwegein,Utrecht,VBO,5.100581,52.034230
Plettenburg,10,,,3439LW,Nieuwegein,Nieuwegein,Utrecht,VBO,5.101167,52.035747
Plettenburg,12,,,3439LW,Nieuwegein,Nieuwegein,Utrecht,VBO,5.101227,52.035936
Fort Jutphaas,1,,,3439LX,Nieuwegein,Nieuwegein,Utrecht,VBO,5.100374,52.036995
Fort Jutphaas,3,,,3439LX,Nieuwegein,Nieuwegein,Utrecht,VBO,5.100048,52.037601
Fort Jutphaas,5,,,3439LX,Nieuwegein,Nieuwegein,Utrecht,VBO,5.100313,52.038215
Fort Jutphaas,7,,,3439LX,Nieuwegein,Nieuwegein,Utrecht,VBO,5.100327,52.038047
De Bongenaer,2,,,3439LZ,Nieuwegein,Nieuwegein,Utrecht,VBO,5.100608,52.026155
De Bongenaer,4,,,3439LZ,Nieuwegein,Nieuwegein,Utrecht,LIG,5.099805,52.025875
De Bongenaer,8,,,3439LZ,Nieuwegein,Nieuwegein,Utrecht,LIG,5.099869,52.026110
Structuurbaan,1,,,3439MA,Nieuwegein,Nieuwegein,Utrecht,VBO,5.101778,52.042151
Structuurbaan,5,,,3439MA,Nieuwegein,Nieuwegein,Utrecht,VBO,5.101670,52.041371
Structuurbaan,11,,,3439MA,Nieuwegein,Nieuwegein,Utrecht,VBO,5.106756,52.043145
Structuurbaan,19,,,3439MA,Nieuwegein,Nieuwegein,Utrecht,VBO,5.107102,52.040536
Structuurbaan,21,,,3439MA,Nieuwegein,Nieuwegein,Utrecht,VBO,5.108058,52.040430
Structuurbaan,2,,,3439MB,Nieuwegein,Nieuwegein,Utrecht,VBO,5.105853,52.039991
Structuurbaan,4,,,3439MB,Nieuwegein,Nieuwegein,Utrecht,VBO,5.106423,52.039730
Structuurbaan,6,,,3439MB,Nieuwegein,Nieuwegein,Utrecht,VBO,5.107215,52.039920
Structuurbaan,8,,,3439MB,Nieuwegein,Nieuwegein,Utrecht,VBO,5.107721,52.039883
Structuurbaan,10,,,3439MB,Nieuwegein,Nieuwegein,Utrecht,VBO,5.108235,52.039008
Structuurbaan,30,A,,3439MB,Nieuwegein,Nieuwegein,Utrecht,VBO,5.109232,52.036828
Structuurbaan,30,B,,3439MB,Nieuwegein,Nieuwegein,Utrecht,VBO,5.109152,52.036551
Structuurbaan,30,C,,3439MB,Nieuwegein,Nieuwegein,Utrecht,VBO,5.109175,52.036631
Structuurbaan,30,,,3439MB,Nieuwegein,Nieuwegein,Utrecht,VBO,5.109211,52.036724
Structuurbaan,40,,,3439MB,Nieuwegein,Nieuwegein,Utrecht,VBO,5.104358,52.032753
Parkerbaan,1,A,,3439MC,Nieuwegein,Nieuwegein,Utrecht,VBO,5.104458,52.030446
Parkerbaan,1,B,,3439MC,Nieuwegein,Nieuwegein,Utrecht,VBO,5.104672,52.030417
Parkerbaan,1,C,,3439MC,Nieuwegein,Nieuwegein,Utrecht,VBO,5.104872,52.030389
Parkerbaan,1,,,3439MC,Nieuwegein,Nieuwegein,Utrecht,VBO,5.104544,52.030729
Parkerbaan,2,,,3439MC,Nieuwegein,Nieuwegein,Utrecht,VBO,5.104907,52.031096
Parkerbaan,3,,,3439MC,Nieuwegein,Nieuwegein,Utrecht,VBO,5.104332,52.030140
Parkerbaan,5,,,3439MC,Nieuwegein,Nieuwegein,Utrecht,VBO,5.104278,52.029539
Parkerbaan,7,,,3439MC,Nieuwegein,Nieuwegein,Utrecht,VBO,5.104123,52.029308
Parkerbaan,12,,,3439MC,Nieuwegein,Nieuwegein,Utrecht,VBO,5.104071,52.030767
Parkerbaan,14,,,3439MC,Nieuwegein,Nieuwegein,Utrecht,VBO,5.103396,52.030482
Parkerbaan,16,,,3439MC,Nieuwegein,Nieuwegein,Utrecht,VBO,5.103233,52.030047
Parkerbaan,18,A,,3439MC,Nieuwegein,Nieuwegein,Utrecht,VBO,5.103039,52.029519
Parkerbaan,18,B,,3439MC,Nieuwegein,Nieuwegein,Utrecht,VBO,5.103621,52.029418
Parkerbaan,18,,,3439MC,Nieuwegein,Nieuwegein,Utrecht,VBO,5.103107,52.029790
Parkerbaan,20,,,3439MC,Nieuwegein,Nieuwegein,Utrecht,VBO,5.103405,52.028937
Fahrenheitbaan,1,,,3439MD,Nieuwegein,Nieuwegein,Utrecht,VBO,5.108569,52.034527
Fahrenheitbaan,2,,,3439MD,Nieuwegein,Nieuwegein,Utrecht,VBO,5.107848,52.034141
Fahrenheitbaan,4,A,,3439MD,Nieuwegein,Nieuwegein,Utrecht,VBO,5.108410,52.033827
Fahrenheitbaan,4,B,,3439MD,Nieuwegein,Nieuwegein,Utrecht,VBO,5.108549,52.033731
Fahrenheitbaan,4,C,,3439MD,Nieuwegein,Nieuwegein,Utrecht,VBO,5.108902,52.033644
Fahrenheitbaan,4,D,,3439MD,Nieuwegein,Nieuwegein,Utrecht,VBO,5.109054,52.033546
Fahrenheitbaan,4,,,3439MD,Nieuwegein,Nieuwegein,Utrecht,VBO,5.108066,52.033876
Archimedesbaan,2,,,3439ME,Nieuwegein,Nieuwegein,Utrecht,VBO,5.108301,52.035843
Archimedesbaan,3,,,3439ME,Nieuwegein,Nieuwegein,Utrecht,VBO,5.106563,52.035582
Archimedesbaan,6,A,,3439ME,Nieuwegein,Nieuwegein,Utrecht,VBO,5.107563,52.036031
Archimedesbaan,6,,,3439ME,Nieuwegein,Nieuwegein,Utrecht,VBO,5.107784,52.036008
Archimedesbaan,7,,,3439ME,Nieuwegein,Nieuwegein,Utrecht,VBO,5.106099,52.035664
Archimedesbaan,8,,,3439ME,Nieuwegein,Nieuwegein,Utrecht,VBO,5.107012,52.036017
Archimedesbaan,10,A,,3439ME,Nieuwegein,Nieuwegein,Utrecht,VBO,5.106533,52.036084
Archimedesbaan,10,B,,3439ME,Nieuwegein,Nieuwegein,Utrecht,VBO,5.106520,52.036047
Archimedesbaan,10,,,3439ME,Nieuwegein,Nieuwegein,Utrecht,VBO,5.106233,52.036117
Archimedesbaan,11,B,,3439ME,Nieuwegein,Nieuwegein,Utrecht,VBO,5.105998,52.035717
Archimedesbaan,11,C,,3439ME,Nieuwegein,Nieuwegein,Utrecht,VBO,5.105990,52.035608
Archimedesbaan,11,,,3439ME,Nieuwegein,Nieuwegein,Utrecht,VBO,5.105834,52.035694
Archimedesbaan,13,,,3439ME,Nieuwegein,Nieuwegein,Utrecht,VBO,5.105014,52.035861
Archimedesbaan,14,,,3439ME,Nieuwegein,Nieuwegein,Utrecht,VBO,5.105573,52.036173
Archimedesbaan,15,,,3439ME,Nieuwegein,Nieuwegein,Utrecht,VBO,5.104968,52.035373
Archimedesbaan,16,C,,3439ME,Nieuwegein,Nieuwegein,Utrecht,VBO,5.104848,52.034397
Archimedesbaan,16,,,3439ME,Nieuwegein,Nieuwegein,Utrecht,VBO,5.104680,52.034408
Archimedesbaan,17,A,,3439ME,Nieuwegein,Nieuwegein,Utrecht,VBO,5.104822,52.035179
Archimedesbaan,17,,,3439ME,Nieuwegein,Nieuwegein,Utrecht,VBO,5.104896,52.035166
Archimedesbaan,18,,,3439ME,Nieuwegein,Nieuwegein,Utrecht,VBO,5.105315,52.034378
Archimedesbaan,19,A,,3439ME,Nieuwegein,Nieuwegein,Utrecht,VBO,5.104912,52.034700
Archimedesbaan,19,,,3439ME,Nieuwegein,Nieuwegein,Utrecht,VBO,5.105109,52.034680
Archimedesbaan,20,,,3439ME,Nieuwegein,Nieuwegein,Utrecht,VBO,5.105949,52.034103
Archimedesbaan,21,A,,3439ME,Nieuwegein,Nieuwegein,Utrecht,VBO,5.105577,52.035062
Archimedesbaan,21,B,,3439ME,Nieuwegein,Nieuwegein,Utrecht,VBO,5.105813,52.035202
Archimedesbaan,21,,,3439ME,Nieuwegein,Nieuwegein,Utrecht,VBO,5.105842,52.035011
Archimedesbaan,22,A,,3439ME,Nieuwegein,Nieuwegein,Utrecht,VBO,5.106272,52.034460
Archimedesbaan,22,,,3439ME,Nieuwegein,Nieuwegein,Utrecht,VBO,5.106445,52.034645
Archimedesbaan,25,,,3439ME,Nieuwegein,Nieuwegein,Utrecht,VBO,5.106561,52.035316
Archimedesbaan,26,A,,3439ME,Nieuwegein,Nieuwegein,Utrecht,VBO,5.106920,52.034993
Archimedesbaan,26,,,3439ME,Nieuwegein,Nieuwegein,Utrecht,VBO,5.106987,52.035031
Archimedesbaan,28,,,3439ME,Nieuwegein,Nieuwegein,Utrecht,VBO,5.107494,52.035142
Galvanibaan,1,,,3439MG,Nieuwegein,Nieuwegein,Utrecht,VBO,5.104822,52.025374
Galvanibaan,2,,,3439MG,Nieuwegein,Nieuwegein,Utrecht,VBO,5.104522,52.025091
Galvanibaan,3,,,3439MG,Nieuwegein,Nieuwegein,Utrecht,VBO,5.105222,52.025347
Galvanibaan,4,,,3439MG,Nieuwegein,Nieuwegein,Utrecht,VBO,5.104830,52.024927
Galvanibaan,5,,,3439MG,Nieuwegein,Nieuwegein,Utrecht,VBO,5.104797,52.026032
Galvanibaan,6,,,3439MG,Nieuwegein,Nieuwegein,Utrecht,VBO,5.105093,52.024888
Galvanibaan,8,,,3439MG,Nieuwegein,Nieuwegein,Utrecht,VBO,5.105253,52.024864
Galvanibaan,10,,,3439MG,Nieuwegein,Nieuwegein,Utrecht,VBO,5.105463,52.024835
Galvanibaan,12,,,3439MG,Nieuwegein,Nieuwegein,Utrecht,VBO,5.106319,52.025485
Galvanibaan,14,,,3439MG,Nieuwegein,Nieuwegein,Utrecht,VBO,5.107048,52.026834
Amperebaan,1,,,3439MH,Nieuwegein,Nieuwegein,Utrecht,VBO,5.106121,52.030240
Amperebaan,2,,,3439MH,Nieuwegein,Nieuwegein,Utrecht,VBO,5.106987,52.029612
Amperebaan,4,,,3439MH,Nieuwegein,Nieuwegein,Utrecht,VBO,5.112125,52.029888
De Malapertweg,2,A,,3439MJ,Nieuwegein,Nieuwegein,Utrecht,VBO,5.108031,52.038003
De Malapertweg,2,,,3439MJ,Nieuwegein,Nieuwegein,Utrecht,VBO,5.108400,52.037959
De Malapertweg,3,,,3439MJ,Nieuwegein,Nieuwegein,Utrecht,VBO,5.109019,52.037608
De Malapertweg,4,,,3439MJ,Nieuwegein,Nieuwegein,Utrecht,VBO,5.107606,52.038028
De Malapertweg,5,,,3439MJ,Nieuwegein,Nieuwegein,Utrecht,VBO,5.108851,52.037620
De Malapertweg,6,A,,3439MJ,Nieuwegein,Nieuwegein,Utrecht,VBO,5.106990,52.038092
De Malapertweg,6,B,,3439MJ,Nieuwegein,Nieuwegein,Utrecht,VBO,5.106749,52.038120
De Malapertweg,6,,,3439MJ,Nieuwegein,Nieuwegein,Utrecht,VBO,5.107326,52.038086
De Malapertweg,7,B,,3439MJ,Nieuwegein,Nieuwegein,Utrecht,VBO,5.107963,52.037609
De Malapertweg,7,,,3439MJ,Nieuwegein,Nieuwegein,Utrecht,VBO,5.108556,52.037636
De Malapertweg,8,,,3439MJ,Nieuwegein,Nieuwegein,Utrecht,VBO,5.106375,52.038079
De Malapertweg,9,,,3439MJ,Nieuwegein,Nieuwegein,Utrecht,VBO,5.107479,52.037329
De Malapertweg,10,,,3439MJ,Nieuwegein,Nieuwegein,Utrecht,VBO,5.106227,52.038069
De Malapertweg,11,,,3439MJ,Nieuwegein,Nieuwegein,Utrecht,VBO,5.107365,52.037339
De Malapertweg,12,,,3439MJ,Nieuwegein,Nieuwegein,Utrecht,VBO,5.105878,52.038052
De Malapertweg,13,,,3439MJ,Nieuwegein,Nieuwegein,Utrecht,VBO,5.107087,52.037360
De Malapertweg,14,,,3439MJ,Nieuwegein,Nieuwegein,Utrecht,VBO,5.105190,52.037917
De Malapertweg,17,,,3439MJ,Nieuwegein,Nieuwegein,Utrecht,VBO,5.106358,52.037377
De Malapertweg,19,,,3439MJ,Nieuwegein,Nieuwegein,Utrecht,VBO,5.105801,52.037548
De Malapertweg,21,,,3439MJ,Nieuwegein,Nieuwegein,Utrecht,VBO,5.105395,52.037575
De Malapertweg,23,,,3439MJ,Nieuwegein,Nieuwegein,Utrecht,VBO,5.104765,52.037500
Rond het Fort,12,,,3439MK,Nieuwegein,Nieuwegein,Utrecht,VBO,5.099163,52.038270
Rond het Fort,14,,,3439MK,Nieuwegein,Nieuwegein,Utrecht,VBO,5.096536,52.037799
Rond het Fort,16,,,3439MK,Nieuwegein,Nieuwegein,Utrecht,VBO,5.096178,52.037833
Rond het Fort,18,,,3439MK,Nieuwegein,Nieuwegein,Utrecht,VBO,5.096205,52.037890
Rond het Fort,20,,,3439MK,Nieuwegein,Nieuwegein,Utrecht,VBO,5.096282,52.037995
Rond het Fort,22,,,3439MK,Nieuwegein,Nieuwegein,Utrecht,VBO,5.098077,52.037217
Rond het Fort,24,,,3439MK,Nieuwegein,Nieuwegein,Utrecht,VBO,5.099303,52.037433
Rond het Fort,26,,,3439MK,Nieuwegein,Nieuwegein,Utrecht,VBO,5.101832,52.036053
Rond het Fort,28,,,3439MK,Nieuwegein,Nieuwegein,Utrecht,VBO,5.102210,52.037483
Rond het Fort,34,,,3439MK,Nieuwegein,Nieuwegein,Utrecht,VBO,5.102699,52.040113
Rond het Fort,36,,,3439MK,Nieuwegein,Nieuwegein,Utrecht,VBO,5.102534,52.039767
Rond het Fort,38,,,3439MK,Nieuwegein,Nieuwegein,Utrecht,VBO,5.102516,52.039696
Rond het Fort,40,,,3439MK,Nieuwegein,Nieuwegein,Utrecht,VBO,5.102504,52.039615
Rond het Fort,42,,,3439MK,Nieuwegein,Nieuwegein,Utrecht,VBO,5.102498,52.039544
Wattbaan,1,,,3439ML,Nieuwegein,Nieuwegein,Utrecht,VBO,5.102374,52.036327
Wattbaan,2,,,3439ML,Nieuwegein,Nieuwegein,Utrecht,VBO,5.101148,52.035437
Wattbaan,5,,,3439ML,Nieuwegein,Nieuwegein,Utrecht,VBO,5.103676,52.036346
Wattbaan,8,,,3439ML,Nieuwegein,Nieuwegein,Utrecht,VBO,5.102177,52.035622
Wattbaan,10,,,3439ML,Nieuwegein,Nieuwegein,Utrecht,VBO,5.102266,52.035690
Wattbaan,12,,,3439ML,Nieuwegein,Nieuwegein,Utrecht,VBO,5.102297,52.035772
Wattbaan,16,,,3439ML,Nieuwegein,Nieuwegein,Utrecht,VBO,5.102670,52.035752
Wattbaan,18,,,3439ML,Nieuwegein,Nieuwegein,Utrecht,VBO,5.102654,52.035675
Wattbaan,20,,,3439ML,Nieuwegein,Nieuwegein,Utrecht,VBO,5.102625,52.035591
Wattbaan,22,,,3439ML,Nieuwegein,Nieuwegein,Utrecht,VBO,5.102494,52.035571
Wattbaan,24,,,3439ML,Nieuwegein,Nieuwegein,Utrecht,VBO,5.102477,52.036070
Wattbaan,27,,1,3439ML,Nieuwegein,Nieuwegein,Utrecht,VBO,5.103566,52.035765
Wattbaan,27,,10,3439ML,Nieuwegein,Nieuwegein,Utrecht,VBO,5.103514,52.035452
Wattbaan,27,,11,3439ML,Nieuwegein,Nieuwegein,Utrecht,VBO,5.103507,52.035416
Wattbaan,27,,12,3439ML,Nieuwegein,Nieuwegein,Utrecht,VBO,5.103334,52.035910
Wattbaan,27,,13,3439ML,Nieuwegein,Nieuwegein,Utrecht,VBO,5.103327,52.035883
Wattbaan,27,,14,3439ML,Nieuwegein,Nieuwegein,Utrecht,VBO,5.103319,52.035844
Wattbaan,27,,15,3439ML,Nieuwegein,Nieuwegein,Utrecht,VBO,5.103313,52.035810
Wattbaan,27,,16,3439ML,Nieuwegein,Nieuwegein,Utrecht,VBO,5.103308,52.035772
Wattbaan,27,,17,3439ML,Nieuwegein,Nieuwegein,Utrecht,VBO,5.103302,52.035737
Wattbaan,27,,18,3439ML,Nieuwegein,Nieuwegein,Utrecht,VBO,5.103300,52.035706
Wattbaan,27,,19,3439ML,Nieuwegein,Nieuwegein,Utrecht,VBO,5.103292,52.035671
Wattbaan,27,,2,3439ML,Nieuwegein,Nieuwegein,Utrecht,VBO,5.103557,52.035735
Wattbaan,27,,20,3439ML,Nieuwegein,Nieuwegein,Utrecht,VBO,5.103289,52.035627
Wattbaan,27,,21,3439ML,Nieuwegein,Nieuwegein,Utrecht,VBO,5.103278,52.035596
Wattbaan,27,,22,3439ML,Nieuwegein,Nieuwegein,Utrecht,VBO,5.103275,52.035563
Wattbaan,27,,23,3439ML,Nieuwegein,Nieuwegein,Utrecht,VBO,5.103633,52.035761
Wattbaan,27,,24,3439ML,Nieuwegein,Nieuwegein,Utrecht,VBO,5.103622,52.035730
Wattbaan,27,,25,3439ML,Nieuwegein,Nieuwegein,Utrecht,VBO,5.103614,52.035695
Wattbaan,27,,26,3439ML,Nieuwegein,Nieuwegein,Utrecht,VBO,5.103612,52.035658
Wattbaan,27,,27,3439ML,Nieuwegein,Nieuwegein,Utrecht,VBO,5.103605,52.035623
Wattbaan,27,,28,3439ML,Nieuwegein,Nieuwegein,Utrecht,VBO,5.103594,52.035592
Wattbaan,27,,29,3439ML,Nieuwegein,Nieuwegein,Utrecht,VBO,5.103596,52.035556
Wattbaan,27,,3,3439ML,Nieuwegein,Nieuwegein,Utrecht,VBO,5.103553,52.035695
Wattbaan,27,,30,3439ML,Nieuwegein,Nieuwegein,Utrecht,VBO,5.103590,52.035520
Wattbaan,27,,31,3439ML,Nieuwegein,Nieuwegein,Utrecht,VBO,5.103585,52.035484
Wattbaan,27,,32,3439ML,Nieuwegein,Nieuwegein,Utrecht,VBO,5.103580,52.035450
Wattbaan,27,,33,3439ML,Nieuwegein,Nieuwegein,Utrecht,VBO,5.103574,52.035414
Wattbaan,27,,34,3439ML,Nieuwegein,Nieuwegein,Utrecht,VBO,5.103286,52.035913
Wattbaan,27,,35,3439ML,Nieuwegein,Nieuwegein,Utrecht,VBO,5.103281,52.035885
Wattbaan,27,,36,3439ML,Nieuwegein,Nieuwegein,Utrecht,VBO,5.103275,52.035842
Wattbaan,27,,37,3439ML,Nieuwegein,Nieuwegein,Utrecht,VBO,5.103266,52.035811
Wattbaan,27,,38,3439ML,Nieuwegein,Nieuwegein,Utrecht,VBO,5.103261,52.035775
Wattbaan,27,,39,3439ML,Nieuwegein,Nieuwegein,Utrecht,VBO,5.103257,52.035736
Wattbaan,27,,4,3439ML,Nieuwegein,Nieuwegein,Utrecht,VBO,5.103545,52.035663
Wattbaan,27,,40,3439ML,Nieuwegein,Nieuwegein,Utrecht,VBO,5.103253,52.035708
Wattbaan,27,,41,3439ML,Nieuwegein,Nieuwegein,Utrecht,VBO,5.103248,52.035672
Wattbaan,27,,42,3439ML,Nieuwegein,Nieuwegein,Utrecht,VBO,5.103238,52.035635
Wattbaan,27,,43,3439ML,Nieuwegein,Nieuwegein,Utrecht,VBO,5.103234,52.035600
Wattbaan,27,,44,3439ML,Nieuwegein,Nieuwegein,Utrecht,VBO,5.103222,52.035566
Wattbaan,27,,45,3439ML,Nieuwegein,Nieuwegein,Utrecht,VBO,5.103697,52.035758
Wattbaan,27,,46,3439ML,Nieuwegein,Nieuwegein,Utrecht,VBO,5.103688,52.035725
Wattbaan,27,,47,3439ML,Nieuwegein,Nieuwegein,Utrecht,VBO,5.103686,52.035687
Wattbaan,27,,48,3439ML,Nieuwegein,Nieuwegein,Utrecht,VBO,5.103680,52.035651
Wattbaan,27,,49,3439ML,Nieuwegein,Nieuwegein,Utrecht,VBO,5.103671,52.035619
Wattbaan,27,,5,3439ML,Nieuwegein,Nieuwegein,Utrecht,VBO,5.103542,52.035632
Wattbaan,27,,50,3439ML,Nieuwegein,Nieuwegein,Utrecht,VBO,5.103665,52.035584
Wattbaan,27,,51,3439ML,Nieuwegein,Nieuwegein,Utrecht,VBO,5.103662,52.035552
Wattbaan,27,,52,3439ML,Nieuwegein,Nieuwegein,Utrecht,VBO,5.103654,52.035516
Wattbaan,27,,53,3439ML,Nieuwegein,Nieuwegein,Utrecht,VBO,5.103651,52.035481
Wattbaan,27,,54,3439ML,Nieuwegein,Nieuwegein,Utrecht,VBO,5.103647,52.035445
Wattbaan,27,,55,3439ML,Nieuwegein,Nieuwegein,Utrecht,VBO,5.103641,52.035410
Wattbaan,27,,56,3439ML,Nieuwegein,Nieuwegein,Utrecht,VBO,5.103237,52.035916
Wattbaan,27,,57,3439ML,Nieuwegein,Nieuwegein,Utrecht,VBO,5.103229,52.035884
Wattbaan,27,,58,3439ML,Nieuwegein,Nieuwegein,Utrecht,VBO,5.103227,52.035852
Wattbaan,27,,59,3439ML,Nieuwegein,Nieuwegein,Utrecht,VBO,5.103218,52.035813
Wattbaan,27,,6,3439ML,Nieuwegein,Nieuwegein,Utrecht,VBO,5.103537,52.035597
Wattbaan,27,,60,3439ML,Nieuwegein,Nieuwegein,Utrecht,VBO,5.103217,52.035782
Wattbaan,27,,61,3439ML,Nieuwegein,Nieuwegein,Utrecht,VBO,5.103209,52.035742
Wattbaan,27,,62,3439ML,Nieuwegein,Nieuwegein,Utrecht,VBO,5.103204,52.035707
Wattbaan,27,,63,3439ML,Nieuwegein,Nieuwegein,Utrecht,VBO,5.103201,52.035675
Wattbaan,27,,64,3439ML,Nieuwegein,Nieuwegein,Utrecht,VBO,5.103195,52.035639
Wattbaan,27,,65,3439ML,Nieuwegein,Nieuwegein,Utrecht,VBO,5.103189,52.035603
Wattbaan,27,,66,3439ML,Nieuwegein,Nieuwegein,Utrecht,VBO,5.103183,52.035568
Wattbaan,27,,67,3439ML,Nieuwegein,Nieuwegein,Utrecht,VBO,5.103186,52.035922
Wattbaan,27,,68,3439ML,Nieuwegein,Nieuwegein,Utrecht,VBO,5.103183,52.035890
Wattbaan,27,,69,3439ML,Nieuwegein,Nieuwegein,Utrecht,VBO,5.103178,52.035855
Wattbaan,27,,7,3439ML,Nieuwegein,Nieuwegein,Utrecht,VBO,5.103533,52.035561
Wattbaan,27,,70,3439ML,Nieuwegein,Nieuwegein,Utrecht,VBO,5.103172,52.035819
Wattbaan,27,,71,3439ML,Nieuwegein,Nieuwegein,Utrecht,VBO,5.103166,52.035784
Wattbaan,27,,72,3439ML,Nieuwegein,Nieuwegein,Utrecht,VBO,5.103160,52.035749
Wattbaan,27,,73,3439ML,Nieuwegein,Nieuwegein,Utrecht,VBO,5.103154,52.035713
Wattbaan,27,,74,3439ML,Nieuwegein,Nieuwegein,Utrecht,VBO,5.103149,52.035678
Wattbaan,27,,75,3439ML,Nieuwegein,Nieuwegein,Utrecht,VBO,5.103145,52.035642
Wattbaan,27,,76,3439ML,Nieuwegein,Nieuwegein,Utrecht,VBO,5.103138,52.035606
Wattbaan,27,,77,3439ML,Nieuwegein,Nieuwegein,Utrecht,VBO,5.103129,52.035570
Wattbaan,27,,8,3439ML,Nieuwegein,Nieuwegein,Utrecht,VBO,5.103524,52.035524
Wattbaan,27,,9,3439ML,Nieuwegein,Nieuwegein,Utrecht,VBO,5.103517,52.035487
Wattbaan,27,,,3439ML,Nieuwegein,Nieuwegein,Utrecht,VBO,5.103171,52.035731
Wattbaan,31,,,3439ML,Nieuwegein,Nieuwegein,Utrecht,VBO,5.103070,52.034937
Wattbaan,48,,,3439ML,Nieuwegein,Nieuwegein,Utrecht,VBO,5.101925,52.034280
Wattbaan,50,,,3439ML,Nieuwegein,Nieuwegein,Utrecht,VBO,5.101546,52.034276
Wattbaan,51,,1,3439ML,Nieuwegein,Nieuwegein,Utrecht,VBO,5.102990,52.034160
Wattbaan,51,,10,3439ML,Nieuwegein,Nieuwegein,Utrecht,VBO,5.103120,52.034328
Wattbaan,51,,11,3439ML,Nieuwegein,Nieuwegein,Utrecht,VBO,5.103136,52.034382
Wattbaan,51,,12,3439ML,Nieuwegein,Nieuwegein,Utrecht,VBO,5.103144,52.034456
Wattbaan,51,,13,3439ML,Nieuwegein,Nieuwegein,Utrecht,VBO,5.103271,52.034479
Wattbaan,51,,14,3439ML,Nieuwegein,Nieuwegein,Utrecht,VBO,5.103245,52.034359
Wattbaan,51,,15,3439ML,Nieuwegein,Nieuwegein,Utrecht,VBO,5.103218,52.034229
Wattbaan,51,,16,3439ML,Nieuwegein,Nieuwegein,Utrecht,VBO,5.103148,52.034497
Wattbaan,51,,2,3439ML,Nieuwegein,Nieuwegein,Utrecht,VBO,5.103003,52.034233
Wattbaan,51,,3,3439ML,Nieuwegein,Nieuwegein,Utrecht,VBO,5.103020,52.034303
Wattbaan,51,,4,3439ML,Nieuwegein,Nieuwegein,Utrecht,VBO,5.103027,52.034378
Wattbaan,51,,5,3439ML,Nieuwegein,Nieuwegein,Utrecht,VBO,5.103033,52.034441
Wattbaan,51,,6,3439ML,Nieuwegein,Nieuwegein,Utrecht,VBO,5.103052,52.034501
Wattbaan,51,,7,3439ML,Nieuwegein,Nieuwegein,Utrecht,VBO,5.103091,52.034143
Wattbaan,51,,8,3439ML,Nieuwegein,Nieuwegein,Utrecht,VBO,5.103100,52.034215
Wattbaan,51,,9,3439ML,Nieuwegein,Nieuwegein,Utrecht,VBO,5.103110,52.034261
Wattbaan,52,,,3439ML,Nieuwegein,Nieuwegein,Utrecht,VBO,5.101624,52.034046
Tuiniersdijk,1,,,3439MM,Nieuwegein,Nieuwegein,Utrecht,VBO,5.105897,52.044840
Edisonbaan,4,,,3439MN,Nieuwegein,Nieuwegein,Utrecht,VBO,5.102148,52.034720
Edisonbaan,6,,,3439MN,Nieuwegein,Nieuwegein,Utrecht,VBO,5.100941,52.034490
Edisonbaan,8,,,3439MN,Nieuwegein,Nieuwegein,Utrecht,VBO,5.101459,52.034701
Edisonbaan,10,,,3439MN,Nieuwegein,Nieuwegein,Utrecht,VBO,5.100869,52.034740
Edisonbaan,12,,,3439MN,Nieuwegein,Nieuwegein,Utrecht,VBO,5.099445,52.034972
Edisonbaan,13,,,3439MN,Nieuwegein,Nieuwegein,Utrecht,VBO,5.099040,52.033915
Edisonbaan,14,A,,3439MN,Nieuwegein,Nieuwegein,Utrecht,VBO,5.096974,52.034905
Edisonbaan,14,B,,3439MN,Nieuwegein,Nieuwegein,Utrecht,VBO,5.096363,52.034968
Edisonbaan,14,C,,3439MN,Nieuwegein,Nieuwegein,Utrecht,VBO,5.095784,52.035006
Edisonbaan,14,D,,3439MN,Nieuwegein,Nieuwegein,Utrecht,VBO,5.095226,52.035094
Edisonbaan,14,E,,3439MN,Nieuwegein,Nieuwegein,Utrecht,VBO,5.095120,52.034754
Edisonbaan,14,F,,3439MN,Nieuwegein,Nieuwegein,Utrecht,VBO,5.094945,52.034414
Edisonbaan,14,G,,3439MN,Nieuwegein,Nieuwegein,Utrecht,VBO,5.095498,52.034427
Edisonbaan,14,H,,3439MN,Nieuwegein,Nieuwegein,Utrecht,VBO,5.096093,52.034389
Edisonbaan,14,K,,3439MN,Nieuwegein,Nieuwegein,Utrecht,VBO,5.096691,52.034375
Edisonbaan,14,,,3439MN,Nieuwegein,Nieuwegein,Utrecht,VBO,5.097003,52.035651
Edisonbaan,15,A,,3439MN,Nieuwegein,Nieuwegein,Utrecht,VBO,5.099101,52.033414
Edisonbaan,15,B,,3439MN,Nieuwegein,Nieuwegein,Utrecht,VBO,5.098966,52.033531
Edisonbaan,15,C,,3439MN,Nieuwegein,Nieuwegein,Utrecht,VBO,5.098881,52.033571
Edisonbaan,15,,,3439MN,Nieuwegein,Nieuwegein,Utrecht,VBO,5.099228,52.033396
Edisonbaan,16,,,3439MN,Nieuwegein,Nieuwegein,Utrecht,VBO,5.098550,52.033914
Edisonbaan,17,,,3439MN,Nieuwegein,Nieuwegein,Utrecht,VBO,5.098999,52.033141
Edisonbaan,18,A,,3439MN,Nieuwegein,Nieuwegein,Utrecht,VBO,5.098275,52.033529
Edisonbaan,18,B,,3439MN,Nieuwegein,Nieuwegein,Utrecht,VBO,5.098199,52.033539
Edisonbaan,18,C,,3439MN,Nieuwegein,Nieuwegein,Utrecht,VBO,5.098104,52.033555
Edisonbaan,18,,,3439MN,Nieuwegein,Nieuwegein,Utrecht,VBO,5.098340,52.033519
Edisonbaan,20,,,3439MN,Nieuwegein,Nieuwegein,Utrecht,VBO,5.098179,52.033061
Edisonbaan,22,,,3439MN,Nieuwegein,Nieuwegein,Utrecht,VBO,5.098171,52.032580
Edisonbaan,23,,,3439MN,Nieuwegein,Nieuwegein,Utrecht,VBO,5.098926,52.032911
Edisonbaan,24,,,3439MN,Nieuwegein,Nieuwegein,Utrecht,VBO,5.098135,52.032288
Edisonbaan,26,,,3439MN,Nieuwegein,Nieuwegein,Utrecht,VBO,5.098998,52.032544
Pascalbaan,1,,,3439MP,Nieuwegein,Nieuwegein,Utrecht,VBO,5.104123,52.028265
Pascalbaan,2,,,3439MP,Nieuwegein,Nieuwegein,Utrecht,VBO,5.104259,52.028705
Pascalbaan,3,,,3439MP,Nieuwegein,Nieuwegein,Utrecht,VBO,5.102702,52.028322
Marconibaan,1,A,,3439MR,Nieuwegein,Nieuwegein,Utrecht,VBO,5.099950,52.031586
Marconibaan,1,B,,3439MR,Nieuwegein,Nieuwegein,Utrecht,VBO,5.099891,52.031427
Marconibaan,1,C,,3439MR,Nieuwegein,Nieuwegein,Utrecht,VBO,5.100010,52.031578
Marconibaan,1,D,,3439MR,Nieuwegein,Nieuwegein,Utrecht,VBO,5.100061,52.031570
Marconibaan,1,E,,3439MR,Nieuwegein,Nieuwegein,Utrecht,VBO,5.099946,52.031423
Marconibaan,1,F,,3439MR,Nieuwegein,Nieuwegein,Utrecht,VBO,5.100005,52.031414
Marconibaan,1,,,3439MR,Nieuwegein,Nieuwegein,Utrecht,VBO,5.099891,52.031559
Marconibaan,5,,,3439MR,Nieuwegein,Nieuwegein,Utrecht,VBO,5.099333,52.029201
Marconibaan,37,,,3439MR,Nieuwegein,Nieuwegein,Utrecht,VBO,5.099284,52.028873
Marconibaan,41,,,3439MR,Nieuwegein,Nieuwegein,Utrecht,VBO,5.099227,52.028885
Marconibaan,43,,,3439MR,Nieuwegein,Nieuwegein,Utrecht,VBO,5.099167,52.028894
Marconibaan,49,,,3439MR,Nieuwegein,Nieuwegein,Utrecht,VBO,5.099123,52.028906
Marconibaan,53,,,3439MR,Nieuwegein,Nieuwegein,Utrecht,VBO,5.099056,52.028906
Marconibaan,57,A,,3439MR,Nieuwegein,Nieuwegein,Utrecht,VBO,5.100989,52.028328
Marconibaan,57,B,,3439MR,Nieuwegein,Nieuwegein,Utrecht,VBO,5.100961,52.028351
Marconibaan,57,C,,3439MR,Nieuwegein,Nieuwegein,Utrecht,VBO,5.100938,52.028375
Marconibaan,57,,,3439MR,Nieuwegein,Nieuwegein,Utrecht,VBO,5.101019,52.028308
Marconibaan,59,B,,3439MR,Nieuwegein,Nieuwegein,Utrecht,VBO,5.100878,52.028420
Marconibaan,59,C,,3439MR,Nieuwegein,Nieuwegein,Utrecht,VBO,5.100851,52.028443
Marconibaan,59,,,3439MR,Nieuwegein,Nieuwegein,Utrecht,VBO,5.100914,52.028398
Marconibaan,61,,,3439MR,Nieuwegein,Nieuwegein,Utrecht,VBO,5.101367,52.028520
Marconibaan,63,,,3439MR,Nieuwegein,Nieuwegein,Utrecht,VBO,5.101146,52.028422
Marconibaan,65,,,3439MR,Nieuwegein,Nieuwegein,Utrecht,VBO,5.101280,52.028438
Marconibaan,2,,,3439MS,Nieuwegein,Nieuwegein,Utrecht,VBO,5.099514,52.032134
Marconibaan,4,A,,3439MS,Nieuwegein,Nieuwegein,Utrecht,VBO,5.099510,52.032317
Marconibaan,4,,,3439MS,Nieuwegein,Nieuwegein,Utrecht,VBO,5.099587,52.032304
Marconibaan,6,,,3439MS,Nieuwegein,Nieuwegein,Utrecht,VBO,5.099375,52.031743
Marconibaan,8,,,3439MS,Nieuwegein,Nieuwegein,Utrecht,VBO,5.099313,52.031565
Marconibaan,10,A,,3439MS,Nieuwegein,Nieuwegein,Utrecht,VBO,5.098606,52.031688
Marconibaan,10,B,,3439MS,Nieuwegein,Nieuwegein,Utrecht,VBO,5.098566,52.031587
Marconibaan,10,,,3439MS,Nieuwegein,Nieuwegein,Utrecht,VBO,5.098586,52.031636
Marconibaan,12,,,3439MS,Nieuwegein,Nieuwegein,Utrecht,VBO,5.098046,52.031847
Marconibaan,18,,,3439MS,Nieuwegein,Nieuwegein,Utrecht,VBO,5.099561,52.027684
Marconibaan,20,,,3439MS,Nieuwegein,Nieuwegein,Utrecht,VBO,5.100200,52.027621
Marconibaan,26,,,3439MS,Nieuwegein,Nieuwegein,Utrecht,VBO,5.097370,52.028908
Marconibaan,40,,,3439MS,Nieuwegein,Nieuwegein,Utrecht,VBO,5.100359,52.026311
Marconibaan,42,A,,3439MS,Nieuwegein,Nieuwegein,Utrecht,VBO,5.101936,52.027437
Marconibaan,42,B,,3439MS,Nieuwegein,Nieuwegein,Utrecht,VBO,5.101885,52.027300
Marconibaan,42,C,,3439MS,Nieuwegein,Nieuwegein,Utrecht,VBO,5.101845,52.027197
Marconibaan,42,D,,3439MS,Nieuwegein,Nieuwegein,Utrecht,VBO,5.101798,52.027083
Marconibaan,42,E,,3439MS,Nieuwegein,Nieuwegein,Utrecht,VBO,5.101747,52.026957
Marconibaan,42,F,,3439MS,Nieuwegein,Nieuwegein,Utrecht,VBO,5.101681,52.026813
Marconibaan,42,G,,3439MS,Nieuwegein,Nieuwegein,Utrecht,VBO,5.101619,52.026640
Marconibaan,42,H,,3439MS,Nieuwegein,Nieuwegein,Utrecht,VBO,5.101353,52.026675
Marconibaan,42,K,,3439MS,Nieuwegein,Nieuwegein,Utrecht,VBO,5.101393,52.026809
Marconibaan,42,L,,3439MS,Nieuwegein,Nieuwegein,Utrecht,VBO,5.101451,52.026941
Marconibaan,42,M,,3439MS,Nieuwegein,Nieuwegein,Utrecht,VBO,5.101498,52.027073
Marconibaan,42,N,,3439MS,Nieuwegein,Nieuwegein,Utrecht,VBO,5.101542,52.027194
Marconibaan,42,O,,3439MS,Nieuwegein,Nieuwegein,Utrecht,VBO,5.101583,52.027304
Marconibaan,42,,,3439MS,Nieuwegein,Nieuwegein,Utrecht,VBO,5.101659,52.027466
Marconibaan,44,A,,3439MS,Nieuwegein,Nieuwegein,Utrecht,VBO,5.102470,52.027565
Marconibaan,44,,,3439MS,Nieuwegein,Nieuwegein,Utrecht,VBO,5.102752,52.027471
Marconibaan,46,,,3439MS,Nieuwegein,Nieuwegein,Utrecht,VBO,5.103521,52.027506
Kelvinbaan,16,A,,3439MT,Nieuwegein,Nieuwegein,Utrecht,VBO,5.095728,52.030991
Kelvinbaan,16,,,3439MT,Nieuwegein,Nieuwegein,Utrecht,VBO,5.095812,52.031254
Kelvinbaan,40,,,3439MT,Nieuwegein,Nieuwegein,Utrecht,VBO,5.095631,52.033355
Kelvinbaan,42,,,3439MT,Nieuwegein,Nieuwegein,Utrecht,VBO,5.095645,52.033451
Kelvinbaan,44,,,3439MT,Nieuwegein,Nieuwegein,Utrecht,VBO,5.095783,52.033671
Dieselbaan,5,A,,3439MV,Nieuwegein,Nieuwegein,Utrecht,VBO,5.096610,52.028408
Dieselbaan,5,,,3439MV,Nieuwegein,Nieuwegein,Utrecht,VBO,5.096299,52.028763
Dieselbaan,7,,,3439MV,Nieuwegein,Nieuwegein,Utrecht,VBO,5.096922,52.028956
Dieselbaan,10,,,3439MV,Nieuwegein,Nieuwegein,Utrecht,VBO,5.097907,52.030886
Hof van Plettenburg,1,,,3439MW,Nieuwegein,Nieuwegein,Utrecht,VBO,5.099314,52.034717
Hof van Plettenburg,2,,,3439MW,Nieuwegein,Nieuwegein,Utrecht,VBO,5.099279,52.034623
Hof van Plettenburg,3,,,3439MW,Nieuwegein,Nieuwegein,Utrecht,VBO,5.099211,52.034443
Hof van Plettenburg,4,,,3439MW,Nieuwegein,Nieuwegein,Utrecht,VBO,5.099180,52.034353
Hof van Plettenburg,5,,,3439MW,Nieuwegein,Nieuwegein,Utrecht,VBO,5.099145,52.034262
Hof van Plettenburg,6,,,3439MW,Nieuwegein,Nieuwegein,Utrecht,VBO,5.099112,52.034167
Hof van Plettenburg,7,,,3439MW,Nieuwegein,Nieuwegein,Utrecht,VBO,5.099287,52.034721
Hof van Plettenburg,8,,,3439MW,Nieuwegein,Nieuwegein,Utrecht,VBO,5.099250,52.034627
Hof van Plettenburg,9,,,3439MW,Nieuwegein,Nieuwegein,Utrecht,VBO,5.099222,52.034537
Hof van Plettenburg,10,,,3439MW,Nieuwegein,Nieuwegein,Utrecht,VBO,5.099184,52.034447
Hof van Plettenburg,11,,,3439MW,Nieuwegein,Nieuwegein,Utrecht,VBO,5.099153,52.034356
Hof van Plettenburg,12,,,3439MW,Nieuwegein,Nieuwegein,Utrecht,VBO,5.099122,52.034265
Hof van Plettenburg,13,,,3439MW,Nieuwegein,Nieuwegein,Utrecht,VBO,5.099085,52.034171
Hof van Plettenburg,14,,,3439MW,Nieuwegein,Nieuwegein,Utrecht,VBO,5.099263,52.034723
Hof van Plettenburg,15,,,3439MW,Nieuwegein,Nieuwegein,Utrecht,VBO,5.099225,52.034622
Hof van Plettenburg,16,,,3439MW,Nieuwegein,Nieuwegein,Utrecht,VBO,5.099196,52.034539
Hof van Plettenburg,17,,,3439MW,Nieuwegein,Nieuwegein,Utrecht,VBO,5.099162,52.034451
Hof van Plettenburg,18,,,3439MW,Nieuwegein,Nieuwegein,Utrecht,VBO,5.099129,52.034361
Hof van Plettenburg,19,,,3439MW,Nieuwegein,Nieuwegein,Utrecht,VBO,5.099095,52.034270
Hof van Plettenburg,20,,,3439MW,Nieuwegein,Nieuwegein,Utrecht,VBO,5.099060,52.034176
Hof van Plettenburg,21,,,3439MW,Nieuwegein,Nieuwegein,Utrecht,VBO,5.099243,52.034729
Hof van Plettenburg,22,,,3439MW,Nieuwegein,Nieuwegein,Utrecht,VBO,5.099198,52.034631
Hof van Plettenburg,23,,,3439MW,Nieuwegein,Nieuwegein,Utrecht,VBO,5.099174,52.034546
Hof van Plettenburg,24,,,3439MW,Nieuwegein,Nieuwegein,Utrecht,VBO,5.099134,52.034456
Hof van Plettenburg,25,,,3439MW,Nieuwegein,Nieuwegein,Utrecht,VBO,5.099101,52.034365
Hof van Plettenburg,26,,,3439MW,Nieuwegein,Nieuwegein,Utrecht,VBO,5.099068,52.034273
Hof van Plettenburg,27,,,3439MW,Nieuwegein,Nieuwegein,Utrecht,VBO,5.099035,52.034180
Hof van Plettenburg,28,,,3439MW,Nieuwegein,Nieuwegein,Utrecht,VBO,5.099211,52.034728
Hof van Plettenburg,29,,,3439MW,Nieuwegein,Nieuwegein,Utrecht,VBO,5.099175,52.034632
Hof van Plettenburg,30,,,3439MW,Nieuwegein,Nieuwegein,Utrecht,VBO,5.099143,52.034547
Hof van Plettenburg,31,,,3439MW,Nieuwegein,Nieuwegein,Utrecht,VBO,5.099428,52.034227
Hof van Plettenburg,32,,,3439MW,Nieuwegein,Nieuwegein,Utrecht,VBO,5.099505,52.034220
Hof van Plettenburg,33,,,3439MW,Nieuwegein,Nieuwegein,Utrecht,VBO,5.099588,52.034209
Hof van Plettenburg,34,,,3439MW,Nieuwegein,Nieuwegein,Utrecht,VBO,5.099666,52.034196
Hof van Plettenburg,35,,,3439MW,Nieuwegein,Nieuwegein,Utrecht,VBO,5.099738,52.034187
Hof van Plettenburg,36,,,3439MW,Nieuwegein,Nieuwegein,Utrecht,VBO,5.099822,52.034175
Hof van Plettenburg,37,,,3439MW,Nieuwegein,Nieuwegein,Utrecht,VBO,5.099905,52.034394
Hof van Plettenburg,38,,,3439MW,Nieuwegein,Nieuwegein,Utrecht,VBO,5.099824,52.034405
Hof van Plettenburg,39,,,3439MW,Nieuwegein,Nieuwegein,Utrecht,VBO,5.099747,52.034416
Hof van Plettenburg,40,,,3439MW,Nieuwegein,Nieuwegein,Utrecht,VBO,5.099666,52.034426
Hof van Plettenburg,41,,,3439MW,Nieuwegein,Nieuwegein,Utrecht,VBO,5.099594,52.034438
Hof van Plettenburg,42,,,3439MW,Nieuwegein,Nieuwegein,Utrecht,VBO,5.099516,52.034453
Hof van Plettenburg,43,,,3439MW,Nieuwegein,Nieuwegein,Utrecht,VBO,5.099604,52.034718
Hof van Plettenburg,44,,,3439MW,Nieuwegein,Nieuwegein,Utrecht,VBO,5.099689,52.034706
Hof van Plettenburg,45,,,3439MW,Nieuwegein,Nieuwegein,Utrecht,VBO,5.099764,52.034694
Hof van Plettenburg,46,,,3439MW,Nieuwegein,Nieuwegein,Utrecht,VBO,5.099842,52.034683
Hof van Plettenburg,47,,,3439MW,Nieuwegein,Nieuwegein,Utrecht,VBO,5.099920,52.034675
Hof van Plettenburg,48,,,3439MW,Nieuwegein,Nieuwegein,Utrecht,VBO,5.100000,52.034663
Hof van Plettenburg,49,,,3439MW,Nieuwegein,Nieuwegein,Utrecht,VBO,5.100156,52.034640
Hof van Plettenburg,50,,,3439MW,Nieuwegein,Nieuwegein,Utrecht,VBO,5.100238,52.034629
Hof van Plettenburg,51,,,3439MW,Nieuwegein,Nieuwegein,Utrecht,VBO,5.100321,52.034622
Hof van Plettenburg,52,,,3439MW,Nieuwegein,Nieuwegein,Utrecht,VBO,5.100250,52.034430
Hof van Plettenburg,53,,,3439MW,Nieuwegein,Nieuwegein,Utrecht,VBO,5.100230,52.034374
Hof van Plettenburg,54,,,3439MW,Nieuwegein,Nieuwegein,Utrecht,VBO,5.100177,52.034266
Hof van Plettenburg,55,,,3439MW,Nieuwegein,Nieuwegein,Utrecht,VBO,5.100156,52.034208
Hof van Plettenburg,56,,,3439MW,Nieuwegein,Nieuwegein,Utrecht,VBO,5.100139,52.034125
van Musschenbroekbaan,1,,,3439MX,Nieuwegein,Nieuwegein,Utrecht,VBO,5.103479,52.026026
van Musschenbroekbaan,2,,,3439MX,Nieuwegein,Nieuwegein,Utrecht,VBO,5.103332,52.026978
van Musschenbroekbaan,3,A,,3439MX,Nieuwegein,Nieuwegein,Utrecht,VBO,5.103070,52.025836
van Musschenbroekbaan,3,B,,3439MX,Nieuwegein,Nieuwegein,Utrecht,VBO,5.102773,52.025877
van Musschenbroekbaan,3,C,,3439MX,Nieuwegein,Nieuwegein,Utrecht,VBO,5.102503,52.025915
van Musschenbroekbaan,3,D,,3439MX,Nieuwegein,Nieuwegein,Utrecht,VBO,5.102151,52.025962
van Musschenbroekbaan,3,E,,3439MX,Nieuwegein,Nieuwegein,Utrecht,VBO,5.101885,52.025998
van Musschenbroekbaan,3,,,3439MX,Nieuwegein,Nieuwegein,Utrecht,VBO,5.103329,52.025800
van Musschenbroekbaan,4,,,3439MX,Nieuwegein,Nieuwegein,Utrecht,VBO,5.103174,52.026660
van Musschenbroekbaan,6,,,3439MX,Nieuwegein,Nieuwegein,Utrecht,VBO,5.103073,52.026390
van Musschenbroekbaan,8,,,3439MX,Nieuwegein,Nieuwegein,Utrecht,VBO,5.102810,52.026431
van Musschenbroekbaan,14,,,3439MX,Nieuwegein,Nieuwegein,Utrecht,VBO,5.102126,52.026476
van Musschenbroekbaan,16,,,3439MX,Nieuwegein,Nieuwegein,Utrecht,VBO,5.102293,52.026767
Plettenburgerbaan,2,,,3439MZ,Nieuwegein,Nieuwegein,Utrecht,VBO,5.103470,52.031718
Morsebaan,1,A,,3439NA,Nieuwegein,Nieuwegein,Utrecht,VBO,5.106379,52.028617
Morsebaan,1,,,3439NA,Nieuwegein,Nieuwegein,Utrecht,VBO,5.106025,52.027794
Morsebaan,2,,,3439NA,Nieuwegein,Nieuwegein,Utrecht,VBO,5.105221,52.027189
Celsiusbaan,1,A,,3439NC,Nieuwegein,Nieuwegein,Utrecht,VBO,5.107624,52.032825
Celsiusbaan,2,A,,3439NC,Nieuwegein,Nieuwegein,Utrecht,VBO,5.107351,52.032171
Celsiusbaan,2,,,3439NC,Nieuwegein,Nieuwegein,Utrecht,VBO,5.106704,52.032289
Celsiusbaan,3,,,3439NC,Nieuwegein,Nieuwegein,Utrecht,VBO,5.109581,52.032194
Celsiusbaan,4,A,,3439NC,Nieuwegein,Nieuwegein,Utrecht,VBO,5.109036,52.031983
Celsiusbaan,4,B,,3439NC,Nieuwegein,Nieuwegein,Utrecht,VBO,5.108846,52.031803
Celsiusbaan,4,C,,3439NC,Nieuwegein,Nieuwegein,Utrecht,VBO,5.108777,52.031636
Celsiusbaan,4,,,3439NC,Nieuwegein,Nieuwegein,Utrecht,VBO,5.108818,52.032018
Celsiusbaan,6,A,,3439NC,Nieuwegein,Nieuwegein,Utrecht,VBO,5.109702,52.031891
Celsiusbaan,6,B,,3439NC,Nieuwegein,Nieuwegein,Utrecht,VBO,5.109688,52.031670
Celsiusbaan,6,C,,3439NC,Nieuwegein,Nieuwegein,Utrecht,VBO,5.109628,52.031514
Celsiusbaan,6,,,3439NC,Nieuwegein,Nieuwegein,Utrecht,VBO,5.109502,52.031917
Celsiusbaan,8,,,3439NC,Nieuwegein,Nieuwegein,Utrecht,VBO,5.109626,52.031098
Celsiusbaan,10,,,3439NC,Nieuwegein,Nieuwegein,Utrecht,VBO,5.108845,52.030136
Perkinsbaan,1,,,3439ND,Nieuwegein,Nieuwegein,Utrecht,VBO,5.102761,52.033525
Perkinsbaan,11,A,,3439ND,Nieuwegein,Nieuwegein,Utrecht,VBO,5.100358,52.032794
Perkinsbaan,11,C,,3439ND,Nieuwegein,Nieuwegein,Utrecht,VBO,5.100374,52.032833
Perkinsbaan,11,,,3439ND,Nieuwegein,Nieuwegein,Utrecht,VBO,5.100335,52.032731
Perkinsbaan,12,A,,3439ND,Nieuwegein,Nieuwegein,Utrecht,VBO,5.099794,52.033066
Perkinsbaan,12,B,,3439ND,Nieuwegein,Nieuwegein,Utrecht,VBO,5.099679,52.033221
Perkinsbaan,12,C,,3439ND,Nieuwegein,Nieuwegein,Utrecht,VBO,5.099827,52.033169
Perkinsbaan,12,D,,3439ND,Nieuwegein,Nieuwegein,Utrecht,VBO,5.099810,52.033116
Perkinsbaan,12,E,,3439ND,Nieuwegein,Nieuwegein,Utrecht,VBO,5.099639,52.033128
Perkinsbaan,12,F,,3439ND,Nieuwegein,Nieuwegein,Utrecht,VBO,5.099846,52.033225
Perkinsbaan,13,A,,3439ND,Nieuwegein,Nieuwegein,Utrecht,VBO,5.100445,52.032815
Perkinsbaan,13,,,3439ND,Nieuwegein,Nieuwegein,Utrecht,VBO,5.100411,52.032716
Perkinsbaan,14,,,3439ND,Nieuwegein,Nieuwegein,Utrecht,VBO,5.099751,52.032800
Perkinsbaan,15,A,,3439ND,Nieuwegein,Nieuwegein,Utrecht,VBO,5.100492,52.032720
Perkinsbaan,15,B,,3439ND,Nieuwegein,Nieuwegein,Utrecht,VBO,5.100527,52.032804
Perkinsbaan,15,,,3439ND,Nieuwegein,Nieuwegein,Utrecht,VBO,5.100478,52.032684
Perkinsbaan,17,A,,3439ND,Nieuwegein,Nieuwegein,Utrecht,VBO,5.100618,52.032797
Perkinsbaan,17,,,3439ND,Nieuwegein,Nieuwegein,Utrecht,VBO,5.100575,52.032693
Fultonbaan,2,A,,3439NE,Nieuwegein,Nieuwegein,Utrecht,VBO,5.100938,52.033129
Fultonbaan,2,,,3439NE,Nieuwegein,Nieuwegein,Utrecht,VBO,5.100901,52.033164
Fultonbaan,4,A,,3439NE,Nieuwegein,Nieuwegein,Utrecht,VBO,5.100939,52.033025
Fultonbaan,4,B,,3439NE,Nieuwegein,Nieuwegein,Utrecht,VBO,5.101021,52.033068
Fultonbaan,4,,,3439NE,Nieuwegein,Nieuwegein,Utrecht,VBO,5.100834,52.033102
Fultonbaan,6,A,,3439NE,Nieuwegein,Nieuwegein,Utrecht,VBO,5.100826,52.033005
Fultonbaan,6,,,3439NE,Nieuwegein,Nieuwegein,Utrecht,VBO,5.100771,52.033047
Fultonbaan,10,A,,3439NE,Nieuwegein,Nieuwegein,Utrecht,VBO,5.102829,52.032500
Fultonbaan,10,,,3439NE,Nieuwegein,Nieuwegein,Utrecht,VBO,5.102792,52.032360
Fultonbaan,12,,,3439NE,Nieuwegein,Nieuwegein,Utrecht,VBO,5.102768,52.032454
Fultonbaan,14,,,3439NE,Nieuwegein,Nieuwegein,Utrecht,VBO,5.102743,52.032366
Fultonbaan,15,,,3439NE,Nieuwegein,Nieuwegein,Utrecht,VBO,5.101037,52.030264
Fultonbaan,16,,,3439NE,Nieuwegein,Nieuwegein,Utrecht,VBO,5.102699,52.032373
Fultonbaan,18,,,3439NE,Nieuwegein,Nieuwegein,Utrecht,VBO,5.102724,52.032523
Fultonbaan,20,,,3439NE,Nieuwegein,Nieuwegein,Utrecht,VBO,5.102648,52.032378
Fultonbaan,22,,,3439NE,Nieuwegein,Nieuwegein,Utrecht,VBO,5.102415,52.032643
Fultonbaan,24,,,3439NE,Nieuwegein,Nieuwegein,Utrecht,VBO,5.102434,52.032466
Fultonbaan,30,,,3439NE,Nieuwegein,Nieuwegein,Utrecht,VBO,5.102485,52.031830
Fultonbaan,50,,,3439NE,Nieuwegein,Nieuwegein,Utrecht,VBO,5.102193,52.031440
Fultonbaan,52,,,3439NE,Nieuwegein,Nieuwegein,Utrecht,VBO,5.102380,52.031362
Fultonbaan,54,,,3439NE,Nieuwegein,Nieuwegein,Utrecht,VBO,5.102327,52.031218
Fultonbaan,56,A,,3439NE,Nieuwegein,Nieuwegein,Utrecht,VBO,5.102226,52.031107
Fultonbaan,56,,,3439NE,Nieuwegein,Nieuwegein,Utrecht,VBO,5.102282,52.031098
Fultonbaan,58,,,3439NE,Nieuwegein,Nieuwegein,Utrecht,VBO,5.102242,52.030960
Fultonbaan,60,,,3439NE,Nieuwegein,Nieuwegein,Utrecht,VBO,5.102007,52.030939
Fultonbaan,70,,,3439NE,Nieuwegein,Nieuwegein,Utrecht,VBO,5.102137,52.030613
Fultonbaan,80,,,3439NE,Nieuwegein,Nieuwegein,Utrecht,VBO,5.099732,52.030734
Coltbaan,1,,,3439NG,Nieuwegein,Nieuwegein,Utrecht,VBO,5.101530,52.032645
Coltbaan,2,,,3439NG,Nieuwegein,Nieuwegein,Utrecht,VBO,5.100549,52.032274
Coltbaan,4,A,,3439NG,Nieuwegein,Nieuwegein,Utrecht,VBO,5.100385,52.031443
Coltbaan,4,C,,3439NG,Nieuwegein,Nieuwegein,Utrecht,VBO,5.100467,52.031514
Coltbaan,4,D,,3439NG,Nieuwegein,Nieuwegein,Utrecht,VBO,5.100401,52.031347
Coltbaan,4,E,,3439NG,Nieuwegein,Nieuwegein,Utrecht,VBO,5.100522,52.031509
Coltbaan,4,F,,3439NG,Nieuwegein,Nieuwegein,Utrecht,VBO,5.100458,52.031338
Coltbaan,5,,,3439NG,Nieuwegein,Nieuwegein,Utrecht,VBO,5.101612,52.032572
Coltbaan,7,,,3439NG,Nieuwegein,Nieuwegein,Utrecht,VBO,5.101640,52.032654
Coltbaan,9,,,3439NG,Nieuwegein,Nieuwegein,Utrecht,VBO,5.101665,52.032744
Coltbaan,11,,,3439NG,Nieuwegein,Nieuwegein,Utrecht,VBO,5.101724,52.032563
Coltbaan,13,,,3439NG,Nieuwegein,Nieuwegein,Utrecht,VBO,5.101750,52.032642
Coltbaan,15,,,3439NG,Nieuwegein,Nieuwegein,Utrecht,VBO,5.101781,52.032727
Coltbaan,17,,,3439NG,Nieuwegein,Nieuwegein,Utrecht,VBO,5.101842,52.032607
Coltbaan,19,,,3439NG,Nieuwegein,Nieuwegein,Utrecht,VBO,5.101877,52.032703
Coltbaan,21,,,3439NG,Nieuwegein,Nieuwegein,Utrecht,VBO,5.101256,52.032182
Coltbaan,23,A,,3439NG,Nieuwegein,Nieuwegein,Utrecht,VBO,5.101272,52.031716
Coltbaan,23,,,3439NG,Nieuwegein,Nieuwegein,Utrecht,VBO,5.101159,52.031730
Coltbaan,25,A,,3439NG,Nieuwegein,Nieuwegein,Utrecht,VBO,5.101179,52.031456
Coltbaan,25,,,3439NG,Nieuwegein,Nieuwegein,Utrecht,VBO,5.101064,52.031475
Coltbaan,27,A,,3439NG,Nieuwegein,Nieuwegein,Utrecht,VBO,5.100912,52.031285
Coltbaan,27,B,,3439NG,Nieuwegein,Nieuwegein,Utrecht,VBO,5.100929,52.031111
Coltbaan,27,,,3439NG,Nieuwegein,Nieuwegein,Utrecht,VBO,5.100848,52.031124
Coltbaan,29,A,,3439NG,Nieuwegein,Nieuwegein,Utrecht,VBO,5.101015,52.031099
Coltbaan,29,,,3439NG,Nieuwegein,Nieuwegein,Utrecht,VBO,5.100994,52.031274
Coltbaan,31,,,3439NG,Nieuwegein,Nieuwegein,Utrecht,VBO,5.101075,52.031263
Coltbaan,33,A,,3439NG,Nieuwegein,Nieuwegein,Utrecht,VBO,5.101163,52.031218
Coltbaan,33,,,3439NG,Nieuwegein,Nieuwegein,Utrecht,VBO,5.101116,52.031089
Einsteinbaan,1,,,3439NJ,Nieuwegein,Nieuwegein,Utrecht,VBO,5.103294,52.038118
Einsteinbaan,2,,1,3439NJ,Nieuwegein,Nieuwegein,Utrecht,VBO,5.103287,52.039696
Einsteinbaan,2,,10,3439NJ,Nieuwegein,Nieuwegein,Utrecht,VBO,5.103345,52.040067
Einsteinbaan,2,,11,3439NJ,Nieuwegein,Nieuwegein,Utrecht,VBO,5.103351,52.040108
Einsteinbaan,2,,12,3439NJ,Nieuwegein,Nieuwegein,Utrecht,VBO,5.103359,52.040155
Einsteinbaan,2,,13,3439NJ,Nieuwegein,Nieuwegein,Utrecht,VBO,5.103368,52.040195
Einsteinbaan,2,,14,3439NJ,Nieuwegein,Nieuwegein,Utrecht,VBO,5.103371,52.040232
Einsteinbaan,2,,15,3439NJ,Nieuwegein,Nieuwegein,Utrecht,VBO,5.103235,52.039696
Einsteinbaan,2,,16,3439NJ,Nieuwegein,Nieuwegein,Utrecht,VBO,5.103245,52.039736
Einsteinbaan,2,,17,3439NJ,Nieuwegein,Nieuwegein,Utrecht,VBO,5.103249,52.039774
Einsteinbaan,2,,18,3439NJ,Nieuwegein,Nieuwegein,Utrecht,VBO,5.103253,52.039805
Einsteinbaan,2,,19,3439NJ,Nieuwegein,Nieuwegein,Utrecht,VBO,5.103263,52.039846
Einsteinbaan,2,,2,3439NJ,Nieuwegein,Nieuwegein,Utrecht,VBO,5.103295,52.039744
Einsteinbaan,2,,20,3439NJ,Nieuwegein,Nieuwegein,Utrecht,VBO,5.103264,52.039877
Einsteinbaan,2,,21,3439NJ,Nieuwegein,Nieuwegein,Utrecht,VBO,5.103270,52.039919
Einsteinbaan,2,,22,3439NJ,Nieuwegein,Nieuwegein,Utrecht,VBO,5.103281,52.039956
Einsteinbaan,2,,23,3439NJ,Nieuwegein,Nieuwegein,Utrecht,VBO,5.103287,52.039993
Einsteinbaan,2,,24,3439NJ,Nieuwegein,Nieuwegein,Utrecht,VBO,5.103288,52.040022
Einsteinbaan,2,,25,3439NJ,Nieuwegein,Nieuwegein,Utrecht,VBO,5.103293,52.040058
Einsteinbaan,2,,26,3439NJ,Nieuwegein,Nieuwegein,Utrecht,VBO,5.103303,52.040101
Einsteinbaan,2,,27,3439NJ,Nieuwegein,Nieuwegein,Utrecht,VBO,5.103308,52.040137
Einsteinbaan,2,,28,3439NJ,Nieuwegein,Nieuwegein,Utrecht,VBO,5.103309,52.040170
Einsteinbaan,2,,29,3439NJ,Nieuwegein,Nieuwegein,Utrecht,VBO,5.103317,52.040202
Einsteinbaan,2,,3,3439NJ,Nieuwegein,Nieuwegein,Utrecht,VBO,5.103300,52.039786
Einsteinbaan,2,,30,3439NJ,Nieuwegein,Nieuwegein,Utrecht,VBO,5.103323,52.040238
Einsteinbaan,2,,31,3439NJ,Nieuwegein,Nieuwegein,Utrecht,VBO,5.103216,52.039919
Einsteinbaan,2,,32,3439NJ,Nieuwegein,Nieuwegein,Utrecht,VBO,5.103227,52.039952
Einsteinbaan,2,,33,3439NJ,Nieuwegein,Nieuwegein,Utrecht,VBO,5.103232,52.039991
Einsteinbaan,2,,34,3439NJ,Nieuwegein,Nieuwegein,Utrecht,VBO,5.103232,52.040032
Einsteinbaan,2,,35,3439NJ,Nieuwegein,Nieuwegein,Utrecht,VBO,5.103248,52.040067
Einsteinbaan,2,,36,3439NJ,Nieuwegein,Nieuwegein,Utrecht,VBO,5.103250,52.040097
Einsteinbaan,2,,37,3439NJ,Nieuwegein,Nieuwegein,Utrecht,VBO,5.103259,52.040139
Einsteinbaan,2,,38,3439NJ,Nieuwegein,Nieuwegein,Utrecht,VBO,5.103265,52.040176
Einsteinbaan,2,,39,3439NJ,Nieuwegein,Nieuwegein,Utrecht,VBO,5.103271,52.040212
Einsteinbaan,2,,4,3439NJ,Nieuwegein,Nieuwegein,Utrecht,VBO,5.103309,52.039827
Einsteinbaan,2,,40,3439NJ,Nieuwegein,Nieuwegein,Utrecht,VBO,5.103273,52.040241
Einsteinbaan,2,,41,3439NJ,Nieuwegein,Nieuwegein,Utrecht,VBO,5.103172,52.039927
Einsteinbaan,2,,42,3439NJ,Nieuwegein,Nieuwegein,Utrecht,VBO,5.103179,52.039961
Einsteinbaan,2,,43,3439NJ,Nieuwegein,Nieuwegein,Utrecht,VBO,5.103183,52.039991
Einsteinbaan,2,,44,3439NJ,Nieuwegein,Nieuwegein,Utrecht,VBO,5.103190,52.040033
Einsteinbaan,2,,45,3439NJ,Nieuwegein,Nieuwegein,Utrecht,VBO,5.103196,52.040070
Einsteinbaan,2,,46,3439NJ,Nieuwegein,Nieuwegein,Utrecht,VBO,5.103201,52.040100
Einsteinbaan,2,,47,3439NJ,Nieuwegein,Nieuwegein,Utrecht,VBO,5.103205,52.040140
Einsteinbaan,2,,48,3439NJ,Nieuwegein,Nieuwegein,Utrecht,VBO,5.103214,52.040176
Einsteinbaan,2,,49,3439NJ,Nieuwegein,Nieuwegein,Utrecht,VBO,5.103222,52.040215
Einsteinbaan,2,,5,3439NJ,Nieuwegein,Nieuwegein,Utrecht,VBO,5.103314,52.039865
Einsteinbaan,2,,50,3439NJ,Nieuwegein,Nieuwegein,Utrecht,VBO,5.103224,52.040244
Einsteinbaan,2,,6,3439NJ,Nieuwegein,Nieuwegein,Utrecht,VBO,5.103318,52.039907
Einsteinbaan,2,,7,3439NJ,Nieuwegein,Nieuwegein,Utrecht,VBO,5.103325,52.039943
Einsteinbaan,2,,8,3439NJ,Nieuwegein,Nieuwegein,Utrecht,VBO,5.103331,52.039985
Einsteinbaan,2,,9,3439NJ,Nieuwegein,Nieuwegein,Utrecht,VBO,5.103341,52.040035
Einsteinbaan,4,A,,3439NJ,Nieuwegein,Nieuwegein,Utrecht,VBO,5.103597,52.039404
Einsteinbaan,4,B,,3439NJ,Nieuwegein,Nieuwegein,Utrecht,VBO,5.103436,52.039346
Einsteinbaan,4,C,,3439NJ,Nieuwegein,Nieuwegein,Utrecht,VBO,5.103440,52.039389
Einsteinbaan,4,D,,3439NJ,Nieuwegein,Nieuwegein,Utrecht,VBO,5.103447,52.039425
Einsteinbaan,4,E,,3439NJ,Nieuwegein,Nieuwegein,Utrecht,VBO,5.103279,52.039323
Einsteinbaan,4,G,,3439NJ,Nieuwegein,Nieuwegein,Utrecht,VBO,5.103292,52.039377
Einsteinbaan,4,H,,3439NJ,Nieuwegein,Nieuwegein,Utrecht,VBO,5.103140,52.039331
Einsteinbaan,4,J,,3439NJ,Nieuwegein,Nieuwegein,Utrecht,VBO,5.103153,52.039386
Einsteinbaan,4,,,3439NJ,Nieuwegein,Nieuwegein,Utrecht,VBO,5.103590,52.039358
Einsteinbaan,6,,,3439NJ,Nieuwegein,Nieuwegein,Utrecht,VBO,5.103440,52.039133
Einsteinbaan,10,,,3439NJ,Nieuwegein,Nieuwegein,Utrecht,VBO,5.102881,52.039358
Einsteinbaan,12,,,3439NJ,Nieuwegein,Nieuwegein,Utrecht,VBO,5.102757,52.039366
Einsteinbaan,14,,,3439NJ,Nieuwegein,Nieuwegein,Utrecht,VBO,5.102633,52.039377
Einsteinbaan,16,,,3439NJ,Nieuwegein,Nieuwegein,Utrecht,VBO,5.102509,52.039385
Newtonbaan,1,,,3439NK,Nieuwegein,Nieuwegein,Utrecht,VBO,5.100656,52.040263
Newtonbaan,2,A,,3439NK,Nieuwegein,Nieuwegein,Utrecht,VBO,5.100297,52.039795
Newtonbaan,2,,,3439NK,Nieuwegein,Nieuwegein,Utrecht,VBO,5.100305,52.039867
Newtonbaan,3,,,3439NK,Nieuwegein,Nieuwegein,Utrecht,VBO,5.101064,52.040221
Newtonbaan,4,,,3439NK,Nieuwegein,Nieuwegein,Utrecht,VBO,5.100746,52.039872
Newtonbaan,5,,,3439NK,Nieuwegein,Nieuwegein,Utrecht,VBO,5.101543,52.040195
Newtonbaan,6,,,3439NK,Nieuwegein,Nieuwegein,Utrecht,VBO,5.101179,52.039848
Newtonbaan,7,,,3439NK,Nieuwegein,Nieuwegein,Utrecht,VBO,5.102001,52.040175
Newtonbaan,8,A,,3439NK,Nieuwegein,Nieuwegein,Utrecht,VBO,5.101611,52.039775
Newtonbaan,8,,,3439NK,Nieuwegein,Nieuwegein,Utrecht,VBO,5.101616,52.039822
Newtonbaan,10,,,3439NK,Nieuwegein,Nieuwegein,Utrecht,VBO,5.099398,52.039771
Newtonbaan,12,,,3439NK,Nieuwegein,Nieuwegein,Utrecht,VBO,5.098744,52.040406
Newtonbaan,14,,,3439NK,Nieuwegein,Nieuwegein,Utrecht,VBO,5.099501,52.040931
Newtonbaan,16,A,,3439NK,Nieuwegein,Nieuwegein,Utrecht,VBO,5.099327,52.041080
Newtonbaan,16,,,3439NK,Nieuwegein,Nieuwegein,Utrecht,VBO,5.099157,52.040811
Lorentzbaan,1,,,3439NM,Nieuwegein,Nieuwegein,Utrecht,VBO,5.098618,52.027333
Lorentzbaan,2,,,3439NM,Nieuwegein,Nieuwegein,Utrecht,VBO,5.098720,52.027258
Lorentzbaan,3,,,3439NM,Nieuwegein,Nieuwegein,Utrecht,VBO,5.098816,52.027184
Lorentzbaan,4,,,3439NM,Nieuwegein,Nieuwegein,Utrecht,VBO,5.098915,52.027108
Lorentzbaan,5,,,3439NM,Nieuwegein,Nieuwegein,Utrecht,VBO,5.099033,52.027038
Lorentzbaan,6,,,3439NM,Nieuwegein,Nieuwegein,Utrecht,VBO,5.099135,52.026976
Lorentzbaan,7,,,3439NM,Nieuwegein,Nieuwegein,Utrecht,VBO,5.099262,52.026892
Lorentzbaan,8,,,3439NM,Nieuwegein,Nieuwegein,Utrecht,VBO,5.099380,52.026822
Lorentzbaan,9,,,3439NM,Nieuwegein,Nieuwegein,Utrecht,VBO,5.099513,52.026759
Lorentzbaan,10,,,3439NM,Nieuwegein,Nieuwegein,Utrecht,VBO,5.099637,52.026701
Lorentzbaan,11,,,3439NM,Nieuwegein,Nieuwegein,Utrecht,VBO,5.099784,52.026635
Lorentzbaan,12,,,3439NM,Nieuwegein,Nieuwegein,Utrecht,VBO,5.099914,52.026578
Martinbaan,2,,,3439NN,Nieuwegein,Nieuwegein,Utrecht,VBO,5.105588,52.032982
Martinbaan,4,,,3439NN,Nieuwegein,Nieuwegein,Utrecht,VBO,5.104944,52.033242
Wijde Wade,1,A,,3439NP,Nieuwegein,Nieuwegein,Utrecht,VBO,5.113352,52.049692
Wijde Wade,1,,,3439NP,Nieuwegein,Nieuwegein,Utrecht,VBO,5.113114,52.049705
Wijde Wade,2,,,3439NP,Nieuwegein,Nieuwegein,Utrecht,VBO,5.113022,52.049248
Wijde Wade,3,,,3439NP,Nieuwegein,Nieuwegein,Utrecht,VBO,5.113099,52.049892
Wijde Wade,4,,,3439NP,Nieuwegein,Nieuwegein,Utrecht,VBO,5.113588,52.049279
Wijde Wade,5,,,3439NP,Nieuwegein,Nieuwegein,Utrecht,VBO,5.113126,52.050010
Wijde Wade,6,,,3439NP,Nieuwegein,Nieuwegein,Utrecht,VBO,5.114122,52.049304
Wijde Wade,7,,,3439NP,Nieuwegein,Nieuwegein,Utrecht,VBO,5.113267,52.050129
Wijde Wade,8,,,3439NP,Nieuwegein,Nieuwegein,Utrecht,VBO,5.114090,52.049217
Wijde Wade,9,,,3439NP,Nieuwegein,Nieuwegein,Utrecht,VBO,5.113361,52.050000
Wijde Wade,10,,,3439NP,Nieuwegein,Nieuwegein,Utrecht,VBO,5.114053,52.049134
Wijde Wade,11,,,3439NP,Nieuwegein,Nieuwegein,Utrecht,VBO,5.113345,52.049881
Wijde Wade,12,,,3439NP,Nieuwegein,Nieuwegein,Utrecht,VBO,5.114015,52.049045
Wijde Wade,14,,,3439NP,Nieuwegein,Nieuwegein,Utrecht,VBO,5.113976,52.048957
Wijde Wade,16,,,3439NP,Nieuwegein,Nieuwegein,Utrecht,VBO,5.113906,52.048839
Grote Wade,22,,,3439NS,Nieuwegein,Nieuwegein,Utrecht,VBO,5.111946,52.049511
Grote Wade,24,,,3439NS,Nieuwegein,Nieuwegein,Utrecht,VBO,5.111843,52.049526
Grote Wade,26,,,3439NS,Nieuwegein,Nieuwegein,Utrecht,VBO,5.111745,52.049541
Grote Wade,28,,,3439NS,Nieuwegein,Nieuwegein,Utrecht,VBO,5.111646,52.049557
Grote Wade,30,,,3439NS,Nieuwegein,Nieuwegein,Utrecht,VBO,5.111610,52.049470
Grote Wade,32,,,3439NS,Nieuwegein,Nieuwegein,Utrecht,VBO,5.111708,52.049454
Grote Wade,34,,,3439NS,Nieuwegein,Nieuwegein,Utrecht,VBO,5.111811,52.049438
Grote Wade,36,,,3439NS,Nieuwegein,Nieuwegein,Utrecht,VBO,5.111909,52.049425
Grote Wade,38,,,3439NS,Nieuwegein,Nieuwegein,Utrecht,VBO,5.112062,52.049251
Grote Wade,40,,,3439NS,Nieuwegein,Nieuwegein,Utrecht,VBO,5.111963,52.049264
Grote Wade,42,,,3439NS,Nieuwegein,Nieuwegein,Utrecht,VBO,5.111865,52.049278
Grote Wade,44,,,3439NS,Nieuwegein,Nieuwegein,Utrecht,VBO,5.111767,52.049293
Grote Wade,46,A,,3439NS,Nieuwegein,Nieuwegein,Utrecht,VBO,5.111654,52.049300
Grote Wade,46,,,3439NS,Nieuwegein,Nieuwegein,Utrecht,VBO,5.111678,52.049331
Grote Wade,48,,,3439NS,Nieuwegein,Nieuwegein,Utrecht,VBO,5.111555,52.049331
Grote Wade,50,,,3439NS,Nieuwegein,Nieuwegein,Utrecht,VBO,5.111467,52.049339
Grote Wade,52,,,3439NS,Nieuwegein,Nieuwegein,Utrecht,VBO,5.111365,52.049355
Grote Wade,54,,,3439NS,Nieuwegein,Nieuwegein,Utrecht,VBO,5.111266,52.049368
Grote Wade,56,,,3439NS,Nieuwegein,Nieuwegein,Utrecht,VBO,5.111151,52.049394
Grote Wade,58,,,3439NS,Nieuwegein,Nieuwegein,Utrecht,VBO,5.111132,52.049299
Grote Wade,60,,,3439NS,Nieuwegein,Nieuwegein,Utrecht,VBO,5.111234,52.049283
Grote Wade,62,,,3439NS,Nieuwegein,Nieuwegein,Utrecht,VBO,5.111333,52.049269
Grote Wade,64,,,3439NS,Nieuwegein,Nieuwegein,Utrecht,VBO,5.111431,52.049251
Grote Wade,66,,,3439NS,Nieuwegein,Nieuwegein,Utrecht,VBO,5.111538,52.049238
Grote Wade,68,,,3439NS,Nieuwegein,Nieuwegein,Utrecht,VBO,5.111632,52.049224
Grote Wade,70,,,3439NS,Nieuwegein,Nieuwegein,Utrecht,VBO,5.111734,52.049206
Grote Wade,72,,,3439NS,Nieuwegein,Nieuwegein,Utrecht,VBO,5.111833,52.049193
Grote Wade,74,,,3439NS,Nieuwegein,Nieuwegein,Utrecht,VBO,5.111927,52.049174
Grote Wade,76,,,3439NS,Nieuwegein,Nieuwegein,Utrecht,VBO,5.112030,52.049163
Grote Wade,80,,,3439NT,Nieuwegein,Nieuwegein,Utrecht,VBO,5.111690,52.047965
Grote Wade,90,,,3439NT,Nieuwegein,Nieuwegein,Utrecht,VBO,5.110937,52.046954
Biezenwade,1,,,3439NW,Nieuwegein,Nieuwegein,Utrecht,VBO,5.112708,52.047256
Biezenwade,2,,,3439NW,Nieuwegein,Nieuwegein,Utrecht,VBO,5.112052,52.046978
Biezenwade,3,,,3439NW,Nieuwegein,Nieuwegein,Utrecht,VBO,5.113203,52.047200
Biezenwade,4,,,3439NW,Nieuwegein,Nieuwegein,Utrecht,VBO,5.112452,52.046930
Biezenwade,5,,,3439NW,Nieuwegein,Nieuwegein,Utrecht,VBO,5.113713,52.047097
Biezenwade,6,,,3439NW,Nieuwegein,Nieuwegein,Utrecht,VBO,5.112561,52.046916
Biezenwade,8,,,3439NW,Nieuwegein,Nieuwegein,Utrecht,VBO,5.112942,52.046857
Biezenwade,10,,,3439NW,Nieuwegein,Nieuwegein,Utrecht,VBO,5.113041,52.046843
Biezenwade,12,,,3439NW,Nieuwegein,Nieuwegein,Utrecht,VBO,5.113725,52.046653
Biezenwade,14,,,3439NW,Nieuwegein,Nieuwegein,Utrecht,VBO,5.114403,52.046507
Grote Wade,17,A,,3439NX,Nieuwegein,Nieuwegein,Utrecht,VBO,5.112862,52.048680
Grote Wade,17,B,,3439NX,Nieuwegein,Nieuwegein,Utrecht,VBO,5.112797,52.048615
Grote Wade,17,C,,3439NX,Nieuwegein,Nieuwegein,Utrecht,VBO,5.112933,52.048622
Grote Wade,17,D,,3439NX,Nieuwegein,Nieuwegein,Utrecht,VBO,5.113021,52.048607
Grote Wade,17,E,,3439NX,Nieuwegein,Nieuwegein,Utrecht,VBO,5.113106,52.048595
Grote Wade,17,F,,3439NX,Nieuwegein,Nieuwegein,Utrecht,VBO,5.113199,52.048582
Grote Wade,17,G,,3439NX,Nieuwegein,Nieuwegein,Utrecht,VBO,5.113283,52.048568
Grote Wade,17,H,,3439NX,Nieuwegein,Nieuwegein,Utrecht,VBO,5.113367,52.048553
Grote Wade,17,K,,3439NX,Nieuwegein,Nieuwegein,Utrecht,VBO,5.113458,52.048543
Grote Wade,17,,,3439NX,Nieuwegein,Nieuwegein,Utrecht,VBO,5.112795,52.048688
Grote Wade,19,A,,3439NX,Nieuwegein,Nieuwegein,Utrecht,VBO,5.112767,52.048538
Grote Wade,19,B,,3439NX,Nieuwegein,Nieuwegein,Utrecht,VBO,5.112737,52.048470
Grote Wade,19,C,,3439NX,Nieuwegein,Nieuwegein,Utrecht,VBO,5.112881,52.048481
Grote Wade,19,D,,3439NX,Nieuwegein,Nieuwegein,Utrecht,VBO,5.112966,52.048470
Grote Wade,19,E,,3439NX,Nieuwegein,Nieuwegein,Utrecht,VBO,5.113051,52.048458
Grote Wade,19,F,,3439NX,Nieuwegein,Nieuwegein,Utrecht,VBO,5.113144,52.048445
Grote Wade,19,G,,3439NX,Nieuwegein,Nieuwegein,Utrecht,VBO,5.113225,52.048431
Grote Wade,19,H,,3439NX,Nieuwegein,Nieuwegein,Utrecht,VBO,5.113316,52.048416
Grote Wade,19,K,,3439NX,Nieuwegein,Nieuwegein,Utrecht,VBO,5.113406,52.048405
Grote Wade,21,A,,3439NX,Nieuwegein,Nieuwegein,Utrecht,VBO,5.113546,52.048048
Grote Wade,21,B,,3439NX,Nieuwegein,Nieuwegein,Utrecht,VBO,5.113562,52.048101
Grote Wade,21,C,,3439NX,Nieuwegein,Nieuwegein,Utrecht,VBO,5.113584,52.048146
Grote Wade,21,D,,3439NX,Nieuwegein,Nieuwegein,Utrecht,VBO,5.113602,52.048203
Grote Wade,21,E,,3439NX,Nieuwegein,Nieuwegein,Utrecht,VBO,5.113627,52.048257
Grote Wade,21,F,,3439NX,Nieuwegein,Nieuwegein,Utrecht,VBO,5.113645,52.048308
Grote Wade,21,G,,3439NX,Nieuwegein,Nieuwegein,Utrecht,VBO,5.113670,52.048363
Grote Wade,21,H,,3439NX,Nieuwegein,Nieuwegein,Utrecht,VBO,5.113689,52.048413
Grote Wade,21,K,,3439NX,Nieuwegein,Nieuwegein,Utrecht,VBO,5.113706,52.048461
Grote Wade,21,L,,3439NX,Nieuwegein,Nieuwegein,Utrecht,VBO,5.113729,52.048516
Grote Wade,21,M,,3439NX,Nieuwegein,Nieuwegein,Utrecht,VBO,5.113744,52.048568
Grote Wade,21,N,,3439NX,Nieuwegein,Nieuwegein,Utrecht,VBO,5.113771,52.048622
Grote Wade,23,A,,3439NX,Nieuwegein,Nieuwegein,Utrecht,VBO,5.112633,52.048231
Grote Wade,23,B,,3439NX,Nieuwegein,Nieuwegein,Utrecht,VBO,5.112604,52.048164
Grote Wade,23,C,,3439NX,Nieuwegein,Nieuwegein,Utrecht,VBO,5.112755,52.048177
Grote Wade,23,D,,3439NX,Nieuwegein,Nieuwegein,Utrecht,VBO,5.112845,52.048163
Grote Wade,23,E,,3439NX,Nieuwegein,Nieuwegein,Utrecht,VBO,5.112929,52.048150
Grote Wade,23,F,,3439NX,Nieuwegein,Nieuwegein,Utrecht,VBO,5.113018,52.048137
Grote Wade,23,G,,3439NX,Nieuwegein,Nieuwegein,Utrecht,VBO,5.113102,52.048124
Grote Wade,23,H,,3439NX,Nieuwegein,Nieuwegein,Utrecht,VBO,5.113192,52.048112
Grote Wade,23,K,,3439NX,Nieuwegein,Nieuwegein,Utrecht,VBO,5.113280,52.048099
Grote Wade,2,,,3439NZ,Nieuwegein,Nieuwegein,Utrecht,VBO,5.111429,52.050075
Grote Wade,25,,,3439NZ,Nieuwegein,Nieuwegein,Utrecht,VBO,5.112545,52.047747
Grote Wade,37,,,3439NZ,Nieuwegein,Nieuwegein,Utrecht,VBO,5.112298,52.047404
Grote Wade,45,,,3439NZ,Nieuwegein,Nieuwegein,Utrecht,VBO,5.112029,52.046316
Vrijewade,1,,,3439PB,Nieuwegein,Nieuwegein,Utrecht,VBO,5.108555,52.047509
Vrijewade,2,,,3439PB,Nieuwegein,Nieuwegein,Utrecht,VBO,5.108671,52.047490
Vrijewade,3,,,3439PB,Nieuwegein,Nieuwegein,Utrecht,VBO,5.108788,52.047474
Vrijewade,4,,,3439PB,Nieuwegein,Nieuwegein,Utrecht,VBO,5.108905,52.047449
Vrijewade,5,,,3439PB,Nieuwegein,Nieuwegein,Utrecht,VBO,5.109016,52.047434
Vrijewade,6,,,3439PB,Nieuwegein,Nieuwegein,Utrecht,VBO,5.109124,52.047418
Vrijewade,7,,,3439PB,Nieuwegein,Nieuwegein,Utrecht,VBO,5.109252,52.047403
Vrijewade,8,,,3439PB,Nieuwegein,Nieuwegein,Utrecht,VBO,5.109369,52.047385
Vrijewade,9,,,3439PB,Nieuwegein,Nieuwegein,Utrecht,VBO,5.109480,52.047365
Vrijewade,10,,,3439PB,Nieuwegein,Nieuwegein,Utrecht,VBO,5.109584,52.047351
Vrijewade,11,,,3439PB,Nieuwegein,Nieuwegein,Utrecht,VBO,5.109497,52.047092
Vrijewade,12,,,3439PB,Nieuwegein,Nieuwegein,Utrecht,VBO,5.109369,52.047108
Vrijewade,13,,,3439PB,Nieuwegein,Nieuwegein,Utrecht,VBO,5.109257,52.047126
Vrijewade,14,,,3439PB,Nieuwegein,Nieuwegein,Utrecht,VBO,5.109138,52.047136
Vrijewade,15,,,3439PB,Nieuwegein,Nieuwegein,Utrecht,VBO,5.109029,52.047154
Vrijewade,16,,,3439PB,Nieuwegein,Nieuwegein,Utrecht,VBO,5.108913,52.047172
Vrijewade,17,,,3439PB,Nieuwegein,Nieuwegein,Utrecht,VBO,5.108803,52.047189
Vrijewade,18,,,3439PB,Nieuwegein,Nieuwegein,Utrecht,VBO,5.108677,52.047213
Vrijewade,19,,,3439PB,Nieuwegein,Nieuwegein,Utrecht,VBO,5.109421,52.046873
Vrijewade,20,,,3439PB,Nieuwegein,Nieuwegein,Utrecht,VBO,5.109351,52.046884
Vrijewade,21,,,3439PB,Nieuwegein,Nieuwegein,Utrecht,VBO,5.109281,52.046894
Vrijewade,22,,,3439PB,Nieuwegein,Nieuwegein,Utrecht,VBO,5.109205,52.046905
Vrijewade,23,,,3439PB,Nieuwegein,Nieuwegein,Utrecht,VBO,5.109129,52.046917
Vrijewade,24,,,3439PB,Nieuwegein,Nieuwegein,Utrecht,VBO,5.109372,52.046806
Vrijewade,25,,,3439PB,Nieuwegein,Nieuwegein,Utrecht,VBO,5.109355,52.046763
Vrijewade,26,,,3439PB,Nieuwegein,Nieuwegein,Utrecht,VBO,5.109337,52.046720
Vrijewade,27,,,3439PB,Nieuwegein,Nieuwegein,Utrecht,VBO,5.109317,52.046677
Vrijewade,28,,,3439PB,Nieuwegein,Nieuwegein,Utrecht,VBO,5.109300,52.046630
Vrijewade,29,,,3439PB,Nieuwegein,Nieuwegein,Utrecht,VBO,5.109280,52.046588
Vrijewade,30,,,3439PB,Nieuwegein,Nieuwegein,Utrecht,VBO,5.108829,52.046892
Houtenseweg,1,,,3439ZX,Nieuwegein,Nieuwegein,Utrecht,VBO,5.121688,52.046526
Ravensewetering,1,,,3439ZZ,Nieuwegein,Nieuwegein,Utrecht,VBO,5.124253,52.049136
