openbareruimtenaam,huisnummer,huisletter,huisnummertoevoeging,postcode,woonplaatsnaam,gemeentenaam,provincienaam,typeadresseerbaarobject,longitude,latitude
Haardijk,5,A,,3461AB,Linschoten,Montfoort,Utrecht,VBO,4.893293,52.057620
Haardijk,5,,,3461AB,Linschoten,Montfoort,Utrecht,VBO,4.894195,52.058029
Haardijk,7,A,,3461AB,Linschoten,Montfoort,Utrecht,VBO,4.893776,52.058351
Haardijk,7,,,3461AB,Linschoten,Montfoort,Utrecht,VBO,4.894262,52.058648
Haardijk,10,A,,3461AB,Linschoten,Montfoort,Utrecht,VBO,4.897858,52.060945
Haardijk,10,,,3461AB,Linschoten,Montfoort,Utrecht,VBO,4.898577,52.061050
Haardijk,12,,,3461AB,Linschoten,Montfoort,Utrecht,VBO,4.898086,52.061879
Haardijk,15,,,3461AB,Linschoten,Montfoort,Utrecht,VBO,4.898266,52.063870
Haardijk,16,,,3461AB,Linschoten,Montfoort,Utrecht,VBO,4.898114,52.063894
Haardijk,20,,,3461AB,Linschoten,Montfoort,Utrecht,VBO,4.897180,52.064876
Schapenlaan,1,,,3461AB,Linschoten,Montfoort,Utrecht,VBO,4.905491,52.059133
Noord Linschoterdijk,1,,,3461AC,Linschoten,Montfoort,Utrecht,VBO,4.907973,52.060847
Noord Linschoterdijk,2,,,3461AC,Linschoten,Montfoort,Utrecht,VBO,4.907761,52.060090
Noord Linschoterdijk,6,,,3461AC,Linschoten,Montfoort,Utrecht,VBO,4.905087,52.057592
Noord Linschoterdijk,11,A,,3461AC,Linschoten,Montfoort,Utrecht,VBO,4.901057,52.055649
Noord Linschoterdijk,11,,,3461AC,Linschoten,Montfoort,Utrecht,VBO,4.901173,52.055666
Noord Linschoterdijk,13,,,3461AC,Linschoten,Montfoort,Utrecht,VBO,4.901178,52.055510
Noord Linschoterdijk,15,,,3461AC,Linschoten,Montfoort,Utrecht,VBO,4.900363,52.055540
Noord Linschoterdijk,21,A,,3461AC,Linschoten,Montfoort,Utrecht,VBO,4.904971,52.055602
Noord Linschoterdijk,21,,,3461AC,Linschoten,Montfoort,Utrecht,VBO,4.906933,52.054137
Noord Linschoterdijk,26,,,3461AC,Linschoten,Montfoort,Utrecht,VBO,4.896700,52.051082
Engherzandweg,1,,,3461AD,Linschoten,Montfoort,Utrecht,VBO,4.915295,52.059840
Engherzandweg,2,,,3461AD,Linschoten,Montfoort,Utrecht,VBO,4.915339,52.059731
Engherzandweg,3,,,3461AD,Linschoten,Montfoort,Utrecht,VBO,4.915389,52.059596
Engherzandweg,5,A,,3461AD,Linschoten,Montfoort,Utrecht,VBO,4.915672,52.059593
Engherzandweg,5,,,3461AD,Linschoten,Montfoort,Utrecht,VBO,4.915483,52.059482
Engherzandweg,6,,,3461AD,Linschoten,Montfoort,Utrecht,VBO,4.915536,52.059345
Engherzandweg,7,,,3461AD,Linschoten,Montfoort,Utrecht,VBO,4.915528,52.059228
Engherzandweg,8,,,3461AD,Linschoten,Montfoort,Utrecht,VBO,4.915522,52.059180
Engherzandweg,9,,,3461AD,Linschoten,Montfoort,Utrecht,VBO,4.915531,52.059106
Engherzandweg,10,a,,3461AD,Linschoten,Montfoort,Utrecht,VBO,4.915727,52.058660
Engherzandweg,10,,,3461AD,Linschoten,Montfoort,Utrecht,VBO,4.915526,52.059048
Engherzandweg,11,,,3461AE,Linschoten,Montfoort,Utrecht,VBO,4.915314,52.058617
Engherzandweg,12,,,3461AE,Linschoten,Montfoort,Utrecht,VBO,4.915507,52.058267
Engherzandweg,13,A,,3461AE,Linschoten,Montfoort,Utrecht,VBO,4.914826,52.058441
Engherzandweg,13,,,3461AE,Linschoten,Montfoort,Utrecht,VBO,4.914976,52.058450
Engherzandweg,14,,,3461AE,Linschoten,Montfoort,Utrecht,VBO,4.914741,52.058423
Engherzandweg,15,,,3461AE,Linschoten,Montfoort,Utrecht,VBO,4.914546,52.058391
Engherzandweg,18,,,3461AE,Linschoten,Montfoort,Utrecht,VBO,4.914381,52.058442
Engherzandweg,19,,,3461AE,Linschoten,Montfoort,Utrecht,VBO,4.914400,52.058386
Engherzandweg,20,,,3461AE,Linschoten,Montfoort,Utrecht,VBO,4.914405,52.058233
Engherzandweg,25,,,3461AE,Linschoten,Montfoort,Utrecht,VBO,4.913963,52.058432
Engherzandweg,27,,,3461AE,Linschoten,Montfoort,Utrecht,VBO,4.914043,52.058339
Engherzandweg,30,,,3461AE,Linschoten,Montfoort,Utrecht,VBO,4.914076,52.058269
Engherzandweg,31,,,3461AE,Linschoten,Montfoort,Utrecht,VBO,4.913885,52.058374
Engherzandweg,32,,,3461AE,Linschoten,Montfoort,Utrecht,VBO,4.913787,52.058348
Engherzandweg,36,,,3461AE,Linschoten,Montfoort,Utrecht,VBO,4.912233,52.058581
Engherzandweg,37,,,3461AE,Linschoten,Montfoort,Utrecht,VBO,4.910298,52.058320
Engherzandweg,38,A,,3461AE,Linschoten,Montfoort,Utrecht,VBO,4.909286,52.058416
Engherzandweg,38,,,3461AE,Linschoten,Montfoort,Utrecht,VBO,4.910681,52.059137
Engherzandweg,38,,,3461AE,Linschoten,Montfoort,Utrecht,VBO,4.910780,52.059102
Engherzandweg,39,,,3461AE,Linschoten,Montfoort,Utrecht,VBO,4.910212,52.058430
Engherzandweg,41,,,3461AE,Linschoten,Montfoort,Utrecht,VBO,4.909075,52.059784
Engherzandweg,42,,,3461AE,Linschoten,Montfoort,Utrecht,VBO,4.907987,52.059256
Engherzandweg,45,,,3461AE,Linschoten,Montfoort,Utrecht,VBO,4.907546,52.056955
Engherzandweg,48,,,3461AE,Linschoten,Montfoort,Utrecht,VBO,4.907627,52.056045
Nieuwe Zandweg,1,,,3461AG,Linschoten,Montfoort,Utrecht,VBO,4.915322,52.059994
Nieuwe Zandweg,5,,,3461AG,Linschoten,Montfoort,Utrecht,VBO,4.915561,52.060115
Nieuwe Zandweg,7,,,3461AG,Linschoten,Montfoort,Utrecht,VBO,4.915817,52.060251
Nieuwe Zandweg,9,,,3461AG,Linschoten,Montfoort,Utrecht,VBO,4.916427,52.059880
Nieuwe Zandweg,13,,,3461AG,Linschoten,Montfoort,Utrecht,VBO,4.917535,52.060696
Nieuwe Zandweg,17,,,3461AG,Linschoten,Montfoort,Utrecht,VBO,4.917844,52.060282
Nieuwe Zandweg,19,a,,3461AG,Linschoten,Montfoort,Utrecht,VBO,4.918543,52.060363
Nieuwe Zandweg,19,b,,3461AG,Linschoten,Montfoort,Utrecht,VBO,4.918659,52.060307
Nieuwe Zandweg,19,,,3461AG,Linschoten,Montfoort,Utrecht,VBO,4.918334,52.060471
Nieuwe Zandweg,21,A,,3461AG,Linschoten,Montfoort,Utrecht,VBO,4.919044,52.060108
Nieuwe Zandweg,21,,,3461AG,Linschoten,Montfoort,Utrecht,VBO,4.918893,52.060176
Nieuwe Zandweg,23,,,3461AG,Linschoten,Montfoort,Utrecht,VBO,4.919694,52.059716
Nieuwe Zandweg,25,,,3461AG,Linschoten,Montfoort,Utrecht,VBO,4.919774,52.059574
Nieuwe Zandweg,2,A,,3461AH,Linschoten,Montfoort,Utrecht,VBO,4.915391,52.059833
Nieuwe Zandweg,2,,,3461AH,Linschoten,Montfoort,Utrecht,VBO,4.915424,52.059811
Nieuwe Zandweg,4,,,3461AH,Linschoten,Montfoort,Utrecht,VBO,4.915518,52.059877
Nieuwe Zandweg,6,A,,3461AH,Linschoten,Montfoort,Utrecht,VBO,4.915849,52.059946
Nieuwe Zandweg,6,B,,3461AH,Linschoten,Montfoort,Utrecht,VBO,4.916065,52.059991
Nieuwe Zandweg,6,C,,3461AH,Linschoten,Montfoort,Utrecht,VBO,4.915884,52.059724
Nieuwe Zandweg,6,D,,3461AH,Linschoten,Montfoort,Utrecht,VBO,4.916007,52.059736
Nieuwe Zandweg,6,E,,3461AH,Linschoten,Montfoort,Utrecht,VBO,4.916185,52.059764
Nieuwe Zandweg,6,F,,3461AH,Linschoten,Montfoort,Utrecht,VBO,4.916290,52.059796
Nieuwe Zandweg,6,,,3461AH,Linschoten,Montfoort,Utrecht,VBO,4.915667,52.059913
Nieuwe Zandweg,8,,,3461AH,Linschoten,Montfoort,Utrecht,VBO,4.916142,52.060028
Nieuwe Zandweg,10,,,3461AH,Linschoten,Montfoort,Utrecht,VBO,4.916765,52.060035
Nieuwe Zandweg,12,,,3461AH,Linschoten,Montfoort,Utrecht,VBO,4.917535,52.060360
Nieuwe Zandweg,14,,,3461AH,Linschoten,Montfoort,Utrecht,VBO,4.917599,52.060567
Nieuwe Zandweg,16,a,,3461AH,Linschoten,Montfoort,Utrecht,VBO,4.918050,52.060567
Nieuwe Zandweg,16,,,3461AH,Linschoten,Montfoort,Utrecht,VBO,4.917269,52.060283
Nieuwe Zandweg,18,,,3461AH,Linschoten,Montfoort,Utrecht,VBO,4.917884,52.060244
Nieuwe Zandweg,20,,,3461AH,Linschoten,Montfoort,Utrecht,VBO,4.918001,52.059796
Nieuwe Zandweg,26,,,3461AH,Linschoten,Montfoort,Utrecht,VBO,4.919878,52.059467
Nieuwe Zandweg,28,,,3461AH,Linschoten,Montfoort,Utrecht,VBO,4.919785,52.059159
M A Reinaldaweg,61,,,3461AJ,Linschoten,Montfoort,Utrecht,VBO,4.922491,52.057949
M A Reinaldaweg,65,,,3461AJ,Linschoten,Montfoort,Utrecht,VBO,4.923535,52.057679
M A Reinaldaweg,67,,,3461AJ,Linschoten,Montfoort,Utrecht,VBO,4.923922,52.057310
M A Reinaldaweg,73,,,3461AJ,Linschoten,Montfoort,Utrecht,VBO,4.926195,52.054836
M A Reinaldaweg,77,,,3461AJ,Linschoten,Montfoort,Utrecht,VBO,4.927045,52.054495
M A Reinaldaweg,79,,,3461AJ,Linschoten,Montfoort,Utrecht,VBO,4.927129,52.054688
M A Reinaldaweg,81,,,3461AJ,Linschoten,Montfoort,Utrecht,VBO,4.927901,52.053669
M A Reinaldaweg,87,,,3461AJ,Linschoten,Montfoort,Utrecht,VBO,4.928578,52.048645
M A Reinaldaweg,22,a,,3461AK,Linschoten,Montfoort,Utrecht,VBO,4.919469,52.058538
M A Reinaldaweg,22,,,3461AK,Linschoten,Montfoort,Utrecht,VBO,4.919784,52.058469
M A Reinaldaweg,26,,,3461AK,Linschoten,Montfoort,Utrecht,VBO,4.920673,52.057922
M A Reinaldaweg,28,,,3461AK,Linschoten,Montfoort,Utrecht,VBO,4.921088,52.057658
M A Reinaldaweg,30,,,3461AK,Linschoten,Montfoort,Utrecht,VBO,4.921704,52.057649
M A Reinaldaweg,32,a,,3461AK,Linschoten,Montfoort,Utrecht,VBO,4.921817,52.057280
M A Reinaldaweg,32,A,,3461AK,Linschoten,Montfoort,Utrecht,VBO,4.921689,52.057389
M A Reinaldaweg,32,,,3461AK,Linschoten,Montfoort,Utrecht,VBO,4.922309,52.057370
M A Reinaldaweg,32,,,3461AK,Linschoten,Montfoort,Utrecht,VBO,4.922320,52.057395
M A Reinaldaweg,34,,,3461AL,Linschoten,Montfoort,Utrecht,VBO,4.922679,52.057392
M A Reinaldaweg,36,,,3461AL,Linschoten,Montfoort,Utrecht,VBO,4.922945,52.057251
M A Reinaldaweg,40,,,3461AL,Linschoten,Montfoort,Utrecht,VBO,4.923468,52.056812
M A Reinaldaweg,42,,,3461AL,Linschoten,Montfoort,Utrecht,VBO,4.918646,52.053112
M A Reinaldaweg,44,,,3461AL,Linschoten,Montfoort,Utrecht,VBO,4.923652,52.056476
M A Reinaldaweg,50,,,3461AL,Linschoten,Montfoort,Utrecht,VBO,4.925305,52.055096
M A Reinaldaweg,56,,,3461AL,Linschoten,Montfoort,Utrecht,VBO,4.927179,52.051116
M A Reinaldaweg,60,,,3461AL,Linschoten,Montfoort,Utrecht,VBO,4.926528,52.048041
M A Reinaldaweg,62,A,,3461AL,Linschoten,Montfoort,Utrecht,VBO,4.926427,52.047161
M A Reinaldaweg,62,,,3461AL,Linschoten,Montfoort,Utrecht,VBO,4.926995,52.047696
M A Reinaldaweg,64,,,3461AL,Linschoten,Montfoort,Utrecht,VBO,4.928459,52.046737
M A Reinaldaweg,66,A,,3461AL,Linschoten,Montfoort,Utrecht,VBO,4.929019,52.046144
M A Reinaldaweg,66,,,3461AL,Linschoten,Montfoort,Utrecht,VBO,4.929094,52.046285
M A Reinaldaweg,70,,,3461AL,Linschoten,Montfoort,Utrecht,VBO,4.930036,52.043634
Cattenbroekerdijk,20,,,3461BB,Linschoten,Montfoort,Utrecht,VBO,4.920223,52.074110
Cattenbroekerdijk,21,,,3461BC,Linschoten,Montfoort,Utrecht,VBO,4.920417,52.073587
Cattenbroekerdijk,22,A,,3461BC,Linschoten,Montfoort,Utrecht,VBO,4.921447,52.073203
Cattenbroekerdijk,22,,,3461BC,Linschoten,Montfoort,Utrecht,VBO,4.921205,52.073054
Cattenbroekerdijk,23,,,3461BC,Linschoten,Montfoort,Utrecht,VBO,4.922437,52.072644
Cattenbroekerdijk,25,,,3461BC,Linschoten,Montfoort,Utrecht,VBO,4.924052,52.071754
Cattenbroekerdijk,26,a,,3461BC,Linschoten,Montfoort,Utrecht,VBO,4.926758,52.070896
Cattenbroekerdijk,26,,,3461BC,Linschoten,Montfoort,Utrecht,VBO,4.925388,52.071165
Cattenbroekerdijk,27,,,3461BC,Linschoten,Montfoort,Utrecht,VBO,4.925135,52.070748
Cattenbroekerdijk,28,,,3461BC,Linschoten,Montfoort,Utrecht,VBO,4.928811,52.069891
Cattenbroekerdijk,29,,,3461BC,Linschoten,Montfoort,Utrecht,VBO,4.926805,52.070019
Cattenbroekerdijk,30,,,3461BC,Linschoten,Montfoort,Utrecht,VBO,4.929849,52.069367
Cattenbroekerdijk,32,,,3461BD,Linschoten,Montfoort,Utrecht,VBO,4.931039,52.068936
Cattenbroekerdijk,34,a,,3461BD,Linschoten,Montfoort,Utrecht,VBO,4.932138,52.068206
Cattenbroekerdijk,34,B,,3461BD,Linschoten,Montfoort,Utrecht,VBO,4.932609,52.068463
Cattenbroekerdijk,34,C,,3461BD,Linschoten,Montfoort,Utrecht,VBO,4.932651,52.068864
Cattenbroekerdijk,34,,,3461BD,Linschoten,Montfoort,Utrecht,VBO,4.931828,52.068601
Cattenbroekerdijk,35,,,3461BD,Linschoten,Montfoort,Utrecht,VBO,4.933058,52.067784
Cattenbroekerdijk,36,,,3461BD,Linschoten,Montfoort,Utrecht,VBO,4.933795,52.067386
Cattenbroekerdijk,39,A,,3461BD,Linschoten,Montfoort,Utrecht,VBO,4.936488,52.066112
Cattenbroekerdijk,39,,,3461BD,Linschoten,Montfoort,Utrecht,VBO,4.936055,52.065973
Cattenbroekerdijk,40,,,3461BD,Linschoten,Montfoort,Utrecht,VBO,4.936859,52.065733
Cattenbroekerdijk,41,,,3461BD,Linschoten,Montfoort,Utrecht,VBO,4.937727,52.065251
Cattenbroekerdijk,44,A,,3461BD,Linschoten,Montfoort,Utrecht,VBO,4.939451,52.064426
Cattenbroekerdijk,44,,,3461BD,Linschoten,Montfoort,Utrecht,VBO,4.939265,52.064540
Cattenbroekerdijk,46,,,3461BD,Linschoten,Montfoort,Utrecht,VBO,4.939776,52.064162
Cattenbroekerdijk,49,A,,3461BD,Linschoten,Montfoort,Utrecht,VBO,4.940823,52.062830
Cattenbroekerdijk,49,,,3461BD,Linschoten,Montfoort,Utrecht,VBO,4.940104,52.062671
Cattenbroekerdijk,51,,,3461BD,Linschoten,Montfoort,Utrecht,VBO,4.940872,52.060540
Cattenbroekerdijk,52,A,,3461BD,Linschoten,Montfoort,Utrecht,VBO,4.941774,52.057999
Cattenbroekerdijk,52,,,3461BD,Linschoten,Montfoort,Utrecht,VBO,4.940775,52.059992
Lagekade,2,,,3461CA,Linschoten,Montfoort,Utrecht,VBO,4.904559,52.069330
M A Reinaldaweg,17,,,3461CB,Linschoten,Montfoort,Utrecht,VBO,4.903681,52.069867
M A Reinaldaweg,19,,,3461CC,Linschoten,Montfoort,Utrecht,VBO,4.903772,52.069303
M A Reinaldaweg,21,,,3461CC,Linschoten,Montfoort,Utrecht,VBO,4.903960,52.069362
M A Reinaldaweg,25,,,3461CC,Linschoten,Montfoort,Utrecht,VBO,4.904398,52.068703
M A Reinaldaweg,29,,,3461CC,Linschoten,Montfoort,Utrecht,VBO,4.904392,52.068442
M A Reinaldaweg,33,,,3461CD,Linschoten,Montfoort,Utrecht,VBO,4.905207,52.068028
M A Reinaldaweg,35,A,,3461CD,Linschoten,Montfoort,Utrecht,VBO,4.905579,52.067684
M A Reinaldaweg,35,,,3461CD,Linschoten,Montfoort,Utrecht,VBO,4.905533,52.067723
M A Reinaldaweg,37,,,3461CD,Linschoten,Montfoort,Utrecht,VBO,4.905801,52.067588
M A Reinaldaweg,41,A,,3461CD,Linschoten,Montfoort,Utrecht,VBO,4.906524,52.067618
M A Reinaldaweg,41,,,3461CD,Linschoten,Montfoort,Utrecht,VBO,4.906311,52.067341
M A Reinaldaweg,43,,,3461CD,Linschoten,Montfoort,Utrecht,VBO,4.906809,52.066940
M A Reinaldaweg,47,,,3461CD,Linschoten,Montfoort,Utrecht,VBO,4.907627,52.066480
M A Reinaldaweg,51,,,3461CD,Linschoten,Montfoort,Utrecht,VBO,4.908318,52.065944
M A Reinaldaweg,55,,,3461CD,Linschoten,Montfoort,Utrecht,VBO,4.908742,52.065411
M A Reinaldaweg,12,,,3461CE,Linschoten,Montfoort,Utrecht,VBO,4.902441,52.070315
K Linschoten Oostzijde,3,,,3461CG,Linschoten,Montfoort,Utrecht,VBO,4.913381,52.062560
K Linschoten Oostzijde,4,,,3461CG,Linschoten,Montfoort,Utrecht,VBO,4.913199,52.062673
K Linschoten Oostzijde,5,,,3461CG,Linschoten,Montfoort,Utrecht,VBO,4.912988,52.062780
K Linschoten Oostzijde,6,,,3461CG,Linschoten,Montfoort,Utrecht,VBO,4.912747,52.062947
K Linschoten Oostzijde,7,,,3461CG,Linschoten,Montfoort,Utrecht,VBO,4.912601,52.063049
K Linschoten Oostzijde,8,,,3461CG,Linschoten,Montfoort,Utrecht,VBO,4.912514,52.063112
K Linschoten Oostzijde,9,,,3461CG,Linschoten,Montfoort,Utrecht,VBO,4.912024,52.063262
K Linschoten Oostzijde,10,,,3461CG,Linschoten,Montfoort,Utrecht,VBO,4.911732,52.063451
K Linschoten Oostzijde,11,a,,3461CG,Linschoten,Montfoort,Utrecht,VBO,4.911143,52.063587
K Linschoten Oostzijde,11,,,3461CG,Linschoten,Montfoort,Utrecht,VBO,4.911365,52.063551
K Linschoten Oostzijde,13,,,3461CG,Linschoten,Montfoort,Utrecht,VBO,4.910860,52.063730
K Linschoten Oostzijde,14,,,3461CG,Linschoten,Montfoort,Utrecht,VBO,4.911024,52.063953
K Linschoten Oostzijde,15,,,3461CG,Linschoten,Montfoort,Utrecht,VBO,4.910677,52.063813
K Linschoten Oostzijde,16,,,3461CG,Linschoten,Montfoort,Utrecht,VBO,4.910579,52.063877
K Linschoten Oostzijde,18,,,3461CG,Linschoten,Montfoort,Utrecht,VBO,4.910135,52.064089
K Linschoten Oostzijde,19,,,3461CG,Linschoten,Montfoort,Utrecht,VBO,4.909731,52.064377
Vaartkade Noordzijde,19,,,3461CH,Linschoten,Montfoort,Utrecht,VBO,4.915869,52.062391
Vaartkade Noordzijde,21,,,3461CH,Linschoten,Montfoort,Utrecht,VBO,4.915905,52.062428
Vaartkade Noordzijde,31,,,3461CH,Linschoten,Montfoort,Utrecht,VBO,4.916673,52.062363
Vaartkade Noordzijde,33,,,3461CH,Linschoten,Montfoort,Utrecht,VBO,4.917124,52.062450
Vaartkade Noordzijde,35,A,,3461CH,Linschoten,Montfoort,Utrecht,VBO,4.917313,52.062673
Vaartkade Noordzijde,35,,,3461CH,Linschoten,Montfoort,Utrecht,VBO,4.917270,52.062636
Vaartkade Noordzijde,37,,,3461CH,Linschoten,Montfoort,Utrecht,VBO,4.917415,52.062711
Vaartkade Noordzijde,39,,,3461CH,Linschoten,Montfoort,Utrecht,VBO,4.917572,52.062797
Vaartkade Noordzijde,41,,,3461CH,Linschoten,Montfoort,Utrecht,VBO,4.917741,52.062870
Vaartkade Noordzijde,4,,,3461CJ,Linschoten,Montfoort,Utrecht,VBO,4.915709,52.061968
Vaartkade Noordzijde,6,,,3461CJ,Linschoten,Montfoort,Utrecht,VBO,4.915847,52.062041
Vaartkade Noordzijde,8,,,3461CJ,Linschoten,Montfoort,Utrecht,VBO,4.915938,52.062076
Vaartkade Noordzijde,10,,,3461CJ,Linschoten,Montfoort,Utrecht,VBO,4.916014,52.062081
Vaartkade Noordzijde,12,,,3461CJ,Linschoten,Montfoort,Utrecht,VBO,4.916064,52.062120
Vaartkade Noordzijde,14,,,3461CJ,Linschoten,Montfoort,Utrecht,VBO,4.916135,52.062148
Vaartkade Noordzijde,16,,,3461CJ,Linschoten,Montfoort,Utrecht,VBO,4.916187,52.062172
Vaartkade Noordzijde,18,,,3461CJ,Linschoten,Montfoort,Utrecht,VBO,4.916251,52.062187
Vaartkade Noordzijde,20,,,3461CJ,Linschoten,Montfoort,Utrecht,VBO,4.916393,52.062313
Vaartkade Noordzijde,34,,,3461CJ,Linschoten,Montfoort,Utrecht,VBO,4.916539,52.062701
Vaartkade Noordzijde,36,,,3461CJ,Linschoten,Montfoort,Utrecht,VBO,4.916730,52.062713
Vaartkade Noordzijde,38,,,3461CJ,Linschoten,Montfoort,Utrecht,VBO,4.916888,52.062779
Vaartkade Noordzijde,40,,,3461CJ,Linschoten,Montfoort,Utrecht,VBO,4.917281,52.062916
Vaartkade Noordzijde,42,,,3461CJ,Linschoten,Montfoort,Utrecht,VBO,4.917485,52.063034
Vaartkade Zuidzijde,2,,,3461CK,Linschoten,Montfoort,Utrecht,VBO,4.915537,52.061762
Vaartkade Zuidzijde,3,,,3461CK,Linschoten,Montfoort,Utrecht,VBO,4.915554,52.061825
Vaartkade Zuidzijde,5,,,3461CK,Linschoten,Montfoort,Utrecht,VBO,4.915864,52.061710
Vaartkade Zuidzijde,7,,,3461CK,Linschoten,Montfoort,Utrecht,VBO,4.916186,52.061732
Vaartkade Zuidzijde,8,,,3461CK,Linschoten,Montfoort,Utrecht,VBO,4.916241,52.061765
Vaartkade Zuidzijde,9,,,3461CK,Linschoten,Montfoort,Utrecht,VBO,4.916308,52.061760
Vaartkade Zuidzijde,10,,,3461CK,Linschoten,Montfoort,Utrecht,VBO,4.916495,52.061847
Vaartkade Zuidzijde,11,,,3461CK,Linschoten,Montfoort,Utrecht,VBO,4.916796,52.062033
Vaartkade Zuidzijde,12,,,3461CK,Linschoten,Montfoort,Utrecht,VBO,4.916983,52.062080
Vaartkade Zuidzijde,14,,,3461CK,Linschoten,Montfoort,Utrecht,VBO,4.917252,52.062226
Vaartkade Zuidzijde,16,,,3461CK,Linschoten,Montfoort,Utrecht,VBO,4.917534,52.062327
Vaartkade Zuidzijde,17,,,3461CK,Linschoten,Montfoort,Utrecht,VBO,4.917586,52.062345
Vaartkade Zuidzijde,18,,,3461CK,Linschoten,Montfoort,Utrecht,VBO,4.917661,52.062364
Vaartkade Zuidzijde,19,,,3461CK,Linschoten,Montfoort,Utrecht,VBO,4.917722,52.062376
Vaartkade Zuidzijde,22,,,3461CK,Linschoten,Montfoort,Utrecht,VBO,4.918037,52.062491
Kerkplein,1,,,3461CL,Linschoten,Montfoort,Utrecht,VBO,4.915633,52.061447
Kerkplein,7,,,3461CL,Linschoten,Montfoort,Utrecht,VBO,4.915842,52.061567
Kerkplein,11,,,3461CL,Linschoten,Montfoort,Utrecht,VBO,4.915713,52.061683
Hoge Werf,1,,,3461CM,Linschoten,Montfoort,Utrecht,VBO,4.916171,52.061062
Hoge Werf,2,,,3461CM,Linschoten,Montfoort,Utrecht,VBO,4.916230,52.061036
Hoge Werf,3,,,3461CM,Linschoten,Montfoort,Utrecht,VBO,4.916302,52.061009
Hoge Werf,4,,,3461CM,Linschoten,Montfoort,Utrecht,VBO,4.916372,52.060981
Hoge Werf,5,,,3461CM,Linschoten,Montfoort,Utrecht,VBO,4.916512,52.060934
Hoge Werf,6,,,3461CM,Linschoten,Montfoort,Utrecht,VBO,4.916582,52.060903
Hoge Werf,7,,,3461CM,Linschoten,Montfoort,Utrecht,VBO,4.916654,52.060881
Hoge Werf,8,,,3461CM,Linschoten,Montfoort,Utrecht,VBO,4.916722,52.060857
Hoge Werf,11,,,3461CM,Linschoten,Montfoort,Utrecht,VBO,4.916883,52.061088
Hoge Werf,12,,,3461CM,Linschoten,Montfoort,Utrecht,VBO,4.916886,52.061136
Hoge Werf,13,,,3461CM,Linschoten,Montfoort,Utrecht,VBO,4.916892,52.061185
Hoge Werf,14,,,3461CM,Linschoten,Montfoort,Utrecht,VBO,4.916899,52.061231
Hoge Werf,15,,,3461CM,Linschoten,Montfoort,Utrecht,VBO,4.916898,52.061314
Hoge Werf,16,,,3461CM,Linschoten,Montfoort,Utrecht,VBO,4.916917,52.061366
Hoge Werf,17,,,3461CM,Linschoten,Montfoort,Utrecht,VBO,4.916917,52.061418
Hoge Werf,18,,,3461CM,Linschoten,Montfoort,Utrecht,VBO,4.916928,52.061471
Hoge Werf,19,,,3461CM,Linschoten,Montfoort,Utrecht,VBO,4.916806,52.061568
Hoge Werf,20,,,3461CM,Linschoten,Montfoort,Utrecht,VBO,4.916721,52.061571
Hoge Werf,21,,,3461CM,Linschoten,Montfoort,Utrecht,VBO,4.916624,52.061574
Hoge Werf,22,,,3461CM,Linschoten,Montfoort,Utrecht,VBO,4.916502,52.061579
Hoge Werf,23,,,3461CM,Linschoten,Montfoort,Utrecht,VBO,4.916411,52.061579
Hoge Werf,24,,,3461CM,Linschoten,Montfoort,Utrecht,VBO,4.916311,52.061585
Dorpstraat,1,,,3461CN,Linschoten,Montfoort,Utrecht,VBO,4.913954,52.062510
Dorpstraat,9,,,3461CN,Linschoten,Montfoort,Utrecht,VBO,4.914500,52.062428
Dorpstraat,17,,,3461CN,Linschoten,Montfoort,Utrecht,VBO,4.914935,52.062267
Dorpstraat,19,,,3461CN,Linschoten,Montfoort,Utrecht,VBO,4.915017,52.062255
Dorpstraat,23,A,,3461CN,Linschoten,Montfoort,Utrecht,VBO,4.915213,52.062114
Dorpstraat,23,,,3461CN,Linschoten,Montfoort,Utrecht,VBO,4.915210,52.062190
Dorpstraat,25,,,3461CN,Linschoten,Montfoort,Utrecht,VBO,4.915357,52.062039
Dorpstraat,27,A,,3461CP,Linschoten,Montfoort,Utrecht,VBO,4.915365,52.061750
Dorpstraat,27,,,3461CP,Linschoten,Montfoort,Utrecht,VBO,4.915378,52.061777
Dorpstraat,29,,,3461CP,Linschoten,Montfoort,Utrecht,VBO,4.915434,52.061714
Dorpstraat,33,,,3461CP,Linschoten,Montfoort,Utrecht,VBO,4.915336,52.061602
Dorpstraat,35,,,3461CP,Linschoten,Montfoort,Utrecht,VBO,4.915298,52.061481
Dorpstraat,39,,,3461CP,Linschoten,Montfoort,Utrecht,VBO,4.915251,52.061367
Dorpstraat,41,,,3461CP,Linschoten,Montfoort,Utrecht,VBO,4.915287,52.061262
Dorpstraat,45,A,,3461CP,Linschoten,Montfoort,Utrecht,VBO,4.915271,52.061193
Dorpstraat,45,,,3461CP,Linschoten,Montfoort,Utrecht,VBO,4.915281,52.061182
Dorpstraat,47,,,3461CP,Linschoten,Montfoort,Utrecht,VBO,4.915270,52.061114
Dorpstraat,49,,,3461CP,Linschoten,Montfoort,Utrecht,VBO,4.915267,52.061034
Dorpstraat,51,,,3461CR,Linschoten,Montfoort,Utrecht,VBO,4.915387,52.060925
Dorpstraat,53,,,3461CR,Linschoten,Montfoort,Utrecht,VBO,4.915285,52.060803
Dorpstraat,57,,,3461CR,Linschoten,Montfoort,Utrecht,VBO,4.915182,52.060705
Dorpstraat,59,,,3461CR,Linschoten,Montfoort,Utrecht,VBO,4.915278,52.060689
Dorpstraat,61,,,3461CR,Linschoten,Montfoort,Utrecht,VBO,4.915397,52.060622
Dorpstraat,65,,,3461CR,Linschoten,Montfoort,Utrecht,VBO,4.915369,52.060536
Dorpstraat,67,,,3461CR,Linschoten,Montfoort,Utrecht,VBO,4.915206,52.060506
Dorpstraat,71,,,3461CR,Linschoten,Montfoort,Utrecht,VBO,4.915198,52.060418
Dorpstraat,73,,,3461CR,Linschoten,Montfoort,Utrecht,VBO,4.915188,52.060326
Dorpstraat,75,,,3461CR,Linschoten,Montfoort,Utrecht,VBO,4.915237,52.060278
Dorpstraat,79,,,3461CR,Linschoten,Montfoort,Utrecht,VBO,4.915380,52.060245
Dorpstraat,85,,,3461CR,Linschoten,Montfoort,Utrecht,VBO,4.915282,52.060203
Dorpstraat,89,,,3461CR,Linschoten,Montfoort,Utrecht,VBO,4.915283,52.060096
Dorpstraat,4,,,3461CS,Linschoten,Montfoort,Utrecht,VBO,4.914580,52.062204
Dorpstraat,6,,,3461CS,Linschoten,Montfoort,Utrecht,VBO,4.914700,52.062170
Dorpstraat,8,,,3461CS,Linschoten,Montfoort,Utrecht,VBO,4.914810,52.062126
Dorpstraat,10,,,3461CS,Linschoten,Montfoort,Utrecht,VBO,4.914957,52.062077
Dorpstraat,12,,,3461CS,Linschoten,Montfoort,Utrecht,VBO,4.915096,52.061998
Dorpstraat,14,a,,3461CS,Linschoten,Montfoort,Utrecht,VBO,4.915153,52.061826
Dorpstraat,14,,,3461CS,Linschoten,Montfoort,Utrecht,VBO,4.915132,52.061831
Dorpstraat,16,,,3461CS,Linschoten,Montfoort,Utrecht,VBO,4.915126,52.061774
Dorpstraat,20,,,3461CS,Linschoten,Montfoort,Utrecht,VBO,4.915159,52.061706
Dorpstraat,22,,,3461CS,Linschoten,Montfoort,Utrecht,VBO,4.915110,52.061665
Dorpstraat,24,,,3461CS,Linschoten,Montfoort,Utrecht,VBO,4.915155,52.061599
Dorpstraat,26,,,3461CS,Linschoten,Montfoort,Utrecht,VBO,4.915046,52.061526
Dorpstraat,28,,,3461CS,Linschoten,Montfoort,Utrecht,VBO,4.915067,52.061447
Dorpstraat,30,,,3461CS,Linschoten,Montfoort,Utrecht,VBO,4.914949,52.061453
Dorpstraat,34,A,,3461CT,Linschoten,Montfoort,Utrecht,VBO,4.915037,52.061202
Dorpstraat,34,,,3461CT,Linschoten,Montfoort,Utrecht,VBO,4.914993,52.061251
Dorpstraat,38,,,3461CT,Linschoten,Montfoort,Utrecht,VBO,4.914994,52.061018
Dorpstraat,40,,,3461CT,Linschoten,Montfoort,Utrecht,VBO,4.915017,52.060947
Dorpstraat,42,,,3461CT,Linschoten,Montfoort,Utrecht,VBO,4.915023,52.060900
Dorpstraat,46,,,3461CT,Linschoten,Montfoort,Utrecht,VBO,4.914999,52.060775
Dorpstraat,48,A,,3461CT,Linschoten,Montfoort,Utrecht,VBO,4.915023,52.060649
Dorpstraat,48,,,3461CT,Linschoten,Montfoort,Utrecht,VBO,4.915018,52.060701
Dorpstraat,50,,,3461CT,Linschoten,Montfoort,Utrecht,VBO,4.914992,52.060606
Raadhuisstraat,1,A,,3461CV,Linschoten,Montfoort,Utrecht,VBO,4.914557,52.061241
Raadhuisstraat,1,,,3461CV,Linschoten,Montfoort,Utrecht,VBO,4.914543,52.061196
Raadhuisstraat,2,,,3461CV,Linschoten,Montfoort,Utrecht,VBO,4.914317,52.061211
Raadhuisstraat,6,,,3461CV,Linschoten,Montfoort,Utrecht,VBO,4.914586,52.061468
Raadhuisstraat,7,,,3461CV,Linschoten,Montfoort,Utrecht,VBO,4.914603,52.061521
Raadhuisstraat,10,,,3461CV,Linschoten,Montfoort,Utrecht,VBO,4.914634,52.061679
Raadhuisstraat,12,,,3461CV,Linschoten,Montfoort,Utrecht,VBO,4.914675,52.061738
Raadhuisstraat,17,,,3461CW,Linschoten,Montfoort,Utrecht,VBO,4.914519,52.061946
Raadhuisstraat,18,,,3461CW,Linschoten,Montfoort,Utrecht,VBO,4.914531,52.061890
Raadhuisstraat,19,,,3461CW,Linschoten,Montfoort,Utrecht,VBO,4.914354,52.062010
Raadhuisstraat,20,,,3461CW,Linschoten,Montfoort,Utrecht,VBO,4.913845,52.062062
Raadhuisstraat,21,,,3461CW,Linschoten,Montfoort,Utrecht,VBO,4.913756,52.062075
Raadhuisstraat,22,,,3461CW,Linschoten,Montfoort,Utrecht,VBO,4.913587,52.062036
De Gouwe Berg,1,,,3461CX,Linschoten,Montfoort,Utrecht,VBO,4.914712,52.061782
De Gouwe Berg,2,,,3461CX,Linschoten,Montfoort,Utrecht,VBO,4.914521,52.061709
De Gouwe Berg,3,,,3461CX,Linschoten,Montfoort,Utrecht,VBO,4.914151,52.061685
De Gouwe Berg,4,,,3461CX,Linschoten,Montfoort,Utrecht,VBO,4.914124,52.061728
De Gouwe Berg,5,,,3461CX,Linschoten,Montfoort,Utrecht,VBO,4.914091,52.061768
De Gouwe Berg,6,,,3461CX,Linschoten,Montfoort,Utrecht,VBO,4.914049,52.061801
K Linschoten Westzijde,1,,,3461EA,Linschoten,Montfoort,Utrecht,VBO,4.913336,52.062109
K Linschoten Westzijde,2,,,3461EA,Linschoten,Montfoort,Utrecht,VBO,4.912899,52.061944
K Linschoten Westzijde,3,,,3461EA,Linschoten,Montfoort,Utrecht,VBO,4.913052,52.062161
K Linschoten Westzijde,4,,,3461EA,Linschoten,Montfoort,Utrecht,VBO,4.912736,52.062186
K Linschoten Westzijde,6,,,3461EA,Linschoten,Montfoort,Utrecht,VBO,4.912546,52.062297
K Linschoten Westzijde,7,,,3461EA,Linschoten,Montfoort,Utrecht,VBO,4.912341,52.062499
K Linschoten Westzijde,8,,,3461EA,Linschoten,Montfoort,Utrecht,VBO,4.912284,52.062543
K Linschoten Westzijde,11,,,3461EA,Linschoten,Montfoort,Utrecht,VBO,4.911956,52.062647
K Linschoten Westzijde,12,,,3461EA,Linschoten,Montfoort,Utrecht,VBO,4.911848,52.062804
K Linschoten Westzijde,13,,,3461EA,Linschoten,Montfoort,Utrecht,VBO,4.911774,52.062858
K Linschoten Westzijde,14,,,3461EA,Linschoten,Montfoort,Utrecht,VBO,4.911603,52.062915
K Linschoten Westzijde,15,,,3461EA,Linschoten,Montfoort,Utrecht,VBO,4.911352,52.063007
K Linschoten Westzijde,16,,,3461EA,Linschoten,Montfoort,Utrecht,VBO,4.911109,52.063032
K Linschoten Westzijde,16,,,3461EA,Linschoten,Montfoort,Utrecht,VBO,4.911139,52.063077
K Linschoten Westzijde,17,,,3461EA,Linschoten,Montfoort,Utrecht,VBO,4.910913,52.063124
K Linschoten Westzijde,18,,,3461EB,Linschoten,Montfoort,Utrecht,VBO,4.910473,52.063303
K Linschoten Westzijde,19,,,3461EB,Linschoten,Montfoort,Utrecht,VBO,4.910309,52.063432
K Linschoten Westzijde,20,,,3461EB,Linschoten,Montfoort,Utrecht,VBO,4.910085,52.063541
K Linschoten Westzijde,21,a,,3461EB,Linschoten,Montfoort,Utrecht,VBO,4.909701,52.063736
K Linschoten Westzijde,21,,,3461EB,Linschoten,Montfoort,Utrecht,VBO,4.909863,52.063667
K Linschoten Westzijde,22,A,,3461EB,Linschoten,Montfoort,Utrecht,VBO,4.909445,52.063878
K Linschoten Westzijde,22,,,3461EB,Linschoten,Montfoort,Utrecht,VBO,4.909480,52.063836
K Linschoten Westzijde,23,,,3461EB,Linschoten,Montfoort,Utrecht,VBO,4.909209,52.064081
K Linschoten Westzijde,24,,,3461EC,Linschoten,Montfoort,Utrecht,VBO,4.908192,52.064961
K Linschoten Westzijde,25,,,3461EC,Linschoten,Montfoort,Utrecht,VBO,4.908156,52.065007
K Linschoten Westzijde,26,,,3461EC,Linschoten,Montfoort,Utrecht,VBO,4.907838,52.065086
K Linschoten Westzijde,27,,,3461EC,Linschoten,Montfoort,Utrecht,VBO,4.906235,52.066622
K Linschoten Westzijde,29,,,3461EC,Linschoten,Montfoort,Utrecht,VBO,4.905389,52.066996
K Linschoten Westzijde,30,,,3461EC,Linschoten,Montfoort,Utrecht,VBO,4.905345,52.067031
K Linschoten Westzijde,31,,,3461EC,Linschoten,Montfoort,Utrecht,VBO,4.905201,52.067015
K Linschoten Westzijde,32,,,3461EC,Linschoten,Montfoort,Utrecht,VBO,4.905113,52.067166
K Linschoten Westzijde,33,,,3461EC,Linschoten,Montfoort,Utrecht,VBO,4.905147,52.067240
K Linschoten Westzijde,34,,,3461EC,Linschoten,Montfoort,Utrecht,VBO,4.905058,52.067303
K Linschoten Westzijde,35,,,3461EC,Linschoten,Montfoort,Utrecht,VBO,4.903425,52.068440
Strick van Linschotenstraat,1,A,,3461ED,Linschoten,Montfoort,Utrecht,VBO,4.913107,52.061419
Strick van Linschotenstraat,1,B,,3461ED,Linschoten,Montfoort,Utrecht,VBO,4.913163,52.061412
Strick van Linschotenstraat,1,C,,3461ED,Linschoten,Montfoort,Utrecht,VBO,4.913215,52.061406
Strick van Linschotenstraat,1,D,,3461ED,Linschoten,Montfoort,Utrecht,VBO,4.913275,52.061400
Strick van Linschotenstraat,1,E,,3461ED,Linschoten,Montfoort,Utrecht,VBO,4.913058,52.061319
Strick van Linschotenstraat,1,G,,3461ED,Linschoten,Montfoort,Utrecht,VBO,4.913118,52.061312
Strick van Linschotenstraat,1,H,,3461ED,Linschoten,Montfoort,Utrecht,VBO,4.913189,52.061305
Strick van Linschotenstraat,1,J,,3461ED,Linschoten,Montfoort,Utrecht,VBO,4.913259,52.061297
Strick van Linschotenstraat,1,K,,3461ED,Linschoten,Montfoort,Utrecht,VBO,4.913048,52.061363
Strick van Linschotenstraat,1,L,,3461ED,Linschoten,Montfoort,Utrecht,VBO,4.913115,52.061360
Strick van Linschotenstraat,1,M,,3461ED,Linschoten,Montfoort,Utrecht,VBO,4.913185,52.061353
Strick van Linschotenstraat,1,N,,3461ED,Linschoten,Montfoort,Utrecht,VBO,4.913258,52.061345
Strick van Linschotenstraat,1,P,,3461ED,Linschoten,Montfoort,Utrecht,VBO,4.913056,52.061342
Strick van Linschotenstraat,1,R,,3461ED,Linschoten,Montfoort,Utrecht,VBO,4.913115,52.061337
Strick van Linschotenstraat,1,S,,3461ED,Linschoten,Montfoort,Utrecht,VBO,4.913187,52.061329
Strick van Linschotenstraat,1,T,,3461ED,Linschoten,Montfoort,Utrecht,VBO,4.913254,52.061320
Strick van Linschotenstraat,1,,,3461ED,Linschoten,Montfoort,Utrecht,VBO,4.913260,52.061370
Strick van Linschotenstraat,3,,,3461ED,Linschoten,Montfoort,Utrecht,VBO,4.912817,52.061381
Strick van Linschotenstraat,5,,,3461ED,Linschoten,Montfoort,Utrecht,VBO,4.912762,52.061377
Strick van Linschotenstraat,7,,,3461ED,Linschoten,Montfoort,Utrecht,VBO,4.912728,52.061400
Strick van Linschotenstraat,9,,,3461ED,Linschoten,Montfoort,Utrecht,VBO,4.912685,52.061385
Strick van Linschotenstraat,11,,,3461ED,Linschoten,Montfoort,Utrecht,VBO,4.912658,52.061409
Strick van Linschotenstraat,13,,,3461ED,Linschoten,Montfoort,Utrecht,VBO,4.912599,52.061389
Strick van Linschotenstraat,15,,,3461ED,Linschoten,Montfoort,Utrecht,VBO,4.912559,52.061413
Strick van Linschotenstraat,17,,,3461ED,Linschoten,Montfoort,Utrecht,VBO,4.912511,52.061396
Strick van Linschotenstraat,19,,,3461ED,Linschoten,Montfoort,Utrecht,VBO,4.912466,52.061423
Strick van Linschotenstraat,21,,,3461ED,Linschoten,Montfoort,Utrecht,VBO,4.912402,52.061418
Strick van Linschotenstraat,25,,,3461ED,Linschoten,Montfoort,Utrecht,VBO,4.911825,52.061400
Strick van Linschotenstraat,27,,,3461ED,Linschoten,Montfoort,Utrecht,VBO,4.911789,52.061439
Strick van Linschotenstraat,29,,,3461ED,Linschoten,Montfoort,Utrecht,VBO,4.911755,52.061481
Strick van Linschotenstraat,31,,,3461ED,Linschoten,Montfoort,Utrecht,VBO,4.911715,52.061524
Strick van Linschotenstraat,33,,,3461ED,Linschoten,Montfoort,Utrecht,VBO,4.911677,52.061568
Strick van Linschotenstraat,35,,,3461ED,Linschoten,Montfoort,Utrecht,VBO,4.911641,52.061609
Strick van Linschotenstraat,37,,,3461ED,Linschoten,Montfoort,Utrecht,VBO,4.911596,52.061651
Strick van Linschotenstraat,39,,,3461ED,Linschoten,Montfoort,Utrecht,VBO,4.911506,52.062117
Strick van Linschotenstraat,41,,,3461ED,Linschoten,Montfoort,Utrecht,VBO,4.911454,52.062156
Strick van Linschotenstraat,43,,,3461ED,Linschoten,Montfoort,Utrecht,VBO,4.911391,52.062195
Strick van Linschotenstraat,45,,,3461ED,Linschoten,Montfoort,Utrecht,VBO,4.911324,52.062235
Strick van Linschotenstraat,47,,,3461ED,Linschoten,Montfoort,Utrecht,VBO,4.911263,52.062271
Strick van Linschotenstraat,49,,,3461ED,Linschoten,Montfoort,Utrecht,VBO,4.911204,52.062294
Strick van Linschotenstraat,51,,,3461EE,Linschoten,Montfoort,Utrecht,VBO,4.910922,52.062480
Strick van Linschotenstraat,53,,,3461EE,Linschoten,Montfoort,Utrecht,VBO,4.910848,52.062523
Strick van Linschotenstraat,55,,,3461EE,Linschoten,Montfoort,Utrecht,VBO,4.910719,52.062600
Strick van Linschotenstraat,57,,,3461EE,Linschoten,Montfoort,Utrecht,VBO,4.910648,52.062649
Strick van Linschotenstraat,59,,,3461EE,Linschoten,Montfoort,Utrecht,VBO,4.910576,52.062691
Strick van Linschotenstraat,61,,,3461EE,Linschoten,Montfoort,Utrecht,VBO,4.910484,52.062738
Strick van Linschotenstraat,63,,,3461EE,Linschoten,Montfoort,Utrecht,VBO,4.910186,52.062884
Strick van Linschotenstraat,65,,,3461EE,Linschoten,Montfoort,Utrecht,VBO,4.910137,52.062927
Strick van Linschotenstraat,67,,,3461EE,Linschoten,Montfoort,Utrecht,VBO,4.910071,52.062965
Strick van Linschotenstraat,69,,,3461EE,Linschoten,Montfoort,Utrecht,VBO,4.910011,52.063005
Strick van Linschotenstraat,71,,,3461EE,Linschoten,Montfoort,Utrecht,VBO,4.909957,52.063038
Strick van Linschotenstraat,73,,,3461EE,Linschoten,Montfoort,Utrecht,VBO,4.909883,52.063068
Strick van Linschotenstraat,75,,,3461EE,Linschoten,Montfoort,Utrecht,VBO,4.909482,52.063124
Strick van Linschotenstraat,77,,,3461EE,Linschoten,Montfoort,Utrecht,VBO,4.909409,52.063092
Strick van Linschotenstraat,79,,,3461EE,Linschoten,Montfoort,Utrecht,VBO,4.909318,52.063048
Strick van Linschotenstraat,81,,,3461EE,Linschoten,Montfoort,Utrecht,VBO,4.909260,52.063159
Strick van Linschotenstraat,83,,,3461EE,Linschoten,Montfoort,Utrecht,VBO,4.909218,52.063199
Strick van Linschotenstraat,85,,,3461EE,Linschoten,Montfoort,Utrecht,VBO,4.909153,52.063255
Strick van Linschotenstraat,87,,,3461EE,Linschoten,Montfoort,Utrecht,VBO,4.909170,52.063136
Strick van Linschotenstraat,89,,,3461EE,Linschoten,Montfoort,Utrecht,VBO,4.909125,52.063176
Strick van Linschotenstraat,91,,,3461EE,Linschoten,Montfoort,Utrecht,VBO,4.909091,52.063219
Strick van Linschotenstraat,2,,,3461EG,Linschoten,Montfoort,Utrecht,VBO,4.914330,52.061477
Strick van Linschotenstraat,4,,,3461EG,Linschoten,Montfoort,Utrecht,VBO,4.914320,52.061490
Strick van Linschotenstraat,6,,,3461EG,Linschoten,Montfoort,Utrecht,VBO,4.914201,52.061520
Strick van Linschotenstraat,8,,,3461EG,Linschoten,Montfoort,Utrecht,VBO,4.913978,52.061557
Strick van Linschotenstraat,10,,,3461EG,Linschoten,Montfoort,Utrecht,VBO,4.913896,52.061563
Strick van Linschotenstraat,12,,,3461EG,Linschoten,Montfoort,Utrecht,VBO,4.913714,52.061581
Strick van Linschotenstraat,16,A,,3461EG,Linschoten,Montfoort,Utrecht,VBO,4.913467,52.061750
Strick van Linschotenstraat,16,B,,3461EG,Linschoten,Montfoort,Utrecht,VBO,4.913357,52.061762
Strick van Linschotenstraat,16,C,,3461EG,Linschoten,Montfoort,Utrecht,VBO,4.913292,52.061728
Strick van Linschotenstraat,16,D,,3461EG,Linschoten,Montfoort,Utrecht,VBO,4.913356,52.061651
Strick van Linschotenstraat,16,E,,3461EG,Linschoten,Montfoort,Utrecht,VBO,4.913409,52.061615
Strick van Linschotenstraat,16,F,,3461EG,Linschoten,Montfoort,Utrecht,VBO,4.913351,52.061622
Strick van Linschotenstraat,16,G,,3461EG,Linschoten,Montfoort,Utrecht,VBO,4.913285,52.061630
Strick van Linschotenstraat,16,,,3461EG,Linschoten,Montfoort,Utrecht,VBO,4.913433,52.061665
Strick van Linschotenstraat,18,,,3461EG,Linschoten,Montfoort,Utrecht,VBO,4.913024,52.061698
Strick van Linschotenstraat,20,,,3461EG,Linschoten,Montfoort,Utrecht,VBO,4.912921,52.061696
Strick van Linschotenstraat,22,,,3461EG,Linschoten,Montfoort,Utrecht,VBO,4.912831,52.061706
Strick van Linschotenstraat,24,,,3461EG,Linschoten,Montfoort,Utrecht,VBO,4.912733,52.061716
Strick van Linschotenstraat,26,,,3461EG,Linschoten,Montfoort,Utrecht,VBO,4.912641,52.061731
Strick van Linschotenstraat,28,A,,3461EG,Linschoten,Montfoort,Utrecht,VBO,4.912481,52.061717
Strick van Linschotenstraat,28,,,3461EG,Linschoten,Montfoort,Utrecht,VBO,4.912435,52.061756
Strick van Linschotenstraat,30,,,3461EG,Linschoten,Montfoort,Utrecht,VBO,4.912379,52.061808
Strick van Linschotenstraat,32,,,3461EG,Linschoten,Montfoort,Utrecht,VBO,4.912325,52.061848
Strick van Linschotenstraat,34,,,3461EG,Linschoten,Montfoort,Utrecht,VBO,4.912282,52.061890
Strick van Linschotenstraat,36,,,3461EG,Linschoten,Montfoort,Utrecht,VBO,4.912242,52.061937
Strick van Linschotenstraat,38,,,3461EG,Linschoten,Montfoort,Utrecht,VBO,4.912190,52.061983
Strick van Linschotenstraat,40,,,3461EG,Linschoten,Montfoort,Utrecht,VBO,4.912141,52.062032
Strick van Linschotenstraat,42,,,3461EG,Linschoten,Montfoort,Utrecht,VBO,4.912097,52.062076
Strick van Linschotenstraat,44,,,3461EH,Linschoten,Montfoort,Utrecht,VBO,4.911940,52.062255
Strick van Linschotenstraat,46,,,3461EH,Linschoten,Montfoort,Utrecht,VBO,4.911720,52.062361
Strick van Linschotenstraat,48,,,3461EH,Linschoten,Montfoort,Utrecht,VBO,4.911630,52.062412
Strick van Linschotenstraat,50,,,3461EH,Linschoten,Montfoort,Utrecht,VBO,4.911537,52.062462
Strick van Linschotenstraat,52,,,3461EH,Linschoten,Montfoort,Utrecht,VBO,4.911464,52.062516
Strick van Linschotenstraat,54,,,3461EH,Linschoten,Montfoort,Utrecht,VBO,4.911376,52.062584
Strick van Linschotenstraat,56,,,3461EH,Linschoten,Montfoort,Utrecht,VBO,4.911296,52.062623
Strick van Linschotenstraat,58,,,3461EH,Linschoten,Montfoort,Utrecht,VBO,4.911202,52.062677
Strick van Linschotenstraat,60,,,3461EH,Linschoten,Montfoort,Utrecht,VBO,4.911122,52.062723
Strick van Linschotenstraat,62,,,3461EH,Linschoten,Montfoort,Utrecht,VBO,4.911018,52.062782
Strick van Linschotenstraat,64,,,3461EH,Linschoten,Montfoort,Utrecht,VBO,4.910918,52.062829
Strick van Linschotenstraat,66,,,3461EH,Linschoten,Montfoort,Utrecht,VBO,4.910839,52.062875
Strick van Linschotenstraat,68,,,3461EJ,Linschoten,Montfoort,Utrecht,VBO,4.910761,52.062918
Strick van Linschotenstraat,70,,,3461EJ,Linschoten,Montfoort,Utrecht,VBO,4.910503,52.063047
Strick van Linschotenstraat,72,,,3461EJ,Linschoten,Montfoort,Utrecht,VBO,4.910431,52.063083
Strick van Linschotenstraat,74,,,3461EJ,Linschoten,Montfoort,Utrecht,VBO,4.910369,52.063116
Strick van Linschotenstraat,76,,,3461EJ,Linschoten,Montfoort,Utrecht,VBO,4.910303,52.063161
Strick van Linschotenstraat,78,,,3461EJ,Linschoten,Montfoort,Utrecht,VBO,4.910191,52.063234
Strick van Linschotenstraat,80,,,3461EJ,Linschoten,Montfoort,Utrecht,VBO,4.910121,52.063269
Strick van Linschotenstraat,82,,,3461EJ,Linschoten,Montfoort,Utrecht,VBO,4.910054,52.063308
Strick van Linschotenstraat,84,,,3461EJ,Linschoten,Montfoort,Utrecht,VBO,4.909995,52.063355
Strick van Linschotenstraat,86,,,3461EJ,Linschoten,Montfoort,Utrecht,VBO,4.909801,52.063434
Strick van Linschotenstraat,88,,,3461EJ,Linschoten,Montfoort,Utrecht,VBO,4.909704,52.063443
Strick van Linschotenstraat,90,,,3461EJ,Linschoten,Montfoort,Utrecht,VBO,4.909484,52.063508
Strick van Linschotenstraat,92,,,3461EJ,Linschoten,Montfoort,Utrecht,VBO,4.909171,52.063570
G van der Valk Boumanstraat,1,,,3461EK,Linschoten,Montfoort,Utrecht,VBO,4.911499,52.061810
G van der Valk Boumanstraat,3,,,3461EK,Linschoten,Montfoort,Utrecht,VBO,4.911395,52.061789
G van der Valk Boumanstraat,5,,,3461EK,Linschoten,Montfoort,Utrecht,VBO,4.911320,52.061764
G van der Valk Boumanstraat,7,,,3461EK,Linschoten,Montfoort,Utrecht,VBO,4.911240,52.061741
G van der Valk Boumanstraat,9,,,3461EK,Linschoten,Montfoort,Utrecht,VBO,4.911162,52.061708
G van der Valk Boumanstraat,11,,,3461EK,Linschoten,Montfoort,Utrecht,VBO,4.911114,52.061678
G van der Valk Boumanstraat,15,,,3461EK,Linschoten,Montfoort,Utrecht,VBO,4.910412,52.061424
G van der Valk Boumanstraat,17,,,3461EK,Linschoten,Montfoort,Utrecht,VBO,4.910337,52.061406
G van der Valk Boumanstraat,19,,,3461EK,Linschoten,Montfoort,Utrecht,VBO,4.910260,52.061382
G van der Valk Boumanstraat,21,,,3461EK,Linschoten,Montfoort,Utrecht,VBO,4.910182,52.061357
G van der Valk Boumanstraat,23,,,3461EK,Linschoten,Montfoort,Utrecht,VBO,4.910103,52.061325
G van der Valk Boumanstraat,25,,,3461EK,Linschoten,Montfoort,Utrecht,VBO,4.910025,52.061300
G van der Valk Boumanstraat,27,,,3461EK,Linschoten,Montfoort,Utrecht,VBO,4.909972,52.061275
G van der Valk Boumanstraat,29,,,3461EK,Linschoten,Montfoort,Utrecht,VBO,4.909814,52.061223
G van der Valk Boumanstraat,31,,,3461EK,Linschoten,Montfoort,Utrecht,VBO,4.909736,52.061202
G van der Valk Boumanstraat,33,,,3461EK,Linschoten,Montfoort,Utrecht,VBO,4.909661,52.061177
G van der Valk Boumanstraat,35,,,3461EK,Linschoten,Montfoort,Utrecht,VBO,4.909588,52.061152
G van der Valk Boumanstraat,37,,,3461EK,Linschoten,Montfoort,Utrecht,VBO,4.909513,52.061123
G van der Valk Boumanstraat,39,,,3461EK,Linschoten,Montfoort,Utrecht,VBO,4.909454,52.061086
G van der Valk Boumanstraat,2,,,3461EL,Linschoten,Montfoort,Utrecht,VBO,4.912300,52.062415
G van der Valk Boumanstraat,4,,,3461EL,Linschoten,Montfoort,Utrecht,VBO,4.912256,52.062374
G van der Valk Boumanstraat,6,a,,3461EL,Linschoten,Montfoort,Utrecht,VBO,4.912142,52.062340
G van der Valk Boumanstraat,6,,,3461EL,Linschoten,Montfoort,Utrecht,VBO,4.912201,52.062350
G van der Valk Boumanstraat,8,,,3461EL,Linschoten,Montfoort,Utrecht,VBO,4.911239,52.062018
G van der Valk Boumanstraat,10,,,3461EL,Linschoten,Montfoort,Utrecht,VBO,4.911171,52.061991
G van der Valk Boumanstraat,12,,,3461EL,Linschoten,Montfoort,Utrecht,VBO,4.911100,52.061963
G van der Valk Boumanstraat,14,,,3461EL,Linschoten,Montfoort,Utrecht,VBO,4.911025,52.061936
G van der Valk Boumanstraat,16,,,3461EL,Linschoten,Montfoort,Utrecht,VBO,4.910952,52.061908
G van der Valk Boumanstraat,18,,,3461EL,Linschoten,Montfoort,Utrecht,VBO,4.910870,52.061880
G van der Valk Boumanstraat,20,,,3461EL,Linschoten,Montfoort,Utrecht,VBO,4.910793,52.061856
G van der Valk Boumanstraat,22,,,3461EL,Linschoten,Montfoort,Utrecht,VBO,4.910722,52.061833
G van der Valk Boumanstraat,24,,,3461EL,Linschoten,Montfoort,Utrecht,VBO,4.910573,52.061775
G van der Valk Boumanstraat,26,,,3461EL,Linschoten,Montfoort,Utrecht,VBO,4.910515,52.061737
G van der Valk Boumanstraat,28,,,3461EL,Linschoten,Montfoort,Utrecht,VBO,4.910446,52.061716
G van der Valk Boumanstraat,30,,,3461EL,Linschoten,Montfoort,Utrecht,VBO,4.910364,52.061682
G van der Valk Boumanstraat,32,,,3461EL,Linschoten,Montfoort,Utrecht,VBO,4.910285,52.061657
G van der Valk Boumanstraat,34,,,3461EL,Linschoten,Montfoort,Utrecht,VBO,4.910210,52.061632
G van der Valk Boumanstraat,36,,,3461EL,Linschoten,Montfoort,Utrecht,VBO,4.910134,52.061602
G van der Valk Boumanstraat,38,,,3461EL,Linschoten,Montfoort,Utrecht,VBO,4.910057,52.061577
G van der Valk Boumanstraat,40,,,3461EL,Linschoten,Montfoort,Utrecht,VBO,4.909977,52.061550
G van der Valk Boumanstraat,42,,,3461EL,Linschoten,Montfoort,Utrecht,VBO,4.909895,52.061538
Acacialaan,1,,,3461EM,Linschoten,Montfoort,Utrecht,VBO,4.910961,52.062250
Acacialaan,3,,,3461EM,Linschoten,Montfoort,Utrecht,VBO,4.910879,52.062222
Acacialaan,5,,,3461EM,Linschoten,Montfoort,Utrecht,VBO,4.910790,52.062189
Acacialaan,7,,,3461EM,Linschoten,Montfoort,Utrecht,VBO,4.910647,52.062145
Acacialaan,9,,,3461EM,Linschoten,Montfoort,Utrecht,VBO,4.910593,52.062126
Acacialaan,11,,,3461EM,Linschoten,Montfoort,Utrecht,VBO,4.910533,52.062101
Acacialaan,13,,,3461EM,Linschoten,Montfoort,Utrecht,VBO,4.910456,52.062074
Acacialaan,15,,,3461EM,Linschoten,Montfoort,Utrecht,VBO,4.910299,52.062021
Acacialaan,17,,,3461EM,Linschoten,Montfoort,Utrecht,VBO,4.910246,52.061996
Acacialaan,19,,,3461EM,Linschoten,Montfoort,Utrecht,VBO,4.910171,52.061968
Acacialaan,21,,,3461EM,Linschoten,Montfoort,Utrecht,VBO,4.910100,52.061946
Acacialaan,23,,,3461EM,Linschoten,Montfoort,Utrecht,VBO,4.909970,52.061886
Acacialaan,25,,,3461EM,Linschoten,Montfoort,Utrecht,VBO,4.909889,52.061861
Acacialaan,27,,,3461EM,Linschoten,Montfoort,Utrecht,VBO,4.909809,52.061832
Acacialaan,29,,,3461EM,Linschoten,Montfoort,Utrecht,VBO,4.909734,52.061809
Acacialaan,2,,,3461EN,Linschoten,Montfoort,Utrecht,VBO,4.910657,52.062384
Acacialaan,4,,,3461EN,Linschoten,Montfoort,Utrecht,VBO,4.910584,52.062348
Acacialaan,6,,,3461EN,Linschoten,Montfoort,Utrecht,VBO,4.910516,52.062324
Acacialaan,8,,,3461EN,Linschoten,Montfoort,Utrecht,VBO,4.910441,52.062298
Acacialaan,10,,,3461EN,Linschoten,Montfoort,Utrecht,VBO,4.910368,52.062277
Acacialaan,12,,,3461EN,Linschoten,Montfoort,Utrecht,VBO,4.910223,52.062226
Acacialaan,14,,,3461EN,Linschoten,Montfoort,Utrecht,VBO,4.910156,52.062195
Acacialaan,16,,,3461EN,Linschoten,Montfoort,Utrecht,VBO,4.910081,52.062170
Acacialaan,18,,,3461EN,Linschoten,Montfoort,Utrecht,VBO,4.910004,52.062150
Acacialaan,20,,,3461EN,Linschoten,Montfoort,Utrecht,VBO,4.909858,52.062100
Acacialaan,22,,,3461EN,Linschoten,Montfoort,Utrecht,VBO,4.909792,52.062067
Acacialaan,24,,,3461EN,Linschoten,Montfoort,Utrecht,VBO,4.909721,52.062042
Acacialaan,26,,,3461EN,Linschoten,Montfoort,Utrecht,VBO,4.909645,52.062024
Berkenlaan,1,,,3461EP,Linschoten,Montfoort,Utrecht,VBO,4.910231,52.062629
Berkenlaan,2,,,3461EP,Linschoten,Montfoort,Utrecht,VBO,4.910150,52.062604
Berkenlaan,3,,,3461EP,Linschoten,Montfoort,Utrecht,VBO,4.910074,52.062575
Berkenlaan,4,,,3461EP,Linschoten,Montfoort,Utrecht,VBO,4.910017,52.062538
Berkenlaan,5,,,3461EP,Linschoten,Montfoort,Utrecht,VBO,4.909847,52.062468
Berkenlaan,6,,,3461EP,Linschoten,Montfoort,Utrecht,VBO,4.909771,52.062445
Berkenlaan,7,,,3461EP,Linschoten,Montfoort,Utrecht,VBO,4.909694,52.062412
Berkenlaan,8,,,3461EP,Linschoten,Montfoort,Utrecht,VBO,4.909627,52.062384
Berkenlaan,9,,,3461EP,Linschoten,Montfoort,Utrecht,VBO,4.909554,52.062355
Berkenlaan,10,,,3461EP,Linschoten,Montfoort,Utrecht,VBO,4.909499,52.062313
Esdoornstraat,1,,,3461ER,Linschoten,Montfoort,Utrecht,VBO,4.909489,52.062583
Esdoornstraat,2,,,3461ER,Linschoten,Montfoort,Utrecht,VBO,4.909798,52.062717
Esdoornstraat,3,,,3461ER,Linschoten,Montfoort,Utrecht,VBO,4.909436,52.062628
Esdoornstraat,4,,,3461ER,Linschoten,Montfoort,Utrecht,VBO,4.909744,52.062758
Esdoornstraat,5,,,3461ER,Linschoten,Montfoort,Utrecht,VBO,4.909382,52.062664
Esdoornstraat,6,,,3461ER,Linschoten,Montfoort,Utrecht,VBO,4.909711,52.062805
Esdoornstraat,7,,,3461ER,Linschoten,Montfoort,Utrecht,VBO,4.909325,52.062705
Esdoornstraat,8,,,3461ER,Linschoten,Montfoort,Utrecht,VBO,4.909673,52.062860
Esdoornstraat,9,,,3461ER,Linschoten,Montfoort,Utrecht,VBO,4.909267,52.062746
Esdoornstraat,10,,,3461ER,Linschoten,Montfoort,Utrecht,VBO,4.909647,52.062905
Esdoornstraat,11,,,3461ER,Linschoten,Montfoort,Utrecht,VBO,4.909193,52.062774
Esdoornstraat,12,,,3461ER,Linschoten,Montfoort,Utrecht,VBO,4.909622,52.062959
Meidoornlaan,1,,,3461ES,Linschoten,Montfoort,Utrecht,VBO,4.909255,52.061346
Meidoornlaan,5,,,3461ES,Linschoten,Montfoort,Utrecht,VBO,4.909148,52.061543
Meidoornlaan,7,,,3461ES,Linschoten,Montfoort,Utrecht,VBO,4.909134,52.061567
Meidoornlaan,9,,,3461ES,Linschoten,Montfoort,Utrecht,VBO,4.909030,52.061751
Meidoornlaan,11,,,3461ES,Linschoten,Montfoort,Utrecht,VBO,4.908841,52.061899
Meidoornlaan,13,,,3461ES,Linschoten,Montfoort,Utrecht,VBO,4.908765,52.062057
Meidoornlaan,15,,,3461ES,Linschoten,Montfoort,Utrecht,VBO,4.908702,52.062237
Meidoornlaan,2,,,3461ET,Linschoten,Montfoort,Utrecht,VBO,4.909656,52.061460
Meidoornlaan,4,,,3461ET,Linschoten,Montfoort,Utrecht,VBO,4.909595,52.061504
Meidoornlaan,6,,,3461ET,Linschoten,Montfoort,Utrecht,VBO,4.909567,52.061556
Meidoornlaan,8,,,3461ET,Linschoten,Montfoort,Utrecht,VBO,4.909536,52.061608
Meidoornlaan,10,,,3461ET,Linschoten,Montfoort,Utrecht,VBO,4.909518,52.061657
Meidoornlaan,12,,,3461ET,Linschoten,Montfoort,Utrecht,VBO,4.909492,52.061711
Meidoornlaan,14,,,3461ET,Linschoten,Montfoort,Utrecht,VBO,4.909356,52.061922
Meidoornlaan,16,,,3461ET,Linschoten,Montfoort,Utrecht,VBO,4.909339,52.061964
Meidoornlaan,18,,,3461ET,Linschoten,Montfoort,Utrecht,VBO,4.909314,52.062016
Meidoornlaan,20,,,3461ET,Linschoten,Montfoort,Utrecht,VBO,4.909276,52.062067
Meidoornlaan,22,,,3461ET,Linschoten,Montfoort,Utrecht,VBO,4.909252,52.062109
Meidoornlaan,24,,,3461ET,Linschoten,Montfoort,Utrecht,VBO,4.909221,52.062163
Meidoornlaan,26,,,3461EV,Linschoten,Montfoort,Utrecht,VBO,4.909017,52.062393
Meidoornlaan,28,,,3461EV,Linschoten,Montfoort,Utrecht,VBO,4.908988,52.062432
Meidoornlaan,30,,,3461EV,Linschoten,Montfoort,Utrecht,VBO,4.908951,52.062484
Meidoornlaan,32,,,3461EV,Linschoten,Montfoort,Utrecht,VBO,4.908933,52.062530
Meidoornlaan,34,,,3461EV,Linschoten,Montfoort,Utrecht,VBO,4.908895,52.062581
Meidoornlaan,36,,,3461EV,Linschoten,Montfoort,Utrecht,VBO,4.908881,52.062637
Meidoornlaan,38,,,3461EV,Linschoten,Montfoort,Utrecht,VBO,4.909010,52.062919
Meidoornlaan,40,,,3461EV,Linschoten,Montfoort,Utrecht,VBO,4.909078,52.062941
Meidoornlaan,42,,,3461EV,Linschoten,Montfoort,Utrecht,VBO,4.909158,52.062977
Meidoornlaan,44,,,3461EV,Linschoten,Montfoort,Utrecht,VBO,4.909233,52.063012
Liefhovendijk,3,,,3461EW,Linschoten,Montfoort,Utrecht,VBO,4.914278,52.061135
Liefhovendijk,25,,,3461EW,Linschoten,Montfoort,Utrecht,VBO,4.913566,52.060974
Liefhovendijk,27,,,3461EW,Linschoten,Montfoort,Utrecht,VBO,4.913417,52.061016
Liefhovendijk,35,,,3461EW,Linschoten,Montfoort,Utrecht,VBO,4.911628,52.061313
Liefhovendijk,37,,,3461EW,Linschoten,Montfoort,Utrecht,VBO,4.911537,52.061276
Liefhovendijk,39,A,,3461EW,Linschoten,Montfoort,Utrecht,VBO,4.911184,52.061400
Liefhovendijk,39,B,,3461EW,Linschoten,Montfoort,Utrecht,VBO,4.911141,52.061267
Liefhovendijk,39,C,,3461EW,Linschoten,Montfoort,Utrecht,VBO,4.911032,52.061231
Liefhovendijk,39,D,,3461EW,Linschoten,Montfoort,Utrecht,VBO,4.911252,52.061326
Liefhovendijk,39,E,,3461EW,Linschoten,Montfoort,Utrecht,VBO,4.911202,52.061383
Liefhovendijk,39,G,,3461EW,Linschoten,Montfoort,Utrecht,VBO,4.911126,52.061284
Liefhovendijk,39,H,,3461EW,Linschoten,Montfoort,Utrecht,VBO,4.911016,52.061248
Liefhovendijk,39,,,3461EW,Linschoten,Montfoort,Utrecht,VBO,4.911268,52.061309
Liefhovendijk,41,,,3461EW,Linschoten,Montfoort,Utrecht,VBO,4.910745,52.061052
Liefhovendijk,45,,,3461EW,Linschoten,Montfoort,Utrecht,VBO,4.910317,52.060915
Liefhovendijk,47,,,3461EW,Linschoten,Montfoort,Utrecht,VBO,4.910052,52.060827
Liefhovendijk,49,,,3461EW,Linschoten,Montfoort,Utrecht,VBO,4.909858,52.060740
Liefhovendijk,51,,,3461EW,Linschoten,Montfoort,Utrecht,VBO,4.909601,52.060960
Liefhovendijk,2,,,3461EX,Linschoten,Montfoort,Utrecht,VBO,4.914563,52.060861
Liefhovendijk,4,,,3461EX,Linschoten,Montfoort,Utrecht,VBO,4.914521,52.060629
Liefhovendijk,16,,,3461EX,Linschoten,Montfoort,Utrecht,VBO,4.914173,52.061158
Liefhovendijk,18,,,3461EX,Linschoten,Montfoort,Utrecht,VBO,4.914100,52.061164
Liefhovendijk,20,,,3461EX,Linschoten,Montfoort,Utrecht,VBO,4.913989,52.061159
Liefhovendijk,22,,,3461EX,Linschoten,Montfoort,Utrecht,VBO,4.913904,52.061183
Liefhovendijk,24,,,3461EX,Linschoten,Montfoort,Utrecht,VBO,4.913666,52.060964
Liefhovendijk,26,,,3461EX,Linschoten,Montfoort,Utrecht,VBO,4.913599,52.061212
Liefhovendijk,34,,,3461EX,Linschoten,Montfoort,Utrecht,VBO,4.911721,52.061356
Liefhovendijk,38,,,3461EX,Linschoten,Montfoort,Utrecht,VBO,4.911452,52.061245
Liefhovendijk,40,,,3461EX,Linschoten,Montfoort,Utrecht,VBO,4.910899,52.061231
Liefhovendijk,42,,,3461EX,Linschoten,Montfoort,Utrecht,VBO,4.910678,52.061034
Liefhovendijk,44,,,3461EX,Linschoten,Montfoort,Utrecht,VBO,4.910491,52.060976
Liefhovendijk,46,,,3461EX,Linschoten,Montfoort,Utrecht,VBO,4.910154,52.060868
Liefhovendijk,48,,,3461EX,Linschoten,Montfoort,Utrecht,VBO,4.909933,52.060758
Liefhovendijk,50,,,3461EX,Linschoten,Montfoort,Utrecht,VBO,4.909652,52.060914
Timotheushof,1,,,3461EZ,Linschoten,Montfoort,Utrecht,VBO,4.910619,52.061533
Timotheushof,2,,,3461EZ,Linschoten,Montfoort,Utrecht,VBO,4.910832,52.061607
Timotheushof,3,,,3461EZ,Linschoten,Montfoort,Utrecht,VBO,4.910654,52.061497
Timotheushof,4,,,3461EZ,Linschoten,Montfoort,Utrecht,VBO,4.910864,52.061569
Timotheushof,5,,,3461EZ,Linschoten,Montfoort,Utrecht,VBO,4.910691,52.061458
Timotheushof,6,,,3461EZ,Linschoten,Montfoort,Utrecht,VBO,4.910899,52.061532
Timotheushof,7,,,3461EZ,Linschoten,Montfoort,Utrecht,VBO,4.910728,52.061421
Timotheushof,8,,,3461EZ,Linschoten,Montfoort,Utrecht,VBO,4.910934,52.061493
Timotheushof,9,,,3461EZ,Linschoten,Montfoort,Utrecht,VBO,4.910763,52.061383
Timotheushof,10,,,3461EZ,Linschoten,Montfoort,Utrecht,VBO,4.910971,52.061457
Timotheushof,11,,,3461EZ,Linschoten,Montfoort,Utrecht,VBO,4.910799,52.061345
Timotheushof,12,,,3461EZ,Linschoten,Montfoort,Utrecht,VBO,4.911005,52.061418
Timotheushof,13,,,3461EZ,Linschoten,Montfoort,Utrecht,VBO,4.910962,52.061340
Jacob Barneveldstraat,2,,,3461GA,Linschoten,Montfoort,Utrecht,VBO,4.915009,52.062371
Jacob Barneveldstraat,3,,,3461GA,Linschoten,Montfoort,Utrecht,VBO,4.915101,52.062854
Jacob Barneveldstraat,4,,,3461GA,Linschoten,Montfoort,Utrecht,VBO,4.915072,52.062453
Jacob Barneveldstraat,5,A,,3461GA,Linschoten,Montfoort,Utrecht,VBO,4.915530,52.063011
Jacob Barneveldstraat,5,,,3461GA,Linschoten,Montfoort,Utrecht,VBO,4.915400,52.062952
Jacob Barneveldstraat,6,,,3461GA,Linschoten,Montfoort,Utrecht,VBO,4.915254,52.062494
Jacob Barneveldstraat,7,,,3461GA,Linschoten,Montfoort,Utrecht,VBO,4.915709,52.063163
Jacob Barneveldstraat,8,,,3461GA,Linschoten,Montfoort,Utrecht,VBO,4.915380,52.062560
Jacob Barneveldstraat,9,,,3461GA,Linschoten,Montfoort,Utrecht,VBO,4.915972,52.063211
Jacob Barneveldstraat,10,,,3461GA,Linschoten,Montfoort,Utrecht,VBO,4.915893,52.062878
Jacob Barneveldstraat,11,,,3461GA,Linschoten,Montfoort,Utrecht,VBO,4.916174,52.063405
Jacob Barneveldstraat,12,,,3461GA,Linschoten,Montfoort,Utrecht,VBO,4.916219,52.062928
Jacob Barneveldstraat,13,,,3461GA,Linschoten,Montfoort,Utrecht,VBO,4.916373,52.063481
Jacob Barneveldstraat,14,A,,3461GA,Linschoten,Montfoort,Utrecht,VBO,4.916210,52.062954
Jacob Barneveldstraat,14,,,3461GA,Linschoten,Montfoort,Utrecht,VBO,4.916238,52.062972
Jacob Barneveldstraat,15,,,3461GA,Linschoten,Montfoort,Utrecht,VBO,4.916515,52.063529
Jacob Barneveldstraat,16,A,,3461GA,Linschoten,Montfoort,Utrecht,VBO,4.916232,52.062990
Jacob Barneveldstraat,16,,,3461GA,Linschoten,Montfoort,Utrecht,VBO,4.916234,52.063005
Jacob Barneveldstraat,17,,,3461GA,Linschoten,Montfoort,Utrecht,VBO,4.916649,52.063636
Jacob Barneveldstraat,18,,,3461GA,Linschoten,Montfoort,Utrecht,VBO,4.916298,52.063028
Jacob Barneveldstraat,19,A,,3461GA,Linschoten,Montfoort,Utrecht,VBO,4.917195,52.063993
Jacob Barneveldstraat,19,B,,3461GA,Linschoten,Montfoort,Utrecht,VBO,4.917269,52.064036
Jacob Barneveldstraat,19,C,,3461GA,Linschoten,Montfoort,Utrecht,VBO,4.917340,52.064076
Jacob Barneveldstraat,19,D,,3461GA,Linschoten,Montfoort,Utrecht,VBO,4.917457,52.064121
Jacob Barneveldstraat,19,E,,3461GA,Linschoten,Montfoort,Utrecht,VBO,4.917519,52.064159
Jacob Barneveldstraat,19,F,,3461GA,Linschoten,Montfoort,Utrecht,VBO,4.917580,52.064192
Jacob Barneveldstraat,19,G,,3461GA,Linschoten,Montfoort,Utrecht,VBO,4.917637,52.064221
Jacob Barneveldstraat,19,H,,3461GA,Linschoten,Montfoort,Utrecht,VBO,4.917693,52.064250
Jacob Barneveldstraat,19,K,,3461GA,Linschoten,Montfoort,Utrecht,VBO,4.917757,52.064277
Jacob Barneveldstraat,19,L,,3461GA,Linschoten,Montfoort,Utrecht,VBO,4.917867,52.064200
Jacob Barneveldstraat,19,M,,3461GA,Linschoten,Montfoort,Utrecht,VBO,4.917816,52.064169
Jacob Barneveldstraat,19,N,,3461GA,Linschoten,Montfoort,Utrecht,VBO,4.917771,52.064144
Jacob Barneveldstraat,19,P,,3461GA,Linschoten,Montfoort,Utrecht,VBO,4.917702,52.064113
Jacob Barneveldstraat,19,R,,3461GA,Linschoten,Montfoort,Utrecht,VBO,4.917451,52.063998
Jacob Barneveldstraat,19,S,,3461GA,Linschoten,Montfoort,Utrecht,VBO,4.917384,52.063965
Jacob Barneveldstraat,19,T,,3461GA,Linschoten,Montfoort,Utrecht,VBO,4.917318,52.063925
Jacob Barneveldstraat,19,V,,3461GA,Linschoten,Montfoort,Utrecht,VBO,4.917214,52.063884
Jacob Barneveldstraat,19,,,3461GA,Linschoten,Montfoort,Utrecht,VBO,4.917112,52.063949
Jacob Barneveldstraat,20,,,3461GA,Linschoten,Montfoort,Utrecht,VBO,4.916323,52.063079
Jacob Barneveldstraat,21,A,,3461GA,Linschoten,Montfoort,Utrecht,VBO,4.917210,52.063984
Jacob Barneveldstraat,21,B,,3461GA,Linschoten,Montfoort,Utrecht,VBO,4.917287,52.064026
Jacob Barneveldstraat,21,C,,3461GA,Linschoten,Montfoort,Utrecht,VBO,4.917359,52.064064
Jacob Barneveldstraat,21,D,,3461GA,Linschoten,Montfoort,Utrecht,VBO,4.917423,52.064086
Jacob Barneveldstraat,21,E,,3461GA,Linschoten,Montfoort,Utrecht,VBO,4.917475,52.064108
Jacob Barneveldstraat,21,F,,3461GA,Linschoten,Montfoort,Utrecht,VBO,4.917536,52.064146
Jacob Barneveldstraat,21,G,,3461GA,Linschoten,Montfoort,Utrecht,VBO,4.917597,52.064179
Jacob Barneveldstraat,21,H,,3461GA,Linschoten,Montfoort,Utrecht,VBO,4.917655,52.064209
Jacob Barneveldstraat,21,K,,3461GA,Linschoten,Montfoort,Utrecht,VBO,4.917711,52.064238
Jacob Barneveldstraat,21,L,,3461GA,Linschoten,Montfoort,Utrecht,VBO,4.917776,52.064264
Jacob Barneveldstraat,21,M,,3461GA,Linschoten,Montfoort,Utrecht,VBO,4.917850,52.064213
Jacob Barneveldstraat,21,N,,3461GA,Linschoten,Montfoort,Utrecht,VBO,4.917798,52.064183
Jacob Barneveldstraat,21,P,,3461GA,Linschoten,Montfoort,Utrecht,VBO,4.917752,52.064157
Jacob Barneveldstraat,21,R,,3461GA,Linschoten,Montfoort,Utrecht,VBO,4.917614,52.064089
Jacob Barneveldstraat,21,S,,3461GA,Linschoten,Montfoort,Utrecht,VBO,4.917549,52.064058
Jacob Barneveldstraat,21,T,,3461GA,Linschoten,Montfoort,Utrecht,VBO,4.917435,52.064011
Jacob Barneveldstraat,21,V,,3461GA,Linschoten,Montfoort,Utrecht,VBO,4.917366,52.063978
Jacob Barneveldstraat,21,W,,3461GA,Linschoten,Montfoort,Utrecht,VBO,4.917299,52.063937
Jacob Barneveldstraat,21,X,,3461GA,Linschoten,Montfoort,Utrecht,VBO,4.917203,52.063891
Jacob Barneveldstraat,21,,,3461GA,Linschoten,Montfoort,Utrecht,VBO,4.917129,52.063937
Jacob Barneveldstraat,22,,,3461GA,Linschoten,Montfoort,Utrecht,VBO,4.916541,52.063118
Jacob Barneveldstraat,23,A,,3461GA,Linschoten,Montfoort,Utrecht,VBO,4.917306,52.064013
Jacob Barneveldstraat,23,B,,3461GA,Linschoten,Montfoort,Utrecht,VBO,4.917492,52.064097
Jacob Barneveldstraat,23,C,,3461GA,Linschoten,Montfoort,Utrecht,VBO,4.917619,52.064163
Jacob Barneveldstraat,23,D,,3461GA,Linschoten,Montfoort,Utrecht,VBO,4.917728,52.064226
Jacob Barneveldstraat,23,E,,3461GA,Linschoten,Montfoort,Utrecht,VBO,4.917779,52.064196
Jacob Barneveldstraat,23,G,,3461GA,Linschoten,Montfoort,Utrecht,VBO,4.917667,52.064134
Jacob Barneveldstraat,23,H,,3461GA,Linschoten,Montfoort,Utrecht,VBO,4.917529,52.064071
Jacob Barneveldstraat,23,K,,3461GA,Linschoten,Montfoort,Utrecht,VBO,4.917347,52.063990
Jacob Barneveldstraat,23,L,,3461GA,Linschoten,Montfoort,Utrecht,VBO,4.917193,52.063899
Jacob Barneveldstraat,23,,,3461GA,Linschoten,Montfoort,Utrecht,VBO,4.917151,52.063924
Jacob Barneveldstraat,24,A,,3461GA,Linschoten,Montfoort,Utrecht,VBO,4.917976,52.063844
Jacob Barneveldstraat,24,B,,3461GA,Linschoten,Montfoort,Utrecht,VBO,4.918036,52.063804
Jacob Barneveldstraat,24,C,,3461GA,Linschoten,Montfoort,Utrecht,VBO,4.918057,52.063889
Jacob Barneveldstraat,24,D,,3461GA,Linschoten,Montfoort,Utrecht,VBO,4.918113,52.063838
Jacob Barneveldstraat,24,F,,3461GA,Linschoten,Montfoort,Utrecht,VBO,4.918205,52.063883
Jacob Barneveldstraat,24,,,3461GA,Linschoten,Montfoort,Utrecht,VBO,4.917970,52.063817
Jacob Barneveldstraat,25,A,,3461GA,Linschoten,Montfoort,Utrecht,VBO,4.917998,52.064273
Jacob Barneveldstraat,25,B,,3461GA,Linschoten,Montfoort,Utrecht,VBO,4.917908,52.064331
Jacob Barneveldstraat,25,C,,3461GA,Linschoten,Montfoort,Utrecht,VBO,4.917976,52.064288
Jacob Barneveldstraat,25,,,3461GA,Linschoten,Montfoort,Utrecht,VBO,4.917887,52.064346
Jacob Barneveldstraat,26,,,3461GA,Linschoten,Montfoort,Utrecht,VBO,4.920371,52.064836
Jacob Barneveldstraat,48,,,3461GA,Linschoten,Montfoort,Utrecht,STA,4.920466,52.065126
Jacob Barneveldstraat,50,,,3461GA,Linschoten,Montfoort,Utrecht,STA,4.920614,52.065199
Jacob Barneveldstraat,52,,,3461GA,Linschoten,Montfoort,Utrecht,STA,4.920722,52.065252
Jacob Barneveldstraat,54,,,3461GA,Linschoten,Montfoort,Utrecht,STA,4.920850,52.065316
Jacob Barneveldstraat,55,,,3461GA,Linschoten,Montfoort,Utrecht,VBO,4.919593,52.065000
Jacob Barneveldstraat,56,,,3461GA,Linschoten,Montfoort,Utrecht,VBO,4.921344,52.065634
Jacob Barneveldstraat,57,,,3461GA,Linschoten,Montfoort,Utrecht,VBO,4.919661,52.065036
Jacob Barneveldstraat,58,,,3461GA,Linschoten,Montfoort,Utrecht,VBO,4.921414,52.065667
Jacob Barneveldstraat,59,,,3461GA,Linschoten,Montfoort,Utrecht,VBO,4.919793,52.065104
Jacob Barneveldstraat,60,,,3461GA,Linschoten,Montfoort,Utrecht,VBO,4.921509,52.065714
Jacob Barneveldstraat,61,,,3461GA,Linschoten,Montfoort,Utrecht,VBO,4.919856,52.065146
Jacob Barneveldstraat,62,,,3461GA,Linschoten,Montfoort,Utrecht,VBO,4.921577,52.065748
Jacob Barneveldstraat,63,,,3461GA,Linschoten,Montfoort,Utrecht,VBO,4.919999,52.065202
Jacob Barneveldstraat,64,,,3461GA,Linschoten,Montfoort,Utrecht,VBO,4.921676,52.065795
Jacob Barneveldstraat,65,,,3461GA,Linschoten,Montfoort,Utrecht,VBO,4.920066,52.065239
Jacob Barneveldstraat,66,,,3461GA,Linschoten,Montfoort,Utrecht,VBO,4.921746,52.065830
Jacob Barneveldstraat,67,,,3461GA,Linschoten,Montfoort,Utrecht,VBO,4.920158,52.065293
Jacob Barneveldstraat,68,,,3461GA,Linschoten,Montfoort,Utrecht,VBO,4.921842,52.065881
Jacob Barneveldstraat,69,,,3461GA,Linschoten,Montfoort,Utrecht,VBO,4.920219,52.065325
Jacob Barneveldstraat,70,,,3461GA,Linschoten,Montfoort,Utrecht,VBO,4.921906,52.065913
Jacob Barneveldstraat,71,,,3461GA,Linschoten,Montfoort,Utrecht,VBO,4.920283,52.065355
Jacob Barneveldstraat,72,,,3461GA,Linschoten,Montfoort,Utrecht,VBO,4.922089,52.065997
Jacob Barneveldstraat,73,,,3461GA,Linschoten,Montfoort,Utrecht,VBO,4.920342,52.065385
Jacob Barneveldstraat,75,,,3461GA,Linschoten,Montfoort,Utrecht,VBO,4.920405,52.065415
Jacob Barneveldstraat,77,,,3461GA,Linschoten,Montfoort,Utrecht,VBO,4.920463,52.065446
Jacob Barneveldstraat,79,,,3461GA,Linschoten,Montfoort,Utrecht,VBO,4.920526,52.065476
Jacob Barneveldstraat,81,,,3461GA,Linschoten,Montfoort,Utrecht,VBO,4.920588,52.065506
Jacob Barneveldstraat,83,,,3461GA,Linschoten,Montfoort,Utrecht,VBO,4.920651,52.065537
Jacob Barneveldstraat,85,,,3461GA,Linschoten,Montfoort,Utrecht,VBO,4.920712,52.065568
Jacob Barneveldstraat,87,,,3461GA,Linschoten,Montfoort,Utrecht,VBO,4.920791,52.065622
Jacob Barneveldstraat,89,,,3461GA,Linschoten,Montfoort,Utrecht,VBO,4.920886,52.065650
Jacob Barneveldstraat,91,,,3461GA,Linschoten,Montfoort,Utrecht,VBO,4.921020,52.065717
Jacob Barneveldstraat,93,,,3461GA,Linschoten,Montfoort,Utrecht,VBO,4.921089,52.065750
Jacob Barneveldstraat,95,,,3461GA,Linschoten,Montfoort,Utrecht,VBO,4.921216,52.065825
Jacob Barneveldstraat,97,,,3461GA,Linschoten,Montfoort,Utrecht,VBO,4.921284,52.065859
Jacob Barneveldstraat,99,,,3461GA,Linschoten,Montfoort,Utrecht,VBO,4.921440,52.065938
De Beide Vlooswijkenlaan,1,,,3461GB,Linschoten,Montfoort,Utrecht,VBO,4.917468,52.061978
De Beide Vlooswijkenlaan,2,,,3461GB,Linschoten,Montfoort,Utrecht,VBO,4.917541,52.062016
De Beide Vlooswijkenlaan,3,,,3461GB,Linschoten,Montfoort,Utrecht,VBO,4.917610,52.062042
De Beide Vlooswijkenlaan,4,,,3461GB,Linschoten,Montfoort,Utrecht,VBO,4.917669,52.062080
De Beide Vlooswijkenlaan,5,,,3461GB,Linschoten,Montfoort,Utrecht,VBO,4.917737,52.062115
De Beide Vlooswijkenlaan,6,,,3461GB,Linschoten,Montfoort,Utrecht,VBO,4.917804,52.062151
De Beide Vlooswijkenlaan,7,,,3461GB,Linschoten,Montfoort,Utrecht,VBO,4.917879,52.062189
De Beide Vlooswijkenlaan,8,,,3461GB,Linschoten,Montfoort,Utrecht,VBO,4.917924,52.062226
De Beide Vlooswijkenlaan,9,,,3461GB,Linschoten,Montfoort,Utrecht,VBO,4.918703,52.062686
De Beide Vlooswijkenlaan,10,,,3461GB,Linschoten,Montfoort,Utrecht,VBO,4.918796,52.062682
De Beide Vlooswijkenlaan,11,,,3461GB,Linschoten,Montfoort,Utrecht,VBO,4.918852,52.062710
De Beide Vlooswijkenlaan,12,,,3461GB,Linschoten,Montfoort,Utrecht,VBO,4.918903,52.062736
De Beide Vlooswijkenlaan,13,,,3461GB,Linschoten,Montfoort,Utrecht,VBO,4.918958,52.062763
De Beide Vlooswijkenlaan,14,,,3461GB,Linschoten,Montfoort,Utrecht,VBO,4.919012,52.062790
De Beide Vlooswijkenlaan,15,,,3461GB,Linschoten,Montfoort,Utrecht,VBO,4.919066,52.062818
De Beide Vlooswijkenlaan,16,,,3461GB,Linschoten,Montfoort,Utrecht,VBO,4.919110,52.062874
De Beide Vlooswijkenlaan,17,,,3461GB,Linschoten,Montfoort,Utrecht,VBO,4.919225,52.062900
De Beide Vlooswijkenlaan,18,,,3461GB,Linschoten,Montfoort,Utrecht,VBO,4.919279,52.062927
De Beide Vlooswijkenlaan,19,,,3461GB,Linschoten,Montfoort,Utrecht,VBO,4.919337,52.062954
De Beide Vlooswijkenlaan,20,,,3461GB,Linschoten,Montfoort,Utrecht,VBO,4.919395,52.062980
De Beide Vlooswijkenlaan,21,,,3461GB,Linschoten,Montfoort,Utrecht,VBO,4.919450,52.063007
De Beide Vlooswijkenlaan,22,,,3461GB,Linschoten,Montfoort,Utrecht,VBO,4.919504,52.063031
De Beide Vlooswijkenlaan,23,,,3461GB,Linschoten,Montfoort,Utrecht,VBO,4.919556,52.063060
De Beide Vlooswijkenlaan,24,,,3461GB,Linschoten,Montfoort,Utrecht,VBO,4.919609,52.063091
De Beide Vlooswijkenlaan,25,,,3461GB,Linschoten,Montfoort,Utrecht,VBO,4.919691,52.063138
De Beide Vlooswijkenlaan,26,,,3461GB,Linschoten,Montfoort,Utrecht,VBO,4.919744,52.063165
De Beide Vlooswijkenlaan,27,,,3461GB,Linschoten,Montfoort,Utrecht,VBO,4.919804,52.063192
De Beide Vlooswijkenlaan,28,,,3461GB,Linschoten,Montfoort,Utrecht,VBO,4.919861,52.063219
De Beide Vlooswijkenlaan,29,,,3461GB,Linschoten,Montfoort,Utrecht,VBO,4.919915,52.063243
De Beide Vlooswijkenlaan,30,,,3461GB,Linschoten,Montfoort,Utrecht,VBO,4.919964,52.063270
De Beide Vlooswijkenlaan,31,,,3461GB,Linschoten,Montfoort,Utrecht,VBO,4.920015,52.063300
De Beide Vlooswijkenlaan,32,,,3461GB,Linschoten,Montfoort,Utrecht,VBO,4.920070,52.063328
De Beide Vlooswijkenlaan,33,,,3461GB,Linschoten,Montfoort,Utrecht,VBO,4.920131,52.063391
De Beide Vlooswijkenlaan,34,,,3461GB,Linschoten,Montfoort,Utrecht,VBO,4.920190,52.063416
De Beide Vlooswijkenlaan,35,,,3461GB,Linschoten,Montfoort,Utrecht,VBO,4.920242,52.063446
De Beide Vlooswijkenlaan,36,,,3461GB,Linschoten,Montfoort,Utrecht,VBO,4.920297,52.063473
De Beide Vlooswijkenlaan,37,,,3461GB,Linschoten,Montfoort,Utrecht,VBO,4.920350,52.063500
De Beide Vlooswijkenlaan,38,,,3461GB,Linschoten,Montfoort,Utrecht,VBO,4.920410,52.063524
De Beide Vlooswijkenlaan,39,,,3461GB,Linschoten,Montfoort,Utrecht,VBO,4.920467,52.063550
De Beide Vlooswijkenlaan,40,,,3461GB,Linschoten,Montfoort,Utrecht,VBO,4.920517,52.063580
De Beide Vlooswijkenlaan,41,,,3461GB,Linschoten,Montfoort,Utrecht,VBO,4.920574,52.063606
De Beide Vlooswijkenlaan,42,,,3461GB,Linschoten,Montfoort,Utrecht,VBO,4.920626,52.063637
De Beide Vlooswijkenlaan,43,,,3461GB,Linschoten,Montfoort,Utrecht,VBO,4.920684,52.063665
De Beide Vlooswijkenlaan,44,,,3461GB,Linschoten,Montfoort,Utrecht,VBO,4.920729,52.063693
De Beide Vlooswijkenlaan,45,,,3461GB,Linschoten,Montfoort,Utrecht,VBO,4.921742,52.064188
De Beide Vlooswijkenlaan,46,,,3461GB,Linschoten,Montfoort,Utrecht,VBO,4.922376,52.064433
De Ness,1,,,3461GC,Linschoten,Montfoort,Utrecht,VBO,4.917329,52.061255
De Ness,2,,,3461GC,Linschoten,Montfoort,Utrecht,VBO,4.917387,52.061216
De Ness,3,,,3461GC,Linschoten,Montfoort,Utrecht,VBO,4.917411,52.061159
De Ness,4,,,3461GC,Linschoten,Montfoort,Utrecht,VBO,4.917493,52.061112
De Ness,5,,,3461GC,Linschoten,Montfoort,Utrecht,VBO,4.917553,52.061070
De Ness,6,,,3461GC,Linschoten,Montfoort,Utrecht,VBO,4.917571,52.061031
De Ness,7,,,3461GC,Linschoten,Montfoort,Utrecht,VBO,4.917633,52.060984
De Ness,8,,,3461GC,Linschoten,Montfoort,Utrecht,VBO,4.917682,52.060946
De Ness,9,,,3461GC,Linschoten,Montfoort,Utrecht,VBO,4.917717,52.060847
De Ness,10,,,3461GC,Linschoten,Montfoort,Utrecht,VBO,4.917775,52.060809
De Ness,11,,,3461GC,Linschoten,Montfoort,Utrecht,VBO,4.917830,52.060767
De Ness,12,,,3461GC,Linschoten,Montfoort,Utrecht,VBO,4.917880,52.060723
De Ness,13,,,3461GC,Linschoten,Montfoort,Utrecht,VBO,4.917086,52.061817
De Ness,14,,,3461GC,Linschoten,Montfoort,Utrecht,VBO,4.917152,52.061783
De Ness,15,,,3461GC,Linschoten,Montfoort,Utrecht,VBO,4.917191,52.061737
De Ness,16,,,3461GC,Linschoten,Montfoort,Utrecht,VBO,4.917231,52.061685
De Ness,17,,,3461GC,Linschoten,Montfoort,Utrecht,VBO,4.917276,52.061645
De Ness,18,,,3461GC,Linschoten,Montfoort,Utrecht,VBO,4.917334,52.061603
De Ness,19,,,3461GC,Linschoten,Montfoort,Utrecht,VBO,4.917389,52.061568
De Ness,20,,,3461GD,Linschoten,Montfoort,Utrecht,VBO,4.917442,52.061522
De Ness,21,,,3461GD,Linschoten,Montfoort,Utrecht,VBO,4.917493,52.061467
De Ness,22,,,3461GD,Linschoten,Montfoort,Utrecht,VBO,4.917812,52.061273
De Ness,23,,,3461GD,Linschoten,Montfoort,Utrecht,VBO,4.917873,52.061236
De Ness,24,,,3461GD,Linschoten,Montfoort,Utrecht,VBO,4.917929,52.061202
De Ness,25,,,3461GD,Linschoten,Montfoort,Utrecht,VBO,4.917987,52.061160
De Ness,26,,,3461GD,Linschoten,Montfoort,Utrecht,VBO,4.918043,52.061119
De Ness,27,,,3461GD,Linschoten,Montfoort,Utrecht,VBO,4.918101,52.061073
De Ness,28,,,3461GD,Linschoten,Montfoort,Utrecht,VBO,4.918153,52.061030
De Ness,29,,,3461GD,Linschoten,Montfoort,Utrecht,VBO,4.918183,52.060988
De Ness,30,,,3461GD,Linschoten,Montfoort,Utrecht,VBO,4.918430,52.060762
De Ness,31,,,3461GD,Linschoten,Montfoort,Utrecht,VBO,4.918522,52.060733
De Ness,32,,,3461GD,Linschoten,Montfoort,Utrecht,VBO,4.918596,52.060698
De Ness,33,,,3461GD,Linschoten,Montfoort,Utrecht,VBO,4.918648,52.060656
De Ness,34,,,3461GD,Linschoten,Montfoort,Utrecht,VBO,4.918707,52.060620
De Ness,35,,,3461GD,Linschoten,Montfoort,Utrecht,VBO,4.918760,52.060575
De Ness,36,,,3461GD,Linschoten,Montfoort,Utrecht,VBO,4.918818,52.060531
De Ness,37,,,3461GD,Linschoten,Montfoort,Utrecht,VBO,4.918854,52.060477
Heulestein,1,,,3461GE,Linschoten,Montfoort,Utrecht,VBO,4.917698,52.061849
Heulestein,2,,,3461GE,Linschoten,Montfoort,Utrecht,VBO,4.917760,52.061810
Heulestein,3,,,3461GE,Linschoten,Montfoort,Utrecht,VBO,4.917798,52.061767
Heulestein,4,,,3461GE,Linschoten,Montfoort,Utrecht,VBO,4.917856,52.061727
Heulestein,5,,,3461GE,Linschoten,Montfoort,Utrecht,VBO,4.917919,52.061680
Heulestein,6,,,3461GE,Linschoten,Montfoort,Utrecht,VBO,4.917946,52.061636
Heulestein,7,,,3461GE,Linschoten,Montfoort,Utrecht,VBO,4.918124,52.061580
Heulestein,8,,,3461GE,Linschoten,Montfoort,Utrecht,VBO,4.918190,52.061545
Heulestein,9,,,3461GE,Linschoten,Montfoort,Utrecht,VBO,4.918236,52.061498
Heulestein,10,,,3461GE,Linschoten,Montfoort,Utrecht,VBO,4.918299,52.061453
Heulestein,11,,,3461GE,Linschoten,Montfoort,Utrecht,VBO,4.918355,52.061412
Heulestein,12,,,3461GE,Linschoten,Montfoort,Utrecht,VBO,4.918410,52.061374
Heulestein,13,,,3461GE,Linschoten,Montfoort,Utrecht,VBO,4.918461,52.061327
Heulestein,14,,,3461GE,Linschoten,Montfoort,Utrecht,VBO,4.918528,52.061290
Heulestein,15,,,3461GE,Linschoten,Montfoort,Utrecht,VBO,4.918587,52.061259
Heulestein,16,,,3461GE,Linschoten,Montfoort,Utrecht,VBO,4.918624,52.061210
Heulestein,17,,,3461GE,Linschoten,Montfoort,Utrecht,VBO,4.918796,52.061005
Heulestein,18,,,3461GE,Linschoten,Montfoort,Utrecht,VBO,4.918852,52.060962
Heulestein,19,,,3461GE,Linschoten,Montfoort,Utrecht,VBO,4.918913,52.060928
Heulestein,20,,,3461GE,Linschoten,Montfoort,Utrecht,VBO,4.918958,52.060885
Heulestein,21,,,3461GE,Linschoten,Montfoort,Utrecht,VBO,4.919026,52.060844
Heulestein,22,,,3461GE,Linschoten,Montfoort,Utrecht,VBO,4.919084,52.060801
Heulestein,23,,,3461GE,Linschoten,Montfoort,Utrecht,VBO,4.919133,52.060759
Heulestein,24,,,3461GE,Linschoten,Montfoort,Utrecht,VBO,4.919201,52.060725
Heulestein,25,,,3461GG,Linschoten,Montfoort,Utrecht,VBO,4.919273,52.060692
Heulestein,26,,,3461GG,Linschoten,Montfoort,Utrecht,VBO,4.919581,52.060843
Heulestein,27,,,3461GG,Linschoten,Montfoort,Utrecht,VBO,4.919518,52.060880
Heulestein,28,,,3461GG,Linschoten,Montfoort,Utrecht,VBO,4.919475,52.060927
Heulestein,29,,,3461GG,Linschoten,Montfoort,Utrecht,VBO,4.919424,52.060969
Heulestein,30,,,3461GG,Linschoten,Montfoort,Utrecht,VBO,4.919359,52.061011
Heulestein,31,,,3461GG,Linschoten,Montfoort,Utrecht,VBO,4.919301,52.061056
Heulestein,32,,,3461GG,Linschoten,Montfoort,Utrecht,VBO,4.919247,52.061093
Heulestein,33,,,3461GG,Linschoten,Montfoort,Utrecht,VBO,4.919191,52.061135
Heulestein,34,,,3461GG,Linschoten,Montfoort,Utrecht,VBO,4.918990,52.061331
Heulestein,35,,,3461GG,Linschoten,Montfoort,Utrecht,VBO,4.918957,52.061365
Heulestein,36,,,3461GG,Linschoten,Montfoort,Utrecht,VBO,4.918919,52.061412
Heulestein,37,,,3461GG,Linschoten,Montfoort,Utrecht,VBO,4.918849,52.061456
Heulestein,38,,,3461GG,Linschoten,Montfoort,Utrecht,VBO,4.918804,52.061493
Heulestein,39,,,3461GG,Linschoten,Montfoort,Utrecht,VBO,4.918749,52.061539
Heulestein,40,,,3461GG,Linschoten,Montfoort,Utrecht,VBO,4.918695,52.061582
Heulestein,41,,,3461GG,Linschoten,Montfoort,Utrecht,VBO,4.918618,52.061612
Heulestein,42,,,3461GG,Linschoten,Montfoort,Utrecht,VBO,4.918287,52.061797
Heulestein,43,,,3461GG,Linschoten,Montfoort,Utrecht,VBO,4.918253,52.061845
Heulestein,44,,,3461GG,Linschoten,Montfoort,Utrecht,VBO,4.918199,52.061888
Heulestein,45,,,3461GG,Linschoten,Montfoort,Utrecht,VBO,4.918147,52.061929
Heulestein,46,,,3461GG,Linschoten,Montfoort,Utrecht,VBO,4.918086,52.061973
Heulestein,47,,,3461GG,Linschoten,Montfoort,Utrecht,VBO,4.918015,52.062005
Laan van Rapijnen,1,,,3461GH,Linschoten,Montfoort,Utrecht,VBO,4.918452,52.062232
Laan van Rapijnen,2,,,3461GH,Linschoten,Montfoort,Utrecht,VBO,4.918508,52.062185
Laan van Rapijnen,3,,,3461GH,Linschoten,Montfoort,Utrecht,VBO,4.918569,52.062144
Laan van Rapijnen,4,,,3461GH,Linschoten,Montfoort,Utrecht,VBO,4.918627,52.062104
Laan van Rapijnen,5,,,3461GH,Linschoten,Montfoort,Utrecht,VBO,4.918685,52.062062
Laan van Rapijnen,6,,,3461GH,Linschoten,Montfoort,Utrecht,VBO,4.918733,52.062024
Laan van Rapijnen,7,,,3461GH,Linschoten,Montfoort,Utrecht,VBO,4.918798,52.061991
Laan van Rapijnen,8,,,3461GH,Linschoten,Montfoort,Utrecht,VBO,4.918841,52.061940
Laan van Rapijnen,9,,,3461GH,Linschoten,Montfoort,Utrecht,VBO,4.918985,52.061865
Laan van Rapijnen,10,,,3461GH,Linschoten,Montfoort,Utrecht,VBO,4.919055,52.061831
Laan van Rapijnen,11,,,3461GH,Linschoten,Montfoort,Utrecht,VBO,4.919121,52.061790
Laan van Rapijnen,12,,,3461GH,Linschoten,Montfoort,Utrecht,VBO,4.919168,52.061753
Laan van Rapijnen,13,,,3461GH,Linschoten,Montfoort,Utrecht,VBO,4.919231,52.061712
Laan van Rapijnen,14,,,3461GH,Linschoten,Montfoort,Utrecht,VBO,4.919280,52.061671
Laan van Rapijnen,15,,,3461GH,Linschoten,Montfoort,Utrecht,VBO,4.919340,52.061627
Laan van Rapijnen,16,,,3461GH,Linschoten,Montfoort,Utrecht,VBO,4.919394,52.061585
Laan van Rapijnen,17,,,3461GH,Linschoten,Montfoort,Utrecht,VBO,4.919446,52.061545
Laan van Rapijnen,18,,,3461GH,Linschoten,Montfoort,Utrecht,VBO,4.919477,52.061495
Laan van Rapijnen,19,,,3461GH,Linschoten,Montfoort,Utrecht,VBO,4.919685,52.061314
Laan van Rapijnen,20,,,3461GH,Linschoten,Montfoort,Utrecht,VBO,4.919748,52.061273
Laan van Rapijnen,21,,,3461GH,Linschoten,Montfoort,Utrecht,VBO,4.919782,52.061230
Laan van Rapijnen,22,,,3461GH,Linschoten,Montfoort,Utrecht,VBO,4.919838,52.061185
Laan van Rapijnen,23,,,3461GH,Linschoten,Montfoort,Utrecht,VBO,4.919899,52.061146
Laan van Rapijnen,24,,,3461GH,Linschoten,Montfoort,Utrecht,VBO,4.919944,52.061104
Laan van Rapijnen,25,,,3461GH,Linschoten,Montfoort,Utrecht,VBO,4.919975,52.061050
Laan van Rapijnen,26,,,3461GH,Linschoten,Montfoort,Utrecht,VBO,4.918294,52.063367
Laan van Rapijnen,27,,,3461GH,Linschoten,Montfoort,Utrecht,VBO,4.917069,52.063360
Laan van Rapijnen,28,,,3461GH,Linschoten,Montfoort,Utrecht,VBO,4.918358,52.063397
Laan van Rapijnen,30,,,3461GH,Linschoten,Montfoort,Utrecht,VBO,4.918417,52.063426
Laan van Rapijnen,32,,,3461GH,Linschoten,Montfoort,Utrecht,VBO,4.918479,52.063457
Laan van Rapijnen,34,,,3461GH,Linschoten,Montfoort,Utrecht,VBO,4.918534,52.063481
Laan van Rapijnen,36,,,3461GH,Linschoten,Montfoort,Utrecht,VBO,4.918602,52.063511
Laan van Rapijnen,38,,,3461GH,Linschoten,Montfoort,Utrecht,VBO,4.918657,52.063540
Laan van Rapijnen,40,,,3461GH,Linschoten,Montfoort,Utrecht,VBO,4.918715,52.063562
Wulverhorst,1,,,3461GJ,Linschoten,Montfoort,Utrecht,VBO,4.919002,52.062505
Wulverhorst,2,,,3461GJ,Linschoten,Montfoort,Utrecht,VBO,4.919054,52.062458
Wulverhorst,3,,,3461GJ,Linschoten,Montfoort,Utrecht,VBO,4.919117,52.062419
Wulverhorst,4,,,3461GJ,Linschoten,Montfoort,Utrecht,VBO,4.919166,52.062374
Wulverhorst,5,,,3461GJ,Linschoten,Montfoort,Utrecht,VBO,4.919219,52.062339
Wulverhorst,6,,,3461GJ,Linschoten,Montfoort,Utrecht,VBO,4.919294,52.062302
Wulverhorst,7,,,3461GJ,Linschoten,Montfoort,Utrecht,VBO,4.919575,52.062093
Wulverhorst,8,,,3461GJ,Linschoten,Montfoort,Utrecht,VBO,4.919606,52.062045
Wulverhorst,9,,,3461GJ,Linschoten,Montfoort,Utrecht,VBO,4.919657,52.062000
Wulverhorst,10,,,3461GJ,Linschoten,Montfoort,Utrecht,VBO,4.919721,52.061959
Wulverhorst,11,,,3461GJ,Linschoten,Montfoort,Utrecht,VBO,4.919778,52.061915
Wulverhorst,12,,,3461GJ,Linschoten,Montfoort,Utrecht,VBO,4.919828,52.061877
Wulverhorst,13,,,3461GJ,Linschoten,Montfoort,Utrecht,VBO,4.919887,52.061832
Wulverhorst,14,,,3461GJ,Linschoten,Montfoort,Utrecht,VBO,4.919942,52.061792
Wulverhorst,15,,,3461GJ,Linschoten,Montfoort,Utrecht,VBO,4.919998,52.061752
Wulverhorst,16,,,3461GJ,Linschoten,Montfoort,Utrecht,VBO,4.920063,52.061714
Wulverhorst,17,,,3461GJ,Linschoten,Montfoort,Utrecht,VBO,4.920285,52.061612
Wulverhorst,18,,,3461GJ,Linschoten,Montfoort,Utrecht,VBO,4.920330,52.061566
Wulverhorst,19,,,3461GJ,Linschoten,Montfoort,Utrecht,VBO,4.920382,52.061522
Wulverhorst,20,,,3461GJ,Linschoten,Montfoort,Utrecht,VBO,4.920428,52.061480
Wulverhorst,21,,,3461GJ,Linschoten,Montfoort,Utrecht,VBO,4.920487,52.061443
Wulverhorst,22,,,3461GJ,Linschoten,Montfoort,Utrecht,VBO,4.920543,52.061405
Wulverhorst,23,,,3461GJ,Linschoten,Montfoort,Utrecht,VBO,4.920607,52.061358
Schagen,1,,,3461GK,Linschoten,Montfoort,Utrecht,VBO,4.919450,52.062718
Schagen,2,,,3461GK,Linschoten,Montfoort,Utrecht,VBO,4.919493,52.062673
Schagen,3,,,3461GK,Linschoten,Montfoort,Utrecht,VBO,4.919536,52.062632
Schagen,4,,,3461GK,Linschoten,Montfoort,Utrecht,VBO,4.919588,52.062588
Schagen,5,,,3461GK,Linschoten,Montfoort,Utrecht,VBO,4.919645,52.062544
Schagen,6,,,3461GK,Linschoten,Montfoort,Utrecht,VBO,4.919700,52.062503
Schagen,7,,,3461GK,Linschoten,Montfoort,Utrecht,VBO,4.919762,52.062461
Schagen,8,,,3461GK,Linschoten,Montfoort,Utrecht,VBO,4.919804,52.062413
Schagen,9,,,3461GK,Linschoten,Montfoort,Utrecht,VBO,4.919945,52.062348
Schagen,10,,,3461GK,Linschoten,Montfoort,Utrecht,VBO,4.919991,52.062300
Schagen,11,,,3461GK,Linschoten,Montfoort,Utrecht,VBO,4.920039,52.062254
Schagen,12,,,3461GK,Linschoten,Montfoort,Utrecht,VBO,4.920087,52.062216
Schagen,13,,,3461GK,Linschoten,Montfoort,Utrecht,VBO,4.920142,52.062171
Schagen,14,,,3461GK,Linschoten,Montfoort,Utrecht,VBO,4.920194,52.062134
Schagen,15,,,3461GK,Linschoten,Montfoort,Utrecht,VBO,4.920256,52.062090
Schagen,16,,,3461GK,Linschoten,Montfoort,Utrecht,VBO,4.920306,52.062046
Schagen,17,,,3461GK,Linschoten,Montfoort,Utrecht,VBO,4.920385,52.062010
Schagen,18,,,3461GK,Linschoten,Montfoort,Utrecht,VBO,4.920446,52.061977
Schagen,19,,,3461GK,Linschoten,Montfoort,Utrecht,VBO,4.920502,52.061932
Schagen,20,,,3461GK,Linschoten,Montfoort,Utrecht,VBO,4.920558,52.061887
Schagen,21,,,3461GK,Linschoten,Montfoort,Utrecht,VBO,4.920733,52.061778
Schagen,22,,,3461GK,Linschoten,Montfoort,Utrecht,VBO,4.920802,52.061730
Schagen,23,,,3461GK,Linschoten,Montfoort,Utrecht,VBO,4.920854,52.061695
Schagen,24,,,3461GK,Linschoten,Montfoort,Utrecht,VBO,4.920914,52.061653
Schagen,25,,,3461GL,Linschoten,Montfoort,Utrecht,VBO,4.920981,52.061622
Schagen,26,,,3461GL,Linschoten,Montfoort,Utrecht,VBO,4.921045,52.061579
Schagen,27,,,3461GL,Linschoten,Montfoort,Utrecht,VBO,4.921372,52.061747
Schagen,28,,,3461GL,Linschoten,Montfoort,Utrecht,VBO,4.921304,52.061781
Schagen,29,,,3461GL,Linschoten,Montfoort,Utrecht,VBO,4.921259,52.061822
Schagen,30,,,3461GL,Linschoten,Montfoort,Utrecht,VBO,4.921221,52.061872
Schagen,31,,,3461GL,Linschoten,Montfoort,Utrecht,VBO,4.920875,52.062042
Schagen,32,,,3461GL,Linschoten,Montfoort,Utrecht,VBO,4.920812,52.062083
Schagen,33,,,3461GL,Linschoten,Montfoort,Utrecht,VBO,4.920766,52.062131
Schagen,34,,,3461GL,Linschoten,Montfoort,Utrecht,VBO,4.920707,52.062171
Schagen,35,,,3461GL,Linschoten,Montfoort,Utrecht,VBO,4.920656,52.062212
Schagen,36,,,3461GL,Linschoten,Montfoort,Utrecht,VBO,4.920590,52.062256
Schagen,37,,,3461GL,Linschoten,Montfoort,Utrecht,VBO,4.920545,52.062297
Schagen,38,,,3461GL,Linschoten,Montfoort,Utrecht,VBO,4.920483,52.062344
Schagen,39,,,3461GL,Linschoten,Montfoort,Utrecht,VBO,4.920438,52.062386
Schagen,40,,,3461GL,Linschoten,Montfoort,Utrecht,VBO,4.920160,52.062600
Schagen,41,,,3461GL,Linschoten,Montfoort,Utrecht,VBO,4.920104,52.062629
Schagen,42,,,3461GL,Linschoten,Montfoort,Utrecht,VBO,4.920047,52.062675
Schagen,43,,,3461GL,Linschoten,Montfoort,Utrecht,VBO,4.919990,52.062720
Schagen,44,,,3461GL,Linschoten,Montfoort,Utrecht,VBO,4.919947,52.062761
Schagen,45,,,3461GL,Linschoten,Montfoort,Utrecht,VBO,4.919884,52.062809
Schagen,46,,,3461GL,Linschoten,Montfoort,Utrecht,VBO,4.919833,52.062841
Den Engh,1,,,3461GM,Linschoten,Montfoort,Utrecht,VBO,4.920230,52.063050
Den Engh,2,,,3461GM,Linschoten,Montfoort,Utrecht,VBO,4.920290,52.063011
Den Engh,3,,,3461GM,Linschoten,Montfoort,Utrecht,VBO,4.920352,52.062971
Den Engh,4,,,3461GM,Linschoten,Montfoort,Utrecht,VBO,4.920405,52.062935
Den Engh,5,,,3461GM,Linschoten,Montfoort,Utrecht,VBO,4.920455,52.062891
Den Engh,6,,,3461GM,Linschoten,Montfoort,Utrecht,VBO,4.920521,52.062859
Den Engh,7,,,3461GM,Linschoten,Montfoort,Utrecht,VBO,4.920596,52.062821
Den Engh,8,,,3461GM,Linschoten,Montfoort,Utrecht,VBO,4.920655,52.062777
Den Engh,9,,,3461GM,Linschoten,Montfoort,Utrecht,VBO,4.920699,52.062730
Den Engh,10,,,3461GM,Linschoten,Montfoort,Utrecht,VBO,4.920812,52.062651
Den Engh,11,,,3461GM,Linschoten,Montfoort,Utrecht,VBO,4.920870,52.062606
Den Engh,12,,,3461GM,Linschoten,Montfoort,Utrecht,VBO,4.920911,52.062555
Den Engh,13,,,3461GM,Linschoten,Montfoort,Utrecht,VBO,4.920958,52.062514
Den Engh,14,,,3461GM,Linschoten,Montfoort,Utrecht,VBO,4.921016,52.062471
Den Engh,15,,,3461GM,Linschoten,Montfoort,Utrecht,VBO,4.921066,52.062432
Den Engh,16,,,3461GM,Linschoten,Montfoort,Utrecht,VBO,4.921123,52.062387
Den Engh,17,,,3461GM,Linschoten,Montfoort,Utrecht,VBO,4.921175,52.062344
Den Engh,18,,,3461GM,Linschoten,Montfoort,Utrecht,VBO,4.921233,52.062304
Den Engh,19,,,3461GM,Linschoten,Montfoort,Utrecht,VBO,4.921303,52.062269
Den Engh,20,,,3461GM,Linschoten,Montfoort,Utrecht,VBO,4.921352,52.062224
Den Engh,21,,,3461GM,Linschoten,Montfoort,Utrecht,VBO,4.921551,52.062109
Den Engh,22,,,3461GM,Linschoten,Montfoort,Utrecht,VBO,4.921618,52.062076
Den Engh,23,,,3461GM,Linschoten,Montfoort,Utrecht,VBO,4.921671,52.062035
Den Engh,24,,,3461GN,Linschoten,Montfoort,Utrecht,VBO,4.921728,52.061993
Den Engh,25,,,3461GN,Linschoten,Montfoort,Utrecht,VBO,4.921764,52.061945
Den Engh,26,,,3461GN,Linschoten,Montfoort,Utrecht,VBO,4.922031,52.062147
Den Engh,27,,,3461GN,Linschoten,Montfoort,Utrecht,VBO,4.921977,52.062191
Den Engh,28,,,3461GN,Linschoten,Montfoort,Utrecht,VBO,4.921755,52.062356
Den Engh,29,,,3461GN,Linschoten,Montfoort,Utrecht,VBO,4.921691,52.062387
Den Engh,30,,,3461GN,Linschoten,Montfoort,Utrecht,VBO,4.921639,52.062427
Den Engh,31,,,3461GN,Linschoten,Montfoort,Utrecht,VBO,4.921579,52.062472
Den Engh,32,,,3461GN,Linschoten,Montfoort,Utrecht,VBO,4.921525,52.062513
Den Engh,33,,,3461GN,Linschoten,Montfoort,Utrecht,VBO,4.921470,52.062561
Den Engh,34,,,3461GN,Linschoten,Montfoort,Utrecht,VBO,4.921412,52.062594
Den Engh,35,,,3461GN,Linschoten,Montfoort,Utrecht,VBO,4.921367,52.062640
Den Engh,36,,,3461GN,Linschoten,Montfoort,Utrecht,VBO,4.921322,52.062683
Den Engh,37,,,3461GN,Linschoten,Montfoort,Utrecht,VBO,4.921037,52.062893
Den Engh,38,,,3461GN,Linschoten,Montfoort,Utrecht,VBO,4.920966,52.062928
Den Engh,39,,,3461GN,Linschoten,Montfoort,Utrecht,VBO,4.920920,52.062974
Den Engh,40,,,3461GN,Linschoten,Montfoort,Utrecht,VBO,4.920859,52.063017
Den Engh,41,,,3461GN,Linschoten,Montfoort,Utrecht,VBO,4.920801,52.063058
Den Engh,42,,,3461GN,Linschoten,Montfoort,Utrecht,VBO,4.920746,52.063106
Den Engh,43,,,3461GN,Linschoten,Montfoort,Utrecht,VBO,4.920694,52.063142
Den Engh,44,,,3461GN,Linschoten,Montfoort,Utrecht,VBO,4.920632,52.063184
Den Engh,45,,,3461GN,Linschoten,Montfoort,Utrecht,VBO,4.920586,52.063224
Den Engh,46,,,3461GN,Linschoten,Montfoort,Utrecht,VBO,4.920518,52.063266
Oostwijk,1,,,3461GP,Linschoten,Montfoort,Utrecht,VBO,4.920905,52.063456
Oostwijk,2,,,3461GP,Linschoten,Montfoort,Utrecht,VBO,4.920965,52.063412
Oostwijk,3,,,3461GP,Linschoten,Montfoort,Utrecht,VBO,4.921017,52.063370
Oostwijk,4,,,3461GP,Linschoten,Montfoort,Utrecht,VBO,4.921070,52.063326
Oostwijk,5,,,3461GP,Linschoten,Montfoort,Utrecht,VBO,4.921124,52.063287
Oostwijk,6,,,3461GP,Linschoten,Montfoort,Utrecht,VBO,4.921185,52.063244
Oostwijk,7,,,3461GP,Linschoten,Montfoort,Utrecht,VBO,4.921234,52.063203
Oostwijk,8,,,3461GP,Linschoten,Montfoort,Utrecht,VBO,4.921301,52.063167
Oostwijk,9,,,3461GP,Linschoten,Montfoort,Utrecht,VBO,4.921369,52.063126
Oostwijk,10,,,3461GP,Linschoten,Montfoort,Utrecht,VBO,4.921441,52.063085
Oostwijk,11,,,3461GP,Linschoten,Montfoort,Utrecht,VBO,4.921500,52.063045
Oostwijk,12,,,3461GP,Linschoten,Montfoort,Utrecht,VBO,4.921558,52.063004
Oostwijk,13,,,3461GP,Linschoten,Montfoort,Utrecht,VBO,4.921671,52.062935
Oostwijk,14,,,3461GP,Linschoten,Montfoort,Utrecht,VBO,4.921720,52.062882
Oostwijk,15,,,3461GP,Linschoten,Montfoort,Utrecht,VBO,4.921768,52.062841
Oostwijk,16,,,3461GP,Linschoten,Montfoort,Utrecht,VBO,4.921821,52.062794
Oostwijk,17,,,3461GP,Linschoten,Montfoort,Utrecht,VBO,4.921873,52.062752
Oostwijk,18,,,3461GP,Linschoten,Montfoort,Utrecht,VBO,4.921926,52.062711
Oostwijk,19,,,3461GP,Linschoten,Montfoort,Utrecht,VBO,4.921987,52.062668
Oostwijk,20,,,3461GP,Linschoten,Montfoort,Utrecht,VBO,4.922027,52.062618
Oostwijk,21,,,3461GP,Linschoten,Montfoort,Utrecht,VBO,4.922072,52.062575
Oostwijk,22,a,,3461GP,Linschoten,Montfoort,Utrecht,VBO,4.924189,52.062210
Oostwijk,22,,,3461GP,Linschoten,Montfoort,Utrecht,VBO,4.922136,52.062528
Oostwijk,23,,,3461GP,Linschoten,Montfoort,Utrecht,VBO,4.922339,52.062424
Oostwijk,24,,,3461GP,Linschoten,Montfoort,Utrecht,VBO,4.922380,52.062391
Oostwijk,25,,,3461GP,Linschoten,Montfoort,Utrecht,VBO,4.922424,52.062355
Oostwijk,26,,,3461GP,Linschoten,Montfoort,Utrecht,VBO,4.922471,52.062320
Oostwijk,27,,,3461GP,Linschoten,Montfoort,Utrecht,VBO,4.922520,52.062287
Oostwijk,28,,,3461GP,Linschoten,Montfoort,Utrecht,VBO,4.922558,52.062253
Oostwijk,29,,,3461GP,Linschoten,Montfoort,Utrecht,VBO,4.922609,52.062216
Oostwijk,30,,,3461GP,Linschoten,Montfoort,Utrecht,VBO,4.922654,52.062186
Oostwijk,31,,,3461GP,Linschoten,Montfoort,Utrecht,VBO,4.922709,52.062155
Oostwijk,32,,,3461GP,Linschoten,Montfoort,Utrecht,VBO,4.922752,52.062126
Oostwijk,33,,,3461GP,Linschoten,Montfoort,Utrecht,VBO,4.922801,52.062094
Oostwijk,34,,,3461GP,Linschoten,Montfoort,Utrecht,VBO,4.922851,52.062061
Oostwijk,35,,,3461GP,Linschoten,Montfoort,Utrecht,VBO,4.922894,52.062026
Oostwijk,36,,,3461GP,Linschoten,Montfoort,Utrecht,VBO,4.922939,52.061995
Oostwijk,37,,,3461GP,Linschoten,Montfoort,Utrecht,VBO,4.922980,52.061962
Oostwijk,38,,,3461GP,Linschoten,Montfoort,Utrecht,VBO,4.923020,52.061928
Oostwijk,39,,,3461GP,Linschoten,Montfoort,Utrecht,VBO,4.923057,52.061887
Oostwijk,40,,,3461GP,Linschoten,Montfoort,Utrecht,VBO,4.923101,52.061850
Oostwijk,41,,,3461GP,Linschoten,Montfoort,Utrecht,VBO,4.923140,52.061814
Oostwijk,42,,,3461GP,Linschoten,Montfoort,Utrecht,VBO,4.923187,52.061780
Oostwijk,43,,,3461GP,Linschoten,Montfoort,Utrecht,VBO,4.923225,52.061747
Oostwijk,44,,,3461GP,Linschoten,Montfoort,Utrecht,VBO,4.923264,52.061713
Schansbos,1,,,3461GR,Linschoten,Montfoort,Utrecht,VBO,4.921478,52.061590
Schansbos,2,,,3461GR,Linschoten,Montfoort,Utrecht,VBO,4.921528,52.061541
Schansbos,3,,,3461GR,Linschoten,Montfoort,Utrecht,VBO,4.921584,52.061506
Schansbos,4,,,3461GR,Linschoten,Montfoort,Utrecht,VBO,4.921666,52.061444
Schansbos,6,,,3461GR,Linschoten,Montfoort,Utrecht,VBO,4.922525,52.061345
Schansbos,7,,,3461GR,Linschoten,Montfoort,Utrecht,VBO,4.922462,52.061392
Schansbos,8,,,3461GR,Linschoten,Montfoort,Utrecht,VBO,4.922405,52.061431
Schansbos,9,,,3461GR,Linschoten,Montfoort,Utrecht,VBO,4.922356,52.061471
Schansbos,10,,,3461GR,Linschoten,Montfoort,Utrecht,VBO,4.922280,52.061501
Schansbos,11,,,3461GR,Linschoten,Montfoort,Utrecht,VBO,4.922233,52.061546
Schansbos,12,,,3461GR,Linschoten,Montfoort,Utrecht,VBO,4.922178,52.061587
Schansbos,13,,,3461GR,Linschoten,Montfoort,Utrecht,VBO,4.922124,52.061628
Schansbos,14,,,3461GR,Linschoten,Montfoort,Utrecht,VBO,4.922071,52.061667
Schansbos,15,,,3461GS,Linschoten,Montfoort,Utrecht,VBO,4.922005,52.061711
Schansbos,16,,,3461GS,Linschoten,Montfoort,Utrecht,VBO,4.921951,52.061758
Schansbos,17,,,3461GS,Linschoten,Montfoort,Utrecht,VBO,4.922214,52.061959
Schansbos,18,,,3461GS,Linschoten,Montfoort,Utrecht,VBO,4.922273,52.061914
Schansbos,19,,,3461GS,Linschoten,Montfoort,Utrecht,VBO,4.922328,52.061873
Schansbos,20,,,3461GS,Linschoten,Montfoort,Utrecht,VBO,4.922385,52.061835
Schansbos,21,,,3461GS,Linschoten,Montfoort,Utrecht,VBO,4.922438,52.061802
Schansbos,22,,,3461GS,Linschoten,Montfoort,Utrecht,VBO,4.922511,52.061760
Schansbos,23,,,3461GS,Linschoten,Montfoort,Utrecht,VBO,4.922566,52.061719
Schansbos,24,,,3461GS,Linschoten,Montfoort,Utrecht,VBO,4.922621,52.061667
Schansbos,25,,,3461GS,Linschoten,Montfoort,Utrecht,VBO,4.922667,52.061628
Schansbos,26,,,3461GS,Linschoten,Montfoort,Utrecht,VBO,4.922739,52.061594
Veldzichtlaan,1,,,3461GT,Linschoten,Montfoort,Utrecht,VBO,4.919248,52.060214
Veldzichtlaan,2,,,3461GT,Linschoten,Montfoort,Utrecht,VBO,4.919285,52.060229
Veldzichtlaan,3,,,3461GT,Linschoten,Montfoort,Utrecht,VBO,4.919322,52.060243
Veldzichtlaan,4,,,3461GT,Linschoten,Montfoort,Utrecht,VBO,4.919360,52.060263
Veldzichtlaan,5,,,3461GT,Linschoten,Montfoort,Utrecht,VBO,4.919396,52.060284
Veldzichtlaan,6,,,3461GT,Linschoten,Montfoort,Utrecht,VBO,4.919431,52.060304
Veldzichtlaan,7,,,3461GT,Linschoten,Montfoort,Utrecht,VBO,4.919460,52.060316
Veldzichtlaan,8,,,3461GT,Linschoten,Montfoort,Utrecht,VBO,4.919500,52.060335
Veldzichtlaan,9,,,3461GT,Linschoten,Montfoort,Utrecht,VBO,4.919528,52.060353
Veldzichtlaan,10,,,3461GT,Linschoten,Montfoort,Utrecht,VBO,4.919571,52.060375
Veldzichtlaan,11,,,3461GT,Linschoten,Montfoort,Utrecht,VBO,4.919614,52.060396
Veldzichtlaan,12,,,3461GT,Linschoten,Montfoort,Utrecht,VBO,4.919649,52.060417
Veldzichtlaan,13,,,3461GT,Linschoten,Montfoort,Utrecht,VBO,4.919685,52.060437
Veldzichtlaan,14,,,3461GT,Linschoten,Montfoort,Utrecht,VBO,4.919712,52.060456
Veldzichtlaan,15,,,3461GT,Linschoten,Montfoort,Utrecht,VBO,4.919744,52.060478
Veldzichtlaan,16,,,3461GT,Linschoten,Montfoort,Utrecht,VBO,4.919811,52.060531
Veldzichtlaan,17,,,3461GT,Linschoten,Montfoort,Utrecht,VBO,4.919847,52.060553
Veldzichtlaan,18,,,3461GT,Linschoten,Montfoort,Utrecht,VBO,4.919879,52.060574
Veldzichtlaan,19,,,3461GT,Linschoten,Montfoort,Utrecht,VBO,4.919917,52.060596
Veldzichtlaan,20,,,3461GT,Linschoten,Montfoort,Utrecht,VBO,4.919941,52.060615
Veldzichtlaan,21,,,3461GT,Linschoten,Montfoort,Utrecht,VBO,4.919985,52.060631
Veldzichtlaan,22,,,3461GT,Linschoten,Montfoort,Utrecht,VBO,4.920011,52.060646
Veldzichtlaan,23,,,3461GT,Linschoten,Montfoort,Utrecht,VBO,4.920052,52.060664
Veldzichtlaan,24,,,3461GT,Linschoten,Montfoort,Utrecht,VBO,4.920092,52.060683
Veldzichtlaan,25,,,3461GV,Linschoten,Montfoort,Utrecht,VBO,4.920757,52.061166
Veldzichtlaan,26,,,3461GV,Linschoten,Montfoort,Utrecht,VBO,4.920821,52.061161
Veldzichtlaan,27,,,3461GV,Linschoten,Montfoort,Utrecht,VBO,4.920814,52.061123
Veldzichtlaan,28,,,3461GV,Linschoten,Montfoort,Utrecht,VBO,4.920879,52.061117
Veldzichtlaan,29,,,3461GV,Linschoten,Montfoort,Utrecht,VBO,4.920873,52.061080
Veldzichtlaan,30,,,3461GV,Linschoten,Montfoort,Utrecht,VBO,4.920932,52.061077
Veldzichtlaan,31,,,3461GV,Linschoten,Montfoort,Utrecht,VBO,4.920929,52.061037
Veldzichtlaan,32,,,3461GV,Linschoten,Montfoort,Utrecht,VBO,4.920995,52.061029
Veldzichtlaan,33,,,3461GV,Linschoten,Montfoort,Utrecht,VBO,4.920986,52.060993
Veldzichtlaan,34,,,3461GV,Linschoten,Montfoort,Utrecht,VBO,4.921053,52.060986
Veldzichtlaan,35,,,3461GV,Linschoten,Montfoort,Utrecht,VBO,4.921043,52.060950
Veldzichtlaan,36,,,3461GV,Linschoten,Montfoort,Utrecht,VBO,4.921105,52.060946
Veldzichtlaan,37,,,3461GV,Linschoten,Montfoort,Utrecht,VBO,4.921100,52.060907
Veldzichtlaan,38,,,3461GV,Linschoten,Montfoort,Utrecht,VBO,4.921168,52.060898
Veldzichtlaan,39,,,3461GV,Linschoten,Montfoort,Utrecht,VBO,4.921157,52.060864
Veldzichtlaan,40,,,3461GV,Linschoten,Montfoort,Utrecht,VBO,4.921225,52.060855
Veldzichtlaan,41,,,3461GV,Linschoten,Montfoort,Utrecht,VBO,4.921214,52.060821
Veldzichtlaan,42,,,3461GV,Linschoten,Montfoort,Utrecht,VBO,4.921277,52.060816
Veldzichtlaan,43,,,3461GW,Linschoten,Montfoort,Utrecht,VBO,4.921537,52.060957
Veldzichtlaan,44,,,3461GW,Linschoten,Montfoort,Utrecht,VBO,4.921574,52.060974
Veldzichtlaan,45,,,3461GW,Linschoten,Montfoort,Utrecht,VBO,4.921623,52.060983
Veldzichtlaan,46,,,3461GW,Linschoten,Montfoort,Utrecht,VBO,4.921658,52.061004
Veldzichtlaan,47,,,3461GW,Linschoten,Montfoort,Utrecht,VBO,4.921687,52.061027
Veldzichtlaan,48,,,3461GW,Linschoten,Montfoort,Utrecht,VBO,4.921722,52.061046
Veldzichtlaan,49,,,3461GW,Linschoten,Montfoort,Utrecht,VBO,4.921761,52.061065
Veldzichtlaan,50,,,3461GW,Linschoten,Montfoort,Utrecht,VBO,4.921795,52.061082
Veldzichtlaan,51,,,3461GW,Linschoten,Montfoort,Utrecht,VBO,4.921826,52.061106
Veldzichtlaan,52,,,3461GW,Linschoten,Montfoort,Utrecht,VBO,4.921858,52.061120
Veldzichtlaan,53,,,3461GW,Linschoten,Montfoort,Utrecht,VBO,4.921897,52.061139
Veldzichtlaan,54,,,3461GW,Linschoten,Montfoort,Utrecht,VBO,4.921934,52.061160
Weidepad,1,,,3461GX,Linschoten,Montfoort,Utrecht,VBO,4.921521,52.066322
Hof van Voorvliet,1,,,3461GZ,Linschoten,Montfoort,Utrecht,VBO,4.922273,52.065735
Hof van Voorvliet,2,,,3461GZ,Linschoten,Montfoort,Utrecht,VBO,4.921909,52.065513
Hof van Voorvliet,3,,,3461GZ,Linschoten,Montfoort,Utrecht,VBO,4.922347,52.065690
Hof van Voorvliet,4,,,3461GZ,Linschoten,Montfoort,Utrecht,VBO,4.921965,52.065471
Hof van Voorvliet,5,,,3461GZ,Linschoten,Montfoort,Utrecht,VBO,4.922479,52.065608
Hof van Voorvliet,6,,,3461GZ,Linschoten,Montfoort,Utrecht,VBO,4.922016,52.065421
Hof van Voorvliet,7,,,3461GZ,Linschoten,Montfoort,Utrecht,VBO,4.922554,52.065560
Hof van Voorvliet,8,,,3461GZ,Linschoten,Montfoort,Utrecht,VBO,4.922075,52.065367
Hof van Voorvliet,9,,,3461GZ,Linschoten,Montfoort,Utrecht,VBO,4.922678,52.065479
Hof van Voorvliet,10,,,3461GZ,Linschoten,Montfoort,Utrecht,VBO,4.922134,52.065319
Hof van Voorvliet,11,,,3461GZ,Linschoten,Montfoort,Utrecht,VBO,4.922744,52.065436
Hof van Voorvliet,12,,,3461GZ,Linschoten,Montfoort,Utrecht,VBO,4.922187,52.065270
Hof van Voorvliet,13,,,3461GZ,Linschoten,Montfoort,Utrecht,VBO,4.922869,52.065336
Hof van Voorvliet,14,,,3461GZ,Linschoten,Montfoort,Utrecht,VBO,4.921156,52.064860
Hof van Voorvliet,15,,,3461GZ,Linschoten,Montfoort,Utrecht,VBO,4.922625,52.065321
Hof van Voorvliet,16,,,3461GZ,Linschoten,Montfoort,Utrecht,VBO,4.921216,52.064893
Hof van Voorvliet,17,,,3461GZ,Linschoten,Montfoort,Utrecht,VBO,4.922550,52.065281
Hof van Voorvliet,18,,,3461GZ,Linschoten,Montfoort,Utrecht,VBO,4.921276,52.064923
Hof van Voorvliet,19,,,3461GZ,Linschoten,Montfoort,Utrecht,VBO,4.922473,52.065241
Hof van Voorvliet,20,,,3461GZ,Linschoten,Montfoort,Utrecht,VBO,4.921338,52.064955
Hof van Voorvliet,21,,,3461GZ,Linschoten,Montfoort,Utrecht,VBO,4.922398,52.065202
Hof van Voorvliet,22,,,3461GZ,Linschoten,Montfoort,Utrecht,VBO,4.921397,52.064986
Hof van Voorvliet,23,,,3461GZ,Linschoten,Montfoort,Utrecht,VBO,4.922328,52.065162
Hof van Voorvliet,24,,,3461GZ,Linschoten,Montfoort,Utrecht,VBO,4.921457,52.065019
Hof van Voorvliet,25,,,3461GZ,Linschoten,Montfoort,Utrecht,VBO,4.922253,52.065125
Hof van Voorvliet,26,,,3461GZ,Linschoten,Montfoort,Utrecht,VBO,4.921515,52.065050
Hof van Voorvliet,27,,,3461GZ,Linschoten,Montfoort,Utrecht,VBO,4.922177,52.065083
Hof van Voorvliet,28,,,3461GZ,Linschoten,Montfoort,Utrecht,VBO,4.921575,52.065079
Hof van Voorvliet,29,,,3461GZ,Linschoten,Montfoort,Utrecht,VBO,4.921954,52.064959
Hof van Voorvliet,30,,,3461GZ,Linschoten,Montfoort,Utrecht,VBO,4.921636,52.065112
Hof van Voorvliet,31,,,3461GZ,Linschoten,Montfoort,Utrecht,VBO,4.921893,52.064927
Hof van Voorvliet,32,,,3461GZ,Linschoten,Montfoort,Utrecht,VBO,4.921697,52.065143
Hof van Voorvliet,33,,,3461GZ,Linschoten,Montfoort,Utrecht,VBO,4.921831,52.064896
Hof van Voorvliet,35,,,3461GZ,Linschoten,Montfoort,Utrecht,VBO,4.921774,52.064864
Hof van Voorvliet,37,,,3461GZ,Linschoten,Montfoort,Utrecht,VBO,4.921711,52.064833
Hof van Voorvliet,39,,,3461GZ,Linschoten,Montfoort,Utrecht,VBO,4.921651,52.064801
Hof van Voorvliet,41,,,3461GZ,Linschoten,Montfoort,Utrecht,VBO,4.921590,52.064768
Hof van Voorvliet,43,,,3461GZ,Linschoten,Montfoort,Utrecht,VBO,4.921531,52.064738
Hof van Voorvliet,45,,,3461GZ,Linschoten,Montfoort,Utrecht,VBO,4.921469,52.064706
Hof van Voorvliet,47,,,3461GZ,Linschoten,Montfoort,Utrecht,VBO,4.921410,52.064676
Hof van Voorvliet,49,,,3461GZ,Linschoten,Montfoort,Utrecht,VBO,4.920969,52.064983
Hof van Voorvliet,51,,,3461GZ,Linschoten,Montfoort,Utrecht,VBO,4.921024,52.065011
Hof van Voorvliet,53,,,3461GZ,Linschoten,Montfoort,Utrecht,VBO,4.921078,52.065040
Hof van Voorvliet,55,,,3461GZ,Linschoten,Montfoort,Utrecht,VBO,4.921134,52.065070
Hof van Voorvliet,57,,,3461GZ,Linschoten,Montfoort,Utrecht,VBO,4.921185,52.065097
Hof van Voorvliet,59,,,3461GZ,Linschoten,Montfoort,Utrecht,VBO,4.921242,52.065126
Hof van Voorvliet,61,,,3461GZ,Linschoten,Montfoort,Utrecht,VBO,4.921295,52.065155
Hof van Voorvliet,63,,,3461GZ,Linschoten,Montfoort,Utrecht,VBO,4.921347,52.065184
Hof van Voorvliet,65,,,3461GZ,Linschoten,Montfoort,Utrecht,VBO,4.921401,52.065211
Hof van Voorvliet,67,,,3461GZ,Linschoten,Montfoort,Utrecht,VBO,4.921455,52.065239
Hof van Voorvliet,69,,,3461GZ,Linschoten,Montfoort,Utrecht,VBO,4.921511,52.065268
Het Jaagpad,1,,,3461HA,Linschoten,Montfoort,Utrecht,VBO,4.916545,52.064767
Het Jaagpad,3,,,3461HA,Linschoten,Montfoort,Utrecht,VBO,4.916606,52.064788
Het Jaagpad,5,,,3461HA,Linschoten,Montfoort,Utrecht,VBO,4.916653,52.064816
Het Jaagpad,7,,,3461HA,Linschoten,Montfoort,Utrecht,VBO,4.916710,52.064844
Het Jaagpad,9,,,3461HA,Linschoten,Montfoort,Utrecht,VBO,4.916766,52.064875
Het Jaagpad,11,,,3461HA,Linschoten,Montfoort,Utrecht,VBO,4.916842,52.064906
Het Jaagpad,13,,,3461HA,Linschoten,Montfoort,Utrecht,VBO,4.916894,52.064940
Het Jaagpad,15,,,3461HA,Linschoten,Montfoort,Utrecht,VBO,4.917154,52.065093
Het Jaagpad,17,,,3461HA,Linschoten,Montfoort,Utrecht,VBO,4.917220,52.065116
Het Jaagpad,19,,,3461HA,Linschoten,Montfoort,Utrecht,VBO,4.917271,52.065140
Het Jaagpad,21,,,3461HA,Linschoten,Montfoort,Utrecht,VBO,4.917333,52.065173
Het Jaagpad,23,,,3461HA,Linschoten,Montfoort,Utrecht,VBO,4.917407,52.065203
Het Jaagpad,25,,,3461HA,Linschoten,Montfoort,Utrecht,VBO,4.917497,52.065230
Het Jaagpad,27,,,3461HA,Linschoten,Montfoort,Utrecht,VBO,4.917559,52.065266
Het Jaagpad,29,,,3461HA,Linschoten,Montfoort,Utrecht,VBO,4.917735,52.065230
Het Jaagpad,31,,,3461HA,Linschoten,Montfoort,Utrecht,VBO,4.917799,52.065242
Het Jaagpad,33,,,3461HA,Linschoten,Montfoort,Utrecht,VBO,4.917887,52.065260
Het Jaagpad,35,,,3461HA,Linschoten,Montfoort,Utrecht,VBO,4.917951,52.065290
Het Jaagpad,37,,,3461HA,Linschoten,Montfoort,Utrecht,VBO,4.918021,52.065320
Het Jaagpad,39,,,3461HA,Linschoten,Montfoort,Utrecht,VBO,4.918080,52.065354
Het Jaagpad,41,,,3461HA,Linschoten,Montfoort,Utrecht,VBO,4.918126,52.065397
Het Jaagpad,43,,,3461HA,Linschoten,Montfoort,Utrecht,VBO,4.918849,52.065724
Het Jaagpad,45,,,3461HA,Linschoten,Montfoort,Utrecht,VBO,4.918924,52.065754
Het Jaagpad,47,,,3461HA,Linschoten,Montfoort,Utrecht,VBO,4.918959,52.065769
Het Jaagpad,49,,,3461HA,Linschoten,Montfoort,Utrecht,VBO,4.919020,52.065797
Het Jaagpad,51,,,3461HA,Linschoten,Montfoort,Utrecht,VBO,4.919075,52.065826
Het Jaagpad,53,,,3461HA,Linschoten,Montfoort,Utrecht,VBO,4.919129,52.065856
Het Jaagpad,55,,,3461HA,Linschoten,Montfoort,Utrecht,VBO,4.919186,52.065886
Het Jaagpad,57,,,3461HA,Linschoten,Montfoort,Utrecht,VBO,4.919240,52.065905
Het Jaagpad,59,,,3461HA,Linschoten,Montfoort,Utrecht,VBO,4.919305,52.065941
Het Jaagpad,61,,,3461HA,Linschoten,Montfoort,Utrecht,VBO,4.919392,52.065984
Het Jaagpad,63,,,3461HA,Linschoten,Montfoort,Utrecht,VBO,4.920111,52.066364
Het Jaagpad,65,,,3461HA,Linschoten,Montfoort,Utrecht,VBO,4.920172,52.066387
Het Jaagpad,67,,,3461HA,Linschoten,Montfoort,Utrecht,VBO,4.920249,52.066413
Het Jaagpad,69,,,3461HA,Linschoten,Montfoort,Utrecht,VBO,4.920299,52.066441
Het Jaagpad,71,,,3461HA,Linschoten,Montfoort,Utrecht,VBO,4.920362,52.066469
Het Jaagpad,73,,,3461HA,Linschoten,Montfoort,Utrecht,VBO,4.920414,52.066498
Het Jaagpad,75,,,3461HA,Linschoten,Montfoort,Utrecht,VBO,4.920468,52.066530
Het Jaagpad,77,,,3461HA,Linschoten,Montfoort,Utrecht,VBO,4.920516,52.066560
Het Jaagpad,10,,,3461HB,Linschoten,Montfoort,Utrecht,VBO,4.916813,52.064561
Het Jaagpad,12,,,3461HB,Linschoten,Montfoort,Utrecht,VBO,4.917008,52.064655
Het Jaagpad,14,,,3461HB,Linschoten,Montfoort,Utrecht,VBO,4.917202,52.064746
Het Jaagpad,16,,,3461HB,Linschoten,Montfoort,Utrecht,VBO,4.917352,52.064825
Het Jaagpad,18,,,3461HC,Linschoten,Montfoort,Utrecht,VBO,4.917519,52.064965
Het Jaagpad,20,,,3461HC,Linschoten,Montfoort,Utrecht,VBO,4.917587,52.064928
Het Jaagpad,22,,,3461HC,Linschoten,Montfoort,Utrecht,VBO,4.917625,52.064847
Het Jaagpad,24,,,3461HC,Linschoten,Montfoort,Utrecht,VBO,4.917771,52.064841
Het Jaagpad,26,,,3461HC,Linschoten,Montfoort,Utrecht,VBO,4.917909,52.064874
Het Jaagpad,28,,,3461HC,Linschoten,Montfoort,Utrecht,VBO,4.917973,52.064905
Het Jaagpad,30,,,3461HC,Linschoten,Montfoort,Utrecht,VBO,4.918068,52.064950
Het Jaagpad,32,,,3461HC,Linschoten,Montfoort,Utrecht,VBO,4.918127,52.064981
Het Jaagpad,34,,,3461HC,Linschoten,Montfoort,Utrecht,VBO,4.918196,52.065011
Het Jaagpad,36,,,3461HC,Linschoten,Montfoort,Utrecht,VBO,4.918254,52.065048
Het Jaagpad,38,,,3461HC,Linschoten,Montfoort,Utrecht,VBO,4.918324,52.065083
Het Jaagpad,40,,,3461HC,Linschoten,Montfoort,Utrecht,VBO,4.918365,52.065135
Het Jaagpad,42,,,3461HC,Linschoten,Montfoort,Utrecht,VBO,4.918415,52.065162
Het Jaagpad,44,,,3461HC,Linschoten,Montfoort,Utrecht,VBO,4.918532,52.065205
Het Jaagpad,46,,,3461HC,Linschoten,Montfoort,Utrecht,VBO,4.918663,52.065266
Het Jaagpad,48,,,3461HC,Linschoten,Montfoort,Utrecht,VBO,4.918760,52.065315
Het Jaagpad,50,,,3461HC,Linschoten,Montfoort,Utrecht,VBO,4.918899,52.065379
Het Jaagpad,52,,,3461HC,Linschoten,Montfoort,Utrecht,VBO,4.919085,52.065488
Het Jaagpad,54,,,3461HC,Linschoten,Montfoort,Utrecht,VBO,4.919343,52.065610
Het Jaagpad,56,,,3461HC,Linschoten,Montfoort,Utrecht,VBO,4.919647,52.065734
Het Jaagpad,58,,,3461HC,Linschoten,Montfoort,Utrecht,VBO,4.919853,52.065822
Het Jaagpad,60,,,3461HC,Linschoten,Montfoort,Utrecht,VBO,4.920115,52.065968
Het Jaagpad,62,,,3461HC,Linschoten,Montfoort,Utrecht,VBO,4.920268,52.066029
Het Jaagpad,64,,,3461HC,Linschoten,Montfoort,Utrecht,VBO,4.920454,52.066127
Het Jaagpad,66,,,3461HC,Linschoten,Montfoort,Utrecht,VBO,4.920652,52.066216
Het Jaagpad,68,,,3461HC,Linschoten,Montfoort,Utrecht,VBO,4.920789,52.066298
Het Jaagpad,70,,,3461HC,Linschoten,Montfoort,Utrecht,VBO,4.920992,52.066388
Het Jaagpad,72,,,3461HC,Linschoten,Montfoort,Utrecht,VBO,4.921382,52.066425
De Kolk,1,,,3461HD,Linschoten,Montfoort,Utrecht,VBO,4.918434,52.065490
De Kolk,2,,,3461HD,Linschoten,Montfoort,Utrecht,VBO,4.918391,52.065543
De Kolk,3,,,3461HD,Linschoten,Montfoort,Utrecht,VBO,4.918376,52.065604
De Kolk,4,,,3461HD,Linschoten,Montfoort,Utrecht,VBO,4.918326,52.065644
De Kolk,5,,,3461HD,Linschoten,Montfoort,Utrecht,VBO,4.918278,52.065687
De Kolk,6,,,3461HD,Linschoten,Montfoort,Utrecht,VBO,4.918226,52.065728
De Kolk,7,,,3461HD,Linschoten,Montfoort,Utrecht,VBO,4.917706,52.065739
De Kolk,8,,,3461HD,Linschoten,Montfoort,Utrecht,VBO,4.917761,52.065769
De Kolk,9,,,3461HD,Linschoten,Montfoort,Utrecht,VBO,4.917820,52.065796
De Kolk,10,,,3461HD,Linschoten,Montfoort,Utrecht,VBO,4.917882,52.065829
De Kolk,11,,,3461HD,Linschoten,Montfoort,Utrecht,VBO,4.917919,52.065856
De Kolk,12,,,3461HD,Linschoten,Montfoort,Utrecht,VBO,4.918054,52.065974
De Kolk,13,,,3461HD,Linschoten,Montfoort,Utrecht,VBO,4.918099,52.065942
De Kolk,14,,,3461HD,Linschoten,Montfoort,Utrecht,VBO,4.918151,52.065905
De Kolk,15,,,3461HD,Linschoten,Montfoort,Utrecht,VBO,4.918196,52.065865
De Kolk,16,,,3461HD,Linschoten,Montfoort,Utrecht,VBO,4.918245,52.065834
Laan van Overvliet,1,,,3461HE,Linschoten,Montfoort,Utrecht,VBO,4.915248,52.063897
Laan van Overvliet,7,,,3461HE,Linschoten,Montfoort,Utrecht,VBO,4.915750,52.064412
Laan van Overvliet,9,A,,3461HE,Linschoten,Montfoort,Utrecht,VBO,4.914995,52.064438
Laan van Overvliet,9,B,,3461HE,Linschoten,Montfoort,Utrecht,VBO,4.915100,52.064497
Laan van Overvliet,9,,,3461HE,Linschoten,Montfoort,Utrecht,VBO,4.915397,52.064476
Laan van Overvliet,11,,,3461HE,Linschoten,Montfoort,Utrecht,VBO,4.914805,52.064315
Laan van Overvliet,13,,,3461HE,Linschoten,Montfoort,Utrecht,VBO,4.914315,52.064025
Laan van Overvliet,2,,,3461HG,Linschoten,Montfoort,Utrecht,VBO,4.916277,52.064567
Laan van Overvliet,4,,,3461HG,Linschoten,Montfoort,Utrecht,VBO,4.916234,52.064599
Laan van Overvliet,8,,,3461HG,Linschoten,Montfoort,Utrecht,VBO,4.916143,52.064686
Laan van Overvliet,10,,,3461HG,Linschoten,Montfoort,Utrecht,VBO,4.916096,52.064720
Laan van Overvliet,12,,,3461HG,Linschoten,Montfoort,Utrecht,VBO,4.916044,52.064757
Laan van Overvliet,14,,,3461HG,Linschoten,Montfoort,Utrecht,VBO,4.915995,52.064796
Laan van Overvliet,16,,,3461HG,Linschoten,Montfoort,Utrecht,VBO,4.915951,52.064832
Laan van Overvliet,18,,,3461HG,Linschoten,Montfoort,Utrecht,VBO,4.915900,52.064871
Laan van Overvliet,20,,,3461HG,Linschoten,Montfoort,Utrecht,VBO,4.915848,52.064906
Laan van Overvliet,22,,,3461HG,Linschoten,Montfoort,Utrecht,VBO,4.915808,52.064954
Laan van Overvliet,24,,,3461HH,Linschoten,Montfoort,Utrecht,VBO,4.915111,52.064982
Laan van Overvliet,26,,,3461HH,Linschoten,Montfoort,Utrecht,VBO,4.915069,52.064957
Laan van Overvliet,28,,,3461HH,Linschoten,Montfoort,Utrecht,VBO,4.915026,52.064934
Laan van Overvliet,30,,,3461HH,Linschoten,Montfoort,Utrecht,VBO,4.914968,52.064905
Laan van Overvliet,32,,,3461HH,Linschoten,Montfoort,Utrecht,VBO,4.914911,52.064874
Laan van Overvliet,34,,,3461HH,Linschoten,Montfoort,Utrecht,VBO,4.914848,52.064845
Laan van Overvliet,36,,,3461HH,Linschoten,Montfoort,Utrecht,VBO,4.914795,52.064813
Laan van Overvliet,38,,,3461HH,Linschoten,Montfoort,Utrecht,VBO,4.914735,52.064788
Laan van Overvliet,40,,,3461HH,Linschoten,Montfoort,Utrecht,VBO,4.914671,52.064756
Laan van Overvliet,42,,,3461HH,Linschoten,Montfoort,Utrecht,VBO,4.914612,52.064728
Laan van Overvliet,44,,,3461HH,Linschoten,Montfoort,Utrecht,VBO,4.914332,52.064597
Laan van Overvliet,46,,,3461HH,Linschoten,Montfoort,Utrecht,VBO,4.914294,52.064567
Laan van Overvliet,48,,,3461HH,Linschoten,Montfoort,Utrecht,VBO,4.914236,52.064534
Laan van Overvliet,50,,,3461HH,Linschoten,Montfoort,Utrecht,VBO,4.914180,52.064508
Laan van Overvliet,52,,,3461HH,Linschoten,Montfoort,Utrecht,VBO,4.914127,52.064482
Laan van Overvliet,54,,,3461HH,Linschoten,Montfoort,Utrecht,VBO,4.914070,52.064451
Laan van Overvliet,56,,,3461HH,Linschoten,Montfoort,Utrecht,VBO,4.914014,52.064425
Laan van Overvliet,58,,,3461HH,Linschoten,Montfoort,Utrecht,VBO,4.913953,52.064393
Laan van Overvliet,60,,,3461HH,Linschoten,Montfoort,Utrecht,VBO,4.913890,52.064364
Laan van Overvliet,62,,,3461HH,Linschoten,Montfoort,Utrecht,VBO,4.913831,52.064338
Laan van Overvliet,64,,,3461HH,Linschoten,Montfoort,Utrecht,VBO,4.912178,52.063944
Plankjesland,1,,,3461HJ,Linschoten,Montfoort,Utrecht,VBO,4.915872,52.065427
Plankjesland,2,,,3461HJ,Linschoten,Montfoort,Utrecht,VBO,4.915895,52.065411
Plankjesland,3,,,3461HJ,Linschoten,Montfoort,Utrecht,VBO,4.915889,52.065375
Plankjesland,4,,,3461HJ,Linschoten,Montfoort,Utrecht,VBO,4.915884,52.065338
Plankjesland,5,,,3461HJ,Linschoten,Montfoort,Utrecht,VBO,4.915877,52.065302
Plankjesland,6,,,3461HJ,Linschoten,Montfoort,Utrecht,VBO,4.915872,52.065265
Plankjesland,7,,,3461HJ,Linschoten,Montfoort,Utrecht,VBO,4.915866,52.065229
Plankjesland,8,,,3461HJ,Linschoten,Montfoort,Utrecht,VBO,4.915846,52.065250
De Driesprong,1,,,3461HK,Linschoten,Montfoort,Utrecht,VBO,4.916633,52.065029
De Driesprong,2,,,3461HK,Linschoten,Montfoort,Utrecht,VBO,4.916570,52.065076
De Driesprong,3,,,3461HK,Linschoten,Montfoort,Utrecht,VBO,4.916536,52.065117
De Driesprong,4,,,3461HK,Linschoten,Montfoort,Utrecht,VBO,4.916505,52.065147
De Driesprong,5,,,3461HK,Linschoten,Montfoort,Utrecht,VBO,4.916443,52.065181
De Driesprong,6,,,3461HK,Linschoten,Montfoort,Utrecht,VBO,4.916383,52.065230
De Driesprong,7,,,3461HK,Linschoten,Montfoort,Utrecht,VBO,4.916319,52.065219
De Driesprong,8,,,3461HK,Linschoten,Montfoort,Utrecht,VBO,4.916237,52.065227
De Driesprong,9,,,3461HK,Linschoten,Montfoort,Utrecht,VBO,4.916161,52.065231
De Driesprong,10,,,3461HK,Linschoten,Montfoort,Utrecht,VBO,4.916088,52.065230
De Driesprong,11,,,3461HK,Linschoten,Montfoort,Utrecht,VBO,4.916021,52.065237
De Driesprong,12,,,3461HL,Linschoten,Montfoort,Utrecht,VBO,4.916045,52.065410
De Driesprong,13,,,3461HL,Linschoten,Montfoort,Utrecht,VBO,4.916120,52.065405
De Driesprong,14,,,3461HL,Linschoten,Montfoort,Utrecht,VBO,4.916197,52.065403
De Driesprong,15,,,3461HL,Linschoten,Montfoort,Utrecht,VBO,4.916276,52.065400
De Driesprong,16,,,3461HL,Linschoten,Montfoort,Utrecht,VBO,4.916350,52.065394
De Driesprong,17,,,3461HL,Linschoten,Montfoort,Utrecht,VBO,4.916409,52.065358
De Driesprong,18,,,3461HL,Linschoten,Montfoort,Utrecht,VBO,4.916487,52.065415
De Driesprong,19,,,3461HL,Linschoten,Montfoort,Utrecht,VBO,4.916553,52.065448
De Driesprong,20,,,3461HL,Linschoten,Montfoort,Utrecht,VBO,4.916614,52.065477
De Driesprong,21,,,3461HL,Linschoten,Montfoort,Utrecht,VBO,4.916675,52.065511
De Driesprong,22,,,3461HL,Linschoten,Montfoort,Utrecht,VBO,4.916727,52.065537
De Driesprong,23,,,3461HL,Linschoten,Montfoort,Utrecht,VBO,4.916782,52.065569
De Driesprong,24,,,3461HM,Linschoten,Montfoort,Utrecht,VBO,4.917016,52.065743
De Driesprong,25,,,3461HM,Linschoten,Montfoort,Utrecht,VBO,4.917074,52.065771
De Driesprong,26,,,3461HM,Linschoten,Montfoort,Utrecht,VBO,4.917137,52.065802
De Driesprong,27,,,3461HM,Linschoten,Montfoort,Utrecht,VBO,4.917199,52.065839
De Driesprong,28,,,3461HM,Linschoten,Montfoort,Utrecht,VBO,4.917282,52.065857
De Driesprong,29,,,3461HM,Linschoten,Montfoort,Utrecht,VBO,4.917354,52.065889
De Driesprong,30,,,3461HM,Linschoten,Montfoort,Utrecht,VBO,4.917412,52.065918
De Driesprong,31,,,3461HM,Linschoten,Montfoort,Utrecht,VBO,4.917483,52.065951
De Driesprong,32,,,3461HM,Linschoten,Montfoort,Utrecht,VBO,4.917517,52.065681
De Driesprong,33,,,3461HM,Linschoten,Montfoort,Utrecht,VBO,4.917472,52.065658
De Driesprong,34,,,3461HM,Linschoten,Montfoort,Utrecht,VBO,4.917421,52.065634
De Driesprong,35,,,3461HM,Linschoten,Montfoort,Utrecht,VBO,4.917375,52.065606
De Driesprong,36,,,3461HM,Linschoten,Montfoort,Utrecht,VBO,4.917316,52.065578
De Driesprong,37,,,3461HM,Linschoten,Montfoort,Utrecht,VBO,4.917303,52.065546
De Driesprong,38,,,3461HM,Linschoten,Montfoort,Utrecht,VBO,4.917258,52.065517
De Driesprong,39,,,3461HM,Linschoten,Montfoort,Utrecht,VBO,4.917177,52.065510
De Driesprong,40,,,3461HM,Linschoten,Montfoort,Utrecht,VBO,4.917187,52.065459
De Driesprong,41,,,3461HM,Linschoten,Montfoort,Utrecht,VBO,4.917150,52.065436
De Driesprong,42,,,3461HM,Linschoten,Montfoort,Utrecht,VBO,4.917089,52.065411
De Driesprong,43,,,3461HM,Linschoten,Montfoort,Utrecht,VBO,4.917057,52.065392
De Driesprong,44,,,3461HM,Linschoten,Montfoort,Utrecht,VBO,4.917011,52.065368
De Driesprong,45,,,3461HM,Linschoten,Montfoort,Utrecht,VBO,4.916962,52.065342
De Duiker,2,,,3461HN,Linschoten,Montfoort,Utrecht,VBO,4.915711,52.064956
De Duiker,4,,,3461HN,Linschoten,Montfoort,Utrecht,VBO,4.915744,52.065017
De Duiker,6,,,3461HN,Linschoten,Montfoort,Utrecht,VBO,4.915758,52.065067
De Duiker,8,,,3461HN,Linschoten,Montfoort,Utrecht,VBO,4.915773,52.065121
De Duiker,10,,,3461HN,Linschoten,Montfoort,Utrecht,VBO,4.915770,52.065172
De Duiker,12,,,3461HN,Linschoten,Montfoort,Utrecht,VBO,4.915834,52.065505
De Duiker,14,,,3461HN,Linschoten,Montfoort,Utrecht,VBO,4.915840,52.065549
De Duiker,16,,,3461HN,Linschoten,Montfoort,Utrecht,VBO,4.915846,52.065598
De Duiker,18,,,3461HN,Linschoten,Montfoort,Utrecht,VBO,4.915849,52.065642
De Duiker,20,,,3461HN,Linschoten,Montfoort,Utrecht,VBO,4.915843,52.065691
De Duiker,22,,,3461HN,Linschoten,Montfoort,Utrecht,VBO,4.915914,52.065717
De Duiker,24,,,3461HN,Linschoten,Montfoort,Utrecht,VBO,4.915979,52.065746
De Duiker,26,,,3461HN,Linschoten,Montfoort,Utrecht,VBO,4.916046,52.065776
De Duiker,28,,,3461HN,Linschoten,Montfoort,Utrecht,VBO,4.916102,52.065806
De Duiker,30,,,3461HN,Linschoten,Montfoort,Utrecht,VBO,4.916166,52.065836
De Duiker,32,,,3461HN,Linschoten,Montfoort,Utrecht,VBO,4.916231,52.065864
De Duiker,34,,,3461HN,Linschoten,Montfoort,Utrecht,VBO,4.916290,52.065894
De Duiker,36,,,3461HN,Linschoten,Montfoort,Utrecht,VBO,4.916595,52.065923
De Duiker,38,,,3461HN,Linschoten,Montfoort,Utrecht,VBO,4.916657,52.065947
De Duiker,40,,,3461HN,Linschoten,Montfoort,Utrecht,VBO,4.916715,52.065975
De Duiker,42,,,3461HN,Linschoten,Montfoort,Utrecht,VBO,4.916790,52.066003
De Duiker,44,,,3461HN,Linschoten,Montfoort,Utrecht,VBO,4.916850,52.066030
De Duiker,46,,,3461HN,Linschoten,Montfoort,Utrecht,VBO,4.916907,52.066051
De Duiker,48,,,3461HN,Linschoten,Montfoort,Utrecht,VBO,4.916967,52.066077
De Duiker,50,,,3461HN,Linschoten,Montfoort,Utrecht,VBO,4.917033,52.066106
De Duiker,52,,,3461HN,Linschoten,Montfoort,Utrecht,VBO,4.917095,52.066129
De Duiker,54,,,3461HN,Linschoten,Montfoort,Utrecht,VBO,4.917155,52.066156
De Duiker,56,,,3461HN,Linschoten,Montfoort,Utrecht,VBO,4.917216,52.066179
De Duiker,58,,,3461HN,Linschoten,Montfoort,Utrecht,VBO,4.917281,52.066202
De Duiker,1,,,3461HP,Linschoten,Montfoort,Utrecht,VBO,4.915192,52.065109
De Duiker,3,,,3461HP,Linschoten,Montfoort,Utrecht,VBO,4.915203,52.065144
De Duiker,5,,,3461HP,Linschoten,Montfoort,Utrecht,VBO,4.915214,52.065194
De Duiker,7,,,3461HP,Linschoten,Montfoort,Utrecht,VBO,4.915220,52.065238
De Duiker,9,,,3461HP,Linschoten,Montfoort,Utrecht,VBO,4.915224,52.065278
De Duiker,11,,,3461HP,Linschoten,Montfoort,Utrecht,VBO,4.915239,52.065331
De Duiker,13,,,3461HP,Linschoten,Montfoort,Utrecht,VBO,4.915248,52.065341
De Duiker,15,,,3461HP,Linschoten,Montfoort,Utrecht,VBO,4.915256,52.065381
De Duiker,17,,,3461HP,Linschoten,Montfoort,Utrecht,VBO,4.915247,52.065398
De Duiker,19,,,3461HP,Linschoten,Montfoort,Utrecht,VBO,4.915259,52.065444
De Duiker,21,,,3461HP,Linschoten,Montfoort,Utrecht,VBO,4.915258,52.065487
De Duiker,23,,,3461HP,Linschoten,Montfoort,Utrecht,VBO,4.915272,52.065548
De Duiker,25,,,3461HP,Linschoten,Montfoort,Utrecht,VBO,4.915281,52.065588
De Duiker,27,,,3461HP,Linschoten,Montfoort,Utrecht,VBO,4.915285,52.065628
De Duiker,29,,,3461HP,Linschoten,Montfoort,Utrecht,VBO,4.915288,52.065673
De Duiker,31,,,3461HP,Linschoten,Montfoort,Utrecht,VBO,4.915232,52.065784
De Duiker,33,,,3461HP,Linschoten,Montfoort,Utrecht,VBO,4.915192,52.065823
De Duiker,35,,,3461HP,Linschoten,Montfoort,Utrecht,VBO,4.915146,52.065860
De Duiker,37,,,3461HP,Linschoten,Montfoort,Utrecht,VBO,4.915112,52.065895
De Duiker,39,,,3461HP,Linschoten,Montfoort,Utrecht,VBO,4.915068,52.065933
De Duiker,41,,,3461HP,Linschoten,Montfoort,Utrecht,VBO,4.915030,52.065967
De Duiker,43,,,3461HP,Linschoten,Montfoort,Utrecht,VBO,4.915386,52.066142
De Duiker,45,,,3461HP,Linschoten,Montfoort,Utrecht,VBO,4.915451,52.066022
De Duiker,47,,,3461HP,Linschoten,Montfoort,Utrecht,VBO,4.915581,52.065910
De Duiker,49,,,3461HP,Linschoten,Montfoort,Utrecht,VBO,4.915980,52.066080
De Duiker,51,,,3461HP,Linschoten,Montfoort,Utrecht,VBO,4.915857,52.066188
De Duiker,53,,,3461HP,Linschoten,Montfoort,Utrecht,VBO,4.915733,52.066297
De Duikerhof,1,,,3461HR,Linschoten,Montfoort,Utrecht,VBO,4.917414,52.066217
De Duikerhof,2,,,3461HR,Linschoten,Montfoort,Utrecht,VBO,4.917595,52.066066
De Duikerhof,3,,,3461HR,Linschoten,Montfoort,Utrecht,VBO,4.917457,52.066235
De Duikerhof,4,,,3461HR,Linschoten,Montfoort,Utrecht,VBO,4.917641,52.066086
De Duikerhof,5,,,3461HR,Linschoten,Montfoort,Utrecht,VBO,4.917503,52.066254
De Duikerhof,6,,,3461HR,Linschoten,Montfoort,Utrecht,VBO,4.917688,52.066106
De Duikerhof,7,,,3461HR,Linschoten,Montfoort,Utrecht,VBO,4.917549,52.066274
De Duikerhof,8,,,3461HR,Linschoten,Montfoort,Utrecht,VBO,4.917735,52.066126
De Duikerhof,9,,,3461HR,Linschoten,Montfoort,Utrecht,VBO,4.917595,52.066293
De Duikerhof,10,,,3461HR,Linschoten,Montfoort,Utrecht,VBO,4.917787,52.066148
De Duikerhof,11,,,3461HR,Linschoten,Montfoort,Utrecht,VBO,4.917637,52.066311
De Duikerhof,12,,,3461HR,Linschoten,Montfoort,Utrecht,VBO,4.917835,52.066169
De Duikerhof,13,,,3461HR,Linschoten,Montfoort,Utrecht,VBO,4.917680,52.066329
De Duikerhof,14,,,3461HR,Linschoten,Montfoort,Utrecht,VBO,4.917882,52.066189
De Duikerhof,15,,,3461HR,Linschoten,Montfoort,Utrecht,VBO,4.917726,52.066349
De Duikerhof,16,,,3461HR,Linschoten,Montfoort,Utrecht,VBO,4.917929,52.066209
De Duikerhof,17,,,3461HR,Linschoten,Montfoort,Utrecht,VBO,4.917645,52.066043
De Duikerhof,18,,,3461HR,Linschoten,Montfoort,Utrecht,VBO,4.917441,52.066198
De Duikerhof,19,,,3461HR,Linschoten,Montfoort,Utrecht,VBO,4.917720,52.066075
De Duikerhof,20,,,3461HR,Linschoten,Montfoort,Utrecht,VBO,4.917513,52.066228
De Duikerhof,21,,,3461HR,Linschoten,Montfoort,Utrecht,VBO,4.917794,52.066107
De Duikerhof,22,,,3461HR,Linschoten,Montfoort,Utrecht,VBO,4.917585,52.066259
De Duikerhof,23,,,3461HR,Linschoten,Montfoort,Utrecht,VBO,4.917872,52.066141
De Duikerhof,24,,,3461HR,Linschoten,Montfoort,Utrecht,VBO,4.917659,52.066291
De Duikerhof,25,,,3461HR,Linschoten,Montfoort,Utrecht,VBO,4.917947,52.066173
De Duikerhof,26,,,3461HR,Linschoten,Montfoort,Utrecht,VBO,4.917733,52.066323
De Hoorn,1,,,3461HS,Linschoten,Montfoort,Utrecht,VBO,4.916573,52.064448
De Hoorn,2,,,3461HS,Linschoten,Montfoort,Utrecht,VBO,4.916714,52.064382
De Hoorn,3,,,3461HS,Linschoten,Montfoort,Utrecht,VBO,4.916810,52.064311
De Hoorn,4,,,3461HS,Linschoten,Montfoort,Utrecht,VBO,4.916941,52.064375
De Hoorn,5,,,3461HS,Linschoten,Montfoort,Utrecht,VBO,4.917076,52.064442
De Hoorn,6,,,3461HS,Linschoten,Montfoort,Utrecht,VBO,4.917210,52.064510
De Hoorn,7,,,3461HS,Linschoten,Montfoort,Utrecht,VBO,4.917345,52.064578
De Hoorn,8,,,3461HS,Linschoten,Montfoort,Utrecht,VBO,4.917500,52.064640
De Jongstraat,3,,,3461HT,Linschoten,Montfoort,Utrecht,VBO,4.913168,52.064692
De Jongstraat,5,,,3461HT,Linschoten,Montfoort,Utrecht,VBO,4.913300,52.064766
De Jongstraat,7,,,3461HT,Linschoten,Montfoort,Utrecht,VBO,4.913385,52.064813
De Jongstraat,9,,,3461HT,Linschoten,Montfoort,Utrecht,VBO,4.913651,52.064889
De Jongstraat,11,,,3461HT,Linschoten,Montfoort,Utrecht,VBO,4.913601,52.064941
De Jongstraat,13,,,3461HT,Linschoten,Montfoort,Utrecht,VBO,4.913490,52.065042
De Jongstraat,15,,,3461HT,Linschoten,Montfoort,Utrecht,VBO,4.913432,52.065090
De Jongstraat,17,,,3461HT,Linschoten,Montfoort,Utrecht,VBO,4.913313,52.065196
De Jongstraat,19,,,3461HT,Linschoten,Montfoort,Utrecht,VBO,4.913790,52.065335
De Jongstraat,21,,,3461HT,Linschoten,Montfoort,Utrecht,VBO,4.913958,52.065203
De Jongstraat,23,,,3461HT,Linschoten,Montfoort,Utrecht,VBO,4.914337,52.065226
De Jongstraat,25,,,3461HT,Linschoten,Montfoort,Utrecht,VBO,4.914300,52.065266
De Jongstraat,27,,,3461HT,Linschoten,Montfoort,Utrecht,VBO,4.914257,52.065302
De Jongstraat,29,,,3461HT,Linschoten,Montfoort,Utrecht,VBO,4.914208,52.065341
De Jongstraat,31,,,3461HT,Linschoten,Montfoort,Utrecht,VBO,4.914137,52.065403
De Jongstraat,33,,,3461HT,Linschoten,Montfoort,Utrecht,VBO,4.914111,52.065444
De Jongstraat,35,,,3461HT,Linschoten,Montfoort,Utrecht,VBO,4.914061,52.065483
De Jongstraat,37,,,3461HT,Linschoten,Montfoort,Utrecht,VBO,4.914021,52.065523
De Jongstraat,39,,,3461HT,Linschoten,Montfoort,Utrecht,VBO,4.914320,52.065557
De Jongstraat,41,,,3461HT,Linschoten,Montfoort,Utrecht,VBO,4.914376,52.065585
De Jongstraat,43,,,3461HT,Linschoten,Montfoort,Utrecht,VBO,4.914433,52.065612
De Jongstraat,45,,,3461HT,Linschoten,Montfoort,Utrecht,VBO,4.914493,52.065636
De Jongstraat,2,,,3461HV,Linschoten,Montfoort,Utrecht,VBO,4.913539,52.064552
De Jongstraat,4,,,3461HV,Linschoten,Montfoort,Utrecht,VBO,4.913601,52.064586
De Jongstraat,6,,,3461HV,Linschoten,Montfoort,Utrecht,VBO,4.913653,52.064614
De Jongstraat,8,,,3461HV,Linschoten,Montfoort,Utrecht,VBO,4.913712,52.064641
De Jongstraat,10,,,3461HV,Linschoten,Montfoort,Utrecht,VBO,4.913775,52.064674
De Jongstraat,12,,,3461HV,Linschoten,Montfoort,Utrecht,VBO,4.913831,52.064699
De Jongstraat,14,,,3461HV,Linschoten,Montfoort,Utrecht,VBO,4.913886,52.064730
De Jongstraat,16,,,3461HV,Linschoten,Montfoort,Utrecht,VBO,4.913944,52.064760
De Jongstraat,18,,,3461HV,Linschoten,Montfoort,Utrecht,VBO,4.913999,52.064785
De Jongstraat,20,,,3461HV,Linschoten,Montfoort,Utrecht,VBO,4.914056,52.064817
De Jongstraat,22,,,3461HV,Linschoten,Montfoort,Utrecht,VBO,4.914323,52.064945
De Jongstraat,24,,,3461HV,Linschoten,Montfoort,Utrecht,VBO,4.914382,52.064977
De Jongstraat,26,,,3461HV,Linschoten,Montfoort,Utrecht,VBO,4.914446,52.065009
De Jongstraat,28,,,3461HV,Linschoten,Montfoort,Utrecht,VBO,4.914500,52.065041
De Jongstraat,30,,,3461HV,Linschoten,Montfoort,Utrecht,VBO,4.914570,52.065081
De Jongstraat,32,,,3461HV,Linschoten,Montfoort,Utrecht,VBO,4.914642,52.065113
De Jongstraat,34,,,3461HV,Linschoten,Montfoort,Utrecht,VBO,4.914694,52.065137
De Jongstraat,36,,,3461HV,Linschoten,Montfoort,Utrecht,VBO,4.914781,52.065145
De Jongstraat,38,a,,3461HV,Linschoten,Montfoort,Utrecht,VBO,4.914806,52.065248
De Jongstraat,38,,,3461HV,Linschoten,Montfoort,Utrecht,VBO,4.914793,52.065267
De Jongstraat,40,,,3461HV,Linschoten,Montfoort,Utrecht,VBO,4.914797,52.065307
De Jongstraat,42,,,3461HV,Linschoten,Montfoort,Utrecht,VBO,4.914803,52.065355
De Jongstraat,44,,,3461HV,Linschoten,Montfoort,Utrecht,VBO,4.914807,52.065398
De Jongstraat,46,,,3461HV,Linschoten,Montfoort,Utrecht,VBO,4.914814,52.065442
De Jongstraat,48,,,3461HV,Linschoten,Montfoort,Utrecht,VBO,4.914819,52.065487
De Jongstraat,50,,,3461HV,Linschoten,Montfoort,Utrecht,VBO,4.914831,52.065539
De Jongstraat,52,a,,3461HV,Linschoten,Montfoort,Utrecht,VBO,4.914808,52.065600
De Jongstraat,52,,,3461HV,Linschoten,Montfoort,Utrecht,VBO,4.914835,52.065584
De Jongstraat,54,,,3461HV,Linschoten,Montfoort,Utrecht,VBO,4.914752,52.065678
De Jongstraat,56,,,3461HV,Linschoten,Montfoort,Utrecht,VBO,4.914718,52.065722
De Jongstraat,58,,,3461HV,Linschoten,Montfoort,Utrecht,VBO,4.914667,52.065759
De Jongstraat,60,,,3461HV,Linschoten,Montfoort,Utrecht,VBO,4.914626,52.065797
van Rietlaan,1,,,3461HW,Linschoten,Montfoort,Utrecht,VBO,4.912166,52.064409
van Rietlaan,2,,,3461HW,Linschoten,Montfoort,Utrecht,VBO,4.913070,52.064660
van Rietlaan,3,A,,3461HW,Linschoten,Montfoort,Utrecht,VBO,4.911550,52.064174
van Rietlaan,3,,,3461HW,Linschoten,Montfoort,Utrecht,VBO,4.911500,52.064210
van Rietlaan,4,,,3461HW,Linschoten,Montfoort,Utrecht,VBO,4.912880,52.064631
van Rietlaan,6,,,3461HW,Linschoten,Montfoort,Utrecht,VBO,4.912646,52.064798
van Rietlaan,8,,,3461HW,Linschoten,Montfoort,Utrecht,VBO,4.912799,52.064877
van Rietlaan,10,,,3461HW,Linschoten,Montfoort,Utrecht,VBO,4.912878,52.064917
van Rietlaan,11,,,3461HW,Linschoten,Montfoort,Utrecht,VBO,4.911804,52.064832
van Rietlaan,12,,,3461HW,Linschoten,Montfoort,Utrecht,VBO,4.913042,52.064985
van Rietlaan,13,,,3461HW,Linschoten,Montfoort,Utrecht,VBO,4.911267,52.064691
van Rietlaan,14,,,3461HW,Linschoten,Montfoort,Utrecht,VBO,4.913128,52.065028
van Rietlaan,15,,,3461HW,Linschoten,Montfoort,Utrecht,VBO,4.911772,52.065014
van Rietlaan,16,a,,3461HW,Linschoten,Montfoort,Utrecht,VBO,4.910619,52.065773
van Rietlaan,16,,,3461HW,Linschoten,Montfoort,Utrecht,VBO,4.910457,52.065708
van Rietlaan,19,,,3461HW,Linschoten,Montfoort,Utrecht,VBO,4.911531,52.065193
van Rietlaan,23,A,,3461HW,Linschoten,Montfoort,Utrecht,VBO,4.911370,52.065377
van Rietlaan,23,,,3461HW,Linschoten,Montfoort,Utrecht,VBO,4.911322,52.065374
van Rietlaan,25,A,,3461HW,Linschoten,Montfoort,Utrecht,VBO,4.911016,52.065464
van Rietlaan,25,,,3461HW,Linschoten,Montfoort,Utrecht,VBO,4.911190,52.065514
van Rietlaan,31,,,3461HW,Linschoten,Montfoort,Utrecht,VBO,4.910594,52.065310
Wetering,1,,,3461JA,Linschoten,Montfoort,Utrecht,VBO,4.919579,52.066066
Wetering,2,,,3461JA,Linschoten,Montfoort,Utrecht,VBO,4.919956,52.066230
Wetering,3,,,3461JA,Linschoten,Montfoort,Utrecht,VBO,4.919535,52.066110
Wetering,4,,,3461JA,Linschoten,Montfoort,Utrecht,VBO,4.919884,52.066256
Wetering,5,,,3461JA,Linschoten,Montfoort,Utrecht,VBO,4.919492,52.066151
Wetering,6,,,3461JA,Linschoten,Montfoort,Utrecht,VBO,4.919838,52.066293
Wetering,7,,,3461JA,Linschoten,Montfoort,Utrecht,VBO,4.919442,52.066187
Wetering,8,,,3461JA,Linschoten,Montfoort,Utrecht,VBO,4.919790,52.066332
Wetering,9,,,3461JA,Linschoten,Montfoort,Utrecht,VBO,4.919398,52.066228
Wetering,10,,,3461JA,Linschoten,Montfoort,Utrecht,VBO,4.919745,52.066369
Wetering,11,,,3461JA,Linschoten,Montfoort,Utrecht,VBO,4.919351,52.066268
Wetering,12,,,3461JA,Linschoten,Montfoort,Utrecht,VBO,4.919695,52.066406
Wetering,13,,,3461JA,Linschoten,Montfoort,Utrecht,VBO,4.919302,52.066305
Wetering,14,,,3461JA,Linschoten,Montfoort,Utrecht,VBO,4.919648,52.066447
Wetering,15,,,3461JA,Linschoten,Montfoort,Utrecht,VBO,4.919235,52.066338
Wetering,16,,,3461JA,Linschoten,Montfoort,Utrecht,VBO,4.919610,52.066498
Wetering,17,,,3461JA,Linschoten,Montfoort,Utrecht,VBO,4.918942,52.066600
Wetering,19,,,3461JA,Linschoten,Montfoort,Utrecht,VBO,4.918940,52.066653
Wetering,21,,,3461JA,Linschoten,Montfoort,Utrecht,VBO,4.918901,52.066699
Wetering,23,,,3461JA,Linschoten,Montfoort,Utrecht,VBO,4.918845,52.066740
Wetering,25,,,3461JA,Linschoten,Montfoort,Utrecht,VBO,4.918802,52.066780
Wetering,27,,,3461JA,Linschoten,Montfoort,Utrecht,VBO,4.918758,52.066819
Wetering,29,,,3461JA,Linschoten,Montfoort,Utrecht,VBO,4.918711,52.066860
Wetering,31,,,3461JA,Linschoten,Montfoort,Utrecht,VBO,4.918627,52.066900
Molentocht,2,,,3461JB,Linschoten,Montfoort,Utrecht,VBO,4.919820,52.066584
Molentocht,4,,,3461JB,Linschoten,Montfoort,Utrecht,VBO,4.919874,52.066609
Molentocht,6,,,3461JB,Linschoten,Montfoort,Utrecht,VBO,4.919938,52.066640
Molentocht,8,,,3461JB,Linschoten,Montfoort,Utrecht,VBO,4.919989,52.066667
Molentocht,10,,,3461JB,Linschoten,Montfoort,Utrecht,VBO,4.920061,52.066698
Molentocht,12,,,3461JB,Linschoten,Montfoort,Utrecht,VBO,4.920111,52.066728
Molentocht,14,,,3461JB,Linschoten,Montfoort,Utrecht,VBO,4.920171,52.066756
Molentocht,16,,,3461JB,Linschoten,Montfoort,Utrecht,VBO,4.920240,52.066781
Molentocht,18,,,3461JB,Linschoten,Montfoort,Utrecht,VBO,4.920303,52.067046
Molentocht,20,,,3461JB,Linschoten,Montfoort,Utrecht,VBO,4.920241,52.067088
Molentocht,22,,,3461JB,Linschoten,Montfoort,Utrecht,VBO,4.920187,52.067124
Molentocht,24,,,3461JB,Linschoten,Montfoort,Utrecht,VBO,4.920125,52.067173
Molentocht,26,,,3461JB,Linschoten,Montfoort,Utrecht,VBO,4.920070,52.067212
Molentocht,28,,,3461JB,Linschoten,Montfoort,Utrecht,VBO,4.920012,52.067254
Molentocht,30,,,3461JB,Linschoten,Montfoort,Utrecht,VBO,4.919946,52.067296
Molentocht,32,,,3461JB,Linschoten,Montfoort,Utrecht,VBO,4.919899,52.067338
Molentocht,34,,,3461JB,Linschoten,Montfoort,Utrecht,VBO,4.919850,52.067375
Molentocht,36,,,3461JB,Linschoten,Montfoort,Utrecht,VBO,4.919804,52.067419
Polderkade,1,,,3461JC,Linschoten,Montfoort,Utrecht,VBO,4.920879,52.066619
Polderkade,3,,,3461JC,Linschoten,Montfoort,Utrecht,VBO,4.920802,52.066679
Polderkade,5,,,3461JC,Linschoten,Montfoort,Utrecht,VBO,4.920724,52.066737
Polderkade,7,,,3461JC,Linschoten,Montfoort,Utrecht,VBO,4.920638,52.066812
Polderkade,9,,,3461JC,Linschoten,Montfoort,Utrecht,VBO,4.920556,52.066873
Polderkade,11,,,3461JC,Linschoten,Montfoort,Utrecht,VBO,4.920490,52.066932
Molentocht,1,,,3461JD,Linschoten,Montfoort,Utrecht,VBO,4.919249,52.066677
Molentocht,3,,,3461JD,Linschoten,Montfoort,Utrecht,VBO,4.919322,52.066699
Molentocht,5,,,3461JD,Linschoten,Montfoort,Utrecht,VBO,4.919398,52.066725
Molentocht,7,,,3461JD,Linschoten,Montfoort,Utrecht,VBO,4.919461,52.066754
Molentocht,9,,,3461JD,Linschoten,Montfoort,Utrecht,VBO,4.919528,52.066785
Molentocht,11,,,3461JD,Linschoten,Montfoort,Utrecht,VBO,4.919588,52.066833
Molentocht,13,,,3461JD,Linschoten,Montfoort,Utrecht,VBO,4.919731,52.066864
Molentocht,15,,,3461JD,Linschoten,Montfoort,Utrecht,VBO,4.919755,52.066963
Molentocht,17,,,3461JD,Linschoten,Montfoort,Utrecht,VBO,4.919681,52.067027
Molentocht,19,,,3461JD,Linschoten,Montfoort,Utrecht,VBO,4.919633,52.067069
Molentocht,21,,,3461JD,Linschoten,Montfoort,Utrecht,VBO,4.919591,52.067111
Molentocht,23,,,3461JD,Linschoten,Montfoort,Utrecht,VBO,4.919505,52.067184
Molentocht,25,,,3461JD,Linschoten,Montfoort,Utrecht,VBO,4.919366,52.067197
De Duiker,55,,,3461JE,Linschoten,Montfoort,Utrecht,VBO,4.916125,52.066395
De Duiker,57,,,3461JE,Linschoten,Montfoort,Utrecht,VBO,4.916247,52.066277
De Duiker,59,,,3461JE,Linschoten,Montfoort,Utrecht,VBO,4.916370,52.066150
De Duiker,61,,,3461JE,Linschoten,Montfoort,Utrecht,VBO,4.916738,52.066268
De Duiker,63,,,3461JE,Linschoten,Montfoort,Utrecht,VBO,4.916610,52.066369
De Duiker,65,,,3461JE,Linschoten,Montfoort,Utrecht,VBO,4.916387,52.066464
De Duiker,67,,,3461JE,Linschoten,Montfoort,Utrecht,VBO,4.916605,52.066602
De Duiker,69,,,3461JE,Linschoten,Montfoort,Utrecht,VBO,4.916822,52.066670
De Duiker,71,,,3461JE,Linschoten,Montfoort,Utrecht,VBO,4.916903,52.066491
De Duiker,73,,,3461JE,Linschoten,Montfoort,Utrecht,VBO,4.916999,52.066383
De Duiker,75,,,3461JE,Linschoten,Montfoort,Utrecht,VBO,4.917331,52.066554
De Duiker,77,,,3461JE,Linschoten,Montfoort,Utrecht,VBO,4.917223,52.066684
De Duiker,79,,,3461JE,Linschoten,Montfoort,Utrecht,VBO,4.917073,52.066828
De Duiker,81,,,3461JE,Linschoten,Montfoort,Utrecht,VBO,4.917441,52.066999
De Duiker,83,,,3461JE,Linschoten,Montfoort,Utrecht,VBO,4.917541,52.066882
De Duiker,85,,,3461JE,Linschoten,Montfoort,Utrecht,VBO,4.917676,52.066724
De Duiker,87,,,3461JE,Linschoten,Montfoort,Utrecht,VBO,4.917852,52.066804
De Duiker,89,,,3461JE,Linschoten,Montfoort,Utrecht,VBO,4.918136,52.066894
De Duiker,91,,,3461JE,Linschoten,Montfoort,Utrecht,VBO,4.918052,52.066969
De Duiker,93,,,3461JE,Linschoten,Montfoort,Utrecht,VBO,4.917730,52.067017
De Duiker,95,,,3461JE,Linschoten,Montfoort,Utrecht,VBO,4.917907,52.067076
De Duiker,97,,,3461JE,Linschoten,Montfoort,Utrecht,VBO,4.918004,52.067096
De Duiker,99,,,3461JE,Linschoten,Montfoort,Utrecht,VBO,4.918106,52.067138
De Duiker,101,,,3461JE,Linschoten,Montfoort,Utrecht,VBO,4.918226,52.067183
De Duiker,103,,,3461JE,Linschoten,Montfoort,Utrecht,VBO,4.918574,52.067096
De Duiker,105,,,3461JE,Linschoten,Montfoort,Utrecht,VBO,4.918496,52.067164
De Duiker,107,,,3461JE,Linschoten,Montfoort,Utrecht,VBO,4.918332,52.067229
De Duiker,109,,,3461JE,Linschoten,Montfoort,Utrecht,VBO,4.918442,52.067309
De Duiker,111,,,3461JE,Linschoten,Montfoort,Utrecht,VBO,4.918526,52.067364
De Duiker,113,,,3461JE,Linschoten,Montfoort,Utrecht,VBO,4.918661,52.067425
De Duiker,115,,,3461JE,Linschoten,Montfoort,Utrecht,VBO,4.918983,52.067315
De Duiker,117,,,3461JE,Linschoten,Montfoort,Utrecht,VBO,4.918909,52.067389
De Duiker,119,,,3461JE,Linschoten,Montfoort,Utrecht,VBO,4.918745,52.067504
De Duiker,121,,,3461JE,Linschoten,Montfoort,Utrecht,VBO,4.918879,52.067562
De Duiker,123,,,3461JE,Linschoten,Montfoort,Utrecht,VBO,4.918989,52.067609
De Duiker,125,,,3461JE,Linschoten,Montfoort,Utrecht,VBO,4.919119,52.067667
De Duiker,127,,,3461JE,Linschoten,Montfoort,Utrecht,VBO,4.919241,52.067772
De Duiker,129,,,3461JE,Linschoten,Montfoort,Utrecht,VBO,4.919443,52.067761
De Duiker,131,,,3461JE,Linschoten,Montfoort,Utrecht,VBO,4.919512,52.067637
De Duiker,133,,,3461JE,Linschoten,Montfoort,Utrecht,VBO,4.919613,52.067571
De Duiker,60,,,3461JG,Linschoten,Montfoort,Utrecht,VBO,4.917889,52.066535
De Duiker,62,,,3461JG,Linschoten,Montfoort,Utrecht,VBO,4.917947,52.066560
De Duiker,64,,,3461JG,Linschoten,Montfoort,Utrecht,VBO,4.918010,52.066587
De Duiker,66,,,3461JG,Linschoten,Montfoort,Utrecht,VBO,4.918071,52.066613
De Duiker,68,,,3461JG,Linschoten,Montfoort,Utrecht,VBO,4.918131,52.066638
De Duiker,70,,,3461JG,Linschoten,Montfoort,Utrecht,VBO,4.918190,52.066664
De Duiker,72,,,3461JG,Linschoten,Montfoort,Utrecht,VBO,4.918250,52.066689
De Duiker,74,,,3461JG,Linschoten,Montfoort,Utrecht,VBO,4.918315,52.066716
De Duiker,76,,,3461JG,Linschoten,Montfoort,Utrecht,VBO,4.918896,52.066999
De Duiker,78,,,3461JG,Linschoten,Montfoort,Utrecht,VBO,4.918967,52.067024
De Duiker,80,,,3461JG,Linschoten,Montfoort,Utrecht,VBO,4.919034,52.067053
De Duiker,82,,,3461JG,Linschoten,Montfoort,Utrecht,VBO,4.919101,52.067082
De Duiker,84,,,3461JG,Linschoten,Montfoort,Utrecht,VBO,4.919165,52.067112
De Duiker,86,,,3461JG,Linschoten,Montfoort,Utrecht,VBO,4.919232,52.067134
Vijzelplantsoen,1,,,3461JH,Linschoten,Montfoort,Utrecht,VBO,4.918168,52.066279
Vijzelplantsoen,2,,,3461JH,Linschoten,Montfoort,Utrecht,VBO,4.918515,52.065982
Vijzelplantsoen,3,,,3461JH,Linschoten,Montfoort,Utrecht,VBO,4.918228,52.066307
Vijzelplantsoen,4,,,3461JH,Linschoten,Montfoort,Utrecht,VBO,4.918574,52.066010
Vijzelplantsoen,5,,,3461JH,Linschoten,Montfoort,Utrecht,VBO,4.918289,52.066332
Vijzelplantsoen,6,,,3461JH,Linschoten,Montfoort,Utrecht,VBO,4.918638,52.066041
Vijzelplantsoen,7,,,3461JH,Linschoten,Montfoort,Utrecht,VBO,4.918352,52.066358
Vijzelplantsoen,8,,,3461JH,Linschoten,Montfoort,Utrecht,VBO,4.918702,52.066068
Vijzelplantsoen,9,,,3461JH,Linschoten,Montfoort,Utrecht,VBO,4.918417,52.066383
Vijzelplantsoen,10,,,3461JH,Linschoten,Montfoort,Utrecht,VBO,4.918760,52.066097
Vijzelplantsoen,11,,,3461JH,Linschoten,Montfoort,Utrecht,VBO,4.918489,52.066409
Vijzelplantsoen,12,,,3461JH,Linschoten,Montfoort,Utrecht,VBO,4.918832,52.066132
Vijzelplantsoen,13,,,3461JH,Linschoten,Montfoort,Utrecht,VBO,4.918540,52.066435
Vijzelplantsoen,14,,,3461JH,Linschoten,Montfoort,Utrecht,VBO,4.918889,52.066160
Vijzelplantsoen,15,,,3461JH,Linschoten,Montfoort,Utrecht,VBO,4.918604,52.066464
Vijzelplantsoen,16,,,3461JH,Linschoten,Montfoort,Utrecht,VBO,4.918946,52.066184
Vijzelplantsoen,18,,,3461JH,Linschoten,Montfoort,Utrecht,VBO,4.919000,52.066208
Vijzelplantsoen,20,,,3461JH,Linschoten,Montfoort,Utrecht,VBO,4.919057,52.066235
