openbareruimtenaam,huisnummer,huisletter,huisnummertoevoeging,postcode,woonplaatsnaam,gemeentenaam,provincienaam,typeadresseerbaarobject,longitude,latitude
Hoogeind,1,a,,3465HA,Driebruggen,Bodegraven-Reeuwijk,Zuid-Holland,VBO,4.796507,52.042087
Hoogeind,3,,,3465HA,Driebruggen,Bodegraven-Reeuwijk,Zuid-Holland,VBO,4.796325,52.041412
Hoogeind,5,,,3465HA,Driebruggen,Bodegraven-Reeuwijk,Zuid-Holland,VBO,4.796737,52.039985
Hoogeind,7,,,3465HA,Driebruggen,Bodegraven-Reeuwijk,Zuid-Holland,VBO,4.797066,52.039385
Hoogeind,9,,,3465HA,Driebruggen,Bodegraven-Reeuwijk,Zuid-Holland,VBO,4.798917,52.034936
Hoogeind,13,,,3465HA,Driebruggen,Bodegraven-Reeuwijk,Zuid-Holland,VBO,4.800177,52.032192
Hoogeind,15,,,3465HA,Driebruggen,Bodegraven-Reeuwijk,Zuid-Holland,VBO,4.800447,52.031636
Hoogeind,17,,,3465HA,Driebruggen,Bodegraven-Reeuwijk,Zuid-Holland,VBO,4.800614,52.031088
Hoogeind,19,,,3465HA,Driebruggen,Bodegraven-Reeuwijk,Zuid-Holland,VBO,4.801183,52.029932
Hoogeind,21,,,3465HA,Driebruggen,Bodegraven-Reeuwijk,Zuid-Holland,VBO,4.801667,52.028550
Hoogeind,23,,,3465HA,Driebruggen,Bodegraven-Reeuwijk,Zuid-Holland,VBO,4.801921,52.028075
Hoogeind,25,,,3465HA,Driebruggen,Bodegraven-Reeuwijk,Zuid-Holland,VBO,4.802135,52.027312
Hoogeind,27,,,3465HA,Driebruggen,Bodegraven-Reeuwijk,Zuid-Holland,VBO,4.802314,52.027025
Hoogeind,29,,,3465HA,Driebruggen,Bodegraven-Reeuwijk,Zuid-Holland,VBO,4.802329,52.026962
Hoogeind,31,,,3465HA,Driebruggen,Bodegraven-Reeuwijk,Zuid-Holland,VBO,4.802364,52.026522
Hoogeind,39,,,3465HA,Driebruggen,Bodegraven-Reeuwijk,Zuid-Holland,VBO,4.802403,52.026370
Hoogeind,41,,,3465HA,Driebruggen,Bodegraven-Reeuwijk,Zuid-Holland,VBO,4.802415,52.026303
Hoogeind,2,,,3465HB,Driebruggen,Bodegraven-Reeuwijk,Zuid-Holland,VBO,4.795454,52.043331
Hoogeind,4,,,3465HB,Driebruggen,Bodegraven-Reeuwijk,Zuid-Holland,VBO,4.795514,52.043188
Hoogeind,6,a,,3465HB,Driebruggen,Bodegraven-Reeuwijk,Zuid-Holland,VBO,4.795505,52.042801
Hoogeind,6,,,3465HB,Driebruggen,Bodegraven-Reeuwijk,Zuid-Holland,VBO,4.795459,52.042990
Hoogeind,8,,,3465HB,Driebruggen,Bodegraven-Reeuwijk,Zuid-Holland,VBO,4.795493,52.042604
Hoogeind,10,,,3465HB,Driebruggen,Bodegraven-Reeuwijk,Zuid-Holland,VBO,4.795512,52.042262
Hoogeind,12,a,,3465HB,Driebruggen,Bodegraven-Reeuwijk,Zuid-Holland,VBO,4.795669,52.041382
Hoogeind,12,,,3465HB,Driebruggen,Bodegraven-Reeuwijk,Zuid-Holland,VBO,4.795577,52.041732
Hoogeind,14,,,3465HB,Driebruggen,Bodegraven-Reeuwijk,Zuid-Holland,VBO,4.795732,52.041014
Hoogeind,16,,,3465HB,Driebruggen,Bodegraven-Reeuwijk,Zuid-Holland,VBO,4.795870,52.040547
Hoogeind,18,,,3465HB,Driebruggen,Bodegraven-Reeuwijk,Zuid-Holland,VBO,4.795875,52.040116
Hoogeind,20,,,3465HB,Driebruggen,Bodegraven-Reeuwijk,Zuid-Holland,VBO,4.796005,52.039676
Hoogeind,22,,,3465HB,Driebruggen,Bodegraven-Reeuwijk,Zuid-Holland,VBO,4.796595,52.038627
Hoogeind,24,,,3465HB,Driebruggen,Bodegraven-Reeuwijk,Zuid-Holland,VBO,4.796751,52.037810
Hoogeind,26,a,,3465HB,Driebruggen,Bodegraven-Reeuwijk,Zuid-Holland,VBO,4.797422,52.036699
Hoogeind,26,,,3465HB,Driebruggen,Bodegraven-Reeuwijk,Zuid-Holland,VBO,4.797344,52.037094
Hoogeind,28,,,3465HB,Driebruggen,Bodegraven-Reeuwijk,Zuid-Holland,VBO,4.797723,52.035919
Hoogeind,30,a,,3465HC,Driebruggen,Bodegraven-Reeuwijk,Zuid-Holland,VBO,4.798101,52.034914
Hoogeind,30,b,,3465HC,Driebruggen,Bodegraven-Reeuwijk,Zuid-Holland,VBO,4.797497,52.034730
Hoogeind,30,,,3465HC,Driebruggen,Bodegraven-Reeuwijk,Zuid-Holland,VBO,4.797977,52.035461
Hoogeind,32,a,,3465HC,Driebruggen,Bodegraven-Reeuwijk,Zuid-Holland,VBO,4.798056,52.034505
Hoogeind,32,,,3465HC,Driebruggen,Bodegraven-Reeuwijk,Zuid-Holland,VBO,4.798368,52.034538
Hoogeind,34,a,,3465HC,Driebruggen,Bodegraven-Reeuwijk,Zuid-Holland,VBO,4.798512,52.033920
Hoogeind,34,,,3465HC,Driebruggen,Bodegraven-Reeuwijk,Zuid-Holland,VBO,4.798729,52.033917
Hoogeind,36,,,3465HC,Driebruggen,Bodegraven-Reeuwijk,Zuid-Holland,VBO,4.798539,52.033747
Hoogeind,38,,,3465HC,Driebruggen,Bodegraven-Reeuwijk,Zuid-Holland,VBO,4.799146,52.033049
Hoogeind,40,,,3465HC,Driebruggen,Bodegraven-Reeuwijk,Zuid-Holland,VBO,4.799135,52.032753
Hoogeind,42,,,3465HC,Driebruggen,Bodegraven-Reeuwijk,Zuid-Holland,VBO,4.799168,52.032447
Hoogeind,44,,,3465HC,Driebruggen,Bodegraven-Reeuwijk,Zuid-Holland,VBO,4.799584,52.031883
Hoogeind,46,,,3465HC,Driebruggen,Bodegraven-Reeuwijk,Zuid-Holland,VBO,4.799599,52.031838
Hoogeind,48,a,,3465HC,Driebruggen,Bodegraven-Reeuwijk,Zuid-Holland,VBO,4.799938,52.030786
Hoogeind,48,,,3465HC,Driebruggen,Bodegraven-Reeuwijk,Zuid-Holland,VBO,4.799825,52.031246
Hoogeind,50,,,3465HD,Driebruggen,Bodegraven-Reeuwijk,Zuid-Holland,VBO,4.800268,52.030269
Hoogeind,52,,,3465HD,Driebruggen,Bodegraven-Reeuwijk,Zuid-Holland,VBO,4.800650,52.029453
Hoogeind,54,,,3465HD,Driebruggen,Bodegraven-Reeuwijk,Zuid-Holland,VBO,4.800798,52.029247
Hoogeind,56,a,,3465HD,Driebruggen,Bodegraven-Reeuwijk,Zuid-Holland,VBO,4.801070,52.028511
Hoogeind,56,,,3465HD,Driebruggen,Bodegraven-Reeuwijk,Zuid-Holland,VBO,4.801125,52.028799
Hoogeind,58,,,3465HD,Driebruggen,Bodegraven-Reeuwijk,Zuid-Holland,VBO,4.801175,52.028305
Hoogeind,60,,,3465HD,Driebruggen,Bodegraven-Reeuwijk,Zuid-Holland,VBO,4.801355,52.027928
Hoogeind,62,,,3465HD,Driebruggen,Bodegraven-Reeuwijk,Zuid-Holland,VBO,4.801258,52.027541
Hoogeind,64,,,3465HD,Driebruggen,Bodegraven-Reeuwijk,Zuid-Holland,VBO,4.801584,52.027093
Hoogeind,66,,,3465HD,Driebruggen,Bodegraven-Reeuwijk,Zuid-Holland,VBO,4.801525,52.026887
Hoogeind,68,,,3465HD,Driebruggen,Bodegraven-Reeuwijk,Zuid-Holland,VBO,4.801809,52.026718
Hoogeind,70,,,3465HD,Driebruggen,Bodegraven-Reeuwijk,Zuid-Holland,VBO,4.801592,52.026491
Hoogeind,72,,,3465HD,Driebruggen,Bodegraven-Reeuwijk,Zuid-Holland,VBO,4.802031,52.026376
Hoogeind,74,,,3465HD,Driebruggen,Bodegraven-Reeuwijk,Zuid-Holland,VBO,4.801729,52.026096
Hoogeind,76,,,3465HD,Driebruggen,Bodegraven-Reeuwijk,Zuid-Holland,VBO,4.802008,52.025823
Hoogeind,78,,,3465HD,Driebruggen,Bodegraven-Reeuwijk,Zuid-Holland,VBO,4.802039,52.025757
Hoogeind,80,,,3465HD,Driebruggen,Bodegraven-Reeuwijk,Zuid-Holland,VBO,4.802413,52.025039
Hogebrug,1,,,3465HE,Driebruggen,Bodegraven-Reeuwijk,Zuid-Holland,VBO,4.802543,52.026217
Hogebrug,3,,,3465HE,Driebruggen,Bodegraven-Reeuwijk,Zuid-Holland,VBO,4.802761,52.026218
Hogebrug,5,,,3465HE,Driebruggen,Bodegraven-Reeuwijk,Zuid-Holland,VBO,4.802833,52.026282
Hogebrug,7,,,3465HE,Driebruggen,Bodegraven-Reeuwijk,Zuid-Holland,VBO,4.803494,52.026552
Hogebrug,9,,,3465HE,Driebruggen,Bodegraven-Reeuwijk,Zuid-Holland,VBO,4.804927,52.026660
Hogebrug,11,,,3465HE,Driebruggen,Bodegraven-Reeuwijk,Zuid-Holland,VBO,4.805029,52.026670
Hogebrug,13,,,3465HE,Driebruggen,Bodegraven-Reeuwijk,Zuid-Holland,VBO,4.805145,52.026688
Hogebrug,15,,,3465HE,Driebruggen,Bodegraven-Reeuwijk,Zuid-Holland,VBO,4.805261,52.026707
Hogebrug,17,,,3465HE,Driebruggen,Bodegraven-Reeuwijk,Zuid-Holland,VBO,4.805407,52.026735
Hogebrug,2,,,3465HG,Driebruggen,Bodegraven-Reeuwijk,Zuid-Holland,VBO,4.804203,52.026279
Hogebrug,4,,,3465HG,Driebruggen,Bodegraven-Reeuwijk,Zuid-Holland,VBO,4.804960,52.026319
Hogebrug,6,,,3465HG,Driebruggen,Bodegraven-Reeuwijk,Zuid-Holland,VBO,4.804901,52.026391
Hogebrug,10,,,3465HG,Driebruggen,Bodegraven-Reeuwijk,Zuid-Holland,VBO,4.805205,52.026545
Hogebrug,12,,,3465HG,Driebruggen,Bodegraven-Reeuwijk,Zuid-Holland,VBO,4.805467,52.026555
Hogebrug,14,,,3465HG,Driebruggen,Bodegraven-Reeuwijk,Zuid-Holland,VBO,4.805859,52.026674
Hogebrug,16,,,3465HG,Driebruggen,Bodegraven-Reeuwijk,Zuid-Holland,VBO,4.805961,52.026693
Hogebrug,18,,,3465HG,Driebruggen,Bodegraven-Reeuwijk,Zuid-Holland,VBO,4.806034,52.026711
Hogebrug,20,a,,3465HG,Driebruggen,Bodegraven-Reeuwijk,Zuid-Holland,VBO,4.806543,52.026785
Hogebrug,20,,,3465HG,Driebruggen,Bodegraven-Reeuwijk,Zuid-Holland,VBO,4.806171,52.026673
Hogebrug,22,a,,3465HG,Driebruggen,Bodegraven-Reeuwijk,Zuid-Holland,VBO,4.807138,52.026923
Hogebrug,22,,,3465HG,Driebruggen,Bodegraven-Reeuwijk,Zuid-Holland,VBO,4.806877,52.026814
Hogebrug,24,,,3465HG,Driebruggen,Bodegraven-Reeuwijk,Zuid-Holland,VBO,4.807489,52.026862
Hogebrug,26,,,3465HG,Driebruggen,Bodegraven-Reeuwijk,Zuid-Holland,VBO,4.807707,52.026890
Hogebrug,28,,,3465HG,Driebruggen,Bodegraven-Reeuwijk,Zuid-Holland,VBO,4.808011,52.026999
Hogebrug,30,,,3465HG,Driebruggen,Bodegraven-Reeuwijk,Zuid-Holland,VBO,4.808156,52.027108
Hogebrug,32,,,3465HG,Driebruggen,Bodegraven-Reeuwijk,Zuid-Holland,VBO,4.808213,52.027171
Hogebrug,34,,,3465HG,Driebruggen,Bodegraven-Reeuwijk,Zuid-Holland,VBO,4.808330,52.027127
Hogebrug,36,,,3465HG,Driebruggen,Bodegraven-Reeuwijk,Zuid-Holland,VBO,4.808389,52.027136
Hogebrug,38,,,3465HG,Driebruggen,Bodegraven-Reeuwijk,Zuid-Holland,VBO,4.808709,52.027120
Westeinde,67,,,3465JA,Driebruggen,Bodegraven-Reeuwijk,Zuid-Holland,VBO,4.807506,52.045809
Westeinde,69,a,,3465JA,Driebruggen,Bodegraven-Reeuwijk,Zuid-Holland,VBO,4.807290,52.045619
Westeinde,69,,,3465JA,Driebruggen,Bodegraven-Reeuwijk,Zuid-Holland,VBO,4.807278,52.045406
Westeinde,73,,,3465JA,Driebruggen,Bodegraven-Reeuwijk,Zuid-Holland,VBO,4.806772,52.045069
Westeinde,75,,,3465JA,Driebruggen,Bodegraven-Reeuwijk,Zuid-Holland,VBO,4.806333,52.045165
Westeinde,77,,,3465JA,Driebruggen,Bodegraven-Reeuwijk,Zuid-Holland,VBO,4.806221,52.044823
Westeinde,79,a,,3465JA,Driebruggen,Bodegraven-Reeuwijk,Zuid-Holland,VBO,4.807294,52.042673
Westeinde,79,,,3465JA,Driebruggen,Bodegraven-Reeuwijk,Zuid-Holland,VBO,4.807059,52.042662
Westeinde,81,,,3465JA,Driebruggen,Bodegraven-Reeuwijk,Zuid-Holland,VBO,4.804724,52.044537
Westeinde,83,,,3465JA,Driebruggen,Bodegraven-Reeuwijk,Zuid-Holland,VBO,4.804345,52.044472
De Groendijck,1,,,3465JB,Driebruggen,Bodegraven-Reeuwijk,Zuid-Holland,VBO,4.801196,52.044520
De Groendijck,2,,,3465JB,Driebruggen,Bodegraven-Reeuwijk,Zuid-Holland,VBO,4.801227,52.044376
De Groendijck,3,,,3465JB,Driebruggen,Bodegraven-Reeuwijk,Zuid-Holland,VBO,4.801327,52.044547
De Groendijck,4,a,,3465JB,Driebruggen,Bodegraven-Reeuwijk,Zuid-Holland,VBO,4.801757,52.043974
De Groendijck,4,b,,3465JB,Driebruggen,Bodegraven-Reeuwijk,Zuid-Holland,VBO,4.802253,52.043977
De Groendijck,4,c,,3465JB,Driebruggen,Bodegraven-Reeuwijk,Zuid-Holland,VBO,4.802073,52.043516
De Groendijck,4,,,3465JB,Driebruggen,Bodegraven-Reeuwijk,Zuid-Holland,VBO,4.801448,52.044233
De Groendijck,5,,,3465JB,Driebruggen,Bodegraven-Reeuwijk,Zuid-Holland,VBO,4.801645,52.044765
De Groendijck,6,,,3465JB,Driebruggen,Bodegraven-Reeuwijk,Zuid-Holland,VBO,4.801720,52.044585
De Groendijck,7,,,3465JB,Driebruggen,Bodegraven-Reeuwijk,Zuid-Holland,VBO,4.801791,52.044756
De Groendijck,8,,,3465JB,Driebruggen,Bodegraven-Reeuwijk,Zuid-Holland,VBO,4.801836,52.044631
De Groendijck,9,,,3465JB,Driebruggen,Bodegraven-Reeuwijk,Zuid-Holland,VBO,4.801878,52.044775
De Groendijck,10,,,3465JB,Driebruggen,Bodegraven-Reeuwijk,Zuid-Holland,VBO,4.801923,52.044640
De Groendijck,11,,,3465JB,Driebruggen,Bodegraven-Reeuwijk,Zuid-Holland,VBO,4.801980,52.044784
De Groendijck,12,,,3465JB,Driebruggen,Bodegraven-Reeuwijk,Zuid-Holland,VBO,4.802040,52.044677
De Groendijck,13,,,3465JB,Driebruggen,Bodegraven-Reeuwijk,Zuid-Holland,VBO,4.802182,52.044938
De Groendijck,14,,,3465JB,Driebruggen,Bodegraven-Reeuwijk,Zuid-Holland,VBO,4.802141,52.044695
De Groendijck,15,,,3465JB,Driebruggen,Bodegraven-Reeuwijk,Zuid-Holland,VBO,4.801949,52.045490
De Groendijck,16,a,,3465JB,Driebruggen,Bodegraven-Reeuwijk,Zuid-Holland,VBO,4.802974,52.044564
De Groendijck,16,,,3465JB,Driebruggen,Bodegraven-Reeuwijk,Zuid-Holland,VBO,4.802477,52.044652
De Groendijck,17,,,3465JB,Driebruggen,Bodegraven-Reeuwijk,Zuid-Holland,VBO,4.802517,52.044940
De Groendijck,18,,,3465JB,Driebruggen,Bodegraven-Reeuwijk,Zuid-Holland,VBO,4.803572,52.044531
De Groendijck,19,,,3465JB,Driebruggen,Bodegraven-Reeuwijk,Zuid-Holland,VBO,4.802676,52.045030
De Groendijck,20,a,,3465JB,Driebruggen,Bodegraven-Reeuwijk,Zuid-Holland,VBO,4.805455,52.045085
De Groendijck,20,b,,3465JB,Driebruggen,Bodegraven-Reeuwijk,Zuid-Holland,VBO,4.805304,52.045017
De Groendijck,20,,1,3465JB,Driebruggen,Bodegraven-Reeuwijk,Zuid-Holland,VBO,4.805391,52.045100
De Groendijck,20,,2,3465JB,Driebruggen,Bodegraven-Reeuwijk,Zuid-Holland,VBO,4.805262,52.045052
De Groendijck,21,,,3465JB,Driebruggen,Bodegraven-Reeuwijk,Zuid-Holland,VBO,4.802823,52.044950
De Groendijck,23,,,3465JB,Driebruggen,Bodegraven-Reeuwijk,Zuid-Holland,VBO,4.802983,52.044951
De Groendijck,25,,,3465JB,Driebruggen,Bodegraven-Reeuwijk,Zuid-Holland,VBO,4.803229,52.045105
De Groendijck,27,,,3465JB,Driebruggen,Bodegraven-Reeuwijk,Zuid-Holland,VBO,4.803536,52.045071
De Groendijck,29,,,3465JB,Driebruggen,Bodegraven-Reeuwijk,Zuid-Holland,VBO,4.803784,52.045072
De Groendijck,31,,,3465JB,Driebruggen,Bodegraven-Reeuwijk,Zuid-Holland,VBO,4.804075,52.045118
De Groendijck,33,,,3465JB,Driebruggen,Bodegraven-Reeuwijk,Zuid-Holland,VBO,4.804336,52.045200
De Groendijck,35,a,,3465JB,Driebruggen,Bodegraven-Reeuwijk,Zuid-Holland,VBO,4.804592,52.045422
De Groendijck,35,b,,3465JB,Driebruggen,Bodegraven-Reeuwijk,Zuid-Holland,VBO,4.804687,52.045473
De Groendijck,35,c,,3465JB,Driebruggen,Bodegraven-Reeuwijk,Zuid-Holland,VBO,4.804788,52.045522
De Groendijck,35,,,3465JB,Driebruggen,Bodegraven-Reeuwijk,Zuid-Holland,VBO,4.804510,52.045383
Noordkade,1,,,3465JC,Driebruggen,Bodegraven-Reeuwijk,Zuid-Holland,VBO,4.801108,52.044582
Noordkade,2,,,3465JC,Driebruggen,Bodegraven-Reeuwijk,Zuid-Holland,VBO,4.801151,52.044627
Noordkade,3,a,,3465JC,Driebruggen,Bodegraven-Reeuwijk,Zuid-Holland,VBO,4.801125,52.045116
Noordkade,3,,,3465JC,Driebruggen,Bodegraven-Reeuwijk,Zuid-Holland,VBO,4.801134,52.044789
Noordkade,4,,,3465JC,Driebruggen,Bodegraven-Reeuwijk,Zuid-Holland,VBO,4.801040,52.045328
Noordkade,5,,,3465JC,Driebruggen,Bodegraven-Reeuwijk,Zuid-Holland,VBO,4.800981,52.045399
Noordkade,6,,,3465JC,Driebruggen,Bodegraven-Reeuwijk,Zuid-Holland,VBO,4.800951,52.045462
Noordkade,7,,,3465JC,Driebruggen,Bodegraven-Reeuwijk,Zuid-Holland,VBO,4.800906,52.045525
Noordkade,8,,,3465JC,Driebruggen,Bodegraven-Reeuwijk,Zuid-Holland,VBO,4.800847,52.045579
Zuidkade,2,,,3465JD,Driebruggen,Bodegraven-Reeuwijk,Zuid-Holland,VBO,4.801215,52.044169
Zuidkade,3,,,3465JD,Driebruggen,Bodegraven-Reeuwijk,Zuid-Holland,VBO,4.801246,52.044088
Zuidkade,4,,,3465JD,Driebruggen,Bodegraven-Reeuwijk,Zuid-Holland,VBO,4.801349,52.043945
Zuidkade,5,,,3465JD,Driebruggen,Bodegraven-Reeuwijk,Zuid-Holland,VBO,4.801350,52.043891
Zuidkade,6,,,3465JD,Driebruggen,Bodegraven-Reeuwijk,Zuid-Holland,VBO,4.801380,52.043846
Zuidkade,8,,,3465JD,Driebruggen,Bodegraven-Reeuwijk,Zuid-Holland,VBO,4.801498,52.043703
Zuidkade,9,,,3465JD,Driebruggen,Bodegraven-Reeuwijk,Zuid-Holland,VBO,4.801514,52.043640
Zuidkade,10,,,3465JD,Driebruggen,Bodegraven-Reeuwijk,Zuid-Holland,VBO,4.801558,52.043596
Zuidkade,11,,,3465JD,Driebruggen,Bodegraven-Reeuwijk,Zuid-Holland,VBO,4.801573,52.043551
Zuidkade,12,,,3465JD,Driebruggen,Bodegraven-Reeuwijk,Zuid-Holland,VBO,4.801661,52.043506
Zuidkade,14,,,3465JD,Driebruggen,Bodegraven-Reeuwijk,Zuid-Holland,VBO,4.802260,52.042305
Prinses Beatrixkade,1,,,3465JE,Driebruggen,Bodegraven-Reeuwijk,Zuid-Holland,VBO,4.800587,52.044247
Prinses Beatrixkade,2,,,3465JE,Driebruggen,Bodegraven-Reeuwijk,Zuid-Holland,VBO,4.800719,52.044203
Prinses Beatrixkade,3,,,3465JE,Driebruggen,Bodegraven-Reeuwijk,Zuid-Holland,VBO,4.800778,52.044167
Prinses Beatrixkade,4,,,3465JE,Driebruggen,Bodegraven-Reeuwijk,Zuid-Holland,VBO,4.800750,52.044086
Prinses Beatrixkade,5,,,3465JE,Driebruggen,Bodegraven-Reeuwijk,Zuid-Holland,VBO,4.800780,52.043996
Prinses Beatrixkade,6,,,3465JE,Driebruggen,Bodegraven-Reeuwijk,Zuid-Holland,VBO,4.800840,52.043880
Prinses Beatrixkade,7,,,3465JE,Driebruggen,Bodegraven-Reeuwijk,Zuid-Holland,VBO,4.800857,52.043673
Prinses Beatrixkade,8,,,3465JE,Driebruggen,Bodegraven-Reeuwijk,Zuid-Holland,VBO,4.800628,52.043402
Prinses Beatrixkade,9,,,3465JE,Driebruggen,Bodegraven-Reeuwijk,Zuid-Holland,VBO,4.801050,52.043467
Prinses Beatrixkade,10,,,3465JE,Driebruggen,Bodegraven-Reeuwijk,Zuid-Holland,VBO,4.801157,52.043255
Kerkweg,1,,,3465JG,Driebruggen,Bodegraven-Reeuwijk,Zuid-Holland,VBO,4.800268,52.044138
Kerkweg,3,,,3465JG,Driebruggen,Bodegraven-Reeuwijk,Zuid-Holland,VBO,4.800108,52.044092
Kerkweg,5,,,3465JG,Driebruggen,Bodegraven-Reeuwijk,Zuid-Holland,VBO,4.799992,52.044073
Kerkweg,7,a,,3465JG,Driebruggen,Bodegraven-Reeuwijk,Zuid-Holland,VBO,4.799654,52.044059
Kerkweg,7,b,,3465JG,Driebruggen,Bodegraven-Reeuwijk,Zuid-Holland,VBO,4.799583,52.044116
Kerkweg,7,c,,3465JG,Driebruggen,Bodegraven-Reeuwijk,Zuid-Holland,VBO,4.799613,52.044098
Kerkweg,7,,,3465JG,Driebruggen,Bodegraven-Reeuwijk,Zuid-Holland,VBO,4.799672,52.044000
Kerkweg,9,,,3465JG,Driebruggen,Bodegraven-Reeuwijk,Zuid-Holland,VBO,4.799497,52.043999
Kerkweg,11,,,3465JG,Driebruggen,Bodegraven-Reeuwijk,Zuid-Holland,VBO,4.799308,52.043971
Kerkweg,15,,,3465JG,Driebruggen,Bodegraven-Reeuwijk,Zuid-Holland,VBO,4.798989,52.043844
Kerkweg,17,,,3465JG,Driebruggen,Bodegraven-Reeuwijk,Zuid-Holland,VBO,4.798581,52.043877
Kerkweg,19,,,3465JG,Driebruggen,Bodegraven-Reeuwijk,Zuid-Holland,VBO,4.798305,52.043822
Kerkweg,21,,,3465JG,Driebruggen,Bodegraven-Reeuwijk,Zuid-Holland,VBO,4.798159,52.043821
Kerkweg,23,,,3465JG,Driebruggen,Bodegraven-Reeuwijk,Zuid-Holland,VBO,4.798071,52.043812
Kerkweg,25,,,3465JG,Driebruggen,Bodegraven-Reeuwijk,Zuid-Holland,VBO,4.797854,52.043748
Kerkweg,27,,,3465JG,Driebruggen,Bodegraven-Reeuwijk,Zuid-Holland,VBO,4.797650,52.043720
Kerkweg,29,,,3465JH,Driebruggen,Bodegraven-Reeuwijk,Zuid-Holland,VBO,4.797330,52.043673
Kerkweg,31,,,3465JH,Driebruggen,Bodegraven-Reeuwijk,Zuid-Holland,VBO,4.797213,52.043682
Kerkweg,33,,,3465JH,Driebruggen,Bodegraven-Reeuwijk,Zuid-Holland,VBO,4.797155,52.043673
Kerkweg,35,,,3465JH,Driebruggen,Bodegraven-Reeuwijk,Zuid-Holland,VBO,4.797068,52.043672
Kerkweg,37,,,3465JH,Driebruggen,Bodegraven-Reeuwijk,Zuid-Holland,VBO,4.796966,52.043627
Kerkweg,39,,,3465JH,Driebruggen,Bodegraven-Reeuwijk,Zuid-Holland,VBO,4.796850,52.043608
Kerkweg,41,,,3465JH,Driebruggen,Bodegraven-Reeuwijk,Zuid-Holland,VBO,4.796733,52.043599
Kerkweg,43,,,3465JH,Driebruggen,Bodegraven-Reeuwijk,Zuid-Holland,VBO,4.796631,52.043598
Kerkweg,45,,,3465JH,Driebruggen,Bodegraven-Reeuwijk,Zuid-Holland,VBO,4.796501,52.043534
Kerkweg,47,,,3465JH,Driebruggen,Bodegraven-Reeuwijk,Zuid-Holland,VBO,4.796311,52.043543
Kerkweg,49,,,3465JH,Driebruggen,Bodegraven-Reeuwijk,Zuid-Holland,VBO,4.796457,52.043332
Kerkweg,51,,,3465JH,Driebruggen,Bodegraven-Reeuwijk,Zuid-Holland,VBO,4.796402,52.043327
Kerkweg,53,,,3465JH,Driebruggen,Bodegraven-Reeuwijk,Zuid-Holland,VBO,4.796314,52.043327
Kerkweg,55,,,3465JH,Driebruggen,Bodegraven-Reeuwijk,Zuid-Holland,VBO,4.796241,52.043317
Kerkweg,57,,,3465JH,Driebruggen,Bodegraven-Reeuwijk,Zuid-Holland,VBO,4.796154,52.043308
Kerkweg,59,,,3465JH,Driebruggen,Bodegraven-Reeuwijk,Zuid-Holland,VBO,4.796081,52.043299
Kerkweg,61,,,3465JH,Driebruggen,Bodegraven-Reeuwijk,Zuid-Holland,VBO,4.796008,52.043289
Kerkweg,63,,,3465JH,Driebruggen,Bodegraven-Reeuwijk,Zuid-Holland,VBO,4.795921,52.043271
Kerkweg,65,,,3465JH,Driebruggen,Bodegraven-Reeuwijk,Zuid-Holland,VBO,4.796020,52.043496
Kerkweg,2,,,3465JJ,Driebruggen,Bodegraven-Reeuwijk,Zuid-Holland,VBO,4.800388,52.044983
Kerkweg,4,,,3465JJ,Driebruggen,Bodegraven-Reeuwijk,Zuid-Holland,VBO,4.800206,52.044470
Kerkweg,6,,,3465JJ,Driebruggen,Bodegraven-Reeuwijk,Zuid-Holland,VBO,4.800032,52.044388
Kerkweg,8,,,3465JJ,Driebruggen,Bodegraven-Reeuwijk,Zuid-Holland,VBO,4.799872,52.044360
Kerkweg,10,,,3465JJ,Driebruggen,Bodegraven-Reeuwijk,Zuid-Holland,VBO,4.799668,52.044305
Kerkweg,12,,,3465JJ,Driebruggen,Bodegraven-Reeuwijk,Zuid-Holland,VBO,4.799479,52.044322
Kerkweg,14,a,,3465JJ,Driebruggen,Bodegraven-Reeuwijk,Zuid-Holland,VBO,4.799263,52.044288
Kerkweg,14,,,3465JJ,Driebruggen,Bodegraven-Reeuwijk,Zuid-Holland,VBO,4.799358,52.044302
Kerkweg,16,,,3465JJ,Driebruggen,Bodegraven-Reeuwijk,Zuid-Holland,VBO,4.799028,52.044266
Kerkweg,18,,,3465JJ,Driebruggen,Bodegraven-Reeuwijk,Zuid-Holland,VBO,4.798737,52.044211
Kerkweg,20,,,3465JJ,Driebruggen,Bodegraven-Reeuwijk,Zuid-Holland,VBO,4.798373,52.044164
Kerkweg,22,,,3465JJ,Driebruggen,Bodegraven-Reeuwijk,Zuid-Holland,VBO,4.798111,52.044154
Kerkweg,24,a,,3465JJ,Driebruggen,Bodegraven-Reeuwijk,Zuid-Holland,VBO,4.797864,52.044036
Kerkweg,24,,,3465JJ,Driebruggen,Bodegraven-Reeuwijk,Zuid-Holland,VBO,4.797981,52.044036
Kerkweg,28,a,,3465JJ,Driebruggen,Bodegraven-Reeuwijk,Zuid-Holland,VBO,4.797561,52.044049
Kerkweg,28,,,3465JJ,Driebruggen,Bodegraven-Reeuwijk,Zuid-Holland,VBO,4.797573,52.044007
Kerkweg,30,a,,3465JK,Driebruggen,Bodegraven-Reeuwijk,Zuid-Holland,VBO,4.797267,52.044034
Kerkweg,30,b,,3465JK,Driebruggen,Bodegraven-Reeuwijk,Zuid-Holland,VBO,4.797224,52.044105
Kerkweg,30,,,3465JK,Driebruggen,Bodegraven-Reeuwijk,Zuid-Holland,VBO,4.797312,52.043943
Kerkweg,32,,,3465JK,Driebruggen,Bodegraven-Reeuwijk,Zuid-Holland,VBO,4.797151,52.043951
Kerkweg,34,,,3465JK,Driebruggen,Bodegraven-Reeuwijk,Zuid-Holland,VBO,4.797079,52.043942
Kerkweg,36,,,3465JK,Driebruggen,Bodegraven-Reeuwijk,Zuid-Holland,VBO,4.796977,52.043932
Kerkweg,38,,,3465JK,Driebruggen,Bodegraven-Reeuwijk,Zuid-Holland,VBO,4.796919,52.043914
Kerkweg,40,,,3465JK,Driebruggen,Bodegraven-Reeuwijk,Zuid-Holland,VBO,4.796875,52.043905
Kerkweg,42,,,3465JK,Driebruggen,Bodegraven-Reeuwijk,Zuid-Holland,VBO,4.796744,52.043895
Kerkweg,44,a,,3465JK,Driebruggen,Bodegraven-Reeuwijk,Zuid-Holland,VBO,4.796453,52.043916
Kerkweg,44,,,3465JK,Driebruggen,Bodegraven-Reeuwijk,Zuid-Holland,VBO,4.796509,52.043883
Kerkweg,46,,,3465JK,Driebruggen,Bodegraven-Reeuwijk,Zuid-Holland,VBO,4.796194,52.043835
Kerkweg,48,a,,3465JK,Driebruggen,Bodegraven-Reeuwijk,Zuid-Holland,VBO,4.796145,52.043864
Kerkweg,48,,,3465JK,Driebruggen,Bodegraven-Reeuwijk,Zuid-Holland,VBO,4.796313,52.043884
Kerkweg,50,a,,3465JK,Driebruggen,Bodegraven-Reeuwijk,Zuid-Holland,VBO,4.796153,52.043887
Kerkweg,50,,,3465JK,Driebruggen,Bodegraven-Reeuwijk,Zuid-Holland,VBO,4.796320,52.043907
Kerkweg,52,,,3465JK,Driebruggen,Bodegraven-Reeuwijk,Zuid-Holland,VBO,4.795958,52.043774
Esdoornstraat,1,,,3465JL,Driebruggen,Bodegraven-Reeuwijk,Zuid-Holland,VBO,4.800126,52.043849
Esdoornstraat,3,,,3465JL,Driebruggen,Bodegraven-Reeuwijk,Zuid-Holland,VBO,4.800069,52.043795
Esdoornstraat,5,,,3465JL,Driebruggen,Bodegraven-Reeuwijk,Zuid-Holland,VBO,4.800084,52.043741
Esdoornstraat,7,,,3465JL,Driebruggen,Bodegraven-Reeuwijk,Zuid-Holland,VBO,4.800187,52.043688
Esdoornstraat,9,,,3465JL,Driebruggen,Bodegraven-Reeuwijk,Zuid-Holland,VBO,4.800260,52.043616
Esdoornstraat,11,,,3465JL,Driebruggen,Bodegraven-Reeuwijk,Zuid-Holland,VBO,4.800159,52.043571
Esdoornstraat,13,,,3465JL,Driebruggen,Bodegraven-Reeuwijk,Zuid-Holland,VBO,4.800174,52.043508
Esdoornstraat,15,,,3465JL,Driebruggen,Bodegraven-Reeuwijk,Zuid-Holland,VBO,4.800306,52.043500
Esdoornstraat,17,a,,3465JL,Driebruggen,Bodegraven-Reeuwijk,Zuid-Holland,VBO,4.800635,52.042836
Esdoornstraat,17,,,3465JL,Driebruggen,Bodegraven-Reeuwijk,Zuid-Holland,VBO,4.800793,52.043035
Esdoornstraat,19,,,3465JL,Driebruggen,Bodegraven-Reeuwijk,Zuid-Holland,VBO,4.801015,52.042739
Esdoornstraat,21,a,,3465JL,Driebruggen,Bodegraven-Reeuwijk,Zuid-Holland,VBO,4.801154,52.042889
Esdoornstraat,21,,,3465JL,Driebruggen,Bodegraven-Reeuwijk,Zuid-Holland,VBO,4.801246,52.042770
Esdoornstraat,23,,,3465JL,Driebruggen,Bodegraven-Reeuwijk,Zuid-Holland,VBO,4.801192,52.042623
Esdoornstraat,25,,,3465JL,Driebruggen,Bodegraven-Reeuwijk,Zuid-Holland,VBO,4.801547,52.042184
Esdoornstraat,27,,,3465JL,Driebruggen,Bodegraven-Reeuwijk,Zuid-Holland,VBO,4.801863,52.041431
Esdoornstraat,29,,,3465JL,Driebruggen,Bodegraven-Reeuwijk,Zuid-Holland,VBO,4.800958,52.041570
Esdoornstraat,31,,,3465JL,Driebruggen,Bodegraven-Reeuwijk,Zuid-Holland,VBO,4.800710,52.041533
Esdoornstraat,33,,,3465JL,Driebruggen,Bodegraven-Reeuwijk,Zuid-Holland,VBO,4.800536,52.041532
Esdoornstraat,35,,,3465JL,Driebruggen,Bodegraven-Reeuwijk,Zuid-Holland,VBO,4.800056,52.041581
Esdoornstraat,2,a,,3465JM,Driebruggen,Bodegraven-Reeuwijk,Zuid-Holland,VBO,4.799704,52.044041
Esdoornstraat,2,b,,3465JM,Driebruggen,Bodegraven-Reeuwijk,Zuid-Holland,VBO,4.799732,52.043984
Esdoornstraat,2,c,,3465JM,Driebruggen,Bodegraven-Reeuwijk,Zuid-Holland,VBO,4.799752,52.043945
Esdoornstraat,2,,,3465JM,Driebruggen,Bodegraven-Reeuwijk,Zuid-Holland,VBO,4.799676,52.043748
Esdoornstraat,4,,,3465JM,Driebruggen,Bodegraven-Reeuwijk,Zuid-Holland,VBO,4.799684,52.043691
Esdoornstraat,6,a,,3465JM,Driebruggen,Bodegraven-Reeuwijk,Zuid-Holland,VBO,4.799649,52.043586
Esdoornstraat,6,,,3465JM,Driebruggen,Bodegraven-Reeuwijk,Zuid-Holland,VBO,4.799619,52.043658
Esdoornstraat,8,,,3465JM,Driebruggen,Bodegraven-Reeuwijk,Zuid-Holland,VBO,4.799884,52.043435
Esdoornstraat,10,,,3465JM,Driebruggen,Bodegraven-Reeuwijk,Zuid-Holland,VBO,4.799899,52.043399
Esdoornstraat,12,,,3465JM,Driebruggen,Bodegraven-Reeuwijk,Zuid-Holland,VBO,4.799914,52.043345
Esdoornstraat,14,,,3465JM,Driebruggen,Bodegraven-Reeuwijk,Zuid-Holland,VBO,4.799944,52.043291
Esdoornstraat,16,,,3465JM,Driebruggen,Bodegraven-Reeuwijk,Zuid-Holland,VBO,4.799974,52.043237
Esdoornstraat,18,,,3465JM,Driebruggen,Bodegraven-Reeuwijk,Zuid-Holland,VBO,4.800269,52.042951
Esdoornstraat,20,,,3465JM,Driebruggen,Bodegraven-Reeuwijk,Zuid-Holland,VBO,4.800657,52.042297
Esdoornstraat,22,,,3465JM,Driebruggen,Bodegraven-Reeuwijk,Zuid-Holland,VBO,4.800638,52.042149
Esdoornstraat,24,,,3465JM,Driebruggen,Bodegraven-Reeuwijk,Zuid-Holland,VBO,4.800252,52.042062
Lindenlaan,1,a,,3465JN,Driebruggen,Bodegraven-Reeuwijk,Zuid-Holland,VBO,4.799477,52.043339
Lindenlaan,1,,,3465JN,Driebruggen,Bodegraven-Reeuwijk,Zuid-Holland,VBO,4.799447,52.043369
Lindenlaan,3,,,3465JN,Driebruggen,Bodegraven-Reeuwijk,Zuid-Holland,VBO,4.799493,52.043296
Lindenlaan,5,,,3465JN,Driebruggen,Bodegraven-Reeuwijk,Zuid-Holland,VBO,4.799504,52.043246
Lindenlaan,7,,,3465JN,Driebruggen,Bodegraven-Reeuwijk,Zuid-Holland,VBO,4.799522,52.043217
Lindenlaan,9,,,3465JN,Driebruggen,Bodegraven-Reeuwijk,Zuid-Holland,VBO,4.799538,52.043172
Lindenlaan,11,,,3465JN,Driebruggen,Bodegraven-Reeuwijk,Zuid-Holland,VBO,4.799246,52.043189
Lindenlaan,13,,,3465JN,Driebruggen,Bodegraven-Reeuwijk,Zuid-Holland,VBO,4.799202,52.043179
Lindenlaan,15,,,3465JN,Driebruggen,Bodegraven-Reeuwijk,Zuid-Holland,VBO,4.799144,52.043170
Lindenlaan,17,,,3465JN,Driebruggen,Bodegraven-Reeuwijk,Zuid-Holland,VBO,4.799100,52.043161
Lindenlaan,19,,,3465JN,Driebruggen,Bodegraven-Reeuwijk,Zuid-Holland,VBO,4.799042,52.043152
Lindenlaan,21,,,3465JN,Driebruggen,Bodegraven-Reeuwijk,Zuid-Holland,VBO,4.798984,52.043142
Lindenlaan,23,,,3465JN,Driebruggen,Bodegraven-Reeuwijk,Zuid-Holland,VBO,4.798926,52.043142
Lindenlaan,25,,,3465JN,Driebruggen,Bodegraven-Reeuwijk,Zuid-Holland,VBO,4.798868,52.043133
Lindenlaan,27,,,3465JN,Driebruggen,Bodegraven-Reeuwijk,Zuid-Holland,VBO,4.798824,52.043124
Lindenlaan,29,,,3465JN,Driebruggen,Bodegraven-Reeuwijk,Zuid-Holland,VBO,4.798780,52.043114
Lindenlaan,31,,,3465JN,Driebruggen,Bodegraven-Reeuwijk,Zuid-Holland,VBO,4.798722,52.043105
Lindenlaan,33,,,3465JN,Driebruggen,Bodegraven-Reeuwijk,Zuid-Holland,VBO,4.798678,52.043096
Lindenlaan,35,,,3465JN,Driebruggen,Bodegraven-Reeuwijk,Zuid-Holland,VBO,4.798359,52.042987
Lindenlaan,37,,,3465JN,Driebruggen,Bodegraven-Reeuwijk,Zuid-Holland,VBO,4.798402,52.043050
Lindenlaan,39,,,3465JN,Driebruggen,Bodegraven-Reeuwijk,Zuid-Holland,VBO,4.798387,52.043112
Lindenlaan,41,,,3465JN,Driebruggen,Bodegraven-Reeuwijk,Zuid-Holland,VBO,4.798372,52.043157
Lindenlaan,43,,,3465JN,Driebruggen,Bodegraven-Reeuwijk,Zuid-Holland,VBO,4.798269,52.043202
Lindenlaan,2,,,3465JP,Driebruggen,Bodegraven-Reeuwijk,Zuid-Holland,VBO,4.799459,52.043576
Lindenlaan,4,,,3465JP,Driebruggen,Bodegraven-Reeuwijk,Zuid-Holland,VBO,4.799313,52.043584
Lindenlaan,6,,,3465JP,Driebruggen,Bodegraven-Reeuwijk,Zuid-Holland,VBO,4.799226,52.043575
Lindenlaan,8,,,3465JP,Driebruggen,Bodegraven-Reeuwijk,Zuid-Holland,VBO,4.799153,52.043566
Lindenlaan,10,,,3465JP,Driebruggen,Bodegraven-Reeuwijk,Zuid-Holland,VBO,4.799066,52.043547
Lindenlaan,12,,,3465JP,Driebruggen,Bodegraven-Reeuwijk,Zuid-Holland,VBO,4.798964,52.043538
Lindenlaan,14,,,3465JP,Driebruggen,Bodegraven-Reeuwijk,Zuid-Holland,VBO,4.798891,52.043528
Lindenlaan,16,,,3465JP,Driebruggen,Bodegraven-Reeuwijk,Zuid-Holland,VBO,4.798804,52.043510
Lindenlaan,18,,,3465JP,Driebruggen,Bodegraven-Reeuwijk,Zuid-Holland,VBO,4.798732,52.043474
Lindenlaan,20,,,3465JP,Driebruggen,Bodegraven-Reeuwijk,Zuid-Holland,VBO,4.798557,52.043464
Lindenlaan,22,,,3465JP,Driebruggen,Bodegraven-Reeuwijk,Zuid-Holland,VBO,4.798455,52.043472
Lindenlaan,24,,,3465JP,Driebruggen,Bodegraven-Reeuwijk,Zuid-Holland,VBO,4.798368,52.043463
Lindenlaan,26,,,3465JP,Driebruggen,Bodegraven-Reeuwijk,Zuid-Holland,VBO,4.798280,52.043445
Lindenlaan,28,,,3465JP,Driebruggen,Bodegraven-Reeuwijk,Zuid-Holland,VBO,4.798193,52.043435
Lindenlaan,30,,,3465JP,Driebruggen,Bodegraven-Reeuwijk,Zuid-Holland,VBO,4.798121,52.043399
Lijsterbesstraat,1,,,3465JR,Driebruggen,Bodegraven-Reeuwijk,Zuid-Holland,VBO,4.797471,52.042883
Lijsterbesstraat,3,,,3465JR,Driebruggen,Bodegraven-Reeuwijk,Zuid-Holland,VBO,4.797399,52.042874
Lijsterbesstraat,5,,,3465JR,Driebruggen,Bodegraven-Reeuwijk,Zuid-Holland,VBO,4.797311,52.042864
Lijsterbesstraat,7,,,3465JR,Driebruggen,Bodegraven-Reeuwijk,Zuid-Holland,VBO,4.797224,52.042855
Lijsterbesstraat,9,,,3465JR,Driebruggen,Bodegraven-Reeuwijk,Zuid-Holland,VBO,4.797137,52.042837
Lijsterbesstraat,11,,,3465JR,Driebruggen,Bodegraven-Reeuwijk,Zuid-Holland,VBO,4.797049,52.042827
Lijsterbesstraat,13,,,3465JR,Driebruggen,Bodegraven-Reeuwijk,Zuid-Holland,VBO,4.796962,52.042809
Lijsterbesstraat,15,,,3465JR,Driebruggen,Bodegraven-Reeuwijk,Zuid-Holland,VBO,4.796860,52.042790
Lijsterbesstraat,17,,,3465JR,Driebruggen,Bodegraven-Reeuwijk,Zuid-Holland,VBO,4.796511,52.042744
Lijsterbesstraat,19,,,3465JR,Driebruggen,Bodegraven-Reeuwijk,Zuid-Holland,VBO,4.796409,52.042734
Lijsterbesstraat,21,,,3465JR,Driebruggen,Bodegraven-Reeuwijk,Zuid-Holland,VBO,4.796206,52.042697
Lijsterbesstraat,23,,,3465JR,Driebruggen,Bodegraven-Reeuwijk,Zuid-Holland,VBO,4.796118,52.042688
Lijsterbesstraat,2,,,3465JS,Driebruggen,Bodegraven-Reeuwijk,Zuid-Holland,VBO,4.797191,52.043133
Lijsterbesstraat,4,,,3465JS,Driebruggen,Bodegraven-Reeuwijk,Zuid-Holland,VBO,4.797075,52.043124
Lijsterbesstraat,6,,,3465JS,Driebruggen,Bodegraven-Reeuwijk,Zuid-Holland,VBO,4.797017,52.043106
Lijsterbesstraat,8,,,3465JS,Driebruggen,Bodegraven-Reeuwijk,Zuid-Holland,VBO,4.796915,52.043096
Lijsterbesstraat,10,,,3465JS,Driebruggen,Bodegraven-Reeuwijk,Zuid-Holland,VBO,4.796813,52.043078
Lijsterbesstraat,12,,,3465JS,Driebruggen,Bodegraven-Reeuwijk,Zuid-Holland,VBO,4.796740,52.043068
Lijsterbesstraat,14,,,3465JS,Driebruggen,Bodegraven-Reeuwijk,Zuid-Holland,VBO,4.796522,52.043058
Lijsterbesstraat,16,,,3465JS,Driebruggen,Bodegraven-Reeuwijk,Zuid-Holland,VBO,4.796405,52.043040
Lijsterbesstraat,18,,,3465JS,Driebruggen,Bodegraven-Reeuwijk,Zuid-Holland,VBO,4.796187,52.043003
Lijsterbesstraat,20,,,3465JS,Driebruggen,Bodegraven-Reeuwijk,Zuid-Holland,VBO,4.796085,52.042993
Sierkersstraat,1,,,3465JT,Driebruggen,Bodegraven-Reeuwijk,Zuid-Holland,VBO,4.797799,52.043451
Sierkersstraat,3,,,3465JT,Driebruggen,Bodegraven-Reeuwijk,Zuid-Holland,VBO,4.797815,52.043388
Sierkersstraat,5,,,3465JT,Driebruggen,Bodegraven-Reeuwijk,Zuid-Holland,VBO,4.797845,52.043334
Sierkersstraat,7,,,3465JT,Driebruggen,Bodegraven-Reeuwijk,Zuid-Holland,VBO,4.797920,52.043146
Sierkersstraat,9,,,3465JT,Driebruggen,Bodegraven-Reeuwijk,Zuid-Holland,VBO,4.797935,52.043083
Sierkersstraat,11,,,3465JT,Driebruggen,Bodegraven-Reeuwijk,Zuid-Holland,VBO,4.797951,52.043029
Sierkersstraat,13,,,3465JT,Driebruggen,Bodegraven-Reeuwijk,Zuid-Holland,VBO,4.797966,52.042985
Sierkersstraat,15,,,3465JT,Driebruggen,Bodegraven-Reeuwijk,Zuid-Holland,VBO,4.797995,52.042940
Sierkersstraat,2,,,3465JV,Driebruggen,Bodegraven-Reeuwijk,Zuid-Holland,VBO,4.797289,52.043449
Sierkersstraat,4,,,3465JV,Driebruggen,Bodegraven-Reeuwijk,Zuid-Holland,VBO,4.797304,52.043395
Sierkersstraat,6,,,3465JV,Driebruggen,Bodegraven-Reeuwijk,Zuid-Holland,VBO,4.797320,52.043323
Sierkersstraat,8,,,3465JV,Driebruggen,Bodegraven-Reeuwijk,Zuid-Holland,VBO,4.797335,52.043296
Sierkersstraat,10,,,3465JV,Driebruggen,Bodegraven-Reeuwijk,Zuid-Holland,VBO,4.797365,52.043215
Sierkersstraat,12,,,3465JV,Driebruggen,Bodegraven-Reeuwijk,Zuid-Holland,VBO,4.797395,52.043188
Sierkersstraat,14,,,3465JV,Driebruggen,Bodegraven-Reeuwijk,Zuid-Holland,VBO,4.797410,52.043135
W. Poolmanstraat,1,,,3465JW,Driebruggen,Bodegraven-Reeuwijk,Zuid-Holland,VBO,4.797348,52.044545
W. Poolmanstraat,3,,,3465JW,Driebruggen,Bodegraven-Reeuwijk,Zuid-Holland,VBO,4.797348,52.044491
W. Poolmanstraat,5,,,3465JW,Driebruggen,Bodegraven-Reeuwijk,Zuid-Holland,VBO,4.797349,52.044456
W. Poolmanstraat,7,,,3465JW,Driebruggen,Bodegraven-Reeuwijk,Zuid-Holland,VBO,4.797349,52.044411
W. Poolmanstraat,9,,,3465JW,Driebruggen,Bodegraven-Reeuwijk,Zuid-Holland,VBO,4.797350,52.044357
W. Poolmanstraat,11,,,3465JW,Driebruggen,Bodegraven-Reeuwijk,Zuid-Holland,VBO,4.797365,52.044303
W. Poolmanstraat,2,,,3465JX,Driebruggen,Bodegraven-Reeuwijk,Zuid-Holland,VBO,4.797100,52.044517
W. Poolmanstraat,4,,,3465JX,Driebruggen,Bodegraven-Reeuwijk,Zuid-Holland,VBO,4.797115,52.044463
W. Poolmanstraat,6,,,3465JX,Driebruggen,Bodegraven-Reeuwijk,Zuid-Holland,VBO,4.797058,52.044400
W. Poolmanstraat,8,,,3465JX,Driebruggen,Bodegraven-Reeuwijk,Zuid-Holland,VBO,4.797117,52.044355
W. Poolmanstraat,10,,,3465JX,Driebruggen,Bodegraven-Reeuwijk,Zuid-Holland,VBO,4.797132,52.044311
W. Poolmanstraat,12,,,3465JX,Driebruggen,Bodegraven-Reeuwijk,Zuid-Holland,VBO,4.797118,52.044248
Schoolstraat,1,,,3465KA,Driebruggen,Bodegraven-Reeuwijk,Zuid-Holland,VBO,4.798090,52.044603
Schoolstraat,3,,,3465KA,Driebruggen,Bodegraven-Reeuwijk,Zuid-Holland,VBO,4.798091,52.044549
Schoolstraat,5,,,3465KA,Driebruggen,Bodegraven-Reeuwijk,Zuid-Holland,VBO,4.798092,52.044486
Schoolstraat,7,,,3465KA,Driebruggen,Bodegraven-Reeuwijk,Zuid-Holland,VBO,4.798078,52.044432
Schoolstraat,9,,,3465KA,Driebruggen,Bodegraven-Reeuwijk,Zuid-Holland,VBO,4.798093,52.044387
Schoolstraat,11,,,3465KA,Driebruggen,Bodegraven-Reeuwijk,Zuid-Holland,VBO,4.798094,52.044342
Schoolstraat,2,,,3465KB,Driebruggen,Bodegraven-Reeuwijk,Zuid-Holland,VBO,4.797828,52.044602
Schoolstraat,4,,,3465KB,Driebruggen,Bodegraven-Reeuwijk,Zuid-Holland,VBO,4.797828,52.044557
Schoolstraat,6,,,3465KB,Driebruggen,Bodegraven-Reeuwijk,Zuid-Holland,VBO,4.797829,52.044494
Schoolstraat,8,,,3465KB,Driebruggen,Bodegraven-Reeuwijk,Zuid-Holland,VBO,4.797845,52.044440
Schoolstraat,10,,,3465KB,Driebruggen,Bodegraven-Reeuwijk,Zuid-Holland,VBO,4.797772,52.044377
Schoolstraat,12,,,3465KB,Driebruggen,Bodegraven-Reeuwijk,Zuid-Holland,VBO,4.797788,52.044323
Burgemeester P. Feitsmalaan,1,,,3465KC,Driebruggen,Bodegraven-Reeuwijk,Zuid-Holland,VBO,4.796576,52.044470
Burgemeester P. Feitsmalaan,2,,,3465KC,Driebruggen,Bodegraven-Reeuwijk,Zuid-Holland,VBO,4.796708,52.044416
Burgemeester P. Feitsmalaan,3,,,3465KC,Driebruggen,Bodegraven-Reeuwijk,Zuid-Holland,VBO,4.796563,52.044362
Burgemeester P. Feitsmalaan,4,,,3465KC,Driebruggen,Bodegraven-Reeuwijk,Zuid-Holland,VBO,4.796593,52.044308
Burgemeester P. Feitsmalaan,5,,,3465KC,Driebruggen,Bodegraven-Reeuwijk,Zuid-Holland,VBO,4.796652,52.044245
Burgemeester P. Feitsmalaan,6,,,3465KC,Driebruggen,Bodegraven-Reeuwijk,Zuid-Holland,VBO,4.796623,52.044209
Burgemeester P. Feitsmalaan,7,,,3465KC,Driebruggen,Bodegraven-Reeuwijk,Zuid-Holland,VBO,4.796638,52.044155
Burgemeester Doormanstraat,3,,,3465KD,Driebruggen,Bodegraven-Reeuwijk,Zuid-Holland,VBO,4.800041,52.044757
Burgemeester Doormanstraat,5,,,3465KD,Driebruggen,Bodegraven-Reeuwijk,Zuid-Holland,VBO,4.799997,52.044828
Burgemeester Doormanstraat,7,,,3465KD,Driebruggen,Bodegraven-Reeuwijk,Zuid-Holland,VBO,4.799936,52.045008
Burgemeester Doormanstraat,9,,,3465KD,Driebruggen,Bodegraven-Reeuwijk,Zuid-Holland,VBO,4.799863,52.044998
Burgemeester Doormanstraat,11,,,3465KD,Driebruggen,Bodegraven-Reeuwijk,Zuid-Holland,VBO,4.799776,52.044989
Burgemeester Doormanstraat,13,,,3465KD,Driebruggen,Bodegraven-Reeuwijk,Zuid-Holland,VBO,4.799703,52.044980
Burgemeester Doormanstraat,15,,,3465KD,Driebruggen,Bodegraven-Reeuwijk,Zuid-Holland,VBO,4.799587,52.044952
Burgemeester Doormanstraat,17,,,3465KD,Driebruggen,Bodegraven-Reeuwijk,Zuid-Holland,VBO,4.799485,52.044943
Burgemeester Doormanstraat,19,,,3465KD,Driebruggen,Bodegraven-Reeuwijk,Zuid-Holland,VBO,4.799398,52.044933
Burgemeester Doormanstraat,25,,,3465KD,Driebruggen,Bodegraven-Reeuwijk,Zuid-Holland,VBO,4.798919,52.044760
Burgemeester Doormanstraat,27,,,3465KD,Driebruggen,Bodegraven-Reeuwijk,Zuid-Holland,VBO,4.798512,52.044686
Burgemeester Doormanstraat,29,,,3465KD,Driebruggen,Bodegraven-Reeuwijk,Zuid-Holland,VBO,4.798381,52.044649
Burgemeester Doormanstraat,31,,,3465KD,Driebruggen,Bodegraven-Reeuwijk,Zuid-Holland,VBO,4.796299,52.044459
Burgemeester Doormanstraat,33,,,3465KD,Driebruggen,Bodegraven-Reeuwijk,Zuid-Holland,VBO,4.796226,52.044450
Burgemeester Doormanstraat,35,,,3465KD,Driebruggen,Bodegraven-Reeuwijk,Zuid-Holland,VBO,4.796081,52.044422
Burgemeester Doormanstraat,37,,,3465KD,Driebruggen,Bodegraven-Reeuwijk,Zuid-Holland,VBO,4.795935,52.044439
Burgemeester Doormanstraat,39,,,3465KD,Driebruggen,Bodegraven-Reeuwijk,Zuid-Holland,VBO,4.795862,52.044430
Burgemeester Doormanstraat,4,,,3465KE,Driebruggen,Bodegraven-Reeuwijk,Zuid-Holland,VBO,4.799890,52.045214
Burgemeester Doormanstraat,6,,,3465KE,Driebruggen,Bodegraven-Reeuwijk,Zuid-Holland,VBO,4.799817,52.045205
Burgemeester Doormanstraat,8,,,3465KE,Driebruggen,Bodegraven-Reeuwijk,Zuid-Holland,VBO,4.799715,52.045186
Burgemeester Doormanstraat,10,,,3465KE,Driebruggen,Bodegraven-Reeuwijk,Zuid-Holland,VBO,4.799643,52.045168
Burgemeester Doormanstraat,12,,,3465KE,Driebruggen,Bodegraven-Reeuwijk,Zuid-Holland,VBO,4.799541,52.045159
Burgemeester Doormanstraat,14,,,3465KE,Driebruggen,Bodegraven-Reeuwijk,Zuid-Holland,VBO,4.799468,52.045149
Burgemeester Doormanstraat,16,,,3465KE,Driebruggen,Bodegraven-Reeuwijk,Zuid-Holland,VBO,4.799380,52.045140
Burgemeester Doormanstraat,18,,,3465KE,Driebruggen,Bodegraven-Reeuwijk,Zuid-Holland,VBO,4.799293,52.045121
Burgemeester Doormanstraat,20,,,3465KE,Driebruggen,Bodegraven-Reeuwijk,Zuid-Holland,VBO,4.799206,52.045112
Burgemeester Doormanstraat,22,,,3465KE,Driebruggen,Bodegraven-Reeuwijk,Zuid-Holland,VBO,4.799119,52.045103
Burgemeester Doormanstraat,24,,,3465KE,Driebruggen,Bodegraven-Reeuwijk,Zuid-Holland,VBO,4.799046,52.045084
Burgemeester Doormanstraat,26,,,3465KE,Driebruggen,Bodegraven-Reeuwijk,Zuid-Holland,VBO,4.798522,52.045001
Burgemeester Doormanstraat,28,,,3465KE,Driebruggen,Bodegraven-Reeuwijk,Zuid-Holland,VBO,4.798042,52.044917
Burgemeester Doormanstraat,30,a,,3465KE,Driebruggen,Bodegraven-Reeuwijk,Zuid-Holland,VBO,4.797781,52.044853
Burgemeester Doormanstraat,30,b,,3465KE,Driebruggen,Bodegraven-Reeuwijk,Zuid-Holland,VBO,4.797737,52.044844
Burgemeester Doormanstraat,30,c,,3465KE,Driebruggen,Bodegraven-Reeuwijk,Zuid-Holland,VBO,4.797577,52.044807
Burgemeester Doormanstraat,30,d,,3465KE,Driebruggen,Bodegraven-Reeuwijk,Zuid-Holland,VBO,4.797534,52.044798
Burgemeester Doormanstraat,30,e,,3465KE,Driebruggen,Bodegraven-Reeuwijk,Zuid-Holland,VBO,4.797374,52.044779
Burgemeester Doormanstraat,30,f,,3465KE,Driebruggen,Bodegraven-Reeuwijk,Zuid-Holland,VBO,4.797242,52.044806
Burgemeester Doormanstraat,32,,,3465KE,Driebruggen,Bodegraven-Reeuwijk,Zuid-Holland,VBO,4.796864,52.044723
Burgemeester Doormanstraat,34,,,3465KE,Driebruggen,Bodegraven-Reeuwijk,Zuid-Holland,VBO,4.796704,52.044713
Burgemeester Doormanstraat,36,,,3465KE,Driebruggen,Bodegraven-Reeuwijk,Zuid-Holland,VBO,4.796573,52.044703
Burgemeester Doormanstraat,38,,,3465KE,Driebruggen,Bodegraven-Reeuwijk,Zuid-Holland,VBO,4.796427,52.044685
Burgemeester Doormanstraat,40,,,3465KE,Driebruggen,Bodegraven-Reeuwijk,Zuid-Holland,VBO,4.796355,52.044675
Burgemeester Doormanstraat,44,,,3465KE,Driebruggen,Bodegraven-Reeuwijk,Zuid-Holland,VBO,4.796073,52.044802
Burgemeester Doormanstraat,46,,,3465KE,Driebruggen,Bodegraven-Reeuwijk,Zuid-Holland,VBO,4.795860,52.044619
Burgemeester Doormanstraat,48,,,3465KE,Driebruggen,Bodegraven-Reeuwijk,Zuid-Holland,VBO,4.795787,52.044609
Laageind,1,,,3465KG,Driebruggen,Bodegraven-Reeuwijk,Zuid-Holland,VBO,4.795230,52.043726
Laageind,3,,,3465KG,Driebruggen,Bodegraven-Reeuwijk,Zuid-Holland,VBO,4.795179,52.044310
Laageind,5,,,3465KG,Driebruggen,Bodegraven-Reeuwijk,Zuid-Holland,VBO,4.795159,52.044549
Laageind,7,,,3465KG,Driebruggen,Bodegraven-Reeuwijk,Zuid-Holland,VBO,4.795124,52.045490
Laageind,9,,,3465KG,Driebruggen,Bodegraven-Reeuwijk,Zuid-Holland,VBO,4.795189,52.045748
Laageind,11,a,,3465KG,Driebruggen,Bodegraven-Reeuwijk,Zuid-Holland,VBO,4.794575,52.046762
Laageind,11,,,3465KG,Driebruggen,Bodegraven-Reeuwijk,Zuid-Holland,VBO,4.794786,52.046474
Laageind,13,,,3465KG,Driebruggen,Bodegraven-Reeuwijk,Zuid-Holland,VBO,4.794850,52.047086
Laageind,15,,,3465KG,Driebruggen,Bodegraven-Reeuwijk,Zuid-Holland,VBO,4.794640,52.047543
Laageind,17,,,3465KG,Driebruggen,Bodegraven-Reeuwijk,Zuid-Holland,VBO,4.794439,52.048277
Laageind,19,,,3465KG,Driebruggen,Bodegraven-Reeuwijk,Zuid-Holland,VBO,4.794367,52.048377
Laageind,21,,,3465KG,Driebruggen,Bodegraven-Reeuwijk,Zuid-Holland,VBO,4.794402,52.049061
Laageind,23,,,3465KG,Driebruggen,Bodegraven-Reeuwijk,Zuid-Holland,VBO,4.794514,52.049358
Laageind,25,,,3465KG,Driebruggen,Bodegraven-Reeuwijk,Zuid-Holland,VBO,4.794424,52.049591
Laageind,27,,,3465KG,Driebruggen,Bodegraven-Reeuwijk,Zuid-Holland,VBO,4.794448,52.049969
Laageind,29,,,3465KG,Driebruggen,Bodegraven-Reeuwijk,Zuid-Holland,VBO,4.794173,52.050875
Laageind,31,,,3465KG,Driebruggen,Bodegraven-Reeuwijk,Zuid-Holland,VBO,4.794058,52.051881
Laageind,33,,,3465KH,Driebruggen,Bodegraven-Reeuwijk,Zuid-Holland,VBO,4.794026,52.052376
Laageind,35,,,3465KH,Driebruggen,Bodegraven-Reeuwijk,Zuid-Holland,VBO,4.793928,52.052869
Laageind,37,,,3465KH,Driebruggen,Bodegraven-Reeuwijk,Zuid-Holland,VBO,4.793925,52.053148
Laageind,39,,,3465KH,Driebruggen,Bodegraven-Reeuwijk,Zuid-Holland,VBO,4.793730,52.053534
Laageind,41,,,3465KH,Driebruggen,Bodegraven-Reeuwijk,Zuid-Holland,VBO,4.793443,52.055402
Laageind,43,,,3465KH,Driebruggen,Bodegraven-Reeuwijk,Zuid-Holland,VBO,4.793266,52.055545
Laageind,45,,,3465KH,Driebruggen,Bodegraven-Reeuwijk,Zuid-Holland,VBO,4.793346,52.057181
Laageind,47,,,3465KH,Driebruggen,Bodegraven-Reeuwijk,Zuid-Holland,VBO,4.793172,52.058223
Laageind,49,,,3465KH,Driebruggen,Bodegraven-Reeuwijk,Zuid-Holland,VBO,4.793124,52.058444
Laageind,51,,,3465KH,Driebruggen,Bodegraven-Reeuwijk,Zuid-Holland,VBO,4.793071,52.059059
Laageind,53,,,3465KH,Driebruggen,Bodegraven-Reeuwijk,Zuid-Holland,VBO,4.792876,52.059668
Laageind,55,a,,3465KH,Driebruggen,Bodegraven-Reeuwijk,Zuid-Holland,VBO,4.792491,52.061158
Laageind,55,,,3465KH,Driebruggen,Bodegraven-Reeuwijk,Zuid-Holland,VBO,4.792683,52.059937
Laageind,57,a,,3465KH,Driebruggen,Bodegraven-Reeuwijk,Zuid-Holland,VBO,4.792447,52.062336
Laageind,57,,,3465KH,Driebruggen,Bodegraven-Reeuwijk,Zuid-Holland,VBO,4.792600,52.061797
Laageind,59,,,3465KH,Driebruggen,Bodegraven-Reeuwijk,Zuid-Holland,VBO,4.792443,52.062614
Laageind,61,,,3465KH,Driebruggen,Bodegraven-Reeuwijk,Zuid-Holland,VBO,4.792318,52.062926
Laageind,63,,,3465KH,Driebruggen,Bodegraven-Reeuwijk,Zuid-Holland,VBO,4.792118,52.063997
Laageind,2,,,3465KJ,Driebruggen,Bodegraven-Reeuwijk,Zuid-Holland,VBO,4.795997,52.044161
Laageind,8,,,3465KJ,Driebruggen,Bodegraven-Reeuwijk,Zuid-Holland,VBO,4.795169,52.049433
Laageind,12,,,3465KJ,Driebruggen,Bodegraven-Reeuwijk,Zuid-Holland,VBO,4.794493,52.055330
Laageind,14,,,3465KJ,Driebruggen,Bodegraven-Reeuwijk,Zuid-Holland,VBO,4.794104,52.056133
Laageind,16,,,3465KJ,Driebruggen,Bodegraven-Reeuwijk,Zuid-Holland,VBO,4.793609,52.059357
Laageind,18,,,3465KJ,Driebruggen,Bodegraven-Reeuwijk,Zuid-Holland,VBO,4.793380,52.061212
Laageind,20,,,3465KJ,Driebruggen,Bodegraven-Reeuwijk,Zuid-Holland,VBO,4.793289,52.061495
Laageind,22,,,3465KJ,Driebruggen,Bodegraven-Reeuwijk,Zuid-Holland,VBO,4.793212,52.061782
Gruttolaan,5,,,3465KK,Driebruggen,Bodegraven-Reeuwijk,Zuid-Holland,VBO,4.804203,52.045362
Gruttolaan,7,,,3465KK,Driebruggen,Bodegraven-Reeuwijk,Zuid-Holland,VBO,4.804115,52.045397
Gruttolaan,9,,,3465KK,Driebruggen,Bodegraven-Reeuwijk,Zuid-Holland,VBO,4.804070,52.045451
Gruttolaan,11,,,3465KK,Driebruggen,Bodegraven-Reeuwijk,Zuid-Holland,VBO,4.803866,52.045468
Gruttolaan,13,,,3465KK,Driebruggen,Bodegraven-Reeuwijk,Zuid-Holland,VBO,4.803779,52.045458
Gruttolaan,15,,,3465KK,Driebruggen,Bodegraven-Reeuwijk,Zuid-Holland,VBO,4.803676,52.045467
Gruttolaan,17,,,3465KK,Driebruggen,Bodegraven-Reeuwijk,Zuid-Holland,VBO,4.803589,52.045466
Gruttolaan,19,,,3465KK,Driebruggen,Bodegraven-Reeuwijk,Zuid-Holland,VBO,4.803501,52.045475
Gruttolaan,21,,,3465KK,Driebruggen,Bodegraven-Reeuwijk,Zuid-Holland,VBO,4.803385,52.045429
Gruttolaan,23,,,3465KK,Driebruggen,Bodegraven-Reeuwijk,Zuid-Holland,VBO,4.803269,52.045420
Gruttolaan,25,,,3465KK,Driebruggen,Bodegraven-Reeuwijk,Zuid-Holland,VBO,4.803181,52.045428
Gruttolaan,27,,,3465KK,Driebruggen,Bodegraven-Reeuwijk,Zuid-Holland,VBO,4.803049,52.045518
Gruttolaan,29,,,3465KK,Driebruggen,Bodegraven-Reeuwijk,Zuid-Holland,VBO,4.802961,52.045526
Gruttolaan,31,,,3465KK,Driebruggen,Bodegraven-Reeuwijk,Zuid-Holland,VBO,4.802874,52.045526
Gruttolaan,33,,,3465KK,Driebruggen,Bodegraven-Reeuwijk,Zuid-Holland,VBO,4.802786,52.045534
Gruttolaan,35,a,,3465KK,Driebruggen,Bodegraven-Reeuwijk,Zuid-Holland,VBO,4.802641,52.045534
Gruttolaan,35,,,3465KK,Driebruggen,Bodegraven-Reeuwijk,Zuid-Holland,VBO,4.802713,52.045534
Gruttolaan,37,,,3465KL,Driebruggen,Bodegraven-Reeuwijk,Zuid-Holland,VBO,4.802697,52.045660
Gruttolaan,39,,,3465KL,Driebruggen,Bodegraven-Reeuwijk,Zuid-Holland,VBO,4.802711,52.045723
Gruttolaan,41,,,3465KL,Driebruggen,Bodegraven-Reeuwijk,Zuid-Holland,VBO,4.802710,52.045777
Gruttolaan,43,,,3465KL,Driebruggen,Bodegraven-Reeuwijk,Zuid-Holland,VBO,4.802710,52.045830
Gruttolaan,45,,,3465KL,Driebruggen,Bodegraven-Reeuwijk,Zuid-Holland,VBO,4.802767,52.045903
Gruttolaan,47,,,3465KL,Driebruggen,Bodegraven-Reeuwijk,Zuid-Holland,VBO,4.802781,52.045957
Gruttolaan,49,,,3465KL,Driebruggen,Bodegraven-Reeuwijk,Zuid-Holland,VBO,4.802780,52.046002
Gruttolaan,51,,,3465KL,Driebruggen,Bodegraven-Reeuwijk,Zuid-Holland,VBO,4.802794,52.046056
Gruttolaan,53,,,3465KL,Driebruggen,Bodegraven-Reeuwijk,Zuid-Holland,VBO,4.802794,52.046101
Gruttolaan,55,,,3465KL,Driebruggen,Bodegraven-Reeuwijk,Zuid-Holland,VBO,4.802807,52.046155
Gruttolaan,2,,,3465KM,Driebruggen,Bodegraven-Reeuwijk,Zuid-Holland,VBO,4.804504,52.045750
Gruttolaan,4,,,3465KM,Driebruggen,Bodegraven-Reeuwijk,Zuid-Holland,VBO,4.804446,52.045713
Gruttolaan,6,,,3465KM,Driebruggen,Bodegraven-Reeuwijk,Zuid-Holland,VBO,4.804388,52.045677
Gruttolaan,8,,,3465KM,Driebruggen,Bodegraven-Reeuwijk,Zuid-Holland,VBO,4.804316,52.045641
Gruttolaan,12,,,3465KM,Driebruggen,Bodegraven-Reeuwijk,Zuid-Holland,VBO,4.804052,52.045693
Gruttolaan,14,,,3465KM,Driebruggen,Bodegraven-Reeuwijk,Zuid-Holland,VBO,4.803980,52.045693
Gruttolaan,16,,,3465KM,Driebruggen,Bodegraven-Reeuwijk,Zuid-Holland,VBO,4.803892,52.045702
Gruttolaan,18,,,3465KM,Driebruggen,Bodegraven-Reeuwijk,Zuid-Holland,VBO,4.803790,52.045701
Gruttolaan,20,,,3465KM,Driebruggen,Bodegraven-Reeuwijk,Zuid-Holland,VBO,4.803717,52.045701
Gruttolaan,22,,,3465KM,Driebruggen,Bodegraven-Reeuwijk,Zuid-Holland,VBO,4.803615,52.045709
Gruttolaan,24,,,3465KM,Driebruggen,Bodegraven-Reeuwijk,Zuid-Holland,VBO,4.803528,52.045709
Gruttolaan,26,,,3465KM,Driebruggen,Bodegraven-Reeuwijk,Zuid-Holland,VBO,4.803149,52.045698
Gruttolaan,28,,,3465KM,Driebruggen,Bodegraven-Reeuwijk,Zuid-Holland,VBO,4.803162,52.045761
Gruttolaan,30,,,3465KM,Driebruggen,Bodegraven-Reeuwijk,Zuid-Holland,VBO,4.803176,52.045815
Gruttolaan,32,,,3465KM,Driebruggen,Bodegraven-Reeuwijk,Zuid-Holland,VBO,4.803073,52.045895
Gruttolaan,34,,,3465KM,Driebruggen,Bodegraven-Reeuwijk,Zuid-Holland,VBO,4.803087,52.045958
Gruttolaan,36,,,3465KM,Driebruggen,Bodegraven-Reeuwijk,Zuid-Holland,VBO,4.803101,52.046021
Gruttolaan,38,,,3465KM,Driebruggen,Bodegraven-Reeuwijk,Zuid-Holland,VBO,4.803115,52.046075
Gruttolaan,40,,,3465KN,Driebruggen,Bodegraven-Reeuwijk,Zuid-Holland,VBO,4.803436,52.045996
Gruttolaan,42,,,3465KN,Driebruggen,Bodegraven-Reeuwijk,Zuid-Holland,VBO,4.803466,52.045978
Gruttolaan,44,,,3465KN,Driebruggen,Bodegraven-Reeuwijk,Zuid-Holland,VBO,4.803568,52.045979
Gruttolaan,46,,,3465KN,Driebruggen,Bodegraven-Reeuwijk,Zuid-Holland,VBO,4.803612,52.045970
Gruttolaan,48,,,3465KN,Driebruggen,Bodegraven-Reeuwijk,Zuid-Holland,VBO,4.803709,52.045973
Gruttolaan,50,,,3465KN,Driebruggen,Bodegraven-Reeuwijk,Zuid-Holland,VBO,4.803801,52.045971
Gruttolaan,52,,,3465KN,Driebruggen,Bodegraven-Reeuwijk,Zuid-Holland,VBO,4.803889,52.045971
Gruttolaan,54,,,3465KN,Driebruggen,Bodegraven-Reeuwijk,Zuid-Holland,VBO,4.803932,52.045953
Gruttolaan,56,,,3465KN,Driebruggen,Bodegraven-Reeuwijk,Zuid-Holland,VBO,4.804034,52.045981
Gruttolaan,58,,,3465KN,Driebruggen,Bodegraven-Reeuwijk,Zuid-Holland,VBO,4.804165,52.045982
Gruttolaan,60,,,3465KN,Driebruggen,Bodegraven-Reeuwijk,Zuid-Holland,VBO,4.804209,52.045982
Gruttolaan,62,,,3465KN,Driebruggen,Bodegraven-Reeuwijk,Zuid-Holland,VBO,4.804297,52.045982
Gruttolaan,64,,,3465KN,Driebruggen,Bodegraven-Reeuwijk,Zuid-Holland,VBO,4.804384,52.045983
Gruttolaan,66,,,3465KN,Driebruggen,Bodegraven-Reeuwijk,Zuid-Holland,VBO,4.804457,52.045983
Kievitlaan,2,,,3465KP,Driebruggen,Bodegraven-Reeuwijk,Zuid-Holland,VBO,4.805278,52.045645
Kievitlaan,4,,,3465KP,Driebruggen,Bodegraven-Reeuwijk,Zuid-Holland,VBO,4.805145,52.045735
Kievitlaan,6,,,3465KP,Driebruggen,Bodegraven-Reeuwijk,Zuid-Holland,VBO,4.805042,52.045806
Kievitlaan,8,,,3465KP,Driebruggen,Bodegraven-Reeuwijk,Zuid-Holland,VBO,4.804924,52.045895
Kievitlaan,10,,,3465KP,Driebruggen,Bodegraven-Reeuwijk,Zuid-Holland,VBO,4.804821,52.045976
Burgemeester Brinkmanhof,1,,,3465KR,Driebruggen,Bodegraven-Reeuwijk,Zuid-Holland,VBO,4.799459,52.044727
Burgemeester Brinkmanhof,2,,,3465KR,Driebruggen,Bodegraven-Reeuwijk,Zuid-Holland,VBO,4.798601,52.044525
Burgemeester Brinkmanhof,3,,,3465KR,Driebruggen,Bodegraven-Reeuwijk,Zuid-Holland,VBO,4.799489,52.044655
Burgemeester Brinkmanhof,5,,,3465KR,Driebruggen,Bodegraven-Reeuwijk,Zuid-Holland,VBO,4.799271,52.044609
Burgemeester Brinkmanhof,7,,,3465KR,Driebruggen,Bodegraven-Reeuwijk,Zuid-Holland,VBO,4.799198,52.044573
Burgemeester Brinkmanhof,9,,,3465KR,Driebruggen,Bodegraven-Reeuwijk,Zuid-Holland,VBO,4.799111,52.044581
Burgemeester Brinkmanhof,11,,,3465KR,Driebruggen,Bodegraven-Reeuwijk,Zuid-Holland,VBO,4.799009,52.044563
Burgemeester Brinkmanhof,13,,,3465KR,Driebruggen,Bodegraven-Reeuwijk,Zuid-Holland,VBO,4.798835,52.044535
Burgemeester Prinsenstraat,2,,,3465KS,Driebruggen,Bodegraven-Reeuwijk,Zuid-Holland,VBO,4.799455,52.045560
Burgemeester Prinsenstraat,4,,,3465KS,Driebruggen,Bodegraven-Reeuwijk,Zuid-Holland,VBO,4.799388,52.045539
Burgemeester Prinsenstraat,6,,,3465KS,Driebruggen,Bodegraven-Reeuwijk,Zuid-Holland,VBO,4.799322,52.045513
Burgemeester Prinsenstraat,8,,,3465KS,Driebruggen,Bodegraven-Reeuwijk,Zuid-Holland,VBO,4.799251,52.045496
Burgemeester Prinsenstraat,10,,,3465KS,Driebruggen,Bodegraven-Reeuwijk,Zuid-Holland,VBO,4.799179,52.045477
Burgemeester Prinsenstraat,12,,,3465KS,Driebruggen,Bodegraven-Reeuwijk,Zuid-Holland,VBO,4.799114,52.045459
Burgemeester  Groenenbergstraat,1,,,3465KT,Driebruggen,Bodegraven-Reeuwijk,Zuid-Holland,VBO,4.799389,52.045792
Burgemeester  Groenenbergstraat,2,,,3465KT,Driebruggen,Bodegraven-Reeuwijk,Zuid-Holland,VBO,4.799326,52.045981
Burgemeester  Groenenbergstraat,3,,,3465KT,Driebruggen,Bodegraven-Reeuwijk,Zuid-Holland,VBO,4.799317,52.045782
Burgemeester  Groenenbergstraat,4,,,3465KT,Driebruggen,Bodegraven-Reeuwijk,Zuid-Holland,VBO,4.799253,52.045971
Burgemeester  Groenenbergstraat,5,,,3465KT,Driebruggen,Bodegraven-Reeuwijk,Zuid-Holland,VBO,4.799244,52.045773
Burgemeester  Groenenbergstraat,6,,,3465KT,Driebruggen,Bodegraven-Reeuwijk,Zuid-Holland,VBO,4.799180,52.045962
Burgemeester  Groenenbergstraat,7,,,3465KT,Driebruggen,Bodegraven-Reeuwijk,Zuid-Holland,VBO,4.799171,52.045764
Burgemeester  Groenenbergstraat,8,,,3465KT,Driebruggen,Bodegraven-Reeuwijk,Zuid-Holland,VBO,4.799107,52.045953
Burgemeester  Groenenbergstraat,9,,,3465KT,Driebruggen,Bodegraven-Reeuwijk,Zuid-Holland,VBO,4.799098,52.045754
Burgemeester  Groenenbergstraat,10,,,3465KT,Driebruggen,Bodegraven-Reeuwijk,Zuid-Holland,VBO,4.799035,52.045943
Burgemeester  Groenenbergstraat,11,,,3465KT,Driebruggen,Bodegraven-Reeuwijk,Zuid-Holland,VBO,4.799026,52.045745
Burgemeester  Groenenbergstraat,12,,,3465KT,Driebruggen,Bodegraven-Reeuwijk,Zuid-Holland,VBO,4.798962,52.045934
J.H. Kielastraat,1,,,3465KV,Driebruggen,Bodegraven-Reeuwijk,Zuid-Holland,VBO,4.799709,52.045539
J.H. Kielastraat,2,,,3465KV,Driebruggen,Bodegraven-Reeuwijk,Zuid-Holland,VBO,4.800071,52.045464
J.H. Kielastraat,3,,,3465KV,Driebruggen,Bodegraven-Reeuwijk,Zuid-Holland,VBO,4.799687,52.045593
J.H. Kielastraat,4,,,3465KV,Driebruggen,Bodegraven-Reeuwijk,Zuid-Holland,VBO,4.800047,52.045512
J.H. Kielastraat,5,,,3465KV,Driebruggen,Bodegraven-Reeuwijk,Zuid-Holland,VBO,4.799670,52.045653
J.H. Kielastraat,6,,,3465KV,Driebruggen,Bodegraven-Reeuwijk,Zuid-Holland,VBO,4.800031,52.045562
J.H. Kielastraat,7,,,3465KV,Driebruggen,Bodegraven-Reeuwijk,Zuid-Holland,VBO,4.799656,52.045702
J.H. Kielastraat,8,,,3465KV,Driebruggen,Bodegraven-Reeuwijk,Zuid-Holland,VBO,4.800013,52.045610
J.H. Kielastraat,9,,,3465KV,Driebruggen,Bodegraven-Reeuwijk,Zuid-Holland,VBO,4.799641,52.045756
J.H. Kielastraat,10,,,3465KV,Driebruggen,Bodegraven-Reeuwijk,Zuid-Holland,VBO,4.799299,52.046512
J.H. Kielastraat,11,,,3465KV,Driebruggen,Bodegraven-Reeuwijk,Zuid-Holland,VBO,4.799626,52.045810
J.H. Kielastraat,12,,,3465KV,Driebruggen,Bodegraven-Reeuwijk,Zuid-Holland,VBO,4.799071,52.046479
J.H. Kielastraat,13,,,3465KV,Driebruggen,Bodegraven-Reeuwijk,Zuid-Holland,VBO,4.799483,52.046091
J.H. Kielastraat,14,,,3465KV,Driebruggen,Bodegraven-Reeuwijk,Zuid-Holland,VBO,4.798853,52.046448
J.H. Kielastraat,15,,,3465KV,Driebruggen,Bodegraven-Reeuwijk,Zuid-Holland,VBO,4.799456,52.046162
J.H. Kielastraat,16,,,3465KV,Driebruggen,Bodegraven-Reeuwijk,Zuid-Holland,VBO,4.798621,52.046415
J.H. Kielastraat,17,,,3465KV,Driebruggen,Bodegraven-Reeuwijk,Zuid-Holland,VBO,4.799435,52.046243
J.H. Kielastraat,19,,,3465KV,Driebruggen,Bodegraven-Reeuwijk,Zuid-Holland,VBO,4.799410,52.046312
J.H. Kielastraat,21,,,3465KV,Driebruggen,Bodegraven-Reeuwijk,Zuid-Holland,VBO,4.799146,52.046246
J.H. Kielastraat,23,,,3465KV,Driebruggen,Bodegraven-Reeuwijk,Zuid-Holland,VBO,4.799030,52.046242
J.H. Kielastraat,25,,,3465KV,Driebruggen,Bodegraven-Reeuwijk,Zuid-Holland,VBO,4.798889,52.046219
J.H. Kielastraat,27,,,3465KV,Driebruggen,Bodegraven-Reeuwijk,Zuid-Holland,VBO,4.798788,52.046209
Pauw Boerefijnpad,2,,,3465KW,Driebruggen,Bodegraven-Reeuwijk,Zuid-Holland,VBO,4.798107,52.046196
Beukenlaan,1,,,3465TA,Driebruggen,Bodegraven-Reeuwijk,Zuid-Holland,VBO,4.799747,52.042301
Beukenlaan,3,,,3465TA,Driebruggen,Bodegraven-Reeuwijk,Zuid-Holland,VBO,4.799768,52.042239
Beukenlaan,5,,,3465TA,Driebruggen,Bodegraven-Reeuwijk,Zuid-Holland,VBO,4.799798,52.042203
Beukenlaan,7,,,3465TA,Driebruggen,Bodegraven-Reeuwijk,Zuid-Holland,VBO,4.799813,52.042158
Beukenlaan,9,,,3465TA,Driebruggen,Bodegraven-Reeuwijk,Zuid-Holland,VBO,4.799843,52.042104
Beukenlaan,11,,,3465TA,Driebruggen,Bodegraven-Reeuwijk,Zuid-Holland,VBO,4.799858,52.042059
Beukenlaan,13,,,3465TA,Driebruggen,Bodegraven-Reeuwijk,Zuid-Holland,VBO,4.799888,52.042014
Beukenlaan,15,,,3465TA,Driebruggen,Bodegraven-Reeuwijk,Zuid-Holland,VBO,4.799888,52.041978
Beukenlaan,2,,,3465TB,Driebruggen,Bodegraven-Reeuwijk,Zuid-Holland,VBO,4.799461,52.042354
Beukenlaan,4,,,3465TB,Driebruggen,Bodegraven-Reeuwijk,Zuid-Holland,VBO,4.799476,52.042309
Beukenlaan,6,,,3465TB,Driebruggen,Bodegraven-Reeuwijk,Zuid-Holland,VBO,4.799491,52.042264
Beukenlaan,8,,,3465TB,Driebruggen,Bodegraven-Reeuwijk,Zuid-Holland,VBO,4.799506,52.042228
Beukenlaan,10,,,3465TB,Driebruggen,Bodegraven-Reeuwijk,Zuid-Holland,VBO,4.799536,52.042192
Beukenlaan,12,,,3465TB,Driebruggen,Bodegraven-Reeuwijk,Zuid-Holland,VBO,4.799551,52.042148
Beukenlaan,14,,,3465TB,Driebruggen,Bodegraven-Reeuwijk,Zuid-Holland,VBO,4.799581,52.042103
Beukenlaan,16,,,3465TB,Driebruggen,Bodegraven-Reeuwijk,Zuid-Holland,VBO,4.799548,52.042007
Kastanjelaan,1,,,3465TC,Driebruggen,Bodegraven-Reeuwijk,Zuid-Holland,VBO,4.799984,52.042491
Kastanjelaan,3,,,3465TC,Driebruggen,Bodegraven-Reeuwijk,Zuid-Holland,VBO,4.799882,52.042464
Kastanjelaan,5,,,3465TC,Driebruggen,Bodegraven-Reeuwijk,Zuid-Holland,VBO,4.799809,52.042463
Kastanjelaan,7,,,3465TC,Driebruggen,Bodegraven-Reeuwijk,Zuid-Holland,VBO,4.799736,52.042454
Kastanjelaan,9,,,3465TC,Driebruggen,Bodegraven-Reeuwijk,Zuid-Holland,VBO,4.799693,52.042454
Kastanjelaan,11,,,3465TC,Driebruggen,Bodegraven-Reeuwijk,Zuid-Holland,VBO,4.799342,52.042497
Kastanjelaan,13,,,3465TC,Driebruggen,Bodegraven-Reeuwijk,Zuid-Holland,VBO,4.799270,52.042479
Kastanjelaan,15,,,3465TC,Driebruggen,Bodegraven-Reeuwijk,Zuid-Holland,VBO,4.799197,52.042478
Kastanjelaan,17,,,3465TC,Driebruggen,Bodegraven-Reeuwijk,Zuid-Holland,VBO,4.799124,52.042469
Kastanjelaan,19,,,3465TC,Driebruggen,Bodegraven-Reeuwijk,Zuid-Holland,VBO,4.799051,52.042460
Kastanjelaan,21,,,3465TC,Driebruggen,Bodegraven-Reeuwijk,Zuid-Holland,VBO,4.798978,52.042459
Kastanjelaan,23,,,3465TC,Driebruggen,Bodegraven-Reeuwijk,Zuid-Holland,VBO,4.798891,52.042450
Kastanjelaan,25,,,3465TC,Driebruggen,Bodegraven-Reeuwijk,Zuid-Holland,VBO,4.798862,52.042459
Kastanjelaan,27,,,3465TC,Driebruggen,Bodegraven-Reeuwijk,Zuid-Holland,VBO,4.798687,52.042431
Kastanjelaan,29,,,3465TC,Driebruggen,Bodegraven-Reeuwijk,Zuid-Holland,VBO,4.798615,52.042413
Kastanjelaan,31,,,3465TC,Driebruggen,Bodegraven-Reeuwijk,Zuid-Holland,VBO,4.798542,52.042403
Kastanjelaan,33,,,3465TC,Driebruggen,Bodegraven-Reeuwijk,Zuid-Holland,VBO,4.798469,52.042394
Kastanjelaan,35,,,3465TC,Driebruggen,Bodegraven-Reeuwijk,Zuid-Holland,VBO,4.798396,52.042384
Kastanjelaan,37,,,3465TC,Driebruggen,Bodegraven-Reeuwijk,Zuid-Holland,VBO,4.798324,52.042366
Kastanjelaan,39,,,3465TC,Driebruggen,Bodegraven-Reeuwijk,Zuid-Holland,VBO,4.798251,52.042357
Kastanjelaan,41,,,3465TC,Driebruggen,Bodegraven-Reeuwijk,Zuid-Holland,VBO,4.798207,52.042357
Kastanjelaan,43,,,3465TC,Driebruggen,Bodegraven-Reeuwijk,Zuid-Holland,VBO,4.797813,52.042382
Kastanjelaan,45,,,3465TC,Driebruggen,Bodegraven-Reeuwijk,Zuid-Holland,VBO,4.797843,52.042355
Kastanjelaan,47,,,3465TC,Driebruggen,Bodegraven-Reeuwijk,Zuid-Holland,VBO,4.797858,52.042337
Kastanjelaan,49,,,3465TC,Driebruggen,Bodegraven-Reeuwijk,Zuid-Holland,VBO,4.797858,52.042310
Kastanjelaan,51,,,3465TC,Driebruggen,Bodegraven-Reeuwijk,Zuid-Holland,VBO,4.797858,52.042274
Kastanjelaan,53,,,3465TC,Driebruggen,Bodegraven-Reeuwijk,Zuid-Holland,VBO,4.797888,52.042256
Kastanjelaan,55,,,3465TC,Driebruggen,Bodegraven-Reeuwijk,Zuid-Holland,VBO,4.797903,52.042229
Kastanjelaan,57,,,3465TC,Driebruggen,Bodegraven-Reeuwijk,Zuid-Holland,VBO,4.797903,52.042211
Kastanjelaan,59,,,3465TC,Driebruggen,Bodegraven-Reeuwijk,Zuid-Holland,VBO,4.797684,52.042273
Kastanjelaan,61,,,3465TC,Driebruggen,Bodegraven-Reeuwijk,Zuid-Holland,VBO,4.797669,52.042273
Kastanjelaan,63,,,3465TC,Driebruggen,Bodegraven-Reeuwijk,Zuid-Holland,VBO,4.797556,52.042271
Kastanjelaan,65,,,3465TC,Driebruggen,Bodegraven-Reeuwijk,Zuid-Holland,VBO,4.797538,52.042254
Kastanjelaan,67,,,3465TC,Driebruggen,Bodegraven-Reeuwijk,Zuid-Holland,VBO,4.797436,52.042227
Kastanjelaan,69,,,3465TC,Driebruggen,Bodegraven-Reeuwijk,Zuid-Holland,VBO,4.797407,52.042227
Kastanjelaan,71,,,3465TC,Driebruggen,Bodegraven-Reeuwijk,Zuid-Holland,VBO,4.797305,52.042208
Kastanjelaan,73,,,3465TC,Driebruggen,Bodegraven-Reeuwijk,Zuid-Holland,VBO,4.797247,52.042235
Kastanjelaan,4,,,3465TD,Driebruggen,Bodegraven-Reeuwijk,Zuid-Holland,VBO,4.799573,52.042705
Kastanjelaan,6,,,3465TD,Driebruggen,Bodegraven-Reeuwijk,Zuid-Holland,VBO,4.799631,52.042741
Kastanjelaan,8,,,3465TD,Driebruggen,Bodegraven-Reeuwijk,Zuid-Holland,VBO,4.799615,52.042786
Kastanjelaan,10,,,3465TD,Driebruggen,Bodegraven-Reeuwijk,Zuid-Holland,VBO,4.799615,52.042831
Kastanjelaan,12,,,3465TD,Driebruggen,Bodegraven-Reeuwijk,Zuid-Holland,VBO,4.799614,52.042876
Kastanjelaan,14,,,3465TD,Driebruggen,Bodegraven-Reeuwijk,Zuid-Holland,VBO,4.799555,52.042930
Kastanjelaan,18,,,3465TD,Driebruggen,Bodegraven-Reeuwijk,Zuid-Holland,VBO,4.798494,52.042682
Kastanjelaan,20,,,3465TD,Driebruggen,Bodegraven-Reeuwijk,Zuid-Holland,VBO,4.798378,52.042663
Kastanjelaan,22,,,3465TD,Driebruggen,Bodegraven-Reeuwijk,Zuid-Holland,VBO,4.798189,52.042635
Kastanjelaan,24,,,3465TD,Driebruggen,Bodegraven-Reeuwijk,Zuid-Holland,VBO,4.798087,52.042617
Kastanjelaan,26,,,3465TD,Driebruggen,Bodegraven-Reeuwijk,Zuid-Holland,VBO,4.797665,52.042561
Kastanjelaan,28,,,3465TD,Driebruggen,Bodegraven-Reeuwijk,Zuid-Holland,VBO,4.797593,52.042542
Kastanjelaan,30,,,3465TD,Driebruggen,Bodegraven-Reeuwijk,Zuid-Holland,VBO,4.797520,52.042533
Kastanjelaan,32,,,3465TD,Driebruggen,Bodegraven-Reeuwijk,Zuid-Holland,VBO,4.797447,52.042524
Kastanjelaan,34,,,3465TD,Driebruggen,Bodegraven-Reeuwijk,Zuid-Holland,VBO,4.797374,52.042514
Kastanjelaan,36,,,3465TD,Driebruggen,Bodegraven-Reeuwijk,Zuid-Holland,VBO,4.797302,52.042505
Kastanjelaan,38,,,3465TD,Driebruggen,Bodegraven-Reeuwijk,Zuid-Holland,VBO,4.797229,52.042495
Kastanjelaan,40,,,3465TD,Driebruggen,Bodegraven-Reeuwijk,Zuid-Holland,VBO,4.797156,52.042477
Kastanjelaan,42,,,3465TD,Driebruggen,Bodegraven-Reeuwijk,Zuid-Holland,VBO,4.797083,52.042468
Kastanjelaan,44,,,3465TD,Driebruggen,Bodegraven-Reeuwijk,Zuid-Holland,VBO,4.797055,52.042423
Kastanjelaan,46,,,3465TD,Driebruggen,Bodegraven-Reeuwijk,Zuid-Holland,VBO,4.796690,52.042448
Kastanjelaan,48,,,3465TD,Driebruggen,Bodegraven-Reeuwijk,Zuid-Holland,VBO,4.796588,52.042429
Kastanjelaan,50,,,3465TD,Driebruggen,Bodegraven-Reeuwijk,Zuid-Holland,VBO,4.796355,52.042419
Wilgenlaan,1,,,3465TE,Driebruggen,Bodegraven-Reeuwijk,Zuid-Holland,VBO,4.798797,52.041811
Wilgenlaan,3,,,3465TE,Driebruggen,Bodegraven-Reeuwijk,Zuid-Holland,VBO,4.798782,52.041874
Wilgenlaan,5,,,3465TE,Driebruggen,Bodegraven-Reeuwijk,Zuid-Holland,VBO,4.798505,52.041846
Wilgenlaan,7,,,3465TE,Driebruggen,Bodegraven-Reeuwijk,Zuid-Holland,VBO,4.798375,52.041791
Wilgenlaan,9,,,3465TE,Driebruggen,Bodegraven-Reeuwijk,Zuid-Holland,VBO,4.798302,52.041782
Wilgenlaan,11,,,3465TE,Driebruggen,Bodegraven-Reeuwijk,Zuid-Holland,VBO,4.798128,52.041754
Wilgenlaan,13,,,3465TE,Driebruggen,Bodegraven-Reeuwijk,Zuid-Holland,VBO,4.798040,52.041745
Wilgenlaan,15,,,3465TE,Driebruggen,Bodegraven-Reeuwijk,Zuid-Holland,VBO,4.797881,52.041699
Wilgenlaan,17,,,3465TE,Driebruggen,Bodegraven-Reeuwijk,Zuid-Holland,VBO,4.797733,52.041701
Wilgenlaan,19,,,3465TE,Driebruggen,Bodegraven-Reeuwijk,Zuid-Holland,VBO,4.797633,52.041680
Wilgenlaan,2,,,3465TG,Driebruggen,Bodegraven-Reeuwijk,Zuid-Holland,VBO,4.799160,52.041975
Wilgenlaan,4,,,3465TG,Driebruggen,Bodegraven-Reeuwijk,Zuid-Holland,VBO,4.799130,52.042011
Wilgenlaan,6,,,3465TG,Driebruggen,Bodegraven-Reeuwijk,Zuid-Holland,VBO,4.799115,52.042055
Wilgenlaan,8,,,3465TG,Driebruggen,Bodegraven-Reeuwijk,Zuid-Holland,VBO,4.799100,52.042091
Wilgenlaan,10,,,3465TG,Driebruggen,Bodegraven-Reeuwijk,Zuid-Holland,VBO,4.799070,52.042145
Wilgenlaan,12,,,3465TG,Driebruggen,Bodegraven-Reeuwijk,Zuid-Holland,VBO,4.799055,52.042190
Wilgenlaan,14,,,3465TG,Driebruggen,Bodegraven-Reeuwijk,Zuid-Holland,VBO,4.799025,52.042226
Wilgenlaan,16,,,3465TG,Driebruggen,Bodegraven-Reeuwijk,Zuid-Holland,VBO,4.799010,52.042280
Wilgenlaan,18,,,3465TG,Driebruggen,Bodegraven-Reeuwijk,Zuid-Holland,VBO,4.798633,52.042134
Wilgenlaan,20,,,3465TG,Driebruggen,Bodegraven-Reeuwijk,Zuid-Holland,VBO,4.798546,52.042125
Wilgenlaan,22,,,3465TG,Driebruggen,Bodegraven-Reeuwijk,Zuid-Holland,VBO,4.798473,52.042115
Wilgenlaan,24,,,3465TG,Driebruggen,Bodegraven-Reeuwijk,Zuid-Holland,VBO,4.798415,52.042106
Wilgenlaan,26,,,3465TG,Driebruggen,Bodegraven-Reeuwijk,Zuid-Holland,VBO,4.798196,52.042114
Wilgenlaan,28,,,3465TG,Driebruggen,Bodegraven-Reeuwijk,Zuid-Holland,VBO,4.798225,52.042096
Wilgenlaan,30,,,3465TG,Driebruggen,Bodegraven-Reeuwijk,Zuid-Holland,VBO,4.798196,52.042078
Wilgenlaan,32,,,3465TG,Driebruggen,Bodegraven-Reeuwijk,Zuid-Holland,VBO,4.798196,52.042123
Wilgenlaan,34,,,3465TG,Driebruggen,Bodegraven-Reeuwijk,Zuid-Holland,VBO,4.798225,52.042114
Wilgenlaan,36,,,3465TG,Driebruggen,Bodegraven-Reeuwijk,Zuid-Holland,VBO,4.798240,52.042096
Wilgenlaan,38,,,3465TG,Driebruggen,Bodegraven-Reeuwijk,Zuid-Holland,VBO,4.798225,52.042078
Wilgenlaan,40,,,3465TG,Driebruggen,Bodegraven-Reeuwijk,Zuid-Holland,VBO,4.798196,52.042069
Wilgenlaan,42,,,3465TG,Driebruggen,Bodegraven-Reeuwijk,Zuid-Holland,VBO,4.797905,52.042031
Wilgenlaan,44,,,3465TG,Driebruggen,Bodegraven-Reeuwijk,Zuid-Holland,VBO,4.797833,52.042022
Wilgenlaan,46,,,3465TG,Driebruggen,Bodegraven-Reeuwijk,Zuid-Holland,VBO,4.797760,52.042004
Wilgenlaan,48,,,3465TG,Driebruggen,Bodegraven-Reeuwijk,Zuid-Holland,VBO,4.797687,52.041985
Wilgenlaan,50,,,3465TG,Driebruggen,Bodegraven-Reeuwijk,Zuid-Holland,VBO,4.797615,52.041967
Wilgenlaan,52,,,3465TG,Driebruggen,Bodegraven-Reeuwijk,Zuid-Holland,VBO,4.797562,52.041958
Wilgenlaan,54,,,3465TG,Driebruggen,Bodegraven-Reeuwijk,Zuid-Holland,VBO,4.797469,52.041939
Wilgenlaan,56,,,3465TG,Driebruggen,Bodegraven-Reeuwijk,Zuid-Holland,VBO,4.797411,52.041921
Wilgenlaan,58,,,3465TG,Driebruggen,Bodegraven-Reeuwijk,Zuid-Holland,VBO,4.797368,52.041912
Populierenhof,1,,,3465TH,Driebruggen,Bodegraven-Reeuwijk,Zuid-Holland,VBO,4.796322,52.041619
Populierenhof,2,,,3465TH,Driebruggen,Bodegraven-Reeuwijk,Zuid-Holland,VBO,4.796876,52.041622
Populierenhof,3,,,3465TH,Driebruggen,Bodegraven-Reeuwijk,Zuid-Holland,VBO,4.796392,52.041808
Populierenhof,4,,,3465TH,Driebruggen,Bodegraven-Reeuwijk,Zuid-Holland,VBO,4.796787,52.041747
Populierenhof,6,,,3465TH,Driebruggen,Bodegraven-Reeuwijk,Zuid-Holland,VBO,4.796654,52.041881
Elzenlaan,2,,,3465TJ,Driebruggen,Bodegraven-Reeuwijk,Zuid-Holland,VBO,4.796825,52.042188
Elzenlaan,4,,,3465TJ,Driebruggen,Bodegraven-Reeuwijk,Zuid-Holland,VBO,4.796855,52.042116
Elzenlaan,6,,,3465TJ,Driebruggen,Bodegraven-Reeuwijk,Zuid-Holland,VBO,4.797004,52.041892
Elzenlaan,8,,,3465TJ,Driebruggen,Bodegraven-Reeuwijk,Zuid-Holland,VBO,4.796990,52.041793
Elzenlaan,10,,,3465TJ,Driebruggen,Bodegraven-Reeuwijk,Zuid-Holland,VBO,4.797020,52.041757
Elzenlaan,12,,,3465TJ,Driebruggen,Bodegraven-Reeuwijk,Zuid-Holland,VBO,4.797123,52.041686
Meidoornlaan,1,,,3465TK,Driebruggen,Bodegraven-Reeuwijk,Zuid-Holland,VBO,4.799701,52.041843
Meidoornlaan,3,,,3465TK,Driebruggen,Bodegraven-Reeuwijk,Zuid-Holland,VBO,4.799628,52.041833
Meidoornlaan,5,,,3465TK,Driebruggen,Bodegraven-Reeuwijk,Zuid-Holland,VBO,4.799555,52.041815
Meidoornlaan,7,,,3465TK,Driebruggen,Bodegraven-Reeuwijk,Zuid-Holland,VBO,4.799497,52.041806
Meidoornlaan,9,,,3465TK,Driebruggen,Bodegraven-Reeuwijk,Zuid-Holland,VBO,4.799424,52.041787
Meidoornlaan,11,,,3465TK,Driebruggen,Bodegraven-Reeuwijk,Zuid-Holland,VBO,4.799352,52.041778
Meidoornlaan,13,,,3465TK,Driebruggen,Bodegraven-Reeuwijk,Zuid-Holland,VBO,4.799279,52.041760
Meidoornlaan,15,,,3465TK,Driebruggen,Bodegraven-Reeuwijk,Zuid-Holland,VBO,4.799206,52.041750
Meidoornlaan,17,,,3465TK,Driebruggen,Bodegraven-Reeuwijk,Zuid-Holland,VBO,4.799676,52.041483
Abeelhof,1,,,3465TL,Driebruggen,Bodegraven-Reeuwijk,Zuid-Holland,VBO,4.799010,52.041586
Abeelhof,2,,,3465TL,Driebruggen,Bodegraven-Reeuwijk,Zuid-Holland,VBO,4.798921,52.041570
Abeelhof,3,,,3465TL,Driebruggen,Bodegraven-Reeuwijk,Zuid-Holland,VBO,4.798832,52.041553
Abeelhof,4,,,3465TL,Driebruggen,Bodegraven-Reeuwijk,Zuid-Holland,VBO,4.798742,52.041537
Abeelhof,5,,,3465TL,Driebruggen,Bodegraven-Reeuwijk,Zuid-Holland,VBO,4.798653,52.041521
Abeelhof,6,,,3465TL,Driebruggen,Bodegraven-Reeuwijk,Zuid-Holland,VBO,4.798338,52.041508
Abeelhof,7,,,3465TL,Driebruggen,Bodegraven-Reeuwijk,Zuid-Holland,VBO,4.798369,52.041440
Abeelhof,8,,,3465TL,Driebruggen,Bodegraven-Reeuwijk,Zuid-Holland,VBO,4.798386,52.041402
Abeelhof,9,,,3465TL,Driebruggen,Bodegraven-Reeuwijk,Zuid-Holland,VBO,4.798404,52.041360
Abeelhof,10,,,3465TL,Driebruggen,Bodegraven-Reeuwijk,Zuid-Holland,VBO,4.798424,52.041317
Abeelhof,11,,,3465TL,Driebruggen,Bodegraven-Reeuwijk,Zuid-Holland,VBO,4.798463,52.041229
Abeelhof,12,,,3465TL,Driebruggen,Bodegraven-Reeuwijk,Zuid-Holland,VBO,4.798481,52.041191
Abeelhof,13,,,3465TL,Driebruggen,Bodegraven-Reeuwijk,Zuid-Holland,VBO,4.798516,52.041113
Abeelhof,14,,,3465TL,Driebruggen,Bodegraven-Reeuwijk,Zuid-Holland,VBO,4.798762,52.041155
Abeelhof,15,,,3465TL,Driebruggen,Bodegraven-Reeuwijk,Zuid-Holland,VBO,4.798932,52.041184
Abeelhof,16,,,3465TL,Driebruggen,Bodegraven-Reeuwijk,Zuid-Holland,VBO,4.799096,52.041212
Moerbeihof,1,,,3465TM,Driebruggen,Bodegraven-Reeuwijk,Zuid-Holland,VBO,4.797335,52.041370
Moerbeihof,2,,,3465TM,Driebruggen,Bodegraven-Reeuwijk,Zuid-Holland,VBO,4.797382,52.041266
Moerbeihof,3,,,3465TM,Driebruggen,Bodegraven-Reeuwijk,Zuid-Holland,VBO,4.797408,52.041208
Moerbeihof,4,,,3465TM,Driebruggen,Bodegraven-Reeuwijk,Zuid-Holland,VBO,4.797431,52.041156
Moerbeihof,5,,,3465TM,Driebruggen,Bodegraven-Reeuwijk,Zuid-Holland,VBO,4.797390,52.040951
Moerbeihof,6,,,3465TM,Driebruggen,Bodegraven-Reeuwijk,Zuid-Holland,VBO,4.797602,52.040987
Moerbeihof,7,,,3465TM,Driebruggen,Bodegraven-Reeuwijk,Zuid-Holland,VBO,4.797934,52.041044
Moerbeihof,8,,,3465TM,Driebruggen,Bodegraven-Reeuwijk,Zuid-Holland,VBO,4.798144,52.041080
Moerbeihof,9,,,3465TM,Driebruggen,Bodegraven-Reeuwijk,Zuid-Holland,VBO,4.797935,52.041242
Moerbeihof,10,,,3465TM,Driebruggen,Bodegraven-Reeuwijk,Zuid-Holland,VBO,4.797912,52.041294
Moerbeihof,11,,,3465TM,Driebruggen,Bodegraven-Reeuwijk,Zuid-Holland,VBO,4.797886,52.041352
Moerbeihof,12,,,3465TM,Driebruggen,Bodegraven-Reeuwijk,Zuid-Holland,VBO,4.797839,52.041456
Hazelaarhof,1,,,3465TP,Driebruggen,Bodegraven-Reeuwijk,Zuid-Holland,VBO,4.796518,52.040863
Hazelaarhof,2,,,3465TP,Driebruggen,Bodegraven-Reeuwijk,Zuid-Holland,VBO,4.796914,52.040859
Hazelaarhof,3,,,3465TP,Driebruggen,Bodegraven-Reeuwijk,Zuid-Holland,VBO,4.796903,52.041142
Hazelaarhof,4,,,3465TP,Driebruggen,Bodegraven-Reeuwijk,Zuid-Holland,VBO,4.796667,52.041215
Hazelaarhof,5,,,3465TP,Driebruggen,Bodegraven-Reeuwijk,Zuid-Holland,VBO,4.796391,52.041123
