openbareruimtenaam,huisnummer,huisletter,huisnummertoevoeging,postcode,woonplaatsnaam,gemeentenaam,provincienaam,typeadresseerbaarobject,longitude,latitude
Persimoenstraat,67,,,3545DB,Utrecht,Utrecht,Utrecht,VBO,5.065930,52.076274
Persimoenstraat,69,,,3545DB,Utrecht,Utrecht,Utrecht,VBO,5.065599,52.076315
Persimoenstraat,71,,,3545DB,Utrecht,Utrecht,Utrecht,VBO,5.065534,52.076328
Persimoenstraat,73,,,3545DB,Utrecht,Utrecht,Utrecht,VBO,5.065455,52.076346
Persimoenstraat,75,,,3545DB,Utrecht,Utrecht,Utrecht,VBO,5.065384,52.076357
Persimoenstraat,77,,,3545DB,Utrecht,Utrecht,Utrecht,VBO,5.065307,52.076371
Persimoenstraat,79,,,3545DB,Utrecht,Utrecht,Utrecht,VBO,5.065245,52.076385
Persimoenstraat,81,,,3545DB,Utrecht,Utrecht,Utrecht,VBO,5.065162,52.076401
Persimoenstraat,83,,,3545DB,Utrecht,Utrecht,Utrecht,VBO,5.065047,52.076459
Persimoenstraat,85,,,3545DB,Utrecht,Utrecht,Utrecht,VBO,5.064917,52.076488
Persimoenstraat,87,,,3545DB,Utrecht,Utrecht,Utrecht,VBO,5.064572,52.076550
Persimoenstraat,89,,,3545DB,Utrecht,Utrecht,Utrecht,VBO,5.064445,52.076572
Persimoenstraat,91,,,3545DB,Utrecht,Utrecht,Utrecht,VBO,5.064316,52.076594
Persimoenstraat,93,,,3545DB,Utrecht,Utrecht,Utrecht,VBO,5.064186,52.076622
Persimoenstraat,95,,,3545DB,Utrecht,Utrecht,Utrecht,VBO,5.064074,52.076620
Persimoenstraat,97,,,3545DB,Utrecht,Utrecht,Utrecht,VBO,5.063990,52.076632
Persimoenstraat,99,,,3545DB,Utrecht,Utrecht,Utrecht,VBO,5.063915,52.076658
Persimoenstraat,101,,,3545DB,Utrecht,Utrecht,Utrecht,VBO,5.063844,52.076663
Persimoenstraat,103,,,3545DB,Utrecht,Utrecht,Utrecht,VBO,5.063744,52.076675
Persimoenstraat,105,,,3545DB,Utrecht,Utrecht,Utrecht,VBO,5.063585,52.076700
Persimoenstraat,107,,,3545DB,Utrecht,Utrecht,Utrecht,VBO,5.063510,52.076726
Persimoenstraat,109,,,3545DB,Utrecht,Utrecht,Utrecht,VBO,5.063439,52.076738
Persimoenstraat,111,,,3545DB,Utrecht,Utrecht,Utrecht,VBO,5.063364,52.076756
Persimoenstraat,113,,,3545DB,Utrecht,Utrecht,Utrecht,VBO,5.063306,52.076777
Persimoenstraat,115,,,3545DB,Utrecht,Utrecht,Utrecht,VBO,5.063231,52.076782
Persimoenstraat,117,,,3545DB,Utrecht,Utrecht,Utrecht,VBO,5.063122,52.076820
Persimoenstraat,119,,,3545DB,Utrecht,Utrecht,Utrecht,VBO,5.063001,52.076853
Persimoenstraat,121,,,3545DB,Utrecht,Utrecht,Utrecht,VBO,5.062871,52.076881
Shipovalaan,25,,,3545DC,Utrecht,Utrecht,Utrecht,VBO,5.064511,52.077110
Shipovalaan,27,,,3545DC,Utrecht,Utrecht,Utrecht,VBO,5.064588,52.077094
Shipovalaan,29,,,3545DC,Utrecht,Utrecht,Utrecht,VBO,5.064668,52.077080
Shipovalaan,31,,,3545DC,Utrecht,Utrecht,Utrecht,VBO,5.064745,52.077069
Shipovalaan,33,,,3545DC,Utrecht,Utrecht,Utrecht,VBO,5.065138,52.076928
Shipovalaan,35,,,3545DC,Utrecht,Utrecht,Utrecht,VBO,5.065259,52.076894
Shipovalaan,37,,,3545DC,Utrecht,Utrecht,Utrecht,VBO,5.065389,52.076851
Shipovalaan,39,,,3545DC,Utrecht,Utrecht,Utrecht,VBO,5.065462,52.076824
Shipovalaan,41,,,3545DC,Utrecht,Utrecht,Utrecht,VBO,5.065574,52.076821
Shipovalaan,43,,,3545DC,Utrecht,Utrecht,Utrecht,VBO,5.065648,52.076803
Shipovalaan,45,,,3545DC,Utrecht,Utrecht,Utrecht,VBO,5.065716,52.076776
Shipovalaan,47,,,3545DC,Utrecht,Utrecht,Utrecht,VBO,5.065781,52.076747
Shipovalaan,49,,,3545DC,Utrecht,Utrecht,Utrecht,VBO,5.065852,52.076731
Shipovalaan,51,,,3545DC,Utrecht,Utrecht,Utrecht,VBO,5.066006,52.076657
Shipovalaan,53,,,3545DC,Utrecht,Utrecht,Utrecht,VBO,5.066121,52.076619
Zoete viburnumstraat,19,,,3545DD,Utrecht,Utrecht,Utrecht,VBO,5.066229,52.076581
Zoete viburnumstraat,21,,,3545DD,Utrecht,Utrecht,Utrecht,VBO,5.066067,52.076437
Zoete viburnumstraat,23,,,3545DD,Utrecht,Utrecht,Utrecht,VBO,5.066005,52.076350
Jujubestraat,1,,,3545DE,Utrecht,Utrecht,Utrecht,VBO,5.064839,52.077011
Jujubestraat,2,,,3545DE,Utrecht,Utrecht,Utrecht,VBO,5.065036,52.076741
Jujubestraat,3,,,3545DE,Utrecht,Utrecht,Utrecht,VBO,5.064710,52.076841
Jujubestraat,4,,,3545DE,Utrecht,Utrecht,Utrecht,VBO,5.065001,52.076652
Jujubestraat,5,,,3545DE,Utrecht,Utrecht,Utrecht,VBO,5.064665,52.076749
Lotusvliet,42,,,3545DH,Utrecht,Utrecht,Utrecht,VBO,5.063619,52.077122
Lotusvliet,44,,,3545DH,Utrecht,Utrecht,Utrecht,VBO,5.063536,52.077129
Lotusvliet,46,,,3545DH,Utrecht,Utrecht,Utrecht,VBO,5.063460,52.077130
Lotusvliet,48,,,3545DH,Utrecht,Utrecht,Utrecht,VBO,5.063377,52.077145
Lotusvliet,50,,,3545DH,Utrecht,Utrecht,Utrecht,VBO,5.063242,52.077119
Lotusvliet,52,,,3545DH,Utrecht,Utrecht,Utrecht,VBO,5.063100,52.077138
Lotusvliet,54,,,3545DH,Utrecht,Utrecht,Utrecht,VBO,5.062958,52.077162
Honingbesstraat,2,,,3545DK,Utrecht,Utrecht,Utrecht,VBO,5.064383,52.077146
Honingbesstraat,4,,,3545DK,Utrecht,Utrecht,Utrecht,VBO,5.064245,52.077166
Honingbesstraat,6,,,3545DK,Utrecht,Utrecht,Utrecht,VBO,5.064097,52.077177
Honingbesstraat,8,,,3545DK,Utrecht,Utrecht,Utrecht,VBO,5.063964,52.077202
Honingbesstraat,10,,,3545DK,Utrecht,Utrecht,Utrecht,VBO,5.063835,52.077215
Sportpark Rijnvliet,1,,,3545EA,Utrecht,Utrecht,Utrecht,VBO,5.068537,52.074402
Sportpark Rijnvliet,3,,,3545EA,Utrecht,Utrecht,Utrecht,VBO,5.065180,52.075876
Sportpark Rijnvliet,5,,,3545EA,Utrecht,Utrecht,Utrecht,VBO,5.063224,52.076199
Sportpark Rijnvliet,7,,,3545EA,Utrecht,Utrecht,Utrecht,VBO,5.061310,52.073678
Rijksstraatweg,6,,,3545NA,Utrecht,Utrecht,Utrecht,VBO,5.074264,52.082131
Rijksstraatweg,7,,,3545NA,Utrecht,Utrecht,Utrecht,VBO,5.074235,52.082133
Rijksstraatweg,8,A,,3545NA,Utrecht,Utrecht,Utrecht,VBO,5.073802,52.082128
Rijksstraatweg,8,,,3545NA,Utrecht,Utrecht,Utrecht,VBO,5.073830,52.082124
Rijksstraatweg,9,,,3545NA,Utrecht,Utrecht,Utrecht,VBO,5.073441,52.082123
Rijksstraatweg,10,,,3545NA,Utrecht,Utrecht,Utrecht,VBO,5.073251,52.082107
Rijksstraatweg,11,,,3545NA,Utrecht,Utrecht,Utrecht,VBO,5.073019,52.082106
Rijksstraatweg,12,A,,3545NA,Utrecht,Utrecht,Utrecht,VBO,5.071773,52.082032
Rijksstraatweg,12,B,,3545NA,Utrecht,Utrecht,Utrecht,VBO,5.071763,52.082005
Rijksstraatweg,12,C,,3545NA,Utrecht,Utrecht,Utrecht,VBO,5.072131,52.081599
Rijksstraatweg,12,D,,3545NA,Utrecht,Utrecht,Utrecht,VBO,5.072108,52.082007
Rijksstraatweg,12,,,3545NA,Utrecht,Utrecht,Utrecht,VBO,5.072114,52.082026
Rijksstraatweg,13,,,3545NA,Utrecht,Utrecht,Utrecht,VBO,5.070863,52.081916
Rijksstraatweg,14,A,,3545NA,Utrecht,Utrecht,Utrecht,VBO,5.070502,52.082055
Rijksstraatweg,14,,,3545NA,Utrecht,Utrecht,Utrecht,VBO,5.070509,52.082075
Rijksstraatweg,15,,,3545NA,Utrecht,Utrecht,Utrecht,VBO,5.070268,52.081603
Rijksstraatweg,16,A,,3545NA,Utrecht,Utrecht,Utrecht,VBO,5.069502,52.082049
Rijksstraatweg,16,,1,3545NA,Utrecht,Utrecht,Utrecht,VBO,5.069896,52.082002
Rijksstraatweg,16,,,3545NA,Utrecht,Utrecht,Utrecht,VBO,5.069878,52.081865
Rijksstraatweg,16,,,3545NA,Utrecht,Utrecht,Utrecht,VBO,5.069884,52.082029
Rijksstraatweg,17,,,3545NA,Utrecht,Utrecht,Utrecht,VBO,5.068983,52.082086
Rijksstraatweg,18,,,3545NA,Utrecht,Utrecht,Utrecht,VBO,5.067903,52.082113
Rijksstraatweg,19,,,3545NA,Utrecht,Utrecht,Utrecht,VBO,5.067468,52.082131
Rijksstraatweg,20,,,3545NA,Utrecht,Utrecht,Utrecht,VBO,5.067148,52.082054
Rijksstraatweg,21,A,,3545NA,Utrecht,Utrecht,Utrecht,VBO,5.066334,52.081656
Rijksstraatweg,21,B,,3545NA,Utrecht,Utrecht,Utrecht,VBO,5.066302,52.081570
Rijksstraatweg,21,,,3545NA,Utrecht,Utrecht,Utrecht,VBO,5.066824,52.082150
Rijksstraatweg,22,,,3545NA,Utrecht,Utrecht,Utrecht,VBO,5.066366,52.082164
Rijksstraatweg,23,A,,3545NA,Utrecht,Utrecht,Utrecht,VBO,5.065571,52.082100
Rijksstraatweg,23,B,,3545NA,Utrecht,Utrecht,Utrecht,VBO,5.065863,52.082148
Rijksstraatweg,23,,,3545NA,Utrecht,Utrecht,Utrecht,VBO,5.066053,52.082176
Rijksstraatweg,24,,,3545NA,Utrecht,Utrecht,Utrecht,VBO,5.065260,52.082122
Rijksstraatweg,24,,,3545NA,Utrecht,Utrecht,Utrecht,VBO,5.065286,52.082156
Rijksstraatweg,25,,,3545NA,Utrecht,Utrecht,Utrecht,VBO,5.065094,52.082127
Rijksstraatweg,26,,,3545NA,Utrecht,Utrecht,Utrecht,VBO,5.064868,52.082110
Rijksstraatweg,27,,,3545NA,Utrecht,Utrecht,Utrecht,VBO,5.064649,52.082109
Rijksstraatweg,28,,,3545NA,Utrecht,Utrecht,Utrecht,VBO,5.064620,52.082109
Rijksstraatweg,29,,,3545NA,Utrecht,Utrecht,Utrecht,VBO,5.064415,52.082106
Rijksstraatweg,30,A,,3545NA,Utrecht,Utrecht,Utrecht,VBO,5.063939,52.082087
Rijksstraatweg,30,,,3545NA,Utrecht,Utrecht,Utrecht,VBO,5.064212,52.082034
Rijksstraatweg,31,,,3545NA,Utrecht,Utrecht,Utrecht,VBO,5.063447,52.082037
Rijksstraatweg,32,B,,3545NA,Utrecht,Utrecht,Utrecht,VBO,5.061878,52.082101
Rijksstraatweg,32,C,,3545NA,Utrecht,Utrecht,Utrecht,VBO,5.061849,52.082101
Rijksstraatweg,32,D,,3545NA,Utrecht,Utrecht,Utrecht,VBO,5.061501,52.082103
Rijksstraatweg,32,E,,3545NA,Utrecht,Utrecht,Utrecht,VBO,5.061130,52.082106
Rijksstraatweg,32,F,,3545NA,Utrecht,Utrecht,Utrecht,VBO,5.060757,52.082082
Rijksstraatweg,32,G,,3545NA,Utrecht,Utrecht,Utrecht,VBO,5.060457,52.082063
Rijksstraatweg,32,,,3545NA,Utrecht,Utrecht,Utrecht,VBO,5.062921,52.081930
Rijksstraatweg,33,A,,3545NA,Utrecht,Utrecht,Utrecht,VBO,5.060230,52.082095
Rijksstraatweg,33,B,,3545NA,Utrecht,Utrecht,Utrecht,VBO,5.060210,52.082099
Rijksstraatweg,33,,,3545NA,Utrecht,Utrecht,Utrecht,VBO,5.060250,52.082092
Rijksstraatweg,34,,,3545NA,Utrecht,Utrecht,Utrecht,VBO,5.060128,52.082157
Strijkviertel,4,A,,3545NJ,Utrecht,Utrecht,Utrecht,VBO,5.060428,52.081767
Strijkviertel,4,,,3545NJ,Utrecht,Utrecht,Utrecht,VBO,5.060440,52.081818
Strijkviertel,16,,,3545NJ,Utrecht,Utrecht,Utrecht,VBO,5.062657,52.081113
Strijkviertel,18,,,3545NJ,Utrecht,Utrecht,Utrecht,VBO,5.062412,52.081520
Strijkviertel,20,,,3545NJ,Utrecht,Utrecht,Utrecht,VBO,5.061243,52.081231
Strijkviertel,24,A,,3545NJ,Utrecht,Utrecht,Utrecht,VBO,5.062440,52.080715
Strijkviertel,24,,,3545NJ,Utrecht,Utrecht,Utrecht,VBO,5.062651,52.081100
Strijkviertel,74,,,3545NJ,Utrecht,Utrecht,Utrecht,VBO,5.054394,52.070846
Strijkviertel,100,,,3545NJ,Utrecht,Utrecht,Utrecht,VBO,5.054395,52.069894
Ringkade,1,,,3545NK,Utrecht,Utrecht,Utrecht,VBO,5.064942,52.055711
Ringkade,2,,,3545NK,Utrecht,Utrecht,Utrecht,VBO,5.059167,52.056467
Ringkade,3,A,,3545NK,Utrecht,Utrecht,Utrecht,VBO,5.057461,52.057253
Ringkade,3,,,3545NK,Utrecht,Utrecht,Utrecht,VBO,5.062171,52.056162
Ringkade,4,,,3545NK,Utrecht,Utrecht,Utrecht,VBO,5.053339,52.057610
Ringkade,5,A,,3545NK,Utrecht,Utrecht,Utrecht,VBO,5.056792,52.057260
Ringkade,5,,,3545NK,Utrecht,Utrecht,Utrecht,VBO,5.056813,52.057256
Ringkade,7,,,3545NK,Utrecht,Utrecht,Utrecht,VBO,5.052500,52.058160
Ringkade,35,,,3545NK,Utrecht,Utrecht,Utrecht,VBO,5.042839,52.060091
Heijcopperkade,1,,,3545NL,Utrecht,Utrecht,Utrecht,VBO,5.058188,52.067856
Heijcopperkade,2,B,,3545NL,Utrecht,Utrecht,Utrecht,VBO,5.056067,52.066282
Heijcopperkade,2,,1,3545NL,Utrecht,Utrecht,Utrecht,VBO,5.056021,52.068152
Heijcopperkade,2,,,3545NL,Utrecht,Utrecht,Utrecht,VBO,5.056674,52.067968
