openbareruimtenaam,huisnummer,huisletter,huisnummertoevoeging,postcode,woonplaatsnaam,gemeentenaam,provincienaam,typeadresseerbaarobject,longitude,latitude
Gageldijk,1,,,3566ME,Utrecht,Utrecht,Utrecht,VBO,5.137063,52.119253
Gageldijk,2,,,3566ME,Utrecht,Utrecht,Utrecht,VBO,5.136148,52.119301
Gageldijk,3,A,,3566ME,Utrecht,Utrecht,Utrecht,VBO,5.134725,52.120299
Gageldijk,3,E,,3566ME,Utrecht,Utrecht,Utrecht,VBO,5.132612,52.117763
Gageldijk,3,,,3566ME,Utrecht,Utrecht,Utrecht,VBO,5.133449,52.118243
Gageldijk,4,A,,3566ME,Utrecht,Utrecht,Utrecht,VBO,5.131951,52.117902
Gageldijk,4,D,,3566ME,Utrecht,Utrecht,Utrecht,VBO,5.130085,52.118368
Gageldijk,4,F,,3566ME,Utrecht,Utrecht,Utrecht,VBO,5.129969,52.118858
Gageldijk,4,G,,3566ME,Utrecht,Utrecht,Utrecht,VBO,5.130179,52.119219
Gageldijk,4,,,3566ME,Utrecht,Utrecht,Utrecht,VBO,5.132598,52.117655
Gageldijk,6,,,3566ME,Utrecht,Utrecht,Utrecht,VBO,5.127851,52.118949
Gageldijk,8,,,3566ME,Utrecht,Utrecht,Utrecht,VBO,5.127824,52.118956
Gageldijk,10,,,3566ME,Utrecht,Utrecht,Utrecht,VBO,5.127480,52.119052
Gageldijk,12,,,3566ME,Utrecht,Utrecht,Utrecht,VBO,5.126621,52.119273
Gageldijk,14,,,3566ME,Utrecht,Utrecht,Utrecht,VBO,5.126265,52.119363
Gageldijk,16,,,3566ME,Utrecht,Utrecht,Utrecht,VBO,5.126239,52.119370
Gageldijk,18,,,3566ME,Utrecht,Utrecht,Utrecht,VBO,5.124348,52.119874
St.-Anthoniedijk,101,,,3566ME,Utrecht,Utrecht,Utrecht,VBO,5.126109,52.124614
St.-Anthoniedijk,103,,,3566ME,Utrecht,Utrecht,Utrecht,VBO,5.125954,52.124681
St.-Anthoniedijk,107,,,3566ME,Utrecht,Utrecht,Utrecht,VBO,5.123540,52.120878
St.-Anthoniedijk,109,,,3566ME,Utrecht,Utrecht,Utrecht,VBO,5.123287,52.120619
St.-Anthoniedijk,120,,,3566ME,Utrecht,Utrecht,Utrecht,VBO,5.126142,52.123064
Gageldijk,83,A,,3566MG,Utrecht,Utrecht,Utrecht,VBO,5.122906,52.120743
Gageldijk,83,B,,3566MG,Utrecht,Utrecht,Utrecht,VBO,5.122610,52.120854
Gageldijk,83,C,,3566MG,Utrecht,Utrecht,Utrecht,VBO,5.122011,52.121124
Gageldijk,83,,,3566MG,Utrecht,Utrecht,Utrecht,VBO,5.123210,52.120571
Gageldijk,84,A,,3566MG,Utrecht,Utrecht,Utrecht,VBO,5.120444,52.121671
Gageldijk,84,B,,3566MG,Utrecht,Utrecht,Utrecht,VBO,5.121085,52.121436
Gageldijk,84,,,3566MG,Utrecht,Utrecht,Utrecht,VBO,5.121658,52.121236
Gageldijk,85,,,3566MG,Utrecht,Utrecht,Utrecht,VBO,5.120234,52.121756
Gageldijk,86,A,,3566MG,Utrecht,Utrecht,Utrecht,VBO,5.118710,52.122408
Gageldijk,86,B,,3566MG,Utrecht,Utrecht,Utrecht,VBO,5.118687,52.122419
Gageldijk,86,,,3566MG,Utrecht,Utrecht,Utrecht,VBO,5.119699,52.121996
Gageldijk,87,A,,3566MG,Utrecht,Utrecht,Utrecht,VBO,5.121477,52.124841
Gageldijk,87,,,3566MG,Utrecht,Utrecht,Utrecht,VBO,5.121554,52.125126
Gageldijk,88,A,,3566MG,Utrecht,Utrecht,Utrecht,VBO,5.117727,52.122850
Gageldijk,88,B,,3566MG,Utrecht,Utrecht,Utrecht,VBO,5.117704,52.122860
Gageldijk,88,,,3566MG,Utrecht,Utrecht,Utrecht,VBO,5.118251,52.122633
Gageldijk,89,,,3566MG,Utrecht,Utrecht,Utrecht,VBO,5.116009,52.123699
Gageldijk,90,,,3566MG,Utrecht,Utrecht,Utrecht,VBO,5.115445,52.123958
Gageldijk,91,A,,3566MG,Utrecht,Utrecht,Utrecht,VBO,5.114206,52.124595
Gageldijk,91,,,3566MG,Utrecht,Utrecht,Utrecht,VBO,5.115327,52.124276
Gageldijk,92,A,,3566MG,Utrecht,Utrecht,Utrecht,VBO,5.114131,52.124864
Gageldijk,92,,,3566MG,Utrecht,Utrecht,Utrecht,VBO,5.113763,52.124948
Gageldijk,93,,,3566MG,Utrecht,Utrecht,Utrecht,VBO,5.113391,52.124973
Gageldijk,94,A,,3566MG,Utrecht,Utrecht,Utrecht,VBO,5.112731,52.125487
Gageldijk,94,,,3566MG,Utrecht,Utrecht,Utrecht,VBO,5.112578,52.125377
Gageldijk,95,A,,3566MG,Utrecht,Utrecht,Utrecht,VBO,5.111423,52.125835
Gageldijk,95,,,3566MG,Utrecht,Utrecht,Utrecht,VBO,5.111976,52.125511
Gageldijk,96,,,3566MH,Utrecht,Utrecht,Utrecht,VBO,5.111186,52.125890
Gageldijk,97,A,,3566MH,Utrecht,Utrecht,Utrecht,VBO,5.110309,52.126262
Gageldijk,97,,,3566MH,Utrecht,Utrecht,Utrecht,VBO,5.110604,52.126134
Gageldijk,98,,,3566MH,Utrecht,Utrecht,Utrecht,VBO,5.109882,52.126543
Gageldijk,99,,,3566MH,Utrecht,Utrecht,Utrecht,VBO,5.109784,52.126551
Gageldijk,100,A,,3566MH,Utrecht,Utrecht,Utrecht,VBO,5.108883,52.126860
Gageldijk,100,,,3566MH,Utrecht,Utrecht,Utrecht,VBO,5.109133,52.126754
Gageldijk,101,,,3566MH,Utrecht,Utrecht,Utrecht,VBO,5.108645,52.126960
Gageldijk,102,,,3566MH,Utrecht,Utrecht,Utrecht,VBO,5.108619,52.126971
Gageldijk,103,A,,3566MH,Utrecht,Utrecht,Utrecht,VBO,5.108785,52.128324
Gageldijk,103,B,,3566MH,Utrecht,Utrecht,Utrecht,VBO,5.108573,52.128461
Gageldijk,103,,,3566MH,Utrecht,Utrecht,Utrecht,VBO,5.108255,52.127108
Gageldijk,104,C,,3566MH,Utrecht,Utrecht,Utrecht,VBO,5.104993,52.128451
Gageldijk,104,,,3566MH,Utrecht,Utrecht,Utrecht,VBO,5.108155,52.128514
Gageldijk,106,,,3566MH,Utrecht,Utrecht,Utrecht,STA,5.103527,52.128651
Gageldijk,107,,,3566MH,Utrecht,Utrecht,Utrecht,STA,5.103291,52.128723
Gageldijk,161,,,3566MJ,Utrecht,Utrecht,Utrecht,VBO,5.102083,52.129090
Gageldijk,163,,,3566MJ,Utrecht,Utrecht,Utrecht,VBO,5.101766,52.129240
Gageldijk,165,,,3566MJ,Utrecht,Utrecht,Utrecht,VBO,5.102349,52.129387
Gageldijk,167,,,3566MJ,Utrecht,Utrecht,Utrecht,VBO,5.102418,52.129543
Gageldijk,169,,,3566MJ,Utrecht,Utrecht,Utrecht,VBO,5.103021,52.129425
Gageldijk,180,,,3566MJ,Utrecht,Utrecht,Utrecht,VBO,5.099610,52.130162
Gageldijk,182,,,3566MJ,Utrecht,Utrecht,Utrecht,VBO,5.099093,52.130240
Gageldijk,192,,,3566MJ,Utrecht,Utrecht,Utrecht,VBO,5.098070,52.130843
Gageldijk,194,,,3566MJ,Utrecht,Utrecht,Utrecht,VBO,5.097408,52.131017
Gageldijk,196,,,3566MJ,Utrecht,Utrecht,Utrecht,VBO,5.096944,52.131200
Gageldijk,200,,,3566MJ,Utrecht,Utrecht,Utrecht,VBO,5.095804,52.131688
Gageldijk,202,,,3566MJ,Utrecht,Utrecht,Utrecht,VBO,5.095351,52.131864
Gageldijk,203,,,3566MJ,Utrecht,Utrecht,Utrecht,VBO,5.094803,52.132212
Gageldijk,204,,,3566MJ,Utrecht,Utrecht,Utrecht,VBO,5.094046,52.132529
Gageldijk,205,A,,3566MJ,Utrecht,Utrecht,Utrecht,VBO,5.093123,52.132986
Gageldijk,207,,,3566MJ,Utrecht,Utrecht,Utrecht,VBO,5.092770,52.133091
Gageldijk,209,,,3566MJ,Utrecht,Utrecht,Utrecht,VBO,5.091707,52.133503
Gageldijk,211,,,3566MJ,Utrecht,Utrecht,Utrecht,VBO,5.091266,52.133679
Gageldijk,213,,,3566MJ,Utrecht,Utrecht,Utrecht,VBO,5.090517,52.133945
Gageldijk,215,,,3566MJ,Utrecht,Utrecht,Utrecht,VBO,5.090096,52.134101
Gageldijk,223,,,3566MJ,Utrecht,Utrecht,Utrecht,VBO,5.089598,52.134390
Gageldijk,225,,,3566MJ,Utrecht,Utrecht,Utrecht,VBO,5.089126,52.134480
Gageldijk,229,,,3566MJ,Utrecht,Utrecht,Utrecht,VBO,5.088175,52.134884
Gageldijk,233,,,3566MJ,Utrecht,Utrecht,Utrecht,VBO,5.087663,52.135131
Gageldijk,235,,,3566MJ,Utrecht,Utrecht,Utrecht,VBO,5.087093,52.135399
Kapelweg,1,,,3566MK,Utrecht,Utrecht,Utrecht,VBO,5.138945,52.114626
Kapelweg,2,A,,3566MK,Utrecht,Utrecht,Utrecht,VBO,5.138149,52.115542
Kapelweg,2,B,,3566MK,Utrecht,Utrecht,Utrecht,VBO,5.138194,52.115727
Kapelweg,2,,,3566MK,Utrecht,Utrecht,Utrecht,VBO,5.138023,52.115340
Kapelweg,3,,,3566MK,Utrecht,Utrecht,Utrecht,VBO,5.139225,52.114815
Kapelweg,4,,,3566MK,Utrecht,Utrecht,Utrecht,VBO,5.138365,52.115977
Kapelweg,5,,,3566MK,Utrecht,Utrecht,Utrecht,VBO,5.139402,52.114977
Kapelweg,6,B,,3566MK,Utrecht,Utrecht,Utrecht,VBO,5.137979,52.116070
Kapelweg,6,,,3566MK,Utrecht,Utrecht,Utrecht,VBO,5.138285,52.116059
Kapelweg,7,,,3566MK,Utrecht,Utrecht,Utrecht,VBO,5.138699,52.115219
Kapelweg,8,A,,3566MK,Utrecht,Utrecht,Utrecht,VBO,5.138573,52.116347
Kapelweg,8,,,3566MK,Utrecht,Utrecht,Utrecht,VBO,5.138521,52.116197
Kapelweg,9,,,3566MK,Utrecht,Utrecht,Utrecht,VBO,5.138882,52.114816
Kapelweg,10,,,3566MK,Utrecht,Utrecht,Utrecht,VBO,5.138655,52.116470
Kapelweg,11,,,3566MK,Utrecht,Utrecht,Utrecht,VBO,5.138686,52.115678
Kapelweg,25,,,3566MK,Utrecht,Utrecht,Utrecht,VBO,5.138851,52.115965
Kapelweg,29,,,3566MK,Utrecht,Utrecht,Utrecht,VBO,5.138887,52.116031
Kapelweg,31,A,,3566MK,Utrecht,Utrecht,Utrecht,VBO,5.139430,52.115988
Kapelweg,31,B,,3566MK,Utrecht,Utrecht,Utrecht,VBO,5.139440,52.116004
Kapelweg,31,,,3566MK,Utrecht,Utrecht,Utrecht,VBO,5.138897,52.116046
Kapelweg,33,,,3566MK,Utrecht,Utrecht,Utrecht,VBO,5.139429,52.116433
Bastionweg,2,,,3566ML,Utrecht,Utrecht,Utrecht,VBO,5.137705,52.114299
Voordorpsedijk,1,,,3566MN,Utrecht,Utrecht,Utrecht,VBO,5.142795,52.115791
Voordorpsedijk,2,,,3566MN,Utrecht,Utrecht,Utrecht,VBO,5.142308,52.114976
Voordorpsedijk,3,,,3566MN,Utrecht,Utrecht,Utrecht,VBO,5.142960,52.115201
Voordorpsedijk,4,,,3566MN,Utrecht,Utrecht,Utrecht,VBO,5.142293,52.114845
Voordorpsedijk,5,,,3566MN,Utrecht,Utrecht,Utrecht,VBO,5.143188,52.115203
Voordorpsedijk,6,A,,3566MN,Utrecht,Utrecht,Utrecht,VBO,5.145932,52.114141
Voordorpsedijk,6,,,3566MN,Utrecht,Utrecht,Utrecht,VBO,5.145905,52.114148
Voordorpsedijk,7,,,3566MN,Utrecht,Utrecht,Utrecht,VBO,5.143188,52.115203
Voordorpsedijk,8,,,3566MN,Utrecht,Utrecht,Utrecht,VBO,5.146539,52.114007
Voordorpsedijk,9,,,3566MN,Utrecht,Utrecht,Utrecht,VBO,5.146384,52.114410
Voordorpsedijk,10,,,3566MN,Utrecht,Utrecht,Utrecht,VBO,5.146900,52.113929
Voordorpsedijk,11,,,3566MN,Utrecht,Utrecht,Utrecht,VBO,5.146647,52.114379
Voordorpsedijk,12,,,3566MN,Utrecht,Utrecht,Utrecht,VBO,5.147153,52.113879
Voordorpsedijk,13,,,3566MN,Utrecht,Utrecht,Utrecht,VBO,5.146674,52.114373
Voordorpsedijk,15,,,3566MN,Utrecht,Utrecht,Utrecht,VBO,5.146731,52.114360
Voordorpsedijk,17,,,3566MN,Utrecht,Utrecht,Utrecht,VBO,5.146789,52.114346
Kapeldwarsweg,3,,,3566MP,Utrecht,Utrecht,Utrecht,VBO,5.138797,52.115641
Kapeldwarsweg,4,,,3566MP,Utrecht,Utrecht,Utrecht,VBO,5.139214,52.115819
Kapeldwarsweg,5,,,3566MP,Utrecht,Utrecht,Utrecht,VBO,5.138790,52.115628
Kapeldwarsweg,6,,,3566MP,Utrecht,Utrecht,Utrecht,VBO,5.139242,52.115813
Kapeldwarsweg,8,,,3566MP,Utrecht,Utrecht,Utrecht,VBO,5.139380,52.115787
Kapeldwarsweg,10,,,3566MP,Utrecht,Utrecht,Utrecht,VBO,5.139614,52.115716
Kapeldwarsweg,12,,,3566MP,Utrecht,Utrecht,Utrecht,VBO,5.139813,52.115844
Kapeldwarsweg,13,,,3566MP,Utrecht,Utrecht,Utrecht,VBO,5.139123,52.115425
Kapeldwarsweg,14,,,3566MP,Utrecht,Utrecht,Utrecht,VBO,5.139863,52.115941
Kapeldwarsweg,15,,,3566MP,Utrecht,Utrecht,Utrecht,VBO,5.139357,52.115358
Kapeldwarsweg,16,,,3566MP,Utrecht,Utrecht,Utrecht,VBO,5.139871,52.115958
Kapeldwarsweg,17,,,3566MP,Utrecht,Utrecht,Utrecht,VBO,5.139404,52.115371
Kapeldwarsweg,18,A,,3566MP,Utrecht,Utrecht,Utrecht,VBO,5.140525,52.116145
Kapeldwarsweg,18,B,,3566MP,Utrecht,Utrecht,Utrecht,VBO,5.140345,52.116196
Kapeldwarsweg,18,C,,3566MP,Utrecht,Utrecht,Utrecht,VBO,5.140182,52.116228
Kapeldwarsweg,18,,,3566MP,Utrecht,Utrecht,Utrecht,VBO,5.140610,52.116127
Kapeldwarsweg,19,,,3566MP,Utrecht,Utrecht,Utrecht,VBO,5.139430,52.115366
Kapeldwarsweg,21,,,3566MP,Utrecht,Utrecht,Utrecht,VBO,5.139509,52.115475
Kapeldwarsweg,23,,,3566MP,Utrecht,Utrecht,Utrecht,VBO,5.139988,52.115704
Kapeldwarsweg,25,,,3566MP,Utrecht,Utrecht,Utrecht,VBO,5.140037,52.115802
Kapeldwarsweg,27,,,3566MP,Utrecht,Utrecht,Utrecht,VBO,5.140086,52.115900
Kapeldwarsweg,29,,,3566MP,Utrecht,Utrecht,Utrecht,VBO,5.140095,52.115917
Huis te Veenweg,3,,,3566MR,Utrecht,Utrecht,Utrecht,VBO,5.137848,52.115843
Huis te Veenweg,5,,,3566MR,Utrecht,Utrecht,Utrecht,VBO,5.137528,52.115963
