openbareruimtenaam,huisnummer,huisletter,huisnummertoevoeging,postcode,woonplaatsnaam,gemeentenaam,provincienaam,typeadresseerbaarobject,longitude,latitude
Groenekanseweg,33,,,3732AA,De Bilt,De Bilt,Utrecht,VBO,5.189185,52.112664
Groenekanseweg,35,,,3732AA,De Bilt,De Bilt,Utrecht,VBO,5.188894,52.112735
Groenekanseweg,37,,,3732AA,De Bilt,De Bilt,Utrecht,VBO,5.188573,52.112789
Groenekanseweg,39,,,3732AA,De Bilt,De Bilt,Utrecht,VBO,5.188237,52.112860
Groenekanseweg,41,,,3732AA,De Bilt,De Bilt,Utrecht,VBO,5.187843,52.112698
Groenekanseweg,51,A,,3732AA,De Bilt,De Bilt,Utrecht,VBO,5.187710,52.112998
Groenekanseweg,51,,,3732AA,De Bilt,De Bilt,Utrecht,VBO,5.187552,52.112860
Groenekanseweg,61,A,,3732AA,De Bilt,De Bilt,Utrecht,VBO,5.186416,52.113296
Groenekanseweg,61,,,3732AA,De Bilt,De Bilt,Utrecht,VBO,5.186556,52.113253
Groenekanseweg,63,,,3732AB,De Bilt,De Bilt,Utrecht,VBO,5.186133,52.113162
Groenekanseweg,65,,,3732AB,De Bilt,De Bilt,Utrecht,VBO,5.185972,52.113396
Groenekanseweg,69,,,3732AB,De Bilt,De Bilt,Utrecht,VBO,5.185838,52.113440
Groenekanseweg,71,,,3732AB,De Bilt,De Bilt,Utrecht,VBO,5.185752,52.113458
Groenekanseweg,73,,,3732AB,De Bilt,De Bilt,Utrecht,VBO,5.185650,52.113476
Groenekanseweg,75,,,3732AB,De Bilt,De Bilt,Utrecht,VBO,5.185168,52.113592
Groenekanseweg,77,,,3732AB,De Bilt,De Bilt,Utrecht,VBO,5.185095,52.113610
Groenekanseweg,79,,,3732AB,De Bilt,De Bilt,Utrecht,VBO,5.185007,52.113637
Groenekanseweg,81,,,3732AB,De Bilt,De Bilt,Utrecht,VBO,5.184832,52.113663
Groenekanseweg,83,,,3732AB,De Bilt,De Bilt,Utrecht,VBO,5.184773,52.113681
Groenekanseweg,85,,,3732AB,De Bilt,De Bilt,Utrecht,VBO,5.184686,52.113708
Groenekanseweg,87,,,3732AB,De Bilt,De Bilt,Utrecht,VBO,5.184613,52.113726
Groenekanseweg,89,,,3732AB,De Bilt,De Bilt,Utrecht,VBO,5.184539,52.113744
Groenekanseweg,2,A,,3732AG,De Bilt,De Bilt,Utrecht,VBO,5.190572,52.113008
Groenekanseweg,2,B,,3732AG,De Bilt,De Bilt,Utrecht,VBO,5.190567,52.113060
Groenekanseweg,2,,,3732AG,De Bilt,De Bilt,Utrecht,VBO,5.190588,52.112792
Groenekanseweg,4,,,3732AG,De Bilt,De Bilt,Utrecht,VBO,5.190237,52.112899
Groenekanseweg,8,,,3732AG,De Bilt,De Bilt,Utrecht,VBO,5.189565,52.113069
Groenekanseweg,10,,,3732AG,De Bilt,De Bilt,Utrecht,VBO,5.189258,52.113149
Groenekanseweg,12,,,3732AG,De Bilt,De Bilt,Utrecht,VBO,5.189155,52.113176
Groenekanseweg,14,,,3732AG,De Bilt,De Bilt,Utrecht,VBO,5.189038,52.113203
Groenekanseweg,16,,,3732AG,De Bilt,De Bilt,Utrecht,VBO,5.188921,52.113221
Groenekanseweg,18,,,3732AG,De Bilt,De Bilt,Utrecht,VBO,5.188731,52.113292
Groenekanseweg,20,,,3732AG,De Bilt,De Bilt,Utrecht,VBO,5.188614,52.113319
Groenekanseweg,22,,,3732AG,De Bilt,De Bilt,Utrecht,VBO,5.188424,52.113373
Groenekanseweg,52,,,3732AG,De Bilt,De Bilt,Utrecht,VBO,5.188147,52.113408
Groenekanseweg,54,,,3732AG,De Bilt,De Bilt,Utrecht,VBO,5.187825,52.113534
Groenekanseweg,56,,,3732AG,De Bilt,De Bilt,Utrecht,VBO,5.187080,52.113626
Groenekanseweg,58,,,3732AG,De Bilt,De Bilt,Utrecht,VBO,5.186913,52.113662
Groenekanseweg,60,,,3732AG,De Bilt,De Bilt,Utrecht,VBO,5.186671,52.113684
Groenekanseweg,62,,,3732AG,De Bilt,De Bilt,Utrecht,VBO,5.186540,52.113738
Groenekanseweg,64,,,3732AG,De Bilt,De Bilt,Utrecht,VBO,5.186406,52.113796
Groenekanseweg,66,A,,3732AG,De Bilt,De Bilt,Utrecht,VBO,5.186625,52.114161
Groenekanseweg,66,,,3732AG,De Bilt,De Bilt,Utrecht,VBO,5.186322,52.113811
Groenekanseweg,70,,,3732AG,De Bilt,De Bilt,Utrecht,VBO,5.185956,52.114000
Groenekanseweg,72,,,3732AH,De Bilt,De Bilt,Utrecht,VBO,5.185093,52.114077
Groenekanseweg,74,,,3732AH,De Bilt,De Bilt,Utrecht,VBO,5.185005,52.114095
Groenekanseweg,76,,,3732AH,De Bilt,De Bilt,Utrecht,VBO,5.184932,52.114113
Groenekanseweg,78,,,3732AH,De Bilt,De Bilt,Utrecht,VBO,5.184859,52.114122
Groenekanseweg,80,A,,3732AH,De Bilt,De Bilt,Utrecht,VBO,5.184698,52.114157
Groenekanseweg,80,B,,3732AH,De Bilt,De Bilt,Utrecht,VBO,5.184625,52.114175
Groenekanseweg,80,C,,3732AH,De Bilt,De Bilt,Utrecht,VBO,5.184537,52.114193
Groenekanseweg,80,D,,3732AH,De Bilt,De Bilt,Utrecht,VBO,5.184479,52.114220
Groenekanseweg,80,,,3732AH,De Bilt,De Bilt,Utrecht,VBO,5.184786,52.114140
Groenekanseweg,82,,1,3732AH,De Bilt,De Bilt,Utrecht,VBO,5.184373,52.114198
Groenekanseweg,82,,2,3732AH,De Bilt,De Bilt,Utrecht,VBO,5.184318,52.114238
Groenekanseweg,82,,3,3732AH,De Bilt,De Bilt,Utrecht,VBO,5.184400,52.114261
Groenekanseweg,84,,1,3732AH,De Bilt,De Bilt,Utrecht,VBO,5.184220,52.114229
Groenekanseweg,84,,2,3732AH,De Bilt,De Bilt,Utrecht,VBO,5.184172,52.114273
Groenekanseweg,84,,3,3732AH,De Bilt,De Bilt,Utrecht,VBO,5.184270,52.114290
Runnebeek,1,,,3732AJ,De Bilt,De Bilt,Utrecht,VBO,5.184994,52.113277
Runnebeek,2,,,3732AJ,De Bilt,De Bilt,Utrecht,VBO,5.185418,52.113170
Runnebeek,3,,,3732AJ,De Bilt,De Bilt,Utrecht,VBO,5.185038,52.113340
Runnebeek,4,,,3732AJ,De Bilt,De Bilt,Utrecht,VBO,5.185461,52.113233
Runnebeek,5,,,3732AJ,De Bilt,De Bilt,Utrecht,VBO,5.185081,52.113385
Runnebeek,6,,,3732AJ,De Bilt,De Bilt,Utrecht,VBO,5.185505,52.113278
Runnebeek,7,,,3732AJ,De Bilt,De Bilt,Utrecht,VBO,5.185110,52.113439
Runnebeek,8,,,3732AJ,De Bilt,De Bilt,Utrecht,VBO,5.185534,52.113332
De Mamuchetweg,1,,,3732AK,De Bilt,De Bilt,Utrecht,VBO,5.188940,52.112250
De Mamuchetweg,3,,,3732AK,De Bilt,De Bilt,Utrecht,VBO,5.188867,52.112268
De Mamuchetweg,5,,,3732AK,De Bilt,De Bilt,Utrecht,VBO,5.188780,52.112286
De Mamuchetweg,7,,,3732AK,De Bilt,De Bilt,Utrecht,VBO,5.188677,52.112313
De Mamuchetweg,9,,,3732AK,De Bilt,De Bilt,Utrecht,VBO,5.188531,52.112348
De Mamuchetweg,11,,,3732AK,De Bilt,De Bilt,Utrecht,VBO,5.188443,52.112375
De Mamuchetweg,13,,,3732AK,De Bilt,De Bilt,Utrecht,VBO,5.188356,52.112393
De Mamuchetweg,15,,,3732AK,De Bilt,De Bilt,Utrecht,VBO,5.188283,52.112420
De Mamuchetweg,16,,,3732AK,De Bilt,De Bilt,Utrecht,VBO,5.187946,52.112671
De Mamuchetweg,17,,,3732AK,De Bilt,De Bilt,Utrecht,VBO,5.188195,52.112438
De Mamuchetweg,18,,,3732AK,De Bilt,De Bilt,Utrecht,VBO,5.187859,52.112581
De Mamuchetweg,20,,,3732AK,De Bilt,De Bilt,Utrecht,VBO,5.187800,52.112536
De Mamuchetweg,22,,,3732AK,De Bilt,De Bilt,Utrecht,VBO,5.187757,52.112491
De Mamuchetweg,24,,,3732AK,De Bilt,De Bilt,Utrecht,VBO,5.187699,52.112437
Abt Ludolfweg,1,,GB1,3732AL,De Bilt,De Bilt,Utrecht,VBO,5.188280,52.111882
Abt Ludolfweg,1,,GB10,3732AL,De Bilt,De Bilt,Utrecht,VBO,5.187405,52.112079
Abt Ludolfweg,1,,GB11,3732AL,De Bilt,De Bilt,Utrecht,VBO,5.187319,52.112102
Abt Ludolfweg,1,,GB12,3732AL,De Bilt,De Bilt,Utrecht,VBO,5.187203,52.112098
Abt Ludolfweg,1,,GB13,3732AL,De Bilt,De Bilt,Utrecht,VBO,5.187103,52.112122
Abt Ludolfweg,1,,GB14,3732AL,De Bilt,De Bilt,Utrecht,VBO,5.187012,52.112146
Abt Ludolfweg,1,,GB15,3732AL,De Bilt,De Bilt,Utrecht,VBO,5.186916,52.112170
Abt Ludolfweg,1,,GB16,3732AL,De Bilt,De Bilt,Utrecht,VBO,5.186821,52.112198
Abt Ludolfweg,1,,GB17,3732AL,De Bilt,De Bilt,Utrecht,VBO,5.186723,52.112220
Abt Ludolfweg,1,,GB18,3732AL,De Bilt,De Bilt,Utrecht,VBO,5.186632,52.112244
Abt Ludolfweg,1,,GB2,3732AL,De Bilt,De Bilt,Utrecht,VBO,5.188182,52.111904
Abt Ludolfweg,1,,GB3,3732AL,De Bilt,De Bilt,Utrecht,VBO,5.188097,52.111925
Abt Ludolfweg,1,,GB4,3732AL,De Bilt,De Bilt,Utrecht,VBO,5.187996,52.111954
Abt Ludolfweg,1,,GB5,3732AL,De Bilt,De Bilt,Utrecht,VBO,5.187896,52.111978
Abt Ludolfweg,1,,GB6,3732AL,De Bilt,De Bilt,Utrecht,VBO,5.187784,52.111979
Abt Ludolfweg,1,,GB7,3732AL,De Bilt,De Bilt,Utrecht,VBO,5.187689,52.112003
Abt Ludolfweg,1,,GB8,3732AL,De Bilt,De Bilt,Utrecht,VBO,5.187596,52.112029
Abt Ludolfweg,1,,GB9,3732AL,De Bilt,De Bilt,Utrecht,VBO,5.187500,52.112051
Abt Ludolfweg,1,,,3732AL,De Bilt,De Bilt,Utrecht,VBO,5.188299,52.111850
Abt Ludolfweg,3,,,3732AL,De Bilt,De Bilt,Utrecht,VBO,5.188262,52.111834
Abt Ludolfweg,5,,,3732AL,De Bilt,De Bilt,Utrecht,VBO,5.188217,52.111817
Abt Ludolfweg,7,,,3732AL,De Bilt,De Bilt,Utrecht,VBO,5.188200,52.111876
Abt Ludolfweg,9,,,3732AL,De Bilt,De Bilt,Utrecht,VBO,5.188157,52.111862
Abt Ludolfweg,11,,,3732AL,De Bilt,De Bilt,Utrecht,VBO,5.188110,52.111838
Abt Ludolfweg,13,,,3732AL,De Bilt,De Bilt,Utrecht,VBO,5.188099,52.111896
Abt Ludolfweg,15,,,3732AL,De Bilt,De Bilt,Utrecht,VBO,5.188057,52.111881
Abt Ludolfweg,17,,,3732AL,De Bilt,De Bilt,Utrecht,VBO,5.188015,52.111861
Abt Ludolfweg,19,,,3732AL,De Bilt,De Bilt,Utrecht,VBO,5.188011,52.111925
Abt Ludolfweg,21,,,3732AL,De Bilt,De Bilt,Utrecht,VBO,5.187973,52.111903
Abt Ludolfweg,23,,,3732AL,De Bilt,De Bilt,Utrecht,VBO,5.187928,52.111880
Abt Ludolfweg,25,,,3732AL,De Bilt,De Bilt,Utrecht,VBO,5.187916,52.111949
Abt Ludolfweg,27,,,3732AL,De Bilt,De Bilt,Utrecht,VBO,5.187875,52.111929
Abt Ludolfweg,29,,,3732AL,De Bilt,De Bilt,Utrecht,VBO,5.187828,52.111911
Abt Ludolfweg,31,,,3732AL,De Bilt,De Bilt,Utrecht,VBO,5.187804,52.111957
Abt Ludolfweg,33,,,3732AL,De Bilt,De Bilt,Utrecht,VBO,5.187767,52.111936
Abt Ludolfweg,35,,,3732AL,De Bilt,De Bilt,Utrecht,VBO,5.187723,52.111913
Abt Ludolfweg,37,,,3732AL,De Bilt,De Bilt,Utrecht,VBO,5.187715,52.111978
Abt Ludolfweg,39,,,3732AL,De Bilt,De Bilt,Utrecht,VBO,5.187673,52.111960
Abt Ludolfweg,41,,,3732AL,De Bilt,De Bilt,Utrecht,VBO,5.187630,52.111937
Abt Ludolfweg,43,,,3732AM,De Bilt,De Bilt,Utrecht,VBO,5.187615,52.112001
Abt Ludolfweg,45,,,3732AM,De Bilt,De Bilt,Utrecht,VBO,5.187576,52.111979
Abt Ludolfweg,47,,,3732AM,De Bilt,De Bilt,Utrecht,VBO,5.187528,52.111959
Abt Ludolfweg,49,,,3732AM,De Bilt,De Bilt,Utrecht,VBO,5.187524,52.112029
Abt Ludolfweg,51,,,3732AM,De Bilt,De Bilt,Utrecht,VBO,5.187461,52.112016
Abt Ludolfweg,53,,,3732AM,De Bilt,De Bilt,Utrecht,VBO,5.187464,52.111977
Abt Ludolfweg,55,,,3732AM,De Bilt,De Bilt,Utrecht,VBO,5.187418,52.112049
Abt Ludolfweg,57,,,3732AM,De Bilt,De Bilt,Utrecht,VBO,5.187378,52.112024
Abt Ludolfweg,59,,,3732AM,De Bilt,De Bilt,Utrecht,VBO,5.187337,52.112003
Abt Ludolfweg,61,,,3732AM,De Bilt,De Bilt,Utrecht,VBO,5.187324,52.112073
Abt Ludolfweg,63,,,3732AM,De Bilt,De Bilt,Utrecht,VBO,5.187289,52.112052
Abt Ludolfweg,65,,,3732AM,De Bilt,De Bilt,Utrecht,VBO,5.187254,52.112028
Abt Ludolfweg,67,,,3732AM,De Bilt,De Bilt,Utrecht,VBO,5.187216,52.112068
Abt Ludolfweg,69,,,3732AM,De Bilt,De Bilt,Utrecht,VBO,5.187181,52.112047
Abt Ludolfweg,71,,,3732AM,De Bilt,De Bilt,Utrecht,VBO,5.187135,52.112030
Abt Ludolfweg,73,,,3732AM,De Bilt,De Bilt,Utrecht,VBO,5.187122,52.112091
Abt Ludolfweg,75,,,3732AM,De Bilt,De Bilt,Utrecht,VBO,5.187077,52.112074
Abt Ludolfweg,77,,,3732AM,De Bilt,De Bilt,Utrecht,VBO,5.187033,52.112051
Abt Ludolfweg,79,,,3732AM,De Bilt,De Bilt,Utrecht,VBO,5.187023,52.112117
Abt Ludolfweg,81,,,3732AM,De Bilt,De Bilt,Utrecht,VBO,5.186985,52.112098
Abt Ludolfweg,83,,,3732AM,De Bilt,De Bilt,Utrecht,VBO,5.186936,52.112079
Abt Ludolfweg,85,,,3732AN,De Bilt,De Bilt,Utrecht,VBO,5.186933,52.112143
Abt Ludolfweg,87,,,3732AN,De Bilt,De Bilt,Utrecht,VBO,5.186890,52.112122
Abt Ludolfweg,89,,,3732AN,De Bilt,De Bilt,Utrecht,VBO,5.186842,52.112099
Abt Ludolfweg,91,,,3732AN,De Bilt,De Bilt,Utrecht,VBO,5.186833,52.112167
Abt Ludolfweg,93,,,3732AN,De Bilt,De Bilt,Utrecht,VBO,5.186794,52.112146
Abt Ludolfweg,95,,,3732AN,De Bilt,De Bilt,Utrecht,VBO,5.186751,52.112126
Abt Ludolfweg,97,,,3732AN,De Bilt,De Bilt,Utrecht,VBO,5.186738,52.112191
Abt Ludolfweg,99,,,3732AN,De Bilt,De Bilt,Utrecht,VBO,5.186694,52.112172
Abt Ludolfweg,101,,,3732AN,De Bilt,De Bilt,Utrecht,VBO,5.186651,52.112151
Abt Ludolfweg,103,,,3732AN,De Bilt,De Bilt,Utrecht,VBO,5.186638,52.112214
Abt Ludolfweg,105,,,3732AN,De Bilt,De Bilt,Utrecht,VBO,5.186594,52.112192
Abt Ludolfweg,107,,,3732AN,De Bilt,De Bilt,Utrecht,VBO,5.186547,52.112174
Abt Ludolfweg,109,,,3732AN,De Bilt,De Bilt,Utrecht,VBO,5.185042,52.112387
Abt Ludolfweg,111,,,3732AN,De Bilt,De Bilt,Utrecht,VBO,5.184266,52.112862
Abt Ludolfweg,113,,,3732AN,De Bilt,De Bilt,Utrecht,VBO,5.184178,52.112880
Abt Ludolfweg,115,,,3732AN,De Bilt,De Bilt,Utrecht,VBO,5.184091,52.112898
Abt Ludolfweg,117,,,3732AN,De Bilt,De Bilt,Utrecht,VBO,5.184003,52.112925
Abt Ludolfweg,2,,,3732AP,De Bilt,De Bilt,Utrecht,VBO,5.187465,52.112463
Abt Ludolfweg,4,,,3732AP,De Bilt,De Bilt,Utrecht,VBO,5.187377,52.112481
Abt Ludolfweg,6,,,3732AP,De Bilt,De Bilt,Utrecht,VBO,5.187304,52.112508
Abt Ludolfweg,8,,,3732AP,De Bilt,De Bilt,Utrecht,VBO,5.187217,52.112526
Abt Ludolfweg,10,,,3732AP,De Bilt,De Bilt,Utrecht,VBO,5.187129,52.112544
Abt Ludolfweg,12,,,3732AP,De Bilt,De Bilt,Utrecht,VBO,5.187056,52.112562
Abt Ludolfweg,14,,,3732AP,De Bilt,De Bilt,Utrecht,VBO,5.186953,52.112588
Abt Ludolfweg,30,,,3732AP,De Bilt,De Bilt,Utrecht,VBO,5.186323,52.112757
Abt Ludolfweg,32,,,3732AP,De Bilt,De Bilt,Utrecht,VBO,5.186370,52.112781
Abt Ludolfweg,34,,,3732AP,De Bilt,De Bilt,Utrecht,VBO,5.186434,52.112767
Abt Ludolfweg,36,,,3732AP,De Bilt,De Bilt,Utrecht,VBO,5.186426,52.112732
Abt Ludolfweg,38,,,3732AP,De Bilt,De Bilt,Utrecht,VBO,5.186405,52.112695
Abt Ludolfweg,40,,,3732AP,De Bilt,De Bilt,Utrecht,VBO,5.186343,52.112707
Abt Ludolfweg,42,,,3732AP,De Bilt,De Bilt,Utrecht,VBO,5.186272,52.112722
Abt Ludolfweg,44,,,3732AP,De Bilt,De Bilt,Utrecht,VBO,5.186158,52.112797
Abt Ludolfweg,46,,,3732AP,De Bilt,De Bilt,Utrecht,VBO,5.186182,52.112831
Abt Ludolfweg,48,,,3732AP,De Bilt,De Bilt,Utrecht,VBO,5.186241,52.112809
Abt Ludolfweg,50,,,3732AP,De Bilt,De Bilt,Utrecht,VBO,5.186226,52.112779
Abt Ludolfweg,52,,,3732AP,De Bilt,De Bilt,Utrecht,VBO,5.186210,52.112741
Abt Ludolfweg,54,,,3732AP,De Bilt,De Bilt,Utrecht,VBO,5.186150,52.112758
Abt Ludolfweg,56,,,3732AP,De Bilt,De Bilt,Utrecht,VBO,5.186081,52.112769
Abt Ludolfweg,58,,,3732AR,De Bilt,De Bilt,Utrecht,VBO,5.185970,52.112881
Abt Ludolfweg,60,,,3732AR,De Bilt,De Bilt,Utrecht,VBO,5.186045,52.112867
Abt Ludolfweg,62,,,3732AR,De Bilt,De Bilt,Utrecht,VBO,5.186031,52.112832
Abt Ludolfweg,64,,,3732AR,De Bilt,De Bilt,Utrecht,VBO,5.186004,52.112793
Abt Ludolfweg,66,,,3732AR,De Bilt,De Bilt,Utrecht,VBO,5.185956,52.112805
Abt Ludolfweg,68,,,3732AR,De Bilt,De Bilt,Utrecht,VBO,5.185900,52.112813
Abt Ludolfweg,70,,,3732AR,De Bilt,De Bilt,Utrecht,VBO,5.185946,52.112843
Abt Ludolfweg,72,,,3732AR,De Bilt,De Bilt,Utrecht,VBO,5.185765,52.112936
Abt Ludolfweg,74,,,3732AR,De Bilt,De Bilt,Utrecht,VBO,5.185837,52.112916
Abt Ludolfweg,76,,,3732AR,De Bilt,De Bilt,Utrecht,VBO,5.185813,52.112881
Abt Ludolfweg,78,,,3732AR,De Bilt,De Bilt,Utrecht,VBO,5.185804,52.112847
Abt Ludolfweg,80,,,3732AR,De Bilt,De Bilt,Utrecht,VBO,5.185742,52.112855
Abt Ludolfweg,82,,,3732AR,De Bilt,De Bilt,Utrecht,VBO,5.185680,52.112872
Abt Ludolfweg,84,,,3732AR,De Bilt,De Bilt,Utrecht,VBO,5.185719,52.112909
Abt Ludolfweg,86,,,3732AS,De Bilt,De Bilt,Utrecht,VBO,5.185463,52.112929
Abt Ludolfweg,88,,,3732AS,De Bilt,De Bilt,Utrecht,VBO,5.185524,52.112915
Abt Ludolfweg,90,,,3732AS,De Bilt,De Bilt,Utrecht,VBO,5.185592,52.112897
Abt Ludolfweg,92,,,3732AS,De Bilt,De Bilt,Utrecht,VBO,5.185484,52.112961
Abt Ludolfweg,94,,,3732AS,De Bilt,De Bilt,Utrecht,VBO,5.185540,52.112950
Abt Ludolfweg,96,,,3732AS,De Bilt,De Bilt,Utrecht,VBO,5.185534,52.112987
Abt Ludolfweg,98,,,3732AS,De Bilt,De Bilt,Utrecht,VBO,5.185589,52.112958
Abt Ludolfweg,100,,,3732AS,De Bilt,De Bilt,Utrecht,VBO,5.185407,52.112943
Abt Ludolfweg,102,,,3732AS,De Bilt,De Bilt,Utrecht,VBO,5.185351,52.112958
Abt Ludolfweg,104,,,3732AS,De Bilt,De Bilt,Utrecht,VBO,5.185291,52.112976
Abt Ludolfweg,106,,,3732AS,De Bilt,De Bilt,Utrecht,VBO,5.185436,52.112978
Abt Ludolfweg,108,,,3732AS,De Bilt,De Bilt,Utrecht,VBO,5.185299,52.113007
Abt Ludolfweg,110,,,3732AS,De Bilt,De Bilt,Utrecht,VBO,5.185324,52.113044
Abt Ludolfweg,112,,,3732AS,De Bilt,De Bilt,Utrecht,VBO,5.185381,52.113019
Abt Ludolfweg,114,,,3732AS,De Bilt,De Bilt,Utrecht,VBO,5.184885,52.113052
Abt Ludolfweg,116,,,3732AS,De Bilt,De Bilt,Utrecht,VBO,5.184819,52.113070
Abt Ludolfweg,118,,,3732AS,De Bilt,De Bilt,Utrecht,VBO,5.184752,52.113085
Abt Ludolfweg,120,,,3732AS,De Bilt,De Bilt,Utrecht,VBO,5.184906,52.113092
Abt Ludolfweg,122,,,3732AS,De Bilt,De Bilt,Utrecht,VBO,5.184914,52.113128
Abt Ludolfweg,124,,,3732AS,De Bilt,De Bilt,Utrecht,VBO,5.184804,52.113149
Abt Ludolfweg,126,,,3732AS,De Bilt,De Bilt,Utrecht,VBO,5.184834,52.113114
Abt Ludolfweg,128,,,3732AT,De Bilt,De Bilt,Utrecht,VBO,5.184686,52.113102
Abt Ludolfweg,130,,,3732AT,De Bilt,De Bilt,Utrecht,VBO,5.184626,52.113118
Abt Ludolfweg,132,,,3732AT,De Bilt,De Bilt,Utrecht,VBO,5.184563,52.113133
Abt Ludolfweg,134,,,3732AT,De Bilt,De Bilt,Utrecht,VBO,5.184713,52.113135
Abt Ludolfweg,136,,,3732AT,De Bilt,De Bilt,Utrecht,VBO,5.184641,52.113155
Abt Ludolfweg,138,,,3732AT,De Bilt,De Bilt,Utrecht,VBO,5.184717,52.113173
Abt Ludolfweg,140,,,3732AT,De Bilt,De Bilt,Utrecht,VBO,5.184617,52.113194
Abt Ludolfweg,142,,,3732AT,De Bilt,De Bilt,Utrecht,VBO,5.184495,52.113152
Abt Ludolfweg,144,,,3732AT,De Bilt,De Bilt,Utrecht,VBO,5.184434,52.113166
Abt Ludolfweg,146,,,3732AT,De Bilt,De Bilt,Utrecht,VBO,5.184372,52.113184
Abt Ludolfweg,148,,,3732AT,De Bilt,De Bilt,Utrecht,VBO,5.184517,52.113193
Abt Ludolfweg,150,,,3732AT,De Bilt,De Bilt,Utrecht,VBO,5.184443,52.113211
Abt Ludolfweg,152,,,3732AT,De Bilt,De Bilt,Utrecht,VBO,5.184511,52.113230
Abt Ludolfweg,154,,,3732AT,De Bilt,De Bilt,Utrecht,VBO,5.184419,52.113251
Abt Ludolfweg,156,,,3732AT,De Bilt,De Bilt,Utrecht,VBO,5.184301,52.113198
Abt Ludolfweg,158,,,3732AT,De Bilt,De Bilt,Utrecht,VBO,5.184237,52.113215
Abt Ludolfweg,160,,,3732AT,De Bilt,De Bilt,Utrecht,VBO,5.184171,52.113230
Abt Ludolfweg,162,,,3732AT,De Bilt,De Bilt,Utrecht,VBO,5.184317,52.113239
Abt Ludolfweg,164,,,3732AT,De Bilt,De Bilt,Utrecht,VBO,5.184267,52.113253
Abt Ludolfweg,166,,,3732AT,De Bilt,De Bilt,Utrecht,VBO,5.184338,52.113271
Abt Ludolfweg,168,,,3732AT,De Bilt,De Bilt,Utrecht,VBO,5.184216,52.113300
Sint Laurensweg,1,,,3732BA,De Bilt,De Bilt,Utrecht,VBO,5.185833,52.111724
Sint Laurensweg,2,,,3732BA,De Bilt,De Bilt,Utrecht,VBO,5.186300,52.111805
Sint Laurensweg,3,,,3732BA,De Bilt,De Bilt,Utrecht,VBO,5.185877,52.111769
Sint Laurensweg,4,,,3732BA,De Bilt,De Bilt,Utrecht,VBO,5.186344,52.111859
Sint Laurensweg,5,,,3732BA,De Bilt,De Bilt,Utrecht,VBO,5.185906,52.111823
Sint Laurensweg,6,,,3732BA,De Bilt,De Bilt,Utrecht,VBO,5.186373,52.111904
Sint Laurensweg,7,,,3732BA,De Bilt,De Bilt,Utrecht,VBO,5.185935,52.111868
Sint Laurensweg,8,,,3732BA,De Bilt,De Bilt,Utrecht,VBO,5.186402,52.111949
Sint Laurensweg,9,,,3732BA,De Bilt,De Bilt,Utrecht,VBO,5.185964,52.111913
Sint Laurensweg,10,,,3732BA,De Bilt,De Bilt,Utrecht,VBO,5.186431,52.111994
Sint Laurensweg,11,,,3732BA,De Bilt,De Bilt,Utrecht,VBO,5.185863,52.112247
Sint Laurensweg,13,,,3732BA,De Bilt,De Bilt,Utrecht,VBO,5.185893,52.112344
Sint Laurensweg,15,,,3732BA,De Bilt,De Bilt,Utrecht,VBO,5.185725,52.112355
Sint Laurensweg,17,,GB1,3732BA,De Bilt,De Bilt,Utrecht,VBO,5.186586,52.112853
Sint Laurensweg,17,,GB2,3732BA,De Bilt,De Bilt,Utrecht,VBO,5.186573,52.112831
Sint Laurensweg,17,,GB3,3732BA,De Bilt,De Bilt,Utrecht,VBO,5.186559,52.112803
Sint Laurensweg,17,,GB4,3732BA,De Bilt,De Bilt,Utrecht,VBO,5.186538,52.112782
Sint Laurensweg,17,,GB5,3732BA,De Bilt,De Bilt,Utrecht,VBO,5.186521,52.112756
Sint Laurensweg,17,,GB6,3732BA,De Bilt,De Bilt,Utrecht,VBO,5.186508,52.112736
Sint Laurensweg,17,,GB7,3732BA,De Bilt,De Bilt,Utrecht,VBO,5.186491,52.112709
Sint Laurensweg,17,,GB8,3732BA,De Bilt,De Bilt,Utrecht,VBO,5.186475,52.112685
Sint Laurensweg,17,,,3732BA,De Bilt,De Bilt,Utrecht,VBO,5.186689,52.112893
Sint Laurensweg,19,,,3732BA,De Bilt,De Bilt,Utrecht,VBO,5.186733,52.112956
Sint Laurensweg,21,,,3732BA,De Bilt,De Bilt,Utrecht,VBO,5.186762,52.113001
Sint Laurensweg,23,,,3732BA,De Bilt,De Bilt,Utrecht,VBO,5.186791,52.113055
Sint Laurensweg,25,,,3732BA,De Bilt,De Bilt,Utrecht,VBO,5.186834,52.113100
Sint Laurensweg,27,,,3732BA,De Bilt,De Bilt,Utrecht,VBO,5.186863,52.113154
Sint Laurensweg,29,,,3732BA,De Bilt,De Bilt,Utrecht,VBO,5.186892,52.113208
Henrica van Erpweg,1,,GB1,3732BB,De Bilt,De Bilt,Utrecht,VBO,5.187682,52.110590
Henrica van Erpweg,1,,GB10,3732BB,De Bilt,De Bilt,Utrecht,VBO,5.186842,52.110836
Henrica van Erpweg,1,,GB11,3732BB,De Bilt,De Bilt,Utrecht,VBO,5.186749,52.110859
Henrica van Erpweg,1,,GB12,3732BB,De Bilt,De Bilt,Utrecht,VBO,5.186659,52.110882
Henrica van Erpweg,1,,GB13,3732BB,De Bilt,De Bilt,Utrecht,VBO,5.186564,52.110905
Henrica van Erpweg,1,,GB14,3732BB,De Bilt,De Bilt,Utrecht,VBO,5.186461,52.110922
Henrica van Erpweg,1,,GB2,3732BB,De Bilt,De Bilt,Utrecht,VBO,5.187589,52.110611
Henrica van Erpweg,1,,GB3,3732BB,De Bilt,De Bilt,Utrecht,VBO,5.187493,52.110635
Henrica van Erpweg,1,,GB4,3732BB,De Bilt,De Bilt,Utrecht,VBO,5.187390,52.110659
Henrica van Erpweg,1,,GB5,3732BB,De Bilt,De Bilt,Utrecht,VBO,5.187295,52.110683
Henrica van Erpweg,1,,GB6,3732BB,De Bilt,De Bilt,Utrecht,VBO,5.187203,52.110710
Henrica van Erpweg,1,,GB7,3732BB,De Bilt,De Bilt,Utrecht,VBO,5.187119,52.110758
Henrica van Erpweg,1,,GB8,3732BB,De Bilt,De Bilt,Utrecht,VBO,5.187019,52.110781
Henrica van Erpweg,1,,GB9,3732BB,De Bilt,De Bilt,Utrecht,VBO,5.186932,52.110806
Henrica van Erpweg,1,,,3732BB,De Bilt,De Bilt,Utrecht,VBO,5.187724,52.110573
Henrica van Erpweg,3,,,3732BB,De Bilt,De Bilt,Utrecht,VBO,5.187676,52.110545
Henrica van Erpweg,5,,,3732BB,De Bilt,De Bilt,Utrecht,VBO,5.187632,52.110514
Henrica van Erpweg,7,,,3732BB,De Bilt,De Bilt,Utrecht,VBO,5.187634,52.110600
Henrica van Erpweg,9,,,3732BB,De Bilt,De Bilt,Utrecht,VBO,5.187593,52.110573
Henrica van Erpweg,11,,,3732BB,De Bilt,De Bilt,Utrecht,VBO,5.187542,52.110537
Henrica van Erpweg,13,,,3732BB,De Bilt,De Bilt,Utrecht,VBO,5.187538,52.110619
Henrica van Erpweg,15,,,3732BB,De Bilt,De Bilt,Utrecht,VBO,5.187493,52.110593
Henrica van Erpweg,17,,,3732BB,De Bilt,De Bilt,Utrecht,VBO,5.187449,52.110560
Henrica van Erpweg,19,,,3732BB,De Bilt,De Bilt,Utrecht,VBO,5.187439,52.110643
Henrica van Erpweg,21,,,3732BB,De Bilt,De Bilt,Utrecht,VBO,5.187393,52.110619
Henrica van Erpweg,23,,,3732BB,De Bilt,De Bilt,Utrecht,VBO,5.187347,52.110592
Henrica van Erpweg,25,,,3732BB,De Bilt,De Bilt,Utrecht,VBO,5.187336,52.110670
Henrica van Erpweg,27,,,3732BB,De Bilt,De Bilt,Utrecht,VBO,5.187295,52.110644
Henrica van Erpweg,29,,,3732BB,De Bilt,De Bilt,Utrecht,VBO,5.187255,52.110614
Henrica van Erpweg,31,,,3732BB,De Bilt,De Bilt,Utrecht,VBO,5.187243,52.110695
Henrica van Erpweg,33,,,3732BB,De Bilt,De Bilt,Utrecht,VBO,5.187202,52.110668
Henrica van Erpweg,35,,,3732BB,De Bilt,De Bilt,Utrecht,VBO,5.187159,52.110640
Henrica van Erpweg,37,,,3732BB,De Bilt,De Bilt,Utrecht,VBO,5.187171,52.110744
Henrica van Erpweg,39,,,3732BB,De Bilt,De Bilt,Utrecht,VBO,5.187132,52.110716
Henrica van Erpweg,41,,,3732BB,De Bilt,De Bilt,Utrecht,VBO,5.187084,52.110687
Henrica van Erpweg,43,,,3732BB,De Bilt,De Bilt,Utrecht,VBO,5.187069,52.110770
Henrica van Erpweg,45,,,3732BB,De Bilt,De Bilt,Utrecht,VBO,5.187031,52.110739
Henrica van Erpweg,47,,,3732BB,De Bilt,De Bilt,Utrecht,VBO,5.186981,52.110710
Henrica van Erpweg,49,,,3732BC,De Bilt,De Bilt,Utrecht,VBO,5.186971,52.110790
Henrica van Erpweg,51,,,3732BC,De Bilt,De Bilt,Utrecht,VBO,5.186930,52.110765
Henrica van Erpweg,53,,,3732BC,De Bilt,De Bilt,Utrecht,VBO,5.186887,52.110734
Henrica van Erpweg,55,,,3732BC,De Bilt,De Bilt,Utrecht,VBO,5.186884,52.110821
Henrica van Erpweg,57,,,3732BC,De Bilt,De Bilt,Utrecht,VBO,5.186851,52.110791
Henrica van Erpweg,59,,,3732BC,De Bilt,De Bilt,Utrecht,VBO,5.186803,52.110760
Henrica van Erpweg,61,,,3732BC,De Bilt,De Bilt,Utrecht,VBO,5.186792,52.110847
Henrica van Erpweg,63,,,3732BC,De Bilt,De Bilt,Utrecht,VBO,5.186751,52.110816
Henrica van Erpweg,65,,,3732BC,De Bilt,De Bilt,Utrecht,VBO,5.186705,52.110784
Henrica van Erpweg,67,,,3732BC,De Bilt,De Bilt,Utrecht,VBO,5.186703,52.110869
Henrica van Erpweg,69,,,3732BC,De Bilt,De Bilt,Utrecht,VBO,5.186652,52.110838
Henrica van Erpweg,71,,,3732BC,De Bilt,De Bilt,Utrecht,VBO,5.186609,52.110805
Henrica van Erpweg,73,,,3732BC,De Bilt,De Bilt,Utrecht,VBO,5.186611,52.110894
Henrica van Erpweg,75,,,3732BC,De Bilt,De Bilt,Utrecht,VBO,5.186559,52.110862
Henrica van Erpweg,77,,,3732BC,De Bilt,De Bilt,Utrecht,VBO,5.186511,52.110829
Henrica van Erpweg,79,,,3732BC,De Bilt,De Bilt,Utrecht,VBO,5.186507,52.110911
Henrica van Erpweg,81,,,3732BC,De Bilt,De Bilt,Utrecht,VBO,5.186468,52.110884
Henrica van Erpweg,83,,,3732BC,De Bilt,De Bilt,Utrecht,VBO,5.186424,52.110859
Henrica van Erpweg,85,,GB1,3732BC,De Bilt,De Bilt,Utrecht,VBO,5.184683,52.111139
Henrica van Erpweg,85,,GB10,3732BC,De Bilt,De Bilt,Utrecht,VBO,5.185035,52.111038
Henrica van Erpweg,85,,GB11,3732BC,De Bilt,De Bilt,Utrecht,VBO,5.185071,52.111025
Henrica van Erpweg,85,,GB12,3732BC,De Bilt,De Bilt,Utrecht,VBO,5.185177,52.111173
Henrica van Erpweg,85,,GB13,3732BC,De Bilt,De Bilt,Utrecht,VBO,5.185133,52.111180
Henrica van Erpweg,85,,GB14,3732BC,De Bilt,De Bilt,Utrecht,VBO,5.185097,52.111192
Henrica van Erpweg,85,,GB15,3732BC,De Bilt,De Bilt,Utrecht,VBO,5.185053,52.111202
Henrica van Erpweg,85,,GB16,3732BC,De Bilt,De Bilt,Utrecht,VBO,5.185015,52.111215
Henrica van Erpweg,85,,GB2,3732BC,De Bilt,De Bilt,Utrecht,VBO,5.184720,52.111129
Henrica van Erpweg,85,,GB3,3732BC,De Bilt,De Bilt,Utrecht,VBO,5.184761,52.111118
Henrica van Erpweg,85,,GB4,3732BC,De Bilt,De Bilt,Utrecht,VBO,5.184797,52.111106
Henrica van Erpweg,85,,GB5,3732BC,De Bilt,De Bilt,Utrecht,VBO,5.184836,52.111094
Henrica van Erpweg,85,,GB6,3732BC,De Bilt,De Bilt,Utrecht,VBO,5.184872,52.111082
Henrica van Erpweg,85,,GB7,3732BC,De Bilt,De Bilt,Utrecht,VBO,5.184913,52.111071
Henrica van Erpweg,85,,GB8,3732BC,De Bilt,De Bilt,Utrecht,VBO,5.184960,52.111059
Henrica van Erpweg,85,,GB9,3732BC,De Bilt,De Bilt,Utrecht,VBO,5.184996,52.111048
Henrica van Erpweg,85,,,3732BC,De Bilt,De Bilt,Utrecht,VBO,5.184901,52.111273
Henrica van Erpweg,87,,,3732BC,De Bilt,De Bilt,Utrecht,VBO,5.184901,52.111273
Henrica van Erpweg,89,,,3732BC,De Bilt,De Bilt,Utrecht,VBO,5.184901,52.111273
Henrica van Erpweg,91,,,3732BC,De Bilt,De Bilt,Utrecht,VBO,5.184901,52.111273
Henrica van Erpweg,93,,,3732BC,De Bilt,De Bilt,Utrecht,VBO,5.184901,52.111273
Henrica van Erpweg,95,,,3732BC,De Bilt,De Bilt,Utrecht,VBO,5.184901,52.111273
Henrica van Erpweg,97,,,3732BD,De Bilt,De Bilt,Utrecht,VBO,5.184901,52.111273
Henrica van Erpweg,99,,,3732BD,De Bilt,De Bilt,Utrecht,VBO,5.184901,52.111273
Henrica van Erpweg,101,,,3732BD,De Bilt,De Bilt,Utrecht,VBO,5.184901,52.111273
Henrica van Erpweg,103,,,3732BD,De Bilt,De Bilt,Utrecht,VBO,5.184901,52.111273
Henrica van Erpweg,105,,,3732BD,De Bilt,De Bilt,Utrecht,VBO,5.184901,52.111273
Henrica van Erpweg,107,,,3732BD,De Bilt,De Bilt,Utrecht,VBO,5.184901,52.111273
Henrica van Erpweg,109,,,3732BD,De Bilt,De Bilt,Utrecht,VBO,5.184901,52.111273
Henrica van Erpweg,111,,,3732BD,De Bilt,De Bilt,Utrecht,VBO,5.184901,52.111273
Henrica van Erpweg,113,,,3732BD,De Bilt,De Bilt,Utrecht,VBO,5.184901,52.111273
Henrica van Erpweg,115,,,3732BD,De Bilt,De Bilt,Utrecht,VBO,5.184901,52.111273
Henrica van Erpweg,117,,,3732BD,De Bilt,De Bilt,Utrecht,VBO,5.184901,52.111273
Henrica van Erpweg,119,,,3732BD,De Bilt,De Bilt,Utrecht,VBO,5.184901,52.111273
Henrica van Erpweg,121,,,3732BD,De Bilt,De Bilt,Utrecht,VBO,5.184901,52.111273
Henrica van Erpweg,123,,,3732BD,De Bilt,De Bilt,Utrecht,VBO,5.184901,52.111273
Henrica van Erpweg,125,,,3732BD,De Bilt,De Bilt,Utrecht,VBO,5.184901,52.111273
Henrica van Erpweg,127,,,3732BD,De Bilt,De Bilt,Utrecht,VBO,5.184901,52.111273
Henrica van Erpweg,129,,,3732BD,De Bilt,De Bilt,Utrecht,VBO,5.184901,52.111273
Henrica van Erpweg,131,,,3732BD,De Bilt,De Bilt,Utrecht,VBO,5.184901,52.111273
Henrica van Erpweg,133,,,3732BD,De Bilt,De Bilt,Utrecht,VBO,5.184901,52.111273
Henrica van Erpweg,135,,,3732BD,De Bilt,De Bilt,Utrecht,VBO,5.184901,52.111273
Henrica van Erpweg,137,,,3732BD,De Bilt,De Bilt,Utrecht,VBO,5.184901,52.111273
Henrica van Erpweg,139,,,3732BD,De Bilt,De Bilt,Utrecht,VBO,5.184901,52.111273
Henrica van Erpweg,141,,,3732BE,De Bilt,De Bilt,Utrecht,VBO,5.184901,52.111273
Henrica van Erpweg,143,,,3732BE,De Bilt,De Bilt,Utrecht,VBO,5.184901,52.111273
Henrica van Erpweg,145,,,3732BE,De Bilt,De Bilt,Utrecht,VBO,5.184901,52.111273
Henrica van Erpweg,147,,,3732BE,De Bilt,De Bilt,Utrecht,VBO,5.184901,52.111273
Henrica van Erpweg,149,,,3732BE,De Bilt,De Bilt,Utrecht,VBO,5.184901,52.111273
Henrica van Erpweg,151,,,3732BE,De Bilt,De Bilt,Utrecht,VBO,5.184901,52.111273
Henrica van Erpweg,153,,,3732BE,De Bilt,De Bilt,Utrecht,VBO,5.184901,52.111273
Henrica van Erpweg,155,,,3732BE,De Bilt,De Bilt,Utrecht,VBO,5.184901,52.111273
Henrica van Erpweg,157,,,3732BE,De Bilt,De Bilt,Utrecht,VBO,5.184345,52.111496
Henrica van Erpweg,159,,,3732BE,De Bilt,De Bilt,Utrecht,VBO,5.184258,52.111523
Henrica van Erpweg,161,,,3732BE,De Bilt,De Bilt,Utrecht,VBO,5.184170,52.111541
Henrica van Erpweg,163,,,3732BE,De Bilt,De Bilt,Utrecht,VBO,5.183454,52.111755
Henrica van Erpweg,165,,,3732BE,De Bilt,De Bilt,Utrecht,VBO,5.183380,52.111773
Henrica van Erpweg,167,,,3732BE,De Bilt,De Bilt,Utrecht,VBO,5.183307,52.111791
Henrica van Erpweg,169,,,3732BE,De Bilt,De Bilt,Utrecht,VBO,5.183234,52.111818
Henrica van Erpweg,2,,TR,3732BG,De Bilt,De Bilt,Utrecht,VBO,5.186939,52.111170
Henrica van Erpweg,2,,,3732BG,De Bilt,De Bilt,Utrecht,VBO,5.186594,52.111437
Henrica van Erpweg,4,,,3732BG,De Bilt,De Bilt,Utrecht,VBO,5.185630,52.111507
Henrica van Erpweg,6,,,3732BG,De Bilt,De Bilt,Utrecht,VBO,5.185542,52.111534
Henrica van Erpweg,8,,,3732BG,De Bilt,De Bilt,Utrecht,VBO,5.185469,52.111552
Henrica van Erpweg,10,,GB1,3732BG,De Bilt,De Bilt,Utrecht,VBO,5.185569,52.111814
Henrica van Erpweg,10,,GB10,3732BG,De Bilt,De Bilt,Utrecht,VBO,5.185223,52.111923
Henrica van Erpweg,10,,GB11,3732BG,De Bilt,De Bilt,Utrecht,VBO,5.185173,52.111931
Henrica van Erpweg,10,,GB12,3732BG,De Bilt,De Bilt,Utrecht,VBO,5.185136,52.111941
Henrica van Erpweg,10,,GB13,3732BG,De Bilt,De Bilt,Utrecht,VBO,5.185104,52.111951
Henrica van Erpweg,10,,GB14,3732BG,De Bilt,De Bilt,Utrecht,VBO,5.185077,52.111962
Henrica van Erpweg,10,,GB15,3732BG,De Bilt,De Bilt,Utrecht,VBO,5.185036,52.111976
Henrica van Erpweg,10,,GB16,3732BG,De Bilt,De Bilt,Utrecht,VBO,5.184974,52.111974
Henrica van Erpweg,10,,GB17,3732BG,De Bilt,De Bilt,Utrecht,VBO,5.184953,52.111984
Henrica van Erpweg,10,,GB18,3732BG,De Bilt,De Bilt,Utrecht,VBO,5.184910,52.111996
Henrica van Erpweg,10,,GB19,3732BG,De Bilt,De Bilt,Utrecht,VBO,5.184869,52.111997
Henrica van Erpweg,10,,GB2,3732BG,De Bilt,De Bilt,Utrecht,VBO,5.185520,52.111823
Henrica van Erpweg,10,,GB20,3732BG,De Bilt,De Bilt,Utrecht,VBO,5.184838,52.112013
Henrica van Erpweg,10,,GB21,3732BG,De Bilt,De Bilt,Utrecht,VBO,5.184791,52.112024
Henrica van Erpweg,10,,GB22,3732BG,De Bilt,De Bilt,Utrecht,VBO,5.184752,52.112039
Henrica van Erpweg,10,,GB23,3732BG,De Bilt,De Bilt,Utrecht,VBO,5.184720,52.112044
Henrica van Erpweg,10,,GB24,3732BG,De Bilt,De Bilt,Utrecht,VBO,5.184677,52.112058
Henrica van Erpweg,10,,GB25,3732BG,De Bilt,De Bilt,Utrecht,VBO,5.184630,52.112062
Henrica van Erpweg,10,,GB26,3732BG,De Bilt,De Bilt,Utrecht,VBO,5.184599,52.112069
Henrica van Erpweg,10,,GB3,3732BG,De Bilt,De Bilt,Utrecht,VBO,5.185482,52.111849
Henrica van Erpweg,10,,GB4,3732BG,De Bilt,De Bilt,Utrecht,VBO,5.185451,52.111864
Henrica van Erpweg,10,,GB5,3732BG,De Bilt,De Bilt,Utrecht,VBO,5.185401,52.111871
Henrica van Erpweg,10,,GB6,3732BG,De Bilt,De Bilt,Utrecht,VBO,5.185367,52.111876
Henrica van Erpweg,10,,GB7,3732BG,De Bilt,De Bilt,Utrecht,VBO,5.185329,52.111888
Henrica van Erpweg,10,,GB8,3732BG,De Bilt,De Bilt,Utrecht,VBO,5.185293,52.111903
Henrica van Erpweg,10,,GB9,3732BG,De Bilt,De Bilt,Utrecht,VBO,5.185245,52.111911
Henrica van Erpweg,10,,,3732BG,De Bilt,De Bilt,Utrecht,VBO,5.185381,52.111570
Henrica van Erpweg,12,,,3732BG,De Bilt,De Bilt,Utrecht,VBO,5.185294,52.111597
Henrica van Erpweg,14,,,3732BG,De Bilt,De Bilt,Utrecht,VBO,5.185221,52.111615
Henrica van Erpweg,16,,,3732BG,De Bilt,De Bilt,Utrecht,VBO,5.185148,52.111633
Henrica van Erpweg,18,,,3732BG,De Bilt,De Bilt,Utrecht,VBO,5.185074,52.111650
Henrica van Erpweg,20,,,3732BG,De Bilt,De Bilt,Utrecht,VBO,5.185001,52.111677
Henrica van Erpweg,22,,,3732BG,De Bilt,De Bilt,Utrecht,VBO,5.184782,52.111722
Henrica van Erpweg,24,,,3732BG,De Bilt,De Bilt,Utrecht,VBO,5.184709,52.111740
Henrica van Erpweg,26,,,3732BG,De Bilt,De Bilt,Utrecht,VBO,5.184636,52.111757
Henrica van Erpweg,28,,,3732BG,De Bilt,De Bilt,Utrecht,VBO,5.184563,52.111775
Henrica van Erpweg,30,,,3732BG,De Bilt,De Bilt,Utrecht,VBO,5.184475,52.111793
Henrica van Erpweg,32,,,3732BG,De Bilt,De Bilt,Utrecht,VBO,5.184402,52.111820
Henrica van Erpweg,34,,,3732BG,De Bilt,De Bilt,Utrecht,VBO,5.184315,52.111838
Henrica van Erpweg,36,,,3732BG,De Bilt,De Bilt,Utrecht,VBO,5.184241,52.111856
Henrica van Erpweg,38,,,3732BG,De Bilt,De Bilt,Utrecht,VBO,5.184154,52.111882
Henrica van Erpweg,40,,,3732BG,De Bilt,De Bilt,Utrecht,VBO,5.183642,52.112016
Henrica van Erpweg,42,,,3732BG,De Bilt,De Bilt,Utrecht,VBO,5.183569,52.112025
Henrica van Erpweg,44,,,3732BG,De Bilt,De Bilt,Utrecht,VBO,5.183481,52.112052
Henrica van Erpweg,46,,,3732BG,De Bilt,De Bilt,Utrecht,VBO,5.183408,52.112070
Thorbeckeweg,1,,GB1,3732BH,De Bilt,De Bilt,Utrecht,VBO,5.182455,52.110277
Thorbeckeweg,1,,GB10,3732BH,De Bilt,De Bilt,Utrecht,VBO,5.182503,52.110518
Thorbeckeweg,1,,GB11,3732BH,De Bilt,De Bilt,Utrecht,VBO,5.182520,52.110540
Thorbeckeweg,1,,GB12,3732BH,De Bilt,De Bilt,Utrecht,VBO,5.182530,52.110562
Thorbeckeweg,1,,GB2,3732BH,De Bilt,De Bilt,Utrecht,VBO,5.182409,52.110295
Thorbeckeweg,1,,GB3,3732BH,De Bilt,De Bilt,Utrecht,VBO,5.182365,52.110349
Thorbeckeweg,1,,GB4,3732BH,De Bilt,De Bilt,Utrecht,VBO,5.182411,52.110366
Thorbeckeweg,1,,GB5,3732BH,De Bilt,De Bilt,Utrecht,VBO,5.182425,52.110389
Thorbeckeweg,1,,GB6,3732BH,De Bilt,De Bilt,Utrecht,VBO,5.182437,52.110413
Thorbeckeweg,1,,GB7,3732BH,De Bilt,De Bilt,Utrecht,VBO,5.182454,52.110441
Thorbeckeweg,1,,GB8,3732BH,De Bilt,De Bilt,Utrecht,VBO,5.182469,52.110467
Thorbeckeweg,1,,GB9,3732BH,De Bilt,De Bilt,Utrecht,VBO,5.182484,52.110493
Thorbeckeweg,1,,,3732BH,De Bilt,De Bilt,Utrecht,VBO,5.182729,52.110586
Thorbeckeweg,3,,,3732BH,De Bilt,De Bilt,Utrecht,VBO,5.182758,52.110631
Thorbeckeweg,5,,,3732BH,De Bilt,De Bilt,Utrecht,VBO,5.182802,52.110685
Thorbeckeweg,7,,,3732BH,De Bilt,De Bilt,Utrecht,VBO,5.182831,52.110730
Thorbeckeweg,9,,,3732BH,De Bilt,De Bilt,Utrecht,VBO,5.182860,52.110775
Thorbeckeweg,11,,,3732BH,De Bilt,De Bilt,Utrecht,VBO,5.182889,52.110820
Thorbeckeweg,13,,,3732BH,De Bilt,De Bilt,Utrecht,VBO,5.182918,52.110865
Thorbeckeweg,15,,,3732BH,De Bilt,De Bilt,Utrecht,VBO,5.182946,52.110919
Thorbeckeweg,17,,,3732BH,De Bilt,De Bilt,Utrecht,VBO,5.183034,52.111018
Thorbeckeweg,19,,,3732BH,De Bilt,De Bilt,Utrecht,VBO,5.183063,52.111072
Thorbeckeweg,21,,,3732BH,De Bilt,De Bilt,Utrecht,VBO,5.183092,52.111117
Thorbeckeweg,23,,,3732BH,De Bilt,De Bilt,Utrecht,VBO,5.183135,52.111162
Thorbeckeweg,25,,,3732BH,De Bilt,De Bilt,Utrecht,VBO,5.183164,52.111216
Thorbeckeweg,27,,,3732BH,De Bilt,De Bilt,Utrecht,VBO,5.183208,52.111261
Thorbeckeweg,29,,,3732BH,De Bilt,De Bilt,Utrecht,VBO,5.183237,52.111306
Thorbeckeweg,31,,,3732BH,De Bilt,De Bilt,Utrecht,VBO,5.183266,52.111360
Thorbeckeweg,33,,,3732BJ,De Bilt,De Bilt,Utrecht,VBO,5.183816,52.112214
Thorbeckeweg,35,,,3732BJ,De Bilt,De Bilt,Utrecht,VBO,5.183860,52.112295
Thorbeckeweg,37,,,3732BJ,De Bilt,De Bilt,Utrecht,VBO,5.183889,52.112340
Thorbeckeweg,39,,,3732BJ,De Bilt,De Bilt,Utrecht,VBO,5.183932,52.112385
Thorbeckeweg,41,,,3732BJ,De Bilt,De Bilt,Utrecht,VBO,5.183961,52.112430
Thorbeckeweg,43,,,3732BJ,De Bilt,De Bilt,Utrecht,VBO,5.183990,52.112484
Thorbeckeweg,45,,,3732BJ,De Bilt,De Bilt,Utrecht,VBO,5.184034,52.112529
Thorbeckeweg,47,,,3732BJ,De Bilt,De Bilt,Utrecht,VBO,5.184063,52.112574
Thorbeckeweg,49,,,3732BJ,De Bilt,De Bilt,Utrecht,VBO,5.184092,52.112628
Thorbeckeweg,51,,,3732BJ,De Bilt,De Bilt,Utrecht,VBO,5.184121,52.112664
Thorbeckeweg,2,,,3732BK,De Bilt,De Bilt,Utrecht,VBO,5.183297,52.110766
Thorbeckeweg,4,,,3732BK,De Bilt,De Bilt,Utrecht,VBO,5.183341,52.110829
Thorbeckeweg,6,,,3732BK,De Bilt,De Bilt,Utrecht,VBO,5.183370,52.110874
Thorbeckeweg,8,,,3732BK,De Bilt,De Bilt,Utrecht,VBO,5.183399,52.110919
Thorbeckeweg,10,,,3732BK,De Bilt,De Bilt,Utrecht,VBO,5.183428,52.110964
Thorbeckeweg,12,,,3732BK,De Bilt,De Bilt,Utrecht,VBO,5.183457,52.111009
Thorbeckeweg,14,,,3732BK,De Bilt,De Bilt,Utrecht,VBO,5.183501,52.111063
Thorbeckeweg,16,,,3732BK,De Bilt,De Bilt,Utrecht,VBO,5.183530,52.111108
Thorbeckeweg,18,,,3732BK,De Bilt,De Bilt,Utrecht,VBO,5.183559,52.111153
Thorbeckeweg,20,,,3732BK,De Bilt,De Bilt,Utrecht,VBO,5.183616,52.111252
Thorbeckeweg,22,,,3732BK,De Bilt,De Bilt,Utrecht,VBO,5.183660,52.111306
Thorbeckeweg,24,,,3732BK,De Bilt,De Bilt,Utrecht,VBO,5.183704,52.111351
Thorbeckeweg,26,,,3732BK,De Bilt,De Bilt,Utrecht,VBO,5.183733,52.111405
Thorbeckeweg,28,,,3732BK,De Bilt,De Bilt,Utrecht,VBO,5.183762,52.111450
Thorbeckeweg,30,,,3732BK,De Bilt,De Bilt,Utrecht,VBO,5.183805,52.111495
Thorbeckeweg,32,,,3732BK,De Bilt,De Bilt,Utrecht,VBO,5.183834,52.111549
Thorbeckeweg,34,,,3732BK,De Bilt,De Bilt,Utrecht,VBO,5.183863,52.111585
Thorbeckeweg,36,,,3732BK,De Bilt,De Bilt,Utrecht,VBO,5.184269,52.112125
Thorbeckeweg,38,,,3732BK,De Bilt,De Bilt,Utrecht,VBO,5.184298,52.112179
Thorbeckeweg,40,,,3732BK,De Bilt,De Bilt,Utrecht,VBO,5.184327,52.112224
Thorbeckeweg,42,,,3732BK,De Bilt,De Bilt,Utrecht,VBO,5.184371,52.112269
Thorbeckeweg,44,,,3732BK,De Bilt,De Bilt,Utrecht,VBO,5.184400,52.112323
Abraham Kuyperweg,1,,,3732BL,De Bilt,De Bilt,Utrecht,VBO,5.183693,52.110462
Abraham Kuyperweg,3,,,3732BL,De Bilt,De Bilt,Utrecht,VBO,5.183737,52.110516
Abraham Kuyperweg,5,,,3732BL,De Bilt,De Bilt,Utrecht,VBO,5.183766,52.110561
Abraham Kuyperweg,7,,,3732BL,De Bilt,De Bilt,Utrecht,VBO,5.183795,52.110606
Abraham Kuyperweg,9,,,3732BL,De Bilt,De Bilt,Utrecht,VBO,5.183824,52.110660
Abraham Kuyperweg,11,,,3732BL,De Bilt,De Bilt,Utrecht,VBO,5.183853,52.110705
Abraham Kuyperweg,13,,,3732BL,De Bilt,De Bilt,Utrecht,VBO,5.183896,52.110750
Abraham Kuyperweg,15,,,3732BL,De Bilt,De Bilt,Utrecht,VBO,5.183925,52.110804
Abraham Kuyperweg,17,,,3732BL,De Bilt,De Bilt,Utrecht,VBO,5.183954,52.110848
Abraham Kuyperweg,19,,,3732BL,De Bilt,De Bilt,Utrecht,VBO,5.184012,52.110947
Abraham Kuyperweg,21,,,3732BL,De Bilt,De Bilt,Utrecht,VBO,5.184056,52.110992
Abraham Kuyperweg,23,,,3732BL,De Bilt,De Bilt,Utrecht,VBO,5.184085,52.111046
Abraham Kuyperweg,25,,,3732BL,De Bilt,De Bilt,Utrecht,VBO,5.184128,52.111091
Abraham Kuyperweg,27,,,3732BL,De Bilt,De Bilt,Utrecht,VBO,5.184157,52.111145
Abraham Kuyperweg,29,,,3732BL,De Bilt,De Bilt,Utrecht,VBO,5.184186,52.111190
Abraham Kuyperweg,31,,,3732BL,De Bilt,De Bilt,Utrecht,VBO,5.184215,52.111235
Abraham Kuyperweg,33,,,3732BL,De Bilt,De Bilt,Utrecht,VBO,5.184244,52.111289
Abraham Kuyperweg,2,,,3732BM,De Bilt,De Bilt,Utrecht,VBO,5.184233,52.110507
Abraham Kuyperweg,4,,,3732BM,De Bilt,De Bilt,Utrecht,VBO,5.184262,52.110570
Abraham Kuyperweg,6,,,3732BM,De Bilt,De Bilt,Utrecht,VBO,5.184291,52.110669
Abraham Kuyperweg,8,,,3732BM,De Bilt,De Bilt,Utrecht,VBO,5.184334,52.110732
Abraham Kuyperweg,10,,,3732BM,De Bilt,De Bilt,Utrecht,VBO,5.184436,52.110813
Abraham Kuyperweg,12,,,3732BM,De Bilt,De Bilt,Utrecht,VBO,5.184479,52.110867
Abraham Kuyperweg,14,,,3732BM,De Bilt,De Bilt,Utrecht,VBO,5.184508,52.110984
Abraham Kuyperweg,16,,,3732BM,De Bilt,De Bilt,Utrecht,VBO,5.184537,52.111038
Mr. S. van Houtenweg,1,,,3732BN,De Bilt,De Bilt,Utrecht,VBO,5.184744,52.110400
Mr. S. van Houtenweg,3,,,3732BN,De Bilt,De Bilt,Utrecht,VBO,5.184773,52.110454
Mr. S. van Houtenweg,5,,,3732BN,De Bilt,De Bilt,Utrecht,VBO,5.184787,52.110562
Mr. S. van Houtenweg,7,,,3732BN,De Bilt,De Bilt,Utrecht,VBO,5.184831,52.110625
Mr. S. van Houtenweg,9,,,3732BN,De Bilt,De Bilt,Utrecht,VBO,5.184947,52.110706
Mr. S. van Houtenweg,11,,,3732BN,De Bilt,De Bilt,Utrecht,VBO,5.184962,52.110769
Mr. S. van Houtenweg,13,,,3732BN,De Bilt,De Bilt,Utrecht,VBO,5.185020,52.110868
Mr. S. van Houtenweg,15,,,3732BN,De Bilt,De Bilt,Utrecht,VBO,5.185063,52.110922
Mr. S. van Houtenweg,2,,,3732BP,De Bilt,De Bilt,Utrecht,VBO,5.185023,52.110149
Mr. S. van Houtenweg,4,,,3732BP,De Bilt,De Bilt,Utrecht,VBO,5.185052,52.110203
Mr. S. van Houtenweg,6,,,3732BP,De Bilt,De Bilt,Utrecht,VBO,5.185095,52.110248
Mr. S. van Houtenweg,8,,,3732BP,De Bilt,De Bilt,Utrecht,VBO,5.185124,52.110293
Mr. S. van Houtenweg,10,,,3732BP,De Bilt,De Bilt,Utrecht,VBO,5.185153,52.110347
Mr. S. van Houtenweg,12,,,3732BP,De Bilt,De Bilt,Utrecht,VBO,5.185182,52.110392
Mr. S. van Houtenweg,14,,GB1,3732BP,De Bilt,De Bilt,Utrecht,VBO,5.185926,52.110537
Mr. S. van Houtenweg,14,,GB10,3732BP,De Bilt,De Bilt,Utrecht,VBO,5.186071,52.110744
Mr. S. van Houtenweg,14,,GB11,3732BP,De Bilt,De Bilt,Utrecht,VBO,5.186079,52.110764
Mr. S. van Houtenweg,14,,GB12,3732BP,De Bilt,De Bilt,Utrecht,VBO,5.186100,52.110789
Mr. S. van Houtenweg,14,,GB13,3732BP,De Bilt,De Bilt,Utrecht,VBO,5.186100,52.110816
Mr. S. van Houtenweg,14,,GB14,3732BP,De Bilt,De Bilt,Utrecht,VBO,5.186115,52.110843
Mr. S. van Houtenweg,14,,GB15,3732BP,De Bilt,De Bilt,Utrecht,VBO,5.186144,52.110861
Mr. S. van Houtenweg,14,,GB16,3732BP,De Bilt,De Bilt,Utrecht,VBO,5.186158,52.110888
Mr. S. van Houtenweg,14,,GB17,3732BP,De Bilt,De Bilt,Utrecht,VBO,5.186173,52.110915
Mr. S. van Houtenweg,14,,GB18,3732BP,De Bilt,De Bilt,Utrecht,VBO,5.186187,52.110960
Mr. S. van Houtenweg,14,,GB19,3732BP,De Bilt,De Bilt,Utrecht,VBO,5.186202,52.110978
Mr. S. van Houtenweg,14,,GB2,3732BP,De Bilt,De Bilt,Utrecht,VBO,5.185941,52.110555
Mr. S. van Houtenweg,14,,GB3,3732BP,De Bilt,De Bilt,Utrecht,VBO,5.185955,52.110582
Mr. S. van Houtenweg,14,,GB4,3732BP,De Bilt,De Bilt,Utrecht,VBO,5.185970,52.110600
Mr. S. van Houtenweg,14,,GB5,3732BP,De Bilt,De Bilt,Utrecht,VBO,5.185984,52.110627
Mr. S. van Houtenweg,14,,GB6,3732BP,De Bilt,De Bilt,Utrecht,VBO,5.185984,52.110654
Mr. S. van Houtenweg,14,,GB7,3732BP,De Bilt,De Bilt,Utrecht,VBO,5.186013,52.110672
Mr. S. van Houtenweg,14,,GB8,3732BP,De Bilt,De Bilt,Utrecht,VBO,5.186028,52.110699
Mr. S. van Houtenweg,14,,GB9,3732BP,De Bilt,De Bilt,Utrecht,VBO,5.186042,52.110726
Mr. S. van Houtenweg,14,,,3732BP,De Bilt,De Bilt,Utrecht,VBO,5.185562,52.110635
Mr. S. van Houtenweg,16,,,3732BP,De Bilt,De Bilt,Utrecht,VBO,5.185580,52.110665
Mr. S. van Houtenweg,18,,,3732BP,De Bilt,De Bilt,Utrecht,VBO,5.185594,52.110691
Mr. S. van Houtenweg,20,,,3732BP,De Bilt,De Bilt,Utrecht,VBO,5.185615,52.110715
Mr. S. van Houtenweg,22,,,3732BP,De Bilt,De Bilt,Utrecht,VBO,5.185605,52.110624
Mr. S. van Houtenweg,24,,,3732BP,De Bilt,De Bilt,Utrecht,VBO,5.185627,52.110656
Mr. S. van Houtenweg,26,,,3732BP,De Bilt,De Bilt,Utrecht,VBO,5.185648,52.110688
Mr. S. van Houtenweg,28,,,3732BP,De Bilt,De Bilt,Utrecht,VBO,5.185627,52.110748
Mr. S. van Houtenweg,30,,,3732BP,De Bilt,De Bilt,Utrecht,VBO,5.185648,52.110778
Mr. S. van Houtenweg,32,,,3732BP,De Bilt,De Bilt,Utrecht,VBO,5.185663,52.110810
Mr. S. van Houtenweg,34,,,3732BP,De Bilt,De Bilt,Utrecht,VBO,5.185682,52.110836
Mr. S. van Houtenweg,36,,,3732BP,De Bilt,De Bilt,Utrecht,VBO,5.185677,52.110735
Mr. S. van Houtenweg,38,,,3732BP,De Bilt,De Bilt,Utrecht,VBO,5.185700,52.110766
Mr. S. van Houtenweg,40,,,3732BP,De Bilt,De Bilt,Utrecht,VBO,5.185717,52.110798
Mr. S. van Houtenweg,42,,,3732BR,De Bilt,De Bilt,Utrecht,VBO,5.185703,52.110866
Mr. S. van Houtenweg,44,,,3732BR,De Bilt,De Bilt,Utrecht,VBO,5.185718,52.110895
Mr. S. van Houtenweg,46,,,3732BR,De Bilt,De Bilt,Utrecht,VBO,5.185737,52.110922
Mr. S. van Houtenweg,48,,,3732BR,De Bilt,De Bilt,Utrecht,VBO,5.185755,52.110949
Mr. S. van Houtenweg,50,,,3732BR,De Bilt,De Bilt,Utrecht,VBO,5.185757,52.110855
Mr. S. van Houtenweg,52,,,3732BR,De Bilt,De Bilt,Utrecht,VBO,5.185773,52.110884
Mr. S. van Houtenweg,54,,,3732BR,De Bilt,De Bilt,Utrecht,VBO,5.185793,52.110915
Mr. S. van Houtenweg,56,,,3732BR,De Bilt,De Bilt,Utrecht,VBO,5.185778,52.110987
Mr. S. van Houtenweg,58,,,3732BR,De Bilt,De Bilt,Utrecht,VBO,5.185798,52.111016
Mr. S. van Houtenweg,60,,,3732BR,De Bilt,De Bilt,Utrecht,VBO,5.185819,52.111044
Mr. S. van Houtenweg,62,,,3732BR,De Bilt,De Bilt,Utrecht,VBO,5.185842,52.111072
Mr. S. van Houtenweg,64,,,3732BR,De Bilt,De Bilt,Utrecht,VBO,5.185828,52.110973
Mr. S. van Houtenweg,66,,,3732BR,De Bilt,De Bilt,Utrecht,VBO,5.185850,52.111005
Mr. S. van Houtenweg,68,,,3732BR,De Bilt,De Bilt,Utrecht,VBO,5.185869,52.111035
De Savornin Lohmanweg,1,,,3732BS,De Bilt,De Bilt,Utrecht,VBO,5.186177,52.109998
De Savornin Lohmanweg,3,,,3732BS,De Bilt,De Bilt,Utrecht,VBO,5.186220,52.110052
De Savornin Lohmanweg,5,,,3732BS,De Bilt,De Bilt,Utrecht,VBO,5.186249,52.110097
De Savornin Lohmanweg,7,,,3732BS,De Bilt,De Bilt,Utrecht,VBO,5.186278,52.110151
De Savornin Lohmanweg,9,,,3732BS,De Bilt,De Bilt,Utrecht,VBO,5.186015,52.110241
De Savornin Lohmanweg,11,,,3732BS,De Bilt,De Bilt,Utrecht,VBO,5.185913,52.110268
De Savornin Lohmanweg,13,,,3732BS,De Bilt,De Bilt,Utrecht,VBO,5.185840,52.110285
De Savornin Lohmanweg,15,,,3732BS,De Bilt,De Bilt,Utrecht,VBO,5.185752,52.110303
De Savornin Lohmanweg,17,,,3732BS,De Bilt,De Bilt,Utrecht,VBO,5.185679,52.110321
De Savornin Lohmanweg,19,,,3732BS,De Bilt,De Bilt,Utrecht,VBO,5.185606,52.110339
De Savornin Lohmanweg,2,,,3732BT,De Bilt,De Bilt,Utrecht,VBO,5.186601,52.109900
De Savornin Lohmanweg,4,,,3732BT,De Bilt,De Bilt,Utrecht,VBO,5.186630,52.109945
De Savornin Lohmanweg,6,,,3732BT,De Bilt,De Bilt,Utrecht,VBO,5.186659,52.109999
De Savornin Lohmanweg,8,,,3732BT,De Bilt,De Bilt,Utrecht,VBO,5.186702,52.110044
De Savornin Lohmanweg,10,,,3732BT,De Bilt,De Bilt,Utrecht,VBO,5.186731,52.110098
De Savornin Lohmanweg,12,,,3732BT,De Bilt,De Bilt,Utrecht,VBO,5.186760,52.110143
De Savornin Lohmanweg,14,,,3732BT,De Bilt,De Bilt,Utrecht,VBO,5.186789,52.110188
De Savornin Lohmanweg,16,,,3732BT,De Bilt,De Bilt,Utrecht,VBO,5.186876,52.110278
De Savornin Lohmanweg,18,,,3732BT,De Bilt,De Bilt,Utrecht,VBO,5.186905,52.110323
De Savornin Lohmanweg,20,,,3732BT,De Bilt,De Bilt,Utrecht,VBO,5.186759,52.110413
De Savornin Lohmanweg,22,,,3732BT,De Bilt,De Bilt,Utrecht,VBO,5.186686,52.110431
De Savornin Lohmanweg,24,,,3732BT,De Bilt,De Bilt,Utrecht,VBO,5.186613,52.110458
De Savornin Lohmanweg,26,,,3732BT,De Bilt,De Bilt,Utrecht,VBO,5.186540,52.110475
De Savornin Lohmanweg,28,,,3732BT,De Bilt,De Bilt,Utrecht,VBO,5.186438,52.110448
De Savornin Lohmanweg,30,,,3732BT,De Bilt,De Bilt,Utrecht,VBO,5.186350,52.110475
De Savornin Lohmanweg,32,,,3732BT,De Bilt,De Bilt,Utrecht,VBO,5.186277,52.110493
De Savornin Lohmanweg,34,,,3732BT,De Bilt,De Bilt,Utrecht,VBO,5.186204,52.110511
Troelstraweg,1,,,3732CA,De Bilt,De Bilt,Utrecht,VBO,5.186690,52.109388
Troelstraweg,3,,,3732CA,De Bilt,De Bilt,Utrecht,VBO,5.186690,52.109388
Troelstraweg,5,,,3732CA,De Bilt,De Bilt,Utrecht,VBO,5.186603,52.109406
Troelstraweg,7,,,3732CA,De Bilt,De Bilt,Utrecht,VBO,5.186603,52.109406
Troelstraweg,9,,,3732CA,De Bilt,De Bilt,Utrecht,VBO,5.186530,52.109424
Troelstraweg,11,,,3732CA,De Bilt,De Bilt,Utrecht,VBO,5.186530,52.109424
Troelstraweg,13,,,3732CA,De Bilt,De Bilt,Utrecht,VBO,5.186442,52.109442
Troelstraweg,15,,,3732CA,De Bilt,De Bilt,Utrecht,VBO,5.186442,52.109442
Troelstraweg,17,,,3732CA,De Bilt,De Bilt,Utrecht,VBO,5.186354,52.109468
Troelstraweg,19,,,3732CA,De Bilt,De Bilt,Utrecht,VBO,5.186354,52.109468
Troelstraweg,21,,,3732CA,De Bilt,De Bilt,Utrecht,VBO,5.186281,52.109486
Troelstraweg,23,,,3732CA,De Bilt,De Bilt,Utrecht,VBO,5.186281,52.109486
Troelstraweg,25,,,3732CA,De Bilt,De Bilt,Utrecht,VBO,5.186208,52.109504
Troelstraweg,27,,,3732CA,De Bilt,De Bilt,Utrecht,VBO,5.186208,52.109504
Troelstraweg,29,,,3732CA,De Bilt,De Bilt,Utrecht,VBO,5.186135,52.109531
Troelstraweg,31,,,3732CA,De Bilt,De Bilt,Utrecht,VBO,5.186135,52.109531
Troelstraweg,33,,,3732CA,De Bilt,De Bilt,Utrecht,VBO,5.186047,52.109549
Troelstraweg,35,,,3732CA,De Bilt,De Bilt,Utrecht,VBO,5.186047,52.109549
Troelstraweg,37,,,3732CA,De Bilt,De Bilt,Utrecht,VBO,5.185974,52.109567
Troelstraweg,39,,,3732CA,De Bilt,De Bilt,Utrecht,VBO,5.185974,52.109567
Troelstraweg,41,,,3732CB,De Bilt,De Bilt,Utrecht,VBO,5.185901,52.109585
Troelstraweg,43,,,3732CB,De Bilt,De Bilt,Utrecht,VBO,5.185901,52.109585
Troelstraweg,45,,,3732CB,De Bilt,De Bilt,Utrecht,VBO,5.185828,52.109602
Troelstraweg,47,,GB1,3732CB,De Bilt,De Bilt,Utrecht,VBO,5.185605,52.109505
Troelstraweg,47,,,3732CB,De Bilt,De Bilt,Utrecht,VBO,5.185828,52.109602
Troelstraweg,49,A,,3732CB,De Bilt,De Bilt,Utrecht,VBO,5.185243,52.109506
Troelstraweg,49,,,3732CB,De Bilt,De Bilt,Utrecht,VBO,5.185580,52.109665
Troelstraweg,51,,,3732CB,De Bilt,De Bilt,Utrecht,VBO,5.185580,52.109665
Troelstraweg,53,,,3732CB,De Bilt,De Bilt,Utrecht,VBO,5.185507,52.109683
Troelstraweg,55,,,3732CB,De Bilt,De Bilt,Utrecht,VBO,5.185507,52.109683
Troelstraweg,57,,,3732CB,De Bilt,De Bilt,Utrecht,VBO,5.185434,52.109701
Troelstraweg,59,,,3732CB,De Bilt,De Bilt,Utrecht,VBO,5.185434,52.109701
Troelstraweg,61,,,3732CB,De Bilt,De Bilt,Utrecht,VBO,5.185346,52.109727
Troelstraweg,63,,,3732CB,De Bilt,De Bilt,Utrecht,VBO,5.185346,52.109727
Troelstraweg,65,,,3732CB,De Bilt,De Bilt,Utrecht,VBO,5.185273,52.109745
Troelstraweg,67,,,3732CB,De Bilt,De Bilt,Utrecht,VBO,5.185273,52.109745
Troelstraweg,69,,,3732CB,De Bilt,De Bilt,Utrecht,VBO,5.185185,52.109763
Troelstraweg,71,,,3732CB,De Bilt,De Bilt,Utrecht,VBO,5.185185,52.109763
Troelstraweg,73,,,3732CB,De Bilt,De Bilt,Utrecht,VBO,5.185112,52.109781
Troelstraweg,75,,,3732CB,De Bilt,De Bilt,Utrecht,VBO,5.185112,52.109781
Troelstraweg,77,,,3732CB,De Bilt,De Bilt,Utrecht,VBO,5.185039,52.109808
Troelstraweg,79,,,3732CB,De Bilt,De Bilt,Utrecht,VBO,5.185039,52.109808
Troelstraweg,81,,,3732CB,De Bilt,De Bilt,Utrecht,VBO,5.184951,52.109826
Troelstraweg,83,,,3732CB,De Bilt,De Bilt,Utrecht,VBO,5.184951,52.109826
Troelstraweg,85,,,3732CC,De Bilt,De Bilt,Utrecht,VBO,5.183753,52.110093
Troelstraweg,87,,,3732CC,De Bilt,De Bilt,Utrecht,VBO,5.183680,52.110111
Troelstraweg,89,,,3732CC,De Bilt,De Bilt,Utrecht,VBO,5.183607,52.110129
Troelstraweg,91,,,3732CC,De Bilt,De Bilt,Utrecht,VBO,5.183534,52.110147
Troelstraweg,93,,,3732CC,De Bilt,De Bilt,Utrecht,VBO,5.183446,52.110165
Troelstraweg,95,,,3732CC,De Bilt,De Bilt,Utrecht,VBO,5.183373,52.110191
Troelstraweg,97,,,3732CC,De Bilt,De Bilt,Utrecht,VBO,5.183300,52.110209
Troelstraweg,99,,,3732CC,De Bilt,De Bilt,Utrecht,VBO,5.183212,52.110227
Troelstraweg,101,,,3732CC,De Bilt,De Bilt,Utrecht,VBO,5.183052,52.110245
Troelstraweg,103,,,3732CC,De Bilt,De Bilt,Utrecht,VBO,5.182964,52.110272
Troelstraweg,105,,,3732CC,De Bilt,De Bilt,Utrecht,VBO,5.182876,52.110289
Troelstraweg,107,,,3732CC,De Bilt,De Bilt,Utrecht,VBO,5.182789,52.110307
Troelstraweg,109,,,3732CC,De Bilt,De Bilt,Utrecht,VBO,5.182716,52.110334
Troelstraweg,111,,,3732CC,De Bilt,De Bilt,Utrecht,VBO,5.182628,52.110352
Troelstraweg,2,,,3732CD,De Bilt,De Bilt,Utrecht,VBO,5.187025,52.109586
Troelstraweg,4,,,3732CD,De Bilt,De Bilt,Utrecht,VBO,5.186938,52.109613
Troelstraweg,6,,,3732CD,De Bilt,De Bilt,Utrecht,VBO,5.186865,52.109631
Troelstraweg,8,,,3732CD,De Bilt,De Bilt,Utrecht,VBO,5.186777,52.109649
Troelstraweg,10,,,3732CD,De Bilt,De Bilt,Utrecht,VBO,5.186704,52.109667
Troelstraweg,12,,,3732CD,De Bilt,De Bilt,Utrecht,VBO,5.186616,52.109685
Troelstraweg,14,,,3732CD,De Bilt,De Bilt,Utrecht,VBO,5.186543,52.109711
Troelstraweg,16,,,3732CD,De Bilt,De Bilt,Utrecht,VBO,5.186002,52.109854
Troelstraweg,18,,,3732CD,De Bilt,De Bilt,Utrecht,VBO,5.185929,52.109872
Troelstraweg,20,,,3732CD,De Bilt,De Bilt,Utrecht,VBO,5.185842,52.109890
Troelstraweg,22,,,3732CD,De Bilt,De Bilt,Utrecht,VBO,5.185768,52.109917
Troelstraweg,24,,,3732CD,De Bilt,De Bilt,Utrecht,VBO,5.185695,52.109935
Troelstraweg,26,,,3732CD,De Bilt,De Bilt,Utrecht,VBO,5.185622,52.109953
Troelstraweg,28,,,3732CD,De Bilt,De Bilt,Utrecht,VBO,5.185535,52.109970
Troelstraweg,30,,,3732CD,De Bilt,De Bilt,Utrecht,VBO,5.185461,52.109997
Troelstraweg,32,,,3732CD,De Bilt,De Bilt,Utrecht,VBO,5.185388,52.110015
Troelstraweg,34,,,3732CE,De Bilt,De Bilt,Utrecht,VBO,5.184541,52.110229
Troelstraweg,36,,,3732CE,De Bilt,De Bilt,Utrecht,VBO,5.184453,52.110247
Troelstraweg,38,,,3732CE,De Bilt,De Bilt,Utrecht,VBO,5.184366,52.110247
Troelstraweg,40,,,3732CE,De Bilt,De Bilt,Utrecht,VBO,5.184292,52.110265
Troelstraweg,42,,,3732CE,De Bilt,De Bilt,Utrecht,VBO,5.184205,52.110283
Troelstraweg,44,,,3732CE,De Bilt,De Bilt,Utrecht,VBO,5.184134,52.110388
Troelstraweg,46,,,3732CE,De Bilt,De Bilt,Utrecht,VBO,5.183357,52.110506
Troelstraweg,48,,,3732CE,De Bilt,De Bilt,Utrecht,VBO,5.183269,52.110524
Troelstraweg,50,,,3732CE,De Bilt,De Bilt,Utrecht,VBO,5.183182,52.110542
Dr. Schaepmanweg,1,,,3732CG,De Bilt,De Bilt,Utrecht,VBO,5.183510,52.108978
Dr. Schaepmanweg,3,,,3732CG,De Bilt,De Bilt,Utrecht,VBO,5.183510,52.108978
Dr. Schaepmanweg,5,,,3732CG,De Bilt,De Bilt,Utrecht,VBO,5.183539,52.109032
Dr. Schaepmanweg,7,,,3732CG,De Bilt,De Bilt,Utrecht,VBO,5.183539,52.109032
Dr. Schaepmanweg,9,,,3732CG,De Bilt,De Bilt,Utrecht,VBO,5.183583,52.109077
Dr. Schaepmanweg,11,,,3732CG,De Bilt,De Bilt,Utrecht,VBO,5.183583,52.109077
Dr. Schaepmanweg,13,,,3732CG,De Bilt,De Bilt,Utrecht,VBO,5.183612,52.109131
Dr. Schaepmanweg,15,,,3732CG,De Bilt,De Bilt,Utrecht,VBO,5.183612,52.109131
Dr. Schaepmanweg,17,,,3732CG,De Bilt,De Bilt,Utrecht,VBO,5.183640,52.109176
Dr. Schaepmanweg,19,,,3732CG,De Bilt,De Bilt,Utrecht,VBO,5.183640,52.109176
Dr. Schaepmanweg,21,,,3732CG,De Bilt,De Bilt,Utrecht,VBO,5.183669,52.109221
Dr. Schaepmanweg,23,,,3732CG,De Bilt,De Bilt,Utrecht,VBO,5.183669,52.109221
Dr. Schaepmanweg,25,,,3732CG,De Bilt,De Bilt,Utrecht,VBO,5.183800,52.109437
Dr. Schaepmanweg,27,,,3732CG,De Bilt,De Bilt,Utrecht,VBO,5.183800,52.109437
Dr. Schaepmanweg,29,,,3732CG,De Bilt,De Bilt,Utrecht,VBO,5.183843,52.109500
Dr. Schaepmanweg,31,,,3732CG,De Bilt,De Bilt,Utrecht,VBO,5.183843,52.109500
Dr. Schaepmanweg,33,,,3732CG,De Bilt,De Bilt,Utrecht,VBO,5.183887,52.109545
Dr. Schaepmanweg,35,,,3732CG,De Bilt,De Bilt,Utrecht,VBO,5.183887,52.109545
Dr. Schaepmanweg,37,,,3732CH,De Bilt,De Bilt,Utrecht,VBO,5.183916,52.109590
Dr. Schaepmanweg,39,,,3732CH,De Bilt,De Bilt,Utrecht,VBO,5.183916,52.109590
Dr. Schaepmanweg,41,,,3732CH,De Bilt,De Bilt,Utrecht,VBO,5.183945,52.109644
Dr. Schaepmanweg,43,,,3732CH,De Bilt,De Bilt,Utrecht,VBO,5.183945,52.109644
Dr. Schaepmanweg,45,,,3732CH,De Bilt,De Bilt,Utrecht,VBO,5.183974,52.109689
Dr. Schaepmanweg,47,,,3732CH,De Bilt,De Bilt,Utrecht,VBO,5.183974,52.109689
Dr. Schaepmanweg,49,,,3732CH,De Bilt,De Bilt,Utrecht,VBO,5.184003,52.109734
Dr. Schaepmanweg,51,,,3732CH,De Bilt,De Bilt,Utrecht,VBO,5.184003,52.109734
Dr. Schaepmanweg,53,,,3732CH,De Bilt,De Bilt,Utrecht,VBO,5.184046,52.109788
Dr. Schaepmanweg,55,,,3732CH,De Bilt,De Bilt,Utrecht,VBO,5.184046,52.109788
Dr. Schaepmanweg,57,,,3732CH,De Bilt,De Bilt,Utrecht,VBO,5.184075,52.109833
Dr. Schaepmanweg,59,,,3732CH,De Bilt,De Bilt,Utrecht,VBO,5.184075,52.109833
Dr. Schaepmanweg,61,,,3732CH,De Bilt,De Bilt,Utrecht,VBO,5.184104,52.109887
Dr. Schaepmanweg,63,,,3732CH,De Bilt,De Bilt,Utrecht,VBO,5.184104,52.109887
Dr. Schaepmanweg,65,,,3732CH,De Bilt,De Bilt,Utrecht,VBO,5.184133,52.109932
Dr. Schaepmanweg,67,,,3732CH,De Bilt,De Bilt,Utrecht,VBO,5.184133,52.109932
Dr. Schaepmanweg,69,,,3732CH,De Bilt,De Bilt,Utrecht,VBO,5.184177,52.109977
Dr. Schaepmanweg,71,,,3732CH,De Bilt,De Bilt,Utrecht,VBO,5.184177,52.109977
Dr. Schaepmanweg,2,,,3732CJ,De Bilt,De Bilt,Utrecht,VBO,5.183963,52.108862
Dr. Schaepmanweg,4,,,3732CJ,De Bilt,De Bilt,Utrecht,VBO,5.183963,52.108862
Dr. Schaepmanweg,6,,,3732CJ,De Bilt,De Bilt,Utrecht,VBO,5.183992,52.108916
Dr. Schaepmanweg,8,,,3732CJ,De Bilt,De Bilt,Utrecht,VBO,5.183992,52.108916
Dr. Schaepmanweg,10,,,3732CJ,De Bilt,De Bilt,Utrecht,VBO,5.184021,52.108961
Dr. Schaepmanweg,12,,,3732CJ,De Bilt,De Bilt,Utrecht,VBO,5.184021,52.108961
Dr. Schaepmanweg,14,,,3732CJ,De Bilt,De Bilt,Utrecht,VBO,5.184065,52.109015
Dr. Schaepmanweg,16,,,3732CJ,De Bilt,De Bilt,Utrecht,VBO,5.184065,52.109015
Dr. Schaepmanweg,18,,,3732CJ,De Bilt,De Bilt,Utrecht,VBO,5.184094,52.109060
Dr. Schaepmanweg,20,,,3732CJ,De Bilt,De Bilt,Utrecht,VBO,5.184094,52.109060
Dr. Schaepmanweg,22,,,3732CJ,De Bilt,De Bilt,Utrecht,VBO,5.184123,52.109105
Dr. Schaepmanweg,24,,,3732CJ,De Bilt,De Bilt,Utrecht,VBO,5.184123,52.109105
Dr. Schaepmanweg,26,,,3732CJ,De Bilt,De Bilt,Utrecht,VBO,5.184268,52.109321
Dr. Schaepmanweg,28,,,3732CJ,De Bilt,De Bilt,Utrecht,VBO,5.184268,52.109321
Dr. Schaepmanweg,30,,,3732CJ,De Bilt,De Bilt,Utrecht,VBO,5.184311,52.109375
Dr. Schaepmanweg,32,,,3732CJ,De Bilt,De Bilt,Utrecht,VBO,5.184311,52.109375
Dr. Schaepmanweg,34,,,3732CJ,De Bilt,De Bilt,Utrecht,VBO,5.184340,52.109420
Dr. Schaepmanweg,36,,,3732CJ,De Bilt,De Bilt,Utrecht,VBO,5.184340,52.109420
Dr. Schaepmanweg,38,,,3732CK,De Bilt,De Bilt,Utrecht,VBO,5.184369,52.109465
Dr. Schaepmanweg,40,,,3732CK,De Bilt,De Bilt,Utrecht,VBO,5.184369,52.109465
Dr. Schaepmanweg,42,,,3732CK,De Bilt,De Bilt,Utrecht,VBO,5.184398,52.109519
Dr. Schaepmanweg,44,,,3732CK,De Bilt,De Bilt,Utrecht,VBO,5.184398,52.109519
Dr. Schaepmanweg,46,,,3732CK,De Bilt,De Bilt,Utrecht,VBO,5.184442,52.109564
Dr. Schaepmanweg,48,,,3732CK,De Bilt,De Bilt,Utrecht,VBO,5.184442,52.109564
Dr. Schaepmanweg,50,,,3732CK,De Bilt,De Bilt,Utrecht,VBO,5.184471,52.109618
Dr. Schaepmanweg,52,,,3732CK,De Bilt,De Bilt,Utrecht,VBO,5.184471,52.109618
Dr. Schaepmanweg,54,,,3732CK,De Bilt,De Bilt,Utrecht,VBO,5.184500,52.109663
Dr. Schaepmanweg,56,,,3732CK,De Bilt,De Bilt,Utrecht,VBO,5.184500,52.109663
Dr. Schaepmanweg,58,,,3732CK,De Bilt,De Bilt,Utrecht,VBO,5.184543,52.109717
Dr. Schaepmanweg,60,,,3732CK,De Bilt,De Bilt,Utrecht,VBO,5.184543,52.109717
Dr. Schaepmanweg,62,,,3732CK,De Bilt,De Bilt,Utrecht,VBO,5.184572,52.109762
Dr. Schaepmanweg,64,,,3732CK,De Bilt,De Bilt,Utrecht,VBO,5.184572,52.109762
Dr. Schaepmanweg,66,,,3732CK,De Bilt,De Bilt,Utrecht,VBO,5.184601,52.109807
Dr. Schaepmanweg,68,,,3732CK,De Bilt,De Bilt,Utrecht,VBO,5.184601,52.109807
Dr. Schaepmanweg,70,,,3732CK,De Bilt,De Bilt,Utrecht,VBO,5.184630,52.109852
Dr. Schaepmanweg,72,,,3732CK,De Bilt,De Bilt,Utrecht,VBO,5.184630,52.109852
Herenweg,1,B,,3732CL,De Bilt,De Bilt,Utrecht,VBO,5.181982,52.109990
Herenweg,1,,,3732CL,De Bilt,De Bilt,Utrecht,VBO,5.182119,52.109938
Herenweg,3,,,3732CL,De Bilt,De Bilt,Utrecht,VBO,5.182119,52.109938
Herenweg,5,,,3732CL,De Bilt,De Bilt,Utrecht,VBO,5.182119,52.109938
Herenweg,9,,,3732CL,De Bilt,De Bilt,Utrecht,VBO,5.182324,52.109875
Herenweg,11,A,,3732CL,De Bilt,De Bilt,Utrecht,VBO,5.182353,52.109893
Herenweg,11,,,3732CL,De Bilt,De Bilt,Utrecht,VBO,5.182324,52.109875
Herenweg,13,,,3732CL,De Bilt,De Bilt,Utrecht,VBO,5.182324,52.109875
Herenweg,15,,,3732CL,De Bilt,De Bilt,Utrecht,VBO,5.182528,52.109812
Herenweg,17,,,3732CL,De Bilt,De Bilt,Utrecht,VBO,5.182587,52.109795
Herenweg,19,A,,3732CL,De Bilt,De Bilt,Utrecht,VBO,5.183013,52.110057
Herenweg,19,,,3732CL,De Bilt,De Bilt,Utrecht,VBO,5.182762,52.109750
Herenweg,23,,,3732CL,De Bilt,De Bilt,Utrecht,VBO,5.182996,52.109687
Herenweg,25,,,3732CL,De Bilt,De Bilt,Utrecht,VBO,5.183186,52.109652
Herenweg,27,,,3732CL,De Bilt,De Bilt,Utrecht,VBO,5.183259,52.109634
Herenweg,29,,,3732CL,De Bilt,De Bilt,Utrecht,VBO,5.183463,52.109627
Herenweg,2,A,,3732CM,De Bilt,De Bilt,Utrecht,VBO,5.181814,52.109859
Herenweg,2,B,,3732CM,De Bilt,De Bilt,Utrecht,VBO,5.181753,52.109875
Herenweg,2,,,3732CM,De Bilt,De Bilt,Utrecht,VBO,5.181643,52.109908
Herenweg,4,,,3732CM,De Bilt,De Bilt,Utrecht,VBO,5.182370,52.109652
Herenweg,6,,,3732CM,De Bilt,De Bilt,Utrecht,VBO,5.182317,52.109560
Herenweg,8,,,3732CM,De Bilt,De Bilt,Utrecht,VBO,5.182193,52.109354
Herenweg,10,,,3732CM,De Bilt,De Bilt,Utrecht,VBO,5.182006,52.109071
Herenweg,12,A,,3732CM,De Bilt,De Bilt,Utrecht,VBO,5.182313,52.109671
Herenweg,12,B,,3732CM,De Bilt,De Bilt,Utrecht,VBO,5.182284,52.109630
Herenweg,12,C,,3732CM,De Bilt,De Bilt,Utrecht,VBO,5.182261,52.109593
Herenweg,12,D,,3732CM,De Bilt,De Bilt,Utrecht,VBO,5.182230,52.109549
Herenweg,12,E,,3732CM,De Bilt,De Bilt,Utrecht,VBO,5.182204,52.109500
Herenweg,12,F,,3732CM,De Bilt,De Bilt,Utrecht,VBO,5.182171,52.109457
Herenweg,12,G,,3732CM,De Bilt,De Bilt,Utrecht,VBO,5.182154,52.109412
Herenweg,12,H,,3732CM,De Bilt,De Bilt,Utrecht,VBO,5.182127,52.109366
Herenweg,12,J,,3732CM,De Bilt,De Bilt,Utrecht,VBO,5.182100,52.109322
Herenweg,12,K,,3732CM,De Bilt,De Bilt,Utrecht,VBO,5.182073,52.109277
Herenweg,12,L,,3732CM,De Bilt,De Bilt,Utrecht,VBO,5.182041,52.109229
Herenweg,12,M,,3732CM,De Bilt,De Bilt,Utrecht,VBO,5.182012,52.109192
Herenweg,12,N,,3732CM,De Bilt,De Bilt,Utrecht,VBO,5.181934,52.109207
Herenweg,12,P,,3732CM,De Bilt,De Bilt,Utrecht,VBO,5.181879,52.109219
Herenweg,12,R,,3732CM,De Bilt,De Bilt,Utrecht,VBO,5.181837,52.109230
Herenweg,12,S,,3732CM,De Bilt,De Bilt,Utrecht,VBO,5.181757,52.109248
Herenweg,14,A,,3732CM,De Bilt,De Bilt,Utrecht,VBO,5.182246,52.109691
Herenweg,14,B,,3732CM,De Bilt,De Bilt,Utrecht,VBO,5.182223,52.109649
Herenweg,14,C,,3732CM,De Bilt,De Bilt,Utrecht,VBO,5.182200,52.109606
Herenweg,14,D,,3732CM,De Bilt,De Bilt,Utrecht,VBO,5.182176,52.109562
Herenweg,14,E,,3732CM,De Bilt,De Bilt,Utrecht,VBO,5.182154,52.109520
Herenweg,14,F,,3732CM,De Bilt,De Bilt,Utrecht,VBO,5.182118,52.109467
Herenweg,14,G,,3732CM,De Bilt,De Bilt,Utrecht,VBO,5.182094,52.109422
Herenweg,14,H,,3732CM,De Bilt,De Bilt,Utrecht,VBO,5.182053,52.109375
Herenweg,14,J,,3732CM,De Bilt,De Bilt,Utrecht,VBO,5.182028,52.109329
Herenweg,14,K,,3732CM,De Bilt,De Bilt,Utrecht,VBO,5.182008,52.109291
Herenweg,14,L,,3732CM,De Bilt,De Bilt,Utrecht,VBO,5.181988,52.109252
Herenweg,14,M,,3732CM,De Bilt,De Bilt,Utrecht,VBO,5.181946,52.109244
Herenweg,14,N,,3732CM,De Bilt,De Bilt,Utrecht,VBO,5.181904,52.109256
Herenweg,14,P,,3732CM,De Bilt,De Bilt,Utrecht,VBO,5.181832,52.109271
Herenweg,14,R,,3732CM,De Bilt,De Bilt,Utrecht,VBO,5.181761,52.109292
Herenweg,14,S,,3732CM,De Bilt,De Bilt,Utrecht,VBO,5.181710,52.109301
Herenweg,16,A,,3732CM,De Bilt,De Bilt,Utrecht,VBO,5.181931,52.109302
Herenweg,16,B,,3732CM,De Bilt,De Bilt,Utrecht,VBO,5.181855,52.109320
Herenweg,16,C,,3732CM,De Bilt,De Bilt,Utrecht,VBO,5.181779,52.109338
Herenweg,16,D,,3732CM,De Bilt,De Bilt,Utrecht,VBO,5.181719,52.109350
Herenweg,16,E,,3732CM,De Bilt,De Bilt,Utrecht,VBO,5.181662,52.109366
Herenweg,20,,,3732CM,De Bilt,De Bilt,Utrecht,VBO,5.182924,52.109409
Herenweg,22,,,3732CM,De Bilt,De Bilt,Utrecht,VBO,5.182997,52.109391
Herenweg,24,,,3732CM,De Bilt,De Bilt,Utrecht,VBO,5.183158,52.109346
Herenweg,26,A,,3732CM,De Bilt,De Bilt,Utrecht,VBO,5.183236,52.109175
Herenweg,26,,,3732CM,De Bilt,De Bilt,Utrecht,VBO,5.183246,52.109328
Ambachtstraat,1,,,3732CN,De Bilt,De Bilt,Utrecht,VBO,5.186081,52.108587
Ambachtstraat,2,,TR,3732CN,De Bilt,De Bilt,Utrecht,VBO,5.186479,52.109078
Ambachtstraat,2,,,3732CN,De Bilt,De Bilt,Utrecht,VBO,5.185904,52.108982
Ambachtstraat,3,,,3732CN,De Bilt,De Bilt,Utrecht,VBO,5.185803,52.108632
Ambachtstraat,4,,,3732CN,De Bilt,De Bilt,Utrecht,VBO,5.185670,52.109063
Ambachtstraat,5,A,,3732CN,De Bilt,De Bilt,Utrecht,VBO,5.185591,52.108676
Ambachtstraat,5,,,3732CN,De Bilt,De Bilt,Utrecht,VBO,5.185600,52.108700
Ambachtstraat,6,,,3732CN,De Bilt,De Bilt,Utrecht,VBO,5.185407,52.109107
Ambachtstraat,7,A,,3732CN,De Bilt,De Bilt,Utrecht,VBO,5.185400,52.108767
Ambachtstraat,7,,,3732CN,De Bilt,De Bilt,Utrecht,VBO,5.185394,52.108730
Ambachtstraat,8,A,,3732CN,De Bilt,De Bilt,Utrecht,VBO,5.185006,52.109212
Ambachtstraat,8,,,3732CN,De Bilt,De Bilt,Utrecht,VBO,5.185203,52.109152
Ambachtstraat,9,,,3732CN,De Bilt,De Bilt,Utrecht,VBO,5.185175,52.108774
Ambachtstraat,10,A,,3732CN,De Bilt,De Bilt,Utrecht,VBO,5.184805,52.109294
Ambachtstraat,10,,,3732CN,De Bilt,De Bilt,Utrecht,VBO,5.184750,52.109223
Ambachtstraat,11,A,,3732CN,De Bilt,De Bilt,Utrecht,VBO,5.184820,52.108871
Ambachtstraat,11,,,3732CN,De Bilt,De Bilt,Utrecht,VBO,5.184860,52.108840
Ambachtstraat,12,A,,3732CN,De Bilt,De Bilt,Utrecht,VBO,5.184696,52.109374
Ambachtstraat,12,,TR,3732CN,De Bilt,De Bilt,Utrecht,VBO,5.184831,52.109634
Ambachtstraat,12,,,3732CN,De Bilt,De Bilt,Utrecht,VBO,5.184639,52.109288
Ambachtstraat,13,,,3732CN,De Bilt,De Bilt,Utrecht,VBO,5.184706,52.108867
Ambachtstraat,15,A,,3732CN,De Bilt,De Bilt,Utrecht,VBO,5.184565,52.108868
Ambachtstraat,15,,,3732CN,De Bilt,De Bilt,Utrecht,VBO,5.184573,52.108923
Ambachtstraat,17,,,3732CN,De Bilt,De Bilt,Utrecht,VBO,5.184446,52.108948
Seringstraat,1,,,3732DA,De Bilt,De Bilt,Utrecht,VBO,5.185080,52.107228
Seringstraat,3,,,3732DA,De Bilt,De Bilt,Utrecht,VBO,5.185080,52.107228
Seringstraat,5,,,3732DA,De Bilt,De Bilt,Utrecht,VBO,5.184992,52.107255
Seringstraat,7,,,3732DA,De Bilt,De Bilt,Utrecht,VBO,5.184992,52.107255
Seringstraat,9,,,3732DA,De Bilt,De Bilt,Utrecht,VBO,5.184904,52.107273
Seringstraat,11,,,3732DA,De Bilt,De Bilt,Utrecht,VBO,5.184904,52.107273
Seringstraat,13,,,3732DA,De Bilt,De Bilt,Utrecht,VBO,5.184802,52.107309
Seringstraat,15,,,3732DA,De Bilt,De Bilt,Utrecht,VBO,5.184802,52.107309
Seringstraat,17,,,3732DA,De Bilt,De Bilt,Utrecht,VBO,5.184714,52.107326
Seringstraat,19,,,3732DA,De Bilt,De Bilt,Utrecht,VBO,5.184714,52.107326
Seringstraat,21,,,3732DA,De Bilt,De Bilt,Utrecht,VBO,5.184627,52.107353
Seringstraat,23,,,3732DA,De Bilt,De Bilt,Utrecht,VBO,5.184627,52.107353
Seringstraat,25,,,3732DA,De Bilt,De Bilt,Utrecht,VBO,5.184539,52.107380
Seringstraat,27,,,3732DA,De Bilt,De Bilt,Utrecht,VBO,5.184539,52.107380
Seringstraat,29,,,3732DA,De Bilt,De Bilt,Utrecht,VBO,5.184422,52.107371
Seringstraat,31,,,3732DA,De Bilt,De Bilt,Utrecht,VBO,5.184422,52.107371
Seringstraat,33,,,3732DA,De Bilt,De Bilt,Utrecht,VBO,5.184335,52.107389
Seringstraat,35,,,3732DA,De Bilt,De Bilt,Utrecht,VBO,5.184335,52.107389
Seringstraat,2,,,3732DB,De Bilt,De Bilt,Utrecht,VBO,5.185473,52.107400
Seringstraat,4,,,3732DB,De Bilt,De Bilt,Utrecht,VBO,5.185473,52.107400
Seringstraat,6,,,3732DB,De Bilt,De Bilt,Utrecht,VBO,5.185386,52.107427
Seringstraat,8,,,3732DB,De Bilt,De Bilt,Utrecht,VBO,5.185386,52.107427
Seringstraat,10,,,3732DB,De Bilt,De Bilt,Utrecht,VBO,5.185283,52.107453
Seringstraat,12,,,3732DB,De Bilt,De Bilt,Utrecht,VBO,5.185283,52.107453
Seringstraat,14,,,3732DB,De Bilt,De Bilt,Utrecht,VBO,5.185196,52.107471
Seringstraat,16,,,3732DB,De Bilt,De Bilt,Utrecht,VBO,5.185196,52.107471
Seringstraat,18,,,3732DB,De Bilt,De Bilt,Utrecht,VBO,5.185093,52.107462
Seringstraat,20,,,3732DB,De Bilt,De Bilt,Utrecht,VBO,5.185093,52.107462
Seringstraat,22,,,3732DB,De Bilt,De Bilt,Utrecht,VBO,5.185006,52.107489
Seringstraat,24,,,3732DB,De Bilt,De Bilt,Utrecht,VBO,5.185006,52.107489
Seringstraat,26,,,3732DB,De Bilt,De Bilt,Utrecht,VBO,5.184918,52.107507
Seringstraat,28,,,3732DB,De Bilt,De Bilt,Utrecht,VBO,5.184918,52.107507
Seringstraat,30,,,3732DC,De Bilt,De Bilt,Utrecht,VBO,5.184816,52.107578
Seringstraat,32,,,3732DC,De Bilt,De Bilt,Utrecht,VBO,5.184816,52.107578
Seringstraat,34,,,3732DC,De Bilt,De Bilt,Utrecht,VBO,5.184728,52.107596
Seringstraat,36,,,3732DC,De Bilt,De Bilt,Utrecht,VBO,5.184728,52.107596
Seringstraat,38,,,3732DC,De Bilt,De Bilt,Utrecht,VBO,5.184640,52.107614
Seringstraat,40,,,3732DC,De Bilt,De Bilt,Utrecht,VBO,5.184640,52.107614
Seringstraat,42,,,3732DC,De Bilt,De Bilt,Utrecht,VBO,5.184523,52.107614
Seringstraat,44,,,3732DC,De Bilt,De Bilt,Utrecht,VBO,5.184523,52.107614
Seringstraat,46,,,3732DC,De Bilt,De Bilt,Utrecht,VBO,5.184441,52.107646
Seringstraat,48,,,3732DC,De Bilt,De Bilt,Utrecht,VBO,5.184441,52.107646
Seringstraat,50,,,3732DC,De Bilt,De Bilt,Utrecht,VBO,5.184352,52.107674
Seringstraat,52,,,3732DC,De Bilt,De Bilt,Utrecht,VBO,5.184352,52.107674
Seringstraat,54,,,3732DC,De Bilt,De Bilt,Utrecht,VBO,5.184262,52.107699
Seringstraat,56,,,3732DC,De Bilt,De Bilt,Utrecht,VBO,5.184262,52.107699
Seringstraat,58,,,3732DC,De Bilt,De Bilt,Utrecht,VBO,5.184199,52.107735
Seringstraat,60,,,3732DC,De Bilt,De Bilt,Utrecht,VBO,5.184199,52.107735
Lathyrusstraat,1,A,,3732DD,De Bilt,De Bilt,Utrecht,VBO,5.183059,52.108284
Lathyrusstraat,1,,,3732DD,De Bilt,De Bilt,Utrecht,VBO,5.182857,52.108033
Lathyrusstraat,3,,,3732DD,De Bilt,De Bilt,Utrecht,VBO,5.182916,52.108015
Lathyrusstraat,5,,,3732DD,De Bilt,De Bilt,Utrecht,VBO,5.182989,52.107998
Lathyrusstraat,7,,,3732DD,De Bilt,De Bilt,Utrecht,VBO,5.183047,52.107980
Lathyrusstraat,9,,,3732DD,De Bilt,De Bilt,Utrecht,VBO,5.183121,52.107962
Lathyrusstraat,11,,,3732DD,De Bilt,De Bilt,Utrecht,VBO,5.183179,52.107935
Lathyrusstraat,13,,,3732DD,De Bilt,De Bilt,Utrecht,VBO,5.183252,52.107917
Lathyrusstraat,15,,,3732DD,De Bilt,De Bilt,Utrecht,VBO,5.183325,52.107899
Lathyrusstraat,17,,,3732DD,De Bilt,De Bilt,Utrecht,VBO,5.183384,52.107881
Lathyrusstraat,19,,,3732DD,De Bilt,De Bilt,Utrecht,VBO,5.183442,52.107864
Lathyrusstraat,21,,,3732DD,De Bilt,De Bilt,Utrecht,VBO,5.183501,52.107855
Lathyrusstraat,23,,,3732DD,De Bilt,De Bilt,Utrecht,VBO,5.183661,52.107864
Lathyrusstraat,25,,,3732DD,De Bilt,De Bilt,Utrecht,VBO,5.183749,52.107846
Lathyrusstraat,27,,,3732DD,De Bilt,De Bilt,Utrecht,VBO,5.183822,52.107819
Lathyrusstraat,29,,,3732DD,De Bilt,De Bilt,Utrecht,VBO,5.183895,52.107801
Lathyrusstraat,31,,,3732DD,De Bilt,De Bilt,Utrecht,VBO,5.183968,52.107784
Lathyrusstraat,33,,,3732DD,De Bilt,De Bilt,Utrecht,VBO,5.184056,52.107766
Lathyrusstraat,35,,,3732DD,De Bilt,De Bilt,Utrecht,VBO,5.184393,52.107869
Lathyrusstraat,2,A,,3732DE,De Bilt,De Bilt,Utrecht,VBO,5.182625,52.107889
Lathyrusstraat,2,,,3732DE,De Bilt,De Bilt,Utrecht,VBO,5.182551,52.107907
Lathyrusstraat,4,A,,3732DE,De Bilt,De Bilt,Utrecht,VBO,5.182771,52.107853
Lathyrusstraat,4,,,3732DE,De Bilt,De Bilt,Utrecht,VBO,5.182698,52.107871
Lathyrusstraat,6,,,3732DE,De Bilt,De Bilt,Utrecht,VBO,5.182858,52.107836
Lathyrusstraat,8,,,3732DE,De Bilt,De Bilt,Utrecht,VBO,5.182961,52.107809
Lathyrusstraat,10,,,3732DE,De Bilt,De Bilt,Utrecht,VBO,5.183005,52.107791
Lathyrusstraat,12,,,3732DE,De Bilt,De Bilt,Utrecht,VBO,5.183078,52.107773
Lathyrusstraat,14,,,3732DE,De Bilt,De Bilt,Utrecht,VBO,5.183136,52.107755
Lathyrusstraat,16,,,3732DE,De Bilt,De Bilt,Utrecht,VBO,5.183209,52.107737
Lathyrusstraat,18,,,3732DE,De Bilt,De Bilt,Utrecht,VBO,5.183268,52.107719
Lathyrusstraat,20,,,3732DE,De Bilt,De Bilt,Utrecht,VBO,5.183341,52.107702
Lathyrusstraat,22,,,3732DE,De Bilt,De Bilt,Utrecht,VBO,5.183399,52.107693
Nieuwstraat,1,A,,3732DG,De Bilt,De Bilt,Utrecht,VBO,5.180271,52.105348
Nieuwstraat,1,B,,3732DG,De Bilt,De Bilt,Utrecht,VBO,5.180309,52.105406
Nieuwstraat,1,C,,3732DG,De Bilt,De Bilt,Utrecht,VBO,5.180340,52.105464
Nieuwstraat,1,D,,3732DG,De Bilt,De Bilt,Utrecht,VBO,5.180300,52.105343
Nieuwstraat,1,E,,3732DG,De Bilt,De Bilt,Utrecht,VBO,5.180346,52.105419
Nieuwstraat,1,F,,3732DG,De Bilt,De Bilt,Utrecht,VBO,5.180374,52.105479
Nieuwstraat,3,,,3732DG,De Bilt,De Bilt,Utrecht,VBO,5.180344,52.105539
Nieuwstraat,5,,,3732DG,De Bilt,De Bilt,Utrecht,VBO,5.180358,52.105584
Nieuwstraat,7,,,3732DG,De Bilt,De Bilt,Utrecht,VBO,5.180387,52.105620
Nieuwstraat,9,,,3732DG,De Bilt,De Bilt,Utrecht,VBO,5.180416,52.105665
Nieuwstraat,11,,,3732DG,De Bilt,De Bilt,Utrecht,VBO,5.180445,52.105701
Nieuwstraat,13,,,3732DG,De Bilt,De Bilt,Utrecht,VBO,5.180460,52.105737
Nieuwstraat,15,,,3732DG,De Bilt,De Bilt,Utrecht,VBO,5.180474,52.105782
Nieuwstraat,17,,,3732DG,De Bilt,De Bilt,Utrecht,VBO,5.180561,52.105908
Nieuwstraat,19,,,3732DG,De Bilt,De Bilt,Utrecht,VBO,5.180590,52.105953
Nieuwstraat,21,,,3732DG,De Bilt,De Bilt,Utrecht,VBO,5.180619,52.105998
Nieuwstraat,23,,,3732DG,De Bilt,De Bilt,Utrecht,VBO,5.180648,52.106043
Nieuwstraat,25,,,3732DG,De Bilt,De Bilt,Utrecht,VBO,5.180721,52.106088
Nieuwstraat,27,,,3732DG,De Bilt,De Bilt,Utrecht,VBO,5.180735,52.106133
Nieuwstraat,29,,,3732DG,De Bilt,De Bilt,Utrecht,VBO,5.180779,52.106178
Nieuwstraat,31,,,3732DG,De Bilt,De Bilt,Utrecht,VBO,5.180793,52.106223
Nieuwstraat,47,,,3732DH,De Bilt,De Bilt,Utrecht,VBO,5.180952,52.106511
Nieuwstraat,49,,,3732DH,De Bilt,De Bilt,Utrecht,VBO,5.181069,52.106610
Nieuwstraat,51,,,3732DH,De Bilt,De Bilt,Utrecht,VBO,5.181098,52.106655
Nieuwstraat,53,,,3732DH,De Bilt,De Bilt,Utrecht,VBO,5.181112,52.106682
Nieuwstraat,55,,,3732DH,De Bilt,De Bilt,Utrecht,VBO,5.181141,52.106718
Nieuwstraat,57,,,3732DH,De Bilt,De Bilt,Utrecht,VBO,5.181155,52.106754
Nieuwstraat,59,,,3732DH,De Bilt,De Bilt,Utrecht,VBO,5.181199,52.106817
Nieuwstraat,61,,,3732DH,De Bilt,De Bilt,Utrecht,VBO,5.181228,52.106853
Nieuwstraat,63,,,3732DH,De Bilt,De Bilt,Utrecht,VBO,5.181257,52.106898
Nieuwstraat,65,,,3732DH,De Bilt,De Bilt,Utrecht,VBO,5.181286,52.106934
Nieuwstraat,67,,,3732DH,De Bilt,De Bilt,Utrecht,VBO,5.181315,52.106979
Nieuwstraat,69,,,3732DH,De Bilt,De Bilt,Utrecht,VBO,5.181344,52.107015
Nieuwstraat,71,,,3732DH,De Bilt,De Bilt,Utrecht,VBO,5.181358,52.107060
Nieuwstraat,73,,,3732DH,De Bilt,De Bilt,Utrecht,VBO,5.181387,52.107096
Nieuwstraat,75,,,3732DH,De Bilt,De Bilt,Utrecht,VBO,5.181416,52.107141
Nieuwstraat,77,,,3732DH,De Bilt,De Bilt,Utrecht,VBO,5.181445,52.107177
Nieuwstraat,79,,,3732DH,De Bilt,De Bilt,Utrecht,VBO,5.181474,52.107231
Nieuwstraat,81,,,3732DH,De Bilt,De Bilt,Utrecht,VBO,5.181497,52.107275
Nieuwstraat,83,,,3732DH,De Bilt,De Bilt,Utrecht,VBO,5.181503,52.107312
Nieuwstraat,85,,,3732DH,De Bilt,De Bilt,Utrecht,VBO,5.181532,52.107352
Nieuwstraat,87,,,3732DH,De Bilt,De Bilt,Utrecht,VBO,5.181561,52.107391
Nieuwstraat,89,,,3732DJ,De Bilt,De Bilt,Utrecht,VBO,5.181576,52.107429
Nieuwstraat,91,,,3732DJ,De Bilt,De Bilt,Utrecht,VBO,5.181605,52.107465
Nieuwstraat,93,,,3732DJ,De Bilt,De Bilt,Utrecht,VBO,5.181619,52.107501
Nieuwstraat,95,A,,3732DJ,De Bilt,De Bilt,Utrecht,VBO,5.181706,52.107554
Nieuwstraat,95,B,,3732DJ,De Bilt,De Bilt,Utrecht,VBO,5.181726,52.107579
Nieuwstraat,95,C,,3732DJ,De Bilt,De Bilt,Utrecht,VBO,5.181745,52.107606
Nieuwstraat,95,D,,3732DJ,De Bilt,De Bilt,Utrecht,VBO,5.181656,52.107566
Nieuwstraat,95,E,,3732DJ,De Bilt,De Bilt,Utrecht,VBO,5.181677,52.107594
Nieuwstraat,95,F,,3732DJ,De Bilt,De Bilt,Utrecht,VBO,5.181696,52.107620
Nieuwstraat,95,,TR,3732DJ,De Bilt,De Bilt,Utrecht,VBO,5.181697,52.107651
Nieuwstraat,97,A,,3732DJ,De Bilt,De Bilt,Utrecht,VBO,5.181720,52.107762
Nieuwstraat,97,B,,3732DJ,De Bilt,De Bilt,Utrecht,VBO,5.181749,52.107807
Nieuwstraat,97,C,,3732DJ,De Bilt,De Bilt,Utrecht,VBO,5.181778,52.107843
Nieuwstraat,97,,,3732DJ,De Bilt,De Bilt,Utrecht,VBO,5.181691,52.107717
Nieuwstraat,99,A,,3732DJ,De Bilt,De Bilt,Utrecht,VBO,5.181836,52.107924
Nieuwstraat,99,B,,3732DJ,De Bilt,De Bilt,Utrecht,VBO,5.181865,52.107969
Nieuwstraat,99,C,,3732DJ,De Bilt,De Bilt,Utrecht,VBO,5.181894,52.108005
Nieuwstraat,99,,,3732DJ,De Bilt,De Bilt,Utrecht,VBO,5.181807,52.107879
Nieuwstraat,103,,,3732DJ,De Bilt,De Bilt,Utrecht,VBO,5.182011,52.108095
Nieuwstraat,105,,,3732DJ,De Bilt,De Bilt,Utrecht,VBO,5.182040,52.108140
Nieuwstraat,107,,,3732DJ,De Bilt,De Bilt,Utrecht,VBO,5.182069,52.108176
Nieuwstraat,109,,,3732DJ,De Bilt,De Bilt,Utrecht,VBO,5.182098,52.108212
Nieuwstraat,111,,,3732DK,De Bilt,De Bilt,Utrecht,VBO,5.182127,52.108257
Nieuwstraat,113,,,3732DK,De Bilt,De Bilt,Utrecht,VBO,5.182156,52.108302
Nieuwstraat,115,,,3732DK,De Bilt,De Bilt,Utrecht,VBO,5.182185,52.108347
Nieuwstraat,117,,,3732DK,De Bilt,De Bilt,Utrecht,VBO,5.182214,52.108392
Nieuwstraat,119,,,3732DK,De Bilt,De Bilt,Utrecht,VBO,5.182243,52.108428
Nieuwstraat,121,,,3732DK,De Bilt,De Bilt,Utrecht,VBO,5.182257,52.108473
Nieuwstraat,123,,,3732DK,De Bilt,De Bilt,Utrecht,VBO,5.182286,52.108509
Nieuwstraat,125,,,3732DK,De Bilt,De Bilt,Utrecht,VBO,5.182330,52.108536
Nieuwstraat,127,,,3732DK,De Bilt,De Bilt,Utrecht,VBO,5.182359,52.108581
Nieuwstraat,129,,,3732DK,De Bilt,De Bilt,Utrecht,VBO,5.182388,52.108608
Nieuwstraat,131,,,3732DK,De Bilt,De Bilt,Utrecht,VBO,5.182417,52.108644
Nieuwstraat,133,,,3732DK,De Bilt,De Bilt,Utrecht,VBO,5.182446,52.108680
Nieuwstraat,2,A,,3732DL,De Bilt,De Bilt,Utrecht,VBO,5.180513,52.105370
Nieuwstraat,2,B,,3732DL,De Bilt,De Bilt,Utrecht,VBO,5.180495,52.105337
Nieuwstraat,2,,,3732DL,De Bilt,De Bilt,Utrecht,VBO,5.180531,52.105389
Nieuwstraat,10,,,3732DL,De Bilt,De Bilt,Utrecht,VBO,5.180694,52.105540
Nieuwstraat,12,A,,3732DL,De Bilt,De Bilt,Utrecht,VBO,5.180723,52.105585
Nieuwstraat,12,,,3732DL,De Bilt,De Bilt,Utrecht,VBO,5.180723,52.105585
Nieuwstraat,14,A,,3732DL,De Bilt,De Bilt,Utrecht,VBO,5.180737,52.105621
Nieuwstraat,14,,,3732DL,De Bilt,De Bilt,Utrecht,VBO,5.180737,52.105621
Nieuwstraat,16,,,3732DL,De Bilt,De Bilt,Utrecht,VBO,5.180766,52.105657
Nieuwstraat,18,,,3732DL,De Bilt,De Bilt,Utrecht,VBO,5.180825,52.105693
Nieuwstraat,20,A,,3732DL,De Bilt,De Bilt,Utrecht,VBO,5.180854,52.105729
Nieuwstraat,20,,,3732DL,De Bilt,De Bilt,Utrecht,VBO,5.180854,52.105729
Nieuwstraat,22,A,,3732DL,De Bilt,De Bilt,Utrecht,VBO,5.180883,52.105774
Nieuwstraat,22,,,3732DL,De Bilt,De Bilt,Utrecht,VBO,5.180883,52.105774
Nieuwstraat,24,,,3732DL,De Bilt,De Bilt,Utrecht,VBO,5.180926,52.105819
Nieuwstraat,26,,,3732DL,De Bilt,De Bilt,Utrecht,VBO,5.180897,52.105891
Nieuwstraat,28,A,,3732DL,De Bilt,De Bilt,Utrecht,VBO,5.180926,52.105927
Nieuwstraat,28,,,3732DL,De Bilt,De Bilt,Utrecht,VBO,5.180926,52.105927
Nieuwstraat,30,A,,3732DL,De Bilt,De Bilt,Utrecht,VBO,5.180955,52.105963
Nieuwstraat,30,,,3732DL,De Bilt,De Bilt,Utrecht,VBO,5.180955,52.105963
Nieuwstraat,32,,,3732DL,De Bilt,De Bilt,Utrecht,VBO,5.180969,52.105999
Nieuwstraat,34,,,3732DL,De Bilt,De Bilt,Utrecht,VBO,5.181013,52.106062
Nieuwstraat,36,,,3732DL,De Bilt,De Bilt,Utrecht,VBO,5.181042,52.106098
Nieuwstraat,38,,,3732DL,De Bilt,De Bilt,Utrecht,VBO,5.181071,52.106143
Nieuwstraat,40,,,3732DM,De Bilt,De Bilt,Utrecht,VBO,5.181100,52.106179
Nieuwstraat,42,,,3732DM,De Bilt,De Bilt,Utrecht,VBO,5.181143,52.106206
Nieuwstraat,44,,,3732DM,De Bilt,De Bilt,Utrecht,VBO,5.181158,52.106242
Nieuwstraat,46,,,3732DM,De Bilt,De Bilt,Utrecht,VBO,5.181230,52.106413
Nieuwstraat,48,,,3732DM,De Bilt,De Bilt,Utrecht,VBO,5.181259,52.106449
Nieuwstraat,50,,,3732DM,De Bilt,De Bilt,Utrecht,VBO,5.181288,52.106485
Nieuwstraat,52,,,3732DM,De Bilt,De Bilt,Utrecht,VBO,5.181303,52.106521
Nieuwstraat,54,,,3732DM,De Bilt,De Bilt,Utrecht,VBO,5.181332,52.106557
Nieuwstraat,56,,,3732DM,De Bilt,De Bilt,Utrecht,VBO,5.181361,52.106602
Nieuwstraat,58,,,3732DM,De Bilt,De Bilt,Utrecht,VBO,5.181404,52.106647
Nieuwstraat,60,,,3732DM,De Bilt,De Bilt,Utrecht,VBO,5.181433,52.106683
Nieuwstraat,62,,,3732DM,De Bilt,De Bilt,Utrecht,VBO,5.181462,52.106719
Nieuwstraat,64,,,3732DM,De Bilt,De Bilt,Utrecht,VBO,5.181491,52.106764
Nieuwstraat,66,,,3732DM,De Bilt,De Bilt,Utrecht,VBO,5.181506,52.106800
Nieuwstraat,68,,,3732DN,De Bilt,De Bilt,Utrecht,VBO,5.181622,52.106962
Nieuwstraat,70,,,3732DN,De Bilt,De Bilt,Utrecht,VBO,5.181665,52.107025
Nieuwstraat,72,,,3732DN,De Bilt,De Bilt,Utrecht,VBO,5.181694,52.107070
Nieuwstraat,74,,,3732DN,De Bilt,De Bilt,Utrecht,VBO,5.181723,52.107115
Nieuwstraat,76,,,3732DN,De Bilt,De Bilt,Utrecht,VBO,5.181738,52.107151
Nieuwstraat,78,,,3732DN,De Bilt,De Bilt,Utrecht,VBO,5.181781,52.107214
Nieuwstraat,80,,,3732DN,De Bilt,De Bilt,Utrecht,VBO,5.181825,52.107250
Nieuwstraat,82,,,3732DN,De Bilt,De Bilt,Utrecht,VBO,5.181839,52.107295
Nieuwstraat,84,,,3732DN,De Bilt,De Bilt,Utrecht,VBO,5.181868,52.107331
Nieuwstraat,86,,,3732DN,De Bilt,De Bilt,Utrecht,VBO,5.181913,52.107383
Nieuwstraat,90,,,3732DN,De Bilt,De Bilt,Utrecht,VBO,5.182057,52.107583
Nieuwstraat,92,,,3732DN,De Bilt,De Bilt,Utrecht,VBO,5.182071,52.107619
Nieuwstraat,94,A,,3732DN,De Bilt,De Bilt,Utrecht,VBO,5.182150,52.107676
Nieuwstraat,94,,,3732DN,De Bilt,De Bilt,Utrecht,VBO,5.182109,52.107676
Nieuwstraat,96,,,3732DN,De Bilt,De Bilt,Utrecht,VBO,5.182129,52.107718
Nieuwstraat,98,,,3732DP,De Bilt,De Bilt,Utrecht,VBO,5.182129,52.107718
Nieuwstraat,100,,,3732DP,De Bilt,De Bilt,Utrecht,VBO,5.182189,52.107801
Nieuwstraat,102,,,3732DP,De Bilt,De Bilt,Utrecht,VBO,5.182201,52.107834
Nieuwstraat,104,,,3732DP,De Bilt,De Bilt,Utrecht,VBO,5.182230,52.107879
Nieuwstraat,106,,,3732DP,De Bilt,De Bilt,Utrecht,VBO,5.182245,52.107915
Nieuwstraat,108,,,3732DP,De Bilt,De Bilt,Utrecht,VBO,5.182274,52.107960
Nieuwstraat,110,,,3732DP,De Bilt,De Bilt,Utrecht,VBO,5.182415,52.108127
Nieuwstraat,112,A,,3732DP,De Bilt,De Bilt,Utrecht,VBO,5.182478,52.108216
Nieuwstraat,112,B,,3732DP,De Bilt,De Bilt,Utrecht,VBO,5.182504,52.108264
Nieuwstraat,112,C,,3732DP,De Bilt,De Bilt,Utrecht,VBO,5.182528,52.108307
Nieuwstraat,112,D,,3732DP,De Bilt,De Bilt,Utrecht,VBO,5.182553,52.108356
Nieuwstraat,112,,,3732DP,De Bilt,De Bilt,Utrecht,VBO,5.182448,52.108173
Nieuwstraat,114,,,3732DP,De Bilt,De Bilt,Utrecht,VBO,5.182538,52.108411
Nieuwstraat,116,,,3732DP,De Bilt,De Bilt,Utrecht,VBO,5.182564,52.108464
Nieuwstraat,118,,,3732DP,De Bilt,De Bilt,Utrecht,VBO,5.182607,52.108509
Nieuwstraat,120,,,3732DP,De Bilt,De Bilt,Utrecht,VBO,5.182636,52.108554
Nieuwstraat,122,,,3732DP,De Bilt,De Bilt,Utrecht,VBO,5.182665,52.108599
Nieuwstraat,124,,,3732DP,De Bilt,De Bilt,Utrecht,VBO,5.182694,52.108644
Dahliastraat,1,A,,3732DR,De Bilt,De Bilt,Utrecht,VBO,5.182314,52.107541
Dahliastraat,1,B,,3732DR,De Bilt,De Bilt,Utrecht,VBO,5.182391,52.107524
Dahliastraat,1,,,3732DR,De Bilt,De Bilt,Utrecht,VBO,5.182524,52.107493
Dahliastraat,2,,,3732DR,De Bilt,De Bilt,Utrecht,VBO,5.182291,52.107304
Dahliastraat,3,,,3732DR,De Bilt,De Bilt,Utrecht,VBO,5.182641,52.107458
Dahliastraat,4,,,3732DR,De Bilt,De Bilt,Utrecht,VBO,5.182291,52.107304
Dahliastraat,5,,,3732DR,De Bilt,De Bilt,Utrecht,VBO,5.182714,52.107440
Dahliastraat,7,,,3732DR,De Bilt,De Bilt,Utrecht,VBO,5.182787,52.107422
Dahliastraat,9,,,3732DR,De Bilt,De Bilt,Utrecht,VBO,5.182860,52.107395
Dahliastraat,11,,,3732DR,De Bilt,De Bilt,Utrecht,VBO,5.182919,52.107386
Dahliastraat,13,,,3732DR,De Bilt,De Bilt,Utrecht,VBO,5.182992,52.107359
Dahliastraat,15,,,3732DR,De Bilt,De Bilt,Utrecht,VBO,5.183065,52.107342
Dahliastraat,17,,,3732DR,De Bilt,De Bilt,Utrecht,VBO,5.183138,52.107324
Leliestraat,1,,,3732DS,De Bilt,De Bilt,Utrecht,VBO,5.182221,52.106828
Leliestraat,3,,,3732DS,De Bilt,De Bilt,Utrecht,VBO,5.182279,52.106909
Leliestraat,5,,,3732DS,De Bilt,De Bilt,Utrecht,VBO,5.182308,52.106945
Leliestraat,7,,,3732DS,De Bilt,De Bilt,Utrecht,VBO,5.182337,52.106990
Leliestraat,9,,,3732DS,De Bilt,De Bilt,Utrecht,VBO,5.182366,52.107035
Leliestraat,11,,,3732DS,De Bilt,De Bilt,Utrecht,VBO,5.182409,52.107080
Leliestraat,13,,,3732DS,De Bilt,De Bilt,Utrecht,VBO,5.182424,52.107116
Leliestraat,15,,,3732DS,De Bilt,De Bilt,Utrecht,VBO,5.182453,52.107161
Leliestraat,17,,,3732DS,De Bilt,De Bilt,Utrecht,VBO,5.182482,52.107197
Leliestraat,19,,,3732DS,De Bilt,De Bilt,Utrecht,VBO,5.182518,52.107251
Leliestraat,21,,,3732DS,De Bilt,De Bilt,Utrecht,VBO,5.182554,52.107287
Rozenstraat,1,,,3732DT,De Bilt,De Bilt,Utrecht,VBO,5.181914,52.106890
Rozenstraat,2,,,3732DT,De Bilt,De Bilt,Utrecht,VBO,5.181740,52.106710
Rozenstraat,4,,,3732DT,De Bilt,De Bilt,Utrecht,VBO,5.181798,52.106692
Rozenstraat,6,,,3732DT,De Bilt,De Bilt,Utrecht,VBO,5.181886,52.106674
Rozenstraat,8,,,3732DT,De Bilt,De Bilt,Utrecht,VBO,5.181944,52.106657
Rozenstraat,10,,,3732DT,De Bilt,De Bilt,Utrecht,VBO,5.182017,52.106639
Rozenstraat,12,,,3732DT,De Bilt,De Bilt,Utrecht,VBO,5.182076,52.106621
Rozenstraat,14,,,3732DT,De Bilt,De Bilt,Utrecht,VBO,5.182149,52.106603
Rozenstraat,16,,,3732DT,De Bilt,De Bilt,Utrecht,VBO,5.182222,52.106585
Rozenstraat,18,,,3732DT,De Bilt,De Bilt,Utrecht,VBO,5.182295,52.106558
Rozenstraat,20,,,3732DT,De Bilt,De Bilt,Utrecht,VBO,5.182368,52.106540
Rozenstraat,22,,,3732DT,De Bilt,De Bilt,Utrecht,VBO,5.182441,52.106523
Rozenstraat,24,,,3732DT,De Bilt,De Bilt,Utrecht,VBO,5.182500,52.106505
Rozenstraat,26,,,3732DT,De Bilt,De Bilt,Utrecht,VBO,5.182587,52.106487
Schoolstraat,1,,,3732DV,De Bilt,De Bilt,Utrecht,VBO,5.181508,52.106377
Schoolstraat,2,,,3732DV,De Bilt,De Bilt,Utrecht,VBO,5.181435,52.106197
Schoolstraat,3,,,3732DV,De Bilt,De Bilt,Utrecht,VBO,5.181581,52.106359
Schoolstraat,4,,,3732DV,De Bilt,De Bilt,Utrecht,VBO,5.181538,52.106171
Schoolstraat,5,A,,3732DV,De Bilt,De Bilt,Utrecht,VBO,5.181657,52.106347
Schoolstraat,5,,,3732DV,De Bilt,De Bilt,Utrecht,VBO,5.181727,52.106324
Schoolstraat,6,,,3732DV,De Bilt,De Bilt,Utrecht,VBO,5.181655,52.106144
Schoolstraat,7,A,,3732DV,De Bilt,De Bilt,Utrecht,VBO,5.181858,52.106288
Schoolstraat,7,,,3732DV,De Bilt,De Bilt,Utrecht,VBO,5.181785,52.106306
Schoolstraat,8,,,3732DV,De Bilt,De Bilt,Utrecht,VBO,5.181728,52.106126
Schoolstraat,9,,,3732DV,De Bilt,De Bilt,Utrecht,VBO,5.181931,52.106261
Schoolstraat,11,,,3732DV,De Bilt,De Bilt,Utrecht,VBO,5.182077,52.106225
Schoolstraat,13,,,3732DV,De Bilt,De Bilt,Utrecht,VBO,5.182136,52.106208
Schoolstraat,15,,,3732DV,De Bilt,De Bilt,Utrecht,VBO,5.182209,52.106190
Schoolstraat,17,,,3732DV,De Bilt,De Bilt,Utrecht,VBO,5.182282,52.106172
Schoolstraat,19,,,3732DV,De Bilt,De Bilt,Utrecht,VBO,5.182341,52.106154
Torenstraat,1,,,3732DW,De Bilt,De Bilt,Utrecht,VBO,5.181220,52.105352
Torenstraat,3,,,3732DW,De Bilt,De Bilt,Utrecht,VBO,5.181235,52.105397
Torenstraat,5,,,3732DW,De Bilt,De Bilt,Utrecht,VBO,5.181278,52.105469
Torenstraat,7,,,3732DW,De Bilt,De Bilt,Utrecht,VBO,5.181307,52.105514
Torenstraat,9,,,3732DW,De Bilt,De Bilt,Utrecht,VBO,5.181336,52.105550
Torenstraat,11,,,3732DW,De Bilt,De Bilt,Utrecht,VBO,5.181351,52.105586
Torenstraat,13,,,3732DW,De Bilt,De Bilt,Utrecht,VBO,5.181380,52.105631
Torenstraat,15,,,3732DW,De Bilt,De Bilt,Utrecht,VBO,5.181409,52.105676
Torenstraat,17,,,3732DW,De Bilt,De Bilt,Utrecht,VBO,5.181452,52.105739
Torenstraat,19,,,3732DW,De Bilt,De Bilt,Utrecht,VBO,5.181481,52.105775
Torenstraat,21,,,3732DW,De Bilt,De Bilt,Utrecht,VBO,5.181510,52.105820
Torenstraat,23,,,3732DW,De Bilt,De Bilt,Utrecht,VBO,5.181554,52.105865
Torenstraat,25,,,3732DW,De Bilt,De Bilt,Utrecht,VBO,5.181583,52.105910
Torenstraat,27,,,3732DW,De Bilt,De Bilt,Utrecht,VBO,5.181626,52.105964
Torenstraat,29,,,3732DW,De Bilt,De Bilt,Utrecht,VBO,5.181670,52.106027
Torenstraat,31,,,3732DW,De Bilt,De Bilt,Utrecht,VBO,5.181699,52.106072
Torenstraat,2,,,3732DX,De Bilt,De Bilt,Utrecht,VBO,5.181585,52.105389
Torenstraat,4,,,3732DX,De Bilt,De Bilt,Utrecht,VBO,5.181614,52.105434
Torenstraat,6,,,3732DX,De Bilt,De Bilt,Utrecht,VBO,5.181643,52.105470
Torenstraat,8,,,3732DX,De Bilt,De Bilt,Utrecht,VBO,5.181672,52.105515
Torenstraat,10,,,3732DX,De Bilt,De Bilt,Utrecht,VBO,5.181686,52.105560
Torenstraat,12,,,3732DX,De Bilt,De Bilt,Utrecht,VBO,5.181715,52.105605
Torenstraat,14,,,3732DX,De Bilt,De Bilt,Utrecht,VBO,5.181788,52.105668
Torenstraat,16,,,3732DX,De Bilt,De Bilt,Utrecht,VBO,5.181817,52.105722
Torenstraat,18,,,3732DX,De Bilt,De Bilt,Utrecht,VBO,5.181861,52.105776
Torenstraat,24,,,3732DX,De Bilt,De Bilt,Utrecht,VBO,5.181920,52.105850
Torenstraat,26,,,3732DX,De Bilt,De Bilt,Utrecht,VBO,5.181933,52.105920
Torenstraat,28,,,3732DX,De Bilt,De Bilt,Utrecht,VBO,5.181962,52.105956
Torenstraat,30,,,3732DX,De Bilt,De Bilt,Utrecht,VBO,5.181991,52.105992
Torenstraat,32,,,3732DX,De Bilt,De Bilt,Utrecht,VBO,5.182020,52.106037
Jasmijnstraat,1,,,3732EA,De Bilt,De Bilt,Utrecht,VBO,5.182140,52.105282
Jasmijnstraat,3,,,3732EA,De Bilt,De Bilt,Utrecht,VBO,5.182183,52.105399
Jasmijnstraat,5,,,3732EA,De Bilt,De Bilt,Utrecht,VBO,5.182227,52.105453
Jasmijnstraat,7,,,3732EA,De Bilt,De Bilt,Utrecht,VBO,5.182271,52.105498
Jasmijnstraat,9,,,3732EA,De Bilt,De Bilt,Utrecht,VBO,5.182299,52.105561
Jasmijnstraat,11,,,3732EA,De Bilt,De Bilt,Utrecht,VBO,5.182343,52.105615
Jasmijnstraat,13,,,3732EA,De Bilt,De Bilt,Utrecht,VBO,5.182387,52.105678
Jasmijnstraat,15,,,3732EA,De Bilt,De Bilt,Utrecht,VBO,5.182415,52.105732
Jasmijnstraat,17,,,3732EA,De Bilt,De Bilt,Utrecht,VBO,5.182459,52.105777
Jasmijnstraat,19,,,3732EA,De Bilt,De Bilt,Utrecht,VBO,5.182488,52.105831
Jasmijnstraat,21,,,3732EA,De Bilt,De Bilt,Utrecht,VBO,5.182517,52.105885
Jasmijnstraat,23,,,3732EA,De Bilt,De Bilt,Utrecht,VBO,5.182662,52.106074
Jasmijnstraat,25,,,3732EA,De Bilt,De Bilt,Utrecht,VBO,5.182706,52.106128
Jasmijnstraat,27,,,3732EA,De Bilt,De Bilt,Utrecht,VBO,5.182735,52.106173
Jasmijnstraat,29,,,3732EA,De Bilt,De Bilt,Utrecht,VBO,5.182778,52.106227
Jasmijnstraat,31,,,3732EA,De Bilt,De Bilt,Utrecht,VBO,5.182807,52.106281
Jasmijnstraat,33,,,3732EA,De Bilt,De Bilt,Utrecht,VBO,5.182836,52.106326
Jasmijnstraat,35,,,3732EA,De Bilt,De Bilt,Utrecht,VBO,5.182880,52.106380
Jasmijnstraat,37,,,3732EA,De Bilt,De Bilt,Utrecht,VBO,5.182923,52.106434
Jasmijnstraat,39,,,3732EB,De Bilt,De Bilt,Utrecht,VBO,5.183460,52.107234
Jasmijnstraat,41,,,3732EB,De Bilt,De Bilt,Utrecht,VBO,5.183503,52.107288
Jasmijnstraat,43,,,3732EB,De Bilt,De Bilt,Utrecht,VBO,5.183532,52.107342
Jasmijnstraat,45,,,3732EB,De Bilt,De Bilt,Utrecht,VBO,5.183576,52.107396
Jasmijnstraat,47,,,3732EB,De Bilt,De Bilt,Utrecht,VBO,5.183605,52.107450
Jasmijnstraat,49,,,3732EB,De Bilt,De Bilt,Utrecht,VBO,5.183634,52.107495
Jasmijnstraat,51,,,3732EB,De Bilt,De Bilt,Utrecht,VBO,5.183662,52.107549
Jasmijnstraat,53,,,3732EB,De Bilt,De Bilt,Utrecht,VBO,5.183691,52.107594
Jasmijnstraat,2,,,3732EC,De Bilt,De Bilt,Utrecht,VBO,5.182418,52.105147
Jasmijnstraat,4,,,3732EC,De Bilt,De Bilt,Utrecht,VBO,5.182476,52.105246
Jasmijnstraat,6,A,,3732EC,De Bilt,De Bilt,Utrecht,VBO,5.183204,52.105553
Jasmijnstraat,6,B,,3732EC,De Bilt,De Bilt,Utrecht,VBO,5.183461,52.105598
Jasmijnstraat,6,,,3732EC,De Bilt,De Bilt,Utrecht,VBO,5.183088,52.105436
Jasmijnstraat,10,,,3732EC,De Bilt,De Bilt,Utrecht,VBO,5.183597,52.105824
Jasmijnstraat,12,,,3732EC,De Bilt,De Bilt,Utrecht,VBO,5.183013,52.105850
Jasmijnstraat,14,,,3732EC,De Bilt,De Bilt,Utrecht,VBO,5.183042,52.105886
Jasmijnstraat,16,,,3732EC,De Bilt,De Bilt,Utrecht,VBO,5.183071,52.105940
Jasmijnstraat,20,,,3732EC,De Bilt,De Bilt,Utrecht,VBO,5.183179,52.106021
Jasmijnstraat,22,,,3732EC,De Bilt,De Bilt,Utrecht,VBO,5.183189,52.106070
Jasmijnstraat,24,,,3732EC,De Bilt,De Bilt,Utrecht,VBO,5.183202,52.106155
Jasmijnstraat,26,,,3732EC,De Bilt,De Bilt,Utrecht,VBO,5.183231,52.106191
Jasmijnstraat,28,,,3732EC,De Bilt,De Bilt,Utrecht,VBO,5.183245,52.106227
Jasmijnstraat,30,,,3732EC,De Bilt,De Bilt,Utrecht,VBO,5.183274,52.106254
Jasmijnstraat,32,,,3732EC,De Bilt,De Bilt,Utrecht,VBO,5.183289,52.106290
Jasmijnstraat,34,,,3732EC,De Bilt,De Bilt,Utrecht,VBO,5.183318,52.106326
Jasmijnstraat,36,,,3732EC,De Bilt,De Bilt,Utrecht,VBO,5.183347,52.106362
Jasmijnstraat,38,,,3732EC,De Bilt,De Bilt,Utrecht,VBO,5.183361,52.106398
Jasmijnstraat,40,,,3732EC,De Bilt,De Bilt,Utrecht,VBO,5.183390,52.106434
Jasmijnstraat,42,,,3732EC,De Bilt,De Bilt,Utrecht,VBO,5.183405,52.106461
Jasmijnstraat,44,,,3732EC,De Bilt,De Bilt,Utrecht,VBO,5.183434,52.106497
Jasmijnstraat,46,,,3732EC,De Bilt,De Bilt,Utrecht,VBO,5.183463,52.106533
Jasmijnstraat,48,,,3732EC,De Bilt,De Bilt,Utrecht,VBO,5.183492,52.106578
Jasmijnstraat,50,,,3732ED,De Bilt,De Bilt,Utrecht,VBO,5.183521,52.106614
Jasmijnstraat,52,,,3732ED,De Bilt,De Bilt,Utrecht,VBO,5.183535,52.106650
Jasmijnstraat,54,,,3732ED,De Bilt,De Bilt,Utrecht,VBO,5.183564,52.106677
Jasmijnstraat,56,,,3732ED,De Bilt,De Bilt,Utrecht,VBO,5.183579,52.106713
Jasmijnstraat,58,,,3732ED,De Bilt,De Bilt,Utrecht,VBO,5.183608,52.106740
Jasmijnstraat,60,,,3732ED,De Bilt,De Bilt,Utrecht,VBO,5.183622,52.106776
Jasmijnstraat,62,,,3732ED,De Bilt,De Bilt,Utrecht,VBO,5.183651,52.106812
Jasmijnstraat,64,,,3732ED,De Bilt,De Bilt,Utrecht,VBO,5.183680,52.106848
Jasmijnstraat,66,,,3732ED,De Bilt,De Bilt,Utrecht,VBO,5.183695,52.106884
Jasmijnstraat,68,,,3732ED,De Bilt,De Bilt,Utrecht,VBO,5.183724,52.106911
Jasmijnstraat,70,,,3732ED,De Bilt,De Bilt,Utrecht,VBO,5.183738,52.106947
Jasmijnstraat,72,,,3732ED,De Bilt,De Bilt,Utrecht,VBO,5.183825,52.107028
Jasmijnstraat,74,,,3732ED,De Bilt,De Bilt,Utrecht,VBO,5.183825,52.107028
Jasmijnstraat,76,,,3732ED,De Bilt,De Bilt,Utrecht,VBO,5.183854,52.107082
Jasmijnstraat,78,,,3732EE,De Bilt,De Bilt,Utrecht,VBO,5.183854,52.107082
Jasmijnstraat,80,,,3732EE,De Bilt,De Bilt,Utrecht,VBO,5.183898,52.107136
Jasmijnstraat,82,,,3732EE,De Bilt,De Bilt,Utrecht,VBO,5.183898,52.107136
Jasmijnstraat,84,,,3732EE,De Bilt,De Bilt,Utrecht,VBO,5.183927,52.107190
Jasmijnstraat,86,,,3732EE,De Bilt,De Bilt,Utrecht,VBO,5.183927,52.107190
Jasmijnstraat,88,,,3732EE,De Bilt,De Bilt,Utrecht,VBO,5.183970,52.107253
Jasmijnstraat,90,,,3732EE,De Bilt,De Bilt,Utrecht,VBO,5.183970,52.107253
Jasmijnstraat,92,,,3732EE,De Bilt,De Bilt,Utrecht,VBO,5.183999,52.107298
Jasmijnstraat,94,,,3732EE,De Bilt,De Bilt,Utrecht,VBO,5.183999,52.107298
Jasmijnstraat,96,,,3732EE,De Bilt,De Bilt,Utrecht,VBO,5.184028,52.107352
Jasmijnstraat,98,,,3732EE,De Bilt,De Bilt,Utrecht,VBO,5.184028,52.107352
Jasmijnstraat,100,,,3732EE,De Bilt,De Bilt,Utrecht,VBO,5.184059,52.107415
Jasmijnstraat,102,,,3732EE,De Bilt,De Bilt,Utrecht,VBO,5.184059,52.107415
Jasmijnstraat,104,,,3732EE,De Bilt,De Bilt,Utrecht,VBO,5.184072,52.107478
Jasmijnstraat,106,,,3732EE,De Bilt,De Bilt,Utrecht,VBO,5.184072,52.107478
Narcisstraat,2,,,3732EG,De Bilt,De Bilt,Utrecht,VBO,5.182696,52.105067
Burgemeester De Withstraat,1,A,,3732EH,De Bilt,De Bilt,Utrecht,VBO,5.183501,52.104565
Burgemeester De Withstraat,1,,,3732EH,De Bilt,De Bilt,Utrecht,VBO,5.183728,52.104558
Burgemeester De Withstraat,5,A,,3732EH,De Bilt,De Bilt,Utrecht,VBO,5.183248,52.104617
Burgemeester De Withstraat,5,B,,3732EH,De Bilt,De Bilt,Utrecht,VBO,5.183180,52.104628
Burgemeester De Withstraat,5,,,3732EH,De Bilt,De Bilt,Utrecht,VBO,5.183385,52.104594
Burgemeester De Withstraat,7,,,3732EH,De Bilt,De Bilt,Utrecht,VBO,5.183083,52.104634
Burgemeester De Withstraat,9,,,3732EH,De Bilt,De Bilt,Utrecht,VBO,5.183004,52.104654
Burgemeester De Withstraat,11,A,,3732EH,De Bilt,De Bilt,Utrecht,VBO,5.182814,52.104681
Burgemeester De Withstraat,11,,,3732EH,De Bilt,De Bilt,Utrecht,VBO,5.182917,52.104663
Burgemeester De Withstraat,13,,,3732EH,De Bilt,De Bilt,Utrecht,VBO,5.182712,52.104690
Burgemeester De Withstraat,15,A,,3732EH,De Bilt,De Bilt,Utrecht,VBO,5.182713,52.104582
Burgemeester De Withstraat,15,B,,3732EH,De Bilt,De Bilt,Utrecht,VBO,5.182648,52.104498
Burgemeester De Withstraat,15,,,3732EH,De Bilt,De Bilt,Utrecht,VBO,5.182712,52.104690
Burgemeester De Withstraat,17,,,3732EH,De Bilt,De Bilt,Utrecht,VBO,5.182601,52.104706
Burgemeester De Withstraat,19,,,3732EH,De Bilt,De Bilt,Utrecht,VBO,5.182522,52.104716
Burgemeester De Withstraat,21,,,3732EH,De Bilt,De Bilt,Utrecht,VBO,5.182449,52.104716
Burgemeester De Withstraat,29,A,,3732EJ,De Bilt,De Bilt,Utrecht,VBO,5.181107,52.104588
Burgemeester De Withstraat,31,A,,3732EJ,De Bilt,De Bilt,Utrecht,VBO,5.181159,52.104999
Burgemeester De Withstraat,31,B,,3732EJ,De Bilt,De Bilt,Utrecht,VBO,5.181223,52.104948
Burgemeester De Withstraat,31,C,,3732EJ,De Bilt,De Bilt,Utrecht,VBO,5.181157,52.104957
Burgemeester De Withstraat,31,D,,3732EJ,De Bilt,De Bilt,Utrecht,VBO,5.181179,52.104912
Burgemeester De Withstraat,31,,,3732EJ,De Bilt,De Bilt,Utrecht,VBO,5.181232,52.104991
Burgemeester De Withstraat,33,A,,3732EJ,De Bilt,De Bilt,Utrecht,VBO,5.180667,52.105037
Burgemeester De Withstraat,33,B,,3732EJ,De Bilt,De Bilt,Utrecht,VBO,5.180685,52.104991
Burgemeester De Withstraat,33,,,3732EJ,De Bilt,De Bilt,Utrecht,VBO,5.180721,52.105070
Burgemeester De Withstraat,35,,,3732EJ,De Bilt,De Bilt,Utrecht,VBO,5.180506,52.105081
Burgemeester De Withstraat,37,,,3732EJ,De Bilt,De Bilt,Utrecht,VBO,5.180389,52.105108
Burgemeester De Withstraat,39,,,3732EJ,De Bilt,De Bilt,Utrecht,VBO,5.180302,52.105126
Burgemeester De Withstraat,41,,,3732EJ,De Bilt,De Bilt,Utrecht,VBO,5.180243,52.105144
Burgemeester De Withstraat,43,,,3732EJ,De Bilt,De Bilt,Utrecht,VBO,5.180170,52.105161
Burgemeester De Withstraat,49,,,3732EJ,De Bilt,De Bilt,Utrecht,VBO,5.179893,52.105179
Burgemeester De Withstraat,53,,,3732EJ,De Bilt,De Bilt,Utrecht,VBO,5.179440,52.105241
Burgemeester De Withstraat,55,,,3732EJ,De Bilt,De Bilt,Utrecht,VBO,5.179338,52.105259
Burgemeester De Withstraat,59,A,,3732EJ,De Bilt,De Bilt,Utrecht,VBO,5.178658,52.105351
Burgemeester De Withstraat,59,B,,3732EJ,De Bilt,De Bilt,Utrecht,VBO,5.178650,52.105323
Burgemeester De Withstraat,59,C,,3732EJ,De Bilt,De Bilt,Utrecht,VBO,5.178693,52.105326
Burgemeester De Withstraat,59,D,,3732EJ,De Bilt,De Bilt,Utrecht,VBO,5.178610,52.105347
Burgemeester De Withstraat,59,E,,3732EJ,De Bilt,De Bilt,Utrecht,VBO,5.178737,52.105285
Burgemeester De Withstraat,59,F,,3732EJ,De Bilt,De Bilt,Utrecht,VBO,5.178795,52.105237
Burgemeester De Withstraat,59,G,,3732EJ,De Bilt,De Bilt,Utrecht,VBO,5.178888,52.105250
Burgemeester De Withstraat,59,H,,3732EJ,De Bilt,De Bilt,Utrecht,VBO,5.178857,52.105287
Burgemeester De Withstraat,59,,,3732EJ,De Bilt,De Bilt,Utrecht,VBO,5.178552,52.105267
Burgemeester De Withstraat,2,A,,3732EK,De Bilt,De Bilt,Utrecht,VBO,5.183529,52.104763
Burgemeester De Withstraat,2,,,3732EK,De Bilt,De Bilt,Utrecht,VBO,5.183756,52.104733
Burgemeester De Withstraat,4,,,3732EK,De Bilt,De Bilt,Utrecht,VBO,5.183310,52.104816
Burgemeester De Withstraat,6,,,3732EK,De Bilt,De Bilt,Utrecht,VBO,5.183252,52.104825
Burgemeester De Withstraat,8,,,3732EK,De Bilt,De Bilt,Utrecht,VBO,5.183120,52.104852
Burgemeester De Withstraat,10,,,3732EK,De Bilt,De Bilt,Utrecht,VBO,5.182945,52.104870
Burgemeester De Withstraat,12,,,3732EK,De Bilt,De Bilt,Utrecht,VBO,5.182872,52.104897
Burgemeester De Withstraat,14,,,3732EK,De Bilt,De Bilt,Utrecht,VBO,5.182740,52.104878
Burgemeester De Withstraat,16,,,3732EK,De Bilt,De Bilt,Utrecht,VBO,5.182678,52.104905
Burgemeester De Withstraat,18,,,3732EK,De Bilt,De Bilt,Utrecht,VBO,5.182614,52.104926
Burgemeester De Withstraat,24,,,3732EK,De Bilt,De Bilt,Utrecht,VBO,5.182448,52.104950
Burgemeester De Withstraat,26,,,3732EL,De Bilt,De Bilt,Utrecht,VBO,5.182288,52.104967
Burgemeester De Withstraat,28,A,,3732EL,De Bilt,De Bilt,Utrecht,VBO,5.182034,52.105042
Burgemeester De Withstraat,28,,,3732EL,De Bilt,De Bilt,Utrecht,VBO,5.181996,52.104994
Burgemeester De Withstraat,30,,,3732EL,De Bilt,De Bilt,Utrecht,VBO,5.181922,52.105012
Burgemeester De Withstraat,32,,,3732EL,De Bilt,De Bilt,Utrecht,VBO,5.181835,52.105030
Burgemeester De Withstraat,34,,,3732EL,De Bilt,De Bilt,Utrecht,VBO,5.181747,52.105038
Burgemeester De Withstraat,36,,,3732EL,De Bilt,De Bilt,Utrecht,VBO,5.181645,52.105065
Burgemeester De Withstraat,38,,,3732EL,De Bilt,De Bilt,Utrecht,VBO,5.181572,52.105083
Burgemeester De Withstraat,40,,,3732EL,De Bilt,De Bilt,Utrecht,VBO,5.181499,52.105092
Burgemeester De Withstraat,42,,,3732EL,De Bilt,De Bilt,Utrecht,VBO,5.181440,52.105110
Burgemeester De Withstraat,46,,,3732EM,De Bilt,De Bilt,Utrecht,VBO,5.181163,52.105154
Burgemeester De Withstraat,48,,,3732EM,De Bilt,De Bilt,Utrecht,VBO,5.181104,52.105172
Burgemeester De Withstraat,50,,,3732EM,De Bilt,De Bilt,Utrecht,VBO,5.181046,52.105181
Burgemeester De Withstraat,52,,,3732EM,De Bilt,De Bilt,Utrecht,VBO,5.180973,52.105199
Burgemeester De Withstraat,54,,,3732EM,De Bilt,De Bilt,Utrecht,VBO,5.180914,52.105208
Burgemeester De Withstraat,56,A,,3732EM,De Bilt,De Bilt,Utrecht,VBO,5.180725,52.105243
Burgemeester De Withstraat,56,B,,3732EM,De Bilt,De Bilt,Utrecht,VBO,5.180666,52.105252
Burgemeester De Withstraat,56,,,3732EM,De Bilt,De Bilt,Utrecht,VBO,5.180798,52.105226
Burgemeester De Withstraat,58,,,3732EM,De Bilt,De Bilt,Utrecht,VBO,5.180593,52.105279
Burgemeester De Withstraat,60,,,3732EM,De Bilt,De Bilt,Utrecht,VBO,5.180535,52.105288
Burgemeester De Withstraat,62,,,3732EM,De Bilt,De Bilt,Utrecht,VBO,5.180462,52.105297
Burgemeester De Withstraat,66,,,3732EM,De Bilt,De Bilt,Utrecht,VBO,5.180199,52.105359
Burgemeester De Withstraat,68,,,3732EM,De Bilt,De Bilt,Utrecht,VBO,5.180151,52.105366
Burgemeester De Withstraat,70,,,3732EM,De Bilt,De Bilt,Utrecht,VBO,5.180082,52.105377
Burgemeester De Withstraat,72,,,3732EM,De Bilt,De Bilt,Utrecht,VBO,5.180009,52.105395
Burgemeester De Withstraat,74,,,3732EM,De Bilt,De Bilt,Utrecht,VBO,5.179950,52.105404
Burgemeester De Withstraat,76,,,3732EM,De Bilt,De Bilt,Utrecht,VBO,5.179877,52.105422
Burgemeester De Withstraat,78,,,3732EM,De Bilt,De Bilt,Utrecht,VBO,5.179760,52.105502
Burgemeester De Withstraat,80,,,3732EM,De Bilt,De Bilt,Utrecht,VBO,5.179695,52.105517
Burgemeester De Withstraat,82,,,3732EM,De Bilt,De Bilt,Utrecht,VBO,5.179614,52.105529
Burgemeester De Withstraat,84,,,3732EM,De Bilt,De Bilt,Utrecht,VBO,5.179555,52.105547
Burgemeester De Withstraat,86,,,3732EN,De Bilt,De Bilt,Utrecht,VBO,5.179204,52.105725
Burgemeester De Withstraat,88,,,3732EN,De Bilt,De Bilt,Utrecht,VBO,5.179299,52.105753
Burgemeester De Withstraat,90,,,3732EN,De Bilt,De Bilt,Utrecht,VBO,5.179442,52.105694
Burgemeester De Withstraat,92,,,3732EN,De Bilt,De Bilt,Utrecht,VBO,5.179292,52.105708
Burgemeester De Withstraat,94,,,3732EN,De Bilt,De Bilt,Utrecht,VBO,5.179451,52.105635
Burgemeester De Withstraat,96,,,3732EN,De Bilt,De Bilt,Utrecht,VBO,5.179388,52.105650
Burgemeester De Withstraat,98,,,3732EN,De Bilt,De Bilt,Utrecht,VBO,5.179327,52.105666
Burgemeester De Withstraat,100,,,3732EN,De Bilt,De Bilt,Utrecht,VBO,5.179273,52.105678
Burgemeester De Withstraat,102,,,3732EN,De Bilt,De Bilt,Utrecht,VBO,5.179217,52.105695
Burgemeester De Withstraat,104,,,3732EN,De Bilt,De Bilt,Utrecht,VBO,5.179152,52.105710
Burgemeester De Withstraat,106,,,3732EN,De Bilt,De Bilt,Utrecht,VBO,5.179099,52.105727
Burgemeester De Withstraat,108,,,3732EN,De Bilt,De Bilt,Utrecht,VBO,5.179487,52.105667
Burgemeester De Withstraat,110,,,3732EN,De Bilt,De Bilt,Utrecht,VBO,5.179379,52.105688
Burgemeester De Withstraat,112,,,3732EN,De Bilt,De Bilt,Utrecht,VBO,5.179347,52.105720
Burgemeester De Withstraat,114,,,3732EN,De Bilt,De Bilt,Utrecht,VBO,5.179251,52.105740
Burgemeester De Withstraat,116,,,3732EN,De Bilt,De Bilt,Utrecht,VBO,5.179146,52.105751
Burgemeester De Withstraat,118,,,3732EN,De Bilt,De Bilt,Utrecht,VBO,5.179511,52.105703
Burgemeester De Withstraat,120,,,3732EN,De Bilt,De Bilt,Utrecht,VBO,5.179412,52.105728
Burgemeester De Withstraat,122,,,3732EN,De Bilt,De Bilt,Utrecht,VBO,5.179201,52.105769
Burgemeester De Withstraat,124,,,3732EN,De Bilt,De Bilt,Utrecht,VBO,5.179256,52.105780
Burgemeester De Withstraat,126,,,3732EN,De Bilt,De Bilt,Utrecht,VBO,5.179155,52.105798
Burgemeester De Withstraat,128,,TR,3732EN,De Bilt,De Bilt,Utrecht,VBO,5.178960,52.105726
Burgemeester De Withstraat,130,,,3732EN,De Bilt,De Bilt,Utrecht,VBO,5.178708,52.105644
Burgemeester De Withstraat,132,,,3732EN,De Bilt,De Bilt,Utrecht,VBO,5.178665,52.105653
Burgemeester De Withstraat,134,,,3732EN,De Bilt,De Bilt,Utrecht,VBO,5.178606,52.105671
Zorgvliet,1,,,3732EP,De Bilt,De Bilt,Utrecht,VBO,5.178877,52.103829
Zorgvliet,3,,,3732EP,De Bilt,De Bilt,Utrecht,VBO,5.178877,52.103829
Zorgvliet,5,,,3732EP,De Bilt,De Bilt,Utrecht,VBO,5.178877,52.103829
Zorgvliet,7,,,3732EP,De Bilt,De Bilt,Utrecht,VBO,5.178877,52.103829
Zorgvliet,9,,,3732EP,De Bilt,De Bilt,Utrecht,VBO,5.178759,52.104116
Zorgvliet,11,,,3732EP,De Bilt,De Bilt,Utrecht,VBO,5.178672,52.104116
Zorgvliet,13,A,,3732EP,De Bilt,De Bilt,Utrecht,VBO,5.178322,52.104053
Zorgvliet,13,B,,3732EP,De Bilt,De Bilt,Utrecht,VBO,5.178234,52.104071
Zorgvliet,13,,,3732EP,De Bilt,De Bilt,Utrecht,VBO,5.178584,52.104107
Zorgvliet,15,,,3732EP,De Bilt,De Bilt,Utrecht,VBO,5.178204,52.104259
Zorgvliet,17,,,3732EP,De Bilt,De Bilt,Utrecht,VBO,5.178233,52.104304
Zorgvliet,19,,,3732EP,De Bilt,De Bilt,Utrecht,VBO,5.178276,52.104358
Zorgvliet,21,,,3732EP,De Bilt,De Bilt,Utrecht,VBO,5.178305,52.104403
Zorgvliet,23,,,3732EP,De Bilt,De Bilt,Utrecht,VBO,5.178349,52.104457
Zorgvliet,25,,,3732EP,De Bilt,De Bilt,Utrecht,VBO,5.178422,52.104556
Zorgvliet,27,,,3732EP,De Bilt,De Bilt,Utrecht,VBO,5.178465,52.104601
Zorgvliet,29,,,3732EP,De Bilt,De Bilt,Utrecht,VBO,5.178494,52.104655
Zorgvliet,31,,,3732EP,De Bilt,De Bilt,Utrecht,VBO,5.178538,52.104700
Zorgvliet,33,,,3732EP,De Bilt,De Bilt,Utrecht,VBO,5.178567,52.104745
Zorgvliet,35,,,3732EP,De Bilt,De Bilt,Utrecht,VBO,5.178654,52.104844
Zorgvliet,37,,,3732EP,De Bilt,De Bilt,Utrecht,VBO,5.178683,52.104889
Zorgvliet,39,,,3732EP,De Bilt,De Bilt,Utrecht,VBO,5.178726,52.104943
Zorgvliet,41,,,3732EP,De Bilt,De Bilt,Utrecht,VBO,5.178770,52.104988
Zorgvliet,43,,,3732EP,De Bilt,De Bilt,Utrecht,VBO,5.178799,52.105033
Zorgvliet,45,,,3732EP,De Bilt,De Bilt,Utrecht,VBO,5.178828,52.105087
Zorgvliet,2,,GB1,3732ER,De Bilt,De Bilt,Utrecht,VBO,5.179341,52.103985
Zorgvliet,2,,,3732ER,De Bilt,De Bilt,Utrecht,VBO,5.179300,52.104063
Zorgvliet,4,,,3732ER,De Bilt,De Bilt,Utrecht,VBO,5.179285,52.104108
Zorgvliet,6,,,3732ER,De Bilt,De Bilt,Utrecht,VBO,5.179255,52.104162
Ds. Sanderuslaan,1,,,3732ES,De Bilt,De Bilt,Utrecht,VBO,5.179164,52.104944
Ds. Sanderuslaan,3,,,3732ES,De Bilt,De Bilt,Utrecht,VBO,5.179252,52.104926
Ds. Sanderuslaan,5,,,3732ES,De Bilt,De Bilt,Utrecht,VBO,5.179339,52.104917
Ds. Sanderuslaan,7,,,3732ES,De Bilt,De Bilt,Utrecht,VBO,5.179427,52.104900
Ds. Sanderuslaan,9,,,3732ES,De Bilt,De Bilt,Utrecht,VBO,5.179500,52.104891
Ds. Sanderuslaan,11,,,3732ES,De Bilt,De Bilt,Utrecht,VBO,5.179617,52.104882
Ds. Sanderuslaan,13,,,3732ES,De Bilt,De Bilt,Utrecht,VBO,5.179763,52.104846
Ds. Sanderuslaan,15,,,3732ES,De Bilt,De Bilt,Utrecht,VBO,5.179851,52.104828
Ds. Sanderuslaan,17,,,3732ES,De Bilt,De Bilt,Utrecht,VBO,5.179924,52.104811
Ds. Sanderuslaan,19,,,3732ES,De Bilt,De Bilt,Utrecht,VBO,5.180011,52.104793
Ds. Sanderuslaan,21,,,3732ES,De Bilt,De Bilt,Utrecht,VBO,5.180099,52.104775
Ds. Sanderuslaan,23,,,3732ES,De Bilt,De Bilt,Utrecht,VBO,5.180172,52.104757
Ds. Sanderuslaan,25,,,3732ES,De Bilt,De Bilt,Utrecht,VBO,5.180245,52.104748
Ds. Sanderuslaan,27,,,3732ES,De Bilt,De Bilt,Utrecht,VBO,5.180494,52.104695
Ds. Sanderuslaan,29,,,3732ES,De Bilt,De Bilt,Utrecht,VBO,5.180537,52.104749
Ds. Sanderuslaan,31,,,3732ES,De Bilt,De Bilt,Utrecht,VBO,5.180566,52.104794
Ds. Sanderuslaan,2,,,3732ET,De Bilt,De Bilt,Utrecht,VBO,5.179167,52.104360
Ds. Sanderuslaan,4,,,3732ET,De Bilt,De Bilt,Utrecht,VBO,5.179269,52.104369
Ds. Sanderuslaan,6,,,3732ET,De Bilt,De Bilt,Utrecht,VBO,5.179400,52.104351
Ds. Sanderuslaan,8,,,3732ET,De Bilt,De Bilt,Utrecht,VBO,5.179488,52.104369
Ds. Sanderuslaan,10,,,3732ET,De Bilt,De Bilt,Utrecht,VBO,5.179561,52.104387
Ds. Sanderuslaan,12,,,3732ET,De Bilt,De Bilt,Utrecht,VBO,5.179634,52.104406
Ds. Sanderuslaan,14,,,3732ET,De Bilt,De Bilt,Utrecht,VBO,5.179721,52.104415
Ds. Sanderuslaan,16,,,3732ET,De Bilt,De Bilt,Utrecht,VBO,5.179809,52.104433
Ds. Sanderuslaan,18,,,3732ET,De Bilt,De Bilt,Utrecht,VBO,5.179926,52.104424
Ds. Sanderuslaan,20,,,3732ET,De Bilt,De Bilt,Utrecht,VBO,5.180013,52.104451
Ds. Sanderuslaan,22,,,3732ET,De Bilt,De Bilt,Utrecht,VBO,5.180203,52.104442
Ds. Sanderuslaan,24,,,3732ET,De Bilt,De Bilt,Utrecht,VBO,5.180290,52.104425
Ds. Sanderuslaan,26,,GB1,3732ET,De Bilt,De Bilt,Utrecht,VBO,5.180568,52.104416
Ds. Sanderuslaan,26,,GB10,3732ET,De Bilt,De Bilt,Utrecht,VBO,5.180858,52.104803
Ds. Sanderuslaan,26,,GB11,3732ET,De Bilt,De Bilt,Utrecht,VBO,5.180872,52.104830
Ds. Sanderuslaan,26,,GB12,3732ET,De Bilt,De Bilt,Utrecht,VBO,5.180901,52.104857
Ds. Sanderuslaan,26,,GB2,3732ET,De Bilt,De Bilt,Utrecht,VBO,5.180597,52.104443
Ds. Sanderuslaan,26,,GB3,3732ET,De Bilt,De Bilt,Utrecht,VBO,5.180611,52.104461
Ds. Sanderuslaan,26,,GB4,3732ET,De Bilt,De Bilt,Utrecht,VBO,5.180640,52.104488
Ds. Sanderuslaan,26,,GB5,3732ET,De Bilt,De Bilt,Utrecht,VBO,5.180655,52.104515
Ds. Sanderuslaan,26,,GB6,3732ET,De Bilt,De Bilt,Utrecht,VBO,5.180669,52.104542
Ds. Sanderuslaan,26,,GB7,3732ET,De Bilt,De Bilt,Utrecht,VBO,5.180684,52.104560
Ds. Sanderuslaan,26,,GB8,3732ET,De Bilt,De Bilt,Utrecht,VBO,5.180713,52.104587
Ds. Sanderuslaan,26,,GB9,3732ET,De Bilt,De Bilt,Utrecht,VBO,5.180843,52.104785
Ds. Sanderuslaan,26,,,3732ET,De Bilt,De Bilt,Utrecht,VBO,5.180393,52.104407
Molenkamp,1,,,3732EV,De Bilt,De Bilt,Utrecht,VBO,5.180851,52.106295
Molenkamp,2,,,3732EV,De Bilt,De Bilt,Utrecht,VBO,5.180090,52.106752
Molenkamp,3,,,3732EV,De Bilt,De Bilt,Utrecht,VBO,5.180763,52.106349
Molenkamp,4,,,3732EV,De Bilt,De Bilt,Utrecht,VBO,5.180104,52.106779
Molenkamp,5,,,3732EV,De Bilt,De Bilt,Utrecht,VBO,5.180690,52.106367
Molenkamp,6,,,3732EV,De Bilt,De Bilt,Utrecht,VBO,5.180133,52.106824
Molenkamp,7,,,3732EV,De Bilt,De Bilt,Utrecht,VBO,5.180632,52.106376
Molenkamp,8,,,3732EV,De Bilt,De Bilt,Utrecht,VBO,5.180162,52.106860
Molenkamp,9,,,3732EV,De Bilt,De Bilt,Utrecht,VBO,5.180529,52.106393
Molenkamp,10,,,3732EV,De Bilt,De Bilt,Utrecht,VBO,5.180177,52.106896
Molenkamp,11,,,3732EV,De Bilt,De Bilt,Utrecht,VBO,5.180442,52.106420
Molenkamp,12,,,3732EV,De Bilt,De Bilt,Utrecht,VBO,5.180206,52.106932
Molenkamp,13,,,3732EV,De Bilt,De Bilt,Utrecht,VBO,5.180369,52.106438
Molenkamp,14,,,3732EV,De Bilt,De Bilt,Utrecht,VBO,5.180235,52.106968
Molenkamp,15,,,3732EV,De Bilt,De Bilt,Utrecht,VBO,5.180281,52.106456
Molenkamp,16,,,3732EV,De Bilt,De Bilt,Utrecht,VBO,5.180264,52.107013
Molenkamp,18,,,3732EV,De Bilt,De Bilt,Utrecht,VBO,5.180337,52.107031
Molenkamp,20,,,3732EV,De Bilt,De Bilt,Utrecht,VBO,5.180366,52.107067
Molenkamp,22,,,3732EV,De Bilt,De Bilt,Utrecht,VBO,5.180395,52.107112
Molenkamp,24,,,3732EV,De Bilt,De Bilt,Utrecht,VBO,5.180424,52.107148
Molenkamp,26,,,3732EV,De Bilt,De Bilt,Utrecht,VBO,5.180438,52.107184
Molenkamp,28,,GB1,3732EV,De Bilt,De Bilt,Utrecht,VBO,5.180979,52.107104
Molenkamp,28,,GB10,3732EV,De Bilt,De Bilt,Utrecht,VBO,5.180789,52.107149
Molenkamp,28,,GB11,3732EV,De Bilt,De Bilt,Utrecht,VBO,5.180789,52.107122
Molenkamp,28,,GB12,3732EV,De Bilt,De Bilt,Utrecht,VBO,5.180774,52.107095
Molenkamp,28,,GB13,3732EV,De Bilt,De Bilt,Utrecht,VBO,5.180745,52.107077
Molenkamp,28,,GB14,3732EV,De Bilt,De Bilt,Utrecht,VBO,5.180745,52.107050
Molenkamp,28,,GB15,3732EV,De Bilt,De Bilt,Utrecht,VBO,5.180716,52.107023
Molenkamp,28,,GB16,3732EV,De Bilt,De Bilt,Utrecht,VBO,5.180687,52.106996
Molenkamp,28,,GB17,3732EV,De Bilt,De Bilt,Utrecht,VBO,5.180673,52.106978
Molenkamp,28,,GB18,3732EV,De Bilt,De Bilt,Utrecht,VBO,5.180658,52.106951
Molenkamp,28,,GB2,3732EV,De Bilt,De Bilt,Utrecht,VBO,5.180964,52.107077
Molenkamp,28,,GB3,3732EV,De Bilt,De Bilt,Utrecht,VBO,5.180935,52.107050
Molenkamp,28,,GB4,3732EV,De Bilt,De Bilt,Utrecht,VBO,5.180935,52.107032
Molenkamp,28,,GB5,3732EV,De Bilt,De Bilt,Utrecht,VBO,5.180921,52.106996
Molenkamp,28,,GB6,3732EV,De Bilt,De Bilt,Utrecht,VBO,5.180892,52.106978
Molenkamp,28,,GB7,3732EV,De Bilt,De Bilt,Utrecht,VBO,5.180892,52.106951
Molenkamp,28,,GB8,3732EV,De Bilt,De Bilt,Utrecht,VBO,5.180877,52.106924
Molenkamp,28,,GB9,3732EV,De Bilt,De Bilt,Utrecht,VBO,5.180848,52.106906
Molenkamp,28,,,3732EV,De Bilt,De Bilt,Utrecht,VBO,5.180467,52.107220
Molenkamp,30,,,3732EV,De Bilt,De Bilt,Utrecht,VBO,5.180861,52.107302
Molenkamp,32,,,3732EV,De Bilt,De Bilt,Utrecht,VBO,5.180699,52.107634
Molenkamp,34,A,,3732EV,De Bilt,De Bilt,Utrecht,VBO,5.180897,52.107672
Molenkamp,34,,,3732EV,De Bilt,De Bilt,Utrecht,VBO,5.180829,52.107718
Molenkamp,36,,,3732EV,De Bilt,De Bilt,Utrecht,VBO,5.181122,52.107590
Molenkamp,38,,,3732EV,De Bilt,De Bilt,Utrecht,VBO,5.181239,52.107734
Molenkamp,40,,,3732EV,De Bilt,De Bilt,Utrecht,VBO,5.181019,52.107967
Molenkamp,42,,,3732EV,De Bilt,De Bilt,Utrecht,VBO,5.181135,52.108120
Molenkamp,44,,,3732EV,De Bilt,De Bilt,Utrecht,VBO,5.181135,52.108120
Molenkamp,46,A,,3732EV,De Bilt,De Bilt,Utrecht,VBO,5.181167,52.108263
Molenkamp,46,,,3732EV,De Bilt,De Bilt,Utrecht,VBO,5.181193,52.108219
Molenkamp,48,,,3732EV,De Bilt,De Bilt,Utrecht,VBO,5.181310,52.108156
Molenkamp,50,,,3732EV,De Bilt,De Bilt,Utrecht,VBO,5.181414,52.107949
Molenkamp,60,,,3732EV,De Bilt,De Bilt,Utrecht,VBO,5.181717,52.108517
Essenkamp,1,,,3732EW,De Bilt,De Bilt,Utrecht,VBO,5.180311,52.106276
Essenkamp,3,,,3732EW,De Bilt,De Bilt,Utrecht,VBO,5.180282,52.106231
Essenkamp,5,,,3732EW,De Bilt,De Bilt,Utrecht,VBO,5.180253,52.106177
Essenkamp,7,,,3732EW,De Bilt,De Bilt,Utrecht,VBO,5.180195,52.106141
Essenkamp,9,,,3732EW,De Bilt,De Bilt,Utrecht,VBO,5.180166,52.106096
Essenkamp,11,,,3732EW,De Bilt,De Bilt,Utrecht,VBO,5.180122,52.106042
Essenkamp,13,,,3732EW,De Bilt,De Bilt,Utrecht,VBO,5.180093,52.105997
Essenkamp,15,,,3732EW,De Bilt,De Bilt,Utrecht,VBO,5.180051,52.105754
Essenkamp,17,,,3732EW,De Bilt,De Bilt,Utrecht,VBO,5.179978,52.105772
Essenkamp,19,,,3732EW,De Bilt,De Bilt,Utrecht,VBO,5.179905,52.105799
Essenkamp,21,,,3732EW,De Bilt,De Bilt,Utrecht,VBO,5.179832,52.105817
Essenkamp,23,,,3732EW,De Bilt,De Bilt,Utrecht,VBO,5.179744,52.105835
Essenkamp,2,,,3732EX,De Bilt,De Bilt,Utrecht,VBO,5.179829,52.106266
Essenkamp,4,,,3732EX,De Bilt,De Bilt,Utrecht,VBO,5.179829,52.106266
Essenkamp,6,,,3732EX,De Bilt,De Bilt,Utrecht,VBO,5.179829,52.106266
Essenkamp,8,,,3732EX,De Bilt,De Bilt,Utrecht,VBO,5.179829,52.106266
Essenkamp,10,,,3732EX,De Bilt,De Bilt,Utrecht,VBO,5.179829,52.106266
Essenkamp,12,,,3732EX,De Bilt,De Bilt,Utrecht,VBO,5.179829,52.106266
Essenkamp,14,,,3732EX,De Bilt,De Bilt,Utrecht,VBO,5.179829,52.106266
Essenkamp,16,,,3732EX,De Bilt,De Bilt,Utrecht,VBO,5.179829,52.106266
Essenkamp,18,,,3732EX,De Bilt,De Bilt,Utrecht,VBO,5.179829,52.106266
Essenkamp,20,,,3732EX,De Bilt,De Bilt,Utrecht,VBO,5.179829,52.106266
Essenkamp,22,,,3732EX,De Bilt,De Bilt,Utrecht,VBO,5.179829,52.106266
Essenkamp,24,,,3732EX,De Bilt,De Bilt,Utrecht,VBO,5.179829,52.106266
Essenkamp,26,,,3732EX,De Bilt,De Bilt,Utrecht,VBO,5.179829,52.106266
Essenkamp,28,,,3732EX,De Bilt,De Bilt,Utrecht,VBO,5.179829,52.106266
Essenkamp,30,,,3732EX,De Bilt,De Bilt,Utrecht,VBO,5.179829,52.106266
Essenkamp,32,,,3732EX,De Bilt,De Bilt,Utrecht,VBO,5.179829,52.106266
Essenkamp,34,,,3732EX,De Bilt,De Bilt,Utrecht,VBO,5.179829,52.106266
Essenkamp,36,,,3732EX,De Bilt,De Bilt,Utrecht,VBO,5.179829,52.106266
Essenkamp,38,,,3732EX,De Bilt,De Bilt,Utrecht,VBO,5.179204,52.105870
De Witte Swaen,1,,TR,3732EZ,De Bilt,De Bilt,Utrecht,VBO,5.185394,52.105087
De Witte Swaen,1,,,3732EZ,De Bilt,De Bilt,Utrecht,VBO,5.185632,52.104587
De Witte Swaen,2,,,3732EZ,De Bilt,De Bilt,Utrecht,VBO,5.185632,52.104587
De Witte Swaen,3,,,3732EZ,De Bilt,De Bilt,Utrecht,VBO,5.185632,52.104587
De Witte Swaen,4,,,3732EZ,De Bilt,De Bilt,Utrecht,VBO,5.185632,52.104587
De Witte Swaen,5,,,3732EZ,De Bilt,De Bilt,Utrecht,VBO,5.185632,52.104587
De Witte Swaen,6,,,3732EZ,De Bilt,De Bilt,Utrecht,VBO,5.185632,52.104587
De Witte Swaen,7,,,3732EZ,De Bilt,De Bilt,Utrecht,VBO,5.185632,52.104587
De Witte Swaen,8,,,3732EZ,De Bilt,De Bilt,Utrecht,VBO,5.185632,52.104587
De Witte Swaen,9,,,3732EZ,De Bilt,De Bilt,Utrecht,VBO,5.185632,52.104587
De Witte Swaen,10,,,3732EZ,De Bilt,De Bilt,Utrecht,VBO,5.185632,52.104587
De Witte Swaen,11,,,3732EZ,De Bilt,De Bilt,Utrecht,VBO,5.185632,52.104587
De Witte Swaen,12,,,3732EZ,De Bilt,De Bilt,Utrecht,VBO,5.185632,52.104587
De Witte Swaen,13,,,3732EZ,De Bilt,De Bilt,Utrecht,VBO,5.185632,52.104587
De Witte Swaen,14,,,3732EZ,De Bilt,De Bilt,Utrecht,VBO,5.185632,52.104587
De Witte Swaen,15,,,3732EZ,De Bilt,De Bilt,Utrecht,VBO,5.185632,52.104587
De Witte Swaen,16,,,3732EZ,De Bilt,De Bilt,Utrecht,VBO,5.185632,52.104587
De Witte Swaen,17,,,3732EZ,De Bilt,De Bilt,Utrecht,VBO,5.185632,52.104587
De Witte Swaen,18,,,3732EZ,De Bilt,De Bilt,Utrecht,VBO,5.185632,52.104587
De Witte Swaen,19,,,3732EZ,De Bilt,De Bilt,Utrecht,VBO,5.185632,52.104587
De Witte Swaen,20,,,3732EZ,De Bilt,De Bilt,Utrecht,VBO,5.185632,52.104587
De Witte Swaen,21,,,3732EZ,De Bilt,De Bilt,Utrecht,VBO,5.185632,52.104587
De Witte Swaen,22,,,3732EZ,De Bilt,De Bilt,Utrecht,VBO,5.185632,52.104587
De Witte Swaen,23,,,3732EZ,De Bilt,De Bilt,Utrecht,VBO,5.185632,52.104587
De Witte Swaen,24,,,3732EZ,De Bilt,De Bilt,Utrecht,VBO,5.185632,52.104587
De Witte Swaen,25,,,3732EZ,De Bilt,De Bilt,Utrecht,VBO,5.185632,52.104587
De Witte Swaen,26,,,3732EZ,De Bilt,De Bilt,Utrecht,VBO,5.185632,52.104587
De Witte Swaen,27,,,3732EZ,De Bilt,De Bilt,Utrecht,VBO,5.185632,52.104587
De Witte Swaen,28,,,3732EZ,De Bilt,De Bilt,Utrecht,VBO,5.185632,52.104587
De Witte Swaen,29,,,3732EZ,De Bilt,De Bilt,Utrecht,VBO,5.185632,52.104587
De Witte Swaen,30,,,3732EZ,De Bilt,De Bilt,Utrecht,VBO,5.185632,52.104587
De Witte Swaen,31,,,3732EZ,De Bilt,De Bilt,Utrecht,VBO,5.185632,52.104587
De Witte Swaen,32,,,3732EZ,De Bilt,De Bilt,Utrecht,VBO,5.185632,52.104587
De Witte Swaen,33,,,3732EZ,De Bilt,De Bilt,Utrecht,VBO,5.185632,52.104587
De Witte Swaen,34,,,3732EZ,De Bilt,De Bilt,Utrecht,VBO,5.185632,52.104587
De Witte Swaen,35,,,3732EZ,De Bilt,De Bilt,Utrecht,VBO,5.185632,52.104587
De Witte Swaen,36,,,3732EZ,De Bilt,De Bilt,Utrecht,VBO,5.185632,52.104587
De Witte Swaen,37,,,3732EZ,De Bilt,De Bilt,Utrecht,VBO,5.185632,52.104587
De Witte Swaen,38,,,3732EZ,De Bilt,De Bilt,Utrecht,VBO,5.185632,52.104587
De Witte Swaen,39,,,3732EZ,De Bilt,De Bilt,Utrecht,VBO,5.185632,52.104587
De Witte Swaen,40,,,3732EZ,De Bilt,De Bilt,Utrecht,VBO,5.185632,52.104587
De Witte Swaen,41,,,3732EZ,De Bilt,De Bilt,Utrecht,VBO,5.185632,52.104587
De Witte Swaen,42,,,3732EZ,De Bilt,De Bilt,Utrecht,VBO,5.185632,52.104587
De Witte Swaen,43,,,3732EZ,De Bilt,De Bilt,Utrecht,VBO,5.185632,52.104587
De Witte Swaen,44,,,3732EZ,De Bilt,De Bilt,Utrecht,VBO,5.185632,52.104587
De Witte Swaen,45,,,3732EZ,De Bilt,De Bilt,Utrecht,VBO,5.185632,52.104587
De Witte Swaen,46,,,3732EZ,De Bilt,De Bilt,Utrecht,VBO,5.185632,52.104587
De Witte Swaen,47,,,3732EZ,De Bilt,De Bilt,Utrecht,VBO,5.185632,52.104587
De Witte Swaen,48,,,3732EZ,De Bilt,De Bilt,Utrecht,VBO,5.185632,52.104587
De Witte Swaen,49,,,3732EZ,De Bilt,De Bilt,Utrecht,VBO,5.185632,52.104587
De Witte Swaen,50,,,3732EZ,De Bilt,De Bilt,Utrecht,VBO,5.185632,52.104587
De Witte Swaen,51,,,3732EZ,De Bilt,De Bilt,Utrecht,VBO,5.185632,52.104587
De Witte Swaen,52,,,3732EZ,De Bilt,De Bilt,Utrecht,VBO,5.185632,52.104587
De Witte Swaen,53,,,3732EZ,De Bilt,De Bilt,Utrecht,VBO,5.185632,52.104587
De Witte Swaen,54,,,3732EZ,De Bilt,De Bilt,Utrecht,VBO,5.185632,52.104587
Wilhelminalaan,1,,,3732GJ,De Bilt,De Bilt,Utrecht,VBO,5.177744,52.102829
Wilhelminalaan,3,,,3732GJ,De Bilt,De Bilt,Utrecht,VBO,5.177845,52.102892
Wilhelminalaan,5,,,3732GJ,De Bilt,De Bilt,Utrecht,VBO,5.178561,52.102804
Wilhelminalaan,7,,,3732GJ,De Bilt,De Bilt,Utrecht,VBO,5.178988,52.102837
Wilhelminalaan,9,,,3732GJ,De Bilt,De Bilt,Utrecht,VBO,5.179350,52.102607
Wilhelminalaan,11,,,3732GJ,De Bilt,De Bilt,Utrecht,VBO,5.179789,52.102294
Wilhelminalaan,13,,,3732GJ,De Bilt,De Bilt,Utrecht,VBO,5.179819,52.102240
Wilhelminalaan,15,,,3732GJ,De Bilt,De Bilt,Utrecht,VBO,5.180126,52.102016
Wilhelminalaan,17,,,3732GJ,De Bilt,De Bilt,Utrecht,VBO,5.180345,52.102052
Wilhelminalaan,19,,,3732GJ,De Bilt,De Bilt,Utrecht,VBO,5.180433,52.102052
Wilhelminalaan,21,,,3732GJ,De Bilt,De Bilt,Utrecht,VBO,5.180520,52.102061
Wilhelminalaan,25,,,3732GJ,De Bilt,De Bilt,Utrecht,VBO,5.180959,52.101936
Wilhelminalaan,27,,,3732GJ,De Bilt,De Bilt,Utrecht,VBO,5.181046,52.101927
Wilhelminalaan,29,,,3732GJ,De Bilt,De Bilt,Utrecht,VBO,5.181119,52.101918
Wilhelminalaan,31,,,3732GJ,De Bilt,De Bilt,Utrecht,VBO,5.181295,52.101874
Wilhelminalaan,33,,,3732GJ,De Bilt,De Bilt,Utrecht,VBO,5.181382,52.101856
Wilhelminalaan,35,,,3732GJ,De Bilt,De Bilt,Utrecht,VBO,5.181543,52.101820
Wilhelminalaan,37,,,3732GJ,De Bilt,De Bilt,Utrecht,VBO,5.181909,52.101668
Wilhelminalaan,2,,,3732GK,De Bilt,De Bilt,Utrecht,VBO,5.176956,52.102702
Wilhelminalaan,4,,,3732GK,De Bilt,De Bilt,Utrecht,VBO,5.177058,52.102711
Wilhelminalaan,6,,,3732GK,De Bilt,De Bilt,Utrecht,VBO,5.177614,52.102452
Wilhelminalaan,8,A,,3732GK,De Bilt,De Bilt,Utrecht,VBO,5.178358,52.102435
Wilhelminalaan,8,,,3732GK,De Bilt,De Bilt,Utrecht,VBO,5.177760,52.102461
Wilhelminalaan,10,A,,3732GK,De Bilt,De Bilt,Utrecht,VBO,5.177717,52.101119
Wilhelminalaan,10,B,,3732GK,De Bilt,De Bilt,Utrecht,VBO,5.176078,52.101830
Wilhelminalaan,10,,,3732GK,De Bilt,De Bilt,Utrecht,VBO,5.178006,52.101964
Wilhelminalaan,12,A,,3732GK,De Bilt,De Bilt,Utrecht,VBO,5.178908,52.101977
Wilhelminalaan,12,,,3732GK,De Bilt,De Bilt,Utrecht,VBO,5.178915,52.102029
Wilhelminalaan,14,,,3732GK,De Bilt,De Bilt,Utrecht,VBO,5.179557,52.102015
Wilhelminalaan,16,,,3732GK,De Bilt,De Bilt,Utrecht,VBO,5.179674,52.101934
Wilhelminalaan,18,,,3732GK,De Bilt,De Bilt,Utrecht,VBO,5.179835,52.101844
Wilhelminalaan,20,,,3732GK,De Bilt,De Bilt,Utrecht,VBO,5.179923,52.101826
Wilhelminalaan,22,,,3732GK,De Bilt,De Bilt,Utrecht,VBO,5.179996,52.101791
Wilhelminalaan,24,,,3732GK,De Bilt,De Bilt,Utrecht,VBO,5.180084,52.101764
Wilhelminalaan,26,,,3732GK,De Bilt,De Bilt,Utrecht,VBO,5.180142,52.101701
Wilhelminalaan,28,,,3732GL,De Bilt,De Bilt,Utrecht,VBO,5.180230,52.101629
Wilhelminalaan,32,,,3732GL,De Bilt,De Bilt,Utrecht,VBO,5.180349,52.101315
Wilhelminalaan,34,,,3732GL,De Bilt,De Bilt,Utrecht,VBO,5.180493,52.101567
Wilhelminalaan,36,,,3732GL,De Bilt,De Bilt,Utrecht,VBO,5.180639,52.101585
Wilhelminalaan,38,,,3732GL,De Bilt,De Bilt,Utrecht,VBO,5.180843,52.101657
Wilhelminalaan,40,,,3732GL,De Bilt,De Bilt,Utrecht,VBO,5.181033,52.101622
Wilhelminalaan,42,,,3732GL,De Bilt,De Bilt,Utrecht,VBO,5.181179,52.101577
Wilhelminalaan,44,,,3732GL,De Bilt,De Bilt,Utrecht,VBO,5.181326,52.101496
Wilhelminalaan,46,,,3732GL,De Bilt,De Bilt,Utrecht,VBO,5.181384,52.101452
Wilhelminalaan,48,,,3732GL,De Bilt,De Bilt,Utrecht,VBO,5.181647,52.101353
Wilhelminalaan,50,,,3732GL,De Bilt,De Bilt,Utrecht,VBO,5.181764,52.101335
Emmalaan,1,,,3732GM,De Bilt,De Bilt,Utrecht,VBO,5.179979,52.102330
Emmalaan,2,,,3732GM,De Bilt,De Bilt,Utrecht,VBO,5.180067,52.102330
Emmalaan,3,,,3732GM,De Bilt,De Bilt,Utrecht,VBO,5.180256,52.102375
Emmalaan,4,,,3732GM,De Bilt,De Bilt,Utrecht,VBO,5.180358,52.102394
Emmalaan,5,,,3732GM,De Bilt,De Bilt,Utrecht,VBO,5.180738,52.102426
Emmalaan,6,A,,3732GM,De Bilt,De Bilt,Utrecht,VBO,5.181291,52.102469
Emmalaan,6,,,3732GM,De Bilt,De Bilt,Utrecht,VBO,5.180913,52.102448
Emmalaan,7,,,3732GM,De Bilt,De Bilt,Utrecht,VBO,5.181453,52.102413
Emmalaan,8,,,3732GM,De Bilt,De Bilt,Utrecht,VBO,5.181527,52.102379
Emmalaan,9,,,3732GM,De Bilt,De Bilt,Utrecht,VBO,5.181658,52.102315
Emmalaan,10,,,3732GM,De Bilt,De Bilt,Utrecht,VBO,5.181862,52.102261
Emmalaan,11,,,3732GM,De Bilt,De Bilt,Utrecht,VBO,5.181950,52.102234
Emmalaan,12,,,3732GM,De Bilt,De Bilt,Utrecht,VBO,5.182082,52.102136
Emmalaan,13,,,3732GM,De Bilt,De Bilt,Utrecht,VBO,5.182184,52.102100
Prinsenlaan,1,,,3732GN,De Bilt,De Bilt,Utrecht,VBO,5.179977,52.102689
Prinsenlaan,2,,,3732GN,De Bilt,De Bilt,Utrecht,VBO,5.179875,52.102698
Prinsenlaan,3,,,3732GN,De Bilt,De Bilt,Utrecht,VBO,5.179159,52.102931
Oude Bunnikseweg,1,,,3732GP,De Bilt,De Bilt,Utrecht,VBO,5.183117,52.102443
Oude Bunnikseweg,2,,,3732GP,De Bilt,De Bilt,Utrecht,VBO,5.182287,52.102019
Oude Bunnikseweg,3,,,3732GP,De Bilt,De Bilt,Utrecht,VBO,5.183102,52.102398
Oude Bunnikseweg,4,,,3732GP,De Bilt,De Bilt,Utrecht,VBO,5.182098,52.101848
Oude Bunnikseweg,6,,,3732GP,De Bilt,De Bilt,Utrecht,VBO,5.181967,52.101740
Oude Bunnikseweg,8,,TR,3732GP,De Bilt,De Bilt,Utrecht,VBO,5.182431,52.101226
Oude Bunnikseweg,8,,,3732GP,De Bilt,De Bilt,Utrecht,VBO,5.182100,52.101219
Kloosterlaan,1,,,3732GR,De Bilt,De Bilt,Utrecht,VBO,5.179441,52.101907
Kloosterlaan,2,,,3732GR,De Bilt,De Bilt,Utrecht,VBO,5.179398,52.101745
Kloosterlaan,3,,,3732GR,De Bilt,De Bilt,Utrecht,VBO,5.179369,52.101700
Kloosterlaan,4,,,3732GR,De Bilt,De Bilt,Utrecht,VBO,5.179340,52.101655
Kloosterlaan,5,,,3732GR,De Bilt,De Bilt,Utrecht,VBO,5.179224,52.101583
Kloosterlaan,6,A,,3732GR,De Bilt,De Bilt,Utrecht,VBO,5.179467,52.101511
Kloosterlaan,6,,,3732GR,De Bilt,De Bilt,Utrecht,VBO,5.179224,52.101547
Kloosterlaan,7,,,3732GR,De Bilt,De Bilt,Utrecht,VBO,5.179108,52.101340
Kloosterlaan,8,,,3732GR,De Bilt,De Bilt,Utrecht,VBO,5.179064,52.101286
Kapelweg,2,A,1,3732GS,De Bilt,De Bilt,Utrecht,VBO,5.183866,52.104179
Kapelweg,2,A,2,3732GS,De Bilt,De Bilt,Utrecht,VBO,5.183984,52.104206
Kapelweg,2,B,1,3732GS,De Bilt,De Bilt,Utrecht,VBO,5.183866,52.104179
Kapelweg,2,B,2,3732GS,De Bilt,De Bilt,Utrecht,VBO,5.183866,52.104179
Kapelweg,2,C,1,3732GS,De Bilt,De Bilt,Utrecht,VBO,5.183866,52.104179
Kapelweg,2,C,2,3732GS,De Bilt,De Bilt,Utrecht,VBO,5.183866,52.104179
Kapelweg,2,D,1,3732GS,De Bilt,De Bilt,Utrecht,VBO,5.183984,52.104206
Kapelweg,2,D,2,3732GS,De Bilt,De Bilt,Utrecht,VBO,5.183927,52.104243
Kapelweg,2,E,1,3732GS,De Bilt,De Bilt,Utrecht,VBO,5.183866,52.104179
Kapelweg,2,E,2,3732GS,De Bilt,De Bilt,Utrecht,VBO,5.183866,52.104179
Kapelweg,2,F,1,3732GS,De Bilt,De Bilt,Utrecht,VBO,5.183866,52.104179
Kapelweg,2,F,2,3732GS,De Bilt,De Bilt,Utrecht,VBO,5.183866,52.104179
Kapelweg,2,G,,3732GS,De Bilt,De Bilt,Utrecht,VBO,5.183866,52.104179
Kapelweg,3,A,,3732GS,De Bilt,De Bilt,Utrecht,VBO,5.184262,52.104131
Kapelweg,3,,,3732GS,De Bilt,De Bilt,Utrecht,VBO,5.184291,52.104180
Kapelweg,4,,,3732GS,De Bilt,De Bilt,Utrecht,VBO,5.183604,52.104013
Kapelweg,5,,,3732GS,De Bilt,De Bilt,Utrecht,VBO,5.184088,52.103901
Kapelweg,6,A,,3732GS,De Bilt,De Bilt,Utrecht,VBO,5.183872,52.103924
Kapelweg,6,B,,3732GS,De Bilt,De Bilt,Utrecht,VBO,5.183872,52.103924
Kapelweg,6,C,,3732GS,De Bilt,De Bilt,Utrecht,VBO,5.183872,52.103924
Kapelweg,6,D,,3732GS,De Bilt,De Bilt,Utrecht,VBO,5.183872,52.103925
Kapelweg,6,,,3732GS,De Bilt,De Bilt,Utrecht,VBO,5.183872,52.103924
Kapelweg,8,,,3732GS,De Bilt,De Bilt,Utrecht,VBO,5.183678,52.103785
Kapelweg,10,,,3732GS,De Bilt,De Bilt,Utrecht,VBO,5.183730,52.103707
Kapelweg,12,,,3732GS,De Bilt,De Bilt,Utrecht,VBO,5.183698,52.103670
Kapelweg,14,,,3732GS,De Bilt,De Bilt,Utrecht,VBO,5.183668,52.103633
Kapelweg,16,,,3732GS,De Bilt,De Bilt,Utrecht,VBO,5.183578,52.103586
Kapelweg,18,,,3732GS,De Bilt,De Bilt,Utrecht,VBO,5.183477,52.103460
Kapelweg,20,,,3732GS,De Bilt,De Bilt,Utrecht,VBO,5.183536,52.103475
Biltstein,2,,,3732GT,De Bilt,De Bilt,Utrecht,VBO,5.182572,52.103359
Biltstein,4,,,3732GT,De Bilt,De Bilt,Utrecht,VBO,5.182572,52.103359
Biltstein,6,,,3732GT,De Bilt,De Bilt,Utrecht,VBO,5.182572,52.103359
Biltstein,8,,,3732GT,De Bilt,De Bilt,Utrecht,VBO,5.182572,52.103359
Biltstein,10,,,3732GT,De Bilt,De Bilt,Utrecht,VBO,5.182572,52.103359
Biltstein,12,,,3732GT,De Bilt,De Bilt,Utrecht,VBO,5.182572,52.103359
Biltstein,14,,,3732GT,De Bilt,De Bilt,Utrecht,VBO,5.182572,52.103359
Biltstein,16,,,3732GT,De Bilt,De Bilt,Utrecht,VBO,5.182572,52.103359
Biltstein,18,,,3732GT,De Bilt,De Bilt,Utrecht,VBO,5.182572,52.103359
Biltstein,20,,,3732GT,De Bilt,De Bilt,Utrecht,VBO,5.182572,52.103359
Biltstein,22,,,3732GT,De Bilt,De Bilt,Utrecht,VBO,5.182572,52.103359
Biltstein,24,,,3732GT,De Bilt,De Bilt,Utrecht,VBO,5.182572,52.103359
Biltstein,26,,,3732GT,De Bilt,De Bilt,Utrecht,VBO,5.182572,52.103359
Biltstein,28,,,3732GT,De Bilt,De Bilt,Utrecht,VBO,5.182572,52.103359
Biltstein,30,,,3732GT,De Bilt,De Bilt,Utrecht,VBO,5.182572,52.103359
Biltstein,32,,,3732GT,De Bilt,De Bilt,Utrecht,VBO,5.182572,52.103359
Biltstein,34,,,3732GT,De Bilt,De Bilt,Utrecht,VBO,5.182572,52.103359
Biltstein,36,,,3732GT,De Bilt,De Bilt,Utrecht,VBO,5.182572,52.103359
Biltstein,38,,,3732GT,De Bilt,De Bilt,Utrecht,VBO,5.182572,52.103359
Biltstein,40,,,3732GT,De Bilt,De Bilt,Utrecht,VBO,5.182572,52.103359
Biltstein,42,,,3732GT,De Bilt,De Bilt,Utrecht,VBO,5.182572,52.103359
Biltstein,44,,,3732GT,De Bilt,De Bilt,Utrecht,VBO,5.182572,52.103359
Biltstein,46,,,3732GV,De Bilt,De Bilt,Utrecht,VBO,5.182572,52.103359
Biltstein,48,,,3732GV,De Bilt,De Bilt,Utrecht,VBO,5.182572,52.103359
Biltstein,50,,,3732GV,De Bilt,De Bilt,Utrecht,VBO,5.182572,52.103359
Biltstein,52,,,3732GV,De Bilt,De Bilt,Utrecht,VBO,5.182572,52.103359
Biltstein,54,,,3732GV,De Bilt,De Bilt,Utrecht,VBO,5.182572,52.103359
Biltstein,56,,,3732GV,De Bilt,De Bilt,Utrecht,VBO,5.182572,52.103359
Biltstein,58,,,3732GV,De Bilt,De Bilt,Utrecht,VBO,5.182572,52.103359
Biltstein,60,,,3732GV,De Bilt,De Bilt,Utrecht,VBO,5.182572,52.103359
Biltstein,62,,,3732GV,De Bilt,De Bilt,Utrecht,VBO,5.182572,52.103359
Biltstein,64,,,3732GV,De Bilt,De Bilt,Utrecht,VBO,5.182572,52.103359
Biltstein,66,,,3732GV,De Bilt,De Bilt,Utrecht,VBO,5.182572,52.103359
Biltstein,68,,,3732GV,De Bilt,De Bilt,Utrecht,VBO,5.182572,52.103359
Biltstein,70,,,3732GV,De Bilt,De Bilt,Utrecht,VBO,5.182572,52.103359
Biltstein,72,,,3732GV,De Bilt,De Bilt,Utrecht,VBO,5.182572,52.103359
Biltstein,74,,,3732GV,De Bilt,De Bilt,Utrecht,VBO,5.182572,52.103359
Biltstein,76,,,3732GV,De Bilt,De Bilt,Utrecht,VBO,5.182572,52.103359
Biltstein,78,,,3732GV,De Bilt,De Bilt,Utrecht,VBO,5.182572,52.103359
Biltstein,80,,,3732GV,De Bilt,De Bilt,Utrecht,VBO,5.182572,52.103359
Biltstein,82,,,3732GV,De Bilt,De Bilt,Utrecht,VBO,5.182572,52.103359
Biltstein,84,,,3732GV,De Bilt,De Bilt,Utrecht,VBO,5.182572,52.103359
Biltstein,86,,,3732GV,De Bilt,De Bilt,Utrecht,VBO,5.182572,52.103359
Biltstein,88,,,3732GV,De Bilt,De Bilt,Utrecht,VBO,5.182572,52.103359
Biltstein,90,,,3732GW,De Bilt,De Bilt,Utrecht,VBO,5.182572,52.103359
Biltstein,92,,,3732GW,De Bilt,De Bilt,Utrecht,VBO,5.182572,52.103359
Biltstein,94,,,3732GW,De Bilt,De Bilt,Utrecht,VBO,5.182572,52.103359
Biltstein,96,,,3732GW,De Bilt,De Bilt,Utrecht,VBO,5.182572,52.103359
Biltstein,98,,,3732GW,De Bilt,De Bilt,Utrecht,VBO,5.182572,52.103359
Biltstein,100,,,3732GW,De Bilt,De Bilt,Utrecht,VBO,5.182572,52.103359
Biltstein,102,,,3732GW,De Bilt,De Bilt,Utrecht,VBO,5.182572,52.103359
Biltstein,104,,,3732GW,De Bilt,De Bilt,Utrecht,VBO,5.182572,52.103359
Biltstein,106,,,3732GW,De Bilt,De Bilt,Utrecht,VBO,5.182572,52.103359
Biltstein,108,,,3732GW,De Bilt,De Bilt,Utrecht,VBO,5.182572,52.103359
Biltstein,110,,,3732GW,De Bilt,De Bilt,Utrecht,VBO,5.182572,52.103359
Biltstein,112,,,3732GW,De Bilt,De Bilt,Utrecht,VBO,5.182572,52.103359
Biltstein,114,,,3732GW,De Bilt,De Bilt,Utrecht,VBO,5.182572,52.103359
Biltstein,116,,,3732GW,De Bilt,De Bilt,Utrecht,VBO,5.182572,52.103359
Biltstein,118,,,3732GW,De Bilt,De Bilt,Utrecht,VBO,5.182572,52.103359
Biltstein,120,,,3732GW,De Bilt,De Bilt,Utrecht,VBO,5.182572,52.103359
Biltstein,122,,,3732GW,De Bilt,De Bilt,Utrecht,VBO,5.182572,52.103359
Biltstein,124,,,3732GW,De Bilt,De Bilt,Utrecht,VBO,5.182572,52.103359
Biltstein,126,,,3732GW,De Bilt,De Bilt,Utrecht,VBO,5.182572,52.103359
Biltstein,128,,,3732GW,De Bilt,De Bilt,Utrecht,VBO,5.182572,52.103359
Biltstein,130,,,3732GW,De Bilt,De Bilt,Utrecht,VBO,5.182572,52.103359
Biltstein,132,,,3732GW,De Bilt,De Bilt,Utrecht,VBO,5.182572,52.103359
Biltstein,134,,,3732GX,De Bilt,De Bilt,Utrecht,VBO,5.182572,52.103359
Biltstein,136,,,3732GX,De Bilt,De Bilt,Utrecht,VBO,5.182572,52.103359
Biltstein,138,,,3732GX,De Bilt,De Bilt,Utrecht,VBO,5.182572,52.103359
Biltstein,140,,,3732GX,De Bilt,De Bilt,Utrecht,VBO,5.182572,52.103359
Biltstein,142,,,3732GX,De Bilt,De Bilt,Utrecht,VBO,5.182572,52.103359
Biltstein,144,,,3732GX,De Bilt,De Bilt,Utrecht,VBO,5.182572,52.103359
Biltstein,146,,,3732GX,De Bilt,De Bilt,Utrecht,VBO,5.182572,52.103359
Biltstein,148,,,3732GX,De Bilt,De Bilt,Utrecht,VBO,5.182572,52.103359
Biltstein,150,,,3732GX,De Bilt,De Bilt,Utrecht,VBO,5.182572,52.103359
Biltstein,152,,,3732GX,De Bilt,De Bilt,Utrecht,VBO,5.182572,52.103359
Biltstein,154,,,3732GX,De Bilt,De Bilt,Utrecht,VBO,5.182572,52.103359
Biltstein,156,,,3732GX,De Bilt,De Bilt,Utrecht,VBO,5.182572,52.103359
Utrechtseweg,13,,,3732HA,De Bilt,De Bilt,Utrecht,VBO,5.212269,52.097403
Utrechtseweg,15,,,3732HA,De Bilt,De Bilt,Utrecht,VBO,5.212166,52.097457
Utrechtseweg,17,,,3732HA,De Bilt,De Bilt,Utrecht,VBO,5.211888,52.097663
Utrechtseweg,19,,,3732HA,De Bilt,De Bilt,Utrecht,VBO,5.211654,52.097761
Utrechtseweg,21,,,3732HA,De Bilt,De Bilt,Utrecht,VBO,5.211406,52.097860
Utrechtseweg,41,,,3732HA,De Bilt,De Bilt,Utrecht,VBO,5.206222,52.098517
Utrechtseweg,53,,,3732HA,De Bilt,De Bilt,Utrecht,VBO,5.205092,52.100097
Utrechtseweg,59,A,,3732HA,De Bilt,De Bilt,Utrecht,VBO,5.203761,52.100823
Utrechtseweg,59,,,3732HA,De Bilt,De Bilt,Utrecht,VBO,5.203733,52.100554
Utrechtseweg,61,,,3732HA,De Bilt,De Bilt,Utrecht,VBO,5.199934,52.094661
Utrechtseweg,63,,,3732HA,De Bilt,De Bilt,Utrecht,VBO,5.199919,52.094696
Utrechtseweg,65,,,3732HA,De Bilt,De Bilt,Utrecht,VBO,5.200429,52.098301
Utrechtseweg,89,,,3732HA,De Bilt,De Bilt,Utrecht,VBO,5.201113,52.102383
Utrechtseweg,91,,,3732HA,De Bilt,De Bilt,Utrecht,VBO,5.200344,52.101880
Utrechtseweg,127,,,3732HA,De Bilt,De Bilt,Utrecht,VBO,5.189684,52.101665
Utrechtseweg,129,,,3732HA,De Bilt,De Bilt,Utrecht,VBO,5.188584,52.099891
Utrechtseweg,275,,,3732HA,De Bilt,De Bilt,Utrecht,VBO,5.183454,52.102138
Utrechtseweg,2,,,3732HB,De Bilt,De Bilt,Utrecht,VBO,5.211142,52.098865
Utrechtseweg,4,,,3732HB,De Bilt,De Bilt,Utrecht,VBO,5.210095,52.099300
Utrechtseweg,18,,,3732HB,De Bilt,De Bilt,Utrecht,VBO,5.210822,52.101643
Utrechtseweg,58,,,3732HB,De Bilt,De Bilt,Utrecht,VBO,5.204970,52.104924
Utrechtseweg,60,,,3732HB,De Bilt,De Bilt,Utrecht,VBO,5.203097,52.102665
Soestdijkseweg Zuid,9,,,3732HC,De Bilt,De Bilt,Utrecht,VBO,5.185697,52.105121
Soestdijkseweg Zuid,11,,,3732HC,De Bilt,De Bilt,Utrecht,VBO,5.185733,52.105182
Soestdijkseweg Zuid,13,,,3732HC,De Bilt,De Bilt,Utrecht,VBO,5.185891,52.105459
Soestdijkseweg Zuid,15,,,3732HC,De Bilt,De Bilt,Utrecht,VBO,5.186123,52.105765
Soestdijkseweg Zuid,17,,,3732HC,De Bilt,De Bilt,Utrecht,VBO,5.186180,52.105990
Soestdijkseweg Zuid,19,,,3732HC,De Bilt,De Bilt,Utrecht,VBO,5.186369,52.106098
Soestdijkseweg Zuid,21,,,3732HC,De Bilt,De Bilt,Utrecht,VBO,5.186486,52.106251
Soestdijkseweg Zuid,23,,,3732HC,De Bilt,De Bilt,Utrecht,VBO,5.186529,52.106332
Soestdijkseweg Zuid,27,,,3732HC,De Bilt,De Bilt,Utrecht,VBO,5.186557,52.106691
Soestdijkseweg Zuid,29,,,3732HC,De Bilt,De Bilt,Utrecht,VBO,5.186848,52.106728
Soestdijkseweg Zuid,31,,,3732HD,De Bilt,De Bilt,Utrecht,VBO,5.186892,52.106809
Soestdijkseweg Zuid,33,,,3732HD,De Bilt,De Bilt,Utrecht,VBO,5.187022,52.107007
Soestdijkseweg Zuid,35,,,3732HD,De Bilt,De Bilt,Utrecht,VBO,5.187080,52.107070
Soestdijkseweg Zuid,37,,,3732HD,De Bilt,De Bilt,Utrecht,VBO,5.187109,52.107142
Soestdijkseweg Zuid,39,,,3732HD,De Bilt,De Bilt,Utrecht,VBO,5.187225,52.107322
Soestdijkseweg Zuid,41,,,3732HD,De Bilt,De Bilt,Utrecht,VBO,5.187137,52.107465
Soestdijkseweg Zuid,43,A,,3732HD,De Bilt,De Bilt,Utrecht,VBO,5.187603,52.107763
Soestdijkseweg Zuid,43,,,3732HD,De Bilt,De Bilt,Utrecht,VBO,5.187545,52.107700
Soestdijkseweg Zuid,45,,,3732HD,De Bilt,De Bilt,Utrecht,VBO,5.187792,52.107970
Soestdijkseweg Zuid,47,,,3732HD,De Bilt,De Bilt,Utrecht,VBO,5.187937,52.108159
Soestdijkseweg Zuid,49,B,,3732HD,De Bilt,De Bilt,Utrecht,VBO,5.187614,52.108536
Soestdijkseweg Zuid,49,,,3732HD,De Bilt,De Bilt,Utrecht,VBO,5.188070,52.108380
Soestdijkseweg Zuid,50,,,3732HD,De Bilt,De Bilt,Utrecht,VBO,5.189370,52.107958
Soestdijkseweg Zuid,87,A,1,3732HE,De Bilt,De Bilt,Utrecht,VBO,5.189602,52.111254
Soestdijkseweg Zuid,87,A,10,3732HE,De Bilt,De Bilt,Utrecht,VBO,5.189602,52.111254
Soestdijkseweg Zuid,87,A,12,3732HE,De Bilt,De Bilt,Utrecht,VBO,5.189602,52.111254
Soestdijkseweg Zuid,87,A,14,3732HE,De Bilt,De Bilt,Utrecht,VBO,5.189602,52.111254
Soestdijkseweg Zuid,87,A,15,3732HE,De Bilt,De Bilt,Utrecht,VBO,5.189602,52.111254
Soestdijkseweg Zuid,87,A,16,3732HE,De Bilt,De Bilt,Utrecht,VBO,5.189602,52.111254
Soestdijkseweg Zuid,87,A,17,3732HE,De Bilt,De Bilt,Utrecht,VBO,5.189602,52.111254
Soestdijkseweg Zuid,87,A,18,3732HE,De Bilt,De Bilt,Utrecht,VBO,5.189602,52.111254
Soestdijkseweg Zuid,87,A,19,3732HE,De Bilt,De Bilt,Utrecht,VBO,5.189602,52.111254
Soestdijkseweg Zuid,87,A,2,3732HE,De Bilt,De Bilt,Utrecht,VBO,5.189602,52.111254
Soestdijkseweg Zuid,87,A,20,3732HE,De Bilt,De Bilt,Utrecht,VBO,5.189602,52.111254
Soestdijkseweg Zuid,87,A,21,3732HE,De Bilt,De Bilt,Utrecht,VBO,5.189602,52.111254
Soestdijkseweg Zuid,87,A,22,3732HE,De Bilt,De Bilt,Utrecht,VBO,5.189602,52.111254
Soestdijkseweg Zuid,87,A,23,3732HE,De Bilt,De Bilt,Utrecht,VBO,5.189602,52.111254
Soestdijkseweg Zuid,87,A,24,3732HE,De Bilt,De Bilt,Utrecht,VBO,5.189602,52.111254
Soestdijkseweg Zuid,87,A,25,3732HE,De Bilt,De Bilt,Utrecht,VBO,5.189602,52.111254
Soestdijkseweg Zuid,87,A,26,3732HE,De Bilt,De Bilt,Utrecht,VBO,5.189602,52.111254
Soestdijkseweg Zuid,87,A,27,3732HE,De Bilt,De Bilt,Utrecht,VBO,5.189602,52.111254
Soestdijkseweg Zuid,87,A,28,3732HE,De Bilt,De Bilt,Utrecht,VBO,5.189602,52.111254
Soestdijkseweg Zuid,87,A,29,3732HE,De Bilt,De Bilt,Utrecht,VBO,5.189602,52.111254
Soestdijkseweg Zuid,87,A,3,3732HE,De Bilt,De Bilt,Utrecht,VBO,5.189602,52.111254
Soestdijkseweg Zuid,87,A,30,3732HE,De Bilt,De Bilt,Utrecht,VBO,5.189602,52.111254
Soestdijkseweg Zuid,87,A,31,3732HE,De Bilt,De Bilt,Utrecht,VBO,5.189602,52.111254
Soestdijkseweg Zuid,87,A,32,3732HE,De Bilt,De Bilt,Utrecht,VBO,5.189602,52.111254
Soestdijkseweg Zuid,87,A,33,3732HE,De Bilt,De Bilt,Utrecht,VBO,5.189602,52.111254
Soestdijkseweg Zuid,87,A,34,3732HE,De Bilt,De Bilt,Utrecht,VBO,5.189602,52.111254
Soestdijkseweg Zuid,87,A,4,3732HE,De Bilt,De Bilt,Utrecht,VBO,5.189602,52.111254
Soestdijkseweg Zuid,87,A,5,3732HE,De Bilt,De Bilt,Utrecht,VBO,5.189602,52.111254
Soestdijkseweg Zuid,87,A,6,3732HE,De Bilt,De Bilt,Utrecht,VBO,5.189602,52.111254
Soestdijkseweg Zuid,87,A,7,3732HE,De Bilt,De Bilt,Utrecht,VBO,5.189602,52.111254
Soestdijkseweg Zuid,87,A,8,3732HE,De Bilt,De Bilt,Utrecht,VBO,5.189602,52.111254
Soestdijkseweg Zuid,87,A,9,3732HE,De Bilt,De Bilt,Utrecht,VBO,5.189602,52.111254
Soestdijkseweg Zuid,87,B,0,3732HE,De Bilt,De Bilt,Utrecht,VBO,5.190231,52.112134
Soestdijkseweg Zuid,87,B,1,3732HE,De Bilt,De Bilt,Utrecht,VBO,5.189602,52.111254
Soestdijkseweg Zuid,87,B,10,3732HE,De Bilt,De Bilt,Utrecht,VBO,5.189602,52.111254
Soestdijkseweg Zuid,87,B,12,3732HE,De Bilt,De Bilt,Utrecht,VBO,5.189602,52.111254
Soestdijkseweg Zuid,87,B,14,3732HE,De Bilt,De Bilt,Utrecht,VBO,5.189602,52.111254
Soestdijkseweg Zuid,87,B,15,3732HE,De Bilt,De Bilt,Utrecht,VBO,5.189602,52.111254
Soestdijkseweg Zuid,87,B,16,3732HE,De Bilt,De Bilt,Utrecht,VBO,5.189602,52.111254
Soestdijkseweg Zuid,87,B,17,3732HE,De Bilt,De Bilt,Utrecht,VBO,5.189602,52.111254
Soestdijkseweg Zuid,87,B,18,3732HE,De Bilt,De Bilt,Utrecht,VBO,5.189995,52.111344
Soestdijkseweg Zuid,87,B,19,3732HE,De Bilt,De Bilt,Utrecht,VBO,5.189602,52.111254
Soestdijkseweg Zuid,87,B,2,3732HE,De Bilt,De Bilt,Utrecht,VBO,5.189602,52.111254
Soestdijkseweg Zuid,87,B,20,3732HE,De Bilt,De Bilt,Utrecht,VBO,5.189602,52.111254
Soestdijkseweg Zuid,87,B,21,3732HE,De Bilt,De Bilt,Utrecht,VBO,5.189602,52.111254
Soestdijkseweg Zuid,87,B,22,3732HE,De Bilt,De Bilt,Utrecht,VBO,5.189602,52.111254
Soestdijkseweg Zuid,87,B,23,3732HE,De Bilt,De Bilt,Utrecht,VBO,5.189602,52.111254
Soestdijkseweg Zuid,87,B,24,3732HE,De Bilt,De Bilt,Utrecht,VBO,5.189602,52.111254
Soestdijkseweg Zuid,87,B,25,3732HE,De Bilt,De Bilt,Utrecht,VBO,5.189602,52.111254
Soestdijkseweg Zuid,87,B,26,3732HE,De Bilt,De Bilt,Utrecht,VBO,5.189602,52.111254
Soestdijkseweg Zuid,87,B,27,3732HE,De Bilt,De Bilt,Utrecht,VBO,5.189602,52.111254
Soestdijkseweg Zuid,87,B,28,3732HE,De Bilt,De Bilt,Utrecht,VBO,5.189602,52.111254
Soestdijkseweg Zuid,87,B,29,3732HE,De Bilt,De Bilt,Utrecht,VBO,5.189602,52.111254
Soestdijkseweg Zuid,87,B,3,3732HE,De Bilt,De Bilt,Utrecht,VBO,5.189602,52.111254
Soestdijkseweg Zuid,87,B,30,3732HE,De Bilt,De Bilt,Utrecht,VBO,5.189602,52.111254
Soestdijkseweg Zuid,87,B,31,3732HE,De Bilt,De Bilt,Utrecht,VBO,5.189602,52.111254
Soestdijkseweg Zuid,87,B,32,3732HE,De Bilt,De Bilt,Utrecht,VBO,5.189602,52.111254
Soestdijkseweg Zuid,87,B,33,3732HE,De Bilt,De Bilt,Utrecht,VBO,5.189602,52.111254
Soestdijkseweg Zuid,87,B,34,3732HE,De Bilt,De Bilt,Utrecht,VBO,5.189602,52.111254
Soestdijkseweg Zuid,87,B,35,3732HE,De Bilt,De Bilt,Utrecht,VBO,5.189602,52.111254
Soestdijkseweg Zuid,87,B,36,3732HE,De Bilt,De Bilt,Utrecht,VBO,5.189602,52.111254
Soestdijkseweg Zuid,87,B,4,3732HE,De Bilt,De Bilt,Utrecht,VBO,5.189602,52.111254
Soestdijkseweg Zuid,87,B,5,3732HE,De Bilt,De Bilt,Utrecht,VBO,5.189602,52.111254
Soestdijkseweg Zuid,87,B,6,3732HE,De Bilt,De Bilt,Utrecht,VBO,5.189602,52.111254
Soestdijkseweg Zuid,87,B,7,3732HE,De Bilt,De Bilt,Utrecht,VBO,5.189602,52.111254
Soestdijkseweg Zuid,87,B,8,3732HE,De Bilt,De Bilt,Utrecht,VBO,5.189602,52.111254
Soestdijkseweg Zuid,87,B,9,3732HE,De Bilt,De Bilt,Utrecht,VBO,5.189602,52.111254
Soestdijkseweg Zuid,87,C,0,3732HE,De Bilt,De Bilt,Utrecht,VBO,5.190137,52.112165
Soestdijkseweg Zuid,87,C,1,3732HE,De Bilt,De Bilt,Utrecht,VBO,5.189602,52.111254
Soestdijkseweg Zuid,87,C,10,3732HE,De Bilt,De Bilt,Utrecht,VBO,5.189602,52.111254
Soestdijkseweg Zuid,87,C,12,3732HE,De Bilt,De Bilt,Utrecht,VBO,5.189602,52.111254
Soestdijkseweg Zuid,87,C,14,3732HE,De Bilt,De Bilt,Utrecht,VBO,5.189602,52.111254
Soestdijkseweg Zuid,87,C,15,3732HE,De Bilt,De Bilt,Utrecht,VBO,5.189602,52.111254
Soestdijkseweg Zuid,87,C,16,3732HE,De Bilt,De Bilt,Utrecht,VBO,5.189602,52.111254
Soestdijkseweg Zuid,87,C,17,3732HE,De Bilt,De Bilt,Utrecht,VBO,5.189602,52.111254
Soestdijkseweg Zuid,87,C,18,3732HE,De Bilt,De Bilt,Utrecht,VBO,5.189602,52.111254
Soestdijkseweg Zuid,87,C,19,3732HE,De Bilt,De Bilt,Utrecht,VBO,5.189602,52.111254
Soestdijkseweg Zuid,87,C,2,3732HE,De Bilt,De Bilt,Utrecht,VBO,5.189602,52.111254
Soestdijkseweg Zuid,87,C,20,3732HE,De Bilt,De Bilt,Utrecht,VBO,5.189602,52.111254
Soestdijkseweg Zuid,87,C,21,3732HE,De Bilt,De Bilt,Utrecht,VBO,5.189602,52.111254
Soestdijkseweg Zuid,87,C,22,3732HE,De Bilt,De Bilt,Utrecht,VBO,5.189602,52.111254
Soestdijkseweg Zuid,87,C,23,3732HE,De Bilt,De Bilt,Utrecht,VBO,5.189602,52.111254
Soestdijkseweg Zuid,87,C,24,3732HE,De Bilt,De Bilt,Utrecht,VBO,5.189602,52.111254
Soestdijkseweg Zuid,87,C,25,3732HE,De Bilt,De Bilt,Utrecht,VBO,5.189602,52.111254
Soestdijkseweg Zuid,87,C,26,3732HE,De Bilt,De Bilt,Utrecht,VBO,5.189602,52.111254
Soestdijkseweg Zuid,87,C,27,3732HE,De Bilt,De Bilt,Utrecht,VBO,5.189602,52.111254
Soestdijkseweg Zuid,87,C,28,3732HE,De Bilt,De Bilt,Utrecht,VBO,5.189602,52.111254
Soestdijkseweg Zuid,87,C,29,3732HE,De Bilt,De Bilt,Utrecht,VBO,5.189602,52.111254
Soestdijkseweg Zuid,87,C,3,3732HE,De Bilt,De Bilt,Utrecht,VBO,5.189602,52.111254
Soestdijkseweg Zuid,87,C,30,3732HE,De Bilt,De Bilt,Utrecht,VBO,5.189602,52.111254
Soestdijkseweg Zuid,87,C,31,3732HE,De Bilt,De Bilt,Utrecht,VBO,5.189602,52.111254
Soestdijkseweg Zuid,87,C,32,3732HE,De Bilt,De Bilt,Utrecht,VBO,5.189602,52.111254
Soestdijkseweg Zuid,87,C,4,3732HE,De Bilt,De Bilt,Utrecht,VBO,5.189602,52.111254
Soestdijkseweg Zuid,87,C,5,3732HE,De Bilt,De Bilt,Utrecht,VBO,5.189602,52.111254
Soestdijkseweg Zuid,87,C,6,3732HE,De Bilt,De Bilt,Utrecht,VBO,5.189602,52.111254
Soestdijkseweg Zuid,87,C,7,3732HE,De Bilt,De Bilt,Utrecht,VBO,5.189602,52.111254
Soestdijkseweg Zuid,87,C,8,3732HE,De Bilt,De Bilt,Utrecht,VBO,5.189995,52.111344
Soestdijkseweg Zuid,87,C,9,3732HE,De Bilt,De Bilt,Utrecht,VBO,5.189602,52.111254
Soestdijkseweg Zuid,87,,TR,3732HE,De Bilt,De Bilt,Utrecht,VBO,5.189325,52.111495
Dorpsstraat vo Steenstraat,1,,,3732HG,De Bilt,De Bilt,Utrecht,VBO,5.185510,52.104195
Dorpsstraat vo Steenstraat,3,,,3732HG,De Bilt,De Bilt,Utrecht,VBO,5.185442,52.104097
Dorpsstraat vo Steenstraat,5,,,3732HG,De Bilt,De Bilt,Utrecht,VBO,5.185376,52.103957
Dorpsstraat vo Steenstraat,7,,,3732HG,De Bilt,De Bilt,Utrecht,VBO,5.185354,52.103909
Dorpsstraat vo Steenstraat,9,,,3732HG,De Bilt,De Bilt,Utrecht,VBO,5.185344,52.103866
Dorpsstraat vo Steenstraat,11,,,3732HG,De Bilt,De Bilt,Utrecht,VBO,5.185270,52.103717
Dorpsstraat vo Steenstraat,13,,,3732HG,De Bilt,De Bilt,Utrecht,VBO,5.185247,52.103663
Dorpsstraat vo Steenstraat,15,,,3732HG,De Bilt,De Bilt,Utrecht,VBO,5.185218,52.103609
Dorpsstraat vo Steenstraat,17,,,3732HG,De Bilt,De Bilt,Utrecht,VBO,5.185164,52.103737
Dorpsstraat vo Steenstraat,19,,,3732HG,De Bilt,De Bilt,Utrecht,VBO,5.185144,52.103684
Dorpsstraat vo Steenstraat,21,,,3732HG,De Bilt,De Bilt,Utrecht,VBO,5.185125,52.103626
Dorpsstraat vo Steenstraat,23,,,3732HG,De Bilt,De Bilt,Utrecht,VBO,5.185269,52.104165
Dorpsstraat vo Steenstraat,25,,,3732HG,De Bilt,De Bilt,Utrecht,VBO,5.185107,52.104195
Dorpsstraat vo Steenstraat,27,,,3732HG,De Bilt,De Bilt,Utrecht,VBO,5.184891,52.103963
Dorpsstraat vo Steenstraat,31,,,3732HG,De Bilt,De Bilt,Utrecht,VBO,5.184945,52.104197
Dorpsstraat vo Steenstraat,33,,,3732HG,De Bilt,De Bilt,Utrecht,VBO,5.184758,52.104217
Dorpsstraat vo Steenstraat,35,,,3732HG,De Bilt,De Bilt,Utrecht,VBO,5.184626,52.104234
Dorpsstraat vo Steenstraat,37,,,3732HG,De Bilt,De Bilt,Utrecht,VBO,5.184524,52.104243
Dorpsstraat vo Steenstraat,39,,,3732HG,De Bilt,De Bilt,Utrecht,VBO,5.184349,52.104261
Dorpsstraat vo Steenstraat,41,,,3732HH,De Bilt,De Bilt,Utrecht,VBO,5.183685,52.104200
Dorpsstraat vo Steenstraat,43,,,3732HH,De Bilt,De Bilt,Utrecht,VBO,5.183523,52.104173
Dorpsstraat vo Steenstraat,45,,,3732HH,De Bilt,De Bilt,Utrecht,VBO,5.183430,52.104169
Dorpsstraat vo Steenstraat,47,,,3732HH,De Bilt,De Bilt,Utrecht,VBO,5.183298,52.104160
Dorpsstraat vo Steenstraat,49,,,3732HH,De Bilt,De Bilt,Utrecht,VBO,5.183211,52.104160
Dorpsstraat vo Steenstraat,51,A,,3732HH,De Bilt,De Bilt,Utrecht,VBO,5.183163,52.103983
Dorpsstraat vo Steenstraat,51,,,3732HH,De Bilt,De Bilt,Utrecht,VBO,5.183032,52.103745
Dorpsstraat vo Steenstraat,53,,,3732HH,De Bilt,De Bilt,Utrecht,VBO,5.182977,52.104151
Dorpsstraat vo Steenstraat,55,,,3732HH,De Bilt,De Bilt,Utrecht,VBO,5.182904,52.104142
Dorpsstraat vo Steenstraat,57,,,3732HH,De Bilt,De Bilt,Utrecht,VBO,5.182802,52.104123
Dorpsstraat vo Steenstraat,59,,,3732HH,De Bilt,De Bilt,Utrecht,VBO,5.182671,52.104051
Dorpsstraat vo Steenstraat,61,,,3732HH,De Bilt,De Bilt,Utrecht,VBO,5.182569,52.104042
Dorpsstraat vo Steenstraat,63,,,3732HH,De Bilt,De Bilt,Utrecht,VBO,5.182482,52.104033
Dorpsstraat vo Steenstraat,65,,,3732HH,De Bilt,De Bilt,Utrecht,VBO,5.182380,52.104015
Dorpsstraat vo Steenstraat,67,,,3732HH,De Bilt,De Bilt,Utrecht,VBO,5.182292,52.103997
Dorpsstraat vo Steenstraat,69,,,3732HH,De Bilt,De Bilt,Utrecht,VBO,5.182205,52.103988
Dorpsstraat vo Steenstraat,71,,,3732HH,De Bilt,De Bilt,Utrecht,VBO,5.182117,52.103978
Dorpsstraat vo Steenstraat,73,,,3732HH,De Bilt,De Bilt,Utrecht,VBO,5.182051,52.103990
Dorpsstraat vo Steenstraat,75,,,3732HH,De Bilt,De Bilt,Utrecht,VBO,5.182051,52.103990
Dorpsstraat vo Steenstraat,77,,,3732HH,De Bilt,De Bilt,Utrecht,VBO,5.181986,52.103951
Dorpsstraat vo Steenstraat,79,,,3732HH,De Bilt,De Bilt,Utrecht,VBO,5.181913,52.103942
Dorpsstraat vo Steenstraat,81,,,3732HH,De Bilt,De Bilt,Utrecht,VBO,5.181869,52.103924
Dorpsstraat vo Steenstraat,83,,,3732HH,De Bilt,De Bilt,Utrecht,VBO,5.181869,52.103924
Dorpsstraat vo Steenstraat,85,,,3732HH,De Bilt,De Bilt,Utrecht,VBO,5.181520,52.103681
Dorpsstraat vo Steenstraat,6,,,3732HJ,De Bilt,De Bilt,Utrecht,VBO,5.185253,52.104469
Dorpsstraat vo Steenstraat,8,A,,3732HJ,De Bilt,De Bilt,Utrecht,VBO,5.185208,52.104537
Dorpsstraat vo Steenstraat,8,,,3732HJ,De Bilt,De Bilt,Utrecht,VBO,5.185172,52.104484
Dorpsstraat vo Steenstraat,10,,,3732HJ,De Bilt,De Bilt,Utrecht,VBO,5.185063,52.104496
Dorpsstraat vo Steenstraat,14,,,3732HJ,De Bilt,De Bilt,Utrecht,VBO,5.184727,52.104549
Dorpsstraat vo Steenstraat,18,A,,3732HJ,De Bilt,De Bilt,Utrecht,VBO,5.184580,52.104583
Dorpsstraat vo Steenstraat,18,B,,3732HJ,De Bilt,De Bilt,Utrecht,VBO,5.184554,52.104633
Dorpsstraat vo Steenstraat,18,,,3732HJ,De Bilt,De Bilt,Utrecht,VBO,5.184523,52.104549
Dorpsstraat vo Steenstraat,20,,,3732HJ,De Bilt,De Bilt,Utrecht,VBO,5.184474,52.104596
Dorpsstraat vo Steenstraat,22,,,3732HJ,De Bilt,De Bilt,Utrecht,VBO,5.184420,52.104639
Dorpsstraat vo Steenstraat,24,A,,3732HJ,De Bilt,De Bilt,Utrecht,VBO,5.184402,52.104569
Dorpsstraat vo Steenstraat,24,,,3732HJ,De Bilt,De Bilt,Utrecht,VBO,5.184420,52.104639
Dorpsstraat vo Steenstraat,26,A,,3732HJ,De Bilt,De Bilt,Utrecht,VBO,5.184310,52.104616
Dorpsstraat vo Steenstraat,26,B,,3732HJ,De Bilt,De Bilt,Utrecht,VBO,5.184325,52.104655
Dorpsstraat vo Steenstraat,26,C,,3732HJ,De Bilt,De Bilt,Utrecht,VBO,5.184240,52.104593
Dorpsstraat vo Steenstraat,26,D,,3732HJ,De Bilt,De Bilt,Utrecht,VBO,5.184252,52.104631
Dorpsstraat vo Steenstraat,26,E,,3732HJ,De Bilt,De Bilt,Utrecht,VBO,5.184259,52.104668
Dorpsstraat vo Steenstraat,26,F,,3732HJ,De Bilt,De Bilt,Utrecht,VBO,5.184176,52.104611
Dorpsstraat vo Steenstraat,26,,,3732HJ,De Bilt,De Bilt,Utrecht,VBO,5.184301,52.104577
Dorpsstraat vo Steenstraat,28,A,,3732HJ,De Bilt,De Bilt,Utrecht,VBO,5.184202,52.104697
Dorpsstraat vo Steenstraat,28,B,,3732HJ,De Bilt,De Bilt,Utrecht,VBO,5.184217,52.104738
Dorpsstraat vo Steenstraat,28,C,,3732HJ,De Bilt,De Bilt,Utrecht,VBO,5.184231,52.104779
Dorpsstraat vo Steenstraat,28,D,,3732HJ,De Bilt,De Bilt,Utrecht,VBO,5.184111,52.104633
Dorpsstraat vo Steenstraat,28,E,,3732HJ,De Bilt,De Bilt,Utrecht,VBO,5.184126,52.104670
Dorpsstraat vo Steenstraat,28,F,,3732HJ,De Bilt,De Bilt,Utrecht,VBO,5.184142,52.104710
Dorpsstraat vo Steenstraat,28,G,,3732HJ,De Bilt,De Bilt,Utrecht,VBO,5.184154,52.104748
Dorpsstraat vo Steenstraat,28,,,3732HJ,De Bilt,De Bilt,Utrecht,VBO,5.184188,52.104653
Dorpsstraat vo Steenstraat,30,A,,3732HJ,De Bilt,De Bilt,Utrecht,VBO,5.184178,52.104834
Dorpsstraat vo Steenstraat,30,B,,3732HJ,De Bilt,De Bilt,Utrecht,VBO,5.184051,52.104652
Dorpsstraat vo Steenstraat,30,C,,3732HJ,De Bilt,De Bilt,Utrecht,VBO,5.184063,52.104688
Dorpsstraat vo Steenstraat,30,D,,3732HJ,De Bilt,De Bilt,Utrecht,VBO,5.184079,52.104725
Dorpsstraat vo Steenstraat,30,E,,3732HJ,De Bilt,De Bilt,Utrecht,VBO,5.184095,52.104763
Dorpsstraat vo Steenstraat,30,F,,3732HJ,De Bilt,De Bilt,Utrecht,VBO,5.184110,52.104803
Dorpsstraat vo Steenstraat,30,,,3732HJ,De Bilt,De Bilt,Utrecht,VBO,5.184167,52.104790
Dorpsstraat vo Steenstraat,32,A,,3732HJ,De Bilt,De Bilt,Utrecht,VBO,5.184157,52.104880
Dorpsstraat vo Steenstraat,32,B,,3732HJ,De Bilt,De Bilt,Utrecht,VBO,5.184224,52.104873
Dorpsstraat vo Steenstraat,32,,GB1,3732HJ,De Bilt,De Bilt,Utrecht,VBO,5.184244,52.104831
Dorpsstraat vo Steenstraat,32,,GB2,3732HJ,De Bilt,De Bilt,Utrecht,VBO,5.184233,52.104831
Dorpsstraat vo Steenstraat,32,,GB3,3732HJ,De Bilt,De Bilt,Utrecht,VBO,5.184243,52.104825
Dorpsstraat vo Steenstraat,32,,GB4,3732HJ,De Bilt,De Bilt,Utrecht,VBO,5.184234,52.104825
Dorpsstraat vo Steenstraat,32,,GB5,3732HJ,De Bilt,De Bilt,Utrecht,VBO,5.184244,52.104830
Dorpsstraat vo Steenstraat,32,,,3732HJ,De Bilt,De Bilt,Utrecht,VBO,5.184121,52.104845
Dorpsstraat vo Steenstraat,34,A,,3732HJ,De Bilt,De Bilt,Utrecht,VBO,5.183748,52.104506
Dorpsstraat vo Steenstraat,34,,,3732HJ,De Bilt,De Bilt,Utrecht,VBO,5.183851,52.104512
Dorpsstraat vo Steenstraat,36,,,3732HJ,De Bilt,De Bilt,Utrecht,VBO,5.183607,52.104482
Dorpsstraat vo Steenstraat,38,A,,3732HJ,De Bilt,De Bilt,Utrecht,VBO,5.183422,52.104511
Dorpsstraat vo Steenstraat,38,B,,3732HJ,De Bilt,De Bilt,Utrecht,VBO,5.183402,52.104482
Dorpsstraat vo Steenstraat,38,,,3732HJ,De Bilt,De Bilt,Utrecht,VBO,5.183446,52.104468
Dorpsstraat vo Steenstraat,40,,,3732HJ,De Bilt,De Bilt,Utrecht,VBO,5.183326,52.104430
Dorpsstraat vo Steenstraat,42,,,3732HJ,De Bilt,De Bilt,Utrecht,VBO,5.183253,52.104412
Dorpsstraat vo Steenstraat,44,A,,3732HJ,De Bilt,De Bilt,Utrecht,VBO,5.183160,52.104443
Dorpsstraat vo Steenstraat,44,,,3732HJ,De Bilt,De Bilt,Utrecht,VBO,5.183137,52.104394
Dorpsstraat vo Steenstraat,46,,,3732HJ,De Bilt,De Bilt,Utrecht,VBO,5.183035,52.104367
Dorpsstraat vo Steenstraat,48,A,,3732HJ,De Bilt,De Bilt,Utrecht,VBO,5.182945,52.104407
Dorpsstraat vo Steenstraat,48,,,3732HJ,De Bilt,De Bilt,Utrecht,VBO,5.182962,52.104348
Dorpsstraat vo Steenstraat,50,,,3732HK,De Bilt,De Bilt,Utrecht,VBO,5.182860,52.104330
Dorpsstraat vo Steenstraat,52,,,3732HK,De Bilt,De Bilt,Utrecht,VBO,5.182772,52.104312
Dorpsstraat vo Steenstraat,54,,,3732HK,De Bilt,De Bilt,Utrecht,VBO,5.182685,52.104303
Dorpsstraat vo Steenstraat,56,,,3732HK,De Bilt,De Bilt,Utrecht,VBO,5.182626,52.104285
Dorpsstraat vo Steenstraat,58,,,3732HK,De Bilt,De Bilt,Utrecht,VBO,5.182554,52.104276
Dorpsstraat vo Steenstraat,60,,,3732HK,De Bilt,De Bilt,Utrecht,VBO,5.182481,52.104267
Dorpsstraat vo Steenstraat,62,,,3732HK,De Bilt,De Bilt,Utrecht,VBO,5.182473,52.104315
Dorpsstraat vo Steenstraat,64,,,3732HK,De Bilt,De Bilt,Utrecht,VBO,5.182335,52.104275
Dorpsstraat vo Steenstraat,66,,,3732HK,De Bilt,De Bilt,Utrecht,VBO,5.182233,52.104263
Dorpsstraat vo Steenstraat,68,,,3732HK,De Bilt,De Bilt,Utrecht,VBO,5.182124,52.104244
Dorpsstraat vo Steenstraat,70,,,3732HK,De Bilt,De Bilt,Utrecht,VBO,5.181604,52.104445
Dorpsstraat vo Steenstraat,74,,,3732HK,De Bilt,De Bilt,Utrecht,VBO,5.181016,52.104245
Dorpsstraat vo Steenstraat,76,,,3732HK,De Bilt,De Bilt,Utrecht,VBO,5.180598,52.104093
Dorpsstraat vo Steenstraat,80,,,3732HK,De Bilt,De Bilt,Utrecht,VBO,5.180125,52.103985
Dorpsstraat vo Steenstraat,82,,,3732HK,De Bilt,De Bilt,Utrecht,VBO,5.179738,52.103902
Dorpsstraat vo Steenstraat,84,,,3732HK,De Bilt,De Bilt,Utrecht,VBO,5.179563,52.103875
Dorpsstraat vo Steenstraat,86,,,3732HK,De Bilt,De Bilt,Utrecht,VBO,5.179598,52.103916
Dorpsstraat vo Steenstraat,88,,,3732HK,De Bilt,De Bilt,Utrecht,VBO,5.179516,52.103900
Dorpsstraat vo Steenstraat,90,,,3732HK,De Bilt,De Bilt,Utrecht,VBO,5.179388,52.103848
Dorpsstraat vo Steenstraat,92,,,3732HK,De Bilt,De Bilt,Utrecht,VBO,5.179459,52.103859
Dorpsstraat vo Steenstraat,94,,,3732HK,De Bilt,De Bilt,Utrecht,VBO,5.179404,52.103886
Kerksteeg,1,,TR,3732HK,De Bilt,De Bilt,Utrecht,VBO,5.182261,52.104455
Kerksteeg,1,,,3732HK,De Bilt,De Bilt,Utrecht,VBO,5.182147,52.104695
Kerksteeg,3,,,3732HK,De Bilt,De Bilt,Utrecht,VBO,5.182380,52.104695
Kerksteeg,5,,,3732HK,De Bilt,De Bilt,Utrecht,VBO,5.182221,52.104706
Kerksteeg,7,,,3732HK,De Bilt,De Bilt,Utrecht,VBO,5.182386,52.104658
Kerksteeg,9,,,3732HK,De Bilt,De Bilt,Utrecht,VBO,5.182225,52.104672
Dorpsstraat vo Steenstraat,96,,,3732HL,De Bilt,De Bilt,Utrecht,VBO,5.178936,52.103730
Dorpsstraat vo Steenstraat,98,,,3732HL,De Bilt,De Bilt,Utrecht,VBO,5.178958,52.103770
Dorpsstraat vo Steenstraat,100,,,3732HL,De Bilt,De Bilt,Utrecht,VBO,5.178894,52.103759
Dorpsstraat vo Steenstraat,102,,,3732HL,De Bilt,De Bilt,Utrecht,VBO,5.178857,52.103709
Dorpsstraat vo Steenstraat,104,,,3732HL,De Bilt,De Bilt,Utrecht,VBO,5.178790,52.103712
Dorpsstraat vo Steenstraat,106,,,3732HL,De Bilt,De Bilt,Utrecht,VBO,5.178824,52.103744
Dorpsstraat vo Steenstraat,108,,,3732HL,De Bilt,De Bilt,Utrecht,VBO,5.178659,52.103658
Dorpsstraat vo Steenstraat,110,,GB1,3732HL,De Bilt,De Bilt,Utrecht,VBO,5.178512,52.103972
Dorpsstraat vo Steenstraat,110,,GB2,3732HL,De Bilt,De Bilt,Utrecht,VBO,5.178527,52.103945
Dorpsstraat vo Steenstraat,110,,GB3,3732HL,De Bilt,De Bilt,Utrecht,VBO,5.178541,52.103918
Dorpsstraat vo Steenstraat,110,,GB4,3732HL,De Bilt,De Bilt,Utrecht,VBO,5.178556,52.103891
Dorpsstraat vo Steenstraat,110,,GB5,3732HL,De Bilt,De Bilt,Utrecht,VBO,5.178571,52.103864
Dorpsstraat vo Steenstraat,110,,,3732HL,De Bilt,De Bilt,Utrecht,VBO,5.178586,52.103640
Dorpsstraat vo Steenstraat,114,,,3732HL,De Bilt,De Bilt,Utrecht,VBO,5.178411,52.103666
Dorpsstraat vo Steenstraat,116,,,3732HL,De Bilt,De Bilt,Utrecht,VBO,5.178324,52.103657
Dorpsstraat vo Steenstraat,118,,,3732HL,De Bilt,De Bilt,Utrecht,VBO,5.178236,52.103639
Dorpsstraat vo Steenstraat,120,,,3732HL,De Bilt,De Bilt,Utrecht,VBO,5.178149,52.103621
Dorpsstraat vo Steenstraat,122,,,3732HL,De Bilt,De Bilt,Utrecht,VBO,5.178046,52.103603
Dorpsstraat vo Steenstraat,124,,,3732HL,De Bilt,De Bilt,Utrecht,VBO,5.177959,52.103585
Dorpsstraat vo Steenstraat,126,,,3732HL,De Bilt,De Bilt,Utrecht,VBO,5.177872,52.103567
Dorpsstraat vo Steenstraat,128,,TR,3732HL,De Bilt,De Bilt,Utrecht,VBO,5.177449,52.103685
Dorpsstraat vo Steenstraat,128,,,3732HL,De Bilt,De Bilt,Utrecht,VBO,5.177638,52.103539
De Holle Bilt,1,,TR,3732HM,De Bilt,De Bilt,Utrecht,VBO,5.192483,52.102784
De Holle Bilt,1,,,3732HM,De Bilt,De Bilt,Utrecht,VBO,5.191405,52.102844
De Holle Bilt,2,A,,3732HM,De Bilt,De Bilt,Utrecht,VBO,5.206295,52.113378
De Holle Bilt,2,,,3732HM,De Bilt,De Bilt,Utrecht,VBO,5.201761,52.104586
De Holle Bilt,4,,TR,3732HM,De Bilt,De Bilt,Utrecht,VBO,5.197810,52.103705
De Holle Bilt,4,,,3732HM,De Bilt,De Bilt,Utrecht,VBO,5.199281,52.104241
De Holle Bilt,6,A,,3732HM,De Bilt,De Bilt,Utrecht,VBO,5.200829,52.106378
De Holle Bilt,6,B,,3732HM,De Bilt,De Bilt,Utrecht,VBO,5.200784,52.105958
De Holle Bilt,6,,TR,3732HM,De Bilt,De Bilt,Utrecht,VBO,5.200632,52.105860
De Holle Bilt,6,,,3732HM,De Bilt,De Bilt,Utrecht,VBO,5.200775,52.106328
De Holle Bilt,8,,,3732HM,De Bilt,De Bilt,Utrecht,VBO,5.197167,52.103599
De Holle Bilt,10,,,3732HM,De Bilt,De Bilt,Utrecht,VBO,5.194158,52.103171
De Holle Bilt,13,,,3732HM,De Bilt,De Bilt,Utrecht,VBO,5.190791,52.102996
De Holle Bilt,14,,,3732HM,De Bilt,De Bilt,Utrecht,VBO,5.192863,52.106459
De Holle Bilt,15,,,3732HM,De Bilt,De Bilt,Utrecht,VBO,5.190223,52.102743
De Holle Bilt,16,,,3732HM,De Bilt,De Bilt,Utrecht,VBO,5.189357,52.103946
De Holle Bilt,17,,,3732HM,De Bilt,De Bilt,Utrecht,VBO,5.190105,52.103021
De Holle Bilt,19,,,3732HM,De Bilt,De Bilt,Utrecht,VBO,5.189768,52.103308
De Holle Bilt,20,,,3732HM,De Bilt,De Bilt,Utrecht,VBO,5.188831,52.103981
De Holle Bilt,21,,,3732HM,De Bilt,De Bilt,Utrecht,VBO,5.189637,52.103335
De Holle Bilt,22,A,,3732HM,De Bilt,De Bilt,Utrecht,VBO,5.191504,52.107920
De Holle Bilt,22,,,3732HM,De Bilt,De Bilt,Utrecht,VBO,5.191441,52.107985
De Holle Bilt,23,,,3732HM,De Bilt,De Bilt,Utrecht,VBO,5.188880,52.102822
De Holle Bilt,25,A,,3732HM,De Bilt,De Bilt,Utrecht,VBO,5.189215,52.103290
De Holle Bilt,25,,,3732HM,De Bilt,De Bilt,Utrecht,VBO,5.189038,52.103343
Visserssteeg,1,,,3732HN,De Bilt,De Bilt,Utrecht,VBO,5.194879,52.106049
Visserssteeg,4,,,3732HN,De Bilt,De Bilt,Utrecht,VBO,5.195338,52.104549
Visserssteeg,8,,,3732HN,De Bilt,De Bilt,Utrecht,VBO,5.196398,52.105971
Visserssteeg,10,,,3732HN,De Bilt,De Bilt,Utrecht,VBO,5.196354,52.105917
Visserssteeg,20,,TR,3732HN,De Bilt,De Bilt,Utrecht,VBO,5.201541,52.110043
Visserssteeg,20,,,3732HN,De Bilt,De Bilt,Utrecht,VBO,5.200320,52.110462
Visserssteeg,22,,,3732HN,De Bilt,De Bilt,Utrecht,VBO,5.200320,52.110462
Visserssteeg,24,,,3732HN,De Bilt,De Bilt,Utrecht,VBO,5.200320,52.110462
Visserssteeg,26,,,3732HN,De Bilt,De Bilt,Utrecht,VBO,5.200320,52.110462
Visserssteeg,28,,,3732HN,Bilthoven,De Bilt,Utrecht,VBO,5.192162,52.112372
Amersfoortseweg,1,A,,3732HP,De Bilt,De Bilt,Utrecht,VBO,5.222496,52.116488
Amersfoortseweg,1,,,3732HP,De Bilt,De Bilt,Utrecht,VBO,5.222487,52.116463
Amersfoortseweg,9,,TR,3732HP,De Bilt,De Bilt,Utrecht,VBO,5.206484,52.102342
Amersfoortseweg,9,,,3732HP,De Bilt,De Bilt,Utrecht,VBO,5.206293,52.102706
Amersfoortseweg,15,,,3732HP,De Bilt,De Bilt,Utrecht,VBO,5.207412,52.103831
Amersfoortseweg,45,,,3732HP,De Bilt,De Bilt,Utrecht,VBO,5.216971,52.106915
Amersfoortseweg,55,,,3732HP,De Bilt,De Bilt,Utrecht,VBO,5.219338,52.107372
Kroostweg-Noord,175,,,3732HR,De Bilt,De Bilt,Utrecht,VBO,5.212079,52.096898
Kroostweg-Noord,177,,,3732HR,De Bilt,De Bilt,Utrecht,VBO,5.212137,52.097152
Schorteldoeksesteeg,1,,TR,3732HS,De Bilt,De Bilt,Utrecht,VBO,5.210812,52.097445
Schorteldoeksesteeg,1,,,3732HS,De Bilt,De Bilt,Utrecht,VBO,5.210372,52.096774
Schorteldoeksesteeg,3,,,3732HS,De Bilt,De Bilt,Utrecht,VBO,5.208789,52.094202
Noordweg,1,,,3732HT,De Bilt,De Bilt,Utrecht,VBO,5.208019,52.090079
Noordweg,2,A,,3732HT,De Bilt,De Bilt,Utrecht,VBO,5.208678,52.092755
Noordweg,2,,,3732HT,De Bilt,De Bilt,Utrecht,VBO,5.210213,52.090047
Noordweg,3,,,3732HT,De Bilt,De Bilt,Utrecht,VBO,5.207343,52.089379
Noordweg,4,,,3732HT,De Bilt,De Bilt,Utrecht,VBO,5.208078,52.093952
Noordweg,5,,,3732HT,De Bilt,De Bilt,Utrecht,VBO,5.206163,52.088274
Bunnikseweg,2,,,3732HV,De Bilt,De Bilt,Utrecht,VBO,5.182288,52.095893
Bunnikseweg,7,,,3732HV,De Bilt,De Bilt,Utrecht,VBO,5.183759,52.095892
Bunnikseweg,9,,,3732HV,De Bilt,De Bilt,Utrecht,VBO,5.185310,52.095149
Bunnikseweg,10,,,3732HV,De Bilt,De Bilt,Utrecht,VBO,5.185367,52.093672
Bunnikseweg,11,,,3732HV,De Bilt,De Bilt,Utrecht,VBO,5.185942,52.094089
Bunnikseweg,12,,,3732HV,De Bilt,De Bilt,Utrecht,VBO,5.185254,52.093280
Bunnikseweg,13,,,3732HV,De Bilt,De Bilt,Utrecht,VBO,5.185971,52.094026
Bunnikseweg,15,A,,3732HV,De Bilt,De Bilt,Utrecht,VBO,5.187127,52.093426
Bunnikseweg,15,,,3732HV,De Bilt,De Bilt,Utrecht,VBO,5.186134,52.093541
Bunnikseweg,25,,,3732HV,De Bilt,De Bilt,Utrecht,VBO,5.190144,52.091487
Bunnikseweg,33,,,3732HV,De Bilt,De Bilt,Utrecht,VBO,5.193847,52.091586
Bunnikseweg,39,,,3732HV,De Bilt,De Bilt,Utrecht,VBO,5.191780,52.090495
Bunnikseweg,41,,,3732HV,De Bilt,De Bilt,Utrecht,VBO,5.191511,52.090435
Bunnikseweg,45,A,,3732HV,De Bilt,De Bilt,Utrecht,VBO,5.188422,52.091002
Bunnikseweg,45,,,3732HV,De Bilt,De Bilt,Utrecht,VBO,5.188622,52.090942
Bunnikseweg,47,,,3732HV,De Bilt,De Bilt,Utrecht,VBO,5.187518,52.090865
Bunnikseweg,53,,,3732HV,De Bilt,De Bilt,Utrecht,VBO,5.188180,52.089786
Bisschopsweg,1,,,3732HW,De Bilt,De Bilt,Utrecht,VBO,5.200197,52.088976
Bisschopsweg,2,,,3732HW,De Bilt,De Bilt,Utrecht,VBO,5.200755,52.090249
Universiteitsweg,1,A,,3732HX,De Bilt,De Bilt,Utrecht,VBO,5.186067,52.101340
Universiteitsweg,1,B,,3732HX,De Bilt,De Bilt,Utrecht,VBO,5.185357,52.100730
Universiteitsweg,1,,,3732HX,De Bilt,De Bilt,Utrecht,VBO,5.185183,52.100622
Universiteitsweg,2,,,3732HX,De Bilt,De Bilt,Utrecht,VBO,5.184391,52.101757
Universiteitsweg,3,,,3732HX,De Bilt,De Bilt,Utrecht,VBO,5.186083,52.100338
Universiteitsweg,5,,,3732HX,De Bilt,De Bilt,Utrecht,VBO,5.186083,52.100338
Universiteitsweg,10,,,3732HX,De Bilt,De Bilt,Utrecht,VBO,5.177070,52.097112
Universiteitsweg,11,,,3732HX,De Bilt,De Bilt,Utrecht,VBO,5.182051,52.096105
Universiteitsweg,12,,,3732HX,De Bilt,De Bilt,Utrecht,VBO,5.175104,52.096218
Universiteitsweg,13,A,,3732HX,De Bilt,De Bilt,Utrecht,VBO,5.182008,52.095880
Weteringlaan,1,,,3732HZ,De Bilt,De Bilt,Utrecht,VBO,5.207538,52.086943
Weteringlaan,3,,,3732HZ,De Bilt,De Bilt,Utrecht,VBO,5.207232,52.087143
Looydijk,5,,,3732VA,De Bilt,De Bilt,Utrecht,VBO,5.186962,52.107519
Looydijk,7,,,3732VA,De Bilt,De Bilt,Utrecht,VBO,5.186903,52.107537
Looydijk,9,,,3732VA,De Bilt,De Bilt,Utrecht,VBO,5.186845,52.107546
Looydijk,11,,,3732VA,De Bilt,De Bilt,Utrecht,VBO,5.186772,52.107564
Looydijk,13,,,3732VA,De Bilt,De Bilt,Utrecht,VBO,5.186699,52.107582
Looydijk,15,,,3732VA,De Bilt,De Bilt,Utrecht,VBO,5.186640,52.107599
Looydijk,17,,,3732VA,De Bilt,De Bilt,Utrecht,VBO,5.186523,52.107635
Looydijk,19,,,3732VA,De Bilt,De Bilt,Utrecht,VBO,5.186465,52.107644
Looydijk,21,,,3732VA,De Bilt,De Bilt,Utrecht,VBO,5.186392,52.107662
Looydijk,23,,,3732VA,De Bilt,De Bilt,Utrecht,VBO,5.186333,52.107680
Looydijk,25,,,3732VA,De Bilt,De Bilt,Utrecht,VBO,5.186260,52.107698
Looydijk,27,,,3732VA,De Bilt,De Bilt,Utrecht,VBO,5.186202,52.107716
Looydijk,29,,,3732VA,De Bilt,De Bilt,Utrecht,VBO,5.186129,52.107733
Looydijk,31,,TR,3732VB,De Bilt,De Bilt,Utrecht,VBO,5.185600,52.107575
Looydijk,31,,,3732VB,De Bilt,De Bilt,Utrecht,VBO,5.185690,52.107823
Looydijk,33,,,3732VB,De Bilt,De Bilt,Utrecht,VBO,5.185617,52.107840
Looydijk,35,A,,3732VB,De Bilt,De Bilt,Utrecht,VBO,5.185471,52.107876
Looydijk,35,,,3732VB,De Bilt,De Bilt,Utrecht,VBO,5.185544,52.107858
Looydijk,37,,,3732VB,De Bilt,De Bilt,Utrecht,VBO,5.185398,52.107894
Looydijk,39,A,,3732VB,De Bilt,De Bilt,Utrecht,VBO,5.185266,52.107930
Looydijk,39,,,3732VB,De Bilt,De Bilt,Utrecht,VBO,5.185325,52.107912
Looydijk,45,,,3732VB,De Bilt,De Bilt,Utrecht,VBO,5.185150,52.107929
Looydijk,47,,,3732VB,De Bilt,De Bilt,Utrecht,VBO,5.185091,52.107947
Looydijk,49,,,3732VB,De Bilt,De Bilt,Utrecht,VBO,5.185018,52.107965
Looydijk,51,,,3732VB,De Bilt,De Bilt,Utrecht,VBO,5.184916,52.107992
Looydijk,53,,,3732VB,De Bilt,De Bilt,Utrecht,VBO,5.184857,52.108010
Looydijk,55,,,3732VB,De Bilt,De Bilt,Utrecht,VBO,5.184784,52.108028
Looydijk,57,,,3732VB,De Bilt,De Bilt,Utrecht,VBO,5.184726,52.108037
Looydijk,61,C,,3732VC,De Bilt,De Bilt,Utrecht,VBO,5.184518,52.107947
Looydijk,61,,,3732VC,De Bilt,De Bilt,Utrecht,VBO,5.184638,52.108090
Looydijk,63,,,3732VC,De Bilt,De Bilt,Utrecht,VBO,5.184550,52.108108
Looydijk,65,,,3732VC,De Bilt,De Bilt,Utrecht,VBO,5.184448,52.108135
Looydijk,67,,,3732VC,De Bilt,De Bilt,Utrecht,VBO,5.184317,52.108171
Looydijk,69,A,,3732VC,De Bilt,De Bilt,Utrecht,VBO,5.184156,52.108206
Looydijk,69,,,3732VC,De Bilt,De Bilt,Utrecht,VBO,5.184243,52.108189
Looydijk,71,,,3732VC,De Bilt,De Bilt,Utrecht,VBO,5.184083,52.108224
Looydijk,73,A,,3732VC,De Bilt,De Bilt,Utrecht,VBO,5.183951,52.108260
Looydijk,73,,,3732VC,De Bilt,De Bilt,Utrecht,VBO,5.184010,52.108242
Looydijk,75,,,3732VC,De Bilt,De Bilt,Utrecht,VBO,5.183820,52.108323
Looydijk,77,,,3732VC,De Bilt,De Bilt,Utrecht,VBO,5.183761,52.108332
Looydijk,79,,,3732VC,De Bilt,De Bilt,Utrecht,VBO,5.183697,52.108358
Looydijk,81,,,3732VC,De Bilt,De Bilt,Utrecht,VBO,5.183630,52.108376
Looydijk,83,,,3732VC,De Bilt,De Bilt,Utrecht,VBO,5.183556,52.108394
Looydijk,85,,,3732VC,De Bilt,De Bilt,Utrecht,VBO,5.183454,52.108421
Looydijk,87,,,3732VC,De Bilt,De Bilt,Utrecht,VBO,5.183359,52.108444
Looydijk,89,,,3732VC,De Bilt,De Bilt,Utrecht,VBO,5.183279,52.108457
Looydijk,91,,,3732VD,De Bilt,De Bilt,Utrecht,VBO,5.183206,52.108474
Looydijk,93,,,3732VD,De Bilt,De Bilt,Utrecht,VBO,5.183133,52.108492
Looydijk,95,,,3732VD,De Bilt,De Bilt,Utrecht,VBO,5.183074,52.108510
Looydijk,97,,,3732VD,De Bilt,De Bilt,Utrecht,VBO,5.183001,52.108528
Looydijk,99,A,,3732VD,De Bilt,De Bilt,Utrecht,VBO,5.182835,52.108631
Looydijk,99,D,,3732VD,De Bilt,De Bilt,Utrecht,VBO,5.182475,52.108731
Looydijk,99,E,,3732VD,De Bilt,De Bilt,Utrecht,VBO,5.182410,52.108750
Looydijk,99,,,3732VD,De Bilt,De Bilt,Utrecht,VBO,5.182928,52.108546
Looydijk,101,,,3732VD,De Bilt,De Bilt,Utrecht,VBO,5.182095,52.108787
Looydijk,103,,,3732VD,De Bilt,De Bilt,Utrecht,VBO,5.182036,52.108805
Looydijk,105,,,3732VD,De Bilt,De Bilt,Utrecht,VBO,5.181978,52.108817
Looydijk,107,,,3732VD,De Bilt,De Bilt,Utrecht,VBO,5.181934,52.108832
Looydijk,109,,,3732VD,De Bilt,De Bilt,Utrecht,VBO,5.181788,52.108849
Looydijk,111,,,3732VD,De Bilt,De Bilt,Utrecht,VBO,5.181787,52.108795
Looydijk,113,A,,3732VD,De Bilt,De Bilt,Utrecht,VBO,5.181670,52.108849
Looydijk,113,B,,3732VD,De Bilt,De Bilt,Utrecht,VBO,5.181567,52.108683
Looydijk,113,,,3732VD,De Bilt,De Bilt,Utrecht,VBO,5.181671,52.108885
Looydijk,115,A,,3732VD,De Bilt,De Bilt,Utrecht,VBO,5.181425,52.108543
Looydijk,115,,,3732VD,De Bilt,De Bilt,Utrecht,VBO,5.181598,52.108903
Looydijk,117,,,3732VD,De Bilt,De Bilt,Utrecht,VBO,5.181496,52.108921
Looydijk,119,A,,3732VD,De Bilt,De Bilt,Utrecht,VBO,5.181101,52.109001
Looydijk,119,,1,3732VD,De Bilt,De Bilt,Utrecht,VBO,5.181363,52.108869
Looydijk,119,,,3732VD,De Bilt,De Bilt,Utrecht,VBO,5.181394,52.108939
Looydijk,4,,,3732VE,De Bilt,De Bilt,Utrecht,VBO,5.187217,52.107826
Looydijk,6,,,3732VE,De Bilt,De Bilt,Utrecht,VBO,5.187062,52.107825
Looydijk,8,,,3732VE,De Bilt,De Bilt,Utrecht,VBO,5.186989,52.107843
Looydijk,10,,,3732VE,De Bilt,De Bilt,Utrecht,VBO,5.186902,52.107861
Looydijk,12,,,3732VE,De Bilt,De Bilt,Utrecht,VBO,5.186814,52.107887
Looydijk,14,,,3732VE,De Bilt,De Bilt,Utrecht,VBO,5.186639,52.107932
Looydijk,16,,,3732VE,De Bilt,De Bilt,Utrecht,VBO,5.186536,52.107959
Looydijk,18,,,3732VE,De Bilt,De Bilt,Utrecht,VBO,5.186113,52.108057
Looydijk,20,,,3732VE,De Bilt,De Bilt,Utrecht,VBO,5.186039,52.108075
Looydijk,22,,,3732VE,De Bilt,De Bilt,Utrecht,VBO,5.185952,52.108102
Looydijk,24,,,3732VE,De Bilt,De Bilt,Utrecht,VBO,5.185879,52.108119
Looydijk,26,,,3732VE,De Bilt,De Bilt,Utrecht,VBO,5.185806,52.108137
Looydijk,28,,,3732VE,De Bilt,De Bilt,Utrecht,VBO,5.185733,52.108155
Looydijk,30,,,3732VE,De Bilt,De Bilt,Utrecht,VBO,5.185645,52.108173
Looydijk,32,,,3732VE,De Bilt,De Bilt,Utrecht,VBO,5.185557,52.108200
Looydijk,34,,,3732VE,De Bilt,De Bilt,Utrecht,VBO,5.185469,52.108227
Looydijk,36,,,3732VE,De Bilt,De Bilt,Utrecht,VBO,5.185382,52.108244
Looydijk,38,,,3732VE,De Bilt,De Bilt,Utrecht,VBO,5.185309,52.108262
Looydijk,40,,,3732VE,De Bilt,De Bilt,Utrecht,VBO,5.185236,52.108280
Looydijk,42,,,3732VE,De Bilt,De Bilt,Utrecht,VBO,5.185163,52.108298
Looydijk,44,,,3732VE,De Bilt,De Bilt,Utrecht,VBO,5.185090,52.108316
Looydijk,46,,,3732VE,De Bilt,De Bilt,Utrecht,VBO,5.185002,52.108343
Looydijk,48,,,3732VG,De Bilt,De Bilt,Utrecht,VBO,5.184900,52.108369
Looydijk,50,,,3732VG,De Bilt,De Bilt,Utrecht,VBO,5.184797,52.108396
Looydijk,52,,,3732VG,De Bilt,De Bilt,Utrecht,VBO,5.184739,52.108414
Looydijk,54,,,3732VG,De Bilt,De Bilt,Utrecht,VBO,5.184666,52.108432
Looydijk,56,,,3732VG,De Bilt,De Bilt,Utrecht,VBO,5.184549,52.108459
Looydijk,58,,,3732VG,De Bilt,De Bilt,Utrecht,VBO,5.184476,52.108477
Looydijk,60,,,3732VG,De Bilt,De Bilt,Utrecht,VBO,5.184403,52.108503
Looydijk,62,,,3732VG,De Bilt,De Bilt,Utrecht,VBO,5.184330,52.108521
Looydijk,64,,,3732VG,De Bilt,De Bilt,Utrecht,VBO,5.184256,52.108539
Looydijk,66,,,3732VG,De Bilt,De Bilt,Utrecht,VBO,5.184183,52.108557
Looydijk,68,,,3732VG,De Bilt,De Bilt,Utrecht,VBO,5.184110,52.108575
Looydijk,70,,,3732VG,De Bilt,De Bilt,Utrecht,VBO,5.184023,52.108593
Looydijk,72,,,3732VG,De Bilt,De Bilt,Utrecht,VBO,5.183950,52.108610
Looydijk,74,,,3732VG,De Bilt,De Bilt,Utrecht,VBO,5.183877,52.108628
Looydijk,76,A,,3732VG,De Bilt,De Bilt,Utrecht,VBO,5.183891,52.108754
Looydijk,76,,,3732VG,De Bilt,De Bilt,Utrecht,VBO,5.183803,52.108646
Looydijk,78,A,,3732VG,De Bilt,De Bilt,Utrecht,VBO,5.183445,52.108822
Looydijk,78,,,3732VG,De Bilt,De Bilt,Utrecht,VBO,5.183380,52.108762
Looydijk,80,A,,3732VG,De Bilt,De Bilt,Utrecht,VBO,5.183354,52.108811
Looydijk,80,,,3732VG,De Bilt,De Bilt,Utrecht,VBO,5.183307,52.108780
Looydijk,82,,,3732VG,De Bilt,De Bilt,Utrecht,VBO,5.183233,52.108798
Looydijk,84,,,3732VG,De Bilt,De Bilt,Utrecht,VBO,5.183160,52.108807
Looydijk,86,,,3732VG,De Bilt,De Bilt,Utrecht,VBO,5.183073,52.108834
Looydijk,96,A,,3732VH,De Bilt,De Bilt,Utrecht,VBO,5.183021,52.108904
Looydijk,96,,,3732VH,De Bilt,De Bilt,Utrecht,VBO,5.182972,52.108840
Looydijk,98,,,3732VH,De Bilt,De Bilt,Utrecht,VBO,5.182839,52.108842
Looydijk,100,,,3732VH,De Bilt,De Bilt,Utrecht,VBO,5.182751,52.108860
Looydijk,102,A,,3732VH,De Bilt,De Bilt,Utrecht,VBO,5.182591,52.108996
Looydijk,102,,,3732VH,De Bilt,De Bilt,Utrecht,VBO,5.182635,52.108878
Looydijk,104,,,3732VH,De Bilt,De Bilt,Utrecht,VBO,5.182562,52.108887
Looydijk,128,A,,3732VH,De Bilt,De Bilt,Utrecht,VBO,5.181363,52.109235
Looydijk,128,,TR,3732VH,De Bilt,De Bilt,Utrecht,VBO,5.181399,52.109325
Looydijk,128,,,3732VH,De Bilt,De Bilt,Utrecht,VBO,5.181750,52.109144
Tuinstraat,1,,,3732VJ,De Bilt,De Bilt,Utrecht,VBO,5.183835,52.105053
Tuinstraat,3,,,3732VJ,De Bilt,De Bilt,Utrecht,VBO,5.183765,52.105164
Tuinstraat,5,,,3732VJ,De Bilt,De Bilt,Utrecht,VBO,5.183980,52.105195
Tuinstraat,7,,,3732VJ,De Bilt,De Bilt,Utrecht,VBO,5.183980,52.105195
Tuinstraat,9,,,3732VJ,De Bilt,De Bilt,Utrecht,VBO,5.184023,52.105249
Tuinstraat,11,,,3732VJ,De Bilt,De Bilt,Utrecht,VBO,5.184023,52.105249
Tuinstraat,13,,,3732VJ,De Bilt,De Bilt,Utrecht,VBO,5.184052,52.105303
Tuinstraat,15,,,3732VJ,De Bilt,De Bilt,Utrecht,VBO,5.184052,52.105303
Tuinstraat,17,,,3732VJ,De Bilt,De Bilt,Utrecht,VBO,5.184081,52.105357
Tuinstraat,19,,,3732VJ,De Bilt,De Bilt,Utrecht,VBO,5.184081,52.105357
Tuinstraat,21,,,3732VJ,De Bilt,De Bilt,Utrecht,VBO,5.184125,52.105411
Tuinstraat,23,,,3732VJ,De Bilt,De Bilt,Utrecht,VBO,5.184125,52.105411
Tuinstraat,25,,,3732VJ,De Bilt,De Bilt,Utrecht,VBO,5.184154,52.105456
Tuinstraat,27,,,3732VJ,De Bilt,De Bilt,Utrecht,VBO,5.184154,52.105456
Tuinstraat,29,,,3732VJ,De Bilt,De Bilt,Utrecht,VBO,5.184181,52.105923
Tuinstraat,31,,,3732VJ,De Bilt,De Bilt,Utrecht,VBO,5.184224,52.105977
Tuinstraat,33,,,3732VJ,De Bilt,De Bilt,Utrecht,VBO,5.184268,52.106022
Tuinstraat,35,,,3732VJ,De Bilt,De Bilt,Utrecht,VBO,5.184297,52.106067
Tuinstraat,37,,,3732VJ,De Bilt,De Bilt,Utrecht,VBO,5.184326,52.106121
Tuinstraat,39,,,3732VJ,De Bilt,De Bilt,Utrecht,VBO,5.184369,52.106166
Tuinstraat,41,,,3732VK,De Bilt,De Bilt,Utrecht,VBO,5.184398,52.106211
Tuinstraat,43,,,3732VK,De Bilt,De Bilt,Utrecht,VBO,5.184427,52.106265
Tuinstraat,45,,,3732VK,De Bilt,De Bilt,Utrecht,VBO,5.184661,52.106275
Tuinstraat,47,,,3732VK,De Bilt,De Bilt,Utrecht,VBO,5.184704,52.106329
Tuinstraat,49,,,3732VK,De Bilt,De Bilt,Utrecht,VBO,5.184733,52.106374
Tuinstraat,51,,,3732VK,De Bilt,De Bilt,Utrecht,VBO,5.184777,52.106419
Tuinstraat,53,,,3732VK,De Bilt,De Bilt,Utrecht,VBO,5.184806,52.106473
Tuinstraat,55,,,3732VK,De Bilt,De Bilt,Utrecht,VBO,5.184835,52.106518
Tuinstraat,57,,,3732VK,De Bilt,De Bilt,Utrecht,VBO,5.184878,52.106572
Tuinstraat,59,,,3732VK,De Bilt,De Bilt,Utrecht,VBO,5.184907,52.106617
Tuinstraat,61,,,3732VK,De Bilt,De Bilt,Utrecht,VBO,5.184936,52.106662
Tuinstraat,63,,,3732VK,De Bilt,De Bilt,Utrecht,VBO,5.185227,52.107022
Tuinstraat,65,,,3732VK,De Bilt,De Bilt,Utrecht,VBO,5.185227,52.107022
Tuinstraat,67,,,3732VK,De Bilt,De Bilt,Utrecht,VBO,5.185270,52.107085
Tuinstraat,69,,,3732VK,De Bilt,De Bilt,Utrecht,VBO,5.185270,52.107085
Tuinstraat,71,,,3732VK,De Bilt,De Bilt,Utrecht,VBO,5.185299,52.107139
Tuinstraat,73,,,3732VK,De Bilt,De Bilt,Utrecht,VBO,5.185299,52.107139
Tuinstraat,2,A,,3732VL,De Bilt,De Bilt,Utrecht,VBO,5.184505,52.105313
Tuinstraat,2,,,3732VL,De Bilt,De Bilt,Utrecht,VBO,5.184476,52.105268
Tuinstraat,4,,,3732VL,De Bilt,De Bilt,Utrecht,VBO,5.184534,52.105358
Tuinstraat,6,,,3732VL,De Bilt,De Bilt,Utrecht,VBO,5.184563,52.105403
Tuinstraat,8,,,3732VL,De Bilt,De Bilt,Utrecht,VBO,5.184592,52.105448
Tuinstraat,10,,,3732VL,De Bilt,De Bilt,Utrecht,VBO,5.184621,52.105484
Tuinstraat,12,,,3732VL,De Bilt,De Bilt,Utrecht,VBO,5.184707,52.105691
Tuinstraat,14,,,3732VL,De Bilt,De Bilt,Utrecht,VBO,5.184795,52.105673
Tuinstraat,16,,,3732VL,De Bilt,De Bilt,Utrecht,VBO,5.184868,52.105646
Tuinstraat,18,,,3732VL,De Bilt,De Bilt,Utrecht,VBO,5.184956,52.105628
Tuinstraat,20,,,3732VL,De Bilt,De Bilt,Utrecht,VBO,5.185043,52.105610
Tuinstraat,22,,,3732VL,De Bilt,De Bilt,Utrecht,VBO,5.185146,52.105602
Tuinstraat,24,,GB1,3732VL,De Bilt,De Bilt,Utrecht,VBO,5.185494,52.105567
Tuinstraat,24,,GB2,3732VL,De Bilt,De Bilt,Utrecht,VBO,5.185477,52.105547
Tuinstraat,24,,GB3,3732VL,De Bilt,De Bilt,Utrecht,VBO,5.185452,52.105520
Tuinstraat,24,,GB4,3732VL,De Bilt,De Bilt,Utrecht,VBO,5.185417,52.105495
Tuinstraat,24,,GB5,3732VL,De Bilt,De Bilt,Utrecht,VBO,5.185423,52.105466
Tuinstraat,24,,GB6,3732VL,De Bilt,De Bilt,Utrecht,VBO,5.185418,52.105440
Tuinstraat,24,,GB7,3732VL,De Bilt,De Bilt,Utrecht,VBO,5.185400,52.105418
Tuinstraat,24,,GB8,3732VL,De Bilt,De Bilt,Utrecht,VBO,5.185382,52.105393
Tuinstraat,24,,,3732VL,De Bilt,De Bilt,Utrecht,VBO,5.185233,52.105719
Tuinstraat,26,,,3732VL,De Bilt,De Bilt,Utrecht,VBO,5.185276,52.105773
Tuinstraat,28,,,3732VL,De Bilt,De Bilt,Utrecht,VBO,5.185305,52.105827
Tuinstraat,30,,,3732VL,De Bilt,De Bilt,Utrecht,VBO,5.185349,52.105872
Tuinstraat,32,,,3732VL,De Bilt,De Bilt,Utrecht,VBO,5.185378,52.105926
Tuinstraat,34,,,3732VL,De Bilt,De Bilt,Utrecht,VBO,5.185407,52.105979
Tuinstraat,36,,,3732VL,De Bilt,De Bilt,Utrecht,VBO,5.185450,52.106024
Tuinstraat,38,,,3732VL,De Bilt,De Bilt,Utrecht,VBO,5.185479,52.106069
Tuinstraat,40,,,3732VL,De Bilt,De Bilt,Utrecht,VBO,5.185523,52.106123
Tuinstraat,42,,,3732VL,De Bilt,De Bilt,Utrecht,VBO,5.185552,52.106168
Tuinstraat,44,,,3732VM,De Bilt,De Bilt,Utrecht,VBO,5.185609,52.106312
Tuinstraat,46,,,3732VM,De Bilt,De Bilt,Utrecht,VBO,5.185449,52.106357
Tuinstraat,48,,,3732VM,De Bilt,De Bilt,Utrecht,VBO,5.185376,52.106375
Tuinstraat,50,,,3732VM,De Bilt,De Bilt,Utrecht,VBO,5.185303,52.106393
Tuinstraat,52,,,3732VM,De Bilt,De Bilt,Utrecht,VBO,5.185215,52.106420
Tuinstraat,54,,,3732VM,De Bilt,De Bilt,Utrecht,VBO,5.185433,52.106600
Tuinstraat,56,,,3732VM,De Bilt,De Bilt,Utrecht,VBO,5.185477,52.106663
Tuinstraat,58,,,3732VM,De Bilt,De Bilt,Utrecht,VBO,5.185506,52.106708
Tuinstraat,60,,,3732VM,De Bilt,De Bilt,Utrecht,VBO,5.185549,52.106762
Tuinstraat,62,,,3732VM,De Bilt,De Bilt,Utrecht,VBO,5.185578,52.106807
Tuinstraat,64,,,3732VM,De Bilt,De Bilt,Utrecht,VBO,5.185622,52.106861
Tuinstraat,66,,,3732VM,De Bilt,De Bilt,Utrecht,VBO,5.185651,52.106915
Tuinstraat,68,,,3732VM,De Bilt,De Bilt,Utrecht,VBO,5.185694,52.106960
Tuinstraat,70,,,3732VM,De Bilt,De Bilt,Utrecht,VBO,5.185723,52.107005
Tuinstraat,72,,,3732VN,De Bilt,De Bilt,Utrecht,VBO,5.185781,52.107086
Tuinstraat,74,,,3732VN,De Bilt,De Bilt,Utrecht,VBO,5.185825,52.107140
Tuinstraat,76,,,3732VN,De Bilt,De Bilt,Utrecht,VBO,5.185854,52.107203
Tuinstraat,78,,,3732VN,De Bilt,De Bilt,Utrecht,VBO,5.185897,52.107248
Tuinstraat,80,,,3732VN,De Bilt,De Bilt,Utrecht,VBO,5.185926,52.107302
Tuinstraat,82,,,3732VN,De Bilt,De Bilt,Utrecht,VBO,5.185955,52.107356
Tuinstraat,84,,,3732VN,De Bilt,De Bilt,Utrecht,VBO,5.185999,52.107401
Tuinstraat,86,,GB1,3732VN,De Bilt,De Bilt,Utrecht,VBO,5.186225,52.107467
Tuinstraat,86,,,3732VN,De Bilt,De Bilt,Utrecht,VBO,5.186028,52.107455
Meidoornpad,1,,,3732VP,De Bilt,De Bilt,Utrecht,VBO,5.184255,52.105654
Meidoornpad,3,,,3732VP,De Bilt,De Bilt,Utrecht,VBO,5.184255,52.105654
Meidoornpad,5,,,3732VP,De Bilt,De Bilt,Utrecht,VBO,5.184167,52.105681
Meidoornpad,7,,,3732VP,De Bilt,De Bilt,Utrecht,VBO,5.184167,52.105681
Meidoornpad,9,,,3732VP,De Bilt,De Bilt,Utrecht,VBO,5.184080,52.105699
Meidoornpad,11,,,3732VP,De Bilt,De Bilt,Utrecht,VBO,5.184080,52.105699
Meidoornpad,13,,,3732VP,De Bilt,De Bilt,Utrecht,VBO,5.183977,52.105725
Meidoornpad,15,,,3732VP,De Bilt,De Bilt,Utrecht,VBO,5.183977,52.105725
Meidoornpad,17,,,3732VP,De Bilt,De Bilt,Utrecht,VBO,5.183890,52.105743
Meidoornpad,19,,,3732VP,De Bilt,De Bilt,Utrecht,VBO,5.183890,52.105743
Meidoornpad,21,,,3732VP,De Bilt,De Bilt,Utrecht,VBO,5.183787,52.105770
Meidoornpad,23,,,3732VP,De Bilt,De Bilt,Utrecht,VBO,5.183787,52.105770
Meidoornpad,25,,,3732VP,De Bilt,De Bilt,Utrecht,VBO,5.183612,52.105913
Meidoornpad,27,,,3732VP,De Bilt,De Bilt,Utrecht,VBO,5.183641,52.105967
Meidoornpad,29,,,3732VP,De Bilt,De Bilt,Utrecht,VBO,5.183669,52.106048
Meidoornpad,31,,,3732VP,De Bilt,De Bilt,Utrecht,VBO,5.183713,52.106102
Meidoornpad,33,,,3732VP,De Bilt,De Bilt,Utrecht,VBO,5.183742,52.106147
Meidoornpad,35,,,3732VP,De Bilt,De Bilt,Utrecht,VBO,5.183771,52.106192
Meidoornpad,37,,,3732VP,De Bilt,De Bilt,Utrecht,VBO,5.183800,52.106237
Meidoornpad,39,,,3732VP,De Bilt,De Bilt,Utrecht,VBO,5.183829,52.106291
Meidoornpad,41,,,3732VP,De Bilt,De Bilt,Utrecht,VBO,5.183887,52.106354
Meidoornpad,43,,,3732VP,De Bilt,De Bilt,Utrecht,VBO,5.183930,52.106408
Meidoornpad,45,,,3732VP,De Bilt,De Bilt,Utrecht,VBO,5.183959,52.106453
Meidoornpad,47,,,3732VR,De Bilt,De Bilt,Utrecht,VBO,5.184003,52.106498
Meidoornpad,49,,,3732VR,De Bilt,De Bilt,Utrecht,VBO,5.184032,52.106552
Meidoornpad,51,,,3732VR,De Bilt,De Bilt,Utrecht,VBO,5.184061,52.106597
Meidoornpad,53,,,3732VR,De Bilt,De Bilt,Utrecht,VBO,5.184105,52.106642
Meidoornpad,55,,,3732VR,De Bilt,De Bilt,Utrecht,VBO,5.184134,52.106687
Meidoornpad,57,,,3732VR,De Bilt,De Bilt,Utrecht,VBO,5.184162,52.106741
Meidoornpad,59,,,3732VR,De Bilt,De Bilt,Utrecht,VBO,5.184177,52.106813
Meidoornpad,61,,,3732VR,De Bilt,De Bilt,Utrecht,VBO,5.184220,52.106858
Meidoornpad,63,,,3732VR,De Bilt,De Bilt,Utrecht,VBO,5.184249,52.106912
Meidoornpad,65,,,3732VR,De Bilt,De Bilt,Utrecht,VBO,5.184278,52.106957
Meidoornpad,67,,,3732VR,De Bilt,De Bilt,Utrecht,VBO,5.184322,52.107002
Meidoornpad,69,,,3732VS,De Bilt,De Bilt,Utrecht,VBO,5.184351,52.107047
Meidoornpad,71,,,3732VS,De Bilt,De Bilt,Utrecht,VBO,5.184380,52.107101
Meidoornpad,73,,,3732VS,De Bilt,De Bilt,Utrecht,VBO,5.184629,52.106967
Meidoornpad,75,,,3732VS,De Bilt,De Bilt,Utrecht,VBO,5.184629,52.106967
Meidoornpad,77,,,3732VS,De Bilt,De Bilt,Utrecht,VBO,5.184716,52.106940
Meidoornpad,79,,,3732VS,De Bilt,De Bilt,Utrecht,VBO,5.184716,52.106940
Meidoornpad,81,,,3732VS,De Bilt,De Bilt,Utrecht,VBO,5.184804,52.106913
Meidoornpad,83,,,3732VS,De Bilt,De Bilt,Utrecht,VBO,5.184804,52.106913
Meidoornpad,85,,,3732VS,De Bilt,De Bilt,Utrecht,VBO,5.184906,52.106895
Meidoornpad,87,,,3732VS,De Bilt,De Bilt,Utrecht,VBO,5.184906,52.106895
Meidoornpad,89,,,3732VS,De Bilt,De Bilt,Utrecht,VBO,5.184994,52.106869
Meidoornpad,91,,,3732VS,De Bilt,De Bilt,Utrecht,VBO,5.184994,52.106869
Meidoornpad,93,,,3732VS,De Bilt,De Bilt,Utrecht,VBO,5.185067,52.106851
Meidoornpad,95,,,3732VS,De Bilt,De Bilt,Utrecht,VBO,5.185067,52.106851
Kamperfoeliestraat,1,,,3732VT,De Bilt,De Bilt,Utrecht,VBO,5.184360,52.105133
Kamperfoeliestraat,2,,,3732VT,De Bilt,De Bilt,Utrecht,VBO,5.184418,52.105115
Kamperfoeliestraat,3,,,3732VT,De Bilt,De Bilt,Utrecht,VBO,5.184491,52.105097
Kamperfoeliestraat,4,,,3732VT,De Bilt,De Bilt,Utrecht,VBO,5.184550,52.105079
Kamperfoeliestraat,5,,,3732VT,De Bilt,De Bilt,Utrecht,VBO,5.184623,52.105061
Kamperfoeliestraat,6,,,3732VT,De Bilt,De Bilt,Utrecht,VBO,5.184696,52.105052
Kamperfoeliestraat,7,,,3732VT,De Bilt,De Bilt,Utrecht,VBO,5.184840,52.105331
Kamperfoeliestraat,8,,,3732VT,De Bilt,De Bilt,Utrecht,VBO,5.184899,52.105322
Kamperfoeliestraat,9,,,3732VT,De Bilt,De Bilt,Utrecht,VBO,5.184972,52.105305
Kamperfoeliestraat,10,,,3732VT,De Bilt,De Bilt,Utrecht,VBO,5.185045,52.105287
Kamperfoeliestraat,11,,,3732VT,De Bilt,De Bilt,Utrecht,VBO,5.185103,52.105269
Kamperfoeliestraat,12,,,3732VT,De Bilt,De Bilt,Utrecht,VBO,5.185176,52.105251
Kamperfoeliestraat,13,,,3732VT,De Bilt,De Bilt,Utrecht,VBO,5.185249,52.105242
Kamperfoeliestraat,14,,,3732VT,De Bilt,De Bilt,Utrecht,VBO,5.185104,52.105062
Kamperfoeliestraat,15,,,3732VT,De Bilt,De Bilt,Utrecht,VBO,5.185075,52.105026
Kamperfoeliestraat,16,,,3732VT,De Bilt,De Bilt,Utrecht,VBO,5.185046,52.104981
Kamperfoeliestraat,17,,,3732VT,De Bilt,De Bilt,Utrecht,VBO,5.185017,52.104936
Kamperfoeliestraat,18,,,3732VT,De Bilt,De Bilt,Utrecht,VBO,5.184988,52.104891
Kamperfoeliestraat,19,,,3732VT,De Bilt,De Bilt,Utrecht,VBO,5.184959,52.104855
Kamperfoeliestraat,20,,,3732VT,De Bilt,De Bilt,Utrecht,VBO,5.184930,52.104810
Kamperfoeliestraat,21,,,3732VT,De Bilt,De Bilt,Utrecht,VBO,5.184634,52.104719
Kamperfoeliestraat,22,,,3732VT,De Bilt,De Bilt,Utrecht,VBO,5.184557,52.104727
Akker,1,,,3732XA,De Bilt,De Bilt,Utrecht,VBO,5.186301,52.108273
Akker,3,,,3732XA,De Bilt,De Bilt,Utrecht,VBO,5.186267,52.108301
Akker,5,,,3732XA,De Bilt,De Bilt,Utrecht,VBO,5.186330,52.108318
Akker,7,,,3732XA,De Bilt,De Bilt,Utrecht,VBO,5.186292,52.108347
Akker,9,,,3732XA,De Bilt,De Bilt,Utrecht,VBO,5.186359,52.108372
Akker,11,,,3732XA,De Bilt,De Bilt,Utrecht,VBO,5.186328,52.108400
Akker,13,,,3732XA,De Bilt,De Bilt,Utrecht,VBO,5.186388,52.108417
Akker,15,,,3732XA,De Bilt,De Bilt,Utrecht,VBO,5.186351,52.108446
Akker,17,,,3732XA,De Bilt,De Bilt,Utrecht,VBO,5.186417,52.108462
Akker,19,,,3732XA,De Bilt,De Bilt,Utrecht,VBO,5.186391,52.108491
Akker,21,,,3732XA,De Bilt,De Bilt,Utrecht,VBO,5.186446,52.108516
Akker,23,,,3732XA,De Bilt,De Bilt,Utrecht,VBO,5.186418,52.108546
Akker,25,,,3732XA,De Bilt,De Bilt,Utrecht,VBO,5.186591,52.108732
Akker,27,,,3732XA,De Bilt,De Bilt,Utrecht,VBO,5.186561,52.108762
Akker,29,,,3732XA,De Bilt,De Bilt,Utrecht,VBO,5.186620,52.108786
Akker,31,,,3732XA,De Bilt,De Bilt,Utrecht,VBO,5.186582,52.108811
Akker,33,,,3732XA,De Bilt,De Bilt,Utrecht,VBO,5.186664,52.108831
Akker,35,,,3732XA,De Bilt,De Bilt,Utrecht,VBO,5.186630,52.108857
Akker,37,,,3732XA,De Bilt,De Bilt,Utrecht,VBO,5.186693,52.108876
Akker,39,,,3732XA,De Bilt,De Bilt,Utrecht,VBO,5.186662,52.108905
Akker,41,,,3732XA,De Bilt,De Bilt,Utrecht,VBO,5.186722,52.108930
Akker,43,,,3732XB,De Bilt,De Bilt,Utrecht,VBO,5.186689,52.108957
Akker,45,,,3732XB,De Bilt,De Bilt,Utrecht,VBO,5.186751,52.108975
Akker,47,,,3732XB,De Bilt,De Bilt,Utrecht,VBO,5.186729,52.109010
Akker,49,,,3732XB,De Bilt,De Bilt,Utrecht,VBO,5.186794,52.109029
Akker,51,,,3732XB,De Bilt,De Bilt,Utrecht,VBO,5.186756,52.109058
Akker,53,,,3732XB,De Bilt,De Bilt,Utrecht,VBO,5.186823,52.109074
Akker,55,,,3732XB,De Bilt,De Bilt,Utrecht,VBO,5.186794,52.109103
Akker,57,,,3732XB,De Bilt,De Bilt,Utrecht,VBO,5.186852,52.109128
Akker,59,,,3732XB,De Bilt,De Bilt,Utrecht,VBO,5.186821,52.109154
Akker,61,,,3732XB,De Bilt,De Bilt,Utrecht,VBO,5.186881,52.109173
Akker,63,,,3732XB,De Bilt,De Bilt,Utrecht,VBO,5.186852,52.109205
Akker,65,,,3732XB,De Bilt,De Bilt,Utrecht,VBO,5.186925,52.109227
Akker,67,,,3732XB,De Bilt,De Bilt,Utrecht,VBO,5.186886,52.109249
Akker,69,,,3732XB,De Bilt,De Bilt,Utrecht,VBO,5.186954,52.109263
Akker,71,,,3732XB,De Bilt,De Bilt,Utrecht,VBO,5.186913,52.109302
Akker,73,,GB1,3732XC,De Bilt,De Bilt,Utrecht,VBO,5.187185,52.109820
Akker,73,,GB10,3732XC,De Bilt,De Bilt,Utrecht,VBO,5.187446,52.110153
Akker,73,,GB2,3732XC,De Bilt,De Bilt,Utrecht,VBO,5.187214,52.109847
Akker,73,,GB3,3732XC,De Bilt,De Bilt,Utrecht,VBO,5.187228,52.109865
Akker,73,,GB4,3732XC,De Bilt,De Bilt,Utrecht,VBO,5.187257,52.109919
Akker,73,,GB5,3732XC,De Bilt,De Bilt,Utrecht,VBO,5.187272,52.109955
Akker,73,,GB6,3732XC,De Bilt,De Bilt,Utrecht,VBO,5.187315,52.109982
Akker,73,,GB7,3732XC,De Bilt,De Bilt,Utrecht,VBO,5.187330,52.110036
Akker,73,,GB8,3732XC,De Bilt,De Bilt,Utrecht,VBO,5.187359,52.110081
Akker,73,,GB9,3732XC,De Bilt,De Bilt,Utrecht,VBO,5.187417,52.110126
Akker,73,,,3732XC,De Bilt,De Bilt,Utrecht,VBO,5.187118,52.109815
Akker,75,,,3732XC,De Bilt,De Bilt,Utrecht,VBO,5.187143,52.109849
Akker,77,,,3732XC,De Bilt,De Bilt,Utrecht,VBO,5.187167,52.109883
Akker,79,,,3732XC,De Bilt,De Bilt,Utrecht,VBO,5.187192,52.109919
Akker,81,,,3732XC,De Bilt,De Bilt,Utrecht,VBO,5.187214,52.109953
Akker,83,,,3732XC,De Bilt,De Bilt,Utrecht,VBO,5.187237,52.109987
Akker,85,,,3732XC,De Bilt,De Bilt,Utrecht,VBO,5.187262,52.110022
Akker,87,,,3732XC,De Bilt,De Bilt,Utrecht,VBO,5.187288,52.110056
Akker,89,,,3732XC,De Bilt,De Bilt,Utrecht,VBO,5.187308,52.110091
Akker,91,,,3732XC,De Bilt,De Bilt,Utrecht,VBO,5.187336,52.110123
Akker,93,,,3732XC,De Bilt,De Bilt,Utrecht,VBO,5.187356,52.110158
Akker,95,,,3732XC,De Bilt,De Bilt,Utrecht,VBO,5.187380,52.110195
Akker,97,,,3732XC,De Bilt,De Bilt,Utrecht,VBO,5.187400,52.110230
Akker,99,,,3732XC,De Bilt,De Bilt,Utrecht,VBO,5.187427,52.110266
Akker,101,,,3732XC,De Bilt,De Bilt,Utrecht,VBO,5.187448,52.110300
Akker,103,,,3732XC,De Bilt,De Bilt,Utrecht,VBO,5.187476,52.110332
Akker,105,,,3732XC,De Bilt,De Bilt,Utrecht,VBO,5.187497,52.110364
Akker,107,,,3732XC,De Bilt,De Bilt,Utrecht,VBO,5.187440,52.110189
Akker,109,,,3732XC,De Bilt,De Bilt,Utrecht,VBO,5.187456,52.110224
Akker,111,,,3732XC,De Bilt,De Bilt,Utrecht,VBO,5.187481,52.110254
Akker,113,,,3732XC,De Bilt,De Bilt,Utrecht,VBO,5.187507,52.110289
Akker,115,,,3732XD,De Bilt,De Bilt,Utrecht,VBO,5.187530,52.110321
Akker,117,,,3732XD,De Bilt,De Bilt,Utrecht,VBO,5.187554,52.110352
Akker,119,,,3732XD,De Bilt,De Bilt,Utrecht,VBO,5.187240,52.109786
Akker,121,,,3732XD,De Bilt,De Bilt,Utrecht,VBO,5.187296,52.109890
Akker,123,,,3732XD,De Bilt,De Bilt,Utrecht,VBO,5.187373,52.110008
Akker,125,,,3732XD,De Bilt,De Bilt,Utrecht,VBO,5.187514,52.110192
Akker,127,,,3732XD,De Bilt,De Bilt,Utrecht,VBO,5.187558,52.110252
Akker,129,,,3732XD,De Bilt,De Bilt,Utrecht,VBO,5.187606,52.110324
Akker,131,,,3732XD,De Bilt,De Bilt,Utrecht,VBO,5.187359,52.110063
Akker,133,,GB1,3732XD,De Bilt,De Bilt,Utrecht,VBO,5.188021,52.110774
Akker,133,,GB10,3732XD,De Bilt,De Bilt,Utrecht,VBO,5.188341,52.111324
Akker,133,,GB11,3732XD,De Bilt,De Bilt,Utrecht,VBO,5.188379,52.111380
Akker,133,,GB12,3732XD,De Bilt,De Bilt,Utrecht,VBO,5.188421,52.111438
Akker,133,,GB13,3732XD,De Bilt,De Bilt,Utrecht,VBO,5.188462,52.111497
Akker,133,,GB14,3732XD,De Bilt,De Bilt,Utrecht,VBO,5.188503,52.111555
Akker,133,,GB15,3732XD,De Bilt,De Bilt,Utrecht,VBO,5.188533,52.111613
Akker,133,,GB16,3732XD,De Bilt,De Bilt,Utrecht,VBO,5.188582,52.111679
Akker,133,,GB2,3732XD,De Bilt,De Bilt,Utrecht,VBO,5.188059,52.110839
Akker,133,,GB3,3732XD,De Bilt,De Bilt,Utrecht,VBO,5.188100,52.110903
Akker,133,,GB4,3732XD,De Bilt,De Bilt,Utrecht,VBO,5.188144,52.110960
Akker,133,,GB5,3732XD,De Bilt,De Bilt,Utrecht,VBO,5.188182,52.111022
Akker,133,,GB6,3732XD,De Bilt,De Bilt,Utrecht,VBO,5.188185,52.111090
Akker,133,,GB7,3732XD,De Bilt,De Bilt,Utrecht,VBO,5.188218,52.111152
Akker,133,,GB8,3732XD,De Bilt,De Bilt,Utrecht,VBO,5.188253,52.111206
Akker,133,,GB9,3732XD,De Bilt,De Bilt,Utrecht,VBO,5.188297,52.111261
Akker,133,,,3732XD,De Bilt,De Bilt,Utrecht,VBO,5.188021,52.110809
Akker,135,,,3732XD,De Bilt,De Bilt,Utrecht,VBO,5.187960,52.110788
Akker,137,,,3732XD,De Bilt,De Bilt,Utrecht,VBO,5.187937,52.110824
Akker,139,,,3732XD,De Bilt,De Bilt,Utrecht,VBO,5.188038,52.110872
Akker,141,,,3732XD,De Bilt,De Bilt,Utrecht,VBO,5.187990,52.110850
Akker,143,,,3732XD,De Bilt,De Bilt,Utrecht,VBO,5.187963,52.110885
Akker,145,,,3732XD,De Bilt,De Bilt,Utrecht,VBO,5.188070,52.110932
Akker,147,,,3732XD,De Bilt,De Bilt,Utrecht,VBO,5.188025,52.110912
Akker,149,,,3732XD,De Bilt,De Bilt,Utrecht,VBO,5.188000,52.110943
Akker,151,,,3732XD,De Bilt,De Bilt,Utrecht,VBO,5.188116,52.110987
Akker,153,,,3732XD,De Bilt,De Bilt,Utrecht,VBO,5.188071,52.110966
Akker,155,,,3732XD,De Bilt,De Bilt,Utrecht,VBO,5.188038,52.110998
Akker,157,,,3732XE,De Bilt,De Bilt,Utrecht,VBO,5.188145,52.111048
Akker,159,,,3732XE,De Bilt,De Bilt,Utrecht,VBO,5.188105,52.111026
Akker,161,,,3732XE,De Bilt,De Bilt,Utrecht,VBO,5.188080,52.111059
Akker,163,,,3732XE,De Bilt,De Bilt,Utrecht,VBO,5.188150,52.111113
Akker,165,,,3732XE,De Bilt,De Bilt,Utrecht,VBO,5.188111,52.111086
Akker,167,,,3732XE,De Bilt,De Bilt,Utrecht,VBO,5.188082,52.111120
Akker,169,,,3732XE,De Bilt,De Bilt,Utrecht,VBO,5.188184,52.111173
Akker,171,,,3732XE,De Bilt,De Bilt,Utrecht,VBO,5.188135,52.111153
Akker,173,,,3732XE,De Bilt,De Bilt,Utrecht,VBO,5.188116,52.111187
Akker,175,,,3732XE,De Bilt,De Bilt,Utrecht,VBO,5.188217,52.111226
Akker,177,,,3732XE,De Bilt,De Bilt,Utrecht,VBO,5.188163,52.111210
Akker,179,,,3732XE,De Bilt,De Bilt,Utrecht,VBO,5.188157,52.111243
Akker,181,,,3732XE,De Bilt,De Bilt,Utrecht,VBO,5.188271,52.111286
Akker,183,,,3732XE,De Bilt,De Bilt,Utrecht,VBO,5.188232,52.111263
Akker,185,,,3732XE,De Bilt,De Bilt,Utrecht,VBO,5.188191,52.111300
Akker,187,,,3732XE,De Bilt,De Bilt,Utrecht,VBO,5.188299,52.111344
Akker,189,,,3732XE,De Bilt,De Bilt,Utrecht,VBO,5.188260,52.111319
Akker,191,,,3732XE,De Bilt,De Bilt,Utrecht,VBO,5.188233,52.111352
Akker,193,,,3732XG,De Bilt,De Bilt,Utrecht,VBO,5.188336,52.111398
Akker,195,,,3732XG,De Bilt,De Bilt,Utrecht,VBO,5.188292,52.111380
Akker,197,,,3732XG,De Bilt,De Bilt,Utrecht,VBO,5.188273,52.111414
Akker,199,,,3732XG,De Bilt,De Bilt,Utrecht,VBO,5.188380,52.111456
Akker,201,,,3732XG,De Bilt,De Bilt,Utrecht,VBO,5.188329,52.111439
Akker,203,,,3732XG,De Bilt,De Bilt,Utrecht,VBO,5.188309,52.111473
Akker,205,,,3732XG,De Bilt,De Bilt,Utrecht,VBO,5.188418,52.111514
Akker,207,,,3732XG,De Bilt,De Bilt,Utrecht,VBO,5.188375,52.111493
Akker,209,,,3732XG,De Bilt,De Bilt,Utrecht,VBO,5.188351,52.111526
Akker,211,,,3732XG,De Bilt,De Bilt,Utrecht,VBO,5.188454,52.111567
Akker,213,,,3732XG,De Bilt,De Bilt,Utrecht,VBO,5.188405,52.111551
Akker,215,,,3732XG,De Bilt,De Bilt,Utrecht,VBO,5.188383,52.111584
Akker,217,,,3732XG,De Bilt,De Bilt,Utrecht,VBO,5.188488,52.111631
Akker,219,,,3732XG,De Bilt,De Bilt,Utrecht,VBO,5.188441,52.111608
Akker,221,,,3732XG,De Bilt,De Bilt,Utrecht,VBO,5.188419,52.111641
Akker,223,,,3732XG,De Bilt,De Bilt,Utrecht,VBO,5.188540,52.111653
Akker,225,,,3732XG,De Bilt,De Bilt,Utrecht,VBO,5.188520,52.111697
Akker,227,,,3732XG,De Bilt,De Bilt,Utrecht,VBO,5.188462,52.111678
Akker,2,A,,3732XH,De Bilt,De Bilt,Utrecht,VBO,5.186870,52.108382
Akker,2,B,,3732XH,De Bilt,De Bilt,Utrecht,VBO,5.186769,52.108193
Akker,2,,GB1,3732XH,De Bilt,De Bilt,Utrecht,VBO,5.186930,52.108148
Akker,2,,GB10,3732XH,De Bilt,De Bilt,Utrecht,VBO,5.187266,52.108059
Akker,2,,GB11,3732XH,De Bilt,De Bilt,Utrecht,VBO,5.187339,52.108050
Akker,2,,GB12,3732XH,De Bilt,De Bilt,Utrecht,VBO,5.187382,52.108095
Akker,2,,GB13,3732XH,De Bilt,De Bilt,Utrecht,VBO,5.187397,52.108113
Akker,2,,GB14,3732XH,De Bilt,De Bilt,Utrecht,VBO,5.187411,52.108131
Akker,2,,GB15,3732XH,De Bilt,De Bilt,Utrecht,VBO,5.187426,52.108158
Akker,2,,GB16,3732XH,De Bilt,De Bilt,Utrecht,VBO,5.187440,52.108176
Akker,2,,GB17,3732XH,De Bilt,De Bilt,Utrecht,VBO,5.187236,52.108212
Akker,2,,GB18,3732XH,De Bilt,De Bilt,Utrecht,VBO,5.187221,52.108194
Akker,2,,GB2,3732XH,De Bilt,De Bilt,Utrecht,VBO,5.186973,52.108139
Akker,2,,GB3,3732XH,De Bilt,De Bilt,Utrecht,VBO,5.187017,52.108130
Akker,2,,GB4,3732XH,De Bilt,De Bilt,Utrecht,VBO,5.187046,52.108121
Akker,2,,GB5,3732XH,De Bilt,De Bilt,Utrecht,VBO,5.187076,52.108112
Akker,2,,GB6,3732XH,De Bilt,De Bilt,Utrecht,VBO,5.187120,52.108104
Akker,2,,GB7,3732XH,De Bilt,De Bilt,Utrecht,VBO,5.187163,52.108095
Akker,2,,GB8,3732XH,De Bilt,De Bilt,Utrecht,VBO,5.187193,52.108086
Akker,2,,GB9,3732XH,De Bilt,De Bilt,Utrecht,VBO,5.187222,52.108077
Akker,2,,,3732XH,De Bilt,De Bilt,Utrecht,VBO,5.186856,52.108319
Akker,4,,,3732XH,De Bilt,De Bilt,Utrecht,VBO,5.186943,52.108472
Akker,16,,,3732XH,De Bilt,De Bilt,Utrecht,VBO,5.187118,52.108596
Akker,18,,,3732XH,De Bilt,De Bilt,Utrecht,VBO,5.187088,52.108733
Akker,20,,,3732XH,De Bilt,De Bilt,Utrecht,VBO,5.187131,52.108796
Akker,22,,,3732XH,De Bilt,De Bilt,Utrecht,VBO,5.187160,52.108850
Akker,24,,,3732XH,De Bilt,De Bilt,Utrecht,VBO,5.187189,52.108895
Akker,26,,,3732XH,De Bilt,De Bilt,Utrecht,VBO,5.187262,52.108994
Akker,28,,,3732XH,De Bilt,De Bilt,Utrecht,VBO,5.187305,52.109048
Akker,30,,,3732XH,De Bilt,De Bilt,Utrecht,VBO,5.187334,52.109093
Akker,32,,,3732XH,De Bilt,De Bilt,Utrecht,VBO,5.187378,52.109147
Akker,36,,,3732XH,De Bilt,De Bilt,Utrecht,VBO,5.187697,52.109489
Akker,38,,,3732XH,De Bilt,De Bilt,Utrecht,VBO,5.187741,52.109543
Akker,40,,,3732XJ,De Bilt,De Bilt,Utrecht,VBO,5.187972,52.109993
Akker,42,,,3732XJ,De Bilt,De Bilt,Utrecht,VBO,5.188016,52.110055
Akker,44,,,3732XJ,De Bilt,De Bilt,Utrecht,VBO,5.188059,52.110101
Akker,46,,,3732XJ,De Bilt,De Bilt,Utrecht,VBO,5.188088,52.110154
Akker,48,,,3732XJ,De Bilt,De Bilt,Utrecht,VBO,5.188117,52.110208
Akker,50,,,3732XJ,De Bilt,De Bilt,Utrecht,VBO,5.188161,52.110253
Akker,52,,,3732XJ,De Bilt,De Bilt,Utrecht,VBO,5.188202,52.110313
Akker,54,,,3732XJ,De Bilt,De Bilt,Utrecht,VBO,5.188233,52.110361
Akker,56,,,3732XJ,De Bilt,De Bilt,Utrecht,VBO,5.188262,52.110406
Akker,58,,,3732XJ,De Bilt,De Bilt,Utrecht,VBO,5.188291,52.110460
Van Hogendorpweg,1,,,3732XK,De Bilt,De Bilt,Utrecht,VBO,5.189051,52.110264
Van Hogendorpweg,3,,,3732XK,De Bilt,De Bilt,Utrecht,VBO,5.188832,52.110335
Van Hogendorpweg,5,,GB1,3732XK,De Bilt,De Bilt,Utrecht,VBO,5.188629,52.110199
Van Hogendorpweg,5,,GB2,3732XK,De Bilt,De Bilt,Utrecht,VBO,5.188606,52.110171
Van Hogendorpweg,5,,GB3,3732XK,De Bilt,De Bilt,Utrecht,VBO,5.188589,52.110146
Van Hogendorpweg,5,,GB4,3732XK,De Bilt,De Bilt,Utrecht,VBO,5.188573,52.110118
Van Hogendorpweg,5,,GB5,3732XK,De Bilt,De Bilt,Utrecht,VBO,5.188549,52.110090
Van Hogendorpweg,5,,GB6,3732XK,De Bilt,De Bilt,Utrecht,VBO,5.188535,52.110064
Van Hogendorpweg,5,,GB7,3732XK,De Bilt,De Bilt,Utrecht,VBO,5.188519,52.110038
Van Hogendorpweg,5,,,3732XK,De Bilt,De Bilt,Utrecht,VBO,5.188671,52.110380
Van Limburg Stirumweg,1,,GB1,3732XL,De Bilt,De Bilt,Utrecht,VBO,5.187728,52.109147
Van Limburg Stirumweg,1,,GB10,3732XL,De Bilt,De Bilt,Utrecht,VBO,5.187562,52.108925
Van Limburg Stirumweg,1,,GB11,3732XL,De Bilt,De Bilt,Utrecht,VBO,5.187544,52.108897
Van Limburg Stirumweg,1,,GB12,3732XL,De Bilt,De Bilt,Utrecht,VBO,5.187619,52.108817
Van Limburg Stirumweg,1,,GB13,3732XL,De Bilt,De Bilt,Utrecht,VBO,5.187668,52.108818
Van Limburg Stirumweg,1,,GB14,3732XL,De Bilt,De Bilt,Utrecht,VBO,5.187715,52.108810
Van Limburg Stirumweg,1,,GB2,3732XL,De Bilt,De Bilt,Utrecht,VBO,5.187709,52.109123
Van Limburg Stirumweg,1,,GB3,3732XL,De Bilt,De Bilt,Utrecht,VBO,5.187688,52.109103
Van Limburg Stirumweg,1,,GB4,3732XL,De Bilt,De Bilt,Utrecht,VBO,5.187668,52.109076
Van Limburg Stirumweg,1,,GB5,3732XL,De Bilt,De Bilt,Utrecht,VBO,5.187652,52.109051
Van Limburg Stirumweg,1,,GB6,3732XL,De Bilt,De Bilt,Utrecht,VBO,5.187634,52.109024
Van Limburg Stirumweg,1,,GB7,3732XL,De Bilt,De Bilt,Utrecht,VBO,5.187615,52.109001
Van Limburg Stirumweg,1,,GB8,3732XL,De Bilt,De Bilt,Utrecht,VBO,5.187598,52.108977
Van Limburg Stirumweg,1,,GB9,3732XL,De Bilt,De Bilt,Utrecht,VBO,5.187577,52.108950
Van Limburg Stirumweg,1,,,3732XL,De Bilt,De Bilt,Utrecht,VBO,5.187917,52.109228
Van Limburg Stirumweg,3,,,3732XL,De Bilt,De Bilt,Utrecht,VBO,5.187844,52.109246
Van Limburg Stirumweg,5,,,3732XL,De Bilt,De Bilt,Utrecht,VBO,5.187757,52.109264
Van Limburg Stirumweg,7,,,3732XL,De Bilt,De Bilt,Utrecht,VBO,5.187669,52.109291
Van Limburg Stirumweg,9,,,3732XL,De Bilt,De Bilt,Utrecht,VBO,5.187567,52.109318
Van der Duyn van Maasdamweg,1,,,3732XM,De Bilt,De Bilt,Utrecht,VBO,5.188208,52.109607
Van der Duyn van Maasdamweg,3,,,3732XM,De Bilt,De Bilt,Utrecht,VBO,5.188120,52.109642
Van der Duyn van Maasdamweg,4,,,3732XM,De Bilt,De Bilt,Utrecht,VBO,5.188484,52.109850
Van der Duyn van Maasdamweg,5,,,3732XM,De Bilt,De Bilt,Utrecht,VBO,5.188047,52.109669
Van der Duyn van Maasdamweg,6,,,3732XM,De Bilt,De Bilt,Utrecht,VBO,5.188294,52.109894
Van der Duyn van Maasdamweg,7,,,3732XM,De Bilt,De Bilt,Utrecht,VBO,5.187974,52.109705
Van der Duyn van Maasdamweg,9,,,3732XM,De Bilt,De Bilt,Utrecht,VBO,5.187900,52.109741
Laan 1813,1,,,3732XN,De Bilt,De Bilt,Utrecht,VBO,5.187861,52.108662
Laan 1813,3,,,3732XN,De Bilt,De Bilt,Utrecht,VBO,5.187920,52.108725
Laan 1813,5,,,3732XN,De Bilt,De Bilt,Utrecht,VBO,5.187949,52.108770
Laan 1813,7,,,3732XN,De Bilt,De Bilt,Utrecht,VBO,5.187978,52.108824
Laan 1813,9,,,3732XN,De Bilt,De Bilt,Utrecht,VBO,5.188021,52.108914
Laan 1813,11,,,3732XN,De Bilt,De Bilt,Utrecht,VBO,5.188064,52.108968
Laan 1813,13,,,3732XN,De Bilt,De Bilt,Utrecht,VBO,5.188093,52.109022
Laan 1813,15,,,3732XN,De Bilt,De Bilt,Utrecht,VBO,5.188137,52.109067
Laan 1813,17,,,3732XN,De Bilt,De Bilt,Utrecht,VBO,5.188166,52.109112
Laan 1813,19,,,3732XN,De Bilt,De Bilt,Utrecht,VBO,5.188195,52.109166
Laan 1813,21,,,3732XN,De Bilt,De Bilt,Utrecht,VBO,5.188311,52.109337
Laan 1813,23,,,3732XN,De Bilt,De Bilt,Utrecht,VBO,5.188355,52.109400
Laan 1813,25,,,3732XN,De Bilt,De Bilt,Utrecht,VBO,5.188384,52.109445
Laan 1813,27,,,3732XN,De Bilt,De Bilt,Utrecht,VBO,5.188412,52.109499
Laan 1813,29,,,3732XN,De Bilt,De Bilt,Utrecht,VBO,5.188761,52.109823
Laan 1813,31,,,3732XN,De Bilt,De Bilt,Utrecht,VBO,5.188950,52.109994
Akker,60,,,3732XP,De Bilt,De Bilt,Utrecht,VBO,5.188809,52.110872
Akker,62,,,3732XP,De Bilt,De Bilt,Utrecht,VBO,5.188840,52.110906
Akker,64,,,3732XP,De Bilt,De Bilt,Utrecht,VBO,5.188858,52.110952
Akker,66,,,3732XP,De Bilt,De Bilt,Utrecht,VBO,5.188887,52.110997
Akker,68,,,3732XP,De Bilt,De Bilt,Utrecht,VBO,5.188899,52.111036
Akker,70,,,3732XP,De Bilt,De Bilt,Utrecht,VBO,5.188921,52.111075
Akker,72,,,3732XP,De Bilt,De Bilt,Utrecht,VBO,5.188934,52.111109
Akker,74,,,3732XP,De Bilt,De Bilt,Utrecht,VBO,5.188960,52.111145
Akker,76,,,3732XP,De Bilt,De Bilt,Utrecht,VBO,5.188970,52.111183
Akker,78,,,3732XP,De Bilt,De Bilt,Utrecht,VBO,5.188984,52.111225
Akker,80,,,3732XP,De Bilt,De Bilt,Utrecht,VBO,5.189006,52.111260
Akker,82,,,3732XP,De Bilt,De Bilt,Utrecht,VBO,5.189016,52.111298
Akker,84,,,3732XP,De Bilt,De Bilt,Utrecht,VBO,5.189049,52.111332
Akker,86,,,3732XP,De Bilt,De Bilt,Utrecht,VBO,5.189067,52.111366
Akker,88,,,3732XP,De Bilt,De Bilt,Utrecht,VBO,5.189080,52.111400
Akker,90,,,3732XP,De Bilt,De Bilt,Utrecht,VBO,5.189114,52.111431
Akker,92,,,3732XP,De Bilt,De Bilt,Utrecht,VBO,5.188878,52.110876
Akker,94,,,3732XP,De Bilt,De Bilt,Utrecht,VBO,5.188902,52.110925
Akker,96,,,3732XP,De Bilt,De Bilt,Utrecht,VBO,5.188927,52.110974
Akker,98,,,3732XP,De Bilt,De Bilt,Utrecht,VBO,5.188961,52.111026
Akker,100,,,3732XP,De Bilt,De Bilt,Utrecht,VBO,5.188992,52.111094
Akker,102,,,3732XP,De Bilt,De Bilt,Utrecht,VBO,5.189023,52.111165
Akker,104,,,3732XP,De Bilt,De Bilt,Utrecht,VBO,5.189051,52.111217
Akker,106,,,3732XP,De Bilt,De Bilt,Utrecht,VBO,5.189084,52.111270
Akker,108,,,3732XP,De Bilt,De Bilt,Utrecht,VBO,5.189105,52.111322
Akker,110,,,3732XP,De Bilt,De Bilt,Utrecht,VBO,5.189143,52.111365
Akker,112,,,3732XP,De Bilt,De Bilt,Utrecht,VBO,5.189181,52.111406
Akker,114,,,3732XR,De Bilt,De Bilt,Utrecht,VBO,5.189759,52.111445
Akker,116,,,3732XR,De Bilt,De Bilt,Utrecht,VBO,5.189753,52.111471
Akker,118,,,3732XR,De Bilt,De Bilt,Utrecht,VBO,5.189758,52.111506
Akker,120,,,3732XR,De Bilt,De Bilt,Utrecht,VBO,5.189763,52.111536
Akker,122,,,3732XR,De Bilt,De Bilt,Utrecht,VBO,5.189785,52.111568
Akker,124,,,3732XR,De Bilt,De Bilt,Utrecht,VBO,5.189784,52.111621
Akker,126,,,3732XR,De Bilt,De Bilt,Utrecht,VBO,5.189815,52.111709
Akker,128,,,3732XR,De Bilt,De Bilt,Utrecht,VBO,5.189842,52.111764
Akker,130,,,3732XR,De Bilt,De Bilt,Utrecht,VBO,5.189846,52.111795
Akker,132,,,3732XR,De Bilt,De Bilt,Utrecht,VBO,5.189881,52.111870
Akker,134,,,3732XR,De Bilt,De Bilt,Utrecht,VBO,5.189887,52.111900
Akker,136,,,3732XR,De Bilt,De Bilt,Utrecht,VBO,5.189908,52.111929
Akker,138,,,3732XR,De Bilt,De Bilt,Utrecht,VBO,5.189914,52.111967
Akker,140,,,3732XR,De Bilt,De Bilt,Utrecht,VBO,5.189836,52.111435
Akker,142,,,3732XR,De Bilt,De Bilt,Utrecht,VBO,5.189892,52.111481
Akker,144,,,3732XR,De Bilt,De Bilt,Utrecht,VBO,5.189844,52.111543
Akker,146,,,3732XR,De Bilt,De Bilt,Utrecht,VBO,5.189857,52.111578
Akker,148,,,3732XR,De Bilt,De Bilt,Utrecht,VBO,5.189865,52.111620
Akker,150,,,3732XR,De Bilt,De Bilt,Utrecht,VBO,5.189881,52.111661
Akker,152,,,3732XR,De Bilt,De Bilt,Utrecht,VBO,5.189898,52.111698
Akker,154,,,3732XR,De Bilt,De Bilt,Utrecht,VBO,5.189938,52.111761
Akker,156,,,3732XR,De Bilt,De Bilt,Utrecht,VBO,5.189959,52.111826
Akker,158,,,3732XR,De Bilt,De Bilt,Utrecht,VBO,5.189977,52.111864
Akker,160,,,3732XR,De Bilt,De Bilt,Utrecht,VBO,5.189992,52.111904
Akker,162,,,3732XR,De Bilt,De Bilt,Utrecht,VBO,5.190007,52.111940
Akker,164,,,3732XR,De Bilt,De Bilt,Utrecht,VBO,5.190056,52.111976
Akker,166,,,3732XR,De Bilt,De Bilt,Utrecht,VBO,5.190054,52.112007
