openbareruimtenaam,huisnummer,huisletter,huisnummertoevoeging,postcode,woonplaatsnaam,gemeentenaam,provincienaam,typeadresseerbaarobject,longitude,latitude
Distelvlinder,1,,,3734AA,Den Dolder,Zeist,Utrecht,VBO,5.241987,52.143228
Distelvlinder,2,,,3734AA,Den Dolder,Zeist,Utrecht,VBO,5.244290,52.144067
Distelvlinder,3,,,3734AA,Den Dolder,Zeist,Utrecht,VBO,5.243371,52.144791
Distelvlinder,5,,,3734AA,Den Dolder,Zeist,Utrecht,VBO,5.244305,52.145563
Distelvlinder,6,,,3734AA,Den Dolder,Zeist,Utrecht,VBO,5.245038,52.145336
Distelvlinder,7,,,3734AA,Den Dolder,Zeist,Utrecht,VBO,5.244466,52.145924
Distelvlinder,8,,,3734AA,Den Dolder,Zeist,Utrecht,VBO,5.245397,52.146208
Distelvlinder,9,,,3734AA,Den Dolder,Zeist,Utrecht,VBO,5.244563,52.146245
Vuurvlinder,1,,,3734AB,Den Dolder,Zeist,Utrecht,VBO,5.243022,52.147364
Vuurvlinder,2,,,3734AB,Den Dolder,Zeist,Utrecht,VBO,5.243488,52.145511
Vuurvlinder,4,,,3734AB,Den Dolder,Zeist,Utrecht,VBO,5.243543,52.146463
Vuurvlinder,6,,,3734AB,Den Dolder,Zeist,Utrecht,VBO,5.244111,52.147173
Eikenpage,1,,,3734AC,Den Dolder,Zeist,Utrecht,VBO,5.243627,52.146295
Eikenpage,2,,,3734AC,Den Dolder,Zeist,Utrecht,VBO,5.245026,52.145866
Eikenpage,4,,,3734AC,Den Dolder,Zeist,Utrecht,VBO,5.245389,52.145840
Eikenpage,6,,,3734AC,Den Dolder,Zeist,Utrecht,VBO,5.246070,52.145826
Citroenvlinder,4,,,3734AD,Den Dolder,Zeist,Utrecht,VBO,5.246212,52.146166
Dagpauwoog,1,,,3734AE,Den Dolder,Zeist,Utrecht,VBO,5.246960,52.145471
Dagpauwoog,2,,,3734AE,Den Dolder,Zeist,Utrecht,VBO,5.245684,52.144747
Dagpauwoog,8,,,3734AE,Den Dolder,Zeist,Utrecht,VBO,5.246850,52.144747
Nieuwe Dolderseweg,62,,,3734BA,Den Dolder,Zeist,Utrecht,VBO,5.250129,52.129396
Nieuwe Dolderseweg,64,,,3734BA,Den Dolder,Zeist,Utrecht,VBO,5.250069,52.129756
Nieuwe Dolderseweg,66,,,3734BA,Den Dolder,Zeist,Utrecht,VBO,5.250097,52.130214
Nieuwe Dolderseweg,70,,,3734BA,Den Dolder,Zeist,Utrecht,VBO,5.250052,52.130547
Nieuwe Dolderseweg,72,,,3734BA,Den Dolder,Zeist,Utrecht,VBO,5.249964,52.130897
Dolderseweg,49,,,3734BB,Den Dolder,Zeist,Utrecht,VBO,5.248071,52.133645
Dolderseweg,51,,,3734BB,Den Dolder,Zeist,Utrecht,VBO,5.247997,52.133960
Dolderseweg,53,,,3734BB,Den Dolder,Zeist,Utrecht,VBO,5.248142,52.134238
Dolderseweg,55,,,3734BB,Den Dolder,Zeist,Utrecht,VBO,5.248098,52.134517
Dolderseweg,57,A,,3734BB,Den Dolder,Zeist,Utrecht,VBO,5.248023,52.134930
Dolderseweg,57,B,,3734BB,Den Dolder,Zeist,Utrecht,VBO,5.247774,52.135227
Dolderseweg,57,,,3734BB,Den Dolder,Zeist,Utrecht,VBO,5.248156,52.134607
Dolderseweg,59,,,3734BB,Den Dolder,Zeist,Utrecht,VBO,5.247233,52.135487
Dolderseweg,67,,,3734BB,Den Dolder,Zeist,Utrecht,VBO,5.244787,52.137380
Dolderseweg,69,A,,3734BB,Den Dolder,Zeist,Utrecht,VBO,5.244480,52.137569
Dolderseweg,69,,,3734BB,Den Dolder,Zeist,Utrecht,VBO,5.244568,52.137506
Dolderseweg,71,A,,3734BB,Den Dolder,Zeist,Utrecht,VBO,5.243883,52.137874
Dolderseweg,71,,,3734BB,Den Dolder,Zeist,Utrecht,VBO,5.244129,52.137658
Dolderseweg,73,,,3734BD,Den Dolder,Zeist,Utrecht,VBO,5.243777,52.138170
Dolderseweg,75,,,3734BD,Den Dolder,Zeist,Utrecht,VBO,5.243704,52.138233
Dolderseweg,77,,,3734BD,Den Dolder,Zeist,Utrecht,VBO,5.243279,52.138529
Dolderseweg,79,A,,3734BD,Den Dolder,Zeist,Utrecht,VBO,5.243104,52.138547
Dolderseweg,79,C,,3734BD,Den Dolder,Zeist,Utrecht,VBO,5.243002,52.138609
Dolderseweg,79,F,,3734BD,Den Dolder,Zeist,Utrecht,VBO,5.242928,52.138645
Dolderseweg,81,A,,3734BD,Den Dolder,Zeist,Utrecht,VBO,5.242841,52.138810
Dolderseweg,81,B,,3734BD,Den Dolder,Zeist,Utrecht,VBO,5.242818,52.138826
Dolderseweg,81,C,,3734BD,Den Dolder,Zeist,Utrecht,VBO,5.242794,52.138843
Dolderseweg,81,D,,3734BD,Den Dolder,Zeist,Utrecht,VBO,5.242824,52.138783
Dolderseweg,81,E,,3734BD,Den Dolder,Zeist,Utrecht,VBO,5.242810,52.138798
Dolderseweg,81,,,3734BD,Den Dolder,Zeist,Utrecht,VBO,5.242861,52.138789
Dolderseweg,83,,,3734BD,Den Dolder,Zeist,Utrecht,VBO,5.242763,52.138822
Dolderseweg,85,,,3734BD,Den Dolder,Zeist,Utrecht,VBO,5.242358,52.138986
Dolderseweg,87,A,,3734BD,Den Dolder,Zeist,Utrecht,VBO,5.242425,52.139101
Dolderseweg,87,B,,3734BD,Den Dolder,Zeist,Utrecht,VBO,5.242021,52.139042
Dolderseweg,87,,,3734BD,Den Dolder,Zeist,Utrecht,VBO,5.242299,52.139049
Dolderseweg,89,A,,3734BD,Den Dolder,Zeist,Utrecht,VBO,5.242225,52.139184
Dolderseweg,89,B,,3734BD,Den Dolder,Zeist,Utrecht,VBO,5.242240,52.139238
Dolderseweg,89,C,,3734BD,Den Dolder,Zeist,Utrecht,VBO,5.242240,52.139184
Dolderseweg,89,D,,3734BD,Den Dolder,Zeist,Utrecht,VBO,5.242196,52.139175
Dolderseweg,89,,,3734BD,Den Dolder,Zeist,Utrecht,VBO,5.242167,52.139175
Dolderseweg,91,A,,3734BE,Den Dolder,Zeist,Utrecht,VBO,5.241933,52.139336
Dolderseweg,91,B,,3734BE,Den Dolder,Zeist,Utrecht,VBO,5.242123,52.139282
Dolderseweg,91,C,,3734BE,Den Dolder,Zeist,Utrecht,VBO,5.242079,52.139273
Dolderseweg,91,D,,3734BE,Den Dolder,Zeist,Utrecht,VBO,5.242137,52.139291
Dolderseweg,91,E,,3734BE,Den Dolder,Zeist,Utrecht,VBO,5.242108,52.139282
Dolderseweg,91,F,,3734BE,Den Dolder,Zeist,Utrecht,VBO,5.242108,52.139282
Dolderseweg,91,G,,3734BE,Den Dolder,Zeist,Utrecht,VBO,5.242167,52.139300
Dolderseweg,91,H,,3734BE,Den Dolder,Zeist,Utrecht,VBO,5.242108,52.139282
Dolderseweg,91,I,,3734BE,Den Dolder,Zeist,Utrecht,VBO,5.242137,52.139282
Dolderseweg,91,J,,3734BE,Den Dolder,Zeist,Utrecht,VBO,5.242167,52.139300
Dolderseweg,91,,,3734BE,Den Dolder,Zeist,Utrecht,VBO,5.242050,52.139300
Dolderseweg,93,A,,3734BE,Den Dolder,Zeist,Utrecht,VBO,5.241640,52.139552
Dolderseweg,93,B,,3734BE,Den Dolder,Zeist,Utrecht,VBO,5.241816,52.139435
Dolderseweg,93,C,,3734BE,Den Dolder,Zeist,Utrecht,VBO,5.241816,52.139435
Dolderseweg,93,D,,3734BE,Den Dolder,Zeist,Utrecht,VBO,5.241845,52.139435
Dolderseweg,93,E,,3734BE,Den Dolder,Zeist,Utrecht,VBO,5.241801,52.139462
Dolderseweg,93,,,3734BE,Den Dolder,Zeist,Utrecht,VBO,5.241699,52.139426
Dolderseweg,95,A,,3734BE,Den Dolder,Zeist,Utrecht,VBO,5.241538,52.139542
Dolderseweg,95,B,,3734BE,Den Dolder,Zeist,Utrecht,VBO,5.241538,52.139542
Dolderseweg,95,C,,3734BE,Den Dolder,Zeist,Utrecht,VBO,5.241597,52.139381
Dolderseweg,95,D,,3734BE,Den Dolder,Zeist,Utrecht,VBO,5.241640,52.139587
Dolderseweg,95,E,,3734BE,Den Dolder,Zeist,Utrecht,VBO,5.241538,52.139542
Dolderseweg,95,F,,3734BE,Den Dolder,Zeist,Utrecht,VBO,5.241538,52.139542
Dolderseweg,95,,,3734BE,Den Dolder,Zeist,Utrecht,VBO,5.241698,52.139543
Dolderseweg,99,,,3734BE,Den Dolder,Zeist,Utrecht,VBO,5.240923,52.140193
Dolderseweg,101,,,3734BE,Den Dolder,Zeist,Utrecht,VBO,5.240917,52.140143
Dolderseweg,103,,,3734BE,Den Dolder,Zeist,Utrecht,VBO,5.240703,52.140305
Dolderseweg,107,,,3734BE,Den Dolder,Zeist,Utrecht,VBO,5.236542,52.139446
Dolderseweg,113,,,3734BE,Den Dolder,Zeist,Utrecht,VBO,5.240293,52.140476
Dolderseweg,115,,,3734BE,Den Dolder,Zeist,Utrecht,VBO,5.240234,52.140511
Dolderseweg,117,,,3734BE,Den Dolder,Zeist,Utrecht,VBO,5.239986,52.140709
Dolderseweg,119,B,,3734BE,Den Dolder,Zeist,Utrecht,VBO,5.239707,52.140888
Dolderseweg,119,C,,3734BE,Den Dolder,Zeist,Utrecht,VBO,5.239649,52.140924
Dolderseweg,119,,,3734BE,Den Dolder,Zeist,Utrecht,VBO,5.239971,52.140754
Dolderseweg,123,A,,3734BG,Den Dolder,Zeist,Utrecht,VBO,5.238651,52.142199
Dolderseweg,123,B,,3734BG,Den Dolder,Zeist,Utrecht,VBO,5.238647,52.142420
Dolderseweg,123,C,,3734BG,Den Dolder,Zeist,Utrecht,VBO,5.238647,52.142420
Dolderseweg,125,,,3734BH,Den Dolder,Zeist,Utrecht,VBO,5.238487,52.143367
Dolderseweg,127,,,3734BH,Den Dolder,Zeist,Utrecht,VBO,5.238486,52.143520
Dolderseweg,129,,,3734BH,Den Dolder,Zeist,Utrecht,VBO,5.238471,52.143592
Dolderseweg,133,,,3734BH,Den Dolder,Zeist,Utrecht,VBO,5.238514,52.143925
Dolderseweg,135,,,3734BH,Den Dolder,Zeist,Utrecht,VBO,5.238499,52.144042
Dolderseweg,137,,,3734BH,Den Dolder,Zeist,Utrecht,VBO,5.238484,52.144104
Dolderseweg,139,,,3734BH,Den Dolder,Zeist,Utrecht,VBO,5.238469,52.144230
Dolderseweg,141,,,3734BH,Den Dolder,Zeist,Utrecht,VBO,5.238454,52.144293
Dolderseweg,143,,,3734BH,Den Dolder,Zeist,Utrecht,VBO,5.238439,52.144410
Dolderseweg,145,,,3734BH,Den Dolder,Zeist,Utrecht,VBO,5.238425,52.144473
Dolderseweg,147,,,3734BH,Den Dolder,Zeist,Utrecht,VBO,5.238395,52.144590
Dolderseweg,149,,,3734BH,Den Dolder,Zeist,Utrecht,VBO,5.238395,52.144653
Dolderseweg,167,,,3734BH,Den Dolder,Zeist,Utrecht,VBO,5.237531,52.145074
Dolderseweg,169,,,3734BH,Den Dolder,Zeist,Utrecht,VBO,5.237969,52.145299
Dolderseweg,171,,,3734BH,Den Dolder,Zeist,Utrecht,VBO,5.237954,52.145452
Dolderseweg,173,,,3734BH,Den Dolder,Zeist,Utrecht,VBO,5.237895,52.145488
Dolderseweg,175,,,3734BH,Den Dolder,Zeist,Utrecht,VBO,5.237807,52.145641
Dolderseweg,177,,,3734BH,Den Dolder,Zeist,Utrecht,VBO,5.237778,52.145676
Dolderseweg,179,,,3734BH,Den Dolder,Zeist,Utrecht,VBO,5.237484,52.146108
Dolderseweg,181,,,3734BJ,Den Dolder,Zeist,Utrecht,VBO,5.237469,52.146143
Dolderseweg,183,,,3734BJ,Den Dolder,Zeist,Utrecht,VBO,5.237367,52.146287
Dolderseweg,185,,,3734BJ,Den Dolder,Zeist,Utrecht,VBO,5.237337,52.146332
Dolderseweg,187,,,3734BJ,Den Dolder,Zeist,Utrecht,VBO,5.237293,52.146503
Dolderseweg,189,,,3734BJ,Den Dolder,Zeist,Utrecht,VBO,5.237190,52.146664
Dolderseweg,191,,,3734BJ,Den Dolder,Zeist,Utrecht,VBO,5.237014,52.146781
Dolderseweg,193,,,3734BJ,Den Dolder,Zeist,Utrecht,VBO,5.237029,52.146817
Dolderseweg,195,,,3734BJ,Den Dolder,Zeist,Utrecht,VBO,5.232695,52.153705
Dolderseweg,94,A,,3734BK,Den Dolder,Zeist,Utrecht,VBO,5.249577,52.133153
Dolderseweg,94,,,3734BK,Den Dolder,Zeist,Utrecht,VBO,5.249695,52.132811
Dolderseweg,96,,,3734BK,Den Dolder,Zeist,Utrecht,VBO,5.249751,52.133440
Dolderseweg,98,,,3734BK,Den Dolder,Zeist,Utrecht,VBO,5.249648,52.133836
Dolderseweg,100,,,3734BK,Den Dolder,Zeist,Utrecht,VBO,5.249398,52.134195
Dolderseweg,102,,,3734BK,Den Dolder,Zeist,Utrecht,VBO,5.249427,52.134555
Dolderseweg,104,,,3734BK,Den Dolder,Zeist,Utrecht,VBO,5.249382,52.134770
Dolderseweg,106,,,3734BK,Den Dolder,Zeist,Utrecht,VBO,5.249249,52.135354
Dolderseweg,108,,,3734BK,Den Dolder,Zeist,Utrecht,VBO,5.248853,52.135722
Dolderseweg,110,,,3734BK,Den Dolder,Zeist,Utrecht,VBO,5.248283,52.135973
Dolderseweg,112,,,3734BK,Den Dolder,Zeist,Utrecht,VBO,5.247464,52.136296
Dolderseweg,114,,,3734BL,Den Dolder,Zeist,Utrecht,VBO,5.246995,52.136700
Dolderseweg,116,,,3734BL,Den Dolder,Zeist,Utrecht,VBO,5.246776,52.136861
Dolderseweg,118,,,3734BL,Den Dolder,Zeist,Utrecht,VBO,5.246629,52.137077
Dolderseweg,120,A,,3734BL,Den Dolder,Zeist,Utrecht,VBO,5.244682,52.138540
Dolderseweg,120,,,3734BL,Den Dolder,Zeist,Utrecht,VBO,5.245943,52.138021
Dolderseweg,122,,,3734BL,Den Dolder,Zeist,Utrecht,VBO,5.245074,52.139034
Dolderseweg,124,,,3734BL,Den Dolder,Zeist,Utrecht,VBO,5.244197,52.139267
Dolderseweg,126,,,3734BL,Den Dolder,Zeist,Utrecht,VBO,5.243658,52.138880
Dolderseweg,128,,,3734BL,Den Dolder,Zeist,Utrecht,VBO,5.243351,52.139059
Dolderseweg,134,,,3734BL,Den Dolder,Zeist,Utrecht,VBO,5.242590,52.139499
Dolderseweg,138,A,,3734BL,Den Dolder,Zeist,Utrecht,VBO,5.242633,52.139571
Dolderseweg,138,C,,3734BL,Den Dolder,Zeist,Utrecht,VBO,5.242633,52.139571
Dolderseweg,138,D,,3734BL,Den Dolder,Zeist,Utrecht,VBO,5.242633,52.139571
Dolderseweg,138,E,,3734BL,Den Dolder,Zeist,Utrecht,VBO,5.242633,52.139571
Dolderseweg,138,,,3734BL,Den Dolder,Zeist,Utrecht,VBO,5.242633,52.139571
Dolderseweg,140,A,,3734BL,Den Dolder,Zeist,Utrecht,VBO,5.242180,52.139795
Dolderseweg,140,B,,3734BL,Den Dolder,Zeist,Utrecht,VBO,5.242224,52.139750
Dolderseweg,140,C,,3734BL,Den Dolder,Zeist,Utrecht,VBO,5.242297,52.139750
Dolderseweg,140,D,,3734BL,Den Dolder,Zeist,Utrecht,VBO,5.242282,52.139768
Dolderseweg,140,E,,3734BL,Den Dolder,Zeist,Utrecht,VBO,5.242282,52.139777
Dolderseweg,140,,,3734BL,Den Dolder,Zeist,Utrecht,VBO,5.242253,52.139723
Dolderseweg,142,A,,3734BL,Den Dolder,Zeist,Utrecht,VBO,5.242282,52.139741
Dolderseweg,142,B,,3734BL,Den Dolder,Zeist,Utrecht,VBO,5.242253,52.139786
Dolderseweg,142,C,,3734BL,Den Dolder,Zeist,Utrecht,VBO,5.242238,52.139795
Dolderseweg,142,D,,3734BL,Den Dolder,Zeist,Utrecht,VBO,5.242209,52.139786
Dolderseweg,142,E,,3734BL,Den Dolder,Zeist,Utrecht,VBO,5.242180,52.139777
Dolderseweg,142,,,3734BL,Den Dolder,Zeist,Utrecht,VBO,5.242633,52.139571
Dolderseweg,144,A,,3734BL,Den Dolder,Zeist,Utrecht,VBO,5.242121,52.139822
Dolderseweg,144,B,,3734BL,Den Dolder,Zeist,Utrecht,VBO,5.242165,52.139849
Dolderseweg,144,C,,3734BL,Den Dolder,Zeist,Utrecht,VBO,5.242136,52.139858
Dolderseweg,144,,,3734BL,Den Dolder,Zeist,Utrecht,VBO,5.242224,52.139759
Dolderseweg,146,,,3734BL,Den Dolder,Zeist,Utrecht,VBO,5.241945,52.139929
Dolderseweg,148,A,,3734BL,Den Dolder,Zeist,Utrecht,VBO,5.241998,52.140204
Dolderseweg,148,,,3734BL,Den Dolder,Zeist,Utrecht,VBO,5.242028,52.139938
Dolderseweg,150,,,3734BM,Den Dolder,Zeist,Utrecht,VBO,5.240628,52.140836
Dolderseweg,152,,,3734BM,Den Dolder,Zeist,Utrecht,VBO,5.240540,52.140898
Dolderseweg,154,,,3734BM,Den Dolder,Zeist,Utrecht,VBO,5.240306,52.141069
Dolderseweg,156,,,3734BM,Den Dolder,Zeist,Utrecht,VBO,5.240159,52.141159
Dolderseweg,158,A,,3734BM,Den Dolder,Zeist,Utrecht,VBO,5.239065,52.145048
Dolderseweg,158,B,,3734BM,Den Dolder,Zeist,Utrecht,VBO,5.238772,52.145507
Dolderseweg,158,C,,3734BM,Den Dolder,Zeist,Utrecht,VBO,5.238493,52.145974
Dolderseweg,158,,,3734BM,Den Dolder,Zeist,Utrecht,VBO,5.239461,52.144387
Dolderseweg,160,A,,3734BM,Den Dolder,Zeist,Utrecht,VBO,5.238460,52.146864
Dolderseweg,160,B,,3734BM,Den Dolder,Zeist,Utrecht,VBO,5.238282,52.146767
Dolderseweg,160,C,,3734BM,Den Dolder,Zeist,Utrecht,VBO,5.237862,52.146809
Dolderseweg,160,D,,3734BM,Den Dolder,Zeist,Utrecht,VBO,5.238065,52.147043
Dolderseweg,160,E,,3734BM,Den Dolder,Zeist,Utrecht,VBO,5.238284,52.147142
Dolderseweg,160,,,3734BM,Den Dolder,Zeist,Utrecht,VBO,5.238126,52.146432
Dolderseweg,162,,,3734BM,Den Dolder,Zeist,Utrecht,VBO,5.237509,52.147375
Dolderseweg,164,,,3734BN,Den Dolder,Zeist,Utrecht,VBO,5.237201,52.147617
Dolderseweg,170,,,3734BP,Den Dolder,Zeist,Utrecht,VBO,5.244644,52.150386
Dolderseweg,172,,,3734BP,Den Dolder,Zeist,Utrecht,VBO,5.242187,52.151012
Dolderseweg,206,,,3734BP,Den Dolder,Zeist,Utrecht,VBO,5.237156,52.148004
Dolderseweg,208,,,3734BP,Den Dolder,Zeist,Utrecht,VBO,5.237069,52.147976
Dolderseweg,210,,,3734BP,Den Dolder,Zeist,Utrecht,VBO,5.236732,52.148300
Dolderseweg,212,A,,3734BP,Den Dolder,Zeist,Utrecht,VBO,5.236541,52.148596
Dolderseweg,212,B,,3734BP,Den Dolder,Zeist,Utrecht,VBO,5.236497,52.148668
Dolderseweg,212,C,,3734BP,Den Dolder,Zeist,Utrecht,VBO,5.236452,52.148910
Dolderseweg,212,D,,3734BP,Den Dolder,Zeist,Utrecht,VBO,5.236408,52.148964
Dolderseweg,212,,,3734BP,Den Dolder,Zeist,Utrecht,VBO,5.236688,52.148371
Dolderseweg,214,,,3734BP,Den Dolder,Zeist,Utrecht,VBO,5.237834,52.150800
Dolderseweg,216,,,3734BP,Den Dolder,Zeist,Utrecht,VBO,5.237805,52.150746
Dolderseweg,218,,,3734BP,Den Dolder,Zeist,Utrecht,VBO,5.237440,52.150503
Dolderseweg,220,,,3734BP,Den Dolder,Zeist,Utrecht,VBO,5.237411,52.150449
Dolderseweg,222,A,,3734BP,Den Dolder,Zeist,Utrecht,VBO,5.236988,52.150133
Dolderseweg,222,B,,3734BP,Den Dolder,Zeist,Utrecht,VBO,5.236712,52.149908
Dolderseweg,222,C,,3734BP,Den Dolder,Zeist,Utrecht,VBO,5.236668,52.149854
Dolderseweg,222,D,,3734BP,Den Dolder,Zeist,Utrecht,VBO,5.236595,52.149738
Dolderseweg,222,,,3734BP,Den Dolder,Zeist,Utrecht,VBO,5.237047,52.150179
Dolderseweg,224,A,,3734BR,Den Dolder,Zeist,Utrecht,VBO,5.236188,52.149333
Dolderseweg,224,B,,3734BR,Den Dolder,Zeist,Utrecht,VBO,5.236158,52.149386
Dolderseweg,224,C,,3734BR,Den Dolder,Zeist,Utrecht,VBO,5.235968,52.149548
Dolderseweg,224,D,,3734BR,Den Dolder,Zeist,Utrecht,VBO,5.235924,52.149629
Dolderseweg,224,,,3734BR,Den Dolder,Zeist,Utrecht,VBO,5.236479,52.149692
Dolderseweg,226,,,3734BR,Den Dolder,Zeist,Utrecht,VBO,5.235747,52.149952
Dolderseweg,228,,,3734BR,Den Dolder,Zeist,Utrecht,VBO,5.235718,52.150024
Dolderseweg,230,,,3734BR,Den Dolder,Zeist,Utrecht,VBO,5.235673,52.150258
Dolderseweg,232,,,3734BR,Den Dolder,Zeist,Utrecht,VBO,5.235585,52.150302
Dolderseweg,234,,,3734BR,Den Dolder,Zeist,Utrecht,VBO,5.235365,52.150662
Dolderseweg,236,,,3734BR,Den Dolder,Zeist,Utrecht,VBO,5.235963,52.150779
Dolderseweg,238,,,3734BR,Den Dolder,Zeist,Utrecht,VBO,5.236022,52.150824
Dolderseweg,240,,,3734BS,Den Dolder,Zeist,Utrecht,VBO,5.236489,52.150915
Dolderseweg,242,,,3734BS,Den Dolder,Zeist,Utrecht,VBO,5.236591,52.150942
Dolderseweg,244,,,3734BS,Den Dolder,Zeist,Utrecht,VBO,5.237073,52.151059
Dolderseweg,246,,,3734BS,Den Dolder,Zeist,Utrecht,VBO,5.237131,52.151086
Dolderseweg,248,,,3734BS,Den Dolder,Zeist,Utrecht,VBO,5.237642,52.151204
Dolderseweg,250,,,3734BS,Den Dolder,Zeist,Utrecht,VBO,5.237715,52.151231
Dolderseweg,252,,,3734BS,Den Dolder,Zeist,Utrecht,VBO,5.238241,52.151339
Dolderseweg,254,,,3734BS,Den Dolder,Zeist,Utrecht,VBO,5.238299,52.151367
Dolderseweg,256,,,3734BS,Den Dolder,Zeist,Utrecht,VBO,5.238415,52.151762
Dolderseweg,262,,,3734BS,Den Dolder,Zeist,Utrecht,VBO,5.239901,52.153004
Dolderseweg,270,A,,3734BS,Den Dolder,Zeist,Utrecht,VBO,5.236044,52.157332
Dolderseweg,270,,,3734BS,Den Dolder,Zeist,Utrecht,VBO,5.235664,52.157178
Dolderseweg,272,,,3734BS,Den Dolder,Zeist,Utrecht,VBO,5.236059,52.157116
Dolderseweg,274,,,3734BS,Den Dolder,Zeist,Utrecht,VBO,5.232416,52.158199
Deltapad,6,,,3734BT,Den Dolder,Zeist,Utrecht,VBO,5.240334,52.141321
Deltapad,8,,,3734BT,Den Dolder,Zeist,Utrecht,VBO,5.240392,52.141366
Willem Coxlaan,1,,,3734BV,Den Dolder,Zeist,Utrecht,VBO,5.239307,52.142748
Willem Coxlaan,3,,,3734BV,Den Dolder,Zeist,Utrecht,VBO,5.239453,52.142704
Willem Coxlaan,5,,,3734BV,Den Dolder,Zeist,Utrecht,VBO,5.239482,52.142704
Willem Coxlaan,7,,,3734BV,Den Dolder,Zeist,Utrecht,VBO,5.239570,52.142767
Willem Coxlaan,9,,,3734BV,Den Dolder,Zeist,Utrecht,VBO,5.239818,52.142722
Willem Coxlaan,11,,,3734BV,Den Dolder,Zeist,Utrecht,VBO,5.239833,52.142632
Willem Coxlaan,13,,,3734BV,Den Dolder,Zeist,Utrecht,VBO,5.239877,52.142614
Willem Coxlaan,15,,,3734BV,Den Dolder,Zeist,Utrecht,VBO,5.239994,52.142587
Willem Coxlaan,17,,,3734BV,Den Dolder,Zeist,Utrecht,VBO,5.240111,52.142534
Willem Coxlaan,19,,,3734BV,Den Dolder,Zeist,Utrecht,VBO,5.240184,52.142471
Willem Coxlaan,21,,,3734BV,Den Dolder,Zeist,Utrecht,VBO,5.240214,52.142453
Willem Coxlaan,23,,,3734BV,Den Dolder,Zeist,Utrecht,VBO,5.240316,52.142453
Willem Coxlaan,25,,,3734BV,Den Dolder,Zeist,Utrecht,VBO,5.240521,52.142372
Willem Coxlaan,27,,,3734BV,Den Dolder,Zeist,Utrecht,VBO,5.240594,52.142336
Willem Coxlaan,29,,,3734BV,Den Dolder,Zeist,Utrecht,VBO,5.240813,52.142229
Willem Coxlaan,31,,,3734BV,Den Dolder,Zeist,Utrecht,VBO,5.240872,52.142193
Willem Coxlaan,33,,,3734BV,Den Dolder,Zeist,Utrecht,VBO,5.241062,52.142005
Willem Coxlaan,35,,,3734BV,Den Dolder,Zeist,Utrecht,VBO,5.241150,52.141987
Willem Coxlaan,37,,,3734BV,Den Dolder,Zeist,Utrecht,VBO,5.241340,52.141897
Willem Coxlaan,39,,,3734BV,Den Dolder,Zeist,Utrecht,VBO,5.241399,52.141861
Willem Coxlaan,41,,,3734BV,Den Dolder,Zeist,Utrecht,VBO,5.241589,52.141771
Willem Coxlaan,43,,,3734BV,Den Dolder,Zeist,Utrecht,VBO,5.241647,52.141736
Willem Coxlaan,45,,,3734BV,Den Dolder,Zeist,Utrecht,VBO,5.241838,52.141646
Willem Coxlaan,47,,,3734BV,Den Dolder,Zeist,Utrecht,VBO,5.241896,52.141619
Willem Coxlaan,2,,,3734BW,Den Dolder,Zeist,Utrecht,VBO,5.240742,52.141716
Willem Coxlaan,4,,,3734BW,Den Dolder,Zeist,Utrecht,VBO,5.240800,52.141690
Willem Coxlaan,6,,,3734BW,Den Dolder,Zeist,Utrecht,VBO,5.240976,52.141609
Willem Coxlaan,8,,,3734BW,Den Dolder,Zeist,Utrecht,VBO,5.241049,52.141564
Willem Coxlaan,10,,,3734BW,Den Dolder,Zeist,Utrecht,VBO,5.241210,52.141474
Willem Coxlaan,12,,,3734BW,Den Dolder,Zeist,Utrecht,VBO,5.241269,52.141448
Wilhelmina van Essenlaan,1,,,3734BX,Den Dolder,Zeist,Utrecht,VBO,5.239571,52.142254
Wilhelmina van Essenlaan,3,,,3734BX,Den Dolder,Zeist,Utrecht,VBO,5.239601,52.142236
Wilhelmina van Essenlaan,5,,,3734BX,Den Dolder,Zeist,Utrecht,VBO,5.239572,52.142218
Wilhelmina van Essenlaan,7,,,3734BX,Den Dolder,Zeist,Utrecht,VBO,5.239542,52.142236
Wilhelmina van Essenlaan,9,,,3734BX,Den Dolder,Zeist,Utrecht,VBO,5.239571,52.142263
Wilhelmina van Essenlaan,11,,,3734BX,Den Dolder,Zeist,Utrecht,VBO,5.239601,52.142254
Wilhelmina van Essenlaan,13,,,3734BX,Den Dolder,Zeist,Utrecht,VBO,5.239615,52.142236
Wilhelmina van Essenlaan,15,,,3734BX,Den Dolder,Zeist,Utrecht,VBO,5.239601,52.142218
Wilhelmina van Essenlaan,17,,,3734BX,Den Dolder,Zeist,Utrecht,VBO,5.239572,52.142209
Wilhelmina van Essenlaan,19,,,3734BX,Den Dolder,Zeist,Utrecht,VBO,5.239542,52.142218
Wilhelmina van Essenlaan,21,,,3734BX,Den Dolder,Zeist,Utrecht,VBO,5.239528,52.142236
Wilhelmina van Essenlaan,23,,,3734BX,Den Dolder,Zeist,Utrecht,VBO,5.239542,52.142254
Wilhelmina van Essenlaan,25,,,3734BX,Den Dolder,Zeist,Utrecht,VBO,5.239571,52.142281
Wilhelmina van Essenlaan,27,,,3734BX,Den Dolder,Zeist,Utrecht,VBO,5.239601,52.142272
Wilhelmina van Essenlaan,29,,,3734BX,Den Dolder,Zeist,Utrecht,VBO,5.239630,52.142254
Wilhelmina van Essenlaan,31,,,3734BX,Den Dolder,Zeist,Utrecht,VBO,5.239644,52.142236
Wilhelmina van Essenlaan,33,,,3734BX,Den Dolder,Zeist,Utrecht,VBO,5.239630,52.142218
Wilhelmina van Essenlaan,35,,,3734BX,Den Dolder,Zeist,Utrecht,VBO,5.239601,52.142200
Wilhelmina van Essenlaan,37,,,3734BX,Den Dolder,Zeist,Utrecht,VBO,5.239572,52.142191
Wilhelmina van Essenlaan,39,,,3734BX,Den Dolder,Zeist,Utrecht,VBO,5.239542,52.142200
Wilhelmina van Essenlaan,41,,,3734BX,Den Dolder,Zeist,Utrecht,VBO,5.239513,52.142218
Wilhelmina van Essenlaan,43,,,3734BX,Den Dolder,Zeist,Utrecht,VBO,5.239498,52.142236
Wilhelmina van Essenlaan,45,,,3734BX,Den Dolder,Zeist,Utrecht,VBO,5.239513,52.142254
Wilhelmina van Essenlaan,47,,,3734BX,Den Dolder,Zeist,Utrecht,VBO,5.239542,52.142272
Wilhelmina van Essenlaan,49,,,3734BX,Den Dolder,Zeist,Utrecht,VBO,5.239571,52.142290
Wilhelmina van Essenlaan,51,,,3734BX,Den Dolder,Zeist,Utrecht,VBO,5.239600,52.142290
Wilhelmina van Essenlaan,53,,,3734BX,Den Dolder,Zeist,Utrecht,VBO,5.239630,52.142272
Wilhelmina van Essenlaan,55,,,3734BX,Den Dolder,Zeist,Utrecht,VBO,5.239659,52.142254
Wilhelmina van Essenlaan,57,,,3734BX,Den Dolder,Zeist,Utrecht,VBO,5.239659,52.142236
Wilhelmina van Essenlaan,59,,,3734BX,Den Dolder,Zeist,Utrecht,VBO,5.239659,52.142218
Wilhelmina van Essenlaan,61,,,3734BX,Den Dolder,Zeist,Utrecht,VBO,5.239630,52.142200
Wilhelmina van Essenlaan,63,,,3734BX,Den Dolder,Zeist,Utrecht,VBO,5.239601,52.142182
Wilhelmina van Essenlaan,65,,,3734BX,Den Dolder,Zeist,Utrecht,VBO,5.239572,52.142182
Wilhelmina van Essenlaan,67,,,3734BX,Den Dolder,Zeist,Utrecht,VBO,5.239542,52.142182
Wilhelmina van Essenlaan,69,,,3734BX,Den Dolder,Zeist,Utrecht,VBO,5.239513,52.142200
Wilhelmina van Essenlaan,71,,,3734BX,Den Dolder,Zeist,Utrecht,VBO,5.239484,52.142218
Wilhelmina van Essenlaan,73,,,3734BX,Den Dolder,Zeist,Utrecht,VBO,5.239484,52.142236
Wilhelmina van Essenlaan,75,,,3734BX,Den Dolder,Zeist,Utrecht,VBO,5.239527,52.142281
Wilhelmina van Essenlaan,77,,,3734BX,Den Dolder,Zeist,Utrecht,VBO,5.239484,52.142254
Wilhelmina van Essenlaan,79,,,3734BX,Den Dolder,Zeist,Utrecht,VBO,5.239513,52.142272
Wilhelmina van Essenlaan,81,,,3734BX,Den Dolder,Zeist,Utrecht,VBO,5.239542,52.142290
Wilhelmina van Essenlaan,2,,,3734BZ,Den Dolder,Zeist,Utrecht,VBO,5.239588,52.141670
Wilhelmina van Essenlaan,4,,,3734BZ,Den Dolder,Zeist,Utrecht,VBO,5.239690,52.141679
Wilhelmina van Essenlaan,6,,,3734BZ,Den Dolder,Zeist,Utrecht,VBO,5.239763,52.141688
Wilhelmina van Essenlaan,8,,,3734BZ,Den Dolder,Zeist,Utrecht,VBO,5.239851,52.141688
Wilhelmina van Essenlaan,10,,,3734BZ,Den Dolder,Zeist,Utrecht,VBO,5.240055,52.141770
Wilhelmina van Essenlaan,12,,,3734BZ,Den Dolder,Zeist,Utrecht,VBO,5.240113,52.141824
Wilhelmina van Essenlaan,14,,,3734BZ,Den Dolder,Zeist,Utrecht,VBO,5.240172,52.141869
Wilhelmina van Essenlaan,16,,,3734BZ,Den Dolder,Zeist,Utrecht,VBO,5.240201,52.141887
Wilhelmina van Essenlaan,18,,,3734BZ,Den Dolder,Zeist,Utrecht,VBO,5.240288,52.141959
Wilhelmina van Essenlaan,20,,,3734BZ,Den Dolder,Zeist,Utrecht,VBO,5.240346,52.141995
Wilhelmina van Essenlaan,22,,,3734BZ,Den Dolder,Zeist,Utrecht,VBO,5.240419,52.142040
Wilhelmina van Essenlaan,24,,,3734BZ,Den Dolder,Zeist,Utrecht,VBO,5.240448,52.142076
Baarnseweg,45,,,3734CA,Den Dolder,Zeist,Utrecht,VBO,5.241313,52.136891
Baarnseweg,47,,,3734CA,Den Dolder,Zeist,Utrecht,VBO,5.241240,52.136936
Baarnseweg,49,,,3734CA,Den Dolder,Zeist,Utrecht,VBO,5.241429,52.137080
Baarnseweg,51,,,3734CA,Den Dolder,Zeist,Utrecht,VBO,5.241443,52.137187
Baarnseweg,53,,,3734CA,Den Dolder,Zeist,Utrecht,VBO,5.241589,52.137340
Baarnseweg,55,,,3734CA,Den Dolder,Zeist,Utrecht,VBO,5.241618,52.137394
Baarnseweg,57,,,3734CA,Den Dolder,Zeist,Utrecht,VBO,5.241720,52.137547
Baarnseweg,59,A,,3734CA,Den Dolder,Zeist,Utrecht,VBO,5.242011,52.137682
Baarnseweg,59,,,3734CA,Den Dolder,Zeist,Utrecht,VBO,5.241938,52.137619
Baarnseweg,63,,,3734CA,Den Dolder,Zeist,Utrecht,VBO,5.242113,52.137835
Baarnseweg,65,,,3734CA,Den Dolder,Zeist,Utrecht,VBO,5.242244,52.137934
Baarnseweg,67,,,3734CA,Den Dolder,Zeist,Utrecht,VBO,5.242302,52.137988
Baarnseweg,69,,,3734CA,Den Dolder,Zeist,Utrecht,VBO,5.242463,52.138078
Baarnseweg,71,,,3734CA,Den Dolder,Zeist,Utrecht,VBO,5.242141,52.138195
Baarnseweg,97,,,3734CA,Den Dolder,Zeist,Utrecht,VBO,5.242740,52.138205
Baarnseweg,99,,,3734CA,Den Dolder,Zeist,Utrecht,VBO,5.242900,52.138304
Baarnseweg,105,,,3734CB,Den Dolder,Zeist,Utrecht,VBO,5.243119,52.138349
Baarnseweg,107,,,3734CB,Den Dolder,Zeist,Utrecht,VBO,5.243163,52.138376
Baarnseweg,109,,,3734CB,Den Dolder,Zeist,Utrecht,VBO,5.243207,52.138394
Baarnseweg,111,,,3734CB,Den Dolder,Zeist,Utrecht,VBO,5.243221,52.138421
Baarnseweg,113,,,3734CB,Den Dolder,Zeist,Utrecht,VBO,5.243265,52.138430
Baarnseweg,115,,,3734CB,Den Dolder,Zeist,Utrecht,VBO,5.243294,52.138475
Baarnseweg,117,,,3734CB,Den Dolder,Zeist,Utrecht,VBO,5.243206,52.138511
Baarnseweg,119,,,3734CB,Den Dolder,Zeist,Utrecht,VBO,5.243089,52.138547
Baarnseweg,121,,,3734CB,Den Dolder,Zeist,Utrecht,VBO,5.243002,52.138600
Baarnseweg,123,,,3734CB,Den Dolder,Zeist,Utrecht,VBO,5.242914,52.138663
Baarnseweg,60,,,3734CC,Den Dolder,Zeist,Utrecht,VBO,5.242101,52.136973
Baarnseweg,62,,,3734CC,Den Dolder,Zeist,Utrecht,VBO,5.242436,52.137252
Baarnseweg,64,,,3734CC,Den Dolder,Zeist,Utrecht,VBO,5.242625,52.137441
Baarnseweg,66,,,3734CC,Den Dolder,Zeist,Utrecht,VBO,5.242816,52.137662
Baarnseweg,68,,,3734CC,Den Dolder,Zeist,Utrecht,VBO,5.243019,52.137819
Baarnseweg,70,A,,3734CC,Den Dolder,Zeist,Utrecht,VBO,5.243077,52.137899
Baarnseweg,70,,BIS,3734CC,Den Dolder,Zeist,Utrecht,VBO,5.243092,52.137873
Baarnseweg,70,,,3734CC,Den Dolder,Zeist,Utrecht,VBO,5.243106,52.137864
Baarnseweg,72,,,3734CC,Den Dolder,Zeist,Utrecht,VBO,5.243289,52.137994
Baarnseweg,74,,,3734CC,Den Dolder,Zeist,Utrecht,VBO,5.243372,52.138040
Hertenlaan,21,A,,3734CD,Den Dolder,Zeist,Utrecht,VBO,5.255843,52.133151
Hertenlaan,21,,,3734CD,Den Dolder,Zeist,Utrecht,VBO,5.255670,52.132360
Hertenlaan,23,A,,3734CD,Den Dolder,Zeist,Utrecht,VBO,5.254763,52.132655
Hertenlaan,23,,,3734CD,Den Dolder,Zeist,Utrecht,VBO,5.255449,52.133007
Hertenlaan,25,D,,3734CD,Den Dolder,Zeist,Utrecht,VBO,5.255209,52.135199
Hertenlaan,25,,,3734CD,Den Dolder,Zeist,Utrecht,VBO,5.255797,52.133807
Hertenlaan,27,,,3734CD,Den Dolder,Zeist,Utrecht,VBO,5.255106,52.135442
Hertenlaan,29,,,3734CD,Den Dolder,Zeist,Utrecht,VBO,5.254871,52.135648
Hertenlaan,31,A,,3734CE,Den Dolder,Zeist,Utrecht,VBO,5.254549,52.136115
Hertenlaan,31,B,,3734CE,Den Dolder,Zeist,Utrecht,VBO,5.254402,52.136304
Hertenlaan,31,C,,3734CE,Den Dolder,Zeist,Utrecht,VBO,5.254226,52.136474
Hertenlaan,31,D,,3734CE,Den Dolder,Zeist,Utrecht,VBO,5.254036,52.136627
Hertenlaan,31,,,3734CE,Den Dolder,Zeist,Utrecht,VBO,5.254724,52.135945
Hertenlaan,33,A,,3734CE,Den Dolder,Zeist,Utrecht,VBO,5.253334,52.136824
Hertenlaan,33,B,,3734CE,Den Dolder,Zeist,Utrecht,VBO,5.252794,52.136752
Hertenlaan,33,,,3734CE,Den Dolder,Zeist,Utrecht,VBO,5.253787,52.136923
Hertenlaan,35,,,3734CE,Den Dolder,Zeist,Utrecht,VBO,5.252400,52.136706
Hertenlaan,37,A,,3734CE,Den Dolder,Zeist,Utrecht,VBO,5.251816,52.136598
Hertenlaan,37,,,3734CE,Den Dolder,Zeist,Utrecht,VBO,5.251465,52.136534
Hertenlaan,39,,,3734CE,Den Dolder,Zeist,Utrecht,VBO,5.250312,52.136497
Hertenlaan,16,A,,3734CG,Den Dolder,Zeist,Utrecht,VBO,5.255146,52.136449
Hertenlaan,16,B,,3734CG,Den Dolder,Zeist,Utrecht,VBO,5.254985,52.136610
Hertenlaan,16,C,,3734CG,Den Dolder,Zeist,Utrecht,VBO,5.254956,52.136754
Hertenlaan,16,D,,3734CG,Den Dolder,Zeist,Utrecht,VBO,5.254897,52.136799
Hertenlaan,16,E,,3734CG,Den Dolder,Zeist,Utrecht,VBO,5.254751,52.136898
Hertenlaan,16,F,,3734CG,Den Dolder,Zeist,Utrecht,VBO,5.254721,52.136933
Hertenlaan,16,G,,3734CG,Den Dolder,Zeist,Utrecht,VBO,5.254619,52.137059
Hertenlaan,16,,,3734CG,Den Dolder,Zeist,Utrecht,VBO,5.255351,52.136278
Hertenlaan,18,A,,3734CG,Den Dolder,Zeist,Utrecht,VBO,5.255480,52.137402
Hertenlaan,18,,,3734CG,Den Dolder,Zeist,Utrecht,VBO,5.255276,52.137186
Hertenlaan,20,A,,3734CG,Den Dolder,Zeist,Utrecht,VBO,5.253113,52.137444
Hertenlaan,20,,,3734CG,Den Dolder,Zeist,Utrecht,VBO,5.254355,52.137320
Hertenlaan,22,,,3734CG,Den Dolder,Zeist,Utrecht,VBO,5.252588,52.137273
Hertenlaan,24,,,3734CG,Den Dolder,Zeist,Utrecht,VBO,5.252194,52.137218
Hertenlaan,26,,,3734CG,Den Dolder,Zeist,Utrecht,VBO,5.251858,52.137128
Hertenlaan,28,,,3734CH,Den Dolder,Zeist,Utrecht,VBO,5.251464,52.137029
Hertenlaan,30,,,3734CH,Den Dolder,Zeist,Utrecht,VBO,5.251362,52.137011
Hertenlaan,32,,,3734CH,Den Dolder,Zeist,Utrecht,VBO,5.251026,52.136956
Hertenlaan,34,,,3734CH,Den Dolder,Zeist,Utrecht,VBO,5.250690,52.136956
Hertenlaan,36,,,3734CH,Den Dolder,Zeist,Utrecht,VBO,5.250164,52.136946
Hindelaan,1,,,3734CJ,Den Dolder,Zeist,Utrecht,VBO,5.253025,52.137695
Hindelaan,2,,,3734CJ,Den Dolder,Zeist,Utrecht,VBO,5.254033,52.137589
Hindelaan,3,,,3734CJ,Den Dolder,Zeist,Utrecht,VBO,5.253024,52.137965
Hindelaan,4,,,3734CJ,Den Dolder,Zeist,Utrecht,VBO,5.253974,52.137849
Hindelaan,6,,,3734CJ,Den Dolder,Zeist,Utrecht,VBO,5.253754,52.138074
Hindelaan,7,,,3734CJ,Den Dolder,Zeist,Utrecht,VBO,5.250316,52.139805
Hindelaan,9,,,3734CJ,Den Dolder,Zeist,Utrecht,VBO,5.250532,52.140874
Hindelaan,10,,,3734CJ,Den Dolder,Zeist,Utrecht,VBO,5.251218,52.141055
Paltzerweg,159,,,3734CK,Den Dolder,Zeist,Utrecht,VBO,5.229458,52.136283
Paltzerweg,161,,,3734CK,Den Dolder,Zeist,Utrecht,VBO,5.229543,52.135896
Paltzerweg,163,,,3734CK,Den Dolder,Zeist,Utrecht,VBO,5.229733,52.135842
Paltzerweg,165,,,3734CK,Den Dolder,Zeist,Utrecht,VBO,5.229836,52.135824
Paltzerweg,167,,,3734CK,Den Dolder,Zeist,Utrecht,VBO,5.230055,52.135870
Paltzerweg,169,,,3734CK,Den Dolder,Zeist,Utrecht,VBO,5.230157,52.135879
Paltzerweg,171,,,3734CK,Den Dolder,Zeist,Utrecht,VBO,5.230376,52.135906
Paltzerweg,173,,,3734CK,Den Dolder,Zeist,Utrecht,VBO,5.230478,52.135915
Paltzerweg,175,,,3734CK,Den Dolder,Zeist,Utrecht,VBO,5.230712,52.135942
Paltzerweg,177,,,3734CK,Den Dolder,Zeist,Utrecht,VBO,5.230872,52.135934
Paltzerweg,179,,,3734CK,Den Dolder,Zeist,Utrecht,VBO,5.231106,52.135961
Paltzerweg,181,,,3734CK,Den Dolder,Zeist,Utrecht,VBO,5.231208,52.135979
Paltzerweg,183,,,3734CK,Den Dolder,Zeist,Utrecht,VBO,5.231427,52.135997
Paltzerweg,185,,,3734CK,Den Dolder,Zeist,Utrecht,VBO,5.231529,52.136015
Paltzerweg,187,,,3734CK,Den Dolder,Zeist,Utrecht,VBO,5.231763,52.136025
Paltzerweg,189,,,3734CK,Den Dolder,Zeist,Utrecht,VBO,5.231836,52.136034
Paltzerweg,191,,,3734CK,Den Dolder,Zeist,Utrecht,VBO,5.232070,52.136052
Paltzerweg,193,,,3734CK,Den Dolder,Zeist,Utrecht,VBO,5.232143,52.136034
Paltzerweg,195,,,3734CK,Den Dolder,Zeist,Utrecht,VBO,5.232362,52.136088
Paltzerweg,197,,,3734CL,Den Dolder,Zeist,Utrecht,VBO,5.232464,52.136106
Paltzerweg,199,,,3734CL,Den Dolder,Zeist,Utrecht,VBO,5.232668,52.136143
Paltzerweg,201,,,3734CL,Den Dolder,Zeist,Utrecht,VBO,5.232756,52.136170
Paltzerweg,203,,,3734CL,Den Dolder,Zeist,Utrecht,VBO,5.232960,52.136197
Paltzerweg,213,,,3734CL,Den Dolder,Zeist,Utrecht,VBO,5.233909,52.136216
Paltzerweg,215,,,3734CL,Den Dolder,Zeist,Utrecht,VBO,5.234026,52.136234
Paltzerweg,217,,,3734CL,Den Dolder,Zeist,Utrecht,VBO,5.234172,52.136252
Paltzerweg,219,,,3734CL,Den Dolder,Zeist,Utrecht,VBO,5.234289,52.136262
Paltzerweg,221,,,3734CL,Den Dolder,Zeist,Utrecht,VBO,5.234479,52.136325
Paltzerweg,223,,,3734CL,Den Dolder,Zeist,Utrecht,VBO,5.234727,52.136316
Paltzerweg,225,,,3734CL,Den Dolder,Zeist,Utrecht,VBO,5.234800,52.136343
Paltzerweg,227,,,3734CL,Den Dolder,Zeist,Utrecht,VBO,5.235034,52.136308
Paltzerweg,229,,,3734CL,Den Dolder,Zeist,Utrecht,VBO,5.235151,52.136308
Paltzerweg,231,,,3734CL,Den Dolder,Zeist,Utrecht,VBO,5.235326,52.136353
Paltzerweg,233,,,3734CL,Den Dolder,Zeist,Utrecht,VBO,5.235399,52.136371
Paltzerweg,235,,,3734CL,Den Dolder,Zeist,Utrecht,VBO,5.235618,52.136371
Paltzerweg,237,,,3734CL,Den Dolder,Zeist,Utrecht,VBO,5.235705,52.136389
Paltzerweg,239,,,3734CL,Den Dolder,Zeist,Utrecht,VBO,5.235924,52.136408
Paltzerweg,241,,,3734CL,Den Dolder,Zeist,Utrecht,VBO,5.235983,52.136435
Paltzerweg,243,,,3734CL,Den Dolder,Zeist,Utrecht,VBO,5.236260,52.136435
Paltzerweg,245,,,3734CL,Den Dolder,Zeist,Utrecht,VBO,5.236319,52.136444
Paltzerweg,255,,,3734CM,Den Dolder,Zeist,Utrecht,VBO,5.237136,52.136535
Paltzerweg,257,,,3734CM,Den Dolder,Zeist,Utrecht,VBO,5.237224,52.136562
Paltzerweg,259,,,3734CM,Den Dolder,Zeist,Utrecht,VBO,5.237428,52.136589
Paltzerweg,261,,,3734CM,Den Dolder,Zeist,Utrecht,VBO,5.237531,52.136607
Paltzerweg,263,,,3734CM,Den Dolder,Zeist,Utrecht,VBO,5.237677,52.136625
Paltzerweg,265,,,3734CM,Den Dolder,Zeist,Utrecht,VBO,5.237954,52.136635
Paltzerweg,267,,,3734CM,Den Dolder,Zeist,Utrecht,VBO,5.238261,52.136689
Paltzerweg,269,,,3734CM,Den Dolder,Zeist,Utrecht,VBO,5.238465,52.136689
Paltzerweg,283,,,3734CM,Den Dolder,Zeist,Utrecht,VBO,5.239677,52.136790
Paltzerweg,285,,,3734CM,Den Dolder,Zeist,Utrecht,VBO,5.239765,52.136826
Paltzerweg,287,,,3734CM,Den Dolder,Zeist,Utrecht,VBO,5.239998,52.136817
Paltzerweg,289,,,3734CM,Den Dolder,Zeist,Utrecht,VBO,5.240101,52.136826
Paltzerweg,291,A,,3734CM,Den Dolder,Zeist,Utrecht,VBO,5.240553,52.136935
Paltzerweg,291,,,3734CM,Den Dolder,Zeist,Utrecht,VBO,5.240393,52.136872
Paltzerweg,293,A,,3734CM,Den Dolder,Zeist,Utrecht,VBO,5.241137,52.136872
Paltzerweg,293,B,,3734CM,Den Dolder,Zeist,Utrecht,VBO,5.240933,52.136962
Paltzerweg,293,,,3734CM,Den Dolder,Zeist,Utrecht,VBO,5.240889,52.136881
Paltzerweg,295,,,3734CM,Den Dolder,Zeist,Utrecht,VBO,5.242539,52.137036
Paltzerweg,297,,,3734CM,Den Dolder,Zeist,Utrecht,VBO,5.242875,52.137072
Paltzerweg,299,,,3734CM,Den Dolder,Zeist,Utrecht,VBO,5.243050,52.137118
Paltzerweg,301,,,3734CM,Den Dolder,Zeist,Utrecht,VBO,5.243386,52.137172
Paltzerweg,303,,,3734CM,Den Dolder,Zeist,Utrecht,VBO,5.243488,52.137172
Paltzerweg,305,,,3734CM,Den Dolder,Zeist,Utrecht,VBO,5.243824,52.137235
Paltzerweg,307,,,3734CM,Den Dolder,Zeist,Utrecht,VBO,5.244043,52.137245
Paltzerweg,309,,,3734CM,Den Dolder,Zeist,Utrecht,VBO,5.244350,52.137254
Paltzerweg,311,,,3734CM,Den Dolder,Zeist,Utrecht,VBO,5.244510,52.137254
Paltzerweg,313,,,3734CM,Den Dolder,Zeist,Utrecht,VBO,5.244817,52.137263
Paltzerweg,144,,,3734CN,Den Dolder,Zeist,Utrecht,VBO,5.234174,52.135794
Paltzerweg,146,,,3734CN,Den Dolder,Zeist,Utrecht,VBO,5.234334,52.135794
Paltzerweg,148,,,3734CN,Den Dolder,Zeist,Utrecht,VBO,5.234495,52.135803
Paltzerweg,150,,,3734CN,Den Dolder,Zeist,Utrecht,VBO,5.234641,52.135750
Paltzerweg,152,,,3734CN,Den Dolder,Zeist,Utrecht,VBO,5.234787,52.135768
Paltzerweg,154,,,3734CN,Den Dolder,Zeist,Utrecht,VBO,5.234962,52.135813
Paltzerweg,156,,,3734CN,Den Dolder,Zeist,Utrecht,VBO,5.235225,52.135813
Paltzerweg,158,,,3734CN,Den Dolder,Zeist,Utrecht,VBO,5.235561,52.135895
Paltzerweg,160,,,3734CN,Den Dolder,Zeist,Utrecht,VBO,5.235927,52.135796
Paltzerweg,162,,,3734CN,Den Dolder,Zeist,Utrecht,VBO,5.236174,52.135949
Paltzerweg,166,,,3734CN,Den Dolder,Zeist,Utrecht,VBO,5.236466,52.135968
Paltzerweg,168,,,3734CN,Den Dolder,Zeist,Utrecht,VBO,5.236758,52.136049
Paltzerweg,170,,,3734CN,Den Dolder,Zeist,Utrecht,VBO,5.237006,52.136067
Paltzerweg,172,,,3734CN,Den Dolder,Zeist,Utrecht,VBO,5.237284,52.136122
Paltzerweg,174,,,3734CN,Den Dolder,Zeist,Utrecht,VBO,5.237371,52.136131
Paltzerweg,176,,,3734CN,Den Dolder,Zeist,Utrecht,VBO,5.237590,52.136149
Paltzerweg,178,,,3734CN,Den Dolder,Zeist,Utrecht,VBO,5.237707,52.136176
Paltzerweg,180,,,3734CN,Den Dolder,Zeist,Utrecht,VBO,5.237883,52.136176
Paltzerweg,182,,,3734CN,Den Dolder,Zeist,Utrecht,VBO,5.237999,52.136212
Paltzerweg,186,,,3734CN,Den Dolder,Zeist,Utrecht,VBO,5.238248,52.136177
Paltzerweg,188,,,3734CN,Den Dolder,Zeist,Utrecht,VBO,5.238540,52.136222
Paltzerweg,190,A,,3734CN,Den Dolder,Zeist,Utrecht,VBO,5.239095,52.136250
Paltzerweg,190,,,3734CN,Den Dolder,Zeist,Utrecht,VBO,5.238871,52.136143
Paltzerweg,192,,,3734CN,Den Dolder,Zeist,Utrecht,VBO,5.239343,52.136340
Paltzerweg,194,,,3734CN,Den Dolder,Zeist,Utrecht,VBO,5.239751,52.136385
Paltzerweg,196,,,3734CN,Den Dolder,Zeist,Utrecht,VBO,5.239868,52.136395
Paltzerweg,198,,,3734CN,Den Dolder,Zeist,Utrecht,VBO,5.240248,52.136386
Paltzerweg,200,,,3734CN,Den Dolder,Zeist,Utrecht,VBO,5.240847,52.136450
Paltzerweg,210,A,,3734CN,Den Dolder,Zeist,Utrecht,VBO,5.243531,52.136431
Paltzerweg,210,,,3734CN,Den Dolder,Zeist,Utrecht,VBO,5.243199,52.136345
Paltzerweg,212,,,3734CN,Den Dolder,Zeist,Utrecht,VBO,5.244191,52.136696
Paltzerweg,214,,,3734CN,Den Dolder,Zeist,Utrecht,VBO,5.244249,52.136634
Paltzerweg,216,,,3734CN,Den Dolder,Zeist,Utrecht,VBO,5.244235,52.136705
Paltzerweg,218,,,3734CN,Den Dolder,Zeist,Utrecht,VBO,5.244264,52.136607
Paltzerweg,220,,,3734CN,Den Dolder,Zeist,Utrecht,VBO,5.244308,52.136544
Paltzerweg,222,,,3734CN,Den Dolder,Zeist,Utrecht,VBO,5.244308,52.136436
Paltzerweg,224,,,3734CN,Den Dolder,Zeist,Utrecht,VBO,5.244308,52.136517
Paltzerweg,226,,,3734CN,Den Dolder,Zeist,Utrecht,VBO,5.244309,52.136400
Elandlaan,2,,,3734CP,Den Dolder,Zeist,Utrecht,VBO,5.252359,52.130675
Elandlaan,8,,,3734CP,Den Dolder,Zeist,Utrecht,VBO,5.254505,52.131046
Elandlaan,10,,,3734CP,Den Dolder,Zeist,Utrecht,VBO,5.255279,52.131101
Schaapskooi,2,,,3734CR,Den Dolder,Zeist,Utrecht,VBO,5.252657,52.138405
Schaapskooi,4,,,3734CR,Den Dolder,Zeist,Utrecht,VBO,5.249882,52.137870
Schaapskooi,5,,,3734CR,Den Dolder,Zeist,Utrecht,VBO,5.252454,52.137902
Schaapskooi,7,,,3734CR,Den Dolder,Zeist,Utrecht,VBO,5.252148,52.137811
Schaapskooi,9,,,3734CR,Den Dolder,Zeist,Utrecht,VBO,5.251856,52.137730
Schaapskooi,11,,,3734CR,Den Dolder,Zeist,Utrecht,VBO,5.251506,52.137661
Schaapskooi,13,,,3734CR,Den Dolder,Zeist,Utrecht,VBO,5.251309,52.137636
Schaapskooi,15,,,3734CR,Den Dolder,Zeist,Utrecht,VBO,5.250980,52.137513
Schaapskooi,17,,,3734CR,Den Dolder,Zeist,Utrecht,VBO,5.250659,52.137423
Schaapskooi,19,,,3734CR,Den Dolder,Zeist,Utrecht,VBO,5.250513,52.137396
Hertenlaan-West,38,A,,3734CS,Den Dolder,Zeist,Utrecht,VBO,5.248936,52.137232
Hertenlaan-West,38,,,3734CS,Den Dolder,Zeist,Utrecht,VBO,5.249069,52.136909
Hertenlaan-West,40,,,3734CS,Den Dolder,Zeist,Utrecht,VBO,5.248338,52.136953
Hertenlaan-West,41,,,3734CS,Den Dolder,Zeist,Utrecht,VBO,5.249596,52.136460
Hertenlaan-West,42,,,3734CS,Den Dolder,Zeist,Utrecht,VBO,5.248076,52.136836
Hertenlaan-West,43,,,3734CS,Den Dolder,Zeist,Utrecht,VBO,5.249143,52.136433
Hertenlaan-West,44,,,3734CS,Den Dolder,Zeist,Utrecht,VBO,5.247652,52.136790
Hertenlaan-West,45,,,3734CS,Den Dolder,Zeist,Utrecht,VBO,5.248880,52.136432
Hertenlaan-West,46,,,3734CS,Den Dolder,Zeist,Utrecht,VBO,5.247477,52.136853
Hertenlaan-West,47,,,3734CS,Den Dolder,Zeist,Utrecht,VBO,5.248515,52.136396
Hertenlaan-West,49,,,3734CS,Den Dolder,Zeist,Utrecht,VBO,5.248223,52.136423
Hertenlaan-West,51,,,3734CS,Den Dolder,Zeist,Utrecht,VBO,5.248135,52.136414
Paltzerweg,228,,,3734CT,Den Dolder,Zeist,Utrecht,VBO,5.244760,52.136841
Paltzerweg,232,,,3734CT,Den Dolder,Zeist,Utrecht,VBO,5.244760,52.136841
Paltzerweg,234,,,3734CT,Den Dolder,Zeist,Utrecht,VBO,5.244760,52.136841
Paltzerweg,236,,,3734CT,Den Dolder,Zeist,Utrecht,VBO,5.244760,52.136841
Paltzerweg,238,,,3734CT,Den Dolder,Zeist,Utrecht,VBO,5.244760,52.136841
Paltzerweg,240,,,3734CT,Den Dolder,Zeist,Utrecht,VBO,5.244760,52.136841
Paltzerweg,244,,,3734CT,Den Dolder,Zeist,Utrecht,VBO,5.245111,52.136787
Paltzerweg,246,,,3734CT,Den Dolder,Zeist,Utrecht,VBO,5.245155,52.136787
Paltzerweg,248,,,3734CT,Den Dolder,Zeist,Utrecht,VBO,5.245169,52.136797
Paltzerweg,250,,,3734CT,Den Dolder,Zeist,Utrecht,VBO,5.245140,52.136778
Paltzerweg,252,,,3734CT,Den Dolder,Zeist,Utrecht,VBO,5.245169,52.136779
Paltzerweg,254,,,3734CT,Den Dolder,Zeist,Utrecht,VBO,5.245184,52.136779
Paltzerweg,256,,,3734CT,Den Dolder,Zeist,Utrecht,VBO,5.245198,52.136788
Vijverhof,1,,,3734DA,Den Dolder,Zeist,Utrecht,VBO,5.243205,52.148056
Vijverhof,2,,,3734DA,Den Dolder,Zeist,Utrecht,VBO,5.243205,52.148056
Vijverhof,3,,,3734DA,Den Dolder,Zeist,Utrecht,VBO,5.243234,52.148002
Vijverhof,4,,,3734DA,Den Dolder,Zeist,Utrecht,VBO,5.243234,52.148002
Vijverhof,5,,,3734DA,Den Dolder,Zeist,Utrecht,VBO,5.243220,52.147957
Vijverhof,6,,,3734DA,Den Dolder,Zeist,Utrecht,VBO,5.243220,52.147957
Vijverhof,7,,,3734DA,Den Dolder,Zeist,Utrecht,VBO,5.243205,52.147903
Vijverhof,8,,,3734DA,Den Dolder,Zeist,Utrecht,VBO,5.243205,52.147903
Vijverhof,9,,,3734DA,Den Dolder,Zeist,Utrecht,VBO,5.243133,52.147714
Vijverhof,10,,,3734DA,Den Dolder,Zeist,Utrecht,VBO,5.243133,52.147714
Vijverhof,11,,,3734DA,Den Dolder,Zeist,Utrecht,VBO,5.243133,52.147714
Vijverhof,12,,,3734DA,Den Dolder,Zeist,Utrecht,VBO,5.243133,52.147714
Vijverhof,13,,,3734DA,Den Dolder,Zeist,Utrecht,VBO,5.243119,52.147625
Vijverhof,14,,,3734DA,Den Dolder,Zeist,Utrecht,VBO,5.243119,52.147625
Vijverhof,15,,,3734DA,Den Dolder,Zeist,Utrecht,VBO,5.243119,52.147625
Vijverhof,16,,,3734DA,Den Dolder,Zeist,Utrecht,VBO,5.243119,52.147625
Vijverhof,17,,,3734DA,Den Dolder,Zeist,Utrecht,VBO,5.242651,52.147633
Vijverhof,18,,,3734DA,Den Dolder,Zeist,Utrecht,VBO,5.242651,52.147633
Vijverhof,19,,,3734DA,Den Dolder,Zeist,Utrecht,VBO,5.242651,52.147714
Vijverhof,20,,,3734DA,Den Dolder,Zeist,Utrecht,VBO,5.242651,52.147714
Vijverhof,21,,,3734DB,Den Dolder,Zeist,Utrecht,VBO,5.242577,52.147929
Vijverhof,22,,,3734DB,Den Dolder,Zeist,Utrecht,VBO,5.242577,52.147929
Vijverhof,23,,,3734DB,Den Dolder,Zeist,Utrecht,VBO,5.242577,52.147929
Vijverhof,24,,,3734DB,Den Dolder,Zeist,Utrecht,VBO,5.242562,52.148028
Vijverhof,25,,,3734DB,Den Dolder,Zeist,Utrecht,VBO,5.242562,52.148028
Vijverhof,26,,,3734DB,Den Dolder,Zeist,Utrecht,VBO,5.242562,52.148028
Vijverhof,27,A,,3734DB,Den Dolder,Zeist,Utrecht,VBO,5.242604,52.148747
Vijverhof,27,,,3734DB,Den Dolder,Zeist,Utrecht,VBO,5.242604,52.148747
Vijverhof,28,,,3734DB,Den Dolder,Zeist,Utrecht,VBO,5.242589,52.148801
Vijverhof,29,,,3734DB,Den Dolder,Zeist,Utrecht,VBO,5.242589,52.148855
Vijverhof,30,,,3734DB,Den Dolder,Zeist,Utrecht,VBO,5.242618,52.148909
Vijverhof,31,,,3734DB,Den Dolder,Zeist,Utrecht,VBO,5.242894,52.149269
Vijverhof,32,,,3734DB,Den Dolder,Zeist,Utrecht,VBO,5.242967,52.149269
Vijverhof,33,,,3734DB,Den Dolder,Zeist,Utrecht,VBO,5.243217,52.148901
Vijverhof,34,,,3734DB,Den Dolder,Zeist,Utrecht,VBO,5.243275,52.148892
Vijverhof,35,,,3734DB,Den Dolder,Zeist,Utrecht,VBO,5.243217,52.148901
Vijverhof,36,,,3734DB,Den Dolder,Zeist,Utrecht,VBO,5.243246,52.148847
Vijverhof,37,,,3734DB,Den Dolder,Zeist,Utrecht,VBO,5.243246,52.148847
Vijverhof,38,,,3734DB,Den Dolder,Zeist,Utrecht,VBO,5.243246,52.148793
Vijverhof,39,,,3734DB,Den Dolder,Zeist,Utrecht,VBO,5.243246,52.148793
Vijverhof,40,,,3734DB,Den Dolder,Zeist,Utrecht,VBO,5.243246,52.148730
Dokter J.C. Boswijklaan,1,,,3734EA,Den Dolder,Zeist,Utrecht,VBO,5.236990,52.140867
Dokter J.C. Boswijklaan,2,,,3734EA,Den Dolder,Zeist,Utrecht,VBO,5.237355,52.141047
Dokter J.C. Boswijklaan,3,,,3734EA,Den Dolder,Zeist,Utrecht,VBO,5.236976,52.140921
Dokter J.C. Boswijklaan,4,,,3734EA,Den Dolder,Zeist,Utrecht,VBO,5.237340,52.141092
Dokter J.C. Boswijklaan,5,,,3734EA,Den Dolder,Zeist,Utrecht,VBO,5.236961,52.140984
Dokter J.C. Boswijklaan,6,,,3734EA,Den Dolder,Zeist,Utrecht,VBO,5.237340,52.141137
Dokter J.C. Boswijklaan,7,,BIS,3734EA,Den Dolder,Zeist,Utrecht,VBO,5.236946,52.141020
Dokter J.C. Boswijklaan,7,,,3734EA,Den Dolder,Zeist,Utrecht,VBO,5.236946,52.141038
Dokter J.C. Boswijklaan,8,,BIS,3734EA,Den Dolder,Zeist,Utrecht,VBO,5.237296,52.141182
Dokter J.C. Boswijklaan,8,,,3734EA,Den Dolder,Zeist,Utrecht,VBO,5.237325,52.141200
Dokter J.C. Boswijklaan,9,,,3734EA,Den Dolder,Zeist,Utrecht,VBO,5.236931,52.141083
Dokter J.C. Boswijklaan,10,,1,3734EA,Den Dolder,Zeist,Utrecht,VBO,5.237600,52.141653
Dokter J.C. Boswijklaan,10,,10,3734EA,Den Dolder,Zeist,Utrecht,VBO,5.237633,52.141668
Dokter J.C. Boswijklaan,10,,11,3734EA,Den Dolder,Zeist,Utrecht,VBO,5.237488,52.141660
Dokter J.C. Boswijklaan,10,,12,3734EA,Den Dolder,Zeist,Utrecht,VBO,5.237293,52.141658
Dokter J.C. Boswijklaan,10,,13,3734EA,Den Dolder,Zeist,Utrecht,VBO,5.237256,52.141768
Dokter J.C. Boswijklaan,10,,14,3734EA,Den Dolder,Zeist,Utrecht,VBO,5.237244,52.141836
Dokter J.C. Boswijklaan,10,,15,3734EA,Den Dolder,Zeist,Utrecht,VBO,5.237238,52.141898
Dokter J.C. Boswijklaan,10,,16,3734EA,Den Dolder,Zeist,Utrecht,VBO,5.237212,52.141962
Dokter J.C. Boswijklaan,10,,17,3734EA,Den Dolder,Zeist,Utrecht,VBO,5.237203,52.142037
Dokter J.C. Boswijklaan,10,,18,3734EA,Den Dolder,Zeist,Utrecht,VBO,5.237696,52.141703
Dokter J.C. Boswijklaan,10,,19,3734EA,Den Dolder,Zeist,Utrecht,VBO,5.237608,52.141697
Dokter J.C. Boswijklaan,10,,2,3734EA,Den Dolder,Zeist,Utrecht,VBO,5.237482,52.141640
Dokter J.C. Boswijklaan,10,,20,3734EA,Den Dolder,Zeist,Utrecht,VBO,5.237443,52.141686
Dokter J.C. Boswijklaan,10,,21,3734EA,Den Dolder,Zeist,Utrecht,VBO,5.237335,52.141680
Dokter J.C. Boswijklaan,10,,22,3734EA,Den Dolder,Zeist,Utrecht,VBO,5.237314,52.141777
Dokter J.C. Boswijklaan,10,,23,3734EA,Den Dolder,Zeist,Utrecht,VBO,5.237298,52.141840
Dokter J.C. Boswijklaan,10,,24,3734EA,Den Dolder,Zeist,Utrecht,VBO,5.237286,52.141901
Dokter J.C. Boswijklaan,10,,25,3734EA,Den Dolder,Zeist,Utrecht,VBO,5.237280,52.141966
Dokter J.C. Boswijklaan,10,,26,3734EA,Den Dolder,Zeist,Utrecht,VBO,5.237266,52.142039
Dokter J.C. Boswijklaan,10,,27,3734EA,Den Dolder,Zeist,Utrecht,VBO,5.237354,52.141772
Dokter J.C. Boswijklaan,10,,28,3734EA,Den Dolder,Zeist,Utrecht,VBO,5.237340,52.141838
Dokter J.C. Boswijklaan,10,,29,3734EA,Den Dolder,Zeist,Utrecht,VBO,5.237332,52.141905
Dokter J.C. Boswijklaan,10,,3,3734EA,Den Dolder,Zeist,Utrecht,VBO,5.237289,52.141630
Dokter J.C. Boswijklaan,10,,4,3734EA,Den Dolder,Zeist,Utrecht,VBO,5.237227,52.141767
Dokter J.C. Boswijklaan,10,,5,3734EA,Den Dolder,Zeist,Utrecht,VBO,5.237203,52.141835
Dokter J.C. Boswijklaan,10,,6,3734EA,Den Dolder,Zeist,Utrecht,VBO,5.237199,52.141895
Dokter J.C. Boswijklaan,10,,7,3734EA,Den Dolder,Zeist,Utrecht,VBO,5.237183,52.141964
Dokter J.C. Boswijklaan,10,,8,3734EA,Den Dolder,Zeist,Utrecht,VBO,5.237170,52.142030
Dokter J.C. Boswijklaan,10,,9,3734EA,Den Dolder,Zeist,Utrecht,VBO,5.237712,52.141678
Dokter J.C. Boswijklaan,10,,,3734EA,Den Dolder,Zeist,Utrecht,VBO,5.237708,52.141657
Dokter J.C. Boswijklaan,11,A,,3734EA,Den Dolder,Zeist,Utrecht,VBO,5.236770,52.141208
Dokter J.C. Boswijklaan,11,,,3734EA,Den Dolder,Zeist,Utrecht,VBO,5.236916,52.141136
Dokter J.C. Boswijklaan,12,,,3734EA,Den Dolder,Zeist,Utrecht,VBO,5.237147,52.142179
Dokter J.C. Boswijklaan,14,,,3734EA,Den Dolder,Zeist,Utrecht,VBO,5.237146,52.142242
Dokter J.C. Boswijklaan,15,,,3734EA,Den Dolder,Zeist,Utrecht,VBO,5.236887,52.141343
Dokter J.C. Boswijklaan,16,,,3734EA,Den Dolder,Zeist,Utrecht,VBO,5.237132,52.142296
Dokter J.C. Boswijklaan,17,,,3734EA,Den Dolder,Zeist,Utrecht,VBO,5.236872,52.141379
Dokter J.C. Boswijklaan,18,,,3734EA,Den Dolder,Zeist,Utrecht,VBO,5.237117,52.142350
Dokter J.C. Boswijklaan,19,,,3734EA,Den Dolder,Zeist,Utrecht,VBO,5.236842,52.141442
Dokter J.C. Boswijklaan,20,,,3734EA,Den Dolder,Zeist,Utrecht,VBO,5.237204,52.142458
Dokter J.C. Boswijklaan,21,,,3734EA,Den Dolder,Zeist,Utrecht,VBO,5.236842,52.141487
Dokter J.C. Boswijklaan,22,,,3734EA,Den Dolder,Zeist,Utrecht,VBO,5.237058,52.142602
Dr. Ramaerlaan,1,,,3734EB,Den Dolder,Zeist,Utrecht,VBO,5.238756,52.141471
Dr. Ramaerlaan,2,,,3734EB,Den Dolder,Zeist,Utrecht,VBO,5.238673,52.141799
Dr. Ramaerlaan,3,,,3734EB,Den Dolder,Zeist,Utrecht,VBO,5.238654,52.141489
Dr. Ramaerlaan,4,,,3734EB,Den Dolder,Zeist,Utrecht,VBO,5.238710,52.141768
Dr. Ramaerlaan,5,,,3734EB,Den Dolder,Zeist,Utrecht,VBO,5.238551,52.141480
Dr. Ramaerlaan,6,,,3734EB,Den Dolder,Zeist,Utrecht,VBO,5.238854,52.141779
Dr. Ramaerlaan,7,,,3734EB,Den Dolder,Zeist,Utrecht,VBO,5.238478,52.141471
Dr. Ramaerlaan,8,,,3734EB,Den Dolder,Zeist,Utrecht,VBO,5.238851,52.141830
Dr. Ramaerlaan,9,,,3734EB,Den Dolder,Zeist,Utrecht,VBO,5.238391,52.141471
Dr. Ramaerlaan,10,,,3734EB,Den Dolder,Zeist,Utrecht,VBO,5.238243,52.141848
Dr. Ramaerlaan,11,,,3734EB,Den Dolder,Zeist,Utrecht,VBO,5.238288,52.141462
Dr. Ramaerlaan,12,,,3734EB,Den Dolder,Zeist,Utrecht,VBO,5.238127,52.141803
Dr. Ramaerlaan,13,,,3734EB,Den Dolder,Zeist,Utrecht,VBO,5.238215,52.141453
Dr. Ramaerlaan,14,,,3734EB,Den Dolder,Zeist,Utrecht,VBO,5.237995,52.141848
Dr. Ramaerlaan,15,,,3734EB,Den Dolder,Zeist,Utrecht,VBO,5.238099,52.141426
Dr. Ramaerlaan,16,,,3734EB,Den Dolder,Zeist,Utrecht,VBO,5.237966,52.141830
Dr. Ramaerlaan,17,,,3734EB,Den Dolder,Zeist,Utrecht,VBO,5.237938,52.141416
Dr. Ramaerlaan,18,,,3734EB,Den Dolder,Zeist,Utrecht,VBO,5.237937,52.141848
Dr. Ramaerlaan,19,,,3734EB,Den Dolder,Zeist,Utrecht,VBO,5.237850,52.141434
Dr. Ramaerlaan,20,,,3734EB,Den Dolder,Zeist,Utrecht,VBO,5.238127,52.141812
Dr. Ramaerlaan,21,,,3734EB,Den Dolder,Zeist,Utrecht,VBO,5.237777,52.141434
Dr. Ramaerlaan,22,,,3734EB,Den Dolder,Zeist,Utrecht,VBO,5.238156,52.141803
Dr. Ramaerlaan,23,,,3734EB,Den Dolder,Zeist,Utrecht,VBO,5.237690,52.141425
Dr. Ramaerlaan,24,,,3734EB,Den Dolder,Zeist,Utrecht,VBO,5.238010,52.141848
Dr. Ramaerlaan,25,,,3734EB,Den Dolder,Zeist,Utrecht,VBO,5.237587,52.141425
Dr. Ramaerlaan,26,,,3734EB,Den Dolder,Zeist,Utrecht,VBO,5.237995,52.141830
Dr. Ramaerlaan,27,,,3734EB,Den Dolder,Zeist,Utrecht,VBO,5.237514,52.141416
Dr. Ramaerlaan,28,,,3734EB,Den Dolder,Zeist,Utrecht,VBO,5.237966,52.141821
Dr. Ramaerlaan,29,,,3734EB,Den Dolder,Zeist,Utrecht,VBO,5.237427,52.141407
Dr. Ramaerlaan,30,,,3734EB,Den Dolder,Zeist,Utrecht,VBO,5.237937,52.141830
Dr. Ramaerlaan,31,,,3734EB,Den Dolder,Zeist,Utrecht,VBO,5.237310,52.141371
Dr. Ramaerlaan,32,,,3734EB,Den Dolder,Zeist,Utrecht,VBO,5.237922,52.141848
Dr. Ramaerlaan,34,,,3734EB,Den Dolder,Zeist,Utrecht,VBO,5.238127,52.141830
Dr. Ramaerlaan,36,,,3734EB,Den Dolder,Zeist,Utrecht,VBO,5.238156,52.141821
Dr. Ramaerlaan,38,,,3734EB,Den Dolder,Zeist,Utrecht,VBO,5.238039,52.141848
Dr. Ramaerlaan,40,,,3734EB,Den Dolder,Zeist,Utrecht,VBO,5.238024,52.141830
Dr. Ramaerlaan,42,,,3734EB,Den Dolder,Zeist,Utrecht,VBO,5.237995,52.141812
Dr. Ramaerlaan,44,,,3734EB,Den Dolder,Zeist,Utrecht,VBO,5.237966,52.141803
Dr. Ramaerlaan,46,,,3734EB,Den Dolder,Zeist,Utrecht,VBO,5.237937,52.141812
Dr. Ramaerlaan,48,,,3734EB,Den Dolder,Zeist,Utrecht,VBO,5.237907,52.141830
Dr. Ramaerlaan,50,,,3734EB,Den Dolder,Zeist,Utrecht,VBO,5.237893,52.141848
Dr. Ramaerlaan,52,,,3734EB,Den Dolder,Zeist,Utrecht,VBO,5.238127,52.141839
Dr. Ramaerlaan,54,,,3734EB,Den Dolder,Zeist,Utrecht,VBO,5.238156,52.141839
Dr. Ramaerlaan,56,,,3734EB,Den Dolder,Zeist,Utrecht,VBO,5.238053,52.141848
Dr. Ramaerlaan,58,,,3734EB,Den Dolder,Zeist,Utrecht,VBO,5.238054,52.141830
Dr. Ramaerlaan,60,,,3734EB,Den Dolder,Zeist,Utrecht,VBO,5.238024,52.141812
Dr. Ramaerlaan,62,,,3734EB,Den Dolder,Zeist,Utrecht,VBO,5.237995,52.141794
Dr. Ramaerlaan,64,,,3734EB,Den Dolder,Zeist,Utrecht,VBO,5.237966,52.141794
Dr. Ramaerlaan,66,,,3734EB,Den Dolder,Zeist,Utrecht,VBO,5.237937,52.141794
Dr. Ramaerlaan,68,,,3734EB,Den Dolder,Zeist,Utrecht,VBO,5.237908,52.141812
Dr. Ramaerlaan,70,,,3734EB,Den Dolder,Zeist,Utrecht,VBO,5.237878,52.141830
Dr. Ramaerlaan,72,,,3734EB,Den Dolder,Zeist,Utrecht,VBO,5.237878,52.141848
Dr. Ramaerlaan,74,,,3734EB,Den Dolder,Zeist,Utrecht,VBO,5.238156,52.141848
Dr. Ramaerlaan,76,,,3734EB,Den Dolder,Zeist,Utrecht,VBO,5.238068,52.141866
Dr. Ramaerlaan,78,,,3734EB,Den Dolder,Zeist,Utrecht,VBO,5.238083,52.141848
Dr. Ramaerlaan,80,,,3734EB,Den Dolder,Zeist,Utrecht,VBO,5.238068,52.141830
Dr. Ramaerlaan,82,,,3734EB,Den Dolder,Zeist,Utrecht,VBO,5.238054,52.141803
Dr. Ramaerlaan,84,,,3734EB,Den Dolder,Zeist,Utrecht,VBO,5.237893,52.141794
Dr. Ramaerlaan,86,,,3734EB,Den Dolder,Zeist,Utrecht,VBO,5.238097,52.141866
Dr. Ramaerlaan,88,,,3734EB,Den Dolder,Zeist,Utrecht,VBO,5.238097,52.141848
Dr. Ramaerlaan,90,,,3734EB,Den Dolder,Zeist,Utrecht,VBO,5.238097,52.141830
Dr. Ramaerlaan,92,,,3734EB,Den Dolder,Zeist,Utrecht,VBO,5.238083,52.141803
Dr. Ramaerlaan,94,,,3734EB,Den Dolder,Zeist,Utrecht,VBO,5.238126,52.141866
Dr. Ramaerlaan,96,,,3734EB,Den Dolder,Zeist,Utrecht,VBO,5.238127,52.141848
Willem Arntszlaan,1,A,,3734EC,Den Dolder,Zeist,Utrecht,VBO,5.239298,52.141005
Willem Arntszlaan,1,B,,3734EC,Den Dolder,Zeist,Utrecht,VBO,5.239269,52.140996
Willem Arntszlaan,1,C,,3734EC,Den Dolder,Zeist,Utrecht,VBO,5.239240,52.140987
Willem Arntszlaan,1,D,,3734EC,Den Dolder,Zeist,Utrecht,VBO,5.239210,52.140978
Willem Arntszlaan,1,E,,3734EC,Den Dolder,Zeist,Utrecht,VBO,5.239429,52.141005
Willem Arntszlaan,1,,,3734EC,Den Dolder,Zeist,Utrecht,VBO,5.239327,52.141023
Willem Arntszlaan,3,A,,3734EC,Den Dolder,Zeist,Utrecht,VBO,5.239108,52.140950
Willem Arntszlaan,3,B,,3734EC,Den Dolder,Zeist,Utrecht,VBO,5.239079,52.140941
Willem Arntszlaan,3,C,,3734EC,Den Dolder,Zeist,Utrecht,VBO,5.239050,52.140941
Willem Arntszlaan,3,,,3734EC,Den Dolder,Zeist,Utrecht,VBO,5.239152,52.140960
Willem Arntszlaan,5,A,,3734EC,Den Dolder,Zeist,Utrecht,VBO,5.238991,52.140923
Willem Arntszlaan,5,B,,3734EC,Den Dolder,Zeist,Utrecht,VBO,5.238977,52.140914
Willem Arntszlaan,5,C,,3734EC,Den Dolder,Zeist,Utrecht,VBO,5.238948,52.140905
Willem Arntszlaan,5,,,3734EC,Den Dolder,Zeist,Utrecht,VBO,5.239035,52.140932
Willem Arntszlaan,7,A,,3734EC,Den Dolder,Zeist,Utrecht,VBO,5.238889,52.140896
Willem Arntszlaan,7,B,,3734EC,Den Dolder,Zeist,Utrecht,VBO,5.239356,52.141005
Willem Arntszlaan,7,C,,3734EC,Den Dolder,Zeist,Utrecht,VBO,5.239167,52.140969
Willem Arntszlaan,7,,,3734EC,Den Dolder,Zeist,Utrecht,VBO,5.238918,52.140905
Willem Arntszlaan,9,,,3734EC,Den Dolder,Zeist,Utrecht,VBO,5.238773,52.140671
Willem Arntszlaan,11,,,3734EC,Den Dolder,Zeist,Utrecht,VBO,5.238393,52.140779
Willem Arntszlaan,13,,,3734EC,Den Dolder,Zeist,Utrecht,VBO,5.238335,52.140770
Willem Arntszlaan,15,,,3734EC,Den Dolder,Zeist,Utrecht,VBO,5.238247,52.140743
Willem Arntszlaan,17,,,3734EC,Den Dolder,Zeist,Utrecht,VBO,5.238174,52.140734
Willem Arntszlaan,19,,,3734EC,Den Dolder,Zeist,Utrecht,VBO,5.237941,52.140679
Willem Arntszlaan,21,,,3734EC,Den Dolder,Zeist,Utrecht,VBO,5.237882,52.140652
Willem Arntszlaan,23,,,3734EC,Den Dolder,Zeist,Utrecht,VBO,5.237795,52.140634
Willem Arntszlaan,25,,,3734EC,Den Dolder,Zeist,Utrecht,VBO,5.237722,52.140616
Willem Arntszlaan,27,,,3734EC,Den Dolder,Zeist,Utrecht,VBO,5.237488,52.140535
Willem Arntszlaan,29,,,3734EC,Den Dolder,Zeist,Utrecht,VBO,5.237415,52.140517
Willem Arntszlaan,31,,,3734EC,Den Dolder,Zeist,Utrecht,VBO,5.237371,52.140508
Willem Arntszlaan,33,,,3734EC,Den Dolder,Zeist,Utrecht,VBO,5.237284,52.140490
Willem Arntszlaan,35,,,3734EC,Den Dolder,Zeist,Utrecht,VBO,5.237050,52.140436
Willem Arntszlaan,37,,,3734EC,Den Dolder,Zeist,Utrecht,VBO,5.236963,52.140417
Willem Arntszlaan,39,,,3734EC,Den Dolder,Zeist,Utrecht,VBO,5.236890,52.140390
Willem Arntszlaan,41,,,3734EC,Den Dolder,Zeist,Utrecht,VBO,5.236817,52.140381
Willem Arntszlaan,43,,,3734EC,Den Dolder,Zeist,Utrecht,VBO,5.236613,52.140291
Willem Arntszlaan,45,,,3734EC,Den Dolder,Zeist,Utrecht,VBO,5.236539,52.140282
Willem Arntszlaan,47,,,3734ED,Den Dolder,Zeist,Utrecht,VBO,5.236452,52.140264
Willem Arntszlaan,49,,,3734ED,Den Dolder,Zeist,Utrecht,VBO,5.236394,52.140237
Willem Arntszlaan,51,,,3734ED,Den Dolder,Zeist,Utrecht,VBO,5.236160,52.140201
Willem Arntszlaan,53,,,3734ED,Den Dolder,Zeist,Utrecht,VBO,5.236058,52.140174
Willem Arntszlaan,55,,,3734ED,Den Dolder,Zeist,Utrecht,VBO,5.235970,52.140156
Willem Arntszlaan,57,,,3734ED,Den Dolder,Zeist,Utrecht,VBO,5.235926,52.140138
Willem Arntszlaan,59,,,3734ED,Den Dolder,Zeist,Utrecht,VBO,5.235722,52.140047
Willem Arntszlaan,61,,,3734ED,Den Dolder,Zeist,Utrecht,VBO,5.235620,52.140029
Willem Arntszlaan,63,,,3734ED,Den Dolder,Zeist,Utrecht,VBO,5.235532,52.140011
Willem Arntszlaan,65,,,3734ED,Den Dolder,Zeist,Utrecht,VBO,5.235474,52.140011
Willem Arntszlaan,81,,,3734ED,Den Dolder,Zeist,Utrecht,VBO,5.235124,52.139912
Willem Arntszlaan,83,,,3734ED,Den Dolder,Zeist,Utrecht,VBO,5.235036,52.139885
Willem Arntszlaan,85,,,3734ED,Den Dolder,Zeist,Utrecht,VBO,5.234949,52.139867
Willem Arntszlaan,87,,,3734ED,Den Dolder,Zeist,Utrecht,VBO,5.234861,52.139858
Willem Arntszlaan,89,,,3734EE,Den Dolder,Zeist,Utrecht,VBO,5.234759,52.139830
Willem Arntszlaan,91,,,3734EE,Den Dolder,Zeist,Utrecht,VBO,5.234598,52.139767
Willem Arntszlaan,93,,,3734EE,Den Dolder,Zeist,Utrecht,VBO,5.234511,52.139758
Willem Arntszlaan,95,,,3734EE,Den Dolder,Zeist,Utrecht,VBO,5.234438,52.139731
Willem Arntszlaan,97,,,3734EE,Den Dolder,Zeist,Utrecht,VBO,5.234365,52.139713
Willem Arntszlaan,99,,,3734EE,Den Dolder,Zeist,Utrecht,VBO,5.234277,52.139695
Willem Arntszlaan,101,,,3734EE,Den Dolder,Zeist,Utrecht,VBO,5.234190,52.139668
Willem Arntszlaan,103,,,3734EE,Den Dolder,Zeist,Utrecht,VBO,5.234102,52.139641
Willem Arntszlaan,105,,,3734EE,Den Dolder,Zeist,Utrecht,VBO,5.233912,52.139605
Willem Arntszlaan,107,,,3734EE,Den Dolder,Zeist,Utrecht,VBO,5.233854,52.139578
Willem Arntszlaan,109,,,3734EE,Den Dolder,Zeist,Utrecht,VBO,5.233752,52.139568
Willem Arntszlaan,111,,,3734EE,Den Dolder,Zeist,Utrecht,VBO,5.233679,52.139541
Willem Arntszlaan,113,,,3734EE,Den Dolder,Zeist,Utrecht,VBO,5.233591,52.139514
Willem Arntszlaan,115,A,,3734EE,Den Dolder,Zeist,Utrecht,VBO,5.232673,52.138893
Willem Arntszlaan,115,B,,3734EE,Den Dolder,Zeist,Utrecht,VBO,5.232688,52.138857
Willem Arntszlaan,115,C,,3734EE,Den Dolder,Zeist,Utrecht,VBO,5.232571,52.138875
Willem Arntszlaan,115,D,,3734EE,Den Dolder,Zeist,Utrecht,VBO,5.232615,52.138902
Willem Arntszlaan,115,,,3734EE,Den Dolder,Zeist,Utrecht,VBO,5.232571,52.138830
Willem Arntszlaan,117,,,3734EE,Den Dolder,Zeist,Utrecht,VBO,5.232761,52.138722
Willem Arntszlaan,119,,,3734EE,Den Dolder,Zeist,Utrecht,VBO,5.232806,52.138633
Willem Arntszlaan,121,,,3734EE,Den Dolder,Zeist,Utrecht,VBO,5.232894,52.138552
Willem Arntszlaan,123,,,3734EE,Den Dolder,Zeist,Utrecht,VBO,5.232952,52.138462
Willem Arntszlaan,125,,,3734EE,Den Dolder,Zeist,Utrecht,VBO,5.233026,52.138345
Willem Arntszlaan,127,,,3734EE,Den Dolder,Zeist,Utrecht,VBO,5.233041,52.138237
Willem Arntszlaan,129,,,3734EE,Den Dolder,Zeist,Utrecht,VBO,5.233363,52.138031
Willem Arntszlaan,131,,,3734EE,Den Dolder,Zeist,Utrecht,VBO,5.233173,52.137995
Willem Arntszlaan,133,,,3734EE,Den Dolder,Zeist,Utrecht,VBO,5.233012,52.137950
Willem Arntszlaan,135,,,3734EE,Den Dolder,Zeist,Utrecht,VBO,5.232852,52.137923
Willem Arntszlaan,137,,,3734EE,Den Dolder,Zeist,Utrecht,VBO,5.232677,52.137895
Willem Arntszlaan,139,,,3734EE,Den Dolder,Zeist,Utrecht,VBO,5.232560,52.137814
Willem Arntszlaan,141,,,3734EE,Den Dolder,Zeist,Utrecht,VBO,5.232734,52.138165
Willem Arntszlaan,143,,,3734EE,Den Dolder,Zeist,Utrecht,VBO,5.232661,52.138264
Willem Arntszlaan,145,,,3734EE,Den Dolder,Zeist,Utrecht,VBO,5.232587,52.138363
Willem Arntszlaan,147,,,3734EE,Den Dolder,Zeist,Utrecht,VBO,5.232572,52.138461
Willem Arntszlaan,149,,,3734EE,Den Dolder,Zeist,Utrecht,VBO,5.232470,52.138560
Willem Arntszlaan,151,,,3734EE,Den Dolder,Zeist,Utrecht,VBO,5.232411,52.138668
Willem Arntszlaan,2,,,3734EG,Den Dolder,Zeist,Utrecht,VBO,5.238698,52.141202
Willem Arntszlaan,4,,BIS,3734EG,Den Dolder,Zeist,Utrecht,VBO,5.238655,52.141157
Willem Arntszlaan,4,,,3734EG,Den Dolder,Zeist,Utrecht,VBO,5.238640,52.141184
Willem Arntszlaan,6,,,3734EG,Den Dolder,Zeist,Utrecht,VBO,5.238552,52.141165
Willem Arntszlaan,8,,,3734EG,Den Dolder,Zeist,Utrecht,VBO,5.238494,52.141138
Willem Arntszlaan,10,,,3734EG,Den Dolder,Zeist,Utrecht,VBO,5.238275,52.141075
Willem Arntszlaan,12,,BIS,3734EG,Den Dolder,Zeist,Utrecht,VBO,5.238202,52.141039
Willem Arntszlaan,12,,,3734EG,Den Dolder,Zeist,Utrecht,VBO,5.238188,52.141057
Willem Arntszlaan,14,,,3734EG,Den Dolder,Zeist,Utrecht,VBO,5.238085,52.141030
Willem Arntszlaan,16,,,3734EG,Den Dolder,Zeist,Utrecht,VBO,5.238042,52.141012
Willem Arntszlaan,18,,,3734EG,Den Dolder,Zeist,Utrecht,VBO,5.237808,52.140949
Willem Arntszlaan,20,,,3734EG,Den Dolder,Zeist,Utrecht,VBO,5.237706,52.140931
Willem Arntszlaan,22,,,3734EG,Den Dolder,Zeist,Utrecht,VBO,5.237633,52.140913
Willem Arntszlaan,24,,,3734EG,Den Dolder,Zeist,Utrecht,VBO,5.237575,52.140886
Willem Arntszlaan,26,,,3734EH,Den Dolder,Zeist,Utrecht,VBO,5.236874,52.140714
Willem Arntszlaan,28,,,3734EH,Den Dolder,Zeist,Utrecht,VBO,5.236786,52.140687
Willem Arntszlaan,30,,,3734EH,Den Dolder,Zeist,Utrecht,VBO,5.236699,52.140669
Willem Arntszlaan,32,,BIS,3734EH,Den Dolder,Zeist,Utrecht,VBO,5.236670,52.140633
Willem Arntszlaan,32,,,3734EH,Den Dolder,Zeist,Utrecht,VBO,5.236655,52.140660
Willem Arntszlaan,34,,,3734EH,Den Dolder,Zeist,Utrecht,VBO,5.236392,52.140597
Willem Arntszlaan,36,,,3734EH,Den Dolder,Zeist,Utrecht,VBO,5.236334,52.140578
Willem Arntszlaan,38,,,3734EH,Den Dolder,Zeist,Utrecht,VBO,5.236246,52.140569
Willem Arntszlaan,40,,,3734EH,Den Dolder,Zeist,Utrecht,VBO,5.236173,52.140551
Willem Arntszlaan,42,,,3734EH,Den Dolder,Zeist,Utrecht,VBO,5.235954,52.140506
Willem Arntszlaan,44,,BIS,3734EH,Den Dolder,Zeist,Utrecht,VBO,5.235852,52.140461
Willem Arntszlaan,44,,,3734EH,Den Dolder,Zeist,Utrecht,VBO,5.235852,52.140488
Willem Arntszlaan,46,,,3734EH,Den Dolder,Zeist,Utrecht,VBO,5.235779,52.140470
Willem Arntszlaan,48,,,3734EH,Den Dolder,Zeist,Utrecht,VBO,5.235721,52.140443
Willem Arntszlaan,50,,,3734EJ,Den Dolder,Zeist,Utrecht,VBO,5.235443,52.140425
Willem Arntszlaan,52,,,3734EJ,Den Dolder,Zeist,Utrecht,VBO,5.235370,52.140406
Willem Arntszlaan,54,,,3734EJ,Den Dolder,Zeist,Utrecht,VBO,5.235297,52.140388
Willem Arntszlaan,56,,,3734EJ,Den Dolder,Zeist,Utrecht,VBO,5.235239,52.140370
Willem Arntszlaan,58,,,3734EJ,Den Dolder,Zeist,Utrecht,VBO,5.234772,52.140199
Willem Arntszlaan,60,,,3734EJ,Den Dolder,Zeist,Utrecht,VBO,5.234685,52.140172
Willem Arntszlaan,62,,,3734EJ,Den Dolder,Zeist,Utrecht,VBO,5.234612,52.140154
Willem Arntszlaan,64,,,3734EJ,Den Dolder,Zeist,Utrecht,VBO,5.234539,52.140145
Willem Arntszlaan,66,,,3734EJ,Den Dolder,Zeist,Utrecht,VBO,5.234437,52.140109
Willem Arntszlaan,68,,,3734EJ,Den Dolder,Zeist,Utrecht,VBO,5.234334,52.140100
Willem Arntszlaan,70,,,3734EJ,Den Dolder,Zeist,Utrecht,VBO,5.233794,52.139955
Willem Arntszlaan,72,,,3734EJ,Den Dolder,Zeist,Utrecht,VBO,5.233692,52.139937
Willem Arntszlaan,74,,,3734EJ,Den Dolder,Zeist,Utrecht,VBO,5.233619,52.139910
Willem Arntszlaan,76,,,3734EJ,Den Dolder,Zeist,Utrecht,VBO,5.233532,52.139892
Willem Arntszlaan,78,,,3734EJ,Den Dolder,Zeist,Utrecht,VBO,5.233444,52.139865
Willem Arntszlaan,80,,,3734EJ,Den Dolder,Zeist,Utrecht,VBO,5.233357,52.139847
Willem Arntszlaan,90,,,3734EJ,Den Dolder,Zeist,Utrecht,VBO,5.231940,52.138329
Willem Arntszlaan,92,,,3734EJ,Den Dolder,Zeist,Utrecht,VBO,5.231835,52.138549
Willem Arntszlaan,94,,,3734EJ,Den Dolder,Zeist,Utrecht,VBO,5.231778,52.138724
Willem Arntszlaan,96,,,3734EJ,Den Dolder,Zeist,Utrecht,VBO,5.231712,52.139052
Willem Arntszlaan,98,,,3734EJ,Den Dolder,Zeist,Utrecht,VBO,5.231788,52.139382
Dr. Van der Hoevenlaan,1,,,3734EK,Den Dolder,Zeist,Utrecht,VBO,5.238311,52.143574
Dr. Van der Hoevenlaan,2,,,3734EK,Den Dolder,Zeist,Utrecht,VBO,5.238236,52.143951
Dr. Van der Hoevenlaan,3,,,3734EK,Den Dolder,Zeist,Utrecht,VBO,5.238179,52.143574
Dr. Van der Hoevenlaan,4,,,3734EK,Den Dolder,Zeist,Utrecht,VBO,5.238105,52.143942
Dr. Van der Hoevenlaan,5,,,3734EK,Den Dolder,Zeist,Utrecht,VBO,5.238106,52.143565
Dr. Van der Hoevenlaan,6,,,3734EK,Den Dolder,Zeist,Utrecht,VBO,5.237944,52.143933
Dr. Van der Hoevenlaan,7,,,3734EK,Den Dolder,Zeist,Utrecht,VBO,5.238019,52.143565
Dr. Van der Hoevenlaan,8,,,3734EK,Den Dolder,Zeist,Utrecht,VBO,5.237623,52.143897
Dr. Van der Hoevenlaan,9,,,3734EK,Den Dolder,Zeist,Utrecht,VBO,5.237931,52.143556
Dr. Van der Hoevenlaan,10,,,3734EK,Den Dolder,Zeist,Utrecht,VBO,5.237477,52.143887
Dr. Van der Hoevenlaan,11,,,3734EK,Den Dolder,Zeist,Utrecht,VBO,5.237829,52.143555
Dr. Van der Hoevenlaan,12,,,3734EK,Den Dolder,Zeist,Utrecht,VBO,5.237316,52.143878
Dr. Van der Hoevenlaan,13,,,3734EK,Den Dolder,Zeist,Utrecht,VBO,5.237726,52.143537
Dr. Van der Hoevenlaan,14,,,3734EK,Den Dolder,Zeist,Utrecht,VBO,5.237185,52.143869
Dr. Van der Hoevenlaan,15,,,3734EK,Den Dolder,Zeist,Utrecht,VBO,5.237580,52.143528
Dr. Van der Hoevenlaan,16,,,3734EK,Den Dolder,Zeist,Utrecht,VBO,5.237024,52.143860
Dr. Van der Hoevenlaan,17,,,3734EK,Den Dolder,Zeist,Utrecht,VBO,5.237493,52.143528
Dr. Van der Hoevenlaan,18,,,3734EK,Den Dolder,Zeist,Utrecht,VBO,5.236470,52.143536
Dr. Van der Hoevenlaan,19,,,3734EK,Den Dolder,Zeist,Utrecht,VBO,5.237405,52.143519
Dr. Van der Hoevenlaan,20,,,3734EK,Den Dolder,Zeist,Utrecht,VBO,5.236485,52.143446
Dr. Van der Hoevenlaan,21,,,3734EK,Den Dolder,Zeist,Utrecht,VBO,5.237303,52.143519
Dr. Van der Hoevenlaan,22,,,3734EK,Den Dolder,Zeist,Utrecht,VBO,5.236485,52.143365
Dr. Van der Hoevenlaan,23,,,3734EK,Den Dolder,Zeist,Utrecht,VBO,5.237215,52.143510
Dr. Van der Hoevenlaan,24,,,3734EK,Den Dolder,Zeist,Utrecht,VBO,5.236529,52.143248
Dr. Van der Hoevenlaan,25,,,3734EK,Den Dolder,Zeist,Utrecht,VBO,5.237128,52.143501
Dr. Van der Hoevenlaan,26,,,3734EK,Den Dolder,Zeist,Utrecht,VBO,5.236559,52.143194
Dr. Van der Hoevenlaan,27,,,3734EK,Den Dolder,Zeist,Utrecht,VBO,5.237011,52.143491
Dr. Van der Hoevenlaan,28,,,3734EK,Den Dolder,Zeist,Utrecht,VBO,5.236574,52.143140
Dr. Van der Hoevenlaan,30,,,3734EK,Den Dolder,Zeist,Utrecht,VBO,5.236589,52.143077
Dr. Van der Hoevenlaan,32,,,3734EK,Den Dolder,Zeist,Utrecht,VBO,5.236574,52.143015
Pleineslaan,1,,,3734EL,Den Dolder,Zeist,Utrecht,VBO,5.237788,52.142737
Pleineslaan,3,,,3734EL,Den Dolder,Zeist,Utrecht,VBO,5.237715,52.142728
Pleineslaan,5,A,,3734EL,Den Dolder,Zeist,Utrecht,VBO,5.237515,52.142543
Pleineslaan,5,,1,3734EL,Den Dolder,Zeist,Utrecht,VBO,5.237468,52.142619
Pleineslaan,5,,,3734EL,Den Dolder,Zeist,Utrecht,VBO,5.237439,52.142731
Pleineslaan,7,,,3734EL,Den Dolder,Zeist,Utrecht,VBO,5.237364,52.142710
Pleineslaan,9,,,3734EL,Den Dolder,Zeist,Utrecht,VBO,5.237101,52.142692
Pleineslaan,11,A,,3734EL,Den Dolder,Zeist,Utrecht,VBO,5.237013,52.142718
Pleineslaan,11,,,3734EL,Den Dolder,Zeist,Utrecht,VBO,5.237013,52.142718
Pleineslaan,13,,,3734EL,Den Dolder,Zeist,Utrecht,VBO,5.236648,52.142691
Pleineslaan,15,,,3734EL,Den Dolder,Zeist,Utrecht,VBO,5.236575,52.142691
Pleineslaan,17,,,3734EL,Den Dolder,Zeist,Utrecht,VBO,5.236312,52.142646
Pleineslaan,19,,,3734EL,Den Dolder,Zeist,Utrecht,VBO,5.236254,52.142673
Pleineslaan,21,,,3734EL,Den Dolder,Zeist,Utrecht,VBO,5.235977,52.142555
Pleineslaan,23,,,3734EL,Den Dolder,Zeist,Utrecht,VBO,5.235918,52.142519
Pleineslaan,25,,,3734EL,Den Dolder,Zeist,Utrecht,VBO,5.235611,52.142582
Pleineslaan,27,,,3734EL,Den Dolder,Zeist,Utrecht,VBO,5.235553,52.142564
Pleineslaan,29,,,3734EL,Den Dolder,Zeist,Utrecht,VBO,5.235261,52.142492
Pleineslaan,31,,,3734EL,Den Dolder,Zeist,Utrecht,VBO,5.235159,52.142491
Pleineslaan,33,,,3734EL,Den Dolder,Zeist,Utrecht,VBO,5.235071,52.142491
Pleineslaan,35,,,3734EL,Den Dolder,Zeist,Utrecht,VBO,5.234998,52.142482
Pleineslaan,37,,,3734EL,Den Dolder,Zeist,Utrecht,VBO,5.234940,52.142491
Pleineslaan,39,,,3734EL,Den Dolder,Zeist,Utrecht,VBO,5.234589,52.142482
Pleineslaan,41,,,3734EM,Den Dolder,Zeist,Utrecht,VBO,5.234531,52.142491
Pleineslaan,43,,,3734EM,Den Dolder,Zeist,Utrecht,VBO,5.234239,52.142490
Pleineslaan,45,,,3734EM,Den Dolder,Zeist,Utrecht,VBO,5.234180,52.142436
Pleineslaan,47,,,3734EM,Den Dolder,Zeist,Utrecht,VBO,5.233932,52.142418
Pleineslaan,49,,,3734EM,Den Dolder,Zeist,Utrecht,VBO,5.233830,52.142454
Pleineslaan,51,,,3734EM,Den Dolder,Zeist,Utrecht,VBO,5.233552,52.142444
Pleineslaan,53,,,3734EM,Den Dolder,Zeist,Utrecht,VBO,5.233494,52.142408
Pleineslaan,55,,,3734EM,Den Dolder,Zeist,Utrecht,VBO,5.233435,52.142381
Pleineslaan,57,,,3734EM,Den Dolder,Zeist,Utrecht,VBO,5.233348,52.142363
Pleineslaan,59,,,3734EM,Den Dolder,Zeist,Utrecht,VBO,5.233173,52.142264
Pleineslaan,61,,,3734EM,Den Dolder,Zeist,Utrecht,VBO,5.233114,52.142264
Pleineslaan,63,,,3734EM,Den Dolder,Zeist,Utrecht,VBO,5.233041,52.142246
Pleineslaan,65,,,3734EM,Den Dolder,Zeist,Utrecht,VBO,5.232968,52.142228
Pleineslaan,67,,,3734EM,Den Dolder,Zeist,Utrecht,VBO,5.232881,52.142192
Pleineslaan,69,,,3734EM,Den Dolder,Zeist,Utrecht,VBO,5.232720,52.142156
Pleineslaan,71,,,3734EM,Den Dolder,Zeist,Utrecht,VBO,5.232647,52.142165
Pleineslaan,73,,,3734EM,Den Dolder,Zeist,Utrecht,VBO,5.232560,52.142111
Pleineslaan,75,,,3734EM,Den Dolder,Zeist,Utrecht,VBO,5.231479,52.141929
Pleineslaan,77,,,3734EM,Den Dolder,Zeist,Utrecht,VBO,5.231188,52.141848
Pleineslaan,79,,,3734EM,Den Dolder,Zeist,Utrecht,VBO,5.230984,52.141713
Pleineslaan,81,,,3734EM,Den Dolder,Zeist,Utrecht,VBO,5.230706,52.141677
Pleineslaan,83,,,3734EM,Den Dolder,Zeist,Utrecht,VBO,5.230458,52.141559
Pleineslaan,85,,,3734EM,Den Dolder,Zeist,Utrecht,VBO,5.230166,52.141523
Pleineslaan,2,,,3734EN,Den Dolder,Zeist,Utrecht,VBO,5.238604,52.143179
Pleineslaan,4,,,3734EN,Den Dolder,Zeist,Utrecht,VBO,5.238531,52.143170
Pleineslaan,6,,,3734EN,Den Dolder,Zeist,Utrecht,VBO,5.238443,52.143170
Pleineslaan,8,,,3734EN,Den Dolder,Zeist,Utrecht,VBO,5.238297,52.143143
Pleineslaan,10,,,3734EN,Den Dolder,Zeist,Utrecht,VBO,5.238210,52.143124
Pleineslaan,12,,,3734EN,Den Dolder,Zeist,Utrecht,VBO,5.238137,52.143124
Pleineslaan,14,A,,3734EN,Den Dolder,Zeist,Utrecht,VBO,5.237904,52.143061
Pleineslaan,14,,,3734EN,Den Dolder,Zeist,Utrecht,VBO,5.237969,52.143068
Pleineslaan,16,,,3734EN,Den Dolder,Zeist,Utrecht,VBO,5.237830,52.143187
Pleineslaan,18,,,3734EN,Den Dolder,Zeist,Utrecht,VBO,5.237611,52.143097
Pleineslaan,20,,,3734EN,Den Dolder,Zeist,Utrecht,VBO,5.237538,52.143088
Pleineslaan,22,,,3734EN,Den Dolder,Zeist,Utrecht,VBO,5.237450,52.143088
Pleineslaan,24,,,3734EN,Den Dolder,Zeist,Utrecht,VBO,5.237304,52.143078
Pleineslaan,26,,,3734EN,Den Dolder,Zeist,Utrecht,VBO,5.237246,52.143060
Pleineslaan,28,,,3734EN,Den Dolder,Zeist,Utrecht,VBO,5.237173,52.143060
Pleineslaan,30,,,3734EN,Den Dolder,Zeist,Utrecht,VBO,5.237100,52.143051
Pleineslaan,32,B,,3734EN,Den Dolder,Zeist,Utrecht,VBO,5.236372,52.142980
Pleineslaan,32,C,,3734EN,Den Dolder,Zeist,Utrecht,VBO,5.236325,52.143104
Pleineslaan,32,D,,3734EN,Den Dolder,Zeist,Utrecht,VBO,5.236253,52.143014
Pleineslaan,32,E,,3734EN,Den Dolder,Zeist,Utrecht,VBO,5.236092,52.142969
Pleineslaan,32,F,,3734EN,Den Dolder,Zeist,Utrecht,VBO,5.236019,52.142969
Pleineslaan,32,G,,3734EN,Den Dolder,Zeist,Utrecht,VBO,5.235873,52.142942
Pleineslaan,32,H,,3734EN,Den Dolder,Zeist,Utrecht,VBO,5.235800,52.142951
Pleineslaan,32,,,3734EN,Den Dolder,Zeist,Utrecht,VBO,5.236998,52.143051
Pleineslaan,34,,,3734EN,Den Dolder,Zeist,Utrecht,VBO,5.235537,52.142923
Pleineslaan,36,,,3734EN,Den Dolder,Zeist,Utrecht,VBO,5.235479,52.142941
Pleineslaan,38,,,3734EN,Den Dolder,Zeist,Utrecht,VBO,5.235172,52.142950
Pleineslaan,40,,,3734EP,Den Dolder,Zeist,Utrecht,VBO,5.235070,52.142959
Pleineslaan,42,,,3734EP,Den Dolder,Zeist,Utrecht,VBO,5.234982,52.142941
Pleineslaan,44,,,3734EP,Den Dolder,Zeist,Utrecht,VBO,5.234924,52.142931
Pleineslaan,46,,,3734EP,Den Dolder,Zeist,Utrecht,VBO,5.234821,52.142913
Pleineslaan,48,,,3734EP,Den Dolder,Zeist,Utrecht,VBO,5.234529,52.142877
Pleineslaan,50,,,3734EP,Den Dolder,Zeist,Utrecht,VBO,5.234486,52.142850
Pleineslaan,52,,,3734EP,Den Dolder,Zeist,Utrecht,VBO,5.234194,52.142787
Pleineslaan,54,,,3734EP,Den Dolder,Zeist,Utrecht,VBO,5.234091,52.142796
Pleineslaan,56,,,3734EP,Den Dolder,Zeist,Utrecht,VBO,5.234004,52.142787
Pleineslaan,58,,,3734EP,Den Dolder,Zeist,Utrecht,VBO,5.233916,52.142777
Pleineslaan,60,,,3734EP,Den Dolder,Zeist,Utrecht,VBO,5.233668,52.142759
Pleineslaan,62,,,3734EP,Den Dolder,Zeist,Utrecht,VBO,5.233566,52.142750
Pleineslaan,64,,,3734EP,Den Dolder,Zeist,Utrecht,VBO,5.233522,52.142714
Pleineslaan,66,,,3734EP,Den Dolder,Zeist,Utrecht,VBO,5.233434,52.142705
Pleineslaan,68,,,3734ER,Den Dolder,Zeist,Utrecht,VBO,5.233128,52.142669
Pleineslaan,70,,,3734ER,Den Dolder,Zeist,Utrecht,VBO,5.233069,52.142650
Pleineslaan,72,,,3734ER,Den Dolder,Zeist,Utrecht,VBO,5.233011,52.142632
Pleineslaan,74,,,3734ER,Den Dolder,Zeist,Utrecht,VBO,5.232938,52.142605
Pleineslaan,76,,,3734ER,Den Dolder,Zeist,Utrecht,VBO,5.232836,52.142596
Pleineslaan,78,,,3734ER,Den Dolder,Zeist,Utrecht,VBO,5.232675,52.142560
Pleineslaan,80,,,3734ER,Den Dolder,Zeist,Utrecht,VBO,5.232617,52.142551
Pleineslaan,82,,,3734ER,Den Dolder,Zeist,Utrecht,VBO,5.232558,52.142533
Pleineslaan,84,,,3734ER,Den Dolder,Zeist,Utrecht,VBO,5.232471,52.142524
Pleineslaan,86,,,3734ER,Den Dolder,Zeist,Utrecht,VBO,5.232369,52.142515
Pleineslaan,88,,,3734ER,Den Dolder,Zeist,Utrecht,VBO,5.231945,52.142442
Pleineslaan,90,,,3734ER,Den Dolder,Zeist,Utrecht,VBO,5.231872,52.142424
Pleineslaan,92,,,3734ER,Den Dolder,Zeist,Utrecht,VBO,5.231785,52.142415
Pleineslaan,94,,,3734ER,Den Dolder,Zeist,Utrecht,VBO,5.231712,52.142388
Pleineslaan,96,,,3734ER,Den Dolder,Zeist,Utrecht,VBO,5.231522,52.142361
Pleineslaan,98,,,3734ER,Den Dolder,Zeist,Utrecht,VBO,5.231434,52.142343
Pleineslaan,100,,,3734ER,Den Dolder,Zeist,Utrecht,VBO,5.231215,52.142289
Pleineslaan,102,,,3734ER,Den Dolder,Zeist,Utrecht,VBO,5.231128,52.142270
Pleineslaan,104,,,3734ER,Den Dolder,Zeist,Utrecht,VBO,5.230807,52.142180
Pleineslaan,106,A,,3734ER,Den Dolder,Zeist,Utrecht,VBO,5.229256,52.142654
Pleineslaan,106,,,3734ER,Den Dolder,Zeist,Utrecht,VBO,5.230646,52.142117
Andreas Foxlaan,29,,,3734GA,Den Dolder,Zeist,Utrecht,VBO,5.245000,52.139430
Andreas Foxlaan,31,,,3734GA,Den Dolder,Zeist,Utrecht,VBO,5.244956,52.139457
Andreas Foxlaan,33,,,3734GA,Den Dolder,Zeist,Utrecht,VBO,5.244912,52.139502
Andreas Foxlaan,35,,,3734GA,Den Dolder,Zeist,Utrecht,VBO,5.244854,52.139537
Andreas Foxlaan,37,,,3734GA,Den Dolder,Zeist,Utrecht,VBO,5.244780,52.139591
Andreas Foxlaan,39,,,3734GA,Den Dolder,Zeist,Utrecht,VBO,5.244737,52.139627
Andreas Foxlaan,41,,,3734GA,Den Dolder,Zeist,Utrecht,VBO,5.244693,52.139654
Andreas Foxlaan,43,,,3734GA,Den Dolder,Zeist,Utrecht,VBO,5.244561,52.139717
Andreas Foxlaan,45,,,3734GA,Den Dolder,Zeist,Utrecht,VBO,5.244532,52.139762
Andreas Foxlaan,47,,,3734GA,Den Dolder,Zeist,Utrecht,VBO,5.244473,52.139789
Andreas Foxlaan,49,,,3734GA,Den Dolder,Zeist,Utrecht,VBO,5.244415,52.139825
Andreas Foxlaan,51,,,3734GA,Den Dolder,Zeist,Utrecht,VBO,5.244371,52.139860
Andreas Foxlaan,53,,,3734GA,Den Dolder,Zeist,Utrecht,VBO,5.244297,52.139914
Andreas Foxlaan,55,,,3734GA,Den Dolder,Zeist,Utrecht,VBO,5.244268,52.139941
Vliegdennen,2,,,3734GA,Den Dolder,Zeist,Utrecht,VBO,5.243335,52.139374
Vliegdennen,4,,,3734GA,Den Dolder,Zeist,Utrecht,VBO,5.243335,52.139374
Vliegdennen,6,,,3734GA,Den Dolder,Zeist,Utrecht,VBO,5.243335,52.139374
Vliegdennen,8,,,3734GA,Den Dolder,Zeist,Utrecht,VBO,5.243335,52.139374
Vliegdennen,10,,,3734GA,Den Dolder,Zeist,Utrecht,VBO,5.243335,52.139374
Vliegdennen,12,,,3734GA,Den Dolder,Zeist,Utrecht,VBO,5.243335,52.139374
Vliegdennen,14,,,3734GA,Den Dolder,Zeist,Utrecht,VBO,5.243583,52.139563
Vliegdennen,16,,,3734GA,Den Dolder,Zeist,Utrecht,VBO,5.243583,52.139563
Vliegdennen,18,,,3734GA,Den Dolder,Zeist,Utrecht,VBO,5.243583,52.139563
Vliegdennen,20,,,3734GA,Den Dolder,Zeist,Utrecht,VBO,5.243583,52.139563
Andreas Foxlaan,14,,,3734GB,Den Dolder,Zeist,Utrecht,VBO,5.245350,52.139592
Andreas Foxlaan,16,,,3734GB,Den Dolder,Zeist,Utrecht,VBO,5.245379,52.139619
Andreas Foxlaan,18,,,3734GB,Den Dolder,Zeist,Utrecht,VBO,5.245438,52.139655
Andreas Foxlaan,20,,,3734GB,Den Dolder,Zeist,Utrecht,VBO,5.245481,52.139700
Andreas Foxlaan,22,,,3734GB,Den Dolder,Zeist,Utrecht,VBO,5.245539,52.139763
Andreas Foxlaan,24,,,3734GB,Den Dolder,Zeist,Utrecht,VBO,5.245569,52.139781
Andreas Foxlaan,26,,,3734GB,Den Dolder,Zeist,Utrecht,VBO,5.245422,52.139880
Andreas Foxlaan,28,,,3734GB,Den Dolder,Zeist,Utrecht,VBO,5.245349,52.139898
Andreas Foxlaan,30,,,3734GB,Den Dolder,Zeist,Utrecht,VBO,5.245276,52.139924
Andreas Foxlaan,32,,,3734GB,Den Dolder,Zeist,Utrecht,VBO,5.245232,52.139951
Andreas Foxlaan,34,,,3734GB,Den Dolder,Zeist,Utrecht,VBO,5.245159,52.139987
Andreas Foxlaan,36,,,3734GB,Den Dolder,Zeist,Utrecht,VBO,5.245086,52.140023
Andreas Foxlaan,38,,,3734GB,Den Dolder,Zeist,Utrecht,VBO,5.245027,52.140050
Andreas Foxlaan,40,,,3734GB,Den Dolder,Zeist,Utrecht,VBO,5.244969,52.140086
Andreas Foxlaan,42,,,3734GB,Den Dolder,Zeist,Utrecht,VBO,5.244749,52.140211
Andreas Foxlaan,44,,,3734GB,Den Dolder,Zeist,Utrecht,VBO,5.244676,52.140202
Andreas Foxlaan,46,,,3734GB,Den Dolder,Zeist,Utrecht,VBO,5.244618,52.140175
Andreas Foxlaan,48,,,3734GB,Den Dolder,Zeist,Utrecht,VBO,5.244545,52.140157
Fornheselaan,2,A,,3734GC,Den Dolder,Zeist,Utrecht,VBO,5.242881,52.139733
Fornheselaan,2,B,,3734GC,Den Dolder,Zeist,Utrecht,VBO,5.242837,52.139751
Fornheselaan,2,C,,3734GC,Den Dolder,Zeist,Utrecht,VBO,5.242910,52.139742
Fornheselaan,2,D,,3734GC,Den Dolder,Zeist,Utrecht,VBO,5.242866,52.139769
Fornheselaan,2,,,3734GC,Den Dolder,Zeist,Utrecht,VBO,5.242954,52.139724
Fornheselaan,4,A,,3734GC,Den Dolder,Zeist,Utrecht,VBO,5.242808,52.139733
Fornheselaan,4,B,,3734GC,Den Dolder,Zeist,Utrecht,VBO,5.242954,52.139679
Fornheselaan,4,C,,3734GC,Den Dolder,Zeist,Utrecht,VBO,5.242910,52.139706
Fornheselaan,4,D,,3734GC,Den Dolder,Zeist,Utrecht,VBO,5.242998,52.139697
Fornheselaan,4,,,3734GC,Den Dolder,Zeist,Utrecht,VBO,5.242837,52.139715
Fornheselaan,6,A,,3734GC,Den Dolder,Zeist,Utrecht,VBO,5.242925,52.139661
Fornheselaan,6,B,,3734GC,Den Dolder,Zeist,Utrecht,VBO,5.242881,52.139688
Fornheselaan,6,C,,3734GC,Den Dolder,Zeist,Utrecht,VBO,5.242832,52.139619
Fornheselaan,6,D,,3734GC,Den Dolder,Zeist,Utrecht,VBO,5.242764,52.139724
Fornheselaan,6,E,,3734GC,Den Dolder,Zeist,Utrecht,VBO,5.242881,52.139643
Fornheselaan,6,,,3734GC,Den Dolder,Zeist,Utrecht,VBO,5.242852,52.139670
Fornheselaan,8,,,3734GC,Den Dolder,Zeist,Utrecht,VBO,5.243041,52.140093
Fornheselaan,10,,,3734GC,Den Dolder,Zeist,Utrecht,VBO,5.243084,52.140120
Fornheselaan,12,,,3734GC,Den Dolder,Zeist,Utrecht,VBO,5.243128,52.140120
Fornheselaan,14,,,3734GC,Den Dolder,Zeist,Utrecht,VBO,5.243172,52.140129
Fornheselaan,16,,,3734GC,Den Dolder,Zeist,Utrecht,VBO,5.243201,52.140138
Fornheselaan,18,,,3734GC,Den Dolder,Zeist,Utrecht,VBO,5.243245,52.140156
Fornheselaan,20,,,3734GC,Den Dolder,Zeist,Utrecht,VBO,5.243289,52.140174
Fornheselaan,22,,,3734GC,Den Dolder,Zeist,Utrecht,VBO,5.243332,52.140183
Fornheselaan,24,,,3734GC,Den Dolder,Zeist,Utrecht,VBO,5.243376,52.140183
Fornheselaan,26,,,3734GC,Den Dolder,Zeist,Utrecht,VBO,5.243405,52.140210
Fornheselaan,28,,,3734GC,Den Dolder,Zeist,Utrecht,VBO,5.243464,52.140201
Fornheselaan,30,,,3734GC,Den Dolder,Zeist,Utrecht,VBO,5.243508,52.140219
Fornheselaan,32,,,3734GC,Den Dolder,Zeist,Utrecht,VBO,5.243610,52.140219
Fornheselaan,34,,,3734GC,Den Dolder,Zeist,Utrecht,VBO,5.243683,52.140246
Fornheselaan,36,,,3734GC,Den Dolder,Zeist,Utrecht,VBO,5.243712,52.140237
Fornheselaan,38,,,3734GC,Den Dolder,Zeist,Utrecht,VBO,5.243770,52.140255
Fornheselaan,40,,,3734GC,Den Dolder,Zeist,Utrecht,VBO,5.243814,52.140264
Fornheselaan,42,,,3734GC,Den Dolder,Zeist,Utrecht,VBO,5.243873,52.140291
Fornheselaan,44,,,3734GC,Den Dolder,Zeist,Utrecht,VBO,5.243916,52.140309
Fornheselaan,46,,,3734GC,Den Dolder,Zeist,Utrecht,VBO,5.243960,52.140318
Fornheselaan,48,,,3734GC,Den Dolder,Zeist,Utrecht,VBO,5.244004,52.140318
Vliegdennen,1,,,3734GC,Den Dolder,Zeist,Utrecht,VBO,5.243277,52.139329
Vliegdennen,3,,,3734GC,Den Dolder,Zeist,Utrecht,VBO,5.243306,52.139311
Vliegdennen,5,,,3734GC,Den Dolder,Zeist,Utrecht,VBO,5.243277,52.139293
Vliegdennen,7,,,3734GC,Den Dolder,Zeist,Utrecht,VBO,5.243248,52.139311
Vliegdennen,9,,,3734GC,Den Dolder,Zeist,Utrecht,VBO,5.243291,52.139320
Vliegdennen,11,,,3734GC,Den Dolder,Zeist,Utrecht,VBO,5.243291,52.139311
Vliegdennen,13,,,3734GC,Den Dolder,Zeist,Utrecht,VBO,5.243510,52.139554
Vliegdennen,15,,,3734GC,Den Dolder,Zeist,Utrecht,VBO,5.243583,52.139608
Vliegdennen,17,,,3734GC,Den Dolder,Zeist,Utrecht,VBO,5.243612,52.139599
Vliegdennen,19,,,3734GC,Den Dolder,Zeist,Utrecht,VBO,5.243583,52.139590
Vliegdennen,21,,,3734GC,Den Dolder,Zeist,Utrecht,VBO,5.243583,52.139581
Fornheselaan,50,,,3734GD,Den Dolder,Zeist,Utrecht,VBO,5.243026,52.140092
Fornheselaan,52,,,3734GD,Den Dolder,Zeist,Utrecht,VBO,5.243114,52.140102
Fornheselaan,54,,,3734GD,Den Dolder,Zeist,Utrecht,VBO,5.243128,52.140111
Fornheselaan,56,,,3734GD,Den Dolder,Zeist,Utrecht,VBO,5.243187,52.140129
Fornheselaan,58,,,3734GD,Den Dolder,Zeist,Utrecht,VBO,5.243245,52.140138
Fornheselaan,60,,,3734GD,Den Dolder,Zeist,Utrecht,VBO,5.243318,52.140156
Fornheselaan,62,,,3734GD,Den Dolder,Zeist,Utrecht,VBO,5.243639,52.140183
Fornheselaan,64,,,3734GD,Den Dolder,Zeist,Utrecht,VBO,5.243362,52.140174
Fornheselaan,66,,,3734GD,Den Dolder,Zeist,Utrecht,VBO,5.243435,52.140192
Fornheselaan,68,,,3734GD,Den Dolder,Zeist,Utrecht,VBO,5.243478,52.140201
Fornheselaan,70,,,3734GD,Den Dolder,Zeist,Utrecht,VBO,5.243537,52.140201
Fornheselaan,72,,,3734GD,Den Dolder,Zeist,Utrecht,VBO,5.243610,52.140210
Fornheselaan,74,,,3734GD,Den Dolder,Zeist,Utrecht,VBO,5.243712,52.140228
Fornheselaan,76,,,3734GD,Den Dolder,Zeist,Utrecht,VBO,5.243727,52.140246
Fornheselaan,78,,,3734GD,Den Dolder,Zeist,Utrecht,VBO,5.243785,52.140255
Fornheselaan,80,,,3734GD,Den Dolder,Zeist,Utrecht,VBO,5.243829,52.140282
Fornheselaan,82,,,3734GD,Den Dolder,Zeist,Utrecht,VBO,5.243902,52.140273
Fornheselaan,84,,,3734GD,Den Dolder,Zeist,Utrecht,VBO,5.243946,52.140291
Fornheselaan,86,,,3734GD,Den Dolder,Zeist,Utrecht,VBO,5.243989,52.140300
Fornheselaan,88,,,3734GD,Den Dolder,Zeist,Utrecht,VBO,5.244019,52.140318
Fornheselaan,90,,,3734GE,Den Dolder,Zeist,Utrecht,VBO,5.243230,52.140138
Fornheselaan,92,,,3734GE,Den Dolder,Zeist,Utrecht,VBO,5.243289,52.140138
Fornheselaan,94,,,3734GE,Den Dolder,Zeist,Utrecht,VBO,5.243362,52.140165
Fornheselaan,96,,,3734GE,Den Dolder,Zeist,Utrecht,VBO,5.243376,52.140174
Fornheselaan,98,,,3734GE,Den Dolder,Zeist,Utrecht,VBO,5.243449,52.140192
Fornheselaan,100,,,3734GE,Den Dolder,Zeist,Utrecht,VBO,5.243508,52.140210
Fornheselaan,102,,,3734GE,Den Dolder,Zeist,Utrecht,VBO,5.243551,52.140192
Fornheselaan,104,,,3734GE,Den Dolder,Zeist,Utrecht,VBO,5.243654,52.140210
Fornheselaan,106,,,3734GE,Den Dolder,Zeist,Utrecht,VBO,5.243683,52.140210
Fornheselaan,108,,,3734GE,Den Dolder,Zeist,Utrecht,VBO,5.243727,52.140228
Fornheselaan,110,,,3734GE,Den Dolder,Zeist,Utrecht,VBO,5.243785,52.140246
Fornheselaan,112,,,3734GE,Den Dolder,Zeist,Utrecht,VBO,5.243858,52.140264
Fornheselaan,114,,,3734GE,Den Dolder,Zeist,Utrecht,VBO,5.243931,52.140282
Fornheselaan,116,,,3734GE,Den Dolder,Zeist,Utrecht,VBO,5.243989,52.140291
Fornheselaan,118,,,3734GE,Den Dolder,Zeist,Utrecht,VBO,5.246807,52.140762
Fornheselaan,120,,,3734GE,Den Dolder,Zeist,Utrecht,VBO,5.246734,52.140708
Fornheselaan,122,,,3734GE,Den Dolder,Zeist,Utrecht,VBO,5.246836,52.140744
Fornheselaan,124,A,,3734GE,Den Dolder,Zeist,Utrecht,VBO,5.247073,52.140749
Fornheselaan,124,B,,3734GE,Den Dolder,Zeist,Utrecht,VBO,5.247094,52.140717
Fornheselaan,124,,,3734GE,Den Dolder,Zeist,Utrecht,VBO,5.247056,52.140774
Fornheselaan,126,,,3734GE,Den Dolder,Zeist,Utrecht,VBO,5.247330,52.140326
Fornheselaan,128,,,3734GE,Den Dolder,Zeist,Utrecht,VBO,5.247619,52.140125
Fornheselaan,138,,,3734GE,Den Dolder,Zeist,Utrecht,VBO,5.247918,52.140584
Fornheselaan,140,,,3734GE,Den Dolder,Zeist,Utrecht,VBO,5.247508,52.140871
Fornheselaan,150,,,3734GE,Den Dolder,Zeist,Utrecht,VBO,5.248428,52.141133
Fornheselaan,154,,,3734GE,Den Dolder,Zeist,Utrecht,VBO,5.249101,52.140612
Fornheselaan,156,,,3734GE,Den Dolder,Zeist,Utrecht,VBO,5.248722,52.140324
Fornheselaan,158,,,3734GE,Den Dolder,Zeist,Utrecht,VBO,5.249657,52.140316
Fornheselaan,162,,,3734GE,Den Dolder,Zeist,Utrecht,VBO,5.249480,52.140918
Fornheselaan,164,,,3734GE,Den Dolder,Zeist,Utrecht,VBO,5.249757,52.140990
Fornheselaan,180,,,3734GE,Den Dolder,Zeist,Utrecht,VBO,5.249960,52.141674
Fornheselaan,198,,,3734GE,Den Dolder,Zeist,Utrecht,VBO,5.250821,52.141917
Fornheselaan,202,,,3734GE,Den Dolder,Zeist,Utrecht,VBO,5.252645,52.142540
Fornheselaan,206,,,3734GE,Den Dolder,Zeist,Utrecht,VBO,5.253115,52.142639
Fornheselaan,208,A,,3734GE,Den Dolder,Zeist,Utrecht,VBO,5.253213,52.142482
Fornheselaan,208,,,3734GE,Den Dolder,Zeist,Utrecht,VBO,5.253166,52.142564
Fornheselaan,210,A,,3734GE,Den Dolder,Zeist,Utrecht,VBO,5.253341,52.142309
Fornheselaan,210,,,3734GE,Den Dolder,Zeist,Utrecht,VBO,5.253260,52.142411
Fornheselaan,212,A,,3734GE,Den Dolder,Zeist,Utrecht,VBO,5.253521,52.142052
Fornheselaan,212,B,,3734GE,Den Dolder,Zeist,Utrecht,VBO,5.253597,52.141932
Fornheselaan,212,,,3734GE,Den Dolder,Zeist,Utrecht,VBO,5.253431,52.142183
Fornheselaan,214,A,,3734GE,Den Dolder,Zeist,Utrecht,VBO,5.253694,52.141771
Fornheselaan,214,,,3734GE,Den Dolder,Zeist,Utrecht,VBO,5.253591,52.141872
Fornheselaan,216,A,,3734GE,Den Dolder,Zeist,Utrecht,VBO,5.253879,52.141503
Fornheselaan,216,,,3734GE,Den Dolder,Zeist,Utrecht,VBO,5.253780,52.141637
Fornheselaan,220,,,3734GE,Den Dolder,Zeist,Utrecht,VBO,5.255073,52.141737
Fornheselaan,222,,,3734GE,Den Dolder,Zeist,Utrecht,VBO,5.254156,52.141795
Fornheselaan,224,,,3734GE,Den Dolder,Zeist,Utrecht,VBO,5.254217,52.141814
Fornheselaan,226,,,3734GE,Den Dolder,Zeist,Utrecht,VBO,5.254274,52.141828
Fornheselaan,228,,,3734GE,Den Dolder,Zeist,Utrecht,VBO,5.254332,52.141843
Fornheselaan,230,,,3734GE,Den Dolder,Zeist,Utrecht,VBO,5.254376,52.141856
Fornheselaan,232,,,3734GE,Den Dolder,Zeist,Utrecht,VBO,5.254427,52.141868
Fornheselaan,234,,,3734GE,Den Dolder,Zeist,Utrecht,VBO,5.254471,52.141874
Fornheselaan,236,,,3734GE,Den Dolder,Zeist,Utrecht,VBO,5.254517,52.141887
Fornheselaan,238,,,3734GE,Den Dolder,Zeist,Utrecht,VBO,5.254581,52.141903
Fornheselaan,240,,,3734GE,Den Dolder,Zeist,Utrecht,VBO,5.254664,52.141923
Fornheselaan,242,,,3734GE,Den Dolder,Zeist,Utrecht,VBO,5.254792,52.141960
Fornheselaan,244,,,3734GE,Den Dolder,Zeist,Utrecht,VBO,5.254913,52.141997
Fornheselaan,246,,,3734GE,Den Dolder,Zeist,Utrecht,VBO,5.255045,52.142031
Fornheselaan,248,,,3734GE,Den Dolder,Zeist,Utrecht,VBO,5.255211,52.142061
Fornheselaan,250,,,3734GE,Den Dolder,Zeist,Utrecht,VBO,5.254140,52.142068
Fornheselaan,252,,,3734GE,Den Dolder,Zeist,Utrecht,VBO,5.254198,52.142076
Fornheselaan,254,,,3734GE,Den Dolder,Zeist,Utrecht,VBO,5.254297,52.142100
Fornheselaan,256,,,3734GE,Den Dolder,Zeist,Utrecht,VBO,5.254401,52.142133
Fornheselaan,258,,,3734GE,Den Dolder,Zeist,Utrecht,VBO,5.254501,52.142156
Fornheselaan,260,,,3734GE,Den Dolder,Zeist,Utrecht,VBO,5.254587,52.142184
Fornheselaan,262,,,3734GE,Den Dolder,Zeist,Utrecht,VBO,5.254701,52.142213
Fornheselaan,264,,,3734GE,Den Dolder,Zeist,Utrecht,VBO,5.254810,52.142244
Fornheselaan,266,,,3734GE,Den Dolder,Zeist,Utrecht,VBO,5.254878,52.142262
Fornheselaan,268,,,3734GE,Den Dolder,Zeist,Utrecht,VBO,5.254941,52.142280
Fornheselaan,270,,,3734GE,Den Dolder,Zeist,Utrecht,VBO,5.254981,52.142289
Fornheselaan,272,,,3734GE,Den Dolder,Zeist,Utrecht,VBO,5.255038,52.142303
Fornheselaan,274,,,3734GE,Den Dolder,Zeist,Utrecht,VBO,5.254038,52.142237
Fornheselaan,276,,,3734GE,Den Dolder,Zeist,Utrecht,VBO,5.254149,52.142269
Fornheselaan,278,,,3734GE,Den Dolder,Zeist,Utrecht,VBO,5.254244,52.142297
Fornheselaan,280,,,3734GE,Den Dolder,Zeist,Utrecht,VBO,5.254344,52.142327
Fornheselaan,282,,,3734GE,Den Dolder,Zeist,Utrecht,VBO,5.254443,52.142349
Fornheselaan,284,,,3734GE,Den Dolder,Zeist,Utrecht,VBO,5.254531,52.142373
Fornheselaan,286,,,3734GE,Den Dolder,Zeist,Utrecht,VBO,5.254664,52.142370
Fornheselaan,290,,,3734GE,Den Dolder,Zeist,Utrecht,VBO,5.254775,52.142438
Fornheselaan,292,,,3734GE,Den Dolder,Zeist,Utrecht,VBO,5.254892,52.142467
Paduahof,2,,,3734GG,Den Dolder,Zeist,Utrecht,VBO,5.240897,52.139002
Paduahof,4,,,3734GG,Den Dolder,Zeist,Utrecht,VBO,5.241014,52.138913
Paduahof,6,,,3734GG,Den Dolder,Zeist,Utrecht,VBO,5.241160,52.138877
Paduahof,8,,,3734GG,Den Dolder,Zeist,Utrecht,VBO,5.241335,52.138859
Paduahof,10,,,3734GG,Den Dolder,Zeist,Utrecht,VBO,5.241467,52.138868
Paduahof,12,,,3734GG,Den Dolder,Zeist,Utrecht,VBO,5.241613,52.138886
Paduahof,14,,,3734GG,Den Dolder,Zeist,Utrecht,VBO,5.241759,52.138931
Paduahof,16,,,3734GG,Den Dolder,Zeist,Utrecht,VBO,5.241876,52.138995
Paduaweg,1,A,,3734GG,Den Dolder,Zeist,Utrecht,VBO,5.241406,52.139524
Paduaweg,1,B,,3734GG,Den Dolder,Zeist,Utrecht,VBO,5.241275,52.139479
Paduaweg,1,C,,3734GG,Den Dolder,Zeist,Utrecht,VBO,5.240720,52.139308
Paduaweg,1,D,,3734GG,Den Dolder,Zeist,Utrecht,VBO,5.240546,52.139218
Paduaweg,1,E,,3734GG,Den Dolder,Zeist,Utrecht,VBO,5.240983,52.139299
Paduaweg,1,F,,3734GG,Den Dolder,Zeist,Utrecht,VBO,5.240808,52.139263
Paduaweg,1,G,,3734GG,Den Dolder,Zeist,Utrecht,VBO,5.240167,52.138956
Paduaweg,1,H,,3734GG,Den Dolder,Zeist,Utrecht,VBO,5.240079,52.138929
Paduaweg,1,J,,3734GG,Den Dolder,Zeist,Utrecht,VBO,5.240852,52.139218
Paduaweg,1,K,,3734GG,Den Dolder,Zeist,Utrecht,VBO,5.240852,52.139227
Paduaweg,1,L,,3734GG,Den Dolder,Zeist,Utrecht,VBO,5.240823,52.139227
Paduaweg,1,M,,3734GG,Den Dolder,Zeist,Utrecht,VBO,5.240167,52.138956
Paduaweg,1,N,,3734GG,Den Dolder,Zeist,Utrecht,VBO,5.240808,52.139263
Paduaweg,1,,,3734GG,Den Dolder,Zeist,Utrecht,VBO,5.240706,52.139362
Paduaweg,3,A,,3734GG,Den Dolder,Zeist,Utrecht,VBO,5.240137,52.139109
Paduaweg,3,B,,3734GG,Den Dolder,Zeist,Utrecht,VBO,5.240137,52.139109
Paduaweg,3,C,,3734GG,Den Dolder,Zeist,Utrecht,VBO,5.240137,52.139109
Paduaweg,3,D,,3734GG,Den Dolder,Zeist,Utrecht,VBO,5.240137,52.139109
Paduaweg,3,E,,3734GG,Den Dolder,Zeist,Utrecht,VBO,5.240137,52.139109
Paduaweg,3,G,,3734GG,Den Dolder,Zeist,Utrecht,VBO,5.240137,52.139109
Paduaweg,3,H,,3734GG,Den Dolder,Zeist,Utrecht,VBO,5.240137,52.139109
Paduaweg,3,J,,3734GG,Den Dolder,Zeist,Utrecht,VBO,5.240137,52.139109
Paduaweg,3,,,3734GG,Den Dolder,Zeist,Utrecht,VBO,5.240137,52.139208
Paduaweg,5,A,,3734GG,Den Dolder,Zeist,Utrecht,VBO,5.239757,52.139127
Paduaweg,5,B,,3734GG,Den Dolder,Zeist,Utrecht,VBO,5.239669,52.139109
Paduaweg,5,C,,3734GG,Den Dolder,Zeist,Utrecht,VBO,5.239582,52.139082
Paduaweg,5,D,,3734GG,Den Dolder,Zeist,Utrecht,VBO,5.239086,52.138946
Paduaweg,7,A,,3734GG,Den Dolder,Zeist,Utrecht,VBO,5.238838,52.138874
Paduaweg,7,B,,3734GG,Den Dolder,Zeist,Utrecht,VBO,5.238706,52.138838
Paduaweg,7,C,,3734GG,Den Dolder,Zeist,Utrecht,VBO,5.238604,52.138811
Paduaweg,7,,,3734GG,Den Dolder,Zeist,Utrecht,VBO,5.238938,52.138893
Paduaweg,9,A,,3734GG,Den Dolder,Zeist,Utrecht,VBO,5.238371,52.138756
Paduaweg,9,B,,3734GG,Den Dolder,Zeist,Utrecht,VBO,5.238268,52.138729
Paduaweg,9,C,,3734GG,Den Dolder,Zeist,Utrecht,VBO,5.238166,52.138702
Paduaweg,9,D,,3734GG,Den Dolder,Zeist,Utrecht,VBO,5.238020,52.138666
Paduaweg,9,E,,3734GG,Den Dolder,Zeist,Utrecht,VBO,5.237947,52.138648
Paduaweg,9,F,,3734GG,Den Dolder,Zeist,Utrecht,VBO,5.237860,52.138621
Paduaweg,9,G,,3734GG,Den Dolder,Zeist,Utrecht,VBO,5.237743,52.138594
Paduaweg,9,H,,3734GG,Den Dolder,Zeist,Utrecht,VBO,5.237597,52.138522
Paduaweg,9,,,3734GG,Den Dolder,Zeist,Utrecht,VBO,5.238429,52.138775
Paduaweg,11,A,,3734GH,Den Dolder,Zeist,Utrecht,VBO,5.237308,52.138423
Paduaweg,11,B,,3734GH,Den Dolder,Zeist,Utrecht,VBO,5.237136,52.138372
Paduaweg,11,C,,3734GH,Den Dolder,Zeist,Utrecht,VBO,5.237052,52.138344
Paduaweg,11,,,3734GH,Den Dolder,Zeist,Utrecht,VBO,5.237383,52.138446
Paduaweg,15,,,3734GH,Den Dolder,Zeist,Utrecht,VBO,5.236795,52.138269
Paduaweg,17,,,3734GH,Den Dolder,Zeist,Utrecht,VBO,5.236707,52.138242
Paduaweg,19,,,3734GH,Den Dolder,Zeist,Utrecht,VBO,5.236590,52.138215
Paduaweg,25,,,3734GH,Den Dolder,Zeist,Utrecht,VBO,5.235948,52.138079
Paduaweg,27,,,3734GH,Den Dolder,Zeist,Utrecht,VBO,5.235846,52.138070
Paduaweg,29,,,3734GH,Den Dolder,Zeist,Utrecht,VBO,5.235773,52.138043
Paduaweg,31,,,3734GH,Den Dolder,Zeist,Utrecht,VBO,5.235685,52.138016
Paduaweg,33,,,3734GH,Den Dolder,Zeist,Utrecht,VBO,5.235525,52.137980
Paduaweg,35,,,3734GH,Den Dolder,Zeist,Utrecht,VBO,5.235437,52.137980
Paduaweg,37,,,3734GH,Den Dolder,Zeist,Utrecht,VBO,5.235364,52.137962
Paduaweg,39,,,3734GH,Den Dolder,Zeist,Utrecht,VBO,5.235277,52.137944
Paduaweg,41,,,3734GH,Den Dolder,Zeist,Utrecht,VBO,5.235189,52.137926
Paduaweg,43,,,3734GH,Den Dolder,Zeist,Utrecht,VBO,5.235102,52.137880
Paduaweg,45,,,3734GH,Den Dolder,Zeist,Utrecht,VBO,5.234956,52.137835
Paduaweg,47,,,3734GH,Den Dolder,Zeist,Utrecht,VBO,5.234868,52.137835
Paduaweg,49,,,3734GH,Den Dolder,Zeist,Utrecht,VBO,5.234810,52.137817
Paduaweg,51,,,3734GH,Den Dolder,Zeist,Utrecht,VBO,5.234722,52.137790
Paduaweg,53,,,3734GH,Den Dolder,Zeist,Utrecht,VBO,5.234634,52.137772
Paduaweg,55,,,3734GH,Den Dolder,Zeist,Utrecht,VBO,5.234547,52.137718
Paduaweg,57,,,3734GH,Den Dolder,Zeist,Utrecht,VBO,5.234386,52.137682
Paduaweg,59,,,3734GH,Den Dolder,Zeist,Utrecht,VBO,5.234299,52.137673
Paduaweg,61,,,3734GJ,Den Dolder,Zeist,Utrecht,VBO,5.234241,52.137637
Paduaweg,63,,,3734GJ,Den Dolder,Zeist,Utrecht,VBO,5.234153,52.137610
Paduaweg,65,,,3734GJ,Den Dolder,Zeist,Utrecht,VBO,5.234065,52.137592
Paduaweg,67,,,3734GJ,Den Dolder,Zeist,Utrecht,VBO,5.233963,52.137564
Paduaweg,69,,,3734GJ,Den Dolder,Zeist,Utrecht,VBO,5.233832,52.137546
Paduaweg,71,,,3734GJ,Den Dolder,Zeist,Utrecht,VBO,5.233759,52.137528
Paduaweg,73,,,3734GJ,Den Dolder,Zeist,Utrecht,VBO,5.233657,52.137501
Paduaweg,75,,,3734GJ,Den Dolder,Zeist,Utrecht,VBO,5.233569,52.137447
Tolhuislaan,45,,,3734GK,Den Dolder,Zeist,Utrecht,VBO,5.233046,52.136638
Tolhuislaan,34,,,3734GL,Den Dolder,Zeist,Utrecht,VBO,5.234161,52.135273
Tolhuislaan,36,,,3734GL,Den Dolder,Zeist,Utrecht,VBO,5.234146,52.135336
Tolhuislaan,38,,,3734GL,Den Dolder,Zeist,Utrecht,VBO,5.234175,52.135471
Tolhuislaan,40,,,3734GL,Den Dolder,Zeist,Utrecht,VBO,5.234189,52.135542
Tolhuislaan,46,,,3734GL,Den Dolder,Zeist,Utrecht,VBO,5.233542,52.136971
Tolhuislaan,48,,,3734GL,Den Dolder,Zeist,Utrecht,VBO,5.233498,52.137034
Tolhuislaan,50,,,3734GL,Den Dolder,Zeist,Utrecht,VBO,5.233424,52.137123
Tolhuislaan,52,,,3734GL,Den Dolder,Zeist,Utrecht,VBO,5.233395,52.137168
Tolhuislaan,54,,,3734GL,Den Dolder,Zeist,Utrecht,VBO,5.233366,52.137213
Tolhuislaan,56,,,3734GL,Den Dolder,Zeist,Utrecht,VBO,5.233322,52.137258
Tolhuislaan,58,,,3734GL,Den Dolder,Zeist,Utrecht,VBO,5.233292,52.137312
Tolhuislaan,60,,,3734GL,Den Dolder,Zeist,Utrecht,VBO,5.233263,52.137366
Hezer Enghweg,1,,,3734GM,Den Dolder,Zeist,Utrecht,VBO,5.240929,52.138220
Hezer Enghweg,3,,,3734GM,Den Dolder,Zeist,Utrecht,VBO,5.240870,52.138274
Hezer Enghweg,5,,,3734GM,Den Dolder,Zeist,Utrecht,VBO,5.240797,52.138310
Hezer Enghweg,7,,,3734GM,Den Dolder,Zeist,Utrecht,VBO,5.240724,52.138346
Hezer Enghweg,9,,,3734GM,Den Dolder,Zeist,Utrecht,VBO,5.240636,52.138364
Hezer Enghweg,11,,,3734GM,Den Dolder,Zeist,Utrecht,VBO,5.240460,52.138427
Hezer Enghweg,13,,,3734GM,Den Dolder,Zeist,Utrecht,VBO,5.240373,52.138417
Hezer Enghweg,15,,,3734GM,Den Dolder,Zeist,Utrecht,VBO,5.240300,52.138399
Hezer Enghweg,17,,,3734GM,Den Dolder,Zeist,Utrecht,VBO,5.240227,52.138381
Hezer Enghweg,19,,,3734GM,Den Dolder,Zeist,Utrecht,VBO,5.240139,52.138354
Hezer Enghweg,21,,,3734GM,Den Dolder,Zeist,Utrecht,VBO,5.240081,52.138336
Hezer Enghweg,23,,,3734GM,Den Dolder,Zeist,Utrecht,VBO,5.239979,52.138300
Hezer Enghweg,25,,,3734GM,Den Dolder,Zeist,Utrecht,VBO,5.239804,52.138255
Hezer Enghweg,27,,,3734GM,Den Dolder,Zeist,Utrecht,VBO,5.239745,52.138237
Hezer Enghweg,29,,,3734GM,Den Dolder,Zeist,Utrecht,VBO,5.239672,52.138219
Hezer Enghweg,31,,,3734GM,Den Dolder,Zeist,Utrecht,VBO,5.239570,52.138183
Hezer Enghweg,33,,,3734GM,Den Dolder,Zeist,Utrecht,VBO,5.239424,52.138138
Hezer Enghweg,35,,,3734GM,Den Dolder,Zeist,Utrecht,VBO,5.239351,52.138129
Hezer Enghweg,37,,,3734GM,Den Dolder,Zeist,Utrecht,VBO,5.239278,52.138110
Hezer Enghweg,39,,,3734GM,Den Dolder,Zeist,Utrecht,VBO,5.239191,52.138083
Hezer Enghweg,41,,,3734GM,Den Dolder,Zeist,Utrecht,VBO,5.239118,52.138065
Hezer Enghweg,43,,,3734GM,Den Dolder,Zeist,Utrecht,VBO,5.239016,52.138029
Hezer Enghweg,47,,,3734GN,Den Dolder,Zeist,Utrecht,VBO,5.236331,52.137253
Hezer Enghweg,49,,,3734GN,Den Dolder,Zeist,Utrecht,VBO,5.236243,52.137244
Hezer Enghweg,51,,,3734GN,Den Dolder,Zeist,Utrecht,VBO,5.236170,52.137226
Hezer Enghweg,53,,,3734GN,Den Dolder,Zeist,Utrecht,VBO,5.236082,52.137199
Hezer Enghweg,55,,,3734GN,Den Dolder,Zeist,Utrecht,VBO,5.236009,52.137181
Hezer Enghweg,57,,,3734GN,Den Dolder,Zeist,Utrecht,VBO,5.235922,52.137163
Hezer Enghweg,59,,,3734GN,Den Dolder,Zeist,Utrecht,VBO,5.235849,52.137135
Hezer Enghweg,61,,,3734GN,Den Dolder,Zeist,Utrecht,VBO,5.235747,52.137090
Hezer Enghweg,63,,,3734GN,Den Dolder,Zeist,Utrecht,VBO,5.235601,52.137081
Hezer Enghweg,65,,,3734GN,Den Dolder,Zeist,Utrecht,VBO,5.235513,52.137063
Hezer Enghweg,67,,,3734GN,Den Dolder,Zeist,Utrecht,VBO,5.235440,52.137054
Hezer Enghweg,69,,,3734GN,Den Dolder,Zeist,Utrecht,VBO,5.235353,52.137027
Hezer Enghweg,71,,,3734GN,Den Dolder,Zeist,Utrecht,VBO,5.235280,52.137000
Hezer Enghweg,73,,,3734GN,Den Dolder,Zeist,Utrecht,VBO,5.235192,52.136973
Hezer Enghweg,75,,,3734GP,Den Dolder,Zeist,Utrecht,VBO,5.235032,52.136946
Hezer Enghweg,77,,,3734GP,Den Dolder,Zeist,Utrecht,VBO,5.234959,52.136928
Hezer Enghweg,79,,,3734GP,Den Dolder,Zeist,Utrecht,VBO,5.234886,52.136901
Hezer Enghweg,81,,,3734GP,Den Dolder,Zeist,Utrecht,VBO,5.234784,52.136882
Hezer Enghweg,83,,,3734GP,Den Dolder,Zeist,Utrecht,VBO,5.234711,52.136855
Hezer Enghweg,85,,,3734GP,Den Dolder,Zeist,Utrecht,VBO,5.234623,52.136819
Hezer Enghweg,87,,,3734GP,Den Dolder,Zeist,Utrecht,VBO,5.234506,52.136756
Hezer Enghweg,89,,,3734GP,Den Dolder,Zeist,Utrecht,VBO,5.234404,52.136756
Hezer Enghweg,91,,,3734GP,Den Dolder,Zeist,Utrecht,VBO,5.234331,52.136738
Hezer Enghweg,93,,,3734GP,Den Dolder,Zeist,Utrecht,VBO,5.234258,52.136711
Hezer Enghweg,95,,,3734GP,Den Dolder,Zeist,Utrecht,VBO,5.234171,52.136684
Hezer Enghweg,97,,,3734GP,Den Dolder,Zeist,Utrecht,VBO,5.234069,52.136648
Hezer Enghweg,4,,,3734GR,Den Dolder,Zeist,Utrecht,VBO,5.241205,52.138499
Hezer Enghweg,6,,,3734GR,Den Dolder,Zeist,Utrecht,VBO,5.241132,52.138526
Hezer Enghweg,8,,,3734GR,Den Dolder,Zeist,Utrecht,VBO,5.241044,52.138562
Hezer Enghweg,10,,,3734GR,Den Dolder,Zeist,Utrecht,VBO,5.240986,52.138598
Hezer Enghweg,12,,,3734GR,Den Dolder,Zeist,Utrecht,VBO,5.240927,52.138634
Hezer Enghweg,14,,,3734GR,Den Dolder,Zeist,Utrecht,VBO,5.240854,52.138670
Hezer Enghweg,16,,,3734GR,Den Dolder,Zeist,Utrecht,VBO,5.240766,52.138706
Hezer Enghweg,18,,,3734GR,Den Dolder,Zeist,Utrecht,VBO,5.240576,52.138786
Hezer Enghweg,20,,,3734GR,Den Dolder,Zeist,Utrecht,VBO,5.240503,52.138759
Hezer Enghweg,22,,,3734GR,Den Dolder,Zeist,Utrecht,VBO,5.240430,52.138741
Hezer Enghweg,24,,,3734GR,Den Dolder,Zeist,Utrecht,VBO,5.240328,52.138714
Hezer Enghweg,26,,,3734GR,Den Dolder,Zeist,Utrecht,VBO,5.240240,52.138696
Hezer Enghweg,28,,,3734GR,Den Dolder,Zeist,Utrecht,VBO,5.240153,52.138669
Hezer Enghweg,30,,,3734GS,Den Dolder,Zeist,Utrecht,VBO,5.239219,52.138434
Hezer Enghweg,32,,,3734GS,Den Dolder,Zeist,Utrecht,VBO,5.239131,52.138407
Hezer Enghweg,34,,,3734GS,Den Dolder,Zeist,Utrecht,VBO,5.239058,52.138389
Hezer Enghweg,36,,,3734GS,Den Dolder,Zeist,Utrecht,VBO,5.238971,52.138362
Hezer Enghweg,38,,,3734GS,Den Dolder,Zeist,Utrecht,VBO,5.238883,52.138335
Hezer Enghweg,40,,,3734GS,Den Dolder,Zeist,Utrecht,VBO,5.238810,52.138308
Hezer Enghweg,42,,,3734GS,Den Dolder,Zeist,Utrecht,VBO,5.238708,52.138299
Hezer Enghweg,46,,,3734GS,Den Dolder,Zeist,Utrecht,VBO,5.238518,52.138244
Hezer Enghweg,48,,,3734GS,Den Dolder,Zeist,Utrecht,VBO,5.238431,52.138208
Hezer Enghweg,50,,,3734GS,Den Dolder,Zeist,Utrecht,VBO,5.238372,52.138190
Hezer Enghweg,52,,,3734GT,Den Dolder,Zeist,Utrecht,VBO,5.238270,52.138172
Hezer Enghweg,54,,,3734GT,Den Dolder,Zeist,Utrecht,VBO,5.238197,52.138145
Hezer Enghweg,56,,,3734GT,Den Dolder,Zeist,Utrecht,VBO,5.238124,52.138118
Hezer Enghweg,58,,,3734GT,Den Dolder,Zeist,Utrecht,VBO,5.238008,52.138109
Hezer Enghweg,60,,,3734GT,Den Dolder,Zeist,Utrecht,VBO,5.237876,52.138046
Hezer Enghweg,62,,,3734GT,Den Dolder,Zeist,Utrecht,VBO,5.237803,52.138019
Hezer Enghweg,64,,,3734GT,Den Dolder,Zeist,Utrecht,VBO,5.237730,52.138001
Hezer Enghweg,66,,,3734GT,Den Dolder,Zeist,Utrecht,VBO,5.237643,52.137974
Hezer Enghweg,68,,,3734GT,Den Dolder,Zeist,Utrecht,VBO,5.237570,52.137956
Hezer Enghweg,70,,,3734GT,Den Dolder,Zeist,Utrecht,VBO,5.237497,52.137946
Hezer Enghweg,72,A,,3734GT,Den Dolder,Zeist,Utrecht,VBO,5.237278,52.137892
Hezer Enghweg,72,B,,3734GT,Den Dolder,Zeist,Utrecht,VBO,5.237117,52.137856
Hezer Enghweg,72,C,,3734GT,Den Dolder,Zeist,Utrecht,VBO,5.237015,52.137838
Hezer Enghweg,72,,,3734GT,Den Dolder,Zeist,Utrecht,VBO,5.237395,52.137919
Hezer Enghweg,74,,,3734GT,Den Dolder,Zeist,Utrecht,VBO,5.236066,52.137603
Hezer Enghweg,76,,,3734GT,Den Dolder,Zeist,Utrecht,VBO,5.235994,52.137567
Hezer Enghweg,78,,,3734GT,Den Dolder,Zeist,Utrecht,VBO,5.235921,52.137549
Hezer Enghweg,80,,,3734GV,Den Dolder,Zeist,Utrecht,VBO,5.235833,52.137531
Hezer Enghweg,82,,,3734GV,Den Dolder,Zeist,Utrecht,VBO,5.235745,52.137504
Hezer Enghweg,84,,,3734GV,Den Dolder,Zeist,Utrecht,VBO,5.235673,52.137486
Hezer Enghweg,86,,,3734GV,Den Dolder,Zeist,Utrecht,VBO,5.235570,52.137468
Hezer Enghweg,88,,,3734GV,Den Dolder,Zeist,Utrecht,VBO,5.235424,52.137432
Hezer Enghweg,90,,,3734GV,Den Dolder,Zeist,Utrecht,VBO,5.235366,52.137404
Hezer Enghweg,92,,,3734GV,Den Dolder,Zeist,Utrecht,VBO,5.235278,52.137377
Hezer Enghweg,94,,,3734GV,Den Dolder,Zeist,Utrecht,VBO,5.235191,52.137359
Hezer Enghweg,96,,,3734GV,Den Dolder,Zeist,Utrecht,VBO,5.235118,52.137332
Hezer Enghweg,98,,,3734GV,Den Dolder,Zeist,Utrecht,VBO,5.235016,52.137323
Hezer Enghweg,100,,,3734GV,Den Dolder,Zeist,Utrecht,VBO,5.234841,52.137269
Hezer Enghweg,102,,,3734GV,Den Dolder,Zeist,Utrecht,VBO,5.234782,52.137251
Hezer Enghweg,104,,,3734GV,Den Dolder,Zeist,Utrecht,VBO,5.234709,52.137224
Hezer Enghweg,106,,,3734GV,Den Dolder,Zeist,Utrecht,VBO,5.234636,52.137206
Hezer Enghweg,108,,,3734GV,Den Dolder,Zeist,Utrecht,VBO,5.234549,52.137179
Hezer Enghweg,110,,,3734GV,Den Dolder,Zeist,Utrecht,VBO,5.234447,52.137170
Hezer Enghweg,112,,,3734GV,Den Dolder,Zeist,Utrecht,VBO,5.234301,52.137133
Hezer Enghweg,114,,,3734GV,Den Dolder,Zeist,Utrecht,VBO,5.234242,52.137115
Hezer Enghweg,116,,,3734GV,Den Dolder,Zeist,Utrecht,VBO,5.234140,52.137097
Hezer Enghweg,118,,,3734GV,Den Dolder,Zeist,Utrecht,VBO,5.234067,52.137079
Hezer Enghweg,120,,,3734GV,Den Dolder,Zeist,Utrecht,VBO,5.233980,52.137061
Hezer Enghweg,122,,,3734GV,Den Dolder,Zeist,Utrecht,VBO,5.233877,52.137034
Eekhoornlaan,25,,,3734GW,Den Dolder,Zeist,Utrecht,VBO,5.242432,52.138573
Eekhoornlaan,27,,,3734GW,Den Dolder,Zeist,Utrecht,VBO,5.242272,52.138483
Eekhoornlaan,31,,,3734GW,Den Dolder,Zeist,Utrecht,VBO,5.241965,52.138339
Eekhoornlaan,33,,,3734GW,Den Dolder,Zeist,Utrecht,VBO,5.241776,52.138186
Eekhoornlaan,35,,,3734GW,Den Dolder,Zeist,Utrecht,VBO,5.241688,52.138131
Eekhoornlaan,37,,,3734GW,Den Dolder,Zeist,Utrecht,VBO,5.241543,52.138059
Eekhoornlaan,39,,,3734GW,Den Dolder,Zeist,Utrecht,VBO,5.241426,52.138023
Eekhoornlaan,41,,,3734GW,Den Dolder,Zeist,Utrecht,VBO,5.241309,52.137915
Eekhoornlaan,43,,,3734GW,Den Dolder,Zeist,Utrecht,VBO,5.241236,52.137870
Eekhoornlaan,45,,,3734GW,Den Dolder,Zeist,Utrecht,VBO,5.241061,52.137789
Eekhoornlaan,47,,,3734GW,Den Dolder,Zeist,Utrecht,VBO,5.240959,52.137744
Eekhoornlaan,49,,,3734GW,Den Dolder,Zeist,Utrecht,VBO,5.240696,52.137735
Eekhoornlaan,51,,,3734GW,Den Dolder,Zeist,Utrecht,VBO,5.240623,52.137717
Eekhoornlaan,53,,,3734GW,Den Dolder,Zeist,Utrecht,VBO,5.240536,52.137672
Eekhoornlaan,55,,,3734GW,Den Dolder,Zeist,Utrecht,VBO,5.240375,52.137636
Eekhoornlaan,57,,,3734GW,Den Dolder,Zeist,Utrecht,VBO,5.240302,52.137617
Eekhoornlaan,59,,,3734GW,Den Dolder,Zeist,Utrecht,VBO,5.240244,52.137590
Eekhoornlaan,61,,,3734GW,Den Dolder,Zeist,Utrecht,VBO,5.240171,52.137563
Eekhoornlaan,63,,,3734GW,Den Dolder,Zeist,Utrecht,VBO,5.240084,52.137536
Eekhoornlaan,65,,,3734GW,Den Dolder,Zeist,Utrecht,VBO,5.239996,52.137491
Eekhoornlaan,67,,,3734GW,Den Dolder,Zeist,Utrecht,VBO,5.239865,52.137446
Eekhoornlaan,69,,,3734GW,Den Dolder,Zeist,Utrecht,VBO,5.239777,52.137428
Eekhoornlaan,71,,,3734GW,Den Dolder,Zeist,Utrecht,VBO,5.239719,52.137401
Eekhoornlaan,73,,,3734GW,Den Dolder,Zeist,Utrecht,VBO,5.239631,52.137374
Eekhoornlaan,75,,,3734GW,Den Dolder,Zeist,Utrecht,VBO,5.239573,52.137347
Eekhoornlaan,77,,,3734GW,Den Dolder,Zeist,Utrecht,VBO,5.239485,52.137302
Eekhoornlaan,79,,,3734GW,Den Dolder,Zeist,Utrecht,VBO,5.238362,52.137067
Eekhoornlaan,81,,,3734GW,Den Dolder,Zeist,Utrecht,VBO,5.238259,52.137049
Eekhoornlaan,83,,,3734GW,Den Dolder,Zeist,Utrecht,VBO,5.238070,52.137039
Eekhoornlaan,85,,,3734GW,Den Dolder,Zeist,Utrecht,VBO,5.237953,52.137021
Eekhoornlaan,87,,,3734GW,Den Dolder,Zeist,Utrecht,VBO,5.237778,52.137003
Eekhoornlaan,89,,,3734GW,Den Dolder,Zeist,Utrecht,VBO,5.237675,52.136994
Eekhoornlaan,91,,,3734GW,Den Dolder,Zeist,Utrecht,VBO,5.237485,52.136976
Eekhoornlaan,93,,,3734GW,Den Dolder,Zeist,Utrecht,VBO,5.237383,52.136967
Eekhoornlaan,95,,,3734GW,Den Dolder,Zeist,Utrecht,VBO,5.237208,52.136948
Eekhoornlaan,97,,,3734GW,Den Dolder,Zeist,Utrecht,VBO,5.237091,52.136939
Eekhoornlaan,2,,,3734GX,Den Dolder,Zeist,Utrecht,VBO,5.242285,52.138851
Eekhoornlaan,4,,,3734GX,Den Dolder,Zeist,Utrecht,VBO,5.242139,52.138806
Eekhoornlaan,6,,,3734GX,Den Dolder,Zeist,Utrecht,VBO,5.242095,52.138752
Eekhoornlaan,8,,,3734GX,Den Dolder,Zeist,Utrecht,VBO,5.242037,52.138716
Eekhoornlaan,10,,,3734GX,Den Dolder,Zeist,Utrecht,VBO,5.241964,52.138680
Eekhoornlaan,12,,,3734GX,Den Dolder,Zeist,Utrecht,VBO,5.241891,52.138644
Eekhoornlaan,14,,,3734GX,Den Dolder,Zeist,Utrecht,VBO,5.241774,52.138617
Eekhoornlaan,16,,,3734GX,Den Dolder,Zeist,Utrecht,VBO,5.241658,52.138554
Eekhoornlaan,18,,,3734GX,Den Dolder,Zeist,Utrecht,VBO,5.241629,52.138500
Eekhoornlaan,20,,,3734GX,Den Dolder,Zeist,Utrecht,VBO,5.241571,52.138455
Eekhoornlaan,22,,,3734GX,Den Dolder,Zeist,Utrecht,VBO,5.241498,52.138419
Eekhoornlaan,24,,,3734GX,Den Dolder,Zeist,Utrecht,VBO,5.241395,52.138401
Eekhoornlaan,26,,,3734GZ,Den Dolder,Zeist,Utrecht,VBO,5.240666,52.138148
Eekhoornlaan,28,,,3734GZ,Den Dolder,Zeist,Utrecht,VBO,5.240622,52.138094
Eekhoornlaan,30,,,3734GZ,Den Dolder,Zeist,Utrecht,VBO,5.240549,52.138076
Eekhoornlaan,32,,,3734GZ,Den Dolder,Zeist,Utrecht,VBO,5.240476,52.138040
Eekhoornlaan,34,,,3734GZ,Den Dolder,Zeist,Utrecht,VBO,5.240403,52.138013
Eekhoornlaan,36,,,3734GZ,Den Dolder,Zeist,Utrecht,VBO,5.240316,52.137986
Eekhoornlaan,38,,,3734GZ,Den Dolder,Zeist,Utrecht,VBO,5.240243,52.137959
Eekhoornlaan,40,,,3734GZ,Den Dolder,Zeist,Utrecht,VBO,5.240111,52.137950
Eekhoornlaan,42,,,3734GZ,Den Dolder,Zeist,Utrecht,VBO,5.239965,52.137941
Eekhoornlaan,44,,,3734GZ,Den Dolder,Zeist,Utrecht,VBO,5.239922,52.137878
Eekhoornlaan,46,,,3734GZ,Den Dolder,Zeist,Utrecht,VBO,5.239863,52.137860
Eekhoornlaan,48,,,3734GZ,Den Dolder,Zeist,Utrecht,VBO,5.239776,52.137832
Eekhoornlaan,50,,,3734GZ,Den Dolder,Zeist,Utrecht,VBO,5.239659,52.137823
Eekhoornlaan,52,,,3734GZ,Den Dolder,Zeist,Utrecht,VBO,5.239513,52.137769
Eekhoornlaan,54,,,3734GZ,Den Dolder,Zeist,Utrecht,VBO,5.239470,52.137715
Eekhoornlaan,56,,,3734GZ,Den Dolder,Zeist,Utrecht,VBO,5.239397,52.137688
Eekhoornlaan,58,,,3734GZ,Den Dolder,Zeist,Utrecht,VBO,5.239280,52.137679
Marterlaan,1,,,3734HA,Den Dolder,Zeist,Utrecht,VBO,5.239467,52.138497
Marterlaan,2,,,3734HA,Den Dolder,Zeist,Utrecht,VBO,5.239949,52.138597
Marterlaan,3,,,3734HA,Den Dolder,Zeist,Utrecht,VBO,5.239481,52.138569
Marterlaan,4,,,3734HA,Den Dolder,Zeist,Utrecht,VBO,5.239905,52.138651
Marterlaan,5,,,3734HA,Den Dolder,Zeist,Utrecht,VBO,5.239452,52.138623
Marterlaan,6,,,3734HA,Den Dolder,Zeist,Utrecht,VBO,5.239875,52.138695
Marterlaan,7,,,3734HA,Den Dolder,Zeist,Utrecht,VBO,5.239408,52.138677
Marterlaan,8,,,3734HA,Den Dolder,Zeist,Utrecht,VBO,5.239846,52.138749
Marterlaan,9,,,3734HA,Den Dolder,Zeist,Utrecht,VBO,5.239379,52.138722
Marterlaan,10,,,3734HA,Den Dolder,Zeist,Utrecht,VBO,5.239729,52.138848
Marterlaan,11,,,3734HA,Den Dolder,Zeist,Utrecht,VBO,5.239276,52.138758
Marterlaan,12,,0000,3734HA,Den Dolder,Zeist,Utrecht,VBO,5.239670,52.138956
Marterlaan,12,,,3734HA,Den Dolder,Zeist,Utrecht,VBO,5.239706,52.138929
Marterlaan,13,,,3734HA,Den Dolder,Zeist,Utrecht,VBO,5.239217,52.138973
Dassenlaan,1,,,3734HB,Den Dolder,Zeist,Utrecht,VBO,5.236713,52.136471
Dassenlaan,3,,,3734HB,Den Dolder,Zeist,Utrecht,VBO,5.236698,52.136543
Dassenlaan,5,,,3734HB,Den Dolder,Zeist,Utrecht,VBO,5.236669,52.136633
Dassenlaan,7,,,3734HB,Den Dolder,Zeist,Utrecht,VBO,5.236668,52.136687
Dassenlaan,9,,,3734HB,Den Dolder,Zeist,Utrecht,VBO,5.236654,52.136741
Dassenlaan,10,,,3734HB,Den Dolder,Zeist,Utrecht,VBO,5.236811,52.137820
Dassenlaan,11,,,3734HB,Den Dolder,Zeist,Utrecht,VBO,5.236639,52.136795
Dassenlaan,12,,,3734HB,Den Dolder,Zeist,Utrecht,VBO,5.236752,52.137892
Dassenlaan,13,,,3734HB,Den Dolder,Zeist,Utrecht,VBO,5.236609,52.136858
Dassenlaan,14,,,3734HB,Den Dolder,Zeist,Utrecht,VBO,5.236693,52.137981
Dassenlaan,15,,,3734HB,Den Dolder,Zeist,Utrecht,VBO,5.236551,52.136975
Dassenlaan,16,,,3734HB,Den Dolder,Zeist,Utrecht,VBO,5.236649,52.138044
Dassenlaan,17,,,3734HB,Den Dolder,Zeist,Utrecht,VBO,5.236536,52.137028
Dassenlaan,19,,,3734HB,Den Dolder,Zeist,Utrecht,VBO,5.236477,52.137073
Dassenlaan,21,,,3734HB,Den Dolder,Zeist,Utrecht,VBO,5.236256,52.137675
Dassenlaan,23,,,3734HB,Den Dolder,Zeist,Utrecht,VBO,5.236241,52.137729
Dassenlaan,25,,,3734HB,Den Dolder,Zeist,Utrecht,VBO,5.236212,52.137783
Dassenlaan,27,,,3734HB,Den Dolder,Zeist,Utrecht,VBO,5.236183,52.137828
Dassenlaan,29,,,3734HB,Den Dolder,Zeist,Utrecht,VBO,5.236124,52.137891
Hermelijnlaan,1,,,3734HC,Den Dolder,Zeist,Utrecht,VBO,5.238787,52.136654
Hermelijnlaan,2,,,3734HC,Den Dolder,Zeist,Utrecht,VBO,5.239400,52.136718
Hermelijnlaan,3,,,3734HC,Den Dolder,Zeist,Utrecht,VBO,5.238859,52.136726
Hermelijnlaan,4,,,3734HC,Den Dolder,Zeist,Utrecht,VBO,5.239356,52.136780
Hermelijnlaan,5,,,3734HC,Den Dolder,Zeist,Utrecht,VBO,5.238845,52.136780
Hermelijnlaan,6,,,3734HC,Den Dolder,Zeist,Utrecht,VBO,5.239356,52.136825
Hermelijnlaan,7,,,3734HC,Den Dolder,Zeist,Utrecht,VBO,5.238830,52.136825
Hermelijnlaan,8,,,3734HC,Den Dolder,Zeist,Utrecht,VBO,5.239341,52.136879
Hermelijnlaan,9,,,3734HC,Den Dolder,Zeist,Utrecht,VBO,5.238830,52.136879
Hermelijnlaan,10,,,3734HC,Den Dolder,Zeist,Utrecht,VBO,5.239326,52.136969
Hermelijnlaan,11,,,3734HC,Den Dolder,Zeist,Utrecht,VBO,5.238742,52.136932
Hermelijnlaan,12,,,3734HC,Den Dolder,Zeist,Utrecht,VBO,5.239326,52.137041
Hermelijnlaan,13,,,3734HC,Den Dolder,Zeist,Utrecht,VBO,5.238698,52.137004
Hermelijnlaan,14,,,3734HC,Den Dolder,Zeist,Utrecht,VBO,5.239282,52.137122
Hermelijnlaan,15,A,,3734HC,Den Dolder,Zeist,Utrecht,VBO,5.238639,52.137103
Hermelijnlaan,15,,,3734HC,Den Dolder,Zeist,Utrecht,VBO,5.238727,52.137067
Hermelijnlaan,16,,,3734HC,Den Dolder,Zeist,Utrecht,VBO,5.239296,52.137194
Hermelijnlaan,18,,,3734HC,Den Dolder,Zeist,Utrecht,VBO,5.239075,52.137607
Hermelijnlaan,20,,,3734HC,Den Dolder,Zeist,Utrecht,VBO,5.239017,52.137652
Hermelijnlaan,22,,,3734HC,Den Dolder,Zeist,Utrecht,VBO,5.238973,52.137706
Hermelijnlaan,24,,,3734HC,Den Dolder,Zeist,Utrecht,VBO,5.238929,52.137760
Hermelijnlaan,26,,,3734HC,Den Dolder,Zeist,Utrecht,VBO,5.238900,52.137813
Hermelijnlaan,28,,,3734HC,Den Dolder,Zeist,Utrecht,VBO,5.238856,52.137858
Hermelijnlaan,30,,,3734HC,Den Dolder,Zeist,Utrecht,VBO,5.238826,52.137903
Hermelijnlaan,32,,,3734HC,Den Dolder,Zeist,Utrecht,VBO,5.238797,52.137966
Paduahof,1,,,3734HE,Den Dolder,Zeist,Utrecht,VBO,5.241407,52.139371
Zuster van Overeemlaan,1,,,3734JA,Den Dolder,Zeist,Utrecht,VBO,5.236090,52.143517
Zuster van Overeemlaan,2,,,3734JA,Den Dolder,Zeist,Utrecht,VBO,5.236455,52.143823
Zuster van Overeemlaan,3,,,3734JA,Den Dolder,Zeist,Utrecht,VBO,5.236003,52.143508
Zuster van Overeemlaan,4,,,3734JA,Den Dolder,Zeist,Utrecht,VBO,5.236323,52.143814
Zuster van Overeemlaan,5,,,3734JA,Den Dolder,Zeist,Utrecht,VBO,5.235930,52.143499
Zuster van Overeemlaan,6,,,3734JA,Den Dolder,Zeist,Utrecht,VBO,5.236162,52.143814
Zuster van Overeemlaan,7,,,3734JA,Den Dolder,Zeist,Utrecht,VBO,5.235842,52.143499
Zuster van Overeemlaan,8,,,3734JA,Den Dolder,Zeist,Utrecht,VBO,5.236031,52.143805
Zuster van Overeemlaan,9,,,3734JA,Den Dolder,Zeist,Utrecht,VBO,5.235769,52.143490
Zuster van Overeemlaan,10,,,3734JA,Den Dolder,Zeist,Utrecht,VBO,5.235870,52.143787
Zuster van Overeemlaan,11,,,3734JA,Den Dolder,Zeist,Utrecht,VBO,5.235681,52.143490
Zuster van Overeemlaan,12,,,3734JA,Den Dolder,Zeist,Utrecht,VBO,5.235432,52.143822
Zuster van Overeemlaan,13,,,3734JA,Den Dolder,Zeist,Utrecht,VBO,5.235535,52.143517
Zuster van Overeemlaan,14,,,3734JA,Den Dolder,Zeist,Utrecht,VBO,5.235300,52.143822
Zuster van Overeemlaan,15,,,3734JA,Den Dolder,Zeist,Utrecht,VBO,5.235404,52.143525
Zuster van Overeemlaan,16,,,3734JA,Den Dolder,Zeist,Utrecht,VBO,5.235169,52.143822
Zuster van Overeemlaan,17,,,3734JA,Den Dolder,Zeist,Utrecht,VBO,5.235243,52.143525
Zuster van Overeemlaan,18,,,3734JA,Den Dolder,Zeist,Utrecht,VBO,5.235037,52.143821
Zuster van Overeemlaan,19,,,3734JA,Den Dolder,Zeist,Utrecht,VBO,5.235112,52.143525
Zuster van Overeemlaan,20,,,3734JA,Den Dolder,Zeist,Utrecht,VBO,5.234906,52.143812
Zuster van Overeemlaan,21,,,3734JA,Den Dolder,Zeist,Utrecht,VBO,5.234980,52.143507
Zuster van Overeemlaan,22,,,3734JA,Den Dolder,Zeist,Utrecht,VBO,5.234775,52.143794
Zuster van Overeemlaan,23,,,3734JA,Den Dolder,Zeist,Utrecht,VBO,5.234819,52.143498
Zuster van Overeemlaan,25,,,3734JA,Den Dolder,Zeist,Utrecht,VBO,5.234688,52.143479
Pater Weijersplein,1,,,3734JB,Den Dolder,Zeist,Utrecht,VBO,5.234483,52.143506
Pater Weijersplein,2,,,3734JB,Den Dolder,Zeist,Utrecht,VBO,5.234380,52.143910
Pater Weijersplein,3,,,3734JB,Den Dolder,Zeist,Utrecht,VBO,5.234293,52.143515
Pater Weijersplein,4,,,3734JB,Den Dolder,Zeist,Utrecht,VBO,5.234205,52.143883
Pater Weijersplein,5,,,3734JB,Den Dolder,Zeist,Utrecht,VBO,5.234103,52.143533
Pater Weijersplein,6,,,3734JB,Den Dolder,Zeist,Utrecht,VBO,5.234029,52.143856
Pater Weijersplein,7,,,3734JB,Den Dolder,Zeist,Utrecht,VBO,5.233914,52.143487
Pater Weijersplein,8,,,3734JB,Den Dolder,Zeist,Utrecht,VBO,5.233854,52.143865
Meester Lasterielaan,2,,,3734JC,Den Dolder,Zeist,Utrecht,VBO,5.234789,52.143974
Meester Lasterielaan,4,,,3734JC,Den Dolder,Zeist,Utrecht,VBO,5.234774,52.144055
Meester Lasterielaan,6,,,3734JC,Den Dolder,Zeist,Utrecht,VBO,5.234773,52.144136
Meester Lasterielaan,8,,,3734JC,Den Dolder,Zeist,Utrecht,VBO,5.234773,52.144217
Meester Lasterielaan,10,,,3734JC,Den Dolder,Zeist,Utrecht,VBO,5.234758,52.144297
Meester Lasterielaan,12,,,3734JC,Den Dolder,Zeist,Utrecht,VBO,5.234743,52.144378
Ab van Sprakelaarlaan,1,,,3734JD,Den Dolder,Zeist,Utrecht,VBO,5.235373,52.144002
Ab van Sprakelaarlaan,2,,,3734JD,Den Dolder,Zeist,Utrecht,VBO,5.235972,52.143904
Ab van Sprakelaarlaan,3,,,3734JD,Den Dolder,Zeist,Utrecht,VBO,5.235358,52.144065
Ab van Sprakelaarlaan,4,,,3734JD,Den Dolder,Zeist,Utrecht,VBO,5.235972,52.143948
Ab van Sprakelaarlaan,5,,,3734JD,Den Dolder,Zeist,Utrecht,VBO,5.235358,52.144109
Ab van Sprakelaarlaan,6,,,3734JD,Den Dolder,Zeist,Utrecht,VBO,5.235957,52.143993
Ab van Sprakelaarlaan,7,,,3734JD,Den Dolder,Zeist,Utrecht,VBO,5.235343,52.144163
Ab van Sprakelaarlaan,8,,,3734JD,Den Dolder,Zeist,Utrecht,VBO,5.235957,52.144047
Ab van Sprakelaarlaan,9,,,3734JD,Den Dolder,Zeist,Utrecht,VBO,5.235328,52.144217
Ab van Sprakelaarlaan,10,,,3734JD,Den Dolder,Zeist,Utrecht,VBO,5.235942,52.144092
Ab van Sprakelaarlaan,11,,,3734JD,Den Dolder,Zeist,Utrecht,VBO,5.235328,52.144271
Ab van Sprakelaarlaan,12,,,3734JD,Den Dolder,Zeist,Utrecht,VBO,5.235942,52.144146
Ab van Sprakelaarlaan,13,,,3734JD,Den Dolder,Zeist,Utrecht,VBO,5.235313,52.144325
Ab van Sprakelaarlaan,14,,,3734JD,Den Dolder,Zeist,Utrecht,VBO,5.235927,52.144191
Ab van Sprakelaarlaan,15,,,3734JD,Den Dolder,Zeist,Utrecht,VBO,5.235298,52.144388
Ab van Sprakelaarlaan,16,,,3734JD,Den Dolder,Zeist,Utrecht,VBO,5.235913,52.144236
Ab van Sprakelaarlaan,18,,,3734JD,Den Dolder,Zeist,Utrecht,VBO,5.235912,52.144290
Ab van Sprakelaarlaan,20,,,3734JD,Den Dolder,Zeist,Utrecht,VBO,5.235898,52.144335
Ab van Sprakelaarlaan,22,,,3734JD,Den Dolder,Zeist,Utrecht,VBO,5.235897,52.144389
Meester Willemsenlaan,1,,,3734JE,Den Dolder,Zeist,Utrecht,VBO,5.236396,52.143922
Meester Willemsenlaan,2,,,3734JE,Den Dolder,Zeist,Utrecht,VBO,5.237068,52.143968
Meester Willemsenlaan,3,,,3734JE,Den Dolder,Zeist,Utrecht,VBO,5.236381,52.143967
Meester Willemsenlaan,4,,,3734JE,Den Dolder,Zeist,Utrecht,VBO,5.237053,52.144013
Meester Willemsenlaan,5,,,3734JE,Den Dolder,Zeist,Utrecht,VBO,5.236381,52.144021
Meester Willemsenlaan,6,,,3734JE,Den Dolder,Zeist,Utrecht,VBO,5.237053,52.144067
Meester Willemsenlaan,7,,,3734JE,Den Dolder,Zeist,Utrecht,VBO,5.236366,52.144066
Meester Willemsenlaan,8,,,3734JE,Den Dolder,Zeist,Utrecht,VBO,5.237038,52.144112
Meester Willemsenlaan,9,,,3734JE,Den Dolder,Zeist,Utrecht,VBO,5.236366,52.144120
Meester Willemsenlaan,10,,,3734JE,Den Dolder,Zeist,Utrecht,VBO,5.237038,52.144157
Meester Willemsenlaan,11,,,3734JE,Den Dolder,Zeist,Utrecht,VBO,5.236351,52.144165
Meester Willemsenlaan,12,,,3734JE,Den Dolder,Zeist,Utrecht,VBO,5.237023,52.144210
Meester Willemsenlaan,13,,,3734JE,Den Dolder,Zeist,Utrecht,VBO,5.236351,52.144210
Meester Willemsenlaan,14,,,3734JE,Den Dolder,Zeist,Utrecht,VBO,5.237023,52.144255
Meester Willemsenlaan,15,,,3734JE,Den Dolder,Zeist,Utrecht,VBO,5.236336,52.144264
Meester Willemsenlaan,16,,,3734JE,Den Dolder,Zeist,Utrecht,VBO,5.237008,52.144309
Meester Willemsenlaan,17,,,3734JE,Den Dolder,Zeist,Utrecht,VBO,5.236321,52.144308
Meester Willemsenlaan,18,,,3734JE,Den Dolder,Zeist,Utrecht,VBO,5.236993,52.144354
Meester Willemsenlaan,19,,,3734JE,Den Dolder,Zeist,Utrecht,VBO,5.236321,52.144362
Meester Willemsenlaan,20,,,3734JE,Den Dolder,Zeist,Utrecht,VBO,5.236993,52.144399
Ko van Mil-laan,1,,,3734JG,Den Dolder,Zeist,Utrecht,VBO,5.237477,52.143995
Ko van Mil-laan,2,,,3734JG,Den Dolder,Zeist,Utrecht,VBO,5.238061,52.144041
Ko van Mil-laan,3,,,3734JG,Den Dolder,Zeist,Utrecht,VBO,5.237476,52.144040
Ko van Mil-laan,4,,,3734JG,Den Dolder,Zeist,Utrecht,VBO,5.238046,52.144104
Ko van Mil-laan,5,,,3734JG,Den Dolder,Zeist,Utrecht,VBO,5.237462,52.144094
Ko van Mil-laan,6,,,3734JG,Den Dolder,Zeist,Utrecht,VBO,5.238046,52.144158
Ko van Mil-laan,7,,,3734JG,Den Dolder,Zeist,Utrecht,VBO,5.237461,52.144139
Ko van Mil-laan,8,,,3734JG,Den Dolder,Zeist,Utrecht,VBO,5.238031,52.144212
Ko van Mil-laan,9,,,3734JG,Den Dolder,Zeist,Utrecht,VBO,5.237447,52.144184
Ko van Mil-laan,10,,,3734JG,Den Dolder,Zeist,Utrecht,VBO,5.238031,52.144257
Ko van Mil-laan,11,,,3734JG,Den Dolder,Zeist,Utrecht,VBO,5.237447,52.144238
Ko van Mil-laan,12,,,3734JG,Den Dolder,Zeist,Utrecht,VBO,5.238016,52.144320
Ko van Mil-laan,13,,,3734JG,Den Dolder,Zeist,Utrecht,VBO,5.237432,52.144283
Ko van Mil-laan,14,,,3734JG,Den Dolder,Zeist,Utrecht,VBO,5.238001,52.144374
Ko van Mil-laan,15,,,3734JG,Den Dolder,Zeist,Utrecht,VBO,5.237432,52.144337
Ko van Mil-laan,16,,,3734JG,Den Dolder,Zeist,Utrecht,VBO,5.238001,52.144418
Ko van Mil-laan,17,,,3734JG,Den Dolder,Zeist,Utrecht,VBO,5.237417,52.144382
Ko van Mil-laan,18,,,3734JG,Den Dolder,Zeist,Utrecht,VBO,5.237986,52.144481
Ko van Mil-laan,19,,,3734JG,Den Dolder,Zeist,Utrecht,VBO,5.237402,52.144427
Mevrouw Inden-Reisslaan,1,,,3734JH,Den Dolder,Zeist,Utrecht,VBO,5.238132,52.144643
Mevrouw Inden-Reisslaan,3,,,3734JH,Den Dolder,Zeist,Utrecht,VBO,5.238000,52.144643
Mevrouw Inden-Reisslaan,5,,,3734JH,Den Dolder,Zeist,Utrecht,VBO,5.237869,52.144625
Mevrouw Inden-Reisslaan,7,,,3734JH,Den Dolder,Zeist,Utrecht,VBO,5.237489,52.144598
Mevrouw Inden-Reisslaan,9,,,3734JH,Den Dolder,Zeist,Utrecht,VBO,5.237358,52.144588
Mevrouw Inden-Reisslaan,11,,,3734JH,Den Dolder,Zeist,Utrecht,VBO,5.237226,52.144570
Mevrouw Inden-Reisslaan,13,,,3734JH,Den Dolder,Zeist,Utrecht,VBO,5.237066,52.144552
Mevrouw Inden-Reisslaan,15,,,3734JH,Den Dolder,Zeist,Utrecht,VBO,5.236934,52.144543
Mevrouw Inden-Reisslaan,17,,,3734JH,Den Dolder,Zeist,Utrecht,VBO,5.236365,52.144506
Mevrouw Inden-Reisslaan,19,,,3734JH,Den Dolder,Zeist,Utrecht,VBO,5.236218,52.144506
Mevrouw Inden-Reisslaan,21,,,3734JH,Den Dolder,Zeist,Utrecht,VBO,5.236028,52.144533
Mevrouw Inden-Reisslaan,23,,,3734JH,Den Dolder,Zeist,Utrecht,VBO,5.235897,52.144542
Mevrouw Inden-Reisslaan,25,,,3734JH,Den Dolder,Zeist,Utrecht,VBO,5.235766,52.144523
Mevrouw Inden-Reisslaan,27,,,3734JH,Den Dolder,Zeist,Utrecht,VBO,5.235342,52.144586
Mevrouw Inden-Reisslaan,29,,,3734JH,Den Dolder,Zeist,Utrecht,VBO,5.235210,52.144568
Mevrouw Inden-Reisslaan,31,,,3734JH,Den Dolder,Zeist,Utrecht,VBO,5.235079,52.144568
Mevrouw Inden-Reisslaan,33,,,3734JH,Den Dolder,Zeist,Utrecht,VBO,5.234947,52.144558
Mevrouw Inden-Reisslaan,35,,,3734JH,Den Dolder,Zeist,Utrecht,VBO,5.234816,52.144540
Mevrouw Inden-Reisslaan,37,,,3734JH,Den Dolder,Zeist,Utrecht,VBO,5.234684,52.144540
Soestdijkerweg,3,A,,3734MG,Den Dolder,Zeist,Utrecht,VBO,5.230953,52.158676
Soestdijkerweg,3,B,,3734MG,Den Dolder,Zeist,Utrecht,VBO,5.230960,52.158585
Soestdijkerweg,3,C,,3734MG,Den Dolder,Zeist,Utrecht,VBO,5.230881,52.158493
Soestdijkerweg,3,D,,3734MG,Den Dolder,Zeist,Utrecht,VBO,5.230720,52.158520
Soestdijkerweg,3,,,3734MG,Den Dolder,Zeist,Utrecht,VBO,5.230752,52.158692
Soestdijkerweg,5,A,,3734MG,Den Dolder,Zeist,Utrecht,VBO,5.231884,52.160095
Soestdijkerweg,5,,,3734MG,Den Dolder,Zeist,Utrecht,VBO,5.232075,52.159825
Soestdijkerweg,7,,,3734MG,Den Dolder,Zeist,Utrecht,VBO,5.232292,52.162319
Soestdijkerweg,9,A,,3734MG,Den Dolder,Zeist,Utrecht,VBO,5.233829,52.163836
Soestdijkerweg,9,,,3734MG,Den Dolder,Zeist,Utrecht,VBO,5.232002,52.163959
Soestdijkerweg,11,,,3734MG,Den Dolder,Zeist,Utrecht,VBO,5.237887,52.165567
Soestdijkerweg,13,A,,3734MG,Den Dolder,Zeist,Utrecht,VBO,5.238120,52.165729
Soestdijkerweg,13,,,3734MG,Den Dolder,Zeist,Utrecht,VBO,5.238003,52.165639
Soestdijkerweg,15,,,3734MG,Den Dolder,Zeist,Utrecht,VBO,5.235911,52.166140
Soestdijkerweg,17,A,,3734MG,Den Dolder,Zeist,Utrecht,VBO,5.238245,52.167590
Soestdijkerweg,17,,,3734MG,Den Dolder,Zeist,Utrecht,VBO,5.237941,52.166637
Soestdijkerweg,2,A,,3734MH,Den Dolder,Zeist,Utrecht,VBO,5.228861,52.154491
Soestdijkerweg,2,,,3734MH,Den Dolder,Zeist,Utrecht,VBO,5.230809,52.155965
Soestdijkerweg,4,,,3734MH,Den Dolder,Zeist,Utrecht,VBO,5.230026,52.156587
Soestdijkerweg,8,A,,3734MH,Den Dolder,Zeist,Utrecht,VBO,5.236268,52.161572
Soestdijkerweg,8,B,,3734MH,Den Dolder,Zeist,Utrecht,VBO,5.236201,52.161807
Soestdijkerweg,8,C,,3734MH,Den Dolder,Zeist,Utrecht,VBO,5.236304,52.161785
Soestdijkerweg,8,D,,3734MH,Den Dolder,Zeist,Utrecht,VBO,5.236436,52.161755
Soestdijkerweg,8,,,3734MH,Den Dolder,Zeist,Utrecht,VBO,5.235795,52.161717
Soestdijkerweg,10,B,,3734MH,Den Dolder,Zeist,Utrecht,VBO,5.239140,52.164526
Soestdijkerweg,10,,,3734MH,Den Dolder,Zeist,Utrecht,VBO,5.241107,52.162724
Soestdijkerweg,12,A,,3734MH,Den Dolder,Zeist,Utrecht,VBO,5.241460,52.164672
Soestdijkerweg,12,B,,3734MH,Den Dolder,Zeist,Utrecht,VBO,5.243799,52.163076
Soestdijkerweg,12,D,,3734MH,Den Dolder,Zeist,Utrecht,VBO,5.243917,52.162878
Soestdijkerweg,12,,,3734MH,Den Dolder,Zeist,Utrecht,VBO,5.241629,52.165383
Dr. Engelhardlaan,1,,,3734VA,Den Dolder,Zeist,Utrecht,VBO,5.234845,52.140217
Dr. Engelhardlaan,3,,,3734VA,Den Dolder,Zeist,Utrecht,VBO,5.234757,52.140379
Dr. Engelhardlaan,5,,,3734VA,Den Dolder,Zeist,Utrecht,VBO,5.234728,52.140433
Dr. Engelhardlaan,7,,,3734VA,Den Dolder,Zeist,Utrecht,VBO,5.234684,52.140477
Dr. Engelhardlaan,9,,,3734VA,Den Dolder,Zeist,Utrecht,VBO,5.234654,52.140540
Dr. Engelhardlaan,11,,,3734VA,Den Dolder,Zeist,Utrecht,VBO,5.234596,52.140585
Dr. Engelhardlaan,13,,,3734VA,Den Dolder,Zeist,Utrecht,VBO,5.234581,52.140630
Dr. Engelhardlaan,15,,,3734VA,Den Dolder,Zeist,Utrecht,VBO,5.234449,52.140792
Dr. Engelhardlaan,17,,,3734VA,Den Dolder,Zeist,Utrecht,VBO,5.234302,52.141025
Dr. Engelhardlaan,19,,,3734VA,Den Dolder,Zeist,Utrecht,VBO,5.234199,52.141169
Dr. Engelhardlaan,21,,,3734VA,Den Dolder,Zeist,Utrecht,VBO,5.234199,52.141241
Dr. Engelhardlaan,23,,,3734VA,Den Dolder,Zeist,Utrecht,VBO,5.234170,52.141286
Dr. Engelhardlaan,25,,,3734VA,Den Dolder,Zeist,Utrecht,VBO,5.234082,52.141331
Dr. Engelhardlaan,2,,,3734VB,Den Dolder,Zeist,Utrecht,VBO,5.234931,52.140891
Dr. Engelhardlaan,4,,,3734VB,Den Dolder,Zeist,Utrecht,VBO,5.234843,52.140909
Dr. Engelhardlaan,6,,,3734VB,Den Dolder,Zeist,Utrecht,VBO,5.234814,52.140945
Dr. Engelhardlaan,8,,,3734VB,Den Dolder,Zeist,Utrecht,VBO,5.234799,52.140972
Dr. Engelhardlaan,10,,,3734VB,Den Dolder,Zeist,Utrecht,VBO,5.234784,52.141008
Dr. Engelhardlaan,12,,,3734VB,Den Dolder,Zeist,Utrecht,VBO,5.234755,52.141044
Dr. Engelhardlaan,14,,,3734VB,Den Dolder,Zeist,Utrecht,VBO,5.234740,52.141080
Dr. Engelhardlaan,16,,,3734VB,Den Dolder,Zeist,Utrecht,VBO,5.234711,52.141107
Dr. Engelhardlaan,18,,,3734VB,Den Dolder,Zeist,Utrecht,VBO,5.234696,52.141134
Dr. Engelhardlaan,20,,,3734VB,Den Dolder,Zeist,Utrecht,VBO,5.234667,52.141179
Dr. Engelhardlaan,22,,,3734VB,Den Dolder,Zeist,Utrecht,VBO,5.234652,52.141214
Dr. Engelhardlaan,24,,,3734VB,Den Dolder,Zeist,Utrecht,VBO,5.234623,52.141241
Dr. Engelhardlaan,26,,,3734VB,Den Dolder,Zeist,Utrecht,VBO,5.234608,52.141277
Dr. Engelhardlaan,28,,,3734VB,Den Dolder,Zeist,Utrecht,VBO,5.234579,52.141304
Dr. Engelhardlaan,30,,,3734VB,Den Dolder,Zeist,Utrecht,VBO,5.234564,52.141331
Dr. Engelhardlaan,32,,,3734VB,Den Dolder,Zeist,Utrecht,VBO,5.234534,52.141376
Dr. Engelhardlaan,34,,,3734VB,Den Dolder,Zeist,Utrecht,VBO,5.234505,52.141412
Dr. Engelhardlaan,36,,,3734VB,Den Dolder,Zeist,Utrecht,VBO,5.234490,52.141448
Dr. Engelhardlaan,38,,,3734VB,Den Dolder,Zeist,Utrecht,VBO,5.234461,52.141475
Dr. Engelhardlaan,40,,,3734VB,Den Dolder,Zeist,Utrecht,VBO,5.234490,52.141520
Johannes van Duurenlaan,1,,,3734VC,Den Dolder,Zeist,Utrecht,VBO,5.233867,52.139991
Johannes van Duurenlaan,3,,,3734VC,Den Dolder,Zeist,Utrecht,VBO,5.233779,52.140144
Johannes van Duurenlaan,5,,,3734VC,Den Dolder,Zeist,Utrecht,VBO,5.233764,52.140189
Johannes van Duurenlaan,7,,,3734VC,Den Dolder,Zeist,Utrecht,VBO,5.233735,52.140243
Johannes van Duurenlaan,9,,,3734VC,Den Dolder,Zeist,Utrecht,VBO,5.233706,52.140287
Johannes van Duurenlaan,11,,,3734VC,Den Dolder,Zeist,Utrecht,VBO,5.233662,52.140323
Johannes van Duurenlaan,13,,,3734VC,Den Dolder,Zeist,Utrecht,VBO,5.233618,52.140386
Johannes van Duurenlaan,15,,,3734VC,Den Dolder,Zeist,Utrecht,VBO,5.233500,52.140539
Johannes van Duurenlaan,17,,,3734VC,Den Dolder,Zeist,Utrecht,VBO,5.233339,52.140763
Johannes van Duurenlaan,19,,,3734VC,Den Dolder,Zeist,Utrecht,VBO,5.233236,52.140943
Johannes van Duurenlaan,21,,,3734VC,Den Dolder,Zeist,Utrecht,VBO,5.233206,52.140997
Johannes van Duurenlaan,23,,,3734VC,Den Dolder,Zeist,Utrecht,VBO,5.233162,52.141042
Johannes van Duurenlaan,25,,,3734VC,Den Dolder,Zeist,Utrecht,VBO,5.233133,52.141069
Johannes van Duurenlaan,2,,,3734VD,Den Dolder,Zeist,Utrecht,VBO,5.234232,52.140234
Johannes van Duurenlaan,4,,,3734VD,Den Dolder,Zeist,Utrecht,VBO,5.234188,52.140288
Johannes van Duurenlaan,6,,,3734VD,Den Dolder,Zeist,Utrecht,VBO,5.234144,52.140333
Johannes van Duurenlaan,8,,,3734VD,Den Dolder,Zeist,Utrecht,VBO,5.234114,52.140396
Johannes van Duurenlaan,10,,,3734VD,Den Dolder,Zeist,Utrecht,VBO,5.234114,52.140459
Johannes van Duurenlaan,12,,,3734VD,Den Dolder,Zeist,Utrecht,VBO,5.234041,52.140486
Johannes van Duurenlaan,14,,,3734VD,Den Dolder,Zeist,Utrecht,VBO,5.233674,52.141042
Johannes van Duurenlaan,16,,,3734VD,Den Dolder,Zeist,Utrecht,VBO,5.233630,52.141087
Johannes van Duurenlaan,18,,,3734VD,Den Dolder,Zeist,Utrecht,VBO,5.233615,52.141132
Johannes van Duurenlaan,20,,,3734VD,Den Dolder,Zeist,Utrecht,VBO,5.233571,52.141186
Maria van Vulpenlaan,1,,,3734VE,Den Dolder,Zeist,Utrecht,VBO,5.234376,52.140783
Maria van Vulpenlaan,2,,,3734VE,Den Dolder,Zeist,Utrecht,VBO,5.234200,52.140998
Maria van Vulpenlaan,3,,,3734VE,Den Dolder,Zeist,Utrecht,VBO,5.234274,52.140756
Maria van Vulpenlaan,4,,,3734VE,Den Dolder,Zeist,Utrecht,VBO,5.234127,52.140971
Maria van Vulpenlaan,5,,,3734VE,Den Dolder,Zeist,Utrecht,VBO,5.234201,52.140729
Maria van Vulpenlaan,6,,,3734VE,Den Dolder,Zeist,Utrecht,VBO,5.234054,52.140953
Maria van Vulpenlaan,7,,,3734VE,Den Dolder,Zeist,Utrecht,VBO,5.234113,52.140710
Maria van Vulpenlaan,8,,,3734VE,Den Dolder,Zeist,Utrecht,VBO,5.233966,52.140935
Maria van Vulpenlaan,9,,,3734VE,Den Dolder,Zeist,Utrecht,VBO,5.234040,52.140692
Maria van Vulpenlaan,10,,,3734VE,Den Dolder,Zeist,Utrecht,VBO,5.233879,52.140926
Maria van Vulpenlaan,11,,,3734VE,Den Dolder,Zeist,Utrecht,VBO,5.233953,52.140674
Maria van Vulpenlaan,12,,,3734VE,Den Dolder,Zeist,Utrecht,VBO,5.233806,52.140908
Maria van Vulpenlaan,13,,,3734VE,Den Dolder,Zeist,Utrecht,VBO,5.233398,52.140521
Maria van Vulpenlaan,14,,,3734VE,Den Dolder,Zeist,Utrecht,VBO,5.233266,52.140754
Maria van Vulpenlaan,15,,,3734VE,Den Dolder,Zeist,Utrecht,VBO,5.233310,52.140503
Maria van Vulpenlaan,16,,,3734VE,Den Dolder,Zeist,Utrecht,VBO,5.233193,52.140718
Maria van Vulpenlaan,17,,,3734VE,Den Dolder,Zeist,Utrecht,VBO,5.233223,52.140476
Maria van Vulpenlaan,18,,,3734VE,Den Dolder,Zeist,Utrecht,VBO,5.233061,52.140700
Schroeder van der Kolklaan,2,,,3734VG,Den Dolder,Zeist,Utrecht,VBO,5.233268,52.140026
Schroeder van der Kolklaan,4,,,3734VG,Den Dolder,Zeist,Utrecht,VBO,5.233224,52.140089
Schroeder van der Kolklaan,6,,,3734VG,Den Dolder,Zeist,Utrecht,VBO,5.233151,52.140179
Schroeder van der Kolklaan,8,,,3734VG,Den Dolder,Zeist,Utrecht,VBO,5.233121,52.140251
Schroeder van der Kolklaan,10,,,3734VG,Den Dolder,Zeist,Utrecht,VBO,5.233033,52.140350
Schroeder van der Kolklaan,12,,,3734VG,Den Dolder,Zeist,Utrecht,VBO,5.232989,52.140412
Schroeder van der Kolklaan,14,,,3734VG,Den Dolder,Zeist,Utrecht,VBO,5.232828,52.140646
Schroeder van der Kolklaan,16,,,3734VG,Den Dolder,Zeist,Utrecht,VBO,5.232769,52.140727
Schroeder van der Kolklaan,18,,,3734VG,Den Dolder,Zeist,Utrecht,VBO,5.232681,52.140834
Schroeder van der Kolklaan,20,,,3734VG,Den Dolder,Zeist,Utrecht,VBO,5.232681,52.140915
Schroeder van der Kolklaan,22,,,3734VG,Den Dolder,Zeist,Utrecht,VBO,5.232564,52.141014
Schroeder van der Kolklaan,24,,,3734VG,Den Dolder,Zeist,Utrecht,VBO,5.232520,52.141086
Schroeder van der Kolklaan,26,,,3734VG,Den Dolder,Zeist,Utrecht,VBO,5.232504,52.141427
Schroeder van der Kolklaan,28,,,3734VG,Den Dolder,Zeist,Utrecht,VBO,5.232460,52.141490
Schroeder van der Kolklaan,30,,,3734VG,Den Dolder,Zeist,Utrecht,VBO,5.232357,52.141688
Schroeder van der Kolklaan,32,,,3734VG,Den Dolder,Zeist,Utrecht,VBO,5.232313,52.141751
Schroeder van der Kolklaan,34,,,3734VG,Den Dolder,Zeist,Utrecht,VBO,5.232225,52.141876
Schroeder van der Kolklaan,36,,,3734VG,Den Dolder,Zeist,Utrecht,VBO,5.232166,52.141966
Schroeder van der Kolklaan,1,,,3734VH,Den Dolder,Zeist,Utrecht,VBO,5.232348,52.139881
Schroeder van der Kolklaan,5,,,3734VH,Den Dolder,Zeist,Utrecht,VBO,5.232155,52.140834
Schroeder van der Kolklaan,7,,,3734VH,Den Dolder,Zeist,Utrecht,VBO,5.232096,52.140950
Schroeder van der Kolklaan,9,,,3734VH,Den Dolder,Zeist,Utrecht,VBO,5.231920,52.141328
Schroeder van der Kolklaan,11,,,3734VH,Den Dolder,Zeist,Utrecht,VBO,5.231758,52.141543
Schroeder van der Kolklaan,13,,,3734VH,Den Dolder,Zeist,Utrecht,VBO,5.231685,52.141651
Gerhard Pranglaan,1,,,3734VJ,Den Dolder,Zeist,Utrecht,VBO,5.231702,52.140869
Gerhard Pranglaan,2,,,3734VJ,Den Dolder,Zeist,Utrecht,VBO,5.231643,52.141228
Gerhard Pranglaan,3,,,3734VJ,Den Dolder,Zeist,Utrecht,VBO,5.231454,52.140770
Gerhard Pranglaan,4,,,3734VJ,Den Dolder,Zeist,Utrecht,VBO,5.231350,52.141219
Gerhard Pranglaan,5,,,3734VJ,Den Dolder,Zeist,Utrecht,VBO,5.231162,52.140716
Gerhard Pranglaan,6,,,3734VJ,Den Dolder,Zeist,Utrecht,VBO,5.231103,52.141075
Gerhard Pranglaan,7,,,3734VJ,Den Dolder,Zeist,Utrecht,VBO,5.230871,52.140598
Gerhard Pranglaan,8,,,3734VJ,Den Dolder,Zeist,Utrecht,VBO,5.230825,52.141057
Gerhard Pranglaan,9,,,3734VJ,Den Dolder,Zeist,Utrecht,VBO,5.230462,52.140400
Gerhard Pranglaan,10,,,3734VJ,Den Dolder,Zeist,Utrecht,VBO,5.230445,52.141137
Gerhard Pranglaan,11,,,3734VJ,Den Dolder,Zeist,Utrecht,VBO,5.230330,52.140553
Gerhard Pranglaan,13,,,3734VJ,Den Dolder,Zeist,Utrecht,VBO,5.230194,52.140740
Dr. Stärckelaan,1,A,,3734XA,Den Dolder,Zeist,Utrecht,VBO,5.236317,52.141396
Dr. Stärckelaan,1,B,,3734XA,Den Dolder,Zeist,Utrecht,VBO,5.236331,52.141342
Dr. Stärckelaan,1,C,,3734XA,Den Dolder,Zeist,Utrecht,VBO,5.236317,52.141288
Dr. Stärckelaan,1,D,,3734XA,Den Dolder,Zeist,Utrecht,VBO,5.236376,52.141163
Dr. Stärckelaan,1,,,3734XA,Den Dolder,Zeist,Utrecht,VBO,5.236331,52.141441
Dr. Stärckelaan,3,,,3734XA,Den Dolder,Zeist,Utrecht,VBO,5.236361,52.141100
Dr. Stärckelaan,5,,,3734XA,Den Dolder,Zeist,Utrecht,VBO,5.236362,52.141046
Dr. Stärckelaan,7,,,3734XA,Den Dolder,Zeist,Utrecht,VBO,5.236406,52.140983
Dr. Stärckelaan,9,,,3734XA,Den Dolder,Zeist,Utrecht,VBO,5.236055,52.140920
Dr. Stärckelaan,11,,,3734XA,Den Dolder,Zeist,Utrecht,VBO,5.235968,52.140902
Dr. Stärckelaan,13,,,3734XA,Den Dolder,Zeist,Utrecht,VBO,5.235880,52.140883
Dr. Stärckelaan,15,,,3734XA,Den Dolder,Zeist,Utrecht,VBO,5.235778,52.140847
Dr. Stärckelaan,17,,,3734XA,Den Dolder,Zeist,Utrecht,VBO,5.235647,52.140820
Dr. Stärckelaan,19,,,3734XA,Den Dolder,Zeist,Utrecht,VBO,5.235559,52.140802
Dr. Stärckelaan,21,,,3734XA,Den Dolder,Zeist,Utrecht,VBO,5.235486,52.140784
Dr. Stärckelaan,23,,,3734XA,Den Dolder,Zeist,Utrecht,VBO,5.235398,52.140766
Dr. Stärckelaan,25,,,3734XA,Den Dolder,Zeist,Utrecht,VBO,5.235325,52.140748
Dr. Stärckelaan,27,,,3734XA,Den Dolder,Zeist,Utrecht,VBO,5.235238,52.140721
Dr. Stärckelaan,29,,,3734XA,Den Dolder,Zeist,Utrecht,VBO,5.235150,52.140703
Dr. Stärckelaan,31,,,3734XA,Den Dolder,Zeist,Utrecht,VBO,5.235063,52.140658
Dr. Stärckelaan,2,,,3734XB,Den Dolder,Zeist,Utrecht,VBO,5.235848,52.141656
Dr. Stärckelaan,4,,,3734XB,Den Dolder,Zeist,Utrecht,VBO,5.235863,52.141620
Dr. Stärckelaan,6,,,3734XB,Den Dolder,Zeist,Utrecht,VBO,5.235863,52.141594
Dr. Stärckelaan,8,,,3734XB,Den Dolder,Zeist,Utrecht,VBO,5.235878,52.141558
Dr. Stärckelaan,10,,,3734XB,Den Dolder,Zeist,Utrecht,VBO,5.235893,52.141522
Dr. Stärckelaan,12,,,3734XB,Den Dolder,Zeist,Utrecht,VBO,5.235893,52.141486
Dr. Stärckelaan,14,,,3734XB,Den Dolder,Zeist,Utrecht,VBO,5.235893,52.141450
Dr. Stärckelaan,16,,,3734XB,Den Dolder,Zeist,Utrecht,VBO,5.235849,52.141405
Dr. Stärckelaan,18,,,3734XB,Den Dolder,Zeist,Utrecht,VBO,5.235849,52.141378
Dr. Stärckelaan,20,,,3734XB,Den Dolder,Zeist,Utrecht,VBO,5.235908,52.141333
Dr. Stärckelaan,22,,,3734XB,Den Dolder,Zeist,Utrecht,VBO,5.235923,52.141306
Dr. Stärckelaan,24,,,3734XB,Den Dolder,Zeist,Utrecht,VBO,5.235937,52.141270
Dr. Stärckelaan,26,,,3734XB,Den Dolder,Zeist,Utrecht,VBO,5.235937,52.141234
Dr. Stärckelaan,28,,,3734XB,Den Dolder,Zeist,Utrecht,VBO,5.235952,52.141198
Dr. Stärckelaan,30,,,3734XB,Den Dolder,Zeist,Utrecht,VBO,5.235938,52.141162
Dr. Stärckelaan,32,,,3734XB,Den Dolder,Zeist,Utrecht,VBO,5.235938,52.141126
Johannes Wierlaan,1,,,3734XC,Den Dolder,Zeist,Utrecht,VBO,5.236827,52.141640
Johannes Wierlaan,3,,,3734XC,Den Dolder,Zeist,Utrecht,VBO,5.236754,52.141640
Johannes Wierlaan,5,,,3734XC,Den Dolder,Zeist,Utrecht,VBO,5.236681,52.141639
Johannes Wierlaan,7,,,3734XC,Den Dolder,Zeist,Utrecht,VBO,5.236623,52.141621
Johannes Wierlaan,9,,,3734XC,Den Dolder,Zeist,Utrecht,VBO,5.236535,52.141630
Johannes Wierlaan,11,,,3734XC,Den Dolder,Zeist,Utrecht,VBO,5.236447,52.141612
Johannes Wierlaan,13,,,3734XC,Den Dolder,Zeist,Utrecht,VBO,5.236360,52.141603
Johannes Wierlaan,15,,,3734XC,Den Dolder,Zeist,Utrecht,VBO,5.236287,52.141603
Johannes Wierlaan,101,,,3734XC,Den Dolder,Zeist,Utrecht,VBO,5.233979,52.141492
Johannes Wierlaan,103,,,3734XC,Den Dolder,Zeist,Utrecht,VBO,5.233891,52.141483
Johannes Wierlaan,105,,,3734XC,Den Dolder,Zeist,Utrecht,VBO,5.233804,52.141456
Johannes Wierlaan,107,,,3734XC,Den Dolder,Zeist,Utrecht,VBO,5.233731,52.141429
Johannes Wierlaan,109,,,3734XC,Den Dolder,Zeist,Utrecht,VBO,5.233643,52.141411
Johannes Wierlaan,111,,,3734XC,Den Dolder,Zeist,Utrecht,VBO,5.233556,52.141384
Johannes Wierlaan,113,,,3734XC,Den Dolder,Zeist,Utrecht,VBO,5.233497,52.141375
Johannes Wierlaan,115,,,3734XC,Den Dolder,Zeist,Utrecht,VBO,5.233001,52.141221
Johannes Wierlaan,117,,,3734XC,Den Dolder,Zeist,Utrecht,VBO,5.232943,52.141230
Johannes Wierlaan,119,,,3734XC,Den Dolder,Zeist,Utrecht,VBO,5.232855,52.141203
Johannes Wierlaan,121,,,3734XC,Den Dolder,Zeist,Utrecht,VBO,5.232753,52.141185
Johannes Wierlaan,2,,,3734XD,Den Dolder,Zeist,Utrecht,VBO,5.236724,52.141936
Johannes Wierlaan,4,,,3734XD,Den Dolder,Zeist,Utrecht,VBO,5.236695,52.141891
Johannes Wierlaan,6,,,3734XD,Den Dolder,Zeist,Utrecht,VBO,5.236636,52.141891
Johannes Wierlaan,8,,,3734XD,Den Dolder,Zeist,Utrecht,VBO,5.236563,52.141882
Johannes Wierlaan,10,,,3734XD,Den Dolder,Zeist,Utrecht,VBO,5.236519,52.141882
Johannes Wierlaan,12,,,3734XD,Den Dolder,Zeist,Utrecht,VBO,5.236461,52.141873
Johannes Wierlaan,14,,,3734XD,Den Dolder,Zeist,Utrecht,VBO,5.236403,52.141873
Johannes Wierlaan,16,,,3734XD,Den Dolder,Zeist,Utrecht,VBO,5.236344,52.141864
Johannes Wierlaan,18,,,3734XD,Den Dolder,Zeist,Utrecht,VBO,5.236286,52.141864
Johannes Wierlaan,20,,,3734XD,Den Dolder,Zeist,Utrecht,VBO,5.236213,52.141864
Johannes Wierlaan,22,,,3734XD,Den Dolder,Zeist,Utrecht,VBO,5.236169,52.141864
Johannes Wierlaan,24,,,3734XD,Den Dolder,Zeist,Utrecht,VBO,5.236081,52.141890
Johannes Wierlaan,26,,,3734XD,Den Dolder,Zeist,Utrecht,VBO,5.235848,52.141872
Johannes Wierlaan,28,,,3734XD,Den Dolder,Zeist,Utrecht,VBO,5.235804,52.141836
Johannes Wierlaan,30,,,3734XD,Den Dolder,Zeist,Utrecht,VBO,5.235760,52.141836
Johannes Wierlaan,32,,,3734XD,Den Dolder,Zeist,Utrecht,VBO,5.235702,52.141827
Johannes Wierlaan,34,,,3734XD,Den Dolder,Zeist,Utrecht,VBO,5.235643,52.141827
Johannes Wierlaan,36,,,3734XD,Den Dolder,Zeist,Utrecht,VBO,5.235570,52.141818
Johannes Wierlaan,38,,,3734XD,Den Dolder,Zeist,Utrecht,VBO,5.235512,52.141818
Johannes Wierlaan,40,,,3734XD,Den Dolder,Zeist,Utrecht,VBO,5.235453,52.141818
Johannes Wierlaan,42,,,3734XD,Den Dolder,Zeist,Utrecht,VBO,5.235410,52.141809
Johannes Wierlaan,44,,,3734XD,Den Dolder,Zeist,Utrecht,VBO,5.235351,52.141809
Johannes Wierlaan,46,,,3734XD,Den Dolder,Zeist,Utrecht,VBO,5.235293,52.141799
Johannes Wierlaan,48,,,3734XD,Den Dolder,Zeist,Utrecht,VBO,5.235205,52.141835
Johannes Wierlaan,50,,,3734XE,Den Dolder,Zeist,Utrecht,VBO,5.234971,52.141817
Johannes Wierlaan,52,,,3734XE,Den Dolder,Zeist,Utrecht,VBO,5.234928,52.141772
Johannes Wierlaan,54,,,3734XE,Den Dolder,Zeist,Utrecht,VBO,5.234869,52.141772
Johannes Wierlaan,56,,,3734XE,Den Dolder,Zeist,Utrecht,VBO,5.234811,52.141763
Johannes Wierlaan,58,,,3734XE,Den Dolder,Zeist,Utrecht,VBO,5.234752,52.141763
Johannes Wierlaan,60,,,3734XE,Den Dolder,Zeist,Utrecht,VBO,5.234694,52.141754
Johannes Wierlaan,62,,,3734XE,Den Dolder,Zeist,Utrecht,VBO,5.234635,52.141754
Johannes Wierlaan,64,,,3734XE,Den Dolder,Zeist,Utrecht,VBO,5.234577,52.141754
Johannes Wierlaan,66,,,3734XE,Den Dolder,Zeist,Utrecht,VBO,5.234519,52.141745
Johannes Wierlaan,68,,,3734XE,Den Dolder,Zeist,Utrecht,VBO,5.234446,52.141744
Johannes Wierlaan,70,,,3734XE,Den Dolder,Zeist,Utrecht,VBO,5.234402,52.141744
Johannes Wierlaan,72,,,3734XE,Den Dolder,Zeist,Utrecht,VBO,5.234329,52.141771
Johannes Wierlaan,74,,,3734XE,Den Dolder,Zeist,Utrecht,VBO,5.233920,52.141789
Johannes Wierlaan,76,,,3734XE,Den Dolder,Zeist,Utrecht,VBO,5.233847,52.141744
Johannes Wierlaan,78,,,3734XE,Den Dolder,Zeist,Utrecht,VBO,5.233788,52.141726
Johannes Wierlaan,80,,,3734XE,Den Dolder,Zeist,Utrecht,VBO,5.233671,52.141717
Johannes Wierlaan,82,,,3734XE,Den Dolder,Zeist,Utrecht,VBO,5.233511,52.141689
Johannes Wierlaan,84,,,3734XE,Den Dolder,Zeist,Utrecht,VBO,5.233453,52.141653
Johannes Wierlaan,86,,,3734XE,Den Dolder,Zeist,Utrecht,VBO,5.233365,52.141626
Johannes Wierlaan,88,,,3734XE,Den Dolder,Zeist,Utrecht,VBO,5.233234,52.141617
Johannes Wierlaan,90,,,3734XE,Den Dolder,Zeist,Utrecht,VBO,5.233058,52.141563
Johannes Wierlaan,92,,,3734XE,Den Dolder,Zeist,Utrecht,VBO,5.233015,52.141536
Johannes Wierlaan,94,,,3734XE,Den Dolder,Zeist,Utrecht,VBO,5.232927,52.141509
Johannes Wierlaan,96,,,3734XE,Den Dolder,Zeist,Utrecht,VBO,5.232796,52.141500
