openbareruimtenaam,huisnummer,huisletter,huisnummertoevoeging,postcode,woonplaatsnaam,gemeentenaam,provincienaam,typeadresseerbaarobject,longitude,latitude
Molenhof,1,,,3738BB,Maartensdijk,De Bilt,Utrecht,VBO,5.178282,52.157684
Molenhof,2,,,3738BB,Maartensdijk,De Bilt,Utrecht,VBO,5.178101,52.157398
Molenhof,3,,,3738BB,Maartensdijk,De Bilt,Utrecht,VBO,5.178041,52.157566
Dorpsweg,1,A,,3738CA,Maartensdijk,De Bilt,Utrecht,VBO,5.165916,52.158650
Dorpsweg,1,B,,3738CA,Maartensdijk,De Bilt,Utrecht,VBO,5.166096,52.158637
Dorpsweg,3,,,3738CA,Maartensdijk,De Bilt,Utrecht,VBO,5.166401,52.158710
Dorpsweg,5,,,3738CA,Maartensdijk,De Bilt,Utrecht,VBO,5.166579,52.158598
Dorpsweg,7,,,3738CA,Maartensdijk,De Bilt,Utrecht,VBO,5.166637,52.158677
Dorpsweg,9,,,3738CA,Maartensdijk,De Bilt,Utrecht,VBO,5.166840,52.158721
Dorpsweg,11,,,3738CA,Maartensdijk,De Bilt,Utrecht,VBO,5.166802,52.158670
Dorpsweg,13,,,3738CA,Maartensdijk,De Bilt,Utrecht,VBO,5.166778,52.158623
Dorpsweg,19,A,,3738CA,Maartensdijk,De Bilt,Utrecht,VBO,5.167988,52.159235
Dorpsweg,19,,,3738CA,Maartensdijk,De Bilt,Utrecht,VBO,5.167991,52.158919
Dorpsweg,23,,,3738CA,Maartensdijk,De Bilt,Utrecht,VBO,5.169221,52.158549
Dorpsweg,25,A,,3738CA,Maartensdijk,De Bilt,Utrecht,VBO,5.170386,52.158573
Dorpsweg,25,,,3738CA,Maartensdijk,De Bilt,Utrecht,VBO,5.170044,52.158652
Dorpsweg,27,,,3738CA,Maartensdijk,De Bilt,Utrecht,VBO,5.170722,52.158554
Dorpsweg,29,,,3738CA,Maartensdijk,De Bilt,Utrecht,VBO,5.170774,52.158543
Dorpsweg,31,,,3738CA,Maartensdijk,De Bilt,Utrecht,VBO,5.170914,52.158544
Dorpsweg,33,,,3738CA,Maartensdijk,De Bilt,Utrecht,VBO,5.170980,52.158540
Dorpsweg,35,,,3738CA,Maartensdijk,De Bilt,Utrecht,VBO,5.171122,52.158521
Dorpsweg,37,,,3738CA,Maartensdijk,De Bilt,Utrecht,VBO,5.171190,52.158519
Dorpsweg,39,,,3738CA,Maartensdijk,De Bilt,Utrecht,VBO,5.171401,52.158566
Dorpsweg,43,,,3738CA,Maartensdijk,De Bilt,Utrecht,VBO,5.171785,52.158657
Dorpsweg,45,,,3738CA,Maartensdijk,De Bilt,Utrecht,VBO,5.172320,52.158619
Dorpsweg,47,A,,3738CA,Maartensdijk,De Bilt,Utrecht,VBO,5.173412,52.158696
Dorpsweg,47,B,,3738CA,Maartensdijk,De Bilt,Utrecht,VBO,5.174009,52.159532
Dorpsweg,47,,,3738CA,Maartensdijk,De Bilt,Utrecht,VBO,5.173114,52.158834
Dorpsweg,51,,,3738CB,Maartensdijk,De Bilt,Utrecht,VBO,5.174115,52.158927
Dorpsweg,53,,,3738CB,Maartensdijk,De Bilt,Utrecht,VBO,5.174137,52.158735
Dorpsweg,55,,,3738CB,Maartensdijk,De Bilt,Utrecht,VBO,5.174569,52.158712
Dorpsweg,57,,,3738CB,Maartensdijk,De Bilt,Utrecht,VBO,5.175446,52.158679
Dorpsweg,59,,,3738CB,Maartensdijk,De Bilt,Utrecht,VBO,5.175538,52.158658
Dorpsweg,61,,,3738CB,Maartensdijk,De Bilt,Utrecht,VBO,5.176010,52.158887
Dorpsweg,65,,,3738CB,Maartensdijk,De Bilt,Utrecht,VBO,5.176290,52.158672
Dorpsweg,67,,,3738CB,Maartensdijk,De Bilt,Utrecht,VBO,5.176525,52.158662
Dorpsweg,71,,,3738CB,Maartensdijk,De Bilt,Utrecht,VBO,5.177177,52.158770
Dorpsweg,73,,,3738CB,Maartensdijk,De Bilt,Utrecht,VBO,5.177433,52.158689
Dorpsweg,75,A,,3738CB,Maartensdijk,De Bilt,Utrecht,VBO,5.177698,52.158712
Dorpsweg,75,,,3738CB,Maartensdijk,De Bilt,Utrecht,VBO,5.177535,52.158662
Dorpsweg,77,,,3738CB,Maartensdijk,De Bilt,Utrecht,VBO,5.177987,52.158707
Dorpsweg,79,,,3738CB,Maartensdijk,De Bilt,Utrecht,VBO,5.178518,52.158670
Dorpsweg,81,,,3738CB,Maartensdijk,De Bilt,Utrecht,VBO,5.178623,52.158666
Dorpsweg,83,,,3738CB,Maartensdijk,De Bilt,Utrecht,VBO,5.178943,52.158667
Dorpsweg,85,A,,3738CB,Maartensdijk,De Bilt,Utrecht,VBO,5.179451,52.158828
Dorpsweg,85,,TR,3738CB,Maartensdijk,De Bilt,Utrecht,VBO,5.179833,52.158742
Dorpsweg,85,,,3738CB,Maartensdijk,De Bilt,Utrecht,VBO,5.179339,52.158650
Dorpsweg,87,,,3738CB,Maartensdijk,De Bilt,Utrecht,VBO,5.182771,52.165107
Dorpsweg,89,,,3738CB,Maartensdijk,De Bilt,Utrecht,VBO,5.180558,52.158973
Dorpsweg,91,,,3738CB,Maartensdijk,De Bilt,Utrecht,VBO,5.180356,52.158694
Dorpsweg,95,,,3738CB,Maartensdijk,De Bilt,Utrecht,VBO,5.180911,52.158540
Dorpsweg,97,,,3738CB,Maartensdijk,De Bilt,Utrecht,VBO,5.181230,52.158536
Dorpsweg,99,,,3738CB,Maartensdijk,De Bilt,Utrecht,VBO,5.182000,52.158543
Dorpsweg,101,,,3738CC,Maartensdijk,De Bilt,Utrecht,VBO,5.182366,52.158522
Dorpsweg,103,,,3738CC,Maartensdijk,De Bilt,Utrecht,VBO,5.182475,52.158522
Dorpsweg,107,,,3738CC,Maartensdijk,De Bilt,Utrecht,VBO,5.182699,52.158452
Dorpsweg,109,,,3738CC,Maartensdijk,De Bilt,Utrecht,VBO,5.182961,52.158423
Dorpsweg,111,,,3738CC,Maartensdijk,De Bilt,Utrecht,VBO,5.183059,52.158413
Dorpsweg,117,,,3738CC,Maartensdijk,De Bilt,Utrecht,VBO,5.184083,52.158518
Dorpsweg,119,,,3738CC,Maartensdijk,De Bilt,Utrecht,VBO,5.184477,52.158500
Dorpsweg,121,,,3738CC,Maartensdijk,De Bilt,Utrecht,VBO,5.185031,52.158467
Dorpsweg,123,,,3738CC,Maartensdijk,De Bilt,Utrecht,VBO,5.185099,52.158456
Dorpsweg,125,,,3738CC,Maartensdijk,De Bilt,Utrecht,VBO,5.185157,52.158440
Dorpsweg,127,,,3738CC,Maartensdijk,De Bilt,Utrecht,VBO,5.185220,52.158429
Dorpsweg,129,,,3738CC,Maartensdijk,De Bilt,Utrecht,VBO,5.185265,52.158491
Dorpsweg,131,,,3738CC,Maartensdijk,De Bilt,Utrecht,VBO,5.185301,52.158568
Dorpsweg,139,,,3738CC,Maartensdijk,De Bilt,Utrecht,VBO,5.186478,52.158551
Dorpsweg,141,,,3738CC,Maartensdijk,De Bilt,Utrecht,VBO,5.187259,52.158849
Dorpsweg,143,,,3738CC,Maartensdijk,De Bilt,Utrecht,VBO,5.187641,52.158799
Dorpsweg,145,,,3738CC,Maartensdijk,De Bilt,Utrecht,VBO,5.187736,52.158808
Dorpsweg,147,,,3738CC,Maartensdijk,De Bilt,Utrecht,VBO,5.188147,52.158966
Dorpsweg,149,A,,3738CC,Maartensdijk,De Bilt,Utrecht,VBO,5.189131,52.159056
Dorpsweg,149,,,3738CC,Maartensdijk,De Bilt,Utrecht,VBO,5.188609,52.159000
Dorpsweg,151,A,,3738CD,Maartensdijk,De Bilt,Utrecht,VBO,5.189780,52.159344
Dorpsweg,151,,,3738CD,Maartensdijk,De Bilt,Utrecht,VBO,5.189715,52.159243
Dorpsweg,153,,,3738CD,Maartensdijk,De Bilt,Utrecht,VBO,5.190066,52.159204
Dorpsweg,155,,,3738CD,Maartensdijk,De Bilt,Utrecht,VBO,5.190032,52.159264
Dorpsweg,157,A,,3738CD,Maartensdijk,De Bilt,Utrecht,VBO,5.191185,52.160438
Dorpsweg,157,,,3738CD,Maartensdijk,De Bilt,Utrecht,VBO,5.190619,52.159662
Dorpsweg,161,,,3738CD,Maartensdijk,De Bilt,Utrecht,VBO,5.190709,52.159649
Dorpsweg,163,,,3738CD,Maartensdijk,De Bilt,Utrecht,VBO,5.190769,52.159634
Dorpsweg,165,,,3738CD,Maartensdijk,De Bilt,Utrecht,VBO,5.190830,52.159624
Dorpsweg,167,,,3738CD,Maartensdijk,De Bilt,Utrecht,VBO,5.190423,52.159240
Dorpsweg,169,,,3738CD,Maartensdijk,De Bilt,Utrecht,VBO,5.190506,52.159233
Dorpsweg,171,,,3738CD,Maartensdijk,De Bilt,Utrecht,VBO,5.191351,52.159447
Dorpsweg,173,,,3738CD,Maartensdijk,De Bilt,Utrecht,VBO,5.191791,52.159428
Dorpsweg,175,,,3738CD,Maartensdijk,De Bilt,Utrecht,VBO,5.192672,52.159654
Dorpsweg,177,,,3738CD,Maartensdijk,De Bilt,Utrecht,VBO,5.193303,52.160289
Dorpsweg,185,,,3738CD,Maartensdijk,De Bilt,Utrecht,VBO,5.195187,52.160387
Dorpsweg,187,,,3738CD,Maartensdijk,De Bilt,Utrecht,VBO,5.195541,52.160271
Dorpsweg,193,,,3738CD,Maartensdijk,De Bilt,Utrecht,VBO,5.198034,52.160345
Dorpsweg,195,,,3738CD,Maartensdijk,De Bilt,Utrecht,VBO,5.199298,52.160463
Dorpsweg,2,,,3738CE,Maartensdijk,De Bilt,Utrecht,VBO,5.165381,52.158150
Dorpsweg,4,,,3738CE,Maartensdijk,De Bilt,Utrecht,VBO,5.165848,52.158273
Dorpsweg,6,,,3738CE,Maartensdijk,De Bilt,Utrecht,VBO,5.166155,52.158218
Dorpsweg,10,,TR,3738CE,Maartensdijk,De Bilt,Utrecht,VBO,5.166352,52.158059
Dorpsweg,10,,,3738CE,Maartensdijk,De Bilt,Utrecht,VBO,5.166639,52.158257
Dorpsweg,12,A,,3738CE,Maartensdijk,De Bilt,Utrecht,VBO,5.166704,52.158358
Dorpsweg,12,,,3738CE,Maartensdijk,De Bilt,Utrecht,VBO,5.166831,52.158305
Dorpsweg,20,,,3738CE,Maartensdijk,De Bilt,Utrecht,VBO,5.169309,52.158252
Dorpsweg,22,,,3738CE,Maartensdijk,De Bilt,Utrecht,VBO,5.169442,52.158242
Dorpsweg,24,A,,3738CE,Maartensdijk,De Bilt,Utrecht,VBO,5.169951,52.158194
Dorpsweg,24,,,3738CE,Maartensdijk,De Bilt,Utrecht,VBO,5.169676,52.158168
Dorpsweg,26,,,3738CE,Maartensdijk,De Bilt,Utrecht,VBO,5.170230,52.158212
Dorpsweg,28,,,3738CE,Maartensdijk,De Bilt,Utrecht,VBO,5.170460,52.158176
Dorpsweg,30,A,,3738CE,Maartensdijk,De Bilt,Utrecht,VBO,5.170401,52.157812
Dorpsweg,30,,,3738CE,Maartensdijk,De Bilt,Utrecht,VBO,5.170613,52.158154
Dorpsweg,32,,,3738CE,Maartensdijk,De Bilt,Utrecht,VBO,5.170283,52.157413
Dorpsweg,34,,,3738CE,Maartensdijk,De Bilt,Utrecht,VBO,5.170371,52.157396
Dorpsweg,38,,,3738CE,Maartensdijk,De Bilt,Utrecht,VBO,5.171041,52.158177
Dorpsweg,40,A,,3738CG,Maartensdijk,De Bilt,Utrecht,VBO,5.170999,52.157527
Dorpsweg,40,,,3738CG,Maartensdijk,De Bilt,Utrecht,VBO,5.171041,52.157956
Dorpsweg,42,,,3738CG,Maartensdijk,De Bilt,Utrecht,VBO,5.171388,52.157918
Dorpsweg,44,,,3738CG,Maartensdijk,De Bilt,Utrecht,VBO,5.171569,52.158126
Dorpsweg,46,,,3738CG,Maartensdijk,De Bilt,Utrecht,VBO,5.171668,52.158203
Dorpsweg,50,,,3738CG,Maartensdijk,De Bilt,Utrecht,VBO,5.172012,52.158205
Dorpsweg,52,,,3738CG,Maartensdijk,De Bilt,Utrecht,VBO,5.172344,52.158187
Dorpsweg,58,,,3738CG,Maartensdijk,De Bilt,Utrecht,VBO,5.172638,52.158247
Dorpsweg,60,,,3738CG,Maartensdijk,De Bilt,Utrecht,VBO,5.172712,52.158237
Dorpsweg,62,,,3738CG,Maartensdijk,De Bilt,Utrecht,VBO,5.172781,52.158224
Dorpsweg,64,,,3738CG,Maartensdijk,De Bilt,Utrecht,VBO,5.172853,52.158208
Dorpsweg,66,,,3738CG,Maartensdijk,De Bilt,Utrecht,VBO,5.172761,52.158089
Dorpsweg,70,,,3738CG,Maartensdijk,De Bilt,Utrecht,VBO,5.173014,52.158176
Dorpsweg,76,,,3738CG,Maartensdijk,De Bilt,Utrecht,VBO,5.173202,52.158180
Dorpsweg,78,,,3738CG,Maartensdijk,De Bilt,Utrecht,VBO,5.173290,52.158171
Dorpsweg,80,,,3738CG,Maartensdijk,De Bilt,Utrecht,VBO,5.173272,52.158126
Dorpsweg,82,,,3738CG,Maartensdijk,De Bilt,Utrecht,VBO,5.173488,52.158212
Dorpsweg,84,,,3738CG,Maartensdijk,De Bilt,Utrecht,VBO,5.173768,52.158158
Dorpsweg,86,,,3738CG,Maartensdijk,De Bilt,Utrecht,VBO,5.174185,52.158157
Dorpsweg,88,,,3738CG,Maartensdijk,De Bilt,Utrecht,VBO,5.174694,52.158171
Dorpsweg,92,,,3738CH,Maartensdijk,De Bilt,Utrecht,VBO,5.175518,52.158051
Dorpsweg,94,,,3738CH,Maartensdijk,De Bilt,Utrecht,VBO,5.175901,52.158190
Dorpsweg,96,,,3738CH,Maartensdijk,De Bilt,Utrecht,VBO,5.175980,52.158178
Dorpsweg,98,,,3738CH,Maartensdijk,De Bilt,Utrecht,VBO,5.176235,52.158203
Dorpsweg,100,,,3738CH,Maartensdijk,De Bilt,Utrecht,VBO,5.176313,52.158188
Dorpsweg,102,,,3738CH,Maartensdijk,De Bilt,Utrecht,VBO,5.176809,52.158164
Dorpsweg,106,,,3738CH,Maartensdijk,De Bilt,Utrecht,VBO,5.177176,52.158299
Dorpsweg,108,,,3738CH,Maartensdijk,De Bilt,Utrecht,VBO,5.177261,52.158287
Dorpsweg,110,,,3738CH,Maartensdijk,De Bilt,Utrecht,VBO,5.177439,52.158281
Dorpsweg,112,,,3738CJ,Maartensdijk,De Bilt,Utrecht,VBO,5.177965,52.158292
Dorpsweg,114,,,3738CJ,Maartensdijk,De Bilt,Utrecht,VBO,5.178081,52.158286
Dorpsweg,116,A,,3738CJ,Maartensdijk,De Bilt,Utrecht,VBO,5.178337,52.158314
Dorpsweg,116,,,3738CJ,Maartensdijk,De Bilt,Utrecht,VBO,5.178337,52.158314
Dorpsweg,118,A,,3738CJ,Maartensdijk,De Bilt,Utrecht,VBO,5.178545,52.158277
Dorpsweg,118,B,,3738CJ,Maartensdijk,De Bilt,Utrecht,VBO,5.178711,52.158274
Dorpsweg,118,C,,3738CJ,Maartensdijk,De Bilt,Utrecht,VBO,5.178629,52.158265
Dorpsweg,118,D,,3738CJ,Maartensdijk,De Bilt,Utrecht,VBO,5.178676,52.158228
Dorpsweg,118,,,3738CJ,Maartensdijk,De Bilt,Utrecht,VBO,5.178636,52.158305
Dorpsweg,120,,,3738CJ,Maartensdijk,De Bilt,Utrecht,VBO,5.178880,52.158226
Dorpsweg,122,,,3738CJ,Maartensdijk,De Bilt,Utrecht,VBO,5.178935,52.158219
Dorpsweg,126,B,,3738CJ,Maartensdijk,De Bilt,Utrecht,VBO,5.179593,52.158227
Dorpsweg,126,,,3738CJ,Maartensdijk,De Bilt,Utrecht,VBO,5.179561,52.158196
Dorpsweg,128,A,,3738CJ,Maartensdijk,De Bilt,Utrecht,VBO,5.179735,52.158120
Dorpsweg,128,,,3738CJ,Maartensdijk,De Bilt,Utrecht,VBO,5.179668,52.158156
Dorpsweg,130,,,3738CJ,Maartensdijk,De Bilt,Utrecht,VBO,5.179852,52.158130
Dorpsweg,134,A,,3738CJ,Maartensdijk,De Bilt,Utrecht,VBO,5.180169,52.158035
Dorpsweg,134,,,3738CJ,Maartensdijk,De Bilt,Utrecht,VBO,5.180157,52.157950
Dorpsweg,138,,,3738CK,Maartensdijk,De Bilt,Utrecht,VBO,5.180711,52.158079
Dorpsweg,140,,,3738CK,Maartensdijk,De Bilt,Utrecht,VBO,5.180806,52.158064
Dorpsweg,144,,,3738CK,Maartensdijk,De Bilt,Utrecht,VBO,5.181333,52.158095
Dorpsweg,146,,,3738CK,Maartensdijk,De Bilt,Utrecht,VBO,5.181555,52.157903
Dorpsweg,150,,,3738CK,Maartensdijk,De Bilt,Utrecht,VBO,5.182088,52.158029
Dorpsweg,152,,,3738CK,Maartensdijk,De Bilt,Utrecht,VBO,5.182333,52.158040
Dorpsweg,154,A,,3738CK,Maartensdijk,De Bilt,Utrecht,VBO,5.182554,52.157999
Dorpsweg,154,,,3738CK,Maartensdijk,De Bilt,Utrecht,VBO,5.182507,52.157975
Dorpsweg,156,A,,3738CK,Maartensdijk,De Bilt,Utrecht,VBO,5.182732,52.157970
Dorpsweg,156,,,3738CK,Maartensdijk,De Bilt,Utrecht,VBO,5.182694,52.157943
Dorpsweg,158,,,3738CL,Maartensdijk,De Bilt,Utrecht,VBO,5.183243,52.158015
Dorpsweg,162,,,3738CL,Maartensdijk,De Bilt,Utrecht,VBO,5.184259,52.157965
Dorpsweg,164,,,3738CL,Maartensdijk,De Bilt,Utrecht,VBO,5.184359,52.157970
Dorpsweg,168,,,3738CL,Maartensdijk,De Bilt,Utrecht,VBO,5.185053,52.157567
Dorpsweg,170,,,3738CL,Maartensdijk,De Bilt,Utrecht,VBO,5.185372,52.158061
Dorpsweg,172,,,3738CL,Maartensdijk,De Bilt,Utrecht,VBO,5.185454,52.158076
Dorpsweg,176,,,3738CL,Maartensdijk,De Bilt,Utrecht,VBO,5.186150,52.158151
Dorpsweg,178,,,3738CL,Maartensdijk,De Bilt,Utrecht,VBO,5.186271,52.158134
Dorpsweg,180,,,3738CL,Maartensdijk,De Bilt,Utrecht,VBO,5.186625,52.158226
Dorpsweg,182,,,3738CL,Maartensdijk,De Bilt,Utrecht,VBO,5.186860,52.158077
Dorpsweg,184,A,,3738CL,Maartensdijk,De Bilt,Utrecht,VBO,5.187841,52.158356
Dorpsweg,184,,,3738CL,Maartensdijk,De Bilt,Utrecht,VBO,5.187394,52.158208
Dorpsweg,186,,,3738CL,Maartensdijk,De Bilt,Utrecht,VBO,5.188207,52.158223
Dorpsweg,188,,,3738CL,Maartensdijk,De Bilt,Utrecht,VBO,5.188244,52.158156
Dorpsweg,190,,,3738CL,Maartensdijk,De Bilt,Utrecht,VBO,5.188324,52.158537
Dorpsweg,192,,,3738CL,Maartensdijk,De Bilt,Utrecht,VBO,5.188439,52.158514
Dorpsweg,194,,,3738CL,Maartensdijk,De Bilt,Utrecht,VBO,5.188848,52.158545
Dorpsweg,198,,,3738CL,Maartensdijk,De Bilt,Utrecht,VBO,5.189177,52.158571
Dorpsweg,216,,,3738CM,Maartensdijk,De Bilt,Utrecht,VBO,5.189813,52.158757
Dorpsweg,218,A,,3738CM,Maartensdijk,De Bilt,Utrecht,VBO,5.190181,52.158820
Dorpsweg,218,,,3738CM,Maartensdijk,De Bilt,Utrecht,VBO,5.189923,52.158762
Dorpsweg,220,,,3738CM,Maartensdijk,De Bilt,Utrecht,VBO,5.190395,52.158901
Dorpsweg,222,,,3738CM,Maartensdijk,De Bilt,Utrecht,VBO,5.190358,52.158841
Dorpsweg,224,,,3738CM,Maartensdijk,De Bilt,Utrecht,VBO,5.191032,52.158714
Dorpsweg,226,,,3738CM,Maartensdijk,De Bilt,Utrecht,VBO,5.191580,52.159067
Dorpsweg,230,,,3738CM,Maartensdijk,De Bilt,Utrecht,VBO,5.191444,52.158663
Dorpsweg,232,A,,3738CM,Maartensdijk,De Bilt,Utrecht,VBO,5.191230,52.158340
Dorpsweg,232,B,,3738CM,Maartensdijk,De Bilt,Utrecht,VBO,5.191057,52.157946
Dorpsweg,232,,,3738CM,Maartensdijk,De Bilt,Utrecht,VBO,5.191273,52.158402
Dorpsweg,234,,,3738CM,Maartensdijk,De Bilt,Utrecht,VBO,5.190899,52.157665
Dorpsweg,236,A,,3738CM,Maartensdijk,De Bilt,Utrecht,VBO,5.191039,52.157252
Dorpsweg,236,,,3738CM,Maartensdijk,De Bilt,Utrecht,VBO,5.190850,52.157558
Dorpsweg,238,,,3738CM,Maartensdijk,De Bilt,Utrecht,VBO,5.191962,52.159133
Dorpsweg,242,,,3738CM,Maartensdijk,De Bilt,Utrecht,VBO,5.192033,52.159123
Dorpsweg,244,,,3738CN,Maartensdijk,De Bilt,Utrecht,VBO,5.192405,52.158968
Dorpsweg,248,,,3738CN,Maartensdijk,De Bilt,Utrecht,VBO,5.192691,52.152517
Dorpsweg,264,A,,3738CN,Maartensdijk,De Bilt,Utrecht,VBO,5.196446,52.159185
Dorpsweg,264,,,3738CN,Maartensdijk,De Bilt,Utrecht,VBO,5.196208,52.159847
Dorpsweg,266,,,3738CN,Maartensdijk,De Bilt,Utrecht,VBO,5.197254,52.157910
Prins Clauslaan,1,,,3738CP,Maartensdijk,De Bilt,Utrecht,VBO,5.183596,52.157513
Prins Clauslaan,2,,,3738CP,Maartensdijk,De Bilt,Utrecht,VBO,5.183596,52.157513
Prins Clauslaan,3,,,3738CP,Maartensdijk,De Bilt,Utrecht,VBO,5.183596,52.157513
Prins Clauslaan,4,,,3738CP,Maartensdijk,De Bilt,Utrecht,VBO,5.183596,52.157513
Prins Clauslaan,5,,,3738CP,Maartensdijk,De Bilt,Utrecht,VBO,5.183596,52.157513
Prins Clauslaan,6,,,3738CP,Maartensdijk,De Bilt,Utrecht,VBO,5.183596,52.157513
Prins Clauslaan,7,,,3738CP,Maartensdijk,De Bilt,Utrecht,VBO,5.183596,52.157513
Prins Clauslaan,8,,,3738CP,Maartensdijk,De Bilt,Utrecht,VBO,5.183596,52.157513
Prins Clauslaan,9,,,3738CP,Maartensdijk,De Bilt,Utrecht,VBO,5.183596,52.157513
Prins Clauslaan,10,,,3738CP,Maartensdijk,De Bilt,Utrecht,VBO,5.183596,52.157513
Prins Clauslaan,11,,,3738CP,Maartensdijk,De Bilt,Utrecht,VBO,5.183596,52.157513
Prins Clauslaan,12,,,3738CP,Maartensdijk,De Bilt,Utrecht,VBO,5.183596,52.157513
Prins Clauslaan,13,,,3738CP,Maartensdijk,De Bilt,Utrecht,VBO,5.183596,52.157513
Prins Clauslaan,14,,,3738CP,Maartensdijk,De Bilt,Utrecht,VBO,5.183596,52.157513
Prins Clauslaan,15,,,3738CP,Maartensdijk,De Bilt,Utrecht,VBO,5.183596,52.157513
Prins Clauslaan,16,,,3738CP,Maartensdijk,De Bilt,Utrecht,VBO,5.183596,52.157513
Prins Clauslaan,17,,,3738CP,Maartensdijk,De Bilt,Utrecht,VBO,5.183596,52.157513
Prins Clauslaan,18,,,3738CP,Maartensdijk,De Bilt,Utrecht,VBO,5.183596,52.157513
Prins Clauslaan,19,,,3738CP,Maartensdijk,De Bilt,Utrecht,VBO,5.183596,52.157513
Prins Clauslaan,20,,,3738CP,Maartensdijk,De Bilt,Utrecht,VBO,5.183596,52.157513
Prins Clauslaan,21,,,3738CP,Maartensdijk,De Bilt,Utrecht,VBO,5.183596,52.157513
Prins Clauslaan,22,,,3738CR,Maartensdijk,De Bilt,Utrecht,VBO,5.183596,52.157513
Prins Clauslaan,23,,,3738CR,Maartensdijk,De Bilt,Utrecht,VBO,5.183596,52.157513
Prins Clauslaan,24,,,3738CR,Maartensdijk,De Bilt,Utrecht,VBO,5.183596,52.157513
Prins Clauslaan,25,,,3738CR,Maartensdijk,De Bilt,Utrecht,VBO,5.183596,52.157513
Prins Clauslaan,26,,,3738CR,Maartensdijk,De Bilt,Utrecht,VBO,5.183596,52.157513
Prins Clauslaan,27,,,3738CR,Maartensdijk,De Bilt,Utrecht,VBO,5.183596,52.157513
Prins Clauslaan,28,,,3738CR,Maartensdijk,De Bilt,Utrecht,VBO,5.183596,52.157513
Prins Clauslaan,29,,,3738CR,Maartensdijk,De Bilt,Utrecht,VBO,5.183596,52.157513
Prins Clauslaan,30,,,3738CR,Maartensdijk,De Bilt,Utrecht,VBO,5.183596,52.157513
Prins Clauslaan,31,,,3738CR,Maartensdijk,De Bilt,Utrecht,VBO,5.183596,52.157513
Prins Clauslaan,32,,,3738CR,Maartensdijk,De Bilt,Utrecht,VBO,5.183596,52.157513
Prins Clauslaan,33,,,3738CR,Maartensdijk,De Bilt,Utrecht,VBO,5.183596,52.157513
Prins Clauslaan,34,,,3738CR,Maartensdijk,De Bilt,Utrecht,VBO,5.183596,52.157513
Prins Clauslaan,35,,,3738CR,Maartensdijk,De Bilt,Utrecht,VBO,5.183596,52.157513
Prins Clauslaan,36,,,3738CR,Maartensdijk,De Bilt,Utrecht,VBO,5.183596,52.157513
Prins Clauslaan,37,,,3738CR,Maartensdijk,De Bilt,Utrecht,VBO,5.183596,52.157513
Tuinlaan,1,,TR,3738CS,Maartensdijk,De Bilt,Utrecht,VBO,5.188709,52.159088
Tuinlaan,3,,,3738CS,Maartensdijk,De Bilt,Utrecht,VBO,5.188742,52.159153
Tuinlaan,5,,,3738CS,Maartensdijk,De Bilt,Utrecht,VBO,5.188763,52.159213
Tuinlaan,7,,,3738CS,Maartensdijk,De Bilt,Utrecht,VBO,5.188824,52.159403
Tuinlaan,9,,,3738CS,Maartensdijk,De Bilt,Utrecht,VBO,5.188906,52.159508
Tuinlaan,11,,,3738CS,Maartensdijk,De Bilt,Utrecht,VBO,5.188926,52.159552
Tuinlaan,13,,,3738CS,Maartensdijk,De Bilt,Utrecht,VBO,5.188951,52.159599
Tuinlaan,15,,,3738CS,Maartensdijk,De Bilt,Utrecht,VBO,5.188969,52.159640
Tuinlaan,17,,,3738CS,Maartensdijk,De Bilt,Utrecht,VBO,5.188985,52.159743
Tuinlaan,19,,,3738CS,Maartensdijk,De Bilt,Utrecht,VBO,5.189012,52.159795
Tuinlaan,21,,,3738CS,Maartensdijk,De Bilt,Utrecht,VBO,5.189035,52.159840
Tuinlaan,23,,,3738CS,Maartensdijk,De Bilt,Utrecht,VBO,5.189051,52.159875
Tuinlaan,25,,,3738CS,Maartensdijk,De Bilt,Utrecht,VBO,5.189103,52.159973
Tuinlaan,27,,,3738CS,Maartensdijk,De Bilt,Utrecht,VBO,5.189135,52.160025
Tuinlaan,29,,,3738CS,Maartensdijk,De Bilt,Utrecht,VBO,5.189158,52.160072
Tuinlaan,31,,,3738CS,Maartensdijk,De Bilt,Utrecht,VBO,5.189171,52.160110
Tuinlaan,33,,,3738CS,Maartensdijk,De Bilt,Utrecht,VBO,5.189254,52.160205
Tuinlaan,35,,,3738CS,Maartensdijk,De Bilt,Utrecht,VBO,5.189278,52.160258
Tuinlaan,37,,,3738CS,Maartensdijk,De Bilt,Utrecht,VBO,5.189304,52.160301
Tuinlaan,39,,,3738CS,Maartensdijk,De Bilt,Utrecht,VBO,5.189320,52.160341
Tuinlaan,2,,,3738CT,Maartensdijk,De Bilt,Utrecht,VBO,5.189039,52.159032
Tuinlaan,6,,,3738CT,Maartensdijk,De Bilt,Utrecht,VBO,5.189258,52.159259
Tuinlaan,8,,,3738CT,Maartensdijk,De Bilt,Utrecht,VBO,5.189331,52.159415
Tuinlaan,10,,,3738CT,Maartensdijk,De Bilt,Utrecht,VBO,5.189344,52.159569
Tuinlaan,12,,,3738CT,Maartensdijk,De Bilt,Utrecht,VBO,5.189361,52.159620
Tuinlaan,14,,,3738CT,Maartensdijk,De Bilt,Utrecht,VBO,5.189465,52.159765
Tuinlaan,16,,,3738CT,Maartensdijk,De Bilt,Utrecht,VBO,5.189488,52.159819
Tuinlaan,18,,,3738CT,Maartensdijk,De Bilt,Utrecht,VBO,5.189554,52.159962
Tuinlaan,20,,,3738CT,Maartensdijk,De Bilt,Utrecht,VBO,5.189599,52.160067
Tuinlaan,22,,,3738CT,Maartensdijk,De Bilt,Utrecht,VBO,5.189634,52.160162
Tuinlaan,24,,,3738CT,Maartensdijk,De Bilt,Utrecht,VBO,5.189697,52.160250
Tuinlaan,26,,,3738CT,Maartensdijk,De Bilt,Utrecht,VBO,5.189931,52.160539
Otto Doornenbalweg,1,,,3738CV,Maartensdijk,De Bilt,Utrecht,VBO,5.189754,52.158717
Otto Doornenbalweg,3,,,3738CV,Maartensdijk,De Bilt,Utrecht,VBO,5.189814,52.158441
Otto Doornenbalweg,5,,,3738CV,Maartensdijk,De Bilt,Utrecht,VBO,5.189546,52.158270
Otto Doornenbalweg,7,,,3738CV,Maartensdijk,De Bilt,Utrecht,VBO,5.189532,52.158155
Otto Doornenbalweg,9,,,3738CV,Maartensdijk,De Bilt,Utrecht,VBO,5.189496,52.158079
Otto Doornenbalweg,11,,,3738CV,Maartensdijk,De Bilt,Utrecht,VBO,5.189447,52.157996
Otto Doornenbalweg,13,,,3738CV,Maartensdijk,De Bilt,Utrecht,VBO,5.189377,52.157889
Otto Doornenbalweg,15,,,3738CV,Maartensdijk,De Bilt,Utrecht,VBO,5.189263,52.157742
Otto Doornenbalweg,17,,,3738CV,Maartensdijk,De Bilt,Utrecht,VBO,5.189235,52.157699
Otto Doornenbalweg,19,,,3738CV,Maartensdijk,De Bilt,Utrecht,VBO,5.189133,52.157473
Otto Doornenbalweg,21,,,3738CV,Maartensdijk,De Bilt,Utrecht,VBO,5.189089,52.157387
Otto Doornenbalweg,2,,,3738CW,Maartensdijk,De Bilt,Utrecht,VBO,5.189382,52.158756
Otto Doornenbalweg,4,,,3738CW,Maartensdijk,De Bilt,Utrecht,VBO,5.189364,52.158672
Otto Doornenbalweg,12,A,,3738CW,Maartensdijk,De Bilt,Utrecht,VBO,5.189182,52.158364
Otto Doornenbalweg,12,,,3738CW,Maartensdijk,De Bilt,Utrecht,VBO,5.189061,52.158419
Otto Doornenbalweg,14,,,3738CW,Maartensdijk,De Bilt,Utrecht,VBO,5.189104,52.158214
Otto Doornenbalweg,16,,,3738CW,Maartensdijk,De Bilt,Utrecht,VBO,5.189066,52.158142
Otto Doornenbalweg,18,,,3738CW,Maartensdijk,De Bilt,Utrecht,VBO,5.189033,52.158072
Otto Doornenbalweg,20,,,3738CW,Maartensdijk,De Bilt,Utrecht,VBO,5.188997,52.158005
Otto Doornenbalweg,22,,,3738CW,Maartensdijk,De Bilt,Utrecht,VBO,5.188964,52.157931
Otto Doornenbalweg,24,,,3738CW,Maartensdijk,De Bilt,Utrecht,VBO,5.188932,52.157869
Otto Doornenbalweg,26,,,3738CW,Maartensdijk,De Bilt,Utrecht,VBO,5.188893,52.157792
Otto Doornenbalweg,30,,,3738CW,Maartensdijk,De Bilt,Utrecht,VBO,5.188773,52.157550
Otto Doornenbalweg,32,,,3738CW,Maartensdijk,De Bilt,Utrecht,VBO,5.188749,52.157501
Otto Doornenbalweg,34,,,3738CW,Maartensdijk,De Bilt,Utrecht,VBO,5.188726,52.157456
Otto Doornenbalweg,36,,,3738CW,Maartensdijk,De Bilt,Utrecht,VBO,5.188705,52.157410
Otto Doornenbalweg,38,,,3738CW,Maartensdijk,De Bilt,Utrecht,VBO,5.188680,52.157364
Otto Doornenbalweg,40,,,3738CW,Maartensdijk,De Bilt,Utrecht,VBO,5.188658,52.157318
Otto Doornenbalweg,42,,,3738CW,Maartensdijk,De Bilt,Utrecht,VBO,5.188629,52.157268
Otto Doornenbalweg,46,,,3738CW,Maartensdijk,De Bilt,Utrecht,VBO,5.188539,52.157161
Otto Doornenbalweg,48,,,3738CW,Maartensdijk,De Bilt,Utrecht,VBO,5.188377,52.156794
Bantamlaan,3,,,3738CX,Maartensdijk,De Bilt,Utrecht,VBO,5.189583,52.153477
Bantamlaan,9,,,3738CX,Maartensdijk,De Bilt,Utrecht,VBO,5.189301,52.153019
Bantamlaan,11,,,3738CX,Maartensdijk,De Bilt,Utrecht,VBO,5.189266,52.152952
Bantamlaan,13,,,3738CX,Maartensdijk,De Bilt,Utrecht,VBO,5.189159,52.152764
Bantamlaan,15,,,3738CX,Maartensdijk,De Bilt,Utrecht,VBO,5.189126,52.152700
Aanlegsteeg,4,,,3738CZ,Maartensdijk,De Bilt,Utrecht,VBO,5.195278,52.161283
Aanlegsteeg,7,,,3738CZ,Maartensdijk,De Bilt,Utrecht,VBO,5.192156,52.160468
Aanlegsteeg,9,,,3738CZ,Maartensdijk,De Bilt,Utrecht,VBO,5.192344,52.160580
Aanlegsteeg,11,,,3738CZ,Maartensdijk,De Bilt,Utrecht,VBO,5.192521,52.161314
Aanlegsteeg,17,,,3738CZ,Maartensdijk,De Bilt,Utrecht,VBO,5.193477,52.162710
Dr. J.J.F. Steijlingweg,1,,,3738DA,Maartensdijk,De Bilt,Utrecht,VBO,5.177860,52.158177
Dr. J.J.F. Steijlingweg,3,,,3738DA,Maartensdijk,De Bilt,Utrecht,VBO,5.177779,52.158053
Dr. J.J.F. Steijlingweg,5,,,3738DA,Maartensdijk,De Bilt,Utrecht,VBO,5.177749,52.157993
Dr. J.J.F. Steijlingweg,7,,,3738DA,Maartensdijk,De Bilt,Utrecht,VBO,5.177688,52.157875
Dr. J.J.F. Steijlingweg,9,,,3738DA,Maartensdijk,De Bilt,Utrecht,VBO,5.177655,52.157825
Dr. J.J.F. Steijlingweg,11,,,3738DA,Maartensdijk,De Bilt,Utrecht,VBO,5.177573,52.157704
Dr. J.J.F. Steijlingweg,13,,,3738DA,Maartensdijk,De Bilt,Utrecht,VBO,5.177540,52.157653
Dr. J.J.F. Steijlingweg,15,,,3738DA,Maartensdijk,De Bilt,Utrecht,VBO,5.177479,52.157538
Dr. J.J.F. Steijlingweg,17,,,3738DA,Maartensdijk,De Bilt,Utrecht,VBO,5.177442,52.157484
Dr. J.J.F. Steijlingweg,19,,,3738DA,Maartensdijk,De Bilt,Utrecht,VBO,5.177378,52.157364
Dr. J.J.F. Steijlingweg,21,,,3738DA,Maartensdijk,De Bilt,Utrecht,VBO,5.177337,52.157314
Dr. J.J.F. Steijlingweg,23,,,3738DA,Maartensdijk,De Bilt,Utrecht,VBO,5.177338,52.157159
Dr. J.J.F. Steijlingweg,25,,,3738DA,Maartensdijk,De Bilt,Utrecht,VBO,5.177395,52.157113
Dr. J.J.F. Steijlingweg,27,,,3738DA,Maartensdijk,De Bilt,Utrecht,VBO,5.177484,52.157002
Dr. J.J.F. Steijlingweg,29,,,3738DA,Maartensdijk,De Bilt,Utrecht,VBO,5.177508,52.156953
Dr. J.J.F. Steijlingweg,31,,,3738DA,Maartensdijk,De Bilt,Utrecht,VBO,5.177716,52.156862
Dr. J.J.F. Steijlingweg,33,,,3738DA,Maartensdijk,De Bilt,Utrecht,VBO,5.177790,52.156850
Dr. J.J.F. Steijlingweg,2,A,,3738DB,Maartensdijk,De Bilt,Utrecht,VBO,5.177266,52.158026
Dr. J.J.F. Steijlingweg,2,B,,3738DB,Maartensdijk,De Bilt,Utrecht,VBO,5.177238,52.157973
Dr. J.J.F. Steijlingweg,2,,,3738DB,Maartensdijk,De Bilt,Utrecht,VBO,5.177303,52.158082
Dr. J.J.F. Steijlingweg,4,A,,3738DB,Maartensdijk,De Bilt,Utrecht,VBO,5.177179,52.157877
Dr. J.J.F. Steijlingweg,4,B,,3738DB,Maartensdijk,De Bilt,Utrecht,VBO,5.177150,52.157825
Dr. J.J.F. Steijlingweg,4,,,3738DB,Maartensdijk,De Bilt,Utrecht,VBO,5.177215,52.157925
Dr. J.J.F. Steijlingweg,6,,,3738DB,Maartensdijk,De Bilt,Utrecht,VBO,5.177077,52.157701
Dr. J.J.F. Steijlingweg,8,,,3738DB,Maartensdijk,De Bilt,Utrecht,VBO,5.177053,52.157648
Dr. J.J.F. Steijlingweg,10,,,3738DB,Maartensdijk,De Bilt,Utrecht,VBO,5.176969,52.157514
Dr. J.J.F. Steijlingweg,12,,,3738DB,Maartensdijk,De Bilt,Utrecht,VBO,5.176945,52.157462
Dr. J.J.F. Steijlingweg,14,,,3738DB,Maartensdijk,De Bilt,Utrecht,VBO,5.176874,52.157332
Dr. J.J.F. Steijlingweg,16,,,3738DB,Maartensdijk,De Bilt,Utrecht,VBO,5.176849,52.157283
Dr. J.J.F. Steijlingweg,18,,,3738DB,Maartensdijk,De Bilt,Utrecht,VBO,5.176758,52.157127
Dr. J.J.F. Steijlingweg,20,,,3738DB,Maartensdijk,De Bilt,Utrecht,VBO,5.176764,52.157068
Dr. J.J.F. Steijlingweg,22,,,3738DB,Maartensdijk,De Bilt,Utrecht,VBO,5.176824,52.156910
Dr. J.J.F. Steijlingweg,24,,,3738DB,Maartensdijk,De Bilt,Utrecht,VBO,5.176860,52.156863
Dr. J.J.F. Steijlingweg,26,,,3738DB,Maartensdijk,De Bilt,Utrecht,VBO,5.177035,52.156735
Dr. J.J.F. Steijlingweg,28,,,3738DB,Maartensdijk,De Bilt,Utrecht,VBO,5.177112,52.156703
Dr. J.J.F. Steijlingweg,30,,,3738DB,Maartensdijk,De Bilt,Utrecht,VBO,5.177311,52.156639
Dr. J.J.F. Steijlingweg,32,,,3738DB,Maartensdijk,De Bilt,Utrecht,VBO,5.177388,52.156625
Dr. J.J.F. Steijlingweg,34,,,3738DB,Maartensdijk,De Bilt,Utrecht,VBO,5.177587,52.156583
Dr. J.J.F. Steijlingweg,36,,,3738DB,Maartensdijk,De Bilt,Utrecht,VBO,5.177676,52.156567
Molenweg,1,,,3738DC,Maartensdijk,De Bilt,Utrecht,VBO,5.179544,52.158050
Molenweg,3,,,3738DC,Maartensdijk,De Bilt,Utrecht,VBO,5.179524,52.157999
Molenweg,7,,,3738DC,Maartensdijk,De Bilt,Utrecht,VBO,5.179421,52.157868
Molenweg,9,,,3738DC,Maartensdijk,De Bilt,Utrecht,VBO,5.179398,52.157829
Molenweg,11,,,3738DC,Maartensdijk,De Bilt,Utrecht,VBO,5.179369,52.157784
Molenweg,13,,,3738DC,Maartensdijk,De Bilt,Utrecht,VBO,5.179281,52.157681
Molenweg,17,,,3738DC,Maartensdijk,De Bilt,Utrecht,VBO,5.179214,52.157470
Molenweg,19,A,,3738DC,Maartensdijk,De Bilt,Utrecht,VBO,5.179289,52.157270
Molenweg,19,,,3738DC,Maartensdijk,De Bilt,Utrecht,VBO,5.179075,52.157331
Molenweg,21,,,3738DC,Maartensdijk,De Bilt,Utrecht,VBO,5.179036,52.157169
Molenweg,23,,,3738DC,Maartensdijk,De Bilt,Utrecht,VBO,5.179215,52.156951
Molenweg,27,A,,3738DC,Maartensdijk,De Bilt,Utrecht,VBO,5.179084,52.156633
Molenweg,27,,,3738DC,Maartensdijk,De Bilt,Utrecht,VBO,5.179059,52.156752
Molenweg,29,,,3738DC,Maartensdijk,De Bilt,Utrecht,VBO,5.178668,52.156596
Molenweg,31,A,,3738DD,Maartensdijk,De Bilt,Utrecht,VBO,5.178807,52.156472
Molenweg,31,,,3738DD,Maartensdijk,De Bilt,Utrecht,VBO,5.178592,52.156503
Molenweg,33,,,3738DD,Maartensdijk,De Bilt,Utrecht,VBO,5.178566,52.156458
Molenweg,35,,,3738DD,Maartensdijk,De Bilt,Utrecht,VBO,5.178569,52.156354
Molenweg,37,,,3738DD,Maartensdijk,De Bilt,Utrecht,VBO,5.178436,52.156206
Molenweg,39,,,3738DD,Maartensdijk,De Bilt,Utrecht,VBO,5.178374,52.156115
Molenweg,41,,,3738DD,Maartensdijk,De Bilt,Utrecht,VBO,5.178343,52.156057
Molenweg,43,,,3738DD,Maartensdijk,De Bilt,Utrecht,VBO,5.178280,52.155953
Molenweg,45,,,3738DD,Maartensdijk,De Bilt,Utrecht,VBO,5.178249,52.155897
Molenweg,47,,,3738DD,Maartensdijk,De Bilt,Utrecht,VBO,5.178185,52.155801
Molenweg,49,,,3738DD,Maartensdijk,De Bilt,Utrecht,VBO,5.178149,52.155741
Molenweg,51,,,3738DD,Maartensdijk,De Bilt,Utrecht,VBO,5.178037,52.155653
Molenweg,53,,,3738DD,Maartensdijk,De Bilt,Utrecht,VBO,5.177978,52.155555
Molenweg,55,,,3738DD,Maartensdijk,De Bilt,Utrecht,VBO,5.178020,52.155409
Molenweg,57,,,3738DD,Maartensdijk,De Bilt,Utrecht,VBO,5.177994,52.155363
Molenweg,59,,,3738DD,Maartensdijk,De Bilt,Utrecht,VBO,5.177896,52.155251
Molenweg,61,,,3738DD,Maartensdijk,De Bilt,Utrecht,VBO,5.177843,52.155153
Molenweg,2,,,3738DE,Maartensdijk,De Bilt,Utrecht,VBO,5.179183,52.158190
Molenweg,6,,,3738DE,Maartensdijk,De Bilt,Utrecht,VBO,5.178725,52.158042
Molenweg,8,,,3738DE,Maartensdijk,De Bilt,Utrecht,VBO,5.178974,52.157896
Molenweg,10,,,3738DE,Maartensdijk,De Bilt,Utrecht,VBO,5.178940,52.157763
Molenweg,12,,,3738DE,Maartensdijk,De Bilt,Utrecht,VBO,5.178774,52.157603
Molenweg,14,,,3738DE,Maartensdijk,De Bilt,Utrecht,VBO,5.178697,52.157467
Molenweg,18,,,3738DE,Maartensdijk,De Bilt,Utrecht,VBO,5.178545,52.157256
Molenweg,20,,,3738DE,Maartensdijk,De Bilt,Utrecht,VBO,5.178482,52.157126
Molenweg,22,,,3738DE,Maartensdijk,De Bilt,Utrecht,VBO,5.178461,52.157077
Molenweg,24,,,3738DE,Maartensdijk,De Bilt,Utrecht,VBO,5.178407,52.156960
Molenweg,26,,,3738DE,Maartensdijk,De Bilt,Utrecht,VBO,5.178375,52.156908
Molenweg,28,,,3738DE,Maartensdijk,De Bilt,Utrecht,VBO,5.178276,52.156812
Molenweg,30,,,3738DE,Maartensdijk,De Bilt,Utrecht,VBO,5.178254,52.156763
Molenweg,34,,,3738DG,Maartensdijk,De Bilt,Utrecht,VBO,5.178127,52.156490
Molenweg,36,,,3738DG,Maartensdijk,De Bilt,Utrecht,VBO,5.178101,52.156439
Molenweg,38,,,3738DG,Maartensdijk,De Bilt,Utrecht,VBO,5.178070,52.156382
Molenweg,40,,,3738DG,Maartensdijk,De Bilt,Utrecht,VBO,5.178021,52.156312
Molenweg,42,,,3738DG,Maartensdijk,De Bilt,Utrecht,VBO,5.178018,52.156144
Molenweg,44,,,3738DG,Maartensdijk,De Bilt,Utrecht,VBO,5.177940,52.156089
Molenweg,46,,,3738DG,Maartensdijk,De Bilt,Utrecht,VBO,5.177827,52.155856
Molenweg,48,,,3738DG,Maartensdijk,De Bilt,Utrecht,VBO,5.177805,52.155811
Molenweg,50,,,3738DG,Maartensdijk,De Bilt,Utrecht,VBO,5.177754,52.155640
Molenweg,52,,,3738DG,Maartensdijk,De Bilt,Utrecht,VBO,5.177686,52.155538
Molenweg,54,,,3738DG,Maartensdijk,De Bilt,Utrecht,VBO,5.177608,52.155399
Molenweg,56,,,3738DG,Maartensdijk,De Bilt,Utrecht,VBO,5.177548,52.155292
Prins Willem-Alexanderplantsoen,1,,,3738DH,Maartensdijk,De Bilt,Utrecht,VBO,5.182120,52.157803
Prins Willem-Alexanderplantsoen,3,,,3738DH,Maartensdijk,De Bilt,Utrecht,VBO,5.182087,52.157753
Prins Willem-Alexanderplantsoen,5,,,3738DH,Maartensdijk,De Bilt,Utrecht,VBO,5.182060,52.157705
Prins Willem-Alexanderplantsoen,7,,,3738DH,Maartensdijk,De Bilt,Utrecht,VBO,5.182027,52.157654
Prins Willem-Alexanderplantsoen,9,,,3738DH,Maartensdijk,De Bilt,Utrecht,VBO,5.181998,52.157603
Prins Willem-Alexanderplantsoen,11,,,3738DH,Maartensdijk,De Bilt,Utrecht,VBO,5.181954,52.157552
Prins Willem-Alexanderplantsoen,13,,,3738DH,Maartensdijk,De Bilt,Utrecht,VBO,5.181873,52.157432
Prins Willem-Alexanderplantsoen,15,,,3738DH,Maartensdijk,De Bilt,Utrecht,VBO,5.181845,52.157385
Prins Willem-Alexanderplantsoen,17,,,3738DH,Maartensdijk,De Bilt,Utrecht,VBO,5.181816,52.157334
Prins Willem-Alexanderplantsoen,19,,,3738DH,Maartensdijk,De Bilt,Utrecht,VBO,5.181786,52.157284
Prins Willem-Alexanderplantsoen,21,,,3738DJ,Maartensdijk,De Bilt,Utrecht,VBO,5.181759,52.157235
Prins Willem-Alexanderplantsoen,23,,GB1,3738DJ,Maartensdijk,De Bilt,Utrecht,VBO,5.181849,52.157077
Prins Willem-Alexanderplantsoen,23,,GB10,3738DJ,Maartensdijk,De Bilt,Utrecht,VBO,5.181589,52.156902
Prins Willem-Alexanderplantsoen,23,,GB11,3738DJ,Maartensdijk,De Bilt,Utrecht,VBO,5.181538,52.156906
Prins Willem-Alexanderplantsoen,23,,GB2,3738DJ,Maartensdijk,De Bilt,Utrecht,VBO,5.181834,52.157047
Prins Willem-Alexanderplantsoen,23,,GB3,3738DJ,Maartensdijk,De Bilt,Utrecht,VBO,5.181821,52.157020
Prins Willem-Alexanderplantsoen,23,,GB4,3738DJ,Maartensdijk,De Bilt,Utrecht,VBO,5.181804,52.156996
Prins Willem-Alexanderplantsoen,23,,GB5,3738DJ,Maartensdijk,De Bilt,Utrecht,VBO,5.181790,52.156971
Prins Willem-Alexanderplantsoen,23,,GB6,3738DJ,Maartensdijk,De Bilt,Utrecht,VBO,5.181774,52.156944
Prins Willem-Alexanderplantsoen,23,,GB7,3738DJ,Maartensdijk,De Bilt,Utrecht,VBO,5.181764,52.156915
Prins Willem-Alexanderplantsoen,23,,GB8,3738DJ,Maartensdijk,De Bilt,Utrecht,VBO,5.181672,52.156898
Prins Willem-Alexanderplantsoen,23,,GB9,3738DJ,Maartensdijk,De Bilt,Utrecht,VBO,5.181632,52.156901
Prins Willem-Alexanderplantsoen,23,,,3738DJ,Maartensdijk,De Bilt,Utrecht,VBO,5.181720,52.157178
Prins Willem-Alexanderplantsoen,25,,,3738DJ,Maartensdijk,De Bilt,Utrecht,VBO,5.181472,52.157026
Prins Willem-Alexanderplantsoen,27,,,3738DJ,Maartensdijk,De Bilt,Utrecht,VBO,5.181404,52.157042
Prins Willem-Alexanderplantsoen,29,,,3738DJ,Maartensdijk,De Bilt,Utrecht,VBO,5.181322,52.157060
Prins Willem-Alexanderplantsoen,31,,,3738DJ,Maartensdijk,De Bilt,Utrecht,VBO,5.181241,52.157080
Prins Willem-Alexanderplantsoen,33,,,3738DJ,Maartensdijk,De Bilt,Utrecht,VBO,5.181158,52.157100
Prins Willem-Alexanderplantsoen,35,,GB1,3738DJ,Maartensdijk,De Bilt,Utrecht,VBO,5.180898,52.157040
Prins Willem-Alexanderplantsoen,35,,GB10,3738DJ,Maartensdijk,De Bilt,Utrecht,VBO,5.180632,52.157203
Prins Willem-Alexanderplantsoen,35,,GB11,3738DJ,Maartensdijk,De Bilt,Utrecht,VBO,5.180645,52.157230
Prins Willem-Alexanderplantsoen,35,,GB12,3738DJ,Maartensdijk,De Bilt,Utrecht,VBO,5.180690,52.157242
Prins Willem-Alexanderplantsoen,35,,GB13,3738DJ,Maartensdijk,De Bilt,Utrecht,VBO,5.180698,52.157278
Prins Willem-Alexanderplantsoen,35,,GB2,3738DJ,Maartensdijk,De Bilt,Utrecht,VBO,5.180855,52.157053
Prins Willem-Alexanderplantsoen,35,,GB3,3738DJ,Maartensdijk,De Bilt,Utrecht,VBO,5.180821,52.157068
Prins Willem-Alexanderplantsoen,35,,GB4,3738DJ,Maartensdijk,De Bilt,Utrecht,VBO,5.180778,52.157084
Prins Willem-Alexanderplantsoen,35,,GB5,3738DJ,Maartensdijk,De Bilt,Utrecht,VBO,5.180733,52.157086
Prins Willem-Alexanderplantsoen,35,,GB6,3738DJ,Maartensdijk,De Bilt,Utrecht,VBO,5.180691,52.157088
Prins Willem-Alexanderplantsoen,35,,GB7,3738DJ,Maartensdijk,De Bilt,Utrecht,VBO,5.180646,52.157105
Prins Willem-Alexanderplantsoen,35,,GB8,3738DJ,Maartensdijk,De Bilt,Utrecht,VBO,5.180611,52.157152
Prins Willem-Alexanderplantsoen,35,,GB9,3738DJ,Maartensdijk,De Bilt,Utrecht,VBO,5.180645,52.157169
Prins Willem-Alexanderplantsoen,35,,,3738DJ,Maartensdijk,De Bilt,Utrecht,VBO,5.181075,52.157119
Prins Willem-Alexanderplantsoen,37,,,3738DJ,Maartensdijk,De Bilt,Utrecht,VBO,5.180857,52.157295
Prins Willem-Alexanderplantsoen,39,,,3738DJ,Maartensdijk,De Bilt,Utrecht,VBO,5.180898,52.157351
Prins Willem-Alexanderplantsoen,41,,,3738DJ,Maartensdijk,De Bilt,Utrecht,VBO,5.180927,52.157403
Prins Willem-Alexanderplantsoen,43,,,3738DJ,Maartensdijk,De Bilt,Utrecht,VBO,5.180959,52.157452
Prins Willem-Alexanderplantsoen,45,,,3738DJ,Maartensdijk,De Bilt,Utrecht,VBO,5.180987,52.157505
Prins Willem-Alexanderplantsoen,47,,,3738DJ,Maartensdijk,De Bilt,Utrecht,VBO,5.181015,52.157551
Prins Willem-Alexanderplantsoen,2,,,3738DK,Maartensdijk,De Bilt,Utrecht,VBO,5.181621,52.157643
Prins Willem-Alexanderplantsoen,4,,,3738DK,Maartensdijk,De Bilt,Utrecht,VBO,5.181531,52.157662
Prins Willem-Alexanderplantsoen,6,,,3738DK,Maartensdijk,De Bilt,Utrecht,VBO,5.181447,52.157678
Prins Willem-Alexanderplantsoen,8,,,3738DK,Maartensdijk,De Bilt,Utrecht,VBO,5.181363,52.157700
Prins Willem-Alexanderplantsoen,10,,,3738DK,Maartensdijk,De Bilt,Utrecht,VBO,5.181274,52.157717
Prins Willem-Alexanderplantsoen,12,,,3738DK,Maartensdijk,De Bilt,Utrecht,VBO,5.181192,52.157735
Prins Willem-Alexanderplantsoen,14,,,3738DK,Maartensdijk,De Bilt,Utrecht,VBO,5.180993,52.157783
Prins Willem-Alexanderplantsoen,16,,,3738DK,Maartensdijk,De Bilt,Utrecht,VBO,5.180868,52.157811
Prins Bernhardlaan,3,,,3738DL,Maartensdijk,De Bilt,Utrecht,VBO,5.180684,52.157895
Prins Bernhardlaan,5,,,3738DL,Maartensdijk,De Bilt,Utrecht,VBO,5.180654,52.157842
Prins Bernhardlaan,7,,,3738DL,Maartensdijk,De Bilt,Utrecht,VBO,5.180558,52.157663
Prins Bernhardlaan,9,,,3738DL,Maartensdijk,De Bilt,Utrecht,VBO,5.180526,52.157611
Prins Bernhardlaan,11,,,3738DL,Maartensdijk,De Bilt,Utrecht,VBO,5.180492,52.157562
Prins Bernhardlaan,13,,,3738DL,Maartensdijk,De Bilt,Utrecht,VBO,5.180462,52.157508
Prins Bernhardlaan,15,,,3738DL,Maartensdijk,De Bilt,Utrecht,VBO,5.180434,52.157460
Prins Bernhardlaan,17,,,3738DL,Maartensdijk,De Bilt,Utrecht,VBO,5.180404,52.157409
Prins Bernhardlaan,19,,,3738DL,Maartensdijk,De Bilt,Utrecht,VBO,5.180374,52.157355
Prins Bernhardlaan,21,,,3738DL,Maartensdijk,De Bilt,Utrecht,VBO,5.180351,52.157307
Prins Bernhardlaan,23,,,3738DL,Maartensdijk,De Bilt,Utrecht,VBO,5.180317,52.157253
Prins Bernhardlaan,25,,,3738DL,Maartensdijk,De Bilt,Utrecht,VBO,5.180285,52.157205
Prins Bernhardlaan,27,,,3738DM,Maartensdijk,De Bilt,Utrecht,VBO,5.180010,52.156633
Prins Bernhardlaan,29,,,3738DM,Maartensdijk,De Bilt,Utrecht,VBO,5.179980,52.156584
Prins Bernhardlaan,31,,,3738DM,Maartensdijk,De Bilt,Utrecht,VBO,5.179955,52.156536
Prins Bernhardlaan,33,,,3738DM,Maartensdijk,De Bilt,Utrecht,VBO,5.179925,52.156487
Prins Bernhardlaan,35,,,3738DM,Maartensdijk,De Bilt,Utrecht,VBO,5.179893,52.156437
Prins Bernhardlaan,37,,,3738DM,Maartensdijk,De Bilt,Utrecht,VBO,5.179862,52.156385
Prins Bernhardlaan,39,,,3738DM,Maartensdijk,De Bilt,Utrecht,VBO,5.179832,52.156334
Prins Bernhardlaan,41,,,3738DM,Maartensdijk,De Bilt,Utrecht,VBO,5.179799,52.156280
Prins Bernhardlaan,43,,,3738DM,Maartensdijk,De Bilt,Utrecht,VBO,5.179769,52.156223
Prins Bernhardlaan,45,,,3738DM,Maartensdijk,De Bilt,Utrecht,VBO,5.179631,52.156046
Prins Bernhardlaan,47,,,3738DM,Maartensdijk,De Bilt,Utrecht,VBO,5.179601,52.155992
Prins Bernhardlaan,49,,,3738DM,Maartensdijk,De Bilt,Utrecht,VBO,5.179568,52.155933
Prins Bernhardlaan,51,,,3738DM,Maartensdijk,De Bilt,Utrecht,VBO,5.179535,52.155873
Prins Bernhardlaan,53,,,3738DM,Maartensdijk,De Bilt,Utrecht,VBO,5.179501,52.155811
Prins Bernhardlaan,55,,,3738DM,Maartensdijk,De Bilt,Utrecht,VBO,5.179471,52.155756
Prins Bernhardlaan,57,,,3738DM,Maartensdijk,De Bilt,Utrecht,VBO,5.179439,52.155699
Prins Bernhardlaan,59,,,3738DM,Maartensdijk,De Bilt,Utrecht,VBO,5.179399,52.155626
Prins Bernhardlaan,61,,,3738DN,Maartensdijk,De Bilt,Utrecht,VBO,5.179284,52.155405
Prins Bernhardlaan,63,,,3738DN,Maartensdijk,De Bilt,Utrecht,VBO,5.179256,52.155366
Prins Bernhardlaan,65,,,3738DN,Maartensdijk,De Bilt,Utrecht,VBO,5.179234,52.155314
Prins Bernhardlaan,67,,,3738DN,Maartensdijk,De Bilt,Utrecht,VBO,5.179202,52.155263
Prins Bernhardlaan,69,,,3738DN,Maartensdijk,De Bilt,Utrecht,VBO,5.179178,52.155208
Prins Bernhardlaan,71,,,3738DN,Maartensdijk,De Bilt,Utrecht,VBO,5.179108,52.155108
Prins Bernhardlaan,73,,,3738DN,Maartensdijk,De Bilt,Utrecht,VBO,5.179076,52.155061
Prins Bernhardlaan,75,,,3738DN,Maartensdijk,De Bilt,Utrecht,VBO,5.179044,52.155010
Prins Bernhardlaan,77,,,3738DN,Maartensdijk,De Bilt,Utrecht,VBO,5.179014,52.154960
Prins Bernhardlaan,79,,,3738DN,Maartensdijk,De Bilt,Utrecht,VBO,5.178982,52.154909
Prins Bernhardlaan,81,,,3738DN,Maartensdijk,De Bilt,Utrecht,VBO,5.178827,52.154641
Prins Bernhardlaan,83,,,3738DN,Maartensdijk,De Bilt,Utrecht,VBO,5.178795,52.154595
Prins Bernhardlaan,85,,,3738DN,Maartensdijk,De Bilt,Utrecht,VBO,5.178767,52.154545
Prins Bernhardlaan,87,,,3738DN,Maartensdijk,De Bilt,Utrecht,VBO,5.178732,52.154482
Prins Bernhardlaan,2,,,3738DP,Maartensdijk,De Bilt,Utrecht,VBO,5.180113,52.157687
Prins Bernhardlaan,4,,,3738DP,Maartensdijk,De Bilt,Utrecht,VBO,5.180081,52.157630
Prins Bernhardlaan,6,,,3738DP,Maartensdijk,De Bilt,Utrecht,VBO,5.180057,52.157577
Prins Bernhardlaan,8,,,3738DP,Maartensdijk,De Bilt,Utrecht,VBO,5.180038,52.157531
Prins Bernhardlaan,10,,,3738DP,Maartensdijk,De Bilt,Utrecht,VBO,5.179998,52.157479
Prins Bernhardlaan,12,,,3738DP,Maartensdijk,De Bilt,Utrecht,VBO,5.179929,52.157368
Prins Bernhardlaan,14,,,3738DP,Maartensdijk,De Bilt,Utrecht,VBO,5.179898,52.157313
Prins Bernhardlaan,16,,,3738DP,Maartensdijk,De Bilt,Utrecht,VBO,5.179868,52.157264
Prins Bernhardlaan,18,,,3738DP,Maartensdijk,De Bilt,Utrecht,VBO,5.179843,52.157213
Prins Bernhardlaan,20,,,3738DP,Maartensdijk,De Bilt,Utrecht,VBO,5.179807,52.157162
Prins Bernhardlaan,22,A,,3738DP,Maartensdijk,De Bilt,Utrecht,VBO,5.179595,52.156983
Prins Bernhardlaan,22,B,,3738DP,Maartensdijk,De Bilt,Utrecht,VBO,5.179595,52.156983
Prins Bernhardlaan,22,C,,3738DP,Maartensdijk,De Bilt,Utrecht,VBO,5.179595,52.156983
Prins Bernhardlaan,22,,,3738DP,Maartensdijk,De Bilt,Utrecht,VBO,5.179595,52.156983
Prins Bernhardlaan,24,A,,3738DP,Maartensdijk,De Bilt,Utrecht,VBO,5.179595,52.156983
Prins Bernhardlaan,24,B,,3738DP,Maartensdijk,De Bilt,Utrecht,VBO,5.179595,52.156983
Prins Bernhardlaan,24,C,,3738DP,Maartensdijk,De Bilt,Utrecht,VBO,5.179595,52.156983
Prins Bernhardlaan,24,,,3738DP,Maartensdijk,De Bilt,Utrecht,VBO,5.179595,52.156983
Prins Bernhardlaan,26,A,,3738DP,Maartensdijk,De Bilt,Utrecht,VBO,5.179595,52.156983
Prins Bernhardlaan,26,,,3738DP,Maartensdijk,De Bilt,Utrecht,VBO,5.179595,52.156983
Prins Bernhardlaan,28,A,,3738DP,Maartensdijk,De Bilt,Utrecht,VBO,5.179409,52.156543
Prins Bernhardlaan,28,B,,3738DP,Maartensdijk,De Bilt,Utrecht,VBO,5.179409,52.156543
Prins Bernhardlaan,28,C,,3738DP,Maartensdijk,De Bilt,Utrecht,VBO,5.179409,52.156543
Prins Bernhardlaan,28,,,3738DP,Maartensdijk,De Bilt,Utrecht,VBO,5.179409,52.156543
Prins Bernhardlaan,30,A,,3738DP,Maartensdijk,De Bilt,Utrecht,VBO,5.179409,52.156543
Prins Bernhardlaan,30,B,,3738DP,Maartensdijk,De Bilt,Utrecht,VBO,5.179409,52.156543
Prins Bernhardlaan,30,C,,3738DP,Maartensdijk,De Bilt,Utrecht,VBO,5.179409,52.156543
Prins Bernhardlaan,30,,,3738DP,Maartensdijk,De Bilt,Utrecht,VBO,5.179409,52.156543
Prins Bernhardlaan,32,A,,3738DP,Maartensdijk,De Bilt,Utrecht,VBO,5.179409,52.156543
Prins Bernhardlaan,32,,,3738DP,Maartensdijk,De Bilt,Utrecht,VBO,5.179409,52.156543
Prins Bernhardlaan,36,A,,3738DP,Maartensdijk,De Bilt,Utrecht,VBO,5.179271,52.156383
Prins Bernhardlaan,36,,,3738DP,Maartensdijk,De Bilt,Utrecht,VBO,5.179340,52.156311
Prins Bernhardlaan,38,,,3738DP,Maartensdijk,De Bilt,Utrecht,VBO,5.179313,52.156258
Prins Bernhardlaan,40,,,3738DP,Maartensdijk,De Bilt,Utrecht,VBO,5.179283,52.156205
Prins Bernhardlaan,42,,,3738DP,Maartensdijk,De Bilt,Utrecht,VBO,5.179254,52.156153
Prins Bernhardlaan,44,,,3738DP,Maartensdijk,De Bilt,Utrecht,VBO,5.179223,52.156099
Prins Bernhardlaan,46,,,3738DP,Maartensdijk,De Bilt,Utrecht,VBO,5.179193,52.156045
Prins Bernhardlaan,48,,,3738DP,Maartensdijk,De Bilt,Utrecht,VBO,5.179163,52.155993
Prins Bernhardlaan,50,,,3738DR,Maartensdijk,De Bilt,Utrecht,VBO,5.179132,52.155939
Prins Bernhardlaan,52,,,3738DR,Maartensdijk,De Bilt,Utrecht,VBO,5.179045,52.155799
Prins Bernhardlaan,54,,,3738DR,Maartensdijk,De Bilt,Utrecht,VBO,5.179025,52.155749
Prins Bernhardlaan,56,,,3738DR,Maartensdijk,De Bilt,Utrecht,VBO,5.178996,52.155698
Prins Bernhardlaan,58,,,3738DR,Maartensdijk,De Bilt,Utrecht,VBO,5.178968,52.155648
Prins Bernhardlaan,60,,,3738DR,Maartensdijk,De Bilt,Utrecht,VBO,5.178940,52.155598
Prins Bernhardlaan,62,,,3738DR,Maartensdijk,De Bilt,Utrecht,VBO,5.178911,52.155547
Prins Bernhardlaan,64,,,3738DR,Maartensdijk,De Bilt,Utrecht,VBO,5.178883,52.155498
Prins Bernhardlaan,66,,,3738DR,Maartensdijk,De Bilt,Utrecht,VBO,5.178847,52.155441
Prins Bernhardlaan,68,,,3738DR,Maartensdijk,De Bilt,Utrecht,VBO,5.178782,52.155330
Prins Bernhardlaan,70,,,3738DR,Maartensdijk,De Bilt,Utrecht,VBO,5.178758,52.155276
Prins Bernhardlaan,72,,,3738DR,Maartensdijk,De Bilt,Utrecht,VBO,5.178728,52.155223
Prins Bernhardlaan,74,,,3738DR,Maartensdijk,De Bilt,Utrecht,VBO,5.178700,52.155173
Prins Bernhardlaan,76,,,3738DR,Maartensdijk,De Bilt,Utrecht,VBO,5.178673,52.155126
Prins Bernhardlaan,78,,,3738DR,Maartensdijk,De Bilt,Utrecht,VBO,5.178645,52.155076
Prins Bernhardlaan,80,,,3738DR,Maartensdijk,De Bilt,Utrecht,VBO,5.178615,52.155024
Prins Bernhardlaan,82,,,3738DR,Maartensdijk,De Bilt,Utrecht,VBO,5.178587,52.154973
Prins Bernhardlaan,84,,,3738DS,Maartensdijk,De Bilt,Utrecht,VBO,5.178423,52.154730
Prins Bernhardlaan,86,,,3738DS,Maartensdijk,De Bilt,Utrecht,VBO,5.178407,52.154683
Prins Bernhardlaan,88,,,3738DS,Maartensdijk,De Bilt,Utrecht,VBO,5.178385,52.154632
Prins Bernhardlaan,90,,,3738DS,Maartensdijk,De Bilt,Utrecht,VBO,5.178359,52.154581
Prins Bernhardlaan,92,,,3738DS,Maartensdijk,De Bilt,Utrecht,VBO,5.178332,52.154528
Prins Bernhardlaan,94,,,3738DS,Maartensdijk,De Bilt,Utrecht,VBO,5.178302,52.154476
Prins Bernhardlaan,96,,,3738DS,Maartensdijk,De Bilt,Utrecht,VBO,5.178268,52.154426
Prins Bernhardlaan,98,,,3738DS,Maartensdijk,De Bilt,Utrecht,VBO,5.178226,52.154374
Prins Bernhardlaan,100,,,3738DS,Maartensdijk,De Bilt,Utrecht,VBO,5.178094,52.154174
Prins Bernhardlaan,102,,,3738DS,Maartensdijk,De Bilt,Utrecht,VBO,5.178060,52.154116
Prins Bernhardlaan,104,,,3738DS,Maartensdijk,De Bilt,Utrecht,VBO,5.177996,52.153991
Prins Bernhardlaan,106,,,3738DS,Maartensdijk,De Bilt,Utrecht,VBO,5.177957,52.153937
Prins Bernhardlaan,108,,,3738DS,Maartensdijk,De Bilt,Utrecht,VBO,5.177890,52.153812
Prins Bernhardlaan,110,,,3738DS,Maartensdijk,De Bilt,Utrecht,VBO,5.177862,52.153762
Prins Bernhardlaan,112,,,3738DS,Maartensdijk,De Bilt,Utrecht,VBO,5.177622,52.153305
Prins Bernhardlaan,114,,,3738DS,Maartensdijk,De Bilt,Utrecht,VBO,5.177606,52.153263
Prins Bernhardlaan,116,,,3738DS,Maartensdijk,De Bilt,Utrecht,VBO,5.177583,52.153211
Prins Bernhardlaan,118,,,3738DS,Maartensdijk,De Bilt,Utrecht,VBO,5.177552,52.153157
Prins Bernhardlaan,120,,,3738DS,Maartensdijk,De Bilt,Utrecht,VBO,5.177351,52.152803
Emmalaan,2,,,3738DT,Maartensdijk,De Bilt,Utrecht,VBO,5.180862,52.155071
Emmalaan,4,,,3738DT,Maartensdijk,De Bilt,Utrecht,VBO,5.180835,52.155022
Emmalaan,6,,,3738DT,Maartensdijk,De Bilt,Utrecht,VBO,5.180809,52.154971
Emmalaan,8,,,3738DT,Maartensdijk,De Bilt,Utrecht,VBO,5.180783,52.154914
Emmalaan,10,,,3738DT,Maartensdijk,De Bilt,Utrecht,VBO,5.180740,52.154859
Emmalaan,12,,,3738DT,Maartensdijk,De Bilt,Utrecht,VBO,5.180690,52.154785
Emmalaan,14,,,3738DT,Maartensdijk,De Bilt,Utrecht,VBO,5.180663,52.154717
Emmalaan,16,,,3738DT,Maartensdijk,De Bilt,Utrecht,VBO,5.180634,52.154670
Emmalaan,18,,,3738DT,Maartensdijk,De Bilt,Utrecht,VBO,5.180600,52.154615
Emmalaan,20,,,3738DT,Maartensdijk,De Bilt,Utrecht,VBO,5.180563,52.154564
Willem de Zwijgerlaan,1,,,3738DV,Maartensdijk,De Bilt,Utrecht,VBO,5.180293,52.155199
Willem de Zwijgerlaan,2,,,3738DV,Maartensdijk,De Bilt,Utrecht,VBO,5.179892,52.155282
Willem de Zwijgerlaan,3,,,3738DV,Maartensdijk,De Bilt,Utrecht,VBO,5.180265,52.155143
Willem de Zwijgerlaan,4,,,3738DV,Maartensdijk,De Bilt,Utrecht,VBO,5.179869,52.155233
Willem de Zwijgerlaan,5,,,3738DV,Maartensdijk,De Bilt,Utrecht,VBO,5.180233,52.155090
Willem de Zwijgerlaan,6,,,3738DV,Maartensdijk,De Bilt,Utrecht,VBO,5.179848,52.155185
Willem de Zwijgerlaan,7,,,3738DV,Maartensdijk,De Bilt,Utrecht,VBO,5.180216,52.155042
Willem de Zwijgerlaan,8,,,3738DV,Maartensdijk,De Bilt,Utrecht,VBO,5.179821,52.155134
Willem de Zwijgerlaan,9,,,3738DV,Maartensdijk,De Bilt,Utrecht,VBO,5.180190,52.154997
Willem de Zwijgerlaan,10,,,3738DV,Maartensdijk,De Bilt,Utrecht,VBO,5.179789,52.155085
Willem de Zwijgerlaan,11,,,3738DV,Maartensdijk,De Bilt,Utrecht,VBO,5.180132,52.154903
Willem de Zwijgerlaan,12,,,3738DV,Maartensdijk,De Bilt,Utrecht,VBO,5.179714,52.154974
Willem de Zwijgerlaan,13,,,3738DV,Maartensdijk,De Bilt,Utrecht,VBO,5.180086,52.154843
Willem de Zwijgerlaan,14,,,3738DV,Maartensdijk,De Bilt,Utrecht,VBO,5.179686,52.154923
Willem de Zwijgerlaan,15,,,3738DV,Maartensdijk,De Bilt,Utrecht,VBO,5.180069,52.154792
Willem de Zwijgerlaan,16,,,3738DV,Maartensdijk,De Bilt,Utrecht,VBO,5.179658,52.154875
Willem de Zwijgerlaan,17,,,3738DV,Maartensdijk,De Bilt,Utrecht,VBO,5.180041,52.154737
Willem de Zwijgerlaan,18,,,3738DV,Maartensdijk,De Bilt,Utrecht,VBO,5.179631,52.154824
Willem de Zwijgerlaan,19,,,3738DV,Maartensdijk,De Bilt,Utrecht,VBO,5.180002,52.154686
Willem de Zwijgerlaan,20,,,3738DV,Maartensdijk,De Bilt,Utrecht,VBO,5.179607,52.154776
Prinses Marijkelaan,1,,,3738DW,Maartensdijk,De Bilt,Utrecht,VBO,5.180591,52.154175
Prinses Marijkelaan,3,,,3738DW,Maartensdijk,De Bilt,Utrecht,VBO,5.180511,52.154235
Prinses Marijkelaan,5,,,3738DW,Maartensdijk,De Bilt,Utrecht,VBO,5.180449,52.154274
Prinses Marijkelaan,7,,,3738DW,Maartensdijk,De Bilt,Utrecht,VBO,5.180391,52.154310
Prinses Marijkelaan,9,,,3738DW,Maartensdijk,De Bilt,Utrecht,VBO,5.180317,52.154351
Prinses Marijkelaan,11,,,3738DW,Maartensdijk,De Bilt,Utrecht,VBO,5.180090,52.154287
Prinses Marijkelaan,13,,,3738DW,Maartensdijk,De Bilt,Utrecht,VBO,5.180026,52.154333
Prinses Marijkelaan,15,,,3738DW,Maartensdijk,De Bilt,Utrecht,VBO,5.179962,52.154372
Prinses Marijkelaan,17,,,3738DW,Maartensdijk,De Bilt,Utrecht,VBO,5.179903,52.154409
Prinses Marijkelaan,19,,,3738DW,Maartensdijk,De Bilt,Utrecht,VBO,5.179838,52.154450
Prinses Marijkelaan,21,,,3738DW,Maartensdijk,De Bilt,Utrecht,VBO,5.179629,52.154401
Prinses Marijkelaan,23,,,3738DW,Maartensdijk,De Bilt,Utrecht,VBO,5.179565,52.154442
Prinses Marijkelaan,25,,,3738DW,Maartensdijk,De Bilt,Utrecht,VBO,5.179509,52.154483
Prinses Marijkelaan,27,,,3738DW,Maartensdijk,De Bilt,Utrecht,VBO,5.179446,52.154522
Prinses Marijkelaan,29,,,3738DW,Maartensdijk,De Bilt,Utrecht,VBO,5.179341,52.154578
Prinses Marijkelaan,31,,,3738DW,Maartensdijk,De Bilt,Utrecht,VBO,5.179161,52.154586
Prinses Marijkelaan,2,,,3738DX,Maartensdijk,De Bilt,Utrecht,VBO,5.177104,52.155264
Prinses Marijkelaan,33,,TR,3738DX,Maartensdijk,De Bilt,Utrecht,VBO,5.178115,52.154652
Prinses Marijkelaan,33,,,3738DX,Maartensdijk,De Bilt,Utrecht,VBO,5.178171,52.154793
Prinses Marijkelaan,35,,,3738DX,Maartensdijk,De Bilt,Utrecht,VBO,5.178099,52.154807
Prinses Marijkelaan,37,,,3738DX,Maartensdijk,De Bilt,Utrecht,VBO,5.178015,52.154824
Prinses Marijkelaan,39,,,3738DX,Maartensdijk,De Bilt,Utrecht,VBO,5.177931,52.154840
Prinses Marijkelaan,41,,,3738DX,Maartensdijk,De Bilt,Utrecht,VBO,5.177846,52.154859
Prinses Marijkelaan,43,,,3738DX,Maartensdijk,De Bilt,Utrecht,VBO,5.177758,52.154877
Prinses Marijkelaan,45,,GB1,3738DX,Maartensdijk,De Bilt,Utrecht,VBO,5.177472,52.154796
Prinses Marijkelaan,45,,,3738DX,Maartensdijk,De Bilt,Utrecht,VBO,5.177561,52.154833
Prinses Marijkelaan,47,,,3738DX,Maartensdijk,De Bilt,Utrecht,VBO,5.177428,52.154934
Prinses Marijkelaan,49,,,3738DX,Maartensdijk,De Bilt,Utrecht,VBO,5.177342,52.154952
Prinses Marijkelaan,51,,,3738DX,Maartensdijk,De Bilt,Utrecht,VBO,5.177259,52.154968
Prinses Marijkelaan,53,,,3738DX,Maartensdijk,De Bilt,Utrecht,VBO,5.177157,52.154988
Prinses Marijkelaan,55,A,,3738DX,Maartensdijk,De Bilt,Utrecht,VBO,5.176658,52.155046
Prinses Marijkelaan,55,,,3738DX,Maartensdijk,De Bilt,Utrecht,VBO,5.176912,52.154998
Prinses Marijkelaan,57,,,3738DX,Maartensdijk,De Bilt,Utrecht,VBO,5.176470,52.155082
Prinses Marijkelaan,59,,,3738DZ,Maartensdijk,De Bilt,Utrecht,VBO,5.175998,52.155125
Prinses Marijkelaan,61,,,3738DZ,Maartensdijk,De Bilt,Utrecht,VBO,5.175915,52.155122
Prinses Marijkelaan,63,,,3738DZ,Maartensdijk,De Bilt,Utrecht,VBO,5.175826,52.155120
Prinses Marijkelaan,65,,,3738DZ,Maartensdijk,De Bilt,Utrecht,VBO,5.175739,52.155117
Prinses Marijkelaan,67,,,3738DZ,Maartensdijk,De Bilt,Utrecht,VBO,5.175656,52.155112
Prinses Marijkelaan,69,,,3738DZ,Maartensdijk,De Bilt,Utrecht,VBO,5.175535,52.155111
Prinses Marijkelaan,71,,,3738DZ,Maartensdijk,De Bilt,Utrecht,VBO,5.174885,52.155080
Prinses Marijkelaan,73,,,3738DZ,Maartensdijk,De Bilt,Utrecht,VBO,5.174764,52.155080
Prinses Marijkelaan,75,,,3738DZ,Maartensdijk,De Bilt,Utrecht,VBO,5.174620,52.155084
Prinses Marijkelaan,77,,,3738DZ,Maartensdijk,De Bilt,Utrecht,VBO,5.174490,52.155084
Prinses Marijkelaan,79,,,3738DZ,Maartensdijk,De Bilt,Utrecht,VBO,5.174342,52.155088
Prinses Marijkelaan,81,,,3738DZ,Maartensdijk,De Bilt,Utrecht,VBO,5.174229,52.155090
Prinses Marijkelaan,83,,,3738DZ,Maartensdijk,De Bilt,Utrecht,VBO,5.173852,52.155045
Prinses Marijkelaan,85,,,3738DZ,Maartensdijk,De Bilt,Utrecht,VBO,5.173772,52.155046
Prinses Marijkelaan,87,,,3738DZ,Maartensdijk,De Bilt,Utrecht,VBO,5.173683,52.155048
Prinses Marijkelaan,89,,,3738DZ,Maartensdijk,De Bilt,Utrecht,VBO,5.173587,52.155048
Nachtegaallaan,5,,,3738EA,Maartensdijk,De Bilt,Utrecht,VBO,5.174889,52.157367
Nachtegaallaan,7,,,3738EA,Maartensdijk,De Bilt,Utrecht,VBO,5.174856,52.157322
Nachtegaallaan,9,,,3738EA,Maartensdijk,De Bilt,Utrecht,VBO,5.174828,52.157273
Nachtegaallaan,11,,,3738EA,Maartensdijk,De Bilt,Utrecht,VBO,5.174797,52.157218
Nachtegaallaan,13,,,3738EA,Maartensdijk,De Bilt,Utrecht,VBO,5.174769,52.157171
Nachtegaallaan,15,,,3738EA,Maartensdijk,De Bilt,Utrecht,VBO,5.174731,52.157108
Nachtegaallaan,17,,,3738EA,Maartensdijk,De Bilt,Utrecht,VBO,5.174681,52.157015
Nachtegaallaan,19,,,3738EA,Maartensdijk,De Bilt,Utrecht,VBO,5.174653,52.156969
Nachtegaallaan,21,,,3738EA,Maartensdijk,De Bilt,Utrecht,VBO,5.174625,52.156920
Nachtegaallaan,23,,,3738EA,Maartensdijk,De Bilt,Utrecht,VBO,5.174595,52.156868
Nachtegaallaan,25,,,3738EA,Maartensdijk,De Bilt,Utrecht,VBO,5.174565,52.156817
Nachtegaallaan,27,,,3738EA,Maartensdijk,De Bilt,Utrecht,VBO,5.174536,52.156758
Nachtegaallaan,29,,,3738EA,Maartensdijk,De Bilt,Utrecht,VBO,5.174486,52.156668
Nachtegaallaan,31,,,3738EA,Maartensdijk,De Bilt,Utrecht,VBO,5.174450,52.156618
Nachtegaallaan,33,,,3738EA,Maartensdijk,De Bilt,Utrecht,VBO,5.174422,52.156569
Nachtegaallaan,35,,,3738EA,Maartensdijk,De Bilt,Utrecht,VBO,5.174394,52.156510
Nachtegaallaan,37,,,3738EA,Maartensdijk,De Bilt,Utrecht,VBO,5.174386,52.156407
Nachtegaallaan,39,,,3738EA,Maartensdijk,De Bilt,Utrecht,VBO,5.174382,52.156358
Nachtegaallaan,41,,,3738EA,Maartensdijk,De Bilt,Utrecht,VBO,5.174380,52.156299
Nachtegaallaan,43,,,3738EA,Maartensdijk,De Bilt,Utrecht,VBO,5.174380,52.156246
Nachtegaallaan,45,,,3738EA,Maartensdijk,De Bilt,Utrecht,VBO,5.174378,52.156191
Nachtegaallaan,47,,,3738EA,Maartensdijk,De Bilt,Utrecht,VBO,5.174379,52.156125
Nachtegaallaan,30,,,3738EB,Maartensdijk,De Bilt,Utrecht,VBO,5.173555,52.156923
Nachtegaallaan,32,,,3738EB,Maartensdijk,De Bilt,Utrecht,VBO,5.173373,52.156444
Nachtegaallaan,34,,,3738EB,Maartensdijk,De Bilt,Utrecht,VBO,5.173167,52.156510
Nachtegaallaan,36,,,3738EB,Maartensdijk,De Bilt,Utrecht,VBO,5.172916,52.156243
Nachtegaallaan,38,A,,3738EB,Maartensdijk,De Bilt,Utrecht,VBO,5.173040,52.156016
Nachtegaallaan,38,,,3738EB,Maartensdijk,De Bilt,Utrecht,VBO,5.173074,52.156226
Nachtegaallaan,40,,,3738EB,Maartensdijk,De Bilt,Utrecht,VBO,5.173527,52.155525
Nachtegaallaan,42,,,3738EB,Maartensdijk,De Bilt,Utrecht,VBO,5.173379,52.155428
Merellaan,1,A,,3738EC,Maartensdijk,De Bilt,Utrecht,VBO,5.175287,52.157616
Merellaan,1,,,3738EC,Maartensdijk,De Bilt,Utrecht,VBO,5.175114,52.157652
Merellaan,3,,,3738EC,Maartensdijk,De Bilt,Utrecht,VBO,5.175520,52.157489
Merellaan,5,,,3738EC,Maartensdijk,De Bilt,Utrecht,VBO,5.175806,52.157426
Merellaan,13,,,3738EC,Maartensdijk,De Bilt,Utrecht,VBO,5.176012,52.157217
Merellaan,15,,,3738EC,Maartensdijk,De Bilt,Utrecht,VBO,5.175987,52.157171
Merellaan,17,,,3738EC,Maartensdijk,De Bilt,Utrecht,VBO,5.175954,52.157116
Merellaan,19,,,3738EC,Maartensdijk,De Bilt,Utrecht,VBO,5.175928,52.157062
Merellaan,21,,,3738EC,Maartensdijk,De Bilt,Utrecht,VBO,5.175902,52.157009
Merellaan,23,,,3738EC,Maartensdijk,De Bilt,Utrecht,VBO,5.175874,52.156956
Merellaan,25,,,3738EC,Maartensdijk,De Bilt,Utrecht,VBO,5.175842,52.156904
Merellaan,27,,,3738EC,Maartensdijk,De Bilt,Utrecht,VBO,5.175808,52.156780
Merellaan,29,,,3738EC,Maartensdijk,De Bilt,Utrecht,VBO,5.175780,52.156729
Merellaan,31,,,3738EC,Maartensdijk,De Bilt,Utrecht,VBO,5.175758,52.156676
Merellaan,33,,,3738EC,Maartensdijk,De Bilt,Utrecht,VBO,5.175731,52.156623
Merellaan,35,,,3738EC,Maartensdijk,De Bilt,Utrecht,VBO,5.175701,52.156567
Merellaan,37,,,3738EC,Maartensdijk,De Bilt,Utrecht,VBO,5.175671,52.156517
Merellaan,39,,,3738EC,Maartensdijk,De Bilt,Utrecht,VBO,5.175637,52.156459
Merellaan,41,,,3738ED,Maartensdijk,De Bilt,Utrecht,VBO,5.175529,52.156326
Merellaan,43,,,3738ED,Maartensdijk,De Bilt,Utrecht,VBO,5.175498,52.156276
Merellaan,45,,,3738ED,Maartensdijk,De Bilt,Utrecht,VBO,5.175461,52.156223
Merellaan,47,,,3738ED,Maartensdijk,De Bilt,Utrecht,VBO,5.175436,52.156168
Merellaan,49,,,3738ED,Maartensdijk,De Bilt,Utrecht,VBO,5.175403,52.156043
Merellaan,51,,,3738ED,Maartensdijk,De Bilt,Utrecht,VBO,5.175403,52.155973
Merellaan,53,,,3738ED,Maartensdijk,De Bilt,Utrecht,VBO,5.175399,52.155874
Merellaan,55,,,3738ED,Maartensdijk,De Bilt,Utrecht,VBO,5.175398,52.155780
Merellaan,2,,GB1,3738EE,Maartensdijk,De Bilt,Utrecht,VBO,5.175151,52.157112
Merellaan,2,,GB10,3738EE,Maartensdijk,De Bilt,Utrecht,VBO,5.175021,52.156878
Merellaan,2,,GB11,3738EE,Maartensdijk,De Bilt,Utrecht,VBO,5.175006,52.156860
Merellaan,2,,GB12,3738EE,Maartensdijk,De Bilt,Utrecht,VBO,5.174992,52.156833
Merellaan,2,,GB13,3738EE,Maartensdijk,De Bilt,Utrecht,VBO,5.174977,52.156806
Merellaan,2,,GB14,3738EE,Maartensdijk,De Bilt,Utrecht,VBO,5.174963,52.156779
Merellaan,2,,GB15,3738EE,Maartensdijk,De Bilt,Utrecht,VBO,5.174948,52.156761
Merellaan,2,,GB16,3738EE,Maartensdijk,De Bilt,Utrecht,VBO,5.174934,52.156734
Merellaan,2,,GB17,3738EE,Maartensdijk,De Bilt,Utrecht,VBO,5.174919,52.156707
Merellaan,2,,GB18,3738EE,Maartensdijk,De Bilt,Utrecht,VBO,5.174905,52.156680
Merellaan,2,,GB19,3738EE,Maartensdijk,De Bilt,Utrecht,VBO,5.174890,52.156653
Merellaan,2,,GB2,3738EE,Maartensdijk,De Bilt,Utrecht,VBO,5.175122,52.157085
Merellaan,2,,GB20,3738EE,Maartensdijk,De Bilt,Utrecht,VBO,5.174890,52.156626
Merellaan,2,,GB21,3738EE,Maartensdijk,De Bilt,Utrecht,VBO,5.174861,52.156599
Merellaan,2,,GB22,3738EE,Maartensdijk,De Bilt,Utrecht,VBO,5.174861,52.156572
Merellaan,2,,GB3,3738EE,Maartensdijk,De Bilt,Utrecht,VBO,5.175122,52.157067
Merellaan,2,,GB4,3738EE,Maartensdijk,De Bilt,Utrecht,VBO,5.175093,52.157040
Merellaan,2,,GB5,3738EE,Maartensdijk,De Bilt,Utrecht,VBO,5.175093,52.157013
Merellaan,2,,GB6,3738EE,Maartensdijk,De Bilt,Utrecht,VBO,5.175064,52.156986
Merellaan,2,,GB7,3738EE,Maartensdijk,De Bilt,Utrecht,VBO,5.175064,52.156959
Merellaan,2,,GB8,3738EE,Maartensdijk,De Bilt,Utrecht,VBO,5.175035,52.156932
Merellaan,2,,GB9,3738EE,Maartensdijk,De Bilt,Utrecht,VBO,5.175035,52.156905
Merellaan,2,,,3738EE,Maartensdijk,De Bilt,Utrecht,VBO,5.175325,52.157252
Merellaan,4,,,3738EE,Maartensdijk,De Bilt,Utrecht,VBO,5.175392,52.157240
Merellaan,6,,,3738EE,Maartensdijk,De Bilt,Utrecht,VBO,5.175478,52.157224
Merellaan,8,,,3738EE,Maartensdijk,De Bilt,Utrecht,VBO,5.175566,52.157208
Merellaan,10,,,3738EE,Maartensdijk,De Bilt,Utrecht,VBO,5.175432,52.157033
Merellaan,12,,,3738EE,Maartensdijk,De Bilt,Utrecht,VBO,5.175405,52.156985
Merellaan,14,,,3738EE,Maartensdijk,De Bilt,Utrecht,VBO,5.175379,52.156932
Merellaan,16,,,3738EE,Maartensdijk,De Bilt,Utrecht,VBO,5.175350,52.156883
Merellaan,18,,,3738EE,Maartensdijk,De Bilt,Utrecht,VBO,5.175324,52.156833
Merellaan,20,,,3738EE,Maartensdijk,De Bilt,Utrecht,VBO,5.175296,52.156783
Merellaan,22,,,3738EE,Maartensdijk,De Bilt,Utrecht,VBO,5.175237,52.156693
Merellaan,24,,,3738EE,Maartensdijk,De Bilt,Utrecht,VBO,5.175219,52.156638
Merellaan,26,,,3738EE,Maartensdijk,De Bilt,Utrecht,VBO,5.175191,52.156585
Merellaan,28,,,3738EE,Maartensdijk,De Bilt,Utrecht,VBO,5.175156,52.156528
Merellaan,30,,,3738EG,Maartensdijk,De Bilt,Utrecht,VBO,5.174959,52.156378
Merellaan,32,,,3738EG,Maartensdijk,De Bilt,Utrecht,VBO,5.174959,52.156322
Merellaan,34,,,3738EG,Maartensdijk,De Bilt,Utrecht,VBO,5.174958,52.156268
Merellaan,36,,,3738EG,Maartensdijk,De Bilt,Utrecht,VBO,5.174955,52.156209
Merellaan,38,,,3738EG,Maartensdijk,De Bilt,Utrecht,VBO,5.174953,52.156151
Merellaan,40,,,3738EG,Maartensdijk,De Bilt,Utrecht,VBO,5.174964,52.155934
Merellaan,42,,,3738EG,Maartensdijk,De Bilt,Utrecht,VBO,5.174851,52.155935
Merellaan,44,,,3738EG,Maartensdijk,De Bilt,Utrecht,VBO,5.174705,52.155936
Merellaan,46,,,3738EG,Maartensdijk,De Bilt,Utrecht,VBO,5.174578,52.155936
Merellaan,48,,,3738EG,Maartensdijk,De Bilt,Utrecht,VBO,5.174444,52.155937
Merellaan,50,,,3738EG,Maartensdijk,De Bilt,Utrecht,VBO,5.174328,52.155936
Sperwerlaan,1,,,3738EH,Maartensdijk,De Bilt,Utrecht,VBO,5.173327,52.155082
Sperwerlaan,3,,,3738EH,Maartensdijk,De Bilt,Utrecht,VBO,5.173318,52.155022
Sperwerlaan,5,,,3738EH,Maartensdijk,De Bilt,Utrecht,VBO,5.173318,52.154964
Sperwerlaan,7,,,3738EH,Maartensdijk,De Bilt,Utrecht,VBO,5.173316,52.154908
Sperwerlaan,9,,,3738EH,Maartensdijk,De Bilt,Utrecht,VBO,5.173180,52.154280
Sperwerlaan,11,,,3738EH,Maartensdijk,De Bilt,Utrecht,VBO,5.173142,52.154229
Sperwerlaan,13,,,3738EH,Maartensdijk,De Bilt,Utrecht,VBO,5.173108,52.154177
Sperwerlaan,15,,,3738EH,Maartensdijk,De Bilt,Utrecht,VBO,5.173075,52.154116
Sperwerlaan,17,,,3738EH,Maartensdijk,De Bilt,Utrecht,VBO,5.172950,52.153914
Sperwerlaan,19,,,3738EH,Maartensdijk,De Bilt,Utrecht,VBO,5.172912,52.153846
Sperwerlaan,21,,,3738EH,Maartensdijk,De Bilt,Utrecht,VBO,5.172887,52.153793
Sperwerlaan,23,,,3738EH,Maartensdijk,De Bilt,Utrecht,VBO,5.172846,52.153734
Sperwerlaan,25,,,3738EH,Maartensdijk,De Bilt,Utrecht,VBO,5.172721,52.153572
Sperwerlaan,27,,,3738EH,Maartensdijk,De Bilt,Utrecht,VBO,5.172807,52.153552
Sperwerlaan,29,,,3738EH,Maartensdijk,De Bilt,Utrecht,VBO,5.172896,52.153533
Sperwerlaan,31,,,3738EH,Maartensdijk,De Bilt,Utrecht,VBO,5.172981,52.153517
Vredesteinlaan,1,,,3738EJ,Maartensdijk,De Bilt,Utrecht,VBO,5.176479,52.157538
Vredesteinlaan,2,,,3738EJ,Maartensdijk,De Bilt,Utrecht,VBO,5.176266,52.157584
Vredesteinlaan,3,,,3738EJ,Maartensdijk,De Bilt,Utrecht,VBO,5.176479,52.157538
Vredesteinlaan,4,,,3738EJ,Maartensdijk,De Bilt,Utrecht,VBO,5.176266,52.157584
Vredesteinlaan,5,,,3738EJ,Maartensdijk,De Bilt,Utrecht,VBO,5.176479,52.157538
Vredesteinlaan,6,,,3738EJ,Maartensdijk,De Bilt,Utrecht,VBO,5.176266,52.157584
Vredesteinlaan,7,,,3738EJ,Maartensdijk,De Bilt,Utrecht,VBO,5.176479,52.157538
Vredesteinlaan,8,,,3738EJ,Maartensdijk,De Bilt,Utrecht,VBO,5.176266,52.157584
Vredesteinlaan,9,,,3738EJ,Maartensdijk,De Bilt,Utrecht,VBO,5.176479,52.157538
Vredesteinlaan,10,,,3738EJ,Maartensdijk,De Bilt,Utrecht,VBO,5.176266,52.157584
Vredesteinlaan,11,,,3738EJ,Maartensdijk,De Bilt,Utrecht,VBO,5.176479,52.157538
Vredesteinlaan,12,,,3738EJ,Maartensdijk,De Bilt,Utrecht,VBO,5.176266,52.157584
Vredesteinlaan,13,,,3738EJ,Maartensdijk,De Bilt,Utrecht,VBO,5.176479,52.157538
Vredesteinlaan,14,,,3738EJ,Maartensdijk,De Bilt,Utrecht,VBO,5.176266,52.157584
Vredesteinlaan,15,,,3738EJ,Maartensdijk,De Bilt,Utrecht,VBO,5.176479,52.157538
Vredesteinlaan,16,,,3738EJ,Maartensdijk,De Bilt,Utrecht,VBO,5.176266,52.157584
Sperwerlaan,84,,,3738EL,Maartensdijk,De Bilt,Utrecht,VBO,5.172406,52.153371
Sperwerlaan,86,,,3738EL,Maartensdijk,De Bilt,Utrecht,VBO,5.172515,52.153349
Sperwerlaan,88,,,3738EL,Maartensdijk,De Bilt,Utrecht,VBO,5.172602,52.153329
Sperwerlaan,90,,,3738EL,Maartensdijk,De Bilt,Utrecht,VBO,5.172697,52.153309
Sperwerlaan,92,,,3738EL,Maartensdijk,De Bilt,Utrecht,VBO,5.172876,52.153266
Sperwerlaan,94,,,3738EL,Maartensdijk,De Bilt,Utrecht,VBO,5.172964,52.153249
Sperwerlaan,96,,,3738EL,Maartensdijk,De Bilt,Utrecht,VBO,5.173049,52.153232
Sperwerlaan,98,,,3738EL,Maartensdijk,De Bilt,Utrecht,VBO,5.173144,52.153210
Leeuweriklaan,1,,,3738EM,Maartensdijk,De Bilt,Utrecht,VBO,5.173495,52.154383
Leeuweriklaan,2,,,3738EM,Maartensdijk,De Bilt,Utrecht,VBO,5.173546,52.154712
Leeuweriklaan,3,,,3738EM,Maartensdijk,De Bilt,Utrecht,VBO,5.173396,52.154408
Leeuweriklaan,4,,,3738EM,Maartensdijk,De Bilt,Utrecht,VBO,5.173459,52.154715
Leeuweriklaan,5,,,3738EM,Maartensdijk,De Bilt,Utrecht,VBO,5.173313,52.154428
Leeuweriklaan,6,,,3738EM,Maartensdijk,De Bilt,Utrecht,VBO,5.173361,52.154718
Leeuweriklaan,7,,,3738EM,Maartensdijk,De Bilt,Utrecht,VBO,5.173211,52.154445
Leeuweriklaan,8,,,3738EM,Maartensdijk,De Bilt,Utrecht,VBO,5.173258,52.154717
Kievitlaan,3,,TR,3738EN,Maartensdijk,De Bilt,Utrecht,VBO,5.174555,52.154932
Kievitlaan,3,,,3738EN,Maartensdijk,De Bilt,Utrecht,VBO,5.174345,52.154911
Kievitlaan,5,,,3738EN,Maartensdijk,De Bilt,Utrecht,VBO,5.174344,52.154857
Kievitlaan,7,,,3738EN,Maartensdijk,De Bilt,Utrecht,VBO,5.174342,52.154795
Kievitlaan,9,,,3738EN,Maartensdijk,De Bilt,Utrecht,VBO,5.174340,52.154737
Kievitlaan,11,,,3738EN,Maartensdijk,De Bilt,Utrecht,VBO,5.174339,52.154675
Kievitlaan,13,,,3738EN,Maartensdijk,De Bilt,Utrecht,VBO,5.174337,52.154613
Kievitlaan,15,,,3738EN,Maartensdijk,De Bilt,Utrecht,VBO,5.174335,52.154552
Kievitlaan,17,,,3738EN,Maartensdijk,De Bilt,Utrecht,VBO,5.174334,52.154494
Kievitlaan,19,,,3738EN,Maartensdijk,De Bilt,Utrecht,VBO,5.174301,52.154390
Kievitlaan,21,,,3738EN,Maartensdijk,De Bilt,Utrecht,VBO,5.174278,52.154332
Kievitlaan,23,,,3738EN,Maartensdijk,De Bilt,Utrecht,VBO,5.174249,52.154278
Kievitlaan,25,,,3738EN,Maartensdijk,De Bilt,Utrecht,VBO,5.174221,52.154221
Kievitlaan,27,,,3738EN,Maartensdijk,De Bilt,Utrecht,VBO,5.174195,52.154164
Kievitlaan,29,,,3738EN,Maartensdijk,De Bilt,Utrecht,VBO,5.174161,52.154100
Kievitlaan,31,,,3738EP,Maartensdijk,De Bilt,Utrecht,VBO,5.173762,52.153566
Kievitlaan,33,,,3738EP,Maartensdijk,De Bilt,Utrecht,VBO,5.173715,52.153319
Kievitlaan,35,,,3738EP,Maartensdijk,De Bilt,Utrecht,VBO,5.173675,52.153250
Kievitlaan,37,,,3738EP,Maartensdijk,De Bilt,Utrecht,VBO,5.173397,52.152683
Kievitlaan,39,,,3738EP,Maartensdijk,De Bilt,Utrecht,VBO,5.173397,52.152683
Kievitlaan,41,,,3738EP,Maartensdijk,De Bilt,Utrecht,VBO,5.173397,52.152683
Kievitlaan,43,,,3738EP,Maartensdijk,De Bilt,Utrecht,VBO,5.173397,52.152683
Kievitlaan,45,,,3738EP,Maartensdijk,De Bilt,Utrecht,VBO,5.173397,52.152683
Kievitlaan,47,,,3738EP,Maartensdijk,De Bilt,Utrecht,VBO,5.173397,52.152683
Kievitlaan,49,,,3738EP,Maartensdijk,De Bilt,Utrecht,VBO,5.173397,52.152683
Kievitlaan,51,,,3738EP,Maartensdijk,De Bilt,Utrecht,VBO,5.173397,52.152683
Kievitlaan,53,,,3738EP,Maartensdijk,De Bilt,Utrecht,VBO,5.173397,52.152683
Kievitlaan,55,,,3738EP,Maartensdijk,De Bilt,Utrecht,VBO,5.173397,52.152683
Kievitlaan,57,,,3738EP,Maartensdijk,De Bilt,Utrecht,VBO,5.173397,52.152683
Kievitlaan,59,,,3738EP,Maartensdijk,De Bilt,Utrecht,VBO,5.173397,52.152683
Kievitlaan,61,,,3738EP,Maartensdijk,De Bilt,Utrecht,VBO,5.173397,52.152683
Kievitlaan,63,,,3738EP,Maartensdijk,De Bilt,Utrecht,VBO,5.173397,52.152683
Kievitlaan,65,,,3738EP,Maartensdijk,De Bilt,Utrecht,VBO,5.173397,52.152683
Kievitlaan,67,,,3738EP,Maartensdijk,De Bilt,Utrecht,VBO,5.173397,52.152683
Kievitlaan,69,,,3738EP,Maartensdijk,De Bilt,Utrecht,VBO,5.173397,52.152683
Kievitlaan,71,,,3738EP,Maartensdijk,De Bilt,Utrecht,VBO,5.173397,52.152683
Kievitlaan,73,,,3738ER,Maartensdijk,De Bilt,Utrecht,VBO,5.173397,52.152683
Kievitlaan,75,,,3738ER,Maartensdijk,De Bilt,Utrecht,VBO,5.173397,52.152683
Kievitlaan,77,,,3738ER,Maartensdijk,De Bilt,Utrecht,VBO,5.173397,52.152683
Kievitlaan,79,,,3738ER,Maartensdijk,De Bilt,Utrecht,VBO,5.173397,52.152683
Kievitlaan,83,,,3738ER,Maartensdijk,De Bilt,Utrecht,VBO,5.173397,52.152683
Kievitlaan,85,,,3738ER,Maartensdijk,De Bilt,Utrecht,VBO,5.173397,52.152683
Kievitlaan,87,,,3738ER,Maartensdijk,De Bilt,Utrecht,VBO,5.173397,52.152683
Kievitlaan,89,,,3738ER,Maartensdijk,De Bilt,Utrecht,VBO,5.173397,52.152683
Kievitlaan,91,,,3738ER,Maartensdijk,De Bilt,Utrecht,VBO,5.173397,52.152683
Kievitlaan,93,,,3738ER,Maartensdijk,De Bilt,Utrecht,VBO,5.173397,52.152683
Kievitlaan,95,,,3738ER,Maartensdijk,De Bilt,Utrecht,VBO,5.173397,52.152683
Kievitlaan,97,,,3738ER,Maartensdijk,De Bilt,Utrecht,VBO,5.173397,52.152683
Kievitlaan,99,,,3738ER,Maartensdijk,De Bilt,Utrecht,VBO,5.173397,52.152683
Kievitlaan,101,,,3738ER,Maartensdijk,De Bilt,Utrecht,VBO,5.173397,52.152683
Kievitlaan,103,,,3738ER,Maartensdijk,De Bilt,Utrecht,VBO,5.173397,52.152683
Kievitlaan,2,,,3738ES,Maartensdijk,De Bilt,Utrecht,VBO,5.173817,52.154857
Kievitlaan,4,,,3738ES,Maartensdijk,De Bilt,Utrecht,VBO,5.173818,52.154799
Kievitlaan,6,,,3738ES,Maartensdijk,De Bilt,Utrecht,VBO,5.173820,52.154745
Kievitlaan,8,,,3738ES,Maartensdijk,De Bilt,Utrecht,VBO,5.173818,52.154678
Kievitlaan,10,,,3738ES,Maartensdijk,De Bilt,Utrecht,VBO,5.173750,52.154371
Kievitlaan,12,,,3738ES,Maartensdijk,De Bilt,Utrecht,VBO,5.173734,52.154319
Kievitlaan,14,,,3738ES,Maartensdijk,De Bilt,Utrecht,VBO,5.173705,52.154264
Kievitlaan,16,,,3738ES,Maartensdijk,De Bilt,Utrecht,VBO,5.173671,52.154208
Kievitlaan,18,,,3738ES,Maartensdijk,De Bilt,Utrecht,VBO,5.173304,52.153600
Kievitlaan,20,,,3738ES,Maartensdijk,De Bilt,Utrecht,VBO,5.173286,52.153549
Kievitlaan,22,,,3738ES,Maartensdijk,De Bilt,Utrecht,VBO,5.173256,52.153496
Kievitlaan,24,,,3738ES,Maartensdijk,De Bilt,Utrecht,VBO,5.173212,52.153441
Kievitlaan,26,,,3738ET,Maartensdijk,De Bilt,Utrecht,VBO,5.172999,52.153036
Kievitlaan,28,,,3738ET,Maartensdijk,De Bilt,Utrecht,VBO,5.172981,52.152985
Kievitlaan,30,,,3738ET,Maartensdijk,De Bilt,Utrecht,VBO,5.172943,52.152927
Kievitlaan,32,,,3738ET,Maartensdijk,De Bilt,Utrecht,VBO,5.172705,52.153000
Kievitlaan,34,,,3738ET,Maartensdijk,De Bilt,Utrecht,VBO,5.172618,52.153019
Kievitlaan,36,,,3738ET,Maartensdijk,De Bilt,Utrecht,VBO,5.172535,52.153037
Kievitlaan,38,,,3738ET,Maartensdijk,De Bilt,Utrecht,VBO,5.172447,52.153056
Kievitlaan,40,,,3738ET,Maartensdijk,De Bilt,Utrecht,VBO,5.172360,52.153075
Kievitlaan,42,,,3738ET,Maartensdijk,De Bilt,Utrecht,VBO,5.172271,52.153094
Gruttolaan,1,,,3738EV,Maartensdijk,De Bilt,Utrecht,VBO,5.175266,52.155120
Gruttolaan,3,,,3738EV,Maartensdijk,De Bilt,Utrecht,VBO,5.175266,52.155069
Gruttolaan,5,,,3738EV,Maartensdijk,De Bilt,Utrecht,VBO,5.175265,52.155013
Gruttolaan,7,,,3738EV,Maartensdijk,De Bilt,Utrecht,VBO,5.175264,52.154963
Gruttolaan,9,,,3738EV,Maartensdijk,De Bilt,Utrecht,VBO,5.175263,52.154906
Gruttolaan,11,,,3738EV,Maartensdijk,De Bilt,Utrecht,VBO,5.175262,52.154850
Gruttolaan,13,,,3738EV,Maartensdijk,De Bilt,Utrecht,VBO,5.175260,52.154750
Gruttolaan,15,,,3738EV,Maartensdijk,De Bilt,Utrecht,VBO,5.175259,52.154697
Gruttolaan,17,,,3738EV,Maartensdijk,De Bilt,Utrecht,VBO,5.175258,52.154642
Gruttolaan,19,,,3738EV,Maartensdijk,De Bilt,Utrecht,VBO,5.175257,52.154587
Gruttolaan,21,,,3738EV,Maartensdijk,De Bilt,Utrecht,VBO,5.175256,52.154535
Gruttolaan,23,A,,3738EV,Maartensdijk,De Bilt,Utrecht,VBO,5.175217,52.154361
Gruttolaan,23,B,,3738EV,Maartensdijk,De Bilt,Utrecht,VBO,5.175181,52.154309
Gruttolaan,23,,,3738EV,Maartensdijk,De Bilt,Utrecht,VBO,5.175255,52.154481
Gruttolaan,25,,,3738EV,Maartensdijk,De Bilt,Utrecht,VBO,5.175133,52.154192
Gruttolaan,27,,,3738EV,Maartensdijk,De Bilt,Utrecht,VBO,5.175107,52.154148
Gruttolaan,29,,,3738EV,Maartensdijk,De Bilt,Utrecht,VBO,5.175077,52.154100
Gruttolaan,31,,,3738EV,Maartensdijk,De Bilt,Utrecht,VBO,5.175049,52.154047
Gruttolaan,33,,,3738EV,Maartensdijk,De Bilt,Utrecht,VBO,5.175022,52.153997
Gruttolaan,35,,GB1,3738EV,Maartensdijk,De Bilt,Utrecht,VBO,5.175240,52.153841
Gruttolaan,35,,GB10,3738EV,Maartensdijk,De Bilt,Utrecht,VBO,5.175457,52.154210
Gruttolaan,35,,GB11,3738EV,Maartensdijk,De Bilt,Utrecht,VBO,5.175471,52.154273
Gruttolaan,35,,GB12,3738EV,Maartensdijk,De Bilt,Utrecht,VBO,5.175500,52.154291
Gruttolaan,35,,GB13,3738EV,Maartensdijk,De Bilt,Utrecht,VBO,5.175515,52.154318
Gruttolaan,35,,GB14,3738EV,Maartensdijk,De Bilt,Utrecht,VBO,5.175558,52.154390
Gruttolaan,35,,GB2,3738EV,Maartensdijk,De Bilt,Utrecht,VBO,5.175269,52.153877
Gruttolaan,35,,GB3,3738EV,Maartensdijk,De Bilt,Utrecht,VBO,5.175283,52.153904
Gruttolaan,35,,GB4,3738EV,Maartensdijk,De Bilt,Utrecht,VBO,5.175298,52.153931
Gruttolaan,35,,GB5,3738EV,Maartensdijk,De Bilt,Utrecht,VBO,5.175327,52.153985
Gruttolaan,35,,GB6,3738EV,Maartensdijk,De Bilt,Utrecht,VBO,5.175341,52.154021
Gruttolaan,35,,GB7,3738EV,Maartensdijk,De Bilt,Utrecht,VBO,5.175355,52.154057
Gruttolaan,35,,GB8,3738EV,Maartensdijk,De Bilt,Utrecht,VBO,5.175384,52.154102
Gruttolaan,35,,GB9,3738EV,Maartensdijk,De Bilt,Utrecht,VBO,5.175428,52.154165
Gruttolaan,35,,,3738EV,Maartensdijk,De Bilt,Utrecht,VBO,5.174987,52.153936
Gruttolaan,4,,,3738EW,Maartensdijk,De Bilt,Utrecht,VBO,5.174855,52.154890
Gruttolaan,6,,,3738EW,Maartensdijk,De Bilt,Utrecht,VBO,5.174857,52.154830
Gruttolaan,8,,,3738EW,Maartensdijk,De Bilt,Utrecht,VBO,5.174860,52.154777
Gruttolaan,10,,,3738EW,Maartensdijk,De Bilt,Utrecht,VBO,5.174852,52.154721
Gruttolaan,12,,,3738EW,Maartensdijk,De Bilt,Utrecht,VBO,5.174850,52.154666
Gruttolaan,14,,,3738EW,Maartensdijk,De Bilt,Utrecht,VBO,5.174852,52.154610
Gruttolaan,16,,,3738EW,Maartensdijk,De Bilt,Utrecht,VBO,5.174846,52.154555
Gruttolaan,18,,,3738EW,Maartensdijk,De Bilt,Utrecht,VBO,5.174833,52.154488
Gruttolaan,20,,,3738EW,Maartensdijk,De Bilt,Utrecht,VBO,5.174800,52.154363
Gruttolaan,22,,,3738EW,Maartensdijk,De Bilt,Utrecht,VBO,5.174771,52.154308
Gruttolaan,24,,,3738EW,Maartensdijk,De Bilt,Utrecht,VBO,5.174739,52.154252
Gruttolaan,26,,,3738EW,Maartensdijk,De Bilt,Utrecht,VBO,5.174711,52.154203
Gruttolaan,28,,,3738EW,Maartensdijk,De Bilt,Utrecht,VBO,5.174680,52.154148
Gruttolaan,30,,,3738EW,Maartensdijk,De Bilt,Utrecht,VBO,5.174647,52.154092
Gruttolaan,32,,,3738EW,Maartensdijk,De Bilt,Utrecht,VBO,5.174607,52.154019
Fazantlaan,1,,,3738EX,Maartensdijk,De Bilt,Utrecht,VBO,5.176497,52.154815
Fazantlaan,7,,,3738EX,Maartensdijk,De Bilt,Utrecht,VBO,5.176157,52.153906
Fazantlaan,9,,,3738EX,Maartensdijk,De Bilt,Utrecht,VBO,5.176132,52.153856
Fazantlaan,11,,,3738EX,Maartensdijk,De Bilt,Utrecht,VBO,5.176100,52.153808
Fazantlaan,13,,,3738EX,Maartensdijk,De Bilt,Utrecht,VBO,5.176055,52.153746
Fazantlaan,2,,GB1,3738EZ,Maartensdijk,De Bilt,Utrecht,VBO,5.175542,52.154866
Fazantlaan,2,,GB2,3738EZ,Maartensdijk,De Bilt,Utrecht,VBO,5.175571,52.154875
Fazantlaan,2,,GB3,3738EZ,Maartensdijk,De Bilt,Utrecht,VBO,5.175615,52.154875
Fazantlaan,2,,GB4,3738EZ,Maartensdijk,De Bilt,Utrecht,VBO,5.175658,52.154875
Fazantlaan,2,,GB5,3738EZ,Maartensdijk,De Bilt,Utrecht,VBO,5.175702,52.154875
Fazantlaan,2,,GB6,3738EZ,Maartensdijk,De Bilt,Utrecht,VBO,5.175761,52.154875
Fazantlaan,2,,,3738EZ,Maartensdijk,De Bilt,Utrecht,VBO,5.175986,52.154928
Fazantlaan,4,,,3738EZ,Maartensdijk,De Bilt,Utrecht,VBO,5.175993,52.154867
Fazantlaan,6,,,3738EZ,Maartensdijk,De Bilt,Utrecht,VBO,5.176002,52.154815
Fazantlaan,8,,,3738EZ,Maartensdijk,De Bilt,Utrecht,VBO,5.176006,52.154763
Fazantlaan,10,,,3738EZ,Maartensdijk,De Bilt,Utrecht,VBO,5.176012,52.154709
Fazantlaan,12,,,3738EZ,Maartensdijk,De Bilt,Utrecht,VBO,5.176023,52.154647
Fazantlaan,14,,,3738EZ,Maartensdijk,De Bilt,Utrecht,VBO,5.176016,52.154561
Fazantlaan,16,,,3738EZ,Maartensdijk,De Bilt,Utrecht,VBO,5.175998,52.154507
Fazantlaan,18,,,3738EZ,Maartensdijk,De Bilt,Utrecht,VBO,5.175979,52.154455
Fazantlaan,20,,,3738EZ,Maartensdijk,De Bilt,Utrecht,VBO,5.175962,52.154402
Fazantlaan,22,,,3738EZ,Maartensdijk,De Bilt,Utrecht,VBO,5.175943,52.154349
Fazantlaan,24,,,3738EZ,Maartensdijk,De Bilt,Utrecht,VBO,5.175921,52.154287
Fazantlaan,26,,,3738EZ,Maartensdijk,De Bilt,Utrecht,VBO,5.175872,52.154191
Fazantlaan,28,,,3738EZ,Maartensdijk,De Bilt,Utrecht,VBO,5.175847,52.154143
Fazantlaan,30,,,3738EZ,Maartensdijk,De Bilt,Utrecht,VBO,5.175819,52.154091
Fazantlaan,32,,,3738EZ,Maartensdijk,De Bilt,Utrecht,VBO,5.175791,52.154041
Fazantlaan,34,,,3738EZ,Maartensdijk,De Bilt,Utrecht,VBO,5.175760,52.153986
Fazantlaan,36,,,3738EZ,Maartensdijk,De Bilt,Utrecht,VBO,5.175730,52.153932
Fazantlaan,38,,,3738EZ,Maartensdijk,De Bilt,Utrecht,VBO,5.175680,52.153852
Fazantlaan,40,,,3738EZ,Maartensdijk,De Bilt,Utrecht,VBO,5.175653,52.153798
Fazantlaan,42,,,3738EZ,Maartensdijk,De Bilt,Utrecht,VBO,5.175624,52.153748
Fazantlaan,44,,,3738EZ,Maartensdijk,De Bilt,Utrecht,VBO,5.175597,52.153697
Fazantlaan,46,,,3738EZ,Maartensdijk,De Bilt,Utrecht,VBO,5.175568,52.153647
Fazantlaan,48,,,3738EZ,Maartensdijk,De Bilt,Utrecht,VBO,5.175533,52.153590
Spechtlaan,1,,,3738GA,Maartensdijk,De Bilt,Utrecht,VBO,5.177795,52.154211
Spechtlaan,3,,,3738GA,Maartensdijk,De Bilt,Utrecht,VBO,5.177705,52.154231
Spechtlaan,5,,,3738GA,Maartensdijk,De Bilt,Utrecht,VBO,5.177620,52.154250
Spechtlaan,7,,,3738GA,Maartensdijk,De Bilt,Utrecht,VBO,5.177532,52.154267
Spechtlaan,9,,,3738GA,Maartensdijk,De Bilt,Utrecht,VBO,5.177372,52.154304
Spechtlaan,11,,,3738GA,Maartensdijk,De Bilt,Utrecht,VBO,5.177279,52.154323
Spechtlaan,13,,,3738GA,Maartensdijk,De Bilt,Utrecht,VBO,5.177190,52.154339
Spechtlaan,15,,,3738GA,Maartensdijk,De Bilt,Utrecht,VBO,5.177107,52.154355
Spechtlaan,17,,,3738GA,Maartensdijk,De Bilt,Utrecht,VBO,5.177029,52.154372
Spechtlaan,19,,,3738GA,Maartensdijk,De Bilt,Utrecht,VBO,5.176931,52.154393
Spechtlaan,21,,,3738GA,Maartensdijk,De Bilt,Utrecht,VBO,5.176774,52.154409
Spechtlaan,23,,,3738GA,Maartensdijk,De Bilt,Utrecht,VBO,5.176698,52.154423
Spechtlaan,25,,,3738GA,Maartensdijk,De Bilt,Utrecht,VBO,5.176625,52.154436
Spechtlaan,27,,,3738GA,Maartensdijk,De Bilt,Utrecht,VBO,5.176538,52.154436
Spechtlaan,29,,,3738GA,Maartensdijk,De Bilt,Utrecht,VBO,5.176455,52.154450
Spechtlaan,2,,,3738GB,Maartensdijk,De Bilt,Utrecht,VBO,5.177999,52.154433
Spechtlaan,4,,,3738GB,Maartensdijk,De Bilt,Utrecht,VBO,5.177903,52.154453
Spechtlaan,6,,,3738GB,Maartensdijk,De Bilt,Utrecht,VBO,5.177822,52.154469
Spechtlaan,8,,,3738GB,Maartensdijk,De Bilt,Utrecht,VBO,5.177734,52.154488
Spechtlaan,10,,,3738GB,Maartensdijk,De Bilt,Utrecht,VBO,5.177647,52.154504
Spechtlaan,12,,,3738GB,Maartensdijk,De Bilt,Utrecht,VBO,5.177558,52.154523
Spechtlaan,14,,GB1,3738GB,Maartensdijk,De Bilt,Utrecht,VBO,5.178074,52.154575
Spechtlaan,14,,GB10,3738GB,Maartensdijk,De Bilt,Utrecht,VBO,5.177793,52.154726
Spechtlaan,14,,GB11,3738GB,Maartensdijk,De Bilt,Utrecht,VBO,5.177754,52.154728
Spechtlaan,14,,GB12,3738GB,Maartensdijk,De Bilt,Utrecht,VBO,5.177721,52.154745
Spechtlaan,14,,GB13,3738GB,Maartensdijk,De Bilt,Utrecht,VBO,5.177687,52.154756
Spechtlaan,14,,GB14,3738GB,Maartensdijk,De Bilt,Utrecht,VBO,5.177635,52.154762
Spechtlaan,14,,GB15,3738GB,Maartensdijk,De Bilt,Utrecht,VBO,5.177597,52.154758
Spechtlaan,14,,GB16,3738GB,Maartensdijk,De Bilt,Utrecht,VBO,5.177541,52.154782
Spechtlaan,14,,GB17,3738GB,Maartensdijk,De Bilt,Utrecht,VBO,5.177534,52.154790
Spechtlaan,14,,GB2,3738GB,Maartensdijk,De Bilt,Utrecht,VBO,5.178090,52.154600
Spechtlaan,14,,GB3,3738GB,Maartensdijk,De Bilt,Utrecht,VBO,5.178084,52.154668
Spechtlaan,14,,GB4,3738GB,Maartensdijk,De Bilt,Utrecht,VBO,5.178035,52.154678
Spechtlaan,14,,GB5,3738GB,Maartensdijk,De Bilt,Utrecht,VBO,5.177995,52.154680
Spechtlaan,14,,GB6,3738GB,Maartensdijk,De Bilt,Utrecht,VBO,5.177957,52.154685
Spechtlaan,14,,GB7,3738GB,Maartensdijk,De Bilt,Utrecht,VBO,5.177911,52.154690
Spechtlaan,14,,GB8,3738GB,Maartensdijk,De Bilt,Utrecht,VBO,5.177880,52.154699
Spechtlaan,14,,GB9,3738GB,Maartensdijk,De Bilt,Utrecht,VBO,5.177834,52.154713
Spechtlaan,14,,,3738GB,Maartensdijk,De Bilt,Utrecht,VBO,5.177477,52.154538
Spechtlaan,16,,,3738GB,Maartensdijk,De Bilt,Utrecht,VBO,5.177265,52.154610
Spechtlaan,18,,,3738GB,Maartensdijk,De Bilt,Utrecht,VBO,5.177173,52.154629
Spechtlaan,20,,,3738GB,Maartensdijk,De Bilt,Utrecht,VBO,5.177089,52.154649
Spechtlaan,22,,,3738GB,Maartensdijk,De Bilt,Utrecht,VBO,5.176999,52.154673
Spechtlaan,24,,,3738GB,Maartensdijk,De Bilt,Utrecht,VBO,5.176853,52.154664
Spechtlaan,26,,,3738GB,Maartensdijk,De Bilt,Utrecht,VBO,5.176770,52.154682
Spechtlaan,28,,,3738GB,Maartensdijk,De Bilt,Utrecht,VBO,5.176693,52.154699
Spechtlaan,30,,,3738GB,Maartensdijk,De Bilt,Utrecht,VBO,5.176606,52.154716
Patrijslaan,1,,,3738GC,Maartensdijk,De Bilt,Utrecht,VBO,5.177790,52.153536
Patrijslaan,3,,,3738GC,Maartensdijk,De Bilt,Utrecht,VBO,5.177706,52.153554
Patrijslaan,5,,,3738GC,Maartensdijk,De Bilt,Utrecht,VBO,5.177619,52.153573
Patrijslaan,7,,,3738GC,Maartensdijk,De Bilt,Utrecht,VBO,5.177537,52.153591
Patrijslaan,9,,,3738GC,Maartensdijk,De Bilt,Utrecht,VBO,5.177460,52.153607
Patrijslaan,11,,,3738GC,Maartensdijk,De Bilt,Utrecht,VBO,5.177365,52.153628
Patrijslaan,13,,,3738GC,Maartensdijk,De Bilt,Utrecht,VBO,5.177229,52.153659
Patrijslaan,15,,,3738GC,Maartensdijk,De Bilt,Utrecht,VBO,5.177147,52.153675
Patrijslaan,17,,,3738GC,Maartensdijk,De Bilt,Utrecht,VBO,5.177060,52.153694
Patrijslaan,19,,,3738GC,Maartensdijk,De Bilt,Utrecht,VBO,5.176980,52.153711
Patrijslaan,21,,,3738GC,Maartensdijk,De Bilt,Utrecht,VBO,5.176896,52.153729
Patrijslaan,23,,,3738GC,Maartensdijk,De Bilt,Utrecht,VBO,5.176815,52.153747
Patrijslaan,25,,,3738GC,Maartensdijk,De Bilt,Utrecht,VBO,5.176680,52.153776
Patrijslaan,27,,,3738GC,Maartensdijk,De Bilt,Utrecht,VBO,5.176591,52.153796
Patrijslaan,29,,,3738GC,Maartensdijk,De Bilt,Utrecht,VBO,5.176511,52.153813
Patrijslaan,31,,,3738GC,Maartensdijk,De Bilt,Utrecht,VBO,5.176406,52.153836
Patrijslaan,2,,,3738GD,Maartensdijk,De Bilt,Utrecht,VBO,5.177595,52.153865
Patrijslaan,4,,,3738GD,Maartensdijk,De Bilt,Utrecht,VBO,5.177494,52.153885
Patrijslaan,6,,,3738GD,Maartensdijk,De Bilt,Utrecht,VBO,5.177348,52.153912
Patrijslaan,8,,,3738GD,Maartensdijk,De Bilt,Utrecht,VBO,5.177227,52.153933
Patrijslaan,10,,,3738GD,Maartensdijk,De Bilt,Utrecht,VBO,5.177087,52.153960
Patrijslaan,12,,,3738GD,Maartensdijk,De Bilt,Utrecht,VBO,5.176975,52.153981
Patrijslaan,14,,,3738GD,Maartensdijk,De Bilt,Utrecht,VBO,5.176848,52.154017
Patrijslaan,16,A,,3738GD,Maartensdijk,De Bilt,Utrecht,VBO,5.176757,52.154146
Patrijslaan,16,,,3738GD,Maartensdijk,De Bilt,Utrecht,VBO,5.176738,52.154043
Patrijslaan,18,,,3738GD,Maartensdijk,De Bilt,Utrecht,VBO,5.176545,52.154072
Patrijslaan,20,,,3738GD,Maartensdijk,De Bilt,Utrecht,VBO,5.176457,52.154088
Patrijslaan,22,,,3738GD,Maartensdijk,De Bilt,Utrecht,VBO,5.176371,52.154107
Patrijslaan,24,,,3738GD,Maartensdijk,De Bilt,Utrecht,VBO,5.176273,52.154128
Valklaan,1,,,3738GE,Maartensdijk,De Bilt,Utrecht,VBO,5.177329,52.152964
Valklaan,3,,,3738GE,Maartensdijk,De Bilt,Utrecht,VBO,5.177017,52.152966
Valklaan,5,,,3738GE,Maartensdijk,De Bilt,Utrecht,VBO,5.176757,52.152962
Valklaan,7,,,3738GE,Maartensdijk,De Bilt,Utrecht,VBO,5.176475,52.153114
Valklaan,9,,,3738GE,Maartensdijk,De Bilt,Utrecht,VBO,5.176159,52.153135
Valklaan,11,,,3738GE,Maartensdijk,De Bilt,Utrecht,VBO,5.175907,52.153146
Valklaan,13,,,3738GE,Maartensdijk,De Bilt,Utrecht,VBO,5.175644,52.153298
Valklaan,15,,,3738GE,Maartensdijk,De Bilt,Utrecht,VBO,5.175332,52.153320
Valklaan,17,,,3738GE,Maartensdijk,De Bilt,Utrecht,VBO,5.175060,52.153327
Valklaan,19,,,3738GE,Maartensdijk,De Bilt,Utrecht,VBO,5.174788,52.153481
Valklaan,21,,,3738GE,Maartensdijk,De Bilt,Utrecht,VBO,5.174448,52.153499
Valklaan,23,,,3738GE,Maartensdijk,De Bilt,Utrecht,VBO,5.174189,52.153525
Valklaan,25,,,3738GE,Maartensdijk,De Bilt,Utrecht,VBO,5.173924,52.153683
Valklaan,27,,,3738GE,Maartensdijk,De Bilt,Utrecht,VBO,5.173457,52.153769
Valklaan,29,,,3738GE,Maartensdijk,De Bilt,Utrecht,VBO,5.173366,52.153789
Valklaan,31,,,3738GE,Maartensdijk,De Bilt,Utrecht,VBO,5.173283,52.153806
Valklaan,33,,,3738GE,Maartensdijk,De Bilt,Utrecht,VBO,5.173191,52.153825
Valklaan,2,,,3738GG,Maartensdijk,De Bilt,Utrecht,VBO,5.177275,52.153237
Valklaan,4,,,3738GG,Maartensdijk,De Bilt,Utrecht,VBO,5.177199,52.153253
Valklaan,6,,,3738GG,Maartensdijk,De Bilt,Utrecht,VBO,5.177115,52.153271
Valklaan,8,,,3738GG,Maartensdijk,De Bilt,Utrecht,VBO,5.177027,52.153290
Valklaan,10,,,3738GG,Maartensdijk,De Bilt,Utrecht,VBO,5.176945,52.153308
Valklaan,12,,,3738GG,Maartensdijk,De Bilt,Utrecht,VBO,5.176859,52.153326
Valklaan,14,,,3738GG,Maartensdijk,De Bilt,Utrecht,VBO,5.176718,52.153356
Valklaan,16,,,3738GG,Maartensdijk,De Bilt,Utrecht,VBO,5.176633,52.153375
Valklaan,18,,,3738GG,Maartensdijk,De Bilt,Utrecht,VBO,5.176553,52.153392
Valklaan,20,,,3738GG,Maartensdijk,De Bilt,Utrecht,VBO,5.176470,52.153410
Valklaan,22,,,3738GG,Maartensdijk,De Bilt,Utrecht,VBO,5.176394,52.153426
Valklaan,24,,,3738GG,Maartensdijk,De Bilt,Utrecht,VBO,5.176306,52.153445
Valklaan,26,,,3738GG,Maartensdijk,De Bilt,Utrecht,VBO,5.176169,52.153475
Valklaan,28,,,3738GG,Maartensdijk,De Bilt,Utrecht,VBO,5.176079,52.153494
Valklaan,30,,,3738GG,Maartensdijk,De Bilt,Utrecht,VBO,5.175998,52.153511
Valklaan,32,,,3738GG,Maartensdijk,De Bilt,Utrecht,VBO,5.175907,52.153531
Valklaan,34,,,3738GH,Maartensdijk,De Bilt,Utrecht,VBO,5.175111,52.153701
Valklaan,36,,,3738GH,Maartensdijk,De Bilt,Utrecht,VBO,5.175029,52.153713
Valklaan,38,,,3738GH,Maartensdijk,De Bilt,Utrecht,VBO,5.174944,52.153733
Valklaan,40,,,3738GH,Maartensdijk,De Bilt,Utrecht,VBO,5.174856,52.153753
Valklaan,42,,,3738GH,Maartensdijk,De Bilt,Utrecht,VBO,5.174535,52.153832
Valklaan,44,,,3738GH,Maartensdijk,De Bilt,Utrecht,VBO,5.174430,52.153855
Valklaan,46,,,3738GH,Maartensdijk,De Bilt,Utrecht,VBO,5.174297,52.153882
Valklaan,48,,,3738GH,Maartensdijk,De Bilt,Utrecht,VBO,5.174184,52.153907
Valklaan,50,,,3738GH,Maartensdijk,De Bilt,Utrecht,VBO,5.174055,52.153936
Valklaan,52,,,3738GH,Maartensdijk,De Bilt,Utrecht,VBO,5.173947,52.153963
Valklaan,54,,,3738GH,Maartensdijk,De Bilt,Utrecht,VBO,5.173610,52.154027
Valklaan,56,,,3738GH,Maartensdijk,De Bilt,Utrecht,VBO,5.173513,52.154043
Valklaan,58,,,3738GH,Maartensdijk,De Bilt,Utrecht,VBO,5.173430,52.154060
Valklaan,60,,,3738GH,Maartensdijk,De Bilt,Utrecht,VBO,5.173334,52.154081
Maertensplein,1,,,3738GJ,Maartensdijk,De Bilt,Utrecht,VBO,5.176790,52.156359
Maertensplein,2,,,3738GJ,Maartensdijk,De Bilt,Utrecht,VBO,5.176380,52.156546
Maertensplein,3,,,3738GJ,Maartensdijk,De Bilt,Utrecht,VBO,5.176790,52.156359
Maertensplein,4,,,3738GJ,Maartensdijk,De Bilt,Utrecht,VBO,5.176380,52.156546
Maertensplein,5,,,3738GJ,Maartensdijk,De Bilt,Utrecht,VBO,5.176790,52.156359
Maertensplein,6,,,3738GJ,Maartensdijk,De Bilt,Utrecht,VBO,5.176380,52.156546
Maertensplein,7,,,3738GJ,Maartensdijk,De Bilt,Utrecht,VBO,5.176790,52.156359
Maertensplein,8,,,3738GJ,Maartensdijk,De Bilt,Utrecht,VBO,5.176380,52.156546
Maertensplein,9,,,3738GJ,Maartensdijk,De Bilt,Utrecht,VBO,5.176790,52.156359
Maertensplein,10,,,3738GJ,Maartensdijk,De Bilt,Utrecht,VBO,5.176380,52.156546
Maertensplein,11,,,3738GJ,Maartensdijk,De Bilt,Utrecht,VBO,5.176790,52.156359
Maertensplein,12,,,3738GJ,Maartensdijk,De Bilt,Utrecht,VBO,5.176380,52.156546
Maertensplein,13,,,3738GJ,Maartensdijk,De Bilt,Utrecht,VBO,5.176790,52.156359
Maertensplein,14,,,3738GJ,Maartensdijk,De Bilt,Utrecht,VBO,5.176380,52.156546
Maertensplein,15,,,3738GJ,Maartensdijk,De Bilt,Utrecht,VBO,5.176790,52.156359
Maertensplein,17,,,3738GJ,Maartensdijk,De Bilt,Utrecht,VBO,5.176790,52.156359
Maertensplein,19,,,3738GJ,Maartensdijk,De Bilt,Utrecht,VBO,5.176790,52.156359
Maertensplein,16,,,3738GK,Maartensdijk,De Bilt,Utrecht,VBO,5.176192,52.155944
Maertensplein,18,,,3738GK,Maartensdijk,De Bilt,Utrecht,VBO,5.176192,52.155944
Maertensplein,20,,,3738GK,Maartensdijk,De Bilt,Utrecht,VBO,5.176192,52.155944
Maertensplein,22,,,3738GK,Maartensdijk,De Bilt,Utrecht,VBO,5.176192,52.155944
Maertensplein,24,,,3738GK,Maartensdijk,De Bilt,Utrecht,VBO,5.176192,52.155944
Maertensplein,26,A,,3738GK,Maartensdijk,De Bilt,Utrecht,VBO,5.175891,52.155957
Maertensplein,26,,,3738GK,Maartensdijk,De Bilt,Utrecht,VBO,5.176192,52.155944
Maertensplein,28,,,3738GK,Maartensdijk,De Bilt,Utrecht,VBO,5.176192,52.155944
Maertensplein,30,,,3738GK,Maartensdijk,De Bilt,Utrecht,VBO,5.176192,52.155944
Maertensplein,32,,,3738GK,Maartensdijk,De Bilt,Utrecht,VBO,5.176192,52.155944
Maertensplein,34,,,3738GK,Maartensdijk,De Bilt,Utrecht,VBO,5.176192,52.155944
Maertensplein,36,,,3738GK,Maartensdijk,De Bilt,Utrecht,VBO,5.176192,52.155944
Maertensplein,38,,,3738GK,Maartensdijk,De Bilt,Utrecht,VBO,5.176192,52.155944
Maertensplein,40,,,3738GK,Maartensdijk,De Bilt,Utrecht,VBO,5.176192,52.155944
Maertensplein,42,,,3738GK,Maartensdijk,De Bilt,Utrecht,VBO,5.176192,52.155944
Maertensplein,44,,,3738GL,Maartensdijk,De Bilt,Utrecht,VBO,5.176192,52.155944
Maertensplein,46,,,3738GL,Maartensdijk,De Bilt,Utrecht,VBO,5.176192,52.155944
Maertensplein,48,,,3738GL,Maartensdijk,De Bilt,Utrecht,VBO,5.176192,52.155944
Maertensplein,50,,,3738GL,Maartensdijk,De Bilt,Utrecht,VBO,5.176192,52.155944
Maertensplein,52,,,3738GL,Maartensdijk,De Bilt,Utrecht,VBO,5.176192,52.155944
Maertensplein,54,,,3738GL,Maartensdijk,De Bilt,Utrecht,VBO,5.176192,52.155944
Maertensplein,56,,,3738GL,Maartensdijk,De Bilt,Utrecht,VBO,5.176192,52.155944
Maertensplein,58,,,3738GL,Maartensdijk,De Bilt,Utrecht,VBO,5.176192,52.155944
Maertensplein,60,,,3738GL,Maartensdijk,De Bilt,Utrecht,VBO,5.176192,52.155944
Maertensplein,62,,,3738GL,Maartensdijk,De Bilt,Utrecht,VBO,5.176192,52.155944
Maertensplein,64,,,3738GL,Maartensdijk,De Bilt,Utrecht,VBO,5.176192,52.155944
Maertensplein,66,,,3738GL,Maartensdijk,De Bilt,Utrecht,VBO,5.176192,52.155944
Maertensplein,68,,,3738GL,Maartensdijk,De Bilt,Utrecht,VBO,5.176192,52.155944
Maertensplein,70,,,3738GL,Maartensdijk,De Bilt,Utrecht,VBO,5.176192,52.155944
Maertensplein,21,A,,3738GM,Maartensdijk,De Bilt,Utrecht,VBO,5.176752,52.155656
Maertensplein,21,,TR,3738GM,Maartensdijk,De Bilt,Utrecht,VBO,5.176887,52.155748
Maertensplein,21,,,3738GM,Maartensdijk,De Bilt,Utrecht,VBO,5.176752,52.155656
Maertensplein,23,,,3738GM,Maartensdijk,De Bilt,Utrecht,VBO,5.176752,52.155656
Maertensplein,25,,,3738GM,Maartensdijk,De Bilt,Utrecht,VBO,5.176752,52.155656
Maertensplein,27,,,3738GM,Maartensdijk,De Bilt,Utrecht,VBO,5.176752,52.155656
Maertensplein,29,,,3738GM,Maartensdijk,De Bilt,Utrecht,VBO,5.176752,52.155656
Maertensplein,31,,,3738GM,Maartensdijk,De Bilt,Utrecht,VBO,5.176752,52.155656
Maertensplein,33,,,3738GM,Maartensdijk,De Bilt,Utrecht,VBO,5.176752,52.155656
Maertensplein,35,,,3738GM,Maartensdijk,De Bilt,Utrecht,VBO,5.176752,52.155656
Maertensplein,37,,,3738GM,Maartensdijk,De Bilt,Utrecht,VBO,5.176752,52.155656
Maertensplein,39,,,3738GM,Maartensdijk,De Bilt,Utrecht,VBO,5.176752,52.155656
Maertensplein,41,,,3738GM,Maartensdijk,De Bilt,Utrecht,VBO,5.176752,52.155656
Maertensplein,43,,,3738GM,Maartensdijk,De Bilt,Utrecht,VBO,5.176752,52.155656
Maertensplein,45,,,3738GM,Maartensdijk,De Bilt,Utrecht,VBO,5.176752,52.155656
Maertensplein,47,,,3738GM,Maartensdijk,De Bilt,Utrecht,VBO,5.176752,52.155656
Maertensplein,49,,,3738GM,Maartensdijk,De Bilt,Utrecht,VBO,5.176752,52.155656
Maertensplein,51,,,3738GM,Maartensdijk,De Bilt,Utrecht,VBO,5.176752,52.155656
Maertensplein,53,,,3738GM,Maartensdijk,De Bilt,Utrecht,VBO,5.176752,52.155656
Maertensplein,55,,,3738GM,Maartensdijk,De Bilt,Utrecht,VBO,5.176752,52.155656
Maertensplein,57,,,3738GM,Maartensdijk,De Bilt,Utrecht,VBO,5.176752,52.155656
Maertensplein,59,,,3738GM,Maartensdijk,De Bilt,Utrecht,VBO,5.176752,52.155656
Maertensplein,61,,,3738GM,Maartensdijk,De Bilt,Utrecht,VBO,5.176752,52.155656
Maertensplein,63,,,3738GM,Maartensdijk,De Bilt,Utrecht,VBO,5.176752,52.155656
Maertensplein,65,,,3738GN,Maartensdijk,De Bilt,Utrecht,VBO,5.176752,52.155656
Maertensplein,67,,,3738GN,Maartensdijk,De Bilt,Utrecht,VBO,5.176752,52.155656
Maertensplein,69,,,3738GN,Maartensdijk,De Bilt,Utrecht,VBO,5.176752,52.155656
Maertensplein,71,,,3738GN,Maartensdijk,De Bilt,Utrecht,VBO,5.176752,52.155656
Maertensplein,73,,,3738GN,Maartensdijk,De Bilt,Utrecht,VBO,5.176752,52.155656
Maertensplein,75,,,3738GN,Maartensdijk,De Bilt,Utrecht,VBO,5.176752,52.155656
Maertensplein,77,,,3738GN,Maartensdijk,De Bilt,Utrecht,VBO,5.176752,52.155656
Maertensplein,79,,,3738GN,Maartensdijk,De Bilt,Utrecht,VBO,5.176752,52.155656
Maertensplein,81,,,3738GN,Maartensdijk,De Bilt,Utrecht,VBO,5.176752,52.155656
Maertensplein,83,,,3738GN,Maartensdijk,De Bilt,Utrecht,VBO,5.176752,52.155656
Maertensplein,85,,,3738GN,Maartensdijk,De Bilt,Utrecht,VBO,5.176752,52.155656
Maertensplein,87,,,3738GN,Maartensdijk,De Bilt,Utrecht,VBO,5.176752,52.155656
Maertensplein,89,,,3738GN,Maartensdijk,De Bilt,Utrecht,VBO,5.176752,52.155656
Maertensplein,91,,,3738GN,Maartensdijk,De Bilt,Utrecht,VBO,5.176752,52.155656
Maertensplein,93,,,3738GN,Maartensdijk,De Bilt,Utrecht,VBO,5.176752,52.155656
Maertensplein,95,,,3738GN,Maartensdijk,De Bilt,Utrecht,VBO,5.176752,52.155656
Maertensplein,97,,,3738GN,Maartensdijk,De Bilt,Utrecht,VBO,5.176752,52.155656
Maertensplein,99,,,3738GN,Maartensdijk,De Bilt,Utrecht,VBO,5.176752,52.155656
Maertensplein,101,,,3738GN,Maartensdijk,De Bilt,Utrecht,VBO,5.176752,52.155656
Maertensplein,121,,,3738GP,Maartensdijk,De Bilt,Utrecht,VBO,5.175313,52.155471
Maertensplein,123,,,3738GP,Maartensdijk,De Bilt,Utrecht,VBO,5.175318,52.155412
Maertensplein,125,,,3738GP,Maartensdijk,De Bilt,Utrecht,VBO,5.175215,52.155589
Maertensplein,127,,,3738GP,Maartensdijk,De Bilt,Utrecht,VBO,5.175221,52.155465
Maertensplein,129,,,3738GP,Maartensdijk,De Bilt,Utrecht,VBO,5.175135,52.155655
Maertensplein,131,,,3738GP,Maartensdijk,De Bilt,Utrecht,VBO,5.175143,52.155526
Maertensplein,133,,,3738GP,Maartensdijk,De Bilt,Utrecht,VBO,5.175146,52.155413
Maertensplein,135,,,3738GP,Maartensdijk,De Bilt,Utrecht,VBO,5.175066,52.155593
Maertensplein,137,,,3738GP,Maartensdijk,De Bilt,Utrecht,VBO,5.175066,52.155478
Maertensplein,139,,,3738GP,Maartensdijk,De Bilt,Utrecht,VBO,5.175074,52.155390
Maertensplein,141,,,3738GP,Maartensdijk,De Bilt,Utrecht,VBO,5.174994,52.155593
Maertensplein,143,,,3738GP,Maartensdijk,De Bilt,Utrecht,VBO,5.175001,52.155489
Maertensplein,145,,,3738GP,Maartensdijk,De Bilt,Utrecht,VBO,5.174921,52.155648
Maertensplein,147,,,3738GP,Maartensdijk,De Bilt,Utrecht,VBO,5.174927,52.155463
Maertensplein,149,,,3738GP,Maartensdijk,De Bilt,Utrecht,VBO,5.174935,52.155408
Maertensplein,151,,,3738GP,Maartensdijk,De Bilt,Utrecht,VBO,5.174844,52.155591
Maertensplein,153,,,3738GP,Maartensdijk,De Bilt,Utrecht,VBO,5.174855,52.155469
Maertensplein,155,,,3738GP,Maartensdijk,De Bilt,Utrecht,VBO,5.174757,52.155651
Maertensplein,157,,,3738GP,Maartensdijk,De Bilt,Utrecht,VBO,5.174770,52.155530
Maertensplein,159,,,3738GP,Maartensdijk,De Bilt,Utrecht,VBO,5.174773,52.155411
Maertensplein,161,,,3738GP,Maartensdijk,De Bilt,Utrecht,VBO,5.174675,52.155594
Maertensplein,163,,,3738GP,Maartensdijk,De Bilt,Utrecht,VBO,5.174678,52.155536
Maertensplein,165,,,3738GP,Maartensdijk,De Bilt,Utrecht,VBO,5.174681,52.155467
Maertensplein,167,,,3738GP,Maartensdijk,De Bilt,Utrecht,VBO,5.174681,52.155410
Maertensplein,169,,,3738GP,Maartensdijk,De Bilt,Utrecht,VBO,5.174595,52.155592
Maertensplein,171,,,3738GP,Maartensdijk,De Bilt,Utrecht,VBO,5.174603,52.155534
Maertensplein,173,,,3738GP,Maartensdijk,De Bilt,Utrecht,VBO,5.174601,52.155475
Maertensplein,175,,,3738GP,Maartensdijk,De Bilt,Utrecht,VBO,5.174521,52.155559
Maertensplein,177,,,3738GP,Maartensdijk,De Bilt,Utrecht,VBO,5.174519,52.155504
Maertensplein,179,,,3738GP,Maartensdijk,De Bilt,Utrecht,VBO,5.174441,52.155534
Maertensplein,98,,,3738GR,Maartensdijk,De Bilt,Utrecht,VBO,5.175496,52.155632
Maertensplein,100,,,3738GR,Maartensdijk,De Bilt,Utrecht,VBO,5.175489,52.155576
Maertensplein,102,,,3738GR,Maartensdijk,De Bilt,Utrecht,VBO,5.175484,52.155514
Maertensplein,104,,,3738GR,Maartensdijk,De Bilt,Utrecht,VBO,5.175484,52.155456
Maertensplein,106,,,3738GR,Maartensdijk,De Bilt,Utrecht,VBO,5.175502,52.155401
Maertensplein,108,,,3738GR,Maartensdijk,De Bilt,Utrecht,VBO,5.175409,52.155640
Maertensplein,110,,,3738GR,Maartensdijk,De Bilt,Utrecht,VBO,5.175394,52.155582
Maertensplein,112,,,3738GR,Maartensdijk,De Bilt,Utrecht,VBO,5.175395,52.155520
Maertensplein,114,,,3738GR,Maartensdijk,De Bilt,Utrecht,VBO,5.175397,52.155468
Maertensplein,116,,,3738GR,Maartensdijk,De Bilt,Utrecht,VBO,5.175408,52.155407
Maertensplein,118,,,3738GR,Maartensdijk,De Bilt,Utrecht,VBO,5.175312,52.155647
Maertensplein,120,,,3738GR,Maartensdijk,De Bilt,Utrecht,VBO,5.175312,52.155581
Maertensplein,122,,,3738GR,Maartensdijk,De Bilt,Utrecht,VBO,5.175312,52.155520
Maertensplein,124,,,3738GR,Maartensdijk,De Bilt,Utrecht,VBO,5.175212,52.155653
Maertensplein,126,,,3738GR,Maartensdijk,De Bilt,Utrecht,VBO,5.175218,52.155526
Maertensplein,128,,,3738GR,Maartensdijk,De Bilt,Utrecht,VBO,5.175223,52.155411
Maertensplein,130,,,3738GR,Maartensdijk,De Bilt,Utrecht,VBO,5.175140,52.155590
Maertensplein,132,,,3738GR,Maartensdijk,De Bilt,Utrecht,VBO,5.175143,52.155466
Maertensplein,134,,,3738GR,Maartensdijk,De Bilt,Utrecht,VBO,5.175060,52.155656
Maertensplein,136,,,3738GR,Maartensdijk,De Bilt,Utrecht,VBO,5.175071,52.155534
Maertensplein,138,,,3738GR,Maartensdijk,De Bilt,Utrecht,VBO,5.175071,52.155434
Maertensplein,140,,,3738GR,Maartensdijk,De Bilt,Utrecht,VBO,5.174988,52.155648
Maertensplein,142,,,3738GR,Maartensdijk,De Bilt,Utrecht,VBO,5.174994,52.155546
Maertensplein,144,,,3738GR,Maartensdijk,De Bilt,Utrecht,VBO,5.175002,52.155431
Maertensplein,146,,,3738GR,Maartensdijk,De Bilt,Utrecht,VBO,5.174924,52.155581
Maertensplein,148,,,3738GR,Maartensdijk,De Bilt,Utrecht,VBO,5.174927,52.155517
Maertensplein,150,,,3738GR,Maartensdijk,De Bilt,Utrecht,VBO,5.174841,52.155650
Maertensplein,152,,,3738GR,Maartensdijk,De Bilt,Utrecht,VBO,5.174854,52.155527
Maertensplein,154,,,3738GR,Maartensdijk,De Bilt,Utrecht,VBO,5.174848,52.155411
Maertensplein,156,,,3738GR,Maartensdijk,De Bilt,Utrecht,VBO,5.174762,52.155596
Maertensplein,158,,,3738GR,Maartensdijk,De Bilt,Utrecht,VBO,5.174775,52.155472
Maertensplein,160,,,3738GR,Maartensdijk,De Bilt,Utrecht,VBO,5.174675,52.155652
Tolakkerweg,153,,,3738JL,Maartensdijk,De Bilt,Utrecht,VBO,5.168181,52.162573
Tolakkerweg,157,A,,3738JL,Maartensdijk,De Bilt,Utrecht,VBO,5.168127,52.162219
Tolakkerweg,157,B,,3738JL,Maartensdijk,De Bilt,Utrecht,VBO,5.167913,52.162319
Tolakkerweg,157,C,,3738JL,Maartensdijk,De Bilt,Utrecht,VBO,5.167831,52.162183
Tolakkerweg,157,,,3738JL,Maartensdijk,De Bilt,Utrecht,VBO,5.167897,52.162251
Tolakkerweg,159,,,3738JL,Maartensdijk,De Bilt,Utrecht,VBO,5.167888,52.162167
Tolakkerweg,163,A,,3738JL,Maartensdijk,De Bilt,Utrecht,VBO,5.167530,52.161833
Tolakkerweg,163,,,3738JL,Maartensdijk,De Bilt,Utrecht,VBO,5.167579,52.161928
Tolakkerweg,165,,,3738JL,Maartensdijk,De Bilt,Utrecht,VBO,5.167434,52.161701
Tolakkerweg,167,,,3738JL,Maartensdijk,De Bilt,Utrecht,VBO,5.167439,52.161628
Tolakkerweg,169,,,3738JL,Maartensdijk,De Bilt,Utrecht,VBO,5.167353,52.161481
Tolakkerweg,171,,,3738JL,Maartensdijk,De Bilt,Utrecht,VBO,5.167308,52.161427
Tolakkerweg,173,,,3738JL,Maartensdijk,De Bilt,Utrecht,VBO,5.167247,52.161288
Tolakkerweg,175,,,3738JL,Maartensdijk,De Bilt,Utrecht,VBO,5.167213,52.161222
Tolakkerweg,177,,,3738JL,Maartensdijk,De Bilt,Utrecht,VBO,5.167125,52.161092
Tolakkerweg,179,,,3738JL,Maartensdijk,De Bilt,Utrecht,VBO,5.167093,52.161024
Tolakkerweg,181,,,3738JL,Maartensdijk,De Bilt,Utrecht,VBO,5.166967,52.160908
Tolakkerweg,183,,,3738JL,Maartensdijk,De Bilt,Utrecht,VBO,5.166922,52.160842
Tolakkerweg,185,,,3738JL,Maartensdijk,De Bilt,Utrecht,VBO,5.166851,52.160699
Tolakkerweg,187,,,3738JL,Maartensdijk,De Bilt,Utrecht,VBO,5.166782,52.160662
Tolakkerweg,189,,,3738JL,Maartensdijk,De Bilt,Utrecht,VBO,5.166671,52.160513
Tolakkerweg,191,,,3738JM,Maartensdijk,De Bilt,Utrecht,VBO,5.166651,52.160448
Tolakkerweg,193,,,3738JM,Maartensdijk,De Bilt,Utrecht,VBO,5.166558,52.160239
Tolakkerweg,195,,,3738JM,Maartensdijk,De Bilt,Utrecht,VBO,5.166409,52.159957
Tolakkerweg,197,,,3738JM,Maartensdijk,De Bilt,Utrecht,VBO,5.166201,52.159797
Tolakkerweg,199,,,3738JM,Maartensdijk,De Bilt,Utrecht,VBO,5.166169,52.159741
Tolakkerweg,201,,,3738JM,Maartensdijk,De Bilt,Utrecht,VBO,5.165943,52.159502
Tolakkerweg,203,,,3738JM,Maartensdijk,De Bilt,Utrecht,VBO,5.165883,52.159384
Tolakkerweg,205,,,3738JM,Maartensdijk,De Bilt,Utrecht,VBO,5.165847,52.159333
Tolakkerweg,207,,,3738JM,Maartensdijk,De Bilt,Utrecht,VBO,5.165805,52.159276
Tolakkerweg,209,A,,3738JM,Maartensdijk,De Bilt,Utrecht,VBO,5.166148,52.158963
Tolakkerweg,209,B,,3738JM,Maartensdijk,De Bilt,Utrecht,VBO,5.166210,52.159027
Tolakkerweg,209,C,,3738JM,Maartensdijk,De Bilt,Utrecht,VBO,5.166291,52.159084
Tolakkerweg,209,D,,3738JM,Maartensdijk,De Bilt,Utrecht,VBO,5.166389,52.159129
Tolakkerweg,209,E,,3738JM,Maartensdijk,De Bilt,Utrecht,VBO,5.166550,52.159182
Tolakkerweg,209,F,,3738JM,Maartensdijk,De Bilt,Utrecht,VBO,5.166631,52.159221
Tolakkerweg,209,G,,3738JM,Maartensdijk,De Bilt,Utrecht,VBO,5.166700,52.159270
Tolakkerweg,209,H,,3738JM,Maartensdijk,De Bilt,Utrecht,VBO,5.166756,52.159327
Tolakkerweg,211,A,,3738JM,Maartensdijk,De Bilt,Utrecht,VBO,5.166173,52.158954
Tolakkerweg,211,B,,3738JM,Maartensdijk,De Bilt,Utrecht,VBO,5.166237,52.159016
Tolakkerweg,211,C,,3738JM,Maartensdijk,De Bilt,Utrecht,VBO,5.166313,52.159069
Tolakkerweg,211,D,,3738JM,Maartensdijk,De Bilt,Utrecht,VBO,5.166405,52.159115
Tolakkerweg,211,E,,3738JM,Maartensdijk,De Bilt,Utrecht,VBO,5.166568,52.159168
Tolakkerweg,211,F,,3738JM,Maartensdijk,De Bilt,Utrecht,VBO,5.166652,52.159211
Tolakkerweg,211,G,,3738JM,Maartensdijk,De Bilt,Utrecht,VBO,5.166725,52.159260
Tolakkerweg,211,H,,3738JM,Maartensdijk,De Bilt,Utrecht,VBO,5.166785,52.159319
Tolakkerweg,213,A,,3738JM,Maartensdijk,De Bilt,Utrecht,VBO,5.166196,52.158948
Tolakkerweg,213,B,,3738JM,Maartensdijk,De Bilt,Utrecht,VBO,5.166260,52.159006
Tolakkerweg,213,C,,3738JM,Maartensdijk,De Bilt,Utrecht,VBO,5.166334,52.159056
Tolakkerweg,213,D,,3738JM,Maartensdijk,De Bilt,Utrecht,VBO,5.166422,52.159099
Tolakkerweg,213,E,,3738JM,Maartensdijk,De Bilt,Utrecht,VBO,5.166584,52.159153
Tolakkerweg,213,F,,3738JM,Maartensdijk,De Bilt,Utrecht,VBO,5.166676,52.159195
Tolakkerweg,213,G,,3738JM,Maartensdijk,De Bilt,Utrecht,VBO,5.166748,52.159245
Tolakkerweg,213,H,,3738JM,Maartensdijk,De Bilt,Utrecht,VBO,5.166810,52.159310
Tolakkerweg,217,A,,3738JM,Maartensdijk,De Bilt,Utrecht,VBO,5.165724,52.158886
Tolakkerweg,217,,,3738JM,Maartensdijk,De Bilt,Utrecht,VBO,5.165766,52.158963
Tolakkerweg,219,A,,3738JM,Maartensdijk,De Bilt,Utrecht,VBO,5.165731,52.158762
Tolakkerweg,219,,,3738JM,Maartensdijk,De Bilt,Utrecht,VBO,5.165448,52.158843
Tolakkerweg,186,,,3738JV,Maartensdijk,De Bilt,Utrecht,VBO,5.168644,52.164959
Tolakkerweg,188,,,3738JV,Maartensdijk,De Bilt,Utrecht,VBO,5.168605,52.164900
Tolakkerweg,190,,,3738JV,Maartensdijk,De Bilt,Utrecht,VBO,5.168486,52.164631
Tolakkerweg,194,,,3738JV,Maartensdijk,De Bilt,Utrecht,VBO,5.168334,52.164403
Tolakkerweg,214,,,3738JV,Maartensdijk,De Bilt,Utrecht,VBO,5.167650,52.163206
Tolakkerweg,216,,,3738JV,Maartensdijk,De Bilt,Utrecht,VBO,5.167619,52.163157
Tolakkerweg,218,,,3738JV,Maartensdijk,De Bilt,Utrecht,VBO,5.167146,52.163079
Tolakkerweg,222,,,3738JV,Maartensdijk,De Bilt,Utrecht,VBO,5.167316,52.162886
Tolakkerweg,228,,,3738JV,Maartensdijk,De Bilt,Utrecht,VBO,5.166914,52.162366
Tolakkerweg,230,,,3738JV,Maartensdijk,De Bilt,Utrecht,VBO,5.167007,52.162344
Tolakkerweg,248,,,3738JV,Maartensdijk,De Bilt,Utrecht,VBO,5.165684,52.160141
Tolakkerweg,250,,,3738JV,Maartensdijk,De Bilt,Utrecht,VBO,5.165524,52.159908
Tolakkerweg,252,,,3738JV,Maartensdijk,De Bilt,Utrecht,VBO,5.165474,52.159820
Tolakkerweg,254,A,,3738JV,Maartensdijk,De Bilt,Utrecht,VBO,5.164635,52.159076
Tolakkerweg,254,,,3738JV,Maartensdijk,De Bilt,Utrecht,VBO,5.164556,52.158941
Industrieweg,1,,,3738JW,Maartensdijk,De Bilt,Utrecht,VBO,5.166382,52.159656
Industrieweg,3,,,3738JW,Maartensdijk,De Bilt,Utrecht,VBO,5.166488,52.159629
Industrieweg,5,,,3738JW,Maartensdijk,De Bilt,Utrecht,VBO,5.166744,52.159606
Industrieweg,7,,,3738JW,Maartensdijk,De Bilt,Utrecht,VBO,5.166966,52.159784
Industrieweg,9,,,3738JW,Maartensdijk,De Bilt,Utrecht,VBO,5.167147,52.160141
Industrieweg,11,A,,3738JW,Maartensdijk,De Bilt,Utrecht,VBO,5.167329,52.160487
Industrieweg,11,B,,3738JW,Maartensdijk,De Bilt,Utrecht,VBO,5.167421,52.160645
Industrieweg,11,C,1,3738JW,Maartensdijk,De Bilt,Utrecht,VBO,5.167637,52.160762
Industrieweg,11,C,2,3738JW,Maartensdijk,De Bilt,Utrecht,VBO,5.167679,52.160824
Industrieweg,11,C,,3738JW,Maartensdijk,De Bilt,Utrecht,VBO,5.167507,52.160803
Industrieweg,11,D,,3738JW,Maartensdijk,De Bilt,Utrecht,VBO,5.167598,52.160926
Industrieweg,11,E,,3738JW,Maartensdijk,De Bilt,Utrecht,VBO,5.167684,52.161076
Industrieweg,11,,,3738JW,Maartensdijk,De Bilt,Utrecht,VBO,5.167213,52.160311
Industrieweg,13,A,,3738JW,Maartensdijk,De Bilt,Utrecht,VBO,5.167792,52.161162
Industrieweg,13,B,,3738JW,Maartensdijk,De Bilt,Utrecht,VBO,5.167824,52.161210
Industrieweg,13,C,,3738JW,Maartensdijk,De Bilt,Utrecht,VBO,5.167851,52.161268
Industrieweg,13,D,,3738JW,Maartensdijk,De Bilt,Utrecht,VBO,5.167889,52.161331
Industrieweg,13,E,,3738JW,Maartensdijk,De Bilt,Utrecht,VBO,5.167792,52.161492
Industrieweg,13,,,3738JW,Maartensdijk,De Bilt,Utrecht,VBO,5.168001,52.161420
Industrieweg,15,,,3738JW,Maartensdijk,De Bilt,Utrecht,VBO,5.168226,52.161773
Industrieweg,17,,,3738JW,Maartensdijk,De Bilt,Utrecht,VBO,5.168104,52.161746
Industrieweg,2,,,3738JX,Maartensdijk,De Bilt,Utrecht,VBO,5.166192,52.159478
Industrieweg,4,,,3738JX,Maartensdijk,De Bilt,Utrecht,VBO,5.166293,52.159459
Industrieweg,6,,,3738JX,Maartensdijk,De Bilt,Utrecht,VBO,5.166398,52.159432
Industrieweg,8,,,3738JX,Maartensdijk,De Bilt,Utrecht,VBO,5.166500,52.159407
Industrieweg,10,A,,3738JX,Maartensdijk,De Bilt,Utrecht,VBO,5.165886,52.159258
Industrieweg,10,B,,3738JX,Maartensdijk,De Bilt,Utrecht,VBO,5.165925,52.159315
Industrieweg,10,C,,3738JX,Maartensdijk,De Bilt,Utrecht,VBO,5.165954,52.159368
Industrieweg,10,D,,3738JX,Maartensdijk,De Bilt,Utrecht,VBO,5.166029,52.159486
Industrieweg,10,E,,3738JX,Maartensdijk,De Bilt,Utrecht,VBO,5.166166,52.159445
Industrieweg,10,F,,3738JX,Maartensdijk,De Bilt,Utrecht,VBO,5.166268,52.159423
Industrieweg,10,G,,3738JX,Maartensdijk,De Bilt,Utrecht,VBO,5.166366,52.159397
Industrieweg,10,H,,3738JX,Maartensdijk,De Bilt,Utrecht,VBO,5.166476,52.159375
Industrieweg,12,A,,3738JX,Maartensdijk,De Bilt,Utrecht,VBO,5.166001,52.159443
Industrieweg,12,B,,3738JX,Maartensdijk,De Bilt,Utrecht,VBO,5.166149,52.159421
Industrieweg,12,C,,3738JX,Maartensdijk,De Bilt,Utrecht,VBO,5.166247,52.159399
Industrieweg,12,D,,3738JX,Maartensdijk,De Bilt,Utrecht,VBO,5.166349,52.159373
Industrieweg,12,E,,3738JX,Maartensdijk,De Bilt,Utrecht,VBO,5.166452,52.159348
Industrieweg,22,A,U1,3738JX,Maartensdijk,De Bilt,Utrecht,VBO,5.167329,52.159572
Industrieweg,22,A,U2,3738JX,Maartensdijk,De Bilt,Utrecht,VBO,5.167355,52.159623
Industrieweg,22,A,U3,3738JX,Maartensdijk,De Bilt,Utrecht,VBO,5.167428,52.159712
Industrieweg,22,B,,3738JX,Maartensdijk,De Bilt,Utrecht,VBO,5.167517,52.159873
Industrieweg,22,C,,3738JX,Maartensdijk,De Bilt,Utrecht,VBO,5.167615,52.160120
Industrieweg,22,D,,3738JX,Maartensdijk,De Bilt,Utrecht,VBO,5.167824,52.160437
Industrieweg,22,,,3738JX,Maartensdijk,De Bilt,Utrecht,VBO,5.167169,52.159292
Industrieweg,24,A,,3738JX,Maartensdijk,De Bilt,Utrecht,VBO,5.168038,52.160663
Industrieweg,24,B,,3738JX,Maartensdijk,De Bilt,Utrecht,VBO,5.168094,52.160747
Industrieweg,24,C,,3738JX,Maartensdijk,De Bilt,Utrecht,VBO,5.168118,52.160874
Industrieweg,24,,TR,3738JX,Maartensdijk,De Bilt,Utrecht,VBO,5.167983,52.160813
Industrieweg,24,,,3738JX,Maartensdijk,De Bilt,Utrecht,VBO,5.168001,52.160563
Industrieweg,26,,,3738JX,Maartensdijk,De Bilt,Utrecht,VBO,5.168287,52.161081
Industrieweg,28,,,3738JX,Maartensdijk,De Bilt,Utrecht,VBO,5.168476,52.161428
Industrieweg,32,,,3738JX,Maartensdijk,De Bilt,Utrecht,VBO,5.168508,52.161537
Industrieweg,34,,,3738JX,Maartensdijk,De Bilt,Utrecht,VBO,5.168663,52.161759
Industrieweg,36,,,3738JX,Maartensdijk,De Bilt,Utrecht,VBO,5.168743,52.161881
Industrieweg,38,A,,3738JX,Maartensdijk,De Bilt,Utrecht,VBO,5.168545,52.162051
Industrieweg,38,,,3738JX,Maartensdijk,De Bilt,Utrecht,VBO,5.168422,52.162091
Industrieweg,40,,,3738JX,Maartensdijk,De Bilt,Utrecht,VBO,5.168333,52.162084
Koningin Wilhelminaweg,1,,,3738JZ,Maartensdijk,De Bilt,Utrecht,VBO,5.165165,52.158231
Koningin Wilhelminaweg,3,,,3738JZ,Maartensdijk,De Bilt,Utrecht,VBO,5.165009,52.157877
Koningin Wilhelminaweg,5,,,3738JZ,Maartensdijk,De Bilt,Utrecht,VBO,5.165002,52.157806
Koningin Wilhelminaweg,7,,,3738JZ,Maartensdijk,De Bilt,Utrecht,VBO,5.164915,52.157693
Koningin Wilhelminaweg,9,,,3738JZ,Maartensdijk,De Bilt,Utrecht,VBO,5.164908,52.157492
Koningin Wilhelminaweg,15,,,3738JZ,Maartensdijk,De Bilt,Utrecht,VBO,5.164671,52.157222
Eikensteeg,1,,,3738LD,Maartensdijk,De Bilt,Utrecht,VBO,5.202501,52.165654
Eikensteeg,14,,,3738LD,Maartensdijk,De Bilt,Utrecht,VBO,5.203014,52.167179
Eikensteeg,16,,,3738LD,Maartensdijk,De Bilt,Utrecht,VBO,5.202921,52.167192
Eikensteeg,26,,,3738LD,Maartensdijk,De Bilt,Utrecht,VBO,5.203529,52.168483
Eikensteeg,28,,,3738LD,Maartensdijk,De Bilt,Utrecht,VBO,5.203625,52.168475
Eikensteeg,34,,,3738LD,Maartensdijk,De Bilt,Utrecht,VBO,5.205798,52.172047
Achterweteringseweg,10,,TR,3738MA,Maartensdijk,De Bilt,Utrecht,VBO,5.157234,52.149549
Achterweteringseweg,10,,,3738MA,Maartensdijk,De Bilt,Utrecht,VBO,5.158073,52.150261
Achterweteringseweg,12,,,3738MA,Maartensdijk,De Bilt,Utrecht,VBO,5.158168,52.150825
Achterweteringseweg,14,,,3738MA,Maartensdijk,De Bilt,Utrecht,VBO,5.156898,52.149844
Achterweteringseweg,18,,,3738MA,Maartensdijk,De Bilt,Utrecht,VBO,5.156215,52.149781
Achterweteringseweg,24,,,3738MA,Maartensdijk,De Bilt,Utrecht,VBO,5.155429,52.150024
Achterweteringseweg,30,,,3738MA,Maartensdijk,De Bilt,Utrecht,VBO,5.154712,52.150227
Achterweteringseweg,34,,,3738MA,Maartensdijk,De Bilt,Utrecht,VBO,5.154127,52.150562
Achterweteringseweg,36,,,3738MA,Maartensdijk,De Bilt,Utrecht,VBO,5.153664,52.150519
Achterweteringseweg,38,,,3738MA,Maartensdijk,De Bilt,Utrecht,VBO,5.153202,52.150610
Achterweteringseweg,50,,,3738MA,Maartensdijk,De Bilt,Utrecht,VBO,5.151716,52.150972
Achterweteringseweg,56,A,,3738MA,Maartensdijk,De Bilt,Utrecht,VBO,5.151404,52.151886
Achterweteringseweg,56,,,3738MA,Maartensdijk,De Bilt,Utrecht,VBO,5.151193,52.151432
Achterweteringseweg,62,,,3738MA,Maartensdijk,De Bilt,Utrecht,VBO,5.150034,52.151389
Achterweteringseweg,70,A,,3738MA,Maartensdijk,De Bilt,Utrecht,VBO,5.149077,52.151814
Achterweteringseweg,70,,,3738MA,Maartensdijk,De Bilt,Utrecht,VBO,5.148903,52.151596
Achterweteringseweg,3,,,3738MB,Maartensdijk,De Bilt,Utrecht,VBO,5.157748,52.147783
Achterweteringseweg,13,,,3738MB,Maartensdijk,De Bilt,Utrecht,VBO,5.157062,52.148941
Achterweteringseweg,15,,,3738MB,Maartensdijk,De Bilt,Utrecht,VBO,5.156592,52.148987
Achterweteringseweg,29,,,3738MB,Maartensdijk,De Bilt,Utrecht,VBO,5.154612,52.149535
Achterweteringseweg,35,A,,3738MB,Maartensdijk,De Bilt,Utrecht,VBO,5.153719,52.149247
Achterweteringseweg,35,,,3738MB,Maartensdijk,De Bilt,Utrecht,VBO,5.153670,52.149764
Achterweteringseweg,37,,,3738MB,Maartensdijk,De Bilt,Utrecht,VBO,5.153240,52.150004
Achterweteringseweg,41,,,3738MB,Maartensdijk,De Bilt,Utrecht,VBO,5.152405,52.149907
Achterweteringseweg,47,,,3738MB,Maartensdijk,De Bilt,Utrecht,VBO,5.151664,52.150275
Achterweteringseweg,49,,,3738MB,Maartensdijk,De Bilt,Utrecht,VBO,5.151477,52.150368
Achterweteringseweg,57,,,3738MB,Maartensdijk,De Bilt,Utrecht,VBO,5.150573,52.150675
Achterweteringseweg,59,,,3738MB,Maartensdijk,De Bilt,Utrecht,VBO,5.150193,52.150715
Achterweteringseweg,65,A,,3738MB,Maartensdijk,De Bilt,Utrecht,VBO,5.149146,52.150908
Achterweteringseweg,65,,,3738MB,Maartensdijk,De Bilt,Utrecht,VBO,5.149095,52.150878
Koningin Wilhelminaweg,126,A,,3738MC,Maartensdijk,De Bilt,Utrecht,VBO,5.158657,52.148971
Koningin Wilhelminaweg,126,,,3738MC,Maartensdijk,De Bilt,Utrecht,VBO,5.158604,52.148889
Koningin Wilhelminaweg,128,,,3738MC,Maartensdijk,De Bilt,Utrecht,VBO,5.158566,52.148515
Koningin Wilhelminaweg,130,,,3738MC,Maartensdijk,De Bilt,Utrecht,VBO,5.158070,52.147538
Graspieper,1,,,3738SB,Maartensdijk,De Bilt,Utrecht,VBO,5.171267,52.157357
Graspieper,3,,,3738SB,Maartensdijk,De Bilt,Utrecht,VBO,5.171363,52.157344
Graspieper,5,,,3738SB,Maartensdijk,De Bilt,Utrecht,VBO,5.171477,52.157319
Graspieper,7,,,3738SB,Maartensdijk,De Bilt,Utrecht,VBO,5.172044,52.157019
Graspieper,9,,,3738SB,Maartensdijk,De Bilt,Utrecht,VBO,5.172168,52.156995
Graspieper,11,,,3738SB,Maartensdijk,De Bilt,Utrecht,VBO,5.172247,52.156980
Graspieper,13,,,3738SB,Maartensdijk,De Bilt,Utrecht,VBO,5.172330,52.156962
Graspieper,15,,,3738SB,Maartensdijk,De Bilt,Utrecht,VBO,5.172408,52.156947
Graspieper,17,,,3738SB,Maartensdijk,De Bilt,Utrecht,VBO,5.172518,52.156958
Graspieper,19,,,3738SB,Maartensdijk,De Bilt,Utrecht,VBO,5.172592,52.156942
Graspieper,21,,,3738SB,Maartensdijk,De Bilt,Utrecht,VBO,5.172985,52.157380
Graspieper,23,,,3738SB,Maartensdijk,De Bilt,Utrecht,VBO,5.172985,52.157380
Graspieper,25,,,3738SB,Maartensdijk,De Bilt,Utrecht,VBO,5.172985,52.157380
Graspieper,27,,,3738SB,Maartensdijk,De Bilt,Utrecht,VBO,5.172985,52.157380
Graspieper,29,,,3738SB,Maartensdijk,De Bilt,Utrecht,VBO,5.172985,52.157380
Graspieper,31,,,3738SB,Maartensdijk,De Bilt,Utrecht,VBO,5.172985,52.157380
Graspieper,33,,,3738SB,Maartensdijk,De Bilt,Utrecht,VBO,5.172985,52.157380
Graspieper,35,,,3738SB,Maartensdijk,De Bilt,Utrecht,VBO,5.172985,52.157380
Graspieper,37,,,3738SB,Maartensdijk,De Bilt,Utrecht,VBO,5.172985,52.157380
Graspieper,39,,,3738SB,Maartensdijk,De Bilt,Utrecht,VBO,5.172985,52.157380
Graspieper,41,,,3738SB,Maartensdijk,De Bilt,Utrecht,VBO,5.172985,52.157380
Graspieper,43,,,3738SB,Maartensdijk,De Bilt,Utrecht,VBO,5.173002,52.157378
Graspieper,45,,,3738SB,Maartensdijk,De Bilt,Utrecht,VBO,5.173002,52.157378
Graspieper,47,,,3738SB,Maartensdijk,De Bilt,Utrecht,VBO,5.173002,52.157378
Graspieper,2,,,3738SC,Maartensdijk,De Bilt,Utrecht,VBO,5.171414,52.157626
Graspieper,4,,,3738SC,Maartensdijk,De Bilt,Utrecht,VBO,5.171524,52.157605
Graspieper,6,,,3738SC,Maartensdijk,De Bilt,Utrecht,VBO,5.171603,52.157591
Graspieper,8,,,3738SC,Maartensdijk,De Bilt,Utrecht,VBO,5.171684,52.157576
Graspieper,10,,,3738SC,Maartensdijk,De Bilt,Utrecht,VBO,5.171734,52.157521
Graspieper,12,,,3738SC,Maartensdijk,De Bilt,Utrecht,VBO,5.171825,52.157503
Graspieper,14,,,3738SC,Maartensdijk,De Bilt,Utrecht,VBO,5.171916,52.157399
Graspieper,16,,,3738SC,Maartensdijk,De Bilt,Utrecht,VBO,5.172000,52.157387
Graspieper,18,,,3738SC,Maartensdijk,De Bilt,Utrecht,VBO,5.172083,52.157373
Graspieper,20,,,3738SC,Maartensdijk,De Bilt,Utrecht,VBO,5.172173,52.157357
Graspieper,22,,,3738SC,Maartensdijk,De Bilt,Utrecht,VBO,5.172281,52.157335
Graspieper,24,,,3738SC,Maartensdijk,De Bilt,Utrecht,VBO,5.172383,52.157363
Graspieper,26,,,3738SC,Maartensdijk,De Bilt,Utrecht,VBO,5.172425,52.157427
Graspieper,28,,,3738SC,Maartensdijk,De Bilt,Utrecht,VBO,5.172453,52.157481
Graspieper,30,,TR,3738SC,Maartensdijk,De Bilt,Utrecht,VBO,5.173114,52.157744
Graspieper,30,,,3738SC,Maartensdijk,De Bilt,Utrecht,VBO,5.172493,52.157672
Graspieper,32,,,3738SC,Maartensdijk,De Bilt,Utrecht,VBO,5.172493,52.157672
Graspieper,34,,,3738SC,Maartensdijk,De Bilt,Utrecht,VBO,5.172493,52.157672
Graspieper,36,,,3738SC,Maartensdijk,De Bilt,Utrecht,VBO,5.172493,52.157672
Graspieper,38,,,3738SC,Maartensdijk,De Bilt,Utrecht,VBO,5.172493,52.157672
Graspieper,40,,,3738SC,Maartensdijk,De Bilt,Utrecht,VBO,5.172493,52.157672
Graspieper,42,,,3738SC,Maartensdijk,De Bilt,Utrecht,VBO,5.172493,52.157672
Graspieper,44,,,3738SC,Maartensdijk,De Bilt,Utrecht,VBO,5.172493,52.157672
Graspieper,46,,,3738SC,Maartensdijk,De Bilt,Utrecht,VBO,5.173579,52.157700
Graspieper,48,,,3738SC,Maartensdijk,De Bilt,Utrecht,VBO,5.173614,52.157752
Graspieper,50,,,3738SC,Maartensdijk,De Bilt,Utrecht,VBO,5.173637,52.157788
Graspieper,52,,,3738SC,Maartensdijk,De Bilt,Utrecht,VBO,5.173659,52.157838
Graspieper,54,,,3738SC,Maartensdijk,De Bilt,Utrecht,VBO,5.173520,52.157724
Graspieper,56,,,3738SC,Maartensdijk,De Bilt,Utrecht,VBO,5.173563,52.157774
Graspieper,58,,,3738SC,Maartensdijk,De Bilt,Utrecht,VBO,5.173580,52.157812
Graspieper,60,,,3738SC,Maartensdijk,De Bilt,Utrecht,VBO,5.173588,52.157862
Graspieper,62,,,3738SC,Maartensdijk,De Bilt,Utrecht,VBO,5.174038,52.157757
Graspieper,64,,,3738SC,Maartensdijk,De Bilt,Utrecht,VBO,5.174005,52.157717
Graspieper,66,,,3738SC,Maartensdijk,De Bilt,Utrecht,VBO,5.173982,52.157671
Graspieper,68,,,3738SC,Maartensdijk,De Bilt,Utrecht,VBO,5.173962,52.157623
Graspieper,70,,,3738SC,Maartensdijk,De Bilt,Utrecht,VBO,5.174096,52.157732
Graspieper,72,,,3738SC,Maartensdijk,De Bilt,Utrecht,VBO,5.174049,52.157688
Graspieper,74,,,3738SC,Maartensdijk,De Bilt,Utrecht,VBO,5.174059,52.157649
Graspieper,76,,,3738SC,Maartensdijk,De Bilt,Utrecht,VBO,5.174049,52.157601
Boomklever,1,,,3738SE,Maartensdijk,De Bilt,Utrecht,VBO,5.171109,52.157058
Boomklever,3,,,3738SE,Maartensdijk,De Bilt,Utrecht,VBO,5.171190,52.157044
Boomklever,5,,,3738SE,Maartensdijk,De Bilt,Utrecht,VBO,5.171302,52.157028
Boomklever,7,,,3738SE,Maartensdijk,De Bilt,Utrecht,VBO,5.171414,52.157060
Boomklever,9,,,3738SE,Maartensdijk,De Bilt,Utrecht,VBO,5.171466,52.157128
Boomklever,11,,,3738SE,Maartensdijk,De Bilt,Utrecht,VBO,5.171488,52.157181
Boomklever,13,,,3738SE,Maartensdijk,De Bilt,Utrecht,VBO,5.171523,52.157250
Boomklever,2,,,3738SG,Maartensdijk,De Bilt,Utrecht,VBO,5.170730,52.157037
Boomklever,4,,,3738SG,Maartensdijk,De Bilt,Utrecht,VBO,5.170700,52.156988
Boomklever,6,,,3738SG,Maartensdijk,De Bilt,Utrecht,VBO,5.170669,52.156913
Boomklever,8,,,3738SG,Maartensdijk,De Bilt,Utrecht,VBO,5.170723,52.156845
Boomklever,10,,,3738SG,Maartensdijk,De Bilt,Utrecht,VBO,5.170828,52.156821
Boomklever,12,,,3738SG,Maartensdijk,De Bilt,Utrecht,VBO,5.170908,52.156805
Boomklever,14,,,3738SG,Maartensdijk,De Bilt,Utrecht,VBO,5.170992,52.156788
Boomklever,16,,,3738SG,Maartensdijk,De Bilt,Utrecht,VBO,5.171078,52.156769
Boomklever,18,,,3738SG,Maartensdijk,De Bilt,Utrecht,VBO,5.171153,52.156753
Boomklever,20,,,3738SG,Maartensdijk,De Bilt,Utrecht,VBO,5.171237,52.156736
Boomklever,22,,,3738SG,Maartensdijk,De Bilt,Utrecht,VBO,5.171349,52.156704
Boomklever,24,,,3738SG,Maartensdijk,De Bilt,Utrecht,VBO,5.171849,52.156807
Boomklever,26,,,3738SG,Maartensdijk,De Bilt,Utrecht,VBO,5.171871,52.156865
Boomklever,28,,,3738SG,Maartensdijk,De Bilt,Utrecht,VBO,5.171898,52.156916
Boomklever,30,,,3738SG,Maartensdijk,De Bilt,Utrecht,VBO,5.171939,52.156989
Distelvink,1,,,3738SH,Maartensdijk,De Bilt,Utrecht,VBO,5.170972,52.155630
Distelvink,3,,,3738SH,Maartensdijk,De Bilt,Utrecht,VBO,5.170898,52.155645
Distelvink,5,,,3738SH,Maartensdijk,De Bilt,Utrecht,VBO,5.170798,52.155645
Distelvink,7,,,3738SH,Maartensdijk,De Bilt,Utrecht,VBO,5.170717,52.155662
Distelvink,9,,,3738SH,Maartensdijk,De Bilt,Utrecht,VBO,5.170605,52.155684
Distelvink,11,,,3738SH,Maartensdijk,De Bilt,Utrecht,VBO,5.170538,52.155750
Distelvink,13,,,3738SH,Maartensdijk,De Bilt,Utrecht,VBO,5.170568,52.155825
Distelvink,15,,,3738SH,Maartensdijk,De Bilt,Utrecht,VBO,5.170602,52.155876
Distelvink,17,,,3738SH,Maartensdijk,De Bilt,Utrecht,VBO,5.170632,52.155926
Distelvink,19,,,3738SH,Maartensdijk,De Bilt,Utrecht,VBO,5.170654,52.155974
Distelvink,21,,,3738SH,Maartensdijk,De Bilt,Utrecht,VBO,5.170713,52.156050
Distelvink,23,,,3738SH,Maartensdijk,De Bilt,Utrecht,VBO,5.170830,52.156078
Distelvink,25,,,3738SH,Maartensdijk,De Bilt,Utrecht,VBO,5.170942,52.156061
Distelvink,27,,,3738SH,Maartensdijk,De Bilt,Utrecht,VBO,5.171022,52.156039
Distelvink,29,,,3738SH,Maartensdijk,De Bilt,Utrecht,VBO,5.171106,52.156020
Distelvink,31,,,3738SH,Maartensdijk,De Bilt,Utrecht,VBO,5.171187,52.155998
Distelvink,2,,,3738SJ,Maartensdijk,De Bilt,Utrecht,VBO,5.170738,52.155317
Distelvink,4,,,3738SJ,Maartensdijk,De Bilt,Utrecht,VBO,5.170474,52.155324
Distelvink,6,,,3738SJ,Maartensdijk,De Bilt,Utrecht,VBO,5.170244,52.155330
Distelvink,8,,,3738SJ,Maartensdijk,De Bilt,Utrecht,VBO,5.170160,52.155347
Distelvink,10,,,3738SJ,Maartensdijk,De Bilt,Utrecht,VBO,5.170071,52.155363
Distelvink,12,,,3738SJ,Maartensdijk,De Bilt,Utrecht,VBO,5.169989,52.155386
Distelvink,14,,,3738SJ,Maartensdijk,De Bilt,Utrecht,VBO,5.169887,52.155416
Distelvink,16,,,3738SJ,Maartensdijk,De Bilt,Utrecht,VBO,5.169830,52.155482
Distelvink,18,,,3738SJ,Maartensdijk,De Bilt,Utrecht,VBO,5.169862,52.155558
Distelvink,20,,,3738SJ,Maartensdijk,De Bilt,Utrecht,VBO,5.169892,52.155607
Distelvink,22,,,3738SJ,Maartensdijk,De Bilt,Utrecht,VBO,5.169926,52.155654
Distelvink,24,,,3738SJ,Maartensdijk,De Bilt,Utrecht,VBO,5.169947,52.155704
Distelvink,26,,,3738SJ,Maartensdijk,De Bilt,Utrecht,VBO,5.170033,52.155941
Distelvink,28,,,3738SK,Maartensdijk,De Bilt,Utrecht,VBO,5.170162,52.156032
Distelvink,30,,,3738SK,Maartensdijk,De Bilt,Utrecht,VBO,5.170204,52.156088
Distelvink,32,,,3738SK,Maartensdijk,De Bilt,Utrecht,VBO,5.170232,52.156138
Distelvink,34,,,3738SK,Maartensdijk,De Bilt,Utrecht,VBO,5.170251,52.156186
Distelvink,36,,,3738SK,Maartensdijk,De Bilt,Utrecht,VBO,5.170276,52.156280
Distelvink,38,,,3738SK,Maartensdijk,De Bilt,Utrecht,VBO,5.170309,52.156333
Distelvink,40,,,3738SK,Maartensdijk,De Bilt,Utrecht,VBO,5.170341,52.156386
Distelvink,42,,,3738SK,Maartensdijk,De Bilt,Utrecht,VBO,5.170375,52.156433
Distelvink,44,,,3738SK,Maartensdijk,De Bilt,Utrecht,VBO,5.170418,52.156506
Distelvink,46,,,3738SK,Maartensdijk,De Bilt,Utrecht,VBO,5.170539,52.156540
Distelvink,48,,,3738SK,Maartensdijk,De Bilt,Utrecht,VBO,5.170645,52.156515
Distelvink,50,,,3738SK,Maartensdijk,De Bilt,Utrecht,VBO,5.170733,52.156496
Distelvink,52,,,3738SK,Maartensdijk,De Bilt,Utrecht,VBO,5.170810,52.156480
Distelvink,54,,,3738SK,Maartensdijk,De Bilt,Utrecht,VBO,5.170910,52.156459
Distelvink,56,,,3738SK,Maartensdijk,De Bilt,Utrecht,VBO,5.170980,52.156446
Distelvink,58,,,3738SK,Maartensdijk,De Bilt,Utrecht,VBO,5.171060,52.156427
Distelvink,60,,,3738SK,Maartensdijk,De Bilt,Utrecht,VBO,5.171159,52.156398
Braamsluiper,1,,,3738SL,Maartensdijk,De Bilt,Utrecht,VBO,5.171412,52.156635
Braamsluiper,3,,,3738SL,Maartensdijk,De Bilt,Utrecht,VBO,5.171385,52.156560
Braamsluiper,5,,,3738SL,Maartensdijk,De Bilt,Utrecht,VBO,5.171346,52.156497
Braamsluiper,7,,,3738SL,Maartensdijk,De Bilt,Utrecht,VBO,5.171291,52.156428
Braamsluiper,2,,,3738SM,Maartensdijk,De Bilt,Utrecht,VBO,5.171964,52.156692
Braamsluiper,4,,,3738SM,Maartensdijk,De Bilt,Utrecht,VBO,5.171939,52.156648
Braamsluiper,6,,,3738SM,Maartensdijk,De Bilt,Utrecht,VBO,5.171909,52.156598
Braamsluiper,8,,,3738SM,Maartensdijk,De Bilt,Utrecht,VBO,5.171884,52.156545
Braamsluiper,10,,,3738SM,Maartensdijk,De Bilt,Utrecht,VBO,5.171842,52.156495
Braamsluiper,12,,,3738SM,Maartensdijk,De Bilt,Utrecht,VBO,5.171804,52.156445
Braamsluiper,14,,,3738SM,Maartensdijk,De Bilt,Utrecht,VBO,5.171781,52.156396
Braamsluiper,16,,,3738SM,Maartensdijk,De Bilt,Utrecht,VBO,5.171771,52.156339
Braamsluiper,18,,,3738SM,Maartensdijk,De Bilt,Utrecht,VBO,5.171733,52.156284
Braamsluiper,20,,,3738SM,Maartensdijk,De Bilt,Utrecht,VBO,5.171457,52.155964
Braamsluiper,22,,,3738SM,Maartensdijk,De Bilt,Utrecht,VBO,5.171643,52.155884
Braamsluiper,24,A,,3738SM,Maartensdijk,De Bilt,Utrecht,VBO,5.171567,52.155722
Braamsluiper,24,,,3738SM,Maartensdijk,De Bilt,Utrecht,VBO,5.171531,52.155687
Braamsluiper,26,,,3738SM,Maartensdijk,De Bilt,Utrecht,VBO,5.171310,52.155520
Braamsluiper,28,,,3738SM,Maartensdijk,De Bilt,Utrecht,VBO,5.171297,52.155330
Braamsluiper,30,,,3738SM,Maartensdijk,De Bilt,Utrecht,VBO,5.171101,52.155249
Hondsdraf,1,,,3738TA,Maartensdijk,De Bilt,Utrecht,VBO,5.171921,52.153428
Hondsdraf,2,,,3738TA,Maartensdijk,De Bilt,Utrecht,VBO,5.171888,52.153386
Hondsdraf,3,,,3738TA,Maartensdijk,De Bilt,Utrecht,VBO,5.171826,52.153344
Hondsdraf,4,,,3738TA,Maartensdijk,De Bilt,Utrecht,VBO,5.171707,52.153311
Hondsdraf,5,,,3738TA,Maartensdijk,De Bilt,Utrecht,VBO,5.171632,52.153329
Hondsdraf,6,,,3738TA,Maartensdijk,De Bilt,Utrecht,VBO,5.171546,52.153345
Hondsdraf,7,,,3738TA,Maartensdijk,De Bilt,Utrecht,VBO,5.171334,52.153439
Hondsdraf,8,,,3738TA,Maartensdijk,De Bilt,Utrecht,VBO,5.171249,52.153460
Hondsdraf,9,,,3738TA,Maartensdijk,De Bilt,Utrecht,VBO,5.171179,52.153476
Hondsdraf,10,,,3738TA,Maartensdijk,De Bilt,Utrecht,VBO,5.171090,52.153494
Hondsdraf,11,,,3738TA,Maartensdijk,De Bilt,Utrecht,VBO,5.170931,52.153466
Hondsdraf,12,,,3738TA,Maartensdijk,De Bilt,Utrecht,VBO,5.170853,52.153485
Hondsdraf,13,,,3738TB,Maartensdijk,De Bilt,Utrecht,VBO,5.170780,52.153499
Hondsdraf,14,,,3738TB,Maartensdijk,De Bilt,Utrecht,VBO,5.170720,52.153544
Hondsdraf,15,,,3738TB,Maartensdijk,De Bilt,Utrecht,VBO,5.170720,52.153631
Hondsdraf,16,,,3738TB,Maartensdijk,De Bilt,Utrecht,VBO,5.170749,52.153676
Hondsdraf,17,,,3738TB,Maartensdijk,De Bilt,Utrecht,VBO,5.170775,52.153723
Hondsdraf,18,,,3738TB,Maartensdijk,De Bilt,Utrecht,VBO,5.170802,52.153767
Hondsdraf,19,,,3738TB,Maartensdijk,De Bilt,Utrecht,VBO,5.170877,52.153817
Hondsdraf,20,,,3738TB,Maartensdijk,De Bilt,Utrecht,VBO,5.170975,52.153845
Hondsdraf,21,,,3738TB,Maartensdijk,De Bilt,Utrecht,VBO,5.171050,52.153828
Hondsdraf,22,,,3738TB,Maartensdijk,De Bilt,Utrecht,VBO,5.171125,52.153810
Hondsdraf,23,,GB1,3738TB,Maartensdijk,De Bilt,Utrecht,VBO,5.171235,52.153977
Hondsdraf,23,,GB2,3738TB,Maartensdijk,De Bilt,Utrecht,VBO,5.171250,52.154004
Hondsdraf,23,,GB3,3738TB,Maartensdijk,De Bilt,Utrecht,VBO,5.171308,52.154022
Hondsdraf,23,,GB4,3738TB,Maartensdijk,De Bilt,Utrecht,VBO,5.171322,52.154040
Hondsdraf,23,,,3738TB,Maartensdijk,De Bilt,Utrecht,VBO,5.171202,52.153792
Wolfsmelk,1,,,3738TC,Maartensdijk,De Bilt,Utrecht,VBO,5.171569,52.153698
Wolfsmelk,2,,,3738TC,Maartensdijk,De Bilt,Utrecht,VBO,5.171599,52.153751
Wolfsmelk,3,,,3738TC,Maartensdijk,De Bilt,Utrecht,VBO,5.171622,52.153792
Wolfsmelk,4,,,3738TC,Maartensdijk,De Bilt,Utrecht,VBO,5.171651,52.153842
Wolfsmelk,5,,,3738TC,Maartensdijk,De Bilt,Utrecht,VBO,5.171716,52.153880
Wolfsmelk,6,,,3738TC,Maartensdijk,De Bilt,Utrecht,VBO,5.171739,52.153930
Wolfsmelk,7,,,3738TC,Maartensdijk,De Bilt,Utrecht,VBO,5.172288,52.154120
Wolfsmelk,8,,,3738TC,Maartensdijk,De Bilt,Utrecht,VBO,5.172260,52.154071
Wolfsmelk,9,,,3738TC,Maartensdijk,De Bilt,Utrecht,VBO,5.172239,52.154026
Wolfsmelk,10,,,3738TD,Maartensdijk,De Bilt,Utrecht,VBO,5.172201,52.153981
Wolfsmelk,11,,,3738TD,Maartensdijk,De Bilt,Utrecht,VBO,5.172211,52.153928
Wolfsmelk,12,,,3738TD,Maartensdijk,De Bilt,Utrecht,VBO,5.172187,52.153874
Wolfsmelk,13,,,3738TD,Maartensdijk,De Bilt,Utrecht,VBO,5.172057,52.153749
Wolfsmelk,14,,,3738TD,Maartensdijk,De Bilt,Utrecht,VBO,5.172027,52.153705
Wolfsmelk,15,,,3738TD,Maartensdijk,De Bilt,Utrecht,VBO,5.171965,52.153670
Wolfsmelk,16,,,3738TD,Maartensdijk,De Bilt,Utrecht,VBO,5.171940,52.153626
Wolfsmelk,17,,,3738TD,Maartensdijk,De Bilt,Utrecht,VBO,5.171916,52.153576
Bereklauw,1,,,3738TE,Maartensdijk,De Bilt,Utrecht,VBO,5.171994,52.154162
Bereklauw,2,,,3738TE,Maartensdijk,De Bilt,Utrecht,VBO,5.171907,52.154181
Bereklauw,3,,,3738TE,Maartensdijk,De Bilt,Utrecht,VBO,5.171839,52.154196
Bereklauw,4,,,3738TE,Maartensdijk,De Bilt,Utrecht,VBO,5.171749,52.154193
Bereklauw,5,,,3738TE,Maartensdijk,De Bilt,Utrecht,VBO,5.171677,52.154208
Bereklauw,6,,,3738TE,Maartensdijk,De Bilt,Utrecht,VBO,5.171604,52.154223
Bereklauw,7,,,3738TE,Maartensdijk,De Bilt,Utrecht,VBO,5.171527,52.154240
Bereklauw,8,,,3738TE,Maartensdijk,De Bilt,Utrecht,VBO,5.171452,52.154255
Bereklauw,9,,,3738TE,Maartensdijk,De Bilt,Utrecht,VBO,5.171367,52.154271
Bereklauw,10,,,3738TE,Maartensdijk,De Bilt,Utrecht,VBO,5.171716,52.154389
Bereklauw,11,,,3738TE,Maartensdijk,De Bilt,Utrecht,VBO,5.171748,52.154434
Bereklauw,12,,,3738TE,Maartensdijk,De Bilt,Utrecht,VBO,5.171836,52.154489
Bereklauw,13,,,3738TG,Maartensdijk,De Bilt,Utrecht,VBO,5.171930,52.154503
Bereklauw,14,,,3738TG,Maartensdijk,De Bilt,Utrecht,VBO,5.172009,52.154485
Bereklauw,15,,,3738TG,Maartensdijk,De Bilt,Utrecht,VBO,5.172148,52.154490
Bereklauw,16,,,3738TG,Maartensdijk,De Bilt,Utrecht,VBO,5.172227,52.154474
Bereklauw,17,,,3738TG,Maartensdijk,De Bilt,Utrecht,VBO,5.172306,52.154457
Bereklauw,18,,,3738TG,Maartensdijk,De Bilt,Utrecht,VBO,5.172372,52.154432
Bereklauw,19,,,3738TG,Maartensdijk,De Bilt,Utrecht,VBO,5.172432,52.154388
Bereklauw,20,,,3738TG,Maartensdijk,De Bilt,Utrecht,VBO,5.172442,52.154307
Bereklauw,21,,,3738TG,Maartensdijk,De Bilt,Utrecht,VBO,5.172413,52.154253
Egelskop,1,,TR,3738TH,Maartensdijk,De Bilt,Utrecht,VBO,5.170175,52.154801
Egelskop,1,,,3738TH,Maartensdijk,De Bilt,Utrecht,VBO,5.170379,52.154800
Egelskop,2,,,3738TH,Maartensdijk,De Bilt,Utrecht,VBO,5.170421,52.154861
Egelskop,3,,,3738TH,Maartensdijk,De Bilt,Utrecht,VBO,5.170444,52.154907
Egelskop,4,,,3738TH,Maartensdijk,De Bilt,Utrecht,VBO,5.170512,52.154958
Egelskop,5,,,3738TH,Maartensdijk,De Bilt,Utrecht,VBO,5.170612,52.154942
Egelskop,6,,,3738TH,Maartensdijk,De Bilt,Utrecht,VBO,5.170722,52.154942
Egelskop,7,,,3738TH,Maartensdijk,De Bilt,Utrecht,VBO,5.170816,52.154928
Egelskop,8,,,3738TH,Maartensdijk,De Bilt,Utrecht,VBO,5.171081,52.154911
Egelskop,9,,,3738TH,Maartensdijk,De Bilt,Utrecht,VBO,5.171167,52.154893
Egelskop,10,,,3738TH,Maartensdijk,De Bilt,Utrecht,VBO,5.171233,52.154872
Egelskop,11,,,3738TH,Maartensdijk,De Bilt,Utrecht,VBO,5.171298,52.154829
Egelskop,12,,,3738TH,Maartensdijk,De Bilt,Utrecht,VBO,5.171298,52.154750
Egelskop,13,,,3738TJ,Maartensdijk,De Bilt,Utrecht,VBO,5.171280,52.154700
Egelskop,14,,,3738TJ,Maartensdijk,De Bilt,Utrecht,VBO,5.171259,52.154646
Egelskop,15,,,3738TJ,Maartensdijk,De Bilt,Utrecht,VBO,5.171228,52.154602
Egelskop,16,,,3738TJ,Maartensdijk,De Bilt,Utrecht,VBO,5.171165,52.154565
Egelskop,17,,GB1,3738TJ,Maartensdijk,De Bilt,Utrecht,VBO,5.171131,52.154390
Egelskop,17,,GB2,3738TJ,Maartensdijk,De Bilt,Utrecht,VBO,5.171087,52.154399
Egelskop,17,,GB3,3738TJ,Maartensdijk,De Bilt,Utrecht,VBO,5.171029,52.154381
Egelskop,17,,GB4,3738TJ,Maartensdijk,De Bilt,Utrecht,VBO,5.170985,52.154381
Egelskop,17,,GB5,3738TJ,Maartensdijk,De Bilt,Utrecht,VBO,5.170926,52.154372
Egelskop,17,,GB6,3738TJ,Maartensdijk,De Bilt,Utrecht,VBO,5.170883,52.154372
Egelskop,17,,,3738TJ,Maartensdijk,De Bilt,Utrecht,VBO,5.171136,52.154510
Egelskop,24,,,3738TJ,Maartensdijk,De Bilt,Utrecht,VBO,5.170879,52.154685
Egelskop,25,,,3738TJ,Maartensdijk,De Bilt,Utrecht,VBO,5.170801,52.154702
Egelskop,26,,,3738TJ,Maartensdijk,De Bilt,Utrecht,VBO,5.170723,52.154716
Egelskop,27,,,3738TJ,Maartensdijk,De Bilt,Utrecht,VBO,5.170657,52.154731
Zwanebloem,1,,,3738TK,Maartensdijk,De Bilt,Utrecht,VBO,5.170596,52.154497
Zwanebloem,2,,,3738TK,Maartensdijk,De Bilt,Utrecht,VBO,5.170556,52.154457
Zwanebloem,3,,,3738TK,Maartensdijk,De Bilt,Utrecht,VBO,5.170532,52.154412
Zwanebloem,4,,,3738TK,Maartensdijk,De Bilt,Utrecht,VBO,5.170510,52.154366
Zwanebloem,5,,,3738TK,Maartensdijk,De Bilt,Utrecht,VBO,5.170503,52.154315
Zwanebloem,6,,,3738TK,Maartensdijk,De Bilt,Utrecht,VBO,5.170504,52.154252
Zwanebloem,7,,,3738TK,Maartensdijk,De Bilt,Utrecht,VBO,5.170378,52.154116
Zwanebloem,8,,,3738TK,Maartensdijk,De Bilt,Utrecht,VBO,5.170348,52.154073
Zwanebloem,9,,,3738TK,Maartensdijk,De Bilt,Utrecht,VBO,5.170320,52.154027
Zwanebloem,10,,,3738TK,Maartensdijk,De Bilt,Utrecht,VBO,5.170287,52.153984
Zwanebloem,11,,,3738TK,Maartensdijk,De Bilt,Utrecht,VBO,5.170258,52.153938
Zwanebloem,12,,,3738TK,Maartensdijk,De Bilt,Utrecht,VBO,5.170224,52.153895
Zwanebloem,13,,,3738TL,Maartensdijk,De Bilt,Utrecht,VBO,5.170135,52.153829
Zwanebloem,14,,,3738TL,Maartensdijk,De Bilt,Utrecht,VBO,5.170038,52.153820
Zwanebloem,15,,,3738TL,Maartensdijk,De Bilt,Utrecht,VBO,5.169932,52.153846
Zwanebloem,16,,,3738TL,Maartensdijk,De Bilt,Utrecht,VBO,5.169850,52.153862
Zwanebloem,17,A,,3738TL,Maartensdijk,De Bilt,Utrecht,VBO,5.169720,52.153929
Zwanebloem,17,,,3738TL,Maartensdijk,De Bilt,Utrecht,VBO,5.169793,52.153897
Zwanebloem,18,,,3738TL,Maartensdijk,De Bilt,Utrecht,VBO,5.169865,52.154063
Zwanebloem,19,,,3738TL,Maartensdijk,De Bilt,Utrecht,VBO,5.169898,52.154114
Zwanebloem,20,,,3738TL,Maartensdijk,De Bilt,Utrecht,VBO,5.169967,52.154151
Zwanebloem,21,,,3738TL,Maartensdijk,De Bilt,Utrecht,VBO,5.170001,52.154194
Zwanebloem,22,,,3738TL,Maartensdijk,De Bilt,Utrecht,VBO,5.170025,52.154240
Zwanebloem,23,,,3738TL,Maartensdijk,De Bilt,Utrecht,VBO,5.170039,52.154283
Reigersbek,1,,,3738TM,Maartensdijk,De Bilt,Utrecht,VBO,5.169493,52.155019
Reigersbek,2,,,3738TM,Maartensdijk,De Bilt,Utrecht,VBO,5.169567,52.155005
Reigersbek,3,,,3738TM,Maartensdijk,De Bilt,Utrecht,VBO,5.169665,52.155012
Reigersbek,4,,,3738TM,Maartensdijk,De Bilt,Utrecht,VBO,5.169732,52.154985
Reigersbek,5,,,3738TM,Maartensdijk,De Bilt,Utrecht,VBO,5.169806,52.154971
Reigersbek,6,,,3738TM,Maartensdijk,De Bilt,Utrecht,VBO,5.169871,52.154930
Reigersbek,7,,,3738TM,Maartensdijk,De Bilt,Utrecht,VBO,5.169870,52.154847
Reigersbek,8,,,3738TM,Maartensdijk,De Bilt,Utrecht,VBO,5.169837,52.154796
Reigersbek,9,,,3738TM,Maartensdijk,De Bilt,Utrecht,VBO,5.170162,52.154586
Reigersbek,10,,,3738TM,Maartensdijk,De Bilt,Utrecht,VBO,5.170123,52.154549
Reigersbek,11,,,3738TM,Maartensdijk,De Bilt,Utrecht,VBO,5.170097,52.154500
Reigersbek,12,,GB1,3738TM,Maartensdijk,De Bilt,Utrecht,VBO,5.169538,52.154261
Reigersbek,12,,GB2,3738TM,Maartensdijk,De Bilt,Utrecht,VBO,5.169529,52.154239
Reigersbek,12,,GB3,3738TM,Maartensdijk,De Bilt,Utrecht,VBO,5.169553,52.154206
Reigersbek,12,,GB4,3738TM,Maartensdijk,De Bilt,Utrecht,VBO,5.169540,52.154179
Reigersbek,12,,GB5,3738TM,Maartensdijk,De Bilt,Utrecht,VBO,5.169557,52.154140
Reigersbek,12,,GB6,3738TM,Maartensdijk,De Bilt,Utrecht,VBO,5.169549,52.154121
Reigersbek,12,,,3738TM,Maartensdijk,De Bilt,Utrecht,VBO,5.170057,52.154445
Reigersbek,19,,,3738TN,Maartensdijk,De Bilt,Utrecht,VBO,5.169729,52.154463
Reigersbek,20,,,3738TN,Maartensdijk,De Bilt,Utrecht,VBO,5.169664,52.154487
Reigersbek,21,,,3738TN,Maartensdijk,De Bilt,Utrecht,VBO,5.169590,52.154499
Reigersbek,22,,,3738TN,Maartensdijk,De Bilt,Utrecht,VBO,5.169514,52.154517
Reigersbek,23,,,3738TN,Maartensdijk,De Bilt,Utrecht,VBO,5.169439,52.154532
Reigersbek,24,,,3738TN,Maartensdijk,De Bilt,Utrecht,VBO,5.169369,52.154553
Reigersbek,25,,,3738TN,Maartensdijk,De Bilt,Utrecht,VBO,5.169396,52.154657
Reigersbek,26,,,3738TN,Maartensdijk,De Bilt,Utrecht,VBO,5.169415,52.154702
Reigersbek,27,,,3738TN,Maartensdijk,De Bilt,Utrecht,VBO,5.169439,52.154750
Dierenriem,1,,,3738TP,Maartensdijk,De Bilt,Utrecht,VBO,5.169615,52.157488
Dierenriem,3,,,3738TP,Maartensdijk,De Bilt,Utrecht,VBO,5.169430,52.157155
Dierenriem,5,,,3738TP,Maartensdijk,De Bilt,Utrecht,VBO,5.169270,52.156819
Dierenriem,7,,TR,3738TP,Maartensdijk,De Bilt,Utrecht,VBO,5.170232,52.156622
Dierenriem,7,,,3738TP,Maartensdijk,De Bilt,Utrecht,VBO,5.169959,52.156820
Dierenriem,9,A,,3738TP,Maartensdijk,De Bilt,Utrecht,VBO,5.170043,52.156631
Dierenriem,9,,,3738TP,Maartensdijk,De Bilt,Utrecht,VBO,5.169825,52.156578
Dierenriem,11,,,3738TP,Maartensdijk,De Bilt,Utrecht,VBO,5.169762,52.156244
Dierenriem,12,,,3738TP,Maartensdijk,De Bilt,Utrecht,VBO,5.169734,52.152921
Dierenriem,2,,,3738TR,Maartensdijk,De Bilt,Utrecht,VBO,5.168779,52.156115
Dierenriem,4,A,,3738TR,Maartensdijk,De Bilt,Utrecht,VBO,5.168561,52.153460
Dierenriem,4,,,3738TR,Maartensdijk,De Bilt,Utrecht,VBO,5.168441,52.153503
Dierenriem,6,A,,3738TR,Maartensdijk,De Bilt,Utrecht,VBO,5.168595,52.152924
Dierenriem,6,,,3738TR,Maartensdijk,De Bilt,Utrecht,VBO,5.168410,52.153261
Dierenriem,8,A,,3738TR,Maartensdijk,De Bilt,Utrecht,VBO,5.167586,52.152044
Dierenriem,8,,,3738TR,Maartensdijk,De Bilt,Utrecht,VBO,5.167319,52.152083
Dierenriem,10,,,3738TR,Maartensdijk,De Bilt,Utrecht,VBO,5.168237,52.151520
Vogelwikke,1,,,3738TS,Maartensdijk,De Bilt,Utrecht,VBO,5.170858,52.152498
Vogelwikke,2,,,3738TS,Maartensdijk,De Bilt,Utrecht,VBO,5.171041,52.152460
Vogelwikke,3,,,3738TS,Maartensdijk,De Bilt,Utrecht,VBO,5.171176,52.152429
Vogelwikke,4,,,3738TS,Maartensdijk,De Bilt,Utrecht,VBO,5.171341,52.152414
Vogelwikke,5,,,3738TS,Maartensdijk,De Bilt,Utrecht,VBO,5.171738,52.152443
Vogelwikke,6,,,3738TS,Maartensdijk,De Bilt,Utrecht,VBO,5.171676,52.152342
Vogelwikke,7,,,3738TS,Maartensdijk,De Bilt,Utrecht,VBO,5.171649,52.152283
Vogelwikke,8,,,3738TS,Maartensdijk,De Bilt,Utrecht,VBO,5.171578,52.152185
Vogelwikke,9,,,3738TS,Maartensdijk,De Bilt,Utrecht,VBO,5.171396,52.152116
Vogelwikke,10,,,3738TS,Maartensdijk,De Bilt,Utrecht,VBO,5.171345,52.152059
Vogelwikke,11,,,3738TS,Maartensdijk,De Bilt,Utrecht,VBO,5.171473,52.151885
Vogelwikke,12,,,3738TS,Maartensdijk,De Bilt,Utrecht,VBO,5.171685,52.151851
Vogelwikke,13,,,3738TS,Maartensdijk,De Bilt,Utrecht,VBO,5.171812,52.151822
Vogelwikke,14,,,3738TS,Maartensdijk,De Bilt,Utrecht,VBO,5.171988,52.151810
Vogelwikke,15,,,3738TT,Maartensdijk,De Bilt,Utrecht,VBO,5.171940,52.152005
Vogelwikke,16,,,3738TT,Maartensdijk,De Bilt,Utrecht,VBO,5.171984,52.152122
Vogelwikke,17,,,3738TT,Maartensdijk,De Bilt,Utrecht,VBO,5.172008,52.152175
Vogelwikke,18,,,3738TT,Maartensdijk,De Bilt,Utrecht,VBO,5.172096,52.152266
Vogelwikke,19,,,3738TT,Maartensdijk,De Bilt,Utrecht,VBO,5.172225,52.152362
Vogelwikke,20,,,3738TT,Maartensdijk,De Bilt,Utrecht,VBO,5.172242,52.152418
Vogelwikke,21,,,3738TT,Maartensdijk,De Bilt,Utrecht,VBO,5.172131,52.152606
Vogelwikke,22,,,3738TT,Maartensdijk,De Bilt,Utrecht,VBO,5.171913,52.152642
Vogelwikke,23,,,3738TT,Maartensdijk,De Bilt,Utrecht,VBO,5.171817,52.152647
Vogelwikke,24,,,3738TT,Maartensdijk,De Bilt,Utrecht,VBO,5.171626,52.152684
Vogelwikke,25,,,3738TT,Maartensdijk,De Bilt,Utrecht,VBO,5.171206,52.152647
Vogelwikke,26,,,3738TT,Maartensdijk,De Bilt,Utrecht,VBO,5.171245,52.152762
Vogelwikke,27,,,3738TT,Maartensdijk,De Bilt,Utrecht,VBO,5.171277,52.152815
Vogelwikke,28,,,3738TT,Maartensdijk,De Bilt,Utrecht,VBO,5.171369,52.152906
Havikskruid,1,,,3738TV,Maartensdijk,De Bilt,Utrecht,VBO,5.170881,52.152888
Havikskruid,2,,,3738TV,Maartensdijk,De Bilt,Utrecht,VBO,5.170681,52.152912
Havikskruid,3,,,3738TV,Maartensdijk,De Bilt,Utrecht,VBO,5.170605,52.152954
Havikskruid,4,,,3738TV,Maartensdijk,De Bilt,Utrecht,VBO,5.170424,52.153012
Havikskruid,5,,,3738TV,Maartensdijk,De Bilt,Utrecht,VBO,5.170185,52.152921
Havikskruid,6,,,3738TV,Maartensdijk,De Bilt,Utrecht,VBO,5.170135,52.152847
Havikskruid,7,,,3738TV,Maartensdijk,De Bilt,Utrecht,VBO,5.170029,52.152737
Havikskruid,8,,,3738TV,Maartensdijk,De Bilt,Utrecht,VBO,5.169981,52.152645
Havikskruid,9,,,3738TV,Maartensdijk,De Bilt,Utrecht,VBO,5.169934,52.152555
Havikskruid,10,,,3738TV,Maartensdijk,De Bilt,Utrecht,VBO,5.169861,52.152473
Havikskruid,11,,,3738TV,Maartensdijk,De Bilt,Utrecht,VBO,5.169842,52.152386
Havikskruid,12,,,3738TV,Maartensdijk,De Bilt,Utrecht,VBO,5.169953,52.152247
Havikskruid,13,,,3738TV,Maartensdijk,De Bilt,Utrecht,VBO,5.170093,52.152241
Havikskruid,14,,,3738TV,Maartensdijk,De Bilt,Utrecht,VBO,5.170226,52.152217
Havikskruid,15,,,3738TV,Maartensdijk,De Bilt,Utrecht,VBO,5.170358,52.152186
Havikskruid,16,,,3738TV,Maartensdijk,De Bilt,Utrecht,VBO,5.170618,52.152148
Havikskruid,17,,,3738TV,Maartensdijk,De Bilt,Utrecht,VBO,5.170822,52.152112
Havikskruid,18,,,3738TV,Maartensdijk,De Bilt,Utrecht,VBO,5.170389,52.152413
Havikskruid,19,,,3738TV,Maartensdijk,De Bilt,Utrecht,VBO,5.170426,52.152490
Havikskruid,20,,,3738TV,Maartensdijk,De Bilt,Utrecht,VBO,5.170470,52.152569
Havikskruid,21,,,3738TV,Maartensdijk,De Bilt,Utrecht,VBO,5.170570,52.152634
Havikskruid,22,,,3738TV,Maartensdijk,De Bilt,Utrecht,VBO,5.170616,52.152699
Koningin Julianalaan,1,,,3738VA,Maartensdijk,De Bilt,Utrecht,VBO,5.183225,52.157927
Koningin Julianalaan,9,,,3738VA,Maartensdijk,De Bilt,Utrecht,VBO,5.182991,52.156881
Koningin Julianalaan,11,,,3738VA,Maartensdijk,De Bilt,Utrecht,VBO,5.182981,52.156813
Koningin Julianalaan,13,,,3738VA,Maartensdijk,De Bilt,Utrecht,VBO,5.182990,52.156760
Koningin Julianalaan,15,,,3738VA,Maartensdijk,De Bilt,Utrecht,VBO,5.183002,52.156699
Koningin Julianalaan,17,,,3738VA,Maartensdijk,De Bilt,Utrecht,VBO,5.182966,52.156570
Koningin Julianalaan,19,,,3738VA,Maartensdijk,De Bilt,Utrecht,VBO,5.182940,52.156518
Koningin Julianalaan,21,,,3738VA,Maartensdijk,De Bilt,Utrecht,VBO,5.182867,52.156369
Koningin Julianalaan,23,,,3738VA,Maartensdijk,De Bilt,Utrecht,VBO,5.182644,52.156041
Koningin Julianalaan,25,,,3738VA,Maartensdijk,De Bilt,Utrecht,VBO,5.182766,52.156017
Koningin Julianalaan,27,,,3738VA,Maartensdijk,De Bilt,Utrecht,VBO,5.182571,52.155857
Koningin Julianalaan,29,,,3738VA,Maartensdijk,De Bilt,Utrecht,VBO,5.182496,52.155703
Koningin Julianalaan,31,,,3738VA,Maartensdijk,De Bilt,Utrecht,VBO,5.182369,52.155515
Koningin Julianalaan,33,,,3738VA,Maartensdijk,De Bilt,Utrecht,VBO,5.182278,52.155349
Koningin Julianalaan,35,,,3738VA,Maartensdijk,De Bilt,Utrecht,VBO,5.182211,52.155192
Koningin Julianalaan,37,,,3738VA,Maartensdijk,De Bilt,Utrecht,VBO,5.182123,52.155037
Koningin Julianalaan,39,,,3738VA,Maartensdijk,De Bilt,Utrecht,VBO,5.181959,52.154829
Koningin Julianalaan,41,,,3738VB,Maartensdijk,De Bilt,Utrecht,VBO,5.181920,52.154759
Koningin Julianalaan,43,,,3738VB,Maartensdijk,De Bilt,Utrecht,VBO,5.181875,52.154674
Koningin Julianalaan,45,,,3738VB,Maartensdijk,De Bilt,Utrecht,VBO,5.181840,52.154615
Koningin Julianalaan,47,,,3738VB,Maartensdijk,De Bilt,Utrecht,VBO,5.181790,52.154523
Koningin Julianalaan,49,,,3738VB,Maartensdijk,De Bilt,Utrecht,VBO,5.181755,52.154460
Koningin Julianalaan,51,,,3738VB,Maartensdijk,De Bilt,Utrecht,VBO,5.181713,52.154375
Koningin Julianalaan,53,,,3738VB,Maartensdijk,De Bilt,Utrecht,VBO,5.181667,52.154310
Koningin Julianalaan,55,,,3738VB,Maartensdijk,De Bilt,Utrecht,VBO,5.181580,52.154107
Koningin Julianalaan,57,,,3738VB,Maartensdijk,De Bilt,Utrecht,VBO,5.181552,52.154030
Koningin Julianalaan,59,,,3738VB,Maartensdijk,De Bilt,Utrecht,VBO,5.181447,52.153934
Koningin Julianalaan,61,,,3738VB,Maartensdijk,De Bilt,Utrecht,VBO,5.181421,52.153877
Koningin Julianalaan,63,,,3738VB,Maartensdijk,De Bilt,Utrecht,VBO,5.181392,52.153721
Koningin Julianalaan,2,,,3738VC,Maartensdijk,De Bilt,Utrecht,VBO,5.182508,52.157641
Koningin Julianalaan,4,,,3738VC,Maartensdijk,De Bilt,Utrecht,VBO,5.182480,52.157589
Koningin Julianalaan,6,,,3738VC,Maartensdijk,De Bilt,Utrecht,VBO,5.182449,52.157535
Koningin Julianalaan,8,,,3738VC,Maartensdijk,De Bilt,Utrecht,VBO,5.182410,52.157473
Koningin Julianalaan,10,,,3738VC,Maartensdijk,De Bilt,Utrecht,VBO,5.182385,52.157371
Koningin Julianalaan,12,,,3738VC,Maartensdijk,De Bilt,Utrecht,VBO,5.182356,52.157318
Koningin Julianalaan,14,,,3738VC,Maartensdijk,De Bilt,Utrecht,VBO,5.182326,52.157261
Koningin Julianalaan,16,,,3738VC,Maartensdijk,De Bilt,Utrecht,VBO,5.182298,52.157212
Koningin Julianalaan,18,,,3738VC,Maartensdijk,De Bilt,Utrecht,VBO,5.182295,52.157092
Koningin Julianalaan,20,,,3738VC,Maartensdijk,De Bilt,Utrecht,VBO,5.182271,52.157039
Koningin Julianalaan,22,,,3738VC,Maartensdijk,De Bilt,Utrecht,VBO,5.182239,52.156986
Koningin Julianalaan,24,,,3738VC,Maartensdijk,De Bilt,Utrecht,VBO,5.182204,52.156927
Koningin Julianalaan,26,,,3738VC,Maartensdijk,De Bilt,Utrecht,VBO,5.182236,52.156665
Koningin Julianalaan,28,,,3738VC,Maartensdijk,De Bilt,Utrecht,VBO,5.182022,52.156663
Koningin Julianalaan,40,,,3738VC,Maartensdijk,De Bilt,Utrecht,VBO,5.182105,52.155883
Koningin Julianalaan,42,,,3738VC,Maartensdijk,De Bilt,Utrecht,VBO,5.182081,52.155839
Koningin Julianalaan,44,,,3738VC,Maartensdijk,De Bilt,Utrecht,VBO,5.182047,52.155788
Koningin Julianalaan,46,,,3738VC,Maartensdijk,De Bilt,Utrecht,VBO,5.182010,52.155738
Koningin Julianalaan,48,,,3738VD,Maartensdijk,De Bilt,Utrecht,VBO,5.181896,52.155513
Koningin Julianalaan,50,,,3738VD,Maartensdijk,De Bilt,Utrecht,VBO,5.181867,52.155465
Koningin Julianalaan,52,,,3738VD,Maartensdijk,De Bilt,Utrecht,VBO,5.181842,52.155417
Koningin Julianalaan,54,,,3738VD,Maartensdijk,De Bilt,Utrecht,VBO,5.181811,52.155364
Koningin Julianalaan,56,,,3738VD,Maartensdijk,De Bilt,Utrecht,VBO,5.181783,52.155314
Koningin Julianalaan,58,,,3738VD,Maartensdijk,De Bilt,Utrecht,VBO,5.181754,52.155262
Koningin Julianalaan,60,,,3738VD,Maartensdijk,De Bilt,Utrecht,VBO,5.181726,52.155214
Koningin Julianalaan,62,,,3738VD,Maartensdijk,De Bilt,Utrecht,VBO,5.181681,52.155147
Koningin Julianalaan,64,,,3738VD,Maartensdijk,De Bilt,Utrecht,VBO,5.181540,52.154917
Koningin Julianalaan,66,,,3738VD,Maartensdijk,De Bilt,Utrecht,VBO,5.181505,52.154850
Koningin Julianalaan,68,,,3738VD,Maartensdijk,De Bilt,Utrecht,VBO,5.181464,52.154764
Koningin Julianalaan,70,,,3738VD,Maartensdijk,De Bilt,Utrecht,VBO,5.181436,52.154711
Koningin Julianalaan,72,,,3738VD,Maartensdijk,De Bilt,Utrecht,VBO,5.181383,52.154615
Koningin Julianalaan,74,,,3738VD,Maartensdijk,De Bilt,Utrecht,VBO,5.181346,52.154552
Koningin Julianalaan,76,,,3738VD,Maartensdijk,De Bilt,Utrecht,VBO,5.181296,52.154464
Koningin Julianalaan,78,,,3738VD,Maartensdijk,De Bilt,Utrecht,VBO,5.181265,52.154411
Koningin Julianalaan,86,,,3738VD,Maartensdijk,De Bilt,Utrecht,VBO,5.181129,52.154191
Koningin Julianalaan,88,,,3738VD,Maartensdijk,De Bilt,Utrecht,VBO,5.181114,52.154138
Koningin Julianalaan,90,,,3738VD,Maartensdijk,De Bilt,Utrecht,VBO,5.181089,52.154083
Koningin Julianalaan,92,,,3738VD,Maartensdijk,De Bilt,Utrecht,VBO,5.181059,52.154031
Koningin Julianalaan,94,,,3738VD,Maartensdijk,De Bilt,Utrecht,VBO,5.181029,52.153980
Koningin Julianalaan,96,,,3738VD,Maartensdijk,De Bilt,Utrecht,VBO,5.181000,52.153924
Koningin Julianalaan,98,,,3738VD,Maartensdijk,De Bilt,Utrecht,VBO,5.180883,52.153803
Koningin Julianalaan,100,,,3738VD,Maartensdijk,De Bilt,Utrecht,VBO,5.180851,52.153744
Prinsenlaan,1,,,3738VE,Maartensdijk,De Bilt,Utrecht,VBO,5.181384,52.153555
Prinsenlaan,2,A,,3738VE,Maartensdijk,De Bilt,Utrecht,VBO,5.180818,52.153541
Prinsenlaan,2,B,,3738VE,Maartensdijk,De Bilt,Utrecht,VBO,5.180756,52.153427
Prinsenlaan,2,,,3738VE,Maartensdijk,De Bilt,Utrecht,VBO,5.180845,52.153582
Prinsenlaan,3,,,3738VE,Maartensdijk,De Bilt,Utrecht,VBO,5.181306,52.153431
Prinsenlaan,4,A,,3738VE,Maartensdijk,De Bilt,Utrecht,VBO,5.180669,52.153272
Prinsenlaan,4,B,,3738VE,Maartensdijk,De Bilt,Utrecht,VBO,5.180645,52.153229
Prinsenlaan,4,,,3738VE,Maartensdijk,De Bilt,Utrecht,VBO,5.180736,52.153386
Prinsenlaan,5,,,3738VE,Maartensdijk,De Bilt,Utrecht,VBO,5.181232,52.153334
Prinsenlaan,6,A,,3738VE,Maartensdijk,De Bilt,Utrecht,VBO,5.180445,52.152960
Prinsenlaan,6,B,,3738VE,Maartensdijk,De Bilt,Utrecht,STA,5.180131,52.152984
Prinsenlaan,6,C,,3738VE,Maartensdijk,De Bilt,Utrecht,STA,5.179976,52.153003
Prinsenlaan,6,D,,3738VE,Maartensdijk,De Bilt,Utrecht,STA,5.180239,52.153087
Prinsenlaan,6,,,3738VE,Maartensdijk,De Bilt,Utrecht,VBO,5.180010,52.153117
Prinsenlaan,7,,,3738VE,Maartensdijk,De Bilt,Utrecht,VBO,5.181174,52.153246
Prinsenlaan,9,,,3738VE,Maartensdijk,De Bilt,Utrecht,VBO,5.181121,52.153161
Prinsenlaan,10,,,3738VE,Maartensdijk,De Bilt,Utrecht,VBO,5.180189,52.152660
Prinsenlaan,11,,,3738VE,Maartensdijk,De Bilt,Utrecht,VBO,5.181069,52.153070
Prinsenlaan,12,,,3738VE,Maartensdijk,De Bilt,Utrecht,VBO,5.180121,52.152554
Prinsenlaan,13,,,3738VE,Maartensdijk,De Bilt,Utrecht,VBO,5.181030,52.152965
Prinsenlaan,14,,,3738VE,Maartensdijk,De Bilt,Utrecht,VBO,5.180046,52.152412
Prinsenlaan,15,,,3738VE,Maartensdijk,De Bilt,Utrecht,VBO,5.180949,52.152860
Prinsenlaan,16,,,3738VE,Maartensdijk,De Bilt,Utrecht,VBO,5.179974,52.152303
Prinsenlaan,17,,,3738VE,Maartensdijk,De Bilt,Utrecht,VBO,5.180905,52.152794
Prinsenlaan,18,,,3738VE,Maartensdijk,De Bilt,Utrecht,VBO,5.179818,52.152113
Prinsenlaan,19,,,3738VE,Maartensdijk,De Bilt,Utrecht,VBO,5.180845,52.152699
Prinsenlaan,20,,,3738VE,Maartensdijk,De Bilt,Utrecht,VBO,5.179607,52.151932
Prinsenlaan,21,,,3738VE,Maartensdijk,De Bilt,Utrecht,VBO,5.180812,52.152630
Prinsenlaan,22,,,3738VE,Maartensdijk,De Bilt,Utrecht,VBO,5.179454,52.151775
Prinsenlaan,23,,,3738VE,Maartensdijk,De Bilt,Utrecht,VBO,5.180751,52.152530
Prinsenlaan,24,,,3738VE,Maartensdijk,De Bilt,Utrecht,VBO,5.179326,52.151598
Prinsenlaan,25,,,3738VE,Maartensdijk,De Bilt,Utrecht,VBO,5.180715,52.152465
Prinsenlaan,26,,,3738VE,Maartensdijk,De Bilt,Utrecht,VBO,5.179236,52.151441
Prinsenlaan,27,,,3738VE,Maartensdijk,De Bilt,Utrecht,VBO,5.180655,52.152364
Prinsenlaan,29,,,3738VE,Maartensdijk,De Bilt,Utrecht,VBO,5.180614,52.152275
Prinsenlaan,31,,,3738VE,Maartensdijk,De Bilt,Utrecht,VBO,5.180593,52.152127
Prinsenlaan,33,,,3738VE,Maartensdijk,De Bilt,Utrecht,VBO,5.180310,52.151811
Prinsenlaan,35,,,3738VE,Maartensdijk,De Bilt,Utrecht,VBO,5.179897,52.151424
Prinses Beatrixlaan,1,,,3738VG,Maartensdijk,De Bilt,Utrecht,VBO,5.182273,52.156142
Prinses Beatrixlaan,3,,,3738VG,Maartensdijk,De Bilt,Utrecht,VBO,5.182187,52.156157
Prinses Beatrixlaan,5,,,3738VG,Maartensdijk,De Bilt,Utrecht,VBO,5.182106,52.156176
Prinses Beatrixlaan,7,,,3738VG,Maartensdijk,De Bilt,Utrecht,VBO,5.182018,52.156196
Prinses Beatrixlaan,9,,,3738VG,Maartensdijk,De Bilt,Utrecht,VBO,5.181864,52.156237
Prinses Beatrixlaan,11,,,3738VG,Maartensdijk,De Bilt,Utrecht,VBO,5.181769,52.156256
Prinses Beatrixlaan,13,,,3738VG,Maartensdijk,De Bilt,Utrecht,VBO,5.181691,52.156271
Prinses Beatrixlaan,15,,,3738VG,Maartensdijk,De Bilt,Utrecht,VBO,5.181604,52.156291
Prinses Beatrixlaan,17,,,3738VG,Maartensdijk,De Bilt,Utrecht,VBO,5.181411,52.156302
Prinses Beatrixlaan,19,,,3738VG,Maartensdijk,De Bilt,Utrecht,VBO,5.181328,52.156321
Prinses Beatrixlaan,2,,,3738VH,Maartensdijk,De Bilt,Utrecht,VBO,5.181708,52.156611
Prinses Beatrixlaan,4,,,3738VH,Maartensdijk,De Bilt,Utrecht,VBO,5.181620,52.156628
Prinses Beatrixlaan,6,,,3738VH,Maartensdijk,De Bilt,Utrecht,VBO,5.181537,52.156648
Prinses Beatrixlaan,8,,,3738VH,Maartensdijk,De Bilt,Utrecht,VBO,5.181455,52.156665
Prinses Beatrixlaan,10,,,3738VH,Maartensdijk,De Bilt,Utrecht,VBO,5.181369,52.156684
Prinses Beatrixlaan,12,,,3738VH,Maartensdijk,De Bilt,Utrecht,VBO,5.181184,52.156730
Prinses Beatrixlaan,14,,,3738VH,Maartensdijk,De Bilt,Utrecht,VBO,5.181101,52.156745
Prinses Beatrixlaan,16,,,3738VH,Maartensdijk,De Bilt,Utrecht,VBO,5.181014,52.156763
Prinses Beatrixlaan,18,,,3738VH,Maartensdijk,De Bilt,Utrecht,VBO,5.180833,52.156803
Prinses Beatrixlaan,20,,,3738VH,Maartensdijk,De Bilt,Utrecht,VBO,5.180746,52.156821
Prinses Beatrixlaan,22,,,3738VH,Maartensdijk,De Bilt,Utrecht,VBO,5.180664,52.156838
Prinses Beatrixlaan,24,,,3738VH,Maartensdijk,De Bilt,Utrecht,VBO,5.180584,52.156859
Prinses Beatrixlaan,26,,,3738VH,Maartensdijk,De Bilt,Utrecht,VBO,5.180499,52.156876
Prinses Beatrixlaan,28,,,3738VH,Maartensdijk,De Bilt,Utrecht,VBO,5.180332,52.156911
Prinses Beatrixlaan,30,,,3738VH,Maartensdijk,De Bilt,Utrecht,VBO,5.180234,52.156931
Prinses Beatrixlaan,32,,,3738VH,Maartensdijk,De Bilt,Utrecht,VBO,5.180127,52.156956
Prinses Irenelaan,1,,,3738VJ,Maartensdijk,De Bilt,Utrecht,VBO,5.181551,52.155579
Prinses Irenelaan,3,,,3738VJ,Maartensdijk,De Bilt,Utrecht,VBO,5.181459,52.155596
Prinses Irenelaan,5,,,3738VJ,Maartensdijk,De Bilt,Utrecht,VBO,5.181371,52.155615
Prinses Irenelaan,7,,,3738VJ,Maartensdijk,De Bilt,Utrecht,VBO,5.181292,52.155633
Prinses Irenelaan,9,,,3738VJ,Maartensdijk,De Bilt,Utrecht,VBO,5.181213,52.155649
Prinses Irenelaan,11,,,3738VJ,Maartensdijk,De Bilt,Utrecht,VBO,5.181109,52.155667
Prinses Irenelaan,13,,,3738VJ,Maartensdijk,De Bilt,Utrecht,VBO,5.180960,52.155676
Prinses Irenelaan,15,,,3738VJ,Maartensdijk,De Bilt,Utrecht,VBO,5.180878,52.155694
Prinses Irenelaan,17,,,3738VJ,Maartensdijk,De Bilt,Utrecht,VBO,5.180795,52.155711
Prinses Irenelaan,19,,,3738VJ,Maartensdijk,De Bilt,Utrecht,VBO,5.180716,52.155729
Prinses Irenelaan,21,,,3738VJ,Maartensdijk,De Bilt,Utrecht,VBO,5.180630,52.155746
Prinses Irenelaan,23,,,3738VJ,Maartensdijk,De Bilt,Utrecht,VBO,5.180549,52.155764
Prinses Irenelaan,25,,,3738VJ,Maartensdijk,De Bilt,Utrecht,VBO,5.180467,52.155779
Prinses Irenelaan,27,,,3738VJ,Maartensdijk,De Bilt,Utrecht,VBO,5.180340,52.155830
Prinses Irenelaan,29,,,3738VJ,Maartensdijk,De Bilt,Utrecht,VBO,5.180259,52.155853
Prinses Irenelaan,31,,,3738VJ,Maartensdijk,De Bilt,Utrecht,VBO,5.180184,52.155876
Prinses Irenelaan,33,,,3738VJ,Maartensdijk,De Bilt,Utrecht,VBO,5.180097,52.155893
Prinses Irenelaan,35,,,3738VJ,Maartensdijk,De Bilt,Utrecht,VBO,5.180017,52.155915
Prinses Irenelaan,37,,,3738VJ,Maartensdijk,De Bilt,Utrecht,VBO,5.179926,52.155931
Prinses Irenelaan,2,,,3738VK,Maartensdijk,De Bilt,Utrecht,VBO,5.181643,52.155828
Prinses Irenelaan,4,,,3738VK,Maartensdijk,De Bilt,Utrecht,VBO,5.181549,52.155844
Prinses Irenelaan,6,,,3738VK,Maartensdijk,De Bilt,Utrecht,VBO,5.181465,52.155866
Prinses Irenelaan,8,,,3738VK,Maartensdijk,De Bilt,Utrecht,VBO,5.181368,52.155887
Prinses Irenelaan,10,,,3738VK,Maartensdijk,De Bilt,Utrecht,VBO,5.181196,52.155923
Prinses Irenelaan,12,,,3738VK,Maartensdijk,De Bilt,Utrecht,VBO,5.181098,52.155938
Prinses Irenelaan,14,,,3738VK,Maartensdijk,De Bilt,Utrecht,VBO,5.180687,52.156345
Prinses Margrietlaan,1,,,3738VL,Maartensdijk,De Bilt,Utrecht,VBO,5.180642,52.155126
Prinses Margrietlaan,2,,TR,3738VL,Maartensdijk,De Bilt,Utrecht,VBO,5.181459,52.155183
Prinses Margrietlaan,2,,,3738VL,Maartensdijk,De Bilt,Utrecht,VBO,5.181714,52.155128
Prinses Margrietlaan,4,,,3738VL,Maartensdijk,De Bilt,Utrecht,VBO,5.181331,52.155218
Prinses Margrietlaan,6,,,3738VL,Maartensdijk,De Bilt,Utrecht,VBO,5.181254,52.155233
Prinses Margrietlaan,8,,,3738VL,Maartensdijk,De Bilt,Utrecht,VBO,5.181172,52.155252
Prinses Margrietlaan,10,,,3738VL,Maartensdijk,De Bilt,Utrecht,VBO,5.181078,52.155271
Prinses Margrietlaan,12,,,3738VL,Maartensdijk,De Bilt,Utrecht,VBO,5.180994,52.155292
Prinses Margrietlaan,14,,,3738VL,Maartensdijk,De Bilt,Utrecht,VBO,5.180906,52.155311
Prinses Margrietlaan,16,,,3738VL,Maartensdijk,De Bilt,Utrecht,VBO,5.180783,52.155364
Prinses Margrietlaan,18,,,3738VL,Maartensdijk,De Bilt,Utrecht,VBO,5.180705,52.155380
Prinses Margrietlaan,20,,,3738VL,Maartensdijk,De Bilt,Utrecht,VBO,5.180615,52.155399
Prinses Margrietlaan,22,,,3738VL,Maartensdijk,De Bilt,Utrecht,VBO,5.180529,52.155415
Prinses Margrietlaan,24,,,3738VL,Maartensdijk,De Bilt,Utrecht,VBO,5.180448,52.155434
Prinses Margrietlaan,26,,,3738VL,Maartensdijk,De Bilt,Utrecht,VBO,5.180366,52.155450
Prinses Margrietlaan,28,,,3738VL,Maartensdijk,De Bilt,Utrecht,VBO,5.180287,52.155470
Prinses Margrietlaan,30,,,3738VL,Maartensdijk,De Bilt,Utrecht,VBO,5.180134,52.155485
Prinses Margrietlaan,32,,,3738VL,Maartensdijk,De Bilt,Utrecht,VBO,5.180053,52.155501
Prinses Margrietlaan,34,,,3738VL,Maartensdijk,De Bilt,Utrecht,VBO,5.179972,52.155517
Prinses Margrietlaan,36,,,3738VL,Maartensdijk,De Bilt,Utrecht,VBO,5.179888,52.155538
Prinses Margrietlaan,38,,,3738VL,Maartensdijk,De Bilt,Utrecht,VBO,5.179800,52.155557
Prinses Margrietlaan,40,,,3738VL,Maartensdijk,De Bilt,Utrecht,VBO,5.179716,52.155574
Dillenburg,1,,,3738VM,Maartensdijk,De Bilt,Utrecht,VBO,5.179233,52.152541
Dillenburg,3,,,3738VM,Maartensdijk,De Bilt,Utrecht,VBO,5.179248,52.152592
Dillenburg,5,,,3738VM,Maartensdijk,De Bilt,Utrecht,VBO,5.179191,52.152570
Dillenburg,7,,,3738VM,Maartensdijk,De Bilt,Utrecht,VBO,5.179180,52.152609
Dillenburg,9,,,3738VM,Maartensdijk,De Bilt,Utrecht,VBO,5.179287,52.152636
Dillenburg,11,,,3738VM,Maartensdijk,De Bilt,Utrecht,VBO,5.179309,52.152681
Dillenburg,13,,,3738VM,Maartensdijk,De Bilt,Utrecht,VBO,5.179247,52.152662
Dillenburg,15,,,3738VM,Maartensdijk,De Bilt,Utrecht,VBO,5.179246,52.152700
Dillenburg,17,,,3738VM,Maartensdijk,De Bilt,Utrecht,VBO,5.179444,52.152707
Dillenburg,19,,,3738VM,Maartensdijk,De Bilt,Utrecht,VBO,5.179459,52.152753
Dillenburg,21,,,3738VM,Maartensdijk,De Bilt,Utrecht,VBO,5.179383,52.152726
Dillenburg,23,,,3738VM,Maartensdijk,De Bilt,Utrecht,VBO,5.179393,52.152770
Dillenburg,25,,,3738VM,Maartensdijk,De Bilt,Utrecht,VBO,5.179491,52.152801
Dillenburg,27,,,3738VM,Maartensdijk,De Bilt,Utrecht,VBO,5.179511,52.152850
Dillenburg,29,,,3738VM,Maartensdijk,De Bilt,Utrecht,VBO,5.179450,52.152831
Dillenburg,31,,,3738VM,Maartensdijk,De Bilt,Utrecht,VBO,5.179434,52.152871
Dillenburg,2,,TR,3738VN,Maartensdijk,De Bilt,Utrecht,VBO,5.179522,52.152295
Dillenburg,2,,,3738VN,Maartensdijk,De Bilt,Utrecht,VBO,5.179615,52.152418
Dillenburg,4,,,3738VN,Maartensdijk,De Bilt,Utrecht,VBO,5.179635,52.152472
Dillenburg,6,,,3738VN,Maartensdijk,De Bilt,Utrecht,VBO,5.179712,52.152575
Dillenburg,8,,,3738VN,Maartensdijk,De Bilt,Utrecht,VBO,5.179748,52.152625
Dillenburg,10,,,3738VN,Maartensdijk,De Bilt,Utrecht,VBO,5.179809,52.152728
Dillenburg,12,,,3738VN,Maartensdijk,De Bilt,Utrecht,VBO,5.179838,52.152775
Drakensteyn,33,,,3738VP,Maartensdijk,De Bilt,Utrecht,VBO,5.179023,52.153638
Drakensteyn,35,,,3738VP,Maartensdijk,De Bilt,Utrecht,VBO,5.179101,52.153620
Drakensteyn,37,,,3738VP,Maartensdijk,De Bilt,Utrecht,VBO,5.179172,52.153606
Drakensteyn,39,,,3738VP,Maartensdijk,De Bilt,Utrecht,VBO,5.179243,52.153590
Drakensteyn,41,,,3738VP,Maartensdijk,De Bilt,Utrecht,VBO,5.179389,52.153563
Drakensteyn,43,,,3738VP,Maartensdijk,De Bilt,Utrecht,VBO,5.179468,52.153548
Drakensteyn,45,,,3738VP,Maartensdijk,De Bilt,Utrecht,VBO,5.179539,52.153536
Drakensteyn,47,,,3738VP,Maartensdijk,De Bilt,Utrecht,VBO,5.179623,52.153522
Drakensteyn,49,,,3738VP,Maartensdijk,De Bilt,Utrecht,VBO,5.179711,52.153505
Drakensteyn,51,,,3738VP,Maartensdijk,De Bilt,Utrecht,VBO,5.179793,52.153489
Drakensteyn,53,,,3738VP,Maartensdijk,De Bilt,Utrecht,VBO,5.179866,52.153470
Drakensteyn,55,,,3738VP,Maartensdijk,De Bilt,Utrecht,VBO,5.179935,52.153455
Drakensteyn,8,,,3738VR,Maartensdijk,De Bilt,Utrecht,VBO,5.178630,52.153377
Drakensteyn,10,,,3738VR,Maartensdijk,De Bilt,Utrecht,VBO,5.178721,52.153325
Drakensteyn,12,,,3738VR,Maartensdijk,De Bilt,Utrecht,VBO,5.178793,52.153314
Drakensteyn,14,,,3738VR,Maartensdijk,De Bilt,Utrecht,VBO,5.178875,52.153296
Drakensteyn,16,,,3738VR,Maartensdijk,De Bilt,Utrecht,VBO,5.178951,52.153280
Drakensteyn,18,,,3738VR,Maartensdijk,De Bilt,Utrecht,VBO,5.179078,52.153275
Drakensteyn,20,,,3738VR,Maartensdijk,De Bilt,Utrecht,VBO,5.179163,52.153261
Drakensteyn,22,,,3738VR,Maartensdijk,De Bilt,Utrecht,VBO,5.179233,52.153245
Drakensteyn,24,,,3738VR,Maartensdijk,De Bilt,Utrecht,VBO,5.179319,52.153225
Drakensteyn,32,,,3738VR,Maartensdijk,De Bilt,Utrecht,VBO,5.179577,52.153196
Prinses Arianelaan,1,,,3738VR,Maartensdijk,De Bilt,Utrecht,VBO,5.180291,52.153344
Prinses Arianelaan,3,,,3738VR,Maartensdijk,De Bilt,Utrecht,VBO,5.180212,52.153361
Prinses Arianelaan,5,,,3738VR,Maartensdijk,De Bilt,Utrecht,VBO,5.180140,52.153377
Prinses Arianelaan,7,,,3738VR,Maartensdijk,De Bilt,Utrecht,VBO,5.180073,52.153403
't Loo,1,,,3738VS,Maartensdijk,De Bilt,Utrecht,VBO,5.178930,52.152693
't Loo,2,,,3738VS,Maartensdijk,De Bilt,Utrecht,VBO,5.179062,52.152928
't Loo,3,,,3738VS,Maartensdijk,De Bilt,Utrecht,VBO,5.178827,52.152714
't Loo,4,,,3738VS,Maartensdijk,De Bilt,Utrecht,VBO,5.178979,52.152942
't Loo,5,,,3738VS,Maartensdijk,De Bilt,Utrecht,VBO,5.178675,52.152736
't Loo,6,,,3738VS,Maartensdijk,De Bilt,Utrecht,VBO,5.178906,52.152959
't Loo,7,,,3738VS,Maartensdijk,De Bilt,Utrecht,VBO,5.178571,52.152767
't Loo,8,,,3738VS,Maartensdijk,De Bilt,Utrecht,VBO,5.178824,52.152976
't Loo,9,,,3738VS,Maartensdijk,De Bilt,Utrecht,VBO,5.178412,52.152788
't Loo,10,,,3738VS,Maartensdijk,De Bilt,Utrecht,VBO,5.178661,52.153004
't Loo,11,,,3738VS,Maartensdijk,De Bilt,Utrecht,VBO,5.178283,52.152809
't Loo,12,,,3738VS,Maartensdijk,De Bilt,Utrecht,VBO,5.178578,52.153022
't Loo,14,,,3738VS,Maartensdijk,De Bilt,Utrecht,VBO,5.178505,52.153038
't Loo,16,,,3738VS,Maartensdijk,De Bilt,Utrecht,VBO,5.178427,52.153058
't Loo,18,,,3738VS,Maartensdijk,De Bilt,Utrecht,VBO,5.178218,52.153083
Noordeinde,1,,,3738VT,Maartensdijk,De Bilt,Utrecht,VBO,5.179096,52.152306
Noordeinde,2,,,3738VT,Maartensdijk,De Bilt,Utrecht,VBO,5.178858,52.151660
Noordeinde,3,,,3738VT,Maartensdijk,De Bilt,Utrecht,VBO,5.179114,52.152348
Noordeinde,4,,,3738VT,Maartensdijk,De Bilt,Utrecht,VBO,5.178919,52.151747
Noordeinde,5,,,3738VT,Maartensdijk,De Bilt,Utrecht,VBO,5.179133,52.152397
Noordeinde,6,,,3738VT,Maartensdijk,De Bilt,Utrecht,VBO,5.178986,52.151827
Noordeinde,8,,,3738VT,Maartensdijk,De Bilt,Utrecht,VBO,5.179049,52.151909
Noordeinde,10,,,3738VT,Maartensdijk,De Bilt,Utrecht,VBO,5.179108,52.151988
Noordeinde,12,,,3738VT,Maartensdijk,De Bilt,Utrecht,VBO,5.179171,52.152075
Beverweerd,1,,,3738VV,Maartensdijk,De Bilt,Utrecht,VBO,5.178273,52.152545
Beverweerd,3,,,3738VV,Maartensdijk,De Bilt,Utrecht,VBO,5.178254,52.152496
Beverweerd,5,,,3738VV,Maartensdijk,De Bilt,Utrecht,VBO,5.178224,52.152443
Beverweerd,7,,,3738VV,Maartensdijk,De Bilt,Utrecht,VBO,5.178099,52.152209
Beverweerd,9,,,3738VV,Maartensdijk,De Bilt,Utrecht,VBO,5.178064,52.152153
Beverweerd,11,,,3738VV,Maartensdijk,De Bilt,Utrecht,VBO,5.177980,52.151940
Beverweerd,13,,,3738VV,Maartensdijk,De Bilt,Utrecht,VBO,5.177961,52.151895
Beverweerd,15,,,3738VV,Maartensdijk,De Bilt,Utrecht,VBO,5.177939,52.151845
Nassauhof,1,,,3738VW,Maartensdijk,De Bilt,Utrecht,VBO,5.178283,52.152381
Nassauhof,2,,,3738VW,Maartensdijk,De Bilt,Utrecht,VBO,5.178212,52.152251
Nassauhof,3,,,3738VW,Maartensdijk,De Bilt,Utrecht,VBO,5.178483,52.152416
Nassauhof,4,,,3738VW,Maartensdijk,De Bilt,Utrecht,VBO,5.178343,52.152163
Nassauhof,5,,,3738VW,Maartensdijk,De Bilt,Utrecht,VBO,5.178569,52.152403
Nassauhof,6,,,3738VW,Maartensdijk,De Bilt,Utrecht,VBO,5.178438,52.152146
Nassauhof,7,,,3738VW,Maartensdijk,De Bilt,Utrecht,VBO,5.178647,52.152387
Nassauhof,8,,,3738VW,Maartensdijk,De Bilt,Utrecht,VBO,5.178519,52.152131
Nassauhof,9,,,3738VW,Maartensdijk,De Bilt,Utrecht,VBO,5.178729,52.152374
Nassauhof,10,,,3738VW,Maartensdijk,De Bilt,Utrecht,VBO,5.178590,52.152119
Nassauhof,11,,,3738VW,Maartensdijk,De Bilt,Utrecht,VBO,5.178804,52.152358
Nassauhof,12,,,3738VW,Maartensdijk,De Bilt,Utrecht,VBO,5.178666,52.152105
Nassauhof,13,,,3738VW,Maartensdijk,De Bilt,Utrecht,VBO,5.178879,52.152342
Prinses Amalialaan,2,,,3738VX,Maartensdijk,De Bilt,Utrecht,VBO,5.180459,52.153644
Prinses Amalialaan,4,,,3738VX,Maartensdijk,De Bilt,Utrecht,VBO,5.180410,52.153672
Prinses Amalialaan,6,,,3738VX,Maartensdijk,De Bilt,Utrecht,VBO,5.180336,52.153687
Prinses Amalialaan,8,,,3738VX,Maartensdijk,De Bilt,Utrecht,VBO,5.180210,52.153706
Prinses Amalialaan,10,,,3738VX,Maartensdijk,De Bilt,Utrecht,VBO,5.180151,52.153848
Prinses Amalialaan,12,,,3738VX,Maartensdijk,De Bilt,Utrecht,VBO,5.180071,52.153865
Prinses Amalialaan,14,,,3738VX,Maartensdijk,De Bilt,Utrecht,VBO,5.179900,52.153905
Prinses Amalialaan,16,,,3738VX,Maartensdijk,De Bilt,Utrecht,VBO,5.179814,52.153922
Prinses Amalialaan,18,,,3738VX,Maartensdijk,De Bilt,Utrecht,VBO,5.179644,52.153958
Prinses Amalialaan,20,,,3738VX,Maartensdijk,De Bilt,Utrecht,VBO,5.179561,52.153974
Prinses Amalialaan,22,,,3738VX,Maartensdijk,De Bilt,Utrecht,VBO,5.179393,52.154011
Prinses Amalialaan,24,,,3738VX,Maartensdijk,De Bilt,Utrecht,VBO,5.179308,52.154029
Prinses Alexialaan,2,,,3738VZ,Maartensdijk,De Bilt,Utrecht,VBO,5.178737,52.153793
Prinses Alexialaan,4,,,3738VZ,Maartensdijk,De Bilt,Utrecht,VBO,5.178737,52.153793
Prinses Alexialaan,6,,,3738VZ,Maartensdijk,De Bilt,Utrecht,VBO,5.178737,52.153793
Prinses Alexialaan,8,,,3738VZ,Maartensdijk,De Bilt,Utrecht,VBO,5.178737,52.153793
Prinses Alexialaan,10,,,3738VZ,Maartensdijk,De Bilt,Utrecht,VBO,5.178737,52.153793
Prinses Alexialaan,12,,,3738VZ,Maartensdijk,De Bilt,Utrecht,VBO,5.178737,52.153793
Prinses Alexialaan,14,,,3738VZ,Maartensdijk,De Bilt,Utrecht,VBO,5.178737,52.153793
Prinses Alexialaan,16,,,3738VZ,Maartensdijk,De Bilt,Utrecht,VBO,5.178737,52.153793
Prinses Alexialaan,18,,,3738VZ,Maartensdijk,De Bilt,Utrecht,VBO,5.178737,52.153793
Prinses Alexialaan,20,,,3738VZ,Maartensdijk,De Bilt,Utrecht,VBO,5.178737,52.153793
Prinses Alexialaan,22,,,3738VZ,Maartensdijk,De Bilt,Utrecht,VBO,5.178867,52.154044
Prinses Alexialaan,24,,,3738VZ,Maartensdijk,De Bilt,Utrecht,VBO,5.178867,52.154044
Prinses Alexialaan,26,,,3738VZ,Maartensdijk,De Bilt,Utrecht,VBO,5.178867,52.154044
Prinses Alexialaan,28,,,3738VZ,Maartensdijk,De Bilt,Utrecht,VBO,5.178867,52.154044
Prinses Alexialaan,30,,,3738VZ,Maartensdijk,De Bilt,Utrecht,VBO,5.178867,52.154044
Prinses Alexialaan,32,,,3738VZ,Maartensdijk,De Bilt,Utrecht,VBO,5.178867,52.154044
Prinses Alexialaan,34,,,3738VZ,Maartensdijk,De Bilt,Utrecht,VBO,5.178867,52.154044
Prinses Alexialaan,36,,,3738VZ,Maartensdijk,De Bilt,Utrecht,VBO,5.178867,52.154044
Prinses Alexialaan,38,,,3738VZ,Maartensdijk,De Bilt,Utrecht,VBO,5.178867,52.154044
Prinses Alexialaan,40,,,3738VZ,Maartensdijk,De Bilt,Utrecht,VBO,5.178867,52.154044
Bovenkruier,1,,,3738WB,Maartensdijk,De Bilt,Utrecht,VBO,5.177093,52.151815
Bovenkruier,3,,,3738WB,Maartensdijk,De Bilt,Utrecht,VBO,5.177036,52.151846
Bovenkruier,5,,,3738WB,Maartensdijk,De Bilt,Utrecht,VBO,5.176974,52.151881
Bovenkruier,7,,,3738WB,Maartensdijk,De Bilt,Utrecht,VBO,5.176915,52.151913
Bovenkruier,9,,,3738WB,Maartensdijk,De Bilt,Utrecht,VBO,5.176858,52.151945
Bovenkruier,11,,,3738WB,Maartensdijk,De Bilt,Utrecht,VBO,5.176797,52.151978
Bovenkruier,13,,,3738WB,Maartensdijk,De Bilt,Utrecht,VBO,5.176743,52.152008
Bovenkruier,15,,,3738WB,Maartensdijk,De Bilt,Utrecht,VBO,5.176687,52.152040
Bovenkruier,17,,,3738WB,Maartensdijk,De Bilt,Utrecht,VBO,5.176658,52.152100
Bovenkruier,19,,,3738WB,Maartensdijk,De Bilt,Utrecht,VBO,5.176578,52.152126
Bovenkruier,21,,,3738WB,Maartensdijk,De Bilt,Utrecht,VBO,5.176340,52.152257
Bovenkruier,23,,,3738WB,Maartensdijk,De Bilt,Utrecht,VBO,5.176290,52.152306
Bovenkruier,25,,,3738WB,Maartensdijk,De Bilt,Utrecht,VBO,5.176203,52.152321
Bovenkruier,27,,,3738WB,Maartensdijk,De Bilt,Utrecht,VBO,5.176149,52.152352
Bovenkruier,29,,,3738WB,Maartensdijk,De Bilt,Utrecht,VBO,5.176089,52.152386
Bovenkruier,31,,,3738WB,Maartensdijk,De Bilt,Utrecht,VBO,5.176028,52.152420
Bovenkruier,33,,,3738WB,Maartensdijk,De Bilt,Utrecht,VBO,5.175981,52.152447
Bovenkruier,35,,,3738WB,Maartensdijk,De Bilt,Utrecht,VBO,5.175934,52.152504
Bovenkruier,37,,,3738WB,Maartensdijk,De Bilt,Utrecht,VBO,5.175864,52.152466
Bovenkruier,39,,,3738WB,Maartensdijk,De Bilt,Utrecht,VBO,5.175496,52.152399
Bovenkruier,41,,,3738WB,Maartensdijk,De Bilt,Utrecht,VBO,5.175444,52.152431
Bovenkruier,43,,,3738WB,Maartensdijk,De Bilt,Utrecht,VBO,5.175386,52.152464
Bovenkruier,45,,,3738WB,Maartensdijk,De Bilt,Utrecht,VBO,5.175324,52.152498
Bovenkruier,47,,,3738WB,Maartensdijk,De Bilt,Utrecht,VBO,5.175269,52.152531
Bovenkruier,49,,,3738WB,Maartensdijk,De Bilt,Utrecht,VBO,5.175243,52.152583
Bovenkruier,51,,,3738WB,Maartensdijk,De Bilt,Utrecht,VBO,5.175155,52.152600
Bovenkruier,2,,,3738WC,Maartensdijk,De Bilt,Utrecht,VBO,5.177224,52.152044
Bovenkruier,4,,,3738WC,Maartensdijk,De Bilt,Utrecht,VBO,5.177160,52.152079
Bovenkruier,6,,,3738WC,Maartensdijk,De Bilt,Utrecht,VBO,5.177104,52.152109
Bovenkruier,8,,,3738WC,Maartensdijk,De Bilt,Utrecht,VBO,5.177038,52.152145
Bovenkruier,10,,,3738WC,Maartensdijk,De Bilt,Utrecht,VBO,5.176981,52.152177
Bovenkruier,12,,,3738WC,Maartensdijk,De Bilt,Utrecht,VBO,5.176925,52.152207
Bovenkruier,14,,,3738WC,Maartensdijk,De Bilt,Utrecht,VBO,5.176834,52.152223
Bovenkruier,16,,,3738WC,Maartensdijk,De Bilt,Utrecht,VBO,5.176793,52.152271
Bovenkruier,18,,,3738WC,Maartensdijk,De Bilt,Utrecht,VBO,5.176560,52.152410
Bovenkruier,20,,,3738WC,Maartensdijk,De Bilt,Utrecht,VBO,5.176465,52.152430
Bovenkruier,22,,,3738WC,Maartensdijk,De Bilt,Utrecht,VBO,5.176453,52.152487
Bovenkruier,24,,,3738WC,Maartensdijk,De Bilt,Utrecht,VBO,5.176397,52.152518
Bovenkruier,26,,,3738WC,Maartensdijk,De Bilt,Utrecht,VBO,5.176338,52.152550
Bovenkruier,28,,,3738WC,Maartensdijk,De Bilt,Utrecht,VBO,5.176277,52.152583
Bovenkruier,30,,,3738WC,Maartensdijk,De Bilt,Utrecht,VBO,5.176219,52.152615
Bovenkruier,32,,,3738WC,Maartensdijk,De Bilt,Utrecht,VBO,5.176158,52.152648
Bovenkruier,34,,,3738WC,Maartensdijk,De Bilt,Utrecht,VBO,5.176098,52.152681
Bovenkruier,36,,,3738WC,Maartensdijk,De Bilt,Utrecht,VBO,5.176038,52.152714
Bovenkruier,38,,,3738WC,Maartensdijk,De Bilt,Utrecht,VBO,5.175984,52.152743
Bovenkruier,40,,,3738WC,Maartensdijk,De Bilt,Utrecht,VBO,5.175924,52.152775
Bovenkruier,42,,,3738WC,Maartensdijk,De Bilt,Utrecht,VBO,5.175865,52.152808
Bovenkruier,44,,,3738WC,Maartensdijk,De Bilt,Utrecht,VBO,5.175733,52.152807
Bovenkruier,46,,TR,3738WC,Maartensdijk,De Bilt,Utrecht,VBO,5.175735,52.152955
Bovenkruier,46,,,3738WC,Maartensdijk,De Bilt,Utrecht,VBO,5.175804,52.152839
Bovenkruier,48,,,3738WD,Maartensdijk,De Bilt,Utrecht,VBO,5.175415,52.152946
Bovenkruier,50,,,3738WD,Maartensdijk,De Bilt,Utrecht,VBO,5.175505,52.152913
Bovenkruier,52,,,3738WD,Maartensdijk,De Bilt,Utrecht,VBO,5.175400,52.152899
Bovenkruier,54,,,3738WD,Maartensdijk,De Bilt,Utrecht,VBO,5.175352,52.152865
Bovenkruier,56,,,3738WD,Maartensdijk,De Bilt,Utrecht,VBO,5.175293,52.152825
Bovenkruier,58,,,3738WD,Maartensdijk,De Bilt,Utrecht,VBO,5.175257,52.152785
Bovenkruier,60,,,3738WD,Maartensdijk,De Bilt,Utrecht,VBO,5.175172,52.152755
Bovenkruier,62,,,3738WD,Maartensdijk,De Bilt,Utrecht,VBO,5.175062,52.152772
Bovenkruier,64,,,3738WD,Maartensdijk,De Bilt,Utrecht,VBO,5.175038,52.152822
Bovenkruier,66,,,3738WD,Maartensdijk,De Bilt,Utrecht,VBO,5.174986,52.152852
Bovenkruier,68,,,3738WD,Maartensdijk,De Bilt,Utrecht,VBO,5.174923,52.152888
Bovenkruier,70,,,3738WD,Maartensdijk,De Bilt,Utrecht,VBO,5.174860,52.152923
Bovenkruier,72,,,3738WD,Maartensdijk,De Bilt,Utrecht,VBO,5.174803,52.152955
Bovenkruier,74,,,3738WD,Maartensdijk,De Bilt,Utrecht,VBO,5.174732,52.152982
Bovenkruier,76,,,3738WD,Maartensdijk,De Bilt,Utrecht,VBO,5.174786,52.153015
Molenwiek,1,,,3738WE,Maartensdijk,De Bilt,Utrecht,VBO,5.177202,52.152514
Molenwiek,3,,,3738WE,Maartensdijk,De Bilt,Utrecht,VBO,5.177147,52.152479
Molenwiek,5,,,3738WE,Maartensdijk,De Bilt,Utrecht,VBO,5.177096,52.152446
Molenwiek,7,,,3738WE,Maartensdijk,De Bilt,Utrecht,VBO,5.177040,52.152410
Molenwiek,9,,,3738WE,Maartensdijk,De Bilt,Utrecht,VBO,5.176984,52.152374
Molenwiek,11,,,3738WE,Maartensdijk,De Bilt,Utrecht,VBO,5.176929,52.152339
Molenwiek,13,,,3738WE,Maartensdijk,De Bilt,Utrecht,VBO,5.176819,52.152320
Molenwiek,15,,,3738WE,Maartensdijk,De Bilt,Utrecht,VBO,5.176488,52.152093
Molenwiek,17,,,3738WE,Maartensdijk,De Bilt,Utrecht,VBO,5.176474,52.152045
Molenwiek,19,,,3738WE,Maartensdijk,De Bilt,Utrecht,VBO,5.176424,52.152011
Molenwiek,21,,,3738WE,Maartensdijk,De Bilt,Utrecht,VBO,5.176370,52.151975
Molenwiek,23,,,3738WE,Maartensdijk,De Bilt,Utrecht,VBO,5.176315,52.151937
Molenwiek,25,,,3738WE,Maartensdijk,De Bilt,Utrecht,VBO,5.176263,52.151902
Molenwiek,27,,,3738WE,Maartensdijk,De Bilt,Utrecht,VBO,5.176171,52.151877
Molenwiek,29,,,3738WE,Maartensdijk,De Bilt,Utrecht,VBO,5.176236,52.151830
Molenwiek,2,,,3738WG,Maartensdijk,De Bilt,Utrecht,VBO,5.176921,52.152661
Molenwiek,4,,,3738WG,Maartensdijk,De Bilt,Utrecht,VBO,5.176878,52.152633
Molenwiek,6,,,3738WG,Maartensdijk,De Bilt,Utrecht,VBO,5.176827,52.152599
Molenwiek,8,,,3738WG,Maartensdijk,De Bilt,Utrecht,VBO,5.176773,52.152563
Molenwiek,10,,,3738WG,Maartensdijk,De Bilt,Utrecht,VBO,5.176715,52.152525
Molenwiek,12,,,3738WG,Maartensdijk,De Bilt,Utrecht,VBO,5.176667,52.152493
Molenwiek,14,,,3738WG,Maartensdijk,De Bilt,Utrecht,VBO,5.176639,52.152428
Molenwiek,16,,,3738WG,Maartensdijk,De Bilt,Utrecht,VBO,5.176287,52.152202
Molenwiek,18,,,3738WG,Maartensdijk,De Bilt,Utrecht,VBO,5.176220,52.152186
Molenwiek,20,,,3738WG,Maartensdijk,De Bilt,Utrecht,VBO,5.176173,52.152156
Molenwiek,22,,,3738WG,Maartensdijk,De Bilt,Utrecht,VBO,5.176121,52.152123
Molenwiek,24,,,3738WG,Maartensdijk,De Bilt,Utrecht,VBO,5.176060,52.152084
Molenwiek,26,,,3738WG,Maartensdijk,De Bilt,Utrecht,VBO,5.176003,52.152047
Molenwiek,28,,,3738WG,Maartensdijk,De Bilt,Utrecht,VBO,5.175950,52.152013
Molenwiek,30,,,3738WG,Maartensdijk,De Bilt,Utrecht,VBO,5.175892,52.151976
Molenwiek,32,,,3738WG,Maartensdijk,De Bilt,Utrecht,VBO,5.175854,52.151918
Molenwiek,34,,,3738WG,Maartensdijk,De Bilt,Utrecht,VBO,5.175787,52.151956
Maalsteen,2,,,3738WH,Maartensdijk,De Bilt,Utrecht,VBO,5.175575,52.152383
Maalsteen,4,,,3738WH,Maartensdijk,De Bilt,Utrecht,VBO,5.175506,52.152333
Maalsteen,6,,,3738WH,Maartensdijk,De Bilt,Utrecht,VBO,5.175298,52.152257
Maalsteen,8,,,3738WH,Maartensdijk,De Bilt,Utrecht,VBO,5.175366,52.152205
Maalsteen,10,,,3738WH,Maartensdijk,De Bilt,Utrecht,VBO,5.175271,52.152195
Maalsteen,12,,,3738WH,Maartensdijk,De Bilt,Utrecht,VBO,5.175223,52.152164
Maalsteen,14,,,3738WH,Maartensdijk,De Bilt,Utrecht,VBO,5.175170,52.152127
Maalsteen,16,,,3738WH,Maartensdijk,De Bilt,Utrecht,VBO,5.175114,52.152088
Maalsteen,18,,,3738WH,Maartensdijk,De Bilt,Utrecht,VBO,5.175064,52.152056
Maalsteen,20,,,3738WH,Maartensdijk,De Bilt,Utrecht,VBO,5.175006,52.152020
Grondzeiler,1,,,3738WJ,Maartensdijk,De Bilt,Utrecht,VBO,5.174280,52.152351
Grondzeiler,3,,,3738WJ,Maartensdijk,De Bilt,Utrecht,VBO,5.174337,52.152319
Grondzeiler,5,,,3738WJ,Maartensdijk,De Bilt,Utrecht,VBO,5.174394,52.152287
Grondzeiler,7,,,3738WJ,Maartensdijk,De Bilt,Utrecht,VBO,5.174453,52.152254
Grondzeiler,9,,,3738WJ,Maartensdijk,De Bilt,Utrecht,VBO,5.174514,52.152220
Grondzeiler,11,,,3738WJ,Maartensdijk,De Bilt,Utrecht,VBO,5.174574,52.152186
Grondzeiler,13,,,3738WJ,Maartensdijk,De Bilt,Utrecht,VBO,5.174630,52.152155
Grondzeiler,15,,,3738WJ,Maartensdijk,De Bilt,Utrecht,VBO,5.174686,52.152123
Grondzeiler,17,,,3738WJ,Maartensdijk,De Bilt,Utrecht,VBO,5.174743,52.152091
Grondzeiler,19,,,3738WJ,Maartensdijk,De Bilt,Utrecht,VBO,5.174801,52.152059
Grondzeiler,21,,,3738WJ,Maartensdijk,De Bilt,Utrecht,VBO,5.174843,52.152015
Grondzeiler,23,,,3738WJ,Maartensdijk,De Bilt,Utrecht,VBO,5.174929,52.151993
Windvang,2,,,3738WK,Maartensdijk,De Bilt,Utrecht,VBO,5.174479,52.152610
Windvang,4,,,3738WK,Maartensdijk,De Bilt,Utrecht,VBO,5.174419,52.152638
Windvang,6,,,3738WK,Maartensdijk,De Bilt,Utrecht,VBO,5.174366,52.152673
Windvang,8,,,3738WK,Maartensdijk,De Bilt,Utrecht,VBO,5.174303,52.152708
Windvang,10,,,3738WK,Maartensdijk,De Bilt,Utrecht,VBO,5.174233,52.152742
Windvang,12,,,3738WK,Maartensdijk,De Bilt,Utrecht,VBO,5.174179,52.152774
Windvang,14,,,3738WK,Maartensdijk,De Bilt,Utrecht,VBO,5.174076,52.152778
Windvang,16,,,3738WK,Maartensdijk,De Bilt,Utrecht,VBO,5.174040,52.152833
Windvang,18,,,3738WK,Maartensdijk,De Bilt,Utrecht,VBO,5.174067,52.152896
Windvang,20,,,3738WK,Maartensdijk,De Bilt,Utrecht,VBO,5.174149,52.152915
Windvang,22,,,3738WK,Maartensdijk,De Bilt,Utrecht,VBO,5.174207,52.152948
Windvang,24,,,3738WK,Maartensdijk,De Bilt,Utrecht,VBO,5.174260,52.152985
Windvang,26,,,3738WK,Maartensdijk,De Bilt,Utrecht,VBO,5.174320,52.153020
Windvang,28,,,3738WK,Maartensdijk,De Bilt,Utrecht,VBO,5.174375,52.153054
Windvang,30,,GB1,3738WK,Maartensdijk,De Bilt,Utrecht,VBO,5.174309,52.153251
Windvang,30,,GB2,3738WK,Maartensdijk,De Bilt,Utrecht,VBO,5.174275,52.153270
Windvang,30,,GB3,3738WK,Maartensdijk,De Bilt,Utrecht,VBO,5.174245,52.153290
Windvang,30,,GB4,3738WK,Maartensdijk,De Bilt,Utrecht,VBO,5.174216,52.153301
Windvang,30,,,3738WK,Maartensdijk,De Bilt,Utrecht,VBO,5.174424,52.153089
Korenmolen,1,,,3738WL,Maartensdijk,De Bilt,Utrecht,VBO,5.175083,52.152570
Korenmolen,3,,,3738WL,Maartensdijk,De Bilt,Utrecht,VBO,5.175037,52.152527
Korenmolen,5,,,3738WL,Maartensdijk,De Bilt,Utrecht,VBO,5.174988,52.152493
Korenmolen,7,,,3738WL,Maartensdijk,De Bilt,Utrecht,VBO,5.174933,52.152455
Korenmolen,9,,,3738WL,Maartensdijk,De Bilt,Utrecht,VBO,5.174878,52.152421
Korenmolen,11,,,3738WL,Maartensdijk,De Bilt,Utrecht,VBO,5.174824,52.152383
Korenmolen,13,,,3738WL,Maartensdijk,De Bilt,Utrecht,VBO,5.174768,52.152349
Sterrenlaan,1,,,3738XA,Maartensdijk,De Bilt,Utrecht,VBO,5.178193,52.151844
Sterrenlaan,2,,,3738XA,Maartensdijk,De Bilt,Utrecht,VBO,5.177631,52.151618
Sterrenlaan,3,,,3738XA,Maartensdijk,De Bilt,Utrecht,VBO,5.178277,52.151830
Sterrenlaan,4,,,3738XA,Maartensdijk,De Bilt,Utrecht,VBO,5.177718,52.151604
Sterrenlaan,5,,,3738XA,Maartensdijk,De Bilt,Utrecht,VBO,5.178356,52.151815
Sterrenlaan,6,,,3738XA,Maartensdijk,De Bilt,Utrecht,VBO,5.177764,52.151578
Sterrenlaan,7,,,3738XA,Maartensdijk,De Bilt,Utrecht,VBO,5.178433,52.151799
Sterrenlaan,8,,,3738XA,Maartensdijk,De Bilt,Utrecht,VBO,5.177813,52.151531
Sterrenlaan,9,,,3738XA,Maartensdijk,De Bilt,Utrecht,VBO,5.178514,52.151781
Sterrenlaan,10,,,3738XA,Maartensdijk,De Bilt,Utrecht,VBO,5.177862,52.151500
Sterrenlaan,11,,,3738XA,Maartensdijk,De Bilt,Utrecht,VBO,5.178860,52.151561
Sterrenlaan,12,,,3738XA,Maartensdijk,De Bilt,Utrecht,VBO,5.177908,52.151450
Sterrenlaan,13,,,3738XA,Maartensdijk,De Bilt,Utrecht,VBO,5.178827,52.151478
Sterrenlaan,14,,,3738XA,Maartensdijk,De Bilt,Utrecht,VBO,5.177992,52.151379
Sterrenlaan,16,,,3738XA,Maartensdijk,De Bilt,Utrecht,VBO,5.178076,52.151365
Sterrenlaan,18,,,3738XA,Maartensdijk,De Bilt,Utrecht,VBO,5.178147,52.151334
Sterrenlaan,20,,,3738XA,Maartensdijk,De Bilt,Utrecht,VBO,5.178229,52.151322
Sterrenlaan,22,,,3738XA,Maartensdijk,De Bilt,Utrecht,VBO,5.178277,52.151297
Sterrenlaan,24,,,3738XA,Maartensdijk,De Bilt,Utrecht,VBO,5.178318,52.151250
Marshof,1,,,3738XB,Maartensdijk,De Bilt,Utrecht,VBO,5.178737,52.151238
Marshof,2,,,3738XB,Maartensdijk,De Bilt,Utrecht,VBO,5.178007,52.151165
Marshof,3,,,3738XB,Maartensdijk,De Bilt,Utrecht,VBO,5.178709,52.151191
Marshof,4,,,3738XB,Maartensdijk,De Bilt,Utrecht,VBO,5.177980,52.151118
Marshof,5,,,3738XB,Maartensdijk,De Bilt,Utrecht,VBO,5.178667,52.151153
Marshof,6,,,3738XB,Maartensdijk,De Bilt,Utrecht,VBO,5.177949,52.151089
Marshof,7,,,3738XB,Maartensdijk,De Bilt,Utrecht,VBO,5.178645,52.151099
Marshof,8,,,3738XB,Maartensdijk,De Bilt,Utrecht,VBO,5.177869,52.151068
Marshof,9,,,3738XB,Maartensdijk,De Bilt,Utrecht,VBO,5.178585,52.151051
Marshof,10,,,3738XB,Maartensdijk,De Bilt,Utrecht,VBO,5.177811,52.151023
Marshof,11,,,3738XB,Maartensdijk,De Bilt,Utrecht,VBO,5.178493,52.151028
Marshof,12,,,3738XB,Maartensdijk,De Bilt,Utrecht,VBO,5.177734,52.150984
Marshof,13,,,3738XB,Maartensdijk,De Bilt,Utrecht,VBO,5.178522,52.150921
Marshof,15,,,3738XB,Maartensdijk,De Bilt,Utrecht,VBO,5.178437,52.150904
Marshof,17,,,3738XB,Maartensdijk,De Bilt,Utrecht,VBO,5.178378,52.150857
Marshof,19,,,3738XB,Maartensdijk,De Bilt,Utrecht,VBO,5.178362,52.150801
Kometenlaan,2,,,3738XC,Maartensdijk,De Bilt,Utrecht,VBO,5.176243,52.150979
Kometenlaan,4,,,3738XC,Maartensdijk,De Bilt,Utrecht,VBO,5.176526,52.150921
Kometenlaan,6,,,3738XC,Maartensdijk,De Bilt,Utrecht,VBO,5.176776,52.150851
Kometenlaan,8,,,3738XC,Maartensdijk,De Bilt,Utrecht,VBO,5.176935,52.150815
Kometenlaan,10,,,3738XC,Maartensdijk,De Bilt,Utrecht,VBO,5.177205,52.150685
Kometenlaan,12,,,3738XC,Maartensdijk,De Bilt,Utrecht,VBO,5.177541,52.150683
Kometenlaan,14,,,3738XC,Maartensdijk,De Bilt,Utrecht,VBO,5.177830,52.150646
Kometenlaan,16,,,3738XC,Maartensdijk,De Bilt,Utrecht,VBO,5.178129,52.150586
Kometenlaan,18,,,3738XC,Maartensdijk,De Bilt,Utrecht,VBO,5.178364,52.150501
Kometenlaan,20,,,3738XC,Maartensdijk,De Bilt,Utrecht,VBO,5.178673,52.150401
Kometenlaan,22,,,3738XC,Maartensdijk,De Bilt,Utrecht,VBO,5.178882,52.150379
Kometenlaan,24,,,3738XC,Maartensdijk,De Bilt,Utrecht,VBO,5.178917,52.150588
Kometenlaan,26,,,3738XC,Maartensdijk,De Bilt,Utrecht,VBO,5.178998,52.150720
Kometenlaan,28,,,3738XC,Maartensdijk,De Bilt,Utrecht,VBO,5.179055,52.150850
Kometenlaan,30,,,3738XC,Maartensdijk,De Bilt,Utrecht,VBO,5.179074,52.151006
Melkweg,1,,,3738XD,Maartensdijk,De Bilt,Utrecht,VBO,5.177598,52.151424
Melkweg,3,,,3738XD,Maartensdijk,De Bilt,Utrecht,VBO,5.177515,52.151397
Melkweg,5,,,3738XD,Maartensdijk,De Bilt,Utrecht,VBO,5.177480,52.151363
Melkweg,7,,,3738XD,Maartensdijk,De Bilt,Utrecht,VBO,5.177459,52.151307
Melkweg,9,,,3738XD,Maartensdijk,De Bilt,Utrecht,VBO,5.177414,52.151269
Melkweg,11,,,3738XD,Maartensdijk,De Bilt,Utrecht,VBO,5.177373,52.151216
Melkweg,13,,,3738XD,Maartensdijk,De Bilt,Utrecht,VBO,5.177326,52.151182
Melkweg,15,,,3738XD,Maartensdijk,De Bilt,Utrecht,VBO,5.177298,52.151118
Melkweg,17,,,3738XD,Maartensdijk,De Bilt,Utrecht,VBO,5.176949,52.151146
Melkweg,19,,,3738XD,Maartensdijk,De Bilt,Utrecht,VBO,5.176904,52.151196
Melkweg,21,,,3738XD,Maartensdijk,De Bilt,Utrecht,VBO,5.176857,52.151219
Melkweg,23,,,3738XD,Maartensdijk,De Bilt,Utrecht,VBO,5.176778,52.151232
Melkweg,25,,,3738XD,Maartensdijk,De Bilt,Utrecht,VBO,5.176705,52.151260
Melkweg,27,,TR,3738XD,Maartensdijk,De Bilt,Utrecht,VBO,5.176538,52.151408
Melkweg,27,,,3738XD,Maartensdijk,De Bilt,Utrecht,VBO,5.176617,52.151275
Melkweg,29,,,3738XD,Maartensdijk,De Bilt,Utrecht,VBO,5.173153,52.152097
Jupiterhof,1,,,3738XE,Maartensdijk,De Bilt,Utrecht,VBO,5.175992,52.151436
Jupiterhof,3,,,3738XE,Maartensdijk,De Bilt,Utrecht,VBO,5.175941,52.151395
Jupiterhof,5,,,3738XE,Maartensdijk,De Bilt,Utrecht,VBO,5.175892,52.151359
Jupiterhof,7,,,3738XE,Maartensdijk,De Bilt,Utrecht,VBO,5.175863,52.151301
Jupiterhof,9,,,3738XE,Maartensdijk,De Bilt,Utrecht,VBO,5.175812,52.151267
Jupiterhof,11,,,3738XE,Maartensdijk,De Bilt,Utrecht,VBO,5.175785,52.151210
Jupiterhof,13,,,3738XE,Maartensdijk,De Bilt,Utrecht,VBO,5.175734,52.151172
Jupiterhof,15,,,3738XE,Maartensdijk,De Bilt,Utrecht,VBO,5.175709,52.151117
Jupiterhof,17,,,3738XE,Maartensdijk,De Bilt,Utrecht,VBO,5.175658,52.151078
Jupiterhof,19,,,3738XE,Maartensdijk,De Bilt,Utrecht,VBO,5.175584,52.151041
Saturnushof,2,,,3738XG,Maartensdijk,De Bilt,Utrecht,VBO,5.174717,52.151601
Saturnushof,4,,,3738XG,Maartensdijk,De Bilt,Utrecht,VBO,5.174810,52.151599
Saturnushof,6,,,3738XG,Maartensdijk,De Bilt,Utrecht,VBO,5.174883,52.151573
Saturnushof,8,,,3738XG,Maartensdijk,De Bilt,Utrecht,VBO,5.174916,52.151519
Saturnushof,10,,,3738XG,Maartensdijk,De Bilt,Utrecht,VBO,5.174967,52.151493
Saturnushof,12,,,3738XG,Maartensdijk,De Bilt,Utrecht,VBO,5.175008,52.151443
Saturnushof,14,,,3738XG,Maartensdijk,De Bilt,Utrecht,VBO,5.175073,52.151412
Saturnushof,16,,,3738XG,Maartensdijk,De Bilt,Utrecht,VBO,5.175098,52.151359
Saturnushof,18,,,3738XG,Maartensdijk,De Bilt,Utrecht,VBO,5.175175,52.151330
Saturnushof,20,,,3738XG,Maartensdijk,De Bilt,Utrecht,VBO,5.175186,52.151273
Venushof,1,,,3738XH,Maartensdijk,De Bilt,Utrecht,VBO,5.174487,52.151763
Venushof,3,,,3738XH,Maartensdijk,De Bilt,Utrecht,VBO,5.174460,52.151710
Venushof,5,,,3738XH,Maartensdijk,De Bilt,Utrecht,VBO,5.174414,52.151671
Venushof,7,,,3738XH,Maartensdijk,De Bilt,Utrecht,VBO,5.174397,52.151616
Venushof,9,,,3738XH,Maartensdijk,De Bilt,Utrecht,VBO,5.174348,52.151579
Venushof,11,,,3738XH,Maartensdijk,De Bilt,Utrecht,VBO,5.174315,52.151525
Venushof,13,,,3738XH,Maartensdijk,De Bilt,Utrecht,VBO,5.174270,52.151486
Venushof,15,,,3738XH,Maartensdijk,De Bilt,Utrecht,VBO,5.174237,52.151433
Venushof,17,,,3738XH,Maartensdijk,De Bilt,Utrecht,VBO,5.174197,52.151393
Venushof,19,,,3738XH,Maartensdijk,De Bilt,Utrecht,VBO,5.174124,52.151355
Mercuriushof,2,,,3738XJ,Maartensdijk,De Bilt,Utrecht,VBO,5.173250,52.151912
Mercuriushof,4,,,3738XJ,Maartensdijk,De Bilt,Utrecht,VBO,5.173361,52.151917
Mercuriushof,6,,,3738XJ,Maartensdijk,De Bilt,Utrecht,VBO,5.173424,52.151892
Mercuriushof,8,,,3738XJ,Maartensdijk,De Bilt,Utrecht,VBO,5.173434,52.151827
Mercuriushof,10,,,3738XJ,Maartensdijk,De Bilt,Utrecht,VBO,5.173494,52.151798
Mercuriushof,12,,,3738XJ,Maartensdijk,De Bilt,Utrecht,VBO,5.173534,52.151747
Mercuriushof,14,,,3738XJ,Maartensdijk,De Bilt,Utrecht,VBO,5.173601,52.151720
Mercuriushof,16,,,3738XJ,Maartensdijk,De Bilt,Utrecht,VBO,5.173638,52.151668
Mercuriushof,18,,,3738XJ,Maartensdijk,De Bilt,Utrecht,VBO,5.173699,52.151636
Mercuriushof,20,,,3738XJ,Maartensdijk,De Bilt,Utrecht,VBO,5.173729,52.151587
Planetenlaan,1,,,3738XK,Maartensdijk,De Bilt,Utrecht,VBO,5.173049,52.152077
Planetenlaan,3,,,3738XK,Maartensdijk,De Bilt,Utrecht,VBO,5.173006,52.152026
Planetenlaan,5,,,3738XK,Maartensdijk,De Bilt,Utrecht,VBO,5.172964,52.151992
Planetenlaan,7,,,3738XK,Maartensdijk,De Bilt,Utrecht,VBO,5.172947,52.151933
Planetenlaan,9,,,3738XK,Maartensdijk,De Bilt,Utrecht,VBO,5.172895,52.151895
Planetenlaan,11,,,3738XK,Maartensdijk,De Bilt,Utrecht,VBO,5.172876,52.151839
Planetenlaan,13,,,3738XK,Maartensdijk,De Bilt,Utrecht,VBO,5.172829,52.151799
Planetenlaan,15,,,3738XK,Maartensdijk,De Bilt,Utrecht,VBO,5.172791,52.151750
Planetenlaan,17,,,3738XK,Maartensdijk,De Bilt,Utrecht,VBO,5.172743,52.151708
Planetenlaan,19,,,3738XK,Maartensdijk,De Bilt,Utrecht,VBO,5.172664,52.151669
Planetenlaan,21,,,3738XK,Maartensdijk,De Bilt,Utrecht,VBO,5.172480,52.151395
Planetenlaan,23,,,3738XK,Maartensdijk,De Bilt,Utrecht,VBO,5.172581,52.151352
Planetenlaan,25,,,3738XK,Maartensdijk,De Bilt,Utrecht,VBO,5.172891,52.151301
Planetenlaan,27,,,3738XK,Maartensdijk,De Bilt,Utrecht,VBO,5.172985,52.151256
Planetenlaan,29,,,3738XK,Maartensdijk,De Bilt,Utrecht,VBO,5.173309,52.151201
Planetenlaan,31,,,3738XK,Maartensdijk,De Bilt,Utrecht,VBO,5.173396,52.151166
Planetenlaan,33,,,3738XK,Maartensdijk,De Bilt,Utrecht,VBO,5.173743,52.151120
Planetenlaan,35,,,3738XK,Maartensdijk,De Bilt,Utrecht,VBO,5.173834,52.151079
Planetenlaan,37,,,3738XK,Maartensdijk,De Bilt,Utrecht,VBO,5.174158,52.151034
Planetenlaan,39,,,3738XK,Maartensdijk,De Bilt,Utrecht,VBO,5.174255,52.150989
Planetenlaan,41,,,3738XK,Maartensdijk,De Bilt,Utrecht,VBO,5.174562,52.150941
Planetenlaan,43,,,3738XK,Maartensdijk,De Bilt,Utrecht,VBO,5.174669,52.150900
Planetenlaan,45,,,3738XK,Maartensdijk,De Bilt,Utrecht,VBO,5.175471,52.150639
Planetenlaan,47,,,3738XK,Maartensdijk,De Bilt,Utrecht,VBO,5.175595,52.150385
Planetenlaan,42,,,3738XL,Maartensdijk,De Bilt,Utrecht,VBO,5.173943,52.150563
Planetenlaan,46,,,3738XL,Maartensdijk,De Bilt,Utrecht,VBO,5.174741,52.150293
