openbareruimtenaam,huisnummer,huisletter,huisnummertoevoeging,postcode,woonplaatsnaam,gemeentenaam,provincienaam,typeadresseerbaarobject,longitude,latitude
Amsterdamsestraatweg,1,,,3744AA,Baarn,Baarn,Utrecht,VBO,5.279256,52.193403
Amsterdamsestraatweg,3,,,3744AA,Baarn,Baarn,Utrecht,VBO,5.274233,52.195816
Amsterdamsestraatweg,5,,,3744AA,Baarn,Baarn,Utrecht,VBO,5.274074,52.194953
Amsterdamsestraatweg,7,,,3744AA,Baarn,Baarn,Utrecht,VBO,5.267592,52.190902
Amsterdamsestraatweg,9,,,3744AA,Baarn,Baarn,Utrecht,VBO,5.268057,52.191873
Amsterdamsestraatweg,11,A,,3744AA,Baarn,Baarn,Utrecht,VBO,5.273247,52.198268
Amsterdamsestraatweg,11,,,3744AA,Baarn,Baarn,Utrecht,VBO,5.277534,52.197670
Amsterdamsestraatweg,13,,,3744AA,Baarn,Baarn,Utrecht,VBO,5.274092,52.199680
Amsterdamsestraatweg,15,,,3744AA,Baarn,Baarn,Utrecht,VBO,5.273772,52.198889
Amsterdamsestraatweg,17,,,3744AA,Baarn,Baarn,Utrecht,VBO,5.273845,52.198925
Amsterdamsestraatweg,19,,,3744AA,Baarn,Baarn,Utrecht,VBO,5.273684,52.199114
Amsterdamsestraatweg,21,,,3744AA,Baarn,Baarn,Utrecht,VBO,5.273640,52.199159
Amsterdamsestraatweg,23,,,3744AA,Baarn,Baarn,Utrecht,VBO,5.273581,52.199212
Amsterdamsestraatweg,25,,,3744AA,Baarn,Baarn,Utrecht,VBO,5.273537,52.199266
Amsterdamsestraatweg,27,,,3744AA,Baarn,Baarn,Utrecht,VBO,5.273493,52.199320
Amsterdamsestraatweg,29,,,3744AA,Baarn,Baarn,Utrecht,VBO,5.273464,52.199356
Zevenlindenweg,2,,,3744BC,Baarn,Baarn,Utrecht,VBO,5.248134,52.197801
Zevenlindenweg,4,,,3744BC,Baarn,Baarn,Utrecht,VBO,5.246427,52.196487
Zevenlindenweg,5,,0001,3744BC,Baarn,Baarn,Utrecht,VBO,5.246197,52.195273
Zevenlindenweg,5,,0002,3744BC,Baarn,Baarn,Utrecht,VBO,5.246489,52.195561
Zevenlindenweg,5,,0003,3744BC,Baarn,Baarn,Utrecht,VBO,5.246737,52.195660
Zevenlindenweg,5,,0004,3744BC,Baarn,Baarn,Utrecht,VBO,5.246854,52.195795
Zevenlindenweg,5,,0005,3744BC,Baarn,Baarn,Utrecht,VBO,5.247248,52.196011
Zevenlindenweg,5,,0006,3744BC,Baarn,Baarn,Utrecht,VBO,5.247511,52.196165
Zevenlindenweg,5,,0007,3744BC,Baarn,Baarn,Utrecht,VBO,5.247904,52.196596
Zevenlindenweg,5,,0008,3744BC,Baarn,Baarn,Utrecht,VBO,5.247891,52.196084
Zevenlindenweg,5,,0009,3744BC,Baarn,Baarn,Utrecht,VBO,5.248197,52.196354
Zevenlindenweg,5,,0010,3744BC,Baarn,Baarn,Utrecht,VBO,5.246329,52.195112
Zevenlindenweg,5,,0011,3744BC,Baarn,Baarn,Utrecht,VBO,5.246505,52.194860
Zevenlindenweg,5,,0012,3744BC,Baarn,Baarn,Utrecht,VBO,5.246679,52.195373
Zevenlindenweg,5,,0013,3744BC,Baarn,Baarn,Utrecht,VBO,5.246768,52.194995
Zevenlindenweg,5,,0014,3744BC,Baarn,Baarn,Utrecht,VBO,5.247059,52.195562
Zevenlindenweg,5,,0015,3744BC,Baarn,Baarn,Utrecht,VBO,5.247338,52.195355
Zevenlindenweg,5,,0016,3744BC,Baarn,Baarn,Utrecht,VBO,5.247219,52.195688
Zevenlindenweg,5,,0017,3744BC,Baarn,Baarn,Utrecht,VBO,5.247571,52.195490
Zevenlindenweg,5,,0018,3744BC,Baarn,Baarn,Utrecht,VBO,5.247658,52.195886
Zevenlindenweg,5,,0019,3744BC,Baarn,Baarn,Utrecht,VBO,5.247834,52.195644
Zevenlindenweg,5,,0020,3744BC,Baarn,Baarn,Utrecht,VBO,5.248402,52.196237
Zevenlindenweg,5,,0021,3744BC,Baarn,Baarn,Utrecht,VBO,5.248170,52.195887
Zevenlindenweg,5,,0022,3744BC,Baarn,Baarn,Utrecht,VBO,5.248637,52.196022
Zevenlindenweg,5,,0023,3744BC,Baarn,Baarn,Utrecht,VBO,5.248419,52.195725
Zevenlindenweg,5,,0024,3744BC,Baarn,Baarn,Utrecht,VBO,5.248842,52.195869
Zevenlindenweg,5,,0025,3744BC,Baarn,Baarn,Utrecht,VBO,5.248873,52.195528
Zevenlindenweg,5,,0026,3744BC,Baarn,Baarn,Utrecht,VBO,5.249136,52.195654
Zevenlindenweg,5,,0027,3744BC,Baarn,Baarn,Utrecht,VBO,5.247019,52.194384
Zevenlindenweg,5,,0028,3744BC,Baarn,Baarn,Utrecht,VBO,5.246725,52.194699
Zevenlindenweg,5,,0029,3744BC,Baarn,Baarn,Utrecht,VBO,5.247179,52.194609
Zevenlindenweg,5,,0030,3744BC,Baarn,Baarn,Utrecht,VBO,5.246988,52.194879
Zevenlindenweg,5,,0031,3744BC,Baarn,Baarn,Utrecht,VBO,5.247427,52.194798
Zevenlindenweg,5,,0032,3744BC,Baarn,Baarn,Utrecht,VBO,5.247441,52.195140
Zevenlindenweg,5,,0033,3744BC,Baarn,Baarn,Utrecht,VBO,5.247748,52.194978
Zevenlindenweg,5,,0034,3744BC,Baarn,Baarn,Utrecht,VBO,5.247806,52.195356
Zevenlindenweg,5,,0035,3744BC,Baarn,Baarn,Utrecht,VBO,5.248172,52.195087
Zevenlindenweg,5,,0036,3744BC,Baarn,Baarn,Utrecht,VBO,5.248215,52.195446
Zevenlindenweg,5,,0037,3744BC,Baarn,Baarn,Utrecht,VBO,5.247254,52.194169
Zevenlindenweg,5,,0038,3744BC,Baarn,Baarn,Utrecht,VBO,5.247517,52.193954
Zevenlindenweg,5,,0039,3744BC,Baarn,Baarn,Utrecht,VBO,5.247811,52.193720
Zevenlindenweg,5,,0040,3744BC,Baarn,Baarn,Utrecht,VBO,5.247971,52.193864
Zevenlindenweg,5,,0041,3744BC,Baarn,Baarn,Utrecht,VBO,5.247648,52.194160
Zevenlindenweg,5,,0042,3744BC,Baarn,Baarn,Utrecht,VBO,5.247399,52.194376
Zevenlindenweg,5,,0043,3744BC,Baarn,Baarn,Utrecht,VBO,5.247940,52.194358
Zevenlindenweg,5,,0044,3744BC,Baarn,Baarn,Utrecht,VBO,5.247808,52.194700
Zevenlindenweg,5,,0045,3744BC,Baarn,Baarn,Utrecht,VBO,5.248115,52.194511
Zevenlindenweg,5,,0046,3744BC,Baarn,Baarn,Utrecht,VBO,5.248262,52.194332
Zevenlindenweg,5,,0047,3744BC,Baarn,Baarn,Utrecht,VBO,5.248497,52.194125
Zevenlindenweg,5,,0048,3744BC,Baarn,Baarn,Utrecht,VBO,5.248569,52.194512
Zevenlindenweg,5,,0049,3744BC,Baarn,Baarn,Utrecht,VBO,5.248407,52.194737
Zevenlindenweg,5,,0050,3744BC,Baarn,Baarn,Utrecht,VBO,5.248553,52.194943
Zevenlindenweg,5,,0051,3744BC,Baarn,Baarn,Utrecht,VBO,5.248845,52.195097
Zevenlindenweg,5,,0052,3744BC,Baarn,Baarn,Utrecht,VBO,5.248478,52.195348
Zevenlindenweg,5,,0053,3744BC,Baarn,Baarn,Utrecht,VBO,5.249166,52.195250
Zevenlindenweg,5,,0054,3744BC,Baarn,Baarn,Utrecht,VBO,5.249430,52.195151
Zevenlindenweg,5,,0055,3744BC,Baarn,Baarn,Utrecht,VBO,5.249927,52.195161
Zevenlindenweg,5,,0056,3744BC,Baarn,Baarn,Utrecht,VBO,5.250410,52.195071
Zevenlindenweg,5,,0057,3744BC,Baarn,Baarn,Utrecht,VBO,5.250030,52.194873
Zevenlindenweg,5,,0058,3744BC,Baarn,Baarn,Utrecht,VBO,5.249723,52.194981
Zevenlindenweg,5,,0059,3744BC,Baarn,Baarn,Utrecht,VBO,5.249249,52.194990
Zevenlindenweg,5,,0060,3744BC,Baarn,Baarn,Utrecht,VBO,5.249709,52.194648
Zevenlindenweg,5,,0061,3744BC,Baarn,Baarn,Utrecht,VBO,5.248977,52.194791
Zevenlindenweg,5,,0062,3744BC,Baarn,Baarn,Utrecht,VBO,5.249168,52.194522
Zevenlindenweg,5,,0063,3744BC,Baarn,Baarn,Utrecht,VBO,5.248876,52.194333
Zevenlindenweg,5,,0064,3744BC,Baarn,Baarn,Utrecht,VBO,5.248527,52.193757
Zevenlindenweg,5,,0065,3744BC,Baarn,Baarn,Utrecht,VBO,5.248844,52.193738
Zevenlindenweg,5,,0066,3744BC,Baarn,Baarn,Utrecht,VBO,5.248455,52.193361
Zevenlindenweg,5,,0067,3744BC,Baarn,Baarn,Utrecht,VBO,5.248075,52.193487
Zevenlindenweg,5,,0068,3744BC,Baarn,Baarn,Utrecht,VBO,5.247843,52.192875
Zevenlindenweg,5,,0069,3744BC,Baarn,Baarn,Utrecht,VBO,5.247476,52.193234
Zevenlindenweg,5,,0070,3744BC,Baarn,Baarn,Utrecht,VBO,5.247111,52.193027
Zevenlindenweg,5,,0071,3744BC,Baarn,Baarn,Utrecht,VBO,5.246832,52.193261
Zevenlindenweg,5,,0072,3744BC,Baarn,Baarn,Utrecht,VBO,5.247182,52.193504
Zevenlindenweg,5,,0073,3744BC,Baarn,Baarn,Utrecht,VBO,5.247094,52.193710
Zevenlindenweg,5,,0074,3744BC,Baarn,Baarn,Utrecht,VBO,5.246539,52.193485
Zevenlindenweg,5,,0075,3744BC,Baarn,Baarn,Utrecht,VBO,5.246363,52.193709
Zevenlindenweg,5,,0076,3744BC,Baarn,Baarn,Utrecht,VBO,5.246903,52.193980
Zevenlindenweg,5,,0077,3744BC,Baarn,Baarn,Utrecht,VBO,5.246625,52.194150
Zevenlindenweg,5,,0078,3744BC,Baarn,Baarn,Utrecht,VBO,5.246143,52.193970
Zevenlindenweg,5,,0079,3744BC,Baarn,Baarn,Utrecht,VBO,5.245981,52.194185
Zevenlindenweg,5,,0080,3744BC,Baarn,Baarn,Utrecht,VBO,5.246419,52.194402
Zevenlindenweg,5,,0081,3744BC,Baarn,Baarn,Utrecht,VBO,5.245862,52.194805
Zevenlindenweg,5,,0082,3744BC,Baarn,Baarn,Utrecht,VBO,5.245760,52.194751
Zevenlindenweg,5,,0083,3744BC,Baarn,Baarn,Utrecht,VBO,5.245658,52.194697
Zevenlindenweg,6,,,3744BC,Baarn,Baarn,Utrecht,VBO,5.246575,52.196174
Zevenlindenweg,7,,,3744BC,Baarn,Baarn,Utrecht,VBO,5.241737,52.190396
Biltseweg,2,A,,3744BV,Baarn,Baarn,Utrecht,VBO,5.246126,52.173773
Biltseweg,2,,,3744BV,Baarn,Baarn,Utrecht,VBO,5.246228,52.173839
Biltseweg,4,,,3744BV,Baarn,Baarn,Utrecht,VBO,5.242868,52.170894
Biltseweg,6,,,3744BV,Baarn,Baarn,Utrecht,VBO,5.242678,52.170786
Pijnenburg,1,,,3744BW,Baarn,Baarn,Utrecht,VBO,5.243990,52.172073
Pijnenburg,2,,,3744BW,Baarn,Baarn,Utrecht,VBO,5.238795,52.177980
Pijnenburg,3,,,3744BW,Baarn,Baarn,Utrecht,VBO,5.241498,52.178658
Pijnenburg,4,,,3744BW,Baarn,Baarn,Utrecht,VBO,5.241585,52.178730
Pijnenburg,5,,,3744BW,Baarn,Baarn,Utrecht,VBO,5.242111,52.179081
Pijnenburg,6,,,3744BW,Baarn,Baarn,Utrecht,VBO,5.243246,52.179243
Pijnenburg,7,,,3744BW,Baarn,Baarn,Utrecht,VBO,5.247497,52.181856
Pijnenburg,8,,,3744BW,Baarn,Baarn,Utrecht,VBO,5.242409,52.177176
Pijnenburg,9,,,3744BW,Baarn,Baarn,Utrecht,VBO,5.243863,52.175155
Pijnenburg,10,,,3744BW,Baarn,Baarn,Utrecht,VBO,5.240643,52.176392
Pijnenburg,11,,,3744BW,Baarn,Baarn,Utrecht,VBO,5.245269,52.174447
Hilversumsestraatweg,1,A,1,3744KB,Baarn,Baarn,Utrecht,VBO,5.253340,52.193268
Hilversumsestraatweg,1,A,A,3744KB,Baarn,Baarn,Utrecht,VBO,5.256520,52.201100
Hilversumsestraatweg,1,A,,3744KB,Baarn,Baarn,Utrecht,VBO,5.256110,52.201279
Hilversumsestraatweg,1,B,,3744KB,Baarn,Baarn,Utrecht,VBO,5.254384,52.201188
Hilversumsestraatweg,1,C,,3744KB,Baarn,Baarn,Utrecht,VBO,5.252497,52.201239
Hilversumsestraatweg,1,,,3744KB,Baarn,Baarn,Utrecht,VBO,5.251731,52.193581
Hilversumsestraatweg,3,,,3744KB,Baarn,Baarn,Utrecht,VBO,5.252058,52.201311
Hilversumsestraatweg,5,A,,3744KB,Baarn,Baarn,Utrecht,VBO,5.250186,52.201417
Hilversumsestraatweg,5,,,3744KB,Baarn,Baarn,Utrecht,VBO,5.251327,52.201409
Hilversumsestraatweg,7,,,3744KB,Baarn,Baarn,Utrecht,VBO,5.248289,52.201415
Hilversumsestraatweg,9,,,3744KB,Baarn,Baarn,Utrecht,VBO,5.247846,52.201171
Hilversumsestraatweg,11,,,3744KB,Baarn,Baarn,Utrecht,VBO,5.245989,52.200962
Hilversumsestraatweg,13,,,3744KB,Baarn,Baarn,Utrecht,VBO,5.245097,52.200943
Hilversumsestraatweg,15,,,3744KB,Baarn,Baarn,Utrecht,VBO,5.244016,52.200313
Hilversumsestraatweg,19,,,3744KB,Baarn,Baarn,Utrecht,VBO,5.217110,52.205823
Hilversumsestraatweg,21,,,3744KB,Baarn,Baarn,Utrecht,VBO,5.217668,52.205329
Hilversumsestraatweg,2,B,,3744KC,Baarn,Baarn,Utrecht,VBO,5.249317,52.203330
Hilversumsestraatweg,2,,,3744KC,Baarn,Baarn,Utrecht,VBO,5.273454,52.203131
Hilversumsestraatweg,4,,,3744KC,Baarn,Baarn,Utrecht,VBO,5.247813,52.202295
Hilversumsestraatweg,6,,,3744KC,Baarn,Baarn,Utrecht,VBO,5.247841,52.202735
Hilversumsestraatweg,8,,,3744KC,Baarn,Baarn,Utrecht,VBO,5.247768,52.202762
Hilversumsestraatweg,10,,,3744KC,Baarn,Baarn,Utrecht,VBO,5.247431,52.202887
Hilversumsestraatweg,12,A,,3744KC,Baarn,Baarn,Utrecht,VBO,5.244236,52.204708
Hilversumsestraatweg,14,,,3744KC,Baarn,Baarn,Utrecht,VBO,5.245966,52.203712
Hilversumsestraatweg,16,A,,3744KC,Baarn,Baarn,Utrecht,VBO,5.244125,52.202838
Hilversumsestraatweg,16,,,3744KC,Baarn,Baarn,Utrecht,VBO,5.245355,52.202391
Hilversumsestraatweg,18,A,,3744KC,Baarn,Baarn,Utrecht,VBO,5.235262,52.205137
Hilversumsestraatweg,18,,,3744KC,Baarn,Baarn,Utrecht,VBO,5.235020,52.204652
Hilversumsestraatweg,20,,,3744KC,Baarn,Baarn,Utrecht,VBO,5.233996,52.204785
Hilversumsestraatweg,22,,,3744KC,Baarn,Baarn,Utrecht,VBO,5.223109,52.205445
Bosbadlaan,1,,,3744KD,Baarn,Baarn,Utrecht,VBO,5.253560,52.202894
Bosbadlaan,2,,,3744KD,Baarn,Baarn,Utrecht,VBO,5.255457,52.204532
Bosbadlaan,3,,,3744KD,Baarn,Baarn,Utrecht,VBO,5.252835,52.205572
Bosbadlaan,4,,,3744KD,Baarn,Baarn,Utrecht,VBO,5.256841,52.206457
Amsterdamsestraatweg,33,,,3744MA,Baarn,Baarn,Utrecht,VBO,5.273878,52.203338
Amsterdamsestraatweg,35,,,3744MA,Baarn,Baarn,Utrecht,VBO,5.269122,52.209571
Amsterdamsestraatweg,37,,,3744MA,Baarn,Baarn,Utrecht,VBO,5.268680,52.210595
Amsterdamsestraatweg,39,A,,3744MA,Baarn,Baarn,Utrecht,VBO,5.268489,52.210820
Amsterdamsestraatweg,39,B,,3744MA,Baarn,Baarn,Utrecht,VBO,5.268445,52.210802
Amsterdamsestraatweg,39,C,,3744MA,Baarn,Baarn,Utrecht,VBO,5.268168,52.210676
Amsterdamsestraatweg,39,,,3744MA,Baarn,Baarn,Utrecht,VBO,5.268548,52.210838
Amsterdamsestraatweg,41,A,,3744MA,Baarn,Baarn,Utrecht,VBO,5.268258,52.211122
Amsterdamsestraatweg,41,B,,3744MA,Baarn,Baarn,Utrecht,VBO,5.268217,52.211111
Amsterdamsestraatweg,41,C,,3744MA,Baarn,Baarn,Utrecht,VBO,5.268164,52.211097
Amsterdamsestraatweg,41,,,3744MA,Baarn,Baarn,Utrecht,VBO,5.268298,52.211134
Amsterdamsestraatweg,43,,,3744MA,Baarn,Baarn,Utrecht,VBO,5.267990,52.211529
Amsterdamsestraatweg,45,,,3744MA,Baarn,Baarn,Utrecht,VBO,5.267637,52.212014
Amsterdamsestraatweg,47,,,3744MA,Baarn,Baarn,Utrecht,VBO,5.267461,52.212257
Amsterdamsestraatweg,49,,,3744MA,Baarn,Baarn,Utrecht,VBO,5.267168,52.212481
Amsterdamsestraatweg,51,A,,3744MA,Baarn,Baarn,Utrecht,VBO,5.265014,52.214694
Amsterdamsestraatweg,51,,,3744MA,Baarn,Baarn,Utrecht,VBO,5.264953,52.214777
Amsterdamsestraatweg,53,,,3744MA,Baarn,Baarn,Utrecht,VBO,5.264573,52.214510
Amsterdamsestraatweg,55,A,,3744MA,Baarn,Baarn,Utrecht,VBO,5.264775,52.215328
Amsterdamsestraatweg,55,,,3744MA,Baarn,Baarn,Utrecht,VBO,5.264542,52.214959
Amsterdamsestraatweg,57,A,,3744MA,Baarn,Baarn,Utrecht,VBO,5.264013,52.215776
Amsterdamsestraatweg,57,B,,3744MA,Baarn,Baarn,Utrecht,VBO,5.263766,52.215129
Amsterdamsestraatweg,57,,,3744MA,Baarn,Baarn,Utrecht,VBO,5.265097,52.215319
Amsterdamsestraatweg,59,,,3744MA,Baarn,Baarn,Utrecht,VBO,5.264773,52.215993
Amsterdamsestraatweg,61,,,3744MA,Baarn,Baarn,Utrecht,VBO,5.257882,52.220983
Regentesselaan,2,,,3744MB,Baarn,Baarn,Utrecht,VBO,5.266660,52.211016
Regentesselaan,3,,,3744MB,Baarn,Baarn,Utrecht,VBO,5.267391,52.211304
Regentesselaan,4,,,3744MB,Baarn,Baarn,Utrecht,VBO,5.266851,52.210728
Regentesselaan,5,,,3744MB,Baarn,Baarn,Utrecht,VBO,5.267611,52.210972
Regentesselaan,6,A,,3744MB,Baarn,Baarn,Utrecht,VBO,5.266822,52.210405
Regentesselaan,6,,,3744MB,Baarn,Baarn,Utrecht,VBO,5.266895,52.210557
Regentesselaan,7,,,3744MB,Baarn,Baarn,Utrecht,VBO,5.267538,52.210774
Regentesselaan,8,,,3744MB,Baarn,Baarn,Utrecht,VBO,5.266574,52.210252
Regentesselaan,9,,,3744MB,Baarn,Baarn,Utrecht,VBO,5.267553,52.210711
Regentesselaan,11,,,3744MB,Baarn,Baarn,Utrecht,VBO,5.267553,52.210567
Regentesselaan,13,,,3744MB,Baarn,Baarn,Utrecht,VBO,5.267583,52.210513
Regentesselaan,15,,,3744MB,Baarn,Baarn,Utrecht,VBO,5.267481,52.210351
Rutgers van Rozenburglaan,1,,,3744MC,Baarn,Baarn,Utrecht,VBO,5.269106,52.209913
Rutgers van Rozenburglaan,2,,,3744MC,Baarn,Baarn,Utrecht,VBO,5.268768,52.210362
Rutgers van Rozenburglaan,3,,,3744MC,Baarn,Baarn,Utrecht,VBO,5.268536,52.209876
Rutgers van Rozenburglaan,4,,,3744MC,Baarn,Baarn,Utrecht,VBO,5.268183,52.210244
Rutgers van Rozenburglaan,5,,,3744MC,Baarn,Baarn,Utrecht,VBO,5.268170,52.209858
Rutgers van Rozenburglaan,6,,,3744MC,Baarn,Baarn,Utrecht,VBO,5.267905,52.210271
Rutgers van Rozenburglaan,7,,,3744MC,Baarn,Baarn,Utrecht,VBO,5.267775,52.209803
Rutgers van Rozenburglaan,9,,,3744MC,Baarn,Baarn,Utrecht,VBO,5.267409,52.209785
Rutgers van Rozenburglaan,11,,,3744MC,Baarn,Baarn,Utrecht,VBO,5.267087,52.209767
Rutgers van Rozenburglaan,13,,,3744MC,Baarn,Baarn,Utrecht,VBO,5.266517,52.209766
Rutgers van Rozenburglaan,15,,,3744MC,Baarn,Baarn,Utrecht,VBO,5.266107,52.209748
Rutgers van Rozenburglaan,17,,,3744MC,Baarn,Baarn,Utrecht,VBO,5.265610,52.209711
van Reenenlaan,1,,,3744MD,Baarn,Baarn,Utrecht,VBO,5.268004,52.211574
van Reenenlaan,3,A,,3744MD,Baarn,Baarn,Utrecht,VBO,5.267229,52.211528
van Reenenlaan,3,,,3744MD,Baarn,Baarn,Utrecht,VBO,5.267624,52.211538
van Reenenlaan,5,,,3744MD,Baarn,Baarn,Utrecht,VBO,5.266543,52.210827
van Reenenlaan,7,,,3744MD,Baarn,Baarn,Utrecht,VBO,5.266383,52.210656
van Reenenlaan,9,,,3744MD,Baarn,Baarn,Utrecht,VBO,5.266251,52.210521
van Reenenlaan,11,,,3744MD,Baarn,Baarn,Utrecht,VBO,5.266076,52.210341
van Reenenlaan,13,,,3744MD,Baarn,Baarn,Utrecht,VBO,5.265872,52.210161
van Reenenlaan,15,,,3744MD,Baarn,Baarn,Utrecht,VBO,5.265551,52.209738
van Reenenlaan,2,B,,3744ME,Baarn,Baarn,Utrecht,VBO,5.267038,52.211969
van Reenenlaan,2,,,3744ME,Baarn,Baarn,Utrecht,VBO,5.266702,52.211789
van Reenenlaan,4,A,,3744ME,Baarn,Baarn,Utrecht,VBO,5.266512,52.211582
van Reenenlaan,4,,,3744ME,Baarn,Baarn,Utrecht,VBO,5.266322,52.211402
van Reenenlaan,6,,,3744ME,Baarn,Baarn,Utrecht,VBO,5.266059,52.211240
van Reenenlaan,8,A,,3744ME,Baarn,Baarn,Utrecht,VBO,5.265885,52.210871
van Reenenlaan,8,,,3744ME,Baarn,Baarn,Utrecht,VBO,5.265913,52.211069
van Reenenlaan,10,,,3744ME,Baarn,Baarn,Utrecht,VBO,5.265666,52.210736
van Reenenlaan,12,,,3744ME,Baarn,Baarn,Utrecht,VBO,5.265403,52.210421
van Reenenlaan,14,,,3744ME,Baarn,Baarn,Utrecht,VBO,5.265169,52.210286
van Reenenlaan,16,,,3744ME,Baarn,Baarn,Utrecht,VBO,5.265053,52.210079
van Reenenlaan,18,,,3744ME,Baarn,Baarn,Utrecht,VBO,5.264819,52.209872
van Reenenlaan,22,,,3744ME,Baarn,Baarn,Utrecht,VBO,5.264308,52.209512
Dr. Albert Schweitzerweg,1,,,3744MG,Baarn,Baarn,Utrecht,VBO,5.223708,52.217642
Dr. Albert Schweitzerweg,3,,,3744MG,Baarn,Baarn,Utrecht,VBO,5.222935,52.217165
Dr. Albert Schweitzerweg,7,,,3744MG,Baarn,Baarn,Utrecht,VBO,5.221035,52.216326
Dr Albert Schweitzerweg,2,a,,3744MH,Laren,Laren,Noord-Holland,VBO,5.220410,52.217585
Dr Albert Schweitzerweg,4,,,3744MH,Laren,Laren,Noord-Holland,VBO,5.220471,52.215996
Ravensteinselaan,1,,,3744MJ,Baarn,Baarn,Utrecht,VBO,5.263058,52.217151
Wildenburglaan,1,,,3744MK,Baarn,Baarn,Utrecht,VBO,5.242640,52.218745
Wildenburglaan,2,,,3744MK,Baarn,Baarn,Utrecht,VBO,5.241425,52.218843
Wildenburglaan,3,,,3744MK,Baarn,Baarn,Utrecht,VBO,5.242743,52.218521
Wildenburglaan,4,,,3744MK,Baarn,Baarn,Utrecht,VBO,5.241038,52.220819
Wildenburglaan,5,,,3744MK,Baarn,Baarn,Utrecht,VBO,5.242787,52.218521
Wildenburglaan,7,,,3744MK,Baarn,Baarn,Utrecht,VBO,5.243459,52.218998
Wildenburglaan,9,,,3744MK,Baarn,Baarn,Utrecht,VBO,5.243303,52.218585
Groeneveld,1,A,,3744ML,Baarn,Baarn,Utrecht,VBO,5.256485,52.218132
Groeneveld,1,,,3744ML,Baarn,Baarn,Utrecht,VBO,5.256470,52.218231
Groeneveld,2,,,3744ML,Baarn,Baarn,Utrecht,VBO,5.254874,52.218625
Groeneveld,3,A,,3744ML,Baarn,Baarn,Utrecht,VBO,5.255920,52.216151
Groeneveld,3,,,3744ML,Baarn,Baarn,Utrecht,VBO,5.256200,52.216186
Groeneveld,5,,,3744ML,Baarn,Baarn,Utrecht,VBO,5.242687,52.213397
Groeneveld,10,,,3744ML,Baarn,Baarn,Utrecht,VBO,5.255489,52.218437
Zandheuvelweg,1,,,3744MN,Baarn,Baarn,Utrecht,VBO,5.255846,52.221484
Zandheuvelweg,2,,,3744MN,Baarn,Baarn,Utrecht,VBO,5.236379,52.222332
Zandheuvelweg,3,,,3744MN,Baarn,Baarn,Utrecht,VBO,5.253012,52.219620
Zandheuvelweg,4,,,3744MN,Baarn,Baarn,Utrecht,VBO,5.227323,52.221611
Zandheuvelweg,5,,,3744MN,Baarn,Baarn,Utrecht,VBO,5.251429,52.220463
Zandheuvelweg,7,,,3744MN,Baarn,Baarn,Utrecht,VBO,5.240659,52.220343
Zandheuvelweg,9,,,3744MN,Baarn,Baarn,Utrecht,VBO,5.236127,52.219061
Zandheuvelweg,15,,,3744MN,Baarn,Baarn,Utrecht,VBO,5.223055,52.220185
Zandheuvelweg,17,,,3744MN,Baarn,Baarn,Utrecht,VBO,5.223057,52.219771
Berkelstraat,1,,,3744NA,Baarn,Baarn,Utrecht,VBO,5.226138,52.221724
Berkelstraat,2,,,3744NA,Baarn,Baarn,Utrecht,VBO,5.225463,52.222111
Berkelstraat,3,,,3744NA,Baarn,Baarn,Utrecht,VBO,5.226027,52.221720
Berkelstraat,4,,,3744NA,Baarn,Baarn,Utrecht,VBO,5.224746,52.222083
Berkelstraat,5,,,3744NA,Baarn,Baarn,Utrecht,VBO,5.226142,52.221694
Berkelstraat,7,,,3744NA,Baarn,Baarn,Utrecht,VBO,5.226146,52.221647
Berkelstraat,9,,,3744NA,Baarn,Baarn,Utrecht,VBO,5.226154,52.221587
Berkelstraat,11,,,3744NA,Baarn,Baarn,Utrecht,VBO,5.226161,52.221521
Berkelstraat,13,,,3744NA,Baarn,Baarn,Utrecht,VBO,5.226070,52.221519
Berkelstraat,15,,,3744NA,Baarn,Baarn,Utrecht,VBO,5.226062,52.221582
Berkelstraat,17,,,3744NA,Baarn,Baarn,Utrecht,VBO,5.225980,52.221293
Berkelstraat,19,,,3744NA,Baarn,Baarn,Utrecht,VBO,5.225765,52.221283
Berkelstraat,21,,,3744NA,Baarn,Baarn,Utrecht,VBO,5.225631,52.221279
Berkelstraat,23,,,3744NA,Baarn,Baarn,Utrecht,VBO,5.225500,52.221274
Berkelstraat,25,,,3744NA,Baarn,Baarn,Utrecht,VBO,5.225370,52.221270
Berkelstraat,27,,,3744NA,Baarn,Baarn,Utrecht,VBO,5.225146,52.221261
Berkelstraat,29,,,3744NA,Baarn,Baarn,Utrecht,VBO,5.225139,52.221324
Berkelstraat,31,,,3744NA,Baarn,Baarn,Utrecht,VBO,5.225242,52.221330
Berkelstraat,33,,,3744NA,Baarn,Baarn,Utrecht,VBO,5.225358,52.221333
Berkelstraat,35,,,3744NA,Baarn,Baarn,Utrecht,VBO,5.225491,52.221338
Berkelstraat,37,,,3744NA,Baarn,Baarn,Utrecht,VBO,5.225623,52.221345
Berkelstraat,39,,,3744NA,Baarn,Baarn,Utrecht,VBO,5.225757,52.221351
Berkelstraat,41,,,3744NA,Baarn,Baarn,Utrecht,VBO,5.225871,52.221355
Berkelstraat,43,,,3744NA,Baarn,Baarn,Utrecht,VBO,5.225972,52.221358
Berkelstraat,45,,,3744NA,Baarn,Baarn,Utrecht,VBO,5.225563,52.221706
Berkelstraat,47,,,3744NA,Baarn,Baarn,Utrecht,VBO,5.225470,52.221702
Berkelstraat,49,,,3744NA,Baarn,Baarn,Utrecht,VBO,5.225565,52.221671
Berkelstraat,51,,,3744NA,Baarn,Baarn,Utrecht,VBO,5.225575,52.221616
Berkelstraat,53,,,3744NA,Baarn,Baarn,Utrecht,VBO,5.225585,52.221558
Berkelstraat,55,,,3744NA,Baarn,Baarn,Utrecht,VBO,5.225596,52.221491
Berkelstraat,57,,,3744NA,Baarn,Baarn,Utrecht,VBO,5.225494,52.221486
Berkelstraat,59,,,3744NA,Baarn,Baarn,Utrecht,VBO,5.225488,52.221554
Berkelstraat,61,,,3744NA,Baarn,Baarn,Utrecht,VBO,5.225010,52.221686
Berkelstraat,63,,,3744NA,Baarn,Baarn,Utrecht,VBO,5.224899,52.221682
Berkelstraat,65,,,3744NA,Baarn,Baarn,Utrecht,VBO,5.225016,52.221650
Berkelstraat,67,,,3744NA,Baarn,Baarn,Utrecht,VBO,5.225022,52.221602
Berkelstraat,69,,,3744NA,Baarn,Baarn,Utrecht,VBO,5.225029,52.221543
Berkelstraat,71,,,3744NA,Baarn,Baarn,Utrecht,VBO,5.225039,52.221474
Berkelstraat,73,,,3744NA,Baarn,Baarn,Utrecht,VBO,5.224919,52.221468
Berkelstraat,75,,,3744NA,Baarn,Baarn,Utrecht,VBO,5.224913,52.221538
Eemeroordlaan,2,A,,3744NB,Baarn,Baarn,Utrecht,VBO,5.226889,52.223249
Eemeroordlaan,2,B,,3744NB,Baarn,Baarn,Utrecht,VBO,5.226889,52.223217
Eemeroordlaan,2,C,,3744NB,Baarn,Baarn,Utrecht,VBO,5.226896,52.223188
Eemeroordlaan,2,D,,3744NB,Baarn,Baarn,Utrecht,VBO,5.227101,52.223198
Eemeroordlaan,2,E,,3744NB,Baarn,Baarn,Utrecht,VBO,5.227092,52.223231
Eemeroordlaan,2,F,,3744NB,Baarn,Baarn,Utrecht,VBO,5.227084,52.223266
Eemeroordlaan,2,G,,3744NB,Baarn,Baarn,Utrecht,VBO,5.227076,52.223301
Eemeroordlaan,2,H,,3744NB,Baarn,Baarn,Utrecht,VBO,5.227071,52.223336
Eemeroordlaan,2,J,,3744NB,Baarn,Baarn,Utrecht,VBO,5.227067,52.223370
Eemeroordlaan,2,,,3744NB,Baarn,Baarn,Utrecht,VBO,5.226885,52.223342
Eemeroordlaan,4,A,,3744NB,Baarn,Baarn,Utrecht,VBO,5.226855,52.223566
Eemeroordlaan,4,B,,3744NB,Baarn,Baarn,Utrecht,VBO,5.226851,52.223599
Eemeroordlaan,4,C,,3744NB,Baarn,Baarn,Utrecht,VBO,5.226844,52.223632
Eemeroordlaan,4,D,,3744NB,Baarn,Baarn,Utrecht,VBO,5.227054,52.223639
Eemeroordlaan,4,E,,3744NB,Baarn,Baarn,Utrecht,VBO,5.227056,52.223604
Eemeroordlaan,4,F,,3744NB,Baarn,Baarn,Utrecht,VBO,5.227058,52.223566
Eemeroordlaan,4,G,,3744NB,Baarn,Baarn,Utrecht,VBO,5.227062,52.223528
Eemeroordlaan,4,H,,3744NB,Baarn,Baarn,Utrecht,VBO,5.227065,52.223493
Eemeroordlaan,4,J,,3744NB,Baarn,Baarn,Utrecht,VBO,5.227069,52.223458
Eemeroordlaan,4,,,3744NB,Baarn,Baarn,Utrecht,VBO,5.226866,52.223472
Zwinstraat,2,,,3744NC,Baarn,Baarn,Utrecht,VBO,5.232173,52.222106
Zwinstraat,4,,,3744NC,Baarn,Baarn,Utrecht,VBO,5.231940,52.222087
Zwinstraat,6,,,3744NC,Baarn,Baarn,Utrecht,VBO,5.231414,52.222073
Zwinstraat,8,,,3744NC,Baarn,Baarn,Utrecht,VBO,5.231177,52.222076
Zwinstraat,15,,,3744NC,Baarn,Baarn,Utrecht,VBO,5.230572,52.221669
Zwinstraat,17,,,3744NC,Baarn,Baarn,Utrecht,VBO,5.230455,52.221723
Zwinstraat,18,,,3744NC,Baarn,Baarn,Utrecht,VBO,5.228932,52.221891
Zwinstraat,19,,,3744NC,Baarn,Baarn,Utrecht,VBO,5.230337,52.221722
Zwinstraat,20,,,3744NC,Baarn,Baarn,Utrecht,VBO,5.228727,52.221891
Zwinstraat,21,,,3744NC,Baarn,Baarn,Utrecht,VBO,5.230279,52.221704
Zwinstraat,22,,,3744NC,Baarn,Baarn,Utrecht,VBO,5.228551,52.221891
Zwinstraat,23,,,3744NC,Baarn,Baarn,Utrecht,VBO,5.230059,52.221695
Zwinstraat,24,,,3744NC,Baarn,Baarn,Utrecht,VBO,5.228347,52.221873
Zwinstraat,25,,,3744NC,Baarn,Baarn,Utrecht,VBO,5.229928,52.221686
Zwinstraat,27,,,3744NC,Baarn,Baarn,Utrecht,VBO,5.229811,52.221623
Zwinstraat,35,,,3744NC,Baarn,Baarn,Utrecht,VBO,5.228377,52.221666
IJssellaan,1,,,3744ND,Baarn,Baarn,Utrecht,VBO,5.232074,52.223010
IJssellaan,3,,,3744ND,Baarn,Baarn,Utrecht,VBO,5.231972,52.223001
IJssellaan,5,,,3744ND,Baarn,Baarn,Utrecht,VBO,5.231826,52.222974
IJssellaan,7,,,3744ND,Baarn,Baarn,Utrecht,VBO,5.231723,52.222965
IJssellaan,9,,,3744ND,Baarn,Baarn,Utrecht,VBO,5.231636,52.222964
IJssellaan,11,,,3744ND,Baarn,Baarn,Utrecht,VBO,5.231489,52.222955
IJssellaan,13,,,3744ND,Baarn,Baarn,Utrecht,VBO,5.231387,52.222955
IJssellaan,15,,,3744ND,Baarn,Baarn,Utrecht,VBO,5.231284,52.222937
IJssellaan,17,,,3744ND,Baarn,Baarn,Utrecht,VBO,5.231138,52.222955
IJssellaan,19,,,3744ND,Baarn,Baarn,Utrecht,VBO,5.231826,52.223010
IJssellaan,21,,,3744ND,Baarn,Baarn,Utrecht,VBO,5.231738,52.223001
IJssellaan,23,,,3744ND,Baarn,Baarn,Utrecht,VBO,5.231635,52.222991
IJssellaan,25,,,3744ND,Baarn,Baarn,Utrecht,VBO,5.231489,52.222973
IJssellaan,27,,,3744ND,Baarn,Baarn,Utrecht,VBO,5.231387,52.222973
IJssellaan,29,,,3744ND,Baarn,Baarn,Utrecht,VBO,5.231284,52.222973
IJssellaan,31,,,3744ND,Baarn,Baarn,Utrecht,VBO,5.231123,52.222982
IJssellaan,41,,,3744ND,Baarn,Baarn,Utrecht,VBO,5.227538,52.222797
IJssellaan,83,,,3744ND,Baarn,Baarn,Utrecht,VBO,5.224494,52.222946
IJssellaan,2,A,,3744NE,Baarn,Baarn,Utrecht,VBO,5.230427,52.223382
IJssellaan,2,B,,3744NE,Baarn,Baarn,Utrecht,VBO,5.230431,52.223347
IJssellaan,2,C,,3744NE,Baarn,Baarn,Utrecht,VBO,5.230435,52.223316
IJssellaan,2,D,,3744NE,Baarn,Baarn,Utrecht,VBO,5.230236,52.223300
IJssellaan,2,E,,3744NE,Baarn,Baarn,Utrecht,VBO,5.230229,52.223336
IJssellaan,2,F,,3744NE,Baarn,Baarn,Utrecht,VBO,5.230223,52.223373
IJssellaan,2,G,,3744NE,Baarn,Baarn,Utrecht,VBO,5.230220,52.223420
IJssellaan,2,H,,3744NE,Baarn,Baarn,Utrecht,VBO,5.230212,52.223453
IJssellaan,2,J,,3744NE,Baarn,Baarn,Utrecht,VBO,5.230208,52.223480
IJssellaan,2,,,3744NE,Baarn,Baarn,Utrecht,VBO,5.230453,52.223475
IJssellaan,4,A,,3744NE,Baarn,Baarn,Utrecht,VBO,5.230400,52.223676
IJssellaan,4,B,,3744NE,Baarn,Baarn,Utrecht,VBO,5.230396,52.223712
IJssellaan,4,C,,3744NE,Baarn,Baarn,Utrecht,VBO,5.230392,52.223746
IJssellaan,4,D,,3744NE,Baarn,Baarn,Utrecht,VBO,5.230190,52.223743
IJssellaan,4,E,,3744NE,Baarn,Baarn,Utrecht,VBO,5.230194,52.223703
IJssellaan,4,F,,3744NE,Baarn,Baarn,Utrecht,VBO,5.230196,52.223669
IJssellaan,4,G,,3744NE,Baarn,Baarn,Utrecht,VBO,5.230201,52.223630
IJssellaan,4,H,,3744NE,Baarn,Baarn,Utrecht,VBO,5.230200,52.223599
IJssellaan,4,J,,3744NE,Baarn,Baarn,Utrecht,VBO,5.230205,52.223575
IJssellaan,4,,,3744NE,Baarn,Baarn,Utrecht,VBO,5.230428,52.223597
IJssellaan,6,A,,3744NE,Baarn,Baarn,Utrecht,VBO,5.229418,52.223646
IJssellaan,6,B,,3744NE,Baarn,Baarn,Utrecht,VBO,5.229411,52.223688
IJssellaan,6,C,,3744NE,Baarn,Baarn,Utrecht,VBO,5.229412,52.223710
IJssellaan,6,D,,3744NE,Baarn,Baarn,Utrecht,VBO,5.229615,52.223719
IJssellaan,6,E,,3744NE,Baarn,Baarn,Utrecht,VBO,5.229619,52.223686
IJssellaan,6,F,,3744NE,Baarn,Baarn,Utrecht,VBO,5.229619,52.223650
IJssellaan,6,G,,3744NE,Baarn,Baarn,Utrecht,VBO,5.229627,52.223617
IJssellaan,6,H,,3744NE,Baarn,Baarn,Utrecht,VBO,5.229632,52.223579
IJssellaan,6,J,,3744NE,Baarn,Baarn,Utrecht,VBO,5.229636,52.223544
IJssellaan,6,,,3744NE,Baarn,Baarn,Utrecht,VBO,5.229425,52.223549
IJssellaan,8,A,,3744NE,Baarn,Baarn,Utrecht,VBO,5.229445,52.223342
IJssellaan,8,B,,3744NE,Baarn,Baarn,Utrecht,VBO,5.229447,52.223307
IJssellaan,8,C,,3744NE,Baarn,Baarn,Utrecht,VBO,5.229449,52.223277
IJssellaan,8,D,,3744NE,Baarn,Baarn,Utrecht,VBO,5.229671,52.223285
IJssellaan,8,E,,3744NE,Baarn,Baarn,Utrecht,VBO,5.229660,52.223319
IJssellaan,8,F,,3744NE,Baarn,Baarn,Utrecht,VBO,5.229658,52.223352
IJssellaan,8,G,,3744NE,Baarn,Baarn,Utrecht,VBO,5.229652,52.223386
IJssellaan,8,H,,3744NE,Baarn,Baarn,Utrecht,VBO,5.229643,52.223423
IJssellaan,8,J,,3744NE,Baarn,Baarn,Utrecht,VBO,5.229637,52.223458
IJssellaan,8,,,3744NE,Baarn,Baarn,Utrecht,VBO,5.229438,52.223436
IJssellaan,10,,,3744NE,Baarn,Baarn,Utrecht,VBO,5.228488,52.223311
IJssellaan,12,,,3744NE,Baarn,Baarn,Utrecht,VBO,5.228531,52.223401
IJssellaan,14,,,3744NE,Baarn,Baarn,Utrecht,VBO,5.228078,52.223373
IJssellaan,16,A,,3744NE,Baarn,Baarn,Utrecht,VBO,5.228020,52.223256
IJssellaan,16,,,3744NE,Baarn,Baarn,Utrecht,VBO,5.228151,52.223292
IJssellaan,30,,,3744NE,Baarn,Baarn,Utrecht,VBO,5.225619,52.223379
IJssellaan,32,,,3744NE,Baarn,Baarn,Utrecht,VBO,5.225209,52.223396
Reggelaan,9,,,3744NG,Baarn,Baarn,Utrecht,VBO,5.228282,52.223580
Reggelaan,11,,,3744NG,Baarn,Baarn,Utrecht,VBO,5.227872,52.223625
Diezelaan,1,,,3744NJ,Baarn,Baarn,Utrecht,VBO,5.230797,52.224141
Diezelaan,3,A,,3744NJ,Baarn,Baarn,Utrecht,VBO,5.229515,52.224030
Diezelaan,3,B,,3744NJ,Baarn,Baarn,Utrecht,VBO,5.229581,52.224033
Diezelaan,3,C,,3744NJ,Baarn,Baarn,Utrecht,VBO,5.229641,52.224035
Diezelaan,3,D,,3744NJ,Baarn,Baarn,Utrecht,VBO,5.229701,52.224037
Diezelaan,3,E,,3744NJ,Baarn,Baarn,Utrecht,VBO,5.229697,52.224159
Diezelaan,3,F,,3744NJ,Baarn,Baarn,Utrecht,VBO,5.229648,52.224156
Diezelaan,3,G,,3744NJ,Baarn,Baarn,Utrecht,VBO,5.229600,52.224154
Diezelaan,3,H,,3744NJ,Baarn,Baarn,Utrecht,VBO,5.229547,52.224152
Diezelaan,3,J,,3744NJ,Baarn,Baarn,Utrecht,VBO,5.229487,52.224148
Diezelaan,3,,,3744NJ,Baarn,Baarn,Utrecht,VBO,5.229409,52.224029
Diezelaan,5,,,3744NJ,Baarn,Baarn,Utrecht,VBO,5.229270,52.224248
Diezelaan,7,A,,3744NJ,Baarn,Baarn,Utrecht,VBO,5.229078,52.224008
Diezelaan,7,B,,3744NJ,Baarn,Baarn,Utrecht,VBO,5.229018,52.224006
Diezelaan,7,C,,3744NJ,Baarn,Baarn,Utrecht,VBO,5.228955,52.224003
Diezelaan,7,D,,3744NJ,Baarn,Baarn,Utrecht,VBO,5.228881,52.223999
Diezelaan,7,E,,3744NJ,Baarn,Baarn,Utrecht,VBO,5.228858,52.224128
Diezelaan,7,F,,3744NJ,Baarn,Baarn,Utrecht,VBO,5.228912,52.224130
Diezelaan,7,G,,3744NJ,Baarn,Baarn,Utrecht,VBO,5.228970,52.224133
Diezelaan,7,H,,3744NJ,Baarn,Baarn,Utrecht,VBO,5.229027,52.224135
Diezelaan,7,J,,3744NJ,Baarn,Baarn,Utrecht,VBO,5.229078,52.224137
Diezelaan,7,,,3744NJ,Baarn,Baarn,Utrecht,VBO,5.229178,52.224018
Diezelaan,9,A,,3744NJ,Baarn,Baarn,Utrecht,VBO,5.228409,52.223985
Diezelaan,9,B,,3744NJ,Baarn,Baarn,Utrecht,VBO,5.228472,52.223987
Diezelaan,9,C,,3744NJ,Baarn,Baarn,Utrecht,VBO,5.228542,52.223990
Diezelaan,9,D,,3744NJ,Baarn,Baarn,Utrecht,VBO,5.228606,52.223994
Diezelaan,9,E,,3744NJ,Baarn,Baarn,Utrecht,VBO,5.228610,52.224077
Diezelaan,9,F,,3744NJ,Baarn,Baarn,Utrecht,VBO,5.228556,52.224077
Diezelaan,9,G,,3744NJ,Baarn,Baarn,Utrecht,VBO,5.228500,52.224074
Diezelaan,9,H,,3744NJ,Baarn,Baarn,Utrecht,VBO,5.228447,52.224073
Diezelaan,9,J,,3744NJ,Baarn,Baarn,Utrecht,VBO,5.228388,52.224070
Diezelaan,9,,,3744NJ,Baarn,Baarn,Utrecht,VBO,5.228312,52.223985
Diezelaan,11,,,3744NJ,Baarn,Baarn,Utrecht,VBO,5.228175,52.224204
Diezelaan,13,A,,3744NJ,Baarn,Baarn,Utrecht,VBO,5.227987,52.223969
Diezelaan,13,B,,3744NJ,Baarn,Baarn,Utrecht,VBO,5.227926,52.223967
Diezelaan,13,C,,3744NJ,Baarn,Baarn,Utrecht,VBO,5.227862,52.223963
Diezelaan,13,D,,3744NJ,Baarn,Baarn,Utrecht,VBO,5.227791,52.223959
Diezelaan,13,E,,3744NJ,Baarn,Baarn,Utrecht,VBO,5.227756,52.224080
Diezelaan,13,F,,3744NJ,Baarn,Baarn,Utrecht,VBO,5.227818,52.224083
Diezelaan,13,G,,3744NJ,Baarn,Baarn,Utrecht,VBO,5.227881,52.224086
Diezelaan,13,H,,3744NJ,Baarn,Baarn,Utrecht,VBO,5.227936,52.224089
Diezelaan,13,J,,3744NJ,Baarn,Baarn,Utrecht,VBO,5.227990,52.224091
Diezelaan,13,,,3744NJ,Baarn,Baarn,Utrecht,VBO,5.228086,52.223973
Diezelaan,15,A,,3744NJ,Baarn,Baarn,Utrecht,VBO,5.227303,52.223939
Diezelaan,15,B,,3744NJ,Baarn,Baarn,Utrecht,VBO,5.227368,52.223942
Diezelaan,15,C,,3744NJ,Baarn,Baarn,Utrecht,VBO,5.227437,52.223944
Diezelaan,15,D,,3744NJ,Baarn,Baarn,Utrecht,VBO,5.227503,52.223946
Diezelaan,15,E,,3744NJ,Baarn,Baarn,Utrecht,VBO,5.227496,52.224075
Diezelaan,15,F,,3744NJ,Baarn,Baarn,Utrecht,VBO,5.227441,52.224073
Diezelaan,15,G,,3744NJ,Baarn,Baarn,Utrecht,VBO,5.227388,52.224070
Diezelaan,15,H,,3744NJ,Baarn,Baarn,Utrecht,VBO,5.227334,52.224068
Diezelaan,15,J,,3744NJ,Baarn,Baarn,Utrecht,VBO,5.227274,52.224065
Diezelaan,15,,,3744NJ,Baarn,Baarn,Utrecht,VBO,5.227209,52.223941
Diezelaan,17,,,3744NJ,Baarn,Baarn,Utrecht,VBO,5.227073,52.224160
Diezelaan,19,A,,3744NJ,Baarn,Baarn,Utrecht,VBO,5.226897,52.223919
Diezelaan,19,B,,3744NJ,Baarn,Baarn,Utrecht,VBO,5.226834,52.223917
Diezelaan,19,C,,3744NJ,Baarn,Baarn,Utrecht,VBO,5.226772,52.223913
Diezelaan,19,D,,3744NJ,Baarn,Baarn,Utrecht,VBO,5.226703,52.223910
Diezelaan,19,E,,3744NJ,Baarn,Baarn,Utrecht,VBO,5.226653,52.224038
Diezelaan,19,F,,3744NJ,Baarn,Baarn,Utrecht,VBO,5.226710,52.224040
Diezelaan,19,G,,3744NJ,Baarn,Baarn,Utrecht,VBO,5.226775,52.224043
Diezelaan,19,H,,3744NJ,Baarn,Baarn,Utrecht,VBO,5.226837,52.224047
Diezelaan,19,J,,3744NJ,Baarn,Baarn,Utrecht,VBO,5.226888,52.224049
Diezelaan,19,,,3744NJ,Baarn,Baarn,Utrecht,VBO,5.226985,52.223928
Diezelaan,37,,,3744NJ,Baarn,Baarn,Utrecht,VBO,5.226027,52.224009
Diezelaan,39,,,3744NJ,Baarn,Baarn,Utrecht,VBO,5.225983,52.224008
Diezelaan,41,,,3744NJ,Baarn,Baarn,Utrecht,VBO,5.225938,52.224004
Diezelaan,43,,,3744NJ,Baarn,Baarn,Utrecht,VBO,5.225894,52.224003
Diezelaan,45,,,3744NJ,Baarn,Baarn,Utrecht,VBO,5.225851,52.224008
Diezelaan,47,,,3744NJ,Baarn,Baarn,Utrecht,VBO,5.225807,52.224008
Diezelaan,49,,,3744NJ,Baarn,Baarn,Utrecht,VBO,5.225763,52.223999
Diezelaan,51,,,3744NJ,Baarn,Baarn,Utrecht,VBO,5.225675,52.224053
Diezelaan,53,,,3744NJ,Baarn,Baarn,Utrecht,VBO,5.225763,52.224062
Diezelaan,55,,,3744NJ,Baarn,Baarn,Utrecht,VBO,5.225807,52.224062
Diezelaan,57,,,3744NJ,Baarn,Baarn,Utrecht,VBO,5.226026,52.224071
Diezelaan,59,,,3744NJ,Baarn,Baarn,Utrecht,VBO,5.226012,52.224008
Diezelaan,61,,,3744NJ,Baarn,Baarn,Utrecht,VBO,5.225936,52.224019
Diezelaan,63,,,3744NJ,Baarn,Baarn,Utrecht,VBO,5.225893,52.224018
Diezelaan,65,,,3744NJ,Baarn,Baarn,Utrecht,VBO,5.225851,52.223999
Diezelaan,67,,,3744NJ,Baarn,Baarn,Utrecht,VBO,5.225793,52.223999
Diezelaan,69,,,3744NJ,Baarn,Baarn,Utrecht,VBO,5.225690,52.223999
Diezelaan,71,,,3744NJ,Baarn,Baarn,Utrecht,VBO,5.225690,52.224071
Diezelaan,73,,,3744NJ,Baarn,Baarn,Utrecht,VBO,5.225763,52.224071
Diezelaan,75,,,3744NJ,Baarn,Baarn,Utrecht,VBO,5.225807,52.224071
Diezelaan,77,,,3744NJ,Baarn,Baarn,Utrecht,VBO,5.225500,52.224071
Diezelaan,79,,,3744NJ,Baarn,Baarn,Utrecht,VBO,5.225280,52.224061
Gouwelaan,13,,,3744NK,Baarn,Baarn,Utrecht,VBO,5.227751,52.224712
Gouwelaan,15,,,3744NK,Baarn,Baarn,Utrecht,VBO,5.227517,52.224712
Gouwelaan,17,,,3744NK,Baarn,Baarn,Utrecht,VBO,5.227283,52.224639
Gouwelaan,19,,,3744NK,Baarn,Baarn,Utrecht,VBO,5.227342,52.224612
Gouwelaan,21,,,3744NK,Baarn,Baarn,Utrecht,VBO,5.227298,52.224612
Gouwelaan,23,,,3744NK,Baarn,Baarn,Utrecht,VBO,5.227254,52.224612
Gouwelaan,25,,,3744NK,Baarn,Baarn,Utrecht,VBO,5.227210,52.224612
Gouwelaan,27,,,3744NK,Baarn,Baarn,Utrecht,VBO,5.227166,52.224612
Gouwelaan,29,,,3744NK,Baarn,Baarn,Utrecht,VBO,5.227122,52.224612
Gouwelaan,31,,,3744NK,Baarn,Baarn,Utrecht,VBO,5.227078,52.224612
Gouwelaan,33,,,3744NK,Baarn,Baarn,Utrecht,VBO,5.227034,52.224603
Gouwelaan,35,,,3744NK,Baarn,Baarn,Utrecht,VBO,5.226990,52.224603
Gouwelaan,37,,,3744NK,Baarn,Baarn,Utrecht,VBO,5.226990,52.224639
Gouwelaan,39,,,3744NK,Baarn,Baarn,Utrecht,VBO,5.227078,52.224648
Gouwelaan,41,,,3744NK,Baarn,Baarn,Utrecht,VBO,5.227122,52.224648
Gouwelaan,43,,,3744NK,Baarn,Baarn,Utrecht,VBO,5.227341,52.224657
Gouwelaan,45,,,3744NK,Baarn,Baarn,Utrecht,VBO,5.227327,52.224603
Gouwelaan,47,,,3744NK,Baarn,Baarn,Utrecht,VBO,5.227254,52.224594
Gouwelaan,49,,,3744NK,Baarn,Baarn,Utrecht,VBO,5.227210,52.224594
Gouwelaan,51,,,3744NK,Baarn,Baarn,Utrecht,VBO,5.227166,52.224594
Gouwelaan,53,,,3744NK,Baarn,Baarn,Utrecht,VBO,5.227108,52.224594
Gouwelaan,55,,,3744NK,Baarn,Baarn,Utrecht,VBO,5.227020,52.224585
Gouwelaan,57,,,3744NK,Baarn,Baarn,Utrecht,VBO,5.226990,52.224657
Gouwelaan,59,,,3744NK,Baarn,Baarn,Utrecht,VBO,5.227078,52.224657
Gouwelaan,61,,,3744NK,Baarn,Baarn,Utrecht,VBO,5.227122,52.224666
Gouwelaan,63,,,3744NK,Baarn,Baarn,Utrecht,VBO,5.226815,52.224675
Gouwelaan,65,,,3744NK,Baarn,Baarn,Utrecht,VBO,5.226580,52.224665
Geinstraat,2,,,3744NM,Baarn,Baarn,Utrecht,VBO,5.230710,52.224069
Meijestraat,1,,,3744NN,Baarn,Baarn,Utrecht,VBO,5.233930,52.223803
Spaarnestraat,1,,,3744NP,Baarn,Baarn,Utrecht,VBO,5.228783,52.222745
Spaarnestraat,2,,,3744NP,Baarn,Baarn,Utrecht,VBO,5.229415,52.221982
Spaarnestraat,3,,,3744NP,Baarn,Baarn,Utrecht,VBO,5.228768,52.222853
Spaarnestraat,4,,,3744NP,Baarn,Baarn,Utrecht,VBO,5.229385,52.222189
Spaarnestraat,6,,,3744NP,Baarn,Baarn,Utrecht,VBO,5.229457,52.222323
Spaarnestraat,8,,,3744NP,Baarn,Baarn,Utrecht,VBO,5.229427,52.222521
Spaarnestraat,10,,,3744NP,Baarn,Baarn,Utrecht,VBO,5.229368,52.222647
Spaarnestraat,12,,,3744NP,Baarn,Baarn,Utrecht,VBO,5.229324,52.222845
Waverstraat,2,,,3744NR,Baarn,Baarn,Utrecht,VBO,5.230393,52.222711
Waverstraat,4,,,3744NR,Baarn,Baarn,Utrecht,VBO,5.230392,52.222891
Waverstraat,51,,,3744NR,Baarn,Baarn,Utrecht,VBO,5.229808,52.222531
Vechtstraat,1,,,3744NT,Baarn,Baarn,Utrecht,VBO,5.232069,52.222568
Vechtstraat,2,,,3744NT,Baarn,Baarn,Utrecht,VBO,5.232103,52.223015
Vechtstraat,3,,,3744NT,Baarn,Baarn,Utrecht,VBO,5.231845,52.222576
Vechtstraat,4,,,3744NT,Baarn,Baarn,Utrecht,VBO,5.231867,52.222990
Vechtstraat,5,,,3744NT,Baarn,Baarn,Utrecht,VBO,5.231295,52.222557
Vechtstraat,6,,,3744NT,Baarn,Baarn,Utrecht,VBO,5.231346,52.222970
Vechtstraat,7,,,3744NT,Baarn,Baarn,Utrecht,VBO,5.231092,52.222540
Vechtstraat,8,,,3744NT,Baarn,Baarn,Utrecht,VBO,5.231098,52.222966
Zuwestraat,1,,,3744NV,Baarn,Baarn,Utrecht,VBO,5.232165,52.222129
Zuwestraat,2,,,3744NV,Baarn,Baarn,Utrecht,VBO,5.232061,52.222597
Zuwestraat,3,,,3744NV,Baarn,Baarn,Utrecht,VBO,5.232063,52.222111
Zuwestraat,4,,,3744NV,Baarn,Baarn,Utrecht,VBO,5.231959,52.222596
Zuwestraat,5,,,3744NV,Baarn,Baarn,Utrecht,VBO,5.231902,52.222093
Zuwestraat,6,,,3744NV,Baarn,Baarn,Utrecht,VBO,5.231798,52.222596
Zuwestraat,7,,,3744NV,Baarn,Baarn,Utrecht,VBO,5.231800,52.222084
Zuwestraat,8,,,3744NV,Baarn,Baarn,Utrecht,VBO,5.231710,52.222596
Zuwestraat,9,,,3744NV,Baarn,Baarn,Utrecht,VBO,5.231726,52.222084
Zuwestraat,10,,,3744NV,Baarn,Baarn,Utrecht,VBO,5.231622,52.222605
Zuwestraat,11,,,3744NV,Baarn,Baarn,Utrecht,VBO,5.231639,52.222075
Zuwestraat,12,,,3744NV,Baarn,Baarn,Utrecht,VBO,5.231476,52.222596
Zuwestraat,13,,,3744NV,Baarn,Baarn,Utrecht,VBO,5.231551,52.222075
Zuwestraat,14,,,3744NV,Baarn,Baarn,Utrecht,VBO,5.231373,52.222578
Zuwestraat,15,,,3744NV,Baarn,Baarn,Utrecht,VBO,5.231463,52.222074
Zuwestraat,16,,,3744NV,Baarn,Baarn,Utrecht,VBO,5.231286,52.222578
Zuwestraat,17,,,3744NV,Baarn,Baarn,Utrecht,VBO,5.231375,52.222074
Zuwestraat,18,,,3744NV,Baarn,Baarn,Utrecht,VBO,5.231125,52.222550
Zuwestraat,19,,,3744NV,Baarn,Baarn,Utrecht,VBO,5.231214,52.222074
Zuwestraat,20,,,3744NV,Baarn,Baarn,Utrecht,VBO,5.231813,52.222560
Zuwestraat,21,,,3744NV,Baarn,Baarn,Utrecht,VBO,5.231902,52.222129
Zuwestraat,22,,,3744NV,Baarn,Baarn,Utrecht,VBO,5.231710,52.222560
Zuwestraat,23,,,3744NV,Baarn,Baarn,Utrecht,VBO,5.231814,52.222120
Zuwestraat,24,,,3744NV,Baarn,Baarn,Utrecht,VBO,5.231622,52.222560
Zuwestraat,25,,,3744NV,Baarn,Baarn,Utrecht,VBO,5.231712,52.222111
Zuwestraat,26,,,3744NV,Baarn,Baarn,Utrecht,VBO,5.231476,52.222551
Zuwestraat,27,,,3744NV,Baarn,Baarn,Utrecht,VBO,5.231565,52.222102
Zuwestraat,28,,,3744NV,Baarn,Baarn,Utrecht,VBO,5.231374,52.222542
Zuwestraat,29,,,3744NV,Baarn,Baarn,Utrecht,VBO,5.231463,52.222101
Zuwestraat,30,,,3744NV,Baarn,Baarn,Utrecht,VBO,5.231271,52.222533
Zuwestraat,31,,,3744NV,Baarn,Baarn,Utrecht,VBO,5.231375,52.222101
Zuwestraat,32,,,3744NV,Baarn,Baarn,Utrecht,VBO,5.231110,52.222505
Zuwestraat,33,,,3744NV,Baarn,Baarn,Utrecht,VBO,5.231200,52.222110
Nieuwenoordlaan,1,,,3744PA,Baarn,Baarn,Utrecht,VBO,5.227169,52.219642
Nieuwenoordlaan,3,,,3744PA,Baarn,Baarn,Utrecht,VBO,5.227302,52.219408
Nieuwenoordlaan,4,,,3744PA,Baarn,Baarn,Utrecht,VBO,5.226584,52.219650
Nieuwenoordlaan,5,,,3744PA,Baarn,Baarn,Utrecht,VBO,5.227391,52.219076
Nieuwenoordlaan,6,,,3744PA,Baarn,Baarn,Utrecht,VBO,5.226746,52.219426
Nieuwenoordlaan,7,,,3744PA,Baarn,Baarn,Utrecht,VBO,5.227392,52.218833
Nieuwenoordlaan,8,,,3744PA,Baarn,Baarn,Utrecht,VBO,5.226790,52.219165
Nieuwenoordlaan,10,,,3744PA,Baarn,Baarn,Utrecht,VBO,5.226777,52.218922
Nieuwenoordlaan,11,,,3744PA,Baarn,Baarn,Utrecht,VBO,5.229825,52.217551
Nieuwenoordlaan,12,,,3744PA,Baarn,Baarn,Utrecht,VBO,5.229298,52.217721
Nieuwenoordlaan,13,,,3744PA,Baarn,Baarn,Utrecht,VBO,5.229664,52.217569
Nieuwenoordlaan,15,,,3744PA,Baarn,Baarn,Utrecht,VBO,5.229401,52.217596
Nieuwenoordlaan,17,,,3744PA,Baarn,Baarn,Utrecht,VBO,5.229328,52.217506
Nieuwenoordlaan,19,,,3744PA,Baarn,Baarn,Utrecht,VBO,5.230721,52.216816
Isengardlaan,1,,,3744PB,Baarn,Baarn,Utrecht,VBO,5.225856,52.218571
Isengardlaan,2,,,3744PB,Baarn,Baarn,Utrecht,VBO,5.225722,52.219307
Isengardlaan,3,,,3744PB,Baarn,Baarn,Utrecht,VBO,5.225812,52.218723
Isengardlaan,4,,,3744PB,Baarn,Baarn,Utrecht,VBO,5.225912,52.219254
Isengardlaan,5,,,3744PB,Baarn,Baarn,Utrecht,VBO,5.226045,52.218805
Isengardlaan,6,,,3744PB,Baarn,Baarn,Utrecht,VBO,5.226161,52.219173
Isengardlaan,7,,,3744PB,Baarn,Baarn,Utrecht,VBO,5.226221,52.218814
Isengardlaan,8,,,3744PB,Baarn,Baarn,Utrecht,VBO,5.226352,52.219120
Vijverlaan,1,,,3744PC,Baarn,Baarn,Utrecht,VBO,5.226124,52.217250
Vijverlaan,3,,,3744PC,Baarn,Baarn,Utrecht,VBO,5.225714,52.217402
Vijverlaan,5,,,3744PC,Baarn,Baarn,Utrecht,VBO,5.225802,52.217204
Vijverlaan,13,,,3744PC,Baarn,Baarn,Utrecht,VBO,5.226377,52.216154
Vijverlaan,15,,,3744PC,Baarn,Baarn,Utrecht,VBO,5.227195,52.216469
Vijverlaan,17,,,3744PC,Baarn,Baarn,Utrecht,VBO,5.227590,52.216569
Vijverlaan,19,,,3744PC,Baarn,Baarn,Utrecht,VBO,5.227941,52.216605
Vijverlaan,21,,,3744PC,Baarn,Baarn,Utrecht,VBO,5.228292,52.216651
Isengardplein,2,,,3744PD,Baarn,Baarn,Utrecht,VBO,5.226793,52.218527
Isengardplein,4,,,3744PD,Baarn,Baarn,Utrecht,VBO,5.226837,52.218320
Isengardplein,6,,,3744PD,Baarn,Baarn,Utrecht,VBO,5.226750,52.218311
Isengardplein,8,,,3744PD,Baarn,Baarn,Utrecht,VBO,5.226705,52.218518
Isengardplein,10,,,3744PD,Baarn,Baarn,Utrecht,VBO,5.226198,52.218228
Isengardplein,12,,,3744PD,Baarn,Baarn,Utrecht,VBO,5.226158,52.218363
Isengardplein,14,,,3744PD,Baarn,Baarn,Utrecht,VBO,5.226619,52.218014
Isengardplein,16,,,3744PD,Baarn,Baarn,Utrecht,VBO,5.226970,52.218042
Isengardplein,18,,,3744PD,Baarn,Baarn,Utrecht,VBO,5.226985,52.217988
Isengardplein,20,,,3744PD,Baarn,Baarn,Utrecht,VBO,5.226634,52.217961
Isengardplein,22,,,3744PD,Baarn,Baarn,Utrecht,VBO,5.226327,52.217726
Sterrenpad,2,,,3744PE,Baarn,Baarn,Utrecht,VBO,5.226698,52.216415
Sterrenpad,4,,,3744PE,Baarn,Baarn,Utrecht,VBO,5.226699,52.216199
Huydecoperlaan,1,,,3744PG,Baarn,Baarn,Utrecht,VBO,5.227447,52.215535
Huydecoperlaan,2,,,3744PG,Baarn,Baarn,Utrecht,VBO,5.227679,52.216245
Huydecoperlaan,4,,,3744PG,Baarn,Baarn,Utrecht,VBO,5.228030,52.216291
Huydecoperlaan,6,,,3744PG,Baarn,Baarn,Utrecht,VBO,5.228381,52.216327
Molshoop,1,,,3744PH,Baarn,Baarn,Utrecht,VBO,5.228936,52.216732
Molshoop,3,,,3744PH,Baarn,Baarn,Utrecht,VBO,5.228980,52.216624
Molshoop,5,,,3744PH,Baarn,Baarn,Utrecht,VBO,5.229010,52.216508
Molshoop,7,,,3744PH,Baarn,Baarn,Utrecht,VBO,5.229039,52.216400
Bedrijfsweg,1,,,3744PJ,Baarn,Baarn,Utrecht,VBO,5.229715,52.215673
Bedrijfsweg,2,,,3744PJ,Baarn,Baarn,Utrecht,VBO,5.231104,52.215989
Bedrijfsweg,3,,,3744PJ,Baarn,Baarn,Utrecht,VBO,5.230490,52.215701
Bedrijfsweg,5,,,3744PJ,Baarn,Baarn,Utrecht,VBO,5.230944,52.215755
Rondweg,2,,,3744PK,Baarn,Baarn,Utrecht,VBO,5.232266,52.218552
Rondweg,4,,,3744PK,Baarn,Baarn,Utrecht,VBO,5.231800,52.217806
Mariaoordlaan,1,A,,3744PL,Baarn,Baarn,Utrecht,VBO,5.229538,52.218920
Mariaoordlaan,1,B,,3744PL,Baarn,Baarn,Utrecht,VBO,5.229550,52.218835
Mariaoordlaan,2,,,3744PL,Baarn,Baarn,Utrecht,VBO,5.229266,52.218378
Mariaoordlaan,3,A,,3744PL,Baarn,Baarn,Utrecht,VBO,5.229346,52.218875
Mariaoordlaan,3,B,,3744PL,Baarn,Baarn,Utrecht,VBO,5.229351,52.218844
Mariaoordlaan,3,C,,3744PL,Baarn,Baarn,Utrecht,VBO,5.229271,52.218864
Mariaoordlaan,3,D,,3744PL,Baarn,Baarn,Utrecht,VBO,5.229275,52.218836
Mariaoordlaan,3,E,,3744PL,Baarn,Baarn,Utrecht,VBO,5.229166,52.218858
Mariaoordlaan,3,F,,3744PL,Baarn,Baarn,Utrecht,VBO,5.229175,52.218829
Mariaoordlaan,3,G,,3744PL,Baarn,Baarn,Utrecht,VBO,5.229028,52.218860
Mariaoordlaan,3,H,,3744PL,Baarn,Baarn,Utrecht,VBO,5.229035,52.218808
Mariaoordlaan,4,,,3744PL,Baarn,Baarn,Utrecht,VBO,5.229163,52.218503
Mariaoordlaan,5,A,,3744PL,Baarn,Baarn,Utrecht,VBO,5.229162,52.218892
Mariaoordlaan,5,B,,3744PL,Baarn,Baarn,Utrecht,VBO,5.229178,52.218801
Mariaoordlaan,5,C,,3744PL,Baarn,Baarn,Utrecht,VBO,5.229266,52.218900
Mariaoordlaan,5,D,,3744PL,Baarn,Baarn,Utrecht,VBO,5.229279,52.218810
Mariaoordlaan,5,E,,3744PL,Baarn,Baarn,Utrecht,VBO,5.229342,52.218907
Mariaoordlaan,5,F,,3744PL,Baarn,Baarn,Utrecht,VBO,5.229358,52.218819
Mariaoordlaan,5,G,,3744PL,Baarn,Baarn,Utrecht,VBO,5.229458,52.218912
Mariaoordlaan,5,H,,3744PL,Baarn,Baarn,Utrecht,VBO,5.229469,52.218830
Mariaoordlaan,6,,,3744PL,Baarn,Baarn,Utrecht,VBO,5.229822,52.218522
Mariaoordlaan,7,,,3744PL,Baarn,Baarn,Utrecht,VBO,5.230362,52.218855
Mariaoordlaan,8,,,3744PL,Baarn,Baarn,Utrecht,VBO,5.230027,52.218540
Mariaoordlaan,9,,,3744PL,Baarn,Baarn,Utrecht,VBO,5.230743,52.218892
Mariaoordlaan,10,,,3744PL,Baarn,Baarn,Utrecht,VBO,5.230334,52.218478
Mariaoordlaan,11,,,3744PL,Baarn,Baarn,Utrecht,VBO,5.231800,52.217806
Mariaoordlaan,12,,,3744PL,Baarn,Baarn,Utrecht,VBO,5.230539,52.218496
Mariaoordlaan,14,,,3744PL,Baarn,Baarn,Utrecht,VBO,5.230817,52.218604
Mariaoordlaan,16,,,3744PL,Baarn,Baarn,Utrecht,VBO,5.231022,52.218614
Mariaoordlaan,18,,,3744PL,Baarn,Baarn,Utrecht,VBO,5.231554,52.216942
Cariljonplein,1,,,3744PM,Baarn,Baarn,Utrecht,VBO,5.230205,52.217839
Cariljonplein,2,,,3744PM,Baarn,Baarn,Utrecht,VBO,5.230499,52.217319
Cariljonplein,3,,,3744PM,Baarn,Baarn,Utrecht,VBO,5.229926,52.218055
Cariljonplein,4,,,3744PM,Baarn,Baarn,Utrecht,VBO,5.230471,52.217049
Cariljonplein,5,,,3744PM,Baarn,Baarn,Utrecht,VBO,5.231067,52.218236
Cariljonplein,6,,,3744PM,Baarn,Baarn,Utrecht,VBO,5.231160,52.216735
Cariljonplein,7,,,3744PM,Baarn,Baarn,Utrecht,VBO,5.231009,52.217966
Cariljonplein,8,,,3744PM,Baarn,Baarn,Utrecht,VBO,5.231538,52.217239
Cariljonplein,10,,,3744PM,Baarn,Baarn,Utrecht,VBO,5.231289,52.217445
Eekhoornweg,2,,,3744PN,Baarn,Baarn,Utrecht,VBO,5.228472,52.219410
Eekhoornweg,4,,,3744PN,Baarn,Baarn,Utrecht,VBO,5.228970,52.219519
Eekhoornweg,6,,,3744PN,Baarn,Baarn,Utrecht,VBO,5.229409,52.219546
Muzeplein,1,,,3744PP,Baarn,Baarn,Utrecht,VBO,5.227918,52.218933
Muzeplein,2,,,3744PP,Baarn,Baarn,Utrecht,VBO,5.228357,52.218844
Muzeplein,3,,,3744PP,Baarn,Baarn,Utrecht,VBO,5.227875,52.219317
Muzeplein,4,,,3744PP,Baarn,Baarn,Utrecht,VBO,5.228825,52.219078
Muzeplein,5,,,3744PP,Baarn,Baarn,Utrecht,VBO,5.227770,52.219292
Muzeplein,6,,,3744PP,Baarn,Baarn,Utrecht,VBO,5.229293,52.219168
Muzeplein,7,,,3744PP,Baarn,Baarn,Utrecht,VBO,5.227844,52.219211
Muzeplein,9,,,3744PP,Baarn,Baarn,Utrecht,VBO,5.227910,52.219130
Muzeplein,11,,,3744PP,Baarn,Baarn,Utrecht,VBO,5.227990,52.219149
Muzeplein,13,,,3744PP,Baarn,Baarn,Utrecht,VBO,5.227956,52.219217
Muzeplein,15,,,3744PP,Baarn,Baarn,Utrecht,VBO,5.227887,52.219310
Muzeplein,17,,,3744PP,Baarn,Baarn,Utrecht,VBO,5.227858,52.219337
Muzeplein,19,,,3744PP,Baarn,Baarn,Utrecht,VBO,5.227843,52.219355
Muzeplein,21,,,3744PP,Baarn,Baarn,Utrecht,VBO,5.227770,52.219337
Muzeplein,23,,,3744PP,Baarn,Baarn,Utrecht,VBO,5.227800,52.219310
Muzeplein,25,,,3744PP,Baarn,Baarn,Utrecht,VBO,5.227814,52.219292
Muzeplein,27,,,3744PP,Baarn,Baarn,Utrecht,VBO,5.227829,52.219265
Muzeplein,29,,,3744PP,Baarn,Baarn,Utrecht,VBO,5.227858,52.219238
Muzeplein,31,,,3744PP,Baarn,Baarn,Utrecht,VBO,5.227873,52.219212
Muzeplein,33,,,3744PP,Baarn,Baarn,Utrecht,VBO,5.227888,52.219194
Muzeplein,35,,,3744PP,Baarn,Baarn,Utrecht,VBO,5.227917,52.219176
Muzeplein,37,,,3744PP,Baarn,Baarn,Utrecht,VBO,5.227932,52.219149
Muzeplein,39,,,3744PP,Baarn,Baarn,Utrecht,VBO,5.227961,52.219122
Muzeplein,41,,,3744PP,Baarn,Baarn,Utrecht,VBO,5.228064,52.219104
Muzeplein,43,,,3744PP,Baarn,Baarn,Utrecht,VBO,5.228049,52.219122
Muzeplein,45,,,3744PP,Baarn,Baarn,Utrecht,VBO,5.228020,52.219149
Muzeplein,47,,,3744PP,Baarn,Baarn,Utrecht,VBO,5.228005,52.219167
Muzeplein,49,,,3744PP,Baarn,Baarn,Utrecht,VBO,5.227990,52.219194
Muzeplein,51,,,3744PP,Baarn,Baarn,Utrecht,VBO,5.227961,52.219212
Muzeplein,53,,,3744PP,Baarn,Baarn,Utrecht,VBO,5.227946,52.219239
Muzeplein,55,,,3744PP,Baarn,Baarn,Utrecht,VBO,5.227932,52.219266
Muzeplein,57,,,3744PP,Baarn,Baarn,Utrecht,VBO,5.227863,52.219313
Muzeplein,59,,,3744PP,Baarn,Baarn,Utrecht,VBO,5.227844,52.219328
Muzeplein,61,,,3744PP,Baarn,Baarn,Utrecht,VBO,5.227814,52.219355
Muzeplein,63,,,3744PP,Baarn,Baarn,Utrecht,VBO,5.227741,52.219328
Muzeplein,65,,,3744PP,Baarn,Baarn,Utrecht,VBO,5.227770,52.219301
Muzeplein,67,,,3744PP,Baarn,Baarn,Utrecht,VBO,5.227785,52.219283
Muzeplein,69,,,3744PP,Baarn,Baarn,Utrecht,VBO,5.227815,52.219256
Muzeplein,71,,,3744PP,Baarn,Baarn,Utrecht,VBO,5.227829,52.219229
Muzeplein,73,,,3744PP,Baarn,Baarn,Utrecht,VBO,5.227844,52.219202
Muzeplein,75,,,3744PP,Baarn,Baarn,Utrecht,VBO,5.227859,52.219185
Muzeplein,77,,,3744PP,Baarn,Baarn,Utrecht,VBO,5.227888,52.219167
Muzeplein,79,,,3744PP,Baarn,Baarn,Utrecht,VBO,5.227904,52.219137
Muzeplein,81,,,3744PP,Baarn,Baarn,Utrecht,VBO,5.227932,52.219113
Muzeplein,83,,,3744PP,Baarn,Baarn,Utrecht,VBO,5.228049,52.219095
Muzeplein,85,,,3744PP,Baarn,Baarn,Utrecht,VBO,5.228020,52.219113
Muzeplein,87,,,3744PP,Baarn,Baarn,Utrecht,VBO,5.228005,52.219140
Muzeplein,89,,,3744PP,Baarn,Baarn,Utrecht,VBO,5.227990,52.219167
Muzeplein,91,,,3744PP,Baarn,Baarn,Utrecht,VBO,5.227961,52.219185
Muzeplein,93,,,3744PP,Baarn,Baarn,Utrecht,VBO,5.227943,52.219210
Muzeplein,95,,,3744PP,Baarn,Baarn,Utrecht,VBO,5.227917,52.219230
Muzeplein,97,,,3744PP,Baarn,Baarn,Utrecht,VBO,5.227902,52.219256
Muzeplein,99,,,3744PP,Baarn,Baarn,Utrecht,VBO,5.228560,52.219356
Muzeplein,101,,,3744PP,Baarn,Baarn,Utrecht,VBO,5.229043,52.219456
Muzeplein,103,,,3744PP,Baarn,Baarn,Utrecht,VBO,5.229423,52.219483
Muzeplein,105,,,3744PP,Baarn,Baarn,Utrecht,VBO,5.230374,52.219547
