openbareruimtenaam,huisnummer,huisletter,huisnummertoevoeging,postcode,woonplaatsnaam,gemeentenaam,provincienaam,typeadresseerbaarobject,longitude,latitude
Computerweg,1,A,,3821AA,Amersfoort,Amersfoort,Utrecht,VBO,5.405242,52.174046
Computerweg,1,B,,3821AA,Amersfoort,Amersfoort,Utrecht,VBO,5.405073,52.174032
Computerweg,1,C,,3821AA,Amersfoort,Amersfoort,Utrecht,VBO,5.405230,52.174071
Computerweg,1,D,,3821AA,Amersfoort,Amersfoort,Utrecht,VBO,5.405069,52.174049
Computerweg,1,E,,3821AA,Amersfoort,Amersfoort,Utrecht,VBO,5.405211,52.174096
Computerweg,1,F,,3821AA,Amersfoort,Amersfoort,Utrecht,VBO,5.405062,52.174071
Computerweg,1,G,,3821AA,Amersfoort,Amersfoort,Utrecht,VBO,5.405208,52.174121
Computerweg,1,H,,3821AA,Amersfoort,Amersfoort,Utrecht,VBO,5.405054,52.174089
Computerweg,7,,,3821AA,Amersfoort,Amersfoort,Utrecht,VBO,5.407327,52.173941
Computerweg,9,,,3821AA,Amersfoort,Amersfoort,Utrecht,VBO,5.407360,52.173931
Computerweg,11,,,3821AA,Amersfoort,Amersfoort,Utrecht,VBO,5.407396,52.173921
Computerweg,13,,,3821AA,Amersfoort,Amersfoort,Utrecht,VBO,5.407427,52.173915
Computerweg,37,,,3821AA,Amersfoort,Amersfoort,Utrecht,VBO,5.414140,52.176421
Computerweg,39,,,3821AA,Amersfoort,Amersfoort,Utrecht,VBO,5.414524,52.176419
Computerweg,43,,,3821AA,Amersfoort,Amersfoort,Utrecht,VBO,5.415484,52.176429
Computerweg,45,,,3821AA,Amersfoort,Amersfoort,Utrecht,VBO,5.416095,52.176448
Computerweg,2,B,,3821AB,Amersfoort,Amersfoort,Utrecht,VBO,5.405676,52.174581
Computerweg,2,,,3821AB,Amersfoort,Amersfoort,Utrecht,VBO,5.405634,52.174545
Computerweg,4,,,3821AB,Amersfoort,Amersfoort,Utrecht,VBO,5.405689,52.174597
Computerweg,6,,,3821AB,Amersfoort,Amersfoort,Utrecht,VBO,5.405844,52.174829
Computerweg,8,A,,3821AB,Amersfoort,Amersfoort,Utrecht,VBO,5.407366,52.174573
Computerweg,8,B,,3821AB,Amersfoort,Amersfoort,Utrecht,VBO,5.407349,52.174582
Computerweg,8,C,,3821AB,Amersfoort,Amersfoort,Utrecht,VBO,5.407335,52.174594
Computerweg,8,D,,3821AB,Amersfoort,Amersfoort,Utrecht,VBO,5.407238,52.174663
Computerweg,8,E,,3821AB,Amersfoort,Amersfoort,Utrecht,VBO,5.407227,52.174674
Computerweg,8,,,3821AB,Amersfoort,Amersfoort,Utrecht,VBO,5.407380,52.174560
Computerweg,12,A,,3821AB,Amersfoort,Amersfoort,Utrecht,VBO,5.408668,52.175071
Computerweg,12,B,,3821AB,Amersfoort,Amersfoort,Utrecht,VBO,5.408678,52.175074
Computerweg,12,C,,3821AB,Amersfoort,Amersfoort,Utrecht,VBO,5.408688,52.175078
Computerweg,12,D,,3821AB,Amersfoort,Amersfoort,Utrecht,VBO,5.408701,52.175083
Computerweg,12,L,,3821AB,Amersfoort,Amersfoort,Utrecht,VBO,5.409633,52.175404
Computerweg,14,,,3821AB,Amersfoort,Amersfoort,Utrecht,VBO,5.412144,52.176569
Computerweg,16,B,,3821AB,Amersfoort,Amersfoort,Utrecht,VBO,5.414166,52.177025
Computerweg,16,C,,3821AB,Amersfoort,Amersfoort,Utrecht,VBO,5.414228,52.177030
Computerweg,16,,,3821AB,Amersfoort,Amersfoort,Utrecht,VBO,5.414164,52.176984
Computerweg,18,,,3821AB,Amersfoort,Amersfoort,Utrecht,VBO,5.414538,52.177559
Computerweg,20,A,,3821AB,Amersfoort,Amersfoort,Utrecht,VBO,5.414957,52.177458
Computerweg,20,,,3821AB,Amersfoort,Amersfoort,Utrecht,VBO,5.414844,52.177112
Computerweg,22,,,3821AB,Amersfoort,Amersfoort,Utrecht,VBO,5.414962,52.177060
Computerweg,24,,,3821AB,Amersfoort,Amersfoort,Utrecht,VBO,5.415118,52.177057
Computerweg,26,,,3821AB,Amersfoort,Amersfoort,Utrecht,VBO,5.415131,52.177655
Printerweg,6,,,3821AD,Amersfoort,Amersfoort,Utrecht,VBO,5.410099,52.175694
Printerweg,8,,,3821AD,Amersfoort,Amersfoort,Utrecht,VBO,5.410290,52.175744
Printerweg,10,A,,3821AD,Amersfoort,Amersfoort,Utrecht,VBO,5.410500,52.176227
Printerweg,10,B,,3821AD,Amersfoort,Amersfoort,Utrecht,VBO,5.410529,52.176223
Printerweg,10,C,,3821AD,Amersfoort,Amersfoort,Utrecht,VBO,5.410566,52.176244
Printerweg,10,D,,3821AD,Amersfoort,Amersfoort,Utrecht,VBO,5.410479,52.176188
Printerweg,10,E,,3821AD,Amersfoort,Amersfoort,Utrecht,VBO,5.410535,52.176200
Printerweg,10,F,,3821AD,Amersfoort,Amersfoort,Utrecht,VBO,5.410580,52.176220
Printerweg,10,G,,3821AD,Amersfoort,Amersfoort,Utrecht,VBO,5.410576,52.176202
Printerweg,10,H,,3821AD,Amersfoort,Amersfoort,Utrecht,VBO,5.410525,52.176182
Printerweg,10,K,,3821AD,Amersfoort,Amersfoort,Utrecht,VBO,5.410496,52.176169
Printerweg,10,L,,3821AD,Amersfoort,Amersfoort,Utrecht,VBO,5.410556,52.176180
Printerweg,10,,,3821AD,Amersfoort,Amersfoort,Utrecht,VBO,5.410459,52.176226
Printerweg,12,,,3821AD,Amersfoort,Amersfoort,Utrecht,VBO,5.410542,52.176260
Printerweg,14,,,3821AD,Amersfoort,Amersfoort,Utrecht,VBO,5.410346,52.176734
Printerweg,16,,,3821AD,Amersfoort,Amersfoort,Utrecht,VBO,5.410359,52.176738
Printerweg,18,,,3821AD,Amersfoort,Amersfoort,Utrecht,VBO,5.410372,52.176743
Printerweg,20,,,3821AD,Amersfoort,Amersfoort,Utrecht,VBO,5.410386,52.176746
Printerweg,22,,,3821AD,Amersfoort,Amersfoort,Utrecht,VBO,5.410397,52.176752
Printerweg,24,,,3821AD,Amersfoort,Amersfoort,Utrecht,VBO,5.410408,52.176756
Printerweg,26,,,3821AD,Amersfoort,Amersfoort,Utrecht,VBO,5.410423,52.176760
Printerweg,28,,,3821AD,Amersfoort,Amersfoort,Utrecht,VBO,5.410437,52.176763
Printerweg,30,,,3821AD,Amersfoort,Amersfoort,Utrecht,VBO,5.410447,52.176768
Printerweg,32,,,3821AD,Amersfoort,Amersfoort,Utrecht,VBO,5.410463,52.176772
Printerweg,34,,,3821AD,Amersfoort,Amersfoort,Utrecht,VBO,5.410310,52.177368
Printerweg,36,,,3821AD,Amersfoort,Amersfoort,Utrecht,VBO,5.410322,52.177372
Printerweg,38,,,3821AD,Amersfoort,Amersfoort,Utrecht,VBO,5.410333,52.177376
Printerweg,40,,,3821AD,Amersfoort,Amersfoort,Utrecht,VBO,5.410343,52.177379
Printerweg,42,,,3821AD,Amersfoort,Amersfoort,Utrecht,VBO,5.410358,52.177384
Printerweg,44,,,3821AD,Amersfoort,Amersfoort,Utrecht,VBO,5.410373,52.177389
Printerweg,46,,,3821AD,Amersfoort,Amersfoort,Utrecht,VBO,5.410386,52.177394
Printerweg,48,,,3821AD,Amersfoort,Amersfoort,Utrecht,VBO,5.410399,52.177398
Printerweg,50,,,3821AD,Amersfoort,Amersfoort,Utrecht,VBO,5.410410,52.177402
Printerweg,52,,,3821AD,Amersfoort,Amersfoort,Utrecht,VBO,5.410420,52.177407
Printerweg,54,,,3821AD,Amersfoort,Amersfoort,Utrecht,VBO,5.410433,52.177411
Printerweg,56,,,3821AD,Amersfoort,Amersfoort,Utrecht,VBO,5.410444,52.177414
Printerweg,58,,,3821AD,Amersfoort,Amersfoort,Utrecht,VBO,5.410158,52.176617
Hoefseweg,1,,,3821AE,Amersfoort,Amersfoort,Utrecht,VBO,5.406998,52.175281
Hoefseweg,3,A,,3821AE,Amersfoort,Amersfoort,Utrecht,VBO,5.406910,52.176180
Hoefseweg,3,,,3821AE,Amersfoort,Amersfoort,Utrecht,VBO,5.406772,52.176054
Hoefseweg,5,,,3821AE,Amersfoort,Amersfoort,Utrecht,VBO,5.407407,52.175795
Hoefseweg,6,,,3821AE,Amersfoort,Amersfoort,Utrecht,VBO,5.407714,52.175430
Hoefseweg,7,A,,3821AE,Amersfoort,Amersfoort,Utrecht,VBO,5.407560,52.175965
Hoefseweg,7,B,,3821AE,Amersfoort,Amersfoort,Utrecht,VBO,5.407718,52.176091
Hoefseweg,7,C,,3821AE,Amersfoort,Amersfoort,Utrecht,VBO,5.407911,52.176236
Hoefseweg,8,,,3821AE,Amersfoort,Amersfoort,Utrecht,VBO,5.407764,52.175461
Hoefseweg,9,A,,3821AE,Amersfoort,Amersfoort,Utrecht,VBO,5.408611,52.176771
Hoefseweg,9,B,,3821AE,Amersfoort,Amersfoort,Utrecht,VBO,5.407812,52.176716
Hoefseweg,9,,,3821AE,Amersfoort,Amersfoort,Utrecht,VBO,5.408300,52.176458
Hoefseweg,11,A,,3821AE,Amersfoort,Amersfoort,Utrecht,VBO,5.409516,52.177836
Hoefseweg,11,B,,3821AE,Amersfoort,Amersfoort,Utrecht,VBO,5.409733,52.177914
Hoefseweg,11,,,3821AE,Amersfoort,Amersfoort,Utrecht,VBO,5.409308,52.177594
Hoefseweg,31,,,3821AE,Amersfoort,Amersfoort,Utrecht,VBO,5.423669,52.177865
Hoefseweg,51,,,3821AE,Amersfoort,Amersfoort,Utrecht,VBO,5.414550,52.177834
Beeldschermweg,1,,1,3821AH,Amersfoort,Amersfoort,Utrecht,VBO,5.417638,52.177490
Beeldschermweg,1,,,3821AH,Amersfoort,Amersfoort,Utrecht,VBO,5.417908,52.177207
Beeldschermweg,2,,,3821AH,Amersfoort,Amersfoort,Utrecht,VBO,5.417138,52.177060
Beeldschermweg,3,,,3821AH,Amersfoort,Amersfoort,Utrecht,VBO,5.417885,52.177784
Beeldschermweg,4,,,3821AH,Amersfoort,Amersfoort,Utrecht,VBO,5.417092,52.178521
Beeldschermweg,5,,1,3821AH,Amersfoort,Amersfoort,Utrecht,VBO,5.418296,52.178475
Beeldschermweg,5,,11,3821AH,Amersfoort,Amersfoort,Utrecht,VBO,5.417773,52.178794
Beeldschermweg,5,,3,3821AH,Amersfoort,Amersfoort,Utrecht,VBO,5.418073,52.178555
Beeldschermweg,5,,5,3821AH,Amersfoort,Amersfoort,Utrecht,VBO,5.417779,52.178613
Beeldschermweg,5,,7,3821AH,Amersfoort,Amersfoort,Utrecht,VBO,5.418303,52.178948
Beeldschermweg,5,,9,3821AH,Amersfoort,Amersfoort,Utrecht,VBO,5.418051,52.178862
Beeldschermweg,6,A,,3821AH,Amersfoort,Amersfoort,Utrecht,VBO,5.417142,52.178885
Beeldschermweg,6,B,,3821AH,Amersfoort,Amersfoort,Utrecht,VBO,5.417131,52.179089
Beeldschermweg,6,C,,3821AH,Amersfoort,Amersfoort,Utrecht,VBO,5.416956,52.179084
Beeldschermweg,6,D,,3821AH,Amersfoort,Amersfoort,Utrecht,VBO,5.416751,52.179090
Beeldschermweg,6,E,,3821AH,Amersfoort,Amersfoort,Utrecht,VBO,5.416567,52.179081
Beeldschermweg,6,F,,3821AH,Amersfoort,Amersfoort,Utrecht,VBO,5.416351,52.179086
Beeldschermweg,6,H,,3821AH,Amersfoort,Amersfoort,Utrecht,VBO,5.417101,52.178980
Beeldschermweg,7,,,3821AH,Amersfoort,Amersfoort,Utrecht,VBO,5.417944,52.179369
Terminalweg,3,,,3821AJ,Amersfoort,Amersfoort,Utrecht,VBO,5.413895,52.177307
Terminalweg,5,,,3821AJ,Amersfoort,Amersfoort,Utrecht,VBO,5.413906,52.177468
Terminalweg,10,,,3821AJ,Amersfoort,Amersfoort,Utrecht,VBO,5.413889,52.178995
Terminalweg,11,,,3821AJ,Amersfoort,Amersfoort,Utrecht,VBO,5.414064,52.178284
Terminalweg,12,,,3821AJ,Amersfoort,Amersfoort,Utrecht,VBO,5.414152,52.179254
Terminalweg,13,,,3821AJ,Amersfoort,Amersfoort,Utrecht,VBO,5.414384,52.178566
Terminalweg,14,A,,3821AJ,Amersfoort,Amersfoort,Utrecht,VBO,5.414417,52.179400
Terminalweg,14,,,3821AJ,Amersfoort,Amersfoort,Utrecht,VBO,5.414437,52.179378
Terminalweg,15,,,3821AJ,Amersfoort,Amersfoort,Utrecht,VBO,5.415113,52.178771
Terminalweg,17,,,3821AJ,Amersfoort,Amersfoort,Utrecht,VBO,5.415589,52.179176
Terminalweg,19,A,,3821AJ,Amersfoort,Amersfoort,Utrecht,VBO,5.416100,52.179494
Terminalweg,20,,,3821AJ,Amersfoort,Amersfoort,Utrecht,VBO,5.417444,52.180165
Terminalweg,21,A,,3821AJ,Amersfoort,Amersfoort,Utrecht,VBO,5.416878,52.179620
Terminalweg,21,B,,3821AJ,Amersfoort,Amersfoort,Utrecht,VBO,5.416905,52.179619
Terminalweg,21,C,,3821AJ,Amersfoort,Amersfoort,Utrecht,VBO,5.416934,52.179620
Terminalweg,21,D,,3821AJ,Amersfoort,Amersfoort,Utrecht,VBO,5.416963,52.179620
Terminalweg,21,G,,3821AJ,Amersfoort,Amersfoort,Utrecht,VBO,5.416912,52.179592
Terminalweg,27,,1,3821AJ,Amersfoort,Amersfoort,Utrecht,VBO,5.420237,52.178392
Terminalweg,27,,,3821AJ,Amersfoort,Amersfoort,Utrecht,VBO,5.419223,52.179173
Terminalweg,31,A,,3821AJ,Amersfoort,Amersfoort,Utrecht,VBO,5.419953,52.177885
Terminalweg,31,,,3821AJ,Amersfoort,Amersfoort,Utrecht,VBO,5.420156,52.177692
Terminalweg,32,,,3821AJ,Amersfoort,Amersfoort,Utrecht,VBO,5.421118,52.179276
Terminalweg,33,,,3821AJ,Amersfoort,Amersfoort,Utrecht,VBO,5.419244,52.177768
Terminalweg,36,,,3821AJ,Amersfoort,Amersfoort,Utrecht,VBO,5.421199,52.178667
Terminalweg,37,A,,3821AJ,Amersfoort,Amersfoort,Utrecht,VBO,5.419169,52.177329
Terminalweg,37,B,,3821AJ,Amersfoort,Amersfoort,Utrecht,VBO,5.418900,52.177329
Terminalweg,39,A,,3821AJ,Amersfoort,Amersfoort,Utrecht,VBO,5.419173,52.177051
Terminalweg,39,B,,3821AJ,Amersfoort,Amersfoort,Utrecht,VBO,5.418890,52.177059
Terminalweg,39,,,3821AJ,Amersfoort,Amersfoort,Utrecht,VBO,5.419467,52.177165
Terminalweg,40,,,3821AJ,Amersfoort,Amersfoort,Utrecht,VBO,5.421730,52.177047
Terminalweg,41,,,3821AJ,Amersfoort,Amersfoort,Utrecht,VBO,5.419874,52.177289
Terminalweg,43,,,3821AJ,Amersfoort,Amersfoort,Utrecht,VBO,5.420110,52.177283
Terminalweg,45,,,3821AJ,Amersfoort,Amersfoort,Utrecht,VBO,5.420421,52.177271
Terminalweg,47,,,3821AJ,Amersfoort,Amersfoort,Utrecht,VBO,5.420639,52.176933
Databankweg,1,,,3821AL,Amersfoort,Amersfoort,Utrecht,VBO,5.412773,52.178564
Databankweg,2,A,,3821AL,Amersfoort,Amersfoort,Utrecht,VBO,5.413068,52.178980
Databankweg,2,,,3821AL,Amersfoort,Amersfoort,Utrecht,VBO,5.413488,52.178704
Databankweg,4,A,,3821AL,Amersfoort,Amersfoort,Utrecht,VBO,5.412791,52.179186
Databankweg,4,B,,3821AL,Amersfoort,Amersfoort,Utrecht,VBO,5.412628,52.179311
Databankweg,4,C,,3821AL,Amersfoort,Amersfoort,Utrecht,VBO,5.412987,52.179460
Databankweg,6,A,,3821AL,Amersfoort,Amersfoort,Utrecht,VBO,5.413193,52.179589
Databankweg,6,B,,3821AL,Amersfoort,Amersfoort,Utrecht,VBO,5.413291,52.179535
Databankweg,6,C,,3821AL,Amersfoort,Amersfoort,Utrecht,VBO,5.413400,52.179465
Databankweg,7,A,,3821AL,Amersfoort,Amersfoort,Utrecht,VBO,5.420612,52.179950
Databankweg,7,B,,3821AL,Amersfoort,Amersfoort,Utrecht,VBO,5.420440,52.179682
Databankweg,7,,,3821AL,Amersfoort,Amersfoort,Utrecht,VBO,5.420190,52.179629
Databankweg,8,,,3821AL,Amersfoort,Amersfoort,Utrecht,VBO,5.413482,52.179686
Databankweg,9,,,3821AL,Amersfoort,Amersfoort,Utrecht,VBO,5.420438,52.179387
Databankweg,10,,,3821AL,Amersfoort,Amersfoort,Utrecht,VBO,5.414097,52.180101
Databankweg,12,A,,3821AL,Amersfoort,Amersfoort,Utrecht,VBO,5.415156,52.180648
Databankweg,12,B,,3821AL,Amersfoort,Amersfoort,Utrecht,VBO,5.415169,52.180652
Databankweg,12,C,,3821AL,Amersfoort,Amersfoort,Utrecht,VBO,5.415256,52.180719
Databankweg,12,G,,3821AL,Amersfoort,Amersfoort,Utrecht,VBO,5.415167,52.180641
Databankweg,12,H,,3821AL,Amersfoort,Amersfoort,Utrecht,VBO,5.415177,52.180645
Databankweg,12,K,,3821AL,Amersfoort,Amersfoort,Utrecht,VBO,5.415267,52.180292
Databankweg,12,L,,3821AL,Amersfoort,Amersfoort,Utrecht,VBO,5.415197,52.180655
Databankweg,12,N,,3821AL,Amersfoort,Amersfoort,Utrecht,VBO,5.415378,52.180792
Databankweg,12,R,,3821AL,Amersfoort,Amersfoort,Utrecht,VBO,5.415186,52.180638
Databankweg,12,,,3821AL,Amersfoort,Amersfoort,Utrecht,VBO,5.415210,52.180634
Databankweg,18,,,3821AL,Amersfoort,Amersfoort,Utrecht,VBO,5.416278,52.181184
Databankweg,20,,,3821AL,Amersfoort,Amersfoort,Utrecht,VBO,5.417425,52.181523
Databankweg,22,,,3821AL,Amersfoort,Amersfoort,Utrecht,VBO,5.418021,52.181320
Databankweg,26,A,,3821AL,Amersfoort,Amersfoort,Utrecht,VBO,5.418827,52.181017
Databankweg,26,B,,3821AL,Amersfoort,Amersfoort,Utrecht,VBO,5.418777,52.180991
Databankweg,26,C,,3821AL,Amersfoort,Amersfoort,Utrecht,VBO,5.418703,52.180972
Databankweg,26,D,,3821AL,Amersfoort,Amersfoort,Utrecht,VBO,5.418666,52.180950
Databankweg,26,,,3821AL,Amersfoort,Amersfoort,Utrecht,VBO,5.419289,52.180797
Databankweg,28,A,,3821AL,Amersfoort,Amersfoort,Utrecht,VBO,5.419251,52.180773
Databankweg,28,B,,3821AL,Amersfoort,Amersfoort,Utrecht,VBO,5.419200,52.180746
Databankweg,28,C,,3821AL,Amersfoort,Amersfoort,Utrecht,VBO,5.419137,52.180711
Databankweg,28,D,,3821AL,Amersfoort,Amersfoort,Utrecht,VBO,5.419077,52.180681
Databankweg,28,,,3821AL,Amersfoort,Amersfoort,Utrecht,VBO,5.418887,52.181036
Databankweg,30,A,,3821AL,Amersfoort,Amersfoort,Utrecht,VBO,5.419763,52.180376
Databankweg,30,B,,3821AL,Amersfoort,Amersfoort,Utrecht,VBO,5.419728,52.180360
Databankweg,30,C,,3821AL,Amersfoort,Amersfoort,Utrecht,VBO,5.419713,52.180349
Databankweg,30,D,,3821AL,Amersfoort,Amersfoort,Utrecht,VBO,5.419685,52.180336
Databankweg,30,,,3821AL,Amersfoort,Amersfoort,Utrecht,VBO,5.419794,52.180392
Databankweg,32,A,,3821AL,Amersfoort,Amersfoort,Utrecht,VBO,5.419726,52.180110
Databankweg,32,B,,3821AL,Amersfoort,Amersfoort,Utrecht,VBO,5.419666,52.180092
Databankweg,32,C,,3821AL,Amersfoort,Amersfoort,Utrecht,VBO,5.419630,52.180077
Databankweg,32,D,,3821AL,Amersfoort,Amersfoort,Utrecht,VBO,5.419607,52.180064
Databankweg,32,,,3821AL,Amersfoort,Amersfoort,Utrecht,VBO,5.419754,52.180131
Inputplein,1,,,3821AM,Amersfoort,Amersfoort,Utrecht,VBO,5.405208,52.174873
Inputplein,2,,,3821AM,Amersfoort,Amersfoort,Utrecht,VBO,5.405150,52.174724
Inputplein,4,,,3821AM,Amersfoort,Amersfoort,Utrecht,VBO,5.404324,52.174762
Printerweg,1,,,3821AP,Amersfoort,Amersfoort,Utrecht,VBO,5.408424,52.175656
Printerweg,3,,,3821AP,Amersfoort,Amersfoort,Utrecht,VBO,5.408741,52.175764
Printerweg,7,,,3821AP,Amersfoort,Amersfoort,Utrecht,VBO,5.408764,52.175771
Printerweg,11,,,3821AP,Amersfoort,Amersfoort,Utrecht,VBO,5.408989,52.175858
Printerweg,13,,,3821AP,Amersfoort,Amersfoort,Utrecht,VBO,5.409200,52.175931
Printerweg,15,,1,3821AP,Amersfoort,Amersfoort,Utrecht,VBO,5.409254,52.176101
Printerweg,15,,,3821AP,Amersfoort,Amersfoort,Utrecht,VBO,5.409397,52.175999
Printerweg,17,,,3821AP,Amersfoort,Amersfoort,Utrecht,VBO,5.409731,52.176082
Printerweg,19,,,3821AP,Amersfoort,Amersfoort,Utrecht,VBO,5.409757,52.176104
Printerweg,21,,,3821AP,Amersfoort,Amersfoort,Utrecht,VBO,5.409770,52.176125
Printerweg,23,,,3821AP,Amersfoort,Amersfoort,Utrecht,VBO,5.409699,52.176121
Printerweg,25,,,3821AP,Amersfoort,Amersfoort,Utrecht,VBO,5.409659,52.176133
Printerweg,37,,,3821AP,Amersfoort,Amersfoort,Utrecht,VBO,5.409733,52.176371
Printerweg,39,,,3821AP,Amersfoort,Amersfoort,Utrecht,VBO,5.409734,52.176509
Printerweg,41,,,3821AP,Amersfoort,Amersfoort,Utrecht,VBO,5.409743,52.176765
Printerweg,43,,,3821AP,Amersfoort,Amersfoort,Utrecht,VBO,5.409706,52.176780
Printerweg,47,,,3821AP,Amersfoort,Amersfoort,Utrecht,VBO,5.409682,52.176793
Printerweg,51,,,3821AP,Amersfoort,Amersfoort,Utrecht,VBO,5.409235,52.176449
Printerweg,53,,,3821AP,Amersfoort,Amersfoort,Utrecht,VBO,5.409146,52.176342
Printerweg,55,,,3821AP,Amersfoort,Amersfoort,Utrecht,VBO,5.409042,52.176225
Disketteweg,1,A,,3821AR,Amersfoort,Amersfoort,Utrecht,VBO,5.404384,52.173217
Disketteweg,1,B,,3821AR,Amersfoort,Amersfoort,Utrecht,VBO,5.404424,52.173211
Disketteweg,1,,,3821AR,Amersfoort,Amersfoort,Utrecht,VBO,5.404340,52.173223
Disketteweg,2,,,3821AR,Amersfoort,Amersfoort,Utrecht,VBO,5.403790,52.173969
Disketteweg,6,,1,3821AR,Amersfoort,Amersfoort,Utrecht,VBO,5.402962,52.173293
Disketteweg,6,,,3821AR,Amersfoort,Amersfoort,Utrecht,VBO,5.403307,52.173411
Disketteweg,10,,,3821AR,Amersfoort,Amersfoort,Utrecht,VBO,5.402116,52.172631
Disketteweg,11,,,3821AR,Amersfoort,Amersfoort,Utrecht,VBO,5.403812,52.172681
Recordweg,1,,1,3821AS,Amersfoort,Amersfoort,Utrecht,VBO,5.415343,52.179727
Recordweg,1,,,3821AS,Amersfoort,Amersfoort,Utrecht,VBO,5.415016,52.179727
Recordweg,2,,,3821AS,Amersfoort,Amersfoort,Utrecht,VBO,5.415676,52.180039
Recordweg,3,,,3821AS,Amersfoort,Amersfoort,Utrecht,VBO,5.414762,52.179869
Recordweg,5,,,3821AS,Amersfoort,Amersfoort,Utrecht,VBO,5.414873,52.180026
Lichtpenweg,6,,,3821BA,Amersfoort,Amersfoort,Utrecht,VBO,5.407063,52.173438
Lichtpenweg,7,,,3821BA,Amersfoort,Amersfoort,Utrecht,VBO,5.407406,52.173580
Plotterweg,1,,,3821BB,Amersfoort,Amersfoort,Utrecht,VBO,5.404869,52.173212
Plotterweg,4,A,,3821BB,Amersfoort,Amersfoort,Utrecht,VBO,5.407710,52.173126
Plotterweg,4,B,,3821BB,Amersfoort,Amersfoort,Utrecht,VBO,5.407733,52.173158
Plotterweg,4,C,,3821BB,Amersfoort,Amersfoort,Utrecht,VBO,5.407633,52.173128
Plotterweg,4,D,,3821BB,Amersfoort,Amersfoort,Utrecht,VBO,5.407766,52.173205
Plotterweg,4,E,,3821BB,Amersfoort,Amersfoort,Utrecht,VBO,5.407751,52.173195
Plotterweg,4,F,,3821BB,Amersfoort,Amersfoort,Utrecht,VBO,5.407640,52.173127
Plotterweg,6,A,,3821BB,Amersfoort,Amersfoort,Utrecht,VBO,5.407637,52.173165
Plotterweg,6,B,,3821BB,Amersfoort,Amersfoort,Utrecht,VBO,5.407633,52.173158
Plotterweg,6,C,,3821BB,Amersfoort,Amersfoort,Utrecht,VBO,5.407714,52.173180
Plotterweg,6,D,,3821BB,Amersfoort,Amersfoort,Utrecht,VBO,5.407741,52.173201
Plotterweg,6,E,,3821BB,Amersfoort,Amersfoort,Utrecht,VBO,5.407700,52.173150
Plotterweg,6,F,,3821BB,Amersfoort,Amersfoort,Utrecht,VBO,5.407679,52.173212
Plotterweg,6,G,,3821BB,Amersfoort,Amersfoort,Utrecht,VBO,5.407664,52.173196
Plotterweg,8,A,,3821BB,Amersfoort,Amersfoort,Utrecht,VBO,5.407741,52.173168
Plotterweg,8,B,,3821BB,Amersfoort,Amersfoort,Utrecht,VBO,5.407820,52.173151
Plotterweg,8,C,,3821BB,Amersfoort,Amersfoort,Utrecht,VBO,5.407789,52.173264
Plotterweg,8,D,,3821BB,Amersfoort,Amersfoort,Utrecht,VBO,5.407716,52.173244
Plotterweg,8,E,,3821BB,Amersfoort,Amersfoort,Utrecht,VBO,5.407774,52.173202
Plotterweg,8,F,,3821BB,Amersfoort,Amersfoort,Utrecht,VBO,5.407685,52.173143
Plotterweg,8,G,,3821BB,Amersfoort,Amersfoort,Utrecht,VBO,5.407791,52.173120
Plotterweg,10,A,,3821BB,Amersfoort,Amersfoort,Utrecht,VBO,5.407598,52.173147
Plotterweg,10,B,,3821BB,Amersfoort,Amersfoort,Utrecht,VBO,5.407631,52.173152
Plotterweg,10,C,,3821BB,Amersfoort,Amersfoort,Utrecht,VBO,5.407710,52.173176
Plotterweg,10,D,,3821BB,Amersfoort,Amersfoort,Utrecht,VBO,5.407766,52.173199
Plotterweg,10,E,,3821BB,Amersfoort,Amersfoort,Utrecht,VBO,5.407784,52.173237
Plotterweg,10,F,,3821BB,Amersfoort,Amersfoort,Utrecht,VBO,5.407671,52.173117
Plotterweg,10,G,,3821BB,Amersfoort,Amersfoort,Utrecht,VBO,5.407633,52.173113
Plotterweg,12,A,,3821BB,Amersfoort,Amersfoort,Utrecht,VBO,5.407757,52.173143
Plotterweg,12,B,,3821BB,Amersfoort,Amersfoort,Utrecht,VBO,5.407789,52.173137
Plotterweg,12,C,,3821BB,Amersfoort,Amersfoort,Utrecht,VBO,5.407641,52.173243
Plotterweg,12,D,,3821BB,Amersfoort,Amersfoort,Utrecht,VBO,5.407729,52.173243
Plotterweg,12,E,,3821BB,Amersfoort,Amersfoort,Utrecht,VBO,5.407807,52.173124
Plotterweg,12,F,,3821BB,Amersfoort,Amersfoort,Utrecht,VBO,5.407722,52.173253
Plotterweg,12,G,,3821BB,Amersfoort,Amersfoort,Utrecht,VBO,5.407623,52.173220
Plotterweg,13,,,3821BB,Amersfoort,Amersfoort,Utrecht,VBO,5.409010,52.173132
Plotterweg,14,A,,3821BB,Amersfoort,Amersfoort,Utrecht,VBO,5.407577,52.173177
Plotterweg,14,B,,3821BB,Amersfoort,Amersfoort,Utrecht,VBO,5.407834,52.173115
Plotterweg,14,C,,3821BB,Amersfoort,Amersfoort,Utrecht,VBO,5.407757,52.173134
Plotterweg,15,,,3821BB,Amersfoort,Amersfoort,Utrecht,VBO,5.408331,52.173060
Plotterweg,16,A,,3821BB,Amersfoort,Amersfoort,Utrecht,VBO,5.408323,52.173594
Plotterweg,16,B,,3821BB,Amersfoort,Amersfoort,Utrecht,VBO,5.408080,52.173509
Plotterweg,16,C,,3821BB,Amersfoort,Amersfoort,Utrecht,VBO,5.408018,52.173574
Plotterweg,16,D,,3821BB,Amersfoort,Amersfoort,Utrecht,VBO,5.407954,52.173659
Plotterweg,16,E,,3821BB,Amersfoort,Amersfoort,Utrecht,VBO,5.408058,52.173697
Plotterweg,16,F,,3821BB,Amersfoort,Amersfoort,Utrecht,VBO,5.408182,52.173744
Plotterweg,16,G,,3821BB,Amersfoort,Amersfoort,Utrecht,VBO,5.408258,52.173663
Plotterweg,17,,,3821BB,Amersfoort,Amersfoort,Utrecht,VBO,5.409029,52.173119
Plotterweg,18,A,,3821BB,Amersfoort,Amersfoort,Utrecht,VBO,5.408298,52.173597
Plotterweg,18,B,,3821BB,Amersfoort,Amersfoort,Utrecht,VBO,5.408196,52.173564
Plotterweg,18,C,,3821BB,Amersfoort,Amersfoort,Utrecht,VBO,5.408082,52.173524
Plotterweg,18,D,,3821BB,Amersfoort,Amersfoort,Utrecht,VBO,5.408045,52.173569
Plotterweg,18,E,,3821BB,Amersfoort,Amersfoort,Utrecht,VBO,5.407985,52.173645
Plotterweg,18,F,,3821BB,Amersfoort,Amersfoort,Utrecht,VBO,5.408064,52.173691
Plotterweg,18,G,,3821BB,Amersfoort,Amersfoort,Utrecht,VBO,5.408174,52.173732
Plotterweg,18,H,,3821BB,Amersfoort,Amersfoort,Utrecht,VBO,5.408236,52.173657
Plotterweg,19,,,3821BB,Amersfoort,Amersfoort,Utrecht,VBO,5.408342,52.173049
Plotterweg,20,A,,3821BB,Amersfoort,Amersfoort,Utrecht,VBO,5.408285,52.173600
Plotterweg,20,B,,3821BB,Amersfoort,Amersfoort,Utrecht,VBO,5.408171,52.173576
Plotterweg,20,C,,3821BB,Amersfoort,Amersfoort,Utrecht,VBO,5.408084,52.173540
Plotterweg,20,D,,3821BB,Amersfoort,Amersfoort,Utrecht,VBO,5.408053,52.173595
Plotterweg,20,E,,3821BB,Amersfoort,Amersfoort,Utrecht,VBO,5.407991,52.173659
Plotterweg,20,F,,3821BB,Amersfoort,Amersfoort,Utrecht,VBO,5.408072,52.173689
Plotterweg,20,G,,3821BB,Amersfoort,Amersfoort,Utrecht,VBO,5.408182,52.173714
Plotterweg,20,H,,3821BB,Amersfoort,Amersfoort,Utrecht,VBO,5.408225,52.173650
Plotterweg,21,,,3821BB,Amersfoort,Amersfoort,Utrecht,VBO,5.409040,52.173108
Plotterweg,22,A,,3821BB,Amersfoort,Amersfoort,Utrecht,VBO,5.408256,52.173596
Plotterweg,22,B,,3821BB,Amersfoort,Amersfoort,Utrecht,VBO,5.408196,52.173563
Plotterweg,22,C,,3821BB,Amersfoort,Amersfoort,Utrecht,VBO,5.408089,52.173549
Plotterweg,22,D,,3821BB,Amersfoort,Amersfoort,Utrecht,VBO,5.408049,52.173588
Plotterweg,22,E,,3821BB,Amersfoort,Amersfoort,Utrecht,VBO,5.408004,52.173652
Plotterweg,22,F,,3821BB,Amersfoort,Amersfoort,Utrecht,VBO,5.408109,52.173677
Plotterweg,22,G,,3821BB,Amersfoort,Amersfoort,Utrecht,VBO,5.408174,52.173702
Plotterweg,22,H,,3821BB,Amersfoort,Amersfoort,Utrecht,VBO,5.408207,52.173637
Plotterweg,23,,,3821BB,Amersfoort,Amersfoort,Utrecht,VBO,5.408354,52.173036
Plotterweg,24,,,3821BB,Amersfoort,Amersfoort,Utrecht,VBO,5.408914,52.173889
Plotterweg,25,,,3821BB,Amersfoort,Amersfoort,Utrecht,VBO,5.409060,52.173087
Plotterweg,26,,,3821BB,Amersfoort,Amersfoort,Utrecht,VBO,5.408663,52.174195
Plotterweg,27,,,3821BB,Amersfoort,Amersfoort,Utrecht,VBO,5.408366,52.173015
Plotterweg,28,,1,3821BB,Amersfoort,Amersfoort,Utrecht,VBO,5.409600,52.173974
Plotterweg,28,,,3821BB,Amersfoort,Amersfoort,Utrecht,VBO,5.408928,52.174289
Plotterweg,29,,,3821BB,Amersfoort,Amersfoort,Utrecht,VBO,5.409077,52.173067
Plotterweg,30,,,3821BB,Amersfoort,Amersfoort,Utrecht,VBO,5.409982,52.174755
Plotterweg,31,,,3821BB,Amersfoort,Amersfoort,Utrecht,VBO,5.408384,52.172993
Plotterweg,38,,,3821BB,Amersfoort,Amersfoort,Utrecht,VBO,5.411044,52.175168
Algolweg,3,,,3821BG,Amersfoort,Amersfoort,Utrecht,VBO,5.414887,52.175995
Algolweg,5,A,,3821BG,Amersfoort,Amersfoort,Utrecht,VBO,5.414464,52.175378
Algolweg,5,B,,3821BG,Amersfoort,Amersfoort,Utrecht,VBO,5.414911,52.175577
Algolweg,5,,,3821BG,Amersfoort,Amersfoort,Utrecht,VBO,5.414521,52.175722
Algolweg,7,,,3821BG,Amersfoort,Amersfoort,Utrecht,VBO,5.414882,52.175071
Algolweg,9,A,,3821BG,Amersfoort,Amersfoort,Utrecht,VBO,5.414689,52.174585
Algolweg,9,B,,3821BG,Amersfoort,Amersfoort,Utrecht,VBO,5.414737,52.174587
Algolweg,9,C,,3821BG,Amersfoort,Amersfoort,Utrecht,VBO,5.414689,52.174615
Algolweg,9,D,,3821BG,Amersfoort,Amersfoort,Utrecht,VBO,5.414671,52.174551
Algolweg,9,,1,3821BG,Amersfoort,Amersfoort,Utrecht,VBO,5.413749,52.174563
Algolweg,9,,10,3821BG,Amersfoort,Amersfoort,Utrecht,VBO,5.413813,52.174618
Algolweg,9,,11,3821BG,Amersfoort,Amersfoort,Utrecht,VBO,5.413725,52.174585
Algolweg,9,,12,3821BG,Amersfoort,Amersfoort,Utrecht,VBO,5.413744,52.174596
Algolweg,9,,13,3821BG,Amersfoort,Amersfoort,Utrecht,VBO,5.413764,52.174607
Algolweg,9,,14,3821BG,Amersfoort,Amersfoort,Utrecht,VBO,5.413776,52.174616
Algolweg,9,,15,3821BG,Amersfoort,Amersfoort,Utrecht,VBO,5.413798,52.174626
Algolweg,9,,16,3821BG,Amersfoort,Amersfoort,Utrecht,VBO,5.413745,52.174615
Algolweg,9,,2,3821BG,Amersfoort,Amersfoort,Utrecht,VBO,5.413767,52.174574
Algolweg,9,,3,3821BG,Amersfoort,Amersfoort,Utrecht,VBO,5.413790,52.174586
Algolweg,9,,4,3821BG,Amersfoort,Amersfoort,Utrecht,VBO,5.413811,52.174598
Algolweg,9,,5,3821BG,Amersfoort,Amersfoort,Utrecht,VBO,5.413831,52.174610
Algolweg,9,,6,3821BG,Amersfoort,Amersfoort,Utrecht,VBO,5.413737,52.174573
Algolweg,9,,7,3821BG,Amersfoort,Amersfoort,Utrecht,VBO,5.413757,52.174585
Algolweg,9,,8,3821BG,Amersfoort,Amersfoort,Utrecht,VBO,5.413777,52.174596
Algolweg,9,,9,3821BG,Amersfoort,Amersfoort,Utrecht,VBO,5.413796,52.174608
Algolweg,11,A,,3821BG,Amersfoort,Amersfoort,Utrecht,VBO,5.414234,52.174246
Algolweg,11,B,,3821BG,Amersfoort,Amersfoort,Utrecht,VBO,5.414691,52.174176
Algolweg,11,,1,3821BG,Amersfoort,Amersfoort,Utrecht,VBO,5.415069,52.174123
Algolweg,11,,,3821BG,Amersfoort,Amersfoort,Utrecht,VBO,5.413949,52.174305
Algolweg,13,,,3821BG,Amersfoort,Amersfoort,Utrecht,VBO,5.414831,52.173719
Algolweg,15,A,,3821BG,Amersfoort,Amersfoort,Utrecht,VBO,5.416635,52.173197
Algolweg,15,,,3821BG,Amersfoort,Amersfoort,Utrecht,VBO,5.416207,52.173323
Algolweg,2,,,3821BH,Amersfoort,Amersfoort,Utrecht,VBO,5.415413,52.175954
Algolweg,6,,,3821BH,Amersfoort,Amersfoort,Utrecht,VBO,5.415474,52.175268
Algolweg,8,,,3821BH,Amersfoort,Amersfoort,Utrecht,VBO,5.415530,52.174138
Algolweg,18,A,,3821BH,Amersfoort,Amersfoort,Utrecht,VBO,5.415453,52.173750
Algolweg,18,B,,3821BH,Amersfoort,Amersfoort,Utrecht,VBO,5.415440,52.173710
Algolweg,18,C,,3821BH,Amersfoort,Amersfoort,Utrecht,VBO,5.415434,52.173641
Algolweg,18,D,,3821BH,Amersfoort,Amersfoort,Utrecht,VBO,5.415548,52.173612
Algolweg,18,E,,3821BH,Amersfoort,Amersfoort,Utrecht,VBO,5.415640,52.173594
Algolweg,18,F,,3821BH,Amersfoort,Amersfoort,Utrecht,VBO,5.415745,52.173595
Algolweg,18,,,3821BH,Amersfoort,Amersfoort,Utrecht,VBO,5.415444,52.173875
Algolweg,20,A,,3821BH,Amersfoort,Amersfoort,Utrecht,VBO,5.416101,52.173658
Algolweg,20,,,3821BH,Amersfoort,Amersfoort,Utrecht,VBO,5.415881,52.173640
Algolweg,22,,,3821BH,Amersfoort,Amersfoort,Utrecht,VBO,5.416713,52.173653
Cobolweg,1,,,3821BJ,Amersfoort,Amersfoort,Utrecht,VBO,5.416988,52.176340
Cobolweg,3,,,3821BJ,Amersfoort,Amersfoort,Utrecht,VBO,5.416927,52.175831
Cobolweg,4,,,3821BJ,Amersfoort,Amersfoort,Utrecht,VBO,5.417838,52.174471
Cobolweg,5,,1,3821BJ,Amersfoort,Amersfoort,Utrecht,VBO,5.417255,52.175153
Cobolweg,5,,,3821BJ,Amersfoort,Amersfoort,Utrecht,VBO,5.416926,52.175328
Cobolweg,7,,,3821BJ,Amersfoort,Amersfoort,Utrecht,VBO,5.416886,52.174426
Cobolweg,15,,,3821BJ,Amersfoort,Amersfoort,Utrecht,VBO,5.417099,52.173673
Fortranweg,3,,1,3821BK,Amersfoort,Amersfoort,Utrecht,VBO,5.419638,52.174632
Fortranweg,4,A,,3821BK,Amersfoort,Amersfoort,Utrecht,VBO,5.420019,52.175857
Fortranweg,4,,,3821BK,Amersfoort,Amersfoort,Utrecht,VBO,5.420024,52.175932
Fortranweg,5,,,3821BK,Amersfoort,Amersfoort,Utrecht,VBO,5.419511,52.174063
Fortranweg,6,,,3821BK,Amersfoort,Amersfoort,Utrecht,VBO,5.420027,52.175681
Fortranweg,8,,,3821BK,Amersfoort,Amersfoort,Utrecht,VBO,5.420088,52.175462
Fortranweg,10,,,3821BK,Amersfoort,Amersfoort,Utrecht,VBO,5.420314,52.174527
Hardwareweg,1,A,,3821BL,Amersfoort,Amersfoort,Utrecht,VBO,5.409855,52.173482
Hardwareweg,1,B,,3821BL,Amersfoort,Amersfoort,Utrecht,VBO,5.409884,52.173488
Hardwareweg,1,,,3821BL,Amersfoort,Amersfoort,Utrecht,VBO,5.410311,52.173644
Hardwareweg,3,,,3821BL,Amersfoort,Amersfoort,Utrecht,VBO,5.411189,52.173515
Hardwareweg,5,A,,3821BL,Amersfoort,Amersfoort,Utrecht,VBO,5.411654,52.173679
Hardwareweg,5,B,,3821BL,Amersfoort,Amersfoort,Utrecht,VBO,5.411695,52.173691
Hardwareweg,5,,,3821BL,Amersfoort,Amersfoort,Utrecht,VBO,5.411643,52.173665
Hardwareweg,7,A,,3821BL,Amersfoort,Amersfoort,Utrecht,VBO,5.413135,52.173051
Hardwareweg,7,B,,3821BL,Amersfoort,Amersfoort,Utrecht,VBO,5.413060,52.173057
Hardwareweg,7,C,,3821BL,Amersfoort,Amersfoort,Utrecht,VBO,5.413121,52.173025
Hardwareweg,7,D,,3821BL,Amersfoort,Amersfoort,Utrecht,VBO,5.413048,52.173028
Hardwareweg,7,E,,3821BL,Amersfoort,Amersfoort,Utrecht,VBO,5.413110,52.172994
Hardwareweg,7,F,,3821BL,Amersfoort,Amersfoort,Utrecht,VBO,5.413038,52.173005
Hardwareweg,9,,,3821BL,Amersfoort,Amersfoort,Utrecht,VBO,5.414052,52.172896
Hardwareweg,11,,1,3821BL,Amersfoort,Amersfoort,Utrecht,VBO,5.416029,52.172679
Hardwareweg,11,,,3821BL,Amersfoort,Amersfoort,Utrecht,VBO,5.415366,52.172692
Hardwareweg,15,,,3821BL,Amersfoort,Amersfoort,Utrecht,VBO,5.416563,52.172244
Hardwareweg,2,C,,3821BM,Amersfoort,Amersfoort,Utrecht,VBO,5.410894,52.173927
Hardwareweg,2,F,,3821BM,Amersfoort,Amersfoort,Utrecht,VBO,5.410859,52.173916
Hardwareweg,2,K,,3821BM,Amersfoort,Amersfoort,Utrecht,VBO,5.410830,52.173908
Hardwareweg,2,P,,3821BM,Amersfoort,Amersfoort,Utrecht,VBO,5.410854,52.173950
Hardwareweg,2,,1,3821BM,Amersfoort,Amersfoort,Utrecht,VBO,5.411467,52.173849
Hardwareweg,2,,,3821BM,Amersfoort,Amersfoort,Utrecht,VBO,5.410883,52.173899
Hardwareweg,4,,,3821BM,Amersfoort,Amersfoort,Utrecht,VBO,5.411536,52.174190
Hardwareweg,6,,,3821BM,Amersfoort,Amersfoort,Utrecht,VBO,5.412293,52.174375
Hardwareweg,8,,,3821BM,Amersfoort,Amersfoort,Utrecht,VBO,5.412318,52.174370
Hardwareweg,10,,,3821BM,Amersfoort,Amersfoort,Utrecht,VBO,5.412338,52.174370
Hardwareweg,14,A,,3821BM,Amersfoort,Amersfoort,Utrecht,VBO,5.412973,52.173730
Hardwareweg,14,B,,3821BM,Amersfoort,Amersfoort,Utrecht,VBO,5.412989,52.173709
Hardwareweg,14,C,,3821BM,Amersfoort,Amersfoort,Utrecht,VBO,5.413006,52.173690
Hardwareweg,14,D,,3821BM,Amersfoort,Amersfoort,Utrecht,VBO,5.413025,52.173671
Hardwareweg,14,,,3821BM,Amersfoort,Amersfoort,Utrecht,VBO,5.413144,52.173710
Hardwareweg,26,,,3821BM,Amersfoort,Amersfoort,Utrecht,VBO,5.413451,52.173407
Hardwareweg,28,,,3821BM,Amersfoort,Amersfoort,Utrecht,VBO,5.413403,52.173291
Hardwareweg,30,,,3821BM,Amersfoort,Amersfoort,Utrecht,VBO,5.413486,52.173400
Hardwareweg,32,,,3821BM,Amersfoort,Amersfoort,Utrecht,VBO,5.413448,52.173286
Hardwareweg,34,,,3821BM,Amersfoort,Amersfoort,Utrecht,VBO,5.413542,52.173394
Hardwareweg,36,,,3821BM,Amersfoort,Amersfoort,Utrecht,VBO,5.413501,52.173277
Hardwareweg,38,,,3821BM,Amersfoort,Amersfoort,Utrecht,VBO,5.413599,52.173388
Hardwareweg,40,,,3821BM,Amersfoort,Amersfoort,Utrecht,VBO,5.413542,52.173273
Softwareweg,1,,,3821BN,Amersfoort,Amersfoort,Utrecht,VBO,5.410020,52.173061
Softwareweg,3,,,3821BN,Amersfoort,Amersfoort,Utrecht,VBO,5.410978,52.172877
Softwareweg,5,,,3821BN,Amersfoort,Amersfoort,Utrecht,VBO,5.412001,52.172710
Softwareweg,7,,,3821BN,Amersfoort,Amersfoort,Utrecht,VBO,5.412612,52.172545
Softwareweg,9,A,,3821BN,Amersfoort,Amersfoort,Utrecht,VBO,5.412858,52.172746
Softwareweg,9,B,,3821BN,Amersfoort,Amersfoort,Utrecht,VBO,5.412870,52.172764
Softwareweg,9,C,,3821BN,Amersfoort,Amersfoort,Utrecht,VBO,5.412860,52.172782
Softwareweg,9,D,,3821BN,Amersfoort,Amersfoort,Utrecht,VBO,5.412878,52.172792
Softwareweg,9,E,,3821BN,Amersfoort,Amersfoort,Utrecht,VBO,5.412881,52.172800
Softwareweg,9,F,,3821BN,Amersfoort,Amersfoort,Utrecht,VBO,5.412901,52.172798
Softwareweg,9,G,,3821BN,Amersfoort,Amersfoort,Utrecht,VBO,5.412858,52.172793
Softwareweg,9,H,,3821BN,Amersfoort,Amersfoort,Utrecht,VBO,5.412885,52.172751
Softwareweg,9,J,,3821BN,Amersfoort,Amersfoort,Utrecht,VBO,5.412895,52.172780
Softwareweg,9,K,,3821BN,Amersfoort,Amersfoort,Utrecht,VBO,5.412910,52.172804
Softwareweg,9,L,,3821BN,Amersfoort,Amersfoort,Utrecht,VBO,5.412909,52.172757
Softwareweg,9,M,,3821BN,Amersfoort,Amersfoort,Utrecht,VBO,5.412928,52.172778
Softwareweg,9,N,,3821BN,Amersfoort,Amersfoort,Utrecht,VBO,5.412947,52.172806
Softwareweg,9,P,,3821BN,Amersfoort,Amersfoort,Utrecht,VBO,5.412943,52.172791
Softwareweg,9,R,,3821BN,Amersfoort,Amersfoort,Utrecht,VBO,5.412955,52.172770
Softwareweg,9,S,,3821BN,Amersfoort,Amersfoort,Utrecht,VBO,5.412955,52.172751
Softwareweg,2,,,3821BP,Amersfoort,Amersfoort,Utrecht,VBO,5.410946,52.173175
Softwareweg,4,A,,3821BP,Amersfoort,Amersfoort,Utrecht,VBO,5.411645,52.173066
Softwareweg,4,B,,3821BP,Amersfoort,Amersfoort,Utrecht,VBO,5.411697,52.173056
Softwareweg,4,C,,3821BP,Amersfoort,Amersfoort,Utrecht,VBO,5.411749,52.173048
Softwareweg,4,,,3821BP,Amersfoort,Amersfoort,Utrecht,VBO,5.411670,52.173048
Softwareweg,6,A,,3821BP,Amersfoort,Amersfoort,Utrecht,VBO,5.412342,52.172982
Softwareweg,6,,1,3821BP,Amersfoort,Amersfoort,Utrecht,VBO,5.412632,52.173113
Softwareweg,6,,,3821BP,Amersfoort,Amersfoort,Utrecht,VBO,5.412305,52.172929
Softwareweg,8,,,3821BP,Amersfoort,Amersfoort,Utrecht,VBO,5.412552,52.173215
Basicweg,1,,,3821BR,Amersfoort,Amersfoort,Utrecht,VBO,5.418463,52.176240
Basicweg,5,,,3821BR,Amersfoort,Amersfoort,Utrecht,VBO,5.420174,52.176466
Basicweg,7,,,3821BR,Amersfoort,Amersfoort,Utrecht,VBO,5.421192,52.176456
Basicweg,8,,,3821BR,Amersfoort,Amersfoort,Utrecht,VBO,5.422914,52.175476
Basicweg,9,,,3821BR,Amersfoort,Amersfoort,Utrecht,VBO,5.421594,52.176476
Basicweg,10,,,3821BR,Amersfoort,Amersfoort,Utrecht,VBO,5.422691,52.173967
Basicweg,11,A,,3821BR,Amersfoort,Amersfoort,Utrecht,VBO,5.421712,52.176078
Basicweg,11,B,,3821BR,Amersfoort,Amersfoort,Utrecht,VBO,5.421578,52.176076
Basicweg,11,C,,3821BR,Amersfoort,Amersfoort,Utrecht,VBO,5.421447,52.176074
Basicweg,11,D,,3821BR,Amersfoort,Amersfoort,Utrecht,VBO,5.421302,52.176074
Basicweg,11,E,,3821BR,Amersfoort,Amersfoort,Utrecht,VBO,5.421176,52.176072
Basicweg,11,F,,3821BR,Amersfoort,Amersfoort,Utrecht,VBO,5.421045,52.176071
Basicweg,12,A,,3821BR,Amersfoort,Amersfoort,Utrecht,VBO,5.422052,52.173492
Basicweg,12,B,,3821BR,Amersfoort,Amersfoort,Utrecht,VBO,5.422059,52.173477
Basicweg,12,C,,3821BR,Amersfoort,Amersfoort,Utrecht,VBO,5.422060,52.173460
Basicweg,12,D,,3821BR,Amersfoort,Amersfoort,Utrecht,VBO,5.422055,52.173444
Basicweg,12,E,,3821BR,Amersfoort,Amersfoort,Utrecht,VBO,5.422053,52.173429
Basicweg,14,A,,3821BR,Amersfoort,Amersfoort,Utrecht,VBO,5.422061,52.172598
Basicweg,14,B,,3821BR,Amersfoort,Amersfoort,Utrecht,VBO,5.422060,52.172585
Basicweg,14,C,,3821BR,Amersfoort,Amersfoort,Utrecht,VBO,5.422059,52.172566
Basicweg,14,D,,3821BR,Amersfoort,Amersfoort,Utrecht,VBO,5.422059,52.172551
Basicweg,14,E,,3821BR,Amersfoort,Amersfoort,Utrecht,VBO,5.422059,52.172531
Basicweg,15,A,,3821BR,Amersfoort,Amersfoort,Utrecht,VBO,5.421301,52.175050
Basicweg,15,B,,3821BR,Amersfoort,Amersfoort,Utrecht,VBO,5.421276,52.174854
Basicweg,15,C,,3821BR,Amersfoort,Amersfoort,Utrecht,VBO,5.421309,52.174755
Basicweg,15,D,,3821BR,Amersfoort,Amersfoort,Utrecht,VBO,5.421326,52.174619
Basicweg,15,K,,3821BR,Amersfoort,Amersfoort,Utrecht,VBO,5.421618,52.174201
Basicweg,15,M,1,3821BR,Amersfoort,Amersfoort,Utrecht,VBO,5.421339,52.173966
Basicweg,15,M,10,3821BR,Amersfoort,Amersfoort,Utrecht,VBO,5.421334,52.174181
Basicweg,15,M,100,3821BR,Amersfoort,Amersfoort,Utrecht,VBO,5.421006,52.174318
Basicweg,15,M,101,3821BR,Amersfoort,Amersfoort,Utrecht,VBO,5.421007,52.174343
Basicweg,15,M,102,3821BR,Amersfoort,Amersfoort,Utrecht,VBO,5.420809,52.174344
Basicweg,15,M,103,3821BR,Amersfoort,Amersfoort,Utrecht,VBO,5.420809,52.174318
Basicweg,15,M,104,3821BR,Amersfoort,Amersfoort,Utrecht,VBO,5.420809,52.174291
Basicweg,15,M,105,3821BR,Amersfoort,Amersfoort,Utrecht,VBO,5.420809,52.174262
Basicweg,15,M,106,3821BR,Amersfoort,Amersfoort,Utrecht,VBO,5.420807,52.174232
Basicweg,15,M,107,3821BR,Amersfoort,Amersfoort,Utrecht,VBO,5.420809,52.174204
Basicweg,15,M,108,3821BR,Amersfoort,Amersfoort,Utrecht,VBO,5.420809,52.174173
Basicweg,15,M,109,3821BR,Amersfoort,Amersfoort,Utrecht,VBO,5.420809,52.174145
Basicweg,15,M,11,3821BR,Amersfoort,Amersfoort,Utrecht,VBO,5.421342,52.174217
Basicweg,15,M,110,3821BR,Amersfoort,Amersfoort,Utrecht,VBO,5.420810,52.174120
Basicweg,15,M,111,3821BR,Amersfoort,Amersfoort,Utrecht,VBO,5.420809,52.174095
Basicweg,15,M,112,3821BR,Amersfoort,Amersfoort,Utrecht,VBO,5.420809,52.174069
Basicweg,15,M,113,3821BR,Amersfoort,Amersfoort,Utrecht,VBO,5.420809,52.174046
Basicweg,15,M,114,3821BR,Amersfoort,Amersfoort,Utrecht,VBO,5.420809,52.174019
Basicweg,15,M,115,3821BR,Amersfoort,Amersfoort,Utrecht,VBO,5.420807,52.173994
Basicweg,15,M,116,3821BR,Amersfoort,Amersfoort,Utrecht,VBO,5.420807,52.173970
Basicweg,15,M,117,3821BR,Amersfoort,Amersfoort,Utrecht,VBO,5.420970,52.173990
Basicweg,15,M,118,3821BR,Amersfoort,Amersfoort,Utrecht,VBO,5.420965,52.174013
Basicweg,15,M,119,3821BR,Amersfoort,Amersfoort,Utrecht,VBO,5.420962,52.174041
Basicweg,15,M,12,3821BR,Amersfoort,Amersfoort,Utrecht,VBO,5.421340,52.174239
Basicweg,15,M,120,3821BR,Amersfoort,Amersfoort,Utrecht,VBO,5.420965,52.174063
Basicweg,15,M,121,3821BR,Amersfoort,Amersfoort,Utrecht,VBO,5.420964,52.174090
Basicweg,15,M,122,3821BR,Amersfoort,Amersfoort,Utrecht,VBO,5.420964,52.174121
Basicweg,15,M,123,3821BR,Amersfoort,Amersfoort,Utrecht,VBO,5.420961,52.174150
Basicweg,15,M,124,3821BR,Amersfoort,Amersfoort,Utrecht,VBO,5.420969,52.174183
Basicweg,15,M,125,3821BR,Amersfoort,Amersfoort,Utrecht,VBO,5.420964,52.174210
Basicweg,15,M,126,3821BR,Amersfoort,Amersfoort,Utrecht,VBO,5.420964,52.174240
Basicweg,15,M,127,3821BR,Amersfoort,Amersfoort,Utrecht,VBO,5.420967,52.174265
Basicweg,15,M,128,3821BR,Amersfoort,Amersfoort,Utrecht,VBO,5.420973,52.174291
Basicweg,15,M,129,3821BR,Amersfoort,Amersfoort,Utrecht,VBO,5.420967,52.174314
Basicweg,15,M,13,3821BR,Amersfoort,Amersfoort,Utrecht,VBO,5.421340,52.174263
Basicweg,15,M,130,3821BR,Amersfoort,Amersfoort,Utrecht,VBO,5.420970,52.174343
Basicweg,15,M,131,3821BR,Amersfoort,Amersfoort,Utrecht,VBO,5.420847,52.174343
Basicweg,15,M,132,3821BR,Amersfoort,Amersfoort,Utrecht,VBO,5.420846,52.174316
Basicweg,15,M,133,3821BR,Amersfoort,Amersfoort,Utrecht,VBO,5.420847,52.174287
Basicweg,15,M,134,3821BR,Amersfoort,Amersfoort,Utrecht,VBO,5.420844,52.174259
Basicweg,15,M,135,3821BR,Amersfoort,Amersfoort,Utrecht,VBO,5.420846,52.174230
Basicweg,15,M,136,3821BR,Amersfoort,Amersfoort,Utrecht,VBO,5.420847,52.174209
Basicweg,15,M,137,3821BR,Amersfoort,Amersfoort,Utrecht,VBO,5.420844,52.174171
Basicweg,15,M,138,3821BR,Amersfoort,Amersfoort,Utrecht,VBO,5.420841,52.174145
Basicweg,15,M,139,3821BR,Amersfoort,Amersfoort,Utrecht,VBO,5.420843,52.174119
Basicweg,15,M,14,3821BR,Amersfoort,Amersfoort,Utrecht,VBO,5.421340,52.174289
Basicweg,15,M,140,3821BR,Amersfoort,Amersfoort,Utrecht,VBO,5.420846,52.174095
Basicweg,15,M,141,3821BR,Amersfoort,Amersfoort,Utrecht,VBO,5.420841,52.174068
Basicweg,15,M,142,3821BR,Amersfoort,Amersfoort,Utrecht,VBO,5.420841,52.174045
Basicweg,15,M,143,3821BR,Amersfoort,Amersfoort,Utrecht,VBO,5.420840,52.174017
Basicweg,15,M,144,3821BR,Amersfoort,Amersfoort,Utrecht,VBO,5.420841,52.173994
Basicweg,15,M,145,3821BR,Amersfoort,Amersfoort,Utrecht,VBO,5.420840,52.173966
Basicweg,15,M,146,3821BR,Amersfoort,Amersfoort,Utrecht,VBO,5.420933,52.173987
Basicweg,15,M,147,3821BR,Amersfoort,Amersfoort,Utrecht,VBO,5.420933,52.174013
Basicweg,15,M,148,3821BR,Amersfoort,Amersfoort,Utrecht,VBO,5.420930,52.174037
Basicweg,15,M,149,3821BR,Amersfoort,Amersfoort,Utrecht,VBO,5.420936,52.174063
Basicweg,15,M,15,3821BR,Amersfoort,Amersfoort,Utrecht,VBO,5.421340,52.174328
Basicweg,15,M,150,3821BR,Amersfoort,Amersfoort,Utrecht,VBO,5.420935,52.174091
Basicweg,15,M,151,3821BR,Amersfoort,Amersfoort,Utrecht,VBO,5.420936,52.174120
Basicweg,15,M,152,3821BR,Amersfoort,Amersfoort,Utrecht,VBO,5.420939,52.174153
Basicweg,15,M,153,3821BR,Amersfoort,Amersfoort,Utrecht,VBO,5.420938,52.174183
Basicweg,15,M,154,3821BR,Amersfoort,Amersfoort,Utrecht,VBO,5.420943,52.174211
Basicweg,15,M,155,3821BR,Amersfoort,Amersfoort,Utrecht,VBO,5.420940,52.174238
Basicweg,15,M,156,3821BR,Amersfoort,Amersfoort,Utrecht,VBO,5.420941,52.174266
Basicweg,15,M,157,3821BR,Amersfoort,Amersfoort,Utrecht,VBO,5.420944,52.174289
Basicweg,15,M,158,3821BR,Amersfoort,Amersfoort,Utrecht,VBO,5.420941,52.174315
Basicweg,15,M,159,3821BR,Amersfoort,Amersfoort,Utrecht,VBO,5.420941,52.174343
Basicweg,15,M,16,3821BR,Amersfoort,Amersfoort,Utrecht,VBO,5.421145,52.174341
Basicweg,15,M,160,3821BR,Amersfoort,Amersfoort,Utrecht,VBO,5.420880,52.174342
Basicweg,15,M,161,3821BR,Amersfoort,Amersfoort,Utrecht,VBO,5.420880,52.174314
Basicweg,15,M,162,3821BR,Amersfoort,Amersfoort,Utrecht,VBO,5.420877,52.174286
Basicweg,15,M,163,3821BR,Amersfoort,Amersfoort,Utrecht,VBO,5.420878,52.174259
Basicweg,15,M,164,3821BR,Amersfoort,Amersfoort,Utrecht,VBO,5.420875,52.174234
Basicweg,15,M,165,3821BR,Amersfoort,Amersfoort,Utrecht,VBO,5.420878,52.174211
Basicweg,15,M,166,3821BR,Amersfoort,Amersfoort,Utrecht,VBO,5.420873,52.174186
Basicweg,15,M,167,3821BR,Amersfoort,Amersfoort,Utrecht,VBO,5.420870,52.174159
Basicweg,15,M,168,3821BR,Amersfoort,Amersfoort,Utrecht,VBO,5.420872,52.174131
Basicweg,15,M,169,3821BR,Amersfoort,Amersfoort,Utrecht,VBO,5.420873,52.174107
Basicweg,15,M,17,3821BR,Amersfoort,Amersfoort,Utrecht,VBO,5.421147,52.174318
Basicweg,15,M,170,3821BR,Amersfoort,Amersfoort,Utrecht,VBO,5.420867,52.174077
Basicweg,15,M,171,3821BR,Amersfoort,Amersfoort,Utrecht,VBO,5.420866,52.174047
Basicweg,15,M,172,3821BR,Amersfoort,Amersfoort,Utrecht,VBO,5.420867,52.174019
Basicweg,15,M,173,3821BR,Amersfoort,Amersfoort,Utrecht,VBO,5.420869,52.173993
Basicweg,15,M,174,3821BR,Amersfoort,Amersfoort,Utrecht,VBO,5.420872,52.173968
Basicweg,15,M,18,3821BR,Amersfoort,Amersfoort,Utrecht,VBO,5.421147,52.174294
Basicweg,15,M,19,3821BR,Amersfoort,Amersfoort,Utrecht,VBO,5.421144,52.174269
Basicweg,15,M,2,3821BR,Amersfoort,Amersfoort,Utrecht,VBO,5.421337,52.173994
Basicweg,15,M,20,3821BR,Amersfoort,Amersfoort,Utrecht,VBO,5.421144,52.174247
Basicweg,15,M,21,3821BR,Amersfoort,Amersfoort,Utrecht,VBO,5.421145,52.174229
Basicweg,15,M,22,3821BR,Amersfoort,Amersfoort,Utrecht,VBO,5.421143,52.174202
Basicweg,15,M,23,3821BR,Amersfoort,Amersfoort,Utrecht,VBO,5.421143,52.174176
Basicweg,15,M,24,3821BR,Amersfoort,Amersfoort,Utrecht,VBO,5.421143,52.174155
Basicweg,15,M,25,3821BR,Amersfoort,Amersfoort,Utrecht,VBO,5.421145,52.174132
Basicweg,15,M,26,3821BR,Amersfoort,Amersfoort,Utrecht,VBO,5.421145,52.174106
Basicweg,15,M,27,3821BR,Amersfoort,Amersfoort,Utrecht,VBO,5.421143,52.174079
Basicweg,15,M,28,3821BR,Amersfoort,Amersfoort,Utrecht,VBO,5.421145,52.174052
Basicweg,15,M,29,3821BR,Amersfoort,Amersfoort,Utrecht,VBO,5.421146,52.173997
Basicweg,15,M,3,3821BR,Amersfoort,Amersfoort,Utrecht,VBO,5.421337,52.174015
Basicweg,15,M,30,3821BR,Amersfoort,Amersfoort,Utrecht,VBO,5.421311,52.173965
Basicweg,15,M,31,3821BR,Amersfoort,Amersfoort,Utrecht,VBO,5.421301,52.173995
Basicweg,15,M,32,3821BR,Amersfoort,Amersfoort,Utrecht,VBO,5.421295,52.174023
Basicweg,15,M,33,3821BR,Amersfoort,Amersfoort,Utrecht,VBO,5.421294,52.174065
Basicweg,15,M,34,3821BR,Amersfoort,Amersfoort,Utrecht,VBO,5.421294,52.174097
Basicweg,15,M,35,3821BR,Amersfoort,Amersfoort,Utrecht,VBO,5.421292,52.174127
Basicweg,15,M,36,3821BR,Amersfoort,Amersfoort,Utrecht,VBO,5.421291,52.174147
Basicweg,15,M,37,3821BR,Amersfoort,Amersfoort,Utrecht,VBO,5.421291,52.174168
Basicweg,15,M,38,3821BR,Amersfoort,Amersfoort,Utrecht,VBO,5.421289,52.174190
Basicweg,15,M,39,3821BR,Amersfoort,Amersfoort,Utrecht,VBO,5.421299,52.174214
Basicweg,15,M,4,3821BR,Amersfoort,Amersfoort,Utrecht,VBO,5.421337,52.174047
Basicweg,15,M,40,3821BR,Amersfoort,Amersfoort,Utrecht,VBO,5.421300,52.174238
Basicweg,15,M,41,3821BR,Amersfoort,Amersfoort,Utrecht,VBO,5.421300,52.174259
Basicweg,15,M,42,3821BR,Amersfoort,Amersfoort,Utrecht,VBO,5.421305,52.174286
Basicweg,15,M,43,3821BR,Amersfoort,Amersfoort,Utrecht,VBO,5.421300,52.174309
Basicweg,15,M,44,3821BR,Amersfoort,Amersfoort,Utrecht,VBO,5.421300,52.174330
Basicweg,15,M,45,3821BR,Amersfoort,Amersfoort,Utrecht,VBO,5.421176,52.174339
Basicweg,15,M,46,3821BR,Amersfoort,Amersfoort,Utrecht,VBO,5.421179,52.174319
Basicweg,15,M,47,3821BR,Amersfoort,Amersfoort,Utrecht,VBO,5.421171,52.174285
Basicweg,15,M,48,3821BR,Amersfoort,Amersfoort,Utrecht,VBO,5.421168,52.174264
Basicweg,15,M,49,3821BR,Amersfoort,Amersfoort,Utrecht,VBO,5.421168,52.174237
Basicweg,15,M,5,3821BR,Amersfoort,Amersfoort,Utrecht,VBO,5.421337,52.174068
Basicweg,15,M,50,3821BR,Amersfoort,Amersfoort,Utrecht,VBO,5.421167,52.174213
Basicweg,15,M,51,3821BR,Amersfoort,Amersfoort,Utrecht,VBO,5.421165,52.174194
Basicweg,15,M,52,3821BR,Amersfoort,Amersfoort,Utrecht,VBO,5.421165,52.174167
Basicweg,15,M,53,3821BR,Amersfoort,Amersfoort,Utrecht,VBO,5.421165,52.174141
Basicweg,15,M,54,3821BR,Amersfoort,Amersfoort,Utrecht,VBO,5.421168,52.174113
Basicweg,15,M,55,3821BR,Amersfoort,Amersfoort,Utrecht,VBO,5.421166,52.174078
Basicweg,15,M,56,3821BR,Amersfoort,Amersfoort,Utrecht,VBO,5.421163,52.174046
Basicweg,15,M,57,3821BR,Amersfoort,Amersfoort,Utrecht,VBO,5.421162,52.174023
Basicweg,15,M,58,3821BR,Amersfoort,Amersfoort,Utrecht,VBO,5.421166,52.173993
Basicweg,15,M,59,3821BR,Amersfoort,Amersfoort,Utrecht,VBO,5.421281,52.173964
Basicweg,15,M,6,3821BR,Amersfoort,Amersfoort,Utrecht,VBO,5.421335,52.174100
Basicweg,15,M,60,3821BR,Amersfoort,Amersfoort,Utrecht,VBO,5.421281,52.173993
Basicweg,15,M,61,3821BR,Amersfoort,Amersfoort,Utrecht,VBO,5.421277,52.174029
Basicweg,15,M,62,3821BR,Amersfoort,Amersfoort,Utrecht,VBO,5.421282,52.174052
Basicweg,15,M,63,3821BR,Amersfoort,Amersfoort,Utrecht,VBO,5.421283,52.174079
Basicweg,15,M,64,3821BR,Amersfoort,Amersfoort,Utrecht,VBO,5.421280,52.174107
Basicweg,15,M,65,3821BR,Amersfoort,Amersfoort,Utrecht,VBO,5.421274,52.174134
Basicweg,15,M,66,3821BR,Amersfoort,Amersfoort,Utrecht,VBO,5.421271,52.174159
Basicweg,15,M,67,3821BR,Amersfoort,Amersfoort,Utrecht,VBO,5.421274,52.174196
Basicweg,15,M,68,3821BR,Amersfoort,Amersfoort,Utrecht,VBO,5.421279,52.174222
Basicweg,15,M,69,3821BR,Amersfoort,Amersfoort,Utrecht,VBO,5.421279,52.174245
Basicweg,15,M,7,3821BR,Amersfoort,Amersfoort,Utrecht,VBO,5.421335,52.174119
Basicweg,15,M,70,3821BR,Amersfoort,Amersfoort,Utrecht,VBO,5.421277,52.174263
Basicweg,15,M,71,3821BR,Amersfoort,Amersfoort,Utrecht,VBO,5.421276,52.174290
Basicweg,15,M,72,3821BR,Amersfoort,Amersfoort,Utrecht,VBO,5.421273,52.174310
Basicweg,15,M,73,3821BR,Amersfoort,Amersfoort,Utrecht,VBO,5.421282,52.174342
Basicweg,15,M,74,3821BR,Amersfoort,Amersfoort,Utrecht,VBO,5.421207,52.174345
Basicweg,15,M,75,3821BR,Amersfoort,Amersfoort,Utrecht,VBO,5.421207,52.174326
Basicweg,15,M,76,3821BR,Amersfoort,Amersfoort,Utrecht,VBO,5.421207,52.174301
Basicweg,15,M,77,3821BR,Amersfoort,Amersfoort,Utrecht,VBO,5.421244,52.174155
Basicweg,15,M,78,3821BR,Amersfoort,Amersfoort,Utrecht,VBO,5.421206,52.174271
Basicweg,15,M,79,3821BR,Amersfoort,Amersfoort,Utrecht,VBO,5.421206,52.174244
Basicweg,15,M,8,3821BR,Amersfoort,Amersfoort,Utrecht,VBO,5.421335,52.174140
Basicweg,15,M,80,3821BR,Amersfoort,Amersfoort,Utrecht,VBO,5.421208,52.174213
Basicweg,15,M,81,3821BR,Amersfoort,Amersfoort,Utrecht,VBO,5.421203,52.174189
Basicweg,15,M,82,3821BR,Amersfoort,Amersfoort,Utrecht,VBO,5.421203,52.174160
Basicweg,15,M,83,3821BR,Amersfoort,Amersfoort,Utrecht,VBO,5.421203,52.174134
Basicweg,15,M,84,3821BR,Amersfoort,Amersfoort,Utrecht,VBO,5.421197,52.174102
Basicweg,15,M,85,3821BR,Amersfoort,Amersfoort,Utrecht,VBO,5.421194,52.174069
Basicweg,15,M,86,3821BR,Amersfoort,Amersfoort,Utrecht,VBO,5.421199,52.174043
Basicweg,15,M,87,3821BR,Amersfoort,Amersfoort,Utrecht,VBO,5.421192,52.174016
Basicweg,15,M,88,3821BR,Amersfoort,Amersfoort,Utrecht,VBO,5.421007,52.173992
Basicweg,15,M,89,3821BR,Amersfoort,Amersfoort,Utrecht,VBO,5.421007,52.174013
Basicweg,15,M,9,3821BR,Amersfoort,Amersfoort,Utrecht,VBO,5.421335,52.174157
Basicweg,15,M,90,3821BR,Amersfoort,Amersfoort,Utrecht,VBO,5.421007,52.174040
Basicweg,15,M,91,3821BR,Amersfoort,Amersfoort,Utrecht,VBO,5.421002,52.174065
Basicweg,15,M,92,3821BR,Amersfoort,Amersfoort,Utrecht,VBO,5.421002,52.174097
Basicweg,15,M,93,3821BR,Amersfoort,Amersfoort,Utrecht,VBO,5.421004,52.174126
Basicweg,15,M,94,3821BR,Amersfoort,Amersfoort,Utrecht,VBO,5.421002,52.174155
Basicweg,15,M,95,3821BR,Amersfoort,Amersfoort,Utrecht,VBO,5.421005,52.174185
Basicweg,15,M,96,3821BR,Amersfoort,Amersfoort,Utrecht,VBO,5.421001,52.174215
Basicweg,15,M,97,3821BR,Amersfoort,Amersfoort,Utrecht,VBO,5.421002,52.174242
Basicweg,15,M,98,3821BR,Amersfoort,Amersfoort,Utrecht,VBO,5.421007,52.174268
Basicweg,15,M,99,3821BR,Amersfoort,Amersfoort,Utrecht,VBO,5.421006,52.174292
Basicweg,16,A,,3821BR,Amersfoort,Amersfoort,Utrecht,VBO,5.420603,52.172892
Basicweg,16,B,,3821BR,Amersfoort,Amersfoort,Utrecht,VBO,5.420644,52.172860
Basicweg,16,C,,3821BR,Amersfoort,Amersfoort,Utrecht,VBO,5.420636,52.172823
Basicweg,16,D,,3821BR,Amersfoort,Amersfoort,Utrecht,VBO,5.420596,52.172791
Basicweg,16,E,,3821BR,Amersfoort,Amersfoort,Utrecht,VBO,5.421245,52.172806
Basicweg,16,F,,3821BR,Amersfoort,Amersfoort,Utrecht,VBO,5.421123,52.173344
Basicweg,16,G,,3821BR,Amersfoort,Amersfoort,Utrecht,VBO,5.421616,52.172794
Basicweg,16,,1,3821BR,Amersfoort,Amersfoort,Utrecht,VBO,5.420485,52.173525
Basicweg,16,,2,3821BR,Amersfoort,Amersfoort,Utrecht,VBO,5.421679,52.173525
Basicweg,16,,,3821BR,Amersfoort,Amersfoort,Utrecht,VBO,5.420555,52.173242
Basicweg,17,,,3821BR,Amersfoort,Amersfoort,Utrecht,VBO,5.419248,52.174025
Basicweg,19,A,,3821BR,Amersfoort,Amersfoort,Utrecht,VBO,5.418520,52.174061
Basicweg,19,,,3821BR,Amersfoort,Amersfoort,Utrecht,VBO,5.418707,52.174082
Basicweg,20,,,3821BR,Amersfoort,Amersfoort,Utrecht,VBO,5.419755,52.173210
Basicweg,21,,,3821BR,Amersfoort,Amersfoort,Utrecht,VBO,5.417896,52.174014
Basicweg,22,,,3821BR,Amersfoort,Amersfoort,Utrecht,VBO,5.418736,52.173401
Basicweg,24,,,3821BR,Amersfoort,Amersfoort,Utrecht,VBO,5.418014,52.173342
Modemweg,1,,1,3821BS,Amersfoort,Amersfoort,Utrecht,VBO,5.417363,52.172165
Modemweg,1,,,3821BS,Amersfoort,Amersfoort,Utrecht,VBO,5.417550,52.172049
Modemweg,2,,,3821BS,Amersfoort,Amersfoort,Utrecht,VBO,5.417724,52.172431
Modemweg,3,,,3821BS,Amersfoort,Amersfoort,Utrecht,VBO,5.418348,52.171908
Modemweg,4,,,3821BS,Amersfoort,Amersfoort,Utrecht,VBO,5.417687,52.172329
Modemweg,5,,,3821BS,Amersfoort,Amersfoort,Utrecht,VBO,5.419094,52.171786
Modemweg,6,,,3821BS,Amersfoort,Amersfoort,Utrecht,VBO,5.417809,52.172422
Modemweg,7,,,3821BS,Amersfoort,Amersfoort,Utrecht,VBO,5.419050,52.171697
Modemweg,8,,,3821BS,Amersfoort,Amersfoort,Utrecht,VBO,5.417721,52.172300
Modemweg,10,,,3821BS,Amersfoort,Amersfoort,Utrecht,VBO,5.417896,52.172403
Modemweg,11,,,3821BS,Amersfoort,Amersfoort,Utrecht,VBO,5.419013,52.171597
Modemweg,12,,,3821BS,Amersfoort,Amersfoort,Utrecht,VBO,5.417780,52.172289
Modemweg,13,,,3821BS,Amersfoort,Amersfoort,Utrecht,VBO,5.418965,52.171484
Modemweg,14,,,3821BS,Amersfoort,Amersfoort,Utrecht,VBO,5.418563,52.172268
Modemweg,15,,,3821BS,Amersfoort,Amersfoort,Utrecht,VBO,5.419025,52.171391
Modemweg,16,,,3821BS,Amersfoort,Amersfoort,Utrecht,VBO,5.418542,52.172182
Modemweg,17,,,3821BS,Amersfoort,Amersfoort,Utrecht,VBO,5.419341,52.171334
Modemweg,18,,,3821BS,Amersfoort,Amersfoort,Utrecht,VBO,5.418658,52.172208
Modemweg,19,,,3821BS,Amersfoort,Amersfoort,Utrecht,VBO,5.419526,52.171389
Modemweg,20,,,3821BS,Amersfoort,Amersfoort,Utrecht,VBO,5.418636,52.172172
Modemweg,21,,,3821BS,Amersfoort,Amersfoort,Utrecht,VBO,5.419571,52.171481
Modemweg,22,,,3821BS,Amersfoort,Amersfoort,Utrecht,VBO,5.418747,52.172197
Modemweg,23,,,3821BS,Amersfoort,Amersfoort,Utrecht,VBO,5.419612,52.171595
Modemweg,24,,1,3821BS,Amersfoort,Amersfoort,Utrecht,VBO,5.419048,52.172074
Modemweg,24,,,3821BS,Amersfoort,Amersfoort,Utrecht,VBO,5.418735,52.172148
Modemweg,26,,,3821BS,Amersfoort,Amersfoort,Utrecht,VBO,5.419423,52.172122
Modemweg,27,,,3821BS,Amersfoort,Amersfoort,Utrecht,VBO,5.419653,52.171718
Modemweg,28,,,3821BS,Amersfoort,Amersfoort,Utrecht,VBO,5.419398,52.172069
Modemweg,29,,,3821BS,Amersfoort,Amersfoort,Utrecht,VBO,5.421056,52.171540
Modemweg,30,,,3821BS,Amersfoort,Amersfoort,Utrecht,VBO,5.419500,52.172137
Modemweg,31,,,3821BS,Amersfoort,Amersfoort,Utrecht,VBO,5.421047,52.171514
Modemweg,32,,,3821BS,Amersfoort,Amersfoort,Utrecht,VBO,5.419451,52.172057
Modemweg,33,,,3821BS,Amersfoort,Amersfoort,Utrecht,VBO,5.421037,52.171480
Modemweg,34,,,3821BS,Amersfoort,Amersfoort,Utrecht,VBO,5.419611,52.172124
Modemweg,35,,,3821BS,Amersfoort,Amersfoort,Utrecht,VBO,5.421018,52.171454
Modemweg,36,,,3821BS,Amersfoort,Amersfoort,Utrecht,VBO,5.419574,52.172025
Modemweg,37,A,,3821BS,Amersfoort,Amersfoort,Utrecht,VBO,5.421472,52.171023
Modemweg,37,B,,3821BS,Amersfoort,Amersfoort,Utrecht,VBO,5.421468,52.171006
Modemweg,37,C,,3821BS,Amersfoort,Amersfoort,Utrecht,VBO,5.421459,52.170988
Modemweg,37,D,,3821BS,Amersfoort,Amersfoort,Utrecht,VBO,5.421443,52.170970
Modemweg,37,E,,3821BS,Amersfoort,Amersfoort,Utrecht,VBO,5.421424,52.170951
Modemweg,37,,,3821BS,Amersfoort,Amersfoort,Utrecht,VBO,5.421482,52.171043
Modemweg,38,,,3821BS,Amersfoort,Amersfoort,Utrecht,VBO,5.420307,52.171994
Modemweg,39,,,3821BS,Amersfoort,Amersfoort,Utrecht,VBO,5.420950,52.171187
Modemweg,40,,,3821BS,Amersfoort,Amersfoort,Utrecht,VBO,5.420300,52.171926
Modemweg,41,,,3821BS,Amersfoort,Amersfoort,Utrecht,VBO,5.420595,52.171344
Modemweg,42,,,3821BS,Amersfoort,Amersfoort,Utrecht,VBO,5.420381,52.171988
Modemweg,43,,,3821BS,Amersfoort,Amersfoort,Utrecht,VBO,5.420946,52.171165
Modemweg,44,,,3821BS,Amersfoort,Amersfoort,Utrecht,VBO,5.420352,52.171919
Modemweg,45,,,3821BS,Amersfoort,Amersfoort,Utrecht,VBO,5.420566,52.171278
Modemweg,46,,,3821BS,Amersfoort,Amersfoort,Utrecht,VBO,5.420441,52.171975
Modemweg,47,,,3821BS,Amersfoort,Amersfoort,Utrecht,VBO,5.420190,52.171387
Modemweg,48,,,3821BS,Amersfoort,Amersfoort,Utrecht,VBO,5.420418,52.171909
Displayweg,1,,,3821BT,Amersfoort,Amersfoort,Utrecht,VBO,5.413358,52.176140
Displayweg,2,,,3821BT,Amersfoort,Amersfoort,Utrecht,VBO,5.413007,52.175889
Displayweg,3,,,3821BT,Amersfoort,Amersfoort,Utrecht,VBO,5.413668,52.175772
Displayweg,4,,,3821BT,Amersfoort,Amersfoort,Utrecht,VBO,5.412913,52.175500
Displayweg,8,,,3821BT,Amersfoort,Amersfoort,Utrecht,VBO,5.413222,52.175157
Displayweg,12,,,3821BT,Amersfoort,Amersfoort,Utrecht,VBO,5.413197,52.175144
Displayweg,16,,,3821BT,Amersfoort,Amersfoort,Utrecht,VBO,5.413190,52.175138
Displayweg,20,,,3821BT,Amersfoort,Amersfoort,Utrecht,VBO,5.413178,52.175133
Displayweg,24,,,3821BT,Amersfoort,Amersfoort,Utrecht,VBO,5.413160,52.175128
Displayweg,30,,,3821BT,Amersfoort,Amersfoort,Utrecht,VBO,5.413829,52.175374
Amersfoortsestraat,11,A,,3821CA,Amersfoort,Amersfoort,Utrecht,VBO,5.436294,52.170317
Amersfoortsestraat,11,,,3821CA,Amersfoort,Amersfoort,Utrecht,VBO,5.436394,52.170385
Amersfoortsestraat,13,,,3821CA,Amersfoort,Amersfoort,Utrecht,VBO,5.436378,52.170196
Amersfoortsestraat,15,,,3821CA,Amersfoort,Amersfoort,Utrecht,VBO,5.436745,52.170390
Amersfoortsestraat,19,A,,3821CA,Amersfoort,Amersfoort,Utrecht,VBO,5.435946,52.169778
Amersfoortsestraat,19,,,3821CA,Amersfoort,Amersfoort,Utrecht,VBO,5.434966,52.170147
Amersfoortsestraat,21,,,3821CA,Amersfoort,Amersfoort,Utrecht,VBO,5.436911,52.168923
Amersfoortsestraat,23,A,,3821CA,Amersfoort,Amersfoort,Utrecht,VBO,5.435074,52.169236
Amersfoortsestraat,23,,,3821CA,Amersfoort,Amersfoort,Utrecht,VBO,5.434899,52.169528
Amersfoortsestraat,25,,,3821CA,Amersfoort,Amersfoort,Utrecht,VBO,5.434769,52.168895
Amersfoortsestraat,2,,,3821CB,Amersfoort,Amersfoort,Utrecht,VBO,5.438036,52.173093
Amersfoortsestraat,4,,,3821CB,Amersfoort,Amersfoort,Utrecht,VBO,5.437884,52.173026
Amersfoortsestraat,6,,,3821CB,Amersfoort,Amersfoort,Utrecht,VBO,5.437786,52.173002
Amersfoortsestraat,10,,,3821CB,Amersfoort,Amersfoort,Utrecht,VBO,5.436455,52.172506
Amersfoortsestraat,12,A,,3821CB,Amersfoort,Amersfoort,Utrecht,VBO,5.436232,52.172353
Amersfoortsestraat,12,,,3821CB,Amersfoort,Amersfoort,Utrecht,VBO,5.436303,52.172335
Amersfoortsestraat,24,,,3821CB,Amersfoort,Amersfoort,Utrecht,VBO,5.434031,52.171227
Amersfoortsestraat,26,,,3821CB,Amersfoort,Amersfoort,Utrecht,VBO,5.434054,52.171088
Amersfoortsestraat,28,,,3821CB,Amersfoort,Amersfoort,Utrecht,VBO,5.433726,52.171093
Amersfoortsestraat,30,A,,3821CC,Amersfoort,Amersfoort,Utrecht,VBO,5.433753,52.170191
Amersfoortsestraat,32,A,,3821CC,Amersfoort,Amersfoort,Utrecht,VBO,5.433795,52.170008
Amersfoortsestraat,32,,,3821CC,Amersfoort,Amersfoort,Utrecht,VBO,5.433772,52.170143
Amersfoortsestraat,34,A,,3821CC,Amersfoort,Amersfoort,Utrecht,VBO,5.433854,52.169828
Amersfoortsestraat,34,B,,3821CC,Amersfoort,Amersfoort,Utrecht,VBO,5.433662,52.169677
Amersfoortsestraat,34,,,3821CC,Amersfoort,Amersfoort,Utrecht,VBO,5.433811,52.169951
Amersfoortsestraat,36,,,3821CC,Amersfoort,Amersfoort,Utrecht,VBO,5.433877,52.169538
Amersfoortsestraat,38,,,3821CC,Amersfoort,Amersfoort,Utrecht,VBO,5.433892,52.169493
Amersfoortsestraat,40,,,3821CC,Amersfoort,Amersfoort,Utrecht,VBO,5.433974,52.169344
Amersfoortsestraat,42,,,3821CC,Amersfoort,Amersfoort,Utrecht,VBO,5.433974,52.169298
Amersfoortsestraat,46,,,3821CC,Amersfoort,Amersfoort,Utrecht,VBO,5.434036,52.169164
Amersfoortsestraat,48,,,3821CC,Amersfoort,Amersfoort,Utrecht,VBO,5.434064,52.169118
Amersfoortsestraat,50,,,3821CC,Amersfoort,Amersfoort,Utrecht,VBO,5.434110,52.168970
Amersfoortsestraat,52,,,3821CC,Amersfoort,Amersfoort,Utrecht,VBO,5.434126,52.168929
Nijkerkerstraat,1,,,3821CD,Amersfoort,Amersfoort,Utrecht,VBO,5.436856,52.173240
Nijkerkerstraat,3,,,3821CD,Amersfoort,Amersfoort,Utrecht,VBO,5.436838,52.173287
Nijkerkerstraat,5,,,3821CD,Amersfoort,Amersfoort,Utrecht,VBO,5.436813,52.173453
Nijkerkerstraat,7,,,3821CD,Amersfoort,Amersfoort,Utrecht,VBO,5.436801,52.173640
Nijkerkerstraat,9,,,3821CD,Amersfoort,Amersfoort,Utrecht,VBO,5.436759,52.173785
Nijkerkerstraat,11,,,3821CD,Amersfoort,Amersfoort,Utrecht,VBO,5.436693,52.173914
Nijkerkerstraat,13,,,3821CD,Amersfoort,Amersfoort,Utrecht,VBO,5.436692,52.173984
Nijkerkerstraat,15,,,3821CD,Amersfoort,Amersfoort,Utrecht,VBO,5.436661,52.174068
Nijkerkerstraat,17,,,3821CD,Amersfoort,Amersfoort,Utrecht,VBO,5.435014,52.174546
Nijkerkerstraat,19,,,3821CD,Amersfoort,Amersfoort,Utrecht,VBO,5.436533,52.174357
Nijkerkerstraat,21,,,3821CD,Amersfoort,Amersfoort,Utrecht,VBO,5.436520,52.174415
Nijkerkerstraat,23,A,,3821CD,Amersfoort,Amersfoort,Utrecht,VBO,5.436147,52.174462
Nijkerkerstraat,23,,,3821CD,Amersfoort,Amersfoort,Utrecht,VBO,5.436498,52.174465
Nijkerkerstraat,25,A,,3821CD,Amersfoort,Amersfoort,Utrecht,VBO,5.434122,52.174806
Nijkerkerstraat,25,B,,3821CD,Amersfoort,Amersfoort,Utrecht,VBO,5.436119,52.174673
Nijkerkerstraat,25,,1,3821CD,Amersfoort,Amersfoort,Utrecht,VBO,5.432948,52.175093
Nijkerkerstraat,25,,,3821CD,Amersfoort,Amersfoort,Utrecht,VBO,5.436436,52.174686
Nijkerkerstraat,27,A,,3821CD,Amersfoort,Amersfoort,Utrecht,VBO,5.435770,52.174871
Nijkerkerstraat,27,,,3821CD,Amersfoort,Amersfoort,Utrecht,VBO,5.436401,52.174937
Nijkerkerstraat,29,,,3821CD,Amersfoort,Amersfoort,Utrecht,VBO,5.436320,52.175152
Nijkerkerstraat,31,,,3821CD,Amersfoort,Amersfoort,Utrecht,VBO,5.436194,52.175647
Nijkerkerstraat,33,A,,3821CD,Amersfoort,Amersfoort,Utrecht,VBO,5.434862,52.178383
Nijkerkerstraat,33,,,3821CD,Amersfoort,Amersfoort,Utrecht,VBO,5.435899,52.176715
Nijkerkerstraat,35,A,,3821CD,Amersfoort,Amersfoort,Utrecht,VBO,5.435252,52.180744
Nijkerkerstraat,35,B,,3821CD,Amersfoort,Amersfoort,Utrecht,VBO,5.435518,52.180577
Nijkerkerstraat,35,C,,3821CD,Amersfoort,Amersfoort,Utrecht,VBO,5.435011,52.180546
Nijkerkerstraat,35,D,,3821CD,Amersfoort,Amersfoort,Utrecht,VBO,5.435085,52.180622
Nijkerkerstraat,35,E,,3821CD,Amersfoort,Amersfoort,Utrecht,VBO,5.435163,52.180683
Nijkerkerstraat,35,F,,3821CD,Amersfoort,Amersfoort,Utrecht,VBO,5.435547,52.181007
Nijkerkerstraat,35,,,3821CD,Amersfoort,Amersfoort,Utrecht,VBO,5.435685,52.180198
Nijkerkerstraat,4,,1,3821CE,Amersfoort,Amersfoort,Utrecht,VBO,5.437894,52.173492
Nijkerkerstraat,4,,,3821CE,Amersfoort,Amersfoort,Utrecht,VBO,5.437901,52.173350
Nijkerkerstraat,6,A,,3821CE,Amersfoort,Amersfoort,Utrecht,VBO,5.437680,52.173697
Nijkerkerstraat,6,B,,3821CE,Amersfoort,Amersfoort,Utrecht,VBO,5.437423,52.173621
Nijkerkerstraat,6,C,,3821CE,Amersfoort,Amersfoort,Utrecht,VBO,5.437325,52.173696
Nijkerkerstraat,6,D,,3821CE,Amersfoort,Amersfoort,Utrecht,VBO,5.437325,52.173696
Nijkerkerstraat,6,E,,3821CE,Amersfoort,Amersfoort,Utrecht,VBO,5.437325,52.173682
Nijkerkerstraat,6,,,3821CE,Amersfoort,Amersfoort,Utrecht,VBO,5.437463,52.173736
Nijkerkerstraat,10,,,3821CE,Amersfoort,Amersfoort,Utrecht,VBO,5.436814,52.176152
Nijkerkerstraat,12,,,3821CE,Amersfoort,Amersfoort,Utrecht,VBO,5.436418,52.177678
Nijkerkerstraat,14,,,3821CE,Amersfoort,Amersfoort,Utrecht,VBO,5.436482,52.178425
Nijkerkerstraat,16,A,,3821CE,Amersfoort,Amersfoort,Utrecht,VBO,5.437885,52.179310
Nijkerkerstraat,16,,,3821CE,Amersfoort,Amersfoort,Utrecht,VBO,5.438243,52.179565
Nijkerkerstraat,18,,,3821CE,Amersfoort,Amersfoort,Utrecht,VBO,5.436267,52.180908
Nijkerkerstraat,20,,,3821CE,Amersfoort,Amersfoort,Utrecht,VBO,5.438939,52.183710
Oude Lageweg,66,,,3821CG,Amersfoort,Amersfoort,Utrecht,VBO,5.431691,52.170503
Oude Lageweg,165,,,3821CG,Amersfoort,Amersfoort,Utrecht,VBO,5.431921,52.169381
Oude Lageweg,167,,,3821CG,Amersfoort,Amersfoort,Utrecht,VBO,5.432755,52.169795
Oude Lageweg,169,,,3821CG,Amersfoort,Amersfoort,Utrecht,VBO,5.432856,52.169805
Oude Lageweg,171,,,3821CG,Amersfoort,Amersfoort,Utrecht,VBO,5.433137,52.169957
Rijksweg A1,1,,,3821CH,Amersfoort,Amersfoort,Utrecht,VBO,5.476951,52.165695
Rijksweg A1,3,,,3821CH,Amersfoort,Amersfoort,Utrecht,VBO,5.384255,52.205532
