openbareruimtenaam,huisnummer,huisletter,huisnummertoevoeging,postcode,woonplaatsnaam,gemeentenaam,provincienaam,typeadresseerbaarobject,longitude,latitude
Stoutenburgerlaan,1,a,,3835PB,Stoutenburg,Leusden,Utrecht,VBO,5.442167,52.150229
Stoutenburgerlaan,1,,,3835PB,Stoutenburg,Leusden,Utrecht,VBO,5.442193,52.150204
Stoutenburgerlaan,2,a,,3835PB,Stoutenburg,Leusden,Utrecht,VBO,5.444734,52.151575
Stoutenburgerlaan,2,,,3835PB,Stoutenburg,Leusden,Utrecht,VBO,5.445430,52.151706
Stoutenburgerlaan,3,a,,3835PB,Stoutenburg,Leusden,Utrecht,VBO,5.450894,52.154210
Stoutenburgerlaan,3,,,3835PB,Stoutenburg,Leusden,Utrecht,VBO,5.448247,52.154411
Stoutenburgerlaan,4,a,,3835PB,Stoutenburg,Leusden,Utrecht,VBO,5.449630,52.152381
Stoutenburgerlaan,4,,,3835PB,Stoutenburg,Leusden,Utrecht,VBO,5.449699,52.152469
Stoutenburgerlaan,5,,,3835PB,Stoutenburg,Leusden,Utrecht,VBO,5.450310,52.152638
Stoutenburgerlaan,6,a,,3835PB,Stoutenburg,Leusden,Utrecht,VBO,5.452810,52.153904
Stoutenburgerlaan,6,,,3835PB,Stoutenburg,Leusden,Utrecht,VBO,5.452483,52.154048
Hessenweg,57,,,3835PG,Stoutenburg,Leusden,Utrecht,VBO,5.432432,52.154859
Hessenweg,59,,,3835PG,Stoutenburg,Leusden,Utrecht,VBO,5.432492,52.154817
Hessenweg,61,,,3835PG,Stoutenburg,Leusden,Utrecht,VBO,5.432765,52.154714
Hessenweg,63,,,3835PG,Stoutenburg,Leusden,Utrecht,VBO,5.432970,52.154606
Hessenweg,81,,,3835PG,Stoutenburg,Leusden,Utrecht,VBO,5.433129,52.154350
Hessenweg,83,,,3835PG,Stoutenburg,Leusden,Utrecht,VBO,5.433141,52.154294
Hessenweg,85,,,3835PG,Stoutenburg,Leusden,Utrecht,VBO,5.433176,52.154069
Hessenweg,87,,,3835PG,Stoutenburg,Leusden,Utrecht,VBO,5.433191,52.154015
Hessenweg,91,,,3835PG,Stoutenburg,Leusden,Utrecht,VBO,5.433657,52.153839
Hessenweg,93,,,3835PG,Stoutenburg,Leusden,Utrecht,VBO,5.433763,52.153835
Hessenweg,95,,,3835PG,Stoutenburg,Leusden,Utrecht,VBO,5.434033,52.153813
Hessenweg,97,,,3835PG,Stoutenburg,Leusden,Utrecht,VBO,5.434124,52.153791
Hessenweg,99,,,3835PG,Stoutenburg,Leusden,Utrecht,VBO,5.434362,52.153706
Hessenweg,101,,,3835PG,Stoutenburg,Leusden,Utrecht,VBO,5.434422,52.153659
Hessenweg,117,,,3835PG,Stoutenburg,Leusden,Utrecht,VBO,5.436038,52.152422
Hessenweg,119,,,3835PH,Stoutenburg,Leusden,Utrecht,VBO,5.436364,52.152105
Hessenweg,121,,,3835PH,Stoutenburg,Leusden,Utrecht,VBO,5.436600,52.151988
Hessenweg,123,a,,3835PH,Stoutenburg,Leusden,Utrecht,VBO,5.437379,52.151701
Hessenweg,123,,,3835PH,Stoutenburg,Leusden,Utrecht,VBO,5.436822,52.151897
Hessenweg,125,,,3835PH,Stoutenburg,Leusden,Utrecht,VBO,5.437934,52.151297
Hessenweg,127,,,3835PH,Stoutenburg,Leusden,Utrecht,VBO,5.438272,52.151115
Hessenweg,129,,,3835PH,Stoutenburg,Leusden,Utrecht,VBO,5.438347,52.151098
Hessenweg,131,,,3835PH,Stoutenburg,Leusden,Utrecht,VBO,5.441325,52.152418
Hessenweg,133,,,3835PH,Stoutenburg,Leusden,Utrecht,VBO,5.445639,52.155772
Hessenweg,135,,,3835PH,Stoutenburg,Leusden,Utrecht,VBO,5.439082,52.151012
Hessenweg,137,,,3835PH,Stoutenburg,Leusden,Utrecht,VBO,5.439382,52.150860
Hessenweg,139,,,3835PH,Stoutenburg,Leusden,Utrecht,VBO,5.439974,52.150713
Hessenweg,2,a,,3835PJ,Stoutenburg,Leusden,Utrecht,VBO,5.425973,52.157754
Hessenweg,2,,,3835PJ,Stoutenburg,Leusden,Utrecht,VBO,5.426292,52.157872
Hessenweg,4,,,3835PJ,Stoutenburg,Leusden,Utrecht,VBO,5.427383,52.157274
Hessenweg,6,,,3835PJ,Stoutenburg,Leusden,Utrecht,VBO,5.427469,52.157231
Hessenweg,8,,,3835PJ,Stoutenburg,Leusden,Utrecht,VBO,5.429312,52.156634
Hessenweg,10,,,3835PJ,Stoutenburg,Leusden,Utrecht,VBO,5.429309,52.156541
Hessenweg,12,,,3835PJ,Stoutenburg,Leusden,Utrecht,VBO,5.429267,52.156487
Hessenweg,14,,,3835PJ,Stoutenburg,Leusden,Utrecht,VBO,5.429212,52.156372
Hessenweg,16,a,,3835PJ,Stoutenburg,Leusden,Utrecht,VBO,5.429105,52.156029
Hessenweg,16,,,3835PJ,Stoutenburg,Leusden,Utrecht,VBO,5.429205,52.156333
Hessenweg,18,b,,3835PJ,Stoutenburg,Leusden,Utrecht,VBO,5.430770,52.155155
Hessenweg,18,c,,3835PJ,Stoutenburg,Leusden,Utrecht,VBO,5.431021,52.155052
Hessenweg,18,d,,3835PJ,Stoutenburg,Leusden,Utrecht,VBO,5.431118,52.155014
Hessenweg,18,e,,3835PJ,Stoutenburg,Leusden,Utrecht,VBO,5.431300,52.154921
Hessenweg,18,f,,3835PJ,Stoutenburg,Leusden,Utrecht,VBO,5.431377,52.154891
Hessenweg,18,,,3835PJ,Stoutenburg,Leusden,Utrecht,VBO,5.429033,52.155352
Hessenweg,20,,,3835PJ,Stoutenburg,Leusden,Utrecht,VBO,5.431594,52.154687
Hessenweg,34,,,3835PK,Stoutenburg,Leusden,Utrecht,VBO,5.432145,52.154457
Hessenweg,36,,,3835PK,Stoutenburg,Leusden,Utrecht,VBO,5.432229,52.154424
Hessenweg,38,,,3835PK,Stoutenburg,Leusden,Utrecht,VBO,5.432435,52.154266
Hessenweg,40,,,3835PK,Stoutenburg,Leusden,Utrecht,VBO,5.432465,52.154212
Hessenweg,42,,,3835PK,Stoutenburg,Leusden,Utrecht,VBO,5.432538,52.154003
Hessenweg,44,,,3835PK,Stoutenburg,Leusden,Utrecht,VBO,5.432570,52.153958
Hessenweg,46,,,3835PK,Stoutenburg,Leusden,Utrecht,VBO,5.433010,52.153520
Hessenweg,48,,,3835PK,Stoutenburg,Leusden,Utrecht,VBO,5.433235,52.153523
Hessenweg,50,,,3835PK,Stoutenburg,Leusden,Utrecht,VBO,5.433314,52.153533
Hessenweg,56,,,3835PK,Stoutenburg,Leusden,Utrecht,VBO,5.432646,52.152925
Hessenweg,60,,,3835PK,Stoutenburg,Leusden,Utrecht,VBO,5.435057,52.152403
Hessenweg,62,a,,3835PK,Stoutenburg,Leusden,Utrecht,VBO,5.435451,52.152214
Hessenweg,62,,,3835PK,Stoutenburg,Leusden,Utrecht,VBO,5.435305,52.152385
Hessenweg,64,a,,3835PK,Stoutenburg,Leusden,Utrecht,VBO,5.436233,52.151508
Hessenweg,64,,,3835PK,Stoutenburg,Leusden,Utrecht,VBO,5.436205,52.151563
Hessenweg,66,,,3835PK,Stoutenburg,Leusden,Utrecht,VBO,5.438769,52.150378
Hessenweg,68,,,3835PL,Stoutenburg,Leusden,Utrecht,VBO,5.440019,52.150197
Hessenweg,70,a,,3835PL,Stoutenburg,Leusden,Utrecht,VBO,5.443006,52.149588
Hessenweg,70,,,3835PL,Stoutenburg,Leusden,Utrecht,VBO,5.442910,52.149617
Hessenweg,72,a,,3835PL,Stoutenburg,Leusden,Utrecht,VBO,5.443250,52.149425
Hessenweg,72,,,3835PL,Stoutenburg,Leusden,Utrecht,VBO,5.443265,52.149541
Hessenweg,76,,,3835PL,Stoutenburg,Leusden,Utrecht,VBO,5.443630,52.149460
Hessenweg,78,,,3835PL,Stoutenburg,Leusden,Utrecht,VBO,5.444244,52.149325
Hessenweg,80,,,3835PL,Stoutenburg,Leusden,Utrecht,VBO,5.443980,52.148867
Hessenweg,82,,,3835PL,Stoutenburg,Leusden,Utrecht,VBO,5.438450,52.146753
Hessenweg,84,,,3835PL,Stoutenburg,Leusden,Utrecht,VBO,5.444610,52.149057
Hessenweg,86,,,3835PL,Stoutenburg,Leusden,Utrecht,VBO,5.444696,52.149026
Hessenweg,88,,,3835PL,Stoutenburg,Leusden,Utrecht,VBO,5.445387,52.149015
Hessenweg,90,,,3835PL,Stoutenburg,Leusden,Utrecht,VBO,5.445584,52.149007
Hessenweg,92,,,3835PL,Stoutenburg,Leusden,Utrecht,VBO,5.445690,52.149001
Hessenweg,94,,,3835PL,Stoutenburg,Leusden,Utrecht,VBO,5.446769,52.148765
Hessenweg,96,a,,3835PL,Stoutenburg,Leusden,Utrecht,VBO,5.448022,52.147848
Hessenweg,96,,,3835PL,Stoutenburg,Leusden,Utrecht,VBO,5.447354,52.148272
Hessenweg,98,a,,3835PL,Stoutenburg,Leusden,Utrecht,VBO,5.450538,52.147264
Hessenweg,98,,,3835PL,Stoutenburg,Leusden,Utrecht,VBO,5.449869,52.147599
Engweg,1,a,,3835PM,Stoutenburg,Leusden,Utrecht,VBO,5.435988,52.148741
Engweg,1,,,3835PM,Stoutenburg,Leusden,Utrecht,VBO,5.436254,52.148762
Engweg,2,,,3835PM,Stoutenburg,Leusden,Utrecht,VBO,5.430570,52.148745
Ruifweg,1,,,3835PN,Stoutenburg,Leusden,Utrecht,VBO,5.438332,52.155423
Ruifweg,2,,,3835PN,Stoutenburg,Leusden,Utrecht,VBO,5.438909,52.156131
Ruifweg,3,,,3835PN,Stoutenburg,Leusden,Utrecht,VBO,5.439534,52.157515
Ruifweg,5,t,,3835PN,Stoutenburg,Leusden,Utrecht,VBO,5.439966,52.156120
Ruifweg,5,,,3835PN,Stoutenburg,Leusden,Utrecht,VBO,5.440468,52.156580
Ruifweg,6,a,,3835PN,Stoutenburg,Leusden,Utrecht,VBO,5.443190,52.156825
Ruifweg,6,,,3835PN,Stoutenburg,Leusden,Utrecht,VBO,5.442169,52.156375
Ruifweg,7,,,3835PN,Stoutenburg,Leusden,Utrecht,VBO,5.444234,52.157343
Ruifweg,8,a,,3835PN,Stoutenburg,Leusden,Utrecht,VBO,5.446172,52.157195
Ruifweg,8,b,,3835PN,Stoutenburg,Leusden,Utrecht,VBO,5.446920,52.157785
Ruifweg,8,,,3835PN,Stoutenburg,Leusden,Utrecht,VBO,5.446285,52.157602
Honthorsterweg,2,,,3835PP,Stoutenburg,Leusden,Utrecht,VBO,5.437329,52.159044
Honthorsterweg,3,,,3835PP,Stoutenburg,Leusden,Utrecht,VBO,5.434982,52.158225
Horsterweg,1,,,3835PR,Stoutenburg,Leusden,Utrecht,VBO,5.432793,52.153589
Horsterweg,3,,,3835PR,Stoutenburg,Leusden,Utrecht,VBO,5.432708,52.153556
Horsterweg,5,,,3835PR,Stoutenburg,Leusden,Utrecht,VBO,5.432554,52.153571
Horsterweg,7,,,3835PR,Stoutenburg,Leusden,Utrecht,VBO,5.432442,52.153591
Horsterweg,9,,,3835PR,Stoutenburg,Leusden,Utrecht,VBO,5.432289,52.153592
Horsterweg,11,,,3835PR,Stoutenburg,Leusden,Utrecht,VBO,5.432197,52.153557
Horsterweg,13,,,3835PR,Stoutenburg,Leusden,Utrecht,VBO,5.432076,52.153578
Horsterweg,15,,,3835PR,Stoutenburg,Leusden,Utrecht,VBO,5.431929,52.153596
Horsterweg,17,,,3835PR,Stoutenburg,Leusden,Utrecht,VBO,5.431582,52.153574
Horsterweg,19,a,,3835PR,Stoutenburg,Leusden,Utrecht,VBO,5.428715,52.152630
Horsterweg,19,,,3835PR,Stoutenburg,Leusden,Utrecht,VBO,5.429563,52.153026
Horsterweg,21,,a,3835PR,Stoutenburg,Leusden,Utrecht,VBO,5.424240,52.148376
Horsterweg,21,,,3835PR,Stoutenburg,Leusden,Utrecht,VBO,5.424007,52.148381
Horsterweg,2,,,3835PS,Stoutenburg,Leusden,Utrecht,VBO,5.432167,52.153968
Horsterweg,4,,,3835PS,Stoutenburg,Leusden,Utrecht,VBO,5.432075,52.153965
Horsterweg,6,,,3835PS,Stoutenburg,Leusden,Utrecht,VBO,5.431753,52.153969
Horsterweg,8,,,3835PS,Stoutenburg,Leusden,Utrecht,VBO,5.431473,52.153970
Horsterweg,10,,,3835PS,Stoutenburg,Leusden,Utrecht,VBO,5.431367,52.153960
Horsterweg,12,,,3835PS,Stoutenburg,Leusden,Utrecht,VBO,5.431098,52.153951
Horsterweg,14,,,3835PS,Stoutenburg,Leusden,Utrecht,VBO,5.430996,52.153942
Horsterweg,16,,,3835PS,Stoutenburg,Leusden,Utrecht,VBO,5.430723,52.153937
Horsterweg,18,,,3835PS,Stoutenburg,Leusden,Utrecht,VBO,5.430631,52.153915
Horsterweg,20,,,3835PS,Stoutenburg,Leusden,Utrecht,VBO,5.430379,52.153888
Horsterweg,22,a,,3835PS,Stoutenburg,Leusden,Utrecht,VBO,5.429900,52.153771
Horsterweg,22,b,,3835PS,Stoutenburg,Leusden,Utrecht,VBO,5.429211,52.153615
Horsterweg,22,c,,3835PS,Stoutenburg,Leusden,Utrecht,VBO,5.429356,52.153786
Horsterweg,22,,,3835PS,Stoutenburg,Leusden,Utrecht,VBO,5.430291,52.153872
Horsterweg,24,,,3835PS,Stoutenburg,Leusden,Utrecht,VBO,5.425941,52.151872
Horsterweg,26,,,3835PS,Stoutenburg,Leusden,Utrecht,VBO,5.424638,52.151328
Horsterweg,28,,,3835PS,Stoutenburg,Leusden,Utrecht,VBO,5.423860,52.150642
Schammersteeg,1,,,3835PT,Stoutenburg,Leusden,Utrecht,VBO,5.417754,52.149290
Schammersteeg,2,,,3835PT,Stoutenburg,Leusden,Utrecht,VBO,5.421130,52.150062
Schammersteeg,3,,,3835PT,Stoutenburg,Leusden,Utrecht,VBO,5.417200,52.149794
