openbareruimtenaam,huisnummer,huisletter,huisnummertoevoeging,postcode,woonplaatsnaam,gemeentenaam,provincienaam,typeadresseerbaarobject,longitude,latitude
Burgemeester De Meesterstraat,5,,,3846AB,Harderwijk,Harderwijk,Gelderland,VBO,5.626093,52.352596
Burgemeester De Meesterstraat,11,A,,3846AB,Harderwijk,Harderwijk,Gelderland,VBO,5.627272,52.353337
Burgemeester De Meesterstraat,11,,,3846AB,Harderwijk,Harderwijk,Gelderland,VBO,5.627094,52.353233
Havendijk,1,,,3846AC,Harderwijk,Harderwijk,Gelderland,VBO,5.624713,52.351659
Havendijk,5,,,3846AC,Harderwijk,Harderwijk,Gelderland,VBO,5.625005,52.351655
Havendijk,7,,,3846AC,Harderwijk,Harderwijk,Gelderland,VBO,5.625029,52.351698
Havendijk,9,,,3846AC,Harderwijk,Harderwijk,Gelderland,VBO,5.624544,52.352126
Havendijk,13,,,3846AC,Harderwijk,Harderwijk,Gelderland,VBO,5.624082,52.352280
Vissershaven,1,,,3846AG,Harderwijk,Harderwijk,Gelderland,LIG,5.624053,52.350980
Vissershaven,2,,,3846AG,Harderwijk,Harderwijk,Gelderland,LIG,5.624113,52.351035
Vissershaven,3,,,3846AG,Harderwijk,Harderwijk,Gelderland,LIG,5.624173,52.351086
Vissershaven,4,,,3846AG,Harderwijk,Harderwijk,Gelderland,LIG,5.624241,52.351146
Vissershaven,5,,,3846AG,Harderwijk,Harderwijk,Gelderland,LIG,5.624325,52.351220
Vissershaven,6,,,3846AG,Harderwijk,Harderwijk,Gelderland,LIG,5.624403,52.351289
Vissershaven,7,,,3846AG,Harderwijk,Harderwijk,Gelderland,LIG,5.624478,52.351351
Vissershaven,8,,,3846AG,Harderwijk,Harderwijk,Gelderland,LIG,5.624542,52.351412
Knarweg,2,,,3846AH,Harderwijk,Harderwijk,Gelderland,VBO,5.617895,52.359695
Knarweg,4,,,3846AH,Harderwijk,Harderwijk,Gelderland,VBO,5.617983,52.359644
Knarweg,6,,,3846AH,Harderwijk,Harderwijk,Gelderland,VBO,5.615479,52.358751
Flevoweg,85,,,3846AJ,Harderwijk,Harderwijk,Gelderland,VBO,5.627005,52.355512
Stephensonstraat,1,A,,3846AK,Harderwijk,Harderwijk,Gelderland,VBO,5.633053,52.355185
Stephensonstraat,1,B,,3846AK,Harderwijk,Harderwijk,Gelderland,VBO,5.633150,52.355107
Stephensonstraat,1,C,,3846AK,Harderwijk,Harderwijk,Gelderland,VBO,5.633299,52.355013
Stephensonstraat,1,D,,3846AK,Harderwijk,Harderwijk,Gelderland,VBO,5.633425,52.354943
Stephensonstraat,1,,,3846AK,Harderwijk,Harderwijk,Gelderland,VBO,5.632590,52.354800
Stephensonstraat,3,A,,3846AK,Harderwijk,Harderwijk,Gelderland,VBO,5.632737,52.354874
Stephensonstraat,3,B,,3846AK,Harderwijk,Harderwijk,Gelderland,VBO,5.632895,52.354781
Stephensonstraat,3,,,3846AK,Harderwijk,Harderwijk,Gelderland,VBO,5.632748,52.354698
Stephensonstraat,5,,,3846AK,Harderwijk,Harderwijk,Gelderland,VBO,5.632887,52.354284
Stephensonstraat,15,,,3846AK,Harderwijk,Harderwijk,Gelderland,VBO,5.635494,52.353329
Stephensonstraat,25,A,,3846AK,Harderwijk,Harderwijk,Gelderland,VBO,5.635570,52.352736
Stephensonstraat,25,,,3846AK,Harderwijk,Harderwijk,Gelderland,VBO,5.635433,52.352850
Stephensonstraat,27,A,,3846AK,Harderwijk,Harderwijk,Gelderland,VBO,5.635598,52.352759
Stephensonstraat,27,,,3846AK,Harderwijk,Harderwijk,Gelderland,VBO,5.635493,52.352889
Stephensonstraat,29,A,,3846AK,Harderwijk,Harderwijk,Gelderland,VBO,5.635647,52.352783
Stephensonstraat,29,,,3846AK,Harderwijk,Harderwijk,Gelderland,VBO,5.635568,52.352930
Stephensonstraat,31,A,,3846AK,Harderwijk,Harderwijk,Gelderland,VBO,5.635675,52.352806
Stephensonstraat,31,,,3846AK,Harderwijk,Harderwijk,Gelderland,VBO,5.635633,52.352971
Stephensonstraat,33,,,3846AK,Harderwijk,Harderwijk,Gelderland,VBO,5.636219,52.352679
Stephensonstraat,35,,,3846AK,Harderwijk,Harderwijk,Gelderland,VBO,5.636272,52.352711
Stephensonstraat,37,,,3846AK,Harderwijk,Harderwijk,Gelderland,VBO,5.636398,52.352562
Stephensonstraat,39,,,3846AK,Harderwijk,Harderwijk,Gelderland,VBO,5.636487,52.352613
Pascalstraat,1,A,,3846AL,Harderwijk,Harderwijk,Gelderland,VBO,5.634725,52.354815
Pascalstraat,1,,,3846AL,Harderwijk,Harderwijk,Gelderland,VBO,5.634988,52.354729
Pascalstraat,3,A,,3846AL,Harderwijk,Harderwijk,Gelderland,VBO,5.634418,52.355098
Pascalstraat,3,,,3846AL,Harderwijk,Harderwijk,Gelderland,VBO,5.634535,52.355035
Pascalstraat,5,A,,3846AL,Harderwijk,Harderwijk,Gelderland,VBO,5.634213,52.355218
Pascalstraat,5,,,3846AL,Harderwijk,Harderwijk,Gelderland,VBO,5.634315,52.355155
Pascalstraat,7,A,,3846AL,Harderwijk,Harderwijk,Gelderland,VBO,5.633728,52.355055
Pascalstraat,7,,,3846AL,Harderwijk,Harderwijk,Gelderland,VBO,5.634133,52.355288
Pascalstraat,9,,,3846AL,Harderwijk,Harderwijk,Gelderland,VBO,5.633948,52.355385
Pascalstraat,11,,,3846AL,Harderwijk,Harderwijk,Gelderland,VBO,5.633584,52.355621
Pascalstraat,2,A,,3846AM,Harderwijk,Harderwijk,Gelderland,VBO,5.635382,52.355099
Pascalstraat,2,B,,3846AM,Harderwijk,Harderwijk,Gelderland,VBO,5.634484,52.355566
Pascalstraat,2,C,,3846AM,Harderwijk,Harderwijk,Gelderland,VBO,5.635210,52.355041
Pascalstraat,2,,,3846AM,Harderwijk,Harderwijk,Gelderland,VBO,5.635043,52.355243
Pascalstraat,4,A,,3846AM,Harderwijk,Harderwijk,Gelderland,VBO,5.634216,52.355791
Pascalstraat,4,,,3846AM,Harderwijk,Harderwijk,Gelderland,VBO,5.634384,52.355630
Pascalstraat,6,A,,3846AM,Harderwijk,Harderwijk,Gelderland,VBO,5.634038,52.355889
Pascalstraat,6,B,,3846AM,Harderwijk,Harderwijk,Gelderland,VBO,5.633948,52.355960
Pascalstraat,6,,,3846AM,Harderwijk,Harderwijk,Gelderland,VBO,5.633923,52.355881
Ampèrestraat,1,A,,3846AN,Harderwijk,Harderwijk,Gelderland,VBO,5.634826,52.355620
Ampèrestraat,1,,,3846AN,Harderwijk,Harderwijk,Gelderland,VBO,5.634605,52.355488
Ampèrestraat,2,,,3846AN,Harderwijk,Harderwijk,Gelderland,VBO,5.635286,52.355501
Ampèrestraat,3,,,3846AN,Harderwijk,Harderwijk,Gelderland,VBO,5.635051,52.355780
Ampèrestraat,5,C,,3846AN,Harderwijk,Harderwijk,Gelderland,VBO,5.634713,52.356201
Ampèrestraat,5,,,3846AN,Harderwijk,Harderwijk,Gelderland,VBO,5.635216,52.355870
Ampèrestraat,6,A,,3846AN,Harderwijk,Harderwijk,Gelderland,VBO,5.636151,52.355886
Ampèrestraat,6,B,,3846AN,Harderwijk,Harderwijk,Gelderland,VBO,5.635986,52.355788
Ampèrestraat,6,,,3846AN,Harderwijk,Harderwijk,Gelderland,VBO,5.635640,52.355786
Ampèrestraat,7,A,,3846AN,Harderwijk,Harderwijk,Gelderland,VBO,5.634865,52.356683
Ampèrestraat,8,,,3846AN,Harderwijk,Harderwijk,Gelderland,VBO,5.636318,52.356199
Voltastraat,1,A,,3846AP,Harderwijk,Harderwijk,Gelderland,VBO,5.635377,52.356753
Voltastraat,1,B,,3846AP,Harderwijk,Harderwijk,Gelderland,VBO,5.635518,52.356679
Voltastraat,1,C,,3846AP,Harderwijk,Harderwijk,Gelderland,VBO,5.635701,52.356572
Voltastraat,1,D,,3846AP,Harderwijk,Harderwijk,Gelderland,VBO,5.635874,52.356469
Voltastraat,2,,,3846AP,Harderwijk,Harderwijk,Gelderland,VBO,5.635907,52.357060
Voltastraat,5,,,3846AP,Harderwijk,Harderwijk,Gelderland,VBO,5.636433,52.355944
Marconistraat,1,,,3846AR,Harderwijk,Harderwijk,Gelderland,VBO,5.638005,52.355797
Marconistraat,2,,,3846AR,Harderwijk,Harderwijk,Gelderland,VBO,5.639204,52.355516
Marconistraat,3,,,3846AR,Harderwijk,Harderwijk,Gelderland,VBO,5.638119,52.355724
Marconistraat,5,,,3846AR,Harderwijk,Harderwijk,Gelderland,VBO,5.638235,52.355651
Marconistraat,7,,,3846AR,Harderwijk,Harderwijk,Gelderland,VBO,5.638350,52.355578
Marconistraat,9,,,3846AR,Harderwijk,Harderwijk,Gelderland,VBO,5.638532,52.355562
Edisonstraat,1,,,3846AS,Harderwijk,Harderwijk,Gelderland,VBO,5.640029,52.356356
Edisonstraat,2,,,3846AS,Harderwijk,Harderwijk,Gelderland,VBO,5.636596,52.353320
Edisonstraat,3,A,,3846AS,Harderwijk,Harderwijk,Gelderland,VBO,5.640302,52.356107
Edisonstraat,3,,,3846AS,Harderwijk,Harderwijk,Gelderland,VBO,5.640279,52.356208
Edisonstraat,4,,,3846AS,Harderwijk,Harderwijk,Gelderland,VBO,5.639967,52.355893
Edisonstraat,5,,,3846AS,Harderwijk,Harderwijk,Gelderland,VBO,5.640694,52.355985
Edisonstraat,7,,,3846AS,Harderwijk,Harderwijk,Gelderland,VBO,5.640865,52.355894
Edisonstraat,9,,,3846AS,Harderwijk,Harderwijk,Gelderland,VBO,5.641023,52.355803
Galvanistraat,1,,,3846AT,Harderwijk,Harderwijk,Gelderland,VBO,5.640915,52.357534
Galvanistraat,2,,,3846AT,Harderwijk,Harderwijk,Gelderland,VBO,5.640408,52.357041
Galvanistraat,4,,,3846AT,Harderwijk,Harderwijk,Gelderland,VBO,5.640414,52.356925
Galvanistraat,5,,,3846AT,Harderwijk,Harderwijk,Gelderland,VBO,5.641243,52.357341
Galvanistraat,6,,,3846AT,Harderwijk,Harderwijk,Gelderland,VBO,5.640656,52.356900
Galvanistraat,8,,,3846AT,Harderwijk,Harderwijk,Gelderland,VBO,5.640738,52.356846
Galvanistraat,9,,,3846AT,Harderwijk,Harderwijk,Gelderland,VBO,5.641493,52.357205
Galvanistraat,10,A,,3846AT,Harderwijk,Harderwijk,Gelderland,VBO,5.640588,52.356347
Galvanistraat,10,,,3846AT,Harderwijk,Harderwijk,Gelderland,VBO,5.640843,52.356675
Galvanistraat,11,,,3846AT,Harderwijk,Harderwijk,Gelderland,VBO,5.641625,52.357115
Galvanistraat,12,,,3846AT,Harderwijk,Harderwijk,Gelderland,VBO,5.641028,52.356414
Galvanistraat,14,,,3846AT,Harderwijk,Harderwijk,Gelderland,VBO,5.641376,52.356427
Galvanistraat,15,,,3846AT,Harderwijk,Harderwijk,Gelderland,VBO,5.641952,52.356615
Galvanistraat,16,,,3846AT,Harderwijk,Harderwijk,Gelderland,VBO,5.641556,52.356164
Galvanistraat,17,,,3846AT,Harderwijk,Harderwijk,Gelderland,VBO,5.642340,52.356642
Galvanistraat,18,,,3846AT,Harderwijk,Harderwijk,Gelderland,VBO,5.642080,52.355937
Galvanistraat,20,,,3846AT,Harderwijk,Harderwijk,Gelderland,VBO,5.641604,52.355847
Galvanistraat,21,,,3846AT,Harderwijk,Harderwijk,Gelderland,VBO,5.642769,52.356393
Galvanistraat,22,,,3846AT,Harderwijk,Harderwijk,Gelderland,VBO,5.641517,52.355653
Galvanistraat,24,,,3846AT,Harderwijk,Harderwijk,Gelderland,VBO,5.641345,52.355656
Lorentzstraat,1,A,,3846AV,Harderwijk,Harderwijk,Gelderland,VBO,5.631017,52.355972
Lorentzstraat,5,B,,3846AV,Harderwijk,Harderwijk,Gelderland,VBO,5.635043,52.357620
Lorentzstraat,5,C,,3846AV,Harderwijk,Harderwijk,Gelderland,VBO,5.635287,52.358017
Lorentzstraat,5,E,,3846AV,Harderwijk,Harderwijk,Gelderland,VBO,5.635808,52.358298
Lorentzstraat,5,,,3846AV,Harderwijk,Harderwijk,Gelderland,VBO,5.632574,52.357483
Lorentzstraat,7,,,3846AV,Harderwijk,Harderwijk,Gelderland,VBO,5.636239,52.358577
Lorentzstraat,11,,,3846AV,Harderwijk,Harderwijk,Gelderland,VBO,5.636938,52.358964
Lorentzstraat,13,,,3846AV,Harderwijk,Harderwijk,Gelderland,VBO,5.637171,52.359191
Lorentzstraat,15,,,3846AV,Harderwijk,Harderwijk,Gelderland,VBO,5.637661,52.359415
Lorentzstraat,17,,,3846AV,Harderwijk,Harderwijk,Gelderland,VBO,5.638820,52.360049
Lorentzstraat,25,,,3846AV,Harderwijk,Harderwijk,Gelderland,VBO,5.640078,52.360039
Lorentzstraat,29,,,3846AV,Harderwijk,Harderwijk,Gelderland,VBO,5.640753,52.359893
Lorentzstraat,31,,,3846AV,Harderwijk,Harderwijk,Gelderland,VBO,5.641152,52.359681
Lorentzstraat,33,,,3846AV,Harderwijk,Harderwijk,Gelderland,VBO,5.641468,52.359514
Lorentzstraat,35,,,3846AV,Harderwijk,Harderwijk,Gelderland,VBO,5.642220,52.359063
Lorentzstraat,37,A,,3846AV,Harderwijk,Harderwijk,Gelderland,VBO,5.643319,52.358336
Lorentzstraat,37,,,3846AV,Harderwijk,Harderwijk,Gelderland,VBO,5.643353,52.358486
Lorentzstraat,39,,,3846AV,Harderwijk,Harderwijk,Gelderland,VBO,5.643452,52.358257
Lorentzstraat,41,,,3846AV,Harderwijk,Harderwijk,Gelderland,VBO,5.644346,52.357872
Lorentzstraat,43,,,3846AV,Harderwijk,Harderwijk,Gelderland,VBO,5.644672,52.357541
Lorentzstraat,45,,,3846AV,Harderwijk,Harderwijk,Gelderland,VBO,5.644821,52.357445
Lorentzstraat,2,A,,3846AW,Harderwijk,Harderwijk,Gelderland,VBO,5.632337,52.355402
Lorentzstraat,2,B,,3846AW,Harderwijk,Harderwijk,Gelderland,VBO,5.632913,52.355609
Lorentzstraat,2,,,3846AW,Harderwijk,Harderwijk,Gelderland,VBO,5.632935,52.355808
Lorentzstraat,4,A,,3846AW,Harderwijk,Harderwijk,Gelderland,VBO,5.633797,52.356344
Lorentzstraat,4,,,3846AW,Harderwijk,Harderwijk,Gelderland,VBO,5.633514,52.356179
Lorentzstraat,6,A,,3846AW,Harderwijk,Harderwijk,Gelderland,VBO,5.633934,52.356395
Lorentzstraat,6,,,3846AW,Harderwijk,Harderwijk,Gelderland,VBO,5.634206,52.356561
Lorentzstraat,8,A,,3846AW,Harderwijk,Harderwijk,Gelderland,VBO,5.634694,52.356773
Lorentzstraat,8,,,3846AW,Harderwijk,Harderwijk,Gelderland,VBO,5.634368,52.356697
Lorentzstraat,10,,,3846AW,Harderwijk,Harderwijk,Gelderland,VBO,5.635154,52.356800
Lorentzstraat,16,,,3846AX,Harderwijk,Harderwijk,Gelderland,VBO,5.636039,52.357507
Lorentzstraat,20,,,3846AX,Harderwijk,Harderwijk,Gelderland,VBO,5.636459,52.357766
Lorentzstraat,32,,,3846AX,Harderwijk,Harderwijk,Gelderland,VBO,5.642412,52.358195
Lorentzstraat,34,A,,3846AX,Harderwijk,Harderwijk,Gelderland,VBO,5.643013,52.357867
Lorentzstraat,34,,,3846AX,Harderwijk,Harderwijk,Gelderland,VBO,5.643032,52.357578
Lorentzstraat,36,,,3846AX,Harderwijk,Harderwijk,Gelderland,VBO,5.643281,52.357301
Lorentzstraat,38,,,3846AX,Harderwijk,Harderwijk,Gelderland,VBO,5.643685,52.357227
Industrieweg,1,,,3846BA,Harderwijk,Harderwijk,Gelderland,VBO,5.633474,52.354059
Industrieweg,5,,,3846BA,Harderwijk,Harderwijk,Gelderland,VBO,5.633817,52.354661
Industrieweg,7,,,3846BA,Harderwijk,Harderwijk,Gelderland,VBO,5.634004,52.354786
Industrieweg,9,A,,3846BB,Harderwijk,Harderwijk,Gelderland,VBO,5.635666,52.355132
Industrieweg,9,B,,3846BB,Harderwijk,Harderwijk,Gelderland,VBO,5.635835,52.355219
Industrieweg,9,,,3846BB,Harderwijk,Harderwijk,Gelderland,VBO,5.635494,52.354984
Industrieweg,11,A,,3846BB,Harderwijk,Harderwijk,Gelderland,VBO,5.636353,52.355465
Industrieweg,11,,,3846BB,Harderwijk,Harderwijk,Gelderland,VBO,5.636096,52.355330
Industrieweg,13,A,,3846BB,Harderwijk,Harderwijk,Gelderland,VBO,5.637694,52.356440
Industrieweg,13,,,3846BB,Harderwijk,Harderwijk,Gelderland,VBO,5.636928,52.355862
Industrieweg,15,,,3846BB,Harderwijk,Harderwijk,Gelderland,VBO,5.636940,52.356891
Industrieweg,2,A,,3846BC,Harderwijk,Harderwijk,Gelderland,VBO,5.634752,52.353722
Industrieweg,6,,,3846BC,Harderwijk,Harderwijk,Gelderland,VBO,5.635477,52.354232
Industrieweg,8,,,3846BC,Harderwijk,Harderwijk,Gelderland,VBO,5.635723,52.354553
Industrieweg,10,,,3846BC,Harderwijk,Harderwijk,Gelderland,VBO,5.635835,52.354720
Industrieweg,12,A,,3846BD,Harderwijk,Harderwijk,Gelderland,VBO,5.636296,52.354980
Industrieweg,12,B,,3846BD,Harderwijk,Harderwijk,Gelderland,VBO,5.636365,52.354781
Industrieweg,12,C,,3846BD,Harderwijk,Harderwijk,Gelderland,VBO,5.636431,52.354732
Industrieweg,12,D,,3846BD,Harderwijk,Harderwijk,Gelderland,VBO,5.636660,52.354763
Industrieweg,12,E,,3846BD,Harderwijk,Harderwijk,Gelderland,VBO,5.636732,52.354709
Industrieweg,12,F,,3846BD,Harderwijk,Harderwijk,Gelderland,VBO,5.636741,52.354606
Industrieweg,12,G,,3846BD,Harderwijk,Harderwijk,Gelderland,VBO,5.636501,52.354506
Industrieweg,12,,,3846BD,Harderwijk,Harderwijk,Gelderland,VBO,5.636221,52.354933
Industrieweg,14,,,3846BD,Harderwijk,Harderwijk,Gelderland,VBO,5.636561,52.355121
Industrieweg,16,,,3846BD,Harderwijk,Harderwijk,Gelderland,VBO,5.636822,52.355284
Industrieweg,18,,1,3846BD,Harderwijk,Harderwijk,Gelderland,VBO,5.637013,52.355389
Industrieweg,18,,10,3846BD,Harderwijk,Harderwijk,Gelderland,VBO,5.637252,52.355354
Industrieweg,18,,11,3846BD,Harderwijk,Harderwijk,Gelderland,VBO,5.637341,52.355301
Industrieweg,18,,12,3846BD,Harderwijk,Harderwijk,Gelderland,VBO,5.637399,52.355264
Industrieweg,18,,13,3846BD,Harderwijk,Harderwijk,Gelderland,VBO,5.637457,52.355227
Industrieweg,18,,14,3846BD,Harderwijk,Harderwijk,Gelderland,VBO,5.637515,52.355190
Industrieweg,18,,15,3846BD,Harderwijk,Harderwijk,Gelderland,VBO,5.637653,52.355138
Industrieweg,18,,16,3846BD,Harderwijk,Harderwijk,Gelderland,VBO,5.637856,52.355258
Industrieweg,18,,17,3846BD,Harderwijk,Harderwijk,Gelderland,VBO,5.637790,52.355352
Industrieweg,18,,18,3846BD,Harderwijk,Harderwijk,Gelderland,VBO,5.637732,52.355389
Industrieweg,18,,19,3846BD,Harderwijk,Harderwijk,Gelderland,VBO,5.637674,52.355426
Industrieweg,18,,2,3846BD,Harderwijk,Harderwijk,Gelderland,VBO,5.637084,52.355340
Industrieweg,18,,20,3846BD,Harderwijk,Harderwijk,Gelderland,VBO,5.637615,52.355463
Industrieweg,18,,21,3846BD,Harderwijk,Harderwijk,Gelderland,VBO,5.637533,52.355519
Industrieweg,18,,22,3846BD,Harderwijk,Harderwijk,Gelderland,VBO,5.637415,52.355594
Industrieweg,18,,3,3846BD,Harderwijk,Harderwijk,Gelderland,VBO,5.637157,52.355294
Industrieweg,18,,4,3846BD,Harderwijk,Harderwijk,Gelderland,VBO,5.637229,52.355248
Industrieweg,18,,5,3846BD,Harderwijk,Harderwijk,Gelderland,VBO,5.637302,52.355202
Industrieweg,18,,6,3846BD,Harderwijk,Harderwijk,Gelderland,VBO,5.637374,52.355156
Industrieweg,18,,7,3846BD,Harderwijk,Harderwijk,Gelderland,VBO,5.637447,52.355110
Industrieweg,18,,8,3846BD,Harderwijk,Harderwijk,Gelderland,VBO,5.637519,52.355064
Industrieweg,18,,9,3846BD,Harderwijk,Harderwijk,Gelderland,VBO,5.637134,52.355429
Industrieweg,20,,1,3846BD,Harderwijk,Harderwijk,Gelderland,VBO,5.637509,52.355649
Industrieweg,20,,10,3846BD,Harderwijk,Harderwijk,Gelderland,VBO,5.638108,52.355611
Industrieweg,20,,11,3846BD,Harderwijk,Harderwijk,Gelderland,VBO,5.638050,52.355648
Industrieweg,20,,12,3846BD,Harderwijk,Harderwijk,Gelderland,VBO,5.637992,52.355685
Industrieweg,20,,13,3846BD,Harderwijk,Harderwijk,Gelderland,VBO,5.637901,52.355736
Industrieweg,20,,14,3846BD,Harderwijk,Harderwijk,Gelderland,VBO,5.637784,52.355811
Industrieweg,20,,15,3846BD,Harderwijk,Harderwijk,Gelderland,VBO,5.637894,52.355886
Industrieweg,20,,2,3846BD,Harderwijk,Harderwijk,Gelderland,VBO,5.637626,52.355574
Industrieweg,20,,3,3846BD,Harderwijk,Harderwijk,Gelderland,VBO,5.637717,52.355523
Industrieweg,20,,4,3846BD,Harderwijk,Harderwijk,Gelderland,VBO,5.637775,52.355486
Industrieweg,20,,5,3846BD,Harderwijk,Harderwijk,Gelderland,VBO,5.637833,52.355449
Industrieweg,20,,6,3846BD,Harderwijk,Harderwijk,Gelderland,VBO,5.637891,52.355412
Industrieweg,20,,7,3846BD,Harderwijk,Harderwijk,Gelderland,VBO,5.638028,52.355359
Industrieweg,20,,8,3846BD,Harderwijk,Harderwijk,Gelderland,VBO,5.638232,52.355479
Industrieweg,20,,9,3846BD,Harderwijk,Harderwijk,Gelderland,VBO,5.638166,52.355574
Industrieweg,22,,,3846BD,Harderwijk,Harderwijk,Gelderland,VBO,5.638249,52.356090
Industrieweg,24,,,3846BE,Harderwijk,Harderwijk,Gelderland,VBO,5.638900,52.356480
Industrieweg,26,,,3846BE,Harderwijk,Harderwijk,Gelderland,VBO,5.639909,52.356546
Industrieweg,28,A,,3846BE,Harderwijk,Harderwijk,Gelderland,VBO,5.640124,52.357081
Industrieweg,28,,,3846BE,Harderwijk,Harderwijk,Gelderland,VBO,5.640193,52.357214
Industrieweg,30,,,3846BE,Harderwijk,Harderwijk,Gelderland,VBO,5.640644,52.357545
Industrieweg,32,,,3846BE,Harderwijk,Harderwijk,Gelderland,VBO,5.640722,52.357593
Buys Ballotstraat,1,,,3846BG,Harderwijk,Harderwijk,Gelderland,VBO,5.637895,52.360327
Buys Ballotstraat,3,,,3846BG,Harderwijk,Harderwijk,Gelderland,VBO,5.637776,52.360569
Buys Ballotstraat,5,A,,3846BG,Harderwijk,Harderwijk,Gelderland,VBO,5.638318,52.360513
Buys Ballotstraat,5,B,,3846BG,Harderwijk,Harderwijk,Gelderland,VBO,5.637931,52.360729
Buys Ballotstraat,5,,,3846BG,Harderwijk,Harderwijk,Gelderland,VBO,5.638245,52.360480
Buys Ballotstraat,7,,,3846BG,Harderwijk,Harderwijk,Gelderland,VBO,5.638427,52.360626
Buys Ballotstraat,9,A,,3846BG,Harderwijk,Harderwijk,Gelderland,VBO,5.638871,52.360770
Buys Ballotstraat,9,,,3846BG,Harderwijk,Harderwijk,Gelderland,VBO,5.638751,52.360712
Buys Ballotstraat,11,A,,3846BG,Harderwijk,Harderwijk,Gelderland,VBO,5.638773,52.360798
Buys Ballotstraat,11,B,,3846BG,Harderwijk,Harderwijk,Gelderland,VBO,5.638581,52.360921
Buys Ballotstraat,11,C,,3846BG,Harderwijk,Harderwijk,Gelderland,VBO,5.638422,52.361022
Buys Ballotstraat,13,,,3846BG,Harderwijk,Harderwijk,Gelderland,VBO,5.638932,52.360923
Buys Ballotstraat,15,,,3846BG,Harderwijk,Harderwijk,Gelderland,VBO,5.639025,52.360975
Buys Ballotstraat,17,,,3846BG,Harderwijk,Harderwijk,Gelderland,VBO,5.639087,52.361020
Buys Ballotstraat,19,,,3846BG,Harderwijk,Harderwijk,Gelderland,VBO,5.639271,52.361124
Einsteinstraat,2,A,,3846BH,Harderwijk,Harderwijk,Gelderland,VBO,5.638114,52.359891
Einsteinstraat,2,,,3846BH,Harderwijk,Harderwijk,Gelderland,VBO,5.637797,52.360241
Einsteinstraat,4,,,3846BH,Harderwijk,Harderwijk,Gelderland,VBO,5.637491,52.360439
Einsteinstraat,5,,,3846BH,Harderwijk,Harderwijk,Gelderland,VBO,5.636296,52.360217
Newtonweg,1,,,3846BJ,Harderwijk,Harderwijk,Gelderland,VBO,5.636596,52.353320
Newtonweg,2,,,3846BJ,Harderwijk,Harderwijk,Gelderland,VBO,5.635079,52.350679
Newtonweg,10,,,3846BJ,Harderwijk,Harderwijk,Gelderland,VBO,5.639042,52.353069
Celsiusstraat,1,,,3846BK,Harderwijk,Harderwijk,Gelderland,VBO,5.643716,52.358309
Celsiusstraat,3,,,3846BK,Harderwijk,Harderwijk,Gelderland,VBO,5.643816,52.358511
Celsiusstraat,5,,,3846BK,Harderwijk,Harderwijk,Gelderland,VBO,5.644118,52.358689
Celsiusstraat,7,,,3846BK,Harderwijk,Harderwijk,Gelderland,VBO,5.644481,52.358886
Celsiusstraat,9,A,,3846BK,Harderwijk,Harderwijk,Gelderland,VBO,5.644209,52.359284
Celsiusstraat,9,B,,3846BK,Harderwijk,Harderwijk,Gelderland,VBO,5.644340,52.359337
Celsiusstraat,9,C,,3846BK,Harderwijk,Harderwijk,Gelderland,VBO,5.644643,52.359337
Celsiusstraat,9,,,3846BK,Harderwijk,Harderwijk,Gelderland,VBO,5.644764,52.358997
Celsiusstraat,11,A,,3846BK,Harderwijk,Harderwijk,Gelderland,VBO,5.644423,52.359623
Celsiusstraat,11,,,3846BK,Harderwijk,Harderwijk,Gelderland,VBO,5.645312,52.359389
Celsiusstraat,13,,,3846BK,Harderwijk,Harderwijk,Gelderland,VBO,5.645663,52.359610
Celsiusstraat,15,,,3846BK,Harderwijk,Harderwijk,Gelderland,VBO,5.645969,52.359797
Celsiusstraat,17,,,3846BK,Harderwijk,Harderwijk,Gelderland,VBO,5.646228,52.359803
Celsiusstraat,19,,,3846BK,Harderwijk,Harderwijk,Gelderland,VBO,5.646325,52.359862
Celsiusstraat,21,A,,3846BK,Harderwijk,Harderwijk,Gelderland,VBO,5.645918,52.360315
Celsiusstraat,21,,,3846BK,Harderwijk,Harderwijk,Gelderland,VBO,5.646287,52.360114
Celsiusstraat,23,,,3846BK,Harderwijk,Harderwijk,Gelderland,VBO,5.646550,52.359965
Celsiusstraat,25,,,3846BK,Harderwijk,Harderwijk,Gelderland,VBO,5.646600,52.360207
Celsiusstraat,27,A,,3846BK,Harderwijk,Harderwijk,Gelderland,VBO,5.646992,52.360482
Celsiusstraat,27,B,,3846BK,Harderwijk,Harderwijk,Gelderland,VBO,5.646896,52.360595
Celsiusstraat,27,C,,3846BK,Harderwijk,Harderwijk,Gelderland,VBO,5.646773,52.360670
Celsiusstraat,27,D,,3846BK,Harderwijk,Harderwijk,Gelderland,VBO,5.646645,52.360778
Celsiusstraat,27,E,,3846BK,Harderwijk,Harderwijk,Gelderland,VBO,5.646458,52.360732
Celsiusstraat,27,,,3846BK,Harderwijk,Harderwijk,Gelderland,VBO,5.646989,52.360371
Celsiusstraat,29,,,3846BK,Harderwijk,Harderwijk,Gelderland,VBO,5.647158,52.360431
Celsiusstraat,37,,,3846BK,Harderwijk,Harderwijk,Gelderland,VBO,5.647218,52.360649
Celsiusstraat,43,,,3846BK,Harderwijk,Harderwijk,Gelderland,VBO,5.647827,52.360970
Celsiusstraat,6,,,3846BL,Harderwijk,Harderwijk,Gelderland,VBO,5.646606,52.358935
Celsiusstraat,8,A,,3846BL,Harderwijk,Harderwijk,Gelderland,VBO,5.647114,52.359180
Celsiusstraat,8,,,3846BL,Harderwijk,Harderwijk,Gelderland,VBO,5.646872,52.359078
Celsiusstraat,12,,,3846BL,Harderwijk,Harderwijk,Gelderland,VBO,5.647301,52.359577
Celsiusstraat,14,,,3846BL,Harderwijk,Harderwijk,Gelderland,VBO,5.647696,52.359781
Celsiusstraat,20,,,3846BL,Harderwijk,Harderwijk,Gelderland,VBO,5.648438,52.360398
Fahrenheitstraat,7,,,3846BM,Harderwijk,Harderwijk,Gelderland,VBO,5.642920,52.360229
Fahrenheitstraat,9,,,3846BM,Harderwijk,Harderwijk,Gelderland,VBO,5.643041,52.360584
Fahrenheitstraat,11,,,3846BM,Harderwijk,Harderwijk,Gelderland,VBO,5.643331,52.360770
Fahrenheitstraat,13,,,3846BM,Harderwijk,Harderwijk,Gelderland,VBO,5.643717,52.360992
Fahrenheitstraat,15,,,3846BM,Harderwijk,Harderwijk,Gelderland,VBO,5.644655,52.361296
Fahrenheitstraat,21,,,3846BM,Harderwijk,Harderwijk,Gelderland,VBO,5.644978,52.361515
Fahrenheitstraat,23,,,3846BM,Harderwijk,Harderwijk,Gelderland,VBO,5.645215,52.361636
Fahrenheitstraat,25,,,3846BM,Harderwijk,Harderwijk,Gelderland,VBO,5.645451,52.361770
Fahrenheitstraat,27,,,3846BM,Harderwijk,Harderwijk,Gelderland,VBO,5.645804,52.361958
Fahrenheitstraat,29,,,3846BM,Harderwijk,Harderwijk,Gelderland,VBO,5.646084,52.362111
Fahrenheitstraat,2,,,3846BN,Harderwijk,Harderwijk,Gelderland,VBO,5.642884,52.359290
Fahrenheitstraat,4,,,3846BN,Harderwijk,Harderwijk,Gelderland,VBO,5.643158,52.359442
Fahrenheitstraat,6,,,3846BN,Harderwijk,Harderwijk,Gelderland,VBO,5.643219,52.359575
Fahrenheitstraat,10,,,3846BN,Harderwijk,Harderwijk,Gelderland,VBO,5.643273,52.359867
Fahrenheitstraat,12,,,3846BN,Harderwijk,Harderwijk,Gelderland,VBO,5.643429,52.359928
Fahrenheitstraat,18,,,3846BN,Harderwijk,Harderwijk,Gelderland,VBO,5.643910,52.360030
Fahrenheitstraat,22,,,3846BN,Harderwijk,Harderwijk,Gelderland,VBO,5.644325,52.360486
Fahrenheitstraat,30,,,3846BN,Harderwijk,Harderwijk,Gelderland,VBO,5.644941,52.360598
Fahrenheitstraat,36,A,,3846BN,Harderwijk,Harderwijk,Gelderland,VBO,5.645454,52.360855
Fahrenheitstraat,36,B,,3846BN,Harderwijk,Harderwijk,Gelderland,VBO,5.646126,52.360755
Fahrenheitstraat,36,D,,3846BN,Harderwijk,Harderwijk,Gelderland,VBO,5.645669,52.361121
Fahrenheitstraat,36,E,,3846BN,Harderwijk,Harderwijk,Gelderland,VBO,5.645513,52.361222
Fahrenheitstraat,36,,,3846BN,Harderwijk,Harderwijk,Gelderland,VBO,5.645269,52.360783
Fahrenheitstraat,38,,,3846BN,Harderwijk,Harderwijk,Gelderland,VBO,5.646170,52.361232
Fahrenheitstraat,40,A,,3846BN,Harderwijk,Harderwijk,Gelderland,VBO,5.646426,52.361300
Fahrenheitstraat,40,,,3846BN,Harderwijk,Harderwijk,Gelderland,VBO,5.646273,52.361286
Fahrenheitstraat,42,,,3846BN,Harderwijk,Harderwijk,Gelderland,VBO,5.646568,52.361744
Lorentzkade,1,,,3846BP,Harderwijk,Harderwijk,Gelderland,VBO,5.634816,52.361232
Lorentzkade,2,,,3846BP,Harderwijk,Harderwijk,Gelderland,VBO,5.636539,52.361673
Lorentzkade,3,,,3846BP,Harderwijk,Harderwijk,Gelderland,VBO,5.636881,52.361784
Lorentzkade,4,,,3846BP,Harderwijk,Harderwijk,Gelderland,VBO,5.637122,52.361815
Lorentzkade,6,,,3846BP,Harderwijk,Harderwijk,Gelderland,VBO,5.637377,52.361847
Pasteurdijk,8,,,3846BS,Harderwijk,Harderwijk,Gelderland,VBO,5.628870,52.362300
Pasteurdijk,10,,,3846BS,Harderwijk,Harderwijk,Gelderland,VBO,5.628946,52.362853
Pasteurdijk,12,,,3846BS,Harderwijk,Harderwijk,Gelderland,VBO,5.628890,52.363062
Pasteurdijk,14,,,3846BS,Harderwijk,Harderwijk,Gelderland,VBO,5.628965,52.363490
Pasteurdijk,16,,,3846BS,Harderwijk,Harderwijk,Gelderland,VBO,5.629268,52.364468
Snelliusstraat,1,,,3846BT,Harderwijk,Harderwijk,Gelderland,VBO,5.641351,52.359780
Snelliusstraat,2,A,,3846BT,Harderwijk,Harderwijk,Gelderland,VBO,5.641962,52.360061
Snelliusstraat,2,,,3846BT,Harderwijk,Harderwijk,Gelderland,VBO,5.642203,52.359926
Snelliusstraat,3,,,3846BT,Harderwijk,Harderwijk,Gelderland,VBO,5.640963,52.359987
Snelliusstraat,4,,,3846BT,Harderwijk,Harderwijk,Gelderland,VBO,5.641589,52.360648
Snelliusstraat,6,,,3846BT,Harderwijk,Harderwijk,Gelderland,VBO,5.641474,52.360731
Snelliusstraat,8,,,3846BT,Harderwijk,Harderwijk,Gelderland,VBO,5.640735,52.360677
Snelliusstraat,9,,,3846BT,Harderwijk,Harderwijk,Gelderland,VBO,5.639864,52.360488
Snelliusstraat,10,,,3846BT,Harderwijk,Harderwijk,Gelderland,VBO,5.641261,52.360824
Snelliusstraat,11,A,,3846BT,Harderwijk,Harderwijk,Gelderland,VBO,5.638982,52.361092
Snelliusstraat,11,B,,3846BT,Harderwijk,Harderwijk,Gelderland,VBO,5.638897,52.361149
Snelliusstraat,11,C,,3846BT,Harderwijk,Harderwijk,Gelderland,VBO,5.638796,52.361218
Snelliusstraat,11,,,3846BT,Harderwijk,Harderwijk,Gelderland,VBO,5.639843,52.360772
Snelliusstraat,12,,,3846BT,Harderwijk,Harderwijk,Gelderland,VBO,5.640681,52.361017
Snelliusstraat,14,A,,3846BT,Harderwijk,Harderwijk,Gelderland,VBO,5.640038,52.361163
Snelliusstraat,14,,,3846BT,Harderwijk,Harderwijk,Gelderland,VBO,5.640304,52.360969
Snelliusstraat,15,A,,3846BT,Harderwijk,Harderwijk,Gelderland,VBO,5.638145,52.361617
Snelliusstraat,15,,,3846BT,Harderwijk,Harderwijk,Gelderland,VBO,5.638398,52.361422
Snelliusstraat,16,,,3846BT,Harderwijk,Harderwijk,Gelderland,VBO,5.639524,52.361526
Snelliusstraat,17,,,3846BT,Harderwijk,Harderwijk,Gelderland,VBO,5.637784,52.361877
Snelliusstraat,18,,,3846BT,Harderwijk,Harderwijk,Gelderland,VBO,5.639153,52.361775
Snelliusstraat,20,,,3846BT,Harderwijk,Harderwijk,Gelderland,VBO,5.638499,52.362082
Kelvinstraat,2,,,3846BV,Harderwijk,Harderwijk,Gelderland,VBO,5.642897,52.361367
Kelvinstraat,4,,,3846BV,Harderwijk,Harderwijk,Gelderland,VBO,5.642617,52.361660
Kelvinstraat,5,,,3846BV,Harderwijk,Harderwijk,Gelderland,VBO,5.644158,52.361593
Kelvinstraat,11,A,,3846BV,Harderwijk,Harderwijk,Gelderland,VBO,5.642091,52.362588
Kelvinstraat,15,,,3846BV,Harderwijk,Harderwijk,Gelderland,VBO,5.641766,52.363118
Kelvinstraat,18,A,,3846BV,Harderwijk,Harderwijk,Gelderland,VBO,5.641411,52.362530
Kelvinstraat,18,B,,3846BV,Harderwijk,Harderwijk,Gelderland,VBO,5.641279,52.362620
Kelvinstraat,18,C,,3846BV,Harderwijk,Harderwijk,Gelderland,VBO,5.641171,52.362688
Kelvinstraat,20,,,3846BV,Harderwijk,Harderwijk,Gelderland,VBO,5.640979,52.362814
Marie Curiestraat,1,,,3846BW,Harderwijk,Harderwijk,Gelderland,VBO,5.629724,52.355739
Marie Curiestraat,2,A,,3846BW,Harderwijk,Harderwijk,Gelderland,VBO,5.629977,52.356042
Marie Curiestraat,2,B,,3846BW,Harderwijk,Harderwijk,Gelderland,VBO,5.630608,52.355769
Marie Curiestraat,2,,,3846BW,Harderwijk,Harderwijk,Gelderland,VBO,5.630000,52.356268
Marie Curiestraat,3,,,3846BW,Harderwijk,Harderwijk,Gelderland,VBO,5.629651,52.355786
Marie Curiestraat,4,,,3846BW,Harderwijk,Harderwijk,Gelderland,VBO,5.629850,52.356355
Marie Curiestraat,5,,,3846BW,Harderwijk,Harderwijk,Gelderland,VBO,5.629578,52.355834
Marie Curiestraat,6,,,3846BW,Harderwijk,Harderwijk,Gelderland,VBO,5.629434,52.356412
Marie Curiestraat,7,,,3846BW,Harderwijk,Harderwijk,Gelderland,VBO,5.629458,52.355923
Marie Curiestraat,8,,,3846BW,Harderwijk,Harderwijk,Gelderland,VBO,5.628979,52.356724
Marie Curiestraat,11,,,3846BW,Harderwijk,Harderwijk,Gelderland,VBO,5.629344,52.355981
Marie Curiestraat,12,,,3846BW,Harderwijk,Harderwijk,Gelderland,VBO,5.628847,52.356836
Marie Curiestraat,17,,,3846BW,Harderwijk,Harderwijk,Gelderland,VBO,5.629157,52.356101
Marie Curiestraat,19,,,3846BW,Harderwijk,Harderwijk,Gelderland,VBO,5.628690,52.356371
Marie Curiestraat,25,,,3846BW,Harderwijk,Harderwijk,Gelderland,VBO,5.628341,52.356637
Marie Curiestraat,30,,MS,3846BW,Harderwijk,Harderwijk,Gelderland,LIG,5.631864,52.362992
Marie Curiestraat,32,,MS,3846BW,Harderwijk,Harderwijk,Gelderland,LIG,5.631151,52.363445
Marie Curiestraat,35,,,3846BW,Harderwijk,Harderwijk,Gelderland,VBO,5.628144,52.356952
Marie Curiestraat,37,,,3846BW,Harderwijk,Harderwijk,Gelderland,VBO,5.628060,52.356903
Marie Curiestraat,39,,,3846BW,Harderwijk,Harderwijk,Gelderland,VBO,5.627975,52.356854
Marie Curiestraat,41,,,3846BW,Harderwijk,Harderwijk,Gelderland,VBO,5.627891,52.356804
Marie Curiestraat,43,,,3846BW,Harderwijk,Harderwijk,Gelderland,VBO,5.627795,52.356748
Marie Curiestraat,45,,,3846BW,Harderwijk,Harderwijk,Gelderland,VBO,5.627765,52.356638
Marie Curiestraat,47,,,3846BW,Harderwijk,Harderwijk,Gelderland,VBO,5.627663,52.356702
Marie Curiestraat,49,,,3846BW,Harderwijk,Harderwijk,Gelderland,VBO,5.627563,52.356767
Marie Curiestraat,51,,,3846BW,Harderwijk,Harderwijk,Gelderland,VBO,5.627670,52.356829
Marie Curiestraat,53,,,3846BW,Harderwijk,Harderwijk,Gelderland,VBO,5.627765,52.356885
Marie Curiestraat,55,,,3846BW,Harderwijk,Harderwijk,Gelderland,VBO,5.627850,52.356935
Marie Curiestraat,57,,,3846BW,Harderwijk,Harderwijk,Gelderland,VBO,5.627934,52.356984
Marie Curiestraat,59,,,3846BW,Harderwijk,Harderwijk,Gelderland,VBO,5.628018,52.357033
Marie Curiestraat,71,,,3846BW,Harderwijk,Harderwijk,Gelderland,VBO,5.628411,52.360721
Marie Curiestraat,79,,,3846BW,Harderwijk,Harderwijk,Gelderland,VBO,5.631193,52.362987
Marie Curiestraat,81,,,3846BW,Harderwijk,Harderwijk,Gelderland,VBO,5.630960,52.363130
Daltonstraat,13,,,3846BX,Harderwijk,Harderwijk,Gelderland,VBO,5.643790,52.363203
Daltonstraat,17,,,3846BX,Harderwijk,Harderwijk,Gelderland,VBO,5.642762,52.363933
Daltonstraat,18,,,3846BX,Harderwijk,Harderwijk,Gelderland,VBO,5.648321,52.361954
Daltonstraat,20,A,,3846BX,Harderwijk,Harderwijk,Gelderland,VBO,5.647381,52.362021
Daltonstraat,20,,,3846BX,Harderwijk,Harderwijk,Gelderland,VBO,5.647469,52.361971
Daltonstraat,21,,,3846BX,Harderwijk,Harderwijk,Gelderland,VBO,5.642049,52.364693
Daltonstraat,22,,,3846BX,Harderwijk,Harderwijk,Gelderland,VBO,5.647135,52.362123
Daltonstraat,23,,,3846BX,Harderwijk,Harderwijk,Gelderland,VBO,5.640703,52.364550
Daltonstraat,24,,,3846BX,Harderwijk,Harderwijk,Gelderland,VBO,5.646331,52.362685
Daltonstraat,26,,,3846BX,Harderwijk,Harderwijk,Gelderland,VBO,5.645620,52.363118
Daltonstraat,33,,,3846BX,Harderwijk,Harderwijk,Gelderland,VBO,5.634695,52.364171
Daltonstraat,37,,,3846BX,Harderwijk,Harderwijk,Gelderland,VBO,5.633205,52.364438
Daltonstraat,38,,,3846BX,Harderwijk,Harderwijk,Gelderland,VBO,5.643766,52.364367
Daltonstraat,39,,,3846BX,Harderwijk,Harderwijk,Gelderland,VBO,5.631664,52.365205
Daltonstraat,42,,,3846BX,Harderwijk,Harderwijk,Gelderland,VBO,5.642110,52.365440
Réaumurstraat,2,,,3846BZ,Harderwijk,Harderwijk,Gelderland,VBO,5.640266,52.361350
Réaumurstraat,3,A,,3846BZ,Harderwijk,Harderwijk,Gelderland,VBO,5.640106,52.361845
Réaumurstraat,3,,,3846BZ,Harderwijk,Harderwijk,Gelderland,VBO,5.639971,52.361760
Réaumurstraat,4,,,3846BZ,Harderwijk,Harderwijk,Gelderland,VBO,5.640678,52.361529
Réaumurstraat,5,,,3846BZ,Harderwijk,Harderwijk,Gelderland,VBO,5.640314,52.361988
Réaumurstraat,6,,,3846BZ,Harderwijk,Harderwijk,Gelderland,VBO,5.641038,52.361486
Réaumurstraat,7,,,3846BZ,Harderwijk,Harderwijk,Gelderland,VBO,5.640505,52.362105
Réaumurstraat,8,,,3846BZ,Harderwijk,Harderwijk,Gelderland,VBO,5.641032,52.361753
Réaumurstraat,9,,,3846BZ,Harderwijk,Harderwijk,Gelderland,VBO,5.640741,52.362239
Réaumurstraat,10,A,,3846BZ,Harderwijk,Harderwijk,Gelderland,VBO,5.641531,52.361734
Réaumurstraat,10,,,3846BZ,Harderwijk,Harderwijk,Gelderland,VBO,5.641253,52.361869
Réaumurstraat,11,,,3846BZ,Harderwijk,Harderwijk,Gelderland,VBO,5.640742,52.362410
Réaumurstraat,12,A,,3846BZ,Harderwijk,Harderwijk,Gelderland,VBO,5.641782,52.361994
Réaumurstraat,12,,,3846BZ,Harderwijk,Harderwijk,Gelderland,VBO,5.641621,52.362084
Réaumurstraat,13,A,,3846BZ,Harderwijk,Harderwijk,Gelderland,VBO,5.641083,52.362398
Réaumurstraat,13,B,,3846BZ,Harderwijk,Harderwijk,Gelderland,VBO,5.640710,52.362707
Réaumurstraat,13,,,3846BZ,Harderwijk,Harderwijk,Gelderland,VBO,5.640875,52.362558
Réaumurstraat,14,,,3846BZ,Harderwijk,Harderwijk,Gelderland,VBO,5.641842,52.362219
Réaumurstraat,15,,,3846BZ,Harderwijk,Harderwijk,Gelderland,VBO,5.641105,52.362537
Van Leeuwenhoekstraat,1,,,3846CA,Harderwijk,Harderwijk,Gelderland,VBO,5.650881,52.361833
Van Leeuwenhoekstraat,9,,,3846CA,Harderwijk,Harderwijk,Gelderland,VBO,5.649847,52.362471
Van Leeuwenhoekstraat,15,,,3846CA,Harderwijk,Harderwijk,Gelderland,VBO,5.649208,52.362846
Van Leeuwenhoekstraat,17,,,3846CA,Harderwijk,Harderwijk,Gelderland,VBO,5.649078,52.362967
Van Leeuwenhoekstraat,19,A,,3846CA,Harderwijk,Harderwijk,Gelderland,VBO,5.648995,52.363020
Van Leeuwenhoekstraat,19,B,,3846CA,Harderwijk,Harderwijk,Gelderland,VBO,5.649041,52.363054
Van Leeuwenhoekstraat,19,C,,3846CA,Harderwijk,Harderwijk,Gelderland,VBO,5.648838,52.363118
Van Leeuwenhoekstraat,19,D,,3846CA,Harderwijk,Harderwijk,Gelderland,VBO,5.648847,52.363050
Van Leeuwenhoekstraat,19,,,3846CA,Harderwijk,Harderwijk,Gelderland,VBO,5.648921,52.363132
Van Leeuwenhoekstraat,21,,,3846CA,Harderwijk,Harderwijk,Gelderland,VBO,5.648104,52.363369
Van Leeuwenhoekstraat,23,,,3846CA,Harderwijk,Harderwijk,Gelderland,VBO,5.648047,52.363420
Van Leeuwenhoekstraat,27,,,3846CA,Harderwijk,Harderwijk,Gelderland,VBO,5.646819,52.364232
Van Leeuwenhoekstraat,33,,,3846CA,Harderwijk,Harderwijk,Gelderland,VBO,5.643766,52.364367
Van Leeuwenhoekstraat,2,,,3846CB,Harderwijk,Harderwijk,Gelderland,VBO,5.651513,52.362299
Van Leeuwenhoekstraat,8,,,3846CB,Harderwijk,Harderwijk,Gelderland,VBO,5.650522,52.362755
Van Leeuwenhoekstraat,12,,1,3846CB,Harderwijk,Harderwijk,Gelderland,VBO,5.650034,52.363005
Van Leeuwenhoekstraat,12,,2,3846CB,Harderwijk,Harderwijk,Gelderland,VBO,5.650326,52.363213
Van Leeuwenhoekstraat,12,,3,3846CB,Harderwijk,Harderwijk,Gelderland,VBO,5.650417,52.363254
Van Leeuwenhoekstraat,12,,4,3846CB,Harderwijk,Harderwijk,Gelderland,VBO,5.650537,52.363323
Van Leeuwenhoekstraat,14,,1,3846CB,Harderwijk,Harderwijk,Gelderland,VBO,5.649904,52.363078
Van Leeuwenhoekstraat,14,,2,3846CB,Harderwijk,Harderwijk,Gelderland,VBO,5.649783,52.363159
Van Leeuwenhoekstraat,16,,,3846CB,Harderwijk,Harderwijk,Gelderland,VBO,5.649629,52.363242
Van Leeuwenhoekstraat,20,,1,3846CB,Harderwijk,Harderwijk,Gelderland,VBO,5.648799,52.363730
Van Leeuwenhoekstraat,20,,,3846CB,Harderwijk,Harderwijk,Gelderland,VBO,5.648689,52.363925
Van Leeuwenhoekstraat,22,,,3846CB,Harderwijk,Harderwijk,Gelderland,VBO,5.648267,52.364537
Van Leeuwenhoekstraat,24,,,3846CB,Harderwijk,Harderwijk,Gelderland,VBO,5.647815,52.364828
Van Leeuwenhoekstraat,26,,,3846CB,Harderwijk,Harderwijk,Gelderland,VBO,5.646887,52.365046
Van Leeuwenhoekstraat,28,,,3846CB,Harderwijk,Harderwijk,Gelderland,VBO,5.646434,52.365342
Van Leeuwenhoekstraat,30,,,3846CB,Harderwijk,Harderwijk,Gelderland,VBO,5.645901,52.365652
Van Leeuwenhoekstraat,32,,,3846CB,Harderwijk,Harderwijk,Gelderland,VBO,5.645774,52.365731
Van Leeuwenhoekstraat,34,,,3846CB,Harderwijk,Harderwijk,Gelderland,VBO,5.645538,52.365867
Van Leeuwenhoekstraat,36,,,3846CB,Harderwijk,Harderwijk,Gelderland,VBO,5.645447,52.365919
Fahrenheitstraat,35,,,3846CC,Harderwijk,Harderwijk,Gelderland,VBO,5.647393,52.362910
Fahrenheitstraat,37,,,3846CC,Harderwijk,Harderwijk,Gelderland,VBO,5.647482,52.362961
Fahrenheitstraat,43,,1,3846CC,Harderwijk,Harderwijk,Gelderland,VBO,5.648956,52.363825
Fahrenheitstraat,43,,2,3846CC,Harderwijk,Harderwijk,Gelderland,VBO,5.649121,52.363963
Fahrenheitstraat,45,,1,3846CC,Harderwijk,Harderwijk,Gelderland,VBO,5.649315,52.364056
Fahrenheitstraat,45,,2,3846CC,Harderwijk,Harderwijk,Gelderland,VBO,5.649418,52.364100
Fahrenheitstraat,47,,,3846CC,Harderwijk,Harderwijk,Gelderland,VBO,5.648685,52.364858
Fahrenheitstraat,50,,,3846CD,Harderwijk,Harderwijk,Gelderland,VBO,5.647420,52.362305
Fahrenheitstraat,52,,,3846CD,Harderwijk,Harderwijk,Gelderland,VBO,5.647692,52.362414
Fahrenheitstraat,54,,,3846CD,Harderwijk,Harderwijk,Gelderland,VBO,5.648191,52.362397
Fahrenheitstraat,56,,,3846CD,Harderwijk,Harderwijk,Gelderland,VBO,5.647918,52.362558
Fahrenheitstraat,58,,,3846CD,Harderwijk,Harderwijk,Gelderland,VBO,5.648099,52.362723
Fahrenheitstraat,60,,,3846CD,Harderwijk,Harderwijk,Gelderland,VBO,5.648274,52.362591
Fahrenheitstraat,64,,,3846CD,Harderwijk,Harderwijk,Gelderland,VBO,5.648489,52.362953
Fahrenheitstraat,70,,,3846CD,Harderwijk,Harderwijk,Gelderland,VBO,5.648644,52.363049
Fahrenheitstraat,72,,,3846CD,Harderwijk,Harderwijk,Gelderland,VBO,5.648878,52.362895
Fahrenheitstraat,76,,,3846CD,Harderwijk,Harderwijk,Gelderland,VBO,5.649379,52.363429
Fahrenheitstraat,78,,,3846CD,Harderwijk,Harderwijk,Gelderland,VBO,5.649607,52.363551
Fahrenheitstraat,80,,,3846CD,Harderwijk,Harderwijk,Gelderland,VBO,5.650118,52.363648
Fahrenheitstraat,82,,,3846CD,Harderwijk,Harderwijk,Gelderland,VBO,5.650084,52.363900
Fahrenheitstraat,84,,,3846CD,Harderwijk,Harderwijk,Gelderland,VBO,5.650331,52.364000
Fahrenheitstraat,86,,,3846CD,Harderwijk,Harderwijk,Gelderland,VBO,5.650572,52.364109
Nobelstraat,3,,,3846CE,Harderwijk,Harderwijk,Gelderland,VBO,5.649673,52.361401
Nobelstraat,9,,,3846CE,Harderwijk,Harderwijk,Gelderland,VBO,5.650753,52.361652
Nobelstraat,21,,,3846CE,Harderwijk,Harderwijk,Gelderland,VBO,5.651911,52.362788
Nobelstraat,25,,,3846CE,Harderwijk,Harderwijk,Gelderland,VBO,5.651765,52.363003
Nobelstraat,29,,1,3846CE,Harderwijk,Harderwijk,Gelderland,VBO,5.651853,52.363348
Nobelstraat,29,,2,3846CE,Harderwijk,Harderwijk,Gelderland,VBO,5.651743,52.363284
Nobelstraat,29,,3,3846CE,Harderwijk,Harderwijk,Gelderland,VBO,5.651632,52.363220
Nobelstraat,29,,4,3846CE,Harderwijk,Harderwijk,Gelderland,VBO,5.651453,52.363044
Nobelstraat,29,,5,3846CE,Harderwijk,Harderwijk,Gelderland,VBO,5.651269,52.363070
Nobelstraat,29,,6,3846CE,Harderwijk,Harderwijk,Gelderland,VBO,5.651159,52.363138
Nobelstraat,29,,7,3846CE,Harderwijk,Harderwijk,Gelderland,VBO,5.651044,52.363206
Nobelstraat,29,,8,3846CE,Harderwijk,Harderwijk,Gelderland,VBO,5.650950,52.363280
Nobelstraat,29,,,3846CE,Harderwijk,Harderwijk,Gelderland,VBO,5.651964,52.363495
Nobelstraat,31,,1,3846CE,Harderwijk,Harderwijk,Gelderland,VBO,5.651326,52.363822
Nobelstraat,31,,2,3846CE,Harderwijk,Harderwijk,Gelderland,VBO,5.651220,52.363755
Nobelstraat,31,,3,3846CE,Harderwijk,Harderwijk,Gelderland,VBO,5.651099,52.363688
Nobelstraat,31,,4,3846CE,Harderwijk,Harderwijk,Gelderland,VBO,5.650989,52.363621
Nobelstraat,31,,5,3846CE,Harderwijk,Harderwijk,Gelderland,VBO,5.650873,52.363553
Nobelstraat,31,,6,3846CE,Harderwijk,Harderwijk,Gelderland,VBO,5.650762,52.363483
Nobelstraat,31,,7,3846CE,Harderwijk,Harderwijk,Gelderland,VBO,5.650636,52.363413
Nobelstraat,31,,,3846CE,Harderwijk,Harderwijk,Gelderland,VBO,5.651412,52.363945
Nobelstraat,33,,1,3846CE,Harderwijk,Harderwijk,Gelderland,VBO,5.651227,52.363922
Nobelstraat,33,,10,3846CE,Harderwijk,Harderwijk,Gelderland,VBO,5.650713,52.363619
Nobelstraat,33,,11,3846CE,Harderwijk,Harderwijk,Gelderland,VBO,5.650655,52.363585
Nobelstraat,33,,12,3846CE,Harderwijk,Harderwijk,Gelderland,VBO,5.650598,52.363552
Nobelstraat,33,,13,3846CE,Harderwijk,Harderwijk,Gelderland,VBO,5.650541,52.363518
Nobelstraat,33,,14,3846CE,Harderwijk,Harderwijk,Gelderland,VBO,5.650484,52.363484
Nobelstraat,33,,2,3846CE,Harderwijk,Harderwijk,Gelderland,VBO,5.651170,52.363888
Nobelstraat,33,,3,3846CE,Harderwijk,Harderwijk,Gelderland,VBO,5.651113,52.363854
Nobelstraat,33,,4,3846CE,Harderwijk,Harderwijk,Gelderland,VBO,5.651056,52.363821
Nobelstraat,33,,5,3846CE,Harderwijk,Harderwijk,Gelderland,VBO,5.650999,52.363787
Nobelstraat,33,,6,3846CE,Harderwijk,Harderwijk,Gelderland,VBO,5.650941,52.363753
Nobelstraat,33,,7,3846CE,Harderwijk,Harderwijk,Gelderland,VBO,5.650884,52.363720
Nobelstraat,33,,8,3846CE,Harderwijk,Harderwijk,Gelderland,VBO,5.650827,52.363686
Nobelstraat,33,,9,3846CE,Harderwijk,Harderwijk,Gelderland,VBO,5.650770,52.363653
Nobelstraat,35,,,3846CE,Harderwijk,Harderwijk,Gelderland,VBO,5.650875,52.364220
Nobelstraat,37,,,3846CE,Harderwijk,Harderwijk,Gelderland,VBO,5.649405,52.365196
Nobelstraat,39,,,3846CE,Harderwijk,Harderwijk,Gelderland,VBO,5.648986,52.364935
Nobelstraat,43,,,3846CE,Harderwijk,Harderwijk,Gelderland,VBO,5.647313,52.366132
Nobelstraat,2,,,3846CG,Harderwijk,Harderwijk,Gelderland,VBO,5.650117,52.360373
Nobelstraat,4,,,3846CG,Harderwijk,Harderwijk,Gelderland,VBO,5.650743,52.361094
Nobelstraat,6,,,3846CG,Harderwijk,Harderwijk,Gelderland,VBO,5.651615,52.361179
Nobelstraat,8,,,3846CG,Harderwijk,Harderwijk,Gelderland,VBO,5.651924,52.361786
Nobelstraat,10,A,,3846CG,Harderwijk,Harderwijk,Gelderland,VBO,5.652457,52.361859
Nobelstraat,10,,,3846CG,Harderwijk,Harderwijk,Gelderland,VBO,5.652351,52.361804
Nobelstraat,12,,,3846CG,Harderwijk,Harderwijk,Gelderland,VBO,5.652616,52.361950
Nobelstraat,14,,,3846CG,Harderwijk,Harderwijk,Gelderland,VBO,5.652922,52.362378
Nobelstraat,16,,,3846CG,Harderwijk,Harderwijk,Gelderland,VBO,5.652711,52.363336
Nobelstraat,18,,,3846CG,Harderwijk,Harderwijk,Gelderland,VBO,5.652672,52.363713
Nobelstraat,20,,,3846CG,Harderwijk,Harderwijk,Gelderland,VBO,5.652303,52.364147
Nobelstraat,22,A,,3846CG,Harderwijk,Harderwijk,Gelderland,VBO,5.651940,52.364342
Nobelstraat,22,B,,3846CG,Harderwijk,Harderwijk,Gelderland,VBO,5.652169,52.364286
Nobelstraat,22,C,,3846CG,Harderwijk,Harderwijk,Gelderland,VBO,5.652296,52.364395
Nobelstraat,22,D,,3846CG,Harderwijk,Harderwijk,Gelderland,VBO,5.652125,52.364477
Nobelstraat,24,,,3846CG,Harderwijk,Harderwijk,Gelderland,VBO,5.651477,52.364557
Nobelstraat,26,,,3846CG,Harderwijk,Harderwijk,Gelderland,VBO,5.650841,52.364981
Nobelstraat,28,A,,3846CG,Harderwijk,Harderwijk,Gelderland,VBO,5.650623,52.365406
Nobelstraat,28,B,,3846CG,Harderwijk,Harderwijk,Gelderland,VBO,5.650985,52.365393
Nobelstraat,28,,,3846CG,Harderwijk,Harderwijk,Gelderland,VBO,5.650733,52.365232
Nobelstraat,30,,,3846CG,Harderwijk,Harderwijk,Gelderland,VBO,5.649802,52.365689
Nobelstraat,32,,,3846CG,Harderwijk,Harderwijk,Gelderland,VBO,5.649298,52.366016
Nobelstraat,34,,,3846CG,Harderwijk,Harderwijk,Gelderland,VBO,5.648221,52.366607
Nobelstraat,36,,,3846CG,Harderwijk,Harderwijk,Gelderland,VBO,5.647201,52.366684
Nobelstraat,38,,,3846CG,Harderwijk,Harderwijk,Gelderland,VBO,5.646455,52.366695
Nobelstraat,40,A,,3846CG,Harderwijk,Harderwijk,Gelderland,VBO,5.645907,52.366749
Nobelstraat,40,B,,3846CG,Harderwijk,Harderwijk,Gelderland,VBO,5.645906,52.366824
Nobelstraat,40,,,3846CG,Harderwijk,Harderwijk,Gelderland,VBO,5.645908,52.366665
Nobelstraat,42,,,3846CG,Harderwijk,Harderwijk,Gelderland,VBO,5.645007,52.366440
Nobelstraat,44,A,,3846CG,Harderwijk,Harderwijk,Gelderland,VBO,5.643911,52.365915
Nobelstraat,44,B,,3846CG,Harderwijk,Harderwijk,Gelderland,VBO,5.643902,52.366530
Nobelstraat,44,C,,3846CG,Harderwijk,Harderwijk,Gelderland,VBO,5.643746,52.366439
Nobelstraat,44,D,,3846CG,Harderwijk,Harderwijk,Gelderland,VBO,5.643594,52.366328
Nobelstraat,44,E,,3846CG,Harderwijk,Harderwijk,Gelderland,VBO,5.643283,52.366237
Nobelstraat,44,,,3846CG,Harderwijk,Harderwijk,Gelderland,VBO,5.644348,52.366149
Nobelstraat,46,,,3846CG,Harderwijk,Harderwijk,Gelderland,VBO,5.643586,52.365577
Nobelstraat,48,,,3846CG,Harderwijk,Harderwijk,Gelderland,VBO,5.642953,52.365052
Zeppelinstraat,39,,,3846CL,Harderwijk,Harderwijk,Gelderland,VBO,5.660006,52.362607
Keplerstraat,21,,,3846CN,Harderwijk,Harderwijk,Gelderland,VBO,5.658720,52.360672
Archimedesstraat,9,,,3846CT,Harderwijk,Harderwijk,Gelderland,VBO,5.652677,52.358932
Robbenzand,4,,,3846JA,Harderwijk,Harderwijk,Gelderland,VBO,5.621971,52.356201
Robbenzand,6,,,3846JA,Harderwijk,Harderwijk,Gelderland,VBO,5.621960,52.356145
Robbenzand,8,,,3846JA,Harderwijk,Harderwijk,Gelderland,VBO,5.621960,52.356052
Robbenzand,10,,,3846JA,Harderwijk,Harderwijk,Gelderland,VBO,5.621943,52.356003
Robbenzand,12,,,3846JA,Harderwijk,Harderwijk,Gelderland,VBO,5.621931,52.355954
Robbenzand,14,,,3846JA,Harderwijk,Harderwijk,Gelderland,VBO,5.621913,52.355907
Robbenzand,16,,,3846JA,Harderwijk,Harderwijk,Gelderland,VBO,5.621839,52.355803
Robbenzand,18,,,3846JA,Harderwijk,Harderwijk,Gelderland,VBO,5.621779,52.355762
Robbenzand,20,,,3846JA,Harderwijk,Harderwijk,Gelderland,VBO,5.621594,52.355728
Robbenzand,22,,,3846JA,Harderwijk,Harderwijk,Gelderland,VBO,5.621498,52.355718
Robbenzand,24,,,3846JA,Harderwijk,Harderwijk,Gelderland,VBO,5.621410,52.355707
Robbenzand,26,,,3846JA,Harderwijk,Harderwijk,Gelderland,VBO,5.621315,52.355693
Robbenzand,28,,,3846JA,Harderwijk,Harderwijk,Gelderland,VBO,5.621227,52.355681
Robbenzand,30,,,3846JA,Harderwijk,Harderwijk,Gelderland,VBO,5.621140,52.355674
Robbenzand,32,,,3846JA,Harderwijk,Harderwijk,Gelderland,VBO,5.620892,52.355645
Robbenzand,34,,,3846JA,Harderwijk,Harderwijk,Gelderland,VBO,5.620768,52.355724
Robbenzand,36,,,3846JA,Harderwijk,Harderwijk,Gelderland,VBO,5.620722,52.355771
Robbenzand,38,,,3846JA,Harderwijk,Harderwijk,Gelderland,VBO,5.620680,52.355814
Robbenzand,40,,,3846JA,Harderwijk,Harderwijk,Gelderland,VBO,5.620628,52.355865
Robbenzand,42,,,3846JB,Harderwijk,Harderwijk,Gelderland,VBO,5.620199,52.356163
Robbenzand,44,,,3846JB,Harderwijk,Harderwijk,Gelderland,VBO,5.620135,52.356200
Robbenzand,46,,,3846JB,Harderwijk,Harderwijk,Gelderland,VBO,5.620065,52.356235
Robbenzand,48,,,3846JB,Harderwijk,Harderwijk,Gelderland,VBO,5.620002,52.356263
Robbenzand,50,,,3846JB,Harderwijk,Harderwijk,Gelderland,VBO,5.619934,52.356300
Robbenzand,51,,,3846JB,Harderwijk,Harderwijk,Gelderland,VBO,5.619310,52.356522
Robbenzand,52,,,3846JB,Harderwijk,Harderwijk,Gelderland,VBO,5.619733,52.356441
Robbenzand,53,,,3846JB,Harderwijk,Harderwijk,Gelderland,VBO,5.619373,52.356540
Robbenzand,54,,,3846JB,Harderwijk,Harderwijk,Gelderland,VBO,5.619974,52.356530
Robbenzand,55,,,3846JB,Harderwijk,Harderwijk,Gelderland,VBO,5.619355,52.356559
Robbenzand,56,,,3846JB,Harderwijk,Harderwijk,Gelderland,VBO,5.620087,52.356573
Robbenzand,57,,,3846JB,Harderwijk,Harderwijk,Gelderland,VBO,5.619290,52.356541
Robbenzand,58,,,3846JB,Harderwijk,Harderwijk,Gelderland,VBO,5.620249,52.356636
Robbenzand,59,,,3846JB,Harderwijk,Harderwijk,Gelderland,VBO,5.619482,52.356573
Robbenzand,60,,,3846JB,Harderwijk,Harderwijk,Gelderland,VBO,5.620317,52.356661
Robbenzand,61,,,3846JB,Harderwijk,Harderwijk,Gelderland,VBO,5.619306,52.356600
Robbenzand,62,,,3846JB,Harderwijk,Harderwijk,Gelderland,VBO,5.620379,52.356684
Robbenzand,63,,,3846JB,Harderwijk,Harderwijk,Gelderland,VBO,5.619235,52.356593
Robbenzand,64,,,3846JB,Harderwijk,Harderwijk,Gelderland,VBO,5.620453,52.356708
Robbenzand,65,,,3846JB,Harderwijk,Harderwijk,Gelderland,VBO,5.619442,52.356595
Robbenzand,66,,,3846JB,Harderwijk,Harderwijk,Gelderland,VBO,5.620583,52.356749
Robbenzand,67,,,3846JB,Harderwijk,Harderwijk,Gelderland,VBO,5.619273,52.356628
Robbenzand,68,,,3846JB,Harderwijk,Harderwijk,Gelderland,VBO,5.620659,52.356769
Robbenzand,69,,,3846JB,Harderwijk,Harderwijk,Gelderland,VBO,5.619400,52.356646
Robbenzand,70,,,3846JB,Harderwijk,Harderwijk,Gelderland,VBO,5.620728,52.356792
Robbenzand,71,,,3846JB,Harderwijk,Harderwijk,Gelderland,VBO,5.619338,52.356661
Robbenzand,72,,,3846JB,Harderwijk,Harderwijk,Gelderland,VBO,5.620801,52.356814
Robbenzand,74,,,3846JB,Harderwijk,Harderwijk,Gelderland,VBO,5.620871,52.356834
Robbenzand,76,,,3846JB,Harderwijk,Harderwijk,Gelderland,VBO,5.621011,52.356875
Robbenzand,78,,,3846JB,Harderwijk,Harderwijk,Gelderland,VBO,5.621084,52.356894
Robbenzand,80,,,3846JB,Harderwijk,Harderwijk,Gelderland,VBO,5.621154,52.356915
Robbenzand,82,,,3846JB,Harderwijk,Harderwijk,Gelderland,VBO,5.621240,52.356932
Robbenzand,106,,,3846JB,Harderwijk,Harderwijk,Gelderland,VBO,5.622017,52.356518
Burgzand,1,,,3846JC,Harderwijk,Harderwijk,Gelderland,VBO,5.621947,52.356350
Burgzand,2,,,3846JC,Harderwijk,Harderwijk,Gelderland,VBO,5.621762,52.356487
Burgzand,3,,,3846JC,Harderwijk,Harderwijk,Gelderland,VBO,5.621696,52.356338
Burgzand,4,,,3846JC,Harderwijk,Harderwijk,Gelderland,VBO,5.621675,52.356478
Burgzand,5,,,3846JC,Harderwijk,Harderwijk,Gelderland,VBO,5.621549,52.356309
Burgzand,6,,,3846JC,Harderwijk,Harderwijk,Gelderland,VBO,5.621549,52.356429
Burgzand,7,,,3846JC,Harderwijk,Harderwijk,Gelderland,VBO,5.621332,52.356259
Burgzand,8,,,3846JC,Harderwijk,Harderwijk,Gelderland,VBO,5.621468,52.356414
Burgzand,9,,,3846JC,Harderwijk,Harderwijk,Gelderland,VBO,5.621258,52.356237
Burgzand,10,,,3846JC,Harderwijk,Harderwijk,Gelderland,VBO,5.621390,52.356402
Burgzand,11,,,3846JC,Harderwijk,Harderwijk,Gelderland,VBO,5.621183,52.356212
Burgzand,12,,,3846JC,Harderwijk,Harderwijk,Gelderland,VBO,5.621320,52.356382
Burgzand,13,,,3846JC,Harderwijk,Harderwijk,Gelderland,VBO,5.621111,52.356193
Burgzand,14,,,3846JC,Harderwijk,Harderwijk,Gelderland,VBO,5.621243,52.356367
Burgzand,15,,,3846JC,Harderwijk,Harderwijk,Gelderland,VBO,5.621035,52.356171
Burgzand,16,,,3846JC,Harderwijk,Harderwijk,Gelderland,VBO,5.621166,52.356351
Burgzand,17,,,3846JC,Harderwijk,Harderwijk,Gelderland,VBO,5.620875,52.356111
Burgzand,18,,,3846JC,Harderwijk,Harderwijk,Gelderland,VBO,5.621017,52.356346
Burgzand,19,,,3846JC,Harderwijk,Harderwijk,Gelderland,VBO,5.620794,52.356084
Burgzand,20,,,3846JC,Harderwijk,Harderwijk,Gelderland,VBO,5.620930,52.356323
Burgzand,21,,,3846JC,Harderwijk,Harderwijk,Gelderland,VBO,5.620566,52.356016
Burgzand,22,,,3846JC,Harderwijk,Harderwijk,Gelderland,VBO,5.620827,52.356258
Burgzand,24,,,3846JC,Harderwijk,Harderwijk,Gelderland,VBO,5.620758,52.356238
Burgzand,26,,,3846JC,Harderwijk,Harderwijk,Gelderland,VBO,5.620686,52.356215
Burgzand,28,,,3846JC,Harderwijk,Harderwijk,Gelderland,VBO,5.620614,52.356193
Burgzand,30,,,3846JC,Harderwijk,Harderwijk,Gelderland,VBO,5.620417,52.356111
Waterstadboulevard,72,,,3846JN,Harderwijk,Harderwijk,Gelderland,VBO,5.622778,52.356059
Waterstadboulevard,74,,,3846JN,Harderwijk,Harderwijk,Gelderland,VBO,5.622776,52.356109
Waterstadboulevard,76,,,3846JN,Harderwijk,Harderwijk,Gelderland,VBO,5.622773,52.356157
Waterstadboulevard,78,,,3846JN,Harderwijk,Harderwijk,Gelderland,VBO,5.622771,52.356206
Waterstadboulevard,80,,,3846JN,Harderwijk,Harderwijk,Gelderland,VBO,5.622768,52.356254
Waterstadboulevard,82,,,3846JN,Harderwijk,Harderwijk,Gelderland,VBO,5.622766,52.356303
Waterstadboulevard,84,,,3846JN,Harderwijk,Harderwijk,Gelderland,VBO,5.622764,52.356351
Waterstadboulevard,86,,,3846JN,Harderwijk,Harderwijk,Gelderland,VBO,5.622761,52.356400
Waterstadboulevard,88,,,3846JN,Harderwijk,Harderwijk,Gelderland,VBO,5.622759,52.356448
Waterstadboulevard,90,,,3846JN,Harderwijk,Harderwijk,Gelderland,VBO,5.622756,52.356497
Waterstadboulevard,92,,,3846JN,Harderwijk,Harderwijk,Gelderland,VBO,5.622755,52.356546
Waterstadboulevard,94,,,3846JN,Harderwijk,Harderwijk,Gelderland,VBO,5.622725,52.356614
Zuiderhoofd,2,,,3846JP,Harderwijk,Harderwijk,Gelderland,VBO,5.623428,52.356654
Zuiderhoofd,4,,,3846JP,Harderwijk,Harderwijk,Gelderland,VBO,5.623413,52.356585
Zuiderhoofd,6,,,3846JP,Harderwijk,Harderwijk,Gelderland,VBO,5.623415,52.356536
Zuiderhoofd,8,,,3846JP,Harderwijk,Harderwijk,Gelderland,VBO,5.623418,52.356487
Zuiderhoofd,10,,,3846JP,Harderwijk,Harderwijk,Gelderland,VBO,5.623420,52.356439
Zuiderhoofd,12,,,3846JP,Harderwijk,Harderwijk,Gelderland,VBO,5.623423,52.356390
Zuiderhoofd,14,,,3846JP,Harderwijk,Harderwijk,Gelderland,VBO,5.623425,52.356342
Zuiderhoofd,16,,,3846JP,Harderwijk,Harderwijk,Gelderland,VBO,5.623427,52.356293
Zuiderhoofd,18,,,3846JP,Harderwijk,Harderwijk,Gelderland,VBO,5.623430,52.356244
Zuiderhoofd,20,,,3846JP,Harderwijk,Harderwijk,Gelderland,VBO,5.623432,52.356196
Zuiderhoofd,22,,,3846JP,Harderwijk,Harderwijk,Gelderland,VBO,5.623435,52.356147
Zuiderhoofd,24,,,3846JP,Harderwijk,Harderwijk,Gelderland,VBO,5.623437,52.356098
Visserijstraat,2,,,3846JR,Harderwijk,Harderwijk,Gelderland,VBO,5.622951,52.356626
Visserijstraat,4,,,3846JR,Harderwijk,Harderwijk,Gelderland,VBO,5.623032,52.356630
Visserijstraat,6,,,3846JR,Harderwijk,Harderwijk,Gelderland,VBO,5.623111,52.356633
Visserijstraat,8,,,3846JR,Harderwijk,Harderwijk,Gelderland,VBO,5.623192,52.356637
