openbareruimtenaam,huisnummer,huisletter,huisnummertoevoeging,postcode,woonplaatsnaam,gemeentenaam,provincienaam,typeadresseerbaarobject,longitude,latitude
Handelsweg,1,,,3899AA,Zeewolde,Zeewolde,Flevoland,VBO,5.509411,52.358277
Handelsweg,5,,,3899AA,Zeewolde,Zeewolde,Flevoland,VBO,5.510497,52.358213
Handelsweg,31,,,3899AA,Zeewolde,Zeewolde,Flevoland,VBO,5.510652,52.356164
Handelsweg,26,,,3899AB,Zeewolde,Zeewolde,Flevoland,VBO,5.512387,52.357124
Nijverheidsweg,25,,,3899AD,Zeewolde,Zeewolde,Flevoland,VBO,5.504181,52.356800
Nijverheidsweg,27,,,3899AD,Zeewolde,Zeewolde,Flevoland,VBO,5.503491,52.356869
Nijverheidsweg,47,,,3899AE,Zeewolde,Zeewolde,Flevoland,VBO,5.502702,52.357569
Nijverheidsweg,49,,,3899AE,Zeewolde,Zeewolde,Flevoland,VBO,5.502437,52.357970
Nijverheidsweg,51,,,3899AE,Zeewolde,Zeewolde,Flevoland,VBO,5.501499,52.358447
Nijverheidsweg,26,,,3899AH,Zeewolde,Zeewolde,Flevoland,VBO,5.505004,52.357419
Nijverheidsweg,30,,,3899AJ,Zeewolde,Zeewolde,Flevoland,VBO,5.504302,52.358031
Nijverheidsweg,40,,,3899AJ,Zeewolde,Zeewolde,Flevoland,VBO,5.502587,52.358515
Nijverheidsweg,54,,,3899AJ,Zeewolde,Zeewolde,Flevoland,VBO,5.502366,52.359012
Productieweg,1,,,3899AK,Zeewolde,Zeewolde,Flevoland,VBO,5.511551,52.361844
Productieweg,8,,,3899AK,Zeewolde,Zeewolde,Flevoland,VBO,5.511890,52.362832
Productieweg,12,,,3899AK,Zeewolde,Zeewolde,Flevoland,VBO,5.513182,52.363353
Productieweg,33,,,3899AK,Zeewolde,Zeewolde,Flevoland,VBO,5.513150,52.364824
Ambachtsweg,27,,1,3899AM,Zeewolde,Zeewolde,Flevoland,VBO,5.501489,52.355939
Ambachtsweg,27,,10,3899AM,Zeewolde,Zeewolde,Flevoland,VBO,5.501177,52.355761
Ambachtsweg,27,,11,3899AM,Zeewolde,Zeewolde,Flevoland,VBO,5.501143,52.355740
Ambachtsweg,27,,12,3899AM,Zeewolde,Zeewolde,Flevoland,VBO,5.501110,52.355719
Ambachtsweg,27,,13,3899AM,Zeewolde,Zeewolde,Flevoland,VBO,5.501077,52.355698
Ambachtsweg,27,,14,3899AM,Zeewolde,Zeewolde,Flevoland,VBO,5.501044,52.355678
Ambachtsweg,27,,15,3899AM,Zeewolde,Zeewolde,Flevoland,VBO,5.501011,52.355657
Ambachtsweg,27,,16,3899AM,Zeewolde,Zeewolde,Flevoland,VBO,5.500978,52.355636
Ambachtsweg,27,,17,3899AM,Zeewolde,Zeewolde,Flevoland,VBO,5.500944,52.355615
Ambachtsweg,27,,18,3899AM,Zeewolde,Zeewolde,Flevoland,VBO,5.500911,52.355595
Ambachtsweg,27,,19,3899AM,Zeewolde,Zeewolde,Flevoland,VBO,5.500878,52.355574
Ambachtsweg,27,,2,3899AM,Zeewolde,Zeewolde,Flevoland,VBO,5.501442,52.355926
Ambachtsweg,27,,20,3899AM,Zeewolde,Zeewolde,Flevoland,VBO,5.500845,52.355553
Ambachtsweg,27,,21,3899AM,Zeewolde,Zeewolde,Flevoland,VBO,5.500812,52.355532
Ambachtsweg,27,,22,3899AM,Zeewolde,Zeewolde,Flevoland,VBO,5.500778,52.355512
Ambachtsweg,27,,23,3899AM,Zeewolde,Zeewolde,Flevoland,VBO,5.500745,52.355491
Ambachtsweg,27,,24,3899AM,Zeewolde,Zeewolde,Flevoland,VBO,5.500712,52.355470
Ambachtsweg,27,,25,3899AM,Zeewolde,Zeewolde,Flevoland,VBO,5.500679,52.355449
Ambachtsweg,27,,26,3899AM,Zeewolde,Zeewolde,Flevoland,VBO,5.500585,52.355506
Ambachtsweg,27,,27,3899AM,Zeewolde,Zeewolde,Flevoland,VBO,5.500618,52.355527
Ambachtsweg,27,,28,3899AM,Zeewolde,Zeewolde,Flevoland,VBO,5.500651,52.355548
Ambachtsweg,27,,29,3899AM,Zeewolde,Zeewolde,Flevoland,VBO,5.500684,52.355568
Ambachtsweg,27,,3,3899AM,Zeewolde,Zeewolde,Flevoland,VBO,5.501409,52.355906
Ambachtsweg,27,,30,3899AM,Zeewolde,Zeewolde,Flevoland,VBO,5.500717,52.355589
Ambachtsweg,27,,31,3899AM,Zeewolde,Zeewolde,Flevoland,VBO,5.500750,52.355610
Ambachtsweg,27,,32,3899AM,Zeewolde,Zeewolde,Flevoland,VBO,5.500784,52.355630
Ambachtsweg,27,,33,3899AM,Zeewolde,Zeewolde,Flevoland,VBO,5.500817,52.355651
Ambachtsweg,27,,34,3899AM,Zeewolde,Zeewolde,Flevoland,VBO,5.500850,52.355672
Ambachtsweg,27,,35,3899AM,Zeewolde,Zeewolde,Flevoland,VBO,5.500883,52.355693
Ambachtsweg,27,,36,3899AM,Zeewolde,Zeewolde,Flevoland,VBO,5.500916,52.355713
Ambachtsweg,27,,37,3899AM,Zeewolde,Zeewolde,Flevoland,VBO,5.500950,52.355734
Ambachtsweg,27,,38,3899AM,Zeewolde,Zeewolde,Flevoland,VBO,5.500983,52.355755
Ambachtsweg,27,,39,3899AM,Zeewolde,Zeewolde,Flevoland,VBO,5.501016,52.355776
Ambachtsweg,27,,4,3899AM,Zeewolde,Zeewolde,Flevoland,VBO,5.501376,52.355885
Ambachtsweg,27,,40,3899AM,Zeewolde,Zeewolde,Flevoland,VBO,5.501049,52.355796
Ambachtsweg,27,,41,3899AM,Zeewolde,Zeewolde,Flevoland,VBO,5.501082,52.355817
Ambachtsweg,27,,42,3899AM,Zeewolde,Zeewolde,Flevoland,VBO,5.501115,52.355838
Ambachtsweg,27,,43,3899AM,Zeewolde,Zeewolde,Flevoland,VBO,5.501149,52.355859
Ambachtsweg,27,,44,3899AM,Zeewolde,Zeewolde,Flevoland,VBO,5.501182,52.355879
Ambachtsweg,27,,45,3899AM,Zeewolde,Zeewolde,Flevoland,VBO,5.501215,52.355900
Ambachtsweg,27,,46,3899AM,Zeewolde,Zeewolde,Flevoland,VBO,5.501248,52.355921
Ambachtsweg,27,,47,3899AM,Zeewolde,Zeewolde,Flevoland,VBO,5.501281,52.355942
Ambachtsweg,27,,48,3899AM,Zeewolde,Zeewolde,Flevoland,VBO,5.501315,52.355962
Ambachtsweg,27,,49,3899AM,Zeewolde,Zeewolde,Flevoland,VBO,5.501348,52.355983
Ambachtsweg,27,,5,3899AM,Zeewolde,Zeewolde,Flevoland,VBO,5.501343,52.355864
Ambachtsweg,27,,50,3899AM,Zeewolde,Zeewolde,Flevoland,VBO,5.501381,52.356004
Ambachtsweg,27,,6,3899AM,Zeewolde,Zeewolde,Flevoland,VBO,5.501309,52.355843
Ambachtsweg,27,,7,3899AM,Zeewolde,Zeewolde,Flevoland,VBO,5.501276,52.355823
Ambachtsweg,27,,8,3899AM,Zeewolde,Zeewolde,Flevoland,VBO,5.501243,52.355802
Ambachtsweg,27,,9,3899AM,Zeewolde,Zeewolde,Flevoland,VBO,5.501210,52.355781
Ambachtsweg,31,,,3899AM,Zeewolde,Zeewolde,Flevoland,VBO,5.500882,52.356143
Ambachtsweg,37,,,3899AM,Zeewolde,Zeewolde,Flevoland,VBO,5.500244,52.356595
Werktuigweg,8,,,3899AN,Zeewolde,Zeewolde,Flevoland,VBO,5.516150,52.366127
Werktuigweg,10,,,3899AN,Zeewolde,Zeewolde,Flevoland,VBO,5.516338,52.366248
Werktuigweg,12,,,3899AN,Zeewolde,Zeewolde,Flevoland,VBO,5.516472,52.366356
Werktuigweg,13,,,3899AN,Zeewolde,Zeewolde,Flevoland,VBO,5.514025,52.365310
Werktuigweg,14,,,3899AN,Zeewolde,Zeewolde,Flevoland,VBO,5.516708,52.366501
Werktuigweg,16,,,3899AN,Zeewolde,Zeewolde,Flevoland,VBO,5.517274,52.365667
Werktuigweg,18,,,3899AN,Zeewolde,Zeewolde,Flevoland,VBO,5.517595,52.365871
Werktuigweg,20,,,3899AN,Zeewolde,Zeewolde,Flevoland,VBO,5.516976,52.365226
Werktuigweg,37,,,3899AN,Zeewolde,Zeewolde,Flevoland,VBO,5.515506,52.364418
Ambachtsweg,26,,,3899AP,Zeewolde,Zeewolde,Flevoland,VBO,5.503016,52.355960
Ambachtsweg,34,,,3899AR,Zeewolde,Zeewolde,Flevoland,VBO,5.501837,52.356420
Ambachtsweg,36,,,3899AR,Zeewolde,Zeewolde,Flevoland,VBO,5.501299,52.356617
Industrieweg,9,,,3899AT,Zeewolde,Zeewolde,Flevoland,VBO,5.505763,52.355612
Industrieweg,11,,,3899AT,Zeewolde,Zeewolde,Flevoland,VBO,5.506629,52.356342
Industrieweg,41,,,3899AT,Zeewolde,Zeewolde,Flevoland,VBO,5.506598,52.358666
Industrieweg,49,,,3899AT,Zeewolde,Zeewolde,Flevoland,VBO,5.505492,52.358605
Industrieweg,55,,,3899AT,Zeewolde,Zeewolde,Flevoland,VBO,5.504130,52.359793
Fabricageweg,1,,,3899AV,Zeewolde,Zeewolde,Flevoland,VBO,5.515930,52.362302
Fabricageweg,16,,,3899AV,Zeewolde,Zeewolde,Flevoland,VBO,5.518259,52.360643
Fabricageweg,18,,,3899AV,Zeewolde,Zeewolde,Flevoland,VBO,5.520153,52.361396
Fabricageweg,20,,,3899AV,Zeewolde,Zeewolde,Flevoland,VBO,5.519641,52.362434
Fabricageweg,28,,,3899AV,Zeewolde,Zeewolde,Flevoland,VBO,5.520268,52.363669
Industrieweg,14,,,3899AW,Zeewolde,Zeewolde,Flevoland,VBO,5.507021,52.354420
Industrieweg,16,,,3899AW,Zeewolde,Zeewolde,Flevoland,VBO,5.507243,52.354595
Industrieweg,18,,,3899AW,Zeewolde,Zeewolde,Flevoland,VBO,5.507522,52.354747
Industrieweg,48,,,3899AW,Zeewolde,Zeewolde,Flevoland,VBO,5.507329,52.359484
Industrieweg,62,,,3899AW,Zeewolde,Zeewolde,Flevoland,VBO,5.505805,52.360456
Industrieweg,64,,,3899AW,Zeewolde,Zeewolde,Flevoland,VBO,5.504911,52.360825
Edisonweg,2,,,3899AZ,Zeewolde,Zeewolde,Flevoland,VBO,5.508596,52.355564
Edisonweg,6,,,3899AZ,Zeewolde,Zeewolde,Flevoland,VBO,5.509569,52.355338
Edisonweg,16,,,3899AZ,Zeewolde,Zeewolde,Flevoland,VBO,5.509886,52.354880
Edisonweg,20,,,3899AZ,Zeewolde,Zeewolde,Flevoland,VBO,5.509135,52.354314
Edisonweg,24,,,3899AZ,Zeewolde,Zeewolde,Flevoland,VBO,5.507563,52.353606
Edisonweg,27,,,3899AZ,Zeewolde,Zeewolde,Flevoland,VBO,5.506401,52.352519
Edisonweg,30,,,3899AZ,Zeewolde,Zeewolde,Flevoland,VBO,5.507136,52.353265
Edisonweg,35,,,3899AZ,Zeewolde,Zeewolde,Flevoland,VBO,5.505140,52.353312
Edisonweg,36,,,3899AZ,Zeewolde,Zeewolde,Flevoland,VBO,5.506302,52.354029
Landbouwweg,27,A,,3899BB,Zeewolde,Zeewolde,Flevoland,VBO,5.496576,52.353088
Landbouwweg,27,,,3899BB,Zeewolde,Zeewolde,Flevoland,VBO,5.496405,52.352529
Landbouwweg,31,,,3899BB,Zeewolde,Zeewolde,Flevoland,VBO,5.495863,52.353024
Landbouwweg,33,,,3899BB,Zeewolde,Zeewolde,Flevoland,VBO,5.495600,52.353285
Landbouwweg,37,,,3899BB,Zeewolde,Zeewolde,Flevoland,VBO,5.495087,52.353501
Landbouwweg,39,,,3899BB,Zeewolde,Zeewolde,Flevoland,VBO,5.494543,52.353430
Landbouwweg,41,,,3899BB,Zeewolde,Zeewolde,Flevoland,VBO,5.494559,52.353771
Landbouwweg,45,,,3899BB,Zeewolde,Zeewolde,Flevoland,VBO,5.494016,52.353951
Landbouwweg,47,,,3899BB,Zeewolde,Zeewolde,Flevoland,VBO,5.493684,52.354397
Landbouwweg,49,,,3899BB,Zeewolde,Zeewolde,Flevoland,VBO,5.493930,52.354537
Landbouwweg,51,,,3899BB,Zeewolde,Zeewolde,Flevoland,VBO,5.494048,52.354801
Landbouwweg,53,,,3899BC,Zeewolde,Zeewolde,Flevoland,VBO,5.494473,52.354859
Landbouwweg,55,,,3899BC,Zeewolde,Zeewolde,Flevoland,VBO,5.494899,52.355011
Landbouwweg,61,,,3899BC,Zeewolde,Zeewolde,Flevoland,VBO,5.495840,52.355630
Landbouwweg,65,,,3899BC,Zeewolde,Zeewolde,Flevoland,VBO,5.496503,52.356313
Landbouwweg,67,,,3899BC,Zeewolde,Zeewolde,Flevoland,VBO,5.497060,52.356267
Landbouwweg,69,,,3899BC,Zeewolde,Zeewolde,Flevoland,VBO,5.497148,52.356321
Landbouwweg,71,,,3899BC,Zeewolde,Zeewolde,Flevoland,VBO,5.497266,52.356510
Landbouwweg,73,,,3899BC,Zeewolde,Zeewolde,Flevoland,VBO,5.497795,52.356788
Landbouwweg,75,A,,3899BC,Zeewolde,Zeewolde,Flevoland,VBO,5.498380,52.356928
Landbouwweg,75,,,3899BC,Zeewolde,Zeewolde,Flevoland,VBO,5.498089,52.356887
Landbouwweg,79,,,3899BD,Zeewolde,Zeewolde,Flevoland,VBO,5.498677,52.357093
Landbouwweg,83,,,3899BD,Zeewolde,Zeewolde,Flevoland,VBO,5.499044,52.357236
Landbouwweg,87,,,3899BD,Zeewolde,Zeewolde,Flevoland,VBO,5.499265,52.357461
Landbouwweg,89,A,,3899BD,Zeewolde,Zeewolde,Flevoland,VBO,5.499727,52.357278
Landbouwweg,91,,,3899BD,Zeewolde,Zeewolde,Flevoland,VBO,5.499837,52.357442
Landbouwweg,93,,,3899BD,Zeewolde,Zeewolde,Flevoland,VBO,5.499867,52.357640
Landbouwweg,95,,,3899BD,Zeewolde,Zeewolde,Flevoland,VBO,5.500132,52.357756
Landbouwweg,99,,,3899BD,Zeewolde,Zeewolde,Flevoland,VBO,5.500617,52.357873
Landbouwweg,103,,,3899BD,Zeewolde,Zeewolde,Flevoland,VBO,5.500911,52.358007
Landbouwweg,18,,,3899BE,Zeewolde,Zeewolde,Flevoland,VBO,5.498255,52.352878
Landbouwweg,22,,,3899BE,Zeewolde,Zeewolde,Flevoland,VBO,5.497992,52.353301
Landbouwweg,24,,,3899BE,Zeewolde,Zeewolde,Flevoland,VBO,5.497225,52.353359
Landbouwweg,26,,,3899BE,Zeewolde,Zeewolde,Flevoland,VBO,5.497806,52.353715
Landbouwweg,28,,,3899BG,Zeewolde,Zeewolde,Flevoland,VBO,5.497010,52.353787
Landbouwweg,30,,,3899BG,Zeewolde,Zeewolde,Flevoland,VBO,5.496675,52.353606
Landbouwweg,32,,,3899BG,Zeewolde,Zeewolde,Flevoland,VBO,5.496115,52.353815
Landbouwweg,36,,,3899BG,Zeewolde,Zeewolde,Flevoland,VBO,5.495835,52.354155
Landbouwweg,42,,,3899BG,Zeewolde,Zeewolde,Flevoland,VBO,5.495206,52.354427
Landbouwweg,46,,,3899BG,Zeewolde,Zeewolde,Flevoland,VBO,5.496014,52.354740
Landbouwweg,48,,,3899BG,Zeewolde,Zeewolde,Flevoland,VBO,5.496808,52.355380
Landbouwweg,84,,,3899BG,Zeewolde,Zeewolde,Flevoland,VBO,5.500702,52.356983
Landbouwweg,90,,,3899BG,Zeewolde,Zeewolde,Flevoland,VBO,5.500791,52.357315
Landbouwweg,92,,,3899BG,Zeewolde,Zeewolde,Flevoland,VBO,5.501143,52.357252
Landbouwweg,98,,,3899BG,Zeewolde,Zeewolde,Flevoland,VBO,5.501731,52.357440
Landbouwweg,100,,,3899BG,Zeewolde,Zeewolde,Flevoland,VBO,5.502212,52.357524
Oogstweg,15,,,3899BJ,Zeewolde,Zeewolde,Flevoland,VBO,5.499314,52.353731
Oogstweg,17,,,3899BJ,Zeewolde,Zeewolde,Flevoland,VBO,5.498977,52.353866
Oogstweg,19,,,3899BJ,Zeewolde,Zeewolde,Flevoland,VBO,5.498311,52.353733
Oogstweg,23,,,3899BJ,Zeewolde,Zeewolde,Flevoland,VBO,5.498333,52.354442
Oogstweg,25,,,3899BJ,Zeewolde,Zeewolde,Flevoland,VBO,5.498257,52.354435
Oogstweg,27,,,3899BJ,Zeewolde,Zeewolde,Flevoland,VBO,5.497658,52.354478
Oogstweg,29,,1,3899BJ,Zeewolde,Zeewolde,Flevoland,VBO,5.498018,52.354930
Oogstweg,29,,10,3899BJ,Zeewolde,Zeewolde,Flevoland,VBO,5.497728,52.354761
Oogstweg,29,,11,3899BJ,Zeewolde,Zeewolde,Flevoland,VBO,5.497709,52.354737
Oogstweg,29,,12,3899BJ,Zeewolde,Zeewolde,Flevoland,VBO,5.497672,52.354721
Oogstweg,29,,13,3899BJ,Zeewolde,Zeewolde,Flevoland,VBO,5.497638,52.354700
Oogstweg,29,,14,3899BJ,Zeewolde,Zeewolde,Flevoland,VBO,5.497610,52.354680
Oogstweg,29,,15,3899BJ,Zeewolde,Zeewolde,Flevoland,VBO,5.497585,52.354656
Oogstweg,29,,16,3899BJ,Zeewolde,Zeewolde,Flevoland,VBO,5.497548,52.354646
Oogstweg,29,,17,3899BJ,Zeewolde,Zeewolde,Flevoland,VBO,5.497520,52.354620
Oogstweg,29,,18,3899BJ,Zeewolde,Zeewolde,Flevoland,VBO,5.497486,52.354603
Oogstweg,29,,19,3899BJ,Zeewolde,Zeewolde,Flevoland,VBO,5.497454,52.354585
Oogstweg,29,,2,3899BJ,Zeewolde,Zeewolde,Flevoland,VBO,5.497980,52.354913
Oogstweg,29,,20,3899BJ,Zeewolde,Zeewolde,Flevoland,VBO,5.497428,52.354564
Oogstweg,29,,21,3899BJ,Zeewolde,Zeewolde,Flevoland,VBO,5.497393,52.354532
Oogstweg,29,,22,3899BJ,Zeewolde,Zeewolde,Flevoland,VBO,5.497367,52.354527
Oogstweg,29,,23,3899BJ,Zeewolde,Zeewolde,Flevoland,VBO,5.497320,52.354497
Oogstweg,29,,24,3899BJ,Zeewolde,Zeewolde,Flevoland,VBO,5.497309,52.354487
Oogstweg,29,,25,3899BJ,Zeewolde,Zeewolde,Flevoland,VBO,5.497275,52.354468
Oogstweg,29,,26,3899BJ,Zeewolde,Zeewolde,Flevoland,VBO,5.497243,52.354448
Oogstweg,29,,27,3899BJ,Zeewolde,Zeewolde,Flevoland,VBO,5.497220,52.354430
Oogstweg,29,,28,3899BJ,Zeewolde,Zeewolde,Flevoland,VBO,5.497182,52.354412
Oogstweg,29,,29,3899BJ,Zeewolde,Zeewolde,Flevoland,VBO,5.497129,52.354371
Oogstweg,29,,3,3899BJ,Zeewolde,Zeewolde,Flevoland,VBO,5.497955,52.354891
Oogstweg,29,,30,3899BJ,Zeewolde,Zeewolde,Flevoland,VBO,5.497041,52.354371
Oogstweg,29,,31,3899BJ,Zeewolde,Zeewolde,Flevoland,VBO,5.497012,52.354389
Oogstweg,29,,32,3899BJ,Zeewolde,Zeewolde,Flevoland,VBO,5.496968,52.354407
Oogstweg,29,,33,3899BJ,Zeewolde,Zeewolde,Flevoland,VBO,5.496938,52.354425
Oogstweg,29,,34,3899BJ,Zeewolde,Zeewolde,Flevoland,VBO,5.496909,52.354443
Oogstweg,29,,35,3899BJ,Zeewolde,Zeewolde,Flevoland,VBO,5.496880,52.354461
Oogstweg,29,,36,3899BJ,Zeewolde,Zeewolde,Flevoland,VBO,5.496850,52.354479
Oogstweg,29,,37,3899BJ,Zeewolde,Zeewolde,Flevoland,VBO,5.496836,52.354551
Oogstweg,29,,38,3899BJ,Zeewolde,Zeewolde,Flevoland,VBO,5.496904,52.354578
Oogstweg,29,,39,3899BJ,Zeewolde,Zeewolde,Flevoland,VBO,5.496924,52.354587
Oogstweg,29,,4,3899BJ,Zeewolde,Zeewolde,Flevoland,VBO,5.497921,52.354869
Oogstweg,29,,40,3899BJ,Zeewolde,Zeewolde,Flevoland,VBO,5.496953,52.354605
Oogstweg,29,,41,3899BJ,Zeewolde,Zeewolde,Flevoland,VBO,5.496983,52.354623
Oogstweg,29,,42,3899BJ,Zeewolde,Zeewolde,Flevoland,VBO,5.497025,52.354654
Oogstweg,29,,43,3899BJ,Zeewolde,Zeewolde,Flevoland,VBO,5.497062,52.354673
Oogstweg,29,,44,3899BJ,Zeewolde,Zeewolde,Flevoland,VBO,5.497093,52.354691
Oogstweg,29,,45,3899BJ,Zeewolde,Zeewolde,Flevoland,VBO,5.497100,52.354703
Oogstweg,29,,46,3899BJ,Zeewolde,Zeewolde,Flevoland,VBO,5.497150,52.354733
Oogstweg,29,,47,3899BJ,Zeewolde,Zeewolde,Flevoland,VBO,5.497178,52.354754
Oogstweg,29,,48,3899BJ,Zeewolde,Zeewolde,Flevoland,VBO,5.497210,52.354774
Oogstweg,29,,49,3899BJ,Zeewolde,Zeewolde,Flevoland,VBO,5.497233,52.354775
Oogstweg,29,,5,3899BJ,Zeewolde,Zeewolde,Flevoland,VBO,5.497895,52.354853
Oogstweg,29,,50,3899BJ,Zeewolde,Zeewolde,Flevoland,VBO,5.497268,52.354811
Oogstweg,29,,51,3899BJ,Zeewolde,Zeewolde,Flevoland,VBO,5.497304,52.354827
Oogstweg,29,,52,3899BJ,Zeewolde,Zeewolde,Flevoland,VBO,5.497321,52.354838
Oogstweg,29,,53,3899BJ,Zeewolde,Zeewolde,Flevoland,VBO,5.497350,52.354856
Oogstweg,29,,54,3899BJ,Zeewolde,Zeewolde,Flevoland,VBO,5.497395,52.354885
Oogstweg,29,,55,3899BJ,Zeewolde,Zeewolde,Flevoland,VBO,5.497430,52.354904
Oogstweg,29,,56,3899BJ,Zeewolde,Zeewolde,Flevoland,VBO,5.497458,52.354923
Oogstweg,29,,57,3899BJ,Zeewolde,Zeewolde,Flevoland,VBO,5.497491,52.354944
Oogstweg,29,,58,3899BJ,Zeewolde,Zeewolde,Flevoland,VBO,5.497519,52.354961
Oogstweg,29,,59,3899BJ,Zeewolde,Zeewolde,Flevoland,VBO,5.497541,52.354973
Oogstweg,29,,6,3899BJ,Zeewolde,Zeewolde,Flevoland,VBO,5.497862,52.354831
Oogstweg,29,,60,3899BJ,Zeewolde,Zeewolde,Flevoland,VBO,5.497584,52.355000
Oogstweg,29,,61,3899BJ,Zeewolde,Zeewolde,Flevoland,VBO,5.497625,52.355017
Oogstweg,29,,62,3899BJ,Zeewolde,Zeewolde,Flevoland,VBO,5.497643,52.355040
Oogstweg,29,,63,3899BJ,Zeewolde,Zeewolde,Flevoland,VBO,5.497679,52.355055
Oogstweg,29,,64,3899BJ,Zeewolde,Zeewolde,Flevoland,VBO,5.497710,52.355077
Oogstweg,29,,65,3899BJ,Zeewolde,Zeewolde,Flevoland,VBO,5.497740,52.355096
Oogstweg,29,,66,3899BJ,Zeewolde,Zeewolde,Flevoland,VBO,5.497844,52.354997
Oogstweg,29,,67,3899BJ,Zeewolde,Zeewolde,Flevoland,VBO,5.497806,52.354963
Oogstweg,29,,68,3899BJ,Zeewolde,Zeewolde,Flevoland,VBO,5.497782,52.354959
Oogstweg,29,,69,3899BJ,Zeewolde,Zeewolde,Flevoland,VBO,5.497753,52.354937
Oogstweg,29,,7,3899BJ,Zeewolde,Zeewolde,Flevoland,VBO,5.497829,52.354816
Oogstweg,29,,70,3899BJ,Zeewolde,Zeewolde,Flevoland,VBO,5.497703,52.354910
Oogstweg,29,,71,3899BJ,Zeewolde,Zeewolde,Flevoland,VBO,5.497696,52.354893
Oogstweg,29,,72,3899BJ,Zeewolde,Zeewolde,Flevoland,VBO,5.497660,52.354879
Oogstweg,29,,73,3899BJ,Zeewolde,Zeewolde,Flevoland,VBO,5.497627,52.354860
Oogstweg,29,,74,3899BJ,Zeewolde,Zeewolde,Flevoland,VBO,5.497585,52.354829
Oogstweg,29,,75,3899BJ,Zeewolde,Zeewolde,Flevoland,VBO,5.497566,52.354822
Oogstweg,29,,76,3899BJ,Zeewolde,Zeewolde,Flevoland,VBO,5.497530,52.354802
Oogstweg,29,,77,3899BJ,Zeewolde,Zeewolde,Flevoland,VBO,5.497508,52.354781
Oogstweg,29,,78,3899BJ,Zeewolde,Zeewolde,Flevoland,VBO,5.497472,52.354766
Oogstweg,29,,79,3899BJ,Zeewolde,Zeewolde,Flevoland,VBO,5.497442,52.354745
Oogstweg,29,,8,3899BJ,Zeewolde,Zeewolde,Flevoland,VBO,5.497804,52.354793
Oogstweg,29,,80,3899BJ,Zeewolde,Zeewolde,Flevoland,VBO,5.497412,52.354726
Oogstweg,29,,81,3899BJ,Zeewolde,Zeewolde,Flevoland,VBO,5.497386,52.354704
Oogstweg,29,,82,3899BJ,Zeewolde,Zeewolde,Flevoland,VBO,5.497357,52.354686
Oogstweg,29,,83,3899BJ,Zeewolde,Zeewolde,Flevoland,VBO,5.497322,52.354665
Oogstweg,29,,84,3899BJ,Zeewolde,Zeewolde,Flevoland,VBO,5.497276,52.354640
Oogstweg,29,,85,3899BJ,Zeewolde,Zeewolde,Flevoland,VBO,5.497259,52.354628
Oogstweg,29,,86,3899BJ,Zeewolde,Zeewolde,Flevoland,VBO,5.497218,52.354595
Oogstweg,29,,87,3899BJ,Zeewolde,Zeewolde,Flevoland,VBO,5.497199,52.354589
Oogstweg,29,,88,3899BJ,Zeewolde,Zeewolde,Flevoland,VBO,5.497169,52.354567
Oogstweg,29,,89,3899BJ,Zeewolde,Zeewolde,Flevoland,VBO,5.497138,52.354550
Oogstweg,29,,9,3899BJ,Zeewolde,Zeewolde,Flevoland,VBO,5.497774,52.354774
Oogstweg,29,,90,3899BJ,Zeewolde,Zeewolde,Flevoland,VBO,5.497105,52.354528
Oogstweg,29,,91,3899BJ,Zeewolde,Zeewolde,Flevoland,VBO,5.497075,52.354512
Oogstweg,31,,,3899BJ,Zeewolde,Zeewolde,Flevoland,VBO,5.497527,52.355107
Oogstweg,33,,,3899BJ,Zeewolde,Zeewolde,Flevoland,VBO,5.497116,52.354946
Oogstweg,2,,,3899BK,Zeewolde,Zeewolde,Flevoland,VBO,5.501487,52.353702
Oogstweg,14,,,3899BK,Zeewolde,Zeewolde,Flevoland,VBO,5.500313,52.354134
Oogstweg,16,,,3899BK,Zeewolde,Zeewolde,Flevoland,VBO,5.499876,52.354581
Oogstweg,20,,,3899BK,Zeewolde,Zeewolde,Flevoland,VBO,5.499317,52.354710
Oogstweg,22,,,3899BK,Zeewolde,Zeewolde,Flevoland,VBO,5.499068,52.354908
Oogstweg,24,,,3899BK,Zeewolde,Zeewolde,Flevoland,VBO,5.499068,52.355142
Oogstweg,28,,,3899BK,Zeewolde,Zeewolde,Flevoland,VBO,5.498276,52.355412
Oogstweg,30,,,3899BK,Zeewolde,Zeewolde,Flevoland,VBO,5.497910,52.355799
Akkerweg,3,,,3899BL,Zeewolde,Zeewolde,Flevoland,VBO,5.502744,52.354472
Nobelweg,1,,,3899BN,Zeewolde,Zeewolde,Flevoland,VBO,5.500625,52.350044
Nobelweg,6,,,3899BN,Zeewolde,Zeewolde,Flevoland,VBO,5.504019,52.350976
Nobelweg,14,A,,3899BN,Zeewolde,Zeewolde,Flevoland,VBO,5.500887,52.350961
Nobelweg,14,B,,3899BN,Zeewolde,Zeewolde,Flevoland,VBO,5.501033,52.350880
Nobelweg,14,C,,3899BN,Zeewolde,Zeewolde,Flevoland,VBO,5.500959,52.350921
Nobelweg,16,A,,3899BN,Zeewolde,Zeewolde,Flevoland,VBO,5.501069,52.350799
Nobelweg,16,B,,3899BN,Zeewolde,Zeewolde,Flevoland,VBO,5.501123,52.350833
Nobelweg,16,C,,3899BN,Zeewolde,Zeewolde,Flevoland,VBO,5.501170,52.350862
Nobelweg,16,D,,3899BN,Zeewolde,Zeewolde,Flevoland,VBO,5.501225,52.350893
Nobelweg,22,,,3899BN,Zeewolde,Zeewolde,Flevoland,VBO,5.500879,52.351258
Nobelweg,26,,,3899BN,Zeewolde,Zeewolde,Flevoland,VBO,5.500204,52.351645
Morseweg,1,,,3899BP,Zeewolde,Zeewolde,Flevoland,VBO,5.501968,52.352650
Morseweg,2,,,3899BP,Zeewolde,Zeewolde,Flevoland,VBO,5.501028,52.352156
Morseweg,5,,,3899BP,Zeewolde,Zeewolde,Flevoland,VBO,5.502320,52.352272
Morseweg,7,,,3899BP,Zeewolde,Zeewolde,Flevoland,VBO,5.502524,52.352289
Morseweg,8,,,3899BP,Zeewolde,Zeewolde,Flevoland,VBO,5.501599,52.351787
Morseweg,11,,,3899BP,Zeewolde,Zeewolde,Flevoland,VBO,5.502818,52.352074
Morseweg,12,,,3899BP,Zeewolde,Zeewolde,Flevoland,VBO,5.501980,52.351625
Marconiweg,1,,,3899BR,Zeewolde,Zeewolde,Flevoland,VBO,5.504727,52.352251
Marconiweg,2,,,3899BR,Zeewolde,Zeewolde,Flevoland,VBO,5.503877,52.352819
Marconiweg,4,,,3899BR,Zeewolde,Zeewolde,Flevoland,VBO,5.503509,52.352630
Marconiweg,5,,,3899BR,Zeewolde,Zeewolde,Flevoland,VBO,5.504271,52.351982
Marconiweg,6,,,3899BR,Zeewolde,Zeewolde,Flevoland,VBO,5.503670,52.352468
Marconiweg,8,,,3899BR,Zeewolde,Zeewolde,Flevoland,VBO,5.503406,52.352567
Marconiweg,9,,,3899BR,Zeewolde,Zeewolde,Flevoland,VBO,5.503683,52.351623
Marconiweg,10,,,3899BR,Zeewolde,Zeewolde,Flevoland,VBO,5.503147,52.352394
Marconiweg,12,,,3899BR,Zeewolde,Zeewolde,Flevoland,VBO,5.503054,52.352379
Marconiweg,13,A,,3899BR,Zeewolde,Zeewolde,Flevoland,VBO,5.503191,52.351293
Marconiweg,13,B,,3899BR,Zeewolde,Zeewolde,Flevoland,VBO,5.503239,52.351253
Marconiweg,15,,,3899BR,Zeewolde,Zeewolde,Flevoland,VBO,5.503036,52.351318
Marconiweg,17,,,3899BR,Zeewolde,Zeewolde,Flevoland,VBO,5.502639,52.351121
Marconiweg,20,A,,3899BR,Zeewolde,Zeewolde,Flevoland,VBO,5.501255,52.350947
Marconiweg,20,B,,3899BR,Zeewolde,Zeewolde,Flevoland,VBO,5.501298,52.350980
Marconiweg,20,C,,3899BR,Zeewolde,Zeewolde,Flevoland,VBO,5.501347,52.351012
Marconiweg,20,D,,3899BR,Zeewolde,Zeewolde,Flevoland,VBO,5.501403,52.351046
Marconiweg,20,E,,3899BR,Zeewolde,Zeewolde,Flevoland,VBO,5.501453,52.351076
Marconiweg,20,F,,3899BR,Zeewolde,Zeewolde,Flevoland,VBO,5.501561,52.351136
Marconiweg,20,G,,3899BR,Zeewolde,Zeewolde,Flevoland,VBO,5.501613,52.351177
Marconiweg,20,H,,3899BR,Zeewolde,Zeewolde,Flevoland,VBO,5.501511,52.351195
Marconiweg,21,A,,3899BR,Zeewolde,Zeewolde,Flevoland,VBO,5.502385,52.350939
Marconiweg,21,,,3899BR,Zeewolde,Zeewolde,Flevoland,VBO,5.502551,52.350870
Marconiweg,22,A,,3899BR,Zeewolde,Zeewolde,Flevoland,VBO,5.501007,52.351091
Marconiweg,22,B,,3899BR,Zeewolde,Zeewolde,Flevoland,VBO,5.501049,52.351126
Marconiweg,22,C,,3899BR,Zeewolde,Zeewolde,Flevoland,VBO,5.501101,52.351165
Marconiweg,22,D,,3899BR,Zeewolde,Zeewolde,Flevoland,VBO,5.501154,52.351194
Marconiweg,22,E,,3899BR,Zeewolde,Zeewolde,Flevoland,VBO,5.501201,52.351228
Marconiweg,22,F,,3899BR,Zeewolde,Zeewolde,Flevoland,VBO,5.501267,52.351280
Marconiweg,22,G,,3899BR,Zeewolde,Zeewolde,Flevoland,VBO,5.501387,52.351267
Marconiweg,22,H,,3899BR,Zeewolde,Zeewolde,Flevoland,VBO,5.501452,52.351229
Marconiweg,22,J,,3899BR,Zeewolde,Zeewolde,Flevoland,VBO,5.501012,52.350997
Marconiweg,23,,,3899BR,Zeewolde,Zeewolde,Flevoland,VBO,5.502419,52.350897
Marconiweg,25,,,3899BR,Zeewolde,Zeewolde,Flevoland,VBO,5.502095,52.350717
Marconiweg,31,,,3899BR,Zeewolde,Zeewolde,Flevoland,VBO,5.501889,52.350457
Spiekweg,15,,,3899XN,Zeewolde,Zeewolde,Flevoland,VBO,5.497093,52.351899
Spiekweg,17,,,3899XN,Zeewolde,Zeewolde,Flevoland,VBO,5.497147,52.351898
Spiekweg,25,,,3899XN,Zeewolde,Zeewolde,Flevoland,VBO,5.495977,52.352077
Baardmeesweg,2,A,,3899XS,Zeewolde,Zeewolde,Flevoland,VBO,5.537056,52.384256
Baardmeesweg,2,,,3899XS,Zeewolde,Zeewolde,Flevoland,VBO,5.537444,52.384040
Baardmeesweg,4,A,,3899XS,Zeewolde,Zeewolde,Flevoland,VBO,5.503244,52.361338
Baardmeesweg,4,B,,3899XS,Zeewolde,Zeewolde,Flevoland,VBO,5.503246,52.361241
Baardmeesweg,4,C,,3899XS,Zeewolde,Zeewolde,Flevoland,VBO,5.504676,52.362721
Baardmeesweg,4,,,3899XS,Zeewolde,Zeewolde,Flevoland,VBO,5.503395,52.361567
Baardmeesweg,8,,,3899XS,Zeewolde,Zeewolde,Flevoland,VBO,5.499810,52.359757
Baardmeesweg,12,A,,3899XS,Zeewolde,Zeewolde,Flevoland,VBO,5.499951,52.359227
Baardmeesweg,12,B,,3899XS,Zeewolde,Zeewolde,Flevoland,VBO,5.500319,52.359354
Baardmeesweg,12,C,,3899XS,Zeewolde,Zeewolde,Flevoland,VBO,5.500683,52.359487
Baardmeesweg,12,M,,3899XS,Zeewolde,Zeewolde,Flevoland,VBO,5.501840,52.360304
Baardmeesweg,12,,,3899XS,Zeewolde,Zeewolde,Flevoland,VBO,5.500425,52.359008
Baardmeesweg,16,,,3899XS,Zeewolde,Zeewolde,Flevoland,VBO,5.497571,52.358158
Baardmeesweg,20,,,3899XS,Zeewolde,Zeewolde,Flevoland,VBO,5.496655,52.358521
Baardmeesweg,24,,,3899XS,Zeewolde,Zeewolde,Flevoland,VBO,5.497004,52.357473
Baardmeesweg,30,,,3899XS,Zeewolde,Zeewolde,Flevoland,VBO,5.494631,52.356654
Baardmeesweg,34,A,,3899XS,Zeewolde,Zeewolde,Flevoland,VBO,5.493287,52.355794
Baardmeesweg,34,,,3899XS,Zeewolde,Zeewolde,Flevoland,VBO,5.493278,52.355402
Baardmeesweg,36,,,3899XS,Zeewolde,Zeewolde,Flevoland,VBO,5.492288,52.356491
Baardmeesweg,38,,,3899XS,Zeewolde,Zeewolde,Flevoland,VBO,5.492323,52.354980
Baardmeesweg,40,,,3899XS,Zeewolde,Zeewolde,Flevoland,VBO,5.492189,52.354926
Baardmeesweg,42,,,3899XS,Zeewolde,Zeewolde,Flevoland,VBO,5.491191,52.355855
Baardmeesweg,29,,,3899XT,Zeewolde,Zeewolde,Flevoland,VBO,5.506666,52.363235
Baardmeesweg,33,,,3899XT,Zeewolde,Zeewolde,Flevoland,VBO,5.506427,52.363082
Baardmeesweg,37,,,3899XT,Zeewolde,Zeewolde,Flevoland,VBO,5.506158,52.362941
Baardmeesweg,39,A,,3899XT,Zeewolde,Zeewolde,Flevoland,VBO,5.505767,52.362678
Baardmeesweg,39,B,,3899XT,Zeewolde,Zeewolde,Flevoland,VBO,5.506012,52.362412
Baardmeesweg,39,,,3899XT,Zeewolde,Zeewolde,Flevoland,VBO,5.506510,52.362639
Baardmeesweg,41,,,3899XT,Zeewolde,Zeewolde,Flevoland,VBO,5.505371,52.362293
Baardmeesweg,47,,,3899XT,Zeewolde,Zeewolde,Flevoland,VBO,5.505545,52.361734
Baardmeesweg,49,,,3899XT,Zeewolde,Zeewolde,Flevoland,VBO,5.504479,52.361748
Baardmeesweg,57,,,3899XT,Zeewolde,Zeewolde,Flevoland,VBO,5.503129,52.359544
Baardmeesweg,61,,,3899XT,Zeewolde,Zeewolde,Flevoland,VBO,5.493677,52.354148
