openbareruimtenaam,huisnummer,huisletter,huisnummertoevoeging,postcode,woonplaatsnaam,gemeentenaam,provincienaam,typeadresseerbaarobject,longitude,latitude
Rijksstraatweg,1,A,,3921AA,Elst Ut,Rhenen,Utrecht,VBO,5.489110,51.986374
Rijksstraatweg,3,,,3921AA,Elst Ut,Rhenen,Utrecht,VBO,5.489306,51.986357
Rijksstraatweg,5,,,3921AA,Elst Ut,Rhenen,Utrecht,VBO,5.489408,51.986351
Rijksstraatweg,7,,,3921AA,Elst Ut,Rhenen,Utrecht,VBO,5.489803,51.986296
Rijksstraatweg,9,,,3921AA,Elst Ut,Rhenen,Utrecht,VBO,5.489950,51.986180
Rijksstraatweg,11,,,3921AA,Elst Ut,Rhenen,Utrecht,VBO,5.490021,51.986161
Rijksstraatweg,13,,,3921AA,Elst Ut,Rhenen,Utrecht,VBO,5.490224,51.986198
Rijksstraatweg,15,,,3921AA,Elst Ut,Rhenen,Utrecht,VBO,5.490378,51.986033
Rijksstraatweg,17,A,,3921AA,Elst Ut,Rhenen,Utrecht,VBO,5.491150,51.986044
Rijksstraatweg,19,,,3921AA,Elst Ut,Rhenen,Utrecht,VBO,5.490899,51.985947
Rijksstraatweg,21,,,3921AA,Elst Ut,Rhenen,Utrecht,VBO,5.491362,51.985967
Rijksstraatweg,23,,,3921AA,Elst Ut,Rhenen,Utrecht,VBO,5.491522,51.985873
Rijksstraatweg,25,A,,3921AA,Elst Ut,Rhenen,Utrecht,VBO,5.491776,51.985817
Rijksstraatweg,25,,,3921AA,Elst Ut,Rhenen,Utrecht,VBO,5.491615,51.985859
Rijksstraatweg,27,A,,3921AA,Elst Ut,Rhenen,Utrecht,VBO,5.491941,51.985714
Rijksstraatweg,27,B,,3921AA,Elst Ut,Rhenen,Utrecht,VBO,5.492035,51.985692
Rijksstraatweg,27,,,3921AA,Elst Ut,Rhenen,Utrecht,VBO,5.491852,51.985781
Rijksstraatweg,29,A,,3921AA,Elst Ut,Rhenen,Utrecht,VBO,5.492255,51.985633
Rijksstraatweg,29,,,3921AA,Elst Ut,Rhenen,Utrecht,VBO,5.492156,51.985654
Rijksstraatweg,31,,,3921AA,Elst Ut,Rhenen,Utrecht,VBO,5.492521,51.985688
Rijksstraatweg,33,,,3921AA,Elst Ut,Rhenen,Utrecht,VBO,5.492589,51.985566
Rijksstraatweg,35,,,3921AA,Elst Ut,Rhenen,Utrecht,VBO,5.492848,51.985699
Rijksstraatweg,37,,,3921AA,Elst Ut,Rhenen,Utrecht,VBO,5.492903,51.985466
Rijksstraatweg,39,,,3921AA,Elst Ut,Rhenen,Utrecht,VBO,5.493111,51.985424
Rijksstraatweg,41,A,,3921AB,Elst Ut,Rhenen,Utrecht,VBO,5.493370,51.985396
Rijksstraatweg,41,B,,3921AB,Elst Ut,Rhenen,Utrecht,VBO,5.493526,51.985364
Rijksstraatweg,41,,,3921AB,Elst Ut,Rhenen,Utrecht,VBO,5.493296,51.985424
Rijksstraatweg,43,,,3921AB,Elst Ut,Rhenen,Utrecht,VBO,5.493671,51.985342
Rijksstraatweg,45,,,3921AB,Elst Ut,Rhenen,Utrecht,VBO,5.493772,51.985323
Rijksstraatweg,47,,,3921AB,Elst Ut,Rhenen,Utrecht,VBO,5.493947,51.985259
Rijksstraatweg,49,A,,3921AB,Elst Ut,Rhenen,Utrecht,VBO,5.494101,51.985174
Rijksstraatweg,49,,,3921AB,Elst Ut,Rhenen,Utrecht,VBO,5.494043,51.985194
Rijksstraatweg,53,A,,3921AB,Elst Ut,Rhenen,Utrecht,VBO,5.494310,51.985123
Rijksstraatweg,53,,,3921AB,Elst Ut,Rhenen,Utrecht,VBO,5.494234,51.985143
Rijksstraatweg,55,,,3921AB,Elst Ut,Rhenen,Utrecht,VBO,5.494375,51.985109
Rijksstraatweg,57,,,3921AB,Elst Ut,Rhenen,Utrecht,VBO,5.494454,51.985089
Rijksstraatweg,61,A,,3921AB,Elst Ut,Rhenen,Utrecht,VBO,5.494559,51.985055
Rijksstraatweg,61,B,,3921AB,Elst Ut,Rhenen,Utrecht,VBO,5.494653,51.985144
Rijksstraatweg,61,,,3921AB,Elst Ut,Rhenen,Utrecht,VBO,5.494677,51.985039
Rijksstraatweg,63,,,3921AB,Elst Ut,Rhenen,Utrecht,VBO,5.494894,51.984998
Rijksstraatweg,65,,,3921AB,Elst Ut,Rhenen,Utrecht,VBO,5.495116,51.984958
Rijksstraatweg,67,A,,3921AB,Elst Ut,Rhenen,Utrecht,VBO,5.495275,51.984910
Rijksstraatweg,67,,,3921AB,Elst Ut,Rhenen,Utrecht,VBO,5.495225,51.984925
Rijksstraatweg,69,,,3921AB,Elst Ut,Rhenen,Utrecht,VBO,5.495740,51.984802
Rijksstraatweg,71,,,3921AB,Elst Ut,Rhenen,Utrecht,VBO,5.495927,51.984761
Rijksstraatweg,73,,,3921AC,Elst Ut,Rhenen,Utrecht,VBO,5.496017,51.984722
Rijksstraatweg,75,,,3921AC,Elst Ut,Rhenen,Utrecht,VBO,5.496165,51.984693
Rijksstraatweg,77,A,,3921AC,Elst Ut,Rhenen,Utrecht,VBO,5.496340,51.984697
Rijksstraatweg,77,,,3921AC,Elst Ut,Rhenen,Utrecht,VBO,5.496324,51.984654
Rijksstraatweg,79,A,,3921AC,Elst Ut,Rhenen,Utrecht,VBO,5.496507,51.984634
Rijksstraatweg,79,,,3921AC,Elst Ut,Rhenen,Utrecht,VBO,5.496586,51.984628
Rijksstraatweg,81,,,3921AC,Elst Ut,Rhenen,Utrecht,VBO,5.496742,51.984571
Rijksstraatweg,83,A,,3921AC,Elst Ut,Rhenen,Utrecht,VBO,5.497191,51.984649
Rijksstraatweg,83,,,3921AC,Elst Ut,Rhenen,Utrecht,VBO,5.497020,51.984517
Rijksstraatweg,85,,,3921AC,Elst Ut,Rhenen,Utrecht,VBO,5.498106,51.984418
Rijksstraatweg,87,,,3921AC,Elst Ut,Rhenen,Utrecht,VBO,5.498345,51.984390
Rijksstraatweg,89,,,3921AC,Elst Ut,Rhenen,Utrecht,VBO,5.498615,51.984312
Rijksstraatweg,93,,,3921AC,Elst Ut,Rhenen,Utrecht,VBO,5.499097,51.984345
Rijksstraatweg,95,A,,3921AC,Elst Ut,Rhenen,Utrecht,VBO,5.499295,51.984296
Rijksstraatweg,95,,,3921AC,Elst Ut,Rhenen,Utrecht,VBO,5.499226,51.984313
Rijksstraatweg,97,A,,3921AC,Elst Ut,Rhenen,Utrecht,VBO,5.499601,51.984281
Rijksstraatweg,97,,,3921AC,Elst Ut,Rhenen,Utrecht,VBO,5.499441,51.984294
Rijksstraatweg,99,A,,3921AC,Elst Ut,Rhenen,Utrecht,VBO,5.499787,51.984248
Rijksstraatweg,99,,,3921AC,Elst Ut,Rhenen,Utrecht,VBO,5.499684,51.984270
Rijksstraatweg,101,,,3921AC,Elst Ut,Rhenen,Utrecht,VBO,5.499856,51.984231
Rijksstraatweg,107,A,,3921AC,Elst Ut,Rhenen,Utrecht,VBO,5.500640,51.983983
Rijksstraatweg,107,B,,3921AC,Elst Ut,Rhenen,Utrecht,VBO,5.500561,51.984024
Rijksstraatweg,107,,,3921AC,Elst Ut,Rhenen,Utrecht,VBO,5.500592,51.984083
Rijksstraatweg,109,A,,3921AC,Elst Ut,Rhenen,Utrecht,VBO,5.500911,51.983923
Rijksstraatweg,109,B,,3921AC,Elst Ut,Rhenen,Utrecht,VBO,5.500794,51.983985
Rijksstraatweg,109,C,,3921AC,Elst Ut,Rhenen,Utrecht,VBO,5.500930,51.983941
Rijksstraatweg,109,D,,3921AC,Elst Ut,Rhenen,Utrecht,VBO,5.500871,51.983973
Rijksstraatweg,109,,,3921AC,Elst Ut,Rhenen,Utrecht,VBO,5.500774,51.983969
Rijksstraatweg,111,,,3921AC,Elst Ut,Rhenen,Utrecht,VBO,5.501035,51.983872
Rijksstraatweg,113,,,3921AD,Elst Ut,Rhenen,Utrecht,VBO,5.501268,51.983786
Rijksstraatweg,117,,,3921AD,Elst Ut,Rhenen,Utrecht,VBO,5.502055,51.983662
Rijksstraatweg,121,C,,3921AD,Elst Ut,Rhenen,Utrecht,VBO,5.502625,51.983363
Rijksstraatweg,121,,,3921AD,Elst Ut,Rhenen,Utrecht,VBO,5.502315,51.983404
Rijksstraatweg,123,A,,3921AD,Elst Ut,Rhenen,Utrecht,VBO,5.503044,51.983278
Rijksstraatweg,123,,,3921AD,Elst Ut,Rhenen,Utrecht,VBO,5.502773,51.983315
Rijksstraatweg,125,,,3921AD,Elst Ut,Rhenen,Utrecht,VBO,5.503236,51.983210
Rijksstraatweg,127,A,,3921AD,Elst Ut,Rhenen,Utrecht,VBO,5.503506,51.983151
Rijksstraatweg,127,,,3921AD,Elst Ut,Rhenen,Utrecht,VBO,5.503428,51.983168
Rijksstraatweg,129,A,,3921AD,Elst Ut,Rhenen,Utrecht,VBO,5.503703,51.983091
Rijksstraatweg,129,,,3921AD,Elst Ut,Rhenen,Utrecht,VBO,5.503637,51.983099
Rijksstraatweg,131,A,,3921AD,Elst Ut,Rhenen,Utrecht,VBO,5.503921,51.983092
Rijksstraatweg,131,,,3921AD,Elst Ut,Rhenen,Utrecht,VBO,5.503975,51.983070
Rijksstraatweg,133,,,3921AD,Elst Ut,Rhenen,Utrecht,VBO,5.504242,51.983126
Rijksstraatweg,135,,,3921AD,Elst Ut,Rhenen,Utrecht,VBO,5.504390,51.982980
Rijksstraatweg,137,,,3921AD,Elst Ut,Rhenen,Utrecht,VBO,5.504541,51.982947
Rijksstraatweg,139,,,3921AD,Elst Ut,Rhenen,Utrecht,VBO,5.504865,51.982885
Rijksstraatweg,141,,,3921AD,Elst Ut,Rhenen,Utrecht,VBO,5.504987,51.982859
Rijksstraatweg,143,,,3921AD,Elst Ut,Rhenen,Utrecht,VBO,5.505140,51.982842
Rijksstraatweg,145,A,,3921AD,Elst Ut,Rhenen,Utrecht,VBO,5.505371,51.982814
Rijksstraatweg,145,,,3921AD,Elst Ut,Rhenen,Utrecht,VBO,5.505305,51.982833
Rijksstraatweg,147,,,3921AD,Elst Ut,Rhenen,Utrecht,VBO,5.505610,51.982815
Rijksstraatweg,151,,,3921AD,Elst Ut,Rhenen,Utrecht,VBO,5.505893,51.982713
Rijksstraatweg,153,,,3921AE,Elst Ut,Rhenen,Utrecht,VBO,5.506620,51.982700
Rijksstraatweg,161,,,3921AE,Elst Ut,Rhenen,Utrecht,VBO,5.507541,51.982572
Rijksstraatweg,163,,,3921AE,Elst Ut,Rhenen,Utrecht,VBO,5.507851,51.982476
Rijksstraatweg,165,,,3921AE,Elst Ut,Rhenen,Utrecht,VBO,5.507978,51.982404
Rijksstraatweg,167,,,3921AE,Elst Ut,Rhenen,Utrecht,VBO,5.508155,51.982434
Rijksstraatweg,169,,,3921AE,Elst Ut,Rhenen,Utrecht,VBO,5.508225,51.982385
Rijksstraatweg,171,,,3921AE,Elst Ut,Rhenen,Utrecht,VBO,5.508470,51.982386
Rijksstraatweg,173,,,3921AE,Elst Ut,Rhenen,Utrecht,VBO,5.508734,51.982340
Rijksstraatweg,175,,,3921AE,Elst Ut,Rhenen,Utrecht,VBO,5.508878,51.982329
Rijksstraatweg,177,,,3921AE,Elst Ut,Rhenen,Utrecht,VBO,5.509086,51.982293
Rijksstraatweg,179,,,3921AE,Elst Ut,Rhenen,Utrecht,VBO,5.509314,51.982233
Rijksstraatweg,181,,,3921AE,Elst Ut,Rhenen,Utrecht,VBO,5.509472,51.982200
Rijksstraatweg,183,A,,3921AE,Elst Ut,Rhenen,Utrecht,VBO,5.509770,51.982113
Rijksstraatweg,183,,,3921AE,Elst Ut,Rhenen,Utrecht,VBO,5.509677,51.982138
Rijksstraatweg,185,,,3921AE,Elst Ut,Rhenen,Utrecht,VBO,5.510002,51.982057
Rijksstraatweg,187,A,,3921AE,Elst Ut,Rhenen,Utrecht,VBO,5.510270,51.982095
Rijksstraatweg,187,,,3921AE,Elst Ut,Rhenen,Utrecht,VBO,5.510175,51.982081
Rijksstraatweg,189,,,3921AE,Elst Ut,Rhenen,Utrecht,VBO,5.510421,51.982012
Rijksstraatweg,191,,,3921AE,Elst Ut,Rhenen,Utrecht,VBO,5.510673,51.981904
Rijksstraatweg,193,,,3921AE,Elst Ut,Rhenen,Utrecht,VBO,5.510831,51.981856
Rijksstraatweg,195,,,3921AE,Elst Ut,Rhenen,Utrecht,VBO,5.511058,51.981820
Rijksstraatweg,197,A,,3921AE,Elst Ut,Rhenen,Utrecht,VBO,5.511250,51.981730
Rijksstraatweg,197,,,3921AE,Elst Ut,Rhenen,Utrecht,VBO,5.511218,51.981756
Rijksstraatweg,199,A,,3921AE,Elst Ut,Rhenen,Utrecht,VBO,5.511465,51.981669
Rijksstraatweg,199,,,3921AE,Elst Ut,Rhenen,Utrecht,VBO,5.511424,51.981690
Rijksstraatweg,201,,,3921AE,Elst Ut,Rhenen,Utrecht,VBO,5.511921,51.981604
Rijksstraatweg,205,,,3921AG,Elst Ut,Rhenen,Utrecht,VBO,5.512563,51.981419
Rijksstraatweg,207,,,3921AG,Elst Ut,Rhenen,Utrecht,VBO,5.512768,51.981373
Rijksstraatweg,209,,,3921AG,Elst Ut,Rhenen,Utrecht,VBO,5.512944,51.981317
Rijksstraatweg,211,A,,3921AG,Elst Ut,Rhenen,Utrecht,VBO,5.513198,51.981208
Rijksstraatweg,211,,,3921AG,Elst Ut,Rhenen,Utrecht,VBO,5.513106,51.981228
Rijksstraatweg,213,,,3921AG,Elst Ut,Rhenen,Utrecht,VBO,5.513399,51.981192
Rijksstraatweg,215,,,3921AG,Elst Ut,Rhenen,Utrecht,VBO,5.513532,51.981153
Rijksstraatweg,219,B,,3921AG,Elst Ut,Rhenen,Utrecht,VBO,5.514115,51.981144
Rijksstraatweg,219,,,3921AG,Elst Ut,Rhenen,Utrecht,VBO,5.514029,51.981065
Rijksstraatweg,221,A,,3921AG,Elst Ut,Rhenen,Utrecht,VBO,5.514316,51.980898
Rijksstraatweg,221,,,3921AG,Elst Ut,Rhenen,Utrecht,VBO,5.514395,51.981042
Rijksstraatweg,223,,,3921AG,Elst Ut,Rhenen,Utrecht,VBO,5.514453,51.980851
Rijksstraatweg,225,,,3921AG,Elst Ut,Rhenen,Utrecht,VBO,5.514535,51.980830
Rijksstraatweg,227,A,,3921AG,Elst Ut,Rhenen,Utrecht,VBO,5.514834,51.980774
Rijksstraatweg,227,B,,3921AG,Elst Ut,Rhenen,Utrecht,VBO,5.515011,51.981058
Rijksstraatweg,227,,,3921AG,Elst Ut,Rhenen,Utrecht,VBO,5.514743,51.980814
Rijksstraatweg,229,,,3921AG,Elst Ut,Rhenen,Utrecht,VBO,5.514967,51.980774
Rijksstraatweg,231,,,3921AG,Elst Ut,Rhenen,Utrecht,VBO,5.515084,51.980734
Rijksstraatweg,233,,,3921AG,Elst Ut,Rhenen,Utrecht,VBO,5.515191,51.980665
Rijksstraatweg,235,A,,3921AG,Elst Ut,Rhenen,Utrecht,VBO,5.515514,51.980584
Rijksstraatweg,235,,,3921AG,Elst Ut,Rhenen,Utrecht,VBO,5.515440,51.980606
Rijksstraatweg,237,,,3921AH,Elst Ut,Rhenen,Utrecht,VBO,5.515561,51.980495
Rijksstraatweg,239,,,3921AH,Elst Ut,Rhenen,Utrecht,VBO,5.515797,51.980512
Rijksstraatweg,241,,,3921AH,Elst Ut,Rhenen,Utrecht,VBO,5.515949,51.980415
Rijksstraatweg,243,A,,3921AH,Elst Ut,Rhenen,Utrecht,VBO,5.516269,51.980389
Rijksstraatweg,243,B,,3921AH,Elst Ut,Rhenen,Utrecht,VBO,5.516234,51.980478
Rijksstraatweg,243,,,3921AH,Elst Ut,Rhenen,Utrecht,VBO,5.516020,51.980406
Rijksstraatweg,245,,,3921AH,Elst Ut,Rhenen,Utrecht,VBO,5.516335,51.980375
Rijksstraatweg,247,,,3921AH,Elst Ut,Rhenen,Utrecht,VBO,5.516595,51.980283
Rijksstraatweg,251,,,3921AH,Elst Ut,Rhenen,Utrecht,VBO,5.517107,51.980133
Rijksstraatweg,253,A,,3921AH,Elst Ut,Rhenen,Utrecht,VBO,5.517454,51.980072
Rijksstraatweg,253,,,3921AH,Elst Ut,Rhenen,Utrecht,VBO,5.517299,51.980102
Rijksstraatweg,255,,,3921AH,Elst Ut,Rhenen,Utrecht,VBO,5.517622,51.979996
Rijksstraatweg,265,,,3921AH,Elst Ut,Rhenen,Utrecht,VBO,5.520802,51.979360
Rijksstraatweg,279,,,3921AH,Elst Ut,Rhenen,Utrecht,VBO,5.523818,51.978279
Rijksstraatweg,281,,,3921AH,Elst Ut,Rhenen,Utrecht,VBO,5.524478,51.977918
Rijksstraatweg,283,,,3921AH,Elst Ut,Rhenen,Utrecht,VBO,5.524846,51.977716
Rijksstraatweg,285,,,3921AH,Elst Ut,Rhenen,Utrecht,VBO,5.526199,51.976913
Rijksstraatweg,2,,,3921AJ,Elst Ut,Rhenen,Utrecht,VBO,5.488907,51.986183
Rijksstraatweg,4,,,3921AJ,Elst Ut,Rhenen,Utrecht,VBO,5.489115,51.986109
Rijksstraatweg,6,,,3921AJ,Elst Ut,Rhenen,Utrecht,VBO,5.489223,51.986057
Rijksstraatweg,8,,,3921AJ,Elst Ut,Rhenen,Utrecht,VBO,5.489327,51.986035
Rijksstraatweg,10,,,3921AJ,Elst Ut,Rhenen,Utrecht,VBO,5.489382,51.986019
Rijksstraatweg,12,,,3921AJ,Elst Ut,Rhenen,Utrecht,VBO,5.489616,51.985944
Rijksstraatweg,16,,,3921AJ,Elst Ut,Rhenen,Utrecht,VBO,5.490080,51.985857
Rijksstraatweg,20,A,,3921AJ,Elst Ut,Rhenen,Utrecht,VBO,5.490634,51.985746
Rijksstraatweg,22,,,3921AJ,Elst Ut,Rhenen,Utrecht,VBO,5.491476,51.985570
Rijksstraatweg,24,,,3921AJ,Elst Ut,Rhenen,Utrecht,VBO,5.491778,51.985509
Rijksstraatweg,26,A,,3921AJ,Elst Ut,Rhenen,Utrecht,VBO,5.492130,51.985375
Rijksstraatweg,26,,,3921AJ,Elst Ut,Rhenen,Utrecht,VBO,5.491915,51.985361
Rijksstraatweg,30,,,3921AJ,Elst Ut,Rhenen,Utrecht,VBO,5.492500,51.985219
Rijksstraatweg,32,A,,3921AJ,Elst Ut,Rhenen,Utrecht,VBO,5.492800,51.985205
Rijksstraatweg,32,B,,3921AJ,Elst Ut,Rhenen,Utrecht,VBO,5.492637,51.984870
Rijksstraatweg,32,,,3921AJ,Elst Ut,Rhenen,Utrecht,VBO,5.492718,51.985226
Rijksstraatweg,34,,,3921AJ,Elst Ut,Rhenen,Utrecht,VBO,5.493025,51.985164
Rijksstraatweg,36,A,,3921AJ,Elst Ut,Rhenen,Utrecht,VBO,5.493234,51.985078
Rijksstraatweg,36,,,3921AJ,Elst Ut,Rhenen,Utrecht,VBO,5.493158,51.985098
Rijksstraatweg,38,A,,3921AJ,Elst Ut,Rhenen,Utrecht,VBO,5.493210,51.984737
Rijksstraatweg,38,B,,3921AJ,Elst Ut,Rhenen,Utrecht,VBO,5.493566,51.985017
Rijksstraatweg,38,C,,3921AJ,Elst Ut,Rhenen,Utrecht,VBO,5.493655,51.984998
Rijksstraatweg,38,,,3921AJ,Elst Ut,Rhenen,Utrecht,VBO,5.493372,51.985059
Rijksstraatweg,40,,,3921AJ,Elst Ut,Rhenen,Utrecht,VBO,5.493704,51.984684
Rijksstraatweg,44,,,3921AK,Elst Ut,Rhenen,Utrecht,VBO,5.494013,51.984907
Rijksstraatweg,46,,,3921AK,Elst Ut,Rhenen,Utrecht,VBO,5.494141,51.984863
Rijksstraatweg,50,,,3921AK,Elst Ut,Rhenen,Utrecht,VBO,5.494312,51.984845
Rijksstraatweg,52,,,3921AK,Elst Ut,Rhenen,Utrecht,VBO,5.494440,51.984771
Rijksstraatweg,54,,,3921AK,Elst Ut,Rhenen,Utrecht,VBO,5.494601,51.984783
Rijksstraatweg,56,,,3921AK,Elst Ut,Rhenen,Utrecht,VBO,5.494715,51.984669
Rijksstraatweg,58,,,3921AK,Elst Ut,Rhenen,Utrecht,VBO,5.494892,51.984703
Rijksstraatweg,60,,,3921AK,Elst Ut,Rhenen,Utrecht,VBO,5.495068,51.984665
Rijksstraatweg,62,A,,3921AK,Elst Ut,Rhenen,Utrecht,VBO,5.495313,51.984704
Rijksstraatweg,62,,,3921AK,Elst Ut,Rhenen,Utrecht,VBO,5.495280,51.984669
Rijksstraatweg,64,,,3921AK,Elst Ut,Rhenen,Utrecht,VBO,5.495386,51.984556
Rijksstraatweg,66,A,,3921AK,Elst Ut,Rhenen,Utrecht,VBO,5.495703,51.984506
Rijksstraatweg,66,,,3921AK,Elst Ut,Rhenen,Utrecht,VBO,5.495567,51.984525
Rijksstraatweg,68,,,3921AK,Elst Ut,Rhenen,Utrecht,VBO,5.495850,51.984498
Rijksstraatweg,70,,,3921AK,Elst Ut,Rhenen,Utrecht,VBO,5.495924,51.984481
Rijksstraatweg,72,,,3921AK,Elst Ut,Rhenen,Utrecht,VBO,5.496063,51.984437
Rijksstraatweg,74,,,3921AK,Elst Ut,Rhenen,Utrecht,VBO,5.496309,51.984400
Rijksstraatweg,76,,,3921AK,Elst Ut,Rhenen,Utrecht,VBO,5.496652,51.984381
Rijksstraatweg,78,,,3921AK,Elst Ut,Rhenen,Utrecht,VBO,5.497015,51.984110
Rijksstraatweg,80,,,3921AK,Elst Ut,Rhenen,Utrecht,VBO,5.497713,51.984056
Rijksstraatweg,82,A,,3921AK,Elst Ut,Rhenen,Utrecht,VBO,5.497984,51.984006
Rijksstraatweg,82,,,3921AK,Elst Ut,Rhenen,Utrecht,VBO,5.497824,51.984036
Rijksstraatweg,86,,,3921AK,Elst Ut,Rhenen,Utrecht,VBO,5.498174,51.983983
Rijksstraatweg,88,,,3921AL,Elst Ut,Rhenen,Utrecht,VBO,5.498633,51.983946
Rijksstraatweg,90,,,3921AL,Elst Ut,Rhenen,Utrecht,VBO,5.498720,51.983937
Rijksstraatweg,96,,,3921AL,Elst Ut,Rhenen,Utrecht,VBO,5.499866,51.983715
Rijksstraatweg,98,,,3921AL,Elst Ut,Rhenen,Utrecht,VBO,5.500136,51.983660
Rijksstraatweg,100,,,3921AL,Elst Ut,Rhenen,Utrecht,VBO,5.500397,51.983542
Rijksstraatweg,102,,,3921AL,Elst Ut,Rhenen,Utrecht,VBO,5.500641,51.983471
Rijksstraatweg,158,,,3921AL,Elst Ut,Rhenen,Utrecht,VBO,5.505470,51.982270
Rijksstraatweg,162,,,3921AM,Elst Ut,Rhenen,Utrecht,VBO,5.506859,51.982163
Rijksstraatweg,164,A,,3921AM,Elst Ut,Rhenen,Utrecht,VBO,5.507965,51.981946
Rijksstraatweg,164,B,,3921AM,Elst Ut,Rhenen,Utrecht,VBO,5.508137,51.981927
Rijksstraatweg,164,,,3921AM,Elst Ut,Rhenen,Utrecht,VBO,5.507432,51.982107
Rijksstraatweg,166,A,,3921AM,Elst Ut,Rhenen,Utrecht,VBO,5.508517,51.981924
Rijksstraatweg,166,,,3921AM,Elst Ut,Rhenen,Utrecht,VBO,5.508324,51.981899
Rijksstraatweg,168,,,3921AM,Elst Ut,Rhenen,Utrecht,VBO,5.508603,51.981907
Rijksstraatweg,170,,,3921AM,Elst Ut,Rhenen,Utrecht,VBO,5.508776,51.981884
Rijksstraatweg,172,,,3921AM,Elst Ut,Rhenen,Utrecht,VBO,5.508858,51.981869
Rijksstraatweg,174,,,3921AM,Elst Ut,Rhenen,Utrecht,VBO,5.509024,51.981840
Rijksstraatweg,176,,,3921AM,Elst Ut,Rhenen,Utrecht,VBO,5.509107,51.981825
Rijksstraatweg,178,,,3921AM,Elst Ut,Rhenen,Utrecht,VBO,5.509275,51.981793
Rijksstraatweg,180,,,3921AM,Elst Ut,Rhenen,Utrecht,VBO,5.509357,51.981777
Rijksstraatweg,182,,,3921AM,Elst Ut,Rhenen,Utrecht,VBO,5.509525,51.981744
Rijksstraatweg,184,,,3921AM,Elst Ut,Rhenen,Utrecht,VBO,5.509603,51.981728
Rijksstraatweg,186,,,3921AM,Elst Ut,Rhenen,Utrecht,VBO,5.509773,51.981692
Rijksstraatweg,188,,,3921AM,Elst Ut,Rhenen,Utrecht,VBO,5.509852,51.981675
Rijksstraatweg,190,,,3921AM,Elst Ut,Rhenen,Utrecht,VBO,5.510019,51.981641
Rijksstraatweg,192,,,3921AM,Elst Ut,Rhenen,Utrecht,VBO,5.510099,51.981623
Rijksstraatweg,194,,,3921AM,Elst Ut,Rhenen,Utrecht,VBO,5.510262,51.981585
Rijksstraatweg,196,,,3921AM,Elst Ut,Rhenen,Utrecht,VBO,5.510344,51.981566
Rijksstraatweg,198,,,3921AM,Elst Ut,Rhenen,Utrecht,VBO,5.510559,51.981560
Rijksstraatweg,200,,,3921AN,Elst Ut,Rhenen,Utrecht,VBO,5.510634,51.981539
Rijksstraatweg,202,,,3921AN,Elst Ut,Rhenen,Utrecht,VBO,5.510798,51.981495
Rijksstraatweg,204,,,3921AN,Elst Ut,Rhenen,Utrecht,VBO,5.510875,51.981473
Rijksstraatweg,206,,,3921AN,Elst Ut,Rhenen,Utrecht,VBO,5.511038,51.981431
Rijksstraatweg,208,,,3921AN,Elst Ut,Rhenen,Utrecht,VBO,5.511118,51.981409
Rijksstraatweg,210,,,3921AN,Elst Ut,Rhenen,Utrecht,VBO,5.511281,51.981366
Rijksstraatweg,212,,,3921AN,Elst Ut,Rhenen,Utrecht,VBO,5.511361,51.981345
Rijksstraatweg,214,,,3921AN,Elst Ut,Rhenen,Utrecht,VBO,5.511487,51.981241
Rijksstraatweg,216,,,3921AN,Elst Ut,Rhenen,Utrecht,VBO,5.511577,51.981216
Rijksstraatweg,232,,,3921AN,Elst Ut,Rhenen,Utrecht,VBO,5.514211,51.980684
Rijksstraatweg,234,,,3921AN,Elst Ut,Rhenen,Utrecht,VBO,5.514531,51.980590
Rijksstraatweg,238,,,3921AN,Elst Ut,Rhenen,Utrecht,VBO,5.517064,51.979796
Rijksstraatweg,240,,,3921AN,Elst Ut,Rhenen,Utrecht,VBO,5.517102,51.979768
Rijksstraatweg,242,,,3921AN,Elst Ut,Rhenen,Utrecht,VBO,5.517262,51.979739
Rijksstraatweg,244,,,3921AN,Elst Ut,Rhenen,Utrecht,VBO,5.517301,51.979710
Rijksstraatweg,246,,,3921AN,Elst Ut,Rhenen,Utrecht,VBO,5.517464,51.979672
Rijksstraatweg,248,,,3921AN,Elst Ut,Rhenen,Utrecht,VBO,5.517512,51.979622
Rijksstraatweg,250,,,3921AN,Elst Ut,Rhenen,Utrecht,VBO,5.517704,51.979641
Rijksstraatweg,252,,,3921AN,Elst Ut,Rhenen,Utrecht,VBO,5.517841,51.979564
Rijksstraatweg,260,,,3921AP,Elst Ut,Rhenen,Utrecht,VBO,5.518680,51.979315
Rijksstraatweg,312,,,3921AP,Elst Ut,Rhenen,Utrecht,VBO,5.524943,51.976448
De Opslag,2,,,3921AR,Elst Ut,Rhenen,Utrecht,VBO,5.489129,51.984382
Ingenseveerweg,1,,,3921AZ,Elst Ut,Rhenen,Utrecht,LIG,5.495304,51.981281
Oranjestraat,1,A,,3921BA,Elst Ut,Rhenen,Utrecht,VBO,5.501277,51.984272
Oranjestraat,1,,,3921BA,Elst Ut,Rhenen,Utrecht,VBO,5.501361,51.984240
Oranjestraat,3,A,,3921BA,Elst Ut,Rhenen,Utrecht,VBO,5.501125,51.984333
Oranjestraat,3,,,3921BA,Elst Ut,Rhenen,Utrecht,VBO,5.501203,51.984298
Oranjestraat,5,,,3921BA,Elst Ut,Rhenen,Utrecht,VBO,5.500945,51.984369
Oranjestraat,9,,,3921BA,Elst Ut,Rhenen,Utrecht,VBO,5.500655,51.984524
Oranjestraat,11,A,,3921BA,Elst Ut,Rhenen,Utrecht,VBO,5.500313,51.984656
Oranjestraat,11,,,3921BA,Elst Ut,Rhenen,Utrecht,VBO,5.500479,51.984582
Oranjestraat,13,,,3921BA,Elst Ut,Rhenen,Utrecht,VBO,5.500101,51.984758
Oranjestraat,15,,,3921BA,Elst Ut,Rhenen,Utrecht,VBO,5.499913,51.984844
Oranjestraat,17,A,,3921BA,Elst Ut,Rhenen,Utrecht,VBO,5.499513,51.984740
Oranjestraat,17,B,,3921BA,Elst Ut,Rhenen,Utrecht,VBO,5.499217,51.984650
Oranjestraat,17,,,3921BA,Elst Ut,Rhenen,Utrecht,VBO,5.499749,51.984967
Oranjestraat,43,,,3921BA,Elst Ut,Rhenen,Utrecht,VBO,5.498781,51.985135
Oranjestraat,45,,,3921BA,Elst Ut,Rhenen,Utrecht,VBO,5.498723,51.985150
Oranjestraat,47,,,3921BA,Elst Ut,Rhenen,Utrecht,VBO,5.498664,51.985165
Oranjestraat,49,,,3921BA,Elst Ut,Rhenen,Utrecht,VBO,5.498606,51.985180
Oranjestraat,51,,,3921BA,Elst Ut,Rhenen,Utrecht,VBO,5.498547,51.985195
Oranjestraat,53,,,3921BA,Elst Ut,Rhenen,Utrecht,VBO,5.498489,51.985210
Oranjestraat,55,,,3921BA,Elst Ut,Rhenen,Utrecht,VBO,5.498431,51.985225
Oranjestraat,57,,,3921BA,Elst Ut,Rhenen,Utrecht,VBO,5.498372,51.985239
Oranjestraat,59,,,3921BA,Elst Ut,Rhenen,Utrecht,VBO,5.498314,51.985254
Oranjestraat,61,,,3921BB,Elst Ut,Rhenen,Utrecht,VBO,5.498197,51.985267
Oranjestraat,63,,,3921BB,Elst Ut,Rhenen,Utrecht,VBO,5.498137,51.985282
Oranjestraat,65,,,3921BB,Elst Ut,Rhenen,Utrecht,VBO,5.498078,51.985297
Oranjestraat,67,,,3921BB,Elst Ut,Rhenen,Utrecht,VBO,5.498019,51.985312
Oranjestraat,69,,,3921BB,Elst Ut,Rhenen,Utrecht,VBO,5.497959,51.985327
Oranjestraat,71,,,3921BB,Elst Ut,Rhenen,Utrecht,VBO,5.497900,51.985342
Oranjestraat,73,,,3921BB,Elst Ut,Rhenen,Utrecht,VBO,5.497841,51.985356
Oranjestraat,75,,,3921BB,Elst Ut,Rhenen,Utrecht,VBO,5.497781,51.985371
Oranjestraat,77,,,3921BB,Elst Ut,Rhenen,Utrecht,VBO,5.497722,51.985386
Oranjestraat,79,,,3921BB,Elst Ut,Rhenen,Utrecht,VBO,5.497617,51.985430
Oranjestraat,81,,,3921BB,Elst Ut,Rhenen,Utrecht,VBO,5.497559,51.985445
Oranjestraat,83,,,3921BB,Elst Ut,Rhenen,Utrecht,VBO,5.497501,51.985459
Oranjestraat,85,,,3921BB,Elst Ut,Rhenen,Utrecht,VBO,5.497443,51.985474
Oranjestraat,87,,,3921BB,Elst Ut,Rhenen,Utrecht,VBO,5.497385,51.985489
Oranjestraat,89,,,3921BB,Elst Ut,Rhenen,Utrecht,VBO,5.497327,51.985503
Oranjestraat,91,,,3921BB,Elst Ut,Rhenen,Utrecht,VBO,5.497269,51.985518
Oranjestraat,93,,,3921BB,Elst Ut,Rhenen,Utrecht,VBO,5.497211,51.985533
Oranjestraat,95,,,3921BB,Elst Ut,Rhenen,Utrecht,VBO,5.497152,51.985547
Oranjestraat,97,,,3921BB,Elst Ut,Rhenen,Utrecht,VBO,5.497083,51.985563
Oranjestraat,2,,,3921BC,Elst Ut,Rhenen,Utrecht,VBO,5.501605,51.984494
Oranjestraat,4,,,3921BC,Elst Ut,Rhenen,Utrecht,VBO,5.501528,51.984527
Oranjestraat,6,,,3921BC,Elst Ut,Rhenen,Utrecht,VBO,5.501398,51.984587
Oranjestraat,8,,,3921BC,Elst Ut,Rhenen,Utrecht,VBO,5.501324,51.984620
Oranjestraat,10,,,3921BC,Elst Ut,Rhenen,Utrecht,VBO,5.501183,51.984679
Oranjestraat,12,,,3921BC,Elst Ut,Rhenen,Utrecht,VBO,5.501108,51.984713
Oranjestraat,14,,,3921BC,Elst Ut,Rhenen,Utrecht,VBO,5.500973,51.984771
Oranjestraat,16,,,3921BC,Elst Ut,Rhenen,Utrecht,VBO,5.500902,51.984804
Oranjestraat,18,,,3921BC,Elst Ut,Rhenen,Utrecht,VBO,5.500767,51.984864
Oranjestraat,20,,,3921BC,Elst Ut,Rhenen,Utrecht,VBO,5.500691,51.984897
Oranjestraat,24,,,3921BC,Elst Ut,Rhenen,Utrecht,VBO,5.499854,51.985260
Oranjestraat,26,,,3921BC,Elst Ut,Rhenen,Utrecht,VBO,5.498872,51.985527
Oranjestraat,28,,,3921BC,Elst Ut,Rhenen,Utrecht,VBO,5.498895,51.985562
Oranjestraat,30,,,3921BC,Elst Ut,Rhenen,Utrecht,VBO,5.498919,51.985596
Oranjestraat,32,,,3921BC,Elst Ut,Rhenen,Utrecht,VBO,5.498942,51.985631
Oranjestraat,34,,,3921BC,Elst Ut,Rhenen,Utrecht,VBO,5.498965,51.985666
Oranjestraat,36,,,3921BC,Elst Ut,Rhenen,Utrecht,VBO,5.498988,51.985700
Oranjestraat,38,,,3921BC,Elst Ut,Rhenen,Utrecht,VBO,5.499011,51.985735
Oranjestraat,40,,,3921BC,Elst Ut,Rhenen,Utrecht,VBO,5.499035,51.985769
Oranjestraat,42,,,3921BD,Elst Ut,Rhenen,Utrecht,VBO,5.498406,51.985645
Oranjestraat,44,,,3921BD,Elst Ut,Rhenen,Utrecht,VBO,5.498430,51.985679
Oranjestraat,46,,,3921BD,Elst Ut,Rhenen,Utrecht,VBO,5.498453,51.985713
Oranjestraat,48,,,3921BD,Elst Ut,Rhenen,Utrecht,VBO,5.498477,51.985748
Oranjestraat,50,,,3921BD,Elst Ut,Rhenen,Utrecht,VBO,5.498500,51.985782
Oranjestraat,52,,,3921BD,Elst Ut,Rhenen,Utrecht,VBO,5.498524,51.985817
Oranjestraat,54,,,3921BD,Elst Ut,Rhenen,Utrecht,VBO,5.498547,51.985851
Oranjestraat,56,,,3921BD,Elst Ut,Rhenen,Utrecht,VBO,5.498571,51.985885
Oranjestraat,58,,,3921BD,Elst Ut,Rhenen,Utrecht,VBO,5.498019,51.985870
Oranjestraat,60,,,3921BD,Elst Ut,Rhenen,Utrecht,VBO,5.498041,51.985904
Oranjestraat,62,,,3921BD,Elst Ut,Rhenen,Utrecht,VBO,5.498063,51.985937
Oranjestraat,64,,,3921BD,Elst Ut,Rhenen,Utrecht,VBO,5.498085,51.985971
Oranjestraat,66,,,3921BD,Elst Ut,Rhenen,Utrecht,VBO,5.498107,51.986004
Oranjestraat,68,,,3921BD,Elst Ut,Rhenen,Utrecht,VBO,5.497482,51.985870
Oranjestraat,70,,,3921BD,Elst Ut,Rhenen,Utrecht,VBO,5.497505,51.985908
Oranjestraat,72,,,3921BD,Elst Ut,Rhenen,Utrecht,VBO,5.497528,51.985945
Oranjestraat,74,,,3921BD,Elst Ut,Rhenen,Utrecht,VBO,5.497551,51.985982
Oranjestraat,76,,,3921BD,Elst Ut,Rhenen,Utrecht,VBO,5.497574,51.986020
Oranjestraat,78,,,3921BD,Elst Ut,Rhenen,Utrecht,VBO,5.497597,51.986057
Oranjestraat,80,,,3921BD,Elst Ut,Rhenen,Utrecht,VBO,5.497621,51.986095
Oranjestraat,82,,,3921BD,Elst Ut,Rhenen,Utrecht,VBO,5.497644,51.986132
Nassaustraat,1,,,3921BE,Elst Ut,Rhenen,Utrecht,VBO,5.499398,51.985421
Nassaustraat,3,,,3921BE,Elst Ut,Rhenen,Utrecht,VBO,5.499422,51.985457
Nassaustraat,5,,,3921BE,Elst Ut,Rhenen,Utrecht,VBO,5.499446,51.985492
Nassaustraat,7,,,3921BE,Elst Ut,Rhenen,Utrecht,VBO,5.499470,51.985528
Nassaustraat,9,,,3921BE,Elst Ut,Rhenen,Utrecht,VBO,5.499494,51.985564
Nassaustraat,11,,,3921BE,Elst Ut,Rhenen,Utrecht,VBO,5.499518,51.985599
Nassaustraat,13,,,3921BE,Elst Ut,Rhenen,Utrecht,VBO,5.499542,51.985635
Nassaustraat,15,,,3921BE,Elst Ut,Rhenen,Utrecht,VBO,5.499566,51.985671
Nassaustraat,17,,,3921BE,Elst Ut,Rhenen,Utrecht,VBO,5.499590,51.985706
Nassaustraat,19,,,3921BE,Elst Ut,Rhenen,Utrecht,VBO,5.499614,51.985742
Nassaustraat,21,,,3921BE,Elst Ut,Rhenen,Utrecht,VBO,5.499638,51.985778
Nassaustraat,23,,,3921BE,Elst Ut,Rhenen,Utrecht,VBO,5.499662,51.985814
Nassaustraat,25,,,3921BE,Elst Ut,Rhenen,Utrecht,VBO,5.499686,51.985849
Irenestraat,1,,,3921BG,Elst Ut,Rhenen,Utrecht,VBO,5.502233,51.984757
Irenestraat,3,,,3921BG,Elst Ut,Rhenen,Utrecht,VBO,5.502118,51.984842
Irenestraat,5,,,3921BG,Elst Ut,Rhenen,Utrecht,VBO,5.501977,51.984903
Irenestraat,7,,,3921BG,Elst Ut,Rhenen,Utrecht,VBO,5.501829,51.984950
Irenestraat,9,,,3921BG,Elst Ut,Rhenen,Utrecht,VBO,5.501753,51.984982
Irenestraat,11,,,3921BG,Elst Ut,Rhenen,Utrecht,VBO,5.501677,51.985014
Irenestraat,13,,,3921BG,Elst Ut,Rhenen,Utrecht,VBO,5.501554,51.985066
Irenestraat,15,,,3921BG,Elst Ut,Rhenen,Utrecht,VBO,5.501481,51.985098
Irenestraat,17,,,3921BG,Elst Ut,Rhenen,Utrecht,VBO,5.501408,51.985130
Irenestraat,19,,,3921BG,Elst Ut,Rhenen,Utrecht,VBO,5.501335,51.985162
Irenestraat,21,,,3921BG,Elst Ut,Rhenen,Utrecht,VBO,5.501219,51.985225
Irenestraat,23,,,3921BG,Elst Ut,Rhenen,Utrecht,VBO,5.501143,51.985257
Irenestraat,25,,,3921BG,Elst Ut,Rhenen,Utrecht,VBO,5.501068,51.985289
Irenestraat,27,,,3921BG,Elst Ut,Rhenen,Utrecht,VBO,5.500992,51.985321
Irenestraat,29,,,3921BG,Elst Ut,Rhenen,Utrecht,VBO,5.500858,51.985360
Irenestraat,31,,,3921BG,Elst Ut,Rhenen,Utrecht,VBO,5.500783,51.985392
Irenestraat,33,,,3921BG,Elst Ut,Rhenen,Utrecht,VBO,5.500709,51.985425
Irenestraat,35,,,3921BG,Elst Ut,Rhenen,Utrecht,VBO,5.500635,51.985457
Irenestraat,37,,,3921BG,Elst Ut,Rhenen,Utrecht,VBO,5.500286,51.985491
Irenestraat,47,,,3921BH,Elst Ut,Rhenen,Utrecht,VBO,5.499293,51.985932
Irenestraat,49,,,3921BH,Elst Ut,Rhenen,Utrecht,VBO,5.499204,51.985955
Irenestraat,51,,,3921BH,Elst Ut,Rhenen,Utrecht,VBO,5.499116,51.985977
Irenestraat,53,,,3921BH,Elst Ut,Rhenen,Utrecht,VBO,5.498946,51.986017
Irenestraat,55,,,3921BH,Elst Ut,Rhenen,Utrecht,VBO,5.498853,51.986040
Irenestraat,57,,,3921BH,Elst Ut,Rhenen,Utrecht,VBO,5.498685,51.986082
Irenestraat,59,,,3921BH,Elst Ut,Rhenen,Utrecht,VBO,5.498594,51.986104
Irenestraat,61,,,3921BH,Elst Ut,Rhenen,Utrecht,VBO,5.498425,51.986143
Irenestraat,63,,,3921BH,Elst Ut,Rhenen,Utrecht,VBO,5.498326,51.986167
Irenestraat,65,,,3921BH,Elst Ut,Rhenen,Utrecht,VBO,5.498149,51.986215
Irenestraat,67,,,3921BH,Elst Ut,Rhenen,Utrecht,VBO,5.498056,51.986237
Irenestraat,69,,,3921BH,Elst Ut,Rhenen,Utrecht,VBO,5.497881,51.986279
Irenestraat,71,,,3921BH,Elst Ut,Rhenen,Utrecht,VBO,5.497793,51.986303
Irenestraat,73,,,3921BH,Elst Ut,Rhenen,Utrecht,VBO,5.497614,51.986354
Irenestraat,75,,,3921BH,Elst Ut,Rhenen,Utrecht,VBO,5.497513,51.986379
Irenestraat,2,,,3921BJ,Elst Ut,Rhenen,Utrecht,VBO,5.502104,51.985146
Irenestraat,4,,,3921BJ,Elst Ut,Rhenen,Utrecht,VBO,5.502032,51.985177
Irenestraat,6,,,3921BJ,Elst Ut,Rhenen,Utrecht,VBO,5.501959,51.985209
Irenestraat,8,,,3921BJ,Elst Ut,Rhenen,Utrecht,VBO,5.501887,51.985240
Irenestraat,10,,,3921BJ,Elst Ut,Rhenen,Utrecht,VBO,5.501756,51.985292
Irenestraat,12,,,3921BJ,Elst Ut,Rhenen,Utrecht,VBO,5.501683,51.985323
Irenestraat,14,,,3921BJ,Elst Ut,Rhenen,Utrecht,VBO,5.501611,51.985355
Irenestraat,16,,,3921BJ,Elst Ut,Rhenen,Utrecht,VBO,5.501539,51.985387
Irenestraat,18,,,3921BJ,Elst Ut,Rhenen,Utrecht,VBO,5.501420,51.985438
Irenestraat,20,,,3921BJ,Elst Ut,Rhenen,Utrecht,VBO,5.501345,51.985469
Irenestraat,22,,,3921BJ,Elst Ut,Rhenen,Utrecht,VBO,5.501270,51.985501
Irenestraat,24,,,3921BJ,Elst Ut,Rhenen,Utrecht,VBO,5.501195,51.985533
Irenestraat,26,,,3921BJ,Elst Ut,Rhenen,Utrecht,VBO,5.501078,51.985586
Irenestraat,28,,,3921BJ,Elst Ut,Rhenen,Utrecht,VBO,5.501005,51.985618
Irenestraat,30,,,3921BJ,Elst Ut,Rhenen,Utrecht,VBO,5.500931,51.985650
Irenestraat,32,,,3921BJ,Elst Ut,Rhenen,Utrecht,VBO,5.500858,51.985682
Irenestraat,34,,,3921BJ,Elst Ut,Rhenen,Utrecht,VBO,5.500736,51.985734
Irenestraat,36,,,3921BJ,Elst Ut,Rhenen,Utrecht,VBO,5.500663,51.985766
Irenestraat,38,,,3921BJ,Elst Ut,Rhenen,Utrecht,VBO,5.500591,51.985797
Irenestraat,40,,,3921BJ,Elst Ut,Rhenen,Utrecht,VBO,5.500518,51.985829
Irenestraat,42,,,3921BJ,Elst Ut,Rhenen,Utrecht,VBO,5.500387,51.985915
Irenestraat,44,,,3921BJ,Elst Ut,Rhenen,Utrecht,VBO,5.500312,51.985945
Irenestraat,46,,,3921BJ,Elst Ut,Rhenen,Utrecht,VBO,5.500237,51.985976
Irenestraat,48,,,3921BJ,Elst Ut,Rhenen,Utrecht,VBO,5.500162,51.986006
Irenestraat,50,,,3921BK,Elst Ut,Rhenen,Utrecht,VBO,5.500087,51.986036
Irenestraat,52,,,3921BK,Elst Ut,Rhenen,Utrecht,VBO,5.500013,51.986067
Irenestraat,54,,,3921BK,Elst Ut,Rhenen,Utrecht,VBO,5.499938,51.986097
Irenestraat,56,,,3921BK,Elst Ut,Rhenen,Utrecht,VBO,5.499793,51.986147
Irenestraat,58,,,3921BK,Elst Ut,Rhenen,Utrecht,VBO,5.499711,51.986169
Irenestraat,60,,,3921BK,Elst Ut,Rhenen,Utrecht,VBO,5.499630,51.986191
Irenestraat,62,,,3921BK,Elst Ut,Rhenen,Utrecht,VBO,5.499548,51.986214
Irenestraat,64,,,3921BK,Elst Ut,Rhenen,Utrecht,VBO,5.499466,51.986236
Irenestraat,66,,,3921BK,Elst Ut,Rhenen,Utrecht,VBO,5.499385,51.986258
Irenestraat,68,,,3921BK,Elst Ut,Rhenen,Utrecht,VBO,5.499303,51.986280
Irenestraat,70,,,3921BK,Elst Ut,Rhenen,Utrecht,VBO,5.498539,51.986492
Irenestraat,72,,,3921BK,Elst Ut,Rhenen,Utrecht,VBO,5.498448,51.986514
Irenestraat,74,,,3921BK,Elst Ut,Rhenen,Utrecht,VBO,5.498358,51.986536
Irenestraat,76,,,3921BK,Elst Ut,Rhenen,Utrecht,VBO,5.498268,51.986558
Irenestraat,78,,,3921BK,Elst Ut,Rhenen,Utrecht,VBO,5.498102,51.986572
Irenestraat,80,,,3921BK,Elst Ut,Rhenen,Utrecht,VBO,5.498011,51.986594
Irenestraat,82,,,3921BK,Elst Ut,Rhenen,Utrecht,VBO,5.497947,51.986649
Irenestraat,84,,,3921BK,Elst Ut,Rhenen,Utrecht,VBO,5.497856,51.986671
Irenestraat,86,,,3921BK,Elst Ut,Rhenen,Utrecht,VBO,5.497766,51.986693
Irenestraat,88,,,3921BK,Elst Ut,Rhenen,Utrecht,VBO,5.497675,51.986714
Irenestraat,90,,,3921BK,Elst Ut,Rhenen,Utrecht,VBO,5.497558,51.986702
Irenestraat,92,,,3921BK,Elst Ut,Rhenen,Utrecht,VBO,5.497467,51.986724
Margrietstraat,2,,,3921BL,Elst Ut,Rhenen,Utrecht,VBO,5.498983,51.986360
Margrietstraat,4,,,3921BL,Elst Ut,Rhenen,Utrecht,VBO,5.499029,51.986421
Margrietstraat,6,,,3921BL,Elst Ut,Rhenen,Utrecht,VBO,5.499062,51.986462
Margrietstraat,8,,,3921BL,Elst Ut,Rhenen,Utrecht,VBO,5.499134,51.986553
Margrietstraat,10,,,3921BL,Elst Ut,Rhenen,Utrecht,VBO,5.499165,51.986604
Margrietstraat,12,,,3921BL,Elst Ut,Rhenen,Utrecht,VBO,5.499235,51.986695
Beatrixstraat,1,,I,3921BM,Elst Ut,Rhenen,Utrecht,VBO,5.502441,51.985709
Beatrixstraat,1,,,3921BM,Elst Ut,Rhenen,Utrecht,VBO,5.502419,51.985680
Beatrixstraat,3,,I,3921BM,Elst Ut,Rhenen,Utrecht,VBO,5.502358,51.985740
Beatrixstraat,3,,,3921BM,Elst Ut,Rhenen,Utrecht,VBO,5.502335,51.985707
Beatrixstraat,5,,I,3921BM,Elst Ut,Rhenen,Utrecht,VBO,5.502224,51.985781
Beatrixstraat,5,,,3921BM,Elst Ut,Rhenen,Utrecht,VBO,5.502201,51.985753
Beatrixstraat,7,,I,3921BM,Elst Ut,Rhenen,Utrecht,VBO,5.502145,51.985810
Beatrixstraat,7,,,3921BM,Elst Ut,Rhenen,Utrecht,VBO,5.502120,51.985781
Beatrixstraat,9,,I,3921BM,Elst Ut,Rhenen,Utrecht,VBO,5.502031,51.985848
Beatrixstraat,9,,,3921BM,Elst Ut,Rhenen,Utrecht,VBO,5.502007,51.985820
Beatrixstraat,11,,I,3921BM,Elst Ut,Rhenen,Utrecht,VBO,5.501911,51.985888
Beatrixstraat,11,,,3921BM,Elst Ut,Rhenen,Utrecht,VBO,5.501883,51.985861
Beatrixstraat,13,,,3921BM,Elst Ut,Rhenen,Utrecht,VBO,5.501777,51.985910
Beatrixstraat,15,,,3921BM,Elst Ut,Rhenen,Utrecht,VBO,5.501699,51.985937
Beatrixstraat,17,,,3921BM,Elst Ut,Rhenen,Utrecht,VBO,5.501622,51.985963
Beatrixstraat,19,,,3921BM,Elst Ut,Rhenen,Utrecht,VBO,5.501545,51.985990
Beatrixstraat,21,,,3921BM,Elst Ut,Rhenen,Utrecht,VBO,5.501413,51.986037
Beatrixstraat,23,,,3921BM,Elst Ut,Rhenen,Utrecht,VBO,5.501334,51.986063
Beatrixstraat,25,,,3921BM,Elst Ut,Rhenen,Utrecht,VBO,5.501256,51.986090
Beatrixstraat,27,,,3921BN,Elst Ut,Rhenen,Utrecht,VBO,5.501177,51.986116
Beatrixstraat,29,,,3921BN,Elst Ut,Rhenen,Utrecht,VBO,5.501046,51.986161
Beatrixstraat,31,,,3921BN,Elst Ut,Rhenen,Utrecht,VBO,5.500969,51.986188
Beatrixstraat,33,,,3921BN,Elst Ut,Rhenen,Utrecht,VBO,5.500892,51.986215
Beatrixstraat,35,,,3921BN,Elst Ut,Rhenen,Utrecht,VBO,5.500815,51.986242
Beatrixstraat,37,,,3921BN,Elst Ut,Rhenen,Utrecht,VBO,5.500667,51.986284
Beatrixstraat,39,,,3921BN,Elst Ut,Rhenen,Utrecht,VBO,5.500589,51.986311
Beatrixstraat,41,,,3921BN,Elst Ut,Rhenen,Utrecht,VBO,5.500512,51.986338
Beatrixstraat,43,,,3921BN,Elst Ut,Rhenen,Utrecht,VBO,5.500434,51.986365
Beatrixstraat,45,,,3921BN,Elst Ut,Rhenen,Utrecht,VBO,5.500295,51.986409
Beatrixstraat,47,,,3921BN,Elst Ut,Rhenen,Utrecht,VBO,5.500217,51.986434
Beatrixstraat,49,,,3921BN,Elst Ut,Rhenen,Utrecht,VBO,5.500139,51.986460
Beatrixstraat,51,,,3921BN,Elst Ut,Rhenen,Utrecht,VBO,5.500061,51.986486
Beatrixstraat,53,,,3921BN,Elst Ut,Rhenen,Utrecht,VBO,5.499983,51.986512
Beatrixstraat,55,,,3921BN,Elst Ut,Rhenen,Utrecht,VBO,5.499842,51.986558
Beatrixstraat,57,,,3921BN,Elst Ut,Rhenen,Utrecht,VBO,5.499762,51.986582
Beatrixstraat,59,,,3921BN,Elst Ut,Rhenen,Utrecht,VBO,5.499682,51.986606
Beatrixstraat,61,,,3921BN,Elst Ut,Rhenen,Utrecht,VBO,5.499602,51.986631
Beatrixstraat,63,,,3921BN,Elst Ut,Rhenen,Utrecht,VBO,5.499522,51.986655
Beatrixstraat,65,,,3921BN,Elst Ut,Rhenen,Utrecht,VBO,5.499264,51.986761
Beatrixstraat,71,,,3921BN,Elst Ut,Rhenen,Utrecht,STA,5.498226,51.987119
Beatrixstraat,2,,,3921BP,Elst Ut,Rhenen,Utrecht,VBO,5.503019,51.985817
Beatrixstraat,4,,,3921BP,Elst Ut,Rhenen,Utrecht,VBO,5.502939,51.985845
Beatrixstraat,6,,,3921BP,Elst Ut,Rhenen,Utrecht,VBO,5.502859,51.985872
Beatrixstraat,8,,,3921BP,Elst Ut,Rhenen,Utrecht,VBO,5.502779,51.985900
Beatrixstraat,10,,,3921BP,Elst Ut,Rhenen,Utrecht,VBO,5.502639,51.985944
Beatrixstraat,12,,,3921BP,Elst Ut,Rhenen,Utrecht,VBO,5.502558,51.985972
Beatrixstraat,14,,,3921BP,Elst Ut,Rhenen,Utrecht,VBO,5.502478,51.986000
Beatrixstraat,16,,,3921BP,Elst Ut,Rhenen,Utrecht,VBO,5.502397,51.986028
Beatrixstraat,18,,,3921BP,Elst Ut,Rhenen,Utrecht,VBO,5.502265,51.986073
Beatrixstraat,20,,,3921BP,Elst Ut,Rhenen,Utrecht,VBO,5.502182,51.986101
Beatrixstraat,22,,,3921BP,Elst Ut,Rhenen,Utrecht,VBO,5.502099,51.986129
Beatrixstraat,24,,,3921BP,Elst Ut,Rhenen,Utrecht,VBO,5.502016,51.986157
Beatrixstraat,26,,,3921BP,Elst Ut,Rhenen,Utrecht,VBO,5.501886,51.986202
Beatrixstraat,28,,,3921BP,Elst Ut,Rhenen,Utrecht,VBO,5.501805,51.986230
Beatrixstraat,30,,,3921BP,Elst Ut,Rhenen,Utrecht,VBO,5.501724,51.986259
Beatrixstraat,32,,,3921BP,Elst Ut,Rhenen,Utrecht,VBO,5.501644,51.986287
Beatrixstraat,34,,,3921BP,Elst Ut,Rhenen,Utrecht,VBO,5.501512,51.986332
Beatrixstraat,36,,,3921BP,Elst Ut,Rhenen,Utrecht,VBO,5.501431,51.986359
Beatrixstraat,38,,,3921BP,Elst Ut,Rhenen,Utrecht,VBO,5.501351,51.986387
Beatrixstraat,40,,,3921BP,Elst Ut,Rhenen,Utrecht,VBO,5.501271,51.986415
Beatrixstraat,42,,,3921BP,Elst Ut,Rhenen,Utrecht,VBO,5.501137,51.986453
Beatrixstraat,44,,,3921BP,Elst Ut,Rhenen,Utrecht,VBO,5.501059,51.986480
Beatrixstraat,46,,,3921BP,Elst Ut,Rhenen,Utrecht,VBO,5.500981,51.986507
Beatrixstraat,48,,,3921BP,Elst Ut,Rhenen,Utrecht,VBO,5.500903,51.986534
Beatrixstraat,52,,,3921BR,Elst Ut,Rhenen,Utrecht,VBO,5.500592,51.986648
Beatrixstraat,54,,,3921BR,Elst Ut,Rhenen,Utrecht,VBO,5.500515,51.986674
Beatrixstraat,56,,,3921BR,Elst Ut,Rhenen,Utrecht,VBO,5.500437,51.986701
Beatrixstraat,58,,,3921BR,Elst Ut,Rhenen,Utrecht,VBO,5.500359,51.986727
Beatrixstraat,60,,,3921BR,Elst Ut,Rhenen,Utrecht,VBO,5.500212,51.986772
Beatrixstraat,62,,,3921BR,Elst Ut,Rhenen,Utrecht,VBO,5.500134,51.986797
Beatrixstraat,64,,,3921BR,Elst Ut,Rhenen,Utrecht,VBO,5.500056,51.986822
Beatrixstraat,66,,,3921BR,Elst Ut,Rhenen,Utrecht,VBO,5.499977,51.986848
Beatrixstraat,70,,,3921BR,Elst Ut,Rhenen,Utrecht,VBO,5.498875,51.987182
Beatrixstraat,72,,,3921BR,Elst Ut,Rhenen,Utrecht,VBO,5.498678,51.987251
Beatrixstraat,74,,,3921BR,Elst Ut,Rhenen,Utrecht,VBO,5.498591,51.987277
Beatrixstraat,76,,,3921BR,Elst Ut,Rhenen,Utrecht,VBO,5.498406,51.987326
Beatrixstraat,78,,,3921BR,Elst Ut,Rhenen,Utrecht,VBO,5.498317,51.987354
Beatrixstraat,80,,,3921BR,Elst Ut,Rhenen,Utrecht,VBO,5.498160,51.987406
Beatrixstraat,82,,,3921BR,Elst Ut,Rhenen,Utrecht,VBO,5.498075,51.987432
Beatrixstraat,84,,,3921BR,Elst Ut,Rhenen,Utrecht,VBO,5.497937,51.987474
Beatrixstraat,86,,,3921BR,Elst Ut,Rhenen,Utrecht,VBO,5.497854,51.987499
Christinastraat,1,,,3921BS,Elst Ut,Rhenen,Utrecht,VBO,5.502951,51.986270
Christinastraat,3,,,3921BS,Elst Ut,Rhenen,Utrecht,VBO,5.502869,51.986296
Christinastraat,5,,,3921BS,Elst Ut,Rhenen,Utrecht,VBO,5.502702,51.986350
Christinastraat,7,,,3921BS,Elst Ut,Rhenen,Utrecht,VBO,5.502622,51.986376
Christinastraat,9,,,3921BS,Elst Ut,Rhenen,Utrecht,VBO,5.502457,51.986429
Christinastraat,11,,,3921BS,Elst Ut,Rhenen,Utrecht,VBO,5.502373,51.986455
Christinastraat,13,,,3921BS,Elst Ut,Rhenen,Utrecht,VBO,5.502212,51.986507
Christinastraat,15,,,3921BS,Elst Ut,Rhenen,Utrecht,VBO,5.502128,51.986534
Christinastraat,17,,,3921BS,Elst Ut,Rhenen,Utrecht,VBO,5.501970,51.986575
Christinastraat,19,,,3921BS,Elst Ut,Rhenen,Utrecht,VBO,5.501886,51.986602
Christinastraat,21,,,3921BS,Elst Ut,Rhenen,Utrecht,VBO,5.501739,51.986649
Christinastraat,23,,,3921BS,Elst Ut,Rhenen,Utrecht,VBO,5.501652,51.986675
Christinastraat,25,,,3921BS,Elst Ut,Rhenen,Utrecht,VBO,5.501502,51.986723
Christinastraat,27,,,3921BS,Elst Ut,Rhenen,Utrecht,VBO,5.501419,51.986750
Christinastraat,29,,,3921BS,Elst Ut,Rhenen,Utrecht,VBO,5.501267,51.986806
Christinastraat,31,,,3921BS,Elst Ut,Rhenen,Utrecht,VBO,5.501187,51.986833
Christinastraat,33,,,3921BS,Elst Ut,Rhenen,Utrecht,VBO,5.500856,51.986965
Christinastraat,35,,,3921BS,Elst Ut,Rhenen,Utrecht,VBO,5.500774,51.986991
Christinastraat,37,,,3921BS,Elst Ut,Rhenen,Utrecht,VBO,5.500693,51.987017
Christinastraat,39,,,3921BS,Elst Ut,Rhenen,Utrecht,VBO,5.500611,51.987043
Christinastraat,41,,,3921BS,Elst Ut,Rhenen,Utrecht,VBO,5.500477,51.987085
Christinastraat,43,,,3921BS,Elst Ut,Rhenen,Utrecht,VBO,5.500394,51.987112
Christinastraat,45,,,3921BS,Elst Ut,Rhenen,Utrecht,VBO,5.500311,51.987138
Christinastraat,47,,,3921BS,Elst Ut,Rhenen,Utrecht,VBO,5.500228,51.987164
Christinastraat,2,,,3921BT,Elst Ut,Rhenen,Utrecht,VBO,5.502800,51.986707
Christinastraat,4,,,3921BT,Elst Ut,Rhenen,Utrecht,VBO,5.502814,51.986745
Christinastraat,6,,,3921BT,Elst Ut,Rhenen,Utrecht,VBO,5.502829,51.986783
Christinastraat,8,,,3921BT,Elst Ut,Rhenen,Utrecht,VBO,5.502843,51.986821
Christinastraat,10,,,3921BT,Elst Ut,Rhenen,Utrecht,VBO,5.502857,51.986859
Christinastraat,12,,,3921BT,Elst Ut,Rhenen,Utrecht,VBO,5.502871,51.986897
Christinastraat,14,,,3921BT,Elst Ut,Rhenen,Utrecht,VBO,5.502885,51.986935
Christinastraat,16,,,3921BT,Elst Ut,Rhenen,Utrecht,VBO,5.502900,51.986973
Christinastraat,18,,,3921BT,Elst Ut,Rhenen,Utrecht,VBO,5.502914,51.987011
Christinastraat,20,,,3921BT,Elst Ut,Rhenen,Utrecht,VBO,5.502928,51.987049
Christinastraat,22,,,3921BT,Elst Ut,Rhenen,Utrecht,VBO,5.502942,51.987087
Christinastraat,24,,,3921BV,Elst Ut,Rhenen,Utrecht,VBO,5.502231,51.986875
Christinastraat,26,,,3921BV,Elst Ut,Rhenen,Utrecht,VBO,5.502260,51.986910
Christinastraat,28,,,3921BV,Elst Ut,Rhenen,Utrecht,VBO,5.502289,51.986944
Christinastraat,30,,,3921BV,Elst Ut,Rhenen,Utrecht,VBO,5.502318,51.986979
Christinastraat,32,,,3921BV,Elst Ut,Rhenen,Utrecht,VBO,5.502347,51.987014
Christinastraat,34,,,3921BV,Elst Ut,Rhenen,Utrecht,VBO,5.502376,51.987049
Christinastraat,36,,,3921BV,Elst Ut,Rhenen,Utrecht,VBO,5.502405,51.987083
Christinastraat,38,,,3921BV,Elst Ut,Rhenen,Utrecht,VBO,5.502434,51.987118
Christinastraat,40,,,3921BV,Elst Ut,Rhenen,Utrecht,VBO,5.502463,51.987153
Christinastraat,42,,,3921BV,Elst Ut,Rhenen,Utrecht,VBO,5.502492,51.987187
Christinastraat,44,,,3921BV,Elst Ut,Rhenen,Utrecht,VBO,5.502521,51.987222
Christinastraat,46,,,3921BV,Elst Ut,Rhenen,Utrecht,VBO,5.501811,51.987010
Christinastraat,48,,,3921BV,Elst Ut,Rhenen,Utrecht,VBO,5.501841,51.987045
Christinastraat,50,,,3921BV,Elst Ut,Rhenen,Utrecht,VBO,5.501870,51.987080
Christinastraat,52,,,3921BV,Elst Ut,Rhenen,Utrecht,VBO,5.501900,51.987114
Christinastraat,54,,,3921BV,Elst Ut,Rhenen,Utrecht,VBO,5.501929,51.987149
Christinastraat,56,,,3921BV,Elst Ut,Rhenen,Utrecht,VBO,5.501959,51.987184
Christinastraat,58,,,3921BV,Elst Ut,Rhenen,Utrecht,VBO,5.501988,51.987219
Christinastraat,60,,,3921BV,Elst Ut,Rhenen,Utrecht,VBO,5.502017,51.987253
Christinastraat,62,,,3921BV,Elst Ut,Rhenen,Utrecht,VBO,5.502047,51.987288
Christinastraat,64,,,3921BV,Elst Ut,Rhenen,Utrecht,VBO,5.502076,51.987323
Christinastraat,66,,,3921BV,Elst Ut,Rhenen,Utrecht,VBO,5.502106,51.987357
Christinastraat,68,,,3921BW,Elst Ut,Rhenen,Utrecht,VBO,5.501399,51.987144
Christinastraat,70,,,3921BW,Elst Ut,Rhenen,Utrecht,VBO,5.501428,51.987178
Christinastraat,72,,,3921BW,Elst Ut,Rhenen,Utrecht,VBO,5.501457,51.987213
Christinastraat,74,,,3921BW,Elst Ut,Rhenen,Utrecht,VBO,5.501486,51.987248
Christinastraat,76,,,3921BW,Elst Ut,Rhenen,Utrecht,VBO,5.501515,51.987282
Christinastraat,78,,,3921BW,Elst Ut,Rhenen,Utrecht,VBO,5.501544,51.987317
Christinastraat,80,,,3921BW,Elst Ut,Rhenen,Utrecht,VBO,5.501573,51.987352
Christinastraat,82,,,3921BW,Elst Ut,Rhenen,Utrecht,VBO,5.501602,51.987387
Christinastraat,84,,,3921BW,Elst Ut,Rhenen,Utrecht,VBO,5.501630,51.987421
Christinastraat,86,,,3921BW,Elst Ut,Rhenen,Utrecht,VBO,5.501659,51.987456
Christinastraat,88,,,3921BW,Elst Ut,Rhenen,Utrecht,VBO,5.501688,51.987491
Christinastraat,90,,,3921BW,Elst Ut,Rhenen,Utrecht,VBO,5.500973,51.987280
Christinastraat,92,,,3921BW,Elst Ut,Rhenen,Utrecht,VBO,5.501003,51.987314
Christinastraat,94,,,3921BW,Elst Ut,Rhenen,Utrecht,VBO,5.501032,51.987349
Christinastraat,96,,,3921BW,Elst Ut,Rhenen,Utrecht,VBO,5.501061,51.987384
Christinastraat,98,,,3921BW,Elst Ut,Rhenen,Utrecht,VBO,5.501090,51.987419
Christinastraat,100,,,3921BW,Elst Ut,Rhenen,Utrecht,VBO,5.501119,51.987454
Christinastraat,102,,,3921BW,Elst Ut,Rhenen,Utrecht,VBO,5.501149,51.987489
Christinastraat,104,,,3921BW,Elst Ut,Rhenen,Utrecht,VBO,5.501178,51.987523
Christinastraat,106,,,3921BW,Elst Ut,Rhenen,Utrecht,VBO,5.501207,51.987558
Christinastraat,108,,,3921BW,Elst Ut,Rhenen,Utrecht,VBO,5.501236,51.987593
Christinastraat,110,,,3921BW,Elst Ut,Rhenen,Utrecht,VBO,5.501266,51.987628
Schoolweg,1,,,3921CA,Elst Ut,Rhenen,Utrecht,VBO,5.495503,51.985250
Schoolweg,3,,,3921CA,Elst Ut,Rhenen,Utrecht,VBO,5.495534,51.985304
Schoolweg,5,,,3921CA,Elst Ut,Rhenen,Utrecht,VBO,5.495601,51.985426
Schoolweg,7,,,3921CA,Elst Ut,Rhenen,Utrecht,VBO,5.495670,51.985530
Schoolweg,13,,,3921CA,Elst Ut,Rhenen,Utrecht,VBO,5.495786,51.985619
Schoolweg,15,,,3921CA,Elst Ut,Rhenen,Utrecht,VBO,5.495819,51.985673
Schoolweg,17,,,3921CA,Elst Ut,Rhenen,Utrecht,VBO,5.495849,51.985795
Schoolweg,19,,,3921CA,Elst Ut,Rhenen,Utrecht,VBO,5.495884,51.985849
Schoolweg,33,,,3921CA,Elst Ut,Rhenen,Utrecht,VBO,5.496321,51.986031
Schoolweg,35,,,3921CA,Elst Ut,Rhenen,Utrecht,VBO,5.496440,51.985972
Schoolweg,37,,,3921CA,Elst Ut,Rhenen,Utrecht,VBO,5.496524,51.986116
Schoolweg,39,,,3921CA,Elst Ut,Rhenen,Utrecht,VBO,5.496557,51.986168
Schoolweg,41,,,3921CB,Elst Ut,Rhenen,Utrecht,VBO,5.496589,51.986220
Schoolweg,43,,,3921CB,Elst Ut,Rhenen,Utrecht,VBO,5.496622,51.986271
Schoolweg,45,,,3921CB,Elst Ut,Rhenen,Utrecht,VBO,5.496654,51.986323
Schoolweg,47,,,3921CB,Elst Ut,Rhenen,Utrecht,VBO,5.496713,51.986414
Schoolweg,49,,,3921CB,Elst Ut,Rhenen,Utrecht,VBO,5.496746,51.986466
Schoolweg,51,,,3921CB,Elst Ut,Rhenen,Utrecht,VBO,5.496779,51.986518
Schoolweg,53,,,3921CB,Elst Ut,Rhenen,Utrecht,VBO,5.496812,51.986569
Schoolweg,55,,,3921CB,Elst Ut,Rhenen,Utrecht,VBO,5.496844,51.986621
Schoolweg,57,,,3921CB,Elst Ut,Rhenen,Utrecht,VBO,5.496834,51.986753
Schoolweg,59,,,3921CB,Elst Ut,Rhenen,Utrecht,VBO,5.496936,51.986868
Schoolweg,61,,,3921CC,Elst Ut,Rhenen,Utrecht,VBO,5.496982,51.986979
Schoolweg,63,,,3921CC,Elst Ut,Rhenen,Utrecht,VBO,5.497050,51.987087
Schoolweg,65,,,3921CC,Elst Ut,Rhenen,Utrecht,VBO,5.497096,51.987196
Schoolweg,67,,,3921CC,Elst Ut,Rhenen,Utrecht,VBO,5.497219,51.987299
Schoolweg,69,,,3921CC,Elst Ut,Rhenen,Utrecht,VBO,5.497265,51.987417
Schoolweg,71,,,3921CC,Elst Ut,Rhenen,Utrecht,VBO,5.497397,51.987524
Schoolweg,75,,,3921CC,Elst Ut,Rhenen,Utrecht,VBO,5.497808,51.987884
Schoolweg,77,,,3921CC,Elst Ut,Rhenen,Utrecht,VBO,5.497896,51.987898
Schoolweg,79,,,3921CC,Elst Ut,Rhenen,Utrecht,VBO,5.497984,51.987912
Schoolweg,81,,,3921CC,Elst Ut,Rhenen,Utrecht,VBO,5.498072,51.987927
Schoolweg,83,,,3921CC,Elst Ut,Rhenen,Utrecht,VBO,5.498176,51.987947
Schoolweg,85,,,3921CC,Elst Ut,Rhenen,Utrecht,VBO,5.498267,51.987954
Schoolweg,87,,,3921CC,Elst Ut,Rhenen,Utrecht,VBO,5.498336,51.987969
Schoolweg,89,,,3921CC,Elst Ut,Rhenen,Utrecht,VBO,5.498424,51.987983
Schoolweg,91,,,3921CC,Elst Ut,Rhenen,Utrecht,VBO,5.498512,51.987997
Schoolweg,93,,,3921CD,Elst Ut,Rhenen,Utrecht,VBO,5.498600,51.988011
Schoolweg,95,,,3921CD,Elst Ut,Rhenen,Utrecht,VBO,5.498803,51.988051
Schoolweg,97,,,3921CD,Elst Ut,Rhenen,Utrecht,VBO,5.498890,51.988066
Schoolweg,99,,,3921CD,Elst Ut,Rhenen,Utrecht,VBO,5.498976,51.988081
Schoolweg,101,,,3921CD,Elst Ut,Rhenen,Utrecht,VBO,5.499063,51.988096
Schoolweg,103,,,3921CD,Elst Ut,Rhenen,Utrecht,VBO,5.499141,51.988112
Schoolweg,105,,,3921CD,Elst Ut,Rhenen,Utrecht,VBO,5.499230,51.988123
Schoolweg,107,,,3921CD,Elst Ut,Rhenen,Utrecht,VBO,5.499324,51.988140
Schoolweg,109,,,3921CD,Elst Ut,Rhenen,Utrecht,VBO,5.499411,51.988155
Schoolweg,111,,,3921CD,Elst Ut,Rhenen,Utrecht,VBO,5.499497,51.988170
Schoolweg,113,,,3921CD,Elst Ut,Rhenen,Utrecht,VBO,5.499584,51.988185
Schoolweg,125,,,3921CD,Elst Ut,Rhenen,Utrecht,VBO,5.499878,51.988144
Schoolweg,2,A,,3921CE,Elst Ut,Rhenen,Utrecht,STA,5.495800,51.985217
Schoolweg,2,B,,3921CE,Elst Ut,Rhenen,Utrecht,VBO,5.496322,51.985154
Schoolweg,2,C,,3921CE,Elst Ut,Rhenen,Utrecht,VBO,5.496084,51.985183
Schoolweg,2,,,3921CE,Elst Ut,Rhenen,Utrecht,VBO,5.496053,51.985128
Schoolweg,6,,,3921CE,Elst Ut,Rhenen,Utrecht,VBO,5.496628,51.985449
Schoolweg,8,,,3921CE,Elst Ut,Rhenen,Utrecht,VBO,5.496680,51.985530
Schoolweg,10,,,3921CE,Elst Ut,Rhenen,Utrecht,VBO,5.496727,51.985611
Schoolweg,12,,,3921CE,Elst Ut,Rhenen,Utrecht,VBO,5.496801,51.985769
Schoolweg,14,,,3921CE,Elst Ut,Rhenen,Utrecht,VBO,5.496939,51.985966
Schoolweg,16,,,3921CE,Elst Ut,Rhenen,Utrecht,VBO,5.496978,51.986024
Schoolweg,18,,,3921CE,Elst Ut,Rhenen,Utrecht,VBO,5.497041,51.986125
Schoolweg,20,,,3921CE,Elst Ut,Rhenen,Utrecht,VBO,5.497075,51.986183
Schoolweg,22,,,3921CE,Elst Ut,Rhenen,Utrecht,VBO,5.497140,51.986282
Schoolweg,24,,,3921CE,Elst Ut,Rhenen,Utrecht,VBO,5.497176,51.986340
Schoolweg,26,,,3921CE,Elst Ut,Rhenen,Utrecht,VBO,5.497244,51.986439
Schoolweg,28,,,3921CE,Elst Ut,Rhenen,Utrecht,VBO,5.497281,51.986498
Schoolweg,30,,,3921CE,Elst Ut,Rhenen,Utrecht,VBO,5.497600,51.986941
Schoolweg,32,,,3921CE,Elst Ut,Rhenen,Utrecht,VBO,5.497635,51.986997
Schoolweg,34,,,3921CE,Elst Ut,Rhenen,Utrecht,VBO,5.497669,51.987053
Schoolweg,36,,,3921CE,Elst Ut,Rhenen,Utrecht,VBO,5.497704,51.987109
Schoolweg,38,,,3921CE,Elst Ut,Rhenen,Utrecht,VBO,5.497739,51.987166
Schoolweg,40,,,3921CE,Elst Ut,Rhenen,Utrecht,VBO,5.497773,51.987222
Schoolweg,58,,,3921CG,Elst Ut,Rhenen,Utrecht,VBO,5.498302,51.987651
Schoolweg,60,,,3921CG,Elst Ut,Rhenen,Utrecht,VBO,5.498397,51.987667
Schoolweg,62,,,3921CG,Elst Ut,Rhenen,Utrecht,VBO,5.498567,51.987714
Schoolweg,64,,,3921CG,Elst Ut,Rhenen,Utrecht,VBO,5.498656,51.987728
Schoolweg,66,,,3921CG,Elst Ut,Rhenen,Utrecht,VBO,5.498744,51.987743
Schoolweg,68,,,3921CG,Elst Ut,Rhenen,Utrecht,VBO,5.498828,51.987763
Schoolweg,70,,,3921CG,Elst Ut,Rhenen,Utrecht,VBO,5.498918,51.987773
Schoolweg,72,,,3921CG,Elst Ut,Rhenen,Utrecht,VBO,5.499008,51.987787
Schoolweg,74,,,3921CG,Elst Ut,Rhenen,Utrecht,VBO,5.499096,51.987801
Schoolweg,76,,,3921CG,Elst Ut,Rhenen,Utrecht,VBO,5.499184,51.987816
Schoolweg,78,,,3921CG,Elst Ut,Rhenen,Utrecht,VBO,5.499272,51.987830
Schoolweg,82,,,3921CG,Elst Ut,Rhenen,Utrecht,VBO,5.499457,51.987825
Schoolweg,86,,,3921CG,Elst Ut,Rhenen,Utrecht,VBO,5.499706,51.987881
Schoolweg,88,,,3921CG,Elst Ut,Rhenen,Utrecht,VBO,5.499794,51.987884
Schoolweg,90,,,3921CH,Elst Ut,Rhenen,Utrecht,VBO,5.499882,51.987887
Schoolweg,92,,,3921CH,Elst Ut,Rhenen,Utrecht,VBO,5.499969,51.987890
Schoolweg,94,,,3921CH,Elst Ut,Rhenen,Utrecht,VBO,5.500057,51.987893
Schoolweg,96,,,3921CH,Elst Ut,Rhenen,Utrecht,VBO,5.500223,51.987900
Schoolweg,98,,,3921CH,Elst Ut,Rhenen,Utrecht,VBO,5.500308,51.987904
Schoolweg,100,,,3921CH,Elst Ut,Rhenen,Utrecht,VBO,5.500393,51.987907
Schoolweg,102,,,3921CH,Elst Ut,Rhenen,Utrecht,VBO,5.500477,51.987910
Schoolweg,104,,,3921CH,Elst Ut,Rhenen,Utrecht,VBO,5.500562,51.987913
Schoolweg,106,,,3921CH,Elst Ut,Rhenen,Utrecht,VBO,5.500793,51.987937
Schoolweg,108,,,3921CH,Elst Ut,Rhenen,Utrecht,VBO,5.500878,51.987957
Schoolweg,110,,,3921CH,Elst Ut,Rhenen,Utrecht,VBO,5.500964,51.987978
Schoolweg,112,,,3921CH,Elst Ut,Rhenen,Utrecht,VBO,5.501049,51.987999
Schoolweg,114,,,3921CH,Elst Ut,Rhenen,Utrecht,VBO,5.501134,51.988019
Heideweg,1,,,3921CJ,Elst Ut,Rhenen,Utrecht,VBO,5.503354,51.984762
Heideweg,3,,,3921CJ,Elst Ut,Rhenen,Utrecht,VBO,5.503421,51.984738
Heideweg,5,,,3921CJ,Elst Ut,Rhenen,Utrecht,VBO,5.503489,51.984714
Heideweg,7,,,3921CJ,Elst Ut,Rhenen,Utrecht,VBO,5.503557,51.984691
Heideweg,9,,,3921CJ,Elst Ut,Rhenen,Utrecht,VBO,5.505162,51.984682
Heideweg,11,,,3921CJ,Elst Ut,Rhenen,Utrecht,VBO,5.505488,51.984479
Heideweg,13,,,3921CJ,Elst Ut,Rhenen,Utrecht,VBO,5.505555,51.984455
Heideweg,15,,,3921CJ,Elst Ut,Rhenen,Utrecht,VBO,5.505292,51.984800
Heideweg,17,,,3921CJ,Elst Ut,Rhenen,Utrecht,VBO,5.505335,51.984839
Heideweg,74,,,3921CK,Elst Ut,Rhenen,Utrecht,VBO,5.504610,51.984179
Heideweg,76,,,3921CK,Elst Ut,Rhenen,Utrecht,VBO,5.504591,51.984145
Heideweg,78,,,3921CK,Elst Ut,Rhenen,Utrecht,VBO,5.504573,51.984112
Heideweg,80,,,3921CK,Elst Ut,Rhenen,Utrecht,VBO,5.504554,51.984078
Heideweg,82,,,3921CK,Elst Ut,Rhenen,Utrecht,VBO,5.504535,51.984045
Heideweg,84,,,3921CK,Elst Ut,Rhenen,Utrecht,VBO,5.504516,51.984011
Heideweg,86,,,3921CK,Elst Ut,Rhenen,Utrecht,VBO,5.504497,51.983977
Heideweg,88,,,3921CK,Elst Ut,Rhenen,Utrecht,VBO,5.504479,51.983944
Heideweg,90,,,3921CK,Elst Ut,Rhenen,Utrecht,VBO,5.504460,51.983910
Heideweg,92,,,3921CK,Elst Ut,Rhenen,Utrecht,VBO,5.504441,51.983876
Heideweg,94,,,3921CK,Elst Ut,Rhenen,Utrecht,VBO,5.504422,51.983843
Heideweg,96,,,3921CK,Elst Ut,Rhenen,Utrecht,VBO,5.504404,51.983809
Heideweg,98,,,3921CK,Elst Ut,Rhenen,Utrecht,VBO,5.504385,51.983776
Heideweg,100,,,3921CK,Elst Ut,Rhenen,Utrecht,VBO,5.504366,51.983742
Heideweg,102,,,3921CK,Elst Ut,Rhenen,Utrecht,VBO,5.504347,51.983708
Heideweg,104,,,3921CK,Elst Ut,Rhenen,Utrecht,VBO,5.504859,51.983602
Heideweg,106,,,3921CK,Elst Ut,Rhenen,Utrecht,VBO,5.504878,51.983636
Heideweg,108,,,3921CK,Elst Ut,Rhenen,Utrecht,VBO,5.504897,51.983669
Heideweg,110,,,3921CK,Elst Ut,Rhenen,Utrecht,VBO,5.504915,51.983703
Heideweg,112,,,3921CK,Elst Ut,Rhenen,Utrecht,VBO,5.504934,51.983736
Heideweg,114,,,3921CK,Elst Ut,Rhenen,Utrecht,VBO,5.504952,51.983769
Heideweg,116,,,3921CK,Elst Ut,Rhenen,Utrecht,VBO,5.504971,51.983803
Heideweg,118,,,3921CK,Elst Ut,Rhenen,Utrecht,VBO,5.504989,51.983836
Heideweg,120,,,3921CK,Elst Ut,Rhenen,Utrecht,VBO,5.505008,51.983869
Heideweg,122,,,3921CK,Elst Ut,Rhenen,Utrecht,VBO,5.505027,51.983903
Heideweg,124,,,3921CK,Elst Ut,Rhenen,Utrecht,VBO,5.505045,51.983936
Heideweg,126,,,3921CK,Elst Ut,Rhenen,Utrecht,VBO,5.505064,51.983970
Heideweg,128,,,3921CK,Elst Ut,Rhenen,Utrecht,VBO,5.505082,51.984003
Heideweg,130,,,3921CK,Elst Ut,Rhenen,Utrecht,VBO,5.505101,51.984036
Heideweg,132,,,3921CK,Elst Ut,Rhenen,Utrecht,VBO,5.505120,51.984070
Heideweg,134,,,3921CK,Elst Ut,Rhenen,Utrecht,VBO,5.505571,51.983981
Heideweg,136,,,3921CK,Elst Ut,Rhenen,Utrecht,VBO,5.505553,51.983947
Heideweg,138,,,3921CK,Elst Ut,Rhenen,Utrecht,VBO,5.505534,51.983914
Heideweg,140,,,3921CK,Elst Ut,Rhenen,Utrecht,VBO,5.505516,51.983880
Heideweg,142,,,3921CK,Elst Ut,Rhenen,Utrecht,VBO,5.505498,51.983846
Heideweg,144,,,3921CK,Elst Ut,Rhenen,Utrecht,VBO,5.505479,51.983813
Heideweg,146,,,3921CK,Elst Ut,Rhenen,Utrecht,VBO,5.505461,51.983779
Heideweg,148,,,3921CK,Elst Ut,Rhenen,Utrecht,VBO,5.505442,51.983746
Heideweg,150,,,3921CK,Elst Ut,Rhenen,Utrecht,VBO,5.505424,51.983712
Heideweg,152,,,3921CK,Elst Ut,Rhenen,Utrecht,VBO,5.505406,51.983678
Heideweg,154,,,3921CK,Elst Ut,Rhenen,Utrecht,VBO,5.505387,51.983645
Heideweg,156,,,3921CK,Elst Ut,Rhenen,Utrecht,VBO,5.505369,51.983611
Heideweg,158,,,3921CK,Elst Ut,Rhenen,Utrecht,VBO,5.505351,51.983577
Heideweg,160,,,3921CK,Elst Ut,Rhenen,Utrecht,VBO,5.505332,51.983544
Heideweg,162,,,3921CK,Elst Ut,Rhenen,Utrecht,VBO,5.505314,51.983510
Heideweg,2,,,3921CL,Elst Ut,Rhenen,Utrecht,VBO,5.503180,51.984439
Heideweg,4,,,3921CL,Elst Ut,Rhenen,Utrecht,VBO,5.503160,51.984399
Heideweg,6,,,3921CL,Elst Ut,Rhenen,Utrecht,VBO,5.503140,51.984359
Heideweg,8,,,3921CL,Elst Ut,Rhenen,Utrecht,VBO,5.503119,51.984319
Heideweg,10,,,3921CL,Elst Ut,Rhenen,Utrecht,VBO,5.503100,51.984279
Heideweg,12,,,3921CL,Elst Ut,Rhenen,Utrecht,VBO,5.503080,51.984239
Heideweg,14,,,3921CL,Elst Ut,Rhenen,Utrecht,VBO,5.503060,51.984199
Heideweg,16,,,3921CL,Elst Ut,Rhenen,Utrecht,VBO,5.503039,51.984159
Heideweg,18,,,3921CL,Elst Ut,Rhenen,Utrecht,VBO,5.503019,51.984119
Heideweg,20,,,3921CL,Elst Ut,Rhenen,Utrecht,VBO,5.502999,51.984079
Heideweg,22,,,3921CL,Elst Ut,Rhenen,Utrecht,VBO,5.502979,51.984038
Heideweg,24,,,3921CL,Elst Ut,Rhenen,Utrecht,VBO,5.502959,51.983998
Heideweg,26,,,3921CL,Elst Ut,Rhenen,Utrecht,VBO,5.503718,51.984377
Heideweg,28,,,3921CL,Elst Ut,Rhenen,Utrecht,VBO,5.503695,51.984338
Heideweg,30,,,3921CL,Elst Ut,Rhenen,Utrecht,VBO,5.503673,51.984298
Heideweg,32,,,3921CL,Elst Ut,Rhenen,Utrecht,VBO,5.503650,51.984259
Heideweg,34,,,3921CL,Elst Ut,Rhenen,Utrecht,VBO,5.503627,51.984219
Heideweg,36,,,3921CL,Elst Ut,Rhenen,Utrecht,VBO,5.503605,51.984179
Heideweg,38,,,3921CL,Elst Ut,Rhenen,Utrecht,VBO,5.503582,51.984140
Heideweg,40,,,3921CL,Elst Ut,Rhenen,Utrecht,VBO,5.503559,51.984100
Heideweg,42,,,3921CL,Elst Ut,Rhenen,Utrecht,VBO,5.503537,51.984061
Heideweg,44,,,3921CL,Elst Ut,Rhenen,Utrecht,VBO,5.503514,51.984021
Heideweg,45,,,3921CL,Elst Ut,Rhenen,Utrecht,VBO,5.502485,51.984118
Heideweg,46,,,3921CL,Elst Ut,Rhenen,Utrecht,VBO,5.503492,51.983982
Heideweg,48,,,3921CL,Elst Ut,Rhenen,Utrecht,VBO,5.503469,51.983942
Heideweg,50,,,3921CL,Elst Ut,Rhenen,Utrecht,VBO,5.503909,51.983807
Heideweg,52,,,3921CL,Elst Ut,Rhenen,Utrecht,VBO,5.503928,51.983848
Heideweg,54,,,3921CL,Elst Ut,Rhenen,Utrecht,VBO,5.503948,51.983889
Heideweg,56,,,3921CL,Elst Ut,Rhenen,Utrecht,VBO,5.503967,51.983929
Heideweg,58,,,3921CL,Elst Ut,Rhenen,Utrecht,VBO,5.503986,51.983970
Heideweg,60,,,3921CL,Elst Ut,Rhenen,Utrecht,VBO,5.504005,51.984011
Heideweg,62,,,3921CL,Elst Ut,Rhenen,Utrecht,VBO,5.504024,51.984051
Heideweg,64,,,3921CL,Elst Ut,Rhenen,Utrecht,VBO,5.504043,51.984092
Heideweg,66,,,3921CL,Elst Ut,Rhenen,Utrecht,VBO,5.504062,51.984133
Heideweg,68,,,3921CL,Elst Ut,Rhenen,Utrecht,VBO,5.504082,51.984173
Heideweg,70,,,3921CL,Elst Ut,Rhenen,Utrecht,VBO,5.504101,51.984214
Heideweg,72,,,3921CL,Elst Ut,Rhenen,Utrecht,VBO,5.504120,51.984254
Tabaksweg,2,,,3921CM,Elst Ut,Rhenen,Utrecht,VBO,5.496179,51.986106
Tabaksweg,3,,,3921CM,Elst Ut,Rhenen,Utrecht,VBO,5.495364,51.985839
Tabaksweg,4,,,3921CM,Elst Ut,Rhenen,Utrecht,VBO,5.496086,51.986133
Tabaksweg,5,,,3921CM,Elst Ut,Rhenen,Utrecht,VBO,5.494722,51.985873
Tabaksweg,6,,,3921CM,Elst Ut,Rhenen,Utrecht,VBO,5.495932,51.986179
Tabaksweg,7,,,3921CM,Elst Ut,Rhenen,Utrecht,VBO,5.495154,51.986069
Tabaksweg,8,,,3921CM,Elst Ut,Rhenen,Utrecht,VBO,5.495759,51.986247
Tabaksweg,10,,,3921CM,Elst Ut,Rhenen,Utrecht,VBO,5.495609,51.986292
Tabaksweg,33,,,3921CM,Elst Ut,Rhenen,Utrecht,VBO,5.494528,51.988021
Tabaksweg,35,,,3921CM,Elst Ut,Rhenen,Utrecht,VBO,5.494569,51.988075
Tabaksweg,37,,,3921CM,Elst Ut,Rhenen,Utrecht,VBO,5.494644,51.988165
Tabaksweg,39,,,3921CM,Elst Ut,Rhenen,Utrecht,VBO,5.494685,51.988219
Tabaksweg,41,,,3921CM,Elst Ut,Rhenen,Utrecht,VBO,5.494756,51.988306
Tabaksweg,43,,,3921CM,Elst Ut,Rhenen,Utrecht,VBO,5.494789,51.988350
Tabaksweg,45,,,3921CM,Elst Ut,Rhenen,Utrecht,VBO,5.495147,51.988751
Tabaksweg,47,,,3921CM,Elst Ut,Rhenen,Utrecht,VBO,5.495201,51.988819
Tabaksweg,49,,,3921CM,Elst Ut,Rhenen,Utrecht,VBO,5.495255,51.988886
Tabaksweg,51,,,3921CM,Elst Ut,Rhenen,Utrecht,VBO,5.495309,51.988953
Tabaksweg,53,,,3921CM,Elst Ut,Rhenen,Utrecht,VBO,5.495363,51.989021
Tabaksweg,55,,,3921CM,Elst Ut,Rhenen,Utrecht,VBO,5.495417,51.989088
Tabaksweg,70,,,3921CM,Elst Ut,Rhenen,Utrecht,VBO,5.495858,51.988581
Tabaksweg,72,,,3921CM,Elst Ut,Rhenen,Utrecht,VBO,5.495900,51.988902
Tabaksweg,74,,,3921CM,Elst Ut,Rhenen,Utrecht,VBO,5.495992,51.989028
Woudweg,1,A,,3921CN,Elst Ut,Rhenen,Utrecht,VBO,5.501465,51.983984
Woudweg,1,B,,3921CN,Elst Ut,Rhenen,Utrecht,VBO,5.501517,51.984035
Woudweg,1,,,3921CN,Elst Ut,Rhenen,Utrecht,VBO,5.501416,51.983928
Woudweg,3,,,3921CN,Elst Ut,Rhenen,Utrecht,VBO,5.501622,51.984104
Woudweg,5,,,3921CN,Elst Ut,Rhenen,Utrecht,VBO,5.501668,51.984153
Woudweg,7,,,3921CN,Elst Ut,Rhenen,Utrecht,VBO,5.501836,51.984313
Woudweg,9,,,3921CN,Elst Ut,Rhenen,Utrecht,VBO,5.501873,51.984385
Woudweg,11,,,3921CN,Elst Ut,Rhenen,Utrecht,VBO,5.501951,51.984457
Woudweg,13,A,,3921CN,Elst Ut,Rhenen,Utrecht,VBO,5.502011,51.984600
Woudweg,13,,,3921CN,Elst Ut,Rhenen,Utrecht,VBO,5.501993,51.984506
Woudweg,15,,,3921CN,Elst Ut,Rhenen,Utrecht,VBO,5.502447,51.984990
Woudweg,17,,,3921CN,Elst Ut,Rhenen,Utrecht,VBO,5.502480,51.985041
Woudweg,19,,,3921CN,Elst Ut,Rhenen,Utrecht,VBO,5.502512,51.985093
Woudweg,21,,,3921CN,Elst Ut,Rhenen,Utrecht,VBO,5.502566,51.985172
Woudweg,23,,,3921CN,Elst Ut,Rhenen,Utrecht,VBO,5.502597,51.985223
Woudweg,25,,,3921CN,Elst Ut,Rhenen,Utrecht,VBO,5.502628,51.985274
Woudweg,27,,,3921CN,Elst Ut,Rhenen,Utrecht,VBO,5.502659,51.985325
Woudweg,29,,,3921CN,Elst Ut,Rhenen,Utrecht,VBO,5.502708,51.985403
Woudweg,31,,,3921CN,Elst Ut,Rhenen,Utrecht,VBO,5.502741,51.985455
Woudweg,33,,,3921CN,Elst Ut,Rhenen,Utrecht,VBO,5.502774,51.985506
Woudweg,35,,,3921CN,Elst Ut,Rhenen,Utrecht,VBO,5.502807,51.985557
Woudweg,37,,,3921CP,Elst Ut,Rhenen,Utrecht,VBO,5.503136,51.986038
Woudweg,39,,,3921CP,Elst Ut,Rhenen,Utrecht,VBO,5.503271,51.986113
Woudweg,41,,,3921CP,Elst Ut,Rhenen,Utrecht,VBO,5.503326,51.986203
Woudweg,47,,,3921CP,Elst Ut,Rhenen,Utrecht,VBO,5.503513,51.986476
Woudweg,49,,,3921CP,Elst Ut,Rhenen,Utrecht,VBO,5.503759,51.986531
Woudweg,51,,,3921CP,Elst Ut,Rhenen,Utrecht,VBO,5.503913,51.986607
Woudweg,53,,,3921CP,Elst Ut,Rhenen,Utrecht,VBO,5.504057,51.986696
Woudweg,2,A,,3921CR,Elst Ut,Rhenen,Utrecht,VBO,5.501792,51.983634
Woudweg,2,B,,3921CR,Elst Ut,Rhenen,Utrecht,VBO,5.501819,51.983778
Woudweg,2,C,,3921CR,Elst Ut,Rhenen,Utrecht,VBO,5.501892,51.983852
Woudweg,2,,,3921CR,Elst Ut,Rhenen,Utrecht,VBO,5.502015,51.984010
Woudweg,4,,,3921CR,Elst Ut,Rhenen,Utrecht,VBO,5.502061,51.984061
Woudweg,6,,,3921CR,Elst Ut,Rhenen,Utrecht,VBO,5.502139,51.984157
Woudweg,8,,,3921CR,Elst Ut,Rhenen,Utrecht,VBO,5.502256,51.984234
Woudweg,10,,,3921CR,Elst Ut,Rhenen,Utrecht,VBO,5.502320,51.984307
Woudweg,12,,,3921CR,Elst Ut,Rhenen,Utrecht,VBO,5.502400,51.984432
Woudweg,14,,,3921CR,Elst Ut,Rhenen,Utrecht,VBO,5.502506,51.984550
Woudweg,16,,,3921CR,Elst Ut,Rhenen,Utrecht,VBO,5.502587,51.984637
Woudweg,22,,,3921CR,Elst Ut,Rhenen,Utrecht,VBO,5.502798,51.984841
Woudweg,24,,,3921CR,Elst Ut,Rhenen,Utrecht,VBO,5.502835,51.984892
Woudweg,26,A,,3921CR,Elst Ut,Rhenen,Utrecht,VBO,5.503129,51.985234
Woudweg,26,,,3921CR,Elst Ut,Rhenen,Utrecht,VBO,5.503033,51.985117
Woudweg,28,,,3921CR,Elst Ut,Rhenen,Utrecht,VBO,5.503222,51.985358
Woudweg,30,,,3921CS,Elst Ut,Rhenen,Utrecht,VBO,5.503270,51.985436
Woudweg,32,A,,3921CS,Elst Ut,Rhenen,Utrecht,VBO,5.503363,51.985623
Woudweg,32,,,3921CS,Elst Ut,Rhenen,Utrecht,VBO,5.503330,51.985541
Woudweg,34,A,,3921CS,Elst Ut,Rhenen,Utrecht,VBO,5.503572,51.985924
Woudweg,34,,,3921CS,Elst Ut,Rhenen,Utrecht,VBO,5.503480,51.985827
Woudweg,36,,,3921CS,Elst Ut,Rhenen,Utrecht,VBO,5.503682,51.986015
Woudweg,38,,,3921CS,Elst Ut,Rhenen,Utrecht,VBO,5.503748,51.986099
Woudweg,40,,,3921CS,Elst Ut,Rhenen,Utrecht,VBO,5.503836,51.986187
Woudweg,42,,,3921CS,Elst Ut,Rhenen,Utrecht,VBO,5.503989,51.986279
Woudweg,44,,,3921CS,Elst Ut,Rhenen,Utrecht,VBO,5.504169,51.986352
Woudweg,46,,,3921CS,Elst Ut,Rhenen,Utrecht,VBO,5.504372,51.986438
Woudweg,48,,,3921CS,Elst Ut,Rhenen,Utrecht,VBO,5.504589,51.986530
Woudweg,50,,,3921CS,Elst Ut,Rhenen,Utrecht,VBO,5.504773,51.986618
Koninginneweg,1,,,3921CT,Elst Ut,Rhenen,Utrecht,VBO,5.504990,51.984524
Koninginneweg,3,,,3921CT,Elst Ut,Rhenen,Utrecht,VBO,5.505033,51.984564
Koninginneweg,5,,,3921CT,Elst Ut,Rhenen,Utrecht,VBO,5.505076,51.984603
Koninginneweg,7,,,3921CT,Elst Ut,Rhenen,Utrecht,VBO,5.505119,51.984642
Koninginneweg,9,,,3921CT,Elst Ut,Rhenen,Utrecht,VBO,5.505420,51.984503
Koninginneweg,11,,,3921CT,Elst Ut,Rhenen,Utrecht,VBO,5.505205,51.984721
Koninginneweg,13,,,3921CT,Elst Ut,Rhenen,Utrecht,VBO,5.505249,51.984761
Koninginneweg,15,,,3921CT,Elst Ut,Rhenen,Utrecht,VBO,5.505622,51.984432
Koninginneweg,17,,,3921CT,Elst Ut,Rhenen,Utrecht,VBO,5.505690,51.984408
Koninginneweg,19,,,3921CT,Elst Ut,Rhenen,Utrecht,VBO,5.505495,51.984992
Koninginneweg,21,,,3921CT,Elst Ut,Rhenen,Utrecht,VBO,5.505422,51.985016
Koninginneweg,23,,,3921CT,Elst Ut,Rhenen,Utrecht,VBO,5.505349,51.985041
Koninginneweg,25,A,,3921CT,Elst Ut,Rhenen,Utrecht,VBO,5.505052,51.985110
Koninginneweg,25,B,,3921CT,Elst Ut,Rhenen,Utrecht,VBO,5.504980,51.985143
Koninginneweg,25,C,,3921CT,Elst Ut,Rhenen,Utrecht,VBO,5.504838,51.985195
Koninginneweg,25,D,,3921CT,Elst Ut,Rhenen,Utrecht,VBO,5.504749,51.985221
Koninginneweg,25,E,,3921CT,Elst Ut,Rhenen,Utrecht,VBO,5.504610,51.985261
Koninginneweg,25,F,,3921CT,Elst Ut,Rhenen,Utrecht,VBO,5.504507,51.985293
Koninginneweg,25,,,3921CT,Elst Ut,Rhenen,Utrecht,VBO,5.505277,51.985065
Koninginneweg,27,,,3921CT,Elst Ut,Rhenen,Utrecht,VBO,5.504903,51.985476
Koninginneweg,29,,,3921CT,Elst Ut,Rhenen,Utrecht,VBO,5.504937,51.985517
Koninginneweg,31,,,3921CT,Elst Ut,Rhenen,Utrecht,VBO,5.504972,51.985557
Koninginneweg,33,,,3921CT,Elst Ut,Rhenen,Utrecht,VBO,5.505007,51.985598
Koninginneweg,35,,,3921CT,Elst Ut,Rhenen,Utrecht,VBO,5.505042,51.985638
Koninginneweg,37,,,3921CT,Elst Ut,Rhenen,Utrecht,VBO,5.505077,51.985679
Koninginneweg,39,,,3921CT,Elst Ut,Rhenen,Utrecht,VBO,5.505111,51.985720
Koninginneweg,41,,,3921CT,Elst Ut,Rhenen,Utrecht,VBO,5.505146,51.985760
Koninginneweg,2,,,3921CV,Elst Ut,Rhenen,Utrecht,VBO,5.505640,51.984607
Koninginneweg,4,,,3921CV,Elst Ut,Rhenen,Utrecht,VBO,5.505678,51.984646
Koninginneweg,6,,,3921CV,Elst Ut,Rhenen,Utrecht,VBO,5.505717,51.984686
Koninginneweg,8,,,3921CV,Elst Ut,Rhenen,Utrecht,VBO,5.505755,51.984725
Koninginneweg,10,,,3921CV,Elst Ut,Rhenen,Utrecht,VBO,5.505793,51.984765
Koninginneweg,12,,,3921CV,Elst Ut,Rhenen,Utrecht,VBO,5.505832,51.984804
Koninginneweg,14,,,3921CV,Elst Ut,Rhenen,Utrecht,VBO,5.505870,51.984844
Koninginneweg,16,,,3921CV,Elst Ut,Rhenen,Utrecht,VBO,5.505908,51.984883
Koninginneweg,18,,,3921CV,Elst Ut,Rhenen,Utrecht,VBO,5.505946,51.984923
Koninginneweg,20,,,3921CV,Elst Ut,Rhenen,Utrecht,VBO,5.505985,51.984962
Koninginneweg,22,,,3921CV,Elst Ut,Rhenen,Utrecht,VBO,5.506042,51.985023
Koninginneweg,24,,,3921CV,Elst Ut,Rhenen,Utrecht,VBO,5.506084,51.985071
Koninginneweg,26,,,3921CV,Elst Ut,Rhenen,Utrecht,VBO,5.506126,51.985118
Koninginneweg,28,,,3921CV,Elst Ut,Rhenen,Utrecht,VBO,5.506168,51.985165
Koninginneweg,30,,,3921CV,Elst Ut,Rhenen,Utrecht,VBO,5.506061,51.985407
Koninginneweg,32,,,3921CV,Elst Ut,Rhenen,Utrecht,VBO,5.505897,51.985452
Koninginneweg,34,,,3921CV,Elst Ut,Rhenen,Utrecht,VBO,5.505818,51.985476
Koninginneweg,36,,,3921CV,Elst Ut,Rhenen,Utrecht,VBO,5.505739,51.985501
Koninginneweg,38,,,3921CV,Elst Ut,Rhenen,Utrecht,VBO,5.505504,51.985324
Koninginneweg,40,,,3921CV,Elst Ut,Rhenen,Utrecht,VBO,5.505429,51.985348
Koninginneweg,42,,,3921CV,Elst Ut,Rhenen,Utrecht,VBO,5.505354,51.985372
Koninginneweg,44,,,3921CV,Elst Ut,Rhenen,Utrecht,VBO,5.505279,51.985397
Koninginneweg,46,,,3921CV,Elst Ut,Rhenen,Utrecht,VBO,5.505490,51.985522
Koninginneweg,48,,,3921CV,Elst Ut,Rhenen,Utrecht,VBO,5.505533,51.985571
Koninginneweg,50,,,3921CV,Elst Ut,Rhenen,Utrecht,VBO,5.505577,51.985620
Prinsessenhof,1,,,3921CW,Elst Ut,Rhenen,Utrecht,VBO,5.503029,51.986534
Prinsessenhof,2,,,3921CW,Elst Ut,Rhenen,Utrecht,VBO,5.503448,51.986605
Prinsessenhof,3,,,3921CW,Elst Ut,Rhenen,Utrecht,VBO,5.503076,51.986649
Prinsessenhof,4,,,3921CW,Elst Ut,Rhenen,Utrecht,VBO,5.503542,51.986719
Prinsessenhof,5,,,3921CW,Elst Ut,Rhenen,Utrecht,VBO,5.503123,51.986764
Prinsessenhof,6,,,3921CW,Elst Ut,Rhenen,Utrecht,VBO,5.503636,51.986833
Prinsessenhof,7,,,3921CW,Elst Ut,Rhenen,Utrecht,VBO,5.503170,51.986880
Prinsessenhof,8,,,3921CW,Elst Ut,Rhenen,Utrecht,VBO,5.503849,51.986750
Prinsessenhof,9,,,3921CW,Elst Ut,Rhenen,Utrecht,VBO,5.503216,51.986995
De Kievit,1,,,3921CX,Elst Ut,Rhenen,Utrecht,VBO,5.494929,51.988531
De Kievit,2,,,3921CX,Elst Ut,Rhenen,Utrecht,VBO,5.494749,51.988885
De Kievit,3,,,3921CX,Elst Ut,Rhenen,Utrecht,VBO,5.494861,51.988550
De Kievit,4,,,3921CX,Elst Ut,Rhenen,Utrecht,VBO,5.494778,51.988925
De Kievit,5,,,3921CX,Elst Ut,Rhenen,Utrecht,VBO,5.494793,51.988569
De Kievit,6,,,3921CX,Elst Ut,Rhenen,Utrecht,VBO,5.494807,51.988966
De Kievit,7,,,3921CX,Elst Ut,Rhenen,Utrecht,VBO,5.494724,51.988588
De Kievit,8,,,3921CX,Elst Ut,Rhenen,Utrecht,VBO,5.494836,51.989006
De Kievit,9,,,3921CX,Elst Ut,Rhenen,Utrecht,VBO,5.494656,51.988607
De Kievit,10,,,3921CX,Elst Ut,Rhenen,Utrecht,VBO,5.494865,51.989047
De Kievit,11,,,3921CX,Elst Ut,Rhenen,Utrecht,VBO,5.494588,51.988625
De Kievit,12,,,3921CX,Elst Ut,Rhenen,Utrecht,VBO,5.494894,51.989087
De Kievit,13,,,3921CX,Elst Ut,Rhenen,Utrecht,VBO,5.494519,51.988644
De Kievit,14,,,3921CX,Elst Ut,Rhenen,Utrecht,VBO,5.494924,51.989128
De Kievit,15,,,3921CX,Elst Ut,Rhenen,Utrecht,VBO,5.494148,51.988851
De Kievit,16,,,3921CX,Elst Ut,Rhenen,Utrecht,VBO,5.494953,51.989168
De Kievit,17,,,3921CX,Elst Ut,Rhenen,Utrecht,VBO,5.494197,51.988917
De Kievit,18,,,3921CX,Elst Ut,Rhenen,Utrecht,VBO,5.494982,51.989208
De Kievit,19,,,3921CX,Elst Ut,Rhenen,Utrecht,VBO,5.494245,51.988982
De Kievit,20,,,3921CX,Elst Ut,Rhenen,Utrecht,VBO,5.493679,51.989529
De Kievit,21,,,3921CX,Elst Ut,Rhenen,Utrecht,VBO,5.494293,51.989048
De Kievit,22,,,3921CX,Elst Ut,Rhenen,Utrecht,VBO,5.493623,51.989459
De Kievit,23,,,3921CX,Elst Ut,Rhenen,Utrecht,VBO,5.494381,51.989138
De Kievit,24,,,3921CX,Elst Ut,Rhenen,Utrecht,VBO,5.493566,51.989388
De Kievit,25,,,3921CX,Elst Ut,Rhenen,Utrecht,VBO,5.494418,51.989184
De Kievit,26,,,3921CX,Elst Ut,Rhenen,Utrecht,VBO,5.493510,51.989318
De Kievit,27,,,3921CX,Elst Ut,Rhenen,Utrecht,VBO,5.494091,51.989297
De Kievit,28,,,3921CX,Elst Ut,Rhenen,Utrecht,VBO,5.493453,51.989248
De Kievit,29,,,3921CX,Elst Ut,Rhenen,Utrecht,VBO,5.494034,51.989234
De Kievit,30,,,3921CX,Elst Ut,Rhenen,Utrecht,VBO,5.493397,51.989178
De Kievit,31,,,3921CX,Elst Ut,Rhenen,Utrecht,VBO,5.493977,51.989170
De Kievit,32,,,3921CX,Elst Ut,Rhenen,Utrecht,VBO,5.493340,51.989108
De Kievit,33,,,3921CX,Elst Ut,Rhenen,Utrecht,VBO,5.493919,51.989106
De Kievit,34,,,3921CX,Elst Ut,Rhenen,Utrecht,VBO,5.493284,51.989038
De Kievit,35,,,3921CX,Elst Ut,Rhenen,Utrecht,VBO,5.493831,51.988999
De Kievit,36,,,3921CX,Elst Ut,Rhenen,Utrecht,VBO,5.493397,51.988805
De Kievit,37,,,3921CX,Elst Ut,Rhenen,Utrecht,VBO,5.493798,51.988951
De Kievit,38,,,3921CX,Elst Ut,Rhenen,Utrecht,VBO,5.493559,51.988724
De Kievit,40,,,3921CX,Elst Ut,Rhenen,Utrecht,VBO,5.493675,51.988689
De Kievit,42,,,3921CX,Elst Ut,Rhenen,Utrecht,VBO,5.493792,51.988655
De Kievit,44,,,3921CX,Elst Ut,Rhenen,Utrecht,VBO,5.493908,51.988621
De Kievit,46,,,3921CX,Elst Ut,Rhenen,Utrecht,VBO,5.494024,51.988587
De Kievit,48,,,3921CX,Elst Ut,Rhenen,Utrecht,VBO,5.494140,51.988553
Vissersweg,1,,,3921DA,Elst Ut,Rhenen,Utrecht,VBO,5.489190,51.986538
Vissersweg,3,,,3921DA,Elst Ut,Rhenen,Utrecht,VBO,5.489215,51.986626
Vissersweg,5,,,3921DA,Elst Ut,Rhenen,Utrecht,VBO,5.489354,51.986809
Vissersweg,7,,,3921DA,Elst Ut,Rhenen,Utrecht,VBO,5.489494,51.986934
Vissersweg,9,,,3921DA,Elst Ut,Rhenen,Utrecht,VBO,5.489562,51.987034
Vissersweg,11,,,3921DA,Elst Ut,Rhenen,Utrecht,VBO,5.489647,51.987143
Vissersweg,13,,,3921DA,Elst Ut,Rhenen,Utrecht,VBO,5.489664,51.987336
Vissersweg,17,,,3921DA,Elst Ut,Rhenen,Utrecht,VBO,5.489906,51.987563
Vissersweg,19,,,3921DA,Elst Ut,Rhenen,Utrecht,VBO,5.490185,51.987803
Vissersweg,21,,,3921DA,Elst Ut,Rhenen,Utrecht,VBO,5.490478,51.988106
Vissersweg,25,,,3921DA,Elst Ut,Rhenen,Utrecht,VBO,5.490958,51.988532
Vissersweg,27,,,3921DA,Elst Ut,Rhenen,Utrecht,VBO,5.491112,51.988727
Vissersweg,31,,,3921DA,Elst Ut,Rhenen,Utrecht,VBO,5.491460,51.989139
Vissersweg,33,,,3921DA,Elst Ut,Rhenen,Utrecht,VBO,5.491760,51.989455
Vissersweg,35,,,3921DA,Elst Ut,Rhenen,Utrecht,VBO,5.491944,51.989693
Vissersweg,37,,,3921DA,Elst Ut,Rhenen,Utrecht,VBO,5.492115,51.989929
Vissersweg,39,,,3921DA,Elst Ut,Rhenen,Utrecht,VBO,5.492150,51.990001
Vissersweg,41,,,3921DA,Elst Ut,Rhenen,Utrecht,VBO,5.492129,51.990184
Vissersweg,45,,,3921DA,Elst Ut,Rhenen,Utrecht,VBO,5.491960,51.990708
Vissersweg,47,,,3921DA,Elst Ut,Rhenen,Utrecht,VBO,5.491976,51.991271
Houweg,1,,,3921DB,Elst Ut,Rhenen,Utrecht,VBO,5.490512,51.986042
Houweg,2,A,,3921DB,Elst Ut,Rhenen,Utrecht,VBO,5.491323,51.986342
Houweg,2,,,3921DB,Elst Ut,Rhenen,Utrecht,VBO,5.491257,51.986334
Houweg,3,,,3921DB,Elst Ut,Rhenen,Utrecht,VBO,5.490530,51.986352
Houweg,4,,,3921DB,Elst Ut,Rhenen,Utrecht,VBO,5.491266,51.986515
Houweg,5,,,3921DB,Elst Ut,Rhenen,Utrecht,VBO,5.490594,51.986582
Houweg,6,,,3921DB,Elst Ut,Rhenen,Utrecht,VBO,5.491359,51.986735
Houweg,8,,,3921DB,Elst Ut,Rhenen,Utrecht,VBO,5.491439,51.986876
Houweg,9,,,3921DB,Elst Ut,Rhenen,Utrecht,VBO,5.490759,51.986868
Houweg,11,,,3921DB,Elst Ut,Rhenen,Utrecht,VBO,5.490842,51.987056
Houweg,13,,,3921DB,Elst Ut,Rhenen,Utrecht,VBO,5.490983,51.987257
Houweg,14,,,3921DB,Elst Ut,Rhenen,Utrecht,VBO,5.491888,51.987722
Houweg,16,,,3921DB,Elst Ut,Rhenen,Utrecht,VBO,5.492066,51.987858
Houweg,17,,,3921DB,Elst Ut,Rhenen,Utrecht,VBO,5.491395,51.987569
Houweg,18,,,3921DB,Elst Ut,Rhenen,Utrecht,VBO,5.492203,51.988001
Houweg,19,,,3921DB,Elst Ut,Rhenen,Utrecht,VBO,5.491439,51.987868
Houweg,20,,,3921DB,Elst Ut,Rhenen,Utrecht,VBO,5.492386,51.988107
Houweg,21,,,3921DB,Elst Ut,Rhenen,Utrecht,VBO,5.491700,51.988170
Houweg,22,,,3921DB,Elst Ut,Rhenen,Utrecht,VBO,5.492523,51.988361
Houweg,23,,,3921DB,Elst Ut,Rhenen,Utrecht,VBO,5.492048,51.988592
Houweg,24,,,3921DB,Elst Ut,Rhenen,Utrecht,VBO,5.492518,51.988508
Houweg,25,,,3921DB,Elst Ut,Rhenen,Utrecht,VBO,5.492200,51.988860
Houweg,26,,,3921DB,Elst Ut,Rhenen,Utrecht,VBO,5.492674,51.988667
Houweg,27,A,,3921DB,Elst Ut,Rhenen,Utrecht,VBO,5.492522,51.989320
Houweg,27,,,3921DB,Elst Ut,Rhenen,Utrecht,VBO,5.492403,51.989122
Houweg,28,,,3921DB,Elst Ut,Rhenen,Utrecht,VBO,5.492689,51.988802
Houweg,29,,,3921DB,Elst Ut,Rhenen,Utrecht,VBO,5.492617,51.989529
Houweg,30,,,3921DB,Elst Ut,Rhenen,Utrecht,VBO,5.492831,51.988964
Houweg,31,,,3921DB,Elst Ut,Rhenen,Utrecht,VBO,5.492808,51.989737
Houweg,32,,,3921DB,Elst Ut,Rhenen,Utrecht,VBO,5.492976,51.989172
Houweg,33,,,3921DB,Elst Ut,Rhenen,Utrecht,VBO,5.492924,51.989940
Houweg,34,,,3921DB,Elst Ut,Rhenen,Utrecht,VBO,5.493114,51.989326
Houweg,35,,,3921DB,Elst Ut,Rhenen,Utrecht,VBO,5.493049,51.990121
Houweg,36,,,3921DB,Elst Ut,Rhenen,Utrecht,VBO,5.493218,51.989471
Houweg,37,,,3921DB,Elst Ut,Rhenen,Utrecht,VBO,5.493126,51.990210
Houweg,38,,,3921DB,Elst Ut,Rhenen,Utrecht,VBO,5.493307,51.989613
Houweg,40,,,3921DB,Elst Ut,Rhenen,Utrecht,VBO,5.493430,51.989817
Houweg,42,,,3921DB,Elst Ut,Rhenen,Utrecht,VBO,5.493631,51.989759
Houweg,44,,,3921DB,Elst Ut,Rhenen,Utrecht,VBO,5.493866,51.989709
Paardenkop,2,A,,3921DC,Elst Ut,Rhenen,Utrecht,VBO,5.493344,51.991015
Paardenkop,2,,,3921DC,Elst Ut,Rhenen,Utrecht,VBO,5.493057,51.991066
Paardenkop,4,,,3921DC,Elst Ut,Rhenen,Utrecht,VBO,5.492759,51.991187
Paardenkop,5,,,3921DC,Elst Ut,Rhenen,Utrecht,VBO,5.493206,51.990478
Paardenkop,7,,,3921DC,Elst Ut,Rhenen,Utrecht,VBO,5.492865,51.990639
Paardenkop,8,,,3921DC,Elst Ut,Rhenen,Utrecht,VBO,5.492478,51.991378
Paardenkop,9,,,3921DC,Elst Ut,Rhenen,Utrecht,VBO,5.492530,51.990806
Paardenkop,10,,,3921DC,Elst Ut,Rhenen,Utrecht,VBO,5.492291,51.991628
Paardenkop,11,,,3921DC,Elst Ut,Rhenen,Utrecht,VBO,5.492301,51.991022
Paardenkop,12,,,3921DC,Elst Ut,Rhenen,Utrecht,VBO,5.491849,51.991607
Franseweg,1,A,,3921DD,Elst Ut,Rhenen,Utrecht,VBO,5.507621,51.985797
Franseweg,1,,,3921DD,Elst Ut,Rhenen,Utrecht,VBO,5.507713,51.985666
Franseweg,3,,,3921DD,Elst Ut,Rhenen,Utrecht,VBO,5.507399,51.985869
Franseweg,7,,,3921DD,Elst Ut,Rhenen,Utrecht,VBO,5.507250,51.985934
Franseweg,9,A,,3921DD,Elst Ut,Rhenen,Utrecht,VBO,5.507065,51.986034
Franseweg,9,,,3921DD,Elst Ut,Rhenen,Utrecht,VBO,5.507127,51.985980
Franseweg,11,A,,3921DD,Elst Ut,Rhenen,Utrecht,VBO,5.506807,51.986130
Franseweg,11,B,,3921DD,Elst Ut,Rhenen,Utrecht,VBO,5.506735,51.986165
Franseweg,11,,,3921DD,Elst Ut,Rhenen,Utrecht,VBO,5.506918,51.986061
Franseweg,15,,,3921DD,Elst Ut,Rhenen,Utrecht,VBO,5.506573,51.986257
Franseweg,17,,,3921DD,Elst Ut,Rhenen,Utrecht,VBO,5.506336,51.986303
Franseweg,19,,,3921DD,Elst Ut,Rhenen,Utrecht,VBO,5.506078,51.986309
Franseweg,23,,,3921DD,Elst Ut,Rhenen,Utrecht,VBO,5.505864,51.986467
Franseweg,25,A,,3921DD,Elst Ut,Rhenen,Utrecht,VBO,5.505497,51.986593
Franseweg,25,B,,3921DD,Elst Ut,Rhenen,Utrecht,VBO,5.505394,51.986615
Franseweg,25,,,3921DD,Elst Ut,Rhenen,Utrecht,VBO,5.505788,51.986460
Franseweg,27,,,3921DD,Elst Ut,Rhenen,Utrecht,VBO,5.505214,51.986730
Franseweg,31,,,3921DE,Elst Ut,Rhenen,Utrecht,VBO,5.504635,51.986921
Franseweg,33,,,3921DE,Elst Ut,Rhenen,Utrecht,VBO,5.504549,51.986950
Franseweg,35,,,3921DE,Elst Ut,Rhenen,Utrecht,VBO,5.504430,51.987003
Franseweg,37,,,3921DE,Elst Ut,Rhenen,Utrecht,VBO,5.504338,51.987037
Franseweg,39,,,3921DE,Elst Ut,Rhenen,Utrecht,VBO,5.504187,51.987076
Franseweg,41,,,3921DE,Elst Ut,Rhenen,Utrecht,VBO,5.504107,51.987105
Franseweg,43,,,3921DE,Elst Ut,Rhenen,Utrecht,VBO,5.503963,51.987153
Franseweg,45,,,3921DE,Elst Ut,Rhenen,Utrecht,VBO,5.503881,51.987181
Franseweg,47,,,3921DE,Elst Ut,Rhenen,Utrecht,VBO,5.503756,51.987236
Franseweg,49,,,3921DE,Elst Ut,Rhenen,Utrecht,VBO,5.503678,51.987265
Franseweg,51,,,3921DE,Elst Ut,Rhenen,Utrecht,VBO,5.503518,51.987300
Franseweg,53,,,3921DE,Elst Ut,Rhenen,Utrecht,VBO,5.503432,51.987328
Franseweg,55,A,,3921DE,Elst Ut,Rhenen,Utrecht,VBO,5.503162,51.987407
Franseweg,55,B,,3921DE,Elst Ut,Rhenen,Utrecht,VBO,5.502941,51.987454
Franseweg,55,,,3921DE,Elst Ut,Rhenen,Utrecht,VBO,5.503261,51.987398
Franseweg,57,,,3921DE,Elst Ut,Rhenen,Utrecht,VBO,5.502812,51.987525
Franseweg,61,,,3921DE,Elst Ut,Rhenen,Utrecht,VBO,5.502601,51.987570
Franseweg,63,,,3921DE,Elst Ut,Rhenen,Utrecht,VBO,5.502526,51.987592
Franseweg,65,A,,3921DE,Elst Ut,Rhenen,Utrecht,VBO,5.502243,51.987676
Franseweg,65,B,,3921DE,Elst Ut,Rhenen,Utrecht,VBO,5.502067,51.987743
Franseweg,65,,,3921DE,Elst Ut,Rhenen,Utrecht,VBO,5.502355,51.987647
Franseweg,67,A,,3921DE,Elst Ut,Rhenen,Utrecht,VBO,5.501739,51.987822
Franseweg,67,,,3921DE,Elst Ut,Rhenen,Utrecht,VBO,5.501893,51.987814
Franseweg,69,,,3921DE,Elst Ut,Rhenen,Utrecht,VBO,5.501548,51.987902
Franseweg,71,,,3921DE,Elst Ut,Rhenen,Utrecht,VBO,5.501382,51.987940
Franseweg,73,,,3921DG,Elst Ut,Rhenen,Utrecht,VBO,5.500513,51.988205
Franseweg,77,,,3921DG,Elst Ut,Rhenen,Utrecht,VBO,5.500224,51.988275
Franseweg,79,,,3921DG,Elst Ut,Rhenen,Utrecht,VBO,5.500097,51.988293
Franseweg,81,,,3921DG,Elst Ut,Rhenen,Utrecht,VBO,5.499995,51.988386
Franseweg,85,A,,3921DG,Elst Ut,Rhenen,Utrecht,VBO,5.499372,51.988542
Franseweg,85,,,3921DG,Elst Ut,Rhenen,Utrecht,VBO,5.499777,51.988416
Franseweg,87,A,,3921DG,Elst Ut,Rhenen,Utrecht,VBO,5.499174,51.988636
Franseweg,87,,,3921DG,Elst Ut,Rhenen,Utrecht,VBO,5.499323,51.988579
Franseweg,89,,,3921DG,Elst Ut,Rhenen,Utrecht,VBO,5.499101,51.988663
Franseweg,91,,,3921DG,Elst Ut,Rhenen,Utrecht,VBO,5.498878,51.988781
Franseweg,93,,,3921DG,Elst Ut,Rhenen,Utrecht,VBO,5.498716,51.988843
Franseweg,95,,,3921DG,Elst Ut,Rhenen,Utrecht,VBO,5.498527,51.988782
Franseweg,97,,,3921DG,Elst Ut,Rhenen,Utrecht,VBO,5.498345,51.988914
Franseweg,99,,,3921DG,Elst Ut,Rhenen,Utrecht,VBO,5.498280,51.988935
Franseweg,109,,,3921DG,Elst Ut,Rhenen,Utrecht,VBO,5.497626,51.989101
Franseweg,111,,,3921DG,Elst Ut,Rhenen,Utrecht,VBO,5.497353,51.989108
Franseweg,113,,,3921DG,Elst Ut,Rhenen,Utrecht,VBO,5.497133,51.989169
Franseweg,115,,,3921DG,Elst Ut,Rhenen,Utrecht,VBO,5.496937,51.989169
Franseweg,119,A,,3921DG,Elst Ut,Rhenen,Utrecht,VBO,5.496211,51.989321
Franseweg,127,,,3921DG,Elst Ut,Rhenen,Utrecht,VBO,5.495537,51.989414
Franseweg,129,,,3921DG,Elst Ut,Rhenen,Utrecht,VBO,5.495288,51.989438
Franseweg,131,,,3921DG,Elst Ut,Rhenen,Utrecht,VBO,5.495190,51.989469
Franseweg,133,,,3921DG,Elst Ut,Rhenen,Utrecht,VBO,5.494953,51.989554
Franseweg,135,,,3921DG,Elst Ut,Rhenen,Utrecht,VBO,5.494693,51.989586
Franseweg,137,,,3921DG,Elst Ut,Rhenen,Utrecht,VBO,5.494345,51.989630
Franseweg,2,,,3921DH,Elst Ut,Rhenen,Utrecht,VBO,5.508289,51.985859
Franseweg,4,,,3921DH,Elst Ut,Rhenen,Utrecht,VBO,5.508119,51.985946
Franseweg,6,,,3921DH,Elst Ut,Rhenen,Utrecht,VBO,5.507940,51.986109
Franseweg,8,,,3921DH,Elst Ut,Rhenen,Utrecht,VBO,5.507706,51.986146
Franseweg,10,,,3921DH,Elst Ut,Rhenen,Utrecht,VBO,5.507549,51.986164
Franseweg,12,,,3921DH,Elst Ut,Rhenen,Utrecht,VBO,5.507735,51.986583
Franseweg,14,,,3921DH,Elst Ut,Rhenen,Utrecht,VBO,5.507357,51.986245
Franseweg,16,,,3921DH,Elst Ut,Rhenen,Utrecht,VBO,5.507166,51.986320
Franseweg,18,,,3921DH,Elst Ut,Rhenen,Utrecht,VBO,5.507007,51.986351
Franseweg,20,,,3921DH,Elst Ut,Rhenen,Utrecht,VBO,5.506940,51.986375
Franseweg,24,,,3921DH,Elst Ut,Rhenen,Utrecht,VBO,5.506758,51.986493
Franseweg,26,A,,3921DH,Elst Ut,Rhenen,Utrecht,VBO,5.506290,51.986645
Franseweg,26,,,3921DH,Elst Ut,Rhenen,Utrecht,VBO,5.506473,51.986624
Franseweg,28,,,3921DH,Elst Ut,Rhenen,Utrecht,VBO,5.506167,51.986671
Franseweg,30,A,,3921DH,Elst Ut,Rhenen,Utrecht,VBO,5.505773,51.986820
Franseweg,30,,,3921DH,Elst Ut,Rhenen,Utrecht,VBO,5.506042,51.986760
Franseweg,32,,,3921DH,Elst Ut,Rhenen,Utrecht,VBO,5.505566,51.986890
Franseweg,34,,,3921DH,Elst Ut,Rhenen,Utrecht,VBO,5.505609,51.986958
Franseweg,36,,,3921DH,Elst Ut,Rhenen,Utrecht,VBO,5.505390,51.986911
Franseweg,38,,,3921DH,Elst Ut,Rhenen,Utrecht,VBO,5.505314,51.986938
Franseweg,40,,I,3921DH,Elst Ut,Rhenen,Utrecht,VBO,5.505034,51.987044
Franseweg,40,,,3921DH,Elst Ut,Rhenen,Utrecht,VBO,5.505036,51.987059
Franseweg,42,,I,3921DH,Elst Ut,Rhenen,Utrecht,VBO,5.504955,51.987071
Franseweg,42,,,3921DH,Elst Ut,Rhenen,Utrecht,VBO,5.504955,51.987086
Franseweg,44,A,,3921DJ,Elst Ut,Rhenen,Utrecht,VBO,5.504610,51.987165
Franseweg,44,B,,3921DJ,Elst Ut,Rhenen,Utrecht,VBO,5.504632,51.987205
Franseweg,44,C,,3921DJ,Elst Ut,Rhenen,Utrecht,VBO,5.504660,51.987244
Franseweg,44,,I,3921DJ,Elst Ut,Rhenen,Utrecht,VBO,5.504875,51.987100
Franseweg,44,,,3921DJ,Elst Ut,Rhenen,Utrecht,VBO,5.504879,51.987117
Franseweg,46,A,,3921DJ,Elst Ut,Rhenen,Utrecht,VBO,5.504442,51.987248
Franseweg,46,B,,3921DJ,Elst Ut,Rhenen,Utrecht,VBO,5.504376,51.987275
Franseweg,46,C,,3921DJ,Elst Ut,Rhenen,Utrecht,VBO,5.504302,51.987295
Franseweg,46,,,3921DJ,Elst Ut,Rhenen,Utrecht,VBO,5.504685,51.987286
Franseweg,48,,,3921DJ,Elst Ut,Rhenen,Utrecht,VBO,5.504156,51.987418
Franseweg,50,A,,3921DJ,Elst Ut,Rhenen,Utrecht,VBO,5.503769,51.987518
Franseweg,50,,,3921DJ,Elst Ut,Rhenen,Utrecht,VBO,5.503975,51.987479
Franseweg,52,A,,3921DJ,Elst Ut,Rhenen,Utrecht,VBO,5.503445,51.987643
Franseweg,52,,,3921DJ,Elst Ut,Rhenen,Utrecht,VBO,5.503613,51.987525
Franseweg,54,,I,3921DJ,Elst Ut,Rhenen,Utrecht,VBO,5.503264,51.987652
Franseweg,54,,,3921DJ,Elst Ut,Rhenen,Utrecht,VBO,5.503263,51.987668
Franseweg,56,,I,3921DJ,Elst Ut,Rhenen,Utrecht,VBO,5.503175,51.987682
Franseweg,56,,,3921DJ,Elst Ut,Rhenen,Utrecht,VBO,5.503179,51.987694
Franseweg,58,,I,3921DJ,Elst Ut,Rhenen,Utrecht,VBO,5.503062,51.987714
Franseweg,58,,,3921DJ,Elst Ut,Rhenen,Utrecht,VBO,5.503062,51.987728
Franseweg,60,,I,3921DJ,Elst Ut,Rhenen,Utrecht,VBO,5.502983,51.987738
Franseweg,60,,,3921DJ,Elst Ut,Rhenen,Utrecht,VBO,5.502983,51.987753
Franseweg,62,,I,3921DJ,Elst Ut,Rhenen,Utrecht,VBO,5.502901,51.987762
Franseweg,62,,,3921DJ,Elst Ut,Rhenen,Utrecht,VBO,5.502902,51.987777
Franseweg,64,A,,3921DJ,Elst Ut,Rhenen,Utrecht,VBO,5.502556,51.987872
Franseweg,64,,,3921DJ,Elst Ut,Rhenen,Utrecht,VBO,5.502698,51.987826
Franseweg,66,A,,3921DK,Elst Ut,Rhenen,Utrecht,VBO,5.502361,51.987937
Franseweg,66,,,3921DK,Elst Ut,Rhenen,Utrecht,VBO,5.502442,51.987915
Franseweg,68,,,3921DK,Elst Ut,Rhenen,Utrecht,VBO,5.502251,51.988013
Franseweg,74,,,3921DK,Elst Ut,Rhenen,Utrecht,VBO,5.500105,51.988914
Franseweg,76,,,3921DK,Elst Ut,Rhenen,Utrecht,VBO,5.499816,51.988865
Franseweg,78,,,3921DK,Elst Ut,Rhenen,Utrecht,VBO,5.499526,51.988796
Franseweg,80,,,3921DK,Elst Ut,Rhenen,Utrecht,VBO,5.499472,51.988996
Franseweg,82,,,3921DK,Elst Ut,Rhenen,Utrecht,VBO,5.499242,51.988955
Franseweg,84,A,,3921DK,Elst Ut,Rhenen,Utrecht,VBO,5.498798,51.989094
Franseweg,84,B,,3921DK,Elst Ut,Rhenen,Utrecht,VBO,5.498706,51.989126
Franseweg,84,,,3921DK,Elst Ut,Rhenen,Utrecht,VBO,5.499058,51.988998
Franseweg,86,,,3921DK,Elst Ut,Rhenen,Utrecht,VBO,5.498460,51.989254
Franseweg,88,,,3921DK,Elst Ut,Rhenen,Utrecht,VBO,5.498350,51.989271
Franseweg,90,,,3921DK,Elst Ut,Rhenen,Utrecht,VBO,5.498170,51.989316
Franseweg,92,,,3921DK,Elst Ut,Rhenen,Utrecht,VBO,5.497910,51.989364
Franseweg,94,,,3921DK,Elst Ut,Rhenen,Utrecht,VBO,5.498017,51.989803
Franseweg,98,,,3921DK,Elst Ut,Rhenen,Utrecht,VBO,5.497866,51.989864
Franseweg,100,,,3921DK,Elst Ut,Rhenen,Utrecht,VBO,5.497562,51.989443
Franseweg,102,,,3921DK,Elst Ut,Rhenen,Utrecht,VBO,5.497410,51.989474
Franseweg,104,,,3921DK,Elst Ut,Rhenen,Utrecht,VBO,5.497224,51.989526
Franseweg,106,,,3921DK,Elst Ut,Rhenen,Utrecht,VBO,5.497012,51.989502
Franseweg,108,A,,3921DK,Elst Ut,Rhenen,Utrecht,VBO,5.496731,51.989638
Franseweg,108,,,3921DK,Elst Ut,Rhenen,Utrecht,VBO,5.496855,51.989502
Franseweg,110,,,3921DK,Elst Ut,Rhenen,Utrecht,VBO,5.496443,51.989633
Franseweg,118,,,3921DK,Elst Ut,Rhenen,Utrecht,VBO,5.495680,51.989803
Franseweg,120,,,3921DK,Elst Ut,Rhenen,Utrecht,VBO,5.495252,51.989784
Franseweg,122,,,3921DK,Elst Ut,Rhenen,Utrecht,VBO,5.495034,51.989837
Franseweg,124,A,,3921DK,Elst Ut,Rhenen,Utrecht,VBO,5.494453,51.990073
Franseweg,124,,,3921DK,Elst Ut,Rhenen,Utrecht,VBO,5.494717,51.989986
Franseweg,126,,,3921DK,Elst Ut,Rhenen,Utrecht,VBO,5.494345,51.991209
Franseweg,128,,,3921DK,Elst Ut,Rhenen,Utrecht,VBO,5.494049,51.990365
Franseweg,130,,,3921DK,Elst Ut,Rhenen,Utrecht,VBO,5.493657,51.990691
Verbindingsweg,1,,,3921DL,Elst Ut,Rhenen,Utrecht,VBO,5.501718,51.988230
Verbindingsweg,3,,,3921DL,Elst Ut,Rhenen,Utrecht,VBO,5.501788,51.988233
Verbindingsweg,5,,,3921DL,Elst Ut,Rhenen,Utrecht,VBO,5.501984,51.988244
Verbindingsweg,7,,,3921DL,Elst Ut,Rhenen,Utrecht,VBO,5.502234,51.988267
Verbindingsweg,9,,,3921DL,Elst Ut,Rhenen,Utrecht,VBO,5.502328,51.988273
Verbindingsweg,13,,,3921DL,Elst Ut,Rhenen,Utrecht,VBO,5.502572,51.988321
Verbindingsweg,15,A,,3921DL,Elst Ut,Rhenen,Utrecht,VBO,5.502995,51.988351
Verbindingsweg,15,,,3921DL,Elst Ut,Rhenen,Utrecht,VBO,5.502780,51.988360
Verbindingsweg,17,,,3921DL,Elst Ut,Rhenen,Utrecht,VBO,5.503282,51.988362
Verbindingsweg,19,,,3921DL,Elst Ut,Rhenen,Utrecht,VBO,5.503561,51.988371
Verbindingsweg,21,,,3921DL,Elst Ut,Rhenen,Utrecht,VBO,5.503758,51.988389
Verbindingsweg,23,,,3921DL,Elst Ut,Rhenen,Utrecht,VBO,5.504121,51.988434
Verbindingsweg,25,,,3921DL,Elst Ut,Rhenen,Utrecht,VBO,5.504316,51.988481
Verbindingsweg,27,,,3921DL,Elst Ut,Rhenen,Utrecht,VBO,5.504535,51.988492
Verbindingsweg,29,,,3921DL,Elst Ut,Rhenen,Utrecht,VBO,5.504878,51.988540
Verbindingsweg,31,,,3921DL,Elst Ut,Rhenen,Utrecht,VBO,5.505160,51.988535
Verbindingsweg,33,,,3921DL,Elst Ut,Rhenen,Utrecht,VBO,5.505271,51.988544
Verbindingsweg,35,,,3921DL,Elst Ut,Rhenen,Utrecht,VBO,5.505475,51.988536
Verbindingsweg,37,,,3921DL,Elst Ut,Rhenen,Utrecht,VBO,5.505567,51.988545
Verbindingsweg,39,,,3921DL,Elst Ut,Rhenen,Utrecht,VBO,5.505918,51.988571
Verbindingsweg,2,A,,3921DM,Elst Ut,Rhenen,Utrecht,VBO,5.502843,51.988063
Verbindingsweg,2,,,3921DM,Elst Ut,Rhenen,Utrecht,VBO,5.502698,51.988048
Verbindingsweg,4,,,3921DM,Elst Ut,Rhenen,Utrecht,VBO,5.503104,51.988073
Verbindingsweg,6,,,3921DM,Elst Ut,Rhenen,Utrecht,VBO,5.503199,51.988081
Verbindingsweg,8,,,3921DM,Elst Ut,Rhenen,Utrecht,VBO,5.503294,51.988090
Verbindingsweg,10,,,3921DM,Elst Ut,Rhenen,Utrecht,VBO,5.503442,51.988105
Verbindingsweg,12,,,3921DM,Elst Ut,Rhenen,Utrecht,VBO,5.503530,51.988113
Verbindingsweg,14,,,3921DM,Elst Ut,Rhenen,Utrecht,VBO,5.503780,51.988137
Verbindingsweg,16,,,3921DM,Elst Ut,Rhenen,Utrecht,VBO,5.503869,51.988145
Verbindingsweg,18,,,3921DM,Elst Ut,Rhenen,Utrecht,VBO,5.504144,51.988144
Verbindingsweg,20,,,3921DM,Elst Ut,Rhenen,Utrecht,VBO,5.504407,51.988191
Verbindingsweg,22,A,,3921DM,Elst Ut,Rhenen,Utrecht,VBO,5.504647,51.988212
Verbindingsweg,22,,,3921DM,Elst Ut,Rhenen,Utrecht,VBO,5.504570,51.988205
Verbindingsweg,24,,,3921DM,Elst Ut,Rhenen,Utrecht,VBO,5.504893,51.988224
Verbindingsweg,26,,,3921DM,Elst Ut,Rhenen,Utrecht,VBO,5.504981,51.988230
Verbindingsweg,28,,,3921DM,Elst Ut,Rhenen,Utrecht,VBO,5.505122,51.988251
Verbindingsweg,30,,,3921DM,Elst Ut,Rhenen,Utrecht,VBO,5.505209,51.988258
Verbindingsweg,32,,,3921DM,Elst Ut,Rhenen,Utrecht,VBO,5.505351,51.988269
Verbindingsweg,34,,,3921DM,Elst Ut,Rhenen,Utrecht,VBO,5.505435,51.988275
Engweg,1,,,3921DN,Elst Ut,Rhenen,Utrecht,VBO,5.506486,51.989544
Engweg,3,C,,3921DN,Elst Ut,Rhenen,Utrecht,VBO,5.505652,51.989736
Engweg,3,,,3921DN,Elst Ut,Rhenen,Utrecht,VBO,5.505925,51.989639
Engweg,8,,,3921DN,Elst Ut,Rhenen,Utrecht,VBO,5.505611,51.990069
Engweg,10,,,3921DN,Elst Ut,Rhenen,Utrecht,VBO,5.505344,51.990180
Engweg,13,,,3921DN,Elst Ut,Rhenen,Utrecht,VBO,5.504702,51.989882
Engweg,15,,,3921DN,Elst Ut,Rhenen,Utrecht,VBO,5.504410,51.989935
Engweg,16,,,3921DN,Elst Ut,Rhenen,Utrecht,VBO,5.504726,51.990215
Engweg,17,,,3921DN,Elst Ut,Rhenen,Utrecht,VBO,5.504174,51.990008
Engweg,18,,,3921DN,Elst Ut,Rhenen,Utrecht,VBO,5.504314,51.990370
Engweg,19,,,3921DN,Elst Ut,Rhenen,Utrecht,VBO,5.504103,51.990024
Engweg,20,A,,3921DN,Elst Ut,Rhenen,Utrecht,VBO,5.503882,51.990858
Engweg,20,,,3921DN,Elst Ut,Rhenen,Utrecht,VBO,5.504870,51.991791
Engweg,22,,,3921DN,Elst Ut,Rhenen,Utrecht,VBO,5.503803,51.990460
Engweg,23,,,3921DN,Elst Ut,Rhenen,Utrecht,VBO,5.503602,51.990064
Engweg,24,,,3921DN,Elst Ut,Rhenen,Utrecht,VBO,5.503515,51.990461
Engweg,26,,,3921DN,Elst Ut,Rhenen,Utrecht,VBO,5.503066,51.990618
Engweg,31,,,3921DN,Elst Ut,Rhenen,Utrecht,VBO,5.502516,51.990071
Engweg,32,,,3921DN,Elst Ut,Rhenen,Utrecht,VBO,5.502627,51.990579
Engweg,33,,,3921DN,Elst Ut,Rhenen,Utrecht,VBO,5.502611,51.990245
Engweg,35,,,3921DN,Elst Ut,Rhenen,Utrecht,VBO,5.502422,51.990247
Sportweg,1,,,3921DP,Elst Ut,Rhenen,Utrecht,VBO,5.500843,51.989148
Sportweg,3,,,3921DP,Elst Ut,Rhenen,Utrecht,VBO,5.501275,51.989600
Sportweg,5,,,3921DP,Elst Ut,Rhenen,Utrecht,VBO,5.501875,51.989992
Sportweg,7,,,3921DP,Elst Ut,Rhenen,Utrecht,VBO,5.501302,51.990504
Sportweg,9,,,3921DP,Elst Ut,Rhenen,Utrecht,VBO,5.501227,51.990785
Sportweg,11,,,3921DP,Elst Ut,Rhenen,Utrecht,VBO,5.501882,51.990889
Sportweg,14,,,3921DP,Elst Ut,Rhenen,Utrecht,VBO,5.502227,51.989554
Sportweg,15,,,3921DP,Elst Ut,Rhenen,Utrecht,VBO,5.501862,51.991312
Sportweg,17,,,3921DP,Elst Ut,Rhenen,Utrecht,VBO,5.501666,51.991448
Sportweg,19,,,3921DP,Elst Ut,Rhenen,Utrecht,VBO,5.501657,51.991635
Sportweg,20,,,3921DP,Elst Ut,Rhenen,Utrecht,VBO,5.503087,51.991284
Sportweg,28,,,3921DP,Elst Ut,Rhenen,Utrecht,VBO,5.503629,51.992145
Driftweg,1,,,3921DR,Elst Ut,Rhenen,Utrecht,VBO,5.505182,51.987272
Driftweg,3,,,3921DR,Elst Ut,Rhenen,Utrecht,VBO,5.505212,51.987324
Driftweg,5,,,3921DR,Elst Ut,Rhenen,Utrecht,VBO,5.505273,51.987414
Driftweg,7,,,3921DR,Elst Ut,Rhenen,Utrecht,VBO,5.505295,51.987455
Driftweg,9,,,3921DR,Elst Ut,Rhenen,Utrecht,VBO,5.505327,51.987532
Driftweg,11,,,3921DR,Elst Ut,Rhenen,Utrecht,VBO,5.505352,51.987578
Driftweg,13,,,3921DR,Elst Ut,Rhenen,Utrecht,VBO,5.505398,51.987656
Driftweg,15,,,3921DR,Elst Ut,Rhenen,Utrecht,VBO,5.505427,51.987701
Driftweg,17,,,3921DR,Elst Ut,Rhenen,Utrecht,VBO,5.505496,51.987778
Driftweg,19,,,3921DR,Elst Ut,Rhenen,Utrecht,VBO,5.505527,51.987828
Driftweg,21,,,3921DR,Elst Ut,Rhenen,Utrecht,VBO,5.505580,51.987911
Driftweg,23,A,,3921DR,Elst Ut,Rhenen,Utrecht,VBO,5.505648,51.988043
Driftweg,23,B,,3921DR,Elst Ut,Rhenen,Utrecht,VBO,5.505679,51.988094
Driftweg,23,C,,3921DR,Elst Ut,Rhenen,Utrecht,VBO,5.505722,51.988175
Driftweg,23,,,3921DR,Elst Ut,Rhenen,Utrecht,VBO,5.505608,51.987961
Driftweg,25,,,3921DR,Elst Ut,Rhenen,Utrecht,VBO,5.505820,51.988290
Driftweg,27,,,3921DR,Elst Ut,Rhenen,Utrecht,VBO,5.506004,51.988578
Driftweg,29,,,3921DR,Elst Ut,Rhenen,Utrecht,VBO,5.506135,51.988788
Driftweg,31,,,3921DR,Elst Ut,Rhenen,Utrecht,VBO,5.506197,51.989069
Driftweg,33,,,3921DR,Elst Ut,Rhenen,Utrecht,VBO,5.506410,51.989262
Driftweg,41,,,3921DR,Elst Ut,Rhenen,Utrecht,VBO,5.506832,51.990067
Driftweg,47,,,3921DR,Elst Ut,Rhenen,Utrecht,VBO,5.507075,51.990631
Driftweg,49,,,3921DR,Elst Ut,Rhenen,Utrecht,VBO,5.507029,51.990770
Driftweg,51,,,3921DR,Elst Ut,Rhenen,Utrecht,VBO,5.507021,51.991038
Driftweg,55,,,3921DR,Elst Ut,Rhenen,Utrecht,VBO,5.507242,51.991422
Driftweg,2,,,3921DS,Elst Ut,Rhenen,Utrecht,VBO,5.505465,51.987153
Driftweg,4,,,3921DS,Elst Ut,Rhenen,Utrecht,VBO,5.505508,51.987221
Driftweg,6,,,3921DS,Elst Ut,Rhenen,Utrecht,VBO,5.505613,51.987379
Driftweg,8,,,3921DS,Elst Ut,Rhenen,Utrecht,VBO,5.505645,51.987430
Driftweg,10,A,,3921DS,Elst Ut,Rhenen,Utrecht,VBO,5.505766,51.987599
Driftweg,10,,,3921DS,Elst Ut,Rhenen,Utrecht,VBO,5.505745,51.987548
Driftweg,12,A,,3921DS,Elst Ut,Rhenen,Utrecht,VBO,5.505838,51.987743
Driftweg,12,,,3921DS,Elst Ut,Rhenen,Utrecht,VBO,5.505822,51.987695
Driftweg,14,,,3921DS,Elst Ut,Rhenen,Utrecht,VBO,5.505900,51.987842
Driftweg,18,,,3921DS,Elst Ut,Rhenen,Utrecht,VBO,5.506010,51.987938
Driftweg,20,,,3921DS,Elst Ut,Rhenen,Utrecht,VBO,5.506149,51.987988
Driftweg,22,,,3921DS,Elst Ut,Rhenen,Utrecht,VBO,5.506238,51.988120
Driftweg,24,,,3921DS,Elst Ut,Rhenen,Utrecht,VBO,5.506271,51.988198
Driftweg,26,A,,3921DS,Elst Ut,Rhenen,Utrecht,VBO,5.506305,51.988399
Driftweg,26,,,3921DS,Elst Ut,Rhenen,Utrecht,VBO,5.506253,51.988307
Driftweg,28,,,3921DS,Elst Ut,Rhenen,Utrecht,VBO,5.506386,51.988476
Driftweg,30,A,,3921DS,Elst Ut,Rhenen,Utrecht,VBO,5.506465,51.988660
Driftweg,30,,,3921DS,Elst Ut,Rhenen,Utrecht,VBO,5.506422,51.988560
Driftweg,32,,,3921DS,Elst Ut,Rhenen,Utrecht,VBO,5.506500,51.988744
Prinsenweg,1,A,,3921DT,Elst Ut,Rhenen,Utrecht,VBO,5.507117,51.985294
Prinsenweg,1,,,3921DT,Elst Ut,Rhenen,Utrecht,VBO,5.507322,51.985293
Prinsenweg,3,,,3921DT,Elst Ut,Rhenen,Utrecht,VBO,5.506971,51.985389
Prinsenweg,4,,,3921DT,Elst Ut,Rhenen,Utrecht,VBO,5.507388,51.985545
Prinsenweg,5,,,3921DT,Elst Ut,Rhenen,Utrecht,VBO,5.506748,51.985456
Prinsenweg,6,,,3921DT,Elst Ut,Rhenen,Utrecht,VBO,5.507204,51.985594
Prinsenweg,8,,,3921DT,Elst Ut,Rhenen,Utrecht,VBO,5.507126,51.985620
Prinsenweg,10,,,3921DT,Elst Ut,Rhenen,Utrecht,VBO,5.506970,51.985671
Prinsenweg,11,,,3921DT,Elst Ut,Rhenen,Utrecht,VBO,5.506608,51.985546
Prinsenweg,12,,,3921DT,Elst Ut,Rhenen,Utrecht,VBO,5.506799,51.985704
Prinsenweg,13,,,3921DT,Elst Ut,Rhenen,Utrecht,VBO,5.506459,51.985569
Prinsenweg,14,,,3921DT,Elst Ut,Rhenen,Utrecht,VBO,5.506735,51.985728
Prinsenweg,15,,,3921DT,Elst Ut,Rhenen,Utrecht,VBO,5.506336,51.985607
Prinsenweg,16,,,3921DT,Elst Ut,Rhenen,Utrecht,VBO,5.506585,51.985777
Prinsenweg,18,,,3921DT,Elst Ut,Rhenen,Utrecht,VBO,5.506525,51.985804
Prinsenweg,20,,,3921DT,Elst Ut,Rhenen,Utrecht,VBO,5.506391,51.985937
Prinsenweg,26,,,3921DT,Elst Ut,Rhenen,Utrecht,VBO,5.506179,51.985989
Prinsenweg,28,,,3921DT,Elst Ut,Rhenen,Utrecht,VBO,5.506098,51.986016
Prinsenweg,30,,,3921DT,Elst Ut,Rhenen,Utrecht,VBO,5.505963,51.986085
Prinsenweg,31,,,3921DT,Elst Ut,Rhenen,Utrecht,VBO,5.506146,51.985644
Prinsenweg,32,,,3921DT,Elst Ut,Rhenen,Utrecht,VBO,5.505882,51.986112
Prinsenweg,33,,,3921DT,Elst Ut,Rhenen,Utrecht,VBO,5.506067,51.985670
Prinsenweg,34,,,3921DT,Elst Ut,Rhenen,Utrecht,VBO,5.505799,51.986190
Prinsenweg,35,,,3921DT,Elst Ut,Rhenen,Utrecht,VBO,5.505910,51.985722
Prinsenweg,36,,,3921DT,Elst Ut,Rhenen,Utrecht,VBO,5.505730,51.986212
Prinsenweg,37,,,3921DT,Elst Ut,Rhenen,Utrecht,VBO,5.505836,51.985748
Prinsenweg,38,,,3921DT,Elst Ut,Rhenen,Utrecht,VBO,5.505661,51.986234
Prinsenweg,39,,,3921DT,Elst Ut,Rhenen,Utrecht,VBO,5.505680,51.985800
Prinsenweg,40,,,3921DT,Elst Ut,Rhenen,Utrecht,VBO,5.505593,51.986256
Prinsenweg,41,,,3921DT,Elst Ut,Rhenen,Utrecht,VBO,5.505301,51.985869
Prinsenweg,42,,,3921DT,Elst Ut,Rhenen,Utrecht,VBO,5.505524,51.986277
Prinsenweg,43,,,3921DT,Elst Ut,Rhenen,Utrecht,VBO,5.505235,51.985891
Prinsenweg,44,,,3921DT,Elst Ut,Rhenen,Utrecht,VBO,5.505314,51.986217
Prinsenweg,45,,,3921DT,Elst Ut,Rhenen,Utrecht,VBO,5.505168,51.985913
Prinsenweg,46,,,3921DT,Elst Ut,Rhenen,Utrecht,VBO,5.505246,51.986234
Prinsenweg,47,,,3921DT,Elst Ut,Rhenen,Utrecht,VBO,5.505102,51.985935
Prinsenweg,48,,,3921DT,Elst Ut,Rhenen,Utrecht,VBO,5.505178,51.986251
Prinsenweg,49,,,3921DT,Elst Ut,Rhenen,Utrecht,VBO,5.505036,51.985957
Prinsenweg,50,,,3921DT,Elst Ut,Rhenen,Utrecht,VBO,5.505111,51.986268
Prinsenweg,51,,,3921DT,Elst Ut,Rhenen,Utrecht,VBO,5.504970,51.985978
Prinsenweg,52,,,3921DT,Elst Ut,Rhenen,Utrecht,VBO,5.505043,51.986285
Prinsenweg,53,,,3921DT,Elst Ut,Rhenen,Utrecht,VBO,5.504904,51.986000
Prinsenweg,54,,,3921DT,Elst Ut,Rhenen,Utrecht,VBO,5.504975,51.986301
Prinsenweg,55,,,3921DT,Elst Ut,Rhenen,Utrecht,VBO,5.504838,51.986022
Prinsenweg,56,,,3921DT,Elst Ut,Rhenen,Utrecht,VBO,5.504908,51.986318
Prinsenweg,57,,,3921DT,Elst Ut,Rhenen,Utrecht,VBO,5.504778,51.985846
Prinsenweg,58,,,3921DT,Elst Ut,Rhenen,Utrecht,VBO,5.504473,51.986176
Prinsenweg,59,,,3921DT,Elst Ut,Rhenen,Utrecht,VBO,5.504739,51.985801
Prinsenweg,60,,,3921DT,Elst Ut,Rhenen,Utrecht,VBO,5.504397,51.986123
Prinsenweg,61,,,3921DT,Elst Ut,Rhenen,Utrecht,VBO,5.504664,51.985710
Prinsenweg,62,,,3921DT,Elst Ut,Rhenen,Utrecht,VBO,5.504346,51.986066
Prinsenweg,63,,,3921DT,Elst Ut,Rhenen,Utrecht,VBO,5.504623,51.985667
Prinsenweg,64,,,3921DT,Elst Ut,Rhenen,Utrecht,VBO,5.504266,51.985989
Prinsenweg,65,,,3921DT,Elst Ut,Rhenen,Utrecht,VBO,5.504565,51.985599
Prinsenweg,66,,,3921DT,Elst Ut,Rhenen,Utrecht,VBO,5.504229,51.985946
Prinsenweg,68,,,3921DT,Elst Ut,Rhenen,Utrecht,VBO,5.504192,51.985903
Prinsenweg,70,,,3921DT,Elst Ut,Rhenen,Utrecht,VBO,5.504155,51.985860
Prinsenweg,72,,,3921DT,Elst Ut,Rhenen,Utrecht,VBO,5.504117,51.985817
Prinsenweg,74,,,3921DT,Elst Ut,Rhenen,Utrecht,VBO,5.504080,51.985774
Prinsenweg,76,,,3921DT,Elst Ut,Rhenen,Utrecht,VBO,5.504043,51.985731
Prinsenweg,78,,,3921DT,Elst Ut,Rhenen,Utrecht,VBO,5.504006,51.985688
Prinsenweg,79,,,3921DT,Elst Ut,Rhenen,Utrecht,VBO,5.504211,51.984715
Prinsenweg,80,,,3921DT,Elst Ut,Rhenen,Utrecht,VBO,5.503969,51.985645
Prinsenweg,82,,,3921DT,Elst Ut,Rhenen,Utrecht,VBO,5.503932,51.985602
Prinsenweg,84,,,3921DT,Elst Ut,Rhenen,Utrecht,VBO,5.503960,51.985447
Prinsenweg,86,,,3921DT,Elst Ut,Rhenen,Utrecht,VBO,5.504032,51.985425
Prinsenweg,88,,,3921DT,Elst Ut,Rhenen,Utrecht,VBO,5.504103,51.985402
Prinsenweg,90,,,3921DT,Elst Ut,Rhenen,Utrecht,VBO,5.504174,51.985379
Prinsenweg,92,,,3921DT,Elst Ut,Rhenen,Utrecht,VBO,5.503967,51.985224
Prinsenweg,94,,,3921DT,Elst Ut,Rhenen,Utrecht,VBO,5.503929,51.985181
Prinsenweg,96,,,3921DT,Elst Ut,Rhenen,Utrecht,VBO,5.503892,51.985138
Prinsenweg,98,,,3921DT,Elst Ut,Rhenen,Utrecht,VBO,5.503854,51.985095
Prinsenweg,100,,,3921DT,Elst Ut,Rhenen,Utrecht,VBO,5.503816,51.985052
Prinsenweg,102,,,3921DT,Elst Ut,Rhenen,Utrecht,VBO,5.503779,51.985009
Prinsenweg,104,,,3921DT,Elst Ut,Rhenen,Utrecht,VBO,5.503741,51.984966
Prinsenweg,106,,,3921DT,Elst Ut,Rhenen,Utrecht,VBO,5.503704,51.984923
Prinsenweg,108,,,3921DT,Elst Ut,Rhenen,Utrecht,VBO,5.503666,51.984880
Zwijnsbergen,1,,,3921DV,Elst Ut,Rhenen,Utrecht,VBO,5.517740,51.980321
Zwijnsbergen,3,,,3921DV,Elst Ut,Rhenen,Utrecht,VBO,5.517670,51.980537
Zwijnsbergen,5,,,3921DV,Elst Ut,Rhenen,Utrecht,VBO,5.517553,51.980726
Zwijnsbergen,7,,,3921DV,Elst Ut,Rhenen,Utrecht,VBO,5.517443,51.981041
Zwijnsbergen,9,,,3921DV,Elst Ut,Rhenen,Utrecht,VBO,5.517408,51.981264
Zwijnsbergen,13,,,3921DV,Elst Ut,Rhenen,Utrecht,VBO,5.517190,51.981495
Zwijnsbergen,15,,,3921DV,Elst Ut,Rhenen,Utrecht,VBO,5.517039,51.981662
Zwijnsbergen,17,A,,3921DV,Elst Ut,Rhenen,Utrecht,VBO,5.516787,51.981771
Zwijnsbergen,17,,,3921DV,Elst Ut,Rhenen,Utrecht,VBO,5.516985,51.981693
Zwijnsbergen,19,A,,3921DV,Elst Ut,Rhenen,Utrecht,VBO,5.516588,51.981921
Zwijnsbergen,21,,,3921DV,Elst Ut,Rhenen,Utrecht,VBO,5.516436,51.982014
Zwijnsbergen,23,,,3921DV,Elst Ut,Rhenen,Utrecht,VBO,5.516358,51.982048
Zwijnsbergen,25,,,3921DV,Elst Ut,Rhenen,Utrecht,VBO,5.516233,51.982116
Zwijnsbergen,27,,,3921DV,Elst Ut,Rhenen,Utrecht,VBO,5.516023,51.982035
Zwijnsbergen,31,A,,3921DV,Elst Ut,Rhenen,Utrecht,VBO,5.515457,51.982521
Zwijnsbergen,31,,,3921DV,Elst Ut,Rhenen,Utrecht,VBO,5.515575,51.982483
Zwijnsbergen,33,,,3921DV,Elst Ut,Rhenen,Utrecht,VBO,5.515350,51.982637
Zwijnsbergen,37,,,3921DW,Elst Ut,Rhenen,Utrecht,VBO,5.514791,51.982862
Zwijnsbergen,41,,,3921DW,Elst Ut,Rhenen,Utrecht,VBO,5.514123,51.983032
Zwijnsbergen,43,,,3921DW,Elst Ut,Rhenen,Utrecht,VBO,5.514088,51.983203
Zwijnsbergen,45,,,3921DW,Elst Ut,Rhenen,Utrecht,VBO,5.514028,51.983228
Zwijnsbergen,47,,,3921DW,Elst Ut,Rhenen,Utrecht,VBO,5.513879,51.983291
Zwijnsbergen,49,,,3921DW,Elst Ut,Rhenen,Utrecht,VBO,5.512429,51.983747
Zwijnsbergen,51,,,3921DW,Elst Ut,Rhenen,Utrecht,VBO,5.512314,51.983857
Zwijnsbergen,53,,,3921DW,Elst Ut,Rhenen,Utrecht,VBO,5.512064,51.983945
Zwijnsbergen,57,,,3921DW,Elst Ut,Rhenen,Utrecht,VBO,5.511266,51.984340
Zwijnsbergen,59,A,,3921DW,Elst Ut,Rhenen,Utrecht,VBO,5.511041,51.984420
Zwijnsbergen,59,,,3921DW,Elst Ut,Rhenen,Utrecht,VBO,5.511114,51.984400
Zwijnsbergen,63,,,3921DW,Elst Ut,Rhenen,Utrecht,VBO,5.510360,51.984667
Zwijnsbergen,65,,,3921DW,Elst Ut,Rhenen,Utrecht,VBO,5.510166,51.984738
Zwijnsbergen,67,A,,3921DW,Elst Ut,Rhenen,Utrecht,VBO,5.509893,51.984841
Zwijnsbergen,67,B,,3921DW,Elst Ut,Rhenen,Utrecht,VBO,5.509725,51.984894
Zwijnsbergen,67,,,3921DW,Elst Ut,Rhenen,Utrecht,VBO,5.509967,51.984814
Zwijnsbergen,69,,,3921DW,Elst Ut,Rhenen,Utrecht,VBO,5.509431,51.984969
Zwijnsbergen,71,,,3921DW,Elst Ut,Rhenen,Utrecht,VBO,5.509052,51.985079
Zwijnsbergen,73,,,3921DW,Elst Ut,Rhenen,Utrecht,VBO,5.508795,51.985283
Zwijnsbergen,75,,,3921DW,Elst Ut,Rhenen,Utrecht,VBO,5.508520,51.985381
Zwijnsbergen,8,,,3921DX,Elst Ut,Rhenen,Utrecht,VBO,5.513593,51.984110
Zwijnsbergen,10,,,3921DX,Elst Ut,Rhenen,Utrecht,VBO,5.513865,51.984382
Zwijnsbergen,12,,,3921DX,Elst Ut,Rhenen,Utrecht,VBO,5.513954,51.984589
Zwijnsbergen,46,,,3921DX,Elst Ut,Rhenen,Utrecht,VBO,5.510500,51.985035
Plantage,1,,,3921DZ,Elst Ut,Rhenen,Utrecht,VBO,5.530632,51.978120
Plantage,3,,,3921DZ,Elst Ut,Rhenen,Utrecht,VBO,5.529162,51.978720
Plantage,5,,,3921DZ,Elst Ut,Rhenen,Utrecht,VBO,5.526730,51.980342
Veenendaalsestraatweg,1,A,,3921EA,Elst Ut,Rhenen,Utrecht,VBO,5.506025,51.983219
Veenendaalsestraatweg,1,B,,3921EA,Elst Ut,Rhenen,Utrecht,VBO,5.506118,51.983314
Veenendaalsestraatweg,1,,,3921EA,Elst Ut,Rhenen,Utrecht,VBO,5.505943,51.983097
Veenendaalsestraatweg,3,A,,3921EA,Elst Ut,Rhenen,Utrecht,VBO,5.506229,51.983510
Veenendaalsestraatweg,3,,,3921EA,Elst Ut,Rhenen,Utrecht,VBO,5.506157,51.983365
Veenendaalsestraatweg,5,,,3921EA,Elst Ut,Rhenen,Utrecht,VBO,5.506283,51.983647
Veenendaalsestraatweg,7,,,3921EA,Elst Ut,Rhenen,Utrecht,VBO,5.506387,51.983767
Veenendaalsestraatweg,9,,,3921EA,Elst Ut,Rhenen,Utrecht,VBO,5.506540,51.984016
Veenendaalsestraatweg,11,A,,3921EA,Elst Ut,Rhenen,Utrecht,VBO,5.506655,51.984302
Veenendaalsestraatweg,11,B,,3921EA,Elst Ut,Rhenen,Utrecht,VBO,5.506694,51.984409
Veenendaalsestraatweg,11,,,3921EA,Elst Ut,Rhenen,Utrecht,VBO,5.506593,51.984166
Veenendaalsestraatweg,13,,,3921EA,Elst Ut,Rhenen,Utrecht,VBO,5.506749,51.984591
Veenendaalsestraatweg,15,A,,3921EA,Elst Ut,Rhenen,Utrecht,VBO,5.507108,51.984840
Veenendaalsestraatweg,15,B,,3921EA,Elst Ut,Rhenen,Utrecht,VBO,5.507164,51.984880
Veenendaalsestraatweg,15,,,3921EA,Elst Ut,Rhenen,Utrecht,VBO,5.506796,51.984819
Veenendaalsestraatweg,17,,,3921EA,Elst Ut,Rhenen,Utrecht,VBO,5.507318,51.984969
Veenendaalsestraatweg,21,,,3921EA,Elst Ut,Rhenen,Utrecht,VBO,5.507384,51.985057
Veenendaalsestraatweg,23,,,3921EA,Elst Ut,Rhenen,Utrecht,VBO,5.507477,51.985210
Veenendaalsestraatweg,25,,,3921EB,Elst Ut,Rhenen,Utrecht,VBO,5.507744,51.985446
Veenendaalsestraatweg,27,A,,3921EB,Elst Ut,Rhenen,Utrecht,VBO,5.507917,51.985547
Veenendaalsestraatweg,29,,,3921EB,Elst Ut,Rhenen,Utrecht,VBO,5.507933,51.985626
Veenendaalsestraatweg,31,,,3921EB,Elst Ut,Rhenen,Utrecht,VBO,5.507978,51.985666
Veenendaalsestraatweg,33,,,3921EB,Elst Ut,Rhenen,Utrecht,VBO,5.508708,51.986422
Veenendaalsestraatweg,37,,,3921EB,Elst Ut,Rhenen,Utrecht,VBO,5.509080,51.986811
Veenendaalsestraatweg,41,,,3921EB,Elst Ut,Rhenen,Utrecht,VBO,5.509376,51.987262
Veenendaalsestraatweg,43,,,3921EB,Elst Ut,Rhenen,Utrecht,VBO,5.509474,51.987471
Veenendaalsestraatweg,47,,,3921EB,Elst Ut,Rhenen,Utrecht,VBO,5.509673,51.987721
Veenendaalsestraatweg,53,,,3921EB,Elst Ut,Rhenen,Utrecht,VBO,5.510376,51.988122
Veenendaalsestraatweg,59,,,3921EB,Elst Ut,Rhenen,Utrecht,VBO,5.510379,51.988744
Veenendaalsestraatweg,75,,,3921EB,Elst Ut,Rhenen,Utrecht,VBO,5.513535,51.996655
Veenendaalsestraatweg,99,,,3921EB,Elst Ut,Rhenen,Utrecht,VBO,5.539018,52.005607
Veenendaalsestraatweg,2,A,,3921EC,Elst Ut,Rhenen,Utrecht,VBO,5.507002,51.983018
Veenendaalsestraatweg,2,,,3921EC,Elst Ut,Rhenen,Utrecht,VBO,5.506811,51.983201
Veenendaalsestraatweg,4,,,3921EC,Elst Ut,Rhenen,Utrecht,VBO,5.506814,51.983297
Veenendaalsestraatweg,6,,,3921EC,Elst Ut,Rhenen,Utrecht,VBO,5.506986,51.983558
Veenendaalsestraatweg,10,A,,3921EC,Elst Ut,Rhenen,Utrecht,VBO,5.507201,51.983906
Veenendaalsestraatweg,10,,,3921EC,Elst Ut,Rhenen,Utrecht,VBO,5.507090,51.983846
Veenendaalsestraatweg,12,,,3921EC,Elst Ut,Rhenen,Utrecht,VBO,5.507065,51.984067
Veenendaalsestraatweg,14,A,,3921EC,Elst Ut,Rhenen,Utrecht,VBO,5.507545,51.984046
Veenendaalsestraatweg,14,,,3921EC,Elst Ut,Rhenen,Utrecht,VBO,5.507251,51.984205
Veenendaalsestraatweg,16,A,,3921EC,Elst Ut,Rhenen,Utrecht,VBO,5.507396,51.984486
Veenendaalsestraatweg,16,,,3921EC,Elst Ut,Rhenen,Utrecht,VBO,5.507534,51.984350
Veenendaalsestraatweg,18,,,3921EC,Elst Ut,Rhenen,Utrecht,VBO,5.507480,51.984577
Veenendaalsestraatweg,20,,,3921EC,Elst Ut,Rhenen,Utrecht,VBO,5.507704,51.984674
Veenendaalsestraatweg,22,,,3921EC,Elst Ut,Rhenen,Utrecht,VBO,5.507788,51.984858
Veenendaalsestraatweg,24,,,3921EC,Elst Ut,Rhenen,Utrecht,VBO,5.507900,51.984949
Veenendaalsestraatweg,26,A,,3921EC,Elst Ut,Rhenen,Utrecht,VBO,5.508204,51.985127
Veenendaalsestraatweg,26,,,3921EC,Elst Ut,Rhenen,Utrecht,VBO,5.508048,51.985043
Veenendaalsestraatweg,28,,,3921EC,Elst Ut,Rhenen,Utrecht,VBO,5.508338,51.985241
Veenendaalsestraatweg,50,A,,3921EC,Elst Ut,Rhenen,Utrecht,VBO,5.530679,51.998449
Veenendaalsestraatweg,50,,,3921EC,Elst Ut,Rhenen,Utrecht,VBO,5.529796,51.998744
Wildemanstraat,2,A,,3921ED,Elst Ut,Rhenen,Utrecht,VBO,5.493220,51.987652
Wildemanstraat,2,,,3921ED,Elst Ut,Rhenen,Utrecht,VBO,5.493184,51.987613
Wildemanstraat,4,A,,3921ED,Elst Ut,Rhenen,Utrecht,VBO,5.493298,51.987731
Wildemanstraat,4,,,3921ED,Elst Ut,Rhenen,Utrecht,VBO,5.493261,51.987696
Wildemanstraat,5,,,3921ED,Elst Ut,Rhenen,Utrecht,VBO,5.493010,51.987867
Wildemanstraat,6,A,,3921ED,Elst Ut,Rhenen,Utrecht,VBO,5.493381,51.987821
Wildemanstraat,6,,,3921ED,Elst Ut,Rhenen,Utrecht,VBO,5.493339,51.987780
Wildemanstraat,8,,,3921ED,Elst Ut,Rhenen,Utrecht,VBO,5.493411,51.987867
Wildemanstraat,9,,,3921ED,Elst Ut,Rhenen,Utrecht,VBO,5.493273,51.988144
Wildemanstraat,10,,,3921ED,Elst Ut,Rhenen,Utrecht,VBO,5.493441,51.987912
Wildemanstraat,11,,,3921ED,Elst Ut,Rhenen,Utrecht,VBO,5.493372,51.988289
Wildemanstraat,12,,,3921ED,Elst Ut,Rhenen,Utrecht,VBO,5.493472,51.987957
Wildemanstraat,14,,,3921ED,Elst Ut,Rhenen,Utrecht,VBO,5.493667,51.988035
Wildemanstraat,16,,,3921ED,Elst Ut,Rhenen,Utrecht,VBO,5.493749,51.988047
Wildemanstraat,18,,,3921ED,Elst Ut,Rhenen,Utrecht,VBO,5.493921,51.988031
Wildemanstraat,20,,,3921ED,Elst Ut,Rhenen,Utrecht,VBO,5.494016,51.988038
Wildemanstraat,22,,,3921ED,Elst Ut,Rhenen,Utrecht,VBO,5.494240,51.988113
Wildemanstraat,24,,,3921ED,Elst Ut,Rhenen,Utrecht,VBO,5.494281,51.988164
Wildemanstraat,26,,,3921ED,Elst Ut,Rhenen,Utrecht,VBO,5.494346,51.988243
Wildemanstraat,28,,,3921ED,Elst Ut,Rhenen,Utrecht,VBO,5.494399,51.988309
Wildemanstraat,30,,,3921ED,Elst Ut,Rhenen,Utrecht,VBO,5.494471,51.988396
Wildemanstraat,32,,,3921ED,Elst Ut,Rhenen,Utrecht,VBO,5.494504,51.988439
Larekamp,2,,,3921EE,Elst Ut,Rhenen,Utrecht,VBO,5.494562,51.987857
Larekamp,4,,,3921EE,Elst Ut,Rhenen,Utrecht,VBO,5.494458,51.987846
Larekamp,6,,,3921EE,Elst Ut,Rhenen,Utrecht,VBO,5.494326,51.987789
Larekamp,8,,,3921EE,Elst Ut,Rhenen,Utrecht,VBO,5.494222,51.987794
Larekamp,10,,,3921EE,Elst Ut,Rhenen,Utrecht,VBO,5.494109,51.987772
Larekamp,12,,,3921EE,Elst Ut,Rhenen,Utrecht,VBO,5.493996,51.987751
Larekamp,14,,,3921EE,Elst Ut,Rhenen,Utrecht,VBO,5.493765,51.987692
Larekamp,16,,,3921EE,Elst Ut,Rhenen,Utrecht,VBO,5.493719,51.987637
Larekamp,18,,,3921EE,Elst Ut,Rhenen,Utrecht,VBO,5.493668,51.987581
Larekamp,20,,,3921EE,Elst Ut,Rhenen,Utrecht,VBO,5.493620,51.987529
Larekamp,22,,,3921EE,Elst Ut,Rhenen,Utrecht,VBO,5.493558,51.987467
Larekamp,24,,,3921EE,Elst Ut,Rhenen,Utrecht,VBO,5.493427,51.987450
Larekamp,26,,,3921EE,Elst Ut,Rhenen,Utrecht,VBO,5.493327,51.987437
Larekamp,28,,,3921EE,Elst Ut,Rhenen,Utrecht,VBO,5.493226,51.987426
Larekamp,30,,,3921EE,Elst Ut,Rhenen,Utrecht,VBO,5.493140,51.987411
Larekamp,32,,,3921EE,Elst Ut,Rhenen,Utrecht,VBO,5.492768,51.987378
Larekamp,34,,,3921EE,Elst Ut,Rhenen,Utrecht,VBO,5.492519,51.987327
Larekamp,36,,,3921EE,Elst Ut,Rhenen,Utrecht,VBO,5.492200,51.987388
Larekamp,38,,,3921EE,Elst Ut,Rhenen,Utrecht,VBO,5.491959,51.987439
Larekamp,40,,,3921EE,Elst Ut,Rhenen,Utrecht,VBO,5.491708,51.987504
Larekamp,1,,,3921EG,Elst Ut,Rhenen,Utrecht,VBO,5.494856,51.987103
Larekamp,3,,,3921EG,Elst Ut,Rhenen,Utrecht,VBO,5.494768,51.987089
Larekamp,5,,,3921EG,Elst Ut,Rhenen,Utrecht,VBO,5.494592,51.987067
Larekamp,7,,,3921EG,Elst Ut,Rhenen,Utrecht,VBO,5.494514,51.987058
Larekamp,9,,,3921EG,Elst Ut,Rhenen,Utrecht,VBO,5.494343,51.987040
Larekamp,11,,,3921EG,Elst Ut,Rhenen,Utrecht,VBO,5.494248,51.987031
Larekamp,13,,,3921EG,Elst Ut,Rhenen,Utrecht,VBO,5.494017,51.987057
Larekamp,15,,,3921EG,Elst Ut,Rhenen,Utrecht,VBO,5.493914,51.987079
Larekamp,17,,,3921EG,Elst Ut,Rhenen,Utrecht,VBO,5.493834,51.987117
Larekamp,19,,,3921EG,Elst Ut,Rhenen,Utrecht,VBO,5.493731,51.987149
Larekamp,21,,,3921EG,Elst Ut,Rhenen,Utrecht,VBO,5.493621,51.987170
Larekamp,23,,,3921EG,Elst Ut,Rhenen,Utrecht,VBO,5.493502,51.987169
Larekamp,25,,,3921EG,Elst Ut,Rhenen,Utrecht,VBO,5.493271,51.987160
Larekamp,27,,,3921EG,Elst Ut,Rhenen,Utrecht,VBO,5.493192,51.987152
Larekamp,29,,,3921EG,Elst Ut,Rhenen,Utrecht,VBO,5.493113,51.987143
Larekamp,31,,,3921EG,Elst Ut,Rhenen,Utrecht,VBO,5.493034,51.987135
Larekamp,33,,,3921EG,Elst Ut,Rhenen,Utrecht,VBO,5.492955,51.987126
Larekamp,35,,,3921EG,Elst Ut,Rhenen,Utrecht,VBO,5.492875,51.987118
Larekamp,37,,,3921EG,Elst Ut,Rhenen,Utrecht,VBO,5.492796,51.987109
Larekamp,39,,,3921EG,Elst Ut,Rhenen,Utrecht,VBO,5.492717,51.987101
Larekamp,41,,,3921EG,Elst Ut,Rhenen,Utrecht,VBO,5.492638,51.987092
Larekamp,43,,,3921EG,Elst Ut,Rhenen,Utrecht,VBO,5.492559,51.987084
Larekamp,45,,,3921EG,Elst Ut,Rhenen,Utrecht,VBO,5.492217,51.987056
Larekamp,47,,,3921EG,Elst Ut,Rhenen,Utrecht,VBO,5.491938,51.987031
Larekamp,49,,,3921EG,Elst Ut,Rhenen,Utrecht,VBO,5.491657,51.987001
Het Bosje,11,,,3921EH,Elst Ut,Rhenen,Utrecht,VBO,5.494417,51.986353
Het Bosje,13,A,,3921EH,Elst Ut,Rhenen,Utrecht,VBO,5.494504,51.986370
Het Bosje,13,B,,3921EH,Elst Ut,Rhenen,Utrecht,VBO,5.494540,51.986362
Het Bosje,13,C,,3921EH,Elst Ut,Rhenen,Utrecht,VBO,5.494569,51.986356
Het Bosje,13,D,,3921EH,Elst Ut,Rhenen,Utrecht,VBO,5.494607,51.986348
Het Bosje,13,E,,3921EH,Elst Ut,Rhenen,Utrecht,VBO,5.494651,51.986336
Het Bosje,13,F,,3921EH,Elst Ut,Rhenen,Utrecht,VBO,5.494686,51.986327
Het Bosje,13,G,,3921EH,Elst Ut,Rhenen,Utrecht,VBO,5.494719,51.986316
Het Bosje,13,H,,3921EH,Elst Ut,Rhenen,Utrecht,VBO,5.494449,51.986349
Het Bosje,13,I,,3921EH,Elst Ut,Rhenen,Utrecht,VBO,5.494486,51.986339
Het Bosje,13,J,,3921EH,Elst Ut,Rhenen,Utrecht,VBO,5.494526,51.986329
Het Bosje,13,K,,3921EH,Elst Ut,Rhenen,Utrecht,VBO,5.494563,51.986321
Het Bosje,13,L,,3921EH,Elst Ut,Rhenen,Utrecht,VBO,5.494601,51.986312
Het Bosje,13,M,,3921EH,Elst Ut,Rhenen,Utrecht,VBO,5.494640,51.986302
Het Bosje,13,N,,3921EH,Elst Ut,Rhenen,Utrecht,VBO,5.494667,51.986298
Het Bosje,13,P,,3921EH,Elst Ut,Rhenen,Utrecht,VBO,5.494703,51.986287
Het Bosje,13,,,3921EH,Elst Ut,Rhenen,Utrecht,VBO,5.494468,51.986379
Het Bosje,15,,,3921EH,Elst Ut,Rhenen,Utrecht,VBO,5.493871,51.986509
Het Bosje,17,,,3921EH,Elst Ut,Rhenen,Utrecht,VBO,5.493639,51.986558
Het Bosje,19,,,3921EH,Elst Ut,Rhenen,Utrecht,VBO,5.493567,51.986572
Het Bosje,21,,,3921EH,Elst Ut,Rhenen,Utrecht,VBO,5.493300,51.986627
Het Bosje,23,,,3921EH,Elst Ut,Rhenen,Utrecht,VBO,5.493217,51.986618
Het Bosje,25,,,3921EH,Elst Ut,Rhenen,Utrecht,VBO,5.493047,51.986594
Het Bosje,27,,,3921EH,Elst Ut,Rhenen,Utrecht,VBO,5.492963,51.986584
Het Bosje,29,,,3921EH,Elst Ut,Rhenen,Utrecht,VBO,5.492738,51.986534
Het Bosje,31,,,3921EH,Elst Ut,Rhenen,Utrecht,VBO,5.492603,51.986329
Het Bosje,33,,,3921EH,Elst Ut,Rhenen,Utrecht,VBO,5.492371,51.986293
Het Bosje,35,,,3921EH,Elst Ut,Rhenen,Utrecht,VBO,5.492147,51.986254
Het Bosje,37,,,3921EH,Elst Ut,Rhenen,Utrecht,VBO,5.491973,51.986384
Het Bosje,39,,,3921EH,Elst Ut,Rhenen,Utrecht,VBO,5.491927,51.986516
Het Bosje,2,,,3921EJ,Elst Ut,Rhenen,Utrecht,VBO,5.494936,51.986808
Het Bosje,4,,,3921EJ,Elst Ut,Rhenen,Utrecht,VBO,5.494856,51.986802
Het Bosje,6,,,3921EJ,Elst Ut,Rhenen,Utrecht,VBO,5.494682,51.986778
Het Bosje,8,,,3921EJ,Elst Ut,Rhenen,Utrecht,VBO,5.494599,51.986774
Het Bosje,10,,,3921EJ,Elst Ut,Rhenen,Utrecht,VBO,5.494420,51.986748
Het Bosje,12,,,3921EJ,Elst Ut,Rhenen,Utrecht,VBO,5.494331,51.986738
Het Bosje,14,,,3921EJ,Elst Ut,Rhenen,Utrecht,VBO,5.494096,51.986719
Het Bosje,16,,,3921EJ,Elst Ut,Rhenen,Utrecht,VBO,5.494010,51.986749
Het Bosje,18,,,3921EJ,Elst Ut,Rhenen,Utrecht,VBO,5.493867,51.986791
Het Bosje,20,,,3921EJ,Elst Ut,Rhenen,Utrecht,VBO,5.493794,51.986812
Het Bosje,22,,,3921EJ,Elst Ut,Rhenen,Utrecht,VBO,5.493721,51.986832
Het Bosje,24,,,3921EJ,Elst Ut,Rhenen,Utrecht,VBO,5.493648,51.986853
Het Bosje,26,,,3921EJ,Elst Ut,Rhenen,Utrecht,VBO,5.493576,51.986874
Het Bosje,28,,,3921EJ,Elst Ut,Rhenen,Utrecht,VBO,5.493503,51.986894
Het Bosje,30,,,3921EJ,Elst Ut,Rhenen,Utrecht,VBO,5.493253,51.986908
Het Bosje,32,,,3921EJ,Elst Ut,Rhenen,Utrecht,VBO,5.493131,51.986892
Het Bosje,34,,,3921EJ,Elst Ut,Rhenen,Utrecht,VBO,5.493010,51.986877
Het Bosje,36,,,3921EJ,Elst Ut,Rhenen,Utrecht,VBO,5.492888,51.986862
Het Bosje,38,,,3921EJ,Elst Ut,Rhenen,Utrecht,VBO,5.492766,51.986846
Het Bosje,40,,,3921EJ,Elst Ut,Rhenen,Utrecht,VBO,5.492645,51.986831
Het Bosje,42,,,3921EJ,Elst Ut,Rhenen,Utrecht,VBO,5.492320,51.986763
Het Bosje,44,,,3921EJ,Elst Ut,Rhenen,Utrecht,VBO,5.492047,51.986733
Het Bosje,46,,,3921EJ,Elst Ut,Rhenen,Utrecht,VBO,5.491730,51.986693
De Klamp,23,,,3921EL,Elst Ut,Rhenen,Utrecht,VBO,5.496767,51.988680
De Klamp,25,,,3921EL,Elst Ut,Rhenen,Utrecht,VBO,5.496894,51.988830
