openbareruimtenaam,huisnummer,huisletter,huisnummertoevoeging,postcode,woonplaatsnaam,gemeentenaam,provincienaam,typeadresseerbaarobject,longitude,latitude
Zandpad,1,a,,3945BA,Cothen,Wijk bij Duurstede,Utrecht,VBO,5.316293,51.996204
Zandpad,1,b,,3945BA,Cothen,Wijk bij Duurstede,Utrecht,VBO,5.316553,51.996208
Zandpad,1,,,3945BA,Cothen,Wijk bij Duurstede,Utrecht,VBO,5.316045,51.995928
Zandpad,2,,,3945BA,Cothen,Wijk bij Duurstede,Utrecht,VBO,5.315696,51.995478
Zandpad,3,,,3945BA,Cothen,Wijk bij Duurstede,Utrecht,VBO,5.316417,51.995873
Zandpad,4,,,3945BA,Cothen,Wijk bij Duurstede,Utrecht,VBO,5.315725,51.995586
Zandpad,5,,,3945BA,Cothen,Wijk bij Duurstede,Utrecht,VBO,5.316551,51.995913
Zandpad,7,,,3945BA,Cothen,Wijk bij Duurstede,Utrecht,VBO,5.316680,51.995995
Zandpad,8,,,3945BA,Cothen,Wijk bij Duurstede,Utrecht,VBO,5.315798,51.995640
Zandpad,10,,,3945BA,Cothen,Wijk bij Duurstede,Utrecht,VBO,5.315900,51.995658
Zandpad,11,,,3945BA,Cothen,Wijk bij Duurstede,Utrecht,VBO,5.317792,51.995893
Zandpad,12,,,3945BA,Cothen,Wijk bij Duurstede,Utrecht,VBO,5.316031,51.995757
Zandpad,13,,,3945BA,Cothen,Wijk bij Duurstede,Utrecht,VBO,5.318273,51.995596
Zandpad,17,,,3945BA,Cothen,Wijk bij Duurstede,Utrecht,VBO,5.318521,51.995570
Zandpad,19,,,3945BA,Cothen,Wijk bij Duurstede,Utrecht,VBO,5.318638,51.995522
Zandpad,21,,,3945BA,Cothen,Wijk bij Duurstede,Utrecht,VBO,5.318739,51.995543
Zandpad,23,,,3945BA,Cothen,Wijk bij Duurstede,Utrecht,VBO,5.322083,51.994347
Zandpad,25,,,3945BA,Cothen,Wijk bij Duurstede,Utrecht,VBO,5.322265,51.994242
Zandpad,27,,,3945BA,Cothen,Wijk bij Duurstede,Utrecht,VBO,5.324499,51.992852
Groenewoudseweg,1,,01,3945BB,Cothen,Wijk bij Duurstede,Utrecht,VBO,5.316386,51.994979
Groenewoudseweg,1,,02,3945BB,Cothen,Wijk bij Duurstede,Utrecht,VBO,5.316596,51.994998
Groenewoudseweg,1,,02a,3945BB,Cothen,Wijk bij Duurstede,Utrecht,VBO,5.316527,51.995038
Groenewoudseweg,1,,03,3945BB,Cothen,Wijk bij Duurstede,Utrecht,VBO,5.316602,51.995133
Groenewoudseweg,1,,04,3945BB,Cothen,Wijk bij Duurstede,Utrecht,VBO,5.316613,51.995188
Groenewoudseweg,1,,05,3945BB,Cothen,Wijk bij Duurstede,Utrecht,VBO,5.316736,51.995254
Groenewoudseweg,1,,06,3945BB,Cothen,Wijk bij Duurstede,Utrecht,VBO,5.316807,51.995328
Groenewoudseweg,1,,07,3945BB,Cothen,Wijk bij Duurstede,Utrecht,VBO,5.316903,51.995402
Groenewoudseweg,1,,08,3945BB,Cothen,Wijk bij Duurstede,Utrecht,VBO,5.316996,51.995505
Groenewoudseweg,1,,09,3945BB,Cothen,Wijk bij Duurstede,Utrecht,VBO,5.317072,51.995580
Groenewoudseweg,1,,11,3945BB,Cothen,Wijk bij Duurstede,Utrecht,VBO,5.317431,51.995554
Groenewoudseweg,1,,12,3945BB,Cothen,Wijk bij Duurstede,Utrecht,VBO,5.317518,51.995537
Groenewoudseweg,1,,13,3945BB,Cothen,Wijk bij Duurstede,Utrecht,VBO,5.317757,51.995480
Groenewoudseweg,1,,14,3945BB,Cothen,Wijk bij Duurstede,Utrecht,VBO,5.317847,51.995453
Groenewoudseweg,1,,16,3945BB,Cothen,Wijk bij Duurstede,Utrecht,VBO,5.317369,51.995333
Groenewoudseweg,1,,17,3945BB,Cothen,Wijk bij Duurstede,Utrecht,VBO,5.317541,51.995287
Groenewoudseweg,1,,18,3945BB,Cothen,Wijk bij Duurstede,Utrecht,VBO,5.317636,51.995255
Groenewoudseweg,1,,19,3945BB,Cothen,Wijk bij Duurstede,Utrecht,VBO,5.317170,51.995290
Groenewoudseweg,1,,20,3945BB,Cothen,Wijk bij Duurstede,Utrecht,VBO,5.317235,51.995259
Groenewoudseweg,1,,22,3945BB,Cothen,Wijk bij Duurstede,Utrecht,VBO,5.317521,51.995145
Groenewoudseweg,1,,23,3945BB,Cothen,Wijk bij Duurstede,Utrecht,VBO,5.316980,51.995114
Groenewoudseweg,1,,24,3945BB,Cothen,Wijk bij Duurstede,Utrecht,VBO,5.317142,51.995068
Groenewoudseweg,1,,25,3945BB,Cothen,Wijk bij Duurstede,Utrecht,VBO,5.317255,51.995016
Groenewoudseweg,1,,26,3945BB,Cothen,Wijk bij Duurstede,Utrecht,VBO,5.317410,51.994987
Groenewoudseweg,1,,27,3945BB,Cothen,Wijk bij Duurstede,Utrecht,VBO,5.316933,51.995005
Groenewoudseweg,1,,28,3945BB,Cothen,Wijk bij Duurstede,Utrecht,VBO,5.317051,51.994990
Groenewoudseweg,1,,28a,3945BB,Cothen,Wijk bij Duurstede,Utrecht,VBO,5.317120,51.994939
Groenewoudseweg,1,,29,3945BB,Cothen,Wijk bij Duurstede,Utrecht,VBO,5.317317,51.994849
Groenewoudseweg,1,,,3945BB,Cothen,Wijk bij Duurstede,Utrecht,VBO,5.316862,51.994733
Groenewoudseweg,2,,,3945BC,Cothen,Wijk bij Duurstede,Utrecht,VBO,5.314697,51.992251
Groenewoudseweg,3,a,,3945BC,Cothen,Wijk bij Duurstede,Utrecht,VBO,5.318349,51.993826
Groenewoudseweg,3,,,3945BC,Cothen,Wijk bij Duurstede,Utrecht,VBO,5.318056,51.993940
Groenewoudseweg,4,,,3945BC,Cothen,Wijk bij Duurstede,Utrecht,VBO,5.315104,51.991950
Groenewoudseweg,5,,,3945BC,Cothen,Wijk bij Duurstede,Utrecht,VBO,5.318426,51.993466
Groenewoudseweg,6,t,,3945BC,Cothen,Wijk bij Duurstede,Utrecht,VBO,5.319057,51.992687
Groenewoudseweg,6,,,3945BC,Cothen,Wijk bij Duurstede,Utrecht,VBO,5.319226,51.992566
Groenewoudseweg,7,a,,3945BC,Cothen,Wijk bij Duurstede,Utrecht,VBO,5.322085,51.992048
Groenewoudseweg,7,b,,3945BC,Cothen,Wijk bij Duurstede,Utrecht,VBO,5.320759,51.992775
Groenewoudseweg,7,,,3945BC,Cothen,Wijk bij Duurstede,Utrecht,VBO,5.320700,51.992664
Groenewoudseweg,8,,0001,3945BC,Cothen,Wijk bij Duurstede,Utrecht,VBO,5.320087,51.991861
Groenewoudseweg,8,,,3945BC,Cothen,Wijk bij Duurstede,Utrecht,VBO,5.320145,51.991995
Groenewoudseweg,9,,,3945BC,Cothen,Wijk bij Duurstede,Utrecht,VBO,5.324221,51.990836
Groenewoudseweg,10,,,3945BC,Cothen,Wijk bij Duurstede,Utrecht,VBO,5.318183,51.989834
Groenewoudseweg,11,a,,3945BC,Cothen,Wijk bij Duurstede,Utrecht,VBO,5.324597,51.990987
Groenewoudseweg,11,,,3945BC,Cothen,Wijk bij Duurstede,Utrecht,VBO,5.324250,51.990818
Groenewoudseweg,12,,,3945BC,Cothen,Wijk bij Duurstede,Utrecht,VBO,5.321864,51.990974
Groenewoudseweg,13,,,3945BC,Cothen,Wijk bij Duurstede,Utrecht,VBO,5.325225,51.990953
Groenewoudseweg,14,,,3945BC,Cothen,Wijk bij Duurstede,Utrecht,VBO,5.322893,51.990621
Groenewoudseweg,16,,,3945BC,Cothen,Wijk bij Duurstede,Utrecht,VBO,5.324419,51.990181
Groenewoudseweg,18,a,,3945BC,Cothen,Wijk bij Duurstede,Utrecht,VBO,5.325419,51.989742
Groenewoudseweg,18,,,3945BC,Cothen,Wijk bij Duurstede,Utrecht,VBO,5.325299,51.990136
Groenewoudseweg,20,,,3945BC,Cothen,Wijk bij Duurstede,Utrecht,VBO,5.327849,51.989807
Rhijnestein,1,,,3945BD,Cothen,Wijk bij Duurstede,Utrecht,VBO,5.315533,51.997446
Rhijnestein,2,,,3945BD,Cothen,Wijk bij Duurstede,Utrecht,VBO,5.315679,51.997087
Rhijnestein,3,,,3945BD,Cothen,Wijk bij Duurstede,Utrecht,VBO,5.317448,51.997821
De Brink,1,,,3945BE,Cothen,Wijk bij Duurstede,Utrecht,VBO,5.313510,51.996717
De Brink,3,,,3945BE,Cothen,Wijk bij Duurstede,Utrecht,VBO,5.313650,51.996796
De Brink,4,,,3945BE,Cothen,Wijk bij Duurstede,Utrecht,VBO,5.313699,51.996825
De Brink,5,,,3945BE,Cothen,Wijk bij Duurstede,Utrecht,VBO,5.313816,51.996969
De Brink,6,a,,3945BE,Cothen,Wijk bij Duurstede,Utrecht,VBO,5.314150,51.997167
De Brink,6,b,,3945BE,Cothen,Wijk bij Duurstede,Utrecht,VBO,5.314077,51.997212
De Brink,6,c,,3945BE,Cothen,Wijk bij Duurstede,Utrecht,VBO,5.314283,51.997254
De Brink,6,,,3945BE,Cothen,Wijk bij Duurstede,Utrecht,VBO,5.314340,51.997086
De Brink,7,,,3945BE,Cothen,Wijk bij Duurstede,Utrecht,VBO,5.314486,51.996853
De Brink,8,,,3945BE,Cothen,Wijk bij Duurstede,Utrecht,VBO,5.314092,51.996798
De Brink,9,,,3945BE,Cothen,Wijk bij Duurstede,Utrecht,VBO,5.314573,51.996619
Ambachtspad,8,,,3945BG,Cothen,Wijk bij Duurstede,Utrecht,VBO,5.313684,51.997499
Ambachtspad,10,,,3945BG,Cothen,Wijk bij Duurstede,Utrecht,VBO,5.313289,51.997579
Ambachtspad,12,,,3945BG,Cothen,Wijk bij Duurstede,Utrecht,VBO,5.313289,51.997672
Ambachtspad,14,,,3945BG,Cothen,Wijk bij Duurstede,Utrecht,VBO,5.313217,51.997724
Ambachtspad,16,a,,3945BG,Cothen,Wijk bij Duurstede,Utrecht,VBO,5.312669,51.997949
Ambachtspad,16,,,3945BG,Cothen,Wijk bij Duurstede,Utrecht,VBO,5.312729,51.997951
Ambachtspad,18,,,3945BG,Cothen,Wijk bij Duurstede,Utrecht,VBO,5.312576,51.997984
Ambachtspad,20,,,3945BG,Cothen,Wijk bij Duurstede,Utrecht,VBO,5.312605,51.998155
Ambachtspad,22,,,3945BG,Cothen,Wijk bij Duurstede,Utrecht,VBO,5.312357,51.998128
Ambachtspad,24,,,3945BG,Cothen,Wijk bij Duurstede,Utrecht,VBO,5.312197,51.998235
Ambachtspad,26,,,3945BG,Cothen,Wijk bij Duurstede,Utrecht,VBO,5.312051,51.998307
In de Bogerd,2,,,3945BH,Cothen,Wijk bij Duurstede,Utrecht,VBO,5.313230,51.997162
In de Bogerd,4,,,3945BH,Cothen,Wijk bij Duurstede,Utrecht,VBO,5.313321,51.997234
In de Bogerd,6,,,3945BH,Cothen,Wijk bij Duurstede,Utrecht,VBO,5.313405,51.997290
Dorpsstraat,1,a,,3945BJ,Cothen,Wijk bij Duurstede,Utrecht,VBO,5.314909,51.995773
Dorpsstraat,1,b,,3945BJ,Cothen,Wijk bij Duurstede,Utrecht,VBO,5.314473,51.996054
Dorpsstraat,1,t,,3945BJ,Cothen,Wijk bij Duurstede,Utrecht,VBO,5.315227,51.995566
Dorpsstraat,1,,,3945BJ,Cothen,Wijk bij Duurstede,Utrecht,VBO,5.314986,51.995649
Dorpsstraat,3,,,3945BJ,Cothen,Wijk bij Duurstede,Utrecht,VBO,5.314373,51.996200
Dorpsstraat,7,,,3945BJ,Cothen,Wijk bij Duurstede,Utrecht,VBO,5.313998,51.996284
Dorpsstraat,9,,,3945BJ,Cothen,Wijk bij Duurstede,Utrecht,VBO,5.313921,51.996321
Dorpsstraat,11,,,3945BJ,Cothen,Wijk bij Duurstede,Utrecht,VBO,5.313567,51.996444
Dorpsstraat,13,,,3945BJ,Cothen,Wijk bij Duurstede,Utrecht,VBO,5.313272,51.996550
Dorpsstraat,15,,,3945BJ,Cothen,Wijk bij Duurstede,Utrecht,VBO,5.313105,51.996625
Dorpsstraat,17,,,3945BJ,Cothen,Wijk bij Duurstede,Utrecht,VBO,5.312963,51.996711
Dorpsstraat,19,,,3945BJ,Cothen,Wijk bij Duurstede,Utrecht,VBO,5.312855,51.996852
Dorpsstraat,21,a,,3945BJ,Cothen,Wijk bij Duurstede,Utrecht,VBO,5.312623,51.996696
Dorpsstraat,21,,,3945BJ,Cothen,Wijk bij Duurstede,Utrecht,VBO,5.312767,51.996878
Dorpsstraat,23,,,3945BJ,Cothen,Wijk bij Duurstede,Utrecht,VBO,5.312543,51.996944
Dorpsstraat,25,,,3945BJ,Cothen,Wijk bij Duurstede,Utrecht,VBO,5.312236,51.997076
Dorpsstraat,27,a,,3945BK,Cothen,Wijk bij Duurstede,Utrecht,VBO,5.311976,51.997300
Dorpsstraat,27,b,,3945BK,Cothen,Wijk bij Duurstede,Utrecht,VBO,5.311967,51.997348
Dorpsstraat,27,,,3945BK,Cothen,Wijk bij Duurstede,Utrecht,VBO,5.311907,51.997318
Dorpsstraat,29,,,3945BK,Cothen,Wijk bij Duurstede,Utrecht,VBO,5.311805,51.997534
Dorpsstraat,31,,,3945BK,Cothen,Wijk bij Duurstede,Utrecht,VBO,5.311674,51.997624
Dorpsstraat,33,,,3945BK,Cothen,Wijk bij Duurstede,Utrecht,VBO,5.311659,51.997660
Dorpsstraat,35,,,3945BK,Cothen,Wijk bij Duurstede,Utrecht,VBO,5.311703,51.997759
Dorpsstraat,37,,,3945BK,Cothen,Wijk bij Duurstede,Utrecht,VBO,5.311644,51.997884
Dorpsstraat,39,,,3945BK,Cothen,Wijk bij Duurstede,Utrecht,VBO,5.311571,51.997965
Dorpsstraat,41,,,3945BK,Cothen,Wijk bij Duurstede,Utrecht,VBO,5.311553,51.998062
Dorpsstraat,43,,,3945BK,Cothen,Wijk bij Duurstede,Utrecht,VBO,5.311549,51.998129
Dorpsstraat,45,a,,3945BK,Cothen,Wijk bij Duurstede,Utrecht,VBO,5.311466,51.998498
Dorpsstraat,45,t,,3945BK,Cothen,Wijk bij Duurstede,Utrecht,VBO,5.311280,51.998161
Dorpsstraat,45,,,3945BK,Cothen,Wijk bij Duurstede,Utrecht,VBO,5.311425,51.998226
Dorpsstraat,47,,,3945BK,Cothen,Wijk bij Duurstede,Utrecht,VBO,5.311381,51.998513
Dorpsstraat,49,,,3945BK,Cothen,Wijk bij Duurstede,Utrecht,VBO,5.311221,51.998657
Dorpsstraat,51,a,,3945BK,Cothen,Wijk bij Duurstede,Utrecht,VBO,5.311200,51.998784
Dorpsstraat,51,,,3945BK,Cothen,Wijk bij Duurstede,Utrecht,VBO,5.311177,51.998720
Dorpsstraat,53,,,3945BK,Cothen,Wijk bij Duurstede,Utrecht,VBO,5.311439,51.998891
Dorpsstraat,55,,,3945BK,Cothen,Wijk bij Duurstede,Utrecht,VBO,5.311555,51.998981
Dorpsstraat,2,,,3945BL,Cothen,Wijk bij Duurstede,Utrecht,VBO,5.315915,51.995334
Dorpsstraat,4,,,3945BL,Cothen,Wijk bij Duurstede,Utrecht,VBO,5.315813,51.995379
Dorpsstraat,6,,,3945BL,Cothen,Wijk bij Duurstede,Utrecht,VBO,5.315755,51.995442
Dorpsstraat,8,,,3945BL,Cothen,Wijk bij Duurstede,Utrecht,VBO,5.315489,51.995834
Dorpsstraat,10,,,3945BL,Cothen,Wijk bij Duurstede,Utrecht,VBO,5.315229,51.996008
Dorpsstraat,12,,,3945BL,Cothen,Wijk bij Duurstede,Utrecht,VBO,5.315098,51.996170
Dorpsstraat,14,,,3945BL,Cothen,Wijk bij Duurstede,Utrecht,VBO,5.315025,51.996206
Dorpsstraat,16,,,3945BL,Cothen,Wijk bij Duurstede,Utrecht,VBO,5.314952,51.996296
Dorpsstraat,18,,,3945BL,Cothen,Wijk bij Duurstede,Utrecht,VBO,5.314719,51.996277
Dorpsstraat,22,a,,3945BL,Cothen,Wijk bij Duurstede,Utrecht,VBO,5.314460,51.996349
Dorpsstraat,22,,,3945BL,Cothen,Wijk bij Duurstede,Utrecht,VBO,5.315303,51.996671
Dorpsstraat,24,,,3945BL,Cothen,Wijk bij Duurstede,Utrecht,VBO,5.314356,51.996380
Dorpsstraat,26,,,3945BL,Cothen,Wijk bij Duurstede,Utrecht,VBO,5.314180,51.996421
Dorpsstraat,28,,,3945BL,Cothen,Wijk bij Duurstede,Utrecht,VBO,5.314078,51.996457
Dorpsstraat,30,a,,3945BL,Cothen,Wijk bij Duurstede,Utrecht,VBO,5.313393,51.996861
Dorpsstraat,30,,,3945BL,Cothen,Wijk bij Duurstede,Utrecht,VBO,5.313320,51.996987
Dorpsstraat,32,a,,3945BL,Cothen,Wijk bij Duurstede,Utrecht,VBO,5.312956,51.997013
Dorpsstraat,32,b,,3945BL,Cothen,Wijk bij Duurstede,Utrecht,VBO,5.313176,51.996989
Dorpsstraat,34,,,3945BL,Cothen,Wijk bij Duurstede,Utrecht,VBO,5.311804,51.998406
Kerkweg,1,a,,3945BM,Cothen,Wijk bij Duurstede,Utrecht,VBO,5.310825,51.998910
Kerkweg,1,,,3945BM,Cothen,Wijk bij Duurstede,Utrecht,VBO,5.310905,51.998896
Kerkweg,3,a,,3945BM,Cothen,Wijk bij Duurstede,Utrecht,VBO,5.310527,51.998922
Kerkweg,3,,,3945BM,Cothen,Wijk bij Duurstede,Utrecht,VBO,5.310655,51.998940
Kerkweg,5,,,3945BM,Cothen,Wijk bij Duurstede,Utrecht,VBO,5.310366,51.998940
Kerkweg,7,,,3945BM,Cothen,Wijk bij Duurstede,Utrecht,VBO,5.310055,51.998998
Kerkweg,11,,,3945BM,Cothen,Wijk bij Duurstede,Utrecht,VBO,5.308861,51.999105
Kerkweg,13,,,3945BM,Cothen,Wijk bij Duurstede,Utrecht,VBO,5.308628,51.999105
Kerkweg,15,,,3945BM,Cothen,Wijk bij Duurstede,Utrecht,VBO,5.308075,51.999140
Kerkweg,17,,,3945BM,Cothen,Wijk bij Duurstede,Utrecht,VBO,5.307929,51.999149
Kerkweg,19,,,3945BM,Cothen,Wijk bij Duurstede,Utrecht,VBO,5.307813,51.999140
Kerkweg,21,,,3945BM,Cothen,Wijk bij Duurstede,Utrecht,VBO,5.307667,51.999122
Kerkweg,23,,,3945BM,Cothen,Wijk bij Duurstede,Utrecht,VBO,5.307550,51.999122
Kerkweg,25,,,3945BM,Cothen,Wijk bij Duurstede,Utrecht,VBO,5.307389,51.999163
Kerkweg,2,,,3945BN,Cothen,Wijk bij Duurstede,Utrecht,VBO,5.311016,51.999115
Kerkweg,4,,,3945BN,Cothen,Wijk bij Duurstede,Utrecht,VBO,5.310856,51.999133
Kerkweg,6,,,3945BN,Cothen,Wijk bij Duurstede,Utrecht,VBO,5.310766,51.999094
Kerkweg,8,,,3945BN,Cothen,Wijk bij Duurstede,Utrecht,VBO,5.310667,51.999151
Kerkweg,10,,,3945BN,Cothen,Wijk bij Duurstede,Utrecht,VBO,5.310579,51.999160
Kerkweg,14,,,3945BN,Cothen,Wijk bij Duurstede,Utrecht,VBO,5.310403,51.999139
Kerkweg,16,,,3945BN,Cothen,Wijk bij Duurstede,Utrecht,VBO,5.310273,51.999169
Kerkweg,18,a,,3945BN,Cothen,Wijk bij Duurstede,Utrecht,VBO,5.309997,51.999276
Kerkweg,18,,,3945BN,Cothen,Wijk bij Duurstede,Utrecht,VBO,5.310128,51.999268
Kerkweg,20,,,3945BN,Cothen,Wijk bij Duurstede,Utrecht,VBO,5.309501,51.999537
Kerkweg,22,,,3945BN,Cothen,Wijk bij Duurstede,Utrecht,VBO,5.308933,51.999456
Kerkweg,24,,,3945BN,Cothen,Wijk bij Duurstede,Utrecht,VBO,5.308729,51.999752
Kerkweg,26,,,3945BN,Cothen,Wijk bij Duurstede,Utrecht,VBO,5.308686,51.999428
Kerkweg,28,,,3945BN,Cothen,Wijk bij Duurstede,Utrecht,VBO,5.308598,51.999437
Kerkweg,30,,,3945BN,Cothen,Wijk bij Duurstede,Utrecht,VBO,5.307506,51.999419
Kerkweg,32,,,3945BN,Cothen,Wijk bij Duurstede,Utrecht,VBO,5.307186,51.999472
Kerkweg,34,,,3945BN,Cothen,Wijk bij Duurstede,Utrecht,VBO,5.307099,51.999391
Kerkweg,36,,,3945BN,Cothen,Wijk bij Duurstede,Utrecht,VBO,5.306837,51.999373
Kerkweg,38,,,3945BN,Cothen,Wijk bij Duurstede,Utrecht,VBO,5.306502,51.999139
Kerkdwarsweg,3,,,3945BP,Cothen,Wijk bij Duurstede,Utrecht,VBO,5.308176,51.999419
Kerkdwarsweg,5,,,3945BP,Cothen,Wijk bij Duurstede,Utrecht,VBO,5.308112,51.999524
Kerkdwarsweg,9,,,3945BP,Cothen,Wijk bij Duurstede,Utrecht,VBO,5.308045,51.999590
Kerkdwarsweg,11,,,3945BP,Cothen,Wijk bij Duurstede,Utrecht,VBO,5.308001,51.999599
Kerkdwarsweg,15,,,3945BP,Cothen,Wijk bij Duurstede,Utrecht,VBO,5.307914,51.999671
Kerkdwarsweg,19,,,3945BP,Cothen,Wijk bij Duurstede,Utrecht,VBO,5.307724,51.999661
Kerkdwarsweg,21,,,3945BP,Cothen,Wijk bij Duurstede,Utrecht,VBO,5.307713,51.999758
Hinkerstraat,1,,,3945BR,Cothen,Wijk bij Duurstede,Utrecht,VBO,5.305708,51.996548
Hinkerstraat,3,,,3945BR,Cothen,Wijk bij Duurstede,Utrecht,VBO,5.306082,51.997187
Hinkerstraat,5,,,3945BR,Cothen,Wijk bij Duurstede,Utrecht,VBO,5.306116,51.997237
Hinkerstraat,7,,,3945BR,Cothen,Wijk bij Duurstede,Utrecht,VBO,5.306185,51.997323
Hinkerstraat,9,,,3945BR,Cothen,Wijk bij Duurstede,Utrecht,VBO,5.306214,51.997377
Hinkerstraat,11,,,3945BR,Cothen,Wijk bij Duurstede,Utrecht,VBO,5.306287,51.997467
Hinkerstraat,13,,,3945BR,Cothen,Wijk bij Duurstede,Utrecht,VBO,5.306316,51.997512
Hinkerstraat,15,,,3945BR,Cothen,Wijk bij Duurstede,Utrecht,VBO,5.306374,51.997620
Hinkerstraat,17,,,3945BR,Cothen,Wijk bij Duurstede,Utrecht,VBO,5.306388,51.997674
Hinkerstraat,19,,,3945BR,Cothen,Wijk bij Duurstede,Utrecht,VBO,5.306403,51.997764
Hinkerstraat,21,,,3945BR,Cothen,Wijk bij Duurstede,Utrecht,VBO,5.306417,51.997827
Hinkerstraat,23,,,3945BR,Cothen,Wijk bij Duurstede,Utrecht,VBO,5.306418,51.997924
Hinkerstraat,25,,,3945BR,Cothen,Wijk bij Duurstede,Utrecht,VBO,5.306433,51.997974
Hinkerstraat,27,,,3945BR,Cothen,Wijk bij Duurstede,Utrecht,VBO,5.306456,51.998075
Hinkerstraat,29,,,3945BR,Cothen,Wijk bij Duurstede,Utrecht,VBO,5.306470,51.998126
Hinkerstraat,31,,,3945BR,Cothen,Wijk bij Duurstede,Utrecht,VBO,5.306495,51.998227
Hinkerstraat,33,,,3945BR,Cothen,Wijk bij Duurstede,Utrecht,VBO,5.306502,51.998274
Hinkerstraat,35,,,3945BR,Cothen,Wijk bij Duurstede,Utrecht,VBO,5.306530,51.998463
Hinkerstraat,37,,,3945BR,Cothen,Wijk bij Duurstede,Utrecht,VBO,5.306547,51.998510
Hinkerstraat,39,,,3945BR,Cothen,Wijk bij Duurstede,Utrecht,VBO,5.306551,51.998574
Hinkerstraat,41,,,3945BR,Cothen,Wijk bij Duurstede,Utrecht,VBO,5.306565,51.998677
Rijnweide,2,,,3945BR,Cothen,Wijk bij Duurstede,Utrecht,VBO,5.306153,51.998627
Rijnweide,4,,,3945BR,Cothen,Wijk bij Duurstede,Utrecht,VBO,5.305629,51.998563
Rijnweide,6,,,3945BR,Cothen,Wijk bij Duurstede,Utrecht,VBO,5.305455,51.998581
Rijnweide,8,,,3945BR,Cothen,Wijk bij Duurstede,Utrecht,VBO,5.305047,51.998590
Rijnweide,10,,,3945BR,Cothen,Wijk bij Duurstede,Utrecht,VBO,5.305047,51.998698
Rijnweide,12,,,3945BR,Cothen,Wijk bij Duurstede,Utrecht,VBO,5.305134,51.998824
Rijnweide,14,,,3945BR,Cothen,Wijk bij Duurstede,Utrecht,VBO,5.305250,51.998905
Rijnweide,16,,,3945BR,Cothen,Wijk bij Duurstede,Utrecht,VBO,5.305410,51.999013
Rijnweide,18,,,3945BR,Cothen,Wijk bij Duurstede,Utrecht,VBO,5.305556,51.999085
Rijnweide,20,,,3945BR,Cothen,Wijk bij Duurstede,Utrecht,VBO,5.305730,51.999166
Rijnweide,22,,,3945BR,Cothen,Wijk bij Duurstede,Utrecht,VBO,5.305880,51.999218
Rijnweide,24,,,3945BR,Cothen,Wijk bij Duurstede,Utrecht,VBO,5.306094,51.999283
Rijnweide,26,,,3945BR,Cothen,Wijk bij Duurstede,Utrecht,VBO,5.306371,51.999346
Hinkerstraat,2,,,3945BS,Cothen,Wijk bij Duurstede,Utrecht,VBO,5.306142,51.996667
Hinkerstraat,4,,,3945BS,Cothen,Wijk bij Duurstede,Utrecht,VBO,5.306171,51.996721
Hinkerstraat,6,,,3945BS,Cothen,Wijk bij Duurstede,Utrecht,VBO,5.306171,51.996802
Hinkerstraat,8,,,3945BS,Cothen,Wijk bij Duurstede,Utrecht,VBO,5.306220,51.996857
Hinkerstraat,10,,,3945BS,Cothen,Wijk bij Duurstede,Utrecht,VBO,5.306345,51.997056
Hinkerstraat,12,,,3945BS,Cothen,Wijk bij Duurstede,Utrecht,VBO,5.306371,51.997112
Hinkerstraat,14,,,3945BS,Cothen,Wijk bij Duurstede,Utrecht,VBO,5.306421,51.997212
Hinkerstraat,16,,,3945BS,Cothen,Wijk bij Duurstede,Utrecht,VBO,5.306453,51.997263
Hinkerstraat,18,,,3945BS,Cothen,Wijk bij Duurstede,Utrecht,VBO,5.306462,51.997315
Hinkerstraat,20,,,3945BS,Cothen,Wijk bij Duurstede,Utrecht,VBO,5.306527,51.997422
Hinkerstraat,22,,,3945BS,Cothen,Wijk bij Duurstede,Utrecht,VBO,5.306549,51.997477
Hinkerstraat,24,,,3945BS,Cothen,Wijk bij Duurstede,Utrecht,VBO,5.306592,51.997530
Hinkerstraat,26,,,3945BS,Cothen,Wijk bij Duurstede,Utrecht,VBO,5.306637,51.997636
Hinkerstraat,28,,,3945BS,Cothen,Wijk bij Duurstede,Utrecht,VBO,5.306651,51.997691
Hinkerstraat,30,,,3945BS,Cothen,Wijk bij Duurstede,Utrecht,VBO,5.306710,51.997783
Hinkerstraat,32,,,3945BS,Cothen,Wijk bij Duurstede,Utrecht,VBO,5.306723,51.997836
Hinkerstraat,34,,,3945BS,Cothen,Wijk bij Duurstede,Utrecht,VBO,5.306744,51.997894
Hinkerstraat,36,,,3945BS,Cothen,Wijk bij Duurstede,Utrecht,VBO,5.306771,51.998016
Hinkerstraat,38,,,3945BS,Cothen,Wijk bij Duurstede,Utrecht,VBO,5.306780,51.998074
Hinkerstraat,40,,,3945BS,Cothen,Wijk bij Duurstede,Utrecht,VBO,5.306774,51.998178
Hinkerstraat,42,,,3945BS,Cothen,Wijk bij Duurstede,Utrecht,VBO,5.306784,51.998227
Hinkerstraat,44,,,3945BS,Cothen,Wijk bij Duurstede,Utrecht,VBO,5.306820,51.998449
Hinkerstraat,46,,,3945BS,Cothen,Wijk bij Duurstede,Utrecht,VBO,5.306828,51.998614
Hinkerstraat,48,,,3945BS,Cothen,Wijk bij Duurstede,Utrecht,VBO,5.306832,51.998673
Weth van Damstraat,1,,,3945BT,Cothen,Wijk bij Duurstede,Utrecht,VBO,5.307234,51.998427
Weth van Damstraat,2,,,3945BT,Cothen,Wijk bij Duurstede,Utrecht,VBO,5.307681,51.998412
Weth van Damstraat,3,,,3945BT,Cothen,Wijk bij Duurstede,Utrecht,VBO,5.307258,51.998546
Weth van Damstraat,4,,,3945BT,Cothen,Wijk bij Duurstede,Utrecht,VBO,5.307698,51.998471
Weth van Damstraat,5,,,3945BT,Cothen,Wijk bij Duurstede,Utrecht,VBO,5.307278,51.998599
Weth van Damstraat,6,,,3945BT,Cothen,Wijk bij Duurstede,Utrecht,VBO,5.307663,51.998535
Weth van Damstraat,7,,,3945BT,Cothen,Wijk bij Duurstede,Utrecht,VBO,5.307329,51.998703
Weth van Damstraat,8,,,3945BT,Cothen,Wijk bij Duurstede,Utrecht,VBO,5.307678,51.998591
Weth van Damstraat,9,,,3945BT,Cothen,Wijk bij Duurstede,Utrecht,VBO,5.307345,51.998758
Weth van Damstraat,11,,,3945BT,Cothen,Wijk bij Duurstede,Utrecht,VBO,5.307587,51.998805
Weth van Damstraat,13,,,3945BT,Cothen,Wijk bij Duurstede,Utrecht,VBO,5.307689,51.998823
Weth van Damstraat,15,,,3945BT,Cothen,Wijk bij Duurstede,Utrecht,VBO,5.307846,51.998820
Weth van Damstraat,17,,,3945BT,Cothen,Wijk bij Duurstede,Utrecht,VBO,5.307959,51.998819
Mgr Le Blancstraat,1,,,3945BV,Cothen,Wijk bij Duurstede,Utrecht,VBO,5.309408,51.998555
Mgr Le Blancstraat,2,,,3945BV,Cothen,Wijk bij Duurstede,Utrecht,VBO,5.309180,51.998905
Mgr Le Blancstraat,3,,,3945BV,Cothen,Wijk bij Duurstede,Utrecht,VBO,5.309336,51.998539
Mgr Le Blancstraat,4,,,3945BV,Cothen,Wijk bij Duurstede,Utrecht,VBO,5.309080,51.998894
Mgr Le Blancstraat,5,,,3945BV,Cothen,Wijk bij Duurstede,Utrecht,VBO,5.309275,51.998526
Mgr Le Blancstraat,6,,,3945BV,Cothen,Wijk bij Duurstede,Utrecht,VBO,5.308954,51.998884
Mgr Le Blancstraat,7,,,3945BV,Cothen,Wijk bij Duurstede,Utrecht,VBO,5.309211,51.998503
Mgr Le Blancstraat,8,,,3945BV,Cothen,Wijk bij Duurstede,Utrecht,VBO,5.308798,51.998853
Mgr Le Blancstraat,9,t,,3945BV,Cothen,Wijk bij Duurstede,Utrecht,VBO,5.308609,51.998402
Mgr Le Blancstraat,9,,,3945BV,Cothen,Wijk bij Duurstede,Utrecht,VBO,5.308437,51.998311
Mgr Le Blancstraat,10,,,3945BV,Cothen,Wijk bij Duurstede,Utrecht,VBO,5.308265,51.998528
Mgr Le Blancstraat,11,,,3945BV,Cothen,Wijk bij Duurstede,Utrecht,VBO,5.308343,51.998282
Mgr Le Blancstraat,12,,,3945BV,Cothen,Wijk bij Duurstede,Utrecht,VBO,5.308175,51.998506
Mgr Le Blancstraat,13,,,3945BV,Cothen,Wijk bij Duurstede,Utrecht,VBO,5.308000,51.998197
Mgr Le Blancstraat,14,,,3945BV,Cothen,Wijk bij Duurstede,Utrecht,VBO,5.308094,51.998490
Mgr Le Blancstraat,15,,,3945BV,Cothen,Wijk bij Duurstede,Utrecht,VBO,5.307906,51.998191
Mgr Le Blancstraat,16,,,3945BV,Cothen,Wijk bij Duurstede,Utrecht,VBO,5.308007,51.998462
Mgr Le Blancstraat,17,,,3945BV,Cothen,Wijk bij Duurstede,Utrecht,VBO,5.307748,51.998176
Mgr Le Blancstraat,19,,,3945BV,Cothen,Wijk bij Duurstede,Utrecht,VBO,5.307665,51.998163
Mgr Le Blancstraat,21,,,3945BV,Cothen,Wijk bij Duurstede,Utrecht,VBO,5.307280,51.998170
Mgr Le Blancstraat,23,t,,3945BV,Cothen,Wijk bij Duurstede,Utrecht,VBO,5.307093,51.998075
Mgr Le Blancstraat,23,,,3945BV,Cothen,Wijk bij Duurstede,Utrecht,VBO,5.307199,51.998172
Rozenplantsoen,1,,,3945BW,Cothen,Wijk bij Duurstede,Utrecht,VBO,5.309689,51.998406
Rozenplantsoen,2,,,3945BW,Cothen,Wijk bij Duurstede,Utrecht,VBO,5.309794,51.998369
Rozenplantsoen,3,,,3945BW,Cothen,Wijk bij Duurstede,Utrecht,VBO,5.309838,51.998315
Rozenplantsoen,4,,,3945BW,Cothen,Wijk bij Duurstede,Utrecht,VBO,5.309853,51.998279
Rozenplantsoen,5,,,3945BW,Cothen,Wijk bij Duurstede,Utrecht,VBO,5.309955,51.998207
Rozenplantsoen,6,,,3945BW,Cothen,Wijk bij Duurstede,Utrecht,VBO,5.310042,51.998216
Rozenplantsoen,7,,,3945BW,Cothen,Wijk bij Duurstede,Utrecht,VBO,5.310129,51.998225
Rozenplantsoen,8,,,3945BW,Cothen,Wijk bij Duurstede,Utrecht,VBO,5.310217,51.998234
Rozenplantsoen,9,,,3945BW,Cothen,Wijk bij Duurstede,Utrecht,VBO,5.310375,51.998370
Rozenplantsoen,10,,,3945BW,Cothen,Wijk bij Duurstede,Utrecht,VBO,5.310373,51.998424
Rozenplantsoen,11,,,3945BW,Cothen,Wijk bij Duurstede,Utrecht,VBO,5.310455,51.998365
Rozenplantsoen,12,,,3945BW,Cothen,Wijk bij Duurstede,Utrecht,VBO,5.310479,51.998420
Rozenplantsoen,13,,,3945BW,Cothen,Wijk bij Duurstede,Utrecht,VBO,5.310556,51.998343
Rozenplantsoen,14,,,3945BW,Cothen,Wijk bij Duurstede,Utrecht,VBO,5.310594,51.998399
Rozenplantsoen,15,,,3945BW,Cothen,Wijk bij Duurstede,Utrecht,VBO,5.310718,51.998288
Rozenplantsoen,16,,,3945BW,Cothen,Wijk bij Duurstede,Utrecht,VBO,5.310769,51.998333
Rozenplantsoen,17,,,3945BW,Cothen,Wijk bij Duurstede,Utrecht,VBO,5.309939,51.998845
Weth C.E.Th. Vernooijstraat,1,,,3945BX,Cothen,Wijk bij Duurstede,Utrecht,VBO,5.309498,51.997005
Weth C.E.Th. Vernooijstraat,3,,,3945BX,Cothen,Wijk bij Duurstede,Utrecht,VBO,5.309473,51.997058
Weth C.E.Th. Vernooijstraat,5,,,3945BX,Cothen,Wijk bij Duurstede,Utrecht,VBO,5.309427,51.997149
Weth C.E.Th. Vernooijstraat,7,,,3945BX,Cothen,Wijk bij Duurstede,Utrecht,VBO,5.309416,51.997198
Weth C.E.Th. Vernooijstraat,9,,,3945BX,Cothen,Wijk bij Duurstede,Utrecht,VBO,5.309360,51.997297
Weth C.E.Th. Vernooijstraat,11,,,3945BX,Cothen,Wijk bij Duurstede,Utrecht,VBO,5.309337,51.997348
Weth C.E.Th. Vernooijstraat,13,,,3945BX,Cothen,Wijk bij Duurstede,Utrecht,VBO,5.309285,51.997439
Weth C.E.Th. Vernooijstraat,15,,,3945BX,Cothen,Wijk bij Duurstede,Utrecht,VBO,5.309273,51.997493
Weth C.E.Th. Vernooijstraat,17,,,3945BX,Cothen,Wijk bij Duurstede,Utrecht,VBO,5.309163,51.997693
Weth C.E.Th. Vernooijstraat,19,,,3945BX,Cothen,Wijk bij Duurstede,Utrecht,VBO,5.309098,51.997742
Weth C.E.Th. Vernooijstraat,21,,,3945BX,Cothen,Wijk bij Duurstede,Utrecht,VBO,5.309051,51.997849
Weth C.E.Th. Vernooijstraat,23,,,3945BX,Cothen,Wijk bij Duurstede,Utrecht,VBO,5.309016,51.997887
Weth C.E.Th. Vernooijstraat,25,,,3945BX,Cothen,Wijk bij Duurstede,Utrecht,VBO,5.308960,51.998055
Weth C.E.Th. Vernooijstraat,27,,,3945BX,Cothen,Wijk bij Duurstede,Utrecht,VBO,5.308935,51.998108
Weth C.E.Th. Vernooijstraat,29,,,3945BX,Cothen,Wijk bij Duurstede,Utrecht,VBO,5.308877,51.998209
Weth C.E.Th. Vernooijstraat,31,,,3945BX,Cothen,Wijk bij Duurstede,Utrecht,VBO,5.308927,51.998268
Weth C.E.Th. Vernooijstraat,33,,,3945BX,Cothen,Wijk bij Duurstede,Utrecht,VBO,5.308885,51.998370
Weth C.E.Th. Vernooijstraat,35,,,3945BX,Cothen,Wijk bij Duurstede,Utrecht,VBO,5.308543,51.998555
Weth C.E.Th. Vernooijstraat,37,,,3945BX,Cothen,Wijk bij Duurstede,Utrecht,VBO,5.308510,51.998617
Weth C.E.Th. Vernooijstraat,39,,,3945BX,Cothen,Wijk bij Duurstede,Utrecht,VBO,5.308441,51.998663
Weth C.E.Th. Vernooijstraat,41,,,3945BX,Cothen,Wijk bij Duurstede,Utrecht,VBO,5.308391,51.998708
Weth C.E.Th. Vernooijstraat,43,,,3945BX,Cothen,Wijk bij Duurstede,Utrecht,VBO,5.308148,51.998863
Weth C.E.Th. Vernooijstraat,2,b,,3945BZ,Cothen,Wijk bij Duurstede,Utrecht,VBO,5.309811,51.997194
Weth C.E.Th. Vernooijstraat,2,c,,3945BZ,Cothen,Wijk bij Duurstede,Utrecht,VBO,5.309808,51.997105
Weth C.E.Th. Vernooijstraat,2,,,3945BZ,Cothen,Wijk bij Duurstede,Utrecht,VBO,5.309776,51.997347
Weth C.E.Th. Vernooijstraat,4,,,3945BZ,Cothen,Wijk bij Duurstede,Utrecht,VBO,5.309711,51.997402
Weth C.E.Th. Vernooijstraat,6,,,3945BZ,Cothen,Wijk bij Duurstede,Utrecht,VBO,5.309695,51.997505
Weth C.E.Th. Vernooijstraat,8,,,3945BZ,Cothen,Wijk bij Duurstede,Utrecht,VBO,5.309645,51.997561
Weth C.E.Th. Vernooijstraat,10,,,3945BZ,Cothen,Wijk bij Duurstede,Utrecht,VBO,5.309571,51.997798
Weth C.E.Th. Vernooijstraat,12,,,3945BZ,Cothen,Wijk bij Duurstede,Utrecht,VBO,5.309486,51.997927
Weth C.E.Th. Vernooijstraat,14,,,3945BZ,Cothen,Wijk bij Duurstede,Utrecht,VBO,5.309432,51.998022
Weth C.E.Th. Vernooijstraat,16,,,3945BZ,Cothen,Wijk bij Duurstede,Utrecht,VBO,5.309423,51.998066
Weth C.E.Th. Vernooijstraat,18,,,3945BZ,Cothen,Wijk bij Duurstede,Utrecht,VBO,5.309395,51.998166
Weth C.E.Th. Vernooijstraat,20,,,3945BZ,Cothen,Wijk bij Duurstede,Utrecht,VBO,5.309349,51.998211
Weth C.E.Th. Vernooijstraat,22,,,3945BZ,Cothen,Wijk bij Duurstede,Utrecht,VBO,5.309303,51.998305
Weth C.E.Th. Vernooijstraat,24,,,3945BZ,Cothen,Wijk bij Duurstede,Utrecht,VBO,5.309280,51.998350
De Brienstraat,1,,,3945CA,Cothen,Wijk bij Duurstede,Utrecht,VBO,5.308179,51.997711
De Brienstraat,2,,,3945CA,Cothen,Wijk bij Duurstede,Utrecht,VBO,5.308654,51.997608
De Brienstraat,3,,,3945CA,Cothen,Wijk bij Duurstede,Utrecht,VBO,5.308206,51.997785
De Brienstraat,4,,,3945CA,Cothen,Wijk bij Duurstede,Utrecht,VBO,5.308601,51.997658
De Brienstraat,5,,,3945CA,Cothen,Wijk bij Duurstede,Utrecht,VBO,5.308164,51.997891
De Brienstraat,6,,,3945CA,Cothen,Wijk bij Duurstede,Utrecht,VBO,5.308543,51.997748
De Brienstraat,7,,,3945CA,Cothen,Wijk bij Duurstede,Utrecht,VBO,5.308062,51.997927
De Brienstraat,8,,,3945CA,Cothen,Wijk bij Duurstede,Utrecht,VBO,5.308558,51.997816
De Brienstraat,9,,,3945CA,Cothen,Wijk bij Duurstede,Utrecht,VBO,5.308018,51.998017
De Brienstraat,10,,,3945CA,Cothen,Wijk bij Duurstede,Utrecht,VBO,5.308539,51.997874
De Brienstraat,12,,,3945CA,Cothen,Wijk bij Duurstede,Utrecht,VBO,5.308528,51.997925
De Brienstraat,14,,,3945CA,Cothen,Wijk bij Duurstede,Utrecht,VBO,5.308441,51.998017
De Brienstraat,16,,,3945CA,Cothen,Wijk bij Duurstede,Utrecht,VBO,5.308411,51.998071
C.B. Kentiestraat,1,,,3945CB,Cothen,Wijk bij Duurstede,Utrecht,VBO,5.307531,51.996699
C.B. Kentiestraat,2,,,3945CB,Cothen,Wijk bij Duurstede,Utrecht,VBO,5.307841,51.996941
C.B. Kentiestraat,3,,,3945CB,Cothen,Wijk bij Duurstede,Utrecht,VBO,5.307456,51.996881
C.B. Kentiestraat,4,,,3945CB,Cothen,Wijk bij Duurstede,Utrecht,VBO,5.307641,51.997621
C.B. Kentiestraat,5,,,3945CB,Cothen,Wijk bij Duurstede,Utrecht,VBO,5.307433,51.996938
C.B. Kentiestraat,6,,,3945CB,Cothen,Wijk bij Duurstede,Utrecht,VBO,5.307640,51.997693
C.B. Kentiestraat,7,,,3945CB,Cothen,Wijk bij Duurstede,Utrecht,VBO,5.307379,51.997091
C.B. Kentiestraat,8,,,3945CB,Cothen,Wijk bij Duurstede,Utrecht,VBO,5.307640,51.997783
C.B. Kentiestraat,9,,,3945CB,Cothen,Wijk bij Duurstede,Utrecht,VBO,5.307350,51.997136
C.B. Kentiestraat,10,,,3945CB,Cothen,Wijk bij Duurstede,Utrecht,VBO,5.307640,51.997864
C.B. Kentiestraat,11,,,3945CB,Cothen,Wijk bij Duurstede,Utrecht,VBO,5.307306,51.997225
C.B. Kentiestraat,12,,,3945CB,Cothen,Wijk bij Duurstede,Utrecht,VBO,5.307640,51.997954
C.B. Kentiestraat,13,a,,3945CB,Cothen,Wijk bij Duurstede,Utrecht,VBO,5.306869,51.997297
C.B. Kentiestraat,13,,,3945CB,Cothen,Wijk bij Duurstede,Utrecht,VBO,5.307277,51.997279
C.B. Kentiestraat,14,,,3945CB,Cothen,Wijk bij Duurstede,Utrecht,VBO,5.307654,51.998017
C.B. Kentiestraat,15,,,3945CB,Cothen,Wijk bij Duurstede,Utrecht,VBO,5.307248,51.997396
C.B. Kentiestraat,17,,,3945CB,Cothen,Wijk bij Duurstede,Utrecht,VBO,5.307248,51.997450
C.B. Kentiestraat,19,,,3945CB,Cothen,Wijk bij Duurstede,Utrecht,VBO,5.307248,51.997513
C.B. Kentiestraat,21,,,3945CB,Cothen,Wijk bij Duurstede,Utrecht,VBO,5.307262,51.997576
C.B. Kentiestraat,23,,,3945CB,Cothen,Wijk bij Duurstede,Utrecht,VBO,5.307262,51.997657
C.B. Kentiestraat,25,,,3945CB,Cothen,Wijk bij Duurstede,Utrecht,VBO,5.307276,51.997720
C.B. Kentiestraat,27,,,3945CB,Cothen,Wijk bij Duurstede,Utrecht,VBO,5.307268,51.997781
C.B. Kentiestraat,29,,,3945CB,Cothen,Wijk bij Duurstede,Utrecht,VBO,5.307291,51.997837
C.B. Kentiestraat,31,,,3945CB,Cothen,Wijk bij Duurstede,Utrecht,VBO,5.307287,51.997942
C.B. Kentiestraat,33,,,3945CB,Cothen,Wijk bij Duurstede,Utrecht,VBO,5.307305,51.997989
Burgemeester van Beeck Calkoenstraat,1,,,3945CC,Cothen,Wijk bij Duurstede,Utrecht,VBO,5.310814,51.997732
Burgemeester van Beeck Calkoenstraat,3,,,3945CC,Cothen,Wijk bij Duurstede,Utrecht,VBO,5.310720,51.997728
Burgemeester van Beeck Calkoenstraat,5,,,3945CC,Cothen,Wijk bij Duurstede,Utrecht,VBO,5.310564,51.997698
Burgemeester van Beeck Calkoenstraat,7,,,3945CC,Cothen,Wijk bij Duurstede,Utrecht,VBO,5.310475,51.997692
Burgemeester van Beeck Calkoenstraat,9,,,3945CC,Cothen,Wijk bij Duurstede,Utrecht,VBO,5.310344,51.997672
Burgemeester van Beeck Calkoenstraat,11,,,3945CC,Cothen,Wijk bij Duurstede,Utrecht,VBO,5.310246,51.997653
Burgemeester van Beeck Calkoenstraat,13,,,3945CC,Cothen,Wijk bij Duurstede,Utrecht,VBO,5.310114,51.997634
Burgemeester van Beeck Calkoenstraat,15,,,3945CC,Cothen,Wijk bij Duurstede,Utrecht,VBO,5.310022,51.997624
Burgemeester van Beeck Calkoenstraat,17,,,3945CC,Cothen,Wijk bij Duurstede,Utrecht,VBO,5.308879,51.997432
Burgemeester van Beeck Calkoenstraat,19,,,3945CC,Cothen,Wijk bij Duurstede,Utrecht,VBO,5.308798,51.997418
Burgemeester van Beeck Calkoenstraat,21,,,3945CC,Cothen,Wijk bij Duurstede,Utrecht,VBO,5.308714,51.997402
Burgemeester van Beeck Calkoenstraat,23,,,3945CC,Cothen,Wijk bij Duurstede,Utrecht,VBO,5.308629,51.997389
Burgemeester van Beeck Calkoenstraat,25,,,3945CC,Cothen,Wijk bij Duurstede,Utrecht,VBO,5.308393,51.997346
Burgemeester van Beeck Calkoenstraat,27,,,3945CC,Cothen,Wijk bij Duurstede,Utrecht,VBO,5.308263,51.997121
Burgemeester van Beeck Calkoenstraat,2,,,3945CD,Cothen,Wijk bij Duurstede,Utrecht,VBO,5.311377,51.997374
Burgemeester van Beeck Calkoenstraat,4,,,3945CD,Cothen,Wijk bij Duurstede,Utrecht,VBO,5.311296,51.997547
Burgemeester van Beeck Calkoenstraat,6,,,3945CD,Cothen,Wijk bij Duurstede,Utrecht,VBO,5.311277,51.997599
Burgemeester van Beeck Calkoenstraat,8,,,3945CD,Cothen,Wijk bij Duurstede,Utrecht,VBO,5.311232,51.997705
Burgemeester van Beeck Calkoenstraat,10,,,3945CD,Cothen,Wijk bij Duurstede,Utrecht,VBO,5.311221,51.997750
Burgemeester van Beeck Calkoenstraat,12,,,3945CD,Cothen,Wijk bij Duurstede,Utrecht,VBO,5.311184,51.997877
Burgemeester van Beeck Calkoenstraat,16,,,3945CD,Cothen,Wijk bij Duurstede,Utrecht,VBO,5.310862,51.998024
Burgemeester van Beeck Calkoenstraat,18,,,3945CD,Cothen,Wijk bij Duurstede,Utrecht,VBO,5.310648,51.997968
Burgemeester van Beeck Calkoenstraat,20,,,3945CD,Cothen,Wijk bij Duurstede,Utrecht,VBO,5.310569,51.997952
Burgemeester van Beeck Calkoenstraat,22,,,3945CD,Cothen,Wijk bij Duurstede,Utrecht,VBO,5.310413,51.997924
Burgemeester van Beeck Calkoenstraat,24,,,3945CD,Cothen,Wijk bij Duurstede,Utrecht,VBO,5.310317,51.997912
Burgemeester van Beeck Calkoenstraat,26,,,3945CD,Cothen,Wijk bij Duurstede,Utrecht,VBO,5.310161,51.997900
Burgemeester van Beeck Calkoenstraat,28,,,3945CD,Cothen,Wijk bij Duurstede,Utrecht,VBO,5.310093,51.997850
Burgemeester van Beeck Calkoenstraat,30,,,3945CD,Cothen,Wijk bij Duurstede,Utrecht,VBO,5.309924,51.997861
Burgemeester van Beeck Calkoenstraat,32,a,,3945CD,Cothen,Wijk bij Duurstede,Utrecht,VBO,5.308969,51.997656
Burgemeester van Beeck Calkoenstraat,32,,,3945CD,Cothen,Wijk bij Duurstede,Utrecht,VBO,5.309841,51.997842
Burgemeester van Beeck Calkoenstraat,34,,,3945CD,Cothen,Wijk bij Duurstede,Utrecht,VBO,5.308304,51.997584
Burgemeester van Beeck Calkoenstraat,36,,,3945CD,Cothen,Wijk bij Duurstede,Utrecht,VBO,5.308193,51.997565
Burgemeester van Beeck Calkoenstraat,38,,,3945CD,Cothen,Wijk bij Duurstede,Utrecht,VBO,5.308010,51.997540
Burgemeester van Beeck Calkoenstraat,40,,,3945CD,Cothen,Wijk bij Duurstede,Utrecht,VBO,5.307842,51.997510
Burgemeester van Beeck Calkoenstraat,42,,,3945CD,Cothen,Wijk bij Duurstede,Utrecht,VBO,5.307663,51.997479
Burgemeester van Beeck Calkoenstraat,44,,,3945CD,Cothen,Wijk bij Duurstede,Utrecht,VBO,5.307578,51.997462
De Kamp,1,,,3945CE,Cothen,Wijk bij Duurstede,Utrecht,VBO,5.306623,51.998914
De Kamp,3,,,3945CE,Cothen,Wijk bij Duurstede,Utrecht,VBO,5.306529,51.998916
De Kamp,5,,,3945CE,Cothen,Wijk bij Duurstede,Utrecht,VBO,5.306193,51.998826
Kampweg,1,,,3945CG,Cothen,Wijk bij Duurstede,Utrecht,VBO,5.307088,51.996893
Kampweg,2,,,3945CG,Cothen,Wijk bij Duurstede,Utrecht,VBO,5.307009,51.997064
Kampweg,3,,,3945CG,Cothen,Wijk bij Duurstede,Utrecht,VBO,5.306987,51.996866
Kampweg,4,,,3945CG,Cothen,Wijk bij Duurstede,Utrecht,VBO,5.306972,51.997027
Kampweg,5,,,3945CG,Cothen,Wijk bij Duurstede,Utrecht,VBO,5.306841,51.996830
Kampweg,6,,,3945CG,Cothen,Wijk bij Duurstede,Utrecht,VBO,5.306824,51.997034
Kampweg,7,,,3945CG,Cothen,Wijk bij Duurstede,Utrecht,VBO,5.306751,51.996819
Kampweg,8,,,3945CG,Cothen,Wijk bij Duurstede,Utrecht,VBO,5.305890,51.997002
Kampweg,9,,,3945CG,Cothen,Wijk bij Duurstede,Utrecht,VBO,5.306588,51.996834
Kampweg,10,,,3945CG,Cothen,Wijk bij Duurstede,Utrecht,VBO,5.305818,51.997004
Kampweg,11,,,3945CG,Cothen,Wijk bij Duurstede,Utrecht,VBO,5.306330,51.996914
Kampweg,12,,,3945CG,Cothen,Wijk bij Duurstede,Utrecht,VBO,5.305649,51.997004
Kampweg,14,,,3945CG,Cothen,Wijk bij Duurstede,Utrecht,VBO,5.305557,51.997000
Willem-Alexanderweg,1,a,,3945CH,Cothen,Wijk bij Duurstede,Utrecht,VBO,5.311777,51.997085
Willem-Alexanderweg,1,b,,3945CH,Cothen,Wijk bij Duurstede,Utrecht,VBO,5.311591,51.997030
Willem-Alexanderweg,1,,,3945CH,Cothen,Wijk bij Duurstede,Utrecht,VBO,5.311912,51.997072
Willem-Alexanderweg,3,,,3945CH,Cothen,Wijk bij Duurstede,Utrecht,VBO,5.311193,51.997055
Willem-Alexanderweg,5,,,3945CH,Cothen,Wijk bij Duurstede,Utrecht,VBO,5.311100,51.997048
Willem-Alexanderweg,7,,,3945CH,Cothen,Wijk bij Duurstede,Utrecht,VBO,5.310925,51.997020
Willem-Alexanderweg,9,,,3945CH,Cothen,Wijk bij Duurstede,Utrecht,VBO,5.310839,51.997005
Willem-Alexanderweg,11,,,3945CH,Cothen,Wijk bij Duurstede,Utrecht,VBO,5.310683,51.996967
Willem-Alexanderweg,13,,,3945CH,Cothen,Wijk bij Duurstede,Utrecht,VBO,5.310589,51.996949
Willem-Alexanderweg,15,,,3945CH,Cothen,Wijk bij Duurstede,Utrecht,VBO,5.310428,51.996915
Willem-Alexanderweg,17,,,3945CH,Cothen,Wijk bij Duurstede,Utrecht,VBO,5.310337,51.996903
Willem-Alexanderweg,19,,,3945CH,Cothen,Wijk bij Duurstede,Utrecht,VBO,5.310145,51.996893
Willem-Alexanderweg,21,,,3945CH,Cothen,Wijk bij Duurstede,Utrecht,VBO,5.310045,51.996888
Willem-Alexanderweg,23,,,3945CH,Cothen,Wijk bij Duurstede,Utrecht,VBO,5.309949,51.996856
Willem-Alexanderweg,25,a,,3945CH,Cothen,Wijk bij Duurstede,Utrecht,VBO,5.309421,51.996729
Willem-Alexanderweg,25,,,3945CH,Cothen,Wijk bij Duurstede,Utrecht,VBO,5.309490,51.996788
Willem-Alexanderweg,27,,,3945CH,Cothen,Wijk bij Duurstede,Utrecht,VBO,5.309236,51.996717
Willem-Alexanderweg,29,,,3945CH,Cothen,Wijk bij Duurstede,Utrecht,VBO,5.309134,51.996698
Willem-Alexanderweg,31,,,3945CH,Cothen,Wijk bij Duurstede,Utrecht,VBO,5.308874,51.996654
Willem-Alexanderweg,33,,,3945CH,Cothen,Wijk bij Duurstede,Utrecht,VBO,5.308806,51.996640
Willem-Alexanderweg,35,,,3945CH,Cothen,Wijk bij Duurstede,Utrecht,VBO,5.308534,51.996602
Willem-Alexanderweg,37,,,3945CH,Cothen,Wijk bij Duurstede,Utrecht,VBO,5.308306,51.996537
Willem-Alexanderweg,39,,,3945CH,Cothen,Wijk bij Duurstede,Utrecht,VBO,5.308149,51.996508
Willem-Alexanderweg,41,,,3945CH,Cothen,Wijk bij Duurstede,Utrecht,VBO,5.307914,51.996461
Willem-Alexanderweg,43,,,3945CH,Cothen,Wijk bij Duurstede,Utrecht,VBO,5.307706,51.996422
Willem-Alexanderweg,45,,,3945CH,Cothen,Wijk bij Duurstede,Utrecht,VBO,5.307493,51.996392
Willem-Alexanderweg,47,,,3945CH,Cothen,Wijk bij Duurstede,Utrecht,VBO,5.307060,51.996324
Willem-Alexanderweg,49,,,3945CH,Cothen,Wijk bij Duurstede,Utrecht,VBO,5.306846,51.996286
Willem-Alexanderweg,51,,,3945CH,Cothen,Wijk bij Duurstede,Utrecht,VBO,5.306626,51.996244
Willem-Alexanderweg,53,,,3945CH,Cothen,Wijk bij Duurstede,Utrecht,VBO,5.306445,51.996223
Willem-Alexanderweg,55,,,3945CH,Cothen,Wijk bij Duurstede,Utrecht,VBO,5.306352,51.996214
Willem-Alexanderweg,57,,,3945CH,Cothen,Wijk bij Duurstede,Utrecht,VBO,5.305933,51.996184
Willem-Alexanderweg,59,,,3945CH,Cothen,Wijk bij Duurstede,Utrecht,VBO,5.305711,51.996208
Willem-Alexanderweg,61,,,3945CH,Cothen,Wijk bij Duurstede,Utrecht,VBO,5.305520,51.996224
Willem-Alexanderweg,63,,,3945CH,Cothen,Wijk bij Duurstede,Utrecht,VBO,5.305226,51.996298
Willem-Alexanderweg,65,,,3945CH,Cothen,Wijk bij Duurstede,Utrecht,VBO,5.305124,51.996316
Willem-Alexanderweg,73,,,3945CH,Cothen,Wijk bij Duurstede,Utrecht,VBO,5.304732,51.996302
Willem-Alexanderweg,75,a,,3945CH,Cothen,Wijk bij Duurstede,Utrecht,VBO,5.304334,51.995941
Willem-Alexanderweg,75,b,,3945CH,Cothen,Wijk bij Duurstede,Utrecht,VBO,5.304342,51.995791
Willem-Alexanderweg,75,c,,3945CH,Cothen,Wijk bij Duurstede,Utrecht,VBO,5.304093,51.995698
Willem-Alexanderweg,75,,01,3945CH,Cothen,Wijk bij Duurstede,Utrecht,VBO,5.304220,51.995805
Willem-Alexanderweg,75,,02,3945CH,Cothen,Wijk bij Duurstede,Utrecht,VBO,5.304303,51.995895
Willem-Alexanderweg,75,,,3945CH,Cothen,Wijk bij Duurstede,Utrecht,VBO,5.304414,51.996054
Willem-Alexanderweg,77,a,,3945CH,Cothen,Wijk bij Duurstede,Utrecht,VBO,5.304200,51.996366
Willem-Alexanderweg,77,b,,3945CH,Cothen,Wijk bij Duurstede,Utrecht,VBO,5.304298,51.996349
Willem-Alexanderweg,77,c,,3945CH,Cothen,Wijk bij Duurstede,Utrecht,VBO,5.304163,51.996314
Willem-Alexanderweg,77,d,,3945CH,Cothen,Wijk bij Duurstede,Utrecht,VBO,5.304277,51.996290
Willem-Alexanderweg,77,,01,3945CH,Cothen,Wijk bij Duurstede,Utrecht,VBO,5.304000,51.996168
Willem-Alexanderweg,77,,02,3945CH,Cothen,Wijk bij Duurstede,Utrecht,VBO,5.303947,51.996067
Willem-Alexanderweg,77,,03,3945CH,Cothen,Wijk bij Duurstede,Utrecht,VBO,5.303849,51.995992
Willem-Alexanderweg,77,,04,3945CH,Cothen,Wijk bij Duurstede,Utrecht,VBO,5.303767,51.995878
Willem-Alexanderweg,77,,05,3945CH,Cothen,Wijk bij Duurstede,Utrecht,VBO,5.303733,51.995799
Willem-Alexanderweg,77,,06,3945CH,Cothen,Wijk bij Duurstede,Utrecht,VBO,5.303689,51.995700
Willem-Alexanderweg,77,,07,3945CH,Cothen,Wijk bij Duurstede,Utrecht,VBO,5.303228,51.995514
Willem-Alexanderweg,77,,08,3945CH,Cothen,Wijk bij Duurstede,Utrecht,VBO,5.303430,51.995500
Willem-Alexanderweg,77,,09,3945CH,Cothen,Wijk bij Duurstede,Utrecht,VBO,5.303383,51.995421
Willem-Alexanderweg,77,,10,3945CH,Cothen,Wijk bij Duurstede,Utrecht,VBO,5.303192,51.995328
Willem-Alexanderweg,77,,11,3945CH,Cothen,Wijk bij Duurstede,Utrecht,VBO,5.303167,51.995282
Willem-Alexanderweg,77,,,3945CH,Cothen,Wijk bij Duurstede,Utrecht,VBO,5.304214,51.996245
Willem-Alexanderweg,4,,,3945CJ,Cothen,Wijk bij Duurstede,Utrecht,VBO,5.311851,51.997295
Willem-Alexanderweg,6,,,3945CJ,Cothen,Wijk bij Duurstede,Utrecht,VBO,5.311669,51.997306
Willem-Alexanderweg,8,,,3945CJ,Cothen,Wijk bij Duurstede,Utrecht,VBO,5.311037,51.997289
Willem-Alexanderweg,10,,,3945CJ,Cothen,Wijk bij Duurstede,Utrecht,VBO,5.310943,51.997273
Willem-Alexanderweg,12,,,3945CJ,Cothen,Wijk bij Duurstede,Utrecht,VBO,5.310729,51.997237
Willem-Alexanderweg,14,,,3945CJ,Cothen,Wijk bij Duurstede,Utrecht,VBO,5.310599,51.997209
Willem-Alexanderweg,16,,,3945CJ,Cothen,Wijk bij Duurstede,Utrecht,VBO,5.310481,51.997183
Willem-Alexanderweg,18,,,3945CJ,Cothen,Wijk bij Duurstede,Utrecht,VBO,5.310426,51.997175
Willem-Alexanderweg,20,,,3945CJ,Cothen,Wijk bij Duurstede,Utrecht,VBO,5.310231,51.997149
Willem-Alexanderweg,22,,,3945CJ,Cothen,Wijk bij Duurstede,Utrecht,VBO,5.310148,51.997134
Willem-Alexanderweg,24,,,3945CJ,Cothen,Wijk bij Duurstede,Utrecht,VBO,5.309985,51.997096
Willem-Alexanderweg,26,,,3945CJ,Cothen,Wijk bij Duurstede,Utrecht,VBO,5.309067,51.996964
Willem-Alexanderweg,28,,,3945CJ,Cothen,Wijk bij Duurstede,Utrecht,VBO,5.308916,51.996935
Willem-Alexanderweg,30,,,3945CJ,Cothen,Wijk bij Duurstede,Utrecht,VBO,5.308700,51.996898
Willem-Alexanderweg,32,,,3945CK,Cothen,Wijk bij Duurstede,Utrecht,VBO,5.307147,51.996613
Willem-Alexanderweg,34,,,3945CK,Cothen,Wijk bij Duurstede,Utrecht,VBO,5.306934,51.996547
Willem-Alexanderweg,36,,,3945CK,Cothen,Wijk bij Duurstede,Utrecht,VBO,5.306848,51.996532
Willem-Alexanderweg,38,,,3945CK,Cothen,Wijk bij Duurstede,Utrecht,VBO,5.306586,51.996482
Willem-Alexanderweg,40,,,3945CK,Cothen,Wijk bij Duurstede,Utrecht,VBO,5.306507,51.996469
Willem-Alexanderweg,42,,,3945CK,Cothen,Wijk bij Duurstede,Utrecht,VBO,5.306185,51.996438
Willem-Alexanderweg,44,,,3945CK,Cothen,Wijk bij Duurstede,Utrecht,VBO,5.306099,51.996453
Willem-Alexanderweg,46,,,3945CK,Cothen,Wijk bij Duurstede,Utrecht,VBO,5.305390,51.996502
Willem-Alexanderweg,48,,,3945CK,Cothen,Wijk bij Duurstede,Utrecht,VBO,5.305131,51.996525
Willem-Alexanderweg,50,,,3945CK,Cothen,Wijk bij Duurstede,Utrecht,VBO,5.304976,51.996576
Willem-Alexanderweg,52,,,3945CK,Cothen,Wijk bij Duurstede,Utrecht,VBO,5.304884,51.996590
Willem-Alexanderweg,54,,,3945CK,Cothen,Wijk bij Duurstede,Utrecht,VBO,5.304720,51.996621
Willem-Alexanderweg,66,,,3945CK,Cothen,Wijk bij Duurstede,Utrecht,VBO,5.304495,51.996664
Willem-Alexanderweg,68,,,3945CK,Cothen,Wijk bij Duurstede,Utrecht,VBO,5.304394,51.996682
Willem-Alexanderweg,70,,,3945CL,Cothen,Wijk bij Duurstede,Utrecht,VBO,5.304093,51.996739
Willem-Alexanderweg,72,,,3945CL,Cothen,Wijk bij Duurstede,Utrecht,VBO,5.303991,51.996758
Willem-Alexanderweg,74,a,,3945CL,Cothen,Wijk bij Duurstede,Utrecht,VBO,5.303550,51.996789
Willem-Alexanderweg,74,,,3945CL,Cothen,Wijk bij Duurstede,Utrecht,VBO,5.303694,51.996787
Willem-Alexanderweg,76,,,3945CL,Cothen,Wijk bij Duurstede,Utrecht,VBO,5.303490,51.996794
Willem-Alexanderweg,78,,,3945CL,Cothen,Wijk bij Duurstede,Utrecht,VBO,5.303433,51.996795
Willem-Alexanderweg,80,a,,3945CL,Cothen,Wijk bij Duurstede,Utrecht,VBO,5.303240,51.996811
Willem-Alexanderweg,80,,,3945CL,Cothen,Wijk bij Duurstede,Utrecht,VBO,5.303374,51.996802
Willem-Alexanderweg,82,,,3945CL,Cothen,Wijk bij Duurstede,Utrecht,VBO,5.302960,51.996803
Willem-Alexanderweg,84,,,3945CL,Cothen,Wijk bij Duurstede,Utrecht,VBO,5.302905,51.996801
Willem-Alexanderweg,86,,,3945CL,Cothen,Wijk bij Duurstede,Utrecht,VBO,5.302850,51.996794
Willem-Alexanderweg,88,,,3945CL,Cothen,Wijk bij Duurstede,Utrecht,VBO,5.302798,51.996790
Willem-Alexanderweg,90,,,3945CL,Cothen,Wijk bij Duurstede,Utrecht,VBO,5.302680,51.996796
Willem-Alexanderweg,92,,,3945CL,Cothen,Wijk bij Duurstede,Utrecht,VBO,5.302499,51.996784
Willem-Alexanderweg,94,,,3945CL,Cothen,Wijk bij Duurstede,Utrecht,VBO,5.302275,51.996762
Willem-Alexanderweg,96,,,3945CL,Cothen,Wijk bij Duurstede,Utrecht,VBO,5.302058,51.996761
Willem-Alexanderweg,98,t,,3945CL,Cothen,Wijk bij Duurstede,Utrecht,VBO,5.301903,51.996850
Willem-Alexanderweg,98,,,3945CL,Cothen,Wijk bij Duurstede,Utrecht,VBO,5.301973,51.996765
Margrietstraat,1,,,3945CM,Cothen,Wijk bij Duurstede,Utrecht,VBO,5.309943,51.996733
Margrietstraat,2,a,,3945CM,Cothen,Wijk bij Duurstede,Utrecht,VBO,5.309532,51.996727
Margrietstraat,2,,,3945CM,Cothen,Wijk bij Duurstede,Utrecht,VBO,5.309596,51.996733
Margrietstraat,4,,,3945CM,Cothen,Wijk bij Duurstede,Utrecht,VBO,5.309579,51.996589
Margrietstraat,6,,,3945CM,Cothen,Wijk bij Duurstede,Utrecht,VBO,5.309579,51.996472
Margrietstraat,8,,,3945CM,Cothen,Wijk bij Duurstede,Utrecht,VBO,5.309608,51.996409
Beatrixstraat,1,,,3945CN,Cothen,Wijk bij Duurstede,Utrecht,VBO,5.312879,51.995823
Beatrixstraat,3,,,3945CN,Cothen,Wijk bij Duurstede,Utrecht,VBO,5.312813,51.995854
Beatrixstraat,5,,,3945CN,Cothen,Wijk bij Duurstede,Utrecht,VBO,5.312740,51.995890
Beatrixstraat,7,,,3945CN,Cothen,Wijk bij Duurstede,Utrecht,VBO,5.312667,51.995917
Beatrixstraat,9,,,3945CN,Cothen,Wijk bij Duurstede,Utrecht,VBO,5.312574,51.995946
Beatrixstraat,11,,,3945CN,Cothen,Wijk bij Duurstede,Utrecht,VBO,5.312448,51.995988
Beatrixstraat,13,,,3945CN,Cothen,Wijk bij Duurstede,Utrecht,VBO,5.312419,51.996060
Beatrixstraat,15,,,3945CN,Cothen,Wijk bij Duurstede,Utrecht,VBO,5.312346,51.996096
Beatrixstraat,17,,,3945CN,Cothen,Wijk bij Duurstede,Utrecht,VBO,5.312215,51.996087
Beatrixstraat,19,,,3945CN,Cothen,Wijk bij Duurstede,Utrecht,VBO,5.312103,51.996145
Beatrixstraat,21,,,3945CN,Cothen,Wijk bij Duurstede,Utrecht,VBO,5.312040,51.996177
Beatrixstraat,23,,,3945CN,Cothen,Wijk bij Duurstede,Utrecht,VBO,5.311955,51.996204
Beatrixstraat,25,,,3945CN,Cothen,Wijk bij Duurstede,Utrecht,VBO,5.311880,51.996240
Beatrixstraat,27,,,3945CN,Cothen,Wijk bij Duurstede,Utrecht,VBO,5.311764,51.996231
Beatrixstraat,29,,,3945CN,Cothen,Wijk bij Duurstede,Utrecht,VBO,5.311618,51.996284
Beatrixstraat,31,,,3945CN,Cothen,Wijk bij Duurstede,Utrecht,VBO,5.311603,51.996347
Beatrixstraat,33,,,3945CN,Cothen,Wijk bij Duurstede,Utrecht,VBO,5.311530,51.996383
Beatrixstraat,35,,,3945CN,Cothen,Wijk bij Duurstede,Utrecht,VBO,5.311399,51.996374
Beatrixstraat,37,,,3945CN,Cothen,Wijk bij Duurstede,Utrecht,VBO,5.311254,51.996410
Beatrixstraat,39,,,3945CN,Cothen,Wijk bij Duurstede,Utrecht,VBO,5.311152,51.996455
Beatrixstraat,41,,,3945CN,Cothen,Wijk bij Duurstede,Utrecht,VBO,5.311064,51.996432
Beatrixstraat,43,,,3945CP,Cothen,Wijk bij Duurstede,Utrecht,VBO,5.310904,51.996347
Beatrixstraat,45,,,3945CP,Cothen,Wijk bij Duurstede,Utrecht,VBO,5.310796,51.996373
Beatrixstraat,47,,,3945CP,Cothen,Wijk bij Duurstede,Utrecht,VBO,5.310642,51.996302
Beatrixstraat,49,,,3945CP,Cothen,Wijk bij Duurstede,Utrecht,VBO,5.310584,51.996284
Beatrixstraat,51,,,3945CP,Cothen,Wijk bij Duurstede,Utrecht,VBO,5.310482,51.996257
Beatrixstraat,53,,,3945CP,Cothen,Wijk bij Duurstede,Utrecht,VBO,5.310297,51.996299
Beatrixstraat,55,,,3945CP,Cothen,Wijk bij Duurstede,Utrecht,VBO,5.310208,51.996284
Beatrixstraat,2,,,3945CR,Cothen,Wijk bij Duurstede,Utrecht,VBO,5.312857,51.996126
Beatrixstraat,4,,,3945CR,Cothen,Wijk bij Duurstede,Utrecht,VBO,5.312777,51.996155
Beatrixstraat,6,,,3945CR,Cothen,Wijk bij Duurstede,Utrecht,VBO,5.312698,51.996187
Beatrixstraat,8,,,3945CR,Cothen,Wijk bij Duurstede,Utrecht,VBO,5.312629,51.996220
Beatrixstraat,10,t,,3945CR,Cothen,Wijk bij Duurstede,Utrecht,VBO,5.312752,51.996552
Beatrixstraat,10,,,3945CR,Cothen,Wijk bij Duurstede,Utrecht,VBO,5.312550,51.996250
Beatrixstraat,12,,,3945CR,Cothen,Wijk bij Duurstede,Utrecht,VBO,5.311093,51.996671
Beatrixstraat,14,,,3945CR,Cothen,Wijk bij Duurstede,Utrecht,VBO,5.310991,51.996653
Beatrixstraat,16,,,3945CR,Cothen,Wijk bij Duurstede,Utrecht,VBO,5.310904,51.996644
Beatrixstraat,18,,,3945CR,Cothen,Wijk bij Duurstede,Utrecht,VBO,5.310802,51.996616
Beatrixstraat,20,,,3945CR,Cothen,Wijk bij Duurstede,Utrecht,VBO,5.310729,51.996607
Beatrixstraat,22,,,3945CR,Cothen,Wijk bij Duurstede,Utrecht,VBO,5.310627,51.996571
Beatrixstraat,24,,,3945CR,Cothen,Wijk bij Duurstede,Utrecht,VBO,5.310540,51.996553
Beatrixstraat,26,,,3945CR,Cothen,Wijk bij Duurstede,Utrecht,VBO,5.310453,51.996535
Beatrixstraat,28,,,3945CR,Cothen,Wijk bij Duurstede,Utrecht,VBO,5.310365,51.996517
Beatrixstraat,30,,,3945CR,Cothen,Wijk bij Duurstede,Utrecht,VBO,5.310278,51.996508
Beatrixstraat,32,,,3945CR,Cothen,Wijk bij Duurstede,Utrecht,VBO,5.310191,51.996490
Beatrixstraat,34,,,3945CR,Cothen,Wijk bij Duurstede,Utrecht,VBO,5.310103,51.996472
Ireneplantsoen,2,,,3945CS,Cothen,Wijk bij Duurstede,Utrecht,VBO,5.312273,51.996321
Ireneplantsoen,4,,,3945CS,Cothen,Wijk bij Duurstede,Utrecht,VBO,5.312273,51.996411
Ireneplantsoen,6,,,3945CS,Cothen,Wijk bij Duurstede,Utrecht,VBO,5.312317,51.996447
Ireneplantsoen,8,,,3945CS,Cothen,Wijk bij Duurstede,Utrecht,VBO,5.312433,51.996483
Ireneplantsoen,10,,,3945CS,Cothen,Wijk bij Duurstede,Utrecht,VBO,5.312275,51.996595
Ireneplantsoen,12,,,3945CS,Cothen,Wijk bij Duurstede,Utrecht,VBO,5.312185,51.996608
Ireneplantsoen,14,,,3945CS,Cothen,Wijk bij Duurstede,Utrecht,VBO,5.312123,51.996657
Ireneplantsoen,16,,,3945CS,Cothen,Wijk bij Duurstede,Utrecht,VBO,5.312042,51.996677
Ireneplantsoen,18,,,3945CS,Cothen,Wijk bij Duurstede,Utrecht,VBO,5.311967,51.996707
Ireneplantsoen,20,,,3945CS,Cothen,Wijk bij Duurstede,Utrecht,VBO,5.311879,51.996743
Ireneplantsoen,22,,,3945CS,Cothen,Wijk bij Duurstede,Utrecht,VBO,5.311646,51.996734
Ireneplantsoen,24,,,3945CS,Cothen,Wijk bij Duurstede,Utrecht,VBO,5.311559,51.996716
Ireneplantsoen,26,,,3945CS,Cothen,Wijk bij Duurstede,Utrecht,VBO,5.311457,51.996716
Ireneplantsoen,28,,,3945CS,Cothen,Wijk bij Duurstede,Utrecht,VBO,5.311384,51.996689
Ireneplantsoen,30,,,3945CS,Cothen,Wijk bij Duurstede,Utrecht,VBO,5.311282,51.996671
Ireneplantsoen,32,,,3945CS,Cothen,Wijk bij Duurstede,Utrecht,VBO,5.311195,51.996653
Rhijnesteinstraat,1,,,3945CT,Cothen,Wijk bij Duurstede,Utrecht,VBO,5.313703,51.996176
Rhijnesteinstraat,2,,,3945CT,Cothen,Wijk bij Duurstede,Utrecht,VBO,5.313409,51.996241
Rhijnesteinstraat,3,,,3945CT,Cothen,Wijk bij Duurstede,Utrecht,VBO,5.313648,51.996132
Rhijnesteinstraat,4,,,3945CT,Cothen,Wijk bij Duurstede,Utrecht,VBO,5.313365,51.996205
Rhijnesteinstraat,5,,,3945CT,Cothen,Wijk bij Duurstede,Utrecht,VBO,5.313584,51.996079
Rhijnesteinstraat,6,,,3945CT,Cothen,Wijk bij Duurstede,Utrecht,VBO,5.313307,51.996160
Rhijnesteinstraat,7,,,3945CT,Cothen,Wijk bij Duurstede,Utrecht,VBO,5.313526,51.996034
Rhijnesteinstraat,8,,,3945CT,Cothen,Wijk bij Duurstede,Utrecht,VBO,5.313249,51.996106
Rhijnesteinstraat,9,,,3945CT,Cothen,Wijk bij Duurstede,Utrecht,VBO,5.313491,51.995993
Rhijnesteinstraat,10,,,3945CT,Cothen,Wijk bij Duurstede,Utrecht,VBO,5.313191,51.996052
Rhijnesteinstraat,11,,,3945CT,Cothen,Wijk bij Duurstede,Utrecht,VBO,5.313395,51.995872
Rhijnesteinstraat,12,,,3945CT,Cothen,Wijk bij Duurstede,Utrecht,VBO,5.313147,51.996007
Rhijnesteinstraat,13,,,3945CT,Cothen,Wijk bij Duurstede,Utrecht,VBO,5.313347,51.995825
Rhijnesteinstraat,15,,,3945CT,Cothen,Wijk bij Duurstede,Utrecht,VBO,5.313306,51.995782
Rhijnesteinstraat,17,,,3945CT,Cothen,Wijk bij Duurstede,Utrecht,VBO,5.313248,51.995733
Rhijnesteinstraat,19,,,3945CT,Cothen,Wijk bij Duurstede,Utrecht,VBO,5.313159,51.995707
Rhijnesteinstraat,21,,,3945CT,Cothen,Wijk bij Duurstede,Utrecht,VBO,5.313104,51.995664
Rhijnesteinstraat,23,,,3945CT,Cothen,Wijk bij Duurstede,Utrecht,VBO,5.313075,51.995602
Kromme Stelakker,1,,,3945CV,Cothen,Wijk bij Duurstede,Utrecht,VBO,5.309772,51.996205
Kromme Stelakker,3,,,3945CV,Cothen,Wijk bij Duurstede,Utrecht,VBO,5.309613,51.996171
Kromme Stelakker,5,,,3945CV,Cothen,Wijk bij Duurstede,Utrecht,VBO,5.309532,51.996153
Kromme Stelakker,7,,,3945CV,Cothen,Wijk bij Duurstede,Utrecht,VBO,5.309368,51.996119
Kromme Stelakker,9,,,3945CV,Cothen,Wijk bij Duurstede,Utrecht,VBO,5.309277,51.996102
Kromme Stelakker,11,,,3945CV,Cothen,Wijk bij Duurstede,Utrecht,VBO,5.309108,51.996075
Kromme Stelakker,13,,,3945CV,Cothen,Wijk bij Duurstede,Utrecht,VBO,5.309025,51.996059
Kromme Stelakker,15,,,3945CV,Cothen,Wijk bij Duurstede,Utrecht,VBO,5.308863,51.996024
Kromme Stelakker,17,,,3945CV,Cothen,Wijk bij Duurstede,Utrecht,VBO,5.308777,51.996006
Kromme Stelakker,19,,,3945CV,Cothen,Wijk bij Duurstede,Utrecht,VBO,5.308614,51.995980
Kromme Stelakker,21,,,3945CV,Cothen,Wijk bij Duurstede,Utrecht,VBO,5.308526,51.995965
Kromme Stelakker,23,,,3945CV,Cothen,Wijk bij Duurstede,Utrecht,VBO,5.308356,51.995939
Kromme Stelakker,25,,,3945CV,Cothen,Wijk bij Duurstede,Utrecht,VBO,5.308267,51.995924
Kromme Stelakker,27,,,3945CV,Cothen,Wijk bij Duurstede,Utrecht,VBO,5.308283,51.995677
Kromme Stelakker,29,,,3945CV,Cothen,Wijk bij Duurstede,Utrecht,VBO,5.308558,51.995619
Kromme Stelakker,31,,,3945CV,Cothen,Wijk bij Duurstede,Utrecht,VBO,5.308646,51.995582
Kromme Stelakker,33,,,3945CV,Cothen,Wijk bij Duurstede,Utrecht,VBO,5.308856,51.995605
Kromme Stelakker,35,a,,3945CV,Cothen,Wijk bij Duurstede,Utrecht,VBO,5.309023,51.995434
Kromme Stelakker,35,b,,3945CV,Cothen,Wijk bij Duurstede,Utrecht,VBO,5.308906,51.995321
Kromme Stelakker,35,,,3945CV,Cothen,Wijk bij Duurstede,Utrecht,VBO,5.308925,51.995564
Kromme Stelakker,37,,,3945CV,Cothen,Wijk bij Duurstede,Utrecht,VBO,5.308698,51.995344
Kromme Stelakker,39,,,3945CV,Cothen,Wijk bij Duurstede,Utrecht,VBO,5.308623,51.995377
Kromme Stelakker,41,,,3945CW,Cothen,Wijk bij Duurstede,Utrecht,VBO,5.308480,51.995443
Kromme Stelakker,43,,,3945CW,Cothen,Wijk bij Duurstede,Utrecht,VBO,5.308283,51.995256
Kromme Stelakker,45,,,3945CW,Cothen,Wijk bij Duurstede,Utrecht,VBO,5.308228,51.995208
Kromme Stelakker,47,,,3945CW,Cothen,Wijk bij Duurstede,Utrecht,VBO,5.308158,51.995108
Kromme Stelakker,49,,,3945CW,Cothen,Wijk bij Duurstede,Utrecht,VBO,5.308110,51.995064
Kromme Stelakker,51,,,3945CW,Cothen,Wijk bij Duurstede,Utrecht,VBO,5.307996,51.994979
Kromme Stelakker,53,,,3945CW,Cothen,Wijk bij Duurstede,Utrecht,VBO,5.307951,51.994934
Kromme Stelakker,55,,,3945CW,Cothen,Wijk bij Duurstede,Utrecht,VBO,5.307845,51.994823
Kromme Stelakker,57,,,3945CW,Cothen,Wijk bij Duurstede,Utrecht,VBO,5.307646,51.994700
Kromme Stelakker,59,,,3945CW,Cothen,Wijk bij Duurstede,Utrecht,VBO,5.307607,51.994663
Kromme Stelakker,61,,,3945CW,Cothen,Wijk bij Duurstede,Utrecht,VBO,5.307544,51.994619
Kromme Stelakker,63,,,3945CW,Cothen,Wijk bij Duurstede,Utrecht,VBO,5.307515,51.994592
Kromme Stelakker,65,,,3945CW,Cothen,Wijk bij Duurstede,Utrecht,VBO,5.307457,51.994547
Kromme Stelakker,67,,,3945CW,Cothen,Wijk bij Duurstede,Utrecht,VBO,5.307429,51.994502
Kromme Stelakker,69,,,3945CW,Cothen,Wijk bij Duurstede,Utrecht,VBO,5.307210,51.994306
Kromme Stelakker,71,,,3945CW,Cothen,Wijk bij Duurstede,Utrecht,VBO,5.307151,51.994268
Kromme Stelakker,73,,,3945CW,Cothen,Wijk bij Duurstede,Utrecht,VBO,5.307122,51.994232
Kromme Stelakker,75,,,3945CW,Cothen,Wijk bij Duurstede,Utrecht,VBO,5.307079,51.994185
Kromme Stelakker,77,,,3945CW,Cothen,Wijk bij Duurstede,Utrecht,VBO,5.306979,51.994111
Kromme Stelakker,79,,,3945CW,Cothen,Wijk bij Duurstede,Utrecht,VBO,5.306914,51.994058
Kromme Stelakker,81,,,3945CW,Cothen,Wijk bij Duurstede,Utrecht,VBO,5.306820,51.993970
Kromme Stelakker,83,,,3945CW,Cothen,Wijk bij Duurstede,Utrecht,VBO,5.306771,51.993924
Kromme Stelakker,85,,,3945CW,Cothen,Wijk bij Duurstede,Utrecht,VBO,5.306676,51.993838
Kromme Stelakker,87,,,3945CW,Cothen,Wijk bij Duurstede,Utrecht,VBO,5.306566,51.993739
Kromme Stelakker,2,,,3945CX,Cothen,Wijk bij Duurstede,Utrecht,VBO,5.309368,51.996350
Kromme Stelakker,4,,,3945CX,Cothen,Wijk bij Duurstede,Utrecht,VBO,5.309274,51.996335
Kromme Stelakker,8,t,,3945CX,Cothen,Wijk bij Duurstede,Utrecht,VBO,5.308384,51.996393
Kromme Stelakker,10,,,3945CX,Cothen,Wijk bij Duurstede,Utrecht,VBO,5.307890,51.995835
Kromme Stelakker,12,,,3945CX,Cothen,Wijk bij Duurstede,Utrecht,VBO,5.307914,51.995778
Kromme Stelakker,14,,,3945CX,Cothen,Wijk bij Duurstede,Utrecht,VBO,5.308006,51.995651
Kromme Stelakker,16,,,3945CX,Cothen,Wijk bij Duurstede,Utrecht,VBO,5.308028,51.995597
Kromme Stelakker,18,,,3945CX,Cothen,Wijk bij Duurstede,Utrecht,VBO,5.308059,51.995479
Kromme Stelakker,20,,,3945CX,Cothen,Wijk bij Duurstede,Utrecht,VBO,5.308055,51.995418
Kromme Stelakker,22,,,3945CX,Cothen,Wijk bij Duurstede,Utrecht,VBO,5.307961,51.995296
Kromme Stelakker,24,,,3945CX,Cothen,Wijk bij Duurstede,Utrecht,VBO,5.307909,51.995249
Kromme Stelakker,26,,,3945CX,Cothen,Wijk bij Duurstede,Utrecht,VBO,5.307812,51.995166
Kromme Stelakker,28,,,3945CX,Cothen,Wijk bij Duurstede,Utrecht,VBO,5.307763,51.995116
Kromme Stelakker,30,,,3945CX,Cothen,Wijk bij Duurstede,Utrecht,VBO,5.307646,51.995041
Kromme Stelakker,32,,,3945CX,Cothen,Wijk bij Duurstede,Utrecht,VBO,5.307586,51.994991
Kromme Stelakker,34,,,3945CX,Cothen,Wijk bij Duurstede,Utrecht,VBO,5.307064,51.994493
Kromme Stelakker,36,,,3945CX,Cothen,Wijk bij Duurstede,Utrecht,VBO,5.307005,51.994448
Kromme Stelakker,38,,,3945CX,Cothen,Wijk bij Duurstede,Utrecht,VBO,5.306947,51.994412
Kromme Stelakker,40,,,3945CX,Cothen,Wijk bij Duurstede,Utrecht,VBO,5.306918,51.994367
Kromme Stelakker,42,,,3945CX,Cothen,Wijk bij Duurstede,Utrecht,VBO,5.306875,51.994331
Kromme Stelakker,44,,,3945CX,Cothen,Wijk bij Duurstede,Utrecht,VBO,5.306817,51.994277
Kromme Stelakker,46,,,3945CX,Cothen,Wijk bij Duurstede,Utrecht,VBO,5.306437,51.993958
Kromme Stelakker,48,,,3945CX,Cothen,Wijk bij Duurstede,Utrecht,VBO,5.306398,51.993919
Kromme Stelakker,50,,,3945CX,Cothen,Wijk bij Duurstede,Utrecht,VBO,5.306303,51.993832
Kromme Stelakker,52,,,3945CX,Cothen,Wijk bij Duurstede,Utrecht,VBO,5.306252,51.993789
Molenplein,1,a,,3945CZ,Cothen,Wijk bij Duurstede,Utrecht,VBO,5.311268,51.998443
Molenplein,1,b,,3945CZ,Cothen,Wijk bij Duurstede,Utrecht,VBO,5.311194,51.998405
Molenplein,1,,,3945CZ,Cothen,Wijk bij Duurstede,Utrecht,VBO,5.311265,51.998271
Molenplein,2,,,3945CZ,Cothen,Wijk bij Duurstede,Utrecht,VBO,5.310828,51.998198
Molenplein,3,,,3945CZ,Cothen,Wijk bij Duurstede,Utrecht,VBO,5.310872,51.998136
Molenplein,4,,,3945CZ,Cothen,Wijk bij Duurstede,Utrecht,VBO,5.311091,51.998055
Molenplein,5,,,3945CZ,Cothen,Wijk bij Duurstede,Utrecht,VBO,5.311180,51.998109
Zuster Wiekarthof,2,,,3945DA,Cothen,Wijk bij Duurstede,Utrecht,VBO,5.310636,51.998516
Zuster Wiekarthof,3,,,3945DA,Cothen,Wijk bij Duurstede,Utrecht,VBO,5.310948,51.998407
Zuster Wiekarthof,4,,,3945DA,Cothen,Wijk bij Duurstede,Utrecht,VBO,5.310650,51.998558
Zuster Wiekarthof,5,,,3945DA,Cothen,Wijk bij Duurstede,Utrecht,VBO,5.310980,51.998358
Zuster Wiekarthof,6,,,3945DA,Cothen,Wijk bij Duurstede,Utrecht,VBO,5.310554,51.998539
Zuster Wiekarthof,8,,,3945DA,Cothen,Wijk bij Duurstede,Utrecht,VBO,5.310564,51.998585
Zuster Wiekarthof,10,,,3945DA,Cothen,Wijk bij Duurstede,Utrecht,VBO,5.310338,51.998568
Zuster Wiekarthof,12,,,3945DA,Cothen,Wijk bij Duurstede,Utrecht,VBO,5.310261,51.998564
Zuster Wiekarthof,14,,,3945DA,Cothen,Wijk bij Duurstede,Utrecht,VBO,5.310305,51.998633
Zuster Wiekarthof,16,,,3945DA,Cothen,Wijk bij Duurstede,Utrecht,VBO,5.310232,51.998627
Zuster Wiekarthof,18,,,3945DA,Cothen,Wijk bij Duurstede,Utrecht,VBO,5.310291,51.998704
Zuster Wiekarthof,20,,,3945DA,Cothen,Wijk bij Duurstede,Utrecht,VBO,5.310210,51.998700
Buschgensstraat,1,,,3945EA,Cothen,Wijk bij Duurstede,Utrecht,VBO,5.307833,51.995967
Buschgensstraat,3,,,3945EA,Cothen,Wijk bij Duurstede,Utrecht,VBO,5.307760,51.996012
Buschgensstraat,5,,,3945EA,Cothen,Wijk bij Duurstede,Utrecht,VBO,5.307687,51.996039
Buschgensstraat,7,,,3945EA,Cothen,Wijk bij Duurstede,Utrecht,VBO,5.307585,51.996057
Buschgensstraat,9,,,3945EA,Cothen,Wijk bij Duurstede,Utrecht,VBO,5.307512,51.996093
Buschgensstraat,11,,,3945EA,Cothen,Wijk bij Duurstede,Utrecht,VBO,5.307454,51.996129
Buschgensstraat,13,,,3945EA,Cothen,Wijk bij Duurstede,Utrecht,VBO,5.307381,51.996156
Buschgensstraat,2,,,3945EB,Cothen,Wijk bij Duurstede,Utrecht,VBO,5.307832,51.996174
van Groningenstraat,1,,,3945EC,Cothen,Wijk bij Duurstede,Utrecht,VBO,5.307265,51.995940
van Groningenstraat,3,,,3945EC,Cothen,Wijk bij Duurstede,Utrecht,VBO,5.307207,51.995886
van Groningenstraat,5,,,3945EC,Cothen,Wijk bij Duurstede,Utrecht,VBO,5.307149,51.995841
van Groningenstraat,7,,,3945EC,Cothen,Wijk bij Duurstede,Utrecht,VBO,5.307091,51.995661
van Groningenstraat,9,,,3945EC,Cothen,Wijk bij Duurstede,Utrecht,VBO,5.307193,51.995625
van Groningenstraat,11,,,3945EC,Cothen,Wijk bij Duurstede,Utrecht,VBO,5.307309,51.995572
van Groningenstraat,13,,,3945EC,Cothen,Wijk bij Duurstede,Utrecht,VBO,5.307360,51.995502
van Groningenstraat,15,,,3945EC,Cothen,Wijk bij Duurstede,Utrecht,VBO,5.307513,51.995347
van Groningenstraat,17,,,3945EC,Cothen,Wijk bij Duurstede,Utrecht,VBO,5.307455,51.995293
van Groningenstraat,19,,,3945EC,Cothen,Wijk bij Duurstede,Utrecht,VBO,5.307135,51.995311
van Groningenstraat,21,,,3945EC,Cothen,Wijk bij Duurstede,Utrecht,VBO,5.307048,51.995356
van Groningenstraat,23,,,3945EC,Cothen,Wijk bij Duurstede,Utrecht,VBO,5.306843,51.995481
van Groningenstraat,25,,,3945EC,Cothen,Wijk bij Duurstede,Utrecht,VBO,5.306785,51.995427
van Groningenstraat,2,,,3945ED,Cothen,Wijk bij Duurstede,Utrecht,VBO,5.306843,51.996003
van Groningenstraat,4,,,3945ED,Cothen,Wijk bij Duurstede,Utrecht,VBO,5.306770,51.995940
van Groningenstraat,6,,,3945ED,Cothen,Wijk bij Duurstede,Utrecht,VBO,5.306755,51.995841
van Groningenstraat,8,,,3945ED,Cothen,Wijk bij Duurstede,Utrecht,VBO,5.306683,51.995778
van Groningenstraat,10,,,3945ED,Cothen,Wijk bij Duurstede,Utrecht,VBO,5.306596,51.995688
Appelakker,1,,,3945EE,Cothen,Wijk bij Duurstede,Utrecht,VBO,5.307240,51.994662
Appelakker,2,,,3945EE,Cothen,Wijk bij Duurstede,Utrecht,VBO,5.307342,51.994838
Appelakker,3,,,3945EE,Cothen,Wijk bij Duurstede,Utrecht,VBO,5.307180,51.994700
Appelakker,4,,,3945EE,Cothen,Wijk bij Duurstede,Utrecht,VBO,5.307262,51.994868
Appelakker,5,,,3945EE,Cothen,Wijk bij Duurstede,Utrecht,VBO,5.307092,51.994736
Appelakker,6,,,3945EE,Cothen,Wijk bij Duurstede,Utrecht,VBO,5.307183,51.994897
Appelakker,7,,,3945EE,Cothen,Wijk bij Duurstede,Utrecht,VBO,5.307011,51.994754
Appelakker,8,,,3945EE,Cothen,Wijk bij Duurstede,Utrecht,VBO,5.307048,51.994996
Appelakker,9,,,3945EE,Cothen,Wijk bij Duurstede,Utrecht,VBO,5.306886,51.994819
Appelakker,10,,,3945EE,Cothen,Wijk bij Duurstede,Utrecht,VBO,5.306961,51.995032
Appelakker,11,,,3945EE,Cothen,Wijk bij Duurstede,Utrecht,VBO,5.306815,51.994852
Appelakker,12,,,3945EE,Cothen,Wijk bij Duurstede,Utrecht,VBO,5.306888,51.995068
Appelakker,13,,,3945EE,Cothen,Wijk bij Duurstede,Utrecht,VBO,5.306743,51.994888
Appelakker,14,,,3945EE,Cothen,Wijk bij Duurstede,Utrecht,VBO,5.306830,51.995095
Appelakker,15,,,3945EE,Cothen,Wijk bij Duurstede,Utrecht,VBO,5.306659,51.994909
Appelakker,16,,,3945EE,Cothen,Wijk bij Duurstede,Utrecht,VBO,5.306757,51.995140
Appelakker,17,,,3945EE,Cothen,Wijk bij Duurstede,Utrecht,VBO,5.306447,51.995007
Appelakker,18,,,3945EE,Cothen,Wijk bij Duurstede,Utrecht,VBO,5.306603,51.995174
Appelakker,19,,,3945EE,Cothen,Wijk bij Duurstede,Utrecht,VBO,5.306378,51.995041
Appelakker,20,,,3945EE,Cothen,Wijk bij Duurstede,Utrecht,VBO,5.306526,51.995207
Appelakker,21,,,3945EE,Cothen,Wijk bij Duurstede,Utrecht,VBO,5.306298,51.995070
Appelakker,22,,,3945EE,Cothen,Wijk bij Duurstede,Utrecht,VBO,5.306450,51.995238
Appelakker,23,,,3945EE,Cothen,Wijk bij Duurstede,Utrecht,VBO,5.306216,51.995094
Appelakker,25,,,3945EE,Cothen,Wijk bij Duurstede,Utrecht,VBO,5.306025,51.995174
Appelakker,27,,,3945EE,Cothen,Wijk bij Duurstede,Utrecht,VBO,5.305949,51.995193
Perenakker,1,,,3945EG,Cothen,Wijk bij Duurstede,Utrecht,VBO,5.306423,51.994735
Perenakker,2,,,3945EG,Cothen,Wijk bij Duurstede,Utrecht,VBO,5.306248,51.994807
Perenakker,3,,,3945EG,Cothen,Wijk bij Duurstede,Utrecht,VBO,5.306436,51.994673
Perenakker,4,,,3945EG,Cothen,Wijk bij Duurstede,Utrecht,VBO,5.306204,51.994762
Perenakker,5,,,3945EG,Cothen,Wijk bij Duurstede,Utrecht,VBO,5.306335,51.994645
Perenakker,6,,,3945EG,Cothen,Wijk bij Duurstede,Utrecht,VBO,5.306160,51.994726
Perenakker,7,,,3945EG,Cothen,Wijk bij Duurstede,Utrecht,VBO,5.306277,51.994600
Perenakker,8,,,3945EG,Cothen,Wijk bij Duurstede,Utrecht,VBO,5.306117,51.994672
Perenakker,9,,,3945EG,Cothen,Wijk bij Duurstede,Utrecht,VBO,5.306289,51.994544
Perenakker,10,,,3945EG,Cothen,Wijk bij Duurstede,Utrecht,VBO,5.306017,51.994657
Kersenakker,1,,,3945EH,Cothen,Wijk bij Duurstede,Utrecht,VBO,5.306540,51.994106
Kersenakker,3,,,3945EH,Cothen,Wijk bij Duurstede,Utrecht,VBO,5.306511,51.994187
Kersenakker,5,,,3945EH,Cothen,Wijk bij Duurstede,Utrecht,VBO,5.306394,51.994169
Kersenakker,7,,,3945EH,Cothen,Wijk bij Duurstede,Utrecht,VBO,5.306278,51.994223
Kersenakker,9,,,3945EH,Cothen,Wijk bij Duurstede,Utrecht,VBO,5.306229,51.994267
Kersenakker,11,,,3945EH,Cothen,Wijk bij Duurstede,Utrecht,VBO,5.306150,51.994285
Kersenakker,13,,,3945EH,Cothen,Wijk bij Duurstede,Utrecht,VBO,5.306074,51.994303
Kersenakker,17,,,3945EH,Cothen,Wijk bij Duurstede,Utrecht,VBO,5.305826,51.994474
Kersenakker,19,,,3945EH,Cothen,Wijk bij Duurstede,Utrecht,VBO,5.305753,51.994510
Kersenakker,21,,,3945EH,Cothen,Wijk bij Duurstede,Utrecht,VBO,5.305709,51.994528
Kersenakker,23,,,3945EH,Cothen,Wijk bij Duurstede,Utrecht,VBO,5.305622,51.994564
Kersenakker,25,,,3945EH,Cothen,Wijk bij Duurstede,Utrecht,VBO,5.305476,51.994555
Kersenakker,27,,,3945EH,Cothen,Wijk bij Duurstede,Utrecht,VBO,5.305360,51.994608
Kersenakker,29,,,3945EH,Cothen,Wijk bij Duurstede,Utrecht,VBO,5.304167,51.994938
Kersenakker,31,,,3945EH,Cothen,Wijk bij Duurstede,Utrecht,VBO,5.303933,51.994787
Kersenakker,33,,,3945EH,Cothen,Wijk bij Duurstede,Utrecht,VBO,5.304091,51.995452
Pruimenakker,1,,,3945EJ,Cothen,Wijk bij Duurstede,Utrecht,VBO,5.305870,51.994240
Pruimenakker,2,,,3945EJ,Cothen,Wijk bij Duurstede,Utrecht,VBO,5.305695,51.994312
Pruimenakker,3,,,3945EJ,Cothen,Wijk bij Duurstede,Utrecht,VBO,5.305827,51.994195
Pruimenakker,4,,,3945EJ,Cothen,Wijk bij Duurstede,Utrecht,VBO,5.305666,51.994267
Pruimenakker,5,,,3945EJ,Cothen,Wijk bij Duurstede,Utrecht,VBO,5.305783,51.994150
Pruimenakker,6,,,3945EJ,Cothen,Wijk bij Duurstede,Utrecht,VBO,5.305549,51.994250
Pruimenakker,7,,,3945EJ,Cothen,Wijk bij Duurstede,Utrecht,VBO,5.305751,51.994113
Pruimenakker,8,,,3945EJ,Cothen,Wijk bij Duurstede,Utrecht,VBO,5.305564,51.994186
Pruimenakker,9,,,3945EJ,Cothen,Wijk bij Duurstede,Utrecht,VBO,5.305681,51.994069
Pruimenakker,10,,,3945EJ,Cothen,Wijk bij Duurstede,Utrecht,VBO,5.305535,51.994150
Pruimenakker,11,,,3945EJ,Cothen,Wijk bij Duurstede,Utrecht,VBO,5.305638,51.994024
Pruimenakker,12,,,3945EJ,Cothen,Wijk bij Duurstede,Utrecht,VBO,5.305448,51.994096
Kroosakker,1,,,3945EK,Cothen,Wijk bij Duurstede,Utrecht,VBO,5.306377,51.996002
Kroosakker,3,,,3945EK,Cothen,Wijk bij Duurstede,Utrecht,VBO,5.306348,51.995939
Kroosakker,5,,,3945EK,Cothen,Wijk bij Duurstede,Utrecht,VBO,5.306319,51.995850
Kroosakker,7,,,3945EK,Cothen,Wijk bij Duurstede,Utrecht,VBO,5.306212,51.995800
Kroosakker,9,a,,3945EK,Cothen,Wijk bij Duurstede,Utrecht,VBO,5.306177,51.995694
Kroosakker,9,,,3945EK,Cothen,Wijk bij Duurstede,Utrecht,VBO,5.306202,51.995661
Kroosakker,11,,,3945EK,Cothen,Wijk bij Duurstede,Utrecht,VBO,5.306159,51.995508
Kroosakker,13,,,3945EK,Cothen,Wijk bij Duurstede,Utrecht,VBO,5.306188,51.995454
Kroosakker,15,,,3945EK,Cothen,Wijk bij Duurstede,Utrecht,VBO,5.306174,51.995391
Kroosakker,17,,,3945EK,Cothen,Wijk bij Duurstede,Utrecht,VBO,5.306072,51.995355
Kroosakker,19,,,3945EK,Cothen,Wijk bij Duurstede,Utrecht,VBO,5.305767,51.995049
Kroosakker,21,,,3945EK,Cothen,Wijk bij Duurstede,Utrecht,VBO,5.305709,51.995004
Kroosakker,23,,,3945EK,Cothen,Wijk bij Duurstede,Utrecht,VBO,5.305665,51.994959
Kroosakker,25,,,3945EK,Cothen,Wijk bij Duurstede,Utrecht,VBO,5.305607,51.994914
Kroosakker,27,,,3945EK,Cothen,Wijk bij Duurstede,Utrecht,VBO,5.305563,51.994869
Kroosakker,29,,,3945EK,Cothen,Wijk bij Duurstede,Utrecht,VBO,5.305520,51.994833
Kroosakker,31,t,,3945EK,Cothen,Wijk bij Duurstede,Utrecht,VBO,5.305272,51.994633
Kroosakker,31,,,3945EK,Cothen,Wijk bij Duurstede,Utrecht,VBO,5.305171,51.994502
Kroosakker,33,,,3945EK,Cothen,Wijk bij Duurstede,Utrecht,VBO,5.305171,51.994420
Kroosakker,35,,,3945EK,Cothen,Wijk bij Duurstede,Utrecht,VBO,5.305084,51.994348
Kroosakker,37,,,3945EK,Cothen,Wijk bij Duurstede,Utrecht,VBO,5.305026,51.994294
Kroosakker,2,,,3945EL,Cothen,Wijk bij Duurstede,Utrecht,VBO,5.305954,51.995984
Kroosakker,4,,,3945EL,Cothen,Wijk bij Duurstede,Utrecht,VBO,5.305918,51.995930
Kroosakker,6,,,3945EL,Cothen,Wijk bij Duurstede,Utrecht,VBO,5.305898,51.995882
Kroosakker,8,,,3945EL,Cothen,Wijk bij Duurstede,Utrecht,VBO,5.305877,51.995832
Kroosakker,10,,,3945EL,Cothen,Wijk bij Duurstede,Utrecht,VBO,5.305861,51.995782
Kroosakker,12,,,3945EL,Cothen,Wijk bij Duurstede,Utrecht,VBO,5.305853,51.995732
Kroosakker,14,,,3945EL,Cothen,Wijk bij Duurstede,Utrecht,VBO,5.305780,51.995553
Kroosakker,16,,,3945EL,Cothen,Wijk bij Duurstede,Utrecht,VBO,5.305751,51.995508
Kroosakker,18,,,3945EL,Cothen,Wijk bij Duurstede,Utrecht,VBO,5.305722,51.995463
Kroosakker,20,,,3945EL,Cothen,Wijk bij Duurstede,Utrecht,VBO,5.305693,51.995418
Kroosakker,22,,,3945EL,Cothen,Wijk bij Duurstede,Utrecht,VBO,5.305664,51.995355
Kroosakker,24,a,,3945EL,Cothen,Wijk bij Duurstede,Utrecht,VBO,5.305587,51.995258
Kroosakker,24,,,3945EL,Cothen,Wijk bij Duurstede,Utrecht,VBO,5.305635,51.995310
Kroosakker,26,,,3945EL,Cothen,Wijk bij Duurstede,Utrecht,VBO,5.305454,51.995168
Kroosakker,28,,,3945EL,Cothen,Wijk bij Duurstede,Utrecht,VBO,5.305404,51.995117
Kroosakker,30,,,3945EL,Cothen,Wijk bij Duurstede,Utrecht,VBO,5.305315,51.995029
Kroosakker,32,,,3945EL,Cothen,Wijk bij Duurstede,Utrecht,VBO,5.305270,51.994983
Notenakker,1,,,3945EM,Cothen,Wijk bij Duurstede,Utrecht,VBO,5.305387,51.996055
Notenakker,3,,,3945EM,Cothen,Wijk bij Duurstede,Utrecht,VBO,5.305366,51.996008
Notenakker,5,,,3945EM,Cothen,Wijk bij Duurstede,Utrecht,VBO,5.305333,51.995933
Notenakker,7,,,3945EM,Cothen,Wijk bij Duurstede,Utrecht,VBO,5.305299,51.995885
Notenakker,9,,,3945EM,Cothen,Wijk bij Duurstede,Utrecht,VBO,5.305290,51.995835
Notenakker,13,,,3945EM,Cothen,Wijk bij Duurstede,Utrecht,VBO,5.305199,51.995630
Notenakker,15,,,3945EM,Cothen,Wijk bij Duurstede,Utrecht,VBO,5.305168,51.995584
Notenakker,17,,,3945EM,Cothen,Wijk bij Duurstede,Utrecht,VBO,5.305123,51.995512
Notenakker,19,,,3945EM,Cothen,Wijk bij Duurstede,Utrecht,VBO,5.305082,51.995462
Notenakker,21,,,3945EM,Cothen,Wijk bij Duurstede,Utrecht,VBO,5.305065,51.995419
Notenakker,23,,,3945EM,Cothen,Wijk bij Duurstede,Utrecht,VBO,5.304985,51.995290
Notenakker,25,,,3945EM,Cothen,Wijk bij Duurstede,Utrecht,VBO,5.304905,51.995202
Notenakker,27,,,3945EM,Cothen,Wijk bij Duurstede,Utrecht,VBO,5.304855,51.995161
Notenakker,2,,,3945EN,Cothen,Wijk bij Duurstede,Utrecht,VBO,5.305169,51.996097
Notenakker,4,,,3945EN,Cothen,Wijk bij Duurstede,Utrecht,VBO,5.305146,51.996048
Notenakker,6,,,3945EN,Cothen,Wijk bij Duurstede,Utrecht,VBO,5.305113,51.995974
Notenakker,8,,,3945EN,Cothen,Wijk bij Duurstede,Utrecht,VBO,5.305086,51.995927
Notenakker,10,,,3945EN,Cothen,Wijk bij Duurstede,Utrecht,VBO,5.305066,51.995879
Notenakker,12,,,3945EN,Cothen,Wijk bij Duurstede,Utrecht,VBO,5.304933,51.995631
Notenakker,14,,,3945EN,Cothen,Wijk bij Duurstede,Utrecht,VBO,5.304907,51.995579
Notenakker,16,,,3945EN,Cothen,Wijk bij Duurstede,Utrecht,VBO,5.304844,51.995463
Nieuwland,2,,,3945EP,Cothen,Wijk bij Duurstede,Utrecht,VBO,5.309372,51.995285
Nieuwland,4,,,3945EP,Cothen,Wijk bij Duurstede,Utrecht,VBO,5.309175,51.995223
Nieuwland,6,,,3945EP,Cothen,Wijk bij Duurstede,Utrecht,VBO,5.309118,51.995181
Nieuwland,8,,,3945EP,Cothen,Wijk bij Duurstede,Utrecht,VBO,5.309087,51.995148
Nieuwland,10,,,3945EP,Cothen,Wijk bij Duurstede,Utrecht,VBO,5.309035,51.995105
Nieuwland,12,,,3945EP,Cothen,Wijk bij Duurstede,Utrecht,VBO,5.308993,51.995058
Nieuwland,14,,,3945EP,Cothen,Wijk bij Duurstede,Utrecht,VBO,5.308955,51.995021
Nieuwland,16,,,3945EP,Cothen,Wijk bij Duurstede,Utrecht,VBO,5.308950,51.994940
Nieuwland,18,,,3945EP,Cothen,Wijk bij Duurstede,Utrecht,VBO,5.308902,51.994898
Nieuwland,20,,,3945EP,Cothen,Wijk bij Duurstede,Utrecht,VBO,5.308857,51.994861
Nieuwland,22,,,3945EP,Cothen,Wijk bij Duurstede,Utrecht,VBO,5.308809,51.994820
Nieuwland,24,,,3945EP,Cothen,Wijk bij Duurstede,Utrecht,VBO,5.308767,51.994782
Nieuwland,26,,,3945EP,Cothen,Wijk bij Duurstede,Utrecht,VBO,5.308738,51.994737
Nieuwland,28,,,3945EP,Cothen,Wijk bij Duurstede,Utrecht,VBO,5.308619,51.994672
Nieuwland,30,,,3945EP,Cothen,Wijk bij Duurstede,Utrecht,VBO,5.308578,51.994629
Nieuwland,32,,,3945EP,Cothen,Wijk bij Duurstede,Utrecht,VBO,5.308534,51.994584
Nieuwland,34,,,3945EP,Cothen,Wijk bij Duurstede,Utrecht,VBO,5.308490,51.994548
Nieuwland,36,,,3945EP,Cothen,Wijk bij Duurstede,Utrecht,VBO,5.308447,51.994503
Nieuwland,38,,,3945EP,Cothen,Wijk bij Duurstede,Utrecht,VBO,5.308392,51.994473
Nieuwland,40,,,3945EP,Cothen,Wijk bij Duurstede,Utrecht,VBO,5.308318,51.994374
Nieuwland,42,,,3945EP,Cothen,Wijk bij Duurstede,Utrecht,VBO,5.308272,51.994332
Nieuwland,44,,,3945EP,Cothen,Wijk bij Duurstede,Utrecht,VBO,5.308222,51.994297
Nieuwland,46,,,3945EP,Cothen,Wijk bij Duurstede,Utrecht,VBO,5.308185,51.994251
Nieuwland,48,,,3945EP,Cothen,Wijk bij Duurstede,Utrecht,VBO,5.308142,51.994215
Nieuwland,50,,,3945EP,Cothen,Wijk bij Duurstede,Utrecht,VBO,5.308081,51.994178
Nieuwland,52,,,3945EP,Cothen,Wijk bij Duurstede,Utrecht,VBO,5.307822,51.994035
Nieuwland,54,,,3945EP,Cothen,Wijk bij Duurstede,Utrecht,VBO,5.307836,51.993963
Nieuwland,56,,,3945EP,Cothen,Wijk bij Duurstede,Utrecht,VBO,5.307807,51.993927
Nieuwland,58,,,3945EP,Cothen,Wijk bij Duurstede,Utrecht,VBO,5.307676,51.993909
Nieuwland,60,,,3945EP,Cothen,Wijk bij Duurstede,Utrecht,VBO,5.307560,51.993810
Nieuwland,62,,,3945EP,Cothen,Wijk bij Duurstede,Utrecht,VBO,5.307415,51.993675
Nieuwland,64,,,3945EP,Cothen,Wijk bij Duurstede,Utrecht,VBO,5.307269,51.993558
Nieuwland,66,,,3945EP,Cothen,Wijk bij Duurstede,Utrecht,VBO,5.307080,51.993414
Cob Balkplein,1,,,3945ER,Cothen,Wijk bij Duurstede,Utrecht,VBO,5.310425,51.995897
Cob Balkplein,2,,,3945ER,Cothen,Wijk bij Duurstede,Utrecht,VBO,5.310614,51.995888
Cob Balkplein,3,,,3945ER,Cothen,Wijk bij Duurstede,Utrecht,VBO,5.310730,51.995861
Cob Balkplein,4,,,3945ER,Cothen,Wijk bij Duurstede,Utrecht,VBO,5.310876,51.995817
Cob Balkplein,5,,,3945ER,Cothen,Wijk bij Duurstede,Utrecht,VBO,5.310978,51.995781
Cob Balkplein,6,,,3945ER,Cothen,Wijk bij Duurstede,Utrecht,VBO,5.311095,51.995700
Cob Balkplein,7,,,3945ER,Cothen,Wijk bij Duurstede,Utrecht,VBO,5.311168,51.995646
Cob Balkplein,8,,,3945ER,Cothen,Wijk bij Duurstede,Utrecht,VBO,5.311334,51.995358
Cob Balkplein,9,,,3945ER,Cothen,Wijk bij Duurstede,Utrecht,VBO,5.311320,51.995276
Cob Balkplein,10,,,3945ER,Cothen,Wijk bij Duurstede,Utrecht,VBO,5.311284,51.995181
Cob Balkplein,11,,,3945ER,Cothen,Wijk bij Duurstede,Utrecht,VBO,5.311271,51.995146
Cob Balkplein,12,,,3945ER,Cothen,Wijk bij Duurstede,Utrecht,VBO,5.311182,51.995048
Cob Balkplein,13,,,3945ER,Cothen,Wijk bij Duurstede,Utrecht,VBO,5.311153,51.995016
Cob Balkplein,14,,,3945ER,Cothen,Wijk bij Duurstede,Utrecht,VBO,5.311082,51.994956
Cob Balkplein,15,,,3945ER,Cothen,Wijk bij Duurstede,Utrecht,VBO,5.310992,51.994905
Cob Balkplein,16,,,3945ER,Cothen,Wijk bij Duurstede,Utrecht,VBO,5.310831,51.994840
Cob Balkplein,17,,,3945ER,Cothen,Wijk bij Duurstede,Utrecht,VBO,5.311297,51.995330
Cob Balkplein,18,,,3945ER,Cothen,Wijk bij Duurstede,Utrecht,VBO,5.311257,51.995264
Cob Balkplein,19,,,3945ER,Cothen,Wijk bij Duurstede,Utrecht,VBO,5.311230,51.995190
Cob Balkplein,20,,,3945ER,Cothen,Wijk bij Duurstede,Utrecht,VBO,5.311216,51.995152
Cob Balkplein,21,,,3945ER,Cothen,Wijk bij Duurstede,Utrecht,VBO,5.311131,51.995060
Cob Balkplein,22,,,3945ER,Cothen,Wijk bij Duurstede,Utrecht,VBO,5.311099,51.995029
Cob Balkplein,23,,,3945ER,Cothen,Wijk bij Duurstede,Utrecht,VBO,5.311034,51.994979
Cob Balkplein,24,,,3945ER,Cothen,Wijk bij Duurstede,Utrecht,VBO,5.310953,51.994932
Cob Balkplein,25,,,3945ER,Cothen,Wijk bij Duurstede,Utrecht,VBO,5.310857,51.994894
Cob Balkplein,26,,,3945ER,Cothen,Wijk bij Duurstede,Utrecht,VBO,5.311211,51.995361
Cob Balkplein,27,,,3945ER,Cothen,Wijk bij Duurstede,Utrecht,VBO,5.311207,51.995290
Cob Balkplein,28,,,3945ER,Cothen,Wijk bij Duurstede,Utrecht,VBO,5.311181,51.995204
Cob Balkplein,29,,,3945ER,Cothen,Wijk bij Duurstede,Utrecht,VBO,5.311141,51.995141
Cob Balkplein,30,,,3945ER,Cothen,Wijk bij Duurstede,Utrecht,VBO,5.311116,51.995110
Cob Balkplein,31,,,3945ER,Cothen,Wijk bij Duurstede,Utrecht,VBO,5.311034,51.995026
Cob Balkplein,32,,,3945ER,Cothen,Wijk bij Duurstede,Utrecht,VBO,5.310954,51.994977
Cob Balkplein,33,,,3945ER,Cothen,Wijk bij Duurstede,Utrecht,VBO,5.310871,51.994937
Cob Balkplein,34,,,3945ER,Cothen,Wijk bij Duurstede,Utrecht,VBO,5.310825,51.994920
Cob Balkplein,35,,,3945ER,Cothen,Wijk bij Duurstede,Utrecht,VBO,5.310441,51.994792
Cob Balkplein,36,,,3945ER,Cothen,Wijk bij Duurstede,Utrecht,VBO,5.310354,51.994792
Cob Balkplein,37,,,3945ER,Cothen,Wijk bij Duurstede,Utrecht,VBO,5.310266,51.994792
Cob Balkplein,38,,,3945ER,Cothen,Wijk bij Duurstede,Utrecht,VBO,5.310179,51.994809
Cob Balkplein,39,,,3945ER,Cothen,Wijk bij Duurstede,Utrecht,VBO,5.310092,51.994827
Cob Balkplein,40,,,3945ER,Cothen,Wijk bij Duurstede,Utrecht,VBO,5.310004,51.994845
Cob Balkplein,41,,,3945ER,Cothen,Wijk bij Duurstede,Utrecht,VBO,5.309931,51.994881
Cob Balkplein,42,,,3945ER,Cothen,Wijk bij Duurstede,Utrecht,VBO,5.309858,51.994908
Cob Balkplein,43,,,3945ER,Cothen,Wijk bij Duurstede,Utrecht,VBO,5.309786,51.994944
Cob Balkplein,44,,,3945ER,Cothen,Wijk bij Duurstede,Utrecht,VBO,5.309741,51.994990
Cob Balkplein,45,,,3945ER,Cothen,Wijk bij Duurstede,Utrecht,VBO,5.309684,51.995025
Cob Balkplein,46,,,3945ER,Cothen,Wijk bij Duurstede,Utrecht,VBO,5.309625,51.995079
Cob Balkplein,47,,,3945ER,Cothen,Wijk bij Duurstede,Utrecht,VBO,5.309577,51.995377
Cob Balkplein,48,,,3945ER,Cothen,Wijk bij Duurstede,Utrecht,VBO,5.309589,51.995431
Cob Balkplein,49,,,3945ER,Cothen,Wijk bij Duurstede,Utrecht,VBO,5.309640,51.995536
Cob Balkplein,50,,,3945ER,Cothen,Wijk bij Duurstede,Utrecht,VBO,5.309675,51.995585
Cob Balkplein,51,,,3945ER,Cothen,Wijk bij Duurstede,Utrecht,VBO,5.309772,51.995671
Cob Balkplein,52,,,3945ER,Cothen,Wijk bij Duurstede,Utrecht,VBO,5.309836,51.995714
Cob Balkplein,53,,,3945ER,Cothen,Wijk bij Duurstede,Utrecht,VBO,5.309990,51.995767
Opveld,1,,,3945ES,Cothen,Wijk bij Duurstede,Utrecht,VBO,5.311525,51.995627
Opveld,3,,,3945ES,Cothen,Wijk bij Duurstede,Utrecht,VBO,5.311575,51.995664
Opveld,5,,,3945ES,Cothen,Wijk bij Duurstede,Utrecht,VBO,5.311619,51.995700
Opveld,7,,,3945ES,Cothen,Wijk bij Duurstede,Utrecht,VBO,5.311677,51.995745
Opveld,9,a,,3945ES,Cothen,Wijk bij Duurstede,Utrecht,VBO,5.311764,51.995817
Opveld,9,,,3945ES,Cothen,Wijk bij Duurstede,Utrecht,VBO,5.311706,51.995781
Opveld,11,,,3945ES,Cothen,Wijk bij Duurstede,Utrecht,VBO,5.311939,51.995673
Opveld,13,,,3945ES,Cothen,Wijk bij Duurstede,Utrecht,VBO,5.312001,51.995636
Opveld,15,,,3945ES,Cothen,Wijk bij Duurstede,Utrecht,VBO,5.312067,51.995612
Opveld,17,,,3945ES,Cothen,Wijk bij Duurstede,Utrecht,VBO,5.312138,51.995583
Opveld,19,,,3945ES,Cothen,Wijk bij Duurstede,Utrecht,VBO,5.312196,51.995558
Opveld,21,,,3945ES,Cothen,Wijk bij Duurstede,Utrecht,VBO,5.312260,51.995526
Opveld,23,,,3945ES,Cothen,Wijk bij Duurstede,Utrecht,VBO,5.312333,51.995503
Opveld,25,,,3945ES,Cothen,Wijk bij Duurstede,Utrecht,VBO,5.312464,51.995413
Opveld,27,,,3945ES,Cothen,Wijk bij Duurstede,Utrecht,VBO,5.312697,51.995314
Opveld,29,,,3945ES,Cothen,Wijk bij Duurstede,Utrecht,VBO,5.312857,51.995230
Opveld,31,,,3945ES,Cothen,Wijk bij Duurstede,Utrecht,VBO,5.312921,51.995203
Opveld,33,,,3945ES,Cothen,Wijk bij Duurstede,Utrecht,VBO,5.312974,51.995171
Opveld,35,,,3945ES,Cothen,Wijk bij Duurstede,Utrecht,VBO,5.313044,51.995147
Opveld,37,,,3945ES,Cothen,Wijk bij Duurstede,Utrecht,VBO,5.313105,51.995108
Opveld,39,,,3945ES,Cothen,Wijk bij Duurstede,Utrecht,VBO,5.313178,51.995081
Opveld,41,,,3945ES,Cothen,Wijk bij Duurstede,Utrecht,VBO,5.313244,51.995066
Opveld,43,,,3945ES,Cothen,Wijk bij Duurstede,Utrecht,VBO,5.313308,51.995038
Opveld,45,,,3945ES,Cothen,Wijk bij Duurstede,Utrecht,VBO,5.313382,51.995008
Opveld,47,,,3945ES,Cothen,Wijk bij Duurstede,Utrecht,VBO,5.313865,51.994914
Uitveld,1,,,3945ET,Cothen,Wijk bij Duurstede,Utrecht,VBO,5.314328,51.995351
Uitveld,2,,,3945ET,Cothen,Wijk bij Duurstede,Utrecht,VBO,5.314565,51.995563
Uitveld,3,,,3945ET,Cothen,Wijk bij Duurstede,Utrecht,VBO,5.314139,51.995225
Uitveld,4,,,3945ET,Cothen,Wijk bij Duurstede,Utrecht,VBO,5.314408,51.995948
Uitveld,5,,,3945ET,Cothen,Wijk bij Duurstede,Utrecht,VBO,5.313935,51.995091
Uitveld,6,,,3945ET,Cothen,Wijk bij Duurstede,Utrecht,VBO,5.314095,51.995769
Uitveld,8,,,3945ET,Cothen,Wijk bij Duurstede,Utrecht,VBO,5.313994,51.995595
Uitveld,10,,,3945ET,Cothen,Wijk bij Duurstede,Utrecht,VBO,5.313978,51.995544
Uitveld,12,,,3945ET,Cothen,Wijk bij Duurstede,Utrecht,VBO,5.313938,51.995505
Uitveld,14,,,3945ET,Cothen,Wijk bij Duurstede,Utrecht,VBO,5.313890,51.995462
Uitveld,16,,,3945ET,Cothen,Wijk bij Duurstede,Utrecht,VBO,5.313833,51.995416
Uitveld,18,,,3945ET,Cothen,Wijk bij Duurstede,Utrecht,VBO,5.313798,51.995331
Uitveld,20,,,3945ET,Cothen,Wijk bij Duurstede,Utrecht,VBO,5.313756,51.995286
Uitveld,22,,,3945ET,Cothen,Wijk bij Duurstede,Utrecht,VBO,5.313717,51.995249
Uitveld,24,,,3945ET,Cothen,Wijk bij Duurstede,Utrecht,VBO,5.313671,51.995208
Uitveld,26,,,3945ET,Cothen,Wijk bij Duurstede,Utrecht,VBO,5.313555,51.995207
Opveld,2,,,3945EV,Cothen,Wijk bij Duurstede,Utrecht,VBO,5.311595,51.995366
Opveld,4,,,3945EV,Cothen,Wijk bij Duurstede,Utrecht,VBO,5.311678,51.995332
Opveld,6,,,3945EV,Cothen,Wijk bij Duurstede,Utrecht,VBO,5.311751,51.995305
Opveld,8,,,3945EV,Cothen,Wijk bij Duurstede,Utrecht,VBO,5.311824,51.995269
Opveld,10,,,3945EV,Cothen,Wijk bij Duurstede,Utrecht,VBO,5.311890,51.995237
Opveld,12,,,3945EV,Cothen,Wijk bij Duurstede,Utrecht,VBO,5.312073,51.995150
Opveld,14,,,3945EV,Cothen,Wijk bij Duurstede,Utrecht,VBO,5.312450,51.994991
Opveld,16,,,3945EV,Cothen,Wijk bij Duurstede,Utrecht,VBO,5.312581,51.994937
Opveld,18,,,3945EV,Cothen,Wijk bij Duurstede,Utrecht,VBO,5.312654,51.994892
Opveld,20,,,3945EV,Cothen,Wijk bij Duurstede,Utrecht,VBO,5.312727,51.994865
Opveld,22,,,3945EV,Cothen,Wijk bij Duurstede,Utrecht,VBO,5.312814,51.994829
Opveld,24,t,,3945EV,Cothen,Wijk bij Duurstede,Utrecht,VBO,5.312923,51.994702
Opveld,24,,,3945EV,Cothen,Wijk bij Duurstede,Utrecht,VBO,5.312887,51.994793
Opveld,26,,,3945EV,Cothen,Wijk bij Duurstede,Utrecht,VBO,5.313208,51.994650
Opveld,28,,,3945EV,Cothen,Wijk bij Duurstede,Utrecht,VBO,5.313485,51.994524
Opveld,30,,,3945EV,Cothen,Wijk bij Duurstede,Utrecht,VBO,5.313645,51.994452
Nieuwland,1,,,3945EW,Cothen,Wijk bij Duurstede,Utrecht,VBO,5.309320,51.994953
Nieuwland,3,,,3945EW,Cothen,Wijk bij Duurstede,Utrecht,VBO,5.309451,51.994773
Nieuwland,5,,,3945EW,Cothen,Wijk bij Duurstede,Utrecht,VBO,5.309407,51.994728
Nieuwland,7,,,3945EW,Cothen,Wijk bij Duurstede,Utrecht,VBO,5.309364,51.994683
Nieuwland,9,,,3945EW,Cothen,Wijk bij Duurstede,Utrecht,VBO,5.309335,51.994647
Nieuwland,11,,,3945EW,Cothen,Wijk bij Duurstede,Utrecht,VBO,5.309277,51.994611
Nieuwland,13,,,3945EW,Cothen,Wijk bij Duurstede,Utrecht,VBO,5.309233,51.994548
Nieuwland,15,,,3945EW,Cothen,Wijk bij Duurstede,Utrecht,VBO,5.309189,51.994494
Nieuwland,17,,,3945EW,Cothen,Wijk bij Duurstede,Utrecht,VBO,5.309146,51.994458
Nieuwland,19,,,3945EW,Cothen,Wijk bij Duurstede,Utrecht,VBO,5.309102,51.994422
Nieuwland,21,,,3945EW,Cothen,Wijk bij Duurstede,Utrecht,VBO,5.309059,51.994386
Nieuwland,23,,,3945EW,Cothen,Wijk bij Duurstede,Utrecht,VBO,5.309015,51.994341
Nieuwland,25,,,3945EW,Cothen,Wijk bij Duurstede,Utrecht,VBO,5.308928,51.994305
Nieuwland,27,,,3945EW,Cothen,Wijk bij Duurstede,Utrecht,VBO,5.308870,51.994242
Nieuwland,29,,,3945EW,Cothen,Wijk bij Duurstede,Utrecht,VBO,5.308826,51.994206
Nieuwland,31,,,3945EW,Cothen,Wijk bij Duurstede,Utrecht,VBO,5.308782,51.994179
Nieuwland,33,,,3945EW,Cothen,Wijk bij Duurstede,Utrecht,VBO,5.308739,51.994134
Nieuwland,35,,,3945EW,Cothen,Wijk bij Duurstede,Utrecht,VBO,5.308215,51.993694
Nieuwland,37,,,3945EW,Cothen,Wijk bij Duurstede,Utrecht,VBO,5.308143,51.993604
Nieuwland,39,,,3945EW,Cothen,Wijk bij Duurstede,Utrecht,VBO,5.308085,51.993550
Nieuwland,41,,,3945EW,Cothen,Wijk bij Duurstede,Utrecht,VBO,5.307968,51.993451
Nieuwland,43,,,3945EW,Cothen,Wijk bij Duurstede,Utrecht,VBO,5.307910,51.993406
Nieuwland,45,,,3945EW,Cothen,Wijk bij Duurstede,Utrecht,VBO,5.307808,51.993307
Nieuwland,47,,,3945EW,Cothen,Wijk bij Duurstede,Utrecht,VBO,5.307750,51.993262
Tarweveld,2,,,3945EX,Cothen,Wijk bij Duurstede,Utrecht,VBO,5.314881,51.995253
Tarweveld,4,,,3945EX,Cothen,Wijk bij Duurstede,Utrecht,VBO,5.314619,51.995046
Tarweveld,6,,,3945EX,Cothen,Wijk bij Duurstede,Utrecht,VBO,5.314460,51.994911
Tarweveld,8,,,3945EX,Cothen,Wijk bij Duurstede,Utrecht,VBO,5.314198,51.994740
Middelveld,1,,,3945GB,Cothen,Wijk bij Duurstede,Utrecht,VBO,5.312130,51.994820
Middelveld,3,,,3945GB,Cothen,Wijk bij Duurstede,Utrecht,VBO,5.312101,51.994793
Middelveld,5,,,3945GB,Cothen,Wijk bij Duurstede,Utrecht,VBO,5.312043,51.994739
Middelveld,7,,,3945GB,Cothen,Wijk bij Duurstede,Utrecht,VBO,5.312014,51.994712
Middelveld,9,,,3945GB,Cothen,Wijk bij Duurstede,Utrecht,VBO,5.311956,51.994658
Middelveld,11,,,3945GB,Cothen,Wijk bij Duurstede,Utrecht,VBO,5.311927,51.994631
Middelveld,13,,,3945GB,Cothen,Wijk bij Duurstede,Utrecht,VBO,5.311825,51.994523
Middelveld,15,,,3945GB,Cothen,Wijk bij Duurstede,Utrecht,VBO,5.311767,51.994469
Middelveld,17,,,3945GB,Cothen,Wijk bij Duurstede,Utrecht,VBO,5.311577,51.994388
Middelveld,19,,,3945GB,Cothen,Wijk bij Duurstede,Utrecht,VBO,5.311519,51.994361
Middelveld,21,,,3945GB,Cothen,Wijk bij Duurstede,Utrecht,VBO,5.310330,51.994144
Middelveld,23,,,3945GB,Cothen,Wijk bij Duurstede,Utrecht,VBO,5.310209,51.994153
Middelveld,25,,,3945GB,Cothen,Wijk bij Duurstede,Utrecht,VBO,5.310049,51.994126
Middelveld,27,a,,3945GB,Cothen,Wijk bij Duurstede,Utrecht,VBO,5.309773,51.994081
Middelveld,27,,,3945GB,Cothen,Wijk bij Duurstede,Utrecht,VBO,5.309947,51.994108
Middelveld,29,,,3945GB,Cothen,Wijk bij Duurstede,Utrecht,VBO,5.309613,51.993982
Middelveld,31,,,3945GB,Cothen,Wijk bij Duurstede,Utrecht,VBO,5.309554,51.993946
Middelveld,33,,,3945GB,Cothen,Wijk bij Duurstede,Utrecht,VBO,5.309511,51.993901
Middelveld,35,a,,3945GB,Cothen,Wijk bij Duurstede,Utrecht,VBO,5.309409,51.993811
Middelveld,35,,,3945GB,Cothen,Wijk bij Duurstede,Utrecht,VBO,5.309467,51.993856
Middelveld,37,,,3945GB,Cothen,Wijk bij Duurstede,Utrecht,VBO,5.308929,51.993389
Middelveld,39,,,3945GB,Cothen,Wijk bij Duurstede,Utrecht,VBO,5.308813,51.993290
Middelveld,41,,,3945GB,Cothen,Wijk bij Duurstede,Utrecht,VBO,5.308697,51.993182
Middelveld,43,,,3945GB,Cothen,Wijk bij Duurstede,Utrecht,VBO,5.308566,51.993065
Middelveld,45,,,3945GB,Cothen,Wijk bij Duurstede,Utrecht,VBO,5.308450,51.992957
Middelveld,2,,,3945GC,Cothen,Wijk bij Duurstede,Utrecht,VBO,5.311871,51.994990
Middelveld,4,,,3945GC,Cothen,Wijk bij Duurstede,Utrecht,VBO,5.311824,51.994942
Middelveld,6,,,3945GC,Cothen,Wijk bij Duurstede,Utrecht,VBO,5.311805,51.995012
Middelveld,8,,,3945GC,Cothen,Wijk bij Duurstede,Utrecht,VBO,5.311722,51.994971
Middelveld,10,,,3945GC,Cothen,Wijk bij Duurstede,Utrecht,VBO,5.311798,51.994897
Middelveld,12,,,3945GC,Cothen,Wijk bij Duurstede,Utrecht,VBO,5.311734,51.994839
Middelveld,14,,,3945GC,Cothen,Wijk bij Duurstede,Utrecht,VBO,5.311683,51.994926
Middelveld,16,,,3945GC,Cothen,Wijk bij Duurstede,Utrecht,VBO,5.311616,51.994879
Middelveld,18,,,3945GC,Cothen,Wijk bij Duurstede,Utrecht,VBO,5.311674,51.994741
Middelveld,20,,,3945GC,Cothen,Wijk bij Duurstede,Utrecht,VBO,5.311644,51.994710
Middelveld,22,a,,3945GC,Cothen,Wijk bij Duurstede,Utrecht,VBO,5.311329,51.994585
Middelveld,22,,,3945GC,Cothen,Wijk bij Duurstede,Utrecht,VBO,5.311407,51.994593
Middelveld,24,,,3945GC,Cothen,Wijk bij Duurstede,Utrecht,VBO,5.310252,51.994450
Middelveld,26,,,3945GC,Cothen,Wijk bij Duurstede,Utrecht,VBO,5.310180,51.994432
Middelveld,28,,,3945GC,Cothen,Wijk bij Duurstede,Utrecht,VBO,5.310107,51.994414
Middelveld,30,,,3945GC,Cothen,Wijk bij Duurstede,Utrecht,VBO,5.310020,51.994405
Middelveld,32,,,3945GC,Cothen,Wijk bij Duurstede,Utrecht,VBO,5.309947,51.994396
Middelveld,34,,,3945GC,Cothen,Wijk bij Duurstede,Utrecht,VBO,5.309874,51.994387
Middelveld,36,,,3945GC,Cothen,Wijk bij Duurstede,Utrecht,VBO,5.309735,51.994339
Middelveld,38,,,3945GC,Cothen,Wijk bij Duurstede,Utrecht,VBO,5.309612,51.994369
Middelveld,40,,,3945GC,Cothen,Wijk bij Duurstede,Utrecht,VBO,5.309423,51.994279
Middelveld,42,,,3945GC,Cothen,Wijk bij Duurstede,Utrecht,VBO,5.309379,51.994234
Middelveld,44,,,3945GC,Cothen,Wijk bij Duurstede,Utrecht,VBO,5.309292,51.994135
Middelveld,46,,,3945GC,Cothen,Wijk bij Duurstede,Utrecht,VBO,5.309248,51.994090
Middelveld,48,,,3945GC,Cothen,Wijk bij Duurstede,Utrecht,VBO,5.309219,51.994045
Middelveld,50,,,3945GC,Cothen,Wijk bij Duurstede,Utrecht,VBO,5.309176,51.994009
Middelveld,52,,,3945GC,Cothen,Wijk bij Duurstede,Utrecht,VBO,5.309118,51.993982
Middelveld,54,,,3945GC,Cothen,Wijk bij Duurstede,Utrecht,VBO,5.308652,51.993505
Middelveld,56,,,3945GC,Cothen,Wijk bij Duurstede,Utrecht,VBO,5.308522,51.993406
Middelveld,58,,,3945GC,Cothen,Wijk bij Duurstede,Utrecht,VBO,5.308347,51.993244
Middelveld,60,,,3945GC,Cothen,Wijk bij Duurstede,Utrecht,VBO,5.308158,51.993082
Grote Meent,1,,,3945GD,Cothen,Wijk bij Duurstede,Utrecht,VBO,5.308564,51.993999
Grote Meent,3,,,3945GD,Cothen,Wijk bij Duurstede,Utrecht,VBO,5.308627,51.993959
Grote Meent,5,,,3945GD,Cothen,Wijk bij Duurstede,Utrecht,VBO,5.308732,51.993883
Grote Meent,7,,,3945GD,Cothen,Wijk bij Duurstede,Utrecht,VBO,5.308877,51.993865
Grote Meent,9,,,3945GD,Cothen,Wijk bij Duurstede,Utrecht,VBO,5.309001,51.993820
Grote Meent,11,,,3945GD,Cothen,Wijk bij Duurstede,Utrecht,VBO,5.309290,51.993685
Grote Meent,13,,,3945GD,Cothen,Wijk bij Duurstede,Utrecht,VBO,5.309359,51.993658
Grote Meent,15,,,3945GD,Cothen,Wijk bij Duurstede,Utrecht,VBO,5.309423,51.993636
Grote Meent,17,,,3945GD,Cothen,Wijk bij Duurstede,Utrecht,VBO,5.309493,51.993598
Grote Meent,19,,,3945GD,Cothen,Wijk bij Duurstede,Utrecht,VBO,5.309561,51.993580
Grote Meent,21,,,3945GD,Cothen,Wijk bij Duurstede,Utrecht,VBO,5.309624,51.993548
Grote Meent,23,,,3945GD,Cothen,Wijk bij Duurstede,Utrecht,VBO,5.309688,51.993529
Grote Meent,25,,,3945GD,Cothen,Wijk bij Duurstede,Utrecht,VBO,5.309754,51.993506
Oude Wetering,1,,,3945GE,Cothen,Wijk bij Duurstede,Utrecht,VBO,5.310893,51.994675
Oude Wetering,2,,,3945GE,Cothen,Wijk bij Duurstede,Utrecht,VBO,5.310543,51.994621
Oude Wetering,3,,,3945GE,Cothen,Wijk bij Duurstede,Utrecht,VBO,5.310907,51.994630
Oude Wetering,4,,,3945GE,Cothen,Wijk bij Duurstede,Utrecht,VBO,5.310573,51.994567
Oude Wetering,5,,,3945GE,Cothen,Wijk bij Duurstede,Utrecht,VBO,5.310951,51.994585
Oude Wetering,6,,,3945GE,Cothen,Wijk bij Duurstede,Utrecht,VBO,5.310590,51.994520
Oude Wetering,7,,,3945GE,Cothen,Wijk bij Duurstede,Utrecht,VBO,5.310966,51.994540
Oude Wetering,8,,,3945GE,Cothen,Wijk bij Duurstede,Utrecht,VBO,5.310602,51.994468
Oude Wetering,9,,,3945GE,Cothen,Wijk bij Duurstede,Utrecht,VBO,5.311083,51.994271
Oude Wetering,10,,,3945GE,Cothen,Wijk bij Duurstede,Utrecht,VBO,5.310719,51.994208
Oude Wetering,11,,,3945GE,Cothen,Wijk bij Duurstede,Utrecht,VBO,5.311097,51.994226
Oude Wetering,12,,,3945GE,Cothen,Wijk bij Duurstede,Utrecht,VBO,5.310733,51.994172
Oude Wetering,13,,,3945GE,Cothen,Wijk bij Duurstede,Utrecht,VBO,5.311185,51.994055
Oude Wetering,14,,,3945GE,Cothen,Wijk bij Duurstede,Utrecht,VBO,5.310763,51.993983
Grote Meent,2,,,3945GG,Cothen,Wijk bij Duurstede,Utrecht,VBO,5.308345,51.993770
Grote Meent,4,,,3945GG,Cothen,Wijk bij Duurstede,Utrecht,VBO,5.308366,51.993728
Grote Meent,6,,,3945GG,Cothen,Wijk bij Duurstede,Utrecht,VBO,5.308431,51.993697
Grote Meent,8,,,3945GG,Cothen,Wijk bij Duurstede,Utrecht,VBO,5.308503,51.993662
Grote Meent,10,,,3945GG,Cothen,Wijk bij Duurstede,Utrecht,VBO,5.308562,51.993637
Grote Meent,12,,,3945GG,Cothen,Wijk bij Duurstede,Utrecht,VBO,5.308615,51.993607
Grote Meent,14,,,3945GG,Cothen,Wijk bij Duurstede,Utrecht,VBO,5.308693,51.993590
Grote Meent,16,,,3945GG,Cothen,Wijk bij Duurstede,Utrecht,VBO,5.308999,51.993456
Grote Meent,18,,,3945GG,Cothen,Wijk bij Duurstede,Utrecht,VBO,5.309073,51.993423
Grote Meent,20,,,3945GG,Cothen,Wijk bij Duurstede,Utrecht,VBO,5.309136,51.993390
Grote Meent,22,,,3945GG,Cothen,Wijk bij Duurstede,Utrecht,VBO,5.309189,51.993348
Grote Meent,24,,,3945GG,Cothen,Wijk bij Duurstede,Utrecht,VBO,5.309283,51.993355
Grote Meent,26,,,3945GG,Cothen,Wijk bij Duurstede,Utrecht,VBO,5.309357,51.993334
Grote Meent,28,,,3945GG,Cothen,Wijk bij Duurstede,Utrecht,VBO,5.309393,51.993278
Grote Meent,30,,,3945GG,Cothen,Wijk bij Duurstede,Utrecht,VBO,5.309466,51.993255
Overrijnseveld,1,,,3945GH,Cothen,Wijk bij Duurstede,Utrecht,VBO,5.311171,51.993606
Overrijnseveld,3,,,3945GH,Cothen,Wijk bij Duurstede,Utrecht,VBO,5.310763,51.993623
Overrijnseveld,5,,,3945GH,Cothen,Wijk bij Duurstede,Utrecht,VBO,5.311390,51.993291
Overrijnseveld,7,,,3945GH,Cothen,Wijk bij Duurstede,Utrecht,VBO,5.310109,51.992886
Overrijnseveld,2,,,3945GJ,Cothen,Wijk bij Duurstede,Utrecht,VBO,5.313354,51.994137
Overrijnseveld,4,,,3945GJ,Cothen,Wijk bij Duurstede,Utrecht,VBO,5.313092,51.994236
Overrijnseveld,6,,,3945GJ,Cothen,Wijk bij Duurstede,Utrecht,VBO,5.312873,51.994335
Overrijnseveld,8,,,3945GJ,Cothen,Wijk bij Duurstede,Utrecht,VBO,5.312626,51.994452
Overrijnseveld,10,,,3945GJ,Cothen,Wijk bij Duurstede,Utrecht,VBO,5.312407,51.994541
Overrijnseveld,16,,,3945GJ,Cothen,Wijk bij Duurstede,Utrecht,VBO,5.310457,51.993893
Overrijnseveld,18,,,3945GJ,Cothen,Wijk bij Duurstede,Utrecht,VBO,5.310268,51.993866
Overrijnseveld,20,,,3945GJ,Cothen,Wijk bij Duurstede,Utrecht,VBO,5.310079,51.993794
Overrijnseveld,22,,,3945GJ,Cothen,Wijk bij Duurstede,Utrecht,VBO,5.309977,51.993704
Overrijnseveld,24,,,3945GJ,Cothen,Wijk bij Duurstede,Utrecht,VBO,5.309875,51.993614
Overrijnseveld,26,,,3945GJ,Cothen,Wijk bij Duurstede,Utrecht,VBO,5.309410,51.993182
Overrijnseveld,28,,,3945GJ,Cothen,Wijk bij Duurstede,Utrecht,VBO,5.309308,51.993092
Overrijnseveld,30,,,3945GJ,Cothen,Wijk bij Duurstede,Utrecht,VBO,5.309250,51.993038
Overrijnseveld,32,,,3945GJ,Cothen,Wijk bij Duurstede,Utrecht,VBO,5.309148,51.992948
Overrijnseveld,34,,,3945GJ,Cothen,Wijk bij Duurstede,Utrecht,VBO,5.309090,51.992903
Overrijnseveld,36,,,3945GJ,Cothen,Wijk bij Duurstede,Utrecht,VBO,5.308912,51.992820
Overrijnseveld,38,,,3945GJ,Cothen,Wijk bij Duurstede,Utrecht,VBO,5.308930,51.992750
Bloemenwaard,3,,,3945HA,Cothen,Wijk bij Duurstede,Utrecht,VBO,5.305403,51.997072
Bloemenwaard,5,,,3945HA,Cothen,Wijk bij Duurstede,Utrecht,VBO,5.305317,51.997082
Bloemenwaard,7,,,3945HA,Cothen,Wijk bij Duurstede,Utrecht,VBO,5.305233,51.997094
Bloemenwaard,9,,,3945HA,Cothen,Wijk bij Duurstede,Utrecht,VBO,5.305146,51.997104
Bloemenwaard,15,,,3945HA,Cothen,Wijk bij Duurstede,Utrecht,VBO,5.304381,51.997142
Bloemenwaard,17,,,3945HA,Cothen,Wijk bij Duurstede,Utrecht,VBO,5.304293,51.997148
Bloemenwaard,19,,,3945HA,Cothen,Wijk bij Duurstede,Utrecht,VBO,5.304105,51.997145
Bloemenwaard,21,,,3945HA,Cothen,Wijk bij Duurstede,Utrecht,VBO,5.304018,51.997147
Bloemenwaard,23,,,3945HA,Cothen,Wijk bij Duurstede,Utrecht,VBO,5.303825,51.997157
Bloemenwaard,25,,,3945HA,Cothen,Wijk bij Duurstede,Utrecht,VBO,5.303735,51.997162
Bloemenwaard,27,,,3945HA,Cothen,Wijk bij Duurstede,Utrecht,VBO,5.303521,51.997160
Bloemenwaard,29,,,3945HA,Cothen,Wijk bij Duurstede,Utrecht,VBO,5.303429,51.997165
Bloemenwaard,31,,,3945HA,Cothen,Wijk bij Duurstede,Utrecht,VBO,5.303273,51.997156
Bloemenwaard,33,,,3945HA,Cothen,Wijk bij Duurstede,Utrecht,VBO,5.303193,51.997159
Bloemenwaard,35,,,3945HA,Cothen,Wijk bij Duurstede,Utrecht,VBO,5.303104,51.997169
Bloemenwaard,49,,,3945HA,Cothen,Wijk bij Duurstede,Utrecht,VBO,5.301647,51.997296
Bloemenwaard,51,,,3945HA,Cothen,Wijk bij Duurstede,Utrecht,VBO,5.301501,51.997332
Bloemenwaard,53,,,3945HA,Cothen,Wijk bij Duurstede,Utrecht,VBO,5.301434,51.997346
Bloemenwaard,55,,,3945HA,Cothen,Wijk bij Duurstede,Utrecht,VBO,5.301106,51.997224
Bloemenwaard,57,,,3945HA,Cothen,Wijk bij Duurstede,Utrecht,VBO,5.301630,51.997264
Bloemenwaard,59,,,3945HA,Cothen,Wijk bij Duurstede,Utrecht,VBO,5.301486,51.997304
Bloemenwaard,61,,,3945HA,Cothen,Wijk bij Duurstede,Utrecht,VBO,5.301412,51.997318
Bloemenwaard,63,,,3945HA,Cothen,Wijk bij Duurstede,Utrecht,VBO,5.301306,51.997320
Bloemenwaard,65,,,3945HA,Cothen,Wijk bij Duurstede,Utrecht,VBO,5.301224,51.997297
Bloemenwaard,67,,,3945HA,Cothen,Wijk bij Duurstede,Utrecht,VBO,5.301129,51.997204
Bloemenwaard,69,,,3945HA,Cothen,Wijk bij Duurstede,Utrecht,VBO,5.301614,51.997235
Bloemenwaard,71,,,3945HA,Cothen,Wijk bij Duurstede,Utrecht,VBO,5.301466,51.997282
Bloemenwaard,73,,,3945HA,Cothen,Wijk bij Duurstede,Utrecht,VBO,5.301391,51.997301
Bloemenwaard,75,,,3945HA,Cothen,Wijk bij Duurstede,Utrecht,VBO,5.301326,51.997295
Bloemenwaard,77,,,3945HA,Cothen,Wijk bij Duurstede,Utrecht,VBO,5.301237,51.997273
Bloemenwaard,28,,,3945HB,Cothen,Wijk bij Duurstede,Utrecht,VBO,5.303194,51.997454
Bloemenwaard,30,,,3945HB,Cothen,Wijk bij Duurstede,Utrecht,VBO,5.303103,51.997450
Heiligenwaard,2,,,3945HC,Cothen,Wijk bij Duurstede,Utrecht,VBO,5.301658,51.996882
Heiligenwaard,4,,,3945HC,Cothen,Wijk bij Duurstede,Utrecht,VBO,5.301583,51.996910
Heiligenwaard,6,,,3945HC,Cothen,Wijk bij Duurstede,Utrecht,VBO,5.301500,51.996923
Heiligenwaard,8,,,3945HC,Cothen,Wijk bij Duurstede,Utrecht,VBO,5.301427,51.996943
Heiligenwaard,10,,,3945HC,Cothen,Wijk bij Duurstede,Utrecht,VBO,5.301348,51.996960
Heiligenwaard,12,,,3945HC,Cothen,Wijk bij Duurstede,Utrecht,VBO,5.301267,51.996975
Heiligenwaard,14,,,3945HC,Cothen,Wijk bij Duurstede,Utrecht,VBO,5.301184,51.996985
Heiligenwaard,16,,,3945HC,Cothen,Wijk bij Duurstede,Utrecht,VBO,5.300995,51.997022
Riederwaard,21,,,3945HE,Cothen,Wijk bij Duurstede,Utrecht,VBO,5.303269,51.997827
Riederwaard,23,,,3945HE,Cothen,Wijk bij Duurstede,Utrecht,VBO,5.303094,51.997801
Toon van Dijkstraat,2,,,3945HG,Cothen,Wijk bij Duurstede,Utrecht,VBO,5.305483,51.997277
Toon van Dijkstraat,4,,,3945HG,Cothen,Wijk bij Duurstede,Utrecht,VBO,5.305525,51.997318
Toon van Dijkstraat,6,,,3945HG,Cothen,Wijk bij Duurstede,Utrecht,VBO,5.305550,51.997363
Toon van Dijkstraat,8,,,3945HG,Cothen,Wijk bij Duurstede,Utrecht,VBO,5.305580,51.997406
Toon van Dijkstraat,10,,,3945HG,Cothen,Wijk bij Duurstede,Utrecht,VBO,5.305597,51.997449
Toon van Dijkstraat,12,,,3945HG,Cothen,Wijk bij Duurstede,Utrecht,VBO,5.305621,51.997493
Toon van Dijkstraat,14,,,3945HG,Cothen,Wijk bij Duurstede,Utrecht,VBO,5.305648,51.997537
Toon van Dijkstraat,16,,,3945HG,Cothen,Wijk bij Duurstede,Utrecht,VBO,5.305668,51.997584
Toon van Dijkstraat,18,,,3945HG,Cothen,Wijk bij Duurstede,Utrecht,VBO,5.305682,51.997632
Toon van Dijkstraat,24,,,3945HG,Cothen,Wijk bij Duurstede,Utrecht,VBO,5.305725,51.997913
Toon van Dijkstraat,26,,,3945HG,Cothen,Wijk bij Duurstede,Utrecht,VBO,5.305725,51.997951
Kapelleweg,1,a,,3945LA,Cothen,Wijk bij Duurstede,Utrecht,VBO,5.277493,51.989003
Kapelleweg,1,b,,3945LA,Cothen,Wijk bij Duurstede,Utrecht,VBO,5.270322,51.989150
Kapelleweg,1,,,3945LA,Cothen,Wijk bij Duurstede,Utrecht,VBO,5.278025,51.988906
Kapelleweg,2,a,,3945LA,Cothen,Wijk bij Duurstede,Utrecht,VBO,5.264861,51.990271
Kapelleweg,2,,,3945LA,Cothen,Wijk bij Duurstede,Utrecht,VBO,5.265231,51.990307
Kapelleweg,3,,,3945LA,Cothen,Wijk bij Duurstede,Utrecht,VBO,5.268508,51.989103
Kapelleweg,4,t,,3945LA,Cothen,Wijk bij Duurstede,Utrecht,VBO,5.260234,51.990042
Kapelleweg,4,,,3945LA,Cothen,Wijk bij Duurstede,Utrecht,VBO,5.262491,51.990341
Kapelleweg,5,,,3945LA,Cothen,Wijk bij Duurstede,Utrecht,VBO,5.265713,51.989136
Kapelleweg,6,,,3945LA,Cothen,Wijk bij Duurstede,Utrecht,VBO,5.254048,51.989181
Kapelleweg,7,,by,3945LA,Cothen,Wijk bij Duurstede,Utrecht,VBO,5.262251,51.989093
Kapelleweg,7,,,3945LA,Cothen,Wijk bij Duurstede,Utrecht,VBO,5.261860,51.988958
Kapelleweg,9,,,3945LA,Cothen,Wijk bij Duurstede,Utrecht,VBO,5.259597,51.989507
Kapelleweg,11,,,3945LA,Cothen,Wijk bij Duurstede,Utrecht,VBO,5.258433,51.989308
Smidsdijk,1,,,3945LB,Cothen,Wijk bij Duurstede,Utrecht,VBO,5.280655,51.990957
Smidsdijk,2,t,,3945LB,Cothen,Wijk bij Duurstede,Utrecht,VBO,5.281841,51.988436
Smidsdijk,2,,,3945LB,Cothen,Wijk bij Duurstede,Utrecht,VBO,5.281830,51.988613
Smidsdijk,4,,,3945LB,Cothen,Wijk bij Duurstede,Utrecht,VBO,5.281815,51.988694
Smidsdijk,5,,,3945LB,Cothen,Wijk bij Duurstede,Utrecht,VBO,5.280272,51.992362
Smidsdijk,6,a,,3945LB,Cothen,Wijk bij Duurstede,Utrecht,VBO,5.281578,51.990734
Smidsdijk,6,b,,3945LB,Cothen,Wijk bij Duurstede,Utrecht,VBO,5.283014,51.990445
Smidsdijk,6,,,3945LB,Cothen,Wijk bij Duurstede,Utrecht,VBO,5.281844,51.988882
Smidsdijk,10,,,3945LB,Cothen,Wijk bij Duurstede,Utrecht,VBO,5.281314,51.991578
Smidsdijk,12,,0001,3945LB,Cothen,Wijk bij Duurstede,Utrecht,VBO,5.280388,51.993683
Smidsdijk,12,,,3945LB,Cothen,Wijk bij Duurstede,Utrecht,VBO,5.281196,51.991911
Dwarsdijk,1,,,3945LC,Cothen,Wijk bij Duurstede,Utrecht,VBO,5.281599,51.987741
Dwarsdijk,3,,,3945LC,Cothen,Wijk bij Duurstede,Utrecht,VBO,5.281178,51.988241
Dwarsdijk,5,,0001,3945LC,Cothen,Wijk bij Duurstede,Utrecht,VBO,5.280992,51.988722
Dwarsdijk,5,,,3945LC,Cothen,Wijk bij Duurstede,Utrecht,VBO,5.281248,51.988675
Dwarsdijk,6,,,3945LC,Cothen,Wijk bij Duurstede,Utrecht,VBO,5.281132,51.989113
Dwarsdijk,8,a,,3945LC,Cothen,Wijk bij Duurstede,Utrecht,VBO,5.280716,51.989364
Dwarsdijk,8,b,,3945LC,Cothen,Wijk bij Duurstede,Utrecht,VBO,5.281104,51.989480
Dwarsdijk,8,,,3945LC,Cothen,Wijk bij Duurstede,Utrecht,VBO,5.281171,51.989153
Spiegelweg,1,a,,3945LD,Cothen,Wijk bij Duurstede,Utrecht,VBO,5.288467,51.983673
Spiegelweg,1,,,3945LD,Cothen,Wijk bij Duurstede,Utrecht,VBO,5.289177,51.984098
Spiegelweg,3,a,,3945LD,Cothen,Wijk bij Duurstede,Utrecht,VBO,5.289913,51.985021
Spiegelweg,3,,,3945LD,Cothen,Wijk bij Duurstede,Utrecht,VBO,5.289671,51.984665
Spiegelweg,5,,,3945LD,Cothen,Wijk bij Duurstede,Utrecht,VBO,5.291748,51.986832
Spiegelweg,7,,,3945LD,Cothen,Wijk bij Duurstede,Utrecht,VBO,5.291719,51.986967
Wijkersloot,2,b,,3945LE,Cothen,Wijk bij Duurstede,Utrecht,VBO,5.309696,51.979520
Wijkersloot,2,t,,3945LE,Cothen,Wijk bij Duurstede,Utrecht,VBO,5.310350,51.979300
Wijkersloot,4,t,,3945LE,Cothen,Wijk bij Duurstede,Utrecht,VBO,5.309219,51.979633
Wijkersloot,4,,,3945LE,Cothen,Wijk bij Duurstede,Utrecht,VBO,5.309122,51.979690
Wijkersloot,6,a,,3945LE,Cothen,Wijk bij Duurstede,Utrecht,VBO,5.308003,51.980643
Wijkersloot,6,,,3945LE,Cothen,Wijk bij Duurstede,Utrecht,VBO,5.307119,51.979788
Wijkersloot,8,,,3945LE,Cothen,Wijk bij Duurstede,Utrecht,VBO,5.305314,51.980039
Wijkersloot,10,a,,3945LE,Cothen,Wijk bij Duurstede,Utrecht,VBO,5.300148,51.981300
Wijkersloot,10,b,,3945LE,Cothen,Wijk bij Duurstede,Utrecht,VBO,5.297932,51.981915
Wijkersloot,10,t,,3945LE,Cothen,Wijk bij Duurstede,Utrecht,VBO,5.298241,51.981805
Wijkersloot,10,,,3945LE,Cothen,Wijk bij Duurstede,Utrecht,VBO,5.300148,51.981379
Wijkersloot,12,,,3945LE,Cothen,Wijk bij Duurstede,Utrecht,VBO,5.296342,51.982513
Wijkersloot,14,,,3945LE,Cothen,Wijk bij Duurstede,Utrecht,VBO,5.296270,51.982585
Wijkersloot,16,,,3945LE,Cothen,Wijk bij Duurstede,Utrecht,VBO,5.288295,51.983726
Wijkersloot,18,,,3945LE,Cothen,Wijk bij Duurstede,Utrecht,VBO,5.288318,51.984142
Wijkersloot,20,,,3945LE,Cothen,Wijk bij Duurstede,Utrecht,VBO,5.287766,51.983745
Wijkersloot,22,,,3945LE,Cothen,Wijk bij Duurstede,Utrecht,VBO,5.287981,51.983983
Wijkersloot,24,,,3945LE,Cothen,Wijk bij Duurstede,Utrecht,VBO,5.288050,51.984119
Wijkersloot,26,,,3945LE,Cothen,Wijk bij Duurstede,Utrecht,VBO,5.288087,51.984256
Hoeksedijk,1,a,,3945LG,Cothen,Wijk bij Duurstede,Utrecht,VBO,5.281896,51.987124
Hoeksedijk,1,,,3945LG,Cothen,Wijk bij Duurstede,Utrecht,VBO,5.281790,51.987140
Hoeksedijk,3,,,3945LG,Cothen,Wijk bij Duurstede,Utrecht,VBO,5.282124,51.987274
Hoeksedijk,5,,,3945LG,Cothen,Wijk bij Duurstede,Utrecht,VBO,5.281558,51.986457
Kanaaldijk Noord,2,,0001,3945LZ,Cothen,Wijk bij Duurstede,Utrecht,VBO,5.260019,51.985138
Graaf van Lynden van Sandenburgweg,1,,,3945PA,Cothen,Wijk bij Duurstede,Utrecht,VBO,5.311970,51.999406
Graaf van Lynden van Sandenburgweg,3,,,3945PA,Cothen,Wijk bij Duurstede,Utrecht,VBO,5.312625,51.999765
Graaf van Lynden van Sandenburgweg,5,,,3945PA,Cothen,Wijk bij Duurstede,Utrecht,VBO,5.311552,51.999716
Graaf van Lynden van Sandenburgweg,7,,,3945PA,Cothen,Wijk bij Duurstede,Utrecht,VBO,5.311109,51.999865
Graaf van Lynden van Sandenburgweg,9,,,3945PA,Cothen,Wijk bij Duurstede,Utrecht,VBO,5.310664,51.999952
Graaf van Lynden van Sandenburgweg,11,,,3945PA,Cothen,Wijk bij Duurstede,Utrecht,VBO,5.310887,52.000322
Graaf van Lynden van Sandenburgweg,13,,,3945PA,Cothen,Wijk bij Duurstede,Utrecht,VBO,5.310206,52.000098
Graaf van Lynden van Sandenburgweg,15,,,3945PA,Cothen,Wijk bij Duurstede,Utrecht,VBO,5.309826,52.000224
Graaf van Lynden van Sandenburgweg,17,,,3945PA,Cothen,Wijk bij Duurstede,Utrecht,VBO,5.309749,52.000243
Graaf van Lynden van Sandenburgweg,19,a,,3945PA,Cothen,Wijk bij Duurstede,Utrecht,VBO,5.309558,52.000157
Graaf van Lynden van Sandenburgweg,19,,,3945PA,Cothen,Wijk bij Duurstede,Utrecht,VBO,5.309359,52.000208
Graaf van Lynden van Sandenburgweg,21,,,3945PA,Cothen,Wijk bij Duurstede,Utrecht,VBO,5.307359,52.000147
Graaf van Lynden van Sandenburgweg,25,,,3945PA,Cothen,Wijk bij Duurstede,Utrecht,VBO,5.305223,51.999927
Graaf van Lynden van Sandenburgweg,27,,,3945PA,Cothen,Wijk bij Duurstede,Utrecht,VBO,5.305033,51.999845
Graaf van Lynden van Sandenburgweg,29,,,3945PA,Cothen,Wijk bij Duurstede,Utrecht,VBO,5.304966,51.999830
Graaf van Lynden van Sandenburgweg,31,,,3945PA,Cothen,Wijk bij Duurstede,Utrecht,VBO,5.303722,51.999269
Graaf van Lynden van Sandenburgweg,33,a,,3945PA,Cothen,Wijk bij Duurstede,Utrecht,VBO,5.300943,52.000216
Graaf van Lynden van Sandenburgweg,33,,,3945PA,Cothen,Wijk bij Duurstede,Utrecht,VBO,5.301129,52.000368
Graaf van Lynden van Sandenburgweg,35,,,3945PA,Cothen,Wijk bij Duurstede,Utrecht,VBO,5.297419,52.002218
Graaf van Lynden van Sandenburgweg,37,,,3945PA,Cothen,Wijk bij Duurstede,Utrecht,VBO,5.296789,52.002380
Graaf van Lynden van Sandenburgweg,39,,,3945PA,Cothen,Wijk bij Duurstede,Utrecht,VBO,5.287211,52.007097
Graaf van Lynden van Sandenburgweg,41,,,3945PA,Cothen,Wijk bij Duurstede,Utrecht,VBO,5.287176,52.007158
Graaf van Lynden van Sandenburgweg,2,a,,3945PB,Cothen,Wijk bij Duurstede,Utrecht,VBO,5.328450,51.990185
Graaf van Lynden van Sandenburgweg,2,b,,3945PB,Cothen,Wijk bij Duurstede,Utrecht,VBO,5.328381,51.990212
Graaf van Lynden van Sandenburgweg,2,c,,3945PB,Cothen,Wijk bij Duurstede,Utrecht,VBO,5.328524,51.990241
Graaf van Lynden van Sandenburgweg,2,,,3945PB,Cothen,Wijk bij Duurstede,Utrecht,VBO,5.328318,51.990156
Graaf van Lynden van Sandenburgweg,4,a,,3945PB,Cothen,Wijk bij Duurstede,Utrecht,VBO,5.305829,52.000433
Graaf van Lynden van Sandenburgweg,4,,,3945PB,Cothen,Wijk bij Duurstede,Utrecht,VBO,5.306125,52.001844
Graaf van Lynden van Sandenburgweg,6,a,,3945PB,Cothen,Wijk bij Duurstede,Utrecht,VBO,5.303309,52.001052
Graaf van Lynden van Sandenburgweg,6,,,3945PB,Cothen,Wijk bij Duurstede,Utrecht,VBO,5.303490,52.000707
Graaf van Lynden van Sandenburgweg,8,a,,3945PB,Cothen,Wijk bij Duurstede,Utrecht,VBO,5.302548,52.001034
Graaf van Lynden van Sandenburgweg,8,,,3945PB,Cothen,Wijk bij Duurstede,Utrecht,VBO,5.302656,52.001259
Graaf van Lynden van Sandenburgweg,10,,,3945PB,Cothen,Wijk bij Duurstede,Utrecht,VBO,5.301508,52.001282
Graaf van Lynden van Sandenburgweg,12,,,3945PB,Cothen,Wijk bij Duurstede,Utrecht,VBO,5.299534,52.001856
Graaf van Lynden van Sandenburgweg,14,,,3945PB,Cothen,Wijk bij Duurstede,Utrecht,VBO,5.299909,52.002308
Graaf van Lynden van Sandenburgweg,16,,,3945PB,Cothen,Wijk bij Duurstede,Utrecht,VBO,5.294052,52.005106
Graaf van Lynden van Sandenburgweg,20,,,3945PB,Cothen,Wijk bij Duurstede,Utrecht,VBO,5.281936,52.009453
Maatweg,1,,,3945PC,Cothen,Wijk bij Duurstede,Utrecht,VBO,5.323579,52.001613
Maatweg,2,,,3945PC,Cothen,Wijk bij Duurstede,Utrecht,VBO,5.324003,52.000561
Bredeweg,5,,,3945PD,Cothen,Wijk bij Duurstede,Utrecht,VBO,5.301804,51.996161
Bredeweg,7,a,,3945PD,Cothen,Wijk bij Duurstede,Utrecht,VBO,5.301890,51.995914
Bredeweg,7,b,,3945PD,Cothen,Wijk bij Duurstede,Utrecht,VBO,5.302057,51.995859
Bredeweg,7,c,,3945PD,Cothen,Wijk bij Duurstede,Utrecht,VBO,5.302293,51.995783
Bredeweg,7,,,3945PD,Cothen,Wijk bij Duurstede,Utrecht,VBO,5.301630,51.995999
Bredeweg,9,a,,3945PD,Cothen,Wijk bij Duurstede,Utrecht,VBO,5.301907,51.995676
Bredeweg,9,,,3945PD,Cothen,Wijk bij Duurstede,Utrecht,VBO,5.301499,51.995792
Bredeweg,11,,,3945PD,Cothen,Wijk bij Duurstede,Utrecht,VBO,5.301325,51.995612
Bredeweg,15,,,3945PD,Cothen,Wijk bij Duurstede,Utrecht,VBO,5.296515,51.990917
Bredeweg,19,,,3945PD,Cothen,Wijk bij Duurstede,Utrecht,VBO,5.294626,51.988866
Bredeweg,21,a,,3945PD,Cothen,Wijk bij Duurstede,Utrecht,VBO,5.293505,51.987682
Bredeweg,21,t,,3945PD,Cothen,Wijk bij Duurstede,Utrecht,VBO,5.293690,51.987794
Bredeweg,21,,,3945PD,Cothen,Wijk bij Duurstede,Utrecht,VBO,5.293392,51.987535
Bredeweg,2,a,,3945PE,Cothen,Wijk bij Duurstede,Utrecht,VBO,5.301512,51.996502
Bredeweg,2,,,3945PE,Cothen,Wijk bij Duurstede,Utrecht,VBO,5.301468,51.996408
Bredeweg,4,,,3945PE,Cothen,Wijk bij Duurstede,Utrecht,VBO,5.301324,51.996214
Bredeweg,6,a,,3945PE,Cothen,Wijk bij Duurstede,Utrecht,VBO,5.301117,51.996099
Bredeweg,6,,,3945PE,Cothen,Wijk bij Duurstede,Utrecht,VBO,5.301236,51.996187
Bredeweg,8,,,3945PE,Cothen,Wijk bij Duurstede,Utrecht,VBO,5.301018,51.995981
Bredeweg,10,,,3945PE,Cothen,Wijk bij Duurstede,Utrecht,VBO,5.300873,51.995855
Bredeweg,12,,,3945PE,Cothen,Wijk bij Duurstede,Utrecht,VBO,5.300818,51.995727
Bredeweg,14,a,,3945PE,Cothen,Wijk bij Duurstede,Utrecht,VBO,5.300437,51.995279
Bredeweg,14,,,3945PE,Cothen,Wijk bij Duurstede,Utrecht,VBO,5.300670,51.995531
Bredeweg,16,,,3945PE,Cothen,Wijk bij Duurstede,Utrecht,VBO,5.300292,51.995153
Bredeweg,18,,,3945PE,Cothen,Wijk bij Duurstede,Utrecht,VBO,5.300234,51.995036
Bredeweg,20,,,3945PE,Cothen,Wijk bij Duurstede,Utrecht,VBO,5.300059,51.994883
Bredeweg,22,,,3945PE,Cothen,Wijk bij Duurstede,Utrecht,VBO,5.297749,51.992383
Bredeweg,24,,,3945PE,Cothen,Wijk bij Duurstede,Utrecht,VBO,5.297212,51.991807
Ossenwaard,1,,,3945PG,Cothen,Wijk bij Duurstede,Utrecht,VBO,5.301323,51.996718
Ossenwaard,2,a,,3945PG,Cothen,Wijk bij Duurstede,Utrecht,STA,5.300642,51.997145
Ossenwaard,2,b,,3945PG,Cothen,Wijk bij Duurstede,Utrecht,STA,5.300472,51.997180
Ossenwaard,2,c,,3945PG,Cothen,Wijk bij Duurstede,Utrecht,STA,5.300310,51.997218
Ossenwaard,2,d,,3945PG,Cothen,Wijk bij Duurstede,Utrecht,VBO,5.299893,51.997458
Ossenwaard,2,,0001,3945PG,Cothen,Wijk bij Duurstede,Utrecht,VBO,5.298886,51.997352
Ossenwaard,3,a,,3945PG,Cothen,Wijk bij Duurstede,Utrecht,VBO,5.300914,51.996748
Ossenwaard,3,b,,3945PG,Cothen,Wijk bij Duurstede,Utrecht,VBO,5.300924,51.996728
Ossenwaard,3,,,3945PG,Cothen,Wijk bij Duurstede,Utrecht,VBO,5.301163,51.996682
Ossenwaard,4,,,3945PG,Cothen,Wijk bij Duurstede,Utrecht,VBO,5.298351,51.997228
Ossenwaard,5,,0001,3945PG,Cothen,Wijk bij Duurstede,Utrecht,VBO,5.300270,51.996788
Ossenwaard,5,,,3945PG,Cothen,Wijk bij Duurstede,Utrecht,VBO,5.300638,51.996780
Ossenwaard,6,,,3945PG,Cothen,Wijk bij Duurstede,Utrecht,VBO,5.297900,51.997210
Ossenwaard,7,,,3945PG,Cothen,Wijk bij Duurstede,Utrecht,VBO,5.299648,51.996771
Ossenwaard,8,,,3945PG,Cothen,Wijk bij Duurstede,Utrecht,VBO,5.294375,51.997620
Ossenwaard,9,a,,3945PG,Cothen,Wijk bij Duurstede,Utrecht,VBO,5.298203,51.996827
Ossenwaard,9,b,,3945PG,Cothen,Wijk bij Duurstede,Utrecht,VBO,5.297786,51.996757
Ossenwaard,9,,,3945PG,Cothen,Wijk bij Duurstede,Utrecht,VBO,5.298269,51.996933
Ossenwaard,10,,,3945PG,Cothen,Wijk bij Duurstede,Utrecht,VBO,5.288143,51.999855
Ossenwaard,11,,,3945PG,Cothen,Wijk bij Duurstede,Utrecht,VBO,5.297231,51.996939
Ossenwaard,12,,,3945PG,Cothen,Wijk bij Duurstede,Utrecht,VBO,5.286564,52.000472
Ossenwaard,13,a,,3945PG,Cothen,Wijk bij Duurstede,Utrecht,VBO,5.296996,51.997014
Ossenwaard,14,a,,3945PG,Cothen,Wijk bij Duurstede,Utrecht,VBO,5.283664,52.001458
Ossenwaard,14,,,3945PG,Cothen,Wijk bij Duurstede,Utrecht,VBO,5.285105,52.001684
Ossenwaard,15,a,,3945PG,Cothen,Wijk bij Duurstede,Utrecht,VBO,5.289208,51.998991
Ossenwaard,15,b,,3945PG,Cothen,Wijk bij Duurstede,Utrecht,VBO,5.288827,51.998983
Ossenwaard,15,,0001,3945PG,Cothen,Wijk bij Duurstede,Utrecht,VBO,5.293442,51.997377
Ossenwaard,15,,,3945PG,Cothen,Wijk bij Duurstede,Utrecht,VBO,5.292570,51.997601
Ossenwaard,16,,,3945PG,Cothen,Wijk bij Duurstede,Utrecht,VBO,5.283110,52.001674
Ossenwaard,17,t,,3945PG,Cothen,Wijk bij Duurstede,Utrecht,VBO,5.286927,52.000018
Ossenwaard,17,,,3945PG,Cothen,Wijk bij Duurstede,Utrecht,VBO,5.287498,51.999646
Ossenwaard,18,,,3945PG,Cothen,Wijk bij Duurstede,Utrecht,VBO,5.281172,52.002139
Ossenwaard,19,,,3945PG,Cothen,Wijk bij Duurstede,Utrecht,VBO,5.281596,52.001546
Ossenwaard,20,,,3945PG,Cothen,Wijk bij Duurstede,Utrecht,VBO,5.280238,52.002243
Ossenwaard,22,a,,3945PG,Cothen,Wijk bij Duurstede,Utrecht,VBO,5.279928,52.002336
Ossenwaard,22,,,3945PG,Cothen,Wijk bij Duurstede,Utrecht,VBO,5.280118,52.002274
Caspargauw,1,,,3945PH,Cothen,Wijk bij Duurstede,Utrecht,VBO,5.271981,51.997439
Caspargauw,3,,,3945PH,Cothen,Wijk bij Duurstede,Utrecht,VBO,5.269767,51.997500
Caspargauw,4,,,3945PH,Cothen,Wijk bij Duurstede,Utrecht,VBO,5.264868,52.001014
Caspargauw,5,t,,3945PH,Cothen,Wijk bij Duurstede,Utrecht,VBO,5.266336,51.998525
Caspargauw,5,,,3945PH,Cothen,Wijk bij Duurstede,Utrecht,VBO,5.267421,51.998036
Caspargauw,6,,,3945PH,Cothen,Wijk bij Duurstede,Utrecht,VBO,5.264796,52.001184
Caspargauw,8,a,,3945PH,Cothen,Wijk bij Duurstede,Utrecht,VBO,5.264628,52.001743
Caspargauw,8,,,3945PH,Cothen,Wijk bij Duurstede,Utrecht,VBO,5.264455,52.001880
Tuurdijk,1,,,3945PJ,Cothen,Wijk bij Duurstede,Utrecht,VBO,5.260046,52.000770
Tuurdijk,2,,,3945PJ,Cothen,Wijk bij Duurstede,Utrecht,VBO,5.260807,52.001467
Tuurdijk,4,,,3945PJ,Cothen,Wijk bij Duurstede,Utrecht,VBO,5.261238,52.001379
Nachtdijk,1,a,,3945PK,Cothen,Wijk bij Duurstede,Utrecht,VBO,5.250879,51.997103
Nachtdijk,1,,,3945PK,Cothen,Wijk bij Duurstede,Utrecht,VBO,5.250781,51.996958
Nachtdijk,2,,,3945PK,Cothen,Wijk bij Duurstede,Utrecht,VBO,5.250180,51.998395
Nachtdijk,3,,,3945PK,Cothen,Wijk bij Duurstede,Utrecht,VBO,5.250432,51.996814
Nachtdijk,4,t,,3945PK,Cothen,Wijk bij Duurstede,Utrecht,VBO,5.249623,51.996127
Nachtdijk,4,,,3945PK,Cothen,Wijk bij Duurstede,Utrecht,VBO,5.248950,51.995769
Nachtdijk,5,,,3945PK,Cothen,Wijk bij Duurstede,Utrecht,VBO,5.250270,51.996565
Nachtdijk,6,,,3945PK,Cothen,Wijk bij Duurstede,Utrecht,VBO,5.249038,51.995455
Nachtdijk,7,,,3945PK,Cothen,Wijk bij Duurstede,Utrecht,VBO,5.252519,51.995306
Nachtdijk,9,,,3945PK,Cothen,Wijk bij Duurstede,Utrecht,VBO,5.252520,51.994991
Trechtweg,1,a,,3945PL,Cothen,Wijk bij Duurstede,Utrecht,VBO,5.315844,51.985016
Trechtweg,1,b,,3945PL,Cothen,Wijk bij Duurstede,Utrecht,VBO,5.316047,51.984342
Trechtweg,1,,0001,3945PL,Cothen,Wijk bij Duurstede,Utrecht,VBO,5.318284,51.984215
Trechtweg,1,,,3945PL,Cothen,Wijk bij Duurstede,Utrecht,VBO,5.318591,51.984364
Trechtweg,3,a,,3945PL,Cothen,Wijk bij Duurstede,Utrecht,VBO,5.310719,51.985291
Trechtweg,3,b,,3945PL,Cothen,Wijk bij Duurstede,Utrecht,VBO,5.311760,51.985197
Trechtweg,3,t,,3945PL,Cothen,Wijk bij Duurstede,Utrecht,VBO,5.313903,51.985230
Trechtweg,3,,0001,3945PL,Cothen,Wijk bij Duurstede,Utrecht,VBO,5.310228,51.985379
Trechtweg,3,,,3945PL,Cothen,Wijk bij Duurstede,Utrecht,VBO,5.312728,51.985185
Trechtweg,4,a,,3945PL,Cothen,Wijk bij Duurstede,Utrecht,VBO,5.308502,51.986995
Trechtweg,4,,,3945PL,Cothen,Wijk bij Duurstede,Utrecht,VBO,5.309801,51.986163
Trechtweg,5,,,3945PL,Cothen,Wijk bij Duurstede,Utrecht,VBO,5.305645,51.986830
Trechtweg,6,,,3945PL,Cothen,Wijk bij Duurstede,Utrecht,VBO,5.306338,51.987474
Trechtweg,7,a,,3945PL,Cothen,Wijk bij Duurstede,Utrecht,VBO,5.300888,51.987487
Trechtweg,7,,,3945PL,Cothen,Wijk bij Duurstede,Utrecht,VBO,5.301370,51.987433
Trechtweg,8,,,3945PL,Cothen,Wijk bij Duurstede,Utrecht,VBO,5.301471,51.987892
Trechtweg,9,,,3945PL,Cothen,Wijk bij Duurstede,Utrecht,VBO,5.299469,51.987471
Trechtweg,10,a,,3945PL,Cothen,Wijk bij Duurstede,Utrecht,VBO,5.295849,51.987973
Trechtweg,10,b,,3945PL,Cothen,Wijk bij Duurstede,Utrecht,VBO,5.297306,51.988074
Trechtweg,10,,,3945PL,Cothen,Wijk bij Duurstede,Utrecht,VBO,5.300466,51.988089
Trechtweg,11,,,3945PL,Cothen,Wijk bij Duurstede,Utrecht,VBO,5.293727,51.987113
Trechtweg,12,,,3945PL,Cothen,Wijk bij Duurstede,Utrecht,VBO,5.292140,51.987480
Trechtweg,13,,,3945PL,Cothen,Wijk bij Duurstede,Utrecht,VBO,5.283171,51.987239
Trechtweg,15,,,3945PL,Cothen,Wijk bij Duurstede,Utrecht,VBO,5.282419,51.987403
Watertorenweg,2,,,3945PM,Cothen,Wijk bij Duurstede,Utrecht,VBO,5.264579,52.002632
Cotherweg,14,,,3945PZ,Cothen,Wijk bij Duurstede,Utrecht,VBO,5.319598,52.005565
