openbareruimtenaam,huisnummer,huisletter,huisnummertoevoeging,postcode,woonplaatsnaam,gemeentenaam,provincienaam,typeadresseerbaarobject,longitude,latitude
Standerdmolen,8,,,3995AA,Houten,Houten,Utrecht,VBO,5.171331,52.030374
Standerdmolen,10,,,3995AA,Houten,Houten,Utrecht,VBO,5.171648,52.030209
Standerdmolen,14,a,,3995AA,Houten,Houten,Utrecht,VBO,5.172113,52.029223
Standerdmolen,14,,,3995AA,Houten,Houten,Utrecht,VBO,5.172231,52.029784
Standerdmolen,16,,,3995AA,Houten,Houten,Utrecht,VBO,5.171862,52.029556
Standerdmolen,18,,,3995AA,Houten,Houten,Utrecht,VBO,5.171861,52.029162
Standerdmolen,20,,,3995AA,Houten,Houten,Utrecht,VBO,5.171669,52.029448
Korenmolen,3,,,3995AC,Houten,Houten,Utrecht,VBO,5.173397,52.030422
Korenmolen,5,,,3995AC,Houten,Houten,Utrecht,VBO,5.173441,52.030338
Korenmolen,7,,,3995AC,Houten,Houten,Utrecht,VBO,5.173779,52.030622
Korenmolen,2,,,3995AH,Houten,Houten,Utrecht,VBO,5.172746,52.030726
Rosmolen,2,,,3995AM,Houten,Houten,Utrecht,VBO,5.171664,52.033117
Rosmolen,4,,,3995AM,Houten,Houten,Utrecht,VBO,5.171645,52.033055
Rosmolen,6,,,3995AM,Houten,Houten,Utrecht,VBO,5.171733,52.033018
Rosmolen,8,,,3995AM,Houten,Houten,Utrecht,VBO,5.171714,52.032961
Rosmolen,10,,,3995AM,Houten,Houten,Utrecht,VBO,5.171790,52.032928
Rosmolen,12,,,3995AM,Houten,Houten,Utrecht,VBO,5.171785,52.032871
Rosmolen,14,,,3995AM,Houten,Houten,Utrecht,VBO,5.171861,52.032840
Rosmolen,16,,,3995AM,Houten,Houten,Utrecht,VBO,5.171890,52.032798
Rosmolen,18,,,3995AM,Houten,Houten,Utrecht,VBO,5.172055,52.032598
Rosmolen,20,,,3995AM,Houten,Houten,Utrecht,VBO,5.172053,52.032542
Rosmolen,22,,,3995AM,Houten,Houten,Utrecht,VBO,5.172133,52.032499
Rosmolen,24,,,3995AM,Houten,Houten,Utrecht,VBO,5.172113,52.032441
Rosmolen,26,,,3995AM,Houten,Houten,Utrecht,VBO,5.172174,52.032402
Rosmolen,28,,,3995AM,Houten,Houten,Utrecht,VBO,5.172224,52.032372
Watermolen,2,,,3995AP,Houten,Houten,Utrecht,VBO,5.172409,52.032148
Watermolen,4,,,3995AP,Houten,Houten,Utrecht,VBO,5.172392,52.032091
Watermolen,6,,,3995AP,Houten,Houten,Utrecht,VBO,5.172474,52.032056
Watermolen,8,,,3995AP,Houten,Houten,Utrecht,VBO,5.172452,52.031991
Watermolen,10,,,3995AP,Houten,Houten,Utrecht,VBO,5.172522,52.031969
Watermolen,12,,,3995AP,Houten,Houten,Utrecht,VBO,5.172518,52.031904
Watermolen,14,,,3995AP,Houten,Houten,Utrecht,VBO,5.172591,52.031876
Watermolen,16,,,3995AP,Houten,Houten,Utrecht,VBO,5.172591,52.031812
Watermolen,18,,,3995AP,Houten,Houten,Utrecht,VBO,5.172655,52.031787
Watermolen,20,,,3995AP,Houten,Houten,Utrecht,VBO,5.172689,52.031742
Watermolen,22,,,3995AP,Houten,Houten,Utrecht,VBO,5.172781,52.031632
Watermolen,24,,,3995AP,Houten,Houten,Utrecht,VBO,5.172781,52.031574
Watermolen,26,,,3995AP,Houten,Houten,Utrecht,VBO,5.172857,52.031545
Watermolen,28,,,3995AP,Houten,Houten,Utrecht,VBO,5.172847,52.031489
Watermolen,30,,,3995AP,Houten,Houten,Utrecht,VBO,5.172932,52.031461
Watermolen,32,,,3995AP,Houten,Houten,Utrecht,VBO,5.172940,52.031408
Watermolen,34,,,3995AP,Houten,Houten,Utrecht,VBO,5.173006,52.031377
Watermolen,36,,,3995AP,Houten,Houten,Utrecht,VBO,5.173050,52.031328
Watermolen,38,,,3995AP,Houten,Houten,Utrecht,VBO,5.173326,52.031096
Watermolen,40,,,3995AP,Houten,Houten,Utrecht,VBO,5.173422,52.031019
Watermolen,42,,,3995AP,Houten,Houten,Utrecht,VBO,5.173489,52.030964
Watermolen,44,,,3995AP,Houten,Houten,Utrecht,VBO,5.173588,52.030888
Stellingmolen,1,,,3995AT,Houten,Houten,Utrecht,VBO,5.170525,52.033826
Stellingmolen,5,,,3995AT,Houten,Houten,Utrecht,VBO,5.170501,52.034068
Stellingmolen,9,,,3995AT,Houten,Houten,Utrecht,VBO,5.170372,52.034267
Stellingmolen,13,,,3995AT,Houten,Houten,Utrecht,VBO,5.170338,52.033831
Stellingmolen,15,,,3995AT,Houten,Houten,Utrecht,VBO,5.170309,52.033874
Stellingmolen,17,,,3995AT,Houten,Houten,Utrecht,VBO,5.170276,52.033921
Stellingmolen,19,,,3995AT,Houten,Houten,Utrecht,VBO,5.170248,52.033966
Stellingmolen,21,,,3995AT,Houten,Houten,Utrecht,VBO,5.170220,52.034009
Stellingmolen,23,,,3995AT,Houten,Houten,Utrecht,VBO,5.170187,52.034059
Stellingmolen,25,,,3995AT,Houten,Houten,Utrecht,VBO,5.170143,52.034129
Stellingmolen,27,,,3995AT,Houten,Houten,Utrecht,VBO,5.170104,52.034188
Stellingmolen,29,,,3995AT,Houten,Houten,Utrecht,VBO,5.170066,52.034244
Stellingmolen,31,,,3995AT,Houten,Houten,Utrecht,VBO,5.170034,52.034290
Stellingmolen,33,,,3995AT,Houten,Houten,Utrecht,VBO,5.170404,52.033848
Stellingmolen,35,,,3995AT,Houten,Houten,Utrecht,VBO,5.170372,52.033888
Stellingmolen,37,,,3995AT,Houten,Houten,Utrecht,VBO,5.170351,52.033933
Stellingmolen,39,,,3995AT,Houten,Houten,Utrecht,VBO,5.170310,52.033976
Stellingmolen,41,,,3995AT,Houten,Houten,Utrecht,VBO,5.170283,52.034027
Stellingmolen,43,,,3995AT,Houten,Houten,Utrecht,VBO,5.170247,52.034078
Stellingmolen,45,,,3995AT,Houten,Houten,Utrecht,VBO,5.170198,52.034138
Stellingmolen,47,,,3995AT,Houten,Houten,Utrecht,VBO,5.170166,52.034201
Stellingmolen,49,,,3995AT,Houten,Houten,Utrecht,VBO,5.170124,52.034254
Stellingmolen,51,,,3995AT,Houten,Houten,Utrecht,VBO,5.170092,52.034302
Stellingmolen,53,,,3995AT,Houten,Houten,Utrecht,VBO,5.170476,52.033867
Stellingmolen,55,,,3995AT,Houten,Houten,Utrecht,VBO,5.170438,52.033910
Stellingmolen,57,,,3995AT,Houten,Houten,Utrecht,VBO,5.170420,52.033952
Stellingmolen,59,,,3995AT,Houten,Houten,Utrecht,VBO,5.170386,52.033995
Stellingmolen,61,,,3995AT,Houten,Houten,Utrecht,VBO,5.170354,52.034043
Stellingmolen,63,,,3995AT,Houten,Houten,Utrecht,VBO,5.170319,52.034094
Stellingmolen,65,,,3995AT,Houten,Houten,Utrecht,VBO,5.170272,52.034154
Stellingmolen,67,,,3995AT,Houten,Houten,Utrecht,VBO,5.170229,52.034212
Stellingmolen,69,,,3995AT,Houten,Houten,Utrecht,VBO,5.170195,52.034270
Stellingmolen,71,,,3995AT,Houten,Houten,Utrecht,VBO,5.170152,52.034317
Stellingmolen,73,,,3995AT,Houten,Houten,Utrecht,VBO,5.170531,52.033882
Stellingmolen,75,,,3995AT,Houten,Houten,Utrecht,VBO,5.170504,52.033925
Stellingmolen,77,,,3995AT,Houten,Houten,Utrecht,VBO,5.170477,52.033963
Stellingmolen,79,,,3995AT,Houten,Houten,Utrecht,VBO,5.170444,52.034007
Stellingmolen,81,,,3995AT,Houten,Houten,Utrecht,VBO,5.170408,52.034057
Stellingmolen,83,,,3995AT,Houten,Houten,Utrecht,VBO,5.170378,52.034107
Stellingmolen,85,,,3995AT,Houten,Houten,Utrecht,VBO,5.170332,52.034167
Stellingmolen,87,,,3995AT,Houten,Houten,Utrecht,VBO,5.170290,52.034223
Stellingmolen,89,,,3995AT,Houten,Houten,Utrecht,VBO,5.170254,52.034282
Stellingmolen,91,,0001,3995AT,Houten,Houten,Utrecht,VBO,5.170383,52.034322
Stellingmolen,91,,,3995AT,Houten,Houten,Utrecht,VBO,5.170210,52.034330
Stellingmolen,2,,,3995AV,Houten,Houten,Utrecht,VBO,5.170013,52.033877
Stellingmolen,6,,,3995AV,Houten,Houten,Utrecht,VBO,5.169948,52.033968
Stellingmolen,8,,,3995AV,Houten,Houten,Utrecht,VBO,5.169909,52.034036
Stellingmolen,10,,,3995AV,Houten,Houten,Utrecht,VBO,5.169896,52.034082
Stellingmolen,12,,,3995AV,Houten,Houten,Utrecht,VBO,5.169842,52.034137
Stellingmolen,16,,,3995AV,Houten,Houten,Utrecht,VBO,5.170021,52.033768
Stellingmolen,18,,,3995AV,Houten,Houten,Utrecht,VBO,5.169971,52.033831
Stellingmolen,20,,,3995AV,Houten,Houten,Utrecht,VBO,5.169926,52.033899
Stellingmolen,22,,,3995AV,Houten,Houten,Utrecht,VBO,5.169871,52.033982
Stellingmolen,24,,,3995AV,Houten,Houten,Utrecht,VBO,5.169823,52.034045
Stellingmolen,26,,,3995AV,Houten,Houten,Utrecht,VBO,5.169787,52.034098
Stellingmolen,28,,,3995AV,Houten,Houten,Utrecht,VBO,5.169731,52.034185
Stellingmolen,30,,,3995AV,Houten,Houten,Utrecht,VBO,5.169669,52.034272
Stellingmolen,32,,,3995AV,Houten,Houten,Utrecht,VBO,5.170072,52.033779
Stellingmolen,34,,,3995AV,Houten,Houten,Utrecht,VBO,5.170016,52.033841
Stellingmolen,36,,,3995AV,Houten,Houten,Utrecht,VBO,5.169972,52.033910
Stellingmolen,38,,,3995AV,Houten,Houten,Utrecht,VBO,5.169911,52.033991
Stellingmolen,40,,,3995AV,Houten,Houten,Utrecht,VBO,5.169867,52.034054
Stellingmolen,42,,,3995AV,Houten,Houten,Utrecht,VBO,5.169830,52.034107
Stellingmolen,44,,,3995AV,Houten,Houten,Utrecht,VBO,5.169778,52.034194
Stellingmolen,46,,,3995AV,Houten,Houten,Utrecht,VBO,5.169712,52.034284
Stellingmolen,48,,,3995AV,Houten,Houten,Utrecht,VBO,5.170114,52.033790
Stellingmolen,50,,,3995AV,Houten,Houten,Utrecht,VBO,5.170056,52.033850
Stellingmolen,52,,,3995AV,Houten,Houten,Utrecht,VBO,5.170013,52.033917
Stellingmolen,54,,,3995AV,Houten,Houten,Utrecht,VBO,5.169954,52.034003
Stellingmolen,56,,,3995AV,Houten,Houten,Utrecht,VBO,5.169915,52.034064
Stellingmolen,58,,,3995AV,Houten,Houten,Utrecht,VBO,5.169873,52.034117
Stellingmolen,60,,,3995AV,Houten,Houten,Utrecht,VBO,5.169825,52.034203
Stellingmolen,62,,,3995AV,Houten,Houten,Utrecht,VBO,5.169757,52.034293
Stellingmolen,64,,,3995AV,Houten,Houten,Utrecht,VBO,5.169677,52.034328
Stellingmolen,66,,,3995AV,Houten,Houten,Utrecht,VBO,5.170150,52.033797
Stellingmolen,68,,,3995AV,Houten,Houten,Utrecht,VBO,5.170099,52.033862
Stellingmolen,70,,,3995AV,Houten,Houten,Utrecht,VBO,5.170054,52.033931
Stellingmolen,72,,,3995AV,Houten,Houten,Utrecht,VBO,5.169996,52.034015
Stellingmolen,74,,,3995AV,Houten,Houten,Utrecht,VBO,5.169959,52.034075
Stellingmolen,76,,,3995AV,Houten,Houten,Utrecht,VBO,5.169917,52.034128
Stellingmolen,78,,,3995AV,Houten,Houten,Utrecht,VBO,5.169868,52.034214
Stellingmolen,80,,,3995AV,Houten,Houten,Utrecht,VBO,5.169801,52.034304
Stellingmolen,82,,,3995AV,Houten,Houten,Utrecht,VBO,5.169751,52.034349
De Molen,61,,0001,3995AW,Houten,Houten,Utrecht,VBO,5.172072,52.031453
De Molen,61,,,3995AW,Houten,Houten,Utrecht,VBO,5.172348,52.031335
De Molen,65,,,3995AW,Houten,Houten,Utrecht,VBO,5.171864,52.031722
De Molen,77,,,3995AW,Houten,Houten,Utrecht,VBO,5.171304,52.032284
De Molen,83,,0001,3995AW,Houten,Houten,Utrecht,VBO,5.170867,52.032879
De Molen,83,,,3995AW,Houten,Houten,Utrecht,VBO,5.170856,52.032697
De Molen,89,a,,3995AW,Houten,Houten,Utrecht,VBO,5.170631,52.032967
De Molen,89,,,3995AW,Houten,Houten,Utrecht,VBO,5.170586,52.033009
De Molen,91,a,,3995AW,Houten,Houten,Utrecht,VBO,5.170510,52.033106
De Molen,91,b,,3995AW,Houten,Houten,Utrecht,VBO,5.170597,52.033091
De Molen,91,c,,3995AW,Houten,Houten,Utrecht,VBO,5.170549,52.033061
De Molen,91,,,3995AW,Houten,Houten,Utrecht,VBO,5.170496,52.033166
De Molen,93,a,,3995AW,Houten,Houten,Utrecht,VBO,5.170565,52.033257
De Molen,93,b,,3995AW,Houten,Houten,Utrecht,VBO,5.170566,52.033294
De Molen,93,,,3995AW,Houten,Houten,Utrecht,VBO,5.170467,52.033226
De Molen,66,,,3995AX,Houten,Houten,Utrecht,VBO,5.171448,52.030952
De Molen,68,,,3995AX,Houten,Houten,Utrecht,VBO,5.170972,52.031523
De Molen,82,,,3995AX,Houten,Houten,Utrecht,VBO,5.170624,52.031886
De Molen,84,,,3995AX,Houten,Houten,Utrecht,VBO,5.170553,52.031932
De Molen,86,,,3995AX,Houten,Houten,Utrecht,VBO,5.170441,52.031982
De Molen,88,,,3995AX,Houten,Houten,Utrecht,VBO,5.170357,52.032030
De Molen,90,,,3995AX,Houten,Houten,Utrecht,VBO,5.170291,52.032077
De Molen,92,,,3995AX,Houten,Houten,Utrecht,VBO,5.170140,52.032036
De Molen,94,,,3995AX,Houten,Houten,Utrecht,VBO,5.170057,52.032292
De Molen,100,,,3995AX,Houten,Houten,Utrecht,VBO,5.169464,52.032895
Wernaarseind,2,,,3995BA,Houten,Houten,Utrecht,VBO,5.172482,52.033730
Wernaarseind,4,,,3995BA,Houten,Houten,Utrecht,VBO,5.172422,52.033758
Wernaarseind,6,,,3995BA,Houten,Houten,Utrecht,VBO,5.172380,52.033809
Wernaarseind,8,,,3995BA,Houten,Houten,Utrecht,VBO,5.172301,52.033813
Wernaarseind,10,,,3995BA,Houten,Houten,Utrecht,VBO,5.172226,52.033854
Wernaarseind,12,,,3995BA,Houten,Houten,Utrecht,VBO,5.172153,52.033867
Wernaarseind,14,,,3995BA,Houten,Houten,Utrecht,VBO,5.172113,52.033911
Wernaarseind,16,,,3995BA,Houten,Houten,Utrecht,VBO,5.172014,52.033919
Wernaarseind,18,,,3995BA,Houten,Houten,Utrecht,VBO,5.171963,52.033972
Wernaarseind,20,,,3995BA,Houten,Houten,Utrecht,VBO,5.171869,52.033978
Wernaarseind,22,,,3995BB,Houten,Houten,Utrecht,VBO,5.171587,52.034066
Wernaarseind,24,,,3995BB,Houten,Houten,Utrecht,VBO,5.171500,52.034189
Wernaarseind,26,,,3995BB,Houten,Houten,Utrecht,VBO,5.171544,52.034037
Wernaarseind,28,,,3995BB,Houten,Houten,Utrecht,VBO,5.171505,52.034165
Wernaarseind,30,,,3995BB,Houten,Houten,Utrecht,VBO,5.171490,52.034054
Wernaarseind,32,,,3995BB,Houten,Houten,Utrecht,VBO,5.171511,52.034136
Wernaarseind,34,,,3995BB,Houten,Houten,Utrecht,VBO,5.171423,52.034208
Wernaarseind,36,,,3995BB,Houten,Houten,Utrecht,VBO,5.171373,52.034234
Wernaarseind,38,,,3995BB,Houten,Houten,Utrecht,VBO,5.171307,52.034255
Wernaarseind,40,,,3995BB,Houten,Houten,Utrecht,VBO,5.171250,52.034283
Wernaarseind,42,,,3995BB,Houten,Houten,Utrecht,VBO,5.171198,52.034306
Wernaarseind,44,,,3995BB,Houten,Houten,Utrecht,VBO,5.171145,52.034331
Wernaarseind,46,,,3995BB,Houten,Houten,Utrecht,VBO,5.171080,52.034351
Wernaarseind,48,,,3995BB,Houten,Houten,Utrecht,VBO,5.171021,52.034376
Wernaarseind,50,,,3995BB,Houten,Houten,Utrecht,VBO,5.170967,52.034398
Wernaarseind,52,,,3995BB,Houten,Houten,Utrecht,VBO,5.170911,52.034417
Wernaarseind,54,,,3995BB,Houten,Houten,Utrecht,VBO,5.170866,52.034461
Wernaarseind,56,,,3995BB,Houten,Houten,Utrecht,VBO,5.170799,52.034477
Wernaarseind,60,,,3995BB,Houten,Houten,Utrecht,VBO,5.170724,52.034504
Wernaarseind,62,,,3995BB,Houten,Houten,Utrecht,VBO,5.170824,52.034430
Wernaarseind,64,,,3995BB,Houten,Houten,Utrecht,VBO,5.170780,52.034449
Wernaarseind,66,,,3995BB,Houten,Houten,Utrecht,VBO,5.170727,52.034471
Wernaarseind,68,,,3995BB,Houten,Houten,Utrecht,VBO,5.170651,52.034499
Wernaarseind,70,,,3995BB,Houten,Houten,Utrecht,VBO,5.170807,52.034401
Wernaarseind,72,,,3995BB,Houten,Houten,Utrecht,VBO,5.170750,52.034422
Wernaarseind,74,,,3995BB,Houten,Houten,Utrecht,VBO,5.170697,52.034446
Wernaarseind,76,,,3995BB,Houten,Houten,Utrecht,VBO,5.170634,52.034470
Wernaarseind,78,,,3995BB,Houten,Houten,Utrecht,VBO,5.170505,52.034533
Wernaarseind,80,,,3995BB,Houten,Houten,Utrecht,VBO,5.170536,52.034571
Wernaarseind,3,,,3995BC,Houten,Houten,Utrecht,VBO,5.171628,52.034448
Wernaarseind,5,,,3995BC,Houten,Houten,Utrecht,VBO,5.171474,52.034423
Wernaarseind,7,,,3995BC,Houten,Houten,Utrecht,VBO,5.171627,52.034477
Wernaarseind,9,,,3995BC,Houten,Houten,Utrecht,VBO,5.171478,52.034456
Wernaarseind,11,,,3995BC,Houten,Houten,Utrecht,VBO,5.171626,52.034502
Wernaarseind,13,,,3995BC,Houten,Houten,Utrecht,VBO,5.171470,52.034479
Wernaarseind,15,,,3995BC,Houten,Houten,Utrecht,VBO,5.171374,52.034479
Wernaarseind,17,,,3995BC,Houten,Houten,Utrecht,VBO,5.171307,52.034494
Wernaarseind,19,,,3995BC,Houten,Houten,Utrecht,VBO,5.171252,52.034520
Wernaarseind,21,,,3995BC,Houten,Houten,Utrecht,VBO,5.171187,52.034545
Wernaarseind,23,,,3995BC,Houten,Houten,Utrecht,VBO,5.171132,52.034560
Wernaarseind,25,,,3995BC,Houten,Houten,Utrecht,VBO,5.171077,52.034589
Wernaarseind,27,,,3995BC,Houten,Houten,Utrecht,VBO,5.170995,52.034592
Wernaarseind,29,,,3995BC,Houten,Houten,Utrecht,VBO,5.170950,52.034625
Wernaarseind,31,,,3995BC,Houten,Houten,Utrecht,VBO,5.170871,52.034651
Wernaarseind,33,,,3995BC,Houten,Houten,Utrecht,VBO,5.170817,52.034660
Wernaarseind,35,,,3995BC,Houten,Houten,Utrecht,VBO,5.171025,52.034621
Wernaarseind,37,,,3995BC,Houten,Houten,Utrecht,VBO,5.170965,52.034645
Wernaarseind,39,,,3995BC,Houten,Houten,Utrecht,VBO,5.170911,52.034669
Wernaarseind,41,,,3995BC,Houten,Houten,Utrecht,VBO,5.170848,52.034689
Wernaarseind,43,,,3995BC,Houten,Houten,Utrecht,VBO,5.171053,52.034653
Wernaarseind,45,,,3995BC,Houten,Houten,Utrecht,VBO,5.170998,52.034674
Wernaarseind,47,,,3995BC,Houten,Houten,Utrecht,VBO,5.170946,52.034697
Wernaarseind,49,,,3995BC,Houten,Houten,Utrecht,VBO,5.170873,52.034722
De Fuik,1,,,3995BH,Houten,Houten,Utrecht,VBO,5.172187,52.034808
De Fuik,2,,,3995BH,Houten,Houten,Utrecht,VBO,5.172284,52.034798
De Fuik,3,,,3995BH,Houten,Houten,Utrecht,VBO,5.172349,52.034847
De Fuik,4,,,3995BH,Houten,Houten,Utrecht,VBO,5.172434,52.034839
De Fuik,5,,,3995BH,Houten,Houten,Utrecht,VBO,5.172489,52.034888
De Fuik,6,,,3995BH,Houten,Houten,Utrecht,VBO,5.172600,52.034881
De Fuik,7,,,3995BH,Houten,Houten,Utrecht,VBO,5.172638,52.034928
De Fuik,8,,,3995BH,Houten,Houten,Utrecht,VBO,5.172721,52.034918
De Fuik,9,,,3995BH,Houten,Houten,Utrecht,VBO,5.172791,52.034951
De Fuik,10,,,3995BH,Houten,Houten,Utrecht,VBO,5.172845,52.034994
De Fuik,11,,,3995BH,Houten,Houten,Utrecht,VBO,5.173117,52.034922
De Fuik,12,,,3995BH,Houten,Houten,Utrecht,VBO,5.173103,52.034861
De Fuik,13,,,3995BH,Houten,Houten,Utrecht,VBO,5.173123,52.034812
De Fuik,14,,,3995BH,Houten,Houten,Utrecht,VBO,5.173211,52.034786
De Fuik,15,,,3995BH,Houten,Houten,Utrecht,VBO,5.173200,52.034687
De Fuik,16,,,3995BH,Houten,Houten,Utrecht,VBO,5.173165,52.034632
De Fuik,17,,,3995BH,Houten,Houten,Utrecht,VBO,5.173200,52.034579
De Fuik,18,,,3995BH,Houten,Houten,Utrecht,VBO,5.173291,52.034548
De Fuik,19,,,3995BJ,Houten,Houten,Utrecht,VBO,5.173233,52.034426
De Fuik,20,,,3995BJ,Houten,Houten,Utrecht,VBO,5.173234,52.034371
De Fuik,21,,,3995BJ,Houten,Houten,Utrecht,VBO,5.173155,52.034348
De Fuik,22,,,3995BJ,Houten,Houten,Utrecht,VBO,5.173149,52.034290
De Fuik,23,,,3995BJ,Houten,Houten,Utrecht,VBO,5.173066,52.034264
De Fuik,24,,,3995BJ,Houten,Houten,Utrecht,VBO,5.173042,52.034209
De Fuik,25,,,3995BJ,Houten,Houten,Utrecht,VBO,5.172916,52.034154
De Fuik,26,,,3995BJ,Houten,Houten,Utrecht,VBO,5.172829,52.034139
De Fuik,27,,,3995BJ,Houten,Houten,Utrecht,VBO,5.172829,52.034080
De Fuik,28,,,3995BJ,Houten,Houten,Utrecht,VBO,5.172740,52.034055
De Fuik,29,,,3995BJ,Houten,Houten,Utrecht,VBO,5.172713,52.034005
De Fuik,30,,,3995BJ,Houten,Houten,Utrecht,VBO,5.172699,52.033950
Kooikerseind,1,,,3995BM,Houten,Houten,Utrecht,VBO,5.172567,52.035328
Kooikerseind,3,,,3995BM,Houten,Houten,Utrecht,VBO,5.172487,52.035323
Kooikerseind,5,,,3995BM,Houten,Houten,Utrecht,VBO,5.172434,52.035281
Kooikerseind,7,,,3995BM,Houten,Houten,Utrecht,VBO,5.172348,52.035283
Kooikerseind,9,,,3995BM,Houten,Houten,Utrecht,VBO,5.172300,52.035239
Kooikerseind,11,,,3995BM,Houten,Houten,Utrecht,VBO,5.172201,52.035240
Kooikerseind,13,,,3995BM,Houten,Houten,Utrecht,VBO,5.172134,52.035190
Kooikerseind,15,,,3995BM,Houten,Houten,Utrecht,VBO,5.172044,52.035200
Kooikerseind,17,,,3995BM,Houten,Houten,Utrecht,VBO,5.172003,52.035144
Kooikerseind,19,,,3995BN,Houten,Houten,Utrecht,VBO,5.171583,52.035174
Kooikerseind,21,,,3995BN,Houten,Houten,Utrecht,VBO,5.171426,52.035222
Kooikerseind,23,,,3995BN,Houten,Houten,Utrecht,VBO,5.171583,52.035144
Kooikerseind,25,,,3995BN,Houten,Houten,Utrecht,VBO,5.171408,52.035194
Kooikerseind,27,,,3995BN,Houten,Houten,Utrecht,VBO,5.171565,52.035113
Kooikerseind,29,,,3995BN,Houten,Houten,Utrecht,VBO,5.171402,52.035165
Kooikerseind,31,,,3995BN,Houten,Houten,Utrecht,VBO,5.171313,52.035164
Kooikerseind,33,,,3995BN,Houten,Houten,Utrecht,VBO,5.171245,52.035151
Kooikerseind,35,,,3995BN,Houten,Houten,Utrecht,VBO,5.171179,52.035146
Kooikerseind,37,,,3995BN,Houten,Houten,Utrecht,VBO,5.171101,52.035146
Kooikerseind,39,,,3995BN,Houten,Houten,Utrecht,VBO,5.171051,52.035114
Kooikerseind,41,,,3995BN,Houten,Houten,Utrecht,VBO,5.170975,52.035100
Kooikerseind,43,,,3995BN,Houten,Houten,Utrecht,VBO,5.170900,52.035106
Kooikerseind,45,,,3995BN,Houten,Houten,Utrecht,VBO,5.171121,52.035115
Kooikerseind,47,,,3995BN,Houten,Houten,Utrecht,VBO,5.171070,52.035091
Kooikerseind,49,,,3995BN,Houten,Houten,Utrecht,VBO,5.170998,52.035074
Kooikerseind,51,,,3995BN,Houten,Houten,Utrecht,VBO,5.170910,52.035073
Kooikerseind,53,,,3995BN,Houten,Houten,Utrecht,VBO,5.171153,52.035075
Kooikerseind,55,,,3995BN,Houten,Houten,Utrecht,VBO,5.171085,52.035056
Kooikerseind,57,,,3995BN,Houten,Houten,Utrecht,VBO,5.171006,52.035043
Kooikerseind,59,,0001,3995BN,Houten,Houten,Utrecht,VBO,5.170985,52.034931
Kooikerseind,59,,,3995BN,Houten,Houten,Utrecht,VBO,5.170927,52.035036
Kooikerseind,2,,,3995BP,Houten,Houten,Utrecht,VBO,5.172556,52.035816
Kooikerseind,4,,,3995BP,Houten,Houten,Utrecht,VBO,5.172519,52.035839
Kooikerseind,6,,,3995BP,Houten,Houten,Utrecht,VBO,5.172500,52.035858
Kooikerseind,8,,,3995BP,Houten,Houten,Utrecht,VBO,5.172366,52.035829
Kooikerseind,10,,,3995BP,Houten,Houten,Utrecht,VBO,5.172376,52.035805
Kooikerseind,12,,,3995BP,Houten,Houten,Utrecht,VBO,5.172400,52.035776
Kooikerseind,14,,,3995BP,Houten,Houten,Utrecht,VBO,5.172320,52.035752
Kooikerseind,16,,,3995BP,Houten,Houten,Utrecht,VBO,5.172306,52.035782
Kooikerseind,18,,,3995BP,Houten,Houten,Utrecht,VBO,5.172281,52.035808
Kooikerseind,20,,,3995BP,Houten,Houten,Utrecht,VBO,5.172158,52.035770
Kooikerseind,22,,,3995BP,Houten,Houten,Utrecht,VBO,5.172170,52.035745
Kooikerseind,24,,,3995BP,Houten,Houten,Utrecht,VBO,5.172190,52.035717
Kooikerseind,26,,,3995BP,Houten,Houten,Utrecht,VBO,5.172103,52.035688
Kooikerseind,28,,,3995BP,Houten,Houten,Utrecht,VBO,5.172095,52.035722
Kooikerseind,30,,,3995BP,Houten,Houten,Utrecht,VBO,5.172069,52.035748
Kooikerseind,32,,,3995BP,Houten,Houten,Utrecht,VBO,5.171947,52.035716
Kooikerseind,34,,,3995BP,Houten,Houten,Utrecht,VBO,5.171970,52.035687
Kooikerseind,36,,,3995BP,Houten,Houten,Utrecht,VBO,5.171982,52.035652
Kooikerseind,38,,,3995BR,Houten,Houten,Utrecht,VBO,5.171606,52.035690
Kooikerseind,40,,,3995BR,Houten,Houten,Utrecht,VBO,5.171510,52.035583
Kooikerseind,42,,,3995BR,Houten,Houten,Utrecht,VBO,5.171577,52.035661
Kooikerseind,44,,,3995BR,Houten,Houten,Utrecht,VBO,5.171519,52.035558
Kooikerseind,46,,,3995BR,Houten,Houten,Utrecht,VBO,5.171580,52.035636
Kooikerseind,48,,,3995BR,Houten,Houten,Utrecht,VBO,5.171512,52.035531
Kooikerseind,50,,,3995BR,Houten,Houten,Utrecht,VBO,5.171423,52.035525
Kooikerseind,52,,,3995BR,Houten,Houten,Utrecht,VBO,5.171355,52.035508
Kooikerseind,54,,,3995BR,Houten,Houten,Utrecht,VBO,5.171292,52.035493
Kooikerseind,56,,,3995BR,Houten,Houten,Utrecht,VBO,5.171233,52.035477
Kooikerseind,58,,,3995BR,Houten,Houten,Utrecht,VBO,5.171161,52.035465
Kooikerseind,60,,,3995BR,Houten,Houten,Utrecht,VBO,5.171094,52.035454
Kooikerseind,62,,,3995BR,Houten,Houten,Utrecht,VBO,5.171032,52.035437
Kooikerseind,64,,,3995BR,Houten,Houten,Utrecht,VBO,5.170981,52.035416
Kooikerseind,66,,,3995BR,Houten,Houten,Utrecht,VBO,5.170917,52.035425
Kooikerseind,68,,,3995BR,Houten,Houten,Utrecht,VBO,5.170839,52.035408
Kooikerseind,70,,,3995BR,Houten,Houten,Utrecht,VBO,5.170768,52.035386
Kooikerseind,72,,,3995BR,Houten,Houten,Utrecht,VBO,5.170955,52.035450
Kooikerseind,74,,,3995BR,Houten,Houten,Utrecht,VBO,5.170884,52.035450
Kooikerseind,76,,,3995BR,Houten,Houten,Utrecht,VBO,5.170815,52.035441
Kooikerseind,78,,,3995BR,Houten,Houten,Utrecht,VBO,5.170750,52.035418
Kooikerseind,80,,,3995BR,Houten,Houten,Utrecht,VBO,5.170920,52.035483
Kooikerseind,82,,,3995BR,Houten,Houten,Utrecht,VBO,5.170850,52.035472
Kooikerseind,84,,,3995BR,Houten,Houten,Utrecht,VBO,5.170788,52.035460
Kooikerseind,86,,,3995BR,Houten,Houten,Utrecht,VBO,5.170740,52.035443
Schonenburgseind,1,,,3995DA,Houten,Houten,Utrecht,VBO,5.170208,52.037015
Schonenburgseind,3,,,3995DA,Houten,Houten,Utrecht,VBO,5.170198,52.036947
Schonenburgseind,5,,,3995DA,Houten,Houten,Utrecht,VBO,5.170175,52.036859
Schonenburgseind,7,,,3995DA,Houten,Houten,Utrecht,VBO,5.170146,52.036760
Schonenburgseind,9,,,3995DA,Houten,Houten,Utrecht,VBO,5.170076,52.036746
Schonenburgseind,11,,,3995DA,Houten,Houten,Utrecht,VBO,5.170070,52.036784
Schonenburgseind,13,,,3995DA,Houten,Houten,Utrecht,VBO,5.170085,52.036837
Schonenburgseind,15,,,3995DA,Houten,Houten,Utrecht,VBO,5.170092,52.036875
Schonenburgseind,17,,,3995DA,Houten,Houten,Utrecht,VBO,5.170116,52.036933
Schonenburgseind,19,,,3995DA,Houten,Houten,Utrecht,VBO,5.170118,52.036964
Schonenburgseind,21,,,3995DA,Houten,Houten,Utrecht,VBO,5.170132,52.037000
Schonenburgseind,23,,,3995DA,Houten,Houten,Utrecht,VBO,5.170140,52.037027
Schonenburgseind,49,,,3995DB,Houten,Houten,Utrecht,VBO,5.169776,52.035827
Schonenburgseind,51,,,3995DB,Houten,Houten,Utrecht,VBO,5.169751,52.035798
Schonenburgseind,53,,,3995DB,Houten,Houten,Utrecht,VBO,5.169952,52.036118
Schonenburgseind,55,,,3995DB,Houten,Houten,Utrecht,VBO,5.169942,52.036053
Schonenburgseind,57,,,3995DB,Houten,Houten,Utrecht,VBO,5.169928,52.035996
Schonenburgseind,59,,,3995DB,Houten,Houten,Utrecht,VBO,5.169901,52.035952
Schonenburgseind,61,,,3995DB,Houten,Houten,Utrecht,VBO,5.169878,52.035913
Schonenburgseind,63,,,3995DB,Houten,Houten,Utrecht,VBO,5.169859,52.035874
Schonenburgseind,65,,,3995DB,Houten,Houten,Utrecht,VBO,5.169844,52.035839
Schonenburgseind,67,,,3995DB,Houten,Houten,Utrecht,VBO,5.169816,52.035799
Schonenburgseind,69,,,3995DB,Houten,Houten,Utrecht,VBO,5.170004,52.036099
Schonenburgseind,71,,,3995DB,Houten,Houten,Utrecht,VBO,5.169982,52.036025
Schonenburgseind,73,,,3995DB,Houten,Houten,Utrecht,VBO,5.169969,52.035969
Schonenburgseind,75,,,3995DB,Houten,Houten,Utrecht,VBO,5.169949,52.035921
Schonenburgseind,77,,,3995DB,Houten,Houten,Utrecht,VBO,5.169923,52.035880
Schonenburgseind,79,,,3995DB,Houten,Houten,Utrecht,VBO,5.169908,52.035846
Schonenburgseind,81,,,3995DB,Houten,Houten,Utrecht,VBO,5.169881,52.035809
Schonenburgseind,83,,,3995DB,Houten,Houten,Utrecht,VBO,5.169872,52.035780
Schonenburgseind,85,,,3995DB,Houten,Houten,Utrecht,VBO,5.170072,52.036123
Schonenburgseind,87,,,3995DB,Houten,Houten,Utrecht,VBO,5.170048,52.036052
Schonenburgseind,89,,,3995DB,Houten,Houten,Utrecht,VBO,5.170029,52.035991
Schonenburgseind,91,,,3995DB,Houten,Houten,Utrecht,VBO,5.170009,52.035935
Schonenburgseind,93,,,3995DB,Houten,Houten,Utrecht,VBO,5.169988,52.035891
Schonenburgseind,95,,,3995DB,Houten,Houten,Utrecht,VBO,5.169967,52.035856
Schonenburgseind,97,,,3995DB,Houten,Houten,Utrecht,VBO,5.169940,52.035819
Schonenburgseind,99,,,3995DB,Houten,Houten,Utrecht,VBO,5.169931,52.035778
Schonenburgseind,101,,,3995DB,Houten,Houten,Utrecht,VBO,5.169749,52.035697
Schonenburgseind,103,,,3995DB,Houten,Houten,Utrecht,VBO,5.169762,52.035735
Schonenburgseind,105,,,3995DB,Houten,Houten,Utrecht,VBO,5.169879,52.035726
Schonenburgseind,107,,,3995DB,Houten,Houten,Utrecht,VBO,5.169867,52.035696
Schonenburgseind,109,,,3995DB,Houten,Houten,Utrecht,VBO,5.169849,52.035662
Schonenburgseind,111,,,3995DB,Houten,Houten,Utrecht,VBO,5.169836,52.035622
Schonenburgseind,2,,,3995DC,Houten,Houten,Utrecht,VBO,5.170894,52.037135
Schonenburgseind,4,,,3995DC,Houten,Houten,Utrecht,VBO,5.170922,52.037082
Schonenburgseind,6,,,3995DC,Houten,Houten,Utrecht,VBO,5.170883,52.037041
Schonenburgseind,8,,,3995DC,Houten,Houten,Utrecht,VBO,5.170901,52.036984
Schonenburgseind,10,,,3995DC,Houten,Houten,Utrecht,VBO,5.170844,52.036942
Schonenburgseind,12,,,3995DC,Houten,Houten,Utrecht,VBO,5.170868,52.036890
Schonenburgseind,14,,,3995DC,Houten,Houten,Utrecht,VBO,5.170802,52.036841
Schonenburgseind,16,,,3995DC,Houten,Houten,Utrecht,VBO,5.170831,52.036802
Schonenburgseind,18,,,3995DC,Houten,Houten,Utrecht,VBO,5.170781,52.036751
Schonenburgseind,38,,,3995DC,Houten,Houten,Utrecht,VBO,5.170457,52.036154
Schonenburgseind,40,,,3995DC,Houten,Houten,Utrecht,VBO,5.170314,52.035794
Schonenburgseind,46,,1,3995DC,Houten,Houten,Utrecht,VBO,5.170653,52.036137
Schonenburgseind,46,,2,3995DC,Houten,Houten,Utrecht,VBO,5.170564,52.036033
Schonenburgseind,46,,3,3995DC,Houten,Houten,Utrecht,VBO,5.170536,52.036017
Schonenburgseind,46,,4,3995DC,Houten,Houten,Utrecht,VBO,5.170523,52.035998
Schonenburgseind,46,,5,3995DC,Houten,Houten,Utrecht,VBO,5.170515,52.035980
Schonenburgseind,46,,6,3995DC,Houten,Houten,Utrecht,VBO,5.170511,52.035962
Schonenburgseind,46,,7,3995DC,Houten,Houten,Utrecht,VBO,5.170503,52.035937
Schonenburgseind,48,,1,3995DC,Houten,Houten,Utrecht,VBO,5.170636,52.036119
Schonenburgseind,48,,2,3995DC,Houten,Houten,Utrecht,VBO,5.170618,52.036101
Schonenburgseind,48,,3,3995DC,Houten,Houten,Utrecht,VBO,5.170608,52.036078
Schonenburgseind,48,,4,3995DC,Houten,Houten,Utrecht,VBO,5.170596,52.036061
Schonenburgseind,48,,5,3995DC,Houten,Houten,Utrecht,VBO,5.170583,52.036046
Schonenburgseind,50,,1,3995DC,Houten,Houten,Utrecht,VBO,5.170552,52.036152
Schonenburgseind,50,,2,3995DC,Houten,Houten,Utrecht,VBO,5.170478,52.036034
Schonenburgseind,50,,3,3995DC,Houten,Houten,Utrecht,VBO,5.170460,52.036014
Schonenburgseind,50,,4,3995DC,Houten,Houten,Utrecht,VBO,5.170445,52.035992
Schonenburgseind,50,,5,3995DC,Houten,Houten,Utrecht,VBO,5.170439,52.035973
Schonenburgseind,50,,6,3995DC,Houten,Houten,Utrecht,VBO,5.170429,52.035955
Schonenburgseind,50,,7,3995DC,Houten,Houten,Utrecht,VBO,5.170422,52.035936
Schonenburgseind,52,,1,3995DC,Houten,Houten,Utrecht,VBO,5.170543,52.036131
Schonenburgseind,52,,2,3995DC,Houten,Houten,Utrecht,VBO,5.170527,52.036113
Schonenburgseind,52,,3,3995DC,Houten,Houten,Utrecht,VBO,5.170517,52.036091
Schonenburgseind,52,,4,3995DC,Houten,Houten,Utrecht,VBO,5.170509,52.036071
Schonenburgseind,52,,5,3995DC,Houten,Houten,Utrecht,VBO,5.170498,52.036051
Schonenburgseind,54,,1,3995DC,Houten,Houten,Utrecht,VBO,5.170428,52.036119
Schonenburgseind,54,,2,3995DC,Houten,Houten,Utrecht,VBO,5.170400,52.036044
Schonenburgseind,54,,3,3995DC,Houten,Houten,Utrecht,VBO,5.170392,52.036025
Schonenburgseind,54,,4,3995DC,Houten,Houten,Utrecht,VBO,5.170382,52.036005
Schonenburgseind,54,,5,3995DC,Houten,Houten,Utrecht,VBO,5.170378,52.035991
Schonenburgseind,56,,1,3995DC,Houten,Houten,Utrecht,VBO,5.170419,52.035909
Schonenburgseind,56,,2,3995DC,Houten,Houten,Utrecht,VBO,5.170422,52.036101
Schonenburgseind,56,,3,3995DC,Houten,Houten,Utrecht,VBO,5.170413,52.036082
Schonenburgseind,56,,4,3995DC,Houten,Houten,Utrecht,VBO,5.170406,52.036063
Schonenburgseind,80,,,3995DD,Houten,Houten,Utrecht,VBO,5.170268,52.035666
Schonenburgseind,82,,,3995DD,Houten,Houten,Utrecht,VBO,5.170258,52.035707
Schonenburgseind,84,,,3995DD,Houten,Houten,Utrecht,VBO,5.170307,52.035727
Schonenburgseind,86,,,3995DD,Houten,Houten,Utrecht,VBO,5.170345,52.035697
Schonenburgseind,88,,,3995DD,Houten,Houten,Utrecht,VBO,5.170399,52.035713
Schonenburgseind,90,,,3995DD,Houten,Houten,Utrecht,VBO,5.170444,52.035692
Schonenburgseind,92,,,3995DD,Houten,Houten,Utrecht,VBO,5.170365,52.035658
De Slinger,1,,0002,3995DE,Houten,Houten,Utrecht,VBO,5.165006,52.033429
De Slinger,1,,,3995DE,Houten,Houten,Utrecht,VBO,5.165801,52.033684
De Slinger,2,,,3995DE,Houten,Houten,Utrecht,VBO,5.167245,52.033533
De Slinger,3,,0001,3995DE,Houten,Houten,Utrecht,VBO,5.167150,52.032837
De Slinger,3,,,3995DE,Houten,Houten,Utrecht,VBO,5.166418,52.033228
De Slinger,40,,,3995DE,Houten,Houten,Utrecht,VBO,5.168137,52.033090
De Slinger,44,,,3995DE,Houten,Houten,Utrecht,VBO,5.168427,52.032572
De Slinger,48,,,3995DE,Houten,Houten,Utrecht,VBO,5.167444,52.032494
De Beun,1,,,3995DG,Houten,Houten,Utrecht,VBO,5.171806,52.036187
De Beun,3,,,3995DG,Houten,Houten,Utrecht,VBO,5.171824,52.036245
De Beun,5,,,3995DG,Houten,Houten,Utrecht,VBO,5.171852,52.036289
De Beun,7,,,3995DG,Houten,Houten,Utrecht,VBO,5.171890,52.036334
De Beun,9,,,3995DG,Houten,Houten,Utrecht,VBO,5.171904,52.036479
De Beun,11,,,3995DG,Houten,Houten,Utrecht,VBO,5.171933,52.036534
De Beun,13,,,3995DG,Houten,Houten,Utrecht,VBO,5.171947,52.036580
De Beun,15,,,3995DG,Houten,Houten,Utrecht,VBO,5.171978,52.036625
De Beun,17,,,3995DG,Houten,Houten,Utrecht,VBO,5.171997,52.036676
De Beun,19,,,3995DG,Houten,Houten,Utrecht,VBO,5.172024,52.036722
De Beun,21,,,3995DG,Houten,Houten,Utrecht,VBO,5.172034,52.036770
De Beun,23,,,3995DG,Houten,Houten,Utrecht,VBO,5.172062,52.036811
De Beun,2,,,3995DH,Houten,Houten,Utrecht,VBO,5.171105,52.036678
De Beun,4,,,3995DH,Houten,Houten,Utrecht,VBO,5.171191,52.036669
De Beun,6,,,3995DH,Houten,Houten,Utrecht,VBO,5.171270,52.036655
De Beun,8,,,3995DH,Houten,Houten,Utrecht,VBO,5.171356,52.036633
De Beun,10,,,3995DH,Houten,Houten,Utrecht,VBO,5.171632,52.036528
De Beun,12,,,3995DH,Houten,Houten,Utrecht,VBO,5.171662,52.036589
De Beun,14,,,3995DH,Houten,Houten,Utrecht,VBO,5.171690,52.036635
De Beun,16,,,3995DH,Houten,Houten,Utrecht,VBO,5.171711,52.036675
De Beun,18,,,3995DH,Houten,Houten,Utrecht,VBO,5.171736,52.036718
De Beun,20,,,3995DH,Houten,Houten,Utrecht,VBO,5.171764,52.036770
De Beun,22,,,3995DH,Houten,Houten,Utrecht,VBO,5.171760,52.036817
Het Rond,1,,,3995DJ,Houten,Houten,Utrecht,VBO,5.168656,52.034783
Het Rond,2,,,3995DJ,Houten,Houten,Utrecht,VBO,5.168705,52.034787
Het Rond,3,,,3995DJ,Houten,Houten,Utrecht,VBO,5.168771,52.034794
Het Rond,4,,,3995DJ,Houten,Houten,Utrecht,VBO,5.168825,52.034805
Het Rond,5,,,3995DJ,Houten,Houten,Utrecht,VBO,5.168897,52.034815
Het Rond,6,,,3995DJ,Houten,Houten,Utrecht,VBO,5.168975,52.034825
Het Rond,7,,,3995DJ,Houten,Houten,Utrecht,VBO,5.169058,52.034844
Het Rond,8,,,3995DJ,Houten,Houten,Utrecht,VBO,5.169105,52.034853
Het Rond,9,,,3995DJ,Houten,Houten,Utrecht,VBO,5.169180,52.034853
Het Rond,10,,,3995DJ,Houten,Houten,Utrecht,VBO,5.169157,52.034897
Het Rond,11,,,3995DJ,Houten,Houten,Utrecht,VBO,5.169135,52.034940
Het Rond,12,,,3995DJ,Houten,Houten,Utrecht,VBO,5.169113,52.034988
Het Rond,13,,,3995DJ,Houten,Houten,Utrecht,VBO,5.169099,52.035032
Het Rond,14,,,3995DJ,Houten,Houten,Utrecht,VBO,5.169085,52.035084
Het Rond,15,,,3995DJ,Houten,Houten,Utrecht,VBO,5.169068,52.035121
Het Rond,16,,,3995DJ,Houten,Houten,Utrecht,VBO,5.169001,52.035151
Het Rond,17,,,3995DJ,Houten,Houten,Utrecht,VBO,5.169002,52.035095
Het Rond,18,,,3995DJ,Houten,Houten,Utrecht,VBO,5.169034,52.035055
Het Rond,19,,,3995DJ,Houten,Houten,Utrecht,VBO,5.169039,52.035005
Het Rond,20,,,3995DJ,Houten,Houten,Utrecht,VBO,5.169065,52.034954
Het Rond,21,,,3995DJ,Houten,Houten,Utrecht,VBO,5.169049,52.034899
Het Rond,22,,,3995DJ,Houten,Houten,Utrecht,VBO,5.168993,52.034870
Het Rond,23,,,3995DJ,Houten,Houten,Utrecht,VBO,5.168909,52.034855
Het Rond,24,,,3995DJ,Houten,Houten,Utrecht,VBO,5.168828,52.034842
Het Rond,25,,,3995DJ,Houten,Houten,Utrecht,VBO,5.168743,52.034831
Het Rond,26,,,3995DJ,Houten,Houten,Utrecht,VBO,5.168654,52.034819
Het Rond,27,,,3995DJ,Houten,Houten,Utrecht,VBO,5.168670,52.034861
Het Rond,28,,,3995DJ,Houten,Houten,Utrecht,VBO,5.168791,52.034892
Het Rond,29,,,3995DJ,Houten,Houten,Utrecht,VBO,5.168872,52.034901
Het Rond,30,,,3995DJ,Houten,Houten,Utrecht,VBO,5.168950,52.034920
Het Rond,31,,,3995DJ,Houten,Houten,Utrecht,VBO,5.168956,52.034963
Het Rond,32,,,3995DJ,Houten,Houten,Utrecht,VBO,5.168969,52.035025
Het Rond,33,b,,3995DK,Houten,Houten,Utrecht,VBO,5.168730,52.035281
Het Rond,33,b,,3995DK,Houten,Houten,Utrecht,VBO,5.168813,52.035334
Het Rond,33,,,3995DK,Houten,Houten,Utrecht,VBO,5.168877,52.035016
Het Rond,34,,,3995DK,Houten,Houten,Utrecht,VBO,5.168978,52.035326
Het Rond,36,,,3995DK,Houten,Houten,Utrecht,VBO,5.169115,52.035470
Het Rond,37,,,3995DK,Houten,Houten,Utrecht,VBO,5.169183,52.035527
Het Rond,38,,,3995DK,Houten,Houten,Utrecht,VBO,5.169359,52.035640
Het Rond,39,,,3995DK,Houten,Houten,Utrecht,VBO,5.169432,52.035587
Het Rond,40,,,3995DK,Houten,Houten,Utrecht,VBO,5.169528,52.035617
Het Rond,41,,,3995DK,Houten,Houten,Utrecht,VBO,5.169618,52.035630
Het Rond,42,,,3995DK,Houten,Houten,Utrecht,VBO,5.169719,52.035636
Het Rond,44,,,3995DK,Houten,Houten,Utrecht,VBO,5.170196,52.035538
Het Rond,45,,,3995DK,Houten,Houten,Utrecht,VBO,5.170260,52.035546
Het Rond,46,,,3995DK,Houten,Houten,Utrecht,VBO,5.170327,52.035540
Het Rond,47,,,3995DK,Houten,Houten,Utrecht,VBO,5.170374,52.035539
Het Rond,48,,,3995DK,Houten,Houten,Utrecht,VBO,5.170226,52.035509
Het Rond,49,,,3995DK,Houten,Houten,Utrecht,VBO,5.170368,52.035507
Het Rond,50,,,3995DL,Houten,Houten,Utrecht,VBO,5.170385,52.035514
Het Rond,52,,,3995DL,Houten,Houten,Utrecht,VBO,5.170299,52.035455
Het Rond,53,,,3995DL,Houten,Houten,Utrecht,VBO,5.170357,52.035473
Het Rond,54,,,3995DL,Houten,Houten,Utrecht,VBO,5.170405,52.035482
Het Rond,55,,,3995DL,Houten,Houten,Utrecht,VBO,5.170334,52.035421
Het Rond,56,,,3995DL,Houten,Houten,Utrecht,VBO,5.170402,52.035434
Het Rond,57,,,3995DL,Houten,Houten,Utrecht,VBO,5.170478,52.035442
Het Rond,58,,,3995DL,Houten,Houten,Utrecht,VBO,5.170465,52.035467
Het Rond,59,,,3995DL,Houten,Houten,Utrecht,VBO,5.170367,52.035387
Het Rond,60,,,3995DL,Houten,Houten,Utrecht,VBO,5.170436,52.035401
Het Rond,61,,,3995DL,Houten,Houten,Utrecht,VBO,5.170521,52.035420
Het Rond,62,,,3995DL,Houten,Houten,Utrecht,VBO,5.170404,52.035349
Het Rond,63,,,3995DL,Houten,Houten,Utrecht,VBO,5.170471,52.035364
Het Rond,64,,,3995DL,Houten,Houten,Utrecht,VBO,5.170543,52.035384
Het Rond,65,,,3995DL,Houten,Houten,Utrecht,VBO,5.170444,52.035317
Het Rond,66,,,3995DL,Houten,Houten,Utrecht,VBO,5.170521,52.035331
Het Rond,67,,,3995DL,Houten,Houten,Utrecht,VBO,5.170572,52.035353
Het Rond,68,,,3995DL,Houten,Houten,Utrecht,VBO,5.170479,52.035265
Het Rond,69,,,3995DL,Houten,Houten,Utrecht,VBO,5.170558,52.035278
Het Rond,70,,,3995DL,Houten,Houten,Utrecht,VBO,5.170635,52.035348
Het Rond,71,,,3995DL,Houten,Houten,Utrecht,VBO,5.170512,52.035295
Het Rond,72,,,3995DM,Houten,Houten,Utrecht,VBO,5.170620,52.035084
Het Rond,74,,,3995DM,Houten,Houten,Utrecht,VBO,5.170586,52.035037
Het Rond,75,,,3995DM,Houten,Houten,Utrecht,VBO,5.170671,52.035040
Het Rond,76,,,3995DM,Houten,Houten,Utrecht,VBO,5.170704,52.035110
Het Rond,77,,,3995DM,Houten,Houten,Utrecht,VBO,5.170779,52.035118
Het Rond,78,,,3995DM,Houten,Houten,Utrecht,VBO,5.170743,52.035028
Het Rond,79,,,3995DM,Houten,Houten,Utrecht,VBO,5.170817,52.035029
Het Rond,80,,,3995DM,Houten,Houten,Utrecht,VBO,5.170602,52.035011
Het Rond,81,,,3995DM,Houten,Houten,Utrecht,VBO,5.170649,52.034997
Het Rond,82,,,3995DM,Houten,Houten,Utrecht,VBO,5.170727,52.034998
Het Rond,83,,,3995DM,Houten,Houten,Utrecht,VBO,5.170607,52.034967
Het Rond,84,,,3995DM,Houten,Houten,Utrecht,VBO,5.170674,52.034962
Het Rond,85,,,3995DM,Houten,Houten,Utrecht,VBO,5.170737,52.034963
Het Rond,86,,,3995DM,Houten,Houten,Utrecht,VBO,5.170597,52.034929
Het Rond,88,,,3995DM,Houten,Houten,Utrecht,VBO,5.170735,52.034923
Het Rond,89,,,3995DM,Houten,Houten,Utrecht,VBO,5.170584,52.034883
Het Rond,90,,,3995DM,Houten,Houten,Utrecht,VBO,5.170654,52.034872
Het Rond,91,,,3995DM,Houten,Houten,Utrecht,VBO,5.170724,52.034880
Het Rond,92,,,3995DM,Houten,Houten,Utrecht,VBO,5.170583,52.034838
Het Rond,93,,,3995DM,Houten,Houten,Utrecht,VBO,5.170697,52.034835
Het Rond,94,,,3995DN,Houten,Houten,Utrecht,VBO,5.170556,52.034800
Het Rond,95,,,3995DN,Houten,Houten,Utrecht,VBO,5.170625,52.034792
Het Rond,96,,,3995DN,Houten,Houten,Utrecht,VBO,5.170695,52.034793
Het Rond,97,,,3995DN,Houten,Houten,Utrecht,VBO,5.170642,52.034714
Het Rond,98,,,3995DN,Houten,Houten,Utrecht,VBO,5.170733,52.034704
Het Rond,99,,,3995DN,Houten,Houten,Utrecht,VBO,5.170710,52.034758
Het Rond,100,,,3995DN,Houten,Houten,Utrecht,VBO,5.170547,52.034728
Het Rond,101,,,3995DN,Houten,Houten,Utrecht,VBO,5.170359,52.034610
Het Rond,102,,,3995DN,Houten,Houten,Utrecht,VBO,5.170341,52.034639
Het Rond,103,,,3995DN,Houten,Houten,Utrecht,VBO,5.170432,52.034642
Het Rond,104,,,3995DN,Houten,Houten,Utrecht,VBO,5.170281,52.034603
Het Rond,105,,,3995DN,Houten,Houten,Utrecht,VBO,5.170422,52.034577
Het Rond,106,,,3995DN,Houten,Houten,Utrecht,VBO,5.170329,52.034571
Het Rond,107,,,3995DN,Houten,Houten,Utrecht,VBO,5.170422,52.034543
Het Rond,108,,,3995DN,Houten,Houten,Utrecht,VBO,5.170355,52.034533
Het Rond,109,,,3995DN,Houten,Houten,Utrecht,VBO,5.170147,52.034555
Het Rond,110,,,3995DN,Houten,Houten,Utrecht,VBO,5.170218,52.034574
Het Rond,111,,,3995DN,Houten,Houten,Utrecht,VBO,5.170244,52.034540
Het Rond,112,,,3995DN,Houten,Houten,Utrecht,VBO,5.170275,52.034504
Het Rond,113,,,3995DN,Houten,Houten,Utrecht,VBO,5.170168,52.034527
Het Rond,114,,,3995DN,Houten,Houten,Utrecht,VBO,5.170204,52.034492
Het Rond,115,,,3995DN,Houten,Houten,Utrecht,VBO,5.170159,52.034474
Het Rond,116,,,3995DN,Houten,Houten,Utrecht,VBO,5.170078,52.034534
Het Rond,117,,,3995DP,Houten,Houten,Utrecht,VBO,5.170100,52.034506
Het Rond,118,,,3995DP,Houten,Houten,Utrecht,VBO,5.170120,52.034438
Het Rond,119,,,3995DP,Houten,Houten,Utrecht,VBO,5.170003,52.034506
Het Rond,120,,,3995DP,Houten,Houten,Utrecht,VBO,5.170028,52.034431
Het Rond,121,,,3995DP,Houten,Houten,Utrecht,VBO,5.170108,52.034403
Het Rond,122,,,3995DP,Houten,Houten,Utrecht,VBO,5.169946,52.034491
Het Rond,123,,,3995DP,Houten,Houten,Utrecht,VBO,5.169897,52.034465
Het Rond,124,,,3995DP,Houten,Houten,Utrecht,VBO,5.169934,52.034429
Het Rond,125,,,3995DP,Houten,Houten,Utrecht,VBO,5.170043,52.034398
Het Rond,126,,,3995DP,Houten,Houten,Utrecht,VBO,5.169952,52.034394
Het Rond,127,,,3995DP,Houten,Houten,Utrecht,VBO,5.170071,52.034361
Het Rond,128,,,3995DP,Houten,Houten,Utrecht,VBO,5.169983,52.034360
Het Rond,129,,,3995DP,Houten,Houten,Utrecht,VBO,5.170438,52.034608
Het Rond,130,,,3995DP,Houten,Houten,Utrecht,VBO,5.170093,52.034471
Het Rond,131,,,3995DP,Houten,Houten,Utrecht,VBO,5.169638,52.034417
Het Rond,132,,,3995DP,Houten,Houten,Utrecht,VBO,5.169637,52.034042
Het Rond,133,,,3995DP,Houten,Houten,Utrecht,VBO,5.169650,52.033977
Het Rond,134,,,3995DP,Houten,Houten,Utrecht,VBO,5.169659,52.033911
Het Rond,135,,,3995DP,Houten,Houten,Utrecht,VBO,5.169671,52.033845
Het Rond,136,,,3995DP,Houten,Houten,Utrecht,VBO,5.169674,52.033794
Het Rond,137,,,3995DP,Houten,Houten,Utrecht,VBO,5.169774,52.033755
Het Rond,138,,,3995DP,Houten,Houten,Utrecht,VBO,5.169911,52.033748
Het Rond,139,,,3995DP,Houten,Houten,Utrecht,VBO,5.170076,52.033667
Het Rond,140,,,3995DP,Houten,Houten,Utrecht,VBO,5.169955,52.033613
Het Rond,141,,,3995DP,Houten,Houten,Utrecht,VBO,5.169689,52.033549
Het Rond,143,,,3995DP,Houten,Houten,Utrecht,VBO,5.169439,52.033631
Het Rond,144,,,3995DP,Houten,Houten,Utrecht,VBO,5.169424,52.033724
Het Rond,145,,,3995DP,Houten,Houten,Utrecht,VBO,5.169403,52.033816
Het Rond,146,,,3995DP,Houten,Houten,Utrecht,VBO,5.169393,52.033892
Het Rond,147,,,3995DP,Houten,Houten,Utrecht,VBO,5.169383,52.033964
Het Rond,148,,,3995DP,Houten,Houten,Utrecht,VBO,5.169238,52.034027
Het Rond,150,,,3995DP,Houten,Houten,Utrecht,VBO,5.169348,52.034168
Het Rond,151,,,3995DP,Houten,Houten,Utrecht,VBO,5.169179,52.034143
Het Rond,152,,,3995DP,Houten,Houten,Utrecht,VBO,5.169013,52.034103
Het Rond,154,,,3995DP,Houten,Houten,Utrecht,VBO,5.169023,52.034289
Het Rond,155,,,3995DP,Houten,Houten,Utrecht,VBO,5.169245,52.034345
Het Rond,156,,,3995DP,Houten,Houten,Utrecht,VBO,5.169360,52.034393
Het Rond,160,,,3995DP,Houten,Houten,Utrecht,VBO,5.170110,52.034915
Het Wed,1,,,3995DR,Houten,Houten,Utrecht,VBO,5.169247,52.035766
Het Wed,3,,,3995DR,Houten,Houten,Utrecht,VBO,5.169274,52.035737
Het Wed,5,,,3995DR,Houten,Houten,Utrecht,VBO,5.169213,52.035756
Het Wed,7,,,3995DR,Houten,Houten,Utrecht,VBO,5.169234,52.035719
Het Wed,9,,,3995DR,Houten,Houten,Utrecht,VBO,5.169257,52.035688
Het Wed,11,,,3995DR,Houten,Houten,Utrecht,VBO,5.169348,52.035720
Het Wed,13,,,3995DR,Houten,Houten,Utrecht,VBO,5.169429,52.035738
Het Wed,15,,,3995DR,Houten,Houten,Utrecht,VBO,5.169408,52.035780
Het Wed,17,,,3995DR,Houten,Houten,Utrecht,VBO,5.169490,52.035795
Het Wed,19,,,3995DR,Houten,Houten,Utrecht,VBO,5.169517,52.035758
Het Wed,21,,,3995DR,Houten,Houten,Utrecht,VBO,5.169446,52.035884
Het Wed,23,,,3995DR,Houten,Houten,Utrecht,VBO,5.169432,52.035915
Het Wed,25,,,3995DR,Houten,Houten,Utrecht,VBO,5.169420,52.035945
Het Wed,27,,,3995DR,Houten,Houten,Utrecht,VBO,5.169412,52.035975
Het Wed,29,,,3995DR,Houten,Houten,Utrecht,VBO,5.169397,52.036004
Het Wed,31,,,3995DS,Houten,Houten,Utrecht,VBO,5.169473,52.036020
Het Wed,33,,,3995DS,Houten,Houten,Utrecht,VBO,5.169487,52.035989
Het Wed,35,,,3995DS,Houten,Houten,Utrecht,VBO,5.169485,52.035960
Het Wed,37,,,3995DS,Houten,Houten,Utrecht,VBO,5.169504,52.035930
Het Wed,39,,,3995DS,Houten,Houten,Utrecht,VBO,5.169509,52.035898
Het Wed,41,,,3995DS,Houten,Houten,Utrecht,VBO,5.169534,52.036034
Het Wed,43,,,3995DS,Houten,Houten,Utrecht,VBO,5.169547,52.036003
Het Wed,45,,,3995DS,Houten,Houten,Utrecht,VBO,5.169566,52.035973
Het Wed,47,,,3995DS,Houten,Houten,Utrecht,VBO,5.169577,52.035942
Het Wed,49,,,3995DS,Houten,Houten,Utrecht,VBO,5.169583,52.035913
Het Wed,51,,,3995DS,Houten,Houten,Utrecht,VBO,5.169595,52.036051
Het Wed,53,,,3995DS,Houten,Houten,Utrecht,VBO,5.169619,52.036017
Het Wed,55,,,3995DS,Houten,Houten,Utrecht,VBO,5.169630,52.035986
Het Wed,57,,,3995DS,Houten,Houten,Utrecht,VBO,5.169644,52.035956
Het Wed,59,,,3995DS,Houten,Houten,Utrecht,VBO,5.169651,52.035929
Het Wed,61,,,3995DS,Houten,Houten,Utrecht,VBO,5.169279,52.035825
Het Wed,65,,,3995DT,Houten,Houten,Utrecht,VBO,5.169214,52.035795
Het Wed,67,,,3995DT,Houten,Houten,Utrecht,VBO,5.169192,52.035830
Het Wed,69,,,3995DT,Houten,Houten,Utrecht,VBO,5.169161,52.035874
Het Wed,75,,,3995DT,Houten,Houten,Utrecht,VBO,5.169160,52.036121
Het Wed,79,,,3995DT,Houten,Houten,Utrecht,VBO,5.169081,52.036274
Het Wed,81,,,3995DT,Houten,Houten,Utrecht,VBO,5.169137,52.036327
Het Wed,83,,,3995DT,Houten,Houten,Utrecht,VBO,5.169128,52.036381
Het Wed,85,,,3995DT,Houten,Houten,Utrecht,VBO,5.169184,52.036431
Het Wed,87,,,3995DT,Houten,Houten,Utrecht,VBO,5.169175,52.036489
Het Wed,2,,,3995DV,Houten,Houten,Utrecht,VBO,5.168979,52.035556
Het Wed,6,,,3995DV,Houten,Houten,Utrecht,VBO,5.168866,52.035727
Het Wed,10,,,3995DV,Houten,Houten,Utrecht,VBO,5.168848,52.035824
Het Wed,12,,,3995DV,Houten,Houten,Utrecht,VBO,5.168793,52.035857
Het Wed,20,,,3995DV,Houten,Houten,Utrecht,VBO,5.168749,52.036172
Het Wed,24,,,3995DV,Houten,Houten,Utrecht,VBO,5.168705,52.036220
Het Wed,28,,,3995DV,Houten,Houten,Utrecht,VBO,5.168581,52.036383
Het Wed,30,,,3995DV,Houten,Houten,Utrecht,VBO,5.168950,52.035755
Het Wed,32,,,3995DV,Houten,Houten,Utrecht,VBO,5.169068,52.035687
Het Wed,34,,,3995DV,Houten,Houten,Utrecht,VBO,5.169046,52.035717
Het Wed,36,,,3995DV,Houten,Houten,Utrecht,VBO,5.169013,52.035779
Het Wed,38,,,3995DV,Houten,Houten,Utrecht,VBO,5.168987,52.035814
Het Wed,40,,,3995DV,Houten,Houten,Utrecht,VBO,5.168945,52.035858
Het Wed,42,,,3995DV,Houten,Houten,Utrecht,VBO,5.169016,52.035745
Het Wed,44,,,3995DV,Houten,Houten,Utrecht,VBO,5.168234,52.036433
Het Wed,46,,,3995DV,Houten,Houten,Utrecht,VBO,5.168294,52.036399
Het Wed,48,,,3995DV,Houten,Houten,Utrecht,VBO,5.168349,52.036437
Het Wed,50,,,3995DV,Houten,Houten,Utrecht,VBO,5.168423,52.036404
Het Wed,52,,,3995DV,Houten,Houten,Utrecht,VBO,5.168489,52.036432
Het Wed,54,,,3995DV,Houten,Houten,Utrecht,VBO,5.168231,52.036366
Het Wed,56,,,3995DV,Houten,Houten,Utrecht,VBO,5.168316,52.036362
Het Wed,58,,,3995DV,Houten,Houten,Utrecht,VBO,5.168395,52.036364
Het Wed,60,,,3995DV,Houten,Houten,Utrecht,VBO,5.168498,52.036371
Het Wed,62,,,3995DV,Houten,Houten,Utrecht,VBO,5.168344,52.036316
Het Wed,64,,,3995DV,Houten,Houten,Utrecht,VBO,5.168420,52.036324
Het Wed,66,,,3995DV,Houten,Houten,Utrecht,VBO,5.168447,52.036294
Het Wed,68,,,3995DV,Houten,Houten,Utrecht,VBO,5.168940,52.035724
Het Wed,70,,,3995DV,Houten,Houten,Utrecht,VBO,5.168942,52.035890
Het Wed,72,,,3995DV,Houten,Houten,Utrecht,VBO,5.168932,52.035926
Het Wed,74,,,3995DV,Houten,Houten,Utrecht,VBO,5.168844,52.035932
Het Wed,76,,,3995DV,Houten,Houten,Utrecht,VBO,5.168856,52.035889
Het Wed,78,,,3995DV,Houten,Houten,Utrecht,VBO,5.168915,52.035834
Het Wed,80,,,3995DV,Houten,Houten,Utrecht,VBO,5.168918,52.035793
Het Wed,82,,,3995DV,Houten,Houten,Utrecht,VBO,5.168978,52.035693
Het Wed,84,,,3995DV,Houten,Houten,Utrecht,VBO,5.168211,52.036287
Het Wed,86,,,3995DV,Houten,Houten,Utrecht,VBO,5.168286,52.036272
Het Wed,88,,,3995DV,Houten,Houten,Utrecht,VBO,5.168362,52.036266
Het Wed,90,,,3995DV,Houten,Houten,Utrecht,VBO,5.168438,52.036256
Het Wed,92,,,3995DV,Houten,Houten,Utrecht,VBO,5.168221,52.036239
Het Wed,94,,,3995DV,Houten,Houten,Utrecht,VBO,5.168295,52.036225
Het Wed,96,,,3995DV,Houten,Houten,Utrecht,VBO,5.168369,52.036215
Het Wed,98,,,3995DV,Houten,Houten,Utrecht,VBO,5.168449,52.036202
Het Wed,100,,,3995DV,Houten,Houten,Utrecht,VBO,5.168250,52.036189
Het Wed,102,,,3995DV,Houten,Houten,Utrecht,VBO,5.168349,52.036166
Het Wed,104,,,3995DV,Houten,Houten,Utrecht,VBO,5.168459,52.036156
Het Wed,106,,,3995DV,Houten,Houten,Utrecht,VBO,5.168934,52.035669
Het Wed,108,,,3995DV,Houten,Houten,Utrecht,VBO,5.169035,52.035666
Het Wed,110,,,3995DV,Houten,Houten,Utrecht,VBO,5.168972,52.035636
Het Wed,112,,,3995DV,Houten,Houten,Utrecht,VBO,5.168925,52.035617
Het Wed,114,,,3995DV,Houten,Houten,Utrecht,VBO,5.168906,52.035645
Het Wed,116,,,3995DV,Houten,Houten,Utrecht,VBO,5.168883,52.035697
Het Wed,118,,,3995DV,Houten,Houten,Utrecht,VBO,5.168851,52.035757
Het Wed,120,,,3995DV,Houten,Houten,Utrecht,VBO,5.169051,52.035643
Het Wed,122,,,3995DV,Houten,Houten,Utrecht,VBO,5.168249,52.036125
Het Wed,124,,,3995DV,Houten,Houten,Utrecht,VBO,5.168367,52.036130
Het Wed,126,,,3995DV,Houten,Houten,Utrecht,VBO,5.168483,52.036133
Het Wed,128,,,3995DV,Houten,Houten,Utrecht,VBO,5.168586,52.036099
Het Wed,130,,,3995DV,Houten,Houten,Utrecht,VBO,5.168228,52.036090
Het Wed,132,,,3995DV,Houten,Houten,Utrecht,VBO,5.168331,52.036099
Het Wed,134,,,3995DV,Houten,Houten,Utrecht,VBO,5.168437,52.036049
Het Wed,136,,,3995DV,Houten,Houten,Utrecht,VBO,5.168536,52.036054
Het Wed,138,,,3995DV,Houten,Houten,Utrecht,VBO,5.168261,52.036015
Het Wed,140,,,3995DV,Houten,Houten,Utrecht,VBO,5.168341,52.036019
Het Wed,142,,,3995DV,Houten,Houten,Utrecht,VBO,5.168457,52.036017
Onderdoor,1,,,3995DW,Houten,Houten,Utrecht,VBO,5.168738,52.034871
Onderdoor,3,,,3995DW,Houten,Houten,Utrecht,VBO,5.168499,52.034857
Onderdoor,5,,,3995DW,Houten,Houten,Utrecht,VBO,5.168352,52.034833
Onderdoor,7,,,3995DW,Houten,Houten,Utrecht,VBO,5.168193,52.034802
Onderdoor,11,a,,3995DW,Houten,Houten,Utrecht,VBO,5.168110,52.034785
Onderdoor,11,,,3995DW,Houten,Houten,Utrecht,VBO,5.168110,52.034785
Onderdoor,11,,,3995DW,Houten,Houten,Utrecht,VBO,5.168150,52.034789
Onderdoor,13,,,3995DW,Houten,Houten,Utrecht,VBO,5.168001,52.034766
Onderdoor,15,,,3995DW,Houten,Houten,Utrecht,VBO,5.167896,52.034644
Onderdoor,17,,,3995DW,Houten,Houten,Utrecht,VBO,5.167723,52.034633
Onderdoor,25,,,3995DW,Houten,Houten,Utrecht,VBO,5.166942,52.034450
Onderdoor,2,,,3995DX,Houten,Houten,Utrecht,VBO,5.169324,52.034507
Onderdoor,4,a,,3995DX,Houten,Houten,Utrecht,VBO,5.169101,52.034440
Onderdoor,4,,,3995DX,Houten,Houten,Utrecht,VBO,5.169099,52.034489
Onderdoor,6,,1,3995DX,Houten,Houten,Utrecht,VBO,5.169041,52.034474
Onderdoor,6,,2,3995DX,Houten,Houten,Utrecht,VBO,5.168920,52.034438
Onderdoor,6,,3,3995DX,Houten,Houten,Utrecht,VBO,5.168810,52.034413
Onderdoor,8,,1,3995DX,Houten,Houten,Utrecht,VBO,5.169002,52.034462
Onderdoor,8,,2,3995DX,Houten,Houten,Utrecht,VBO,5.168943,52.034391
Onderdoor,8,,3,3995DX,Houten,Houten,Utrecht,VBO,5.168830,52.034367
Onderdoor,10,,1,3995DX,Houten,Houten,Utrecht,VBO,5.169002,52.034451
Onderdoor,10,,2,3995DX,Houten,Houten,Utrecht,VBO,5.168961,52.034360
Onderdoor,10,,3,3995DX,Houten,Houten,Utrecht,VBO,5.168852,52.034332
Onderdoor,10,,4,3995DX,Houten,Houten,Utrecht,VBO,5.169153,52.034493
Onderdoor,10,,5,3995DX,Houten,Houten,Utrecht,VBO,5.169270,52.034531
Onderdoor,12,,1,3995DX,Houten,Houten,Utrecht,VBO,5.169014,52.034439
Onderdoor,12,,2,3995DX,Houten,Houten,Utrecht,VBO,5.169158,52.034476
Onderdoor,12,,3,3995DX,Houten,Houten,Utrecht,VBO,5.169268,52.034508
Onderdoor,14,,1,3995DX,Houten,Houten,Utrecht,VBO,5.169022,52.034428
Onderdoor,14,,2,3995DX,Houten,Houten,Utrecht,VBO,5.169175,52.034457
Onderdoor,16,,1,3995DX,Houten,Houten,Utrecht,VBO,5.169032,52.034416
Onderdoor,16,,2,3995DX,Houten,Houten,Utrecht,VBO,5.169186,52.034443
Onderdoor,18,,1,3995DX,Houten,Houten,Utrecht,VBO,5.169037,52.034405
Onderdoor,18,,2,3995DX,Houten,Houten,Utrecht,VBO,5.169196,52.034429
Onderdoor,20,,1,3995DX,Houten,Houten,Utrecht,VBO,5.169046,52.034393
Onderdoor,20,,2,3995DX,Houten,Houten,Utrecht,VBO,5.169205,52.034413
Onderdoor,22,,1,3995DX,Houten,Houten,Utrecht,VBO,5.169055,52.034382
Onderdoor,22,,2,3995DX,Houten,Houten,Utrecht,VBO,5.169215,52.034399
Onderdoor,24,,1,3995DX,Houten,Houten,Utrecht,VBO,5.169063,52.034369
Onderdoor,24,,2,3995DX,Houten,Houten,Utrecht,VBO,5.169225,52.034381
Onderdoor,26,,1,3995DX,Houten,Houten,Utrecht,VBO,5.169072,52.034358
Onderdoor,28,,1,3995DX,Houten,Houten,Utrecht,VBO,5.169079,52.034343
Onderdoor,30,,,3995DX,Houten,Houten,Utrecht,VBO,5.168925,52.034412
Onderdoor,32,,,3995DX,Houten,Houten,Utrecht,VBO,5.168795,52.034389
Onderdoor,56,,,3995DX,Houten,Houten,Utrecht,VBO,5.168727,52.034304
Onderdoor,58,,,3995DX,Houten,Houten,Utrecht,VBO,5.168654,52.034364
Onderdoor,60,,,3995DX,Houten,Houten,Utrecht,VBO,5.168544,52.034340
Onderdoor,62,,,3995DX,Houten,Houten,Utrecht,VBO,5.168603,52.034291
Onderdoor,64,,,3995DX,Houten,Houten,Utrecht,VBO,5.168710,52.034238
Onderdoor,66,,,3995DX,Houten,Houten,Utrecht,VBO,5.168734,52.034060
Onderdoor,68,,,3995DX,Houten,Houten,Utrecht,VBO,5.168461,52.034086
Onderdoor,70,,,3995DX,Houten,Houten,Utrecht,VBO,5.168426,52.034157
Onderdoor,72,,,3995DX,Houten,Houten,Utrecht,VBO,5.168348,52.034300
Onderdoor,74,,,3995DX,Houten,Houten,Utrecht,VBO,5.168306,52.034349
Onderdoor,80,,,3995DX,Houten,Houten,Utrecht,VBO,5.168178,52.034275
Onderdoor,82,,,3995DX,Houten,Houten,Utrecht,VBO,5.168257,52.033904
Onderdoor,158,,,3995DX,Houten,Houten,Utrecht,VBO,5.167597,52.034071
Onderdoor,160,,,3995DX,Houten,Houten,Utrecht,VBO,5.167745,52.033952
Onderdoor,162,,,3995DX,Houten,Houten,Utrecht,VBO,5.167067,52.034012
Onderdoor,164,,,3995DX,Houten,Houten,Utrecht,VBO,5.167003,52.033993
Onderdoor,166,,,3995DX,Houten,Houten,Utrecht,VBO,5.166920,52.033968
Onderdoor,168,,,3995DX,Houten,Houten,Utrecht,VBO,5.166946,52.033942
Onderdoor,170,,,3995DX,Houten,Houten,Utrecht,VBO,5.167218,52.034017
Onderdoor,172,,,3995DX,Houten,Houten,Utrecht,VBO,5.167160,52.033997
Onderdoor,174,,,3995DX,Houten,Houten,Utrecht,VBO,5.167087,52.033976
Onderdoor,176,,,3995DX,Houten,Houten,Utrecht,VBO,5.167015,52.033958
Onderdoor,178,,,3995DX,Houten,Houten,Utrecht,VBO,5.166993,52.033921
Onderdoor,180,,,3995DX,Houten,Houten,Utrecht,VBO,5.167020,52.033877
Onderdoor,182,,,3995DX,Houten,Houten,Utrecht,VBO,5.167063,52.033836
Onderdoor,184,,,3995DX,Houten,Houten,Utrecht,VBO,5.167074,52.033796
Onderdoor,186,,,3995DX,Houten,Houten,Utrecht,VBO,5.166972,52.033896
Onderdoor,188,,,3995DX,Houten,Houten,Utrecht,VBO,5.166980,52.033857
Onderdoor,190,,,3995DX,Houten,Houten,Utrecht,VBO,5.167016,52.033816
Het Kant,1,,,3995DZ,Houten,Houten,Utrecht,VBO,5.165666,52.035011
Het Kant,2,,,3995DZ,Houten,Houten,Utrecht,VBO,5.166942,52.034450
Het Kant,3,,,3995DZ,Houten,Houten,Utrecht,VBO,5.165705,52.034727
Het Kant,5,,,3995DZ,Houten,Houten,Utrecht,VBO,5.165711,52.034574
Het Kant,7,,,3995DZ,Houten,Houten,Utrecht,VBO,5.165700,52.034528
Het Kant,9,,,3995DZ,Houten,Houten,Utrecht,VBO,5.165522,52.034493
Het Kant,11,,,3995DZ,Houten,Houten,Utrecht,VBO,5.165444,52.034451
Het Kant,13,,,3995DZ,Houten,Houten,Utrecht,VBO,5.165751,52.034583
Het Kant,15,,,3995DZ,Houten,Houten,Utrecht,VBO,5.165757,52.034530
Het Kant,17,,,3995DZ,Houten,Houten,Utrecht,VBO,5.165579,52.034488
Het Kant,19,,,3995DZ,Houten,Houten,Utrecht,VBO,5.165505,52.034456
Het Kant,21,,,3995DZ,Houten,Houten,Utrecht,VBO,5.165817,52.034595
Het Kant,23,,,3995DZ,Houten,Houten,Utrecht,VBO,5.165821,52.034535
Het Kant,25,,,3995DZ,Houten,Houten,Utrecht,VBO,5.165636,52.034483
Het Kant,27,,,3995DZ,Houten,Houten,Utrecht,VBO,5.165553,52.034442
Het Kant,29,,,3995DZ,Houten,Houten,Utrecht,VBO,5.165843,52.034602
Het Kant,31,,,3995DZ,Houten,Houten,Utrecht,VBO,5.165871,52.034544
Het Kant,33,,,3995DZ,Houten,Houten,Utrecht,VBO,5.165700,52.034478
Het Kant,35,,,3995DZ,Houten,Houten,Utrecht,VBO,5.165599,52.034437
Het Kant,37,,,3995DZ,Houten,Houten,Utrecht,VBO,5.165874,52.034503
Het Kant,39,,,3995DZ,Houten,Houten,Utrecht,VBO,5.165852,52.034485
Het Kant,41,,,3995DZ,Houten,Houten,Utrecht,VBO,5.165776,52.034477
Het Kant,43,,,3995DZ,Houten,Houten,Utrecht,VBO,5.165657,52.034441
Het Kant,45,,,3995DZ,Houten,Houten,Utrecht,VBO,5.165546,52.034410
Het Kant,47,,,3995DZ,Houten,Houten,Utrecht,VBO,5.165553,52.034203
Het Kant,49,,,3995DZ,Houten,Houten,Utrecht,VBO,5.165566,52.034154
Het Kant,51,,,3995DZ,Houten,Houten,Utrecht,VBO,5.165586,52.034041
Spoorhaag,130,,0001,3995EA,Houten,Houten,Utrecht,VBO,5.167493,52.036094
Spoorhaag,130,,,3995EA,Houten,Houten,Utrecht,VBO,5.167520,52.035867
Spoorhaag,132,,,3995EA,Houten,Houten,Utrecht,VBO,5.167599,52.035838
Spoorhaag,134,a,,3995EA,Houten,Houten,Utrecht,VBO,5.167544,52.035789
Spoorhaag,134,b,,3995EA,Houten,Houten,Utrecht,VBO,5.167441,52.035802
Spoorhaag,136,,,3995EA,Houten,Houten,Utrecht,VBO,5.168149,52.036420
Spoorhaag,138,,,3995EA,Houten,Houten,Utrecht,VBO,5.168146,52.036377
Spoorhaag,142,,,3995EA,Houten,Houten,Utrecht,VBO,5.168127,52.036302
Spoorhaag,144,,,3995EA,Houten,Houten,Utrecht,VBO,5.168124,52.036252
Spoorhaag,146,,,3995EA,Houten,Houten,Utrecht,VBO,5.168135,52.036180
Spoorhaag,154,,,3995EA,Houten,Houten,Utrecht,VBO,5.168555,52.035681
Spoorhaag,158,,,3995EA,Houten,Houten,Utrecht,VBO,5.168637,52.035588
Spoorhaag,160,,,3995EA,Houten,Houten,Utrecht,VBO,5.168675,52.035509
Spoorhaag,164,,,3995EA,Houten,Houten,Utrecht,VBO,5.168751,52.035425
Spoorhaag,166,,,3995EA,Houten,Houten,Utrecht,VBO,5.168813,52.035334
Achterom,2,,,3995EB,Houten,Houten,Utrecht,VBO,5.167632,52.036697
Achterom,4,,,3995EB,Houten,Houten,Utrecht,VBO,5.167705,52.036697
Achterom,6,,,3995EB,Houten,Houten,Utrecht,VBO,5.167785,52.036695
Achterom,8,,,3995EB,Houten,Houten,Utrecht,VBO,5.167865,52.036695
Achterom,10,,,3995EB,Houten,Houten,Utrecht,VBO,5.167945,52.036695
Achterom,12,,,3995EB,Houten,Houten,Utrecht,VBO,5.168026,52.036692
Achterom,14,,,3995EB,Houten,Houten,Utrecht,VBO,5.168203,52.036590
Achterom,16,a,,3995EB,Houten,Houten,Utrecht,VBO,5.168197,52.036656
Achterom,16,b,,3995EB,Houten,Houten,Utrecht,VBO,5.168300,52.036683
Achterom,16,c,,3995EB,Houten,Houten,Utrecht,VBO,5.168399,52.036657
Achterom,16,d,,3995EB,Houten,Houten,Utrecht,VBO,5.168466,52.036690
Achterom,18,,,3995EC,Houten,Houten,Utrecht,VBO,5.168464,52.036600
Achterom,20,a,,3995EC,Houten,Houten,Utrecht,VBO,5.168971,52.036668
Achterom,20,,01,3995EC,Houten,Houten,Utrecht,VBO,5.168850,52.036658
Achterom,20,,,3995EC,Houten,Houten,Utrecht,VBO,5.168716,52.036656
Achterom,22,,,3995EC,Houten,Houten,Utrecht,VBO,5.169391,52.036650
Achterom,24,,,3995EC,Houten,Houten,Utrecht,VBO,5.168688,52.036694
Achterom,26,,,3995EC,Houten,Houten,Utrecht,VBO,5.168780,52.036698
Achterom,28,,,3995EC,Houten,Houten,Utrecht,VBO,5.168866,52.036705
Achterom,30,,,3995EC,Houten,Houten,Utrecht,VBO,5.168966,52.036708
Achterom,32,,,3995EC,Houten,Houten,Utrecht,VBO,5.169044,52.036717
Achterom,34,,,3995EC,Houten,Houten,Utrecht,VBO,5.169137,52.036718
Achterom,36,,,3995EC,Houten,Houten,Utrecht,VBO,5.169228,52.036707
Achterom,38,,,3995EC,Houten,Houten,Utrecht,VBO,5.169318,52.036693
Achterom,40,,,3995EC,Houten,Houten,Utrecht,VBO,5.169403,52.036683
Achterom,42,,,3995EC,Houten,Houten,Utrecht,VBO,5.169483,52.036670
Achterom,44,,,3995EC,Houten,Houten,Utrecht,VBO,5.169566,52.036659
Achterom,46,,,3995EC,Houten,Houten,Utrecht,VBO,5.168693,52.036724
Achterom,48,,,3995EC,Houten,Houten,Utrecht,VBO,5.168816,52.036731
Achterom,50,,,3995EC,Houten,Houten,Utrecht,VBO,5.168931,52.036739
Achterom,52,,,3995EC,Houten,Houten,Utrecht,VBO,5.169043,52.036745
Achterom,54,,,3995EC,Houten,Houten,Utrecht,VBO,5.169223,52.036747
Achterom,56,,,3995EC,Houten,Houten,Utrecht,VBO,5.169300,52.036735
Achterom,58,,,3995EC,Houten,Houten,Utrecht,VBO,5.169381,52.036724
Achterom,60,,,3995EC,Houten,Houten,Utrecht,VBO,5.169480,52.036710
Achterom,62,,,3995EC,Houten,Houten,Utrecht,VBO,5.169576,52.036697
Achterom,64,,0001,3995EC,Houten,Houten,Utrecht,VBO,5.170814,52.036441
Achterom,64,,0002,3995EC,Houten,Houten,Utrecht,VBO,5.170853,52.036367
Achterom,64,,,3995EC,Houten,Houten,Utrecht,VBO,5.170776,52.036414
Achterom,66,,01,3995EC,Houten,Houten,Utrecht,VBO,5.170757,52.036518
Achterom,66,,02,3995EC,Houten,Houten,Utrecht,VBO,5.170895,52.036497
Achterom,66,,03,3995EC,Houten,Houten,Utrecht,VBO,5.170737,52.036488
Achterom,66,,04,3995EC,Houten,Houten,Utrecht,VBO,5.170807,52.036471
Achterom,66,,05,3995EC,Houten,Houten,Utrecht,VBO,5.170927,52.036303
Achterom,66,,06,3995EC,Houten,Houten,Utrecht,VBO,5.170795,52.036309
Achterom,66,,07,3995EC,Houten,Houten,Utrecht,VBO,5.170983,52.036342
Achterom,66,,08,3995EC,Houten,Houten,Utrecht,VBO,5.170969,52.036392
Achterom,66,,09,3995EC,Houten,Houten,Utrecht,VBO,5.170807,52.036340
Achterom,66,,10,3995EC,Houten,Houten,Utrecht,VBO,5.170938,52.036413
Achterom,66,,11,3995EC,Houten,Houten,Utrecht,VBO,5.170775,52.036276
Achterom,66,,12,3995EC,Houten,Houten,Utrecht,VBO,5.170953,52.036260
Spoorhaag,101,,,3995ED,Houten,Houten,Utrecht,VBO,5.167933,52.036042
Spoorhaag,103,,,3995ED,Houten,Houten,Utrecht,VBO,5.167974,52.035997
Spoorhaag,105,,,3995ED,Houten,Houten,Utrecht,VBO,5.168016,52.035942
Spoorhaag,107,,,3995ED,Houten,Houten,Utrecht,VBO,5.168071,52.035883
Spoorhaag,109,,,3995ED,Houten,Houten,Utrecht,VBO,5.168096,52.035821
Spoorhaag,113,,,3995ED,Houten,Houten,Utrecht,VBO,5.168233,52.035702
Spoorhaag,115,,,3995ED,Houten,Houten,Utrecht,VBO,5.168289,52.035654
Spoorhaag,117,,,3995ED,Houten,Houten,Utrecht,VBO,5.168285,52.035587
Spoorhaag,119,,,3995ED,Houten,Houten,Utrecht,VBO,5.168362,52.035538
Spoorhaag,121,,,3995ED,Houten,Houten,Utrecht,VBO,5.168359,52.035487
Spoorhaag,123,,,3995ED,Houten,Houten,Utrecht,VBO,5.168437,52.035438
Spoorhaag,127,,,3995ED,Houten,Houten,Utrecht,VBO,5.168488,52.035323
Spoorhaag,129,,,3995ED,Houten,Houten,Utrecht,VBO,5.168395,52.035284
Achterom,70,,,3995EG,Houten,Houten,Utrecht,VBO,5.171838,52.036065
Achterom,72,,,3995EG,Houten,Houten,Utrecht,VBO,5.171849,52.036017
Achterom,74,,,3995EG,Houten,Houten,Utrecht,VBO,5.171897,52.035973
Achterom,76,,,3995EG,Houten,Houten,Utrecht,VBO,5.171926,52.035922
Achterom,78,,,3995EG,Houten,Houten,Utrecht,VBO,5.171940,52.035869
Achterom,90,,,3995EH,Houten,Houten,Utrecht,VBO,5.171702,52.033794
Achterom,92,,,3995EH,Houten,Houten,Utrecht,VBO,5.171663,52.033752
Achterom,94,,,3995EH,Houten,Houten,Utrecht,VBO,5.171626,52.033701
Achterom,96,,,3995EH,Houten,Houten,Utrecht,VBO,5.171611,52.033649
Achterom,98,,,3995EH,Houten,Houten,Utrecht,VBO,5.171608,52.033562
Achterom,100,,,3995EH,Houten,Houten,Utrecht,VBO,5.171561,52.033516
Achterom,102,,,3995EH,Houten,Houten,Utrecht,VBO,5.171522,52.033465
Achterom,104,,,3995EH,Houten,Houten,Utrecht,VBO,5.171500,52.033414
Achterom,106,,,3995EH,Houten,Houten,Utrecht,VBO,5.171522,52.033390
Achterom,108,,,3995EH,Houten,Houten,Utrecht,VBO,5.171555,52.033344
Achterom,110,,,3995EH,Houten,Houten,Utrecht,VBO,5.171570,52.033302
Achterom,112,,,3995EH,Houten,Houten,Utrecht,VBO,5.171604,52.033246
Achterom,114,,,3995EH,Houten,Houten,Utrecht,VBO,5.171641,52.033206
Achterom,1,,,3995EJ,Houten,Houten,Utrecht,VBO,5.167204,52.036375
Achterom,5,,0001,3995EJ,Houten,Houten,Utrecht,VBO,5.168570,52.036439
Achterom,19,,,3995EJ,Houten,Houten,Utrecht,VBO,5.169291,52.036492
Achterom,21,,,3995EJ,Houten,Houten,Utrecht,VBO,5.169412,52.036479
Achterom,23,,,3995EJ,Houten,Houten,Utrecht,VBO,5.169482,52.036468
Achterom,25,,,3995EJ,Houten,Houten,Utrecht,VBO,5.169544,52.036462
Achterom,27,,,3995EJ,Houten,Houten,Utrecht,VBO,5.169609,52.036451
Achterom,29,,,3995EJ,Houten,Houten,Utrecht,VBO,5.169419,52.036377
Achterom,31,,,3995EJ,Houten,Houten,Utrecht,VBO,5.169474,52.036393
Achterom,33,,,3995EJ,Houten,Houten,Utrecht,VBO,5.169346,52.036456
Achterom,35,,,3995EJ,Houten,Houten,Utrecht,VBO,5.169419,52.036439
Achterom,37,,,3995EJ,Houten,Houten,Utrecht,VBO,5.169485,52.036430
Achterom,39,,,3995EJ,Houten,Houten,Utrecht,VBO,5.169547,52.036423
Achterom,41,,,3995EJ,Houten,Houten,Utrecht,VBO,5.169606,52.036411
Achterom,43,,,3995EJ,Houten,Houten,Utrecht,VBO,5.169314,52.036420
Achterom,45,,,3995EJ,Houten,Houten,Utrecht,VBO,5.169380,52.036405
Achterom,47,,,3995EJ,Houten,Houten,Utrecht,VBO,5.169298,52.036384
Achterom,49,,,3995EK,Houten,Houten,Utrecht,VBO,5.169358,52.036381
Achterom,51,,,3995EK,Houten,Houten,Utrecht,VBO,5.169303,52.036352
Achterom,53,,,3995EK,Houten,Houten,Utrecht,VBO,5.169389,52.036342
Achterom,55,,,3995EK,Houten,Houten,Utrecht,VBO,5.169477,52.036339
Achterom,57,,,3995EK,Houten,Houten,Utrecht,VBO,5.169562,52.036337
Achterom,59,,,3995EK,Houten,Houten,Utrecht,VBO,5.169279,52.036315
Achterom,61,,,3995EK,Houten,Houten,Utrecht,VBO,5.169350,52.036299
Achterom,63,,,3995EK,Houten,Houten,Utrecht,VBO,5.169428,52.036313
Achterom,65,,,3995EK,Houten,Houten,Utrecht,VBO,5.169509,52.036301
Achterom,67,,,3995EK,Houten,Houten,Utrecht,VBO,5.169586,52.036305
Achterom,69,,,3995EK,Houten,Houten,Utrecht,VBO,5.169260,52.036270
Achterom,71,,,3995EK,Houten,Houten,Utrecht,VBO,5.169329,52.036257
Achterom,73,,,3995EK,Houten,Houten,Utrecht,VBO,5.169410,52.036270
Achterom,75,,,3995EK,Houten,Houten,Utrecht,VBO,5.169495,52.036253
Achterom,77,,,3995EK,Houten,Houten,Utrecht,VBO,5.169581,52.036267
Achterom,79,,,3995EL,Houten,Houten,Utrecht,VBO,5.169976,52.036391
Achterom,81,,,3995EL,Houten,Houten,Utrecht,VBO,5.169894,52.036400
Achterom,83,,,3995EL,Houten,Houten,Utrecht,VBO,5.170179,52.036365
Achterom,85,,,3995EL,Houten,Houten,Utrecht,VBO,5.170160,52.036314
Achterom,87,,,3995EL,Houten,Houten,Utrecht,VBO,5.170156,52.036276
Achterom,89,,,3995EL,Houten,Houten,Utrecht,VBO,5.170134,52.036236
Achterom,91,,,3995EL,Houten,Houten,Utrecht,VBO,5.170081,52.036197
Achterom,93,,,3995EL,Houten,Houten,Utrecht,VBO,5.169893,52.036361
Achterom,95,,,3995EL,Houten,Houten,Utrecht,VBO,5.169981,52.036356
Achterom,97,,,3995EL,Houten,Houten,Utrecht,VBO,5.170092,52.036319
Achterom,99,,,3995EL,Houten,Houten,Utrecht,VBO,5.169889,52.036323
Achterom,101,,,3995EL,Houten,Houten,Utrecht,VBO,5.169996,52.036324
Achterom,103,,,3995EL,Houten,Houten,Utrecht,VBO,5.169902,52.036288
Achterom,105,,,3995EL,Houten,Houten,Utrecht,VBO,5.170018,52.036288
Achterom,107,,,3995EL,Houten,Houten,Utrecht,VBO,5.170070,52.036376
Achterom,109,,,3995EM,Houten,Houten,Utrecht,VBO,5.171251,52.036028
Achterom,111,,,3995EM,Houten,Houten,Utrecht,VBO,5.171412,52.035963
Achterom,113,,,3995EM,Houten,Houten,Utrecht,VBO,5.171239,52.036000
Achterom,115,,,3995EM,Houten,Houten,Utrecht,VBO,5.171387,52.035936
Achterom,117,,,3995EM,Houten,Houten,Utrecht,VBO,5.171244,52.035972
Achterom,119,,,3995EM,Houten,Houten,Utrecht,VBO,5.171376,52.035909
Achterom,121,,,3995EM,Houten,Houten,Utrecht,VBO,5.171427,52.035868
Achterom,123,,,3995EM,Houten,Houten,Utrecht,VBO,5.171450,52.035829
Achterom,125,,,3995EM,Houten,Houten,Utrecht,VBO,5.171478,52.035789
Achterom,127,,,3995EM,Houten,Houten,Utrecht,VBO,5.171510,52.035749
Achterom,129,,,3995EM,Houten,Houten,Utrecht,VBO,5.171537,52.035713
Achterom,131,,,3995EN,Houten,Houten,Utrecht,VBO,5.171617,52.035080
Achterom,133,,,3995EN,Houten,Houten,Utrecht,VBO,5.171644,52.035049
Achterom,135,,,3995EN,Houten,Houten,Utrecht,VBO,5.171672,52.035007
Achterom,137,,,3995EN,Houten,Houten,Utrecht,VBO,5.171701,52.034969
Achterom,139,,,3995EN,Houten,Houten,Utrecht,VBO,5.171734,52.034929
Achterom,141,,,3995EN,Houten,Houten,Utrecht,VBO,5.171758,52.034889
Achterom,143,,,3995EN,Houten,Houten,Utrecht,VBO,5.171803,52.034850
Achterom,145,,,3995EN,Houten,Houten,Utrecht,VBO,5.171892,52.034704
Achterom,147,,,3995EN,Houten,Houten,Utrecht,VBO,5.171853,52.034670
Achterom,149,,,3995EN,Houten,Houten,Utrecht,VBO,5.171790,52.034637
Achterom,151,,,3995EN,Houten,Houten,Utrecht,VBO,5.171772,52.034595
Achterom,153,,,3995EN,Houten,Houten,Utrecht,VBO,5.171714,52.034562
Achterom,155,,,3995EN,Houten,Houten,Utrecht,VBO,5.171696,52.034526
Achterom,157,,,3995EN,Houten,Houten,Utrecht,VBO,5.171479,52.033999
Achterom,159,,,3995EN,Houten,Houten,Utrecht,VBO,5.171455,52.033957
Achterom,161,,,3995EN,Houten,Houten,Utrecht,VBO,5.171416,52.033922
Achterom,163,,,3995EN,Houten,Houten,Utrecht,VBO,5.171396,52.033887
Achterom,165,,,3995EN,Houten,Houten,Utrecht,VBO,5.171345,52.033849
Achterom,167,,,3995EN,Houten,Houten,Utrecht,VBO,5.171314,52.033814
Achterom,169,,,3995EN,Houten,Houten,Utrecht,VBO,5.171227,52.033792
Achterom,173,,,3995EN,Houten,Houten,Utrecht,VBO,5.171235,52.033738
Achterom,177,,,3995EN,Houten,Houten,Utrecht,VBO,5.171172,52.033756
De Raat,1,,,3995EP,Houten,Houten,Utrecht,VBO,5.169719,52.036279
De Raat,2,,,3995EP,Houten,Houten,Utrecht,VBO,5.169773,52.036134
De Raat,4,,,3995EP,Houten,Houten,Utrecht,VBO,5.169706,52.036117
De Raat,6,,,3995EP,Houten,Houten,Utrecht,VBO,5.169636,52.036100
De Raat,7,,,3995EP,Houten,Houten,Utrecht,VBO,5.169380,52.036178
De Raat,8,,,3995EP,Houten,Houten,Utrecht,VBO,5.169574,52.036084
De Raat,10,,,3995EP,Houten,Houten,Utrecht,VBO,5.169491,52.036062
De Raat,11,,,3995EP,Houten,Houten,Utrecht,VBO,5.169184,52.036238
De Raat,12,,,3995EP,Houten,Houten,Utrecht,VBO,5.169393,52.036037
De Raat,17,,,3995EP,Houten,Houten,Utrecht,VBO,5.168656,52.036029
De Raat,19,,,3995EP,Houten,Houten,Utrecht,VBO,5.168556,52.035995
De Raat,21,,,3995EP,Houten,Houten,Utrecht,VBO,5.168469,52.035956
De Raat,26,,,3995EP,Houten,Houten,Utrecht,VBO,5.168692,52.035822
De Raat,27,,,3995EP,Houten,Houten,Utrecht,VBO,5.168364,52.035971
De Raat,28,,,3995EP,Houten,Houten,Utrecht,VBO,5.168538,52.035790
De Raat,32,,,3995EP,Houten,Houten,Utrecht,VBO,5.168431,52.035799
Kruitmolen,2,,,3995ER,Houten,Houten,Utrecht,VBO,5.169499,52.033369
Kruitmolen,4,,,3995ER,Houten,Houten,Utrecht,VBO,5.169609,52.033334
Kruitmolen,6,,,3995ER,Houten,Houten,Utrecht,VBO,5.169707,52.033337
Kruitmolen,8,,,3995ER,Houten,Houten,Utrecht,VBO,5.169803,52.033345
Kruitmolen,10,,,3995ER,Houten,Houten,Utrecht,VBO,5.169900,52.033363
Kruitmolen,12,,,3995ER,Houten,Houten,Utrecht,VBO,5.170000,52.033389
Kruitmolen,14,,,3995ER,Houten,Houten,Utrecht,VBO,5.170085,52.033418
Kruitmolen,16,,,3995ER,Houten,Houten,Utrecht,VBO,5.170166,52.033462
Kruitmolen,18,,,3995ER,Houten,Houten,Utrecht,VBO,5.170223,52.033502
Kruitmolen,20,,,3995ER,Houten,Houten,Utrecht,VBO,5.170469,52.033678
Kruitmolen,22,,,3995ER,Houten,Houten,Utrecht,VBO,5.170554,52.033710
Kruitmolen,24,,,3995ER,Houten,Houten,Utrecht,VBO,5.170683,52.033735
Kruitmolen,26,,,3995ER,Houten,Houten,Utrecht,VBO,5.170805,52.033744
Kruitmolen,28,,,3995ER,Houten,Houten,Utrecht,VBO,5.170947,52.033735
Kruitmolen,30,,,3995ER,Houten,Houten,Utrecht,VBO,5.171045,52.033717
Kruitmolen,32,,,3995ER,Houten,Houten,Utrecht,VBO,5.169617,52.033358
Kruitmolen,34,,,3995ER,Houten,Houten,Utrecht,VBO,5.169710,52.033359
Kruitmolen,36,,,3995ER,Houten,Houten,Utrecht,VBO,5.169797,52.033365
Kruitmolen,38,,,3995ER,Houten,Houten,Utrecht,VBO,5.169895,52.033380
Kruitmolen,40,,,3995ER,Houten,Houten,Utrecht,VBO,5.169985,52.033410
Kruitmolen,42,,,3995ER,Houten,Houten,Utrecht,VBO,5.170069,52.033440
Kruitmolen,44,,,3995ER,Houten,Houten,Utrecht,VBO,5.170151,52.033484
Kruitmolen,46,,,3995ER,Houten,Houten,Utrecht,VBO,5.170210,52.033526
Kruitmolen,48,,,3995ER,Houten,Houten,Utrecht,VBO,5.170263,52.033578
Kruitmolen,50,,,3995ER,Houten,Houten,Utrecht,VBO,5.170459,52.033699
Kruitmolen,52,,,3995ER,Houten,Houten,Utrecht,VBO,5.170543,52.033731
Kruitmolen,54,,,3995ER,Houten,Houten,Utrecht,VBO,5.170675,52.033761
Kruitmolen,56,,,3995ER,Houten,Houten,Utrecht,VBO,5.170804,52.033771
Kruitmolen,58,,,3995ER,Houten,Houten,Utrecht,VBO,5.170957,52.033760
Kruitmolen,60,,,3995ER,Houten,Houten,Utrecht,VBO,5.171064,52.033743
Kruitmolen,62,,,3995ER,Houten,Houten,Utrecht,VBO,5.169617,52.033381
Kruitmolen,64,,,3995ER,Houten,Houten,Utrecht,VBO,5.169705,52.033383
Kruitmolen,66,,,3995ER,Houten,Houten,Utrecht,VBO,5.169797,52.033390
Kruitmolen,68,,,3995ER,Houten,Houten,Utrecht,VBO,5.169892,52.033405
Kruitmolen,70,,,3995ER,Houten,Houten,Utrecht,VBO,5.169976,52.033432
Kruitmolen,72,,,3995ER,Houten,Houten,Utrecht,VBO,5.170057,52.033461
Kruitmolen,74,,,3995ER,Houten,Houten,Utrecht,VBO,5.170137,52.033503
Kruitmolen,76,,,3995ER,Houten,Houten,Utrecht,VBO,5.170196,52.033547
Kruitmolen,78,,,3995ER,Houten,Houten,Utrecht,VBO,5.170253,52.033598
Kruitmolen,80,,,3995ER,Houten,Houten,Utrecht,VBO,5.170441,52.033720
Kruitmolen,82,,,3995ER,Houten,Houten,Utrecht,VBO,5.170527,52.033758
Kruitmolen,84,,,3995ER,Houten,Houten,Utrecht,VBO,5.170670,52.033781
Kruitmolen,86,,,3995ER,Houten,Houten,Utrecht,VBO,5.170799,52.033789
Kruitmolen,88,,,3995ER,Houten,Houten,Utrecht,VBO,5.170968,52.033783
Kruitmolen,90,,,3995ER,Houten,Houten,Utrecht,VBO,5.171083,52.033764
Kruitmolen,92,,,3995ER,Houten,Houten,Utrecht,VBO,5.169620,52.033404
Kruitmolen,94,,,3995ER,Houten,Houten,Utrecht,VBO,5.169706,52.033406
Kruitmolen,96,,,3995ER,Houten,Houten,Utrecht,VBO,5.169792,52.033415
Kruitmolen,98,,,3995ER,Houten,Houten,Utrecht,VBO,5.169882,52.033428
Kruitmolen,100,,,3995ER,Houten,Houten,Utrecht,VBO,5.169965,52.033457
Kruitmolen,102,,,3995ER,Houten,Houten,Utrecht,VBO,5.170040,52.033484
Kruitmolen,104,,,3995ER,Houten,Houten,Utrecht,VBO,5.170112,52.033522
Kruitmolen,106,,,3995ER,Houten,Houten,Utrecht,VBO,5.170173,52.033568
Kruitmolen,108,,,3995ER,Houten,Houten,Utrecht,VBO,5.170232,52.033622
Kruitmolen,110,,,3995ER,Houten,Houten,Utrecht,VBO,5.170428,52.033742
Kruitmolen,112,,,3995ER,Houten,Houten,Utrecht,VBO,5.169625,52.033431
Kruitmolen,114,,,3995ER,Houten,Houten,Utrecht,VBO,5.169703,52.033431
Kruitmolen,116,,,3995ER,Houten,Houten,Utrecht,VBO,5.169781,52.033437
Kruitmolen,118,,,3995ER,Houten,Houten,Utrecht,VBO,5.169869,52.033453
Kruitmolen,120,,,3995ER,Houten,Houten,Utrecht,VBO,5.169950,52.033478
Kruitmolen,122,,,3995ER,Houten,Houten,Utrecht,VBO,5.170025,52.033508
Kruitmolen,124,,,3995ER,Houten,Houten,Utrecht,VBO,5.170089,52.033544
Kruitmolen,126,,,3995ER,Houten,Houten,Utrecht,VBO,5.170150,52.033589
Kruitmolen,128,,,3995ER,Houten,Houten,Utrecht,VBO,5.170211,52.033649
Kruitmolen,130,,,3995ER,Houten,Houten,Utrecht,VBO,5.170411,52.033765
Kruitmolen,132,,,3995ER,Houten,Houten,Utrecht,VBO,5.170694,52.033987
Kruitmolen,1,,,3995ES,Houten,Houten,Utrecht,VBO,5.170775,52.033498
Randhoeve,221,,0001,3995GA,Houten,Houten,Utrecht,VBO,5.165977,52.036093
Randhoeve,221,,,3995GA,Houten,Houten,Utrecht,VBO,5.166073,52.035986
Randhoeve,223,b,,3995GA,Houten,Houten,Utrecht,VBO,5.166423,52.035467
Randhoeve,223,c,,3995GA,Houten,Houten,Utrecht,VBO,5.166436,52.035454
Randhoeve,223,,0001,3995GA,Houten,Houten,Utrecht,VBO,5.166341,52.035685
Randhoeve,223,,0002,3995GA,Houten,Houten,Utrecht,VBO,5.166504,52.035505
Randhoeve,223,,0003,3995GA,Houten,Houten,Utrecht,VBO,5.165800,52.035651
Randhoeve,223,,101,3995GA,Houten,Houten,Utrecht,VBO,5.166463,52.035591
Randhoeve,223,,102,3995GA,Houten,Houten,Utrecht,VBO,5.166374,52.035569
Randhoeve,223,,103,3995GA,Houten,Houten,Utrecht,VBO,5.166292,52.035621
Randhoeve,223,,104,3995GA,Houten,Houten,Utrecht,VBO,5.166258,52.035674
Randhoeve,223,,201,3995GA,Houten,Houten,Utrecht,VBO,5.166458,52.035604
Randhoeve,223,,202,3995GA,Houten,Houten,Utrecht,VBO,5.166498,52.035527
Randhoeve,223,,203,3995GA,Houten,Houten,Utrecht,VBO,5.166539,52.035460
Randhoeve,223,,204,3995GA,Houten,Houten,Utrecht,VBO,5.166478,52.035454
Randhoeve,223,,205,3995GA,Houten,Houten,Utrecht,VBO,5.166424,52.035497
Randhoeve,223,,206,3995GA,Houten,Houten,Utrecht,VBO,5.166380,52.035587
Randhoeve,223,,207,3995GA,Houten,Houten,Utrecht,VBO,5.166296,52.035642
Randhoeve,223,,208,3995GA,Houten,Houten,Utrecht,VBO,5.166262,52.035696
Randhoeve,223,,209,3995GA,Houten,Houten,Utrecht,VBO,5.166362,52.035699
Randhoeve,223,,301,3995GA,Houten,Houten,Utrecht,VBO,5.166458,52.035619
Randhoeve,223,,302,3995GA,Houten,Houten,Utrecht,VBO,5.166499,52.035549
Randhoeve,223,,303,3995GA,Houten,Houten,Utrecht,VBO,5.166540,52.035482
Randhoeve,223,,304,3995GA,Houten,Houten,Utrecht,VBO,5.166477,52.035478
Randhoeve,223,,305,3995GA,Houten,Houten,Utrecht,VBO,5.166430,52.035514
Randhoeve,223,,306,3995GA,Houten,Houten,Utrecht,VBO,5.166380,52.035605
Randhoeve,223,,307,3995GA,Houten,Houten,Utrecht,VBO,5.166297,52.035665
Randhoeve,223,,308,3995GA,Houten,Houten,Utrecht,VBO,5.166263,52.035718
Randhoeve,223,,309,3995GA,Houten,Houten,Utrecht,VBO,5.166363,52.035719
Randhoeve,223,,401,3995GA,Houten,Houten,Utrecht,VBO,5.166455,52.035634
Randhoeve,223,,402,3995GA,Houten,Houten,Utrecht,VBO,5.166496,52.035572
Randhoeve,223,,403,3995GA,Houten,Houten,Utrecht,VBO,5.166540,52.035504
Randhoeve,223,,404,3995GA,Houten,Houten,Utrecht,VBO,5.166477,52.035499
Randhoeve,223,,405,3995GA,Houten,Houten,Utrecht,VBO,5.166429,52.035534
Randhoeve,223,,406,3995GA,Houten,Houten,Utrecht,VBO,5.166381,52.035622
Randhoeve,223,,a,3995GA,Houten,Houten,Utrecht,VBO,5.166395,52.035512
Randhoeve,223,,,3995GA,Houten,Houten,Utrecht,VBO,5.166410,52.035586
Randhoeve,225,,,3995GA,Houten,Houten,Utrecht,VBO,5.166622,52.035228
Randhoeve,227,a,,3995GA,Houten,Houten,Utrecht,VBO,5.166489,52.035245
Randhoeve,227,,,3995GA,Houten,Houten,Utrecht,VBO,5.166624,52.035272
Randhoeve,229,,,3995GA,Houten,Houten,Utrecht,VBO,5.166601,52.035319
Randhoeve,231,,,3995GA,Houten,Houten,Utrecht,VBO,5.166573,52.035362
Randhoeve,233,,,3995GA,Houten,Houten,Utrecht,VBO,5.166259,52.035099
Randhoeve,235,,,3995GA,Houten,Houten,Utrecht,VBO,5.166127,52.035048
Randhoeve,237,,,3995GA,Houten,Houten,Utrecht,VBO,5.165986,52.035092
Randhoeve,239,,,3995GA,Houten,Houten,Utrecht,VBO,5.166202,52.035079
Randhoeve,241,,,3995GA,Houten,Houten,Utrecht,VBO,5.166208,52.035183
Randhoeve,243,,,3995GA,Houten,Houten,Utrecht,VBO,5.166088,52.035128
Randhoeve,245,,,3995GA,Houten,Houten,Utrecht,VBO,5.166016,52.035064
Randhoeve,247,,,3995GA,Houten,Houten,Utrecht,VBO,5.166065,52.035027
Randhoeve,249,,,3995GA,Houten,Houten,Utrecht,VBO,5.166063,52.035066
Randhoeve,251,,,3995GA,Houten,Houten,Utrecht,VBO,5.166200,52.035165
Randhoeve,253,,,3995GA,Houten,Houten,Utrecht,VBO,5.166110,52.035105
Randhoeve,255,,,3995GA,Houten,Houten,Utrecht,VBO,5.166024,52.035075
Randhoeve,257,,,3995GA,Houten,Houten,Utrecht,VBO,5.166106,52.035038
Randhoeve,259,,,3995GA,Houten,Houten,Utrecht,VBO,5.166260,52.035139
Randhoeve,261,,,3995GA,Houten,Houten,Utrecht,VBO,5.166178,52.035176
Randhoeve,263,,,3995GA,Houten,Houten,Utrecht,VBO,5.166116,52.035160
Randhoeve,265,,,3995GA,Houten,Houten,Utrecht,VBO,5.166022,52.035111
Randhoeve,267,,,3995GA,Houten,Houten,Utrecht,VBO,5.166110,52.035090
Weerwolfseind,2,,,3995GB,Houten,Houten,Utrecht,VBO,5.165387,52.035754
Weerwolfseind,4,,,3995GB,Houten,Houten,Utrecht,VBO,5.165404,52.035724
Weerwolfseind,6,,,3995GB,Houten,Houten,Utrecht,VBO,5.165430,52.035680
Weerwolfseind,8,,,3995GB,Houten,Houten,Utrecht,VBO,5.165473,52.035635
Weerwolfseind,10,,,3995GB,Houten,Houten,Utrecht,VBO,5.165509,52.035591
Weerwolfseind,12,,,3995GB,Houten,Houten,Utrecht,VBO,5.165562,52.035539
Weerwolfseind,14,,,3995GB,Houten,Houten,Utrecht,VBO,5.165603,52.035488
Weerwolfseind,16,,,3995GB,Houten,Houten,Utrecht,VBO,5.165654,52.035432
Weerwolfseind,18,,,3995GB,Houten,Houten,Utrecht,VBO,5.165696,52.035404
Weerwolfseind,20,,,3995GB,Houten,Houten,Utrecht,VBO,5.165470,52.035771
Weerwolfseind,22,,,3995GB,Houten,Houten,Utrecht,VBO,5.165506,52.035726
Weerwolfseind,24,,,3995GB,Houten,Houten,Utrecht,VBO,5.165544,52.035684
Weerwolfseind,26,,,3995GB,Houten,Houten,Utrecht,VBO,5.165593,52.035650
Weerwolfseind,28,,,3995GB,Houten,Houten,Utrecht,VBO,5.165636,52.035602
Weerwolfseind,30,,,3995GB,Houten,Houten,Utrecht,VBO,5.165676,52.035559
Weerwolfseind,32,,,3995GB,Houten,Houten,Utrecht,VBO,5.165712,52.035515
Weerwolfseind,34,,,3995GB,Houten,Houten,Utrecht,VBO,5.165750,52.035476
Weerwolfseind,36,,,3995GB,Houten,Houten,Utrecht,VBO,5.165796,52.035434
Weerwolfseind,38,,,3995GB,Houten,Houten,Utrecht,VBO,5.165832,52.035352
Weerwolfseind,40,,,3995GB,Houten,Houten,Utrecht,VBO,5.165867,52.035314
Weerwolfseind,42,,,3995GB,Houten,Houten,Utrecht,VBO,5.165909,52.035272
Weerwolfseind,44,,,3995GB,Houten,Houten,Utrecht,VBO,5.165944,52.035240
Weerwolfseind,46,,,3995GB,Houten,Houten,Utrecht,VBO,5.165975,52.035204
Weerwolfseind,48,,,3995GB,Houten,Houten,Utrecht,VBO,5.166019,52.035169
Weerwolfseind,50,,,3995GB,Houten,Houten,Utrecht,VBO,5.165740,52.035336
Weerwolfseind,52,,,3995GB,Houten,Houten,Utrecht,VBO,5.165783,52.035295
Weerwolfseind,54,,,3995GB,Houten,Houten,Utrecht,VBO,5.165816,52.035246
Weerwolfseind,56,,,3995GB,Houten,Houten,Utrecht,VBO,5.165851,52.035212
Weerwolfseind,58,,,3995GB,Houten,Houten,Utrecht,VBO,5.165899,52.035153
Weerwolfseind,1,,,3995GC,Houten,Houten,Utrecht,VBO,5.165588,52.035194
Weerwolfseind,3,,,3995GC,Houten,Houten,Utrecht,VBO,5.165632,52.035139
Het Kant,151,,,3995GZ,Houten,Houten,Utrecht,VBO,5.165046,52.033740
Het Kant,153,,,3995GZ,Houten,Houten,Utrecht,VBO,5.165050,52.033695
Het Kant,155,,,3995GZ,Houten,Houten,Utrecht,VBO,5.165058,52.033646
Het Kant,157,,,3995GZ,Houten,Houten,Utrecht,VBO,5.165194,52.033728
Het Kant,159,,,3995GZ,Houten,Houten,Utrecht,VBO,5.165177,52.033689
Het Kant,161,,,3995GZ,Houten,Houten,Utrecht,VBO,5.165215,52.033652
Het Kant,163,,,3995GZ,Houten,Houten,Utrecht,VBO,5.165324,52.033739
Het Kant,165,,,3995GZ,Houten,Houten,Utrecht,VBO,5.165286,52.033695
Het Kant,167,,,3995GZ,Houten,Houten,Utrecht,VBO,5.165333,52.033646
Het Kant,169,,,3995GZ,Houten,Houten,Utrecht,VBO,5.165453,52.033741
Het Kant,171,,,3995GZ,Houten,Houten,Utrecht,VBO,5.165412,52.033693
Het Kant,173,,,3995GZ,Houten,Houten,Utrecht,VBO,5.165439,52.033646
Het Kant,175,,,3995GZ,Houten,Houten,Utrecht,VBO,5.165571,52.033768
Het Kant,177,,,3995GZ,Houten,Houten,Utrecht,VBO,5.165539,52.033710
Het Kant,179,,,3995GZ,Houten,Houten,Utrecht,VBO,5.165556,52.033664
Het Kant,181,,,3995GZ,Houten,Houten,Utrecht,VBO,5.165533,52.033621
Het Kant,183,,,3995GZ,Houten,Houten,Utrecht,VBO,5.165683,52.033751
Het Kant,185,,,3995GZ,Houten,Houten,Utrecht,VBO,5.165672,52.033709
Het Kant,187,,,3995GZ,Houten,Houten,Utrecht,VBO,5.165688,52.033668
Het Kant,189,,,3995GZ,Houten,Houten,Utrecht,VBO,5.165673,52.033624
Het Kant,191,,,3995GZ,Houten,Houten,Utrecht,VBO,5.165652,52.033587
Het Kant,193,,01,3995GZ,Houten,Houten,Utrecht,VBO,5.165841,52.033655
Het Kant,193,,02,3995GZ,Houten,Houten,Utrecht,VBO,5.165899,52.033647
Het Kant,193,,03,3995GZ,Houten,Houten,Utrecht,VBO,5.165873,52.033625
Het Kant,193,,04,3995GZ,Houten,Houten,Utrecht,VBO,5.165979,52.033621
Het Kant,193,,05,3995GZ,Houten,Houten,Utrecht,VBO,5.166192,52.033645
Het Kant,193,,06,3995GZ,Houten,Houten,Utrecht,VBO,5.166185,52.033669
Het Kant,193,,07,3995GZ,Houten,Houten,Utrecht,VBO,5.166301,52.033685
Het Kant,193,,08,3995GZ,Houten,Houten,Utrecht,VBO,5.166388,52.033711
Het Kant,193,,09,3995GZ,Houten,Houten,Utrecht,VBO,5.166449,52.033757
Het Kant,193,,10,3995GZ,Houten,Houten,Utrecht,VBO,5.166545,52.033747
Het Kant,193,,11,3995GZ,Houten,Houten,Utrecht,VBO,5.165961,52.033669
Het Kant,193,,12,3995GZ,Houten,Houten,Utrecht,VBO,5.165984,52.033646
Het Kant,193,,13,3995GZ,Houten,Houten,Utrecht,VBO,5.166070,52.033668
Het Kant,193,,14,3995GZ,Houten,Houten,Utrecht,VBO,5.166100,52.033660
Het Kant,193,,15,3995GZ,Houten,Houten,Utrecht,VBO,5.166297,52.033660
Het Kant,193,,153,3995GZ,Houten,Houten,Utrecht,VBO,5.165769,52.033659
Het Kant,193,,157,3995GZ,Houten,Houten,Utrecht,VBO,5.165757,52.033620
Het Kant,193,,159,3995GZ,Houten,Houten,Utrecht,VBO,5.165729,52.033592
Het Kant,193,,16,3995GZ,Houten,Houten,Utrecht,VBO,5.166683,52.033784
Het Kant,193,,165,3995GZ,Houten,Houten,Utrecht,VBO,5.165656,52.033559
Het Kant,193,,169,3995GZ,Houten,Houten,Utrecht,VBO,5.165746,52.033698
Het Kant,193,,17,3995GZ,Houten,Houten,Utrecht,VBO,5.166289,52.033716
Het Kant,193,,171,3995GZ,Houten,Houten,Utrecht,VBO,5.165635,52.033771
Het Kant,193,,177,3995GZ,Houten,Houten,Utrecht,VBO,5.165622,52.033736
Het Kant,193,,18,3995GZ,Houten,Houten,Utrecht,VBO,5.166736,52.033823
Het Kant,193,,181,3995GZ,Houten,Houten,Utrecht,VBO,5.165612,52.033706
Het Kant,193,,185,3995GZ,Houten,Houten,Utrecht,VBO,5.165615,52.033675
Het Kant,193,,187,3995GZ,Houten,Houten,Utrecht,VBO,5.165615,52.033642
Het Kant,193,,19,3995GZ,Houten,Houten,Utrecht,VBO,5.166420,52.033732
Het Kant,193,,191,3995GZ,Houten,Houten,Utrecht,VBO,5.165501,52.033766
Het Kant,193,,199,3995GZ,Houten,Houten,Utrecht,VBO,5.165506,52.033737
Het Kant,193,,20,3995GZ,Houten,Houten,Utrecht,VBO,5.165818,52.033560
Het Kant,193,,201,3995GZ,Houten,Houten,Utrecht,VBO,5.165476,52.033706
Het Kant,193,,203,3995GZ,Houten,Houten,Utrecht,VBO,5.165496,52.033679
Het Kant,193,,205,3995GZ,Houten,Houten,Utrecht,VBO,5.165499,52.033654
Het Kant,193,,207,3995GZ,Houten,Houten,Utrecht,VBO,5.165474,52.033618
Het Kant,193,,21,3995GZ,Houten,Houten,Utrecht,VBO,5.166617,52.033770
Het Kant,193,,213,3995GZ,Houten,Houten,Utrecht,VBO,5.165388,52.033612
Het Kant,193,,215,3995GZ,Houten,Houten,Utrecht,VBO,5.165382,52.033738
Het Kant,193,,22,3995GZ,Houten,Houten,Utrecht,VBO,5.165909,52.033597
Het Kant,193,,223,3995GZ,Houten,Houten,Utrecht,VBO,5.165355,52.033713
Het Kant,193,,225,3995GZ,Houten,Houten,Utrecht,VBO,5.165360,52.033685
Het Kant,193,,229,3995GZ,Houten,Houten,Utrecht,VBO,5.165383,52.033648
Het Kant,193,,23,3995GZ,Houten,Houten,Utrecht,VBO,5.166025,52.033606
Het Kant,193,,231,3995GZ,Houten,Houten,Utrecht,VBO,5.165264,52.033758
Het Kant,193,,233,3995GZ,Houten,Houten,Utrecht,VBO,5.165251,52.033722
Het Kant,193,,237,3995GZ,Houten,Houten,Utrecht,VBO,5.165241,52.033687
Het Kant,193,,24,3995GZ,Houten,Houten,Utrecht,VBO,5.166095,52.033627
Het Kant,193,,243,3995GZ,Houten,Houten,Utrecht,VBO,5.165274,52.033660
Het Kant,193,,25,3995GZ,Houten,Houten,Utrecht,VBO,5.166230,52.033638
Het Kant,193,,251,3995GZ,Houten,Houten,Utrecht,VBO,5.165127,52.033730
Het Kant,193,,253,3995GZ,Houten,Houten,Utrecht,VBO,5.165105,52.033691
Het Kant,193,,259,3995GZ,Houten,Houten,Utrecht,VBO,5.165097,52.033654
Het Kant,193,,26,3995GZ,Houten,Houten,Utrecht,VBO,5.166420,52.033682
Het Kant,193,,261,3995GZ,Houten,Houten,Utrecht,VBO,5.164999,52.033719
Het Kant,193,,263,3995GZ,Houten,Houten,Utrecht,VBO,5.164986,52.033683
Het Kant,193,,27,3995GZ,Houten,Houten,Utrecht,VBO,5.166523,52.033702
Het Kant,193,,28,3995GZ,Houten,Houten,Utrecht,VBO,5.166610,52.033732
Het Kant,193,,29,3995GZ,Houten,Houten,Utrecht,VBO,5.166658,52.033734
Het Kant,193,,30,3995GZ,Houten,Houten,Utrecht,VBO,5.166767,52.033726
Het Kant,193,,31,3995GZ,Houten,Houten,Utrecht,VBO,5.165919,52.033578
Het Kant,193,,32,3995GZ,Houten,Houten,Utrecht,VBO,5.166028,52.033582
Het Kant,193,,33,3995GZ,Houten,Houten,Utrecht,VBO,5.166128,52.033610
Het Kant,193,,34,3995GZ,Houten,Houten,Utrecht,VBO,5.166340,52.033640
Het Kant,193,,35,3995GZ,Houten,Houten,Utrecht,VBO,5.166436,52.033662
Het Kant,193,,36,3995GZ,Houten,Houten,Utrecht,VBO,5.166632,52.033714
Het Kant,193,,37,3995GZ,Houten,Houten,Utrecht,VBO,5.166725,52.033768
Het Kant,193,,38,3995GZ,Houten,Houten,Utrecht,VBO,5.166131,52.033586
Het Kant,193,,39,3995GZ,Houten,Houten,Utrecht,VBO,5.166237,52.033616
Het Kant,193,,40,3995GZ,Houten,Houten,Utrecht,VBO,5.166353,52.033614
Het Kant,193,,41,3995GZ,Houten,Houten,Utrecht,VBO,5.166446,52.033640
Het Kant,193,,42,3995GZ,Houten,Houten,Utrecht,VBO,5.166472,52.033624
Het Kant,193,,43,3995GZ,Houten,Houten,Utrecht,VBO,5.166751,52.033708
Het Kant,193,,,3995GZ,Houten,Houten,Utrecht,VBO,5.165801,52.033684
Het Kant,195,,,3995GZ,Houten,Houten,Utrecht,VBO,5.166055,52.033693
Het Kant,197,,,3995GZ,Houten,Houten,Utrecht,VBO,5.166636,52.033797
Het Kant,199,,,3995GZ,Houten,Houten,Utrecht,VBO,5.166740,52.033796
Het Kant,209,,,3995GZ,Houten,Houten,Utrecht,VBO,5.166553,52.033667
Het Kant,211,,,3995GZ,Houten,Houten,Utrecht,VBO,5.166539,52.033775
Het Kant,213,,,3995GZ,Houten,Houten,Utrecht,VBO,5.166694,52.033699
Het Kant,215,,,3995GZ,Houten,Houten,Utrecht,VBO,5.166594,52.033685
Het Kant,217,,,3995GZ,Houten,Houten,Utrecht,VBO,5.166575,52.033717
Het Kant,219,,,3995GZ,Houten,Houten,Utrecht,VBO,5.166499,52.033748
Het Kant,221,,,3995GZ,Houten,Houten,Utrecht,VBO,5.166389,52.033748
Het Kant,223,,,3995GZ,Houten,Houten,Utrecht,VBO,5.166460,52.033717
Het Kant,225,,,3995GZ,Houten,Houten,Utrecht,VBO,5.166484,52.033684
Het Kant,227,,,3995GZ,Houten,Houten,Utrecht,VBO,5.166504,52.033651
Het Kant,229,,,3995GZ,Houten,Houten,Utrecht,VBO,5.166346,52.033720
Het Kant,231,,,3995GZ,Houten,Houten,Utrecht,VBO,5.166363,52.033683
Het Kant,233,,,3995GZ,Houten,Houten,Utrecht,VBO,5.166390,52.033651
Het Kant,235,,,3995GZ,Houten,Houten,Utrecht,VBO,5.166408,52.033623
Het Kant,237,,,3995GZ,Houten,Houten,Utrecht,VBO,5.166251,52.033695
Het Kant,239,,,3995GZ,Houten,Houten,Utrecht,VBO,5.166248,52.033668
Het Kant,241,,,3995GZ,Houten,Houten,Utrecht,VBO,5.166286,52.033637
Het Kant,243,,,3995GZ,Houten,Houten,Utrecht,VBO,5.166294,52.033606
Het Kant,245,,,3995GZ,Houten,Houten,Utrecht,VBO,5.166127,52.033690
Het Kant,247,,,3995GZ,Houten,Houten,Utrecht,VBO,5.166145,52.033651
Het Kant,249,,,3995GZ,Houten,Houten,Utrecht,VBO,5.166175,52.033623
Het Kant,251,,,3995GZ,Houten,Houten,Utrecht,VBO,5.166185,52.033589
Het Kant,253,,,3995GZ,Houten,Houten,Utrecht,VBO,5.166019,52.033672
Het Kant,255,,,3995GZ,Houten,Houten,Utrecht,VBO,5.166043,52.033635
Het Kant,257,,,3995GZ,Houten,Houten,Utrecht,VBO,5.166081,52.033598
Het Kant,259,,,3995GZ,Houten,Houten,Utrecht,VBO,5.166083,52.033567
Het Kant,261,,,3995GZ,Houten,Houten,Utrecht,VBO,5.165913,52.033665
Het Kant,263,,,3995GZ,Houten,Houten,Utrecht,VBO,5.165934,52.033634
Het Kant,265,,,3995GZ,Houten,Houten,Utrecht,VBO,5.165971,52.033599
Het Kant,267,,,3995GZ,Houten,Houten,Utrecht,VBO,5.165982,52.033569
Het Kant,269,,,3995GZ,Houten,Houten,Utrecht,VBO,5.165819,52.033627
Het Kant,271,,,3995GZ,Houten,Houten,Utrecht,VBO,5.165854,52.033600
Het Kant,273,,,3995GZ,Houten,Houten,Utrecht,VBO,5.165877,52.033571
Het Kant,275,,,3995GZ,Houten,Houten,Utrecht,VBO,5.165761,52.033579
Het Kant,277,,,3995GZ,Houten,Houten,Utrecht,VBO,5.165769,52.033548
Het Kant,279,,0001,3995GZ,Houten,Houten,Utrecht,VBO,5.165006,52.033550
Het Kant,279,,,3995GZ,Houten,Houten,Utrecht,VBO,5.164928,52.033686
Fossa Italica,1,,,3995XA,Houten,Houten,Utrecht,VBO,5.178235,52.018026
Fossa Italica,3,,,3995XA,Houten,Houten,Utrecht,VBO,5.178131,52.018014
Fossa Italica,5,,,3995XA,Houten,Houten,Utrecht,VBO,5.178043,52.017994
Fossa Italica,7,,,3995XA,Houten,Houten,Utrecht,VBO,5.177951,52.017969
Fossa Italica,9,,,3995XA,Houten,Houten,Utrecht,VBO,5.177869,52.017953
Fossa Italica,11,,,3995XA,Houten,Houten,Utrecht,VBO,5.177778,52.017930
Fossa Italica,13,,,3995XA,Houten,Houten,Utrecht,VBO,5.177669,52.017906
Fossa Italica,15,,,3995XA,Houten,Houten,Utrecht,VBO,5.177585,52.017883
Fossa Italica,17,,,3995XA,Houten,Houten,Utrecht,VBO,5.178216,52.018056
Fossa Italica,19,,,3995XA,Houten,Houten,Utrecht,VBO,5.178113,52.018036
Fossa Italica,21,,,3995XA,Houten,Houten,Utrecht,VBO,5.178023,52.018019
Fossa Italica,23,,,3995XA,Houten,Houten,Utrecht,VBO,5.177927,52.017998
Fossa Italica,25,,,3995XA,Houten,Houten,Utrecht,VBO,5.177839,52.017979
Fossa Italica,27,,,3995XA,Houten,Houten,Utrecht,VBO,5.177756,52.017953
Fossa Italica,29,,,3995XA,Houten,Houten,Utrecht,VBO,5.177661,52.017936
Fossa Italica,31,,,3995XA,Houten,Houten,Utrecht,VBO,5.177585,52.017914
Fossa Italica,33,,,3995XA,Houten,Houten,Utrecht,VBO,5.178189,52.018083
Fossa Italica,35,,,3995XA,Houten,Houten,Utrecht,VBO,5.178102,52.018063
Fossa Italica,37,,,3995XA,Houten,Houten,Utrecht,VBO,5.178015,52.018044
Fossa Italica,39,,,3995XA,Houten,Houten,Utrecht,VBO,5.177916,52.018021
Fossa Italica,41,,,3995XA,Houten,Houten,Utrecht,VBO,5.177828,52.018002
Fossa Italica,43,,,3995XA,Houten,Houten,Utrecht,VBO,5.177740,52.017973
Fossa Italica,45,,,3995XA,Houten,Houten,Utrecht,VBO,5.177661,52.017959
Fossa Italica,47,,,3995XA,Houten,Houten,Utrecht,VBO,5.177563,52.017938
Fossa Italica,51,,,3995XA,Houten,Houten,Utrecht,VBO,5.178058,52.017963
Fossa Italica,55,,,3995XA,Houten,Houten,Utrecht,VBO,5.177792,52.017901
Fossa Italica,57,,,3995XA,Houten,Houten,Utrecht,VBO,5.177691,52.017883
Fossa Italica,61,,,3995XA,Houten,Houten,Utrecht,VBO,5.177520,52.017837
Fossa Italica,63,,,3995XA,Houten,Houten,Utrecht,VBO,5.177417,52.017815
Fossa Italica,67,,,3995XA,Houten,Houten,Utrecht,VBO,5.177238,52.017774
Fossa Italica,69,,,3995XA,Houten,Houten,Utrecht,VBO,5.177154,52.017756
Fossa Italica,71,,,3995XA,Houten,Houten,Utrecht,VBO,5.177068,52.017728
Fossa Italica,73,,,3995XA,Houten,Houten,Utrecht,VBO,5.177505,52.017868
Fossa Italica,75,,,3995XA,Houten,Houten,Utrecht,VBO,5.177409,52.017849
Fossa Italica,77,,,3995XA,Houten,Houten,Utrecht,VBO,5.177319,52.017826
Fossa Italica,79,,,3995XA,Houten,Houten,Utrecht,VBO,5.177227,52.017803
Fossa Italica,81,,,3995XA,Houten,Houten,Utrecht,VBO,5.177138,52.017783
Fossa Italica,83,,,3995XA,Houten,Houten,Utrecht,VBO,5.177045,52.017755
Fossa Italica,85,,,3995XA,Houten,Houten,Utrecht,VBO,5.176901,52.017692
Fossa Italica,87,,,3995XA,Houten,Houten,Utrecht,VBO,5.177449,52.017884
Fossa Italica,89,,,3995XA,Houten,Houten,Utrecht,VBO,5.177355,52.017876
Fossa Italica,91,,,3995XA,Houten,Houten,Utrecht,VBO,5.177301,52.017853
Fossa Italica,93,,,3995XA,Houten,Houten,Utrecht,VBO,5.177209,52.017829
Fossa Italica,95,,,3995XA,Houten,Houten,Utrecht,VBO,5.177120,52.017809
Fossa Italica,97,,,3995XA,Houten,Houten,Utrecht,VBO,5.177030,52.017780
Fossa Italica,99,,,3995XA,Houten,Houten,Utrecht,VBO,5.176863,52.017727
Fossa Italica,101,,,3995XA,Houten,Houten,Utrecht,VBO,5.177478,52.017918
Fossa Italica,103,,,3995XA,Houten,Houten,Utrecht,VBO,5.177390,52.017898
Fossa Italica,105,,,3995XA,Houten,Houten,Utrecht,VBO,5.177290,52.017876
Fossa Italica,107,,,3995XA,Houten,Houten,Utrecht,VBO,5.177209,52.017852
Fossa Italica,109,,,3995XA,Houten,Houten,Utrecht,VBO,5.177109,52.017832
Fossa Italica,111,,,3995XA,Houten,Houten,Utrecht,VBO,5.177017,52.017808
Fossa Italica,113,,,3995XA,Houten,Houten,Utrecht,VBO,5.176839,52.017761
Fossa Italica,115,,,3995XB,Houten,Houten,Utrecht,VBO,5.176828,52.017580
Fossa Italica,117,,,3995XB,Houten,Houten,Utrecht,VBO,5.176762,52.017560
Fossa Italica,119,,,3995XB,Houten,Houten,Utrecht,VBO,5.176698,52.017539
Fossa Italica,121,,,3995XB,Houten,Houten,Utrecht,VBO,5.176635,52.017513
Fossa Italica,123,,,3995XB,Houten,Houten,Utrecht,VBO,5.176575,52.017491
Fossa Italica,125,,,3995XB,Houten,Houten,Utrecht,VBO,5.176508,52.017465
Fossa Italica,127,,,3995XB,Houten,Houten,Utrecht,VBO,5.176444,52.017441
Fossa Italica,129,,,3995XB,Houten,Houten,Utrecht,VBO,5.176381,52.017418
Fossa Italica,131,,,3995XB,Houten,Houten,Utrecht,VBO,5.176317,52.017394
Fossa Italica,133,,,3995XB,Houten,Houten,Utrecht,VBO,5.176259,52.017377
Fossa Italica,135,,,3995XB,Houten,Houten,Utrecht,VBO,5.176773,52.017531
Fossa Italica,137,,,3995XB,Houten,Houten,Utrecht,VBO,5.176733,52.017522
Fossa Italica,139,,,3995XB,Houten,Houten,Utrecht,VBO,5.176634,52.017488
Fossa Italica,141,,,3995XB,Houten,Houten,Utrecht,VBO,5.176604,52.017479
Fossa Italica,143,,,3995XB,Houten,Houten,Utrecht,VBO,5.176502,52.017441
Fossa Italica,145,,,3995XB,Houten,Houten,Utrecht,VBO,5.176475,52.017431
Fossa Italica,147,,,3995XB,Houten,Houten,Utrecht,VBO,5.176391,52.017396
Fossa Italica,149,,,3995XB,Houten,Houten,Utrecht,VBO,5.176346,52.017380
Fossa Italica,151,,,3995XC,Houten,Houten,Utrecht,VBO,5.175849,52.017195
Fossa Italica,153,,,3995XC,Houten,Houten,Utrecht,VBO,5.175916,52.017158
Fossa Italica,155,,,3995XC,Houten,Houten,Utrecht,VBO,5.176014,52.017087
Fossa Italica,157,,,3995XC,Houten,Houten,Utrecht,VBO,5.175861,52.017210
Fossa Italica,159,,,3995XC,Houten,Houten,Utrecht,VBO,5.175927,52.017174
Fossa Italica,161,,,3995XC,Houten,Houten,Utrecht,VBO,5.176031,52.017103
Fossa Italica,163,,,3995XC,Houten,Houten,Utrecht,VBO,5.175873,52.017227
Fossa Italica,165,,,3995XC,Houten,Houten,Utrecht,VBO,5.175936,52.017190
Fossa Italica,167,,,3995XC,Houten,Houten,Utrecht,VBO,5.176041,52.017122
Fossa Italica,169,,,3995XC,Houten,Houten,Utrecht,VBO,5.175881,52.017245
Fossa Italica,171,,,3995XC,Houten,Houten,Utrecht,VBO,5.175947,52.017209
Fossa Italica,173,,,3995XC,Houten,Houten,Utrecht,VBO,5.176044,52.017142
Fossa Italica,175,,,3995XC,Houten,Houten,Utrecht,VBO,5.175896,52.017263
Fossa Italica,177,,,3995XC,Houten,Houten,Utrecht,VBO,5.176048,52.017161
Fossa Italica,179,,,3995XC,Houten,Houten,Utrecht,VBO,5.176050,52.016968
Fossa Italica,181,,,3995XC,Houten,Houten,Utrecht,VBO,5.176079,52.016917
Fossa Italica,183,,,3995XC,Houten,Houten,Utrecht,VBO,5.176107,52.016870
Fossa Italica,185,,,3995XC,Houten,Houten,Utrecht,VBO,5.176145,52.016823
Fossa Italica,187,,,3995XC,Houten,Houten,Utrecht,VBO,5.176165,52.016778
Fossa Italica,189,,,3995XC,Houten,Houten,Utrecht,VBO,5.176198,52.016723
Fossa Italica,191,,,3995XC,Houten,Houten,Utrecht,VBO,5.176239,52.016677
Fossa Italica,193,,,3995XC,Houten,Houten,Utrecht,VBO,5.176261,52.016629
Fossa Italica,195,,,3995XC,Houten,Houten,Utrecht,VBO,5.176281,52.016582
Fossa Italica,197,,,3995XC,Houten,Houten,Utrecht,VBO,5.176313,52.016531
Fossa Italica,199,,,3995XC,Houten,Houten,Utrecht,VBO,5.176360,52.016456
Fossa Italica,201,,,3995XC,Houten,Houten,Utrecht,VBO,5.176408,52.016388
Fossa Italica,203,,,3995XC,Houten,Houten,Utrecht,VBO,5.176505,52.016355
Fossa Italica,205,,,3995XC,Houten,Houten,Utrecht,VBO,5.176369,52.016470
Fossa Italica,207,,,3995XC,Houten,Houten,Utrecht,VBO,5.176419,52.016406
Fossa Italica,209,,,3995XC,Houten,Houten,Utrecht,VBO,5.176511,52.016371
Fossa Italica,211,,,3995XC,Houten,Houten,Utrecht,VBO,5.176378,52.016487
Fossa Italica,213,,,3995XC,Houten,Houten,Utrecht,VBO,5.176432,52.016424
Fossa Italica,215,,,3995XC,Houten,Houten,Utrecht,VBO,5.176519,52.016388
Fossa Italica,217,,,3995XC,Houten,Houten,Utrecht,VBO,5.176389,52.016503
Fossa Italica,219,,,3995XC,Houten,Houten,Utrecht,VBO,5.176525,52.016406
Fossa Italica,221,,,3995XC,Houten,Houten,Utrecht,VBO,5.176398,52.016520
Fossa Italica,223,,,3995XC,Houten,Houten,Utrecht,VBO,5.176534,52.016422
Fossa Italica,2,,,3995XD,Houten,Houten,Utrecht,VBO,5.178540,52.017634
Fossa Italica,4,,,3995XD,Houten,Houten,Utrecht,VBO,5.178361,52.017743
Fossa Italica,6,,,3995XD,Houten,Houten,Utrecht,VBO,5.178273,52.017725
Fossa Italica,8,,,3995XD,Houten,Houten,Utrecht,VBO,5.178166,52.017700
Fossa Italica,10,,,3995XD,Houten,Houten,Utrecht,VBO,5.178073,52.017676
Fossa Italica,12,,,3995XD,Houten,Houten,Utrecht,VBO,5.177947,52.017648
Fossa Italica,14,,,3995XD,Houten,Houten,Utrecht,VBO,5.177835,52.017628
Fossa Italica,16,,,3995XD,Houten,Houten,Utrecht,VBO,5.178809,52.017145
Fossa Italica,18,,,3995XD,Houten,Houten,Utrecht,VBO,5.178770,52.017202
Fossa Italica,20,,,3995XD,Houten,Houten,Utrecht,VBO,5.178743,52.017271
Fossa Italica,22,,,3995XD,Houten,Houten,Utrecht,VBO,5.178672,52.017344
Fossa Italica,24,,,3995XD,Houten,Houten,Utrecht,VBO,5.178625,52.017422
Fossa Italica,26,,,3995XD,Houten,Houten,Utrecht,VBO,5.178574,52.017516
Fossa Italica,28,,,3995XD,Houten,Houten,Utrecht,VBO,5.178532,52.017582
Fossa Italica,30,,,3995XD,Houten,Houten,Utrecht,VBO,5.178495,52.017645
Fossa Italica,32,,,3995XD,Houten,Houten,Utrecht,VBO,5.178371,52.017725
Fossa Italica,34,,,3995XD,Houten,Houten,Utrecht,VBO,5.178281,52.017705
Fossa Italica,36,,,3995XD,Houten,Houten,Utrecht,VBO,5.178175,52.017679
Fossa Italica,38,,,3995XD,Houten,Houten,Utrecht,VBO,5.178077,52.017657
Fossa Italica,40,,,3995XD,Houten,Houten,Utrecht,VBO,5.177960,52.017629
Fossa Italica,42,,,3995XD,Houten,Houten,Utrecht,VBO,5.177854,52.017608
Fossa Italica,44,,,3995XD,Houten,Houten,Utrecht,VBO,5.178767,52.017119
Fossa Italica,46,,,3995XD,Houten,Houten,Utrecht,VBO,5.178733,52.017175
Fossa Italica,48,,,3995XD,Houten,Houten,Utrecht,VBO,5.178685,52.017245
Fossa Italica,50,,,3995XD,Houten,Houten,Utrecht,VBO,5.178636,52.017324
Fossa Italica,52,,,3995XD,Houten,Houten,Utrecht,VBO,5.178585,52.017400
Fossa Italica,54,,,3995XD,Houten,Houten,Utrecht,VBO,5.178530,52.017492
Fossa Italica,56,,,3995XD,Houten,Houten,Utrecht,VBO,5.178481,52.017565
Fossa Italica,58,,,3995XD,Houten,Houten,Utrecht,VBO,5.178447,52.017621
Fossa Italica,60,,,3995XD,Houten,Houten,Utrecht,VBO,5.178382,52.017707
Fossa Italica,62,,,3995XD,Houten,Houten,Utrecht,VBO,5.178292,52.017689
Fossa Italica,64,,,3995XD,Houten,Houten,Utrecht,VBO,5.178189,52.017661
Fossa Italica,66,,,3995XD,Houten,Houten,Utrecht,VBO,5.178095,52.017638
Fossa Italica,68,,,3995XD,Houten,Houten,Utrecht,VBO,5.177971,52.017607
Fossa Italica,70,,,3995XD,Houten,Houten,Utrecht,VBO,5.177863,52.017587
Fossa Italica,72,,,3995XD,Houten,Houten,Utrecht,VBO,5.178391,52.017690
Fossa Italica,74,,,3995XD,Houten,Houten,Utrecht,VBO,5.178298,52.017669
Fossa Italica,76,,,3995XD,Houten,Houten,Utrecht,VBO,5.178197,52.017644
Fossa Italica,78,,,3995XD,Houten,Houten,Utrecht,VBO,5.178100,52.017621
Fossa Italica,80,,,3995XD,Houten,Houten,Utrecht,VBO,5.177982,52.017589
Fossa Italica,82,,,3995XD,Houten,Houten,Utrecht,VBO,5.177877,52.017566
Fossa Italica,84,,,3995XD,Houten,Houten,Utrecht,VBO,5.177866,52.017437
Fossa Italica,98,,,3995XD,Houten,Houten,Utrecht,VBO,5.177354,52.017538
Fossa Italica,100,,,3995XD,Houten,Houten,Utrecht,VBO,5.177219,52.017495
Fossa Italica,102,,,3995XE,Houten,Houten,Utrecht,VBO,5.176835,52.017291
Fossa Italica,104,,,3995XE,Houten,Houten,Utrecht,VBO,5.176759,52.017263
Fossa Italica,106,,,3995XE,Houten,Houten,Utrecht,VBO,5.176702,52.017242
Fossa Italica,108,,,3995XE,Houten,Houten,Utrecht,VBO,5.176642,52.017222
Fossa Italica,110,,,3995XE,Houten,Houten,Utrecht,VBO,5.176566,52.017195
Fossa Italica,112,,,3995XE,Houten,Houten,Utrecht,VBO,5.176501,52.017169
Fossa Italica,114,,,3995XE,Houten,Houten,Utrecht,VBO,5.176428,52.017142
Fossa Italica,116,,,3995XE,Houten,Houten,Utrecht,VBO,5.176873,52.016419
Fossa Italica,118,,,3995XE,Houten,Houten,Utrecht,VBO,5.176968,52.016438
Fossa Italica,120,,,3995XE,Houten,Houten,Utrecht,VBO,5.177040,52.016457
Fossa Italica,122,,,3995XE,Houten,Houten,Utrecht,VBO,5.177115,52.016474
Fossa Italica,124,,,3995XE,Houten,Houten,Utrecht,VBO,5.177151,52.016484
Fossa Italica,126,,,3995XE,Houten,Houten,Utrecht,VBO,5.177233,52.016503
Fossa Italica,128,,,3995XE,Houten,Houten,Utrecht,VBO,5.177335,52.016534
Fossa Hispanica,1,,,3995XG,Houten,Houten,Utrecht,VBO,5.176655,52.016739
Fossa Hispanica,2,,,3995XG,Houten,Houten,Utrecht,VBO,5.176590,52.016824
Fossa Hispanica,3,,,3995XG,Houten,Houten,Utrecht,VBO,5.176763,52.016760
Fossa Hispanica,4,,,3995XG,Houten,Houten,Utrecht,VBO,5.176713,52.016848
Fossa Hispanica,5,,,3995XG,Houten,Houten,Utrecht,VBO,5.176870,52.016784
Fossa Hispanica,6,,,3995XG,Houten,Houten,Utrecht,VBO,5.176816,52.016880
Fossa Hispanica,7,,,3995XG,Houten,Houten,Utrecht,VBO,5.176994,52.016816
Fossa Hispanica,8,,,3995XG,Houten,Houten,Utrecht,VBO,5.176943,52.016912
Fossa Hispanica,9,,,3995XG,Houten,Houten,Utrecht,VBO,5.177102,52.016835
Fossa Hispanica,10,,,3995XG,Houten,Houten,Utrecht,VBO,5.177045,52.016936
Fossa Iberica,1,,,3995XH,Houten,Houten,Utrecht,VBO,5.176992,52.017316
Fossa Iberica,3,,,3995XH,Houten,Houten,Utrecht,VBO,5.177074,52.017338
Fossa Iberica,5,,,3995XH,Houten,Houten,Utrecht,VBO,5.177043,52.017236
Fossa Iberica,7,,,3995XH,Houten,Houten,Utrecht,VBO,5.177099,52.017299
Fossa Iberica,9,,,3995XH,Houten,Houten,Utrecht,VBO,5.177122,52.017259
Fossa Iberica,11,,,3995XH,Houten,Houten,Utrecht,VBO,5.177089,52.017148
Fossa Iberica,13,,,3995XH,Houten,Houten,Utrecht,VBO,5.177153,52.017214
Fossa Iberica,15,,,3995XH,Houten,Houten,Utrecht,VBO,5.177173,52.017169
Fossa Iberica,17,,,3995XH,Houten,Houten,Utrecht,VBO,5.177193,52.017127
Fossa Iberica,19,,,3995XH,Houten,Houten,Utrecht,VBO,5.177228,52.017080
Fossa Iberica,21,,,3995XH,Houten,Houten,Utrecht,VBO,5.177148,52.017062
Fossa Iberica,23,,,3995XH,Houten,Houten,Utrecht,VBO,5.177171,52.017022
Fossa Iberica,25,,,3995XH,Houten,Houten,Utrecht,VBO,5.177247,52.017038
Fossa Iberica,27,,,3995XH,Houten,Houten,Utrecht,VBO,5.177279,52.016998
Fossa Iberica,29,,,3995XH,Houten,Houten,Utrecht,VBO,5.177344,52.016895
Fossa Iberica,31,,,3995XH,Houten,Houten,Utrecht,VBO,5.177390,52.016850
Fossa Iberica,33,,,3995XH,Houten,Houten,Utrecht,VBO,5.177302,52.016827
Fossa Iberica,35,,,3995XH,Houten,Houten,Utrecht,VBO,5.177418,52.016812
Fossa Iberica,37,,,3995XH,Houten,Houten,Utrecht,VBO,5.177452,52.016773
Fossa Iberica,39,,,3995XH,Houten,Houten,Utrecht,VBO,5.177376,52.016742
Fossa Iberica,41,,,3995XH,Houten,Houten,Utrecht,VBO,5.177486,52.016726
Fossa Iberica,43,,,3995XH,Houten,Houten,Utrecht,VBO,5.177512,52.016690
Fossa Iberica,45,,,3995XH,Houten,Houten,Utrecht,VBO,5.177433,52.016663
Fossa Iberica,47,,,3995XH,Houten,Houten,Utrecht,VBO,5.177464,52.016620
Fossa Iberica,49,,,3995XH,Houten,Houten,Utrecht,VBO,5.177549,52.016644
Fossa Iberica,51,,,3995XH,Houten,Houten,Utrecht,VBO,5.177583,52.016601
Fossa Iberica,2,,,3995XJ,Houten,Houten,Utrecht,VBO,5.177272,52.017466
Fossa Iberica,4,,,3995XJ,Houten,Houten,Utrecht,VBO,5.177551,52.017552
Fossa Iberica,6,,,3995XJ,Houten,Houten,Utrecht,VBO,5.177433,52.017531
Fossa Iberica,8,,,3995XJ,Houten,Houten,Utrecht,VBO,5.177329,52.017509
Fossa Iberica,10,,,3995XJ,Houten,Houten,Utrecht,VBO,5.177307,52.017384
Fossa Iberica,12,,,3995XJ,Houten,Houten,Utrecht,VBO,5.177564,52.017543
Fossa Iberica,14,,,3995XJ,Houten,Houten,Utrecht,VBO,5.177442,52.017516
Fossa Iberica,16,,,3995XJ,Houten,Houten,Utrecht,VBO,5.177336,52.017490
Fossa Iberica,18,,,3995XJ,Houten,Houten,Utrecht,VBO,5.177357,52.017374
Fossa Iberica,20,,,3995XJ,Houten,Houten,Utrecht,VBO,5.177385,52.017328
Fossa Iberica,22,,,3995XJ,Houten,Houten,Utrecht,VBO,5.177443,52.017248
Fossa Iberica,24,,,3995XJ,Houten,Houten,Utrecht,VBO,5.177479,52.017179
Fossa Iberica,26,,,3995XJ,Houten,Houten,Utrecht,VBO,5.177573,52.017525
Fossa Iberica,28,,,3995XJ,Houten,Houten,Utrecht,VBO,5.177455,52.017497
Fossa Iberica,30,,,3995XJ,Houten,Houten,Utrecht,VBO,5.177350,52.017470
Fossa Iberica,32,,,3995XJ,Houten,Houten,Utrecht,VBO,5.177367,52.017398
Fossa Iberica,34,,,3995XJ,Houten,Houten,Utrecht,VBO,5.177417,52.017344
Fossa Iberica,36,,,3995XJ,Houten,Houten,Utrecht,VBO,5.177468,52.017266
Fossa Iberica,38,,,3995XJ,Houten,Houten,Utrecht,VBO,5.177503,52.017197
Fossa Iberica,40,,,3995XJ,Houten,Houten,Utrecht,VBO,5.177587,52.017503
Fossa Iberica,42,,,3995XJ,Houten,Houten,Utrecht,VBO,5.177466,52.017474
Fossa Iberica,44,,,3995XJ,Houten,Houten,Utrecht,VBO,5.177362,52.017450
Fossa Iberica,46,,,3995XJ,Houten,Houten,Utrecht,VBO,5.177373,52.017430
Fossa Iberica,50,,,3995XJ,Houten,Houten,Utrecht,VBO,5.177368,52.017285
Fossa Iberica,52,,,3995XJ,Houten,Houten,Utrecht,VBO,5.177367,52.017229
Fossa Iberica,54,,,3995XJ,Houten,Houten,Utrecht,VBO,5.177409,52.017162
Fossa Iberica,56,,,3995XJ,Houten,Houten,Utrecht,VBO,5.177442,52.017103
Fossa Iberica,58,,,3995XJ,Houten,Houten,Utrecht,VBO,5.177484,52.017029
Fossa Iberica,60,,,3995XJ,Houten,Houten,Utrecht,VBO,5.177489,52.017123
Fossa Iberica,62,,,3995XJ,Houten,Houten,Utrecht,VBO,5.177519,52.017055
Fossa Iberica,64,,,3995XJ,Houten,Houten,Utrecht,VBO,5.177557,52.016988
Fossa Iberica,66,,,3995XJ,Houten,Houten,Utrecht,VBO,5.177725,52.016842
Fossa Iberica,68,,,3995XJ,Houten,Houten,Utrecht,VBO,5.177834,52.016870
Fossa Iberica,70,,,3995XJ,Houten,Houten,Utrecht,VBO,5.177937,52.016896
Fossa Iberica,72,,,3995XJ,Houten,Houten,Utrecht,VBO,5.178018,52.016913
Fossa Iberica,74,,,3995XJ,Houten,Houten,Utrecht,VBO,5.178263,52.016971
Fossa Iberica,76,,,3995XJ,Houten,Houten,Utrecht,VBO,5.177546,52.017132
Fossa Iberica,78,,,3995XJ,Houten,Houten,Utrecht,VBO,5.177564,52.017064
Fossa Iberica,80,,,3995XJ,Houten,Houten,Utrecht,VBO,5.177600,52.016996
Fossa Iberica,82,,,3995XJ,Houten,Houten,Utrecht,VBO,5.177629,52.016948
Fossa Iberica,84,,,3995XJ,Houten,Houten,Utrecht,VBO,5.177718,52.016858
Fossa Iberica,86,,,3995XJ,Houten,Houten,Utrecht,VBO,5.177823,52.016886
Fossa Iberica,88,,,3995XJ,Houten,Houten,Utrecht,VBO,5.177929,52.016913
Fossa Iberica,90,,,3995XJ,Houten,Houten,Utrecht,VBO,5.178006,52.016930
Fossa Iberica,92,,,3995XJ,Houten,Houten,Utrecht,VBO,5.178135,52.016954
Fossa Iberica,94,,,3995XJ,Houten,Houten,Utrecht,VBO,5.178257,52.016990
Fossa Iberica,96,,,3995XJ,Houten,Houten,Utrecht,VBO,5.177589,52.017140
Fossa Iberica,98,,,3995XJ,Houten,Houten,Utrecht,VBO,5.177608,52.017072
Fossa Iberica,100,,,3995XJ,Houten,Houten,Utrecht,VBO,5.177645,52.017009
Fossa Iberica,102,,,3995XJ,Houten,Houten,Utrecht,VBO,5.177673,52.016956
Fossa Iberica,104,,,3995XJ,Houten,Houten,Utrecht,VBO,5.177710,52.016879
Fossa Iberica,106,,,3995XJ,Houten,Houten,Utrecht,VBO,5.177813,52.016903
Fossa Iberica,108,,,3995XJ,Houten,Houten,Utrecht,VBO,5.177919,52.016929
Fossa Iberica,110,,,3995XJ,Houten,Houten,Utrecht,VBO,5.177996,52.016948
Fossa Iberica,112,,,3995XJ,Houten,Houten,Utrecht,VBO,5.178123,52.016975
Fossa Iberica,114,,,3995XJ,Houten,Houten,Utrecht,VBO,5.178248,52.017006
Fossa Iberica,116,,,3995XJ,Houten,Houten,Utrecht,VBO,5.177723,52.016965
Fossa Iberica,118,,,3995XJ,Houten,Houten,Utrecht,VBO,5.177697,52.016901
Fossa Iberica,120,,,3995XJ,Houten,Houten,Utrecht,VBO,5.177799,52.016923
Fossa Iberica,122,,,3995XJ,Houten,Houten,Utrecht,VBO,5.177911,52.016948
Fossa Iberica,124,,,3995XJ,Houten,Houten,Utrecht,VBO,5.177982,52.016965
Fossa Iberica,126,,,3995XJ,Houten,Houten,Utrecht,VBO,5.178111,52.016996
Fossa Iberica,128,,,3995XJ,Houten,Houten,Utrecht,VBO,5.178244,52.017027
Piazza,1,,,3995XK,Houten,Houten,Utrecht,VBO,5.177793,52.016849
Piazza,2,,,3995XK,Houten,Houten,Utrecht,VBO,5.177727,52.016721
Piazza,10,,,3995XK,Houten,Houten,Utrecht,VBO,5.178165,52.017065
Piazza,11,,,3995XK,Houten,Houten,Utrecht,VBO,5.178439,52.016861
Piazza,12,,,3995XK,Houten,Houten,Utrecht,VBO,5.178533,52.016881
Piazza,13,,,3995XK,Houten,Houten,Utrecht,VBO,5.178629,52.016904
Piazza,14,,,3995XK,Houten,Houten,Utrecht,VBO,5.178743,52.016929
Piazza,15,,,3995XK,Houten,Houten,Utrecht,VBO,5.178852,52.016951
Piazza,16,,,3995XK,Houten,Houten,Utrecht,VBO,5.178432,52.016881
Piazza,17,,,3995XK,Houten,Houten,Utrecht,VBO,5.178524,52.016899
Piazza,18,,,3995XK,Houten,Houten,Utrecht,VBO,5.178615,52.016921
Piazza,19,,,3995XK,Houten,Houten,Utrecht,VBO,5.178733,52.016948
Piazza,20,,,3995XK,Houten,Houten,Utrecht,VBO,5.178840,52.016971
Piazza,21,,,3995XK,Houten,Houten,Utrecht,VBO,5.178425,52.016902
Piazza,22,,,3995XK,Houten,Houten,Utrecht,VBO,5.178514,52.016919
Piazza,23,,,3995XK,Houten,Houten,Utrecht,VBO,5.178607,52.016943
Piazza,24,,,3995XK,Houten,Houten,Utrecht,VBO,5.178721,52.016969
Piazza,25,,,3995XK,Houten,Houten,Utrecht,VBO,5.178830,52.016988
Piazza,26,,,3995XK,Houten,Houten,Utrecht,VBO,5.178414,52.016922
Piazza,27,,,3995XK,Houten,Houten,Utrecht,VBO,5.178498,52.016940
Piazza,28,,,3995XK,Houten,Houten,Utrecht,VBO,5.178598,52.016963
Piazza,29,,,3995XK,Houten,Houten,Utrecht,VBO,5.178711,52.016988
Piazza,30,,,3995XK,Houten,Houten,Utrecht,VBO,5.178814,52.017008
Piazza,31,,,3995XK,Houten,Houten,Utrecht,VBO,5.178404,52.016943
Piazza,32,,,3995XK,Houten,Houten,Utrecht,VBO,5.178487,52.016963
Piazza,33,,,3995XK,Houten,Houten,Utrecht,VBO,5.178585,52.016984
Piazza,34,,,3995XK,Houten,Houten,Utrecht,VBO,5.178700,52.017009
Piazza,35,,,3995XK,Houten,Houten,Utrecht,VBO,5.178797,52.017045
Piazza,36,,,3995XL,Houten,Houten,Utrecht,VBO,5.179103,52.016656
Piazza,37,,,3995XL,Houten,Houten,Utrecht,VBO,5.179000,52.016631
Piazza,38,,,3995XL,Houten,Houten,Utrecht,VBO,5.178895,52.016606
Piazza,39,,,3995XL,Houten,Houten,Utrecht,VBO,5.178786,52.016579
Piazza,40,,,3995XL,Houten,Houten,Utrecht,VBO,5.178687,52.016559
Piazza,41,,,3995XL,Houten,Houten,Utrecht,VBO,5.178786,52.016421
Piazza,42,,,3995XL,Houten,Houten,Utrecht,VBO,5.178877,52.016441
Piazza,43,,,3995XL,Houten,Houten,Utrecht,VBO,5.178982,52.016462
Piazza,44,,,3995XL,Houten,Houten,Utrecht,VBO,5.179087,52.016480
Piazza,45,,,3995XL,Houten,Houten,Utrecht,VBO,5.179179,52.016498
Piazza,46,,,3995XL,Houten,Houten,Utrecht,VBO,5.179084,52.016682
Piazza,47,,,3995XL,Houten,Houten,Utrecht,VBO,5.178986,52.016654
Piazza,48,,,3995XL,Houten,Houten,Utrecht,VBO,5.178878,52.016634
Piazza,49,,,3995XL,Houten,Houten,Utrecht,VBO,5.178768,52.016606
Piazza,50,,,3995XL,Houten,Houten,Utrecht,VBO,5.178674,52.016581
Piazza,51,,,3995XL,Houten,Houten,Utrecht,VBO,5.178778,52.016444
Piazza,52,,,3995XL,Houten,Houten,Utrecht,VBO,5.178867,52.016462
Piazza,53,,,3995XL,Houten,Houten,Utrecht,VBO,5.178969,52.016484
Piazza,54,,,3995XL,Houten,Houten,Utrecht,VBO,5.179075,52.016501
Piazza,55,,,3995XL,Houten,Houten,Utrecht,VBO,5.179167,52.016519
Piazza,56,,,3995XL,Houten,Houten,Utrecht,VBO,5.179069,52.016707
Piazza,57,,,3995XL,Houten,Houten,Utrecht,VBO,5.178973,52.016682
Piazza,58,,,3995XL,Houten,Houten,Utrecht,VBO,5.178863,52.016653
Piazza,59,,,3995XL,Houten,Houten,Utrecht,VBO,5.178753,52.016629
Piazza,60,,,3995XL,Houten,Houten,Utrecht,VBO,5.178652,52.016602
Piazza,61,,,3995XL,Houten,Houten,Utrecht,VBO,5.178762,52.016466
Piazza,62,,,3995XL,Houten,Houten,Utrecht,VBO,5.178853,52.016483
Piazza,63,,,3995XL,Houten,Houten,Utrecht,VBO,5.178955,52.016506
Piazza,64,,,3995XL,Houten,Houten,Utrecht,VBO,5.179059,52.016524
Piazza,65,,,3995XL,Houten,Houten,Utrecht,VBO,5.179153,52.016544
Piazza,66,,,3995XL,Houten,Houten,Utrecht,VBO,5.179056,52.016731
Piazza,67,,,3995XL,Houten,Houten,Utrecht,VBO,5.178961,52.016708
Piazza,68,,,3995XL,Houten,Houten,Utrecht,VBO,5.178848,52.016675
Piazza,69,,,3995XL,Houten,Houten,Utrecht,VBO,5.178739,52.016653
Piazza,70,,,3995XL,Houten,Houten,Utrecht,VBO,5.178640,52.016624
Piazza,71,,,3995XL,Houten,Houten,Utrecht,VBO,5.178742,52.016486
Piazza,72,,,3995XL,Houten,Houten,Utrecht,VBO,5.178840,52.016506
Piazza,73,,,3995XL,Houten,Houten,Utrecht,VBO,5.178937,52.016531
Piazza,74,,,3995XL,Houten,Houten,Utrecht,VBO,5.179048,52.016550
Piazza,75,,,3995XL,Houten,Houten,Utrecht,VBO,5.179136,52.016571
Piazza,76,,,3995XL,Houten,Houten,Utrecht,VBO,5.178889,52.016712
Piazza,77,,,3995XL,Houten,Houten,Utrecht,VBO,5.178659,52.016660
Piazza,80,,,3995XL,Houten,Houten,Utrecht,VBO,5.178585,52.016621
Piazza,83,,,3995XL,Houten,Houten,Utrecht,VBO,5.178406,52.016489
Piazza,86,,,3995XL,Houten,Houten,Utrecht,VBO,5.178497,52.016364
Piazza,87,,,3995XL,Houten,Houten,Utrecht,VBO,5.178555,52.016335
Piazza,93,,,3995XL,Houten,Houten,Utrecht,VBO,5.178996,52.016328
Piazza,94,,,3995XL,Houten,Houten,Utrecht,VBO,5.178795,52.016264
Piazza,95,,,3995XL,Houten,Houten,Utrecht,VBO,5.178721,52.016237
Piazza,96,,,3995XL,Houten,Houten,Utrecht,VBO,5.178639,52.016216
Piazza,97,,,3995XL,Houten,Houten,Utrecht,VBO,5.178565,52.016200
Piazza,98,,,3995XL,Houten,Houten,Utrecht,VBO,5.178488,52.016179
Piazza,99,,,3995XL,Houten,Houten,Utrecht,VBO,5.178417,52.016166
Piazza,100,,,3995XL,Houten,Houten,Utrecht,VBO,5.178335,52.016146
Piazza,101,,,3995XL,Houten,Houten,Utrecht,VBO,5.178256,52.016127
Piazza,102,,,3995XL,Houten,Houten,Utrecht,VBO,5.178172,52.016135
Piazza,104,,,3995XL,Houten,Houten,Utrecht,VBO,5.177932,52.016178
Piazza,105,,,3995XL,Houten,Houten,Utrecht,VBO,5.177871,52.016211
Piazza,106,,,3995XL,Houten,Houten,Utrecht,VBO,5.177837,52.016257
Piazza,107,,,3995XL,Houten,Houten,Utrecht,VBO,5.177799,52.016302
Piazza,108,,,3995XL,Houten,Houten,Utrecht,VBO,5.177760,52.016347
Piazza,109,,,3995XL,Houten,Houten,Utrecht,VBO,5.177734,52.016395
Piazza,110,,,3995XL,Houten,Houten,Utrecht,VBO,5.177700,52.016434
Piazza,111,,,3995XL,Houten,Houten,Utrecht,VBO,5.177679,52.016475
Cardo,1,,,3995XM,Houten,Houten,Utrecht,VBO,5.177629,52.017548
Cardo,5,,,3995XM,Houten,Houten,Utrecht,VBO,5.177666,52.017468
Cardo,7,,,3995XM,Houten,Houten,Utrecht,VBO,5.177749,52.017329
Cardo,9,,,3995XM,Houten,Houten,Utrecht,VBO,5.177792,52.017272
Cardo,10,,,3995XM,Houten,Houten,Utrecht,VBO,5.177866,52.017437
Cardo,11,,,3995XM,Houten,Houten,Utrecht,VBO,5.177831,52.017198
Cardo,12,,,3995XM,Houten,Houten,Utrecht,VBO,5.178165,52.017065
Cardo,13,,,3995XM,Houten,Houten,Utrecht,VBO,5.177866,52.017135
Cardo,15,,,3995XM,Houten,Houten,Utrecht,VBO,5.177961,52.017084
Cardo,17,,,3995XM,Houten,Houten,Utrecht,VBO,5.178021,52.017014
Cardo,19,,,3995XM,Houten,Houten,Utrecht,VBO,5.178066,52.016935
Cella Asia,2,,,3995XP,Houten,Houten,Utrecht,VBO,5.179601,52.015597
Cella Asia,4,,,3995XP,Houten,Houten,Utrecht,VBO,5.179562,52.015653
Cella Asia,6,,,3995XP,Houten,Houten,Utrecht,VBO,5.179529,52.015705
Cella Asia,8,,,3995XP,Houten,Houten,Utrecht,VBO,5.179495,52.015765
Cella Asia,10,,,3995XP,Houten,Houten,Utrecht,VBO,5.179292,52.015858
Cella Asia,12,,,3995XP,Houten,Houten,Utrecht,VBO,5.179263,52.015906
Cella Asia,14,,,3995XP,Houten,Houten,Utrecht,VBO,5.179235,52.015951
Cella Asia,16,,,3995XP,Houten,Houten,Utrecht,VBO,5.179209,52.015994
Cella Asia,18,,,3995XP,Houten,Houten,Utrecht,VBO,5.179176,52.016038
Cella Asia,20,,,3995XP,Houten,Houten,Utrecht,VBO,5.179144,52.016088
Cella Asia,22,,,3995XP,Houten,Houten,Utrecht,VBO,5.179116,52.016130
Cella Asia,24,,,3995XP,Houten,Houten,Utrecht,VBO,5.179081,52.016178
Cella Asia,26,,,3995XP,Houten,Houten,Utrecht,VBO,5.179060,52.016222
Cella Asia,28,,,3995XP,Houten,Houten,Utrecht,VBO,5.179038,52.016273
Cella Gallia,2,,,3995XR,Houten,Houten,Utrecht,VBO,5.179408,52.015570
Cella Gallia,4,,,3995XR,Houten,Houten,Utrecht,VBO,5.179331,52.015552
Cella Gallia,6,,,3995XR,Houten,Houten,Utrecht,VBO,5.179252,52.015532
Cella Gallia,8,,,3995XR,Houten,Houten,Utrecht,VBO,5.179179,52.015511
Cella Gallia,10,,,3995XR,Houten,Houten,Utrecht,VBO,5.179104,52.015496
Cella Gallia,12,,,3995XR,Houten,Houten,Utrecht,VBO,5.179019,52.015476
Cella Gallia,14,,,3995XR,Houten,Houten,Utrecht,VBO,5.178941,52.015458
Cella Gallia,16,,,3995XR,Houten,Houten,Utrecht,VBO,5.178869,52.015438
Cella Gallia,18,,,3995XR,Houten,Houten,Utrecht,VBO,5.178803,52.015421
Cella Gallia,20,,,3995XR,Houten,Houten,Utrecht,VBO,5.178724,52.015405
Cella Gallia,22,,,3995XR,Houten,Houten,Utrecht,VBO,5.178636,52.015384
Cella Gallia,24,,,3995XR,Houten,Houten,Utrecht,VBO,5.178455,52.015347
Cella Gallia,26,,,3995XR,Houten,Houten,Utrecht,VBO,5.178368,52.015328
Cella Gallia,28,,,3995XR,Houten,Houten,Utrecht,VBO,5.178300,52.015308
Cella Gallia,30,,,3995XR,Houten,Houten,Utrecht,VBO,5.178221,52.015289
Cella Gallia,32,,,3995XR,Houten,Houten,Utrecht,VBO,5.178141,52.015270
Cella Gallia,34,,,3995XR,Houten,Houten,Utrecht,VBO,5.178059,52.015257
Cella Gallia,36,,,3995XR,Houten,Houten,Utrecht,VBO,5.177985,52.015237
Cella Gallia,38,,,3995XR,Houten,Houten,Utrecht,VBO,5.177902,52.015216
Cella Gallia,40,,,3995XR,Houten,Houten,Utrecht,VBO,5.177827,52.015205
Cella Gallia,42,,,3995XR,Houten,Houten,Utrecht,VBO,5.177750,52.015181
Cella Gallia,44,,,3995XR,Houten,Houten,Utrecht,VBO,5.177675,52.015169
Cella Gallia,46,,,3995XR,Houten,Houten,Utrecht,VBO,5.177599,52.015147
Cella Gallia,48,,,3995XR,Houten,Houten,Utrecht,VBO,5.177519,52.015126
Cella Gallia,50,,,3995XR,Houten,Houten,Utrecht,VBO,5.177338,52.015168
Cella Gallia,52,,,3995XR,Houten,Houten,Utrecht,VBO,5.177338,52.015146
Cella Gallia,54,,,3995XR,Houten,Houten,Utrecht,VBO,5.177338,52.015128
Cella Gallia,56,,,3995XR,Houten,Houten,Utrecht,VBO,5.177338,52.015111
Cella Gallia,58,,,3995XR,Houten,Houten,Utrecht,VBO,5.177338,52.015090
Cella Gallia,60,,,3995XR,Houten,Houten,Utrecht,VBO,5.177338,52.015067
Cella Gallia,62,,,3995XR,Houten,Houten,Utrecht,VBO,5.177338,52.015049
Cella Gallia,64,,,3995XR,Houten,Houten,Utrecht,VBO,5.177338,52.015030
Cella Gallia,66,,,3995XR,Houten,Houten,Utrecht,VBO,5.177232,52.015030
Cella Gallia,68,,,3995XR,Houten,Houten,Utrecht,VBO,5.177232,52.015048
Cella Gallia,70,,,3995XR,Houten,Houten,Utrecht,VBO,5.177232,52.015070
Cella Gallia,72,,,3995XR,Houten,Houten,Utrecht,VBO,5.177232,52.015089
Cella Gallia,74,,,3995XR,Houten,Houten,Utrecht,VBO,5.177232,52.015110
Cella Gallia,76,,,3995XR,Houten,Houten,Utrecht,VBO,5.177232,52.015129
Cella Gallia,78,,,3995XR,Houten,Houten,Utrecht,VBO,5.177232,52.015148
Cella Gallia,80,,,3995XR,Houten,Houten,Utrecht,VBO,5.177232,52.015164
Cella Gallia,82,,,3995XS,Houten,Houten,Utrecht,VBO,5.177076,52.015312
Cella Gallia,84,,,3995XS,Houten,Houten,Utrecht,VBO,5.177043,52.015365
Cella Gallia,86,,,3995XS,Houten,Houten,Utrecht,VBO,5.177014,52.015410
Cella Gallia,88,,,3995XS,Houten,Houten,Utrecht,VBO,5.176980,52.015461
Cella Gallia,90,,,3995XS,Houten,Houten,Utrecht,VBO,5.176953,52.015504
Cella Gallia,92,,,3995XS,Houten,Houten,Utrecht,VBO,5.176924,52.015556
Cella Gallia,94,,,3995XS,Houten,Houten,Utrecht,VBO,5.176884,52.015604
Cella Gallia,96,,,3995XS,Houten,Houten,Utrecht,VBO,5.176864,52.015655
Cella Gallia,98,,,3995XS,Houten,Houten,Utrecht,VBO,5.176837,52.015702
Cella Gallia,100,,,3995XS,Houten,Houten,Utrecht,VBO,5.176806,52.015749
Cella Gallia,102,,,3995XS,Houten,Houten,Utrecht,VBO,5.176770,52.015792
Cella Gallia,104,,,3995XS,Houten,Houten,Utrecht,VBO,5.176736,52.015843
Cella Gallia,106,,,3995XS,Houten,Houten,Utrecht,VBO,5.176713,52.015893
Cella Gallia,108,,,3995XS,Houten,Houten,Utrecht,VBO,5.176678,52.015941
Cella Gallia,110,,,3995XS,Houten,Houten,Utrecht,VBO,5.176652,52.015986
Cella Gallia,112,,,3995XS,Houten,Houten,Utrecht,VBO,5.176511,52.016067
Cella Gallia,114,,,3995XS,Houten,Houten,Utrecht,VBO,5.176511,52.016089
Cella Gallia,116,,,3995XS,Houten,Houten,Utrecht,VBO,5.176511,52.016108
Cella Gallia,118,,,3995XS,Houten,Houten,Utrecht,VBO,5.176511,52.016131
Cella Gallia,120,,,3995XS,Houten,Houten,Utrecht,VBO,5.176511,52.016152
Cella Gallia,122,,,3995XS,Houten,Houten,Utrecht,VBO,5.176510,52.016176
Cella Gallia,124,,,3995XS,Houten,Houten,Utrecht,VBO,5.176512,52.016194
Cella Gallia,126,,,3995XS,Houten,Houten,Utrecht,VBO,5.176575,52.016073
Cella Gallia,128,,,3995XS,Houten,Houten,Utrecht,VBO,5.176576,52.016094
Cella Gallia,130,,,3995XS,Houten,Houten,Utrecht,VBO,5.176576,52.016113
Cella Gallia,132,,,3995XS,Houten,Houten,Utrecht,VBO,5.176576,52.016135
Cella Gallia,134,,,3995XS,Houten,Houten,Utrecht,VBO,5.176576,52.016158
Cella Gallia,136,,,3995XS,Houten,Houten,Utrecht,VBO,5.176576,52.016181
Cella Gallia,1,,,3995XT,Houten,Houten,Utrecht,VBO,5.179084,52.015814
Cella Gallia,3,,,3995XT,Houten,Houten,Utrecht,VBO,5.178930,52.015776
Cella Gallia,5,,,3995XT,Houten,Houten,Utrecht,VBO,5.178827,52.015761
Cella Gallia,7,,,3995XT,Houten,Houten,Utrecht,VBO,5.178691,52.015717
Cella Gallia,9,,,3995XT,Houten,Houten,Utrecht,VBO,5.178482,52.015667
Cella Gallia,11,,,3995XT,Houten,Houten,Utrecht,VBO,5.178255,52.015614
Cella Gallia,13,,,3995XT,Houten,Houten,Utrecht,VBO,5.178055,52.015569
Cella Gallia,15,,,3995XT,Houten,Houten,Utrecht,VBO,5.177904,52.015537
Cella Gallia,17,,,3995XT,Houten,Houten,Utrecht,VBO,5.177667,52.015476
Cella Gallia,19,,,3995XT,Houten,Houten,Utrecht,VBO,5.177467,52.015427
Cella Gallia,21,,,3995XT,Houten,Houten,Utrecht,VBO,5.177438,52.015474
Cella Gallia,23,,,3995XT,Houten,Houten,Utrecht,VBO,5.177415,52.015518
Cella Gallia,25,,,3995XT,Houten,Houten,Utrecht,VBO,5.177384,52.015565
Cella Gallia,27,,,3995XT,Houten,Houten,Utrecht,VBO,5.177355,52.015609
Cella Gallia,29,,,3995XT,Houten,Houten,Utrecht,VBO,5.177329,52.015656
Cella Gallia,31,,,3995XT,Houten,Houten,Utrecht,VBO,5.177299,52.015700
Cella Gallia,33,,,3995XT,Houten,Houten,Utrecht,VBO,5.177271,52.015748
Cella Gallia,35,,,3995XT,Houten,Houten,Utrecht,VBO,5.177239,52.015791
Cella Gallia,37,,,3995XT,Houten,Houten,Utrecht,VBO,5.177212,52.015839
Cella Gallia,39,,,3995XT,Houten,Houten,Utrecht,VBO,5.176978,52.016150
Cella Gallia,41,,,3995XT,Houten,Houten,Utrecht,VBO,5.176933,52.016284
Cella Gallia,43,,,3995XT,Houten,Houten,Utrecht,VBO,5.177016,52.016305
Cella Gallia,45,,,3995XT,Houten,Houten,Utrecht,VBO,5.177102,52.016318
Cella Gallia,47,,,3995XT,Houten,Houten,Utrecht,VBO,5.177173,52.016339
Cella Gallia,49,,,3995XT,Houten,Houten,Utrecht,VBO,5.177249,52.016357
Cella Gallia,51,,,3995XT,Houten,Houten,Utrecht,VBO,5.177337,52.016378
Cella Gallia,53,,,3995XT,Houten,Houten,Utrecht,VBO,5.177411,52.016395
Cella Gallia,55,,,3995XT,Houten,Houten,Utrecht,VBO,5.177486,52.016412
Cella Gallia,57,,,3995XT,Houten,Houten,Utrecht,VBO,5.177580,52.016459
Cella Helvetica,1,,,3995XV,Houten,Houten,Utrecht,VBO,5.178460,52.015713
Cella Helvetica,2,,,3995XV,Houten,Houten,Utrecht,VBO,5.178231,52.015665
Cella Helvetica,3,,,3995XV,Houten,Houten,Utrecht,VBO,5.178425,52.015760
Cella Helvetica,4,,,3995XV,Houten,Houten,Utrecht,VBO,5.178208,52.015706
Cella Helvetica,5,,,3995XV,Houten,Houten,Utrecht,VBO,5.178391,52.015810
Cella Helvetica,6,,,3995XV,Houten,Houten,Utrecht,VBO,5.178173,52.015750
Cella Helvetica,7,,,3995XV,Houten,Houten,Utrecht,VBO,5.178374,52.015852
Cella Helvetica,8,,,3995XV,Houten,Houten,Utrecht,VBO,5.178146,52.015794
Cella Helvetica,9,,,3995XV,Houten,Houten,Utrecht,VBO,5.178341,52.015898
Cella Helvetica,10,,,3995XV,Houten,Houten,Utrecht,VBO,5.178121,52.015843
Cella Helvetica,11,,,3995XV,Houten,Houten,Utrecht,VBO,5.178312,52.015944
Cella Helvetica,12,,,3995XV,Houten,Houten,Utrecht,VBO,5.178091,52.015889
Cella Helvetica,13,,,3995XV,Houten,Houten,Utrecht,VBO,5.178280,52.015985
Cella Helvetica,14,,,3995XV,Houten,Houten,Utrecht,VBO,5.178059,52.015937
Cella Helvetica,15,,,3995XV,Houten,Houten,Utrecht,VBO,5.178198,52.016079
Cella Helvetica,16,,,3995XV,Houten,Houten,Utrecht,VBO,5.178039,52.015979
Cella Helvetica,18,,,3995XV,Houten,Houten,Utrecht,VBO,5.178007,52.016025
Cella Syria,1,,,3995XX,Houten,Houten,Utrecht,VBO,5.177175,52.015889
Cella Syria,2,,,3995XX,Houten,Houten,Utrecht,VBO,5.177103,52.015998
Cella Syria,3,,,3995XX,Houten,Houten,Utrecht,VBO,5.177392,52.015922
Cella Syria,4,,,3995XX,Houten,Houten,Utrecht,VBO,5.177241,52.016032
Cella Syria,5,,,3995XX,Houten,Houten,Utrecht,VBO,5.177469,52.015943
Cella Syria,6,,,3995XX,Houten,Houten,Utrecht,VBO,5.177364,52.016062
Cella Syria,7,,,3995XX,Houten,Houten,Utrecht,VBO,5.177552,52.015962
Cella Syria,8,,,3995XX,Houten,Houten,Utrecht,VBO,5.177497,52.016095
Cella Syria,9,,,3995XX,Houten,Houten,Utrecht,VBO,5.177629,52.015982
Cella Syria,10,,,3995XX,Houten,Houten,Utrecht,VBO,5.177633,52.016124
Cella Syria,11,,,3995XX,Houten,Houten,Utrecht,VBO,5.177705,52.015997
Cella Syria,12,,,3995XX,Houten,Houten,Utrecht,VBO,5.177825,52.016149
Cella Syria,13,,,3995XX,Houten,Houten,Utrecht,VBO,5.177782,52.016016
Cella Syria,15,,,3995XX,Houten,Houten,Utrecht,VBO,5.177994,52.016070
Porta Tegula,2,,,3995ZA,Houten,Houten,Utrecht,VBO,5.179255,52.018317
Porta Tegula,4,,,3995ZA,Houten,Houten,Utrecht,VBO,5.179183,52.018111
Porta Tegula,6,,,3995ZA,Houten,Houten,Utrecht,VBO,5.179229,52.018121
Porta Tegula,8,,,3995ZA,Houten,Houten,Utrecht,VBO,5.179170,52.018143
Porta Tegula,10,,,3995ZA,Houten,Houten,Utrecht,VBO,5.179208,52.018151
Porta Tegula,12,,,3995ZA,Houten,Houten,Utrecht,VBO,5.179148,52.018165
Porta Tegula,14,,,3995ZA,Houten,Houten,Utrecht,VBO,5.179192,52.018175
Porta Tegula,16,,,3995ZA,Houten,Houten,Utrecht,VBO,5.179452,52.018051
Porta Tegula,18,,,3995ZA,Houten,Houten,Utrecht,VBO,5.179492,52.017998
Porta Tegula,20,,,3995ZA,Houten,Houten,Utrecht,VBO,5.179511,52.017954
Porta Tegula,22,,,3995ZA,Houten,Houten,Utrecht,VBO,5.179540,52.017908
Porta Tegula,24,,,3995ZA,Houten,Houten,Utrecht,VBO,5.179567,52.017862
Porta Tegula,26,,,3995ZA,Houten,Houten,Utrecht,VBO,5.179600,52.017811
Porta Tegula,28,,,3995ZA,Houten,Houten,Utrecht,VBO,5.179630,52.017763
Porta Tegula,30,,,3995ZA,Houten,Houten,Utrecht,VBO,5.179659,52.017715
Porta Tegula,32,,,3995ZA,Houten,Houten,Utrecht,VBO,5.179688,52.017669
Porta Tegula,34,,,3995ZA,Houten,Houten,Utrecht,VBO,5.179716,52.017624
Porta Basilica,2,,,3995ZB,Houten,Houten,Utrecht,VBO,5.179362,52.018326
Porta Basilica,4,,,3995ZB,Houten,Houten,Utrecht,VBO,5.179435,52.018343
Porta Basilica,6,,,3995ZB,Houten,Houten,Utrecht,VBO,5.179497,52.018355
Porta Basilica,8,,,3995ZB,Houten,Houten,Utrecht,VBO,5.179582,52.018378
Porta Basilica,10,,,3995ZB,Houten,Houten,Utrecht,VBO,5.179656,52.018395
Porta Basilica,12,,,3995ZB,Houten,Houten,Utrecht,VBO,5.179729,52.018413
Porta Basilica,14,,,3995ZB,Houten,Houten,Utrecht,VBO,5.179803,52.018430
Porta Basilica,16,,,3995ZB,Houten,Houten,Utrecht,VBO,5.179866,52.018439
Porta Basilica,18,,,3995ZB,Houten,Houten,Utrecht,VBO,5.179950,52.018464
Porta Basilica,20,,,3995ZB,Houten,Houten,Utrecht,VBO,5.180023,52.018482
Porta Basilica,22,,,3995ZB,Houten,Houten,Utrecht,VBO,5.180091,52.018483
Porta Basilica,24,,,3995ZB,Houten,Houten,Utrecht,VBO,5.180188,52.018521
Porta Basilica,26,,,3995ZB,Houten,Houten,Utrecht,VBO,5.180325,52.018553
Porta Basilica,28,,,3995ZB,Houten,Houten,Utrecht,VBO,5.180417,52.018575
Porta Basilica,30,,,3995ZB,Houten,Houten,Utrecht,VBO,5.180491,52.018592
Porta Basilica,32,,,3995ZB,Houten,Houten,Utrecht,VBO,5.180564,52.018609
Porta Basilica,34,,,3995ZB,Houten,Houten,Utrecht,VBO,5.180638,52.018626
Porta Basilica,36,,,3995ZB,Houten,Houten,Utrecht,VBO,5.180711,52.018644
Porta Basilica,38,,,3995ZB,Houten,Houten,Utrecht,VBO,5.180785,52.018661
Porta Basilica,40,,,3995ZB,Houten,Houten,Utrecht,VBO,5.180858,52.018678
Porta Basilica,42,,,3995ZB,Houten,Houten,Utrecht,VBO,5.180932,52.018696
Porta Basilica,44,,,3995ZB,Houten,Houten,Utrecht,VBO,5.181005,52.018713
Porta Basilica,46,,,3995ZB,Houten,Houten,Utrecht,VBO,5.181079,52.018730
Porta Basilica,48,,,3995ZB,Houten,Houten,Utrecht,VBO,5.181154,52.018748
Porta Basilica,50,,,3995ZB,Houten,Houten,Utrecht,VBO,5.181447,52.018794
Porta Basilica,52,,,3995ZB,Houten,Houten,Utrecht,VBO,5.181558,52.018836
Porta Basilica,54,,,3995ZB,Houten,Houten,Utrecht,VBO,5.181647,52.018761
Porta Basilica,56,,,3995ZB,Houten,Houten,Utrecht,VBO,5.181434,52.018811
Porta Basilica,58,,,3995ZB,Houten,Houten,Utrecht,VBO,5.181552,52.018854
Porta Basilica,60,,,3995ZB,Houten,Houten,Utrecht,VBO,5.181641,52.018783
Porta Basilica,62,,,3995ZB,Houten,Houten,Utrecht,VBO,5.181397,52.018781
Porta Basilica,64,,,3995ZB,Houten,Houten,Utrecht,VBO,5.181551,52.018878
Porta Basilica,66,,,3995ZB,Houten,Houten,Utrecht,VBO,5.181644,52.018806
Porta Basilica,68,,,3995ZB,Houten,Houten,Utrecht,VBO,5.181387,52.018807
Porta Basilica,70,,,3995ZB,Houten,Houten,Utrecht,VBO,5.181545,52.018899
Porta Basilica,72,,,3995ZB,Houten,Houten,Utrecht,VBO,5.181644,52.018828
Porta Basilica,74,,,3995ZB,Houten,Houten,Utrecht,VBO,5.181367,52.018827
Porta Basilica,76,,,3995ZB,Houten,Houten,Utrecht,VBO,5.181558,52.018917
Porta Basilica,78,,,3995ZB,Houten,Houten,Utrecht,VBO,5.181644,52.018852
Porta Basilica,80,,,3995ZB,Houten,Houten,Utrecht,VBO,5.181351,52.018854
Porta Basilica,82,,,3995ZB,Houten,Houten,Utrecht,VBO,5.181618,52.018929
Porta Basilica,84,,,3995ZB,Houten,Houten,Utrecht,VBO,5.181650,52.018877
Porta Basilica,86,,,3995ZB,Houten,Houten,Utrecht,VBO,5.181664,52.018678
Porta Basilica,88,,,3995ZC,Houten,Houten,Utrecht,VBO,5.181703,52.018632
Porta Basilica,90,,,3995ZC,Houten,Houten,Utrecht,VBO,5.181728,52.018584
Porta Basilica,92,,,3995ZC,Houten,Houten,Utrecht,VBO,5.181759,52.018542
Porta Basilica,94,,,3995ZC,Houten,Houten,Utrecht,VBO,5.181787,52.018496
Porta Basilica,96,,,3995ZC,Houten,Houten,Utrecht,VBO,5.181815,52.018451
Porta Basilica,98,,,3995ZC,Houten,Houten,Utrecht,VBO,5.181843,52.018406
Porta Basilica,100,,,3995ZC,Houten,Houten,Utrecht,VBO,5.181865,52.018354
Porta Basilica,102,,,3995ZC,Houten,Houten,Utrecht,VBO,5.181899,52.018315
Porta Basilica,104,,,3995ZC,Houten,Houten,Utrecht,VBO,5.181927,52.018270
Porta Basilica,106,,,3995ZC,Houten,Houten,Utrecht,VBO,5.181972,52.018230
Porta Basilica,108,,,3995ZC,Houten,Houten,Utrecht,VBO,5.181983,52.018179
Porta Basilica,110,,,3995ZC,Houten,Houten,Utrecht,VBO,5.182012,52.018134
Porta Basilica,112,,,3995ZC,Houten,Houten,Utrecht,VBO,5.182040,52.018088
Porta Basilica,114,,,3995ZC,Houten,Houten,Utrecht,VBO,5.182068,52.018043
Porta Basilica,116,,,3995ZC,Houten,Houten,Utrecht,VBO,5.182096,52.017998
Porta Basilica,118,,,3995ZC,Houten,Houten,Utrecht,VBO,5.182124,52.017952
Porta Basilica,120,,,3995ZC,Houten,Houten,Utrecht,VBO,5.182152,52.017907
Porta Basilica,122,,,3995ZC,Houten,Houten,Utrecht,VBO,5.182119,52.017645
Porta Basilica,124,,,3995ZC,Houten,Houten,Utrecht,VBO,5.182182,52.017728
Porta Basilica,126,,,3995ZC,Houten,Houten,Utrecht,VBO,5.182280,52.017689
Porta Basilica,128,,,3995ZC,Houten,Houten,Utrecht,VBO,5.182111,52.017669
Porta Basilica,130,,,3995ZC,Houten,Houten,Utrecht,VBO,5.182174,52.017752
Porta Basilica,132,,,3995ZC,Houten,Houten,Utrecht,VBO,5.182273,52.017711
Porta Basilica,134,,,3995ZC,Houten,Houten,Utrecht,VBO,5.182102,52.017696
Porta Basilica,136,,,3995ZC,Houten,Houten,Utrecht,VBO,5.182163,52.017779
Porta Basilica,138,,,3995ZC,Houten,Houten,Utrecht,VBO,5.182266,52.017737
Porta Basilica,140,,,3995ZC,Houten,Houten,Utrecht,VBO,5.182089,52.017721
Porta Basilica,142,,,3995ZC,Houten,Houten,Utrecht,VBO,5.182146,52.017806
Porta Basilica,144,,,3995ZC,Houten,Houten,Utrecht,VBO,5.182255,52.017761
Porta Basilica,146,,,3995ZC,Houten,Houten,Utrecht,VBO,5.182079,52.017749
Porta Basilica,148,,,3995ZC,Houten,Houten,Utrecht,VBO,5.182134,52.017833
Porta Basilica,150,,,3995ZC,Houten,Houten,Utrecht,VBO,5.182245,52.017791
Porta Basilica,1,,,3995ZD,Houten,Houten,Utrecht,VBO,5.179787,52.018131
Porta Basilica,3,,,3995ZD,Houten,Houten,Utrecht,VBO,5.179966,52.018168
Porta Basilica,5,,,3995ZD,Houten,Houten,Utrecht,VBO,5.180296,52.018245
Porta Basilica,7,,,3995ZD,Houten,Houten,Utrecht,VBO,5.180798,52.018367
Porta Basilica,9,,,3995ZD,Houten,Houten,Utrecht,VBO,5.180970,52.018407
Porta Basilica,11,,,3995ZD,Houten,Houten,Utrecht,VBO,5.181301,52.018486
Porta Basilica,13,,,3995ZD,Houten,Houten,Utrecht,VBO,5.181333,52.018437
Porta Basilica,15,,,3995ZD,Houten,Houten,Utrecht,VBO,5.181360,52.018390
Porta Basilica,17,,,3995ZD,Houten,Houten,Utrecht,VBO,5.181386,52.018343
Porta Basilica,19,,,3995ZD,Houten,Houten,Utrecht,VBO,5.181416,52.018294
Porta Basilica,21,,,3995ZD,Houten,Houten,Utrecht,VBO,5.181447,52.018244
Porta Basilica,23,,,3995ZD,Houten,Houten,Utrecht,VBO,5.181472,52.018199
Porta Basilica,25,,,3995ZD,Houten,Houten,Utrecht,VBO,5.181510,52.018151
Porta Basilica,27,,,3995ZD,Houten,Houten,Utrecht,VBO,5.181607,52.018037
Porta Basilica,29,,,3995ZD,Houten,Houten,Utrecht,VBO,5.181716,52.017896
Porta Basilica,33,,,3995ZD,Houten,Houten,Utrecht,VBO,5.181871,52.017611
Porta Basilica,35,,,3995ZD,Houten,Houten,Utrecht,VBO,5.181792,52.017592
Porta Basilica,37,,,3995ZD,Houten,Houten,Utrecht,VBO,5.181714,52.017574
Porta Basilica,39,,,3995ZD,Houten,Houten,Utrecht,VBO,5.181636,52.017556
Porta Basilica,41,,,3995ZD,Houten,Houten,Utrecht,VBO,5.181559,52.017537
Porta Basilica,43,,,3995ZD,Houten,Houten,Utrecht,VBO,5.181481,52.017519
Porta Basilica,45,,,3995ZD,Houten,Houten,Utrecht,VBO,5.181404,52.017501
Porta Basilica,47,,,3995ZD,Houten,Houten,Utrecht,VBO,5.181326,52.017483
Porta Basilica,49,,,3995ZD,Houten,Houten,Utrecht,VBO,5.181247,52.017464
Porta Basilica,51,,,3995ZD,Houten,Houten,Utrecht,VBO,5.181089,52.017419
Porta Toga,1,,,3995ZE,Houten,Houten,Utrecht,VBO,5.181529,52.018014
Porta Toga,2,,,3995ZE,Houten,Houten,Utrecht,VBO,5.181607,52.017888
Porta Toga,3,,,3995ZE,Houten,Houten,Utrecht,VBO,5.181452,52.017996
Porta Toga,4,,,3995ZE,Houten,Houten,Utrecht,VBO,5.181527,52.017869
Porta Toga,5,,,3995ZE,Houten,Houten,Utrecht,VBO,5.181374,52.017978
Porta Toga,6,,,3995ZE,Houten,Houten,Utrecht,VBO,5.181451,52.017855
Porta Toga,7,,,3995ZE,Houten,Houten,Utrecht,VBO,5.181297,52.017959
Porta Toga,8,,,3995ZE,Houten,Houten,Utrecht,VBO,5.181365,52.017844
Porta Toga,9,,,3995ZE,Houten,Houten,Utrecht,VBO,5.181219,52.017941
Porta Toga,10,,,3995ZE,Houten,Houten,Utrecht,VBO,5.181289,52.017826
Porta Toga,11,,,3995ZE,Houten,Houten,Utrecht,VBO,5.181141,52.017923
Porta Toga,12,,,3995ZE,Houten,Houten,Utrecht,VBO,5.181210,52.017807
Porta Toga,13,,,3995ZE,Houten,Houten,Utrecht,VBO,5.181064,52.017905
Porta Toga,14,,,3995ZE,Houten,Houten,Utrecht,VBO,5.181147,52.017781
Porta Toga,15,,,3995ZE,Houten,Houten,Utrecht,VBO,5.180991,52.017883
Porta Toga,16,,,3995ZE,Houten,Houten,Utrecht,VBO,5.181061,52.017770
Porta Toga,17,,,3995ZE,Houten,Houten,Utrecht,VBO,5.180760,52.017821
Porta Castra,1,,,3995ZG,Houten,Houten,Utrecht,VBO,5.180320,52.018195
Porta Castra,2,,,3995ZG,Houten,Houten,Utrecht,VBO,5.180524,52.018275
Porta Castra,3,,,3995ZG,Houten,Houten,Utrecht,VBO,5.180341,52.018146
Porta Castra,4,,,3995ZG,Houten,Houten,Utrecht,VBO,5.180578,52.018215
Porta Castra,5,,,3995ZG,Houten,Houten,Utrecht,VBO,5.180362,52.018096
Porta Castra,6,,,3995ZG,Houten,Houten,Utrecht,VBO,5.180606,52.018165
Porta Castra,7,,,3995ZG,Houten,Houten,Utrecht,VBO,5.180385,52.018044
Porta Castra,8,,,3995ZG,Houten,Houten,Utrecht,VBO,5.180620,52.018122
Porta Castra,9,,,3995ZG,Houten,Houten,Utrecht,VBO,5.180410,52.017999
Porta Castra,10,,,3995ZG,Houten,Houten,Utrecht,VBO,5.180641,52.018071
Porta Castra,11,,,3995ZG,Houten,Houten,Utrecht,VBO,5.180452,52.017955
Porta Castra,12,,,3995ZG,Houten,Houten,Utrecht,VBO,5.180667,52.018020
Porta Castra,13,,,3995ZG,Houten,Houten,Utrecht,VBO,5.180476,52.017904
Porta Castra,14,,,3995ZG,Houten,Houten,Utrecht,VBO,5.180692,52.017968
Porta Castra,15,,,3995ZG,Houten,Houten,Utrecht,VBO,5.180531,52.017764
Porta Castra,16,,,3995ZG,Houten,Houten,Utrecht,VBO,5.180686,52.017918
Porta Castra,18,,,3995ZG,Houten,Houten,Utrecht,VBO,5.180713,52.017867
Forum,2,,,3995ZH,Houten,Houten,Utrecht,VBO,5.179788,52.017588
Forum,4,,,3995ZH,Houten,Houten,Utrecht,VBO,5.179969,52.017630
Forum,6,,,3995ZH,Houten,Houten,Utrecht,VBO,5.180038,52.017670
Forum,8,,,3995ZH,Houten,Houten,Utrecht,VBO,5.180130,52.017671
Forum,10,,,3995ZH,Houten,Houten,Utrecht,VBO,5.180199,52.017708
Forum,12,,,3995ZH,Houten,Houten,Utrecht,VBO,5.180292,52.017707
Forum,14,,,3995ZH,Houten,Houten,Utrecht,VBO,5.180372,52.017725
Forum,16,,,3995ZH,Houten,Houten,Utrecht,VBO,5.180451,52.017744
Forum,18,,,3995ZH,Houten,Houten,Utrecht,VBO,5.180793,52.017700
Forum,20,,,3995ZH,Houten,Houten,Utrecht,VBO,5.180820,52.017651
Forum,22,,,3995ZH,Houten,Houten,Utrecht,VBO,5.180853,52.017594
Forum,24,,,3995ZH,Houten,Houten,Utrecht,VBO,5.180880,52.017547
Forum,26,,,3995ZH,Houten,Houten,Utrecht,VBO,5.180913,52.017497
Forum,28,,,3995ZH,Houten,Houten,Utrecht,VBO,5.180947,52.017445
Forum,46,,,3995ZJ,Houten,Houten,Utrecht,VBO,5.179864,52.017451
Forum,48,,,3995ZJ,Houten,Houten,Utrecht,VBO,5.179964,52.017208
Forum,50,,,3995ZJ,Houten,Houten,Utrecht,VBO,5.179657,52.017202
Forum,52,,,3995ZJ,Houten,Houten,Utrecht,VBO,5.179696,52.017213
Forum,54,,,3995ZJ,Houten,Houten,Utrecht,VBO,5.179751,52.017227
Forum,56,,,3995ZJ,Houten,Houten,Utrecht,VBO,5.179814,52.017242
Forum,58,,,3995ZJ,Houten,Houten,Utrecht,VBO,5.179873,52.017257
Forum,60,,,3995ZJ,Houten,Houten,Utrecht,VBO,5.179931,52.017271
Forum,62,,,3995ZJ,Houten,Houten,Utrecht,VBO,5.179992,52.017287
Forum,64,,,3995ZJ,Houten,Houten,Utrecht,VBO,5.180046,52.017297
Forum,66,,,3995ZJ,Houten,Houten,Utrecht,VBO,5.180098,52.017311
Forum,68,,,3995ZJ,Houten,Houten,Utrecht,VBO,5.180157,52.017323
Forum,70,,,3995ZJ,Houten,Houten,Utrecht,VBO,5.179628,52.017236
Forum,72,,,3995ZJ,Houten,Houten,Utrecht,VBO,5.179670,52.017246
Forum,74,,,3995ZJ,Houten,Houten,Utrecht,VBO,5.179726,52.017260
Forum,76,,,3995ZJ,Houten,Houten,Utrecht,VBO,5.179790,52.017273
Forum,78,,,3995ZJ,Houten,Houten,Utrecht,VBO,5.179849,52.017287
Forum,80,,,3995ZJ,Houten,Houten,Utrecht,VBO,5.179909,52.017300
Forum,82,,,3995ZJ,Houten,Houten,Utrecht,VBO,5.179966,52.017317
Forum,84,,,3995ZJ,Houten,Houten,Utrecht,VBO,5.180023,52.017329
Forum,86,,,3995ZJ,Houten,Houten,Utrecht,VBO,5.180080,52.017345
Forum,88,,,3995ZJ,Houten,Houten,Utrecht,VBO,5.180135,52.017355
Forum,90,,,3995ZJ,Houten,Houten,Utrecht,VBO,5.179608,52.017274
Forum,92,,,3995ZJ,Houten,Houten,Utrecht,VBO,5.179652,52.017284
Forum,94,,,3995ZJ,Houten,Houten,Utrecht,VBO,5.179700,52.017296
Forum,96,,,3995ZJ,Houten,Houten,Utrecht,VBO,5.179759,52.017311
Forum,98,,,3995ZJ,Houten,Houten,Utrecht,VBO,5.179819,52.017325
Forum,100,,,3995ZJ,Houten,Houten,Utrecht,VBO,5.179880,52.017338
Forum,102,,,3995ZJ,Houten,Houten,Utrecht,VBO,5.179938,52.017352
Forum,104,,,3995ZJ,Houten,Houten,Utrecht,VBO,5.180000,52.017364
Forum,106,,,3995ZJ,Houten,Houten,Utrecht,VBO,5.180055,52.017380
Forum,108,,,3995ZJ,Houten,Houten,Utrecht,VBO,5.180106,52.017391
Forum,110,,,3995ZJ,Houten,Houten,Utrecht,VBO,5.179586,52.017307
Forum,112,,,3995ZJ,Houten,Houten,Utrecht,VBO,5.179636,52.017316
Forum,114,,,3995ZJ,Houten,Houten,Utrecht,VBO,5.179693,52.017330
Forum,116,,,3995ZJ,Houten,Houten,Utrecht,VBO,5.179757,52.017346
Forum,118,,,3995ZJ,Houten,Houten,Utrecht,VBO,5.179811,52.017359
Forum,120,,,3995ZJ,Houten,Houten,Utrecht,VBO,5.179874,52.017373
Forum,122,,,3995ZJ,Houten,Houten,Utrecht,VBO,5.179932,52.017386
Forum,124,,,3995ZJ,Houten,Houten,Utrecht,VBO,5.179986,52.017398
Forum,126,,,3995ZJ,Houten,Houten,Utrecht,VBO,5.180041,52.017411
Forum,128,,,3995ZJ,Houten,Houten,Utrecht,VBO,5.180099,52.017420
Forum,130,,,3995ZJ,Houten,Houten,Utrecht,VBO,5.179569,52.017340
Forum,132,,,3995ZJ,Houten,Houten,Utrecht,VBO,5.179623,52.017350
Forum,134,,,3995ZJ,Houten,Houten,Utrecht,VBO,5.179677,52.017364
Forum,136,,,3995ZJ,Houten,Houten,Utrecht,VBO,5.179741,52.017378
Forum,138,,,3995ZJ,Houten,Houten,Utrecht,VBO,5.179798,52.017392
Forum,140,,,3995ZJ,Houten,Houten,Utrecht,VBO,5.179855,52.017406
Forum,142,,,3995ZJ,Houten,Houten,Utrecht,VBO,5.179911,52.017417
Forum,144,,,3995ZJ,Houten,Houten,Utrecht,VBO,5.179968,52.017426
Forum,146,,,3995ZJ,Houten,Houten,Utrecht,VBO,5.180026,52.017440
Forum,148,,,3995ZJ,Houten,Houten,Utrecht,VBO,5.180078,52.017450
Forum,152,,,3995ZJ,Houten,Houten,Utrecht,VBO,5.179340,52.017084
Forum,154,,,3995ZJ,Houten,Houten,Utrecht,VBO,5.179242,52.017015
Forum,1,,,3995ZK,Houten,Houten,Utrecht,VBO,5.180339,52.016649
Forum,3,,,3995ZK,Houten,Houten,Utrecht,VBO,5.180549,52.016693
Forum,5,,,3995ZK,Houten,Houten,Utrecht,VBO,5.180634,52.016712
Forum,7,,,3995ZK,Houten,Houten,Utrecht,VBO,5.180714,52.016730
Forum,9,,,3995ZK,Houten,Houten,Utrecht,VBO,5.180794,52.016749
Forum,11,,,3995ZK,Houten,Houten,Utrecht,VBO,5.180869,52.016767
Forum,13,,,3995ZK,Houten,Houten,Utrecht,VBO,5.180949,52.016784
Forum,15,,,3995ZK,Houten,Houten,Utrecht,VBO,5.181029,52.016804
Forum,17,,,3995ZK,Houten,Houten,Utrecht,VBO,5.181277,52.016975
Forum,19,,,3995ZK,Houten,Houten,Utrecht,VBO,5.181246,52.017026
Forum,21,,,3995ZK,Houten,Houten,Utrecht,VBO,5.181215,52.017075
Forum,23,,,3995ZK,Houten,Houten,Utrecht,VBO,5.181185,52.017125
Forum,25,,,3995ZK,Houten,Houten,Utrecht,VBO,5.181154,52.017174
Forum,27,,,3995ZK,Houten,Houten,Utrecht,VBO,5.181123,52.017224
Forum,47,,,3995ZL,Houten,Houten,Utrecht,VBO,5.180389,52.016988
Forum,49,,,3995ZL,Houten,Houten,Utrecht,VBO,5.179929,52.016753
Forum,51,,,3995ZL,Houten,Houten,Utrecht,VBO,5.179995,52.016773
Forum,53,,,3995ZL,Houten,Houten,Utrecht,VBO,5.180056,52.016786
Forum,55,,,3995ZL,Houten,Houten,Utrecht,VBO,5.180112,52.016802
Forum,57,,,3995ZL,Houten,Houten,Utrecht,VBO,5.180174,52.016812
Forum,59,,,3995ZL,Houten,Houten,Utrecht,VBO,5.180222,52.016827
Forum,61,,,3995ZL,Houten,Houten,Utrecht,VBO,5.180283,52.016841
Forum,63,,,3995ZL,Houten,Houten,Utrecht,VBO,5.180338,52.016852
Forum,65,,,3995ZL,Houten,Houten,Utrecht,VBO,5.180389,52.016863
Forum,67,,,3995ZL,Houten,Houten,Utrecht,VBO,5.180444,52.016871
Forum,69,,,3995ZL,Houten,Houten,Utrecht,VBO,5.179898,52.016792
Forum,71,,,3995ZL,Houten,Houten,Utrecht,VBO,5.179964,52.016809
Forum,73,,,3995ZL,Houten,Houten,Utrecht,VBO,5.180025,52.016823
Forum,75,,,3995ZL,Houten,Houten,Utrecht,VBO,5.180083,52.016837
Forum,77,,,3995ZL,Houten,Houten,Utrecht,VBO,5.180144,52.016850
Forum,79,,,3995ZL,Houten,Houten,Utrecht,VBO,5.180196,52.016863
Forum,81,,,3995ZL,Houten,Houten,Utrecht,VBO,5.180255,52.016879
Forum,83,,,3995ZL,Houten,Houten,Utrecht,VBO,5.180308,52.016891
Forum,85,,,3995ZL,Houten,Houten,Utrecht,VBO,5.180359,52.016902
Forum,87,,,3995ZL,Houten,Houten,Utrecht,VBO,5.180414,52.016913
Forum,89,,,3995ZL,Houten,Houten,Utrecht,VBO,5.179867,52.016844
Forum,91,,,3995ZL,Houten,Houten,Utrecht,VBO,5.179922,52.016856
Forum,93,,,3995ZL,Houten,Houten,Utrecht,VBO,5.179977,52.016866
Forum,95,,,3995ZL,Houten,Houten,Utrecht,VBO,5.180039,52.016880
Forum,97,,,3995ZL,Houten,Houten,Utrecht,VBO,5.180090,52.016890
Forum,99,,,3995ZL,Houten,Houten,Utrecht,VBO,5.180146,52.016904
Forum,101,,,3995ZL,Houten,Houten,Utrecht,VBO,5.180200,52.016915
Forum,103,,,3995ZL,Houten,Houten,Utrecht,VBO,5.180252,52.016928
Forum,105,,,3995ZL,Houten,Houten,Utrecht,VBO,5.180312,52.016942
Forum,107,,,3995ZL,Houten,Houten,Utrecht,VBO,5.180380,52.016957
Forum,109,,,3995ZL,Houten,Houten,Utrecht,VBO,5.179840,52.016886
Forum,111,,,3995ZL,Houten,Houten,Utrecht,VBO,5.179900,52.016898
Forum,113,,,3995ZL,Houten,Houten,Utrecht,VBO,5.179955,52.016909
Forum,115,,,3995ZL,Houten,Houten,Utrecht,VBO,5.180016,52.016921
Forum,117,,,3995ZL,Houten,Houten,Utrecht,VBO,5.180070,52.016934
Forum,119,,,3995ZL,Houten,Houten,Utrecht,VBO,5.180124,52.016947
Forum,121,,,3995ZL,Houten,Houten,Utrecht,VBO,5.180177,52.016959
Forum,123,,,3995ZL,Houten,Houten,Utrecht,VBO,5.180229,52.016971
Forum,125,,,3995ZL,Houten,Houten,Utrecht,VBO,5.180286,52.016984
Forum,127,,,3995ZL,Houten,Houten,Utrecht,VBO,5.180356,52.017001
Forum,129,,,3995ZL,Houten,Houten,Utrecht,VBO,5.179822,52.016924
Forum,131,,,3995ZL,Houten,Houten,Utrecht,VBO,5.179882,52.016938
Forum,133,,,3995ZL,Houten,Houten,Utrecht,VBO,5.179937,52.016950
Forum,135,,,3995ZL,Houten,Houten,Utrecht,VBO,5.179996,52.016962
Forum,137,,,3995ZL,Houten,Houten,Utrecht,VBO,5.180051,52.016976
Forum,139,,,3995ZL,Houten,Houten,Utrecht,VBO,5.180109,52.016989
Forum,141,,,3995ZL,Houten,Houten,Utrecht,VBO,5.180156,52.017002
Forum,143,,,3995ZL,Houten,Houten,Utrecht,VBO,5.180207,52.017014
Forum,145,,,3995ZL,Houten,Houten,Utrecht,VBO,5.180262,52.017027
Forum,147,,,3995ZL,Houten,Houten,Utrecht,VBO,5.180326,52.017043
Via Arena,1,,,3995ZM,Houten,Houten,Utrecht,VBO,5.180435,52.015983
Via Arena,3,,,3995ZM,Houten,Houten,Utrecht,VBO,5.180482,52.015889
Via Arena,5,,,3995ZM,Houten,Houten,Utrecht,VBO,5.180563,52.015833
Via Arena,7,,,3995ZM,Houten,Houten,Utrecht,VBO,5.180484,52.015905
Via Arena,9,,,3995ZM,Houten,Houten,Utrecht,VBO,5.180579,52.015847
Via Arena,11,,,3995ZM,Houten,Houten,Utrecht,VBO,5.180481,52.015924
Via Arena,13,,,3995ZM,Houten,Houten,Utrecht,VBO,5.180594,52.015861
Via Arena,15,,,3995ZM,Houten,Houten,Utrecht,VBO,5.180590,52.016142
Via Arena,17,,,3995ZM,Houten,Houten,Utrecht,VBO,5.180564,52.016192
Via Arena,19,,,3995ZM,Houten,Houten,Utrecht,VBO,5.180532,52.016241
Via Arena,21,,,3995ZM,Houten,Houten,Utrecht,VBO,5.180493,52.016287
Via Arena,23,,,3995ZM,Houten,Houten,Utrecht,VBO,5.180467,52.016335
Via Arena,25,,,3995ZM,Houten,Houten,Utrecht,VBO,5.180439,52.016385
Via Arena,27,,,3995ZM,Houten,Houten,Utrecht,VBO,5.180410,52.016431
Via Arena,29,,,3995ZM,Houten,Houten,Utrecht,VBO,5.180384,52.016477
Via Arena,31,,,3995ZM,Houten,Houten,Utrecht,VBO,5.180353,52.016530
Via Arena,33,,,3995ZM,Houten,Houten,Utrecht,VBO,5.180321,52.016573
Via Horta,1,,,3995ZN,Houten,Houten,Utrecht,VBO,5.180759,52.015918
Via Horta,3,,,3995ZN,Houten,Houten,Utrecht,VBO,5.180833,52.015940
Via Horta,5,,,3995ZN,Houten,Houten,Utrecht,VBO,5.180907,52.015955
Via Horta,7,,,3995ZN,Houten,Houten,Utrecht,VBO,5.180981,52.015969
Via Horta,9,,,3995ZN,Houten,Houten,Utrecht,VBO,5.181051,52.015989
Via Horta,11,,,3995ZN,Houten,Houten,Utrecht,VBO,5.181137,52.016003
Via Horta,13,,,3995ZN,Houten,Houten,Utrecht,VBO,5.181204,52.016025
Via Horta,15,,,3995ZN,Houten,Houten,Utrecht,VBO,5.181282,52.016042
Via Horta,17,,,3995ZN,Houten,Houten,Utrecht,VBO,5.181356,52.016059
Via Horta,19,,,3995ZN,Houten,Houten,Utrecht,VBO,5.181430,52.016076
Via Horta,21,,,3995ZN,Houten,Houten,Utrecht,VBO,5.181500,52.016093
Via Horta,23,,,3995ZN,Houten,Houten,Utrecht,VBO,5.181570,52.016105
Via Horta,25,,,3995ZN,Houten,Houten,Utrecht,VBO,5.181648,52.016129
Via Horta,27,,,3995ZN,Houten,Houten,Utrecht,VBO,5.181815,52.016172
Via Horta,29,,,3995ZN,Houten,Houten,Utrecht,VBO,5.181884,52.016187
Via Horta,31,,,3995ZN,Houten,Houten,Utrecht,VBO,5.181959,52.016203
Via Horta,33,,,3995ZN,Houten,Houten,Utrecht,VBO,5.182033,52.016219
Via Horta,35,,,3995ZN,Houten,Houten,Utrecht,VBO,5.182103,52.016238
Via Horta,37,,,3995ZN,Houten,Houten,Utrecht,VBO,5.182179,52.016253
Via Horta,39,,,3995ZN,Houten,Houten,Utrecht,VBO,5.182250,52.016269
Via Horta,41,,,3995ZN,Houten,Houten,Utrecht,VBO,5.182331,52.016286
Via Horta,43,,,3995ZN,Houten,Houten,Utrecht,VBO,5.182404,52.016307
Via Horta,45,,,3995ZN,Houten,Houten,Utrecht,VBO,5.182480,52.016324
Via Horta,47,,,3995ZN,Houten,Houten,Utrecht,VBO,5.182556,52.016338
Via Horta,49,,,3995ZN,Houten,Houten,Utrecht,VBO,5.182624,52.016354
Via Horta,51,,,3995ZN,Houten,Houten,Utrecht,VBO,5.182702,52.016373
Via Horta,53,,,3995ZN,Houten,Houten,Utrecht,VBO,5.182808,52.016375
Via Horta,55,,a,3995ZN,Houten,Houten,Utrecht,VBO,5.182924,52.016472
Via Horta,55,,b,3995ZN,Houten,Houten,Utrecht,VBO,5.183112,52.016512
Via Horta,55,,c,3995ZN,Houten,Houten,Utrecht,VBO,5.183169,52.016418
Via Horta,55,,d,3995ZN,Houten,Houten,Utrecht,VBO,5.182984,52.016372
Via Horta,57,,a,3995ZN,Houten,Houten,Utrecht,VBO,5.182917,52.016487
Via Horta,57,,b,3995ZN,Houten,Houten,Utrecht,VBO,5.183106,52.016525
Via Horta,57,,c,3995ZN,Houten,Houten,Utrecht,VBO,5.183163,52.016428
Via Horta,57,,d,3995ZN,Houten,Houten,Utrecht,VBO,5.182976,52.016385
Via Horta,59,,a,3995ZN,Houten,Houten,Utrecht,VBO,5.182906,52.016500
Via Horta,59,,b,3995ZN,Houten,Houten,Utrecht,VBO,5.183095,52.016540
Via Horta,59,,c,3995ZN,Houten,Houten,Utrecht,VBO,5.183157,52.016439
Via Horta,59,,d,3995ZN,Houten,Houten,Utrecht,VBO,5.182968,52.016396
Via Horta,61,,a,3995ZN,Houten,Houten,Utrecht,VBO,5.182895,52.016514
Via Horta,61,,b,3995ZN,Houten,Houten,Utrecht,VBO,5.183084,52.016553
Via Horta,61,,c,3995ZN,Houten,Houten,Utrecht,VBO,5.183149,52.016449
Via Horta,61,,d,3995ZN,Houten,Houten,Utrecht,VBO,5.182960,52.016408
Via Horta,63,,a,3995ZN,Houten,Houten,Utrecht,VBO,5.182883,52.016529
Via Horta,63,,b,3995ZN,Houten,Houten,Utrecht,VBO,5.183074,52.016569
Via Horta,63,,c,3995ZN,Houten,Houten,Utrecht,VBO,5.183142,52.016462
Via Horta,63,,d,3995ZN,Houten,Houten,Utrecht,VBO,5.182950,52.016422
Via Horta,65,,a,3995ZN,Houten,Houten,Utrecht,VBO,5.182872,52.016545
Via Horta,65,,b,3995ZN,Houten,Houten,Utrecht,VBO,5.183065,52.016585
Via Horta,65,,c,3995ZN,Houten,Houten,Utrecht,VBO,5.183132,52.016475
Via Horta,65,,d,3995ZN,Houten,Houten,Utrecht,VBO,5.182942,52.016435
Via Horta,91,,,3995ZP,Houten,Houten,Utrecht,VBO,5.182865,52.016682
Via Horta,93,,,3995ZP,Houten,Houten,Utrecht,VBO,5.182833,52.016725
Via Horta,95,,,3995ZP,Houten,Houten,Utrecht,VBO,5.182801,52.016771
Via Horta,97,,,3995ZP,Houten,Houten,Utrecht,VBO,5.182775,52.016817
Via Horta,99,,,3995ZP,Houten,Houten,Utrecht,VBO,5.182742,52.016862
Via Horta,101,,,3995ZP,Houten,Houten,Utrecht,VBO,5.182713,52.016906
Via Horta,103,,,3995ZP,Houten,Houten,Utrecht,VBO,5.182691,52.016953
Via Horta,105,,,3995ZP,Houten,Houten,Utrecht,VBO,5.182665,52.016995
Via Horta,107,,,3995ZP,Houten,Houten,Utrecht,VBO,5.182629,52.017042
Via Horta,109,,,3995ZP,Houten,Houten,Utrecht,VBO,5.182609,52.017088
Via Horta,111,,,3995ZP,Houten,Houten,Utrecht,VBO,5.182580,52.017136
Via Horta,113,,,3995ZP,Houten,Houten,Utrecht,VBO,5.182554,52.017181
Via Horta,115,,,3995ZP,Houten,Houten,Utrecht,VBO,5.182528,52.017225
Via Horta,117,,,3995ZP,Houten,Houten,Utrecht,VBO,5.182496,52.017270
Via Horta,119,,,3995ZP,Houten,Houten,Utrecht,VBO,5.182470,52.017316
Via Horta,121,,,3995ZP,Houten,Houten,Utrecht,VBO,5.182444,52.017362
Via Horta,123,,,3995ZP,Houten,Houten,Utrecht,VBO,5.182436,52.017428
Via Horta,125,,,3995ZP,Houten,Houten,Utrecht,VBO,5.182374,52.017451
Via Horta,127,,,3995ZP,Houten,Houten,Utrecht,VBO,5.182283,52.017447
Via Horta,129,,,3995ZP,Houten,Houten,Utrecht,VBO,5.182433,52.017454
Via Horta,131,,,3995ZP,Houten,Houten,Utrecht,VBO,5.182371,52.017475
Via Horta,133,,,3995ZP,Houten,Houten,Utrecht,VBO,5.182278,52.017470
Via Horta,135,,,3995ZP,Houten,Houten,Utrecht,VBO,5.182431,52.017480
Via Horta,137,,,3995ZP,Houten,Houten,Utrecht,VBO,5.182367,52.017501
Via Horta,139,,,3995ZP,Houten,Houten,Utrecht,VBO,5.182273,52.017497
Via Horta,141,,,3995ZP,Houten,Houten,Utrecht,VBO,5.182428,52.017505
Via Horta,143,,,3995ZP,Houten,Houten,Utrecht,VBO,5.182364,52.017529
Via Horta,145,,,3995ZP,Houten,Houten,Utrecht,VBO,5.182267,52.017524
Via Horta,147,,,3995ZP,Houten,Houten,Utrecht,VBO,5.182427,52.017527
Via Horta,149,,,3995ZP,Houten,Houten,Utrecht,VBO,5.182358,52.017552
Via Horta,151,,,3995ZP,Houten,Houten,Utrecht,VBO,5.182262,52.017554
Via Horta,2,,,3995ZR,Houten,Houten,Utrecht,VBO,5.180975,52.016221
Via Horta,4,,,3995ZR,Houten,Houten,Utrecht,VBO,5.181143,52.016261
Via Horta,6,,,3995ZR,Houten,Houten,Utrecht,VBO,5.181453,52.016334
Via Horta,8,,,3995ZR,Houten,Houten,Utrecht,VBO,5.181963,52.016468
Via Horta,10,,,3995ZR,Houten,Houten,Utrecht,VBO,5.182144,52.016512
Via Horta,12,,,3995ZR,Houten,Houten,Utrecht,VBO,5.182501,52.016597
Via Horta,14,,,3995ZR,Houten,Houten,Utrecht,VBO,5.182473,52.016644
Via Horta,16,,,3995ZR,Houten,Houten,Utrecht,VBO,5.182436,52.016693
Via Horta,18,,,3995ZR,Houten,Houten,Utrecht,VBO,5.182408,52.016739
Via Horta,20,,,3995ZR,Houten,Houten,Utrecht,VBO,5.182386,52.016792
Via Horta,22,,,3995ZR,Houten,Houten,Utrecht,VBO,5.182346,52.016836
Via Horta,24,,,3995ZR,Houten,Houten,Utrecht,VBO,5.182318,52.016883
Via Horta,26,,,3995ZR,Houten,Houten,Utrecht,VBO,5.182284,52.016927
Via Horta,28,,,3995ZR,Houten,Houten,Utrecht,VBO,5.182243,52.017046
Via Horta,30,,,3995ZR,Houten,Houten,Utrecht,VBO,5.182139,52.017198
Via Horta,32,,,3995ZR,Houten,Houten,Utrecht,VBO,5.181954,52.017475
Via Horta,34,,,3995ZR,Houten,Houten,Utrecht,VBO,5.181875,52.017457
Via Horta,36,,,3995ZR,Houten,Houten,Utrecht,VBO,5.181798,52.017438
Via Horta,38,,,3995ZR,Houten,Houten,Utrecht,VBO,5.181720,52.017420
Via Horta,40,,,3995ZR,Houten,Houten,Utrecht,VBO,5.181643,52.017402
Via Horta,42,,,3995ZR,Houten,Houten,Utrecht,VBO,5.181565,52.017384
Via Horta,44,,,3995ZR,Houten,Houten,Utrecht,VBO,5.181488,52.017365
Via Horta,46,,,3995ZR,Houten,Houten,Utrecht,VBO,5.181410,52.017347
Via Horta,48,,,3995ZR,Houten,Houten,Utrecht,VBO,5.181331,52.017328
Via Horta,50,,,3995ZR,Houten,Houten,Utrecht,VBO,5.181194,52.017298
Via Culina,1,,,3995ZS,Houten,Houten,Utrecht,VBO,5.181649,52.016415
Via Culina,2,,,3995ZS,Houten,Houten,Utrecht,VBO,5.181468,52.016413
Via Culina,3,,,3995ZS,Houten,Houten,Utrecht,VBO,5.181618,52.016485
Via Culina,4,,,3995ZS,Houten,Houten,Utrecht,VBO,5.181429,52.016461
Via Culina,5,,,3995ZS,Houten,Houten,Utrecht,VBO,5.181577,52.016532
Via Culina,6,,,3995ZS,Houten,Houten,Utrecht,VBO,5.181388,52.016503
Via Culina,7,,,3995ZS,Houten,Houten,Utrecht,VBO,5.181543,52.016582
Via Culina,8,,,3995ZS,Houten,Houten,Utrecht,VBO,5.181356,52.016554
Via Culina,9,,,3995ZS,Houten,Houten,Utrecht,VBO,5.181503,52.016623
Via Culina,10,,,3995ZS,Houten,Houten,Utrecht,VBO,5.181317,52.016600
Via Culina,11,,,3995ZS,Houten,Houten,Utrecht,VBO,5.181469,52.016673
Via Culina,12,,,3995ZS,Houten,Houten,Utrecht,VBO,5.181286,52.016646
Via Culina,13,,,3995ZS,Houten,Houten,Utrecht,VBO,5.181444,52.016714
Via Culina,14,,,3995ZS,Houten,Houten,Utrecht,VBO,5.181252,52.016694
Via Culina,15,,,3995ZS,Houten,Houten,Utrecht,VBO,5.181391,52.016758
Via Culina,16,a,,3995ZS,Houten,Houten,Utrecht,VBO,5.181162,52.016791
Via Culina,16,,,3995ZS,Houten,Houten,Utrecht,VBO,5.181162,52.016791
Via Culina,17,,,3995ZS,Houten,Houten,Utrecht,VBO,5.181354,52.016813
Via Tunica,1,,,3995ZT,Houten,Houten,Utrecht,VBO,5.182060,52.017163
Via Tunica,2,,,3995ZT,Houten,Houten,Utrecht,VBO,5.182126,52.017050
Via Tunica,3,,,3995ZT,Houten,Houten,Utrecht,VBO,5.181977,52.017143
Via Tunica,4,,,3995ZT,Houten,Houten,Utrecht,VBO,5.182046,52.017035
Via Tunica,5,,,3995ZT,Houten,Houten,Utrecht,VBO,5.181901,52.017126
Via Tunica,6,,,3995ZT,Houten,Houten,Utrecht,VBO,5.181969,52.017016
Via Tunica,7,,,3995ZT,Houten,Houten,Utrecht,VBO,5.181825,52.017112
Via Tunica,8,,,3995ZT,Houten,Houten,Utrecht,VBO,5.181889,52.016998
Via Tunica,9,,,3995ZT,Houten,Houten,Utrecht,VBO,5.181746,52.017087
Via Tunica,10,,,3995ZT,Houten,Houten,Utrecht,VBO,5.181812,52.016975
Via Tunica,11,,,3995ZT,Houten,Houten,Utrecht,VBO,5.181677,52.017061
Via Tunica,12,,,3995ZT,Houten,Houten,Utrecht,VBO,5.181739,52.016962
Via Tunica,13,,,3995ZT,Houten,Houten,Utrecht,VBO,5.181597,52.017044
Via Tunica,14,,,3995ZT,Houten,Houten,Utrecht,VBO,5.181659,52.016947
Via Tunica,15,,,3995ZT,Houten,Houten,Utrecht,VBO,5.181515,52.017028
Via Tunica,16,,,3995ZT,Houten,Houten,Utrecht,VBO,5.181585,52.016926
Via Tunica,18,,,3995ZT,Houten,Houten,Utrecht,VBO,5.181357,52.016883
