openbareruimtenaam,huisnummer,huisletter,huisnummertoevoeging,postcode,woonplaatsnaam,gemeentenaam,provincienaam,typeadresseerbaarobject,longitude,latitude
Stephensonstraat,1,,,4004JA,Tiel,Tiel,Gelderland,VBO,5.427051,51.909449
Stephensonstraat,2,,,4004JA,Tiel,Tiel,Gelderland,VBO,5.428068,51.909457
Stephensonstraat,3,,,4004JA,Tiel,Tiel,Gelderland,VBO,5.426993,51.909709
Stephensonstraat,5,,,4004JA,Tiel,Tiel,Gelderland,VBO,5.426674,51.910563
Stephensonstraat,6,,,4004JA,Tiel,Tiel,Gelderland,VBO,5.428316,51.910078
Stephensonstraat,7,,,4004JA,Tiel,Tiel,Gelderland,VBO,5.427097,51.911804
Stephensonstraat,9,,,4004JA,Tiel,Tiel,Gelderland,VBO,5.426850,51.911795
Stephensonstraat,10,,,4004JA,Tiel,Tiel,Gelderland,VBO,5.427516,51.912708
Stephensonstraat,11,,,4004JA,Tiel,Tiel,Gelderland,VBO,5.426592,51.911791
Stephensonstraat,12,,,4004JA,Tiel,Tiel,Gelderland,VBO,5.427456,51.913166
Stephensonstraat,13,,,4004JA,Tiel,Tiel,Gelderland,VBO,5.426326,51.911777
Stephensonstraat,14,,,4004JA,Tiel,Tiel,Gelderland,VBO,5.427423,51.913551
Stephensonstraat,15,,,4004JA,Tiel,Tiel,Gelderland,VBO,5.426144,51.912422
Stephensonstraat,16,,,4004JA,Tiel,Tiel,Gelderland,VBO,5.427139,51.913699
Stephensonstraat,17,a,,4004JA,Tiel,Tiel,Gelderland,VBO,5.426369,51.912435
Stephensonstraat,17,b,,4004JA,Tiel,Tiel,Gelderland,VBO,5.426272,51.912389
Stephensonstraat,17,d,,4004JA,Tiel,Tiel,Gelderland,VBO,5.426400,51.912324
Stephensonstraat,17,e,,4004JA,Tiel,Tiel,Gelderland,VBO,5.426418,51.912267
Stephensonstraat,18,,,4004JA,Tiel,Tiel,Gelderland,VBO,5.427172,51.913975
Stephensonstraat,19,,,4004JA,Tiel,Tiel,Gelderland,VBO,5.426476,51.912420
Stephensonstraat,20,,,4004JA,Tiel,Tiel,Gelderland,VBO,5.427085,51.914254
Stephensonstraat,21,,,4004JA,Tiel,Tiel,Gelderland,VBO,5.426240,51.912784
Stephensonstraat,23,a,,4004JA,Tiel,Tiel,Gelderland,VBO,5.426497,51.913344
Stephensonstraat,23,,,4004JA,Tiel,Tiel,Gelderland,VBO,5.426310,51.913783
Stephensonstraat,25,,,4004JA,Tiel,Tiel,Gelderland,VBO,5.425747,51.914447
Hoogkellenseweg,2,,,4004JB,Tiel,Tiel,Gelderland,VBO,5.443755,51.903026
Hoogkellenseweg,5,,,4004JB,Tiel,Tiel,Gelderland,VBO,5.442235,51.903624
Hoogkellenseweg,7,,,4004JB,Tiel,Tiel,Gelderland,VBO,5.441367,51.903806
Hoogkellenseweg,8,,,4004JB,Tiel,Tiel,Gelderland,VBO,5.443162,51.905092
Hoogkellenseweg,10,,,4004JB,Tiel,Tiel,Gelderland,VBO,5.443119,51.905353
Kellensedwarsweg,2,,,4004JC,Tiel,Tiel,Gelderland,VBO,5.439895,51.906954
Kellensedwarsweg,3,,,4004JC,Tiel,Tiel,Gelderland,VBO,5.439136,51.906143
Kellensedwarsweg,5,,,4004JC,Tiel,Tiel,Gelderland,VBO,5.439107,51.906290
Kellensedwarsweg,9,,,4004JC,Tiel,Tiel,Gelderland,VBO,5.438724,51.906711
Kellenseweg,2,a,,4004JD,Tiel,Tiel,Gelderland,VBO,5.444253,51.905927
Kellenseweg,2,b,,4004JD,Tiel,Tiel,Gelderland,VBO,5.444544,51.905765
Kellenseweg,4,a,,4004JD,Tiel,Tiel,Gelderland,VBO,5.443846,51.905820
Kellenseweg,4,,,4004JD,Tiel,Tiel,Gelderland,VBO,5.443426,51.906022
Kellenseweg,8,,,4004JD,Tiel,Tiel,Gelderland,VBO,5.442917,51.906135
Kellenseweg,16,,,4004JD,Tiel,Tiel,Gelderland,VBO,5.441521,51.905955
Kellenseweg,17,a,,4004JD,Tiel,Tiel,Gelderland,VBO,5.446094,51.904989
Kellenseweg,17,,,4004JD,Tiel,Tiel,Gelderland,VBO,5.446558,51.904944
Kellenseweg,18,a,,4004JD,Tiel,Tiel,Gelderland,VBO,5.440591,51.906091
Kellenseweg,18,,,4004JD,Tiel,Tiel,Gelderland,VBO,5.440998,51.906046
Kellenseweg,20,,,4004JD,Tiel,Tiel,Gelderland,VBO,5.439850,51.906055
Kellenseweg,21,,,4004JD,Tiel,Tiel,Gelderland,VBO,5.445009,51.905100
Kellenseweg,22,,,4004JD,Tiel,Tiel,Gelderland,VBO,5.439087,51.905875
Kellenseweg,24,,,4004JD,Tiel,Tiel,Gelderland,VBO,5.438542,51.905993
Kellenseweg,28,,,4004JD,Tiel,Tiel,Gelderland,VBO,5.437220,51.905894
Panovenweg,10,,,4004JE,Tiel,Tiel,Gelderland,VBO,5.447857,51.905575
Panovenweg,14,a,,4004JE,Tiel,Tiel,Gelderland,VBO,5.447364,51.906851
Panovenweg,14,,,4004JE,Tiel,Tiel,Gelderland,VBO,5.447393,51.906851
Panovenweg,15,,,4004JE,Tiel,Tiel,Gelderland,VBO,5.440811,51.909126
Panovenweg,16,,,4004JE,Tiel,Tiel,Gelderland,VBO,5.447684,51.906878
Panovenweg,20,,,4004JE,Tiel,Tiel,Gelderland,VBO,5.447394,51.907624
Panovenweg,21,,,4004JE,Tiel,Tiel,Gelderland,VBO,5.447120,51.908567
Panovenweg,23,,,4004JE,Tiel,Tiel,Gelderland,VBO,5.443347,51.913217
Staartsestraat,2,,,4004JH,Tiel,Tiel,Gelderland,VBO,5.427728,51.902294
Staartsestraat,18,a,,4004JH,Tiel,Tiel,Gelderland,VBO,5.427627,51.903399
Zuiderhavenweg,2,,,4004JJ,Tiel,Tiel,Gelderland,VBO,5.436818,51.903564
Zuiderhavenweg,4,,,4004JJ,Tiel,Tiel,Gelderland,VBO,5.436744,51.903919
Zuiderhavenweg,6,,,4004JJ,Tiel,Tiel,Gelderland,VBO,5.436754,51.904834
Zuiderhavenweg,7,a,,4004JJ,Tiel,Tiel,Gelderland,VBO,5.435923,51.905120
Zuiderhavenweg,7,,,4004JJ,Tiel,Tiel,Gelderland,VBO,5.435953,51.904903
Zuiderhavenweg,9,,,4004JJ,Tiel,Tiel,Gelderland,VBO,5.435491,51.905868
Zuiderhavenweg,12,,,4004JJ,Tiel,Tiel,Gelderland,VBO,5.436089,51.907809
Zuiderhavenweg,20,,,4004JJ,Tiel,Tiel,Gelderland,VBO,5.435276,51.909293
Zuiderhavenweg,24,,,4004JJ,Tiel,Tiel,Gelderland,VBO,5.434246,51.910282
Zuiderhavenweg,26,,,4004JJ,Tiel,Tiel,Gelderland,VBO,5.433619,51.911035
Zuiderhavenweg,42,,,4004JJ,Tiel,Tiel,Gelderland,VBO,5.433522,51.912988
Zuiderhavenweg,44,,,4004JJ,Tiel,Tiel,Gelderland,VBO,5.434438,51.913446
Zuiderhavenweg,46,,,4004JJ,Tiel,Tiel,Gelderland,VBO,5.435543,51.913751
Zuiderhavenweg,48,,,4004JJ,Tiel,Tiel,Gelderland,VBO,5.435921,51.914038
Zuiderhavenweg,50,,,4004JJ,Tiel,Tiel,Gelderland,VBO,5.437405,51.915674
Zuiderhavenweg,52,a,,4004JJ,Tiel,Tiel,Gelderland,VBO,5.436860,51.916517
Zuiderhavenweg,52,b,,4004JJ,Tiel,Tiel,Gelderland,VBO,5.436782,51.916437
Zuiderhavenweg,52,c,,4004JJ,Tiel,Tiel,Gelderland,VBO,5.436344,51.916632
Zuiderhavenweg,52,d,,4004JJ,Tiel,Tiel,Gelderland,VBO,5.436233,51.916686
Zuiderhavenweg,52,,,4004JJ,Tiel,Tiel,Gelderland,VBO,5.435938,51.916070
Zuiderhavenweg,54,,,4004JJ,Tiel,Tiel,Gelderland,VBO,5.435996,51.916519
Zuiderhavenweg,56,,,4004JJ,Tiel,Tiel,Gelderland,VBO,5.435095,51.916573
Franklinstraat,1,,,4004JK,Tiel,Tiel,Gelderland,VBO,5.432113,51.903752
Franklinstraat,2,,,4004JK,Tiel,Tiel,Gelderland,VBO,5.431078,51.904822
Franklinstraat,3,,,4004JK,Tiel,Tiel,Gelderland,VBO,5.433474,51.903016
Franklinstraat,4,a,,4004JK,Tiel,Tiel,Gelderland,VBO,5.431419,51.903612
Franklinstraat,4,,,4004JK,Tiel,Tiel,Gelderland,VBO,5.431273,51.903782
Franklinstraat,5,,,4004JK,Tiel,Tiel,Gelderland,VBO,5.435877,51.903066
Franklinstraat,6,a,,4004JK,Tiel,Tiel,Gelderland,VBO,5.431726,51.903247
Franklinstraat,6,,,4004JK,Tiel,Tiel,Gelderland,VBO,5.430824,51.903470
Franklinstraat,8,a,,4004JK,Tiel,Tiel,Gelderland,VBO,5.431339,51.902983
Franklinstraat,10,,,4004JK,Tiel,Tiel,Gelderland,VBO,5.431969,51.902958
Franklinstraat,11,,,4004JK,Tiel,Tiel,Gelderland,VBO,5.436941,51.903180
Franklinstraat,13,a,,4004JK,Tiel,Tiel,Gelderland,VBO,5.437973,51.903297
Franklinstraat,13,,,4004JK,Tiel,Tiel,Gelderland,VBO,5.437406,51.903234
Franklinstraat,15,,,4004JK,Tiel,Tiel,Gelderland,VBO,5.438404,51.903179
Edisonstraat,1,,,4004JL,Tiel,Tiel,Gelderland,VBO,5.431887,51.904977
Edisonstraat,3,,,4004JL,Tiel,Tiel,Gelderland,VBO,5.432227,51.904990
Edisonstraat,4,,,4004JL,Tiel,Tiel,Gelderland,VBO,5.432812,51.904046
Edisonstraat,5,,,4004JL,Tiel,Tiel,Gelderland,VBO,5.432556,51.905004
Edisonstraat,6,,,4004JL,Tiel,Tiel,Gelderland,VBO,5.433957,51.904035
Edisonstraat,7,,,4004JL,Tiel,Tiel,Gelderland,VBO,5.432873,51.905026
Edisonstraat,9,,,4004JL,Tiel,Tiel,Gelderland,VBO,5.433182,51.905043
Edisonstraat,11,a,,4004JL,Tiel,Tiel,Gelderland,VBO,5.434117,51.905077
Edisonstraat,11,,,4004JL,Tiel,Tiel,Gelderland,VBO,5.433540,51.905074
Edisonstraat,13,,,4004JL,Tiel,Tiel,Gelderland,VBO,5.434757,51.905124
Edisonstraat,14,,,4004JL,Tiel,Tiel,Gelderland,VBO,5.436840,51.904178
Edisonstraat,15,,,4004JL,Tiel,Tiel,Gelderland,VBO,5.435079,51.905140
Edisonstraat,16,,,4004JL,Tiel,Tiel,Gelderland,VBO,5.437712,51.904222
Edisonstraat,18,a,,4004JL,Tiel,Tiel,Gelderland,VBO,5.438598,51.904114
Edisonstraat,18,,,4004JL,Tiel,Tiel,Gelderland,VBO,5.438981,51.904464
Edisonstraat,20,,,4004JL,Tiel,Tiel,Gelderland,VBO,5.438700,51.903863
Edisonstraat,21,,01,4004JL,Tiel,Tiel,Gelderland,VBO,5.437589,51.904770
Edisonstraat,21,,02,4004JL,Tiel,Tiel,Gelderland,VBO,5.437700,51.904839
Edisonstraat,21,,03,4004JL,Tiel,Tiel,Gelderland,VBO,5.437816,51.904788
Edisonstraat,21,,04,4004JL,Tiel,Tiel,Gelderland,VBO,5.437925,51.904825
Edisonstraat,21,,05,4004JL,Tiel,Tiel,Gelderland,VBO,5.438005,51.904895
Edisonstraat,21,,06,4004JL,Tiel,Tiel,Gelderland,VBO,5.438133,51.904795
Edisonstraat,21,,07,4004JL,Tiel,Tiel,Gelderland,VBO,5.438205,51.904848
Edisonstraat,21,,08,4004JL,Tiel,Tiel,Gelderland,VBO,5.438133,51.904929
Edisonstraat,21,,09,4004JL,Tiel,Tiel,Gelderland,VBO,5.438045,51.904983
Edisonstraat,21,,10,4004JL,Tiel,Tiel,Gelderland,VBO,5.438022,51.905072
Edisonstraat,21,,11,4004JL,Tiel,Tiel,Gelderland,VBO,5.438095,51.905154
Edisonstraat,21,,12,4004JL,Tiel,Tiel,Gelderland,VBO,5.438153,51.905286
Edisonstraat,21,,13,4004JL,Tiel,Tiel,Gelderland,VBO,5.438081,51.905248
Edisonstraat,21,,14,4004JL,Tiel,Tiel,Gelderland,VBO,5.437986,51.905221
Edisonstraat,21,,15,4004JL,Tiel,Tiel,Gelderland,VBO,5.437871,51.905183
Edisonstraat,21,,16,4004JL,Tiel,Tiel,Gelderland,VBO,5.437799,51.905148
Edisonstraat,21,,17,4004JL,Tiel,Tiel,Gelderland,VBO,5.437644,51.905205
Edisonstraat,21,,18,4004JL,Tiel,Tiel,Gelderland,VBO,5.437490,51.905264
Edisonstraat,21,,19,4004JL,Tiel,Tiel,Gelderland,VBO,5.437514,51.905178
Edisonstraat,21,,20,4004JL,Tiel,Tiel,Gelderland,VBO,5.437535,51.905080
Edisonstraat,21,,21,4004JL,Tiel,Tiel,Gelderland,VBO,5.437540,51.904982
Edisonstraat,21,,22,4004JL,Tiel,Tiel,Gelderland,VBO,5.437545,51.904857
Edisonstraat,22,,,4004JL,Tiel,Tiel,Gelderland,VBO,5.438642,51.903710
Edisonstraat,24,,,4004JL,Tiel,Tiel,Gelderland,VBO,5.438659,51.903520
Edisonstraat,25,,,4004JL,Tiel,Tiel,Gelderland,VBO,5.439181,51.904950
Edisonstraat,26,,,4004JL,Tiel,Tiel,Gelderland,VBO,5.438635,51.903409
Edisonstraat,27,,,4004JL,Tiel,Tiel,Gelderland,VBO,5.439568,51.903477
Edisonstraat,28,,,4004JL,Tiel,Tiel,Gelderland,VBO,5.438589,51.903278
Edisonstraat,29,,,4004JL,Tiel,Tiel,Gelderland,VBO,5.440298,51.903340
Marconistraat,2,,,4004JM,Tiel,Tiel,Gelderland,VBO,5.435498,51.906718
Marconistraat,4,,,4004JM,Tiel,Tiel,Gelderland,VBO,5.435031,51.906609
Marconistraat,5,a,,4004JM,Tiel,Tiel,Gelderland,VBO,5.434976,51.905653
Marconistraat,5,b,,4004JM,Tiel,Tiel,Gelderland,VBO,5.435060,51.905767
Marconistraat,5,c,,4004JM,Tiel,Tiel,Gelderland,VBO,5.435041,51.905948
Marconistraat,5,f,,4004JM,Tiel,Tiel,Gelderland,VBO,5.435089,51.906254
Marconistraat,5,g,,4004JM,Tiel,Tiel,Gelderland,VBO,5.434900,51.906183
Marconistraat,5,h,,4004JM,Tiel,Tiel,Gelderland,VBO,5.435009,51.906117
Marconistraat,5,,,4004JM,Tiel,Tiel,Gelderland,VBO,5.434686,51.906134
Marconistraat,6,,,4004JM,Tiel,Tiel,Gelderland,VBO,5.433609,51.906551
Marconistraat,7,a,,4004JM,Tiel,Tiel,Gelderland,VBO,5.433201,51.906069
Marconistraat,7,,,4004JM,Tiel,Tiel,Gelderland,VBO,5.434113,51.906172
Marconistraat,8,a,,4004JM,Tiel,Tiel,Gelderland,VBO,5.431882,51.906466
Marconistraat,8,,,4004JM,Tiel,Tiel,Gelderland,VBO,5.431776,51.906446
Marconistraat,9,,,4004JM,Tiel,Tiel,Gelderland,VBO,5.432802,51.905752
Marconistraat,10,,,4004JM,Tiel,Tiel,Gelderland,VBO,5.431752,51.906540
Marconistraat,11,a,,4004JM,Tiel,Tiel,Gelderland,VBO,5.431646,51.905978
Marconistraat,11,,10,4004JM,Tiel,Tiel,Gelderland,VBO,5.431989,51.905995
Marconistraat,12,,,4004JM,Tiel,Tiel,Gelderland,VBO,5.431243,51.906421
Marconistraat,13,,,4004JM,Tiel,Tiel,Gelderland,VBO,5.430710,51.905879
Marconistraat,14,a,,4004JM,Tiel,Tiel,Gelderland,VBO,5.431007,51.906441
Marconistraat,14,,,4004JM,Tiel,Tiel,Gelderland,VBO,5.431087,51.906413
Marconistraat,15,,,4004JM,Tiel,Tiel,Gelderland,VBO,5.427731,51.906177
Marconistraat,16,,,4004JM,Tiel,Tiel,Gelderland,VBO,5.429882,51.906796
Marconistraat,18,,,4004JM,Tiel,Tiel,Gelderland,VBO,5.429417,51.906805
Marconistraat,19,,,4004JM,Tiel,Tiel,Gelderland,VBO,5.427253,51.907705
Marconistraat,20,,,4004JM,Tiel,Tiel,Gelderland,VBO,5.428648,51.907336
Marconistraat,21,,,4004JM,Tiel,Tiel,Gelderland,VBO,5.427224,51.907768
Marconistraat,22,a,,4004JM,Tiel,Tiel,Gelderland,VBO,5.428649,51.907658
Marconistraat,22,,,4004JM,Tiel,Tiel,Gelderland,VBO,5.428488,51.907812
Marconistraat,23,,,4004JM,Tiel,Tiel,Gelderland,VBO,5.427573,51.908223
Marconistraat,24,,,4004JM,Tiel,Tiel,Gelderland,VBO,5.428388,51.908352
Marconistraat,32,,,4004JM,Tiel,Tiel,Gelderland,VBO,5.428271,51.908578
Marconistraat,34,,,4004JM,Tiel,Tiel,Gelderland,VBO,5.428515,51.908589
Marconistraat,36,,,4004JM,Tiel,Tiel,Gelderland,VBO,5.428133,51.908763
Marconistraat,38,,,4004JM,Tiel,Tiel,Gelderland,VBO,5.428114,51.908910
Bellstraat,3,a,,4004JN,Tiel,Tiel,Gelderland,VBO,5.430189,51.908214
Bellstraat,3,b,,4004JN,Tiel,Tiel,Gelderland,VBO,5.429603,51.908124
Bellstraat,3,c,,4004JN,Tiel,Tiel,Gelderland,VBO,5.429467,51.908112
Bellstraat,3,d,,4004JN,Tiel,Tiel,Gelderland,VBO,5.429316,51.908108
Bellstraat,3,,,4004JN,Tiel,Tiel,Gelderland,VBO,5.429401,51.907874
Bellstraat,4,,,4004JN,Tiel,Tiel,Gelderland,VBO,5.430852,51.907283
Bellstraat,5,,,4004JN,Tiel,Tiel,Gelderland,VBO,5.430116,51.908396
Bellstraat,6,,,4004JN,Tiel,Tiel,Gelderland,VBO,5.430824,51.907643
Bellstraat,7,,,4004JN,Tiel,Tiel,Gelderland,VBO,5.429991,51.908779
Bellstraat,8,a,,4004JN,Tiel,Tiel,Gelderland,VBO,5.431457,51.907838
Bellstraat,8,b,,4004JN,Tiel,Tiel,Gelderland,VBO,5.431437,51.907947
Bellstraat,8,c,,4004JN,Tiel,Tiel,Gelderland,VBO,5.430801,51.907864
Bellstraat,8,,,4004JN,Tiel,Tiel,Gelderland,VBO,5.430770,51.908072
Bellstraat,10,,,4004JN,Tiel,Tiel,Gelderland,VBO,5.431177,51.908405
Bellstraat,12,,,4004JN,Tiel,Tiel,Gelderland,VBO,5.430696,51.908598
Morsestraat,1,,,4004JP,Tiel,Tiel,Gelderland,VBO,5.432585,51.906615
Morsestraat,3,a,,4004JP,Tiel,Tiel,Gelderland,VBO,5.432784,51.907369
Morsestraat,3,b,,4004JP,Tiel,Tiel,Gelderland,VBO,5.432770,51.907445
Morsestraat,3,,,4004JP,Tiel,Tiel,Gelderland,VBO,5.432194,51.907231
Morsestraat,4,,,4004JP,Tiel,Tiel,Gelderland,VBO,5.433356,51.907074
Morsestraat,5,,,4004JP,Tiel,Tiel,Gelderland,VBO,5.432707,51.907656
Morsestraat,6,,,4004JP,Tiel,Tiel,Gelderland,VBO,5.433315,51.907506
Morsestraat,7,,,4004JP,Tiel,Tiel,Gelderland,VBO,5.432597,51.907913
Morsestraat,8,a,,4004JP,Tiel,Tiel,Gelderland,VBO,5.433357,51.907793
Morsestraat,8,b,,4004JP,Tiel,Tiel,Gelderland,VBO,5.433386,51.907936
Morsestraat,8,c,,4004JP,Tiel,Tiel,Gelderland,VBO,5.433313,51.908071
Morsestraat,8,,,4004JP,Tiel,Tiel,Gelderland,VBO,5.433371,51.907685
Morsestraat,9,,,4004JP,Tiel,Tiel,Gelderland,VBO,5.432441,51.908179
Morsestraat,10,a,,4004JP,Tiel,Tiel,Gelderland,VBO,5.433237,51.908350
Morsestraat,10,,,4004JP,Tiel,Tiel,Gelderland,VBO,5.433232,51.908231
Morsestraat,11,a,,4004JP,Tiel,Tiel,Gelderland,VBO,5.432636,51.908563
Morsestraat,11,b,,4004JP,Tiel,Tiel,Gelderland,VBO,5.432531,51.908555
Morsestraat,11,c,,4004JP,Tiel,Tiel,Gelderland,VBO,5.432433,51.908551
Morsestraat,11,d,,4004JP,Tiel,Tiel,Gelderland,VBO,5.432345,51.908546
Morsestraat,11,e,,4004JP,Tiel,Tiel,Gelderland,VBO,5.432258,51.908543
Morsestraat,11,f,,4004JP,Tiel,Tiel,Gelderland,VBO,5.432152,51.908537
Morsestraat,11,g,,4004JP,Tiel,Tiel,Gelderland,VBO,5.432063,51.908532
Morsestraat,11,h,,4004JP,Tiel,Tiel,Gelderland,VBO,5.431977,51.908527
Morsestraat,11,i,,4004JP,Tiel,Tiel,Gelderland,VBO,5.431875,51.908521
Morsestraat,11,j,,4004JP,Tiel,Tiel,Gelderland,VBO,5.431772,51.908518
Morsestraat,11,k,,4004JP,Tiel,Tiel,Gelderland,VBO,5.431787,51.908396
Morsestraat,11,l,,4004JP,Tiel,Tiel,Gelderland,VBO,5.431890,51.908401
Morsestraat,11,m,,4004JP,Tiel,Tiel,Gelderland,VBO,5.431994,51.908407
Morsestraat,11,n,,4004JP,Tiel,Tiel,Gelderland,VBO,5.432081,51.908411
Morsestraat,11,o,,4004JP,Tiel,Tiel,Gelderland,VBO,5.432171,51.908417
Morsestraat,11,p,,4004JP,Tiel,Tiel,Gelderland,VBO,5.432273,51.908421
Morsestraat,11,q,,4004JP,Tiel,Tiel,Gelderland,VBO,5.432364,51.908424
Morsestraat,11,r,,4004JP,Tiel,Tiel,Gelderland,VBO,5.432455,51.908429
Morsestraat,11,s,,4004JP,Tiel,Tiel,Gelderland,VBO,5.432550,51.908435
Morsestraat,11,t,,4004JP,Tiel,Tiel,Gelderland,VBO,5.432663,51.908442
Morsestraat,12,,,4004JP,Tiel,Tiel,Gelderland,VBO,5.433211,51.908574
Morsestraat,13,,,4004JP,Tiel,Tiel,Gelderland,VBO,5.432465,51.908839
Morsestraat,14,,,4004JP,Tiel,Tiel,Gelderland,VBO,5.433176,51.908920
Morsestraat,15,a,,4004JP,Tiel,Tiel,Gelderland,VBO,5.432509,51.909074
Morsestraat,16,,,4004JP,Tiel,Tiel,Gelderland,VBO,5.433006,51.909331
Morsestraat,17,,,4004JP,Tiel,Tiel,Gelderland,VBO,5.431687,51.909914
Morsestraat,19,,,4004JP,Tiel,Tiel,Gelderland,VBO,5.431441,51.910247
Morsestraat,20,,,4004JP,Tiel,Tiel,Gelderland,VBO,5.432705,51.909770
Morsestraat,21,,,4004JP,Tiel,Tiel,Gelderland,VBO,5.431296,51.910616
Morsestraat,22,,,4004JP,Tiel,Tiel,Gelderland,VBO,5.432589,51.910229
Morsestraat,23,,01,4004JP,Tiel,Tiel,Gelderland,VBO,5.430832,51.911252
Morsestraat,23,,02,4004JP,Tiel,Tiel,Gelderland,VBO,5.430756,51.911327
Morsestraat,23,,03,4004JP,Tiel,Tiel,Gelderland,VBO,5.430705,51.911416
Morsestraat,23,,04,4004JP,Tiel,Tiel,Gelderland,VBO,5.430658,51.911512
Morsestraat,23,,05,4004JP,Tiel,Tiel,Gelderland,VBO,5.430644,51.911568
Morsestraat,23,,06,4004JP,Tiel,Tiel,Gelderland,VBO,5.430598,51.911673
Morsestraat,23,,,4004JP,Tiel,Tiel,Gelderland,VBO,5.430920,51.911152
Morsestraat,24,a,,4004JP,Tiel,Tiel,Gelderland,VBO,5.432106,51.910638
Morsestraat,24,,,4004JP,Tiel,Tiel,Gelderland,VBO,5.432277,51.910731
Morsestraat,25,,,4004JP,Tiel,Tiel,Gelderland,VBO,5.430047,51.911973
Morsestraat,26,,,4004JP,Tiel,Tiel,Gelderland,VBO,5.431965,51.911110
Morsestraat,28,,,4004JP,Tiel,Tiel,Gelderland,VBO,5.431660,51.911559
Morsestraat,29,,,4004JP,Tiel,Tiel,Gelderland,VBO,5.429823,51.912557
Morsestraat,30,,,4004JP,Tiel,Tiel,Gelderland,VBO,5.431243,51.911856
Morsestraat,31,,,4004JP,Tiel,Tiel,Gelderland,VBO,5.429605,51.912612
Morsestraat,32,,,4004JP,Tiel,Tiel,Gelderland,VBO,5.431243,51.911856
Morsestraat,33,,,4004JP,Tiel,Tiel,Gelderland,VBO,5.429437,51.912621
Morsestraat,34,,,4004JP,Tiel,Tiel,Gelderland,VBO,5.430993,51.912231
Morsestraat,35,,,4004JP,Tiel,Tiel,Gelderland,VBO,5.429234,51.912612
Morsestraat,36,,,4004JP,Tiel,Tiel,Gelderland,VBO,5.431022,51.913366
Morsestraat,37,,,4004JP,Tiel,Tiel,Gelderland,VBO,5.429409,51.912944
Morsestraat,39,,,4004JP,Tiel,Tiel,Gelderland,VBO,5.429176,51.913286
Morsestraat,40,,,4004JP,Tiel,Tiel,Gelderland,VBO,5.429242,51.915197
Morsestraat,41,,,4004JP,Tiel,Tiel,Gelderland,VBO,5.429167,51.913613
Morsestraat,43,,,4004JP,Tiel,Tiel,Gelderland,VBO,5.428582,51.914347
Koelenhofstraat,1,,,4004JR,Tiel,Tiel,Gelderland,VBO,5.447922,51.904858
Koelenhofstraat,2,,,4004JR,Tiel,Tiel,Gelderland,VBO,5.446906,51.904396
Koelenhofstraat,3,,,4004JR,Tiel,Tiel,Gelderland,VBO,5.447822,51.904565
Koelenhofstraat,4,a,,4004JR,Tiel,Tiel,Gelderland,VBO,5.446103,51.903892
Koelenhofstraat,4,,,4004JR,Tiel,Tiel,Gelderland,VBO,5.446881,51.903904
Koelenhofstraat,5,,,4004JR,Tiel,Tiel,Gelderland,VBO,5.447699,51.904250
Koelenhofstraat,6,,,4004JR,Tiel,Tiel,Gelderland,VBO,5.446023,51.903751
Koelenhofstraat,7,,,4004JR,Tiel,Tiel,Gelderland,VBO,5.447963,51.903288
Koelenhofstraat,11,,,4004JR,Tiel,Tiel,Gelderland,VBO,5.446851,51.903418
Koelenhofstraat,13,,,4004JR,Tiel,Tiel,Gelderland,VBO,5.445340,51.903176
Koelenhofstraat,17,,,4004JR,Tiel,Tiel,Gelderland,VBO,5.444520,51.903007
Koelenhofstraat,19,,,4004JR,Tiel,Tiel,Gelderland,VBO,5.444305,51.902999
Koelenhofstraat,21,,,4004JR,Tiel,Tiel,Gelderland,VBO,5.444396,51.903092
Koelenhofstraat,23,,,4004JR,Tiel,Tiel,Gelderland,VBO,5.444276,51.903192
Koelenhofstraat,25,,,4004JR,Tiel,Tiel,Gelderland,VBO,5.444260,51.903290
Koelenhofstraat,27,,,4004JR,Tiel,Tiel,Gelderland,VBO,5.444482,51.903302
Koelenhofstraat,29,,,4004JR,Tiel,Tiel,Gelderland,VBO,5.444504,51.903199
Koelenhofstraat,31,,,4004JR,Tiel,Tiel,Gelderland,VBO,5.444510,51.903097
Koelenhofstraat,33,,,4004JR,Tiel,Tiel,Gelderland,VBO,5.444382,51.903197
Koelenhofstraat,35,,,4004JR,Tiel,Tiel,Gelderland,VBO,5.444282,51.903090
Koelenhofstraat,37,,,4004JR,Tiel,Tiel,Gelderland,VBO,5.444418,51.902999
Koelenhofstraat,39,,,4004JR,Tiel,Tiel,Gelderland,VBO,5.444376,51.903290
Wattstraat,2,,,4004JS,Tiel,Tiel,Gelderland,VBO,5.431669,51.905583
Wattstraat,4,,,4004JS,Tiel,Tiel,Gelderland,VBO,5.432047,51.905634
Wattstraat,6,,,4004JS,Tiel,Tiel,Gelderland,VBO,5.432388,51.905671
Wattstraat,10,,,4004JS,Tiel,Tiel,Gelderland,VBO,5.432802,51.905752
Wattstraat,14,,,4004JS,Tiel,Tiel,Gelderland,VBO,5.431661,51.905757
Sir Rowland Hillstraat,1,a,,4004JT,Tiel,Tiel,Gelderland,VBO,5.432496,51.909193
Sir Rowland Hillstraat,1,b,,4004JT,Tiel,Tiel,Gelderland,VBO,5.432392,51.909204
Sir Rowland Hillstraat,1,c,,4004JT,Tiel,Tiel,Gelderland,VBO,5.432288,51.909199
Sir Rowland Hillstraat,1,d,,4004JT,Tiel,Tiel,Gelderland,VBO,5.432305,51.909053
Sir Rowland Hillstraat,2,,,4004JT,Tiel,Tiel,Gelderland,VBO,5.432050,51.909582
Sir Rowland Hillstraat,3,,,4004JT,Tiel,Tiel,Gelderland,VBO,5.431919,51.909141
Sir Rowland Hillstraat,7,,,4004JT,Tiel,Tiel,Gelderland,VBO,5.430753,51.909099
Sir Rowland Hillstraat,8,,,4004JT,Tiel,Tiel,Gelderland,VBO,5.429933,51.909536
Sir Rowland Hillstraat,9,,,4004JT,Tiel,Tiel,Gelderland,VBO,5.429975,51.909068
Sir Rowland Hillstraat,10,,,4004JT,Tiel,Tiel,Gelderland,VBO,5.428926,51.909547
Sir Rowland Hillstraat,15,,,4004JT,Tiel,Tiel,Gelderland,VBO,5.428271,51.908578
Sir Rowland Hillstraat,17,,,4004JT,Tiel,Tiel,Gelderland,VBO,5.427003,51.908835
Sir Rowland Hillstraat,19,,,4004JT,Tiel,Tiel,Gelderland,VBO,5.428271,51.908578
Simon Stevinstraat,1,a,,4004JV,Tiel,Tiel,Gelderland,VBO,5.433250,51.915942
Simon Stevinstraat,1,,,4004JV,Tiel,Tiel,Gelderland,VBO,5.433475,51.915981
Simon Stevinstraat,2,a,,4004JV,Tiel,Tiel,Gelderland,VBO,5.434113,51.916996
Simon Stevinstraat,2,,,4004JV,Tiel,Tiel,Gelderland,VBO,5.431522,51.916279
Simon Stevinstraat,3,,,4004JV,Tiel,Tiel,Gelderland,VBO,5.432871,51.915990
Simon Stevinstraat,5,,,4004JV,Tiel,Tiel,Gelderland,VBO,5.432709,51.916003
Simon Stevinstraat,6,,,4004JV,Tiel,Tiel,Gelderland,VBO,5.429935,51.916081
Simon Stevinstraat,7,,,4004JV,Tiel,Tiel,Gelderland,VBO,5.430724,51.915445
Simon Stevinstraat,10,,,4004JV,Tiel,Tiel,Gelderland,VBO,5.427422,51.915854
Simon Stevinstraat,13,,,4004JV,Tiel,Tiel,Gelderland,VBO,5.427158,51.915075
Simon Stevinstraat,15,,,4004JV,Tiel,Tiel,Gelderland,VBO,5.425573,51.914896
Simon Stevinstraat,26,,,4004JV,Tiel,Tiel,Gelderland,VBO,5.425697,51.915585
Industrieweg,4,,,4004JW,Tiel,Tiel,Gelderland,VBO,5.429494,51.904215
Industrieweg,6,,,4004JW,Tiel,Tiel,Gelderland,VBO,5.429612,51.904381
Industrieweg,8,,,4004JW,Tiel,Tiel,Gelderland,VBO,5.429125,51.904765
Industrieweg,10,,,4004JW,Tiel,Tiel,Gelderland,VBO,5.428356,51.905092
Industrieweg,11,,,4004JW,Tiel,Tiel,Gelderland,VBO,5.425966,51.907506
Noorderhavenweg,2,,,4004JX,Tiel,Tiel,Gelderland,VBO,5.436157,51.917103
Noorderhavenweg,4,,,4004JX,Tiel,Tiel,Gelderland,VBO,5.436661,51.916946
Faradaystraat,1,,,4004JZ,Tiel,Tiel,Gelderland,VBO,5.434416,51.906597
Faradaystraat,3,,,4004JZ,Tiel,Tiel,Gelderland,VBO,5.434460,51.906839
Faradaystraat,4,,,4004JZ,Tiel,Tiel,Gelderland,VBO,5.434982,51.907137
Faradaystraat,5,c,,4004JZ,Tiel,Tiel,Gelderland,VBO,5.434371,51.907655
Faradaystraat,5,d,,4004JZ,Tiel,Tiel,Gelderland,VBO,5.434330,51.907753
Faradaystraat,5,,,4004JZ,Tiel,Tiel,Gelderland,VBO,5.434469,51.907066
Faradaystraat,6,,,4004JZ,Tiel,Tiel,Gelderland,VBO,5.435027,51.907432
Faradaystraat,7,,,4004JZ,Tiel,Tiel,Gelderland,VBO,5.434216,51.907914
Faradaystraat,8,,,4004JZ,Tiel,Tiel,Gelderland,VBO,5.435071,51.907666
Faradaystraat,9,,,4004JZ,Tiel,Tiel,Gelderland,VBO,5.434158,51.908007
Faradaystraat,10,,,4004JZ,Tiel,Tiel,Gelderland,VBO,5.434825,51.907916
Faradaystraat,11,,,4004JZ,Tiel,Tiel,Gelderland,VBO,5.434082,51.908108
Faradaystraat,12,,,4004JZ,Tiel,Tiel,Gelderland,VBO,5.434738,51.908031
Faradaystraat,13,,,4004JZ,Tiel,Tiel,Gelderland,VBO,5.433861,51.908324
Faradaystraat,14,,01,4004JZ,Tiel,Tiel,Gelderland,VBO,5.434636,51.908115
Faradaystraat,14,,02,4004JZ,Tiel,Tiel,Gelderland,VBO,5.434573,51.908195
Faradaystraat,14,,03,4004JZ,Tiel,Tiel,Gelderland,VBO,5.434698,51.908238
Faradaystraat,14,,04,4004JZ,Tiel,Tiel,Gelderland,VBO,5.434829,51.908271
Faradaystraat,15,,,4004JZ,Tiel,Tiel,Gelderland,VBO,5.433686,51.908583
Faradaystraat,16,,01,4004JZ,Tiel,Tiel,Gelderland,VBO,5.434367,51.908413
Faradaystraat,16,,02,4004JZ,Tiel,Tiel,Gelderland,VBO,5.434298,51.908511
Faradaystraat,16,,03,4004JZ,Tiel,Tiel,Gelderland,VBO,5.434506,51.908463
Faradaystraat,16,,04,4004JZ,Tiel,Tiel,Gelderland,VBO,5.434642,51.908510
Faradaystraat,18,a,,4004JZ,Tiel,Tiel,Gelderland,VBO,5.434168,51.908760
Faradaystraat,18,,,4004JZ,Tiel,Tiel,Gelderland,VBO,5.434255,51.908648
Faradaystraat,20,,,4004JZ,Tiel,Tiel,Gelderland,VBO,5.434070,51.909024
Faradaystraat,22,,,4004JZ,Tiel,Tiel,Gelderland,VBO,5.434031,51.909268
Faradaystraat,24,,,4004JZ,Tiel,Tiel,Gelderland,VBO,5.433846,51.909332
Faradaystraat,26,,,4004JZ,Tiel,Tiel,Gelderland,VBO,5.433663,51.909321
Faradaystraat,28,,,4004JZ,Tiel,Tiel,Gelderland,VBO,5.433440,51.909311
Voltastraat,1,,,4004KA,Tiel,Tiel,Gelderland,VBO,5.429798,51.909960
Voltastraat,2,,,4004KA,Tiel,Tiel,Gelderland,VBO,5.430815,51.909555
Voltastraat,3,a,,4004KA,Tiel,Tiel,Gelderland,VBO,5.429421,51.910185
Voltastraat,3,b,,4004KA,Tiel,Tiel,Gelderland,VBO,5.429057,51.910176
Voltastraat,3,,,4004KA,Tiel,Tiel,Gelderland,VBO,5.429784,51.910203
Voltastraat,4,,,4004KA,Tiel,Tiel,Gelderland,VBO,5.430626,51.909789
Voltastraat,6,,,4004KA,Tiel,Tiel,Gelderland,VBO,5.430568,51.909888
Voltastraat,8,,,4004KA,Tiel,Tiel,Gelderland,VBO,5.430583,51.910113
Voltastraat,10,,,4004KA,Tiel,Tiel,Gelderland,VBO,5.430511,51.910265
Voltastraat,12,,,4004KA,Tiel,Tiel,Gelderland,VBO,5.430511,51.910319
Ampèrestraat,1,,,4004KB,Tiel,Tiel,Gelderland,VBO,5.429799,51.910652
Ampèrestraat,2,,,4004KB,Tiel,Tiel,Gelderland,VBO,5.430768,51.911131
Ampèrestraat,3,,,4004KB,Tiel,Tiel,Gelderland,VBO,5.429421,51.910634
Ampèrestraat,4,,,4004KB,Tiel,Tiel,Gelderland,VBO,5.430610,51.911125
Ampèrestraat,5,a,,4004KB,Tiel,Tiel,Gelderland,VBO,5.428899,51.910604
Ampèrestraat,5,,,4004KB,Tiel,Tiel,Gelderland,VBO,5.429043,51.910617
Ampèrestraat,6,,,4004KB,Tiel,Tiel,Gelderland,VBO,5.430497,51.911114
Ampèrestraat,7,,,4004KB,Tiel,Tiel,Gelderland,VBO,5.428011,51.910509
Ampèrestraat,8,a,,4004KB,Tiel,Tiel,Gelderland,VBO,5.429471,51.911067
Ampèrestraat,8,b,,4004KB,Tiel,Tiel,Gelderland,VBO,5.429738,51.911287
Ampèrestraat,8,c,,4004KB,Tiel,Tiel,Gelderland,VBO,5.429697,51.911430
Ampèrestraat,8,d,,4004KB,Tiel,Tiel,Gelderland,VBO,5.429687,51.911552
Ampèrestraat,8,e,,4004KB,Tiel,Tiel,Gelderland,VBO,5.429709,51.911067
Ampèrestraat,8,f,,4004KB,Tiel,Tiel,Gelderland,VBO,5.429943,51.911082
Ampèrestraat,8,,01,4004KB,Tiel,Tiel,Gelderland,VBO,5.430445,51.911195
Ampèrestraat,8,,02,4004KB,Tiel,Tiel,Gelderland,VBO,5.430420,51.911310
Ampèrestraat,8,,03,4004KB,Tiel,Tiel,Gelderland,VBO,5.430348,51.911393
Ampèrestraat,8,,04,4004KB,Tiel,Tiel,Gelderland,VBO,5.430347,51.911466
Ampèrestraat,8,,05,4004KB,Tiel,Tiel,Gelderland,VBO,5.430339,51.911568
Ampèrestraat,8,,06,4004KB,Tiel,Tiel,Gelderland,VBO,5.430305,51.911659
Ampèrestraat,8,,,4004KB,Tiel,Tiel,Gelderland,VBO,5.430341,51.911105
Ampèrestraat,10,a,,4004KB,Tiel,Tiel,Gelderland,VBO,5.428898,51.911111
Ampèrestraat,10,,,4004KB,Tiel,Tiel,Gelderland,VBO,5.428579,51.911102
Ampèrestraat,12,,,4004KB,Tiel,Tiel,Gelderland,VBO,5.428188,51.910945
Ampèrestraat,14,,,4004KB,Tiel,Tiel,Gelderland,VBO,5.427881,51.911183
Ko Joestraat,7,,,4004KC,Tiel,Tiel,Gelderland,VBO,5.428059,51.916699
Ko Joestraat,9,,,4004KC,Tiel,Tiel,Gelderland,VBO,5.427982,51.917070
Ko Joestraat,11,,,4004KC,Tiel,Tiel,Gelderland,VBO,5.427917,51.917368
Newtonstraat,1,,,4004KD,Tiel,Tiel,Gelderland,VBO,5.432331,51.915860
Newtonstraat,3,,,4004KD,Tiel,Tiel,Gelderland,VBO,5.432357,51.915779
Newtonstraat,4,,,4004KD,Tiel,Tiel,Gelderland,VBO,5.431867,51.915029
Newtonstraat,5,,,4004KD,Tiel,Tiel,Gelderland,VBO,5.432478,51.915514
Newtonstraat,6,,,4004KD,Tiel,Tiel,Gelderland,VBO,5.433009,51.914633
Newtonstraat,7,,,4004KD,Tiel,Tiel,Gelderland,VBO,5.432896,51.915049
Newtonstraat,9,,,4004KD,Tiel,Tiel,Gelderland,VBO,5.433161,51.915253
Newtonstraat,11,,,4004KD,Tiel,Tiel,Gelderland,VBO,5.434069,51.915299
Newtonstraat,13,,,4004KD,Tiel,Tiel,Gelderland,VBO,5.433945,51.915549
Newtonstraat,15,,,4004KD,Tiel,Tiel,Gelderland,VBO,5.433916,51.915804
Newtonstraat,17,,,4004KD,Tiel,Tiel,Gelderland,VBO,5.433766,51.916092
Newtonstraat,25,,,4004KD,Tiel,Tiel,Gelderland,VBO,5.434633,51.915389
Newtonstraat,19,,,4004KE,Tiel,Tiel,Gelderland,VBO,5.434537,51.915648
Newtonstraat,21,,,4004KE,Tiel,Tiel,Gelderland,VBO,5.434582,51.915563
Newtonstraat,23,,,4004KE,Tiel,Tiel,Gelderland,VBO,5.434611,51.915475
Newtonstraat,27,,,4004KE,Tiel,Tiel,Gelderland,VBO,5.434912,51.915528
Newtonstraat,29,,,4004KE,Tiel,Tiel,Gelderland,VBO,5.435152,51.915571
Newtonstraat,31,,,4004KE,Tiel,Tiel,Gelderland,VBO,5.435026,51.915655
Newtonstraat,33,,,4004KE,Tiel,Tiel,Gelderland,VBO,5.434885,51.915728
Newtonstraat,35,,,4004KE,Tiel,Tiel,Gelderland,VBO,5.434605,51.915790
Newtonstraat,37,,,4004KE,Tiel,Tiel,Gelderland,VBO,5.434732,51.915303
Newtonstraat,39,,,4004KE,Tiel,Tiel,Gelderland,VBO,5.434757,51.915224
Newtonstraat,41,,,4004KE,Tiel,Tiel,Gelderland,VBO,5.434801,51.915132
Newtonstraat,43,,,4004KE,Tiel,Tiel,Gelderland,VBO,5.435027,51.915171
Newtonstraat,45,,,4004KE,Tiel,Tiel,Gelderland,VBO,5.435182,51.915189
Newtonstraat,47,,,4004KE,Tiel,Tiel,Gelderland,VBO,5.435306,51.915213
Newtonstraat,49,,,4004KE,Tiel,Tiel,Gelderland,VBO,5.435498,51.915426
Newtonstraat,51,,,4004KE,Tiel,Tiel,Gelderland,VBO,5.435241,51.915392
Newtonstraat,53,,,4004KE,Tiel,Tiel,Gelderland,VBO,5.434958,51.915341
Newtonstraat,55,,,4004KE,Tiel,Tiel,Gelderland,VBO,5.435856,51.914802
Grotebrugse Grintweg-Oost,9,,,4004LA,Tiel,Tiel,Gelderland,VBO,5.445576,51.920304
De Riemsdijk,1,,,4004LC,Tiel,Tiel,Gelderland,VBO,5.445342,51.918281
De Riemsdijk,3,,,4004LC,Tiel,Tiel,Gelderland,VBO,5.444293,51.918022
De Riemsdijk,4,,,4004LC,Tiel,Tiel,Gelderland,VBO,5.445056,51.918921
De Riemsdijk,5,,,4004LC,Tiel,Tiel,Gelderland,VBO,5.443396,51.918178
De Riemsdijk,8,,,4004LC,Tiel,Tiel,Gelderland,VBO,5.443223,51.919078
De Riemsdijk,10,,,4004LC,Tiel,Tiel,Gelderland,VBO,5.442800,51.918884
De Riemsdijk,18,,,4004LC,Tiel,Tiel,Gelderland,VBO,5.441272,51.918963
Medelsestraat-Oost,13,,,4004LE,Tiel,Tiel,Gelderland,VBO,5.460331,51.909693
Medelsestraat-Oost,2,a,,4004LG,Tiel,Tiel,Gelderland,VBO,5.464824,51.911210
Medelsestraat-Oost,2,b,,4004LG,Tiel,Tiel,Gelderland,VBO,5.462034,51.911265
Medelsestraat-Oost,2,c,,4004LG,Tiel,Tiel,Gelderland,VBO,5.461119,51.911410
Medelsestraat-Oost,4,,,4004LG,Tiel,Tiel,Gelderland,VBO,5.460346,51.910910
Medelsestraat-Oost,20,,,4004LG,Tiel,Tiel,Gelderland,VBO,5.456226,51.910363
Medelsestraat-Oost,22,,,4004LG,Tiel,Tiel,Gelderland,VBO,5.455954,51.909445
Lingewei,75,,,4004LH,Tiel,Tiel,Gelderland,VBO,5.451190,51.919900
Lingewei,77,,,4004LH,Tiel,Tiel,Gelderland,VBO,5.451132,51.920143
Lingewei,79,,,4004LH,Tiel,Tiel,Gelderland,VBO,5.451190,51.919900
Lingewei,81,,,4004LH,Tiel,Tiel,Gelderland,VBO,5.451176,51.920062
Lingewei,83,,,4004LH,Tiel,Tiel,Gelderland,VBO,5.451060,51.920215
Lingewei,85,,,4004LH,Tiel,Tiel,Gelderland,VBO,5.451801,51.920057
Lingewei,87,,,4004LH,Tiel,Tiel,Gelderland,VBO,5.451535,51.920235
Lingewei,89,,,4004LH,Tiel,Tiel,Gelderland,VBO,5.451475,51.920316
Lingewei,91,,,4004LH,Tiel,Tiel,Gelderland,VBO,5.451406,51.920412
Lingewei,93,,,4004LH,Tiel,Tiel,Gelderland,VBO,5.451597,51.920461
Lingewei,95,,,4004LH,Tiel,Tiel,Gelderland,VBO,5.451659,51.920374
Lingewei,97,,,4004LH,Tiel,Tiel,Gelderland,VBO,5.451723,51.920284
Lingewei,101,,,4004LH,Tiel,Tiel,Gelderland,VBO,5.454805,51.920096
Lingewei,107,,,4004LH,Tiel,Tiel,Gelderland,VBO,5.457706,51.920381
Lingewei,109,,,4004LH,Tiel,Tiel,Gelderland,VBO,5.458333,51.920474
Lingewei,111,,,4004LH,Tiel,Tiel,Gelderland,VBO,5.458626,51.920509
Bredesteeg,19,a,,4004LJ,Tiel,Tiel,Gelderland,VBO,5.463781,51.917634
Bredesteeg,27,,,4004LJ,Tiel,Tiel,Gelderland,VBO,5.463908,51.919102
Bredesteeg,31,,,4004LJ,Tiel,Tiel,Gelderland,VBO,5.463371,51.919641
Bredesteeg,33,,,4004LJ,Tiel,Tiel,Gelderland,VBO,5.461470,51.921467
Lingewei,1,,,4004LK,Tiel,Tiel,Gelderland,VBO,5.448204,51.919320
Lingewei,7,,,4004LK,Tiel,Tiel,Gelderland,VBO,5.449599,51.919618
Lingewei,9,,,4004LK,Tiel,Tiel,Gelderland,VBO,5.449624,51.919577
Lingewei,11,,,4004LK,Tiel,Tiel,Gelderland,VBO,5.450043,51.920062
Lingewei,13,,,4004LK,Tiel,Tiel,Gelderland,VBO,5.450022,51.920034
Lingewei,15,,,4004LK,Tiel,Tiel,Gelderland,VBO,5.450020,51.920004
Lingewei,17,,,4004LK,Tiel,Tiel,Gelderland,VBO,5.450035,51.919975
Lingewei,19,,,4004LK,Tiel,Tiel,Gelderland,VBO,5.450063,51.919947
Lingewei,21,,,4004LK,Tiel,Tiel,Gelderland,VBO,5.450094,51.919917
Lingewei,23,,,4004LK,Tiel,Tiel,Gelderland,VBO,5.450121,51.919883
Lingewei,25,,,4004LK,Tiel,Tiel,Gelderland,VBO,5.450137,51.919852
Lingewei,27,,,4004LK,Tiel,Tiel,Gelderland,VBO,5.450150,51.919821
Lingewei,29,,,4004LK,Tiel,Tiel,Gelderland,VBO,5.450168,51.919790
Lingewei,31,,,4004LK,Tiel,Tiel,Gelderland,VBO,5.450205,51.919762
Lingewei,33,,,4004LK,Tiel,Tiel,Gelderland,VBO,5.450234,51.919730
Lingewei,35,,,4004LK,Tiel,Tiel,Gelderland,VBO,5.450275,51.919699
Lingewei,37,,,4004LK,Tiel,Tiel,Gelderland,VBO,5.450314,51.919672
Lingewei,39,,,4004LK,Tiel,Tiel,Gelderland,VBO,5.450662,51.919761
Lingewei,41,,,4004LK,Tiel,Tiel,Gelderland,VBO,5.450617,51.919819
Lingewei,43,,,4004LK,Tiel,Tiel,Gelderland,VBO,5.450588,51.919879
Lingewei,45,,,4004LK,Tiel,Tiel,Gelderland,VBO,5.450540,51.919937
Lingewei,47,,,4004LK,Tiel,Tiel,Gelderland,VBO,5.450494,51.919999
Lingewei,49,,,4004LK,Tiel,Tiel,Gelderland,VBO,5.450462,51.920044
Lingewei,51,,,4004LK,Tiel,Tiel,Gelderland,VBO,5.450433,51.920082
Lingewei,53,,,4004LK,Tiel,Tiel,Gelderland,VBO,5.450406,51.920133
Lingewei,55,,,4004LK,Tiel,Tiel,Gelderland,VBO,5.450365,51.920189
Lingewei,57,,,4004LK,Tiel,Tiel,Gelderland,VBO,5.450506,51.920232
Lingewei,59,,,4004LK,Tiel,Tiel,Gelderland,VBO,5.450550,51.920172
Lingewei,61,,,4004LK,Tiel,Tiel,Gelderland,VBO,5.450573,51.920122
Lingewei,63,,,4004LK,Tiel,Tiel,Gelderland,VBO,5.450604,51.920079
Lingewei,65,,,4004LK,Tiel,Tiel,Gelderland,VBO,5.450638,51.920033
Lingewei,67,,,4004LK,Tiel,Tiel,Gelderland,VBO,5.450670,51.919979
Lingewei,69,,,4004LK,Tiel,Tiel,Gelderland,VBO,5.450710,51.919921
Lingewei,71,,,4004LK,Tiel,Tiel,Gelderland,VBO,5.450750,51.919862
Lingewei,73,,,4004LK,Tiel,Tiel,Gelderland,VBO,5.450793,51.919804
Lingewei,2,,,4004LL,Tiel,Tiel,Gelderland,VBO,5.451337,51.919097
Lingewei,6,,,4004LL,Tiel,Tiel,Gelderland,VBO,5.457183,51.919355
Lingewei,8,,,4004LL,Tiel,Tiel,Gelderland,VBO,5.459034,51.919837
Het Eek,1,,,4004LM,Tiel,Tiel,Gelderland,VBO,5.447587,51.917408
Het Eek,3,,,4004LM,Tiel,Tiel,Gelderland,VBO,5.447651,51.916215
Het Eek,5,a,,4004LM,Tiel,Tiel,Gelderland,VBO,5.448531,51.914661
Het Eek,5,b,,4004LM,Tiel,Tiel,Gelderland,VBO,5.448617,51.914514
Het Eek,5,,,4004LM,Tiel,Tiel,Gelderland,VBO,5.448182,51.915227
Het Eek,9,a,,4004LM,Tiel,Tiel,Gelderland,VBO,5.450943,51.911997
Het Eek,9,b,,4004LM,Tiel,Tiel,Gelderland,VBO,5.450985,51.912034
Het Eek,9,,,4004LM,Tiel,Tiel,Gelderland,VBO,5.451244,51.912072
Het Eek,11,,,4004LM,Tiel,Tiel,Gelderland,VBO,5.451231,51.911431
Het Eek,13,,,4004LM,Tiel,Tiel,Gelderland,VBO,5.452515,51.910886
Het Eek,15,,,4004LM,Tiel,Tiel,Gelderland,VBO,5.452584,51.910538
De Prinsenhof,1,,02,4004LN,Tiel,Tiel,Gelderland,VBO,5.453001,51.910644
De Prinsenhof,1,,03,4004LN,Tiel,Tiel,Gelderland,VBO,5.453131,51.910705
De Prinsenhof,1,,04,4004LN,Tiel,Tiel,Gelderland,VBO,5.453267,51.910740
De Prinsenhof,1,,05,4004LN,Tiel,Tiel,Gelderland,VBO,5.453406,51.910751
De Prinsenhof,1,,06,4004LN,Tiel,Tiel,Gelderland,VBO,5.453549,51.910791
De Prinsenhof,1,,07,4004LN,Tiel,Tiel,Gelderland,VBO,5.453678,51.910825
De Prinsenhof,2,,,4004LN,Tiel,Tiel,Gelderland,VBO,5.452573,51.909804
De Prinsenhof,3,,,4004LN,Tiel,Tiel,Gelderland,VBO,5.454328,51.910946
De Prinsenhof,4,,,4004LN,Tiel,Tiel,Gelderland,VBO,5.452652,51.909377
De Prinsenhof,5,,,4004LN,Tiel,Tiel,Gelderland,VBO,5.455096,51.911161
De Prinsenhof,15,,,4004LN,Tiel,Tiel,Gelderland,VBO,5.459034,51.919837
Meelsewei,2,,,4004LR,Tiel,Tiel,Gelderland,VBO,5.452096,51.911901
Meelsewei,3,,,4004LR,Tiel,Tiel,Gelderland,VBO,5.453178,51.912691
Meelsewei,4,,,4004LR,Tiel,Tiel,Gelderland,VBO,5.452747,51.912099
Oudewei,4,,,4004LS,Tiel,Tiel,Gelderland,VBO,5.450207,51.915990
De Geer,2,,,4004LT,Tiel,Tiel,Gelderland,VBO,5.453003,51.919462
De Geer,4,,,4004LT,Tiel,Tiel,Gelderland,VBO,5.453090,51.917652
De Geer,8,,,4004LT,Tiel,Tiel,Gelderland,VBO,5.453900,51.915631
De Geer,10,,,4004LT,Tiel,Tiel,Gelderland,VBO,5.454801,51.914838
De Geer,12,,,4004LT,Tiel,Tiel,Gelderland,VBO,5.455754,51.913469
De Passen,1,,,4004LV,Tiel,Tiel,Gelderland,VBO,5.455457,51.917342
Hoekwei,3,,,4004LX,Tiel,Tiel,Gelderland,VBO,5.455600,51.908859
Hoekwei,6,,,4004LX,Tiel,Tiel,Gelderland,VBO,5.454875,51.907948
Hoekwei,8,,,4004LX,Tiel,Tiel,Gelderland,VBO,5.454309,51.907810
Hoekwei,10,,,4004LX,Tiel,Tiel,Gelderland,VBO,5.454559,51.907864
Hoekwei,12,,,4004LX,Tiel,Tiel,Gelderland,VBO,5.455019,51.907606
Hoekwei,14,,,4004LX,Tiel,Tiel,Gelderland,VBO,5.454749,51.907491
Hoekwei,16,,,4004LX,Tiel,Tiel,Gelderland,VBO,5.454959,51.907781
Hoekwei,18,,,4004LX,Tiel,Tiel,Gelderland,VBO,5.454657,51.907669
Hoekwei,20,,,4004LX,Tiel,Tiel,Gelderland,VBO,5.454865,51.907195
Hoekwei,22,,,4004LX,Tiel,Tiel,Gelderland,VBO,5.455300,51.906499
Hoekwei,24,,,4004LX,Tiel,Tiel,Gelderland,VBO,5.456608,51.908337
Hoekwei,26,,,4004LX,Tiel,Tiel,Gelderland,VBO,5.456905,51.907765
Hoekwei,28,,,4004LX,Tiel,Tiel,Gelderland,VBO,5.457349,51.907096
Hoekwei,32,,,4004LX,Tiel,Tiel,Gelderland,VBO,5.456757,51.906020
Krommewei,2,,,4004LZ,Tiel,Tiel,Gelderland,VBO,5.453498,51.909619
De Diepert,5,,,4004MA,Tiel,Tiel,Gelderland,VBO,5.470176,51.908733
Biezenwei,2,,,4004MB,Tiel,Tiel,Gelderland,VBO,5.461066,51.906695
Biezenwei,3,,,4004MB,Tiel,Tiel,Gelderland,VBO,5.460153,51.907892
Biezenwei,6,,,4004MB,Tiel,Tiel,Gelderland,VBO,5.461219,51.908342
Biezenwei,11,,,4004MB,Tiel,Tiel,Gelderland,VBO,5.463312,51.910171
Biezenwei,14,,,4004MB,Tiel,Tiel,Gelderland,VBO,5.465065,51.907437
Biezenwei,16,,,4004MB,Tiel,Tiel,Gelderland,VBO,5.462993,51.906988
Biezenwei,21,,,4004MB,Tiel,Tiel,Gelderland,VBO,5.466270,51.907847
Biezenwei,23,,,4004MB,Tiel,Tiel,Gelderland,VBO,5.466792,51.907789
Biezenwei,25,,,4004MB,Tiel,Tiel,Gelderland,VBO,5.460400,51.906273
