openbareruimtenaam,huisnummer,huisletter,huisnummertoevoeging,postcode,woonplaatsnaam,gemeentenaam,provincienaam,typeadresseerbaarobject,longitude,latitude
Buitenweg,80,,,4024BH,Eck en Wiel,Buren,Gelderland,VBO,5.442457,51.969034
Wielseweg,1,,,4024BJ,Eck en Wiel,Buren,Gelderland,VBO,5.443437,51.973258
Wielseweg,3,a,,4024BJ,Eck en Wiel,Buren,Gelderland,VBO,5.443161,51.973852
Wielseweg,3,,,4024BJ,Eck en Wiel,Buren,Gelderland,VBO,5.443656,51.973825
Wielseweg,5,,,4024BJ,Eck en Wiel,Buren,Gelderland,VBO,5.443656,51.973888
Wielseweg,7,,,4024BJ,Eck en Wiel,Buren,Gelderland,VBO,5.443860,51.973968
Wielseweg,9,,,4024BJ,Eck en Wiel,Buren,Gelderland,VBO,5.443874,51.974013
Wielseweg,11,,,4024BJ,Eck en Wiel,Buren,Gelderland,VBO,5.444078,51.974112
Wielseweg,13,,,4024BJ,Eck en Wiel,Buren,Gelderland,VBO,5.444369,51.974184
Wielseweg,15,a,,4024BJ,Eck en Wiel,Buren,Gelderland,VBO,5.448156,51.975935
Wielseweg,15,,,4024BJ,Eck en Wiel,Buren,Gelderland,VBO,5.445010,51.974399
Wielseweg,17,,,4024BJ,Eck en Wiel,Buren,Gelderland,VBO,5.448723,51.976015
Wielseweg,19,,,4024BJ,Eck en Wiel,Buren,Gelderland,VBO,5.448817,51.976058
Wielseweg,21,,,4024BJ,Eck en Wiel,Buren,Gelderland,VBO,5.448913,51.976114
Wielseweg,23,,,4024BJ,Eck en Wiel,Buren,Gelderland,VBO,5.448986,51.976150
Wielseweg,25,,,4024BJ,Eck en Wiel,Buren,Gelderland,VBO,5.449102,51.976213
Wielseweg,27,,,4024BJ,Eck en Wiel,Buren,Gelderland,VBO,5.449160,51.976249
Wielseweg,29,,,4024BJ,Eck en Wiel,Buren,Gelderland,VBO,5.450953,51.977928
Wielseweg,31,a,,4024BJ,Eck en Wiel,Buren,Gelderland,VBO,5.452411,51.979680
Wielseweg,31,b,,4024BJ,Eck en Wiel,Buren,Gelderland,VBO,5.452339,51.979851
Wielseweg,31,,,4024BJ,Eck en Wiel,Buren,Gelderland,VBO,5.452324,51.979599
Wielseweg,33,,,4024BJ,Eck en Wiel,Buren,Gelderland,VBO,5.452848,51.980013
Wielseweg,35,,,4024BJ,Eck en Wiel,Buren,Gelderland,VBO,5.453562,51.980408
Wielseweg,37,,,4024BJ,Eck en Wiel,Buren,Gelderland,VBO,5.453780,51.980336
Wielseweg,2,,,4024BK,Eck en Wiel,Buren,Gelderland,VBO,5.444806,51.974031
Wielseweg,4,,nst,4024BK,Eck en Wiel,Buren,Gelderland,VBO,5.445417,51.974183
Wielseweg,4,,,4024BK,Eck en Wiel,Buren,Gelderland,VBO,5.445243,51.974147
Wielseweg,6,,,4024BK,Eck en Wiel,Buren,Gelderland,VBO,5.445767,51.974282
Wielseweg,8,,,4024BK,Eck en Wiel,Buren,Gelderland,VBO,5.445912,51.974390
Wielseweg,12,,,4024BK,Eck en Wiel,Buren,Gelderland,VBO,5.446131,51.974435
Wielseweg,14,,,4024BK,Eck en Wiel,Buren,Gelderland,VBO,5.446262,51.974533
Wielseweg,16,,,4024BK,Eck en Wiel,Buren,Gelderland,VBO,5.446713,51.974677
Wielseweg,18,,,4024BK,Eck en Wiel,Buren,Gelderland,VBO,5.447121,51.974812
Wielseweg,20,,,4024BK,Eck en Wiel,Buren,Gelderland,VBO,5.447136,51.974848
Wielseweg,22,,,4024BK,Eck en Wiel,Buren,Gelderland,VBO,5.447150,51.974955
Wielseweg,24,,,4024BK,Eck en Wiel,Buren,Gelderland,VBO,5.447208,51.974982
Wielseweg,26,,,4024BK,Eck en Wiel,Buren,Gelderland,VBO,5.447354,51.975018
Wielseweg,28,,,4024BK,Eck en Wiel,Buren,Gelderland,VBO,5.447398,51.975054
Wielseweg,30,,,4024BK,Eck en Wiel,Buren,Gelderland,VBO,5.447631,51.975108
Wielseweg,32,,,4024BK,Eck en Wiel,Buren,Gelderland,VBO,5.448039,51.975341
Wielseweg,34,,,4024BK,Eck en Wiel,Buren,Gelderland,VBO,5.448097,51.975413
Wielseweg,36,,,4024BK,Eck en Wiel,Buren,Gelderland,VBO,5.448388,51.975548
Wielseweg,38,a,,4024BK,Eck en Wiel,Buren,Gelderland,VBO,5.449262,51.975808
Wielseweg,38,,,4024BK,Eck en Wiel,Buren,Gelderland,VBO,5.448636,51.975656
Wielseweg,40,a,,4024BK,Eck en Wiel,Buren,Gelderland,VBO,5.450370,51.976341
Wielseweg,40,,,4024BK,Eck en Wiel,Buren,Gelderland,VBO,5.449830,51.976320
Wielseweg,42,,,4024BK,Eck en Wiel,Buren,Gelderland,VBO,5.450180,51.976545
Wielseweg,44,,,4024BK,Eck en Wiel,Buren,Gelderland,VBO,5.450515,51.976832
Wielseweg,46,,,4024BK,Eck en Wiel,Buren,Gelderland,VBO,5.450923,51.977236
Wielseweg,48,,,4024BK,Eck en Wiel,Buren,Gelderland,VBO,5.451403,51.977407
Wielseweg,50,,,4024BL,Eck en Wiel,Buren,Gelderland,VBO,5.451550,51.977757
Wielseweg,52,,,4024BL,Eck en Wiel,Buren,Gelderland,VBO,5.451564,51.977892
Wielseweg,56,,,4024BL,Eck en Wiel,Buren,Gelderland,VBO,5.451754,51.978180
Wielseweg,58,,,4024BL,Eck en Wiel,Buren,Gelderland,VBO,5.452264,51.978602
Wielseweg,60,,,4024BL,Eck en Wiel,Buren,Gelderland,VBO,5.452089,51.978638
Wielseweg,62,,,4024BL,Eck en Wiel,Buren,Gelderland,VBO,5.452381,51.978979
Wielseweg,64,,,4024BL,Eck en Wiel,Buren,Gelderland,VBO,5.452702,51.979518
Wielseweg,66,,,4024BL,Eck en Wiel,Buren,Gelderland,VBO,5.452979,51.979635
Wielseweg,70,,,4024BL,Eck en Wiel,Buren,Gelderland,VBO,5.453343,51.979833
Wielseweg,72,,,4024BL,Eck en Wiel,Buren,Gelderland,VBO,5.453707,51.979985
Wielseweg,74,,,4024BL,Eck en Wiel,Buren,Gelderland,VBO,5.454319,51.980165
Wielseweg,76,,,4024BL,Eck en Wiel,Buren,Gelderland,VBO,5.454385,51.980335
Wielseweg,78,,,4024BL,Eck en Wiel,Buren,Gelderland,VBO,5.455324,51.980622
Rijnbandijk,1,,,4024BM,Eck en Wiel,Buren,Gelderland,VBO,5.475828,51.978479
Rijnbandijk,2,,,4024BM,Eck en Wiel,Buren,Gelderland,VBO,5.455790,51.980874
Rijnbandijk,3,a,,4024BM,Eck en Wiel,Buren,Gelderland,VBO,5.471959,51.979893
Rijnbandijk,3,b,,4024BM,Eck en Wiel,Buren,Gelderland,VBO,5.471453,51.979875
Rijnbandijk,3,,,4024BM,Eck en Wiel,Buren,Gelderland,VBO,5.472065,51.979861
Rijnbandijk,4,,,4024BM,Eck en Wiel,Buren,Gelderland,VBO,5.455601,51.980946
Rijnbandijk,5,a,,4024BM,Eck en Wiel,Buren,Gelderland,VBO,5.461841,51.978740
Rijnbandijk,5,b,,4024BM,Eck en Wiel,Buren,Gelderland,VBO,5.461565,51.978965
Rijnbandijk,5,,,4024BM,Eck en Wiel,Buren,Gelderland,VBO,5.462234,51.978713
Rijnbandijk,6,a,,4024BM,Eck en Wiel,Buren,Gelderland,VBO,5.453725,51.982421
Rijnbandijk,6,b,,4024BM,Eck en Wiel,Buren,Gelderland,VBO,5.453279,51.981750
Rijnbandijk,6,,,4024BM,Eck en Wiel,Buren,Gelderland,VBO,5.454175,51.981765
Rijnbandijk,7,,,4024BM,Eck en Wiel,Buren,Gelderland,VBO,5.462466,51.977787
Rijnbandijk,8,,,4024BM,Eck en Wiel,Buren,Gelderland,VBO,5.449839,51.982971
Rijnbandijk,10,a,,4024BM,Eck en Wiel,Buren,Gelderland,VBO,5.453434,51.982511
Rijnbandijk,10,b,,4024BM,Eck en Wiel,Buren,Gelderland,VBO,5.450450,51.982216
Rijnbandijk,10,,,4024BM,Eck en Wiel,Buren,Gelderland,VBO,5.450174,51.982666
Rijnbandijk,15,,,4024BM,Eck en Wiel,Buren,Gelderland,VBO,5.457201,51.980433
Rijnbandijk,17,,,4024BM,Eck en Wiel,Buren,Gelderland,VBO,5.456866,51.980352
Rijnbandijk,19,,,4024BM,Eck en Wiel,Buren,Gelderland,VBO,5.455818,51.980523
Schans,1,,,4024BN,Eck en Wiel,Buren,Gelderland,VBO,5.454161,51.981810
Schans,3,,,4024BN,Eck en Wiel,Buren,Gelderland,VBO,5.454016,51.982277
Veerweg,1,,,4024BP,Eck en Wiel,Buren,Gelderland,VBO,5.457551,51.981017
Veerweg,2,,,4024BP,Eck en Wiel,Buren,Gelderland,VBO,5.456069,51.982545
Veerweg,3,,,4024BP,Eck en Wiel,Buren,Gelderland,VBO,5.458205,51.980117
Veerweg,4,,,4024BP,Eck en Wiel,Buren,Gelderland,VBO,5.456301,51.982267
Veerweg,5,a,,4024BP,Eck en Wiel,Buren,Gelderland,VBO,5.457929,51.977742
Veerweg,5,,,4024BP,Eck en Wiel,Buren,Gelderland,VBO,5.458335,51.977500
Veerweg,6,,,4024BP,Eck en Wiel,Buren,Gelderland,VBO,5.457144,51.981206
Veerweg,8,,,4024BP,Eck en Wiel,Buren,Gelderland,VBO,5.457506,51.980181
Veerweg,10,,,4024BP,Eck en Wiel,Buren,Gelderland,VBO,5.457288,51.980226
Veerweg,12,a,,4024BP,Eck en Wiel,Buren,Gelderland,VBO,5.455490,51.976903
Veerweg,12,,,4024BP,Eck en Wiel,Buren,Gelderland,VBO,5.455929,51.976793
Veerweg,14,b,,4024BP,Eck en Wiel,Buren,Gelderland,VBO,5.453543,51.970499
Veerweg,14,,,4024BP,Eck en Wiel,Buren,Gelderland,VBO,5.453940,51.970440
Veerweg,16,,,4024BP,Eck en Wiel,Buren,Gelderland,VBO,5.452146,51.967385
Veerweg,18,,,4024BP,Eck en Wiel,Buren,Gelderland,VBO,5.451809,51.965920
Veerweg,20,,,4024BP,Eck en Wiel,Buren,Gelderland,VBO,5.452214,51.964454
Veerweg,22,,,4024BP,Eck en Wiel,Buren,Gelderland,VBO,5.452039,51.964221
Veerweg,24,,,4024BP,Eck en Wiel,Buren,Gelderland,VBO,5.452068,51.963771
De Dreef,1,,,4024BR,Eck en Wiel,Buren,Gelderland,VBO,5.457408,51.973044
De Dreef,2,,,4024BR,Eck en Wiel,Buren,Gelderland,VBO,5.457755,51.972091
De Dreef,4,,,4024BR,Eck en Wiel,Buren,Gelderland,VBO,5.458659,51.973151
Ganzert,1,,,4024BS,Eck en Wiel,Buren,Gelderland,VBO,5.468788,51.972992
Ganzert,2,,,4024BS,Eck en Wiel,Buren,Gelderland,VBO,5.466335,51.976670
Ganzert,3,,,4024BS,Eck en Wiel,Buren,Gelderland,VBO,5.469006,51.972965
Ganzert,4,,,4024BS,Eck en Wiel,Buren,Gelderland,VBO,5.466754,51.974854
Ganzert,5,,,4024BS,Eck en Wiel,Buren,Gelderland,VBO,5.469340,51.972353
Ganzert,6,,,4024BS,Eck en Wiel,Buren,Gelderland,VBO,5.466956,51.973973
Ganzert,7,,,4024BS,Eck en Wiel,Buren,Gelderland,VBO,5.469688,51.971877
Ganzert,8,,,4024BS,Eck en Wiel,Buren,Gelderland,VBO,5.468191,51.972714
Ganzert,9,,,4024BS,Eck en Wiel,Buren,Gelderland,VBO,5.470182,51.971139
Ganzert,11,,,4024BS,Eck en Wiel,Buren,Gelderland,VBO,5.470413,51.970420
Ganzert,13,,,4024BS,Eck en Wiel,Buren,Gelderland,VBO,5.470616,51.970069
Ganzert,15,,,4024BS,Eck en Wiel,Buren,Gelderland,VBO,5.470936,51.969862
Ganzert,17,,,4024BS,Eck en Wiel,Buren,Gelderland,VBO,5.471067,51.969584
Ganzert,18,,,4024BS,Eck en Wiel,Buren,Gelderland,VBO,5.469280,51.971266
Ganzert,19,,,4024BS,Eck en Wiel,Buren,Gelderland,VBO,5.471521,51.971057
Ganzert,20,,,4024BS,Eck en Wiel,Buren,Gelderland,VBO,5.467953,51.970035
Ganzert,22,,,4024BS,Eck en Wiel,Buren,Gelderland,VBO,5.469308,51.970502
Ganzert,24,,,4024BS,Eck en Wiel,Buren,Gelderland,VBO,5.469480,51.969297
Ganzert,26,,,4024BS,Eck en Wiel,Buren,Gelderland,VBO,5.470559,51.969488
Ganzert,28,,,4024BS,Eck en Wiel,Buren,Gelderland,VBO,5.470702,51.969314
Ganzert,30,,,4024BS,Eck en Wiel,Buren,Gelderland,VBO,5.470405,51.968755
Kalverlandseweg,1,a,,4024BT,Eck en Wiel,Buren,Gelderland,VBO,5.459792,51.971380
Kalverlandseweg,1,b,,4024BT,Eck en Wiel,Buren,Gelderland,VBO,5.459603,51.971551
Kalverlandseweg,1,,,4024BT,Eck en Wiel,Buren,Gelderland,VBO,5.459981,51.971272
Kalverlandseweg,2,a,,4024BT,Eck en Wiel,Buren,Gelderland,VBO,5.463423,51.969581
Kalverlandseweg,2,,,4024BT,Eck en Wiel,Buren,Gelderland,VBO,5.466283,51.971717
Kalverlandseweg,3,,,4024BT,Eck en Wiel,Buren,Gelderland,VBO,5.461539,51.971747
Kalverlandseweg,4,,,4024BT,Eck en Wiel,Buren,Gelderland,VBO,5.466313,51.972059
Kalverlandseweg,5,,,4024BT,Eck en Wiel,Buren,Gelderland,VBO,5.461582,51.971307
Kalverlandseweg,6,,,4024BT,Eck en Wiel,Buren,Gelderland,VBO,5.467447,51.971959
Kalverlandseweg,7,a,,4024BT,Eck en Wiel,Buren,Gelderland,VBO,5.463107,51.970948
Kalverlandseweg,7,,,4024BT,Eck en Wiel,Buren,Gelderland,VBO,5.462353,51.971145
Kalverlandseweg,8,,,4024BT,Eck en Wiel,Buren,Gelderland,VBO,5.469022,51.973360
Kalverlandseweg,9,,,4024BT,Eck en Wiel,Buren,Gelderland,VBO,5.464383,51.971622
Kalverlandseweg,11,,,4024BT,Eck en Wiel,Buren,Gelderland,VBO,5.466576,51.972966
Kalverlandseweg,13,,,4024BT,Eck en Wiel,Buren,Gelderland,VBO,5.466747,51.973238
Kalverlandseweg,15,,,4024BT,Eck en Wiel,Buren,Gelderland,VBO,5.466858,51.973407
Kniphoek,1,a,,4024BV,Eck en Wiel,Buren,Gelderland,VBO,5.450769,51.971610
Kniphoek,1,,,4024BV,Eck en Wiel,Buren,Gelderland,VBO,5.450405,51.971251
Kniphoek,2,a,,4024BV,Eck en Wiel,Buren,Gelderland,VBO,5.450826,51.970360
Kniphoek,2,b,,4024BV,Eck en Wiel,Buren,Gelderland,VBO,5.451189,51.971037
Kniphoek,2,,,4024BV,Eck en Wiel,Buren,Gelderland,VBO,5.451162,51.971646
Kniphoek,3,,,4024BV,Eck en Wiel,Buren,Gelderland,VBO,5.450872,51.971924
Kniphoek,4,,,4024BV,Eck en Wiel,Buren,Gelderland,VBO,5.452837,51.972229
Kniphoek,7,,,4024BV,Eck en Wiel,Buren,Gelderland,VBO,5.450945,51.972185
Kniphoek,9,,,4024BV,Eck en Wiel,Buren,Gelderland,VBO,5.450960,51.972374
Kniphoek,13,,,4024BV,Eck en Wiel,Buren,Gelderland,VBO,5.450568,51.973003
Kniphoek,15,,,4024BV,Eck en Wiel,Buren,Gelderland,VBO,5.453683,51.973523
Rijnstraat,1,,,4024BW,Eck en Wiel,Buren,Gelderland,VBO,5.444411,51.971519
Rijnstraat,2,a,,4024BW,Eck en Wiel,Buren,Gelderland,VBO,5.450257,51.969714
Rijnstraat,2,,,4024BW,Eck en Wiel,Buren,Gelderland,VBO,5.453211,51.969254
Rijnstraat,3,,,4024BW,Eck en Wiel,Buren,Gelderland,VBO,5.445268,51.971442
Rijnstraat,5,a,,4024BW,Eck en Wiel,Buren,Gelderland,VBO,5.447422,51.971180
Rijnstraat,5,b,,4024BW,Eck en Wiel,Buren,Gelderland,VBO,5.449153,51.970703
Rijnstraat,5,,,4024BW,Eck en Wiel,Buren,Gelderland,VBO,5.445588,51.971415
Rijnstraat,7,,,4024BW,Eck en Wiel,Buren,Gelderland,VBO,5.449662,51.970631
Rijnstraat,9,,,4024BW,Eck en Wiel,Buren,Gelderland,VBO,5.450229,51.970532
Rijnstraat,11,,,4024BW,Eck en Wiel,Buren,Gelderland,VBO,5.452266,51.970171
Rijnstraat,13,,,4024BW,Eck en Wiel,Buren,Gelderland,VBO,5.452208,51.970324
Hellenbergstraat,1,a,,4024HD,Eck en Wiel,Buren,Gelderland,VBO,5.453718,51.968076
Hellenbergstraat,1,,,4024HD,Eck en Wiel,Buren,Gelderland,VBO,5.453500,51.967905
Hellenbergstraat,3,,,4024HD,Eck en Wiel,Buren,Gelderland,VBO,5.453412,51.967743
Hellenbergstraat,5,,,4024HD,Eck en Wiel,Buren,Gelderland,VBO,5.453281,51.967564
Doejenburg,1,,,4024HE,Eck en Wiel,Buren,Gelderland,VBO,5.442580,51.962931
Doejenburg,2,,,4024HE,Eck en Wiel,Buren,Gelderland,VBO,5.443526,51.962985
Doejenburg,3,,,4024HE,Eck en Wiel,Buren,Gelderland,VBO,5.443017,51.963363
Doejenburg,4,A,,4024HE,Eck en Wiel,Buren,Gelderland,VBO,5.443802,51.963147
Doejenburg,4,c,,4024HE,Eck en Wiel,Buren,Gelderland,VBO,5.443744,51.963129
Doejenburg,4,d,,4024HE,Eck en Wiel,Buren,Gelderland,VBO,5.444093,51.963119
Doejenburg,5,a,,4024HE,Eck en Wiel,Buren,Gelderland,VBO,5.442857,51.963776
Doejenburg,5,b,,4024HE,Eck en Wiel,Buren,Gelderland,VBO,5.442668,51.963749
Doejenburg,5,,,4024HE,Eck en Wiel,Buren,Gelderland,VBO,5.443192,51.963722
Doejenburg,6,,,4024HE,Eck en Wiel,Buren,Gelderland,VBO,5.443643,51.963362
Doejenburg,7,a,,4024HE,Eck en Wiel,Buren,Gelderland,VBO,5.441825,51.963956
Doejenburg,7,,,4024HE,Eck en Wiel,Buren,Gelderland,VBO,5.442159,51.963893
Doejenburg,8,,,4024HE,Eck en Wiel,Buren,Gelderland,VBO,5.443992,51.963353
Doejenburg,9,a,,4024HE,Eck en Wiel,Buren,Gelderland,VBO,5.442451,51.964195
Doejenburg,9,b,,4024HE,Eck en Wiel,Buren,Gelderland,VBO,5.442814,51.964306
Doejenburg,9,c,,4024HE,Eck en Wiel,Buren,Gelderland,VBO,5.443018,51.964154
Doejenburg,9,,,4024HE,Eck en Wiel,Buren,Gelderland,VBO,5.441956,51.964235
Doejenburg,10,,,4024HE,Eck en Wiel,Buren,Gelderland,VBO,5.444036,51.963632
Doejenburg,11,,,4024HE,Eck en Wiel,Buren,Gelderland,VBO,5.443411,51.964082
Doejenburg,12,,,4024HE,Eck en Wiel,Buren,Gelderland,VBO,5.444095,51.964513
Doejenburg,13,,,4024HE,Eck en Wiel,Buren,Gelderland,VBO,5.443528,51.964387
Doejenburg,14,,,4024HE,Eck en Wiel,Buren,Gelderland,VBO,5.444418,51.966562
Doejenburg,15,,,4024HE,Eck en Wiel,Buren,Gelderland,VBO,5.443368,51.964612
Doejenburg,16,,,4024HE,Eck en Wiel,Buren,Gelderland,VBO,5.444025,51.966265
Doejenburg,17,a,,4024HE,Eck en Wiel,Buren,Gelderland,VBO,5.442219,51.964837
Doejenburg,17,,,4024HE,Eck en Wiel,Buren,Gelderland,VBO,5.442538,51.964576
Doejenburg,18,,,4024HE,Eck en Wiel,Buren,Gelderland,VBO,5.444222,51.965995
Doejenburg,19,,,4024HE,Eck en Wiel,Buren,Gelderland,VBO,5.441869,51.964855
Doejenburg,20,,,4024HE,Eck en Wiel,Buren,Gelderland,VBO,5.443399,51.966131
Doejenburg,21,,,4024HE,Eck en Wiel,Buren,Gelderland,VBO,5.442568,51.965152
Doejenburg,22,,,4024HE,Eck en Wiel,Buren,Gelderland,VBO,5.442977,51.966194
Doejenburg,23,,,4024HE,Eck en Wiel,Buren,Gelderland,VBO,5.443165,51.965160
Doejenburg,24,a,,4024HE,Eck en Wiel,Buren,Gelderland,VBO,5.443167,51.966562
Doejenburg,24,,,4024HE,Eck en Wiel,Buren,Gelderland,VBO,5.443133,51.966445
Doejenburg,25,a,,4024HE,Eck en Wiel,Buren,Gelderland,VBO,5.443929,51.965388
Doejenburg,25,,,4024HE,Eck en Wiel,Buren,Gelderland,VBO,5.443834,51.965430
Doejenburg,26,a,,4024HE,Eck en Wiel,Buren,Gelderland,VBO,5.443209,51.966761
Doejenburg,26,,,4024HE,Eck en Wiel,Buren,Gelderland,VBO,5.443501,51.966688
Doejenburg,29,,,4024HE,Eck en Wiel,Buren,Gelderland,VBO,5.443504,51.965528
Doejenburg,31,,,4024HE,Eck en Wiel,Buren,Gelderland,VBO,5.442249,51.966104
Doejenburg,33,,,4024HE,Eck en Wiel,Buren,Gelderland,VBO,5.442351,51.966248
Doejenburg,35,,,4024HE,Eck en Wiel,Buren,Gelderland,VBO,5.442221,51.966698
Homoetsestraat,19,a,,4024HG,Eck en Wiel,Buren,Gelderland,VBO,5.441533,51.962799
Homoetsestraat,19,,,4024HG,Eck en Wiel,Buren,Gelderland,VBO,5.441532,51.962653
Homoetsestraat,23,a,,4024HG,Eck en Wiel,Buren,Gelderland,VBO,5.446824,51.963132
Homoetsestraat,23,,,4024HG,Eck en Wiel,Buren,Gelderland,VBO,5.444921,51.963224
Homoetsestraat,25,,,4024HG,Eck en Wiel,Buren,Gelderland,VBO,5.447367,51.963118
Homoetsestraat,27,,,4024HG,Eck en Wiel,Buren,Gelderland,VBO,5.447600,51.963100
Homoetsestraat,29,,,4024HG,Eck en Wiel,Buren,Gelderland,VBO,5.447964,51.963091
Homoetsestraat,31,,,4024HG,Eck en Wiel,Buren,Gelderland,VBO,5.448196,51.963045
Homoetsestraat,33,,,4024HG,Eck en Wiel,Buren,Gelderland,VBO,5.448386,51.963027
Homoetsestraat,35,,,4024HG,Eck en Wiel,Buren,Gelderland,VBO,5.451557,51.962792
Homoetsestraat,37,,,4024HG,Eck en Wiel,Buren,Gelderland,VBO,5.452387,51.963313
Homoetsestraat,42,,,4024HJ,Eck en Wiel,Buren,Gelderland,VBO,5.441619,51.962195
Homoetsestraat,44,,,4024HJ,Eck en Wiel,Buren,Gelderland,VBO,5.444049,51.962580
Homoetsestraat,46,,,4024HJ,Eck en Wiel,Buren,Gelderland,VBO,5.444413,51.962562
Homoetsestraat,50,,,4024HJ,Eck en Wiel,Buren,Gelderland,VBO,5.447148,51.962633
Homoetsestraat,52,,,4024HJ,Eck en Wiel,Buren,Gelderland,VBO,5.447774,51.962677
Homoetsestraat,68,,,4024HJ,Eck en Wiel,Buren,Gelderland,VBO,5.448429,51.962560
Homoetsestraat,70,,,4024HJ,Eck en Wiel,Buren,Gelderland,VBO,5.448792,51.962506
Homoetsestraat,72,a,,4024HJ,Eck en Wiel,Buren,Gelderland,VBO,5.449743,51.962190
Homoetsestraat,72,,,4024HJ,Eck en Wiel,Buren,Gelderland,VBO,5.449651,51.962398
Homoetsestraat,74,,,4024HJ,Eck en Wiel,Buren,Gelderland,VBO,5.450494,51.962397
Homoetsestraat,76,,,4024HJ,Eck en Wiel,Buren,Gelderland,VBO,5.450873,51.962343
Prinses Beatrixstraat,1,,,4024HK,Eck en Wiel,Buren,Gelderland,VBO,5.457274,51.971372
Prinses Beatrixstraat,5,,,4024HK,Eck en Wiel,Buren,Gelderland,VBO,5.457259,51.971103
Prinses Beatrixstraat,7,,,4024HK,Eck en Wiel,Buren,Gelderland,VBO,5.457230,51.970842
Prinses Beatrixstraat,9,a,,4024HK,Eck en Wiel,Buren,Gelderland,VBO,5.457263,51.970604
Prinses Beatrixstraat,9,,,4024HK,Eck en Wiel,Buren,Gelderland,VBO,5.457304,51.970649
Prinses Beatrixstraat,11,,,4024HK,Eck en Wiel,Buren,Gelderland,VBO,5.457557,51.970467
Prinses Beatrixstraat,19,,,4024HK,Eck en Wiel,Buren,Gelderland,VBO,5.457229,51.970366
Prinses Beatrixstraat,21,a,,4024HK,Eck en Wiel,Buren,Gelderland,VBO,5.456923,51.970231
Prinses Beatrixstraat,21,,,4024HK,Eck en Wiel,Buren,Gelderland,VBO,5.457185,51.970258
Prinses Beatrixstraat,23,a,,4024HK,Eck en Wiel,Buren,Gelderland,VBO,5.456238,51.969737
Prinses Beatrixstraat,23,,,4024HK,Eck en Wiel,Buren,Gelderland,VBO,5.456355,51.969872
Prinses Beatrixstraat,25,,,4024HK,Eck en Wiel,Buren,Gelderland,VBO,5.456180,51.969611
Prinses Beatrixstraat,27,,,4024HK,Eck en Wiel,Buren,Gelderland,VBO,5.456063,51.969513
Prinses Beatrixstraat,29,,,4024HK,Eck en Wiel,Buren,Gelderland,VBO,5.456078,51.969405
Prinses Beatrixstraat,31,a,,4024HK,Eck en Wiel,Buren,Gelderland,VBO,5.455941,51.969214
Prinses Beatrixstraat,31,b,,4024HK,Eck en Wiel,Buren,Gelderland,VBO,5.455922,51.969164
Prinses Beatrixstraat,33,,,4024HK,Eck en Wiel,Buren,Gelderland,VBO,5.455932,51.969045
Prinses Beatrixstraat,35,a,,4024HL,Eck en Wiel,Buren,Gelderland,VBO,5.455479,51.967958
Prinses Beatrixstraat,35,,,4024HL,Eck en Wiel,Buren,Gelderland,VBO,5.455785,51.968308
Prinses Beatrixstraat,37,,,4024HL,Eck en Wiel,Buren,Gelderland,VBO,5.455216,51.967590
Prinses Beatrixstraat,39,a,,4024HL,Eck en Wiel,Buren,Gelderland,VBO,5.454444,51.966943
Prinses Beatrixstraat,39,,,4024HL,Eck en Wiel,Buren,Gelderland,VBO,5.454954,51.967266
Prinses Beatrixstraat,41,a,,4024HL,Eck en Wiel,Buren,Gelderland,VBO,5.454109,51.966548
Prinses Beatrixstraat,41,b,,4024HL,Eck en Wiel,Buren,Gelderland,VBO,5.454211,51.966431
Prinses Beatrixstraat,41,,,4024HL,Eck en Wiel,Buren,Gelderland,VBO,5.454204,51.966672
Prinses Beatrixstraat,43,a,,4024HL,Eck en Wiel,Buren,Gelderland,VBO,5.453832,51.965937
Prinses Beatrixstraat,43,,,4024HL,Eck en Wiel,Buren,Gelderland,VBO,5.453963,51.966179
Prinses Beatrixstraat,45,,,4024HL,Eck en Wiel,Buren,Gelderland,VBO,5.453453,51.965658
Prinses Beatrixstraat,47,,,4024HL,Eck en Wiel,Buren,Gelderland,VBO,5.453365,51.965434
Prinses Beatrixstraat,49,,,4024HL,Eck en Wiel,Buren,Gelderland,VBO,5.453176,51.965227
Prinses Beatrixstraat,51,,,4024HL,Eck en Wiel,Buren,Gelderland,VBO,5.453757,51.964840
Prinses Beatrixstraat,2,a,,4024HM,Eck en Wiel,Buren,Gelderland,VBO,5.456794,51.971418
Prinses Beatrixstraat,2,,,4024HM,Eck en Wiel,Buren,Gelderland,VBO,5.456809,51.971544
Prinses Beatrixstraat,4,,,4024HM,Eck en Wiel,Buren,Gelderland,VBO,5.456736,51.971319
Prinses Beatrixstraat,6,,,4024HM,Eck en Wiel,Buren,Gelderland,VBO,5.456721,51.971247
Prinses Beatrixstraat,8,,,4024HM,Eck en Wiel,Buren,Gelderland,VBO,5.456633,51.971112
Prinses Beatrixstraat,10,,,4024HM,Eck en Wiel,Buren,Gelderland,VBO,5.456619,51.971031
Prinses Beatrixstraat,12,a,,4024HM,Eck en Wiel,Buren,Gelderland,VBO,5.456560,51.970762
Prinses Beatrixstraat,12,,,4024HM,Eck en Wiel,Buren,Gelderland,VBO,5.456386,51.970933
Prinses Beatrixstraat,14,,,4024HM,Eck en Wiel,Buren,Gelderland,VBO,5.456502,51.970573
Prinses Beatrixstraat,16,,,4024HM,Eck en Wiel,Buren,Gelderland,VBO,5.456414,51.970420
Prinses Beatrixstraat,18,,,4024HM,Eck en Wiel,Buren,Gelderland,VBO,5.456414,51.970357
Prinses Beatrixstraat,20,,,4024HM,Eck en Wiel,Buren,Gelderland,VBO,5.456312,51.970241
Prinses Beatrixstraat,22,,,4024HM,Eck en Wiel,Buren,Gelderland,VBO,5.456152,51.970133
Prinses Beatrixstraat,26,,,4024HM,Eck en Wiel,Buren,Gelderland,VBO,5.456006,51.970142
Prinses Beatrixstraat,28,,,4024HM,Eck en Wiel,Buren,Gelderland,VBO,5.455831,51.969899
Prinses Beatrixstraat,30,,,4024HM,Eck en Wiel,Buren,Gelderland,VBO,5.455714,51.969684
Prinses Beatrixstraat,32,,,4024HM,Eck en Wiel,Buren,Gelderland,VBO,5.455700,51.969639
Prinses Beatrixstraat,34,,,4024HM,Eck en Wiel,Buren,Gelderland,VBO,5.455685,51.969603
Prinses Beatrixstraat,36,,,4024HM,Eck en Wiel,Buren,Gelderland,VBO,5.455671,51.969567
Prinses Beatrixstraat,38,,,4024HM,Eck en Wiel,Buren,Gelderland,VBO,5.455554,51.969432
Prinses Beatrixstraat,40,,,4024HM,Eck en Wiel,Buren,Gelderland,VBO,5.455539,51.969387
Prinses Beatrixstraat,42,a,,4024HM,Eck en Wiel,Buren,Gelderland,VBO,5.455495,51.969297
Prinses Beatrixstraat,42,b,,4024HM,Eck en Wiel,Buren,Gelderland,VBO,5.455465,51.969172
Prinses Beatrixstraat,42,,,4024HM,Eck en Wiel,Buren,Gelderland,VBO,5.455510,51.969342
Prinses Beatrixstraat,44,,,4024HM,Eck en Wiel,Buren,Gelderland,VBO,5.455306,51.968974
Prinses Beatrixstraat,46,a,,4024HM,Eck en Wiel,Buren,Gelderland,VBO,5.454009,51.967608
Prinses Beatrixstraat,46,b,,4024HM,Eck en Wiel,Buren,Gelderland,VBO,5.454620,51.967905
Prinses Beatrixstraat,46,c,,4024HM,Eck en Wiel,Buren,Gelderland,VBO,5.454533,51.967779
Prinses Beatrixstraat,46,,,4024HM,Eck en Wiel,Buren,Gelderland,VBO,5.455117,51.968911
Prinses Beatrixstraat,48,,,4024HN,Eck en Wiel,Buren,Gelderland,VBO,5.453790,51.967186
Prinses Beatrixstraat,54,,,4024HN,Eck en Wiel,Buren,Gelderland,VBO,5.453266,51.966944
Prinses Beatrixstraat,56,a,,4024HN,Eck en Wiel,Buren,Gelderland,VBO,5.453600,51.966818
Prinses Beatrixstraat,56,,,4024HN,Eck en Wiel,Buren,Gelderland,VBO,5.453688,51.966970
Prinses Beatrixstraat,58,,,4024HN,Eck en Wiel,Buren,Gelderland,VBO,5.453498,51.966701
Prinses Beatrixstraat,60,,,4024HN,Eck en Wiel,Buren,Gelderland,VBO,5.453440,51.966548
Prinses Beatrixstraat,62,a,,4024HN,Eck en Wiel,Buren,Gelderland,VBO,5.453294,51.966359
Prinses Beatrixstraat,62,,,4024HN,Eck en Wiel,Buren,Gelderland,VBO,5.453323,51.966422
Prinses Beatrixstraat,64,,1,4024HN,Eck en Wiel,Buren,Gelderland,VBO,5.453168,51.966264
Prinses Beatrixstraat,64,,10,4024HN,Eck en Wiel,Buren,Gelderland,VBO,5.453158,51.966237
Prinses Beatrixstraat,64,,11,4024HN,Eck en Wiel,Buren,Gelderland,VBO,5.453102,51.966293
Prinses Beatrixstraat,64,,12,4024HN,Eck en Wiel,Buren,Gelderland,VBO,5.453085,51.966265
Prinses Beatrixstraat,64,,13,4024HN,Eck en Wiel,Buren,Gelderland,VBO,5.452538,51.966254
Prinses Beatrixstraat,64,,15,4024HN,Eck en Wiel,Buren,Gelderland,VBO,5.452561,51.966288
Prinses Beatrixstraat,64,,16,4024HN,Eck en Wiel,Buren,Gelderland,VBO,5.452586,51.966322
Prinses Beatrixstraat,64,,17,4024HN,Eck en Wiel,Buren,Gelderland,VBO,5.452600,51.966357
Prinses Beatrixstraat,64,,18,4024HN,Eck en Wiel,Buren,Gelderland,VBO,5.452606,51.966380
Prinses Beatrixstraat,64,,19,4024HN,Eck en Wiel,Buren,Gelderland,VBO,5.452625,51.966401
Prinses Beatrixstraat,64,,2,4024HN,Eck en Wiel,Buren,Gelderland,VBO,5.453100,51.966101
Prinses Beatrixstraat,64,,20,4024HN,Eck en Wiel,Buren,Gelderland,VBO,5.452640,51.966426
Prinses Beatrixstraat,64,,3,4024HN,Eck en Wiel,Buren,Gelderland,VBO,5.453044,51.966113
Prinses Beatrixstraat,64,,4,4024HN,Eck en Wiel,Buren,Gelderland,VBO,5.452975,51.966146
Prinses Beatrixstraat,64,,5,4024HN,Eck en Wiel,Buren,Gelderland,VBO,5.453053,51.966140
Prinses Beatrixstraat,64,,6,4024HN,Eck en Wiel,Buren,Gelderland,VBO,5.452970,51.966179
Prinses Beatrixstraat,64,,7,4024HN,Eck en Wiel,Buren,Gelderland,VBO,5.453170,51.966285
Prinses Beatrixstraat,64,,8,4024HN,Eck en Wiel,Buren,Gelderland,VBO,5.453046,51.966288
Prinses Beatrixstraat,64,,9,4024HN,Eck en Wiel,Buren,Gelderland,VBO,5.453062,51.966314
Prinses Beatrixstraat,68,a,,4024HN,Eck en Wiel,Buren,Gelderland,VBO,5.452900,51.965820
Prinses Beatrixstraat,68,,,4024HN,Eck en Wiel,Buren,Gelderland,VBO,5.452915,51.965946
Prinses Beatrixstraat,70,,,4024HN,Eck en Wiel,Buren,Gelderland,VBO,5.452754,51.965686
Prinses Beatrixstraat,74,,,4024HN,Eck en Wiel,Buren,Gelderland,VBO,5.452521,51.965542
Prinses Beatrixstraat,76,,,4024HN,Eck en Wiel,Buren,Gelderland,VBO,5.452565,51.965299
Burgemeester Verbrughweg,15,,,4024HP,Eck en Wiel,Buren,Gelderland,VBO,5.454200,51.969244
Burgemeester Verbrughweg,19,,,4024HP,Eck en Wiel,Buren,Gelderland,VBO,5.454651,51.968929
Burgemeester Verbrughweg,21,b,,4024HP,Eck en Wiel,Buren,Gelderland,VBO,5.456188,51.968851
Burgemeester Verbrughweg,21,c,,4024HP,Eck en Wiel,Buren,Gelderland,VBO,5.456263,51.968868
Burgemeester Verbrughweg,23,,,4024HP,Eck en Wiel,Buren,Gelderland,VBO,5.457241,51.968613
Burgemeester Verbrughweg,25,,,4024HP,Eck en Wiel,Buren,Gelderland,VBO,5.457342,51.968595
Burgemeester Verbrughweg,27,,,4024HP,Eck en Wiel,Buren,Gelderland,VBO,5.457488,51.968568
Burgemeester Verbrughweg,29,,,4024HP,Eck en Wiel,Buren,Gelderland,VBO,5.457590,51.968550
Burgemeester Verbrughweg,31,,,4024HP,Eck en Wiel,Buren,Gelderland,VBO,5.457750,51.968523
Burgemeester Verbrughweg,33,,,4024HP,Eck en Wiel,Buren,Gelderland,VBO,5.457837,51.968505
Burgemeester Verbrughweg,35,,,4024HP,Eck en Wiel,Buren,Gelderland,VBO,5.457997,51.968469
Burgemeester Verbrughweg,37,,,4024HP,Eck en Wiel,Buren,Gelderland,VBO,5.458099,51.968451
Burgemeester Verbrughweg,41,,,4024HP,Eck en Wiel,Buren,Gelderland,VBO,5.458899,51.968432
Burgemeester Verbrughweg,43,,,4024HP,Eck en Wiel,Buren,Gelderland,VBO,5.459219,51.968387
Burgemeester Verbrughweg,47,,,4024HP,Eck en Wiel,Buren,Gelderland,VBO,5.460295,51.967802
Burgemeester Verbrughweg,49,,,4024HP,Eck en Wiel,Buren,Gelderland,VBO,5.460238,51.967425
Burgemeester Verbrughweg,51,,,4024HP,Eck en Wiel,Buren,Gelderland,VBO,5.460483,51.966885
Burgemeester Verbrughweg,53,a,,4024HP,Eck en Wiel,Buren,Gelderland,VBO,5.460441,51.965698
Burgemeester Verbrughweg,53,,,4024HP,Eck en Wiel,Buren,Gelderland,VBO,5.460495,51.965429
Burgemeester Verbrughweg,55,,,4024HP,Eck en Wiel,Buren,Gelderland,VBO,5.463040,51.964430
Burgemeester Verbrughweg,57,,,4024HP,Eck en Wiel,Buren,Gelderland,VBO,5.464683,51.963764
Burgemeester Verbrughweg,2,,,4024HR,Eck en Wiel,Buren,Gelderland,VBO,5.454054,51.968768
Burgemeester Verbrughweg,4,a,,4024HR,Eck en Wiel,Buren,Gelderland,VBO,5.456280,51.968371
Burgemeester Verbrughweg,4,,,4024HR,Eck en Wiel,Buren,Gelderland,VBO,5.454519,51.968417
Burgemeester Verbrughweg,6,,,4024HR,Eck en Wiel,Buren,Gelderland,VBO,5.456774,51.968254
Burgemeester Verbrughweg,8,,,4024HR,Eck en Wiel,Buren,Gelderland,VBO,5.457007,51.968209
Burgemeester Verbrughweg,10,,,4024HR,Eck en Wiel,Buren,Gelderland,VBO,5.457327,51.968092
Burgemeester Verbrughweg,12,,,4024HR,Eck en Wiel,Buren,Gelderland,VBO,5.457720,51.968056
Burgemeester Verbrughweg,18,,,4024HR,Eck en Wiel,Buren,Gelderland,VBO,5.458651,51.967929
Burgemeester Verbrughweg,22,,,4024HR,Eck en Wiel,Buren,Gelderland,VBO,5.459000,51.967920
Burgemeester Verbrughweg,24,,,4024HR,Eck en Wiel,Buren,Gelderland,VBO,5.459291,51.967866
Burgemeester Verbrughweg,26,a,,4024HR,Eck en Wiel,Buren,Gelderland,VBO,5.459621,51.967043
Burgemeester Verbrughweg,26,,,4024HR,Eck en Wiel,Buren,Gelderland,VBO,5.459584,51.967235
Burgemeester Verbrughweg,28,,,4024HR,Eck en Wiel,Buren,Gelderland,VBO,5.459508,51.966841
Burgemeester Verbrughweg,30,,,4024HR,Eck en Wiel,Buren,Gelderland,VBO,5.459275,51.966572
Burgemeester Verbrughweg,32,,,4024HR,Eck en Wiel,Buren,Gelderland,VBO,5.459230,51.965844
Burgemeester Verbrughweg,34,,,4024HR,Eck en Wiel,Buren,Gelderland,VBO,5.459185,51.965277
Burgemeester Verbrughweg,36,,,4024HR,Eck en Wiel,Buren,Gelderland,VBO,5.459200,51.965196
Burgemeester Verbrughweg,38,,,4024HR,Eck en Wiel,Buren,Gelderland,VBO,5.459141,51.964792
Burgemeester Verbrughweg,40,,,4024HR,Eck en Wiel,Buren,Gelderland,VBO,5.459881,51.963722
Burgemeester Verbrughweg,42,,,4024HR,Eck en Wiel,Buren,Gelderland,VBO,5.465889,51.962711
Jordenstraat,1,,,4024HS,Eck en Wiel,Buren,Gelderland,VBO,5.455979,51.971445
Jordenstraat,3,,,4024HS,Eck en Wiel,Buren,Gelderland,VBO,5.455921,51.971373
Jordenstraat,5,,,4024HS,Eck en Wiel,Buren,Gelderland,VBO,5.455906,51.971247
Jordenstraat,7,a,,4024HS,Eck en Wiel,Buren,Gelderland,VBO,5.455920,51.970969
Jordenstraat,7,,,4024HS,Eck en Wiel,Buren,Gelderland,VBO,5.455848,51.971104
Jordenstraat,9,,,4024HS,Eck en Wiel,Buren,Gelderland,VBO,5.455731,51.970852
Jordenstraat,11,,,4024HS,Eck en Wiel,Buren,Gelderland,VBO,5.455731,51.970789
Jordenstraat,13,,,4024HS,Eck en Wiel,Buren,Gelderland,VBO,5.455701,51.970744
Jordenstraat,15,,,4024HS,Eck en Wiel,Buren,Gelderland,VBO,5.455687,51.970672
Jordenstraat,17,,,4024HS,Eck en Wiel,Buren,Gelderland,VBO,5.455672,51.970564
Jordenstraat,19,,,4024HS,Eck en Wiel,Buren,Gelderland,VBO,5.455643,51.970529
Jordenstraat,21,,,4024HS,Eck en Wiel,Buren,Gelderland,VBO,5.455628,51.970439
Jordenstraat,23,,,4024HS,Eck en Wiel,Buren,Gelderland,VBO,5.455643,51.970340
Jordenstraat,25,,,4024HS,Eck en Wiel,Buren,Gelderland,VBO,5.455628,51.970268
Jordenstraat,27,,,4024HS,Eck en Wiel,Buren,Gelderland,VBO,5.455642,51.970187
Jordenstraat,29,,,4024HS,Eck en Wiel,Buren,Gelderland,VBO,5.455628,51.970115
Jordenstraat,18,,,4024HT,Eck en Wiel,Buren,Gelderland,VBO,5.455601,51.971571
Jordenstraat,20,,,4024HT,Eck en Wiel,Buren,Gelderland,VBO,5.455572,51.971517
Jordenstraat,22,,,4024HT,Eck en Wiel,Buren,Gelderland,VBO,5.455542,51.971427
Jordenstraat,24,,,4024HT,Eck en Wiel,Buren,Gelderland,VBO,5.455528,51.971373
Jordenstraat,26,,,4024HT,Eck en Wiel,Buren,Gelderland,VBO,5.455528,51.971320
Jordenstraat,28,,,4024HT,Eck en Wiel,Buren,Gelderland,VBO,5.455513,51.971275
Jordenstraat,30,,,4024HT,Eck en Wiel,Buren,Gelderland,VBO,5.455498,51.971203
Jordenstraat,32,,,4024HT,Eck en Wiel,Buren,Gelderland,VBO,5.455440,51.971104
Jordenstraat,34,,,4024HT,Eck en Wiel,Buren,Gelderland,VBO,5.455440,51.971068
Jordenstraat,36,,,4024HT,Eck en Wiel,Buren,Gelderland,VBO,5.455425,51.971023
Jordenstraat,38,,,4024HT,Eck en Wiel,Buren,Gelderland,VBO,5.455411,51.970951
Jordenstraat,40,,,4024HT,Eck en Wiel,Buren,Gelderland,VBO,5.455382,51.970915
Jordenstraat,42,,,4024HT,Eck en Wiel,Buren,Gelderland,VBO,5.455367,51.970789
Jordenstraat,44,,,4024HT,Eck en Wiel,Buren,Gelderland,VBO,5.455338,51.970726
Jordenstraat,46,,,4024HT,Eck en Wiel,Buren,Gelderland,VBO,5.455323,51.970682
Jordenstraat,48,,,4024HT,Eck en Wiel,Buren,Gelderland,VBO,5.455308,51.970646
Jordenstraat,50,,,4024HT,Eck en Wiel,Buren,Gelderland,VBO,5.455279,51.970574
Jordenstraat,52,,,4024HT,Eck en Wiel,Buren,Gelderland,VBO,5.455235,51.970457
Jordenstraat,54,,,4024HT,Eck en Wiel,Buren,Gelderland,VBO,5.455221,51.970412
Jordenstraat,56,,,4024HT,Eck en Wiel,Buren,Gelderland,VBO,5.455206,51.970358
Jordenstraat,58,,,4024HT,Eck en Wiel,Buren,Gelderland,VBO,5.455191,51.970232
Jordenstraat,60,,,4024HT,Eck en Wiel,Buren,Gelderland,VBO,5.455206,51.970196
Jordenstraat,62,,,4024HT,Eck en Wiel,Buren,Gelderland,VBO,5.455206,51.970142
Baan,1,,,4024HV,Eck en Wiel,Buren,Gelderland,VBO,5.455162,51.969837
Baan,2,,,4024HV,Eck en Wiel,Buren,Gelderland,VBO,5.454813,51.970107
Baan,3,,,4024HV,Eck en Wiel,Buren,Gelderland,VBO,5.454943,51.969837
Baan,4,,,4024HV,Eck en Wiel,Buren,Gelderland,VBO,5.454696,51.970107
Baan,5,,,4024HV,Eck en Wiel,Buren,Gelderland,VBO,5.454798,51.969855
Baan,7,,,4024HV,Eck en Wiel,Buren,Gelderland,VBO,5.454521,51.969765
Henry Dunantstraat,1,a,,4024HW,Eck en Wiel,Buren,Gelderland,VBO,5.454834,51.970384
Henry Dunantstraat,1,b,,4024HW,Eck en Wiel,Buren,Gelderland,VBO,5.454828,51.970358
Henry Dunantstraat,1,c,,4024HW,Eck en Wiel,Buren,Gelderland,VBO,5.454815,51.970335
Henry Dunantstraat,1,d,,4024HW,Eck en Wiel,Buren,Gelderland,VBO,5.454805,51.970305
Henry Dunantstraat,1,e,,4024HW,Eck en Wiel,Buren,Gelderland,VBO,5.454799,51.970283
Henry Dunantstraat,1,f,,4024HW,Eck en Wiel,Buren,Gelderland,VBO,5.454781,51.970254
Henry Dunantstraat,1,g,,4024HW,Eck en Wiel,Buren,Gelderland,VBO,5.454777,51.970231
Henry Dunantstraat,5,a,,4024HW,Eck en Wiel,Buren,Gelderland,VBO,5.455092,51.971543
Henry Dunantstraat,5,,,4024HW,Eck en Wiel,Buren,Gelderland,VBO,5.454771,51.971446
Henry Dunantstraat,7,,,4024HW,Eck en Wiel,Buren,Gelderland,VBO,5.454858,51.971428
Henry Dunantstraat,9,,,4024HW,Eck en Wiel,Buren,Gelderland,VBO,5.454946,51.971419
Henry Dunantstraat,11,,,4024HW,Eck en Wiel,Buren,Gelderland,VBO,5.455018,51.971410
Henry Dunantstraat,13,,,4024HW,Eck en Wiel,Buren,Gelderland,VBO,5.455106,51.971392
Henry Dunantstraat,15,,,4024HW,Eck en Wiel,Buren,Gelderland,VBO,5.455208,51.971383
Henry Dunantstraat,17,,,4024HW,Eck en Wiel,Buren,Gelderland,VBO,5.455091,51.971095
Henry Dunantstraat,19,,,4024HW,Eck en Wiel,Buren,Gelderland,VBO,5.455003,51.971104
Henry Dunantstraat,21,,,4024HW,Eck en Wiel,Buren,Gelderland,VBO,5.454916,51.971122
Henry Dunantstraat,23,,,4024HW,Eck en Wiel,Buren,Gelderland,VBO,5.454814,51.971131
Henry Dunantstraat,25,,,4024HW,Eck en Wiel,Buren,Gelderland,VBO,5.454742,51.971140
Henry Dunantstraat,27,,,4024HW,Eck en Wiel,Buren,Gelderland,VBO,5.454669,51.971158
Henry Dunantstraat,29,,,4024HW,Eck en Wiel,Buren,Gelderland,VBO,5.454567,51.970871
Henry Dunantstraat,31,,,4024HW,Eck en Wiel,Buren,Gelderland,VBO,5.454654,51.970862
Henry Dunantstraat,33,,,4024HW,Eck en Wiel,Buren,Gelderland,VBO,5.454741,51.970844
Henry Dunantstraat,35,,,4024HW,Eck en Wiel,Buren,Gelderland,VBO,5.454814,51.970835
Henry Dunantstraat,37,,,4024HW,Eck en Wiel,Buren,Gelderland,VBO,5.454901,51.970826
Henry Dunantstraat,39,,,4024HW,Eck en Wiel,Buren,Gelderland,VBO,5.454974,51.970808
Henry Dunantstraat,41,,,4024HX,Eck en Wiel,Buren,Gelderland,VBO,5.454872,51.970520
Henry Dunantstraat,43,,,4024HX,Eck en Wiel,Buren,Gelderland,VBO,5.454799,51.970538
Henry Dunantstraat,45,,,4024HX,Eck en Wiel,Buren,Gelderland,VBO,5.454712,51.970556
Henry Dunantstraat,47,,,4024HX,Eck en Wiel,Buren,Gelderland,VBO,5.454624,51.970565
Henry Dunantstraat,49,,,4024HX,Eck en Wiel,Buren,Gelderland,VBO,5.454537,51.970574
Henry Dunantstraat,51,,,4024HX,Eck en Wiel,Buren,Gelderland,VBO,5.454450,51.970574
Henry Dunantstraat,53,,,4024HX,Eck en Wiel,Buren,Gelderland,VBO,5.454391,51.970358
Henry Dunantstraat,55,,,4024HX,Eck en Wiel,Buren,Gelderland,VBO,5.454376,51.970305
Henry Dunantstraat,57,,,4024HX,Eck en Wiel,Buren,Gelderland,VBO,5.454347,51.970242
Henry Dunantstraat,59,,,4024HX,Eck en Wiel,Buren,Gelderland,VBO,5.454318,51.970197
Henry Dunantstraat,61,,,4024HX,Eck en Wiel,Buren,Gelderland,VBO,5.454318,51.970143
Henry Dunantstraat,63,,,4024HX,Eck en Wiel,Buren,Gelderland,VBO,5.454303,51.970071
Blankertseweg,1,,,4024HZ,Eck en Wiel,Buren,Gelderland,VBO,5.456430,51.971661
Blankertseweg,3,,,4024HZ,Eck en Wiel,Buren,Gelderland,VBO,5.456314,51.971670
Blankertseweg,5,,,4024HZ,Eck en Wiel,Buren,Gelderland,VBO,5.456154,51.971688
Blankertseweg,6,,,4024HZ,Eck en Wiel,Buren,Gelderland,VBO,5.456664,51.971957
Blankertseweg,7,a,,4024HZ,Eck en Wiel,Buren,Gelderland,VBO,5.455630,51.971751
Blankertseweg,7,b,,4024HZ,Eck en Wiel,Buren,Gelderland,VBO,5.455543,51.971778
Blankertseweg,7,c,,4024HZ,Eck en Wiel,Buren,Gelderland,VBO,5.455237,51.971787
Blankertseweg,7,d,,4024HZ,Eck en Wiel,Buren,Gelderland,VBO,5.454961,51.971823
Blankertseweg,7,,,4024HZ,Eck en Wiel,Buren,Gelderland,VBO,5.456038,51.971715
Blankertseweg,8,,,4024HZ,Eck en Wiel,Buren,Gelderland,VBO,5.456446,51.972020
Blankertseweg,10,a,,4024HZ,Eck en Wiel,Buren,Gelderland,VBO,5.456038,51.972056
Blankertseweg,10,b,,4024HZ,Eck en Wiel,Buren,Gelderland,VBO,5.455965,51.972065
Blankertseweg,10,c,,4024HZ,Eck en Wiel,Buren,Gelderland,VBO,5.455674,51.972101
Blankertseweg,10,d,,4024HZ,Eck en Wiel,Buren,Gelderland,VBO,5.455413,51.972165
Blankertseweg,10,,,4024HZ,Eck en Wiel,Buren,Gelderland,VBO,5.456315,51.972038
Blankertseweg,12,,,4024HZ,Eck en Wiel,Buren,Gelderland,VBO,5.455165,51.972201
Adam van Delenstraat,1,,,4024JA,Eck en Wiel,Buren,Gelderland,VBO,5.457420,51.971741
Adam van Delenstraat,3,a,,4024JA,Eck en Wiel,Buren,Gelderland,VBO,5.457827,51.971633
Adam van Delenstraat,3,,,4024JA,Eck en Wiel,Buren,Gelderland,VBO,5.457697,51.971642
Adam van Delenstraat,5,,,4024JA,Eck en Wiel,Buren,Gelderland,VBO,5.458017,51.971588
Adam van Delenstraat,7,,,4024JA,Eck en Wiel,Buren,Gelderland,VBO,5.458279,51.971552
Adam van Delenstraat,9,,,4024JA,Eck en Wiel,Buren,Gelderland,VBO,5.458526,51.971525
Adam van Delenstraat,11,,,4024JA,Eck en Wiel,Buren,Gelderland,VBO,5.458773,51.971533
Adam van Delenstraat,13,,,4024JA,Eck en Wiel,Buren,Gelderland,VBO,5.459050,51.971425
Adam van Delenstraat,2,,,4024JB,Eck en Wiel,Buren,Gelderland,VBO,5.457623,51.971255
Adam van Delenstraat,6,a,,4024JB,Eck en Wiel,Buren,Gelderland,VBO,5.458147,51.971111
Adam van Delenstraat,6,b,,4024JB,Eck en Wiel,Buren,Gelderland,VBO,5.458292,51.971093
Adam van Delenstraat,6,c,,4024JB,Eck en Wiel,Buren,Gelderland,VBO,5.458627,51.971084
Adam van Delenstraat,6,d,,4024JB,Eck en Wiel,Buren,Gelderland,VBO,5.458831,51.971003
Adam van Delenstraat,6,e,,4024JB,Eck en Wiel,Buren,Gelderland,VBO,5.458947,51.970976
Adam van Delenstraat,6,f,,4024JB,Eck en Wiel,Buren,Gelderland,VBO,5.459092,51.970931
Adam van Delenstraat,6,g,,4024JB,Eck en Wiel,Buren,Gelderland,VBO,5.459194,51.970913
Adam van Delenstraat,6,,,4024JB,Eck en Wiel,Buren,Gelderland,VBO,5.457841,51.971076
Adam van Delenstraat,8,,,4024JB,Eck en Wiel,Buren,Gelderland,VBO,5.459369,51.970742
Adam van Delenstraat,10,,,4024JB,Eck en Wiel,Buren,Gelderland,VBO,5.459383,51.970356
Adam van Delenstraat,12,,,4024JB,Eck en Wiel,Buren,Gelderland,VBO,5.459295,51.970185
Adam van Delenstraat,14,,,4024JB,Eck en Wiel,Buren,Gelderland,VBO,5.459334,51.970065
Adam van Delenstraat,16,,,4024JB,Eck en Wiel,Buren,Gelderland,VBO,5.459265,51.969924
Adam van Delenstraat,18,,,4024JB,Eck en Wiel,Buren,Gelderland,VBO,5.459309,51.969798
Adam van Delenstraat,20,,,4024JB,Eck en Wiel,Buren,Gelderland,VBO,5.459280,51.969681
Adam van Delenstraat,22,,,4024JB,Eck en Wiel,Buren,Gelderland,VBO,5.459308,51.969430
Adam van Delenstraat,24,,,4024JB,Eck en Wiel,Buren,Gelderland,VBO,5.459294,51.969295
Adam van Delenstraat,26,,,4024JB,Eck en Wiel,Buren,Gelderland,VBO,5.459308,51.969151
Adam van Delenstraat,28,,,4024JB,Eck en Wiel,Buren,Gelderland,VBO,5.459322,51.969007
Adam van Delenstraat,30,,,4024JB,Eck en Wiel,Buren,Gelderland,VBO,5.459337,51.968864
Adam van Delenstraat,32,,,4024JB,Eck en Wiel,Buren,Gelderland,VBO,5.459365,51.968711
Adam van Delenstraat,34,,,4024JB,Eck en Wiel,Buren,Gelderland,VBO,5.459365,51.968558
Adam van Delenstraat,36,,,4024JB,Eck en Wiel,Buren,Gelderland,VBO,5.459408,51.968351
Klaproosstraat,1,,,4024JC,Eck en Wiel,Buren,Gelderland,VBO,5.457097,51.970060
Klaproosstraat,3,,,4024JC,Eck en Wiel,Buren,Gelderland,VBO,5.457199,51.970015
Klaproosstraat,5,,,4024JC,Eck en Wiel,Buren,Gelderland,VBO,5.457301,51.969979
Klaproosstraat,6,,,4024JC,Eck en Wiel,Buren,Gelderland,VBO,5.456850,51.969800
Klaproosstraat,7,,,4024JC,Eck en Wiel,Buren,Gelderland,VBO,5.457588,51.969935
Klaproosstraat,8,,,4024JC,Eck en Wiel,Buren,Gelderland,VBO,5.456980,51.969737
Klaproosstraat,9,,,4024JC,Eck en Wiel,Buren,Gelderland,VBO,5.457825,51.969943
Klaproosstraat,10,,,4024JC,Eck en Wiel,Buren,Gelderland,VBO,5.457460,51.969593
Klaproosstraat,12,,,4024JC,Eck en Wiel,Buren,Gelderland,VBO,5.457548,51.969575
Klaproosstraat,14,,,4024JC,Eck en Wiel,Buren,Gelderland,VBO,5.457621,51.969566
Klaproosstraat,16,,,4024JC,Eck en Wiel,Buren,Gelderland,VBO,5.457708,51.969557
Klaproosstraat,18,,,4024JC,Eck en Wiel,Buren,Gelderland,VBO,5.457795,51.969548
Klaproosstraat,20,,,4024JC,Eck en Wiel,Buren,Gelderland,VBO,5.457882,51.969530
Klaproosstraat,22,,,4024JC,Eck en Wiel,Buren,Gelderland,VBO,5.458057,51.969502
Klaproosstraat,24,,,4024JC,Eck en Wiel,Buren,Gelderland,VBO,5.458144,51.969502
Klaproosstraat,26,,,4024JC,Eck en Wiel,Buren,Gelderland,VBO,5.458261,51.969484
Klaproosstraat,28,,,4024JC,Eck en Wiel,Buren,Gelderland,VBO,5.458333,51.969475
Klaproosstraat,30,,,4024JC,Eck en Wiel,Buren,Gelderland,VBO,5.458392,51.969457
Klaproosstraat,32,,,4024JC,Eck en Wiel,Buren,Gelderland,VBO,5.458479,51.969448
Korenbloemstraat,1,,,4024JD,Eck en Wiel,Buren,Gelderland,VBO,5.457197,51.968874
Korenbloemstraat,2,a,,4024JD,Eck en Wiel,Buren,Gelderland,VBO,5.457079,51.969634
Korenbloemstraat,2,b,,4024JD,Eck en Wiel,Buren,Gelderland,VBO,5.457087,51.969656
Korenbloemstraat,2,c,,4024JD,Eck en Wiel,Buren,Gelderland,VBO,5.457085,51.969687
Korenbloemstraat,2,,,4024JD,Eck en Wiel,Buren,Gelderland,VBO,5.456995,51.969557
Korenbloemstraat,3,,,4024JD,Eck en Wiel,Buren,Gelderland,VBO,5.457168,51.968820
Korenbloemstraat,4,,,4024JD,Eck en Wiel,Buren,Gelderland,VBO,5.456966,51.969476
Korenbloemstraat,5,,,4024JD,Eck en Wiel,Buren,Gelderland,VBO,5.457110,51.968721
Korenbloemstraat,6,,,4024JD,Eck en Wiel,Buren,Gelderland,VBO,5.456893,51.969359
Korenbloemstraat,8,,,4024JD,Eck en Wiel,Buren,Gelderland,VBO,5.456849,51.969278
Korenbloemstraat,10,,,4024JD,Eck en Wiel,Buren,Gelderland,VBO,5.456776,51.969180
Korenbloemstraat,12,,,4024JD,Eck en Wiel,Buren,Gelderland,VBO,5.456747,51.969108
Korenbloemstraat,14,,,4024JD,Eck en Wiel,Buren,Gelderland,VBO,5.456703,51.969027
Korenbloemstraat,16,,,4024JD,Eck en Wiel,Buren,Gelderland,VBO,5.456674,51.968955
Korenbloemstraat,18,,,4024JD,Eck en Wiel,Buren,Gelderland,VBO,5.456586,51.968811
Spiraeastraat,1,,,4024JE,Eck en Wiel,Buren,Gelderland,VBO,5.458916,51.970059
Spiraeastraat,3,,,4024JE,Eck en Wiel,Buren,Gelderland,VBO,5.458916,51.969996
Spiraeastraat,5,,,4024JE,Eck en Wiel,Buren,Gelderland,VBO,5.458931,51.969924
Spiraeastraat,7,,,4024JE,Eck en Wiel,Buren,Gelderland,VBO,5.458931,51.969870
Spiraeastraat,9,,,4024JE,Eck en Wiel,Buren,Gelderland,VBO,5.458931,51.969808
Spiraeastraat,11,,,4024JE,Eck en Wiel,Buren,Gelderland,VBO,5.458930,51.969745
Spiraeastraat,13,,,4024JE,Eck en Wiel,Buren,Gelderland,VBO,5.458930,51.969682
Spiraeastraat,15,,,4024JE,Eck en Wiel,Buren,Gelderland,VBO,5.458930,51.969457
Spiraeastraat,17,,,4024JE,Eck en Wiel,Buren,Gelderland,VBO,5.458930,51.969385
Spiraeastraat,19,,,4024JE,Eck en Wiel,Buren,Gelderland,VBO,5.458944,51.969286
Spiraeastraat,21,,,4024JE,Eck en Wiel,Buren,Gelderland,VBO,5.458944,51.969223
Spiraeastraat,23,,,4024JE,Eck en Wiel,Buren,Gelderland,VBO,5.458944,51.969124
Spiraeastraat,25,,,4024JE,Eck en Wiel,Buren,Gelderland,VBO,5.458944,51.969061
Spiraeastraat,27,,,4024JE,Eck en Wiel,Buren,Gelderland,VBO,5.458958,51.968963
Spiraeastraat,29,,,4024JE,Eck en Wiel,Buren,Gelderland,VBO,5.458958,51.968891
Spiraeastraat,31,,,4024JE,Eck en Wiel,Buren,Gelderland,VBO,5.458958,51.968801
Spiraeastraat,33,,,4024JE,Eck en Wiel,Buren,Gelderland,VBO,5.458958,51.968729
Spiraeastraat,35,,,4024JE,Eck en Wiel,Buren,Gelderland,VBO,5.458929,51.968639
Spiraeastraat,37,,,4024JE,Eck en Wiel,Buren,Gelderland,VBO,5.458943,51.968567
Spiraeastraat,2,,,4024JG,Eck en Wiel,Buren,Gelderland,VBO,5.458670,51.970374
Spiraeastraat,4,,,4024JG,Eck en Wiel,Buren,Gelderland,VBO,5.458524,51.970392
Spiraeastraat,6,,,4024JG,Eck en Wiel,Buren,Gelderland,VBO,5.458437,51.970401
Spiraeastraat,8,,,4024JG,Eck en Wiel,Buren,Gelderland,VBO,5.458335,51.970392
Spiraeastraat,10,,,4024JG,Eck en Wiel,Buren,Gelderland,VBO,5.458218,51.970401
Spiraeastraat,12,,,4024JG,Eck en Wiel,Buren,Gelderland,VBO,5.457913,51.970365
Spiraeastraat,14,,,4024JG,Eck en Wiel,Buren,Gelderland,VBO,5.458131,51.970150
Spiraeastraat,16,,,4024JG,Eck en Wiel,Buren,Gelderland,VBO,5.458262,51.970140
Spiraeastraat,18,,,4024JG,Eck en Wiel,Buren,Gelderland,VBO,5.458509,51.970113
Spiraeastraat,20,,,4024JG,Eck en Wiel,Buren,Gelderland,VBO,5.458494,51.970050
Spiraeastraat,22,,,4024JG,Eck en Wiel,Buren,Gelderland,VBO,5.458494,51.969970
Spiraeastraat,24,,,4024JG,Eck en Wiel,Buren,Gelderland,VBO,5.458494,51.969907
Spiraeastraat,26,a,,4024JG,Eck en Wiel,Buren,Gelderland,VBO,5.458465,51.969727
Spiraeastraat,26,b,,4024JG,Eck en Wiel,Buren,Gelderland,VBO,5.458450,51.969295
Spiraeastraat,26,,,4024JG,Eck en Wiel,Buren,Gelderland,VBO,5.458465,51.969853
Spiraeastraat,28,,,4024JG,Eck en Wiel,Buren,Gelderland,VBO,5.458390,51.968666
Spiraeastraat,30,,,4024JG,Eck en Wiel,Buren,Gelderland,VBO,5.458347,51.968603
Spiraeastraat,32,,,4024JG,Eck en Wiel,Buren,Gelderland,VBO,5.458346,51.968469
Bolderikstraat,1,,,4024JH,Eck en Wiel,Buren,Gelderland,VBO,5.457344,51.969359
Bolderikstraat,3,,,4024JH,Eck en Wiel,Buren,Gelderland,VBO,5.457446,51.969332
Bolderikstraat,5,,,4024JH,Eck en Wiel,Buren,Gelderland,VBO,5.457504,51.969323
Bolderikstraat,7,,,4024JH,Eck en Wiel,Buren,Gelderland,VBO,5.457606,51.969305
Bolderikstraat,9,,,4024JH,Eck en Wiel,Buren,Gelderland,VBO,5.457736,51.969260
Bolderikstraat,11,,,4024JH,Eck en Wiel,Buren,Gelderland,VBO,5.457824,51.969242
Bolderikstraat,13,,,4024JH,Eck en Wiel,Buren,Gelderland,VBO,5.457940,51.969233
Bolderikstraat,15,,,4024JH,Eck en Wiel,Buren,Gelderland,VBO,5.458027,51.969206
Bolderikstraat,17,,,4024JH,Eck en Wiel,Buren,Gelderland,VBO,5.458173,51.969170
Bolderikstraat,19,,,4024JH,Eck en Wiel,Buren,Gelderland,VBO,5.458260,51.969152
Bolderikstraat,21,,,4024JH,Eck en Wiel,Buren,Gelderland,VBO,5.458333,51.969134
Bolderikstraat,23,,,4024JH,Eck en Wiel,Buren,Gelderland,VBO,5.458449,51.969125
Bolderikstraat,25,,,4024JH,Eck en Wiel,Buren,Gelderland,VBO,5.458537,51.969125
Bolderikstraat,2,,,4024JJ,Eck en Wiel,Buren,Gelderland,VBO,5.457139,51.969063
Bolderikstraat,4,,,4024JJ,Eck en Wiel,Buren,Gelderland,VBO,5.457270,51.969054
Bolderikstraat,6,,,4024JJ,Eck en Wiel,Buren,Gelderland,VBO,5.457314,51.969044
Bolderikstraat,8,,,4024JJ,Eck en Wiel,Buren,Gelderland,VBO,5.457416,51.969008
Bolderikstraat,10,,,4024JJ,Eck en Wiel,Buren,Gelderland,VBO,5.457518,51.968999
Bolderikstraat,12,,,4024JJ,Eck en Wiel,Buren,Gelderland,VBO,5.457692,51.968963
Bolderikstraat,14,,,4024JJ,Eck en Wiel,Buren,Gelderland,VBO,5.457794,51.968936
Bolderikstraat,16,,,4024JJ,Eck en Wiel,Buren,Gelderland,VBO,5.457867,51.968936
Bolderikstraat,18,,,4024JJ,Eck en Wiel,Buren,Gelderland,VBO,5.457954,51.968909
Bolderikstraat,20,,,4024JJ,Eck en Wiel,Buren,Gelderland,VBO,5.458027,51.968891
Bolderikstraat,22,,,4024JJ,Eck en Wiel,Buren,Gelderland,VBO,5.458172,51.968855
Bolderikstraat,24,,,4024JJ,Eck en Wiel,Buren,Gelderland,VBO,5.458245,51.968846
Bolderikstraat,26,,,4024JJ,Eck en Wiel,Buren,Gelderland,VBO,5.458347,51.968846
Bolderikstraat,28,,,4024JJ,Eck en Wiel,Buren,Gelderland,VBO,5.458449,51.968837
Bolderikstraat,30,,,4024JJ,Eck en Wiel,Buren,Gelderland,VBO,5.458551,51.968819
Leeweg,2,,,4024JK,Eck en Wiel,Buren,Gelderland,VBO,5.464811,51.962092
Leeweg,4,,,4024JK,Eck en Wiel,Buren,Gelderland,VBO,5.463702,51.960124
Leeweg,8,,,4024JK,Eck en Wiel,Buren,Gelderland,VBO,5.461644,51.956109
Vlissingsestraat,2,,,4024JL,Eck en Wiel,Buren,Gelderland,VBO,5.453231,51.963034
Vlissingsestraat,6,,,4024JL,Eck en Wiel,Buren,Gelderland,VBO,5.453391,51.963025
Vlissingsestraat,8,,,4024JL,Eck en Wiel,Buren,Gelderland,VBO,5.453682,51.963034
Vlissingsestraat,10,,,4024JL,Eck en Wiel,Buren,Gelderland,VBO,5.453754,51.963015
Vlissingsestraat,12,,,4024JL,Eck en Wiel,Buren,Gelderland,VBO,5.453856,51.962944
Vlissingsestraat,14,a,,4024JL,Eck en Wiel,Buren,Gelderland,VBO,5.454583,51.962575
Vlissingsestraat,14,,,4024JL,Eck en Wiel,Buren,Gelderland,VBO,5.454830,51.962494
Vlissingsestraat,16,,,4024JL,Eck en Wiel,Buren,Gelderland,VBO,5.457332,51.961746
Vlissingsestraat,20,,,4024JL,Eck en Wiel,Buren,Gelderland,VBO,5.457462,51.960991
Vlissingsestraat,22,,,4024JL,Eck en Wiel,Buren,Gelderland,VBO,5.457461,51.960910
Vlissingsestraat,24,,,4024JL,Eck en Wiel,Buren,Gelderland,VBO,5.458684,51.961512
Vlissingsestraat,26,,,4024JL,Eck en Wiel,Buren,Gelderland,VBO,5.459543,51.961295
Vlissingsestraat,28,,,4024JL,Eck en Wiel,Buren,Gelderland,VBO,5.460692,51.961070
Vlissingsestraat,30,,,4024JL,Eck en Wiel,Buren,Gelderland,VBO,5.461071,51.961573
Tielseweg,1,,,4024JM,Eck en Wiel,Buren,Gelderland,VBO,5.453332,51.962836
Tielseweg,2,,,4024JM,Eck en Wiel,Buren,Gelderland,VBO,5.452663,51.962836
Tielseweg,3,m,,4024JM,Eck en Wiel,Buren,Gelderland,VBO,5.453283,51.962056
Tielseweg,3,,,4024JM,Eck en Wiel,Buren,Gelderland,VBO,5.453244,51.962081
Tielseweg,4,,,4024JM,Eck en Wiel,Buren,Gelderland,VBO,5.452677,51.962270
Tielseweg,5,,,4024JM,Eck en Wiel,Buren,Gelderland,VBO,5.451253,51.953930
Tielseweg,6,,,4024JM,Eck en Wiel,Buren,Gelderland,VBO,5.452589,51.961991
Tielseweg,8,,,4024JM,Eck en Wiel,Buren,Gelderland,VBO,5.452312,51.961497
Tielseweg,10,,,4024JM,Eck en Wiel,Buren,Gelderland,VBO,5.452006,51.960976
Tielseweg,12,,,4024JM,Eck en Wiel,Buren,Gelderland,VBO,5.451801,51.960437
Tielseweg,14,,,4024JM,Eck en Wiel,Buren,Gelderland,VBO,5.451393,51.959880
Tielseweg,16,,,4024JM,Eck en Wiel,Buren,Gelderland,VBO,5.451363,51.959179
Tielseweg,18,,,4024JM,Eck en Wiel,Buren,Gelderland,VBO,5.451376,51.958388
Tielseweg,20,,,4024JM,Eck en Wiel,Buren,Gelderland,VBO,5.451230,51.957858
Tielseweg,22,,,4024JM,Eck en Wiel,Buren,Gelderland,VBO,5.451200,51.957534
Tielseweg,24,,,4024JM,Eck en Wiel,Buren,Gelderland,VBO,5.450864,51.956141
Tielseweg,26,a,,4024JM,Eck en Wiel,Buren,Gelderland,VBO,5.450455,51.955234
Tielseweg,26,,,4024JM,Eck en Wiel,Buren,Gelderland,VBO,5.450732,51.955593
Tielseweg,28,a,,4024JM,Eck en Wiel,Buren,Gelderland,VBO,5.450440,51.954739
Tielseweg,28,b,,4024JM,Eck en Wiel,Buren,Gelderland,VBO,5.450434,51.954853
Tielseweg,28,,,4024JM,Eck en Wiel,Buren,Gelderland,VBO,5.450513,51.955063
Tielseweg,30,,,4024JM,Eck en Wiel,Buren,Gelderland,VBO,5.450425,51.954523
Dwarsweg,1,,,4024JN,Eck en Wiel,Buren,Gelderland,VBO,5.449733,51.958640
Dwarsweg,2,,,4024JN,Eck en Wiel,Buren,Gelderland,VBO,5.450592,51.959242
Dwarsweg,3,,,4024JN,Eck en Wiel,Buren,Gelderland,VBO,5.446983,51.959010
Homoetsedreef,2,,,4024JP,Eck en Wiel,Buren,Gelderland,VBO,5.447919,51.962614
Homoetsedreef,4,,,4024JP,Eck en Wiel,Buren,Gelderland,VBO,5.447438,51.961823
Homoetsedreef,6,,,4024JP,Eck en Wiel,Buren,Gelderland,VBO,5.446884,51.960556
Homoetsedreef,8,,,4024JP,Eck en Wiel,Buren,Gelderland,VBO,5.446504,51.959514
Homoetsedreef,10,,,4024JP,Eck en Wiel,Buren,Gelderland,VBO,5.446124,51.958481
Homoetsedreef,12,,,4024JP,Eck en Wiel,Buren,Gelderland,VBO,5.446008,51.958499
Madelievenkamp,2,,,4024JR,Eck en Wiel,Buren,Gelderland,VBO,5.458200,51.968055
Madelievenkamp,3,,,4024JR,Eck en Wiel,Buren,Gelderland,VBO,5.458622,51.967794
Madelievenkamp,4,,,4024JR,Eck en Wiel,Buren,Gelderland,VBO,5.458127,51.967911
Madelievenkamp,5,,,4024JR,Eck en Wiel,Buren,Gelderland,VBO,5.458593,51.967731
Madelievenkamp,6,,,4024JR,Eck en Wiel,Buren,Gelderland,VBO,5.458113,51.967849
Madelievenkamp,7,,,4024JR,Eck en Wiel,Buren,Gelderland,VBO,5.458170,51.967372
Madelievenkamp,8,,,4024JR,Eck en Wiel,Buren,Gelderland,VBO,5.458025,51.967696
Madelievenkamp,9,,,4024JR,Eck en Wiel,Buren,Gelderland,VBO,5.458054,51.967399
Madelievenkamp,10,,,4024JR,Eck en Wiel,Buren,Gelderland,VBO,5.457836,51.967723
Madelievenkamp,11,,,4024JR,Eck en Wiel,Buren,Gelderland,VBO,5.457646,51.967462
Madelievenkamp,12,,,4024JR,Eck en Wiel,Buren,Gelderland,VBO,5.457763,51.967741
Madelievenkamp,13,,,4024JR,Eck en Wiel,Buren,Gelderland,VBO,5.457515,51.967480
Madelievenkamp,14,,,4024JR,Eck en Wiel,Buren,Gelderland,VBO,5.457603,51.967777
Madelievenkamp,15,,,4024JR,Eck en Wiel,Buren,Gelderland,VBO,5.457355,51.967498
Madelievenkamp,16,,,4024JR,Eck en Wiel,Buren,Gelderland,VBO,5.457530,51.967795
Madelievenkamp,17,,,4024JR,Eck en Wiel,Buren,Gelderland,VBO,5.457268,51.967526
Madelievenkamp,18,,,4024JR,Eck en Wiel,Buren,Gelderland,VBO,5.457356,51.967795
Madelievenkamp,20,,,4024JR,Eck en Wiel,Buren,Gelderland,VBO,5.457269,51.967813
Madelievenkamp,22,,,4024JR,Eck en Wiel,Buren,Gelderland,VBO,5.457123,51.967849
Madelievenkamp,23,,,4024JR,Eck en Wiel,Buren,Gelderland,VBO,5.456483,51.967742
Madelievenkamp,24,,,4024JR,Eck en Wiel,Buren,Gelderland,VBO,5.457036,51.967867
Madelievenkamp,25,,,4024JR,Eck en Wiel,Buren,Gelderland,VBO,5.456264,51.967814
Madelievenkamp,26,,,4024JR,Eck en Wiel,Buren,Gelderland,VBO,5.456890,51.967903
Madelievenkamp,27,,,4024JR,Eck en Wiel,Buren,Gelderland,VBO,5.456250,51.968020
Madelievenkamp,28,,,4024JR,Eck en Wiel,Buren,Gelderland,VBO,5.456818,51.967921
Madelievenkamp,30,,,4024JR,Eck en Wiel,Buren,Gelderland,VBO,5.456672,51.967993
Kamillekamp,1,,,4024JS,Eck en Wiel,Buren,Gelderland,VBO,5.458913,51.967704
Kamillekamp,2,,,4024JS,Eck en Wiel,Buren,Gelderland,VBO,5.458359,51.967426
Kamillekamp,3,,,4024JS,Eck en Wiel,Buren,Gelderland,VBO,5.459189,51.967686
Kamillekamp,4,,,4024JS,Eck en Wiel,Buren,Gelderland,VBO,5.458447,51.967408
Kamillekamp,5,,,4024JS,Eck en Wiel,Buren,Gelderland,VBO,5.459145,51.967443
Kamillekamp,6,,,4024JS,Eck en Wiel,Buren,Gelderland,VBO,5.458519,51.967372
Kamillekamp,7,,,4024JS,Eck en Wiel,Buren,Gelderland,VBO,5.459116,51.967390
Kamillekamp,8,,,4024JS,Eck en Wiel,Buren,Gelderland,VBO,5.458606,51.967327
Kamillekamp,9,,,4024JS,Eck en Wiel,Buren,Gelderland,VBO,5.459130,51.967345
Kamillekamp,10,,,4024JS,Eck en Wiel,Buren,Gelderland,VBO,5.458694,51.967318
Kamillekamp,11,,,4024JS,Eck en Wiel,Buren,Gelderland,VBO,5.459159,51.967282
Kamillekamp,12,,,4024JS,Eck en Wiel,Buren,Gelderland,VBO,5.458766,51.967291
Kamillekamp,13,,,4024JS,Eck en Wiel,Buren,Gelderland,VBO,5.459290,51.967093
Kamillekamp,14,,,4024JS,Eck en Wiel,Buren,Gelderland,VBO,5.458606,51.967147
Kamillekamp,15,,,4024JS,Eck en Wiel,Buren,Gelderland,VBO,5.459188,51.967093
Kamillekamp,16,,,4024JS,Eck en Wiel,Buren,Gelderland,VBO,5.458577,51.967102
Kamillekamp,17,,,4024JS,Eck en Wiel,Buren,Gelderland,VBO,5.459086,51.967102
Kamillekamp,18,,,4024JS,Eck en Wiel,Buren,Gelderland,VBO,5.458548,51.967057
Kamillekamp,19,,,4024JS,Eck en Wiel,Buren,Gelderland,VBO,5.458999,51.966895
Kamillekamp,20,,,4024JS,Eck en Wiel,Buren,Gelderland,VBO,5.458490,51.967012
Kamillekamp,21,,,4024JS,Eck en Wiel,Buren,Gelderland,VBO,5.458853,51.966797
Kamillekamp,22,,,4024JS,Eck en Wiel,Buren,Gelderland,VBO,5.458213,51.967103
Kamillekamp,23,,,4024JS,Eck en Wiel,Buren,Gelderland,VBO,5.458824,51.966752
Kamillekamp,24,,,4024JS,Eck en Wiel,Buren,Gelderland,VBO,5.458126,51.967121
Kamillekamp,25,a,,4024JS,Eck en Wiel,Buren,Gelderland,VBO,5.458678,51.966599
Kamillekamp,25,,,4024JS,Eck en Wiel,Buren,Gelderland,VBO,5.458707,51.966644
Kamillekamp,26,,,4024JS,Eck en Wiel,Buren,Gelderland,VBO,5.457980,51.967148
Kamillekamp,27,,,4024JS,Eck en Wiel,Buren,Gelderland,VBO,5.458285,51.966725
Kamillekamp,28,,,4024JS,Eck en Wiel,Buren,Gelderland,VBO,5.457893,51.967175
Kamillekamp,29,,,4024JS,Eck en Wiel,Buren,Gelderland,VBO,5.458125,51.966743
Kamillekamp,30,,,4024JS,Eck en Wiel,Buren,Gelderland,VBO,5.457617,51.967202
Kamillekamp,31,,,4024JS,Eck en Wiel,Buren,Gelderland,VBO,5.457951,51.966779
Kamillekamp,32,,,4024JS,Eck en Wiel,Buren,Gelderland,VBO,5.457442,51.967247
Kamillekamp,33,,,4024JS,Eck en Wiel,Buren,Gelderland,VBO,5.457820,51.966833
Kamillekamp,34,,,4024JS,Eck en Wiel,Buren,Gelderland,VBO,5.457370,51.967265
Kamillekamp,35,,,4024JS,Eck en Wiel,Buren,Gelderland,VBO,5.457645,51.966869
Kamillekamp,36,,,4024JS,Eck en Wiel,Buren,Gelderland,VBO,5.457210,51.967301
Kamillekamp,37,,,4024JS,Eck en Wiel,Buren,Gelderland,VBO,5.457500,51.966887
Kamillekamp,38,,,4024JS,Eck en Wiel,Buren,Gelderland,VBO,5.457137,51.967319
Kamillekamp,39,,,4024JS,Eck en Wiel,Buren,Gelderland,VBO,5.457347,51.966960
Kamillekamp,40,,,4024JS,Eck en Wiel,Buren,Gelderland,VBO,5.456846,51.967391
Kamillekamp,41,,,4024JS,Eck en Wiel,Buren,Gelderland,VBO,5.457209,51.966977
Kamillekamp,42,,,4024JS,Eck en Wiel,Buren,Gelderland,VBO,5.456875,51.967445
Kamillekamp,43,,,4024JS,Eck en Wiel,Buren,Gelderland,VBO,5.456947,51.967022
Kamillekamp,44,,,4024JS,Eck en Wiel,Buren,Gelderland,VBO,5.456890,51.967517
Kamillekamp,46,,,4024JS,Eck en Wiel,Buren,Gelderland,VBO,5.456933,51.967571
Kamillekamp,47,,,4024JS,Eck en Wiel,Buren,Gelderland,VBO,5.456423,51.967122
Kamillekamp,48,,,4024JS,Eck en Wiel,Buren,Gelderland,VBO,5.456963,51.967607
Kamillekamp,49,,,4024JS,Eck en Wiel,Buren,Gelderland,VBO,5.456467,51.967274
Kamillekamp,51,,,4024JS,Eck en Wiel,Buren,Gelderland,VBO,5.456104,51.967319
Kamillekamp,53,,,4024JS,Eck en Wiel,Buren,Gelderland,VBO,5.455929,51.967391
Kamillekamp,55,,,4024JS,Eck en Wiel,Buren,Gelderland,VBO,5.455696,51.967482
Kamillekamp,57,,,4024JS,Eck en Wiel,Buren,Gelderland,VBO,5.456119,51.967670
Kamillekamp,59,,,4024JS,Eck en Wiel,Buren,Gelderland,VBO,5.456482,51.967571
Driesweg,1,,,4024JT,Eck en Wiel,Buren,Gelderland,VBO,5.445542,51.958076
Driesweg,2,,,4024JT,Eck en Wiel,Buren,Gelderland,VBO,5.445528,51.958580
