openbareruimtenaam,huisnummer,huisletter,huisnummertoevoeging,postcode,woonplaatsnaam,gemeentenaam,provincienaam,typeadresseerbaarobject,longitude,latitude
Woudstraat,1,,,4031JA,Ingen,Buren,Gelderland,VBO,5.488478,51.959845
Woudstraat,2,,,4031JA,Ingen,Buren,Gelderland,VBO,5.489015,51.959422
Woudstraat,3,,,4031JA,Ingen,Buren,Gelderland,VBO,5.488870,51.959683
Woudstraat,4,,,4031JA,Ingen,Buren,Gelderland,VBO,5.489466,51.959188
Woudstraat,5,a,,4031JA,Ingen,Buren,Gelderland,VBO,5.489249,51.959637
Woudstraat,5,b,,4031JA,Ingen,Buren,Gelderland,VBO,5.489350,51.959628
Woudstraat,5,,,4031JA,Ingen,Buren,Gelderland,VBO,5.488972,51.959665
Woudstraat,7,,,4031JA,Ingen,Buren,Gelderland,VBO,5.489510,51.959619
Woudstraat,8,,,4031JA,Ingen,Buren,Gelderland,VBO,5.492361,51.959113
Woudstraat,9,a,,4031JA,Ingen,Buren,Gelderland,VBO,5.489714,51.959601
Woudstraat,9,,,4031JA,Ingen,Buren,Gelderland,VBO,5.489641,51.959601
Woudstraat,11,,,4031JA,Ingen,Buren,Gelderland,VBO,5.490223,51.959565
Woudstraat,13,,,4031JA,Ingen,Buren,Gelderland,VBO,5.490876,51.959556
Woudstraat,15,,,4031JA,Ingen,Buren,Gelderland,VBO,5.492780,51.957971
Woudstraat,17,,,4031JA,Ingen,Buren,Gelderland,VBO,5.492869,51.958637
Het Woud,1,,,4031JB,Ingen,Buren,Gelderland,VBO,5.489484,51.960725
Het Woud,2,,,4031JB,Ingen,Buren,Gelderland,VBO,5.489323,51.960509
Het Woud,3,,,4031JB,Ingen,Buren,Gelderland,VBO,5.489586,51.960716
Het Woud,4,,,4031JB,Ingen,Buren,Gelderland,VBO,5.489425,51.960500
Het Woud,5,,,4031JB,Ingen,Buren,Gelderland,VBO,5.489673,51.960698
Het Woud,6,,,4031JB,Ingen,Buren,Gelderland,VBO,5.489582,51.960467
Het Woud,7,,,4031JB,Ingen,Buren,Gelderland,VBO,5.489760,51.960689
Het Woud,8,,,4031JB,Ingen,Buren,Gelderland,VBO,5.489847,51.960482
Het Woud,9,,,4031JB,Ingen,Buren,Gelderland,VBO,5.489891,51.960670
Het Woud,10,,,4031JB,Ingen,Buren,Gelderland,VBO,5.489812,51.960412
Het Woud,11,,,4031JB,Ingen,Buren,Gelderland,VBO,5.489993,51.960661
Het Woud,12,,,4031JB,Ingen,Buren,Gelderland,VBO,5.489802,51.960345
Het Woud,13,,,4031JB,Ingen,Buren,Gelderland,VBO,5.490080,51.960652
Het Woud,14,,,4031JB,Ingen,Buren,Gelderland,VBO,5.489761,51.960262
Het Woud,15,,,4031JB,Ingen,Buren,Gelderland,VBO,5.490304,51.960609
Het Woud,16,,,4031JB,Ingen,Buren,Gelderland,VBO,5.489744,51.960204
Het Woud,17,,,4031JB,Ingen,Buren,Gelderland,VBO,5.490390,51.960600
Het Woud,18,,,4031JB,Ingen,Buren,Gelderland,VBO,5.489712,51.960118
Het Woud,19,,,4031JB,Ingen,Buren,Gelderland,VBO,5.490473,51.960591
Het Woud,20,,,4031JB,Ingen,Buren,Gelderland,VBO,5.489657,51.960042
Het Woud,21,,,4031JB,Ingen,Buren,Gelderland,VBO,5.490557,51.960609
Het Woud,22,,,4031JB,Ingen,Buren,Gelderland,VBO,5.489628,51.959979
Het Woud,23,,,4031JB,Ingen,Buren,Gelderland,VBO,5.490628,51.960599
Het Woud,24,,,4031JB,Ingen,Buren,Gelderland,VBO,5.489634,51.959927
Het Woud,25,,,4031JB,Ingen,Buren,Gelderland,VBO,5.490709,51.960596
Het Woud,26,,,4031JB,Ingen,Buren,Gelderland,VBO,5.489177,51.960141
Het Woud,27,,,4031JB,Ingen,Buren,Gelderland,VBO,5.490792,51.960587
Het Woud,29,,,4031JB,Ingen,Buren,Gelderland,VBO,5.490723,51.960352
Het Woud,31,,,4031JB,Ingen,Buren,Gelderland,VBO,5.490644,51.960354
Het Woud,33,,,4031JB,Ingen,Buren,Gelderland,VBO,5.490559,51.960354
Het Woud,35,,,4031JB,Ingen,Buren,Gelderland,VBO,5.490493,51.960394
Het Woud,37,,,4031JB,Ingen,Buren,Gelderland,VBO,5.490401,51.960398
Het Woud,39,,,4031JB,Ingen,Buren,Gelderland,VBO,5.490319,51.960400
Het Woud,41,,,4031JB,Ingen,Buren,Gelderland,VBO,5.490231,51.960403
Weverstraat,1,,,4031JC,Ingen,Buren,Gelderland,VBO,5.488637,51.959458
Weverstraat,2,,,4031JC,Ingen,Buren,Gelderland,VBO,5.487720,51.959198
Weverstraat,3,,,4031JC,Ingen,Buren,Gelderland,VBO,5.488448,51.959288
Weverstraat,4,,,4031JC,Ingen,Buren,Gelderland,VBO,5.487603,51.958776
Weverstraat,5,,,4031JC,Ingen,Buren,Gelderland,VBO,5.488389,51.959117
Weverstraat,6,,,4031JC,Ingen,Buren,Gelderland,VBO,5.487471,51.958659
Weverstraat,7,,,4031JC,Ingen,Buren,Gelderland,VBO,5.488360,51.959054
Weverstraat,9,,,4031JC,Ingen,Buren,Gelderland,VBO,5.488272,51.958739
Weverstraat,10,,,4031JC,Ingen,Buren,Gelderland,VBO,5.487369,51.958506
Weverstraat,11,,,4031JC,Ingen,Buren,Gelderland,VBO,5.488242,51.958425
Weverstraat,12,,,4031JC,Ingen,Buren,Gelderland,VBO,5.487296,51.958363
Fruithof,1,,,4031JD,Ingen,Buren,Gelderland,VBO,5.483992,51.957673
Fruithof,3,,,4031JD,Ingen,Buren,Gelderland,VBO,5.484065,51.957817
Fruithof,5,,,4031JD,Ingen,Buren,Gelderland,VBO,5.484153,51.957961
Fruithof,7,,,4031JD,Ingen,Buren,Gelderland,VBO,5.484197,51.958177
Fruithof,9,,,4031JD,Ingen,Buren,Gelderland,VBO,5.484488,51.958212
Fruithof,11,,,4031JD,Ingen,Buren,Gelderland,VBO,5.484735,51.958230
Fruithof,13,,,4031JD,Ingen,Buren,Gelderland,VBO,5.485187,51.958284
Fruithof,15,,,4031JD,Ingen,Buren,Gelderland,VBO,5.485186,51.958230
Fruithof,17,,,4031JD,Ingen,Buren,Gelderland,VBO,5.485434,51.958131
Fruithof,19,,,4031JD,Ingen,Buren,Gelderland,VBO,5.485521,51.958131
Fruithof,21,,,4031JD,Ingen,Buren,Gelderland,VBO,5.485623,51.958112
Fruithof,23,,,4031JD,Ingen,Buren,Gelderland,VBO,5.485695,51.958085
Fruithof,25,,,4031JD,Ingen,Buren,Gelderland,VBO,5.485797,51.958076
Fruithof,27,,,4031JD,Ingen,Buren,Gelderland,VBO,5.486059,51.958247
Fruithof,29,,,4031JD,Ingen,Buren,Gelderland,VBO,5.486074,51.958301
Fruithof,31,,,4031JD,Ingen,Buren,Gelderland,VBO,5.486103,51.958346
Fruithof,33,,,4031JD,Ingen,Buren,Gelderland,VBO,5.486132,51.958400
Fruithof,35,,,4031JD,Ingen,Buren,Gelderland,VBO,5.486147,51.958436
Fruithof,37,,,4031JD,Ingen,Buren,Gelderland,VBO,5.486162,51.958472
Fruithof,39,,,4031JD,Ingen,Buren,Gelderland,VBO,5.485840,51.957735
Fruithof,41,,,4031JD,Ingen,Buren,Gelderland,VBO,5.485796,51.957663
Fruithof,43,,,4031JD,Ingen,Buren,Gelderland,VBO,5.485694,51.957573
Fruithof,45,,,4031JD,Ingen,Buren,Gelderland,VBO,5.485665,51.957528
Fruithof,47,,,4031JD,Ingen,Buren,Gelderland,VBO,5.485592,51.957411
Woudsepad,2,,,4031JD,Ingen,Buren,Gelderland,VBO,5.487779,51.959486
De Brei,1,a,,4031JE,Ingen,Buren,Gelderland,VBO,5.487527,51.957500
De Brei,1,b,,4031JE,Ingen,Buren,Gelderland,VBO,5.486229,51.956009
De Brei,1,c,,4031JE,Ingen,Buren,Gelderland,VBO,5.485937,51.955631
De Brei,1,d,,4031JE,Ingen,Buren,Gelderland,VBO,5.486008,51.954670
De Brei,1,,,4031JE,Ingen,Buren,Gelderland,VBO,5.487469,51.957446
De Brei,2,a,,4031JE,Ingen,Buren,Gelderland,VBO,5.486727,51.957668
De Brei,2,,,4031JE,Ingen,Buren,Gelderland,VBO,5.486765,51.957603
De Brei,3,a,,4031JE,Ingen,Buren,Gelderland,VBO,5.486053,51.954194
De Brei,3,,,4031JE,Ingen,Buren,Gelderland,VBO,5.486007,51.954238
De Brei,4,,,4031JE,Ingen,Buren,Gelderland,VBO,5.486654,51.957438
De Brei,5,,,4031JE,Ingen,Buren,Gelderland,VBO,5.486136,51.953285
De Brei,6,,,4031JE,Ingen,Buren,Gelderland,VBO,5.485108,51.955524
De Brei,7,b,,4031JE,Ingen,Buren,Gelderland,VBO,5.486802,51.951883
De Brei,7,,,4031JE,Ingen,Buren,Gelderland,VBO,5.486121,51.953231
De Brei,8,,,4031JE,Ingen,Buren,Gelderland,VBO,5.485207,51.954383
De Brei,9,,,4031JE,Ingen,Buren,Gelderland,VBO,5.487668,51.951821
De Brei,10,,,4031JE,Ingen,Buren,Gelderland,VBO,5.485237,51.954536
De Brei,11,,,4031JE,Ingen,Buren,Gelderland,VBO,5.487293,51.951125
De Brei,12,a,,4031JE,Ingen,Buren,Gelderland,VBO,5.484797,51.953197
De Brei,12,,,4031JE,Ingen,Buren,Gelderland,VBO,5.485466,51.953326
De Brei,13,,,4031JE,Ingen,Buren,Gelderland,VBO,5.487510,51.949986
De Brei,14,,,4031JE,Ingen,Buren,Gelderland,VBO,5.485640,51.952558
Culekampseweg,1,a,,4031JG,Ingen,Buren,Gelderland,VBO,5.488131,51.958028
Culekampseweg,1,,,4031JG,Ingen,Buren,Gelderland,VBO,5.487921,51.957913
Culekampseweg,3,a,,4031JG,Ingen,Buren,Gelderland,VBO,5.490262,51.957443
Culekampseweg,3,,,4031JG,Ingen,Buren,Gelderland,VBO,5.489637,51.957606
Culekampseweg,4,,,4031JG,Ingen,Buren,Gelderland,VBO,5.491413,51.951915
Culekampseweg,5,,,4031JG,Ingen,Buren,Gelderland,VBO,5.490828,51.956967
Gang,2,,,4031JH,Ingen,Buren,Gelderland,VBO,5.485562,51.957070
Gang,3,,,4031JH,Ingen,Buren,Gelderland,VBO,5.483482,51.957359
Gang,5,,,4031JH,Ingen,Buren,Gelderland,VBO,5.483380,51.957225
Gang,6,,,4031JH,Ingen,Buren,Gelderland,VBO,5.484850,51.957241
Gang,7,,,4031JH,Ingen,Buren,Gelderland,VBO,5.484209,51.957143
Gang,8,,,4031JH,Ingen,Buren,Gelderland,VBO,5.484777,51.957259
Gang,9,,,4031JH,Ingen,Buren,Gelderland,VBO,5.484107,51.957017
Gang,10,,,4031JH,Ingen,Buren,Gelderland,VBO,5.484690,51.957277
Gang,11,,,4031JH,Ingen,Buren,Gelderland,VBO,5.484005,51.956864
Gang,12,,,4031JH,Ingen,Buren,Gelderland,VBO,5.484632,51.957313
Gang,13,,,4031JH,Ingen,Buren,Gelderland,VBO,5.484412,51.956684
Gang,14,,,4031JH,Ingen,Buren,Gelderland,VBO,5.484428,51.957421
Gang,15,,,4031JH,Ingen,Buren,Gelderland,VBO,5.484587,51.956828
Gang,16,,,4031JH,Ingen,Buren,Gelderland,VBO,5.484399,51.957484
Gang,17,,,4031JH,Ingen,Buren,Gelderland,VBO,5.484733,51.956963
Ooievaar,2,,,4031JJ,Ingen,Buren,Gelderland,VBO,5.485926,51.949381
Achterbrei,1,,,4031JK,Ingen,Buren,Gelderland,VBO,5.480775,51.956651
Achterbrei,3,,,4031JK,Ingen,Buren,Gelderland,VBO,5.482187,51.956857
Achterbrei,5,,,4031JK,Ingen,Buren,Gelderland,VBO,5.482882,51.955346
Achterbrei,6,,,4031JK,Ingen,Buren,Gelderland,VBO,5.481602,51.955545
De Brenk,1,a,,4031JL,Ingen,Buren,Gelderland,VBO,5.477413,51.956196
De Brenk,1,,,4031JL,Ingen,Buren,Gelderland,VBO,5.478141,51.956087
De Brenk,2,a,,4031JL,Ingen,Buren,Gelderland,VBO,5.479117,51.956670
De Brenk,2,,,4031JL,Ingen,Buren,Gelderland,VBO,5.479204,51.956680
De Brenk,3,,,4031JL,Ingen,Buren,Gelderland,VBO,5.474982,51.955406
De Brenk,4,,,4031JL,Ingen,Buren,Gelderland,VBO,5.478244,51.956941
De Brenk,6,,,4031JL,Ingen,Buren,Gelderland,VBO,5.477589,51.956906
De Brenk,8,a,,4031JL,Ingen,Buren,Gelderland,VBO,5.476034,51.956345
De Brenk,8,,,4031JL,Ingen,Buren,Gelderland,VBO,5.477385,51.956699
De Brenk,10,,,4031JL,Ingen,Buren,Gelderland,VBO,5.475550,51.956117
Provincialeweg,8,,,4031JM,Ingen,Buren,Gelderland,VBO,5.472116,51.955121
Provincialeweg,41,,,4031JM,Ingen,Buren,Gelderland,VBO,5.483008,51.953423
Provincialeweg,42,,,4031JM,Ingen,Buren,Gelderland,VBO,5.480540,51.955834
Provincialeweg,43,,,4031JM,Ingen,Buren,Gelderland,VBO,5.482514,51.953648
Provincialeweg,44,,,4031JM,Ingen,Buren,Gelderland,VBO,5.473935,51.955183
Provincialeweg,45,,,4031JM,Ingen,Buren,Gelderland,VBO,5.477891,51.954748
Provincialeweg,46,,,4031JM,Ingen,Buren,Gelderland,VBO,5.473295,51.955399
Provincialeweg,47,,,4031JM,Ingen,Buren,Gelderland,VBO,5.468593,51.953856
Provincialeweg,48,,,4031JM,Ingen,Buren,Gelderland,VBO,5.473062,51.955336
Provincialeweg,49,a,,4031JM,Ingen,Buren,Gelderland,VBO,5.454565,51.950485
Provincialeweg,49,,,4031JM,Ingen,Buren,Gelderland,VBO,5.453852,51.950459
Provincialeweg,50,,,4031JM,Ingen,Buren,Gelderland,VBO,5.466615,51.954163
Provincialeweg,51,,,4031JM,Ingen,Buren,Gelderland,VBO,5.450654,51.951656
Provincialeweg,52,,,4031JM,Ingen,Buren,Gelderland,VBO,5.462159,51.953425
Provincialeweg,54,,,4031JM,Ingen,Buren,Gelderland,VBO,5.455149,51.952247
De Steeg,1,,,4031JN,Ingen,Buren,Gelderland,VBO,5.473031,51.954518
De Steeg,3,,,4031JN,Ingen,Buren,Gelderland,VBO,5.474060,51.952405
De Steeg,5,,,4031JN,Ingen,Buren,Gelderland,VBO,5.474596,51.951389
De Steeg,7,,,4031JN,Ingen,Buren,Gelderland,VBO,5.454908,51.946674
De Steeg,9,,,4031JN,Ingen,Buren,Gelderland,VBO,5.454297,51.946567
P. van Westrhenenweg,2,,,4031JP,Ingen,Buren,Gelderland,VBO,5.481852,51.970816
P. van Westrhenenweg,16,,,4031JP,Ingen,Buren,Gelderland,VBO,5.473715,51.974940
Nieuwe Steeg,2,,,4031JR,Ingen,Buren,Gelderland,VBO,5.474546,51.947767
Molenstraat,1,a,,4031JS,Ingen,Buren,Gelderland,VBO,5.483838,51.960370
Molenstraat,1,b,,4031JS,Ingen,Buren,Gelderland,VBO,5.483678,51.960235
Molenstraat,1,,,4031JS,Ingen,Buren,Gelderland,VBO,5.483911,51.960415
Molenstraat,3,,,4031JS,Ingen,Buren,Gelderland,VBO,5.483677,51.959903
Molenstraat,5,,,4031JS,Ingen,Buren,Gelderland,VBO,5.483298,51.959642
Molenstraat,6,,,4031JS,Ingen,Buren,Gelderland,VBO,5.483343,51.960406
Molenstraat,7,,,4031JS,Ingen,Buren,Gelderland,VBO,5.483225,51.959283
Molenstraat,8,,,4031JS,Ingen,Buren,Gelderland,VBO,5.483337,51.960336
Molenstraat,10,a,,4031JS,Ingen,Buren,Gelderland,VBO,5.483177,51.960250
Molenstraat,10,,,4031JS,Ingen,Buren,Gelderland,VBO,5.483241,51.960254
Molenstraat,11,,,4031JS,Ingen,Buren,Gelderland,VBO,5.482962,51.958780
Molenstraat,12,,,4031JS,Ingen,Buren,Gelderland,VBO,5.483197,51.960128
Molenstraat,13,,,4031JS,Ingen,Buren,Gelderland,VBO,5.482845,51.958645
Molenstraat,14,,,4031JS,Ingen,Buren,Gelderland,VBO,5.483154,51.960065
Molenstraat,15,,,4031JS,Ingen,Buren,Gelderland,VBO,5.482786,51.958474
Molenstraat,16,,,4031JS,Ingen,Buren,Gelderland,VBO,5.483008,51.959849
Molenstraat,17,,,4031JS,Ingen,Buren,Gelderland,VBO,5.482684,51.958340
Molenstraat,18,,,4031JS,Ingen,Buren,Gelderland,VBO,5.483007,51.959706
Molenstraat,19,,,4031JS,Ingen,Buren,Gelderland,VBO,5.481650,51.957684
Molenstraat,20,a,,4031JS,Ingen,Buren,Gelderland,VBO,5.482497,51.959104
Molenstraat,20,c,,4031JS,Ingen,Buren,Gelderland,VBO,5.482336,51.958789
Molenstraat,20,,,4031JS,Ingen,Buren,Gelderland,VBO,5.482614,51.959661
Molenstraat,22,a,,4031JS,Ingen,Buren,Gelderland,VBO,5.481490,51.958438
Molenstraat,22,,,4031JS,Ingen,Buren,Gelderland,VBO,5.481884,51.958394
Molenstraat,24,,,4031JS,Ingen,Buren,Gelderland,VBO,5.480369,51.957344
Molenstraat,26,,,4031JS,Ingen,Buren,Gelderland,VBO,5.477664,51.957831
Molenstraat,28,,,4031JS,Ingen,Buren,Gelderland,VBO,5.477606,51.957732
Molenstraat,30,,,4031JS,Ingen,Buren,Gelderland,VBO,5.477572,51.957626
Fruithof,2,,,4031JT,Ingen,Buren,Gelderland,VBO,5.484487,51.957628
Fruithof,4,,,4031JT,Ingen,Buren,Gelderland,VBO,5.484516,51.957682
Fruithof,6,,,4031JT,Ingen,Buren,Gelderland,VBO,5.484560,51.957808
Fruithof,8,,,4031JT,Ingen,Buren,Gelderland,VBO,5.484589,51.957862
Fruithof,10,,,4031JT,Ingen,Buren,Gelderland,VBO,5.484837,51.957915
Fruithof,12,,,4031JT,Ingen,Buren,Gelderland,VBO,5.484924,51.957915
Fruithof,14,,,4031JT,Ingen,Buren,Gelderland,VBO,5.485200,51.957924
Fruithof,16,,,4031JT,Ingen,Buren,Gelderland,VBO,5.485288,51.957906
Fruithof,18,,,4031JT,Ingen,Buren,Gelderland,VBO,5.485360,51.957888
Fruithof,20,,,4031JT,Ingen,Buren,Gelderland,VBO,5.485433,51.957870
Fruithof,22,,,4031JT,Ingen,Buren,Gelderland,VBO,5.485287,51.957690
Fruithof,24,,,4031JT,Ingen,Buren,Gelderland,VBO,5.485258,51.957636
Fruithof,26,,,4031JT,Ingen,Buren,Gelderland,VBO,5.485200,51.957583
Fruithof,28,,,4031JT,Ingen,Buren,Gelderland,VBO,5.485170,51.957529
Molenhof,1,,,4031JT,Ingen,Buren,Gelderland,VBO,5.483632,51.959148
Molenhof,3,,,4031JT,Ingen,Buren,Gelderland,VBO,5.483661,51.959211
Molenhof,5,,,4031JT,Ingen,Buren,Gelderland,VBO,5.483676,51.959274
Molenhof,7,,,4031JT,Ingen,Buren,Gelderland,VBO,5.483705,51.959327
Molenhof,9,,,4031JT,Ingen,Buren,Gelderland,VBO,5.484039,51.959165
Molenhof,11,,,4031JT,Ingen,Buren,Gelderland,VBO,5.484141,51.959147
Molenhof,13,,,4031JT,Ingen,Buren,Gelderland,VBO,5.484243,51.959129
Molenhof,15,,,4031JT,Ingen,Buren,Gelderland,VBO,5.484315,51.959120
Molenhof,17,,,4031JT,Ingen,Buren,Gelderland,VBO,5.484490,51.959102
Molenhof,19,,,4031JT,Ingen,Buren,Gelderland,VBO,5.484592,51.959093
Molenhof,21,,,4031JT,Ingen,Buren,Gelderland,VBO,5.484679,51.959066
Molenhof,23,,,4031JT,Ingen,Buren,Gelderland,VBO,5.484766,51.959057
Molenhof,25,,,4031JT,Ingen,Buren,Gelderland,VBO,5.485262,51.959443
Molenhof,27,,,4031JT,Ingen,Buren,Gelderland,VBO,5.485247,51.959380
Molenhof,29,,,4031JT,Ingen,Buren,Gelderland,VBO,5.485247,51.959353
Molenhof,31,,,4031JT,Ingen,Buren,Gelderland,VBO,5.485203,51.959290
Molenhof,33,,,4031JT,Ingen,Buren,Gelderland,VBO,5.485159,51.959173
Molenhof,35,,,4031JT,Ingen,Buren,Gelderland,VBO,5.485130,51.959129
Molenhof,37,,,4031JT,Ingen,Buren,Gelderland,VBO,5.485116,51.959084
Molenhof,39,,,4031JT,Ingen,Buren,Gelderland,VBO,5.485086,51.959012
Molenhof,2,a,,4031JV,Ingen,Buren,Gelderland,VBO,5.483340,51.958941
Molenhof,2,,,4031JV,Ingen,Buren,Gelderland,VBO,5.483049,51.958986
Molenhof,4,,,4031JV,Ingen,Buren,Gelderland,VBO,5.483457,51.958932
Molenhof,6,,,4031JV,Ingen,Buren,Gelderland,VBO,5.483544,51.958914
Molenhof,8,,,4031JV,Ingen,Buren,Gelderland,VBO,5.483617,51.958896
Molenhof,10,,,4031JV,Ingen,Buren,Gelderland,VBO,5.483951,51.958752
Molenhof,12,,,4031JV,Ingen,Buren,Gelderland,VBO,5.483980,51.958806
Molenhof,14,,,4031JV,Ingen,Buren,Gelderland,VBO,5.483995,51.958851
Molenhof,16,,,4031JV,Ingen,Buren,Gelderland,VBO,5.484024,51.958914
Molenhof,18,,,4031JV,Ingen,Buren,Gelderland,VBO,5.484285,51.958725
Molenhof,20,,,4031JV,Ingen,Buren,Gelderland,VBO,5.484358,51.958725
Molenhof,22,,,4031JV,Ingen,Buren,Gelderland,VBO,5.484475,51.958725
Molenhof,24,,,4031JV,Ingen,Buren,Gelderland,VBO,5.484562,51.958716
Molenhof,26,,,4031JV,Ingen,Buren,Gelderland,VBO,5.484664,51.958698
Molenhof,28,,,4031JV,Ingen,Buren,Gelderland,VBO,5.485158,51.958580
Molenhof,30,,,4031JV,Ingen,Buren,Gelderland,VBO,5.485144,51.958643
Molenhof,32,,,4031JV,Ingen,Buren,Gelderland,VBO,5.485144,51.958697
Molenhof,34,,,4031JV,Ingen,Buren,Gelderland,VBO,5.485144,51.958751
Molenhof,36,,,4031JV,Ingen,Buren,Gelderland,VBO,5.485129,51.958805
Molenhof,38,,,4031JV,Ingen,Buren,Gelderland,VBO,5.485130,51.958868
Molenhof,40,,,4031JV,Ingen,Buren,Gelderland,VBO,5.485130,51.958922
Bulksestraat,1,a,,4031JW,Ingen,Buren,Gelderland,VBO,5.475119,51.961268
Bulksestraat,1,,,4031JW,Ingen,Buren,Gelderland,VBO,5.476405,51.961060
Bulksestraat,3,,,4031JW,Ingen,Buren,Gelderland,VBO,5.474828,51.960970
Bulksestraat,4,a,,4031JW,Ingen,Buren,Gelderland,VBO,5.475330,51.961896
Bulksestraat,4,,101,4031JW,Ingen,Buren,Gelderland,VBO,5.480497,51.963981
Bulksestraat,4,,102,4031JW,Ingen,Buren,Gelderland,VBO,5.480616,51.964103
Bulksestraat,4,,103,4031JW,Ingen,Buren,Gelderland,VBO,5.480751,51.964238
Bulksestraat,4,,104,4031JW,Ingen,Buren,Gelderland,VBO,5.480967,51.964423
Bulksestraat,4,,105,4031JW,Ingen,Buren,Gelderland,VBO,5.481136,51.964701
Bulksestraat,4,,106,4031JW,Ingen,Buren,Gelderland,VBO,5.481299,51.964704
Bulksestraat,4,,107,4031JW,Ingen,Buren,Gelderland,VBO,5.481280,51.964786
Bulksestraat,4,,108,4031JW,Ingen,Buren,Gelderland,VBO,5.481124,51.964843
Bulksestraat,4,,109,4031JW,Ingen,Buren,Gelderland,VBO,5.481436,51.965045
Bulksestraat,4,,11,4031JW,Ingen,Buren,Gelderland,VBO,5.480178,51.962995
Bulksestraat,4,,110,4031JW,Ingen,Buren,Gelderland,VBO,5.481615,51.965066
Bulksestraat,4,,111,4031JW,Ingen,Buren,Gelderland,VBO,5.481675,51.965210
Bulksestraat,4,,112,4031JW,Ingen,Buren,Gelderland,VBO,5.481459,51.965183
Bulksestraat,4,,114,4031JW,Ingen,Buren,Gelderland,VBO,5.482130,51.965419
Bulksestraat,4,,115,4031JW,Ingen,Buren,Gelderland,VBO,5.482118,51.965561
Bulksestraat,4,,116,4031JW,Ingen,Buren,Gelderland,VBO,5.481885,51.965573
Bulksestraat,4,,117,4031JW,Ingen,Buren,Gelderland,VBO,5.481416,51.965702
Bulksestraat,4,,118,4031JW,Ingen,Buren,Gelderland,VBO,5.481408,51.965545
Bulksestraat,4,,119,4031JW,Ingen,Buren,Gelderland,VBO,5.481154,51.965536
Bulksestraat,4,,12,4031JW,Ingen,Buren,Gelderland,VBO,5.480184,51.963165
Bulksestraat,4,,121,4031JW,Ingen,Buren,Gelderland,VBO,5.480769,51.965565
Bulksestraat,4,,123,4031JW,Ingen,Buren,Gelderland,VBO,5.480523,51.965492
Bulksestraat,4,,125,4031JW,Ingen,Buren,Gelderland,VBO,5.480207,51.965479
Bulksestraat,4,,126,4031JW,Ingen,Buren,Gelderland,VBO,5.480151,51.965288
Bulksestraat,4,,128,4031JW,Ingen,Buren,Gelderland,VBO,5.479858,51.965389
Bulksestraat,4,,129,4031JW,Ingen,Buren,Gelderland,VBO,5.479945,51.965014
Bulksestraat,4,,13,4031JW,Ingen,Buren,Gelderland,VBO,5.479947,51.963163
Bulksestraat,4,,130,4031JW,Ingen,Buren,Gelderland,VBO,5.480149,51.965053
Bulksestraat,4,,131,4031JW,Ingen,Buren,Gelderland,VBO,5.480187,51.964856
Bulksestraat,4,,132,4031JW,Ingen,Buren,Gelderland,VBO,5.479900,51.964868
Bulksestraat,4,,133,4031JW,Ingen,Buren,Gelderland,VBO,5.480506,51.964921
Bulksestraat,4,,135,4031JW,Ingen,Buren,Gelderland,VBO,5.480722,51.964694
Bulksestraat,4,,136,4031JW,Ingen,Buren,Gelderland,VBO,5.480448,51.964717
Bulksestraat,4,,14,4031JW,Ingen,Buren,Gelderland,VBO,5.479724,51.963166
Bulksestraat,4,,152,4031JW,Ingen,Buren,Gelderland,VBO,5.479612,51.965352
Bulksestraat,4,,16,4031JW,Ingen,Buren,Gelderland,VBO,5.479458,51.963218
Bulksestraat,4,,17,4031JW,Ingen,Buren,Gelderland,VBO,5.478080,51.962199
Bulksestraat,4,,19,4031JW,Ingen,Buren,Gelderland,VBO,5.478778,51.963208
Bulksestraat,4,,23,4031JW,Ingen,Buren,Gelderland,VBO,5.478121,51.963117
Bulksestraat,4,,25,4031JW,Ingen,Buren,Gelderland,VBO,5.477753,51.963003
Bulksestraat,4,,45,4031JW,Ingen,Buren,Gelderland,VBO,5.481008,51.962423
Bulksestraat,4,,46,4031JW,Ingen,Buren,Gelderland,VBO,5.481129,51.962539
Bulksestraat,4,,47,4031JW,Ingen,Buren,Gelderland,VBO,5.481250,51.962619
Bulksestraat,4,,49,4031JW,Ingen,Buren,Gelderland,VBO,5.481449,51.962761
Bulksestraat,4,,52,4031JW,Ingen,Buren,Gelderland,VBO,5.481796,51.963055
Bulksestraat,4,,53,4031JW,Ingen,Buren,Gelderland,VBO,5.481918,51.963140
Bulksestraat,4,,55,4031JW,Ingen,Buren,Gelderland,VBO,5.482657,51.963729
Bulksestraat,4,,6,4031JW,Ingen,Buren,Gelderland,VBO,5.479836,51.962624
Bulksestraat,4,,65,4031JW,Ingen,Buren,Gelderland,VBO,5.481316,51.963318
Bulksestraat,4,,70,4031JW,Ingen,Buren,Gelderland,VBO,5.480279,51.962753
Bulksestraat,4,,76,4031JW,Ingen,Buren,Gelderland,VBO,5.480070,51.962127
Bulksestraat,4,,77,4031JW,Ingen,Buren,Gelderland,VBO,5.480312,51.962096
Bulksestraat,4,,8,4031JW,Ingen,Buren,Gelderland,VBO,5.480056,51.962806
Bulksestraat,4,,80,4031JW,Ingen,Buren,Gelderland,VBO,5.481099,51.962876
Bulksestraat,4,,82,4031JW,Ingen,Buren,Gelderland,VBO,5.477443,51.962304
Bulksestraat,4,,83,4031JW,Ingen,Buren,Gelderland,VBO,5.477468,51.962061
Bulksestraat,4,,,4031JW,Ingen,Buren,Gelderland,VBO,5.477856,51.961789
Bulksestraat,5,,,4031JW,Ingen,Buren,Gelderland,VBO,5.474223,51.961447
Bulksestraat,6,,,4031JW,Ingen,Buren,Gelderland,VBO,5.471184,51.962240
Bulksestraat,7,,,4031JW,Ingen,Buren,Gelderland,VBO,5.473656,51.961555
Bulksestraat,8,,,4031JW,Ingen,Buren,Gelderland,VBO,5.471053,51.962249
Bulksestraat,9,,,4031JW,Ingen,Buren,Gelderland,VBO,5.473307,51.961610
Bulksestraat,11,,,4031JW,Ingen,Buren,Gelderland,VBO,5.473190,51.961628
Bulksestraat,13,a,,4031JW,Ingen,Buren,Gelderland,VBO,5.472113,51.961807
Bulksestraat,13,,,4031JW,Ingen,Buren,Gelderland,VBO,5.472027,51.961790
Bulksestraat,15,,,4031JW,Ingen,Buren,Gelderland,VBO,5.468977,51.961964
Bulksestraat,17,,,4031JW,Ingen,Buren,Gelderland,VBO,5.468812,51.961882
Bulksestraat,18,,,4031JW,Ingen,Buren,Gelderland,VBO,5.467547,51.962701
Bulksestraat,20,,,4031JW,Ingen,Buren,Gelderland,VBO,5.467474,51.962701
De Akker,1,,,4031JX,Ingen,Buren,Gelderland,VBO,5.467620,51.962665
De Akker,5,,,4031JX,Ingen,Buren,Gelderland,VBO,5.468320,51.963635
De Akker,8,a,,4031JX,Ingen,Buren,Gelderland,VBO,5.469982,51.965333
De Akker,9,,,4031JX,Ingen,Buren,Gelderland,VBO,5.468845,51.964471
De Akker,10,a,,4031JX,Ingen,Buren,Gelderland,VBO,5.471258,51.966665
De Akker,10,,,4031JX,Ingen,Buren,Gelderland,VBO,5.471061,51.966663
De Akker,12,,,4031JX,Ingen,Buren,Gelderland,VBO,5.471674,51.967561
De Akker,13,,,4031JX,Ingen,Buren,Gelderland,VBO,5.469211,51.965280
De Akker,15,,,4031JX,Ingen,Buren,Gelderland,VBO,5.469619,51.965792
De Akker,17,,,4031JX,Ingen,Buren,Gelderland,VBO,5.470261,51.966672
De Akker,19,,,4031JX,Ingen,Buren,Gelderland,VBO,5.470319,51.966753
De Akker,21,a,,4031JX,Ingen,Buren,Gelderland,VBO,5.471136,51.967534
De Akker,21,,,4031JX,Ingen,Buren,Gelderland,VBO,5.470363,51.966807
De Akker,23,,,4031JX,Ingen,Buren,Gelderland,VBO,5.471501,51.968208
Kornehof,2,,,4031JZ,Ingen,Buren,Gelderland,VBO,5.483194,51.958591
Kornehof,4,,,4031JZ,Ingen,Buren,Gelderland,VBO,5.483252,51.958582
Kornehof,6,,,4031JZ,Ingen,Buren,Gelderland,VBO,5.483339,51.958564
Kornehof,8,,,4031JZ,Ingen,Buren,Gelderland,VBO,5.483412,51.958546
Kornehof,9,,,4031JZ,Ingen,Buren,Gelderland,VBO,5.483922,51.958617
Kornehof,10,,,4031JZ,Ingen,Buren,Gelderland,VBO,5.483485,51.958546
Kornehof,11,,,4031JZ,Ingen,Buren,Gelderland,VBO,5.483892,51.958545
Kornehof,12,,,4031JZ,Ingen,Buren,Gelderland,VBO,5.483368,51.958267
Kornehof,13,,,4031JZ,Ingen,Buren,Gelderland,VBO,5.483819,51.958366
Kornehof,14,,,4031JZ,Ingen,Buren,Gelderland,VBO,5.483266,51.958285
Kornehof,16,,,4031JZ,Ingen,Buren,Gelderland,VBO,5.483193,51.958285
Kornehof,17,,,4031JZ,Ingen,Buren,Gelderland,VBO,5.483512,51.957809
Kornehof,18,,,4031JZ,Ingen,Buren,Gelderland,VBO,5.483135,51.958321
Kornehof,19,,,4031JZ,Ingen,Buren,Gelderland,VBO,5.483381,51.957791
Kornehof,20,,,4031JZ,Ingen,Buren,Gelderland,VBO,5.483063,51.958339
Kornehof,21,,,4031JZ,Ingen,Buren,Gelderland,VBO,5.483236,51.957827
Kornehof,23,,,4031JZ,Ingen,Buren,Gelderland,VBO,5.483149,51.957881
Kornehof,25,,,4031JZ,Ingen,Buren,Gelderland,VBO,5.483033,51.957944
Kornehof,27,,,4031JZ,Ingen,Buren,Gelderland,VBO,5.482945,51.957971
Kornehof,29,,,4031JZ,Ingen,Buren,Gelderland,VBO,5.482800,51.958043
Kornehof,31,,,4031JZ,Ingen,Buren,Gelderland,VBO,5.482713,51.958079
Kornehof,33,,,4031JZ,Ingen,Buren,Gelderland,VBO,5.482538,51.958124
Kornehof,35,,,4031JZ,Ingen,Buren,Gelderland,VBO,5.482451,51.958160
Ganzert,1,a,,4031KA,Ingen,Buren,Gelderland,VBO,5.474358,51.963290
Ganzert,1,,,4031KA,Ingen,Buren,Gelderland,VBO,5.475027,51.963154
Ganzert,3,a,,4031KA,Ingen,Buren,Gelderland,VBO,5.475552,51.964107
Ganzert,3,,,4031KA,Ingen,Buren,Gelderland,VBO,5.475348,51.963882
Ganzert,5,,,4031KA,Ingen,Buren,Gelderland,VBO,5.475074,51.964835
Ganzert,7,,,4031KA,Ingen,Buren,Gelderland,VBO,5.474798,51.965015
Ganzert,9,,,4031KA,Ingen,Buren,Gelderland,VBO,5.474551,51.965249
Ganzert,11,,,4031KA,Ingen,Buren,Gelderland,VBO,5.474275,51.965609
Ganzert,13,,,4031KA,Ingen,Buren,Gelderland,VBO,5.473999,51.965869
Ganzert,15,,,4031KA,Ingen,Buren,Gelderland,VBO,5.473781,51.966148
Ganzert,17,,,4031KA,Ingen,Buren,Gelderland,VBO,5.473694,51.966292
Ganzert,19,,,4031KA,Ingen,Buren,Gelderland,VBO,5.473563,51.966400
Ganzert,21,,,4031KA,Ingen,Buren,Gelderland,VBO,5.473317,51.966706
Ganzert,23,,,4031KA,Ingen,Buren,Gelderland,VBO,5.473171,51.966895
Ganzert,25,,,4031KA,Ingen,Buren,Gelderland,VBO,5.473041,51.967075
Ganzert,27,,,4031KA,Ingen,Buren,Gelderland,VBO,5.472867,51.967290
Ganzert,29,,,4031KA,Ingen,Buren,Gelderland,VBO,5.472707,51.967479
Ganzert,31,,,4031KB,Ingen,Buren,Gelderland,VBO,5.472169,51.967758
Ganzert,33,,,4031KB,Ingen,Buren,Gelderland,VBO,5.472082,51.967938
Ganzert,35,,,4031KB,Ingen,Buren,Gelderland,VBO,5.471820,51.967831
Ganzert,43,,,4031KB,Ingen,Buren,Gelderland,VBO,5.471195,51.968262
Ganzert,45,,,4031KB,Ingen,Buren,Gelderland,VBO,5.470832,51.968757
Ganzert,2,,,4031KC,Ingen,Buren,Gelderland,VBO,5.476439,51.963396
Ganzert,4,a,,4031KC,Ingen,Buren,Gelderland,VBO,5.475438,51.965149
Ganzert,4,,,4031KC,Ingen,Buren,Gelderland,VBO,5.475830,51.964772
Ganzert,6,,,4031KC,Ingen,Buren,Gelderland,VBO,5.475586,51.966515
Ganzert,8,,,4031KC,Ingen,Buren,Gelderland,VBO,5.474960,51.966219
Ganzert,10,,,4031KC,Ingen,Buren,Gelderland,VBO,5.474610,51.966058
Ganzert,12,,,4031KC,Ingen,Buren,Gelderland,VBO,5.474523,51.966139
Ganzert,14,,,4031KC,Ingen,Buren,Gelderland,VBO,5.474277,51.966543
Ganzert,16,,,4031KC,Ingen,Buren,Gelderland,VBO,5.474336,51.966858
Ganzert,18,,,4031KC,Ingen,Buren,Gelderland,VBO,5.474161,51.967029
Ganzert,20,,,4031KC,Ingen,Buren,Gelderland,VBO,5.473958,51.967110
Ganzert,22,,,4031KC,Ingen,Buren,Gelderland,VBO,5.473711,51.967434
Ganzert,24,,,4031KC,Ingen,Buren,Gelderland,VBO,5.473493,51.967497
Ganzert,26,a,,4031KC,Ingen,Buren,Gelderland,VBO,5.473333,51.967722
Ganzert,26,,,4031KC,Ingen,Buren,Gelderland,VBO,5.473232,51.967973
Ganzert,28,,,4031KC,Ingen,Buren,Gelderland,VBO,5.473203,51.968387
Ganzert,30,,,4031KC,Ingen,Buren,Gelderland,VBO,5.473131,51.968791
Ganzert,32,,,4031KC,Ingen,Buren,Gelderland,VBO,5.472534,51.968450
Ganzert,34,,,4031KC,Ingen,Buren,Gelderland,VBO,5.472637,51.969160
Ganzert,36,a,,4031KC,Ingen,Buren,Gelderland,VBO,5.471977,51.968827
Ganzert,36,,,4031KC,Ingen,Buren,Gelderland,VBO,5.472959,51.969771
Ganzert,38,,,4031KC,Ingen,Buren,Gelderland,VBO,5.471903,51.968853
Ganzert,40,,,4031KC,Ingen,Buren,Gelderland,VBO,5.472114,51.969188
Ganzert,42,,,4031KC,Ingen,Buren,Gelderland,VBO,5.471691,51.968990
Ganzert,44,,,4031KC,Ingen,Buren,Gelderland,VBO,5.471532,51.969206
Ganzert,46,,,4031KC,Ingen,Buren,Gelderland,VBO,5.471343,51.969458
Essebroek,1,a,,4031KD,Ingen,Buren,Gelderland,VBO,5.477029,51.967728
Essebroek,1,b,,4031KD,Ingen,Buren,Gelderland,VBO,5.477248,51.968204
Essebroek,1,c,,4031KD,Ingen,Buren,Gelderland,VBO,5.477423,51.968384
Essebroek,1,,,4031KD,Ingen,Buren,Gelderland,VBO,5.476875,51.967280
Essebroek,2,,,4031KD,Ingen,Buren,Gelderland,VBO,5.479330,51.968445
Essebroek,3,,,4031KD,Ingen,Buren,Gelderland,VBO,5.477923,51.970702
Essebroek,4,,,4031KD,Ingen,Buren,Gelderland,VBO,5.478997,51.969164
Essebroek,5,,,4031KD,Ingen,Buren,Gelderland,VBO,5.478025,51.970828
Essebroek,6,a,,4031KD,Ingen,Buren,Gelderland,VBO,5.478911,51.969928
Essebroek,6,,,4031KD,Ingen,Buren,Gelderland,VBO,5.479085,51.969497
Essebroek,7,,,4031KD,Ingen,Buren,Gelderland,VBO,5.477997,51.971116
Essebroek,8,,,4031KD,Ingen,Buren,Gelderland,VBO,5.478868,51.970261
Essebroek,9,,,4031KD,Ingen,Buren,Gelderland,VBO,5.478215,51.971268
Essebroek,10,,,4031KD,Ingen,Buren,Gelderland,VBO,5.478781,51.970513
Essebroek,12,,,4031KD,Ingen,Buren,Gelderland,VBO,5.478898,51.970800
Essebroek,14,,,4031KD,Ingen,Buren,Gelderland,VBO,5.480353,51.970574
Luchtenburg,1,,,4031KE,Ingen,Buren,Gelderland,VBO,5.487175,51.969364
Luchtenburg,2,a,,4031KE,Ingen,Buren,Gelderland,VBO,5.487897,51.969610
Luchtenburg,2,,,4031KE,Ingen,Buren,Gelderland,VBO,5.488209,51.969489
Luchtenburg,4,,,4031KE,Ingen,Buren,Gelderland,VBO,5.487574,51.969708
Luchtenburg,6,,,4031KE,Ingen,Buren,Gelderland,VBO,5.486667,51.969877
Luchtenburg,8,a,,4031KE,Ingen,Buren,Gelderland,VBO,5.487529,51.971153
Luchtenburg,8,,,4031KE,Ingen,Buren,Gelderland,VBO,5.487470,51.971081
Luchtenburg,10,,,4031KE,Ingen,Buren,Gelderland,VBO,5.487310,51.971000
Luchtenburg,12,,,4031KE,Ingen,Buren,Gelderland,VBO,5.486916,51.970695
Luchtenburg,14,,,4031KE,Ingen,Buren,Gelderland,VBO,5.486639,51.970470
Luchtenburg,16,,,4031KE,Ingen,Buren,Gelderland,VBO,5.486552,51.970372
Luchtenburg,18,,,4031KE,Ingen,Buren,Gelderland,VBO,5.485532,51.969833
Luchtenburg,20,,,4031KE,Ingen,Buren,Gelderland,VBO,5.484688,51.969978
Luchtenburg,22,,,4031KE,Ingen,Buren,Gelderland,VBO,5.484776,51.969960
Luchtenburg,24,,,4031KE,Ingen,Buren,Gelderland,VBO,5.484993,51.969807
Luchtenburg,26,,,4031KE,Ingen,Buren,Gelderland,VBO,5.485604,51.969528
Luchtenburg,28,,,4031KE,Ingen,Buren,Gelderland,VBO,5.485269,51.969312
Luchtenburg,30,,,4031KE,Ingen,Buren,Gelderland,VBO,5.485006,51.969043
Luchtenburg,32,,,4031KE,Ingen,Buren,Gelderland,VBO,5.484977,51.968854
Luchtenburg,34,,,4031KE,Ingen,Buren,Gelderland,VBO,5.484744,51.968737
Luchtenburg,36,,,4031KG,Ingen,Buren,Gelderland,VBO,5.484350,51.968360
Luchtenburg,38,,,4031KG,Ingen,Buren,Gelderland,VBO,5.483826,51.968271
Luchtenburg,40,,,4031KG,Ingen,Buren,Gelderland,VBO,5.483520,51.968190
Luchtenburg,42,,,4031KG,Ingen,Buren,Gelderland,VBO,5.483360,51.968226
Luchtenburg,44,,,4031KG,Ingen,Buren,Gelderland,VBO,5.483142,51.968217
Luchtenburg,46,,,4031KG,Ingen,Buren,Gelderland,VBO,5.482691,51.968182
Luchtenburg,48,,,4031KG,Ingen,Buren,Gelderland,VBO,5.482399,51.968065
Luchtenburg,50,,,4031KG,Ingen,Buren,Gelderland,VBO,5.482341,51.967831
Luchtenburg,52,,,4031KG,Ingen,Buren,Gelderland,VBO,5.483534,51.968019
Luchtenburg,54,,,4031KG,Ingen,Buren,Gelderland,VBO,5.483418,51.967911
Luchtenburg,56,,,4031KG,Ingen,Buren,Gelderland,VBO,5.483738,51.967866
Luchtenburg,58,,,4031KG,Ingen,Buren,Gelderland,VBO,5.483636,51.967678
Luchtenburg,60,,,4031KG,Ingen,Buren,Gelderland,VBO,5.482280,51.966573
Luchtenburg,62,,,4031KG,Ingen,Buren,Gelderland,VBO,5.482309,51.966483
Luchtenburg,64,,,4031KG,Ingen,Buren,Gelderland,VBO,5.482119,51.966358
Luchtenburg,66,,,4031KG,Ingen,Buren,Gelderland,VBO,5.482148,51.966250
Luchtenburg,68,,,4031KG,Ingen,Buren,Gelderland,VBO,5.481959,51.966097
Luchtenburg,70,,,4031KG,Ingen,Buren,Gelderland,VBO,5.482727,51.966250
Winjewaweg,1,,,4031KH,Ingen,Buren,Gelderland,VBO,5.485100,51.965250
Winjewaweg,2,,,4031KH,Ingen,Buren,Gelderland,VBO,5.487196,51.965437
Winjewaweg,3,a,,4031KH,Ingen,Buren,Gelderland,VBO,5.484474,51.965297
Winjewaweg,3,,,4031KH,Ingen,Buren,Gelderland,VBO,5.484460,51.965394
Winjewaweg,4,,,4031KH,Ingen,Buren,Gelderland,VBO,5.486294,51.965572
Winjewaweg,6,,,4031KH,Ingen,Buren,Gelderland,VBO,5.485654,51.965707
Rijnstraat,1,a,,4031KJ,Ingen,Buren,Gelderland,VBO,5.488176,51.961355
Rijnstraat,1,,,4031KJ,Ingen,Buren,Gelderland,VBO,5.487898,51.960834
Rijnstraat,3,,,4031KJ,Ingen,Buren,Gelderland,VBO,5.487826,51.961005
Rijnstraat,7,a,,4031KJ,Ingen,Buren,Gelderland,VBO,5.489601,51.962928
Rijnstraat,7,,,4031KJ,Ingen,Buren,Gelderland,VBO,5.489576,51.962837
Rijnstraat,9,a,,4031KJ,Ingen,Buren,Gelderland,VBO,5.489928,51.963915
Rijnstraat,9,,,4031KJ,Ingen,Buren,Gelderland,VBO,5.489869,51.963538
Rijnstraat,11,a,,4031KJ,Ingen,Buren,Gelderland,VBO,5.490155,51.964577
Rijnstraat,11,,,4031KJ,Ingen,Buren,Gelderland,VBO,5.490147,51.964517
Rijnstraat,13,,,4031KJ,Ingen,Buren,Gelderland,VBO,5.490163,51.964895
Rijnstraat,15,,,4031KJ,Ingen,Buren,Gelderland,VBO,5.490018,51.965146
Rijnstraat,17,,,4031KJ,Ingen,Buren,Gelderland,VBO,5.490004,51.965380
Rijnstraat,19,,,4031KK,Ingen,Buren,Gelderland,VBO,5.489688,51.967115
Rijnstraat,21,,,4031KK,Ingen,Buren,Gelderland,VBO,5.489485,51.967403
Rijnstraat,23,,,4031KK,Ingen,Buren,Gelderland,VBO,5.489150,51.967349
Rijnstraat,25,,,4031KK,Ingen,Buren,Gelderland,VBO,5.489397,51.967394
Rijnstraat,27,,,4031KK,Ingen,Buren,Gelderland,VBO,5.489427,51.967529
Rijnstraat,29,,,4031KK,Ingen,Buren,Gelderland,VBO,5.489340,51.967592
Rijnstraat,31,,,4031KK,Ingen,Buren,Gelderland,VBO,5.489136,51.967538
Rijnstraat,33,,,4031KK,Ingen,Buren,Gelderland,VBO,5.489223,51.967673
Rijnstraat,35,,,4031KK,Ingen,Buren,Gelderland,VBO,5.489180,51.967718
Rijnstraat,37,,,4031KK,Ingen,Buren,Gelderland,VBO,5.488889,51.967835
Rijnstraat,39,,,4031KK,Ingen,Buren,Gelderland,VBO,5.489006,51.967952
Rijnstraat,41,,,4031KK,Ingen,Buren,Gelderland,VBO,5.489021,51.968087
Rijnstraat,43,,,4031KK,Ingen,Buren,Gelderland,VBO,5.488832,51.968590
Rijnstraat,45,,,4031KK,Ingen,Buren,Gelderland,VBO,5.488644,51.968815
Rijnstraat,47,a,,4031KK,Ingen,Buren,Gelderland,VBO,5.488442,51.969804
Rijnstraat,47,,,4031KK,Ingen,Buren,Gelderland,VBO,5.488586,51.968896
Rijnstraat,49,a,,4031KK,Ingen,Buren,Gelderland,VBO,5.490456,51.971986
Rijnstraat,49,,,4031KK,Ingen,Buren,Gelderland,VBO,5.488836,51.970325
Rijnstraat,51,,,4031KK,Ingen,Buren,Gelderland,VBO,5.491930,51.974034
Rijnstraat,53,,,4031KK,Ingen,Buren,Gelderland,VBO,5.492499,51.974456
Rijnstraat,4,a,,4031KL,Ingen,Buren,Gelderland,VBO,5.488531,51.960212
Rijnstraat,4,b,,4031KL,Ingen,Buren,Gelderland,VBO,5.488557,51.960276
Rijnstraat,4,c,,4031KL,Ingen,Buren,Gelderland,VBO,5.488599,51.960327
Rijnstraat,4,d,,4031KL,Ingen,Buren,Gelderland,VBO,5.488618,51.960382
Rijnstraat,4,e,,4031KL,Ingen,Buren,Gelderland,VBO,5.488636,51.960543
Rijnstraat,4,f,,4031KL,Ingen,Buren,Gelderland,VBO,5.488881,51.960526
Rijnstraat,4,g,,4031KL,Ingen,Buren,Gelderland,VBO,5.488997,51.960514
Rijnstraat,6,a,,4031KL,Ingen,Buren,Gelderland,VBO,5.488611,51.960198
Rijnstraat,6,b,,4031KL,Ingen,Buren,Gelderland,VBO,5.488618,51.960255
Rijnstraat,6,c,,4031KL,Ingen,Buren,Gelderland,VBO,5.488658,51.960307
Rijnstraat,6,d,,4031KL,Ingen,Buren,Gelderland,VBO,5.488671,51.960361
Rijnstraat,6,e,,4031KL,Ingen,Buren,Gelderland,VBO,5.488633,51.960431
Rijnstraat,6,f,,4031KL,Ingen,Buren,Gelderland,VBO,5.488630,51.960515
Rijnstraat,6,g,,4031KL,Ingen,Buren,Gelderland,VBO,5.488756,51.960529
Rijnstraat,6,h,,4031KL,Ingen,Buren,Gelderland,VBO,5.488860,51.960489
Rijnstraat,6,i,,4031KL,Ingen,Buren,Gelderland,VBO,5.488972,51.960483
Rijnstraat,8,a,,4031KL,Ingen,Buren,Gelderland,VBO,5.488669,51.960179
Rijnstraat,8,b,,4031KL,Ingen,Buren,Gelderland,VBO,5.488666,51.960232
Rijnstraat,8,c,,4031KL,Ingen,Buren,Gelderland,VBO,5.488689,51.960282
Rijnstraat,8,d,,4031KL,Ingen,Buren,Gelderland,VBO,5.488715,51.960336
Rijnstraat,8,e,,4031KL,Ingen,Buren,Gelderland,VBO,5.488728,51.960417
Rijnstraat,8,f,,4031KL,Ingen,Buren,Gelderland,VBO,5.488625,51.960486
Rijnstraat,8,g,,4031KL,Ingen,Buren,Gelderland,VBO,5.488744,51.960494
Rijnstraat,8,h,,4031KL,Ingen,Buren,Gelderland,VBO,5.488845,51.960466
Rijnstraat,8,i,,4031KL,Ingen,Buren,Gelderland,VBO,5.488955,51.960454
Rijnstraat,12,,,4031KL,Ingen,Buren,Gelderland,VBO,5.489165,51.961085
Rijnstraat,14,,,4031KL,Ingen,Buren,Gelderland,VBO,5.489325,51.961066
Rijnstraat,20,,,4031KL,Ingen,Buren,Gelderland,VBO,5.489486,51.961839
Rijnstraat,22,,,4031KL,Ingen,Buren,Gelderland,VBO,5.490714,51.963977
Rijnstraat,26,,,4031KL,Ingen,Buren,Gelderland,VBO,5.492663,51.963652
Rijnstraat,28,,,4031KL,Ingen,Buren,Gelderland,VBO,5.490701,51.964903
Rijnstraat,30,,,4031KL,Ingen,Buren,Gelderland,VBO,5.490673,51.965146
Rijnstraat,32,,,4031KL,Ingen,Buren,Gelderland,VBO,5.490571,51.965281
Rijnstraat,34,,,4031KL,Ingen,Buren,Gelderland,VBO,5.490527,51.965317
Rijnstraat,36,,,4031KL,Ingen,Buren,Gelderland,VBO,5.490571,51.965398
Rijnstraat,40,,,4031KL,Ingen,Buren,Gelderland,VBO,5.490849,51.965739
Rijnstraat,42,,,4031KM,Ingen,Buren,Gelderland,VBO,5.490529,51.965838
Rijnstraat,44,,,4031KM,Ingen,Buren,Gelderland,VBO,5.490457,51.966207
Rijnstraat,46,,,4031KM,Ingen,Buren,Gelderland,VBO,5.490312,51.966593
Rijnstraat,50,,,4031KM,Ingen,Buren,Gelderland,VBO,5.490488,51.967079
Rijnstraat,52,,,4031KM,Ingen,Buren,Gelderland,VBO,5.490299,51.967007
Rijnstraat,54,,,4031KM,Ingen,Buren,Gelderland,VBO,5.490226,51.967115
Rijnstraat,56,,,4031KM,Ingen,Buren,Gelderland,VBO,5.490183,51.967483
Rijnstraat,58,a,,4031KM,Ingen,Buren,Gelderland,VBO,5.489849,51.967825
Rijnstraat,58,,,4031KM,Ingen,Buren,Gelderland,VBO,5.490067,51.967429
Rijnstraat,60,,,4031KM,Ingen,Buren,Gelderland,VBO,5.489327,51.968697
Rijnstraat,62,,,4031KM,Ingen,Buren,Gelderland,VBO,5.489211,51.968850
Rijnstraat,64,,,4031KM,Ingen,Buren,Gelderland,VBO,5.489124,51.969021
Rijnstraat,66,,,4031KM,Ingen,Buren,Gelderland,VBO,5.489008,51.969138
Rijnstraat,68,a,,4031KM,Ingen,Buren,Gelderland,VBO,5.488966,51.969580
Rijnstraat,68,,,4031KM,Ingen,Buren,Gelderland,VBO,5.488791,51.969435
Rijnstraat,70,,,4031KM,Ingen,Buren,Gelderland,VBO,5.489258,51.969974
Rijnstraat,72,a,,4031KM,Ingen,Buren,Gelderland,VBO,5.490527,51.971366
Rijnstraat,72,,,4031KM,Ingen,Buren,Gelderland,VBO,5.490234,51.970575
Rijnstraat,74,a,,4031KM,Ingen,Buren,Gelderland,VBO,5.493897,51.974805
Rijnstraat,74,,,4031KM,Ingen,Buren,Gelderland,VBO,5.491927,51.972749
Rijnstraat,76,,,4031KM,Ingen,Buren,Gelderland,VBO,5.494465,51.975110
Rijnbandijk,1,,,4031KN,Ingen,Buren,Gelderland,VBO,5.513152,51.969690
Rijnbandijk,3,,,4031KN,Ingen,Buren,Gelderland,VBO,5.512628,51.969717
Rijnbandijk,7,,,4031KN,Ingen,Buren,Gelderland,VBO,5.508716,51.970800
Rijnbandijk,9,,,4031KN,Ingen,Buren,Gelderland,VBO,5.497984,51.973660
Rijnbandijk,11,a,,4031KN,Ingen,Buren,Gelderland,VBO,5.489767,51.976355
Rijnbandijk,11,,,4031KN,Ingen,Buren,Gelderland,VBO,5.491997,51.976428
Rijnbandijk,13,,,4031KN,Ingen,Buren,Gelderland,VBO,5.489083,51.976571
Rijnbandijk,15,,,4031KN,Ingen,Buren,Gelderland,VBO,5.483176,51.977107
Rijnbandijk,17,,,4031KN,Ingen,Buren,Gelderland,VBO,5.482492,51.977278
Rijnbandijk,19,,,4031KN,Ingen,Buren,Gelderland,VBO,5.481823,51.977575
Rijnbandijk,21,,,4031KN,Ingen,Buren,Gelderland,VBO,5.479307,51.977841
Rijnbandijk,23,,,4031KN,Ingen,Buren,Gelderland,VBO,5.477559,51.978109
Veerweg,1,,,4031KP,Ingen,Buren,Gelderland,VBO,5.496264,51.978911
Veerweg,2,,,4031KP,Ingen,Buren,Gelderland,VBO,5.496264,51.978722
Veerweg,3,,,4031KP,Ingen,Buren,Gelderland,VBO,5.496279,51.978956
Veerweg,4,a,,4031KP,Ingen,Buren,Gelderland,VBO,5.496493,51.978851
Veerweg,4,b,,4031KP,Ingen,Buren,Gelderland,VBO,5.496578,51.978872
Veerweg,4,,,4031KP,Ingen,Buren,Gelderland,VBO,5.496506,51.978899
Vossenpassenweg,2,,,4031KR,Ingen,Buren,Gelderland,VBO,5.494354,51.971201
Vossenpassenweg,4,,,4031KR,Ingen,Buren,Gelderland,VBO,5.493700,51.971350
Vossenpassenweg,5,,,4031KR,Ingen,Buren,Gelderland,VBO,5.505713,51.968772
Vossenpassenweg,6,,,4031KR,Ingen,Buren,Gelderland,VBO,5.492958,51.971687
Vossenpassenweg,7,,,4031KR,Ingen,Buren,Gelderland,VBO,5.504680,51.968980
Vossenpassenweg,9,,,4031KR,Ingen,Buren,Gelderland,VBO,5.503545,51.968999
Vossenpassenweg,13,,,4031KR,Ingen,Buren,Gelderland,VBO,5.499181,51.969452
Vossenpassenweg,15,,,4031KR,Ingen,Buren,Gelderland,VBO,5.498483,51.969615
Verhuizensestraat,1,a,,4031KS,Ingen,Buren,Gelderland,VBO,5.495642,51.962274
Verhuizensestraat,1,,,4031KS,Ingen,Buren,Gelderland,VBO,5.489705,51.961848
Verhuizensestraat,2,,,4031KS,Ingen,Buren,Gelderland,VBO,5.490038,51.961300
Verhuizensestraat,3,a,,4031KS,Ingen,Buren,Gelderland,VBO,5.497038,51.961922
Verhuizensestraat,3,c,,4031KS,Ingen,Buren,Gelderland,VBO,5.497778,51.961629
Verhuizensestraat,3,,,4031KS,Ingen,Buren,Gelderland,VBO,5.496573,51.962300
Verhuizensestraat,5,,1,4031KS,Ingen,Buren,Gelderland,VBO,5.501272,51.965786
Verhuizensestraat,5,,10,4031KS,Ingen,Buren,Gelderland,VBO,5.501087,51.965686
Verhuizensestraat,5,,11,4031KS,Ingen,Buren,Gelderland,VBO,5.500934,51.965758
Verhuizensestraat,5,,12,4031KS,Ingen,Buren,Gelderland,VBO,5.500807,51.965832
Verhuizensestraat,5,,13,4031KS,Ingen,Buren,Gelderland,VBO,5.500692,51.965910
Verhuizensestraat,5,,14,4031KS,Ingen,Buren,Gelderland,VBO,5.500527,51.965966
Verhuizensestraat,5,,15,4031KS,Ingen,Buren,Gelderland,VBO,5.500392,51.966028
Verhuizensestraat,5,,16,4031KS,Ingen,Buren,Gelderland,VBO,5.500254,51.966097
Verhuizensestraat,5,,17,4031KS,Ingen,Buren,Gelderland,VBO,5.500135,51.966176
Verhuizensestraat,5,,18,4031KS,Ingen,Buren,Gelderland,VBO,5.499980,51.966217
Verhuizensestraat,5,,19,4031KS,Ingen,Buren,Gelderland,VBO,5.499831,51.966284
Verhuizensestraat,5,,20,4031KS,Ingen,Buren,Gelderland,VBO,5.502031,51.965728
Verhuizensestraat,5,,22,4031KS,Ingen,Buren,Gelderland,VBO,5.502404,51.966004
Verhuizensestraat,5,,23,4031KS,Ingen,Buren,Gelderland,VBO,5.502541,51.966112
Verhuizensestraat,5,,24,4031KS,Ingen,Buren,Gelderland,VBO,5.503155,51.966666
Verhuizensestraat,5,,25,4031KS,Ingen,Buren,Gelderland,VBO,5.502858,51.966795
Verhuizensestraat,5,,27,4031KS,Ingen,Buren,Gelderland,VBO,5.502540,51.966411
Verhuizensestraat,5,,28,4031KS,Ingen,Buren,Gelderland,VBO,5.502411,51.966487
Verhuizensestraat,5,,29,4031KS,Ingen,Buren,Gelderland,VBO,5.502280,51.966560
Verhuizensestraat,5,,3,4031KS,Ingen,Buren,Gelderland,VBO,5.500951,51.965986
Verhuizensestraat,5,,30,4031KS,Ingen,Buren,Gelderland,VBO,5.502138,51.966632
Verhuizensestraat,5,,31,4031KS,Ingen,Buren,Gelderland,VBO,5.502039,51.966726
Verhuizensestraat,5,,32,4031KS,Ingen,Buren,Gelderland,VBO,5.501853,51.966792
Verhuizensestraat,5,,33,4031KS,Ingen,Buren,Gelderland,VBO,5.501712,51.966858
Verhuizensestraat,5,,36,4031KS,Ingen,Buren,Gelderland,VBO,5.501225,51.967118
Verhuizensestraat,5,,37,4031KS,Ingen,Buren,Gelderland,VBO,5.501071,51.967187
Verhuizensestraat,5,,38,4031KS,Ingen,Buren,Gelderland,VBO,5.502868,51.966469
Verhuizensestraat,5,,39,4031KS,Ingen,Buren,Gelderland,VBO,5.502784,51.966500
Verhuizensestraat,5,,4,4031KS,Ingen,Buren,Gelderland,VBO,5.500740,51.966035
Verhuizensestraat,5,,41,4031KS,Ingen,Buren,Gelderland,VBO,5.502523,51.966664
Verhuizensestraat,5,,42,4031KS,Ingen,Buren,Gelderland,VBO,5.502375,51.966729
Verhuizensestraat,5,,44,4031KS,Ingen,Buren,Gelderland,VBO,5.502172,51.966931
Verhuizensestraat,5,,45,4031KS,Ingen,Buren,Gelderland,VBO,5.502040,51.967001
Verhuizensestraat,5,,46,4031KS,Ingen,Buren,Gelderland,VBO,5.501823,51.967109
Verhuizensestraat,5,,47,4031KS,Ingen,Buren,Gelderland,VBO,5.501635,51.967181
Verhuizensestraat,5,,48,4031KS,Ingen,Buren,Gelderland,VBO,5.501490,51.967261
Verhuizensestraat,5,,49,4031KS,Ingen,Buren,Gelderland,VBO,5.501406,51.967321
Verhuizensestraat,5,,5,4031KS,Ingen,Buren,Gelderland,VBO,5.500645,51.966152
Verhuizensestraat,5,,50,4031KS,Ingen,Buren,Gelderland,VBO,5.502670,51.966882
Verhuizensestraat,5,,51,4031KS,Ingen,Buren,Gelderland,VBO,5.502501,51.966950
Verhuizensestraat,5,,52,4031KS,Ingen,Buren,Gelderland,VBO,5.502207,51.967137
Verhuizensestraat,5,,53,4031KS,Ingen,Buren,Gelderland,VBO,5.501880,51.967355
Verhuizensestraat,5,,54,4031KS,Ingen,Buren,Gelderland,VBO,5.502030,51.967486
Verhuizensestraat,5,,56,4031KS,Ingen,Buren,Gelderland,VBO,5.502258,51.967408
Verhuizensestraat,5,,57,4031KS,Ingen,Buren,Gelderland,VBO,5.502507,51.967292
Verhuizensestraat,5,,58,4031KS,Ingen,Buren,Gelderland,VBO,5.502692,51.967183
Verhuizensestraat,5,,59,4031KS,Ingen,Buren,Gelderland,VBO,5.502944,51.967034
Verhuizensestraat,5,,6,4031KS,Ingen,Buren,Gelderland,VBO,5.500420,51.966213
Verhuizensestraat,5,,60,4031KS,Ingen,Buren,Gelderland,VBO,5.503119,51.966956
Verhuizensestraat,5,,61,4031KS,Ingen,Buren,Gelderland,VBO,5.503349,51.966817
Verhuizensestraat,5,,62,4031KS,Ingen,Buren,Gelderland,VBO,5.501615,51.967522
Verhuizensestraat,5,,63,4031KS,Ingen,Buren,Gelderland,VBO,5.501793,51.967694
Verhuizensestraat,5,,64,4031KS,Ingen,Buren,Gelderland,VBO,5.501994,51.967829
Verhuizensestraat,5,,65,4031KS,Ingen,Buren,Gelderland,VBO,5.502217,51.967693
Verhuizensestraat,5,,66,4031KS,Ingen,Buren,Gelderland,VBO,5.502447,51.967585
Verhuizensestraat,5,,67,4031KS,Ingen,Buren,Gelderland,VBO,5.502672,51.967470
Verhuizensestraat,5,,68,4031KS,Ingen,Buren,Gelderland,VBO,5.502811,51.967343
Verhuizensestraat,5,,69,4031KS,Ingen,Buren,Gelderland,VBO,5.503118,51.967242
Verhuizensestraat,5,,7,4031KS,Ingen,Buren,Gelderland,VBO,5.500237,51.966321
Verhuizensestraat,5,,70,4031KS,Ingen,Buren,Gelderland,VBO,5.503333,51.967132
Verhuizensestraat,5,,71,4031KS,Ingen,Buren,Gelderland,VBO,5.503570,51.967015
Verhuizensestraat,5,,8,4031KS,Ingen,Buren,Gelderland,VBO,5.500089,51.966412
Verhuizensestraat,5,,9,4031KS,Ingen,Buren,Gelderland,VBO,5.501139,51.965567
Verhuizensestraat,5,,,4031KS,Ingen,Buren,Gelderland,VBO,5.501550,51.965658
Verhuizensestraat,8,a,,4031KS,Ingen,Buren,Gelderland,VBO,5.494553,51.961850
Verhuizensestraat,8,,,4031KS,Ingen,Buren,Gelderland,VBO,5.494171,51.961826
Verhuizensestraat,10,,,4031KS,Ingen,Buren,Gelderland,VBO,5.509025,51.966575
Huisplaats,1,,,4031KT,Ingen,Buren,Gelderland,VBO,5.486960,51.957752
Huisplaats,2,,,4031KT,Ingen,Buren,Gelderland,VBO,5.487106,51.958048
Huisplaats,3,,,4031KT,Ingen,Buren,Gelderland,VBO,5.486873,51.957779
Huisplaats,4,,,4031KT,Ingen,Buren,Gelderland,VBO,5.487150,51.958120
Huisplaats,5,,,4031KT,Ingen,Buren,Gelderland,VBO,5.486757,51.957815
Huisplaats,6,,,4031KT,Ingen,Buren,Gelderland,VBO,5.487165,51.958183
Huisplaats,7,,,4031KT,Ingen,Buren,Gelderland,VBO,5.486451,51.957752
Huisplaats,8,,,4031KT,Ingen,Buren,Gelderland,VBO,5.486874,51.958201
Huisplaats,9,,,4031KT,Ingen,Buren,Gelderland,VBO,5.486349,51.957770
Huisplaats,10,,,4031KT,Ingen,Buren,Gelderland,VBO,5.486772,51.958219
Huisplaats,11,,,4031KT,Ingen,Buren,Gelderland,VBO,5.486262,51.957788
Huisplaats,12,,,4031KT,Ingen,Buren,Gelderland,VBO,5.486583,51.958273
Huisplaats,13,,,4031KT,Ingen,Buren,Gelderland,VBO,5.486276,51.957510
Huisplaats,14,,,4031KT,Ingen,Buren,Gelderland,VBO,5.486452,51.958301
Huisplaats,15,,,4031KT,Ingen,Buren,Gelderland,VBO,5.486072,51.957321
Huisplaats,16,,,4031KT,Ingen,Buren,Gelderland,VBO,5.486525,51.958094
Huisplaats,17,,,4031KT,Ingen,Buren,Gelderland,VBO,5.486290,51.957231
Huisplaats,18,,,4031KT,Ingen,Buren,Gelderland,VBO,5.486481,51.958022
Huisplaats,20,,,4031KT,Ingen,Buren,Gelderland,VBO,5.486452,51.957968
Burgemeester Hoftijzerplein,2,,,4031KV,Ingen,Buren,Gelderland,VBO,5.490896,51.961074
Burgemeester Hoftijzerplein,4,,,4031KV,Ingen,Buren,Gelderland,VBO,5.490605,51.961065
Burgemeester Hoftijzerplein,6,,,4031KV,Ingen,Buren,Gelderland,VBO,5.490808,51.960885
Burgemeester Hoftijzerplein,8,,,4031KV,Ingen,Buren,Gelderland,VBO,5.490954,51.960849
Burgemeester Hoftijzerplein,10,,,4031KV,Ingen,Buren,Gelderland,VBO,5.491507,51.961083
Burgemeester Hoftijzerplein,12,,,4031KV,Ingen,Buren,Gelderland,VBO,5.490590,51.960895
Molendreef,1,,,4031LA,Ingen,Buren,Gelderland,VBO,5.482595,51.957540
Molendreef,3,,,4031LA,Ingen,Buren,Gelderland,VBO,5.482319,51.957639
Molendreef,5,,,4031LA,Ingen,Buren,Gelderland,VBO,5.482013,51.957495
Molendreef,7,,,4031LA,Ingen,Buren,Gelderland,VBO,5.481898,51.957792
Molendreef,2,,,4031LB,Ingen,Buren,Gelderland,VBO,5.483047,51.957683
Molendreef,4,,,4031LB,Ingen,Buren,Gelderland,VBO,5.483003,51.957719
Molendreef,6,,,4031LB,Ingen,Buren,Gelderland,VBO,5.482829,51.957773
Molendreef,8,,,4031LB,Ingen,Buren,Gelderland,VBO,5.482712,51.957773
Molendreef,10,,,4031LB,Ingen,Buren,Gelderland,VBO,5.482552,51.957827
Molendreef,12,,,4031LB,Ingen,Buren,Gelderland,VBO,5.482509,51.957854
Molendreef,14,,,4031LB,Ingen,Buren,Gelderland,VBO,5.482349,51.957953
Molendreef,16,,,4031LB,Ingen,Buren,Gelderland,VBO,5.482262,51.957980
Zwarte Paard,2,a,,4031LK,Ingen,Buren,Gelderland,VBO,5.445461,51.951722
Zwarte Paard,2,b,,4031LK,Ingen,Buren,Gelderland,VBO,5.444980,51.951264
Zwarte Paard,2,,,4031LK,Ingen,Buren,Gelderland,VBO,5.449009,51.950938
Zwarte Paard,3,,,4031LK,Ingen,Buren,Gelderland,VBO,5.450348,51.951656
Zwarte Paard,4,,,4031LK,Ingen,Buren,Gelderland,VBO,5.443697,51.948810
Zwarte Paard,5,,,4031LK,Ingen,Buren,Gelderland,VBO,5.450290,51.951306
Zwarte Paard,6,,,4031LK,Ingen,Buren,Gelderland,VBO,5.449152,51.949221
Zwarte Paard,7,,,4031LK,Ingen,Buren,Gelderland,VBO,5.450187,51.951126
Zwarte Paard,8,,,4031LK,Ingen,Buren,Gelderland,VBO,5.449152,51.949158
Zwarte Paard,9,,WON2,4031LK,Ingen,Buren,Gelderland,VBO,5.451162,51.951036
Zwarte Paard,9,,,4031LK,Ingen,Buren,Gelderland,VBO,5.450973,51.951063
Zwarte Paard,10,,,4031LK,Ingen,Buren,Gelderland,VBO,5.449254,51.948960
Zwarte Paard,11,,,4031LK,Ingen,Buren,Gelderland,VBO,5.450638,51.950964
Zwarte Paard,12,,,4031LK,Ingen,Buren,Gelderland,VBO,5.448831,51.948601
Zwarte Paard,13,,,4031LK,Ingen,Buren,Gelderland,VBO,5.450551,51.950937
Zwarte Paard,14,,,4031LK,Ingen,Buren,Gelderland,VBO,5.448817,51.948529
Zwarte Paard,15,a,,4031LK,Ingen,Buren,Gelderland,VBO,5.450223,51.950827
Zwarte Paard,15,,,4031LK,Ingen,Buren,Gelderland,VBO,5.451525,51.950829
Zwarte Paard,17,a,,4031LK,Ingen,Buren,Gelderland,VBO,5.450171,51.949922
Zwarte Paard,17,,,4031LK,Ingen,Buren,Gelderland,VBO,5.450407,51.950258
Zwarte Paard,19,,,4031LK,Ingen,Buren,Gelderland,VBO,5.449442,51.948232
Zwarte Paard,21,,,4031LK,Ingen,Buren,Gelderland,VBO,5.449368,51.947639
Zwarte Paard,23,,,4031LK,Ingen,Buren,Gelderland,VBO,5.449120,51.947307
Kerkpad,2,,,4031MA,Ingen,Buren,Gelderland,VBO,5.486047,51.959636
Kerkpad,3,,,4031MA,Ingen,Buren,Gelderland,VBO,5.484796,51.959497
Kerkpad,4,,,4031MA,Ingen,Buren,Gelderland,VBO,5.485684,51.959757
Kerkpad,5,,,4031MA,Ingen,Buren,Gelderland,VBO,5.484345,51.959516
Kerkpad,6,,,4031MA,Ingen,Buren,Gelderland,VBO,5.484280,51.960015
Kerkpad,7,,,4031MA,Ingen,Buren,Gelderland,VBO,5.484099,51.959884
Dr. A.R. Holplein,1,,,4031MB,Ingen,Buren,Gelderland,VBO,5.486688,51.959631
Dr. A.R. Holplein,2,,,4031MB,Ingen,Buren,Gelderland,VBO,5.486412,51.960035
Dr. A.R. Holplein,3,,,4031MB,Ingen,Buren,Gelderland,VBO,5.486775,51.959469
Dr. A.R. Holplein,4,,,4031MB,Ingen,Buren,Gelderland,VBO,5.486383,51.959945
Dr. A.R. Holplein,5,,,4031MB,Ingen,Buren,Gelderland,VBO,5.486673,51.959343
Dr. A.R. Holplein,7,,,4031MB,Ingen,Buren,Gelderland,VBO,5.486614,51.959145
Dr. A.R. Holplein,8,,,4031MB,Ingen,Buren,Gelderland,VBO,5.486325,51.959802
Dr. A.R. Holplein,9,,,4031MB,Ingen,Buren,Gelderland,VBO,5.486603,51.959107
Dr. A.R. Holplein,10,,,4031MB,Ingen,Buren,Gelderland,VBO,5.485858,51.959398
Dr. A.R. Holplein,11,,,4031MB,Ingen,Buren,Gelderland,VBO,5.486672,51.958983
Dr. A.R. Holplein,12,,,4031MB,Ingen,Buren,Gelderland,VBO,5.485873,51.959344
Dr. A.R. Holplein,13,,,4031MB,Ingen,Buren,Gelderland,VBO,5.486744,51.958705
Dr. A.R. Holplein,14,,,4031MB,Ingen,Buren,Gelderland,VBO,5.485901,51.959227
Dr. A.R. Holplein,16,,,4031MB,Ingen,Buren,Gelderland,VBO,5.485858,51.959137
Dr. A.R. Holplein,20,,,4031MB,Ingen,Buren,Gelderland,VBO,5.485857,51.959002
Dr. A.R. Holplein,22,,,4031MB,Ingen,Buren,Gelderland,VBO,5.485828,51.958912
Dr. A.R. Holplein,24,,,4031MB,Ingen,Buren,Gelderland,VBO,5.485900,51.958750
Dr. A.R. Holplein,26,,,4031MB,Ingen,Buren,Gelderland,VBO,5.486075,51.958831
Dorpsstraat,1,a,,4031MC,Ingen,Buren,Gelderland,VBO,5.487797,51.959552
Dorpsstraat,1,,,4031MC,Ingen,Buren,Gelderland,VBO,5.487808,51.959612
Dorpsstraat,3,,,4031MC,Ingen,Buren,Gelderland,VBO,5.487677,51.959693
Dorpsstraat,5,,,4031MC,Ingen,Buren,Gelderland,VBO,5.487663,51.959729
Dorpsstraat,7,,,4031MC,Ingen,Buren,Gelderland,VBO,5.487401,51.959711
Dorpsstraat,9,,,4031MC,Ingen,Buren,Gelderland,VBO,5.487183,51.959801
Dorpsstraat,11,,,4031MC,Ingen,Buren,Gelderland,VBO,5.486747,51.960017
Dorpsstraat,13,,,4031MC,Ingen,Buren,Gelderland,VBO,5.486136,51.960080
Dorpsstraat,15,,,4031MC,Ingen,Buren,Gelderland,VBO,5.485641,51.960045
Dorpsstraat,17,,,4031MC,Ingen,Buren,Gelderland,VBO,5.485438,51.960126
Dorpsstraat,21,,,4031MC,Ingen,Buren,Gelderland,VBO,5.484827,51.960234
Dorpsstraat,23,,,4031MC,Ingen,Buren,Gelderland,VBO,5.484522,51.960369
Dorpsstraat,25,,,4031MC,Ingen,Buren,Gelderland,VBO,5.484274,51.960343
Dorpsstraat,27,a,,4031MC,Ingen,Buren,Gelderland,VBO,5.482814,51.960856
Dorpsstraat,27,b,,4031MC,Ingen,Buren,Gelderland,VBO,5.482443,51.961018
Dorpsstraat,27,c,,4031MC,Ingen,Buren,Gelderland,VBO,5.482355,51.961054
Dorpsstraat,27,,1,4031MC,Ingen,Buren,Gelderland,VBO,5.483509,51.960573
Dorpsstraat,27,,10,4031MC,Ingen,Buren,Gelderland,VBO,5.483107,51.960786
Dorpsstraat,27,,11,4031MC,Ingen,Buren,Gelderland,VBO,5.483070,51.960746
Dorpsstraat,27,,12,4031MC,Ingen,Buren,Gelderland,VBO,5.483156,51.960730
Dorpsstraat,27,,2,4031MC,Ingen,Buren,Gelderland,VBO,5.483500,51.960618
Dorpsstraat,27,,3,4031MC,Ingen,Buren,Gelderland,VBO,5.483469,51.960647
Dorpsstraat,27,,4,4031MC,Ingen,Buren,Gelderland,VBO,5.483438,51.960629
Dorpsstraat,27,,5,4031MC,Ingen,Buren,Gelderland,VBO,5.483283,51.960718
Dorpsstraat,27,,6,4031MC,Ingen,Buren,Gelderland,VBO,5.483364,51.960700
Dorpsstraat,27,,7,4031MC,Ingen,Buren,Gelderland,VBO,5.483247,51.960674
Dorpsstraat,27,,8,4031MC,Ingen,Buren,Gelderland,VBO,5.483340,51.960657
Dorpsstraat,27,,9,4031MC,Ingen,Buren,Gelderland,VBO,5.483212,51.960754
Dorpsstraat,27,,,4031MC,Ingen,Buren,Gelderland,VBO,5.484180,51.960394
Dorpsstraat,29,,,4031MC,Ingen,Buren,Gelderland,VBO,5.482225,51.961090
Dorpsstraat,31,,,4031MD,Ingen,Buren,Gelderland,VBO,5.482137,51.961126
Dorpsstraat,33,,,4031MD,Ingen,Buren,Gelderland,VBO,5.481977,51.961154
Dorpsstraat,39,,,4031MD,Ingen,Buren,Gelderland,VBO,5.481716,51.961244
Dorpsstraat,41,,,4031MD,Ingen,Buren,Gelderland,VBO,5.481468,51.961091
Dorpsstraat,43,,,4031MD,Ingen,Buren,Gelderland,VBO,5.481396,51.961289
Dorpsstraat,45,,,4031MD,Ingen,Buren,Gelderland,VBO,5.481250,51.961289
Dorpsstraat,47,,,4031MD,Ingen,Buren,Gelderland,VBO,5.481090,51.961370
Dorpsstraat,49,,,4031MD,Ingen,Buren,Gelderland,VBO,5.480683,51.961289
Dorpsstraat,2,a,,4031ME,Ingen,Buren,Gelderland,VBO,5.486428,51.960368
Dorpsstraat,2,,,4031ME,Ingen,Buren,Gelderland,VBO,5.486588,51.960305
Dorpsstraat,4,,,4031ME,Ingen,Buren,Gelderland,VBO,5.486180,51.960368
Dorpsstraat,6,,,4031ME,Ingen,Buren,Gelderland,VBO,5.486093,51.960377
Dorpsstraat,8,,,4031ME,Ingen,Buren,Gelderland,VBO,5.485991,51.960404
Dorpsstraat,10,,,4031ME,Ingen,Buren,Gelderland,VBO,5.485628,51.960629
Dorpsstraat,14,a,,4031ME,Ingen,Buren,Gelderland,VBO,5.484842,51.960621
Dorpsstraat,14,,,4031ME,Ingen,Buren,Gelderland,VBO,5.485235,51.960576
Dorpsstraat,16,,,4031ME,Ingen,Buren,Gelderland,VBO,5.484581,51.960711
Dorpsstraat,18,,,4031ME,Ingen,Buren,Gelderland,VBO,5.484348,51.960612
Dorpsstraat,22,a,,4031ME,Ingen,Buren,Gelderland,VBO,5.484264,51.960840
Dorpsstraat,22,,,4031ME,Ingen,Buren,Gelderland,VBO,5.483938,51.960720
Dorpsstraat,26,,,4031ME,Ingen,Buren,Gelderland,VBO,5.483694,51.960855
Dorpsstraat,28,,,4031ME,Ingen,Buren,Gelderland,VBO,5.483768,51.961673
Dorpsstraat,30,,,4031MG,Ingen,Buren,Gelderland,VBO,5.483871,51.961943
Dorpsstraat,32,,,4031MG,Ingen,Buren,Gelderland,VBO,5.483127,51.961171
Dorpsstraat,34,,,4031MG,Ingen,Buren,Gelderland,VBO,5.483025,51.961234
Dorpsstraat,36,,,4031MG,Ingen,Buren,Gelderland,VBO,5.482894,51.961288
Dorpsstraat,38,,,4031MG,Ingen,Buren,Gelderland,VBO,5.482691,51.961342
Dorpsstraat,40,,,4031MG,Ingen,Buren,Gelderland,VBO,5.482429,51.961387
Dorpsstraat,42,a,,4031MG,Ingen,Buren,Gelderland,VBO,5.482031,51.961599
Dorpsstraat,42,,,4031MG,Ingen,Buren,Gelderland,VBO,5.482164,51.961579
Dorpsstraat,44,,,4031MG,Ingen,Buren,Gelderland,VBO,5.481804,51.961639
Dorpsstraat,46,,,4031MG,Ingen,Buren,Gelderland,VBO,5.481688,51.961720
Dorpsstraat,48,,,4031MG,Ingen,Buren,Gelderland,VBO,5.481455,51.961810
Dorpsstraat,50,,,4031MG,Ingen,Buren,Gelderland,VBO,5.481106,51.961774
Tabaksland,1,,,4031MH,Ingen,Buren,Gelderland,VBO,5.482500,51.960713
Tabaksland,3,,,4031MH,Ingen,Buren,Gelderland,VBO,5.482486,51.960677
Tabaksland,5,,,4031MH,Ingen,Buren,Gelderland,VBO,5.482442,51.960614
Tabaksland,7,,,4031MH,Ingen,Buren,Gelderland,VBO,5.482427,51.960560
Tabaksland,9,,,4031MH,Ingen,Buren,Gelderland,VBO,5.482369,51.960461
Tabaksland,11,,,4031MH,Ingen,Buren,Gelderland,VBO,5.482340,51.960425
Tabaksland,13,,,4031MH,Ingen,Buren,Gelderland,VBO,5.482296,51.960380
Tabaksland,15,,,4031MH,Ingen,Buren,Gelderland,VBO,5.482252,51.960317
Tabaksland,17,,,4031MH,Ingen,Buren,Gelderland,VBO,5.482252,51.960102
Tabaksland,19,,,4031MH,Ingen,Buren,Gelderland,VBO,5.482193,51.960057
Tabaksland,21,,,4031MH,Ingen,Buren,Gelderland,VBO,5.482150,51.960003
Tabaksland,23,,,4031MH,Ingen,Buren,Gelderland,VBO,5.482091,51.959967
Tabaksland,25,,,4031MH,Ingen,Buren,Gelderland,VBO,5.482062,51.959823
Tabaksland,27,,,4031MH,Ingen,Buren,Gelderland,VBO,5.482033,51.959778
Tabaksland,29,,,4031MH,Ingen,Buren,Gelderland,VBO,5.482294,51.959715
Tabaksland,31,,,4031MH,Ingen,Buren,Gelderland,VBO,5.482382,51.959706
Tabaksland,51,,,4031MH,Ingen,Buren,Gelderland,VBO,5.481291,51.959878
Tabaksland,53,,,4031MH,Ingen,Buren,Gelderland,VBO,5.481262,51.959896
Tabaksland,55,,,4031MH,Ingen,Buren,Gelderland,VBO,5.481189,51.959914
Tabaksland,57,,,4031MH,Ingen,Buren,Gelderland,VBO,5.481087,51.959914
Tabaksland,59,,,4031MH,Ingen,Buren,Gelderland,VBO,5.480956,51.959752
Tabaksland,61,,,4031MH,Ingen,Buren,Gelderland,VBO,5.480941,51.959716
Tabaksland,63,,,4031MH,Ingen,Buren,Gelderland,VBO,5.480898,51.959653
Tabaksland,65,,,4031MH,Ingen,Buren,Gelderland,VBO,5.481145,51.959554
Tabaksland,67,,,4031MH,Ingen,Buren,Gelderland,VBO,5.481232,51.959545
Tabaksland,69,,,4031MH,Ingen,Buren,Gelderland,VBO,5.481305,51.959518
Tabaksland,71,,,4031MH,Ingen,Buren,Gelderland,VBO,5.481377,51.959500
Tabaksland,73,,,4031MH,Ingen,Buren,Gelderland,VBO,5.481450,51.959482
Tabaksland,2,a,,4031MJ,Ingen,Buren,Gelderland,VBO,5.482180,51.960794
Tabaksland,2,,,4031MJ,Ingen,Buren,Gelderland,VBO,5.482195,51.960848
Tabaksland,4,,,4031MJ,Ingen,Buren,Gelderland,VBO,5.482122,51.960740
Tabaksland,6,,,4031MJ,Ingen,Buren,Gelderland,VBO,5.482064,51.960659
Tabaksland,8,,,4031MJ,Ingen,Buren,Gelderland,VBO,5.482034,51.960596
Tabaksland,10,,,4031MJ,Ingen,Buren,Gelderland,VBO,5.482020,51.960551
Tabaksland,12,,,4031MJ,Ingen,Buren,Gelderland,VBO,5.481976,51.960497
Tabaksland,14,,,4031MJ,Ingen,Buren,Gelderland,VBO,5.481947,51.960452
Tabaksland,16,,,4031MJ,Ingen,Buren,Gelderland,VBO,5.481903,51.960390
Tabaksland,18,,,4031MJ,Ingen,Buren,Gelderland,VBO,5.481830,51.960300
Tabaksland,20,,,4031MJ,Ingen,Buren,Gelderland,VBO,5.481815,51.960255
Tabaksland,22,,,4031MJ,Ingen,Buren,Gelderland,VBO,5.481772,51.960210
Tabaksland,24,,,4031MJ,Ingen,Buren,Gelderland,VBO,5.481757,51.960156
Tabaksland,26,,,4031MJ,Ingen,Buren,Gelderland,VBO,5.481713,51.960102
Tabaksland,28,,,4031MJ,Ingen,Buren,Gelderland,VBO,5.481684,51.960048
Tabaksland,30,,,4031MJ,Ingen,Buren,Gelderland,VBO,5.481553,51.959797
Tabaksland,32,,,4031MJ,Ingen,Buren,Gelderland,VBO,5.481538,51.959761
Tabaksland,34,,,4031MJ,Ingen,Buren,Gelderland,VBO,5.481567,51.959698
Tabaksland,36,,,4031MJ,Ingen,Buren,Gelderland,VBO,5.481509,51.959653
Tabaksland,38,,,4031MJ,Ingen,Buren,Gelderland,VBO,5.481945,51.959536
Tabaksland,40,,,4031MJ,Ingen,Buren,Gelderland,VBO,5.482105,51.959500
Tabaksland,42,,,4031MJ,Ingen,Buren,Gelderland,VBO,5.482308,51.959454
Tabaksland,44,,,4031MJ,Ingen,Buren,Gelderland,VBO,5.482425,51.959427
Tabaksland,46,,,4031MJ,Ingen,Buren,Gelderland,VBO,5.482541,51.959391
Tabaksland,66,,,4031MJ,Ingen,Buren,Gelderland,VBO,5.480855,51.960327
Tabaksland,68,,,4031MJ,Ingen,Buren,Gelderland,VBO,5.480826,51.960274
Tabaksland,70,,,4031MJ,Ingen,Buren,Gelderland,VBO,5.480739,51.960184
Tabaksland,72,,,4031MJ,Ingen,Buren,Gelderland,VBO,5.480709,51.960139
Tabaksland,74,,,4031MJ,Ingen,Buren,Gelderland,VBO,5.480637,51.960022
Tabaksland,76,,,4031MJ,Ingen,Buren,Gelderland,VBO,5.480607,51.959968
Tabaksland,78,,,4031MJ,Ingen,Buren,Gelderland,VBO,5.480578,51.959860
Tabaksland,80,,,4031MJ,Ingen,Buren,Gelderland,VBO,5.480520,51.959744
Tabaksland,82,,,4031MJ,Ingen,Buren,Gelderland,VBO,5.480476,51.959681
Tabaksland,84,,,4031MJ,Ingen,Buren,Gelderland,VBO,5.480432,51.959573
Tabaksland,86,,,4031MJ,Ingen,Buren,Gelderland,VBO,5.480431,51.959375
Tabaksland,88,,,4031MJ,Ingen,Buren,Gelderland,VBO,5.480635,51.959393
Tabaksland,90,,,4031MJ,Ingen,Buren,Gelderland,VBO,5.480737,51.959366
Tabaksland,92,,,4031MJ,Ingen,Buren,Gelderland,VBO,5.480882,51.959321
Tabaksland,94,,,4031MJ,Ingen,Buren,Gelderland,VBO,5.480970,51.959294
Tabaksland,96,,,4031MJ,Ingen,Buren,Gelderland,VBO,5.481130,51.959267
Tabaksland,98,,,4031MJ,Ingen,Buren,Gelderland,VBO,5.481231,51.959249
Tabaksland,100,,,4031MJ,Ingen,Buren,Gelderland,VBO,5.481362,51.959213
Tabaksland,102,,,4031MJ,Ingen,Buren,Gelderland,VBO,5.481668,51.959086
Tabaksland,104,,,4031MJ,Ingen,Buren,Gelderland,VBO,5.481799,51.959212
Tabaksland,106,,,4031MJ,Ingen,Buren,Gelderland,VBO,5.481828,51.959266
Tabaksland,108,,,4031MJ,Ingen,Buren,Gelderland,VBO,5.481857,51.959383
Hoogkana,1,,,4031MK,Ingen,Buren,Gelderland,VBO,5.490759,51.964553
Hoogkana,3,,,4031MK,Ingen,Buren,Gelderland,VBO,5.490860,51.964463
Hoogkana,5,,,4031MK,Ingen,Buren,Gelderland,VBO,5.491035,51.964462
Hoogkana,7,,,4031MK,Ingen,Buren,Gelderland,VBO,5.492054,51.964911
Hoogkana,9,,,4031MK,Ingen,Buren,Gelderland,VBO,5.491704,51.965215
Hoogkana,11,,,4031MK,Ingen,Buren,Gelderland,VBO,5.492462,51.965162
Hoogkana,13,a,,4031MK,Ingen,Buren,Gelderland,VBO,5.495406,51.967029
Hoogkana,13,b,,4031MK,Ingen,Buren,Gelderland,VBO,5.498474,51.966199
Hoogkana,13,,,4031MK,Ingen,Buren,Gelderland,VBO,5.492652,51.965315
Hoogkana,15,,,4031MK,Ingen,Buren,Gelderland,VBO,5.498458,51.965543
Hoogkana,19,,,4031MK,Ingen,Buren,Gelderland,VBO,5.499143,51.965794
Hoogkana,21,,,4031MK,Ingen,Buren,Gelderland,VBO,5.499361,51.965938
Hoogkana,23,,,4031MK,Ingen,Buren,Gelderland,VBO,5.499011,51.965345
Hoogkana,25,,,4031MK,Ingen,Buren,Gelderland,VBO,5.499652,51.965794
Hoogkana,2,,,4031ML,Ingen,Buren,Gelderland,VBO,5.490976,51.964220
Hoogkana,4,,,4031ML,Ingen,Buren,Gelderland,VBO,5.493744,51.965521
Hoogkana,6,,,4031ML,Ingen,Buren,Gelderland,VBO,5.493788,51.965853
Hoogkana,8,,,4031ML,Ingen,Buren,Gelderland,VBO,5.495754,51.966445
Hoogkana,10,,,4031ML,Ingen,Buren,Gelderland,VBO,5.496103,51.966345
Hoogkana,12,,,4031ML,Ingen,Buren,Gelderland,VBO,5.495287,51.965861
Hoogkana,14,,,4031ML,Ingen,Buren,Gelderland,VBO,5.496175,51.966220
Hoogkana,16,,,4031ML,Ingen,Buren,Gelderland,VBO,5.496393,51.966129
Hoogkana,18,,,4031ML,Ingen,Buren,Gelderland,VBO,5.496815,51.966012
Hoogkana,20,,,4031ML,Ingen,Buren,Gelderland,VBO,5.496902,51.965931
Hoogkana,22,,,4031ML,Ingen,Buren,Gelderland,VBO,5.497018,51.965859
Hoogkana,24,,,4031ML,Ingen,Buren,Gelderland,VBO,5.497207,51.965796
Hoogkana,26,,,4031ML,Ingen,Buren,Gelderland,VBO,5.497847,51.965490
Hoogkana,28,,,4031ML,Ingen,Buren,Gelderland,VBO,5.498254,51.965355
Hoogkana,30,a,,4031ML,Ingen,Buren,Gelderland,VBO,5.498643,51.965044
Hoogkana,30,,,4031ML,Ingen,Buren,Gelderland,VBO,5.498559,51.965175
Hoogkana,32,,,4031ML,Ingen,Buren,Gelderland,VBO,5.498762,51.964950
Hoogkana,34,,,4031ML,Ingen,Buren,Gelderland,VBO,5.498820,51.964914
Hoogkana,36,,,4031ML,Ingen,Buren,Gelderland,VBO,5.498878,51.964869
Hoogkana,38,,,4031ML,Ingen,Buren,Gelderland,VBO,5.498937,51.964833
Hoogkana,40,,,4031ML,Ingen,Buren,Gelderland,VBO,5.499024,51.964779
Hoogkana,42,,,4031ML,Ingen,Buren,Gelderland,VBO,5.499082,51.964743
Nieuwe weg,1,,,4031MN,Ingen,Buren,Gelderland,VBO,5.494444,51.965511
Nieuwe weg,3,,,4031MN,Ingen,Buren,Gelderland,VBO,5.494587,51.965403
Nieuwe weg,5,,,4031MN,Ingen,Buren,Gelderland,VBO,5.494864,51.965592
Nieuwe weg,7,,,4031MN,Ingen,Buren,Gelderland,VBO,5.494834,51.965277
Nieuwe weg,9,,,4031MN,Ingen,Buren,Gelderland,VBO,5.494878,51.965223
Nieuwe weg,11,,,4031MN,Ingen,Buren,Gelderland,VBO,5.495766,51.965348
Nieuwe weg,13,,,4031MN,Ingen,Buren,Gelderland,VBO,5.495824,51.965267
Nieuwe weg,15,,,4031MN,Ingen,Buren,Gelderland,VBO,5.496334,51.965590
Nieuwe weg,17,,,4031MN,Ingen,Buren,Gelderland,VBO,5.497132,51.964745
Nieuwe weg,21,,,4031MN,Ingen,Buren,Gelderland,VBO,5.497394,51.964825
Nieuwe weg,23,,,4031MN,Ingen,Buren,Gelderland,VBO,5.497962,51.964825
Nieuwe weg,25,,,4031MN,Ingen,Buren,Gelderland,VBO,5.497146,51.964385
Nieuwe weg,27,,,4031MN,Ingen,Buren,Gelderland,VBO,5.497393,51.964295
Nieuwe weg,29,,,4031MN,Ingen,Buren,Gelderland,VBO,5.497466,51.964259
Nieuwe weg,31,,,4031MN,Ingen,Buren,Gelderland,VBO,5.497538,51.964214
Nieuwe weg,33,,,4031MN,Ingen,Buren,Gelderland,VBO,5.497596,51.964178
Nieuwe weg,2,a,,4031MP,Ingen,Buren,Gelderland,VBO,5.496070,51.964647
Nieuwe weg,2,,,4031MP,Ingen,Buren,Gelderland,VBO,5.495023,51.964917
Nieuwe weg,4,,,4031MP,Ingen,Buren,Gelderland,VBO,5.496215,51.964395
Nieuwe weg,6,,,4031MP,Ingen,Buren,Gelderland,VBO,5.496345,51.964314
Nieuwe weg,8,,,4031MP,Ingen,Buren,Gelderland,VBO,5.496608,51.964529
Nieuwe weg,10,,,4031MP,Ingen,Buren,Gelderland,VBO,5.495967,51.964152
Nieuwe weg,12,,,4031MP,Ingen,Buren,Gelderland,VBO,5.495558,51.963829
Nieuwe weg,16,,,4031MP,Ingen,Buren,Gelderland,VBO,5.495966,51.963703
Nieuwe weg,18,,,4031MP,Ingen,Buren,Gelderland,VBO,5.496009,51.963748
Nieuwe weg,20,,,4031MP,Ingen,Buren,Gelderland,VBO,5.496140,51.963793
Nieuwe weg,22,,,4031MP,Ingen,Buren,Gelderland,VBO,5.496199,51.963838
Nieuwe weg,24,,,4031MP,Ingen,Buren,Gelderland,VBO,5.496607,51.964089
Nieuwe weg,26,,,4031MP,Ingen,Buren,Gelderland,VBO,5.496869,51.964304
Nieuwe weg,28,,,4031MP,Ingen,Buren,Gelderland,VBO,5.497145,51.964142
Nieuwe weg,30,,,4031MP,Ingen,Buren,Gelderland,VBO,5.497218,51.964115
Nieuwe weg,32,,,4031MP,Ingen,Buren,Gelderland,VBO,5.497291,51.964070
Nieuwe weg,34,,,4031MP,Ingen,Buren,Gelderland,VBO,5.497363,51.964043
Nieuwe weg,36,,,4031MP,Ingen,Buren,Gelderland,VBO,5.497479,51.963971
Nieuwe weg,38,,,4031MP,Ingen,Buren,Gelderland,VBO,5.497523,51.963926
Zevenmorgen,1,,,4031MR,Ingen,Buren,Gelderland,VBO,5.496357,51.963280
Zevenmorgen,3,,,4031MR,Ingen,Buren,Gelderland,VBO,5.496430,51.963334
Zevenmorgen,5,,,4031MR,Ingen,Buren,Gelderland,VBO,5.496547,51.963406
Zevenmorgen,7,,,4031MR,Ingen,Buren,Gelderland,VBO,5.496620,51.963460
Zevenmorgen,9,,,4031MR,Ingen,Buren,Gelderland,VBO,5.496765,51.963523
Zevenmorgen,11,,,4031MR,Ingen,Buren,Gelderland,VBO,5.496853,51.963558
Zevenmorgen,13,,,4031MR,Ingen,Buren,Gelderland,VBO,5.496955,51.963630
Zevenmorgen,15,,,4031MR,Ingen,Buren,Gelderland,VBO,5.497042,51.963684
Zevenmorgen,17,,,4031MR,Ingen,Buren,Gelderland,VBO,5.497159,51.963747
Zevenmorgen,19,,,4031MR,Ingen,Buren,Gelderland,VBO,5.497246,51.963801
Zevenmorgen,21,,,4031MR,Ingen,Buren,Gelderland,VBO,5.497800,51.964097
Zevenmorgen,23,,,4031MR,Ingen,Buren,Gelderland,VBO,5.497902,51.964142
Zevenmorgen,25,,,4031MR,Ingen,Buren,Gelderland,VBO,5.498062,51.964222
Zevenmorgen,27,,,4031MR,Ingen,Buren,Gelderland,VBO,5.498120,51.964258
Zevenmorgen,29,,,4031MR,Ingen,Buren,Gelderland,VBO,5.498208,51.964312
Zevenmorgen,31,,,4031MR,Ingen,Buren,Gelderland,VBO,5.498324,51.964357
Zevenmorgen,33,,,4031MR,Ingen,Buren,Gelderland,VBO,5.498383,51.964402
Zevenmorgen,35,,,4031MR,Ingen,Buren,Gelderland,VBO,5.498455,51.964429
Zevenmorgen,37,,,4031MR,Ingen,Buren,Gelderland,VBO,5.498557,51.964483
Zevenmorgen,39,,,4031MR,Ingen,Buren,Gelderland,VBO,5.498630,51.964536
Zevenmorgen,41,,,4031MR,Ingen,Buren,Gelderland,VBO,5.498703,51.964581
Zevenmorgen,43,,,4031MR,Ingen,Buren,Gelderland,VBO,5.498747,51.964599
Zevenmorgen,2,,,4031MS,Ingen,Buren,Gelderland,VBO,5.495206,51.962338
Zevenmorgen,6,,,4031MS,Ingen,Buren,Gelderland,VBO,5.495759,51.962499
Zevenmorgen,8,,,4031MS,Ingen,Buren,Gelderland,VBO,5.496138,51.962633
Zevenmorgen,10,a,,4031MS,Ingen,Buren,Gelderland,VBO,5.496545,51.962669
Zevenmorgen,10,,,4031MS,Ingen,Buren,Gelderland,VBO,5.496254,51.962795
Zevenmorgen,12,,,4031MS,Ingen,Buren,Gelderland,VBO,5.496430,51.963037
Zevenmorgen,14,,,4031MS,Ingen,Buren,Gelderland,VBO,5.496706,51.963154
Zevenmorgen,16,,,4031MS,Ingen,Buren,Gelderland,VBO,5.497172,51.963378
Zevenmorgen,18,,,4031MS,Ingen,Buren,Gelderland,VBO,5.497376,51.963522
Zevenmorgen,20,,,4031MS,Ingen,Buren,Gelderland,VBO,5.497522,51.963594
Zevenmorgen,22,,,4031MS,Ingen,Buren,Gelderland,VBO,5.497799,51.963719
Zevenmorgen,24,,,4031MS,Ingen,Buren,Gelderland,VBO,5.497988,51.963773
Zevenmorgen,26,,,4031MS,Ingen,Buren,Gelderland,VBO,5.498425,51.963854
Zevenmorgen,28,,,4031MS,Ingen,Buren,Gelderland,VBO,5.498469,51.964105
Zevenmorgen,30,,,4031MS,Ingen,Buren,Gelderland,VBO,5.498760,51.964186
Zevenmorgen,32,,,4031MS,Ingen,Buren,Gelderland,VBO,5.499008,51.964347
Zevenmorgen,34,,,4031MS,Ingen,Buren,Gelderland,VBO,5.499343,51.964572
Zevenmorgen,36,,,4031MS,Ingen,Buren,Gelderland,VBO,5.499926,51.964841
Zevenmorgen,38,,,4031MS,Ingen,Buren,Gelderland,VBO,5.500290,51.965047
Zevenmorgen,40,,,4031MS,Ingen,Buren,Gelderland,VBO,5.500771,51.965424
