openbareruimtenaam,huisnummer,huisletter,huisnummertoevoeging,postcode,woonplaatsnaam,gemeentenaam,provincienaam,typeadresseerbaarobject,longitude,latitude
Hoofdstraat,1,,,4041AA,Kesteren,Neder-Betuwe,Gelderland,VBO,5.574799,51.935884
Hoofdstraat,5,,,4041AA,Kesteren,Neder-Betuwe,Gelderland,VBO,5.574328,51.934632
Hoofdstraat,7,a,,4041AA,Kesteren,Neder-Betuwe,Gelderland,VBO,5.574212,51.934463
Hoofdstraat,7,,,4041AA,Kesteren,Neder-Betuwe,Gelderland,VBO,5.574229,51.934534
Hoofdstraat,9,,,4041AA,Kesteren,Neder-Betuwe,Gelderland,VBO,5.574252,51.934331
Hoofdstraat,13,,,4041AA,Kesteren,Neder-Betuwe,Gelderland,VBO,5.574210,51.934222
Hoofdstraat,15,,,4041AA,Kesteren,Neder-Betuwe,Gelderland,VBO,5.574526,51.934102
Hoofdstraat,17,,,4041AA,Kesteren,Neder-Betuwe,Gelderland,VBO,5.574186,51.934087
Hoofdstraat,19,,,4041AA,Kesteren,Neder-Betuwe,Gelderland,VBO,5.574296,51.933889
Hoofdstraat,23,,,4041AA,Kesteren,Neder-Betuwe,Gelderland,VBO,5.574394,51.933776
Hoofdstraat,25,,,4041AA,Kesteren,Neder-Betuwe,Gelderland,VBO,5.574506,51.933650
Hoofdstraat,27,,,4041AA,Kesteren,Neder-Betuwe,Gelderland,VBO,5.574542,51.933502
Hoofdstraat,31,,,4041AA,Kesteren,Neder-Betuwe,Gelderland,VBO,5.574599,51.933278
Hoofdstraat,33,,,4041AA,Kesteren,Neder-Betuwe,Gelderland,VBO,5.574656,51.933170
Hoofdstraat,35,,,4041AB,Kesteren,Neder-Betuwe,Gelderland,VBO,5.574655,51.932873
Hoofdstraat,37,,,4041AB,Kesteren,Neder-Betuwe,Gelderland,VBO,5.574596,51.932684
Hoofdstraat,39,,,4041AB,Kesteren,Neder-Betuwe,Gelderland,VBO,5.574596,51.932577
Hoofdstraat,41,,,4041AB,Kesteren,Neder-Betuwe,Gelderland,VBO,5.574639,51.932433
Hoofdstraat,43,,,4041AB,Kesteren,Neder-Betuwe,Gelderland,VBO,5.574609,51.932298
Hoofdstraat,45,,,4041AB,Kesteren,Neder-Betuwe,Gelderland,VBO,5.574594,51.932217
Hoofdstraat,47,,,4041AB,Kesteren,Neder-Betuwe,Gelderland,VBO,5.574579,51.932100
Hoofdstraat,49,,,4041AB,Kesteren,Neder-Betuwe,Gelderland,VBO,5.574579,51.932019
Hoofdstraat,53,,,4041AB,Kesteren,Neder-Betuwe,Gelderland,VBO,5.574564,51.931831
Hoofdstraat,55,,,4041AB,Kesteren,Neder-Betuwe,Gelderland,VBO,5.574621,51.931660
Hoofdstraat,57,,,4041AB,Kesteren,Neder-Betuwe,Gelderland,VBO,5.574649,51.931507
Hoofdstraat,63,,,4041AC,Kesteren,Neder-Betuwe,Gelderland,VBO,5.574291,51.930652
Hoofdstraat,65,,,4041AC,Kesteren,Neder-Betuwe,Gelderland,VBO,5.575058,51.930572
Hoofdstraat,67,,,4041AC,Kesteren,Neder-Betuwe,Gelderland,VBO,5.574878,51.930482
Hoofdstraat,69,,,4041AC,Kesteren,Neder-Betuwe,Gelderland,VBO,5.574776,51.930464
Hoofdstraat,71,,,4041AC,Kesteren,Neder-Betuwe,Gelderland,VBO,5.574470,51.930366
Hoofdstraat,73,,,4041AC,Kesteren,Neder-Betuwe,Gelderland,VBO,5.574455,51.930294
Hoofdstraat,75,,,4041AC,Kesteren,Neder-Betuwe,Gelderland,VBO,5.574455,51.930204
Hoofdstraat,77,,,4041AC,Kesteren,Neder-Betuwe,Gelderland,VBO,5.574440,51.930141
Hoofdstraat,79,,,4041AC,Kesteren,Neder-Betuwe,Gelderland,VBO,5.574469,51.929997
Hoofdstraat,81,,,4041AC,Kesteren,Neder-Betuwe,Gelderland,VBO,5.574468,51.929844
Hoofdstraat,93,,,4041AC,Kesteren,Neder-Betuwe,Gelderland,VBO,5.574439,51.929727
Hoofdstraat,97,,,4041AC,Kesteren,Neder-Betuwe,Gelderland,VBO,5.574595,51.928981
Hoofdstraat,99,,,4041AC,Kesteren,Neder-Betuwe,Gelderland,VBO,5.574301,51.928056
Hoofdstraat,105,,,4041AC,Kesteren,Neder-Betuwe,Gelderland,VBO,5.572414,51.925768
Hoofdstraat,107,,,4041AC,Kesteren,Neder-Betuwe,Gelderland,VBO,5.572422,51.925693
Meezendreef,1,,,4041AC,Kesteren,Neder-Betuwe,Gelderland,VBO,5.571234,51.924654
Meezendreef,3,,,4041AC,Kesteren,Neder-Betuwe,Gelderland,VBO,5.570808,51.923657
Meezendreef,5,,,4041AC,Kesteren,Neder-Betuwe,Gelderland,VBO,5.571331,51.923477
Meezendreef,7,,,4041AC,Kesteren,Neder-Betuwe,Gelderland,VBO,5.572405,51.923196
Hoofdstraat,2,a,,4041AD,Kesteren,Neder-Betuwe,Gelderland,VBO,5.573482,51.934813
Hoofdstraat,2,b,,4041AD,Kesteren,Neder-Betuwe,Gelderland,VBO,5.573230,51.934846
Hoofdstraat,2,,,4041AD,Kesteren,Neder-Betuwe,Gelderland,VBO,5.573442,51.934807
Hoofdstraat,4,,,4041AD,Kesteren,Neder-Betuwe,Gelderland,VBO,5.573339,51.934646
Hoofdstraat,6,,,4041AD,Kesteren,Neder-Betuwe,Gelderland,VBO,5.573484,51.934502
Hoofdstraat,8,a,,4041AD,Kesteren,Neder-Betuwe,Gelderland,VBO,5.573587,51.934391
Hoofdstraat,8,,,4041AD,Kesteren,Neder-Betuwe,Gelderland,VBO,5.573515,51.934400
Hoofdstraat,10,,,4041AD,Kesteren,Neder-Betuwe,Gelderland,VBO,5.573595,51.934420
Hoofdstraat,12,a,,4041AD,Kesteren,Neder-Betuwe,Gelderland,VBO,5.573582,51.934128
Hoofdstraat,12,,,4041AD,Kesteren,Neder-Betuwe,Gelderland,VBO,5.573674,51.934169
Hoofdstraat,14,,,4041AD,Kesteren,Neder-Betuwe,Gelderland,VBO,5.573736,51.934041
Hoofdstraat,16,,,4041AD,Kesteren,Neder-Betuwe,Gelderland,VBO,5.573753,51.933984
Hoofdstraat,18,a,,4041AD,Kesteren,Neder-Betuwe,Gelderland,VBO,5.573485,51.933812
Hoofdstraat,18,,,4041AD,Kesteren,Neder-Betuwe,Gelderland,VBO,5.573841,51.933847
Hoofdstraat,20,,,4041AD,Kesteren,Neder-Betuwe,Gelderland,VBO,5.573845,51.933773
Hoofdstraat,22,a,,4041AD,Kesteren,Neder-Betuwe,Gelderland,VBO,5.573953,51.933634
Hoofdstraat,22,,,4041AD,Kesteren,Neder-Betuwe,Gelderland,VBO,5.573791,51.933606
Hoofdstraat,24,a,,4041AD,Kesteren,Neder-Betuwe,Gelderland,VBO,5.573954,51.933584
Hoofdstraat,24,,,4041AD,Kesteren,Neder-Betuwe,Gelderland,VBO,5.573931,51.933575
Hoofdstraat,26,,,4041AD,Kesteren,Neder-Betuwe,Gelderland,VBO,5.573800,51.933450
Hoofdstraat,28,,,4041AD,Kesteren,Neder-Betuwe,Gelderland,VBO,5.574003,51.933326
Hoofdstraat,36,,,4041AD,Kesteren,Neder-Betuwe,Gelderland,VBO,5.573956,51.932452
Hoofdstraat,38,,,4041AE,Kesteren,Neder-Betuwe,Gelderland,VBO,5.573955,51.932245
Hoofdstraat,40,,,4041AE,Kesteren,Neder-Betuwe,Gelderland,VBO,5.573940,51.932101
Hoofdstraat,42,,,4041AE,Kesteren,Neder-Betuwe,Gelderland,VBO,5.573925,51.932038
Hoofdstraat,44,,,4041AE,Kesteren,Neder-Betuwe,Gelderland,VBO,5.573910,51.931912
Hoofdstraat,46,,,4041AE,Kesteren,Neder-Betuwe,Gelderland,VBO,5.573909,51.931850
Hoofdstraat,48,a,,4041AE,Kesteren,Neder-Betuwe,Gelderland,VBO,5.573912,51.931587
Hoofdstraat,48,,,4041AE,Kesteren,Neder-Betuwe,Gelderland,VBO,5.573894,51.931706
Hoofdstraat,50,,,4041AE,Kesteren,Neder-Betuwe,Gelderland,VBO,5.573835,51.931436
Hoofdstraat,52,a,,4041AE,Kesteren,Neder-Betuwe,Gelderland,VBO,5.573921,51.931338
Hoofdstraat,52,b,,4041AE,Kesteren,Neder-Betuwe,Gelderland,VBO,5.573824,51.931342
Hoofdstraat,52,c,,4041AE,Kesteren,Neder-Betuwe,Gelderland,VBO,5.573927,51.931306
Hoofdstraat,52,d,,4041AE,Kesteren,Neder-Betuwe,Gelderland,VBO,5.573855,51.931295
Hoofdstraat,52,e,,4041AE,Kesteren,Neder-Betuwe,Gelderland,VBO,5.573942,51.931258
Hoofdstraat,52,f,,4041AE,Kesteren,Neder-Betuwe,Gelderland,VBO,5.573855,51.931243
Hoofdstraat,52,g,,4041AE,Kesteren,Neder-Betuwe,Gelderland,VBO,5.573937,51.931214
Hoofdstraat,52,h,,4041AE,Kesteren,Neder-Betuwe,Gelderland,VBO,5.573820,51.931192
Hoofdstraat,54,,,4041AE,Kesteren,Neder-Betuwe,Gelderland,VBO,5.573877,51.931068
Hoofdstraat,64,,,4041AE,Kesteren,Neder-Betuwe,Gelderland,VBO,5.573548,51.928821
Hoofdstraat,66,a,,4041AE,Kesteren,Neder-Betuwe,Gelderland,VBO,5.573301,51.928607
Hoofdstraat,66,,,4041AE,Kesteren,Neder-Betuwe,Gelderland,VBO,5.573490,51.928595
Hoofdstraat,68,,,4041AE,Kesteren,Neder-Betuwe,Gelderland,VBO,5.573488,51.928363
Hoofdstraat,70,a,,4041AE,Kesteren,Neder-Betuwe,Gelderland,VBO,5.573079,51.927880
Hoofdstraat,70,,,4041AE,Kesteren,Neder-Betuwe,Gelderland,VBO,5.572961,51.927600
Hoofdstraat,74,,,4041AE,Kesteren,Neder-Betuwe,Gelderland,VBO,5.570658,51.925994
Fruitstraat,1,,,4041AH,Kesteren,Neder-Betuwe,Gelderland,VBO,5.573731,51.930764
Fruitstraat,4,a,,4041AH,Kesteren,Neder-Betuwe,Gelderland,VBO,5.575369,51.931521
Fruitstraat,4,,,4041AH,Kesteren,Neder-Betuwe,Gelderland,VBO,5.575049,51.931340
Fruitstraat,6,,,4041AH,Kesteren,Neder-Betuwe,Gelderland,VBO,5.574721,51.931318
Fruitstraat,10,,,4041AH,Kesteren,Neder-Betuwe,Gelderland,VBO,5.572538,51.930611
Fruitstraat,12,a,,4041AH,Kesteren,Neder-Betuwe,Gelderland,VBO,5.572246,51.930540
Fruitstraat,12,,,4041AH,Kesteren,Neder-Betuwe,Gelderland,VBO,5.572392,51.930576
Fruitstraat,14,,,4041AH,Kesteren,Neder-Betuwe,Gelderland,VBO,5.572072,51.930504
Fruitstraat,16,a,,4041AH,Kesteren,Neder-Betuwe,Gelderland,VBO,5.571621,51.930433
Fruitstraat,16,,,4041AH,Kesteren,Neder-Betuwe,Gelderland,VBO,5.571926,51.930469
Fruitstraat,18,,,4041AH,Kesteren,Neder-Betuwe,Gelderland,VBO,5.571533,51.930406
Fruitstraat,20,,,4041AH,Kesteren,Neder-Betuwe,Gelderland,VBO,5.571344,51.930362
Fruitstraat,22,,,4041AH,Kesteren,Neder-Betuwe,Gelderland,VBO,5.571271,51.930335
Fruitstraat,24,,,4041AH,Kesteren,Neder-Betuwe,Gelderland,VBO,5.571184,51.930308
Fruitstraat,26,a,,4041AJ,Kesteren,Neder-Betuwe,Gelderland,VBO,5.569800,51.929972
Fruitstraat,26,,,4041AJ,Kesteren,Neder-Betuwe,Gelderland,VBO,5.570064,51.930015
Fruitstraat,28,,,4041AJ,Kesteren,Neder-Betuwe,Gelderland,VBO,5.569506,51.929889
Fruitstraat,30,,,4041AJ,Kesteren,Neder-Betuwe,Gelderland,VBO,5.569323,51.929844
Fruitstraat,32,,,4041AJ,Kesteren,Neder-Betuwe,Gelderland,VBO,5.569161,51.929799
Fruitstraat,34,,,4041AJ,Kesteren,Neder-Betuwe,Gelderland,VBO,5.569074,51.929790
Fruitstraat,36,,,4041AJ,Kesteren,Neder-Betuwe,Gelderland,VBO,5.568972,51.929754
Fruitstraat,38,,,4041AJ,Kesteren,Neder-Betuwe,Gelderland,VBO,5.568885,51.929754
Fruitstraat,40,,,4041AJ,Kesteren,Neder-Betuwe,Gelderland,VBO,5.568841,51.929736
Fruitstraat,42,,,4041AJ,Kesteren,Neder-Betuwe,Gelderland,VBO,5.568754,51.929709
Fruitstraat,44,,,4041AJ,Kesteren,Neder-Betuwe,Gelderland,VBO,5.568405,51.929641
Fruitstraat,46,a,,4041AJ,Kesteren,Neder-Betuwe,Gelderland,VBO,5.568058,51.929613
Fruitstraat,46,,,4041AJ,Kesteren,Neder-Betuwe,Gelderland,VBO,5.568011,51.929486
Fruitstraat,48,,,4041AJ,Kesteren,Neder-Betuwe,Gelderland,VBO,5.567662,51.929406
Fruitstraat,50,,,4041AJ,Kesteren,Neder-Betuwe,Gelderland,VBO,5.567313,51.929451
Fruitstraat,52,,,4041AJ,Kesteren,Neder-Betuwe,Gelderland,VBO,5.567226,51.929451
Fruitstraat,54,,,4041AJ,Kesteren,Neder-Betuwe,Gelderland,VBO,5.567153,51.929451
Fruitstraat,56,,,4041AJ,Kesteren,Neder-Betuwe,Gelderland,VBO,5.567037,51.929451
Fruitstraat,58,,,4041AJ,Kesteren,Neder-Betuwe,Gelderland,VBO,5.566993,51.929443
Fruitstraat,60,a,,4041AJ,Kesteren,Neder-Betuwe,Gelderland,STA,5.564703,51.928619
Fruitstraat,60,b,,4041AJ,Kesteren,Neder-Betuwe,Gelderland,STA,5.564687,51.928759
Fruitstraat,62,a,,4041AJ,Kesteren,Neder-Betuwe,Gelderland,STA,5.564349,51.928774
Fruitstraat,62,c,,4041AJ,Kesteren,Neder-Betuwe,Gelderland,STA,5.564457,51.928570
Fruitstraat,66,a,,4041AJ,Kesteren,Neder-Betuwe,Gelderland,VBO,5.556253,51.926732
Fruitstraat,66,,,4041AJ,Kesteren,Neder-Betuwe,Gelderland,VBO,5.555714,51.926457
Trajanusplein,1,,,4041AK,Kesteren,Neder-Betuwe,Gelderland,VBO,5.572549,51.931297
Trajanusplein,2,,,4041AK,Kesteren,Neder-Betuwe,Gelderland,VBO,5.572263,51.930989
Trajanusplein,3,,,4041AK,Kesteren,Neder-Betuwe,Gelderland,VBO,5.572645,51.931300
Trajanusplein,4,,,4041AK,Kesteren,Neder-Betuwe,Gelderland,VBO,5.572365,51.930980
Trajanusplein,5,,,4041AK,Kesteren,Neder-Betuwe,Gelderland,VBO,5.572738,51.931276
Trajanusplein,6,,,4041AK,Kesteren,Neder-Betuwe,Gelderland,VBO,5.572452,51.930962
Trajanusplein,7,,,4041AK,Kesteren,Neder-Betuwe,Gelderland,VBO,5.572846,51.931294
Trajanusplein,8,,,4041AK,Kesteren,Neder-Betuwe,Gelderland,VBO,5.572813,51.930952
Trajanusplein,9,,,4041AK,Kesteren,Neder-Betuwe,Gelderland,VBO,5.572933,51.931285
Trajanusplein,10,,,4041AK,Kesteren,Neder-Betuwe,Gelderland,VBO,5.572903,51.930979
Trajanusplein,11,,,4041AK,Kesteren,Neder-Betuwe,Gelderland,VBO,5.573022,51.931274
Trajanusplein,12,,,4041AK,Kesteren,Neder-Betuwe,Gelderland,VBO,5.572999,51.930986
Trajanusplein,13,,,4041AK,Kesteren,Neder-Betuwe,Gelderland,VBO,5.573129,51.931269
Trajanusplein,14,,,4041AK,Kesteren,Neder-Betuwe,Gelderland,VBO,5.573077,51.930997
Trajanusplein,15,,,4041AK,Kesteren,Neder-Betuwe,Gelderland,VBO,5.573224,51.931275
Trajanusplein,16,,,4041AK,Kesteren,Neder-Betuwe,Gelderland,VBO,5.573173,51.931011
Trajanusplein,18,,,4041AK,Kesteren,Neder-Betuwe,Gelderland,VBO,5.573266,51.931033
Eiberstraat,1,,,4041AL,Kesteren,Neder-Betuwe,Gelderland,VBO,5.572672,51.930671
Eiberstraat,3,,,4041AL,Kesteren,Neder-Betuwe,Gelderland,VBO,5.572655,51.930696
Eiberstraat,5,,,4041AL,Kesteren,Neder-Betuwe,Gelderland,VBO,5.572629,51.930723
Eiberstraat,7,,,4041AL,Kesteren,Neder-Betuwe,Gelderland,VBO,5.572846,51.931294
Eiberstraat,9,,,4041AL,Kesteren,Neder-Betuwe,Gelderland,VBO,5.572600,51.930771
Eiberstraat,11,,,4041AL,Kesteren,Neder-Betuwe,Gelderland,VBO,5.572562,51.930800
Eiberstraat,13,,,4041AL,Kesteren,Neder-Betuwe,Gelderland,VBO,5.572570,51.930826
Silvanusstraat,1,a,,4041AM,Kesteren,Neder-Betuwe,Gelderland,VBO,5.572454,51.931275
Silvanusstraat,1,b,,4041AM,Kesteren,Neder-Betuwe,Gelderland,VBO,5.572463,51.931303
Silvanusstraat,1,c,,4041AM,Kesteren,Neder-Betuwe,Gelderland,VBO,5.572439,51.931334
Silvanusstraat,1,d,,4041AM,Kesteren,Neder-Betuwe,Gelderland,VBO,5.572450,51.931360
Silvanusstraat,1,e,,4041AM,Kesteren,Neder-Betuwe,Gelderland,VBO,5.572464,51.931387
Silvanusstraat,1,f,,4041AM,Kesteren,Neder-Betuwe,Gelderland,VBO,5.572468,51.931417
Silvanusstraat,2,,,4041AM,Kesteren,Neder-Betuwe,Gelderland,VBO,5.572778,51.932436
Silvanusstraat,4,,,4041AM,Kesteren,Neder-Betuwe,Gelderland,VBO,5.572690,51.932427
Silvanusstraat,6,,,4041AM,Kesteren,Neder-Betuwe,Gelderland,VBO,5.572618,51.932400
Silvanusstraat,8,,,4041AM,Kesteren,Neder-Betuwe,Gelderland,VBO,5.572516,51.932382
Silvanusstraat,10,,,4041AM,Kesteren,Neder-Betuwe,Gelderland,VBO,5.572443,51.932364
Silvanusstraat,12,a,,4041AM,Kesteren,Neder-Betuwe,Gelderland,VBO,5.572193,51.932406
Silvanusstraat,12,b,,4041AM,Kesteren,Neder-Betuwe,Gelderland,VBO,5.572127,51.932423
Silvanusstraat,12,c,,4041AM,Kesteren,Neder-Betuwe,Gelderland,VBO,5.572097,51.932396
Silvanusstraat,12,d,,4041AM,Kesteren,Neder-Betuwe,Gelderland,VBO,5.572036,51.932408
Silvanusstraat,12,,,4041AM,Kesteren,Neder-Betuwe,Gelderland,VBO,5.572341,51.932346
Silvanusstraat,14,,,4041AM,Kesteren,Neder-Betuwe,Gelderland,VBO,5.572210,51.932212
Silvanusstraat,16,,,4041AM,Kesteren,Neder-Betuwe,Gelderland,VBO,5.572239,51.932167
Silvanusstraat,18,,,4041AM,Kesteren,Neder-Betuwe,Gelderland,VBO,5.572224,51.932095
Silvanusstraat,20,,,4041AM,Kesteren,Neder-Betuwe,Gelderland,VBO,5.572224,51.932050
Silvanusstraat,22,,,4041AM,Kesteren,Neder-Betuwe,Gelderland,VBO,5.572223,51.931987
Silvanusstraat,24,,,4041AM,Kesteren,Neder-Betuwe,Gelderland,VBO,5.572223,51.931933
Silvanusstraat,26,,,4041AM,Kesteren,Neder-Betuwe,Gelderland,VBO,5.572208,51.931816
Silvanusstraat,28,,,4041AM,Kesteren,Neder-Betuwe,Gelderland,VBO,5.572179,51.931762
Silvanusstraat,30,,,4041AM,Kesteren,Neder-Betuwe,Gelderland,VBO,5.572178,51.931691
Silvanusstraat,32,,,4041AM,Kesteren,Neder-Betuwe,Gelderland,VBO,5.572178,51.931646
Silvanusstraat,34,,,4041AM,Kesteren,Neder-Betuwe,Gelderland,VBO,5.572178,51.931583
Silvanusstraat,36,,,4041AM,Kesteren,Neder-Betuwe,Gelderland,VBO,5.572163,51.931520
Silvanusstraat,38,,,4041AM,Kesteren,Neder-Betuwe,Gelderland,VBO,5.572148,51.931403
Silvanusstraat,40,,,4041AM,Kesteren,Neder-Betuwe,Gelderland,VBO,5.572133,51.931340
Silvanusstraat,42,,,4041AM,Kesteren,Neder-Betuwe,Gelderland,VBO,5.572133,51.931286
Silvanusstraat,44,,,4041AM,Kesteren,Neder-Betuwe,Gelderland,VBO,5.572133,51.931232
Silvanusstraat,46,,,4041AM,Kesteren,Neder-Betuwe,Gelderland,VBO,5.572118,51.931169
Silvanusstraat,48,a,,4041AM,Kesteren,Neder-Betuwe,Gelderland,VBO,5.571936,51.931051
Silvanusstraat,48,b,,4041AM,Kesteren,Neder-Betuwe,Gelderland,VBO,5.571925,51.931023
Silvanusstraat,48,c,,4041AM,Kesteren,Neder-Betuwe,Gelderland,VBO,5.571927,51.931002
Silvanusstraat,48,d,,4041AM,Kesteren,Neder-Betuwe,Gelderland,VBO,5.571919,51.930971
Silvanusstraat,48,e,,4041AM,Kesteren,Neder-Betuwe,Gelderland,VBO,5.571938,51.930934
Silvanusstraat,48,,,4041AM,Kesteren,Neder-Betuwe,Gelderland,VBO,5.572089,51.931106
Carvonestraat,7,,,4041AN,Kesteren,Neder-Betuwe,Gelderland,VBO,5.573182,51.932585
Carvonestraat,9,,,4041AN,Kesteren,Neder-Betuwe,Gelderland,VBO,5.573165,51.932526
Carvonestraat,11,,,4041AN,Kesteren,Neder-Betuwe,Gelderland,VBO,5.573446,51.932372
Carvonestraat,13,a,,4041AN,Kesteren,Neder-Betuwe,Gelderland,VBO,5.573427,51.932056
Carvonestraat,13,b,,4041AN,Kesteren,Neder-Betuwe,Gelderland,VBO,5.573468,51.932042
Carvonestraat,13,c,,4041AN,Kesteren,Neder-Betuwe,Gelderland,VBO,5.573517,51.932067
Carvonestraat,13,d,,4041AN,Kesteren,Neder-Betuwe,Gelderland,VBO,5.573568,51.932043
Carvonestraat,13,e,,4041AN,Kesteren,Neder-Betuwe,Gelderland,VBO,5.573606,51.932063
Carvonestraat,13,f,,4041AN,Kesteren,Neder-Betuwe,Gelderland,VBO,5.573654,51.932046
Carvonestraat,13,,,4041AN,Kesteren,Neder-Betuwe,Gelderland,VBO,5.573488,51.931994
Carvonestraat,15,,,4041AN,Kesteren,Neder-Betuwe,Gelderland,VBO,5.573474,51.931949
Carvonestraat,17,,,4041AN,Kesteren,Neder-Betuwe,Gelderland,VBO,5.573459,51.931886
Carvonestraat,19,,,4041AN,Kesteren,Neder-Betuwe,Gelderland,VBO,5.573444,51.931841
Carvonestraat,21,,,4041AN,Kesteren,Neder-Betuwe,Gelderland,VBO,5.573444,51.931769
Carvonestraat,23,,,4041AN,Kesteren,Neder-Betuwe,Gelderland,VBO,5.573429,51.931724
Carvonestraat,25,,,4041AN,Kesteren,Neder-Betuwe,Gelderland,VBO,5.573239,51.931545
Carvonestraat,27,,,4041AN,Kesteren,Neder-Betuwe,Gelderland,VBO,5.573152,51.931554
Carvonestraat,29,,,4041AN,Kesteren,Neder-Betuwe,Gelderland,VBO,5.573050,51.931554
Carvonestraat,31,,,4041AN,Kesteren,Neder-Betuwe,Gelderland,VBO,5.572963,51.931563
Carvonestraat,33,,,4041AN,Kesteren,Neder-Betuwe,Gelderland,VBO,5.572876,51.931564
Carvonestraat,35,,,4041AN,Kesteren,Neder-Betuwe,Gelderland,VBO,5.572774,51.931564
Carvonestraat,37,,,4041AN,Kesteren,Neder-Betuwe,Gelderland,VBO,5.572672,51.931564
Carvonestraat,39,,,4041AN,Kesteren,Neder-Betuwe,Gelderland,VBO,5.572600,51.931573
Carvonestraat,41,,,4041AN,Kesteren,Neder-Betuwe,Gelderland,VBO,5.572483,51.931555
Ommestraat,1,,,4041AP,Kesteren,Neder-Betuwe,Gelderland,VBO,5.574328,51.927579
Ommestraat,2,,,4041AP,Kesteren,Neder-Betuwe,Gelderland,VBO,5.573431,51.927029
Ommestraat,3,,,4041AP,Kesteren,Neder-Betuwe,Gelderland,VBO,5.574253,51.927058
Ommestraat,4,,,4041AP,Kesteren,Neder-Betuwe,Gelderland,VBO,5.573290,51.926797
Oude Broekdijk,1,a,,4041AR,Kesteren,Neder-Betuwe,Gelderland,VBO,5.568807,51.923124
Oude Broekdijk,1,b,,4041AR,Kesteren,Neder-Betuwe,Gelderland,VBO,5.566721,51.925312
Oude Broekdijk,1,,,4041AR,Kesteren,Neder-Betuwe,Gelderland,VBO,5.569007,51.924046
Oude Broekdijk,2,a,,4041AR,Kesteren,Neder-Betuwe,Gelderland,VBO,5.561889,51.925531
Oude Broekdijk,2,,,4041AR,Kesteren,Neder-Betuwe,Gelderland,VBO,5.563183,51.925359
Oude Broekdijk,3,a,,4041AR,Kesteren,Neder-Betuwe,Gelderland,VBO,5.567731,51.924866
Oude Broekdijk,4,a,,4041AR,Kesteren,Neder-Betuwe,Gelderland,STA,5.560793,51.925319
Oude Broekdijk,4,,,4041AR,Kesteren,Neder-Betuwe,Gelderland,VBO,5.560609,51.925300
Oude Broekdijk,5,,,4041AR,Kesteren,Neder-Betuwe,Gelderland,VBO,5.566436,51.924599
Oude Broekdijk,6,,,4041AR,Kesteren,Neder-Betuwe,Gelderland,VBO,5.560449,51.925318
Oude Broekdijk,7,,,4041AR,Kesteren,Neder-Betuwe,Gelderland,VBO,5.564274,51.924548
Oude Broekdijk,8,,,4041AR,Kesteren,Neder-Betuwe,Gelderland,VBO,5.559694,51.925373
Oude Broekdijk,9,a,,4041AR,Kesteren,Neder-Betuwe,Gelderland,VBO,5.562125,51.924822
Oude Broekdijk,9,,,4041AR,Kesteren,Neder-Betuwe,Gelderland,VBO,5.564167,51.924404
Oude Broekdijk,10,,,4041AR,Kesteren,Neder-Betuwe,Gelderland,VBO,5.559257,51.925373
Oude Broekdijk,11,a,,4041AR,Kesteren,Neder-Betuwe,Gelderland,VBO,5.554854,51.923170
Oude Broekdijk,11,,,4041AR,Kesteren,Neder-Betuwe,Gelderland,VBO,5.561407,51.924903
Oude Broekdijk,12,,,4041AR,Kesteren,Neder-Betuwe,Gelderland,VBO,5.558908,51.925329
Oude Broekdijk,13,a,,4041AR,Kesteren,Neder-Betuwe,Gelderland,VBO,5.559504,51.924752
Oude Broekdijk,13,,,4041AR,Kesteren,Neder-Betuwe,Gelderland,VBO,5.560782,51.924949
Oude Broekdijk,14,,,4041AR,Kesteren,Neder-Betuwe,Gelderland,VBO,5.558530,51.925267
Oude Broekdijk,16,,,4041AR,Kesteren,Neder-Betuwe,Gelderland,VBO,5.556958,51.924730
Oude Broekdijk,18,,,4041AR,Kesteren,Neder-Betuwe,Gelderland,VBO,5.555297,51.924191
Schaapsteeg,1,a,,4041AT,Kesteren,Neder-Betuwe,Gelderland,VBO,5.554222,51.927985
Schaapsteeg,1,b,,4041AT,Kesteren,Neder-Betuwe,Gelderland,VBO,5.554373,51.930002
Schaapsteeg,1,c,,4041AT,Kesteren,Neder-Betuwe,Gelderland,VBO,5.554231,51.928327
Schaapsteeg,1,,,4041AT,Kesteren,Neder-Betuwe,Gelderland,VBO,5.554168,51.927393
Schaapsteeg,3,,,4041AT,Kesteren,Neder-Betuwe,Gelderland,VBO,5.554098,51.925875
Schaapsteeg,5,,,4041AT,Kesteren,Neder-Betuwe,Gelderland,VBO,5.555682,51.925693
Schaapsteeg,7,,,4041AT,Kesteren,Neder-Betuwe,Gelderland,VBO,5.554109,51.924958
Schaapsteeg,9,,,4041AT,Kesteren,Neder-Betuwe,Gelderland,VBO,5.554105,51.923763
Schaapsteeg,11,,,4041AT,Kesteren,Neder-Betuwe,Gelderland,VBO,5.554395,51.923421
Rijnbandijk,149,,,4041AV,Kesteren,Neder-Betuwe,Gelderland,VBO,5.595716,51.940630
Rijnbandijk,151,,,4041AV,Kesteren,Neder-Betuwe,Gelderland,VBO,5.590727,51.940432
Rijnbandijk,157,a,,4041AV,Kesteren,Neder-Betuwe,Gelderland,VBO,5.582814,51.938727
Rijnbandijk,157,,,4041AV,Kesteren,Neder-Betuwe,Gelderland,VBO,5.582922,51.938750
Rijnbandijk,159,,,4041AV,Kesteren,Neder-Betuwe,Gelderland,VBO,5.581675,51.938929
Rijnbandijk,161,,,4041AV,Kesteren,Neder-Betuwe,Gelderland,VBO,5.580230,51.937727
Rijnbandijk,163,,,4041AV,Kesteren,Neder-Betuwe,Gelderland,VBO,5.578907,51.937630
Rijnbandijk,167,,,4041AV,Kesteren,Neder-Betuwe,Gelderland,VBO,5.578644,51.937352
Rijnbandijk,169,,,4041AV,Kesteren,Neder-Betuwe,Gelderland,VBO,5.578336,51.936804
Rijnbandijk,171,,,4041AV,Kesteren,Neder-Betuwe,Gelderland,VBO,5.576910,51.936555
Rijnbandijk,173,,,4041AV,Kesteren,Neder-Betuwe,Gelderland,VBO,5.575966,51.936943
Rijnbandijk,175,,,4041AV,Kesteren,Neder-Betuwe,Gelderland,VBO,5.575806,51.936943
Rijnbandijk,181,,,4041AV,Kesteren,Neder-Betuwe,Gelderland,VBO,5.575690,51.936826
Rijnbandijk,187,,,4041AV,Kesteren,Neder-Betuwe,Gelderland,VBO,5.572992,51.935033
Rijnbandijk,195,,,4041AV,Kesteren,Neder-Betuwe,Gelderland,VBO,5.554269,51.932679
Hoge Dijkseweg,3,,,4041AW,Kesteren,Neder-Betuwe,Gelderland,VBO,5.558165,51.940026
Hoge Dijkseweg,5,,,4041AW,Kesteren,Neder-Betuwe,Gelderland,VBO,5.557089,51.940135
Hoge Dijkseweg,7,a,,4041AW,Kesteren,Neder-Betuwe,Gelderland,VBO,5.556555,51.940028
Hoge Dijkseweg,7,,,4041AW,Kesteren,Neder-Betuwe,Gelderland,VBO,5.556202,51.940226
Hoge Dijkseweg,8,,,4041AW,Kesteren,Neder-Betuwe,Gelderland,VBO,5.553733,51.940967
Hoge Dijkseweg,9,a,,4041AW,Kesteren,Neder-Betuwe,Gelderland,VBO,5.555166,51.940250
Hoge Dijkseweg,9,c,,4041AW,Kesteren,Neder-Betuwe,Gelderland,VBO,5.555518,51.940382
Hoge Dijkseweg,9,,,4041AW,Kesteren,Neder-Betuwe,Gelderland,VBO,5.555183,51.940397
Hoge Dijkseweg,10,,,4041AW,Kesteren,Neder-Betuwe,Gelderland,VBO,5.553136,51.940905
Hoge Dijkseweg,11,a,,4041AW,Kesteren,Neder-Betuwe,Gelderland,VBO,5.553877,51.940517
Hoge Dijkseweg,11,,,4041AW,Kesteren,Neder-Betuwe,Gelderland,VBO,5.553353,51.940536
Hoge Dijkseweg,12,,,4041AW,Kesteren,Neder-Betuwe,Gelderland,VBO,5.552467,51.940933
Hoge Dijkseweg,13,,,4041AW,Kesteren,Neder-Betuwe,Gelderland,VBO,5.550308,51.940475
Hoge Dijkseweg,16,,,4041AW,Kesteren,Neder-Betuwe,Gelderland,VBO,5.553085,51.942834
Hoge Dijkseweg,19,,,4041AW,Kesteren,Neder-Betuwe,Gelderland,VBO,5.546052,51.936313
Hoge Dijkseweg,20,,,4041AW,Kesteren,Neder-Betuwe,Gelderland,VBO,5.552790,51.942750
Hoge Dijkseweg,26,,,4041AW,Kesteren,Neder-Betuwe,Gelderland,VBO,5.551681,51.940718
Hoge Dijkseweg,28,,,4041AW,Kesteren,Neder-Betuwe,Gelderland,VBO,5.551216,51.940782
Hoge Dijkseweg,40,,,4041AW,Kesteren,Neder-Betuwe,Gelderland,VBO,5.546544,51.939097
Hoge Dijkseweg,42,,,4041AW,Kesteren,Neder-Betuwe,Gelderland,VBO,5.545694,51.937706
Hoge Dijkseweg,46,,,4041AW,Kesteren,Neder-Betuwe,Gelderland,VBO,5.545358,51.937275
Ganzenweg,5,a,,4041AX,Kesteren,Neder-Betuwe,Gelderland,VBO,5.553910,51.937920
Ganzenweg,5,c,,4041AX,Kesteren,Neder-Betuwe,Gelderland,VBO,5.554216,51.938397
Ganzenweg,5,,,4041AX,Kesteren,Neder-Betuwe,Gelderland,VBO,5.554231,51.938171
Ganzenweg,7,,,4041AX,Kesteren,Neder-Betuwe,Gelderland,VBO,5.555306,51.937900
Ganzenweg,9,,,4041AX,Kesteren,Neder-Betuwe,Gelderland,VBO,5.553895,51.937623
Bosche Dreef,1,,,4041AZ,Kesteren,Neder-Betuwe,Gelderland,VBO,5.559433,51.940869
Bosche Dreef,2,,,4041AZ,Kesteren,Neder-Betuwe,Gelderland,VBO,5.558585,51.943360
Bosche Dreef,8,,,4041AZ,Kesteren,Neder-Betuwe,Gelderland,VBO,5.558412,51.939963
Bosche Dreef,9,a,,4041AZ,Kesteren,Neder-Betuwe,Gelderland,VBO,5.558652,51.937944
Bosche Dreef,9,,,4041AZ,Kesteren,Neder-Betuwe,Gelderland,VBO,5.558646,51.937871
Bosche Dreef,10,a,,4041AZ,Kesteren,Neder-Betuwe,Gelderland,VBO,5.558278,51.939100
Bosche Dreef,10,b,,4041AZ,Kesteren,Neder-Betuwe,Gelderland,VBO,5.558289,51.938747
Bosche Dreef,10,,,4041AZ,Kesteren,Neder-Betuwe,Gelderland,VBO,5.558278,51.939190
Bosche Dreef,13,,,4041AZ,Kesteren,Neder-Betuwe,Gelderland,VBO,5.558384,51.936538
Bosche Dreef,14,a,,4041AZ,Kesteren,Neder-Betuwe,Gelderland,VBO,5.552088,51.936550
Bosche Dreef,14,,,4041AZ,Kesteren,Neder-Betuwe,Gelderland,VBO,5.552412,51.936448
Bosche Dreef,16,,,4041AZ,Kesteren,Neder-Betuwe,Gelderland,VBO,5.557625,51.935793
Bosche Dreef,18,,,4041AZ,Kesteren,Neder-Betuwe,Gelderland,VBO,5.557593,51.935092
Betuwestraatweg,1,,,4041BA,Kesteren,Neder-Betuwe,Gelderland,VBO,5.561385,51.934279
Betuwestraatweg,6,,,4041BA,Kesteren,Neder-Betuwe,Gelderland,VBO,5.561973,51.935742
Betuwestraatweg,14,,,4041BA,Kesteren,Neder-Betuwe,Gelderland,VBO,5.554220,51.935115
Klaverhof,1,a,,4041BC,Kesteren,Neder-Betuwe,Gelderland,VBO,5.569644,51.933823
Klaverhof,1,b,,4041BC,Kesteren,Neder-Betuwe,Gelderland,VBO,5.569633,51.933801
Klaverhof,1,c,,4041BC,Kesteren,Neder-Betuwe,Gelderland,VBO,5.569634,51.933776
Klaverhof,1,d,,4041BC,Kesteren,Neder-Betuwe,Gelderland,VBO,5.569631,51.933749
Klaverhof,1,e,,4041BC,Kesteren,Neder-Betuwe,Gelderland,VBO,5.569634,51.933720
Klaverhof,1,f,,4041BC,Kesteren,Neder-Betuwe,Gelderland,VBO,5.569640,51.933696
Klaverhof,1,,,4041BC,Kesteren,Neder-Betuwe,Gelderland,VBO,5.569527,51.933987
Klaverhof,3,,,4041BC,Kesteren,Neder-Betuwe,Gelderland,VBO,5.569469,51.933987
Klaverhof,5,,,4041BC,Kesteren,Neder-Betuwe,Gelderland,VBO,5.569382,51.933987
Klaverhof,7,,,4041BC,Kesteren,Neder-Betuwe,Gelderland,VBO,5.569309,51.934023
Klaverhof,9,,,4041BC,Kesteren,Neder-Betuwe,Gelderland,VBO,5.569236,51.934023
Klaverhof,11,,,4041BC,Kesteren,Neder-Betuwe,Gelderland,VBO,5.569135,51.934023
Klaverhof,13,a,,4041BC,Kesteren,Neder-Betuwe,Gelderland,VBO,5.568989,51.934023
Klaverhof,13,,,4041BC,Kesteren,Neder-Betuwe,Gelderland,VBO,5.569062,51.934023
Klaverhof,15,,,4041BC,Kesteren,Neder-Betuwe,Gelderland,VBO,5.569514,51.934247
Klaverhof,17,,,4041BC,Kesteren,Neder-Betuwe,Gelderland,VBO,5.569530,51.934316
Klaverhof,19,,,4041BC,Kesteren,Neder-Betuwe,Gelderland,VBO,5.569524,51.934389
Klaverhof,21,,,4041BC,Kesteren,Neder-Betuwe,Gelderland,VBO,5.569514,51.934445
Klaverhof,23,,,4041BC,Kesteren,Neder-Betuwe,Gelderland,VBO,5.569064,51.934446
Klaverhof,25,,,4041BC,Kesteren,Neder-Betuwe,Gelderland,VBO,5.569080,51.934403
Klaverhof,27,,,4041BC,Kesteren,Neder-Betuwe,Gelderland,VBO,5.569078,51.934350
Klaverhof,29,,,4041BC,Kesteren,Neder-Betuwe,Gelderland,VBO,5.569081,51.934283
Klaverhof,31,,,4041BC,Kesteren,Neder-Betuwe,Gelderland,VBO,5.569063,51.934230
Klaverhof,33,a,,4041BC,Kesteren,Neder-Betuwe,Gelderland,VBO,5.568593,51.934482
Klaverhof,33,b,,4041BC,Kesteren,Neder-Betuwe,Gelderland,VBO,5.568646,51.934514
Klaverhof,33,c,,4041BC,Kesteren,Neder-Betuwe,Gelderland,VBO,5.568685,51.934482
Klaverhof,33,d,,4041BC,Kesteren,Neder-Betuwe,Gelderland,VBO,5.568732,51.934517
Klaverhof,33,e,,4041BC,Kesteren,Neder-Betuwe,Gelderland,VBO,5.568776,51.934483
Klaverhof,33,f,,4041BC,Kesteren,Neder-Betuwe,Gelderland,VBO,5.568807,51.934519
Klaverhof,33,,,4041BC,Kesteren,Neder-Betuwe,Gelderland,VBO,5.568627,51.934428
Klaverhof,35,,,4041BC,Kesteren,Neder-Betuwe,Gelderland,VBO,5.568633,51.934386
Klaverhof,37,,,4041BC,Kesteren,Neder-Betuwe,Gelderland,VBO,5.568643,51.934337
Klaverhof,39,,,4041BC,Kesteren,Neder-Betuwe,Gelderland,VBO,5.568651,51.934275
Klaverhof,41,,,4041BD,Kesteren,Neder-Betuwe,Gelderland,VBO,5.568655,51.934213
Klaverhof,43,,,4041BD,Kesteren,Neder-Betuwe,Gelderland,VBO,5.569457,51.934706
Klaverhof,45,,,4041BD,Kesteren,Neder-Betuwe,Gelderland,VBO,5.569355,51.934688
Klaverhof,47,,,4041BD,Kesteren,Neder-Betuwe,Gelderland,VBO,5.569296,51.934697
Klaverhof,49,,,4041BD,Kesteren,Neder-Betuwe,Gelderland,VBO,5.569202,51.934688
Klaverhof,51,,,4041BD,Kesteren,Neder-Betuwe,Gelderland,VBO,5.569123,51.934688
Klaverhof,53,,,4041BD,Kesteren,Neder-Betuwe,Gelderland,VBO,5.568832,51.934707
Klaverhof,55,,,4041BD,Kesteren,Neder-Betuwe,Gelderland,VBO,5.568818,51.934779
Klaverhof,57,,,4041BD,Kesteren,Neder-Betuwe,Gelderland,VBO,5.568803,51.934833
Klaverhof,59,,,4041BD,Kesteren,Neder-Betuwe,Gelderland,VBO,5.568775,51.934896
Klaverhof,61,,,4041BD,Kesteren,Neder-Betuwe,Gelderland,VBO,5.568396,51.934681
Klaverhof,63,,,4041BD,Kesteren,Neder-Betuwe,Gelderland,VBO,5.568323,51.934681
Klaverhof,65,,,4041BD,Kesteren,Neder-Betuwe,Gelderland,VBO,5.568221,51.934681
Klaverhof,67,,,4041BD,Kesteren,Neder-Betuwe,Gelderland,VBO,5.568119,51.934663
Klaverhof,69,,,4041BD,Kesteren,Neder-Betuwe,Gelderland,VBO,5.567959,51.934663
Klaverhof,71,,,4041BD,Kesteren,Neder-Betuwe,Gelderland,VBO,5.569458,51.934984
Klaverhof,73,,,4041BD,Kesteren,Neder-Betuwe,Gelderland,VBO,5.569327,51.934985
Klaverhof,75,,,4041BD,Kesteren,Neder-Betuwe,Gelderland,VBO,5.569255,51.934985
Klaverhof,77,,,4041BD,Kesteren,Neder-Betuwe,Gelderland,VBO,5.569168,51.934976
Klaverhof,79,,,4041BD,Kesteren,Neder-Betuwe,Gelderland,VBO,5.569095,51.934976
Klaverhof,2,,,4041BE,Kesteren,Neder-Betuwe,Gelderland,VBO,5.569872,51.932961
Klaverhof,4,,,4041BE,Kesteren,Neder-Betuwe,Gelderland,VBO,5.569872,51.933042
Klaverhof,6,,,4041BE,Kesteren,Neder-Betuwe,Gelderland,VBO,5.569873,51.933204
Klaverhof,8,,,4041BE,Kesteren,Neder-Betuwe,Gelderland,VBO,5.569888,51.933285
Klaverhof,18,,,4041BE,Kesteren,Neder-Betuwe,Gelderland,VBO,5.569991,51.933734
Klaverhof,20,,,4041BE,Kesteren,Neder-Betuwe,Gelderland,VBO,5.569992,51.933806
Klaverhof,22,,,4041BE,Kesteren,Neder-Betuwe,Gelderland,VBO,5.569948,51.933914
Klaverhof,24,,,4041BE,Kesteren,Neder-Betuwe,Gelderland,VBO,5.569978,51.933986
Klaverhof,26,,,4041BE,Kesteren,Neder-Betuwe,Gelderland,VBO,5.569993,51.934040
Klaverhof,28,,,4041BE,Kesteren,Neder-Betuwe,Gelderland,VBO,5.569949,51.934085
Klaverhof,30,,,4041BE,Kesteren,Neder-Betuwe,Gelderland,VBO,5.569949,51.934157
Klaverhof,32,,,4041BE,Kesteren,Neder-Betuwe,Gelderland,VBO,5.570008,51.934265
Klaverhof,34,,,4041BE,Kesteren,Neder-Betuwe,Gelderland,VBO,5.570008,51.934318
Klaverhof,36,,,4041BE,Kesteren,Neder-Betuwe,Gelderland,VBO,5.570009,51.934399
Klaverhof,38,,,4041BE,Kesteren,Neder-Betuwe,Gelderland,VBO,5.569994,51.934453
Klaverhof,40,,,4041BG,Kesteren,Neder-Betuwe,Gelderland,VBO,5.569994,51.934489
Klaverhof,42,,,4041BG,Kesteren,Neder-Betuwe,Gelderland,VBO,5.569980,51.934552
Klaverhof,44,,,4041BG,Kesteren,Neder-Betuwe,Gelderland,VBO,5.569937,51.934741
Klaverhof,46,,,4041BG,Kesteren,Neder-Betuwe,Gelderland,VBO,5.570010,51.934741
Klaverhof,48,,,4041BG,Kesteren,Neder-Betuwe,Gelderland,VBO,5.570097,51.934750
Klaverhof,50,,,4041BG,Kesteren,Neder-Betuwe,Gelderland,VBO,5.570170,51.934750
Klaverhof,52,,,4041BG,Kesteren,Neder-Betuwe,Gelderland,VBO,5.570273,51.934883
Klaverhof,54,,,4041BG,Kesteren,Neder-Betuwe,Gelderland,VBO,5.570262,51.934938
Klaverhof,56,,,4041BG,Kesteren,Neder-Betuwe,Gelderland,VBO,5.570258,51.934992
Klaverhof,58,,,4041BG,Kesteren,Neder-Betuwe,Gelderland,VBO,5.570262,51.935053
Klaverhof,60,,,4041BG,Kesteren,Neder-Betuwe,Gelderland,VBO,5.570267,51.935108
Klaverhof,62,,,4041BG,Kesteren,Neder-Betuwe,Gelderland,VBO,5.570244,51.935136
Tollenhof,1,,,4041BH,Kesteren,Neder-Betuwe,Gelderland,VBO,5.566400,51.933704
Tollenhof,9,,,4041BH,Kesteren,Neder-Betuwe,Gelderland,VBO,5.567053,51.933397
Tollenhof,11,,,4041BH,Kesteren,Neder-Betuwe,Gelderland,VBO,5.567256,51.933325
Tollenhof,13,,,4041BH,Kesteren,Neder-Betuwe,Gelderland,VBO,5.567431,51.933352
Tollenhof,15,,,4041BH,Kesteren,Neder-Betuwe,Gelderland,VBO,5.567388,51.933514
Tollenhof,17,,,4041BH,Kesteren,Neder-Betuwe,Gelderland,VBO,5.567406,51.933578
Tollenhof,19,,,4041BH,Kesteren,Neder-Betuwe,Gelderland,VBO,5.567403,51.933621
Tollenhof,21,,,4041BH,Kesteren,Neder-Betuwe,Gelderland,VBO,5.567410,51.933687
Tollenhof,23,,,4041BH,Kesteren,Neder-Betuwe,Gelderland,VBO,5.567403,51.933744
Tollenhof,25,,,4041BH,Kesteren,Neder-Betuwe,Gelderland,VBO,5.567374,51.933801
Tollenhof,27,,,4041BH,Kesteren,Neder-Betuwe,Gelderland,VBO,5.567389,51.933846
Tollenhof,29,,,4041BH,Kesteren,Neder-Betuwe,Gelderland,VBO,5.567084,51.933919
Tollenhof,31,,,4041BH,Kesteren,Neder-Betuwe,Gelderland,VBO,5.567018,51.933951
Tollenhof,33,,,4041BH,Kesteren,Neder-Betuwe,Gelderland,VBO,5.566940,51.933990
Tollenhof,35,,,4041BH,Kesteren,Neder-Betuwe,Gelderland,VBO,5.566881,51.934009
Tollenhof,37,,,4041BH,Kesteren,Neder-Betuwe,Gelderland,VBO,5.566817,51.934059
Tollenhof,39,,,4041BH,Kesteren,Neder-Betuwe,Gelderland,VBO,5.566736,51.934081
Tollenhof,41,,,4041BH,Kesteren,Neder-Betuwe,Gelderland,VBO,5.566663,51.934108
Tollenhof,43,,,4041BH,Kesteren,Neder-Betuwe,Gelderland,VBO,5.566590,51.934153
Tollenhof,45,,,4041BH,Kesteren,Neder-Betuwe,Gelderland,VBO,5.567056,51.934233
Tollenhof,47,,,4041BH,Kesteren,Neder-Betuwe,Gelderland,VBO,5.567107,51.934279
Tollenhof,49,,,4041BH,Kesteren,Neder-Betuwe,Gelderland,VBO,5.567156,51.934322
Tollenhof,51,a,,4041BH,Kesteren,Neder-Betuwe,Gelderland,VBO,5.567189,51.934484
Tollenhof,51,b,,4041BH,Kesteren,Neder-Betuwe,Gelderland,VBO,5.567240,51.934493
Tollenhof,51,c,,4041BH,Kesteren,Neder-Betuwe,Gelderland,VBO,5.567265,51.934512
Tollenhof,51,d,,4041BH,Kesteren,Neder-Betuwe,Gelderland,VBO,5.567310,51.934523
Tollenhof,51,e,,4041BH,Kesteren,Neder-Betuwe,Gelderland,VBO,5.567339,51.934541
Tollenhof,51,,,4041BH,Kesteren,Neder-Betuwe,Gelderland,VBO,5.567203,51.934362
Tollenhof,2,,,4041BJ,Kesteren,Neder-Betuwe,Gelderland,VBO,5.566223,51.933075
Tollenhof,4,,,4041BJ,Kesteren,Neder-Betuwe,Gelderland,VBO,5.566383,51.933057
Tollenhof,6,,,4041BJ,Kesteren,Neder-Betuwe,Gelderland,VBO,5.566557,51.933101
Tollenhof,8,,,4041BJ,Kesteren,Neder-Betuwe,Gelderland,VBO,5.566761,51.933191
Tollenhof,10,,,4041BJ,Kesteren,Neder-Betuwe,Gelderland,VBO,5.566906,51.933110
Tollenhof,12,,,4041BJ,Kesteren,Neder-Betuwe,Gelderland,VBO,5.567037,51.933029
Tollenhof,14,,,4041BJ,Kesteren,Neder-Betuwe,Gelderland,VBO,5.567284,51.933010
Tollenhof,16,,,4041BJ,Kesteren,Neder-Betuwe,Gelderland,VBO,5.567444,51.933037
Tollenhof,18,,,4041BJ,Kesteren,Neder-Betuwe,Gelderland,VBO,5.567706,51.933073
Tollenhof,20,a,,4041BJ,Kesteren,Neder-Betuwe,Gelderland,VBO,5.567837,51.933225
Tollenhof,20,,,4041BJ,Kesteren,Neder-Betuwe,Gelderland,VBO,5.567895,51.933099
Tollenhof,22,a,,4041BJ,Kesteren,Neder-Betuwe,Gelderland,VBO,5.567909,51.933328
Tollenhof,22,,,4041BJ,Kesteren,Neder-Betuwe,Gelderland,VBO,5.567835,51.933426
Tollenhof,24,a,,4041BJ,Kesteren,Neder-Betuwe,Gelderland,VBO,5.568013,51.933639
Tollenhof,24,,,4041BJ,Kesteren,Neder-Betuwe,Gelderland,VBO,5.567842,51.933680
Tollenhof,26,,,4041BJ,Kesteren,Neder-Betuwe,Gelderland,VBO,5.567833,51.933733
Tollenhof,28,,,4041BJ,Kesteren,Neder-Betuwe,Gelderland,VBO,5.567831,51.933793
Tollenhof,30,,,4041BJ,Kesteren,Neder-Betuwe,Gelderland,VBO,5.567816,51.933846
Tollenhof,32,,,4041BJ,Kesteren,Neder-Betuwe,Gelderland,VBO,5.567850,51.933912
Tollenhof,34,,,4041BJ,Kesteren,Neder-Betuwe,Gelderland,VBO,5.567838,51.934127
Tollenhof,36,,,4041BJ,Kesteren,Neder-Betuwe,Gelderland,VBO,5.567938,51.934127
Tollenhof,38,,,4041BJ,Kesteren,Neder-Betuwe,Gelderland,VBO,5.568039,51.934140
Tollenhof,40,,,4041BJ,Kesteren,Neder-Betuwe,Gelderland,VBO,5.568122,51.934145
Tollenhof,42,,,4041BJ,Kesteren,Neder-Betuwe,Gelderland,VBO,5.568204,51.934133
Tollenhof,44,,,4041BJ,Kesteren,Neder-Betuwe,Gelderland,VBO,5.568309,51.934137
Tollenhof,46,a,,4041BJ,Kesteren,Neder-Betuwe,Gelderland,VBO,5.567727,51.934406
Tollenhof,46,b,,4041BJ,Kesteren,Neder-Betuwe,Gelderland,VBO,5.567733,51.934378
Tollenhof,46,c,,4041BJ,Kesteren,Neder-Betuwe,Gelderland,VBO,5.567715,51.934355
Tollenhof,46,d,,4041BJ,Kesteren,Neder-Betuwe,Gelderland,VBO,5.567719,51.934332
Tollenhof,46,e,,4041BJ,Kesteren,Neder-Betuwe,Gelderland,VBO,5.567716,51.934304
Tollenhof,46,f,,4041BJ,Kesteren,Neder-Betuwe,Gelderland,VBO,5.567735,51.934276
Tollenhof,46,,,4041BJ,Kesteren,Neder-Betuwe,Gelderland,VBO,5.567786,51.934401
Tollenhof,48,,,4041BJ,Kesteren,Neder-Betuwe,Gelderland,VBO,5.567904,51.934413
Tollenhof,50,,,4041BJ,Kesteren,Neder-Betuwe,Gelderland,VBO,5.567987,51.934422
Tollenhof,52,,,4041BJ,Kesteren,Neder-Betuwe,Gelderland,VBO,5.568108,51.934411
Tollenhof,54,,,4041BJ,Kesteren,Neder-Betuwe,Gelderland,VBO,5.568203,51.934406
Tollenhof,56,,,4041BJ,Kesteren,Neder-Betuwe,Gelderland,VBO,5.568274,51.934418
Schuilenburg,1,,,4041BK,Kesteren,Neder-Betuwe,Gelderland,VBO,5.534744,51.943099
Schuilenburg,2,,,4041BK,Kesteren,Neder-Betuwe,Gelderland,VBO,5.534137,51.943357
Schuilenburg,3,,,4041BK,Kesteren,Neder-Betuwe,Gelderland,VBO,5.535149,51.942353
Prinsenhof,1,,,4041BM,Kesteren,Neder-Betuwe,Gelderland,VBO,5.569408,51.933367
Prinsenhof,3,,,4041BM,Kesteren,Neder-Betuwe,Gelderland,VBO,5.569234,51.933412
Prinsenhof,5,,,4041BM,Kesteren,Neder-Betuwe,Gelderland,VBO,5.569118,51.933412
Prinsenhof,7,,,4041BM,Kesteren,Neder-Betuwe,Gelderland,VBO,5.568929,51.933421
Prinsenhof,9,,,4041BM,Kesteren,Neder-Betuwe,Gelderland,VBO,5.568812,51.933413
Prinsenhof,11,,,4041BM,Kesteren,Neder-Betuwe,Gelderland,VBO,5.568638,51.933413
Prinsenhof,13,,,4041BM,Kesteren,Neder-Betuwe,Gelderland,VBO,5.568521,51.933404
Prinsenhof,15,,,4041BM,Kesteren,Neder-Betuwe,Gelderland,VBO,5.568347,51.933404
Prinsenhof,17,,,4041BM,Kesteren,Neder-Betuwe,Gelderland,VBO,5.568231,51.933404
Prinsenhof,2,,,4041BN,Kesteren,Neder-Betuwe,Gelderland,VBO,5.570413,51.933635
Prinsenhof,4,,,4041BN,Kesteren,Neder-Betuwe,Gelderland,VBO,5.570311,51.933599
Prinsenhof,6,,,4041BN,Kesteren,Neder-Betuwe,Gelderland,VBO,5.570092,51.933572
Prinsenhof,8,,,4041BN,Kesteren,Neder-Betuwe,Gelderland,VBO,5.569962,51.933564
Prinsenhof,10,,,4041BN,Kesteren,Neder-Betuwe,Gelderland,VBO,5.569555,51.933708
Prinsenhof,12,,,4041BN,Kesteren,Neder-Betuwe,Gelderland,VBO,5.569497,51.933717
Prinsenhof,14,,,4041BN,Kesteren,Neder-Betuwe,Gelderland,VBO,5.569380,51.933708
Prinsenhof,16,,,4041BN,Kesteren,Neder-Betuwe,Gelderland,VBO,5.569308,51.933717
Prinsenhof,18,,,4041BN,Kesteren,Neder-Betuwe,Gelderland,VBO,5.569192,51.933727
Prinsenhof,20,,,4041BN,Kesteren,Neder-Betuwe,Gelderland,VBO,5.569104,51.933727
Prinsenhof,22,,,4041BN,Kesteren,Neder-Betuwe,Gelderland,VBO,5.569017,51.933727
Prinsenhof,24,,,4041BN,Kesteren,Neder-Betuwe,Gelderland,VBO,5.568653,51.933682
Prinsenhof,26,,,4041BN,Kesteren,Neder-Betuwe,Gelderland,VBO,5.568639,51.933745
Prinsenhof,28,,,4041BN,Kesteren,Neder-Betuwe,Gelderland,VBO,5.568668,51.933799
Prinsenhof,30,,,4041BN,Kesteren,Neder-Betuwe,Gelderland,VBO,5.568654,51.933871
Prinsenhof,32,,,4041BN,Kesteren,Neder-Betuwe,Gelderland,VBO,5.568669,51.933925
Prinsenhof,34,a,,4041BN,Kesteren,Neder-Betuwe,Gelderland,VBO,5.568305,51.933632
Prinsenhof,34,b,,4041BN,Kesteren,Neder-Betuwe,Gelderland,VBO,5.568265,51.933626
Prinsenhof,34,c,,4041BN,Kesteren,Neder-Betuwe,Gelderland,VBO,5.568226,51.933624
Prinsenhof,34,d,,4041BN,Kesteren,Neder-Betuwe,Gelderland,VBO,5.568183,51.933625
Prinsenhof,34,e,,4041BN,Kesteren,Neder-Betuwe,Gelderland,VBO,5.568143,51.933624
Prinsenhof,34,f,,4041BN,Kesteren,Neder-Betuwe,Gelderland,VBO,5.568096,51.933630
Prinsenhof,34,,,4041BN,Kesteren,Neder-Betuwe,Gelderland,VBO,5.568319,51.933683
Prinsenhof,36,,,4041BN,Kesteren,Neder-Betuwe,Gelderland,VBO,5.568290,51.933737
Prinsenhof,38,,,4041BN,Kesteren,Neder-Betuwe,Gelderland,VBO,5.568276,51.933800
Prinsenhof,40,,,4041BN,Kesteren,Neder-Betuwe,Gelderland,VBO,5.568276,51.933863
Prinsenhof,42,,,4041BN,Kesteren,Neder-Betuwe,Gelderland,VBO,5.568233,51.933917
Craaienhof,1,,,4041BP,Kesteren,Neder-Betuwe,Gelderland,VBO,5.564649,51.932259
Craaienhof,3,,,4041BP,Kesteren,Neder-Betuwe,Gelderland,VBO,5.564751,51.932295
Craaienhof,5,,,4041BP,Kesteren,Neder-Betuwe,Gelderland,VBO,5.564620,51.932322
Craaienhof,7,,,4041BP,Kesteren,Neder-Betuwe,Gelderland,VBO,5.564708,51.932349
Craaienhof,9,,,4041BP,Kesteren,Neder-Betuwe,Gelderland,VBO,5.564635,51.932367
Craaienhof,11,,,4041BP,Kesteren,Neder-Betuwe,Gelderland,VBO,5.564577,51.932385
Craaienhof,13,,,4041BP,Kesteren,Neder-Betuwe,Gelderland,VBO,5.564607,51.932628
Craaienhof,15,,,4041BP,Kesteren,Neder-Betuwe,Gelderland,VBO,5.564535,51.932700
Craaienhof,17,,,4041BP,Kesteren,Neder-Betuwe,Gelderland,VBO,5.564535,51.932754
Craaienhof,19,,,4041BP,Kesteren,Neder-Betuwe,Gelderland,VBO,5.564521,51.932844
Craaienhof,21,,,4041BP,Kesteren,Neder-Betuwe,Gelderland,VBO,5.564420,51.933096
Craaienhof,23,,,4041BP,Kesteren,Neder-Betuwe,Gelderland,VBO,5.564376,51.933150
Craaienhof,25,,,4041BP,Kesteren,Neder-Betuwe,Gelderland,VBO,5.564333,51.933240
Craaienhof,27,,,4041BP,Kesteren,Neder-Betuwe,Gelderland,VBO,5.564319,51.933303
Craaienhof,29,,,4041BP,Kesteren,Neder-Betuwe,Gelderland,VBO,5.564261,51.933401
Craaienhof,31,,,4041BP,Kesteren,Neder-Betuwe,Gelderland,VBO,5.564247,51.933455
Craaienhof,33,,,4041BP,Kesteren,Neder-Betuwe,Gelderland,VBO,5.564189,51.933527
Craaienhof,35,,,4041BP,Kesteren,Neder-Betuwe,Gelderland,VBO,5.564204,51.933617
Craaienhof,37,,,4041BR,Kesteren,Neder-Betuwe,Gelderland,VBO,5.565499,51.933840
Craaienhof,39,,,4041BR,Kesteren,Neder-Betuwe,Gelderland,VBO,5.565528,51.933795
Craaienhof,41,,,4041BR,Kesteren,Neder-Betuwe,Gelderland,VBO,5.565527,51.933732
Craaienhof,43,,,4041BR,Kesteren,Neder-Betuwe,Gelderland,VBO,5.565556,51.933669
Craaienhof,45,,,4041BR,Kesteren,Neder-Betuwe,Gelderland,VBO,5.565585,51.933588
Craaienhof,47,,,4041BR,Kesteren,Neder-Betuwe,Gelderland,VBO,5.565614,51.933534
Craaienhof,49,,,4041BR,Kesteren,Neder-Betuwe,Gelderland,VBO,5.565643,51.933480
Craaienhof,51,,,4041BR,Kesteren,Neder-Betuwe,Gelderland,VBO,5.565672,51.933426
Craaienhof,53,,,4041BR,Kesteren,Neder-Betuwe,Gelderland,VBO,5.565686,51.933363
Craaienhof,55,,,4041BR,Kesteren,Neder-Betuwe,Gelderland,VBO,5.565729,51.933318
Craaienhof,57,,,4041BR,Kesteren,Neder-Betuwe,Gelderland,VBO,5.565830,51.933103
Craaienhof,59,,,4041BR,Kesteren,Neder-Betuwe,Gelderland,VBO,5.565859,51.933040
Craaienhof,61,,,4041BR,Kesteren,Neder-Betuwe,Gelderland,VBO,5.565873,51.932986
Craaienhof,63,,,4041BR,Kesteren,Neder-Betuwe,Gelderland,VBO,5.565888,51.932932
Craaienhof,65,,,4041BR,Kesteren,Neder-Betuwe,Gelderland,VBO,5.565902,51.932878
Craaienhof,67,,,4041BR,Kesteren,Neder-Betuwe,Gelderland,VBO,5.565916,51.932815
Craaienhof,69,,,4041BS,Kesteren,Neder-Betuwe,Gelderland,VBO,5.565401,51.932620
Craaienhof,71,,,4041BS,Kesteren,Neder-Betuwe,Gelderland,VBO,5.565499,51.932625
Craaienhof,73,,,4041BS,Kesteren,Neder-Betuwe,Gelderland,VBO,5.565598,51.932632
Craaienhof,75,,,4041BS,Kesteren,Neder-Betuwe,Gelderland,VBO,5.565407,51.932580
Craaienhof,77,,,4041BS,Kesteren,Neder-Betuwe,Gelderland,VBO,5.565512,51.932590
Craaienhof,79,,,4041BS,Kesteren,Neder-Betuwe,Gelderland,VBO,5.565611,51.932596
Craaienhof,81,,,4041BS,Kesteren,Neder-Betuwe,Gelderland,VBO,5.565417,51.932539
Craaienhof,83,,,4041BS,Kesteren,Neder-Betuwe,Gelderland,VBO,5.565526,51.932549
Craaienhof,85,,,4041BS,Kesteren,Neder-Betuwe,Gelderland,VBO,5.565422,51.932502
Craaienhof,87,,,4041BS,Kesteren,Neder-Betuwe,Gelderland,VBO,5.565538,51.932508
Craaienhof,89,,,4041BS,Kesteren,Neder-Betuwe,Gelderland,VBO,5.565423,51.932466
Craaienhof,91,,,4041BS,Kesteren,Neder-Betuwe,Gelderland,VBO,5.565543,51.932473
Craaienhof,93,,,4041BS,Kesteren,Neder-Betuwe,Gelderland,VBO,5.565508,51.932438
Craaienhof,95,,,4041BS,Kesteren,Neder-Betuwe,Gelderland,VBO,5.565609,51.932446
Craaienhof,2,,,4041BT,Kesteren,Neder-Betuwe,Gelderland,VBO,5.565029,51.932753
Craaienhof,4,,,4041BT,Kesteren,Neder-Betuwe,Gelderland,VBO,5.565000,51.932807
Craaienhof,6,,,4041BT,Kesteren,Neder-Betuwe,Gelderland,VBO,5.564957,51.932861
Craaienhof,8,,,4041BT,Kesteren,Neder-Betuwe,Gelderland,VBO,5.564928,51.932910
Craaienhof,10,,,4041BT,Kesteren,Neder-Betuwe,Gelderland,VBO,5.565010,51.932962
Craaienhof,12,,,4041BT,Kesteren,Neder-Betuwe,Gelderland,VBO,5.564944,51.932971
Craaienhof,14,,,4041BT,Kesteren,Neder-Betuwe,Gelderland,VBO,5.564921,51.933175
Craaienhof,16,,,4041BT,Kesteren,Neder-Betuwe,Gelderland,VBO,5.564841,51.933164
Craaienhof,18,,,4041BT,Kesteren,Neder-Betuwe,Gelderland,VBO,5.564796,51.933216
Craaienhof,20,,,4041BT,Kesteren,Neder-Betuwe,Gelderland,VBO,5.564775,51.933276
Craaienhof,22,,,4041BT,Kesteren,Neder-Betuwe,Gelderland,VBO,5.564750,51.933333
Craaienhof,24,,,4041BT,Kesteren,Neder-Betuwe,Gelderland,VBO,5.564738,51.933395
Craaienhof,26,,,4041BT,Kesteren,Neder-Betuwe,Gelderland,VBO,5.564727,51.933455
Craaienhof,28,,,4041BT,Kesteren,Neder-Betuwe,Gelderland,VBO,5.564712,51.933491
Craaienhof,30,,,4041BT,Kesteren,Neder-Betuwe,Gelderland,VBO,5.564698,51.933527
Craaienhof,32,,,4041BV,Kesteren,Neder-Betuwe,Gelderland,VBO,5.565134,51.933607
Craaienhof,34,,,4041BV,Kesteren,Neder-Betuwe,Gelderland,VBO,5.565163,51.933565
Craaienhof,36,,,4041BV,Kesteren,Neder-Betuwe,Gelderland,VBO,5.565177,51.933508
Craaienhof,38,,,4041BV,Kesteren,Neder-Betuwe,Gelderland,VBO,5.565206,51.933463
Craaienhof,40,,,4041BV,Kesteren,Neder-Betuwe,Gelderland,VBO,5.565247,51.933404
Craaienhof,42,,,4041BV,Kesteren,Neder-Betuwe,Gelderland,VBO,5.565286,51.933366
Craaienhof,44,,,4041BV,Kesteren,Neder-Betuwe,Gelderland,VBO,5.565303,51.933308
Craaienhof,46,,,4041BV,Kesteren,Neder-Betuwe,Gelderland,VBO,5.565239,51.933213
Craaienhof,48,,,4041BV,Kesteren,Neder-Betuwe,Gelderland,VBO,5.565221,51.933232
Craaienhof,50,,,4041BV,Kesteren,Neder-Betuwe,Gelderland,VBO,5.565374,51.933040
Craaienhof,52,,,4041BV,Kesteren,Neder-Betuwe,Gelderland,VBO,5.565270,51.933051
Craaienhof,54,,,4041BV,Kesteren,Neder-Betuwe,Gelderland,VBO,5.565454,51.932986
Craaienhof,56,,,4041BV,Kesteren,Neder-Betuwe,Gelderland,VBO,5.565458,51.932941
Craaienhof,58,,,4041BV,Kesteren,Neder-Betuwe,Gelderland,VBO,5.565466,51.932878
Craaienhof,60,,,4041BV,Kesteren,Neder-Betuwe,Gelderland,VBO,5.565480,51.932824
Schenkhofstraat,1,,,4041CA,Kesteren,Neder-Betuwe,Gelderland,VBO,5.575180,51.933124
Schenkhofstraat,2,a,,4041CA,Kesteren,Neder-Betuwe,Gelderland,VBO,5.575193,51.932845
Schenkhofstraat,2,b,,4041CA,Kesteren,Neder-Betuwe,Gelderland,VBO,5.575280,51.932854
Schenkhofstraat,2,,,4041CA,Kesteren,Neder-Betuwe,Gelderland,VBO,5.575513,51.932782
Schenkhofstraat,3,,,4041CA,Kesteren,Neder-Betuwe,Gelderland,VBO,5.575340,51.933124
Schenkhofstraat,4,,,4041CA,Kesteren,Neder-Betuwe,Gelderland,VBO,5.575978,51.932718
Schenkhofstraat,5,,,4041CA,Kesteren,Neder-Betuwe,Gelderland,VBO,5.576256,51.933104
Schenkhofstraat,6,a,,4041CA,Kesteren,Neder-Betuwe,Gelderland,VBO,5.576806,51.932636
Schenkhofstraat,6,,,4041CA,Kesteren,Neder-Betuwe,Gelderland,VBO,5.576544,51.932618
Schenkhofstraat,7,,,4041CA,Kesteren,Neder-Betuwe,Gelderland,VBO,5.576357,51.933109
Schenkhofstraat,9,,,4041CA,Kesteren,Neder-Betuwe,Gelderland,VBO,5.576459,51.933113
Schenkhofstraat,10,,,4041CA,Kesteren,Neder-Betuwe,Gelderland,VBO,5.577898,51.932868
Schenkhofstraat,11,,,4041CA,Kesteren,Neder-Betuwe,Gelderland,VBO,5.578336,51.933334
Schenkhofstraat,12,,,4041CA,Kesteren,Neder-Betuwe,Gelderland,VBO,5.578029,51.932877
Schenkhofstraat,13,,,4041CA,Kesteren,Neder-Betuwe,Gelderland,VBO,5.578743,51.933397
Schenkhofstraat,15,,,4041CA,Kesteren,Neder-Betuwe,Gelderland,VBO,5.578772,51.933379
Schenkhofstraat,17,,,4041CA,Kesteren,Neder-Betuwe,Gelderland,VBO,5.578743,51.933361
Schenkhofstraat,19,,,4041CA,Kesteren,Neder-Betuwe,Gelderland,VBO,5.577974,51.933641
Schenkhofstraat,21,,,4041CA,Kesteren,Neder-Betuwe,Gelderland,VBO,5.578003,51.933623
Schenkhofstraat,23,,,4041CA,Kesteren,Neder-Betuwe,Gelderland,VBO,5.577973,51.933605
Schenkhofstraat,25,,,4041CA,Kesteren,Neder-Betuwe,Gelderland,VBO,5.577944,51.933623
Schenkhofstraat,27,,,4041CA,Kesteren,Neder-Betuwe,Gelderland,VBO,5.577974,51.933650
Schenkhofstraat,29,,,4041CA,Kesteren,Neder-Betuwe,Gelderland,VBO,5.578003,51.933641
Schenkhofstraat,31,,,4041CA,Kesteren,Neder-Betuwe,Gelderland,VBO,5.578017,51.933623
Schenkhofstraat,33,,,4041CA,Kesteren,Neder-Betuwe,Gelderland,VBO,5.578003,51.933605
Schenkhofstraat,35,,,4041CA,Kesteren,Neder-Betuwe,Gelderland,VBO,5.577973,51.933596
Schenkhofstraat,37,,,4041CA,Kesteren,Neder-Betuwe,Gelderland,VBO,5.577944,51.933605
Schenkhofstraat,39,,,4041CA,Kesteren,Neder-Betuwe,Gelderland,VBO,5.577930,51.933623
Schenkhofstraat,41,,,4041CA,Kesteren,Neder-Betuwe,Gelderland,VBO,5.577945,51.933641
Schenkhofstraat,43,,,4041CA,Kesteren,Neder-Betuwe,Gelderland,VBO,5.577974,51.933668
Schenkhofstraat,45,,,4041CA,Kesteren,Neder-Betuwe,Gelderland,VBO,5.578003,51.933659
Schenkhofstraat,47,,,4041CA,Kesteren,Neder-Betuwe,Gelderland,VBO,5.578032,51.933641
Schenkhofstraat,49,,,4041CA,Kesteren,Neder-Betuwe,Gelderland,VBO,5.578046,51.933623
Schenkhofstraat,51,,,4041CA,Kesteren,Neder-Betuwe,Gelderland,VBO,5.578032,51.933605
Koningin Emmalaan,2,,,4041CB,Kesteren,Neder-Betuwe,Gelderland,VBO,5.576957,51.933948
Koningin Emmalaan,4,,,4041CB,Kesteren,Neder-Betuwe,Gelderland,VBO,5.576971,51.933894
Koningin Emmalaan,6,,,4041CB,Kesteren,Neder-Betuwe,Gelderland,VBO,5.576985,51.933678
Koningin Emmalaan,8,,,4041CB,Kesteren,Neder-Betuwe,Gelderland,VBO,5.576985,51.933615
Koningin Emmalaan,10,,,4041CB,Kesteren,Neder-Betuwe,Gelderland,VBO,5.576984,51.933409
Koningin Emmalaan,12,,,4041CB,Kesteren,Neder-Betuwe,Gelderland,VBO,5.577013,51.933355
Koningin Emmalaan,14,,,4041CB,Kesteren,Neder-Betuwe,Gelderland,VBO,5.577012,51.933148
Koningin Emmalaan,16,,,4041CB,Kesteren,Neder-Betuwe,Gelderland,VBO,5.577012,51.933076
Overste J M Kolffstraat,1,a,,4041CC,Kesteren,Neder-Betuwe,Gelderland,VBO,5.578453,51.932503
Overste J M Kolffstraat,1,,,4041CC,Kesteren,Neder-Betuwe,Gelderland,VBO,5.578075,51.931894
Overste J M Kolffstraat,2,,,4041CC,Kesteren,Neder-Betuwe,Gelderland,VBO,5.577495,51.932802
Overste J M Kolffstraat,3,,,4041CC,Kesteren,Neder-Betuwe,Gelderland,VBO,5.576813,51.931971
Overste J M Kolffstraat,4,,,4041CC,Kesteren,Neder-Betuwe,Gelderland,VBO,5.577512,51.932754
Overste J M Kolffstraat,5,,,4041CC,Kesteren,Neder-Betuwe,Gelderland,VBO,5.576767,51.931885
Overste J M Kolffstraat,6,,,4041CC,Kesteren,Neder-Betuwe,Gelderland,VBO,5.577514,51.932707
Overste J M Kolffstraat,7,,,4041CC,Kesteren,Neder-Betuwe,Gelderland,VBO,5.576664,51.931975
Overste J M Kolffstraat,8,,,4041CC,Kesteren,Neder-Betuwe,Gelderland,VBO,5.577531,51.932658
Overste J M Kolffstraat,9,,,4041CC,Kesteren,Neder-Betuwe,Gelderland,VBO,5.576746,51.931935
Overste J M Kolffstraat,10,,,4041CC,Kesteren,Neder-Betuwe,Gelderland,VBO,5.577553,51.932607
Overste J M Kolffstraat,11,,,4041CC,Kesteren,Neder-Betuwe,Gelderland,VBO,5.576658,51.931911
Overste J M Kolffstraat,12,,,4041CC,Kesteren,Neder-Betuwe,Gelderland,VBO,5.577528,51.932514
Overste J M Kolffstraat,13,,,4041CC,Kesteren,Neder-Betuwe,Gelderland,VBO,5.576895,51.931978
Overste J M Kolffstraat,14,,,4041CC,Kesteren,Neder-Betuwe,Gelderland,VBO,5.577538,51.932464
Overste J M Kolffstraat,15,,,4041CC,Kesteren,Neder-Betuwe,Gelderland,VBO,5.576825,51.931927
Overste J M Kolffstraat,16,,,4041CC,Kesteren,Neder-Betuwe,Gelderland,VBO,5.577536,51.932411
Overste J M Kolffstraat,17,,,4041CC,Kesteren,Neder-Betuwe,Gelderland,VBO,5.577210,51.931898
Overste J M Kolffstraat,18,,,4041CC,Kesteren,Neder-Betuwe,Gelderland,VBO,5.577552,51.932373
Overste J M Kolffstraat,19,,,4041CC,Kesteren,Neder-Betuwe,Gelderland,VBO,5.577360,51.931997
Overste J M Kolffstraat,20,,,4041CC,Kesteren,Neder-Betuwe,Gelderland,VBO,5.577548,51.932319
Overste J M Kolffstraat,21,,,4041CC,Kesteren,Neder-Betuwe,Gelderland,VBO,5.577266,51.932017
Overste J M Kolffstraat,22,,,4041CC,Kesteren,Neder-Betuwe,Gelderland,VBO,5.576663,51.932237
Overste J M Kolffstraat,23,,,4041CC,Kesteren,Neder-Betuwe,Gelderland,VBO,5.576933,51.931959
Overste J M Kolffstraat,24,,,4041CC,Kesteren,Neder-Betuwe,Gelderland,VBO,5.576541,51.932255
Overste J M Kolffstraat,25,,,4041CC,Kesteren,Neder-Betuwe,Gelderland,VBO,5.576884,51.931935
Overste J M Kolffstraat,26,,,4041CC,Kesteren,Neder-Betuwe,Gelderland,VBO,5.576366,51.932209
Overste J M Kolffstraat,27,,,4041CC,Kesteren,Neder-Betuwe,Gelderland,VBO,5.576955,51.931950
Overste J M Kolffstraat,28,,,4041CC,Kesteren,Neder-Betuwe,Gelderland,VBO,5.576274,51.932205
Overste J M Kolffstraat,29,,,4041CC,Kesteren,Neder-Betuwe,Gelderland,VBO,5.576883,51.931967
Overste J M Kolffstraat,30,,,4041CC,Kesteren,Neder-Betuwe,Gelderland,VBO,5.576057,51.932191
Overste J M Kolffstraat,31,,,4041CC,Kesteren,Neder-Betuwe,Gelderland,VBO,5.576905,51.931976
Overste J M Kolffstraat,32,,,4041CC,Kesteren,Neder-Betuwe,Gelderland,VBO,5.575966,51.932186
Overste J M Kolffstraat,33,,,4041CC,Kesteren,Neder-Betuwe,Gelderland,VBO,5.576676,51.931793
Overste J M Kolffstraat,35,a,,4041CC,Kesteren,Neder-Betuwe,Gelderland,VBO,5.577522,51.931940
Overste J M Kolffstraat,35,,,4041CC,Kesteren,Neder-Betuwe,Gelderland,VBO,5.576662,51.931802
Overste J M Kolffstraat,37,,,4041CC,Kesteren,Neder-Betuwe,Gelderland,VBO,5.577323,51.931991
Overste J M Kolffstraat,39,,,4041CC,Kesteren,Neder-Betuwe,Gelderland,VBO,5.577465,51.931895
Overste J M Kolffstraat,41,,,4041CC,Kesteren,Neder-Betuwe,Gelderland,VBO,5.577447,51.931890
Overste J M Kolffstraat,43,,,4041CC,Kesteren,Neder-Betuwe,Gelderland,VBO,5.576825,51.931715
Overste J M Kolffstraat,45,,,4041CC,Kesteren,Neder-Betuwe,Gelderland,VBO,5.576840,51.931765
Overste J M Kolffstraat,47,,,4041CC,Kesteren,Neder-Betuwe,Gelderland,VBO,5.577276,51.931773
Overste J M Kolffstraat,49,,,4041CC,Kesteren,Neder-Betuwe,Gelderland,VBO,5.577425,51.931817
Overste J M Kolffstraat,51,,,4041CC,Kesteren,Neder-Betuwe,Gelderland,VBO,5.576896,51.931792
Overste J M Kolffstraat,53,,,4041CC,Kesteren,Neder-Betuwe,Gelderland,VBO,5.577080,51.931801
Overste J M Kolffstraat,55,,,4041CC,Kesteren,Neder-Betuwe,Gelderland,VBO,5.577027,51.931778
Overste J M Kolffstraat,57,,,4041CC,Kesteren,Neder-Betuwe,Gelderland,VBO,5.576846,51.931743
Overste J M Kolffstraat,59,,,4041CC,Kesteren,Neder-Betuwe,Gelderland,VBO,5.576978,51.931819
Overste J M Kolffstraat,61,,,4041CC,Kesteren,Neder-Betuwe,Gelderland,VBO,5.577165,51.931825
Overste J M Kolffstraat,63,,,4041CC,Kesteren,Neder-Betuwe,Gelderland,VBO,5.576988,51.931836
Overste J M Kolffstraat,65,,,4041CC,Kesteren,Neder-Betuwe,Gelderland,VBO,5.577027,51.931765
Overste J M Kolffstraat,67,,,4041CC,Kesteren,Neder-Betuwe,Gelderland,VBO,5.577028,51.931852
Overste J M Kolffstraat,69,,,4041CC,Kesteren,Neder-Betuwe,Gelderland,VBO,5.577045,51.931863
Overste J M Kolffstraat,71,,,4041CC,Kesteren,Neder-Betuwe,Gelderland,VBO,5.576912,51.931818
Overste J M Kolffstraat,73,,,4041CC,Kesteren,Neder-Betuwe,Gelderland,VBO,5.577402,51.931953
Overste J M Kolffstraat,75,,,4041CC,Kesteren,Neder-Betuwe,Gelderland,VBO,5.577417,51.931969
Overste J M Kolffstraat,77,,,4041CC,Kesteren,Neder-Betuwe,Gelderland,VBO,5.577286,51.931986
Overste J M Kolffstraat,79,,,4041CC,Kesteren,Neder-Betuwe,Gelderland,VBO,5.577069,51.931796
Overste J M Kolffstraat,81,,,4041CC,Kesteren,Neder-Betuwe,Gelderland,VBO,5.577351,51.931975
Overste J M Kolffstraat,83,,,4041CC,Kesteren,Neder-Betuwe,Gelderland,VBO,5.576930,51.931760
Overste J M Kolffstraat,85,,,4041CC,Kesteren,Neder-Betuwe,Gelderland,VBO,5.577130,51.931759
Overste J M Kolffstraat,87,,,4041CC,Kesteren,Neder-Betuwe,Gelderland,VBO,5.577067,51.931730
Overste J M Kolffstraat,89,,,4041CC,Kesteren,Neder-Betuwe,Gelderland,VBO,5.577045,51.931795
Overste J M Kolffstraat,91,,,4041CC,Kesteren,Neder-Betuwe,Gelderland,VBO,5.576939,51.931813
Overste J M Kolffstraat,93,,,4041CC,Kesteren,Neder-Betuwe,Gelderland,VBO,5.576814,51.931749
Overste J M Kolffstraat,95,,,4041CC,Kesteren,Neder-Betuwe,Gelderland,VBO,5.577052,51.931804
Overste J M Kolffstraat,97,,,4041CC,Kesteren,Neder-Betuwe,Gelderland,VBO,5.577367,51.931841
Overste J M Kolffstraat,99,,,4041CC,Kesteren,Neder-Betuwe,Gelderland,VBO,5.576990,51.931837
Overste J M Kolffstraat,101,,,4041CC,Kesteren,Neder-Betuwe,Gelderland,VBO,5.577292,51.931825
Overste J M Kolffstraat,103,,,4041CC,Kesteren,Neder-Betuwe,Gelderland,VBO,5.577016,51.931839
Overste J M Kolffstraat,105,,,4041CC,Kesteren,Neder-Betuwe,Gelderland,VBO,5.577084,51.931832
Overste J M Kolffstraat,107,,,4041CC,Kesteren,Neder-Betuwe,Gelderland,VBO,5.577132,51.931862
Overste J M Kolffstraat,109,,,4041CC,Kesteren,Neder-Betuwe,Gelderland,VBO,5.577248,51.931814
Overste J M Kolffstraat,111,,,4041CC,Kesteren,Neder-Betuwe,Gelderland,VBO,5.577002,51.931899
Overste J M Kolffstraat,113,,,4041CC,Kesteren,Neder-Betuwe,Gelderland,VBO,5.577365,51.932025
Overste J M Kolffstraat,115,,,4041CC,Kesteren,Neder-Betuwe,Gelderland,VBO,5.577306,51.931885
Overste J M Kolffstraat,117,,,4041CC,Kesteren,Neder-Betuwe,Gelderland,VBO,5.576939,51.931738
Overste J M Kolffstraat,119,,,4041CC,Kesteren,Neder-Betuwe,Gelderland,VBO,5.577133,51.931808
Overste J M Kolffstraat,121,,,4041CC,Kesteren,Neder-Betuwe,Gelderland,VBO,5.576838,51.931777
Overste J M Kolffstraat,123,,,4041CC,Kesteren,Neder-Betuwe,Gelderland,VBO,5.576929,51.931807
Overste J M Kolffstraat,125,,,4041CC,Kesteren,Neder-Betuwe,Gelderland,VBO,5.577074,51.931823
Overste J M Kolffstraat,127,,,4041CC,Kesteren,Neder-Betuwe,Gelderland,VBO,5.576981,51.931886
Overste J M Kolffstraat,129,,,4041CC,Kesteren,Neder-Betuwe,Gelderland,VBO,5.577364,51.932047
Overste J M Kolffstraat,131,,,4041CC,Kesteren,Neder-Betuwe,Gelderland,VBO,5.576973,51.931758
Overste J M Kolffstraat,133,,,4041CC,Kesteren,Neder-Betuwe,Gelderland,VBO,5.577101,51.931910
Overste J M Kolffstraat,135,,,4041CC,Kesteren,Neder-Betuwe,Gelderland,VBO,5.576887,51.931759
Overste J M Kolffstraat,137,,,4041CC,Kesteren,Neder-Betuwe,Gelderland,VBO,5.577232,51.931761
Overste J M Kolffstraat,139,,,4041CC,Kesteren,Neder-Betuwe,Gelderland,VBO,5.577183,51.931766
Overste J M Kolffstraat,141,,,4041CC,Kesteren,Neder-Betuwe,Gelderland,VBO,5.577391,51.931944
Overste J M Kolffstraat,143,,,4041CC,Kesteren,Neder-Betuwe,Gelderland,VBO,5.576970,51.931823
Overste J M Kolffstraat,145,,,4041CC,Kesteren,Neder-Betuwe,Gelderland,VBO,5.577008,51.931881
Overste J M Kolffstraat,147,,,4041CC,Kesteren,Neder-Betuwe,Gelderland,VBO,5.576278,51.931950
Overste J M Kolffstraat,149,,,4041CC,Kesteren,Neder-Betuwe,Gelderland,VBO,5.576193,51.931947
Overste J M Kolffstraat,151,,,4041CC,Kesteren,Neder-Betuwe,Gelderland,VBO,5.576028,51.931951
Overste J M Kolffstraat,153,,,4041CC,Kesteren,Neder-Betuwe,Gelderland,VBO,5.575951,51.931947
Overste J M Kolffstraat,171,,,4041CC,Kesteren,Neder-Betuwe,Gelderland,VBO,5.576312,51.931612
Koningin Wilhelminalaan,1,,,4041CD,Kesteren,Neder-Betuwe,Gelderland,VBO,5.576358,51.933329
Koningin Wilhelminalaan,2,,,4041CD,Kesteren,Neder-Betuwe,Gelderland,VBO,5.576867,51.933211
Koningin Wilhelminalaan,3,,,4041CD,Kesteren,Neder-Betuwe,Gelderland,VBO,5.576373,51.933392
Koningin Wilhelminalaan,4,,,4041CD,Kesteren,Neder-Betuwe,Gelderland,VBO,5.576867,51.933274
Koningin Wilhelminalaan,5,,,4041CD,Kesteren,Neder-Betuwe,Gelderland,VBO,5.576359,51.933446
Koningin Wilhelminalaan,6,,,4041CD,Kesteren,Neder-Betuwe,Gelderland,VBO,5.576839,51.933490
Koningin Wilhelminalaan,7,,,4041CD,Kesteren,Neder-Betuwe,Gelderland,VBO,5.576388,51.933499
Koningin Wilhelminalaan,8,,,4041CD,Kesteren,Neder-Betuwe,Gelderland,VBO,5.576839,51.933535
Koningin Wilhelminalaan,9,,,4041CD,Kesteren,Neder-Betuwe,Gelderland,VBO,5.576345,51.933535
Koningin Wilhelminalaan,10,,,4041CD,Kesteren,Neder-Betuwe,Gelderland,VBO,5.576840,51.933759
Koningin Wilhelminalaan,11,,,4041CD,Kesteren,Neder-Betuwe,Gelderland,VBO,5.576360,51.933652
Koningin Wilhelminalaan,12,,,4041CD,Kesteren,Neder-Betuwe,Gelderland,VBO,5.576811,51.933813
Koningin Wilhelminalaan,13,,,4041CD,Kesteren,Neder-Betuwe,Gelderland,VBO,5.576389,51.933715
Koningin Wilhelminalaan,14,,,4041CD,Kesteren,Neder-Betuwe,Gelderland,VBO,5.576812,51.934020
Koningin Wilhelminalaan,15,,,4041CD,Kesteren,Neder-Betuwe,Gelderland,VBO,5.576389,51.933778
Koningin Wilhelminalaan,16,,,4041CD,Kesteren,Neder-Betuwe,Gelderland,VBO,5.576812,51.934074
Koningin Wilhelminalaan,17,,,4041CD,Kesteren,Neder-Betuwe,Gelderland,VBO,5.576346,51.933814
Nassaulaan,1,,,4041CE,Kesteren,Neder-Betuwe,Gelderland,VBO,5.575355,51.933330
Nassaulaan,3,,,4041CE,Kesteren,Neder-Betuwe,Gelderland,VBO,5.575341,51.933402
Nassaulaan,5,,,4041CE,Kesteren,Neder-Betuwe,Gelderland,VBO,5.575327,51.933510
Nassaulaan,7,,,4041CE,Kesteren,Neder-Betuwe,Gelderland,VBO,5.575327,51.933573
Nassaulaan,9,,,4041CE,Kesteren,Neder-Betuwe,Gelderland,VBO,5.575327,51.933681
Nassaulaan,11,,,4041CE,Kesteren,Neder-Betuwe,Gelderland,VBO,5.575328,51.933753
Nassaulaan,13,,,4041CE,Kesteren,Neder-Betuwe,Gelderland,VBO,5.575314,51.933861
Nassaulaan,15,,,4041CE,Kesteren,Neder-Betuwe,Gelderland,VBO,5.575343,51.933924
Nassaulaan,17,,,4041CE,Kesteren,Neder-Betuwe,Gelderland,VBO,5.575314,51.933978
Nassaulaan,19,,,4041CE,Kesteren,Neder-Betuwe,Gelderland,VBO,5.575300,51.934085
Nassaulaan,21,,,4041CE,Kesteren,Neder-Betuwe,Gelderland,VBO,5.575329,51.934148
Nassaulaan,23,,,4041CE,Kesteren,Neder-Betuwe,Gelderland,VBO,5.575301,51.934211
Nassaulaan,2,,,4041CG,Kesteren,Neder-Betuwe,Gelderland,VBO,5.575907,51.933078
Nassaulaan,4,,,4041CG,Kesteren,Neder-Betuwe,Gelderland,VBO,5.575892,51.933150
Nassaulaan,6,,,4041CG,Kesteren,Neder-Betuwe,Gelderland,VBO,5.575878,51.933204
Nassaulaan,8,,,4041CG,Kesteren,Neder-Betuwe,Gelderland,VBO,5.575878,51.933285
Nassaulaan,10,,,4041CG,Kesteren,Neder-Betuwe,Gelderland,VBO,5.575908,51.933374
Nassaulaan,12,,,4041CG,Kesteren,Neder-Betuwe,Gelderland,VBO,5.575879,51.933428
Nassaulaan,14,,,4041CG,Kesteren,Neder-Betuwe,Gelderland,VBO,5.575894,51.933473
Nassaulaan,16,,,4041CG,Kesteren,Neder-Betuwe,Gelderland,VBO,5.575879,51.933536
Nassaulaan,18,,,4041CG,Kesteren,Neder-Betuwe,Gelderland,VBO,5.575851,51.933644
Nassaulaan,20,,,4041CG,Kesteren,Neder-Betuwe,Gelderland,VBO,5.575851,51.933689
Nassaulaan,22,,,4041CG,Kesteren,Neder-Betuwe,Gelderland,VBO,5.575837,51.933770
Nassaulaan,24,,,4041CG,Kesteren,Neder-Betuwe,Gelderland,VBO,5.575851,51.933815
Nassaulaan,26,,,4041CG,Kesteren,Neder-Betuwe,Gelderland,VBO,5.575823,51.934031
Nassaulaan,28,,,4041CG,Kesteren,Neder-Betuwe,Gelderland,VBO,5.575911,51.934039
Nassaulaan,30,,,4041CG,Kesteren,Neder-Betuwe,Gelderland,VBO,5.576012,51.934039
Nassaulaan,32,,,4041CG,Kesteren,Neder-Betuwe,Gelderland,VBO,5.576201,51.934048
Nassaulaan,34,,,4041CG,Kesteren,Neder-Betuwe,Gelderland,VBO,5.576289,51.934048
Nassaulaan,36,,,4041CG,Kesteren,Neder-Betuwe,Gelderland,VBO,5.576361,51.934048
Stationsstraat,1,a,,4041CH,Kesteren,Neder-Betuwe,Gelderland,VBO,5.574165,51.935071
Stationsstraat,1,,,4041CH,Kesteren,Neder-Betuwe,Gelderland,VBO,5.574112,51.935130
Stationsstraat,3,,,4041CH,Kesteren,Neder-Betuwe,Gelderland,VBO,5.574388,51.935121
Stationsstraat,5,a,,4041CH,Kesteren,Neder-Betuwe,Gelderland,VBO,5.574824,51.935057
Stationsstraat,5,b,,4041CH,Kesteren,Neder-Betuwe,Gelderland,VBO,5.575028,51.935039
Stationsstraat,5,c,,4041CH,Kesteren,Neder-Betuwe,Gelderland,VBO,5.575144,51.935038
Stationsstraat,5,d,,4041CH,Kesteren,Neder-Betuwe,Gelderland,VBO,5.575180,51.935249
Stationsstraat,5,,,4041CH,Kesteren,Neder-Betuwe,Gelderland,VBO,5.574577,51.935084
Stationsstraat,7,,,4041CH,Kesteren,Neder-Betuwe,Gelderland,VBO,5.575348,51.935029
Stationsstraat,9,,,4041CH,Kesteren,Neder-Betuwe,Gelderland,VBO,5.575697,51.935100
Stationsstraat,11,,,4041CH,Kesteren,Neder-Betuwe,Gelderland,VBO,5.576017,51.935082
Stationsstraat,13,,,4041CH,Kesteren,Neder-Betuwe,Gelderland,VBO,5.576337,51.935090
Stationsstraat,15,,,4041CH,Kesteren,Neder-Betuwe,Gelderland,VBO,5.576540,51.935072
Stationsstraat,17,,,4041CH,Kesteren,Neder-Betuwe,Gelderland,VBO,5.581850,51.932286
Stationsstraat,19,,,4041CH,Kesteren,Neder-Betuwe,Gelderland,VBO,5.582053,51.932223
Stationsstraat,2,,,4041CJ,Kesteren,Neder-Betuwe,Gelderland,VBO,5.574619,51.934644
Stationsstraat,4,,,4041CJ,Kesteren,Neder-Betuwe,Gelderland,VBO,5.574866,51.934679
Stationsstraat,6,,,4041CJ,Kesteren,Neder-Betuwe,Gelderland,VBO,5.575041,51.934661
Stationsstraat,8,,,4041CJ,Kesteren,Neder-Betuwe,Gelderland,VBO,5.575215,51.934652
Stationsstraat,10,,,4041CJ,Kesteren,Neder-Betuwe,Gelderland,VBO,5.575390,51.934616
Stationsstraat,14,,,4041CJ,Kesteren,Neder-Betuwe,Gelderland,VBO,5.576029,51.934507
Stationsstraat,16,,,4041CJ,Kesteren,Neder-Betuwe,Gelderland,VBO,5.576552,51.934488
Stationsstraat,22,,,4041CJ,Kesteren,Neder-Betuwe,Gelderland,VBO,5.579381,51.932951
Stationsstraat,28,,,4041CJ,Kesteren,Neder-Betuwe,Gelderland,VBO,5.579798,51.932899
Stationsstraat,30,,,4041CJ,Kesteren,Neder-Betuwe,Gelderland,VBO,5.580218,51.932317
Stationsstraat,32,a,,4041CJ,Kesteren,Neder-Betuwe,Gelderland,VBO,5.581583,51.932191
Stationsstraat,32,b,,4041CJ,Kesteren,Neder-Betuwe,Gelderland,VBO,5.581538,51.932159
Stationsstraat,32,c,,4041CJ,Kesteren,Neder-Betuwe,Gelderland,VBO,5.581545,51.932214
Stationsstraat,32,d,,4041CJ,Kesteren,Neder-Betuwe,Gelderland,VBO,5.581535,51.932186
Stationsstraat,32,e,,4041CJ,Kesteren,Neder-Betuwe,Gelderland,VBO,5.581487,51.932177
Stationsstraat,32,f,,4041CJ,Kesteren,Neder-Betuwe,Gelderland,VBO,5.581418,51.932211
Stationsstraat,32,g,,4041CJ,Kesteren,Neder-Betuwe,Gelderland,VBO,5.581473,51.932229
Stationsstraat,32,h,,4041CJ,Kesteren,Neder-Betuwe,Gelderland,VBO,5.581510,51.932248
Stationsstraat,32,i,,4041CJ,Kesteren,Neder-Betuwe,Gelderland,VBO,5.581477,51.932261
Stationsstraat,32,j,,4041CJ,Kesteren,Neder-Betuwe,Gelderland,VBO,5.581504,51.932216
Stationsstraat,32,k,,4041CJ,Kesteren,Neder-Betuwe,Gelderland,VBO,5.581547,51.932238
Stationsstraat,32,l,,4041CJ,Kesteren,Neder-Betuwe,Gelderland,VBO,5.581447,51.932190
Stationsstraat,34,,,4041CJ,Kesteren,Neder-Betuwe,Gelderland,VBO,5.581645,51.932026
Stationsstraat,36,,,4041CJ,Kesteren,Neder-Betuwe,Gelderland,VBO,5.582269,51.931674
Stationsstraat,38,,,4041CJ,Kesteren,Neder-Betuwe,Gelderland,VBO,5.583172,51.931600
Stationsstraat,40,,,4041CJ,Kesteren,Neder-Betuwe,Gelderland,VBO,5.583540,51.931669
Nijverheidsweg,1,a,,4041CK,Kesteren,Neder-Betuwe,Gelderland,VBO,5.588470,51.934545
Nijverheidsweg,1,b,,4041CK,Kesteren,Neder-Betuwe,Gelderland,VBO,5.588693,51.934580
Nijverheidsweg,1,,,4041CK,Kesteren,Neder-Betuwe,Gelderland,VBO,5.588266,51.934514
Nijverheidsweg,2,a,,4041CK,Kesteren,Neder-Betuwe,Gelderland,VBO,5.588163,51.933985
Nijverheidsweg,2,b,,4041CK,Kesteren,Neder-Betuwe,Gelderland,VBO,5.588264,51.934011
Nijverheidsweg,2,c,,4041CK,Kesteren,Neder-Betuwe,Gelderland,VBO,5.588376,51.934027
Nijverheidsweg,2,d,,4041CK,Kesteren,Neder-Betuwe,Gelderland,VBO,5.588484,51.934050
Nijverheidsweg,3,,,4041CK,Kesteren,Neder-Betuwe,Gelderland,VBO,5.588845,51.934599
Nijverheidsweg,4,a,,4041CK,Kesteren,Neder-Betuwe,Gelderland,VBO,5.589005,51.933906
Nijverheidsweg,4,,,4041CK,Kesteren,Neder-Betuwe,Gelderland,VBO,5.588959,51.933934
Nijverheidsweg,5,,,4041CK,Kesteren,Neder-Betuwe,Gelderland,VBO,5.589124,51.934671
Nijverheidsweg,7,,,4041CK,Kesteren,Neder-Betuwe,Gelderland,VBO,5.589378,51.934745
Nijverheidsweg,9,,,4041CK,Kesteren,Neder-Betuwe,Gelderland,VBO,5.589717,51.934786
Spoorstraat,37,,,4041CL,Kesteren,Neder-Betuwe,Gelderland,VBO,5.579530,51.933845
Spoorstraat,39,,,4041CL,Kesteren,Neder-Betuwe,Gelderland,VBO,5.580256,51.933565
Spoorstraat,41,,,4041CL,Kesteren,Neder-Betuwe,Gelderland,VBO,5.580735,51.933438
Spoorstraat,43,a,,4041CL,Kesteren,Neder-Betuwe,Gelderland,VBO,5.581723,51.933212
Spoorstraat,43,,,4041CL,Kesteren,Neder-Betuwe,Gelderland,VBO,5.581302,51.933267
Spoorstraat,45,,,4041CL,Kesteren,Neder-Betuwe,Gelderland,VBO,5.582362,51.933076
Spoorstraat,47,,,4041CL,Kesteren,Neder-Betuwe,Gelderland,VBO,5.583105,51.932843
Spoorstraat,51,,,4041CL,Kesteren,Neder-Betuwe,Gelderland,VBO,5.583887,51.932613
Spoorstraat,53,,,4041CL,Kesteren,Neder-Betuwe,Gelderland,VBO,5.584003,51.932588
Spoorstraat,57,,,4041CL,Kesteren,Neder-Betuwe,Gelderland,VBO,5.584732,51.932973
Spoorstraat,59,a,,4041CL,Kesteren,Neder-Betuwe,Gelderland,VBO,5.585300,51.932656
Spoorstraat,59,b,,4041CL,Kesteren,Neder-Betuwe,Gelderland,VBO,5.584922,51.932526
Spoorstraat,59,,,4041CL,Kesteren,Neder-Betuwe,Gelderland,VBO,5.585297,51.932460
Spoorstraat,65,,,4041CL,Kesteren,Neder-Betuwe,Gelderland,VBO,5.587520,51.932043
Spoorstraat,69,,,4041CL,Kesteren,Neder-Betuwe,Gelderland,VBO,5.587865,51.932703
Spoorstraat,71,,,4041CL,Kesteren,Neder-Betuwe,Gelderland,VBO,5.588857,51.931924
Spoorstraat,2,,,4041CM,Kesteren,Neder-Betuwe,Gelderland,VBO,5.575496,51.935847
Spoorstraat,4,a,,4041CM,Kesteren,Neder-Betuwe,Gelderland,VBO,5.582694,51.932425
Spoorstraat,4,,,4041CM,Kesteren,Neder-Betuwe,Gelderland,VBO,5.582186,51.932708
Spoorstraat,6,a,,4041CM,Kesteren,Neder-Betuwe,Gelderland,VBO,5.585158,51.931805
Spoorstraat,6,,,4041CM,Kesteren,Neder-Betuwe,Gelderland,VBO,5.586452,51.931673
Spoorstraat,8,,,4041CM,Kesteren,Neder-Betuwe,Gelderland,VBO,5.587546,51.931506
Panhuizerweg,2,,,4041CN,Kesteren,Neder-Betuwe,Gelderland,VBO,5.588712,51.932702
Panhuizerweg,4,a,,4041CN,Kesteren,Neder-Betuwe,Gelderland,VBO,5.588262,51.933741
Panhuizerweg,5,a,,4041CN,Kesteren,Neder-Betuwe,Gelderland,VBO,5.587084,51.935253
Panhuizerweg,5,,,4041CN,Kesteren,Neder-Betuwe,Gelderland,VBO,5.586998,51.935126
Panhuizerweg,6,a,,4041CN,Kesteren,Neder-Betuwe,Gelderland,VBO,5.587984,51.934683
Panhuizerweg,6,,,4041CN,Kesteren,Neder-Betuwe,Gelderland,VBO,5.587985,51.934405
Panhuizerweg,7,,,4041CN,Kesteren,Neder-Betuwe,Gelderland,VBO,5.586560,51.935217
Panhuizerweg,10,,,4041CN,Kesteren,Neder-Betuwe,Gelderland,VBO,5.587680,51.935386
Panhuizerweg,11,,,4041CN,Kesteren,Neder-Betuwe,Gelderland,VBO,5.586299,51.935595
Panhuizerweg,12,,,4041CN,Kesteren,Neder-Betuwe,Gelderland,VBO,5.587725,51.935701
Panhuizerweg,13,,,4041CN,Kesteren,Neder-Betuwe,Gelderland,VBO,5.586838,51.935630
Panhuizerweg,14,a,,4041CN,Kesteren,Neder-Betuwe,Gelderland,VBO,5.588685,51.935744
Panhuizerweg,14,,,4041CN,Kesteren,Neder-Betuwe,Gelderland,VBO,5.588496,51.935771
Panhuizerweg,16,,,4041CN,Kesteren,Neder-Betuwe,Gelderland,VBO,5.588831,51.935807
Panhuizerweg,18,,,4041CN,Kesteren,Neder-Betuwe,Gelderland,VBO,5.589078,51.935905
Panhuizerweg,20,,,4041CN,Kesteren,Neder-Betuwe,Gelderland,VBO,5.589209,51.935923
Panhuizerweg,22,,,4041CN,Kesteren,Neder-Betuwe,Gelderland,VBO,5.589296,51.935932
Hogeveldseweg,2,a,,4041CP,Kesteren,Neder-Betuwe,Gelderland,VBO,5.593171,51.934755
Hogeveldseweg,2,b,,4041CP,Kesteren,Neder-Betuwe,Gelderland,VBO,5.592764,51.934714
Hogeveldseweg,2,,,4041CP,Kesteren,Neder-Betuwe,Gelderland,VBO,5.591990,51.933500
Hogeveldseweg,3,,,4041CP,Kesteren,Neder-Betuwe,Gelderland,VBO,5.590871,51.933682
Hogeveldseweg,5,a,,4041CP,Kesteren,Neder-Betuwe,Gelderland,VBO,5.590595,51.934875
Hogeveldseweg,5,,,4041CP,Kesteren,Neder-Betuwe,Gelderland,VBO,5.590812,51.934462
Hogeveldseweg,7,,,4041CP,Kesteren,Neder-Betuwe,Gelderland,VBO,5.590428,51.935328
Hogeveldseweg,9,,,4041CP,Kesteren,Neder-Betuwe,Gelderland,VBO,5.590155,51.936056
Industrieweg,1,,,4041CR,Kesteren,Neder-Betuwe,Gelderland,VBO,5.589655,51.932820
Industrieweg,2,a,,4041CR,Kesteren,Neder-Betuwe,Gelderland,VBO,5.589345,51.931852
Industrieweg,2,b,,4041CR,Kesteren,Neder-Betuwe,Gelderland,VBO,5.589797,51.931724
Industrieweg,2,c,,4041CR,Kesteren,Neder-Betuwe,Gelderland,VBO,5.591183,51.931781
Industrieweg,2,d,,4041CR,Kesteren,Neder-Betuwe,Gelderland,VBO,5.590320,51.931959
Industrieweg,2,,,4041CR,Kesteren,Neder-Betuwe,Gelderland,VBO,5.590618,51.932406
Industrieweg,3,,,4041CR,Kesteren,Neder-Betuwe,Gelderland,VBO,5.590156,51.932982
Industrieweg,4,a,,4041CR,Kesteren,Neder-Betuwe,Gelderland,VBO,5.591127,51.932646
Industrieweg,4,,,4041CR,Kesteren,Neder-Betuwe,Gelderland,VBO,5.592219,51.932619
Industrieweg,6,,,4041CR,Kesteren,Neder-Betuwe,Gelderland,VBO,5.593113,51.932190
Industrieweg,7,,,4041CR,Kesteren,Neder-Betuwe,Gelderland,VBO,5.593628,51.932374
Tielsestraat,91,,,4041CS,Kesteren,Neder-Betuwe,Gelderland,VBO,5.595707,51.932406
Tielsestraat,93,,,4041CS,Kesteren,Neder-Betuwe,Gelderland,VBO,5.595364,51.932230
Tielsestraat,95,,,4041CS,Kesteren,Neder-Betuwe,Gelderland,VBO,5.594693,51.932054
Tielsestraat,97,,,4041CS,Kesteren,Neder-Betuwe,Gelderland,VBO,5.594831,51.932119
Tielsestraat,99,,,4041CS,Kesteren,Neder-Betuwe,Gelderland,VBO,5.593814,51.931717
Tielsestraat,103,,,4041CS,Kesteren,Neder-Betuwe,Gelderland,VBO,5.592375,51.931091
Tielsestraat,112,,,4041CS,Kesteren,Neder-Betuwe,Gelderland,VBO,5.597546,51.933760
Tielsestraat,114,,,4041CS,Kesteren,Neder-Betuwe,Gelderland,VBO,5.595361,51.932910
Tielsestraat,116,a,,4041CS,Kesteren,Neder-Betuwe,Gelderland,VBO,5.593659,51.932548
Tielsestraat,116,,,4041CS,Kesteren,Neder-Betuwe,Gelderland,VBO,5.594423,51.932750
Tielsestraat,118,,,4041CS,Kesteren,Neder-Betuwe,Gelderland,VBO,5.592839,51.932109
Tielsestraat,120,a,,4041CS,Kesteren,Neder-Betuwe,Gelderland,VBO,5.592113,51.932029
Tielsestraat,120,,,4041CS,Kesteren,Neder-Betuwe,Gelderland,VBO,5.592039,51.931940
Broekdijk,1,,,4041CT,Kesteren,Neder-Betuwe,Gelderland,VBO,5.590246,51.930483
Broekdijk,3,a,,4041CT,Kesteren,Neder-Betuwe,Gelderland,VBO,5.589054,51.930503
Broekdijk,3,,,4041CT,Kesteren,Neder-Betuwe,Gelderland,VBO,5.589854,51.930574
Broekdijk,5,a,,4041CT,Kesteren,Neder-Betuwe,Gelderland,VBO,5.586951,51.930517
Broekdijk,5,,,4041CT,Kesteren,Neder-Betuwe,Gelderland,VBO,5.588182,51.930595
Broekdijk,9,a,,4041CT,Kesteren,Neder-Betuwe,Gelderland,VBO,5.584092,51.929640
Broekdijk,9,b,,4041CT,Kesteren,Neder-Betuwe,Gelderland,VBO,5.583742,51.929461
Broekdijk,9,c,,4041CT,Kesteren,Neder-Betuwe,Gelderland,VBO,5.584589,51.929899
Broekdijk,9,,,4041CT,Kesteren,Neder-Betuwe,Gelderland,VBO,5.586116,51.930257
Broekdijk,11,a,,4041CT,Kesteren,Neder-Betuwe,Gelderland,VBO,5.582314,51.928726
Broekdijk,11,b,,4041CT,Kesteren,Neder-Betuwe,Gelderland,VBO,5.581647,51.928266
Broekdijk,11,,,4041CT,Kesteren,Neder-Betuwe,Gelderland,VBO,5.583407,51.929192
Broekdijk,13,,,4041CT,Kesteren,Neder-Betuwe,Gelderland,VBO,5.580757,51.928039
Broekdijk,15,,,4041CT,Kesteren,Neder-Betuwe,Gelderland,VBO,5.580839,51.928020
Broekdijk,17,,,4041CT,Kesteren,Neder-Betuwe,Gelderland,VBO,5.579896,51.927651
Broekdijk,19,,,4041CT,Kesteren,Neder-Betuwe,Gelderland,VBO,5.579285,51.927401
Broekdijk,21,a,,4041CT,Kesteren,Neder-Betuwe,Gelderland,VBO,5.578560,51.927147
Broekdijk,21,,,4041CT,Kesteren,Neder-Betuwe,Gelderland,VBO,5.578710,51.927293
Broekdijk,23,,,4041CT,Kesteren,Neder-Betuwe,Gelderland,VBO,5.578669,51.926260
Broekdijk,25,,,4041CT,Kesteren,Neder-Betuwe,Gelderland,VBO,5.578145,51.926171
Broekdijk,27,a,,4041CT,Kesteren,Neder-Betuwe,Gelderland,VBO,5.578068,51.927176
Broekdijk,27,,,4041CT,Kesteren,Neder-Betuwe,Gelderland,VBO,5.578091,51.927115
Broekdijk,29,,,4041CT,Kesteren,Neder-Betuwe,Gelderland,VBO,5.576971,51.926955
Broekdijk,31,a,,4041CT,Kesteren,Neder-Betuwe,Gelderland,VBO,5.574143,51.926346
Broekdijk,31,,,4041CT,Kesteren,Neder-Betuwe,Gelderland,VBO,5.576549,51.926884
Broekdijk,33,a,,4041CT,Kesteren,Neder-Betuwe,Gelderland,VBO,5.573502,51.924740
Broekdijk,33,,,4041CT,Kesteren,Neder-Betuwe,Gelderland,VBO,5.573724,51.925774
Broekdijk,35,a,,4041CT,Kesteren,Neder-Betuwe,Gelderland,VBO,5.573445,51.926160
Broekdijk,35,,,4041CT,Kesteren,Neder-Betuwe,Gelderland,VBO,5.573275,51.926089
Broekdijk,37,,,4041CT,Kesteren,Neder-Betuwe,Gelderland,VBO,5.573013,51.926090
Broekdijk,39,,,4041CT,Kesteren,Neder-Betuwe,Gelderland,VBO,5.572752,51.926117
Broekdijk,18,,,4041CV,Kesteren,Neder-Betuwe,Gelderland,VBO,5.584750,51.930538
Broekdijk,20,,,4041CV,Kesteren,Neder-Betuwe,Gelderland,VBO,5.584357,51.930430
Broekdijk,24,,,4041CV,Kesteren,Neder-Betuwe,Gelderland,VBO,5.583979,51.930260
Broekdijk,26,,,4041CV,Kesteren,Neder-Betuwe,Gelderland,VBO,5.583901,51.930632
Broekdijk,28,,,4041CV,Kesteren,Neder-Betuwe,Gelderland,VBO,5.583414,51.930746
Broekdijk,30,,,4041CW,Kesteren,Neder-Betuwe,Gelderland,VBO,5.583147,51.930577
Broekdijk,32,,,4041CW,Kesteren,Neder-Betuwe,Gelderland,VBO,5.583247,51.930351
Broekdijk,34,,,4041CW,Kesteren,Neder-Betuwe,Gelderland,VBO,5.583440,51.930171
Broekdijk,36,,,4041CW,Kesteren,Neder-Betuwe,Gelderland,VBO,5.583600,51.930063
Broekdijk,38,,,4041CW,Kesteren,Neder-Betuwe,Gelderland,VBO,5.583352,51.929956
Broekdijk,40,a,,4041CW,Kesteren,Neder-Betuwe,Gelderland,VBO,5.582801,51.930343
Broekdijk,40,b,,4041CW,Kesteren,Neder-Betuwe,Gelderland,VBO,5.582656,51.930478
Broekdijk,40,c,,4041CW,Kesteren,Neder-Betuwe,Gelderland,VBO,5.582192,51.930713
Broekdijk,40,d,,4041CW,Kesteren,Neder-Betuwe,Gelderland,VBO,5.582278,51.930452
Broekdijk,40,e,,4041CW,Kesteren,Neder-Betuwe,Gelderland,VBO,5.582356,51.930032
Broekdijk,40,f,,4041CW,Kesteren,Neder-Betuwe,Gelderland,VBO,5.582478,51.929535
Broekdijk,40,,,4041CW,Kesteren,Neder-Betuwe,Gelderland,VBO,5.583031,51.929740
Broekdijk,42,a,,4041CW,Kesteren,Neder-Betuwe,Gelderland,VBO,5.581546,51.929182
Broekdijk,42,b,,4041CW,Kesteren,Neder-Betuwe,Gelderland,VBO,5.580351,51.928621
Broekdijk,42,,,4041CW,Kesteren,Neder-Betuwe,Gelderland,VBO,5.581968,51.929347
Broekdijk,44,a,,4041CW,Kesteren,Neder-Betuwe,Gelderland,VBO,5.578137,51.927681
Broekdijk,44,,,4041CW,Kesteren,Neder-Betuwe,Gelderland,VBO,5.578793,51.927941
Broekdijk,46,a,,4041CW,Kesteren,Neder-Betuwe,Gelderland,VBO,5.576653,51.928064
Broekdijk,46,,,4041CW,Kesteren,Neder-Betuwe,Gelderland,VBO,5.576857,51.927548
Broekdijk,50,,,4041CW,Kesteren,Neder-Betuwe,Gelderland,VBO,5.575694,51.927433
Zwarteweg,1,,,4041CX,Kesteren,Neder-Betuwe,Gelderland,VBO,5.586521,51.931038
Zwarteweg,2,,,4041CX,Kesteren,Neder-Betuwe,Gelderland,VBO,5.585072,51.930879
Zwarteweg,3,,,4041CX,Kesteren,Neder-Betuwe,Gelderland,VBO,5.578780,51.931204
Zwarteweg,4,,,4041CX,Kesteren,Neder-Betuwe,Gelderland,VBO,5.585363,51.930869
Zwarteweg,6,,,4041CX,Kesteren,Neder-Betuwe,Gelderland,VBO,5.585653,51.930860
Nieuwe Dijk,5,,,4041CZ,Kesteren,Neder-Betuwe,Gelderland,VBO,5.578522,51.922377
Nieuwe Dijk,7,,,4041CZ,Kesteren,Neder-Betuwe,Gelderland,VBO,5.579729,51.922555
Nieuwe Dijk,9,,,4041CZ,Kesteren,Neder-Betuwe,Gelderland,VBO,5.584093,51.923186
Nieuwe Dijk,11,,,4041CZ,Kesteren,Neder-Betuwe,Gelderland,VBO,5.586130,51.923713
Batterijenweg,1,,,4041DA,Kesteren,Neder-Betuwe,Gelderland,VBO,5.593357,51.933516
Batterijenweg,2,,,4041DA,Kesteren,Neder-Betuwe,Gelderland,VBO,5.594326,51.933986
Batterijenweg,3,,,4041DA,Kesteren,Neder-Betuwe,Gelderland,VBO,5.593388,51.933848
Batterijenweg,5,a,,4041DA,Kesteren,Neder-Betuwe,Gelderland,VBO,5.594345,51.934437
Batterijenweg,5,,,4041DA,Kesteren,Neder-Betuwe,Gelderland,VBO,5.593874,51.934300
Batterijenweg,7,a,,4041DA,Kesteren,Neder-Betuwe,Gelderland,VBO,5.594079,51.934611
Batterijenweg,9,,,4041DA,Kesteren,Neder-Betuwe,Gelderland,VBO,5.594308,51.934889
Batterijenweg,11,a,,4041DA,Kesteren,Neder-Betuwe,Gelderland,VBO,5.593814,51.934827
Batterijenweg,11,,,4041DA,Kesteren,Neder-Betuwe,Gelderland,VBO,5.594295,51.935078
Batterijenweg,13,,,4041DA,Kesteren,Neder-Betuwe,Gelderland,VBO,5.594049,51.935456
Batterijenweg,15,,,4041DA,Kesteren,Neder-Betuwe,Gelderland,VBO,5.593978,51.935807
Batterijenweg,17,a,,4041DA,Kesteren,Neder-Betuwe,Gelderland,VBO,5.591500,51.937547
Batterijenweg,17,,,4041DA,Kesteren,Neder-Betuwe,Gelderland,VBO,5.593636,51.935818
Batterijenweg,19,,,4041DA,Kesteren,Neder-Betuwe,Gelderland,VBO,5.593677,51.936751
Batterijenweg,21,,,4041DA,Kesteren,Neder-Betuwe,Gelderland,VBO,5.592605,51.937616
Parallelweg,63,a,,4041EA,Kesteren,Neder-Betuwe,Gelderland,VBO,5.598770,51.929662
Parallelweg,63,,,4041EA,Kesteren,Neder-Betuwe,Gelderland,VBO,5.598877,51.929657
Parallelweg,65,,,4041EA,Kesteren,Neder-Betuwe,Gelderland,VBO,5.597799,51.928879
Parallelweg,67,,,4041EA,Kesteren,Neder-Betuwe,Gelderland,VBO,5.596597,51.929978
Parallelweg,69,,,4041EA,Kesteren,Neder-Betuwe,Gelderland,VBO,5.596350,51.929969
Parallelweg,71,,,4041EA,Kesteren,Neder-Betuwe,Gelderland,VBO,5.595725,51.929997
Parallelweg,73,b,,4041EA,Kesteren,Neder-Betuwe,Gelderland,VBO,5.593602,51.929892
Parallelweg,73,,,4041EA,Kesteren,Neder-Betuwe,Gelderland,VBO,5.594751,51.930089
Parallelweg,75,,,4041EA,Kesteren,Neder-Betuwe,Gelderland,VBO,5.592862,51.930236
Markstraat,2,a,,4041EB,Kesteren,Neder-Betuwe,Gelderland,VBO,5.595289,51.936344
Markstraat,2,c,,4041EB,Kesteren,Neder-Betuwe,Gelderland,VBO,5.595914,51.939291
Markstraat,2,,,4041EB,Kesteren,Neder-Betuwe,Gelderland,VBO,5.596803,51.935493
Markstraat,4,,,4041EB,Kesteren,Neder-Betuwe,Gelderland,VBO,5.595872,51.939677
Markstraat,8,,,4041EB,Kesteren,Neder-Betuwe,Gelderland,VBO,5.597889,51.927597
Liniestraat,2,,,4041ED,Kesteren,Neder-Betuwe,Gelderland,VBO,5.591173,51.929754
Liniestraat,8,,,4041ED,Kesteren,Neder-Betuwe,Gelderland,VBO,5.589423,51.928525
Rijnbandijk,38,,,4041EE,Kesteren,Neder-Betuwe,Gelderland,VBO,5.596244,51.941582
Rijnbandijk,40,,,4041EE,Kesteren,Neder-Betuwe,Gelderland,VBO,5.590514,51.941377
Rijnbandijk,42,a,,4041EE,Kesteren,Neder-Betuwe,Gelderland,VBO,5.590053,51.941410
Rijnbandijk,42,,,4041EE,Kesteren,Neder-Betuwe,Gelderland,VBO,5.589873,51.941351
Rijnbandijk,44,,,4041EE,Kesteren,Neder-Betuwe,Gelderland,VBO,5.588971,51.941119
Rijnbandijk,46,a,,4041EE,Kesteren,Neder-Betuwe,Gelderland,VBO,5.578768,51.940005
Rijnbandijk,46,,,4041EE,Kesteren,Neder-Betuwe,Gelderland,VBO,5.580331,51.940800
Rijnbandijk,48,,,4041EE,Kesteren,Neder-Betuwe,Gelderland,VBO,5.578725,51.938182
Rijnbandijk,50,,,4041EE,Kesteren,Neder-Betuwe,Gelderland,VBO,5.578267,51.937766
Rijnbandijk,52,,,4041EE,Kesteren,Neder-Betuwe,Gelderland,VBO,5.578120,51.937326
Rijnbandijk,56,,,4041EE,Kesteren,Neder-Betuwe,Gelderland,VBO,5.576128,51.937302
Rijnbandijk,58,,,4041EE,Kesteren,Neder-Betuwe,Gelderland,VBO,5.576011,51.937284
Rijnbandijk,60,,,4041EE,Kesteren,Neder-Betuwe,Gelderland,VBO,5.575531,51.937132
Rijnbandijk,70,,,4041EE,Kesteren,Neder-Betuwe,Gelderland,VBO,5.549303,51.934654
Ambtseweg,1,a,,4041EG,Kesteren,Neder-Betuwe,Gelderland,VBO,5.586352,51.944215
Ambtseweg,1,b,,4041EG,Kesteren,Neder-Betuwe,Gelderland,VBO,5.588844,51.945064
Ambtseweg,1,c,,4041EG,Kesteren,Neder-Betuwe,Gelderland,VBO,5.588253,51.945093
Ambtseweg,1,d,,4041EG,Kesteren,Neder-Betuwe,Gelderland,VBO,5.586799,51.944462
Ambtseweg,1,f,,4041EG,Kesteren,Neder-Betuwe,Gelderland,VBO,5.587189,51.944551
Ambtseweg,1,g,,4041EG,Kesteren,Neder-Betuwe,Gelderland,VBO,5.587433,51.944599
Ambtseweg,1,h,,4041EG,Kesteren,Neder-Betuwe,Gelderland,VBO,5.589089,51.944724
Ambtseweg,1,,,4041EG,Kesteren,Neder-Betuwe,Gelderland,VBO,5.588190,51.945353
Ambtseweg,2,,,4041EG,Kesteren,Neder-Betuwe,Gelderland,VBO,5.587425,51.947562
Ambtseweg,3,,,4041EG,Kesteren,Neder-Betuwe,Gelderland,VBO,5.588062,51.945947
Boveneindsestraat,1,,,4041EH,Kesteren,Neder-Betuwe,Gelderland,VBO,5.577516,51.935412
Boveneindsestraat,3,a,,4041EH,Kesteren,Neder-Betuwe,Gelderland,VBO,5.577897,51.935456
Boveneindsestraat,3,,,4041EH,Kesteren,Neder-Betuwe,Gelderland,VBO,5.578302,51.935609
Boveneindsestraat,5,,,4041EH,Kesteren,Neder-Betuwe,Gelderland,VBO,5.578396,51.935775
Boveneindsestraat,9,,,4041EH,Kesteren,Neder-Betuwe,Gelderland,VBO,5.578653,51.935986
Boveneindsestraat,11,,,4041EH,Kesteren,Neder-Betuwe,Gelderland,VBO,5.579381,51.936362
Boveneindsestraat,13,a,,4041EH,Kesteren,Neder-Betuwe,Gelderland,VBO,5.581146,51.937653
Boveneindsestraat,13,,,4041EH,Kesteren,Neder-Betuwe,Gelderland,VBO,5.579629,51.936514
Boveneindsestraat,15,a,,4041EH,Kesteren,Neder-Betuwe,Gelderland,VBO,5.582195,51.938029
Boveneindsestraat,15,b,,4041EH,Kesteren,Neder-Betuwe,Gelderland,VBO,5.582618,51.938343
Boveneindsestraat,15,,,4041EH,Kesteren,Neder-Betuwe,Gelderland,VBO,5.581379,51.937635
Boveneindsestraat,17,,,4041EH,Kesteren,Neder-Betuwe,Gelderland,VBO,5.583870,51.938664
Boveneindsestraat,19,,,4041EH,Kesteren,Neder-Betuwe,Gelderland,VBO,5.584905,51.939274
Boveneindsestraat,21,a,,4041EH,Kesteren,Neder-Betuwe,Gelderland,VBO,5.586037,51.939738
Boveneindsestraat,21,b,,4041EH,Kesteren,Neder-Betuwe,Gelderland,VBO,5.586599,51.939897
Boveneindsestraat,21,,,4041EH,Kesteren,Neder-Betuwe,Gelderland,VBO,5.585663,51.939695
Boveneindsestraat,23,a,,4041EH,Kesteren,Neder-Betuwe,Gelderland,VBO,5.588196,51.940266
Boveneindsestraat,25,,,4041EH,Kesteren,Neder-Betuwe,Gelderland,VBO,5.588313,51.940455
Boveneindsestraat,27,a,,4041EH,Kesteren,Neder-Betuwe,Gelderland,VBO,5.588684,51.940514
Boveneindsestraat,27,b,,4041EH,Kesteren,Neder-Betuwe,Gelderland,VBO,5.588709,51.940466
Boveneindsestraat,27,c,,4041EH,Kesteren,Neder-Betuwe,Gelderland,VBO,5.588730,51.940421
Boveneindsestraat,27,,,4041EH,Kesteren,Neder-Betuwe,Gelderland,VBO,5.588619,51.940472
Boveneindsestraat,29,,,4041EH,Kesteren,Neder-Betuwe,Gelderland,VBO,5.589011,51.940435
Boveneindsestraat,31,,,4041EH,Kesteren,Neder-Betuwe,Gelderland,VBO,5.589317,51.940534
Boveneindsestraat,4,,,4041EJ,Kesteren,Neder-Betuwe,Gelderland,VBO,5.577922,51.935070
Boveneindsestraat,6,,,4041EJ,Kesteren,Neder-Betuwe,Gelderland,VBO,5.578641,51.934574
Boveneindsestraat,8,,,4041EJ,Kesteren,Neder-Betuwe,Gelderland,VBO,5.578591,51.935311
Boveneindsestraat,14,a,,4041EJ,Kesteren,Neder-Betuwe,Gelderland,VBO,5.578865,51.935255
Boveneindsestraat,14,,,4041EJ,Kesteren,Neder-Betuwe,Gelderland,VBO,5.578883,51.935383
Boveneindsestraat,18,a,,4041EJ,Kesteren,Neder-Betuwe,Gelderland,VBO,5.580002,51.935801
Boveneindsestraat,18,b,,4041EJ,Kesteren,Neder-Betuwe,Gelderland,VBO,5.580227,51.935848
Boveneindsestraat,18,,,4041EJ,Kesteren,Neder-Betuwe,Gelderland,VBO,5.579906,51.935907
Boveneindsestraat,20,,,4041EJ,Kesteren,Neder-Betuwe,Gelderland,VBO,5.581725,51.936879
Boveneindsestraat,22,,,4041EJ,Kesteren,Neder-Betuwe,Gelderland,VBO,5.583837,51.937829
Boveneindsestraat,32,,,4041EJ,Kesteren,Neder-Betuwe,Gelderland,VBO,5.589417,51.939567
Boveneindsestraat,34,,,4041EJ,Kesteren,Neder-Betuwe,Gelderland,VBO,5.588994,51.939894
Boveneindsestraat,36,a,,4041EJ,Kesteren,Neder-Betuwe,Gelderland,VBO,5.589884,51.939973
Boveneindsestraat,36,,,4041EJ,Kesteren,Neder-Betuwe,Gelderland,VBO,5.589598,51.940038
De Peel,1,,,4041EK,Kesteren,Neder-Betuwe,Gelderland,VBO,5.579841,51.934995
De Peel,3,,,4041EK,Kesteren,Neder-Betuwe,Gelderland,VBO,5.579868,51.934689
De Peel,5,,,4041EK,Kesteren,Neder-Betuwe,Gelderland,VBO,5.579984,51.934518
De Peel,7,,,4041EK,Kesteren,Neder-Betuwe,Gelderland,VBO,5.580012,51.934293
De Peel,9,,,4041EK,Kesteren,Neder-Betuwe,Gelderland,VBO,5.580055,51.934105
De Peel,11,,,4041EK,Kesteren,Neder-Betuwe,Gelderland,VBO,5.580098,51.933952
De Peel,13,,,4041EK,Kesteren,Neder-Betuwe,Gelderland,VBO,5.580185,51.933826
De Peel,15,,,4041EK,Kesteren,Neder-Betuwe,Gelderland,VBO,5.580213,51.933763
De Peel,2,,,4041EL,Kesteren,Neder-Betuwe,Gelderland,VBO,5.579335,51.935787
De Peel,4,,,4041EL,Kesteren,Neder-Betuwe,Gelderland,VBO,5.579450,51.935553
De Peel,6,,,4041EL,Kesteren,Neder-Betuwe,Gelderland,VBO,5.579624,51.935283
De Peel,8,,,4041EL,Kesteren,Neder-Betuwe,Gelderland,VBO,5.579361,51.935148
De Peel,10,,,4041EL,Kesteren,Neder-Betuwe,Gelderland,VBO,5.579085,51.935086
De Peel,12,,,4041EL,Kesteren,Neder-Betuwe,Gelderland,VBO,5.579273,51.934816
De Peel,14,,,4041EL,Kesteren,Neder-Betuwe,Gelderland,VBO,5.579330,51.934618
De Peel,16,,,4041EL,Kesteren,Neder-Betuwe,Gelderland,VBO,5.579388,51.934483
De Peel,18,,,4041EL,Kesteren,Neder-Betuwe,Gelderland,VBO,5.579431,51.934357
De Peel,20,,,4041EL,Kesteren,Neder-Betuwe,Gelderland,VBO,5.579474,51.934187
De Peel,22,,,4041EL,Kesteren,Neder-Betuwe,Gelderland,VBO,5.579502,51.934025
Torenstraat,1,a,,4041GA,Kesteren,Neder-Betuwe,Gelderland,VBO,5.572779,51.934353
Torenstraat,1,,,4041GA,Kesteren,Neder-Betuwe,Gelderland,VBO,5.572582,51.934386
Torenstraat,2,,,4041GA,Kesteren,Neder-Betuwe,Gelderland,VBO,5.572610,51.934045
Torenstraat,3,,,4041GA,Kesteren,Neder-Betuwe,Gelderland,VBO,5.573091,51.934421
Torenstraat,4,,,4041GA,Kesteren,Neder-Betuwe,Gelderland,VBO,5.572741,51.934018
Torenstraat,5,,,4041GA,Kesteren,Neder-Betuwe,Gelderland,VBO,5.573338,51.934403
Torenstraat,6,,,4041GA,Kesteren,Neder-Betuwe,Gelderland,VBO,5.572915,51.934008
Torenstraat,8,,,4041GA,Kesteren,Neder-Betuwe,Gelderland,VBO,5.573107,51.934094
Torenstraat,10,,,4041GA,Kesteren,Neder-Betuwe,Gelderland,VBO,5.573202,51.934104
Torenstraat,12,,,4041GA,Kesteren,Neder-Betuwe,Gelderland,VBO,5.573338,51.934172
Torenstraat,14,,,4041GA,Kesteren,Neder-Betuwe,Gelderland,VBO,5.573400,51.934178
Torenstraat,16,,,4041GA,Kesteren,Neder-Betuwe,Gelderland,VBO,5.573343,51.934142
Torenstraat,18,,,4041GA,Kesteren,Neder-Betuwe,Gelderland,VBO,5.573395,51.934144
Gerard Doustraat,2,,,4041GB,Kesteren,Neder-Betuwe,Gelderland,VBO,5.572073,51.935741
Gerard Doustraat,4,,,4041GB,Kesteren,Neder-Betuwe,Gelderland,VBO,5.571997,51.935742
Gerard Doustraat,6,,,4041GB,Kesteren,Neder-Betuwe,Gelderland,VBO,5.571817,51.935745
Gerard Doustraat,8,a,,4041GB,Kesteren,Neder-Betuwe,Gelderland,VBO,5.571624,51.935748
Gerard Doustraat,8,,,4041GB,Kesteren,Neder-Betuwe,Gelderland,VBO,5.571732,51.935746
Gerard Doustraat,10,,,4041GB,Kesteren,Neder-Betuwe,Gelderland,VBO,5.571228,51.935755
Gerard Doustraat,12,,,4041GB,Kesteren,Neder-Betuwe,Gelderland,VBO,5.571140,51.935757
Gerard Doustraat,14,,,4041GB,Kesteren,Neder-Betuwe,Gelderland,VBO,5.571039,51.935763
Gerard Doustraat,16,a,,4041GB,Kesteren,Neder-Betuwe,Gelderland,VBO,5.570539,51.936094
Gerard Doustraat,16,b,,4041GB,Kesteren,Neder-Betuwe,Gelderland,VBO,5.570559,51.936069
Gerard Doustraat,16,c,,4041GB,Kesteren,Neder-Betuwe,Gelderland,VBO,5.570575,51.936036
Gerard Doustraat,16,d,,4041GB,Kesteren,Neder-Betuwe,Gelderland,VBO,5.570577,51.936003
Gerard Doustraat,16,e,,4041GB,Kesteren,Neder-Betuwe,Gelderland,VBO,5.570589,51.935980
Gerard Doustraat,16,f,,4041GB,Kesteren,Neder-Betuwe,Gelderland,VBO,5.570597,51.935954
Gerard Doustraat,16,g,,4041GB,Kesteren,Neder-Betuwe,Gelderland,VBO,5.570685,51.935965
Gerard Doustraat,16,h,,4041GB,Kesteren,Neder-Betuwe,Gelderland,VBO,5.570679,51.935998
Gerard Doustraat,16,i,,4041GB,Kesteren,Neder-Betuwe,Gelderland,VBO,5.570675,51.936031
Gerard Doustraat,16,j,,4041GB,Kesteren,Neder-Betuwe,Gelderland,VBO,5.570671,51.936058
Gerard Doustraat,16,k,,4041GB,Kesteren,Neder-Betuwe,Gelderland,VBO,5.570659,51.936087
Gerard Doustraat,16,l,,4041GB,Kesteren,Neder-Betuwe,Gelderland,VBO,5.570651,51.936106
Gerard Doustraat,16,,,4041GB,Kesteren,Neder-Betuwe,Gelderland,VBO,5.570962,51.935766
Gerard Doustraat,18,,,4041GB,Kesteren,Neder-Betuwe,Gelderland,VBO,5.570740,51.935773
Gerard Doustraat,20,,,4041GB,Kesteren,Neder-Betuwe,Gelderland,VBO,5.570655,51.935782
Gerard Doustraat,22,,,4041GB,Kesteren,Neder-Betuwe,Gelderland,VBO,5.570567,51.935782
Gerard Doustraat,24,,,4041GB,Kesteren,Neder-Betuwe,Gelderland,VBO,5.570482,51.935789
Gerard Doustraat,26,,,4041GB,Kesteren,Neder-Betuwe,Gelderland,VBO,5.570189,51.935801
Gerard Doustraat,28,,,4041GB,Kesteren,Neder-Betuwe,Gelderland,VBO,5.570145,51.935846
Gerard Doustraat,30,,,4041GB,Kesteren,Neder-Betuwe,Gelderland,VBO,5.570102,51.935891
Gerard Doustraat,32,,,4041GB,Kesteren,Neder-Betuwe,Gelderland,VBO,5.570073,51.935945
Gerard Doustraat,34,,,4041GB,Kesteren,Neder-Betuwe,Gelderland,VBO,5.570030,51.935999
Jan Steenstraat,1,,,4041GC,Kesteren,Neder-Betuwe,Gelderland,VBO,5.570714,51.936295
Jan Steenstraat,3,,,4041GC,Kesteren,Neder-Betuwe,Gelderland,VBO,5.570627,51.936295
Jan Steenstraat,5,,,4041GC,Kesteren,Neder-Betuwe,Gelderland,VBO,5.570554,51.936286
Jan Steenstraat,7,,,4041GC,Kesteren,Neder-Betuwe,Gelderland,VBO,5.570438,51.936277
Jan Steenstraat,9,,,4041GC,Kesteren,Neder-Betuwe,Gelderland,VBO,5.570229,51.936253
Jan Steenstraat,11,,,4041GC,Kesteren,Neder-Betuwe,Gelderland,VBO,5.570154,51.936248
Jan Steenstraat,13,,,4041GC,Kesteren,Neder-Betuwe,Gelderland,VBO,5.570046,51.936238
Jan Steenstraat,15,,,4041GC,Kesteren,Neder-Betuwe,Gelderland,VBO,5.569966,51.936227
Jan Steenstraat,17,,,4041GC,Kesteren,Neder-Betuwe,Gelderland,VBO,5.568457,51.936070
Jan Steenstraat,19,,,4041GC,Kesteren,Neder-Betuwe,Gelderland,VBO,5.568384,51.936064
Jan Steenstraat,21,,,4041GC,Kesteren,Neder-Betuwe,Gelderland,VBO,5.568296,51.936048
Jan Steenstraat,23,,,4041GC,Kesteren,Neder-Betuwe,Gelderland,VBO,5.568226,51.936038
Jan Steenstraat,25,,,4041GC,Kesteren,Neder-Betuwe,Gelderland,VBO,5.568131,51.936018
Jan Steenstraat,27,,,4041GC,Kesteren,Neder-Betuwe,Gelderland,VBO,5.568037,51.936002
Jan Steenstraat,29,a,,4041GC,Kesteren,Neder-Betuwe,Gelderland,VBO,5.567948,51.935908
Jan Steenstraat,29,b,,4041GC,Kesteren,Neder-Betuwe,Gelderland,VBO,5.567897,51.935887
Jan Steenstraat,31,,,4041GC,Kesteren,Neder-Betuwe,Gelderland,VBO,5.567686,51.935962
Jan Steenstraat,33,,,4041GC,Kesteren,Neder-Betuwe,Gelderland,VBO,5.567599,51.935947
Jan Steenstraat,35,,,4041GC,Kesteren,Neder-Betuwe,Gelderland,VBO,5.567514,51.935943
Jan Steenstraat,2,a,,4041GD,Kesteren,Neder-Betuwe,Gelderland,VBO,5.571021,51.936625
Jan Steenstraat,2,b,,4041GD,Kesteren,Neder-Betuwe,Gelderland,VBO,5.570921,51.936615
Jan Steenstraat,2,c,,4041GD,Kesteren,Neder-Betuwe,Gelderland,VBO,5.570834,51.936606
Jan Steenstraat,2,,,4041GD,Kesteren,Neder-Betuwe,Gelderland,VBO,5.570483,51.936574
Jan Steenstraat,4,,,4041GD,Kesteren,Neder-Betuwe,Gelderland,VBO,5.570454,51.936619
Jan Steenstraat,6,,,4041GD,Kesteren,Neder-Betuwe,Gelderland,VBO,5.570440,51.936673
Jan Steenstraat,8,,,4041GD,Kesteren,Neder-Betuwe,Gelderland,VBO,5.570427,51.936733
Jan Steenstraat,10,,,4041GD,Kesteren,Neder-Betuwe,Gelderland,VBO,5.570397,51.936789
Jan Steenstraat,12,,,4041GD,Kesteren,Neder-Betuwe,Gelderland,VBO,5.570397,51.936844
Jan Steenstraat,14,,,4041GD,Kesteren,Neder-Betuwe,Gelderland,VBO,5.569969,51.936696
Jan Steenstraat,16,,,4041GD,Kesteren,Neder-Betuwe,Gelderland,VBO,5.569983,51.936649
Jan Steenstraat,18,,,4041GD,Kesteren,Neder-Betuwe,Gelderland,VBO,5.569993,51.936592
Jan Steenstraat,20,,,4041GD,Kesteren,Neder-Betuwe,Gelderland,VBO,5.570009,51.936543
Jan Steenstraat,26,,,4041GD,Kesteren,Neder-Betuwe,Gelderland,VBO,5.568990,51.936380
Jan Steenstraat,28,,,4041GD,Kesteren,Neder-Betuwe,Gelderland,VBO,5.568752,51.936351
Jan Steenstraat,30,,,4041GE,Kesteren,Neder-Betuwe,Gelderland,VBO,5.568679,51.936348
Jan Steenstraat,32,,,4041GE,Kesteren,Neder-Betuwe,Gelderland,VBO,5.568585,51.936336
Jan Steenstraat,34,,,4041GE,Kesteren,Neder-Betuwe,Gelderland,VBO,5.568492,51.936316
Jan Steenstraat,36,,,4041GE,Kesteren,Neder-Betuwe,Gelderland,VBO,5.568315,51.936299
Jan Steenstraat,38,,,4041GE,Kesteren,Neder-Betuwe,Gelderland,VBO,5.568213,51.936290
Jan Steenstraat,40,,,4041GE,Kesteren,Neder-Betuwe,Gelderland,VBO,5.568126,51.936281
Jan Steenstraat,42,,,4041GE,Kesteren,Neder-Betuwe,Gelderland,VBO,5.568053,51.936272
Jan Steenstraat,44,,,4041GE,Kesteren,Neder-Betuwe,Gelderland,VBO,5.567878,51.936236
Jan Steenstraat,46,,,4041GE,Kesteren,Neder-Betuwe,Gelderland,VBO,5.567791,51.936227
Jan Steenstraat,48,,,4041GE,Kesteren,Neder-Betuwe,Gelderland,VBO,5.567704,51.936219
Jan Steenstraat,50,,,4041GE,Kesteren,Neder-Betuwe,Gelderland,VBO,5.567646,51.936210
Vincent van Goghstraat,1,,,4041GG,Kesteren,Neder-Betuwe,Gelderland,VBO,5.571207,51.935970
Vincent van Goghstraat,2,,,4041GG,Kesteren,Neder-Betuwe,Gelderland,VBO,5.571687,51.935943
Vincent van Goghstraat,3,,,4041GG,Kesteren,Neder-Betuwe,Gelderland,VBO,5.571192,51.936028
Vincent van Goghstraat,4,,,4041GG,Kesteren,Neder-Betuwe,Gelderland,VBO,5.571658,51.935997
Vincent van Goghstraat,5,,,4041GG,Kesteren,Neder-Betuwe,Gelderland,VBO,5.571170,51.936079
Vincent van Goghstraat,6,,,4041GG,Kesteren,Neder-Betuwe,Gelderland,VBO,5.571606,51.936105
Vincent van Goghstraat,7,,,4041GG,Kesteren,Neder-Betuwe,Gelderland,VBO,5.571135,51.936192
Vincent van Goghstraat,8,,,4041GG,Kesteren,Neder-Betuwe,Gelderland,VBO,5.571581,51.936163
Vincent van Goghstraat,9,,,4041GG,Kesteren,Neder-Betuwe,Gelderland,VBO,5.571110,51.936245
Vincent van Goghstraat,10,,,4041GG,Kesteren,Neder-Betuwe,Gelderland,VBO,5.571550,51.936219
Vincent van Goghstraat,11,,,4041GG,Kesteren,Neder-Betuwe,Gelderland,VBO,5.571086,51.936293
Vincent van Goghstraat,12,,,4041GG,Kesteren,Neder-Betuwe,Gelderland,VBO,5.571512,51.936322
Vincent van Goghstraat,13,,,4041GG,Kesteren,Neder-Betuwe,Gelderland,VBO,5.571060,51.936339
Vincent van Goghstraat,14,,,4041GG,Kesteren,Neder-Betuwe,Gelderland,VBO,5.571495,51.936383
Vincent van Goghstraat,15,,,4041GG,Kesteren,Neder-Betuwe,Gelderland,VBO,5.571138,51.936779
Vincent van Goghstraat,16,,,4041GG,Kesteren,Neder-Betuwe,Gelderland,VBO,5.571468,51.936435
Vincent van Goghstraat,17,,,4041GG,Kesteren,Neder-Betuwe,Gelderland,VBO,5.571182,51.936833
Vincent van Goghstraat,18,,,4041GG,Kesteren,Neder-Betuwe,Gelderland,VBO,5.572021,51.936933
Vincent van Goghstraat,19,,,4041GG,Kesteren,Neder-Betuwe,Gelderland,VBO,5.571197,51.936878
Vincent van Goghstraat,20,,,4041GG,Kesteren,Neder-Betuwe,Gelderland,VBO,5.572216,51.936920
Dorpsplein,1,,,4041GH,Kesteren,Neder-Betuwe,Gelderland,VBO,5.572266,51.935385
Dorpsplein,2,,,4041GH,Kesteren,Neder-Betuwe,Gelderland,VBO,5.573548,51.935967
Dorpsplein,3,,,4041GH,Kesteren,Neder-Betuwe,Gelderland,VBO,5.572472,51.935798
Dorpsplein,4,,,4041GH,Kesteren,Neder-Betuwe,Gelderland,VBO,5.573390,51.936282
Dorpsplein,5,a,,4041GH,Kesteren,Neder-Betuwe,Gelderland,VBO,5.572487,51.936040
Dorpsplein,5,b,,4041GH,Kesteren,Neder-Betuwe,Gelderland,VBO,5.572400,51.936112
Dorpsplein,5,,,4041GH,Kesteren,Neder-Betuwe,Gelderland,VBO,5.572472,51.935968
Dorpsplein,6,,,4041GH,Kesteren,Neder-Betuwe,Gelderland,VBO,5.572808,51.936229
Dorpsplein,7,,,4041GH,Kesteren,Neder-Betuwe,Gelderland,VBO,5.572342,51.936193
Dorpsplein,8,,,4041GH,Kesteren,Neder-Betuwe,Gelderland,VBO,5.572706,51.936350
Dorpsplein,9,,,4041GH,Kesteren,Neder-Betuwe,Gelderland,VBO,5.572256,51.936409
Achterdorp,1,,,4041GJ,Kesteren,Neder-Betuwe,Gelderland,VBO,5.572140,51.936490
Achterdorp,3,,,4041GJ,Kesteren,Neder-Betuwe,Gelderland,VBO,5.571675,51.936626
Achterdorp,5,,,4041GJ,Kesteren,Neder-Betuwe,Gelderland,VBO,5.571516,51.936716
Achterdorp,7,,,4041GJ,Kesteren,Neder-Betuwe,Gelderland,VBO,5.570877,51.936987
Achterdorp,13,,,4041GJ,Kesteren,Neder-Betuwe,Gelderland,VBO,5.570674,51.937077
Achterdorp,15,a,,4041GJ,Kesteren,Neder-Betuwe,Gelderland,VBO,5.570653,51.936882
Achterdorp,15,,,4041GJ,Kesteren,Neder-Betuwe,Gelderland,VBO,5.570499,51.937059
Achterdorp,17,,,4041GJ,Kesteren,Neder-Betuwe,Gelderland,VBO,5.570223,51.937033
Achterdorp,19,,,4041GJ,Kesteren,Neder-Betuwe,Gelderland,VBO,5.570150,51.937024
Achterdorp,21,,,4041GJ,Kesteren,Neder-Betuwe,Gelderland,VBO,5.570033,51.936952
Achterdorp,23,,,4041GJ,Kesteren,Neder-Betuwe,Gelderland,VBO,5.569885,51.936982
Achterdorp,25,,,4041GJ,Kesteren,Neder-Betuwe,Gelderland,VBO,5.569760,51.936976
Achterdorp,33,,,4041GJ,Kesteren,Neder-Betuwe,Gelderland,VBO,5.569402,51.936881
Achterdorp,35,a,,4041GJ,Kesteren,Neder-Betuwe,Gelderland,VBO,5.568792,51.936894
Achterdorp,35,,,4041GJ,Kesteren,Neder-Betuwe,Gelderland,VBO,5.568972,51.936855
Achterdorp,37,a,,4041GJ,Kesteren,Neder-Betuwe,Gelderland,VBO,5.568506,51.936820
Achterdorp,37,,,4041GJ,Kesteren,Neder-Betuwe,Gelderland,VBO,5.568593,51.936819
Achterdorp,39,a,,4041GJ,Kesteren,Neder-Betuwe,Gelderland,VBO,5.567967,51.936668
Achterdorp,39,b,,4041GJ,Kesteren,Neder-Betuwe,Gelderland,VBO,5.567880,51.936650
Achterdorp,39,,,4041GJ,Kesteren,Neder-Betuwe,Gelderland,VBO,5.568273,51.936766
Achterdorp,41,,,4041GJ,Kesteren,Neder-Betuwe,Gelderland,VBO,5.567662,51.936668
Achterdorp,45,,,4041GJ,Kesteren,Neder-Betuwe,Gelderland,VBO,5.567444,51.936578
Achterdorp,47,,,4041GJ,Kesteren,Neder-Betuwe,Gelderland,VBO,5.567298,51.936471
Achterdorp,2,,,4041GK,Kesteren,Neder-Betuwe,Gelderland,VBO,5.571038,51.937238
Achterdorp,4,,,4041GK,Kesteren,Neder-Betuwe,Gelderland,VBO,5.570864,51.937265
Achterdorp,6,,,4041GK,Kesteren,Neder-Betuwe,Gelderland,VBO,5.570253,51.937272
Achterdorp,8,,,4041GK,Kesteren,Neder-Betuwe,Gelderland,VBO,5.569933,51.937249
Achterdorp,10,a,,4041GK,Kesteren,Neder-Betuwe,Gelderland,VBO,5.569645,51.937168
Achterdorp,10,,,4041GK,Kesteren,Neder-Betuwe,Gelderland,VBO,5.569846,51.937249
Achterdorp,12,,,4041GK,Kesteren,Neder-Betuwe,Gelderland,VBO,5.569497,51.937249
Achterdorp,18,,,4041GK,Kesteren,Neder-Betuwe,Gelderland,VBO,5.569336,51.937088
Achterdorp,20,,,4041GK,Kesteren,Neder-Betuwe,Gelderland,VBO,5.568740,51.937080
Achterdorp,22,,,4041GK,Kesteren,Neder-Betuwe,Gelderland,VBO,5.568449,51.937008
Achterdorp,26,,,4041GK,Kesteren,Neder-Betuwe,Gelderland,VBO,5.567080,51.936633
Binnenstraat,2,,,4041GL,Kesteren,Neder-Betuwe,Gelderland,VBO,5.569616,51.937932
Binnenstraat,4,,,4041GL,Kesteren,Neder-Betuwe,Gelderland,VBO,5.569572,51.937995
Binnenstraat,6,,,4041GL,Kesteren,Neder-Betuwe,Gelderland,VBO,5.569543,51.938040
Binnenstraat,8,,,4041GL,Kesteren,Neder-Betuwe,Gelderland,VBO,5.569447,51.938189
Jan van Amstelstraat,1,,,4041GM,Kesteren,Neder-Betuwe,Gelderland,VBO,5.569822,51.938651
Jan van Amstelstraat,2,,,4041GM,Kesteren,Neder-Betuwe,Gelderland,VBO,5.570099,51.938777
Jan van Amstelstraat,3,,,4041GM,Kesteren,Neder-Betuwe,Gelderland,VBO,5.569764,51.938714
Jan van Amstelstraat,4,,,4041GM,Kesteren,Neder-Betuwe,Gelderland,VBO,5.570041,51.938831
Jan van Amstelstraat,5,,,4041GM,Kesteren,Neder-Betuwe,Gelderland,VBO,5.569706,51.938759
Jan van Amstelstraat,6,,,4041GM,Kesteren,Neder-Betuwe,Gelderland,VBO,5.569925,51.938912
Jan van Amstelstraat,7,,,4041GM,Kesteren,Neder-Betuwe,Gelderland,VBO,5.569648,51.938804
Jan van Amstelstraat,8,,,4041GM,Kesteren,Neder-Betuwe,Gelderland,VBO,5.569867,51.938975
Jan van Amstelstraat,9,,,4041GM,Kesteren,Neder-Betuwe,Gelderland,VBO,5.569590,51.938858
Jan van Amstelstraat,10,,,4041GM,Kesteren,Neder-Betuwe,Gelderland,VBO,5.569737,51.939082
Jan van Amstelstraat,11,,,4041GM,Kesteren,Neder-Betuwe,Gelderland,VBO,5.569475,51.938957
Jan van Amstelstraat,12,,,4041GM,Kesteren,Neder-Betuwe,Gelderland,VBO,5.569682,51.939133
Jan van Amstelstraat,13,,,4041GM,Kesteren,Neder-Betuwe,Gelderland,VBO,5.569417,51.939011
Jan van Amstelstraat,14,,,4041GM,Kesteren,Neder-Betuwe,Gelderland,VBO,5.569632,51.939177
Jan van Amstelstraat,15,,,4041GM,Kesteren,Neder-Betuwe,Gelderland,VBO,5.569373,51.939056
Jan van Amstelstraat,16,,,4041GM,Kesteren,Neder-Betuwe,Gelderland,VBO,5.569532,51.939263
Jan van Amstelstraat,17,,,4041GM,Kesteren,Neder-Betuwe,Gelderland,VBO,5.569243,51.939155
Jan van Amstelstraat,18,,,4041GM,Kesteren,Neder-Betuwe,Gelderland,VBO,5.569466,51.939314
Jan van Amstelstraat,19,,,4041GM,Kesteren,Neder-Betuwe,Gelderland,VBO,5.569185,51.939209
Jan van Amstelstraat,20,,,4041GM,Kesteren,Neder-Betuwe,Gelderland,VBO,5.569389,51.939389
Jan van Amstelstraat,21,,,4041GM,Kesteren,Neder-Betuwe,Gelderland,VBO,5.569141,51.939254
Jan van Amstelstraat,22,,,4041GM,Kesteren,Neder-Betuwe,Gelderland,VBO,5.569331,51.939443
Jan van Amstelstraat,24,,,4041GM,Kesteren,Neder-Betuwe,Gelderland,VBO,5.569224,51.939535
Jan van Amstelstraat,26,,,4041GM,Kesteren,Neder-Betuwe,Gelderland,VBO,5.569160,51.939583
Floris van Lijndestraat,2,,,4041GP,Kesteren,Neder-Betuwe,Gelderland,VBO,5.568428,51.939112
Floris van Lijndestraat,4,,,4041GP,Kesteren,Neder-Betuwe,Gelderland,VBO,5.568486,51.939157
Floris van Lijndestraat,6,,,4041GP,Kesteren,Neder-Betuwe,Gelderland,VBO,5.568545,51.939210
Floris van Lijndestraat,8,,,4041GP,Kesteren,Neder-Betuwe,Gelderland,VBO,5.568603,51.939255
Floris van Lijndestraat,10,,,4041GP,Kesteren,Neder-Betuwe,Gelderland,VBO,5.568722,51.939364
Floris van Lijndestraat,12,,,4041GP,Kesteren,Neder-Betuwe,Gelderland,VBO,5.568766,51.939410
Floris van Lijndestraat,14,,,4041GP,Kesteren,Neder-Betuwe,Gelderland,VBO,5.568816,51.939465
Floris van Lijndestraat,16,,,4041GP,Kesteren,Neder-Betuwe,Gelderland,VBO,5.569041,51.939730
Floris van Lijndestraat,18,,,4041GP,Kesteren,Neder-Betuwe,Gelderland,VBO,5.569106,51.939776
Floris van Lijndestraat,20,,,4041GP,Kesteren,Neder-Betuwe,Gelderland,VBO,5.569187,51.939857
Floris van Lijndestraat,22,,,4041GP,Kesteren,Neder-Betuwe,Gelderland,VBO,5.569260,51.939910
Floris van Lijndestraat,24,,,4041GP,Kesteren,Neder-Betuwe,Gelderland,VBO,5.569348,51.939991
Floris van Lijndestraat,26,,,4041GP,Kesteren,Neder-Betuwe,Gelderland,VBO,5.569421,51.940054
Rhenenseweg,1,,,4041GS,Kesteren,Neder-Betuwe,Gelderland,VBO,5.567869,51.937576
Rhenenseweg,2,,,4041GS,Kesteren,Neder-Betuwe,Gelderland,VBO,5.569269,51.938418
Rhenenseweg,4,,,4041GS,Kesteren,Neder-Betuwe,Gelderland,VBO,5.569196,51.938463
Rhenenseweg,6,,,4041GS,Kesteren,Neder-Betuwe,Gelderland,VBO,5.569124,51.938508
Rhenenseweg,8,,,4041GS,Kesteren,Neder-Betuwe,Gelderland,VBO,5.569066,51.938553
Rhenenseweg,10,,,4041GS,Kesteren,Neder-Betuwe,Gelderland,VBO,5.569022,51.938580
Rhenenseweg,12,,,4041GS,Kesteren,Neder-Betuwe,Gelderland,VBO,5.568877,51.938706
Rhenenseweg,14,,,4041GS,Kesteren,Neder-Betuwe,Gelderland,VBO,5.568819,51.938743
Rhenenseweg,16,,,4041GS,Kesteren,Neder-Betuwe,Gelderland,VBO,5.568776,51.938797
Rhenenseweg,18,,,4041GS,Kesteren,Neder-Betuwe,Gelderland,VBO,5.568718,51.938851
Rhenenseweg,20,,,4041GS,Kesteren,Neder-Betuwe,Gelderland,VBO,5.568660,51.938896
Rhenenseweg,22,,,4041GS,Kesteren,Neder-Betuwe,Gelderland,VBO,5.570577,51.941124
Joachim van Hoemenstraat,1,,,4041GT,Kesteren,Neder-Betuwe,Gelderland,VBO,5.570667,51.939027
Joachim van Hoemenstraat,2,a,,4041GT,Kesteren,Neder-Betuwe,Gelderland,VBO,5.570973,51.939644
Joachim van Hoemenstraat,2,b,,4041GT,Kesteren,Neder-Betuwe,Gelderland,VBO,5.571193,51.939735
Joachim van Hoemenstraat,3,,,4041GT,Kesteren,Neder-Betuwe,Gelderland,VBO,5.570624,51.939063
Joachim van Hoemenstraat,5,,,4041GT,Kesteren,Neder-Betuwe,Gelderland,VBO,5.570551,51.939117
Joachim van Hoemenstraat,7,,,4041GT,Kesteren,Neder-Betuwe,Gelderland,VBO,5.570479,51.939162
Joachim van Hoemenstraat,9,,,4041GT,Kesteren,Neder-Betuwe,Gelderland,VBO,5.570435,51.939207
Joachim van Hoemenstraat,11,,,4041GT,Kesteren,Neder-Betuwe,Gelderland,VBO,5.570330,51.939320
Joachim van Hoemenstraat,13,,,4041GT,Kesteren,Neder-Betuwe,Gelderland,VBO,5.570266,51.939374
Joachim van Hoemenstraat,15,,,4041GT,Kesteren,Neder-Betuwe,Gelderland,VBO,5.570191,51.939429
Joachim van Hoemenstraat,17,a,,4041GT,Kesteren,Neder-Betuwe,Gelderland,VBO,5.570118,51.939506
Joachim van Hoemenstraat,17,,,4041GT,Kesteren,Neder-Betuwe,Gelderland,VBO,5.570145,51.939472
Joachim van Hoemenstraat,19,,,4041GT,Kesteren,Neder-Betuwe,Gelderland,VBO,5.569984,51.939603
Joachim van Hoemenstraat,21,,,4041GT,Kesteren,Neder-Betuwe,Gelderland,VBO,5.569936,51.939650
Joachim van Hoemenstraat,23,,,4041GT,Kesteren,Neder-Betuwe,Gelderland,VBO,5.569884,51.939692
Joachim van Hoemenstraat,25,,,4041GT,Kesteren,Neder-Betuwe,Gelderland,VBO,5.569839,51.939727
Joachim van Hoemenstraat,27,,,4041GT,Kesteren,Neder-Betuwe,Gelderland,VBO,5.569738,51.939828
Joachim van Hoemenstraat,29,,,4041GT,Kesteren,Neder-Betuwe,Gelderland,VBO,5.569682,51.939865
Arndt van Buerenstraat,2,a,,4041GV,Kesteren,Neder-Betuwe,Gelderland,VBO,5.569698,51.938278
Arndt van Buerenstraat,2,,,4041GV,Kesteren,Neder-Betuwe,Gelderland,VBO,5.569622,51.938240
Arndt van Buerenstraat,4,,,4041GV,Kesteren,Neder-Betuwe,Gelderland,VBO,5.569865,51.938336
Arndt van Buerenstraat,6,,,4041GV,Kesteren,Neder-Betuwe,Gelderland,VBO,5.569952,51.938372
Arndt van Buerenstraat,8,,,4041GV,Kesteren,Neder-Betuwe,Gelderland,VBO,5.570025,51.938408
Arndt van Buerenstraat,10,,,4041GV,Kesteren,Neder-Betuwe,Gelderland,VBO,5.570098,51.938444
Arndt van Buerenstraat,12,,,4041GV,Kesteren,Neder-Betuwe,Gelderland,VBO,5.570221,51.938546
Arndt van Buerenstraat,14,,,4041GV,Kesteren,Neder-Betuwe,Gelderland,VBO,5.570289,51.938579
Arndt van Buerenstraat,16,,,4041GV,Kesteren,Neder-Betuwe,Gelderland,VBO,5.570374,51.938616
Arndt van Buerenstraat,18,,,4041GV,Kesteren,Neder-Betuwe,Gelderland,VBO,5.570464,51.938655
Arndt van Buerenstraat,20,,,4041GV,Kesteren,Neder-Betuwe,Gelderland,VBO,5.570542,51.938688
Arndt van Buerenstraat,22,,,4041GV,Kesteren,Neder-Betuwe,Gelderland,VBO,5.570597,51.938710
Arndt van Buerenstraat,24,,,4041GV,Kesteren,Neder-Betuwe,Gelderland,VBO,5.570744,51.938777
Arndt van Buerenstraat,26,,,4041GV,Kesteren,Neder-Betuwe,Gelderland,VBO,5.570815,51.938810
Arndt van Buerenstraat,28,,,4041GV,Kesteren,Neder-Betuwe,Gelderland,VBO,5.570878,51.938833
Christoffel Spieringhstraat,1,a,,4041GW,Kesteren,Neder-Betuwe,Gelderland,VBO,5.569762,51.938121
Christoffel Spieringhstraat,1,,,4041GW,Kesteren,Neder-Betuwe,Gelderland,VBO,5.570023,51.938013
Christoffel Spieringhstraat,2,,,4041GW,Kesteren,Neder-Betuwe,Gelderland,VBO,5.569498,51.937627
Christoffel Spieringhstraat,3,,,4041GW,Kesteren,Neder-Betuwe,Gelderland,VBO,5.570213,51.938075
Christoffel Spieringhstraat,4,,,4041GW,Kesteren,Neder-Betuwe,Gelderland,VBO,5.569789,51.937662
Christoffel Spieringhstraat,5,,,4041GW,Kesteren,Neder-Betuwe,Gelderland,VBO,5.570402,51.938138
Christoffel Spieringhstraat,6,,,4041GW,Kesteren,Neder-Betuwe,Gelderland,VBO,5.569972,51.937759
Christoffel Spieringhstraat,7,,,4041GW,Kesteren,Neder-Betuwe,Gelderland,VBO,5.570577,51.938227
Christoffel Spieringhstraat,8,,,4041GW,Kesteren,Neder-Betuwe,Gelderland,VBO,5.571147,51.938150
Christoffel Spieringhstraat,9,,,4041GW,Kesteren,Neder-Betuwe,Gelderland,VBO,5.570693,51.938308
Christoffel Spieringhstraat,11,,,4041GW,Kesteren,Neder-Betuwe,Gelderland,VBO,5.570781,51.938353
Christoffel Spieringhstraat,13,,,4041GW,Kesteren,Neder-Betuwe,Gelderland,VBO,5.570897,51.938416
Christoffel Spieringhstraat,15,a,,4041GW,Kesteren,Neder-Betuwe,Gelderland,VBO,5.571014,51.938496
Christoffel Spieringhstraat,15,,,4041GW,Kesteren,Neder-Betuwe,Gelderland,VBO,5.570980,51.938468
Christoffel Spieringhstraat,17,,,4041GW,Kesteren,Neder-Betuwe,Gelderland,VBO,5.571145,51.938604
Frans Halsstraat,1,,,4041GX,Kesteren,Neder-Betuwe,Gelderland,VBO,5.568848,51.936556
Frans Halsstraat,2,,,4041GX,Kesteren,Neder-Betuwe,Gelderland,VBO,5.569610,51.936494
Frans Halsstraat,3,,,4041GX,Kesteren,Neder-Betuwe,Gelderland,VBO,5.569056,51.936465
Frans Halsstraat,4,,,4041GX,Kesteren,Neder-Betuwe,Gelderland,VBO,5.569581,51.936548
Frans Halsstraat,6,,,4041GX,Kesteren,Neder-Betuwe,Gelderland,VBO,5.569567,51.936602
Frans Halsstraat,8,,,4041GX,Kesteren,Neder-Betuwe,Gelderland,VBO,5.569552,51.936647
Jan Tooropstraat,1,,,4041HA,Kesteren,Neder-Betuwe,Gelderland,VBO,5.567367,51.935500
Jan Tooropstraat,3,,,4041HA,Kesteren,Neder-Betuwe,Gelderland,VBO,5.567367,51.935545
Jan Tooropstraat,5,,,4041HA,Kesteren,Neder-Betuwe,Gelderland,VBO,5.567309,51.935599
Jan Tooropstraat,7,,,4041HA,Kesteren,Neder-Betuwe,Gelderland,VBO,5.567280,51.935644
Jan Tooropstraat,9,,,4041HA,Kesteren,Neder-Betuwe,Gelderland,VBO,5.567251,51.935680
Jan Tooropstraat,11,,,4041HA,Kesteren,Neder-Betuwe,Gelderland,VBO,5.567208,51.935734
Jan Tooropstraat,13,,,4041HA,Kesteren,Neder-Betuwe,Gelderland,VBO,5.567077,51.935887
Jan Tooropstraat,15,,,4041HA,Kesteren,Neder-Betuwe,Gelderland,VBO,5.567034,51.935950
Jan Tooropstraat,17,,,4041HA,Kesteren,Neder-Betuwe,Gelderland,VBO,5.567000,51.935991
Jan Tooropstraat,19,,,4041HA,Kesteren,Neder-Betuwe,Gelderland,VBO,5.566951,51.936030
Jan Tooropstraat,21,,,4041HA,Kesteren,Neder-Betuwe,Gelderland,VBO,5.566902,51.936077
Jan Tooropstraat,23,,,4041HA,Kesteren,Neder-Betuwe,Gelderland,VBO,5.566846,51.936112
Jan Tooropstraat,2,,,4041HB,Kesteren,Neder-Betuwe,Gelderland,VBO,5.567846,51.935400
Jan Tooropstraat,4,,,4041HB,Kesteren,Neder-Betuwe,Gelderland,VBO,5.567817,51.935445
Jan Tooropstraat,6,,,4041HB,Kesteren,Neder-Betuwe,Gelderland,VBO,5.567788,51.935499
Jan Tooropstraat,8,,,4041HB,Kesteren,Neder-Betuwe,Gelderland,VBO,5.567775,51.935549
Jan Tooropstraat,10,,,4041HB,Kesteren,Neder-Betuwe,Gelderland,VBO,5.567749,51.935593
Jan Tooropstraat,12,,,4041HB,Kesteren,Neder-Betuwe,Gelderland,VBO,5.567709,51.935643
Jan Tooropstraat,14,,,4041HB,Kesteren,Neder-Betuwe,Gelderland,VBO,5.567673,51.935697
Jan Tooropstraat,16,,,4041HB,Kesteren,Neder-Betuwe,Gelderland,VBO,5.567655,51.935740
Jan Tooropstraat,18,,,4041HB,Kesteren,Neder-Betuwe,Gelderland,VBO,5.567340,51.936183
Jan Tooropstraat,20,,,4041HB,Kesteren,Neder-Betuwe,Gelderland,VBO,5.567268,51.936237
Jan Tooropstraat,22,,,4041HB,Kesteren,Neder-Betuwe,Gelderland,VBO,5.567195,51.936300
Jan Tooropstraat,24,,,4041HB,Kesteren,Neder-Betuwe,Gelderland,VBO,5.567137,51.936336
Jan Tooropstraat,26,,,4041HB,Kesteren,Neder-Betuwe,Gelderland,VBO,5.567079,51.936399
Mesdagstraat,1,,,4041HC,Kesteren,Neder-Betuwe,Gelderland,VBO,5.566657,51.936256
Mesdagstraat,3,,,4041HC,Kesteren,Neder-Betuwe,Gelderland,VBO,5.565972,51.935961
Mesdagstraat,5,,,4041HC,Kesteren,Neder-Betuwe,Gelderland,VBO,5.565856,51.935916
Mesdagstraat,7,,,4041HC,Kesteren,Neder-Betuwe,Gelderland,VBO,5.565739,51.935871
Mesdagstraat,9,,,4041HC,Kesteren,Neder-Betuwe,Gelderland,VBO,5.565652,51.935835
Mesdagstraat,11,,,4041HC,Kesteren,Neder-Betuwe,Gelderland,VBO,5.565695,51.935655
Mesdagstraat,13,,,4041HC,Kesteren,Neder-Betuwe,Gelderland,VBO,5.565738,51.935592
Mesdagstraat,15,,,4041HC,Kesteren,Neder-Betuwe,Gelderland,VBO,5.565782,51.935502
Mesdagstraat,17,,,4041HC,Kesteren,Neder-Betuwe,Gelderland,VBO,5.565810,51.935439
Mesdagstraat,19,,,4041HC,Kesteren,Neder-Betuwe,Gelderland,VBO,5.565868,51.935358
Mesdagstraat,21,,,4041HC,Kesteren,Neder-Betuwe,Gelderland,VBO,5.565897,51.935296
Mesdagstraat,23,,,4041HC,Kesteren,Neder-Betuwe,Gelderland,VBO,5.565940,51.935206
Mesdagstraat,25,,,4041HC,Kesteren,Neder-Betuwe,Gelderland,VBO,5.565969,51.935143
Mesdagstraat,27,,,4041HC,Kesteren,Neder-Betuwe,Gelderland,VBO,5.566012,51.935053
Mesdagstraat,29,,,4041HC,Kesteren,Neder-Betuwe,Gelderland,VBO,5.566056,51.934990
Adriaan van Ostadestraat,2,,,4041HE,Kesteren,Neder-Betuwe,Gelderland,VBO,5.568823,51.936082
Adriaan van Ostadestraat,4,,,4041HE,Kesteren,Neder-Betuwe,Gelderland,VBO,5.568808,51.936019
Adriaan van Ostadestraat,6,,,4041HE,Kesteren,Neder-Betuwe,Gelderland,VBO,5.568808,51.935974
Adriaan van Ostadestraat,8,,,4041HE,Kesteren,Neder-Betuwe,Gelderland,VBO,5.568808,51.935920
Adriaan van Ostadestraat,10,,,4041HE,Kesteren,Neder-Betuwe,Gelderland,VBO,5.568822,51.935875
Adriaan van Ostadestraat,12,a,,4041HE,Kesteren,Neder-Betuwe,Gelderland,VBO,5.568433,51.935717
Adriaan van Ostadestraat,12,b,,4041HE,Kesteren,Neder-Betuwe,Gelderland,VBO,5.568386,51.935720
Adriaan van Ostadestraat,12,c,,4041HE,Kesteren,Neder-Betuwe,Gelderland,VBO,5.568353,51.935695
Adriaan van Ostadestraat,12,d,,4041HE,Kesteren,Neder-Betuwe,Gelderland,VBO,5.568306,51.935687
Adriaan van Ostadestraat,12,e,,4041HE,Kesteren,Neder-Betuwe,Gelderland,VBO,5.568274,51.935675
Adriaan van Ostadestraat,12,f,,4041HE,Kesteren,Neder-Betuwe,Gelderland,VBO,5.568229,51.935671
Adriaan van Ostadestraat,12,g,,4041HE,Kesteren,Neder-Betuwe,Gelderland,VBO,5.568176,51.935658
Adriaan van Ostadestraat,12,h,,4041HE,Kesteren,Neder-Betuwe,Gelderland,VBO,5.568130,51.935636
Adriaan van Ostadestraat,12,i,,4041HE,Kesteren,Neder-Betuwe,Gelderland,VBO,5.568012,51.935609
Adriaan van Ostadestraat,12,j,,4041HE,Kesteren,Neder-Betuwe,Gelderland,VBO,5.568016,51.935840
Adriaan van Ostadestraat,12,k,,4041HE,Kesteren,Neder-Betuwe,Gelderland,VBO,5.568067,51.935841
Adriaan van Ostadestraat,12,L,,4041HE,Kesteren,Neder-Betuwe,Gelderland,VBO,5.568121,51.935832
Adriaan van Ostadestraat,12,m,,4041HE,Kesteren,Neder-Betuwe,Gelderland,VBO,5.568169,51.935840
Adriaan van Ostadestraat,12,n,,4041HE,Kesteren,Neder-Betuwe,Gelderland,VBO,5.568205,51.935858
Adriaan van Ostadestraat,12,,,4041HE,Kesteren,Neder-Betuwe,Gelderland,VBO,5.568807,51.935794
Adriaan van Ostadestraat,14,,,4041HE,Kesteren,Neder-Betuwe,Gelderland,VBO,5.568705,51.935606
Adriaan van Ostadestraat,16,,,4041HE,Kesteren,Neder-Betuwe,Gelderland,VBO,5.568648,51.935583
Adriaan van Ostadestraat,18,,,4041HE,Kesteren,Neder-Betuwe,Gelderland,VBO,5.568580,51.935563
Adriaan van Ostadestraat,20,,,4041HE,Kesteren,Neder-Betuwe,Gelderland,VBO,5.568495,51.935540
Adriaan van Ostadestraat,22,,,4041HE,Kesteren,Neder-Betuwe,Gelderland,VBO,5.568420,51.935520
Adriaan van Ostadestraat,24,,,4041HE,Kesteren,Neder-Betuwe,Gelderland,VBO,5.568348,51.935498
Adriaan van Ostadestraat,26,,,4041HE,Kesteren,Neder-Betuwe,Gelderland,VBO,5.568239,51.935481
Adriaan van Ostadestraat,28,,,4041HE,Kesteren,Neder-Betuwe,Gelderland,VBO,5.568166,51.935463
Adriaan van Ostadestraat,30,,,4041HG,Kesteren,Neder-Betuwe,Gelderland,VBO,5.567511,51.935257
Adriaan van Ostadestraat,32,,,4041HG,Kesteren,Neder-Betuwe,Gelderland,VBO,5.567424,51.935230
Adriaan van Ostadestraat,34,,,4041HG,Kesteren,Neder-Betuwe,Gelderland,VBO,5.567365,51.935203
Adriaan van Ostadestraat,36,,,4041HG,Kesteren,Neder-Betuwe,Gelderland,VBO,5.567278,51.935168
Adriaan van Ostadestraat,38,,,4041HG,Kesteren,Neder-Betuwe,Gelderland,VBO,5.567205,51.935132
Adriaan van Ostadestraat,40,,,4041HG,Kesteren,Neder-Betuwe,Gelderland,VBO,5.567147,51.935096
Adriaan van Ostadestraat,42,,,4041HG,Kesteren,Neder-Betuwe,Gelderland,VBO,5.567074,51.935078
Adriaan van Ostadestraat,44,,,4041HG,Kesteren,Neder-Betuwe,Gelderland,VBO,5.567001,51.935051
Adriaan van Ostadestraat,46,,,4041HG,Kesteren,Neder-Betuwe,Gelderland,VBO,5.566695,51.934926
Adriaan van Ostadestraat,48,,,4041HG,Kesteren,Neder-Betuwe,Gelderland,VBO,5.566608,51.934890
Adriaan van Ostadestraat,50,,,4041HG,Kesteren,Neder-Betuwe,Gelderland,VBO,5.566477,51.934836
Adriaan van Ostadestraat,52,,,4041HG,Kesteren,Neder-Betuwe,Gelderland,VBO,5.566389,51.934800
Adriaan van Ostadestraat,54,,,4041HG,Kesteren,Neder-Betuwe,Gelderland,VBO,5.566273,51.934747
Adriaan van Ostadestraat,56,,,4041HG,Kesteren,Neder-Betuwe,Gelderland,VBO,5.566186,51.934711
Adriaan van Ostadestraat,58,,,4041HG,Kesteren,Neder-Betuwe,Gelderland,VBO,5.564891,51.934286
Adriaan van Ostadestraat,60,,,4041HG,Kesteren,Neder-Betuwe,Gelderland,VBO,5.564718,51.934286
Adriaan van Ostadestraat,62,,,4041HG,Kesteren,Neder-Betuwe,Gelderland,VBO,5.564631,51.934275
Adriaan van Ostadestraat,64,,,4041HG,Kesteren,Neder-Betuwe,Gelderland,VBO,5.564558,51.934264
Adriaan van Ostadestraat,66,,,4041HG,Kesteren,Neder-Betuwe,Gelderland,VBO,5.564408,51.934255
Rembrandtstraat,1,,,4041HH,Kesteren,Neder-Betuwe,Gelderland,VBO,5.566580,51.935070
Rembrandtstraat,3,,,4041HH,Kesteren,Neder-Betuwe,Gelderland,VBO,5.566565,51.935133
Rembrandtstraat,5,,,4041HH,Kesteren,Neder-Betuwe,Gelderland,VBO,5.566522,51.935196
Rembrandtstraat,7,,,4041HH,Kesteren,Neder-Betuwe,Gelderland,VBO,5.566493,51.935241
Rembrandtstraat,9,,,4041HH,Kesteren,Neder-Betuwe,Gelderland,VBO,5.566435,51.935331
Rembrandtstraat,11,,,4041HH,Kesteren,Neder-Betuwe,Gelderland,VBO,5.566406,51.935385
Rembrandtstraat,13,,,4041HH,Kesteren,Neder-Betuwe,Gelderland,VBO,5.566363,51.935430
Rembrandtstraat,15,,,4041HH,Kesteren,Neder-Betuwe,Gelderland,VBO,5.566291,51.935529
Rembrandtstraat,17,,,4041HH,Kesteren,Neder-Betuwe,Gelderland,VBO,5.566262,51.935574
Rembrandtstraat,19,,,4041HH,Kesteren,Neder-Betuwe,Gelderland,VBO,5.566218,51.935628
Rembrandtstraat,21,,,4041HH,Kesteren,Neder-Betuwe,Gelderland,VBO,5.566161,51.935718
Rembrandtstraat,23,,,4041HH,Kesteren,Neder-Betuwe,Gelderland,VBO,5.566103,51.935781
Rembrandtstraat,25,,,4041HH,Kesteren,Neder-Betuwe,Gelderland,VBO,5.566059,51.935817
Rembrandtstraat,2,,,4041HJ,Kesteren,Neder-Betuwe,Gelderland,VBO,5.566886,51.935258
Rembrandtstraat,4,,,4041HJ,Kesteren,Neder-Betuwe,Gelderland,VBO,5.566857,51.935312
Rembrandtstraat,6,,,4041HJ,Kesteren,Neder-Betuwe,Gelderland,VBO,5.566813,51.935375
Rembrandtstraat,8,,,4041HJ,Kesteren,Neder-Betuwe,Gelderland,VBO,5.566785,51.935411
Rembrandtstraat,10,,,4041HJ,Kesteren,Neder-Betuwe,Gelderland,VBO,5.566756,51.935468
Rembrandtstraat,12,,,4041HJ,Kesteren,Neder-Betuwe,Gelderland,VBO,5.566727,51.935501
Rembrandtstraat,14,,,4041HJ,Kesteren,Neder-Betuwe,Gelderland,VBO,5.566597,51.935663
Rembrandtstraat,16,,,4041HJ,Kesteren,Neder-Betuwe,Gelderland,VBO,5.566568,51.935735
Rembrandtstraat,18,,,4041HJ,Kesteren,Neder-Betuwe,Gelderland,VBO,5.566539,51.935780
Rembrandtstraat,20,,,4041HJ,Kesteren,Neder-Betuwe,Gelderland,VBO,5.566510,51.935816
Rembrandtstraat,22,,,4041HJ,Kesteren,Neder-Betuwe,Gelderland,VBO,5.566481,51.935861
Rembrandtstraat,24,,,4041HJ,Kesteren,Neder-Betuwe,Gelderland,VBO,5.566467,51.935915
Rembrandtstraat,26,,,4041HJ,Kesteren,Neder-Betuwe,Gelderland,VBO,5.566395,51.936131
Johannes Vermeerstraat,1,,,4041HK,Kesteren,Neder-Betuwe,Gelderland,VBO,5.564943,51.934300
Johannes Vermeerstraat,2,,,4041HK,Kesteren,Neder-Betuwe,Gelderland,VBO,5.565200,51.934982
Johannes Vermeerstraat,3,,,4041HK,Kesteren,Neder-Betuwe,Gelderland,VBO,5.564936,51.934385
Johannes Vermeerstraat,4,,,4041HK,Kesteren,Neder-Betuwe,Gelderland,VBO,5.565312,51.934998
Johannes Vermeerstraat,5,,,4041HK,Kesteren,Neder-Betuwe,Gelderland,VBO,5.564905,51.934442
Johannes Vermeerstraat,6,,,4041HK,Kesteren,Neder-Betuwe,Gelderland,VBO,5.565435,51.935009
Johannes Vermeerstraat,7,,,4041HK,Kesteren,Neder-Betuwe,Gelderland,VBO,5.564871,51.934452
Johannes Vermeerstraat,8,,,4041HK,Kesteren,Neder-Betuwe,Gelderland,VBO,5.565391,51.935175
Johannes Vermeerstraat,9,,,4041HK,Kesteren,Neder-Betuwe,Gelderland,VBO,5.564894,51.934527
Johannes Vermeerstraat,10,,,4041HK,Kesteren,Neder-Betuwe,Gelderland,VBO,5.565270,51.935169
Johannes Vermeerstraat,11,,,4041HK,Kesteren,Neder-Betuwe,Gelderland,VBO,5.564862,51.934568
Johannes Vermeerstraat,12,,,4041HK,Kesteren,Neder-Betuwe,Gelderland,VBO,5.565145,51.935162
Johannes Vermeerstraat,13,,,4041HK,Kesteren,Neder-Betuwe,Gelderland,VBO,5.564826,51.934610
Johannes Vermeerstraat,14,,,4041HK,Kesteren,Neder-Betuwe,Gelderland,VBO,5.565077,51.935422
Johannes Vermeerstraat,15,,,4041HK,Kesteren,Neder-Betuwe,Gelderland,VBO,5.564824,51.934739
Johannes Vermeerstraat,16,,,4041HK,Kesteren,Neder-Betuwe,Gelderland,VBO,5.565204,51.935436
Johannes Vermeerstraat,17,,,4041HK,Kesteren,Neder-Betuwe,Gelderland,VBO,5.564816,51.934787
Johannes Vermeerstraat,18,,,4041HK,Kesteren,Neder-Betuwe,Gelderland,VBO,5.565337,51.935447
Johannes Vermeerstraat,19,,,4041HK,Kesteren,Neder-Betuwe,Gelderland,VBO,5.564796,51.934835
Johannes Vermeerstraat,20,,,4041HK,Kesteren,Neder-Betuwe,Gelderland,VBO,5.565282,51.935610
Johannes Vermeerstraat,21,,,4041HK,Kesteren,Neder-Betuwe,Gelderland,VBO,5.564755,51.934885
Johannes Vermeerstraat,22,,,4041HK,Kesteren,Neder-Betuwe,Gelderland,VBO,5.565166,51.935605
Johannes Vermeerstraat,23,,,4041HK,Kesteren,Neder-Betuwe,Gelderland,VBO,5.564772,51.934998
Johannes Vermeerstraat,24,,,4041HK,Kesteren,Neder-Betuwe,Gelderland,VBO,5.565051,51.935593
Johannes Vermeerstraat,25,,,4041HK,Kesteren,Neder-Betuwe,Gelderland,VBO,5.564748,51.935041
Johannes Vermeerstraat,27,,,4041HK,Kesteren,Neder-Betuwe,Gelderland,VBO,5.564728,51.935097
Johannes Vermeerstraat,29,,,4041HK,Kesteren,Neder-Betuwe,Gelderland,VBO,5.564712,51.935142
Johannes Vermeerstraat,31,,,4041HK,Kesteren,Neder-Betuwe,Gelderland,VBO,5.564679,51.935180
Meindert Hobbemastraat,1,,,4041HL,Kesteren,Neder-Betuwe,Gelderland,VBO,5.564097,51.934082
Meindert Hobbemastraat,2,,,4041HL,Kesteren,Neder-Betuwe,Gelderland,VBO,5.564408,51.934242
Meindert Hobbemastraat,3,,,4041HL,Kesteren,Neder-Betuwe,Gelderland,VBO,5.564076,51.934150
Meindert Hobbemastraat,4,,,4041HL,Kesteren,Neder-Betuwe,Gelderland,VBO,5.564456,51.934466
Meindert Hobbemastraat,5,,,4041HL,Kesteren,Neder-Betuwe,Gelderland,VBO,5.564044,51.934263
Meindert Hobbemastraat,6,,,4041HL,Kesteren,Neder-Betuwe,Gelderland,VBO,5.564408,51.934524
Meindert Hobbemastraat,7,,,4041HL,Kesteren,Neder-Betuwe,Gelderland,VBO,5.564032,51.934326
Meindert Hobbemastraat,8,,,4041HL,Kesteren,Neder-Betuwe,Gelderland,VBO,5.564388,51.934640
Meindert Hobbemastraat,9,,,4041HL,Kesteren,Neder-Betuwe,Gelderland,VBO,5.564009,51.934448
Meindert Hobbemastraat,10,,,4041HL,Kesteren,Neder-Betuwe,Gelderland,VBO,5.564372,51.934703
Meindert Hobbemastraat,11,,,4041HL,Kesteren,Neder-Betuwe,Gelderland,VBO,5.563968,51.934499
Meindert Hobbemastraat,12,,,4041HL,Kesteren,Neder-Betuwe,Gelderland,VBO,5.564332,51.934818
Meindert Hobbemastraat,13,,,4041HL,Kesteren,Neder-Betuwe,Gelderland,VBO,5.563973,51.934615
Meindert Hobbemastraat,14,,,4041HL,Kesteren,Neder-Betuwe,Gelderland,VBO,5.564299,51.934866
Meindert Hobbemastraat,15,,,4041HL,Kesteren,Neder-Betuwe,Gelderland,VBO,5.563936,51.934665
Meindert Hobbemastraat,16,,,4041HL,Kesteren,Neder-Betuwe,Gelderland,VBO,5.564304,51.934994
Meindert Hobbemastraat,17,,,4041HL,Kesteren,Neder-Betuwe,Gelderland,VBO,5.563941,51.934793
Meindert Hobbemastraat,18,,,4041HL,Kesteren,Neder-Betuwe,Gelderland,VBO,5.564255,51.935055
Meindert Hobbemastraat,19,,,4041HL,Kesteren,Neder-Betuwe,Gelderland,VBO,5.563913,51.934839
Meindert Hobbemastraat,20,,,4041HL,Kesteren,Neder-Betuwe,Gelderland,VBO,5.564211,51.935233
Meindert Hobbemastraat,21,,,4041HL,Kesteren,Neder-Betuwe,Gelderland,VBO,5.563860,51.934962
Meindert Hobbemastraat,22,,,4041HL,Kesteren,Neder-Betuwe,Gelderland,VBO,5.564427,51.935319
Meindert Hobbemastraat,23,,,4041HL,Kesteren,Neder-Betuwe,Gelderland,VBO,5.563848,51.935012
Meindert Hobbemastraat,24,,,4041HL,Kesteren,Neder-Betuwe,Gelderland,VBO,5.564652,51.935384
Meindert Hobbemastraat,25,,,4041HL,Kesteren,Neder-Betuwe,Gelderland,VBO,5.563870,51.935135
Kasteelstraat,1,,,4041JA,Kesteren,Neder-Betuwe,Gelderland,VBO,5.572573,51.938072
Kasteelstraat,3,,,4041JA,Kesteren,Neder-Betuwe,Gelderland,VBO,5.572653,51.938093
Kasteelstraat,5,,,4041JA,Kesteren,Neder-Betuwe,Gelderland,VBO,5.572716,51.938109
Kasteelstraat,7,,,4041JA,Kesteren,Neder-Betuwe,Gelderland,VBO,5.572786,51.938127
Kasteelstraat,9,,,4041JA,Kesteren,Neder-Betuwe,Gelderland,VBO,5.573183,51.938226
Kasteelstraat,11,,,4041JA,Kesteren,Neder-Betuwe,Gelderland,VBO,5.573275,51.938234
Kasteelstraat,13,,,4041JA,Kesteren,Neder-Betuwe,Gelderland,VBO,5.573331,51.938262
Kasteelstraat,15,,,4041JA,Kesteren,Neder-Betuwe,Gelderland,VBO,5.573405,51.938276
Kasteelstraat,2,,,4041JB,Kesteren,Neder-Betuwe,Gelderland,VBO,5.572755,51.937542
Kasteelstraat,4,,,4041JB,Kesteren,Neder-Betuwe,Gelderland,VBO,5.572935,51.940182
Floris van Pallandtstraat,2,,,4041JD,Kesteren,Neder-Betuwe,Gelderland,VBO,5.571880,51.937725
Floris van Pallandtstraat,4,,,4041JD,Kesteren,Neder-Betuwe,Gelderland,VBO,5.571618,51.937778
Floris van Pallandtstraat,6,,,4041JD,Kesteren,Neder-Betuwe,Gelderland,VBO,5.571385,51.937828
Floris van Pallandtstraat,8,,,4041JD,Kesteren,Neder-Betuwe,Gelderland,VBO,5.571126,51.937840
Floris van Pallandtstraat,10,,,4041JD,Kesteren,Neder-Betuwe,Gelderland,VBO,5.570868,51.937924
Floris van Pallandtstraat,12,,,4041JD,Kesteren,Neder-Betuwe,Gelderland,VBO,5.570628,51.937888
Justus van Buyrenstraat,1,,,4041JE,Kesteren,Neder-Betuwe,Gelderland,VBO,5.571795,51.937967
Justus van Buyrenstraat,3,,,4041JE,Kesteren,Neder-Betuwe,Gelderland,VBO,5.571669,51.938082
Justus van Buyrenstraat,5,,,4041JE,Kesteren,Neder-Betuwe,Gelderland,VBO,5.571519,51.938211
Justus van Buyrenstraat,7,,,4041JE,Kesteren,Neder-Betuwe,Gelderland,VBO,5.571387,51.938330
Justus van Buyrenstraat,2,,,4041JG,Kesteren,Neder-Betuwe,Gelderland,VBO,5.572322,51.938038
Justus van Buyrenstraat,4,,,4041JG,Kesteren,Neder-Betuwe,Gelderland,VBO,5.572183,51.938205
Justus van Buyrenstraat,6,,,4041JG,Kesteren,Neder-Betuwe,Gelderland,VBO,5.572101,51.938258
Justus van Buyrenstraat,8,,,4041JG,Kesteren,Neder-Betuwe,Gelderland,VBO,5.571887,51.938405
Justus van Buyrenstraat,10,,,4041JG,Kesteren,Neder-Betuwe,Gelderland,VBO,5.571835,51.938492
Justus van Buyrenstraat,12,,,4041JG,Kesteren,Neder-Betuwe,Gelderland,VBO,5.571660,51.938594
Floris van Brakellstraat,1,,,4041JH,Kesteren,Neder-Betuwe,Gelderland,VBO,5.572652,51.938404
Floris van Brakellstraat,3,,,4041JH,Kesteren,Neder-Betuwe,Gelderland,VBO,5.572473,51.938448
Floris van Brakellstraat,2,,,4041JJ,Kesteren,Neder-Betuwe,Gelderland,VBO,5.573024,51.938427
Floris van Brakellstraat,4,,,4041JJ,Kesteren,Neder-Betuwe,Gelderland,VBO,5.573024,51.938560
Floris van Brakellstraat,6,,,4041JJ,Kesteren,Neder-Betuwe,Gelderland,VBO,5.573094,51.938708
Floris van Brakellstraat,8,,,4041JJ,Kesteren,Neder-Betuwe,Gelderland,VBO,5.573085,51.938772
Floris van Brakellstraat,12,,,4041JJ,Kesteren,Neder-Betuwe,Gelderland,VBO,5.572984,51.939047
Floris van Brakellstraat,14,,,4041JJ,Kesteren,Neder-Betuwe,Gelderland,VBO,5.572881,51.939133
Floris van Brakellstraat,16,,,4041JJ,Kesteren,Neder-Betuwe,Gelderland,VBO,5.572700,51.939003
Floris van Brakellstraat,18,,,4041JJ,Kesteren,Neder-Betuwe,Gelderland,VBO,5.572526,51.938939
Floris van Brakellstraat,20,,,4041JJ,Kesteren,Neder-Betuwe,Gelderland,VBO,5.572418,51.938879
Floris van Brakellstraat,22,,,4041JJ,Kesteren,Neder-Betuwe,Gelderland,VBO,5.572438,51.938807
Floris van Brakellstraat,24,,,4041JJ,Kesteren,Neder-Betuwe,Gelderland,VBO,5.572321,51.938785
Floris van Brakellstraat,26,,,4041JJ,Kesteren,Neder-Betuwe,Gelderland,VBO,5.572246,51.938669
Floris van Brakellstraat,28,,,4041JJ,Kesteren,Neder-Betuwe,Gelderland,VBO,5.572154,51.938549
Bussenbongerd,1,,,4041RA,Kesteren,Neder-Betuwe,Gelderland,VBO,5.563952,51.928845
Bussenbongerd,3,,,4041RA,Kesteren,Neder-Betuwe,Gelderland,VBO,5.563880,51.928836
Bussenbongerd,5,,,4041RA,Kesteren,Neder-Betuwe,Gelderland,VBO,5.563778,51.928845
Bussenbongerd,7,,,4041RA,Kesteren,Neder-Betuwe,Gelderland,VBO,5.563691,51.928845
Bussenbongerd,9,,,4041RA,Kesteren,Neder-Betuwe,Gelderland,VBO,5.563618,51.928827
Bussenbongerd,11,,,4041RA,Kesteren,Neder-Betuwe,Gelderland,VBO,5.563531,51.928828
Bussenbongerd,13,,,4041RA,Kesteren,Neder-Betuwe,Gelderland,VBO,5.563182,51.928828
Bussenbongerd,15,,,4041RA,Kesteren,Neder-Betuwe,Gelderland,VBO,5.563123,51.928828
Bussenbongerd,17,,,4041RA,Kesteren,Neder-Betuwe,Gelderland,VBO,5.563036,51.928837
Bussenbongerd,19,,,4041RA,Kesteren,Neder-Betuwe,Gelderland,VBO,5.562949,51.928837
Bussenbongerd,21,,,4041RA,Kesteren,Neder-Betuwe,Gelderland,VBO,5.562876,51.928847
Bussenbongerd,23,,,4041RA,Kesteren,Neder-Betuwe,Gelderland,VBO,5.562789,51.928847
Bussenbongerd,25,,,4041RA,Kesteren,Neder-Betuwe,Gelderland,VBO,5.562731,51.928847
Bussenbongerd,27,,,4041RA,Kesteren,Neder-Betuwe,Gelderland,VBO,5.562629,51.928838
Bussenbongerd,2,,,4041RB,Kesteren,Neder-Betuwe,Gelderland,VBO,5.565203,51.929068
Bussenbongerd,4,,,4041RB,Kesteren,Neder-Betuwe,Gelderland,VBO,5.565145,51.929068
Bussenbongerd,6,,,4041RB,Kesteren,Neder-Betuwe,Gelderland,VBO,5.565044,51.929068
Bussenbongerd,8,,,4041RB,Kesteren,Neder-Betuwe,Gelderland,VBO,5.563750,51.929106
Bussenbongerd,10,,,4041RB,Kesteren,Neder-Betuwe,Gelderland,VBO,5.563663,51.929115
Bussenbongerd,12,,,4041RB,Kesteren,Neder-Betuwe,Gelderland,VBO,5.563590,51.929106
Bussenbongerd,14,,,4041RB,Kesteren,Neder-Betuwe,Gelderland,VBO,5.563503,51.929115
Bussenbongerd,16,,,4041RB,Kesteren,Neder-Betuwe,Gelderland,VBO,5.563430,51.929115
Bussenbongerd,18,,,4041RB,Kesteren,Neder-Betuwe,Gelderland,VBO,5.563357,51.929115
Bussenbongerd,20,,,4041RB,Kesteren,Neder-Betuwe,Gelderland,VBO,5.563154,51.929188
Bussenbongerd,22,,,4041RB,Kesteren,Neder-Betuwe,Gelderland,VBO,5.563081,51.929188
Bussenbongerd,24,,,4041RB,Kesteren,Neder-Betuwe,Gelderland,VBO,5.563009,51.929197
Bussenbongerd,26,,,4041RB,Kesteren,Neder-Betuwe,Gelderland,VBO,5.562936,51.929197
Bussenbongerd,28,,,4041RB,Kesteren,Neder-Betuwe,Gelderland,VBO,5.562849,51.929197
Bussenbongerd,30,,,4041RB,Kesteren,Neder-Betuwe,Gelderland,VBO,5.562616,51.929188
Biesbongerd,1,,,4041RC,Kesteren,Neder-Betuwe,Gelderland,VBO,5.564540,51.929064
Biesbongerd,3,,,4041RC,Kesteren,Neder-Betuwe,Gelderland,VBO,5.564502,51.929074
Biesbongerd,5,,,4041RC,Kesteren,Neder-Betuwe,Gelderland,VBO,5.564528,51.929125
Biesbongerd,7,,,4041RC,Kesteren,Neder-Betuwe,Gelderland,VBO,5.564562,51.929173
Biesbongerd,9,,,4041RC,Kesteren,Neder-Betuwe,Gelderland,VBO,5.564560,51.929218
Biesbongerd,11,,,4041RC,Kesteren,Neder-Betuwe,Gelderland,VBO,5.564508,51.929264
Biesbongerd,13,,,4041RC,Kesteren,Neder-Betuwe,Gelderland,VBO,5.564523,51.929313
Biesbongerd,15,,,4041RC,Kesteren,Neder-Betuwe,Gelderland,VBO,5.564521,51.929347
Biesbongerd,17,,,4041RC,Kesteren,Neder-Betuwe,Gelderland,VBO,5.564536,51.929411
Biesbongerd,19,,,4041RC,Kesteren,Neder-Betuwe,Gelderland,VBO,5.564483,51.929452
Biesbongerd,21,,,4041RC,Kesteren,Neder-Betuwe,Gelderland,VBO,5.564554,51.929451
Biesbongerd,23,,,4041RD,Kesteren,Neder-Betuwe,Gelderland,VBO,5.564126,51.929476
Biesbongerd,25,,,4041RD,Kesteren,Neder-Betuwe,Gelderland,VBO,5.564075,51.929473
Biesbongerd,27,,,4041RD,Kesteren,Neder-Betuwe,Gelderland,VBO,5.564083,51.929418
Biesbongerd,29,,,4041RD,Kesteren,Neder-Betuwe,Gelderland,VBO,5.564072,51.929361
Biesbongerd,31,,,4041RD,Kesteren,Neder-Betuwe,Gelderland,VBO,5.564070,51.929321
Biesbongerd,33,,,4041RD,Kesteren,Neder-Betuwe,Gelderland,VBO,5.564101,51.929271
Biesbongerd,35,,,4041RD,Kesteren,Neder-Betuwe,Gelderland,VBO,5.564113,51.929231
Biesbongerd,37,,,4041RD,Kesteren,Neder-Betuwe,Gelderland,VBO,5.564094,51.929192
Biesbongerd,39,,,4041RD,Kesteren,Neder-Betuwe,Gelderland,VBO,5.564055,51.929141
Biesbongerd,41,,,4041RD,Kesteren,Neder-Betuwe,Gelderland,VBO,5.564116,51.929085
Biesbongerd,43,,,4041RD,Kesteren,Neder-Betuwe,Gelderland,VBO,5.564047,51.929086
Biesbongerd,45,,,4041RD,Kesteren,Neder-Betuwe,Gelderland,VBO,5.563809,51.929357
Biesbongerd,47,,,4041RD,Kesteren,Neder-Betuwe,Gelderland,VBO,5.563736,51.929376
Biesbongerd,49,,,4041RD,Kesteren,Neder-Betuwe,Gelderland,VBO,5.563649,51.929376
Biesbongerd,51,,,4041RD,Kesteren,Neder-Betuwe,Gelderland,VBO,5.563576,51.929376
Biesbongerd,53,,,4041RD,Kesteren,Neder-Betuwe,Gelderland,VBO,5.563504,51.929385
Biesbongerd,55,,,4041RD,Kesteren,Neder-Betuwe,Gelderland,VBO,5.563300,51.929466
Biesbongerd,57,,,4041RD,Kesteren,Neder-Betuwe,Gelderland,VBO,5.563228,51.929483
Biesbongerd,59,,,4041RD,Kesteren,Neder-Betuwe,Gelderland,VBO,5.563141,51.929475
Biesbongerd,61,,,4041RD,Kesteren,Neder-Betuwe,Gelderland,VBO,5.563070,51.929485
Biesbongerd,63,,,4041RD,Kesteren,Neder-Betuwe,Gelderland,VBO,5.562981,51.929476
Biesbongerd,65,a,,4041RD,Kesteren,Neder-Betuwe,Gelderland,VBO,5.562841,51.929505
Biesbongerd,65,,,4041RD,Kesteren,Neder-Betuwe,Gelderland,VBO,5.562661,51.929476
Biesbongerd,2,,,4041RE,Kesteren,Neder-Betuwe,Gelderland,VBO,5.564986,51.929302
Biesbongerd,4,,,4041RE,Kesteren,Neder-Betuwe,Gelderland,VBO,5.564987,51.929347
Biesbongerd,6,,,4041RE,Kesteren,Neder-Betuwe,Gelderland,VBO,5.565001,51.929446
Biesbongerd,8,,,4041RE,Kesteren,Neder-Betuwe,Gelderland,VBO,5.565002,51.929499
Biesbongerd,10,,,4041RE,Kesteren,Neder-Betuwe,Gelderland,VBO,5.564741,51.929689
Biesbongerd,12,,,4041RE,Kesteren,Neder-Betuwe,Gelderland,VBO,5.564668,51.929689
Biesbongerd,14,,,4041RE,Kesteren,Neder-Betuwe,Gelderland,VBO,5.564494,51.929698
Biesbongerd,16,,,4041RE,Kesteren,Neder-Betuwe,Gelderland,VBO,5.564406,51.929698
Biesbongerd,18,,,4041RE,Kesteren,Neder-Betuwe,Gelderland,VBO,5.564261,51.929707
Biesbongerd,20,,,4041RE,Kesteren,Neder-Betuwe,Gelderland,VBO,5.564159,51.929707
Biesbongerd,22,,,4041RE,Kesteren,Neder-Betuwe,Gelderland,VBO,5.563999,51.929708
Biesbongerd,24,,,4041RE,Kesteren,Neder-Betuwe,Gelderland,VBO,5.563912,51.929708
Biesbongerd,26,,,4041RE,Kesteren,Neder-Betuwe,Gelderland,VBO,5.563651,51.929780
Biesbongerd,28,,,4041RE,Kesteren,Neder-Betuwe,Gelderland,VBO,5.563563,51.929780
Biesbongerd,30,,,4041RE,Kesteren,Neder-Betuwe,Gelderland,VBO,5.563345,51.929790
Biesbongerd,32,,,4041RE,Kesteren,Neder-Betuwe,Gelderland,VBO,5.563244,51.929790
Biesbongerd,34,,,4041RE,Kesteren,Neder-Betuwe,Gelderland,VBO,5.563025,51.929781
Biesbongerd,36,,,4041RE,Kesteren,Neder-Betuwe,Gelderland,VBO,5.562938,51.929790
Biesbongerd,38,,,4041RE,Kesteren,Neder-Betuwe,Gelderland,VBO,5.562706,51.929782
Biesbongerd,40,,,4041RE,Kesteren,Neder-Betuwe,Gelderland,VBO,5.562618,51.929782
Biesbongerd,42,,,4041RE,Kesteren,Neder-Betuwe,Gelderland,VBO,5.562458,51.929773
Biesbongerd,44,,,4041RE,Kesteren,Neder-Betuwe,Gelderland,VBO,5.562415,51.929764
Keetjesbongerd,1,,,4041RG,Kesteren,Neder-Betuwe,Gelderland,VBO,5.563588,51.928585
Keetjesbongerd,3,,,4041RG,Kesteren,Neder-Betuwe,Gelderland,VBO,5.563602,51.928540
Keetjesbongerd,5,,,4041RG,Kesteren,Neder-Betuwe,Gelderland,VBO,5.563602,51.928495
Keetjesbongerd,7,,,4041RG,Kesteren,Neder-Betuwe,Gelderland,VBO,5.563631,51.928441
Keetjesbongerd,9,,,4041RG,Kesteren,Neder-Betuwe,Gelderland,VBO,5.563660,51.928396
Keetjesbongerd,11,,,4041RG,Kesteren,Neder-Betuwe,Gelderland,VBO,5.563703,51.928351
Keetjesbongerd,13,,,4041RG,Kesteren,Neder-Betuwe,Gelderland,VBO,5.563252,51.928352
Keetjesbongerd,15,,,4041RG,Kesteren,Neder-Betuwe,Gelderland,VBO,5.563180,51.928325
Keetjesbongerd,17,,,4041RG,Kesteren,Neder-Betuwe,Gelderland,VBO,5.563020,51.928289
Keetjesbongerd,19,,,4041RG,Kesteren,Neder-Betuwe,Gelderland,VBO,5.562947,51.928271
Keetjesbongerd,21,,,4041RG,Kesteren,Neder-Betuwe,Gelderland,VBO,5.562787,51.928208
Keetjesbongerd,23,,,4041RG,Kesteren,Neder-Betuwe,Gelderland,VBO,5.562714,51.928191
Keetjesbongerd,25,,,4041RG,Kesteren,Neder-Betuwe,Gelderland,VBO,5.562554,51.928155
Keetjesbongerd,27,,,4041RG,Kesteren,Neder-Betuwe,Gelderland,VBO,5.562467,51.928137
Keetjesbongerd,29,,,4041RG,Kesteren,Neder-Betuwe,Gelderland,VBO,5.562292,51.928119
Keetjesbongerd,31,,,4041RG,Kesteren,Neder-Betuwe,Gelderland,VBO,5.562190,51.928120
Keetjesbongerd,33,,,4041RG,Kesteren,Neder-Betuwe,Gelderland,VBO,5.562045,51.928129
Keetjesbongerd,35,,,4041RG,Kesteren,Neder-Betuwe,Gelderland,VBO,5.561958,51.928129
Keetjesbongerd,37,,,4041RG,Kesteren,Neder-Betuwe,Gelderland,VBO,5.561804,51.928118
Keetjesbongerd,39,,,4041RG,Kesteren,Neder-Betuwe,Gelderland,VBO,5.561667,51.928138
Keetjesbongerd,41,,,4041RG,Kesteren,Neder-Betuwe,Gelderland,VBO,5.561492,51.928148
Keetjesbongerd,43,,,4041RG,Kesteren,Neder-Betuwe,Gelderland,VBO,5.561405,51.928148
Keetjesbongerd,45,,,4041RG,Kesteren,Neder-Betuwe,Gelderland,VBO,5.561172,51.927959
Keetjesbongerd,47,,,4041RG,Kesteren,Neder-Betuwe,Gelderland,VBO,5.560954,51.927897
Keetjesbongerd,49,,,4041RG,Kesteren,Neder-Betuwe,Gelderland,VBO,5.560735,51.927825
Keetjesbongerd,51,,,4041RG,Kesteren,Neder-Betuwe,Gelderland,VBO,5.560517,51.927753
Keetjesbongerd,53,,,4041RG,Kesteren,Neder-Betuwe,Gelderland,VBO,5.560255,51.927763
Keetjesbongerd,2,,,4041RH,Kesteren,Neder-Betuwe,Gelderland,VBO,5.563123,51.928586
Keetjesbongerd,4,,,4041RH,Kesteren,Neder-Betuwe,Gelderland,VBO,5.563050,51.928568
Keetjesbongerd,6,,,4041RH,Kesteren,Neder-Betuwe,Gelderland,VBO,5.562962,51.928541
Keetjesbongerd,8,,,4041RH,Kesteren,Neder-Betuwe,Gelderland,VBO,5.562846,51.928568
Keetjesbongerd,10,,,4041RH,Kesteren,Neder-Betuwe,Gelderland,VBO,5.562773,51.928541
Keetjesbongerd,12,,,4041RH,Kesteren,Neder-Betuwe,Gelderland,VBO,5.562715,51.928514
Keetjesbongerd,14,,,4041RH,Kesteren,Neder-Betuwe,Gelderland,VBO,5.562628,51.928487
Keetjesbongerd,16,,,4041RH,Kesteren,Neder-Betuwe,Gelderland,VBO,5.562420,51.928481
Keetjesbongerd,18,,,4041RH,Kesteren,Neder-Betuwe,Gelderland,VBO,5.562363,51.928492
Keetjesbongerd,20,,,4041RH,Kesteren,Neder-Betuwe,Gelderland,VBO,5.562276,51.928496
Keetjesbongerd,22,,,4041RH,Kesteren,Neder-Betuwe,Gelderland,VBO,5.562200,51.928502
Keetjesbongerd,24,,,4041RH,Kesteren,Neder-Betuwe,Gelderland,VBO,5.562104,51.928497
Keetjesbongerd,26,,,4041RH,Kesteren,Neder-Betuwe,Gelderland,VBO,5.562032,51.928499
Keetjesbongerd,28,,,4041RH,Kesteren,Neder-Betuwe,Gelderland,VBO,5.561828,51.928516
Keetjesbongerd,30,,,4041RH,Kesteren,Neder-Betuwe,Gelderland,VBO,5.561770,51.928525
Keetjesbongerd,32,,,4041RH,Kesteren,Neder-Betuwe,Gelderland,VBO,5.561683,51.928516
Keetjesbongerd,34,,,4041RH,Kesteren,Neder-Betuwe,Gelderland,VBO,5.561610,51.928525
Keetjesbongerd,36,,,4041RH,Kesteren,Neder-Betuwe,Gelderland,VBO,5.561523,51.928525
Keetjesbongerd,38,,,4041RH,Kesteren,Neder-Betuwe,Gelderland,VBO,5.561421,51.928534
Keetjesbongerd,40,,,4041RH,Kesteren,Neder-Betuwe,Gelderland,VBO,5.561264,51.928555
Keetjesbongerd,42,,,4041RH,Kesteren,Neder-Betuwe,Gelderland,VBO,5.561189,51.928552
Keetjesbongerd,44,,,4041RH,Kesteren,Neder-Betuwe,Gelderland,VBO,5.561132,51.928568
Keetjesbongerd,46,,,4041RH,Kesteren,Neder-Betuwe,Gelderland,VBO,5.561062,51.928564
Keetjesbongerd,48,,,4041RH,Kesteren,Neder-Betuwe,Gelderland,VBO,5.560985,51.928555
Keetjesbongerd,50,,,4041RH,Kesteren,Neder-Betuwe,Gelderland,VBO,5.560920,51.928528
Keetjesbongerd,52,,,4041RH,Kesteren,Neder-Betuwe,Gelderland,VBO,5.560885,51.928476
Keetjesbongerd,54,,,4041RH,Kesteren,Neder-Betuwe,Gelderland,VBO,5.560883,51.928432
Keetjesbongerd,56,,,4041RH,Kesteren,Neder-Betuwe,Gelderland,VBO,5.560839,51.928373
Keetjesbongerd,58,,,4041RH,Kesteren,Neder-Betuwe,Gelderland,VBO,5.560854,51.928337
Keetjesbongerd,60,,,4041RH,Kesteren,Neder-Betuwe,Gelderland,VBO,5.560839,51.928274
Keetjesbongerd,62,,,4041RH,Kesteren,Neder-Betuwe,Gelderland,VBO,5.560824,51.928229
Keetjesbongerd,64,,,4041RH,Kesteren,Neder-Betuwe,Gelderland,VBO,5.560809,51.928184
Keetjesbongerd,66,,,4041RH,Kesteren,Neder-Betuwe,Gelderland,VBO,5.560780,51.928122
Keetjesbongerd,68,,,4041RH,Kesteren,Neder-Betuwe,Gelderland,VBO,5.560315,51.928095
Keetjesbongerd,70,,,4041RH,Kesteren,Neder-Betuwe,Gelderland,VBO,5.560315,51.928140
Keetjesbongerd,72,,,4041RH,Kesteren,Neder-Betuwe,Gelderland,VBO,5.560330,51.928284
Keetjesbongerd,74,,,4041RH,Kesteren,Neder-Betuwe,Gelderland,VBO,5.560345,51.928338
Keetjesbongerd,76,,,4041RH,Kesteren,Neder-Betuwe,Gelderland,VBO,5.560331,51.928491
Keetjesbongerd,78,,,4041RH,Kesteren,Neder-Betuwe,Gelderland,VBO,5.560331,51.928545
Keetjesbongerd,80,,,4041RH,Kesteren,Neder-Betuwe,Gelderland,VBO,5.560346,51.928688
Keetjesbongerd,82,,,4041RH,Kesteren,Neder-Betuwe,Gelderland,VBO,5.560346,51.928742
Keetjesbongerd,84,,,4041RH,Kesteren,Neder-Betuwe,Gelderland,VBO,5.560361,51.928886
Keetjesbongerd,86,,,4041RH,Kesteren,Neder-Betuwe,Gelderland,VBO,5.560362,51.928940
Johannes van Zantenplein,1,,,4041RJ,Kesteren,Neder-Betuwe,Gelderland,VBO,5.562454,51.928748
Johannes van Zantenplein,3,,,4041RJ,Kesteren,Neder-Betuwe,Gelderland,VBO,5.562396,51.928766
Johannes van Zantenplein,5,,,4041RJ,Kesteren,Neder-Betuwe,Gelderland,VBO,5.562295,51.928767
Johannes van Zantenplein,7,,,4041RJ,Kesteren,Neder-Betuwe,Gelderland,VBO,5.562222,51.928767
Johannes van Zantenplein,9,,,4041RJ,Kesteren,Neder-Betuwe,Gelderland,VBO,5.562135,51.928776
Johannes van Zantenplein,11,,,4041RJ,Kesteren,Neder-Betuwe,Gelderland,VBO,5.562062,51.928785
Johannes van Zantenplein,13,,,4041RJ,Kesteren,Neder-Betuwe,Gelderland,VBO,5.561946,51.928776
Johannes van Zantenplein,15,,,4041RJ,Kesteren,Neder-Betuwe,Gelderland,VBO,5.561858,51.928776
Johannes van Zantenplein,17,,,4041RJ,Kesteren,Neder-Betuwe,Gelderland,VBO,5.561771,51.928785
Johannes van Zantenplein,19,,,4041RJ,Kesteren,Neder-Betuwe,Gelderland,VBO,5.561698,51.928785
Johannes van Zantenplein,21,,,4041RJ,Kesteren,Neder-Betuwe,Gelderland,VBO,5.561626,51.928794
Johannes van Zantenplein,23,,,4041RJ,Kesteren,Neder-Betuwe,Gelderland,VBO,5.561553,51.928786
Johannes van Zantenplein,25,,,4041RJ,Kesteren,Neder-Betuwe,Gelderland,VBO,5.561451,51.928786
Rijk van Batouwe,2,,,4041SZ,Kesteren,Neder-Betuwe,Gelderland,VBO,5.545475,51.939130
Rijk van Batouwe,3,,,4041SZ,Kesteren,Neder-Betuwe,Gelderland,VBO,5.545539,51.939243
Rijk van Batouwe,4,,,4041SZ,Kesteren,Neder-Betuwe,Gelderland,VBO,5.545632,51.939365
Rijk van Batouwe,5,,,4041SZ,Kesteren,Neder-Betuwe,Gelderland,VBO,5.545689,51.939498
Rijk van Batouwe,6,,,4041SZ,Kesteren,Neder-Betuwe,Gelderland,VBO,5.545848,51.939621
Rijk van Batouwe,7,,,4041SZ,Kesteren,Neder-Betuwe,Gelderland,VBO,5.545881,51.939753
Rijk van Batouwe,10,,,4041SZ,Kesteren,Neder-Betuwe,Gelderland,VBO,5.545453,51.939565
Rijk van Batouwe,11,,,4041SZ,Kesteren,Neder-Betuwe,Gelderland,VBO,5.545364,51.939469
Rijk van Batouwe,12,,,4041SZ,Kesteren,Neder-Betuwe,Gelderland,VBO,5.545262,51.939330
Rijk van Batouwe,13,,,4041SZ,Kesteren,Neder-Betuwe,Gelderland,VBO,5.545196,51.939219
Rijk van Batouwe,14,,,4041SZ,Kesteren,Neder-Betuwe,Gelderland,VBO,5.545161,51.939082
Rijk van Batouwe,16,,,4041SZ,Kesteren,Neder-Betuwe,Gelderland,VBO,5.544880,51.939149
Rijk van Batouwe,17,,,4041SZ,Kesteren,Neder-Betuwe,Gelderland,VBO,5.544959,51.939309
Rijk van Batouwe,18,,,4041SZ,Kesteren,Neder-Betuwe,Gelderland,VBO,5.545038,51.939418
Rijk van Batouwe,19,,,4041SZ,Kesteren,Neder-Betuwe,Gelderland,VBO,5.545122,51.939513
Rijk van Batouwe,22,,,4041SZ,Kesteren,Neder-Betuwe,Gelderland,VBO,5.545302,51.939817
Rijk van Batouwe,23,,,4041SZ,Kesteren,Neder-Betuwe,Gelderland,VBO,5.545310,51.940031
Rijk van Batouwe,24,,,4041SZ,Kesteren,Neder-Betuwe,Gelderland,VBO,5.545111,51.940037
Rijk van Batouwe,25,,,4041SZ,Kesteren,Neder-Betuwe,Gelderland,VBO,5.544970,51.939956
Rijk van Batouwe,27,,,4041SZ,Kesteren,Neder-Betuwe,Gelderland,VBO,5.544857,51.939710
Rijk van Batouwe,29,,,4041SZ,Kesteren,Neder-Betuwe,Gelderland,VBO,5.544797,51.939475
Rijk van Batouwe,30,,,4041SZ,Kesteren,Neder-Betuwe,Gelderland,VBO,5.544721,51.939354
Rijk van Batouwe,31,,,4041SZ,Kesteren,Neder-Betuwe,Gelderland,VBO,5.544621,51.939241
Rijk van Batouwe,32,,,4041SZ,Kesteren,Neder-Betuwe,Gelderland,VBO,5.544437,51.939269
Rijk van Batouwe,33,,,4041SZ,Kesteren,Neder-Betuwe,Gelderland,VBO,5.544313,51.939289
Rijk van Batouwe,37,,,4041SZ,Kesteren,Neder-Betuwe,Gelderland,VBO,5.544652,51.939765
Rijk van Batouwe,39,,,4041SZ,Kesteren,Neder-Betuwe,Gelderland,VBO,5.544782,51.940019
Rijk van Batouwe,40,,,4041SZ,Kesteren,Neder-Betuwe,Gelderland,VBO,5.544451,51.940090
Rijk van Batouwe,42,,,4041SZ,Kesteren,Neder-Betuwe,Gelderland,VBO,5.544263,51.939834
Rijk van Batouwe,44,,,4041SZ,Kesteren,Neder-Betuwe,Gelderland,VBO,5.544163,51.939639
Rijk van Batouwe,46,,,4041SZ,Kesteren,Neder-Betuwe,Gelderland,VBO,5.544051,51.939381
Rijk van Batouwe,47,,,4041SZ,Kesteren,Neder-Betuwe,Gelderland,VBO,5.543874,51.939411
Rijk van Batouwe,48,,,4041SZ,Kesteren,Neder-Betuwe,Gelderland,VBO,5.543775,51.939448
Rijk van Batouwe,50,,,4041SZ,Kesteren,Neder-Betuwe,Gelderland,VBO,5.543922,51.939693
Rijk van Batouwe,51,,,4041SZ,Kesteren,Neder-Betuwe,Gelderland,VBO,5.543975,51.939791
Rijk van Batouwe,52,,,4041SZ,Kesteren,Neder-Betuwe,Gelderland,VBO,5.544058,51.939913
Rijk van Batouwe,53,,,4041SZ,Kesteren,Neder-Betuwe,Gelderland,VBO,5.544100,51.940021
Rijk van Batouwe,54,,,4041SZ,Kesteren,Neder-Betuwe,Gelderland,VBO,5.544144,51.940112
Rijk van Batouwe,55,,,4041SZ,Kesteren,Neder-Betuwe,Gelderland,VBO,5.544227,51.940219
Rijk van Batouwe,56,,,4041SZ,Kesteren,Neder-Betuwe,Gelderland,VBO,5.544323,51.940357
Rijk van Batouwe,63,,,4041SZ,Kesteren,Neder-Betuwe,Gelderland,VBO,5.543622,51.939730
Rijk van Batouwe,64,,,4041SZ,Kesteren,Neder-Betuwe,Gelderland,VBO,5.543534,51.939655
Rijk van Batouwe,77,,,4041SZ,Kesteren,Neder-Betuwe,Gelderland,VBO,5.543819,51.940744
Rijk van Batouwe,81,,,4041SZ,Kesteren,Neder-Betuwe,Gelderland,VBO,5.544148,51.941103
Juffrouw H Scholtenstraat,2,,,4041VA,Kesteren,Neder-Betuwe,Gelderland,VBO,5.575482,51.930553
Juffrouw H Scholtenstraat,8,,,4041VA,Kesteren,Neder-Betuwe,Gelderland,VBO,5.575438,51.930197
Meester J van Dolderenstraat,1,,,4041VB,Kesteren,Neder-Betuwe,Gelderland,VBO,5.576489,51.930549
Meester J van Dolderenstraat,2,,,4041VB,Kesteren,Neder-Betuwe,Gelderland,VBO,5.576099,51.930580
Meester J van Dolderenstraat,3,,,4041VB,Kesteren,Neder-Betuwe,Gelderland,VBO,5.576485,51.930499
Meester J van Dolderenstraat,4,,,4041VB,Kesteren,Neder-Betuwe,Gelderland,VBO,5.576059,51.930518
Meester J van Dolderenstraat,5,,,4041VB,Kesteren,Neder-Betuwe,Gelderland,VBO,5.576478,51.930447
Meester J van Dolderenstraat,6,,,4041VB,Kesteren,Neder-Betuwe,Gelderland,VBO,5.576051,51.930439
Meester J van Dolderenstraat,7,,,4041VB,Kesteren,Neder-Betuwe,Gelderland,VBO,5.576494,51.930395
Meester J van Dolderenstraat,8,,,4041VB,Kesteren,Neder-Betuwe,Gelderland,VBO,5.576064,51.930370
Meester J van Dolderenstraat,9,,,4041VB,Kesteren,Neder-Betuwe,Gelderland,VBO,5.576561,51.930320
Meester J van Dolderenstraat,10,,,4041VB,Kesteren,Neder-Betuwe,Gelderland,VBO,5.576120,51.930272
Meester J van Dolderenstraat,11,,,4041VB,Kesteren,Neder-Betuwe,Gelderland,VBO,5.576546,51.930266
Meester J van Dolderenstraat,12,,,4041VB,Kesteren,Neder-Betuwe,Gelderland,VBO,5.576124,51.930218
Meester J van Dolderenstraat,13,,,4041VB,Kesteren,Neder-Betuwe,Gelderland,VBO,5.576541,51.930220
Meester J van Dolderenstraat,14,,,4041VB,Kesteren,Neder-Betuwe,Gelderland,VBO,5.576133,51.930121
Meester J van Dolderenstraat,15,,,4041VB,Kesteren,Neder-Betuwe,Gelderland,VBO,5.576535,51.930175
Meester J van Dolderenstraat,16,,,4041VB,Kesteren,Neder-Betuwe,Gelderland,VBO,5.576145,51.930066
Meester J van Dolderenstraat,17,,,4041VB,Kesteren,Neder-Betuwe,Gelderland,VBO,5.576542,51.930129
Meester J van Dolderenstraat,18,,,4041VB,Kesteren,Neder-Betuwe,Gelderland,VBO,5.576135,51.929961
Meester J van Dolderenstraat,19,,,4041VB,Kesteren,Neder-Betuwe,Gelderland,VBO,5.576547,51.930087
Meester J van Dolderenstraat,20,,,4041VB,Kesteren,Neder-Betuwe,Gelderland,VBO,5.576137,51.929909
Meester J van Dolderenstraat,21,,,4041VB,Kesteren,Neder-Betuwe,Gelderland,VBO,5.576511,51.929999
Meester J van Dolderenstraat,22,,,4041VB,Kesteren,Neder-Betuwe,Gelderland,VBO,5.576088,51.929821
Meester J van Dolderenstraat,23,,,4041VB,Kesteren,Neder-Betuwe,Gelderland,VBO,5.576519,51.929956
Meester J van Dolderenstraat,24,,,4041VB,Kesteren,Neder-Betuwe,Gelderland,VBO,5.576101,51.929752
Meester J van Dolderenstraat,25,,,4041VB,Kesteren,Neder-Betuwe,Gelderland,VBO,5.576501,51.929905
Meester J van Dolderenstraat,27,,,4041VB,Kesteren,Neder-Betuwe,Gelderland,VBO,5.576521,51.929853
Dominee C van den Bergstraat,2,,,4041VC,Kesteren,Neder-Betuwe,Gelderland,VBO,5.577286,51.930564
Dominee C van den Bergstraat,4,,,4041VC,Kesteren,Neder-Betuwe,Gelderland,VBO,5.577289,51.930515
Dominee C van den Bergstraat,6,,,4041VC,Kesteren,Neder-Betuwe,Gelderland,VBO,5.577300,51.930455
Dominee C van den Bergstraat,8,,,4041VC,Kesteren,Neder-Betuwe,Gelderland,VBO,5.577286,51.930397
Dominee C van den Bergstraat,10,,,4041VC,Kesteren,Neder-Betuwe,Gelderland,VBO,5.577285,51.930355
Dominee C van den Bergstraat,12,,,4041VC,Kesteren,Neder-Betuwe,Gelderland,VBO,5.577271,51.930318
Dominee C van den Bergstraat,14,,,4041VC,Kesteren,Neder-Betuwe,Gelderland,VBO,5.577288,51.930226
Dominee C van den Bergstraat,16,,,4041VC,Kesteren,Neder-Betuwe,Gelderland,VBO,5.577290,51.930181
Dominee C van den Bergstraat,18,,,4041VC,Kesteren,Neder-Betuwe,Gelderland,VBO,5.577299,51.930128
Dominee C van den Bergstraat,20,,,4041VC,Kesteren,Neder-Betuwe,Gelderland,VBO,5.577293,51.930077
Dominee C van den Bergstraat,22,,,4041VC,Kesteren,Neder-Betuwe,Gelderland,VBO,5.577282,51.930033
Dominee C van den Bergstraat,24,,,4041VC,Kesteren,Neder-Betuwe,Gelderland,VBO,5.577297,51.929975
Dominee J T Doornenbalstraat,2,,,4041VD,Kesteren,Neder-Betuwe,Gelderland,VBO,5.578425,51.930658
Dominee J T Doornenbalstraat,4,,,4041VD,Kesteren,Neder-Betuwe,Gelderland,VBO,5.578446,51.930616
Dominee J T Doornenbalstraat,6,,,4041VD,Kesteren,Neder-Betuwe,Gelderland,VBO,5.578480,51.930572
Dominee J T Doornenbalstraat,8,,,4041VD,Kesteren,Neder-Betuwe,Gelderland,VBO,5.578473,51.930522
Dominee J T Doornenbalstraat,10,,,4041VD,Kesteren,Neder-Betuwe,Gelderland,VBO,5.578488,51.930478
Dominee J T Doornenbalstraat,12,,,4041VD,Kesteren,Neder-Betuwe,Gelderland,VBO,5.578506,51.930432
Dominee J T Doornenbalstraat,14,,,4041VD,Kesteren,Neder-Betuwe,Gelderland,VBO,5.578533,51.930318
Dominee J T Doornenbalstraat,16,,,4041VD,Kesteren,Neder-Betuwe,Gelderland,VBO,5.578539,51.930282
Dominee J T Doornenbalstraat,18,,,4041VD,Kesteren,Neder-Betuwe,Gelderland,VBO,5.578552,51.930226
Dominee J T Doornenbalstraat,20,,,4041VD,Kesteren,Neder-Betuwe,Gelderland,VBO,5.578549,51.930173
Dominee J T Doornenbalstraat,22,,,4041VD,Kesteren,Neder-Betuwe,Gelderland,VBO,5.578566,51.930119
Dominee J T Doornenbalstraat,24,,,4041VD,Kesteren,Neder-Betuwe,Gelderland,VBO,5.578559,51.930066
Dokter A Zandijkhof,2,,,4041VE,Kesteren,Neder-Betuwe,Gelderland,VBO,5.577779,51.930475
Dokter A Zandijkhof,4,,,4041VE,Kesteren,Neder-Betuwe,Gelderland,VBO,5.577884,51.930476
Dokter A Zandijkhof,6,,,4041VE,Kesteren,Neder-Betuwe,Gelderland,VBO,5.577996,51.930481
Dokter A Zandijkhof,8,,,4041VE,Kesteren,Neder-Betuwe,Gelderland,VBO,5.578110,51.930494
Dokter A Zandijkhof,10,,,4041VE,Kesteren,Neder-Betuwe,Gelderland,VBO,5.578128,51.930153
Dokter A Zandijkhof,12,,,4041VE,Kesteren,Neder-Betuwe,Gelderland,VBO,5.578055,51.930133
Dokter A Zandijkhof,14,,,4041VE,Kesteren,Neder-Betuwe,Gelderland,VBO,5.577954,51.930132
Dokter A Zandijkhof,16,,,4041VE,Kesteren,Neder-Betuwe,Gelderland,VBO,5.577889,51.930122
Dokter A Zandijkhof,18,,,4041VE,Kesteren,Neder-Betuwe,Gelderland,VBO,5.577805,51.930105
Dokter A Zandijkhof,20,,,4041VE,Kesteren,Neder-Betuwe,Gelderland,VBO,5.577720,51.930099
Meester A Datemalaan,1,,,4041VG,Kesteren,Neder-Betuwe,Gelderland,VBO,5.576190,51.929590
Meester A Datemalaan,3,,,4041VG,Kesteren,Neder-Betuwe,Gelderland,VBO,5.576311,51.929580
Meester A Datemalaan,5,,,4041VG,Kesteren,Neder-Betuwe,Gelderland,VBO,5.576485,51.929654
Meester A Datemalaan,7,,,4041VG,Kesteren,Neder-Betuwe,Gelderland,VBO,5.576564,51.929657
Meester A Datemalaan,9,,,4041VG,Kesteren,Neder-Betuwe,Gelderland,VBO,5.577030,51.929700
Meester A Datemalaan,11,,,4041VG,Kesteren,Neder-Betuwe,Gelderland,VBO,5.577101,51.929702
Meester A Datemalaan,15,,,4041VG,Kesteren,Neder-Betuwe,Gelderland,VBO,5.577722,51.929770
Meester A Datemalaan,17,,,4041VG,Kesteren,Neder-Betuwe,Gelderland,VBO,5.577809,51.929765
Meester A Datemalaan,19,,,4041VG,Kesteren,Neder-Betuwe,Gelderland,VBO,5.578055,51.929822
Meester A Datemalaan,21,,,4041VG,Kesteren,Neder-Betuwe,Gelderland,VBO,5.578159,51.929821
Meester A Datemalaan,23,,,4041VG,Kesteren,Neder-Betuwe,Gelderland,VBO,5.578664,51.929896
Meester A Datemalaan,25,,,4041VG,Kesteren,Neder-Betuwe,Gelderland,VBO,5.578750,51.929887
Meester A Datemalaan,27,,,4041VG,Kesteren,Neder-Betuwe,Gelderland,VBO,5.579017,51.929957
Meester A Datemalaan,29,,,4041VG,Kesteren,Neder-Betuwe,Gelderland,VBO,5.579126,51.929945
J van Damstraat,2,,,4041VH,Kesteren,Neder-Betuwe,Gelderland,VBO,5.577736,51.930638
J van Damstraat,4,,,4041VH,Kesteren,Neder-Betuwe,Gelderland,VBO,5.577835,51.930652
J van Damstraat,6,,,4041VH,Kesteren,Neder-Betuwe,Gelderland,VBO,5.577953,51.930658
J van Damstraat,8,,,4041VH,Kesteren,Neder-Betuwe,Gelderland,VBO,5.578070,51.930670
G J Brenkmanlaan,2,,,4041VJ,Kesteren,Neder-Betuwe,Gelderland,VBO,5.578935,51.930723
G J Brenkmanlaan,4,,,4041VJ,Kesteren,Neder-Betuwe,Gelderland,VBO,5.578924,51.930650
G J Brenkmanlaan,14,,,4041VJ,Kesteren,Neder-Betuwe,Gelderland,VBO,5.579042,51.930180
G J Brenkmanlaan,16,,,4041VJ,Kesteren,Neder-Betuwe,Gelderland,VBO,5.579065,51.930125
A.C.W. Staringhof,1,,,4041WB,Kesteren,Neder-Betuwe,Gelderland,VBO,5.566537,51.931762
A.C.W. Staringhof,3,,,4041WB,Kesteren,Neder-Betuwe,Gelderland,VBO,5.566450,51.931771
A.C.W. Staringhof,5,,,4041WB,Kesteren,Neder-Betuwe,Gelderland,VBO,5.566348,51.931771
A.C.W. Staringhof,7,,,4041WB,Kesteren,Neder-Betuwe,Gelderland,VBO,5.566174,51.931817
A.C.W. Staringhof,9,,,4041WB,Kesteren,Neder-Betuwe,Gelderland,VBO,5.566116,51.931862
A.C.W. Staringhof,11,,,4041WB,Kesteren,Neder-Betuwe,Gelderland,VBO,5.566058,51.931907
A.C.W. Staringhof,13,,,4041WB,Kesteren,Neder-Betuwe,Gelderland,VBO,5.565942,51.932015
A.C.W. Staringhof,15,,,4041WB,Kesteren,Neder-Betuwe,Gelderland,VBO,5.565972,51.932087
A.C.W. Staringhof,17,,,4041WB,Kesteren,Neder-Betuwe,Gelderland,VBO,5.565957,51.932123
Westeinde,1,,,4041WC,Kesteren,Neder-Betuwe,Gelderland,VBO,5.561444,51.930646
Westeinde,2,,,4041WC,Kesteren,Neder-Betuwe,Gelderland,VBO,5.562041,51.930933
Westeinde,3,,,4041WC,Kesteren,Neder-Betuwe,Gelderland,VBO,5.561211,51.930656
Westeinde,4,,,4041WC,Kesteren,Neder-Betuwe,Gelderland,VBO,5.561750,51.930924
Westeinde,5,,,4041WC,Kesteren,Neder-Betuwe,Gelderland,VBO,5.560993,51.930656
Westeinde,6,,,4041WC,Kesteren,Neder-Betuwe,Gelderland,VBO,5.561416,51.930943
Westeinde,7,,,4041WC,Kesteren,Neder-Betuwe,Gelderland,VBO,5.560775,51.930557
Westeinde,8,,,4041WC,Kesteren,Neder-Betuwe,Gelderland,VBO,5.561169,51.930961
Westeinde,9,,,4041WC,Kesteren,Neder-Betuwe,Gelderland,VBO,5.560760,51.930441
Westeinde,10,,,4041WC,Kesteren,Neder-Betuwe,Gelderland,VBO,5.560936,51.930953
Westeinde,11,,,4041WC,Kesteren,Neder-Betuwe,Gelderland,VBO,5.560745,51.930378
Westeinde,12,,,4041WC,Kesteren,Neder-Betuwe,Gelderland,VBO,5.561010,51.931213
Westeinde,13,,,4041WC,Kesteren,Neder-Betuwe,Gelderland,VBO,5.560730,51.930270
Westeinde,14,,,4041WC,Kesteren,Neder-Betuwe,Gelderland,VBO,5.560967,51.931375
Westeinde,15,,,4041WC,Kesteren,Neder-Betuwe,Gelderland,VBO,5.560730,51.930216
Westeinde,16,,,4041WC,Kesteren,Neder-Betuwe,Gelderland,VBO,5.560496,51.929902
Westeinde,17,,,4041WC,Kesteren,Neder-Betuwe,Gelderland,VBO,5.561021,51.930224
Westeinde,18,,,4041WC,Kesteren,Neder-Betuwe,Gelderland,VBO,5.560569,51.929911
Westeinde,19,,,4041WC,Kesteren,Neder-Betuwe,Gelderland,VBO,5.561123,51.930224
Westeinde,20,,,4041WC,Kesteren,Neder-Betuwe,Gelderland,VBO,5.560656,51.929919
Westeinde,21,,,4041WC,Kesteren,Neder-Betuwe,Gelderland,VBO,5.561210,51.930215
Westeinde,22,,,4041WC,Kesteren,Neder-Betuwe,Gelderland,VBO,5.560729,51.929892
Westeinde,23,,,4041WC,Kesteren,Neder-Betuwe,Gelderland,VBO,5.561282,51.930215
Westeinde,24,,,4041WC,Kesteren,Neder-Betuwe,Gelderland,VBO,5.560684,51.929731
Westeinde,25,,,4041WC,Kesteren,Neder-Betuwe,Gelderland,VBO,5.561370,51.930206
Westeinde,26,,,4041WC,Kesteren,Neder-Betuwe,Gelderland,VBO,5.560713,51.929650
Westeinde,27,,,4041WC,Kesteren,Neder-Betuwe,Gelderland,VBO,5.561457,51.930197
Westeinde,28,,,4041WC,Kesteren,Neder-Betuwe,Gelderland,VBO,5.560699,51.929614
Westeinde,30,,,4041WC,Kesteren,Neder-Betuwe,Gelderland,VBO,5.560713,51.929551
Westeinde,31,,,4041WC,Kesteren,Neder-Betuwe,Gelderland,VBO,5.561165,51.929856
Westeinde,32,,,4041WC,Kesteren,Neder-Betuwe,Gelderland,VBO,5.560684,51.929497
Westeinde,33,,,4041WC,Kesteren,Neder-Betuwe,Gelderland,VBO,5.561150,51.929802
Westeinde,34,,,4041WC,Kesteren,Neder-Betuwe,Gelderland,VBO,5.560698,51.929452
Westeinde,35,,,4041WC,Kesteren,Neder-Betuwe,Gelderland,VBO,5.561149,51.929685
Westeinde,37,,,4041WC,Kesteren,Neder-Betuwe,Gelderland,VBO,5.561135,51.929631
Westeinde,39,,,4041WC,Kesteren,Neder-Betuwe,Gelderland,VBO,5.561134,51.929514
Westeinde,41,,,4041WC,Kesteren,Neder-Betuwe,Gelderland,VBO,5.561120,51.929460
Kerkstraat,1,,,4041XA,Kesteren,Neder-Betuwe,Gelderland,VBO,5.572759,51.934853
Kerkstraat,3,,,4041XA,Kesteren,Neder-Betuwe,Gelderland,VBO,5.572612,51.934665
Kerkstraat,7,,,4041XA,Kesteren,Neder-Betuwe,Gelderland,VBO,5.572335,51.934391
Kerkstraat,9,,,4041XA,Kesteren,Neder-Betuwe,Gelderland,VBO,5.572218,51.934135
Kerkstraat,11,,,4041XA,Kesteren,Neder-Betuwe,Gelderland,VBO,5.572174,51.934063
Kerkstraat,13,,,4041XA,Kesteren,Neder-Betuwe,Gelderland,VBO,5.572071,51.933884
Kerkstraat,15,a,,4041XA,Kesteren,Neder-Betuwe,Gelderland,VBO,5.571168,51.933571
Kerkstraat,15,,,4041XA,Kesteren,Neder-Betuwe,Gelderland,VBO,5.571503,51.933714
Kerkstraat,17,a,,4041XA,Kesteren,Neder-Betuwe,Gelderland,VBO,5.570814,51.933460
Kerkstraat,17,,,4041XA,Kesteren,Neder-Betuwe,Gelderland,VBO,5.570851,51.933493
Kerkstraat,19,,,4041XA,Kesteren,Neder-Betuwe,Gelderland,VBO,5.570760,51.933212
Kerkstraat,21,,,4041XA,Kesteren,Neder-Betuwe,Gelderland,VBO,5.570745,51.933104
Kerkstraat,23,a,,4041XA,Kesteren,Neder-Betuwe,Gelderland,VBO,5.570713,51.932907
Kerkstraat,23,,,4041XA,Kesteren,Neder-Betuwe,Gelderland,VBO,5.570838,51.932907
Kerkstraat,2,a,,4041XB,Kesteren,Neder-Betuwe,Gelderland,VBO,5.571654,51.935062
Kerkstraat,2,,,4041XB,Kesteren,Neder-Betuwe,Gelderland,VBO,5.572163,51.935052
Kerkstraat,4,,,4041XB,Kesteren,Neder-Betuwe,Gelderland,VBO,5.572111,51.934800
Kerkstraat,6,,,4041XB,Kesteren,Neder-Betuwe,Gelderland,VBO,5.571837,51.934802
Kerkstraat,8,,,4041XB,Kesteren,Neder-Betuwe,Gelderland,VBO,5.571768,51.934487
Kerkstraat,10,,,4041XB,Kesteren,Neder-Betuwe,Gelderland,VBO,5.571694,51.934118
Kerkstraat,12,,,4041XB,Kesteren,Neder-Betuwe,Gelderland,VBO,5.571592,51.934037
Kerkstraat,14,,,4041XB,Kesteren,Neder-Betuwe,Gelderland,VBO,5.571432,51.933975
Kerkstraat,16,,,4041XB,Kesteren,Neder-Betuwe,Gelderland,VBO,5.571315,51.933930
Kerkstraat,18,,,4041XB,Kesteren,Neder-Betuwe,Gelderland,VBO,5.571112,51.933885
Kerkstraat,20,,,4041XB,Kesteren,Neder-Betuwe,Gelderland,VBO,5.570981,51.933895
Kerkstraat,24,a,,4041XB,Kesteren,Neder-Betuwe,Gelderland,VBO,5.570391,51.933347
Kerkstraat,24,b,,4041XB,Kesteren,Neder-Betuwe,Gelderland,VBO,5.570319,51.933344
Kerkstraat,24,c,,4041XB,Kesteren,Neder-Betuwe,Gelderland,VBO,5.570155,51.933320
Kerkstraat,24,,,4041XB,Kesteren,Neder-Betuwe,Gelderland,VBO,5.570468,51.933207
Kerkstraat,26,,,4041XB,Kesteren,Neder-Betuwe,Gelderland,VBO,5.570411,51.933140
Kerkstraat,28,,,4041XB,Kesteren,Neder-Betuwe,Gelderland,VBO,5.570396,51.933069
Kerkstraat,30,,,4041XB,Kesteren,Neder-Betuwe,Gelderland,VBO,5.570308,51.932952
Kerkdwarsstraat,1,a,,4041XC,Kesteren,Neder-Betuwe,Gelderland,VBO,5.571896,51.933668
Kerkdwarsstraat,1,,,4041XC,Kesteren,Neder-Betuwe,Gelderland,VBO,5.571955,51.933830
Kerkdwarsstraat,2,a,,4041XC,Kesteren,Neder-Betuwe,Gelderland,VBO,5.571546,51.933525
Kerkdwarsstraat,2,,,4041XC,Kesteren,Neder-Betuwe,Gelderland,VBO,5.571516,51.933309
Kerkdwarsstraat,3,,,4041XC,Kesteren,Neder-Betuwe,Gelderland,VBO,5.572084,51.933470
Kerkdwarsstraat,4,,,4041XC,Kesteren,Neder-Betuwe,Gelderland,VBO,5.571603,51.933246
Kerkdwarsstraat,5,,,4041XC,Kesteren,Neder-Betuwe,Gelderland,VBO,5.571894,51.933345
Kerkdwarsstraat,6,,,4041XC,Kesteren,Neder-Betuwe,Gelderland,VBO,5.571647,51.933156
Van der Zandestraat,1,,,4041XD,Kesteren,Neder-Betuwe,Gelderland,VBO,5.570544,51.933778
Van der Zandestraat,2,,,4041XD,Kesteren,Neder-Betuwe,Gelderland,VBO,5.571040,51.934155
Van der Zandestraat,3,,,4041XD,Kesteren,Neder-Betuwe,Gelderland,VBO,5.570573,51.933841
Van der Zandestraat,4,,,4041XD,Kesteren,Neder-Betuwe,Gelderland,VBO,5.571069,51.934218
Van der Zandestraat,5,,,4041XD,Kesteren,Neder-Betuwe,Gelderland,VBO,5.570603,51.933985
Van der Zandestraat,6,,,4041XD,Kesteren,Neder-Betuwe,Gelderland,VBO,5.571128,51.934371
Van der Zandestraat,7,,,4041XD,Kesteren,Neder-Betuwe,Gelderland,VBO,5.570632,51.934057
Van der Zandestraat,8,,,4041XD,Kesteren,Neder-Betuwe,Gelderland,VBO,5.571143,51.934443
Van der Zandestraat,9,,,4041XD,Kesteren,Neder-Betuwe,Gelderland,VBO,5.570662,51.934183
Van der Zandestraat,10,,,4041XD,Kesteren,Neder-Betuwe,Gelderland,VBO,5.571173,51.934604
Van der Zandestraat,11,,,4041XD,Kesteren,Neder-Betuwe,Gelderland,VBO,5.570662,51.934282
Van der Zandestraat,12,,,4041XD,Kesteren,Neder-Betuwe,Gelderland,VBO,5.571187,51.934658
Van der Zandestraat,13,,,4041XD,Kesteren,Neder-Betuwe,Gelderland,VBO,5.570721,51.934398
Van der Zandestraat,14,,,4041XD,Kesteren,Neder-Betuwe,Gelderland,VBO,5.571290,51.934901
Van der Zandestraat,15,,,4041XD,Kesteren,Neder-Betuwe,Gelderland,VBO,5.570721,51.934470
Van der Zandestraat,16,,,4041XD,Kesteren,Neder-Betuwe,Gelderland,VBO,5.571305,51.934973
Van der Zandestraat,17,,,4041XD,Kesteren,Neder-Betuwe,Gelderland,VBO,5.570751,51.934596
Van der Zandestraat,19,,,4041XD,Kesteren,Neder-Betuwe,Gelderland,VBO,5.570795,51.934677
Van der Zandestraat,21,,,4041XD,Kesteren,Neder-Betuwe,Gelderland,VBO,5.570810,51.934794
Van der Zandestraat,23,,,4041XD,Kesteren,Neder-Betuwe,Gelderland,VBO,5.570825,51.934857
Van der Zandestraat,25,,,4041XD,Kesteren,Neder-Betuwe,Gelderland,VBO,5.570854,51.934991
Van der Zandestraat,27,,,4041XD,Kesteren,Neder-Betuwe,Gelderland,VBO,5.570869,51.935090
Nedereindsestraat,1,,,4041XE,Kesteren,Neder-Betuwe,Gelderland,VBO,5.573919,51.932738
Nedereindsestraat,3,,,4041XE,Kesteren,Neder-Betuwe,Gelderland,VBO,5.573527,51.932683
Nedereindsestraat,5,,,4041XE,Kesteren,Neder-Betuwe,Gelderland,VBO,5.573529,51.932781
Nedereindsestraat,7,,,4041XE,Kesteren,Neder-Betuwe,Gelderland,VBO,5.573392,51.932779
Nedereindsestraat,9,a,,4041XE,Kesteren,Neder-Betuwe,Gelderland,VBO,5.573561,51.932474
Nedereindsestraat,9,,,4041XE,Kesteren,Neder-Betuwe,Gelderland,VBO,5.573412,51.932697
Nedereindsestraat,11,a,,4041XE,Kesteren,Neder-Betuwe,Gelderland,VBO,5.573194,51.932779
Nedereindsestraat,11,b,,4041XE,Kesteren,Neder-Betuwe,Gelderland,VBO,5.573155,51.932716
Nedereindsestraat,11,,,4041XE,Kesteren,Neder-Betuwe,Gelderland,VBO,5.573285,51.932705
Nedereindsestraat,13,,,4041XE,Kesteren,Neder-Betuwe,Gelderland,VBO,5.572706,51.932687
Nedereindsestraat,15,,,4041XE,Kesteren,Neder-Betuwe,Gelderland,VBO,5.572459,51.932634
Nedereindsestraat,17,a,,4041XE,Kesteren,Neder-Betuwe,Gelderland,VBO,5.571485,51.931722
Nedereindsestraat,17,,,4041XE,Kesteren,Neder-Betuwe,Gelderland,VBO,5.572226,51.932697
Nedereindsestraat,19,,,4041XE,Kesteren,Neder-Betuwe,Gelderland,VBO,5.571281,51.932600
Nedereindsestraat,21,a,,4041XE,Kesteren,Neder-Betuwe,Gelderland,VBO,5.570583,51.932574
Nedereindsestraat,21,,,4041XE,Kesteren,Neder-Betuwe,Gelderland,VBO,5.570743,51.932592
Nedereindsestraat,23,a,,4041XE,Kesteren,Neder-Betuwe,Gelderland,VBO,5.570077,51.932579
Nedereindsestraat,23,,,4041XE,Kesteren,Neder-Betuwe,Gelderland,VBO,5.570350,51.932520
Nedereindsestraat,25,a,,4041XE,Kesteren,Neder-Betuwe,Gelderland,VBO,5.569360,51.932542
Nedereindsestraat,25,b,,4041XE,Kesteren,Neder-Betuwe,Gelderland,VBO,5.569051,51.932542
Nedereindsestraat,25,c,,4041XE,Kesteren,Neder-Betuwe,Gelderland,VBO,5.568729,51.932548
Nedereindsestraat,25,,,4041XE,Kesteren,Neder-Betuwe,Gelderland,VBO,5.569914,51.932530
Nedereindsestraat,27,a,,4041XE,Kesteren,Neder-Betuwe,Gelderland,VBO,5.568009,51.932184
Nedereindsestraat,27,b,,4041XE,Kesteren,Neder-Betuwe,Gelderland,VBO,5.567988,51.931913
Nedereindsestraat,27,c,,4041XE,Kesteren,Neder-Betuwe,Gelderland,VBO,5.567680,51.931892
Nedereindsestraat,27,d,,4041XE,Kesteren,Neder-Betuwe,Gelderland,VBO,5.567579,51.932108
Nedereindsestraat,27,,,4041XE,Kesteren,Neder-Betuwe,Gelderland,VBO,5.568401,51.932451
Nedereindsestraat,29,,,4041XE,Kesteren,Neder-Betuwe,Gelderland,VBO,5.565316,51.931719
Nedereindsestraat,31,a,,4041XE,Kesteren,Neder-Betuwe,Gelderland,VBO,5.562467,51.931885
Nedereindsestraat,31,,,4041XE,Kesteren,Neder-Betuwe,Gelderland,VBO,5.563629,51.931686
Nedereindsestraat,33,a,,4041XE,Kesteren,Neder-Betuwe,Gelderland,VBO,5.561346,51.931680
Nedereindsestraat,33,b,,4041XE,Kesteren,Neder-Betuwe,Gelderland,VBO,5.560924,51.931600
Nedereindsestraat,33,,,4041XE,Kesteren,Neder-Betuwe,Gelderland,VBO,5.561725,51.931742
Nedereindsestraat,35,,,4041XE,Kesteren,Neder-Betuwe,Gelderland,VBO,5.560080,51.931448
Nedereindsestraat,37,a,,4041XE,Kesteren,Neder-Betuwe,Gelderland,VBO,5.558975,51.931405
Nedereindsestraat,37,,,4041XE,Kesteren,Neder-Betuwe,Gelderland,VBO,5.559397,51.931431
Nedereindsestraat,39,,,4041XE,Kesteren,Neder-Betuwe,Gelderland,VBO,5.554263,51.931070
Nedereindsestraat,2,a,,4041XG,Kesteren,Neder-Betuwe,Gelderland,VBO,5.574026,51.933198
Nedereindsestraat,2,,,4041XG,Kesteren,Neder-Betuwe,Gelderland,VBO,5.574005,51.933117
Nedereindsestraat,4,,,4041XG,Kesteren,Neder-Betuwe,Gelderland,VBO,5.573711,51.933162
Nedereindsestraat,6,,,4041XG,Kesteren,Neder-Betuwe,Gelderland,VBO,5.573522,51.933216
Nedereindsestraat,8,,,4041XG,Kesteren,Neder-Betuwe,Gelderland,VBO,5.573174,51.933244
Nedereindsestraat,10,,,4041XG,Kesteren,Neder-Betuwe,Gelderland,VBO,5.572970,51.933244
Nedereindsestraat,12,,,4041XG,Kesteren,Neder-Betuwe,Gelderland,VBO,5.572781,51.933209
Nedereindsestraat,14,a,,4041XG,Kesteren,Neder-Betuwe,Gelderland,VBO,5.572403,51.933173
Nedereindsestraat,14,b,,4041XG,Kesteren,Neder-Betuwe,Gelderland,VBO,5.572315,51.933164
Nedereindsestraat,14,,,4041XG,Kesteren,Neder-Betuwe,Gelderland,VBO,5.572548,51.933191
Nedereindsestraat,16,,,4041XG,Kesteren,Neder-Betuwe,Gelderland,VBO,5.572184,51.933138
Nedereindsestraat,18,,,4041XG,Kesteren,Neder-Betuwe,Gelderland,VBO,5.571981,51.933120
Nedereindsestraat,20,,,4041XG,Kesteren,Neder-Betuwe,Gelderland,VBO,5.571748,51.932985
Nedereindsestraat,22,,,4041XG,Kesteren,Neder-Betuwe,Gelderland,VBO,5.571558,51.932923
Nedereindsestraat,24,,,4041XG,Kesteren,Neder-Betuwe,Gelderland,VBO,5.571369,51.932905
Nedereindsestraat,26,a,,4041XG,Kesteren,Neder-Betuwe,Gelderland,VBO,5.570980,51.932903
Nedereindsestraat,26,,,4041XG,Kesteren,Neder-Betuwe,Gelderland,VBO,5.571180,51.932897
Nedereindsestraat,28,,,4041XG,Kesteren,Neder-Betuwe,Gelderland,VBO,5.569334,51.932989
Nedereindsestraat,30,a,,4041XG,Kesteren,Neder-Betuwe,Gelderland,VBO,5.568430,51.932892
Nedereindsestraat,30,b,,4041XG,Kesteren,Neder-Betuwe,Gelderland,VBO,5.567984,51.932804
Nedereindsestraat,30,c,,4041XG,Kesteren,Neder-Betuwe,Gelderland,VBO,5.567580,51.932767
Nedereindsestraat,30,,,4041XG,Kesteren,Neder-Betuwe,Gelderland,VBO,5.568810,51.932936
Nedereindsestraat,32,a,,4041XG,Kesteren,Neder-Betuwe,Gelderland,VBO,5.566701,51.932733
Nedereindsestraat,32,,,4041XG,Kesteren,Neder-Betuwe,Gelderland,VBO,5.566818,51.932759
Nedereindsestraat,34,,,4041XG,Kesteren,Neder-Betuwe,Gelderland,VBO,5.566017,51.932572
Nedereindsestraat,36,a,,4041XG,Kesteren,Neder-Betuwe,Gelderland,VBO,5.562043,51.932167
Nedereindsestraat,38,,,4041XG,Kesteren,Neder-Betuwe,Gelderland,VBO,5.560621,51.932077
Nedereindsestraat,44,a,,4041XG,Kesteren,Neder-Betuwe,Gelderland,VBO,5.558195,51.931921
Nedereindsestraat,44,,,4041XG,Kesteren,Neder-Betuwe,Gelderland,VBO,5.558424,51.931810
Nicolaas Beetsstraat,1,,,4041XH,Kesteren,Neder-Betuwe,Gelderland,VBO,5.570857,51.932088
Nicolaas Beetsstraat,2,,,4041XH,Kesteren,Neder-Betuwe,Gelderland,VBO,5.570872,51.932322
Nicolaas Beetsstraat,3,,,4041XH,Kesteren,Neder-Betuwe,Gelderland,VBO,5.570755,51.932088
Nicolaas Beetsstraat,4,,,4041XH,Kesteren,Neder-Betuwe,Gelderland,VBO,5.570756,51.932322
Nicolaas Beetsstraat,5,,,4041XH,Kesteren,Neder-Betuwe,Gelderland,VBO,5.570653,51.932088
Nicolaas Beetsstraat,6,,,4041XH,Kesteren,Neder-Betuwe,Gelderland,VBO,5.570596,51.932322
Nicolaas Beetsstraat,7,,,4041XH,Kesteren,Neder-Betuwe,Gelderland,VBO,5.570493,51.932089
Nicolaas Beetsstraat,8,,,4041XH,Kesteren,Neder-Betuwe,Gelderland,VBO,5.570480,51.932322
Nicolaas Beetsstraat,9,,,4041XH,Kesteren,Neder-Betuwe,Gelderland,VBO,5.570377,51.932089
Nicolaas Beetsstraat,10,,,4041XH,Kesteren,Neder-Betuwe,Gelderland,VBO,5.570305,51.932332
Nicolaas Beetsstraat,11,,,4041XH,Kesteren,Neder-Betuwe,Gelderland,VBO,5.570203,51.932089
Nicolaas Beetsstraat,12,,,4041XH,Kesteren,Neder-Betuwe,Gelderland,VBO,5.570189,51.932332
Nicolaas Beetsstraat,13,,,4041XH,Kesteren,Neder-Betuwe,Gelderland,VBO,5.570086,51.932089
Nicolaas Beetsstraat,14,,,4041XH,Kesteren,Neder-Betuwe,Gelderland,VBO,5.570015,51.932332
Nicolaas Beetsstraat,15,,,4041XH,Kesteren,Neder-Betuwe,Gelderland,VBO,5.569926,51.932099
Nicolaas Beetsstraat,16,,,4041XH,Kesteren,Neder-Betuwe,Gelderland,VBO,5.569942,51.932341
Nicolaas Beetsstraat,17,,,4041XH,Kesteren,Neder-Betuwe,Gelderland,VBO,5.569810,51.932099
Nicolaas Beetsstraat,18,,,4041XH,Kesteren,Neder-Betuwe,Gelderland,VBO,5.569811,51.932332
Joost van den Vondelstraat,1,b,,4041XJ,Kesteren,Neder-Betuwe,Gelderland,VBO,5.567092,51.931770
Joost van den Vondelstraat,1,,,4041XJ,Kesteren,Neder-Betuwe,Gelderland,VBO,5.567146,51.931312
Joost van den Vondelstraat,2,,,4041XK,Kesteren,Neder-Betuwe,Gelderland,VBO,5.566580,51.931506
Joost van den Vondelstraat,4,,,4041XK,Kesteren,Neder-Betuwe,Gelderland,VBO,5.566582,51.931448
Joost van den Vondelstraat,6,,,4041XK,Kesteren,Neder-Betuwe,Gelderland,VBO,5.566580,51.931394
Joost van den Vondelstraat,8,,,4041XK,Kesteren,Neder-Betuwe,Gelderland,VBO,5.566572,51.931320
Joost van den Vondelstraat,10,,,4041XK,Kesteren,Neder-Betuwe,Gelderland,VBO,5.566547,51.931241
Joost van den Vondelstraat,12,,,4041XK,Kesteren,Neder-Betuwe,Gelderland,VBO,5.566520,51.931160
Joost van den Vondelstraat,14,,,4041XK,Kesteren,Neder-Betuwe,Gelderland,VBO,5.566592,51.931007
Joost van den Vondelstraat,16,,,4041XK,Kesteren,Neder-Betuwe,Gelderland,VBO,5.566592,51.930926
Joost van den Vondelstraat,18,,,4041XK,Kesteren,Neder-Betuwe,Gelderland,VBO,5.566592,51.930881
Joost van den Vondelstraat,20,,,4041XK,Kesteren,Neder-Betuwe,Gelderland,VBO,5.566592,51.930800
Joost van den Vondelstraat,22,,,4041XK,Kesteren,Neder-Betuwe,Gelderland,VBO,5.566577,51.930737
Joost van den Vondelstraat,24,,,4041XK,Kesteren,Neder-Betuwe,Gelderland,VBO,5.566562,51.930666
Joost van den Vondelstraat,26,,,4041XK,Kesteren,Neder-Betuwe,Gelderland,VBO,5.566983,51.930431
Joost van den Vondelstraat,28,,,4041XK,Kesteren,Neder-Betuwe,Gelderland,VBO,5.566837,51.930458
Joost van den Vondelstraat,30,,,4041XK,Kesteren,Neder-Betuwe,Gelderland,VBO,5.566721,51.930468
Joost van den Vondelstraat,32,,,4041XK,Kesteren,Neder-Betuwe,Gelderland,VBO,5.566619,51.930450
Joost van den Vondelstraat,34,,,4041XK,Kesteren,Neder-Betuwe,Gelderland,VBO,5.566547,51.930450
Joost van den Vondelstraat,36,a,,4041XK,Kesteren,Neder-Betuwe,Gelderland,VBO,5.565917,51.931331
Joost van den Vondelstraat,36,,,4041XK,Kesteren,Neder-Betuwe,Gelderland,VBO,5.566416,51.930450
Joost van den Vondelstraat,38,,,4041XK,Kesteren,Neder-Betuwe,Gelderland,VBO,5.566709,51.930266
Joost van den Vondelstraat,40,,,4041XL,Kesteren,Neder-Betuwe,Gelderland,VBO,5.566724,51.930211
Joost van den Vondelstraat,42,,,4041XL,Kesteren,Neder-Betuwe,Gelderland,VBO,5.566691,51.930162
Joost van den Vondelstraat,44,,,4041XL,Kesteren,Neder-Betuwe,Gelderland,VBO,5.566691,51.930108
Joost van den Vondelstraat,46,,,4041XL,Kesteren,Neder-Betuwe,Gelderland,VBO,5.566690,51.930054
Joost van den Vondelstraat,48,,,4041XL,Kesteren,Neder-Betuwe,Gelderland,VBO,5.566676,51.929991
Joost van den Vondelstraat,50,,,4041XL,Kesteren,Neder-Betuwe,Gelderland,VBO,5.566907,51.929748
Joost van den Vondelstraat,52,,,4041XL,Kesteren,Neder-Betuwe,Gelderland,VBO,5.567024,51.929748
Joost van den Vondelstraat,54,,,4041XL,Kesteren,Neder-Betuwe,Gelderland,VBO,5.567096,51.929739
Joost van den Vondelstraat,56,,,4041XL,Kesteren,Neder-Betuwe,Gelderland,VBO,5.567169,51.929748
Joost van den Vondelstraat,58,,,4041XL,Kesteren,Neder-Betuwe,Gelderland,VBO,5.567256,51.929739
Joost van den Vondelstraat,60,,,4041XL,Kesteren,Neder-Betuwe,Gelderland,VBO,5.567343,51.929739
Jacob van Lennepstraat,1,,,4041XM,Kesteren,Neder-Betuwe,Gelderland,VBO,5.570152,51.930444
Jacob van Lennepstraat,3,,,4041XM,Kesteren,Neder-Betuwe,Gelderland,VBO,5.570080,51.930426
Jacob van Lennepstraat,5,,,4041XM,Kesteren,Neder-Betuwe,Gelderland,VBO,5.570007,51.930409
Jacob van Lennepstraat,7,,,4041XM,Kesteren,Neder-Betuwe,Gelderland,VBO,5.569934,51.930391
Jacob van Lennepstraat,9,,,4041XM,Kesteren,Neder-Betuwe,Gelderland,VBO,5.569861,51.930373
Jacob van Lennepstraat,11,,,4041XM,Kesteren,Neder-Betuwe,Gelderland,VBO,5.569774,51.930355
Jacob van Lennepstraat,13,,,4041XM,Kesteren,Neder-Betuwe,Gelderland,VBO,5.569701,51.930337
Jacob van Lennepstraat,15,,,4041XM,Kesteren,Neder-Betuwe,Gelderland,VBO,5.569614,51.930310
Jacob van Lennepstraat,17,,,4041XM,Kesteren,Neder-Betuwe,Gelderland,VBO,5.569288,51.930216
Jacob van Lennepstraat,19,,,4041XM,Kesteren,Neder-Betuwe,Gelderland,VBO,5.569341,51.930155
Jacob van Lennepstraat,21,,,4041XM,Kesteren,Neder-Betuwe,Gelderland,VBO,5.569380,51.930098
Jacob van Lennepstraat,23,,,4041XM,Kesteren,Neder-Betuwe,Gelderland,VBO,5.569046,51.930176
Jacob van Lennepstraat,25,,,4041XM,Kesteren,Neder-Betuwe,Gelderland,VBO,5.568988,51.930167
Jacob van Lennepstraat,27,,,4041XM,Kesteren,Neder-Betuwe,Gelderland,VBO,5.568901,51.930150
Jacob van Lennepstraat,29,,,4041XM,Kesteren,Neder-Betuwe,Gelderland,VBO,5.568828,51.930132
Jacob van Lennepstraat,31,,,4041XN,Kesteren,Neder-Betuwe,Gelderland,VBO,5.568726,51.930096
Jacob van Lennepstraat,33,,,4041XN,Kesteren,Neder-Betuwe,Gelderland,VBO,5.568668,51.930078
Jacob van Lennepstraat,35,,,4041XN,Kesteren,Neder-Betuwe,Gelderland,VBO,5.568581,51.930069
Jacob van Lennepstraat,37,,,4041XN,Kesteren,Neder-Betuwe,Gelderland,VBO,5.568479,51.930033
Jacob van Lennepstraat,39,,,4041XN,Kesteren,Neder-Betuwe,Gelderland,VBO,5.568289,51.929980
Jacob van Lennepstraat,41,,,4041XN,Kesteren,Neder-Betuwe,Gelderland,VBO,5.568236,51.929978
Jacob van Lennepstraat,43,,,4041XN,Kesteren,Neder-Betuwe,Gelderland,VBO,5.568136,51.929958
Jacob van Lennepstraat,45,,,4041XN,Kesteren,Neder-Betuwe,Gelderland,VBO,5.568059,51.929936
Jacob van Lennepstraat,47,,,4041XN,Kesteren,Neder-Betuwe,Gelderland,VBO,5.567974,51.929918
Jacob van Lennepstraat,49,,,4041XN,Kesteren,Neder-Betuwe,Gelderland,VBO,5.567888,51.929899
Jacob van Lennepstraat,51,,,4041XN,Kesteren,Neder-Betuwe,Gelderland,VBO,5.567795,51.929877
Jacob van Lennepstraat,53,,,4041XN,Kesteren,Neder-Betuwe,Gelderland,VBO,5.567716,51.929861
Jacob van Lennepstraat,2,,,4041XP,Kesteren,Neder-Betuwe,Gelderland,VBO,5.569630,51.930625
Jacob van Lennepstraat,4,,,4041XP,Kesteren,Neder-Betuwe,Gelderland,VBO,5.569528,51.930580
Jacob van Lennepstraat,6,,,4041XP,Kesteren,Neder-Betuwe,Gelderland,VBO,5.569411,51.930562
Jacob van Lennepstraat,8,,,4041XP,Kesteren,Neder-Betuwe,Gelderland,VBO,5.568727,51.930420
Jacob van Lennepstraat,10,,,4041XP,Kesteren,Neder-Betuwe,Gelderland,VBO,5.568654,51.930395
Jacob van Lennepstraat,12,,,4041XP,Kesteren,Neder-Betuwe,Gelderland,VBO,5.568569,51.930374
Jacob van Lennepstraat,14,,,4041XP,Kesteren,Neder-Betuwe,Gelderland,VBO,5.568483,51.930351
Jacob van Lennepstraat,16,,,4041XP,Kesteren,Neder-Betuwe,Gelderland,VBO,5.568420,51.930333
Jacob van Lennepstraat,18,,,4041XP,Kesteren,Neder-Betuwe,Gelderland,VBO,5.568332,51.930318
Jacob van Lennepstraat,20,,,4041XP,Kesteren,Neder-Betuwe,Gelderland,VBO,5.568116,51.930259
Jacob van Lennepstraat,22,,,4041XP,Kesteren,Neder-Betuwe,Gelderland,VBO,5.568067,51.930252
Jacob van Lennepstraat,24,,,4041XP,Kesteren,Neder-Betuwe,Gelderland,VBO,5.567976,51.930232
Jacob van Lennepstraat,26,,,4041XP,Kesteren,Neder-Betuwe,Gelderland,VBO,5.567899,51.930210
Jacob van Lennepstraat,28,,,4041XP,Kesteren,Neder-Betuwe,Gelderland,VBO,5.567796,51.930187
Jacob van Lennepstraat,30,,,4041XP,Kesteren,Neder-Betuwe,Gelderland,VBO,5.567738,51.930169
Constantijn Huygensstraat,1,,,4041XR,Kesteren,Neder-Betuwe,Gelderland,VBO,5.568540,51.930698
Constantijn Huygensstraat,2,,,4041XR,Kesteren,Neder-Betuwe,Gelderland,VBO,5.568395,51.930932
Constantijn Huygensstraat,3,,,4041XR,Kesteren,Neder-Betuwe,Gelderland,VBO,5.568452,51.930681
Constantijn Huygensstraat,4,,,4041XR,Kesteren,Neder-Betuwe,Gelderland,VBO,5.568337,51.930906
Constantijn Huygensstraat,5,,,4041XR,Kesteren,Neder-Betuwe,Gelderland,VBO,5.568365,51.930663
Constantijn Huygensstraat,6,,,4041XR,Kesteren,Neder-Betuwe,Gelderland,VBO,5.568220,51.930888
Constantijn Huygensstraat,7,,,4041XR,Kesteren,Neder-Betuwe,Gelderland,VBO,5.568278,51.930645
Constantijn Huygensstraat,8,,,4041XR,Kesteren,Neder-Betuwe,Gelderland,VBO,5.568075,51.930852
Constantijn Huygensstraat,9,,,4041XR,Kesteren,Neder-Betuwe,Gelderland,VBO,5.568190,51.930618
Constantijn Huygensstraat,10,,,4041XR,Kesteren,Neder-Betuwe,Gelderland,VBO,5.567973,51.930834
Constantijn Huygensstraat,11,,,4041XR,Kesteren,Neder-Betuwe,Gelderland,VBO,5.568132,51.930609
Constantijn Huygensstraat,12,,,4041XR,Kesteren,Neder-Betuwe,Gelderland,VBO,5.567827,51.930789
Constantijn Huygensstraat,14,,,4041XR,Kesteren,Neder-Betuwe,Gelderland,VBO,5.567726,51.930772
Constantijn Huygensstraat,15,,,4041XR,Kesteren,Neder-Betuwe,Gelderland,VBO,5.567920,51.930562
Constantijn Huygensstraat,16,,,4041XR,Kesteren,Neder-Betuwe,Gelderland,VBO,5.567565,51.930727
Constantijn Huygensstraat,17,,,4041XR,Kesteren,Neder-Betuwe,Gelderland,VBO,5.567855,51.930549
Constantijn Huygensstraat,18,,,4041XR,Kesteren,Neder-Betuwe,Gelderland,VBO,5.567522,51.930718
Constantijn Huygensstraat,19,,,4041XR,Kesteren,Neder-Betuwe,Gelderland,VBO,5.567796,51.930534
Constantijn Huygensstraat,20,,,4041XR,Kesteren,Neder-Betuwe,Gelderland,VBO,5.567435,51.930700
Constantijn Huygensstraat,21,,,4041XR,Kesteren,Neder-Betuwe,Gelderland,VBO,5.567727,51.930520
Constantijn Huygensstraat,22,,,4041XR,Kesteren,Neder-Betuwe,Gelderland,VBO,5.567333,51.930673
Constantijn Huygensstraat,23,,,4041XR,Kesteren,Neder-Betuwe,Gelderland,VBO,5.567625,51.930494
Constantijn Huygensstraat,25,,,4041XR,Kesteren,Neder-Betuwe,Gelderland,VBO,5.567506,51.930457
Pieter C. Hooftstraat,1,,,4041XS,Kesteren,Neder-Betuwe,Gelderland,VBO,5.568251,51.931202
Pieter C. Hooftstraat,2,,,4041XS,Kesteren,Neder-Betuwe,Gelderland,VBO,5.569402,51.931803
Pieter C. Hooftstraat,3,,,4041XS,Kesteren,Neder-Betuwe,Gelderland,VBO,5.568149,51.931175
Pieter C. Hooftstraat,4,,,4041XS,Kesteren,Neder-Betuwe,Gelderland,VBO,5.569183,51.931731
Pieter C. Hooftstraat,5,,,4041XS,Kesteren,Neder-Betuwe,Gelderland,VBO,5.568003,51.931131
Pieter C. Hooftstraat,6,,,4041XS,Kesteren,Neder-Betuwe,Gelderland,VBO,5.568922,51.931678
Pieter C. Hooftstraat,7,,,4041XS,Kesteren,Neder-Betuwe,Gelderland,VBO,5.567901,51.931113
Pieter C. Hooftstraat,8,,,4041XS,Kesteren,Neder-Betuwe,Gelderland,VBO,5.568645,51.931678
Pieter C. Hooftstraat,9,,,4041XS,Kesteren,Neder-Betuwe,Gelderland,VBO,5.567770,51.931077
Pieter C. Hooftstraat,10,,,4041XS,Kesteren,Neder-Betuwe,Gelderland,VBO,5.568659,51.932046
Pieter C. Hooftstraat,11,,,4041XS,Kesteren,Neder-Betuwe,Gelderland,VBO,5.567654,51.931050
Pieter C. Hooftstraat,12,,,4041XS,Kesteren,Neder-Betuwe,Gelderland,VBO,5.568383,51.931589
Pieter C. Hooftstraat,13,,,4041XS,Kesteren,Neder-Betuwe,Gelderland,VBO,5.567523,51.931015
Pieter C. Hooftstraat,14,,,4041XS,Kesteren,Neder-Betuwe,Gelderland,VBO,5.568209,51.931544
Pieter C. Hooftstraat,15,,,4041XS,Kesteren,Neder-Betuwe,Gelderland,VBO,5.567421,51.930988
Pieter C. Hooftstraat,16,,,4041XS,Kesteren,Neder-Betuwe,Gelderland,VBO,5.568005,51.931499
Pieter C. Hooftstraat,17,,,4041XS,Kesteren,Neder-Betuwe,Gelderland,VBO,5.567276,51.930961
Pieter C. Hooftstraat,18,,,4041XS,Kesteren,Neder-Betuwe,Gelderland,VBO,5.567830,51.931455
Pieter C. Hooftstraat,19,,,4041XS,Kesteren,Neder-Betuwe,Gelderland,VBO,5.567174,51.930934
Pieter C. Hooftstraat,20,,,4041XS,Kesteren,Neder-Betuwe,Gelderland,VBO,5.567641,51.931401
Pieter C. Hooftstraat,22,,,4041XS,Kesteren,Neder-Betuwe,Gelderland,VBO,5.567452,51.931356
Guido Gezellestraat,1,,,4041XT,Kesteren,Neder-Betuwe,Gelderland,VBO,5.568920,51.931390
Guido Gezellestraat,2,,,4041XT,Kesteren,Neder-Betuwe,Gelderland,VBO,5.568498,51.931283
Guido Gezellestraat,3,,,4041XT,Kesteren,Neder-Betuwe,Gelderland,VBO,5.568964,51.931336
Guido Gezellestraat,4,,,4041XT,Kesteren,Neder-Betuwe,Gelderland,VBO,5.568556,51.931184
Guido Gezellestraat,5,,,4041XT,Kesteren,Neder-Betuwe,Gelderland,VBO,5.568992,51.931228
Guido Gezellestraat,6,,,4041XT,Kesteren,Neder-Betuwe,Gelderland,VBO,5.568599,51.931130
Guido Gezellestraat,7,,,4041XT,Kesteren,Neder-Betuwe,Gelderland,VBO,5.569036,51.931165
Guido Gezellestraat,8,,,4041XT,Kesteren,Neder-Betuwe,Gelderland,VBO,5.568657,51.931040
Guido Gezellestraat,9,,,4041XT,Kesteren,Neder-Betuwe,Gelderland,VBO,5.569094,51.931066
Guido Gezellestraat,10,,,4041XT,Kesteren,Neder-Betuwe,Gelderland,VBO,5.568701,51.930977
Guido Gezellestraat,11,,,4041XT,Kesteren,Neder-Betuwe,Gelderland,VBO,5.569151,51.931003
Guido Gezellestraat,13,,,4041XT,Kesteren,Neder-Betuwe,Gelderland,VBO,5.569195,51.930904
Guido Gezellestraat,14,,,4041XT,Kesteren,Neder-Betuwe,Gelderland,VBO,5.568874,51.930752
Guido Gezellestraat,15,,,4041XT,Kesteren,Neder-Betuwe,Gelderland,VBO,5.569252,51.930832
Guido Gezellestraat,16,,,4041XT,Kesteren,Neder-Betuwe,Gelderland,VBO,5.568918,51.930689
Guido Gezellestraat,17,,,4041XT,Kesteren,Neder-Betuwe,Gelderland,VBO,5.569310,51.930751
Guido Gezellestraat,18,,,4041XT,Kesteren,Neder-Betuwe,Gelderland,VBO,5.568946,51.930644
Guido Gezellestraat,19,,,4041XT,Kesteren,Neder-Betuwe,Gelderland,VBO,5.569354,51.930679
Guido Gezellestraat,20,,,4041XT,Kesteren,Neder-Betuwe,Gelderland,VBO,5.568975,51.930599
Guido Gezellestraat,22,,,4041XT,Kesteren,Neder-Betuwe,Gelderland,VBO,5.568990,51.930554
Guido Gezellestraat,24,,,4041XT,Kesteren,Neder-Betuwe,Gelderland,VBO,5.569033,51.930491
Jacob Catsstraat,1,,,4041XV,Kesteren,Neder-Betuwe,Gelderland,VBO,5.569896,51.931874
Jacob Catsstraat,2,a,,4041XV,Kesteren,Neder-Betuwe,Gelderland,VBO,5.569060,51.932218
Jacob Catsstraat,2,,,4041XV,Kesteren,Neder-Betuwe,Gelderland,VBO,5.569415,51.931515
Jacob Catsstraat,3,a,,4041XV,Kesteren,Neder-Betuwe,Gelderland,VBO,5.569982,51.931568
Jacob Catsstraat,3,,,4041XV,Kesteren,Neder-Betuwe,Gelderland,VBO,5.569968,51.931694
Jacob Catsstraat,4,,,4041XV,Kesteren,Neder-Betuwe,Gelderland,VBO,5.569459,51.931452
Jacob Catsstraat,5,,,4041XV,Kesteren,Neder-Betuwe,Gelderland,VBO,5.570387,51.930947
Jacob Catsstraat,6,,,4041XV,Kesteren,Neder-Betuwe,Gelderland,VBO,5.569531,51.931335
Jacob Catsstraat,7,,,4041XV,Kesteren,Neder-Betuwe,Gelderland,VBO,5.570445,51.930875
Jacob Catsstraat,8,,,4041XV,Kesteren,Neder-Betuwe,Gelderland,VBO,5.569574,51.931263
Jacob Catsstraat,9,,,4041XV,Kesteren,Neder-Betuwe,Gelderland,VBO,5.570502,51.930731
Jacob Catsstraat,10,,,4041XV,Kesteren,Neder-Betuwe,Gelderland,VBO,5.569632,51.931155
Jacob Catsstraat,11,,,4041XV,Kesteren,Neder-Betuwe,Gelderland,VBO,5.570604,51.930623
Jacob Catsstraat,12,,,4041XV,Kesteren,Neder-Betuwe,Gelderland,VBO,5.569675,51.931092
Jacob Catsstraat,13,,,4041XV,Kesteren,Neder-Betuwe,Gelderland,VBO,5.570647,51.930542
Jacob Catsstraat,14,,,4041XV,Kesteren,Neder-Betuwe,Gelderland,VBO,5.569747,51.930993
Jacob Catsstraat,15,,,4041XV,Kesteren,Neder-Betuwe,Gelderland,VBO,5.570719,51.930443
Jacob Catsstraat,16,,,4041XV,Kesteren,Neder-Betuwe,Gelderland,VBO,5.569776,51.930939
Jacob Catsstraat,17,,,4041XV,Kesteren,Neder-Betuwe,Gelderland,VBO,5.570777,51.930362
Jacob Catsstraat,18,,,4041XV,Kesteren,Neder-Betuwe,Gelderland,VBO,5.569834,51.930840
Jacob Catsstraat,19,,,4041XV,Kesteren,Neder-Betuwe,Gelderland,VBO,5.570835,51.930254
Jacob Catsstraat,20,,,4041XV,Kesteren,Neder-Betuwe,Gelderland,VBO,5.569877,51.930777
Jacob Catsstraat,21,,,4041XV,Kesteren,Neder-Betuwe,Gelderland,VBO,5.570878,51.930183
Jacob Catsstraat,22,,,4041XV,Kesteren,Neder-Betuwe,Gelderland,VBO,5.569950,51.930669
Jacob Catsstraat,24,,,4041XV,Kesteren,Neder-Betuwe,Gelderland,VBO,5.570297,51.930228
Jacob Catsstraat,26,,,4041XV,Kesteren,Neder-Betuwe,Gelderland,VBO,5.570387,51.930116
Bilderdijkstraat,1,,,4041XW,Kesteren,Neder-Betuwe,Gelderland,VBO,5.571309,51.932294
Bilderdijkstraat,2,,,4041XW,Kesteren,Neder-Betuwe,Gelderland,VBO,5.570783,51.931890
Bilderdijkstraat,3,a,,4041XW,Kesteren,Neder-Betuwe,Gelderland,VBO,5.571210,51.931455
Bilderdijkstraat,3,,,4041XW,Kesteren,Neder-Betuwe,Gelderland,VBO,5.571277,51.931584
Bilderdijkstraat,4,,,4041XW,Kesteren,Neder-Betuwe,Gelderland,VBO,5.570769,51.931819
Bilderdijkstraat,5,,,4041XW,Kesteren,Neder-Betuwe,Gelderland,VBO,5.570839,51.931198
Bilderdijkstraat,6,,,4041XW,Kesteren,Neder-Betuwe,Gelderland,VBO,5.570768,51.931729
Bilderdijkstraat,7,,,4041XW,Kesteren,Neder-Betuwe,Gelderland,VBO,5.570548,51.931127
Bilderdijkstraat,8,,,4041XW,Kesteren,Neder-Betuwe,Gelderland,VBO,5.570768,51.931657
Bilderdijkstraat,9,,,4041XW,Kesteren,Neder-Betuwe,Gelderland,VBO,5.570286,51.931091
Bilderdijkstraat,10,,,4041XW,Kesteren,Neder-Betuwe,Gelderland,VBO,5.570753,51.931567
Bilderdijkstraat,12,,,4041XW,Kesteren,Neder-Betuwe,Gelderland,VBO,5.570753,51.931495
Bilderdijkstraat,14,,,4041XW,Kesteren,Neder-Betuwe,Gelderland,VBO,5.570462,51.931451
Bilderdijkstraat,16,,,4041XW,Kesteren,Neder-Betuwe,Gelderland,VBO,5.570098,51.931379
Groenendaal,1,,,4041XX,Kesteren,Neder-Betuwe,Gelderland,VBO,5.563483,51.931461
Groenendaal,2,,,4041XX,Kesteren,Neder-Betuwe,Gelderland,VBO,5.562918,51.931929
Groenendaal,3,,,4041XX,Kesteren,Neder-Betuwe,Gelderland,VBO,5.563483,51.931398
Groenendaal,4,,,4041XX,Kesteren,Neder-Betuwe,Gelderland,VBO,5.562902,51.931714
Groenendaal,5,,,4041XX,Kesteren,Neder-Betuwe,Gelderland,VBO,5.563482,51.931299
Groenendaal,6,,,4041XX,Kesteren,Neder-Betuwe,Gelderland,VBO,5.562887,51.931579
Groenendaal,7,,,4041XX,Kesteren,Neder-Betuwe,Gelderland,VBO,5.563482,51.931236
Groenendaal,8,,,4041XX,Kesteren,Neder-Betuwe,Gelderland,VBO,5.562451,51.931651
Groenendaal,9,,,4041XX,Kesteren,Neder-Betuwe,Gelderland,VBO,5.562854,51.930626
Groenendaal,10,,,4041XX,Kesteren,Neder-Betuwe,Gelderland,VBO,5.562392,51.931409
Groenendaal,11,,,4041XX,Kesteren,Neder-Betuwe,Gelderland,VBO,5.562738,51.930626
Groenendaal,12,,,4041XX,Kesteren,Neder-Betuwe,Gelderland,VBO,5.562886,51.931327
Groenendaal,13,,,4041XX,Kesteren,Neder-Betuwe,Gelderland,VBO,5.562476,51.930645
Groenendaal,14,,,4041XX,Kesteren,Neder-Betuwe,Gelderland,VBO,5.562900,51.931192
Groenendaal,15,,,4041XX,Kesteren,Neder-Betuwe,Gelderland,VBO,5.562476,51.930591
Groenendaal,16,,,4041XX,Kesteren,Neder-Betuwe,Gelderland,VBO,5.562638,51.931085
Groenendaal,17,,,4041XX,Kesteren,Neder-Betuwe,Gelderland,VBO,5.562461,51.930483
Groenendaal,18,,,4041XX,Kesteren,Neder-Betuwe,Gelderland,VBO,5.562405,51.931013
Groenendaal,19,,,4041XX,Kesteren,Neder-Betuwe,Gelderland,VBO,5.562461,51.930420
Groenendaal,20,,,4041XX,Kesteren,Neder-Betuwe,Gelderland,VBO,5.561880,51.930637
Groenendaal,21,,,4041XX,Kesteren,Neder-Betuwe,Gelderland,VBO,5.562283,51.929486
Groenendaal,22,,,4041XX,Kesteren,Neder-Betuwe,Gelderland,VBO,5.561865,51.930484
Groenendaal,23,,,4041XX,Kesteren,Neder-Betuwe,Gelderland,VBO,5.562297,51.929441
Groenendaal,24,,,4041XX,Kesteren,Neder-Betuwe,Gelderland,VBO,5.561821,51.930349
Groenendaal,25,,,4041XX,Kesteren,Neder-Betuwe,Gelderland,VBO,5.562282,51.929378
Groenendaal,26,,,4041XX,Kesteren,Neder-Betuwe,Gelderland,VBO,5.561820,51.930178
Groenendaal,27,,,4041XX,Kesteren,Neder-Betuwe,Gelderland,VBO,5.562268,51.929333
Groenendaal,28,,,4041XX,Kesteren,Neder-Betuwe,Gelderland,VBO,5.561761,51.929846
Groenendaal,29,,,4041XX,Kesteren,Neder-Betuwe,Gelderland,VBO,5.562253,51.929261
Groenendaal,30,,,4041XX,Kesteren,Neder-Betuwe,Gelderland,VBO,5.561746,51.929792
Groenendaal,31,,,4041XX,Kesteren,Neder-Betuwe,Gelderland,VBO,5.562253,51.929207
Groenendaal,32,,,4041XX,Kesteren,Neder-Betuwe,Gelderland,VBO,5.561746,51.929666
Groenendaal,33,,,4041XX,Kesteren,Neder-Betuwe,Gelderland,VBO,5.561292,51.928903
Groenendaal,34,,,4041XX,Kesteren,Neder-Betuwe,Gelderland,VBO,5.561745,51.929612
Groenendaal,35,,,4041XX,Kesteren,Neder-Betuwe,Gelderland,VBO,5.561219,51.928903
Groenendaal,36,,,4041XX,Kesteren,Neder-Betuwe,Gelderland,VBO,5.561774,51.929486
Groenendaal,37,,,4041XX,Kesteren,Neder-Betuwe,Gelderland,VBO,5.561045,51.928912
Groenendaal,38,,,4041XX,Kesteren,Neder-Betuwe,Gelderland,VBO,5.561774,51.929441
Groenendaal,39,,,4041XX,Kesteren,Neder-Betuwe,Gelderland,VBO,5.560972,51.928912
Groenendaal,40,,,4041XX,Kesteren,Neder-Betuwe,Gelderland,VBO,5.561686,51.929316
Groenendaal,41,,,4041XX,Kesteren,Neder-Betuwe,Gelderland,VBO,5.560798,51.928922
Groenendaal,42,,,4041XX,Kesteren,Neder-Betuwe,Gelderland,VBO,5.561686,51.929262
Groenendaal,43,,,4041XX,Kesteren,Neder-Betuwe,Gelderland,VBO,5.560725,51.928922
Groenendaal,44,,,4041XX,Kesteren,Neder-Betuwe,Gelderland,VBO,5.561322,51.929244
Groenendaal,46,,,4041XX,Kesteren,Neder-Betuwe,Gelderland,VBO,5.561264,51.929244
Groenendaal,48,,,4041XX,Kesteren,Neder-Betuwe,Gelderland,VBO,5.561177,51.929245
Groenendaal,50,,,4041XX,Kesteren,Neder-Betuwe,Gelderland,VBO,5.561075,51.929254
Groenendaal,52,,,4041XX,Kesteren,Neder-Betuwe,Gelderland,VBO,5.560697,51.929263
Groenendaal,54,,,4041XX,Kesteren,Neder-Betuwe,Gelderland,VBO,5.560610,51.929272
Groenendaal,56,,,4041XX,Kesteren,Neder-Betuwe,Gelderland,VBO,5.560552,51.929272
Groenendaal,58,,,4041XX,Kesteren,Neder-Betuwe,Gelderland,VBO,5.560435,51.929273
Leuvenstein,1,,,4041XZ,Kesteren,Neder-Betuwe,Gelderland,VBO,5.563714,51.931110
Leuvenstein,2,,,4041XZ,Kesteren,Neder-Betuwe,Gelderland,VBO,5.563132,51.930922
Leuvenstein,3,,,4041XZ,Kesteren,Neder-Betuwe,Gelderland,VBO,5.563699,51.931056
Leuvenstein,4,,,4041XZ,Kesteren,Neder-Betuwe,Gelderland,VBO,5.563131,51.930851
Leuvenstein,5,,,4041XZ,Kesteren,Neder-Betuwe,Gelderland,VBO,5.563699,51.930949
Leuvenstein,6,,,4041XZ,Kesteren,Neder-Betuwe,Gelderland,VBO,5.563523,51.930643
Leuvenstein,7,,,4041XZ,Kesteren,Neder-Betuwe,Gelderland,VBO,5.563684,51.930904
Leuvenstein,8,,,4041XZ,Kesteren,Neder-Betuwe,Gelderland,VBO,5.563473,51.930671
Leuvenstein,9,,,4041XZ,Kesteren,Neder-Betuwe,Gelderland,VBO,5.564003,51.930777
Leuvenstein,10,,,4041XZ,Kesteren,Neder-Betuwe,Gelderland,VBO,5.563409,51.930666
Leuvenstein,11,,,4041XZ,Kesteren,Neder-Betuwe,Gelderland,VBO,5.563974,51.930732
Leuvenstein,12,,,4041XZ,Kesteren,Neder-Betuwe,Gelderland,VBO,5.563298,51.930658
Leuvenstein,13,,,4041XZ,Kesteren,Neder-Betuwe,Gelderland,VBO,5.563974,51.930625
Leuvenstein,14,,,4041XZ,Kesteren,Neder-Betuwe,Gelderland,VBO,5.563223,51.930654
Leuvenstein,15,,,4041XZ,Kesteren,Neder-Betuwe,Gelderland,VBO,5.563959,51.930562
Leuvenstein,16,,,4041XZ,Kesteren,Neder-Betuwe,Gelderland,VBO,5.563140,51.930666
Leuvenstein,17,,,4041XZ,Kesteren,Neder-Betuwe,Gelderland,VBO,5.564177,51.930453
Leuvenstein,18,,,4041XZ,Kesteren,Neder-Betuwe,Gelderland,VBO,5.563134,51.930627
Leuvenstein,19,,,4041XZ,Kesteren,Neder-Betuwe,Gelderland,VBO,5.564176,51.930400
Leuvenstein,20,,,4041XZ,Kesteren,Neder-Betuwe,Gelderland,VBO,5.563044,51.930671
Leuvenstein,21,,,4041XZ,Kesteren,Neder-Betuwe,Gelderland,VBO,5.564162,51.930301
Leuvenstein,22,,,4041XZ,Kesteren,Neder-Betuwe,Gelderland,VBO,5.563032,51.930631
Leuvenstein,23,,,4041XZ,Kesteren,Neder-Betuwe,Gelderland,VBO,5.564161,51.930247
Leuvenstein,24,,,4041XZ,Kesteren,Neder-Betuwe,Gelderland,VBO,5.563493,51.930356
Leuvenstein,25,,,4041XZ,Kesteren,Neder-Betuwe,Gelderland,VBO,5.564291,51.930040
Leuvenstein,26,,,4041XZ,Kesteren,Neder-Betuwe,Gelderland,VBO,5.563433,51.930361
Leuvenstein,27,,,4041XZ,Kesteren,Neder-Betuwe,Gelderland,VBO,5.564219,51.930049
Leuvenstein,28,,,4041XZ,Kesteren,Neder-Betuwe,Gelderland,VBO,5.563351,51.930361
Leuvenstein,29,,,4041XZ,Kesteren,Neder-Betuwe,Gelderland,VBO,5.564132,51.930058
Leuvenstein,30,,,4041XZ,Kesteren,Neder-Betuwe,Gelderland,VBO,5.563272,51.930364
Leuvenstein,31,,,4041XZ,Kesteren,Neder-Betuwe,Gelderland,VBO,5.564059,51.930058
Leuvenstein,32,,,4041XZ,Kesteren,Neder-Betuwe,Gelderland,VBO,5.563186,51.930360
Leuvenstein,33,,,4041XZ,Kesteren,Neder-Betuwe,Gelderland,VBO,5.563957,51.930049
Leuvenstein,34,,,4041XZ,Kesteren,Neder-Betuwe,Gelderland,VBO,5.563115,51.930375
Leuvenstein,35,,,4041XZ,Kesteren,Neder-Betuwe,Gelderland,VBO,5.563710,51.930059
Leuvenstein,36,,,4041XZ,Kesteren,Neder-Betuwe,Gelderland,VBO,5.563115,51.930401
Leuvenstein,37,,,4041XZ,Kesteren,Neder-Betuwe,Gelderland,VBO,5.563623,51.930059
Leuvenstein,38,,,4041XZ,Kesteren,Neder-Betuwe,Gelderland,VBO,5.563013,51.930376
Leuvenstein,39,,,4041XZ,Kesteren,Neder-Betuwe,Gelderland,VBO,5.563463,51.930068
Leuvenstein,40,,,4041XZ,Kesteren,Neder-Betuwe,Gelderland,VBO,5.562999,51.930401
Leuvenstein,41,,,4041XZ,Kesteren,Neder-Betuwe,Gelderland,VBO,5.563361,51.930077
Leuvenstein,42,,,4041XZ,Kesteren,Neder-Betuwe,Gelderland,VBO,5.562810,51.930411
Leuvenstein,43,,,4041XZ,Kesteren,Neder-Betuwe,Gelderland,VBO,5.563187,51.930095
Leuvenstein,44,,,4041XZ,Kesteren,Neder-Betuwe,Gelderland,VBO,5.562723,51.930411
Leuvenstein,45,,,4041XZ,Kesteren,Neder-Betuwe,Gelderland,VBO,5.563114,51.930105
Leuvenstein,47,,,4041XZ,Kesteren,Neder-Betuwe,Gelderland,VBO,5.563027,51.930114
Leuvenstein,49,,,4041XZ,Kesteren,Neder-Betuwe,Gelderland,VBO,5.562939,51.930105
Leuvenstein,51,,,4041XZ,Kesteren,Neder-Betuwe,Gelderland,VBO,5.562809,51.930105
Leuvenstein,53,,,4041XZ,Kesteren,Neder-Betuwe,Gelderland,VBO,5.562707,51.930105
Leuvenstein,55,,,4041XZ,Kesteren,Neder-Betuwe,Gelderland,VBO,5.562503,51.930114
Leuvenstein,57,,,4041XZ,Kesteren,Neder-Betuwe,Gelderland,VBO,5.562416,51.930115
