openbareruimtenaam,huisnummer,huisletter,huisnummertoevoeging,postcode,woonplaatsnaam,gemeentenaam,provincienaam,typeadresseerbaarobject,longitude,latitude
Stationsweg,1,b,,4054HA,Echteld,Neder-Betuwe,Gelderland,VBO,5.499126,51.912494
Stationsweg,3,,,4054HA,Echteld,Neder-Betuwe,Gelderland,VBO,5.500479,51.912870
Stationsweg,7,,,4054HA,Echteld,Neder-Betuwe,Gelderland,VBO,5.503329,51.913515
Stationsweg,9,,,4054HA,Echteld,Neder-Betuwe,Gelderland,VBO,5.503837,51.913451
Stationsweg,11,,,4054HA,Echteld,Neder-Betuwe,Gelderland,VBO,5.503939,51.913433
Stationsweg,13,,,4054HA,Echteld,Neder-Betuwe,Gelderland,VBO,5.504070,51.913415
Stationsweg,15,,,4054HA,Echteld,Neder-Betuwe,Gelderland,VBO,5.504172,51.913406
Stationsweg,17,,,4054HA,Echteld,Neder-Betuwe,Gelderland,VBO,5.504317,51.913415
Stationsweg,19,,,4054HA,Echteld,Neder-Betuwe,Gelderland,VBO,5.504825,51.913360
Stationsweg,21,,,4054HA,Echteld,Neder-Betuwe,Gelderland,VBO,5.505043,51.913324
Stationsweg,23,,,4054HA,Echteld,Neder-Betuwe,Gelderland,VBO,5.505654,51.913261
Stationsweg,25,,,4054HA,Echteld,Neder-Betuwe,Gelderland,VBO,5.506409,51.913269
Stationsweg,27,a,,4054HA,Echteld,Neder-Betuwe,Gelderland,VBO,5.508182,51.912935
Stationsweg,27,,,4054HA,Echteld,Neder-Betuwe,Gelderland,VBO,5.506613,51.913251
Stationsweg,29,,,4054HA,Echteld,Neder-Betuwe,Gelderland,VBO,5.509649,51.912897
Stationsweg,31,,,4054HA,Echteld,Neder-Betuwe,Gelderland,VBO,5.511335,51.912626
Stationsweg,2,a,,4054HB,Echteld,Neder-Betuwe,Gelderland,VBO,5.494558,51.911106
Stationsweg,2,,,4054HB,Echteld,Neder-Betuwe,Gelderland,VBO,5.507541,51.912441
Stationsweg,4,,,4054HB,Echteld,Neder-Betuwe,Gelderland,VBO,5.508602,51.912377
Stationsweg,6,,,4054HB,Echteld,Neder-Betuwe,Gelderland,VBO,5.509081,51.912349
Stationsweg,8,,,4054HB,Echteld,Neder-Betuwe,Gelderland,VBO,5.509459,51.912340
Stationsweg,14,,,4054HB,Echteld,Neder-Betuwe,Gelderland,VBO,5.511769,51.911996
Stationsweg,16,,,4054HB,Echteld,Neder-Betuwe,Gelderland,VBO,5.512888,51.911923
Het Hoogbroek,1,,,4054HC,Echteld,Neder-Betuwe,Gelderland,VBO,5.509531,51.912223
Het Hoogbroek,3,,,4054HC,Echteld,Neder-Betuwe,Gelderland,VBO,5.509502,51.912124
Het Hoogbroek,5,,,4054HC,Echteld,Neder-Betuwe,Gelderland,VBO,5.509545,51.912070
Spijkersestraat,1,a,,4054JC,Echteld,Neder-Betuwe,Gelderland,VBO,5.512134,51.902052
Spijkersestraat,1,,,4054JC,Echteld,Neder-Betuwe,Gelderland,VBO,5.512378,51.901254
Spijkersestraat,3,,,4054JC,Echteld,Neder-Betuwe,Gelderland,VBO,5.510296,51.904780
Spijkersestraat,5,,,4054JC,Echteld,Neder-Betuwe,Gelderland,VBO,5.510211,51.905841
Hogeveldseweg,2,,,4054JD,Echteld,Neder-Betuwe,Gelderland,VBO,5.508945,51.905096
Wijenburgsestraat,1,,,4054JE,Echteld,Neder-Betuwe,Gelderland,VBO,5.502341,51.907997
Wijenburgsestraat,2,,,4054JE,Echteld,Neder-Betuwe,Gelderland,VBO,5.500700,51.908403
Wijenburgsestraat,3,,,4054JE,Echteld,Neder-Betuwe,Gelderland,VBO,5.502514,51.907619
Wijenburgsestraat,4,,,4054JE,Echteld,Neder-Betuwe,Gelderland,VBO,5.500845,51.908448
Wijenburgsestraat,5,a,,4054JE,Echteld,Neder-Betuwe,Gelderland,VBO,5.504650,51.907249
Wijenburgsestraat,5,,,4054JE,Echteld,Neder-Betuwe,Gelderland,VBO,5.503734,51.907384
Wijenburgsestraat,6,,,4054JE,Echteld,Neder-Betuwe,Gelderland,VBO,5.500712,51.907522
Wijenburgsestraat,7,,,4054JE,Echteld,Neder-Betuwe,Gelderland,VBO,5.506756,51.907148
Wijenburgsestraat,8,,,4054JE,Echteld,Neder-Betuwe,Gelderland,VBO,5.502687,51.906801
Wijenburgsestraat,9,,,4054JE,Echteld,Neder-Betuwe,Gelderland,VBO,5.507469,51.907461
Wijenburgsestraat,10,,,4054JE,Echteld,Neder-Betuwe,Gelderland,VBO,5.508992,51.906210
Wijenburgsestraat,11,a,,4054JE,Echteld,Neder-Betuwe,Gelderland,VBO,5.512768,51.906234
Wijenburgsestraat,11,,,4054JE,Echteld,Neder-Betuwe,Gelderland,VBO,5.512784,51.906090
Wijenburgsestraat,13,,,4054JE,Echteld,Neder-Betuwe,Gelderland,VBO,5.514644,51.906142
Saneringsweg,1,a,,4054JK,Echteld,Neder-Betuwe,Gelderland,VBO,5.506704,51.914904
Saneringsweg,1,,,4054JK,Echteld,Neder-Betuwe,Gelderland,VBO,5.504174,51.914431
Saneringsweg,3,,,4054JK,Echteld,Neder-Betuwe,Gelderland,VBO,5.507781,51.915200
Spoorstraat,1,a,,4054MA,Echteld,Neder-Betuwe,Gelderland,VBO,5.487987,51.909772
Spoorstraat,1,b,,4054MA,Echteld,Neder-Betuwe,Gelderland,VBO,5.489750,51.909912
Spoorstraat,1,c,,4054MA,Echteld,Neder-Betuwe,Gelderland,VBO,5.491367,51.910550
Spoorstraat,1,,,4054MA,Echteld,Neder-Betuwe,Gelderland,VBO,5.487842,51.909727
Spoorstraat,2,,,4054MA,Echteld,Neder-Betuwe,Gelderland,VBO,5.492232,51.911667
Spoorstraat,3,a,,4054MA,Echteld,Neder-Betuwe,Gelderland,VBO,5.486545,51.908519
Spoorstraat,3,,,4054MA,Echteld,Neder-Betuwe,Gelderland,VBO,5.486980,51.909490
Spoorstraat,5,,,4054MA,Echteld,Neder-Betuwe,Gelderland,VBO,5.482069,51.908321
Spoorstraat,9,,,4054MA,Echteld,Neder-Betuwe,Gelderland,VBO,5.477446,51.907542
Spoorstraat,11,,,4054MA,Echteld,Neder-Betuwe,Gelderland,VBO,5.476298,51.907264
Spoorstraat,15,,,4054MA,Echteld,Neder-Betuwe,Gelderland,VBO,5.472096,51.906126
Biezenburgseweg,1,,,4054MB,Echteld,Neder-Betuwe,Gelderland,VBO,5.463765,51.903813
Biezenburgseweg,2,,,4054MB,Echteld,Neder-Betuwe,Gelderland,VBO,5.464174,51.904586
Verlengde Spoorstraat,1,a,,4054MC,Echteld,Neder-Betuwe,Gelderland,VBO,5.456647,51.903015
Verlengde Spoorstraat,1,,,4054MC,Echteld,Neder-Betuwe,Gelderland,VBO,5.459552,51.903825
Verlengde Spoorstraat,3,,,4054MC,Echteld,Neder-Betuwe,Gelderland,VBO,5.456286,51.902922
Verlengde Spoorstraat,5,,,4054MC,Echteld,Neder-Betuwe,Gelderland,VBO,5.456121,51.902757
Verlengde Spoorstraat,7,,,4054MC,Echteld,Neder-Betuwe,Gelderland,VBO,5.456033,51.902433
Verlengde Spoorstraat,9,,,4054MC,Echteld,Neder-Betuwe,Gelderland,VBO,5.456076,51.902362
Verlengde Spoorstraat,11,,,4054MC,Echteld,Neder-Betuwe,Gelderland,VBO,5.456120,51.902263
Verlengde Spoorstraat,13,,,4054MC,Echteld,Neder-Betuwe,Gelderland,VBO,5.456178,51.902173
Den Akker,1,,,4054MD,Echteld,Neder-Betuwe,Gelderland,VBO,5.461516,51.896462
Den Akker,2,a,,4054MD,Echteld,Neder-Betuwe,Gelderland,VBO,5.461738,51.899239
Den Akker,2,,,4054MD,Echteld,Neder-Betuwe,Gelderland,VBO,5.461767,51.899149
Den Akker,3,,,4054MD,Echteld,Neder-Betuwe,Gelderland,VBO,5.461312,51.896399
Den Akker,4,,,4054MD,Echteld,Neder-Betuwe,Gelderland,VBO,5.461737,51.898367
Den Akker,6,,,4054MD,Echteld,Neder-Betuwe,Gelderland,VBO,5.461547,51.897693
Den Akker,8,,,4054MD,Echteld,Neder-Betuwe,Gelderland,VBO,5.461342,51.897136
Prins Willemsweg,2,,,4054ME,Echteld,Neder-Betuwe,Gelderland,VBO,5.466884,51.892297
Prins Willemsweg,3,,,4054ME,Echteld,Neder-Betuwe,Gelderland,VBO,5.477255,51.891624
Prins Willemsweg,5,,,4054ME,Echteld,Neder-Betuwe,Gelderland,VBO,5.477226,51.891678
Prins Willemsweg,7,,,4054ME,Echteld,Neder-Betuwe,Gelderland,VBO,5.477182,51.891741
Prins Willemsweg,9,,,4054ME,Echteld,Neder-Betuwe,Gelderland,VBO,5.477562,51.892206
Waalbandijk,4,,,4054MG,Echteld,Neder-Betuwe,Gelderland,VBO,5.504312,51.900499
Waalbandijk,10,,,4054MG,Echteld,Neder-Betuwe,Gelderland,VBO,5.500636,51.900556
Waalbandijk,40,,,4054MG,Echteld,Neder-Betuwe,Gelderland,VBO,5.491320,51.899450
Waalbandijk,66,,,4054MG,Echteld,Neder-Betuwe,Gelderland,VBO,5.475355,51.900506
Waalbandijk,68,,,4054MG,Echteld,Neder-Betuwe,Gelderland,VBO,5.474715,51.900498
Waalbandijk,78,,,4054MG,Echteld,Neder-Betuwe,Gelderland,VBO,5.469889,51.898991
Waalbandijk,82,,,4054MG,Echteld,Neder-Betuwe,Gelderland,VBO,5.467418,51.898867
Waalbandijk,84,,,4054MG,Echteld,Neder-Betuwe,Gelderland,VBO,5.465513,51.897736
Remkettingweg,1,,,4054MH,Echteld,Neder-Betuwe,Gelderland,VBO,5.486725,51.904164
Remkettingweg,2,a,,4054MH,Echteld,Neder-Betuwe,Gelderland,VBO,5.488236,51.904118
Remkettingweg,2,b,,4054MH,Echteld,Neder-Betuwe,Gelderland,VBO,5.476244,51.902339
Remkettingweg,2,,,4054MH,Echteld,Neder-Betuwe,Gelderland,VBO,5.473265,51.901775
Remkettingweg,3,,,4054MH,Echteld,Neder-Betuwe,Gelderland,VBO,5.482697,51.902990
Remkettingweg,4,,,4054MH,Echteld,Neder-Betuwe,Gelderland,VBO,5.469645,51.901076
Remkettingweg,5,,,4054MH,Echteld,Neder-Betuwe,Gelderland,VBO,5.481853,51.902137
Remkettingweg,7,,,4054MH,Echteld,Neder-Betuwe,Gelderland,VBO,5.481548,51.902092
Remkettingweg,15,,,4054MH,Echteld,Neder-Betuwe,Gelderland,VBO,5.477376,51.901179
Remkettingweg,17,a,,4054MH,Echteld,Neder-Betuwe,Gelderland,VBO,5.477609,51.901592
Remkettingweg,17,,,4054MH,Echteld,Neder-Betuwe,Gelderland,VBO,5.477587,51.901484
Remkettingweg,19,,,4054MH,Echteld,Neder-Betuwe,Gelderland,VBO,5.476430,51.900766
Remkettingweg,21,a,,4054MH,Echteld,Neder-Betuwe,Gelderland,VBO,5.474489,51.901683
Remkettingweg,21,,,4054MH,Echteld,Neder-Betuwe,Gelderland,VBO,5.473901,51.900345
Remkettingweg,23,,,4054MH,Echteld,Neder-Betuwe,Gelderland,VBO,5.473393,51.900463
Remkettingweg,25,,,4054MH,Echteld,Neder-Betuwe,Gelderland,VBO,5.472882,51.901226
Remkettingweg,29,,,4054MH,Echteld,Neder-Betuwe,Gelderland,VBO,5.470382,51.900735
Remkettingweg,31,,,4054MH,Echteld,Neder-Betuwe,Gelderland,VBO,5.467396,51.900044
Medensteinsestraat,10,,,4054MJ,Echteld,Neder-Betuwe,Gelderland,VBO,5.488274,51.901655
Medensteinsestraat,12,,,4054MJ,Echteld,Neder-Betuwe,Gelderland,VBO,5.488260,51.901790
Medensteinsestraat,14,,,4054MJ,Echteld,Neder-Betuwe,Gelderland,VBO,5.488450,51.902428
Medensteinsestraat,18,,,4054MJ,Echteld,Neder-Betuwe,Gelderland,VBO,5.487911,51.901745
Medensteinsestraat,20,,,4054MJ,Echteld,Neder-Betuwe,Gelderland,VBO,5.487723,51.902132
Medensteinsestraat,22,,,4054MJ,Echteld,Neder-Betuwe,Gelderland,VBO,5.486720,51.902043
Medensteinsestraat,24,,,4054MJ,Echteld,Neder-Betuwe,Gelderland,VBO,5.484905,51.902602
Ooisestraat,1,,,4054ML,Echteld,Neder-Betuwe,Gelderland,VBO,5.499292,51.908997
Ooisestraat,5,,,4054ML,Echteld,Neder-Betuwe,Gelderland,VBO,5.495724,51.905909
Ooisestraat,7,a,,4054ML,Echteld,Neder-Betuwe,Gelderland,VBO,5.493246,51.902603
Ooisestraat,7,,,4054ML,Echteld,Neder-Betuwe,Gelderland,VBO,5.493989,51.903582
Ooisestraat,9,,,4054ML,Echteld,Neder-Betuwe,Gelderland,VBO,5.492997,51.901786
Ooisestraat,11,,,4054ML,Echteld,Neder-Betuwe,Gelderland,VBO,5.492778,51.901561
Ooisestraat,13,,,4054ML,Echteld,Neder-Betuwe,Gelderland,VBO,5.492934,51.899925
Ooisestraat,2,,,4054MN,Echteld,Neder-Betuwe,Gelderland,VBO,5.498580,51.909124
Ooisestraat,4,,,4054MN,Echteld,Neder-Betuwe,Gelderland,VBO,5.497474,51.908433
Ooisestraat,6,,,4054MN,Echteld,Neder-Betuwe,Gelderland,VBO,5.497371,51.908163
Ooisestraat,8,,,4054MN,Echteld,Neder-Betuwe,Gelderland,VBO,5.497313,51.908127
Ooisestraat,10,,,4054MN,Echteld,Neder-Betuwe,Gelderland,VBO,5.497197,51.908038
Ooisestraat,16,,,4054MN,Echteld,Neder-Betuwe,Gelderland,VBO,5.496090,51.907311
Ooisestraat,18,,,4054MN,Echteld,Neder-Betuwe,Gelderland,VBO,5.495974,51.907077
Ooisestraat,20,,,4054MN,Echteld,Neder-Betuwe,Gelderland,VBO,5.495697,51.906961
Ooisestraat,22,,,4054MN,Echteld,Neder-Betuwe,Gelderland,VBO,5.495566,51.906736
Ooisestraat,26,,,4054MN,Echteld,Neder-Betuwe,Gelderland,VBO,5.495216,51.906314
Ooisestraat,28,,,4054MN,Echteld,Neder-Betuwe,Gelderland,VBO,5.492607,51.902874
Ooisestraat,30,,,4054MN,Echteld,Neder-Betuwe,Gelderland,VBO,5.491353,51.900978
Ooisestraat,32,,,4054MN,Echteld,Neder-Betuwe,Gelderland,VBO,5.491105,51.900475
Hogeveldseweg,1,a,,4054MP,Echteld,Neder-Betuwe,Gelderland,VBO,5.500263,51.902246
Hogeveldseweg,1,,,4054MP,Echteld,Neder-Betuwe,Gelderland,VBO,5.500714,51.902381
Pijpstraat,1,,,4054MR,Echteld,Neder-Betuwe,Gelderland,VBO,5.485390,51.905181
Pijpstraat,2,,,4054MR,Echteld,Neder-Betuwe,Gelderland,VBO,5.487782,51.909134
Pijpstraat,4,,,4054MR,Echteld,Neder-Betuwe,Gelderland,VBO,5.487709,51.909053
Pijpstraat,6,,,4054MR,Echteld,Neder-Betuwe,Gelderland,VBO,5.487651,51.908990
Pijpstraat,8,,,4054MR,Echteld,Neder-Betuwe,Gelderland,VBO,5.487593,51.908891
Pijpstraat,10,,,4054MR,Echteld,Neder-Betuwe,Gelderland,VBO,5.487505,51.908783
Pijpstraat,12,,,4054MR,Echteld,Neder-Betuwe,Gelderland,VBO,5.487447,51.908685
Pijpstraat,14,,,4054MR,Echteld,Neder-Betuwe,Gelderland,VBO,5.487374,51.908613
Pijpstraat,16,,,4054MR,Echteld,Neder-Betuwe,Gelderland,VBO,5.487316,51.908523
Pijpstraat,18,,,4054MR,Echteld,Neder-Betuwe,Gelderland,VBO,5.486763,51.908209
Pijpstraat,20,,,4054MR,Echteld,Neder-Betuwe,Gelderland,VBO,5.486195,51.907526
Achterstraat,1,a,,4054MS,Echteld,Neder-Betuwe,Gelderland,VBO,5.497983,51.908720
Achterstraat,1,b,,4054MS,Echteld,Neder-Betuwe,Gelderland,VBO,5.497954,51.908756
Achterstraat,1,,,4054MS,Echteld,Neder-Betuwe,Gelderland,VBO,5.498027,51.908684
Achterstraat,3,,,4054MS,Echteld,Neder-Betuwe,Gelderland,VBO,5.497823,51.908828
Achterstraat,5,,,4054MS,Echteld,Neder-Betuwe,Gelderland,VBO,5.497751,51.908864
Achterstraat,7,,,4054MS,Echteld,Neder-Betuwe,Gelderland,VBO,5.497620,51.908954
Achterstraat,9,,,4054MS,Echteld,Neder-Betuwe,Gelderland,VBO,5.497548,51.908990
Achterstraat,11,,,4054MS,Echteld,Neder-Betuwe,Gelderland,VBO,5.497427,51.909061
Achterstraat,13,,,4054MS,Echteld,Neder-Betuwe,Gelderland,VBO,5.497330,51.909089
Achterstraat,15,,,4054MS,Echteld,Neder-Betuwe,Gelderland,VBO,5.497199,51.909152
Achterstraat,17,,,4054MS,Echteld,Neder-Betuwe,Gelderland,VBO,5.497112,51.909188
Achterstraat,19,,,4054MS,Echteld,Neder-Betuwe,Gelderland,VBO,5.496923,51.909197
Achterstraat,21,,,4054MS,Echteld,Neder-Betuwe,Gelderland,VBO,5.496531,51.909297
Achterstraat,23,,,4054MS,Echteld,Neder-Betuwe,Gelderland,VBO,5.496386,51.909333
Achterstraat,25,,,4054MS,Echteld,Neder-Betuwe,Gelderland,VBO,5.496168,51.909378
Achterstraat,27,a,,4054MS,Echteld,Neder-Betuwe,Gelderland,VBO,5.495964,51.909411
Achterstraat,27,,,4054MS,Echteld,Neder-Betuwe,Gelderland,VBO,5.495474,51.909564
Achterstraat,31,,,4054MS,Echteld,Neder-Betuwe,Gelderland,VBO,5.495210,51.909684
Achterstraat,33,,,4054MS,Echteld,Neder-Betuwe,Gelderland,VBO,5.494817,51.909757
Achterstraat,37,,,4054MS,Echteld,Neder-Betuwe,Gelderland,VBO,5.494615,51.910089
Achterstraat,39,,,4054MS,Echteld,Neder-Betuwe,Gelderland,VBO,5.494535,51.910140
Achterstraat,41,,,4054MS,Echteld,Neder-Betuwe,Gelderland,VBO,5.494443,51.910180
Achterstraat,43,,,4054MS,Echteld,Neder-Betuwe,Gelderland,VBO,5.494339,51.910216
Achterstraat,47,a,,4054MS,Echteld,Neder-Betuwe,Gelderland,VBO,5.493710,51.910184
Achterstraat,47,,,4054MS,Echteld,Neder-Betuwe,Gelderland,VBO,5.493976,51.910351
Achterstraat,49,,,4054MS,Echteld,Neder-Betuwe,Gelderland,VBO,5.493562,51.910550
Achterstraat,51,,,4054MS,Echteld,Neder-Betuwe,Gelderland,VBO,5.493192,51.910684
Achterstraat,53,,,4054MS,Echteld,Neder-Betuwe,Gelderland,VBO,5.493120,51.910819
Achterstraat,55,a,,4054MS,Echteld,Neder-Betuwe,Gelderland,VBO,5.492305,51.910480
Achterstraat,55,,,4054MS,Echteld,Neder-Betuwe,Gelderland,VBO,5.492654,51.910747
Achterstraat,57,a,,4054MS,Echteld,Neder-Betuwe,Gelderland,VBO,5.491963,51.910038
Achterstraat,57,b,,4054MS,Echteld,Neder-Betuwe,Gelderland,VBO,5.491899,51.910143
Achterstraat,57,c,,4054MS,Echteld,Neder-Betuwe,Gelderland,VBO,5.491646,51.910081
Achterstraat,57,d,,4054MS,Echteld,Neder-Betuwe,Gelderland,VBO,5.491743,51.910263
Achterstraat,57,,,4054MS,Echteld,Neder-Betuwe,Gelderland,VBO,5.492097,51.909971
Achterstraat,2,a,,4054MT,Echteld,Neder-Betuwe,Gelderland,VBO,5.498144,51.909097
Achterstraat,2,,,4054MT,Echteld,Neder-Betuwe,Gelderland,VBO,5.497941,51.909188
Achterstraat,4,a,,4054MT,Echteld,Neder-Betuwe,Gelderland,VBO,5.497665,51.909323
Achterstraat,4,,,4054MT,Echteld,Neder-Betuwe,Gelderland,VBO,5.497824,51.909233
Achterstraat,6,,,4054MT,Echteld,Neder-Betuwe,Gelderland,VBO,5.497563,51.909441
Achterstraat,8,,,4054MT,Echteld,Neder-Betuwe,Gelderland,VBO,5.497012,51.909593
Achterstraat,10,,,4054MT,Echteld,Neder-Betuwe,Gelderland,VBO,5.496677,51.909674
Achterstraat,12,,,4054MT,Echteld,Neder-Betuwe,Gelderland,VBO,5.496590,51.909719
Achterstraat,14,,,4054MT,Echteld,Neder-Betuwe,Gelderland,VBO,5.496489,51.909746
Achterstraat,16,,,4054MT,Echteld,Neder-Betuwe,Gelderland,VBO,5.496329,51.909800
Achterstraat,18,,,4054MT,Echteld,Neder-Betuwe,Gelderland,VBO,5.496227,51.909836
Achterstraat,20,,,4054MT,Echteld,Neder-Betuwe,Gelderland,VBO,5.495501,51.909954
Achterstraat,22,,,4054MT,Echteld,Neder-Betuwe,Gelderland,VBO,5.495414,51.909990
Achterstraat,24,,,4054MT,Echteld,Neder-Betuwe,Gelderland,VBO,5.495356,51.910035
Achterstraat,26,,,4054MT,Echteld,Neder-Betuwe,Gelderland,VBO,5.495298,51.910071
Achterstraat,28,,,4054MT,Echteld,Neder-Betuwe,Gelderland,VBO,5.494790,51.910377
Achterstraat,30,,,4054MT,Echteld,Neder-Betuwe,Gelderland,VBO,5.494616,51.910566
Achterstraat,34,,,4054MT,Echteld,Neder-Betuwe,Gelderland,VBO,5.494297,51.910719
Achterstraat,36,,,4054MT,Echteld,Neder-Betuwe,Gelderland,VBO,5.493992,51.910836
Achterstraat,38,,,4054MT,Echteld,Neder-Betuwe,Gelderland,VBO,5.493730,51.910962
Voorstraat,1,,,4054MV,Echteld,Neder-Betuwe,Gelderland,VBO,5.498624,51.909376
Voorstraat,3,,,4054MV,Echteld,Neder-Betuwe,Gelderland,VBO,5.498537,51.909430
Voorstraat,5,,,4054MV,Echteld,Neder-Betuwe,Gelderland,VBO,5.498104,51.909462
Voorstraat,7,,,4054MV,Echteld,Neder-Betuwe,Gelderland,VBO,5.498319,51.909538
Voorstraat,9,,,4054MV,Echteld,Neder-Betuwe,Gelderland,VBO,5.498261,51.909583
Voorstraat,11,,,4054MV,Echteld,Neder-Betuwe,Gelderland,VBO,5.498145,51.909628
Voorstraat,13,,,4054MV,Echteld,Neder-Betuwe,Gelderland,VBO,5.498044,51.909745
Voorstraat,15,,,4054MV,Echteld,Neder-Betuwe,Gelderland,VBO,5.497986,51.909790
Voorstraat,17,a,,4054MV,Echteld,Neder-Betuwe,Gelderland,VBO,5.497652,51.909952
Voorstraat,17,,,4054MV,Echteld,Neder-Betuwe,Gelderland,VBO,5.497811,51.909844
Voorstraat,19,,,4054MV,Echteld,Neder-Betuwe,Gelderland,VBO,5.497507,51.910267
Voorstraat,21,,,4054MV,Echteld,Neder-Betuwe,Gelderland,VBO,5.497478,51.910329
Voorstraat,23,,,4054MV,Echteld,Neder-Betuwe,Gelderland,VBO,5.497377,51.910464
Voorstraat,25,,,4054MV,Echteld,Neder-Betuwe,Gelderland,VBO,5.497348,51.910527
Voorstraat,27,,,4054MV,Echteld,Neder-Betuwe,Gelderland,VBO,5.497203,51.910653
Voorstraat,29,,,4054MV,Echteld,Neder-Betuwe,Gelderland,VBO,5.497131,51.910698
Voorstraat,31,,,4054MV,Echteld,Neder-Betuwe,Gelderland,VBO,5.496956,51.910779
Voorstraat,33,,,4054MV,Echteld,Neder-Betuwe,Gelderland,VBO,5.496869,51.910824
Voorstraat,35,,,4054MV,Echteld,Neder-Betuwe,Gelderland,VBO,5.496564,51.910915
Voorstraat,39,,,4054MV,Echteld,Neder-Betuwe,Gelderland,VBO,5.496390,51.911050
Voorstraat,41,,,4054MV,Echteld,Neder-Betuwe,Gelderland,VBO,5.496129,51.911131
Voorstraat,43,,,4054MV,Echteld,Neder-Betuwe,Gelderland,VBO,5.496057,51.911320
Voorstraat,45,,,4054MV,Echteld,Neder-Betuwe,Gelderland,VBO,5.495999,51.911364
Voorstraat,47,a,,4054MV,Echteld,Neder-Betuwe,Gelderland,VBO,5.495699,51.911323
Voorstraat,49,,,4054MV,Echteld,Neder-Betuwe,Gelderland,VBO,5.494561,51.912094
Voorstraat,51,,,4054MV,Echteld,Neder-Betuwe,Gelderland,VBO,5.492108,51.913220
Voorstraat,2,,,4054MX,Echteld,Neder-Betuwe,Gelderland,VBO,5.500179,51.909365
Voorstraat,6,,,4054MX,Echteld,Neder-Betuwe,Gelderland,VBO,5.500950,51.909544
Voorstraat,8,,,4054MX,Echteld,Neder-Betuwe,Gelderland,VBO,5.499249,51.909519
Voorstraat,10,,,4054MX,Echteld,Neder-Betuwe,Gelderland,VBO,5.498959,51.909717
Voorstraat,12,,,4054MX,Echteld,Neder-Betuwe,Gelderland,VBO,5.498494,51.909816
Voorstraat,14,,,4054MX,Echteld,Neder-Betuwe,Gelderland,VBO,5.498233,51.909960
Voorstraat,16,,,4054MX,Echteld,Neder-Betuwe,Gelderland,VBO,5.498059,51.910050
Voorstraat,18,,,4054MX,Echteld,Neder-Betuwe,Gelderland,VBO,5.497900,51.910275
Voorstraat,20,,,4054MX,Echteld,Neder-Betuwe,Gelderland,VBO,5.497856,51.910329
Voorstraat,22,,,4054MX,Echteld,Neder-Betuwe,Gelderland,VBO,5.497885,51.910365
Voorstraat,24,,,4054MX,Echteld,Neder-Betuwe,Gelderland,VBO,5.497799,51.910554
Voorstraat,30,,,4054MX,Echteld,Neder-Betuwe,Gelderland,VBO,5.493344,51.913398
Van Balverenstraat,1,,,4054MZ,Echteld,Neder-Betuwe,Gelderland,VBO,5.497390,51.909898
Van Balverenstraat,2,,,4054MZ,Echteld,Neder-Betuwe,Gelderland,VBO,5.497274,51.910114
Van Balverenstraat,3,,,4054MZ,Echteld,Neder-Betuwe,Gelderland,VBO,5.497332,51.909862
Van Balverenstraat,4,,,4054MZ,Echteld,Neder-Betuwe,Gelderland,VBO,5.497216,51.910060
Van Balverenstraat,5,,,4054MZ,Echteld,Neder-Betuwe,Gelderland,VBO,5.497274,51.909781
Van Balverenstraat,6,,,4054MZ,Echteld,Neder-Betuwe,Gelderland,VBO,5.497157,51.910022
Van Balverenstraat,8,,,4054MZ,Echteld,Neder-Betuwe,Gelderland,VBO,5.497035,51.909941
Van Balverenstraat,10,,,4054MZ,Echteld,Neder-Betuwe,Gelderland,VBO,5.496983,51.909890
Van Balverenstraat,12,,,4054MZ,Echteld,Neder-Betuwe,Gelderland,VBO,5.496910,51.909836
Wethouder van Lentstraat,1,,,4054NA,Echteld,Neder-Betuwe,Gelderland,VBO,5.496709,51.910501
Wethouder van Lentstraat,2,,,4054NA,Echteld,Neder-Betuwe,Gelderland,VBO,5.496477,51.910816
Wethouder van Lentstraat,3,a,,4054NA,Echteld,Neder-Betuwe,Gelderland,VBO,5.497084,51.910417
Wethouder van Lentstraat,3,,,4054NA,Echteld,Neder-Betuwe,Gelderland,VBO,5.496796,51.910447
Wethouder van Lentstraat,4,,,4054NA,Echteld,Neder-Betuwe,Gelderland,VBO,5.496375,51.910762
Wethouder van Lentstraat,5,,,4054NA,Echteld,Neder-Betuwe,Gelderland,VBO,5.496766,51.910330
Wethouder van Lentstraat,6,,,4054NA,Echteld,Neder-Betuwe,Gelderland,VBO,5.496316,51.910304
Wethouder van Lentstraat,7,,,4054NA,Echteld,Neder-Betuwe,Gelderland,VBO,5.496708,51.910276
Wethouder van Lentstraat,8,,,4054NA,Echteld,Neder-Betuwe,Gelderland,VBO,5.496243,51.910241
Wethouder van Lentstraat,9,,,4054NA,Echteld,Neder-Betuwe,Gelderland,VBO,5.496664,51.910231
Wethouder van Lentstraat,10,,,4054NA,Echteld,Neder-Betuwe,Gelderland,VBO,5.496185,51.910160
Wethouder van Lentstraat,11,,,4054NA,Echteld,Neder-Betuwe,Gelderland,VBO,5.496548,51.910133
Wethouder van Lentstraat,12,,,4054NA,Echteld,Neder-Betuwe,Gelderland,VBO,5.496170,51.910124
Wethouder van Lentstraat,13,,,4054NA,Echteld,Neder-Betuwe,Gelderland,VBO,5.496490,51.910088
Wethouder van Lentstraat,14,,,4054NA,Echteld,Neder-Betuwe,Gelderland,VBO,5.496041,51.910027
Wethouder van Lentstraat,15,,,4054NA,Echteld,Neder-Betuwe,Gelderland,VBO,5.496446,51.910025
Wethouder van Lentstraat,16,,,4054NA,Echteld,Neder-Betuwe,Gelderland,VBO,5.495987,51.909988
Wethouder van Lentstraat,18,,,4054NA,Echteld,Neder-Betuwe,Gelderland,VBO,5.495925,51.909936
Wethouder van Lentstraat,20,,,4054NA,Echteld,Neder-Betuwe,Gelderland,VBO,5.495865,51.909893
Wethouder van Lentstraat,22,,,4054NA,Echteld,Neder-Betuwe,Gelderland,VBO,5.495748,51.909810
Tulpstraat,1,,,4054NB,Echteld,Neder-Betuwe,Gelderland,VBO,5.496432,51.910438
Tulpstraat,2,,,4054NB,Echteld,Neder-Betuwe,Gelderland,VBO,5.496128,51.910816
Tulpstraat,3,,,4054NB,Echteld,Neder-Betuwe,Gelderland,VBO,5.496345,51.910483
Tulpstraat,4,,,4054NB,Echteld,Neder-Betuwe,Gelderland,VBO,5.496055,51.910852
Tulpstraat,5,,,4054NB,Echteld,Neder-Betuwe,Gelderland,VBO,5.496186,51.910564
Tulpstraat,6,,,4054NB,Echteld,Neder-Betuwe,Gelderland,VBO,5.495968,51.910870
Tulpstraat,7,,,4054NB,Echteld,Neder-Betuwe,Gelderland,VBO,5.496142,51.910582
Tulpstraat,8,,,4054NB,Echteld,Neder-Betuwe,Gelderland,VBO,5.495896,51.910906
Tulpstraat,9,,,4054NB,Echteld,Neder-Betuwe,Gelderland,VBO,5.496055,51.910609
Tulpstraat,11,,,4054NB,Echteld,Neder-Betuwe,Gelderland,VBO,5.495285,51.910799
Dahliastraat,1,,,4054NC,Echteld,Neder-Betuwe,Gelderland,VBO,5.495895,51.910475
Dahliastraat,2,,,4054NC,Echteld,Neder-Betuwe,Gelderland,VBO,5.495779,51.910736
Dahliastraat,3,,,4054NC,Echteld,Neder-Betuwe,Gelderland,VBO,5.495851,51.910430
Dahliastraat,4,,,4054NC,Echteld,Neder-Betuwe,Gelderland,VBO,5.495750,51.910700
Dahliastraat,5,,,4054NC,Echteld,Neder-Betuwe,Gelderland,VBO,5.495778,51.910385
Dahliastraat,6,,,4054NC,Echteld,Neder-Betuwe,Gelderland,VBO,5.495706,51.910664
Dahliastraat,7,,,4054NC,Echteld,Neder-Betuwe,Gelderland,VBO,5.495749,51.910340
Dahliastraat,8,,,4054NC,Echteld,Neder-Betuwe,Gelderland,VBO,5.495648,51.910619
Dahliastraat,9,,,4054NC,Echteld,Neder-Betuwe,Gelderland,VBO,5.495633,51.910241
Dahliastraat,10,,,4054NC,Echteld,Neder-Betuwe,Gelderland,VBO,5.495598,51.910560
Dahliastraat,11,,,4054NC,Echteld,Neder-Betuwe,Gelderland,VBO,5.495574,51.910223
Dahliastraat,12,a,,4054NC,Echteld,Neder-Betuwe,Gelderland,VBO,5.495192,51.910499
Dahliastraat,12,,,4054NC,Echteld,Neder-Betuwe,Gelderland,VBO,5.495542,51.910518
Dahliastraat,13,,,4054NC,Echteld,Neder-Betuwe,Gelderland,VBO,5.495487,51.910179
Dahliastraat,14,,,4054NC,Echteld,Neder-Betuwe,Gelderland,VBO,5.495197,51.910332
Dahliastraat,16,,,4054NC,Echteld,Neder-Betuwe,Gelderland,VBO,5.495124,51.910287
Dahliastraat,18,,,4054NC,Echteld,Neder-Betuwe,Gelderland,VBO,5.495008,51.910206
Brenksestraat,1,,,4054NE,Echteld,Neder-Betuwe,Gelderland,VBO,5.489085,51.913177
Brenksestraat,2,a,,4054NE,Echteld,Neder-Betuwe,Gelderland,VBO,5.502938,51.914072
Brenksestraat,2,,,4054NE,Echteld,Neder-Betuwe,Gelderland,VBO,5.501597,51.914033
Brenksestraat,4,a,,4054NE,Echteld,Neder-Betuwe,Gelderland,VBO,5.500259,51.914380
Brenksestraat,4,,,4054NE,Echteld,Neder-Betuwe,Gelderland,VBO,5.501453,51.914074
Brenksestraat,5,,,4054NE,Echteld,Neder-Betuwe,Gelderland,VBO,5.494478,51.913523
Brenksestraat,6,,,4054NE,Echteld,Neder-Betuwe,Gelderland,VBO,5.499596,51.914273
Brenksestraat,8,,,4054NE,Echteld,Neder-Betuwe,Gelderland,VBO,5.499479,51.914273
Brenksestraat,10,,,4054NE,Echteld,Neder-Betuwe,Gelderland,VBO,5.497662,51.914239
Brenksestraat,14,,,4054NE,Echteld,Neder-Betuwe,Gelderland,VBO,5.492676,51.913830
Brenksestraat,16,,,4054NE,Echteld,Neder-Betuwe,Gelderland,VBO,5.489987,51.913680
Meersteeg,1,,,4054NG,Echteld,Neder-Betuwe,Gelderland,VBO,5.493252,51.917677
Meersteeg,2,a,,4054NG,Echteld,Neder-Betuwe,Gelderland,VBO,5.496062,51.919741
Meersteeg,2,b,,4054NG,Echteld,Neder-Betuwe,Gelderland,VBO,5.496048,51.919670
Meersteeg,4,a,,4054NG,Echteld,Neder-Betuwe,Gelderland,VBO,5.498608,51.922238
Meersteeg,4,,,4054NG,Echteld,Neder-Betuwe,Gelderland,VBO,5.498830,51.922956
Meersteeg,7,,,4054NG,Echteld,Neder-Betuwe,Gelderland,VBO,5.494233,51.918701
Meersteeg,9,,,4054NG,Echteld,Neder-Betuwe,Gelderland,VBO,5.494389,51.918790
Meersteeg,11,,,4054NG,Echteld,Neder-Betuwe,Gelderland,VBO,5.494520,51.918934
Meersteeg,13,,,4054NG,Echteld,Neder-Betuwe,Gelderland,VBO,5.496778,51.921233
Meersteeg,15,,,4054NG,Echteld,Neder-Betuwe,Gelderland,VBO,5.496910,51.921359
Oude Broekdijk,2,,,4054NL,Echteld,Neder-Betuwe,Gelderland,VBO,5.462853,51.923057
Oude Broekdijk,4,,,4054NL,Echteld,Neder-Betuwe,Gelderland,VBO,5.465819,51.923082
Oude Broekdijk,6,,,4054NL,Echteld,Neder-Betuwe,Gelderland,VBO,5.466488,51.923046
Ommersteinsestraat,1,,,4054NN,Echteld,Neder-Betuwe,Gelderland,VBO,5.496965,51.908209
Ommersteinsestraat,3,,,4054NN,Echteld,Neder-Betuwe,Gelderland,VBO,5.496877,51.908236
Ommersteinsestraat,5,,,4054NN,Echteld,Neder-Betuwe,Gelderland,VBO,5.496790,51.908272
Ommersteinsestraat,7,,,4054NN,Echteld,Neder-Betuwe,Gelderland,VBO,5.496674,51.908326
Ommersteinsestraat,9,,,4054NN,Echteld,Neder-Betuwe,Gelderland,VBO,5.496602,51.908362
Ommersteinsestraat,11,,,4054NN,Echteld,Neder-Betuwe,Gelderland,VBO,5.496529,51.908389
Ommersteinsestraat,13,,,4054NN,Echteld,Neder-Betuwe,Gelderland,VBO,5.496471,51.908425
Ommersteinsestraat,15,,,4054NN,Echteld,Neder-Betuwe,Gelderland,VBO,5.496951,51.908460
Ommersteinsestraat,17,,,4054NN,Echteld,Neder-Betuwe,Gelderland,VBO,5.496878,51.908496
Ommersteinsestraat,19,,,4054NN,Echteld,Neder-Betuwe,Gelderland,VBO,5.496805,51.908532
Ommersteinsestraat,21,,,4054NN,Echteld,Neder-Betuwe,Gelderland,VBO,5.496704,51.908568
Ommersteinsestraat,23,,,4054NN,Echteld,Neder-Betuwe,Gelderland,VBO,5.496399,51.908731
Ommersteinsestraat,25,,,4054NN,Echteld,Neder-Betuwe,Gelderland,VBO,5.496370,51.908695
Ommersteinsestraat,27,,,4054NN,Echteld,Neder-Betuwe,Gelderland,VBO,5.496312,51.908641
Ommersteinsestraat,29,,,4054NN,Echteld,Neder-Betuwe,Gelderland,VBO,5.496224,51.908587
Ommersteinsestraat,31,,,4054NN,Echteld,Neder-Betuwe,Gelderland,VBO,5.496152,51.908542
Ommersteinsestraat,33,,,4054NN,Echteld,Neder-Betuwe,Gelderland,VBO,5.496108,51.908497
Ommersteinsestraat,35,,,4054NN,Echteld,Neder-Betuwe,Gelderland,VBO,5.496093,51.908470
Ommersteinsestraat,37,,,4054NN,Echteld,Neder-Betuwe,Gelderland,VBO,5.496064,51.908434
Ommersteinsestraat,2,,,4054NP,Echteld,Neder-Betuwe,Gelderland,VBO,5.497256,51.908694
Ommersteinsestraat,4,,,4054NP,Echteld,Neder-Betuwe,Gelderland,VBO,5.497184,51.908712
Ommersteinsestraat,6,,,4054NP,Echteld,Neder-Betuwe,Gelderland,VBO,5.497126,51.908739
Ommersteinsestraat,8,,,4054NP,Echteld,Neder-Betuwe,Gelderland,VBO,5.497068,51.908766
Ommersteinsestraat,10,,,4054NP,Echteld,Neder-Betuwe,Gelderland,VBO,5.496676,51.908883
Ommersteinsestraat,12,,,4054NP,Echteld,Neder-Betuwe,Gelderland,VBO,5.496632,51.908901
Ommersteinsestraat,14,,,4054NP,Echteld,Neder-Betuwe,Gelderland,VBO,5.496574,51.908937
Ommersteinsestraat,16,,,4054NP,Echteld,Neder-Betuwe,Gelderland,VBO,5.496516,51.908964
Ommersteinsestraat,18,,,4054NP,Echteld,Neder-Betuwe,Gelderland,VBO,5.496371,51.909045
Ommersteinsestraat,20,,,4054NP,Echteld,Neder-Betuwe,Gelderland,VBO,5.496269,51.909081
Ommersteinsestraat,22,,,4054NP,Echteld,Neder-Betuwe,Gelderland,VBO,5.496065,51.908884
Ommersteinsestraat,24,,,4054NP,Echteld,Neder-Betuwe,Gelderland,VBO,5.496021,51.908812
Ommersteinsestraat,26,,,4054NP,Echteld,Neder-Betuwe,Gelderland,VBO,5.495832,51.908641
Ommersteinsestraat,28,,,4054NP,Echteld,Neder-Betuwe,Gelderland,VBO,5.495759,51.908578
Hoofakker,1,,,4054NT,Echteld,Neder-Betuwe,Gelderland,VBO,5.494860,51.909406
Hoofakker,2,,,4054NT,Echteld,Neder-Betuwe,Gelderland,VBO,5.494295,51.909982
Hoofakker,3,,,4054NT,Echteld,Neder-Betuwe,Gelderland,VBO,5.495848,51.909171
Hoofakker,4,,,4054NT,Echteld,Neder-Betuwe,Gelderland,VBO,5.494251,51.909937
Hoofakker,6,,,4054NT,Echteld,Neder-Betuwe,Gelderland,VBO,5.494135,51.909865
Hoofakker,8,,,4054NT,Echteld,Neder-Betuwe,Gelderland,VBO,5.494091,51.909820
Hoofakker,10,,,4054NT,Echteld,Neder-Betuwe,Gelderland,VBO,5.493989,51.909730
Hoofakker,12,,,4054NT,Echteld,Neder-Betuwe,Gelderland,VBO,5.493945,51.909695
Hoofakker,14,,,4054NT,Echteld,Neder-Betuwe,Gelderland,VBO,5.493858,51.909560
Hoofakker,18,,,4054NT,Echteld,Neder-Betuwe,Gelderland,VBO,5.494220,51.909245
Hoofakker,22,,,4054NT,Echteld,Neder-Betuwe,Gelderland,VBO,5.494947,51.909029
Kerkeland,1,,,4054NV,Echteld,Neder-Betuwe,Gelderland,VBO,5.494671,51.909146
Kerkeland,3,,,4054NV,Echteld,Neder-Betuwe,Gelderland,VBO,5.494627,51.909101
Kerkeland,4,,,4054NV,Echteld,Neder-Betuwe,Gelderland,VBO,5.494129,51.909079
Kerkeland,5,,,4054NV,Echteld,Neder-Betuwe,Gelderland,VBO,5.494540,51.909029
Kerkeland,6,,,4054NV,Echteld,Neder-Betuwe,Gelderland,VBO,5.494070,51.909024
Kerkeland,7,,,4054NV,Echteld,Neder-Betuwe,Gelderland,VBO,5.494496,51.908984
Kerkeland,8,,,4054NV,Echteld,Neder-Betuwe,Gelderland,VBO,5.494018,51.908975
Kerkeland,9,,,4054NV,Echteld,Neder-Betuwe,Gelderland,VBO,5.494452,51.908894
Kerkeland,10,,,4054NV,Echteld,Neder-Betuwe,Gelderland,VBO,5.493959,51.908922
Kerkeland,11,,,4054NV,Echteld,Neder-Betuwe,Gelderland,VBO,5.494408,51.908849
Kerkeland,12,,,4054NV,Echteld,Neder-Betuwe,Gelderland,VBO,5.493609,51.908697
Kerkeland,13,,,4054NV,Echteld,Neder-Betuwe,Gelderland,VBO,5.494219,51.908733
Kerkeland,14,,,4054NV,Echteld,Neder-Betuwe,Gelderland,VBO,5.493754,51.908607
Kerkeland,15,,,4054NV,Echteld,Neder-Betuwe,Gelderland,VBO,5.494292,51.908706
Kerkeland,16,,,4054NV,Echteld,Neder-Betuwe,Gelderland,VBO,5.493914,51.908526
Kerkeland,17,,,4054NV,Echteld,Neder-Betuwe,Gelderland,VBO,5.494422,51.908643
Kerkeland,18,,,4054NV,Echteld,Neder-Betuwe,Gelderland,VBO,5.494044,51.908445
Kerkeland,19,,,4054NV,Echteld,Neder-Betuwe,Gelderland,VBO,5.494510,51.908606
Kerkeland,20,,,4054NV,Echteld,Neder-Betuwe,Gelderland,VBO,5.494117,51.908418
Kerkeland,21,,,4054NV,Echteld,Neder-Betuwe,Gelderland,VBO,5.494669,51.908561
Kerkeland,22,,,4054NV,Echteld,Neder-Betuwe,Gelderland,VBO,5.494291,51.908337
Kerkeland,23,,,4054NV,Echteld,Neder-Betuwe,Gelderland,VBO,5.494757,51.908714
Kerkeland,24,,,4054NV,Echteld,Neder-Betuwe,Gelderland,VBO,5.494668,51.908175
Kerkeland,25,,,4054NV,Echteld,Neder-Betuwe,Gelderland,VBO,5.494815,51.908750
Kerkeland,26,,,4054NV,Echteld,Neder-Betuwe,Gelderland,VBO,5.494814,51.908256
Kerkeland,27,,,4054NV,Echteld,Neder-Betuwe,Gelderland,VBO,5.494888,51.908867
Kerkeland,28,,,4054NV,Echteld,Neder-Betuwe,Gelderland,VBO,5.494858,51.908301
Kerkeland,29,,,4054NV,Echteld,Neder-Betuwe,Gelderland,VBO,5.495150,51.908974
Kerkeland,30,,,4054NV,Echteld,Neder-Betuwe,Gelderland,VBO,5.494989,51.908372
Kerkeland,32,,,4054NV,Echteld,Neder-Betuwe,Gelderland,VBO,5.495032,51.908417
Kerkeland,34,,,4054NV,Echteld,Neder-Betuwe,Gelderland,VBO,5.495105,51.908507
Kerkeland,36,,,4054NV,Echteld,Neder-Betuwe,Gelderland,VBO,5.495163,51.908552
Kerkeland,38,,,4054NV,Echteld,Neder-Betuwe,Gelderland,VBO,5.495251,51.908642
Kerkeland,40,,,4054NV,Echteld,Neder-Betuwe,Gelderland,VBO,5.495295,51.908687
Kerkeland,42,,,4054NV,Echteld,Neder-Betuwe,Gelderland,VBO,5.495411,51.908794
Kerkeland,44,,,4054NV,Echteld,Neder-Betuwe,Gelderland,VBO,5.495586,51.908938
Parklaan,1,,,4054NW,Echteld,Neder-Betuwe,Gelderland,VBO,5.485965,51.919610
Echteldse Singel,12,,,4054NX,Echteld,Neder-Betuwe,Gelderland,VBO,5.491304,51.923943
Echteldse Singel,14,,,4054NX,Echteld,Neder-Betuwe,Gelderland,VBO,5.491188,51.923934
Echteldse Singel,16,,,4054NX,Echteld,Neder-Betuwe,Gelderland,VBO,5.490985,51.923935
Echteldse Singel,18,,,4054NX,Echteld,Neder-Betuwe,Gelderland,VBO,5.490781,51.923890
Echteldse Singel,20,,,4054NX,Echteld,Neder-Betuwe,Gelderland,VBO,5.490563,51.923890
Echteldse Singel,22,,,4054NX,Echteld,Neder-Betuwe,Gelderland,VBO,5.490301,51.923845
Echteldse Singel,24,,,4054NX,Echteld,Neder-Betuwe,Gelderland,VBO,5.490156,51.923845
Echteldse Singel,26,,,4054NX,Echteld,Neder-Betuwe,Gelderland,VBO,5.489938,51.923810
Echteldse Singel,28,,,4054NX,Echteld,Neder-Betuwe,Gelderland,VBO,5.489676,51.923747
Echteldse Singel,30,,,4054NX,Echteld,Neder-Betuwe,Gelderland,VBO,5.489675,51.923594
Echteldse Singel,34,,,4054NX,Echteld,Neder-Betuwe,Gelderland,VBO,5.490228,51.923612
Betuwe Singel,49,,,4054NZ,Echteld,Neder-Betuwe,Gelderland,VBO,5.491407,51.924285
Betuwe Singel,51,,,4054NZ,Echteld,Neder-Betuwe,Gelderland,VBO,5.491291,51.924276
Betuwe Singel,52,,,4054NZ,Echteld,Neder-Betuwe,Gelderland,VBO,5.491117,51.924501
Betuwe Singel,53,,,4054NZ,Echteld,Neder-Betuwe,Gelderland,VBO,5.491073,51.924258
Betuwe Singel,54,,,4054NZ,Echteld,Neder-Betuwe,Gelderland,VBO,5.490884,51.924474
Betuwe Singel,55,,,4054NZ,Echteld,Neder-Betuwe,Gelderland,VBO,5.490840,51.924231
Betuwe Singel,56,,,4054NZ,Echteld,Neder-Betuwe,Gelderland,VBO,5.490768,51.924483
Betuwe Singel,57,,,4054NZ,Echteld,Neder-Betuwe,Gelderland,VBO,5.490607,51.924205
Betuwe Singel,58,,,4054NZ,Echteld,Neder-Betuwe,Gelderland,VBO,5.490579,51.924456
Betuwe Singel,59,,,4054NZ,Echteld,Neder-Betuwe,Gelderland,VBO,5.490360,51.924187
Betuwe Singel,60,,,4054NZ,Echteld,Neder-Betuwe,Gelderland,VBO,5.490331,51.924412
Betuwe Singel,61,,,4054NZ,Echteld,Neder-Betuwe,Gelderland,VBO,5.490113,51.924160
Betuwe Singel,62,,,4054NZ,Echteld,Neder-Betuwe,Gelderland,VBO,5.490084,51.924385
Betuwe Singel,63,,,4054NZ,Echteld,Neder-Betuwe,Gelderland,VBO,5.490011,51.924142
Betuwe Singel,64,,,4054NZ,Echteld,Neder-Betuwe,Gelderland,VBO,5.489823,51.924367
Betuwe Singel,65,,,4054NZ,Echteld,Neder-Betuwe,Gelderland,VBO,5.489778,51.924142
Betuwe Singel,66,,,4054NZ,Echteld,Neder-Betuwe,Gelderland,VBO,5.489590,51.924367
Betuwe Singel,67,,,4054NZ,Echteld,Neder-Betuwe,Gelderland,VBO,5.489502,51.924071
Betuwe Singel,69,,,4054NZ,Echteld,Neder-Betuwe,Gelderland,VBO,5.489284,51.924017
Betuwe Singel,71,,,4054NZ,Echteld,Neder-Betuwe,Gelderland,VBO,5.489037,51.923945
Betuwe Singel,74,,,4054NZ,Echteld,Neder-Betuwe,Gelderland,VBO,5.488741,51.924124
Betuwe Singel,76,,,4054NZ,Echteld,Neder-Betuwe,Gelderland,VBO,5.488775,51.923964
