openbareruimtenaam,huisnummer,huisletter,huisnummertoevoeging,postcode,woonplaatsnaam,gemeentenaam,provincienaam,typeadresseerbaarobject,longitude,latitude
Dingshof,2,,,4194AC,Meteren,Geldermalsen,Gelderland,VBO,5.289829,51.869491
Dingshof,4,,,4194AC,Meteren,Geldermalsen,Gelderland,VBO,5.289854,51.869536
Dingshof,6,,,4194AC,Meteren,Geldermalsen,Gelderland,VBO,5.289834,51.869575
Dingshof,8,,,4194AC,Meteren,Geldermalsen,Gelderland,VBO,5.289843,51.869622
Dingshof,10,,,4194AC,Meteren,Geldermalsen,Gelderland,VBO,5.289844,51.869666
Dingshof,12,,,4194AC,Meteren,Geldermalsen,Gelderland,VBO,5.289844,51.869711
Dingshof,14,,,4194AC,Meteren,Geldermalsen,Gelderland,VBO,5.289842,51.869753
Dingshof,16,,,4194AC,Meteren,Geldermalsen,Gelderland,VBO,5.289843,51.869798
Josinahof,1,,,4194AD,Meteren,Geldermalsen,Gelderland,VBO,5.290504,51.869483
Josinahof,2,,,4194AD,Meteren,Geldermalsen,Gelderland,VBO,5.290936,51.869476
Josinahof,3,,,4194AD,Meteren,Geldermalsen,Gelderland,VBO,5.290493,51.869525
Josinahof,4,,,4194AD,Meteren,Geldermalsen,Gelderland,VBO,5.290939,51.869526
Josinahof,5,,,4194AD,Meteren,Geldermalsen,Gelderland,VBO,5.290495,51.869568
Josinahof,6,,,4194AD,Meteren,Geldermalsen,Gelderland,VBO,5.290934,51.869569
Josinahof,7,,,4194AD,Meteren,Geldermalsen,Gelderland,VBO,5.290493,51.869602
Josinahof,8,,,4194AD,Meteren,Geldermalsen,Gelderland,VBO,5.290933,51.869616
Josinahof,9,,,4194AD,Meteren,Geldermalsen,Gelderland,VBO,5.290489,51.869651
Josinahof,10,,,4194AD,Meteren,Geldermalsen,Gelderland,VBO,5.290931,51.869656
Josinahof,11,,,4194AD,Meteren,Geldermalsen,Gelderland,VBO,5.290482,51.869696
Josinahof,12,,,4194AD,Meteren,Geldermalsen,Gelderland,VBO,5.290937,51.869698
Josinahof,13,,,4194AD,Meteren,Geldermalsen,Gelderland,VBO,5.290479,51.869746
Josinahof,14,,,4194AD,Meteren,Geldermalsen,Gelderland,VBO,5.290936,51.869743
Josinahof,15,,,4194AD,Meteren,Geldermalsen,Gelderland,VBO,5.290467,51.869782
Josinahof,16,,,4194AD,Meteren,Geldermalsen,Gelderland,VBO,5.290942,51.869784
Dorsvlegel,2,,,4194AE,Meteren,Geldermalsen,Gelderland,VBO,5.291398,51.869977
Dorsvlegel,4,,,4194AE,Meteren,Geldermalsen,Gelderland,VBO,5.291324,51.869981
Dorsvlegel,6,,,4194AE,Meteren,Geldermalsen,Gelderland,VBO,5.291246,51.869976
Dorsvlegel,8,,,4194AE,Meteren,Geldermalsen,Gelderland,VBO,5.291165,51.869980
Dorsvlegel,10,,,4194AE,Meteren,Geldermalsen,Gelderland,VBO,5.291086,51.869979
Kuyckshof,1,,,4194AG,Meteren,Geldermalsen,Gelderland,VBO,5.291694,51.869480
Kuyckshof,3,,,4194AG,Meteren,Geldermalsen,Gelderland,VBO,5.291696,51.869520
Kuyckshof,5,,,4194AG,Meteren,Geldermalsen,Gelderland,VBO,5.291696,51.869562
Kuyckshof,7,,,4194AG,Meteren,Geldermalsen,Gelderland,VBO,5.291698,51.869605
Kuyckshof,9,,,4194AG,Meteren,Geldermalsen,Gelderland,VBO,5.291700,51.869649
Kuyckshof,11,,,4194AG,Meteren,Geldermalsen,Gelderland,VBO,5.291704,51.869688
Kuyckshof,13,,,4194AG,Meteren,Geldermalsen,Gelderland,VBO,5.291704,51.869733
Kuyckshof,15,,,4194AG,Meteren,Geldermalsen,Gelderland,VBO,5.291705,51.869768
Kuyckshof,17,,,4194AG,Meteren,Geldermalsen,Gelderland,VBO,5.291725,51.869977
Kuyckshof,19,,,4194AG,Meteren,Geldermalsen,Gelderland,VBO,5.291717,51.870017
Kuyckshof,21,,,4194AG,Meteren,Geldermalsen,Gelderland,VBO,5.291717,51.870069
Kuyckshof,22,,,4194AG,Meteren,Geldermalsen,Gelderland,VBO,5.292148,51.870214
Kuyckshof,23,,,4194AG,Meteren,Geldermalsen,Gelderland,VBO,5.291711,51.870124
Kuyckshof,24,,,4194AG,Meteren,Geldermalsen,Gelderland,VBO,5.292154,51.870261
Kuyckshof,26,,,4194AG,Meteren,Geldermalsen,Gelderland,VBO,5.292156,51.870298
Kuyckshof,28,,,4194AG,Meteren,Geldermalsen,Gelderland,VBO,5.292156,51.870343
Kuyckshof,30,,,4194AG,Meteren,Geldermalsen,Gelderland,VBO,5.292164,51.870383
Kuyckshof,32,,,4194AG,Meteren,Geldermalsen,Gelderland,VBO,5.292156,51.870429
Kuyckshof,34,,,4194AG,Meteren,Geldermalsen,Gelderland,VBO,5.292156,51.870476
Wikke,1,,,4194AH,Meteren,Geldermalsen,Gelderland,VBO,5.292722,51.870477
Wikke,3,,,4194AH,Meteren,Geldermalsen,Gelderland,VBO,5.291734,51.870446
Wikke,4,,,4194AH,Meteren,Geldermalsen,Gelderland,VBO,5.292569,51.870687
Wikke,5,,,4194AH,Meteren,Geldermalsen,Gelderland,VBO,5.291628,51.870449
Wikke,6,,,4194AH,Meteren,Geldermalsen,Gelderland,VBO,5.292435,51.870686
Wikke,7,,,4194AH,Meteren,Geldermalsen,Gelderland,VBO,5.291488,51.870449
Wikke,9,,,4194AH,Meteren,Geldermalsen,Gelderland,VBO,5.291369,51.870450
Wikke,11,,,4194AH,Meteren,Geldermalsen,Gelderland,VBO,5.291241,51.870452
Wikke,13,,,4194AH,Meteren,Geldermalsen,Gelderland,VBO,5.291110,51.870452
De Bongerd,2,,,4194AJ,Meteren,Geldermalsen,Gelderland,VBO,5.291751,51.871309
De Bongerd,4,,,4194AJ,Meteren,Geldermalsen,Gelderland,VBO,5.291660,51.871314
De Bongerd,6,,,4194AJ,Meteren,Geldermalsen,Gelderland,VBO,5.291522,51.871314
De Bongerd,8,,,4194AJ,Meteren,Geldermalsen,Gelderland,VBO,5.291413,51.871322
De Bongerd,10,,,4194AJ,Meteren,Geldermalsen,Gelderland,VBO,5.291282,51.871325
De Bongerd,12,,,4194AJ,Meteren,Geldermalsen,Gelderland,VBO,5.291193,51.871307
Schagenhof,1,,,4194AL,Meteren,Geldermalsen,Gelderland,VBO,5.292682,51.870237
Schagenhof,3,,,4194AL,Meteren,Geldermalsen,Gelderland,VBO,5.292668,51.870293
Het Jaagpad,1,,,4194AN,Meteren,Geldermalsen,Gelderland,VBO,5.292567,51.871840
Het Jaagpad,3,,,4194AN,Meteren,Geldermalsen,Gelderland,VBO,5.292469,51.871840
Het Jaagpad,5,,,4194AN,Meteren,Geldermalsen,Gelderland,VBO,5.292400,51.871838
Het Jaagpad,7,,,4194AN,Meteren,Geldermalsen,Gelderland,VBO,5.292321,51.871839
Het Jaagpad,9,,,4194AN,Meteren,Geldermalsen,Gelderland,VBO,5.292241,51.871839
Het Jaagpad,11,,,4194AN,Meteren,Geldermalsen,Gelderland,VBO,5.292159,51.871839
De Vesting,10,,,4194AR,Meteren,Geldermalsen,Gelderland,VBO,5.293507,51.869983
De Vesting,12,,,4194AR,Meteren,Geldermalsen,Gelderland,VBO,5.293485,51.870040
De Vesting,14,,,4194AR,Meteren,Geldermalsen,Gelderland,VBO,5.293474,51.870092
De Vesting,16,,,4194AR,Meteren,Geldermalsen,Gelderland,VBO,5.293476,51.870129
De Vesting,18,,,4194AR,Meteren,Geldermalsen,Gelderland,VBO,5.293472,51.870174
De Vesting,20,,,4194AR,Meteren,Geldermalsen,Gelderland,VBO,5.293471,51.870233
De Vesting,22,,,4194AR,Meteren,Geldermalsen,Gelderland,VBO,5.293464,51.870286
De Vesting,24,,,4194AR,Meteren,Geldermalsen,Gelderland,VBO,5.293467,51.870321
De Vesting,26,,,4194AR,Meteren,Geldermalsen,Gelderland,VBO,5.293497,51.870564
De Vesting,28,,,4194AR,Meteren,Geldermalsen,Gelderland,VBO,5.293655,51.870564
De Vesting,30,,,4194AR,Meteren,Geldermalsen,Gelderland,VBO,5.293756,51.870563
De Vesting,32,,,4194AR,Meteren,Geldermalsen,Gelderland,VBO,5.293829,51.870558
De Vesting,34,,,4194AR,Meteren,Geldermalsen,Gelderland,VBO,5.293999,51.870530
De Vesting,36,,,4194AR,Meteren,Geldermalsen,Gelderland,VBO,5.294082,51.870525
De Vesting,38,,,4194AR,Meteren,Geldermalsen,Gelderland,VBO,5.294162,51.870527
De Vesting,40,,,4194AR,Meteren,Geldermalsen,Gelderland,VBO,5.294252,51.870526
De Vesting,42,,,4194AR,Meteren,Geldermalsen,Gelderland,VBO,5.294332,51.870530
De Vesting,44,,,4194AR,Meteren,Geldermalsen,Gelderland,VBO,5.294418,51.870525
De Vesting,46,,,4194AR,Meteren,Geldermalsen,Gelderland,VBO,5.294643,51.870554
De Vesting,48,,,4194AR,Meteren,Geldermalsen,Gelderland,VBO,5.294977,51.870536
De Vesting,50,,,4194AR,Meteren,Geldermalsen,Gelderland,VBO,5.295039,51.870533
De Vesting,52,,,4194AR,Meteren,Geldermalsen,Gelderland,VBO,5.295111,51.870536
De Vesting,54,,,4194AR,Meteren,Geldermalsen,Gelderland,VBO,5.295189,51.870535
De Vesting,56,,,4194AR,Meteren,Geldermalsen,Gelderland,VBO,5.295244,51.870531
De Vesting,58,,,4194AR,Meteren,Geldermalsen,Gelderland,VBO,5.295323,51.870530
De Vesting,60,,,4194AR,Meteren,Geldermalsen,Gelderland,VBO,5.295389,51.870528
De Vesting,62,,,4194AR,Meteren,Geldermalsen,Gelderland,VBO,5.295460,51.870526
Weergang,2,,,4194AS,Meteren,Geldermalsen,Gelderland,VBO,5.294190,51.869771
Weergang,4,,,4194AS,Meteren,Geldermalsen,Gelderland,VBO,5.294110,51.869774
Weergang,6,,,4194AS,Meteren,Geldermalsen,Gelderland,VBO,5.294044,51.869779
Weergang,8,,,4194AS,Meteren,Geldermalsen,Gelderland,VBO,5.293963,51.869780
Weergang,10,,,4194AS,Meteren,Geldermalsen,Gelderland,VBO,5.293863,51.869787
Weergang,12,,,4194AS,Meteren,Geldermalsen,Gelderland,VBO,5.293768,51.869792
Weergang,14,,,4194AS,Meteren,Geldermalsen,Gelderland,VBO,5.293693,51.869788
Weergang,16,,,4194AS,Meteren,Geldermalsen,Gelderland,VBO,5.293612,51.869789
Weergang,18,,,4194AS,Meteren,Geldermalsen,Gelderland,VBO,5.293538,51.869785
Weergang,20,,,4194AS,Meteren,Geldermalsen,Gelderland,VBO,5.293464,51.869787
Ringmuur,1,,,4194AT,Meteren,Geldermalsen,Gelderland,VBO,5.294202,51.870023
Ringmuur,2,,,4194AT,Meteren,Geldermalsen,Gelderland,VBO,5.294785,51.869977
Ringmuur,3,,,4194AT,Meteren,Geldermalsen,Gelderland,VBO,5.294412,51.870143
Ringmuur,4,,,4194AT,Meteren,Geldermalsen,Gelderland,VBO,5.294781,51.870026
Ringmuur,5,,,4194AT,Meteren,Geldermalsen,Gelderland,VBO,5.294417,51.870229
Ringmuur,6,,,4194AT,Meteren,Geldermalsen,Gelderland,VBO,5.294778,51.870069
Ringmuur,7,,,4194AT,Meteren,Geldermalsen,Gelderland,VBO,5.294420,51.870271
Ringmuur,8,,,4194AT,Meteren,Geldermalsen,Gelderland,VBO,5.294634,51.870113
Ringmuur,10,,,4194AT,Meteren,Geldermalsen,Gelderland,VBO,5.294636,51.870159
Ringmuur,12,,,4194AT,Meteren,Geldermalsen,Gelderland,VBO,5.294637,51.870211
Ringmuur,14,,,4194AT,Meteren,Geldermalsen,Gelderland,VBO,5.294638,51.870257
Ringmuur,16,,,4194AT,Meteren,Geldermalsen,Gelderland,VBO,5.294639,51.870297
Ringmuur,18,,,4194AT,Meteren,Geldermalsen,Gelderland,VBO,5.294640,51.870345
Ringmuur,20,,,4194AT,Meteren,Geldermalsen,Gelderland,VBO,5.294617,51.870396
Ringmuur,22,,,4194AT,Meteren,Geldermalsen,Gelderland,VBO,5.294619,51.870429
Ringmuur,24,,,4194AT,Meteren,Geldermalsen,Gelderland,VBO,5.294617,51.870473
Ringmuur,26,,,4194AT,Meteren,Geldermalsen,Gelderland,VBO,5.294617,51.870518
De Binnenplaats,11,,,4194AV,Meteren,Geldermalsen,Gelderland,VBO,5.294754,51.869922
De Binnenplaats,13,,,4194AV,Meteren,Geldermalsen,Gelderland,VBO,5.294847,51.869923
De Binnenplaats,15,,,4194AV,Meteren,Geldermalsen,Gelderland,VBO,5.294910,51.869926
De Binnenplaats,17,,,4194AV,Meteren,Geldermalsen,Gelderland,VBO,5.294977,51.869928
De Binnenplaats,19,,,4194AV,Meteren,Geldermalsen,Gelderland,VBO,5.295136,51.869932
De Binnenplaats,21,,,4194AV,Meteren,Geldermalsen,Gelderland,VBO,5.295203,51.869934
De Binnenplaats,23,,,4194AV,Meteren,Geldermalsen,Gelderland,VBO,5.295281,51.869939
De Binnenplaats,25,,,4194AV,Meteren,Geldermalsen,Gelderland,VBO,5.295350,51.869946
De Binnenplaats,27,,,4194AV,Meteren,Geldermalsen,Gelderland,VBO,5.295510,51.869954
Voorburcht,13,,,4194AW,Meteren,Geldermalsen,Gelderland,VBO,5.295484,51.870154
Voorburcht,15,,,4194AW,Meteren,Geldermalsen,Gelderland,VBO,5.295475,51.870206
Voorburcht,17,,,4194AW,Meteren,Geldermalsen,Gelderland,VBO,5.295467,51.870252
Voorburcht,19,,,4194AW,Meteren,Geldermalsen,Gelderland,VBO,5.295453,51.870295
Voorburcht,21,,,4194AW,Meteren,Geldermalsen,Gelderland,VBO,5.295445,51.870340
Buitenhof,1,,,4194AZ,Meteren,Geldermalsen,Gelderland,VBO,5.291905,51.871690
Buitenhof,2,,,4194AZ,Meteren,Geldermalsen,Gelderland,VBO,5.292162,51.870945
Buitenhof,3,,,4194AZ,Meteren,Geldermalsen,Gelderland,VBO,5.291907,51.871741
Buitenhof,4,,,4194AZ,Meteren,Geldermalsen,Gelderland,VBO,5.292162,51.870989
Buitenhof,5,,,4194AZ,Meteren,Geldermalsen,Gelderland,VBO,5.291916,51.871786
Buitenhof,6,,,4194AZ,Meteren,Geldermalsen,Gelderland,VBO,5.292165,51.871034
Buitenhof,7,,,4194AZ,Meteren,Geldermalsen,Gelderland,VBO,5.291918,51.871831
Buitenhof,8,,,4194AZ,Meteren,Geldermalsen,Gelderland,VBO,5.292166,51.871079
Buitenhof,9,,,4194AZ,Meteren,Geldermalsen,Gelderland,VBO,5.291924,51.871877
Buitenhof,10,,,4194AZ,Meteren,Geldermalsen,Gelderland,VBO,5.292166,51.871110
Buitenhof,11,,,4194AZ,Meteren,Geldermalsen,Gelderland,VBO,5.291911,51.871923
Buitenhof,12,,,4194AZ,Meteren,Geldermalsen,Gelderland,VBO,5.292165,51.871151
Buitenhof,14,,,4194AZ,Meteren,Geldermalsen,Gelderland,VBO,5.292160,51.871196
Buitenhof,16,,,4194AZ,Meteren,Geldermalsen,Gelderland,VBO,5.292180,51.871400
Buitenhof,18,,,4194AZ,Meteren,Geldermalsen,Gelderland,VBO,5.292178,51.871457
Buitenhof,20,,,4194AZ,Meteren,Geldermalsen,Gelderland,VBO,5.292191,51.871509
Buitenhof,22,,,4194AZ,Meteren,Geldermalsen,Gelderland,VBO,5.292165,51.871565
Buitenhof,24,,,4194AZ,Meteren,Geldermalsen,Gelderland,VBO,5.291432,51.871697
Buitenhof,26,,,4194AZ,Meteren,Geldermalsen,Gelderland,VBO,5.291461,51.871747
Buitenhof,28,,,4194AZ,Meteren,Geldermalsen,Gelderland,VBO,5.291412,51.871799
Buitenhof,30,,,4194AZ,Meteren,Geldermalsen,Gelderland,VBO,5.291431,51.871835
Buitenhof,32,,,4194AZ,Meteren,Geldermalsen,Gelderland,VBO,5.291427,51.871887
Buitenhof,34,,,4194AZ,Meteren,Geldermalsen,Gelderland,VBO,5.291437,51.871929
Blankertseweg,1,,,4194NL,Meteren,Geldermalsen,Gelderland,VBO,5.291005,51.864816
Blankertseweg,2,a,,4194NL,Meteren,Geldermalsen,Gelderland,VBO,5.292731,51.865438
Blankertseweg,2,b,,4194NL,Meteren,Geldermalsen,Gelderland,VBO,5.292545,51.865523
Blankertseweg,2,,,4194NL,Meteren,Geldermalsen,Gelderland,VBO,5.290568,51.865319
Blankertseweg,3,a,,4194NL,Meteren,Geldermalsen,Gelderland,VBO,5.291963,51.864970
Blankertseweg,3,b,,4194NL,Meteren,Geldermalsen,Gelderland,VBO,5.292413,51.865024
Blankertseweg,3,,,4194NL,Meteren,Geldermalsen,Gelderland,VBO,5.291498,51.864916
Blankertseweg,4,,,4194NL,Meteren,Geldermalsen,Gelderland,VBO,5.297014,51.865405
Blankertseweg,5,a,,4194NL,Meteren,Geldermalsen,Gelderland,VBO,5.294373,51.864945
Blankertseweg,5,b,,4194NL,Meteren,Geldermalsen,Gelderland,VBO,5.295650,51.864856
Blankertseweg,5,c,,4194NL,Meteren,Geldermalsen,Gelderland,VBO,5.296363,51.864790
Blankertseweg,5,,,4194NL,Meteren,Geldermalsen,Gelderland,VBO,5.293414,51.865007
Blankertseweg,6,b,,4194NL,Meteren,Geldermalsen,Gelderland,VBO,5.305769,51.864998
Blankertseweg,6,d,,4194NL,Meteren,Geldermalsen,Gelderland,VBO,5.306051,51.865343
Blankertseweg,6,,,4194NL,Meteren,Geldermalsen,Gelderland,VBO,5.298451,51.865613
Blankertseweg,7,,,4194NL,Meteren,Geldermalsen,Gelderland,VBO,5.297349,51.865010
Blankertseweg,8,,,4194NL,Meteren,Geldermalsen,Gelderland,VBO,5.312749,51.858603
Blankertseweg,9,,,4194NL,Meteren,Geldermalsen,Gelderland,VBO,5.298409,51.864894
Blankertseweg,11,,,4194NL,Meteren,Geldermalsen,Gelderland,VBO,5.298540,51.864849
Blankertseweg,13,,,4194NL,Meteren,Geldermalsen,Gelderland,VBO,5.303708,51.865069
Blankertseweg,15,a,,4194NL,Meteren,Geldermalsen,Gelderland,VBO,5.306889,51.863947
Blankertseweg,15,,,4194NL,Meteren,Geldermalsen,Gelderland,VBO,5.306047,51.864217
Blankertseweg,17,,,4194NL,Meteren,Geldermalsen,Gelderland,VBO,5.309141,51.862933
Blankertseweg,21,,,4194NL,Meteren,Geldermalsen,Gelderland,VBO,5.313492,51.856554
Bommelweg,2,a,,4194NM,Meteren,Geldermalsen,Gelderland,VBO,5.316496,51.857221
Bommelweg,2,b,,4194NM,Meteren,Geldermalsen,Gelderland,VBO,5.319660,51.857781
Bommelweg,2,,,4194NM,Meteren,Geldermalsen,Gelderland,VBO,5.316475,51.857192
Bommelweg,4,,,4194NM,Meteren,Geldermalsen,Gelderland,VBO,5.320458,51.858051
Bommelweg,6,a,,4194NM,Meteren,Geldermalsen,Gelderland,VBO,5.323140,51.858959
Bommelweg,6,b,,4194NM,Meteren,Geldermalsen,Gelderland,VBO,5.323297,51.859382
Bommelweg,6,,,4194NM,Meteren,Geldermalsen,Gelderland,VBO,5.321270,51.858581
Bommelweg,8,a,,4194NM,Meteren,Geldermalsen,Gelderland,VBO,5.325531,51.859170
Bommelweg,8,,,4194NM,Meteren,Geldermalsen,Gelderland,VBO,5.325467,51.859275
Bommelweg,8,,,4194NM,Meteren,Geldermalsen,Gelderland,VBO,5.325522,51.859276
Mark,42,a,,4194NN,Meteren,Geldermalsen,Gelderland,VBO,5.281855,51.857155
Mark,42,,,4194NN,Meteren,Geldermalsen,Gelderland,VBO,5.308100,51.852317
Voetakkerweg,2,a,,4194PP,Meteren,Geldermalsen,Gelderland,VBO,5.268358,51.869577
Voetakkerweg,2,b,,4194PP,Meteren,Geldermalsen,Gelderland,VBO,5.270881,51.870441
Voetakkerweg,2,,,4194PP,Meteren,Geldermalsen,Gelderland,VBO,5.269388,51.870055
Voetakkerweg,3,,,4194PP,Meteren,Geldermalsen,Gelderland,VBO,5.265906,51.869135
Voetakkerweg,4,a,,4194PP,Meteren,Geldermalsen,Gelderland,VBO,5.264221,51.869160
Voetakkerweg,4,,,4194PP,Meteren,Geldermalsen,Gelderland,VBO,5.264352,51.869142
Voetakkerweg,5,,,4194PP,Meteren,Geldermalsen,Gelderland,VBO,5.263000,51.869851
Voetakkerweg,6,a,,4194PP,Meteren,Geldermalsen,Gelderland,VBO,5.262405,51.869688
Voetakkerweg,6,,,4194PP,Meteren,Geldermalsen,Gelderland,VBO,5.263960,51.869231
Voetakkerweg,8,,,4194PP,Meteren,Geldermalsen,Gelderland,VBO,5.262056,51.869805
Voetakkerweg,9,,,4194PP,Meteren,Geldermalsen,Gelderland,VBO,5.261823,51.870218
Voetakkerweg,10,,,4194PP,Meteren,Geldermalsen,Gelderland,VBO,5.261911,51.869831
Voetakkerweg,12,,,4194PP,Meteren,Geldermalsen,Gelderland,VBO,5.261722,51.869894
Voetakkerweg,14,a,,4194PP,Meteren,Geldermalsen,Gelderland,VBO,5.260052,51.870301
Voetakkerweg,14,,,4194PP,Meteren,Geldermalsen,Gelderland,VBO,5.260588,51.870279
Voetakkerweg,16,,,4194PP,Meteren,Geldermalsen,Gelderland,VBO,5.259629,51.870503
H.J. Ganzemanstraat,1,,,4194RA,Meteren,Geldermalsen,Gelderland,VBO,5.286522,51.869855
H.J. Ganzemanstraat,3,,,4194RA,Meteren,Geldermalsen,Gelderland,VBO,5.286522,51.869927
H.J. Ganzemanstraat,5,,,4194RA,Meteren,Geldermalsen,Gelderland,VBO,5.286522,51.869972
H.J. Ganzemanstraat,7,,,4194RA,Meteren,Geldermalsen,Gelderland,VBO,5.286521,51.870026
H.J. Ganzemanstraat,9,,,4194RA,Meteren,Geldermalsen,Gelderland,VBO,5.286536,51.870062
H.J. Ganzemanstraat,11,,,4194RA,Meteren,Geldermalsen,Gelderland,VBO,5.286521,51.870116
H.J. Ganzemanstraat,13,,,4194RA,Meteren,Geldermalsen,Gelderland,VBO,5.286536,51.870161
H.J. Ganzemanstraat,15,,,4194RA,Meteren,Geldermalsen,Gelderland,VBO,5.286536,51.870224
H.J. Ganzemanstraat,17,,,4194RA,Meteren,Geldermalsen,Gelderland,VBO,5.286521,51.870367
H.J. Ganzemanstraat,19,,,4194RA,Meteren,Geldermalsen,Gelderland,VBO,5.286405,51.870367
H.J. Ganzemanstraat,21,,,4194RA,Meteren,Geldermalsen,Gelderland,VBO,5.286347,51.870349
H.J. Ganzemanstraat,23,,,4194RA,Meteren,Geldermalsen,Gelderland,VBO,5.286216,51.870349
H.J. Ganzemanstraat,25,,,4194RA,Meteren,Geldermalsen,Gelderland,VBO,5.286114,51.870331
H.J. Ganzemanstraat,27,,,4194RA,Meteren,Geldermalsen,Gelderland,VBO,5.286013,51.870331
H.J. Ganzemanstraat,29,,,4194RA,Meteren,Geldermalsen,Gelderland,VBO,5.285866,51.870807
H.J. Ganzemanstraat,31,,,4194RA,Meteren,Geldermalsen,Gelderland,VBO,5.285982,51.870807
H.J. Ganzemanstraat,33,,,4194RA,Meteren,Geldermalsen,Gelderland,VBO,5.286084,51.870825
H.J. Ganzemanstraat,35,,,4194RA,Meteren,Geldermalsen,Gelderland,VBO,5.286200,51.870835
H.J. Ganzemanstraat,37,,,4194RA,Meteren,Geldermalsen,Gelderland,VBO,5.286287,51.870862
H.J. Ganzemanstraat,39,,,4194RA,Meteren,Geldermalsen,Gelderland,VBO,5.286403,51.870871
H.J. Ganzemanstraat,41,,,4194RA,Meteren,Geldermalsen,Gelderland,VBO,5.286316,51.871023
H.J. Ganzemanstraat,43,,,4194RA,Meteren,Geldermalsen,Gelderland,VBO,5.286272,51.871068
H.J. Ganzemanstraat,45,,,4194RA,Meteren,Geldermalsen,Gelderland,VBO,5.286229,51.871104
H.J. Ganzemanstraat,47,,,4194RA,Meteren,Geldermalsen,Gelderland,VBO,5.286199,51.871158
H.J. Ganzemanstraat,49,,,4194RA,Meteren,Geldermalsen,Gelderland,VBO,5.286156,51.871203
H.J. Ganzemanstraat,51,,,4194RA,Meteren,Geldermalsen,Gelderland,VBO,5.286141,51.871239
H.J. Ganzemanstraat,53,,,4194RA,Meteren,Geldermalsen,Gelderland,VBO,5.286112,51.871275
H.J. Ganzemanstraat,55,,,4194RA,Meteren,Geldermalsen,Gelderland,VBO,5.286083,51.871338
H.J. Ganzemanstraat,4,,,4194RB,Meteren,Geldermalsen,Gelderland,VBO,5.286958,51.869604
H.J. Ganzemanstraat,6,,,4194RB,Meteren,Geldermalsen,Gelderland,VBO,5.286958,51.869694
H.J. Ganzemanstraat,8,,,4194RB,Meteren,Geldermalsen,Gelderland,VBO,5.286972,51.869784
H.J. Ganzemanstraat,10,,,4194RB,Meteren,Geldermalsen,Gelderland,VBO,5.286972,51.869873
H.J. Ganzemanstraat,12,,,4194RB,Meteren,Geldermalsen,Gelderland,VBO,5.286986,51.870071
H.J. Ganzemanstraat,14,,,4194RB,Meteren,Geldermalsen,Gelderland,VBO,5.286986,51.870125
H.J. Ganzemanstraat,16,,,4194RB,Meteren,Geldermalsen,Gelderland,VBO,5.286971,51.870170
H.J. Ganzemanstraat,18,,,4194RB,Meteren,Geldermalsen,Gelderland,VBO,5.287000,51.870224
H.J. Ganzemanstraat,20,,,4194RB,Meteren,Geldermalsen,Gelderland,VBO,5.286986,51.870287
H.J. Ganzemanstraat,22,,,4194RB,Meteren,Geldermalsen,Gelderland,VBO,5.287000,51.870332
H.J. Ganzemanstraat,24,,,4194RB,Meteren,Geldermalsen,Gelderland,VBO,5.287000,51.870386
H.J. Ganzemanstraat,26,,,4194RB,Meteren,Geldermalsen,Gelderland,VBO,5.287000,51.870431
H.J. Ganzemanstraat,30,,,4194RB,Meteren,Geldermalsen,Gelderland,VBO,5.287014,51.870700
H.J. Ganzemanstraat,32,,,4194RB,Meteren,Geldermalsen,Gelderland,VBO,5.287043,51.870682
H.J. Ganzemanstraat,34,,,4194RB,Meteren,Geldermalsen,Gelderland,VBO,5.287014,51.870664
H.J. Ganzemanstraat,36,,,4194RB,Meteren,Geldermalsen,Gelderland,VBO,5.286985,51.870682
H.J. Ganzemanstraat,38,,,4194RB,Meteren,Geldermalsen,Gelderland,VBO,5.287014,51.870709
H.J. Ganzemanstraat,40,,,4194RB,Meteren,Geldermalsen,Gelderland,VBO,5.287043,51.870700
H.J. Ganzemanstraat,42,,,4194RB,Meteren,Geldermalsen,Gelderland,VBO,5.287057,51.870682
H.J. Ganzemanstraat,44,,,4194RB,Meteren,Geldermalsen,Gelderland,VBO,5.287043,51.870664
H.J. Ganzemanstraat,46,,,4194RB,Meteren,Geldermalsen,Gelderland,VBO,5.287014,51.870655
H.J. Ganzemanstraat,48,,,4194RB,Meteren,Geldermalsen,Gelderland,VBO,5.286985,51.870664
H.J. Ganzemanstraat,50,,,4194RB,Meteren,Geldermalsen,Gelderland,VBO,5.286970,51.870682
H.J. Ganzemanstraat,52,,,4194RB,Meteren,Geldermalsen,Gelderland,VBO,5.286985,51.870700
H.J. Ganzemanstraat,58,,,4194RB,Meteren,Geldermalsen,Gelderland,VBO,5.286882,51.870943
H.J. Ganzemanstraat,60,,,4194RB,Meteren,Geldermalsen,Gelderland,VBO,5.286853,51.870988
H.J. Ganzemanstraat,62,,,4194RB,Meteren,Geldermalsen,Gelderland,VBO,5.286824,51.871033
H.J. Ganzemanstraat,64,,,4194RB,Meteren,Geldermalsen,Gelderland,VBO,5.286810,51.871078
H.J. Ganzemanstraat,66,,,4194RB,Meteren,Geldermalsen,Gelderland,VBO,5.286780,51.871132
H.J. Ganzemanstraat,68,,,4194RB,Meteren,Geldermalsen,Gelderland,VBO,5.286737,51.871186
H.J. Ganzemanstraat,70,,,4194RB,Meteren,Geldermalsen,Gelderland,VBO,5.286722,51.871239
H.J. Ganzemanstraat,72,,,4194RB,Meteren,Geldermalsen,Gelderland,VBO,5.286693,51.871284
H.J. Ganzemanstraat,74,,,4194RB,Meteren,Geldermalsen,Gelderland,VBO,5.286591,51.871509
H.J. Ganzemanstraat,76,,,4194RB,Meteren,Geldermalsen,Gelderland,VBO,5.286620,51.871491
H.J. Ganzemanstraat,78,,,4194RB,Meteren,Geldermalsen,Gelderland,VBO,5.286591,51.871473
H.J. Ganzemanstraat,80,,,4194RB,Meteren,Geldermalsen,Gelderland,VBO,5.286562,51.871491
H.J. Ganzemanstraat,82,,,4194RB,Meteren,Geldermalsen,Gelderland,VBO,5.286591,51.871518
H.J. Ganzemanstraat,84,,,4194RB,Meteren,Geldermalsen,Gelderland,VBO,5.286620,51.871509
H.J. Ganzemanstraat,86,,,4194RB,Meteren,Geldermalsen,Gelderland,VBO,5.286634,51.871491
H.J. Ganzemanstraat,88,,,4194RB,Meteren,Geldermalsen,Gelderland,VBO,5.286620,51.871473
H.J. Ganzemanstraat,90,,,4194RB,Meteren,Geldermalsen,Gelderland,VBO,5.286591,51.871464
S. Abrahamsestraat,1,,,4194RC,Meteren,Geldermalsen,Gelderland,VBO,5.286566,51.869612
S. Abrahamsestraat,3,,,4194RC,Meteren,Geldermalsen,Gelderland,VBO,5.286479,51.869621
S. Abrahamsestraat,5,,,4194RC,Meteren,Geldermalsen,Gelderland,VBO,5.286392,51.869630
S. Abrahamsestraat,7,,,4194RC,Meteren,Geldermalsen,Gelderland,VBO,5.286319,51.869630
S. Abrahamsestraat,9,,,4194RC,Meteren,Geldermalsen,Gelderland,VBO,5.286232,51.869630
S. Abrahamsestraat,11,,,4194RC,Meteren,Geldermalsen,Gelderland,VBO,5.286145,51.869639
S. Abrahamsestraat,13,,,4194RC,Meteren,Geldermalsen,Gelderland,VBO,5.286058,51.869639
S. Abrahamsestraat,15,,,4194RC,Meteren,Geldermalsen,Gelderland,VBO,5.285985,51.869639
S. Abrahamsestraat,17,,,4194RC,Meteren,Geldermalsen,Gelderland,VBO,5.285521,51.869477
S. Abrahamsestraat,19,,,4194RC,Meteren,Geldermalsen,Gelderland,VBO,5.285521,51.869531
S. Abrahamsestraat,21,,,4194RC,Meteren,Geldermalsen,Gelderland,VBO,5.285521,51.869585
S. Abrahamsestraat,23,,,4194RC,Meteren,Geldermalsen,Gelderland,VBO,5.285520,51.869630
S. Abrahamsestraat,25,,,4194RC,Meteren,Geldermalsen,Gelderland,VBO,5.285520,51.869692
S. Abrahamsestraat,27,,,4194RC,Meteren,Geldermalsen,Gelderland,VBO,5.285520,51.869728
S. Abrahamsestraat,29,,,4194RC,Meteren,Geldermalsen,Gelderland,VBO,5.285520,51.869791
S. Abrahamsestraat,31,,,4194RC,Meteren,Geldermalsen,Gelderland,VBO,5.285520,51.869836
S. Abrahamsestraat,33,,,4194RC,Meteren,Geldermalsen,Gelderland,VBO,5.285534,51.869926
S. Abrahamsestraat,35,,,4194RC,Meteren,Geldermalsen,Gelderland,VBO,5.285534,51.869971
S. Abrahamsestraat,37,,,4194RC,Meteren,Geldermalsen,Gelderland,VBO,5.285534,51.870025
S. Abrahamsestraat,39,,,4194RC,Meteren,Geldermalsen,Gelderland,VBO,5.285534,51.870079
S. Abrahamsestraat,41,,,4194RC,Meteren,Geldermalsen,Gelderland,VBO,5.285534,51.870133
S. Abrahamsestraat,43,,,4194RC,Meteren,Geldermalsen,Gelderland,VBO,5.285548,51.870187
S. Abrahamsestraat,45,,,4194RC,Meteren,Geldermalsen,Gelderland,VBO,5.285534,51.870286
S. Abrahamsestraat,47,,,4194RC,Meteren,Geldermalsen,Gelderland,VBO,5.285519,51.870340
S. Abrahamsestraat,49,,,4194RC,Meteren,Geldermalsen,Gelderland,VBO,5.285490,51.870394
S. Abrahamsestraat,51,,,4194RC,Meteren,Geldermalsen,Gelderland,VBO,5.285490,51.870438
S. Abrahamsestraat,53,,,4194RC,Meteren,Geldermalsen,Gelderland,VBO,5.285475,51.870483
S. Abrahamsestraat,55,,,4194RC,Meteren,Geldermalsen,Gelderland,VBO,5.285431,51.870537
S. Abrahamsestraat,57,,,4194RC,Meteren,Geldermalsen,Gelderland,VBO,5.285431,51.870591
S. Abrahamsestraat,59,,,4194RC,Meteren,Geldermalsen,Gelderland,VBO,5.285417,51.870636
S. Abrahamsestraat,61,,,4194RC,Meteren,Geldermalsen,Gelderland,VBO,5.285402,51.870690
S. Abrahamsestraat,63,,,4194RC,Meteren,Geldermalsen,Gelderland,VBO,5.285387,51.870735
S. Abrahamsestraat,65,,,4194RC,Meteren,Geldermalsen,Gelderland,VBO,5.285344,51.870825
S. Abrahamsestraat,67,,,4194RC,Meteren,Geldermalsen,Gelderland,VBO,5.285314,51.870879
S. Abrahamsestraat,69,,,4194RC,Meteren,Geldermalsen,Gelderland,VBO,5.285271,51.870924
S. Abrahamsestraat,71,,,4194RC,Meteren,Geldermalsen,Gelderland,VBO,5.285227,51.870969
S. Abrahamsestraat,73,,,4194RC,Meteren,Geldermalsen,Gelderland,VBO,5.285198,51.871013
S. Abrahamsestraat,75,,,4194RC,Meteren,Geldermalsen,Gelderland,VBO,5.285169,51.871067
S. Abrahamsestraat,77,,,4194RD,Meteren,Geldermalsen,Gelderland,VBO,5.284936,51.871274
S. Abrahamsestraat,79,,,4194RD,Meteren,Geldermalsen,Gelderland,VBO,5.284849,51.871346
S. Abrahamsestraat,81,,,4194RD,Meteren,Geldermalsen,Gelderland,VBO,5.284631,51.871498
S. Abrahamsestraat,83,,,4194RD,Meteren,Geldermalsen,Gelderland,VBO,5.284529,51.871561
S. Abrahamsestraat,85,,,4194RD,Meteren,Geldermalsen,Gelderland,VBO,5.284253,51.871678
S. Abrahamsestraat,87,,,4194RD,Meteren,Geldermalsen,Gelderland,VBO,5.284136,51.871723
S. Abrahamsestraat,89,,,4194RD,Meteren,Geldermalsen,Gelderland,VBO,5.283889,51.871821
S. Abrahamsestraat,91,,,4194RD,Meteren,Geldermalsen,Gelderland,VBO,5.283729,51.871866
S. Abrahamsestraat,93,,,4194RD,Meteren,Geldermalsen,Gelderland,VBO,5.283424,51.871929
S. Abrahamsestraat,95,,,4194RD,Meteren,Geldermalsen,Gelderland,VBO,5.283323,51.871956
S. Abrahamsestraat,2,,,4194RE,Meteren,Geldermalsen,Gelderland,VBO,5.285999,51.869864
S. Abrahamsestraat,4,,,4194RE,Meteren,Geldermalsen,Gelderland,VBO,5.285999,51.869927
S. Abrahamsestraat,6,,,4194RE,Meteren,Geldermalsen,Gelderland,VBO,5.286013,51.869981
S. Abrahamsestraat,8,,,4194RE,Meteren,Geldermalsen,Gelderland,VBO,5.286028,51.870025
S. Abrahamsestraat,10,,,4194RE,Meteren,Geldermalsen,Gelderland,VBO,5.286042,51.870079
S. Abrahamsestraat,12,,,4194RE,Meteren,Geldermalsen,Gelderland,VBO,5.286042,51.870133
S. Abrahamsestraat,14,,,4194RE,Meteren,Geldermalsen,Gelderland,VBO,5.286027,51.870178
S. Abrahamsestraat,16,,,4194RE,Meteren,Geldermalsen,Gelderland,VBO,5.285822,51.870960
S. Abrahamsestraat,18,,,4194RE,Meteren,Geldermalsen,Gelderland,VBO,5.285764,51.870996
S. Abrahamsestraat,20,,,4194RE,Meteren,Geldermalsen,Gelderland,VBO,5.285750,51.871041
S. Abrahamsestraat,22,,,4194RE,Meteren,Geldermalsen,Gelderland,VBO,5.285706,51.871086
S. Abrahamsestraat,24,,,4194RE,Meteren,Geldermalsen,Gelderland,VBO,5.285677,51.871140
S. Abrahamsestraat,26,,,4194RE,Meteren,Geldermalsen,Gelderland,VBO,5.285648,51.871176
S. Abrahamsestraat,28,,,4194RE,Meteren,Geldermalsen,Gelderland,VBO,5.286271,51.871742
S. Abrahamsestraat,30,,,4194RE,Meteren,Geldermalsen,Gelderland,VBO,5.285995,51.871697
S. Abrahamsestraat,32,,,4194RE,Meteren,Geldermalsen,Gelderland,VBO,5.285748,51.871625
S. Abrahamsestraat,34,,,4194RE,Meteren,Geldermalsen,Gelderland,VBO,5.285415,51.871544
S. Abrahamsestraat,36,,,4194RE,Meteren,Geldermalsen,Gelderland,VBO,5.285124,51.871607
S. Abrahamsestraat,38,,,4194RE,Meteren,Geldermalsen,Gelderland,VBO,5.284906,51.871741
S. Abrahamsestraat,40,,,4194RE,Meteren,Geldermalsen,Gelderland,VBO,5.284673,51.871858
S. Abrahamsestraat,42,,,4194RE,Meteren,Geldermalsen,Gelderland,VBO,5.284441,51.871948
S. Abrahamsestraat,44,,,4194RE,Meteren,Geldermalsen,Gelderland,VBO,5.284165,51.872055
S. Abrahamsestraat,46,,,4194RE,Meteren,Geldermalsen,Gelderland,VBO,5.283874,51.872118
Laan 1940-1945,1,a,,4194RG,Meteren,Geldermalsen,Gelderland,VBO,5.284578,51.869188
Laan 1940-1945,1,,,4194RG,Meteren,Geldermalsen,Gelderland,VBO,5.284519,51.869341
Laan 1940-1945,3,,,4194RG,Meteren,Geldermalsen,Gelderland,VBO,5.284490,51.869404
Laan 1940-1945,5,,,4194RG,Meteren,Geldermalsen,Gelderland,VBO,5.284461,51.869539
Laan 1940-1945,7,,,4194RG,Meteren,Geldermalsen,Gelderland,VBO,5.284446,51.869593
Laan 1940-1945,9,,,4194RG,Meteren,Geldermalsen,Gelderland,VBO,5.284475,51.869728
Laan 1940-1945,11,,,4194RG,Meteren,Geldermalsen,Gelderland,VBO,5.284489,51.869790
Laan 1940-1945,13,a,,4194RG,Meteren,Geldermalsen,Gelderland,VBO,5.284460,51.869925
Laan 1940-1945,13,,,4194RG,Meteren,Geldermalsen,Gelderland,VBO,5.284411,51.869891
Laan 1940-1945,15,,,4194RG,Meteren,Geldermalsen,Gelderland,VBO,5.284474,51.869997
Laan 1940-1945,17,,,4194RG,Meteren,Geldermalsen,Gelderland,VBO,5.284474,51.870141
Laan 1940-1945,19,,,4194RG,Meteren,Geldermalsen,Gelderland,VBO,5.284488,51.870195
Laan 1940-1945,21,,,4194RG,Meteren,Geldermalsen,Gelderland,VBO,5.284459,51.870357
Laan 1940-1945,23,,,4194RG,Meteren,Geldermalsen,Gelderland,VBO,5.284459,51.870402
Laan 1940-1945,25,,,4194RG,Meteren,Geldermalsen,Gelderland,VBO,5.284371,51.870527
Laan 1940-1945,27,,,4194RG,Meteren,Geldermalsen,Gelderland,VBO,5.284328,51.870581
Laan 1940-1945,29,,,4194RG,Meteren,Geldermalsen,Gelderland,VBO,5.284095,51.870923
Laan 1940-1945,31,,,4194RG,Meteren,Geldermalsen,Gelderland,VBO,5.284022,51.870959
Laan 1940-1945,33,,,4194RG,Meteren,Geldermalsen,Gelderland,VBO,5.283862,51.871057
Laan 1940-1945,35,,,4194RG,Meteren,Geldermalsen,Gelderland,VBO,5.283804,51.871093
Laan 1940-1945,37,,,4194RG,Meteren,Geldermalsen,Gelderland,VBO,5.283615,51.871174
Laan 1940-1945,39,,,4194RG,Meteren,Geldermalsen,Gelderland,VBO,5.283542,51.871210
Laan 1940-1945,41,,,4194RG,Meteren,Geldermalsen,Gelderland,VBO,5.283324,51.871263
Laan 1940-1945,43,,,4194RG,Meteren,Geldermalsen,Gelderland,VBO,5.283252,51.871290
Laan 1940-1945,2,a,,4194RH,Meteren,Geldermalsen,Gelderland,VBO,5.285086,51.869261
Laan 1940-1945,2,,,4194RH,Meteren,Geldermalsen,Gelderland,VBO,5.285056,51.869395
Laan 1940-1945,4,,,4194RH,Meteren,Geldermalsen,Gelderland,VBO,5.285027,51.869449
Laan 1940-1945,6,,,4194RH,Meteren,Geldermalsen,Gelderland,VBO,5.285012,51.869557
Laan 1940-1945,8,,,4194RH,Meteren,Geldermalsen,Gelderland,VBO,5.285012,51.869602
Laan 1940-1945,10,,,4194RH,Meteren,Geldermalsen,Gelderland,VBO,5.284998,51.869719
Laan 1940-1945,12,,,4194RH,Meteren,Geldermalsen,Gelderland,VBO,5.285012,51.869773
Laan 1940-1945,14,,,4194RH,Meteren,Geldermalsen,Gelderland,VBO,5.285012,51.869872
Laan 1940-1945,16,,,4194RH,Meteren,Geldermalsen,Gelderland,VBO,5.285041,51.869935
Laan 1940-1945,18,,,4194RH,Meteren,Geldermalsen,Gelderland,VBO,5.285011,51.870025
Laan 1940-1945,20,,,4194RH,Meteren,Geldermalsen,Gelderland,VBO,5.285011,51.870087
Laan 1940-1945,22,,,4194RH,Meteren,Geldermalsen,Gelderland,VBO,5.285011,51.870204
Laan 1940-1945,24,,,4194RH,Meteren,Geldermalsen,Gelderland,VBO,5.285025,51.870267
Laan 1940-1945,26,,,4194RH,Meteren,Geldermalsen,Gelderland,VBO,5.285011,51.870366
Laan 1940-1945,28,,,4194RH,Meteren,Geldermalsen,Gelderland,VBO,5.284996,51.870411
Laan 1940-1945,30,,,4194RH,Meteren,Geldermalsen,Gelderland,VBO,5.284981,51.870510
Laan 1940-1945,32,,,4194RH,Meteren,Geldermalsen,Gelderland,VBO,5.284938,51.870573
Laan 1940-1945,34,,,4194RH,Meteren,Geldermalsen,Gelderland,VBO,5.284923,51.870681
Laan 1940-1945,36,,,4194RH,Meteren,Geldermalsen,Gelderland,VBO,5.284865,51.870726
Laan 1940-1945,38,,,4194RH,Meteren,Geldermalsen,Gelderland,VBO,5.284806,51.870815
Laan 1940-1945,40,,,4194RH,Meteren,Geldermalsen,Gelderland,VBO,5.284748,51.870860
Laan 1940-1945,42,,,4194RH,Meteren,Geldermalsen,Gelderland,VBO,5.284544,51.871103
Laan 1940-1945,44,,,4194RH,Meteren,Geldermalsen,Gelderland,VBO,5.284472,51.871130
Laan 1940-1945,46,,,4194RH,Meteren,Geldermalsen,Gelderland,VBO,5.284370,51.871210
Laan 1940-1945,48,,,4194RH,Meteren,Geldermalsen,Gelderland,VBO,5.284312,51.871255
Laan 1940-1945,50,,,4194RH,Meteren,Geldermalsen,Gelderland,VBO,5.284195,51.871327
Laan 1940-1945,52,,,4194RH,Meteren,Geldermalsen,Gelderland,VBO,5.284108,51.871354
Laan 1940-1945,54,,,4194RH,Meteren,Geldermalsen,Gelderland,VBO,5.283977,51.871417
Laan 1940-1945,56,,,4194RH,Meteren,Geldermalsen,Gelderland,VBO,5.283905,51.871453
Laan 1940-1945,58,,,4194RH,Meteren,Geldermalsen,Gelderland,VBO,5.283774,51.871516
Laan 1940-1945,60,,,4194RH,Meteren,Geldermalsen,Gelderland,VBO,5.283672,51.871533
Laan 1940-1945,62,,,4194RH,Meteren,Geldermalsen,Gelderland,VBO,5.283556,51.871587
Laan 1940-1945,64,,,4194RH,Meteren,Geldermalsen,Gelderland,VBO,5.283425,51.871605
Laan 1940-1945,66,,,4194RH,Meteren,Geldermalsen,Gelderland,VBO,5.283294,51.871641
Laan 1940-1945,68,,,4194RH,Meteren,Geldermalsen,Gelderland,VBO,5.283193,51.871659
J. van Zantenstraat,1,,,4194RJ,Meteren,Geldermalsen,Gelderland,VBO,5.283576,51.869169
J. van Zantenstraat,3,,,4194RJ,Meteren,Geldermalsen,Gelderland,VBO,5.283576,51.869277
J. van Zantenstraat,5,,,4194RJ,Meteren,Geldermalsen,Gelderland,VBO,5.283576,51.869322
J. van Zantenstraat,7,,,4194RJ,Meteren,Geldermalsen,Gelderland,VBO,5.283575,51.869439
J. van Zantenstraat,9,,,4194RJ,Meteren,Geldermalsen,Gelderland,VBO,5.283575,51.869493
J. van Zantenstraat,11,,,4194RJ,Meteren,Geldermalsen,Gelderland,VBO,5.283575,51.869592
J. van Zantenstraat,13,,,4194RJ,Meteren,Geldermalsen,Gelderland,VBO,5.283575,51.869646
J. van Zantenstraat,15,,,4194RJ,Meteren,Geldermalsen,Gelderland,VBO,5.283575,51.869763
J. van Zantenstraat,17,,,4194RJ,Meteren,Geldermalsen,Gelderland,VBO,5.283574,51.869808
J. van Zantenstraat,19,,,4194RJ,Meteren,Geldermalsen,Gelderland,VBO,5.283589,51.869915
J. van Zantenstraat,21,,,4194RJ,Meteren,Geldermalsen,Gelderland,VBO,5.283589,51.869969
J. van Zantenstraat,23,,,4194RJ,Meteren,Geldermalsen,Gelderland,VBO,5.283588,51.870086
J. van Zantenstraat,25,,,4194RJ,Meteren,Geldermalsen,Gelderland,VBO,5.283588,51.870131
J. van Zantenstraat,27,,,4194RJ,Meteren,Geldermalsen,Gelderland,VBO,5.283559,51.870248
J. van Zantenstraat,29,,,4194RJ,Meteren,Geldermalsen,Gelderland,VBO,5.283355,51.870580
J. van Zantenstraat,31,,,4194RJ,Meteren,Geldermalsen,Gelderland,VBO,5.283268,51.870652
J. van Zantenstraat,33,,,4194RJ,Meteren,Geldermalsen,Gelderland,VBO,5.283108,51.870715
J. van Zantenstraat,2,,,4194RK,Meteren,Geldermalsen,Gelderland,VBO,5.283968,51.869260
J. van Zantenstraat,4,,,4194RK,Meteren,Geldermalsen,Gelderland,VBO,5.283982,51.869323
J. van Zantenstraat,6,,,4194RK,Meteren,Geldermalsen,Gelderland,VBO,5.283967,51.869439
J. van Zantenstraat,8,,,4194RK,Meteren,Geldermalsen,Gelderland,VBO,5.283967,51.869484
J. van Zantenstraat,10,,,4194RK,Meteren,Geldermalsen,Gelderland,VBO,5.283981,51.869592
J. van Zantenstraat,12,,,4194RK,Meteren,Geldermalsen,Gelderland,VBO,5.283981,51.869646
J. van Zantenstraat,14,,,4194RK,Meteren,Geldermalsen,Gelderland,VBO,5.283981,51.869754
J. van Zantenstraat,16,,,4194RK,Meteren,Geldermalsen,Gelderland,VBO,5.283996,51.869808
J. van Zantenstraat,18,,,4194RK,Meteren,Geldermalsen,Gelderland,VBO,5.283995,51.869916
J. van Zantenstraat,20,,,4194RK,Meteren,Geldermalsen,Gelderland,VBO,5.283995,51.869970
J. van Zantenstraat,22,,,4194RK,Meteren,Geldermalsen,Gelderland,VBO,5.283995,51.870087
J. van Zantenstraat,24,,,4194RK,Meteren,Geldermalsen,Gelderland,VBO,5.283995,51.870132
J. van Zantenstraat,26,,,4194RK,Meteren,Geldermalsen,Gelderland,VBO,5.283995,51.870230
J. van Zantenstraat,28,,,4194RK,Meteren,Geldermalsen,Gelderland,VBO,5.283994,51.870293
J. van Zantenstraat,30,,,4194RK,Meteren,Geldermalsen,Gelderland,VBO,5.283936,51.870392
J. van Zantenstraat,32,,,4194RK,Meteren,Geldermalsen,Gelderland,VBO,5.283936,51.870437
J. van Zantenstraat,34,,,4194RK,Meteren,Geldermalsen,Gelderland,VBO,5.283727,51.870753
J. van Zantenstraat,36,,,4194RK,Meteren,Geldermalsen,Gelderland,VBO,5.283645,51.870769
J. van Zantenstraat,38,,,4194RK,Meteren,Geldermalsen,Gelderland,VBO,5.283499,51.870859
J. van Zantenstraat,40,,,4194RK,Meteren,Geldermalsen,Gelderland,VBO,5.283427,51.870895
J. van Zantenstraat,42,,,4194RK,Meteren,Geldermalsen,Gelderland,VBO,5.283252,51.870976
J. van Zantenstraat,44,,,4194RK,Meteren,Geldermalsen,Gelderland,VBO,5.283180,51.871003
J. van Zeestraat,2,,,4194RM,Meteren,Geldermalsen,Gelderland,VBO,5.283126,51.869097
J. van Zeestraat,4,,,4194RM,Meteren,Geldermalsen,Gelderland,VBO,5.283111,51.869160
J. van Zeestraat,6,,,4194RM,Meteren,Geldermalsen,Gelderland,VBO,5.283140,51.869196
J. van Zeestraat,8,,,4194RM,Meteren,Geldermalsen,Gelderland,VBO,5.283110,51.869295
J. van Zeestraat,10,,,4194RM,Meteren,Geldermalsen,Gelderland,VBO,5.283140,51.869349
J. van Zeestraat,12,,,4194RM,Meteren,Geldermalsen,Gelderland,VBO,5.283082,51.869376
J. van Zeestraat,14,,,4194RM,Meteren,Geldermalsen,Gelderland,VBO,5.283140,51.869412
J. van Zeestraat,16,,,4194RM,Meteren,Geldermalsen,Gelderland,VBO,5.283140,51.869439
J. van Zeestraat,18,,,4194RM,Meteren,Geldermalsen,Gelderland,VBO,5.283140,51.869466
J. van Zeestraat,20,,,4194RM,Meteren,Geldermalsen,Gelderland,VBO,5.283140,51.869502
J. van Zeestraat,22,,,4194RM,Meteren,Geldermalsen,Gelderland,VBO,5.283139,51.869529
J. van Zeestraat,24,,,4194RM,Meteren,Geldermalsen,Gelderland,VBO,5.283139,51.869556
J. van Zeestraat,26,,,4194RM,Meteren,Geldermalsen,Gelderland,VBO,5.283139,51.869583
J. van Zeestraat,28,,,4194RM,Meteren,Geldermalsen,Gelderland,VBO,5.283154,51.869609
J. van Zeestraat,30,,,4194RM,Meteren,Geldermalsen,Gelderland,VBO,5.283139,51.869645
J. van Zeestraat,32,,,4194RM,Meteren,Geldermalsen,Gelderland,VBO,5.283154,51.869672
J. van Zeestraat,34,,,4194RM,Meteren,Geldermalsen,Gelderland,VBO,5.283168,51.869690
J. van Zeestraat,36,,,4194RM,Meteren,Geldermalsen,Gelderland,VBO,5.283168,51.869708
J. van Zeestraat,38,,,4194RM,Meteren,Geldermalsen,Gelderland,VBO,5.283154,51.869744
J. van Zeestraat,40,,,4194RM,Meteren,Geldermalsen,Gelderland,VBO,5.283153,51.869780
J. van Zeestraat,42,,,4194RM,Meteren,Geldermalsen,Gelderland,VBO,5.283153,51.869807
J. van Zeestraat,44,,,4194RM,Meteren,Geldermalsen,Gelderland,VBO,5.283153,51.869834
J. van Zeestraat,46,,,4194RM,Meteren,Geldermalsen,Gelderland,VBO,5.283139,51.869861
J. van Zeestraat,48,,,4194RM,Meteren,Geldermalsen,Gelderland,VBO,5.283124,51.869888
J. van Zeestraat,50,,,4194RM,Meteren,Geldermalsen,Gelderland,VBO,5.283139,51.869924
J. van Zeestraat,52,,,4194RM,Meteren,Geldermalsen,Gelderland,VBO,5.283153,51.870032
J. van Zeestraat,54,,,4194RM,Meteren,Geldermalsen,Gelderland,VBO,5.283167,51.870086
J. van Zeestraat,56,,,4194RM,Meteren,Geldermalsen,Gelderland,VBO,5.283182,51.870131
J.H. L.-van Herwaardenstraat,2,a,,4194RR,Meteren,Geldermalsen,Gelderland,VBO,5.281872,51.869885
J.H. L.-van Herwaardenstraat,2,,,4194RR,Meteren,Geldermalsen,Gelderland,VBO,5.281991,51.870112
J.H. L.-van Herwaardenstraat,4,,,4194RR,Meteren,Geldermalsen,Gelderland,VBO,5.281265,51.870120
Verlengde Bredestraat,29,,,4194RV,Meteren,Geldermalsen,Gelderland,VBO,5.283126,51.868908
Verlengde Bredestraat,31,,,4194RV,Meteren,Geldermalsen,Gelderland,VBO,5.283388,51.868936
Verlengde Bredestraat,33,,,4194RV,Meteren,Geldermalsen,Gelderland,VBO,5.283649,51.868999
Verlengde Bredestraat,35,,,4194RV,Meteren,Geldermalsen,Gelderland,VBO,5.284128,51.869062
Verlengde Bredestraat,37,,,4194RV,Meteren,Geldermalsen,Gelderland,VBO,5.284592,51.869134
Verlengde Bredestraat,39,,,4194RV,Meteren,Geldermalsen,Gelderland,VBO,5.285086,51.869207
Verlengde Bredestraat,41,,,4194RV,Meteren,Geldermalsen,Gelderland,VBO,5.285536,51.869252
Verlengde Bredestraat,43,,,4194RV,Meteren,Geldermalsen,Gelderland,VBO,5.285797,51.869261
Verlengde Bredestraat,45,,,4194RV,Meteren,Geldermalsen,Gelderland,VBO,5.286189,51.869289
Verlengde Bredestraat,47,,,4194RV,Meteren,Geldermalsen,Gelderland,VBO,5.286523,51.869343
Verlengde Bredestraat,49,,,4194RV,Meteren,Geldermalsen,Gelderland,VBO,5.286950,51.869295
Verlengde Bredestraat,51,,,4194RV,Meteren,Geldermalsen,Gelderland,VBO,5.287120,51.869295
Verlengde Bredestraat,53,,,4194RV,Meteren,Geldermalsen,Gelderland,VBO,5.286965,51.869331
Verlengde Bredestraat,55,,,4194RV,Meteren,Geldermalsen,Gelderland,VBO,5.287101,51.869326
Verlengde Bredestraat,57,,,4194RV,Meteren,Geldermalsen,Gelderland,VBO,5.286967,51.869372
Verlengde Bredestraat,59,,,4194RV,Meteren,Geldermalsen,Gelderland,VBO,5.287104,51.869361
Verlengde Bredestraat,61,,,4194RV,Meteren,Geldermalsen,Gelderland,VBO,5.287038,51.869400
Rijksstraatweg,43,,,4194SK,Meteren,Geldermalsen,Gelderland,VBO,5.287883,51.871717
Rijksstraatweg,45,,,4194SK,Meteren,Geldermalsen,Gelderland,VBO,5.287754,51.870854
Rijksstraatweg,47,a,,4194SK,Meteren,Geldermalsen,Gelderland,VBO,5.287647,51.870273
Rijksstraatweg,47,,,4194SK,Meteren,Geldermalsen,Gelderland,VBO,5.287893,51.870220
Rijksstraatweg,49,a,,4194SK,Meteren,Geldermalsen,Gelderland,VBO,5.287755,51.870366
Rijksstraatweg,49,,,4194SK,Meteren,Geldermalsen,Gelderland,VBO,5.287674,51.870449
Rijksstraatweg,51,a,,4194SK,Meteren,Geldermalsen,Gelderland,VBO,5.287778,51.869994
Rijksstraatweg,51,,,4194SK,Meteren,Geldermalsen,Gelderland,VBO,5.287756,51.869784
Rijksstraatweg,53,,,4194SK,Meteren,Geldermalsen,Gelderland,VBO,5.287742,51.869578
Rijksstraatweg,55,,,4194SK,Meteren,Geldermalsen,Gelderland,VBO,5.287772,51.869353
Rijksstraatweg,61,,,4194SK,Meteren,Geldermalsen,Gelderland,VBO,5.286662,51.865819
Rijksstraatweg,63,,,4194SK,Meteren,Geldermalsen,Gelderland,VBO,5.286273,51.864408
Rijksstraatweg,65,,,4194SK,Meteren,Geldermalsen,Gelderland,VBO,5.284663,51.863777
Rijksstraatweg,67,a,,4194SK,Meteren,Geldermalsen,Gelderland,VBO,5.281519,51.860990
Rijksstraatweg,67,,,4194SK,Meteren,Geldermalsen,Gelderland,VBO,5.282823,51.861987
Rijksstraatweg,69,a,,4194SK,Meteren,Geldermalsen,Gelderland,VBO,5.281715,51.860821
Rijksstraatweg,69,,,4194SK,Meteren,Geldermalsen,Gelderland,VBO,5.282013,51.860773
Rijksstraatweg,75,,,4194SK,Meteren,Geldermalsen,Gelderland,VBO,5.279118,51.857382
Rijksstraatweg,70,a,,4194SL,Meteren,Geldermalsen,Gelderland,VBO,5.289296,51.871723
Rijksstraatweg,70,b,,4194SL,Meteren,Geldermalsen,Gelderland,VBO,5.290133,51.871692
Rijksstraatweg,70,c,,4194SL,Meteren,Geldermalsen,Gelderland,VBO,5.289506,51.871858
Rijksstraatweg,70,,,4194SL,Meteren,Geldermalsen,Gelderland,VBO,5.289639,51.872024
Rijksstraatweg,72,a,,4194SL,Meteren,Geldermalsen,Gelderland,VBO,5.288929,51.871367
Rijksstraatweg,72,b,,4194SL,Meteren,Geldermalsen,Gelderland,VBO,5.289049,51.870733
Rijksstraatweg,72,,,4194SL,Meteren,Geldermalsen,Gelderland,VBO,5.288911,51.871876
Rijksstraatweg,74,,,4194SL,Meteren,Geldermalsen,Gelderland,VBO,5.288732,51.868419
Rijksstraatweg,76,a,,4194SL,Meteren,Geldermalsen,Gelderland,VBO,5.286149,51.863420
Rijksstraatweg,76,,,4194SL,Meteren,Geldermalsen,Gelderland,VBO,5.285244,51.863355
Rijksstraatweg,78,a,,4194SL,Meteren,Geldermalsen,Gelderland,VBO,5.284461,51.862923
Rijksstraatweg,78,b,,4194SL,Meteren,Geldermalsen,Gelderland,VBO,5.284173,51.861934
Rijksstraatweg,78,c,,4194SL,Meteren,Geldermalsen,Gelderland,VBO,5.283609,51.860927
Rijksstraatweg,78,,,4194SL,Meteren,Geldermalsen,Gelderland,VBO,5.284548,51.862950
Rijksstraatweg,80,,,4194SL,Meteren,Geldermalsen,Gelderland,VBO,5.280671,51.857266
Mark,2,,,4194SM,Meteren,Geldermalsen,Gelderland,VBO,5.281194,51.857177
Mark,4,,,4194SM,Meteren,Geldermalsen,Gelderland,VBO,5.281629,51.857141
Mark,6,,,4194SM,Meteren,Geldermalsen,Gelderland,VBO,5.281992,51.857124
Mark,8,,,4194SM,Meteren,Geldermalsen,Gelderland,VBO,5.282457,51.857070
Mark,10,,,4194SM,Meteren,Geldermalsen,Gelderland,VBO,5.282747,51.857043
Mark,12,,,4194SM,Meteren,Geldermalsen,Gelderland,VBO,5.283299,51.856981
Mark,14,,,4194SM,Meteren,Geldermalsen,Gelderland,VBO,5.283618,51.856963
Mark,16,a,,4194SM,Meteren,Geldermalsen,Gelderland,VBO,5.283851,51.856946
Mark,16,,,4194SM,Meteren,Geldermalsen,Gelderland,VBO,5.284098,51.856901
Mark,18,,,4194SM,Meteren,Geldermalsen,Gelderland,VBO,5.284402,51.856883
Mark,20,,,4194SM,Meteren,Geldermalsen,Gelderland,VBO,5.284693,51.856856
Mark,22,,,4194SM,Meteren,Geldermalsen,Gelderland,VBO,5.285462,51.856785
Mark,24,,,4194SM,Meteren,Geldermalsen,Gelderland,VBO,5.286029,51.856516
Mark,26,,,4194SM,Meteren,Geldermalsen,Gelderland,VBO,5.286494,51.856238
Mark,28,,,4194SM,Meteren,Geldermalsen,Gelderland,VBO,5.286770,51.856067
Mark,30,,,4194SM,Meteren,Geldermalsen,Gelderland,VBO,5.286974,51.855960
Mark,34,b,,4194SM,Meteren,Geldermalsen,Gelderland,VBO,5.296098,51.855345
Mark,34,c,,4194SM,Meteren,Geldermalsen,Gelderland,VBO,5.295526,51.855630
Mark,34,d,,4194SM,Meteren,Geldermalsen,Gelderland,VBO,5.295664,51.855476
Mark,34,,,4194SM,Meteren,Geldermalsen,Gelderland,VBO,5.290719,51.855900
Mark,36,,,4194SM,Meteren,Geldermalsen,Gelderland,VBO,5.298168,51.854710
Mark,38,,,4194SM,Meteren,Geldermalsen,Gelderland,VBO,5.298647,51.854612
Mark,40,,,4194SM,Meteren,Geldermalsen,Gelderland,VBO,5.298879,51.854558
Kastanjelaan,1,,,4194SN,Meteren,Geldermalsen,Gelderland,VBO,5.282881,51.865229
Kastanjelaan,3,,,4194SN,Meteren,Geldermalsen,Gelderland,VBO,5.282943,51.865260
Kastanjelaan,5,,,4194SN,Meteren,Geldermalsen,Gelderland,VBO,5.283015,51.865283
Kastanjelaan,7,,,4194SN,Meteren,Geldermalsen,Gelderland,VBO,5.283080,51.865309
Kastanjelaan,9,,,4194SN,Meteren,Geldermalsen,Gelderland,VBO,5.283151,51.865416
Kastanjelaan,11,,,4194SN,Meteren,Geldermalsen,Gelderland,VBO,5.283199,51.865453
Kastanjelaan,13,,,4194SN,Meteren,Geldermalsen,Gelderland,VBO,5.283250,51.865495
Kastanjelaan,15,,,4194SN,Meteren,Geldermalsen,Gelderland,VBO,5.283265,51.865520
Kastanjelaan,17,,,4194SN,Meteren,Geldermalsen,Gelderland,VBO,5.283339,51.865572
Kastanjelaan,19,,,4194SN,Meteren,Geldermalsen,Gelderland,VBO,5.283384,51.865610
Kastanjelaan,21,,,4194SN,Meteren,Geldermalsen,Gelderland,VBO,5.283351,51.865790
Kastanjelaan,23,,,4194SN,Meteren,Geldermalsen,Gelderland,VBO,5.283279,51.865817
Kastanjelaan,25,,,4194SN,Meteren,Geldermalsen,Gelderland,VBO,5.283221,51.865843
Kastanjelaan,27,,,4194SN,Meteren,Geldermalsen,Gelderland,VBO,5.283148,51.865870
Kastanjelaan,29,,,4194SN,Meteren,Geldermalsen,Gelderland,VBO,5.283090,51.865897
Kastanjelaan,31,,,4194SN,Meteren,Geldermalsen,Gelderland,VBO,5.282843,51.865816
Kastanjelaan,33,,,4194SN,Meteren,Geldermalsen,Gelderland,VBO,5.282785,51.865771
Kastanjelaan,35,,,4194SN,Meteren,Geldermalsen,Gelderland,VBO,5.282756,51.865744
Kastanjelaan,37,,,4194SN,Meteren,Geldermalsen,Gelderland,VBO,5.282684,51.865699
Lindelaan,3,,,4194TA,Meteren,Geldermalsen,Gelderland,VBO,5.281436,51.865213
Lindelaan,5,,,4194TA,Meteren,Geldermalsen,Gelderland,VBO,5.281218,51.865347
Lindelaan,7,,,4194TA,Meteren,Geldermalsen,Gelderland,VBO,5.281116,51.865401
Lindelaan,9,,,4194TA,Meteren,Geldermalsen,Gelderland,VBO,5.280812,51.865293
Lindelaan,11,,,4194TA,Meteren,Geldermalsen,Gelderland,VBO,5.280856,51.865149
Lindelaan,13,,,4194TA,Meteren,Geldermalsen,Gelderland,VBO,5.280537,51.865050
Lindelaan,15,,,4194TA,Meteren,Geldermalsen,Gelderland,VBO,5.280261,51.864969
Lindelaan,17,,,4194TA,Meteren,Geldermalsen,Gelderland,VBO,5.280203,51.864951
Lindelaan,19,,,4194TA,Meteren,Geldermalsen,Gelderland,VBO,5.280130,51.864924
Lindelaan,21,,,4194TA,Meteren,Geldermalsen,Gelderland,VBO,5.280005,51.864890
Lindelaan,23,,,4194TA,Meteren,Geldermalsen,Gelderland,VBO,5.279811,51.864834
Lindelaan,25,,,4194TA,Meteren,Geldermalsen,Gelderland,VBO,5.279724,51.864807
Lindelaan,27,,,4194TA,Meteren,Geldermalsen,Gelderland,VBO,5.279637,51.864780
Lindelaan,29,,,4194TA,Meteren,Geldermalsen,Gelderland,VBO,5.279550,51.864753
Lindelaan,31,,,4194TA,Meteren,Geldermalsen,Gelderland,VBO,5.279463,51.864734
Lindelaan,33,,,4194TA,Meteren,Geldermalsen,Gelderland,VBO,5.279405,51.864716
Lindelaan,35,,,4194TA,Meteren,Geldermalsen,Gelderland,VBO,5.279318,51.864689
Lindelaan,2,,,4194TB,Meteren,Geldermalsen,Gelderland,VBO,5.281786,51.864826
Lindelaan,6,,,4194TB,Meteren,Geldermalsen,Gelderland,VBO,5.279508,51.864472
Lindelaan,8,,,4194TB,Meteren,Geldermalsen,Gelderland,VBO,5.279542,51.864422
Lindelaan,10,,,4194TB,Meteren,Geldermalsen,Gelderland,VBO,5.279565,51.864375
Lindelaan,12,,,4194TB,Meteren,Geldermalsen,Gelderland,VBO,5.279619,51.864325
Lindelaan,14,,,4194TB,Meteren,Geldermalsen,Gelderland,VBO,5.279711,51.864213
Lindelaan,16,,,4194TB,Meteren,Geldermalsen,Gelderland,VBO,5.279740,51.864195
Lindelaan,18,,,4194TB,Meteren,Geldermalsen,Gelderland,VBO,5.279765,51.864143
Lindelaan,20,,,4194TB,Meteren,Geldermalsen,Gelderland,VBO,5.280900,51.864763
Lindelaan,22,,,4194TB,Meteren,Geldermalsen,Gelderland,VBO,5.280712,51.864727
Lindelaan,24,,,4194TB,Meteren,Geldermalsen,Gelderland,VBO,5.280566,51.864655
Lindelaan,26,,,4194TB,Meteren,Geldermalsen,Gelderland,VBO,5.280465,51.864628
Lindelaan,28,,,4194TB,Meteren,Geldermalsen,Gelderland,VBO,5.280291,51.864564
Lindelaan,30,,,4194TB,Meteren,Geldermalsen,Gelderland,VBO,5.280189,51.864546
Lindelaan,32,a,,4194TB,Meteren,Geldermalsen,Gelderland,VBO,5.279926,51.864489
Lindelaan,32,,,4194TB,Meteren,Geldermalsen,Gelderland,VBO,5.280015,51.864483
Dorpsstraat,1,,,4194TC,Meteren,Geldermalsen,Gelderland,VBO,5.283590,51.863138
Dorpsstraat,3,,,4194TC,Meteren,Geldermalsen,Gelderland,VBO,5.283546,51.863237
Dorpsstraat,5,,,4194TC,Meteren,Geldermalsen,Gelderland,VBO,5.283517,51.863354
Dorpsstraat,7,a,,4194TC,Meteren,Geldermalsen,Gelderland,VBO,5.283459,51.863520
Dorpsstraat,7,b,,4194TC,Meteren,Geldermalsen,Gelderland,VBO,5.283436,51.863692
Dorpsstraat,7,,,4194TC,Meteren,Geldermalsen,Gelderland,VBO,5.283517,51.863408
Dorpsstraat,9,a,,4194TC,Meteren,Geldermalsen,Gelderland,VBO,5.283442,51.864244
Dorpsstraat,11,a,,4194TC,Meteren,Geldermalsen,Gelderland,VBO,5.283224,51.864549
Dorpsstraat,11,,,4194TC,Meteren,Geldermalsen,Gelderland,VBO,5.283151,51.864639
Dorpsstraat,39,,,4194TC,Meteren,Geldermalsen,Gelderland,VBO,5.282642,51.865106
Dorpsstraat,41,a,,4194TC,Meteren,Geldermalsen,Gelderland,VBO,5.282088,51.865806
Dorpsstraat,41,,,4194TC,Meteren,Geldermalsen,Gelderland,VBO,5.282495,51.865582
Dorpsstraat,43,,,4194TC,Meteren,Geldermalsen,Gelderland,VBO,5.281754,51.866130
Dorpsstraat,47,,,4194TC,Meteren,Geldermalsen,Gelderland,VBO,5.281536,51.866219
Dorpsstraat,49,,,4194TC,Meteren,Geldermalsen,Gelderland,VBO,5.281303,51.866264
Dorpsstraat,51,a,,4194TC,Meteren,Geldermalsen,Gelderland,VBO,5.281329,51.866468
Dorpsstraat,51,,,4194TC,Meteren,Geldermalsen,Gelderland,VBO,5.280954,51.866372
Dorpsstraat,55,,,4194TC,Meteren,Geldermalsen,Gelderland,VBO,5.280156,51.866524
Dorpsstraat,57,,,4194TC,Meteren,Geldermalsen,Gelderland,VBO,5.279996,51.866641
Dorpsstraat,59,,,4194TC,Meteren,Geldermalsen,Gelderland,VBO,5.279821,51.866775
Dorpsstraat,4,a,,4194TD,Meteren,Geldermalsen,Gelderland,VBO,5.283155,51.862859
Dorpsstraat,4,,,4194TD,Meteren,Geldermalsen,Gelderland,VBO,5.283272,51.862617
Dorpsstraat,6,,,4194TD,Meteren,Geldermalsen,Gelderland,VBO,5.283082,51.863012
Dorpsstraat,8,,,4194TD,Meteren,Geldermalsen,Gelderland,VBO,5.283125,51.863210
Dorpsstraat,10,,,4194TD,Meteren,Geldermalsen,Gelderland,VBO,5.283110,51.863515
Dorpsstraat,12,,,4194TD,Meteren,Geldermalsen,Gelderland,VBO,5.283066,51.863632
Dorpsstraat,14,,,4194TD,Meteren,Geldermalsen,Gelderland,VBO,5.282848,51.863794
Dorpsstraat,16,,,4194TD,Meteren,Geldermalsen,Gelderland,VBO,5.282571,51.864018
Dorpsstraat,18,,,4194TD,Meteren,Geldermalsen,Gelderland,VBO,5.282861,51.864288
Dorpsstraat,20,a,,4194TD,Meteren,Geldermalsen,Gelderland,VBO,5.282541,51.864432
Dorpsstraat,20,,,4194TD,Meteren,Geldermalsen,Gelderland,VBO,5.282600,51.864369
Dorpsstraat,22,,,4194TD,Meteren,Geldermalsen,Gelderland,VBO,5.282454,51.864683
Dorpsstraat,24,,,4194TD,Meteren,Geldermalsen,Gelderland,VBO,5.282396,51.864755
Dorpsstraat,26,,,4194TD,Meteren,Geldermalsen,Gelderland,VBO,5.282352,51.864809
Dorpsstraat,28,a,,4194TD,Meteren,Geldermalsen,Gelderland,VBO,5.282164,51.864846
Dorpsstraat,28,,,4194TD,Meteren,Geldermalsen,Gelderland,VBO,5.282313,51.864889
Dorpsstraat,30,a,,4194TD,Meteren,Geldermalsen,Gelderland,VBO,5.282250,51.864998
Dorpsstraat,30,,,4194TD,Meteren,Geldermalsen,Gelderland,VBO,5.282051,51.864992
Dorpsstraat,32,,,4194TD,Meteren,Geldermalsen,Gelderland,VBO,5.281959,51.865231
Dorpsstraat,34,,,4194TD,Meteren,Geldermalsen,Gelderland,VBO,5.282002,51.865348
Dorpsstraat,36,,,4194TD,Meteren,Geldermalsen,Gelderland,VBO,5.281915,51.865456
Dorpsstraat,38,,,4194TD,Meteren,Geldermalsen,Gelderland,VBO,5.281784,51.865626
Dorpsstraat,42,,,4194TD,Meteren,Geldermalsen,Gelderland,VBO,5.281580,51.865788
Dorpsstraat,44,,,4194TD,Meteren,Geldermalsen,Gelderland,VBO,5.281202,51.865941
Dorpsstraat,46,,,4194TD,Meteren,Geldermalsen,Gelderland,VBO,5.280708,51.866066
Dorpsstraat,48,,,4194TD,Meteren,Geldermalsen,Gelderland,VBO,5.280026,51.866209
Berkenlaan,2,,,4194TE,Meteren,Geldermalsen,Gelderland,VBO,5.282874,51.864899
Berkenlaan,4,,,4194TE,Meteren,Geldermalsen,Gelderland,VBO,5.283063,51.864944
Berkenlaan,5,,,4194TE,Meteren,Geldermalsen,Gelderland,VBO,5.283746,51.864855
Berkenlaan,6,,,4194TE,Meteren,Geldermalsen,Gelderland,VBO,5.283237,51.865008
Berkenlaan,7,,,4194TE,Meteren,Geldermalsen,Gelderland,VBO,5.283615,51.864666
Berkenlaan,8,,,4194TE,Meteren,Geldermalsen,Gelderland,VBO,5.283339,51.865026
Berkenlaan,9,,,4194TE,Meteren,Geldermalsen,Gelderland,VBO,5.284036,51.864972
Berkenlaan,10,,,4194TE,Meteren,Geldermalsen,Gelderland,VBO,5.283542,51.865080
Berkenlaan,12,,,4194TE,Meteren,Geldermalsen,Gelderland,VBO,5.283658,51.865116
Berkenlaan,14,,,4194TE,Meteren,Geldermalsen,Gelderland,VBO,5.283905,51.865134
Schoolstraat,2,a,,4194TG,Meteren,Geldermalsen,Gelderland,VBO,5.283892,51.864244
Schoolstraat,2,,,4194TG,Meteren,Geldermalsen,Gelderland,VBO,5.283820,51.864199
Schoolstraat,3,,,4194TG,Meteren,Geldermalsen,Gelderland,VBO,5.283428,51.863866
Schoolstraat,5,a,,4194TG,Meteren,Geldermalsen,Gelderland,VBO,5.284169,51.863678
Schoolstraat,5,,,4194TG,Meteren,Geldermalsen,Gelderland,VBO,5.283849,51.863965
Achtersteweg,1,,,4194TH,Meteren,Geldermalsen,Gelderland,VBO,5.278559,51.866163
Achtersteweg,3,,,4194TH,Meteren,Geldermalsen,Gelderland,VBO,5.277943,51.866117
Achtersteweg,5,,,4194TH,Meteren,Geldermalsen,Gelderland,VBO,5.278226,51.865812
Achtersteweg,7,,,4194TH,Meteren,Geldermalsen,Gelderland,VBO,5.278662,51.865713
Achtersteweg,9,,,4194TH,Meteren,Geldermalsen,Gelderland,VBO,5.278735,51.865543
Achtersteweg,11,,,4194TH,Meteren,Geldermalsen,Gelderland,VBO,5.278793,51.865426
Achtersteweg,13,,,4194TH,Meteren,Geldermalsen,Gelderland,VBO,5.278838,51.865192
Achtersteweg,15,,,4194TH,Meteren,Geldermalsen,Gelderland,VBO,5.278867,51.865084
Achtersteweg,17,a,,4194TH,Meteren,Geldermalsen,Gelderland,VBO,5.278086,51.864496
Achtersteweg,17,,,4194TH,Meteren,Geldermalsen,Gelderland,VBO,5.277896,51.864338
Achtersteweg,19,,,4194TH,Meteren,Geldermalsen,Gelderland,VBO,5.277869,51.863511
Achtersteweg,21,,,4194TJ,Meteren,Geldermalsen,Gelderland,VBO,5.278795,51.864716
Achtersteweg,23,,,4194TJ,Meteren,Geldermalsen,Gelderland,VBO,5.278824,51.864644
Achtersteweg,25,,,4194TJ,Meteren,Geldermalsen,Gelderland,VBO,5.278839,51.864482
Achtersteweg,27,,,4194TJ,Meteren,Geldermalsen,Gelderland,VBO,5.278868,51.864401
Achtersteweg,29,,,4194TJ,Meteren,Geldermalsen,Gelderland,VBO,5.278913,51.864150
Achtersteweg,31,,,4194TJ,Meteren,Geldermalsen,Gelderland,VBO,5.278913,51.864069
Achtersteweg,33,,,4194TJ,Meteren,Geldermalsen,Gelderland,VBO,5.278957,51.863826
Achtersteweg,35,,,4194TJ,Meteren,Geldermalsen,Gelderland,VBO,5.278957,51.863754
Achtersteweg,37,,,4194TJ,Meteren,Geldermalsen,Gelderland,VBO,5.279074,51.863368
Achtersteweg,39,,,4194TJ,Meteren,Geldermalsen,Gelderland,VBO,5.279118,51.863305
Achtersteweg,41,,,4194TJ,Meteren,Geldermalsen,Gelderland,VBO,5.279220,51.863116
Achtersteweg,43,,,4194TJ,Meteren,Geldermalsen,Gelderland,VBO,5.279148,51.862981
Achtersteweg,45,,,4194TJ,Meteren,Geldermalsen,Gelderland,VBO,5.279279,51.862829
Achtersteweg,47,,,4194TJ,Meteren,Geldermalsen,Gelderland,VBO,5.279381,51.862721
Achtersteweg,49,,,4194TJ,Meteren,Geldermalsen,Gelderland,VBO,5.279515,51.862502
Achtersteweg,51,,,4194TJ,Meteren,Geldermalsen,Gelderland,VBO,5.279818,51.862137
Achtersteweg,53,a,,4194TJ,Meteren,Geldermalsen,Gelderland,VBO,5.279919,51.862011
Achtersteweg,53,,,4194TJ,Meteren,Geldermalsen,Gelderland,VBO,5.279826,51.861981
Achtersteweg,55,,,4194TJ,Meteren,Geldermalsen,Gelderland,VBO,5.279963,51.861949
Achtersteweg,59,,,4194TJ,Meteren,Geldermalsen,Gelderland,VBO,5.280036,51.861778
Achtersteweg,61,,,4194TJ,Meteren,Geldermalsen,Gelderland,VBO,5.280109,51.861553
Achtersteweg,63,,,4194TJ,Meteren,Geldermalsen,Gelderland,VBO,5.280153,51.861418
Achtersteweg,65,,,4194TJ,Meteren,Geldermalsen,Gelderland,VBO,5.280240,51.861320
Achtersteweg,67,,,4194TJ,Meteren,Geldermalsen,Gelderland,VBO,5.280168,51.861212
Achtersteweg,69,,,4194TJ,Meteren,Geldermalsen,Gelderland,VBO,5.280126,51.860762
Achtersteweg,71,,,4194TJ,Meteren,Geldermalsen,Gelderland,VBO,5.280171,51.859854
Achtersteweg,2,,,4194TK,Meteren,Geldermalsen,Gelderland,VBO,5.279400,51.866703
Achtersteweg,4,,,4194TK,Meteren,Geldermalsen,Gelderland,VBO,5.279328,51.866658
Achtersteweg,8,,,4194TK,Meteren,Geldermalsen,Gelderland,VBO,5.279183,51.866577
Achtersteweg,10,,,4194TK,Meteren,Geldermalsen,Gelderland,VBO,5.278907,51.866379
Achtersteweg,16,,,4194TK,Meteren,Geldermalsen,Gelderland,VBO,5.279346,51.865076
Achtersteweg,18,a,,4194TK,Meteren,Geldermalsen,Gelderland,VBO,5.279377,51.864060
Achtersteweg,18,,,4194TK,Meteren,Geldermalsen,Gelderland,VBO,5.279346,51.864208
Achtersteweg,20,,,4194TK,Meteren,Geldermalsen,Gelderland,VBO,5.279915,51.863953
Achtersteweg,22,,,4194TK,Meteren,Geldermalsen,Gelderland,VBO,5.279713,51.863306
Achtersteweg,26,a,,4194TK,Meteren,Geldermalsen,Gelderland,VBO,5.280720,51.860943
Achtersteweg,26,,,4194TK,Meteren,Geldermalsen,Gelderland,VBO,5.280662,51.861158
Achtersteweg,28,,,4194TK,Meteren,Geldermalsen,Gelderland,VBO,5.280735,51.860736
Achtersteweg,30,,,4194TK,Meteren,Geldermalsen,Gelderland,VBO,5.280721,51.860538
Achtersteweg,32,,,4194TK,Meteren,Geldermalsen,Gelderland,VBO,5.280736,51.860322
Achtersteweg,34,,,4194TK,Meteren,Geldermalsen,Gelderland,VBO,5.280737,51.860107
Hoogmeerweg,1,,,4194TL,Meteren,Geldermalsen,Gelderland,VBO,5.279137,51.861301
Hoogmeerweg,3,,,4194TL,Meteren,Geldermalsen,Gelderland,VBO,5.276714,51.860867
Wouwertweg,1,,,4194TM,Meteren,Geldermalsen,Gelderland,VBO,5.279661,51.866964
Wouwertweg,3,,,4194TM,Meteren,Geldermalsen,Gelderland,VBO,5.279893,51.867207
Wouwertweg,5,,,4194TM,Meteren,Geldermalsen,Gelderland,VBO,5.280008,51.867315
Wouwertweg,7,,,4194TM,Meteren,Geldermalsen,Gelderland,VBO,5.280066,51.867369
Wouwertweg,9,,,4194TM,Meteren,Geldermalsen,Gelderland,VBO,5.280240,51.867477
Wouwertweg,10,,,4194TM,Meteren,Geldermalsen,Gelderland,VBO,5.280072,51.867901
Wouwertweg,11,,,4194TM,Meteren,Geldermalsen,Gelderland,VBO,5.280342,51.867540
Eikenlaan,1,a,,4194TN,Meteren,Geldermalsen,Gelderland,VBO,5.282827,51.866481
Eikenlaan,1,b,,4194TN,Meteren,Geldermalsen,Gelderland,VBO,5.282668,51.866436
Eikenlaan,1,c,,4194TN,Meteren,Geldermalsen,Gelderland,VBO,5.282595,51.866409
Eikenlaan,1,,,4194TN,Meteren,Geldermalsen,Gelderland,VBO,5.282900,51.866508
Eikenlaan,3,,,4194TN,Meteren,Geldermalsen,Gelderland,VBO,5.282377,51.866589
Eikenlaan,5,,,4194TN,Meteren,Geldermalsen,Gelderland,VBO,5.282333,51.866625
Eikenlaan,7,,,4194TN,Meteren,Geldermalsen,Gelderland,VBO,5.282289,51.866679
Eikenlaan,9,,,4194TN,Meteren,Geldermalsen,Gelderland,VBO,5.282260,51.866732
Eikenlaan,11,,,4194TN,Meteren,Geldermalsen,Gelderland,VBO,5.282217,51.866777
Eikenlaan,13,,,4194TN,Meteren,Geldermalsen,Gelderland,VBO,5.282173,51.866822
Eikenlaan,15,,,4194TN,Meteren,Geldermalsen,Gelderland,VBO,5.281967,51.866892
Eikenlaan,17,,,4194TN,Meteren,Geldermalsen,Gelderland,VBO,5.281917,51.866941
Eikenlaan,19,,,4194TN,Meteren,Geldermalsen,Gelderland,VBO,5.281839,51.866993
Eikenlaan,21,,,4194TN,Meteren,Geldermalsen,Gelderland,VBO,5.281810,51.867011
Eikenlaan,23,,,4194TN,Meteren,Geldermalsen,Gelderland,VBO,5.281772,51.867079
Eikenlaan,25,,,4194TN,Meteren,Geldermalsen,Gelderland,VBO,5.281712,51.867128
Eikenlaan,27,,,4194TN,Meteren,Geldermalsen,Gelderland,VBO,5.281576,51.867222
Eikenlaan,29,,,4194TN,Meteren,Geldermalsen,Gelderland,VBO,5.281489,51.867289
Eikenlaan,31,,,4194TN,Meteren,Geldermalsen,Gelderland,VBO,5.281460,51.867271
Eikenlaan,33,,,4194TN,Meteren,Geldermalsen,Gelderland,VBO,5.281374,51.867339
Eikenlaan,35,,,4194TN,Meteren,Geldermalsen,Gelderland,VBO,5.281216,51.867429
Eikenlaan,37,,,4194TN,Meteren,Geldermalsen,Gelderland,VBO,5.281156,51.867459
Eikenlaan,39,,,4194TN,Meteren,Geldermalsen,Gelderland,VBO,5.281097,51.867468
Eikenlaan,41,,,4194TN,Meteren,Geldermalsen,Gelderland,VBO,5.281024,51.867534
Eikenlaan,43,,,4194TN,Meteren,Geldermalsen,Gelderland,VBO,5.280961,51.867572
Eikenlaan,45,,,4194TN,Meteren,Geldermalsen,Gelderland,VBO,5.280806,51.867675
Eikenlaan,2,a,,4194TP,Meteren,Geldermalsen,Gelderland,VBO,5.283060,51.866194
Eikenlaan,2,,,4194TP,Meteren,Geldermalsen,Gelderland,VBO,5.283118,51.866230
Eikenlaan,4,a,,4194TP,Meteren,Geldermalsen,Gelderland,VBO,5.282843,51.866032
Eikenlaan,4,,,4194TP,Meteren,Geldermalsen,Gelderland,VBO,5.282901,51.866068
Eikenlaan,6,a,,4194TP,Meteren,Geldermalsen,Gelderland,VBO,5.282465,51.865924
Eikenlaan,6,,,4194TP,Meteren,Geldermalsen,Gelderland,VBO,5.282538,51.865888
Eikenlaan,8,,,4194TP,Meteren,Geldermalsen,Gelderland,VBO,5.282393,51.865960
Eikenlaan,12,a,,4194TP,Meteren,Geldermalsen,Gelderland,VBO,5.281840,51.866543
Eikenlaan,12,,,4194TP,Meteren,Geldermalsen,Gelderland,VBO,5.281898,51.866498
Eikenlaan,14,a,,4194TP,Meteren,Geldermalsen,Gelderland,VBO,5.281723,51.866669
Eikenlaan,14,,,4194TP,Meteren,Geldermalsen,Gelderland,VBO,5.281781,51.866615
Eikenlaan,16,,,4194TP,Meteren,Geldermalsen,Gelderland,VBO,5.281618,51.866758
Eikenlaan,18,,,4194TP,Meteren,Geldermalsen,Gelderland,VBO,5.281565,51.866810
Eikenlaan,20,,,4194TP,Meteren,Geldermalsen,Gelderland,VBO,5.281505,51.866840
Eikenlaan,22,,,4194TP,Meteren,Geldermalsen,Gelderland,VBO,5.281466,51.866904
Eikenlaan,24,,,4194TP,Meteren,Geldermalsen,Gelderland,VBO,5.281425,51.866955
Eikenlaan,26,,,4194TP,Meteren,Geldermalsen,Gelderland,VBO,5.281302,51.867037
Eikenlaan,28,,,4194TP,Meteren,Geldermalsen,Gelderland,VBO,5.281233,51.867080
Eikenlaan,30,,,4194TP,Meteren,Geldermalsen,Gelderland,VBO,5.281185,51.867100
Eikenlaan,32,,,4194TP,Meteren,Geldermalsen,Gelderland,VBO,5.281100,51.867153
Eikenlaan,34,,,4194TP,Meteren,Geldermalsen,Gelderland,VBO,5.280954,51.867234
Eikenlaan,36,,,4194TP,Meteren,Geldermalsen,Gelderland,VBO,5.280886,51.867273
Eikenlaan,38,,,4194TP,Meteren,Geldermalsen,Gelderland,VBO,5.280822,51.867297
Eikenlaan,40,,,4194TP,Meteren,Geldermalsen,Gelderland,VBO,5.280745,51.867346
Eikenlaan,42,,,4194TP,Meteren,Geldermalsen,Gelderland,VBO,5.280689,51.867385
Bredestraat,1,,,4194TR,Meteren,Geldermalsen,Gelderland,VBO,5.279163,51.868689
Bredestraat,2,a,,4194TR,Meteren,Geldermalsen,Gelderland,VBO,5.279953,51.868032
Bredestraat,2,,,4194TR,Meteren,Geldermalsen,Gelderland,VBO,5.279672,51.868099
Bredestraat,2,,,4194TR,Meteren,Geldermalsen,Gelderland,VBO,5.279729,51.868101
Bredestraat,3,a,,4194TR,Meteren,Geldermalsen,Gelderland,VBO,5.278015,51.869182
Bredestraat,3,,,4194TR,Meteren,Geldermalsen,Gelderland,VBO,5.278218,51.869147
Bredestraat,4,,,4194TR,Meteren,Geldermalsen,Gelderland,VBO,5.277770,51.868544
Bredestraat,5,,,4194TR,Meteren,Geldermalsen,Gelderland,VBO,5.277274,51.869361
Bredestraat,6,,,4194TR,Meteren,Geldermalsen,Gelderland,VBO,5.277435,51.868849
Bredestraat,7,a,,4194TR,Meteren,Geldermalsen,Gelderland,VBO,5.275241,51.870072
Bredestraat,7,b,,4194TR,Meteren,Geldermalsen,Gelderland,VBO,5.274950,51.870162
Bredestraat,7,,,4194TR,Meteren,Geldermalsen,Gelderland,VBO,5.275514,51.869979
Bredestraat,8,,,4194TR,Meteren,Geldermalsen,Gelderland,VBO,5.276753,51.868777
Bredestraat,9,a,,4194TR,Meteren,Geldermalsen,Gelderland,VBO,5.274237,51.870383
Bredestraat,9,,,4194TR,Meteren,Geldermalsen,Gelderland,VBO,5.274687,51.870375
Bredestraat,10,,,4194TR,Meteren,Geldermalsen,Gelderland,VBO,5.276665,51.869127
Bredestraat,12,,,4194TR,Meteren,Geldermalsen,Gelderland,VBO,5.276389,51.868902
Bredestraat,14,a,,4194TR,Meteren,Geldermalsen,Gelderland,VBO,5.275763,51.869491
Bredestraat,14,b,,4194TR,Meteren,Geldermalsen,Gelderland,VBO,5.276003,51.869150
Bredestraat,14,c,,4194TR,Meteren,Geldermalsen,Gelderland,VBO,5.275515,51.869262
Bredestraat,14,d,,4194TR,Meteren,Geldermalsen,Gelderland,VBO,5.275604,51.869407
Bredestraat,14,,,4194TR,Meteren,Geldermalsen,Gelderland,VBO,5.275546,51.869585
Bredestraat,16,a,,4194TR,Meteren,Geldermalsen,Gelderland,VBO,5.274761,51.869854
Bredestraat,16,,,4194TR,Meteren,Geldermalsen,Gelderland,VBO,5.275124,51.869710
Bredestraat,18,a,,4194TR,Meteren,Geldermalsen,Gelderland,VBO,5.274061,51.869825
Bredestraat,18,,,4194TR,Meteren,Geldermalsen,Gelderland,VBO,5.273613,51.869942
Wilhelminazijstraat,1,,,4194TS,Meteren,Geldermalsen,Gelderland,VBO,5.283202,51.867488
Wilhelminazijstraat,3,,,4194TS,Meteren,Geldermalsen,Gelderland,VBO,5.283304,51.867632
Wilhelminazijstraat,4,,,4194TS,Meteren,Geldermalsen,Gelderland,VBO,5.283653,51.867210
Wilhelminazijstraat,5,,,4194TS,Meteren,Geldermalsen,Gelderland,VBO,5.282897,51.867686
Wilhelminazijstraat,6,,,4194TS,Meteren,Geldermalsen,Gelderland,VBO,5.283464,51.867309
Wilhelminazijstraat,7,,,4194TS,Meteren,Geldermalsen,Gelderland,VBO,5.282650,51.867802
Wilhelminazijstraat,8,,,4194TS,Meteren,Geldermalsen,Gelderland,VBO,5.283304,51.867363
Wilhelminazijstraat,10,,,4194TS,Meteren,Geldermalsen,Gelderland,VBO,5.283115,51.867407
Wilhelminazijstraat,14,,,4194TS,Meteren,Geldermalsen,Gelderland,VBO,5.282723,51.867524
Wilhelminastraat,1,,,4194TT,Meteren,Geldermalsen,Gelderland,VBO,5.285852,51.864336
Wilhelminastraat,3,,,4194TT,Meteren,Geldermalsen,Gelderland,VBO,5.285344,51.864344
Wilhelminastraat,5,,,4194TT,Meteren,Geldermalsen,Gelderland,VBO,5.284689,51.864757
Wilhelminastraat,7,b,,4194TT,Meteren,Geldermalsen,Gelderland,VBO,5.284642,51.865453
Wilhelminastraat,7,,,4194TT,Meteren,Geldermalsen,Gelderland,VBO,5.284572,51.865224
Wilhelminastraat,9,,,4194TT,Meteren,Geldermalsen,Gelderland,VBO,5.284281,51.865629
Wilhelminastraat,11,,,4194TT,Meteren,Geldermalsen,Gelderland,VBO,5.284193,51.865781
Wilhelminastraat,13,,,4194TT,Meteren,Geldermalsen,Gelderland,VBO,5.284062,51.866060
Wilhelminastraat,15,,,4194TT,Meteren,Geldermalsen,Gelderland,VBO,5.283960,51.866186
Wilhelminastraat,17,,,4194TT,Meteren,Geldermalsen,Gelderland,VBO,5.283902,51.866284
Wilhelminastraat,19,,,4194TT,Meteren,Geldermalsen,Gelderland,VBO,5.283611,51.866653
Wilhelminastraat,21,,,4194TT,Meteren,Geldermalsen,Gelderland,VBO,5.283145,51.866985
Wilhelminastraat,25,,,4194TT,Meteren,Geldermalsen,Gelderland,VBO,5.283000,51.867209
Wilhelminastraat,27,,,4194TT,Meteren,Geldermalsen,Gelderland,VBO,5.282796,51.867326
Wilhelminastraat,31,,,4194TT,Meteren,Geldermalsen,Gelderland,VBO,5.282665,51.867443
Wilhelminastraat,33,,,4194TT,Meteren,Geldermalsen,Gelderland,VBO,5.282345,51.867865
Wilhelminastraat,35,,,4194TT,Meteren,Geldermalsen,Gelderland,VBO,5.281734,51.868143
Wilhelminastraat,37,,,4194TT,Meteren,Geldermalsen,Gelderland,VBO,5.281313,51.868242
Wilhelminastraat,39,,,4194TT,Meteren,Geldermalsen,Gelderland,VBO,5.280848,51.868484
Wilhelminastraat,2,,,4194TV,Meteren,Geldermalsen,Gelderland,VBO,5.285823,51.864048
Wilhelminastraat,4,,,4194TV,Meteren,Geldermalsen,Gelderland,VBO,5.285286,51.863985
Wilhelminastraat,6,,,4194TV,Meteren,Geldermalsen,Gelderland,VBO,5.285156,51.864029
Wilhelminastraat,8,a,,4194TV,Meteren,Geldermalsen,Gelderland,VBO,5.284386,51.864307
Wilhelminastraat,8,b,,4194TV,Meteren,Geldermalsen,Gelderland,VBO,5.284313,51.864442
Wilhelminastraat,8,c,,4194TV,Meteren,Geldermalsen,Gelderland,VBO,5.284171,51.864684
Wilhelminastraat,8,d,,4194TV,Meteren,Geldermalsen,Gelderland,VBO,5.284248,51.864566
Wilhelminastraat,8,,,4194TV,Meteren,Geldermalsen,Gelderland,VBO,5.284938,51.864074
Wilhelminastraat,10,a,,4194TV,Meteren,Geldermalsen,Gelderland,VBO,5.283977,51.865368
Wilhelminastraat,10,,,4194TV,Meteren,Geldermalsen,Gelderland,VBO,5.284138,51.864829
Wilhelminastraat,12,a,,4194TV,Meteren,Geldermalsen,Gelderland,VBO,5.283860,51.865646
Wilhelminastraat,12,b,,4194TV,Meteren,Geldermalsen,Gelderland,VBO,5.283787,51.865799
Wilhelminastraat,12,,,4194TV,Meteren,Geldermalsen,Gelderland,VBO,5.283773,51.865430
Wilhelminastraat,14,a,,4194TV,Meteren,Geldermalsen,Gelderland,VBO,5.283568,51.866140
Wilhelminastraat,14,,,4194TV,Meteren,Geldermalsen,Gelderland,VBO,5.283656,51.865988
Wilhelminastraat,16,,,4194TV,Meteren,Geldermalsen,Gelderland,VBO,5.283452,51.866338
Wilhelminastraat,18,,,4194TV,Meteren,Geldermalsen,Gelderland,VBO,5.283408,51.866392
Wilhelminastraat,22,,,4194TV,Meteren,Geldermalsen,Gelderland,VBO,5.283160,51.866724
Wilhelminastraat,24,,,4194TW,Meteren,Geldermalsen,Gelderland,VBO,5.282870,51.866751
Wilhelminastraat,26,,,4194TW,Meteren,Geldermalsen,Gelderland,VBO,5.282899,51.866913
Wilhelminastraat,28,a,,4194TW,Meteren,Geldermalsen,Gelderland,VBO,5.282445,51.867022
Wilhelminastraat,28,,,4194TW,Meteren,Geldermalsen,Gelderland,VBO,5.282637,51.867056
Wilhelminastraat,30,,,4194TW,Meteren,Geldermalsen,Gelderland,VBO,5.282506,51.867137
Wilhelminastraat,32,,,4194TW,Meteren,Geldermalsen,Gelderland,VBO,5.282375,51.867398
Wilhelminastraat,34,,,4194TW,Meteren,Geldermalsen,Gelderland,VBO,5.282273,51.867550
Wilhelminastraat,36,,,4194TW,Meteren,Geldermalsen,Gelderland,VBO,5.282113,51.867640
Wilhelminastraat,38,,,4194TW,Meteren,Geldermalsen,Gelderland,VBO,5.282040,51.867667
Wilhelminastraat,40,a,,4194TW,Meteren,Geldermalsen,Gelderland,VBO,5.281430,51.867936
Wilhelminastraat,40,,,4194TW,Meteren,Geldermalsen,Gelderland,VBO,5.281677,51.867846
Wilhelminastraat,42,,,4194TW,Meteren,Geldermalsen,Gelderland,VBO,5.281154,51.868080
Wilgenlaan,1,,,4194TX,Meteren,Geldermalsen,Gelderland,VBO,5.280591,51.866434
Wilgenlaan,3,,,4194TX,Meteren,Geldermalsen,Gelderland,VBO,5.280794,51.866578
Wilgenlaan,5,,,4194TX,Meteren,Geldermalsen,Gelderland,VBO,5.280881,51.866623
Wilgenlaan,7,,,4194TX,Meteren,Geldermalsen,Gelderland,VBO,5.280983,51.866824
Wilgenlaan,9,,,4194TX,Meteren,Geldermalsen,Gelderland,VBO,5.280895,51.866884
Wilgenlaan,11,,,4194TX,Meteren,Geldermalsen,Gelderland,VBO,5.280853,51.866900
Wilgenlaan,13,,,4194TX,Meteren,Geldermalsen,Gelderland,VBO,5.280787,51.866933
Wilgenlaan,15,,,4194TX,Meteren,Geldermalsen,Gelderland,VBO,5.280633,51.867011
Wilgenlaan,17,,,4194TX,Meteren,Geldermalsen,Gelderland,VBO,5.280572,51.867053
Wilgenlaan,19,,,4194TX,Meteren,Geldermalsen,Gelderland,VBO,5.280503,51.867072
Wilgenlaan,21,,,4194TX,Meteren,Geldermalsen,Gelderland,VBO,5.280450,51.867122
Wilgenlaan,23,,,4194TX,Meteren,Geldermalsen,Gelderland,VBO,5.280391,51.867158
Wilgenlaan,25,,,4194TX,Meteren,Geldermalsen,Gelderland,VBO,5.280232,51.866924
Wilgenlaan,27,,,4194TX,Meteren,Geldermalsen,Gelderland,VBO,5.280298,51.866884
Wilgenlaan,29,,,4194TX,Meteren,Geldermalsen,Gelderland,VBO,5.280358,51.866830
Wilgenlaan,31,,,4194TX,Meteren,Geldermalsen,Gelderland,VBO,5.280460,51.866790
Wilgenlaan,33,,,4194TX,Meteren,Geldermalsen,Gelderland,VBO,5.280543,51.866753
Den Bommel,2,,,4194TZ,Meteren,Geldermalsen,Gelderland,VBO,5.282386,51.862056
Den Bommel,4,a,,4194TZ,Meteren,Geldermalsen,Gelderland,VBO,5.282068,51.861968
Den Bommel,4,,,4194TZ,Meteren,Geldermalsen,Gelderland,VBO,5.282139,51.861688
Den Bommel,6,,,4194TZ,Meteren,Geldermalsen,Gelderland,VBO,5.281749,51.861950
Den Bommel,8,,,4194TZ,Meteren,Geldermalsen,Gelderland,VBO,5.281561,51.861626
Den Bommel,10,,,4194TZ,Meteren,Geldermalsen,Gelderland,VBO,5.281284,51.861950
Den Bommel,12,,,4194TZ,Meteren,Geldermalsen,Gelderland,VBO,5.280834,51.861842
Den Bommel,14,,,4194TZ,Meteren,Geldermalsen,Gelderland,VBO,5.280718,51.861805
J. van Zantenstraat,35,,,4194VA,Meteren,Geldermalsen,Gelderland,VBO,5.282527,51.870813
J. van Zantenstraat,37,,,4194VA,Meteren,Geldermalsen,Gelderland,VBO,5.282440,51.870831
J. van Zantenstraat,39,,,4194VA,Meteren,Geldermalsen,Gelderland,VBO,5.282265,51.870849
J. van Zantenstraat,41,,,4194VA,Meteren,Geldermalsen,Gelderland,VBO,5.282178,51.870849
J. van Zantenstraat,43,,,4194VA,Meteren,Geldermalsen,Gelderland,VBO,5.282018,51.870876
J. van Zantenstraat,45,,,4194VA,Meteren,Geldermalsen,Gelderland,VBO,5.281917,51.870885
J. van Zantenstraat,47,,,4194VA,Meteren,Geldermalsen,Gelderland,VBO,5.281742,51.870894
J. van Zantenstraat,49,,,4194VA,Meteren,Geldermalsen,Gelderland,VBO,5.281670,51.870902
J. van Zantenstraat,51,,,4194VA,Meteren,Geldermalsen,Gelderland,VBO,5.281495,51.870929
J. van Zantenstraat,53,,,4194VA,Meteren,Geldermalsen,Gelderland,VBO,5.281394,51.870938
J. van Zantenstraat,55,,,4194VA,Meteren,Geldermalsen,Gelderland,VBO,5.281074,51.871001
J. van Zantenstraat,57,,,4194VA,Meteren,Geldermalsen,Gelderland,VBO,5.280958,51.871010
J. van Zantenstraat,59,,,4194VA,Meteren,Geldermalsen,Gelderland,VBO,5.280798,51.871037
J. van Zantenstraat,61,,,4194VA,Meteren,Geldermalsen,Gelderland,VBO,5.280726,51.871036
J. van Zantenstraat,63,,,4194VA,Meteren,Geldermalsen,Gelderland,VBO,5.280551,51.871072
J. van Zantenstraat,65,,,4194VA,Meteren,Geldermalsen,Gelderland,VBO,5.280450,51.871072
J. van Zantenstraat,67,,,4194VB,Meteren,Geldermalsen,Gelderland,VBO,5.280712,51.870731
J. van Zantenstraat,69,,,4194VB,Meteren,Geldermalsen,Gelderland,VBO,5.280741,51.870713
J. van Zantenstraat,71,,,4194VB,Meteren,Geldermalsen,Gelderland,VBO,5.280712,51.870695
J. van Zantenstraat,73,,,4194VB,Meteren,Geldermalsen,Gelderland,VBO,5.280683,51.870713
J. van Zantenstraat,75,,,4194VB,Meteren,Geldermalsen,Gelderland,VBO,5.280712,51.870740
J. van Zantenstraat,77,,,4194VB,Meteren,Geldermalsen,Gelderland,VBO,5.280741,51.870731
J. van Zantenstraat,79,,,4194VB,Meteren,Geldermalsen,Gelderland,VBO,5.280755,51.870713
J. van Zantenstraat,81,,,4194VB,Meteren,Geldermalsen,Gelderland,VBO,5.280741,51.870695
J. van Zantenstraat,83,,,4194VB,Meteren,Geldermalsen,Gelderland,VBO,5.280712,51.870686
J. van Zantenstraat,85,,,4194VB,Meteren,Geldermalsen,Gelderland,VBO,5.280683,51.870695
J. van Zantenstraat,87,,,4194VB,Meteren,Geldermalsen,Gelderland,VBO,5.280668,51.870713
J. van Zantenstraat,89,,,4194VB,Meteren,Geldermalsen,Gelderland,VBO,5.280683,51.870731
J. van Zantenstraat,91,,,4194VB,Meteren,Geldermalsen,Gelderland,VBO,5.280712,51.870758
J. van Zantenstraat,93,,,4194VB,Meteren,Geldermalsen,Gelderland,VBO,5.280741,51.870749
J. van Zantenstraat,95,,,4194VB,Meteren,Geldermalsen,Gelderland,VBO,5.280770,51.870731
J. van Zantenstraat,97,,,4194VB,Meteren,Geldermalsen,Gelderland,VBO,5.280784,51.870713
J. van Zantenstraat,99,,,4194VB,Meteren,Geldermalsen,Gelderland,VBO,5.280770,51.870695
J. van Zantenstraat,101,,,4194VB,Meteren,Geldermalsen,Gelderland,VBO,5.280741,51.870677
J. van Zantenstraat,103,,,4194VB,Meteren,Geldermalsen,Gelderland,VBO,5.280712,51.870668
J. van Zantenstraat,105,,,4194VB,Meteren,Geldermalsen,Gelderland,VBO,5.280683,51.870677
J. van Zantenstraat,107,,,4194VB,Meteren,Geldermalsen,Gelderland,VBO,5.280654,51.870695
J. van Zantenstraat,109,,,4194VB,Meteren,Geldermalsen,Gelderland,VBO,5.280639,51.870713
J. van Zantenstraat,111,,,4194VB,Meteren,Geldermalsen,Gelderland,VBO,5.280654,51.870731
J. van Zantenstraat,113,,,4194VB,Meteren,Geldermalsen,Gelderland,VBO,5.280683,51.870749
J. van Zantenstraat,115,,,4194VB,Meteren,Geldermalsen,Gelderland,VBO,5.280799,51.870731
J. van Zantenstraat,117,,,4194VB,Meteren,Geldermalsen,Gelderland,VBO,5.280799,51.870713
J. van Zantenstraat,119,,,4194VB,Meteren,Geldermalsen,Gelderland,VBO,5.280799,51.870695
J. van Zantenstraat,121,,,4194VB,Meteren,Geldermalsen,Gelderland,VBO,5.280770,51.870677
J. van Zantenstraat,123,,,4194VB,Meteren,Geldermalsen,Gelderland,VBO,5.280741,51.870659
J. van Zantenstraat,125,,,4194VB,Meteren,Geldermalsen,Gelderland,VBO,5.281801,51.870588
J. van Zantenstraat,127,,,4194VB,Meteren,Geldermalsen,Gelderland,VBO,5.281830,51.870570
J. van Zantenstraat,129,,,4194VB,Meteren,Geldermalsen,Gelderland,VBO,5.281801,51.870552
J. van Zantenstraat,131,,,4194VB,Meteren,Geldermalsen,Gelderland,VBO,5.281772,51.870570
J. van Zantenstraat,133,,,4194VB,Meteren,Geldermalsen,Gelderland,VBO,5.281801,51.870597
J. van Zantenstraat,135,,,4194VB,Meteren,Geldermalsen,Gelderland,VBO,5.281830,51.870588
J. van Zantenstraat,137,,,4194VB,Meteren,Geldermalsen,Gelderland,VBO,5.281845,51.870570
J. van Zantenstraat,139,,,4194VB,Meteren,Geldermalsen,Gelderland,VBO,5.281830,51.870552
J. van Zantenstraat,141,,,4194VB,Meteren,Geldermalsen,Gelderland,VBO,5.281801,51.870543
J. van Zantenstraat,143,,,4194VB,Meteren,Geldermalsen,Gelderland,VBO,5.281772,51.870552
J. van Zantenstraat,145,,,4194VB,Meteren,Geldermalsen,Gelderland,VBO,5.281758,51.870570
J. van Zantenstraat,147,,,4194VB,Meteren,Geldermalsen,Gelderland,VBO,5.281772,51.870588
J. van Zantenstraat,149,,,4194VB,Meteren,Geldermalsen,Gelderland,VBO,5.281801,51.870615
J. van Zantenstraat,151,,,4194VB,Meteren,Geldermalsen,Gelderland,VBO,5.281830,51.870606
J. van Zantenstraat,153,,,4194VB,Meteren,Geldermalsen,Gelderland,VBO,5.281859,51.870588
J. van Zantenstraat,155,,,4194VB,Meteren,Geldermalsen,Gelderland,VBO,5.281874,51.870570
J. van Zantenstraat,157,,,4194VB,Meteren,Geldermalsen,Gelderland,VBO,5.281859,51.870552
J. van Zantenstraat,159,,,4194VB,Meteren,Geldermalsen,Gelderland,VBO,5.281830,51.870534
J. van Zantenstraat,161,,,4194VB,Meteren,Geldermalsen,Gelderland,VBO,5.281801,51.870525
J. van Zantenstraat,163,,,4194VB,Meteren,Geldermalsen,Gelderland,VBO,5.281772,51.870534
J. van Zantenstraat,165,,,4194VB,Meteren,Geldermalsen,Gelderland,VBO,5.281743,51.870552
J. van Zantenstraat,167,,,4194VB,Meteren,Geldermalsen,Gelderland,VBO,5.281729,51.870570
J. van Zantenstraat,169,,,4194VB,Meteren,Geldermalsen,Gelderland,VBO,5.281743,51.870588
J. van Zantenstraat,171,,,4194VB,Meteren,Geldermalsen,Gelderland,VBO,5.281772,51.870606
J. van Zantenstraat,173,,,4194VB,Meteren,Geldermalsen,Gelderland,VBO,5.281787,51.870570
J. van Zantenstraat,46,,,4194VC,Meteren,Geldermalsen,Gelderland,VBO,5.282700,51.871074
J. van Zantenstraat,48,,,4194VC,Meteren,Geldermalsen,Gelderland,VBO,5.282613,51.871092
J. van Zantenstraat,50,,,4194VC,Meteren,Geldermalsen,Gelderland,VBO,5.282410,51.871101
J. van Zantenstraat,52,,,4194VC,Meteren,Geldermalsen,Gelderland,VBO,5.282323,51.871101
J. van Zantenstraat,54,,,4194VC,Meteren,Geldermalsen,Gelderland,VBO,5.282148,51.871128
J. van Zantenstraat,56,,,4194VC,Meteren,Geldermalsen,Gelderland,VBO,5.282061,51.871137
J. van Zantenstraat,58,,,4194VC,Meteren,Geldermalsen,Gelderland,VBO,5.281858,51.871154
J. van Zantenstraat,60,,,4194VC,Meteren,Geldermalsen,Gelderland,VBO,5.281785,51.871163
J. van Zantenstraat,62,,,4194VC,Meteren,Geldermalsen,Gelderland,VBO,5.281582,51.871190
J. van Zantenstraat,64,,,4194VC,Meteren,Geldermalsen,Gelderland,VBO,5.281495,51.871208
J. van Zantenstraat,66,,,4194VC,Meteren,Geldermalsen,Gelderland,VBO,5.281175,51.871244
J. van Zantenstraat,68,,,4194VC,Meteren,Geldermalsen,Gelderland,VBO,5.281074,51.871252
J. van Zantenstraat,70,,,4194VC,Meteren,Geldermalsen,Gelderland,VBO,5.280914,51.871279
J. van Zantenstraat,72,,,4194VC,Meteren,Geldermalsen,Gelderland,VBO,5.280827,51.871297
J. van Zantenstraat,74,,,4194VC,Meteren,Geldermalsen,Gelderland,VBO,5.280652,51.871324
J. van Zantenstraat,76,,,4194VC,Meteren,Geldermalsen,Gelderland,VBO,5.280522,51.871333
J. van Zantenstraat,78,,,4194VC,Meteren,Geldermalsen,Gelderland,VBO,5.280362,51.871360
J. van Zantenstraat,80,,,4194VC,Meteren,Geldermalsen,Gelderland,VBO,5.280275,51.871378
J. van Zantenstraat,82,,,4194VC,Meteren,Geldermalsen,Gelderland,VBO,5.280071,51.871395
J. van Zantenstraat,84,,,4194VC,Meteren,Geldermalsen,Gelderland,VBO,5.279984,51.871422
J. van Zantenstraat,86,,,4194VC,Meteren,Geldermalsen,Gelderland,VBO,5.280043,51.871171
J. van Zantenstraat,88,,,4194VC,Meteren,Geldermalsen,Gelderland,VBO,5.280029,51.871108
J. van Zantenstraat,90,,,4194VC,Meteren,Geldermalsen,Gelderland,VBO,5.280000,51.870982
J. van Zantenstraat,92,,,4194VC,Meteren,Geldermalsen,Gelderland,VBO,5.279956,51.870919
J. van Zantenstraat,94,,,4194VC,Meteren,Geldermalsen,Gelderland,VBO,5.279899,51.870802
J. van Zantenstraat,96,,,4194VC,Meteren,Geldermalsen,Gelderland,VBO,5.279899,51.870739
A.H.H. Tolhuisenstraat,1,,,4194VD,Meteren,Geldermalsen,Gelderland,VBO,5.282597,51.871685
A.H.H. Tolhuisenstraat,3,,,4194VD,Meteren,Geldermalsen,Gelderland,VBO,5.282626,51.871721
A.H.H. Tolhuisenstraat,5,,,4194VD,Meteren,Geldermalsen,Gelderland,VBO,5.282641,51.871757
A.H.H. Tolhuisenstraat,7,,,4194VD,Meteren,Geldermalsen,Gelderland,VBO,5.282655,51.871802
A.H.H. Tolhuisenstraat,9,,,4194VD,Meteren,Geldermalsen,Gelderland,VBO,5.282669,51.871847
A.H.H. Tolhuisenstraat,11,,,4194VD,Meteren,Geldermalsen,Gelderland,VBO,5.282684,51.871892
A.H.H. Tolhuisenstraat,13,,,4194VD,Meteren,Geldermalsen,Gelderland,VBO,5.282713,51.871937
A.H.H. Tolhuisenstraat,15,,,4194VD,Meteren,Geldermalsen,Gelderland,VBO,5.282713,51.871982
A.H.H. Tolhuisenstraat,17,,,4194VD,Meteren,Geldermalsen,Gelderland,VBO,5.282814,51.872162
A.H.H. Tolhuisenstraat,19,,,4194VD,Meteren,Geldermalsen,Gelderland,VBO,5.282741,51.872171
A.H.H. Tolhuisenstraat,21,,,4194VD,Meteren,Geldermalsen,Gelderland,VBO,5.282654,51.872180
A.H.H. Tolhuisenstraat,23,,,4194VD,Meteren,Geldermalsen,Gelderland,VBO,5.282596,51.872189
A.H.H. Tolhuisenstraat,25,,,4194VD,Meteren,Geldermalsen,Gelderland,VBO,5.282509,51.872198
A.H.H. Tolhuisenstraat,27,,,4194VD,Meteren,Geldermalsen,Gelderland,VBO,5.282436,51.872206
A.H.H. Tolhuisenstraat,29,,,4194VD,Meteren,Geldermalsen,Gelderland,VBO,5.282364,51.872215
A.H.H. Tolhuisenstraat,31,,,4194VD,Meteren,Geldermalsen,Gelderland,VBO,5.282277,51.872224
A.H.H. Tolhuisenstraat,33,,,4194VD,Meteren,Geldermalsen,Gelderland,VBO,5.282218,51.872233
A.H.H. Tolhuisenstraat,35,,,4194VD,Meteren,Geldermalsen,Gelderland,VBO,5.282117,51.872242
A.H.H. Tolhuisenstraat,37,,,4194VD,Meteren,Geldermalsen,Gelderland,VBO,5.282059,51.872260
A.H.H. Tolhuisenstraat,39,,,4194VD,Meteren,Geldermalsen,Gelderland,VBO,5.281928,51.872287
A.H.H. Tolhuisenstraat,41,,,4194VD,Meteren,Geldermalsen,Gelderland,VBO,5.281841,51.872296
A.H.H. Tolhuisenstraat,43,,,4194VD,Meteren,Geldermalsen,Gelderland,VBO,5.281783,51.872305
A.H.H. Tolhuisenstraat,45,,,4194VE,Meteren,Geldermalsen,Gelderland,VBO,5.281637,51.872332
A.H.H. Tolhuisenstraat,47,,,4194VE,Meteren,Geldermalsen,Gelderland,VBO,5.281550,51.872341
A.H.H. Tolhuisenstraat,49,,,4194VE,Meteren,Geldermalsen,Gelderland,VBO,5.281492,51.872349
A.H.H. Tolhuisenstraat,51,,,4194VE,Meteren,Geldermalsen,Gelderland,VBO,5.281376,51.872358
A.H.H. Tolhuisenstraat,53,,,4194VE,Meteren,Geldermalsen,Gelderland,VBO,5.281289,51.872367
A.H.H. Tolhuisenstraat,55,,,4194VE,Meteren,Geldermalsen,Gelderland,VBO,5.281202,51.872376
A.H.H. Tolhuisenstraat,57,,,4194VE,Meteren,Geldermalsen,Gelderland,VBO,5.281129,51.872385
A.H.H. Tolhuisenstraat,59,,,4194VE,Meteren,Geldermalsen,Gelderland,VBO,5.281042,51.872385
A.H.H. Tolhuisenstraat,61,,,4194VE,Meteren,Geldermalsen,Gelderland,VBO,5.280969,51.872403
A.H.H. Tolhuisenstraat,63,,,4194VE,Meteren,Geldermalsen,Gelderland,VBO,5.280911,51.872412
A.H.H. Tolhuisenstraat,65,,,4194VE,Meteren,Geldermalsen,Gelderland,VBO,5.280809,51.872430
A.H.H. Tolhuisenstraat,67,,,4194VE,Meteren,Geldermalsen,Gelderland,VBO,5.280737,51.872439
A.H.H. Tolhuisenstraat,69,,,4194VE,Meteren,Geldermalsen,Gelderland,VBO,5.280664,51.872448
A.H.H. Tolhuisenstraat,71,,,4194VE,Meteren,Geldermalsen,Gelderland,VBO,5.280577,51.872456
A.H.H. Tolhuisenstraat,73,,,4194VE,Meteren,Geldermalsen,Gelderland,VBO,5.280519,51.872286
A.H.H. Tolhuisenstraat,75,,,4194VE,Meteren,Geldermalsen,Gelderland,VBO,5.280490,51.872241
A.H.H. Tolhuisenstraat,77,,,4194VE,Meteren,Geldermalsen,Gelderland,VBO,5.280476,51.872196
A.H.H. Tolhuisenstraat,79,,,4194VE,Meteren,Geldermalsen,Gelderland,VBO,5.280462,51.872151
A.H.H. Tolhuisenstraat,81,,,4194VE,Meteren,Geldermalsen,Gelderland,VBO,5.280433,51.872106
A.H.H. Tolhuisenstraat,83,,,4194VE,Meteren,Geldermalsen,Gelderland,VBO,5.280418,51.872061
A.H.H. Tolhuisenstraat,85,,,4194VE,Meteren,Geldermalsen,Gelderland,VBO,5.280418,51.872016
A.H.H. Tolhuisenstraat,87,,,4194VE,Meteren,Geldermalsen,Gelderland,VBO,5.280419,51.871971
Laan 1940-1945,45,,,4194VG,Meteren,Geldermalsen,Gelderland,VBO,5.282758,51.871326
Laan 1940-1945,47,,,4194VG,Meteren,Geldermalsen,Gelderland,VBO,5.282685,51.871335
Laan 1940-1945,49,,,4194VG,Meteren,Geldermalsen,Gelderland,VBO,5.282496,51.871362
Laan 1940-1945,51,,,4194VG,Meteren,Geldermalsen,Gelderland,VBO,5.282395,51.871353
Laan 1940-1945,53,,,4194VG,Meteren,Geldermalsen,Gelderland,VBO,5.282235,51.871379
Laan 1940-1945,55,,,4194VG,Meteren,Geldermalsen,Gelderland,VBO,5.282046,51.871379
Laan 1940-1945,57,,,4194VG,Meteren,Geldermalsen,Gelderland,VBO,5.281944,51.871397
Laan 1940-1945,59,,,4194VG,Meteren,Geldermalsen,Gelderland,VBO,5.281814,51.871424
Laan 1940-1945,61,,,4194VG,Meteren,Geldermalsen,Gelderland,VBO,5.281669,51.871433
Laan 1940-1945,63,,,4194VG,Meteren,Geldermalsen,Gelderland,VBO,5.281552,51.871460
Laan 1940-1945,65,,,4194VG,Meteren,Geldermalsen,Gelderland,VBO,5.281291,51.871504
Laan 1940-1945,67,,,4194VG,Meteren,Geldermalsen,Gelderland,VBO,5.281189,51.871513
Laan 1940-1945,69,,,4194VG,Meteren,Geldermalsen,Gelderland,VBO,5.281044,51.871540
Laan 1940-1945,71,,,4194VG,Meteren,Geldermalsen,Gelderland,VBO,5.280957,51.871558
Laan 1940-1945,73,,,4194VG,Meteren,Geldermalsen,Gelderland,VBO,5.280739,51.871576
Laan 1940-1945,75,,,4194VG,Meteren,Geldermalsen,Gelderland,VBO,5.280579,51.871585
Laan 1940-1945,77,,,4194VG,Meteren,Geldermalsen,Gelderland,VBO,5.280477,51.871594
Laan 1940-1945,79,,,4194VG,Meteren,Geldermalsen,Gelderland,VBO,5.280318,51.871629
Laan 1940-1945,81,,,4194VG,Meteren,Geldermalsen,Gelderland,VBO,5.280201,51.871647
Laan 1940-1945,83,,,4194VG,Meteren,Geldermalsen,Gelderland,VBO,5.280085,51.871683
Laan 1940-1945,70,,,4194VH,Meteren,Geldermalsen,Gelderland,VBO,5.282205,51.871730
Laan 1940-1945,72,,,4194VH,Meteren,Geldermalsen,Gelderland,VBO,5.282190,51.871856
Laan 1940-1945,74,,,4194VH,Meteren,Geldermalsen,Gelderland,VBO,5.282161,51.871910
Laan 1940-1945,76,,,4194VH,Meteren,Geldermalsen,Gelderland,VBO,5.281972,51.871990
Laan 1940-1945,78,,,4194VH,Meteren,Geldermalsen,Gelderland,VBO,5.281885,51.871999
Laan 1940-1945,80,,,4194VH,Meteren,Geldermalsen,Gelderland,VBO,5.281711,51.872017
Laan 1940-1945,82,,,4194VH,Meteren,Geldermalsen,Gelderland,VBO,5.281507,51.872044
Laan 1940-1945,84,,,4194VH,Meteren,Geldermalsen,Gelderland,VBO,5.281348,51.872062
Laan 1940-1945,86,,,4194VH,Meteren,Geldermalsen,Gelderland,VBO,5.281231,51.872080
Laan 1940-1945,88,,,4194VH,Meteren,Geldermalsen,Gelderland,VBO,5.281028,51.872052
Laan 1940-1945,90,,,4194VH,Meteren,Geldermalsen,Gelderland,VBO,5.280956,51.872025
Laan 1940-1945,92,,,4194VH,Meteren,Geldermalsen,Gelderland,VBO,5.280825,51.871917
J.H. L.-van Herwaardenstraat,1,,,4194VJ,Meteren,Geldermalsen,Gelderland,VBO,5.282502,51.869133
J.H. L.-van Herwaardenstraat,3,,,4194VJ,Meteren,Geldermalsen,Gelderland,VBO,5.282429,51.869141
J.H. L.-van Herwaardenstraat,5,,,4194VJ,Meteren,Geldermalsen,Gelderland,VBO,5.282327,51.869150
J.H. L.-van Herwaardenstraat,7,,,4194VJ,Meteren,Geldermalsen,Gelderland,VBO,5.282269,51.869159
J.H. L.-van Herwaardenstraat,9,,,4194VJ,Meteren,Geldermalsen,Gelderland,VBO,5.282182,51.869177
J.H. L.-van Herwaardenstraat,11,,,4194VJ,Meteren,Geldermalsen,Gelderland,VBO,5.282109,51.869186
J.H. L.-van Herwaardenstraat,13,,,4194VJ,Meteren,Geldermalsen,Gelderland,VBO,5.282037,51.869195
J.H. L.-van Herwaardenstraat,15,,,4194VJ,Meteren,Geldermalsen,Gelderland,VBO,5.281964,51.869204
J.H. L.-van Herwaardenstraat,17,,,4194VJ,Meteren,Geldermalsen,Gelderland,VBO,5.281877,51.869213
J.H. L.-van Herwaardenstraat,19,,,4194VJ,Meteren,Geldermalsen,Gelderland,VBO,5.281790,51.869222
J.H. L.-van Herwaardenstraat,21,,,4194VJ,Meteren,Geldermalsen,Gelderland,VBO,5.281703,51.869240
J.H. L.-van Herwaardenstraat,23,,,4194VJ,Meteren,Geldermalsen,Gelderland,VBO,5.281616,51.869258
J.H. L.-van Herwaardenstraat,25,,,4194VJ,Meteren,Geldermalsen,Gelderland,VBO,5.281528,51.869266
J.H. L.-van Herwaardenstraat,27,,,4194VJ,Meteren,Geldermalsen,Gelderland,VBO,5.281441,51.869284
J.H. L.-van Herwaardenstraat,29,,,4194VJ,Meteren,Geldermalsen,Gelderland,VBO,5.281369,51.869293
J.H. L.-van Herwaardenstraat,31,,,4194VJ,Meteren,Geldermalsen,Gelderland,VBO,5.281311,51.869302
J.H. L.-van Herwaardenstraat,33,,,4194VJ,Meteren,Geldermalsen,Gelderland,VBO,5.281223,51.869320
J.H. L.-van Herwaardenstraat,35,,,4194VJ,Meteren,Geldermalsen,Gelderland,VBO,5.281151,51.869329
J.H. L.-van Herwaardenstraat,37,,,4194VJ,Meteren,Geldermalsen,Gelderland,VBO,5.281064,51.869338
J.H. L.-van Herwaardenstraat,39,,,4194VJ,Meteren,Geldermalsen,Gelderland,VBO,5.280991,51.869365
J.H. L.-van Herwaardenstraat,41,,,4194VJ,Meteren,Geldermalsen,Gelderland,VBO,5.280904,51.869374
J.H. L.-van Herwaardenstraat,43,,,4194VJ,Meteren,Geldermalsen,Gelderland,VBO,5.280846,51.869419
J.H. L.-van Herwaardenstraat,45,,,4194VJ,Meteren,Geldermalsen,Gelderland,VBO,5.280729,51.869464
J.H. L.-van Herwaardenstraat,47,,,4194VJ,Meteren,Geldermalsen,Gelderland,VBO,5.280686,51.869508
J.H. L.-van Herwaardenstraat,49,,,4194VJ,Meteren,Geldermalsen,Gelderland,VBO,5.280642,51.869544
J.H. L.-van Herwaardenstraat,51,,,4194VJ,Meteren,Geldermalsen,Gelderland,VBO,5.280598,51.869598
J.H. L.-van Herwaardenstraat,53,,,4194VJ,Meteren,Geldermalsen,Gelderland,VBO,5.280540,51.869643
J.H. L.-van Herwaardenstraat,55,,,4194VJ,Meteren,Geldermalsen,Gelderland,VBO,5.280511,51.869688
J.H. L.-van Herwaardenstraat,57,,,4194VJ,Meteren,Geldermalsen,Gelderland,VBO,5.280496,51.869742
J.H. L.-van Herwaardenstraat,59,,,4194VJ,Meteren,Geldermalsen,Gelderland,VBO,5.280482,51.869796
J.H. L.-van Herwaardenstraat,61,,,4194VJ,Meteren,Geldermalsen,Gelderland,VBO,5.280496,51.869859
J.H. L.-van Herwaardenstraat,63,,,4194VJ,Meteren,Geldermalsen,Gelderland,VBO,5.280496,51.869913
J.H. L.-van Herwaardenstraat,65,,,4194VJ,Meteren,Geldermalsen,Gelderland,VBO,5.280525,51.869949
J.H. L.-van Herwaardenstraat,67,,,4194VJ,Meteren,Geldermalsen,Gelderland,VBO,5.280539,51.870021
J.H. L.-van Herwaardenstraat,69,,,4194VJ,Meteren,Geldermalsen,Gelderland,VBO,5.280554,51.870066
J.H. L.-van Herwaardenstraat,71,,,4194VJ,Meteren,Geldermalsen,Gelderland,VBO,5.280597,51.870120
J.H. L.-van Herwaardenstraat,73,,,4194VJ,Meteren,Geldermalsen,Gelderland,VBO,5.280597,51.870164
J.H. L.-van Herwaardenstraat,75,,,4194VJ,Meteren,Geldermalsen,Gelderland,VBO,5.280611,51.870200
J.H. L.-van Herwaardenstraat,77,,,4194VJ,Meteren,Geldermalsen,Gelderland,VBO,5.280626,51.870254
J.H. L.-van Herwaardenstraat,79,,,4194VK,Meteren,Geldermalsen,Gelderland,VBO,5.280147,51.870317
J.H. L.-van Herwaardenstraat,81,,,4194VK,Meteren,Geldermalsen,Gelderland,VBO,5.280132,51.870263
J.H. L.-van Herwaardenstraat,83,,,4194VK,Meteren,Geldermalsen,Gelderland,VBO,5.280089,51.870164
J.H. L.-van Herwaardenstraat,85,,,4194VK,Meteren,Geldermalsen,Gelderland,VBO,5.280074,51.870110
J.H. L.-van Herwaardenstraat,87,,,4194VK,Meteren,Geldermalsen,Gelderland,VBO,5.280031,51.870002
J.H. L.-van Herwaardenstraat,89,,,4194VK,Meteren,Geldermalsen,Gelderland,VBO,5.280017,51.869957
J.H. L.-van Herwaardenstraat,91,,,4194VK,Meteren,Geldermalsen,Gelderland,VBO,5.279973,51.869849
J.H. L.-van Herwaardenstraat,93,,,4194VK,Meteren,Geldermalsen,Gelderland,VBO,5.279945,51.869795
J.H. L.-van Herwaardenstraat,95,,,4194VK,Meteren,Geldermalsen,Gelderland,VBO,5.279887,51.869696
J.H. L.-van Herwaardenstraat,97,,,4194VK,Meteren,Geldermalsen,Gelderland,VBO,5.279858,51.869651
J.H. L.-van Herwaardenstraat,99,,,4194VK,Meteren,Geldermalsen,Gelderland,VBO,5.279785,51.869544
J.H. L.-van Herwaardenstraat,101,,,4194VK,Meteren,Geldermalsen,Gelderland,VBO,5.279786,51.869490
J.H. L.-van Herwaardenstraat,6,,,4194VL,Meteren,Geldermalsen,Gelderland,VBO,5.279783,51.870460
J.H. L.-van Herwaardenstraat,8,,,4194VL,Meteren,Geldermalsen,Gelderland,VBO,5.279769,51.870406
J.H. L.-van Herwaardenstraat,10,,,4194VL,Meteren,Geldermalsen,Gelderland,VBO,5.279711,51.870298
J.H. L.-van Herwaardenstraat,12,,,4194VL,Meteren,Geldermalsen,Gelderland,VBO,5.279682,51.870254
J.H. L.-van Herwaardenstraat,14,,,4194VL,Meteren,Geldermalsen,Gelderland,VBO,5.279653,51.870146
J.H. L.-van Herwaardenstraat,16,,,4194VL,Meteren,Geldermalsen,Gelderland,VBO,5.279639,51.870092
J.H. L.-van Herwaardenstraat,18,,,4194VL,Meteren,Geldermalsen,Gelderland,VBO,5.279567,51.869966
J.H. L.-van Herwaardenstraat,20,,,4194VL,Meteren,Geldermalsen,Gelderland,VBO,5.279567,51.869921
J.H. L.-van Herwaardenstraat,22,,,4194VL,Meteren,Geldermalsen,Gelderland,VBO,5.279451,51.869804
J.H. L.-van Herwaardenstraat,24,,,4194VL,Meteren,Geldermalsen,Gelderland,VBO,5.279465,51.869750
J.H. L.-van Herwaardenstraat,26,,,4194VL,Meteren,Geldermalsen,Gelderland,VBO,5.279437,51.869642
J.H. L.-van Herwaardenstraat,28,,,4194VL,Meteren,Geldermalsen,Gelderland,VBO,5.279393,51.869606
G.H.C.F. Siebrandsstraat,1,,,4194VM,Meteren,Geldermalsen,Gelderland,VBO,5.280089,51.869039
G.H.C.F. Siebrandsstraat,2,,,4194VM,Meteren,Geldermalsen,Gelderland,VBO,5.280643,51.869113
G.H.C.F. Siebrandsstraat,3,,,4194VM,Meteren,Geldermalsen,Gelderland,VBO,5.279844,51.869157
G.H.C.F. Siebrandsstraat,4,,,4194VM,Meteren,Geldermalsen,Gelderland,VBO,5.280541,51.869140
G.H.C.F. Siebrandsstraat,5,,,4194VM,Meteren,Geldermalsen,Gelderland,VBO,5.279626,51.869247
G.H.C.F. Siebrandsstraat,6,,,4194VM,Meteren,Geldermalsen,Gelderland,VBO,5.280367,51.869256
G.H.C.F. Siebrandsstraat,7,,,4194VM,Meteren,Geldermalsen,Gelderland,VBO,5.279379,51.869309
G.H.C.F. Siebrandsstraat,8,,,4194VM,Meteren,Geldermalsen,Gelderland,VBO,5.280323,51.869292
G.H.C.F. Siebrandsstraat,9,,,4194VM,Meteren,Geldermalsen,Gelderland,VBO,5.279132,51.869381
G.H.C.F. Siebrandsstraat,10,,,4194VM,Meteren,Geldermalsen,Gelderland,VBO,5.280192,51.869364
G.H.C.F. Siebrandsstraat,11,,,4194VM,Meteren,Geldermalsen,Gelderland,VBO,5.278767,51.869510
G.H.C.F. Siebrandsstraat,12,,,4194VM,Meteren,Geldermalsen,Gelderland,VBO,5.280120,51.869382
G.H.C.F. Siebrandsstraat,13,,,4194VM,Meteren,Geldermalsen,Gelderland,VBO,5.278520,51.869545
G.H.C.F. Siebrandsstraat,15,,,4194VM,Meteren,Geldermalsen,Gelderland,VBO,5.278245,51.869600
G.H.C.F. Siebrandsstraat,17,,,4194VM,Meteren,Geldermalsen,Gelderland,VBO,5.278007,51.869683
G.H.C.F. Siebrandsstraat,19,,,4194VM,Meteren,Geldermalsen,Gelderland,VBO,5.277685,51.869698
G.H.C.F. Siebrandsstraat,21,,,4194VM,Meteren,Geldermalsen,Gelderland,VBO,5.277488,51.869751
G.H.C.F. Siebrandsstraat,23,,,4194VM,Meteren,Geldermalsen,Gelderland,VBO,5.277193,51.869819
G.H.C.F. Siebrandsstraat,25,,,4194VM,Meteren,Geldermalsen,Gelderland,VBO,5.276900,51.869884
Verlengde Bredestraat,1,,,4194VN,Meteren,Geldermalsen,Gelderland,VBO,5.280803,51.869050
Verlengde Bredestraat,3,,,4194VN,Meteren,Geldermalsen,Gelderland,VBO,5.280890,51.869032
Verlengde Bredestraat,5,,,4194VN,Meteren,Geldermalsen,Gelderland,VBO,5.281079,51.868996
Verlengde Bredestraat,7,,,4194VN,Meteren,Geldermalsen,Gelderland,VBO,5.281152,51.868979
Verlengde Bredestraat,9,,,4194VN,Meteren,Geldermalsen,Gelderland,VBO,5.281326,51.868952
Verlengde Bredestraat,11,,,4194VN,Meteren,Geldermalsen,Gelderland,VBO,5.281398,51.868943
Verlengde Bredestraat,13,,,4194VN,Meteren,Geldermalsen,Gelderland,VBO,5.281573,51.868916
Verlengde Bredestraat,15,,,4194VN,Meteren,Geldermalsen,Gelderland,VBO,5.281645,51.868907
Verlengde Bredestraat,17,,,4194VN,Meteren,Geldermalsen,Gelderland,VBO,5.281820,51.868880
Verlengde Bredestraat,19,,,4194VN,Meteren,Geldermalsen,Gelderland,VBO,5.281907,51.868862
Verlengde Bredestraat,21,,,4194VN,Meteren,Geldermalsen,Gelderland,VBO,5.282081,51.868845
Verlengde Bredestraat,23,,,4194VN,Meteren,Geldermalsen,Gelderland,VBO,5.282168,51.868836
Verlengde Bredestraat,25,,,4194VN,Meteren,Geldermalsen,Gelderland,VBO,5.282343,51.868800
Verlengde Bredestraat,27,,,4194VN,Meteren,Geldermalsen,Gelderland,VBO,5.282444,51.868809
Verlengde Bredestraat,2,,,4194VP,Meteren,Geldermalsen,Gelderland,VBO,5.281603,51.868530
Verlengde Bredestraat,4,,,4194VP,Meteren,Geldermalsen,Gelderland,VBO,5.281922,51.868431
Verlengde Bredestraat,6,,,4194VP,Meteren,Geldermalsen,Gelderland,VBO,5.282111,51.868440
Verlengde Bredestraat,8,,,4194VP,Meteren,Geldermalsen,Gelderland,VBO,5.282373,51.868422
Verlengde Bredestraat,10,,,4194VP,Meteren,Geldermalsen,Gelderland,VBO,5.282344,51.868171
F.A. Wonninkstraat,1,,,4194VS,Meteren,Geldermalsen,Gelderland,VBO,5.277837,51.870638
F.A. Wonninkstraat,3,,,4194VS,Meteren,Geldermalsen,Gelderland,VBO,5.277823,51.870584
F.A. Wonninkstraat,5,,,4194VS,Meteren,Geldermalsen,Gelderland,VBO,5.277808,51.870539
F.A. Wonninkstraat,7,,,4194VS,Meteren,Geldermalsen,Gelderland,VBO,5.277779,51.870476
F.A. Wonninkstraat,9,,,4194VS,Meteren,Geldermalsen,Gelderland,VBO,5.277751,51.870414
F.A. Wonninkstraat,11,,,4194VS,Meteren,Geldermalsen,Gelderland,VBO,5.277794,51.870351
F.A. Wonninkstraat,13,,,4194VS,Meteren,Geldermalsen,Gelderland,VBO,5.277881,51.870324
F.A. Wonninkstraat,15,,,4194VS,Meteren,Geldermalsen,Gelderland,VBO,5.277998,51.870324
F.A. Wonninkstraat,17,,,4194VS,Meteren,Geldermalsen,Gelderland,VBO,5.278085,51.870360
F.A. Wonninkstraat,19,,,4194VS,Meteren,Geldermalsen,Gelderland,VBO,5.278113,51.870423
F.A. Wonninkstraat,21,,,4194VS,Meteren,Geldermalsen,Gelderland,VBO,5.278142,51.870486
F.A. Wonninkstraat,23,,,4194VS,Meteren,Geldermalsen,Gelderland,VBO,5.278157,51.870540
F.A. Wonninkstraat,25,,,4194VS,Meteren,Geldermalsen,Gelderland,VBO,5.278171,51.870594
F.A. Wonninkstraat,27,,,4194VS,Meteren,Geldermalsen,Gelderland,VBO,5.278098,51.870666
F.A. Wonninkstraat,2,,,4194VT,Meteren,Geldermalsen,Gelderland,VBO,5.279057,51.870478
F.A. Wonninkstraat,4,,,4194VT,Meteren,Geldermalsen,Gelderland,VBO,5.279014,51.870487
F.A. Wonninkstraat,6,,,4194VT,Meteren,Geldermalsen,Gelderland,VBO,5.278970,51.870487
F.A. Wonninkstraat,8,,,4194VT,Meteren,Geldermalsen,Gelderland,VBO,5.278912,51.870496
F.A. Wonninkstraat,10,,,4194VT,Meteren,Geldermalsen,Gelderland,VBO,5.278868,51.870504
F.A. Wonninkstraat,12,,,4194VT,Meteren,Geldermalsen,Gelderland,VBO,5.278825,51.870513
F.A. Wonninkstraat,14,,,4194VT,Meteren,Geldermalsen,Gelderland,VBO,5.278781,51.870522
F.A. Wonninkstraat,16,,,4194VT,Meteren,Geldermalsen,Gelderland,VBO,5.278738,51.870522
F.A. Wonninkstraat,18,,,4194VT,Meteren,Geldermalsen,Gelderland,VBO,5.278694,51.870531
F.A. Wonninkstraat,20,,,4194VT,Meteren,Geldermalsen,Gelderland,VBO,5.278650,51.870540
F.A. Wonninkstraat,22,,,4194VT,Meteren,Geldermalsen,Gelderland,VBO,5.278607,51.870540
F.A. Wonninkstraat,24,,,4194VT,Meteren,Geldermalsen,Gelderland,VBO,5.278563,51.870549
F.A. Wonninkstraat,26,,,4194VT,Meteren,Geldermalsen,Gelderland,VBO,5.278520,51.870387
F.A. Wonninkstraat,28,,,4194VT,Meteren,Geldermalsen,Gelderland,VBO,5.278506,51.870342
F.A. Wonninkstraat,30,,,4194VT,Meteren,Geldermalsen,Gelderland,VBO,5.278491,51.870288
F.A. Wonninkstraat,32,,,4194VT,Meteren,Geldermalsen,Gelderland,VBO,5.278477,51.870243
F.A. Wonninkstraat,34,,,4194VT,Meteren,Geldermalsen,Gelderland,VBO,5.278463,51.870198
F.A. Wonninkstraat,36,,,4194VT,Meteren,Geldermalsen,Gelderland,VBO,5.278434,51.870154
F.A. Wonninkstraat,38,,,4194VT,Meteren,Geldermalsen,Gelderland,VBO,5.278419,51.870109
F.A. Wonninkstraat,40,,,4194VT,Meteren,Geldermalsen,Gelderland,VBO,5.278405,51.870055
F.A. Wonninkstraat,42,,,4194VT,Meteren,Geldermalsen,Gelderland,VBO,5.278405,51.870010
F.A. Wonninkstraat,44,,,4194VT,Meteren,Geldermalsen,Gelderland,VBO,5.278390,51.869974
F.A. Wonninkstraat,46,,,4194VT,Meteren,Geldermalsen,Gelderland,VBO,5.278376,51.869938
F.A. Wonninkstraat,48,,,4194VT,Meteren,Geldermalsen,Gelderland,VBO,5.278362,51.869911
F.A. Wonninkstraat,50,,,4194VT,Meteren,Geldermalsen,Gelderland,VBO,5.278362,51.869884
F.A. Wonninkstraat,52,,,4194VT,Meteren,Geldermalsen,Gelderland,VBO,5.278347,51.869857
F.A. Wonninkstraat,54,,,4194VT,Meteren,Geldermalsen,Gelderland,VBO,5.278333,51.869839
F.A. Wonninkstraat,56,,,4194VV,Meteren,Geldermalsen,Gelderland,VBO,5.278754,51.869785
F.A. Wonninkstraat,58,,,4194VV,Meteren,Geldermalsen,Gelderland,VBO,5.278768,51.869812
F.A. Wonninkstraat,60,,,4194VV,Meteren,Geldermalsen,Gelderland,VBO,5.278797,51.869857
F.A. Wonninkstraat,62,,,4194VV,Meteren,Geldermalsen,Gelderland,VBO,5.278826,51.869884
F.A. Wonninkstraat,64,,,4194VV,Meteren,Geldermalsen,Gelderland,VBO,5.278841,51.869902
F.A. Wonninkstraat,66,,,4194VV,Meteren,Geldermalsen,Gelderland,VBO,5.278781,51.869831
F.A. Wonninkstraat,68,,,4194VV,Meteren,Geldermalsen,Gelderland,VBO,5.278855,51.869938
F.A. Wonninkstraat,70,,,4194VV,Meteren,Geldermalsen,Gelderland,VBO,5.278870,51.869992
F.A. Wonninkstraat,72,,,4194VV,Meteren,Geldermalsen,Gelderland,VBO,5.278884,51.870028
F.A. Wonninkstraat,74,,,4194VV,Meteren,Geldermalsen,Gelderland,VBO,5.278898,51.870082
F.A. Wonninkstraat,76,,,4194VV,Meteren,Geldermalsen,Gelderland,VBO,5.278913,51.870127
F.A. Wonninkstraat,78,,,4194VV,Meteren,Geldermalsen,Gelderland,VBO,5.278942,51.870181
F.A. Wonninkstraat,80,,,4194VV,Meteren,Geldermalsen,Gelderland,VBO,5.278971,51.870226
F.A. Wonninkstraat,82,,,4194VV,Meteren,Geldermalsen,Gelderland,VBO,5.278971,51.870271
F.A. Wonninkstraat,84,,,4194VV,Meteren,Geldermalsen,Gelderland,VBO,5.278956,51.870307
L. Wildschutstraat,1,,,4194VW,Meteren,Geldermalsen,Gelderland,VBO,5.279679,51.871485
L. Wildschutstraat,3,,,4194VW,Meteren,Geldermalsen,Gelderland,VBO,5.279606,51.871503
L. Wildschutstraat,5,,,4194VW,Meteren,Geldermalsen,Gelderland,VBO,5.279519,51.871521
L. Wildschutstraat,7,,,4194VW,Meteren,Geldermalsen,Gelderland,VBO,5.279461,51.871530
L. Wildschutstraat,9,,,4194VW,Meteren,Geldermalsen,Gelderland,VBO,5.279389,51.871548
L. Wildschutstraat,11,,,4194VW,Meteren,Geldermalsen,Gelderland,VBO,5.279301,51.871556
L. Wildschutstraat,13,,,4194VW,Meteren,Geldermalsen,Gelderland,VBO,5.279229,51.871574
L. Wildschutstraat,15,,,4194VW,Meteren,Geldermalsen,Gelderland,VBO,5.279142,51.871574
L. Wildschutstraat,17,,,4194VW,Meteren,Geldermalsen,Gelderland,VBO,5.279055,51.871574
L. Wildschutstraat,19,,,4194VW,Meteren,Geldermalsen,Gelderland,VBO,5.278938,51.871574
L. Wildschutstraat,21,,,4194VW,Meteren,Geldermalsen,Gelderland,VBO,5.278880,51.871583
L. Wildschutstraat,23,,,4194VW,Meteren,Geldermalsen,Gelderland,VBO,5.278793,51.871583
L. Wildschutstraat,25,,,4194VW,Meteren,Geldermalsen,Gelderland,VBO,5.278706,51.871583
L. Wildschutstraat,27,,,4194VW,Meteren,Geldermalsen,Gelderland,VBO,5.278619,51.871574
L. Wildschutstraat,29,,,4194VW,Meteren,Geldermalsen,Gelderland,VBO,5.278546,51.871565
L. Wildschutstraat,31,,,4194VW,Meteren,Geldermalsen,Gelderland,VBO,5.278488,51.871556
L. Wildschutstraat,33,,,4194VW,Meteren,Geldermalsen,Gelderland,VBO,5.278401,51.871547
L. Wildschutstraat,35,,,4194VW,Meteren,Geldermalsen,Gelderland,VBO,5.278300,51.871538
L. Wildschutstraat,37,,,4194VW,Meteren,Geldermalsen,Gelderland,VBO,5.278024,51.871438
L. Wildschutstraat,39,,,4194VW,Meteren,Geldermalsen,Gelderland,VBO,5.277966,51.871420
L. Wildschutstraat,41,,,4194VW,Meteren,Geldermalsen,Gelderland,VBO,5.277893,51.871393
L. Wildschutstraat,43,,,4194VW,Meteren,Geldermalsen,Gelderland,VBO,5.277864,51.871357
L. Wildschutstraat,45,,,4194VW,Meteren,Geldermalsen,Gelderland,VBO,5.277806,51.871330
L. Wildschutstraat,47,,,4194VW,Meteren,Geldermalsen,Gelderland,VBO,5.277777,51.871303
L. Wildschutstraat,49,,,4194VW,Meteren,Geldermalsen,Gelderland,VBO,5.277734,51.871276
L. Wildschutstraat,51,,,4194VW,Meteren,Geldermalsen,Gelderland,VBO,5.277719,51.871249
L. Wildschutstraat,53,,,4194VW,Meteren,Geldermalsen,Gelderland,VBO,5.277690,51.871231
L. Wildschutstraat,55,,,4194VW,Meteren,Geldermalsen,Gelderland,VBO,5.277676,51.871213
L. Wildschutstraat,57,,,4194VW,Meteren,Geldermalsen,Gelderland,VBO,5.277647,51.871222
L. Wildschutstraat,59,,,4194VW,Meteren,Geldermalsen,Gelderland,VBO,5.277676,51.871258
L. Wildschutstraat,61,,,4194VX,Meteren,Geldermalsen,Gelderland,VBO,5.277430,51.870944
L. Wildschutstraat,63,,,4194VX,Meteren,Geldermalsen,Gelderland,VBO,5.277415,51.870899
L. Wildschutstraat,65,,,4194VX,Meteren,Geldermalsen,Gelderland,VBO,5.277401,51.870863
L. Wildschutstraat,67,,,4194VX,Meteren,Geldermalsen,Gelderland,VBO,5.277372,51.870818
L. Wildschutstraat,69,,,4194VX,Meteren,Geldermalsen,Gelderland,VBO,5.277358,51.870764
L. Wildschutstraat,71,,,4194VX,Meteren,Geldermalsen,Gelderland,VBO,5.277329,51.870719
L. Wildschutstraat,73,,,4194VX,Meteren,Geldermalsen,Gelderland,VBO,5.277314,51.870665
L. Wildschutstraat,75,,,4194VX,Meteren,Geldermalsen,Gelderland,VBO,5.277300,51.870611
L. Wildschutstraat,77,,,4194VX,Meteren,Geldermalsen,Gelderland,VBO,5.277286,51.870557
L. Wildschutstraat,79,,,4194VX,Meteren,Geldermalsen,Gelderland,VBO,5.277257,51.870494
L. Wildschutstraat,81,,,4194VX,Meteren,Geldermalsen,Gelderland,VBO,5.277257,51.870458
L. Wildschutstraat,83,,,4194VX,Meteren,Geldermalsen,Gelderland,VBO,5.277242,51.870395
L. Wildschutstraat,85,,,4194VX,Meteren,Geldermalsen,Gelderland,VBO,5.277228,51.870350
L. Wildschutstraat,87,,,4194VX,Meteren,Geldermalsen,Gelderland,VBO,5.277228,51.870305
L. Wildschutstraat,89,,,4194VX,Meteren,Geldermalsen,Gelderland,VBO,5.277214,51.870251
L. Wildschutstraat,91,,,4194VX,Meteren,Geldermalsen,Gelderland,VBO,5.277214,51.870206
L. Wildschutstraat,93,,,4194VX,Meteren,Geldermalsen,Gelderland,VBO,5.277214,51.870161
L. Wildschutstraat,95,,,4194VX,Meteren,Geldermalsen,Gelderland,VBO,5.277199,51.870107
L. Wildschutstraat,2,,,4194VZ,Meteren,Geldermalsen,Gelderland,VBO,5.278835,51.871265
L. Wildschutstraat,4,,,4194VZ,Meteren,Geldermalsen,Gelderland,VBO,5.278951,51.871280
L. Wildschutstraat,6,,,4194VZ,Meteren,Geldermalsen,Gelderland,VBO,5.279039,51.871260
L. Wildschutstraat,8,,,4194VZ,Meteren,Geldermalsen,Gelderland,VBO,5.279114,51.871249
L. Wildschutstraat,10,,,4194VZ,Meteren,Geldermalsen,Gelderland,VBO,5.279209,51.871236
L. Wildschutstraat,12,,,4194VZ,Meteren,Geldermalsen,Gelderland,VBO,5.279216,51.871226
L. Wildschutstraat,14,,,4194VZ,Meteren,Geldermalsen,Gelderland,VBO,5.279244,51.871225
L. Wildschutstraat,16,,,4194VZ,Meteren,Geldermalsen,Gelderland,VBO,5.279231,51.871230
L. Wildschutstraat,18,,,4194VZ,Meteren,Geldermalsen,Gelderland,VBO,5.279271,51.871217
L. Wildschutstraat,20,,,4194VZ,Meteren,Geldermalsen,Gelderland,VBO,5.279308,51.871211
L. Wildschutstraat,22,,,4194VZ,Meteren,Geldermalsen,Gelderland,VBO,5.279330,51.871154
L. Wildschutstraat,24,,,4194VZ,Meteren,Geldermalsen,Gelderland,VBO,5.279304,51.871115
L. Wildschutstraat,26,,,4194VZ,Meteren,Geldermalsen,Gelderland,VBO,5.279273,51.871063
L. Wildschutstraat,28,,,4194VZ,Meteren,Geldermalsen,Gelderland,VBO,5.279203,51.871042
L. Wildschutstraat,30,,,4194VZ,Meteren,Geldermalsen,Gelderland,VBO,5.279115,51.871056
L. Wildschutstraat,32,,,4194VZ,Meteren,Geldermalsen,Gelderland,VBO,5.278967,51.871088
L. Wildschutstraat,34,,,4194VZ,Meteren,Geldermalsen,Gelderland,VBO,5.278844,51.871106
L. Wildschutstraat,36,,,4194VZ,Meteren,Geldermalsen,Gelderland,VBO,5.278791,51.871155
L. Wildschutstraat,38,,,4194VZ,Meteren,Geldermalsen,Gelderland,VBO,5.278699,51.871144
L. Wildschutstraat,40,,,4194VZ,Meteren,Geldermalsen,Gelderland,VBO,5.278736,51.871220
L. Wildschutstraat,42,,,4194VZ,Meteren,Geldermalsen,Gelderland,VBO,5.278839,51.871316
L. Wildschutstraat,44,,,4194VZ,Meteren,Geldermalsen,Gelderland,VBO,5.278936,51.871348
L. Wildschutstraat,46,,,4194VZ,Meteren,Geldermalsen,Gelderland,VBO,5.279160,51.871298
L. Wildschutstraat,48,,,4194VZ,Meteren,Geldermalsen,Gelderland,VBO,5.279314,51.871278
L. Wildschutstraat,50,a,,4194VZ,Meteren,Geldermalsen,Gelderland,VBO,5.279343,51.871036
L. Wildschutstraat,50,b,,4194VZ,Meteren,Geldermalsen,Gelderland,VBO,5.279376,51.871147
L. Wildschutstraat,50,c,,4194VZ,Meteren,Geldermalsen,Gelderland,VBO,5.279364,51.871098
L. Wildschutstraat,50,d,,4194VZ,Meteren,Geldermalsen,Gelderland,VBO,5.279385,51.871161
L. Wildschutstraat,50,,,4194VZ,Meteren,Geldermalsen,Gelderland,VBO,5.279356,51.871270
L. Wildschutstraat,52,,,4194VZ,Meteren,Geldermalsen,Gelderland,VBO,5.279422,51.871188
L. Wildschutstraat,54,,,4194VZ,Meteren,Geldermalsen,Gelderland,VBO,5.279370,51.871032
L. Wildschutstraat,56,,,4194VZ,Meteren,Geldermalsen,Gelderland,VBO,5.279231,51.870980
L. Wildschutstraat,58,,,4194VZ,Meteren,Geldermalsen,Gelderland,VBO,5.279093,51.870989
W.J. van der Hooftstraat,1,,,4194WB,Meteren,Geldermalsen,Gelderland,VBO,5.275752,51.870295
W.J. van der Hooftstraat,3,,,4194WB,Meteren,Geldermalsen,Gelderland,VBO,5.275472,51.870371
W.J. van der Hooftstraat,5,,,4194WB,Meteren,Geldermalsen,Gelderland,VBO,5.275167,51.870443
W.J. van der Hooftstraat,7,,,4194WB,Meteren,Geldermalsen,Gelderland,VBO,5.274935,51.870535
W.J. van der Hooftstraat,9,,,4194WB,Meteren,Geldermalsen,Gelderland,VBO,5.274486,51.870682
W.J. van der Hooftstraat,11,,,4194WC,Meteren,Geldermalsen,Gelderland,VBO,5.276087,51.873387
W.J. van der Hooftstraat,13,,,4194WC,Meteren,Geldermalsen,Gelderland,VBO,5.276321,51.873481
W.J. van der Hooftstraat,15,,,4194WC,Meteren,Geldermalsen,Gelderland,VBO,5.276562,51.873542
W.J. van der Hooftstraat,17,,,4194WC,Meteren,Geldermalsen,Gelderland,VBO,5.276833,51.873615
W.J. van der Hooftstraat,19,,,4194WC,Meteren,Geldermalsen,Gelderland,VBO,5.277103,51.873695
W.J. van der Hooftstraat,23,,,4194WC,Meteren,Geldermalsen,Gelderland,VBO,5.277525,51.873703
W.J. van der Hooftstraat,25,,,4194WC,Meteren,Geldermalsen,Gelderland,VBO,5.277655,51.873685
W.J. van der Hooftstraat,27,,,4194WC,Meteren,Geldermalsen,Gelderland,VBO,5.277786,51.873649
W.J. van der Hooftstraat,29,,,4194WC,Meteren,Geldermalsen,Gelderland,VBO,5.277917,51.873596
W.J. van der Hooftstraat,31,,,4194WC,Meteren,Geldermalsen,Gelderland,VBO,5.278004,51.873551
W.J. van der Hooftstraat,33,,,4194WC,Meteren,Geldermalsen,Gelderland,VBO,5.278120,51.873524
W.J. van der Hooftstraat,35,,,4194WC,Meteren,Geldermalsen,Gelderland,VBO,5.278208,51.873479
W.J. van der Hooftstraat,37,,,4194WC,Meteren,Geldermalsen,Gelderland,VBO,5.278339,51.873416
W.J. van der Hooftstraat,39,,,4194WC,Meteren,Geldermalsen,Gelderland,VBO,5.278426,51.873371
W.J. van der Hooftstraat,41,,,4194WC,Meteren,Geldermalsen,Gelderland,VBO,5.278557,51.873273
W.J. van der Hooftstraat,43,,,4194WC,Meteren,Geldermalsen,Gelderland,VBO,5.278557,51.873228
W.J. van der Hooftstraat,45,,,4194WC,Meteren,Geldermalsen,Gelderland,VBO,5.278586,51.873129
W.J. van der Hooftstraat,47,,,4194WC,Meteren,Geldermalsen,Gelderland,VBO,5.278601,51.873048
W.J. van der Hooftstraat,49,,,4194WC,Meteren,Geldermalsen,Gelderland,VBO,5.278616,51.872976
W.J. van der Hooftstraat,51,,,4194WC,Meteren,Geldermalsen,Gelderland,VBO,5.278645,51.872913
W.J. van der Hooftstraat,53,,,4194WC,Meteren,Geldermalsen,Gelderland,VBO,5.278659,51.872814
W.J. van der Hooftstraat,2,,,4194WD,Meteren,Geldermalsen,Gelderland,VBO,5.274538,51.870941
W.J. van der Hooftstraat,4,,,4194WD,Meteren,Geldermalsen,Gelderland,VBO,5.274621,51.871126
W.J. van der Hooftstraat,6,,,4194WD,Meteren,Geldermalsen,Gelderland,VBO,5.274731,51.871301
W.J. van der Hooftstraat,8,,,4194WD,Meteren,Geldermalsen,Gelderland,VBO,5.274816,51.871459
W.J. van der Hooftstraat,10,,,4194WD,Meteren,Geldermalsen,Gelderland,VBO,5.274981,51.871611
W.J. van der Hooftstraat,12,,,4194WD,Meteren,Geldermalsen,Gelderland,VBO,5.275102,51.871758
W.J. van der Hooftstraat,14,,,4194WD,Meteren,Geldermalsen,Gelderland,VBO,5.275554,51.872092
W.J. van der Hooftstraat,16,,,4194WD,Meteren,Geldermalsen,Gelderland,VBO,5.275713,51.872227
W.J. van der Hooftstraat,18,,,4194WD,Meteren,Geldermalsen,Gelderland,VBO,5.275858,51.872407
W.J. van der Hooftstraat,20,,,4194WD,Meteren,Geldermalsen,Gelderland,VBO,5.275887,51.872569
W.J. van der Hooftstraat,22,,,4194WD,Meteren,Geldermalsen,Gelderland,VBO,5.275944,51.872740
W.J. van der Hooftstraat,24,,,4194WD,Meteren,Geldermalsen,Gelderland,VBO,5.276089,51.872974
W.J. van der Hooftstraat,26,,,4194WD,Meteren,Geldermalsen,Gelderland,VBO,5.276147,51.873037
W.J. van der Hooftstraat,28,,,4194WD,Meteren,Geldermalsen,Gelderland,VBO,5.276234,51.873109
W.J. van der Hooftstraat,30,,,4194WD,Meteren,Geldermalsen,Gelderland,VBO,5.276335,51.873181
W.J. van der Hooftstraat,32,,,4194WD,Meteren,Geldermalsen,Gelderland,VBO,5.276466,51.873235
W.J. van der Hooftstraat,34,,,4194WD,Meteren,Geldermalsen,Gelderland,VBO,5.276625,51.873271
W.J. van der Hooftstraat,36,,,4194WD,Meteren,Geldermalsen,Gelderland,VBO,5.276756,51.873298
W.J. van der Hooftstraat,38,,,4194WD,Meteren,Geldermalsen,Gelderland,VBO,5.276916,51.873334
W.J. van der Hooftstraat,40,,,4194WD,Meteren,Geldermalsen,Gelderland,VBO,5.277032,51.873361
W.J. van der Hooftstraat,42,,,4194WD,Meteren,Geldermalsen,Gelderland,VBO,5.277162,51.873379
W.J. van der Hooftstraat,44,,,4194WE,Meteren,Geldermalsen,Gelderland,VBO,5.277467,51.873424
W.J. van der Hooftstraat,46,,,4194WE,Meteren,Geldermalsen,Gelderland,VBO,5.277598,51.873398
W.J. van der Hooftstraat,48,,,4194WE,Meteren,Geldermalsen,Gelderland,VBO,5.277743,51.873335
W.J. van der Hooftstraat,50,,,4194WE,Meteren,Geldermalsen,Gelderland,VBO,5.277845,51.873281
W.J. van der Hooftstraat,52,,,4194WE,Meteren,Geldermalsen,Gelderland,VBO,5.277961,51.873236
W.J. van der Hooftstraat,54,,,4194WE,Meteren,Geldermalsen,Gelderland,VBO,5.278063,51.873182
W.J. van der Hooftstraat,56,,,4194WE,Meteren,Geldermalsen,Gelderland,VBO,5.278136,51.873119
W.J. van der Hooftstraat,58,,,4194WE,Meteren,Geldermalsen,Gelderland,VBO,5.278165,51.873030
W.J. van der Hooftstraat,60,,,4194WE,Meteren,Geldermalsen,Gelderland,VBO,5.278180,51.872940
W.J. van der Hooftstraat,62,,,4194WE,Meteren,Geldermalsen,Gelderland,VBO,5.278209,51.872850
W.J. van der Hooftstraat,64,,,4194WE,Meteren,Geldermalsen,Gelderland,VBO,5.278224,51.872769
J.H. Derksenstraat,1,,,4194WG,Meteren,Geldermalsen,Gelderland,VBO,5.279994,51.872766
J.H. Derksenstraat,3,,,4194WG,Meteren,Geldermalsen,Gelderland,VBO,5.280053,51.872914
J.H. Derksenstraat,5,,,4194WG,Meteren,Geldermalsen,Gelderland,VBO,5.280214,51.873132
J.H. Derksenstraat,7,,,4194WG,Meteren,Geldermalsen,Gelderland,VBO,5.279878,51.873256
J.H. Derksenstraat,9,,,4194WG,Meteren,Geldermalsen,Gelderland,VBO,5.279967,51.872447
J.H. Derksenstraat,11,,,4194WG,Meteren,Geldermalsen,Gelderland,VBO,5.279866,51.872447
J.H. Derksenstraat,13,,,4194WG,Meteren,Geldermalsen,Gelderland,VBO,5.279706,51.872483
J.H. Derksenstraat,15,,,4194WG,Meteren,Geldermalsen,Gelderland,VBO,5.279604,51.872501
J.H. Derksenstraat,17,,,4194WG,Meteren,Geldermalsen,Gelderland,VBO,5.279430,51.872518
J.H. Derksenstraat,19,,,4194WG,Meteren,Geldermalsen,Gelderland,VBO,5.279343,51.872527
J.H. Derksenstraat,21,,,4194WG,Meteren,Geldermalsen,Gelderland,VBO,5.279183,51.872536
J.H. Derksenstraat,23,,,4194WG,Meteren,Geldermalsen,Gelderland,VBO,5.279081,51.872545
J.H. Derksenstraat,25,,,4194WG,Meteren,Geldermalsen,Gelderland,VBO,5.278907,51.872554
J.H. Derksenstraat,27,,,4194WG,Meteren,Geldermalsen,Gelderland,VBO,5.278820,51.872554
J.H. Derksenstraat,29,,,4194WG,Meteren,Geldermalsen,Gelderland,VBO,5.278646,51.872545
J.H. Derksenstraat,31,,,4194WG,Meteren,Geldermalsen,Gelderland,VBO,5.278544,51.872536
J.H. Derksenstraat,33,,,4194WG,Meteren,Geldermalsen,Gelderland,VBO,5.278384,51.872526
J.H. Derksenstraat,35,,,4194WG,Meteren,Geldermalsen,Gelderland,VBO,5.278297,51.872517
J.H. Derksenstraat,37,,,4194WG,Meteren,Geldermalsen,Gelderland,VBO,5.278123,51.872499
J.H. Derksenstraat,39,,,4194WG,Meteren,Geldermalsen,Gelderland,VBO,5.278021,51.872481
J.H. Derksenstraat,41,,,4194WG,Meteren,Geldermalsen,Gelderland,VBO,5.277862,51.872445
J.H. Derksenstraat,43,,,4194WG,Meteren,Geldermalsen,Gelderland,VBO,5.277775,51.872418
J.H. Derksenstraat,45,,,4194WH,Meteren,Geldermalsen,Gelderland,VBO,5.277238,51.872274
J.H. Derksenstraat,47,,,4194WH,Meteren,Geldermalsen,Gelderland,VBO,5.277180,51.872229
J.H. Derksenstraat,49,,,4194WH,Meteren,Geldermalsen,Gelderland,VBO,5.277006,51.872175
J.H. Derksenstraat,51,,,4194WH,Meteren,Geldermalsen,Gelderland,VBO,5.276948,51.872139
J.H. Derksenstraat,53,,,4194WH,Meteren,Geldermalsen,Gelderland,VBO,5.276817,51.872067
J.H. Derksenstraat,55,,,4194WH,Meteren,Geldermalsen,Gelderland,VBO,5.276745,51.872022
J.H. Derksenstraat,57,,,4194WH,Meteren,Geldermalsen,Gelderland,VBO,5.276614,51.871940
J.H. Derksenstraat,59,,,4194WH,Meteren,Geldermalsen,Gelderland,VBO,5.276556,51.871895
J.H. Derksenstraat,61,,,4194WH,Meteren,Geldermalsen,Gelderland,VBO,5.276455,51.871823
J.H. Derksenstraat,63,,,4194WH,Meteren,Geldermalsen,Gelderland,VBO,5.276382,51.871787
J.H. Derksenstraat,65,,,4194WH,Meteren,Geldermalsen,Gelderland,VBO,5.276107,51.871419
J.H. Derksenstraat,67,,,4194WH,Meteren,Geldermalsen,Gelderland,VBO,5.276049,51.871365
J.H. Derksenstraat,69,,,4194WH,Meteren,Geldermalsen,Gelderland,VBO,5.275977,51.871266
J.H. Derksenstraat,71,,,4194WH,Meteren,Geldermalsen,Gelderland,VBO,5.275948,51.871203
J.H. Derksenstraat,73,,,4194WH,Meteren,Geldermalsen,Gelderland,VBO,5.275919,51.871095
J.H. Derksenstraat,75,,,4194WH,Meteren,Geldermalsen,Gelderland,VBO,5.275876,51.871041
J.H. Derksenstraat,77,,,4194WH,Meteren,Geldermalsen,Gelderland,VBO,5.275847,51.870933
J.H. Derksenstraat,79,,,4194WH,Meteren,Geldermalsen,Gelderland,VBO,5.275833,51.870888
J.H. Derksenstraat,81,,,4194WH,Meteren,Geldermalsen,Gelderland,VBO,5.275804,51.870789
J.H. Derksenstraat,83,,,4194WH,Meteren,Geldermalsen,Gelderland,VBO,5.275760,51.870735
J.H. Derksenstraat,85,,,4194WH,Meteren,Geldermalsen,Gelderland,VBO,5.275717,51.870627
J.H. Derksenstraat,87,,,4194WH,Meteren,Geldermalsen,Gelderland,VBO,5.275703,51.870573
J.H. Derksenstraat,2,,,4194WJ,Meteren,Geldermalsen,Gelderland,VBO,5.276613,51.872309
J.H. Derksenstraat,4,,,4194WJ,Meteren,Geldermalsen,Gelderland,VBO,5.276483,51.872264
J.H. Derksenstraat,6,,,4194WJ,Meteren,Geldermalsen,Gelderland,VBO,5.276396,51.872210
J.H. Derksenstraat,8,,,4194WJ,Meteren,Geldermalsen,Gelderland,VBO,5.276309,51.872138
J.H. Derksenstraat,10,,,4194WJ,Meteren,Geldermalsen,Gelderland,VBO,5.276207,51.872093
J.H. Derksenstraat,12,,,4194WJ,Meteren,Geldermalsen,Gelderland,VBO,5.276135,51.872012
J.H. Derksenstraat,14,,,4194WJ,Meteren,Geldermalsen,Gelderland,VBO,5.276048,51.871949
J.H. Derksenstraat,16,,,4194WJ,Meteren,Geldermalsen,Gelderland,VBO,5.275990,51.871886
J.H. Derksenstraat,18,,,4194WJ,Meteren,Geldermalsen,Gelderland,VBO,5.275657,51.871562
J.H. Derksenstraat,20,,,4194WJ,Meteren,Geldermalsen,Gelderland,VBO,5.275570,51.871391
J.H. Derksenstraat,22,,,4194WJ,Meteren,Geldermalsen,Gelderland,VBO,5.275523,51.871227
J.H. Derksenstraat,24,,,4194WJ,Meteren,Geldermalsen,Gelderland,VBO,5.275368,51.871058
J.H. Derksenstraat,26,,,4194WJ,Meteren,Geldermalsen,Gelderland,VBO,5.275310,51.870906
J.H. Derksenstraat,28,,,4194WJ,Meteren,Geldermalsen,Gelderland,VBO,5.275281,51.870753
J.A.L.J. van Meertenstraat,1,,,4194WK,Meteren,Geldermalsen,Gelderland,VBO,5.279182,51.872824
J.A.L.J. van Meertenstraat,3,,,4194WK,Meteren,Geldermalsen,Gelderland,VBO,5.279138,51.872985
J.A.L.J. van Meertenstraat,5,,,4194WK,Meteren,Geldermalsen,Gelderland,VBO,5.279109,51.873147
J.A.L.J. van Meertenstraat,7,,,4194WK,Meteren,Geldermalsen,Gelderland,VBO,5.279065,51.873309
J.A.L.J. van Meertenstraat,9,,,4194WK,Meteren,Geldermalsen,Gelderland,VBO,5.279035,51.873480
J.A.L.J. van Meertenstraat,11,,,4194WK,Meteren,Geldermalsen,Gelderland,VBO,5.278831,51.873615
J.A.L.J. van Meertenstraat,13,,,4194WK,Meteren,Geldermalsen,Gelderland,VBO,5.278619,51.873707
J.A.L.J. van Meertenstraat,15,,,4194WK,Meteren,Geldermalsen,Gelderland,VBO,5.278410,51.873803
J.A.L.J. van Meertenstraat,17,,,4194WK,Meteren,Geldermalsen,Gelderland,VBO,5.278182,51.873897
J.A.L.J. van Meertenstraat,19,,,4194WK,Meteren,Geldermalsen,Gelderland,VBO,5.277867,51.874017
J.A.L.J. van Meertenstraat,21,,,4194WK,Meteren,Geldermalsen,Gelderland,VBO,5.277526,51.873110
J.A.L.J. van Meertenstraat,23,,,4194WK,Meteren,Geldermalsen,Gelderland,VBO,5.277570,51.873038
J.A.L.J. van Meertenstraat,25,,,4194WK,Meteren,Geldermalsen,Gelderland,VBO,5.277599,51.872939
J.A.L.J. van Meertenstraat,27,,,4194WK,Meteren,Geldermalsen,Gelderland,VBO,5.277628,51.872840
J.A.L.J. van Meertenstraat,29,,,4194WK,Meteren,Geldermalsen,Gelderland,VBO,5.277687,51.872759
J.A.L.J. van Meertenstraat,31,,,4194WK,Meteren,Geldermalsen,Gelderland,VBO,5.277672,51.872670
J.A.L.J. van Meertenstraat,2,,,4194WL,Meteren,Geldermalsen,Gelderland,VBO,5.279602,51.872771
J.A.L.J. van Meertenstraat,4,,,4194WL,Meteren,Geldermalsen,Gelderland,VBO,5.279531,51.873012
J.A.L.J. van Meertenstraat,6,,,4194WL,Meteren,Geldermalsen,Gelderland,VBO,5.279500,51.873255
J.A.L.J. van Meertenstraat,8,,,4194WL,Meteren,Geldermalsen,Gelderland,VBO,5.277570,51.874124
J.A.L.J. van Meertenstraat,10,,,4194WL,Meteren,Geldermalsen,Gelderland,VBO,5.277319,51.873984
J.A.L.J. van Meertenstraat,12,,,4194WL,Meteren,Geldermalsen,Gelderland,VBO,5.276972,51.874116
J.A.L.J. van Meertenstraat,14,,,4194WL,Meteren,Geldermalsen,Gelderland,VBO,5.277226,51.873828
Laan 1940-1945,85,,,4194WN,Meteren,Geldermalsen,Gelderland,VBO,5.279693,51.871773
Laan 1940-1945,87,,,4194WN,Meteren,Geldermalsen,Gelderland,VBO,5.279548,51.871808
Laan 1940-1945,89,,,4194WN,Meteren,Geldermalsen,Gelderland,VBO,5.279446,51.871826
Laan 1940-1945,91,,,4194WN,Meteren,Geldermalsen,Gelderland,VBO,5.279301,51.871862
Laan 1940-1945,93,,,4194WN,Meteren,Geldermalsen,Gelderland,VBO,5.279214,51.871862
Laan 1940-1945,95,,,4194WN,Meteren,Geldermalsen,Gelderland,VBO,5.279054,51.871898
Laan 1940-1945,97,,,4194WN,Meteren,Geldermalsen,Gelderland,VBO,5.278952,51.871898
Laan 1940-1945,99,,,4194WN,Meteren,Geldermalsen,Gelderland,VBO,5.278792,51.871898
Laan 1940-1945,101,,,4194WN,Meteren,Geldermalsen,Gelderland,VBO,5.278691,51.871888
Laan 1940-1945,103,,,4194WN,Meteren,Geldermalsen,Gelderland,VBO,5.278531,51.871879
Laan 1940-1945,105,,,4194WN,Meteren,Geldermalsen,Gelderland,VBO,5.278444,51.871861
Laan 1940-1945,107,,,4194WN,Meteren,Geldermalsen,Gelderland,VBO,5.278284,51.871843
Laan 1940-1945,109,,,4194WN,Meteren,Geldermalsen,Gelderland,VBO,5.278197,51.871816
Laan 1940-1945,111,,,4194WN,Meteren,Geldermalsen,Gelderland,VBO,5.277791,51.871690
Laan 1940-1945,113,,,4194WN,Meteren,Geldermalsen,Gelderland,VBO,5.277704,51.871645
Laan 1940-1945,115,,,4194WN,Meteren,Geldermalsen,Gelderland,VBO,5.277544,51.871582
Laan 1940-1945,117,,,4194WN,Meteren,Geldermalsen,Gelderland,VBO,5.277486,51.871546
Laan 1940-1945,119,,,4194WN,Meteren,Geldermalsen,Gelderland,VBO,5.277341,51.871456
Laan 1940-1945,121,,,4194WN,Meteren,Geldermalsen,Gelderland,VBO,5.277283,51.871402
Laan 1940-1945,123,,,4194WP,Meteren,Geldermalsen,Gelderland,VBO,5.277066,51.871096
Laan 1940-1945,125,,,4194WP,Meteren,Geldermalsen,Gelderland,VBO,5.277008,51.871042
Laan 1940-1945,127,,,4194WP,Meteren,Geldermalsen,Gelderland,VBO,5.276951,51.870925
Laan 1940-1945,129,,,4194WP,Meteren,Geldermalsen,Gelderland,VBO,5.276922,51.870871
Laan 1940-1945,131,,,4194WP,Meteren,Geldermalsen,Gelderland,VBO,5.276893,51.870772
Laan 1940-1945,133,,,4194WP,Meteren,Geldermalsen,Gelderland,VBO,5.276879,51.870718
Laan 1940-1945,135,,,4194WP,Meteren,Geldermalsen,Gelderland,VBO,5.276835,51.870619
Laan 1940-1945,137,,,4194WP,Meteren,Geldermalsen,Gelderland,VBO,5.276806,51.870556
Laan 1940-1945,139,,,4194WP,Meteren,Geldermalsen,Gelderland,VBO,5.276778,51.870458
Laan 1940-1945,141,,,4194WP,Meteren,Geldermalsen,Gelderland,VBO,5.276734,51.870404
Laan 1940-1945,143,,,4194WP,Meteren,Geldermalsen,Gelderland,VBO,5.276705,51.870305
Laan 1940-1945,145,,,4194WP,Meteren,Geldermalsen,Gelderland,VBO,5.276705,51.870242
Laan 1940-1945,147,,,4194WP,Meteren,Geldermalsen,Gelderland,VBO,5.276575,51.869999
Laan 1940-1945,149,,,4194WP,Meteren,Geldermalsen,Gelderland,VBO,5.276546,51.869954
Laan 1940-1945,151,,,4194WP,Meteren,Geldermalsen,Gelderland,VBO,5.276474,51.869819
Laan 1940-1945,94,,,4194WR,Meteren,Geldermalsen,Gelderland,VBO,5.279794,51.872096
Laan 1940-1945,96,,,4194WR,Meteren,Geldermalsen,Gelderland,VBO,5.279707,51.872105
Laan 1940-1945,98,,,4194WR,Meteren,Geldermalsen,Gelderland,VBO,5.279547,51.872132
Laan 1940-1945,100,,,4194WR,Meteren,Geldermalsen,Gelderland,VBO,5.279460,51.872150
Laan 1940-1945,102,,,4194WR,Meteren,Geldermalsen,Gelderland,VBO,5.279300,51.872177
Laan 1940-1945,104,,,4194WR,Meteren,Geldermalsen,Gelderland,VBO,5.279213,51.872186
Laan 1940-1945,106,,,4194WR,Meteren,Geldermalsen,Gelderland,VBO,5.279053,51.872185
Laan 1940-1945,108,,,4194WR,Meteren,Geldermalsen,Gelderland,VBO,5.278966,51.872194
Laan 1940-1945,110,,,4194WR,Meteren,Geldermalsen,Gelderland,VBO,5.278806,51.872185
Laan 1940-1945,112,,,4194WR,Meteren,Geldermalsen,Gelderland,VBO,5.278719,51.872185
Laan 1940-1945,114,,,4194WR,Meteren,Geldermalsen,Gelderland,VBO,5.278559,51.872185
Laan 1940-1945,116,,,4194WR,Meteren,Geldermalsen,Gelderland,VBO,5.278487,51.872176
Laan 1940-1945,118,,,4194WR,Meteren,Geldermalsen,Gelderland,VBO,5.278313,51.872158
Laan 1940-1945,120,,,4194WR,Meteren,Geldermalsen,Gelderland,VBO,5.278225,51.872140
Laan 1940-1945,122,,,4194WR,Meteren,Geldermalsen,Gelderland,VBO,5.278051,51.872122
Laan 1940-1945,124,,,4194WR,Meteren,Geldermalsen,Gelderland,VBO,5.277993,51.872095
Laan 1940-1945,126,,,4194WR,Meteren,Geldermalsen,Gelderland,VBO,5.277514,51.871968
Laan 1940-1945,128,,,4194WR,Meteren,Geldermalsen,Gelderland,VBO,5.277442,51.871932
Laan 1940-1945,130,,,4194WR,Meteren,Geldermalsen,Gelderland,VBO,5.277297,51.871869
Laan 1940-1945,132,,,4194WR,Meteren,Geldermalsen,Gelderland,VBO,5.277224,51.871833
Laan 1940-1945,134,,,4194WR,Meteren,Geldermalsen,Gelderland,VBO,5.277079,51.871752
Laan 1940-1945,136,,,4194WR,Meteren,Geldermalsen,Gelderland,VBO,5.277036,51.871707
Laan 1940-1945,138,,,4194WR,Meteren,Geldermalsen,Gelderland,VBO,5.276891,51.871626
Laan 1940-1945,140,,,4194WR,Meteren,Geldermalsen,Gelderland,VBO,5.276833,51.871581
Laan 1940-1945,142,,,4194WS,Meteren,Geldermalsen,Gelderland,VBO,5.276500,51.871293
Laan 1940-1945,144,,,4194WS,Meteren,Geldermalsen,Gelderland,VBO,5.276485,51.871221
Laan 1940-1945,146,,,4194WS,Meteren,Geldermalsen,Gelderland,VBO,5.276427,51.871149
Laan 1940-1945,148,,,4194WS,Meteren,Geldermalsen,Gelderland,VBO,5.276399,51.871068
Laan 1940-1945,150,,,4194WS,Meteren,Geldermalsen,Gelderland,VBO,5.276370,51.870970
Laan 1940-1945,152,,,4194WS,Meteren,Geldermalsen,Gelderland,VBO,5.276312,51.870898
Laan 1940-1945,154,,,4194WS,Meteren,Geldermalsen,Gelderland,VBO,5.276298,51.870808
Laan 1940-1945,156,,,4194WS,Meteren,Geldermalsen,Gelderland,VBO,5.276269,51.870754
Laan 1940-1945,158,,,4194WS,Meteren,Geldermalsen,Gelderland,VBO,5.276254,51.870637
Laan 1940-1945,160,,,4194WS,Meteren,Geldermalsen,Gelderland,VBO,5.276226,51.870574
Laan 1940-1945,162,,,4194WS,Meteren,Geldermalsen,Gelderland,VBO,5.276197,51.870484
Laan 1940-1945,164,,,4194WS,Meteren,Geldermalsen,Gelderland,VBO,5.276168,51.870439
Laan 1940-1945,166,,,4194WS,Meteren,Geldermalsen,Gelderland,VBO,5.276096,51.870151
Laan 1940-1945,168,,,4194WS,Meteren,Geldermalsen,Gelderland,VBO,5.276067,51.870088
Laan 1940-1945,170,,,4194WS,Meteren,Geldermalsen,Gelderland,VBO,5.275995,51.869962
Laan 1940-1945,172,,,4194WS,Meteren,Geldermalsen,Gelderland,VBO,5.275966,51.869918
C. van Holthestraat,1,,,4194WT,Meteren,Geldermalsen,Gelderland,VBO,5.276976,51.872462
C. van Holthestraat,2,,,4194WT,Meteren,Geldermalsen,Gelderland,VBO,5.276554,51.872866
C. van Holthestraat,3,,,4194WT,Meteren,Geldermalsen,Gelderland,VBO,5.276874,51.872489
C. van Holthestraat,4,,,4194WT,Meteren,Geldermalsen,Gelderland,VBO,5.276612,51.872911
C. van Holthestraat,5,,,4194WT,Meteren,Geldermalsen,Gelderland,VBO,5.276714,51.872552
C. van Holthestraat,6,,,4194WT,Meteren,Geldermalsen,Gelderland,VBO,5.276655,51.872947
C. van Holthestraat,7,,,4194WT,Meteren,Geldermalsen,Gelderland,VBO,5.276598,51.872606
C. van Holthestraat,8,,,4194WT,Meteren,Geldermalsen,Gelderland,VBO,5.276713,51.872983
C. van Holthestraat,9,,,4194WT,Meteren,Geldermalsen,Gelderland,VBO,5.276424,51.872650
C. van Holthestraat,10,,,4194WT,Meteren,Geldermalsen,Gelderland,VBO,5.276800,51.873019
C. van Holthestraat,11,,,4194WT,Meteren,Geldermalsen,Gelderland,VBO,5.276322,51.872677
C. van Holthestraat,12,,,4194WT,Meteren,Geldermalsen,Gelderland,VBO,5.276873,51.873046
C. van Holthestraat,14,,,4194WT,Meteren,Geldermalsen,Gelderland,VBO,5.276945,51.873064
C. van Holthestraat,16,,,4194WT,Meteren,Geldermalsen,Gelderland,VBO,5.277018,51.873082
C. van Holthestraat,18,,,4194WT,Meteren,Geldermalsen,Gelderland,VBO,5.277120,51.873100
C. van Holthestraat,20,,,4194WT,Meteren,Geldermalsen,Gelderland,VBO,5.277207,51.873110
