openbareruimtenaam,huisnummer,huisletter,huisnummertoevoeging,postcode,woonplaatsnaam,gemeentenaam,provincienaam,typeadresseerbaarobject,longitude,latitude
Parallelweg,1,,,4209AA,Schelluinen,Giessenlanden,Zuid-Holland,VBO,4.919177,51.840748
Parallelweg,2,,,4209AA,Schelluinen,Giessenlanden,Zuid-Holland,VBO,4.918439,51.840065
Parallelweg,3,A,,4209AA,Schelluinen,Giessenlanden,Zuid-Holland,VBO,4.917601,51.840164
Parallelweg,3,B,,4209AA,Schelluinen,Giessenlanden,Zuid-Holland,VBO,4.917363,51.840196
Parallelweg,3,,,4209AA,Schelluinen,Giessenlanden,Zuid-Holland,VBO,4.917241,51.840496
Parallelweg,4,,,4209AA,Schelluinen,Giessenlanden,Zuid-Holland,VBO,4.914025,51.839936
Parallelweg,5,,,4209AA,Schelluinen,Giessenlanden,Zuid-Holland,VBO,4.912390,51.840330
Parallelweg,6,,,4209AA,Schelluinen,Giessenlanden,Zuid-Holland,VBO,4.911254,51.840257
Parallelweg,7,,,4209AA,Schelluinen,Giessenlanden,Zuid-Holland,VBO,4.910224,51.840533
Parallelweg,8,,,4209AA,Schelluinen,Giessenlanden,Zuid-Holland,VBO,4.910041,51.840508
Langeweg,1,,,4209AB,Schelluinen,Giessenlanden,Zuid-Holland,VBO,4.924786,51.841744
Langeweg,2,,,4209AB,Schelluinen,Giessenlanden,Zuid-Holland,VBO,4.924988,51.841755
Langeweg,3,,,4209AB,Schelluinen,Giessenlanden,Zuid-Holland,VBO,4.925276,51.841682
Langeweg,5,,,4209AB,Schelluinen,Giessenlanden,Zuid-Holland,VBO,4.927468,51.841519
Langeweg,6,,,4209AB,Schelluinen,Giessenlanden,Zuid-Holland,VBO,4.927536,51.841511
Langeweg,7,,,4209AB,Schelluinen,Giessenlanden,Zuid-Holland,VBO,4.927775,51.841474
Langeweg,8,,,4209AB,Schelluinen,Giessenlanden,Zuid-Holland,VBO,4.927982,51.841461
Langeweg,9,,,4209AB,Schelluinen,Giessenlanden,Zuid-Holland,VBO,4.928365,51.841410
Langeweg,10,,,4209AB,Schelluinen,Giessenlanden,Zuid-Holland,VBO,4.928630,51.841385
Langeweg,11,,,4209AB,Schelluinen,Giessenlanden,Zuid-Holland,VBO,4.928880,51.841354
Langeweg,12,,,4209AB,Schelluinen,Giessenlanden,Zuid-Holland,VBO,4.928967,51.841346
Langeweg,13,,,4209AB,Schelluinen,Giessenlanden,Zuid-Holland,VBO,4.929207,51.841321
Langeweg,14,,,4209AB,Schelluinen,Giessenlanden,Zuid-Holland,VBO,4.929272,51.841315
Langeweg,15,,,4209AB,Schelluinen,Giessenlanden,Zuid-Holland,VBO,4.929511,51.841284
Langeweg,16,,,4209AB,Schelluinen,Giessenlanden,Zuid-Holland,VBO,4.929583,51.841281
Kerkplein,1,,,4209AC,Schelluinen,Giessenlanden,Zuid-Holland,VBO,4.925188,51.842052
Kerkplein,2,,,4209AC,Schelluinen,Giessenlanden,Zuid-Holland,VBO,4.924891,51.842214
Kerkplein,3,,,4209AC,Schelluinen,Giessenlanden,Zuid-Holland,VBO,4.924762,51.842150
Kerkplein,4,,,4209AC,Schelluinen,Giessenlanden,Zuid-Holland,VBO,4.925055,51.841891
Kerkplein,5,,,4209AC,Schelluinen,Giessenlanden,Zuid-Holland,VBO,4.924867,51.841887
Kerkplein,6,,,4209AC,Schelluinen,Giessenlanden,Zuid-Holland,VBO,4.924753,51.841856
Kaatsbaan,1,,,4209AD,Schelluinen,Giessenlanden,Zuid-Holland,VBO,4.924378,51.842510
Kaatsbaan,4,,,4209AD,Schelluinen,Giessenlanden,Zuid-Holland,VBO,4.924417,51.842318
Kaatsbaan,5,,,4209AD,Schelluinen,Giessenlanden,Zuid-Holland,VBO,4.924412,51.842247
Kaatsbaan,6,,,4209AD,Schelluinen,Giessenlanden,Zuid-Holland,VBO,4.924257,51.842120
Kaatsbaan,7,,,4209AD,Schelluinen,Giessenlanden,Zuid-Holland,VBO,4.924260,51.842057
Kaatsbaan,8,A,,4209AD,Schelluinen,Giessenlanden,Zuid-Holland,VBO,4.924248,51.841728
Kaatsbaan,8,,,4209AD,Schelluinen,Giessenlanden,Zuid-Holland,VBO,4.924270,51.842001
Kaatsbaan,9,A,,4209AD,Schelluinen,Giessenlanden,Zuid-Holland,VBO,4.924246,51.841228
Kaatsbaan,9,,,4209AD,Schelluinen,Giessenlanden,Zuid-Holland,VBO,4.924272,51.841371
Kaatsbaan,10,A,,4209AD,Schelluinen,Giessenlanden,Zuid-Holland,VBO,4.924426,51.841071
Kaatsbaan,10,,,4209AD,Schelluinen,Giessenlanden,Zuid-Holland,VBO,4.924442,51.840954
Kerkweg,2,A,,4209AE,Schelluinen,Giessenlanden,Zuid-Holland,VBO,4.925267,51.841867
Kerkweg,2,,,4209AE,Schelluinen,Giessenlanden,Zuid-Holland,VBO,4.925379,51.841855
Kerkweg,4,A,,4209AE,Schelluinen,Giessenlanden,Zuid-Holland,VBO,4.927316,51.842016
Kerkweg,4,,,4209AE,Schelluinen,Giessenlanden,Zuid-Holland,VBO,4.925975,51.841758
Kerkweg,6,A,,4209AE,Schelluinen,Giessenlanden,Zuid-Holland,VBO,4.927685,51.842583
Kerkweg,6,,,4209AE,Schelluinen,Giessenlanden,Zuid-Holland,VBO,4.927697,51.842534
Kerkweg,8,,,4209AE,Schelluinen,Giessenlanden,Zuid-Holland,VBO,4.926975,51.842405
Kerkweg,10,A,,4209AE,Schelluinen,Giessenlanden,Zuid-Holland,VBO,4.927106,51.842865
Kerkweg,10,B,,4209AE,Schelluinen,Giessenlanden,Zuid-Holland,VBO,4.927422,51.842700
Kerkweg,10,,,4209AE,Schelluinen,Giessenlanden,Zuid-Holland,VBO,4.927089,51.842654
Kerkweg,12,,,4209AE,Schelluinen,Giessenlanden,Zuid-Holland,VBO,4.927245,51.843305
Kerkweg,14,,,4209AE,Schelluinen,Giessenlanden,Zuid-Holland,VBO,4.927384,51.843274
Kerkweg,16,,,4209AE,Schelluinen,Giessenlanden,Zuid-Holland,VBO,4.927519,51.843250
Kerkweg,18,,,4209AE,Schelluinen,Giessenlanden,Zuid-Holland,VBO,4.927922,51.843146
Kerkweg,20,,,4209AE,Schelluinen,Giessenlanden,Zuid-Holland,VBO,4.927833,51.843162
Kerkweg,24,,,4209AE,Schelluinen,Giessenlanden,Zuid-Holland,VBO,4.927358,51.843394
Kerkweg,26,,,4209AE,Schelluinen,Giessenlanden,Zuid-Holland,VBO,4.927406,51.843639
Kerkweg,28,,,4209AE,Schelluinen,Giessenlanden,Zuid-Holland,VBO,4.927424,51.843696
Kerkweg,30,,,4209AE,Schelluinen,Giessenlanden,Zuid-Holland,VBO,4.927478,51.843853
Kerkweg,32,,,4209AE,Schelluinen,Giessenlanden,Zuid-Holland,VBO,4.927503,51.843908
Kerkweg,34,,,4209AE,Schelluinen,Giessenlanden,Zuid-Holland,VBO,4.927519,51.843968
Kerkweg,36,,,4209AE,Schelluinen,Giessenlanden,Zuid-Holland,VBO,4.927554,51.844029
Vlietstraat,1,A,,4209AG,Schelluinen,Giessenlanden,Zuid-Holland,VBO,4.925039,51.843796
Vlietstraat,3,,,4209AG,Schelluinen,Giessenlanden,Zuid-Holland,VBO,4.925129,51.843784
Vlietstraat,5,,,4209AG,Schelluinen,Giessenlanden,Zuid-Holland,VBO,4.925214,51.843776
Vlietstraat,7,,,4209AG,Schelluinen,Giessenlanden,Zuid-Holland,VBO,4.925294,51.843765
Vlietstraat,9,,,4209AG,Schelluinen,Giessenlanden,Zuid-Holland,VBO,4.925380,51.843758
Vlietstraat,11,,,4209AG,Schelluinen,Giessenlanden,Zuid-Holland,VBO,4.925470,51.843752
Vlietstraat,13,,,4209AG,Schelluinen,Giessenlanden,Zuid-Holland,VBO,4.925821,51.843718
Vlietstraat,15,,,4209AG,Schelluinen,Giessenlanden,Zuid-Holland,VBO,4.925913,51.843716
Vlietstraat,17,,,4209AG,Schelluinen,Giessenlanden,Zuid-Holland,VBO,4.925991,51.843699
Vlietstraat,19,,,4209AG,Schelluinen,Giessenlanden,Zuid-Holland,VBO,4.926075,51.843694
Vlietstraat,21,,,4209AG,Schelluinen,Giessenlanden,Zuid-Holland,VBO,4.926160,51.843682
Vlietstraat,23,,,4209AG,Schelluinen,Giessenlanden,Zuid-Holland,VBO,4.926254,51.843671
Vlietstraat,25,,,4209AG,Schelluinen,Giessenlanden,Zuid-Holland,VBO,4.926324,51.843662
Vlietstraat,27,,,4209AG,Schelluinen,Giessenlanden,Zuid-Holland,VBO,4.926420,51.843657
Vlietstraat,29,,,4209AG,Schelluinen,Giessenlanden,Zuid-Holland,VBO,4.926583,51.843634
Vlietstraat,31,,,4209AG,Schelluinen,Giessenlanden,Zuid-Holland,VBO,4.926663,51.843619
Vlietstraat,33,,,4209AG,Schelluinen,Giessenlanden,Zuid-Holland,VBO,4.926754,51.843608
Vlietstraat,35,,,4209AG,Schelluinen,Giessenlanden,Zuid-Holland,VBO,4.926841,51.843601
Vlietstraat,37,,,4209AG,Schelluinen,Giessenlanden,Zuid-Holland,VBO,4.926917,51.843596
Vlietstraat,39,,,4209AG,Schelluinen,Giessenlanden,Zuid-Holland,VBO,4.927008,51.843591
Vlietstraat,2,,,4209AH,Schelluinen,Giessenlanden,Zuid-Holland,VBO,4.924733,51.843556
Vlietstraat,4,,,4209AH,Schelluinen,Giessenlanden,Zuid-Holland,VBO,4.924820,51.843560
Vlietstraat,6,,,4209AH,Schelluinen,Giessenlanden,Zuid-Holland,VBO,4.924907,51.843566
Vlietstraat,8,,,4209AH,Schelluinen,Giessenlanden,Zuid-Holland,VBO,4.924993,51.843567
Vlietstraat,10,,,4209AH,Schelluinen,Giessenlanden,Zuid-Holland,VBO,4.925193,51.843572
Vlietstraat,12,,,4209AH,Schelluinen,Giessenlanden,Zuid-Holland,VBO,4.925294,51.843558
Vlietstraat,14,,,4209AH,Schelluinen,Giessenlanden,Zuid-Holland,VBO,4.925365,51.843557
Vlietstraat,16,,,4209AH,Schelluinen,Giessenlanden,Zuid-Holland,VBO,4.925451,51.843549
Vlietstraat,18,,,4209AH,Schelluinen,Giessenlanden,Zuid-Holland,VBO,4.925733,51.843510
Vlietstraat,20,,,4209AH,Schelluinen,Giessenlanden,Zuid-Holland,VBO,4.925826,51.843496
Vlietstraat,22,,,4209AH,Schelluinen,Giessenlanden,Zuid-Holland,VBO,4.925905,51.843491
Vlietstraat,24,,,4209AH,Schelluinen,Giessenlanden,Zuid-Holland,VBO,4.925987,51.843484
Vlietstraat,26,,,4209AH,Schelluinen,Giessenlanden,Zuid-Holland,VBO,4.926075,51.843473
Vlietstraat,28,,,4209AH,Schelluinen,Giessenlanden,Zuid-Holland,VBO,4.926154,51.843472
Vlietstraat,30,,,4209AH,Schelluinen,Giessenlanden,Zuid-Holland,VBO,4.926294,51.843451
Vlietstraat,32,,,4209AH,Schelluinen,Giessenlanden,Zuid-Holland,VBO,4.926376,51.843444
Vlietstraat,34,,,4209AH,Schelluinen,Giessenlanden,Zuid-Holland,VBO,4.926463,51.843435
Vlietstraat,36,,,4209AH,Schelluinen,Giessenlanden,Zuid-Holland,VBO,4.926542,51.843428
Vlietstraat,38,,,4209AH,Schelluinen,Giessenlanden,Zuid-Holland,VBO,4.926683,51.843422
Vlietstraat,40,,,4209AH,Schelluinen,Giessenlanden,Zuid-Holland,VBO,4.926761,51.843407
Vlietstraat,42,,,4209AH,Schelluinen,Giessenlanden,Zuid-Holland,VBO,4.926846,51.843400
Vlietstraat,44,,,4209AH,Schelluinen,Giessenlanden,Zuid-Holland,VBO,4.926930,51.843391
Oranjestraat,1,A,,4209AJ,Schelluinen,Giessenlanden,Zuid-Holland,VBO,4.925364,51.843283
Oranjestraat,1,,,4209AJ,Schelluinen,Giessenlanden,Zuid-Holland,VBO,4.925661,51.843177
Oranjestraat,3,,,4209AJ,Schelluinen,Giessenlanden,Zuid-Holland,VBO,4.925740,51.843176
Oranjestraat,5,,,4209AJ,Schelluinen,Giessenlanden,Zuid-Holland,VBO,4.925818,51.843174
Oranjestraat,7,,,4209AJ,Schelluinen,Giessenlanden,Zuid-Holland,VBO,4.925897,51.843172
Oranjestraat,9,,,4209AJ,Schelluinen,Giessenlanden,Zuid-Holland,VBO,4.926034,51.843169
Oranjestraat,11,,,4209AJ,Schelluinen,Giessenlanden,Zuid-Holland,VBO,4.926113,51.843167
Oranjestraat,13,,,4209AJ,Schelluinen,Giessenlanden,Zuid-Holland,VBO,4.926191,51.843165
Oranjestraat,15,,,4209AJ,Schelluinen,Giessenlanden,Zuid-Holland,VBO,4.926270,51.843163
Oranjestraat,17,,,4209AJ,Schelluinen,Giessenlanden,Zuid-Holland,VBO,4.926411,51.843152
Oranjestraat,19,,,4209AJ,Schelluinen,Giessenlanden,Zuid-Holland,VBO,4.926503,51.843150
Oranjestraat,21,,,4209AJ,Schelluinen,Giessenlanden,Zuid-Holland,VBO,4.926586,51.843148
Oranjestraat,23,,,4209AJ,Schelluinen,Giessenlanden,Zuid-Holland,VBO,4.926676,51.843143
Oranjestraat,25,,,4209AJ,Schelluinen,Giessenlanden,Zuid-Holland,VBO,4.926774,51.843145
Oranjestraat,27,,,4209AJ,Schelluinen,Giessenlanden,Zuid-Holland,VBO,4.926866,51.843143
Oranjestraat,2,,,4209AK,Schelluinen,Giessenlanden,Zuid-Holland,VBO,4.925566,51.842982
Oranjestraat,4,,,4209AK,Schelluinen,Giessenlanden,Zuid-Holland,VBO,4.925646,51.842974
Oranjestraat,6,,,4209AK,Schelluinen,Giessenlanden,Zuid-Holland,VBO,4.925717,51.842974
Oranjestraat,8,,,4209AK,Schelluinen,Giessenlanden,Zuid-Holland,VBO,4.925801,51.842973
Oranjestraat,10,,,4209AK,Schelluinen,Giessenlanden,Zuid-Holland,VBO,4.925937,51.842975
Oranjestraat,12,,,4209AK,Schelluinen,Giessenlanden,Zuid-Holland,VBO,4.926014,51.842970
Oranjestraat,14,,,4209AK,Schelluinen,Giessenlanden,Zuid-Holland,VBO,4.926150,51.842972
Oranjestraat,16,,,4209AK,Schelluinen,Giessenlanden,Zuid-Holland,VBO,4.926230,51.842967
Oranjestraat,18,,,4209AK,Schelluinen,Giessenlanden,Zuid-Holland,VBO,4.926310,51.842967
Oranjestraat,20,,,4209AK,Schelluinen,Giessenlanden,Zuid-Holland,VBO,4.926390,51.842966
Oranjestraat,22,,,4209AK,Schelluinen,Giessenlanden,Zuid-Holland,VBO,4.926520,51.842951
Oranjestraat,24,,,4209AK,Schelluinen,Giessenlanden,Zuid-Holland,VBO,4.926619,51.842955
Oranjestraat,26,,,4209AK,Schelluinen,Giessenlanden,Zuid-Holland,VBO,4.926696,51.842959
Oranjestraat,28,,,4209AK,Schelluinen,Giessenlanden,Zuid-Holland,VBO,4.926777,51.842952
Dr. van Linden Tolstraat,1,A,,4209AL,Schelluinen,Giessenlanden,Zuid-Holland,VBO,4.925888,51.842662
Dr. van Linden Tolstraat,1,,,4209AL,Schelluinen,Giessenlanden,Zuid-Holland,VBO,4.925471,51.842754
Dr. van Linden Tolstraat,2,,,4209AL,Schelluinen,Giessenlanden,Zuid-Holland,VBO,4.925059,51.842480
Dr. van Linden Tolstraat,3,,,4209AL,Schelluinen,Giessenlanden,Zuid-Holland,VBO,4.925988,51.842658
Dr. van Linden Tolstraat,4,,,4209AL,Schelluinen,Giessenlanden,Zuid-Holland,VBO,4.925165,51.842480
Dr. van Linden Tolstraat,5,,,4209AL,Schelluinen,Giessenlanden,Zuid-Holland,VBO,4.926161,51.842661
Dr. van Linden Tolstraat,6,,,4209AL,Schelluinen,Giessenlanden,Zuid-Holland,VBO,4.925286,51.842453
Dr. van Linden Tolstraat,7,,,4209AL,Schelluinen,Giessenlanden,Zuid-Holland,VBO,4.926279,51.842665
Dr. van Linden Tolstraat,8,,,4209AL,Schelluinen,Giessenlanden,Zuid-Holland,VBO,4.925390,51.842445
Dr. van Linden Tolstraat,9,,,4209AL,Schelluinen,Giessenlanden,Zuid-Holland,VBO,4.926449,51.842654
Dr. van Linden Tolstraat,10,A,,4209AL,Schelluinen,Giessenlanden,Zuid-Holland,VBO,4.925618,51.842406
Dr. van Linden Tolstraat,10,,,4209AL,Schelluinen,Giessenlanden,Zuid-Holland,VBO,4.925820,51.842407
Dr. van Linden Tolstraat,11,,,4209AL,Schelluinen,Giessenlanden,Zuid-Holland,VBO,4.926564,51.842652
Dr. van Linden Tolstraat,12,,,4209AL,Schelluinen,Giessenlanden,Zuid-Holland,VBO,4.926157,51.842460
Dr. van Linden Tolstraat,14,,,4209AL,Schelluinen,Giessenlanden,Zuid-Holland,VBO,4.926294,51.842459
Dr. van Linden Tolstraat,16,,,4209AL,Schelluinen,Giessenlanden,Zuid-Holland,VBO,4.926461,51.842452
Dr. van Linden Tolstraat,18,,,4209AL,Schelluinen,Giessenlanden,Zuid-Holland,VBO,4.926563,51.842452
Bohanstraat,1,,,4209AM,Schelluinen,Giessenlanden,Zuid-Holland,VBO,4.924777,51.845252
Bohanstraat,2,,,4209AM,Schelluinen,Giessenlanden,Zuid-Holland,VBO,4.924500,51.845045
Bohanstraat,3,,,4209AM,Schelluinen,Giessenlanden,Zuid-Holland,VBO,4.924876,51.845241
Bohanstraat,4,,,4209AM,Schelluinen,Giessenlanden,Zuid-Holland,VBO,4.924595,51.845047
Bohanstraat,5,,,4209AM,Schelluinen,Giessenlanden,Zuid-Holland,VBO,4.924968,51.845235
Bohanstraat,6,,,4209AM,Schelluinen,Giessenlanden,Zuid-Holland,VBO,4.924708,51.845049
Bohanstraat,7,,,4209AM,Schelluinen,Giessenlanden,Zuid-Holland,VBO,4.925064,51.845228
Bohanstraat,8,,,4209AM,Schelluinen,Giessenlanden,Zuid-Holland,VBO,4.924835,51.845048
Bohanstraat,9,,,4209AM,Schelluinen,Giessenlanden,Zuid-Holland,VBO,4.925223,51.845212
Bohanstraat,10,,,4209AM,Schelluinen,Giessenlanden,Zuid-Holland,VBO,4.924936,51.845041
Bohanstraat,11,,,4209AM,Schelluinen,Giessenlanden,Zuid-Holland,VBO,4.925320,51.845215
Bohanstraat,12,,,4209AM,Schelluinen,Giessenlanden,Zuid-Holland,VBO,4.925027,51.845033
Bohanstraat,13,,,4209AM,Schelluinen,Giessenlanden,Zuid-Holland,VBO,4.925404,51.845195
Bohanstraat,14,,,4209AM,Schelluinen,Giessenlanden,Zuid-Holland,VBO,4.925139,51.845019
Bohanstraat,15,,,4209AM,Schelluinen,Giessenlanden,Zuid-Holland,VBO,4.925491,51.845181
Bohanstraat,16,,,4209AM,Schelluinen,Giessenlanden,Zuid-Holland,VBO,4.925229,51.845007
Bohanstraat,18,,,4209AM,Schelluinen,Giessenlanden,Zuid-Holland,VBO,4.925335,51.844994
Bohanstraat,20,,,4209AM,Schelluinen,Giessenlanden,Zuid-Holland,VBO,4.925434,51.844979
Berkenlaan,1,,,4209AN,Schelluinen,Giessenlanden,Zuid-Holland,VBO,4.925187,51.844297
Berkenlaan,3,,,4209AN,Schelluinen,Giessenlanden,Zuid-Holland,VBO,4.925203,51.844348
Berkenlaan,4,,,4209AN,Schelluinen,Giessenlanden,Zuid-Holland,VBO,4.925830,51.844616
Berkenlaan,5,,,4209AN,Schelluinen,Giessenlanden,Zuid-Holland,VBO,4.925222,51.844401
Berkenlaan,7,,,4209AN,Schelluinen,Giessenlanden,Zuid-Holland,VBO,4.925219,51.844459
Berkenlaan,9,,,4209AN,Schelluinen,Giessenlanden,Zuid-Holland,VBO,4.925232,51.844512
Berkenlaan,11,,,4209AN,Schelluinen,Giessenlanden,Zuid-Holland,VBO,4.925274,51.844604
Berkenlaan,13,,,4209AN,Schelluinen,Giessenlanden,Zuid-Holland,VBO,4.925298,51.844656
Berkenlaan,15,,,4209AN,Schelluinen,Giessenlanden,Zuid-Holland,VBO,4.925312,51.844710
Berkenlaan,17,,,4209AN,Schelluinen,Giessenlanden,Zuid-Holland,VBO,4.925332,51.844764
Berkenlaan,19,,,4209AN,Schelluinen,Giessenlanden,Zuid-Holland,VBO,4.925351,51.844819
Berkenlaan,21,,,4209AN,Schelluinen,Giessenlanden,Zuid-Holland,VBO,4.925524,51.845485
Commanderijstraat,1,,,4209AP,Schelluinen,Giessenlanden,Zuid-Holland,VBO,4.924614,51.844278
Commanderijstraat,3,,,4209AP,Schelluinen,Giessenlanden,Zuid-Holland,VBO,4.924701,51.844279
Commanderijstraat,5,,,4209AP,Schelluinen,Giessenlanden,Zuid-Holland,VBO,4.924788,51.844279
Commanderijstraat,7,,,4209AP,Schelluinen,Giessenlanden,Zuid-Holland,VBO,4.924890,51.844288
Commanderijstraat,9,,,4209AP,Schelluinen,Giessenlanden,Zuid-Holland,VBO,4.925781,51.844370
Commanderijstraat,11,,,4209AP,Schelluinen,Giessenlanden,Zuid-Holland,VBO,4.926350,51.844207
Commanderijstraat,23,,,4209AP,Schelluinen,Giessenlanden,Zuid-Holland,VBO,4.926644,51.844192
Commanderijstraat,25,,,4209AP,Schelluinen,Giessenlanden,Zuid-Holland,VBO,4.926751,51.844182
Commanderijstraat,27,,,4209AP,Schelluinen,Giessenlanden,Zuid-Holland,VBO,4.926838,51.844170
Commanderijstraat,29,,,4209AP,Schelluinen,Giessenlanden,Zuid-Holland,VBO,4.926926,51.844160
Commanderijstraat,31,,,4209AP,Schelluinen,Giessenlanden,Zuid-Holland,VBO,4.926995,51.844153
Commanderijstraat,33,,,4209AP,Schelluinen,Giessenlanden,Zuid-Holland,VBO,4.927100,51.844145
Commanderijstraat,35,,,4209AP,Schelluinen,Giessenlanden,Zuid-Holland,VBO,4.927191,51.844139
Commanderijstraat,4,,,4209AR,Schelluinen,Giessenlanden,Zuid-Holland,VBO,4.925874,51.844025
Commanderijstraat,6,,,4209AR,Schelluinen,Giessenlanden,Zuid-Holland,VBO,4.925979,51.844016
Commanderijstraat,8,,,4209AR,Schelluinen,Giessenlanden,Zuid-Holland,VBO,4.926054,51.844005
Commanderijstraat,10,,,4209AR,Schelluinen,Giessenlanden,Zuid-Holland,VBO,4.926141,51.843997
Commanderijstraat,12,,,4209AR,Schelluinen,Giessenlanden,Zuid-Holland,VBO,4.926312,51.843995
Commanderijstraat,14,,,4209AR,Schelluinen,Giessenlanden,Zuid-Holland,VBO,4.926397,51.843980
Commanderijstraat,16,,,4209AR,Schelluinen,Giessenlanden,Zuid-Holland,VBO,4.926496,51.843972
Commanderijstraat,18,,,4209AR,Schelluinen,Giessenlanden,Zuid-Holland,VBO,4.926578,51.843967
Commanderijstraat,20,,,4209AR,Schelluinen,Giessenlanden,Zuid-Holland,VBO,4.926737,51.843925
Commanderijstraat,22,,,4209AR,Schelluinen,Giessenlanden,Zuid-Holland,VBO,4.926832,51.843910
Commanderijstraat,24,,,4209AR,Schelluinen,Giessenlanden,Zuid-Holland,VBO,4.926911,51.843907
Commanderijstraat,26,,,4209AR,Schelluinen,Giessenlanden,Zuid-Holland,VBO,4.927004,51.843902
Commanderijstraat,28,,,4209AR,Schelluinen,Giessenlanden,Zuid-Holland,VBO,4.927092,51.843897
Doornkampstraat,1,,,4209AS,Schelluinen,Giessenlanden,Zuid-Holland,VBO,4.926734,51.844410
Doornkampstraat,2,,,4209AS,Schelluinen,Giessenlanden,Zuid-Holland,VBO,4.926753,51.844466
Doornkampstraat,3,,,4209AS,Schelluinen,Giessenlanden,Zuid-Holland,VBO,4.926762,51.844517
Doornkampstraat,4,,,4209AS,Schelluinen,Giessenlanden,Zuid-Holland,VBO,4.926783,51.844575
Doornkampstraat,5,,,4209AS,Schelluinen,Giessenlanden,Zuid-Holland,VBO,4.926995,51.845118
Doornkampstraat,6,,,4209AS,Schelluinen,Giessenlanden,Zuid-Holland,VBO,4.927016,51.845171
Doornkampstraat,7,,,4209AS,Schelluinen,Giessenlanden,Zuid-Holland,VBO,4.927032,51.845217
Doornkampstraat,8,,,4209AS,Schelluinen,Giessenlanden,Zuid-Holland,VBO,4.927052,51.845271
Doornkampstraat,9,,,4209AS,Schelluinen,Giessenlanden,Zuid-Holland,VBO,4.927080,51.845325
Esdoornstraat,1,,,4209AT,Schelluinen,Giessenlanden,Zuid-Holland,VBO,4.926949,51.845009
Esdoornstraat,2,,,4209AT,Schelluinen,Giessenlanden,Zuid-Holland,VBO,4.926811,51.844724
Esdoornstraat,3,,,4209AT,Schelluinen,Giessenlanden,Zuid-Holland,VBO,4.927054,51.844995
Esdoornstraat,4,,,4209AT,Schelluinen,Giessenlanden,Zuid-Holland,VBO,4.926907,51.844717
Esdoornstraat,5,,,4209AT,Schelluinen,Giessenlanden,Zuid-Holland,VBO,4.927150,51.844977
Esdoornstraat,6,,,4209AT,Schelluinen,Giessenlanden,Zuid-Holland,VBO,4.926993,51.844709
Esdoornstraat,7,A,,4209AT,Schelluinen,Giessenlanden,Zuid-Holland,VBO,4.927354,51.844966
Esdoornstraat,7,,,4209AT,Schelluinen,Giessenlanden,Zuid-Holland,VBO,4.927256,51.844976
Esdoornstraat,9,,,4209AT,Schelluinen,Giessenlanden,Zuid-Holland,VBO,4.927311,51.844791
Esdoornstraat,11,,,4209AT,Schelluinen,Giessenlanden,Zuid-Holland,VBO,4.927408,51.844773
Esdoornstraat,13,,,4209AT,Schelluinen,Giessenlanden,Zuid-Holland,VBO,4.927511,51.844756
Kerkboomstraat,1,A,,4209AV,Schelluinen,Giessenlanden,Zuid-Holland,VBO,4.927923,51.844675
Kerkboomstraat,1,B,,4209AV,Schelluinen,Giessenlanden,Zuid-Holland,VBO,4.927952,51.844728
Kerkboomstraat,1,,,4209AV,Schelluinen,Giessenlanden,Zuid-Holland,VBO,4.927243,51.844365
Kerkboomstraat,2,,,4209AV,Schelluinen,Giessenlanden,Zuid-Holland,VBO,4.927251,51.844422
Kerkboomstraat,3,,,4209AV,Schelluinen,Giessenlanden,Zuid-Holland,VBO,4.927265,51.844476
Kerkboomstraat,4,,,4209AV,Schelluinen,Giessenlanden,Zuid-Holland,VBO,4.927279,51.844530
Kerkboomstraat,5,,,4209AV,Schelluinen,Giessenlanden,Zuid-Holland,VBO,4.927294,51.844589
Kerkboomstraat,6,,,4209AV,Schelluinen,Giessenlanden,Zuid-Holland,VBO,4.927558,51.844867
Kerkboomstraat,7,,,4209AV,Schelluinen,Giessenlanden,Zuid-Holland,VBO,4.927587,51.844918
Kerkboomstraat,8,,,4209AV,Schelluinen,Giessenlanden,Zuid-Holland,VBO,4.927616,51.844972
Kerkboomstraat,9,,,4209AV,Schelluinen,Giessenlanden,Zuid-Holland,VBO,4.927634,51.845028
Kerkboomstraat,10,,,4209AV,Schelluinen,Giessenlanden,Zuid-Holland,VBO,4.927657,51.845084
Kerkboomstraat,11,,,4209AV,Schelluinen,Giessenlanden,Zuid-Holland,VBO,4.927687,51.845134
Kerkboomstraat,12,,,4209AV,Schelluinen,Giessenlanden,Zuid-Holland,VBO,4.927701,51.845188
Kerkboomstraat,13,,,4209AV,Schelluinen,Giessenlanden,Zuid-Holland,VBO,4.927729,51.845248
Nolweg,1,,,4209AW,Schelluinen,Giessenlanden,Zuid-Holland,VBO,4.924807,51.845941
Nolweg,3,,,4209AW,Schelluinen,Giessenlanden,Zuid-Holland,VBO,4.925471,51.845808
Nolweg,5,,,4209AW,Schelluinen,Giessenlanden,Zuid-Holland,VBO,4.926408,51.845837
Nolweg,7,,,4209AW,Schelluinen,Giessenlanden,Zuid-Holland,VBO,4.927333,51.845650
Nolweg,9,,,4209AW,Schelluinen,Giessenlanden,Zuid-Holland,VBO,4.927456,51.845655
Nolweg,11,,,4209AW,Schelluinen,Giessenlanden,Zuid-Holland,VBO,4.928141,51.845623
Nolweg,13,A,,4209AW,Schelluinen,Giessenlanden,Zuid-Holland,VBO,4.929200,51.845744
Nolweg,13,B,,4209AW,Schelluinen,Giessenlanden,Zuid-Holland,VBO,4.929316,51.845753
Nolweg,13,C,,4209AW,Schelluinen,Giessenlanden,Zuid-Holland,VBO,4.929849,51.845895
Nolweg,13,D,,4209AW,Schelluinen,Giessenlanden,Zuid-Holland,VBO,4.929971,51.845898
Nolweg,13,E,,4209AW,Schelluinen,Giessenlanden,Zuid-Holland,VBO,4.930876,51.846017
Nolweg,13,F,,4209AW,Schelluinen,Giessenlanden,Zuid-Holland,VBO,4.931000,51.846018
Nolweg,13,,,4209AW,Schelluinen,Giessenlanden,Zuid-Holland,VBO,4.928272,51.845632
Nolweg,15,,,4209AW,Schelluinen,Giessenlanden,Zuid-Holland,VBO,4.931628,51.846724
Nolweg,17,,,4209AW,Schelluinen,Giessenlanden,Zuid-Holland,VBO,4.931562,51.846022
Nolweg,19,,,4209AW,Schelluinen,Giessenlanden,Zuid-Holland,VBO,4.932386,51.846402
Nolweg,21,,,4209AX,Schelluinen,Giessenlanden,Zuid-Holland,VBO,4.932493,51.846435
Nolweg,23,,,4209AX,Schelluinen,Giessenlanden,Zuid-Holland,VBO,4.932949,51.846675
Nolweg,25,,,4209AX,Schelluinen,Giessenlanden,Zuid-Holland,VBO,4.933628,51.846929
Nolweg,27,,,4209AX,Schelluinen,Giessenlanden,Zuid-Holland,VBO,4.933874,51.846993
Nolweg,29,A,,4209AX,Schelluinen,Giessenlanden,Zuid-Holland,VBO,4.936004,51.847388
Nolweg,29,,,4209AX,Schelluinen,Giessenlanden,Zuid-Holland,VBO,4.934713,51.847127
Nolweg,31,,,4209AX,Schelluinen,Giessenlanden,Zuid-Holland,VBO,4.941793,51.847924
Nolweg,33,A,,4209AX,Schelluinen,Giessenlanden,Zuid-Holland,VBO,4.940627,51.848388
Nolweg,33,,,4209AX,Schelluinen,Giessenlanden,Zuid-Holland,VBO,4.939513,51.848300
Nolweg,35,,,4209AX,Schelluinen,Giessenlanden,Zuid-Holland,VBO,4.941585,51.848507
Sportlaan,1,A,,4209AX,Schelluinen,Giessenlanden,Zuid-Holland,VBO,4.921899,51.841099
Sportlaan,1,B,,4209AX,Schelluinen,Giessenlanden,Zuid-Holland,VBO,4.922541,51.841149
Sportlaan,1,D,,4209AX,Schelluinen,Giessenlanden,Zuid-Holland,VBO,4.919679,51.841961
Sportlaan,1,,,4209AX,Schelluinen,Giessenlanden,Zuid-Holland,VBO,4.920765,51.842568
Sportlaan,2,A,,4209AX,Schelluinen,Giessenlanden,Zuid-Holland,VBO,4.919342,51.842625
Sportlaan,2,B,,4209AX,Schelluinen,Giessenlanden,Zuid-Holland,VBO,4.919464,51.842630
Sportlaan,3,A,,4209AX,Schelluinen,Giessenlanden,Zuid-Holland,VBO,4.919034,51.842909
Sportlaan,3,B,,4209AX,Schelluinen,Giessenlanden,Zuid-Holland,VBO,4.919111,51.842911
Sportlaan,3,C,,4209AX,Schelluinen,Giessenlanden,Zuid-Holland,VBO,4.919185,51.842919
Sportlaan,3,D,,4209AX,Schelluinen,Giessenlanden,Zuid-Holland,VBO,4.919272,51.842927
Sportlaan,3,E,,4209AX,Schelluinen,Giessenlanden,Zuid-Holland,VBO,4.919334,51.842930
Sportlaan,3,G,,4209AX,Schelluinen,Giessenlanden,Zuid-Holland,VBO,4.919406,51.842938
Sportlaan,4,A,,4209AX,Schelluinen,Giessenlanden,Zuid-Holland,VBO,4.919124,51.842396
Sportlaan,10,,,4209AX,Schelluinen,Giessenlanden,Zuid-Holland,VBO,4.918368,51.844012
Sportlaan,11,,,4209AX,Schelluinen,Giessenlanden,Zuid-Holland,VBO,4.918235,51.844194
Nolweg,2,,,4209AZ,Schelluinen,Giessenlanden,Zuid-Holland,VBO,4.924923,51.845542
Nolweg,4,,,4209AZ,Schelluinen,Giessenlanden,Zuid-Holland,VBO,4.925198,51.845506
Nolweg,8,,,4209AZ,Schelluinen,Giessenlanden,Zuid-Holland,VBO,4.926007,51.845399
Nolweg,10,,,4209AZ,Schelluinen,Giessenlanden,Zuid-Holland,VBO,4.926746,51.845379
Nolweg,12,,,4209AZ,Schelluinen,Giessenlanden,Zuid-Holland,VBO,4.927478,51.845233
Nolweg,14,A,,4209AZ,Schelluinen,Giessenlanden,Zuid-Holland,VBO,4.928553,51.844721
Nolweg,14,B,,4209AZ,Schelluinen,Giessenlanden,Zuid-Holland,VBO,4.928685,51.844698
Nolweg,14,,,4209AZ,Schelluinen,Giessenlanden,Zuid-Holland,VBO,4.928190,51.845164
Nolweg,16,,,4209AZ,Schelluinen,Giessenlanden,Zuid-Holland,VBO,4.928801,51.845005
Nolweg,18,,,4209AZ,Schelluinen,Giessenlanden,Zuid-Holland,VBO,4.929464,51.845313
Nolweg,20,,,4209AZ,Schelluinen,Giessenlanden,Zuid-Holland,VBO,4.929979,51.845396
Nolweg,22,,,4209AZ,Schelluinen,Giessenlanden,Zuid-Holland,VBO,4.930371,51.845554
Nolweg,24,,,4209AZ,Schelluinen,Giessenlanden,Zuid-Holland,VBO,4.931166,51.845587
Nolweg,26,A,,4209AZ,Schelluinen,Giessenlanden,Zuid-Holland,VBO,4.932527,51.846113
Nolweg,26,B,,4209AZ,Schelluinen,Giessenlanden,Zuid-Holland,VBO,4.933112,51.846347
Nolweg,26,,,4209AZ,Schelluinen,Giessenlanden,Zuid-Holland,VBO,4.931942,51.845756
Nolweg,28,A,,4209AZ,Schelluinen,Giessenlanden,Zuid-Holland,VBO,4.934997,51.846759
Nolweg,28,,,4209AZ,Schelluinen,Giessenlanden,Zuid-Holland,VBO,4.934330,51.846797
Nolweg,30,,,4209AZ,Schelluinen,Giessenlanden,Zuid-Holland,VBO,4.937666,51.846630
Nolweg,32,A,,4209AZ,Schelluinen,Giessenlanden,Zuid-Holland,VBO,4.938958,51.847045
Nolweg,32,,,4209AZ,Schelluinen,Giessenlanden,Zuid-Holland,VBO,4.938096,51.847117
Nolweg,36,,,4209AZ,Schelluinen,Giessenlanden,Zuid-Holland,VBO,4.939817,51.846306
Nolweg,38,,,4209AZ,Schelluinen,Giessenlanden,Zuid-Holland,VBO,4.940201,51.847080
Nolweg,40,,,4209AZ,Schelluinen,Giessenlanden,Zuid-Holland,VBO,4.942333,51.847268
Nieuweweg,1,,,4209BA,Schelluinen,Giessenlanden,Zuid-Holland,VBO,4.941590,51.849200
Nieuweweg,5,,,4209BA,Schelluinen,Giessenlanden,Zuid-Holland,VBO,4.941385,51.851214
Nieuweweg,7,A,,4209BA,Schelluinen,Giessenlanden,Zuid-Holland,VBO,4.940310,51.852678
Nieuweweg,7,,,4209BA,Schelluinen,Giessenlanden,Zuid-Holland,VBO,4.940923,51.853092
Nieuweweg,9,,,4209BA,Schelluinen,Giessenlanden,Zuid-Holland,VBO,4.940825,51.853374
Nieuweweg,15,A,,4209BA,Schelluinen,Giessenlanden,Zuid-Holland,VBO,4.938649,51.861893
Nieuweweg,15,,,4209BA,Schelluinen,Giessenlanden,Zuid-Holland,VBO,4.938558,51.861951
Zandkade,12,A,,4209BC,Schelluinen,Giessenlanden,Zuid-Holland,VBO,4.925120,51.840783
Zandkade,12,,,4209BC,Schelluinen,Giessenlanden,Zuid-Holland,VBO,4.925123,51.840725
Zandkade,14,A,,4209BC,Schelluinen,Giessenlanden,Zuid-Holland,VBO,4.924988,51.841200
Zandkade,14,,,4209BC,Schelluinen,Giessenlanden,Zuid-Holland,VBO,4.925021,51.841011
Zandkade,16,,,4209BC,Schelluinen,Giessenlanden,Zuid-Holland,VBO,4.924833,51.841367
Brederodeweg,1,,,4209BE,Schelluinen,Giessenlanden,Zuid-Holland,VBO,4.923996,51.843184
Brederodeweg,2,,,4209BE,Schelluinen,Giessenlanden,Zuid-Holland,VBO,4.923983,51.843230
Brederodeweg,3,,,4209BE,Schelluinen,Giessenlanden,Zuid-Holland,VBO,4.923985,51.843272
Brederodeweg,4,,,4209BE,Schelluinen,Giessenlanden,Zuid-Holland,VBO,4.923976,51.843322
Brederodeweg,5,,,4209BE,Schelluinen,Giessenlanden,Zuid-Holland,VBO,4.923964,51.843388
Brederodeweg,6,,,4209BE,Schelluinen,Giessenlanden,Zuid-Holland,VBO,4.923956,51.843434
Brederodeweg,7,,,4209BE,Schelluinen,Giessenlanden,Zuid-Holland,VBO,4.923958,51.843480
Brederodeweg,8,,,4209BE,Schelluinen,Giessenlanden,Zuid-Holland,VBO,4.923940,51.843526
Brederodeweg,9,,,4209BE,Schelluinen,Giessenlanden,Zuid-Holland,VBO,4.923935,51.843570
Brederodeweg,10,,,4209BE,Schelluinen,Giessenlanden,Zuid-Holland,VBO,4.923928,51.843617
Brederodeweg,11,,,4209BE,Schelluinen,Giessenlanden,Zuid-Holland,VBO,4.923910,51.843733
Kievitstraat,1,,,4209BH,Schelluinen,Giessenlanden,Zuid-Holland,VBO,4.923278,51.842897
Kievitstraat,3,,,4209BH,Schelluinen,Giessenlanden,Zuid-Holland,VBO,4.923064,51.842878
Kievitstraat,5,,,4209BH,Schelluinen,Giessenlanden,Zuid-Holland,VBO,4.922873,51.842886
Kievitstraat,7,,,4209BH,Schelluinen,Giessenlanden,Zuid-Holland,VBO,4.922802,51.843027
Kievitstraat,9,,,4209BH,Schelluinen,Giessenlanden,Zuid-Holland,VBO,4.922739,51.843183
Kievitstraat,11,,,4209BH,Schelluinen,Giessenlanden,Zuid-Holland,VBO,4.922751,51.843320
Kievitstraat,13,,,4209BH,Schelluinen,Giessenlanden,Zuid-Holland,VBO,4.922711,51.843461
Kievitstraat,15,,,4209BH,Schelluinen,Giessenlanden,Zuid-Holland,VBO,4.922663,51.843604
Kievitstraat,17,,,4209BH,Schelluinen,Giessenlanden,Zuid-Holland,VBO,4.922656,51.843761
Kievitstraat,19,,,4209BH,Schelluinen,Giessenlanden,Zuid-Holland,VBO,4.922627,51.844002
Kievitstraat,2,,,4209BJ,Schelluinen,Giessenlanden,Zuid-Holland,VBO,4.924089,51.842997
Kievitstraat,4,,,4209BJ,Schelluinen,Giessenlanden,Zuid-Holland,VBO,4.924015,51.842993
Kievitstraat,6,,,4209BJ,Schelluinen,Giessenlanden,Zuid-Holland,VBO,4.923942,51.842987
Kievitstraat,8,,,4209BJ,Schelluinen,Giessenlanden,Zuid-Holland,VBO,4.923842,51.842978
Kievitstraat,10,,,4209BJ,Schelluinen,Giessenlanden,Zuid-Holland,VBO,4.923659,51.842989
Kievitstraat,12,,,4209BJ,Schelluinen,Giessenlanden,Zuid-Holland,VBO,4.923520,51.843084
Kievitstraat,14,,,4209BJ,Schelluinen,Giessenlanden,Zuid-Holland,VBO,4.923334,51.843168
Kievitstraat,22,,,4209BJ,Schelluinen,Giessenlanden,Zuid-Holland,VBO,4.923264,51.843252
Kievitstraat,24,,,4209BJ,Schelluinen,Giessenlanden,Zuid-Holland,VBO,4.923261,51.843288
Kievitstraat,26,,,4209BJ,Schelluinen,Giessenlanden,Zuid-Holland,VBO,4.923248,51.843339
Kievitstraat,28,,,4209BJ,Schelluinen,Giessenlanden,Zuid-Holland,VBO,4.923234,51.843396
Kievitstraat,30,,,4209BJ,Schelluinen,Giessenlanden,Zuid-Holland,VBO,4.923214,51.843433
Kievitstraat,32,,,4209BJ,Schelluinen,Giessenlanden,Zuid-Holland,VBO,4.923215,51.843476
Kievitstraat,34,,,4209BJ,Schelluinen,Giessenlanden,Zuid-Holland,VBO,4.923205,51.843520
Kievitstraat,36,,,4209BJ,Schelluinen,Giessenlanden,Zuid-Holland,VBO,4.923193,51.843560
Kievitstraat,38,,,4209BJ,Schelluinen,Giessenlanden,Zuid-Holland,VBO,4.923192,51.843604
Reigerstraat,1,,,4209BL,Schelluinen,Giessenlanden,Zuid-Holland,VBO,4.923719,51.843866
Reigerstraat,2,,,4209BL,Schelluinen,Giessenlanden,Zuid-Holland,VBO,4.923715,51.844239
Reigerstraat,3,,,4209BL,Schelluinen,Giessenlanden,Zuid-Holland,VBO,4.923462,51.843874
Reigerstraat,4,,,4209BL,Schelluinen,Giessenlanden,Zuid-Holland,VBO,4.923540,51.844228
Reigerstraat,5,,,4209BL,Schelluinen,Giessenlanden,Zuid-Holland,VBO,4.923385,51.843866
Reigerstraat,7,,,4209BL,Schelluinen,Giessenlanden,Zuid-Holland,VBO,4.923302,51.843860
Reigerstraat,9,,,4209BL,Schelluinen,Giessenlanden,Zuid-Holland,VBO,4.923228,51.843856
Reigerstraat,11,,,4209BL,Schelluinen,Giessenlanden,Zuid-Holland,VBO,4.923152,51.843846
Roerdompstraat,1,,,4209BM,Schelluinen,Giessenlanden,Zuid-Holland,VBO,4.922583,51.844424
Roerdompstraat,2,A,,4209BM,Schelluinen,Giessenlanden,Zuid-Holland,VBO,4.923303,51.844519
Roerdompstraat,2,,,4209BM,Schelluinen,Giessenlanden,Zuid-Holland,VBO,4.923577,51.844592
Roerdompstraat,3,A,,4209BM,Schelluinen,Giessenlanden,Zuid-Holland,VBO,4.923430,51.845628
Roerdompstraat,3,,,4209BM,Schelluinen,Giessenlanden,Zuid-Holland,VBO,4.923432,51.845465
Roerdompstraat,4,,,4209BM,Schelluinen,Giessenlanden,Zuid-Holland,VBO,4.923565,51.844754
Roerdompstraat,5,,,4209BM,Schelluinen,Giessenlanden,Zuid-Holland,VBO,4.923450,51.845771
Roerdompstraat,6,,,4209BM,Schelluinen,Giessenlanden,Zuid-Holland,VBO,4.923547,51.844899
Roerdompstraat,7,,,4209BM,Schelluinen,Giessenlanden,Zuid-Holland,VBO,4.923399,51.845969
Roerdompstraat,8,,,4209BM,Schelluinen,Giessenlanden,Zuid-Holland,VBO,4.923518,51.845038
Roerdompstraat,9,,,4209BM,Schelluinen,Giessenlanden,Zuid-Holland,VBO,4.923334,51.846234
Roerdompstraat,10,,,4209BM,Schelluinen,Giessenlanden,Zuid-Holland,VBO,4.923502,51.845207
Roerdompstraat,11,,,4209BM,Schelluinen,Giessenlanden,Zuid-Holland,VBO,4.923299,51.846378
Roerdompstraat,13,,,4209BM,Schelluinen,Giessenlanden,Zuid-Holland,VBO,4.923293,51.846589
Roerdompstraat,15,,,4209BM,Schelluinen,Giessenlanden,Zuid-Holland,VBO,4.923310,51.846752
Roerdompstraat,17,,,4209BM,Schelluinen,Giessenlanden,Zuid-Holland,VBO,4.923166,51.847057
Roerdompstraat,19,,,4209BM,Schelluinen,Giessenlanden,Zuid-Holland,VBO,4.922912,51.847022
Roerdompstraat,21,,,4209BM,Schelluinen,Giessenlanden,Zuid-Holland,VBO,4.922606,51.846968
Roerdompstraat,23,,,4209BM,Schelluinen,Giessenlanden,Zuid-Holland,VBO,4.922365,51.846727
Roerdompstraat,25,,,4209BM,Schelluinen,Giessenlanden,Zuid-Holland,VBO,4.922028,51.846699
Roerdompstraat,27,,,4209BM,Schelluinen,Giessenlanden,Zuid-Holland,VBO,4.921711,51.846610
Roerdompstraat,29,,,4209BM,Schelluinen,Giessenlanden,Zuid-Holland,VBO,4.921254,51.846598
Roerdompstraat,31,,,4209BM,Schelluinen,Giessenlanden,Zuid-Holland,VBO,4.921058,51.846538
Roerdompstraat,33,,,4209BM,Schelluinen,Giessenlanden,Zuid-Holland,VBO,4.920763,51.846469
Karekietstraat,1,,,4209BP,Schelluinen,Giessenlanden,Zuid-Holland,VBO,4.922229,51.845796
Karekietstraat,2,,,4209BP,Schelluinen,Giessenlanden,Zuid-Holland,VBO,4.922225,51.846037
Karekietstraat,3,,,4209BP,Schelluinen,Giessenlanden,Zuid-Holland,VBO,4.922149,51.845793
Karekietstraat,4,,,4209BP,Schelluinen,Giessenlanden,Zuid-Holland,VBO,4.922071,51.846039
Karekietstraat,5,,,4209BP,Schelluinen,Giessenlanden,Zuid-Holland,VBO,4.922070,51.845788
Karekietstraat,6,A,,4209BP,Schelluinen,Giessenlanden,Zuid-Holland,VBO,4.921817,51.846031
Karekietstraat,6,,,4209BP,Schelluinen,Giessenlanden,Zuid-Holland,VBO,4.921933,51.846025
Karekietstraat,7,,,4209BP,Schelluinen,Giessenlanden,Zuid-Holland,VBO,4.921994,51.845787
Karekietstraat,8,,,4209BP,Schelluinen,Giessenlanden,Zuid-Holland,VBO,4.921615,51.846004
Karekietstraat,9,,,4209BP,Schelluinen,Giessenlanden,Zuid-Holland,VBO,4.921917,51.845781
Karekietstraat,10,,,4209BP,Schelluinen,Giessenlanden,Zuid-Holland,VBO,4.921330,51.845961
Karekietstraat,11,,,4209BP,Schelluinen,Giessenlanden,Zuid-Holland,VBO,4.921839,51.845783
Karekietstraat,12,,,4209BP,Schelluinen,Giessenlanden,Zuid-Holland,VBO,4.921172,51.845951
Karekietstraat,13,,,4209BP,Schelluinen,Giessenlanden,Zuid-Holland,VBO,4.921765,51.845780
Karekietstraat,14,,,4209BP,Schelluinen,Giessenlanden,Zuid-Holland,VBO,4.920999,51.845956
Karekietstraat,15,,,4209BP,Schelluinen,Giessenlanden,Zuid-Holland,VBO,4.921689,51.845778
Karekietstraat,17,,,4209BP,Schelluinen,Giessenlanden,Zuid-Holland,VBO,4.921610,51.845770
Karekietstraat,18,,,4209BP,Schelluinen,Giessenlanden,Zuid-Holland,VBO,4.921172,51.845771
Karekietstraat,19,,,4209BP,Schelluinen,Giessenlanden,Zuid-Holland,VBO,4.921709,51.845394
Karekietstraat,20,,,4209BP,Schelluinen,Giessenlanden,Zuid-Holland,VBO,4.921168,51.845686
Karekietstraat,21,,,4209BP,Schelluinen,Giessenlanden,Zuid-Holland,VBO,4.921835,51.845403
Karekietstraat,23,,,4209BP,Schelluinen,Giessenlanden,Zuid-Holland,VBO,4.921961,51.845414
Karekietstraat,24,,,4209BP,Schelluinen,Giessenlanden,Zuid-Holland,VBO,4.921192,51.845599
Karekietstraat,25,,,4209BP,Schelluinen,Giessenlanden,Zuid-Holland,VBO,4.922078,51.845420
Karekietstraat,26,,,4209BP,Schelluinen,Giessenlanden,Zuid-Holland,VBO,4.921207,51.845503
Karekietstraat,27,,,4209BP,Schelluinen,Giessenlanden,Zuid-Holland,VBO,4.922199,51.845424
Karekietstraat,28,,,4209BP,Schelluinen,Giessenlanden,Zuid-Holland,VBO,4.921231,51.845412
Karekietstraat,29,,,4209BP,Schelluinen,Giessenlanden,Zuid-Holland,VBO,4.922329,51.845451
Karekietstraat,30,,,4209BP,Schelluinen,Giessenlanden,Zuid-Holland,VBO,4.921247,51.845314
Karekietstraat,32,,,4209BP,Schelluinen,Giessenlanden,Zuid-Holland,VBO,4.921262,51.845209
Jan Snouckstraat,1,,,4209CA,Schelluinen,Giessenlanden,Zuid-Holland,VBO,4.929573,51.841862
Jan Snouckstraat,3,,,4209CA,Schelluinen,Giessenlanden,Zuid-Holland,VBO,4.929573,51.841808
Jan Snouckstraat,5,,,4209CA,Schelluinen,Giessenlanden,Zuid-Holland,VBO,4.929559,51.841763
Jan Snouckstraat,7,,,4209CA,Schelluinen,Giessenlanden,Zuid-Holland,VBO,4.929551,51.841709
Jan Snouckstraat,9,,,4209CA,Schelluinen,Giessenlanden,Zuid-Holland,VBO,4.929546,51.841664
Jan Snouckstraat,2,,,4209CB,Schelluinen,Giessenlanden,Zuid-Holland,VBO,4.927675,51.842051
Jan Snouckstraat,4,,,4209CB,Schelluinen,Giessenlanden,Zuid-Holland,VBO,4.927710,51.842099
Jan Snouckstraat,6,,,4209CB,Schelluinen,Giessenlanden,Zuid-Holland,VBO,4.927736,51.842140
Jan Snouckstraat,8,,,4209CB,Schelluinen,Giessenlanden,Zuid-Holland,VBO,4.927767,51.842180
Jan Snouckstraat,10,,,4209CB,Schelluinen,Giessenlanden,Zuid-Holland,VBO,4.927789,51.842234
Jan Snouckstraat,12,,,4209CB,Schelluinen,Giessenlanden,Zuid-Holland,VBO,4.928047,51.842163
Jan Snouckstraat,14,,,4209CB,Schelluinen,Giessenlanden,Zuid-Holland,VBO,4.928153,51.842140
Jan Snouckstraat,16,,,4209CB,Schelluinen,Giessenlanden,Zuid-Holland,VBO,4.928227,51.842128
Jan Snouckstraat,18,,,4209CC,Schelluinen,Giessenlanden,Zuid-Holland,VBO,4.928533,51.842105
Jan Snouckstraat,20,,,4209CC,Schelluinen,Giessenlanden,Zuid-Holland,VBO,4.928629,51.842108
Jan Snouckstraat,22,,,4209CC,Schelluinen,Giessenlanden,Zuid-Holland,VBO,4.928706,51.842110
Jan Snouckstraat,24,,,4209CC,Schelluinen,Giessenlanden,Zuid-Holland,VBO,4.928790,51.842110
Jan Snouckstraat,26,,,4209CC,Schelluinen,Giessenlanden,Zuid-Holland,VBO,4.929033,51.842121
Jan Snouckstraat,28,,,4209CC,Schelluinen,Giessenlanden,Zuid-Holland,VBO,4.929037,51.842067
Jan Snouckstraat,30,,,4209CC,Schelluinen,Giessenlanden,Zuid-Holland,VBO,4.929034,51.842017
Jan Snouckstraat,32,,,4209CC,Schelluinen,Giessenlanden,Zuid-Holland,VBO,4.929025,51.841968
Jan Snouckstraat,34,,,4209CC,Schelluinen,Giessenlanden,Zuid-Holland,VBO,4.929026,51.841922
Jan Snouckstraat,36,,,4209CC,Schelluinen,Giessenlanden,Zuid-Holland,VBO,4.929034,51.841873
Jan Snouckstraat,38,,,4209CC,Schelluinen,Giessenlanden,Zuid-Holland,VBO,4.929038,51.841822
Jan Snouckstraat,40,,,4209CC,Schelluinen,Giessenlanden,Zuid-Holland,VBO,4.929031,51.841775
Stalpert van der Wielestraat,1,,,4209CD,Schelluinen,Giessenlanden,Zuid-Holland,VBO,4.928061,51.841898
Stalpert van der Wielestraat,2,,,4209CD,Schelluinen,Giessenlanden,Zuid-Holland,VBO,4.928616,51.841802
Stalpert van der Wielestraat,3,,,4209CD,Schelluinen,Giessenlanden,Zuid-Holland,VBO,4.928100,51.841959
Stalpert van der Wielestraat,4,,,4209CD,Schelluinen,Giessenlanden,Zuid-Holland,VBO,4.928626,51.841856
Stalpert van der Wielestraat,5,,,4209CD,Schelluinen,Giessenlanden,Zuid-Holland,VBO,4.928144,51.842013
Stalpert van der Wielestraat,6,,,4209CD,Schelluinen,Giessenlanden,Zuid-Holland,VBO,4.928639,51.841907
Jan van Goerlstraat,1,,,4209CE,Schelluinen,Giessenlanden,Zuid-Holland,VBO,4.927957,51.841756
Jan van Goerlstraat,2,,,4209CE,Schelluinen,Giessenlanden,Zuid-Holland,VBO,4.928049,51.841743
Jan van Goerlstraat,3,,,4209CE,Schelluinen,Giessenlanden,Zuid-Holland,VBO,4.928126,51.841725
Jan van Goerlstraat,4,,,4209CE,Schelluinen,Giessenlanden,Zuid-Holland,VBO,4.928215,51.841704
Jan van Goerlstraat,5,,,4209CE,Schelluinen,Giessenlanden,Zuid-Holland,VBO,4.928505,51.841683
Jan van Goerlstraat,6,,,4209CE,Schelluinen,Giessenlanden,Zuid-Holland,VBO,4.928499,51.841656
Jan van Goerlstraat,7,,,4209CE,Schelluinen,Giessenlanden,Zuid-Holland,VBO,4.928480,51.841601
Jan van Goerlstraat,8,,,4209CE,Schelluinen,Giessenlanden,Zuid-Holland,VBO,4.928943,51.841647
Jan van Goerlstraat,9,,,4209CE,Schelluinen,Giessenlanden,Zuid-Holland,VBO,4.928957,51.841606
Jan van Goerlstraat,10,,,4209CE,Schelluinen,Giessenlanden,Zuid-Holland,VBO,4.929054,51.841604
Jan van Goerlstraat,11,,,4209CE,Schelluinen,Giessenlanden,Zuid-Holland,VBO,4.929135,51.841597
Jan van Goerlstraat,12,,,4209CE,Schelluinen,Giessenlanden,Zuid-Holland,VBO,4.929226,51.841591
Jan van Goerlstraat,13,,,4209CE,Schelluinen,Giessenlanden,Zuid-Holland,VBO,4.929235,51.841631
Singeltje,1,,,4209CG,Schelluinen,Giessenlanden,Zuid-Holland,VBO,4.927494,51.841717
Singeltje,2,,,4209CG,Schelluinen,Giessenlanden,Zuid-Holland,VBO,4.927501,51.841740
Singeltje,3,,,4209CG,Schelluinen,Giessenlanden,Zuid-Holland,VBO,4.927512,51.841807
Singeltje,4,,,4209CG,Schelluinen,Giessenlanden,Zuid-Holland,VBO,4.927525,51.841847
Singeltje,5,,,4209CG,Schelluinen,Giessenlanden,Zuid-Holland,VBO,4.927537,51.841903
Singeltje,6,,,4209CG,Schelluinen,Giessenlanden,Zuid-Holland,VBO,4.927546,51.841962
Notenboomstraat,1,,,4209CL,Schelluinen,Giessenlanden,Zuid-Holland,VBO,4.928956,51.844025
Notenboomstraat,2,,,4209CL,Schelluinen,Giessenlanden,Zuid-Holland,VBO,4.928750,51.843765
Notenboomstraat,3,,,4209CL,Schelluinen,Giessenlanden,Zuid-Holland,VBO,4.929073,51.844011
Notenboomstraat,4,,,4209CL,Schelluinen,Giessenlanden,Zuid-Holland,VBO,4.928842,51.843763
Notenboomstraat,5,,,4209CL,Schelluinen,Giessenlanden,Zuid-Holland,VBO,4.929171,51.844005
Notenboomstraat,6,,,4209CL,Schelluinen,Giessenlanden,Zuid-Holland,VBO,4.928913,51.843758
Notenboomstraat,7,,,4209CL,Schelluinen,Giessenlanden,Zuid-Holland,VBO,4.929261,51.843996
Notenboomstraat,8,A,,4209CL,Schelluinen,Giessenlanden,Zuid-Holland,VBO,4.928755,51.843501
Notenboomstraat,8,,,4209CL,Schelluinen,Giessenlanden,Zuid-Holland,VBO,4.928989,51.843751
Notenboomstraat,9,,,4209CL,Schelluinen,Giessenlanden,Zuid-Holland,VBO,4.929358,51.843989
Notenboomstraat,10,,,4209CL,Schelluinen,Giessenlanden,Zuid-Holland,VBO,4.929109,51.843688
Notenboomstraat,11,,,4209CL,Schelluinen,Giessenlanden,Zuid-Holland,VBO,4.929450,51.843979
Notenboomstraat,12,,,4209CL,Schelluinen,Giessenlanden,Zuid-Holland,VBO,4.929183,51.843683
Notenboomstraat,13,,,4209CL,Schelluinen,Giessenlanden,Zuid-Holland,VBO,4.929766,51.844011
Notenboomstraat,14,,,4209CL,Schelluinen,Giessenlanden,Zuid-Holland,VBO,4.929263,51.843675
Notenboomstraat,15,,,4209CL,Schelluinen,Giessenlanden,Zuid-Holland,VBO,4.929763,51.843891
Notenboomstraat,16,,,4209CL,Schelluinen,Giessenlanden,Zuid-Holland,VBO,4.929344,51.843671
Notenboomstraat,17,,,4209CL,Schelluinen,Giessenlanden,Zuid-Holland,VBO,4.929745,51.843835
Notenboomstraat,18,,,4209CL,Schelluinen,Giessenlanden,Zuid-Holland,VBO,4.929475,51.843652
Notenboomstraat,20,,,4209CL,Schelluinen,Giessenlanden,Zuid-Holland,VBO,4.929726,51.843599
Kwakernaakstraat,1,A,,4209CP,Schelluinen,Giessenlanden,Zuid-Holland,VBO,4.929426,51.845008
Kwakernaakstraat,1,,,4209CP,Schelluinen,Giessenlanden,Zuid-Holland,VBO,4.929352,51.844795
Kwakernaakstraat,2,A,,4209CP,Schelluinen,Giessenlanden,Zuid-Holland,VBO,4.929485,51.845009
Kwakernaakstraat,2,,,4209CP,Schelluinen,Giessenlanden,Zuid-Holland,VBO,4.929434,51.844794
Kwakernaakstraat,3,A,,4209CP,Schelluinen,Giessenlanden,Zuid-Holland,VBO,4.929531,51.845011
Kwakernaakstraat,3,,,4209CP,Schelluinen,Giessenlanden,Zuid-Holland,VBO,4.929508,51.844780
Kwakernaakstraat,4,A,,4209CP,Schelluinen,Giessenlanden,Zuid-Holland,VBO,4.929573,51.845006
Kwakernaakstraat,4,,,4209CP,Schelluinen,Giessenlanden,Zuid-Holland,VBO,4.929590,51.844777
Kwakernaakstraat,5,A,,4209CP,Schelluinen,Giessenlanden,Zuid-Holland,VBO,4.929617,51.845004
Kwakernaakstraat,5,,,4209CP,Schelluinen,Giessenlanden,Zuid-Holland,VBO,4.929666,51.844768
Kwakernaakstraat,6,A,,4209CP,Schelluinen,Giessenlanden,Zuid-Holland,VBO,4.929668,51.844999
Kwakernaakstraat,6,,,4209CP,Schelluinen,Giessenlanden,Zuid-Holland,VBO,4.929743,51.844759
Kwakernaakstraat,7,,,4209CP,Schelluinen,Giessenlanden,Zuid-Holland,VBO,4.929989,51.844666
Kwakernaakstraat,8,,,4209CP,Schelluinen,Giessenlanden,Zuid-Holland,VBO,4.930043,51.844754
Kwakernaakstraat,9,,,4209CP,Schelluinen,Giessenlanden,Zuid-Holland,VBO,4.930056,51.844839
Kwakernaakstraat,10,,,4209CP,Schelluinen,Giessenlanden,Zuid-Holland,VBO,4.930004,51.844939
Rietweg,5,,,4209DA,Schelluinen,Giessenlanden,Zuid-Holland,VBO,4.915324,51.841519
Rietweg,6,,,4209DA,Schelluinen,Giessenlanden,Zuid-Holland,VBO,4.915052,51.840725
Griendweg,4,,,4209DB,Schelluinen,Giessenlanden,Zuid-Holland,VBO,4.916269,51.842916
Griendweg,5,,,4209DB,Schelluinen,Giessenlanden,Zuid-Holland,VBO,4.915069,51.843044
Griendweg,6,,,4209DB,Schelluinen,Giessenlanden,Zuid-Holland,VBO,4.916199,51.842894
Griendweg,10,,,4209DB,Schelluinen,Giessenlanden,Zuid-Holland,VBO,4.916403,51.843606
Griendweg,40,,,4209DB,Schelluinen,Giessenlanden,Zuid-Holland,VBO,4.914820,51.844959
Griendweg,50,,,4209DB,Schelluinen,Giessenlanden,Zuid-Holland,VBO,4.912378,51.844213
Griendweg,60,,,4209DB,Schelluinen,Giessenlanden,Zuid-Holland,VBO,4.911794,51.843947
Griendweg,68,,RIO,4209DB,Schelluinen,Giessenlanden,Zuid-Holland,VBO,4.911176,51.843407
Griendweg,72,,,4209DB,Schelluinen,Giessenlanden,Zuid-Holland,VBO,4.911695,51.841432
Griendweg,74,,,4209DB,Schelluinen,Giessenlanden,Zuid-Holland,VBO,4.912703,51.841599
Griendweg,80,,,4209DB,Schelluinen,Giessenlanden,Zuid-Holland,VBO,4.914126,51.841827
Griendweg,81,,,4209DB,Schelluinen,Giessenlanden,Zuid-Holland,VBO,4.914455,51.842387
Griendweg,94,,,4209DB,Schelluinen,Giessenlanden,Zuid-Holland,VBO,4.916014,51.842235
Griendweg,100,,,4209DB,Schelluinen,Giessenlanden,Zuid-Holland,VBO,4.918106,51.841580
Landscheiding,2,,,4209DH,Schelluinen,Giessenlanden,Zuid-Holland,VBO,4.920092,51.846673
Landscheiding,4,,,4209DH,Schelluinen,Giessenlanden,Zuid-Holland,VBO,4.919677,51.846389
Landscheiding,6,,,4209DH,Schelluinen,Giessenlanden,Zuid-Holland,VBO,4.919717,51.846154
Voordijk,1,A,,4209SB,Schelluinen,Giessenlanden,Zuid-Holland,VBO,4.924871,51.842405
Voordijk,1,,,4209SB,Schelluinen,Giessenlanden,Zuid-Holland,VBO,4.924877,51.842465
Voordijk,2,,,4209SB,Schelluinen,Giessenlanden,Zuid-Holland,VBO,4.924905,51.842787
Voordijk,3,,,4209SB,Schelluinen,Giessenlanden,Zuid-Holland,VBO,4.924758,51.842949
Voordijk,4,,,4209SB,Schelluinen,Giessenlanden,Zuid-Holland,VBO,4.924796,51.843140
Voordijk,5,,,4209SB,Schelluinen,Giessenlanden,Zuid-Holland,VBO,4.924798,51.843326
Voordijk,6,,,4209SB,Schelluinen,Giessenlanden,Zuid-Holland,VBO,4.924612,51.844458
Voordijk,7,,,4209SB,Schelluinen,Giessenlanden,Zuid-Holland,VBO,4.924612,51.844512
Voordijk,8,,,4209SB,Schelluinen,Giessenlanden,Zuid-Holland,VBO,4.924611,51.844566
Voordijk,9,,,4209SB,Schelluinen,Giessenlanden,Zuid-Holland,VBO,4.924596,51.844620
Voordijk,10,,,4209SB,Schelluinen,Giessenlanden,Zuid-Holland,VBO,4.924559,51.844704
Voordijk,11,,,4209SB,Schelluinen,Giessenlanden,Zuid-Holland,VBO,4.924554,51.844756
Voordijk,12,,,4209SB,Schelluinen,Giessenlanden,Zuid-Holland,VBO,4.924544,51.844816
Voordijk,13,,,4209SB,Schelluinen,Giessenlanden,Zuid-Holland,VBO,4.924542,51.844873
Voordijk,14,,,4209SB,Schelluinen,Giessenlanden,Zuid-Holland,VBO,4.924480,51.845231
Voordijk,15,,,4209SB,Schelluinen,Giessenlanden,Zuid-Holland,VBO,4.924478,51.845283
Voordijk,16,,,4209SB,Schelluinen,Giessenlanden,Zuid-Holland,VBO,4.924462,51.845338
Voordijk,17,,,4209SB,Schelluinen,Giessenlanden,Zuid-Holland,VBO,4.924451,51.845429
Voordijk,18,,,4209SB,Schelluinen,Giessenlanden,Zuid-Holland,VBO,4.924449,51.845488
Voordijk,19,,,4209SB,Schelluinen,Giessenlanden,Zuid-Holland,VBO,4.924437,51.845541
Voordijk,20,,,4209SB,Schelluinen,Giessenlanden,Zuid-Holland,VBO,4.924435,51.845599
Voordijk,21,,,4209SC,Schelluinen,Giessenlanden,Zuid-Holland,VBO,4.924426,51.845894
Voordijk,22,,,4209SC,Schelluinen,Giessenlanden,Zuid-Holland,VBO,4.924420,51.846273
Voordijk,23,,,4209SC,Schelluinen,Giessenlanden,Zuid-Holland,VBO,4.924357,51.846677
Voordijk,24,,,4209SC,Schelluinen,Giessenlanden,Zuid-Holland,VBO,4.924318,51.847079
Voordijk,25,,,4209SC,Schelluinen,Giessenlanden,Zuid-Holland,VBO,4.924478,51.847571
Voordijk,26,A,,4209SC,Schelluinen,Giessenlanden,Zuid-Holland,VBO,4.924583,51.848065
Voordijk,26,,,4209SC,Schelluinen,Giessenlanden,Zuid-Holland,VBO,4.924240,51.847904
Voordijk,27,,,4209SC,Schelluinen,Giessenlanden,Zuid-Holland,VBO,4.924080,51.848231
Voordijk,28,,,4209SC,Schelluinen,Giessenlanden,Zuid-Holland,VBO,4.924084,51.848271
Voordijk,29,A,,4209SC,Schelluinen,Giessenlanden,Zuid-Holland,VBO,4.924086,51.848569
Voordijk,29,,,4209SC,Schelluinen,Giessenlanden,Zuid-Holland,VBO,4.923960,51.848573
Voordijk,30,,,4209SC,Schelluinen,Giessenlanden,Zuid-Holland,VBO,4.924005,51.848683
Voordijk,31,,,4209SC,Schelluinen,Giessenlanden,Zuid-Holland,VBO,4.924023,51.849314
Voordijk,32,,,4209SC,Schelluinen,Giessenlanden,Zuid-Holland,VBO,4.924006,51.849425
Voordijk,33,A,,4209SC,Schelluinen,Giessenlanden,Zuid-Holland,VBO,4.923886,51.849847
Voordijk,33,,,4209SC,Schelluinen,Giessenlanden,Zuid-Holland,VBO,4.924107,51.849822
Voordijk,34,A,,4209SC,Schelluinen,Giessenlanden,Zuid-Holland,VBO,4.923785,51.850402
Voordijk,34,,,4209SC,Schelluinen,Giessenlanden,Zuid-Holland,VBO,4.923607,51.850402
Voordijk,35,,,4209SC,Schelluinen,Giessenlanden,Zuid-Holland,VBO,4.923778,51.850783
Voordijk,36,,,4209SC,Schelluinen,Giessenlanden,Zuid-Holland,VBO,4.923615,51.851124
Voordijk,37,,,4209SC,Schelluinen,Giessenlanden,Zuid-Holland,VBO,4.923477,51.851605
Voordijk,38,A,,4209SC,Schelluinen,Giessenlanden,Zuid-Holland,VBO,4.923246,51.852231
Voordijk,38,,,4209SC,Schelluinen,Giessenlanden,Zuid-Holland,VBO,4.923648,51.851980
Voordijk,39,A,,4209SC,Schelluinen,Giessenlanden,Zuid-Holland,VBO,4.923614,51.852550
Voordijk,39,,,4209SC,Schelluinen,Giessenlanden,Zuid-Holland,VBO,4.923602,51.852400
Voordijk,40,,,4209SE,Schelluinen,Giessenlanden,Zuid-Holland,VBO,4.923217,51.852791
Voordijk,41,,,4209SE,Schelluinen,Giessenlanden,Zuid-Holland,VBO,4.923304,51.852955
Voordijk,42,,,4209SE,Schelluinen,Giessenlanden,Zuid-Holland,VBO,4.923210,51.853150
Voordijk,43,,,4209SE,Schelluinen,Giessenlanden,Zuid-Holland,VBO,4.923229,51.853409
Voordijk,44,,,4209SE,Schelluinen,Giessenlanden,Zuid-Holland,VBO,4.923355,51.853697
Voordijk,45,,,4209SE,Schelluinen,Giessenlanden,Zuid-Holland,VBO,4.922857,51.854297
Voordijk,46,,,4209SE,Schelluinen,Giessenlanden,Zuid-Holland,VBO,4.922966,51.854395
Voordijk,47,,,4209SE,Schelluinen,Giessenlanden,Zuid-Holland,VBO,4.922822,51.854806
Voordijk,48,,,4209SE,Schelluinen,Giessenlanden,Zuid-Holland,VBO,4.922829,51.855307
Voordijk,50,,,4209SE,Schelluinen,Giessenlanden,Zuid-Holland,VBO,4.922609,51.855749
Voordijk,52,A,,4209SE,Schelluinen,Giessenlanden,Zuid-Holland,VBO,4.922611,51.856124
Voordijk,52,,,4209SE,Schelluinen,Giessenlanden,Zuid-Holland,VBO,4.922566,51.855878
Voordijk,53,,,4209SE,Schelluinen,Giessenlanden,Zuid-Holland,VBO,4.922624,51.856478
Voordijk,54,,,4209SE,Schelluinen,Giessenlanden,Zuid-Holland,VBO,4.922450,51.856483
Voordijk,55,,,4209SE,Schelluinen,Giessenlanden,Zuid-Holland,VBO,4.922346,51.857140
Voordijk,56,A,,4209SE,Schelluinen,Giessenlanden,Zuid-Holland,VBO,4.922102,51.857499
Voordijk,56,,,4209SE,Schelluinen,Giessenlanden,Zuid-Holland,VBO,4.922271,51.857504
Voordijk,57,,,4209SE,Schelluinen,Giessenlanden,Zuid-Holland,VBO,4.922198,51.857608
Voordijk,58,,,4209SE,Schelluinen,Giessenlanden,Zuid-Holland,VBO,4.922584,51.858176
Voordijk,59,,,4209SE,Schelluinen,Giessenlanden,Zuid-Holland,VBO,4.922337,51.858402
Voordijk,60,,,4209SE,Schelluinen,Giessenlanden,Zuid-Holland,VBO,4.922202,51.858688
Voordijk,61,,,4209SE,Schelluinen,Giessenlanden,Zuid-Holland,VBO,4.922267,51.858906
Voordijk,62,,,4209SE,Schelluinen,Giessenlanden,Zuid-Holland,VBO,4.922021,51.859324
Voordijk,63,,,4209SE,Schelluinen,Giessenlanden,Zuid-Holland,VBO,4.921889,51.859750
Voordijk,64,,,4209SE,Schelluinen,Giessenlanden,Zuid-Holland,VBO,4.921877,51.859797
Voordijk,65,,,4209SE,Schelluinen,Giessenlanden,Zuid-Holland,VBO,4.921592,51.860113
Provincialeweg,1,,,4209SK,Schelluinen,Giessenlanden,Zuid-Holland,VBO,4.917537,51.842313
Banneweg,30,,,4209SZ,Schelluinen,Giessenlanden,Zuid-Holland,VBO,4.934857,51.843042
