openbareruimtenaam,huisnummer,huisletter,huisnummertoevoeging,postcode,woonplaatsnaam,gemeentenaam,provincienaam,typeadresseerbaarobject,longitude,latitude
Kortakker,2,,,4264AE,Veen,Aalburg,Noord-Brabant,VBO,5.098027,51.773677
Kortakker,4,,,4264AE,Veen,Aalburg,Noord-Brabant,VBO,5.097832,51.773508
Kortakker,5,,,4264AE,Veen,Aalburg,Noord-Brabant,VBO,5.098568,51.773353
Kortakker,6,,,4264AE,Veen,Aalburg,Noord-Brabant,VBO,5.098078,51.773367
Kortakker,7,,,4264AE,Veen,Aalburg,Noord-Brabant,VBO,5.098693,51.772901
Kortakker,8,,,4264AE,Veen,Aalburg,Noord-Brabant,VBO,5.098093,51.773268
Kortakker,9,a,,4264AE,Veen,Aalburg,Noord-Brabant,VBO,5.098754,51.772783
Kortakker,9,b,,4264AE,Veen,Aalburg,Noord-Brabant,VBO,5.098756,51.772770
Kortakker,9,c,,4264AE,Veen,Aalburg,Noord-Brabant,VBO,5.098752,51.772757
Kortakker,9,e,,4264AE,Veen,Aalburg,Noord-Brabant,VBO,5.098763,51.772667
Kortakker,9,g,,4264AE,Veen,Aalburg,Noord-Brabant,VBO,5.098807,51.772676
Kortakker,9,h,,4264AE,Veen,Aalburg,Noord-Brabant,VBO,5.099145,51.772708
Kortakker,9,,,4264AE,Veen,Aalburg,Noord-Brabant,VBO,5.098745,51.772726
Kortakker,10,,,4264AE,Veen,Aalburg,Noord-Brabant,VBO,5.098213,51.772721
Lage Uitakker,2,,,4264AG,Veen,Aalburg,Noord-Brabant,VBO,5.099499,51.773330
Lage Uitakker,4,,,4264AG,Veen,Aalburg,Noord-Brabant,VBO,5.099315,51.773307
Lage Uitakker,6,,,4264AG,Veen,Aalburg,Noord-Brabant,VBO,5.099068,51.773284
Lage Uitakker,10,,,4264AG,Veen,Aalburg,Noord-Brabant,VBO,5.098745,51.773253
Lage Uitakker,14,,,4264AG,Veen,Aalburg,Noord-Brabant,VBO,5.097384,51.773050
Hoefakker,1,,,4264AH,Veen,Aalburg,Noord-Brabant,VBO,5.099945,51.773940
Hoefakker,2,,,4264AH,Veen,Aalburg,Noord-Brabant,VBO,5.099521,51.773897
Hoefakker,3,,,4264AH,Veen,Aalburg,Noord-Brabant,VBO,5.100093,51.773786
Hoefakker,4,a,,4264AH,Veen,Aalburg,Noord-Brabant,VBO,5.099603,51.773703
Hoefakker,4,,,4264AH,Veen,Aalburg,Noord-Brabant,VBO,5.099583,51.773777
Hoefakker,5,,,4264AH,Veen,Aalburg,Noord-Brabant,VBO,5.100190,51.772978
Hoefakker,6,,,4264AH,Veen,Aalburg,Noord-Brabant,VBO,5.099640,51.773534
Hoefakker,8,,,4264AH,Veen,Aalburg,Noord-Brabant,VBO,5.099754,51.773031
Hoefakker,10,,,4264AH,Veen,Aalburg,Noord-Brabant,VBO,5.099804,51.772845
Hoge Uitakker,4,,,4264AJ,Veen,Aalburg,Noord-Brabant,VBO,5.100456,51.773548
Hoge Uitakker,5,,,4264AJ,Veen,Aalburg,Noord-Brabant,VBO,5.100768,51.773808
Hoge Uitakker,6,,,4264AJ,Veen,Aalburg,Noord-Brabant,VBO,5.100900,51.773509
Hoge Uitakker,7,,,4264AJ,Veen,Aalburg,Noord-Brabant,VBO,5.100847,51.774075
de Eng,1,,,4264AK,Veen,Aalburg,Noord-Brabant,VBO,5.101436,51.781427
de Eng,2,,,4264AK,Veen,Aalburg,Noord-Brabant,VBO,5.100106,51.781075
de Eng,6,,,4264AK,Veen,Aalburg,Noord-Brabant,VBO,5.102456,51.780969
Veense Put,1,a,,4264AL,Veen,Aalburg,Noord-Brabant,VBO,5.099584,51.783300
Veense Put,1,,,4264AL,Veen,Aalburg,Noord-Brabant,VBO,5.098134,51.782670
Veense Put,2,a,,4264AL,Veen,Aalburg,Noord-Brabant,STA,5.100142,51.785006
Veense Put,2,,,4264AL,Veen,Aalburg,Noord-Brabant,STA,5.100159,51.785115
Veense Put,3,,,4264AL,Veen,Aalburg,Noord-Brabant,VBO,5.097917,51.782642
Veense Put,4,,,4264AL,Veen,Aalburg,Noord-Brabant,STA,5.100093,51.784916
Veense Put,5,,,4264AL,Veen,Aalburg,Noord-Brabant,VBO,5.097756,51.782609
Veense Put,6,,,4264AL,Veen,Aalburg,Noord-Brabant,STA,5.099926,51.784852
Veense Put,7,,,4264AL,Veen,Aalburg,Noord-Brabant,VBO,5.097697,51.782554
Veense Put,8,,,4264AL,Veen,Aalburg,Noord-Brabant,STA,5.100021,51.784745
Veense Put,9,a,,4264AL,Veen,Aalburg,Noord-Brabant,VBO,5.097394,51.782538
Veense Put,9,,,4264AL,Veen,Aalburg,Noord-Brabant,VBO,5.097484,51.782577
Veense Put,10,,,4264AL,Veen,Aalburg,Noord-Brabant,STA,5.099986,51.784659
Veense Put,11,,,4264AL,Veen,Aalburg,Noord-Brabant,STA,5.097205,51.782503
Veense Put,12,,,4264AL,Veen,Aalburg,Noord-Brabant,STA,5.099996,51.784547
Veense Put,13,,,4264AL,Veen,Aalburg,Noord-Brabant,VBO,5.097092,51.782478
Veense Put,14,,,4264AL,Veen,Aalburg,Noord-Brabant,STA,5.099917,51.784482
Veense Put,15,a,,4264AL,Veen,Aalburg,Noord-Brabant,STA,5.096768,51.782430
Veense Put,15,,,4264AL,Veen,Aalburg,Noord-Brabant,STA,5.097004,51.782425
Veense Put,16,,,4264AL,Veen,Aalburg,Noord-Brabant,STA,5.099880,51.784398
Veense Put,17,,,4264AL,Veen,Aalburg,Noord-Brabant,VBO,5.096602,51.782473
Veense Put,18,,,4264AL,Veen,Aalburg,Noord-Brabant,STA,5.099812,51.784312
Veense Put,19,,,4264AL,Veen,Aalburg,Noord-Brabant,STA,5.096415,51.782467
Veense Put,20,,,4264AL,Veen,Aalburg,Noord-Brabant,STA,5.099776,51.784225
Veense Put,21,,,4264AL,Veen,Aalburg,Noord-Brabant,VBO,5.096315,51.782540
Veense Put,22,,,4264AL,Veen,Aalburg,Noord-Brabant,STA,5.099734,51.784143
Veense Put,23,,,4264AL,Veen,Aalburg,Noord-Brabant,VBO,5.096149,51.782584
Veense Put,24,,,4264AL,Veen,Aalburg,Noord-Brabant,STA,5.099675,51.784036
Veense Put,25,,,4264AL,Veen,Aalburg,Noord-Brabant,VBO,5.095801,51.782601
Veense Put,26,,,4264AL,Veen,Aalburg,Noord-Brabant,STA,5.099631,51.783944
Veense Put,28,,,4264AL,Veen,Aalburg,Noord-Brabant,STA,5.099589,51.783843
Veense Put,29,,,4264AL,Veen,Aalburg,Noord-Brabant,STA,5.095371,51.782448
Veense Put,30,,,4264AL,Veen,Aalburg,Noord-Brabant,STA,5.099662,51.783752
Veense Put,31,,,4264AL,Veen,Aalburg,Noord-Brabant,VBO,5.095208,51.782465
Veense Put,32,,,4264AL,Veen,Aalburg,Noord-Brabant,STA,5.099553,51.783670
Veense Put,33,,,4264AL,Veen,Aalburg,Noord-Brabant,VBO,5.095036,51.782481
Veense Put,34,,,4264AL,Veen,Aalburg,Noord-Brabant,STA,5.099429,51.783593
Veense Put,35,,,4264AL,Veen,Aalburg,Noord-Brabant,VBO,5.094915,51.782456
Veense Put,36,,,4264AL,Veen,Aalburg,Noord-Brabant,STA,5.099475,51.783475
Veense Put,37,,,4264AL,Veen,Aalburg,Noord-Brabant,VBO,5.094782,51.782396
Veense Put,38,,,4264AL,Veen,Aalburg,Noord-Brabant,STA,5.099255,51.783449
Veense Put,40,,,4264AL,Veen,Aalburg,Noord-Brabant,STA,5.099211,51.783371
Veense Put,41,,,4264AL,Veen,Aalburg,Noord-Brabant,VBO,5.094528,51.782355
Veense Put,42,,,4264AL,Veen,Aalburg,Noord-Brabant,STA,5.099173,51.783286
Veense Put,43,,,4264AL,Veen,Aalburg,Noord-Brabant,STA,5.094354,51.782358
Veense Put,44,,,4264AL,Veen,Aalburg,Noord-Brabant,VBO,5.099204,51.783149
Veense Put,45,,,4264AL,Veen,Aalburg,Noord-Brabant,VBO,5.094166,51.782309
Veense Put,46,,,4264AL,Veen,Aalburg,Noord-Brabant,VBO,5.098977,51.783000
Veense Put,47,,,4264AL,Veen,Aalburg,Noord-Brabant,VBO,5.093963,51.782273
Veense Put,48,,,4264AL,Veen,Aalburg,Noord-Brabant,VBO,5.098855,51.782969
Veense Put,50,,,4264AL,Veen,Aalburg,Noord-Brabant,VBO,5.098722,51.782936
Veense Put,51,,,4264AL,Veen,Aalburg,Noord-Brabant,VBO,5.093674,51.782209
Veense Put,52,,,4264AL,Veen,Aalburg,Noord-Brabant,STA,5.098542,51.782907
Veense Put,53,,,4264AL,Veen,Aalburg,Noord-Brabant,VBO,5.093529,51.782191
Veense Put,54,,,4264AL,Veen,Aalburg,Noord-Brabant,STA,5.098410,51.782884
Veense Put,55,,,4264AL,Veen,Aalburg,Noord-Brabant,VBO,5.093399,51.782164
Veense Put,56,,,4264AL,Veen,Aalburg,Noord-Brabant,VBO,5.098263,51.782859
Veense Put,57,,,4264AL,Veen,Aalburg,Noord-Brabant,VBO,5.093220,51.782131
Veense Put,58,,,4264AL,Veen,Aalburg,Noord-Brabant,VBO,5.098017,51.782804
Veense Put,59,a,,4264AL,Veen,Aalburg,Noord-Brabant,VBO,5.092964,51.782091
Veense Put,59,,,4264AL,Veen,Aalburg,Noord-Brabant,VBO,5.093124,51.782161
Veense Put,60,,,4264AL,Veen,Aalburg,Noord-Brabant,VBO,5.097894,51.782765
Veense Put,61,,,4264AL,Veen,Aalburg,Noord-Brabant,VBO,5.092824,51.782088
Veense Put,62,,,4264AL,Veen,Aalburg,Noord-Brabant,VBO,5.097728,51.782741
Veense Put,63,,,4264AL,Veen,Aalburg,Noord-Brabant,VBO,5.092689,51.782054
Veense Put,64,,,4264AL,Veen,Aalburg,Noord-Brabant,VBO,5.097598,51.782731
Veense Put,65,,,4264AL,Veen,Aalburg,Noord-Brabant,VBO,5.092530,51.782027
Veense Put,66,,,4264AL,Veen,Aalburg,Noord-Brabant,VBO,5.097445,51.782682
Veense Put,67,,,4264AL,Veen,Aalburg,Noord-Brabant,VBO,5.092369,51.782039
Veense Put,69,,,4264AL,Veen,Aalburg,Noord-Brabant,STA,5.092261,51.781944
Veense Put,70,,,4264AL,Veen,Aalburg,Noord-Brabant,VBO,5.097160,51.782621
Veense Put,71,,,4264AL,Veen,Aalburg,Noord-Brabant,VBO,5.092093,51.781999
Veense Put,72,,,4264AL,Veen,Aalburg,Noord-Brabant,STA,5.097057,51.782648
Veense Put,73,,,4264AL,Veen,Aalburg,Noord-Brabant,VBO,5.091980,51.782160
Veense Put,74,,,4264AL,Veen,Aalburg,Noord-Brabant,STA,5.096789,51.782591
Veense Put,75,,,4264AL,Veen,Aalburg,Noord-Brabant,VBO,5.091935,51.782223
Veense Put,76,,,4264AL,Veen,Aalburg,Noord-Brabant,STA,5.096588,51.782612
Veense Put,77,,,4264AL,Veen,Aalburg,Noord-Brabant,VBO,5.091862,51.782295
Veense Put,79,,,4264AL,Veen,Aalburg,Noord-Brabant,VBO,5.091789,51.782366
Veense Put,80,,,4264AL,Veen,Aalburg,Noord-Brabant,VBO,5.096265,51.782683
Veense Put,81,,,4264AL,Veen,Aalburg,Noord-Brabant,VBO,5.091730,51.782429
Veense Put,82,a,,4264AL,Veen,Aalburg,Noord-Brabant,VBO,5.095824,51.782740
Veense Put,82,,,4264AL,Veen,Aalburg,Noord-Brabant,VBO,5.095993,51.782727
Veense Put,83,,,4264AL,Veen,Aalburg,Noord-Brabant,VBO,5.091672,51.782510
Veense Put,84,,,4264AL,Veen,Aalburg,Noord-Brabant,VBO,5.095714,51.782700
Veense Put,85,,,4264AL,Veen,Aalburg,Noord-Brabant,VBO,5.091555,51.782590
Veense Put,86,,,4264AL,Veen,Aalburg,Noord-Brabant,VBO,5.095468,51.782654
Veense Put,87,,,4264AL,Veen,Aalburg,Noord-Brabant,VBO,5.091468,51.782671
Veense Put,89,a,,4264AL,Veen,Aalburg,Noord-Brabant,VBO,5.091177,51.782877
Veense Put,89,,,4264AL,Veen,Aalburg,Noord-Brabant,VBO,5.091426,51.782765
Veense Put,90,,,4264AL,Veen,Aalburg,Noord-Brabant,VBO,5.095077,51.782608
Veense Put,91,,,4264AL,Veen,Aalburg,Noord-Brabant,VBO,5.091137,51.782910
Veense Put,92,,,4264AL,Veen,Aalburg,Noord-Brabant,STA,5.094866,51.782576
Veense Put,93,,,4264AL,Veen,Aalburg,Noord-Brabant,VBO,5.091017,51.783003
Veense Put,94,,,4264AL,Veen,Aalburg,Noord-Brabant,STA,5.094729,51.782552
Veense Put,95,,,4264AL,Veen,Aalburg,Noord-Brabant,VBO,5.090893,51.783121
Veense Put,96,,,4264AL,Veen,Aalburg,Noord-Brabant,STA,5.094555,51.782521
Veense Put,98,,,4264AL,Veen,Aalburg,Noord-Brabant,VBO,5.094339,51.782481
Veense Put,99,,,4264AL,Veen,Aalburg,Noord-Brabant,VBO,5.090743,51.783280
Veense Put,100,,,4264AL,Veen,Aalburg,Noord-Brabant,VBO,5.094165,51.782453
Veense Put,101,,,4264AL,Veen,Aalburg,Noord-Brabant,VBO,5.090536,51.783352
Veense Put,102,,,4264AL,Veen,Aalburg,Noord-Brabant,STA,5.094000,51.782417
Veense Put,103,,,4264AL,Veen,Aalburg,Noord-Brabant,VBO,5.090422,51.783387
Veense Put,104,,,4264AL,Veen,Aalburg,Noord-Brabant,VBO,5.093745,51.782380
Veense Put,105,,,4264AL,Veen,Aalburg,Noord-Brabant,VBO,5.090347,51.783468
Veense Put,106,,,4264AL,Veen,Aalburg,Noord-Brabant,VBO,5.093470,51.782335
Veense Put,107,,,4264AL,Veen,Aalburg,Noord-Brabant,VBO,5.090187,51.783549
Veense Put,108,,,4264AL,Veen,Aalburg,Noord-Brabant,STA,5.093362,51.782305
Veense Put,109,,,4264AL,Veen,Aalburg,Noord-Brabant,VBO,5.089880,51.783655
Veense Put,110,,,4264AL,Veen,Aalburg,Noord-Brabant,VBO,5.093082,51.782254
Veense Put,111,,,4264AL,Veen,Aalburg,Noord-Brabant,VBO,5.089738,51.783681
Veense Put,112,,,4264AL,Veen,Aalburg,Noord-Brabant,VBO,5.092906,51.782225
Veense Put,113,,,4264AL,Veen,Aalburg,Noord-Brabant,VBO,5.089481,51.783806
Veense Put,114,,,4264AL,Veen,Aalburg,Noord-Brabant,VBO,5.092703,51.782198
Veense Put,115,,,4264AL,Veen,Aalburg,Noord-Brabant,VBO,5.089386,51.783986
Veense Put,116,,,4264AL,Veen,Aalburg,Noord-Brabant,VBO,5.092384,51.782188
Veense Put,117,,,4264AL,Veen,Aalburg,Noord-Brabant,VBO,5.089153,51.783981
Veense Put,119,,,4264AL,Veen,Aalburg,Noord-Brabant,VBO,5.089024,51.784004
Veense Put,120,,,4264AL,Veen,Aalburg,Noord-Brabant,VBO,5.092020,51.782457
Veense Put,121,,,4264AL,Veen,Aalburg,Noord-Brabant,VBO,5.088796,51.783938
Veense Put,122,,,4264AL,Veen,Aalburg,Noord-Brabant,VBO,5.091933,51.782529
Veense Put,124,,,4264AL,Veen,Aalburg,Noord-Brabant,VBO,5.091806,51.782604
Veense Put,125,,,4264AL,Veen,Aalburg,Noord-Brabant,VBO,5.088615,51.783954
Veense Put,126,,,4264AL,Veen,Aalburg,Noord-Brabant,VBO,5.091732,51.782691
Veense Put,127,,,4264AL,Veen,Aalburg,Noord-Brabant,VBO,5.088214,51.783885
Veense Put,129,,,4264AL,Veen,Aalburg,Noord-Brabant,VBO,5.087982,51.783804
Veense Put,130,,,4264AL,Veen,Aalburg,Noord-Brabant,VBO,5.091505,51.782862
Veense Put,131,,,4264AL,Veen,Aalburg,Noord-Brabant,VBO,5.087867,51.783741
Veense Put,132,,,4264AL,Veen,Aalburg,Noord-Brabant,VBO,5.091282,51.783068
Veense Put,133,,,4264AL,Veen,Aalburg,Noord-Brabant,VBO,5.087781,51.783657
Veense Put,135,,,4264AL,Veen,Aalburg,Noord-Brabant,VBO,5.087549,51.783542
Veense Put,137,,,4264AL,Veen,Aalburg,Noord-Brabant,VBO,5.087446,51.783423
Veense Put,139,,,4264AL,Veen,Aalburg,Noord-Brabant,VBO,5.087304,51.783371
Veense Put,141,,,4264AL,Veen,Aalburg,Noord-Brabant,VBO,5.087218,51.783299
Veense Put,142,,,4264AL,Veen,Aalburg,Noord-Brabant,VBO,5.090746,51.783426
Veense Put,143,,,4264AL,Veen,Aalburg,Noord-Brabant,VBO,5.087163,51.783222
Veense Put,144,,,4264AL,Veen,Aalburg,Noord-Brabant,VBO,5.090665,51.783523
Veense Put,145,,,4264AL,Veen,Aalburg,Noord-Brabant,STA,5.087189,51.783076
Veense Put,149,,,4264AL,Veen,Aalburg,Noord-Brabant,VBO,5.086938,51.782982
Veense Put,150,,,4264AL,Veen,Aalburg,Noord-Brabant,VBO,5.090229,51.783720
Veense Put,151,,,4264AL,Veen,Aalburg,Noord-Brabant,VBO,5.086800,51.782929
Veense Put,152,,,4264AL,Veen,Aalburg,Noord-Brabant,VBO,5.090116,51.783793
Veense Put,153,,,4264AL,Veen,Aalburg,Noord-Brabant,VBO,5.086742,51.782848
Veense Put,154,,,4264AL,Veen,Aalburg,Noord-Brabant,VBO,5.089807,51.783970
Veense Put,155,,,4264AL,Veen,Aalburg,Noord-Brabant,VBO,5.086656,51.782776
Veense Put,156,,,4264AL,Veen,Aalburg,Noord-Brabant,VBO,5.089705,51.784087
Veense Put,157,,,4264AL,Veen,Aalburg,Noord-Brabant,VBO,5.086489,51.782644
Veense Put,158,,,4264AL,Veen,Aalburg,Noord-Brabant,VBO,5.089566,51.784198
Veense Put,159,a,,4264AL,Veen,Aalburg,Noord-Brabant,VBO,5.086498,51.782506
Veense Put,159,,,4264AL,Veen,Aalburg,Noord-Brabant,VBO,5.086440,51.782542
Veense Put,161,,,4264AL,Veen,Aalburg,Noord-Brabant,VBO,5.086359,51.782349
Veense Put,162,,,4264AL,Veen,Aalburg,Noord-Brabant,VBO,5.089728,51.784353
Veense Put,163,,,4264AL,Veen,Aalburg,Noord-Brabant,VBO,5.086219,51.782232
Veense Put,164,a,,4264AL,Veen,Aalburg,Noord-Brabant,VBO,5.089890,51.784479
Veense Put,164,,,4264AL,Veen,Aalburg,Noord-Brabant,VBO,5.089848,51.784423
Veense Put,165,,,4264AL,Veen,Aalburg,Noord-Brabant,VBO,5.086008,51.782163
Veense Put,166,,,4264AL,Veen,Aalburg,Noord-Brabant,VBO,5.090039,51.784528
Veense Put,167,a,,4264AL,Veen,Aalburg,Noord-Brabant,VBO,5.085893,51.781994
Veense Put,167,,,4264AL,Veen,Aalburg,Noord-Brabant,VBO,5.085952,51.782055
Veense Put,170,,,4264AL,Veen,Aalburg,Noord-Brabant,VBO,5.090177,51.784669
Veense Put,171,,,4264AL,Veen,Aalburg,Noord-Brabant,STA,5.085794,51.781805
Veense Put,173,,,4264AL,Veen,Aalburg,Noord-Brabant,VBO,5.085573,51.781717
Veense Put,174,,,4264AL,Veen,Aalburg,Noord-Brabant,VBO,5.090114,51.784791
Veense Put,175,,,4264AL,Veen,Aalburg,Noord-Brabant,VBO,5.085411,51.781562
Veense Put,178,,,4264AL,Veen,Aalburg,Noord-Brabant,VBO,5.089705,51.784977
Veense Put,179,,,4264AL,Veen,Aalburg,Noord-Brabant,VBO,5.085215,51.781414
Veense Put,180,,,4264AL,Veen,Aalburg,Noord-Brabant,VBO,5.089551,51.784915
Veense Put,182,,,4264AL,Veen,Aalburg,Noord-Brabant,VBO,5.089447,51.784824
Veense Put,184,a,,4264AL,Veen,Aalburg,Noord-Brabant,VBO,5.089281,51.784679
Veense Put,184,,,4264AL,Veen,Aalburg,Noord-Brabant,VBO,5.089435,51.784735
Veense Put,186,,,4264AL,Veen,Aalburg,Noord-Brabant,VBO,5.089111,51.784700
Veense Put,188,,,4264AL,Veen,Aalburg,Noord-Brabant,VBO,5.089051,51.784557
Veense Put,190,,,4264AL,Veen,Aalburg,Noord-Brabant,VBO,5.088963,51.784489
Veense Put,192,,,4264AL,Veen,Aalburg,Noord-Brabant,VBO,5.088848,51.784426
Veense Put,194,,,4264AL,Veen,Aalburg,Noord-Brabant,VBO,5.088755,51.784343
Veense Put,196,,,4264AL,Veen,Aalburg,Noord-Brabant,VBO,5.088689,51.784290
Veense Put,198,,,4264AL,Veen,Aalburg,Noord-Brabant,VBO,5.088592,51.784210
Veense Put,200,,,4264AL,Veen,Aalburg,Noord-Brabant,VBO,5.088473,51.784174
Veense Put,202,,,4264AL,Veen,Aalburg,Noord-Brabant,VBO,5.088343,51.784101
Veense Put,204,,,4264AL,Veen,Aalburg,Noord-Brabant,VBO,5.088256,51.784020
Veense Put,206,,,4264AL,Veen,Aalburg,Noord-Brabant,VBO,5.088097,51.783966
Veense Put,210,,,4264AL,Veen,Aalburg,Noord-Brabant,VBO,5.087722,51.783794
Veense Put,212,,,4264AL,Veen,Aalburg,Noord-Brabant,VBO,5.087577,51.783713
Veense Put,214,,,4264AL,Veen,Aalburg,Noord-Brabant,VBO,5.087476,51.783650
Veense Put,216,,,4264AL,Veen,Aalburg,Noord-Brabant,VBO,5.087361,51.783578
Veense Put,218,,,4264AL,Veen,Aalburg,Noord-Brabant,VBO,5.087260,51.783514
Veense Put,220,,,4264AL,Veen,Aalburg,Noord-Brabant,VBO,5.087205,51.783458
Veense Put,222,,,4264AL,Veen,Aalburg,Noord-Brabant,VBO,5.087087,51.783379
Veense Put,224,,,4264AL,Veen,Aalburg,Noord-Brabant,VBO,5.086962,51.783327
Veense Put,226,,,4264AL,Veen,Aalburg,Noord-Brabant,VBO,5.086851,51.783270
Veense Put,228,,,4264AL,Veen,Aalburg,Noord-Brabant,VBO,5.086784,51.783118
Veense Put,230,,,4264AL,Veen,Aalburg,Noord-Brabant,VBO,5.086691,51.783021
Veense Put,232,a,,4264AL,Veen,Aalburg,Noord-Brabant,VBO,5.086430,51.782783
Veense Put,232,,,4264AL,Veen,Aalburg,Noord-Brabant,VBO,5.086539,51.782856
Veense Put,234,,,4264AL,Veen,Aalburg,Noord-Brabant,VBO,5.086352,51.782694
Veense Put,236,,,4264AL,Veen,Aalburg,Noord-Brabant,VBO,5.086271,51.782645
Veense Put,238,,,4264AL,Veen,Aalburg,Noord-Brabant,VBO,5.086234,51.782564
Veense Put,240,,,4264AL,Veen,Aalburg,Noord-Brabant,VBO,5.086101,51.782483
Veense Put,246,,,4264AL,Veen,Aalburg,Noord-Brabant,VBO,5.085949,51.782307
Veense Put,248,,,4264AL,Veen,Aalburg,Noord-Brabant,VBO,5.085848,51.782261
Veense Put,250,,,4264AL,Veen,Aalburg,Noord-Brabant,VBO,5.085805,51.782171
Veense Put,252,,,4264AL,Veen,Aalburg,Noord-Brabant,VBO,5.085674,51.782095
Veense Put,256,,,4264AL,Veen,Aalburg,Noord-Brabant,VBO,5.085512,51.781943
Veense Put,258,,,4264AL,Veen,Aalburg,Noord-Brabant,VBO,5.085411,51.781832
Veense Put,260,,,4264AL,Veen,Aalburg,Noord-Brabant,VBO,5.085335,51.781728
Veense Put,262,,,4264AL,Veen,Aalburg,Noord-Brabant,STA,5.085072,51.781556
Maasdijk,295,,,4264AM,Veen,Aalburg,Noord-Brabant,VBO,5.114230,51.778146
Maasdijk,297,,,4264AM,Veen,Aalburg,Noord-Brabant,VBO,5.114054,51.778210
Maasdijk,299,,,4264AM,Veen,Aalburg,Noord-Brabant,VBO,5.113960,51.778418
Maasdijk,301,,,4264AM,Veen,Aalburg,Noord-Brabant,VBO,5.113738,51.778507
Maasdijk,303,,,4264AM,Veen,Aalburg,Noord-Brabant,VBO,5.113727,51.778579
Maasdijk,305,,,4264AM,Veen,Aalburg,Noord-Brabant,VBO,5.113571,51.778575
Maasdijk,307,,,4264AM,Veen,Aalburg,Noord-Brabant,VBO,5.113564,51.778716
Maasdijk,309,,,4264AM,Veen,Aalburg,Noord-Brabant,VBO,5.113309,51.778635
Maasdijk,311,,,4264AM,Veen,Aalburg,Noord-Brabant,VBO,5.113316,51.778909
Maasdijk,313,,,4264AM,Veen,Aalburg,Noord-Brabant,VBO,5.113196,51.778978
Maasdijk,315,a,,4264AM,Veen,Aalburg,Noord-Brabant,VBO,5.112955,51.779137
Maasdijk,317,,,4264AM,Veen,Aalburg,Noord-Brabant,VBO,5.112580,51.779313
Maasdijk,319,,,4264AM,Veen,Aalburg,Noord-Brabant,VBO,5.112487,51.779422
Maasdijk,321,,,4264AM,Veen,Aalburg,Noord-Brabant,VBO,5.112353,51.779538
Maasdijk,323,,,4264AM,Veen,Aalburg,Noord-Brabant,VBO,5.112162,51.779681
Maasdijk,327,,,4264AM,Veen,Aalburg,Noord-Brabant,VBO,5.112021,51.779747
Maasdijk,329,,,4264AM,Veen,Aalburg,Noord-Brabant,VBO,5.111843,51.779789
Maasdijk,88,b,,4264AN,Veen,Aalburg,Noord-Brabant,VBO,5.110825,51.780870
Maasdijk,88,c,,4264AN,Veen,Aalburg,Noord-Brabant,STA,5.109977,51.781251
Maasdijk,88,d,,4264AN,Veen,Aalburg,Noord-Brabant,STA,5.109816,51.781325
Maasdijk,88,e,,4264AN,Veen,Aalburg,Noord-Brabant,STA,5.109695,51.781384
Maasdijk,88,g,,4264AN,Veen,Aalburg,Noord-Brabant,STA,5.109563,51.781475
Maasdijk,90,,,4264AN,Veen,Aalburg,Noord-Brabant,VBO,5.109606,51.781131
Maasdijk,92,,,4264AN,Veen,Aalburg,Noord-Brabant,VBO,5.109554,51.781194
Maasdijk,94,,,4264AN,Veen,Aalburg,Noord-Brabant,VBO,5.109392,51.781294
Maasdijk,331,a,,4264AN,Veen,Aalburg,Noord-Brabant,VBO,5.111750,51.779976
Maasdijk,331,,,4264AN,Veen,Aalburg,Noord-Brabant,VBO,5.111809,51.779931
Maasdijk,333,,,4264AN,Veen,Aalburg,Noord-Brabant,VBO,5.111664,51.780041
Maasdijk,335,,,4264AN,Veen,Aalburg,Noord-Brabant,VBO,5.111549,51.780137
Maasdijk,337,,,4264AN,Veen,Aalburg,Noord-Brabant,VBO,5.111369,51.780271
Maasdijk,339,,,4264AN,Veen,Aalburg,Noord-Brabant,VBO,5.111266,51.780338
Maasdijk,341,,,4264AN,Veen,Aalburg,Noord-Brabant,VBO,5.111021,51.780503
Maasdijk,343,,,4264AN,Veen,Aalburg,Noord-Brabant,VBO,5.110950,51.780546
Maasdijk,345,,,4264AN,Veen,Aalburg,Noord-Brabant,VBO,5.110528,51.780769
Maasdijk,347,,,4264AN,Veen,Aalburg,Noord-Brabant,VBO,5.110346,51.780758
Maasdijk,349,,,4264AN,Veen,Aalburg,Noord-Brabant,VBO,5.110054,51.780878
Maasdijk,351,,,4264AN,Veen,Aalburg,Noord-Brabant,VBO,5.109710,51.780928
Maasdijk,353,a,,4264AN,Veen,Aalburg,Noord-Brabant,VBO,5.109415,51.780823
Maasdijk,353,,,4264AN,Veen,Aalburg,Noord-Brabant,VBO,5.109481,51.780882
Maasdijk,355,,,4264AN,Veen,Aalburg,Noord-Brabant,VBO,5.109469,51.781049
Maasdijk,96,a,,4264AP,Veen,Aalburg,Noord-Brabant,VBO,5.109025,51.781566
Maasdijk,96,,,4264AP,Veen,Aalburg,Noord-Brabant,VBO,5.109216,51.781437
Maasdijk,98,,,4264AP,Veen,Aalburg,Noord-Brabant,VBO,5.108756,51.781598
Maasdijk,100,,,4264AP,Veen,Aalburg,Noord-Brabant,VBO,5.108675,51.781621
Maasdijk,104,,,4264AP,Veen,Aalburg,Noord-Brabant,VBO,5.108490,51.781715
Maasdijk,106,a,,4264AP,Veen,Aalburg,Noord-Brabant,VBO,5.108225,51.782325
Maasdijk,106,b,,4264AP,Veen,Aalburg,Noord-Brabant,VBO,5.108106,51.782410
Maasdijk,106,,,4264AP,Veen,Aalburg,Noord-Brabant,VBO,5.108054,51.781780
Maasdijk,108,,,4264AP,Veen,Aalburg,Noord-Brabant,VBO,5.107911,51.781822
Maasdijk,110,a,,4264AP,Veen,Aalburg,Noord-Brabant,VBO,5.107314,51.781937
Maasdijk,110,,,4264AP,Veen,Aalburg,Noord-Brabant,VBO,5.107741,51.781844
Maasdijk,357,,,4264AP,Veen,Aalburg,Noord-Brabant,VBO,5.109389,51.781117
Maasdijk,359,,,4264AP,Veen,Aalburg,Noord-Brabant,VBO,5.109258,51.781196
Maasdijk,361,,,4264AP,Veen,Aalburg,Noord-Brabant,VBO,5.109065,51.781332
Maasdijk,363,,,4264AP,Veen,Aalburg,Noord-Brabant,VBO,5.108926,51.781421
Maasdijk,365,,,4264AP,Veen,Aalburg,Noord-Brabant,VBO,5.108804,51.781463
Maasdijk,369,a,,4264AP,Veen,Aalburg,Noord-Brabant,VBO,5.106821,51.781702
Maasdijk,369,,,4264AP,Veen,Aalburg,Noord-Brabant,VBO,5.108488,51.781545
Maasdijk,112,a,,4264AR,Veen,Aalburg,Noord-Brabant,VBO,5.106329,51.782396
Maasdijk,112,,,4264AR,Veen,Aalburg,Noord-Brabant,VBO,5.106060,51.782227
Maasdijk,114,,,4264AR,Veen,Aalburg,Noord-Brabant,VBO,5.105968,51.782242
Maasdijk,116,,,4264AR,Veen,Aalburg,Noord-Brabant,VBO,5.105623,51.782284
Maasdijk,118,,,4264AR,Veen,Aalburg,Noord-Brabant,VBO,5.105232,51.782307
Maasdijk,120,,,4264AR,Veen,Aalburg,Noord-Brabant,VBO,5.104539,51.782503
Maasdijk,122,,,4264AR,Veen,Aalburg,Noord-Brabant,VBO,5.103409,51.782619
Maasdijk,124,,,4264AR,Veen,Aalburg,Noord-Brabant,VBO,5.103119,51.782585
Maasdijk,126,,,4264AR,Veen,Aalburg,Noord-Brabant,VBO,5.102977,51.782641
Maasdijk,130,,,4264AR,Veen,Aalburg,Noord-Brabant,VBO,5.100607,51.782254
Maasdijk,132,,,4264AR,Veen,Aalburg,Noord-Brabant,VBO,5.100478,51.782123
Maasdijk,371,,,4264AR,Veen,Aalburg,Noord-Brabant,VBO,5.106548,51.781920
Maasdijk,373,,,4264AR,Veen,Aalburg,Noord-Brabant,VBO,5.106448,51.781950
Maasdijk,375,,,4264AR,Veen,Aalburg,Noord-Brabant,VBO,5.105756,51.781859
Maasdijk,381,,,4264AR,Veen,Aalburg,Noord-Brabant,VBO,5.104478,51.782297
Maasdijk,383,,,4264AR,Veen,Aalburg,Noord-Brabant,VBO,5.103949,51.782255
Maasdijk,385,,,4264AR,Veen,Aalburg,Noord-Brabant,VBO,5.103505,51.782414
Maasdijk,387,,,4264AR,Veen,Aalburg,Noord-Brabant,VBO,5.103244,51.782421
Maasdijk,389,,,4264AR,Veen,Aalburg,Noord-Brabant,VBO,5.103099,51.782423
Maasdijk,391,,,4264AR,Veen,Aalburg,Noord-Brabant,VBO,5.103016,51.782427
Maasdijk,393,,,4264AR,Veen,Aalburg,Noord-Brabant,VBO,5.102881,51.782448
Maasdijk,395,,,4264AR,Veen,Aalburg,Noord-Brabant,VBO,5.102533,51.782349
Maasdijk,397,a,,4264AR,Veen,Aalburg,Noord-Brabant,VBO,5.101137,51.782198
Maasdijk,397,,,4264AR,Veen,Aalburg,Noord-Brabant,VBO,5.101559,51.782511
Maasdijk,134,,,4264AS,Veen,Aalburg,Noord-Brabant,VBO,5.094443,51.780117
Maasdijk,136,,,4264AS,Veen,Aalburg,Noord-Brabant,VBO,5.093895,51.779971
Maasdijk,138,,,4264AS,Veen,Aalburg,Noord-Brabant,VBO,5.093852,51.779702
Maasdijk,140,,,4264AS,Veen,Aalburg,Noord-Brabant,VBO,5.093790,51.779607
Maasdijk,142,,,4264AS,Veen,Aalburg,Noord-Brabant,VBO,5.093489,51.779518
Maasdijk,399,,,4264AS,Veen,Aalburg,Noord-Brabant,VBO,5.100758,51.782080
Maasdijk,401,,,4264AS,Veen,Aalburg,Noord-Brabant,VBO,5.100090,51.781449
Maasdijk,403,,,4264AS,Veen,Aalburg,Noord-Brabant,VBO,5.099798,51.781340
Maasdijk,405,,,4264AS,Veen,Aalburg,Noord-Brabant,VBO,5.099376,51.781250
Maasdijk,407,,,4264AS,Veen,Aalburg,Noord-Brabant,VBO,5.098386,51.780980
Maasdijk,409,,,4264AS,Veen,Aalburg,Noord-Brabant,VBO,5.096772,51.780730
Maasdijk,411,,,4264AS,Veen,Aalburg,Noord-Brabant,VBO,5.096129,51.780568
Maasdijk,413,a,,4264AS,Veen,Aalburg,Noord-Brabant,VBO,5.094961,51.780101
Maasdijk,413,,,4264AS,Veen,Aalburg,Noord-Brabant,VBO,5.094670,51.780061
Maasdijk,415,,,4264AS,Veen,Aalburg,Noord-Brabant,VBO,5.094467,51.779905
Maasdijk,417,,,4264AS,Veen,Aalburg,Noord-Brabant,VBO,5.094227,51.779607
Maasdijk,419,,,4264AS,Veen,Aalburg,Noord-Brabant,VBO,5.093900,51.779432
Maasdijk,421,,,4264AS,Veen,Aalburg,Noord-Brabant,VBO,5.093673,51.779084
Maasdijk,423,,,4264AS,Veen,Aalburg,Noord-Brabant,VBO,5.092869,51.779005
Maasdijk,425,,,4264AS,Veen,Aalburg,Noord-Brabant,VBO,5.090312,51.778921
Maasdijk,427,,,4264AS,Veen,Aalburg,Noord-Brabant,VBO,5.089850,51.778804
Maasdijk,429,,,4264AS,Veen,Aalburg,Noord-Brabant,VBO,5.089220,51.778901
Maasdijk,431,,,4264AS,Veen,Aalburg,Noord-Brabant,VBO,5.088200,51.778771
Maasdijk,433,,,4264AS,Veen,Aalburg,Noord-Brabant,VBO,5.087028,51.778756
Wielstraat,3,,,4264AT,Veen,Aalburg,Noord-Brabant,VBO,5.099538,51.778247
Wielstraat,5,,,4264AT,Veen,Aalburg,Noord-Brabant,VBO,5.099283,51.778345
Wielstraat,9,,,4264AT,Veen,Aalburg,Noord-Brabant,VBO,5.098316,51.778226
Wielstraat,11,,,4264AT,Veen,Aalburg,Noord-Brabant,VBO,5.097896,51.778298
Wielstraat,13,,,4264AT,Veen,Aalburg,Noord-Brabant,VBO,5.097373,51.777987
Wielstraat,15,,,4264AT,Veen,Aalburg,Noord-Brabant,VBO,5.097309,51.778382
Wielstraat,17,,,4264AT,Veen,Aalburg,Noord-Brabant,VBO,5.096733,51.778426
Wielstraat,19,a,,4264AT,Veen,Aalburg,Noord-Brabant,VBO,5.096410,51.777984
Wielstraat,19,b,,4264AT,Veen,Aalburg,Noord-Brabant,VBO,5.096055,51.778123
Wielstraat,19,,,4264AT,Veen,Aalburg,Noord-Brabant,VBO,5.096332,51.778456
Wielstraat,21,,,4264AT,Veen,Aalburg,Noord-Brabant,VBO,5.095704,51.778695
Wielstraat,23,,,4264AT,Veen,Aalburg,Noord-Brabant,VBO,5.095447,51.778584
Wielstraat,25,a,,4264AT,Veen,Aalburg,Noord-Brabant,VBO,5.095673,51.778079
Wielstraat,25,,,4264AT,Veen,Aalburg,Noord-Brabant,VBO,5.095239,51.777767
Wielstraat,29,,,4264AT,Veen,Aalburg,Noord-Brabant,VBO,5.094698,51.778443
Wielstraat,31,,,4264AT,Veen,Aalburg,Noord-Brabant,VBO,5.094392,51.778351
Wielstraat,33,,,4264AT,Veen,Aalburg,Noord-Brabant,VBO,5.093996,51.778434
Wielstraat,35,,,4264AT,Veen,Aalburg,Noord-Brabant,VBO,5.093893,51.778420
Wielstraat,37,,,4264AT,Veen,Aalburg,Noord-Brabant,VBO,5.093831,51.778227
Wielstraat,39,,,4264AT,Veen,Aalburg,Noord-Brabant,VBO,5.092863,51.778077
Wielstraat,41,,,4264AT,Veen,Aalburg,Noord-Brabant,VBO,5.092281,51.778012
Wielstraat,43,,,4264AT,Veen,Aalburg,Noord-Brabant,VBO,5.091936,51.777705
Wielstraat,45,,,4264AT,Veen,Aalburg,Noord-Brabant,VBO,5.091499,51.778131
Wielstraat,47,,,4264AT,Veen,Aalburg,Noord-Brabant,VBO,5.091692,51.777405
Wielstraat,49,a,,4264AT,Veen,Aalburg,Noord-Brabant,VBO,5.091353,51.777821
Wielstraat,49,,,4264AT,Veen,Aalburg,Noord-Brabant,VBO,5.091245,51.778106
Wielstraat,51,,,4264AT,Veen,Aalburg,Noord-Brabant,VBO,5.090828,51.778035
Wielstraat,53,,,4264AT,Veen,Aalburg,Noord-Brabant,VBO,5.090291,51.778143
Wielstraat,55,,,4264AT,Veen,Aalburg,Noord-Brabant,VBO,5.089944,51.777999
Wielstraat,57,,,4264AT,Veen,Aalburg,Noord-Brabant,VBO,5.087961,51.778103
Wielstraat,61,,,4264AT,Veen,Aalburg,Noord-Brabant,VBO,5.087240,51.778031
Wielstraat,63,,,4264AT,Veen,Aalburg,Noord-Brabant,VBO,5.086712,51.777769
Wielstraat,65,,,4264AT,Veen,Aalburg,Noord-Brabant,VBO,5.086413,51.777657
Wielstraat,67,,,4264AT,Veen,Aalburg,Noord-Brabant,VBO,5.086389,51.777238
Wielstraat,69,,,4264AT,Veen,Aalburg,Noord-Brabant,VBO,5.086519,51.777248
Wielstraat,71,,,4264AT,Veen,Aalburg,Noord-Brabant,VBO,5.086664,51.777257
Wielstraat,73,,,4264AT,Veen,Aalburg,Noord-Brabant,VBO,5.086794,51.777266
Wielstraat,75,,,4264AT,Veen,Aalburg,Noord-Brabant,VBO,5.086924,51.777276
Wielstraat,77,,,4264AT,Veen,Aalburg,Noord-Brabant,VBO,5.087074,51.777298
Wielstraat,2,a,,4264AV,Veen,Aalburg,Noord-Brabant,VBO,5.098173,51.779303
Wielstraat,2,,,4264AV,Veen,Aalburg,Noord-Brabant,VBO,5.099379,51.778579
Wielstraat,4,,,4264AV,Veen,Aalburg,Noord-Brabant,VBO,5.097753,51.778575
Wielstraat,8,,,4264AV,Veen,Aalburg,Noord-Brabant,VBO,5.097226,51.778655
Wielstraat,10,,,4264AV,Veen,Aalburg,Noord-Brabant,VBO,5.096839,51.778844
Wielstraat,12,,,4264AV,Veen,Aalburg,Noord-Brabant,VBO,5.096416,51.778970
Wielstraat,18,,,4264AV,Veen,Aalburg,Noord-Brabant,VBO,5.094465,51.778792
Wielstraat,20,,,4264AV,Veen,Aalburg,Noord-Brabant,VBO,5.094056,51.778732
Wielstraat,24,,,4264AV,Veen,Aalburg,Noord-Brabant,VBO,5.093492,51.778531
Wielstraat,26,,,4264AV,Veen,Aalburg,Noord-Brabant,VBO,5.093031,51.778580
Wielstraat,28,,,4264AV,Veen,Aalburg,Noord-Brabant,VBO,5.092804,51.778603
Wielstraat,30,,,4264AV,Veen,Aalburg,Noord-Brabant,VBO,5.092655,51.778404
Wielstraat,32,a,,4264AV,Veen,Aalburg,Noord-Brabant,VBO,5.091803,51.778427
Wielstraat,32,,,4264AV,Veen,Aalburg,Noord-Brabant,VBO,5.092116,51.778449
Wielstraat,34,,,4264AV,Veen,Aalburg,Noord-Brabant,VBO,5.091366,51.778460
Wielstraat,36,,,4264AV,Veen,Aalburg,Noord-Brabant,VBO,5.090812,51.778283
Wielstraat,38,,,4264AV,Veen,Aalburg,Noord-Brabant,VBO,5.090215,51.778342
Wielstraat,40,,,4264AV,Veen,Aalburg,Noord-Brabant,VBO,5.089862,51.778380
Wielstraat,42,,,4264AV,Veen,Aalburg,Noord-Brabant,VBO,5.089460,51.778216
Wielstraat,44,,,4264AV,Veen,Aalburg,Noord-Brabant,VBO,5.089122,51.778374
Wielstraat,46,,,4264AV,Veen,Aalburg,Noord-Brabant,VBO,5.088560,51.778393
Wielstraat,48,,,4264AV,Veen,Aalburg,Noord-Brabant,VBO,5.088281,51.778222
Wielstraat,50,,,4264AV,Veen,Aalburg,Noord-Brabant,VBO,5.087503,51.778422
Tuinstraat,1,b,,4264AW,Veen,Aalburg,Noord-Brabant,VBO,5.099497,51.780563
Tuinstraat,1,,,4264AW,Veen,Aalburg,Noord-Brabant,VBO,5.099584,51.780945
Tuinstraat,3,a,,4264AW,Veen,Aalburg,Noord-Brabant,VBO,5.100222,51.779156
Tuinstraat,3,,,4264AW,Veen,Aalburg,Noord-Brabant,VBO,5.100191,51.779280
Tuinstraat,5,,,4264AW,Veen,Aalburg,Noord-Brabant,VBO,5.100252,51.779033
Tuinstraat,7,,,4264AW,Veen,Aalburg,Noord-Brabant,VBO,5.100212,51.778720
Tuinstraat,9,,,4264AW,Veen,Aalburg,Noord-Brabant,VBO,5.100340,51.778585
Tuinstraat,11,,,4264AW,Veen,Aalburg,Noord-Brabant,VBO,5.100365,51.778466
Tuinstraat,13,,,4264AW,Veen,Aalburg,Noord-Brabant,VBO,5.100481,51.778316
Tuinstraat,15,,,4264AW,Veen,Aalburg,Noord-Brabant,VBO,5.100512,51.777802
Tuinstraat,17,,,4264AW,Veen,Aalburg,Noord-Brabant,VBO,5.100531,51.777712
Tuinstraat,19,,,4264AW,Veen,Aalburg,Noord-Brabant,VBO,5.100615,51.777415
Tuinstraat,2,,,4264AX,Veen,Aalburg,Noord-Brabant,VBO,5.099245,51.780313
Tuinstraat,10,,,4264AX,Veen,Aalburg,Noord-Brabant,VBO,5.099941,51.778330
Tuinstraat,12,,,4264AX,Veen,Aalburg,Noord-Brabant,VBO,5.100059,51.778096
Tuinstraat,14,,,4264AX,Veen,Aalburg,Noord-Brabant,VBO,5.100107,51.777982
Tuinstraat,16,,,4264AX,Veen,Aalburg,Noord-Brabant,VBO,5.099950,51.777800
Tuinstraat,18,,,4264AX,Veen,Aalburg,Noord-Brabant,VBO,5.100006,51.777617
Tuinstraat,20,,,4264AX,Veen,Aalburg,Noord-Brabant,VBO,5.100036,51.777475
Tuinstraat,22,,,4264AX,Veen,Aalburg,Noord-Brabant,VBO,5.100225,51.777326
Tuinstraat,24,,,4264AX,Veen,Aalburg,Noord-Brabant,VBO,5.099900,51.777150
Tuinstraat,26,,,4264AX,Veen,Aalburg,Noord-Brabant,VBO,5.100378,51.777096
Bagijnhof,1,a,,4264AZ,Veen,Aalburg,Noord-Brabant,VBO,5.100941,51.776504
Bagijnhof,1,,,4264AZ,Veen,Aalburg,Noord-Brabant,VBO,5.100922,51.776358
Bagijnhof,2,,,4264AZ,Veen,Aalburg,Noord-Brabant,VBO,5.100357,51.776771
Bagijnhof,3,,,4264AZ,Veen,Aalburg,Noord-Brabant,VBO,5.101290,51.776373
Bagijnhof,4,,,4264AZ,Veen,Aalburg,Noord-Brabant,VBO,5.100215,51.776476
Bagijnhof,5,,,4264AZ,Veen,Aalburg,Noord-Brabant,VBO,5.100978,51.776130
Bagijnhof,6,,,4264AZ,Veen,Aalburg,Noord-Brabant,VBO,5.100505,51.776283
Bagijnhof,8,,,4264AZ,Veen,Aalburg,Noord-Brabant,VBO,5.100486,51.776148
Bagijnhof,9,,,4264AZ,Veen,Aalburg,Noord-Brabant,VBO,5.101339,51.776007
Bagijnhof,10,,,4264AZ,Veen,Aalburg,Noord-Brabant,VBO,5.100576,51.775842
Bagijnhof,11,a,,4264AZ,Veen,Aalburg,Noord-Brabant,VBO,5.101081,51.775776
Bagijnhof,11,,,4264AZ,Veen,Aalburg,Noord-Brabant,VBO,5.101349,51.775843
Bagijnhof,12,a,,4264AZ,Veen,Aalburg,Noord-Brabant,VBO,5.100216,51.775781
Bagijnhof,12,,,4264AZ,Veen,Aalburg,Noord-Brabant,VBO,5.100592,51.775776
Bagijnhof,13,,,4264AZ,Veen,Aalburg,Noord-Brabant,VBO,5.101103,51.775604
Bagijnhof,14,,,4264AZ,Veen,Aalburg,Noord-Brabant,VBO,5.100536,51.775525
Bagijnhof,15,,,4264AZ,Veen,Aalburg,Noord-Brabant,VBO,5.101437,51.775625
Bagijnhof,16,a,,4264AZ,Veen,Aalburg,Noord-Brabant,VBO,5.100657,51.775046
Bagijnhof,16,,,4264AZ,Veen,Aalburg,Noord-Brabant,VBO,5.100708,51.775274
Bagijnhof,17,,,4264AZ,Veen,Aalburg,Noord-Brabant,VBO,5.101173,51.775431
Bagijnhof,18,,,4264AZ,Veen,Aalburg,Noord-Brabant,VBO,5.100825,51.774778
Bagijnhof,19,,,4264AZ,Veen,Aalburg,Noord-Brabant,VBO,5.101415,51.775273
Bagijnhof,20,,,4264AZ,Veen,Aalburg,Noord-Brabant,VBO,5.100857,51.774536
Bagijnhof,22,,,4264AZ,Veen,Aalburg,Noord-Brabant,VBO,5.099873,51.774328
Bagijnhof,23,,,4264AZ,Veen,Aalburg,Noord-Brabant,VBO,5.102008,51.774784
Bagijnhof,25,,,4264AZ,Veen,Aalburg,Noord-Brabant,VBO,5.101687,51.774870
Bagijnhof,26,a,,4264AZ,Veen,Aalburg,Noord-Brabant,VBO,5.099779,51.774531
Bagijnhof,26,,,4264AZ,Veen,Aalburg,Noord-Brabant,VBO,5.099795,51.774396
Bagijnhof,27,,,4264AZ,Veen,Aalburg,Noord-Brabant,VBO,5.101411,51.774623
Bagijnhof,28,,,4264AZ,Veen,Aalburg,Noord-Brabant,VBO,5.099686,51.774848
Bagijnhof,30,a,,4264AZ,Veen,Aalburg,Noord-Brabant,VBO,5.099609,51.775129
Bagijnhof,30,,,4264AZ,Veen,Aalburg,Noord-Brabant,VBO,5.099643,51.775003
Bagijnhof,31,,,4264AZ,Veen,Aalburg,Noord-Brabant,VBO,5.099325,51.774553
Bagijnhof,32,,,4264AZ,Veen,Aalburg,Noord-Brabant,VBO,5.099518,51.775483
Bagijnhof,34,,,4264AZ,Veen,Aalburg,Noord-Brabant,VBO,5.099484,51.775619
Bagijnhof,35,,,4264AZ,Veen,Aalburg,Noord-Brabant,VBO,5.099260,51.774882
Bagijnhof,36,,,4264AZ,Veen,Aalburg,Noord-Brabant,VBO,5.099446,51.775758
Bagijnhof,37,,,4264AZ,Veen,Aalburg,Noord-Brabant,VBO,5.099202,51.775054
Bagijnhof,38,,,4264AZ,Veen,Aalburg,Noord-Brabant,VBO,5.099407,51.775897
Bagijnhof,39,,,4264AZ,Veen,Aalburg,Noord-Brabant,VBO,5.099077,51.775241
Bagijnhof,40,,,4264AZ,Veen,Aalburg,Noord-Brabant,VBO,5.099369,51.776037
Bagijnhof,41,,,4264AZ,Veen,Aalburg,Noord-Brabant,VBO,5.099108,51.775525
Bagijnhof,42,,,4264AZ,Veen,Aalburg,Noord-Brabant,VBO,5.099331,51.776176
Bagijnhof,44,,,4264AZ,Veen,Aalburg,Noord-Brabant,VBO,5.099117,51.776254
Bagijnhof,46,,,4264AZ,Veen,Aalburg,Noord-Brabant,VBO,5.098992,51.776240
Bagijnhof,47,,,4264AZ,Veen,Aalburg,Noord-Brabant,VBO,5.098942,51.775919
Bagijnhof,48,,,4264AZ,Veen,Aalburg,Noord-Brabant,VBO,5.098830,51.776178
Bagijnhof,49,a,,4264AZ,Veen,Aalburg,Noord-Brabant,VBO,5.098413,51.775863
Bagijnhof,49,,,4264AZ,Veen,Aalburg,Noord-Brabant,VBO,5.098651,51.775888
Bagijnhof,50,,,4264AZ,Veen,Aalburg,Noord-Brabant,VBO,5.098566,51.776334
Bagijnhof,51,a,,4264AZ,Veen,Aalburg,Noord-Brabant,VBO,5.097989,51.775818
Bagijnhof,51,,,4264AZ,Veen,Aalburg,Noord-Brabant,VBO,5.098187,51.775839
Bagijnhof,53,,,4264AZ,Veen,Aalburg,Noord-Brabant,VBO,5.097998,51.775526
Bagijnhof,55,a,,4264AZ,Veen,Aalburg,Noord-Brabant,VBO,5.098376,51.775400
Bagijnhof,55,,,4264AZ,Veen,Aalburg,Noord-Brabant,VBO,5.097991,51.775333
Bagijnhof,57,a,,4264AZ,Veen,Aalburg,Noord-Brabant,VBO,5.098203,51.775056
Bagijnhof,57,b,,4264AZ,Veen,Aalburg,Noord-Brabant,VBO,5.098233,51.774944
Bagijnhof,57,,,4264AZ,Veen,Aalburg,Noord-Brabant,VBO,5.098172,51.775174
Bagijnhof,59,,,4264AZ,Veen,Aalburg,Noord-Brabant,VBO,5.098339,51.774623
Bagijnhof,60,,,4264AZ,Veen,Aalburg,Noord-Brabant,VBO,5.098073,51.776168
Bagijnhof,66,,,4264AZ,Veen,Aalburg,Noord-Brabant,VBO,5.096543,51.775457
Bagijnhof,67,,,4264AZ,Veen,Aalburg,Noord-Brabant,VBO,5.098395,51.774217
Bagijnhof,68,,,4264AZ,Veen,Aalburg,Noord-Brabant,VBO,5.097559,51.775490
Bagijnhof,72,,,4264AZ,Veen,Aalburg,Noord-Brabant,VBO,5.097708,51.774939
Bagijnhof,74,,,4264AZ,Veen,Aalburg,Noord-Brabant,VBO,5.097592,51.774579
Bagijnhof,78,,,4264AZ,Veen,Aalburg,Noord-Brabant,VBO,5.097521,51.774331
Bagijnhof,80,,,4264AZ,Veen,Aalburg,Noord-Brabant,VBO,5.097479,51.774159
Bagijnhof,84,,,4264AZ,Veen,Aalburg,Noord-Brabant,VBO,5.098527,51.773788
Bagijnhof,86,,,4264AZ,Veen,Aalburg,Noord-Brabant,VBO,5.098764,51.773771
Bagijnhof,88,,,4264AZ,Veen,Aalburg,Noord-Brabant,VBO,5.099074,51.773854
Veensesteeg,2,,,4264KG,Veen,Aalburg,Noord-Brabant,VBO,5.096622,51.774186
Veensesteeg,3,a,,4264KG,Veen,Aalburg,Noord-Brabant,VBO,5.096185,51.773560
Veensesteeg,3,,,4264KG,Veen,Aalburg,Noord-Brabant,VBO,5.097231,51.773609
Veensesteeg,4,,,4264KG,Veen,Aalburg,Noord-Brabant,VBO,5.096331,51.774630
Veensesteeg,5,,,4264KG,Veen,Aalburg,Noord-Brabant,VBO,5.095849,51.773613
Veensesteeg,6,,,4264KG,Veen,Aalburg,Noord-Brabant,VBO,5.096125,51.774138
Veensesteeg,7,,,4264KG,Veen,Aalburg,Noord-Brabant,VBO,5.095374,51.773616
Veensesteeg,8,,,4264KG,Veen,Aalburg,Noord-Brabant,VBO,5.095015,51.774027
Veensesteeg,9,a,,4264KG,Veen,Aalburg,Noord-Brabant,VBO,5.094798,51.773228
Veensesteeg,9,,,4264KG,Veen,Aalburg,Noord-Brabant,VBO,5.094827,51.773521
Veensesteeg,10,,,4264KG,Veen,Aalburg,Noord-Brabant,VBO,5.094273,51.774215
Veensesteeg,11,,,4264KG,Veen,Aalburg,Noord-Brabant,VBO,5.094376,51.773404
Veensesteeg,12,,,4264KG,Veen,Aalburg,Noord-Brabant,VBO,5.093762,51.773971
Veensesteeg,13,a,,4264KG,Veen,Aalburg,Noord-Brabant,VBO,5.094182,51.773483
Veensesteeg,13,b,,4264KG,Veen,Aalburg,Noord-Brabant,VBO,5.093689,51.773484
Veensesteeg,13,,,4264KG,Veen,Aalburg,Noord-Brabant,VBO,5.094016,51.773159
Veensesteeg,15,a,,4264KG,Veen,Aalburg,Noord-Brabant,VBO,5.090948,51.773124
Veensesteeg,15,,,4264KG,Veen,Aalburg,Noord-Brabant,VBO,5.092747,51.773283
Veensesteeg,16,a,,4264KG,Veen,Aalburg,Noord-Brabant,VBO,5.092937,51.774008
Veensesteeg,16,b,,4264KG,Veen,Aalburg,Noord-Brabant,VBO,5.092419,51.774652
Veensesteeg,16,,,4264KG,Veen,Aalburg,Noord-Brabant,VBO,5.093041,51.773886
Veensesteeg,17,,,4264KG,Veen,Aalburg,Noord-Brabant,VBO,5.090478,51.773036
Veensesteeg,18,,,4264KG,Veen,Aalburg,Noord-Brabant,VBO,5.089440,51.773808
Veensesteeg,19,,,4264KG,Veen,Aalburg,Noord-Brabant,VBO,5.090135,51.773274
Veensesteeg,21,,,4264KG,Veen,Aalburg,Noord-Brabant,VBO,5.089857,51.773193
Veensesteeg,23,,,4264KG,Veen,Aalburg,Noord-Brabant,VBO,5.090013,51.772877
Veensesteeg,31,,,4264KG,Veen,Aalburg,Noord-Brabant,VBO,5.082999,51.772811
Coletsingel,1,,,4264PA,Veen,Aalburg,Noord-Brabant,VBO,5.104295,51.779485
Schmitzstraat,1,,,4264RA,Veen,Aalburg,Noord-Brabant,VBO,5.103185,51.777118
Schmitzstraat,3,,,4264RA,Veen,Aalburg,Noord-Brabant,VBO,5.103149,51.777068
Schmitzstraat,5,,,4264RA,Veen,Aalburg,Noord-Brabant,VBO,5.103064,51.776949
Schmitzstraat,7,,,4264RA,Veen,Aalburg,Noord-Brabant,VBO,5.103026,51.776897
Schmitzstraat,9,,,4264RA,Veen,Aalburg,Noord-Brabant,VBO,5.102928,51.776750
Schmitzstraat,11,,,4264RA,Veen,Aalburg,Noord-Brabant,VBO,5.102898,51.776698
Schmitzstraat,13,,,4264RA,Veen,Aalburg,Noord-Brabant,VBO,5.102840,51.776555
Schmitzstraat,15,,,4264RA,Veen,Aalburg,Noord-Brabant,VBO,5.102825,51.776489
Schmitzstraat,17,,,4264RA,Veen,Aalburg,Noord-Brabant,VBO,5.102813,51.776371
Schmitzstraat,19,,,4264RA,Veen,Aalburg,Noord-Brabant,VBO,5.102814,51.776313
Schmitzstraat,21,,,4264RA,Veen,Aalburg,Noord-Brabant,VBO,5.102815,51.776254
Schmitzstraat,23,,,4264RA,Veen,Aalburg,Noord-Brabant,VBO,5.102816,51.776197
Schmitzstraat,25,,,4264RB,Veen,Aalburg,Noord-Brabant,VBO,5.103032,51.775730
Schmitzstraat,27,,,4264RB,Veen,Aalburg,Noord-Brabant,VBO,5.103052,51.775647
Schmitzstraat,29,,,4264RB,Veen,Aalburg,Noord-Brabant,VBO,5.103084,51.775510
Schmitzstraat,31,,,4264RB,Veen,Aalburg,Noord-Brabant,VBO,5.103104,51.775424
Schmitzstraat,33,,,4264RB,Veen,Aalburg,Noord-Brabant,VBO,5.103180,51.775295
Schmitzstraat,35,,,4264RB,Veen,Aalburg,Noord-Brabant,VBO,5.103203,51.775179
Schmitzstraat,37,,,4264RB,Veen,Aalburg,Noord-Brabant,VBO,5.103184,51.775044
Schmitzstraat,39,,,4264RB,Veen,Aalburg,Noord-Brabant,VBO,5.103207,51.774984
Schmitzstraat,41,,,4264RB,Veen,Aalburg,Noord-Brabant,VBO,5.103221,51.774925
Schmitzstraat,43,,,4264RB,Veen,Aalburg,Noord-Brabant,VBO,5.103245,51.774818
Schmitzstraat,45,,,4264RB,Veen,Aalburg,Noord-Brabant,VBO,5.103258,51.774761
Schmitzstraat,47,,,4264RB,Veen,Aalburg,Noord-Brabant,VBO,5.103272,51.774702
Schmitzstraat,49,,,4264RB,Veen,Aalburg,Noord-Brabant,VBO,5.103285,51.774646
Schmitzstraat,2,,,4264RC,Veen,Aalburg,Noord-Brabant,VBO,5.102238,51.776558
Schmitzstraat,4,,,4264RC,Veen,Aalburg,Noord-Brabant,VBO,5.102251,51.776500
Schmitzstraat,6,,,4264RC,Veen,Aalburg,Noord-Brabant,VBO,5.102264,51.776447
Schmitzstraat,8,,,4264RC,Veen,Aalburg,Noord-Brabant,VBO,5.102275,51.776398
Schmitzstraat,10,,,4264RC,Veen,Aalburg,Noord-Brabant,VBO,5.102304,51.776279
Schmitzstraat,12,,,4264RC,Veen,Aalburg,Noord-Brabant,VBO,5.102319,51.776212
Schmitzstraat,14,,,4264RC,Veen,Aalburg,Noord-Brabant,VBO,5.102345,51.776101
Schmitzstraat,16,,,4264RC,Veen,Aalburg,Noord-Brabant,VBO,5.102361,51.776033
Schmitzstraat,18,,,4264RC,Veen,Aalburg,Noord-Brabant,VBO,5.102413,51.775875
Schmitzstraat,20,,,4264RC,Veen,Aalburg,Noord-Brabant,VBO,5.102444,51.775743
Schmitzstraat,22,,,4264RC,Veen,Aalburg,Noord-Brabant,VBO,5.102471,51.775627
Schmitzstraat,24,,,4264RC,Veen,Aalburg,Noord-Brabant,VBO,5.102487,51.775558
Schmitzstraat,26,,,4264RC,Veen,Aalburg,Noord-Brabant,VBO,5.102513,51.775445
Schmitzstraat,28,,,4264RC,Veen,Aalburg,Noord-Brabant,VBO,5.102530,51.775377
Schmitzstraat,36,,,4264RC,Veen,Aalburg,Noord-Brabant,VBO,5.102607,51.775068
Wethouder van der Polstraat,1,,,4264RD,Veen,Aalburg,Noord-Brabant,VBO,5.104278,51.775809
Wethouder van der Polstraat,2,,,4264RD,Veen,Aalburg,Noord-Brabant,VBO,5.105058,51.776097
Wethouder van der Polstraat,3,,,4264RD,Veen,Aalburg,Noord-Brabant,VBO,5.104308,51.775746
Wethouder van der Polstraat,4,,,4264RD,Veen,Aalburg,Noord-Brabant,VBO,5.105136,51.776078
Wethouder van der Polstraat,5,,,4264RD,Veen,Aalburg,Noord-Brabant,VBO,5.104359,51.775647
Wethouder van der Polstraat,6,,,4264RD,Veen,Aalburg,Noord-Brabant,VBO,5.105246,51.776060
Wethouder van der Polstraat,7,,,4264RD,Veen,Aalburg,Noord-Brabant,VBO,5.104386,51.775570
Wethouder van der Polstraat,8,,,4264RD,Veen,Aalburg,Noord-Brabant,VBO,5.105337,51.776045
Wethouder van der Polstraat,9,,,4264RD,Veen,Aalburg,Noord-Brabant,VBO,5.104396,51.775485
Wethouder van der Polstraat,10,,,4264RD,Veen,Aalburg,Noord-Brabant,VBO,5.105447,51.776019
Wethouder van der Polstraat,11,,,4264RD,Veen,Aalburg,Noord-Brabant,VBO,5.104556,51.775495
Wethouder van der Polstraat,12,,,4264RD,Veen,Aalburg,Noord-Brabant,VBO,5.105501,51.775994
Wethouder van der Polstraat,13,,,4264RD,Veen,Aalburg,Noord-Brabant,VBO,5.104540,51.775599
Wethouder van der Polstraat,14,,,4264RD,Veen,Aalburg,Noord-Brabant,VBO,5.105615,51.775967
Wethouder van der Polstraat,15,,,4264RD,Veen,Aalburg,Noord-Brabant,VBO,5.104500,51.775683
Wethouder van der Polstraat,16,,,4264RD,Veen,Aalburg,Noord-Brabant,VBO,5.105688,51.775950
Wethouder van der Polstraat,17,,,4264RD,Veen,Aalburg,Noord-Brabant,VBO,5.104486,51.775719
Wethouder van der Polstraat,19,,,4264RD,Veen,Aalburg,Noord-Brabant,VBO,5.104468,51.775829
Wethouder van der Polstraat,21,,,4264RD,Veen,Aalburg,Noord-Brabant,VBO,5.104278,51.775844
Wethouder van der Polstraat,23,,,4264RD,Veen,Aalburg,Noord-Brabant,VBO,5.104278,51.775818
Wethouder van der Polstraat,25,,,4264RD,Veen,Aalburg,Noord-Brabant,VBO,5.104340,51.775631
Wethouder van der Polstraat,27,,,4264RD,Veen,Aalburg,Noord-Brabant,VBO,5.104365,51.775555
Wethouder van der Polstraat,29,,,4264RD,Veen,Aalburg,Noord-Brabant,VBO,5.104367,51.775476
Wethouder van der Polstraat,31,,,4264RD,Veen,Aalburg,Noord-Brabant,VBO,5.104570,51.775504
Wethouder van der Polstraat,33,,,4264RD,Veen,Aalburg,Noord-Brabant,VBO,5.104534,51.775582
Wethouder van der Polstraat,35,a,,4264RD,Veen,Aalburg,Noord-Brabant,VBO,5.104884,51.775480
Wethouder van der Polstraat,35,,,4264RD,Veen,Aalburg,Noord-Brabant,VBO,5.104500,51.775661
Wethouder van der Polstraat,37,,,4264RD,Veen,Aalburg,Noord-Brabant,VBO,5.105453,51.775673
Wethouder van der Polstraat,39,,,4264RD,Veen,Aalburg,Noord-Brabant,VBO,5.105432,51.775616
Wethouder van der Polstraat,41,,,4264RD,Veen,Aalburg,Noord-Brabant,VBO,5.105423,51.775563
Wethouder van der Polstraat,43,,,4264RD,Veen,Aalburg,Noord-Brabant,VBO,5.105418,51.775493
Wethouder van der Polstraat,45,,,4264RD,Veen,Aalburg,Noord-Brabant,VBO,5.105414,51.775452
Wethouder van der Polstraat,47,,,4264RD,Veen,Aalburg,Noord-Brabant,VBO,5.105397,51.775411
Wethouder van der Polstraat,49,,,4264RD,Veen,Aalburg,Noord-Brabant,VBO,5.105549,51.775651
Wethouder van der Polstraat,51,,,4264RD,Veen,Aalburg,Noord-Brabant,VBO,5.105538,51.775627
Wethouder van der Polstraat,53,,,4264RD,Veen,Aalburg,Noord-Brabant,VBO,5.105530,51.775602
Wethouder van der Polstraat,55,,,4264RD,Veen,Aalburg,Noord-Brabant,VBO,5.105517,51.775576
Wethouder van der Polstraat,57,,,4264RD,Veen,Aalburg,Noord-Brabant,VBO,5.105515,51.775552
Wethouder van der Polstraat,59,,,4264RD,Veen,Aalburg,Noord-Brabant,VBO,5.105523,51.775517
Wethouder van der Polstraat,61,,,4264RD,Veen,Aalburg,Noord-Brabant,VBO,5.105517,51.775482
Wethouder van der Polstraat,63,,,4264RD,Veen,Aalburg,Noord-Brabant,VBO,5.105517,51.775461
Wethouder van der Polstraat,65,,,4264RD,Veen,Aalburg,Noord-Brabant,VBO,5.105500,51.775429
Wethouder van der Polstraat,67,,,4264RD,Veen,Aalburg,Noord-Brabant,VBO,5.105489,51.775402
Wethouder van der Polstraat,69,,,4264RD,Veen,Aalburg,Noord-Brabant,VBO,5.105626,51.775624
Wethouder van der Polstraat,71,,,4264RD,Veen,Aalburg,Noord-Brabant,VBO,5.105616,51.775597
Wethouder van der Polstraat,73,,,4264RD,Veen,Aalburg,Noord-Brabant,VBO,5.105609,51.775569
Wethouder van der Polstraat,75,,,4264RD,Veen,Aalburg,Noord-Brabant,VBO,5.105603,51.775520
Wethouder van der Polstraat,77,,,4264RD,Veen,Aalburg,Noord-Brabant,VBO,5.105602,51.775489
Wethouder van der Polstraat,79,,,4264RD,Veen,Aalburg,Noord-Brabant,VBO,5.105596,51.775467
Wethouder van der Polstraat,81,,,4264RD,Veen,Aalburg,Noord-Brabant,VBO,5.105579,51.775439
Wethouder van der Polstraat,83,,,4264RD,Veen,Aalburg,Noord-Brabant,VBO,5.105335,51.775453
Wethouder van der Polstraat,85,,,4264RD,Veen,Aalburg,Noord-Brabant,VBO,5.105326,51.775426
Wethouder van der Polstraat,87,,,4264RD,Veen,Aalburg,Noord-Brabant,VBO,5.105324,51.775398
Wethouder van der Polstraat,89,,,4264RD,Veen,Aalburg,Noord-Brabant,VBO,5.105336,51.775375
Nieuwstraat,2,,,4264RE,Veen,Aalburg,Noord-Brabant,VBO,5.107130,51.774672
Nieuwstraat,4,,,4264RE,Veen,Aalburg,Noord-Brabant,VBO,5.107012,51.774665
Nieuwstraat,6,,,4264RE,Veen,Aalburg,Noord-Brabant,VBO,5.106689,51.774646
Nieuwstraat,8,,,4264RE,Veen,Aalburg,Noord-Brabant,VBO,5.106588,51.774640
Nieuwstraat,10,,,4264RE,Veen,Aalburg,Noord-Brabant,VBO,5.106249,51.774620
Nieuwstraat,12,,,4264RE,Veen,Aalburg,Noord-Brabant,VBO,5.106148,51.774614
Nieuwstraat,14,,,4264RE,Veen,Aalburg,Noord-Brabant,VBO,5.105817,51.774594
Nieuwstraat,16,,,4264RE,Veen,Aalburg,Noord-Brabant,VBO,5.105716,51.774588
Nieuwstraat,18,,,4264RE,Veen,Aalburg,Noord-Brabant,VBO,5.105363,51.774577
Nieuwstraat,20,,,4264RE,Veen,Aalburg,Noord-Brabant,VBO,5.105272,51.774572
Nieuwstraat,22,,,4264RE,Veen,Aalburg,Noord-Brabant,VBO,5.104911,51.774551
Nieuwstraat,24,,,4264RE,Veen,Aalburg,Noord-Brabant,VBO,5.104824,51.774546
Nieuwstraat,26,a,,4264RE,Veen,Aalburg,Noord-Brabant,VBO,5.104478,51.774525
Nieuwstraat,26,,,4264RE,Veen,Aalburg,Noord-Brabant,VBO,5.104611,51.774645
Nieuwstraat,28,,,4264RE,Veen,Aalburg,Noord-Brabant,VBO,5.104392,51.774520
Nieuwstraat,30,a,,4264RE,Veen,Aalburg,Noord-Brabant,VBO,5.104145,51.774633
Nieuwstraat,30,,,4264RE,Veen,Aalburg,Noord-Brabant,VBO,5.104060,51.774500
Nieuwstraat,32,,,4264RE,Veen,Aalburg,Noord-Brabant,VBO,5.103974,51.774495
Nieuwstraat,34,,,4264RE,Veen,Aalburg,Noord-Brabant,VBO,5.103642,51.774484
Nieuwstraat,36,,,4264RE,Veen,Aalburg,Noord-Brabant,VBO,5.103542,51.774491
Hubertus Schreudershof,1,,,4264RG,Veen,Aalburg,Noord-Brabant,VBO,5.103524,51.776014
Hubertus Schreudershof,2,,,4264RG,Veen,Aalburg,Noord-Brabant,VBO,5.104129,51.776114
Hubertus Schreudershof,3,,,4264RG,Veen,Aalburg,Noord-Brabant,VBO,5.103466,51.776004
Hubertus Schreudershof,4,,,4264RG,Veen,Aalburg,Noord-Brabant,VBO,5.104135,51.776163
Hubertus Schreudershof,5,,,4264RG,Veen,Aalburg,Noord-Brabant,VBO,5.103518,51.776092
Hubertus Schreudershof,6,,,4264RG,Veen,Aalburg,Noord-Brabant,VBO,5.104140,51.776212
Hubertus Schreudershof,7,,,4264RG,Veen,Aalburg,Noord-Brabant,VBO,5.103433,51.776050
Hubertus Schreudershof,8,,,4264RG,Veen,Aalburg,Noord-Brabant,VBO,5.104146,51.776260
Hubertus Schreudershof,9,,,4264RG,Veen,Aalburg,Noord-Brabant,VBO,5.103507,51.776283
Hubertus Schreudershof,10,,,4264RG,Veen,Aalburg,Noord-Brabant,VBO,5.104153,51.776314
Hubertus Schreudershof,11,,,4264RG,Veen,Aalburg,Noord-Brabant,VBO,5.103435,51.776305
Hubertus Schreudershof,12,,,4264RG,Veen,Aalburg,Noord-Brabant,VBO,5.104159,51.776363
Hubertus Schreudershof,13,,,4264RG,Veen,Aalburg,Noord-Brabant,VBO,5.103439,51.776347
Hubertus Schreudershof,14,,,4264RG,Veen,Aalburg,Noord-Brabant,VBO,5.104205,51.776467
Hubertus Schreudershof,15,,,4264RG,Veen,Aalburg,Noord-Brabant,VBO,5.103544,51.776373
Hubertus Schreudershof,16,,,4264RG,Veen,Aalburg,Noord-Brabant,VBO,5.104234,51.776513
Hubertus Schreudershof,17,,,4264RG,Veen,Aalburg,Noord-Brabant,VBO,5.103567,51.776482
Hubertus Schreudershof,18,,,4264RG,Veen,Aalburg,Noord-Brabant,VBO,5.104262,51.776559
Hubertus Schreudershof,19,,,4264RG,Veen,Aalburg,Noord-Brabant,VBO,5.103504,51.776518
Hubertus Schreudershof,20,,,4264RG,Veen,Aalburg,Noord-Brabant,VBO,5.104292,51.776607
Hubertus Schreudershof,21,,,4264RG,Veen,Aalburg,Noord-Brabant,VBO,5.103525,51.776553
Hubertus Schreudershof,22,,,4264RG,Veen,Aalburg,Noord-Brabant,VBO,5.104320,51.776653
Hubertus Schreudershof,23,,,4264RG,Veen,Aalburg,Noord-Brabant,VBO,5.103605,51.776566
Hubertus Schreudershof,24,,,4264RG,Veen,Aalburg,Noord-Brabant,VBO,5.104348,51.776699
Hubertus Schreudershof,25,,,4264RG,Veen,Aalburg,Noord-Brabant,VBO,5.103705,51.776735
Hubertus Schreudershof,26,,,4264RG,Veen,Aalburg,Noord-Brabant,VBO,5.104818,51.776527
Hubertus Schreudershof,27,,,4264RG,Veen,Aalburg,Noord-Brabant,VBO,5.103631,51.776779
Hubertus Schreudershof,28,,,4264RG,Veen,Aalburg,Noord-Brabant,VBO,5.104786,51.776477
Hubertus Schreudershof,29,,,4264RG,Veen,Aalburg,Noord-Brabant,VBO,5.103640,51.776816
Hubertus Schreudershof,30,,,4264RG,Veen,Aalburg,Noord-Brabant,VBO,5.104724,51.776376
Hubertus Schreudershof,31,,,4264RG,Veen,Aalburg,Noord-Brabant,VBO,5.103767,51.776825
Hubertus Schreudershof,32,,,4264RG,Veen,Aalburg,Noord-Brabant,VBO,5.104693,51.776326
Hubertus Schreudershof,34,,,4264RG,Veen,Aalburg,Noord-Brabant,VBO,5.104670,51.776205
Hubertus Schreudershof,36,,,4264RG,Veen,Aalburg,Noord-Brabant,VBO,5.104660,51.776121
Hubertus Schreudershof,37,,,4264RG,Veen,Aalburg,Noord-Brabant,VBO,5.104626,51.776911
Hubertus Schreudershof,39,,,4264RG,Veen,Aalburg,Noord-Brabant,VBO,5.104925,51.776762
Hubertus Schreudershof,41,,,4264RG,Veen,Aalburg,Noord-Brabant,VBO,5.105010,51.776899
Hubertus Schreudershof,43,,,4264RG,Veen,Aalburg,Noord-Brabant,VBO,5.105083,51.777047
Hubertus Schreudershof,45,,,4264RG,Veen,Aalburg,Noord-Brabant,VBO,5.105306,51.777117
Hubertus Schreudershof,47,,,4264RG,Veen,Aalburg,Noord-Brabant,VBO,5.105528,51.777025
Hubertus Schreudershof,49,,,4264RG,Veen,Aalburg,Noord-Brabant,VBO,5.105451,51.776883
Hubertus Schreudershof,51,,,4264RG,Veen,Aalburg,Noord-Brabant,VBO,5.105375,51.776763
Hubertus Schreudershof,53,,,4264RG,Veen,Aalburg,Noord-Brabant,VBO,5.105303,51.776647
Hubertus Schreudershof,57,,,4264RG,Veen,Aalburg,Noord-Brabant,VBO,5.104994,51.776138
Grotestraat,1,a,,4264RH,Veen,Aalburg,Noord-Brabant,VBO,5.108342,51.781402
Grotestraat,1,,,4264RH,Veen,Aalburg,Noord-Brabant,VBO,5.108023,51.781239
Grotestraat,3,,,4264RH,Veen,Aalburg,Noord-Brabant,VBO,5.107989,51.781191
Grotestraat,5,,,4264RH,Veen,Aalburg,Noord-Brabant,VBO,5.107984,51.781042
Grotestraat,7,a,,4264RH,Veen,Aalburg,Noord-Brabant,VBO,5.108073,51.780824
Grotestraat,7,,,4264RH,Veen,Aalburg,Noord-Brabant,VBO,5.107903,51.780942
Grotestraat,9,,,4264RH,Veen,Aalburg,Noord-Brabant,VBO,5.107765,51.780776
Grotestraat,11,,,4264RH,Veen,Aalburg,Noord-Brabant,VBO,5.107608,51.780599
Grotestraat,13,,,4264RH,Veen,Aalburg,Noord-Brabant,VBO,5.107419,51.780415
Grotestraat,15,,,4264RH,Veen,Aalburg,Noord-Brabant,VBO,5.107329,51.780344
Grotestraat,17,,,4264RH,Veen,Aalburg,Noord-Brabant,VBO,5.107124,51.780107
Grotestraat,19,,,4264RH,Veen,Aalburg,Noord-Brabant,VBO,5.107322,51.779753
Grotestraat,21,,,4264RH,Veen,Aalburg,Noord-Brabant,VBO,5.107002,51.779670
Grotestraat,25,,,4264RH,Veen,Aalburg,Noord-Brabant,VBO,5.106322,51.779131
Grotestraat,29,,,4264RH,Veen,Aalburg,Noord-Brabant,VBO,5.106170,51.778953
Grotestraat,33,,,4264RH,Veen,Aalburg,Noord-Brabant,VBO,5.105848,51.778701
Grotestraat,35,,,4264RH,Veen,Aalburg,Noord-Brabant,VBO,5.105800,51.778667
Grotestraat,37,,,4264RH,Veen,Aalburg,Noord-Brabant,VBO,5.105685,51.778584
Grotestraat,39,,,4264RH,Veen,Aalburg,Noord-Brabant,VBO,5.105623,51.778540
Grotestraat,41,,,4264RJ,Veen,Aalburg,Noord-Brabant,VBO,5.106038,51.778305
Grotestraat,43,,,4264RJ,Veen,Aalburg,Noord-Brabant,VBO,5.106090,51.778277
Grotestraat,45,,,4264RJ,Veen,Aalburg,Noord-Brabant,VBO,5.105978,51.778159
Grotestraat,47,,,4264RJ,Veen,Aalburg,Noord-Brabant,VBO,5.105923,51.778189
Grotestraat,49,,,4264RJ,Veen,Aalburg,Noord-Brabant,VBO,5.105486,51.778442
Grotestraat,51,,,4264RJ,Veen,Aalburg,Noord-Brabant,VBO,5.105422,51.778396
Grotestraat,53,,,4264RJ,Veen,Aalburg,Noord-Brabant,VBO,5.105306,51.778314
Grotestraat,55,a,,4264RJ,Veen,Aalburg,Noord-Brabant,VBO,5.105122,51.778189
Grotestraat,55,,,4264RJ,Veen,Aalburg,Noord-Brabant,VBO,5.105252,51.778275
Grotestraat,57,,,4264RJ,Veen,Aalburg,Noord-Brabant,VBO,5.105004,51.778096
Grotestraat,61,,,4264RJ,Veen,Aalburg,Noord-Brabant,VBO,5.104504,51.777918
Grotestraat,63,,,4264RJ,Veen,Aalburg,Noord-Brabant,VBO,5.104680,51.777605
Grotestraat,65,a,,4264RJ,Veen,Aalburg,Noord-Brabant,VBO,5.105220,51.777350
Grotestraat,65,,,4264RJ,Veen,Aalburg,Noord-Brabant,VBO,5.104236,51.777720
Grotestraat,67,,,4264RJ,Veen,Aalburg,Noord-Brabant,VBO,5.103979,51.777586
Grotestraat,69,,,4264RJ,Veen,Aalburg,Noord-Brabant,VBO,5.103792,51.777433
Grotestraat,71,,,4264RJ,Veen,Aalburg,Noord-Brabant,VBO,5.103341,51.777295
Grotestraat,73,,,4264RJ,Veen,Aalburg,Noord-Brabant,VBO,5.103289,51.777245
Grotestraat,75,,,4264RJ,Veen,Aalburg,Noord-Brabant,VBO,5.101964,51.776960
Grotestraat,77,,,4264RJ,Veen,Aalburg,Noord-Brabant,VBO,5.101873,51.776950
Grotestraat,79,,,4264RJ,Veen,Aalburg,Noord-Brabant,VBO,5.101468,51.776860
Grotestraat,81,,,4264RK,Veen,Aalburg,Noord-Brabant,VBO,5.101127,51.776845
Grotestraat,83,,,4264RK,Veen,Aalburg,Noord-Brabant,VBO,5.100848,51.776818
Grotestraat,4,,,4264RL,Veen,Aalburg,Noord-Brabant,VBO,5.108060,51.781613
Grotestraat,6,,,4264RL,Veen,Aalburg,Noord-Brabant,VBO,5.107914,51.781400
Grotestraat,8,,,4264RL,Veen,Aalburg,Noord-Brabant,VBO,5.107808,51.781281
Grotestraat,10,a,,4264RL,Veen,Aalburg,Noord-Brabant,VBO,5.107665,51.781156
Grotestraat,10,,,4264RL,Veen,Aalburg,Noord-Brabant,VBO,5.107614,51.781065
Grotestraat,12,,,4264RL,Veen,Aalburg,Noord-Brabant,VBO,5.107589,51.781032
Grotestraat,16,,,4264RL,Veen,Aalburg,Noord-Brabant,VBO,5.107373,51.780759
Grotestraat,20,,,4264RL,Veen,Aalburg,Noord-Brabant,VBO,5.107167,51.780549
Grotestraat,24,,,4264RL,Veen,Aalburg,Noord-Brabant,VBO,5.107039,51.780436
Grotestraat,26,,,4264RL,Veen,Aalburg,Noord-Brabant,VBO,5.106912,51.780338
Grotestraat,28,,,4264RL,Veen,Aalburg,Noord-Brabant,VBO,5.106530,51.780425
Grotestraat,32,,,4264RL,Veen,Aalburg,Noord-Brabant,VBO,5.106593,51.780093
Grotestraat,34,,,4264RL,Veen,Aalburg,Noord-Brabant,VBO,5.106067,51.780181
Grotestraat,36,,,4264RL,Veen,Aalburg,Noord-Brabant,VBO,5.106427,51.779927
Grotestraat,38,,,4264RL,Veen,Aalburg,Noord-Brabant,VBO,5.106024,51.779452
Grotestraat,40,,,4264RM,Veen,Aalburg,Noord-Brabant,VBO,5.105745,51.779119
Grotestraat,42,a,,4264RM,Veen,Aalburg,Noord-Brabant,VBO,5.105377,51.778856
Grotestraat,42,b,,4264RM,Veen,Aalburg,Noord-Brabant,VBO,5.104735,51.778669
Grotestraat,42,,,4264RM,Veen,Aalburg,Noord-Brabant,VBO,5.105442,51.778904
Grotestraat,44,,,4264RM,Veen,Aalburg,Noord-Brabant,VBO,5.103941,51.777945
Grotestraat,46,,,4264RM,Veen,Aalburg,Noord-Brabant,VBO,5.103744,51.777856
Grotestraat,48,,,4264RM,Veen,Aalburg,Noord-Brabant,VBO,5.103655,51.777814
Grotestraat,50,,,4264RM,Veen,Aalburg,Noord-Brabant,VBO,5.103409,51.777699
Grotestraat,52,,,4264RM,Veen,Aalburg,Noord-Brabant,VBO,5.103030,51.777530
Grotestraat,54,,,4264RM,Veen,Aalburg,Noord-Brabant,VBO,5.102487,51.777347
Grotestraat,56,a,,4264RM,Veen,Aalburg,Noord-Brabant,VBO,5.101989,51.777622
Grotestraat,56,,,4264RM,Veen,Aalburg,Noord-Brabant,VBO,5.102069,51.777304
Grotestraat,58,,,4264RM,Veen,Aalburg,Noord-Brabant,VBO,5.101700,51.777254
Grotestraat,60,,,4264RM,Veen,Aalburg,Noord-Brabant,VBO,5.101470,51.777222
Grotestraat,62,,,4264RM,Veen,Aalburg,Noord-Brabant,VBO,5.101196,51.777183
Grotestraat,64,,,4264RM,Veen,Aalburg,Noord-Brabant,VBO,5.100992,51.777159
Grotestraat,66,,,4264RM,Veen,Aalburg,Noord-Brabant,VBO,5.100715,51.777152
Groeneweg,1,b,,4264RN,Veen,Aalburg,Noord-Brabant,STA,5.103220,51.774083
Groeneweg,1,,,4264RN,Veen,Aalburg,Noord-Brabant,VBO,5.103326,51.773885
Groeneweg,4,,,4264RN,Veen,Aalburg,Noord-Brabant,VBO,5.101522,51.772818
van der Loostraat,2,,,4264RP,Veen,Aalburg,Noord-Brabant,VBO,5.106659,51.779167
van der Loostraat,3,,,4264RP,Veen,Aalburg,Noord-Brabant,VBO,5.107188,51.779176
van der Loostraat,4,,,4264RP,Veen,Aalburg,Noord-Brabant,VBO,5.106728,51.779136
van der Loostraat,5,,,4264RP,Veen,Aalburg,Noord-Brabant,VBO,5.107365,51.779089
van der Loostraat,6,,,4264RP,Veen,Aalburg,Noord-Brabant,VBO,5.106895,51.779059
van der Loostraat,7,a,,4264RP,Veen,Aalburg,Noord-Brabant,VBO,5.107888,51.779056
van der Loostraat,7,,,4264RP,Veen,Aalburg,Noord-Brabant,VBO,5.107707,51.779030
van der Loostraat,8,,,4264RP,Veen,Aalburg,Noord-Brabant,VBO,5.107323,51.778826
van der Loostraat,9,,,4264RP,Veen,Aalburg,Noord-Brabant,VBO,5.107911,51.778891
van der Loostraat,10,,,4264RP,Veen,Aalburg,Noord-Brabant,VBO,5.107333,51.778587
van der Loostraat,11,,,4264RP,Veen,Aalburg,Noord-Brabant,VBO,5.108012,51.778820
van der Loostraat,12,,,4264RP,Veen,Aalburg,Noord-Brabant,VBO,5.107505,51.778663
van der Loostraat,13,,,4264RP,Veen,Aalburg,Noord-Brabant,VBO,5.107925,51.778900
van der Loostraat,14,,,4264RP,Veen,Aalburg,Noord-Brabant,VBO,5.107930,51.778554
van der Loostraat,15,,,4264RP,Veen,Aalburg,Noord-Brabant,VBO,5.108041,51.778838
van der Loostraat,17,,,4264RP,Veen,Aalburg,Noord-Brabant,VBO,5.108114,51.778757
van der Loostraat,19,,,4264RP,Veen,Aalburg,Noord-Brabant,VBO,5.108187,51.778712
van der Loostraat,21,,,4264RP,Veen,Aalburg,Noord-Brabant,VBO,5.108389,51.778830
van der Loostraat,23,,,4264RP,Veen,Aalburg,Noord-Brabant,VBO,5.108143,51.778784
van der Loostraat,25,,,4264RP,Veen,Aalburg,Noord-Brabant,VBO,5.108216,51.778721
van der Loostraat,27,,,4264RP,Veen,Aalburg,Noord-Brabant,VBO,5.108375,51.778848
van der Loostraat,29,,,4264RP,Veen,Aalburg,Noord-Brabant,VBO,5.108172,51.778748
van der Loostraat,31,,,4264RP,Veen,Aalburg,Noord-Brabant,VBO,5.108389,51.778884
van der Loostraat,33,,,4264RP,Veen,Aalburg,Noord-Brabant,VBO,5.108461,51.778902
van der Loostraat,35,,,4264RP,Veen,Aalburg,Noord-Brabant,VBO,5.108562,51.778947
van der Loostraat,37,,,4264RP,Veen,Aalburg,Noord-Brabant,VBO,5.108418,51.778920
van der Loostraat,39,,,4264RP,Veen,Aalburg,Noord-Brabant,VBO,5.108548,51.778956
Mussentiend,1,a,,4264RR,Veen,Aalburg,Noord-Brabant,VBO,5.108832,51.778464
Mussentiend,1,,,4264RR,Veen,Aalburg,Noord-Brabant,VBO,5.108667,51.778489
Mussentiend,3,a,,4264RR,Veen,Aalburg,Noord-Brabant,VBO,5.109333,51.778298
Mussentiend,3,,,4264RR,Veen,Aalburg,Noord-Brabant,VBO,5.109068,51.778389
Mussentiend,5,a,,4264RR,Veen,Aalburg,Noord-Brabant,VBO,5.109728,51.778145
Mussentiend,5,b,,4264RR,Veen,Aalburg,Noord-Brabant,VBO,5.109812,51.778117
Mussentiend,5,,,4264RR,Veen,Aalburg,Noord-Brabant,VBO,5.109483,51.778228
Mussentiend,7,a,,4264RR,Veen,Aalburg,Noord-Brabant,VBO,5.110454,51.778011
Mussentiend,7,,,4264RR,Veen,Aalburg,Noord-Brabant,VBO,5.110149,51.778028
Mussentiend,9,,,4264RR,Veen,Aalburg,Noord-Brabant,VBO,5.110463,51.777909
Mussentiend,11,,,4264RR,Veen,Aalburg,Noord-Brabant,VBO,5.110782,51.777824
Mussentiend,13,,,4264RR,Veen,Aalburg,Noord-Brabant,VBO,5.111551,51.777535
Mussentiend,15,,,4264RR,Veen,Aalburg,Noord-Brabant,VBO,5.111791,51.777449
Mussentiend,19,,,4264RR,Veen,Aalburg,Noord-Brabant,VBO,5.112750,51.777089
Mussentiend,21,,,4264RR,Veen,Aalburg,Noord-Brabant,VBO,5.112830,51.777060
Mussentiend,23,,,4264RR,Veen,Aalburg,Noord-Brabant,VBO,5.112907,51.777033
Mussentiend,25,,,4264RR,Veen,Aalburg,Noord-Brabant,VBO,5.112987,51.777005
Mussentiend,2,,,4264RS,Veen,Aalburg,Noord-Brabant,VBO,5.108970,51.778114
Mussentiend,4,,,4264RS,Veen,Aalburg,Noord-Brabant,VBO,5.109198,51.778040
Mussentiend,8,,,4264RS,Veen,Aalburg,Noord-Brabant,VBO,5.109535,51.777960
Mussentiend,10,,,4264RS,Veen,Aalburg,Noord-Brabant,VBO,5.110152,51.777661
Mussentiend,12,,,4264RS,Veen,Aalburg,Noord-Brabant,VBO,5.110477,51.777517
Mussentiend,14,,,4264RS,Veen,Aalburg,Noord-Brabant,VBO,5.111130,51.777363
Mussentiend,16,,,4264RS,Veen,Aalburg,Noord-Brabant,VBO,5.111557,51.777242
Mussentiend,18,,,4264RS,Veen,Aalburg,Noord-Brabant,VBO,5.112094,51.777025
Mussentiend,20,,,4264RS,Veen,Aalburg,Noord-Brabant,VBO,5.112206,51.777007
Mussentiend,22,,,4264RS,Veen,Aalburg,Noord-Brabant,VBO,5.112379,51.776925
Mussentiend,24,,,4264RS,Veen,Aalburg,Noord-Brabant,VBO,5.112487,51.776908
Witboomstraat,5,,,4264RT,Veen,Aalburg,Noord-Brabant,VBO,5.110020,51.779919
Witboomstraat,7,,,4264RT,Veen,Aalburg,Noord-Brabant,VBO,5.109976,51.779879
Witboomstraat,9,,,4264RT,Veen,Aalburg,Noord-Brabant,VBO,5.109708,51.779666
Witboomstraat,11,,,4264RT,Veen,Aalburg,Noord-Brabant,VBO,5.109524,51.779488
Witboomstraat,13,a,,4264RT,Veen,Aalburg,Noord-Brabant,VBO,5.109851,51.779246
Witboomstraat,13,b,,4264RT,Veen,Aalburg,Noord-Brabant,VBO,5.110073,51.778998
Witboomstraat,13,,,4264RT,Veen,Aalburg,Noord-Brabant,VBO,5.110070,51.779165
Witboomstraat,15,,,4264RT,Veen,Aalburg,Noord-Brabant,VBO,5.109261,51.779258
Witboomstraat,19,,,4264RT,Veen,Aalburg,Noord-Brabant,VBO,5.109220,51.779005
Witboomstraat,21,,,4264RT,Veen,Aalburg,Noord-Brabant,VBO,5.109637,51.778563
Witboomstraat,23,,,4264RT,Veen,Aalburg,Noord-Brabant,VBO,5.108810,51.778836
Witboomstraat,27,a,,4264RT,Veen,Aalburg,Noord-Brabant,VBO,5.108543,51.778237
Witboomstraat,27,,,4264RT,Veen,Aalburg,Noord-Brabant,VBO,5.108585,51.778281
Witboomstraat,29,,,4264RT,Veen,Aalburg,Noord-Brabant,VBO,5.108703,51.778170
Witboomstraat,31,,,4264RT,Veen,Aalburg,Noord-Brabant,VBO,5.108455,51.778131
Witboomstraat,33,,,4264RT,Veen,Aalburg,Noord-Brabant,VBO,5.108405,51.777939
Witboomstraat,35,a,,4264RT,Veen,Aalburg,Noord-Brabant,VBO,5.108332,51.777759
Witboomstraat,35,b,,4264RT,Veen,Aalburg,Noord-Brabant,VBO,5.108294,51.777691
Witboomstraat,37,,,4264RT,Veen,Aalburg,Noord-Brabant,VBO,5.108194,51.777585
Witboomstraat,39,,,4264RT,Veen,Aalburg,Noord-Brabant,VBO,5.108106,51.777410
Witboomstraat,41,,,4264RT,Veen,Aalburg,Noord-Brabant,VBO,5.108035,51.777265
Witboomstraat,43,,,4264RT,Veen,Aalburg,Noord-Brabant,VBO,5.107999,51.777199
Witboomstraat,45,,,4264RT,Veen,Aalburg,Noord-Brabant,VBO,5.108011,51.776777
Witboomstraat,49,a,,4264RV,Veen,Aalburg,Noord-Brabant,VBO,5.107542,51.776149
Witboomstraat,49,,,4264RV,Veen,Aalburg,Noord-Brabant,VBO,5.107343,51.776244
Witboomstraat,51,,,4264RV,Veen,Aalburg,Noord-Brabant,VBO,5.107388,51.776033
Witboomstraat,53,,,4264RV,Veen,Aalburg,Noord-Brabant,VBO,5.107412,51.775973
Witboomstraat,55,,,4264RV,Veen,Aalburg,Noord-Brabant,VBO,5.107466,51.775857
Witboomstraat,57,,,4264RV,Veen,Aalburg,Noord-Brabant,VBO,5.107500,51.775796
Witboomstraat,59,,,4264RV,Veen,Aalburg,Noord-Brabant,VBO,5.107607,51.775637
Witboomstraat,61,,,4264RV,Veen,Aalburg,Noord-Brabant,VBO,5.108627,51.775298
Witboomstraat,63,a,,4264RV,Veen,Aalburg,Noord-Brabant,VBO,5.108922,51.775058
Witboomstraat,63,,,4264RV,Veen,Aalburg,Noord-Brabant,VBO,5.108620,51.775052
Witboomstraat,65,,,4264RV,Veen,Aalburg,Noord-Brabant,VBO,5.108411,51.774808
Witboomstraat,2,,,4264RW,Veen,Aalburg,Noord-Brabant,VBO,5.110417,51.780424
Witboomstraat,6,a,,4264RW,Veen,Aalburg,Noord-Brabant,VBO,5.109837,51.780201
Witboomstraat,6,,,4264RW,Veen,Aalburg,Noord-Brabant,VBO,5.110059,51.780207
Witboomstraat,8,,,4264RW,Veen,Aalburg,Noord-Brabant,VBO,5.109836,51.780050
Witboomstraat,10,,,4264RW,Veen,Aalburg,Noord-Brabant,VBO,5.109413,51.779969
Witboomstraat,12,,,4264RW,Veen,Aalburg,Noord-Brabant,VBO,5.109296,51.779763
Witboomstraat,14,a,,4264RW,Veen,Aalburg,Noord-Brabant,VBO,5.109110,51.779697
Witboomstraat,14,b,,4264RW,Veen,Aalburg,Noord-Brabant,VBO,5.108928,51.779665
Witboomstraat,14,,,4264RW,Veen,Aalburg,Noord-Brabant,VBO,5.109148,51.779643
Witboomstraat,18,,,4264RW,Veen,Aalburg,Noord-Brabant,VBO,5.108962,51.779477
Witboomstraat,22,,,4264RW,Veen,Aalburg,Noord-Brabant,VBO,5.108915,51.779270
Witboomstraat,26,,,4264RW,Veen,Aalburg,Noord-Brabant,VBO,5.108483,51.779263
Witboomstraat,28,,,4264RW,Veen,Aalburg,Noord-Brabant,VBO,5.108760,51.779114
Witboomstraat,32,,,4264RX,Veen,Aalburg,Noord-Brabant,VBO,5.108074,51.778302
Witboomstraat,34,,,4264RX,Veen,Aalburg,Noord-Brabant,VBO,5.107797,51.777720
Witboomstraat,36,a,,4264RX,Veen,Aalburg,Noord-Brabant,VBO,5.107658,51.777429
Witboomstraat,36,b,,4264RX,Veen,Aalburg,Noord-Brabant,VBO,5.107207,51.777793
Witboomstraat,36,,,4264RX,Veen,Aalburg,Noord-Brabant,VBO,5.107826,51.777560
Witboomstraat,38,,,4264RX,Veen,Aalburg,Noord-Brabant,VBO,5.107634,51.777282
Witboomstraat,40,a,,4264RX,Veen,Aalburg,Noord-Brabant,VBO,5.107347,51.777006
Witboomstraat,40,,,4264RX,Veen,Aalburg,Noord-Brabant,VBO,5.107608,51.777239
Witboomstraat,42,a,,4264RX,Veen,Aalburg,Noord-Brabant,VBO,5.107185,51.776842
Witboomstraat,42,b,,4264RX,Veen,Aalburg,Noord-Brabant,VBO,5.106663,51.777106
Witboomstraat,42,c,,4264RX,Veen,Aalburg,Noord-Brabant,VBO,5.106324,51.777243
Witboomstraat,42,d,,4264RX,Veen,Aalburg,Noord-Brabant,VBO,5.106081,51.777125
Witboomstraat,42,e,,4264RX,Veen,Aalburg,Noord-Brabant,VBO,5.107010,51.776731
Witboomstraat,42,,,4264RX,Veen,Aalburg,Noord-Brabant,VBO,5.107001,51.776946
Witboomstraat,44,a,,4264RX,Veen,Aalburg,Noord-Brabant,VBO,5.105965,51.776933
Witboomstraat,44,,,4264RX,Veen,Aalburg,Noord-Brabant,VBO,5.105980,51.776667
Witboomstraat,46,,,4264RX,Veen,Aalburg,Noord-Brabant,VBO,5.106891,51.776379
Witboomstraat,48,,,4264RX,Veen,Aalburg,Noord-Brabant,VBO,5.106871,51.776226
Witboomstraat,50,,,4264RX,Veen,Aalburg,Noord-Brabant,VBO,5.106900,51.776088
Witboomstraat,52,,,4264RX,Veen,Aalburg,Noord-Brabant,VBO,5.106924,51.776022
Witboomstraat,54,,,4264RX,Veen,Aalburg,Noord-Brabant,VBO,5.106981,51.775869
Witboomstraat,56,,,4264RX,Veen,Aalburg,Noord-Brabant,VBO,5.107005,51.775803
Witboomstraat,58,,,4264RX,Veen,Aalburg,Noord-Brabant,VBO,5.107004,51.775644
Witboomstraat,60,,,4264RX,Veen,Aalburg,Noord-Brabant,VBO,5.107276,51.775433
Witboomstraat,62,,,4264RX,Veen,Aalburg,Noord-Brabant,VBO,5.107399,51.775284
Witboomstraat,64,,,4264RX,Veen,Aalburg,Noord-Brabant,VBO,5.107512,51.775118
Witboomstraat,66,,,4264RX,Veen,Aalburg,Noord-Brabant,VBO,5.107573,51.774922
Witboomstraat,68,,,4264RX,Veen,Aalburg,Noord-Brabant,VBO,5.107518,51.774705
Burgemeester van Dijkstraat,1,a,,4264RZ,Veen,Aalburg,Noord-Brabant,VBO,5.107034,51.775448
Burgemeester van Dijkstraat,1,b,,4264RZ,Veen,Aalburg,Noord-Brabant,VBO,5.107039,51.775109
Burgemeester van Dijkstraat,1,c,,4264RZ,Veen,Aalburg,Noord-Brabant,VBO,5.106976,51.775110
Burgemeester van Dijkstraat,1,d,,4264RZ,Veen,Aalburg,Noord-Brabant,VBO,5.106921,51.775110
Burgemeester van Dijkstraat,1,e,,4264RZ,Veen,Aalburg,Noord-Brabant,VBO,5.106864,51.775111
Burgemeester van Dijkstraat,1,f,,4264RZ,Veen,Aalburg,Noord-Brabant,VBO,5.106806,51.775112
Burgemeester van Dijkstraat,1,g,,4264RZ,Veen,Aalburg,Noord-Brabant,VBO,5.106749,51.775112
Burgemeester van Dijkstraat,1,h,,4264RZ,Veen,Aalburg,Noord-Brabant,VBO,5.106690,51.775113
Burgemeester van Dijkstraat,1,i,,4264RZ,Veen,Aalburg,Noord-Brabant,VBO,5.106632,51.775114
Burgemeester van Dijkstraat,1,j,,4264RZ,Veen,Aalburg,Noord-Brabant,VBO,5.106576,51.775115
Burgemeester van Dijkstraat,1,k,,4264RZ,Veen,Aalburg,Noord-Brabant,VBO,5.106515,51.775116
Burgemeester van Dijkstraat,1,,,4264RZ,Veen,Aalburg,Noord-Brabant,VBO,5.107139,51.775448
Burgemeester van Dijkstraat,3,,,4264RZ,Veen,Aalburg,Noord-Brabant,VBO,5.106870,51.775402
Burgemeester van Dijkstraat,5,,,4264RZ,Veen,Aalburg,Noord-Brabant,VBO,5.106802,51.775392
Burgemeester van Dijkstraat,7,,,4264RZ,Veen,Aalburg,Noord-Brabant,VBO,5.106715,51.775383
Burgemeester van Dijkstraat,8,,,4264RZ,Veen,Aalburg,Noord-Brabant,VBO,5.106280,51.776289
Burgemeester van Dijkstraat,9,,,4264RZ,Veen,Aalburg,Noord-Brabant,VBO,5.106632,51.775371
Burgemeester van Dijkstraat,11,,,4264RZ,Veen,Aalburg,Noord-Brabant,VBO,5.106560,51.775359
Burgemeester van Dijkstraat,13,,,4264RZ,Veen,Aalburg,Noord-Brabant,VBO,5.105796,51.775934
Burgemeester van Dijkstraat,15,,,4264RZ,Veen,Aalburg,Noord-Brabant,VBO,5.105920,51.776243
Burgemeester van Dijkstraat,17,,,4264RZ,Veen,Aalburg,Noord-Brabant,VBO,5.105837,51.776259
Burgemeester van Dijkstraat,19,,,4264RZ,Veen,Aalburg,Noord-Brabant,VBO,5.105672,51.776292
Burgemeester van Dijkstraat,21,,,4264RZ,Veen,Aalburg,Noord-Brabant,VBO,5.105585,51.776312
Burgemeester van Dijkstraat,23,,,4264RZ,Veen,Aalburg,Noord-Brabant,VBO,5.105517,51.776328
Burgemeester van Dijkstraat,25,,,4264RZ,Veen,Aalburg,Noord-Brabant,VBO,5.105453,51.776343
Burgemeester van Dijkstraat,27,,,4264RZ,Veen,Aalburg,Noord-Brabant,VBO,5.105371,51.776362
Burgemeester van Dijkstraat,29,,,4264RZ,Veen,Aalburg,Noord-Brabant,VBO,5.105210,51.776405
Burgemeester van Dijkstraat,31,,,4264RZ,Veen,Aalburg,Noord-Brabant,VBO,5.105118,51.776427
Dr.Tjalmastraat,1,a,,4264SB,Veen,Aalburg,Noord-Brabant,VBO,5.106357,51.775351
Dr.Tjalmastraat,1,b,,4264SB,Veen,Aalburg,Noord-Brabant,VBO,5.106357,51.775335
Dr.Tjalmastraat,1,c,,4264SB,Veen,Aalburg,Noord-Brabant,VBO,5.106359,51.775318
Dr.Tjalmastraat,1,d,,4264SB,Veen,Aalburg,Noord-Brabant,VBO,5.106363,51.775302
Dr.Tjalmastraat,1,e,,4264SB,Veen,Aalburg,Noord-Brabant,VBO,5.106362,51.775282
Dr.Tjalmastraat,1,f,,4264SB,Veen,Aalburg,Noord-Brabant,VBO,5.106364,51.775264
Dr.Tjalmastraat,3,,,4264SB,Veen,Aalburg,Noord-Brabant,VBO,5.106230,51.775156
Dr.Tjalmastraat,5,,,4264SB,Veen,Aalburg,Noord-Brabant,VBO,5.106131,51.775150
Dr.Tjalmastraat,7,,,4264SB,Veen,Aalburg,Noord-Brabant,VBO,5.106032,51.775144
Dr.Tjalmastraat,9,,,4264SB,Veen,Aalburg,Noord-Brabant,VBO,5.105871,51.775102
Dr.Tjalmastraat,11,,,4264SB,Veen,Aalburg,Noord-Brabant,VBO,5.105798,51.775095
Dr.Tjalmastraat,13,,,4264SB,Veen,Aalburg,Noord-Brabant,VBO,5.105728,51.775091
Dr.Tjalmastraat,15,,,4264SB,Veen,Aalburg,Noord-Brabant,VBO,5.105655,51.775081
Dr.Tjalmastraat,16,,,4264SB,Veen,Aalburg,Noord-Brabant,VBO,5.103125,51.775962
Dr.Tjalmastraat,17,,,4264SB,Veen,Aalburg,Noord-Brabant,VBO,5.105579,51.775075
Dr.Tjalmastraat,18,,,4264SB,Veen,Aalburg,Noord-Brabant,VBO,5.103033,51.775953
Dr.Tjalmastraat,19,,,4264SB,Veen,Aalburg,Noord-Brabant,VBO,5.105441,51.775065
Dr.Tjalmastraat,20,,,4264SB,Veen,Aalburg,Noord-Brabant,VBO,5.102938,51.775943
Dr.Tjalmastraat,21,,,4264SB,Veen,Aalburg,Noord-Brabant,VBO,5.105362,51.775064
Dr.Tjalmastraat,22,,,4264SB,Veen,Aalburg,Noord-Brabant,VBO,5.102847,51.775934
Dr.Tjalmastraat,23,,,4264SB,Veen,Aalburg,Noord-Brabant,VBO,5.105288,51.775062
Dr.Tjalmastraat,25,,,4264SB,Veen,Aalburg,Noord-Brabant,VBO,5.105224,51.775056
Dr.Tjalmastraat,27,,,4264SB,Veen,Aalburg,Noord-Brabant,VBO,5.105142,51.775050
Dr.Tjalmastraat,37,,,4264SB,Veen,Aalburg,Noord-Brabant,VBO,5.104351,51.774982
Dr.Tjalmastraat,39,,,4264SB,Veen,Aalburg,Noord-Brabant,VBO,5.104266,51.774984
Dr.Tjalmastraat,41,,,4264SB,Veen,Aalburg,Noord-Brabant,VBO,5.104080,51.774978
Dr.Tjalmastraat,43,,,4264SB,Veen,Aalburg,Noord-Brabant,VBO,5.103989,51.774977
Dr.Tjalmastraat,14,,,4264SC,Veen,Aalburg,Noord-Brabant,VBO,5.103246,51.775970
Dr.Tjalmastraat,51,,,4264SC,Veen,Aalburg,Noord-Brabant,VBO,5.103718,51.775062
Dr.Tjalmastraat,53,,,4264SC,Veen,Aalburg,Noord-Brabant,VBO,5.103707,51.775107
Dr.Tjalmastraat,55,,,4264SC,Veen,Aalburg,Noord-Brabant,VBO,5.103712,51.775224
Dr.Tjalmastraat,57,,,4264SC,Veen,Aalburg,Noord-Brabant,VBO,5.103699,51.775277
Dr.Tjalmastraat,59,,,4264SC,Veen,Aalburg,Noord-Brabant,VBO,5.103674,51.775394
Dr.Tjalmastraat,61,,,4264SC,Veen,Aalburg,Noord-Brabant,VBO,5.103662,51.775445
Dr.Tjalmastraat,63,,,4264SC,Veen,Aalburg,Noord-Brabant,VBO,5.103643,51.775557
Dr.Tjalmastraat,65,,,4264SC,Veen,Aalburg,Noord-Brabant,VBO,5.103627,51.775602
Dr.Tjalmastraat,67,,,4264SC,Veen,Aalburg,Noord-Brabant,VBO,5.103589,51.775721
Dr.Tjalmastraat,69,,,4264SC,Veen,Aalburg,Noord-Brabant,VBO,5.103595,51.775775
Singel,1,,,4264SE,Veen,Aalburg,Noord-Brabant,VBO,5.107977,51.775784
Singel,3,,,4264SE,Veen,Aalburg,Noord-Brabant,VBO,5.108022,51.775845
Singel,5,,,4264SE,Veen,Aalburg,Noord-Brabant,VBO,5.108105,51.775955
Singel,7,,,4264SE,Veen,Aalburg,Noord-Brabant,VBO,5.108152,51.776017
Singel,9,,,4264SE,Veen,Aalburg,Noord-Brabant,VBO,5.108232,51.776127
Hardenbergh,1,,,4264SG,Veen,Aalburg,Noord-Brabant,VBO,5.108829,51.776941
Hardenbergh,2,a,,4264SG,Veen,Aalburg,Noord-Brabant,VBO,5.109712,51.776694
Hardenbergh,2,b,,4264SG,Veen,Aalburg,Noord-Brabant,VBO,5.109475,51.776850
Hardenbergh,3,,,4264SG,Veen,Aalburg,Noord-Brabant,VBO,5.108870,51.776995
Hardenbergh,4,,,4264SG,Veen,Aalburg,Noord-Brabant,VBO,5.109507,51.777165
Hardenbergh,5,,,4264SG,Veen,Aalburg,Noord-Brabant,VBO,5.108949,51.777100
Hardenbergh,7,,,4264SG,Veen,Aalburg,Noord-Brabant,VBO,5.108991,51.777155
Hardenbergh,9,,,4264SG,Veen,Aalburg,Noord-Brabant,VBO,5.109064,51.777253
Hardenbergh,11,,,4264SG,Veen,Aalburg,Noord-Brabant,VBO,5.109105,51.777307
Hardenbergh,13,,,4264SG,Veen,Aalburg,Noord-Brabant,VBO,5.109176,51.777402
Hardenbergh,15,,,4264SG,Veen,Aalburg,Noord-Brabant,VBO,5.109219,51.777458
Hardenbergh,17,,,4264SG,Veen,Aalburg,Noord-Brabant,VBO,5.109292,51.777555
Hardenbergh,19,,,4264SG,Veen,Aalburg,Noord-Brabant,VBO,5.109335,51.777611
Hardenbergh,21,,,4264SG,Veen,Aalburg,Noord-Brabant,VBO,5.109435,51.777744
Wilhelminastraat,1,,,4264SH,Veen,Aalburg,Noord-Brabant,VBO,5.112097,51.776830
Wilhelminastraat,2,,,4264SH,Veen,Aalburg,Noord-Brabant,VBO,5.111500,51.777015
Wilhelminastraat,3,,,4264SH,Veen,Aalburg,Noord-Brabant,VBO,5.111835,51.776890
Wilhelminastraat,4,,,4264SH,Veen,Aalburg,Noord-Brabant,VBO,5.111450,51.776970
Wilhelminastraat,5,,,4264SH,Veen,Aalburg,Noord-Brabant,VBO,5.111772,51.776833
Wilhelminastraat,6,,,4264SH,Veen,Aalburg,Noord-Brabant,VBO,5.111400,51.776925
Wilhelminastraat,7,,,4264SH,Veen,Aalburg,Noord-Brabant,VBO,5.111618,51.776694
Wilhelminastraat,8,,,4264SH,Veen,Aalburg,Noord-Brabant,VBO,5.111350,51.776880
Wilhelminastraat,9,,,4264SH,Veen,Aalburg,Noord-Brabant,VBO,5.111555,51.776636
Wilhelminastraat,10,,,4264SH,Veen,Aalburg,Noord-Brabant,VBO,5.111247,51.776787
Wilhelminastraat,11,,,4264SH,Veen,Aalburg,Noord-Brabant,VBO,5.110940,51.776082
Wilhelminastraat,12,,,4264SH,Veen,Aalburg,Noord-Brabant,VBO,5.111197,51.776741
Wilhelminastraat,13,,,4264SH,Veen,Aalburg,Noord-Brabant,VBO,5.110890,51.776037
Wilhelminastraat,14,,,4264SH,Veen,Aalburg,Noord-Brabant,VBO,5.111147,51.776696
Wilhelminastraat,15,,,4264SH,Veen,Aalburg,Noord-Brabant,VBO,5.110838,51.775990
Wilhelminastraat,16,,,4264SH,Veen,Aalburg,Noord-Brabant,VBO,5.111097,51.776651
Wilhelminastraat,17,,,4264SH,Veen,Aalburg,Noord-Brabant,VBO,5.110786,51.775943
Wilhelminastraat,18,,,4264SH,Veen,Aalburg,Noord-Brabant,VBO,5.110996,51.776560
Wilhelminastraat,19,,,4264SH,Veen,Aalburg,Noord-Brabant,VBO,5.110734,51.775896
Wilhelminastraat,20,,,4264SH,Veen,Aalburg,Noord-Brabant,VBO,5.110943,51.776513
Wilhelminastraat,21,,,4264SH,Veen,Aalburg,Noord-Brabant,VBO,5.110589,51.775784
Wilhelminastraat,22,,,4264SH,Veen,Aalburg,Noord-Brabant,VBO,5.110893,51.776468
Wilhelminastraat,23,,,4264SH,Veen,Aalburg,Noord-Brabant,VBO,5.110534,51.775756
Wilhelminastraat,24,,,4264SH,Veen,Aalburg,Noord-Brabant,VBO,5.110843,51.776423
Wilhelminastraat,25,,,4264SH,Veen,Aalburg,Noord-Brabant,VBO,5.110476,51.775727
Wilhelminastraat,26,,,4264SH,Veen,Aalburg,Noord-Brabant,VBO,5.109906,51.775731
Wilhelminastraat,27,,,4264SH,Veen,Aalburg,Noord-Brabant,VBO,5.110418,51.775698
Wilhelminastraat,28,,,4264SH,Veen,Aalburg,Noord-Brabant,VBO,5.109548,51.775728
Wilhelminastraat,29,,,4264SH,Veen,Aalburg,Noord-Brabant,VBO,5.110360,51.775669
Wilhelminastraat,30,,,4264SH,Veen,Aalburg,Noord-Brabant,VBO,5.109294,51.775836
Wilhelminastraat,31,,,4264SH,Veen,Aalburg,Noord-Brabant,VBO,5.110298,51.775638
Wilhelminastraat,32,,,4264SH,Veen,Aalburg,Noord-Brabant,VBO,5.109045,51.775883
Wilhelminastraat,33,,,4264SH,Veen,Aalburg,Noord-Brabant,VBO,5.110166,51.775569
Wilhelminastraat,35,,,4264SH,Veen,Aalburg,Noord-Brabant,VBO,5.110127,51.775529
Wilhelminastraat,37,,,4264SH,Veen,Aalburg,Noord-Brabant,VBO,5.110088,51.775489
Wilhelminastraat,39,a,,4264SH,Veen,Aalburg,Noord-Brabant,VBO,5.110023,51.775386
Wilhelminastraat,39,,,4264SH,Veen,Aalburg,Noord-Brabant,VBO,5.110049,51.775449
Wilhelminastraat,41,,,4264SH,Veen,Aalburg,Noord-Brabant,VBO,5.109588,51.775476
Wilhelminastraat,43,a,,4264SH,Veen,Aalburg,Noord-Brabant,VBO,5.109100,51.775317
Wilhelminastraat,43,,,4264SH,Veen,Aalburg,Noord-Brabant,VBO,5.109350,51.775531
Wilhelminastraat,45,,,4264SH,Veen,Aalburg,Noord-Brabant,VBO,5.108986,51.775625
Wilhelminastraat,47,,,4264SH,Veen,Aalburg,Noord-Brabant,VBO,5.108342,51.776358
Wilhelminastraat,49,,,4264SH,Veen,Aalburg,Noord-Brabant,VBO,5.108192,51.776395
Wilhelminastraat,51,,,4264SH,Veen,Aalburg,Noord-Brabant,VBO,5.108006,51.776441
Emmastraat,1,,,4264SJ,Veen,Aalburg,Noord-Brabant,VBO,5.111392,51.776441
Emmastraat,2,,,4264SJ,Veen,Aalburg,Noord-Brabant,VBO,5.111177,51.776239
Emmastraat,3,,,4264SJ,Veen,Aalburg,Noord-Brabant,VBO,5.111578,51.776376
Emmastraat,4,,,4264SJ,Veen,Aalburg,Noord-Brabant,VBO,5.111379,51.776168
Emmastraat,5,,,4264SJ,Veen,Aalburg,Noord-Brabant,VBO,5.111768,51.776311
Emmastraat,6,,,4264SJ,Veen,Aalburg,Noord-Brabant,VBO,5.111581,51.776098
Emmastraat,7,,,4264SJ,Veen,Aalburg,Noord-Brabant,VBO,5.111957,51.776245
Emmastraat,8,,,4264SJ,Veen,Aalburg,Noord-Brabant,VBO,5.111784,51.776027
Juliana van Stolbergstraat,1,,,4264SK,Veen,Aalburg,Noord-Brabant,VBO,5.109942,51.775304
Juliana van Stolbergstraat,3,,,4264SK,Veen,Aalburg,Noord-Brabant,VBO,5.109941,51.775260
Juliana van Stolbergstraat,5,,,4264SK,Veen,Aalburg,Noord-Brabant,VBO,5.109941,51.775213
Juliana van Stolbergstraat,7,,,4264SK,Veen,Aalburg,Noord-Brabant,VBO,5.109941,51.775166
Juliana van Stolbergstraat,9,,,4264SK,Veen,Aalburg,Noord-Brabant,VBO,5.109940,51.775119
Juliana van Stolbergstraat,11,,,4264SK,Veen,Aalburg,Noord-Brabant,VBO,5.110483,51.775103
Juliana van Stolbergstraat,13,,,4264SK,Veen,Aalburg,Noord-Brabant,VBO,5.110485,51.775147
Juliana van Stolbergstraat,15,,,4264SK,Veen,Aalburg,Noord-Brabant,VBO,5.110487,51.775194
Juliana van Stolbergstraat,17,,,4264SK,Veen,Aalburg,Noord-Brabant,VBO,5.110488,51.775241
Juliana van Stolbergstraat,19,,,4264SK,Veen,Aalburg,Noord-Brabant,VBO,5.110490,51.775287
Juliana van Stolbergstraat,21,,,4264SK,Veen,Aalburg,Noord-Brabant,VBO,5.110569,51.775396
Juliana van Stolbergstraat,23,,,4264SK,Veen,Aalburg,Noord-Brabant,VBO,5.110628,51.775426
Juliana van Stolbergstraat,25,,,4264SK,Veen,Aalburg,Noord-Brabant,VBO,5.110689,51.775456
Juliana van Stolbergstraat,27,,,4264SK,Veen,Aalburg,Noord-Brabant,VBO,5.110751,51.775487
Juliana van Stolbergstraat,29,,,4264SK,Veen,Aalburg,Noord-Brabant,VBO,5.110806,51.775522
Juliana van Stolbergstraat,31,,,4264SK,Veen,Aalburg,Noord-Brabant,VBO,5.110871,51.775555
Juliana van Stolbergstraat,33,,,4264SK,Veen,Aalburg,Noord-Brabant,VBO,5.110928,51.775584
Juliana van Stolbergstraat,35,a,,4264SK,Veen,Aalburg,Noord-Brabant,VBO,5.111118,51.775681
Juliana van Stolbergstraat,35,b,,4264SK,Veen,Aalburg,Noord-Brabant,VBO,5.111147,51.775699
Juliana van Stolbergstraat,35,c,,4264SK,Veen,Aalburg,Noord-Brabant,VBO,5.111176,51.775735
Juliana van Stolbergstraat,35,d,,4264SK,Veen,Aalburg,Noord-Brabant,VBO,5.111191,51.775754
Juliana van Stolbergstraat,37,,,4264SK,Veen,Aalburg,Noord-Brabant,VBO,5.111274,51.775835
Juliana van Stolbergstraat,39,,,4264SK,Veen,Aalburg,Noord-Brabant,VBO,5.111340,51.775813
Juliana van Stolbergstraat,41,,,4264SK,Veen,Aalburg,Noord-Brabant,VBO,5.111410,51.775790
Juliana van Stolbergstraat,43,,,4264SK,Veen,Aalburg,Noord-Brabant,VBO,5.111290,51.775523
Juliana van Stolbergstraat,45,,,4264SK,Veen,Aalburg,Noord-Brabant,VBO,5.111341,51.775484
Juliana van Stolbergstraat,47,,,4264SK,Veen,Aalburg,Noord-Brabant,VBO,5.111446,51.775403
Juliana van Stolbergstraat,49,a,,4264SK,Veen,Aalburg,Noord-Brabant,VBO,5.111739,51.775557
Juliana van Stolbergstraat,49,,,4264SK,Veen,Aalburg,Noord-Brabant,VBO,5.111496,51.775365
Willem de Zwijgerstraat,2,,,4264SL,Veen,Aalburg,Noord-Brabant,VBO,5.112508,51.777152
Willem de Zwijgerstraat,4,,,4264SL,Veen,Aalburg,Noord-Brabant,VBO,5.112547,51.777195
Willem de Zwijgerstraat,6,,,4264SL,Veen,Aalburg,Noord-Brabant,VBO,5.112586,51.777237
Willem de Zwijgerstraat,8,,,4264SL,Veen,Aalburg,Noord-Brabant,VBO,5.112626,51.777280
Willem de Zwijgerstraat,10,,,4264SL,Veen,Aalburg,Noord-Brabant,VBO,5.112669,51.777327
Willem de Zwijgerstraat,12,,,4264SL,Veen,Aalburg,Noord-Brabant,VBO,5.112829,51.777370
Willem de Zwijgerstraat,14,,,4264SL,Veen,Aalburg,Noord-Brabant,VBO,5.112868,51.777412
Willem de Zwijgerstraat,16,,,4264SL,Veen,Aalburg,Noord-Brabant,VBO,5.112907,51.777455
Willem de Zwijgerstraat,18,,,4264SL,Veen,Aalburg,Noord-Brabant,VBO,5.112946,51.777497
Willem de Zwijgerstraat,20,,,4264SL,Veen,Aalburg,Noord-Brabant,VBO,5.112987,51.777542
Willem de Zwijgerstraat,22,,,4264SL,Veen,Aalburg,Noord-Brabant,VBO,5.113070,51.777610
Willem de Zwijgerstraat,24,,,4264SL,Veen,Aalburg,Noord-Brabant,VBO,5.113109,51.777653
Willem de Zwijgerstraat,26,,,4264SL,Veen,Aalburg,Noord-Brabant,VBO,5.113148,51.777695
Willem de Zwijgerstraat,28,,,4264SM,Veen,Aalburg,Noord-Brabant,VBO,5.113188,51.777738
Willem de Zwijgerstraat,30,,,4264SM,Veen,Aalburg,Noord-Brabant,VBO,5.113255,51.777812
Willem de Zwijgerstraat,32,,,4264SM,Veen,Aalburg,Noord-Brabant,VBO,5.113294,51.777855
Willem de Zwijgerstraat,34,,,4264SM,Veen,Aalburg,Noord-Brabant,VBO,5.113334,51.777898
Willem de Zwijgerstraat,36,,,4264SM,Veen,Aalburg,Noord-Brabant,VBO,5.113373,51.777940
Willem de Zwijgerstraat,38,,,4264SM,Veen,Aalburg,Noord-Brabant,VBO,5.113429,51.778019
Willem de Zwijgerstraat,40,,,4264SM,Veen,Aalburg,Noord-Brabant,VBO,5.113468,51.778062
Willem de Zwijgerstraat,42,,,4264SM,Veen,Aalburg,Noord-Brabant,VBO,5.113507,51.778105
Willem de Zwijgerstraat,44,,,4264SM,Veen,Aalburg,Noord-Brabant,VBO,5.113547,51.778147
Willem de Zwijgerstraat,46,,,4264SM,Veen,Aalburg,Noord-Brabant,VBO,5.113399,51.778241
Willem de Zwijgerstraat,48,,,4264SM,Veen,Aalburg,Noord-Brabant,VBO,5.113317,51.778270
Willem de Zwijgerstraat,50,,,4264SM,Veen,Aalburg,Noord-Brabant,VBO,5.113234,51.778299
Willem de Zwijgerstraat,52,,,4264SM,Veen,Aalburg,Noord-Brabant,VBO,5.113151,51.778327
Willem de Zwijgerstraat,54,,,4264SM,Veen,Aalburg,Noord-Brabant,VBO,5.113087,51.778373
Willem de Zwijgerstraat,56,,,4264SM,Veen,Aalburg,Noord-Brabant,VBO,5.113043,51.778382
Willem de Zwijgerstraat,58,,,4264SM,Veen,Aalburg,Noord-Brabant,VBO,5.113000,51.778400
Willem de Zwijgerstraat,60,,,4264SM,Veen,Aalburg,Noord-Brabant,VBO,5.112956,51.778409
Willem de Zwijgerstraat,62,,,4264SM,Veen,Aalburg,Noord-Brabant,VBO,5.112927,51.778427
Willem de Zwijgerstraat,64,,,4264SM,Veen,Aalburg,Noord-Brabant,VBO,5.112898,51.778436
Willem de Zwijgerstraat,66,,,4264SM,Veen,Aalburg,Noord-Brabant,VBO,5.112740,51.778494
Willem de Zwijgerstraat,68,,,4264SM,Veen,Aalburg,Noord-Brabant,VBO,5.112691,51.778524
Willem de Zwijgerstraat,70,,,4264SM,Veen,Aalburg,Noord-Brabant,VBO,5.112641,51.778554
Willem de Zwijgerstraat,72,,,4264SM,Veen,Aalburg,Noord-Brabant,VBO,5.112592,51.778585
Willem de Zwijgerstraat,74,,,4264SM,Veen,Aalburg,Noord-Brabant,VBO,5.112542,51.778615
Willem de Zwijgerstraat,76,,,4264SM,Veen,Aalburg,Noord-Brabant,VBO,5.112450,51.778696
Willem de Zwijgerstraat,78,,,4264SM,Veen,Aalburg,Noord-Brabant,VBO,5.112424,51.778756
Willem de Zwijgerstraat,80,,,4264SM,Veen,Aalburg,Noord-Brabant,VBO,5.112400,51.778815
Willem de Zwijgerstraat,82,,,4264SM,Veen,Aalburg,Noord-Brabant,VBO,5.112314,51.778944
Willem de Zwijgerstraat,84,,,4264SM,Veen,Aalburg,Noord-Brabant,VBO,5.112269,51.778996
Willem de Zwijgerstraat,86,,,4264SM,Veen,Aalburg,Noord-Brabant,VBO,5.112208,51.779034
Willem de Zwijgerstraat,90,,,4264SM,Veen,Aalburg,Noord-Brabant,VBO,5.112067,51.779114
Willem de Zwijgerstraat,92,,,4264SM,Veen,Aalburg,Noord-Brabant,VBO,5.112011,51.779145
Willem de Zwijgerstraat,94,,,4264SM,Veen,Aalburg,Noord-Brabant,VBO,5.111891,51.779213
Willem de Zwijgerstraat,96,,,4264SM,Veen,Aalburg,Noord-Brabant,VBO,5.111835,51.779245
Willem de Zwijgerstraat,98,,,4264SM,Veen,Aalburg,Noord-Brabant,VBO,5.111670,51.779345
Willem de Zwijgerstraat,100,,,4264SM,Veen,Aalburg,Noord-Brabant,VBO,5.111608,51.779380
Willem de Zwijgerstraat,102,,,4264SM,Veen,Aalburg,Noord-Brabant,VBO,5.111525,51.779528
Willem de Zwijgerstraat,104,,,4264SM,Veen,Aalburg,Noord-Brabant,VBO,5.111465,51.779557
Willem de Zwijgerstraat,106,,,4264SM,Veen,Aalburg,Noord-Brabant,VBO,5.111343,51.779623
Willem de Zwijgerstraat,108,,,4264SM,Veen,Aalburg,Noord-Brabant,VBO,5.111284,51.779652
Willem de Zwijgerstraat,110,,,4264SM,Veen,Aalburg,Noord-Brabant,VBO,5.111148,51.779726
Willem de Zwijgerstraat,112,,,4264SM,Veen,Aalburg,Noord-Brabant,VBO,5.111088,51.779755
Hofstraat,1,a,,4264SN,Veen,Aalburg,Noord-Brabant,VBO,5.108164,51.779805
Hofstraat,1,,,4264SN,Veen,Aalburg,Noord-Brabant,VBO,5.108422,51.779693
Hofstraat,2,a,,4264SN,Veen,Aalburg,Noord-Brabant,VBO,5.108811,51.780170
Hofstraat,2,,,4264SN,Veen,Aalburg,Noord-Brabant,VBO,5.108623,51.779930
Hofstraat,3,,,4264SN,Veen,Aalburg,Noord-Brabant,VBO,5.108186,51.779982
Hofstraat,4,,,4264SN,Veen,Aalburg,Noord-Brabant,VBO,5.108542,51.780302
Hofstraat,5,,,4264SN,Veen,Aalburg,Noord-Brabant,VBO,5.108294,51.780079
Hofstraat,6,,,4264SN,Veen,Aalburg,Noord-Brabant,VBO,5.108072,51.780443
Hofstraat,7,,,4264SN,Veen,Aalburg,Noord-Brabant,VBO,5.108365,51.780145
Hofstraat,8,,,4264SN,Veen,Aalburg,Noord-Brabant,VBO,5.107906,51.780461
Frederik Hendrikstraat,1,,,4264SP,Veen,Aalburg,Noord-Brabant,VBO,5.110948,51.777959
Frederik Hendrikstraat,5,,,4264SP,Veen,Aalburg,Noord-Brabant,VBO,5.111051,51.778050
Frederik Hendrikstraat,7,,,4264SP,Veen,Aalburg,Noord-Brabant,VBO,5.111097,51.778100
Frederik Hendrikstraat,9,,,4264SP,Veen,Aalburg,Noord-Brabant,VBO,5.111143,51.778149
Frederik Hendrikstraat,11,,,4264SP,Veen,Aalburg,Noord-Brabant,VBO,5.111187,51.778197
Frederik Hendrikstraat,13,,,4264SP,Veen,Aalburg,Noord-Brabant,VBO,5.110835,51.778316
Frederik Hendrikstraat,15,,,4264SP,Veen,Aalburg,Noord-Brabant,VBO,5.110753,51.778345
Frederik Hendrikstraat,17,,,4264SP,Veen,Aalburg,Noord-Brabant,VBO,5.110626,51.778360
Frederik Hendrikstraat,19,,,4264SP,Veen,Aalburg,Noord-Brabant,VBO,5.110546,51.778389
Frederik Hendrikstraat,21,,,4264SP,Veen,Aalburg,Noord-Brabant,VBO,5.110466,51.778418
Frederik Hendrikstraat,23,,,4264SP,Veen,Aalburg,Noord-Brabant,VBO,5.110389,51.778445
Frederik Hendrikstraat,25,,,4264SP,Veen,Aalburg,Noord-Brabant,VBO,5.110032,51.778347
Frederik Hendrikstraat,27,,,4264SP,Veen,Aalburg,Noord-Brabant,VBO,5.110078,51.778398
Frederik Hendrikstraat,29,,,4264SP,Veen,Aalburg,Noord-Brabant,VBO,5.110169,51.778495
Frederik Hendrikstraat,31,,,4264SP,Veen,Aalburg,Noord-Brabant,VBO,5.110219,51.778548
Frederik Hendrikstraat,33,,,4264SP,Veen,Aalburg,Noord-Brabant,VBO,5.110426,51.778610
Frederik Hendrikstraat,35,,,4264SP,Veen,Aalburg,Noord-Brabant,VBO,5.110472,51.778660
Frederik Hendrikstraat,37,,,4264SP,Veen,Aalburg,Noord-Brabant,VBO,5.110518,51.778709
Frederik Hendrikstraat,39,,,4264SP,Veen,Aalburg,Noord-Brabant,VBO,5.110564,51.778759
Frederik Hendrikstraat,41,,,4264SP,Veen,Aalburg,Noord-Brabant,VBO,5.110612,51.778811
Frederik Hendrikstraat,43,,,4264SP,Veen,Aalburg,Noord-Brabant,VBO,5.110714,51.778859
Frederik Hendrikstraat,45,,,4264SP,Veen,Aalburg,Noord-Brabant,VBO,5.110761,51.778909
Frederik Hendrikstraat,47,,,4264SP,Veen,Aalburg,Noord-Brabant,VBO,5.110779,51.778991
Frederik Hendrikstraat,49,,,4264SP,Veen,Aalburg,Noord-Brabant,VBO,5.110826,51.779040
Frederik Hendrikstraat,51,,,4264SP,Veen,Aalburg,Noord-Brabant,VBO,5.110875,51.779091
Frederik Hendrikstraat,53,,,4264SP,Veen,Aalburg,Noord-Brabant,VBO,5.110920,51.779138
Frederik Hendrikstraat,55,,,4264SP,Veen,Aalburg,Noord-Brabant,VBO,5.111020,51.779192
Frederik Hendrikstraat,57,,,4264SP,Veen,Aalburg,Noord-Brabant,VBO,5.111067,51.779242
Frederik Hendrikstraat,59,,,4264SP,Veen,Aalburg,Noord-Brabant,VBO,5.111160,51.779341
Frederik Hendrikstraat,61,,,4264SP,Veen,Aalburg,Noord-Brabant,VBO,5.111202,51.779387
Frederik Hendrikstraat,2,a,,4264SR,Veen,Aalburg,Noord-Brabant,VBO,5.111672,51.778108
Frederik Hendrikstraat,2,b,,4264SR,Veen,Aalburg,Noord-Brabant,VBO,5.111939,51.778022
Frederik Hendrikstraat,2,c,,4264SR,Veen,Aalburg,Noord-Brabant,VBO,5.111961,51.778182
Frederik Hendrikstraat,2,d,,4264SR,Veen,Aalburg,Noord-Brabant,VBO,5.111690,51.778292
Frederik Hendrikstraat,2,,,4264SR,Veen,Aalburg,Noord-Brabant,VBO,5.111432,51.778383
Frederik Hendrikstraat,4,,,4264SR,Veen,Aalburg,Noord-Brabant,VBO,5.111352,51.778412
Frederik Hendrikstraat,6,,,4264SR,Veen,Aalburg,Noord-Brabant,VBO,5.111271,51.778440
Frederik Hendrikstraat,8,,,4264SR,Veen,Aalburg,Noord-Brabant,VBO,5.111191,51.778469
Frederik Hendrikstraat,10,,,4264SR,Veen,Aalburg,Noord-Brabant,VBO,5.110959,51.778601
Frederik Hendrikstraat,12,,,4264SR,Veen,Aalburg,Noord-Brabant,VBO,5.111005,51.778651
Frederik Hendrikstraat,14,,,4264SR,Veen,Aalburg,Noord-Brabant,VBO,5.111052,51.778701
Frederik Hendrikstraat,16,,,4264SR,Veen,Aalburg,Noord-Brabant,VBO,5.111098,51.778751
Frederik Hendrikstraat,18,,,4264SR,Veen,Aalburg,Noord-Brabant,VBO,5.111090,51.778833
Frederik Hendrikstraat,20,,,4264SR,Veen,Aalburg,Noord-Brabant,VBO,5.111149,51.778880
Frederik Hendrikstraat,22,,,4264SR,Veen,Aalburg,Noord-Brabant,VBO,5.111162,51.778910
Frederik Hendrikstraat,24,,,4264SR,Veen,Aalburg,Noord-Brabant,VBO,5.111198,51.778948
Frederik Hendrikstraat,26,,,4264SR,Veen,Aalburg,Noord-Brabant,VBO,5.111255,51.779045
Frederik Hendrikstraat,28,,,4264SR,Veen,Aalburg,Noord-Brabant,VBO,5.111301,51.779094
Frederik Hendrikstraat,30,,,4264SR,Veen,Aalburg,Noord-Brabant,VBO,5.111347,51.779144
Frederik Hendrikstraat,32,,,4264SR,Veen,Aalburg,Noord-Brabant,VBO,5.111393,51.779194
Willem de Zwijgerstraat,1,,,4264ST,Veen,Aalburg,Noord-Brabant,VBO,5.112167,51.777316
Willem de Zwijgerstraat,3,,,4264ST,Veen,Aalburg,Noord-Brabant,VBO,5.112323,51.777462
Willem de Zwijgerstraat,5,,,4264ST,Veen,Aalburg,Noord-Brabant,VBO,5.112536,51.777608
Willem de Zwijgerstraat,7,,,4264ST,Veen,Aalburg,Noord-Brabant,VBO,5.112707,51.777744
Willem de Zwijgerstraat,9,,,4264ST,Veen,Aalburg,Noord-Brabant,VBO,5.112846,51.777894
Willem de Zwijgerstraat,11,,,4264ST,Veen,Aalburg,Noord-Brabant,VBO,5.112868,51.778071
Willem de Zwijgerstraat,13,,,4264ST,Veen,Aalburg,Noord-Brabant,VBO,5.112357,51.778426
Willem de Zwijgerstraat,15,,,4264ST,Veen,Aalburg,Noord-Brabant,VBO,5.112189,51.778504
Willem de Zwijgerstraat,17,,,4264ST,Veen,Aalburg,Noord-Brabant,VBO,5.112068,51.778618
Willem de Zwijgerstraat,19,,,4264ST,Veen,Aalburg,Noord-Brabant,VBO,5.111898,51.778954
Willem de Zwijgerstraat,21,,,4264ST,Veen,Aalburg,Noord-Brabant,VBO,5.111839,51.778987
Willem de Zwijgerstraat,23,,,4264ST,Veen,Aalburg,Noord-Brabant,VBO,5.111784,51.779019
Willem de Zwijgerstraat,25,,,4264ST,Veen,Aalburg,Noord-Brabant,VBO,5.111725,51.779052
Willem de Zwijgerstraat,27,,,4264ST,Veen,Aalburg,Noord-Brabant,VBO,5.110959,51.779529
Willem de Zwijgerstraat,29,,,4264ST,Veen,Aalburg,Noord-Brabant,VBO,5.110895,51.779560
Willem de Zwijgerstraat,31,,,4264ST,Veen,Aalburg,Noord-Brabant,VBO,5.110762,51.779624
Willem de Zwijgerstraat,33,,,4264ST,Veen,Aalburg,Noord-Brabant,VBO,5.110702,51.779653
Willem de Zwijgerstraat,35,,,4264ST,Veen,Aalburg,Noord-Brabant,VBO,5.110572,51.779716
Willem de Zwijgerstraat,37,,,4264ST,Veen,Aalburg,Noord-Brabant,VBO,5.110509,51.779747
Juliana van Stolbergstraat,51,,,4264SV,Veen,Aalburg,Noord-Brabant,VBO,5.111872,51.775730
Juliana van Stolbergstraat,53,,,4264SV,Veen,Aalburg,Noord-Brabant,VBO,5.112013,51.775894
Juliana van Stolbergstraat,55,,,4264SV,Veen,Aalburg,Noord-Brabant,VBO,5.112263,51.776185
Juliana van Stolbergstraat,57,,,4264SV,Veen,Aalburg,Noord-Brabant,VBO,5.112350,51.776287
Juliana van Stolbergstraat,59,,,4264SV,Veen,Aalburg,Noord-Brabant,VBO,5.112470,51.776426
Juliana van Stolbergstraat,61,,,4264SV,Veen,Aalburg,Noord-Brabant,VBO,5.112589,51.776565
Juliana van Stolbergstraat,63,,,4264SV,Veen,Aalburg,Noord-Brabant,VBO,5.112729,51.776727
Juliana van Stolbergstraat,65,,,4264SV,Veen,Aalburg,Noord-Brabant,VBO,5.113174,51.777171
Juliana van Stolbergstraat,67,,,4264SV,Veen,Aalburg,Noord-Brabant,VBO,5.113220,51.777221
Juliana van Stolbergstraat,69,,,4264SV,Veen,Aalburg,Noord-Brabant,VBO,5.113266,51.777270
Juliana van Stolbergstraat,71,,,4264SV,Veen,Aalburg,Noord-Brabant,VBO,5.113314,51.777322
Juliana van Stolbergstraat,73,,,4264SV,Veen,Aalburg,Noord-Brabant,VBO,5.113359,51.777369
Juliana van Stolbergstraat,75,,,4264SV,Veen,Aalburg,Noord-Brabant,VBO,5.113452,51.777444
Juliana van Stolbergstraat,77,,,4264SV,Veen,Aalburg,Noord-Brabant,VBO,5.113498,51.777493
Juliana van Stolbergstraat,79,,,4264SV,Veen,Aalburg,Noord-Brabant,VBO,5.113544,51.777543
Juliana van Stolbergstraat,81,,,4264SV,Veen,Aalburg,Noord-Brabant,VBO,5.113592,51.777595
Juliana van Stolbergstraat,83,,,4264SV,Veen,Aalburg,Noord-Brabant,VBO,5.113682,51.777667
Juliana van Stolbergstraat,85,,,4264SV,Veen,Aalburg,Noord-Brabant,VBO,5.113728,51.777717
Juliana van Stolbergstraat,87,,,4264SV,Veen,Aalburg,Noord-Brabant,VBO,5.113775,51.777766
Juliana van Stolbergstraat,89,,,4264SV,Veen,Aalburg,Noord-Brabant,VBO,5.113821,51.777816
Juliana van Stolbergstraat,2,,,4264SW,Veen,Aalburg,Noord-Brabant,VBO,5.109591,51.775221
Juliana van Stolbergstraat,4,,,4264SW,Veen,Aalburg,Noord-Brabant,VBO,5.109581,51.775068
Juliana van Stolbergstraat,6,,,4264SW,Veen,Aalburg,Noord-Brabant,VBO,5.109487,51.774896
Juliana van Stolbergstraat,10,,,4264SW,Veen,Aalburg,Noord-Brabant,VBO,5.109783,51.774899
Juliana van Stolbergstraat,12,,,4264SW,Veen,Aalburg,Noord-Brabant,VBO,5.109858,51.774898
Juliana van Stolbergstraat,14,,,4264SW,Veen,Aalburg,Noord-Brabant,VBO,5.110023,51.774915
Juliana van Stolbergstraat,16,,,4264SW,Veen,Aalburg,Noord-Brabant,VBO,5.110098,51.774914
Juliana van Stolbergstraat,18,,,4264SW,Veen,Aalburg,Noord-Brabant,VBO,5.110330,51.774912
Juliana van Stolbergstraat,20,,,4264SW,Veen,Aalburg,Noord-Brabant,VBO,5.110411,51.774912
Juliana van Stolbergstraat,22,,,4264SW,Veen,Aalburg,Noord-Brabant,VBO,5.110670,51.774910
Juliana van Stolbergstraat,28,,,4264SW,Veen,Aalburg,Noord-Brabant,VBO,5.110880,51.774899
Juliana van Stolbergstraat,30,,,4264SW,Veen,Aalburg,Noord-Brabant,VBO,5.111109,51.774949
Juliana van Stolbergstraat,32,,,4264SW,Veen,Aalburg,Noord-Brabant,VBO,5.111425,51.775056
Mauritsstraat,2,,,4264SX,Veen,Aalburg,Noord-Brabant,VBO,5.110934,51.777151
Mauritsstraat,4,,,4264SX,Veen,Aalburg,Noord-Brabant,VBO,5.110810,51.777000
Mauritsstraat,6,,,4264SX,Veen,Aalburg,Noord-Brabant,VBO,5.110648,51.776859
Mauritsstraat,8,,,4264SX,Veen,Aalburg,Noord-Brabant,VBO,5.110500,51.776726
Mauritsstraat,10,,,4264SX,Veen,Aalburg,Noord-Brabant,VBO,5.110355,51.776566
Tamerisstraat,3,,,4264VA,Veen,Aalburg,Noord-Brabant,VBO,5.103056,51.781365
Tamerisstraat,13,,,4264VA,Veen,Aalburg,Noord-Brabant,VBO,5.104586,51.782135
Tamerisstraat,15,,,4264VA,Veen,Aalburg,Noord-Brabant,VBO,5.104547,51.782086
Tamerisstraat,17,,,4264VA,Veen,Aalburg,Noord-Brabant,VBO,5.104630,51.782061
Tamerisstraat,19,,,4264VA,Veen,Aalburg,Noord-Brabant,VBO,5.104669,51.782118
Tamerisstraat,20,,,4264VA,Veen,Aalburg,Noord-Brabant,VBO,5.104656,51.781683
Tamerisstraat,22,,,4264VA,Veen,Aalburg,Noord-Brabant,VBO,5.104851,51.781636
Tamerisstraat,23,,,4264VA,Veen,Aalburg,Noord-Brabant,VBO,5.104708,51.782178
Tamerisstraat,24,,,4264VA,Veen,Aalburg,Noord-Brabant,VBO,5.104943,51.781631
Verzetsplein,12,,,4264VD,Veen,Aalburg,Noord-Brabant,VBO,5.104706,51.780859
Verzetsplein,14,,,4264VD,Veen,Aalburg,Noord-Brabant,VBO,5.104680,51.780903
Verzetsplein,16,,,4264VD,Veen,Aalburg,Noord-Brabant,VBO,5.104647,51.780956
Verzetsplein,18,,,4264VD,Veen,Aalburg,Noord-Brabant,VBO,5.104614,51.781004
Verzetsplein,20,,,4264VD,Veen,Aalburg,Noord-Brabant,VBO,5.104523,51.781132
Verzetsplein,22,,,4264VD,Veen,Aalburg,Noord-Brabant,VBO,5.104534,51.781172
Verzetsplein,24,,,4264VD,Veen,Aalburg,Noord-Brabant,VBO,5.104538,51.781215
Verzetsplein,26,,,4264VD,Veen,Aalburg,Noord-Brabant,VBO,5.104539,51.781261
Verzetsplein,28,,,4264VD,Veen,Aalburg,Noord-Brabant,VBO,5.104580,51.781325
Verzetsplein,30,,,4264VD,Veen,Aalburg,Noord-Brabant,VBO,5.104576,51.781361
Verzetsplein,32,,,4264VD,Veen,Aalburg,Noord-Brabant,VBO,5.104585,51.781405
Verzetsplein,34,,,4264VD,Veen,Aalburg,Noord-Brabant,VBO,5.104593,51.781451
De Bruijnstraat,3,,,4264VE,Veen,Aalburg,Noord-Brabant,VBO,5.106002,51.780403
De Bruijnstraat,5,,,4264VE,Veen,Aalburg,Noord-Brabant,VBO,5.105929,51.780414
De Bruijnstraat,7,a,,4264VE,Veen,Aalburg,Noord-Brabant,VBO,5.105485,51.780515
De Bruijnstraat,7,,,4264VE,Veen,Aalburg,Noord-Brabant,VBO,5.105562,51.780500
De Bruijnstraat,9,a,,4264VE,Veen,Aalburg,Noord-Brabant,VBO,5.105332,51.780537
De Bruijnstraat,9,,,4264VE,Veen,Aalburg,Noord-Brabant,VBO,5.105408,51.780525
De Bruijnstraat,11,,,4264VE,Veen,Aalburg,Noord-Brabant,VBO,5.105262,51.780351
De Bruijnstraat,13,,,4264VE,Veen,Aalburg,Noord-Brabant,VBO,5.105249,51.780303
De Bruijnstraat,15,,,4264VE,Veen,Aalburg,Noord-Brabant,VBO,5.105232,51.780257
De Bruijnstraat,34,,,4264VE,Veen,Aalburg,Noord-Brabant,VBO,5.105446,51.780775
De Bruijnstraat,36,,,4264VE,Veen,Aalburg,Noord-Brabant,VBO,5.105383,51.780791
De Bruijnstraat,38,,,4264VE,Veen,Aalburg,Noord-Brabant,VBO,5.105309,51.780801
De Bruijnstraat,40,,,4264VE,Veen,Aalburg,Noord-Brabant,VBO,5.105239,51.780806
De Bruijnstraat,42,,,4264VE,Veen,Aalburg,Noord-Brabant,VBO,5.105135,51.780790
De Bruijnstraat,44,,,4264VE,Veen,Aalburg,Noord-Brabant,VBO,5.105062,51.780795
De Bruijnstraat,46,,,4264VE,Veen,Aalburg,Noord-Brabant,VBO,5.104992,51.780801
De Bruijnstraat,48,,,4264VE,Veen,Aalburg,Noord-Brabant,VBO,5.104918,51.780813
Van Ballegooijenhof,5,,,4264VH,Veen,Aalburg,Noord-Brabant,VBO,5.102419,51.779749
Van Ballegooijenhof,7,,,4264VH,Veen,Aalburg,Noord-Brabant,VBO,5.102082,51.779737
