openbareruimtenaam,huisnummer,huisletter,huisnummertoevoeging,postcode,woonplaatsnaam,gemeentenaam,provincienaam,typeadresseerbaarobject,longitude,latitude
Molenstraat,1,,,4285AA,Woudrichem,Woudrichem,Noord-Brabant,VBO,5.003616,51.817865
Molenstraat,3,,,4285AA,Woudrichem,Woudrichem,Noord-Brabant,VBO,5.003403,51.817876
Molenstraat,5,,,4285AA,Woudrichem,Woudrichem,Noord-Brabant,VBO,5.003313,51.817880
Molenstraat,7,,,4285AA,Woudrichem,Woudrichem,Noord-Brabant,VBO,5.003219,51.817884
Molenstraat,9,,,4285AA,Woudrichem,Woudrichem,Noord-Brabant,VBO,5.003075,51.817885
Molenstraat,11,,,4285AA,Woudrichem,Woudrichem,Noord-Brabant,VBO,5.002899,51.817884
Molenstraat,13,,,4285AA,Woudrichem,Woudrichem,Noord-Brabant,VBO,5.002723,51.817872
Molenstraat,19,,,4285AA,Woudrichem,Woudrichem,Noord-Brabant,VBO,5.002600,51.817880
Molenstraat,21,,,4285AA,Woudrichem,Woudrichem,Noord-Brabant,VBO,5.002491,51.817877
Molenstraat,23,,,4285AA,Woudrichem,Woudrichem,Noord-Brabant,VBO,5.002377,51.817874
Molenstraat,25,,,4285AA,Woudrichem,Woudrichem,Noord-Brabant,VBO,5.002306,51.817872
Molenstraat,27,,,4285AA,Woudrichem,Woudrichem,Noord-Brabant,VBO,5.002211,51.817869
Molenstraat,29,,,4285AA,Woudrichem,Woudrichem,Noord-Brabant,VBO,5.002123,51.817873
Molenstraat,31,,,4285AA,Woudrichem,Woudrichem,Noord-Brabant,VBO,5.002019,51.817873
Molenstraat,33,,,4285AA,Woudrichem,Woudrichem,Noord-Brabant,VBO,5.001939,51.817874
Molenstraat,35,,,4285AA,Woudrichem,Woudrichem,Noord-Brabant,VBO,5.001802,51.817874
Molenstraat,2,,,4285AB,Woudrichem,Woudrichem,Noord-Brabant,VBO,5.003513,51.818006
Molenstraat,10,,,4285AB,Woudrichem,Woudrichem,Noord-Brabant,VBO,5.003216,51.818028
Molenstraat,12,,,4285AB,Woudrichem,Woudrichem,Noord-Brabant,VBO,5.003114,51.818031
Molenstraat,14,,,4285AB,Woudrichem,Woudrichem,Noord-Brabant,VBO,5.002894,51.818021
Molenstraat,16,,,4285AB,Woudrichem,Woudrichem,Noord-Brabant,VBO,5.002830,51.818020
Molenstraat,18,,,4285AB,Woudrichem,Woudrichem,Noord-Brabant,VBO,5.002646,51.818013
Molenstraat,20,,,4285AB,Woudrichem,Woudrichem,Noord-Brabant,VBO,5.002544,51.818011
Molenstraat,24,,,4285AB,Woudrichem,Woudrichem,Noord-Brabant,VBO,5.002376,51.818029
Molenstraat,28,,,4285AB,Woudrichem,Woudrichem,Noord-Brabant,VBO,5.002215,51.818054
Rijkswal,1,,,4285AC,Woudrichem,Woudrichem,Noord-Brabant,VBO,5.001111,51.817770
Rijkswal,2,,,4285AC,Woudrichem,Woudrichem,Noord-Brabant,VBO,5.004070,51.818240
Rijkswal,3,,,4285AC,Woudrichem,Woudrichem,Noord-Brabant,VBO,5.001121,51.817678
Rijkswal,4,,,4285AC,Woudrichem,Woudrichem,Noord-Brabant,VBO,5.004180,51.818229
Rijkswal,5,,,4285AC,Woudrichem,Woudrichem,Noord-Brabant,VBO,5.001122,51.817588
Rijkswal,6,,,4285AC,Woudrichem,Woudrichem,Noord-Brabant,VBO,5.004283,51.818184
Rijkswal,7,,,4285AC,Woudrichem,Woudrichem,Noord-Brabant,VBO,5.004763,51.815443
Rijkswal,8,a,,4285AC,Woudrichem,Woudrichem,Noord-Brabant,VBO,5.004440,51.818205
Rijkswal,8,,,4285AC,Woudrichem,Woudrichem,Noord-Brabant,VBO,5.004360,51.818211
Rijkswal,10,,,4285AC,Woudrichem,Woudrichem,Noord-Brabant,VBO,5.004536,51.818196
Rijkswal,12,,,4285AC,Woudrichem,Woudrichem,Noord-Brabant,VBO,5.004625,51.818188
Rijkswal,14,b,,4285AC,Woudrichem,Woudrichem,Noord-Brabant,VBO,5.004930,51.818142
Rijkswal,14,,,4285AC,Woudrichem,Woudrichem,Noord-Brabant,VBO,5.004710,51.818180
Rijkswal,16,,,4285AD,Woudrichem,Woudrichem,Noord-Brabant,VBO,5.005256,51.818105
Rijkswal,18,,,4285AD,Woudrichem,Woudrichem,Noord-Brabant,VBO,5.005353,51.818088
Rijkswal,20,,,4285AD,Woudrichem,Woudrichem,Noord-Brabant,VBO,5.005419,51.818081
Rijkswal,22,,,4285AD,Woudrichem,Woudrichem,Noord-Brabant,VBO,5.005485,51.818073
Rijkswal,24,,,4285AD,Woudrichem,Woudrichem,Noord-Brabant,VBO,5.005563,51.818060
Rijkswal,26,,,4285AD,Woudrichem,Woudrichem,Noord-Brabant,VBO,5.005634,51.818042
Rijkswal,28,,,4285AD,Woudrichem,Woudrichem,Noord-Brabant,VBO,5.005742,51.818014
Rijkswal,30,,,4285AD,Woudrichem,Woudrichem,Noord-Brabant,VBO,5.006041,51.817937
Rijkswal,32,,,4285AD,Woudrichem,Woudrichem,Noord-Brabant,VBO,5.006396,51.817878
Rijkswal,34,,,4285AD,Woudrichem,Woudrichem,Noord-Brabant,VBO,5.001541,51.816219
Rijkswal,44,,,4285AD,Woudrichem,Woudrichem,Noord-Brabant,VBO,5.002029,51.818152
Rijkswal,48,,,4285AD,Woudrichem,Woudrichem,Noord-Brabant,VBO,5.002268,51.818168
Rijkswal,50,a,,4285AD,Woudrichem,Woudrichem,Noord-Brabant,VBO,5.002636,51.818197
Rijkswal,50,,,4285AD,Woudrichem,Woudrichem,Noord-Brabant,VBO,5.002511,51.818194
Rijkswal,52,,,4285AD,Woudrichem,Woudrichem,Noord-Brabant,VBO,5.002742,51.818201
Rijkswal,54,a,,4285AD,Woudrichem,Woudrichem,Noord-Brabant,VBO,5.002941,51.818209
Rijkswal,54,,,4285AD,Woudrichem,Woudrichem,Noord-Brabant,VBO,5.002869,51.818206
Rijkswal,56,,,4285AD,Woudrichem,Woudrichem,Noord-Brabant,VBO,5.003751,51.818240
Rijkswal,58,,,4285AD,Woudrichem,Woudrichem,Noord-Brabant,VBO,5.003825,51.818247
Hoogstraat,1,,,4285AE,Woudrichem,Woudrichem,Noord-Brabant,VBO,5.003943,51.818023
Hoogstraat,3,,,4285AE,Woudrichem,Woudrichem,Noord-Brabant,VBO,5.004046,51.818017
Hoogstraat,5,,,4285AE,Woudrichem,Woudrichem,Noord-Brabant,VBO,5.004115,51.818012
Hoogstraat,7,,,4285AE,Woudrichem,Woudrichem,Noord-Brabant,VBO,5.004178,51.818009
Hoogstraat,9,,,4285AE,Woudrichem,Woudrichem,Noord-Brabant,VBO,5.004239,51.818006
Hoogstraat,11,,,4285AE,Woudrichem,Woudrichem,Noord-Brabant,VBO,5.004304,51.818003
Hoogstraat,13,,,4285AE,Woudrichem,Woudrichem,Noord-Brabant,VBO,5.004374,51.817998
Hoogstraat,15,,,4285AE,Woudrichem,Woudrichem,Noord-Brabant,VBO,5.004457,51.817994
Hoogstraat,17,,,4285AE,Woudrichem,Woudrichem,Noord-Brabant,VBO,5.004463,51.818032
Hoogstraat,19,,,4285AE,Woudrichem,Woudrichem,Noord-Brabant,VBO,5.004555,51.817989
Hoogstraat,21,,,4285AE,Woudrichem,Woudrichem,Noord-Brabant,VBO,5.004751,51.818089
Hoogstraat,23,,,4285AG,Woudrichem,Woudrichem,Noord-Brabant,VBO,5.005090,51.817964
Hoogstraat,25,,,4285AG,Woudrichem,Woudrichem,Noord-Brabant,VBO,5.005178,51.817958
Hoogstraat,27,,,4285AG,Woudrichem,Woudrichem,Noord-Brabant,VBO,5.005387,51.817941
Hoogstraat,29,,,4285AG,Woudrichem,Woudrichem,Noord-Brabant,VBO,5.005561,51.817925
Hoogstraat,31,,,4285AG,Woudrichem,Woudrichem,Noord-Brabant,VBO,5.005646,51.817915
Hoogstraat,33,,,4285AG,Woudrichem,Woudrichem,Noord-Brabant,VBO,5.005722,51.817902
Hoogstraat,35,,,4285AG,Woudrichem,Woudrichem,Noord-Brabant,VBO,5.005788,51.817891
Hoogstraat,37,,,4285AG,Woudrichem,Woudrichem,Noord-Brabant,VBO,5.005867,51.817878
Hoogstraat,39,,,4285AG,Woudrichem,Woudrichem,Noord-Brabant,VBO,5.005961,51.817861
Hoogstraat,41,,,4285AG,Woudrichem,Woudrichem,Noord-Brabant,VBO,5.006093,51.817844
Hoogstraat,43,,,4285AG,Woudrichem,Woudrichem,Noord-Brabant,VBO,5.006220,51.817826
Hoogstraat,47,,,4285AG,Woudrichem,Woudrichem,Noord-Brabant,VBO,5.006232,51.817699
Hoogstraat,49,,,4285AG,Woudrichem,Woudrichem,Noord-Brabant,VBO,5.006438,51.817618
Hoogstraat,51,,,4285AG,Woudrichem,Woudrichem,Noord-Brabant,VBO,5.006491,51.817587
Hoogstraat,53,,,4285AG,Woudrichem,Woudrichem,Noord-Brabant,VBO,5.006543,51.817556
Hoogstraat,55,,,4285AG,Woudrichem,Woudrichem,Noord-Brabant,VBO,5.006594,51.817523
Hoogstraat,2,,,4285AH,Woudrichem,Woudrichem,Noord-Brabant,VBO,5.003962,51.817827
Hoogstraat,4,,,4285AH,Woudrichem,Woudrichem,Noord-Brabant,VBO,5.004036,51.817818
Hoogstraat,8,,,4285AH,Woudrichem,Woudrichem,Noord-Brabant,VBO,5.004137,51.817808
Hoogstraat,10,,,4285AH,Woudrichem,Woudrichem,Noord-Brabant,VBO,5.004229,51.817777
Hoogstraat,12,,,4285AH,Woudrichem,Woudrichem,Noord-Brabant,VBO,5.004235,51.817799
Hoogstraat,14,,,4285AH,Woudrichem,Woudrichem,Noord-Brabant,VBO,5.004319,51.817770
Hoogstraat,16,,,4285AH,Woudrichem,Woudrichem,Noord-Brabant,VBO,5.004324,51.817792
Hoogstraat,18,,,4285AH,Woudrichem,Woudrichem,Noord-Brabant,VBO,5.004437,51.817784
Hoogstraat,20,,,4285AH,Woudrichem,Woudrichem,Noord-Brabant,VBO,5.004547,51.817776
Hoogstraat,22,,,4285AH,Woudrichem,Woudrichem,Noord-Brabant,VBO,5.004645,51.817777
Hoogstraat,24,,,4285AH,Woudrichem,Woudrichem,Noord-Brabant,VBO,5.004729,51.817767
Hoogstraat,26,,,4285AH,Woudrichem,Woudrichem,Noord-Brabant,VBO,5.004812,51.817763
Hoogstraat,28,,,4285AH,Woudrichem,Woudrichem,Noord-Brabant,VBO,5.004902,51.817756
Hoogstraat,30,,,4285AH,Woudrichem,Woudrichem,Noord-Brabant,VBO,5.005015,51.817748
Hoogstraat,32,,,4285AH,Woudrichem,Woudrichem,Noord-Brabant,VBO,5.005084,51.817743
Hoogstraat,34,,,4285AH,Woudrichem,Woudrichem,Noord-Brabant,VBO,5.005155,51.817736
Hoogstraat,36,,,4285AH,Woudrichem,Woudrichem,Noord-Brabant,VBO,5.005247,51.817727
Hoogstraat,38,,,4285AJ,Woudrichem,Woudrichem,Noord-Brabant,VBO,5.005419,51.817724
Hoogstraat,40,,,4285AJ,Woudrichem,Woudrichem,Noord-Brabant,VBO,5.005517,51.817710
Hoogstraat,42,,,4285AJ,Woudrichem,Woudrichem,Noord-Brabant,VBO,5.005625,51.817695
Hoogstraat,46,,,4285AJ,Woudrichem,Woudrichem,Noord-Brabant,VBO,5.005882,51.817652
Hoogstraat,48,a,,4285AJ,Woudrichem,Woudrichem,Noord-Brabant,VBO,5.006023,51.817589
Hoogstraat,48,,,4285AJ,Woudrichem,Woudrichem,Noord-Brabant,VBO,5.006044,51.817608
Hoogstraat,50,a,,4285AJ,Woudrichem,Woudrichem,Noord-Brabant,VBO,5.006103,51.817555
Hoogstraat,50,,,4285AJ,Woudrichem,Woudrichem,Noord-Brabant,VBO,5.006124,51.817573
Hoogstraat,52,,,4285AJ,Woudrichem,Woudrichem,Noord-Brabant,VBO,5.006309,51.817467
Hoogstraat,54,,,4285AJ,Woudrichem,Woudrichem,Noord-Brabant,VBO,5.006376,51.817432
Hoogstraat,56,,,4285AJ,Woudrichem,Woudrichem,Noord-Brabant,VBO,5.006445,51.817396
Maaspunt,1,,,4285AK,Woudrichem,Woudrichem,Noord-Brabant,VBO,5.006685,51.817760
Hugo de Grootstraat,1,,,4285AL,Woudrichem,Woudrichem,Noord-Brabant,VBO,5.006137,51.817335
Hugo de Grootstraat,2,,,4285AL,Woudrichem,Woudrichem,Noord-Brabant,VBO,5.005987,51.817464
Hugo de Grootstraat,3,,,4285AL,Woudrichem,Woudrichem,Noord-Brabant,VBO,5.006050,51.817300
Hugo de Grootstraat,4,,,4285AL,Woudrichem,Woudrichem,Noord-Brabant,VBO,5.005926,51.817423
Hugo de Grootstraat,5,,,4285AL,Woudrichem,Woudrichem,Noord-Brabant,VBO,5.005987,51.817261
Hugo de Grootstraat,6,,,4285AL,Woudrichem,Woudrichem,Noord-Brabant,VBO,5.005880,51.817389
Hugo de Grootstraat,7,,,4285AL,Woudrichem,Woudrichem,Noord-Brabant,VBO,5.005912,51.817202
Hugo de Grootstraat,8,,,4285AL,Woudrichem,Woudrichem,Noord-Brabant,VBO,5.005827,51.817347
Hugo de Grootstraat,9,,,4285AL,Woudrichem,Woudrichem,Noord-Brabant,VBO,5.005847,51.817150
Hugo de Grootstraat,10,,,4285AL,Woudrichem,Woudrichem,Noord-Brabant,VBO,5.005773,51.817308
Hugo de Grootstraat,11,,,4285AL,Woudrichem,Woudrichem,Noord-Brabant,VBO,5.005679,51.817079
Hugo de Grootstraat,12,,,4285AL,Woudrichem,Woudrichem,Noord-Brabant,VBO,5.005717,51.817270
Hugo de Grootstraat,14,,,4285AL,Woudrichem,Woudrichem,Noord-Brabant,VBO,5.005667,51.817234
Hugo de Grootstraat,16,,,4285AL,Woudrichem,Woudrichem,Noord-Brabant,VBO,5.005616,51.817194
Vissersdijk,1,a,,4285AM,Woudrichem,Woudrichem,Noord-Brabant,VBO,5.003791,51.817408
Vissersdijk,1,b,,4285AM,Woudrichem,Woudrichem,Noord-Brabant,VBO,5.003882,51.817394
Vissersdijk,1,c,,4285AM,Woudrichem,Woudrichem,Noord-Brabant,VBO,5.003978,51.817380
Vissersdijk,1,d,,4285AM,Woudrichem,Woudrichem,Noord-Brabant,VBO,5.004081,51.817364
Vissersdijk,1,e,,4285AM,Woudrichem,Woudrichem,Noord-Brabant,VBO,5.004035,51.817550
Vissersdijk,1,f,,4285AM,Woudrichem,Woudrichem,Noord-Brabant,VBO,5.004138,51.817534
Vissersdijk,3,,,4285AM,Woudrichem,Woudrichem,Noord-Brabant,VBO,5.004210,51.817345
Vissersdijk,5,,,4285AM,Woudrichem,Woudrichem,Noord-Brabant,VBO,5.004316,51.817329
Vissersdijk,7,,,4285AM,Woudrichem,Woudrichem,Noord-Brabant,VBO,5.004452,51.817306
Vissersdijk,9,,,4285AM,Woudrichem,Woudrichem,Noord-Brabant,VBO,5.004537,51.817287
Vissersdijk,11,,,4285AM,Woudrichem,Woudrichem,Noord-Brabant,VBO,5.004619,51.817268
Vissersdijk,13,,,4285AM,Woudrichem,Woudrichem,Noord-Brabant,VBO,5.004761,51.817230
Vissersdijk,15,,,4285AM,Woudrichem,Woudrichem,Noord-Brabant,VBO,5.004985,51.817184
Vissersdijk,17,,,4285AM,Woudrichem,Woudrichem,Noord-Brabant,VBO,5.005145,51.817090
Vissersdijk,19,,,4285AM,Woudrichem,Woudrichem,Noord-Brabant,VBO,5.005224,51.817047
Vissersdijk,21,,,4285AM,Woudrichem,Woudrichem,Noord-Brabant,VBO,5.005279,51.817018
Vissersdijk,23,,,4285AM,Woudrichem,Woudrichem,Noord-Brabant,VBO,5.005330,51.816991
Vissersdijk,25,,,4285AM,Woudrichem,Woudrichem,Noord-Brabant,VBO,5.005423,51.816943
Vissersdijk,33,,,4285AM,Woudrichem,Woudrichem,Noord-Brabant,VBO,5.005515,51.816894
Vissersdijk,35,a,,4285AM,Woudrichem,Woudrichem,Noord-Brabant,VBO,5.005884,51.816889
Vissersdijk,35,b,,4285AM,Woudrichem,Woudrichem,Noord-Brabant,VBO,5.005840,51.816883
Vissersdijk,35,,,4285AM,Woudrichem,Woudrichem,Noord-Brabant,VBO,5.005674,51.816808
Vissersdijk,2,,,4285AN,Woudrichem,Woudrichem,Noord-Brabant,VBO,5.003720,51.817287
Vissersdijk,4,,,4285AN,Woudrichem,Woudrichem,Noord-Brabant,VBO,5.003911,51.817275
Vissersdijk,6,,,4285AN,Woudrichem,Woudrichem,Noord-Brabant,VBO,5.004009,51.817258
Vissersdijk,10,,,4285AN,Woudrichem,Woudrichem,Noord-Brabant,VBO,5.004254,51.817215
Vissersdijk,12,,,4285AN,Woudrichem,Woudrichem,Noord-Brabant,VBO,5.004392,51.817189
Vissersdijk,14,,,4285AN,Woudrichem,Woudrichem,Noord-Brabant,VBO,5.004573,51.817141
Vissersdijk,16,,,4285AN,Woudrichem,Woudrichem,Noord-Brabant,VBO,5.004662,51.817116
Vissersdijk,18,,,4285AN,Woudrichem,Woudrichem,Noord-Brabant,VBO,5.004723,51.817099
Vissersdijk,20,,,4285AN,Woudrichem,Woudrichem,Noord-Brabant,VBO,5.004796,51.817079
Vissersdijk,22,,,4285AN,Woudrichem,Woudrichem,Noord-Brabant,VBO,5.004942,51.817019
Vissersdijk,24,,,4285AN,Woudrichem,Woudrichem,Noord-Brabant,VBO,5.005036,51.816975
Vissersdijk,26,,,4285AN,Woudrichem,Woudrichem,Noord-Brabant,VBO,5.005097,51.816940
Vissersdijk,28,,,4285AN,Woudrichem,Woudrichem,Noord-Brabant,VBO,5.005178,51.816895
Vissersdijk,30,,,4285AN,Woudrichem,Woudrichem,Noord-Brabant,VBO,5.005275,51.816842
Vissersdijk,32,,,4285AN,Woudrichem,Woudrichem,Noord-Brabant,VBO,5.005359,51.816721
Vissersdijk,34,,,4285AN,Woudrichem,Woudrichem,Noord-Brabant,VBO,5.005522,51.816701
Vissersdijk,36,,,4285AN,Woudrichem,Woudrichem,Noord-Brabant,VBO,5.005574,51.816672
Spieringstraat,3,,,4285AP,Woudrichem,Woudrichem,Noord-Brabant,VBO,5.004311,51.816945
Spieringstraat,4,,,4285AP,Woudrichem,Woudrichem,Noord-Brabant,VBO,5.004301,51.817109
Spieringstraat,5,,,4285AP,Woudrichem,Woudrichem,Noord-Brabant,VBO,5.004273,51.816914
Spieringstraat,6,,,4285AP,Woudrichem,Woudrichem,Noord-Brabant,VBO,5.004259,51.817072
Spieringstraat,7,,,4285AP,Woudrichem,Woudrichem,Noord-Brabant,VBO,5.004234,51.816884
Spieringstraat,8,,,4285AP,Woudrichem,Woudrichem,Noord-Brabant,VBO,5.004217,51.817036
Spieringstraat,9,,,4285AP,Woudrichem,Woudrichem,Noord-Brabant,VBO,5.004196,51.816853
Spieringstraat,10,,,4285AP,Woudrichem,Woudrichem,Noord-Brabant,VBO,5.004170,51.816995
Landpoortstraat,1,a,,4285AR,Woudrichem,Woudrichem,Noord-Brabant,VBO,5.003576,51.816973
Landpoortstraat,1,b,,4285AR,Woudrichem,Woudrichem,Noord-Brabant,VBO,5.003721,51.816969
Landpoortstraat,1,,,4285AR,Woudrichem,Woudrichem,Noord-Brabant,VBO,5.003546,51.816907
Landpoortstraat,5,,,4285AR,Woudrichem,Woudrichem,Noord-Brabant,VBO,5.003707,51.816847
Landpoortstraat,7,,,4285AR,Woudrichem,Woudrichem,Noord-Brabant,VBO,5.003774,51.816819
Landpoortstraat,11,,,4285AR,Woudrichem,Woudrichem,Noord-Brabant,VBO,5.003886,51.816763
Landpoortstraat,13,,,4285AR,Woudrichem,Woudrichem,Noord-Brabant,VBO,5.003984,51.816713
Landpoortstraat,15,,,4285AR,Woudrichem,Woudrichem,Noord-Brabant,VBO,5.004053,51.816678
Landpoortstraat,17,,,4285AR,Woudrichem,Woudrichem,Noord-Brabant,VBO,5.004136,51.816636
Landpoortstraat,19,,,4285AR,Woudrichem,Woudrichem,Noord-Brabant,VBO,5.004205,51.816600
Landpoortstraat,21,,,4285AR,Woudrichem,Woudrichem,Noord-Brabant,VBO,5.004423,51.816648
Landpoortstraat,23,a,,4285AR,Woudrichem,Woudrichem,Noord-Brabant,VBO,5.004706,51.816670
Landpoortstraat,25,,,4285AR,Woudrichem,Woudrichem,Noord-Brabant,VBO,5.004512,51.816443
Landpoortstraat,27,,,4285AR,Woudrichem,Woudrichem,Noord-Brabant,VBO,5.004589,51.816399
Landpoortstraat,29,,,4285AR,Woudrichem,Woudrichem,Noord-Brabant,VBO,5.004635,51.816373
Landpoortstraat,31,,,4285AR,Woudrichem,Woudrichem,Noord-Brabant,VBO,5.004685,51.816346
Landpoortstraat,33,,,4285AR,Woudrichem,Woudrichem,Noord-Brabant,VBO,5.004820,51.816268
Landpoortstraat,35,,,4285AR,Woudrichem,Woudrichem,Noord-Brabant,VBO,5.004923,51.816202
Landpoortstraat,39,,,4285AR,Woudrichem,Woudrichem,Noord-Brabant,VBO,5.005005,51.816152
Landpoortstraat,6,,,4285AS,Woudrichem,Woudrichem,Noord-Brabant,VBO,5.004040,51.816493
Landpoortstraat,8,,,4285AS,Woudrichem,Woudrichem,Noord-Brabant,VBO,5.004128,51.816419
Landpoortstraat,10,,,4285AS,Woudrichem,Woudrichem,Noord-Brabant,VBO,5.004182,51.816389
Landpoortstraat,12,,,4285AS,Woudrichem,Woudrichem,Noord-Brabant,VBO,5.004231,51.816363
Landpoortstraat,14,a,,4285AS,Woudrichem,Woudrichem,Noord-Brabant,VBO,5.004240,51.816325
Landpoortstraat,14,b,,4285AS,Woudrichem,Woudrichem,Noord-Brabant,VBO,5.004255,51.816313
Landpoortstraat,14,c,,4285AS,Woudrichem,Woudrichem,Noord-Brabant,VBO,5.004275,51.816301
Landpoortstraat,14,d,,4285AS,Woudrichem,Woudrichem,Noord-Brabant,VBO,5.004340,51.816285
Landpoortstraat,14,e,,4285AS,Woudrichem,Woudrichem,Noord-Brabant,VBO,5.004350,51.816269
Landpoortstraat,18,,,4285AS,Woudrichem,Woudrichem,Noord-Brabant,VBO,5.004591,51.816160
Landpoortstraat,20,,,4285AS,Woudrichem,Woudrichem,Noord-Brabant,VBO,5.004746,51.816064
Bagijnestraat,1,,,4285AT,Woudrichem,Woudrichem,Noord-Brabant,VBO,5.003033,51.816688
Bagijnestraat,2,,,4285AT,Woudrichem,Woudrichem,Noord-Brabant,VBO,5.003049,51.816850
Bagijnestraat,3,,,4285AT,Woudrichem,Woudrichem,Noord-Brabant,VBO,5.002957,51.816703
Bagijnestraat,4,,,4285AT,Woudrichem,Woudrichem,Noord-Brabant,VBO,5.002906,51.816875
Bagijnestraat,5,,,4285AT,Woudrichem,Woudrichem,Noord-Brabant,VBO,5.002890,51.816717
Bagijnestraat,6,,,4285AT,Woudrichem,Woudrichem,Noord-Brabant,VBO,5.002819,51.816890
Bagijnestraat,8,a,,4285AT,Woudrichem,Woudrichem,Noord-Brabant,VBO,5.002634,51.816924
Bagijnestraat,8,,,4285AT,Woudrichem,Woudrichem,Noord-Brabant,VBO,5.002733,51.816906
Bagijnestraat,9,,,4285AT,Woudrichem,Woudrichem,Noord-Brabant,VBO,5.002732,51.816748
Bagijnestraat,10,a,,4285AT,Woudrichem,Woudrichem,Noord-Brabant,VBO,5.002406,51.816960
Bagijnestraat,10,,,4285AT,Woudrichem,Woudrichem,Noord-Brabant,VBO,5.002517,51.816942
Bagijnestraat,11,,,4285AT,Woudrichem,Woudrichem,Noord-Brabant,VBO,5.002661,51.816760
Bagijnestraat,12,,,4285AT,Woudrichem,Woudrichem,Noord-Brabant,VBO,5.002072,51.816998
Bagijnestraat,13,,,4285AT,Woudrichem,Woudrichem,Noord-Brabant,VBO,5.002578,51.816774
Bagijnestraat,14,,,4285AT,Woudrichem,Woudrichem,Noord-Brabant,VBO,5.001935,51.817027
Bagijnestraat,15,,,4285AT,Woudrichem,Woudrichem,Noord-Brabant,VBO,5.002468,51.816763
Bagijnestraat,16,,,4285AT,Woudrichem,Woudrichem,Noord-Brabant,VBO,5.001847,51.817043
Bagijnestraat,17,,,4285AT,Woudrichem,Woudrichem,Noord-Brabant,VBO,5.002382,51.816778
Bagijnestraat,18,,,4285AT,Woudrichem,Woudrichem,Noord-Brabant,VBO,5.001646,51.817118
Bagijnestraat,19,,,4285AT,Woudrichem,Woudrichem,Noord-Brabant,VBO,5.002297,51.816793
Bagijnestraat,21,,,4285AT,Woudrichem,Woudrichem,Noord-Brabant,VBO,5.002211,51.816808
Bagijnestraat,23,,,4285AT,Woudrichem,Woudrichem,Noord-Brabant,VBO,5.002130,51.816822
Bagijnestraat,25,,,4285AT,Woudrichem,Woudrichem,Noord-Brabant,VBO,5.002044,51.816836
Bagijnestraat,29,,,4285AT,Woudrichem,Woudrichem,Noord-Brabant,VBO,5.001489,51.816857
Daalderstraat,1,,,4285AV,Woudrichem,Woudrichem,Noord-Brabant,VBO,5.002857,51.817818
Daalderstraat,2,,,4285AV,Woudrichem,Woudrichem,Noord-Brabant,VBO,5.002698,51.817801
Daalderstraat,3,,,4285AV,Woudrichem,Woudrichem,Noord-Brabant,VBO,5.002889,51.817472
Daalderstraat,4,,,4285AV,Woudrichem,Woudrichem,Noord-Brabant,VBO,5.002661,51.817710
Daalderstraat,5,,,4285AV,Woudrichem,Woudrichem,Noord-Brabant,VBO,5.002740,51.817489
Daalderstraat,6,,,4285AV,Woudrichem,Woudrichem,Noord-Brabant,VBO,5.002598,51.817557
Daalderstraat,7,,,4285AV,Woudrichem,Woudrichem,Noord-Brabant,VBO,5.002699,51.817390
Daalderstraat,8,,,4285AV,Woudrichem,Woudrichem,Noord-Brabant,VBO,5.002572,51.817500
Daalderstraat,9,,,4285AV,Woudrichem,Woudrichem,Noord-Brabant,VBO,5.002653,51.817324
Daalderstraat,10,,,4285AV,Woudrichem,Woudrichem,Noord-Brabant,VBO,5.002541,51.817442
Daalderstraat,11,,,4285AV,Woudrichem,Woudrichem,Noord-Brabant,VBO,5.002605,51.817276
Daalderstraat,12,,,4285AV,Woudrichem,Woudrichem,Noord-Brabant,VBO,5.002511,51.817390
Daalderstraat,13,a,,4285AV,Woudrichem,Woudrichem,Noord-Brabant,VBO,5.002563,51.817219
Daalderstraat,13,,,4285AV,Woudrichem,Woudrichem,Noord-Brabant,VBO,5.002514,51.817149
Daalderstraat,14,,,4285AV,Woudrichem,Woudrichem,Noord-Brabant,VBO,5.002468,51.817321
Daalderstraat,15,,,4285AV,Woudrichem,Woudrichem,Noord-Brabant,VBO,5.002487,51.817067
Daalderstraat,16,,,4285AV,Woudrichem,Woudrichem,Noord-Brabant,VBO,5.002430,51.817260
Daalderstraat,18,,,4285AV,Woudrichem,Woudrichem,Noord-Brabant,VBO,5.002403,51.817216
Daalderstraat,20,,,4285AV,Woudrichem,Woudrichem,Noord-Brabant,VBO,5.002294,51.817255
Daalderstraat,22,,,4285AV,Woudrichem,Woudrichem,Noord-Brabant,VBO,5.002343,51.817129
Daalderstraat,24,,,4285AV,Woudrichem,Woudrichem,Noord-Brabant,VBO,5.002311,51.817075
Daalderstraat,26,,,4285AV,Woudrichem,Woudrichem,Noord-Brabant,VBO,5.002280,51.817020
Daalderstraat,28,,,4285AV,Woudrichem,Woudrichem,Noord-Brabant,VBO,5.002250,51.816964
Nieuwstad,1,,,4285AW,Woudrichem,Woudrichem,Noord-Brabant,VBO,5.001973,51.817174
Nieuwstad,3,,,4285AW,Woudrichem,Woudrichem,Noord-Brabant,VBO,5.001978,51.817236
Kloosterhof,1,,,4285AX,Woudrichem,Woudrichem,Noord-Brabant,VBO,5.001905,51.816531
Kloosterhof,2,,,4285AX,Woudrichem,Woudrichem,Noord-Brabant,VBO,5.001751,51.816639
Kloosterhof,3,,,4285AX,Woudrichem,Woudrichem,Noord-Brabant,VBO,5.001970,51.816520
Kloosterhof,4,,,4285AX,Woudrichem,Woudrichem,Noord-Brabant,VBO,5.001657,51.816600
Kloosterhof,5,,,4285AX,Woudrichem,Woudrichem,Noord-Brabant,VBO,5.002038,51.816508
Kloosterhof,6,,,4285AX,Woudrichem,Woudrichem,Noord-Brabant,VBO,5.001657,51.816556
Kloosterhof,7,,,4285AX,Woudrichem,Woudrichem,Noord-Brabant,VBO,5.002106,51.816496
Kloosterhof,8,,,4285AX,Woudrichem,Woudrichem,Noord-Brabant,VBO,5.001657,51.816511
Kloosterhof,9,,,4285AX,Woudrichem,Woudrichem,Noord-Brabant,VBO,5.002203,51.816484
Kloosterhof,10,,,4285AX,Woudrichem,Woudrichem,Noord-Brabant,VBO,5.001658,51.816419
Kloosterhof,11,,,4285AX,Woudrichem,Woudrichem,Noord-Brabant,VBO,5.002319,51.816463
Kloosterhof,12,,,4285AX,Woudrichem,Woudrichem,Noord-Brabant,VBO,5.001657,51.816402
Kloosterhof,13,,,4285AX,Woudrichem,Woudrichem,Noord-Brabant,VBO,5.002435,51.816443
Kloosterhof,14,,,4285AX,Woudrichem,Woudrichem,Noord-Brabant,VBO,5.001660,51.816381
Kloosterhof,16,,,4285AX,Woudrichem,Woudrichem,Noord-Brabant,VBO,5.001658,51.816366
Kloosterhof,18,,,4285AX,Woudrichem,Woudrichem,Noord-Brabant,VBO,5.001830,51.816282
Kloosterhof,20,,,4285AX,Woudrichem,Woudrichem,Noord-Brabant,VBO,5.001835,51.816293
Kloosterhof,22,,,4285AX,Woudrichem,Woudrichem,Noord-Brabant,VBO,5.001847,51.816316
Kloosterhof,24,,,4285AX,Woudrichem,Woudrichem,Noord-Brabant,VBO,5.001854,51.816333
Kloosterhof,26,,,4285AX,Woudrichem,Woudrichem,Noord-Brabant,VBO,5.002115,51.816186
Kloosterhof,28,,,4285AX,Woudrichem,Woudrichem,Noord-Brabant,VBO,5.002242,51.816177
Kloosterhof,30,,,4285AX,Woudrichem,Woudrichem,Noord-Brabant,VBO,5.002075,51.816292
Kloosterhof,32,,,4285AX,Woudrichem,Woudrichem,Noord-Brabant,VBO,5.002102,51.816334
Kloosterhof,34,,,4285AX,Woudrichem,Woudrichem,Noord-Brabant,VBO,5.002112,51.816349
Kloosterhof,36,,,4285AX,Woudrichem,Woudrichem,Noord-Brabant,VBO,5.002114,51.816369
Kloosterhof,38,,,4285AX,Woudrichem,Woudrichem,Noord-Brabant,VBO,5.002122,51.816387
Kloosterhof,40,,,4285AX,Woudrichem,Woudrichem,Noord-Brabant,VBO,5.002298,51.816306
Kloosterhof,42,,,4285AX,Woudrichem,Woudrichem,Noord-Brabant,VBO,5.002584,51.816313
Stadshaven,1,,,4285AZ,Woudrichem,Woudrichem,Noord-Brabant,VBO,4.998534,51.817625
Stadshaven,2,,,4285AZ,Woudrichem,Woudrichem,Noord-Brabant,LIG,4.999520,51.817912
Stadshaven,4,,,4285AZ,Woudrichem,Woudrichem,Noord-Brabant,LIG,4.999216,51.818181
Stadshaven,6,,,4285AZ,Woudrichem,Woudrichem,Noord-Brabant,LIG,4.999789,51.818499
Stadshaven,8,,,4285AZ,Woudrichem,Woudrichem,Noord-Brabant,LIG,5.001152,51.818627
Stadshaven,10,,,4285AZ,Woudrichem,Woudrichem,Noord-Brabant,LIG,5.001503,51.818836
Stadshaven,12,,,4285AZ,Woudrichem,Woudrichem,Noord-Brabant,LIG,5.001862,51.818993
Stadshaven,14,,,4285AZ,Woudrichem,Woudrichem,Noord-Brabant,LIG,5.001989,51.818977
Stadshaven,16,,,4285AZ,Woudrichem,Woudrichem,Noord-Brabant,LIG,5.002126,51.818966
Stadshaven,18,,,4285AZ,Woudrichem,Woudrichem,Noord-Brabant,LIG,5.002243,51.818935
Stadshaven,20,,,4285AZ,Woudrichem,Woudrichem,Noord-Brabant,LIG,5.002345,51.818907
Stadshaven,22,,,4285AZ,Woudrichem,Woudrichem,Noord-Brabant,LIG,5.002474,51.818892
Stadshaven,24,,,4285AZ,Woudrichem,Woudrichem,Noord-Brabant,LIG,5.002647,51.818890
Stadshaven,26,,,4285AZ,Woudrichem,Woudrichem,Noord-Brabant,LIG,5.002762,51.818868
Stadshaven,28,,,4285AZ,Woudrichem,Woudrichem,Noord-Brabant,LIG,5.003013,51.818872
Kerkstraat,1,,,4285BA,Woudrichem,Woudrichem,Noord-Brabant,VBO,5.004106,51.818379
Kerkstraat,3,,,4285BA,Woudrichem,Woudrichem,Noord-Brabant,VBO,5.003890,51.818251
Kerkstraat,5,,,4285BA,Woudrichem,Woudrichem,Noord-Brabant,VBO,5.004038,51.818208
Kerkstraat,7,,,4285BA,Woudrichem,Woudrichem,Noord-Brabant,VBO,5.003884,51.817805
Kerkstraat,9,,,4285BA,Woudrichem,Woudrichem,Noord-Brabant,VBO,5.003856,51.817740
Kerkstraat,11,,,4285BA,Woudrichem,Woudrichem,Noord-Brabant,VBO,5.003835,51.817696
Kerkstraat,13,,,4285BA,Woudrichem,Woudrichem,Noord-Brabant,VBO,5.003864,51.817635
Kerkstraat,15,,,4285BA,Woudrichem,Woudrichem,Noord-Brabant,VBO,5.003817,51.817655
Kerkstraat,17,,,4285BA,Woudrichem,Woudrichem,Noord-Brabant,VBO,5.003787,51.817593
Kerkstraat,19,,,4285BA,Woudrichem,Woudrichem,Noord-Brabant,VBO,5.003743,51.817503
Kerkstraat,23,,,4285BA,Woudrichem,Woudrichem,Noord-Brabant,VBO,5.003639,51.817306
Kerkstraat,25,,,4285BA,Woudrichem,Woudrichem,Noord-Brabant,VBO,5.003598,51.817231
Kerkstraat,27,,,4285BA,Woudrichem,Woudrichem,Noord-Brabant,VBO,5.003565,51.817174
Kerkstraat,29,,,4285BA,Woudrichem,Woudrichem,Noord-Brabant,VBO,5.003522,51.817111
Kerkstraat,31,,,4285BA,Woudrichem,Woudrichem,Noord-Brabant,VBO,5.003482,51.817043
Kerkstraat,33,,,4285BA,Woudrichem,Woudrichem,Noord-Brabant,VBO,5.003445,51.816980
Kerkstraat,35,,,4285BA,Woudrichem,Woudrichem,Noord-Brabant,VBO,5.003060,51.816394
Kerkstraat,37,,,4285BA,Woudrichem,Woudrichem,Noord-Brabant,VBO,5.003376,51.816601
Kerkstraat,41,,,4285BA,Woudrichem,Woudrichem,Noord-Brabant,VBO,5.003161,51.816091
Kerkstraat,43,,,4285BA,Woudrichem,Woudrichem,Noord-Brabant,VBO,5.002894,51.816058
Kerkstraat,2,a,,4285BB,Woudrichem,Woudrichem,Noord-Brabant,LIG,5.003472,51.818644
Kerkstraat,2,,,4285BB,Woudrichem,Woudrichem,Noord-Brabant,VBO,5.004036,51.818471
Kerkstraat,4,,,4285BB,Woudrichem,Woudrichem,Noord-Brabant,VBO,5.003928,51.818441
Kerkstraat,8,,,4285BB,Woudrichem,Woudrichem,Noord-Brabant,VBO,5.003749,51.818342
Kerkstraat,12,,,4285BB,Woudrichem,Woudrichem,Noord-Brabant,VBO,5.003801,51.818155
Kerkstraat,14,,,4285BB,Woudrichem,Woudrichem,Noord-Brabant,VBO,5.003787,51.818105
Kerkstraat,16,,,4285BB,Woudrichem,Woudrichem,Noord-Brabant,VBO,5.003752,51.817985
Kerkstraat,18,,,4285BB,Woudrichem,Woudrichem,Noord-Brabant,VBO,5.003609,51.817766
Kerkstraat,22,a,,4285BB,Woudrichem,Woudrichem,Noord-Brabant,VBO,5.003520,51.817664
Kerkstraat,22,,,4285BB,Woudrichem,Woudrichem,Noord-Brabant,VBO,5.003555,51.817658
Kerkstraat,24,,,4285BB,Woudrichem,Woudrichem,Noord-Brabant,VBO,5.003534,51.817617
Kerkstraat,26,,,4285BB,Woudrichem,Woudrichem,Noord-Brabant,VBO,5.003470,51.817587
Kerkstraat,28,,,4285BB,Woudrichem,Woudrichem,Noord-Brabant,VBO,5.003477,51.817505
Kerkstraat,30,,,4285BB,Woudrichem,Woudrichem,Noord-Brabant,VBO,5.003437,51.817420
Kerkstraat,34,,,4285BB,Woudrichem,Woudrichem,Noord-Brabant,VBO,5.003362,51.817283
Kerkstraat,36,,,4285BB,Woudrichem,Woudrichem,Noord-Brabant,VBO,5.003351,51.817241
Kerkstraat,38,,,4285BB,Woudrichem,Woudrichem,Noord-Brabant,VBO,5.003349,51.817204
Kerkstraat,40,,,4285BC,Woudrichem,Woudrichem,Noord-Brabant,VBO,5.003314,51.817184
Kerkstraat,42,,,4285BC,Woudrichem,Woudrichem,Noord-Brabant,VBO,5.003282,51.817127
Kerkstraat,46,,,4285BC,Woudrichem,Woudrichem,Noord-Brabant,VBO,5.003248,51.817064
Kerkstraat,48,,,4285BC,Woudrichem,Woudrichem,Noord-Brabant,VBO,5.003220,51.817015
Kerkstraat,50,,,4285BC,Woudrichem,Woudrichem,Noord-Brabant,VBO,5.003196,51.816972
Kerkstraat,52,,,4285BC,Woudrichem,Woudrichem,Noord-Brabant,VBO,5.003173,51.816927
Kerkstraat,54,,,4285BC,Woudrichem,Woudrichem,Noord-Brabant,VBO,5.003155,51.816890
Kerkstraat,56,,,4285BC,Woudrichem,Woudrichem,Noord-Brabant,VBO,5.003062,51.816869
Kerkstraat,60,,,4285BC,Woudrichem,Woudrichem,Noord-Brabant,VBO,5.003002,51.816626
Kerkstraat,62,,,4285BC,Woudrichem,Woudrichem,Noord-Brabant,VBO,5.002967,51.816575
Kerkstraat,64,,,4285BC,Woudrichem,Woudrichem,Noord-Brabant,VBO,5.002914,51.816522
Kerkstraat,66,,,4285BC,Woudrichem,Woudrichem,Noord-Brabant,VBO,5.002862,51.816456
Kerkstraat,68,,,4285BC,Woudrichem,Woudrichem,Noord-Brabant,VBO,5.002819,51.816380
Kerkstraat,72,,,4285BC,Woudrichem,Woudrichem,Noord-Brabant,VBO,5.002723,51.816291
Kerkstraat,74,,,4285BC,Woudrichem,Woudrichem,Noord-Brabant,VBO,5.002743,51.816193
Kerkstraat,76,,,4285BC,Woudrichem,Woudrichem,Noord-Brabant,VBO,5.002686,51.816068
Kerkstraat,78,,,4285BC,Woudrichem,Woudrichem,Noord-Brabant,VBO,5.002667,51.816021
Arsenaal,1,,,4285BD,Woudrichem,Woudrichem,Noord-Brabant,VBO,5.003589,51.816165
Arsenaal,2,,,4285BD,Woudrichem,Woudrichem,Noord-Brabant,VBO,5.003868,51.815745
Arsenaal,3,,,4285BD,Woudrichem,Woudrichem,Noord-Brabant,VBO,5.003629,51.816123
Arsenaal,4,,,4285BD,Woudrichem,Woudrichem,Noord-Brabant,VBO,5.004527,51.815718
Arsenaal,5,,,4285BD,Woudrichem,Woudrichem,Noord-Brabant,VBO,5.003719,51.816084
Arsenaal,7,,,4285BD,Woudrichem,Woudrichem,Noord-Brabant,VBO,5.003893,51.816128
Arsenaal,9,,,4285BD,Woudrichem,Woudrichem,Noord-Brabant,VBO,5.004007,51.816089
Arsenaal,11,,,4285BD,Woudrichem,Woudrichem,Noord-Brabant,VBO,5.004055,51.815988
Arsenaal,13,,,4285BD,Woudrichem,Woudrichem,Noord-Brabant,VBO,5.004133,51.815965
Arsenaal,15,a,,4285BD,Woudrichem,Woudrichem,Noord-Brabant,VBO,5.004450,51.815997
Arsenaal,15,,,4285BD,Woudrichem,Woudrichem,Noord-Brabant,VBO,5.004371,51.815956
Arsenaal,17,,,4285BD,Woudrichem,Woudrichem,Noord-Brabant,VBO,5.004532,51.815863
Koepoortstraat,3,,,4285BE,Woudrichem,Woudrichem,Noord-Brabant,VBO,5.002786,51.814252
Koepoortstraat,5,,,4285BE,Woudrichem,Woudrichem,Noord-Brabant,VBO,5.002708,51.814186
Koepoortstraat,7,,,4285BE,Woudrichem,Woudrichem,Noord-Brabant,VBO,5.002623,51.814113
Koepoortstraat,9,,,4285BE,Woudrichem,Woudrichem,Noord-Brabant,VBO,5.002538,51.814042
Koepoortstraat,17,a,,4285BE,Woudrichem,Woudrichem,Noord-Brabant,VBO,5.002331,51.814042
Koepoortstraat,17,b,,4285BE,Woudrichem,Woudrichem,Noord-Brabant,VBO,5.002253,51.814068
Koepoortstraat,19,,,4285BE,Woudrichem,Woudrichem,Noord-Brabant,VBO,5.002164,51.814097
Koepoortstraat,21,,,4285BE,Woudrichem,Woudrichem,Noord-Brabant,VBO,5.002086,51.814123
Koepoortstraat,23,,,4285BE,Woudrichem,Woudrichem,Noord-Brabant,VBO,5.001928,51.814175
Koepoortstraat,25,,,4285BE,Woudrichem,Woudrichem,Noord-Brabant,VBO,5.001841,51.814203
Koepoortstraat,27,,,4285BE,Woudrichem,Woudrichem,Noord-Brabant,VBO,5.001515,51.814291
Koepoortstraat,29,,,4285BE,Woudrichem,Woudrichem,Noord-Brabant,VBO,5.001470,51.814237
Koepoortstraat,31,,,4285BE,Woudrichem,Woudrichem,Noord-Brabant,VBO,5.001419,51.814097
Koepoortstraat,33,,,4285BE,Woudrichem,Woudrichem,Noord-Brabant,VBO,5.001376,51.814045
Koepoortstraat,35,,,4285BE,Woudrichem,Woudrichem,Noord-Brabant,VBO,5.001304,51.813959
Koepoortstraat,37,,,4285BE,Woudrichem,Woudrichem,Noord-Brabant,VBO,5.001258,51.813905
Koepoortstraat,39,,,4285BE,Woudrichem,Woudrichem,Noord-Brabant,VBO,5.001104,51.813800
Koepoortstraat,41,,,4285BE,Woudrichem,Woudrichem,Noord-Brabant,VBO,5.001057,51.813743
Koepoortstraat,2,,,4285BG,Woudrichem,Woudrichem,Noord-Brabant,VBO,5.001501,51.814773
Koepoortstraat,4,,,4285BG,Woudrichem,Woudrichem,Noord-Brabant,VBO,5.001444,51.814708
Koepoortstraat,6,,,4285BG,Woudrichem,Woudrichem,Noord-Brabant,VBO,5.001400,51.814658
Koepoortstraat,8,,,4285BG,Woudrichem,Woudrichem,Noord-Brabant,VBO,5.001341,51.814591
Koepoortstraat,10,,,4285BG,Woudrichem,Woudrichem,Noord-Brabant,VBO,5.001292,51.814535
Koepoortstraat,12,,,4285BG,Woudrichem,Woudrichem,Noord-Brabant,VBO,5.001175,51.814436
Koepoortstraat,14,,,4285BG,Woudrichem,Woudrichem,Noord-Brabant,VBO,5.001053,51.814315
Koepoortstraat,20,,,4285BG,Woudrichem,Woudrichem,Noord-Brabant,VBO,5.001007,51.814201
Koepoortstraat,22,,,4285BG,Woudrichem,Woudrichem,Noord-Brabant,VBO,5.000965,51.814151
Koepoortstraat,24,,,4285BG,Woudrichem,Woudrichem,Noord-Brabant,VBO,5.000885,51.814057
Koepoortstraat,26,,,4285BG,Woudrichem,Woudrichem,Noord-Brabant,VBO,5.000842,51.814006
Koepoortstraat,28,,,4285BG,Woudrichem,Woudrichem,Noord-Brabant,VBO,5.000764,51.813915
Koepoortstraat,30,,,4285BG,Woudrichem,Woudrichem,Noord-Brabant,VBO,5.000721,51.813864
Burgemeester van der Lelystraat,1,,,4285BH,Woudrichem,Woudrichem,Noord-Brabant,VBO,5.002460,51.812726
Burgemeester van der Lelystraat,3,,,4285BH,Woudrichem,Woudrichem,Noord-Brabant,VBO,5.002066,51.812913
Burgemeester van der Lelystraat,5,a,,4285BH,Woudrichem,Woudrichem,Noord-Brabant,VBO,5.001806,51.813077
Burgemeester van der Lelystraat,5,,,4285BH,Woudrichem,Woudrichem,Noord-Brabant,VBO,5.001930,51.813022
Burgemeester van der Lelystraat,7,a,,4285BH,Woudrichem,Woudrichem,Noord-Brabant,VBO,5.001467,51.813213
Burgemeester van der Lelystraat,7,,,4285BH,Woudrichem,Woudrichem,Noord-Brabant,VBO,5.001613,51.813157
Burgemeester van der Lelystraat,9,a,,4285BH,Woudrichem,Woudrichem,Noord-Brabant,VBO,5.000959,51.812934
Burgemeester van der Lelystraat,9,b,,4285BH,Woudrichem,Woudrichem,Noord-Brabant,VBO,5.000814,51.812786
Burgemeester van der Lelystraat,9,,,4285BH,Woudrichem,Woudrichem,Noord-Brabant,VBO,5.001193,51.813286
Burgemeester van der Lelystraat,11,,,4285BH,Woudrichem,Woudrichem,Noord-Brabant,VBO,5.000646,51.813386
Burgemeester van der Lelystraat,13,,,4285BH,Woudrichem,Woudrichem,Noord-Brabant,VBO,5.000505,51.813394
Burgemeester van der Lelystraat,15,a,,4285BH,Woudrichem,Woudrichem,Noord-Brabant,VBO,5.000013,51.813060
Burgemeester van der Lelystraat,15,,,4285BH,Woudrichem,Woudrichem,Noord-Brabant,VBO,5.000399,51.813407
Burgemeester van der Lelystraat,17,,,4285BH,Woudrichem,Woudrichem,Noord-Brabant,VBO,5.000284,51.813424
Burgemeester van der Lelystraat,19,,,4285BH,Woudrichem,Woudrichem,Noord-Brabant,VBO,5.000156,51.813439
Burgemeester van der Lelystraat,21,,,4285BH,Woudrichem,Woudrichem,Noord-Brabant,VBO,4.999891,51.813366
Burgemeester van der Lelystraat,23,a,,4285BH,Woudrichem,Woudrichem,Noord-Brabant,VBO,4.999819,51.812992
Burgemeester van der Lelystraat,23,,,4285BH,Woudrichem,Woudrichem,Noord-Brabant,VBO,4.999866,51.813507
Burgemeester van der Lelystraat,25,,,4285BH,Woudrichem,Woudrichem,Noord-Brabant,VBO,4.999591,51.813578
Burgemeester van der Lelystraat,27,,,4285BH,Woudrichem,Woudrichem,Noord-Brabant,VBO,4.999493,51.813594
Burgemeester van der Lelystraat,29,,,4285BH,Woudrichem,Woudrichem,Noord-Brabant,VBO,4.999250,51.813636
Burgemeester van der Lelystraat,31,,,4285BH,Woudrichem,Woudrichem,Noord-Brabant,VBO,4.999148,51.813653
Burgemeester van der Lelystraat,33,,,4285BH,Woudrichem,Woudrichem,Noord-Brabant,VBO,4.998979,51.813682
Burgemeester van der Lelystraat,35,,,4285BH,Woudrichem,Woudrichem,Noord-Brabant,VBO,4.998888,51.813698
Burgemeester van der Lelystraat,37,,,4285BH,Woudrichem,Woudrichem,Noord-Brabant,VBO,4.998714,51.813718
Burgemeester van der Lelystraat,39,,,4285BH,Woudrichem,Woudrichem,Noord-Brabant,VBO,4.998623,51.813733
Burgemeester van der Lelystraat,41,,,4285BJ,Woudrichem,Woudrichem,Noord-Brabant,VBO,4.998449,51.813763
Burgemeester van der Lelystraat,43,,,4285BJ,Woudrichem,Woudrichem,Noord-Brabant,VBO,4.998362,51.813778
Burgemeester van der Lelystraat,45,,,4285BJ,Woudrichem,Woudrichem,Noord-Brabant,VBO,4.998193,51.813807
Burgemeester van der Lelystraat,47,,,4285BJ,Woudrichem,Woudrichem,Noord-Brabant,VBO,4.998102,51.813822
Burgemeester van der Lelystraat,49,,,4285BJ,Woudrichem,Woudrichem,Noord-Brabant,VBO,4.997935,51.813859
Burgemeester van der Lelystraat,51,a,,4285BJ,Woudrichem,Woudrichem,Noord-Brabant,VBO,4.997651,51.813908
Burgemeester van der Lelystraat,51,,,4285BJ,Woudrichem,Woudrichem,Noord-Brabant,VBO,4.997840,51.813875
Burgemeester van der Lelystraat,53,,,4285BJ,Woudrichem,Woudrichem,Noord-Brabant,VBO,4.997015,51.814000
Burgemeester van der Lelystraat,55,,,4285BJ,Woudrichem,Woudrichem,Noord-Brabant,VBO,4.996596,51.814084
Burgemeester van der Lelystraat,57,,,4285BJ,Woudrichem,Woudrichem,Noord-Brabant,VBO,4.996506,51.814100
Burgemeester van der Lelystraat,59,,,4285BJ,Woudrichem,Woudrichem,Noord-Brabant,VBO,4.996341,51.814121
Burgemeester van der Lelystraat,61,,,4285BJ,Woudrichem,Woudrichem,Noord-Brabant,VBO,4.996247,51.814138
Burgemeester van der Lelystraat,63,,,4285BJ,Woudrichem,Woudrichem,Noord-Brabant,VBO,4.996090,51.814165
Burgemeester van der Lelystraat,65,,,4285BJ,Woudrichem,Woudrichem,Noord-Brabant,VBO,4.995999,51.814182
Burgemeester van der Lelystraat,67,,,4285BJ,Woudrichem,Woudrichem,Noord-Brabant,VBO,4.995839,51.814210
Burgemeester van der Lelystraat,69,,,4285BJ,Woudrichem,Woudrichem,Noord-Brabant,VBO,4.995749,51.814226
Burgemeester van der Lelystraat,71,,,4285BJ,Woudrichem,Woudrichem,Noord-Brabant,VBO,4.995589,51.814264
Burgemeester van der Lelystraat,73,,,4285BJ,Woudrichem,Woudrichem,Noord-Brabant,VBO,4.995502,51.814280
Burgemeester van der Lelystraat,75,,,4285BJ,Woudrichem,Woudrichem,Noord-Brabant,VBO,4.995342,51.814308
Burgemeester van der Lelystraat,77,a,,4285BJ,Woudrichem,Woudrichem,Noord-Brabant,VBO,4.994296,51.814229
Burgemeester van der Lelystraat,77,b,,4285BJ,Woudrichem,Woudrichem,Noord-Brabant,VBO,4.994257,51.814179
Burgemeester van der Lelystraat,77,c,,4285BJ,Woudrichem,Woudrichem,Noord-Brabant,VBO,4.994365,51.814135
Burgemeester van der Lelystraat,77,d,,4285BJ,Woudrichem,Woudrichem,Noord-Brabant,VBO,4.994400,51.814119
Burgemeester van der Lelystraat,77,e,,4285BJ,Woudrichem,Woudrichem,Noord-Brabant,VBO,4.994436,51.814109
Burgemeester van der Lelystraat,77,f,,4285BJ,Woudrichem,Woudrichem,Noord-Brabant,VBO,4.994477,51.814098
Burgemeester van der Lelystraat,77,g,,4285BJ,Woudrichem,Woudrichem,Noord-Brabant,VBO,4.994579,51.814120
Burgemeester van der Lelystraat,77,h,,4285BJ,Woudrichem,Woudrichem,Noord-Brabant,VBO,4.994526,51.814087
Burgemeester van der Lelystraat,77,i,,4285BJ,Woudrichem,Woudrichem,Noord-Brabant,VBO,4.994614,51.814110
Burgemeester van der Lelystraat,77,j,,4285BJ,Woudrichem,Woudrichem,Noord-Brabant,VBO,4.994663,51.814102
Burgemeester van der Lelystraat,77,k,,4285BJ,Woudrichem,Woudrichem,Noord-Brabant,VBO,4.994700,51.814092
Burgemeester van der Lelystraat,77,l,,4285BJ,Woudrichem,Woudrichem,Noord-Brabant,VBO,4.994750,51.814082
Burgemeester van der Lelystraat,77,m,,4285BJ,Woudrichem,Woudrichem,Noord-Brabant,VBO,4.994780,51.814072
Burgemeester van der Lelystraat,77,n,,4285BJ,Woudrichem,Woudrichem,Noord-Brabant,VBO,4.994818,51.814066
Burgemeester van der Lelystraat,77,o,,4285BJ,Woudrichem,Woudrichem,Noord-Brabant,VBO,4.994863,51.814057
Burgemeester van der Lelystraat,77,p,,4285BJ,Woudrichem,Woudrichem,Noord-Brabant,VBO,4.994898,51.814046
Burgemeester van der Lelystraat,77,q,,4285BJ,Woudrichem,Woudrichem,Noord-Brabant,VBO,4.994944,51.814037
Burgemeester van der Lelystraat,77,,,4285BJ,Woudrichem,Woudrichem,Noord-Brabant,VBO,4.995251,51.814324
Burgemeester van der Lelystraat,79,,,4285BJ,Woudrichem,Woudrichem,Noord-Brabant,VBO,4.994955,51.814366
Burgemeester van der Lelystraat,81,,,4285BK,Woudrichem,Woudrichem,Noord-Brabant,VBO,4.994865,51.814381
Burgemeester van der Lelystraat,83,,,4285BK,Woudrichem,Woudrichem,Noord-Brabant,VBO,4.994712,51.814407
Burgemeester van der Lelystraat,85,,,4285BK,Woudrichem,Woudrichem,Noord-Brabant,VBO,4.994626,51.814422
Burgemeester van der Lelystraat,87,,,4285BK,Woudrichem,Woudrichem,Noord-Brabant,VBO,4.994436,51.814454
Burgemeester van der Lelystraat,89,,,4285BK,Woudrichem,Woudrichem,Noord-Brabant,VBO,4.994342,51.814470
Burgemeester van der Lelystraat,91,,,4285BK,Woudrichem,Woudrichem,Noord-Brabant,VBO,4.994138,51.814504
Burgemeester van der Lelystraat,93,a,,4285BK,Woudrichem,Woudrichem,Noord-Brabant,VBO,4.992600,51.814673
Burgemeester van der Lelystraat,93,,,4285BK,Woudrichem,Woudrichem,Noord-Brabant,VBO,4.993115,51.814667
Burgemeester van der Lelystraat,95,,,4285BK,Woudrichem,Woudrichem,Noord-Brabant,VBO,4.991935,51.814807
Burgemeester van der Lelystraat,97,,,4285BK,Woudrichem,Woudrichem,Noord-Brabant,VBO,4.991512,51.814883
Burgemeester van der Lelystraat,99,a,,4285BK,Woudrichem,Woudrichem,Noord-Brabant,VBO,4.990958,51.814969
Burgemeester van der Lelystraat,99,,,4285BK,Woudrichem,Woudrichem,Noord-Brabant,VBO,4.991226,51.814937
Burgemeester van der Lelystraat,101,a,,4285BK,Woudrichem,Woudrichem,Noord-Brabant,VBO,4.989940,51.815037
Burgemeester van der Lelystraat,101,,,4285BK,Woudrichem,Woudrichem,Noord-Brabant,VBO,4.990442,51.815011
Burgemeester van der Lelystraat,103,a,,4285BK,Woudrichem,Woudrichem,Noord-Brabant,VBO,4.987392,51.815583
Burgemeester van der Lelystraat,103,,,4285BK,Woudrichem,Woudrichem,Noord-Brabant,VBO,4.987813,51.815560
Burgemeester van der Lelystraat,105,,,4285BK,Woudrichem,Woudrichem,Noord-Brabant,VBO,4.986037,51.815813
Burgemeester van der Lelystraat,2,,,4285BL,Woudrichem,Woudrichem,Noord-Brabant,VBO,5.002890,51.813239
Burgemeester van der Lelystraat,4,,,4285BL,Woudrichem,Woudrichem,Noord-Brabant,VBO,5.002397,51.813381
Burgemeester van der Lelystraat,6,,,4285BL,Woudrichem,Woudrichem,Noord-Brabant,VBO,5.001945,51.813502
Burgemeester van der Lelystraat,8,,,4285BL,Woudrichem,Woudrichem,Noord-Brabant,VBO,5.001749,51.813544
Burgemeester van der Lelystraat,10,,,4285BL,Woudrichem,Woudrichem,Noord-Brabant,VBO,5.001556,51.813586
Burgemeester van der Lelystraat,12,,,4285BL,Woudrichem,Woudrichem,Noord-Brabant,VBO,5.001389,51.813622
Burgemeester van der Lelystraat,14,,,4285BL,Woudrichem,Woudrichem,Noord-Brabant,VBO,5.001295,51.813642
Burgemeester van der Lelystraat,16,,,4285BL,Woudrichem,Woudrichem,Noord-Brabant,VBO,5.000471,51.813761
Burgemeester van der Lelystraat,18,,,4285BL,Woudrichem,Woudrichem,Noord-Brabant,VBO,5.000353,51.813792
Burgemeester van der Lelystraat,20,a,,4285BL,Woudrichem,Woudrichem,Noord-Brabant,VBO,5.000288,51.814144
Burgemeester van der Lelystraat,20,,,4285BL,Woudrichem,Woudrichem,Noord-Brabant,VBO,5.000279,51.813817
Burgemeester van der Lelystraat,22,,,4285BL,Woudrichem,Woudrichem,Noord-Brabant,VBO,5.000034,51.813838
Burgemeester van der Lelystraat,24,,,4285BL,Woudrichem,Woudrichem,Noord-Brabant,VBO,4.999945,51.813855
Burgemeester van der Lelystraat,26,,,4285BL,Woudrichem,Woudrichem,Noord-Brabant,VBO,4.999786,51.813885
Burgemeester van der Lelystraat,28,,,4285BL,Woudrichem,Woudrichem,Noord-Brabant,VBO,4.999697,51.813901
Burgemeester van der Lelystraat,32,,,4285BL,Woudrichem,Woudrichem,Noord-Brabant,VBO,4.999382,51.813961
Burgemeester van der Lelystraat,38,,,4285BL,Woudrichem,Woudrichem,Noord-Brabant,VBO,4.998041,51.814163
Burgemeester van der Lelystraat,40,,,4285BL,Woudrichem,Woudrichem,Noord-Brabant,VBO,4.997942,51.814178
Burgemeester van der Lelystraat,42,,,4285BL,Woudrichem,Woudrichem,Noord-Brabant,VBO,4.997772,51.814203
Burgemeester van der Lelystraat,44,,,4285BL,Woudrichem,Woudrichem,Noord-Brabant,VBO,4.997674,51.814218
Burgemeester van der Lelystraat,46,,,4285BL,Woudrichem,Woudrichem,Noord-Brabant,VBO,4.997499,51.814245
Burgemeester van der Lelystraat,48,,,4285BL,Woudrichem,Woudrichem,Noord-Brabant,VBO,4.997415,51.814258
Burgemeester van der Lelystraat,50,,,4285BM,Woudrichem,Woudrichem,Noord-Brabant,VBO,4.997331,51.814270
Burgemeester van der Lelystraat,52,,,4285BM,Woudrichem,Woudrichem,Noord-Brabant,VBO,4.997246,51.814283
Burgemeester van der Lelystraat,54,,,4285BM,Woudrichem,Woudrichem,Noord-Brabant,VBO,4.997162,51.814296
Burgemeester van der Lelystraat,56,,,4285BM,Woudrichem,Woudrichem,Noord-Brabant,VBO,4.997078,51.814309
Burgemeester van der Lelystraat,58,,,4285BM,Woudrichem,Woudrichem,Noord-Brabant,VBO,4.996908,51.814336
Burgemeester van der Lelystraat,60,,,4285BM,Woudrichem,Woudrichem,Noord-Brabant,VBO,4.996818,51.814352
Burgemeester van der Lelystraat,62,,,4285BM,Woudrichem,Woudrichem,Noord-Brabant,VBO,4.996658,51.814381
Burgemeester van der Lelystraat,64,,,4285BM,Woudrichem,Woudrichem,Noord-Brabant,VBO,4.996568,51.814398
Burgemeester van der Lelystraat,66,,,4285BM,Woudrichem,Woudrichem,Noord-Brabant,VBO,4.996407,51.814426
Burgemeester van der Lelystraat,68,,,4285BM,Woudrichem,Woudrichem,Noord-Brabant,VBO,4.996317,51.814443
Burgemeester van der Lelystraat,70,,,4285BM,Woudrichem,Woudrichem,Noord-Brabant,VBO,4.996160,51.814470
Burgemeester van der Lelystraat,72,,,4285BM,Woudrichem,Woudrichem,Noord-Brabant,VBO,4.996076,51.814485
Burgemeester van der Lelystraat,74,,,4285BM,Woudrichem,Woudrichem,Noord-Brabant,VBO,4.995992,51.814499
Burgemeester van der Lelystraat,76,,,4285BM,Woudrichem,Woudrichem,Noord-Brabant,VBO,4.995610,51.814565
Burgemeester van der Lelystraat,78,,,4285BM,Woudrichem,Woudrichem,Noord-Brabant,VBO,4.995527,51.814579
Burgemeester van der Lelystraat,80,,,4285BM,Woudrichem,Woudrichem,Noord-Brabant,VBO,4.995445,51.814594
Burgemeester van der Lelystraat,82,,,4285BM,Woudrichem,Woudrichem,Noord-Brabant,VBO,4.995362,51.814608
Burgemeester van der Lelystraat,84,,,4285BM,Woudrichem,Woudrichem,Noord-Brabant,VBO,4.995279,51.814623
Burgemeester van der Lelystraat,86,,,4285BM,Woudrichem,Woudrichem,Noord-Brabant,VBO,4.995197,51.814637
Burgemeester van der Lelystraat,88,,,4285BM,Woudrichem,Woudrichem,Noord-Brabant,VBO,4.995114,51.814651
Burgemeester van der Lelystraat,90,,,4285BN,Woudrichem,Woudrichem,Noord-Brabant,VBO,4.995032,51.814666
Burgemeester van der Lelystraat,92,,,4285BN,Woudrichem,Woudrichem,Noord-Brabant,VBO,4.994799,51.814705
Burgemeester van der Lelystraat,94,,,4285BN,Woudrichem,Woudrichem,Noord-Brabant,VBO,4.994717,51.814720
Burgemeester van der Lelystraat,96,,,4285BN,Woudrichem,Woudrichem,Noord-Brabant,VBO,4.994634,51.814734
Burgemeester van der Lelystraat,98,,,4285BN,Woudrichem,Woudrichem,Noord-Brabant,VBO,4.994551,51.814748
Burgemeester van der Lelystraat,100,,,4285BN,Woudrichem,Woudrichem,Noord-Brabant,VBO,4.994460,51.814764
Burgemeester van der Lelystraat,102,,,4285BN,Woudrichem,Woudrichem,Noord-Brabant,VBO,4.994378,51.814778
Burgemeester van der Lelystraat,104,,,4285BN,Woudrichem,Woudrichem,Noord-Brabant,VBO,4.994295,51.814793
Burgemeester van der Lelystraat,106,,,4285BN,Woudrichem,Woudrichem,Noord-Brabant,VBO,4.994212,51.814807
Burgemeester van der Lelystraat,108,,,4285BN,Woudrichem,Woudrichem,Noord-Brabant,VBO,4.993762,51.814885
Burgemeester van der Lelystraat,110,,,4285BN,Woudrichem,Woudrichem,Noord-Brabant,VBO,4.993683,51.814898
Burgemeester van der Lelystraat,112,,,4285BN,Woudrichem,Woudrichem,Noord-Brabant,VBO,4.993599,51.814913
Burgemeester van der Lelystraat,114,,,4285BN,Woudrichem,Woudrichem,Noord-Brabant,VBO,4.993366,51.814953
Burgemeester van der Lelystraat,116,,,4285BN,Woudrichem,Woudrichem,Noord-Brabant,VBO,4.993011,51.815014
Burgemeester van der Lelystraat,118,,,4285BN,Woudrichem,Woudrichem,Noord-Brabant,VBO,4.992749,51.815058
Burgemeester van der Lelystraat,120,,,4285BN,Woudrichem,Woudrichem,Noord-Brabant,VBO,4.992494,51.815099
Burgemeester van der Lelystraat,122,,,4285BN,Woudrichem,Woudrichem,Noord-Brabant,VBO,4.992337,51.815125
Burgemeester van der Lelystraat,124,a,,4285BN,Woudrichem,Woudrichem,Noord-Brabant,VBO,4.991804,51.815211
Burgemeester van der Lelystraat,124,,,4285BN,Woudrichem,Woudrichem,Noord-Brabant,VBO,4.992102,51.815163
Burgemeester van der Lelystraat,126,,,4285BN,Woudrichem,Woudrichem,Noord-Brabant,VBO,4.991710,51.815227
Burgemeester van der Lelystraat,128,,,4285BN,Woudrichem,Woudrichem,Noord-Brabant,VBO,4.991365,51.815281
Burgemeester van der Lelystraat,130,,,4285BN,Woudrichem,Woudrichem,Noord-Brabant,VBO,4.991296,51.815292
Burgemeester van der Lelystraat,132,a,,4285BN,Woudrichem,Woudrichem,Noord-Brabant,VBO,4.991178,51.815407
Burgemeester van der Lelystraat,132,,,4285BN,Woudrichem,Woudrichem,Noord-Brabant,VBO,4.991102,51.815312
Burgemeester van der Lelystraat,134,,,4285BN,Woudrichem,Woudrichem,Noord-Brabant,VBO,4.990650,51.815521
Burgemeester van der Lelystraat,136,,,4285BN,Woudrichem,Woudrichem,Noord-Brabant,VBO,4.989920,51.815621
Burgemeester van der Lelystraat,138,,,4285BN,Woudrichem,Woudrichem,Noord-Brabant,VBO,4.989430,51.815712
Jacoba van Beierenstraat,2,a,,4285BP,Woudrichem,Woudrichem,Noord-Brabant,VBO,4.998676,51.814620
Jacoba van Beierenstraat,2,b,,4285BP,Woudrichem,Woudrichem,Noord-Brabant,VBO,4.998727,51.814682
Jacoba van Beierenstraat,2,c,,4285BP,Woudrichem,Woudrichem,Noord-Brabant,VBO,4.998753,51.814723
Jacoba van Beierenstraat,2,d,,4285BP,Woudrichem,Woudrichem,Noord-Brabant,VBO,4.998783,51.814779
Jacoba van Beierenstraat,2,,,4285BP,Woudrichem,Woudrichem,Noord-Brabant,VBO,4.998632,51.814440
Jacoba van Beierenstraat,4,,,4285BP,Woudrichem,Woudrichem,Noord-Brabant,VBO,4.998848,51.814975
Prins Willem van Oranjestraat,2,,,4285BS,Woudrichem,Woudrichem,Noord-Brabant,VBO,4.998988,51.816222
Prins Willem van Oranjestraat,4,,,4285BS,Woudrichem,Woudrichem,Noord-Brabant,VBO,4.998902,51.816220
Prins Willem van Oranjestraat,6,,,4285BS,Woudrichem,Woudrichem,Noord-Brabant,VBO,4.998816,51.816218
Prins Willem van Oranjestraat,8,,,4285BS,Woudrichem,Woudrichem,Noord-Brabant,VBO,4.998731,51.816215
Prins Willem van Oranjestraat,10,,,4285BS,Woudrichem,Woudrichem,Noord-Brabant,VBO,4.998637,51.816213
Prins Willem van Oranjestraat,12,,,4285BS,Woudrichem,Woudrichem,Noord-Brabant,VBO,4.998551,51.816211
Prins Willem van Oranjestraat,14,,,4285BS,Woudrichem,Woudrichem,Noord-Brabant,VBO,4.998465,51.816209
Prins Willem van Oranjestraat,16,,,4285BS,Woudrichem,Woudrichem,Noord-Brabant,VBO,4.998379,51.816206
Prins Willem van Oranjestraat,18,,,4285BS,Woudrichem,Woudrichem,Noord-Brabant,VBO,4.998294,51.816204
Prins Willem van Oranjestraat,20,,,4285BS,Woudrichem,Woudrichem,Noord-Brabant,VBO,4.998204,51.816202
Prins Willem van Oranjestraat,22,,,4285BS,Woudrichem,Woudrichem,Noord-Brabant,VBO,4.998118,51.816200
Prins Willem van Oranjestraat,24,,,4285BS,Woudrichem,Woudrichem,Noord-Brabant,VBO,4.997734,51.816190
Prins Willem van Oranjestraat,26,,,4285BS,Woudrichem,Woudrichem,Noord-Brabant,VBO,4.997648,51.816188
Prins Willem van Oranjestraat,28,,,4285BS,Woudrichem,Woudrichem,Noord-Brabant,VBO,4.997562,51.816185
Prins Willem van Oranjestraat,30,,,4285BS,Woudrichem,Woudrichem,Noord-Brabant,VBO,4.997476,51.816183
Prins Willem van Oranjestraat,32,,,4285BS,Woudrichem,Woudrichem,Noord-Brabant,VBO,4.997391,51.816181
Prins Willem van Oranjestraat,34,,,4285BS,Woudrichem,Woudrichem,Noord-Brabant,VBO,4.997305,51.816179
Prins Willem van Oranjestraat,36,,,4285BS,Woudrichem,Woudrichem,Noord-Brabant,VBO,4.997219,51.816177
Prins Willem van Oranjestraat,38,,,4285BS,Woudrichem,Woudrichem,Noord-Brabant,VBO,4.997133,51.816174
Prins Willem van Oranjestraat,40,,,4285BS,Woudrichem,Woudrichem,Noord-Brabant,VBO,4.997047,51.816172
Prins Willem van Oranjestraat,42,,,4285BS,Woudrichem,Woudrichem,Noord-Brabant,VBO,4.996961,51.816170
Prins Willem van Oranjestraat,44,,,4285BS,Woudrichem,Woudrichem,Noord-Brabant,VBO,4.996875,51.816168
Prins Willem van Oranjestraat,46,,,4285BS,Woudrichem,Woudrichem,Noord-Brabant,VBO,4.996491,51.816158
Prins Willem van Oranjestraat,48,,,4285BS,Woudrichem,Woudrichem,Noord-Brabant,VBO,4.996405,51.816156
Prins Willem van Oranjestraat,50,,,4285BT,Woudrichem,Woudrichem,Noord-Brabant,VBO,4.996319,51.816154
Prins Willem van Oranjestraat,52,,,4285BT,Woudrichem,Woudrichem,Noord-Brabant,VBO,4.996233,51.816151
Prins Willem van Oranjestraat,54,,,4285BT,Woudrichem,Woudrichem,Noord-Brabant,VBO,4.996147,51.816149
Prins Willem van Oranjestraat,56,,,4285BT,Woudrichem,Woudrichem,Noord-Brabant,VBO,4.996062,51.816147
Prins Willem van Oranjestraat,58,,,4285BT,Woudrichem,Woudrichem,Noord-Brabant,VBO,4.995976,51.816145
Prins Willem van Oranjestraat,60,,,4285BT,Woudrichem,Woudrichem,Noord-Brabant,VBO,4.995890,51.816143
Prins Willem van Oranjestraat,62,,,4285BT,Woudrichem,Woudrichem,Noord-Brabant,VBO,4.995804,51.816140
Prins Willem van Oranjestraat,64,,,4285BT,Woudrichem,Woudrichem,Noord-Brabant,VBO,4.995719,51.816138
Prins Willem van Oranjestraat,66,,,4285BT,Woudrichem,Woudrichem,Noord-Brabant,VBO,4.995633,51.816136
Prins Willem van Oranjestraat,68,,,4285BT,Woudrichem,Woudrichem,Noord-Brabant,VBO,4.995249,51.816126
Prins Willem van Oranjestraat,70,,,4285BT,Woudrichem,Woudrichem,Noord-Brabant,VBO,4.995162,51.816124
Prins Willem van Oranjestraat,72,,,4285BT,Woudrichem,Woudrichem,Noord-Brabant,VBO,4.995077,51.816122
Prins Willem van Oranjestraat,74,,,4285BT,Woudrichem,Woudrichem,Noord-Brabant,VBO,4.994991,51.816120
Prins Willem van Oranjestraat,76,,,4285BT,Woudrichem,Woudrichem,Noord-Brabant,VBO,4.994905,51.816117
Prins Willem van Oranjestraat,78,,,4285BT,Woudrichem,Woudrichem,Noord-Brabant,VBO,4.994819,51.816115
Prins Willem van Oranjestraat,80,,,4285BT,Woudrichem,Woudrichem,Noord-Brabant,VBO,4.994733,51.816113
Prins Willem van Oranjestraat,82,,,4285BT,Woudrichem,Woudrichem,Noord-Brabant,VBO,4.994647,51.816111
Prins Willem van Oranjestraat,84,,,4285BT,Woudrichem,Woudrichem,Noord-Brabant,VBO,4.994561,51.816109
Prins Willem van Oranjestraat,86,,,4285BT,Woudrichem,Woudrichem,Noord-Brabant,VBO,4.994475,51.816106
Prins Willem van Oranjestraat,88,,,4285BT,Woudrichem,Woudrichem,Noord-Brabant,VBO,4.994390,51.816104
Prins Willem van Oranjestraat,90,,,4285BT,Woudrichem,Woudrichem,Noord-Brabant,VBO,4.994273,51.816251
Graaf van Hornestraat,1,,,4285BV,Woudrichem,Woudrichem,Noord-Brabant,VBO,4.993909,51.815075
Graaf van Hornestraat,2,,,4285BV,Woudrichem,Woudrichem,Noord-Brabant,VBO,4.994297,51.815019
Graaf van Hornestraat,3,,,4285BV,Woudrichem,Woudrichem,Noord-Brabant,VBO,4.993929,51.815125
Graaf van Hornestraat,4,,,4285BV,Woudrichem,Woudrichem,Noord-Brabant,VBO,4.994319,51.815071
Graaf van Hornestraat,5,,,4285BV,Woudrichem,Woudrichem,Noord-Brabant,VBO,4.993951,51.815176
Graaf van Hornestraat,6,,,4285BV,Woudrichem,Woudrichem,Noord-Brabant,VBO,4.994340,51.815123
Graaf van Hornestraat,7,,,4285BV,Woudrichem,Woudrichem,Noord-Brabant,VBO,4.993973,51.815228
Graaf van Hornestraat,8,,,4285BV,Woudrichem,Woudrichem,Noord-Brabant,VBO,4.994362,51.815174
Graaf van Hornestraat,9,,,4285BV,Woudrichem,Woudrichem,Noord-Brabant,VBO,4.993995,51.815280
Graaf van Hornestraat,10,,,4285BV,Woudrichem,Woudrichem,Noord-Brabant,VBO,4.994386,51.815231
Graaf van Hornestraat,11,,,4285BV,Woudrichem,Woudrichem,Noord-Brabant,VBO,4.994015,51.815329
Graaf van Hornestraat,13,,,4285BV,Woudrichem,Woudrichem,Noord-Brabant,VBO,4.994063,51.815443
Graaf van Hornestraat,15,,,4285BV,Woudrichem,Woudrichem,Noord-Brabant,VBO,4.994085,51.815494
Graaf van Hornestraat,17,,,4285BV,Woudrichem,Woudrichem,Noord-Brabant,VBO,4.994106,51.815546
Graaf van Hornestraat,19,,,4285BV,Woudrichem,Woudrichem,Noord-Brabant,VBO,4.994128,51.815598
Graaf van Hornestraat,21,,,4285BV,Woudrichem,Woudrichem,Noord-Brabant,VBO,4.994177,51.815714
Graaf van Hornestraat,23,,,4285BV,Woudrichem,Woudrichem,Noord-Brabant,VBO,4.994198,51.815764
Graaf van Hornestraat,25,,,4285BV,Woudrichem,Woudrichem,Noord-Brabant,VBO,4.994219,51.815816
Graaf van Hornestraat,27,,,4285BV,Woudrichem,Woudrichem,Noord-Brabant,VBO,4.994241,51.815867
Graaf van Hornestraat,29,,,4285BV,Woudrichem,Woudrichem,Noord-Brabant,VBO,4.994263,51.815919
Graaf van Hornestraat,31,,,4285BV,Woudrichem,Woudrichem,Noord-Brabant,VBO,4.994286,51.815973
Graaf van Hornestraat,33,,,4285BV,Woudrichem,Woudrichem,Noord-Brabant,VBO,4.994079,51.816068
Graaf van Hornestraat,35,,,4285BV,Woudrichem,Woudrichem,Noord-Brabant,VBO,4.994086,51.816099
Graaf van Hornestraat,37,,,4285BV,Woudrichem,Woudrichem,Noord-Brabant,VBO,4.994094,51.816129
Graaf van Hornestraat,39,,,4285BV,Woudrichem,Woudrichem,Noord-Brabant,VBO,4.994110,51.816159
Graaf van Hornestraat,41,,,4285BV,Woudrichem,Woudrichem,Noord-Brabant,VBO,4.994128,51.816185
Graaf van Hornestraat,43,,,4285BV,Woudrichem,Woudrichem,Noord-Brabant,VBO,4.994125,51.816214
Adriaan van Alkmaarstraat,1,,,4285BW,Woudrichem,Woudrichem,Noord-Brabant,VBO,4.998182,51.814620
Adriaan van Alkmaarstraat,3,,,4285BW,Woudrichem,Woudrichem,Noord-Brabant,VBO,4.998103,51.814633
Adriaan van Alkmaarstraat,5,,,4285BW,Woudrichem,Woudrichem,Noord-Brabant,VBO,4.998019,51.814647
Adriaan van Alkmaarstraat,7,,,4285BW,Woudrichem,Woudrichem,Noord-Brabant,VBO,4.997936,51.814660
Adriaan van Alkmaarstraat,9,,,4285BW,Woudrichem,Woudrichem,Noord-Brabant,VBO,4.997853,51.814674
Adriaan van Alkmaarstraat,11,,,4285BW,Woudrichem,Woudrichem,Noord-Brabant,VBO,4.997774,51.814687
Adriaan van Alkmaarstraat,13,,,4285BW,Woudrichem,Woudrichem,Noord-Brabant,VBO,4.997695,51.814699
Adriaan van Alkmaarstraat,15,,,4285BW,Woudrichem,Woudrichem,Noord-Brabant,VBO,4.997612,51.814713
Adriaan van Alkmaarstraat,17,,,4285BW,Woudrichem,Woudrichem,Noord-Brabant,VBO,4.997528,51.814726
Adriaan van Alkmaarstraat,19,,,4285BW,Woudrichem,Woudrichem,Noord-Brabant,VBO,4.997445,51.814740
Adriaan van Alkmaarstraat,21,,,4285BW,Woudrichem,Woudrichem,Noord-Brabant,VBO,4.997221,51.814776
Adriaan van Alkmaarstraat,23,,,4285BW,Woudrichem,Woudrichem,Noord-Brabant,VBO,4.997142,51.814789
Adriaan van Alkmaarstraat,25,,,4285BW,Woudrichem,Woudrichem,Noord-Brabant,VBO,4.997059,51.814802
Adriaan van Alkmaarstraat,27,,,4285BW,Woudrichem,Woudrichem,Noord-Brabant,VBO,4.996976,51.814816
Adriaan van Alkmaarstraat,29,,,4285BW,Woudrichem,Woudrichem,Noord-Brabant,VBO,4.996893,51.814829
Adriaan van Alkmaarstraat,31,,,4285BW,Woudrichem,Woudrichem,Noord-Brabant,VBO,4.996805,51.814843
Adriaan van Alkmaarstraat,33,,,4285BW,Woudrichem,Woudrichem,Noord-Brabant,VBO,4.996726,51.814856
Adriaan van Alkmaarstraat,35,,,4285BW,Woudrichem,Woudrichem,Noord-Brabant,VBO,4.996643,51.814870
Adriaan van Alkmaarstraat,37,,,4285BW,Woudrichem,Woudrichem,Noord-Brabant,VBO,4.996560,51.814883
Adriaan van Alkmaarstraat,39,,,4285BW,Woudrichem,Woudrichem,Noord-Brabant,VBO,4.996477,51.814897
Adriaan van Alkmaarstraat,41,,,4285BX,Woudrichem,Woudrichem,Noord-Brabant,VBO,4.995546,51.815047
Adriaan van Alkmaarstraat,43,,,4285BX,Woudrichem,Woudrichem,Noord-Brabant,VBO,4.995467,51.815059
Adriaan van Alkmaarstraat,45,,,4285BX,Woudrichem,Woudrichem,Noord-Brabant,VBO,4.995384,51.815073
Adriaan van Alkmaarstraat,47,,,4285BX,Woudrichem,Woudrichem,Noord-Brabant,VBO,4.995301,51.815086
Adriaan van Alkmaarstraat,49,,,4285BX,Woudrichem,Woudrichem,Noord-Brabant,VBO,4.995218,51.815100
Adriaan van Alkmaarstraat,51,,,4285BX,Woudrichem,Woudrichem,Noord-Brabant,VBO,4.995131,51.815114
Adriaan van Alkmaarstraat,53,,,4285BX,Woudrichem,Woudrichem,Noord-Brabant,VBO,4.995052,51.815127
Adriaan van Alkmaarstraat,55,,,4285BX,Woudrichem,Woudrichem,Noord-Brabant,VBO,4.994969,51.815140
Adriaan van Alkmaarstraat,57,,,4285BX,Woudrichem,Woudrichem,Noord-Brabant,VBO,4.994886,51.815154
Adriaan van Alkmaarstraat,59,,,4285BX,Woudrichem,Woudrichem,Noord-Brabant,VBO,4.994803,51.815167
Adriaan van Alkmaarstraat,61,,,4285BX,Woudrichem,Woudrichem,Noord-Brabant,VBO,4.994716,51.815181
Pieter Maasstraat,1,,,4285CA,Woudrichem,Woudrichem,Noord-Brabant,VBO,4.995751,51.814771
Pieter Maasstraat,2,,,4285CA,Woudrichem,Woudrichem,Noord-Brabant,VBO,4.996076,51.814725
Pieter Maasstraat,3,,,4285CA,Woudrichem,Woudrichem,Noord-Brabant,VBO,4.995772,51.814820
Pieter Maasstraat,4,,,4285CA,Woudrichem,Woudrichem,Noord-Brabant,VBO,4.996097,51.814776
Pieter Maasstraat,5,,,4285CA,Woudrichem,Woudrichem,Noord-Brabant,VBO,4.995794,51.814872
Pieter Maasstraat,6,,,4285CA,Woudrichem,Woudrichem,Noord-Brabant,VBO,4.996119,51.814828
Pieter Maasstraat,7,,,4285CA,Woudrichem,Woudrichem,Noord-Brabant,VBO,4.995816,51.814923
Pieter Maasstraat,8,,,4285CA,Woudrichem,Woudrichem,Noord-Brabant,VBO,4.996141,51.814880
Pieter Maasstraat,9,,,4285CA,Woudrichem,Woudrichem,Noord-Brabant,VBO,4.995838,51.814975
Pieter Maasstraat,10,,,4285CA,Woudrichem,Woudrichem,Noord-Brabant,VBO,4.996165,51.814936
Lemmenskampweg,1,,,4285CB,Woudrichem,Woudrichem,Noord-Brabant,VBO,5.001199,51.812669
Lemmenskampweg,2,,,4285CB,Woudrichem,Woudrichem,Noord-Brabant,VBO,5.000461,51.812567
Lemmenskampweg,3,,,4285CB,Woudrichem,Woudrichem,Noord-Brabant,VBO,5.001359,51.812599
Lemmenskampweg,4,,,4285CB,Woudrichem,Woudrichem,Noord-Brabant,VBO,5.000647,51.812505
Lemmenskampweg,5,,,4285CB,Woudrichem,Woudrichem,Noord-Brabant,VBO,5.001453,51.812468
Lemmenskampweg,6,,,4285CB,Woudrichem,Woudrichem,Noord-Brabant,VBO,5.000849,51.812468
Lemmenskampweg,7,,,4285CB,Woudrichem,Woudrichem,Noord-Brabant,VBO,5.001781,51.812496
Lemmenskampweg,8,,,4285CB,Woudrichem,Woudrichem,Noord-Brabant,VBO,5.001152,51.812251
Lemmenskampweg,9,,,4285CB,Woudrichem,Woudrichem,Noord-Brabant,VBO,5.001957,51.812459
Lemmenskampweg,10,,,4285CB,Woudrichem,Woudrichem,Noord-Brabant,VBO,5.001002,51.812143
Lemmenskampweg,11,,,4285CB,Woudrichem,Woudrichem,Noord-Brabant,VBO,5.001592,51.812240
Lemmenskampweg,12,,,4285CB,Woudrichem,Woudrichem,Noord-Brabant,VBO,5.000894,51.812030
Lemmenskampweg,13,,,4285CB,Woudrichem,Woudrichem,Noord-Brabant,VBO,5.001461,51.812136
Lemmenskampweg,14,,,4285CB,Woudrichem,Woudrichem,Noord-Brabant,VBO,5.000563,51.812078
Lemmenskampweg,15,,,4285CB,Woudrichem,Woudrichem,Noord-Brabant,VBO,5.001294,51.812037
Lemmenskampweg,16,,,4285CB,Woudrichem,Woudrichem,Noord-Brabant,VBO,5.000391,51.812162
Lemmenskampweg,17,,,4285CB,Woudrichem,Woudrichem,Noord-Brabant,VBO,5.001163,51.811931
Lemmenskampweg,18,,,4285CB,Woudrichem,Woudrichem,Noord-Brabant,VBO,5.000193,51.812202
Lemmenskampweg,19,,,4285CB,Woudrichem,Woudrichem,Noord-Brabant,VBO,5.000997,51.811831
Lemmenskampweg,21,,,4285CB,Woudrichem,Woudrichem,Noord-Brabant,VBO,5.000974,51.811674
Lemmenskampweg,23,,,4285CB,Woudrichem,Woudrichem,Noord-Brabant,VBO,5.000772,51.811706
Lemmenskampweg,25,,,4285CB,Woudrichem,Woudrichem,Noord-Brabant,VBO,5.000573,51.811747
Lemmenskampweg,27,,,4285CB,Woudrichem,Woudrichem,Noord-Brabant,VBO,5.000390,51.811812
Lemmenskampweg,29,,,4285CB,Woudrichem,Woudrichem,Noord-Brabant,VBO,5.000187,51.811850
Lemmenskampweg,31,,,4285CB,Woudrichem,Woudrichem,Noord-Brabant,VBO,5.000046,51.811987
Wethouder de Joodestraat,1,,,4285CC,Woudrichem,Woudrichem,Noord-Brabant,VBO,4.998978,51.811313
Wethouder de Joodestraat,3,,,4285CC,Woudrichem,Woudrichem,Noord-Brabant,VBO,4.999012,51.811364
Wethouder de Joodestraat,5,,,4285CC,Woudrichem,Woudrichem,Noord-Brabant,VBO,4.999048,51.811418
Wethouder de Joodestraat,7,,,4285CC,Woudrichem,Woudrichem,Noord-Brabant,VBO,4.999083,51.811471
Wethouder de Joodestraat,9,,,4285CC,Woudrichem,Woudrichem,Noord-Brabant,VBO,4.999119,51.811525
Wethouder de Joodestraat,11,,,4285CC,Woudrichem,Woudrichem,Noord-Brabant,VBO,4.999153,51.811576
Wethouder de Joodestraat,13,,,4285CC,Woudrichem,Woudrichem,Noord-Brabant,VBO,4.999187,51.811627
Wethouder de Joodestraat,15,,,4285CC,Woudrichem,Woudrichem,Noord-Brabant,VBO,4.999481,51.812074
Wethouder de Joodestraat,17,,,4285CC,Woudrichem,Woudrichem,Noord-Brabant,VBO,4.999511,51.812120
Wethouder de Joodestraat,19,,,4285CC,Woudrichem,Woudrichem,Noord-Brabant,VBO,4.999541,51.812165
Wethouder de Joodestraat,21,,,4285CC,Woudrichem,Woudrichem,Noord-Brabant,VBO,4.999571,51.812210
Wethouder de Joodestraat,23,,,4285CC,Woudrichem,Woudrichem,Noord-Brabant,VBO,4.999600,51.812253
Wethouder de Joodestraat,25,,,4285CC,Woudrichem,Woudrichem,Noord-Brabant,VBO,4.999630,51.812299
Wethouder de Joodestraat,27,,,4285CC,Woudrichem,Woudrichem,Noord-Brabant,VBO,4.999660,51.812344
Wethouder de Joodestraat,29,,,4285CC,Woudrichem,Woudrichem,Noord-Brabant,VBO,4.999690,51.812389
Wethouder de Joodestraat,31,,,4285CC,Woudrichem,Woudrichem,Noord-Brabant,VBO,4.999824,51.812630
Wethouder de Joodestraat,33,,,4285CC,Woudrichem,Woudrichem,Noord-Brabant,VBO,4.999738,51.812652
Wethouder de Joodestraat,35,,,4285CC,Woudrichem,Woudrichem,Noord-Brabant,VBO,4.999655,51.812672
Wethouder de Joodestraat,37,,,4285CC,Woudrichem,Woudrichem,Noord-Brabant,VBO,4.999572,51.812693
Wethouder de Joodestraat,39,,,4285CC,Woudrichem,Woudrichem,Noord-Brabant,VBO,4.999490,51.812714
Wethouder de Joodestraat,41,,,4285CC,Woudrichem,Woudrichem,Noord-Brabant,VBO,4.999411,51.812734
Wethouder de Joodestraat,43,,,4285CC,Woudrichem,Woudrichem,Noord-Brabant,VBO,4.999324,51.812756
Wethouder de Joodestraat,45,,,4285CC,Woudrichem,Woudrichem,Noord-Brabant,VBO,4.999973,51.812817
Wethouder de Joodestraat,47,a,,4285CC,Woudrichem,Woudrichem,Noord-Brabant,VBO,5.000080,51.812970
Wethouder de Joodestraat,47,,,4285CC,Woudrichem,Woudrichem,Noord-Brabant,VBO,5.000004,51.812865
Wethouder de Joodestraat,2,,,4285CD,Woudrichem,Woudrichem,Noord-Brabant,VBO,4.999640,51.811210
Wethouder de Joodestraat,4,,,4285CD,Woudrichem,Woudrichem,Noord-Brabant,VBO,4.999614,51.811157
Wethouder de Joodestraat,6,,,4285CD,Woudrichem,Woudrichem,Noord-Brabant,VBO,4.999614,51.811135
Wethouder de Joodestraat,8,,,4285CD,Woudrichem,Woudrichem,Noord-Brabant,VBO,4.999600,51.811117
Wethouder de Joodestraat,10,,,4285CD,Woudrichem,Woudrichem,Noord-Brabant,VBO,4.999593,51.811098
Wethouder de Joodestraat,12,,,4285CD,Woudrichem,Woudrichem,Noord-Brabant,VBO,4.999586,51.811076
Wethouder de Joodestraat,14,a,,4285CD,Woudrichem,Woudrichem,Noord-Brabant,VBO,4.999558,51.811037
Wethouder de Joodestraat,14,,,4285CD,Woudrichem,Woudrichem,Noord-Brabant,VBO,4.999576,51.811059
Wethouder de Joodestraat,18,,,4285CD,Woudrichem,Woudrichem,Noord-Brabant,VBO,4.999517,51.810998
Wethouder de Joodestraat,20,,,4285CD,Woudrichem,Woudrichem,Noord-Brabant,VBO,4.999504,51.810976
Wethouder de Joodestraat,22,,,4285CD,Woudrichem,Woudrichem,Noord-Brabant,VBO,4.999500,51.810948
Wethouder de Joodestraat,24,,,4285CD,Woudrichem,Woudrichem,Noord-Brabant,VBO,4.999467,51.810933
Wethouder de Joodestraat,26,,,4285CD,Woudrichem,Woudrichem,Noord-Brabant,VBO,4.999437,51.810918
Wethouder de Joodestraat,28,,,4285CD,Woudrichem,Woudrichem,Noord-Brabant,VBO,4.999386,51.810895
Wethouder de Joodestraat,30,,,4285CD,Woudrichem,Woudrichem,Noord-Brabant,VBO,4.999362,51.810869
Wethouder de Joodestraat,32,,,4285CD,Woudrichem,Woudrichem,Noord-Brabant,VBO,4.999342,51.810852
Wethouder de Joodestraat,34,,,4285CD,Woudrichem,Woudrichem,Noord-Brabant,VBO,4.999333,51.810829
Wethouder de Joodestraat,36,,,4285CD,Woudrichem,Woudrichem,Noord-Brabant,VBO,4.999317,51.810810
Wethouder de Joodestraat,38,,,4285CD,Woudrichem,Woudrichem,Noord-Brabant,VBO,4.999314,51.810791
Wethouder de Joodestraat,40,,,4285CD,Woudrichem,Woudrichem,Noord-Brabant,VBO,4.999321,51.810773
Wethouder de Joodestraat,42,,,4285CD,Woudrichem,Woudrichem,Noord-Brabant,VBO,4.999326,51.810755
Wethouder de Joodestraat,44,,,4285CD,Woudrichem,Woudrichem,Noord-Brabant,VBO,4.999332,51.810733
Wethouder de Joodestraat,46,,,4285CD,Woudrichem,Woudrichem,Noord-Brabant,VBO,4.999325,51.810711
Wethouder de Joodestraat,48,,,4285CD,Woudrichem,Woudrichem,Noord-Brabant,VBO,4.999322,51.810691
Wethouder de Joodestraat,50,,,4285CD,Woudrichem,Woudrichem,Noord-Brabant,VBO,4.999307,51.810673
Wethouder de Joodestraat,52,,,4285CD,Woudrichem,Woudrichem,Noord-Brabant,VBO,4.999675,51.811241
Wethouder de Joodestraat,54,,,4285CD,Woudrichem,Woudrichem,Noord-Brabant,VBO,4.999678,51.811255
Wethouder de Joodestraat,56,,,4285CD,Woudrichem,Woudrichem,Noord-Brabant,VBO,4.999674,51.811268
Wethouder de Joodestraat,58,,,4285CD,Woudrichem,Woudrichem,Noord-Brabant,VBO,4.999673,51.811282
Wethouder de Joodestraat,60,,,4285CD,Woudrichem,Woudrichem,Noord-Brabant,VBO,4.999679,51.811296
Wethouder de Joodestraat,62,,,4285CD,Woudrichem,Woudrichem,Noord-Brabant,VBO,4.999697,51.811316
Wethouder de Joodestraat,64,,,4285CD,Woudrichem,Woudrichem,Noord-Brabant,VBO,4.999718,51.811333
Wethouder de Joodestraat,66,,,4285CD,Woudrichem,Woudrichem,Noord-Brabant,VBO,4.999721,51.811351
Wethouder de Joodestraat,68,,,4285CD,Woudrichem,Woudrichem,Noord-Brabant,VBO,4.999743,51.811371
Wethouder de Joodestraat,70,,,4285CD,Woudrichem,Woudrichem,Noord-Brabant,VBO,4.999758,51.811397
Wethouder de Joodestraat,72,,,4285CD,Woudrichem,Woudrichem,Noord-Brabant,VBO,4.999764,51.811413
Wethouder de Joodestraat,74,,,4285CD,Woudrichem,Woudrichem,Noord-Brabant,VBO,4.999785,51.811435
Wethouder de Joodestraat,76,,,4285CD,Woudrichem,Woudrichem,Noord-Brabant,VBO,4.999817,51.811456
Wethouder de Joodestraat,78,,,4285CD,Woudrichem,Woudrichem,Noord-Brabant,VBO,4.999827,51.811477
Wethouder de Joodestraat,80,,,4285CD,Woudrichem,Woudrichem,Noord-Brabant,VBO,4.999840,51.811496
Wethouder de Joodestraat,82,,,4285CD,Woudrichem,Woudrichem,Noord-Brabant,VBO,4.999840,51.811510
Voornplein,1,,,4285CE,Woudrichem,Woudrichem,Noord-Brabant,VBO,4.998045,51.811327
Voornplein,2,,,4285CE,Woudrichem,Woudrichem,Noord-Brabant,VBO,4.998355,51.811301
Voornplein,3,,,4285CE,Woudrichem,Woudrichem,Noord-Brabant,VBO,4.998079,51.811378
Voornplein,4,,,4285CE,Woudrichem,Woudrichem,Noord-Brabant,VBO,4.998430,51.811282
Voornplein,5,,,4285CE,Woudrichem,Woudrichem,Noord-Brabant,VBO,4.998154,51.811421
Voornplein,6,,,4285CE,Woudrichem,Woudrichem,Noord-Brabant,VBO,4.998505,51.811263
Voornplein,7,,,4285CE,Woudrichem,Woudrichem,Noord-Brabant,VBO,4.998189,51.811475
Voornplein,8,,,4285CE,Woudrichem,Woudrichem,Noord-Brabant,VBO,4.998642,51.811245
Voornplein,9,,,4285CE,Woudrichem,Woudrichem,Noord-Brabant,VBO,4.998225,51.811529
Voornplein,10,,,4285CE,Woudrichem,Woudrichem,Noord-Brabant,VBO,4.998714,51.811227
Voornplein,11,,,4285CE,Woudrichem,Woudrichem,Noord-Brabant,VBO,4.998259,51.811581
Voornplein,12,,,4285CE,Woudrichem,Woudrichem,Noord-Brabant,VBO,4.998782,51.811164
Voornplein,13,,,4285CE,Woudrichem,Woudrichem,Noord-Brabant,VBO,4.998804,51.811653
Voornplein,14,,,4285CE,Woudrichem,Woudrichem,Noord-Brabant,VBO,4.998870,51.811141
Voornplein,15,,,4285CE,Woudrichem,Woudrichem,Noord-Brabant,VBO,4.998718,51.811674
Voornplein,17,,,4285CE,Woudrichem,Woudrichem,Noord-Brabant,VBO,4.998632,51.811696
Voornplein,19,,,4285CE,Woudrichem,Woudrichem,Noord-Brabant,VBO,4.998546,51.811718
Voornplein,21,,,4285CE,Woudrichem,Woudrichem,Noord-Brabant,VBO,4.998460,51.811740
Voornplein,23,,,4285CE,Woudrichem,Woudrichem,Noord-Brabant,VBO,4.998370,51.811762
Voornplein,25,,,4285CE,Woudrichem,Woudrichem,Noord-Brabant,VBO,4.998284,51.811784
Voornplein,27,,,4285CE,Woudrichem,Woudrichem,Noord-Brabant,VBO,4.998198,51.811806
Baarsplein,1,,,4285CG,Woudrichem,Woudrichem,Noord-Brabant,VBO,4.996851,51.811629
Baarsplein,3,,,4285CG,Woudrichem,Woudrichem,Noord-Brabant,VBO,4.996885,51.811681
Baarsplein,5,,,4285CG,Woudrichem,Woudrichem,Noord-Brabant,VBO,4.996920,51.811734
Baarsplein,7,,,4285CG,Woudrichem,Woudrichem,Noord-Brabant,VBO,4.996956,51.811788
Baarsplein,9,,,4285CG,Woudrichem,Woudrichem,Noord-Brabant,VBO,4.996991,51.811841
Baarsplein,11,,,4285CG,Woudrichem,Woudrichem,Noord-Brabant,VBO,4.997025,51.811893
Baarsplein,13,,,4285CG,Woudrichem,Woudrichem,Noord-Brabant,VBO,4.997059,51.811944
Baarsplein,15,,,4285CG,Woudrichem,Woudrichem,Noord-Brabant,VBO,4.997095,51.811997
Baarsplein,17,,,4285CG,Woudrichem,Woudrichem,Noord-Brabant,VBO,4.997549,51.812094
Baarsplein,19,,,4285CG,Woudrichem,Woudrichem,Noord-Brabant,VBO,4.997463,51.812116
Baarsplein,21,,,4285CG,Woudrichem,Woudrichem,Noord-Brabant,VBO,4.997377,51.812138
Baarsplein,23,,,4285CG,Woudrichem,Woudrichem,Noord-Brabant,VBO,4.997287,51.812160
Baarsplein,25,,,4285CG,Woudrichem,Woudrichem,Noord-Brabant,VBO,4.997201,51.812182
Baarsplein,27,,,4285CG,Woudrichem,Woudrichem,Noord-Brabant,VBO,4.997115,51.812204
Baarsplein,29,,,4285CG,Woudrichem,Woudrichem,Noord-Brabant,VBO,4.997029,51.812226
Baarsplein,2,,,4285CH,Woudrichem,Woudrichem,Noord-Brabant,VBO,4.997165,51.811605
Baarsplein,4,,,4285CH,Woudrichem,Woudrichem,Noord-Brabant,VBO,4.997252,51.811583
Baarsplein,6,,,4285CH,Woudrichem,Woudrichem,Noord-Brabant,VBO,4.997338,51.811561
Baarsplein,8,,,4285CH,Woudrichem,Woudrichem,Noord-Brabant,VBO,4.997424,51.811539
Baarsplein,10,,,4285CH,Woudrichem,Woudrichem,Noord-Brabant,VBO,4.997518,51.811515
Baarsplein,12,,,4285CH,Woudrichem,Woudrichem,Noord-Brabant,VBO,4.997605,51.811493
Baarsplein,14,,,4285CH,Woudrichem,Woudrichem,Noord-Brabant,VBO,4.997691,51.811471
Baarsplein,16,,,4285CH,Woudrichem,Woudrichem,Noord-Brabant,VBO,4.997594,51.811708
Baarsplein,18,,,4285CH,Woudrichem,Woudrichem,Noord-Brabant,VBO,4.997629,51.811761
Baarsplein,20,,,4285CH,Woudrichem,Woudrichem,Noord-Brabant,VBO,4.997666,51.811817
Baarsplein,22,,,4285CH,Woudrichem,Woudrichem,Noord-Brabant,VBO,4.997701,51.811871
Baarsplein,24,,,4285CH,Woudrichem,Woudrichem,Noord-Brabant,VBO,4.997736,51.811925
Baarsplein,26,,,4285CH,Woudrichem,Woudrichem,Noord-Brabant,VBO,4.997771,51.811978
Baarsplein,28,,,4285CH,Woudrichem,Woudrichem,Noord-Brabant,VBO,4.997846,51.812021
Baarsplein,30,,,4285CH,Woudrichem,Woudrichem,Noord-Brabant,VBO,4.997882,51.812074
Wethouder Viveenstraat,1,a,,4285CJ,Woudrichem,Woudrichem,Noord-Brabant,VBO,4.996515,51.813156
Wethouder Viveenstraat,1,b,,4285CJ,Woudrichem,Woudrichem,Noord-Brabant,VBO,4.996473,51.813033
Wethouder Viveenstraat,1,c,,4285CJ,Woudrichem,Woudrichem,Noord-Brabant,VBO,4.996437,51.812928
Wethouder Viveenstraat,1,,,4285CJ,Woudrichem,Woudrichem,Noord-Brabant,VBO,4.996357,51.812716
Wethouder Viveenstraat,2,,,4285CJ,Woudrichem,Woudrichem,Noord-Brabant,VBO,4.996325,51.812573
Wethouder Viveenstraat,3,,,4285CJ,Woudrichem,Woudrichem,Noord-Brabant,VBO,4.996298,51.812382
Wethouder Viveenstraat,4,,,4285CJ,Woudrichem,Woudrichem,Noord-Brabant,VBO,4.996618,51.812335
Wethouder Viveenstraat,5,,,4285CJ,Woudrichem,Woudrichem,Noord-Brabant,VBO,4.996577,51.812185
Wethouder Viveenstraat,6,,,4285CJ,Woudrichem,Woudrichem,Noord-Brabant,VBO,4.996232,51.812230
Wethouder Viveenstraat,7,,,4285CJ,Woudrichem,Woudrichem,Noord-Brabant,VBO,4.996096,51.812022
Wethouder Viveenstraat,8,,,4285CJ,Woudrichem,Woudrichem,Noord-Brabant,VBO,4.996055,51.811855
Wethouder Kentiestraat,1,a,,4285CK,Woudrichem,Woudrichem,Noord-Brabant,VBO,4.997374,51.813529
Wethouder Kentiestraat,1,,,4285CK,Woudrichem,Woudrichem,Noord-Brabant,VBO,4.997594,51.813438
Wethouder Kentiestraat,3,,,4285CK,Woudrichem,Woudrichem,Noord-Brabant,VBO,4.997664,51.813420
Wethouder Kentiestraat,5,,,4285CK,Woudrichem,Woudrichem,Noord-Brabant,VBO,4.997737,51.813402
Wethouder Kentiestraat,7,,,4285CK,Woudrichem,Woudrichem,Noord-Brabant,VBO,4.997810,51.813383
Wethouder Kentiestraat,9,,,4285CK,Woudrichem,Woudrichem,Noord-Brabant,VBO,4.997884,51.813364
Wethouder Kentiestraat,11,,,4285CK,Woudrichem,Woudrichem,Noord-Brabant,VBO,4.998007,51.813333
Wethouder Kentiestraat,13,,,4285CK,Woudrichem,Woudrichem,Noord-Brabant,VBO,4.998077,51.813316
Wethouder Kentiestraat,15,,,4285CK,Woudrichem,Woudrichem,Noord-Brabant,VBO,4.998150,51.813297
Wethouder Kentiestraat,17,,,4285CK,Woudrichem,Woudrichem,Noord-Brabant,VBO,4.998223,51.813279
Wethouder Kentiestraat,19,,,4285CK,Woudrichem,Woudrichem,Noord-Brabant,VBO,4.998297,51.813260
Wethouder Kentiestraat,21,,,4285CK,Woudrichem,Woudrichem,Noord-Brabant,VBO,4.998536,51.813293
Wethouder Kentiestraat,23,,,4285CK,Woudrichem,Woudrichem,Noord-Brabant,VBO,4.998616,51.813273
Wethouder Kentiestraat,25,,,4285CK,Woudrichem,Woudrichem,Noord-Brabant,VBO,4.998699,51.813252
Wethouder Kentiestraat,27,,,4285CK,Woudrichem,Woudrichem,Noord-Brabant,VBO,4.998782,51.813231
Wethouder Kentiestraat,29,,,4285CK,Woudrichem,Woudrichem,Noord-Brabant,VBO,4.998918,51.813197
Wethouder Kentiestraat,31,,,4285CK,Woudrichem,Woudrichem,Noord-Brabant,VBO,4.999005,51.813174
Wethouder Kentiestraat,33,,,4285CK,Woudrichem,Woudrichem,Noord-Brabant,VBO,4.999085,51.813154
Wethouder Kentiestraat,35,,,4285CK,Woudrichem,Woudrichem,Noord-Brabant,VBO,4.999168,51.813133
Wethouder Kentiestraat,2,a,,4285CL,Woudrichem,Woudrichem,Noord-Brabant,VBO,4.997192,51.813280
Wethouder Kentiestraat,2,,,4285CL,Woudrichem,Woudrichem,Noord-Brabant,VBO,4.997652,51.813111
Wethouder Kentiestraat,4,,,4285CL,Woudrichem,Woudrichem,Noord-Brabant,VBO,4.997725,51.813093
Wethouder Kentiestraat,6,,,4285CL,Woudrichem,Woudrichem,Noord-Brabant,VBO,4.997797,51.813075
Wethouder Kentiestraat,8,,,4285CL,Woudrichem,Woudrichem,Noord-Brabant,VBO,4.997870,51.813056
Wethouder Kentiestraat,10,,,4285CL,Woudrichem,Woudrichem,Noord-Brabant,VBO,4.997961,51.813052
Wethouder Kentiestraat,12,,,4285CL,Woudrichem,Woudrichem,Noord-Brabant,VBO,4.998034,51.813033
Wethouder Kentiestraat,14,a,,4285CL,Woudrichem,Woudrichem,Noord-Brabant,VBO,4.998193,51.812993
Wethouder Kentiestraat,14,,,4285CL,Woudrichem,Woudrichem,Noord-Brabant,VBO,4.998108,51.813015
Wethouder Kentiestraat,16,,,4285CL,Woudrichem,Woudrichem,Noord-Brabant,VBO,4.998985,51.812802
Wethouder Kentiestraat,18,,,4285CL,Woudrichem,Woudrichem,Noord-Brabant,VBO,4.999019,51.812853
Wethouder Kentiestraat,20,,,4285CL,Woudrichem,Woudrichem,Noord-Brabant,VBO,4.999055,51.812907
Wethouder Kentiestraat,22,,,4285CL,Woudrichem,Woudrichem,Noord-Brabant,VBO,4.999089,51.812958
Waalplein,1,,,4285CM,Woudrichem,Woudrichem,Noord-Brabant,VBO,4.999415,51.811976
Waalplein,3,,,4285CM,Woudrichem,Woudrichem,Noord-Brabant,VBO,4.999346,51.811995
Waalplein,5,,,4285CM,Woudrichem,Woudrichem,Noord-Brabant,VBO,4.999273,51.812014
Waalplein,7,,,4285CM,Woudrichem,Woudrichem,Noord-Brabant,VBO,4.999200,51.812033
Waalplein,9,,,4285CM,Woudrichem,Woudrichem,Noord-Brabant,VBO,4.999104,51.812019
Waalplein,11,,,4285CM,Woudrichem,Woudrichem,Noord-Brabant,VBO,4.999034,51.812036
Waalplein,13,,,4285CM,Woudrichem,Woudrichem,Noord-Brabant,VBO,4.998965,51.812054
Waalplein,15,,,4285CM,Woudrichem,Woudrichem,Noord-Brabant,VBO,4.998891,51.812073
Waalplein,17,,,4285CM,Woudrichem,Woudrichem,Noord-Brabant,VBO,4.998818,51.812092
Waalplein,19,,,4285CM,Woudrichem,Woudrichem,Noord-Brabant,VBO,4.998607,51.812043
Waalplein,21,,,4285CM,Woudrichem,Woudrichem,Noord-Brabant,VBO,4.998637,51.812088
Waalplein,23,,,4285CM,Woudrichem,Woudrichem,Noord-Brabant,VBO,4.998666,51.812131
Waalplein,25,,,4285CM,Woudrichem,Woudrichem,Noord-Brabant,VBO,4.998696,51.812177
Waalplein,27,,,4285CM,Woudrichem,Woudrichem,Noord-Brabant,VBO,4.998726,51.812222
Waalplein,29,,,4285CM,Woudrichem,Woudrichem,Noord-Brabant,VBO,4.998755,51.812267
Waalplein,31,,,4285CM,Woudrichem,Woudrichem,Noord-Brabant,VBO,4.998787,51.812315
Waalplein,33,,,4285CM,Woudrichem,Woudrichem,Noord-Brabant,VBO,4.998816,51.812358
Waalplein,2,,,4285CN,Woudrichem,Woudrichem,Noord-Brabant,VBO,4.999377,51.812439
Waalplein,4,,,4285CN,Woudrichem,Woudrichem,Noord-Brabant,VBO,4.999303,51.812457
Waalplein,6,,,4285CN,Woudrichem,Woudrichem,Noord-Brabant,VBO,4.999230,51.812476
Waalplein,8,,,4285CN,Woudrichem,Woudrichem,Noord-Brabant,VBO,4.999157,51.812495
Waalplein,10,,,4285CN,Woudrichem,Woudrichem,Noord-Brabant,VBO,4.999076,51.812515
Waalplein,12,,,4285CN,Woudrichem,Woudrichem,Noord-Brabant,VBO,4.999002,51.812534
Waalplein,14,,,4285CN,Woudrichem,Woudrichem,Noord-Brabant,VBO,4.998902,51.812512
Waalplein,16,,,4285CN,Woudrichem,Woudrichem,Noord-Brabant,VBO,4.998827,51.812531
Waalplein,18,,,4285CN,Woudrichem,Woudrichem,Noord-Brabant,VBO,4.998753,51.812550
Raadhuisplein,1,,,4285CP,Woudrichem,Woudrichem,Noord-Brabant,VBO,4.998035,51.809930
Merweplein,1,,,4285CR,Woudrichem,Woudrichem,Noord-Brabant,VBO,4.998362,51.812907
Merweplein,3,,,4285CR,Woudrichem,Woudrichem,Noord-Brabant,VBO,4.998328,51.812879
Merweplein,5,,,4285CR,Woudrichem,Woudrichem,Noord-Brabant,VBO,4.998311,51.812848
Merweplein,7,,,4285CR,Woudrichem,Woudrichem,Noord-Brabant,VBO,4.998296,51.812825
Merweplein,9,,,4285CR,Woudrichem,Woudrichem,Noord-Brabant,VBO,4.998275,51.812805
Merweplein,11,,,4285CR,Woudrichem,Woudrichem,Noord-Brabant,VBO,4.998260,51.812784
Merweplein,13,,,4285CR,Woudrichem,Woudrichem,Noord-Brabant,VBO,4.998255,51.812765
Merweplein,15,,,4285CR,Woudrichem,Woudrichem,Noord-Brabant,VBO,4.998253,51.812739
Merweplein,17,,,4285CR,Woudrichem,Woudrichem,Noord-Brabant,VBO,4.998239,51.812702
Merweplein,19,,,4285CR,Woudrichem,Woudrichem,Noord-Brabant,VBO,4.998227,51.812676
Merweplein,21,,,4285CR,Woudrichem,Woudrichem,Noord-Brabant,VBO,4.998217,51.812645
Merweplein,23,,,4285CR,Woudrichem,Woudrichem,Noord-Brabant,VBO,4.998201,51.812618
Merweplein,25,,,4285CR,Woudrichem,Woudrichem,Noord-Brabant,VBO,4.998187,51.812591
Merweplein,27,,,4285CR,Woudrichem,Woudrichem,Noord-Brabant,VBO,4.998174,51.812570
Merweplein,29,,,4285CR,Woudrichem,Woudrichem,Noord-Brabant,VBO,4.998156,51.812537
Merweplein,31,,,4285CR,Woudrichem,Woudrichem,Noord-Brabant,VBO,4.998115,51.812537
Merweplein,33,,,4285CR,Woudrichem,Woudrichem,Noord-Brabant,VBO,4.998220,51.812310
Merweplein,35,,,4285CR,Woudrichem,Woudrichem,Noord-Brabant,VBO,4.998136,51.812331
Merweplein,37,,,4285CR,Woudrichem,Woudrichem,Noord-Brabant,VBO,4.998053,51.812352
Merweplein,39,,,4285CR,Woudrichem,Woudrichem,Noord-Brabant,VBO,4.997969,51.812374
Merweplein,41,,,4285CR,Woudrichem,Woudrichem,Noord-Brabant,VBO,4.997882,51.812396
Merweplein,43,,,4285CR,Woudrichem,Woudrichem,Noord-Brabant,VBO,4.997802,51.812417
Merweplein,45,,,4285CR,Woudrichem,Woudrichem,Noord-Brabant,VBO,4.997718,51.812438
Merweplein,2,,,4285CS,Woudrichem,Woudrichem,Noord-Brabant,VBO,4.997681,51.812888
Merweplein,4,,,4285CS,Woudrichem,Woudrichem,Noord-Brabant,VBO,4.997651,51.812843
Merweplein,6,,,4285CS,Woudrichem,Woudrichem,Noord-Brabant,VBO,4.997622,51.812797
Merweplein,8,,,4285CS,Woudrichem,Woudrichem,Noord-Brabant,VBO,4.997592,51.812751
Merweplein,10,,,4285CS,Woudrichem,Woudrichem,Noord-Brabant,VBO,4.997533,51.812708
Merweplein,12,,,4285CS,Woudrichem,Woudrichem,Noord-Brabant,VBO,4.997503,51.812663
Merweplein,14,,,4285CS,Woudrichem,Woudrichem,Noord-Brabant,VBO,4.997529,51.812575
Merweplein,16,,,4285CS,Woudrichem,Woudrichem,Noord-Brabant,VBO,4.997499,51.812529
Merweplein,18,,,4285CS,Woudrichem,Woudrichem,Noord-Brabant,VBO,4.997470,51.812484
Merweplein,20,,,4285CS,Woudrichem,Woudrichem,Noord-Brabant,VBO,4.997439,51.812436
Raadhuisplein,2,,,4285CT,Woudrichem,Woudrichem,Noord-Brabant,VBO,4.998337,51.810655
Raadhuisplein,4,,,4285CT,Woudrichem,Woudrichem,Noord-Brabant,VBO,4.998337,51.810655
Raadhuisplein,6,,,4285CT,Woudrichem,Woudrichem,Noord-Brabant,VBO,4.998337,51.810655
Raadhuisplein,8,,,4285CT,Woudrichem,Woudrichem,Noord-Brabant,VBO,4.998337,51.810655
Raadhuisplein,10,,,4285CT,Woudrichem,Woudrichem,Noord-Brabant,VBO,4.998337,51.810655
Raadhuisplein,12,,,4285CT,Woudrichem,Woudrichem,Noord-Brabant,VBO,4.998337,51.810655
Raadhuisplein,14,,,4285CT,Woudrichem,Woudrichem,Noord-Brabant,VBO,4.998337,51.810655
Raadhuisplein,16,,,4285CT,Woudrichem,Woudrichem,Noord-Brabant,VBO,4.998337,51.810655
Raadhuisplein,18,,,4285CT,Woudrichem,Woudrichem,Noord-Brabant,VBO,4.998337,51.810655
Raadhuisplein,20,,,4285CT,Woudrichem,Woudrichem,Noord-Brabant,VBO,4.998337,51.810655
Raadhuisplein,22,,,4285CT,Woudrichem,Woudrichem,Noord-Brabant,VBO,4.998337,51.810655
Raadhuisplein,24,,,4285CT,Woudrichem,Woudrichem,Noord-Brabant,VBO,4.998337,51.810655
Raadhuisplein,26,,,4285CT,Woudrichem,Woudrichem,Noord-Brabant,VBO,4.998337,51.810655
Raadhuisplein,28,,,4285CT,Woudrichem,Woudrichem,Noord-Brabant,VBO,4.998337,51.810655
Raadhuisplein,30,,,4285CT,Woudrichem,Woudrichem,Noord-Brabant,VBO,4.998337,51.810655
Raadhuisplein,32,,,4285CT,Woudrichem,Woudrichem,Noord-Brabant,VBO,4.998337,51.810655
Raadhuisplein,34,,,4285CT,Woudrichem,Woudrichem,Noord-Brabant,VBO,4.998337,51.810655
Raadhuisplein,36,,,4285CT,Woudrichem,Woudrichem,Noord-Brabant,VBO,4.998337,51.810655
Raadhuisplein,38,,,4285CT,Woudrichem,Woudrichem,Noord-Brabant,VBO,4.998337,51.810655
Raadhuisplein,40,,,4285CT,Woudrichem,Woudrichem,Noord-Brabant,VBO,4.998337,51.810655
Raadhuisplein,42,,,4285CT,Woudrichem,Woudrichem,Noord-Brabant,VBO,4.998337,51.810655
Raadhuisplein,44,,,4285CT,Woudrichem,Woudrichem,Noord-Brabant,VBO,4.998337,51.810655
Raadhuisplein,46,,,4285CT,Woudrichem,Woudrichem,Noord-Brabant,VBO,4.998337,51.810655
Kastanjelaan,1,a,,4285DA,Woudrichem,Woudrichem,Noord-Brabant,VBO,5.003487,51.812270
Kastanjelaan,1,,,4285DA,Woudrichem,Woudrichem,Noord-Brabant,VBO,5.003520,51.812306
Kastanjelaan,3,,,4285DA,Woudrichem,Woudrichem,Noord-Brabant,VBO,5.003445,51.812222
Kastanjelaan,5,,,4285DA,Woudrichem,Woudrichem,Noord-Brabant,VBO,5.003405,51.812177
Kastanjelaan,7,,,4285DA,Woudrichem,Woudrichem,Noord-Brabant,VBO,5.003378,51.812125
Kastanjelaan,9,,,4285DA,Woudrichem,Woudrichem,Noord-Brabant,VBO,5.003378,51.812076
Kastanjelaan,11,,,4285DA,Woudrichem,Woudrichem,Noord-Brabant,VBO,5.003378,51.812028
Kastanjelaan,13,,,4285DA,Woudrichem,Woudrichem,Noord-Brabant,VBO,5.003378,51.811978
Kastanjelaan,15,,,4285DA,Woudrichem,Woudrichem,Noord-Brabant,VBO,5.003341,51.811875
Kastanjelaan,17,,,4285DA,Woudrichem,Woudrichem,Noord-Brabant,VBO,5.003342,51.811829
Kastanjelaan,19,,,4285DA,Woudrichem,Woudrichem,Noord-Brabant,VBO,5.003372,51.811786
Kastanjelaan,21,,,4285DA,Woudrichem,Woudrichem,Noord-Brabant,VBO,5.003373,51.811739
Kastanjelaan,23,,,4285DA,Woudrichem,Woudrichem,Noord-Brabant,VBO,5.003373,51.811694
Kastanjelaan,25,,,4285DA,Woudrichem,Woudrichem,Noord-Brabant,VBO,5.003374,51.811648
Kastanjelaan,27,,,4285DA,Woudrichem,Woudrichem,Noord-Brabant,VBO,5.003346,51.811602
Kastanjelaan,29,,,4285DA,Woudrichem,Woudrichem,Noord-Brabant,VBO,5.003347,51.811555
Kastanjelaan,31,,,4285DA,Woudrichem,Woudrichem,Noord-Brabant,VBO,5.003370,51.811440
Kastanjelaan,33,,,4285DA,Woudrichem,Woudrichem,Noord-Brabant,VBO,5.003372,51.811411
Kastanjelaan,35,,,4285DA,Woudrichem,Woudrichem,Noord-Brabant,VBO,5.003372,51.811378
Kastanjelaan,37,,,4285DA,Woudrichem,Woudrichem,Noord-Brabant,VBO,5.003387,51.811334
Kastanjelaan,39,,,4285DA,Woudrichem,Woudrichem,Noord-Brabant,VBO,5.003388,51.811285
Kastanjelaan,41,,,4285DA,Woudrichem,Woudrichem,Noord-Brabant,VBO,5.003389,51.811233
Kastanjelaan,43,,,4285DA,Woudrichem,Woudrichem,Noord-Brabant,VBO,5.003390,51.811180
Kastanjelaan,45,,,4285DA,Woudrichem,Woudrichem,Noord-Brabant,VBO,5.003391,51.811129
Kastanjelaan,47,,,4285DA,Woudrichem,Woudrichem,Noord-Brabant,VBO,5.003377,51.811085
Kastanjelaan,49,,,4285DA,Woudrichem,Woudrichem,Noord-Brabant,VBO,5.003377,51.811051
Kastanjelaan,51,,,4285DA,Woudrichem,Woudrichem,Noord-Brabant,VBO,5.003378,51.811018
Kastanjelaan,53,,,4285DB,Woudrichem,Woudrichem,Noord-Brabant,VBO,5.003560,51.810849
Kastanjelaan,55,,,4285DB,Woudrichem,Woudrichem,Noord-Brabant,VBO,5.003582,51.810799
Kastanjelaan,57,,,4285DB,Woudrichem,Woudrichem,Noord-Brabant,VBO,5.003582,51.810751
Kastanjelaan,59,,,4285DB,Woudrichem,Woudrichem,Noord-Brabant,VBO,5.003583,51.810703
Kastanjelaan,61,,,4285DB,Woudrichem,Woudrichem,Noord-Brabant,VBO,5.003584,51.810652
Kastanjelaan,63,,,4285DB,Woudrichem,Woudrichem,Noord-Brabant,VBO,5.003585,51.810607
Kastanjelaan,65,,,4285DB,Woudrichem,Woudrichem,Noord-Brabant,VBO,5.003586,51.810558
Kastanjelaan,67,,,4285DB,Woudrichem,Woudrichem,Noord-Brabant,VBO,5.003587,51.810510
Kastanjelaan,69,,,4285DB,Woudrichem,Woudrichem,Noord-Brabant,VBO,5.003567,51.810460
Kastanjelaan,71,,,4285DB,Woudrichem,Woudrichem,Noord-Brabant,VBO,5.003538,51.810246
Kastanjelaan,73,,,4285DB,Woudrichem,Woudrichem,Noord-Brabant,VBO,5.003520,51.810165
Kastanjelaan,75,,,4285DB,Woudrichem,Woudrichem,Noord-Brabant,VBO,5.003449,51.810093
Kastanjelaan,77,,,4285DB,Woudrichem,Woudrichem,Noord-Brabant,VBO,5.003339,51.810045
Kastanjelaan,79,,,4285DB,Woudrichem,Woudrichem,Noord-Brabant,VBO,5.003262,51.810028
Kastanjelaan,2,,,4285DC,Woudrichem,Woudrichem,Noord-Brabant,VBO,5.002892,51.811858
Kastanjelaan,4,,,4285DC,Woudrichem,Woudrichem,Noord-Brabant,VBO,5.002893,51.811810
Kastanjelaan,6,,,4285DC,Woudrichem,Woudrichem,Noord-Brabant,VBO,5.002865,51.811764
Kastanjelaan,8,,,4285DC,Woudrichem,Woudrichem,Noord-Brabant,VBO,5.002866,51.811719
Kastanjelaan,10,,,4285DC,Woudrichem,Woudrichem,Noord-Brabant,VBO,5.002867,51.811669
Kastanjelaan,12,,,4285DC,Woudrichem,Woudrichem,Noord-Brabant,VBO,5.002868,51.811624
Kastanjelaan,14,,,4285DC,Woudrichem,Woudrichem,Noord-Brabant,VBO,5.002897,51.811578
Kastanjelaan,16,,,4285DC,Woudrichem,Woudrichem,Noord-Brabant,VBO,5.002897,51.811531
Kastanjelaan,18,a,,4285DC,Woudrichem,Woudrichem,Noord-Brabant,VBO,5.002878,51.811389
Kastanjelaan,18,b,,4285DC,Woudrichem,Woudrichem,Noord-Brabant,VBO,5.002879,51.811353
Kastanjelaan,18,,,4285DC,Woudrichem,Woudrichem,Noord-Brabant,VBO,5.002878,51.811426
Kastanjelaan,20,,,4285DC,Woudrichem,Woudrichem,Noord-Brabant,VBO,5.002865,51.811317
Kastanjelaan,22,,,4285DC,Woudrichem,Woudrichem,Noord-Brabant,VBO,5.002866,51.811262
Kastanjelaan,24,,,4285DC,Woudrichem,Woudrichem,Noord-Brabant,VBO,5.002867,51.811210
Kastanjelaan,26,,,4285DC,Woudrichem,Woudrichem,Noord-Brabant,VBO,5.002868,51.811158
Kastanjelaan,28,,,4285DC,Woudrichem,Woudrichem,Noord-Brabant,VBO,5.002869,51.811104
Kastanjelaan,30,,,4285DC,Woudrichem,Woudrichem,Noord-Brabant,VBO,5.002884,51.811063
Kastanjelaan,32,a,,4285DC,Woudrichem,Woudrichem,Noord-Brabant,VBO,5.002886,51.810989
Kastanjelaan,32,,,4285DC,Woudrichem,Woudrichem,Noord-Brabant,VBO,5.002885,51.811031
Kastanjelaan,34,,,4285DD,Woudrichem,Woudrichem,Noord-Brabant,VBO,5.002706,51.810818
Kastanjelaan,36,,,4285DD,Woudrichem,Woudrichem,Noord-Brabant,VBO,5.002687,51.810768
Kastanjelaan,38,,,4285DD,Woudrichem,Woudrichem,Noord-Brabant,VBO,5.002687,51.810720
Kastanjelaan,40,,,4285DD,Woudrichem,Woudrichem,Noord-Brabant,VBO,5.002688,51.810672
Kastanjelaan,42,,,4285DD,Woudrichem,Woudrichem,Noord-Brabant,VBO,5.002689,51.810624
Kastanjelaan,44,,,4285DD,Woudrichem,Woudrichem,Noord-Brabant,VBO,5.002690,51.810576
Kastanjelaan,46,,,4285DD,Woudrichem,Woudrichem,Noord-Brabant,VBO,5.002691,51.810527
Kastanjelaan,48,,,4285DD,Woudrichem,Woudrichem,Noord-Brabant,VBO,5.002692,51.810479
Kastanjelaan,50,,,4285DD,Woudrichem,Woudrichem,Noord-Brabant,VBO,5.002712,51.810430
Kastanjelaan,52,,,4285DD,Woudrichem,Woudrichem,Noord-Brabant,VBO,5.002752,51.810219
Kastanjelaan,54,,,4285DD,Woudrichem,Woudrichem,Noord-Brabant,VBO,5.002789,51.810137
Kastanjelaan,56,,,4285DD,Woudrichem,Woudrichem,Noord-Brabant,VBO,5.002875,51.810072
Kastanjelaan,58,,,4285DD,Woudrichem,Woudrichem,Noord-Brabant,VBO,5.002996,51.810035
Kastanjelaan,60,,,4285DD,Woudrichem,Woudrichem,Noord-Brabant,VBO,5.003073,51.810019
't Rond,1,a,,4285DE,Woudrichem,Woudrichem,Noord-Brabant,VBO,4.999257,51.809980
't Rond,1,b,,4285DE,Woudrichem,Woudrichem,Noord-Brabant,VBO,4.999512,51.809971
't Rond,1,,,4285DE,Woudrichem,Woudrichem,Noord-Brabant,VBO,4.999199,51.809606
't Rond,2,,,4285DE,Woudrichem,Woudrichem,Noord-Brabant,VBO,5.000602,51.809686
't Rond,3,,,4285DE,Woudrichem,Woudrichem,Noord-Brabant,VBO,5.000235,51.810239
't Rond,4,,,4285DE,Woudrichem,Woudrichem,Noord-Brabant,VBO,5.000217,51.810295
't Rond,5,,,4285DE,Woudrichem,Woudrichem,Noord-Brabant,VBO,5.000192,51.810340
't Rond,6,,,4285DE,Woudrichem,Woudrichem,Noord-Brabant,VBO,5.000154,51.810386
't Rond,7,,,4285DE,Woudrichem,Woudrichem,Noord-Brabant,VBO,5.000109,51.810432
't Rond,8,,,4285DE,Woudrichem,Woudrichem,Noord-Brabant,VBO,5.000003,51.810462
't Rond,9,,,4285DE,Woudrichem,Woudrichem,Noord-Brabant,VBO,5.000143,51.810525
't Rond,10,,,4285DE,Woudrichem,Woudrichem,Noord-Brabant,VBO,5.000262,51.810595
't Rond,11,,,4285DE,Woudrichem,Woudrichem,Noord-Brabant,VBO,5.000312,51.810633
't Rond,12,,,4285DE,Woudrichem,Woudrichem,Noord-Brabant,VBO,5.000353,51.810662
't Rond,13,,,4285DE,Woudrichem,Woudrichem,Noord-Brabant,VBO,5.000395,51.810696
't Rond,14,,,4285DE,Woudrichem,Woudrichem,Noord-Brabant,VBO,5.000443,51.810731
't Rond,15,,,4285DE,Woudrichem,Woudrichem,Noord-Brabant,VBO,4.998337,51.810655
't Rond,16,,,4285DE,Woudrichem,Woudrichem,Noord-Brabant,VBO,4.998337,51.810655
't Rond,17,,,4285DE,Woudrichem,Woudrichem,Noord-Brabant,VBO,4.998337,51.810655
't Rond,18,,,4285DE,Woudrichem,Woudrichem,Noord-Brabant,VBO,4.998337,51.810655
Larixlaan,1,,,4285DG,Woudrichem,Woudrichem,Noord-Brabant,VBO,5.002497,51.811400
Larixlaan,2,,,4285DG,Woudrichem,Woudrichem,Noord-Brabant,VBO,5.002465,51.811616
Larixlaan,3,,,4285DG,Woudrichem,Woudrichem,Noord-Brabant,VBO,5.002324,51.811390
Larixlaan,4,,,4285DG,Woudrichem,Woudrichem,Noord-Brabant,VBO,5.002268,51.811628
Larixlaan,5,,,4285DG,Woudrichem,Woudrichem,Noord-Brabant,VBO,5.002145,51.811403
Larixlaan,6,,,4285DG,Woudrichem,Woudrichem,Noord-Brabant,VBO,5.002038,51.811655
Larixlaan,7,,,4285DG,Woudrichem,Woudrichem,Noord-Brabant,VBO,5.001920,51.811408
Berkenlaan,1,,,4285DH,Woudrichem,Woudrichem,Noord-Brabant,VBO,5.004328,51.811711
Berkenlaan,2,,,4285DH,Woudrichem,Woudrichem,Noord-Brabant,VBO,5.004001,51.811849
Berkenlaan,3,,,4285DH,Woudrichem,Woudrichem,Noord-Brabant,VBO,5.004330,51.811643
Berkenlaan,4,,,4285DH,Woudrichem,Woudrichem,Noord-Brabant,VBO,5.003965,51.811701
Berkenlaan,5,,,4285DH,Woudrichem,Woudrichem,Noord-Brabant,VBO,5.004334,51.811393
Berkenlaan,6,,,4285DH,Woudrichem,Woudrichem,Noord-Brabant,VBO,5.003955,51.811572
Berkenlaan,7,,,4285DH,Woudrichem,Woudrichem,Noord-Brabant,VBO,5.004335,51.811323
Berkenlaan,8,,,4285DH,Woudrichem,Woudrichem,Noord-Brabant,VBO,5.003959,51.811352
Berkenlaan,9,,,4285DH,Woudrichem,Woudrichem,Noord-Brabant,VBO,5.004338,51.811127
Berkenlaan,10,,,4285DH,Woudrichem,Woudrichem,Noord-Brabant,VBO,5.003947,51.811202
Berkenlaan,11,,,4285DH,Woudrichem,Woudrichem,Noord-Brabant,VBO,5.004338,51.811043
Berkenlaan,12,,,4285DH,Woudrichem,Woudrichem,Noord-Brabant,VBO,5.003978,51.811058
Meidoornhof,1,,,4285DJ,Woudrichem,Woudrichem,Noord-Brabant,VBO,5.000748,51.810154
Meidoornhof,2,,,4285DJ,Woudrichem,Woudrichem,Noord-Brabant,VBO,5.000725,51.810050
Meidoornhof,3,,,4285DJ,Woudrichem,Woudrichem,Noord-Brabant,VBO,5.000828,51.810149
Meidoornhof,4,,,4285DJ,Woudrichem,Woudrichem,Noord-Brabant,VBO,5.000806,51.810035
Meidoornhof,5,,,4285DJ,Woudrichem,Woudrichem,Noord-Brabant,VBO,5.000911,51.810143
Meidoornhof,6,,,4285DJ,Woudrichem,Woudrichem,Noord-Brabant,VBO,5.000887,51.810021
Meidoornhof,7,,,4285DJ,Woudrichem,Woudrichem,Noord-Brabant,VBO,5.000993,51.810134
Meidoornhof,8,,,4285DJ,Woudrichem,Woudrichem,Noord-Brabant,VBO,5.000968,51.810010
Meidoornhof,9,,,4285DJ,Woudrichem,Woudrichem,Noord-Brabant,VBO,5.001076,51.810123
Meidoornhof,10,,,4285DJ,Woudrichem,Woudrichem,Noord-Brabant,VBO,5.001059,51.809999
Meidoornhof,11,,,4285DJ,Woudrichem,Woudrichem,Noord-Brabant,VBO,5.001269,51.810223
Meidoornhof,12,,,4285DJ,Woudrichem,Woudrichem,Noord-Brabant,VBO,5.001228,51.809981
Meidoornhof,13,,,4285DJ,Woudrichem,Woudrichem,Noord-Brabant,VBO,5.001271,51.810212
Meidoornhof,14,,,4285DJ,Woudrichem,Woudrichem,Noord-Brabant,VBO,5.001222,51.809966
Meidoornhof,15,,,4285DJ,Woudrichem,Woudrichem,Noord-Brabant,VBO,5.001267,51.810195
Meidoornhof,16,,,4285DJ,Woudrichem,Woudrichem,Noord-Brabant,VBO,5.001200,51.809956
Meidoornhof,17,,,4285DJ,Woudrichem,Woudrichem,Noord-Brabant,VBO,5.001281,51.810179
Meidoornhof,18,,,4285DJ,Woudrichem,Woudrichem,Noord-Brabant,VBO,5.001193,51.809944
Meidoornhof,19,,,4285DJ,Woudrichem,Woudrichem,Noord-Brabant,VBO,5.001286,51.810164
Meidoornhof,20,,,4285DJ,Woudrichem,Woudrichem,Noord-Brabant,VBO,5.001169,51.809931
Meidoornhof,21,,,4285DJ,Woudrichem,Woudrichem,Noord-Brabant,VBO,5.001282,51.810150
Meidoornhof,22,,,4285DJ,Woudrichem,Woudrichem,Noord-Brabant,VBO,5.001148,51.809918
Meidoornhof,23,,,4285DJ,Woudrichem,Woudrichem,Noord-Brabant,VBO,5.001293,51.810130
Meidoornhof,24,,,4285DJ,Woudrichem,Woudrichem,Noord-Brabant,VBO,5.001135,51.809905
Meidoornhof,25,,,4285DJ,Woudrichem,Woudrichem,Noord-Brabant,VBO,5.001316,51.810116
Meidoornhof,26,,,4285DJ,Woudrichem,Woudrichem,Noord-Brabant,VBO,5.001118,51.809892
Meidoornhof,27,,,4285DJ,Woudrichem,Woudrichem,Noord-Brabant,VBO,5.001302,51.810097
Meidoornhof,28,,,4285DJ,Woudrichem,Woudrichem,Noord-Brabant,VBO,5.001109,51.809877
Goudenregenhof,1,,,4285DK,Woudrichem,Woudrichem,Noord-Brabant,VBO,5.000537,51.810661
Goudenregenhof,2,,,4285DK,Woudrichem,Woudrichem,Noord-Brabant,VBO,5.000491,51.810619
Goudenregenhof,3,,,4285DK,Woudrichem,Woudrichem,Noord-Brabant,VBO,5.000471,51.810580
Goudenregenhof,4,,,4285DK,Woudrichem,Woudrichem,Noord-Brabant,VBO,5.000356,51.810541
Goudenregenhof,5,,,4285DK,Woudrichem,Woudrichem,Noord-Brabant,VBO,5.000329,51.810513
Goudenregenhof,6,,,4285DK,Woudrichem,Woudrichem,Noord-Brabant,VBO,5.000317,51.810484
Goudenregenhof,7,,,4285DK,Woudrichem,Woudrichem,Noord-Brabant,VBO,5.000324,51.810458
Goudenregenhof,8,,,4285DK,Woudrichem,Woudrichem,Noord-Brabant,VBO,5.000325,51.810425
Goudenregenhof,9,,,4285DK,Woudrichem,Woudrichem,Noord-Brabant,VBO,5.000327,51.810390
Goudenregenhof,10,,,4285DK,Woudrichem,Woudrichem,Noord-Brabant,VBO,5.000348,51.810344
Goudenregenhof,11,,,4285DK,Woudrichem,Woudrichem,Noord-Brabant,VBO,5.000363,51.810320
Goudenregenhof,12,,,4285DK,Woudrichem,Woudrichem,Noord-Brabant,VBO,5.000346,51.810284
Goudenregenhof,13,,,4285DK,Woudrichem,Woudrichem,Noord-Brabant,VBO,5.000412,51.810255
Goudenregenhof,14,,,4285DK,Woudrichem,Woudrichem,Noord-Brabant,VBO,5.000485,51.810246
Goudenregenhof,15,,,4285DK,Woudrichem,Woudrichem,Noord-Brabant,VBO,5.000567,51.810239
Goudenregenhof,16,,,4285DK,Woudrichem,Woudrichem,Noord-Brabant,VBO,5.000640,51.810229
Benjaminslaan,1,a,,4285DL,Woudrichem,Woudrichem,Noord-Brabant,VBO,5.001391,51.811313
Benjaminslaan,2,,,4285DL,Woudrichem,Woudrichem,Noord-Brabant,VBO,5.000264,51.811163
Benjaminslaan,4,,,4285DL,Woudrichem,Woudrichem,Noord-Brabant,VBO,5.000347,51.811200
Benjaminslaan,6,,,4285DL,Woudrichem,Woudrichem,Noord-Brabant,VBO,5.000246,51.811207
Benjaminslaan,8,,,4285DL,Woudrichem,Woudrichem,Noord-Brabant,VBO,5.000254,51.811226
Benjaminslaan,10,,,4285DL,Woudrichem,Woudrichem,Noord-Brabant,VBO,5.000260,51.811244
Benjaminslaan,12,,,4285DL,Woudrichem,Woudrichem,Noord-Brabant,VBO,5.000285,51.811266
Benjaminslaan,14,,,4285DL,Woudrichem,Woudrichem,Noord-Brabant,VBO,5.000312,51.811290
Benjaminslaan,16,,,4285DL,Woudrichem,Woudrichem,Noord-Brabant,VBO,5.000327,51.811307
Benjaminslaan,18,,,4285DL,Woudrichem,Woudrichem,Noord-Brabant,VBO,5.000343,51.811329
Benjaminslaan,20,,,4285DL,Woudrichem,Woudrichem,Noord-Brabant,VBO,5.000358,51.811351
Benjaminslaan,22,,,4285DL,Woudrichem,Woudrichem,Noord-Brabant,VBO,5.000365,51.811366
Benjaminslaan,24,,,4285DL,Woudrichem,Woudrichem,Noord-Brabant,VBO,5.000368,51.811386
Postweide,1,,,4285DM,Woudrichem,Woudrichem,Noord-Brabant,VBO,5.001739,51.811079
Postweide,3,,,4285DM,Woudrichem,Woudrichem,Noord-Brabant,VBO,5.001897,51.811056
Postweide,5,,,4285DM,Woudrichem,Woudrichem,Noord-Brabant,VBO,5.002061,51.811036
Postweide,7,,,4285DM,Woudrichem,Woudrichem,Noord-Brabant,VBO,5.002227,51.811037
Postweide,9,,,4285DM,Woudrichem,Woudrichem,Noord-Brabant,VBO,5.002404,51.811032
Postweide,11,,,4285DM,Woudrichem,Woudrichem,Noord-Brabant,VBO,5.002476,51.811032
Postweide,21,,,4285DM,Woudrichem,Woudrichem,Noord-Brabant,VBO,5.004817,51.810852
Postweide,23,,,4285DM,Woudrichem,Woudrichem,Noord-Brabant,VBO,5.004817,51.810805
Postweide,25,,,4285DM,Woudrichem,Woudrichem,Noord-Brabant,VBO,5.004819,51.810681
Postweide,27,,,4285DM,Woudrichem,Woudrichem,Noord-Brabant,VBO,5.004820,51.810631
Postweide,29,,,4285DM,Woudrichem,Woudrichem,Noord-Brabant,VBO,5.004823,51.810507
Postweide,31,,,4285DM,Woudrichem,Woudrichem,Noord-Brabant,VBO,5.004823,51.810454
Postweide,33,,,4285DM,Woudrichem,Woudrichem,Noord-Brabant,VBO,5.004973,51.810263
Postweide,35,,,4285DM,Woudrichem,Woudrichem,Noord-Brabant,VBO,5.004736,51.810256
Postweide,37,,,4285DM,Woudrichem,Woudrichem,Noord-Brabant,VBO,5.004437,51.810245
Postweide,2,,,4285DN,Woudrichem,Woudrichem,Noord-Brabant,VBO,5.001617,51.810870
Postweide,4,,,4285DN,Woudrichem,Woudrichem,Noord-Brabant,VBO,5.001698,51.810853
Postweide,6,,,4285DN,Woudrichem,Woudrichem,Noord-Brabant,VBO,5.001910,51.810825
Postweide,8,,,4285DN,Woudrichem,Woudrichem,Noord-Brabant,VBO,5.001995,51.810817
Postweide,10,,,4285DN,Woudrichem,Woudrichem,Noord-Brabant,VBO,5.002217,51.810814
Postweide,12,,,4285DN,Woudrichem,Woudrichem,Noord-Brabant,VBO,5.002302,51.810815
Postweide,14,,,4285DN,Woudrichem,Woudrichem,Noord-Brabant,VBO,5.003939,51.810818
Postweide,16,,,4285DN,Woudrichem,Woudrichem,Noord-Brabant,VBO,5.004015,51.810818
Postweide,18,,,4285DN,Woudrichem,Woudrichem,Noord-Brabant,VBO,5.004091,51.810819
Postweide,20,,,4285DN,Woudrichem,Woudrichem,Noord-Brabant,VBO,5.004170,51.810819
Postweide,22,,,4285DN,Woudrichem,Woudrichem,Noord-Brabant,VBO,5.004246,51.810819
Postweide,24,,,4285DN,Woudrichem,Woudrichem,Noord-Brabant,VBO,5.004411,51.810820
Postweide,26,,,4285DN,Woudrichem,Woudrichem,Noord-Brabant,VBO,5.004492,51.810820
Postweide,28,,,4285DN,Woudrichem,Woudrichem,Noord-Brabant,VBO,5.004501,51.810485
Postweide,30,,,4285DN,Woudrichem,Woudrichem,Noord-Brabant,VBO,5.004422,51.810485
Postweide,32,,,4285DN,Woudrichem,Woudrichem,Noord-Brabant,VBO,5.004343,51.810484
Postweide,34,,,4285DN,Woudrichem,Woudrichem,Noord-Brabant,VBO,5.004263,51.810484
Postweide,36,,,4285DN,Woudrichem,Woudrichem,Noord-Brabant,VBO,5.004150,51.810483
Postweide,38,,,4285DN,Woudrichem,Woudrichem,Noord-Brabant,VBO,5.004070,51.810482
Postweide,40,,,4285DN,Woudrichem,Woudrichem,Noord-Brabant,VBO,5.003990,51.810482
Postweide,42,,,4285DN,Woudrichem,Woudrichem,Noord-Brabant,VBO,5.003911,51.810481
Postweide,44,,,4285DN,Woudrichem,Woudrichem,Noord-Brabant,VBO,5.002259,51.810436
Postweide,46,,,4285DN,Woudrichem,Woudrichem,Noord-Brabant,VBO,5.002178,51.810420
Postweide,48,,,4285DN,Woudrichem,Woudrichem,Noord-Brabant,VBO,5.002012,51.810347
Postweide,50,,,4285DN,Woudrichem,Woudrichem,Noord-Brabant,VBO,5.001954,51.810308
Acacialaan,2,,,4285DP,Woudrichem,Woudrichem,Noord-Brabant,VBO,5.003857,51.812176
Acacialaan,4,,,4285DP,Woudrichem,Woudrichem,Noord-Brabant,VBO,5.003935,51.812146
Acacialaan,6,,,4285DP,Woudrichem,Woudrichem,Noord-Brabant,VBO,5.004103,51.812081
Acacialaan,8,,,4285DP,Woudrichem,Woudrichem,Noord-Brabant,VBO,5.004181,51.812051
Acacialaan,10,,,4285DP,Woudrichem,Woudrichem,Noord-Brabant,VBO,5.004527,51.811948
Acacialaan,12,,,4285DP,Woudrichem,Woudrichem,Noord-Brabant,VBO,5.004639,51.811906
Acacialaan,14,,,4285DP,Woudrichem,Woudrichem,Noord-Brabant,VBO,5.004870,51.811828
Acacialaan,16,,,4285DP,Woudrichem,Woudrichem,Noord-Brabant,VBO,5.004983,51.811793
Acacialaan,18,a,,4285DP,Woudrichem,Woudrichem,Noord-Brabant,VBO,5.005341,51.811692
Acacialaan,18,,,4285DP,Woudrichem,Woudrichem,Noord-Brabant,VBO,5.005217,51.811725
Acacialaan,20,,,4285DP,Woudrichem,Woudrichem,Noord-Brabant,VBO,5.008132,51.810822
Lindenlaan,1,,,4285DR,Woudrichem,Woudrichem,Noord-Brabant,VBO,5.004626,51.811335
Lindenlaan,2,,,4285DR,Woudrichem,Woudrichem,Noord-Brabant,VBO,5.004680,51.811106
Lindenlaan,3,,,4285DR,Woudrichem,Woudrichem,Noord-Brabant,VBO,5.004758,51.811335
Lindenlaan,4,,,4285DR,Woudrichem,Woudrichem,Noord-Brabant,VBO,5.004745,51.811107
Lindenlaan,5,,,4285DR,Woudrichem,Woudrichem,Noord-Brabant,VBO,5.004949,51.811337
Lindenlaan,6,,,4285DR,Woudrichem,Woudrichem,Noord-Brabant,VBO,5.004832,51.811107
Lindenlaan,7,,,4285DR,Woudrichem,Woudrichem,Noord-Brabant,VBO,5.005064,51.811337
Lindenlaan,8,,,4285DR,Woudrichem,Woudrichem,Noord-Brabant,VBO,5.004898,51.811108
Lindenlaan,10,,,4285DR,Woudrichem,Woudrichem,Noord-Brabant,VBO,5.005008,51.811109
Lindenlaan,12,,,4285DR,Woudrichem,Woudrichem,Noord-Brabant,VBO,5.005103,51.811110
Eikenlaan,1,,,4285DS,Woudrichem,Woudrichem,Noord-Brabant,VBO,5.004323,51.810018
Eikenlaan,2,,,4285DS,Woudrichem,Woudrichem,Noord-Brabant,VBO,5.004081,51.810244
Eikenlaan,3,,,4285DS,Woudrichem,Woudrichem,Noord-Brabant,VBO,5.004211,51.809872
Eikenlaan,4,,,4285DS,Woudrichem,Woudrichem,Noord-Brabant,VBO,5.004036,51.810067
Eikenlaan,5,,,4285DS,Woudrichem,Woudrichem,Noord-Brabant,VBO,5.004025,51.809719
Eikenlaan,6,,,4285DS,Woudrichem,Woudrichem,Noord-Brabant,VBO,5.003944,51.809945
Eikenlaan,7,,,4285DS,Woudrichem,Woudrichem,Noord-Brabant,VBO,5.003855,51.809571
Eikenlaan,8,,,4285DS,Woudrichem,Woudrichem,Noord-Brabant,VBO,5.003805,51.809832
Eikenlaan,9,,,4285DS,Woudrichem,Woudrichem,Noord-Brabant,VBO,5.003561,51.809501
Eikenlaan,10,,,4285DS,Woudrichem,Woudrichem,Noord-Brabant,VBO,5.003660,51.809758
Eikenlaan,11,,,4285DS,Woudrichem,Woudrichem,Noord-Brabant,VBO,5.003420,51.809641
Iepenlaan,1,,,4285DT,Woudrichem,Woudrichem,Noord-Brabant,VBO,5.001268,51.810953
Iepenlaan,3,,,4285DT,Woudrichem,Woudrichem,Noord-Brabant,VBO,5.001157,51.810876
Iepenlaan,5,,,4285DT,Woudrichem,Woudrichem,Noord-Brabant,VBO,5.001027,51.810791
Iepenlaan,7,,,4285DT,Woudrichem,Woudrichem,Noord-Brabant,VBO,5.001381,51.810600
Iepenlaan,9,,,4285DT,Woudrichem,Woudrichem,Noord-Brabant,VBO,5.001626,51.810495
Postweide,91,,,4285DV,Woudrichem,Woudrichem,Noord-Brabant,VBO,4.999540,51.809307
Postweide,93,,,4285DV,Woudrichem,Woudrichem,Noord-Brabant,VBO,4.999549,51.809292
Postweide,95,,,4285DV,Woudrichem,Woudrichem,Noord-Brabant,VBO,4.999571,51.809281
Postweide,97,,,4285DV,Woudrichem,Woudrichem,Noord-Brabant,VBO,4.999585,51.809271
Postweide,99,,,4285DV,Woudrichem,Woudrichem,Noord-Brabant,VBO,4.999601,51.809257
Postweide,101,,,4285DV,Woudrichem,Woudrichem,Noord-Brabant,VBO,4.999615,51.809244
Postweide,103,,,4285DV,Woudrichem,Woudrichem,Noord-Brabant,VBO,4.999641,51.809231
Postweide,105,,,4285DV,Woudrichem,Woudrichem,Noord-Brabant,VBO,4.999672,51.809217
Postweide,107,,,4285DV,Woudrichem,Woudrichem,Noord-Brabant,VBO,4.999706,51.809202
Postweide,109,,,4285DV,Woudrichem,Woudrichem,Noord-Brabant,VBO,4.999728,51.809190
Postweide,111,,,4285DV,Woudrichem,Woudrichem,Noord-Brabant,VBO,4.999768,51.809177
Postweide,113,,,4285DV,Woudrichem,Woudrichem,Noord-Brabant,VBO,4.999788,51.809167
Postweide,115,,,4285DV,Woudrichem,Woudrichem,Noord-Brabant,VBO,4.999803,51.809158
Postweide,117,,,4285DV,Woudrichem,Woudrichem,Noord-Brabant,VBO,4.999846,51.809143
Postweide,119,,,4285DV,Woudrichem,Woudrichem,Noord-Brabant,VBO,4.999882,51.809131
Postweide,121,,,4285DV,Woudrichem,Woudrichem,Noord-Brabant,VBO,4.999928,51.809117
Postweide,123,,,4285DV,Woudrichem,Woudrichem,Noord-Brabant,VBO,4.999976,51.809104
Postweide,125,,,4285DV,Woudrichem,Woudrichem,Noord-Brabant,VBO,5.000015,51.809091
Postweide,127,,,4285DV,Woudrichem,Woudrichem,Noord-Brabant,VBO,4.999933,51.809082
Postweide,129,,,4285DV,Woudrichem,Woudrichem,Noord-Brabant,VBO,4.999942,51.809067
Postweide,131,,,4285DV,Woudrichem,Woudrichem,Noord-Brabant,VBO,4.999957,51.809052
Postweide,133,,,4285DV,Woudrichem,Woudrichem,Noord-Brabant,VBO,4.999970,51.809038
Postweide,135,,,4285DV,Woudrichem,Woudrichem,Noord-Brabant,VBO,5.000174,51.809179
Postweide,137,,,4285DV,Woudrichem,Woudrichem,Noord-Brabant,VBO,4.999953,51.809257
Bastion,1,,,4285EB,Woudrichem,Woudrichem,Noord-Brabant,VBO,5.001264,51.808300
Bastion,2,,,4285EB,Woudrichem,Woudrichem,Noord-Brabant,VBO,5.000394,51.808471
Bastion,3,,,4285EB,Woudrichem,Woudrichem,Noord-Brabant,VBO,5.001447,51.808193
Bastion,4,,,4285EB,Woudrichem,Woudrichem,Noord-Brabant,VBO,5.000441,51.808422
Bastion,5,,,4285EB,Woudrichem,Woudrichem,Noord-Brabant,VBO,5.001509,51.808156
Bastion,6,,,4285EB,Woudrichem,Woudrichem,Noord-Brabant,VBO,5.000597,51.808340
Bastion,8,,,4285EB,Woudrichem,Woudrichem,Noord-Brabant,VBO,5.001027,51.808114
Bastion,10,,,4285EB,Woudrichem,Woudrichem,Noord-Brabant,VBO,5.001164,51.808022
Bastion,12,,,4285EB,Woudrichem,Woudrichem,Noord-Brabant,VBO,5.001230,51.807989
Bastion,14,,,4285EB,Woudrichem,Woudrichem,Noord-Brabant,VBO,5.001291,51.807950
Schans,1,,,4285EC,Woudrichem,Woudrichem,Noord-Brabant,VBO,5.000892,51.807882
Schans,2,,,4285EC,Woudrichem,Woudrichem,Noord-Brabant,VBO,5.000299,51.808198
Schans,3,,,4285EC,Woudrichem,Woudrichem,Noord-Brabant,VBO,5.000797,51.807817
Schans,4,,,4285EC,Woudrichem,Woudrichem,Noord-Brabant,VBO,5.000224,51.808156
Schans,5,,,4285EC,Woudrichem,Woudrichem,Noord-Brabant,VBO,5.000762,51.807794
Schans,6,,,4285EC,Woudrichem,Woudrichem,Noord-Brabant,VBO,5.000184,51.808126
Schans,7,,,4285EC,Woudrichem,Woudrichem,Noord-Brabant,VBO,5.000658,51.807759
Schans,8,,,4285EC,Woudrichem,Woudrichem,Noord-Brabant,VBO,5.000130,51.808092
Schans,9,,,4285EC,Woudrichem,Woudrichem,Noord-Brabant,VBO,5.000570,51.807681
Schans,10,,,4285EC,Woudrichem,Woudrichem,Noord-Brabant,VBO,5.000016,51.808024
Schans,11,,,4285EC,Woudrichem,Woudrichem,Noord-Brabant,VBO,5.000496,51.807656
Schans,12,,,4285EC,Woudrichem,Woudrichem,Noord-Brabant,VBO,4.999964,51.807978
Schans,13,,,4285EC,Woudrichem,Woudrichem,Noord-Brabant,VBO,5.000449,51.807625
Schans,14,,,4285EC,Woudrichem,Woudrichem,Noord-Brabant,VBO,4.999925,51.807950
Schans,15,,,4285EC,Woudrichem,Woudrichem,Noord-Brabant,VBO,5.000400,51.807571
Schans,16,,,4285EC,Woudrichem,Woudrichem,Noord-Brabant,VBO,4.999872,51.807916
Schans,17,,,4285EC,Woudrichem,Woudrichem,Noord-Brabant,VBO,5.000292,51.807487
Schans,18,,,4285EC,Woudrichem,Woudrichem,Noord-Brabant,VBO,4.999718,51.807816
Schans,19,,,4285EC,Woudrichem,Woudrichem,Noord-Brabant,VBO,5.000211,51.807462
Schans,20,,,4285EC,Woudrichem,Woudrichem,Noord-Brabant,VBO,4.999681,51.807783
Schans,21,,,4285EC,Woudrichem,Woudrichem,Noord-Brabant,VBO,5.000162,51.807437
Schans,22,,,4285EC,Woudrichem,Woudrichem,Noord-Brabant,VBO,4.999636,51.807758
Schans,23,,,4285EC,Woudrichem,Woudrichem,Noord-Brabant,VBO,5.000114,51.807380
Schans,24,,,4285EC,Woudrichem,Woudrichem,Noord-Brabant,VBO,4.999571,51.807718
Schans,25,,,4285EC,Woudrichem,Woudrichem,Noord-Brabant,VBO,5.000026,51.807318
Schans,26,,,4285EC,Woudrichem,Woudrichem,Noord-Brabant,VBO,4.999466,51.807648
Schans,27,,,4285EC,Woudrichem,Woudrichem,Noord-Brabant,VBO,4.999962,51.807278
Schans,28,,,4285EC,Woudrichem,Woudrichem,Noord-Brabant,VBO,4.999401,51.807608
Schans,29,,,4285EC,Woudrichem,Woudrichem,Noord-Brabant,VBO,4.999917,51.807246
Schans,30,,,4285EC,Woudrichem,Woudrichem,Noord-Brabant,VBO,4.999325,51.807573
Schans,31,,,4285EC,Woudrichem,Woudrichem,Noord-Brabant,VBO,4.999862,51.807215
Schans,32,,,4285EC,Woudrichem,Woudrichem,Noord-Brabant,VBO,4.999271,51.807538
Ravelijn,2,,,4285ED,Woudrichem,Woudrichem,Noord-Brabant,VBO,5.002414,51.809048
Ravelijn,4,,,4285ED,Woudrichem,Woudrichem,Noord-Brabant,VBO,5.002565,51.808960
Ravelijn,6,,,4285ED,Woudrichem,Woudrichem,Noord-Brabant,VBO,5.002628,51.808923
Ravelijn,8,,,4285ED,Woudrichem,Woudrichem,Noord-Brabant,VBO,5.002832,51.808769
Ravelijn,10,,,4285ED,Woudrichem,Woudrichem,Noord-Brabant,VBO,5.002835,51.808712
Ravelijn,12,,,4285ED,Woudrichem,Woudrichem,Noord-Brabant,VBO,5.002509,51.808455
Ravelijn,14,,,4285ED,Woudrichem,Woudrichem,Noord-Brabant,VBO,5.002192,51.808247
Ravelijn,16,,,4285ED,Woudrichem,Woudrichem,Noord-Brabant,VBO,5.002028,51.808098
Ravelijn,18,,,4285ED,Woudrichem,Woudrichem,Noord-Brabant,VBO,5.001968,51.808059
Ravelijn,20,,,4285ED,Woudrichem,Woudrichem,Noord-Brabant,VBO,5.001839,51.807974
Ravelijn,22,a,,4285ED,Woudrichem,Woudrichem,Noord-Brabant,VBO,5.001383,51.807675
Ravelijn,22,,,4285ED,Woudrichem,Woudrichem,Noord-Brabant,VBO,5.001555,51.807782
Ravelijn,24,a,,4285ED,Woudrichem,Woudrichem,Noord-Brabant,VBO,5.001268,51.807609
Ravelijn,24,,,4285ED,Woudrichem,Woudrichem,Noord-Brabant,VBO,5.001320,51.807641
Ravelijn,26,a,,4285ED,Woudrichem,Woudrichem,Noord-Brabant,VBO,5.001153,51.807539
Ravelijn,26,,,4285ED,Woudrichem,Woudrichem,Noord-Brabant,VBO,5.001217,51.807579
Ravelijn,28,,,4285ED,Woudrichem,Woudrichem,Noord-Brabant,VBO,5.000995,51.807450
Ravelijn,30,a,,4285ED,Woudrichem,Woudrichem,Noord-Brabant,VBO,5.000764,51.807315
Ravelijn,30,,,4285ED,Woudrichem,Woudrichem,Noord-Brabant,VBO,5.000925,51.807406
Ravelijn,32,,,4285ED,Woudrichem,Woudrichem,Noord-Brabant,VBO,5.000705,51.807277
Ravelijn,34,,,4285ED,Woudrichem,Woudrichem,Noord-Brabant,VBO,5.000650,51.807246
Ravelijn,36,a,,4285ED,Woudrichem,Woudrichem,Noord-Brabant,VBO,5.000539,51.807179
Ravelijn,36,,,4285ED,Woudrichem,Woudrichem,Noord-Brabant,VBO,5.000597,51.807218
Ravelijn,38,,,4285ED,Woudrichem,Woudrichem,Noord-Brabant,VBO,5.000340,51.807103
Ravelijn,40,,,4285ED,Woudrichem,Woudrichem,Noord-Brabant,VBO,5.000096,51.807101
Ravelijn,42,,,4285ED,Woudrichem,Woudrichem,Noord-Brabant,VBO,4.999082,51.807806
Ravelijn,44,,,4285ED,Woudrichem,Woudrichem,Noord-Brabant,VBO,4.999105,51.807863
Ravelijn,46,,,4285ED,Woudrichem,Woudrichem,Noord-Brabant,VBO,4.999266,51.808001
Ravelijn,48,,,4285ED,Woudrichem,Woudrichem,Noord-Brabant,VBO,4.999320,51.808045
Ravelijn,50,,,4285ED,Woudrichem,Woudrichem,Noord-Brabant,VBO,4.999465,51.808150
Ravelijn,52,,,4285ED,Woudrichem,Woudrichem,Noord-Brabant,VBO,4.999531,51.808186
Ravelijn,54,,,4285ED,Woudrichem,Woudrichem,Noord-Brabant,VBO,4.999667,51.808276
Ravelijn,56,,,4285ED,Woudrichem,Woudrichem,Noord-Brabant,VBO,4.999735,51.808317
Ravelijn,58,,,4285ED,Woudrichem,Woudrichem,Noord-Brabant,VBO,4.999872,51.808418
Ravelijn,60,,,4285ED,Woudrichem,Woudrichem,Noord-Brabant,VBO,4.999949,51.808466
Ravelijn,62,,,4285ED,Woudrichem,Woudrichem,Noord-Brabant,VBO,5.000074,51.808553
Ravelijn,64,,,4285ED,Woudrichem,Woudrichem,Noord-Brabant,VBO,5.000167,51.808605
Ravelijn,1,,,4285EE,Woudrichem,Woudrichem,Noord-Brabant,VBO,5.002025,51.809707
Ravelijn,3,a,,4285EE,Woudrichem,Woudrichem,Noord-Brabant,VBO,5.002829,51.809460
Ravelijn,3,,,4285EE,Woudrichem,Woudrichem,Noord-Brabant,VBO,5.002775,51.809416
Ravelijn,5,a,,4285EE,Woudrichem,Woudrichem,Noord-Brabant,VBO,5.002892,51.809422
Ravelijn,5,,,4285EE,Woudrichem,Woudrichem,Noord-Brabant,VBO,5.002833,51.809383
Ravelijn,7,a,,4285EE,Woudrichem,Woudrichem,Noord-Brabant,VBO,5.003023,51.809343
Ravelijn,7,,,4285EE,Woudrichem,Woudrichem,Noord-Brabant,VBO,5.002968,51.809301
Ravelijn,9,a,,4285EE,Woudrichem,Woudrichem,Noord-Brabant,VBO,5.003093,51.809305
Ravelijn,9,,,4285EE,Woudrichem,Woudrichem,Noord-Brabant,VBO,5.003024,51.809264
Ravelijn,11,a,,4285EE,Woudrichem,Woudrichem,Noord-Brabant,VBO,5.003149,51.809173
Ravelijn,11,,,4285EE,Woudrichem,Woudrichem,Noord-Brabant,VBO,5.003084,51.809135
Ravelijn,13,a,,4285EE,Woudrichem,Woudrichem,Noord-Brabant,VBO,5.003209,51.809137
Ravelijn,13,,,4285EE,Woudrichem,Woudrichem,Noord-Brabant,VBO,5.003156,51.809097
Ravelijn,15,,,4285EE,Woudrichem,Woudrichem,Noord-Brabant,VBO,5.003528,51.808837
Ravelijn,17,,,4285EE,Woudrichem,Woudrichem,Noord-Brabant,VBO,5.003529,51.808817
Ravelijn,19,,,4285EE,Woudrichem,Woudrichem,Noord-Brabant,VBO,5.003530,51.808793
Ravelijn,21,,,4285EE,Woudrichem,Woudrichem,Noord-Brabant,VBO,5.003530,51.808770
Ravelijn,23,,,4285EE,Woudrichem,Woudrichem,Noord-Brabant,VBO,5.003533,51.808748
Ravelijn,25,,,4285EE,Woudrichem,Woudrichem,Noord-Brabant,VBO,5.003530,51.808727
Ravelijn,27,,,4285EE,Woudrichem,Woudrichem,Noord-Brabant,VBO,5.003534,51.808707
Ravelijn,29,,,4285EE,Woudrichem,Woudrichem,Noord-Brabant,VBO,5.003154,51.808490
Ravelijn,31,,,4285EE,Woudrichem,Woudrichem,Noord-Brabant,VBO,5.002990,51.808371
Ravelijn,33,,,4285EE,Woudrichem,Woudrichem,Noord-Brabant,VBO,5.002821,51.808229
Ravelijn,35,,,4285EE,Woudrichem,Woudrichem,Noord-Brabant,VBO,5.002640,51.808103
Ravelijn,37,,,4285EE,Woudrichem,Woudrichem,Noord-Brabant,VBO,5.002474,51.807981
Ravelijn,39,,,4285EE,Woudrichem,Woudrichem,Noord-Brabant,VBO,5.002303,51.807862
Ravelijn,41,,,4285EE,Woudrichem,Woudrichem,Noord-Brabant,VBO,5.001744,51.807440
Ravelijn,53,,,4285EE,Woudrichem,Woudrichem,Noord-Brabant,VBO,5.000343,51.806586
Ravelijn,55,,,4285EE,Woudrichem,Woudrichem,Noord-Brabant,VBO,5.000343,51.806586
Ravelijn,57,,,4285EE,Woudrichem,Woudrichem,Noord-Brabant,VBO,5.000343,51.806586
Ravelijn,59,,,4285EE,Woudrichem,Woudrichem,Noord-Brabant,VBO,5.000343,51.806586
Ravelijn,61,,,4285EE,Woudrichem,Woudrichem,Noord-Brabant,VBO,5.000343,51.806586
Ravelijn,63,,,4285EE,Woudrichem,Woudrichem,Noord-Brabant,VBO,5.000343,51.806586
Ravelijn,65,,,4285EE,Woudrichem,Woudrichem,Noord-Brabant,VBO,5.000343,51.806586
Citadel,1,,,4285EG,Woudrichem,Woudrichem,Noord-Brabant,VBO,5.001426,51.809001
Citadel,3,,,4285EG,Woudrichem,Woudrichem,Noord-Brabant,VBO,5.001418,51.809027
Citadel,5,,,4285EG,Woudrichem,Woudrichem,Noord-Brabant,VBO,5.001414,51.809051
Citadel,7,,,4285EG,Woudrichem,Woudrichem,Noord-Brabant,VBO,5.001427,51.809072
Citadel,9,,,4285EG,Woudrichem,Woudrichem,Noord-Brabant,VBO,5.001429,51.809094
Citadel,11,,,4285EG,Woudrichem,Woudrichem,Noord-Brabant,VBO,5.001438,51.809115
Citadel,13,,,4285EG,Woudrichem,Woudrichem,Noord-Brabant,VBO,5.001438,51.809138
Citadel,15,,,4285EG,Woudrichem,Woudrichem,Noord-Brabant,VBO,5.001444,51.809161
Citadel,17,,,4285EG,Woudrichem,Woudrichem,Noord-Brabant,VBO,5.001456,51.809185
Citadel,19,,,4285EG,Woudrichem,Woudrichem,Noord-Brabant,VBO,5.001446,51.809212
Citadel,21,,,4285EG,Woudrichem,Woudrichem,Noord-Brabant,VBO,5.001446,51.809234
Citadel,23,,,4285EG,Woudrichem,Woudrichem,Noord-Brabant,VBO,5.001455,51.809252
Citadel,25,,,4285EG,Woudrichem,Woudrichem,Noord-Brabant,VBO,5.001465,51.809272
Citadel,27,,,4285EG,Woudrichem,Woudrichem,Noord-Brabant,VBO,5.001459,51.809296
Citadel,29,,,4285EG,Woudrichem,Woudrichem,Noord-Brabant,VBO,5.001450,51.809318
Citadel,31,,,4285EG,Woudrichem,Woudrichem,Noord-Brabant,VBO,5.001439,51.809340
Citadel,33,,,4285EG,Woudrichem,Woudrichem,Noord-Brabant,VBO,5.001435,51.809361
Citadel,35,,,4285EG,Woudrichem,Woudrichem,Noord-Brabant,VBO,5.001442,51.809380
Citadel,37,,,4285EG,Woudrichem,Woudrichem,Noord-Brabant,VBO,5.001485,51.809399
Citadel,39,,,4285EG,Woudrichem,Woudrichem,Noord-Brabant,VBO,5.001522,51.809421
Citadel,41,,,4285EG,Woudrichem,Woudrichem,Noord-Brabant,VBO,5.001551,51.809438
Citadel,43,,,4285EG,Woudrichem,Woudrichem,Noord-Brabant,VBO,5.001583,51.809457
Citadel,45,,,4285EG,Woudrichem,Woudrichem,Noord-Brabant,VBO,5.001613,51.809474
Citadel,47,,,4285EG,Woudrichem,Woudrichem,Noord-Brabant,VBO,5.001603,51.809080
Citadel,49,,,4285EG,Woudrichem,Woudrichem,Noord-Brabant,VBO,5.001611,51.809101
Citadel,51,,,4285EG,Woudrichem,Woudrichem,Noord-Brabant,VBO,5.001619,51.809116
Citadel,53,,,4285EG,Woudrichem,Woudrichem,Noord-Brabant,VBO,5.001616,51.809139
Citadel,55,,,4285EG,Woudrichem,Woudrichem,Noord-Brabant,VBO,5.001634,51.809158
Citadel,57,,,4285EG,Woudrichem,Woudrichem,Noord-Brabant,VBO,5.001625,51.809181
Citadel,59,,,4285EG,Woudrichem,Woudrichem,Noord-Brabant,VBO,5.001626,51.809202
Citadel,61,,,4285EG,Woudrichem,Woudrichem,Noord-Brabant,VBO,5.001636,51.809228
Citadel,63,,,4285EG,Woudrichem,Woudrichem,Noord-Brabant,VBO,5.001637,51.809249
Citadel,65,,,4285EG,Woudrichem,Woudrichem,Noord-Brabant,VBO,5.001636,51.809269
Citadel,67,,,4285EG,Woudrichem,Woudrichem,Noord-Brabant,VBO,5.001632,51.809291
Citadel,69,,,4285EG,Woudrichem,Woudrichem,Noord-Brabant,VBO,5.001622,51.809314
Citadel,71,,,4285EG,Woudrichem,Woudrichem,Noord-Brabant,VBO,5.001621,51.809335
Citadel,73,,,4285EG,Woudrichem,Woudrichem,Noord-Brabant,VBO,5.001641,51.809357
Citadel,75,,,4285EG,Woudrichem,Woudrichem,Noord-Brabant,VBO,5.001683,51.809382
Citadel,77,,,4285EG,Woudrichem,Woudrichem,Noord-Brabant,VBO,5.001708,51.809399
Citadel,2,,,4285EH,Woudrichem,Woudrichem,Noord-Brabant,VBO,5.000615,51.809010
Citadel,4,,,4285EH,Woudrichem,Woudrichem,Noord-Brabant,VBO,5.000618,51.808999
Citadel,6,,,4285EH,Woudrichem,Woudrichem,Noord-Brabant,VBO,5.000599,51.808990
Citadel,8,,,4285EH,Woudrichem,Woudrichem,Noord-Brabant,VBO,5.000586,51.808984
Citadel,10,,,4285EH,Woudrichem,Woudrichem,Noord-Brabant,VBO,5.000576,51.808974
Citadel,12,,,4285EH,Woudrichem,Woudrichem,Noord-Brabant,VBO,5.000554,51.808963
Citadel,14,,,4285EH,Woudrichem,Woudrichem,Noord-Brabant,VBO,5.000540,51.808951
Citadel,16,,,4285EH,Woudrichem,Woudrichem,Noord-Brabant,VBO,5.000525,51.808939
Citadel,18,,,4285EH,Woudrichem,Woudrichem,Noord-Brabant,VBO,5.000517,51.808926
Citadel,20,,,4285EH,Woudrichem,Woudrichem,Noord-Brabant,VBO,5.000500,51.808910
Citadel,22,,,4285EH,Woudrichem,Woudrichem,Noord-Brabant,VBO,5.000488,51.808897
Citadel,24,,,4285EH,Woudrichem,Woudrichem,Noord-Brabant,VBO,5.000478,51.808883
Citadel,26,,,4285EH,Woudrichem,Woudrichem,Noord-Brabant,VBO,5.000468,51.808866
Citadel,28,,,4285EH,Woudrichem,Woudrichem,Noord-Brabant,VBO,5.000461,51.808852
Citadel,30,,,4285EH,Woudrichem,Woudrichem,Noord-Brabant,VBO,5.000455,51.808835
Citadel,32,,,4285EH,Woudrichem,Woudrichem,Noord-Brabant,VBO,5.000456,51.808815
Citadel,34,,,4285EH,Woudrichem,Woudrichem,Noord-Brabant,VBO,5.000463,51.808799
Citadel,36,,,4285EH,Woudrichem,Woudrichem,Noord-Brabant,VBO,5.000463,51.808783
Citadel,38,,,4285EH,Woudrichem,Woudrichem,Noord-Brabant,VBO,5.000473,51.808766
Citadel,40,,,4285EH,Woudrichem,Woudrichem,Noord-Brabant,VBO,5.000504,51.808752
Citadel,42,,,4285EH,Woudrichem,Woudrichem,Noord-Brabant,VBO,5.000550,51.808732
Citadel,44,,,4285EH,Woudrichem,Woudrichem,Noord-Brabant,VBO,5.000583,51.808718
Citadel,46,,,4285EH,Woudrichem,Woudrichem,Noord-Brabant,VBO,5.000591,51.808701
Citadel,48,,,4285EH,Woudrichem,Woudrichem,Noord-Brabant,VBO,5.000635,51.808683
Citadel,50,,,4285EH,Woudrichem,Woudrichem,Noord-Brabant,VBO,5.000674,51.808667
Citadel,52,,,4285EH,Woudrichem,Woudrichem,Noord-Brabant,VBO,5.000701,51.808650
Citadel,54,,,4285EH,Woudrichem,Woudrichem,Noord-Brabant,VBO,5.000733,51.808633
Citadel,56,,,4285EH,Woudrichem,Woudrichem,Noord-Brabant,VBO,5.000754,51.808617
Citadel,58,,,4285EH,Woudrichem,Woudrichem,Noord-Brabant,VBO,5.000786,51.808602
Citadel,60,,,4285EH,Woudrichem,Woudrichem,Noord-Brabant,VBO,5.000867,51.808668
Citadel,62,,,4285EH,Woudrichem,Woudrichem,Noord-Brabant,VBO,5.000883,51.808686
Citadel,64,,,4285EH,Woudrichem,Woudrichem,Noord-Brabant,VBO,5.000911,51.808702
Citadel,66,,,4285EH,Woudrichem,Woudrichem,Noord-Brabant,VBO,5.000933,51.808716
Citadel,68,,,4285EH,Woudrichem,Woudrichem,Noord-Brabant,VBO,5.000956,51.808730
Citadel,70,,,4285EH,Woudrichem,Woudrichem,Noord-Brabant,VBO,5.000983,51.808749
Citadel,72,,,4285EH,Woudrichem,Woudrichem,Noord-Brabant,VBO,5.001011,51.808767
Kazemat,1,,,4285EJ,Woudrichem,Woudrichem,Noord-Brabant,VBO,5.001948,51.808750
Kazemat,2,,,4285EJ,Woudrichem,Woudrichem,Noord-Brabant,VBO,5.001710,51.808585
Kazemat,3,,,4285EJ,Woudrichem,Woudrichem,Noord-Brabant,VBO,5.002135,51.808674
Kazemat,4,,,4285EJ,Woudrichem,Woudrichem,Noord-Brabant,VBO,5.001847,51.808470
Kazemat,5,,,4285EJ,Woudrichem,Woudrichem,Noord-Brabant,VBO,5.002197,51.808637
Kazemat,6,,,4285EJ,Woudrichem,Woudrichem,Noord-Brabant,VBO,5.001912,51.808433
Kazemat,7,,,4285EJ,Woudrichem,Woudrichem,Noord-Brabant,VBO,5.002266,51.808597
Kazemat,8,,,4285EJ,Woudrichem,Woudrichem,Noord-Brabant,VBO,5.001980,51.808394
Kazemat,9,,,4285EJ,Woudrichem,Woudrichem,Noord-Brabant,VBO,5.002329,51.808561
Kazemat,10,,,4285EJ,Woudrichem,Woudrichem,Noord-Brabant,VBO,5.002045,51.808356
Heemraad,9,,,4285TA,Woudrichem,Woudrichem,Noord-Brabant,VBO,4.995920,51.809093
Heemraad,11,,,4285TA,Woudrichem,Woudrichem,Noord-Brabant,VBO,4.995875,51.809129
Heemraad,13,,,4285TA,Woudrichem,Woudrichem,Noord-Brabant,VBO,4.995755,51.809211
Heemraad,15,,,4285TA,Woudrichem,Woudrichem,Noord-Brabant,VBO,4.995708,51.809248
Heemraad,17,,,4285TA,Woudrichem,Woudrichem,Noord-Brabant,VBO,4.995599,51.809320
Heemraad,19,,,4285TA,Woudrichem,Woudrichem,Noord-Brabant,VBO,4.995553,51.809357
Heemraad,21,,,4285TA,Woudrichem,Woudrichem,Noord-Brabant,VBO,4.995467,51.809440
Heemraad,23,,,4285TA,Woudrichem,Woudrichem,Noord-Brabant,VBO,4.995423,51.809475
Heemraad,25,,,4285TA,Woudrichem,Woudrichem,Noord-Brabant,VBO,4.995304,51.809556
Heemraad,27,,,4285TA,Woudrichem,Woudrichem,Noord-Brabant,VBO,4.995251,51.809597
Heemraad,29,,,4285TA,Woudrichem,Woudrichem,Noord-Brabant,VBO,4.994900,51.809462
Heemraad,31,,,4285TA,Woudrichem,Woudrichem,Noord-Brabant,VBO,4.994841,51.809424
Heemraad,33,,,4285TA,Woudrichem,Woudrichem,Noord-Brabant,VBO,4.994789,51.809389
Heemraad,35,,,4285TA,Woudrichem,Woudrichem,Noord-Brabant,VBO,4.994733,51.809353
Heemraad,37,,,4285TA,Woudrichem,Woudrichem,Noord-Brabant,VBO,4.994678,51.809317
Heemraad,39,,,4285TA,Woudrichem,Woudrichem,Noord-Brabant,VBO,4.994620,51.809280
Heemraad,2,,,4285TC,Woudrichem,Woudrichem,Noord-Brabant,VBO,4.996102,51.809613
Heemraad,4,,,4285TC,Woudrichem,Woudrichem,Noord-Brabant,VBO,4.996041,51.809645
Heemraad,6,,,4285TC,Woudrichem,Woudrichem,Noord-Brabant,VBO,4.995916,51.809710
Heemraad,8,,,4285TC,Woudrichem,Woudrichem,Noord-Brabant,VBO,4.995854,51.809742
Heemraad,10,,,4285TC,Woudrichem,Woudrichem,Noord-Brabant,VBO,4.995649,51.809799
Heemraad,12,,,4285TC,Woudrichem,Woudrichem,Noord-Brabant,VBO,4.995572,51.809811
Heemraad,14,,,4285TC,Woudrichem,Woudrichem,Noord-Brabant,VBO,4.995374,51.809841
Heemraad,16,,,4285TC,Woudrichem,Woudrichem,Noord-Brabant,VBO,4.995296,51.809853
Heemraad,30,,,4285TC,Woudrichem,Woudrichem,Noord-Brabant,VBO,4.994998,51.809907
Heemraad,32,,,4285TC,Woudrichem,Woudrichem,Noord-Brabant,VBO,4.994883,51.809762
Heemraad,34,,,4285TC,Woudrichem,Woudrichem,Noord-Brabant,VBO,4.994823,51.809723
Heemraad,36,,,4285TC,Woudrichem,Woudrichem,Noord-Brabant,VBO,4.994673,51.809626
Heemraad,38,,,4285TC,Woudrichem,Woudrichem,Noord-Brabant,VBO,4.994612,51.809586
Heemraad,40,,,4285TC,Woudrichem,Woudrichem,Noord-Brabant,VBO,4.994441,51.809476
Heemraad,42,,,4285TC,Woudrichem,Woudrichem,Noord-Brabant,VBO,4.994381,51.809436
Schout,1,,,4285TD,Woudrichem,Woudrichem,Noord-Brabant,VBO,4.994625,51.810232
Schout,2,,,4285TD,Woudrichem,Woudrichem,Noord-Brabant,VBO,4.994570,51.810196
Schout,3,,,4285TD,Woudrichem,Woudrichem,Noord-Brabant,VBO,4.994475,51.810123
Schout,4,,,4285TD,Woudrichem,Woudrichem,Noord-Brabant,VBO,4.994423,51.810089
Schout,5,,,4285TD,Woudrichem,Woudrichem,Noord-Brabant,VBO,4.994328,51.810017
Schout,6,,,4285TD,Woudrichem,Woudrichem,Noord-Brabant,VBO,4.994275,51.809983
Schout,7,,,4285TD,Woudrichem,Woudrichem,Noord-Brabant,VBO,4.994148,51.809886
Schout,8,,,4285TD,Woudrichem,Woudrichem,Noord-Brabant,VBO,4.994088,51.809846
Baljuw,1,,,4285TE,Woudrichem,Woudrichem,Noord-Brabant,VBO,4.996798,51.809166
Baljuw,2,,,4285TE,Woudrichem,Woudrichem,Noord-Brabant,VBO,4.996585,51.809858
Baljuw,4,,,4285TE,Woudrichem,Woudrichem,Noord-Brabant,VBO,4.996600,51.809809
Baljuw,6,,,4285TE,Woudrichem,Woudrichem,Noord-Brabant,VBO,4.996612,51.809648
Baljuw,8,,,4285TE,Woudrichem,Woudrichem,Noord-Brabant,VBO,4.996587,51.809601
Baljuw,10,,,4285TE,Woudrichem,Woudrichem,Noord-Brabant,VBO,4.996414,51.809474
Baljuw,12,,,4285TE,Woudrichem,Woudrichem,Noord-Brabant,VBO,4.996356,51.809440
Oude Ban,1,,,4285TG,Woudrichem,Woudrichem,Noord-Brabant,VBO,4.997708,51.810863
Oude Ban,3,a,,4285TG,Woudrichem,Woudrichem,Noord-Brabant,VBO,4.997708,51.810863
Oude Ban,3,b,,4285TG,Woudrichem,Woudrichem,Noord-Brabant,VBO,4.997708,51.810863
Oude Ban,3,c,,4285TG,Woudrichem,Woudrichem,Noord-Brabant,VBO,4.997708,51.810863
Oude Ban,3,,,4285TG,Woudrichem,Woudrichem,Noord-Brabant,VBO,4.997708,51.810863
Oude Ban,5,a,,4285TG,Woudrichem,Woudrichem,Noord-Brabant,VBO,4.997708,51.810863
Oude Ban,5,b,,4285TG,Woudrichem,Woudrichem,Noord-Brabant,VBO,4.997708,51.810863
Oude Ban,5,,,4285TG,Woudrichem,Woudrichem,Noord-Brabant,VBO,4.997708,51.810863
Oude Ban,7,,,4285TG,Woudrichem,Woudrichem,Noord-Brabant,VBO,4.996496,51.810095
Oude Ban,9,,,4285TG,Woudrichem,Woudrichem,Noord-Brabant,VBO,4.996418,51.810085
Oude Ban,11,,,4285TG,Woudrichem,Woudrichem,Noord-Brabant,VBO,4.996257,51.810081
Oude Ban,13,,,4285TG,Woudrichem,Woudrichem,Noord-Brabant,VBO,4.996182,51.810086
Oude Ban,15,,,4285TG,Woudrichem,Woudrichem,Noord-Brabant,VBO,4.996004,51.810101
Oude Ban,17,,,4285TG,Woudrichem,Woudrichem,Noord-Brabant,VBO,4.995927,51.810111
Oude Ban,19,,,4285TG,Woudrichem,Woudrichem,Noord-Brabant,VBO,4.995766,51.810131
Oude Ban,21,,,4285TG,Woudrichem,Woudrichem,Noord-Brabant,VBO,4.995688,51.810141
Oude Ban,23,,,4285TG,Woudrichem,Woudrichem,Noord-Brabant,VBO,4.995532,51.810161
Oude Ban,25,,,4285TG,Woudrichem,Woudrichem,Noord-Brabant,VBO,4.995454,51.810171
Oude Ban,27,,,4285TG,Woudrichem,Woudrichem,Noord-Brabant,VBO,4.994273,51.810343
Oude Ban,29,,,4285TG,Woudrichem,Woudrichem,Noord-Brabant,VBO,4.994204,51.810362
Oude Ban,31,,,4285TG,Woudrichem,Woudrichem,Noord-Brabant,VBO,4.994132,51.810383
Oude Ban,33,,,4285TG,Woudrichem,Woudrichem,Noord-Brabant,VBO,4.994067,51.810401
Oude Ban,35,,,4285TG,Woudrichem,Woudrichem,Noord-Brabant,VBO,4.993998,51.810420
Oude Ban,37,,,4285TG,Woudrichem,Woudrichem,Noord-Brabant,VBO,4.993838,51.810499
Oude Ban,39,,,4285TG,Woudrichem,Woudrichem,Noord-Brabant,VBO,4.993806,51.810541
Oude Ban,41,,,4285TG,Woudrichem,Woudrichem,Noord-Brabant,VBO,4.993772,51.810585
Oude Ban,43,,,4285TG,Woudrichem,Woudrichem,Noord-Brabant,VBO,4.993742,51.810625
Oude Ban,45,,,4285TG,Woudrichem,Woudrichem,Noord-Brabant,VBO,4.993710,51.810667
Oude Ban,47,,,4285TG,Woudrichem,Woudrichem,Noord-Brabant,VBO,4.993679,51.810709
Oude Ban,14,,,4285TH,Woudrichem,Woudrichem,Noord-Brabant,VBO,4.996806,51.811111
Oude Ban,16,,,4285TH,Woudrichem,Woudrichem,Noord-Brabant,VBO,4.996846,51.810489
Oude Ban,18,,,4285TH,Woudrichem,Woudrichem,Noord-Brabant,VBO,4.996541,51.810341
Oude Ban,20,,,4285TH,Woudrichem,Woudrichem,Noord-Brabant,VBO,4.996462,51.810324
Oude Ban,22,,,4285TH,Woudrichem,Woudrichem,Noord-Brabant,VBO,4.996204,51.810297
Oude Ban,24,,,4285TH,Woudrichem,Woudrichem,Noord-Brabant,VBO,4.995980,51.810326
Oude Ban,26,,,4285TH,Woudrichem,Woudrichem,Noord-Brabant,VBO,4.995773,51.810360
Oude Ban,28,,,4285TH,Woudrichem,Woudrichem,Noord-Brabant,VBO,4.995558,51.810389
Oude Ban,30,,,4285TH,Woudrichem,Woudrichem,Noord-Brabant,VBO,4.995030,51.810470
Drossaard,1,,,4285TJ,Woudrichem,Woudrichem,Noord-Brabant,VBO,4.992337,51.810900
Drossaard,2,,,4285TJ,Woudrichem,Woudrichem,Noord-Brabant,VBO,4.993345,51.811017
Drossaard,3,,,4285TJ,Woudrichem,Woudrichem,Noord-Brabant,VBO,4.992287,51.810868
Drossaard,4,,,4285TJ,Woudrichem,Woudrichem,Noord-Brabant,VBO,4.993269,51.811027
Drossaard,5,,,4285TJ,Woudrichem,Woudrichem,Noord-Brabant,VBO,4.992173,51.810794
Drossaard,6,,,4285TJ,Woudrichem,Woudrichem,Noord-Brabant,VBO,4.993192,51.811037
Drossaard,7,,,4285TJ,Woudrichem,Woudrichem,Noord-Brabant,VBO,4.992120,51.810759
Drossaard,8,,,4285TJ,Woudrichem,Woudrichem,Noord-Brabant,VBO,4.993013,51.811080
Drossaard,10,,,4285TJ,Woudrichem,Woudrichem,Noord-Brabant,VBO,4.992924,51.811091
Drossaard,12,,,4285TJ,Woudrichem,Woudrichem,Noord-Brabant,VBO,4.992760,51.811112
Drossaard,14,,,4285TJ,Woudrichem,Woudrichem,Noord-Brabant,VBO,4.992679,51.811122
Drossaard,16,,,4285TJ,Woudrichem,Woudrichem,Noord-Brabant,VBO,4.992514,51.811144
Drossaard,18,,,4285TJ,Woudrichem,Woudrichem,Noord-Brabant,VBO,4.992433,51.811154
Drossaard,20,,,4285TJ,Woudrichem,Woudrichem,Noord-Brabant,VBO,4.992265,51.811176
Drossaard,22,,,4285TJ,Woudrichem,Woudrichem,Noord-Brabant,VBO,4.992184,51.811186
Drossaard,24,,,4285TJ,Woudrichem,Woudrichem,Noord-Brabant,VBO,4.991987,51.811077
Drossaard,26,,,4285TJ,Woudrichem,Woudrichem,Noord-Brabant,VBO,4.991932,51.811040
Drossaard,28,,,4285TJ,Woudrichem,Woudrichem,Noord-Brabant,VBO,4.991820,51.810968
Drossaard,30,,,4285TJ,Woudrichem,Woudrichem,Noord-Brabant,VBO,4.991765,51.810932
Schepen,1,,,4285TK,Woudrichem,Woudrichem,Noord-Brabant,VBO,4.993887,51.810240
Schepen,2,,,4285TK,Woudrichem,Woudrichem,Noord-Brabant,VBO,4.993564,51.810420
Schepen,3,,,4285TK,Woudrichem,Woudrichem,Noord-Brabant,VBO,4.993836,51.810207
Schepen,4,,,4285TK,Woudrichem,Woudrichem,Noord-Brabant,VBO,4.993510,51.810386
Schepen,5,,,4285TK,Woudrichem,Woudrichem,Noord-Brabant,VBO,4.993782,51.810172
Schepen,6,,,4285TK,Woudrichem,Woudrichem,Noord-Brabant,VBO,4.993457,51.810351
Schepen,7,,,4285TK,Woudrichem,Woudrichem,Noord-Brabant,VBO,4.993728,51.810137
Schepen,8,,,4285TK,Woudrichem,Woudrichem,Noord-Brabant,VBO,4.993403,51.810316
Schepen,9,,,4285TK,Woudrichem,Woudrichem,Noord-Brabant,VBO,4.993675,51.810102
Schepen,10,,,4285TK,Woudrichem,Woudrichem,Noord-Brabant,VBO,4.993344,51.810278
Magistraat,1,,,4285TL,Woudrichem,Woudrichem,Noord-Brabant,VBO,4.993308,51.810738
Magistraat,2,,,4285TL,Woudrichem,Woudrichem,Noord-Brabant,VBO,4.992738,51.810653
Magistraat,3,,,4285TL,Woudrichem,Woudrichem,Noord-Brabant,VBO,4.993259,51.810706
Magistraat,4,,,4285TL,Woudrichem,Woudrichem,Noord-Brabant,VBO,4.992685,51.810618
Magistraat,5,,,4285TL,Woudrichem,Woudrichem,Noord-Brabant,VBO,4.993208,51.810672
Magistraat,6,,,4285TL,Woudrichem,Woudrichem,Noord-Brabant,VBO,4.992572,51.810545
Magistraat,7,,,4285TL,Woudrichem,Woudrichem,Noord-Brabant,VBO,4.993156,51.810639
Magistraat,8,,,4285TL,Woudrichem,Woudrichem,Noord-Brabant,VBO,4.992518,51.810510
Magistraat,9,,,4285TL,Woudrichem,Woudrichem,Noord-Brabant,VBO,4.993105,51.810605
Magistraat,11,,,4285TL,Woudrichem,Woudrichem,Noord-Brabant,VBO,4.993056,51.810573
Magistraat,13,,,4285TL,Woudrichem,Woudrichem,Noord-Brabant,VBO,4.993007,51.810541
Groenendijk,6,,,4285WB,Woudrichem,Woudrichem,Noord-Brabant,VBO,4.987018,51.816112
Groenendijk,8,,,4285WB,Woudrichem,Woudrichem,Noord-Brabant,VBO,4.987520,51.816138
Groenendijk,12,,,4285WB,Woudrichem,Woudrichem,Noord-Brabant,VBO,4.987754,51.816132
Groenendijk,14,,,4285WB,Woudrichem,Woudrichem,Noord-Brabant,VBO,4.987984,51.816135
Groenendijk,16,,,4285WB,Woudrichem,Woudrichem,Noord-Brabant,VBO,4.988182,51.816113
Groenendijk,18,,,4285WB,Woudrichem,Woudrichem,Noord-Brabant,VBO,4.988456,51.816155
Groenendijk,20,,,4285WB,Woudrichem,Woudrichem,Noord-Brabant,VBO,4.988872,51.816162
Merwededijk,1,,,4285WC,Woudrichem,Woudrichem,Noord-Brabant,VBO,4.985835,51.816000
Merwededijk,3,,,4285WC,Woudrichem,Woudrichem,Noord-Brabant,VBO,4.985078,51.815970
Merwededijk,7,,,4285WC,Woudrichem,Woudrichem,Noord-Brabant,VBO,4.983344,51.815915
Merwededijk,9,,,4285WC,Woudrichem,Woudrichem,Noord-Brabant,VBO,4.983016,51.815856
Merwededijk,11,,,4285WC,Woudrichem,Woudrichem,Noord-Brabant,VBO,4.982806,51.815892
Merwededijk,13,,,4285WC,Woudrichem,Woudrichem,Noord-Brabant,VBO,4.982574,51.815954
Merwededijk,17,,,4285WC,Woudrichem,Woudrichem,Noord-Brabant,VBO,4.982253,51.815876
Merwededijk,19,,,4285WC,Woudrichem,Woudrichem,Noord-Brabant,VBO,4.982185,51.815874
Merwededijk,21,,,4285WC,Woudrichem,Woudrichem,Noord-Brabant,VBO,4.980930,51.815879
Merwededijk,23,,,4285WC,Woudrichem,Woudrichem,Noord-Brabant,VBO,4.978769,51.815621
Merwededijk,25,,,4285WC,Woudrichem,Woudrichem,Noord-Brabant,VBO,4.978623,51.815601
Merwededijk,27,,,4285WC,Woudrichem,Woudrichem,Noord-Brabant,VBO,4.978182,51.815549
Merwededijk,29,,,4285WC,Woudrichem,Woudrichem,Noord-Brabant,VBO,4.977684,51.815480
Merwededijk,31,a,,4285WC,Woudrichem,Woudrichem,Noord-Brabant,VBO,4.975774,51.814949
Merwededijk,31,,,4285WC,Woudrichem,Woudrichem,Noord-Brabant,VBO,4.975113,51.815171
Merwededijk,33,a,,4285WC,Woudrichem,Woudrichem,Noord-Brabant,VBO,4.974148,51.815051
Merwededijk,33,,,4285WC,Woudrichem,Woudrichem,Noord-Brabant,VBO,4.973590,51.815240
Merwededijk,35,,,4285WC,Woudrichem,Woudrichem,Noord-Brabant,VBO,4.971279,51.814491
Woudrichemsedijk,7,,,4285WD,Woudrichem,Woudrichem,Noord-Brabant,VBO,4.965530,51.815530
Woudrichemsedijk,8,,,4285WE,Woudrichem,Woudrichem,Noord-Brabant,VBO,4.965662,51.815519
Oudendijk,1,,,4285WG,Woudrichem,Woudrichem,Noord-Brabant,VBO,4.981795,51.815831
Oudendijk,3,,,4285WG,Woudrichem,Woudrichem,Noord-Brabant,VBO,4.981656,51.815468
Oudendijk,5,a,,4285WG,Woudrichem,Woudrichem,Noord-Brabant,VBO,4.981513,51.815106
Oudendijk,5,b,,4285WG,Woudrichem,Woudrichem,Noord-Brabant,VBO,4.981489,51.815050
Oudendijk,5,c,,4285WG,Woudrichem,Woudrichem,Noord-Brabant,VBO,4.981451,51.814957
Oudendijk,5,d,,4285WG,Woudrichem,Woudrichem,Noord-Brabant,VBO,4.981426,51.814896
Oudendijk,5,,,4285WG,Woudrichem,Woudrichem,Noord-Brabant,VBO,4.981513,51.815222
Oudendijk,7,a,,4285WG,Woudrichem,Woudrichem,Noord-Brabant,VBO,4.981302,51.814588
Oudendijk,7,,,4285WG,Woudrichem,Woudrichem,Noord-Brabant,VBO,4.981336,51.814692
Oudendijk,9,,,4285WG,Woudrichem,Woudrichem,Noord-Brabant,VBO,4.981281,51.814527
Oudendijk,11,a,,4285WG,Woudrichem,Woudrichem,Noord-Brabant,VBO,4.981298,51.814368
Oudendijk,11,,,4285WG,Woudrichem,Woudrichem,Noord-Brabant,VBO,4.981264,51.814474
Oudendijk,13,,,4285WG,Woudrichem,Woudrichem,Noord-Brabant,VBO,4.981189,51.814241
Oudendijk,15,a,,4285WG,Woudrichem,Woudrichem,Noord-Brabant,VBO,4.981165,51.813999
Oudendijk,15,b,,4285WG,Woudrichem,Woudrichem,Noord-Brabant,VBO,4.981158,51.813945
Oudendijk,15,,,4285WG,Woudrichem,Woudrichem,Noord-Brabant,VBO,4.981148,51.814129
Oudendijk,17,,,4285WG,Woudrichem,Woudrichem,Noord-Brabant,VBO,4.981150,51.813822
Oudendijk,19,a,,4285WG,Woudrichem,Woudrichem,Noord-Brabant,VBO,4.981152,51.813684
Oudendijk,19,b,,4285WG,Woudrichem,Woudrichem,Noord-Brabant,VBO,4.981166,51.813608
Oudendijk,21,,,4285WG,Woudrichem,Woudrichem,Noord-Brabant,VBO,4.981227,51.813456
Oudendijk,23,,,4285WH,Woudrichem,Woudrichem,Noord-Brabant,VBO,4.981301,51.813107
Oudendijk,25,,,4285WH,Woudrichem,Woudrichem,Noord-Brabant,VBO,4.981233,51.812995
Oudendijk,27,,,4285WH,Woudrichem,Woudrichem,Noord-Brabant,VBO,4.981272,51.812791
Oudendijk,29,,,4285WH,Woudrichem,Woudrichem,Noord-Brabant,VBO,4.981270,51.812733
Oudendijk,31,a,,4285WH,Woudrichem,Woudrichem,Noord-Brabant,VBO,4.981294,51.812407
Oudendijk,31,,,4285WH,Woudrichem,Woudrichem,Noord-Brabant,VBO,4.981274,51.812577
Oudendijk,33,a,,4285WH,Woudrichem,Woudrichem,Noord-Brabant,VBO,4.981227,51.812110
Oudendijk,33,,,4285WH,Woudrichem,Woudrichem,Noord-Brabant,VBO,4.981242,51.812255
Oudendijk,35,a,,4285WH,Woudrichem,Woudrichem,Noord-Brabant,VBO,4.981197,51.811805
Oudendijk,35,,,4285WH,Woudrichem,Woudrichem,Noord-Brabant,VBO,4.981249,51.811952
Oudendijk,37,,,4285WH,Woudrichem,Woudrichem,Noord-Brabant,VBO,4.981158,51.811573
Oudendijk,39,,,4285WH,Woudrichem,Woudrichem,Noord-Brabant,VBO,4.981750,51.811232
Oudendijk,41,,,4285WH,Woudrichem,Woudrichem,Noord-Brabant,VBO,4.981089,51.811252
Oudendijk,43,,,4285WH,Woudrichem,Woudrichem,Noord-Brabant,VBO,4.981082,51.811074
Oudendijk,45,,,4285WH,Woudrichem,Woudrichem,Noord-Brabant,VBO,4.981086,51.810986
Oudendijk,47,a,,4285WH,Woudrichem,Woudrichem,Noord-Brabant,VBO,4.981110,51.810693
Oudendijk,47,,,4285WH,Woudrichem,Woudrichem,Noord-Brabant,VBO,4.981093,51.810859
Oudendijk,49,a,,4285WH,Woudrichem,Woudrichem,Noord-Brabant,VBO,4.981166,51.810426
Oudendijk,49,b,,4285WH,Woudrichem,Woudrichem,Noord-Brabant,VBO,4.981157,51.810367
Oudendijk,49,,,4285WH,Woudrichem,Woudrichem,Noord-Brabant,VBO,4.981068,51.810540
Oudendijk,51,,,4285WH,Woudrichem,Woudrichem,Noord-Brabant,VBO,4.981080,51.810131
Oudendijk,53,,,4285WH,Woudrichem,Woudrichem,Noord-Brabant,VBO,4.981168,51.809910
Oudendijk,55,,,4285WH,Woudrichem,Woudrichem,Noord-Brabant,VBO,4.981098,51.809768
Oudendijk,57,,,4285WH,Woudrichem,Woudrichem,Noord-Brabant,VBO,4.981130,51.809613
Oudendijk,59,,,4285WH,Woudrichem,Woudrichem,Noord-Brabant,VBO,4.981037,51.809362
Oudendijk,61,a,,4285WJ,Woudrichem,Woudrichem,Noord-Brabant,VBO,4.981036,51.809165
Oudendijk,61,b,,4285WJ,Woudrichem,Woudrichem,Noord-Brabant,VBO,4.981003,51.809044
Oudendijk,63,,,4285WJ,Woudrichem,Woudrichem,Noord-Brabant,VBO,4.980930,51.808924
Oudendijk,65,,,4285WJ,Woudrichem,Woudrichem,Noord-Brabant,VBO,4.980892,51.808775
Oudendijk,67,,,4285WJ,Woudrichem,Woudrichem,Noord-Brabant,VBO,4.980889,51.808577
Oudendijk,69,,,4285WJ,Woudrichem,Woudrichem,Noord-Brabant,VBO,4.980908,51.808380
Oudendijk,75,,,4285WJ,Woudrichem,Woudrichem,Noord-Brabant,VBO,4.980081,51.807579
Oudendijk,77,,,4285WJ,Woudrichem,Woudrichem,Noord-Brabant,VBO,4.979811,51.807306
Oudendijk,79,,,4285WJ,Woudrichem,Woudrichem,Noord-Brabant,VBO,4.977010,51.805261
Oudendijk,81,,,4285WJ,Woudrichem,Woudrichem,Noord-Brabant,VBO,4.976531,51.805178
Oudendijk,83,,,4285WJ,Woudrichem,Woudrichem,Noord-Brabant,VBO,4.975230,51.804788
Oudendijk,85,,,4285WJ,Woudrichem,Woudrichem,Noord-Brabant,VBO,4.974690,51.804307
Oudendijk,87,,,4285WJ,Woudrichem,Woudrichem,Noord-Brabant,VBO,4.974489,51.804116
Oudendijk,89,,,4285WJ,Woudrichem,Woudrichem,Noord-Brabant,VBO,4.974256,51.803890
Oudendijk,91,,,4285WJ,Woudrichem,Woudrichem,Noord-Brabant,VBO,4.973920,51.803390
Oudendijk,93,,,4285WJ,Woudrichem,Woudrichem,Noord-Brabant,VBO,4.973383,51.803267
Oudendijk,95,,,4285WJ,Woudrichem,Woudrichem,Noord-Brabant,VBO,4.973001,51.803153
Oudendijk,2,,,4285WK,Woudrichem,Woudrichem,Noord-Brabant,VBO,4.981457,51.815751
Oudendijk,6,,,4285WK,Woudrichem,Woudrichem,Noord-Brabant,VBO,4.981362,51.815302
Oudendijk,8,,,4285WK,Woudrichem,Woudrichem,Noord-Brabant,VBO,4.981314,51.815192
Oudendijk,10,,,4285WK,Woudrichem,Woudrichem,Noord-Brabant,VBO,4.981210,51.814990
Oudendijk,12,,,4285WK,Woudrichem,Woudrichem,Noord-Brabant,VBO,4.981171,51.814892
Oudendijk,14,a,,4285WK,Woudrichem,Woudrichem,Noord-Brabant,VBO,4.981056,51.814599
Oudendijk,14,,,4285WK,Woudrichem,Woudrichem,Noord-Brabant,VBO,4.981138,51.814741
Oudendijk,16,,,4285WK,Woudrichem,Woudrichem,Noord-Brabant,VBO,4.981071,51.814473
Oudendijk,20,,,4285WK,Woudrichem,Woudrichem,Noord-Brabant,VBO,4.980728,51.814258
Oudendijk,24,,,4285WK,Woudrichem,Woudrichem,Noord-Brabant,VBO,4.980751,51.814021
Oudendijk,26,,,4285WK,Woudrichem,Woudrichem,Noord-Brabant,VBO,4.980743,51.813928
Oudendijk,28,,,4285WK,Woudrichem,Woudrichem,Noord-Brabant,VBO,4.980755,51.813829
Oudendijk,32,,,4285WK,Woudrichem,Woudrichem,Noord-Brabant,VBO,4.980778,51.813637
Oudendijk,34,,,4285WK,Woudrichem,Woudrichem,Noord-Brabant,VBO,4.980885,51.813417
Oudendijk,36,,,4285WK,Woudrichem,Woudrichem,Noord-Brabant,VBO,4.980956,51.813141
Oudendijk,38,,,4285WK,Woudrichem,Woudrichem,Noord-Brabant,VBO,4.980914,51.812984
Oudendijk,40,,,4285WK,Woudrichem,Woudrichem,Noord-Brabant,VBO,4.980900,51.812793
Oudendijk,42,,,4285WK,Woudrichem,Woudrichem,Noord-Brabant,VBO,4.980877,51.812478
Oudendijk,44,,,4285WK,Woudrichem,Woudrichem,Noord-Brabant,VBO,4.976480,51.812566
Oudendijk,46,a,,4285WK,Woudrichem,Woudrichem,Noord-Brabant,VBO,4.980828,51.811940
Oudendijk,46,,,4285WK,Woudrichem,Woudrichem,Noord-Brabant,VBO,4.980857,51.812212
Oudendijk,48,,,4285WK,Woudrichem,Woudrichem,Noord-Brabant,VBO,4.980894,51.811733
Oudendijk,50,,,4285WL,Woudrichem,Woudrichem,Noord-Brabant,VBO,4.980841,51.811416
Oudendijk,54,,,4285WL,Woudrichem,Woudrichem,Noord-Brabant,VBO,4.980822,51.811276
Oudendijk,56,,,4285WL,Woudrichem,Woudrichem,Noord-Brabant,VBO,4.980755,51.811097
Oudendijk,60,,,4285WL,Woudrichem,Woudrichem,Noord-Brabant,VBO,4.980811,51.810816
Oudendijk,62,a,,4285WL,Woudrichem,Woudrichem,Noord-Brabant,VBO,4.980520,51.810581
Oudendijk,62,,,4285WL,Woudrichem,Woudrichem,Noord-Brabant,VBO,4.980812,51.810704
Oudendijk,64,,,4285WL,Woudrichem,Woudrichem,Noord-Brabant,VBO,4.980777,51.810453
Oudendijk,66,,,4285WL,Woudrichem,Woudrichem,Noord-Brabant,VBO,4.980775,51.810348
Oudendijk,70,,,4285WL,Woudrichem,Woudrichem,Noord-Brabant,VBO,4.980441,51.808201
Oudendijk,72,a,,4285WL,Woudrichem,Woudrichem,Noord-Brabant,VBO,4.979861,51.807746
Oudendijk,72,,,4285WL,Woudrichem,Woudrichem,Noord-Brabant,VBO,4.979999,51.807888
Oudendijk,74,a,,4285WL,Woudrichem,Woudrichem,Noord-Brabant,VBO,4.979628,51.807608
Oudendijk,74,,,4285WL,Woudrichem,Woudrichem,Noord-Brabant,VBO,4.979750,51.807558
Oudendijk,76,,,4285WL,Woudrichem,Woudrichem,Noord-Brabant,VBO,4.979220,51.807041
Oudendijk,78,,,4285WL,Woudrichem,Woudrichem,Noord-Brabant,VBO,4.979073,51.806777
Oudendijk,80,,,4285WL,Woudrichem,Woudrichem,Noord-Brabant,VBO,4.978938,51.806689
Oudendijk,82,,,4285WL,Woudrichem,Woudrichem,Noord-Brabant,VBO,4.978031,51.806020
Oudendijk,84,,,4285WL,Woudrichem,Woudrichem,Noord-Brabant,VBO,4.977822,51.805843
Oudendijk,86,,,4285WL,Woudrichem,Woudrichem,Noord-Brabant,VBO,4.977308,51.805591
Oudendijk,88,,,4285WL,Woudrichem,Woudrichem,Noord-Brabant,VBO,4.976489,51.805304
Oudendijk,90,,,4285WL,Woudrichem,Woudrichem,Noord-Brabant,VBO,4.976039,51.805230
Oudendijk,92,a,,4285WL,Woudrichem,Woudrichem,Noord-Brabant,VBO,4.975198,51.805030
Oudendijk,92,,,4285WL,Woudrichem,Woudrichem,Noord-Brabant,VBO,4.975198,51.805030
Oudendijk,92,,,4285WL,Woudrichem,Woudrichem,Noord-Brabant,VBO,4.975208,51.805012
Oudendijk,94,a,,4285WL,Woudrichem,Woudrichem,Noord-Brabant,VBO,4.971956,51.803061
Oudendijk,94,,,4285WL,Woudrichem,Woudrichem,Noord-Brabant,VBO,4.972450,51.802836
Oudendijk,96,,,4285WL,Woudrichem,Woudrichem,Noord-Brabant,VBO,4.972453,51.802366
Kraaiveld,5,,,4285WM,Woudrichem,Woudrichem,Noord-Brabant,VBO,4.967177,51.804279
Kraaiveld,7,,,4285WM,Woudrichem,Woudrichem,Noord-Brabant,VBO,4.968447,51.803765
Kraaiveld,8,,,4285WM,Woudrichem,Woudrichem,Noord-Brabant,VBO,4.969787,51.803919
Jan Spieringweg,1,a,,4285WN,Woudrichem,Woudrichem,Noord-Brabant,VBO,4.976787,51.806850
Jan Spieringweg,1,,,4285WN,Woudrichem,Woudrichem,Noord-Brabant,VBO,4.977213,51.806919
Jan Spieringweg,2,a,,4285WN,Woudrichem,Woudrichem,Noord-Brabant,VBO,4.975998,51.808031
Jan Spieringweg,2,,,4285WN,Woudrichem,Woudrichem,Noord-Brabant,VBO,4.978454,51.806877
Jan Spieringweg,3,,,4285WN,Woudrichem,Woudrichem,Noord-Brabant,VBO,4.974902,51.807823
Jan Spieringweg,4,,,4285WN,Woudrichem,Woudrichem,Noord-Brabant,VBO,4.967954,51.810168
Jan Spieringweg,5,,,4285WN,Woudrichem,Woudrichem,Noord-Brabant,VBO,4.974666,51.807875
Jan Spieringweg,6,,,4285WN,Woudrichem,Woudrichem,Noord-Brabant,VBO,4.967617,51.810530
Jan Spieringweg,7,,,4285WN,Woudrichem,Woudrichem,Noord-Brabant,VBO,4.974465,51.807767
Jan Spieringweg,8,,,4285WN,Woudrichem,Woudrichem,Noord-Brabant,VBO,4.967136,51.810279
Jan Spieringweg,9,,,4285WN,Woudrichem,Woudrichem,Noord-Brabant,VBO,4.974260,51.807884
Jan Spieringweg,11,,,4285WN,Woudrichem,Woudrichem,Noord-Brabant,VBO,4.973979,51.807931
Jan Spieringweg,13,,,4285WN,Woudrichem,Woudrichem,Noord-Brabant,VBO,4.973729,51.807942
Jan Spieringweg,15,,,4285WN,Woudrichem,Woudrichem,Noord-Brabant,VBO,4.972408,51.808088
Jan Spieringweg,17,,,4285WN,Woudrichem,Woudrichem,Noord-Brabant,VBO,4.972062,51.808133
Jan Spieringweg,19,,,4285WN,Woudrichem,Woudrichem,Noord-Brabant,VBO,4.971829,51.808246
Jan Spieringweg,23,,,4285WN,Woudrichem,Woudrichem,Noord-Brabant,VBO,4.970226,51.808479
Oudbroek,1,,,4285WP,Woudrichem,Woudrichem,Noord-Brabant,VBO,4.972591,51.804086
Oudbroek,2,,,4285WP,Woudrichem,Woudrichem,Noord-Brabant,VBO,4.972248,51.803861
Oudbroek,3,,,4285WP,Woudrichem,Woudrichem,Noord-Brabant,VBO,4.969067,51.802523
de Roef,1,,,4285WR,Woudrichem,Woudrichem,Noord-Brabant,VBO,4.961181,51.800779
de Roef,2,,,4285WR,Woudrichem,Woudrichem,Noord-Brabant,VBO,4.965328,51.800000
de Roef,4,,,4285WR,Woudrichem,Woudrichem,Noord-Brabant,VBO,4.960101,51.802473
Middelvaart,1,a,,4285WS,Woudrichem,Woudrichem,Noord-Brabant,VBO,4.993282,51.808964
Middelvaart,1,b,,4285WS,Woudrichem,Woudrichem,Noord-Brabant,VBO,4.991785,51.809146
Middelvaart,1,c,,4285WS,Woudrichem,Woudrichem,Noord-Brabant,VBO,4.990741,51.809997
Middelvaart,1,d,,4285WS,Woudrichem,Woudrichem,Noord-Brabant,VBO,4.990351,51.811156
Middelvaart,1,e,,4285WS,Woudrichem,Woudrichem,Noord-Brabant,VBO,4.990964,51.810729
Middelvaart,1,f,,4285WS,Woudrichem,Woudrichem,Noord-Brabant,VBO,4.989294,51.810374
Middelvaart,1,,,4285WS,Woudrichem,Woudrichem,Noord-Brabant,VBO,4.995791,51.808768
Middelvaart,2,,,4285WS,Woudrichem,Woudrichem,Noord-Brabant,VBO,4.995365,51.808847
Middelvaart,3,,,4285WS,Woudrichem,Woudrichem,Noord-Brabant,VBO,4.986130,51.812063
Middelvaart,4,,,4285WS,Woudrichem,Woudrichem,Noord-Brabant,VBO,4.995309,51.808880
Middelvaart,5,a,,4285WS,Woudrichem,Woudrichem,Noord-Brabant,VBO,4.983304,51.812321
Middelvaart,5,,,4285WS,Woudrichem,Woudrichem,Noord-Brabant,VBO,4.984174,51.812176
Middelvaart,6,,,4285WS,Woudrichem,Woudrichem,Noord-Brabant,VBO,4.995209,51.808951
Middelvaart,7,,,4285WS,Woudrichem,Woudrichem,Noord-Brabant,VBO,4.982844,51.812504
Middelvaart,8,,,4285WS,Woudrichem,Woudrichem,Noord-Brabant,VBO,4.995148,51.808987
Middelvaart,10,,,4285WS,Woudrichem,Woudrichem,Noord-Brabant,VBO,4.995083,51.809026
Middelvaart,11,,,4285WS,Woudrichem,Woudrichem,Noord-Brabant,VBO,4.982367,51.812689
Middelvaart,12,,,4285WS,Woudrichem,Woudrichem,Noord-Brabant,VBO,4.995025,51.809060
Middelvaart,13,,,4285WS,Woudrichem,Woudrichem,Noord-Brabant,VBO,4.981982,51.812853
Middelvaart,14,,,4285WS,Woudrichem,Woudrichem,Noord-Brabant,VBO,4.994966,51.809095
Middelvaart,15,,,4285WS,Woudrichem,Woudrichem,Noord-Brabant,VBO,4.981780,51.812992
Middelvaart,16,,,4285WS,Woudrichem,Woudrichem,Noord-Brabant,VBO,4.994907,51.809130
Middelvaart,17,,,4285WS,Woudrichem,Woudrichem,Noord-Brabant,VBO,4.981558,51.813062
Middelvaart,18,,,4285WS,Woudrichem,Woudrichem,Noord-Brabant,VBO,4.994849,51.809165
Middelvaart,19,,,4285WS,Woudrichem,Woudrichem,Noord-Brabant,VBO,4.981475,51.813082
Middelvaart,20,,,4285WS,Woudrichem,Woudrichem,Noord-Brabant,VBO,4.993846,51.809741
Middelvaart,22,,,4285WS,Woudrichem,Woudrichem,Noord-Brabant,VBO,4.993575,51.809888
Middelvaart,24,,,4285WS,Woudrichem,Woudrichem,Noord-Brabant,VBO,4.993520,51.809921
Middelvaart,26,,,4285WS,Woudrichem,Woudrichem,Noord-Brabant,VBO,4.993465,51.809953
Middelvaart,28,,,4285WS,Woudrichem,Woudrichem,Noord-Brabant,VBO,4.993411,51.809985
Middelvaart,30,,,4285WS,Woudrichem,Woudrichem,Noord-Brabant,VBO,4.993165,51.810131
Middelvaart,32,,,4285WS,Woudrichem,Woudrichem,Noord-Brabant,VBO,4.993108,51.810165
Middelvaart,34,,,4285WS,Woudrichem,Woudrichem,Noord-Brabant,VBO,4.993051,51.810198
Middelvaart,36,,,4285WS,Woudrichem,Woudrichem,Noord-Brabant,VBO,4.992995,51.810232
Middelvaart,38,,,4285WS,Woudrichem,Woudrichem,Noord-Brabant,VBO,4.992938,51.810266
Middelvaart,40,,,4285WS,Woudrichem,Woudrichem,Noord-Brabant,VBO,4.992860,51.810287
Middelvaart,42,,,4285WS,Woudrichem,Woudrichem,Noord-Brabant,VBO,4.992803,51.810321
Middelvaart,44,,,4285WS,Woudrichem,Woudrichem,Noord-Brabant,VBO,4.992745,51.810355
Middelvaart,46,,,4285WS,Woudrichem,Woudrichem,Noord-Brabant,VBO,4.991538,51.811098
Middelvaart,48,,,4285WS,Woudrichem,Woudrichem,Noord-Brabant,VBO,4.991365,51.811173
Middelvaart,50,,,4285WS,Woudrichem,Woudrichem,Noord-Brabant,VBO,4.991060,51.811233
Middelvaart,60,,,4285WS,Woudrichem,Woudrichem,Noord-Brabant,VBO,4.990298,51.811853
Middelvaart,62,,,4285WS,Woudrichem,Woudrichem,Noord-Brabant,VBO,4.990066,51.811996
Middelvaart,78,,,4285WS,Woudrichem,Woudrichem,Noord-Brabant,VBO,4.985905,51.812423
Middelvaart,80,,,4285WS,Woudrichem,Woudrichem,Noord-Brabant,VBO,4.985449,51.812483
Middelvaart,84,,,4285WS,Woudrichem,Woudrichem,Noord-Brabant,VBO,4.982511,51.813057
Middelvaart,86,,,4285WS,Woudrichem,Woudrichem,Noord-Brabant,VBO,4.982244,51.813137
Middelvaart,88,,,4285WS,Woudrichem,Woudrichem,Noord-Brabant,VBO,4.981984,51.813205
Ruigenhoekweg,1,,,4285WT,Woudrichem,Woudrichem,Noord-Brabant,VBO,4.985044,51.803229
Ruigenhoekweg,4,,,4285WT,Woudrichem,Woudrichem,Noord-Brabant,VBO,4.983465,51.804737
Ruigenhoekweg,6,,,4285WT,Woudrichem,Woudrichem,Noord-Brabant,VBO,4.982057,51.805341
Eenhoorn,1,,,4285WV,Woudrichem,Woudrichem,Noord-Brabant,VBO,4.989359,51.803121
Lunet,2,,,4285WW,Woudrichem,Woudrichem,Noord-Brabant,VBO,4.997933,51.808612
Lunet,3,,,4285WW,Woudrichem,Woudrichem,Noord-Brabant,VBO,4.998000,51.808587
Lunet,4,,,4285WW,Woudrichem,Woudrichem,Noord-Brabant,VBO,4.998068,51.808566
Lunet,5,,,4285WW,Woudrichem,Woudrichem,Noord-Brabant,VBO,4.998141,51.808540
Lunet,6,,,4285WW,Woudrichem,Woudrichem,Noord-Brabant,VBO,4.998400,51.808361
Lunet,7,,,4285WW,Woudrichem,Woudrichem,Noord-Brabant,VBO,4.998420,51.808312
Lunet,8,,,4285WW,Woudrichem,Woudrichem,Noord-Brabant,VBO,4.998242,51.808147
Lunet,9,,,4285WW,Woudrichem,Woudrichem,Noord-Brabant,VBO,4.998200,51.808101
Lunet,10,,,4285WW,Woudrichem,Woudrichem,Noord-Brabant,VBO,4.998170,51.808068
Lunet,11,,,4285WW,Woudrichem,Woudrichem,Noord-Brabant,VBO,4.998130,51.808022
Lunet,12,,,4285WW,Woudrichem,Woudrichem,Noord-Brabant,VBO,4.997845,51.807741
Middelvaartsesteeg,1,a,,4285WX,Woudrichem,Woudrichem,Noord-Brabant,VBO,4.996387,51.810590
Middelvaartsesteeg,2,a,,4285WX,Woudrichem,Woudrichem,Noord-Brabant,VBO,4.995918,51.810650
Middelvaartsesteeg,2,b,,4285WX,Woudrichem,Woudrichem,Noord-Brabant,VBO,4.995711,51.810679
Middelvaartsesteeg,2,,,4285WX,Woudrichem,Woudrichem,Noord-Brabant,VBO,4.996130,51.810626
Middelvaartsesteeg,3,,,4285WX,Woudrichem,Woudrichem,Noord-Brabant,VBO,4.994488,51.810819
Almkerkseweg,2,,,4285WZ,Woudrichem,Woudrichem,Noord-Brabant,VBO,4.997479,51.809488
Almkerkseweg,3,a,,4285WZ,Woudrichem,Woudrichem,Noord-Brabant,VBO,4.998396,51.808878
Almkerkseweg,3,b,,4285WZ,Woudrichem,Woudrichem,Noord-Brabant,VBO,4.997286,51.808519
Almkerkseweg,3,c,,4285WZ,Woudrichem,Woudrichem,Noord-Brabant,VBO,4.996911,51.808296
Almkerkseweg,3,,,4285WZ,Woudrichem,Woudrichem,Noord-Brabant,VBO,4.998200,51.809071
Almkerkseweg,4,,,4285WZ,Woudrichem,Woudrichem,Noord-Brabant,VBO,4.989148,51.805063
Almkerkseweg,5,,,4285WZ,Woudrichem,Woudrichem,Noord-Brabant,VBO,4.990594,51.805029
Almkerkseweg,6,,,4285WZ,Woudrichem,Woudrichem,Noord-Brabant,VBO,4.984002,51.801950
Almkerkseweg,7,,,4285WZ,Woudrichem,Woudrichem,Noord-Brabant,VBO,4.986723,51.802382
Almkerkseweg,10,,,4285WZ,Woudrichem,Woudrichem,Noord-Brabant,VBO,4.974460,51.794975
Schapendam,1,,,4285XA,Woudrichem,Woudrichem,Noord-Brabant,LIG,5.006397,51.816702
Schapendam,3,,,4285XA,Woudrichem,Woudrichem,Noord-Brabant,LIG,5.007984,51.816561
Schapendam,5,,,4285XA,Woudrichem,Woudrichem,Noord-Brabant,VBO,5.008422,51.816183
Schapendam,11,,,4285XA,Woudrichem,Woudrichem,Noord-Brabant,LIG,5.008409,51.815246
Schapendam,17,,,4285XA,Woudrichem,Woudrichem,Noord-Brabant,LIG,5.008791,51.813627
Schapendam,19,,,4285XA,Woudrichem,Woudrichem,Noord-Brabant,LIG,5.009101,51.813537
Sluis,2,,,4285XA,Woudrichem,Woudrichem,Noord-Brabant,VBO,5.005619,51.814436
Sluis,6,,,4285XA,Woudrichem,Woudrichem,Noord-Brabant,VBO,5.005282,51.814280
Hoge Maasdijk,1,,,4285XB,Woudrichem,Woudrichem,Noord-Brabant,VBO,5.007194,51.813503
Hoge Maasdijk,2,,,4285XB,Woudrichem,Woudrichem,Noord-Brabant,VBO,5.011055,51.810176
Hoge Maasdijk,5,,,4285XB,Woudrichem,Woudrichem,Noord-Brabant,VBO,5.008156,51.814600
Hoge Maasdijk,7,,,4285XB,Woudrichem,Woudrichem,Noord-Brabant,VBO,5.007374,51.813066
Hoge Maasdijk,9,,,4285XB,Woudrichem,Woudrichem,Noord-Brabant,VBO,5.009198,51.811516
Hogelandsesteeg,2,,,4285XC,Woudrichem,Woudrichem,Noord-Brabant,VBO,5.009762,51.808560
Postweg,1,,,4285XD,Woudrichem,Woudrichem,Noord-Brabant,VBO,5.004979,51.813550
Postweg,2,,,4285XD,Woudrichem,Woudrichem,Noord-Brabant,VBO,5.003852,51.812873
Steurstraat,1,,,4285XE,Woudrichem,Woudrichem,Noord-Brabant,VBO,4.992511,51.811995
Steurstraat,3,,,4285XE,Woudrichem,Woudrichem,Noord-Brabant,VBO,4.992491,51.811936
Steurstraat,5,,,4285XE,Woudrichem,Woudrichem,Noord-Brabant,VBO,4.992473,51.811880
Steurstraat,7,,,4285XE,Woudrichem,Woudrichem,Noord-Brabant,VBO,4.992454,51.811825
Steurstraat,9,,,4285XE,Woudrichem,Woudrichem,Noord-Brabant,VBO,4.992435,51.811769
Steurstraat,11,,,4285XE,Woudrichem,Woudrichem,Noord-Brabant,VBO,4.992415,51.811710
Steurstraat,29,,,4285XE,Woudrichem,Woudrichem,Noord-Brabant,VBO,4.992968,51.811658
Steurstraat,31,,,4285XE,Woudrichem,Woudrichem,Noord-Brabant,VBO,4.992986,51.811711
Steurstraat,33,,,4285XE,Woudrichem,Woudrichem,Noord-Brabant,VBO,4.993006,51.811769
Steurstraat,35,,,4285XE,Woudrichem,Woudrichem,Noord-Brabant,VBO,4.993026,51.811825
Steurstraat,37,,,4285XE,Woudrichem,Woudrichem,Noord-Brabant,VBO,4.993045,51.811881
Steurstraat,39,,,4285XE,Woudrichem,Woudrichem,Noord-Brabant,VBO,4.993064,51.811937
Steurstraat,41,,,4285XE,Woudrichem,Woudrichem,Noord-Brabant,VBO,4.993589,51.811845
Steurstraat,43,,,4285XE,Woudrichem,Woudrichem,Noord-Brabant,VBO,4.993569,51.811786
Steurstraat,45,,,4285XE,Woudrichem,Woudrichem,Noord-Brabant,VBO,4.993550,51.811731
Steurstraat,47,,,4285XE,Woudrichem,Woudrichem,Noord-Brabant,VBO,4.993530,51.811675
Steurstraat,49,,,4285XE,Woudrichem,Woudrichem,Noord-Brabant,VBO,4.993511,51.811619
Steurstraat,51,,,4285XE,Woudrichem,Woudrichem,Noord-Brabant,VBO,4.993492,51.811566
Steurstraat,53,,,4285XE,Woudrichem,Woudrichem,Noord-Brabant,VBO,4.995480,51.811583
Steurstraat,55,,,4285XE,Woudrichem,Woudrichem,Noord-Brabant,VBO,4.995572,51.811572
Steurstraat,57,,,4285XE,Woudrichem,Woudrichem,Noord-Brabant,VBO,4.995747,51.811549
Steurstraat,59,a,,4285XE,Woudrichem,Woudrichem,Noord-Brabant,VBO,4.997708,51.810863
Steurstraat,59,,,4285XE,Woudrichem,Woudrichem,Noord-Brabant,VBO,4.995839,51.811537
Steurstraat,61,,,4285XE,Woudrichem,Woudrichem,Noord-Brabant,VBO,4.998337,51.810655
Steurstraat,63,,,4285XE,Woudrichem,Woudrichem,Noord-Brabant,VBO,4.998337,51.810655
Steurstraat,65,,,4285XE,Woudrichem,Woudrichem,Noord-Brabant,VBO,4.998337,51.810655
Steurstraat,67,,,4285XE,Woudrichem,Woudrichem,Noord-Brabant,VBO,4.998337,51.810655
Steurstraat,69,,,4285XE,Woudrichem,Woudrichem,Noord-Brabant,VBO,4.998337,51.810655
Steurstraat,71,,,4285XE,Woudrichem,Woudrichem,Noord-Brabant,VBO,4.998337,51.810655
Steurstraat,73,,,4285XE,Woudrichem,Woudrichem,Noord-Brabant,VBO,4.998337,51.810655
Steurstraat,75,,,4285XE,Woudrichem,Woudrichem,Noord-Brabant,VBO,4.998337,51.810655
Steurstraat,77,,,4285XE,Woudrichem,Woudrichem,Noord-Brabant,VBO,4.998337,51.810655
Steurstraat,79,,,4285XE,Woudrichem,Woudrichem,Noord-Brabant,VBO,4.998337,51.810655
Steurstraat,81,,,4285XE,Woudrichem,Woudrichem,Noord-Brabant,VBO,4.998337,51.810655
Steurstraat,83,,,4285XE,Woudrichem,Woudrichem,Noord-Brabant,VBO,4.998337,51.810655
Steurstraat,85,,,4285XE,Woudrichem,Woudrichem,Noord-Brabant,VBO,4.998337,51.810655
Steurstraat,87,,,4285XE,Woudrichem,Woudrichem,Noord-Brabant,VBO,4.998337,51.810655
Steurstraat,89,,,4285XE,Woudrichem,Woudrichem,Noord-Brabant,VBO,4.998337,51.810655
Steurstraat,91,,,4285XE,Woudrichem,Woudrichem,Noord-Brabant,VBO,4.998337,51.810655
Steurstraat,93,,,4285XE,Woudrichem,Woudrichem,Noord-Brabant,VBO,4.998337,51.810655
Steurstraat,95,,,4285XE,Woudrichem,Woudrichem,Noord-Brabant,VBO,4.998337,51.810655
Steurstraat,97,,,4285XE,Woudrichem,Woudrichem,Noord-Brabant,VBO,4.998337,51.810655
Steurstraat,99,,,4285XE,Woudrichem,Woudrichem,Noord-Brabant,VBO,4.998337,51.810655
Steurstraat,101,,,4285XE,Woudrichem,Woudrichem,Noord-Brabant,VBO,4.998337,51.810655
Steurstraat,103,,,4285XE,Woudrichem,Woudrichem,Noord-Brabant,VBO,4.998337,51.810655
Steurstraat,105,,,4285XE,Woudrichem,Woudrichem,Noord-Brabant,VBO,4.998337,51.810655
Steurstraat,107,,,4285XE,Woudrichem,Woudrichem,Noord-Brabant,VBO,4.998337,51.810655
Steurstraat,109,,,4285XE,Woudrichem,Woudrichem,Noord-Brabant,VBO,4.998337,51.810655
Steurstraat,111,,,4285XE,Woudrichem,Woudrichem,Noord-Brabant,VBO,4.998337,51.810655
Steurstraat,113,,,4285XE,Woudrichem,Woudrichem,Noord-Brabant,VBO,4.998337,51.810655
Steurstraat,115,,,4285XE,Woudrichem,Woudrichem,Noord-Brabant,VBO,4.998337,51.810655
Steurstraat,117,,,4285XE,Woudrichem,Woudrichem,Noord-Brabant,VBO,4.998337,51.810655
Steurstraat,119,,,4285XE,Woudrichem,Woudrichem,Noord-Brabant,VBO,4.998337,51.810655
Steurstraat,121,,,4285XE,Woudrichem,Woudrichem,Noord-Brabant,VBO,4.998337,51.810655
Steurstraat,123,,,4285XE,Woudrichem,Woudrichem,Noord-Brabant,VBO,4.998337,51.810655
Steurstraat,125,,,4285XE,Woudrichem,Woudrichem,Noord-Brabant,VBO,4.998337,51.810655
Steurstraat,2,,,4285XG,Woudrichem,Woudrichem,Noord-Brabant,VBO,4.992731,51.812265
Steurstraat,4,,,4285XG,Woudrichem,Woudrichem,Noord-Brabant,VBO,4.992819,51.812253
Steurstraat,6,,,4285XG,Woudrichem,Woudrichem,Noord-Brabant,VBO,4.992907,51.812242
Steurstraat,8,,,4285XG,Woudrichem,Woudrichem,Noord-Brabant,VBO,4.992995,51.812230
Steurstraat,10,,,4285XG,Woudrichem,Woudrichem,Noord-Brabant,VBO,4.993075,51.812220
Steurstraat,12,,,4285XG,Woudrichem,Woudrichem,Noord-Brabant,VBO,4.993163,51.812208
Steurstraat,14,,,4285XG,Woudrichem,Woudrichem,Noord-Brabant,VBO,4.993309,51.812189
Steurstraat,16,,,4285XG,Woudrichem,Woudrichem,Noord-Brabant,VBO,4.993399,51.812177
Steurstraat,18,,,4285XG,Woudrichem,Woudrichem,Noord-Brabant,VBO,4.993489,51.812165
Steurstraat,20,,,4285XG,Woudrichem,Woudrichem,Noord-Brabant,VBO,4.993575,51.812154
Steurstraat,22,,,4285XG,Woudrichem,Woudrichem,Noord-Brabant,VBO,4.993665,51.812142
Steurstraat,24,,,4285XG,Woudrichem,Woudrichem,Noord-Brabant,VBO,4.993755,51.812130
Steurstraat,26,,,4285XG,Woudrichem,Woudrichem,Noord-Brabant,VBO,4.993902,51.812111
Steurstraat,28,,,4285XG,Woudrichem,Woudrichem,Noord-Brabant,VBO,4.993992,51.812099
Steurstraat,30,,,4285XG,Woudrichem,Woudrichem,Noord-Brabant,VBO,4.994083,51.812087
Steurstraat,32,,,4285XG,Woudrichem,Woudrichem,Noord-Brabant,VBO,4.994174,51.812075
Steurstraat,34,,,4285XG,Woudrichem,Woudrichem,Noord-Brabant,VBO,4.994328,51.812055
Steurstraat,36,,,4285XG,Woudrichem,Woudrichem,Noord-Brabant,VBO,4.994406,51.812045
Steurstraat,38,,,4285XG,Woudrichem,Woudrichem,Noord-Brabant,VBO,4.994483,51.812035
Steurstraat,40,,,4285XG,Woudrichem,Woudrichem,Noord-Brabant,VBO,4.994560,51.812025
Steurstraat,42,,,4285XG,Woudrichem,Woudrichem,Noord-Brabant,VBO,4.994638,51.812015
Steurstraat,44,,,4285XG,Woudrichem,Woudrichem,Noord-Brabant,VBO,4.994715,51.812005
Steurstraat,46,,,4285XG,Woudrichem,Woudrichem,Noord-Brabant,VBO,4.995267,51.811931
Steurstraat,48,,,4285XG,Woudrichem,Woudrichem,Noord-Brabant,VBO,4.995362,51.811919
Steurstraat,50,,,4285XG,Woudrichem,Woudrichem,Noord-Brabant,VBO,4.995587,51.811890
Steurstraat,52,,,4285XG,Woudrichem,Woudrichem,Noord-Brabant,VBO,4.995682,51.811878
Jettebospad,2,,,4285XH,Woudrichem,Woudrichem,Noord-Brabant,VBO,4.995675,51.813357
Jettebospad,4,,,4285XH,Woudrichem,Woudrichem,Noord-Brabant,VBO,4.995727,51.813351
Jettebospad,6,,,4285XH,Woudrichem,Woudrichem,Noord-Brabant,VBO,4.995776,51.813345
Jettebospad,8,,,4285XH,Woudrichem,Woudrichem,Noord-Brabant,VBO,4.995822,51.813340
Jettebospad,10,,,4285XH,Woudrichem,Woudrichem,Noord-Brabant,VBO,4.995864,51.813332
Jettebospad,12,,,4285XH,Woudrichem,Woudrichem,Noord-Brabant,VBO,4.995909,51.813328
Jettebospad,14,,,4285XH,Woudrichem,Woudrichem,Noord-Brabant,VBO,4.995951,51.813321
Jettebospad,16,,,4285XH,Woudrichem,Woudrichem,Noord-Brabant,VBO,4.995996,51.813315
Jettebospad,18,,,4285XH,Woudrichem,Woudrichem,Noord-Brabant,VBO,4.996038,51.813310
Jettebospad,20,,,4285XH,Woudrichem,Woudrichem,Noord-Brabant,VBO,4.996081,51.813304
Jettebospad,22,,,4285XH,Woudrichem,Woudrichem,Noord-Brabant,VBO,4.996124,51.813298
Jettebospad,24,,,4285XH,Woudrichem,Woudrichem,Noord-Brabant,VBO,4.996167,51.813292
Jettebospad,26,,,4285XH,Woudrichem,Woudrichem,Noord-Brabant,VBO,4.996210,51.813287
Jettebospad,28,,,4285XH,Woudrichem,Woudrichem,Noord-Brabant,VBO,4.996254,51.813282
Jettebosstraat,1,,,4285XH,Woudrichem,Woudrichem,Noord-Brabant,VBO,4.995638,51.813154
Jettebosstraat,3,,,4285XH,Woudrichem,Woudrichem,Noord-Brabant,VBO,4.995722,51.813143
Jettebosstraat,5,,,4285XH,Woudrichem,Woudrichem,Noord-Brabant,VBO,4.995810,51.813132
Jettebosstraat,7,,,4285XH,Woudrichem,Woudrichem,Noord-Brabant,VBO,4.995897,51.813121
Jettebosstraat,9,,,4285XH,Woudrichem,Woudrichem,Noord-Brabant,VBO,4.995985,51.813109
Jettebosstraat,11,,,4285XH,Woudrichem,Woudrichem,Noord-Brabant,VBO,4.996069,51.813098
Jettebosstraat,13,,,4285XH,Woudrichem,Woudrichem,Noord-Brabant,VBO,4.996153,51.813087
Jettebosstraat,15,,,4285XH,Woudrichem,Woudrichem,Noord-Brabant,VBO,4.996028,51.812799
Jettebosstraat,17,,,4285XH,Woudrichem,Woudrichem,Noord-Brabant,VBO,4.995933,51.812811
Jettebosstraat,19,,,4285XH,Woudrichem,Woudrichem,Noord-Brabant,VBO,4.995708,51.812840
Jettebosstraat,21,,,4285XH,Woudrichem,Woudrichem,Noord-Brabant,VBO,4.995613,51.812853
Jettebosstraat,23,,,4285XH,Woudrichem,Woudrichem,Noord-Brabant,VBO,4.995471,51.812540
Jettebosstraat,25,,,4285XH,Woudrichem,Woudrichem,Noord-Brabant,VBO,4.995566,51.812528
Jettebosstraat,27,,,4285XH,Woudrichem,Woudrichem,Noord-Brabant,VBO,4.995791,51.812499
Jettebosstraat,29,,,4285XH,Woudrichem,Woudrichem,Noord-Brabant,VBO,4.995886,51.812486
Jettebosstraat,31,,,4285XH,Woudrichem,Woudrichem,Noord-Brabant,VBO,4.995819,51.812181
Jettebosstraat,33,,,4285XH,Woudrichem,Woudrichem,Noord-Brabant,VBO,4.995728,51.812193
Jettebosstraat,35,,,4285XH,Woudrichem,Woudrichem,Noord-Brabant,VBO,4.995504,51.812222
Jettebosstraat,37,,,4285XH,Woudrichem,Woudrichem,Noord-Brabant,VBO,4.995408,51.812234
Jettebosstraat,39,,,4285XH,Woudrichem,Woudrichem,Noord-Brabant,VBO,4.995134,51.811634
Jettebosstraat,41,,,4285XH,Woudrichem,Woudrichem,Noord-Brabant,VBO,4.995114,51.811574
Jettebosstraat,43,,,4285XH,Woudrichem,Woudrichem,Noord-Brabant,VBO,4.994986,51.811225
Jettebosstraat,45,,,4285XH,Woudrichem,Woudrichem,Noord-Brabant,VBO,4.995077,51.811213
Jettebosstraat,47,,,4285XH,Woudrichem,Woudrichem,Noord-Brabant,VBO,4.995168,51.811201
Jettebosstraat,49,,,4285XH,Woudrichem,Woudrichem,Noord-Brabant,VBO,4.995259,51.811188
Jettebosstraat,51,,,4285XH,Woudrichem,Woudrichem,Noord-Brabant,VBO,4.995602,51.811112
Jettebosstraat,53,,,4285XH,Woudrichem,Woudrichem,Noord-Brabant,VBO,4.995624,51.811176
Jettebosstraat,55,,,4285XH,Woudrichem,Woudrichem,Noord-Brabant,VBO,4.995647,51.811243
Jettebosstraat,57,,,4285XH,Woudrichem,Woudrichem,Noord-Brabant,VBO,4.995669,51.811310
Jettebosstraat,2,,,4285XJ,Woudrichem,Woudrichem,Noord-Brabant,VBO,4.995352,51.813518
Jettebosstraat,4,,,4285XJ,Woudrichem,Woudrichem,Noord-Brabant,VBO,4.995334,51.813464
Jettebosstraat,6,,,4285XJ,Woudrichem,Woudrichem,Noord-Brabant,VBO,4.995316,51.813411
Jettebosstraat,8,,,4285XJ,Woudrichem,Woudrichem,Noord-Brabant,VBO,4.995298,51.813358
Jettebosstraat,10,,,4285XJ,Woudrichem,Woudrichem,Noord-Brabant,VBO,4.995279,51.813300
Jettebosstraat,12,,,4285XJ,Woudrichem,Woudrichem,Noord-Brabant,VBO,4.995261,51.813246
Jettebosstraat,14,,,4285XJ,Woudrichem,Woudrichem,Noord-Brabant,VBO,4.995243,51.813193
Jettebosstraat,16,,,4285XJ,Woudrichem,Woudrichem,Noord-Brabant,VBO,4.995226,51.813139
Jettebosstraat,18,,,4285XK,Woudrichem,Woudrichem,Noord-Brabant,VBO,4.995116,51.812882
Jettebosstraat,20,,,4285XK,Woudrichem,Woudrichem,Noord-Brabant,VBO,4.995099,51.812831
Jettebosstraat,22,,,4285XK,Woudrichem,Woudrichem,Noord-Brabant,VBO,4.995083,51.812783
Jettebosstraat,24,,,4285XK,Woudrichem,Woudrichem,Noord-Brabant,VBO,4.995067,51.812735
Jettebosstraat,26,,,4285XK,Woudrichem,Woudrichem,Noord-Brabant,VBO,4.995050,51.812687
Jettebosstraat,28,,,4285XK,Woudrichem,Woudrichem,Noord-Brabant,VBO,4.995043,51.812601
Jettebosstraat,30,,,4285XK,Woudrichem,Woudrichem,Noord-Brabant,VBO,4.995027,51.812553
Jettebosstraat,32,,,4285XK,Woudrichem,Woudrichem,Noord-Brabant,VBO,4.995011,51.812505
Jettebosstraat,34,,,4285XK,Woudrichem,Woudrichem,Noord-Brabant,VBO,4.994994,51.812457
Jettebosstraat,36,,,4285XK,Woudrichem,Woudrichem,Noord-Brabant,VBO,4.994978,51.812409
Jettebosstraat,38,,,4285XK,Woudrichem,Woudrichem,Noord-Brabant,VBO,4.994950,51.812326
Jettebosstraat,40,,,4285XK,Woudrichem,Woudrichem,Noord-Brabant,VBO,4.994933,51.812278
Jettebosstraat,42,,,4285XK,Woudrichem,Woudrichem,Noord-Brabant,VBO,4.994917,51.812230
Jettebosstraat,44,,,4285XK,Woudrichem,Woudrichem,Noord-Brabant,VBO,4.994901,51.812182
Jettebosstraat,46,,,4285XK,Woudrichem,Woudrichem,Noord-Brabant,VBO,4.994885,51.812134
Jettebosstraat,48,,,4285XK,Woudrichem,Woudrichem,Noord-Brabant,VBO,4.994726,51.811648
Jettebosstraat,50,,,4285XK,Woudrichem,Woudrichem,Noord-Brabant,VBO,4.994707,51.811593
Jettebosstraat,52,,,4285XK,Woudrichem,Woudrichem,Noord-Brabant,VBO,4.994671,51.811484
Jettebosstraat,54,,,4285XK,Woudrichem,Woudrichem,Noord-Brabant,VBO,4.994652,51.811429
Jettebosstraat,56,,,4285XK,Woudrichem,Woudrichem,Noord-Brabant,VBO,4.994616,51.811320
Jettebosstraat,58,,,4285XK,Woudrichem,Woudrichem,Noord-Brabant,VBO,4.994597,51.811265
Wethouder Kuijpersstraat,1,a,,4285XL,Woudrichem,Woudrichem,Noord-Brabant,VBO,4.996987,51.813344
Wethouder Kuijpersstraat,1,b,,4285XL,Woudrichem,Woudrichem,Noord-Brabant,VBO,4.996802,51.813349
Wethouder Kuijpersstraat,1,c,,4285XL,Woudrichem,Woudrichem,Noord-Brabant,VBO,4.996632,51.813371
Wethouder Kuijpersstraat,1,,,4285XL,Woudrichem,Woudrichem,Noord-Brabant,VBO,4.996283,51.813413
Wethouder Kuijpersstraat,3,,,4285XL,Woudrichem,Woudrichem,Noord-Brabant,VBO,4.996199,51.813424
Wethouder Kuijpersstraat,5,,,4285XL,Woudrichem,Woudrichem,Noord-Brabant,VBO,4.996112,51.813435
Wethouder Kuijpersstraat,7,,,4285XL,Woudrichem,Woudrichem,Noord-Brabant,VBO,4.996024,51.813447
Wethouder Kuijpersstraat,9,,,4285XL,Woudrichem,Woudrichem,Noord-Brabant,VBO,4.995936,51.813458
Wethouder Kuijpersstraat,11,,,4285XL,Woudrichem,Woudrichem,Noord-Brabant,VBO,4.995852,51.813469
Wethouder Kuijpersstraat,13,,,4285XL,Woudrichem,Woudrichem,Noord-Brabant,VBO,4.995768,51.813480
Wethouder Kuijpersstraat,15,,,4285XL,Woudrichem,Woudrichem,Noord-Brabant,VBO,4.995040,51.813575
Wethouder Kuijpersstraat,17,,,4285XL,Woudrichem,Woudrichem,Noord-Brabant,VBO,4.994953,51.813586
Wethouder Kuijpersstraat,19,,,4285XL,Woudrichem,Woudrichem,Noord-Brabant,VBO,4.994867,51.813598
Wethouder Kuijpersstraat,21,,,4285XL,Woudrichem,Woudrichem,Noord-Brabant,VBO,4.994781,51.813609
Wethouder Kuijpersstraat,23,,,4285XL,Woudrichem,Woudrichem,Noord-Brabant,VBO,4.994698,51.813620
Wethouder Kuijpersstraat,25,,,4285XL,Woudrichem,Woudrichem,Noord-Brabant,VBO,4.994527,51.813642
Wethouder Kuijpersstraat,27,,,4285XL,Woudrichem,Woudrichem,Noord-Brabant,VBO,4.994440,51.813653
Wethouder Kuijpersstraat,29,,,4285XL,Woudrichem,Woudrichem,Noord-Brabant,VBO,4.994354,51.813665
Wethouder Kuijpersstraat,31,,,4285XL,Woudrichem,Woudrichem,Noord-Brabant,VBO,4.994263,51.813676
Wethouder Kuijpersstraat,33,,,4285XL,Woudrichem,Woudrichem,Noord-Brabant,VBO,4.994181,51.813687
Wethouder Kuijpersstraat,2,a,,4285XM,Woudrichem,Woudrichem,Noord-Brabant,VBO,4.996399,51.813652
Wethouder Kuijpersstraat,2,,,4285XM,Woudrichem,Woudrichem,Noord-Brabant,VBO,4.996793,51.813623
Wethouder Kuijpersstraat,4,,,4285XM,Woudrichem,Woudrichem,Noord-Brabant,VBO,4.996323,51.813662
Wethouder Kuijpersstraat,6,,,4285XM,Woudrichem,Woudrichem,Noord-Brabant,VBO,4.996236,51.813673
Wethouder Kuijpersstraat,8,,,4285XM,Woudrichem,Woudrichem,Noord-Brabant,VBO,4.996149,51.813685
Wethouder Kuijpersstraat,10,,,4285XM,Woudrichem,Woudrichem,Noord-Brabant,VBO,4.996054,51.813697
Wethouder Kuijpersstraat,12,,,4285XM,Woudrichem,Woudrichem,Noord-Brabant,VBO,4.995967,51.813709
Wethouder Kuijpersstraat,14,,,4285XM,Woudrichem,Woudrichem,Noord-Brabant,VBO,4.995781,51.813734
Wethouder Kuijpersstraat,16,,,4285XM,Woudrichem,Woudrichem,Noord-Brabant,VBO,4.995695,51.813745
Wethouder Kuijpersstraat,18,,,4285XM,Woudrichem,Woudrichem,Noord-Brabant,VBO,4.995609,51.813757
Wethouder Kuijpersstraat,20,,,4285XM,Woudrichem,Woudrichem,Noord-Brabant,VBO,4.995518,51.813769
Wethouder Kuijpersstraat,22,,,4285XM,Woudrichem,Woudrichem,Noord-Brabant,VBO,4.995347,51.813791
Wethouder Kuijpersstraat,24,,,4285XM,Woudrichem,Woudrichem,Noord-Brabant,VBO,4.995260,51.813803
Wethouder Kuijpersstraat,26,,,4285XM,Woudrichem,Woudrichem,Noord-Brabant,VBO,4.995174,51.813814
Wethouder Kuijpersstraat,28,,,4285XM,Woudrichem,Woudrichem,Noord-Brabant,VBO,4.995087,51.813825
Wethouder Kuijpersstraat,30,,,4285XM,Woudrichem,Woudrichem,Noord-Brabant,VBO,4.994916,51.813848
Wethouder Kuijpersstraat,32,,,4285XM,Woudrichem,Woudrichem,Noord-Brabant,VBO,4.994829,51.813859
Wethouder Kuijpersstraat,34,,,4285XM,Woudrichem,Woudrichem,Noord-Brabant,VBO,4.994743,51.813870
Wethouder Kuijpersstraat,36,,,4285XM,Woudrichem,Woudrichem,Noord-Brabant,VBO,4.994657,51.813882
Wethouder Kuijpersstraat,38,,,4285XM,Woudrichem,Woudrichem,Noord-Brabant,VBO,4.994485,51.813905
Wethouder Kuijpersstraat,40,,,4285XM,Woudrichem,Woudrichem,Noord-Brabant,VBO,4.994398,51.813916
Wethouder Kuijpersstraat,42,,,4285XM,Woudrichem,Woudrichem,Noord-Brabant,VBO,4.994312,51.813927
Wethouder Kuijpersstraat,44,,,4285XM,Woudrichem,Woudrichem,Noord-Brabant,VBO,4.994225,51.813939
B.A. van der Colffstraat,1,,,4285XN,Woudrichem,Woudrichem,Noord-Brabant,VBO,4.994334,51.812997
B.A. van der Colffstraat,2,,,4285XN,Woudrichem,Woudrichem,Noord-Brabant,VBO,4.994883,51.813183
B.A. van der Colffstraat,3,,,4285XN,Woudrichem,Woudrichem,Noord-Brabant,VBO,4.994251,51.813008
B.A. van der Colffstraat,4,,,4285XN,Woudrichem,Woudrichem,Noord-Brabant,VBO,4.994796,51.813195
B.A. van der Colffstraat,5,,,4285XN,Woudrichem,Woudrichem,Noord-Brabant,VBO,4.994165,51.813020
B.A. van der Colffstraat,6,,,4285XN,Woudrichem,Woudrichem,Noord-Brabant,VBO,4.994710,51.813206
B.A. van der Colffstraat,7,,,4285XN,Woudrichem,Woudrichem,Noord-Brabant,VBO,4.994079,51.813031
B.A. van der Colffstraat,8,,,4285XN,Woudrichem,Woudrichem,Noord-Brabant,VBO,4.994624,51.813217
B.A. van der Colffstraat,9,,,4285XN,Woudrichem,Woudrichem,Noord-Brabant,VBO,4.993992,51.813043
B.A. van der Colffstraat,10,,,4285XN,Woudrichem,Woudrichem,Noord-Brabant,VBO,4.994530,51.813229
B.A. van der Colffstraat,11,,,4285XN,Woudrichem,Woudrichem,Noord-Brabant,VBO,4.993825,51.813064
B.A. van der Colffstraat,12,,,4285XN,Woudrichem,Woudrichem,Noord-Brabant,VBO,4.994358,51.813251
B.A. van der Colffstraat,13,,,4285XN,Woudrichem,Woudrichem,Noord-Brabant,VBO,4.993743,51.813075
B.A. van der Colffstraat,14,,,4285XN,Woudrichem,Woudrichem,Noord-Brabant,VBO,4.994272,51.813263
B.A. van der Colffstraat,15,,,4285XN,Woudrichem,Woudrichem,Noord-Brabant,VBO,4.993657,51.813087
B.A. van der Colffstraat,16,,,4285XN,Woudrichem,Woudrichem,Noord-Brabant,VBO,4.994186,51.813274
B.A. van der Colffstraat,17,,,4285XN,Woudrichem,Woudrichem,Noord-Brabant,VBO,4.993570,51.813098
B.A. van der Colffstraat,18,,,4285XN,Woudrichem,Woudrichem,Noord-Brabant,VBO,4.994099,51.813285
B.A. van der Colffstraat,19,,,4285XN,Woudrichem,Woudrichem,Noord-Brabant,VBO,4.993484,51.813110
B.A. van der Colffstraat,20,,,4285XN,Woudrichem,Woudrichem,Noord-Brabant,VBO,4.994009,51.813297
Elftstraat,1,,,4285XP,Woudrichem,Woudrichem,Noord-Brabant,VBO,4.992858,51.812594
Elftstraat,3,,,4285XP,Woudrichem,Woudrichem,Noord-Brabant,VBO,4.992950,51.812582
Elftstraat,5,,,4285XP,Woudrichem,Woudrichem,Noord-Brabant,VBO,4.993039,51.812570
Elftstraat,7,,,4285XP,Woudrichem,Woudrichem,Noord-Brabant,VBO,4.993127,51.812559
Elftstraat,9,,,4285XP,Woudrichem,Woudrichem,Noord-Brabant,VBO,4.993272,51.812539
Elftstraat,11,,,4285XP,Woudrichem,Woudrichem,Noord-Brabant,VBO,4.993364,51.812527
Elftstraat,13,,,4285XP,Woudrichem,Woudrichem,Noord-Brabant,VBO,4.993456,51.812515
Elftstraat,15,,,4285XP,Woudrichem,Woudrichem,Noord-Brabant,VBO,4.993543,51.812503
Elftstraat,17,,,4285XP,Woudrichem,Woudrichem,Noord-Brabant,VBO,4.993631,51.812492
Elftstraat,19,,,4285XP,Woudrichem,Woudrichem,Noord-Brabant,VBO,4.993719,51.812480
Elftstraat,21,,,4285XP,Woudrichem,Woudrichem,Noord-Brabant,VBO,4.993863,51.812461
Elftstraat,23,,,4285XP,Woudrichem,Woudrichem,Noord-Brabant,VBO,4.993955,51.812449
Elftstraat,25,,,4285XP,Woudrichem,Woudrichem,Noord-Brabant,VBO,4.994043,51.812437
Elftstraat,27,,,4285XP,Woudrichem,Woudrichem,Noord-Brabant,VBO,4.994131,51.812425
Elftstraat,29,,,4285XP,Woudrichem,Woudrichem,Noord-Brabant,VBO,4.994219,51.812414
Elftstraat,31,,,4285XP,Woudrichem,Woudrichem,Noord-Brabant,VBO,4.994303,51.812402
Elftstraat,33,,,4285XP,Woudrichem,Woudrichem,Noord-Brabant,VBO,4.994496,51.812525
Elftstraat,35,,,4285XP,Woudrichem,Woudrichem,Noord-Brabant,VBO,4.994515,51.812579
Elftstraat,37,,,4285XP,Woudrichem,Woudrichem,Noord-Brabant,VBO,4.994534,51.812634
Elftstraat,39,,,4285XP,Woudrichem,Woudrichem,Noord-Brabant,VBO,4.994553,51.812689
Elftstraat,41,,,4285XP,Woudrichem,Woudrichem,Noord-Brabant,VBO,4.994589,51.812796
Elftstraat,43,,,4285XP,Woudrichem,Woudrichem,Noord-Brabant,VBO,4.994609,51.812854
Elftstraat,45,,,4285XP,Woudrichem,Woudrichem,Noord-Brabant,VBO,4.994627,51.812908
Elftstraat,47,,,4285XP,Woudrichem,Woudrichem,Noord-Brabant,VBO,4.994646,51.812963
Elftstraat,49,a,,4285XP,Woudrichem,Woudrichem,Noord-Brabant,VBO,4.994372,51.812375
Elftstraat,49,b,,4285XP,Woudrichem,Woudrichem,Noord-Brabant,VBO,4.994379,51.812348
Elftstraat,49,c,,4285XP,Woudrichem,Woudrichem,Noord-Brabant,VBO,4.994368,51.812322
Elftstraat,49,d,,4285XP,Woudrichem,Woudrichem,Noord-Brabant,VBO,4.994359,51.812295
Elftstraat,49,e,,4285XP,Woudrichem,Woudrichem,Noord-Brabant,VBO,4.994359,51.812270
Elftstraat,49,f,,4285XP,Woudrichem,Woudrichem,Noord-Brabant,VBO,4.994345,51.812244
Elftstraat,49,g,,4285XP,Woudrichem,Woudrichem,Noord-Brabant,VBO,4.994566,51.812195
Elftstraat,49,h,,4285XP,Woudrichem,Woudrichem,Noord-Brabant,VBO,4.994569,51.812225
Elftstraat,49,i,,4285XP,Woudrichem,Woudrichem,Noord-Brabant,VBO,4.994584,51.812253
Elftstraat,49,j,,4285XP,Woudrichem,Woudrichem,Noord-Brabant,VBO,4.994604,51.812278
Elftstraat,49,k,,4285XP,Woudrichem,Woudrichem,Noord-Brabant,VBO,4.994605,51.812304
Elftstraat,49,l,,4285XP,Woudrichem,Woudrichem,Noord-Brabant,VBO,4.994621,51.812327
Elftstraat,49,m,,4285XP,Woudrichem,Woudrichem,Noord-Brabant,VBO,4.994622,51.812352
Elftstraat,49,n,,4285XP,Woudrichem,Woudrichem,Noord-Brabant,VBO,4.994640,51.812384
Elftstraat,49,o,,4285XP,Woudrichem,Woudrichem,Noord-Brabant,VBO,4.994645,51.812407
Elftstraat,2,,,4285XR,Woudrichem,Woudrichem,Noord-Brabant,VBO,4.993332,51.812786
Elftstraat,4,,,4285XR,Woudrichem,Woudrichem,Noord-Brabant,VBO,4.993420,51.812774
Elftstraat,6,,,4285XR,Woudrichem,Woudrichem,Noord-Brabant,VBO,4.993508,51.812762
Elftstraat,8,,,4285XR,Woudrichem,Woudrichem,Noord-Brabant,VBO,4.993597,51.812750
Elftstraat,10,,,4285XR,Woudrichem,Woudrichem,Noord-Brabant,VBO,4.993761,51.812729
Elftstraat,12,,,4285XR,Woudrichem,Woudrichem,Noord-Brabant,VBO,4.993849,51.812717
Elftstraat,14,,,4285XR,Woudrichem,Woudrichem,Noord-Brabant,VBO,4.993937,51.812705
Elftstraat,16,,,4285XR,Woudrichem,Woudrichem,Noord-Brabant,VBO,4.994024,51.812694
Elftstraat,18,,,4285XR,Woudrichem,Woudrichem,Noord-Brabant,VBO,4.994112,51.812682
Elftstraat,20,,,4285XR,Woudrichem,Woudrichem,Noord-Brabant,VBO,4.994196,51.812671
Fintstraat,2,a,,4285XS,Woudrichem,Woudrichem,Noord-Brabant,VBO,4.991721,51.811443
Fintstraat,2,b,,4285XS,Woudrichem,Woudrichem,Noord-Brabant,VBO,4.991802,51.811432
Fintstraat,2,c,,4285XS,Woudrichem,Woudrichem,Noord-Brabant,VBO,4.991967,51.811410
Fintstraat,2,d,,4285XS,Woudrichem,Woudrichem,Noord-Brabant,VBO,4.992047,51.811399
Fintstraat,2,,,4285XS,Woudrichem,Woudrichem,Noord-Brabant,VBO,4.992320,51.811536
Fintstraat,4,,,4285XS,Woudrichem,Woudrichem,Noord-Brabant,VBO,4.992410,51.811524
Fintstraat,6,,,4285XS,Woudrichem,Woudrichem,Noord-Brabant,VBO,4.992582,51.811502
Fintstraat,8,,,4285XS,Woudrichem,Woudrichem,Noord-Brabant,VBO,4.992671,51.811490
Fintstraat,10,,,4285XS,Woudrichem,Woudrichem,Noord-Brabant,VBO,4.993059,51.811438
Fintstraat,12,,,4285XS,Woudrichem,Woudrichem,Noord-Brabant,VBO,4.993148,51.811426
Fintstraat,14,,,4285XS,Woudrichem,Woudrichem,Noord-Brabant,VBO,4.993321,51.811404
Fintstraat,16,,,4285XS,Woudrichem,Woudrichem,Noord-Brabant,VBO,4.993410,51.811392
Fintstraat,18,,,4285XS,Woudrichem,Woudrichem,Noord-Brabant,VBO,4.993655,51.811359
Fintstraat,20,,,4285XS,Woudrichem,Woudrichem,Noord-Brabant,VBO,4.993734,51.811348
Burgemeester van Rijswijkstraat,1,,,4285XT,Woudrichem,Woudrichem,Noord-Brabant,VBO,4.994003,51.814254
Burgemeester van Rijswijkstraat,3,,,4285XT,Woudrichem,Woudrichem,Noord-Brabant,VBO,4.993986,51.814203
Burgemeester van Rijswijkstraat,5,,,4285XT,Woudrichem,Woudrichem,Noord-Brabant,VBO,4.993968,51.814149
Burgemeester van Rijswijkstraat,7,,,4285XT,Woudrichem,Woudrichem,Noord-Brabant,VBO,4.993950,51.814096
Burgemeester van Rijswijkstraat,9,,,4285XT,Woudrichem,Woudrichem,Noord-Brabant,VBO,4.993931,51.814042
Burgemeester van Rijswijkstraat,11,,,4285XT,Woudrichem,Woudrichem,Noord-Brabant,VBO,4.993914,51.813991
Burgemeester van Rijswijkstraat,13,,,4285XT,Woudrichem,Woudrichem,Noord-Brabant,VBO,4.993825,51.813726
Burgemeester van Rijswijkstraat,15,,,4285XT,Woudrichem,Woudrichem,Noord-Brabant,VBO,4.993804,51.813664
Burgemeester van Rijswijkstraat,17,,,4285XT,Woudrichem,Woudrichem,Noord-Brabant,VBO,4.993783,51.813602
Burgemeester van Rijswijkstraat,19,,,4285XT,Woudrichem,Woudrichem,Noord-Brabant,VBO,4.993744,51.813488
Burgemeester van Rijswijkstraat,21,,,4285XT,Woudrichem,Woudrichem,Noord-Brabant,VBO,4.993723,51.813426
Burgemeester van Rijswijkstraat,23,,,4285XT,Woudrichem,Woudrichem,Noord-Brabant,VBO,4.993703,51.813366
Burgemeester van Rijswijkstraat,25,,,4285XT,Woudrichem,Woudrichem,Noord-Brabant,VBO,4.993138,51.813163
Burgemeester van Rijswijkstraat,27,,,4285XT,Woudrichem,Woudrichem,Noord-Brabant,VBO,4.993119,51.813110
Burgemeester van Rijswijkstraat,29,,,4285XT,Woudrichem,Woudrichem,Noord-Brabant,VBO,4.993101,51.813057
Burgemeester van Rijswijkstraat,31,,,4285XV,Woudrichem,Woudrichem,Noord-Brabant,VBO,4.993082,51.813001
Burgemeester van Rijswijkstraat,33,,,4285XV,Woudrichem,Woudrichem,Noord-Brabant,VBO,4.993064,51.812950
Burgemeester van Rijswijkstraat,35,,,4285XV,Woudrichem,Woudrichem,Noord-Brabant,VBO,4.993046,51.812896
Burgemeester van Rijswijkstraat,37,,,4285XV,Woudrichem,Woudrichem,Noord-Brabant,VBO,4.993027,51.812843
Burgemeester van Rijswijkstraat,39,a,,4285XV,Woudrichem,Woudrichem,Noord-Brabant,VBO,4.992592,51.812615
Burgemeester van Rijswijkstraat,39,,,4285XV,Woudrichem,Woudrichem,Noord-Brabant,VBO,4.992533,51.812638
Burgemeester van Rijswijkstraat,41,a,,4285XV,Woudrichem,Woudrichem,Noord-Brabant,VBO,4.992563,51.812564
Burgemeester van Rijswijkstraat,41,,,4285XV,Woudrichem,Woudrichem,Noord-Brabant,VBO,4.992512,51.812578
Burgemeester van Rijswijkstraat,43,a,,4285XV,Woudrichem,Woudrichem,Noord-Brabant,VBO,4.992546,51.812515
Burgemeester van Rijswijkstraat,43,,,4285XV,Woudrichem,Woudrichem,Noord-Brabant,VBO,4.992489,51.812514
Burgemeester van Rijswijkstraat,45,a,,4285XV,Woudrichem,Woudrichem,Noord-Brabant,VBO,4.992495,51.812425
Burgemeester van Rijswijkstraat,45,,,4285XV,Woudrichem,Woudrichem,Noord-Brabant,VBO,4.992468,51.812456
Burgemeester van Rijswijkstraat,47,a,,4285XV,Woudrichem,Woudrichem,Noord-Brabant,VBO,4.992498,51.812389
Burgemeester van Rijswijkstraat,47,,,4285XV,Woudrichem,Woudrichem,Noord-Brabant,VBO,4.992445,51.812392
Burgemeester van Rijswijkstraat,49,a,,4285XV,Woudrichem,Woudrichem,Noord-Brabant,VBO,4.992473,51.812333
Burgemeester van Rijswijkstraat,49,,,4285XV,Woudrichem,Woudrichem,Noord-Brabant,VBO,4.992423,51.812328
Burgemeester van Rijswijkstraat,51,,,4285XV,Woudrichem,Woudrichem,Noord-Brabant,VBO,4.991990,51.812085
Burgemeester van Rijswijkstraat,53,,,4285XV,Woudrichem,Woudrichem,Noord-Brabant,VBO,4.991972,51.812034
Burgemeester van Rijswijkstraat,55,,,4285XV,Woudrichem,Woudrichem,Noord-Brabant,VBO,4.991954,51.811981
Burgemeester van Rijswijkstraat,57,,,4285XV,Woudrichem,Woudrichem,Noord-Brabant,VBO,4.991936,51.811927
Burgemeester van Rijswijkstraat,59,,,4285XV,Woudrichem,Woudrichem,Noord-Brabant,VBO,4.991917,51.811874
Burgemeester van Rijswijkstraat,61,,,4285XV,Woudrichem,Woudrichem,Noord-Brabant,VBO,4.991898,51.811818
Burgemeester van Rijswijkstraat,63,,,4285XV,Woudrichem,Woudrichem,Noord-Brabant,VBO,4.991881,51.811767
Burgemeester van Rijswijkstraat,65,,,4285XV,Woudrichem,Woudrichem,Noord-Brabant,VBO,4.991331,51.811596
Burgemeester van Rijswijkstraat,67,,,4285XV,Woudrichem,Woudrichem,Noord-Brabant,VBO,4.991290,51.811556
Burgemeester van Rijswijkstraat,69,,,4285XV,Woudrichem,Woudrichem,Noord-Brabant,VBO,4.991203,51.811469
Burgemeester van Rijswijkstraat,71,,,4285XV,Woudrichem,Woudrichem,Noord-Brabant,VBO,4.991161,51.811427
Burgemeester van Rijswijkstraat,2,,,4285XW,Woudrichem,Woudrichem,Noord-Brabant,VBO,4.992548,51.813284
Burgemeester van Rijswijkstraat,4,,,4285XW,Woudrichem,Woudrichem,Noord-Brabant,VBO,4.992467,51.813316
Burgemeester van Rijswijkstraat,6,,,4285XW,Woudrichem,Woudrichem,Noord-Brabant,VBO,4.992386,51.813349
Burgemeester van Rijswijkstraat,8,,,4285XW,Woudrichem,Woudrichem,Noord-Brabant,VBO,4.992304,51.813381
Burgemeester van Rijswijkstraat,12,,,4285XW,Woudrichem,Woudrichem,Noord-Brabant,VBO,4.992191,51.813160
Burgemeester van Rijswijkstraat,14,,,4285XW,Woudrichem,Woudrichem,Noord-Brabant,VBO,4.992139,51.813110
Burgemeester van Rijswijkstraat,16,,,4285XW,Woudrichem,Woudrichem,Noord-Brabant,VBO,4.992088,51.813059
Burgemeester van Rijswijkstraat,18,,,4285XW,Woudrichem,Woudrichem,Noord-Brabant,VBO,4.992036,51.813009
Burgemeester van Rijswijkstraat,20,,,4285XW,Woudrichem,Woudrichem,Noord-Brabant,VBO,4.991983,51.812956
Burgemeester van Rijswijkstraat,22,,,4285XW,Woudrichem,Woudrichem,Noord-Brabant,VBO,4.991931,51.812906
Burgemeester van Rijswijkstraat,24,,,4285XW,Woudrichem,Woudrichem,Noord-Brabant,VBO,4.991982,51.812712
Burgemeester van Rijswijkstraat,26,,,4285XW,Woudrichem,Woudrichem,Noord-Brabant,VBO,4.991895,51.812746
Burgemeester van Rijswijkstraat,28,,,4285XW,Woudrichem,Woudrichem,Noord-Brabant,VBO,4.991676,51.812460
Burgemeester Verhagenstraat,1,,,4285XW,Woudrichem,Woudrichem,Noord-Brabant,VBO,4.997333,51.813697
Burgemeester van Rijswijkstraat,30,a,,4285XX,Woudrichem,Woudrichem,Noord-Brabant,VBO,4.991781,51.812888
Burgemeester van Rijswijkstraat,30,b,,4285XX,Woudrichem,Woudrichem,Noord-Brabant,VBO,4.991768,51.812865
Burgemeester van Rijswijkstraat,30,c,,4285XX,Woudrichem,Woudrichem,Noord-Brabant,VBO,4.991737,51.812844
Burgemeester van Rijswijkstraat,30,d,,4285XX,Woudrichem,Woudrichem,Noord-Brabant,VBO,4.991713,51.812819
Burgemeester van Rijswijkstraat,30,e,,4285XX,Woudrichem,Woudrichem,Noord-Brabant,VBO,4.991699,51.812798
Burgemeester van Rijswijkstraat,30,f,,4285XX,Woudrichem,Woudrichem,Noord-Brabant,VBO,4.991677,51.812776
Burgemeester van Rijswijkstraat,30,g,,4285XX,Woudrichem,Woudrichem,Noord-Brabant,VBO,4.991650,51.812759
Burgemeester van Rijswijkstraat,30,h,,4285XX,Woudrichem,Woudrichem,Noord-Brabant,VBO,4.991625,51.812739
Burgemeester van Rijswijkstraat,30,i,,4285XX,Woudrichem,Woudrichem,Noord-Brabant,VBO,4.991603,51.812713
Burgemeester van Rijswijkstraat,30,j,,4285XX,Woudrichem,Woudrichem,Noord-Brabant,VBO,4.991581,51.812690
Burgemeester van Rijswijkstraat,30,k,,4285XX,Woudrichem,Woudrichem,Noord-Brabant,VBO,4.991569,51.812665
Burgemeester van Rijswijkstraat,30,l,,4285XX,Woudrichem,Woudrichem,Noord-Brabant,VBO,4.991542,51.812646
Burgemeester van Rijswijkstraat,30,m,,4285XX,Woudrichem,Woudrichem,Noord-Brabant,VBO,4.991521,51.812626
Burgemeester van Rijswijkstraat,30,n,,4285XX,Woudrichem,Woudrichem,Noord-Brabant,VBO,4.991498,51.812602
Burgemeester van Rijswijkstraat,30,o,,4285XX,Woudrichem,Woudrichem,Noord-Brabant,VBO,4.991468,51.812580
Burgemeester van Rijswijkstraat,30,p,,4285XX,Woudrichem,Woudrichem,Noord-Brabant,VBO,4.991444,51.812561
Burgemeester van Rijswijkstraat,30,q,,4285XX,Woudrichem,Woudrichem,Noord-Brabant,VBO,4.991427,51.812539
Burgemeester van Rijswijkstraat,30,r,,4285XX,Woudrichem,Woudrichem,Noord-Brabant,VBO,4.991391,51.812518
Burgemeester van Rijswijkstraat,30,s,,4285XX,Woudrichem,Woudrichem,Noord-Brabant,VBO,4.991370,51.812498
Burgemeester van Rijswijkstraat,30,t,,4285XX,Woudrichem,Woudrichem,Noord-Brabant,VBO,4.991353,51.812472
Burgemeester van Rijswijkstraat,30,,,4285XX,Woudrichem,Woudrichem,Noord-Brabant,VBO,4.991590,51.812494
Burgemeester van Rijswijkstraat,32,,,4285XX,Woudrichem,Woudrichem,Noord-Brabant,VBO,4.991384,51.812370
Burgemeester van Rijswijkstraat,34,,,4285XX,Woudrichem,Woudrichem,Noord-Brabant,VBO,4.991333,51.812320
Burgemeester van Rijswijkstraat,36,,,4285XX,Woudrichem,Woudrichem,Noord-Brabant,VBO,4.991281,51.812270
Burgemeester van Rijswijkstraat,38,,,4285XX,Woudrichem,Woudrichem,Noord-Brabant,VBO,4.991230,51.812220
Burgemeester van Rijswijkstraat,40,,,4285XX,Woudrichem,Woudrichem,Noord-Brabant,VBO,4.991178,51.812169
Burgemeester van Rijswijkstraat,42,,,4285XX,Woudrichem,Woudrichem,Noord-Brabant,VBO,4.991127,51.812119
Burgemeester van Rijswijkstraat,44,,,4285XX,Woudrichem,Woudrichem,Noord-Brabant,VBO,4.991151,51.811891
Burgemeester van Rijswijkstraat,46,,,4285XX,Woudrichem,Woudrichem,Noord-Brabant,VBO,4.991074,51.811922
Burgemeester van Rijswijkstraat,48,,,4285XX,Woudrichem,Woudrichem,Noord-Brabant,VBO,4.990996,51.811953
Burgemeester van Rijswijkstraat,50,,,4285XX,Woudrichem,Woudrichem,Noord-Brabant,VBO,4.990919,51.811983
Burgemeester van Rijswijkstraat,52,,,4285XX,Woudrichem,Woudrichem,Noord-Brabant,VBO,4.990853,51.811647
Burgemeester van Rijswijkstraat,54,,,4285XX,Woudrichem,Woudrichem,Noord-Brabant,VBO,4.990775,51.811677
Burgemeester van Rijswijkstraat,56,,,4285XX,Woudrichem,Woudrichem,Noord-Brabant,VBO,4.990698,51.811708
Burgemeester van Rijswijkstraat,58,,,4285XX,Woudrichem,Woudrichem,Noord-Brabant,VBO,4.990620,51.811738
Zalmstraat,1,,,4285XX,Woudrichem,Woudrichem,Noord-Brabant,VBO,4.994231,51.811763
Zalmstraat,2,,,4285XX,Woudrichem,Woudrichem,Noord-Brabant,VBO,4.993675,51.811171
Zalmstraat,3,,,4285XX,Woudrichem,Woudrichem,Noord-Brabant,VBO,4.994191,51.811644
Zalmstraat,4,,,4285XX,Woudrichem,Woudrichem,Noord-Brabant,VBO,4.993665,51.811124
Zalmstraat,5,,,4285XX,Woudrichem,Woudrichem,Noord-Brabant,VBO,4.994162,51.811541
Zalmstraat,6,,,4285XX,Woudrichem,Woudrichem,Noord-Brabant,VBO,4.993644,51.811027
Zalmstraat,7,,,4285XX,Woudrichem,Woudrichem,Noord-Brabant,VBO,4.994111,51.811405
Zalmstraat,8,,,4285XX,Woudrichem,Woudrichem,Noord-Brabant,VBO,4.993634,51.810980
Zalmstraat,9,,,4285XX,Woudrichem,Woudrichem,Noord-Brabant,VBO,4.994083,51.811321
Fortstraat,1,,,4285XZ,Woudrichem,Woudrichem,Noord-Brabant,VBO,4.993350,51.814287
Fortstraat,2,,,4285XZ,Woudrichem,Woudrichem,Noord-Brabant,VBO,4.993416,51.814482
Fortstraat,3,,,4285XZ,Woudrichem,Woudrichem,Noord-Brabant,VBO,4.993244,51.814169
Fortstraat,4,,,4285XZ,Woudrichem,Woudrichem,Noord-Brabant,VBO,4.993230,51.814482
Fortstraat,5,,,4285XZ,Woudrichem,Woudrichem,Noord-Brabant,VBO,4.993076,51.813915
Fortstraat,6,,,4285XZ,Woudrichem,Woudrichem,Noord-Brabant,VBO,4.993015,51.814475
Fortstraat,7,,,4285XZ,Woudrichem,Woudrichem,Noord-Brabant,VBO,4.993098,51.813822
Fortstraat,8,,,4285XZ,Woudrichem,Woudrichem,Noord-Brabant,VBO,4.992983,51.814292
Fortstraat,10,,,4285XZ,Woudrichem,Woudrichem,Noord-Brabant,VBO,4.992854,51.814165
Fortstraat,12,,,4285XZ,Woudrichem,Woudrichem,Noord-Brabant,VBO,4.992820,51.813983
Fortstraat,14,,,4285XZ,Woudrichem,Woudrichem,Noord-Brabant,VBO,4.992795,51.813841
Fortstraat,16,a,,4285XZ,Woudrichem,Woudrichem,Noord-Brabant,VBO,4.992567,51.813660
Fortstraat,16,b,,4285XZ,Woudrichem,Woudrichem,Noord-Brabant,VBO,4.992521,51.813647
Fortstraat,16,c,,4285XZ,Woudrichem,Woudrichem,Noord-Brabant,VBO,4.992522,51.813617
Fortstraat,16,d,,4285XZ,Woudrichem,Woudrichem,Noord-Brabant,VBO,4.992501,51.813596
Fortstraat,16,e,,4285XZ,Woudrichem,Woudrichem,Noord-Brabant,VBO,4.992480,51.813574
Fortstraat,16,f,,4285XZ,Woudrichem,Woudrichem,Noord-Brabant,VBO,4.992458,51.813553
Fortstraat,16,g,,4285XZ,Woudrichem,Woudrichem,Noord-Brabant,VBO,4.992435,51.813532
Fortstraat,16,,,4285XZ,Woudrichem,Woudrichem,Noord-Brabant,VBO,4.992753,51.813766
Fortstraat,18,,,4285XZ,Woudrichem,Woudrichem,Noord-Brabant,VBO,4.992657,51.813626
Fortstraat,20,,,4285XZ,Woudrichem,Woudrichem,Noord-Brabant,VBO,4.992710,51.813573
Fortstraat,22,,,4285XZ,Woudrichem,Woudrichem,Noord-Brabant,VBO,4.992783,51.813544
Fortstraat,24,,,4285XZ,Woudrichem,Woudrichem,Noord-Brabant,VBO,4.992833,51.813492
