openbareruimtenaam,huisnummer,huisletter,huisnummertoevoeging,postcode,woonplaatsnaam,gemeentenaam,provincienaam,typeadresseerbaarobject,longitude,latitude
Fabriciusstraat,1,,,4286AA,Almkerk,Woudrichem,Noord-Brabant,VBO,4.957147,51.770446
Fabriciusstraat,2,,,4286AA,Almkerk,Woudrichem,Noord-Brabant,VBO,4.957526,51.770767
Fabriciusstraat,3,,,4286AA,Almkerk,Woudrichem,Noord-Brabant,VBO,4.957177,51.770667
Fabriciusstraat,4,,,4286AA,Almkerk,Woudrichem,Noord-Brabant,VBO,4.957510,51.770832
Fabriciusstraat,5,,,4286AA,Almkerk,Woudrichem,Noord-Brabant,VBO,4.957152,51.770765
Fabriciusstraat,6,,,4286AA,Almkerk,Woudrichem,Noord-Brabant,VBO,4.957480,51.770950
Fabriciusstraat,7,,,4286AA,Almkerk,Woudrichem,Noord-Brabant,VBO,4.957128,51.770862
Fabriciusstraat,8,,,4286AA,Almkerk,Woudrichem,Noord-Brabant,VBO,4.957464,51.771014
Fabriciusstraat,9,a,,4286AA,Almkerk,Woudrichem,Noord-Brabant,VBO,4.957074,51.771025
Fabriciusstraat,9,,,4286AA,Almkerk,Woudrichem,Noord-Brabant,VBO,4.957095,51.770961
Fabriciusstraat,10,,,4286AA,Almkerk,Woudrichem,Noord-Brabant,VBO,4.957432,51.771136
Fabriciusstraat,11,,,4286AA,Almkerk,Woudrichem,Noord-Brabant,VBO,4.957060,51.771125
Fabriciusstraat,12,,,4286AA,Almkerk,Woudrichem,Noord-Brabant,VBO,4.957413,51.771200
Fabriciusstraat,13,,,4286AA,Almkerk,Woudrichem,Noord-Brabant,VBO,4.957019,51.771260
Fabriciusstraat,14,,,4286AA,Almkerk,Woudrichem,Noord-Brabant,VBO,4.957378,51.771318
Fabriciusstraat,15,,,4286AA,Almkerk,Woudrichem,Noord-Brabant,VBO,4.956951,51.771406
Fabriciusstraat,16,,,4286AA,Almkerk,Woudrichem,Noord-Brabant,VBO,4.957357,51.771382
Fabriciusstraat,17,,,4286AA,Almkerk,Woudrichem,Noord-Brabant,VBO,4.956818,51.771568
Fabriciusstraat,18,,,4286AA,Almkerk,Woudrichem,Noord-Brabant,VBO,4.957315,51.771494
Fabriciusstraat,20,,,4286AA,Almkerk,Woudrichem,Noord-Brabant,VBO,4.957292,51.771549
Fabriciusstraat,22,,,4286AA,Almkerk,Woudrichem,Noord-Brabant,VBO,4.957238,51.771689
Graaf van Nieuwenaarstraat,7,,,4286AB,Almkerk,Woudrichem,Noord-Brabant,VBO,4.955438,51.770325
Graaf van Nieuwenaarstraat,2,,,4286AD,Almkerk,Woudrichem,Noord-Brabant,VBO,4.955782,51.770431
Graaf van Nieuwenaarstraat,4,,,4286AD,Almkerk,Woudrichem,Noord-Brabant,VBO,4.955781,51.770545
Graaf van Nieuwenaarstraat,6,,,4286AD,Almkerk,Woudrichem,Noord-Brabant,VBO,4.955778,51.770681
Graaf van Nieuwenaarstraat,8,,,4286AD,Almkerk,Woudrichem,Noord-Brabant,VBO,4.955774,51.770787
Graaf van Nieuwenaarstraat,10,,,4286AD,Almkerk,Woudrichem,Noord-Brabant,VBO,4.955770,51.770854
Graaf van Nieuwenaarstraat,12,,,4286AD,Almkerk,Woudrichem,Noord-Brabant,VBO,4.955760,51.770963
Graaf van Nieuwenaarstraat,14,,,4286AD,Almkerk,Woudrichem,Noord-Brabant,VBO,4.955753,51.771026
Graaf van Nieuwenaarstraat,16,,,4286AD,Almkerk,Woudrichem,Noord-Brabant,VBO,4.955740,51.771134
Graaf van Nieuwenaarstraat,18,,,4286AD,Almkerk,Woudrichem,Noord-Brabant,VBO,4.955731,51.771197
Graaf van Nieuwenaarstraat,20,,,4286AD,Almkerk,Woudrichem,Noord-Brabant,VBO,4.955713,51.771308
Graaf van Nieuwenaarstraat,22,a,,4286AD,Almkerk,Woudrichem,Noord-Brabant,VBO,4.955693,51.771438
Graaf van Nieuwenaarstraat,22,,,4286AD,Almkerk,Woudrichem,Noord-Brabant,VBO,4.955703,51.771370
Professor de Quayplein,1,,,4286AE,Almkerk,Woudrichem,Noord-Brabant,VBO,4.955380,51.769743
Professor de Quayplein,2,,,4286AE,Almkerk,Woudrichem,Noord-Brabant,VBO,4.955412,51.769842
Professor de Quayplein,3,,,4286AE,Almkerk,Woudrichem,Noord-Brabant,VBO,4.955423,51.769913
Professor de Quayplein,4,,,4286AE,Almkerk,Woudrichem,Noord-Brabant,VBO,4.955799,51.770137
Professor de Quayplein,5,,,4286AE,Almkerk,Woudrichem,Noord-Brabant,VBO,4.955986,51.770128
Professor de Quayplein,6,,,4286AE,Almkerk,Woudrichem,Noord-Brabant,VBO,4.956599,51.769776
Professor de Quayplein,7,,,4286AE,Almkerk,Woudrichem,Noord-Brabant,VBO,4.956120,51.769618
Professor de Quayplein,8,,,4286AE,Almkerk,Woudrichem,Noord-Brabant,VBO,4.955945,51.769555
Graaf van Hornestraat,1,,,4286AG,Almkerk,Woudrichem,Noord-Brabant,VBO,4.955047,51.769945
Graaf van Hornestraat,3,,,4286AG,Almkerk,Woudrichem,Noord-Brabant,VBO,4.954966,51.769948
Graaf van Hornestraat,5,,,4286AG,Almkerk,Woudrichem,Noord-Brabant,VBO,4.954881,51.769952
Graaf van Hornestraat,7,,,4286AG,Almkerk,Woudrichem,Noord-Brabant,VBO,4.954796,51.769956
Graaf van Hornestraat,9,,,4286AG,Almkerk,Woudrichem,Noord-Brabant,VBO,4.954632,51.769963
Graaf van Hornestraat,11,,,4286AG,Almkerk,Woudrichem,Noord-Brabant,VBO,4.954551,51.769966
Graaf van Hornestraat,13,,,4286AG,Almkerk,Woudrichem,Noord-Brabant,VBO,4.954471,51.769970
Graaf van Hornestraat,15,,,4286AG,Almkerk,Woudrichem,Noord-Brabant,VBO,4.954386,51.769974
Graaf van Hornestraat,17,,,4286AG,Almkerk,Woudrichem,Noord-Brabant,VBO,4.954221,51.769981
Graaf van Hornestraat,19,,,4286AG,Almkerk,Woudrichem,Noord-Brabant,VBO,4.954137,51.769985
Graaf van Hornestraat,21,,,4286AG,Almkerk,Woudrichem,Noord-Brabant,VBO,4.954052,51.769989
Graaf van Hornestraat,23,,,4286AG,Almkerk,Woudrichem,Noord-Brabant,VBO,4.953971,51.769992
Graaf van Hornestraat,6,,,4286AH,Almkerk,Woudrichem,Noord-Brabant,VBO,4.955376,51.770157
Graaf van Hornestraat,8,,,4286AH,Almkerk,Woudrichem,Noord-Brabant,VBO,4.955182,51.770164
Graaf van Hornestraat,10,,,4286AH,Almkerk,Woudrichem,Noord-Brabant,VBO,4.955004,51.770172
Graaf van Hornestraat,12,,,4286AH,Almkerk,Woudrichem,Noord-Brabant,VBO,4.954911,51.770176
Graaf van Hornestraat,14,,,4286AH,Almkerk,Woudrichem,Noord-Brabant,VBO,4.954702,51.770186
Graaf van Hornestraat,16,,,4286AH,Almkerk,Woudrichem,Noord-Brabant,VBO,4.954610,51.770190
Graaf van Hornestraat,18,,,4286AH,Almkerk,Woudrichem,Noord-Brabant,VBO,4.954343,51.770280
Graaf van Hornestraat,20,,,4286AH,Almkerk,Woudrichem,Noord-Brabant,VBO,4.954270,51.770327
Graaf van Hornestraat,22,,,4286AH,Almkerk,Woudrichem,Noord-Brabant,VBO,4.954189,51.770452
Graaf van Hornestraat,24,,,4286AH,Almkerk,Woudrichem,Noord-Brabant,VBO,4.954161,51.770502
Graaf van Hornestraat,26,,,4286AH,Almkerk,Woudrichem,Noord-Brabant,VBO,4.954100,51.770594
Graaf van Hornestraat,28,,,4286AH,Almkerk,Woudrichem,Noord-Brabant,VBO,4.954063,51.770641
Graaf van Hornestraat,30,,,4286AH,Almkerk,Woudrichem,Noord-Brabant,VBO,4.953997,51.770732
Graaf van Hornestraat,32,,,4286AH,Almkerk,Woudrichem,Noord-Brabant,VBO,4.953966,51.770781
Achterstraat,1,,,4286AJ,Almkerk,Woudrichem,Noord-Brabant,VBO,4.953923,51.769655
Achterstraat,2,a,,4286AJ,Almkerk,Woudrichem,Noord-Brabant,VBO,4.953849,51.769819
Achterstraat,2,,,4286AJ,Almkerk,Woudrichem,Noord-Brabant,VBO,4.953925,51.769710
De Oude School,2,,,4286AK,Almkerk,Woudrichem,Noord-Brabant,VBO,4.954824,51.769660
De Oude School,4,,,4286AK,Almkerk,Woudrichem,Noord-Brabant,VBO,4.954572,51.769673
De Oude School,6,,,4286AK,Almkerk,Woudrichem,Noord-Brabant,VBO,4.954443,51.769678
De Oude School,8,,,4286AK,Almkerk,Woudrichem,Noord-Brabant,VBO,4.954446,51.769698
Voorstraat,1,,,4286AK,Almkerk,Woudrichem,Noord-Brabant,VBO,4.962073,51.770882
Voorstraat,3,,,4286AK,Almkerk,Woudrichem,Noord-Brabant,VBO,4.961800,51.770817
Voorstraat,5,a,,4286AK,Almkerk,Woudrichem,Noord-Brabant,VBO,4.960666,51.770415
Voorstraat,5,b,,4286AK,Almkerk,Woudrichem,Noord-Brabant,VBO,4.960908,51.770482
Voorstraat,5,c,,4286AK,Almkerk,Woudrichem,Noord-Brabant,VBO,4.960966,51.770382
Voorstraat,5,d,,4286AK,Almkerk,Woudrichem,Noord-Brabant,VBO,4.960757,51.770261
Voorstraat,5,e,,4286AK,Almkerk,Woudrichem,Noord-Brabant,VBO,4.960921,51.770459
Voorstraat,5,,,4286AK,Almkerk,Woudrichem,Noord-Brabant,VBO,4.961491,51.770741
Voorstraat,7,a,,4286AK,Almkerk,Woudrichem,Noord-Brabant,VBO,4.959446,51.770298
Voorstraat,7,,,4286AK,Almkerk,Woudrichem,Noord-Brabant,VBO,4.960072,51.770382
Voorstraat,21,,,4286AK,Almkerk,Woudrichem,Noord-Brabant,VBO,4.955631,51.769477
Voorstraat,23,,,4286AK,Almkerk,Woudrichem,Noord-Brabant,VBO,4.955557,51.769420
Voorstraat,25,,,4286AK,Almkerk,Woudrichem,Noord-Brabant,VBO,4.956241,51.768723
Voorstraat,27,,,4286AK,Almkerk,Woudrichem,Noord-Brabant,VBO,4.955172,51.769028
Voorstraat,29,a,,4286AK,Almkerk,Woudrichem,Noord-Brabant,VBO,4.954959,51.768749
Voorstraat,29,,,4286AK,Almkerk,Woudrichem,Noord-Brabant,VBO,4.955118,51.768864
Voorstraat,31,a,,4286AK,Almkerk,Woudrichem,Noord-Brabant,VBO,4.954984,51.768500
Voorstraat,31,,,4286AK,Almkerk,Woudrichem,Noord-Brabant,VBO,4.954863,51.768618
Voorstraat,33,,,4286AK,Almkerk,Woudrichem,Noord-Brabant,VBO,4.954747,51.768455
Voorstraat,35,,,4286AK,Almkerk,Woudrichem,Noord-Brabant,VBO,4.954693,51.768405
Voorstraat,37,,,4286AK,Almkerk,Woudrichem,Noord-Brabant,VBO,4.954337,51.768173
Voorstraat,39,,,4286AK,Almkerk,Woudrichem,Noord-Brabant,VBO,4.954378,51.768124
De Oude School,1,,,4286AL,Almkerk,Woudrichem,Noord-Brabant,VBO,4.954966,51.769655
De Oude School,3,,,4286AL,Almkerk,Woudrichem,Noord-Brabant,VBO,4.954708,51.769670
De Oude School,5,,,4286AL,Almkerk,Woudrichem,Noord-Brabant,VBO,4.954417,51.769575
De Oude School,7,,,4286AL,Almkerk,Woudrichem,Noord-Brabant,VBO,4.954420,51.769595
Voorstraat,2,a,,4286AL,Almkerk,Woudrichem,Noord-Brabant,VBO,4.961399,51.771155
Voorstraat,2,c,,4286AL,Almkerk,Woudrichem,Noord-Brabant,VBO,4.961255,51.771001
Voorstraat,2,d,,4286AL,Almkerk,Woudrichem,Noord-Brabant,VBO,4.961148,51.770976
Voorstraat,2,e,,4286AL,Almkerk,Woudrichem,Noord-Brabant,VBO,4.960575,51.770841
Voorstraat,2,f,,4286AL,Almkerk,Woudrichem,Noord-Brabant,VBO,4.960680,51.770861
Voorstraat,2,g,,4286AL,Almkerk,Woudrichem,Noord-Brabant,VBO,4.960514,51.770761
Voorstraat,4,a,,4286AL,Almkerk,Woudrichem,Noord-Brabant,VBO,4.959393,51.770749
Voorstraat,4,,,4286AL,Almkerk,Woudrichem,Noord-Brabant,VBO,4.959883,51.770916
Voorstraat,6,a,,4286AL,Almkerk,Woudrichem,Noord-Brabant,VBO,4.958162,51.770675
Voorstraat,6,,,4286AL,Almkerk,Woudrichem,Noord-Brabant,VBO,4.958433,51.770641
Voorstraat,8,,,4286AL,Almkerk,Woudrichem,Noord-Brabant,VBO,4.957973,51.770597
Voorstraat,10,,,4286AL,Almkerk,Woudrichem,Noord-Brabant,VBO,4.957694,51.770554
Voorstraat,12,,,4286AL,Almkerk,Woudrichem,Noord-Brabant,VBO,4.957584,51.770537
Voorstraat,14,,,4286AL,Almkerk,Woudrichem,Noord-Brabant,VBO,4.956486,51.770285
Voorstraat,16,,,4286AL,Almkerk,Woudrichem,Noord-Brabant,VBO,4.956503,51.770504
Voorstraat,20,,,4286AL,Almkerk,Woudrichem,Noord-Brabant,VBO,4.955179,51.769627
Voorstraat,24,,,4286AL,Almkerk,Woudrichem,Noord-Brabant,VBO,4.954738,51.769317
Voorstraat,26,,,4286AL,Almkerk,Woudrichem,Noord-Brabant,VBO,4.954720,51.769002
Voorstraat,28,a,,4286AL,Almkerk,Woudrichem,Noord-Brabant,VBO,4.954561,51.768767
Voorstraat,28,,,4286AL,Almkerk,Woudrichem,Noord-Brabant,VBO,4.954665,51.768907
Voorstraat,30,,,4286AL,Almkerk,Woudrichem,Noord-Brabant,VBO,4.954498,51.768669
Voorstraat,32,,,4286AL,Almkerk,Woudrichem,Noord-Brabant,VBO,4.954252,51.768577
Voorstraat,34,a,,4286AL,Almkerk,Woudrichem,Noord-Brabant,VBO,4.954175,51.768362
Voorstraat,34,,,4286AL,Almkerk,Woudrichem,Noord-Brabant,VBO,4.954091,51.768308
Kruisstraat,1,,,4286AM,Almkerk,Woudrichem,Noord-Brabant,VBO,4.964376,51.771451
Kruisstraat,3,,,4286AM,Almkerk,Woudrichem,Noord-Brabant,VBO,4.963956,51.771280
Kruisstraat,5,,,4286AM,Almkerk,Woudrichem,Noord-Brabant,VBO,4.963851,51.771261
Kruisstraat,7,,,4286AM,Almkerk,Woudrichem,Noord-Brabant,VBO,4.963672,51.771267
Kruisstraat,13,,,4286AM,Almkerk,Woudrichem,Noord-Brabant,VBO,4.963156,51.771012
Kruisstraat,15,,,4286AM,Almkerk,Woudrichem,Noord-Brabant,VBO,4.962980,51.771081
Kruisstraat,17,,,4286AM,Almkerk,Woudrichem,Noord-Brabant,VBO,4.962719,51.771042
Kruisstraat,2,,,4286AN,Almkerk,Woudrichem,Noord-Brabant,VBO,4.964581,51.771644
Kruisstraat,4,a,,4286AN,Almkerk,Woudrichem,Noord-Brabant,VBO,4.964393,51.771591
Kruisstraat,4,,,4286AN,Almkerk,Woudrichem,Noord-Brabant,VBO,4.964305,51.771714
Kruisstraat,6,,,4286AN,Almkerk,Woudrichem,Noord-Brabant,VBO,4.964079,51.771757
Kruisstraat,8,,,4286AN,Almkerk,Woudrichem,Noord-Brabant,VBO,4.964226,51.771544
Kruisstraat,10,a,,4286AN,Almkerk,Woudrichem,Noord-Brabant,VBO,4.964000,51.771572
Kruisstraat,10,,,4286AN,Almkerk,Woudrichem,Noord-Brabant,VBO,4.964039,51.771490
Kruisstraat,16,,,4286AN,Almkerk,Woudrichem,Noord-Brabant,VBO,4.963837,51.771440
Kruisstraat,18,,,4286AN,Almkerk,Woudrichem,Noord-Brabant,VBO,4.963269,51.771310
Kruisstraat,20,,,4286AN,Almkerk,Woudrichem,Noord-Brabant,VBO,4.963196,51.771268
Kruisstraat,22,,,4286AN,Almkerk,Woudrichem,Noord-Brabant,VBO,4.962918,51.771234
Kruisstraat,24,,,4286AN,Almkerk,Woudrichem,Noord-Brabant,VBO,4.962356,51.771187
Kruisstraat,26,,,4286AN,Almkerk,Woudrichem,Noord-Brabant,VBO,4.962224,51.771190
Molenstraat,1,a,,4286AP,Almkerk,Woudrichem,Noord-Brabant,VBO,4.961531,51.770509
Molenstraat,1,,,4286AP,Almkerk,Woudrichem,Noord-Brabant,VBO,4.961753,51.770285
Molenstraat,3,,,4286AP,Almkerk,Woudrichem,Noord-Brabant,VBO,4.961837,51.770304
Molenstraat,5,,,4286AP,Almkerk,Woudrichem,Noord-Brabant,VBO,4.962006,51.770344
Molenstraat,7,,,4286AP,Almkerk,Woudrichem,Noord-Brabant,VBO,4.962095,51.770364
Molenstraat,9,,,4286AP,Almkerk,Woudrichem,Noord-Brabant,VBO,4.962264,51.770403
Molenstraat,11,,,4286AP,Almkerk,Woudrichem,Noord-Brabant,VBO,4.962349,51.770423
Molenstraat,13,,,4286AP,Almkerk,Woudrichem,Noord-Brabant,VBO,4.962543,51.770467
Molenstraat,15,,,4286AP,Almkerk,Woudrichem,Noord-Brabant,VBO,4.962631,51.770488
Molenstraat,17,a,,4286AP,Almkerk,Woudrichem,Noord-Brabant,VBO,4.963549,51.770712
Molenstraat,17,,,4286AP,Almkerk,Woudrichem,Noord-Brabant,VBO,4.963490,51.770677
Molenstraat,19,a,,4286AP,Almkerk,Woudrichem,Noord-Brabant,VBO,4.963771,51.770764
Molenstraat,19,,,4286AP,Almkerk,Woudrichem,Noord-Brabant,VBO,4.963712,51.770729
Molenstraat,21,,,4286AP,Almkerk,Woudrichem,Noord-Brabant,VBO,4.963974,51.770819
Molenstraat,23,,,4286AP,Almkerk,Woudrichem,Noord-Brabant,VBO,4.964217,51.770914
Molenstraat,2,,,4286AR,Almkerk,Woudrichem,Noord-Brabant,VBO,4.961616,51.770023
Molenstraat,4,,,4286AR,Almkerk,Woudrichem,Noord-Brabant,VBO,4.961876,51.770083
Molenstraat,6,,,4286AR,Almkerk,Woudrichem,Noord-Brabant,VBO,4.962330,51.770188
Molenstraat,8,,,4286AR,Almkerk,Woudrichem,Noord-Brabant,VBO,4.962590,51.770248
Molenstraat,10,,,4286AR,Almkerk,Woudrichem,Noord-Brabant,VBO,4.963028,51.770350
Molenstraat,12,a,,4286AR,Almkerk,Woudrichem,Noord-Brabant,VBO,4.963395,51.770280
Molenstraat,12,,,4286AR,Almkerk,Woudrichem,Noord-Brabant,VBO,4.963280,51.770410
Molenstraat,14,,,4286AR,Almkerk,Woudrichem,Noord-Brabant,VBO,4.963520,51.770461
Molenstraat,16,,,4286AR,Almkerk,Woudrichem,Noord-Brabant,VBO,4.963622,51.770486
Molenstraat,18,,,4286AR,Almkerk,Woudrichem,Noord-Brabant,VBO,4.963883,51.770549
Molenstraat,20,,,4286AR,Almkerk,Woudrichem,Noord-Brabant,VBO,4.964042,51.770646
Molenstraat,22,,,4286AR,Almkerk,Woudrichem,Noord-Brabant,VBO,4.964173,51.770687
Galerij,1,,,4286AS,Almkerk,Woudrichem,Noord-Brabant,VBO,4.961619,51.769762
Galerij,2,,,4286AS,Almkerk,Woudrichem,Noord-Brabant,VBO,4.961096,51.770036
Galerij,3,,,4286AS,Almkerk,Woudrichem,Noord-Brabant,VBO,4.961659,51.769572
Galerij,4,,,4286AS,Almkerk,Woudrichem,Noord-Brabant,VBO,4.961258,51.769794
Galerij,5,,,4286AS,Almkerk,Woudrichem,Noord-Brabant,VBO,4.961710,51.769345
Galerij,6,,,4286AS,Almkerk,Woudrichem,Noord-Brabant,VBO,4.961295,51.769618
Galerij,8,,,4286AS,Almkerk,Woudrichem,Noord-Brabant,VBO,4.961326,51.769479
Galerij,10,,,4286AS,Almkerk,Woudrichem,Noord-Brabant,VBO,4.961369,51.769282
Vang,1,,,4286AT,Almkerk,Woudrichem,Noord-Brabant,VBO,4.962365,51.769877
Vang,2,,,4286AT,Almkerk,Woudrichem,Noord-Brabant,VBO,4.962017,51.769818
Vang,3,,,4286AT,Almkerk,Woudrichem,Noord-Brabant,VBO,4.962449,51.769601
Vang,4,,,4286AT,Almkerk,Woudrichem,Noord-Brabant,VBO,4.962077,51.769620
Vang,6,,,4286AT,Almkerk,Woudrichem,Noord-Brabant,VBO,4.962074,51.769380
Wiek,1,,,4286AV,Almkerk,Woudrichem,Noord-Brabant,VBO,4.963070,51.770095
Wiek,2,,,4286AV,Almkerk,Woudrichem,Noord-Brabant,VBO,4.962767,51.769961
Wiek,3,,,4286AV,Almkerk,Woudrichem,Noord-Brabant,VBO,4.963142,51.769925
Wiek,4,,,4286AV,Almkerk,Woudrichem,Noord-Brabant,VBO,4.962828,51.769679
Wiek,5,,,4286AV,Almkerk,Woudrichem,Noord-Brabant,VBO,4.963217,51.769748
Brugstraat,1,,,4286AW,Almkerk,Woudrichem,Noord-Brabant,VBO,4.965075,51.771200
Brugstraat,2,,,4286AW,Almkerk,Woudrichem,Noord-Brabant,VBO,4.964838,51.771275
Brugstraat,3,,,4286AW,Almkerk,Woudrichem,Noord-Brabant,VBO,4.965180,51.771018
Brugstraat,5,,,4286AW,Almkerk,Woudrichem,Noord-Brabant,VBO,4.965293,51.770827
Brugstraat,6,,,4286AW,Almkerk,Woudrichem,Noord-Brabant,VBO,4.964893,51.771171
Brugstraat,8,a,,4286AW,Almkerk,Woudrichem,Noord-Brabant,VBO,4.964969,51.770861
Brugstraat,8,,,4286AW,Almkerk,Woudrichem,Noord-Brabant,VBO,4.964941,51.771043
Brugstraat,10,,,4286AW,Almkerk,Woudrichem,Noord-Brabant,VBO,4.964948,51.770760
Brugstraat,12,,,4286AW,Almkerk,Woudrichem,Noord-Brabant,VBO,4.964569,51.770717
Brugstraat,14,a,,4286AW,Almkerk,Woudrichem,Noord-Brabant,VBO,4.964356,51.770625
Brugstraat,14,,,4286AW,Almkerk,Woudrichem,Noord-Brabant,VBO,4.964498,51.770701
Brugstraat,16,,,4286AW,Almkerk,Woudrichem,Noord-Brabant,VBO,4.964896,51.770538
Brugdam,1,,,4286AX,Almkerk,Woudrichem,Noord-Brabant,VBO,4.965659,51.770591
Brugdam,3,,,4286AX,Almkerk,Woudrichem,Noord-Brabant,VBO,4.965572,51.770418
Brugdam,5,,,4286AX,Almkerk,Woudrichem,Noord-Brabant,VBO,4.965619,51.770322
Brugdam,7,,,4286AX,Almkerk,Woudrichem,Noord-Brabant,VBO,4.965812,51.770138
Brugdam,9,,,4286AX,Almkerk,Woudrichem,Noord-Brabant,VBO,4.965892,51.770006
Brugdam,11,,,4286AX,Almkerk,Woudrichem,Noord-Brabant,VBO,4.966062,51.769866
Brugdam,13,,,4286AX,Almkerk,Woudrichem,Noord-Brabant,VBO,4.966331,51.769631
Brugdam,15,,,4286AX,Almkerk,Woudrichem,Noord-Brabant,VBO,4.966596,51.769613
Brugdam,17,,,4286AX,Almkerk,Woudrichem,Noord-Brabant,VBO,4.966884,51.769713
Brugdam,19,,,4286AX,Almkerk,Woudrichem,Noord-Brabant,VBO,4.967067,51.769776
Brugdam,23,,,4286AX,Almkerk,Woudrichem,Noord-Brabant,VBO,4.967218,51.769828
Brugdam,25,,,4286AX,Almkerk,Woudrichem,Noord-Brabant,VBO,4.967376,51.769931
Brugdam,27,,,4286AX,Almkerk,Woudrichem,Noord-Brabant,VBO,4.967570,51.770081
Brugdam,2,,,4286AZ,Almkerk,Woudrichem,Noord-Brabant,VBO,4.965303,51.770300
Brugdam,6,a,,4286AZ,Almkerk,Woudrichem,Noord-Brabant,VBO,4.965579,51.769936
Brugdam,6,b,,4286AZ,Almkerk,Woudrichem,Noord-Brabant,VBO,4.965684,51.769823
Brugdam,6,c,,4286AZ,Almkerk,Woudrichem,Noord-Brabant,VBO,4.965781,51.769707
Brugdam,6,d,,4286AZ,Almkerk,Woudrichem,Noord-Brabant,VBO,4.965890,51.769598
Brugdam,6,,,4286AZ,Almkerk,Woudrichem,Noord-Brabant,VBO,4.965382,51.770197
Brugdam,8,,,4286AZ,Almkerk,Woudrichem,Noord-Brabant,VBO,4.966732,51.769495
Brugdam,10,,,4286AZ,Almkerk,Woudrichem,Noord-Brabant,VBO,4.966985,51.769431
Brugdam,14,,,4286AZ,Almkerk,Woudrichem,Noord-Brabant,VBO,4.967028,51.769616
Brugdam,16,,,4286AZ,Almkerk,Woudrichem,Noord-Brabant,VBO,4.967144,51.769661
Brugdam,18,,,4286AZ,Almkerk,Woudrichem,Noord-Brabant,VBO,4.967361,51.769758
Brugdam,20,a,,4286AZ,Almkerk,Woudrichem,Noord-Brabant,VBO,4.967626,51.769870
Brugdam,20,,,4286AZ,Almkerk,Woudrichem,Noord-Brabant,VBO,4.967625,51.769857
Kerkstraat,1,,,4286BA,Almkerk,Woudrichem,Noord-Brabant,VBO,4.964801,51.771719
Kerkstraat,3,,,4286BA,Almkerk,Woudrichem,Noord-Brabant,VBO,4.965211,51.771788
Kerkstraat,9,,,4286BA,Almkerk,Woudrichem,Noord-Brabant,VBO,4.965516,51.771853
Kerkstraat,11,,,4286BA,Almkerk,Woudrichem,Noord-Brabant,VBO,4.965514,51.772035
Kerkstraat,13,,,4286BA,Almkerk,Woudrichem,Noord-Brabant,VBO,4.965589,51.772050
Kerkstraat,15,,,4286BA,Almkerk,Woudrichem,Noord-Brabant,VBO,4.965713,51.772261
Kerkstraat,17,,,4286BA,Almkerk,Woudrichem,Noord-Brabant,VBO,4.965793,51.772290
Kerkstraat,19,,,4286BA,Almkerk,Woudrichem,Noord-Brabant,VBO,4.965979,51.772347
Kerkstraat,21,,,4286BA,Almkerk,Woudrichem,Noord-Brabant,VBO,4.966058,51.772376
Kerkstraat,23,,,4286BA,Almkerk,Woudrichem,Noord-Brabant,VBO,4.966242,51.772432
Kerkstraat,25,,,4286BA,Almkerk,Woudrichem,Noord-Brabant,VBO,4.966322,51.772461
Kerkstraat,27,a,,4286BA,Almkerk,Woudrichem,Noord-Brabant,VBO,4.966903,51.772851
Kerkstraat,27,b,,4286BA,Almkerk,Woudrichem,Noord-Brabant,VBO,4.967087,51.773005
Kerkstraat,27,c,,4286BA,Almkerk,Woudrichem,Noord-Brabant,VBO,4.967142,51.773049
Kerkstraat,27,,,4286BA,Almkerk,Woudrichem,Noord-Brabant,VBO,4.966854,51.772811
Kerkstraat,29,,,4286BA,Almkerk,Woudrichem,Noord-Brabant,VBO,4.967271,51.773255
Kerkstraat,2,,,4286BB,Almkerk,Woudrichem,Noord-Brabant,VBO,4.964885,51.771564
Kerkstraat,4,,,4286BB,Almkerk,Woudrichem,Noord-Brabant,VBO,4.965036,51.771614
Kerkstraat,6,,,4286BB,Almkerk,Woudrichem,Noord-Brabant,VBO,4.965183,51.771645
Kerkstraat,8,a,,4286BB,Almkerk,Woudrichem,Noord-Brabant,VBO,4.965523,51.771712
Kerkstraat,8,,,4286BB,Almkerk,Woudrichem,Noord-Brabant,VBO,4.965402,51.771691
Kerkstraat,10,,,4286BB,Almkerk,Woudrichem,Noord-Brabant,VBO,4.965692,51.771757
Kerkstraat,12,,,4286BB,Almkerk,Woudrichem,Noord-Brabant,VBO,4.966065,51.771576
Kerkstraat,14,,,4286BB,Almkerk,Woudrichem,Noord-Brabant,VBO,4.966345,51.771943
Kerkstraat,16,a,,4286BB,Almkerk,Woudrichem,Noord-Brabant,VBO,4.966661,51.772041
Kerkstraat,16,,,4286BB,Almkerk,Woudrichem,Noord-Brabant,VBO,4.966552,51.772127
Kerkstraat,18,a,,4286BB,Almkerk,Woudrichem,Noord-Brabant,VBO,4.966768,51.772337
Kerkstraat,18,,,4286BB,Almkerk,Woudrichem,Noord-Brabant,VBO,4.966734,51.772312
Kerkstraat,20,,,4286BB,Almkerk,Woudrichem,Noord-Brabant,VBO,4.966779,51.772344
Kerkstraat,22,,,4286BB,Almkerk,Woudrichem,Noord-Brabant,VBO,4.967039,51.772509
Kerkstraat,24,,,4286BB,Almkerk,Woudrichem,Noord-Brabant,VBO,4.967088,51.772659
Kerkstraat,26,,,4286BB,Almkerk,Woudrichem,Noord-Brabant,VBO,4.967163,51.772742
Kerkstraat,28,,,4286BB,Almkerk,Woudrichem,Noord-Brabant,VBO,4.967343,51.772898
Kerkstraat,32,a,,4286BB,Almkerk,Woudrichem,Noord-Brabant,VBO,4.968222,51.772910
Kerkstraat,32,b,,4286BB,Almkerk,Woudrichem,Noord-Brabant,VBO,4.967684,51.773193
Kerkstraat,32,,,4286BB,Almkerk,Woudrichem,Noord-Brabant,VBO,4.967570,51.773098
Kerkstraat,34,,,4286BB,Almkerk,Woudrichem,Noord-Brabant,VBO,4.967795,51.773260
Sjersestraat,1,,,4286BC,Almkerk,Woudrichem,Noord-Brabant,VBO,4.966977,51.773655
Sjersestraat,2,a,,4286BC,Almkerk,Woudrichem,Noord-Brabant,VBO,4.967561,51.773540
Sjersestraat,2,b,,4286BC,Almkerk,Woudrichem,Noord-Brabant,VBO,4.967459,51.773624
Sjersestraat,2,,,4286BC,Almkerk,Woudrichem,Noord-Brabant,VBO,4.967086,51.773898
Sjersestraat,3,,,4286BC,Almkerk,Woudrichem,Noord-Brabant,VBO,4.966924,51.773698
Sjersestraat,4,,,4286BC,Almkerk,Woudrichem,Noord-Brabant,VBO,4.966882,51.774014
Sjersestraat,5,,,4286BC,Almkerk,Woudrichem,Noord-Brabant,VBO,4.966816,51.773785
Sjersestraat,6,,,4286BC,Almkerk,Woudrichem,Noord-Brabant,VBO,4.966809,51.774094
Sjersestraat,7,,,4286BC,Almkerk,Woudrichem,Noord-Brabant,VBO,4.966761,51.773830
Sjersestraat,8,,,4286BC,Almkerk,Woudrichem,Noord-Brabant,VBO,4.966532,51.774320
Sjersestraat,9,,,4286BC,Almkerk,Woudrichem,Noord-Brabant,VBO,4.966654,51.773916
Sjersestraat,10,,,4286BC,Almkerk,Woudrichem,Noord-Brabant,VBO,4.966427,51.774423
Sjersestraat,11,,,4286BC,Almkerk,Woudrichem,Noord-Brabant,VBO,4.966601,51.773960
Sjersestraat,12,,,4286BC,Almkerk,Woudrichem,Noord-Brabant,VBO,4.966181,51.774650
Sjersestraat,13,,,4286BC,Almkerk,Woudrichem,Noord-Brabant,VBO,4.966496,51.774043
Sjersestraat,14,,,4286BC,Almkerk,Woudrichem,Noord-Brabant,VBO,4.966082,51.774778
Sjersestraat,15,,,4286BC,Almkerk,Woudrichem,Noord-Brabant,VBO,4.966440,51.774088
Sjersestraat,16,,,4286BC,Almkerk,Woudrichem,Noord-Brabant,VBO,4.966060,51.774833
Sjersestraat,17,,,4286BC,Almkerk,Woudrichem,Noord-Brabant,VBO,4.966188,51.774294
Sjersestraat,18,,,4286BC,Almkerk,Woudrichem,Noord-Brabant,VBO,4.966096,51.775093
Sjersestraat,19,,,4286BC,Almkerk,Woudrichem,Noord-Brabant,VBO,4.966134,51.774338
Sjersestraat,21,,,4286BC,Almkerk,Woudrichem,Noord-Brabant,VBO,4.965995,51.774451
Sjersestraat,23,,,4286BC,Almkerk,Woudrichem,Noord-Brabant,VBO,4.965949,51.774488
Sjersestraat,25,,,4286BC,Almkerk,Woudrichem,Noord-Brabant,VBO,4.965900,51.774527
Sjersestraat,33,,,4286BC,Almkerk,Woudrichem,Noord-Brabant,VBO,4.965705,51.774780
Sjersestraat,35,,,4286BC,Almkerk,Woudrichem,Noord-Brabant,VBO,4.965695,51.775088
Altena's Laantje,1,a,,4286BD,Almkerk,Woudrichem,Noord-Brabant,VBO,4.967846,51.773611
Altena's Laantje,1,b,,4286BD,Almkerk,Woudrichem,Noord-Brabant,VBO,4.968016,51.773770
Altena's Laantje,1,c,,4286BD,Almkerk,Woudrichem,Noord-Brabant,VBO,4.968184,51.773911
Altena's Laantje,1,d,,4286BD,Almkerk,Woudrichem,Noord-Brabant,VBO,4.968159,51.773944
Altena's Laantje,1,e,,4286BD,Almkerk,Woudrichem,Noord-Brabant,VBO,4.968236,51.773972
Altena's Laantje,1,f,,4286BD,Almkerk,Woudrichem,Noord-Brabant,VBO,4.968294,51.774014
Altena's Laantje,1,g,,4286BD,Almkerk,Woudrichem,Noord-Brabant,VBO,4.968278,51.774067
Altena's Laantje,1,h,,4286BD,Almkerk,Woudrichem,Noord-Brabant,VBO,4.968362,51.774066
Altena's Laantje,2,a,,4286BD,Almkerk,Woudrichem,Noord-Brabant,VBO,4.968870,51.773998
Altena's Laantje,2,,,4286BD,Almkerk,Woudrichem,Noord-Brabant,VBO,4.968593,51.774355
Altena's Laantje,3,,,4286BD,Almkerk,Woudrichem,Noord-Brabant,VBO,4.969059,51.774633
Van der Duyn van Maasdamstraat,1,,,4286BE,Almkerk,Woudrichem,Noord-Brabant,VBO,4.965725,51.773063
Van der Duyn van Maasdamstraat,2,,,4286BE,Almkerk,Woudrichem,Noord-Brabant,VBO,4.965792,51.772695
Van der Duyn van Maasdamstraat,3,,,4286BE,Almkerk,Woudrichem,Noord-Brabant,VBO,4.965786,51.773036
Van der Duyn van Maasdamstraat,4,,,4286BE,Almkerk,Woudrichem,Noord-Brabant,VBO,4.965724,51.772670
Van der Duyn van Maasdamstraat,5,,,4286BE,Almkerk,Woudrichem,Noord-Brabant,VBO,4.965849,51.773006
Van der Duyn van Maasdamstraat,6,,,4286BE,Almkerk,Woudrichem,Noord-Brabant,VBO,4.965656,51.772645
Van der Duyn van Maasdamstraat,7,,,4286BE,Almkerk,Woudrichem,Noord-Brabant,VBO,4.965913,51.772977
Van der Duyn van Maasdamstraat,8,,,4286BE,Almkerk,Woudrichem,Noord-Brabant,VBO,4.965588,51.772620
Van der Duyn van Maasdamstraat,9,,,4286BE,Almkerk,Woudrichem,Noord-Brabant,VBO,4.966057,51.772910
Van der Duyn van Maasdamstraat,10,,,4286BE,Almkerk,Woudrichem,Noord-Brabant,VBO,4.965512,51.772593
Van der Duyn van Maasdamstraat,11,,,4286BE,Almkerk,Woudrichem,Noord-Brabant,VBO,4.966127,51.772877
Van der Duyn van Maasdamstraat,12,,,4286BE,Almkerk,Woudrichem,Noord-Brabant,VBO,4.965444,51.772568
Van der Duyn van Maasdamstraat,13,,,4286BE,Almkerk,Woudrichem,Noord-Brabant,VBO,4.966196,51.772845
Van der Duyn van Maasdamstraat,15,,,4286BE,Almkerk,Woudrichem,Noord-Brabant,VBO,4.966269,51.772811
Van der Duyn van Maasdamstraat,17,,,4286BE,Almkerk,Woudrichem,Noord-Brabant,VBO,4.966411,51.772746
Van der Duyn van Maasdamstraat,19,,,4286BE,Almkerk,Woudrichem,Noord-Brabant,VBO,4.966485,51.772712
Van der Duyn van Maasdamstraat,21,,,4286BE,Almkerk,Woudrichem,Noord-Brabant,VBO,4.966558,51.772678
Van der Duyn van Maasdamstraat,23,,,4286BE,Almkerk,Woudrichem,Noord-Brabant,VBO,4.966627,51.772646
Van Limburg Stirumstraat,1,,,4286BG,Almkerk,Woudrichem,Noord-Brabant,VBO,4.964935,51.773855
Van Limburg Stirumstraat,3,,,4286BG,Almkerk,Woudrichem,Noord-Brabant,VBO,4.965007,51.773868
Van Limburg Stirumstraat,5,,,4286BG,Almkerk,Woudrichem,Noord-Brabant,VBO,4.965083,51.773882
Van Limburg Stirumstraat,7,,,4286BG,Almkerk,Woudrichem,Noord-Brabant,VBO,4.965159,51.773896
Van Limburg Stirumstraat,9,,,4286BG,Almkerk,Woudrichem,Noord-Brabant,VBO,4.965234,51.773911
Van Limburg Stirumstraat,11,,,4286BG,Almkerk,Woudrichem,Noord-Brabant,VBO,4.965306,51.773924
Van Limburg Stirumstraat,13,,,4286BG,Almkerk,Woudrichem,Noord-Brabant,VBO,4.965515,51.773972
Van Limburg Stirumstraat,15,,,4286BG,Almkerk,Woudrichem,Noord-Brabant,VBO,4.965578,51.774002
Van Limburg Stirumstraat,17,,,4286BG,Almkerk,Woudrichem,Noord-Brabant,VBO,4.965641,51.774032
Van Limburg Stirumstraat,19,,,4286BG,Almkerk,Woudrichem,Noord-Brabant,VBO,4.965704,51.774062
Van Limburg Stirumstraat,21,,,4286BG,Almkerk,Woudrichem,Noord-Brabant,VBO,4.965767,51.774091
Van Limburg Stirumstraat,23,,,4286BG,Almkerk,Woudrichem,Noord-Brabant,VBO,4.965827,51.774120
Van Limburg Stirumstraat,25,,,4286BG,Almkerk,Woudrichem,Noord-Brabant,VBO,4.965889,51.774150
Van Limburg Stirumstraat,33,a,,4286BG,Almkerk,Woudrichem,Noord-Brabant,VBO,4.966224,51.774041
Van Limburg Stirumstraat,33,,,4286BG,Almkerk,Woudrichem,Noord-Brabant,VBO,4.966043,51.773928
Van Limburg Stirumstraat,35,,,4286BG,Almkerk,Woudrichem,Noord-Brabant,VBO,4.966098,51.773883
Van Limburg Stirumstraat,37,,,4286BG,Almkerk,Woudrichem,Noord-Brabant,VBO,4.966153,51.773838
Van Limburg Stirumstraat,39,,,4286BG,Almkerk,Woudrichem,Noord-Brabant,VBO,4.966209,51.773793
Van Limburg Stirumstraat,41,,,4286BG,Almkerk,Woudrichem,Noord-Brabant,VBO,4.966362,51.773716
Van Limburg Stirumstraat,43,,,4286BG,Almkerk,Woudrichem,Noord-Brabant,VBO,4.966436,51.773654
Van Limburg Stirumstraat,45,,,4286BG,Almkerk,Woudrichem,Noord-Brabant,VBO,4.966553,51.773604
Van Limburg Stirumstraat,47,,,4286BG,Almkerk,Woudrichem,Noord-Brabant,VBO,4.966632,51.773540
Van Limburg Stirumstraat,2,,,4286BH,Almkerk,Woudrichem,Noord-Brabant,VBO,4.964451,51.773484
Van Limburg Stirumstraat,4,,,4286BH,Almkerk,Woudrichem,Noord-Brabant,VBO,4.964483,51.773419
Van Limburg Stirumstraat,6,,,4286BH,Almkerk,Woudrichem,Noord-Brabant,VBO,4.964514,51.773354
Van Limburg Stirumstraat,8,,,4286BH,Almkerk,Woudrichem,Noord-Brabant,VBO,4.964546,51.773289
Van Limburg Stirumstraat,10,,,4286BH,Almkerk,Woudrichem,Noord-Brabant,VBO,4.964571,51.773238
Van Limburg Stirumstraat,12,,,4286BH,Almkerk,Woudrichem,Noord-Brabant,VBO,4.964967,51.773333
Van Limburg Stirumstraat,14,,,4286BH,Almkerk,Woudrichem,Noord-Brabant,VBO,4.964945,51.773379
Van Limburg Stirumstraat,16,,,4286BH,Almkerk,Woudrichem,Noord-Brabant,VBO,4.964914,51.773445
Van Limburg Stirumstraat,18,,,4286BH,Almkerk,Woudrichem,Noord-Brabant,VBO,4.964882,51.773510
Van Limburg Stirumstraat,20,a,,4286BH,Almkerk,Woudrichem,Noord-Brabant,VBO,4.965227,51.773453
Van Limburg Stirumstraat,20,,,4286BH,Almkerk,Woudrichem,Noord-Brabant,VBO,4.964849,51.773578
Van Limburg Stirumstraat,22,a,,4286BH,Almkerk,Woudrichem,Noord-Brabant,VBO,4.965234,51.773454
Van Limburg Stirumstraat,22,b,,4286BH,Almkerk,Woudrichem,Noord-Brabant,VBO,4.965250,51.773398
Van Limburg Stirumstraat,22,c,,4286BH,Almkerk,Woudrichem,Noord-Brabant,VBO,4.965267,51.773370
Van Limburg Stirumstraat,22,d,,4286BH,Almkerk,Woudrichem,Noord-Brabant,VBO,4.965268,51.773375
Van Limburg Stirumstraat,22,,,4286BH,Almkerk,Woudrichem,Noord-Brabant,VBO,4.965216,51.773616
Van Limburg Stirumstraat,24,,,4286BH,Almkerk,Woudrichem,Noord-Brabant,VBO,4.965292,51.773630
Van Limburg Stirumstraat,26,,,4286BH,Almkerk,Woudrichem,Noord-Brabant,VBO,4.965375,51.773646
Van Limburg Stirumstraat,28,,,4286BH,Almkerk,Woudrichem,Noord-Brabant,VBO,4.965458,51.773661
Van Limburg Stirumstraat,30,,,4286BH,Almkerk,Woudrichem,Noord-Brabant,VBO,4.965541,51.773677
Van Limburg Stirumstraat,38,,,4286BH,Almkerk,Woudrichem,Noord-Brabant,VBO,4.965837,51.773740
Van Limburg Stirumstraat,40,,,4286BH,Almkerk,Woudrichem,Noord-Brabant,VBO,4.965893,51.773695
Van Limburg Stirumstraat,42,,,4286BH,Almkerk,Woudrichem,Noord-Brabant,VBO,4.965948,51.773650
Van Limburg Stirumstraat,44,,,4286BH,Almkerk,Woudrichem,Noord-Brabant,VBO,4.966003,51.773605
Van Hogendorpstraat,3,,,4286BJ,Almkerk,Woudrichem,Noord-Brabant,VBO,4.964576,51.772997
Van Hogendorpstraat,5,,,4286BJ,Almkerk,Woudrichem,Noord-Brabant,VBO,4.964658,51.773016
Van Hogendorpstraat,7,,,4286BJ,Almkerk,Woudrichem,Noord-Brabant,VBO,4.964740,51.773036
Van Hogendorpstraat,9,,,4286BJ,Almkerk,Woudrichem,Noord-Brabant,VBO,4.964822,51.773055
Van Hogendorpstraat,11,,,4286BJ,Almkerk,Woudrichem,Noord-Brabant,VBO,4.965013,51.773100
Van Hogendorpstraat,13,,,4286BJ,Almkerk,Woudrichem,Noord-Brabant,VBO,4.965091,51.773118
Van Hogendorpstraat,15,,,4286BJ,Almkerk,Woudrichem,Noord-Brabant,VBO,4.965173,51.773138
Van Hogendorpstraat,17,,,4286BJ,Almkerk,Woudrichem,Noord-Brabant,VBO,4.965255,51.773157
Van Hogendorpstraat,19,,,4286BJ,Almkerk,Woudrichem,Noord-Brabant,VBO,4.965478,51.773242
Van Hogendorpstraat,21,,,4286BJ,Almkerk,Woudrichem,Noord-Brabant,VBO,4.965538,51.773284
Van Hogendorpstraat,23,,,4286BJ,Almkerk,Woudrichem,Noord-Brabant,VBO,4.965595,51.773324
Van Hogendorpstraat,25,,,4286BJ,Almkerk,Woudrichem,Noord-Brabant,VBO,4.965655,51.773366
Van Hogendorpstraat,27,,,4286BJ,Almkerk,Woudrichem,Noord-Brabant,VBO,4.965716,51.773409
Van Hogendorpstraat,29,,,4286BJ,Almkerk,Woudrichem,Noord-Brabant,VBO,4.965776,51.773451
Van Hogendorpstraat,2,,,4286BK,Almkerk,Woudrichem,Noord-Brabant,VBO,4.964602,51.772733
Van Hogendorpstraat,4,,,4286BK,Almkerk,Woudrichem,Noord-Brabant,VBO,4.964677,51.772750
Van Hogendorpstraat,6,,,4286BK,Almkerk,Woudrichem,Noord-Brabant,VBO,4.964751,51.772768
Van Hogendorpstraat,8,,,4286BK,Almkerk,Woudrichem,Noord-Brabant,VBO,4.964825,51.772785
Van Hogendorpstraat,10,,,4286BK,Almkerk,Woudrichem,Noord-Brabant,VBO,4.965015,51.772830
Van Hogendorpstraat,12,,,4286BK,Almkerk,Woudrichem,Noord-Brabant,VBO,4.965089,51.772847
Van Hogendorpstraat,14,,,4286BK,Almkerk,Woudrichem,Noord-Brabant,VBO,4.965163,51.772864
Van Hogendorpstraat,16,,,4286BK,Almkerk,Woudrichem,Noord-Brabant,VBO,4.965237,51.772882
Van Hogendorpstraat,18,,,4286BK,Almkerk,Woudrichem,Noord-Brabant,VBO,4.965311,51.772899
Van Hogendorpstraat,20,,,4286BK,Almkerk,Woudrichem,Noord-Brabant,VBO,4.965388,51.772917
Van Hogendorpstraat,22,,,4286BK,Almkerk,Woudrichem,Noord-Brabant,VBO,4.965979,51.773247
Van Hogendorpstraat,24,,,4286BK,Almkerk,Woudrichem,Noord-Brabant,VBO,4.966040,51.773289
Van Hogendorpstraat,26,,,4286BK,Almkerk,Woudrichem,Noord-Brabant,VBO,4.966100,51.773331
Van Hogendorpstraat,28,,,4286BK,Almkerk,Woudrichem,Noord-Brabant,VBO,4.966160,51.773373
Van Hogendorpstraat,30,,,4286BK,Almkerk,Woudrichem,Noord-Brabant,VBO,4.966220,51.773415
Van Hogendorpstraat,32,,,4286BK,Almkerk,Woudrichem,Noord-Brabant,VBO,4.966280,51.773457
de Borchgravestraat,1,,,4286BL,Almkerk,Woudrichem,Noord-Brabant,VBO,4.963590,51.772427
de Borchgravestraat,3,,,4286BL,Almkerk,Woudrichem,Noord-Brabant,VBO,4.963490,51.772404
de Borchgravestraat,5,,,4286BL,Almkerk,Woudrichem,Noord-Brabant,VBO,4.963317,51.772363
de Borchgravestraat,7,,,4286BL,Almkerk,Woudrichem,Noord-Brabant,VBO,4.963234,51.772343
de Borchgravestraat,9,,,4286BL,Almkerk,Woudrichem,Noord-Brabant,VBO,4.963151,51.772324
de Borchgravestraat,11,,,4286BL,Almkerk,Woudrichem,Noord-Brabant,VBO,4.963019,51.772292
de Borchgravestraat,13,,,4286BL,Almkerk,Woudrichem,Noord-Brabant,VBO,4.962944,51.772274
de Borchgravestraat,15,,,4286BL,Almkerk,Woudrichem,Noord-Brabant,VBO,4.962866,51.772256
de Borchgravestraat,17,,,4286BL,Almkerk,Woudrichem,Noord-Brabant,VBO,4.962787,51.772237
de Borchgravestraat,19,,,4286BL,Almkerk,Woudrichem,Noord-Brabant,VBO,4.962655,51.772206
de Borchgravestraat,21,,,4286BL,Almkerk,Woudrichem,Noord-Brabant,VBO,4.962577,51.772187
de Borchgravestraat,23,,,4286BL,Almkerk,Woudrichem,Noord-Brabant,VBO,4.962502,51.772170
de Borchgravestraat,25,,,4286BL,Almkerk,Woudrichem,Noord-Brabant,VBO,4.962424,51.772151
de Borchgravestraat,27,,,4286BL,Almkerk,Woudrichem,Noord-Brabant,VBO,4.962291,51.772120
de Borchgravestraat,29,,,4286BL,Almkerk,Woudrichem,Noord-Brabant,VBO,4.962213,51.772101
de Borchgravestraat,31,,,4286BL,Almkerk,Woudrichem,Noord-Brabant,VBO,4.962130,51.772081
de Borchgravestraat,33,,,4286BL,Almkerk,Woudrichem,Noord-Brabant,VBO,4.962056,51.772064
de Borchgravestraat,35,,,4286BL,Almkerk,Woudrichem,Noord-Brabant,VBO,4.960950,51.771818
de Borchgravestraat,37,,,4286BL,Almkerk,Woudrichem,Noord-Brabant,VBO,4.960197,51.771629
Werf,2,,,4286BL,Almkerk,Woudrichem,Noord-Brabant,VBO,4.962922,51.771915
Werf,4,,,4286BL,Almkerk,Woudrichem,Noord-Brabant,VBO,4.962849,51.771898
Werf,6,,,4286BL,Almkerk,Woudrichem,Noord-Brabant,VBO,4.962778,51.771881
Werf,8,,,4286BL,Almkerk,Woudrichem,Noord-Brabant,VBO,4.962706,51.771859
Werf,10,,,4286BL,Almkerk,Woudrichem,Noord-Brabant,VBO,4.962623,51.771839
Werf,12,,,4286BL,Almkerk,Woudrichem,Noord-Brabant,VBO,4.962549,51.771821
Werf,14,,,4286BL,Almkerk,Woudrichem,Noord-Brabant,VBO,4.962476,51.771804
Werf,16,,,4286BL,Almkerk,Woudrichem,Noord-Brabant,VBO,4.962402,51.771786
de Borchgravestraat,2,,,4286BM,Almkerk,Woudrichem,Noord-Brabant,VBO,4.963394,51.772747
de Borchgravestraat,4,,,4286BM,Almkerk,Woudrichem,Noord-Brabant,VBO,4.963311,51.772727
de Borchgravestraat,6,,,4286BM,Almkerk,Woudrichem,Noord-Brabant,VBO,4.963229,51.772708
de Borchgravestraat,8,,,4286BM,Almkerk,Woudrichem,Noord-Brabant,VBO,4.963146,51.772688
de Borchgravestraat,10,,,4286BM,Almkerk,Woudrichem,Noord-Brabant,VBO,4.962967,51.772646
de Borchgravestraat,12,,,4286BM,Almkerk,Woudrichem,Noord-Brabant,VBO,4.962884,51.772626
de Borchgravestraat,14,,,4286BM,Almkerk,Woudrichem,Noord-Brabant,VBO,4.962802,51.772607
de Borchgravestraat,16,,,4286BM,Almkerk,Woudrichem,Noord-Brabant,VBO,4.962719,51.772587
de Borchgravestraat,18,,,4286BM,Almkerk,Woudrichem,Noord-Brabant,VBO,4.962548,51.772546
de Borchgravestraat,20,,,4286BM,Almkerk,Woudrichem,Noord-Brabant,VBO,4.962461,51.772526
de Borchgravestraat,22,,,4286BM,Almkerk,Woudrichem,Noord-Brabant,VBO,4.962379,51.772507
de Borchgravestraat,24,,,4286BM,Almkerk,Woudrichem,Noord-Brabant,VBO,4.962296,51.772487
de Borchgravestraat,26,,,4286BM,Almkerk,Woudrichem,Noord-Brabant,VBO,4.962124,51.772446
de Borchgravestraat,28,,,4286BM,Almkerk,Woudrichem,Noord-Brabant,VBO,4.962042,51.772427
de Borchgravestraat,30,,,4286BM,Almkerk,Woudrichem,Noord-Brabant,VBO,4.961960,51.772408
de Borchgravestraat,32,,,4286BM,Almkerk,Woudrichem,Noord-Brabant,VBO,4.961877,51.772388
Werf,1,,,4286BM,Almkerk,Woudrichem,Noord-Brabant,VBO,4.963023,51.771727
de Borchgravestraat,34,,,4286BN,Almkerk,Woudrichem,Noord-Brabant,VBO,4.960735,51.772118
de Borchgravestraat,36,,,4286BN,Almkerk,Woudrichem,Noord-Brabant,VBO,4.960651,51.772098
de Borchgravestraat,38,,,4286BN,Almkerk,Woudrichem,Noord-Brabant,VBO,4.960568,51.772078
de Borchgravestraat,40,,,4286BN,Almkerk,Woudrichem,Noord-Brabant,VBO,4.960484,51.772059
de Borchgravestraat,42,,,4286BN,Almkerk,Woudrichem,Noord-Brabant,VBO,4.960400,51.772039
de Borchgravestraat,44,,,4286BN,Almkerk,Woudrichem,Noord-Brabant,VBO,4.960316,51.772019
de Borchgravestraat,46,,,4286BN,Almkerk,Woudrichem,Noord-Brabant,VBO,4.960163,51.771983
de Borchgravestraat,48,,,4286BN,Almkerk,Woudrichem,Noord-Brabant,VBO,4.960079,51.771963
de Borchgravestraat,50,,,4286BN,Almkerk,Woudrichem,Noord-Brabant,VBO,4.959995,51.771943
de Borchgravestraat,52,,,4286BN,Almkerk,Woudrichem,Noord-Brabant,VBO,4.959911,51.771923
de Borchgravestraat,54,,,4286BN,Almkerk,Woudrichem,Noord-Brabant,VBO,4.959166,51.771710
de Ridderstraat,1,a,,4286BP,Almkerk,Woudrichem,Noord-Brabant,VBO,4.961596,51.771328
de Ridderstraat,1,,,4286BP,Almkerk,Woudrichem,Noord-Brabant,VBO,4.961594,51.771455
de Ridderstraat,3,,,4286BP,Almkerk,Woudrichem,Noord-Brabant,VBO,4.961564,51.771504
de Ridderstraat,5,,,4286BP,Almkerk,Woudrichem,Noord-Brabant,VBO,4.961533,51.771555
de Ridderstraat,7,,,4286BP,Almkerk,Woudrichem,Noord-Brabant,VBO,4.961501,51.771607
de Ridderstraat,9,,,4286BP,Almkerk,Woudrichem,Noord-Brabant,VBO,4.961440,51.771708
de Ridderstraat,11,,,4286BP,Almkerk,Woudrichem,Noord-Brabant,VBO,4.961410,51.771757
de Ridderstraat,13,,,4286BP,Almkerk,Woudrichem,Noord-Brabant,VBO,4.961379,51.771806
de Ridderstraat,15,,,4286BP,Almkerk,Woudrichem,Noord-Brabant,VBO,4.961348,51.771857
de Ridderstraat,17,,,4286BP,Almkerk,Woudrichem,Noord-Brabant,VBO,4.961118,51.772226
de Ridderstraat,19,,,4286BP,Almkerk,Woudrichem,Noord-Brabant,VBO,4.961087,51.772276
de Ridderstraat,21,,,4286BP,Almkerk,Woudrichem,Noord-Brabant,VBO,4.961056,51.772327
de Ridderstraat,23,,,4286BP,Almkerk,Woudrichem,Noord-Brabant,VBO,4.961027,51.772374
de Ridderstraat,25,,,4286BP,Almkerk,Woudrichem,Noord-Brabant,VBO,4.960971,51.772466
de Ridderstraat,27,,,4286BP,Almkerk,Woudrichem,Noord-Brabant,VBO,4.960940,51.772517
de Ridderstraat,29,,,4286BP,Almkerk,Woudrichem,Noord-Brabant,VBO,4.960909,51.772567
de Ridderstraat,31,,,4286BP,Almkerk,Woudrichem,Noord-Brabant,VBO,4.960876,51.772619
de Ridderstraat,2,,,4286BR,Almkerk,Woudrichem,Noord-Brabant,VBO,4.962106,51.771332
de Ridderstraat,4,,,4286BR,Almkerk,Woudrichem,Noord-Brabant,VBO,4.962040,51.771438
de Ridderstraat,6,,,4286BR,Almkerk,Woudrichem,Noord-Brabant,VBO,4.962039,51.771547
de Ridderstraat,8,,,4286BR,Almkerk,Woudrichem,Noord-Brabant,VBO,4.961911,51.771623
de Ridderstraat,10,a,,4286BR,Almkerk,Woudrichem,Noord-Brabant,VBO,4.962282,51.771570
de Ridderstraat,10,b,,4286BR,Almkerk,Woudrichem,Noord-Brabant,VBO,4.962312,51.771585
de Ridderstraat,10,c,,4286BR,Almkerk,Woudrichem,Noord-Brabant,VBO,4.962339,51.771598
de Ridderstraat,10,d,,4286BR,Almkerk,Woudrichem,Noord-Brabant,VBO,4.962376,51.771624
de Ridderstraat,10,e,,4286BR,Almkerk,Woudrichem,Noord-Brabant,VBO,4.962349,51.771675
de Ridderstraat,10,f,,4286BR,Almkerk,Woudrichem,Noord-Brabant,VBO,4.962328,51.771695
de Ridderstraat,10,g,,4286BR,Almkerk,Woudrichem,Noord-Brabant,VBO,4.962316,51.771722
de Ridderstraat,10,h,,4286BR,Almkerk,Woudrichem,Noord-Brabant,VBO,4.962303,51.771749
de Ridderstraat,10,i,,4286BR,Almkerk,Woudrichem,Noord-Brabant,VBO,4.962286,51.771779
de Ridderstraat,10,j,,4286BR,Almkerk,Woudrichem,Noord-Brabant,VBO,4.962269,51.771798
de Ridderstraat,10,k,,4286BR,Almkerk,Woudrichem,Noord-Brabant,VBO,4.962262,51.771828
de Ridderstraat,10,l,,4286BR,Almkerk,Woudrichem,Noord-Brabant,VBO,4.962251,51.771847
de Ridderstraat,10,m,,4286BR,Almkerk,Woudrichem,Noord-Brabant,VBO,4.962240,51.771877
de Ridderstraat,10,,,4286BR,Almkerk,Woudrichem,Noord-Brabant,VBO,4.961917,51.771637
de Ridderstraat,14,,,4286BR,Almkerk,Woudrichem,Noord-Brabant,VBO,4.961810,51.771812
de Ridderstraat,16,,,4286BR,Almkerk,Woudrichem,Noord-Brabant,VBO,4.961778,51.771863
de Ridderstraat,18,,,4286BR,Almkerk,Woudrichem,Noord-Brabant,VBO,4.961746,51.771915
de Ridderstraat,20,,,4286BR,Almkerk,Woudrichem,Noord-Brabant,VBO,4.961713,51.771968
de Ridderstraat,22,,,4286BR,Almkerk,Woudrichem,Noord-Brabant,VBO,4.961483,51.772338
de Ridderstraat,24,,,4286BR,Almkerk,Woudrichem,Noord-Brabant,VBO,4.961452,51.772388
de Ridderstraat,26,,,4286BR,Almkerk,Woudrichem,Noord-Brabant,VBO,4.961421,51.772438
de Ridderstraat,28,,,4286BR,Almkerk,Woudrichem,Noord-Brabant,VBO,4.961390,51.772488
de Ridderstraat,30,,,4286BR,Almkerk,Woudrichem,Noord-Brabant,VBO,4.961334,51.772580
de Ridderstraat,32,,,4286BR,Almkerk,Woudrichem,Noord-Brabant,VBO,4.961303,51.772630
de Ridderstraat,34,,,4286BR,Almkerk,Woudrichem,Noord-Brabant,VBO,4.961272,51.772680
de Ridderstraat,36,,,4286BR,Almkerk,Woudrichem,Noord-Brabant,VBO,4.961241,51.772730
Mr. L.A. Donkerstraat,1,,,4286BS,Almkerk,Woudrichem,Noord-Brabant,VBO,4.960630,51.770935
Mr. L.A. Donkerstraat,2,,,4286BS,Almkerk,Woudrichem,Noord-Brabant,VBO,4.961048,51.771185
Mr. L.A. Donkerstraat,3,,,4286BS,Almkerk,Woudrichem,Noord-Brabant,VBO,4.960598,51.770987
Mr. L.A. Donkerstraat,4,,,4286BS,Almkerk,Woudrichem,Noord-Brabant,VBO,4.960863,51.771350
Mr. L.A. Donkerstraat,5,,,4286BS,Almkerk,Woudrichem,Noord-Brabant,VBO,4.960573,51.771106
Mr. L.A. Donkerstraat,6,,,4286BS,Almkerk,Woudrichem,Noord-Brabant,VBO,4.960781,51.771497
Mr. L.A. Donkerstraat,7,,,4286BS,Almkerk,Woudrichem,Noord-Brabant,VBO,4.960464,51.771232
Mr. L.A. Donkerstraat,8,,,4286BS,Almkerk,Woudrichem,Noord-Brabant,VBO,4.960636,51.771703
Mr. L.A. Donkerstraat,9,,,4286BS,Almkerk,Woudrichem,Noord-Brabant,VBO,4.960404,51.771378
Mr. L.A. Donkerstraat,11,,,4286BS,Almkerk,Woudrichem,Noord-Brabant,VBO,4.960301,51.771498
Dirk van Clevestraat,1,,,4286BT,Almkerk,Woudrichem,Noord-Brabant,VBO,4.958619,51.771123
Dirk van Clevestraat,2,,,4286BT,Almkerk,Woudrichem,Noord-Brabant,VBO,4.959126,51.771001
Dirk van Clevestraat,3,,,4286BT,Almkerk,Woudrichem,Noord-Brabant,VBO,4.958614,51.771285
Dirk van Clevestraat,4,,,4286BT,Almkerk,Woudrichem,Noord-Brabant,VBO,4.959370,51.771055
Dirk van Clevestraat,5,,,4286BT,Almkerk,Woudrichem,Noord-Brabant,VBO,4.958566,51.771395
Dirk van Clevestraat,7,,,4286BT,Almkerk,Woudrichem,Noord-Brabant,VBO,4.958452,51.771576
Dirk van Clevestraat,9,,,4286BT,Almkerk,Woudrichem,Noord-Brabant,VBO,4.958494,51.770885
Dirk van Clevestraat,11,,,4286BT,Almkerk,Woudrichem,Noord-Brabant,VBO,4.958122,51.771045
Dirk van Clevestraat,13,,,4286BT,Almkerk,Woudrichem,Noord-Brabant,VBO,4.958035,51.771235
Dirk van Clevestraat,15,,,4286BT,Almkerk,Woudrichem,Noord-Brabant,VBO,4.957959,51.771443
Dirk van Clevestraat,17,,,4286BT,Almkerk,Woudrichem,Noord-Brabant,VBO,4.957978,51.771694
Dirk van Clevestraat,19,,,4286BT,Almkerk,Woudrichem,Noord-Brabant,VBO,4.958227,51.771901
Wethouder Raamsstraat,1,,,4286BV,Almkerk,Woudrichem,Noord-Brabant,VBO,4.964312,51.774231
Wethouder Raamsstraat,3,a,,4286BV,Almkerk,Woudrichem,Noord-Brabant,VBO,4.963934,51.774589
Wethouder Raamsstraat,3,b,,4286BV,Almkerk,Woudrichem,Noord-Brabant,VBO,4.963985,51.774680
Wethouder Raamsstraat,3,c,,4286BV,Almkerk,Woudrichem,Noord-Brabant,VBO,4.964003,51.774728
Wethouder Raamsstraat,3,d,,4286BV,Almkerk,Woudrichem,Noord-Brabant,VBO,4.964017,51.774769
Wethouder Raamsstraat,3,e,,4286BV,Almkerk,Woudrichem,Noord-Brabant,VBO,4.964011,51.774869
Wethouder Raamsstraat,3,f,,4286BV,Almkerk,Woudrichem,Noord-Brabant,VBO,4.963798,51.774495
Wethouder Raamsstraat,3,g,,4286BV,Almkerk,Woudrichem,Noord-Brabant,VBO,4.963821,51.774564
Wethouder Raamsstraat,3,h,,4286BV,Almkerk,Woudrichem,Noord-Brabant,VBO,4.963834,51.774632
Wethouder Raamsstraat,3,i,,4286BV,Almkerk,Woudrichem,Noord-Brabant,VBO,4.963848,51.774704
Wethouder Raamsstraat,3,j,,4286BV,Almkerk,Woudrichem,Noord-Brabant,VBO,4.963871,51.774774
Wethouder Raamsstraat,3,,,4286BV,Almkerk,Woudrichem,Noord-Brabant,VBO,4.963922,51.774528
Wethouder Raamsstraat,5,,,4286BV,Almkerk,Woudrichem,Noord-Brabant,VBO,4.964478,51.774762
Wethouder Raamsstraat,2,,,4286BW,Almkerk,Woudrichem,Noord-Brabant,VBO,4.964874,51.774098
Wethouder Raamsstraat,4,,,4286BW,Almkerk,Woudrichem,Noord-Brabant,VBO,4.964849,51.774148
Wethouder Raamsstraat,6,,,4286BW,Almkerk,Woudrichem,Noord-Brabant,VBO,4.964826,51.774194
Wethouder Raamsstraat,8,,,4286BW,Almkerk,Woudrichem,Noord-Brabant,VBO,4.964865,51.774252
Wethouder Raamsstraat,10,,,4286BW,Almkerk,Woudrichem,Noord-Brabant,VBO,4.964840,51.774301
Wethouder Raamsstraat,12,,,4286BW,Almkerk,Woudrichem,Noord-Brabant,VBO,4.964818,51.774346
Wethouder Raamsstraat,14,,,4286BW,Almkerk,Woudrichem,Noord-Brabant,VBO,4.964793,51.774396
Wethouder Raamsstraat,16,,,4286BW,Almkerk,Woudrichem,Noord-Brabant,VBO,4.965125,51.774425
Wethouder Raamsstraat,18,,,4286BW,Almkerk,Woudrichem,Noord-Brabant,VBO,4.965177,51.774435
Wethouder Raamsstraat,20,,,4286BW,Almkerk,Woudrichem,Noord-Brabant,VBO,4.965229,51.774444
Wethouder Raamsstraat,22,,,4286BW,Almkerk,Woudrichem,Noord-Brabant,VBO,4.965281,51.774454
Wethouder Raamsstraat,24,,,4286BW,Almkerk,Woudrichem,Noord-Brabant,VBO,4.965327,51.774440
Wethouder Raamsstraat,26,,,4286BW,Almkerk,Woudrichem,Noord-Brabant,VBO,4.965386,51.774475
Wethouder Raamsstraat,28,,,4286BW,Almkerk,Woudrichem,Noord-Brabant,VBO,4.965432,51.774482
Wethouder Raamsstraat,30,,,4286BW,Almkerk,Woudrichem,Noord-Brabant,VBO,4.965503,51.774441
Binnenhof,1,,,4286BX,Almkerk,Woudrichem,Noord-Brabant,VBO,4.963582,51.771125
Binnenhof,2,,,4286BX,Almkerk,Woudrichem,Noord-Brabant,VBO,4.963503,51.771101
Binnenhof,3,,,4286BX,Almkerk,Woudrichem,Noord-Brabant,VBO,4.963431,51.771076
Binnenhof,4,,,4286BX,Almkerk,Woudrichem,Noord-Brabant,VBO,4.963343,51.771062
Binnenhof,5,,,4286BX,Almkerk,Woudrichem,Noord-Brabant,VBO,4.963252,51.771048
Binnenhof,6,,,4286BX,Almkerk,Woudrichem,Noord-Brabant,VBO,4.963554,51.771183
Binnenhof,7,,,4286BX,Almkerk,Woudrichem,Noord-Brabant,VBO,4.963465,51.771163
Binnenhof,8,,,4286BX,Almkerk,Woudrichem,Noord-Brabant,VBO,4.963411,51.771146
Binnenhof,9,,,4286BX,Almkerk,Woudrichem,Noord-Brabant,VBO,4.963319,51.771123
Binnenhof,10,,,4286BX,Almkerk,Woudrichem,Noord-Brabant,VBO,4.963226,51.771100
Binnenhof,11,,,4286BX,Almkerk,Woudrichem,Noord-Brabant,VBO,4.963604,51.771094
Binnenhof,12,,,4286BX,Almkerk,Woudrichem,Noord-Brabant,VBO,4.963531,51.771069
Binnenhof,13,,,4286BX,Almkerk,Woudrichem,Noord-Brabant,VBO,4.963453,51.771052
Binnenhof,14,,,4286BX,Almkerk,Woudrichem,Noord-Brabant,VBO,4.963366,51.771031
Binnenhof,15,,,4286BX,Almkerk,Woudrichem,Noord-Brabant,VBO,4.963286,51.771012
Kerklaantje,1,,,4286BZ,Almkerk,Woudrichem,Noord-Brabant,VBO,4.966673,51.773010
Kerklaantje,2,,,4286BZ,Almkerk,Woudrichem,Noord-Brabant,VBO,4.966853,51.773179
Kerklaantje,3,,,4286BZ,Almkerk,Woudrichem,Noord-Brabant,VBO,4.966598,51.773045
Kerklaantje,4,,,4286BZ,Almkerk,Woudrichem,Noord-Brabant,VBO,4.966799,51.773222
Kerklaantje,5,,,4286BZ,Almkerk,Woudrichem,Noord-Brabant,VBO,4.966378,51.773131
Kerklaantje,6,,,4286BZ,Almkerk,Woudrichem,Noord-Brabant,VBO,4.966720,51.773352
Burgemeester H.Blokstraat,1,a,,4286CA,Almkerk,Woudrichem,Noord-Brabant,VBO,4.953545,51.771148
Burgemeester H.Blokstraat,2,,,4286CA,Almkerk,Woudrichem,Noord-Brabant,VBO,4.953922,51.770908
Burgemeester H.Blokstraat,3,,,4286CA,Almkerk,Woudrichem,Noord-Brabant,VBO,4.960297,51.772793
Burgemeester H.Blokstraat,4,,,4286CA,Almkerk,Woudrichem,Noord-Brabant,VBO,4.953922,51.770974
Burgemeester H.Blokstraat,5,,,4286CA,Almkerk,Woudrichem,Noord-Brabant,VBO,4.960391,51.772815
Burgemeester H.Blokstraat,6,,,4286CA,Almkerk,Woudrichem,Noord-Brabant,VBO,4.953922,51.771084
Burgemeester H.Blokstraat,7,,,4286CA,Almkerk,Woudrichem,Noord-Brabant,VBO,4.960582,51.772859
Burgemeester H.Blokstraat,8,,,4286CA,Almkerk,Woudrichem,Noord-Brabant,VBO,4.953922,51.771149
Burgemeester H.Blokstraat,9,,,4286CA,Almkerk,Woudrichem,Noord-Brabant,VBO,4.960676,51.772882
Burgemeester H.Blokstraat,10,,,4286CA,Almkerk,Woudrichem,Noord-Brabant,VBO,4.953986,51.771278
Burgemeester H.Blokstraat,11,,,4286CA,Almkerk,Woudrichem,Noord-Brabant,VBO,4.960862,51.772926
Burgemeester H.Blokstraat,12,,,4286CA,Almkerk,Woudrichem,Noord-Brabant,VBO,4.954050,51.771319
Burgemeester H.Blokstraat,13,,,4286CB,Almkerk,Woudrichem,Noord-Brabant,VBO,4.960953,51.772947
Burgemeester H.Blokstraat,15,,,4286CB,Almkerk,Woudrichem,Noord-Brabant,VBO,4.961146,51.772992
Burgemeester H.Blokstraat,17,,,4286CB,Almkerk,Woudrichem,Noord-Brabant,VBO,4.961226,51.773011
Burgemeester H.Blokstraat,19,,,4286CB,Almkerk,Woudrichem,Noord-Brabant,VBO,4.961384,51.773049
Burgemeester H.Blokstraat,21,,,4286CB,Almkerk,Woudrichem,Noord-Brabant,VBO,4.961464,51.773068
Burgemeester H.Blokstraat,23,,,4286CB,Almkerk,Woudrichem,Noord-Brabant,VBO,4.961618,51.773104
Burgemeester H.Blokstraat,25,,,4286CB,Almkerk,Woudrichem,Noord-Brabant,VBO,4.961699,51.773123
Burgemeester H.Blokstraat,27,,,4286CB,Almkerk,Woudrichem,Noord-Brabant,VBO,4.962005,51.773217
Burgemeester H.Blokstraat,29,,,4286CB,Almkerk,Woudrichem,Noord-Brabant,VBO,4.962080,51.773234
Burgemeester H.Blokstraat,31,,,4286CB,Almkerk,Woudrichem,Noord-Brabant,VBO,4.962159,51.773253
Burgemeester H.Blokstraat,33,,,4286CB,Almkerk,Woudrichem,Noord-Brabant,VBO,4.962229,51.773269
Burgemeester H.Blokstraat,14,,,4286CC,Almkerk,Woudrichem,Noord-Brabant,VBO,4.954154,51.771387
Burgemeester H.Blokstraat,16,,,4286CC,Almkerk,Woudrichem,Noord-Brabant,VBO,4.954218,51.771429
Burgemeester H.Blokstraat,18,,,4286CC,Almkerk,Woudrichem,Noord-Brabant,VBO,4.954406,51.771518
Burgemeester H.Blokstraat,20,,,4286CC,Almkerk,Woudrichem,Noord-Brabant,VBO,4.954472,51.771521
Burgemeester H.Blokstraat,34,,,4286CC,Almkerk,Woudrichem,Noord-Brabant,VBO,4.956265,51.771519
Burgemeester H.Blokstraat,36,a,,4286CC,Almkerk,Woudrichem,Noord-Brabant,VBO,4.958116,51.772018
Burgemeester H.Blokstraat,36,b,,4286CC,Almkerk,Woudrichem,Noord-Brabant,VBO,4.957552,51.771848
Burgemeester H.Blokstraat,36,,,4286CC,Almkerk,Woudrichem,Noord-Brabant,VBO,4.956542,51.771590
Burgemeester H.Blokstraat,38,,,4286CC,Almkerk,Woudrichem,Noord-Brabant,VBO,4.959673,51.772377
Burgemeester H.Blokstraat,40,,,4286CC,Almkerk,Woudrichem,Noord-Brabant,VBO,4.959759,51.772397
Burgemeester H.Blokstraat,42,,,4286CC,Almkerk,Woudrichem,Noord-Brabant,VBO,4.959842,51.772417
Burgemeester H.Blokstraat,44,,,4286CC,Almkerk,Woudrichem,Noord-Brabant,VBO,4.959925,51.772437
Burgemeester H.Blokstraat,46,,,4286CC,Almkerk,Woudrichem,Noord-Brabant,VBO,4.960077,51.772472
Burgemeester H.Blokstraat,48,,,4286CC,Almkerk,Woudrichem,Noord-Brabant,VBO,4.960161,51.772492
Burgemeester H.Blokstraat,50,,,4286CD,Almkerk,Woudrichem,Noord-Brabant,VBO,4.960245,51.772512
Burgemeester H.Blokstraat,52,,,4286CD,Almkerk,Woudrichem,Noord-Brabant,VBO,4.960329,51.772532
Burgemeester H.Blokstraat,54,,,4286CD,Almkerk,Woudrichem,Noord-Brabant,VBO,4.960413,51.772552
Burgemeester H.Blokstraat,56,,,4286CD,Almkerk,Woudrichem,Noord-Brabant,VBO,4.960497,51.772571
Burgemeester H.Blokstraat,58,,,4286CD,Almkerk,Woudrichem,Noord-Brabant,VBO,4.961681,51.772851
Burgemeester H.Blokstraat,60,,,4286CD,Almkerk,Woudrichem,Noord-Brabant,VBO,4.961893,51.772901
Burgemeester H.Blokstraat,62,,,4286CD,Almkerk,Woudrichem,Noord-Brabant,VBO,4.962066,51.772942
Burgemeester H.Blokstraat,64,,,4286CD,Almkerk,Woudrichem,Noord-Brabant,VBO,4.962149,51.772962
Burgemeester H.Blokstraat,66,,,4286CD,Almkerk,Woudrichem,Noord-Brabant,VBO,4.962231,51.772981
Burgemeester H.Blokstraat,68,,,4286CD,Almkerk,Woudrichem,Noord-Brabant,VBO,4.962314,51.773001
Burgemeester H.Blokstraat,70,,,4286CD,Almkerk,Woudrichem,Noord-Brabant,VBO,4.962478,51.773040
Burgemeester H.Blokstraat,72,,,4286CD,Almkerk,Woudrichem,Noord-Brabant,VBO,4.962560,51.773059
Burgemeester H.Blokstraat,74,,,4286CD,Almkerk,Woudrichem,Noord-Brabant,VBO,4.962643,51.773079
Burgemeester H.Blokstraat,76,,,4286CD,Almkerk,Woudrichem,Noord-Brabant,VBO,4.962726,51.773098
Burgemeester H.Blokstraat,78,,,4286CD,Almkerk,Woudrichem,Noord-Brabant,VBO,4.962900,51.773139
Burgemeester H.Blokstraat,80,,,4286CD,Almkerk,Woudrichem,Noord-Brabant,VBO,4.963002,51.773163
Burgemeester H.Blokstraat,82,,,4286CD,Almkerk,Woudrichem,Noord-Brabant,VBO,4.963172,51.773203
Melkweg,1,,,4286CE,Almkerk,Woudrichem,Noord-Brabant,VBO,4.953638,51.771449
Melkweg,2,,,4286CE,Almkerk,Woudrichem,Noord-Brabant,VBO,4.953995,51.771811
Melkweg,3,,,4286CE,Almkerk,Woudrichem,Noord-Brabant,VBO,4.953429,51.771655
Melkweg,4,,,4286CE,Almkerk,Woudrichem,Noord-Brabant,VBO,4.954000,51.771770
Melkweg,5,,,4286CE,Almkerk,Woudrichem,Noord-Brabant,VBO,4.953042,51.771649
Melkweg,6,,,4286CE,Almkerk,Woudrichem,Noord-Brabant,VBO,4.954004,51.771729
Melkweg,7,,,4286CE,Almkerk,Woudrichem,Noord-Brabant,VBO,4.952996,51.771832
Melkweg,8,,,4286CE,Almkerk,Woudrichem,Noord-Brabant,VBO,4.954008,51.771687
Melkweg,9,,,4286CE,Almkerk,Woudrichem,Noord-Brabant,VBO,4.953241,51.771849
Melkweg,10,,,4286CE,Almkerk,Woudrichem,Noord-Brabant,VBO,4.954240,51.771793
Melkweg,11,,,4286CE,Almkerk,Woudrichem,Noord-Brabant,VBO,4.953517,51.771933
Melkweg,12,,,4286CE,Almkerk,Woudrichem,Noord-Brabant,VBO,4.954236,51.771834
Melkweg,13,,,4286CE,Almkerk,Woudrichem,Noord-Brabant,VBO,4.953766,51.772041
Melkweg,14,,,4286CE,Almkerk,Woudrichem,Noord-Brabant,VBO,4.954232,51.771876
Melkweg,15,,,4286CE,Almkerk,Woudrichem,Noord-Brabant,VBO,4.954048,51.772117
Melkweg,16,,,4286CE,Almkerk,Woudrichem,Noord-Brabant,VBO,4.954228,51.771917
Melkweg,17,,,4286CE,Almkerk,Woudrichem,Noord-Brabant,VBO,4.954281,51.772163
Melkweg,18,,,4286CE,Almkerk,Woudrichem,Noord-Brabant,VBO,4.954783,51.771957
Melkweg,19,,,4286CE,Almkerk,Woudrichem,Noord-Brabant,VBO,4.954566,51.772166
Melkweg,20,,,4286CE,Almkerk,Woudrichem,Noord-Brabant,VBO,4.954788,51.771913
Melkweg,22,,,4286CE,Almkerk,Woudrichem,Noord-Brabant,VBO,4.954792,51.771871
Melkweg,24,,,4286CE,Almkerk,Woudrichem,Noord-Brabant,VBO,4.955104,51.771908
Melkweg,26,,,4286CE,Almkerk,Woudrichem,Noord-Brabant,VBO,4.955100,51.771949
Melkweg,28,,,4286CE,Almkerk,Woudrichem,Noord-Brabant,VBO,4.955096,51.771991
De Ster,1,,,4286CG,Almkerk,Woudrichem,Noord-Brabant,VBO,4.955847,51.771906
De Ster,2,,,4286CG,Almkerk,Woudrichem,Noord-Brabant,VBO,4.955965,51.771930
De Ster,3,,,4286CG,Almkerk,Woudrichem,Noord-Brabant,VBO,4.956050,51.771965
De Ster,4,,,4286CG,Almkerk,Woudrichem,Noord-Brabant,VBO,4.956007,51.772037
De Ster,5,,,4286CG,Almkerk,Woudrichem,Noord-Brabant,VBO,4.955835,51.772116
De Ster,6,,,4286CG,Almkerk,Woudrichem,Noord-Brabant,VBO,4.955753,51.772065
De Ster,7,,,4286CG,Almkerk,Woudrichem,Noord-Brabant,VBO,4.955794,51.772009
De Ster,8,,,4286CG,Almkerk,Woudrichem,Noord-Brabant,VBO,4.956480,51.771915
De Ster,9,,,4286CG,Almkerk,Woudrichem,Noord-Brabant,VBO,4.956595,51.771939
De Ster,10,,,4286CG,Almkerk,Woudrichem,Noord-Brabant,VBO,4.956680,51.771978
De Ster,11,,,4286CG,Almkerk,Woudrichem,Noord-Brabant,VBO,4.956636,51.772047
De Ster,12,,,4286CG,Almkerk,Woudrichem,Noord-Brabant,VBO,4.956456,51.772124
De Ster,13,,,4286CG,Almkerk,Woudrichem,Noord-Brabant,VBO,4.956380,51.772084
De Ster,14,,,4286CG,Almkerk,Woudrichem,Noord-Brabant,VBO,4.956423,51.772015
De Ster,15,,,4286CG,Almkerk,Woudrichem,Noord-Brabant,VBO,4.956235,51.772310
De Ster,16,,,4286CG,Almkerk,Woudrichem,Noord-Brabant,VBO,4.956350,51.772335
De Ster,17,,,4286CG,Almkerk,Woudrichem,Noord-Brabant,VBO,4.956426,51.772374
De Ster,18,,,4286CG,Almkerk,Woudrichem,Noord-Brabant,VBO,4.956382,51.772446
De Ster,19,,,4286CG,Almkerk,Woudrichem,Noord-Brabant,VBO,4.956021,51.772529
De Ster,20,,,4286CG,Almkerk,Woudrichem,Noord-Brabant,VBO,4.956141,51.772553
De Ster,21,,,4286CH,Almkerk,Woudrichem,Noord-Brabant,VBO,4.956213,51.772592
De Ster,22,,,4286CH,Almkerk,Woudrichem,Noord-Brabant,VBO,4.956168,51.772667
De Ster,23,,,4286CH,Almkerk,Woudrichem,Noord-Brabant,VBO,4.955985,51.772737
De Ster,24,,,4286CH,Almkerk,Woudrichem,Noord-Brabant,VBO,4.955912,51.772696
De Ster,25,,,4286CH,Almkerk,Woudrichem,Noord-Brabant,VBO,4.955956,51.772626
De Ster,26,,,4286CH,Almkerk,Woudrichem,Noord-Brabant,VBO,4.955546,51.772380
De Ster,27,,,4286CH,Almkerk,Woudrichem,Noord-Brabant,VBO,4.955661,51.772404
De Ster,28,,,4286CH,Almkerk,Woudrichem,Noord-Brabant,VBO,4.955733,51.772446
De Ster,29,,,4286CH,Almkerk,Woudrichem,Noord-Brabant,VBO,4.955689,51.772517
De Ster,30,,,4286CH,Almkerk,Woudrichem,Noord-Brabant,VBO,4.955505,51.772588
De Ster,31,,,4286CH,Almkerk,Woudrichem,Noord-Brabant,VBO,4.955432,51.772549
De Ster,32,,,4286CH,Almkerk,Woudrichem,Noord-Brabant,VBO,4.955476,51.772475
De Ster,33,,,4286CH,Almkerk,Woudrichem,Noord-Brabant,VBO,4.955065,51.772230
De Ster,34,,,4286CH,Almkerk,Woudrichem,Noord-Brabant,VBO,4.955180,51.772255
De Ster,35,,,4286CH,Almkerk,Woudrichem,Noord-Brabant,VBO,4.955253,51.772296
De Ster,36,,,4286CH,Almkerk,Woudrichem,Noord-Brabant,VBO,4.955208,51.772368
De Ster,37,,,4286CH,Almkerk,Woudrichem,Noord-Brabant,VBO,4.955025,51.772438
De Ster,38,,,4286CH,Almkerk,Woudrichem,Noord-Brabant,VBO,4.954953,51.772397
De Ster,39,,,4286CH,Almkerk,Woudrichem,Noord-Brabant,VBO,4.954997,51.772330
Rozenlaan,1,,,4286CJ,Almkerk,Woudrichem,Noord-Brabant,VBO,4.958486,51.772396
Rozenlaan,2,,,4286CJ,Almkerk,Woudrichem,Noord-Brabant,VBO,4.958458,51.772441
Rozenlaan,3,,,4286CJ,Almkerk,Woudrichem,Noord-Brabant,VBO,4.958432,51.772484
Rozenlaan,4,,,4286CJ,Almkerk,Woudrichem,Noord-Brabant,VBO,4.958406,51.772527
Rozenlaan,5,,,4286CJ,Almkerk,Woudrichem,Noord-Brabant,VBO,4.958352,51.772616
Rozenlaan,6,,,4286CJ,Almkerk,Woudrichem,Noord-Brabant,VBO,4.958326,51.772659
Rozenlaan,7,,,4286CJ,Almkerk,Woudrichem,Noord-Brabant,VBO,4.958300,51.772702
Rozenlaan,8,,,4286CJ,Almkerk,Woudrichem,Noord-Brabant,VBO,4.958274,51.772744
De Sering,1,,,4286CK,Almkerk,Woudrichem,Noord-Brabant,VBO,4.959003,51.772513
De Sering,3,,,4286CK,Almkerk,Woudrichem,Noord-Brabant,VBO,4.958978,51.772553
De Sering,5,,,4286CK,Almkerk,Woudrichem,Noord-Brabant,VBO,4.958952,51.772596
De Sering,7,,,4286CK,Almkerk,Woudrichem,Noord-Brabant,VBO,4.958926,51.772639
De Sering,9,,,4286CK,Almkerk,Woudrichem,Noord-Brabant,VBO,4.958871,51.772728
De Sering,11,,,4286CK,Almkerk,Woudrichem,Noord-Brabant,VBO,4.958846,51.772768
De Sering,13,,,4286CK,Almkerk,Woudrichem,Noord-Brabant,VBO,4.958821,51.772809
De Sering,15,,,4286CK,Almkerk,Woudrichem,Noord-Brabant,VBO,4.958795,51.772852
De Sering,2,,,4286CL,Almkerk,Woudrichem,Noord-Brabant,VBO,4.959372,51.772591
De Sering,4,,,4286CL,Almkerk,Woudrichem,Noord-Brabant,VBO,4.959344,51.772637
De Sering,6,,,4286CL,Almkerk,Woudrichem,Noord-Brabant,VBO,4.959316,51.772684
De Sering,8,,,4286CL,Almkerk,Woudrichem,Noord-Brabant,VBO,4.959287,51.772730
De Sering,10,,,4286CL,Almkerk,Woudrichem,Noord-Brabant,VBO,4.959235,51.772815
De Sering,12,,,4286CL,Almkerk,Woudrichem,Noord-Brabant,VBO,4.959207,51.772861
De Sering,14,,,4286CL,Almkerk,Woudrichem,Noord-Brabant,VBO,4.959179,51.772907
De Sering,16,,,4286CL,Almkerk,Woudrichem,Noord-Brabant,VBO,4.959151,51.772953
De Sering,18,,,4286CL,Almkerk,Woudrichem,Noord-Brabant,VBO,4.959101,51.773033
De Sering,20,,,4286CL,Almkerk,Woudrichem,Noord-Brabant,VBO,4.959072,51.773082
De Sering,22,,,4286CL,Almkerk,Woudrichem,Noord-Brabant,VBO,4.959043,51.773128
De Sering,24,,,4286CL,Almkerk,Woudrichem,Noord-Brabant,VBO,4.959015,51.773174
De Sering,26,,,4286CL,Almkerk,Woudrichem,Noord-Brabant,VBO,4.958710,51.773100
De Sering,28,,,4286CL,Almkerk,Woudrichem,Noord-Brabant,VBO,4.958636,51.773083
De Sering,30,,,4286CL,Almkerk,Woudrichem,Noord-Brabant,VBO,4.958562,51.773065
De Sering,32,,,4286CL,Almkerk,Woudrichem,Noord-Brabant,VBO,4.958488,51.773048
De Sering,34,,,4286CL,Almkerk,Woudrichem,Noord-Brabant,VBO,4.958358,51.773017
De Sering,36,,,4286CL,Almkerk,Woudrichem,Noord-Brabant,VBO,4.958283,51.773000
De Sering,38,,,4286CL,Almkerk,Woudrichem,Noord-Brabant,VBO,4.958209,51.772982
De Sering,40,,,4286CL,Almkerk,Woudrichem,Noord-Brabant,VBO,4.958134,51.772964
Magnolialaan,1,,,4286CM,Almkerk,Woudrichem,Noord-Brabant,VBO,4.959905,51.772707
Magnolialaan,3,,,4286CM,Almkerk,Woudrichem,Noord-Brabant,VBO,4.959880,51.772748
Magnolialaan,5,,,4286CM,Almkerk,Woudrichem,Noord-Brabant,VBO,4.959854,51.772790
Magnolialaan,7,,,4286CM,Almkerk,Woudrichem,Noord-Brabant,VBO,4.959828,51.772833
Magnolialaan,9,,,4286CM,Almkerk,Woudrichem,Noord-Brabant,VBO,4.959781,51.772910
Magnolialaan,11,,,4286CM,Almkerk,Woudrichem,Noord-Brabant,VBO,4.959756,51.772950
Magnolialaan,13,,,4286CM,Almkerk,Woudrichem,Noord-Brabant,VBO,4.959732,51.772990
Magnolialaan,15,,,4286CM,Almkerk,Woudrichem,Noord-Brabant,VBO,4.959706,51.773033
Magnolialaan,17,,,4286CM,Almkerk,Woudrichem,Noord-Brabant,VBO,4.959660,51.773109
Magnolialaan,19,,,4286CM,Almkerk,Woudrichem,Noord-Brabant,VBO,4.959634,51.773151
Magnolialaan,21,,,4286CM,Almkerk,Woudrichem,Noord-Brabant,VBO,4.959608,51.773194
Magnolialaan,23,,,4286CM,Almkerk,Woudrichem,Noord-Brabant,VBO,4.959583,51.773234
Magnolialaan,25,,,4286CM,Almkerk,Woudrichem,Noord-Brabant,VBO,4.959536,51.773310
Magnolialaan,27,,,4286CM,Almkerk,Woudrichem,Noord-Brabant,VBO,4.959510,51.773353
Magnolialaan,29,,,4286CM,Almkerk,Woudrichem,Noord-Brabant,VBO,4.959483,51.773396
Magnolialaan,31,,,4286CM,Almkerk,Woudrichem,Noord-Brabant,VBO,4.959456,51.773441
Magnolialaan,2,,,4286CN,Almkerk,Woudrichem,Noord-Brabant,VBO,4.959925,51.773357
Magnolialaan,4,,,4286CN,Almkerk,Woudrichem,Noord-Brabant,VBO,4.959895,51.773406
Magnolialaan,6,,,4286CN,Almkerk,Woudrichem,Noord-Brabant,VBO,4.959866,51.773454
Magnolialaan,8,,,4286CN,Almkerk,Woudrichem,Noord-Brabant,VBO,4.959836,51.773503
Magnolialaan,10,,,4286CN,Almkerk,Woudrichem,Noord-Brabant,VBO,4.959804,51.773556
Magnolialaan,12,,,4286CN,Almkerk,Woudrichem,Noord-Brabant,VBO,4.959746,51.773650
Magnolialaan,14,,,4286CN,Almkerk,Woudrichem,Noord-Brabant,VBO,4.959716,51.773699
Magnolialaan,16,,,4286CN,Almkerk,Woudrichem,Noord-Brabant,VBO,4.959686,51.773747
Magnolialaan,18,,,4286CN,Almkerk,Woudrichem,Noord-Brabant,VBO,4.959657,51.773796
Magnolialaan,20,,,4286CN,Almkerk,Woudrichem,Noord-Brabant,VBO,4.959626,51.773847
Anjerlaan,1,,,4286CP,Almkerk,Woudrichem,Noord-Brabant,VBO,4.960426,51.774110
Anjerlaan,3,,,4286CP,Almkerk,Woudrichem,Noord-Brabant,VBO,4.960519,51.774132
Anjerlaan,5,,,4286CP,Almkerk,Woudrichem,Noord-Brabant,VBO,4.960718,51.774180
Anjerlaan,7,,,4286CP,Almkerk,Woudrichem,Noord-Brabant,VBO,4.960931,51.774230
Anjerlaan,9,,,4286CP,Almkerk,Woudrichem,Noord-Brabant,VBO,4.961029,51.774254
Anjerlaan,11,,,4286CP,Almkerk,Woudrichem,Noord-Brabant,VBO,4.961205,51.774295
Anjerlaan,13,,,4286CP,Almkerk,Woudrichem,Noord-Brabant,VBO,4.961385,51.774338
Anjerlaan,15,,,4286CP,Almkerk,Woudrichem,Noord-Brabant,VBO,4.961603,51.774390
Anjerlaan,17,,,4286CP,Almkerk,Woudrichem,Noord-Brabant,VBO,4.961692,51.774411
Anjerlaan,19,,,4286CP,Almkerk,Woudrichem,Noord-Brabant,VBO,4.961904,51.774460
Anjerlaan,21,,,4286CP,Almkerk,Woudrichem,Noord-Brabant,VBO,4.961983,51.774479
Anjerlaan,23,,,4286CP,Almkerk,Woudrichem,Noord-Brabant,VBO,4.962058,51.774497
Anjerlaan,25,,,4286CP,Almkerk,Woudrichem,Noord-Brabant,VBO,4.962128,51.774529
Anjerlaan,27,,,4286CP,Almkerk,Woudrichem,Noord-Brabant,VBO,4.962206,51.774547
Anjerlaan,29,,,4286CP,Almkerk,Woudrichem,Noord-Brabant,VBO,4.962283,51.774566
Anjerlaan,31,,,4286CP,Almkerk,Woudrichem,Noord-Brabant,VBO,4.962365,51.774585
Anjerlaan,33,,,4286CP,Almkerk,Woudrichem,Noord-Brabant,VBO,4.962466,51.774638
Anjerlaan,35,,,4286CP,Almkerk,Woudrichem,Noord-Brabant,VBO,4.962451,51.774664
Anjerlaan,37,,,4286CP,Almkerk,Woudrichem,Noord-Brabant,VBO,4.962544,51.774656
Anjerlaan,39,,,4286CP,Almkerk,Woudrichem,Noord-Brabant,VBO,4.962528,51.774682
Anjerlaan,41,,,4286CP,Almkerk,Woudrichem,Noord-Brabant,VBO,4.962603,51.774670
Anjerlaan,43,,,4286CP,Almkerk,Woudrichem,Noord-Brabant,VBO,4.962600,51.774699
Anjerlaan,45,,,4286CP,Almkerk,Woudrichem,Noord-Brabant,VBO,4.962694,51.774672
Anjerlaan,47,,,4286CP,Almkerk,Woudrichem,Noord-Brabant,VBO,4.962717,51.774697
Anjerlaan,49,,,4286CP,Almkerk,Woudrichem,Noord-Brabant,VBO,4.962766,51.774653
Anjerlaan,51,a,,4286CP,Almkerk,Woudrichem,Noord-Brabant,VBO,4.962992,51.774634
Anjerlaan,51,,,4286CP,Almkerk,Woudrichem,Noord-Brabant,VBO,4.962787,51.774678
Anjerlaan,53,,,4286CP,Almkerk,Woudrichem,Noord-Brabant,VBO,4.962818,51.774538
Anjerlaan,55,,,4286CP,Almkerk,Woudrichem,Noord-Brabant,VBO,4.962847,51.774490
Anjerlaan,57,,,4286CP,Almkerk,Woudrichem,Noord-Brabant,VBO,4.962877,51.774442
Anjerlaan,59,,,4286CP,Almkerk,Woudrichem,Noord-Brabant,VBO,4.962906,51.774393
Anjerlaan,61,,,4286CP,Almkerk,Woudrichem,Noord-Brabant,VBO,4.962937,51.774343
Anjerlaan,63,,,4286CP,Almkerk,Woudrichem,Noord-Brabant,VBO,4.962965,51.774297
Anjerlaan,65,,,4286CP,Almkerk,Woudrichem,Noord-Brabant,VBO,4.962972,51.774243
Anjerlaan,67,,,4286CP,Almkerk,Woudrichem,Noord-Brabant,VBO,4.963001,51.774195
Anjerlaan,69,,,4286CP,Almkerk,Woudrichem,Noord-Brabant,VBO,4.963031,51.774146
Anjerlaan,71,,,4286CP,Almkerk,Woudrichem,Noord-Brabant,VBO,4.963062,51.774095
Anjerlaan,73,,,4286CP,Almkerk,Woudrichem,Noord-Brabant,VBO,4.962964,51.773936
Anjerlaan,75,,,4286CP,Almkerk,Woudrichem,Noord-Brabant,VBO,4.962896,51.773919
Anjerlaan,77,,,4286CP,Almkerk,Woudrichem,Noord-Brabant,VBO,4.962815,51.773919
Anjerlaan,79,,,4286CP,Almkerk,Woudrichem,Noord-Brabant,VBO,4.962702,51.773825
Anjerlaan,81,,,4286CP,Almkerk,Woudrichem,Noord-Brabant,VBO,4.962775,51.773785
Anjerlaan,83,,,4286CP,Almkerk,Woudrichem,Noord-Brabant,VBO,4.962758,51.773772
Anjerlaan,85,,,4286CP,Almkerk,Woudrichem,Noord-Brabant,VBO,4.962782,51.773658
Anjerlaan,87,,,4286CP,Almkerk,Woudrichem,Noord-Brabant,VBO,4.962817,51.773602
Anjerlaan,89,,,4286CP,Almkerk,Woudrichem,Noord-Brabant,VBO,4.962852,51.773547
Anjerlaan,91,,,4286CP,Almkerk,Woudrichem,Noord-Brabant,VBO,4.962889,51.773489
Anjerlaan,93,,,4286CP,Almkerk,Woudrichem,Noord-Brabant,VBO,4.962922,51.773435
Anjerlaan,2,,,4286CR,Almkerk,Woudrichem,Noord-Brabant,VBO,4.957964,51.773300
Anjerlaan,4,,,4286CR,Almkerk,Woudrichem,Noord-Brabant,VBO,4.958047,51.773320
Anjerlaan,6,,,4286CR,Almkerk,Woudrichem,Noord-Brabant,VBO,4.958259,51.773370
Anjerlaan,8,,,4286CR,Almkerk,Woudrichem,Noord-Brabant,VBO,4.958491,51.773424
Anjerlaan,10,a,,4286CR,Almkerk,Woudrichem,Noord-Brabant,VBO,4.959212,51.773296
Anjerlaan,10,b,,4286CR,Almkerk,Woudrichem,Noord-Brabant,VBO,4.959171,51.773282
Anjerlaan,10,c,,4286CR,Almkerk,Woudrichem,Noord-Brabant,VBO,4.959129,51.773268
Anjerlaan,10,d,,4286CR,Almkerk,Woudrichem,Noord-Brabant,VBO,4.959098,51.773254
Anjerlaan,10,e,,4286CR,Almkerk,Woudrichem,Noord-Brabant,VBO,4.959060,51.773245
Anjerlaan,10,f,,4286CR,Almkerk,Woudrichem,Noord-Brabant,VBO,4.959016,51.773233
Anjerlaan,10,g,,4286CR,Almkerk,Woudrichem,Noord-Brabant,VBO,4.958981,51.773220
Anjerlaan,10,h,,4286CR,Almkerk,Woudrichem,Noord-Brabant,VBO,4.958936,51.773209
Anjerlaan,10,i,,4286CR,Almkerk,Woudrichem,Noord-Brabant,VBO,4.958898,51.773199
Anjerlaan,10,j,,4286CR,Almkerk,Woudrichem,Noord-Brabant,VBO,4.958858,51.773188
Anjerlaan,10,,,4286CR,Almkerk,Woudrichem,Noord-Brabant,VBO,4.958742,51.773540
Anjerlaan,12,,,4286CR,Almkerk,Woudrichem,Noord-Brabant,VBO,4.958830,51.773561
Anjerlaan,14,,,4286CR,Almkerk,Woudrichem,Noord-Brabant,VBO,4.958999,51.773601
Anjerlaan,16,,,4286CR,Almkerk,Woudrichem,Noord-Brabant,VBO,4.959087,51.773622
Anjerlaan,18,,,4286CR,Almkerk,Woudrichem,Noord-Brabant,VBO,4.959256,51.773661
Anjerlaan,20,,,4286CR,Almkerk,Woudrichem,Noord-Brabant,VBO,4.959348,51.773683
Anjerlaan,22,,,4286CR,Almkerk,Woudrichem,Noord-Brabant,VBO,4.961599,51.774168
Anjerlaan,24,,,4286CR,Almkerk,Woudrichem,Noord-Brabant,VBO,4.961836,51.774198
Anjerlaan,26,,,4286CR,Almkerk,Woudrichem,Noord-Brabant,VBO,4.962116,51.774264
Anjerlaan,28,,,4286CR,Almkerk,Woudrichem,Noord-Brabant,VBO,4.962188,51.774282
Anjerlaan,32,,,4286CR,Almkerk,Woudrichem,Noord-Brabant,VBO,4.962589,51.774214
Anjerlaan,34,,,4286CR,Almkerk,Woudrichem,Noord-Brabant,VBO,4.962529,51.773501
Anjerlaan,36,,,4286CR,Almkerk,Woudrichem,Noord-Brabant,VBO,4.962557,51.773455
Anjerlaan,38,,,4286CR,Almkerk,Woudrichem,Noord-Brabant,VBO,4.962585,51.773409
Anjerlaan,40,,,4286CR,Almkerk,Woudrichem,Noord-Brabant,VBO,4.962614,51.773362
Prunuslaan,1,,,4286CS,Almkerk,Woudrichem,Noord-Brabant,VBO,4.960485,51.773481
Prunuslaan,3,,,4286CS,Almkerk,Woudrichem,Noord-Brabant,VBO,4.960457,51.773528
Prunuslaan,5,,,4286CS,Almkerk,Woudrichem,Noord-Brabant,VBO,4.960428,51.773576
Prunuslaan,7,,,4286CS,Almkerk,Woudrichem,Noord-Brabant,VBO,4.960398,51.773625
Prunuslaan,9,,,4286CS,Almkerk,Woudrichem,Noord-Brabant,VBO,4.960369,51.773671
Prunuslaan,11,,,4286CS,Almkerk,Woudrichem,Noord-Brabant,VBO,4.960314,51.773763
Prunuslaan,13,,,4286CS,Almkerk,Woudrichem,Noord-Brabant,VBO,4.960285,51.773810
Prunuslaan,15,,,4286CS,Almkerk,Woudrichem,Noord-Brabant,VBO,4.960255,51.773860
Prunuslaan,17,,,4286CS,Almkerk,Woudrichem,Noord-Brabant,VBO,4.960225,51.773909
Prunuslaan,19,,,4286CS,Almkerk,Woudrichem,Noord-Brabant,VBO,4.960196,51.773956
Prunuslaan,2,,,4286CT,Almkerk,Woudrichem,Noord-Brabant,VBO,4.960090,51.773137
Prunuslaan,4,,,4286CT,Almkerk,Woudrichem,Noord-Brabant,VBO,4.960168,51.773156
Prunuslaan,6,,,4286CT,Almkerk,Woudrichem,Noord-Brabant,VBO,4.960247,51.773174
Prunuslaan,8,,,4286CT,Almkerk,Woudrichem,Noord-Brabant,VBO,4.960325,51.773193
Prunuslaan,10,,,4286CT,Almkerk,Woudrichem,Noord-Brabant,VBO,4.960514,51.773238
Prunuslaan,12,,,4286CT,Almkerk,Woudrichem,Noord-Brabant,VBO,4.960592,51.773256
Prunuslaan,14,,,4286CT,Almkerk,Woudrichem,Noord-Brabant,VBO,4.960671,51.773275
Prunuslaan,16,a,,4286CT,Almkerk,Woudrichem,Noord-Brabant,VBO,4.960887,51.773311
Prunuslaan,16,,,4286CT,Almkerk,Woudrichem,Noord-Brabant,VBO,4.960749,51.773294
Prunuslaan,18,,,4286CT,Almkerk,Woudrichem,Noord-Brabant,VBO,4.960905,51.773424
Prunuslaan,20,,,4286CT,Almkerk,Woudrichem,Noord-Brabant,VBO,4.960875,51.773474
Prunuslaan,22,,,4286CT,Almkerk,Woudrichem,Noord-Brabant,VBO,4.960847,51.773520
Prunuslaan,24,,,4286CT,Almkerk,Woudrichem,Noord-Brabant,VBO,4.960816,51.773572
Prunuslaan,26,,,4286CT,Almkerk,Woudrichem,Noord-Brabant,VBO,4.960786,51.773620
Prunuslaan,28,,,4286CT,Almkerk,Woudrichem,Noord-Brabant,VBO,4.960731,51.773711
Prunuslaan,30,,,4286CT,Almkerk,Woudrichem,Noord-Brabant,VBO,4.960697,51.773767
Prunuslaan,32,,,4286CT,Almkerk,Woudrichem,Noord-Brabant,VBO,4.960667,51.773817
Prunuslaan,34,,,4286CT,Almkerk,Woudrichem,Noord-Brabant,VBO,4.960638,51.773865
Prunuslaan,36,,,4286CT,Almkerk,Woudrichem,Noord-Brabant,VBO,4.960610,51.773911
Meidoornlaan,1,,,4286CV,Almkerk,Woudrichem,Noord-Brabant,VBO,4.961534,51.773373
Meidoornlaan,2,,,4286CV,Almkerk,Woudrichem,Noord-Brabant,VBO,4.961879,51.773452
Meidoornlaan,3,,,4286CV,Almkerk,Woudrichem,Noord-Brabant,VBO,4.961505,51.773421
Meidoornlaan,4,,,4286CV,Almkerk,Woudrichem,Noord-Brabant,VBO,4.961851,51.773499
Meidoornlaan,5,,,4286CV,Almkerk,Woudrichem,Noord-Brabant,VBO,4.961444,51.773521
Meidoornlaan,6,,,4286CV,Almkerk,Woudrichem,Noord-Brabant,VBO,4.961823,51.773545
Meidoornlaan,7,,,4286CV,Almkerk,Woudrichem,Noord-Brabant,VBO,4.961414,51.773571
Meidoornlaan,8,,,4286CV,Almkerk,Woudrichem,Noord-Brabant,VBO,4.961795,51.773591
Meidoornlaan,9,,,4286CV,Almkerk,Woudrichem,Noord-Brabant,VBO,4.961380,51.773690
Meidoornlaan,11,,,4286CV,Almkerk,Woudrichem,Noord-Brabant,VBO,4.961351,51.773737
Meidoornlaan,13,,,4286CV,Almkerk,Woudrichem,Noord-Brabant,VBO,4.961323,51.773783
Meidoornlaan,15,,,4286CV,Almkerk,Woudrichem,Noord-Brabant,VBO,4.961294,51.773832
Meidoornlaan,17,,,4286CV,Almkerk,Woudrichem,Noord-Brabant,VBO,4.961239,51.773921
Meidoornlaan,19,,,4286CV,Almkerk,Woudrichem,Noord-Brabant,VBO,4.961210,51.773970
Meidoornlaan,21,,,4286CV,Almkerk,Woudrichem,Noord-Brabant,VBO,4.961180,51.774020
Antonialaan,2,,,4286CW,Almkerk,Woudrichem,Noord-Brabant,VBO,4.954912,51.770959
Antonialaan,4,,,4286CW,Almkerk,Woudrichem,Noord-Brabant,VBO,4.954767,51.770928
Antonialaan,6,,,4286CW,Almkerk,Woudrichem,Noord-Brabant,VBO,4.954977,51.770848
Antonialaan,8,,,4286CW,Almkerk,Woudrichem,Noord-Brabant,VBO,4.955027,51.770799
Antonialaan,10,,,4286CW,Almkerk,Woudrichem,Noord-Brabant,VBO,4.955093,51.770766
Antonialaan,12,,,4286CW,Almkerk,Woudrichem,Noord-Brabant,VBO,4.955186,51.770726
Antonialaan,14,,,4286CW,Almkerk,Woudrichem,Noord-Brabant,VBO,4.955291,51.770653
Antonialaan,16,,,4286CW,Almkerk,Woudrichem,Noord-Brabant,VBO,4.955330,51.771054
Antonialaan,18,,,4286CW,Almkerk,Woudrichem,Noord-Brabant,VBO,4.955276,51.770829
Antonialaan,20,,,4286CW,Almkerk,Woudrichem,Noord-Brabant,VBO,4.955260,51.770900
Antonialaan,22,,,4286CW,Almkerk,Woudrichem,Noord-Brabant,VBO,4.955267,51.770961
Antonialaan,24,,,4286CW,Almkerk,Woudrichem,Noord-Brabant,VBO,4.955267,51.771027
Antonialaan,26,,,4286CW,Almkerk,Woudrichem,Noord-Brabant,VBO,4.955261,51.771069
Antonialaan,28,a,,4286CW,Almkerk,Woudrichem,Noord-Brabant,VBO,4.955079,51.770802
Antonialaan,28,b,,4286CW,Almkerk,Woudrichem,Noord-Brabant,VBO,4.955077,51.770801
Antonialaan,28,,,4286CW,Almkerk,Woudrichem,Noord-Brabant,VBO,4.955266,51.771148
Antonialaan,30,,,4286CW,Almkerk,Woudrichem,Noord-Brabant,VBO,4.955100,51.771158
Antonialaan,32,,,4286CW,Almkerk,Woudrichem,Noord-Brabant,VBO,4.955102,51.771099
Antonialaan,34,,,4286CW,Almkerk,Woudrichem,Noord-Brabant,VBO,4.955102,51.771038
Antonialaan,36,,,4286CW,Almkerk,Woudrichem,Noord-Brabant,VBO,4.955105,51.770974
Antonialaan,38,,,4286CW,Almkerk,Woudrichem,Noord-Brabant,VBO,4.954918,51.770935
Antonialaan,40,,,4286CW,Almkerk,Woudrichem,Noord-Brabant,VBO,4.954773,51.770908
Antonialaan,42,,,4286CW,Almkerk,Woudrichem,Noord-Brabant,VBO,4.954950,51.770828
Antonialaan,44,,,4286CW,Almkerk,Woudrichem,Noord-Brabant,VBO,4.955014,51.770778
Antonialaan,46,,,4286CW,Almkerk,Woudrichem,Noord-Brabant,VBO,4.955085,51.770744
Antonialaan,48,,,4286CW,Almkerk,Woudrichem,Noord-Brabant,VBO,4.955181,51.770702
Antonialaan,50,,,4286CW,Almkerk,Woudrichem,Noord-Brabant,VBO,4.955336,51.770644
Antonialaan,52,,,4286CW,Almkerk,Woudrichem,Noord-Brabant,VBO,4.955322,51.770729
Antonialaan,54,,,4286CW,Almkerk,Woudrichem,Noord-Brabant,VBO,4.955312,51.770847
Antonialaan,56,,,4286CW,Almkerk,Woudrichem,Noord-Brabant,VBO,4.955286,51.770888
Antonialaan,58,,,4286CW,Almkerk,Woudrichem,Noord-Brabant,VBO,4.955284,51.770962
Antonialaan,60,,,4286CW,Almkerk,Woudrichem,Noord-Brabant,VBO,4.955296,51.771014
Antonialaan,62,,,4286CW,Almkerk,Woudrichem,Noord-Brabant,VBO,4.955287,51.771083
Antonialaan,64,a,,4286CW,Almkerk,Woudrichem,Noord-Brabant,VBO,4.955079,51.770802
Antonialaan,64,b,,4286CW,Almkerk,Woudrichem,Noord-Brabant,VBO,4.955079,51.770802
Antonialaan,64,,,4286CW,Almkerk,Woudrichem,Noord-Brabant,VBO,4.955298,51.771132
Antonialaan,66,,,4286CW,Almkerk,Woudrichem,Noord-Brabant,VBO,4.955126,51.771142
Antonialaan,68,,,4286CW,Almkerk,Woudrichem,Noord-Brabant,VBO,4.955128,51.771085
Antonialaan,70,,,4286CW,Almkerk,Woudrichem,Noord-Brabant,VBO,4.955127,51.771023
Antonialaan,72,,,4286CW,Almkerk,Woudrichem,Noord-Brabant,VBO,4.955134,51.770958
Antonialaan,74,,,4286CW,Almkerk,Woudrichem,Noord-Brabant,VBO,4.954924,51.770914
Antonialaan,76,,,4286CW,Almkerk,Woudrichem,Noord-Brabant,VBO,4.954780,51.770884
Antonialaan,78,,,4286CW,Almkerk,Woudrichem,Noord-Brabant,VBO,4.954926,51.770806
Antonialaan,80,,,4286CW,Almkerk,Woudrichem,Noord-Brabant,VBO,4.954999,51.770756
Antonialaan,82,,,4286CW,Almkerk,Woudrichem,Noord-Brabant,VBO,4.955079,51.770719
Antonialaan,84,,,4286CW,Almkerk,Woudrichem,Noord-Brabant,VBO,4.955175,51.770675
Antonialaan,86,,,4286CW,Almkerk,Woudrichem,Noord-Brabant,VBO,4.955326,51.770640
Antonialaan,88,,,4286CW,Almkerk,Woudrichem,Noord-Brabant,VBO,4.955308,51.770731
Antonialaan,90,,,4286CW,Almkerk,Woudrichem,Noord-Brabant,VBO,4.955362,51.770848
Antonialaan,92,,,4286CW,Almkerk,Woudrichem,Noord-Brabant,VBO,4.955311,51.770874
Antonialaan,94,,,4286CW,Almkerk,Woudrichem,Noord-Brabant,VBO,4.955312,51.770979
Antonialaan,96,,,4286CW,Almkerk,Woudrichem,Noord-Brabant,VBO,4.955322,51.771003
Antonialaan,98,,,4286CW,Almkerk,Woudrichem,Noord-Brabant,VBO,4.955312,51.771097
Antonialaan,100,a,,4286CW,Almkerk,Woudrichem,Noord-Brabant,VBO,4.955079,51.770802
Antonialaan,100,b,,4286CW,Almkerk,Woudrichem,Noord-Brabant,VBO,4.955079,51.770802
Antonialaan,100,,,4286CW,Almkerk,Woudrichem,Noord-Brabant,VBO,4.955322,51.771118
Antonialaan,102,,,4286CW,Almkerk,Woudrichem,Noord-Brabant,VBO,4.955154,51.771126
Antonialaan,104,,,4286CW,Almkerk,Woudrichem,Noord-Brabant,VBO,4.955155,51.771070
Antonialaan,106,,,4286CW,Almkerk,Woudrichem,Noord-Brabant,VBO,4.955152,51.771008
Antonialaan,108,,,4286CW,Almkerk,Woudrichem,Noord-Brabant,VBO,4.955161,51.770941
Fresialaan,1,,,4286CX,Almkerk,Woudrichem,Noord-Brabant,VBO,4.961712,51.773809
Fresialaan,2,,,4286CX,Almkerk,Woudrichem,Noord-Brabant,VBO,4.962094,51.773668
Fresialaan,3,,,4286CX,Almkerk,Woudrichem,Noord-Brabant,VBO,4.961782,51.773825
Fresialaan,4,,,4286CX,Almkerk,Woudrichem,Noord-Brabant,VBO,4.962171,51.773686
Fresialaan,5,,,4286CX,Almkerk,Woudrichem,Noord-Brabant,VBO,4.961856,51.773843
Fresialaan,6,,,4286CX,Almkerk,Woudrichem,Noord-Brabant,VBO,4.962256,51.773687
Fresialaan,7,,,4286CX,Almkerk,Woudrichem,Noord-Brabant,VBO,4.961930,51.773860
Fresialaan,8,,,4286CX,Almkerk,Woudrichem,Noord-Brabant,VBO,4.962328,51.773704
Fresialaan,9,,,4286CX,Almkerk,Woudrichem,Noord-Brabant,VBO,4.962086,51.773878
Fresialaan,10,,,4286CX,Almkerk,Woudrichem,Noord-Brabant,VBO,4.962408,51.773723
Fresialaan,11,,,4286CX,Almkerk,Woudrichem,Noord-Brabant,VBO,4.962155,51.773894
Fresialaan,13,,,4286CX,Almkerk,Woudrichem,Noord-Brabant,VBO,4.962304,51.773930
Fresialaan,15,,,4286CX,Almkerk,Woudrichem,Noord-Brabant,VBO,4.962376,51.773947
Antonialaan,1,,,4286CZ,Almkerk,Woudrichem,Noord-Brabant,VBO,4.955364,51.770502
Antonialaan,3,,,4286CZ,Almkerk,Woudrichem,Noord-Brabant,VBO,4.955275,51.770505
Antonialaan,5,,,4286CZ,Almkerk,Woudrichem,Noord-Brabant,VBO,4.955011,51.770527
Antonialaan,7,,,4286CZ,Almkerk,Woudrichem,Noord-Brabant,VBO,4.954926,51.770551
Antonialaan,9,,,4286CZ,Almkerk,Woudrichem,Noord-Brabant,VBO,4.954721,51.770654
Antonialaan,11,,,4286CZ,Almkerk,Woudrichem,Noord-Brabant,VBO,4.954671,51.770700
Antonialaan,13,,,4286CZ,Almkerk,Woudrichem,Noord-Brabant,VBO,4.954579,51.770853
Antonialaan,15,,,4286CZ,Almkerk,Woudrichem,Noord-Brabant,VBO,4.954553,51.770909
Antonialaan,17,,,4286CZ,Almkerk,Woudrichem,Noord-Brabant,VBO,4.954511,51.771068
Antonialaan,19,,,4286CZ,Almkerk,Woudrichem,Noord-Brabant,VBO,4.954509,51.771126
Zeil,1,,,4286DA,Almkerk,Woudrichem,Noord-Brabant,VBO,4.962965,51.770976
't Verlaat,1,,,4286DB,Almkerk,Woudrichem,Noord-Brabant,VBO,4.958163,51.769440
't Verlaat,3,,,4286DB,Almkerk,Woudrichem,Noord-Brabant,VBO,4.957679,51.769459
Rivierenland,1,,,4286DC,Almkerk,Woudrichem,Noord-Brabant,VBO,4.959290,51.769811
Knotwilg,1,,,4286DE,Almkerk,Woudrichem,Noord-Brabant,VBO,4.956922,51.769883
Knotwilg,2,a,,4286DE,Almkerk,Woudrichem,Noord-Brabant,VBO,4.956877,51.769535
Knotwilg,2,,,4286DE,Almkerk,Woudrichem,Noord-Brabant,VBO,4.956737,51.769344
Knotwilg,3,,,4286DE,Almkerk,Woudrichem,Noord-Brabant,VBO,4.956974,51.769908
Knotwilg,4,,,4286DE,Almkerk,Woudrichem,Noord-Brabant,VBO,4.956516,51.768881
Knotwilg,5,,,4286DE,Almkerk,Woudrichem,Noord-Brabant,VBO,4.957019,51.769926
Knotwilg,7,,,4286DE,Almkerk,Woudrichem,Noord-Brabant,VBO,4.957063,51.769953
Knotwilg,9,,,4286DE,Almkerk,Woudrichem,Noord-Brabant,VBO,4.957110,51.769971
Knotwilg,11,,,4286DE,Almkerk,Woudrichem,Noord-Brabant,VBO,4.957149,51.769990
Knotwilg,13,,,4286DE,Almkerk,Woudrichem,Noord-Brabant,VBO,4.957181,51.770003
Knotwilg,15,,,4286DE,Almkerk,Woudrichem,Noord-Brabant,VBO,4.957221,51.770014
Knotwilg,17,,,4286DE,Almkerk,Woudrichem,Noord-Brabant,VBO,4.957267,51.769954
Knotwilg,19,,,4286DE,Almkerk,Woudrichem,Noord-Brabant,VBO,4.957066,51.769787
Knotwilg,21,,,4286DE,Almkerk,Woudrichem,Noord-Brabant,VBO,4.957125,51.769741
Knotwilg,23,,,4286DE,Almkerk,Woudrichem,Noord-Brabant,VBO,4.957144,51.769763
Knotwilg,25,,,4286DE,Almkerk,Woudrichem,Noord-Brabant,VBO,4.957160,51.769777
Knotwilg,27,,,4286DE,Almkerk,Woudrichem,Noord-Brabant,VBO,4.957182,51.769794
Knotwilg,29,,,4286DE,Almkerk,Woudrichem,Noord-Brabant,VBO,4.957215,51.769811
Knotwilg,31,,,4286DE,Almkerk,Woudrichem,Noord-Brabant,VBO,4.957239,51.769827
Knotwilg,33,,,4286DE,Almkerk,Woudrichem,Noord-Brabant,VBO,4.957259,51.769844
Provincialeweg Noord,1,,,4286EA,Almkerk,Woudrichem,Noord-Brabant,VBO,4.953657,51.767956
Provincialeweg Noord,7,,,4286EA,Almkerk,Woudrichem,Noord-Brabant,VBO,4.953191,51.768191
Provincialeweg Noord,12,,,4286EA,Almkerk,Woudrichem,Noord-Brabant,VBO,4.953332,51.769881
Provincialeweg Noord,13,a,,4286EA,Almkerk,Woudrichem,Noord-Brabant,VBO,4.952567,51.768447
Provincialeweg Noord,13,b,,4286EA,Almkerk,Woudrichem,Noord-Brabant,VBO,4.952838,51.768425
Provincialeweg Noord,13,c,,4286EA,Almkerk,Woudrichem,Noord-Brabant,VBO,4.952940,51.768430
Provincialeweg Noord,15,,,4286EA,Almkerk,Woudrichem,Noord-Brabant,VBO,4.953379,51.768454
Provincialeweg Noord,17,,,4286EA,Almkerk,Woudrichem,Noord-Brabant,VBO,4.953357,51.768521
Provincialeweg Noord,18,,,4286EA,Almkerk,Woudrichem,Noord-Brabant,VBO,4.953548,51.770163
Provincialeweg Noord,19,a,,4286EA,Almkerk,Woudrichem,Noord-Brabant,VBO,4.953171,51.769101
Provincialeweg Noord,19,b,,4286EA,Almkerk,Woudrichem,Noord-Brabant,VBO,4.953146,51.769165
Provincialeweg Noord,19,c,,4286EA,Almkerk,Woudrichem,Noord-Brabant,VBO,4.953116,51.769222
Provincialeweg Noord,19,d,,4286EA,Almkerk,Woudrichem,Noord-Brabant,VBO,4.953106,51.769290
Provincialeweg Noord,19,e,,4286EA,Almkerk,Woudrichem,Noord-Brabant,VBO,4.952654,51.769049
Provincialeweg Noord,19,f,,4286EA,Almkerk,Woudrichem,Noord-Brabant,VBO,4.952675,51.768989
Provincialeweg Noord,19,g,,4286EA,Almkerk,Woudrichem,Noord-Brabant,VBO,4.952691,51.768931
Provincialeweg Noord,19,h,,4286EA,Almkerk,Woudrichem,Noord-Brabant,VBO,4.952713,51.768867
Provincialeweg Noord,19,,,4286EA,Almkerk,Woudrichem,Noord-Brabant,VBO,4.953256,51.768973
Provincialeweg Noord,20,,,4286EA,Almkerk,Woudrichem,Noord-Brabant,VBO,4.953089,51.770228
Provincialeweg Noord,21,,,4286EA,Almkerk,Woudrichem,Noord-Brabant,VBO,4.952997,51.769626
Provincialeweg Noord,22,a,,4286EA,Almkerk,Woudrichem,Noord-Brabant,VBO,4.952681,51.771257
Provincialeweg Noord,22,,,4286EA,Almkerk,Woudrichem,Noord-Brabant,VBO,4.952661,51.771196
Provincialeweg Noord,29,,,4286EB,Almkerk,Woudrichem,Noord-Brabant,VBO,4.951729,51.772185
Provincialeweg Noord,31,,,4286EB,Almkerk,Woudrichem,Noord-Brabant,VBO,4.951716,51.772377
Provincialeweg Noord,33,a,,4286EB,Almkerk,Woudrichem,Noord-Brabant,VBO,4.951024,51.772541
Provincialeweg Noord,34,,,4286EB,Almkerk,Woudrichem,Noord-Brabant,VBO,4.952034,51.772431
Provincialeweg Noord,35,,,4286EB,Almkerk,Woudrichem,Noord-Brabant,VBO,4.951406,51.772873
Provincialeweg Noord,36,,,4286EB,Almkerk,Woudrichem,Noord-Brabant,VBO,4.951395,51.773154
Provincialeweg Noord,38,,,4286EB,Almkerk,Woudrichem,Noord-Brabant,VBO,4.951354,51.773729
Provincialeweg Noord,39,,,4286EB,Almkerk,Woudrichem,Noord-Brabant,VBO,4.946511,51.778621
Provincialeweg Noord,40,,,4286EB,Almkerk,Woudrichem,Noord-Brabant,VBO,4.950465,51.774153
Provincialeweg Noord,41,,,4286EB,Almkerk,Woudrichem,Noord-Brabant,VBO,4.946419,51.778786
Provincialeweg Noord,42,,,4286EB,Almkerk,Woudrichem,Noord-Brabant,VBO,4.950836,51.774480
Provincialeweg Noord,43,,,4286EB,Almkerk,Woudrichem,Noord-Brabant,VBO,4.946284,51.778973
Provincialeweg Noord,44,,,4286EB,Almkerk,Woudrichem,Noord-Brabant,VBO,4.949892,51.774635
Provincialeweg Noord,45,,,4286EB,Almkerk,Woudrichem,Noord-Brabant,VBO,4.946152,51.779172
Provincialeweg Noord,47,,,4286EB,Almkerk,Woudrichem,Noord-Brabant,VBO,4.946062,51.779301
Provincialeweg Noord,48,,,4286EB,Almkerk,Woudrichem,Noord-Brabant,VBO,4.948031,51.776874
Provincialeweg Noord,49,,,4286EB,Almkerk,Woudrichem,Noord-Brabant,VBO,4.945272,51.780468
Provincialeweg Noord,50,,,4286EB,Almkerk,Woudrichem,Noord-Brabant,VBO,4.947739,51.777344
Provincialeweg Noord,52,,,4286EB,Almkerk,Woudrichem,Noord-Brabant,VBO,4.947695,51.777403
Provincialeweg Noord,54,,,4286EB,Almkerk,Woudrichem,Noord-Brabant,VBO,4.947418,51.777744
Provincialeweg Noord,56,,,4286EB,Almkerk,Woudrichem,Noord-Brabant,VBO,4.945954,51.779853
Provincialeweg Noord,51,a,,4286EC,Almkerk,Woudrichem,Noord-Brabant,VBO,4.943043,51.781838
Provincialeweg Noord,51,b,,4286EC,Almkerk,Woudrichem,Noord-Brabant,VBO,4.942671,51.781989
Provincialeweg Noord,51,c,,4286EC,Almkerk,Woudrichem,Noord-Brabant,VBO,4.942421,51.782082
Provincialeweg Noord,51,,,4286EC,Almkerk,Woudrichem,Noord-Brabant,VBO,4.942561,51.781611
Provincialeweg Noord,53,a,,4286EC,Almkerk,Woudrichem,Noord-Brabant,VBO,4.939845,51.783691
Provincialeweg Noord,53,,,4286EC,Almkerk,Woudrichem,Noord-Brabant,VBO,4.941025,51.782864
Provincialeweg Noord,55,,,4286EC,Almkerk,Woudrichem,Noord-Brabant,VBO,4.939796,51.784605
Provincialeweg Noord,58,,,4286EC,Almkerk,Woudrichem,Noord-Brabant,VBO,4.945303,51.780675
Provincialeweg Noord,59,,,4286EC,Almkerk,Woudrichem,Noord-Brabant,VBO,4.938845,51.786163
Provincialeweg Noord,61,,,4286EC,Almkerk,Woudrichem,Noord-Brabant,VBO,4.938999,51.787071
Provincialeweg Noord,62,,,4286EC,Almkerk,Woudrichem,Noord-Brabant,VBO,4.944353,51.782124
Provincialeweg Noord,63,,,4286EC,Almkerk,Woudrichem,Noord-Brabant,VBO,4.939285,51.787749
Provincialeweg Noord,64,,,4286EC,Almkerk,Woudrichem,Noord-Brabant,VBO,4.942823,51.782654
Provincialeweg Noord,65,,,4286EC,Almkerk,Woudrichem,Noord-Brabant,VBO,4.939320,51.787838
Provincialeweg Noord,66,,,4286EC,Almkerk,Woudrichem,Noord-Brabant,VBO,4.942208,51.782661
Provincialeweg Noord,67,,,4286EC,Almkerk,Woudrichem,Noord-Brabant,VBO,4.939287,51.788002
Provincialeweg Noord,68,,,4286EC,Almkerk,Woudrichem,Noord-Brabant,VBO,4.941081,51.783192
Provincialeweg Noord,70,,,4286EC,Almkerk,Woudrichem,Noord-Brabant,VBO,4.940020,51.784684
Provincialeweg Noord,76,,,4286EC,Almkerk,Woudrichem,Noord-Brabant,VBO,4.939035,51.786207
Provincialeweg Noord,78,,,4286EC,Almkerk,Woudrichem,Noord-Brabant,VBO,4.939353,51.787353
Provincialeweg Noord,80,,,4286EC,Almkerk,Woudrichem,Noord-Brabant,VBO,4.939471,51.787571
Provincialeweg Noord,84,,,4286EC,Almkerk,Woudrichem,Noord-Brabant,VBO,4.939519,51.787717
Provincialeweg Noord,86,,,4286EC,Almkerk,Woudrichem,Noord-Brabant,VBO,4.939566,51.788044
Provincialeweg Noord,69,,,4286ED,Almkerk,Woudrichem,Noord-Brabant,VBO,4.939418,51.788400
Provincialeweg Noord,71,,,4286ED,Almkerk,Woudrichem,Noord-Brabant,VBO,4.939425,51.788482
Provincialeweg Noord,75,,,4286ED,Almkerk,Woudrichem,Noord-Brabant,VBO,4.939389,51.788975
Provincialeweg Noord,77,,,4286ED,Almkerk,Woudrichem,Noord-Brabant,VBO,4.939474,51.789151
Provincialeweg Noord,81,,,4286ED,Almkerk,Woudrichem,Noord-Brabant,VBO,4.939487,51.789279
Provincialeweg Noord,87,,,4286ED,Almkerk,Woudrichem,Noord-Brabant,VBO,4.939170,51.789658
Provincialeweg Noord,89,,,4286ED,Almkerk,Woudrichem,Noord-Brabant,VBO,4.939334,51.789804
Provincialeweg Noord,92,,,4286ED,Almkerk,Woudrichem,Noord-Brabant,VBO,4.939582,51.788304
Provincialeweg Noord,93,,,4286ED,Almkerk,Woudrichem,Noord-Brabant,VBO,4.939490,51.791214
Provincialeweg Noord,94,,,4286ED,Almkerk,Woudrichem,Noord-Brabant,VBO,4.939633,51.788963
Provincialeweg Noord,95,,,4286ED,Almkerk,Woudrichem,Noord-Brabant,VBO,4.939457,51.791554
Provincialeweg Noord,96,,,4286ED,Almkerk,Woudrichem,Noord-Brabant,VBO,4.939940,51.789596
Provincialeweg Noord,98,,,4286ED,Almkerk,Woudrichem,Noord-Brabant,VBO,4.939919,51.790215
Provincialeweg Noord,100,,,4286ED,Almkerk,Woudrichem,Noord-Brabant,VBO,4.939683,51.791257
Provincialeweg Noord,102,,,4286ED,Almkerk,Woudrichem,Noord-Brabant,VBO,4.939766,51.791399
Provincialeweg Noord,106,,,4286ED,Almkerk,Woudrichem,Noord-Brabant,VBO,4.939619,51.791647
Provincialeweg Noord,97,,,4286EE,Almkerk,Woudrichem,Noord-Brabant,VBO,4.939441,51.791715
Provincialeweg Noord,99,,,4286EE,Almkerk,Woudrichem,Noord-Brabant,VBO,4.939377,51.792044
Provincialeweg Noord,101,,,4286EE,Almkerk,Woudrichem,Noord-Brabant,VBO,4.939366,51.792105
Provincialeweg Noord,103,,,4286EE,Almkerk,Woudrichem,Noord-Brabant,VBO,4.939349,51.792216
Provincialeweg Noord,105,,,4286EE,Almkerk,Woudrichem,Noord-Brabant,VBO,4.939338,51.792280
Provincialeweg Noord,108,,,4286EE,Almkerk,Woudrichem,Noord-Brabant,VBO,4.939588,51.793693
Provincialeweg Noord,110,,,4286EE,Almkerk,Woudrichem,Noord-Brabant,VBO,4.939408,51.793784
Provincialeweg Noord,112,,,4286EE,Almkerk,Woudrichem,Noord-Brabant,VBO,4.938861,51.794203
Provincialeweg Noord,113,,,4286EE,Almkerk,Woudrichem,Noord-Brabant,VBO,4.939343,51.793546
Provincialeweg Noord,114,,,4286EE,Almkerk,Woudrichem,Noord-Brabant,VBO,4.938796,51.794384
Provincialeweg Noord,115,,,4286EE,Almkerk,Woudrichem,Noord-Brabant,VBO,4.938678,51.794159
Provincialeweg Noord,117,,,4286EE,Almkerk,Woudrichem,Noord-Brabant,VBO,4.938650,51.794255
Provincialeweg Noord,121,,,4286EE,Almkerk,Woudrichem,Noord-Brabant,VBO,4.938336,51.795009
Provincialeweg Noord,122,,,4286EE,Almkerk,Woudrichem,Noord-Brabant,VBO,4.938328,51.795615
Provincialeweg Noord,124,,,4286EE,Almkerk,Woudrichem,Noord-Brabant,VBO,4.938276,51.795769
Provincialeweg Noord,125,,,4286EE,Almkerk,Woudrichem,Noord-Brabant,VBO,4.938100,51.795602
Provincialeweg Noord,126,,,4286EE,Almkerk,Woudrichem,Noord-Brabant,VBO,4.938262,51.795821
Provincialeweg Noord,128,,,4286EE,Almkerk,Woudrichem,Noord-Brabant,VBO,4.938297,51.796390
Doornseweg,1,,,4286EG,Almkerk,Woudrichem,Noord-Brabant,VBO,4.950554,51.771795
Doornseweg,3,,,4286EG,Almkerk,Woudrichem,Noord-Brabant,VBO,4.958500,51.774156
Gantelweg,2,,,4286EH,Almkerk,Woudrichem,Noord-Brabant,VBO,4.939091,51.788377
Gantelweg,3,,,4286EH,Almkerk,Woudrichem,Noord-Brabant,VBO,4.938975,51.788268
Gantelweg,4,,,4286EH,Almkerk,Woudrichem,Noord-Brabant,VBO,4.937499,51.788548
Gantelweg,5,,,4286EH,Almkerk,Woudrichem,Noord-Brabant,VBO,4.938679,51.788280
Gantelweg,6,,,4286EH,Almkerk,Woudrichem,Noord-Brabant,VBO,4.937088,51.788524
Gantelweg,7,,,4286EH,Almkerk,Woudrichem,Noord-Brabant,VBO,4.938345,51.788300
Gantelweg,8,,,4286EH,Almkerk,Woudrichem,Noord-Brabant,VBO,4.936181,51.788557
Gantelweg,9,,,4286EH,Almkerk,Woudrichem,Noord-Brabant,VBO,4.937625,51.788349
Gantelweg,11,,,4286EH,Almkerk,Woudrichem,Noord-Brabant,VBO,4.936831,51.788406
Gantelweg,12,,,4286EH,Almkerk,Woudrichem,Noord-Brabant,VBO,4.935204,51.788630
Gantelweg,13,,,4286EH,Almkerk,Woudrichem,Noord-Brabant,VBO,4.936151,51.788456
Gantelweg,14,,,4286EH,Almkerk,Woudrichem,Noord-Brabant,VBO,4.934571,51.788668
Gantelweg,15,,,4286EH,Almkerk,Woudrichem,Noord-Brabant,VBO,4.934967,51.788535
Gantelweg,16,,,4286EH,Almkerk,Woudrichem,Noord-Brabant,VBO,4.934292,51.788687
Gantelweg,17,,,4286EH,Almkerk,Woudrichem,Noord-Brabant,VBO,4.934238,51.788589
Gantelweg,19,,,4286EH,Almkerk,Woudrichem,Noord-Brabant,VBO,4.933668,51.788584
Gantelweg,20,,,4286EH,Almkerk,Woudrichem,Noord-Brabant,VBO,4.932770,51.789035
Bloemweg,1,,,4286EJ,Almkerk,Woudrichem,Noord-Brabant,VBO,4.940854,51.789903
Bloemweg,2,,,4286EJ,Almkerk,Woudrichem,Noord-Brabant,VBO,4.940883,51.789961
Bloemweg,3,,,4286EJ,Almkerk,Woudrichem,Noord-Brabant,VBO,4.943045,51.790603
Bloemweg,4,,,4286EJ,Almkerk,Woudrichem,Noord-Brabant,VBO,4.945268,51.791100
Bloemweg,5,,,4286EJ,Almkerk,Woudrichem,Noord-Brabant,VBO,4.944065,51.791323
Bloemweg,6,,,4286EJ,Almkerk,Woudrichem,Noord-Brabant,VBO,4.942933,51.792432
Bloemweg,7,,,4286EJ,Almkerk,Woudrichem,Noord-Brabant,VBO,4.942655,51.792745
Bloemweg,8,,,4286EJ,Almkerk,Woudrichem,Noord-Brabant,VBO,4.942251,51.792959
Bloemweg,9,,,4286EJ,Almkerk,Woudrichem,Noord-Brabant,VBO,4.942486,51.793595
Bloemweg,10,a,,4286EJ,Almkerk,Woudrichem,Noord-Brabant,VBO,4.942355,51.794085
Bloemweg,10,,,4286EJ,Almkerk,Woudrichem,Noord-Brabant,VBO,4.942461,51.793829
Bloemweg,11,,,4286EJ,Almkerk,Woudrichem,Noord-Brabant,VBO,4.942330,51.794283
Bloemweg,12,,,4286EJ,Almkerk,Woudrichem,Noord-Brabant,VBO,4.942510,51.794878
Bloemweg,13,,,4286EJ,Almkerk,Woudrichem,Noord-Brabant,VBO,4.941906,51.796671
Veldweg,1,,,4286EK,Almkerk,Woudrichem,Noord-Brabant,VBO,4.944628,51.789524
Veldweg,2,,,4286EK,Almkerk,Woudrichem,Noord-Brabant,VBO,4.944935,51.789543
Veldweg,3,,,4286EK,Almkerk,Woudrichem,Noord-Brabant,VBO,4.944602,51.789772
Veldweg,4,,,4286EK,Almkerk,Woudrichem,Noord-Brabant,VBO,4.944908,51.789760
Veldweg,5,,,4286EK,Almkerk,Woudrichem,Noord-Brabant,VBO,4.944565,51.789923
Veldweg,6,,,4286EK,Almkerk,Woudrichem,Noord-Brabant,VBO,4.944898,51.789816
Veldweg,8,,,4286EK,Almkerk,Woudrichem,Noord-Brabant,VBO,4.944872,51.789924
Veldweg,9,,,4286EK,Almkerk,Woudrichem,Noord-Brabant,VBO,4.944495,51.790124
Veldweg,10,,,4286EK,Almkerk,Woudrichem,Noord-Brabant,VBO,4.944836,51.790041
Veldweg,11,,,4286EK,Almkerk,Woudrichem,Noord-Brabant,VBO,4.944430,51.790275
Veldweg,12,,,4286EK,Almkerk,Woudrichem,Noord-Brabant,VBO,4.944819,51.790090
Veldweg,14,,,4286EK,Almkerk,Woudrichem,Noord-Brabant,VBO,4.944745,51.790272
Veldweg,15,,,4286EK,Almkerk,Woudrichem,Noord-Brabant,VBO,4.944310,51.790478
Veldweg,16,,,4286EK,Almkerk,Woudrichem,Noord-Brabant,VBO,4.944713,51.790341
Veldweg,17,,,4286EK,Almkerk,Woudrichem,Noord-Brabant,VBO,4.944203,51.790622
Veldweg,18,,,4286EK,Almkerk,Woudrichem,Noord-Brabant,VBO,4.944642,51.790466
Veldweg,20,,,4286EK,Almkerk,Woudrichem,Noord-Brabant,VBO,4.944597,51.790535
Veldweg,22,,,4286EK,Almkerk,Woudrichem,Noord-Brabant,VBO,4.944465,51.790717
Uppelse Hoek,1,,,4286EL,Almkerk,Woudrichem,Noord-Brabant,VBO,4.940091,51.789864
Uppelse Hoek,2,,,4286EL,Almkerk,Woudrichem,Noord-Brabant,VBO,4.940974,51.789650
Uppelse Hoek,3,,,4286EL,Almkerk,Woudrichem,Noord-Brabant,VBO,4.941248,51.789580
Uppelse Hoek,4,,,4286EL,Almkerk,Woudrichem,Noord-Brabant,VBO,4.941777,51.789465
Uppelse Hoek,5,,,4286EL,Almkerk,Woudrichem,Noord-Brabant,VBO,4.942052,51.789270
Uppelse Hoek,6,a,,4286EL,Almkerk,Woudrichem,Noord-Brabant,VBO,4.942276,51.789416
Uppelse Hoek,6,,,4286EL,Almkerk,Woudrichem,Noord-Brabant,VBO,4.942481,51.789443
Uppelse Hoek,8,a,,4286EL,Almkerk,Woudrichem,Noord-Brabant,VBO,4.943350,51.789479
Uppelse Hoek,8,,,4286EL,Almkerk,Woudrichem,Noord-Brabant,VBO,4.942899,51.789492
Uppelse Hoek,10,,,4286EL,Almkerk,Woudrichem,Noord-Brabant,VBO,4.943568,51.789488
Uppelse Hoek,11,,,4286EL,Almkerk,Woudrichem,Noord-Brabant,VBO,4.943774,51.789496
Uppelse Hoek,12,,,4286EL,Almkerk,Woudrichem,Noord-Brabant,VBO,4.943935,51.789502
Uppelse Hoek,13,,,4286EL,Almkerk,Woudrichem,Noord-Brabant,VBO,4.944145,51.789510
Uppelse Hoek,14,a,,4286EM,Almkerk,Woudrichem,Noord-Brabant,VBO,4.946019,51.789177
Uppelse Hoek,14,,,4286EM,Almkerk,Woudrichem,Noord-Brabant,VBO,4.944346,51.789517
Uppelse Hoek,15,,,4286EM,Almkerk,Woudrichem,Noord-Brabant,VBO,4.947298,51.789082
Uppelse Hoek,17,a,,4286EM,Almkerk,Woudrichem,Noord-Brabant,VBO,4.950389,51.788837
Uppelse Hoek,17,,,4286EM,Almkerk,Woudrichem,Noord-Brabant,VBO,4.949550,51.789039
Uppelse Hoek,18,,,4286EM,Almkerk,Woudrichem,Noord-Brabant,VBO,4.950447,51.788388
Uppelse Hoek,19,,,4286EM,Almkerk,Woudrichem,Noord-Brabant,VBO,4.951337,51.788978
Uppelse Hoek,20,a,,4286EM,Almkerk,Woudrichem,Noord-Brabant,VBO,4.951563,51.787925
Uppelse Hoek,20,,,4286EM,Almkerk,Woudrichem,Noord-Brabant,VBO,4.951063,51.788296
Uppelse Hoek,21,,,4286EM,Almkerk,Woudrichem,Noord-Brabant,VBO,4.953368,51.787168
Uppelse Hoek,22,,,4286EM,Almkerk,Woudrichem,Noord-Brabant,VBO,4.954922,51.786547
Uppelse Hoek,25,a,,4286EM,Almkerk,Woudrichem,Noord-Brabant,VBO,4.959360,51.781503
Uppelse Hoek,25,,,4286EM,Almkerk,Woudrichem,Noord-Brabant,VBO,4.959391,51.781538
Uppelse Hoek,26,,,4286EM,Almkerk,Woudrichem,Noord-Brabant,VBO,4.958191,51.784310
Uppelse Hoek,27,,,4286EM,Almkerk,Woudrichem,Noord-Brabant,VBO,4.959158,51.782982
Uppelse Hoek,28,,,4286EM,Almkerk,Woudrichem,Noord-Brabant,VBO,4.961049,51.781908
Het Leen,1,,,4286EN,Almkerk,Woudrichem,Noord-Brabant,VBO,4.956552,51.783151
Het Leen,2,,,4286EN,Almkerk,Woudrichem,Noord-Brabant,VBO,4.956893,51.782681
Nieuwe Steeg,1,,,4286EP,Almkerk,Woudrichem,Noord-Brabant,VBO,4.944906,51.774868
Groene Steeg,1,,,4286ER,Almkerk,Woudrichem,Noord-Brabant,VBO,4.940584,51.787961
Groene Steeg,2,,,4286ER,Almkerk,Woudrichem,Noord-Brabant,VBO,4.940104,51.787997
Sportlaan,1,,,4286ES,Almkerk,Woudrichem,Noord-Brabant,VBO,4.947459,51.770265
Sportlaan,3,a,,4286ES,Almkerk,Woudrichem,Noord-Brabant,VBO,4.945965,51.769950
Sportlaan,3,,,4286ES,Almkerk,Woudrichem,Noord-Brabant,VBO,4.945715,51.770150
Sportlaan,5,,,4286ES,Almkerk,Woudrichem,Noord-Brabant,VBO,4.944858,51.769928
Sportlaan,7,,,4286ES,Almkerk,Woudrichem,Noord-Brabant,VBO,4.944776,51.769934
Sportlaan,9,,,4286ES,Almkerk,Woudrichem,Noord-Brabant,VBO,4.944707,51.769940
Sportlaan,11,,,4286ES,Almkerk,Woudrichem,Noord-Brabant,VBO,4.944614,51.769946
Sportlaan,13,,,4286ES,Almkerk,Woudrichem,Noord-Brabant,VBO,4.944420,51.769956
Sportlaan,15,,,4286ES,Almkerk,Woudrichem,Noord-Brabant,VBO,4.944334,51.769973
Sportlaan,17,,,4286ES,Almkerk,Woudrichem,Noord-Brabant,VBO,4.944259,51.769984
Sportlaan,19,,,4286ES,Almkerk,Woudrichem,Noord-Brabant,VBO,4.944187,51.769992
Sportlaan,21,,,4286ES,Almkerk,Woudrichem,Noord-Brabant,VBO,4.943670,51.770047
Sportlaan,23,,,4286ES,Almkerk,Woudrichem,Noord-Brabant,VBO,4.943582,51.770070
Sportlaan,25,,,4286ES,Almkerk,Woudrichem,Noord-Brabant,VBO,4.943421,51.770102
Sportlaan,27,,,4286ES,Almkerk,Woudrichem,Noord-Brabant,VBO,4.943339,51.770122
Sportlaan,29,,,4286ES,Almkerk,Woudrichem,Noord-Brabant,VBO,4.943184,51.770159
Sportlaan,31,,,4286ES,Almkerk,Woudrichem,Noord-Brabant,VBO,4.943098,51.770182
Sportlaan,59,,,4286ES,Almkerk,Woudrichem,Noord-Brabant,VBO,4.941917,51.770747
Sportlaan,2,,,4286ET,Almkerk,Woudrichem,Noord-Brabant,VBO,4.952482,51.770135
Sportlaan,4,,,4286ET,Almkerk,Woudrichem,Noord-Brabant,VBO,4.952176,51.770086
Sportlaan,6,,,4286ET,Almkerk,Woudrichem,Noord-Brabant,VBO,4.951887,51.770040
Sportlaan,8,,,4286ET,Almkerk,Woudrichem,Noord-Brabant,VBO,4.951644,51.770002
Sportlaan,10,,,4286ET,Almkerk,Woudrichem,Noord-Brabant,VBO,4.951384,51.769961
Sportlaan,12,,,4286ET,Almkerk,Woudrichem,Noord-Brabant,VBO,4.951167,51.769926
Sportlaan,14,,,4286ET,Almkerk,Woudrichem,Noord-Brabant,VBO,4.950290,51.769780
Sportlaan,16,,,4286ET,Almkerk,Woudrichem,Noord-Brabant,VBO,4.950071,51.769747
Sportlaan,18,,,4286ET,Almkerk,Woudrichem,Noord-Brabant,VBO,4.949818,51.769708
Sportlaan,20,,,4286ET,Almkerk,Woudrichem,Noord-Brabant,VBO,4.949447,51.769638
Sportlaan,22,,,4286ET,Almkerk,Woudrichem,Noord-Brabant,VBO,4.949366,51.769614
Sportlaan,24,,,4286ET,Almkerk,Woudrichem,Noord-Brabant,VBO,4.949161,51.769537
Sportlaan,26,,,4286ET,Almkerk,Woudrichem,Noord-Brabant,VBO,4.949096,51.769498
Sportlaan,28,,,4286ET,Almkerk,Woudrichem,Noord-Brabant,VBO,4.948956,51.769385
Sportlaan,30,,,4286ET,Almkerk,Woudrichem,Noord-Brabant,VBO,4.948910,51.769341
Sportlaan,32,,,4286ET,Almkerk,Woudrichem,Noord-Brabant,VBO,4.948404,51.769366
Sportlaan,34,,,4286ET,Almkerk,Woudrichem,Noord-Brabant,VBO,4.948202,51.769498
Sportlaan,36,,,4286ET,Almkerk,Woudrichem,Noord-Brabant,VBO,4.948120,51.769529
Sportlaan,38,,,4286ET,Almkerk,Woudrichem,Noord-Brabant,VBO,4.947928,51.769570
Sportlaan,40,,,4286ET,Almkerk,Woudrichem,Noord-Brabant,VBO,4.947642,51.769640
Sportlaan,72,,,4286ET,Almkerk,Woudrichem,Noord-Brabant,VBO,4.945280,51.769547
Sportlaan,74,,,4286ET,Almkerk,Woudrichem,Noord-Brabant,VBO,4.945280,51.769547
Sportlaan,76,,,4286ET,Almkerk,Woudrichem,Noord-Brabant,VBO,4.945280,51.769547
Sportlaan,78,,,4286ET,Almkerk,Woudrichem,Noord-Brabant,VBO,4.945280,51.769547
Sportlaan,80,,,4286ET,Almkerk,Woudrichem,Noord-Brabant,VBO,4.945280,51.769547
Sportlaan,82,,,4286ET,Almkerk,Woudrichem,Noord-Brabant,VBO,4.945280,51.769547
Sportlaan,84,,,4286ET,Almkerk,Woudrichem,Noord-Brabant,VBO,4.945280,51.769547
Sportlaan,86,,,4286ET,Almkerk,Woudrichem,Noord-Brabant,VBO,4.945280,51.769547
Sportlaan,88,,,4286ET,Almkerk,Woudrichem,Noord-Brabant,VBO,4.945280,51.769547
Sportlaan,90,,,4286ET,Almkerk,Woudrichem,Noord-Brabant,VBO,4.945280,51.769547
Sportlaan,92,,,4286ET,Almkerk,Woudrichem,Noord-Brabant,VBO,4.945280,51.769547
Sportlaan,94,,,4286ET,Almkerk,Woudrichem,Noord-Brabant,VBO,4.944259,51.769694
Sportlaan,96,,,4286ET,Almkerk,Woudrichem,Noord-Brabant,VBO,4.944015,51.769732
Sportlaan,98,,,4286ET,Almkerk,Woudrichem,Noord-Brabant,VBO,4.943751,51.769775
Sportlaan,100,,,4286ET,Almkerk,Woudrichem,Noord-Brabant,VBO,4.943465,51.769796
Sportlaan,104,,,4286ET,Almkerk,Woudrichem,Noord-Brabant,VBO,4.943012,51.769918
Sportlaan,168,,,4286ET,Almkerk,Woudrichem,Noord-Brabant,VBO,4.941567,51.770293
Sportlaan,170,,,4286ET,Almkerk,Woudrichem,Noord-Brabant,VBO,4.939603,51.770851
Oude Doorn,1,,,4286EV,Almkerk,Woudrichem,Noord-Brabant,VBO,4.949487,51.778868
De Omloop,1,,,4286EW,Almkerk,Woudrichem,Noord-Brabant,VBO,4.956430,51.787291
De Omloop,2,,,4286EW,Almkerk,Woudrichem,Noord-Brabant,VBO,4.958726,51.788379
Uppelse Steeg,1,,,4286EZ,Almkerk,Woudrichem,Noord-Brabant,VBO,4.942388,51.799224
Vlinderslag,1,,,4286GA,Almkerk,Woudrichem,Noord-Brabant,VBO,4.951067,51.769712
Vlinderslag,3,,,4286GA,Almkerk,Woudrichem,Noord-Brabant,VBO,4.951119,51.769585
Vlinderslag,17,,,4286GA,Almkerk,Woudrichem,Noord-Brabant,VBO,4.950961,51.769261
Vlinderslag,19,,,4286GA,Almkerk,Woudrichem,Noord-Brabant,VBO,4.950883,51.769248
Vlinderslag,21,,,4286GA,Almkerk,Woudrichem,Noord-Brabant,VBO,4.949575,51.768885
Vlinderslag,23,,,4286GA,Almkerk,Woudrichem,Noord-Brabant,VBO,4.949640,51.768853
Vlinderslag,25,,,4286GA,Almkerk,Woudrichem,Noord-Brabant,VBO,4.949824,51.768762
Vlinderslag,27,,,4286GA,Almkerk,Woudrichem,Noord-Brabant,VBO,4.949892,51.768729
Vlinderslag,29,,,4286GB,Almkerk,Woudrichem,Noord-Brabant,VBO,4.950181,51.768744
Vlinderslag,31,,,4286GB,Almkerk,Woudrichem,Noord-Brabant,VBO,4.950230,51.768716
Vlinderslag,33,,,4286GB,Almkerk,Woudrichem,Noord-Brabant,VBO,4.950218,51.768729
Vlinderslag,35,,,4286GB,Almkerk,Woudrichem,Noord-Brabant,VBO,4.950256,51.768703
Vlinderslag,37,,,4286GB,Almkerk,Woudrichem,Noord-Brabant,VBO,4.950283,51.768687
Vlinderslag,45,,,4286GB,Almkerk,Woudrichem,Noord-Brabant,VBO,4.951094,51.768239
Vlinderslag,47,,,4286GB,Almkerk,Woudrichem,Noord-Brabant,VBO,4.951202,51.768249
Vlinderslag,49,,,4286GB,Almkerk,Woudrichem,Noord-Brabant,VBO,4.951503,51.768276
Vlinderslag,51,,,4286GB,Almkerk,Woudrichem,Noord-Brabant,VBO,4.952198,51.768341
Vlinderslag,2,,,4286GC,Almkerk,Woudrichem,Noord-Brabant,VBO,4.950632,51.769825
Vlinderslag,4,,,4286GC,Almkerk,Woudrichem,Noord-Brabant,VBO,4.950699,51.769643
Vlinderslag,6,a,,4286GC,Almkerk,Woudrichem,Noord-Brabant,VBO,4.950542,51.769471
Vlinderslag,6,,,4286GC,Almkerk,Woudrichem,Noord-Brabant,VBO,4.950753,51.769508
Vlinderslag,8,,,4286GC,Almkerk,Woudrichem,Noord-Brabant,VBO,4.950396,51.769456
Vlinderslag,10,,,4286GC,Almkerk,Woudrichem,Noord-Brabant,VBO,4.950307,51.769441
Vlinderslag,12,,,4286GC,Almkerk,Woudrichem,Noord-Brabant,VBO,4.950087,51.769405
Vlinderslag,14,,,4286GC,Almkerk,Woudrichem,Noord-Brabant,VBO,4.950010,51.769392
Vlinderslag,16,,,4286GC,Almkerk,Woudrichem,Noord-Brabant,VBO,4.949669,51.769322
Vlinderslag,18,,,4286GC,Almkerk,Woudrichem,Noord-Brabant,VBO,4.949605,51.769297
Vlinderslag,20,,,4286GC,Almkerk,Woudrichem,Noord-Brabant,VBO,4.949537,51.769271
Vlinderslag,22,,,4286GC,Almkerk,Woudrichem,Noord-Brabant,VBO,4.949477,51.769233
Vlinderslag,24,,,4286GC,Almkerk,Woudrichem,Noord-Brabant,VBO,4.949430,51.769197
Vlinderslag,26,,,4286GC,Almkerk,Woudrichem,Noord-Brabant,VBO,4.949364,51.769146
Vlinderslag,28,,,4286GC,Almkerk,Woudrichem,Noord-Brabant,VBO,4.949315,51.769108
Vlinderslag,30,,,4286GC,Almkerk,Woudrichem,Noord-Brabant,VBO,4.949265,51.769070
Vlinderslag,32,,,4286GC,Almkerk,Woudrichem,Noord-Brabant,VBO,4.949215,51.769032
Hoefslag,1,,,4286GD,Almkerk,Woudrichem,Noord-Brabant,VBO,4.952878,51.768106
Hoefslag,2,,,4286GD,Almkerk,Woudrichem,Noord-Brabant,VBO,4.952639,51.768076
Hoefslag,4,,,4286GD,Almkerk,Woudrichem,Noord-Brabant,VBO,4.952730,51.767825
Hoefslag,6,,,4286GD,Almkerk,Woudrichem,Noord-Brabant,VBO,4.952455,51.767780
Korf,1,a,,4286GE,Almkerk,Woudrichem,Noord-Brabant,VBO,4.951521,51.769692
Korf,1,,,4286GE,Almkerk,Woudrichem,Noord-Brabant,VBO,4.951521,51.769692
Korf,3,,,4286GE,Almkerk,Woudrichem,Noord-Brabant,VBO,4.951728,51.769652
Korf,5,,,4286GE,Almkerk,Woudrichem,Noord-Brabant,VBO,4.951810,51.769664
Korf,7,,,4286GE,Almkerk,Woudrichem,Noord-Brabant,VBO,4.951993,51.769721
Korf,9,,,4286GE,Almkerk,Woudrichem,Noord-Brabant,VBO,4.952084,51.769735
Korf,11,,,4286GE,Almkerk,Woudrichem,Noord-Brabant,VBO,4.952302,51.769770
Korf,13,,,4286GE,Almkerk,Woudrichem,Noord-Brabant,VBO,4.952551,51.769791
Korf,27,,,4286GG,Almkerk,Woudrichem,Noord-Brabant,VBO,4.952690,51.769595
Korf,29,,,4286GG,Almkerk,Woudrichem,Noord-Brabant,VBO,4.952617,51.769583
Korf,31,,,4286GG,Almkerk,Woudrichem,Noord-Brabant,VBO,4.952540,51.769571
Korf,33,,,4286GG,Almkerk,Woudrichem,Noord-Brabant,VBO,4.952472,51.769560
Korf,35,,,4286GG,Almkerk,Woudrichem,Noord-Brabant,VBO,4.952356,51.769530
Korf,37,,,4286GG,Almkerk,Woudrichem,Noord-Brabant,VBO,4.952366,51.769514
Korf,39,,,4286GG,Almkerk,Woudrichem,Noord-Brabant,VBO,4.952270,51.769493
Korf,41,,,4286GG,Almkerk,Woudrichem,Noord-Brabant,VBO,4.952298,51.769482
Korf,43,,,4286GG,Almkerk,Woudrichem,Noord-Brabant,VBO,4.952203,51.769449
Korf,45,,,4286GG,Almkerk,Woudrichem,Noord-Brabant,VBO,4.952245,51.769435
Korf,47,,,4286GG,Almkerk,Woudrichem,Noord-Brabant,VBO,4.952159,51.769395
Korf,49,,,4286GG,Almkerk,Woudrichem,Noord-Brabant,VBO,4.952168,51.769375
Korf,51,,,4286GG,Almkerk,Woudrichem,Noord-Brabant,VBO,4.952129,51.769324
Korf,53,,,4286GG,Almkerk,Woudrichem,Noord-Brabant,VBO,4.952124,51.769281
Korf,55,,,4286GG,Almkerk,Woudrichem,Noord-Brabant,VBO,4.952119,51.769234
Korf,57,,,4286GG,Almkerk,Woudrichem,Noord-Brabant,VBO,4.952114,51.769188
Korf,59,,,4286GG,Almkerk,Woudrichem,Noord-Brabant,VBO,4.952109,51.769142
Korf,61,,,4286GG,Almkerk,Woudrichem,Noord-Brabant,VBO,4.952104,51.769093
Korf,63,,,4286GG,Almkerk,Woudrichem,Noord-Brabant,VBO,4.952130,51.768979
Korf,65,,,4286GG,Almkerk,Woudrichem,Noord-Brabant,VBO,4.952126,51.768817
Korf,67,,,4286GG,Almkerk,Woudrichem,Noord-Brabant,VBO,4.952109,51.768657
Korf,2,,,4286GH,Almkerk,Woudrichem,Noord-Brabant,VBO,4.951114,51.769285
Korf,4,,,4286GH,Almkerk,Woudrichem,Noord-Brabant,VBO,4.951192,51.769297
Korf,6,,,4286GH,Almkerk,Woudrichem,Noord-Brabant,VBO,4.951354,51.769323
Korf,8,,,4286GH,Almkerk,Woudrichem,Noord-Brabant,VBO,4.951431,51.769335
Korf,10,,,4286GH,Almkerk,Woudrichem,Noord-Brabant,VBO,4.951599,51.769362
Korf,12,,,4286GH,Almkerk,Woudrichem,Noord-Brabant,VBO,4.951677,51.769374
Korf,14,,,4286GH,Almkerk,Woudrichem,Noord-Brabant,VBO,4.951709,51.769100
Korf,16,,,4286GH,Almkerk,Woudrichem,Noord-Brabant,VBO,4.951704,51.769050
Korf,18,,,4286GH,Almkerk,Woudrichem,Noord-Brabant,VBO,4.951685,51.769001
Korf,20,,,4286GH,Almkerk,Woudrichem,Noord-Brabant,VBO,4.951679,51.768950
Korf,22,,,4286GH,Almkerk,Woudrichem,Noord-Brabant,VBO,4.951674,51.768902
Korf,24,,,4286GH,Almkerk,Woudrichem,Noord-Brabant,VBO,4.951669,51.768853
Korf,26,,,4286GH,Almkerk,Woudrichem,Noord-Brabant,VBO,4.951658,51.768749
Korf,28,,,4286GH,Almkerk,Woudrichem,Noord-Brabant,VBO,4.951653,51.768700
Korf,30,,,4286GH,Almkerk,Woudrichem,Noord-Brabant,VBO,4.951647,51.768651
Korf,32,,,4286GH,Almkerk,Woudrichem,Noord-Brabant,VBO,4.951642,51.768602
Korf,34,,,4286GH,Almkerk,Woudrichem,Noord-Brabant,VBO,4.951644,51.768479
Middenveld,1,,,4286GJ,Almkerk,Woudrichem,Noord-Brabant,VBO,4.951122,51.769044
Middenveld,3,,,4286GJ,Almkerk,Woudrichem,Noord-Brabant,VBO,4.951117,51.768995
Middenveld,5,,,4286GJ,Almkerk,Woudrichem,Noord-Brabant,VBO,4.951112,51.768943
Middenveld,7,,,4286GJ,Almkerk,Woudrichem,Noord-Brabant,VBO,4.951106,51.768891
Middenveld,9,,,4286GJ,Almkerk,Woudrichem,Noord-Brabant,VBO,4.951099,51.768822
Middenveld,11,,,4286GJ,Almkerk,Woudrichem,Noord-Brabant,VBO,4.951151,51.768827
Middenveld,13,,,4286GJ,Almkerk,Woudrichem,Noord-Brabant,VBO,4.951157,51.768799
Middenveld,15,,,4286GJ,Almkerk,Woudrichem,Noord-Brabant,VBO,4.951091,51.768744
Middenveld,17,,,4286GJ,Almkerk,Woudrichem,Noord-Brabant,VBO,4.951149,51.768741
Middenveld,19,,,4286GJ,Almkerk,Woudrichem,Noord-Brabant,VBO,4.950996,51.768677
Middenveld,21,,,4286GJ,Almkerk,Woudrichem,Noord-Brabant,VBO,4.951033,51.768649
Middenveld,23,,,4286GJ,Almkerk,Woudrichem,Noord-Brabant,VBO,4.950907,51.768631
Middenveld,25,,,4286GJ,Almkerk,Woudrichem,Noord-Brabant,VBO,4.950949,51.768606
Middenveld,27,,,4286GJ,Almkerk,Woudrichem,Noord-Brabant,VBO,4.950862,51.768607
Middenveld,29,,,4286GJ,Almkerk,Woudrichem,Noord-Brabant,VBO,4.950901,51.768581
Middenveld,31,,,4286GJ,Almkerk,Woudrichem,Noord-Brabant,VBO,4.950818,51.768584
Middenveld,33,,,4286GJ,Almkerk,Woudrichem,Noord-Brabant,VBO,4.950858,51.768558
Middenveld,35,,,4286GJ,Almkerk,Woudrichem,Noord-Brabant,VBO,4.950736,51.768541
Middenveld,37,,,4286GJ,Almkerk,Woudrichem,Noord-Brabant,VBO,4.950776,51.768516
Middenveld,39,,,4286GJ,Almkerk,Woudrichem,Noord-Brabant,VBO,4.950694,51.768378
Middenveld,41,,,4286GJ,Almkerk,Woudrichem,Noord-Brabant,VBO,4.950703,51.768324
Middenveld,43,,,4286GJ,Almkerk,Woudrichem,Noord-Brabant,VBO,4.950712,51.768275
Middenveld,45,,,4286GJ,Almkerk,Woudrichem,Noord-Brabant,VBO,4.950721,51.768223
Vlinderslag,34,,,4286GK,Almkerk,Woudrichem,Noord-Brabant,VBO,4.949166,51.768993
Vlinderslag,36,a,,4286GK,Almkerk,Woudrichem,Noord-Brabant,VBO,4.948587,51.769101
Vlinderslag,36,b,,4286GK,Almkerk,Woudrichem,Noord-Brabant,VBO,4.948422,51.768894
Vlinderslag,36,c,,4286GK,Almkerk,Woudrichem,Noord-Brabant,VBO,4.948746,51.768810
Vlinderslag,36,,,4286GK,Almkerk,Woudrichem,Noord-Brabant,VBO,4.948792,51.769070
Vlinderslag,38,,,4286GK,Almkerk,Woudrichem,Noord-Brabant,VBO,4.949051,51.768817
Vlinderslag,40,,,4286GK,Almkerk,Woudrichem,Noord-Brabant,VBO,4.949226,51.768734
Vlinderslag,42,,,4286GK,Almkerk,Woudrichem,Noord-Brabant,VBO,4.949409,51.768644
Vlinderslag,44,,,4286GK,Almkerk,Woudrichem,Noord-Brabant,VBO,4.949650,51.768529
Vlinderslag,46,,,4286GK,Almkerk,Woudrichem,Noord-Brabant,VBO,4.949802,51.768436
Vlinderslag,48,,,4286GK,Almkerk,Woudrichem,Noord-Brabant,VBO,4.950646,51.767965
Vlinderslag,50,,,4286GK,Almkerk,Woudrichem,Noord-Brabant,VBO,4.950872,51.767984
Vlinderslag,52,,,4286GK,Almkerk,Woudrichem,Noord-Brabant,VBO,4.950955,51.767991
Vlinderslag,54,,,4286GK,Almkerk,Woudrichem,Noord-Brabant,VBO,4.951159,51.768008
Vlinderslag,56,,,4286GK,Almkerk,Woudrichem,Noord-Brabant,VBO,4.951242,51.768015
Vlinderslag,58,,,4286GK,Almkerk,Woudrichem,Noord-Brabant,VBO,4.951652,51.768050
Vlinderslag,60,,,4286GK,Almkerk,Woudrichem,Noord-Brabant,VBO,4.951735,51.768058
Vlinderslag,62,,,4286GK,Almkerk,Woudrichem,Noord-Brabant,VBO,4.951938,51.768078
Vlinderslag,64,,,4286GK,Almkerk,Woudrichem,Noord-Brabant,VBO,4.952020,51.768087
Vlinderslag,66,,,4286GK,Almkerk,Woudrichem,Noord-Brabant,VBO,4.952324,51.768114
Schoolslag,1,,,4286GL,Almkerk,Woudrichem,Noord-Brabant,VBO,4.950830,51.767656
Schoolslag,2,,,4286GL,Almkerk,Woudrichem,Noord-Brabant,VBO,4.951054,51.767699
Schoolslag,3,,,4286GL,Almkerk,Woudrichem,Noord-Brabant,VBO,4.951334,51.767722
Schoolslag,4,,,4286GL,Almkerk,Woudrichem,Noord-Brabant,VBO,4.951602,51.767745
Schoolslag,5,,,4286GL,Almkerk,Woudrichem,Noord-Brabant,VBO,4.951893,51.767770
Schoolslag,6,,,4286GL,Almkerk,Woudrichem,Noord-Brabant,VBO,4.952141,51.767748
Wisselslag,1,,,4286GM,Almkerk,Woudrichem,Noord-Brabant,VBO,4.945042,51.770115
Wisselslag,2,,,4286GM,Almkerk,Woudrichem,Noord-Brabant,VBO,4.945044,51.770179
Wisselslag,3,,,4286GM,Almkerk,Woudrichem,Noord-Brabant,VBO,4.945057,51.770303
Wisselslag,4,,,4286GM,Almkerk,Woudrichem,Noord-Brabant,VBO,4.945051,51.770369
Wisselslag,5,,,4286GM,Almkerk,Woudrichem,Noord-Brabant,VBO,4.945039,51.770484
Wisselslag,6,,,4286GM,Almkerk,Woudrichem,Noord-Brabant,VBO,4.945030,51.770552
Wisselslag,7,,,4286GM,Almkerk,Woudrichem,Noord-Brabant,VBO,4.945023,51.770599
Wisselslag,8,,,4286GM,Almkerk,Woudrichem,Noord-Brabant,VBO,4.945028,51.770660
Wisselslag,9,,,4286GM,Almkerk,Woudrichem,Noord-Brabant,VBO,4.945033,51.770780
Wisselslag,10,,,4286GM,Almkerk,Woudrichem,Noord-Brabant,VBO,4.945030,51.770836
Wisselslag,11,,,4286GM,Almkerk,Woudrichem,Noord-Brabant,VBO,4.945023,51.770893
Wisselslag,12,,,4286GM,Almkerk,Woudrichem,Noord-Brabant,VBO,4.945031,51.770953
Wisselslag,13,,,4286GM,Almkerk,Woudrichem,Noord-Brabant,VBO,4.943080,51.770931
Wisselslag,14,,,4286GM,Almkerk,Woudrichem,Noord-Brabant,VBO,4.943081,51.770883
Wisselslag,15,,,4286GM,Almkerk,Woudrichem,Noord-Brabant,VBO,4.943083,51.770835
Wisselslag,16,,,4286GM,Almkerk,Woudrichem,Noord-Brabant,VBO,4.943084,51.770787
Wisselslag,17,,,4286GM,Almkerk,Woudrichem,Noord-Brabant,VBO,4.943085,51.770740
Wisselslag,18,,,4286GM,Almkerk,Woudrichem,Noord-Brabant,VBO,4.943086,51.770691
Wisselslag,19,,,4286GM,Almkerk,Woudrichem,Noord-Brabant,VBO,4.943089,51.770582
Wisselslag,20,,,4286GM,Almkerk,Woudrichem,Noord-Brabant,VBO,4.943100,51.770530
Wisselslag,21,,,4286GM,Almkerk,Woudrichem,Noord-Brabant,VBO,4.943109,51.770479
Wisselslag,22,,,4286GM,Almkerk,Woudrichem,Noord-Brabant,VBO,4.943097,51.770428
Wisselslag,23,,,4286GM,Almkerk,Woudrichem,Noord-Brabant,VBO,4.943163,51.770333
Vierspan,1,,,4286GN,Almkerk,Woudrichem,Noord-Brabant,VBO,4.943684,51.770343
Vierspan,2,a,,4286GN,Almkerk,Woudrichem,Noord-Brabant,VBO,4.944314,51.770176
Vierspan,2,b,,4286GN,Almkerk,Woudrichem,Noord-Brabant,VBO,4.944308,51.770226
Vierspan,2,,,4286GN,Almkerk,Woudrichem,Noord-Brabant,VBO,4.944344,51.770278
Vierspan,3,,,4286GN,Almkerk,Woudrichem,Noord-Brabant,VBO,4.943683,51.770396
Vierspan,4,,,4286GN,Almkerk,Woudrichem,Noord-Brabant,VBO,4.944344,51.770332
Vierspan,5,,,4286GN,Almkerk,Woudrichem,Noord-Brabant,VBO,4.943672,51.770502
Vierspan,6,,,4286GN,Almkerk,Woudrichem,Noord-Brabant,VBO,4.944338,51.770386
Vierspan,7,,,4286GN,Almkerk,Woudrichem,Noord-Brabant,VBO,4.943679,51.770565
Vierspan,8,,,4286GN,Almkerk,Woudrichem,Noord-Brabant,VBO,4.944348,51.770440
Vierspan,9,,,4286GN,Almkerk,Woudrichem,Noord-Brabant,VBO,4.943660,51.770681
Vierspan,10,,,4286GN,Almkerk,Woudrichem,Noord-Brabant,VBO,4.944345,51.770488
Vierspan,11,,,4286GN,Almkerk,Woudrichem,Noord-Brabant,VBO,4.943681,51.770739
Vierspan,12,,,4286GN,Almkerk,Woudrichem,Noord-Brabant,VBO,4.944350,51.770548
Vierspan,13,,,4286GN,Almkerk,Woudrichem,Noord-Brabant,VBO,4.943680,51.770790
Vierspan,14,,,4286GN,Almkerk,Woudrichem,Noord-Brabant,VBO,4.944346,51.770670
Vierspan,15,,,4286GN,Almkerk,Woudrichem,Noord-Brabant,VBO,4.943678,51.770840
Vierspan,16,,,4286GN,Almkerk,Woudrichem,Noord-Brabant,VBO,4.944334,51.770729
Vierspan,17,,,4286GN,Almkerk,Woudrichem,Noord-Brabant,VBO,4.943660,51.770886
Vierspan,18,,,4286GN,Almkerk,Woudrichem,Noord-Brabant,VBO,4.944339,51.770783
Vierspan,19,,,4286GN,Almkerk,Woudrichem,Noord-Brabant,VBO,4.943659,51.770935
Vierspan,20,,,4286GN,Almkerk,Woudrichem,Noord-Brabant,VBO,4.944339,51.770833
Vierspan,22,,,4286GN,Almkerk,Woudrichem,Noord-Brabant,VBO,4.944333,51.770886
Vierspan,24,,,4286GN,Almkerk,Woudrichem,Noord-Brabant,VBO,4.944338,51.770948
Draf,1,,,4286GS,Almkerk,Woudrichem,Noord-Brabant,VBO,4.947932,51.768908
Draf,2,,,4286GS,Almkerk,Woudrichem,Noord-Brabant,VBO,4.947936,51.769029
Draf,4,,,4286GS,Almkerk,Woudrichem,Noord-Brabant,VBO,4.947868,51.769220
Draf,5,,,4286GS,Almkerk,Woudrichem,Noord-Brabant,VBO,4.947418,51.768841
Draf,5,,,4286GS,Almkerk,Woudrichem,Noord-Brabant,VBO,4.947507,51.768956
Draf,6,,,4286GS,Almkerk,Woudrichem,Noord-Brabant,VBO,4.947582,51.769281
Woudrichemseweg,1,a,,4286LA,Almkerk,Woudrichem,Noord-Brabant,VBO,4.964090,51.772358
Woudrichemseweg,1,b,,4286LA,Almkerk,Woudrichem,Noord-Brabant,VBO,4.964062,51.772405
Woudrichemseweg,1,c,,4286LA,Almkerk,Woudrichem,Noord-Brabant,VBO,4.964003,51.772502
Woudrichemseweg,1,d,,4286LA,Almkerk,Woudrichem,Noord-Brabant,VBO,4.963974,51.772549
Woudrichemseweg,3,,,4286LA,Almkerk,Woudrichem,Noord-Brabant,VBO,4.963703,51.772879
Woudrichemseweg,5,,,4286LA,Almkerk,Woudrichem,Noord-Brabant,VBO,4.963625,51.773036
Woudrichemseweg,7,,,4286LA,Almkerk,Woudrichem,Noord-Brabant,VBO,4.963595,51.773102
Woudrichemseweg,9,,,4286LA,Almkerk,Woudrichem,Noord-Brabant,VBO,4.963481,51.773233
Woudrichemseweg,11,,,4286LA,Almkerk,Woudrichem,Noord-Brabant,VBO,4.963437,51.773558
Woudrichemseweg,13,,,4286LA,Almkerk,Woudrichem,Noord-Brabant,VBO,4.963410,51.773602
Woudrichemseweg,15,,,4286LA,Almkerk,Woudrichem,Noord-Brabant,VBO,4.963382,51.773648
Woudrichemseweg,17,,,4286LA,Almkerk,Woudrichem,Noord-Brabant,VBO,4.963378,51.773756
Woudrichemseweg,19,,,4286LA,Almkerk,Woudrichem,Noord-Brabant,VBO,4.963350,51.773802
Woudrichemseweg,21,,,4286LA,Almkerk,Woudrichem,Noord-Brabant,VBO,4.963322,51.773848
Woudrichemseweg,23,,,4286LA,Almkerk,Woudrichem,Noord-Brabant,VBO,4.963295,51.773892
Woudrichemseweg,25,,,4286LA,Almkerk,Woudrichem,Noord-Brabant,VBO,4.963245,51.773997
Woudrichemseweg,35,,,4286LA,Almkerk,Woudrichem,Noord-Brabant,VBO,4.962345,51.782041
Woudrichemseweg,37,,,4286LA,Almkerk,Woudrichem,Noord-Brabant,VBO,4.962550,51.783278
Woudrichemseweg,4,,,4286LB,Almkerk,Woudrichem,Noord-Brabant,VBO,4.964660,51.772260
Woudrichemseweg,6,,,4286LB,Almkerk,Woudrichem,Noord-Brabant,VBO,4.964396,51.772444
Woudrichemseweg,8,,,4286LB,Almkerk,Woudrichem,Noord-Brabant,VBO,4.964290,51.772645
Woudrichemseweg,10,,,4286LB,Almkerk,Woudrichem,Noord-Brabant,VBO,4.964167,51.772908
Woudrichemseweg,12,,,4286LB,Almkerk,Woudrichem,Noord-Brabant,VBO,4.964144,51.772965
Woudrichemseweg,14,,,4286LB,Almkerk,Woudrichem,Noord-Brabant,VBO,4.964096,51.773079
Woudrichemseweg,16,,,4286LB,Almkerk,Woudrichem,Noord-Brabant,VBO,4.964073,51.773134
Woudrichemseweg,18,,,4286LB,Almkerk,Woudrichem,Noord-Brabant,VBO,4.964050,51.773189
Woudrichemseweg,20,,,4286LB,Almkerk,Woudrichem,Noord-Brabant,VBO,4.964004,51.773299
Woudrichemseweg,22,,,4286LB,Almkerk,Woudrichem,Noord-Brabant,VBO,4.963981,51.773354
Woudrichemseweg,24,,,4286LB,Almkerk,Woudrichem,Noord-Brabant,VBO,4.963958,51.773409
Woudrichemseweg,26,,,4286LB,Almkerk,Woudrichem,Noord-Brabant,VBO,4.963974,51.773715
Woudrichemseweg,36,a,,4286LB,Almkerk,Woudrichem,Noord-Brabant,VBO,4.963760,51.776095
Woudrichemseweg,36,,,4286LB,Almkerk,Woudrichem,Noord-Brabant,VBO,4.963163,51.775992
Woudrichemseweg,38,,,4286LB,Almkerk,Woudrichem,Noord-Brabant,VBO,4.964540,51.782233
Woudrichemseweg,40,,,4286LB,Almkerk,Woudrichem,Noord-Brabant,VBO,4.964588,51.782889
Koppel,1,,,4286LC,Almkerk,Woudrichem,Noord-Brabant,VBO,4.974054,51.783589
Zandwijk,1,,,4286LD,Almkerk,Woudrichem,Noord-Brabant,VBO,4.974167,51.776174
Zandwijk,2,,,4286LD,Almkerk,Woudrichem,Noord-Brabant,VBO,4.974134,51.776845
Zandwijk,3,,,4286LD,Almkerk,Woudrichem,Noord-Brabant,VBO,4.974587,51.777002
Zandwijk,4,,,4286LD,Almkerk,Woudrichem,Noord-Brabant,VBO,4.974880,51.777467
Zandwijk,5,,,4286LD,Almkerk,Woudrichem,Noord-Brabant,VBO,4.975190,51.777825
Zandwijk,6,,,4286LD,Almkerk,Woudrichem,Noord-Brabant,VBO,4.975428,51.777923
Zandwijk,7,,,4286LD,Almkerk,Woudrichem,Noord-Brabant,VBO,4.976103,51.778376
Zandwijk,8,,,4286LD,Almkerk,Woudrichem,Noord-Brabant,VBO,4.977435,51.779218
Zandwijk,9,,,4286LD,Almkerk,Woudrichem,Noord-Brabant,VBO,4.978171,51.779757
Zandwijk,10,,,4286LD,Almkerk,Woudrichem,Noord-Brabant,VBO,4.978260,51.779727
Zandwijk,11,,,4286LD,Almkerk,Woudrichem,Noord-Brabant,VBO,4.978771,51.779964
Boompjes,1,,,4286LE,Almkerk,Woudrichem,Noord-Brabant,VBO,4.966210,51.775580
Boompjes,2,,,4286LE,Almkerk,Woudrichem,Noord-Brabant,VBO,4.966328,51.776196
Boompjes,3,,,4286LE,Almkerk,Woudrichem,Noord-Brabant,VBO,4.966299,51.776416
Boompjes,4,,,4286LE,Almkerk,Woudrichem,Noord-Brabant,VBO,4.966722,51.776427
Boompjes,5,,,4286LE,Almkerk,Woudrichem,Noord-Brabant,VBO,4.968563,51.776195
Boompjes,6,,,4286LE,Almkerk,Woudrichem,Noord-Brabant,VBO,4.968848,51.776152
Boompjes,7,,,4286LE,Almkerk,Woudrichem,Noord-Brabant,VBO,4.969148,51.776106
Boompjes,9,,,4286LE,Almkerk,Woudrichem,Noord-Brabant,VBO,4.969793,51.775990
Boompjes,10,,,4286LE,Almkerk,Woudrichem,Noord-Brabant,VBO,4.970181,51.775891
Almweg,1,a,,4286LG,Almkerk,Woudrichem,Noord-Brabant,VBO,4.979785,51.776211
Almweg,1,b,,4286LG,Almkerk,Woudrichem,Noord-Brabant,VBO,4.972089,51.776050
Almweg,1,,,4286LG,Almkerk,Woudrichem,Noord-Brabant,VBO,4.972890,51.775828
Almweg,2,,,4286LG,Almkerk,Woudrichem,Noord-Brabant,VBO,4.984579,51.777185
Almweg,3,,,4286LG,Almkerk,Woudrichem,Noord-Brabant,VBO,4.980355,51.776460
Almweg,4,,,4286LG,Almkerk,Woudrichem,Noord-Brabant,VBO,4.997024,51.778806
Almweg,5,,,4286LG,Almkerk,Woudrichem,Noord-Brabant,VBO,4.980524,51.776595
Almweg,6,,,4286LG,Almkerk,Woudrichem,Noord-Brabant,VBO,4.998173,51.778669
Almweg,7,a,,4286LG,Almkerk,Woudrichem,Noord-Brabant,VBO,4.993964,51.781581
Almweg,7,b,,4286LG,Almkerk,Woudrichem,Noord-Brabant,VBO,4.992946,51.779913
Almweg,7,,,4286LG,Almkerk,Woudrichem,Noord-Brabant,VBO,4.992401,51.781227
Almweg,8,,,4286LG,Almkerk,Woudrichem,Noord-Brabant,VBO,4.999203,51.778565
Almweg,9,,,4286LG,Almkerk,Woudrichem,Noord-Brabant,VBO,4.996890,51.780244
Emmikhovenseweg,1,,,4286LH,Almkerk,Woudrichem,Noord-Brabant,VBO,4.966019,51.769395
Emmikhovenseweg,2,,,4286LH,Almkerk,Woudrichem,Noord-Brabant,VBO,4.966495,51.769119
Emmikhovenseweg,3,,,4286LH,Almkerk,Woudrichem,Noord-Brabant,VBO,4.966244,51.769006
Emmikhovenseweg,4,,,4286LH,Almkerk,Woudrichem,Noord-Brabant,VBO,4.965372,51.769326
Emmikhovenseweg,5,a,,4286LH,Almkerk,Woudrichem,Noord-Brabant,VBO,4.964340,51.769229
Emmikhovenseweg,5,,,4286LH,Almkerk,Woudrichem,Noord-Brabant,VBO,4.965018,51.769284
Emmikhovenseweg,6,a,,4286LH,Almkerk,Woudrichem,Noord-Brabant,VBO,4.957418,51.768276
Emmikhovenseweg,6,b,,4286LH,Almkerk,Woudrichem,Noord-Brabant,VBO,4.956409,51.768229
Emmikhovenseweg,6,c,,4286LH,Almkerk,Woudrichem,Noord-Brabant,VBO,4.957198,51.768274
Emmikhovenseweg,6,d,,4286LH,Almkerk,Woudrichem,Noord-Brabant,VBO,4.955775,51.767744
Emmikhovenseweg,6,e,,4286LH,Almkerk,Woudrichem,Noord-Brabant,VBO,4.955775,51.767744
Emmikhovenseweg,6,,,4286LH,Almkerk,Woudrichem,Noord-Brabant,VBO,4.961600,51.768691
Emmikhovenseweg,7,a,,4286LH,Almkerk,Woudrichem,Noord-Brabant,VBO,4.958331,51.768087
Emmikhovenseweg,7,,,4286LH,Almkerk,Woudrichem,Noord-Brabant,VBO,4.958259,51.768049
Emmikhovenseweg,8,a,,4286LH,Almkerk,Woudrichem,Noord-Brabant,VBO,4.956670,51.767626
Emmikhovenseweg,8,,,4286LH,Almkerk,Woudrichem,Noord-Brabant,VBO,4.956462,51.767644
Emmikhovenseweg,9,,,4286LH,Almkerk,Woudrichem,Noord-Brabant,VBO,4.956748,51.767176
Emmikhovenseweg,10,,,4286LH,Almkerk,Woudrichem,Noord-Brabant,VBO,4.956675,51.766711
Emmikhovenseweg,12,,,4286LH,Almkerk,Woudrichem,Noord-Brabant,VBO,4.956616,51.766459
Provincialeweg Zuid,1,,,4286LJ,Almkerk,Woudrichem,Noord-Brabant,VBO,4.954842,51.767902
Provincialeweg Zuid,3,,,4286LJ,Almkerk,Woudrichem,Noord-Brabant,VBO,4.955113,51.767648
Provincialeweg Zuid,5,,,4286LJ,Almkerk,Woudrichem,Noord-Brabant,VBO,4.954828,51.767614
Provincialeweg Zuid,7,,,4286LJ,Almkerk,Woudrichem,Noord-Brabant,VBO,4.954521,51.767591
Provincialeweg Zuid,9,,,4286LJ,Almkerk,Woudrichem,Noord-Brabant,VBO,4.954686,51.767215
Provincialeweg Zuid,11,,,4286LJ,Almkerk,Woudrichem,Noord-Brabant,VBO,4.954821,51.766817
Provincialeweg Zuid,13,,,4286LJ,Almkerk,Woudrichem,Noord-Brabant,VBO,4.955037,51.766584
Provincialeweg Zuid,15,,,4286LJ,Almkerk,Woudrichem,Noord-Brabant,VBO,4.955231,51.766331
Provincialeweg Zuid,17,,,4286LJ,Almkerk,Woudrichem,Noord-Brabant,VBO,4.955520,51.765956
Provincialeweg Zuid,21,,,4286LJ,Almkerk,Woudrichem,Noord-Brabant,VBO,4.956039,51.765418
Provincialeweg Zuid,23,,,4286LJ,Almkerk,Woudrichem,Noord-Brabant,VBO,4.955926,51.765303
Provincialeweg Zuid,27,,,4286LJ,Almkerk,Woudrichem,Noord-Brabant,VBO,4.956265,51.764837
Provincialeweg Zuid,29,a,,4286LJ,Almkerk,Woudrichem,Noord-Brabant,VBO,4.956776,51.763882
Provincialeweg Zuid,29,,,4286LJ,Almkerk,Woudrichem,Noord-Brabant,VBO,4.956381,51.764592
Provincialeweg Zuid,31,,,4286LJ,Almkerk,Woudrichem,Noord-Brabant,VBO,4.956582,51.763275
Provincialeweg Zuid,33,a,,4286LJ,Almkerk,Woudrichem,Noord-Brabant,VBO,4.956829,51.762355
Provincialeweg Zuid,33,,,4286LJ,Almkerk,Woudrichem,Noord-Brabant,VBO,4.956784,51.762081
Provincialeweg Zuid,35,,,4286LJ,Almkerk,Woudrichem,Noord-Brabant,VBO,4.956829,51.761805
Provincialeweg Zuid,39,,,4286LJ,Almkerk,Woudrichem,Noord-Brabant,VBO,4.956951,51.761255
Provincialeweg Zuid,41,,,4286LJ,Almkerk,Woudrichem,Noord-Brabant,VBO,4.957062,51.760862
Provincialeweg Zuid,45,,,4286LJ,Almkerk,Woudrichem,Noord-Brabant,VBO,4.957411,51.759982
Provincialeweg Zuid,47,,,4286LJ,Almkerk,Woudrichem,Noord-Brabant,VBO,4.957427,51.758690
Provincialeweg Zuid,51,,,4286LJ,Almkerk,Woudrichem,Noord-Brabant,VBO,4.957282,51.757220
Provincialeweg Zuid,53,,,4286LK,Almkerk,Woudrichem,Noord-Brabant,VBO,4.957353,51.755717
Provincialeweg Zuid,55,,,4286LK,Almkerk,Woudrichem,Noord-Brabant,VBO,4.957717,51.755423
Provincialeweg Zuid,57,,,4286LK,Almkerk,Woudrichem,Noord-Brabant,VBO,4.957453,51.755010
Provincialeweg Zuid,59,,,4286LK,Almkerk,Woudrichem,Noord-Brabant,VBO,4.957520,51.754573
Provincialeweg Zuid,61,,,4286LK,Almkerk,Woudrichem,Noord-Brabant,VBO,4.957708,51.753858
Provincialeweg Zuid,65,,,4286LK,Almkerk,Woudrichem,Noord-Brabant,VBO,4.957794,51.753534
Provincialeweg Zuid,69,,,4286LK,Almkerk,Woudrichem,Noord-Brabant,VBO,4.957069,51.752931
Provincialeweg Zuid,71,,,4286LK,Almkerk,Woudrichem,Noord-Brabant,VBO,4.957007,51.752749
Provincialeweg Zuid,73,,,4286LK,Almkerk,Woudrichem,Noord-Brabant,VBO,4.956896,51.752430
Provincialeweg Zuid,77,,,4286LK,Almkerk,Woudrichem,Noord-Brabant,VBO,4.956760,51.751829
Provincialeweg Zuid,79,,,4286LK,Almkerk,Woudrichem,Noord-Brabant,VBO,4.956692,51.751431
Provincialeweg Zuid,2,,,4286LL,Almkerk,Woudrichem,Noord-Brabant,VBO,4.953988,51.767350
Provincialeweg Zuid,4,,,4286LL,Almkerk,Woudrichem,Noord-Brabant,VBO,4.953852,51.767272
Provincialeweg Zuid,6,,,4286LL,Almkerk,Woudrichem,Noord-Brabant,VBO,4.953921,51.767159
Provincialeweg Zuid,10,,,4286LL,Almkerk,Woudrichem,Noord-Brabant,VBO,4.954132,51.766983
Provincialeweg Zuid,12,,,4286LL,Almkerk,Woudrichem,Noord-Brabant,VBO,4.954481,51.766841
Provincialeweg Zuid,14,,,4286LL,Almkerk,Woudrichem,Noord-Brabant,VBO,4.954863,51.766502
Provincialeweg Zuid,18,,,4286LL,Almkerk,Woudrichem,Noord-Brabant,VBO,4.955281,51.765937
Provincialeweg Zuid,20,,,4286LL,Almkerk,Woudrichem,Noord-Brabant,VBO,4.955359,51.765823
Provincialeweg Zuid,22,,,4286LL,Almkerk,Woudrichem,Noord-Brabant,VBO,4.955446,51.765719
Provincialeweg Zuid,24,,,4286LL,Almkerk,Woudrichem,Noord-Brabant,VBO,4.955508,51.765611
Provincialeweg Zuid,26,,,4286LL,Almkerk,Woudrichem,Noord-Brabant,VBO,4.955677,51.765369
Provincialeweg Zuid,28,,,4286LL,Almkerk,Woudrichem,Noord-Brabant,VBO,4.955764,51.765263
Provincialeweg Zuid,30,,,4286LL,Almkerk,Woudrichem,Noord-Brabant,VBO,4.956243,51.763982
Provincialeweg Zuid,34,,,4286LL,Almkerk,Woudrichem,Noord-Brabant,VBO,4.956321,51.763588
Provincialeweg Zuid,36,,,4286LL,Almkerk,Woudrichem,Noord-Brabant,VBO,4.956456,51.762239
Provincialeweg Zuid,38,,,4286LL,Almkerk,Woudrichem,Noord-Brabant,VBO,4.956439,51.761897
Provincialeweg Zuid,42,,,4286LM,Almkerk,Woudrichem,Noord-Brabant,VBO,4.956620,51.761593
Provincialeweg Zuid,44,,,4286LM,Almkerk,Woudrichem,Noord-Brabant,VBO,4.956657,51.761545
Provincialeweg Zuid,46,,,4286LM,Almkerk,Woudrichem,Noord-Brabant,VBO,4.956661,51.761406
Provincialeweg Zuid,50,,,4286LM,Almkerk,Woudrichem,Noord-Brabant,VBO,4.956973,51.759842
Provincialeweg Zuid,52,,,4286LM,Almkerk,Woudrichem,Noord-Brabant,VBO,4.956898,51.759330
Provincialeweg Zuid,54,,,4286LM,Almkerk,Woudrichem,Noord-Brabant,VBO,4.955713,51.755679
Provincialeweg Zuid,58,,,4286LM,Almkerk,Woudrichem,Noord-Brabant,VBO,4.957283,51.754018
Provincialeweg Zuid,60,,,4286LM,Almkerk,Woudrichem,Noord-Brabant,VBO,4.957090,51.753167
Provincialeweg Zuid,66,,,4286LM,Almkerk,Woudrichem,Noord-Brabant,VBO,4.956813,51.752733
Provincialeweg Zuid,68,,,4286LM,Almkerk,Woudrichem,Noord-Brabant,VBO,4.956534,51.751782
Hoekje,1,a,,4286LN,Almkerk,Woudrichem,Noord-Brabant,VBO,4.967935,51.770236
Hoekje,1,,,4286LN,Almkerk,Woudrichem,Noord-Brabant,VBO,4.968832,51.770723
Hoekje,2,,,4286LN,Almkerk,Woudrichem,Noord-Brabant,VBO,4.968764,51.771103
Hoekje,4,,,4286LN,Almkerk,Woudrichem,Noord-Brabant,VBO,4.969426,51.771427
Hoekje,5,a,,4286LN,Almkerk,Woudrichem,Noord-Brabant,VBO,4.969914,51.771771
Hoekje,5,,,4286LN,Almkerk,Woudrichem,Noord-Brabant,VBO,4.970656,51.771827
Hoekje,7,a,,4286LN,Almkerk,Woudrichem,Noord-Brabant,VBO,4.971949,51.772131
Hoekje,7,b,,4286LN,Almkerk,Woudrichem,Noord-Brabant,VBO,4.971992,51.771662
Hoekje,7,c,,4286LN,Almkerk,Woudrichem,Noord-Brabant,VBO,4.972909,51.773030
Hoekje,7,,,4286LN,Almkerk,Woudrichem,Noord-Brabant,VBO,4.971281,51.771828
Hoekje,8,a,,4286LN,Almkerk,Woudrichem,Noord-Brabant,VBO,4.971600,51.772494
Hoekje,8,,,4286LN,Almkerk,Woudrichem,Noord-Brabant,VBO,4.971445,51.772333
Hoekje,9,,,4286LN,Almkerk,Woudrichem,Noord-Brabant,VBO,4.972046,51.772691
Hoekje,10,,,4286LN,Almkerk,Woudrichem,Noord-Brabant,VBO,4.972175,51.772868
Hoekje,11,,,4286LN,Almkerk,Woudrichem,Noord-Brabant,VBO,4.974800,51.774022
Hoekje,13,,,4286LN,Almkerk,Woudrichem,Noord-Brabant,VBO,4.974987,51.774052
Hoekje,14,,,4286LN,Almkerk,Woudrichem,Noord-Brabant,VBO,4.975258,51.774188
Hoekje,15,,,4286LN,Almkerk,Woudrichem,Noord-Brabant,VBO,4.976298,51.774520
Hoekje,16,,,4286LN,Almkerk,Woudrichem,Noord-Brabant,VBO,4.978779,51.775539
Schenkeldijk,2,,,4286LP,Almkerk,Woudrichem,Noord-Brabant,VBO,4.955132,51.751513
Schenkeldijk,4,,,4286LP,Almkerk,Woudrichem,Noord-Brabant,VBO,4.952937,51.753052
Hillsesteeg,1,,,4286LT,Almkerk,Woudrichem,Noord-Brabant,VBO,5.007981,51.756042
Laagt,1,,,4286LV,Almkerk,Woudrichem,Noord-Brabant,VBO,4.980394,51.775978
Laagt,2,,,4286LV,Almkerk,Woudrichem,Noord-Brabant,VBO,4.980818,51.775499
Laagt,3,,,4286LV,Almkerk,Woudrichem,Noord-Brabant,VBO,4.980891,51.775158
Laagt,4,,,4286LV,Almkerk,Woudrichem,Noord-Brabant,VBO,4.981117,51.774871
Laagt,5,a,,4286LV,Almkerk,Woudrichem,Noord-Brabant,VBO,4.982500,51.774998
Laagt,5,,,4286LV,Almkerk,Woudrichem,Noord-Brabant,VBO,4.982040,51.774507
Laagt,6,,,4286LV,Almkerk,Woudrichem,Noord-Brabant,VBO,4.982918,51.773509
Laagt,7,,,4286LV,Almkerk,Woudrichem,Noord-Brabant,VBO,4.983209,51.773239
Laagt,8,,,4286LV,Almkerk,Woudrichem,Noord-Brabant,VBO,4.983584,51.772799
Laagt,9,,,4286LV,Almkerk,Woudrichem,Noord-Brabant,VBO,4.983730,51.772622
Laagt,10,,,4286LV,Almkerk,Woudrichem,Noord-Brabant,VBO,4.983924,51.772379
Laagt,11,,,4286LV,Almkerk,Woudrichem,Noord-Brabant,VBO,4.984376,51.772145
Laagt,12,,,4286LV,Almkerk,Woudrichem,Noord-Brabant,VBO,4.984452,51.771692
Laagt,13,,,4286LV,Almkerk,Woudrichem,Noord-Brabant,VBO,4.984537,51.771466
Laagt,14,a,,4286LV,Almkerk,Woudrichem,Noord-Brabant,VBO,4.984308,51.771138
Laagt,14,,,4286LV,Almkerk,Woudrichem,Noord-Brabant,VBO,4.984365,51.771026
Laagt,15,,,4286LV,Almkerk,Woudrichem,Noord-Brabant,VBO,4.984709,51.770806
Laagt,16,,,4286LV,Almkerk,Woudrichem,Noord-Brabant,VBO,4.985769,51.769481
Laagt,16,,,4286LV,Almkerk,Woudrichem,Noord-Brabant,VBO,4.986007,51.769475
Laagt,17,,,4286LV,Almkerk,Woudrichem,Noord-Brabant,VBO,4.985977,51.768902
Broekgraaf,1,,,4286LW,Almkerk,Woudrichem,Noord-Brabant,VBO,4.973909,51.765431
Broekgraaf,2,,,4286LW,Almkerk,Woudrichem,Noord-Brabant,VBO,4.974959,51.765048
Broekgraaf,3,,,4286LW,Almkerk,Woudrichem,Noord-Brabant,VBO,4.979923,51.766332
Broekgraaf,4,a,,4286LW,Almkerk,Woudrichem,Noord-Brabant,VBO,4.984254,51.766447
Broekgraaf,4,,,4286LW,Almkerk,Woudrichem,Noord-Brabant,VBO,4.983683,51.766442
Broekgraaf,6,,,4286LW,Almkerk,Woudrichem,Noord-Brabant,VBO,4.989420,51.767189
Broekgraaf,8,a,,4286LW,Almkerk,Woudrichem,Noord-Brabant,VBO,4.995887,51.767834
Broekgraaf,8,,,4286LW,Almkerk,Woudrichem,Noord-Brabant,VBO,4.999144,51.768087
Broekgraaf,9,,,4286LW,Almkerk,Woudrichem,Noord-Brabant,VBO,5.000852,51.769021
Broekgraaf,10,a,,4286LW,Almkerk,Woudrichem,Noord-Brabant,VBO,5.009919,51.769846
Broekgraaf,10,,,4286LW,Almkerk,Woudrichem,Noord-Brabant,VBO,5.006560,51.769416
Broekgraaf,12,,,4286LW,Almkerk,Woudrichem,Noord-Brabant,VBO,5.014059,51.770135
Duijlweg,1,,,4286LX,Almkerk,Woudrichem,Noord-Brabant,VBO,4.968621,51.767895
Duijlweg,2,,,4286LX,Almkerk,Woudrichem,Noord-Brabant,VBO,4.971989,51.763261
Duijlweg,4,,,4286LX,Almkerk,Woudrichem,Noord-Brabant,VBO,4.971105,51.758666
Duijlweg,6,a,,4286LX,Almkerk,Woudrichem,Noord-Brabant,VBO,4.970428,51.759411
Duijlweg,6,,,4286LX,Almkerk,Woudrichem,Noord-Brabant,VBO,4.970139,51.758751
Midgraaf,1,a,,4286LZ,Almkerk,Woudrichem,Noord-Brabant,VBO,4.934902,51.763342
Midgraaf,3,a,,4286LZ,Almkerk,Woudrichem,Noord-Brabant,VBO,4.945619,51.760721
Midgraaf,3,,,4286LZ,Almkerk,Woudrichem,Noord-Brabant,VBO,4.937310,51.762898
Midgraaf,4,a,,4286LZ,Almkerk,Woudrichem,Noord-Brabant,VBO,4.938147,51.762250
Midgraaf,5,,,4286LZ,Almkerk,Woudrichem,Noord-Brabant,VBO,4.955446,51.758237
Midgraaf,6,,,4286LZ,Almkerk,Woudrichem,Noord-Brabant,VBO,4.939188,51.762066
Midgraaf,7,a,,4286LZ,Almkerk,Woudrichem,Noord-Brabant,VBO,4.975521,51.757308
Midgraaf,7,,,4286LZ,Almkerk,Woudrichem,Noord-Brabant,VBO,4.974725,51.757393
Midgraaf,8,,,4286LZ,Almkerk,Woudrichem,Noord-Brabant,VBO,4.940380,51.761581
Midgraaf,9,,,4286LZ,Almkerk,Woudrichem,Noord-Brabant,VBO,4.989526,51.756993
Midgraaf,10,a,,4286LZ,Almkerk,Woudrichem,Noord-Brabant,VBO,4.942674,51.761140
Midgraaf,10,,,4286LZ,Almkerk,Woudrichem,Noord-Brabant,VBO,4.942308,51.761254
Midgraaf,11,,,4286LZ,Almkerk,Woudrichem,Noord-Brabant,VBO,5.002005,51.756740
Midgraaf,12,,,4286LZ,Almkerk,Woudrichem,Noord-Brabant,VBO,4.943533,51.760873
Midgraaf,13,a,,4286LZ,Almkerk,Woudrichem,Noord-Brabant,VBO,5.008793,51.756727
Midgraaf,13,,,4286LZ,Almkerk,Woudrichem,Noord-Brabant,VBO,5.008205,51.756763
Midgraaf,14,a,,4286LZ,Almkerk,Woudrichem,Noord-Brabant,VBO,4.958010,51.757764
Midgraaf,14,b,,4286LZ,Almkerk,Woudrichem,Noord-Brabant,VBO,4.950748,51.758869
Midgraaf,14,c,,4286LZ,Almkerk,Woudrichem,Noord-Brabant,VBO,4.959020,51.757848
Midgraaf,14,,,4286LZ,Almkerk,Woudrichem,Noord-Brabant,VBO,4.943888,51.760754
Midgraaf,15,,,4286LZ,Almkerk,Woudrichem,Noord-Brabant,VBO,5.012016,51.756724
Midgraaf,17,,,4286LZ,Almkerk,Woudrichem,Noord-Brabant,VBO,5.013942,51.756713
Midgraaf,18,,,4286LZ,Almkerk,Woudrichem,Noord-Brabant,VBO,4.977524,51.756858
Midgraaf,19,,,4286LZ,Almkerk,Woudrichem,Noord-Brabant,VBO,5.018175,51.756772
Midgraaf,20,,,4286LZ,Almkerk,Woudrichem,Noord-Brabant,VBO,4.983891,51.756730
Midgraaf,21,,,4286LZ,Almkerk,Woudrichem,Noord-Brabant,VBO,5.019656,51.756802
Midgraaf,22,,,4286LZ,Almkerk,Woudrichem,Noord-Brabant,VBO,4.988725,51.756614
Midgraaf,26,,,4286LZ,Almkerk,Woudrichem,Noord-Brabant,VBO,5.015066,51.756301
Midgraaf,28,,,4286LZ,Almkerk,Woudrichem,Noord-Brabant,VBO,5.022942,51.756275
