openbareruimtenaam,huisnummer,huisletter,huisnummertoevoeging,postcode,woonplaatsnaam,gemeentenaam,provincienaam,typeadresseerbaarobject,longitude,latitude
Oude Stoofweg,2,,,4326AA,Noordwelle,Schouwen-Duiveland,Zeeland,VBO,3.793510,51.718934
Oude Stoofweg,3,,,4326AA,Noordwelle,Schouwen-Duiveland,Zeeland,VBO,3.793140,51.718884
Oude Stoofweg,4,,,4326AA,Noordwelle,Schouwen-Duiveland,Zeeland,VBO,3.793571,51.719002
Oude Stoofweg,5,,,4326AA,Noordwelle,Schouwen-Duiveland,Zeeland,VBO,3.793148,51.718938
Oude Stoofweg,6,,,4326AA,Noordwelle,Schouwen-Duiveland,Zeeland,VBO,3.793580,51.719089
Oude Stoofweg,7,,,4326AA,Noordwelle,Schouwen-Duiveland,Zeeland,VBO,3.793155,51.718990
Oude Stoofweg,8,,,4326AA,Noordwelle,Schouwen-Duiveland,Zeeland,VBO,3.793471,51.719192
Oude Stoofweg,9,,,4326AA,Noordwelle,Schouwen-Duiveland,Zeeland,VBO,3.793155,51.719121
Oude Stoofweg,10,,,4326AA,Noordwelle,Schouwen-Duiveland,Zeeland,VBO,3.793510,51.719462
Oude Stoofweg,11,,,4326AA,Noordwelle,Schouwen-Duiveland,Zeeland,VBO,3.793156,51.719192
Oude Stoofweg,12,,,4326AA,Noordwelle,Schouwen-Duiveland,Zeeland,VBO,3.793418,51.719646
Oude Stoofweg,14,,,4326AA,Noordwelle,Schouwen-Duiveland,Zeeland,VBO,3.793372,51.719856
Dorpsring,2,,,4326AB,Noordwelle,Schouwen-Duiveland,Zeeland,VBO,3.791953,51.718105
Dorpsring,3,,,4326AB,Noordwelle,Schouwen-Duiveland,Zeeland,VBO,3.791977,51.718209
Dorpsring,4,,,4326AB,Noordwelle,Schouwen-Duiveland,Zeeland,VBO,3.791960,51.718278
Dorpsring,5,,,4326AB,Noordwelle,Schouwen-Duiveland,Zeeland,VBO,3.791903,51.718374
Dorpsring,6,,,4326AB,Noordwelle,Schouwen-Duiveland,Zeeland,VBO,3.791981,51.718462
Dorpsring,7,,,4326AB,Noordwelle,Schouwen-Duiveland,Zeeland,VBO,3.792017,51.718594
Dorpsring,8,,,4326AB,Noordwelle,Schouwen-Duiveland,Zeeland,VBO,3.792063,51.718679
Dorpsring,9,,,4326AB,Noordwelle,Schouwen-Duiveland,Zeeland,VBO,3.792139,51.718723
Dorpsring,10,,,4326AB,Noordwelle,Schouwen-Duiveland,Zeeland,VBO,3.792205,51.718761
Dorpsring,13,,,4326AB,Noordwelle,Schouwen-Duiveland,Zeeland,VBO,3.792566,51.718831
Dorpsring,14,,,4326AB,Noordwelle,Schouwen-Duiveland,Zeeland,VBO,3.792706,51.718827
Dorpsring,15,,,4326AB,Noordwelle,Schouwen-Duiveland,Zeeland,VBO,3.792855,51.718797
Dorpsring,16,,,4326AB,Noordwelle,Schouwen-Duiveland,Zeeland,VBO,3.793029,51.718791
Dorpsring,17,,,4326AB,Noordwelle,Schouwen-Duiveland,Zeeland,VBO,3.793437,51.718691
Dorpsring,18,,,4326AB,Noordwelle,Schouwen-Duiveland,Zeeland,VBO,3.793434,51.718560
Dorpsring,19,,,4326AB,Noordwelle,Schouwen-Duiveland,Zeeland,VBO,3.793424,51.718510
Dorpsring,20,,,4326AB,Noordwelle,Schouwen-Duiveland,Zeeland,VBO,3.793392,51.718441
Dorpsring,21,,,4326AB,Noordwelle,Schouwen-Duiveland,Zeeland,VBO,3.793363,51.718361
Dorpsring,23,,,4326AC,Noordwelle,Schouwen-Duiveland,Zeeland,VBO,3.793372,51.718103
Dorpsring,24,,,4326AC,Noordwelle,Schouwen-Duiveland,Zeeland,VBO,3.793126,51.718058
Dorpsring,26,,,4326AC,Noordwelle,Schouwen-Duiveland,Zeeland,VBO,3.792999,51.717999
Dorpsring,27,,,4326AC,Noordwelle,Schouwen-Duiveland,Zeeland,VBO,3.792893,51.717995
Dorpsring,28,,,4326AC,Noordwelle,Schouwen-Duiveland,Zeeland,VBO,3.792727,51.717997
Dorpsring,29,,,4326AC,Noordwelle,Schouwen-Duiveland,Zeeland,VBO,3.792552,51.718000
Dorpsring,30,,,4326AC,Noordwelle,Schouwen-Duiveland,Zeeland,VBO,3.792398,51.718010
Dorpsring,31,a,,4326AC,Noordwelle,Schouwen-Duiveland,Zeeland,VBO,3.792312,51.717783
Dorpsring,31,,,4326AC,Noordwelle,Schouwen-Duiveland,Zeeland,VBO,3.792317,51.718044
Dorpsring,33,,,4326AC,Noordwelle,Schouwen-Duiveland,Zeeland,VBO,3.792860,51.718432
Ingridstraat,4,,,4326AD,Noordwelle,Schouwen-Duiveland,Zeeland,VBO,3.794757,51.718465
Ingridstraat,6,,,4326AD,Noordwelle,Schouwen-Duiveland,Zeeland,VBO,3.794691,51.718636
Ingridstraat,7,,,4326AD,Noordwelle,Schouwen-Duiveland,Zeeland,VBO,3.794124,51.718268
Ingridstraat,8,,,4326AD,Noordwelle,Schouwen-Duiveland,Zeeland,VBO,3.794620,51.718851
Ingridstraat,9,,,4326AD,Noordwelle,Schouwen-Duiveland,Zeeland,VBO,3.794258,51.718386
Ingridstraat,10,,,4326AD,Noordwelle,Schouwen-Duiveland,Zeeland,VBO,3.794553,51.719009
Ingridstraat,11,,,4326AD,Noordwelle,Schouwen-Duiveland,Zeeland,VBO,3.794292,51.718418
Ingridstraat,12,,,4326AD,Noordwelle,Schouwen-Duiveland,Zeeland,VBO,3.794481,51.719344
Ingridstraat,14,,,4326AD,Noordwelle,Schouwen-Duiveland,Zeeland,VBO,3.794304,51.719336
Ingridstraat,16,,,4326AD,Noordwelle,Schouwen-Duiveland,Zeeland,VBO,3.794133,51.719333
Ingridstraat,18,,,4326AD,Noordwelle,Schouwen-Duiveland,Zeeland,VBO,3.793963,51.719411
Ingridstraat,20,,,4326AD,Noordwelle,Schouwen-Duiveland,Zeeland,VBO,3.793905,51.719428
Ingridstraat,21,,,4326AD,Noordwelle,Schouwen-Duiveland,Zeeland,VBO,3.793685,51.719199
Smidsweg,2,,,4326AE,Noordwelle,Schouwen-Duiveland,Zeeland,VBO,3.793700,51.717996
Smidsweg,4,,,4326AE,Noordwelle,Schouwen-Duiveland,Zeeland,VBO,3.793779,51.717972
Smidsweg,6,,,4326AE,Noordwelle,Schouwen-Duiveland,Zeeland,VBO,3.794166,51.717891
Smidsweg,8,,,4326AE,Noordwelle,Schouwen-Duiveland,Zeeland,VBO,3.794283,51.717877
Smidsweg,9,a,,4326AE,Noordwelle,Schouwen-Duiveland,Zeeland,VBO,3.795145,51.718368
Smidsweg,9,,,4326AE,Noordwelle,Schouwen-Duiveland,Zeeland,VBO,3.794905,51.718247
Smidsweg,10,,,4326AE,Noordwelle,Schouwen-Duiveland,Zeeland,VBO,3.794456,51.717872
Smidsweg,11,,,4326AE,Noordwelle,Schouwen-Duiveland,Zeeland,VBO,3.795845,51.718293
Smidsweg,12,,,4326AE,Noordwelle,Schouwen-Duiveland,Zeeland,VBO,3.794566,51.717864
Smidsweg,13,,,4326AE,Noordwelle,Schouwen-Duiveland,Zeeland,VBO,3.795451,51.718587
Smidsweg,14,,,4326AE,Noordwelle,Schouwen-Duiveland,Zeeland,VBO,3.794732,51.717904
Smidsweg,15,,,4326AE,Noordwelle,Schouwen-Duiveland,Zeeland,VBO,3.795804,51.718651
Smidsweg,16,,,4326AE,Noordwelle,Schouwen-Duiveland,Zeeland,VBO,3.794871,51.717916
Smidsweg,22,,,4326AE,Noordwelle,Schouwen-Duiveland,Zeeland,VBO,3.795440,51.717948
Smidsweg,24,,,4326AE,Noordwelle,Schouwen-Duiveland,Zeeland,VBO,3.796792,51.717949
Hoefijzer,1,,,4326AG,Noordwelle,Schouwen-Duiveland,Zeeland,VBO,3.793921,51.717685
Hoefijzer,3,,,4326AG,Noordwelle,Schouwen-Duiveland,Zeeland,VBO,3.794080,51.717618
Hoefijzer,4,,,4326AG,Noordwelle,Schouwen-Duiveland,Zeeland,VBO,3.793554,51.717780
Hoefijzer,5,,,4326AG,Noordwelle,Schouwen-Duiveland,Zeeland,VBO,3.794508,51.717625
Hoefijzer,6,,,4326AG,Noordwelle,Schouwen-Duiveland,Zeeland,VBO,3.793514,51.717732
Hoefijzer,8,,,4326AG,Noordwelle,Schouwen-Duiveland,Zeeland,VBO,3.793474,51.717682
Hoefijzer,10,,,4326AG,Noordwelle,Schouwen-Duiveland,Zeeland,VBO,3.794048,51.717325
Hoefijzer,12,,,4326AG,Noordwelle,Schouwen-Duiveland,Zeeland,VBO,3.794452,51.717345
Hoefijzer,13,,,4326AG,Noordwelle,Schouwen-Duiveland,Zeeland,VBO,3.794716,51.717660
Hoefijzer,15,,,4326AG,Noordwelle,Schouwen-Duiveland,Zeeland,VBO,3.794803,51.717671
Hoefijzer,16,,,4326AG,Noordwelle,Schouwen-Duiveland,Zeeland,VBO,3.794642,51.717357
Hoefijzer,17,,,4326AG,Noordwelle,Schouwen-Duiveland,Zeeland,VBO,3.794898,51.717682
Hoefijzer,18,,,4326AG,Noordwelle,Schouwen-Duiveland,Zeeland,VBO,3.794729,51.717367
Hoefijzer,19,,,4326AG,Noordwelle,Schouwen-Duiveland,Zeeland,VBO,3.794984,51.717693
Hoefijzer,20,,,4326AG,Noordwelle,Schouwen-Duiveland,Zeeland,VBO,3.794814,51.717377
Hoefijzer,22,,,4326AG,Noordwelle,Schouwen-Duiveland,Zeeland,VBO,3.794900,51.717387
Hoefijzer,24,,,4326AG,Noordwelle,Schouwen-Duiveland,Zeeland,VBO,3.795123,51.717432
Hoefijzer,26,,,4326AG,Noordwelle,Schouwen-Duiveland,Zeeland,VBO,3.795163,51.717305
Hoefijzer,28,,,4326AG,Noordwelle,Schouwen-Duiveland,Zeeland,VBO,3.795507,51.717409
Hoefijzer,30,,,4326AG,Noordwelle,Schouwen-Duiveland,Zeeland,VBO,3.795447,51.717610
Jan Delstlaan,1,,,4326AH,Noordwelle,Schouwen-Duiveland,Zeeland,VBO,3.792825,51.719389
Jan Delstlaan,2,,,4326AH,Noordwelle,Schouwen-Duiveland,Zeeland,VBO,3.792794,51.719792
Jan Delstlaan,3,,,4326AH,Noordwelle,Schouwen-Duiveland,Zeeland,VBO,3.792807,51.719443
Jan Delstlaan,4,,,4326AH,Noordwelle,Schouwen-Duiveland,Zeeland,VBO,3.792577,51.719723
Jan Delstlaan,5,,,4326AH,Noordwelle,Schouwen-Duiveland,Zeeland,VBO,3.792776,51.719488
Jan Delstlaan,7,,,4326AH,Noordwelle,Schouwen-Duiveland,Zeeland,VBO,3.792758,51.719542
Jan Delstlaan,8,,,4326AH,Noordwelle,Schouwen-Duiveland,Zeeland,VBO,3.792305,51.719672
Jan Delstlaan,9,,,4326AH,Noordwelle,Schouwen-Duiveland,Zeeland,VBO,3.792406,51.719452
Jan Delstlaan,11,,,4326AH,Noordwelle,Schouwen-Duiveland,Zeeland,VBO,3.792426,51.719409
Jan Delstlaan,13,,,4326AH,Noordwelle,Schouwen-Duiveland,Zeeland,VBO,3.792461,51.719355
Jan Delstlaan,14,,,4326AH,Noordwelle,Schouwen-Duiveland,Zeeland,VBO,3.792033,51.719575
Jan Delstlaan,15,,,4326AH,Noordwelle,Schouwen-Duiveland,Zeeland,VBO,3.792481,51.719312
Jan Delstlaan,17,,,4326AH,Noordwelle,Schouwen-Duiveland,Zeeland,VBO,3.792109,51.719332
Jan Delstlaan,18,,,4326AH,Noordwelle,Schouwen-Duiveland,Zeeland,VBO,3.791801,51.719556
Jan Delstlaan,19,,,4326AH,Noordwelle,Schouwen-Duiveland,Zeeland,VBO,3.791986,51.719312
Jan Delstlaan,21,,,4326AH,Noordwelle,Schouwen-Duiveland,Zeeland,VBO,3.791824,51.719280
Jan Delstlaan,23,,,4326AH,Noordwelle,Schouwen-Duiveland,Zeeland,VBO,3.791713,51.719252
Kooijmansweg,8,,,4326CT,Noordwelle,Schouwen-Duiveland,Zeeland,VBO,3.773662,51.716797
Helleweg,1,,,4326LJ,Noordwelle,Schouwen-Duiveland,Zeeland,VBO,3.792605,51.731895
Helleweg,2,,0001,4326LJ,Noordwelle,Schouwen-Duiveland,Zeeland,VBO,3.795360,51.732257
Helleweg,2,,0002,4326LJ,Noordwelle,Schouwen-Duiveland,Zeeland,VBO,3.795258,51.732203
Helleweg,2,,0003,4326LJ,Noordwelle,Schouwen-Duiveland,Zeeland,VBO,3.795163,51.732149
Helleweg,2,,0004,4326LJ,Noordwelle,Schouwen-Duiveland,Zeeland,VBO,3.795079,51.732093
Helleweg,2,,0005,4326LJ,Noordwelle,Schouwen-Duiveland,Zeeland,VBO,3.795008,51.732038
Helleweg,2,,0006,4326LJ,Noordwelle,Schouwen-Duiveland,Zeeland,VBO,3.794923,51.731988
Helleweg,2,,0007,4326LJ,Noordwelle,Schouwen-Duiveland,Zeeland,VBO,3.794845,51.731919
Helleweg,2,,0008,4326LJ,Noordwelle,Schouwen-Duiveland,Zeeland,VBO,3.794635,51.731734
Helleweg,2,,0009,4326LJ,Noordwelle,Schouwen-Duiveland,Zeeland,VBO,3.795145,51.732355
Helleweg,2,,0010,4326LJ,Noordwelle,Schouwen-Duiveland,Zeeland,VBO,3.795063,51.732307
Helleweg,2,,0011,4326LJ,Noordwelle,Schouwen-Duiveland,Zeeland,VBO,3.794983,51.732252
Helleweg,2,,0012,4326LJ,Noordwelle,Schouwen-Duiveland,Zeeland,VBO,3.794906,51.732200
Helleweg,2,,0013,4326LJ,Noordwelle,Schouwen-Duiveland,Zeeland,VBO,3.794824,51.732145
Helleweg,2,,,4326LJ,Noordwelle,Schouwen-Duiveland,Zeeland,VBO,3.794584,51.731877
Helleweg,3,,,4326LJ,Noordwelle,Schouwen-Duiveland,Zeeland,VBO,3.793521,51.731812
Helleweg,4,,,4326LJ,Noordwelle,Schouwen-Duiveland,Zeeland,VBO,3.796561,51.732962
Helleweg,8,,,4326LJ,Noordwelle,Schouwen-Duiveland,Zeeland,VBO,3.803415,51.737080
Rampweg,12,,,4326LK,Noordwelle,Schouwen-Duiveland,Zeeland,VBO,3.798066,51.739522
Rampweg,16,,,4326LK,Noordwelle,Schouwen-Duiveland,Zeeland,VBO,3.799095,51.739342
Rampweg,20,,0007,4326LK,Noordwelle,Schouwen-Duiveland,Zeeland,VBO,3.799338,51.739073
Rampweg,20,,0008,4326LK,Noordwelle,Schouwen-Duiveland,Zeeland,VBO,3.799413,51.739045
Rampweg,20,,0009,4326LK,Noordwelle,Schouwen-Duiveland,Zeeland,VBO,3.799462,51.739018
Rampweg,20,,0010,4326LK,Noordwelle,Schouwen-Duiveland,Zeeland,VBO,3.799554,51.739003
Rampweg,20,,0011,4326LK,Noordwelle,Schouwen-Duiveland,Zeeland,VBO,3.799619,51.738943
Rampweg,20,,0012,4326LK,Noordwelle,Schouwen-Duiveland,Zeeland,VBO,3.799684,51.738932
Rampweg,20,,0013,4326LK,Noordwelle,Schouwen-Duiveland,Zeeland,VBO,3.799722,51.738894
Rampweg,20,,0014,4326LK,Noordwelle,Schouwen-Duiveland,Zeeland,VBO,3.799801,51.738867
Rampweg,20,,0015,4326LK,Noordwelle,Schouwen-Duiveland,Zeeland,VBO,3.800043,51.738932
Rampweg,20,,0016,4326LK,Noordwelle,Schouwen-Duiveland,Zeeland,VBO,3.800118,51.738922
Rampweg,20,,0017,4326LK,Noordwelle,Schouwen-Duiveland,Zeeland,VBO,3.800154,51.738895
Rampweg,20,,0018,4326LK,Noordwelle,Schouwen-Duiveland,Zeeland,VBO,3.800226,51.738873
Rampweg,20,,0019,4326LK,Noordwelle,Schouwen-Duiveland,Zeeland,VBO,3.800095,51.739142
Rampweg,20,,0020,4326LK,Noordwelle,Schouwen-Duiveland,Zeeland,VBO,3.800179,51.739109
Rampweg,20,,0021,4326LK,Noordwelle,Schouwen-Duiveland,Zeeland,VBO,3.800248,51.739090
Rampweg,20,,,4326LK,Noordwelle,Schouwen-Duiveland,Zeeland,VBO,3.799955,51.739294
Rampweg,22,,,4326LK,Noordwelle,Schouwen-Duiveland,Zeeland,VBO,3.801291,51.739220
Rampweg,24,,,4326LK,Noordwelle,Schouwen-Duiveland,Zeeland,VBO,3.801773,51.739067
Rampweg,26,,,4326LK,Noordwelle,Schouwen-Duiveland,Zeeland,VBO,3.807964,51.738974
Rampweg,28,,,4326LK,Noordwelle,Schouwen-Duiveland,Zeeland,VBO,3.817331,51.737696
Rampweg,30,,,4326LK,Noordwelle,Schouwen-Duiveland,Zeeland,VBO,3.819373,51.737766
Rampweg,32,,,4326LK,Noordwelle,Schouwen-Duiveland,Zeeland,VBO,3.819529,51.737461
Rampweg,34,,,4326LK,Noordwelle,Schouwen-Duiveland,Zeeland,VBO,3.819874,51.737566
Kuijerdamseweg,1,,,4326LL,Noordwelle,Schouwen-Duiveland,Zeeland,VBO,3.795873,51.726490
Kuijerdamseweg,4,,,4326LL,Noordwelle,Schouwen-Duiveland,Zeeland,VBO,3.796959,51.726681
Kuijerdamseweg,5,,,4326LL,Noordwelle,Schouwen-Duiveland,Zeeland,VBO,3.808922,51.728155
Kuijerdamseweg,7,,,4326LL,Noordwelle,Schouwen-Duiveland,Zeeland,VBO,3.809463,51.728329
Kuijerdamseweg,9,,,4326LL,Noordwelle,Schouwen-Duiveland,Zeeland,VBO,3.810580,51.728819
Kuijerdamseweg,11,,,4326LL,Noordwelle,Schouwen-Duiveland,Zeeland,VBO,3.811153,51.729036
Kuijerdamseweg,13,,,4326LL,Noordwelle,Schouwen-Duiveland,Zeeland,VBO,3.811411,51.729059
Kuijerdamseweg,15,,,4326LL,Noordwelle,Schouwen-Duiveland,Zeeland,VBO,3.811502,51.729110
Koetenisseweg,5,,,4326SB,Noordwelle,Schouwen-Duiveland,Zeeland,VBO,3.786587,51.705262
Bouwmansweg,20,a,,4326SC,Noordwelle,Schouwen-Duiveland,Zeeland,VBO,3.775871,51.705634
Bouwmansweg,20,,,4326SC,Noordwelle,Schouwen-Duiveland,Zeeland,VBO,3.774113,51.705207
Lokkershofweg,1,,,4326SE,Noordwelle,Schouwen-Duiveland,Zeeland,VBO,3.799771,51.714662
Lokkershofweg,4,,,4326SE,Noordwelle,Schouwen-Duiveland,Zeeland,VBO,3.789780,51.714328
Lokkershofweg,5,,,4326SE,Noordwelle,Schouwen-Duiveland,Zeeland,VBO,3.798927,51.715243
Lokkershofweg,6,a,,4326SE,Noordwelle,Schouwen-Duiveland,Zeeland,VBO,3.787752,51.715031
Lokkershofweg,6,,,4326SE,Noordwelle,Schouwen-Duiveland,Zeeland,VBO,3.789211,51.714299
Lokkershofweg,7,,0001,4326SE,Noordwelle,Schouwen-Duiveland,Zeeland,VBO,3.798340,51.715168
Lokkershofweg,7,,0002,4326SE,Noordwelle,Schouwen-Duiveland,Zeeland,VBO,3.798351,51.715132
Lokkershofweg,7,,0003,4326SE,Noordwelle,Schouwen-Duiveland,Zeeland,VBO,3.798359,51.715099
Lokkershofweg,7,,0004,4326SE,Noordwelle,Schouwen-Duiveland,Zeeland,VBO,3.798372,51.715037
Lokkershofweg,7,,0005,4326SE,Noordwelle,Schouwen-Duiveland,Zeeland,VBO,3.798378,51.714997
Lokkershofweg,7,,0006,4326SE,Noordwelle,Schouwen-Duiveland,Zeeland,VBO,3.798402,51.714941
Lokkershofweg,7,,0007,4326SE,Noordwelle,Schouwen-Duiveland,Zeeland,VBO,3.798404,51.714895
Lokkershofweg,7,,,4326SE,Noordwelle,Schouwen-Duiveland,Zeeland,VBO,3.797878,51.715264
Zuidwelleweg,1,,,4326SG,Noordwelle,Schouwen-Duiveland,Zeeland,VBO,3.792448,51.717533
Zuidwelleweg,2,,,4326SG,Noordwelle,Schouwen-Duiveland,Zeeland,VBO,3.790939,51.717330
Zuidwelleweg,3,,,4326SG,Noordwelle,Schouwen-Duiveland,Zeeland,VBO,3.793017,51.717271
Zuidwelleweg,4,,,4326SG,Noordwelle,Schouwen-Duiveland,Zeeland,VBO,3.792599,51.716107
Zuidwellewekken,3,,,4326SH,Noordwelle,Schouwen-Duiveland,Zeeland,VBO,3.793867,51.714993
Zuidwellewekken,5,,,4326SH,Noordwelle,Schouwen-Duiveland,Zeeland,VBO,3.794090,51.714796
Zuidwellewekken,6,,,4326SH,Noordwelle,Schouwen-Duiveland,Zeeland,VBO,3.793940,51.712204
Zuidwellewekken,7,,,4326SH,Noordwelle,Schouwen-Duiveland,Zeeland,VBO,3.793907,51.714618
Zuidwellewekken,9,,,4326SH,Noordwelle,Schouwen-Duiveland,Zeeland,VBO,3.793983,51.714445
Stoofweg,31,,,4326SJ,Noordwelle,Schouwen-Duiveland,Zeeland,VBO,3.795584,51.720907
Stoofweg,32,a,,4326SJ,Noordwelle,Schouwen-Duiveland,Zeeland,VBO,3.787446,51.724297
Stoofweg,32,,,4326SJ,Noordwelle,Schouwen-Duiveland,Zeeland,VBO,3.788091,51.724400
Stoofweg,34,,,4326SJ,Noordwelle,Schouwen-Duiveland,Zeeland,VBO,3.788855,51.724974
Stoofweg,36,,,4326SJ,Noordwelle,Schouwen-Duiveland,Zeeland,VBO,3.789350,51.724142
Stoofweg,40,,,4326SJ,Noordwelle,Schouwen-Duiveland,Zeeland,VBO,3.791602,51.722564
Stoofweg,42,,,4326SJ,Noordwelle,Schouwen-Duiveland,Zeeland,VBO,3.791818,51.721926
Stoofweg,58,,,4326SJ,Noordwelle,Schouwen-Duiveland,Zeeland,VBO,3.803646,51.710669
Stoofweg,60,,,4326SJ,Noordwelle,Schouwen-Duiveland,Zeeland,VBO,3.803211,51.710104
Lagezoom,10,,,4326SK,Noordwelle,Schouwen-Duiveland,Zeeland,VBO,3.781371,51.724720
Wellandweg,1,a,,4326SL,Noordwelle,Schouwen-Duiveland,Zeeland,VBO,3.778171,51.713533
Wellandweg,1,,,4326SL,Noordwelle,Schouwen-Duiveland,Zeeland,VBO,3.779307,51.714650
Wellandweg,2,,,4326SL,Noordwelle,Schouwen-Duiveland,Zeeland,VBO,3.793908,51.720683
Wellandweg,4,,,4326SL,Noordwelle,Schouwen-Duiveland,Zeeland,VBO,3.792685,51.721420
Wellandweg,6,,,4326SL,Noordwelle,Schouwen-Duiveland,Zeeland,VBO,3.793605,51.720474
Wellandweg,8,,,4326SL,Noordwelle,Schouwen-Duiveland,Zeeland,VBO,3.791834,51.720212
Wellandweg,10,,,4326SL,Noordwelle,Schouwen-Duiveland,Zeeland,VBO,3.790782,51.720766
Wellandweg,12,,,4326SL,Noordwelle,Schouwen-Duiveland,Zeeland,VBO,3.789237,51.719633
Wellandweg,14,,,4326SL,Noordwelle,Schouwen-Duiveland,Zeeland,VBO,3.788288,51.719289
Hakeweg,5,,,4326SM,Noordwelle,Schouwen-Duiveland,Zeeland,VBO,3.805393,51.715307
