openbareruimtenaam,huisnummer,huisletter,huisnummertoevoeging,postcode,woonplaatsnaam,gemeentenaam,provincienaam,typeadresseerbaarobject,longitude,latitude
Kaai,1,,,4351AA,Veere,Veere,Zeeland,VBO,3.669255,51.549840
Kaai,2,,,4351AA,Veere,Veere,Zeeland,VBO,3.669506,51.550050
Kaai,4,,,4351AA,Veere,Veere,Zeeland,VBO,3.669536,51.550033
Kaai,8,,,4351AA,Veere,Veere,Zeeland,VBO,3.669134,51.549973
Kaai,9,,,4351AA,Veere,Veere,Zeeland,VBO,3.668856,51.549699
Kaai,10,,,4351AA,Veere,Veere,Zeeland,VBO,3.668934,51.549916
Kaai,11,,,4351AA,Veere,Veere,Zeeland,VBO,3.668927,51.549586
Kaai,12,,,4351AA,Veere,Veere,Zeeland,VBO,3.668849,51.549897
Kaai,14,,,4351AA,Veere,Veere,Zeeland,VBO,3.668664,51.549831
Kaai,17,,,4351AA,Veere,Veere,Zeeland,VBO,3.668501,51.549550
Kaai,19,,,4351AA,Veere,Veere,Zeeland,VBO,3.668388,51.549503
Kaai,21,,,4351AA,Veere,Veere,Zeeland,VBO,3.668348,51.549422
Kaai,23,,,4351AA,Veere,Veere,Zeeland,VBO,3.668186,51.549491
Kaai,25,A,,4351AA,Veere,Veere,Zeeland,VBO,3.668029,51.549444
Kaai,25,,,4351AA,Veere,Veere,Zeeland,VBO,3.668029,51.549444
Kaai,27,,,4351AA,Veere,Veere,Zeeland,VBO,3.667930,51.549416
Kaai,29,A,,4351AA,Veere,Veere,Zeeland,VBO,3.667865,51.549342
Kaai,29,,,4351AA,Veere,Veere,Zeeland,VBO,3.667845,51.549368
Kaai,31,,,4351AA,Veere,Veere,Zeeland,VBO,3.667804,51.549306
Kaai,33,,,4351AA,Veere,Veere,Zeeland,VBO,3.667732,51.549314
Kaai,35,,,4351AB,Veere,Veere,Zeeland,VBO,3.667446,51.549238
Kaai,39,,,4351AB,Veere,Veere,Zeeland,VBO,3.667233,51.549163
Kaai,41,,,4351AB,Veere,Veere,Zeeland,VBO,3.667204,51.549153
Kaai,43,,,4351AB,Veere,Veere,Zeeland,VBO,3.667134,51.549098
Kaai,45,,,4351AB,Veere,Veere,Zeeland,VBO,3.667036,51.549034
Kaai,49,,,4351AB,Veere,Veere,Zeeland,VBO,3.666863,51.549031
Kaai,53,,,4351AB,Veere,Veere,Zeeland,VBO,3.666693,51.548930
Kaai,55,,,4351AB,Veere,Veere,Zeeland,VBO,3.666565,51.548883
Kaai,57,,,4351AB,Veere,Veere,Zeeland,VBO,3.666495,51.548828
Kaai,59,,,4351AB,Veere,Veere,Zeeland,VBO,3.666409,51.548836
Kaai,61,,,4351AB,Veere,Veere,Zeeland,VBO,3.666338,51.548808
Kaai,63,,,4351AB,Veere,Veere,Zeeland,VBO,3.666252,51.548780
Kaai,65,,,4351AB,Veere,Veere,Zeeland,VBO,3.666183,51.548698
Kaai,67,,,4351AC,Veere,Veere,Zeeland,VBO,3.665996,51.548695
Kaai,69,,,4351AC,Veere,Veere,Zeeland,VBO,3.665925,51.548667
Kaai,71,,,4351AC,Veere,Veere,Zeeland,VBO,3.665869,51.548612
Kaai,73,,,4351AC,Veere,Veere,Zeeland,VBO,3.665768,51.548620
Kaai,75,,,4351AC,Veere,Veere,Zeeland,VBO,3.665714,51.548511
Kaai,77,,,4351AC,Veere,Veere,Zeeland,VBO,3.665614,51.548492
Kaai,79,,,4351AC,Veere,Veere,Zeeland,VBO,3.665513,51.548490
Kaai,81,,,4351AC,Veere,Veere,Zeeland,VBO,3.665443,51.548453
Kaai,83,,,4351AC,Veere,Veere,Zeeland,VBO,3.665372,51.548425
Kaai,85,,,4351AC,Veere,Veere,Zeeland,VBO,3.665256,51.548441
Kaai,87,,,4351AC,Veere,Veere,Zeeland,VBO,3.665215,51.548369
Kaai,89,,,4351AC,Veere,Veere,Zeeland,VBO,3.665130,51.548332
Kaai,91,,,4351AC,Veere,Veere,Zeeland,VBO,3.665029,51.548339
Kaai,93,,,4351AC,Veere,Veere,Zeeland,VBO,3.664829,51.548273
Kaai,95,,,4351AC,Veere,Veere,Zeeland,VBO,3.664744,51.548245
Kaai,97,,,4351AC,Veere,Veere,Zeeland,VBO,3.664644,51.548217
Kaai,18,,,4351AD,Veere,Veere,Zeeland,VBO,3.663865,51.548223
Kaai,99,,,4351AD,Veere,Veere,Zeeland,VBO,3.664530,51.548170
Kaai,101,,,4351AD,Veere,Veere,Zeeland,VBO,3.664445,51.548142
Kaai,103,,,4351AD,Veere,Veere,Zeeland,VBO,3.664330,51.548122
Kaai,105,,,4351AD,Veere,Veere,Zeeland,VBO,3.664274,51.548094
Kaai,107,,,4351AD,Veere,Veere,Zeeland,VBO,3.664189,51.548057
Kaai,109,,,4351AD,Veere,Veere,Zeeland,VBO,3.664075,51.548010
Kaai,111,,,4351AD,Veere,Veere,Zeeland,VBO,3.663833,51.547917
Kraanstraat,2,,,4351AE,Veere,Veere,Zeeland,VBO,3.668926,51.549385
Kraanstraat,4,,,4351AE,Veere,Veere,Zeeland,VBO,3.668970,51.549350
Kraanstraat,6,,,4351AE,Veere,Veere,Zeeland,VBO,3.669015,51.549315
Kraanstraat,8,,,4351AE,Veere,Veere,Zeeland,VBO,3.669060,51.549271
Kraanstraat,10,,,4351AE,Veere,Veere,Zeeland,VBO,3.669104,51.549235
Markt,1,,,4351AG,Veere,Veere,Zeeland,VBO,3.667563,51.549195
Markt,3,,,4351AG,Veere,Veere,Zeeland,VBO,3.667608,51.549141
Markt,5,,,4351AG,Veere,Veere,Zeeland,VBO,3.667727,51.549044
Markt,7,,,4351AG,Veere,Veere,Zeeland,VBO,3.667779,51.548905
Markt,9,,,4351AG,Veere,Veere,Zeeland,VBO,3.667847,51.548860
Markt,11,,,4351AG,Veere,Veere,Zeeland,VBO,3.667898,51.548823
Markt,15,,,4351AG,Veere,Veere,Zeeland,VBO,3.668013,51.548725
Markt,17,,,4351AG,Veere,Veere,Zeeland,VBO,3.668101,51.548708
Markt,19,,,4351AG,Veere,Veere,Zeeland,VBO,3.668175,51.548646
Markt,21,,,4351AG,Veere,Veere,Zeeland,VBO,3.668235,51.548584
Markt,23,,,4351AG,Veere,Veere,Zeeland,VBO,3.668396,51.548533
Markt,29,,,4351AG,Veere,Veere,Zeeland,VBO,3.668588,51.548401
Markt,31,,,4351AG,Veere,Veere,Zeeland,VBO,3.668661,51.548366
Markt,33,,,4351AG,Veere,Veere,Zeeland,VBO,3.668678,51.548312
Markt,35,,,4351AG,Veere,Veere,Zeeland,VBO,3.668839,51.548242
Markt,37,,,4351AG,Veere,Veere,Zeeland,VBO,3.668971,51.548199
Markt,39,,,4351AG,Veere,Veere,Zeeland,VBO,3.669117,51.548130
Markt,41,,,4351AG,Veere,Veere,Zeeland,VBO,3.669134,51.548076
Markt,2,,,4351AH,Veere,Veere,Zeeland,VBO,3.667763,51.549234
Markt,4,,,4351AH,Veere,Veere,Zeeland,VBO,3.667808,51.549198
Markt,6,,,4351AH,Veere,Veere,Zeeland,VBO,3.667896,51.549155
Markt,8,,,4351AH,Veere,Veere,Zeeland,VBO,3.668232,51.549034
Markt,10,,,4351AH,Veere,Veere,Zeeland,VBO,3.668278,51.548980
Markt,12,,,4351AH,Veere,Veere,Zeeland,VBO,3.668380,51.548946
Markt,14,,,4351AH,Veere,Veere,Zeeland,VBO,3.668448,51.548880
Markt,18,,,4351AH,Veere,Veere,Zeeland,VBO,3.668529,51.548831
Markt,20,,,4351AH,Veere,Veere,Zeeland,VBO,3.668588,51.548787
Markt,22,,,4351AH,Veere,Veere,Zeeland,VBO,3.668718,51.548789
Markt,24,,,4351AH,Veere,Veere,Zeeland,VBO,3.668720,51.548717
Markt,26,,,4351AH,Veere,Veere,Zeeland,VBO,3.668809,51.548665
Markt,28,,,4351AH,Veere,Veere,Zeeland,VBO,3.668882,51.548639
Markt,30,,,4351AH,Veere,Veere,Zeeland,VBO,3.668941,51.548604
Markt,32,,,4351AH,Veere,Veere,Zeeland,VBO,3.669000,51.548568
Markt,34,,,4351AH,Veere,Veere,Zeeland,VBO,3.669073,51.548543
Markt,36,A,,4351AH,Veere,Veere,Zeeland,VBO,3.669221,51.548437
Markt,36,,,4351AH,Veere,Veere,Zeeland,VBO,3.669163,51.548454
Markt,38,,,4351AH,Veere,Veere,Zeeland,VBO,3.669266,51.548384
Markt,40,,,4351AH,Veere,Veere,Zeeland,VBO,3.669355,51.548331
Markt,42,,,4351AH,Veere,Veere,Zeeland,VBO,3.669443,51.548278
Markt,44,,,4351AH,Veere,Veere,Zeeland,VBO,3.669503,51.548234
Markt,46,,,4351AH,Veere,Veere,Zeeland,VBO,3.669576,51.548199
Oliemolenstraat,2,,,4351AJ,Veere,Veere,Zeeland,VBO,3.667446,51.548465
Oliemolenstraat,4,,,4351AJ,Veere,Veere,Zeeland,VBO,3.667392,51.548392
Oliemolenstraat,6,,,4351AJ,Veere,Veere,Zeeland,VBO,3.667335,51.548355
Oliemolenstraat,8,,,4351AJ,Veere,Veere,Zeeland,VBO,3.667265,51.548318
Oliemolenstraat,10,,,4351AJ,Veere,Veere,Zeeland,VBO,3.667194,51.548281
Oliemolenstraat,12,,,4351AJ,Veere,Veere,Zeeland,VBO,3.667138,51.548226
Kerkstraat,3,,,4351AK,Veere,Veere,Zeeland,VBO,3.668170,51.548385
Kerkstraat,4,,,4351AK,Veere,Veere,Zeeland,VBO,3.667925,51.548391
Kerkstraat,5,,,4351AK,Veere,Veere,Zeeland,VBO,3.667904,51.547986
Kerkstraat,6,A,,4351AK,Veere,Veere,Zeeland,VBO,3.667411,51.547888
Kerkstraat,6,,,4351AK,Veere,Veere,Zeeland,VBO,3.667410,51.547907
Kerkstraat,7,,,4351AK,Veere,Veere,Zeeland,VBO,3.667958,51.547897
Kerkstraat,9,,,4351AK,Veere,Veere,Zeeland,VBO,3.667887,51.547802
Kerkstraat,11,,,4351AK,Veere,Veere,Zeeland,VBO,3.667808,51.547688
Kerkstraat,13,,,4351AK,Veere,Veere,Zeeland,VBO,3.667768,51.547597
Kapellestraat,1,,,4351AL,Veere,Veere,Zeeland,VBO,3.666193,51.548428
Kapellestraat,2,,,4351AL,Veere,Veere,Zeeland,VBO,3.666407,51.548494
Kapellestraat,3,,,4351AL,Veere,Veere,Zeeland,VBO,3.666281,51.548403
Kapellestraat,4,,,4351AL,Veere,Veere,Zeeland,VBO,3.666601,51.548317
Kapellestraat,5,,,4351AL,Veere,Veere,Zeeland,VBO,3.666326,51.548340
Kapellestraat,6,,,4351AL,Veere,Veere,Zeeland,VBO,3.666675,51.548274
Kapellestraat,7,A,,4351AL,Veere,Veere,Zeeland,VBO,3.665763,51.548096
Kapellestraat,7,,,4351AL,Veere,Veere,Zeeland,VBO,3.666372,51.548287
Kapellestraat,8,,,4351AL,Veere,Veere,Zeeland,VBO,3.666720,51.548220
Kapellestraat,9,A,,4351AL,Veere,Veere,Zeeland,VBO,3.666444,51.548191
Kapellestraat,9,B,,4351AL,Veere,Veere,Zeeland,VBO,3.666490,51.548149
Kapellestraat,9,,,4351AL,Veere,Veere,Zeeland,VBO,3.666401,51.548225
Kapellestraat,10,,,4351AL,Veere,Veere,Zeeland,VBO,3.666780,51.548176
Kapellestraat,11,,,4351AL,Veere,Veere,Zeeland,VBO,3.666669,51.548040
Kapellestraat,12,,,4351AL,Veere,Veere,Zeeland,VBO,3.666855,51.548096
Kapellestraat,14,,,4351AL,Veere,Veere,Zeeland,VBO,3.667960,51.547456
Kapellestraat,16,,,4351AL,Veere,Veere,Zeeland,VBO,3.668122,51.547369
Kapellestraat,17,,,4351AL,Veere,Veere,Zeeland,VBO,3.666910,51.547792
Kapellestraat,19,,,4351AL,Veere,Veere,Zeeland,VBO,3.666969,51.547738
Kapellestraat,21,,,4351AL,Veere,Veere,Zeeland,VBO,3.667057,51.547695
Kapellestraat,23,,,4351AL,Veere,Veere,Zeeland,VBO,3.667189,51.547643
Kapellestraat,25,,,4351AL,Veere,Veere,Zeeland,VBO,3.667292,51.547599
Kapellestraat,27,,,4351AL,Veere,Veere,Zeeland,VBO,3.667926,51.547222
Simon Oomstraat,1,A,,4351AM,Veere,Veere,Zeeland,VBO,3.666092,51.548315
Simon Oomstraat,1,,,4351AM,Veere,Veere,Zeeland,VBO,3.665992,51.548416
Simon Oomstraat,3,,,4351AM,Veere,Veere,Zeeland,VBO,3.665694,51.548295
Simon Oomstraat,5,,,4351AM,Veere,Veere,Zeeland,VBO,3.665874,51.548369
Simon Oomstraat,7,,,4351AM,Veere,Veere,Zeeland,VBO,3.665889,51.548376
Pieterstraat,1,,,4351AN,Veere,Veere,Zeeland,VBO,3.666367,51.547640
Pieterstraat,4,,,4351AN,Veere,Veere,Zeeland,VBO,3.666290,51.547773
Wijngaardstraat,1,A,,4351AP,Veere,Veere,Zeeland,VBO,3.665012,51.548024
Wijngaardstraat,1,B,,4351AP,Veere,Veere,Zeeland,VBO,3.665057,51.547971
Wijngaardstraat,1,C,,4351AP,Veere,Veere,Zeeland,VBO,3.665102,51.547936
Wijngaardstraat,1,D,,4351AP,Veere,Veere,Zeeland,VBO,3.665161,51.547892
Wijngaardstraat,2,,,4351AP,Veere,Veere,Zeeland,VBO,3.665778,51.547718
Wijngaardstraat,3,,,4351AP,Veere,Veere,Zeeland,VBO,3.665301,51.547740
Wijngaardstraat,4,,,4351AP,Veere,Veere,Zeeland,VBO,3.665903,51.547678
Wijngaardstraat,5,,,4351AP,Veere,Veere,Zeeland,VBO,3.665428,51.547698
Wijngaardstraat,7,,,4351AP,Veere,Veere,Zeeland,VBO,3.665531,51.547645
Wijngaardstraat,8,,,4351AP,Veere,Veere,Zeeland,VBO,3.665962,51.547697
Wijngaardstraat,9,,,4351AP,Veere,Veere,Zeeland,VBO,3.665663,51.547575
Wijngaardstraat,11,,,4351AP,Veere,Veere,Zeeland,VBO,3.665722,51.547549
Wijngaardstraat,13,,,4351AP,Veere,Veere,Zeeland,VBO,3.665781,51.547514
Wijngaardstraat,15,,,4351AP,Veere,Veere,Zeeland,VBO,3.665840,51.547479
Wijngaardstraat,17,,,4351AP,Veere,Veere,Zeeland,VBO,3.665913,51.547444
Wijngaardstraat,19,,,4351AP,Veere,Veere,Zeeland,VBO,3.666031,51.547383
Wijngaardstraat,21,,,4351AP,Veere,Veere,Zeeland,VBO,3.666120,51.547321
Wijngaardstraat,23,,,4351AP,Veere,Veere,Zeeland,VBO,3.666415,51.547137
Baljuwstraat,1,,,4351AR,Veere,Veere,Zeeland,VBO,3.665522,51.547510
Baljuwstraat,2,,,4351AR,Veere,Veere,Zeeland,VBO,3.665034,51.547440
Baljuwstraat,4,,,4351AR,Veere,Veere,Zeeland,VBO,3.664963,51.547403
Baljuwstraat,5,,,4351AR,Veere,Veere,Zeeland,VBO,3.665410,51.547401
Baljuwstraat,6,,,4351AR,Veere,Veere,Zeeland,VBO,3.664892,51.547375
Baljuwstraat,7,,,4351AR,Veere,Veere,Zeeland,VBO,3.665340,51.547364
Baljuwstraat,9,,,4351AR,Veere,Veere,Zeeland,VBO,3.665254,51.547336
Baljuwstraat,11,,,4351AR,Veere,Veere,Zeeland,VBO,3.664969,51.547241
Oudestraat,1,,,4351AS,Veere,Veere,Zeeland,VBO,3.670243,51.548488
Oudestraat,3,,,4351AS,Veere,Veere,Zeeland,VBO,3.670158,51.548460
Oudestraat,9,,,4351AS,Veere,Veere,Zeeland,VBO,3.669894,51.548186
Oudestraat,11,,,4351AS,Veere,Veere,Zeeland,VBO,3.669670,51.548003
Oudestraat,13,,,4351AS,Veere,Veere,Zeeland,VBO,3.669600,51.547957
Oudestraat,15,,,4351AS,Veere,Veere,Zeeland,VBO,3.669472,51.547901
Oudestraat,17,,,4351AS,Veere,Veere,Zeeland,VBO,3.669416,51.547873
Oudestraat,19,A,,4351AS,Veere,Veere,Zeeland,VBO,3.669319,51.547804
Oudestraat,19,,,4351AS,Veere,Veere,Zeeland,VBO,3.669359,51.547837
Oudestraat,21,,,4351AS,Veere,Veere,Zeeland,VBO,3.669246,51.547772
Oudestraat,23,,,4351AS,Veere,Veere,Zeeland,VBO,3.669161,51.547735
Oudestraat,25,,,4351AS,Veere,Veere,Zeeland,VBO,3.669091,51.547689
Oudestraat,27,,,4351AS,Veere,Veere,Zeeland,VBO,3.669035,51.547652
Oudestraat,29,,,4351AS,Veere,Veere,Zeeland,VBO,3.668978,51.547624
Oudestraat,31,,,4351AT,Veere,Veere,Zeeland,VBO,3.668822,51.547550
Oudestraat,33,,,4351AT,Veere,Veere,Zeeland,VBO,3.668765,51.547522
Oudestraat,35,,,4351AT,Veere,Veere,Zeeland,VBO,3.668724,51.547477
Oudestraat,37,,,4351AT,Veere,Veere,Zeeland,VBO,3.668577,51.547429
Oudestraat,39,,,4351AT,Veere,Veere,Zeeland,VBO,3.668514,51.547366
Oudestraat,41,,,4351AT,Veere,Veere,Zeeland,VBO,3.668399,51.547292
Oudestraat,43,,,4351AT,Veere,Veere,Zeeland,VBO,3.668329,51.547237
Oudestraat,45,,,4351AT,Veere,Veere,Zeeland,VBO,3.668422,51.547093
Oudestraat,51,,,4351AT,Veere,Veere,Zeeland,VBO,3.667355,51.546683
Oudestraat,53,,,4351AT,Veere,Veere,Zeeland,VBO,3.667327,51.546674
Oudestraat,55,,,4351AT,Veere,Veere,Zeeland,VBO,3.667212,51.546663
Oudestraat,59,,,4351AT,Veere,Veere,Zeeland,VBO,3.667070,51.546607
Oudestraat,14,,,4351AV,Veere,Veere,Zeeland,VBO,3.668505,51.547536
Oudestraat,16,,,4351AV,Veere,Veere,Zeeland,VBO,3.668377,51.547507
Oudestraat,18,,,4351AV,Veere,Veere,Zeeland,VBO,3.668350,51.547462
Oudestraat,20,A,,4351AV,Veere,Veere,Zeeland,VBO,3.668078,51.547570
Oudestraat,20,,,4351AV,Veere,Veere,Zeeland,VBO,3.668308,51.547426
Oudestraat,22,,,4351AV,Veere,Veere,Zeeland,VBO,3.668251,51.547398
Oudestraat,24,,,4351AV,Veere,Veere,Zeeland,VBO,3.668194,51.547383
Oudestraat,26,,,4351AV,Veere,Veere,Zeeland,VBO,3.667511,51.547144
Oudestraat,28,,,4351AV,Veere,Veere,Zeeland,VBO,3.666779,51.546684
Oude Wacht,2,,,4351AW,Veere,Veere,Zeeland,VBO,3.667024,51.546292
Oude Wacht,4,,,4351AW,Veere,Veere,Zeeland,VBO,3.667043,51.546166
Stadhuisstraat,1,,,4351AX,Veere,Veere,Zeeland,VBO,3.666855,51.548474
Stadhuisstraat,2,,,4351AX,Veere,Veere,Zeeland,VBO,3.666814,51.548788
Oranjeplein,2,,,4351AZ,Veere,Veere,Zeeland,VBO,3.669372,51.549410
Wagenaarstraat,1,,,4351BA,Veere,Veere,Zeeland,VBO,3.663540,51.547670
Wagenaarstraat,3,,,4351BA,Veere,Veere,Zeeland,VBO,3.663629,51.547599
Wagenaarstraat,5,,,4351BA,Veere,Veere,Zeeland,VBO,3.663688,51.547564
Wagenaarstraat,7,,,4351BA,Veere,Veere,Zeeland,VBO,3.663777,51.547503
Wagenaarstraat,9,,,4351BA,Veere,Veere,Zeeland,VBO,3.663866,51.547450
Wagenaarstraat,11,,,4351BA,Veere,Veere,Zeeland,VBO,3.663970,51.547362
Wagenaarstraat,13,,,4351BA,Veere,Veere,Zeeland,VBO,3.664072,51.547318
Wagenaarstraat,15,,,4351BA,Veere,Veere,Zeeland,VBO,3.664247,51.547267
Wagenaarstraat,17,,,4351BA,Veere,Veere,Zeeland,VBO,3.664379,51.547215
Wagenaarstraat,19,,,4351BA,Veere,Veere,Zeeland,VBO,3.664496,51.547172
Wagenaarstraat,21,,,4351BA,Veere,Veere,Zeeland,VBO,3.664598,51.547137
Wagenaarstraat,23,,,4351BA,Veere,Veere,Zeeland,VBO,3.664672,51.547102
Wagenaarstraat,25,,,4351BA,Veere,Veere,Zeeland,VBO,3.664746,51.547040
Wagenaarstraat,27,,,4351BA,Veere,Veere,Zeeland,VBO,3.664819,51.547015
Wagenaarstraat,29,,,4351BA,Veere,Veere,Zeeland,VBO,3.664908,51.546971
Wagenaarstraat,31,,,4351BB,Veere,Veere,Zeeland,VBO,3.664995,51.546936
Wagenaarstraat,33,,,4351BB,Veere,Veere,Zeeland,VBO,3.665069,51.546892
Wagenaarstraat,35,,,4351BB,Veere,Veere,Zeeland,VBO,3.665216,51.546832
Wagenaarstraat,37,,,4351BB,Veere,Veere,Zeeland,VBO,3.665289,51.546797
Wagenaarstraat,39,,,4351BB,Veere,Veere,Zeeland,VBO,3.665377,51.546753
Wagenaarstraat,41,,,4351BB,Veere,Veere,Zeeland,VBO,3.665451,51.546718
Wagenaarstraat,43,,,4351BB,Veere,Veere,Zeeland,VBO,3.665567,51.546684
Wagenaarstraat,47,,,4351BB,Veere,Veere,Zeeland,VBO,3.665759,51.546561
Wagenaarstraat,49,,,4351BB,Veere,Veere,Zeeland,VBO,3.665861,51.546553
Wagenaarstraat,51,,,4351BB,Veere,Veere,Zeeland,VBO,3.666192,51.546423
Wagenaarstraat,53,,,4351BB,Veere,Veere,Zeeland,VBO,3.666178,51.546558
Wagenaarstraat,55,,,4351BB,Veere,Veere,Zeeland,VBO,3.666322,51.546542
Wagenaarstraat,2,,,4351BC,Veere,Veere,Zeeland,VBO,3.663814,51.547683
Wagenaarstraat,4,,,4351BC,Veere,Veere,Zeeland,VBO,3.663916,51.547631
Wagenaarstraat,6,,,4351BC,Veere,Veere,Zeeland,VBO,3.663962,51.547568
Wagenaarstraat,8,,,4351BC,Veere,Veere,Zeeland,VBO,3.664050,51.547525
Wagenaarstraat,10,,,4351BC,Veere,Veere,Zeeland,VBO,3.664124,51.547481
Wagenaarstraat,12,A,,4351BC,Veere,Veere,Zeeland,VBO,3.664540,51.547595
Wagenaarstraat,12,,,4351BC,Veere,Veere,Zeeland,VBO,3.664271,51.547411
Wagenaarstraat,14,,,4351BC,Veere,Veere,Zeeland,VBO,3.664495,51.547358
Wagenaarstraat,16,,,4351BC,Veere,Veere,Zeeland,VBO,3.664563,51.547307
Wagenaarstraat,18,,,4351BC,Veere,Veere,Zeeland,VBO,3.664665,51.547291
Wagenaarstraat,22,,,4351BC,Veere,Veere,Zeeland,VBO,3.664959,51.547142
Wagenaarstraat,24,,,4351BC,Veere,Veere,Zeeland,VBO,3.665032,51.547099
Wagenaarstraat,26,,,4351BC,Veere,Veere,Zeeland,VBO,3.665135,51.547046
Wagenaarstraat,28,,,4351BC,Veere,Veere,Zeeland,VBO,3.665223,51.547011
Wagenaarstraat,30,,,4351BC,Veere,Veere,Zeeland,VBO,3.665297,51.546977
Wagenaarstraat,34,,,4351BC,Veere,Veere,Zeeland,VBO,3.665561,51.546846
Wagenaarstraat,36,,,4351BC,Veere,Veere,Zeeland,VBO,3.665679,51.546793
Wagenaarstraat,38,,,4351BC,Veere,Veere,Zeeland,VBO,3.666136,51.546899
Wagenaarstraat,40,,,4351BC,Veere,Veere,Zeeland,VBO,3.666071,51.546700
Mijnsherenstraat,1,,,4351BD,Veere,Veere,Zeeland,VBO,3.662480,51.547492
Warwijcksestraat,1,,,4351BE,Veere,Veere,Zeeland,VBO,3.662991,51.548084
Warwijcksestraat,2,,,4351BE,Veere,Veere,Zeeland,VBO,3.662858,51.548172
Warwijcksestraat,3,,,4351BE,Veere,Veere,Zeeland,VBO,3.662890,51.548074
Warwijcksestraat,4,,,4351BE,Veere,Veere,Zeeland,VBO,3.662714,51.548161
Warwijcksestraat,5,,,4351BE,Veere,Veere,Zeeland,VBO,3.662804,51.548055
Warwijcksestraat,6,,,4351BE,Veere,Veere,Zeeland,VBO,3.662354,51.548138
Warwijcksestraat,8,A,,4351BE,Veere,Veere,Zeeland,VBO,3.662111,51.548089
Warwijcksestraat,8,,,4351BE,Veere,Veere,Zeeland,VBO,3.662240,51.548118
Warwijcksestraat,9,,,4351BE,Veere,Veere,Zeeland,VBO,3.662603,51.548034
Warwijcksestraat,10,,,4351BE,Veere,Veere,Zeeland,VBO,3.661923,51.548096
Warwijcksestraat,11,,,4351BE,Veere,Veere,Zeeland,VBO,3.662503,51.548023
Warwijcksestraat,12,,,4351BE,Veere,Veere,Zeeland,VBO,3.661836,51.548112
Warwijcksestraat,13,,,4351BE,Veere,Veere,Zeeland,VBO,3.662417,51.548013
Warwijcksestraat,14,,,4351BE,Veere,Veere,Zeeland,VBO,3.661589,51.548154
Warwijcksestraat,15,,,4351BE,Veere,Veere,Zeeland,VBO,3.662331,51.547994
Warwijcksestraat,16,,,4351BE,Veere,Veere,Zeeland,VBO,3.660977,51.549484
Warwijcksestraat,17,,,4351BE,Veere,Veere,Zeeland,VBO,3.662231,51.547974
Warwijcksestraat,18,,,4351BE,Veere,Veere,Zeeland,VBO,3.661193,51.548346
Warwijcksestraat,19,,,4351BE,Veere,Veere,Zeeland,VBO,3.662073,51.547945
Warwijcksestraat,21,,,4351BE,Veere,Veere,Zeeland,VBO,3.661857,51.547951
Warwijcksestraat,23,,,4351BE,Veere,Veere,Zeeland,VBO,3.661654,51.547984
Warwijcksestraat,25,,,4351BE,Veere,Veere,Zeeland,VBO,3.661420,51.548061
Warwijcksestraat,27,,,4351BE,Veere,Veere,Zeeland,VBO,3.661172,51.548129
Warwijcksestraat,29,,,4351BE,Veere,Veere,Zeeland,VBO,3.661028,51.548136
Warwijcksestraat,31,,,4351BE,Veere,Veere,Zeeland,VBO,3.660912,51.548144
Bastion,2,,,4351BG,Veere,Veere,Zeeland,VBO,3.666407,51.549627
Bastion,6,,,4351BG,Veere,Veere,Zeeland,VBO,3.665838,51.549421
Bastion,10,,,4351BG,Veere,Veere,Zeeland,VBO,3.665249,51.549376
Bastion,12,,,4351BG,Veere,Veere,Zeeland,VBO,3.665296,51.549269
Bastion,14,,,4351BG,Veere,Veere,Zeeland,VBO,3.665152,51.549276
Bastion,16,,,4351BG,Veere,Veere,Zeeland,VBO,3.665066,51.549257
Bastion,24,,,4351BG,Veere,Veere,Zeeland,VBO,3.663465,51.548892
Bastion,26,,,4351BG,Veere,Veere,Zeeland,VBO,3.663322,51.548844
Bastion,28,,,4351BG,Veere,Veere,Zeeland,VBO,3.663121,51.548832
Bastion,30,,,4351BG,Veere,Veere,Zeeland,VBO,3.663006,51.548831
Kwartierstraat,1,,,4351BH,Veere,Veere,Zeeland,VBO,3.664569,51.547910
Kwartierstraat,3,,,4351BH,Veere,Veere,Zeeland,VBO,3.664498,51.547891
Kwartierstraat,5,,,4351BH,Veere,Veere,Zeeland,VBO,3.664426,51.547872
Kwartierstraat,7,,,4351BH,Veere,Veere,Zeeland,VBO,3.664355,51.547862
Kwartierstraat,9,,,4351BH,Veere,Veere,Zeeland,VBO,3.664283,51.547843
Veerseweg,51,,,4351NA,Veere,Veere,Zeeland,VBO,3.657832,51.540411
Veerseweg,53,,,4351NA,Veere,Veere,Zeeland,VBO,3.657702,51.540427
Veerseweg,55,,,4351NA,Veere,Veere,Zeeland,VBO,3.657528,51.540452
Veerseweg,57,,,4351NA,Veere,Veere,Zeeland,VBO,3.657325,51.540476
Veerseweg,59,,,4351NA,Veere,Veere,Zeeland,VBO,3.656993,51.540489
Veerseweg,61,,,4351NA,Veere,Veere,Zeeland,VBO,3.656764,51.540449
Veerseweg,63,,,4351NA,Veere,Veere,Zeeland,VBO,3.656678,51.540430
Veerseweg,65,,,4351NA,Veere,Veere,Zeeland,VBO,3.656593,51.540402
Veerseweg,67,,,4351NA,Veere,Veere,Zeeland,VBO,3.656493,51.540364
Veerseweg,69,,,4351NA,Veere,Veere,Zeeland,VBO,3.656423,51.540327
Veerseweg,71,A,,4351NA,Veere,Veere,Zeeland,VBO,3.656239,51.540235
Veerseweg,71,,,4351NA,Veere,Veere,Zeeland,VBO,3.656337,51.540299
Veerseweg,73,,,4351NA,Veere,Veere,Zeeland,VBO,3.656140,51.540188
Veerseweg,75,,,4351NA,Veere,Veere,Zeeland,VBO,3.656083,51.540152
Veerseweg,77,,,4351NA,Veere,Veere,Zeeland,VBO,3.655970,51.540096
Veerseweg,79,,,4351NA,Veere,Veere,Zeeland,VBO,3.655858,51.540013
Veerseweg,81,,,4351NA,Veere,Veere,Zeeland,VBO,3.655760,51.539940
Veerseweg,83,A,,4351NA,Veere,Veere,Zeeland,VBO,3.655650,51.539408
Veerseweg,83,,,4351NA,Veere,Veere,Zeeland,VBO,3.655676,51.539867
Veerseweg,32,A,,4351NB,Veere,Veere,Zeeland,VBO,3.658118,51.540558
Veerseweg,34,,,4351NB,Veere,Veere,Zeeland,VBO,3.658100,51.540568
Veerseweg,36,,,4351NB,Veere,Veere,Zeeland,VBO,3.657955,51.540584
Veerseweg,38,,,4351NB,Veere,Veere,Zeeland,VBO,3.657739,51.540599
Veerseweg,40,,,4351NB,Veere,Veere,Zeeland,VBO,3.657652,51.540606
Veerseweg,44,,,4351NB,Veere,Veere,Zeeland,VBO,3.657478,51.540640
Veerseweg,46,,,4351NB,Veere,Veere,Zeeland,VBO,3.657405,51.540648
Veerseweg,48,,,4351NB,Veere,Veere,Zeeland,VBO,3.657217,51.540663
Veerseweg,52,,,4351NB,Veere,Veere,Zeeland,VBO,3.656945,51.540623
Veerseweg,54,,,4351NB,Veere,Veere,Zeeland,VBO,3.656772,51.540611
Veerseweg,60,,,4351NB,Veere,Veere,Zeeland,VBO,3.656558,51.540563
Oude Bosweg,1,,,4351NC,Veere,Veere,Zeeland,VBO,3.657104,51.540976
Oude Bosweg,2,,,4351NC,Veere,Veere,Zeeland,VBO,3.656672,51.540969
Oude Bosweg,3,,,4351NC,Veere,Veere,Zeeland,VBO,3.657370,51.541951
Oude Bosweg,3,,,4351NC,Veere,Veere,Zeeland,VBO,3.657436,51.541832
Oude Bosweg,5,,,4351NC,Veere,Veere,Zeeland,VBO,3.657147,51.542891
Bastiaan de Langestraat,1,A,,4351ND,Veere,Veere,Zeeland,VBO,3.657562,51.539931
Bastiaan de Langestraat,1,B,,4351ND,Veere,Veere,Zeeland,VBO,3.657562,51.539931
Bastiaan de Langestraat,1,C,,4351ND,Veere,Veere,Zeeland,VBO,3.657663,51.539923
Bastiaan de Langestraat,1,D,,4351ND,Veere,Veere,Zeeland,VBO,3.657206,51.540195
Bastiaan de Langestraat,1,E,,4351ND,Veere,Veere,Zeeland,VBO,3.657178,51.540186
Bastiaan de Langestraat,1,,,4351ND,Veere,Veere,Zeeland,VBO,3.657650,51.539905
Bastiaan de Langestraat,3,A,,4351ND,Veere,Veere,Zeeland,VBO,3.657416,51.539983
Bastiaan de Langestraat,3,,,4351ND,Veere,Veere,Zeeland,VBO,3.657489,51.539957
Bastiaan de Langestraat,5,,,4351ND,Veere,Veere,Zeeland,VBO,3.657249,51.539836
Bastiaan de Langestraat,7,,,4351ND,Veere,Veere,Zeeland,VBO,3.657207,51.539791
Bastiaan de Langestraat,9,,,4351ND,Veere,Veere,Zeeland,VBO,3.657166,51.539736
Bastiaan de Langestraat,11,,,4351ND,Veere,Veere,Zeeland,VBO,3.657110,51.539690
Bastiaan de Langestraat,13,,,4351ND,Veere,Veere,Zeeland,VBO,3.657083,51.539645
Bastiaan de Langestraat,15,,,4351ND,Veere,Veere,Zeeland,VBO,3.657027,51.539590
Bastiaan de Langestraat,17,,,4351ND,Veere,Veere,Zeeland,VBO,3.656945,51.539490
Bastiaan de Langestraat,19,,,4351ND,Veere,Veere,Zeeland,VBO,3.656903,51.539445
Bastiaan de Langestraat,21,,,4351ND,Veere,Veere,Zeeland,VBO,3.656862,51.539390
Bastiaan de Langestraat,23,,,4351ND,Veere,Veere,Zeeland,VBO,3.656820,51.539344
Bastiaan de Langestraat,25,,,4351ND,Veere,Veere,Zeeland,VBO,3.656545,51.538999
Bastiaan de Langestraat,27,,,4351ND,Veere,Veere,Zeeland,VBO,3.656489,51.538953
Bastiaan de Langestraat,29,,,4351ND,Veere,Veere,Zeeland,VBO,3.656448,51.538898
Bastiaan de Langestraat,31,,,4351ND,Veere,Veere,Zeeland,VBO,3.656407,51.538853
Bastiaan de Langestraat,32,A,,4351ND,Veere,Veere,Zeeland,VBO,3.656061,51.539612
Bastiaan de Langestraat,32,C,,4351ND,Veere,Veere,Zeeland,VBO,3.656102,51.539657
Bastiaan de Langestraat,32,E,,4351ND,Veere,Veere,Zeeland,VBO,3.656188,51.539686
Bastiaan de Langestraat,32,G,,4351ND,Veere,Veere,Zeeland,VBO,3.656244,51.539713
Bastiaan de Langestraat,32,I,,4351ND,Veere,Veere,Zeeland,VBO,3.656315,51.539750
Bastiaan de Langestraat,33,,,4351ND,Veere,Veere,Zeeland,VBO,3.656298,51.538671
Bastiaan de Langestraat,35,,,4351ND,Veere,Veere,Zeeland,VBO,3.656371,51.538646
Bastiaan de Langestraat,37,,,4351ND,Veere,Veere,Zeeland,VBO,3.656459,51.538620
Bastiaan de Langestraat,39,,,4351ND,Veere,Veere,Zeeland,VBO,3.656532,51.538594
Bastiaan de Langestraat,41,,,4351ND,Veere,Veere,Zeeland,VBO,3.656605,51.538568
Bastiaan de Langestraat,43,,,4351ND,Veere,Veere,Zeeland,VBO,3.656693,51.538533
Bastiaan de Langestraat,2,,,4351NE,Veere,Veere,Zeeland,VBO,3.657080,51.540112
Bastiaan de Langestraat,4,,,4351NE,Veere,Veere,Zeeland,VBO,3.657009,51.540084
Bastiaan de Langestraat,6,,,4351NE,Veere,Veere,Zeeland,VBO,3.656967,51.540048
Bastiaan de Langestraat,8,,,4351NE,Veere,Veere,Zeeland,VBO,3.656910,51.540011
Bastiaan de Langestraat,10,,,4351NE,Veere,Veere,Zeeland,VBO,3.656886,51.539903
Bastiaan de Langestraat,12,,,4351NE,Veere,Veere,Zeeland,VBO,3.656815,51.539866
Bastiaan de Langestraat,14,,,4351NE,Veere,Veere,Zeeland,VBO,3.656773,51.539829
Bastiaan de Langestraat,16,,,4351NE,Veere,Veere,Zeeland,VBO,3.656731,51.539793
Bastiaan de Langestraat,18,,,4351NE,Veere,Veere,Zeeland,VBO,3.656660,51.539765
Bastiaan de Langestraat,20,,,4351NE,Veere,Veere,Zeeland,VBO,3.656680,51.539630
Bastiaan de Langestraat,22,,,4351NE,Veere,Veere,Zeeland,VBO,3.656623,51.539602
Bastiaan de Langestraat,24,,,4351NE,Veere,Veere,Zeeland,VBO,3.656567,51.539565
Bastiaan de Langestraat,26,,,4351NE,Veere,Veere,Zeeland,VBO,3.656511,51.539529
Bastiaan de Langestraat,28,,,4351NE,Veere,Veere,Zeeland,VBO,3.656454,51.539501
Bastiaan de Langestraat,30,,,4351NE,Veere,Veere,Zeeland,VBO,3.656398,51.539464
Bastiaan de Langestraat,32,B,,4351NE,Veere,Veere,Zeeland,VBO,3.656074,51.539639
Bastiaan de Langestraat,32,D,,4351NE,Veere,Veere,Zeeland,VBO,3.656141,51.539674
Bastiaan de Langestraat,32,F,,4351NE,Veere,Veere,Zeeland,VBO,3.656216,51.539704
Bastiaan de Langestraat,32,H,,4351NE,Veere,Veere,Zeeland,VBO,3.656287,51.539732
Bastiaan de Langestraat,32,J,,4351NE,Veere,Veere,Zeeland,VBO,3.656328,51.539778
Erasmusstraat,2,,,4351NG,Veere,Veere,Zeeland,VBO,3.656698,51.539163
Erasmusstraat,4,,,4351NG,Veere,Veere,Zeeland,VBO,3.656785,51.539128
Erasmusstraat,6,,,4351NG,Veere,Veere,Zeeland,VBO,3.656858,51.539111
Erasmusstraat,8,,,4351NG,Veere,Veere,Zeeland,VBO,3.656932,51.539076
Erasmusstraat,10,,,4351NG,Veere,Veere,Zeeland,VBO,3.657019,51.539051
Erasmusstraat,12,,,4351NG,Veere,Veere,Zeeland,VBO,3.657107,51.539025
Frans Naereboutstraat,1,A,,4351NH,Veere,Veere,Zeeland,VBO,3.658120,51.539307
Frans Naereboutstraat,1,,,4351NH,Veere,Veere,Zeeland,VBO,3.657738,51.539861
Frans Naereboutstraat,2,A,,4351NH,Veere,Veere,Zeeland,VBO,3.657709,51.539852
Frans Naereboutstraat,2,,,4351NH,Veere,Veere,Zeeland,VBO,3.657701,51.539699
Frans Naereboutstraat,3,A,,4351NH,Veere,Veere,Zeeland,VBO,3.657696,51.539816
Frans Naereboutstraat,3,,,4351NH,Veere,Veere,Zeeland,VBO,3.658212,51.539518
Frans Naereboutstraat,4,A,,4351NH,Veere,Veere,Zeeland,VBO,3.657697,51.539789
Frans Naereboutstraat,4,,,4351NH,Veere,Veere,Zeeland,VBO,3.657660,51.539645
Frans Naereboutstraat,5,,,4351NH,Veere,Veere,Zeeland,VBO,3.657622,51.539114
Frans Naereboutstraat,6,,,4351NH,Veere,Veere,Zeeland,VBO,3.657618,51.539590
Frans Naereboutstraat,7,,,4351NH,Veere,Veere,Zeeland,VBO,3.657581,51.539068
Frans Naereboutstraat,8,,,4351NH,Veere,Veere,Zeeland,VBO,3.657577,51.539544
Frans Naereboutstraat,9,,,4351NH,Veere,Veere,Zeeland,VBO,3.657514,51.538932
Frans Naereboutstraat,10,,,4351NH,Veere,Veere,Zeeland,VBO,3.657494,51.539444
Frans Naereboutstraat,11,,,4351NH,Veere,Veere,Zeeland,VBO,3.657429,51.538877
Frans Naereboutstraat,12,,,4351NH,Veere,Veere,Zeeland,VBO,3.657453,51.539399
Frans Naereboutstraat,14,,,4351NH,Veere,Veere,Zeeland,VBO,3.657397,51.539344
Frans Naereboutstraat,16,,,4351NH,Veere,Veere,Zeeland,VBO,3.657356,51.539298
Frans Naereboutstraat,18,,,4351NH,Veere,Veere,Zeeland,VBO,3.657314,51.539244
Frans Naereboutstraat,20,,,4351NH,Veere,Veere,Zeeland,VBO,3.657265,51.539214
Frans Naereboutstraat,22,,,4351NH,Veere,Veere,Zeeland,VBO,3.656983,51.538852
Frans Naereboutstraat,24,,,4351NH,Veere,Veere,Zeeland,VBO,3.656942,51.538807
Frans Naereboutstraat,26,,,4351NH,Veere,Veere,Zeeland,VBO,3.656901,51.538752
Frans Naereboutstraat,28,,,4351NH,Veere,Veere,Zeeland,VBO,3.656845,51.538706
Valeriusstraat,1,,,4351NK,Veere,Veere,Zeeland,VBO,3.657265,51.538659
Valeriusstraat,3,,,4351NK,Veere,Veere,Zeeland,VBO,3.657353,51.538624
Valeriusstraat,5,,,4351NK,Veere,Veere,Zeeland,VBO,3.657513,51.538573
Valeriusstraat,7,,,4351NK,Veere,Veere,Zeeland,VBO,3.657586,51.538547
Valeriusstraat,9,,,4351NK,Veere,Veere,Zeeland,VBO,3.657747,51.538486
Valeriusstraat,11,,,4351NK,Veere,Veere,Zeeland,VBO,3.657820,51.538469
Valeriusstraat,13,,,4351NK,Veere,Veere,Zeeland,VBO,3.657980,51.538418
Valeriusstraat,15,,,4351NK,Veere,Veere,Zeeland,VBO,3.658054,51.538383
Valeriusstraat,17,,,4351NK,Veere,Veere,Zeeland,VBO,3.658229,51.538331
Valeriusstraat,19,,,4351NK,Veere,Veere,Zeeland,VBO,3.658302,51.538305
Valeriusstraat,21,,,4351NK,Veere,Veere,Zeeland,VBO,3.658619,51.538301
Valeriusstraat,23,,,4351NK,Veere,Veere,Zeeland,VBO,3.658660,51.538356
Valeriusstraat,25,,,4351NK,Veere,Veere,Zeeland,VBO,3.658773,51.538429
Valeriusstraat,27,,,4351NK,Veere,Veere,Zeeland,VBO,3.658828,51.538484
Valeriusstraat,29,,,4351NK,Veere,Veere,Zeeland,VBO,3.659095,51.538668
Valeriusstraat,31,,,4351NK,Veere,Veere,Zeeland,VBO,3.659151,51.538723
Valeriusstraat,33,,,4351NK,Veere,Veere,Zeeland,VBO,3.659263,51.538796
Valeriusstraat,35,,,4351NK,Veere,Veere,Zeeland,VBO,3.659319,51.538860
Valeriusstraat,37,,,4351NK,Veere,Veere,Zeeland,VBO,3.659431,51.538925
Valeriusstraat,39,,,4351NK,Veere,Veere,Zeeland,VBO,3.659501,51.538989
Valeriusstraat,41,,,4351NK,Veere,Veere,Zeeland,VBO,3.659599,51.539062
Valeriusstraat,43,,,4351NK,Veere,Veere,Zeeland,VBO,3.659669,51.539126
Valeriusstraat,45,,,4351NK,Veere,Veere,Zeeland,VBO,3.659782,51.539190
Valeriusstraat,47,,,4351NK,Veere,Veere,Zeeland,VBO,3.659837,51.539254
Valeriusstraat,2,,,4351NL,Veere,Veere,Zeeland,VBO,3.657102,51.538396
Valeriusstraat,4,,,4351NL,Veere,Veere,Zeeland,VBO,3.657393,51.538310
Valeriusstraat,6,,,4351NL,Veere,Veere,Zeeland,VBO,3.657686,51.538206
Valeriusstraat,8,,,4351NL,Veere,Veere,Zeeland,VBO,3.657963,51.538121
Valeriusstraat,10,,,4351NL,Veere,Veere,Zeeland,VBO,3.658197,51.538034
Valeriusstraat,12,,,4351NL,Veere,Veere,Zeeland,VBO,3.658475,51.537930
Valeriusstraat,14,,,4351NL,Veere,Veere,Zeeland,VBO,3.658789,51.537998
Valeriusstraat,16,,,4351NL,Veere,Veere,Zeeland,VBO,3.658971,51.538145
Valeriusstraat,18,,,4351NL,Veere,Veere,Zeeland,VBO,3.659138,51.538300
Valeriusstraat,20,,,4351NL,Veere,Veere,Zeeland,VBO,3.659390,51.538492
Valeriusstraat,22,,,4351NL,Veere,Veere,Zeeland,VBO,3.659587,51.538639
Valeriusstraat,24,,,4351NL,Veere,Veere,Zeeland,VBO,3.659783,51.538786
Valeriusstraat,26,,,4351NL,Veere,Veere,Zeeland,VBO,3.659979,51.538933
Valeriusstraat,28,,,4351NL,Veere,Veere,Zeeland,VBO,3.660203,51.539107
Kerkhofring,1,,,4351NM,Veere,Veere,Zeeland,VBO,3.658238,51.539608
Zanddijkseweg,1,A,,4351NN,Veere,Veere,Zeeland,VBO,3.659126,51.539765
Zanddijkseweg,1,,,4351NN,Veere,Veere,Zeeland,VBO,3.659052,51.539800
Zanddijkseweg,2,,,4351NN,Veere,Veere,Zeeland,VBO,3.658697,51.540424
Zanddijkseweg,3,A,,4351NN,Veere,Veere,Zeeland,VBO,3.659345,51.539669
Zanddijkseweg,3,,,4351NN,Veere,Veere,Zeeland,VBO,3.659272,51.539704
Zanddijkseweg,4,A,,4351NN,Veere,Veere,Zeeland,VBO,3.659734,51.539830
Zanddijkseweg,4,,,4351NN,Veere,Veere,Zeeland,VBO,3.658906,51.540238
Zanddijkseweg,5,A,,4351NN,Veere,Veere,Zeeland,VBO,3.659757,51.539460
Zanddijkseweg,5,,,4351NN,Veere,Veere,Zeeland,VBO,3.659684,51.539486
Zanddijkseweg,6,A,,4351NN,Veere,Veere,Zeeland,VBO,3.660214,51.539583
Zanddijkseweg,6,B,,4351NN,Veere,Veere,Zeeland,VBO,3.660273,51.539539
Zanddijkseweg,6,C,,4351NN,Veere,Veere,Zeeland,VBO,3.660565,51.539568
Zanddijkseweg,6,,,4351NN,Veere,Veere,Zeeland,VBO,3.659975,51.539761
van Borselelaan,2,A,,4351NP,Veere,Veere,Zeeland,VBO,3.662119,51.539917
van Borselelaan,2,B,,4351NP,Veere,Veere,Zeeland,VBO,3.662133,51.539917
van Borselelaan,4,A,,4351NP,Veere,Veere,Zeeland,VBO,3.662236,51.539874
van Borselelaan,4,B,,4351NP,Veere,Veere,Zeeland,VBO,3.662265,51.539865
van Borselelaan,6,A,,4351NP,Veere,Veere,Zeeland,VBO,3.662338,51.539822
van Borselelaan,6,B,,4351NP,Veere,Veere,Zeeland,VBO,3.662353,51.539813
van Borselelaan,8,A,,4351NP,Veere,Veere,Zeeland,VBO,3.662441,51.539778
van Borselelaan,8,B,,4351NP,Veere,Veere,Zeeland,VBO,3.662427,51.539778
van Borselelaan,10,A,,4351NP,Veere,Veere,Zeeland,VBO,3.662529,51.539743
van Borselelaan,10,B,,4351NP,Veere,Veere,Zeeland,VBO,3.662529,51.539735
van Borselelaan,12,A,,4351NP,Veere,Veere,Zeeland,VBO,3.662605,51.539628
van Borselelaan,12,B,,4351NP,Veere,Veere,Zeeland,VBO,3.662619,51.539637
van Borselelaan,14,A,,4351NP,Veere,Veere,Zeeland,VBO,3.662549,51.539582
van Borselelaan,14,B,,4351NP,Veere,Veere,Zeeland,VBO,3.662563,51.539591
van Borselelaan,16,A,,4351NP,Veere,Veere,Zeeland,VBO,3.662494,51.539527
van Borselelaan,16,B,,4351NP,Veere,Veere,Zeeland,VBO,3.662508,51.539536
van Borselelaan,18,A,,4351NP,Veere,Veere,Zeeland,VBO,3.662424,51.539472
van Borselelaan,18,B,,4351NP,Veere,Veere,Zeeland,VBO,3.662452,51.539491
van Borselelaan,26,,,4351NP,Veere,Veere,Zeeland,VBO,3.662692,51.539233
van Borselelaan,28,,,4351NP,Veere,Veere,Zeeland,VBO,3.662811,51.539154
van Borselelaan,30,,,4351NP,Veere,Veere,Zeeland,VBO,3.662899,51.539120
van Borselelaan,32,,,4351NP,Veere,Veere,Zeeland,VBO,3.663031,51.539059
van Borselelaan,34,,,4351NP,Veere,Veere,Zeeland,VBO,3.663118,51.539024
van Borselelaan,36,,,4351NP,Veere,Veere,Zeeland,VBO,3.663464,51.539047
van Borselelaan,38,,,4351NP,Veere,Veere,Zeeland,VBO,3.663646,51.539185
van Borselelaan,40,,,4351NP,Veere,Veere,Zeeland,VBO,3.663826,51.539367
van Borselelaan,42,,,4351NP,Veere,Veere,Zeeland,VBO,3.663550,51.539435
van Borselelaan,1,A,,4351NR,Veere,Veere,Zeeland,VBO,3.662665,51.539943
van Borselelaan,1,,,4351NR,Veere,Veere,Zeeland,VBO,3.662607,51.539969
van Borselelaan,3,A,,4351NR,Veere,Veere,Zeeland,VBO,3.662856,51.539856
van Borselelaan,3,,,4351NR,Veere,Veere,Zeeland,VBO,3.662797,51.539882
van Borselelaan,5,,,4351NR,Veere,Veere,Zeeland,VBO,3.663163,51.539744
van Borselelaan,7,,,4351NR,Veere,Veere,Zeeland,VBO,3.663107,51.539698
van Borselelaan,9,,,4351NR,Veere,Veere,Zeeland,VBO,3.663052,51.539643
van Borselelaan,11,,,4351NR,Veere,Veere,Zeeland,VBO,3.662995,51.539607
van Borselelaan,13,,,4351NR,Veere,Veere,Zeeland,VBO,3.662901,51.539443
van Borselelaan,15,,,4351NR,Veere,Veere,Zeeland,VBO,3.662988,51.539418
van Borselelaan,17,,,4351NR,Veere,Veere,Zeeland,VBO,3.663062,51.539383
van Borselelaan,19,,,4351NR,Veere,Veere,Zeeland,VBO,3.663137,51.539294
van Borselelaan,21,,,4351NR,Veere,Veere,Zeeland,VBO,3.663196,51.539268
van Borselelaan,23,,,4351NR,Veere,Veere,Zeeland,VBO,3.663269,51.539242
van Bourgondiëlaan,4,,,4351NS,Veere,Veere,Zeeland,VBO,3.660982,51.539487
van Bourgondiëlaan,6,,,4351NS,Veere,Veere,Zeeland,VBO,3.661055,51.539452
van Bourgondiëlaan,8,,,4351NS,Veere,Veere,Zeeland,VBO,3.661100,51.539408
van Bourgondiëlaan,10,,,4351NS,Veere,Veere,Zeeland,VBO,3.661159,51.539373
van Bourgondiëlaan,12,,,4351NS,Veere,Veere,Zeeland,VBO,3.661232,51.539338
van Bourgondiëlaan,14,,,4351NS,Veere,Veere,Zeeland,VBO,3.661540,51.539216
van Bourgondiëlaan,16,,,4351NS,Veere,Veere,Zeeland,VBO,3.661470,51.539161
van Bourgondiëlaan,18,,,4351NS,Veere,Veere,Zeeland,VBO,3.661414,51.539116
van Bourgondiëlaan,20,,,4351NS,Veere,Veere,Zeeland,VBO,3.661387,51.539070
van Bourgondiëlaan,22,,,4351NS,Veere,Veere,Zeeland,VBO,3.661345,51.539025
van Bourgondiëlaan,24,,,4351NS,Veere,Veere,Zeeland,VBO,3.661289,51.538979
van Bourgondiëlaan,26,,,4351NS,Veere,Veere,Zeeland,VBO,3.661026,51.539074
van Bourgondiëlaan,28,,,4351NS,Veere,Veere,Zeeland,VBO,3.660952,51.539118
van Bourgondiëlaan,30,,,4351NS,Veere,Veere,Zeeland,VBO,3.660908,51.539153
van Bourgondiëlaan,32,,,4351NS,Veere,Veere,Zeeland,VBO,3.660820,51.539188
van Bourgondiëlaan,34,,,4351NS,Veere,Veere,Zeeland,VBO,3.661515,51.538740
van Bourgondiëlaan,36,,,4351NS,Veere,Veere,Zeeland,VBO,3.661647,51.538670
van Bourgondiëlaan,38,,,4351NS,Veere,Veere,Zeeland,VBO,3.661735,51.538635
van Bourgondiëlaan,40,,,4351NS,Veere,Veere,Zeeland,VBO,3.661881,51.538574
van Bourgondiëlaan,42,,,4351NS,Veere,Veere,Zeeland,VBO,3.661955,51.538521
van Bourgondiëlaan,44,,,4351NS,Veere,Veere,Zeeland,VBO,3.662231,51.538480
van Bourgondiëlaan,46,,,4351NS,Veere,Veere,Zeeland,VBO,3.662512,51.538664
van Bourgondiëlaan,48,,,4351NS,Veere,Veere,Zeeland,VBO,3.662370,51.538986
van Bourgondiëlaan,50,,,4351NS,Veere,Veere,Zeeland,VBO,3.662693,51.538847
van Bourgondiëlaan,52,,,4351NS,Veere,Veere,Zeeland,VBO,3.662987,51.538698
van Bourgondiëlaan,54,,,4351NS,Veere,Veere,Zeeland,VBO,3.662849,51.538535
van Bourgondiëlaan,56,,,4351NS,Veere,Veere,Zeeland,VBO,3.662681,51.538406
van Bourgondiëlaan,1,,,4351NT,Veere,Veere,Zeeland,VBO,3.661617,51.539469
van Bourgondiëlaan,3,,,4351NT,Veere,Veere,Zeeland,VBO,3.661676,51.539425
van Bourgondiëlaan,5,,,4351NT,Veere,Veere,Zeeland,VBO,3.662028,51.539260
van Bourgondiëlaan,7,,,4351NT,Veere,Veere,Zeeland,VBO,3.661987,51.539214
van Bourgondiëlaan,9,,,4351NT,Veere,Veere,Zeeland,VBO,3.661931,51.539168
van Bourgondiëlaan,11,,,4351NT,Veere,Veere,Zeeland,VBO,3.661860,51.539122
van Bourgondiëlaan,13,,,4351NT,Veere,Veere,Zeeland,VBO,3.661807,51.539005
van Bourgondiëlaan,15,,,4351NT,Veere,Veere,Zeeland,VBO,3.661751,51.538959
van Bourgondiëlaan,17,,,4351NT,Veere,Veere,Zeeland,VBO,3.662003,51.538792
van Bourgondiëlaan,19,,,4351NT,Veere,Veere,Zeeland,VBO,3.662076,51.538757
Geldelozepad,1,,,4351NW,Veere,Veere,Zeeland,VBO,3.661984,51.539664
Geldelozepad,3,,,4351NW,Veere,Veere,Zeeland,VBO,3.662043,51.539628
Geldelozepad,5,,,4351NW,Veere,Veere,Zeeland,VBO,3.662116,51.539603
Geldelozepad,7,,,4351NW,Veere,Veere,Zeeland,VBO,3.662190,51.539568
Moucheronhof,2,,,4351NX,Veere,Veere,Zeeland,VBO,3.658031,51.538976
Moucheronhof,4,,,4351NX,Veere,Veere,Zeeland,VBO,3.657990,51.538930
Moucheronhof,6,,,4351NX,Veere,Veere,Zeeland,VBO,3.657908,51.538803
Moucheronhof,8,,,4351NX,Veere,Veere,Zeeland,VBO,3.657867,51.538731
Moucheronhof,10,,,4351NX,Veere,Veere,Zeeland,VBO,3.658259,51.538682
Moucheronhof,12,,,4351NX,Veere,Veere,Zeeland,VBO,3.658536,51.538597
Oude Middelburgse Haven,2,,,4351PA,Veere,Veere,Zeeland,VBO,3.676898,51.532960
Wulpenburgseweg,4,,,4351PB,Veere,Veere,Zeeland,VBO,3.679402,51.535379
Wulpenburgseweg,6,,,4351PB,Veere,Veere,Zeeland,VBO,3.678907,51.536354
't Singeltje,1,,,4351RA,Veere,Veere,Zeeland,VBO,3.659471,51.548113
't Singeltje,3,,,4351RA,Veere,Veere,Zeeland,VBO,3.659781,51.546805
't Singeltje,5,,,4351RA,Veere,Veere,Zeeland,VBO,3.660985,51.546607
Smidspad,1,,,4351RB,Veere,Veere,Zeeland,VBO,3.662817,51.545457
Veerseweg,1,,,4351RC,Veere,Veere,Zeeland,VBO,3.666507,51.546230
Veerseweg,2,,,4351RC,Veere,Veere,Zeeland,VBO,3.665398,51.545818
Veerseweg,3,,,4351RC,Veere,Veere,Zeeland,VBO,3.666424,51.546148
Veerseweg,4,,,4351RC,Veere,Veere,Zeeland,VBO,3.665328,51.545763
Veerseweg,5,,,4351RC,Veere,Veere,Zeeland,VBO,3.665953,51.545629
Veerseweg,6,,,4351RC,Veere,Veere,Zeeland,VBO,3.665145,51.545653
Veerseweg,7,,,4351RC,Veere,Veere,Zeeland,VBO,3.665750,51.545662
Veerseweg,8,,,4351RC,Veere,Veere,Zeeland,VBO,3.665046,51.545588
Veerseweg,9,,,4351RC,Veere,Veere,Zeeland,VBO,3.665650,51.545633
Veerseweg,10,,,4351RC,Veere,Veere,Zeeland,VBO,3.664919,51.545533
Veerseweg,11,,,4351RC,Veere,Veere,Zeeland,VBO,3.665453,51.545504
Veerseweg,12,,,4351RC,Veere,Veere,Zeeland,VBO,3.664792,51.545450
Veerseweg,13,,,4351RC,Veere,Veere,Zeeland,VBO,3.665287,51.545331
Veerseweg,14,,,4351RC,Veere,Veere,Zeeland,VBO,3.664707,51.545404
Veerseweg,16,,,4351RC,Veere,Veere,Zeeland,VBO,3.664552,51.545311
Veerseweg,18,,,4351RC,Veere,Veere,Zeeland,VBO,3.664411,51.545228
Veerseweg,19,,,4351RC,Veere,Veere,Zeeland,VBO,3.664990,51.545183
Veerseweg,20,,,4351RC,Veere,Veere,Zeeland,VBO,3.664256,51.545154
Veerseweg,21,,,4351RC,Veere,Veere,Zeeland,VBO,3.664877,51.545118
Veerseweg,23,A,,4351RC,Veere,Veere,Zeeland,VBO,3.665359,51.544686
Veerseweg,23,B,,4351RC,Veere,Veere,Zeeland,VBO,3.665395,51.544757
Veerseweg,23,C,,4351RC,Veere,Veere,Zeeland,VBO,3.665395,51.544757
Veerseweg,23,D,,4351RC,Veere,Veere,Zeeland,VBO,3.665395,51.544757
Veerseweg,23,E,,4351RC,Veere,Veere,Zeeland,VBO,3.665395,51.544757
Veerseweg,23,F,,4351RC,Veere,Veere,Zeeland,VBO,3.665395,51.544757
Veerseweg,23,G,,4351RC,Veere,Veere,Zeeland,VBO,3.665395,51.544757
Veerseweg,23,H,,4351RC,Veere,Veere,Zeeland,VBO,3.665395,51.544757
Veerseweg,23,I,,4351RC,Veere,Veere,Zeeland,VBO,3.665395,51.544757
Veerseweg,23,J,,4351RC,Veere,Veere,Zeeland,VBO,3.665395,51.544757
Veerseweg,23,,,4351RC,Veere,Veere,Zeeland,VBO,3.665077,51.544984
Veerseweg,25,,,4351RC,Veere,Veere,Zeeland,VBO,3.664608,51.544980
Kanaalweg W.Z.,2,,,4351RE,Veere,Veere,Zeeland,VBO,3.666063,51.544564
Kanaalweg W.Z.,4,,,4351RE,Veere,Veere,Zeeland,VBO,3.666046,51.544507
Kanaalweg W.Z.,6,,,4351RE,Veere,Veere,Zeeland,VBO,3.666025,51.544455
Kanaalweg W.Z.,7,,,4351RE,Veere,Veere,Zeeland,VBO,3.666524,51.543267
Kanaalweg W.Z.,9,,,4351RE,Veere,Veere,Zeeland,VBO,3.666585,51.542908
Kanaalweg W.Z.,11,,,4351RE,Veere,Veere,Zeeland,VBO,3.666476,51.542058
Kanaalweg W.Z.,13,,,4351RE,Veere,Veere,Zeeland,VBO,3.666470,51.541822
Kanaalweg W.Z.,16,,,4351RE,Veere,Veere,Zeeland,VBO,3.666729,51.542011
Kanaalweg W.Z.,18,,,4351RE,Veere,Veere,Zeeland,VBO,3.666734,51.541784
Kanaalweg W.Z.,20,,,4351RE,Veere,Veere,Zeeland,VBO,3.666672,51.541624
Kanaalweg W.Z.,22,,,4351RE,Veere,Veere,Zeeland,VBO,3.666844,51.541398
Kanaalweg O.Z.,3,,,4351RG,Veere,Veere,Zeeland,VBO,3.669062,51.543885
Kanaalweg O.Z.,5,,,4351RG,Veere,Veere,Zeeland,VBO,3.669062,51.543885
Kanaalweg O.Z.,7,,,4351RG,Veere,Veere,Zeeland,VBO,3.669566,51.542634
Kanaalweg O.Z.,9,,,4351RG,Veere,Veere,Zeeland,VBO,3.669621,51.542060
Kanaalweg O.Z.,11,,,4351RG,Veere,Veere,Zeeland,VBO,3.669171,51.544058
Kanaalweg W.Z.,8,,,4351RH,Veere,Veere,Zeeland,VBO,3.665855,51.543132
Kanaalweg W.Z.,10,,,4351RH,Veere,Veere,Zeeland,VBO,3.665779,51.543099
Kanaalweg W.Z.,12,,,4351RH,Veere,Veere,Zeeland,VBO,3.665842,51.543018
Kanaalweg W.Z.,14,,,4351RH,Veere,Veere,Zeeland,VBO,3.665780,51.542980
Sluisweg,1,,,4351RJ,Veere,Veere,Zeeland,VBO,3.664529,51.542893
Sluisweg,3,,,4351RJ,Veere,Veere,Zeeland,VBO,3.664781,51.542699
Sluisweg,5,,,4351RJ,Veere,Veere,Zeeland,VBO,3.665266,51.542463
Sluisweg,7,,,4351RJ,Veere,Veere,Zeeland,VBO,3.665621,51.542234
Sluisweg,9,,,4351RJ,Veere,Veere,Zeeland,VBO,3.666162,51.542413
Veerseweg,22,,,4351RK,Veere,Veere,Zeeland,VBO,3.663558,51.543768
Veerseweg,26,,,4351RK,Veere,Veere,Zeeland,VBO,3.661198,51.542511
Veerseweg,27,,,4351RK,Veere,Veere,Zeeland,VBO,3.663784,51.543511
Veerseweg,28,,,4351RK,Veere,Veere,Zeeland,VBO,3.660647,51.542233
Veerseweg,30,,,4351RK,Veere,Veere,Zeeland,VBO,3.658847,51.541029
Veerseweg,31,,,4351RK,Veere,Veere,Zeeland,VBO,3.663462,51.543264
Veerseweg,33,,,4351RK,Veere,Veere,Zeeland,VBO,3.662837,51.543021
Veerseweg,35,,,4351RK,Veere,Veere,Zeeland,VBO,3.662612,51.542882
Veerseweg,43,,,4351RK,Veere,Veere,Zeeland,VBO,3.662270,51.542769
Veerseweg,47,,,4351RK,Veere,Veere,Zeeland,VBO,3.660726,51.541290
Sandenburghlaan,2,,,4351RL,Veere,Veere,Zeeland,VBO,3.662637,51.541444
Sandenburghlaan,1,,,4351RM,Veere,Veere,Zeeland,VBO,3.662497,51.542485
Sandenburghlaan,4,A,,4351RM,Veere,Veere,Zeeland,VBO,3.661867,51.541235
Sandenburghlaan,4,B,,4351RM,Veere,Veere,Zeeland,VBO,3.661723,51.541437
Sandenburghlaan,4,C,,4351RM,Veere,Veere,Zeeland,VBO,3.661750,51.541426
Sandenburghlaan,4,D,,4351RM,Veere,Veere,Zeeland,VBO,3.661715,51.541402
Sandenburghlaan,4,,,4351RM,Veere,Veere,Zeeland,VBO,3.661865,51.541271
Sandenburghlaan,6,A,,4351RM,Veere,Veere,Zeeland,VBO,3.661758,51.541201
Sandenburghlaan,6,B,,4351RM,Veere,Veere,Zeeland,VBO,3.661795,51.541215
Sandenburghlaan,6,C,,4351RM,Veere,Veere,Zeeland,VBO,3.661575,51.541312
Sandenburghlaan,6,D,,4351RM,Veere,Veere,Zeeland,VBO,3.661674,51.541369
Sandenburghlaan,6,E,,4351RM,Veere,Veere,Zeeland,VBO,3.661679,51.541354
Sandenburghlaan,6,F,,4351RM,Veere,Veere,Zeeland,VBO,3.661660,51.541344
Sandenburghlaan,6,,,4351RM,Veere,Veere,Zeeland,VBO,3.662293,51.541154
Sandenburghlaan,8,A,,4351RM,Veere,Veere,Zeeland,VBO,3.661670,51.541106
Sandenburghlaan,8,B,,4351RM,Veere,Veere,Zeeland,VBO,3.661689,51.541127
Sandenburghlaan,8,C,,4351RM,Veere,Veere,Zeeland,VBO,3.661557,51.541299
Sandenburghlaan,8,D,,4351RM,Veere,Veere,Zeeland,VBO,3.661536,51.541285
Sandenburghlaan,8,E,,4351RM,Veere,Veere,Zeeland,VBO,3.661542,51.541267
Sandenburghlaan,8,F,,4351RM,Veere,Veere,Zeeland,VBO,3.661513,51.541227
Sandenburghlaan,8,,,4351RM,Veere,Veere,Zeeland,VBO,3.662187,51.541077
Sandenburghlaan,10,A,,4351RM,Veere,Veere,Zeeland,VBO,3.661532,51.541611
Sandenburghlaan,10,B,,4351RM,Veere,Veere,Zeeland,VBO,3.661477,51.541594
Sandenburghlaan,10,C,,4351RM,Veere,Veere,Zeeland,VBO,3.661414,51.541850
Sandenburghlaan,10,D,,4351RM,Veere,Veere,Zeeland,VBO,3.661486,51.541838
Sandenburghlaan,10,E,,4351RM,Veere,Veere,Zeeland,VBO,3.661495,51.541821
Sandenburghlaan,10,F,,4351RM,Veere,Veere,Zeeland,VBO,3.661435,51.541806
Sandenburghlaan,10,,,4351RM,Veere,Veere,Zeeland,VBO,3.661533,51.541671
Sandenburghlaan,12,A,,4351RM,Veere,Veere,Zeeland,VBO,3.661420,51.541552
Sandenburghlaan,12,B,,4351RM,Veere,Veere,Zeeland,VBO,3.661312,51.541512
Sandenburghlaan,12,C,,4351RM,Veere,Veere,Zeeland,VBO,3.661274,51.541488
Sandenburghlaan,12,D,,4351RM,Veere,Veere,Zeeland,VBO,3.661268,51.541676
Sandenburghlaan,12,E,,4351RM,Veere,Veere,Zeeland,VBO,3.661246,51.541659
Sandenburghlaan,12,F,,4351RM,Veere,Veere,Zeeland,VBO,3.661231,51.541642
Sandenburghlaan,12,G,,4351RM,Veere,Veere,Zeeland,VBO,3.661205,51.541625
Sandenburghlaan,12,,,4351RM,Veere,Veere,Zeeland,VBO,3.661379,51.541561
Sandenburghlaan,22,,,4351RM,Veere,Veere,Zeeland,VBO,3.661892,51.540184
Sandenburghlaan,24,,,4351RM,Veere,Veere,Zeeland,VBO,3.661636,51.540099
Sandenburghlaan,26,,,4351RM,Veere,Veere,Zeeland,VBO,3.661409,51.539997
Sandenburghlaan,28,,,4351RM,Veere,Veere,Zeeland,VBO,3.661095,51.539929
Sandenburghlaan,47,,,4351RM,Veere,Veere,Zeeland,VBO,3.663226,51.540761
Sandenburghlaan,49,,,4351RM,Veere,Veere,Zeeland,VBO,3.663086,51.540633
Sandenburghlaan,51,,,4351RM,Veere,Veere,Zeeland,VBO,3.663020,51.540532
Sandenburghlaan,53,,,4351RM,Veere,Veere,Zeeland,VBO,3.662722,51.540349
Sandenburghlaan,55,,,4351RM,Veere,Veere,Zeeland,VBO,3.662652,51.540285
Sandenburghlaan,57,,,4351RM,Veere,Veere,Zeeland,VBO,3.662441,51.540147
Sandenburghlaan,59,,,4351RM,Veere,Veere,Zeeland,VBO,3.662371,51.540101
Sandenburghlaan,61,,,4351RM,Veere,Veere,Zeeland,VBO,3.661776,51.539822
Sandenburghlaan,63,,,4351RM,Veere,Veere,Zeeland,VBO,3.661705,51.539785
Sandenburghlaan,65,,,4351RM,Veere,Veere,Zeeland,VBO,3.661364,51.539654
Sandenburghlaan,67,,,4351RM,Veere,Veere,Zeeland,VBO,3.661309,51.539609
Sandenburghlaan,69,,,4351RM,Veere,Veere,Zeeland,VBO,3.660669,51.539356
Sandenburghlaan,71,,,4351RM,Veere,Veere,Zeeland,VBO,3.660599,51.539301
Bosweg,2,,,4351RN,Veere,Veere,Zeeland,VBO,3.651262,51.543712
Kreekweg,5,,,4351RP,Veere,Veere,Zeeland,VBO,3.644487,51.548160
Kreekweg,7,,,4351RP,Veere,Veere,Zeeland,VBO,3.646762,51.546452
Kreekweg,8,,,4351RP,Veere,Veere,Zeeland,VBO,3.648707,51.545292
Kreekweg,9,,,4351RP,Veere,Veere,Zeeland,VBO,3.648939,51.546393
Kreekweg,11,,,4351RP,Veere,Veere,Zeeland,VBO,3.656418,51.548392
Landschuurweg,1,A,,4351RR,Veere,Veere,Zeeland,VBO,3.649604,51.553487
Landschuurweg,1,,,4351RR,Veere,Veere,Zeeland,VBO,3.647308,51.547546
Landschuurweg,2,,,4351RR,Veere,Veere,Zeeland,VBO,3.648205,51.548234
Landschuurweg,3,,,4351RR,Veere,Veere,Zeeland,VBO,3.649479,51.553746
Landschuurweg,4,,,4351RR,Veere,Veere,Zeeland,VBO,3.648617,51.556295
Landschuurweg,5,A,,4351RR,Veere,Veere,Zeeland,VBO,3.648552,51.554131
Landschuurweg,5,,,4351RR,Veere,Veere,Zeeland,VBO,3.648545,51.554415
Landschuurweg,9,,,4351RR,Veere,Veere,Zeeland,VBO,3.647845,51.556500
Kraaienestweg,1,A,,4351RS,Veere,Veere,Zeeland,VBO,3.642979,51.558705
Kraaienestweg,1,,,4351RS,Veere,Veere,Zeeland,VBO,3.642872,51.558673
Kraaienestweg,2,,,4351RS,Veere,Veere,Zeeland,VBO,3.636472,51.560816
Kraaienestweg,3,,,4351RS,Veere,Veere,Zeeland,VBO,3.635378,51.560773
Polredijk,2,,,4351RT,Veere,Veere,Zeeland,VBO,3.653676,51.553368
Polredijk,4,,,4351RT,Veere,Veere,Zeeland,VBO,3.655230,51.554218
Polredijk,6,,,4351RT,Veere,Veere,Zeeland,VBO,3.657591,51.551295
Polredijk,13,A,,4351RT,Veere,Veere,Zeeland,VBO,3.646184,51.558435
Polredijk,13,B,,4351RT,Veere,Veere,Zeeland,VBO,3.651681,51.557308
Polredijk,13,,,4351RT,Veere,Veere,Zeeland,VBO,3.646184,51.558435
Polredijk,15,,,4351RT,Veere,Veere,Zeeland,VBO,3.647592,51.557835
Polredijk,17,A,,4351RT,Veere,Veere,Zeeland,VBO,3.651673,51.557302
Polredijk,17,,,4351RT,Veere,Veere,Zeeland,VBO,3.649223,51.557428
Polredijk,19,,,4351RT,Veere,Veere,Zeeland,VBO,3.649759,51.557373
Polredijk,21,,,4351RT,Veere,Veere,Zeeland,VBO,3.653460,51.557122
Polredijk,23,,,4351RT,Veere,Veere,Zeeland,VBO,3.656721,51.554447
Fazantenlaan,1,,,4351RV,Veere,Veere,Zeeland,VBO,3.657118,51.552349
Fazantenlaan,2,,,4351RV,Veere,Veere,Zeeland,VBO,3.657226,51.552917
Fazantenlaan,3,,,4351RV,Veere,Veere,Zeeland,VBO,3.656339,51.552355
Fazantenlaan,4,,,4351RV,Veere,Veere,Zeeland,VBO,3.656680,51.552882
Fazantenlaan,5,,,4351RV,Veere,Veere,Zeeland,VBO,3.655533,51.552307
Fazantenlaan,6,,,4351RV,Veere,Veere,Zeeland,VBO,3.656233,51.552866
Fazantenlaan,7,,,4351RV,Veere,Veere,Zeeland,VBO,3.654913,51.552307
Fazantenlaan,8,,,4351RV,Veere,Veere,Zeeland,VBO,3.655728,51.552877
Fazantenlaan,9,,,4351RV,Veere,Veere,Zeeland,VBO,3.654251,51.552270
Fazantenlaan,10,,,4351RV,Veere,Veere,Zeeland,VBO,3.655238,51.552878
Fazantenlaan,11,,,4351RV,Veere,Veere,Zeeland,VBO,3.653784,51.552416
Fazantenlaan,12,,,4351RV,Veere,Veere,Zeeland,VBO,3.654749,51.552835
Fazantenlaan,14,,,4351RV,Veere,Veere,Zeeland,VBO,3.654243,51.552855
Fazantenlaan,16,,,4351RV,Veere,Veere,Zeeland,VBO,3.653811,51.552839
Patrijzenlaan,1,,,4351RW,Veere,Veere,Zeeland,VBO,3.656320,51.550593
Patrijzenlaan,2,,,4351RW,Veere,Veere,Zeeland,VBO,3.656970,51.550558
Patrijzenlaan,3,,,4351RW,Veere,Veere,Zeeland,VBO,3.656290,51.550997
Patrijzenlaan,4,,,4351RW,Veere,Veere,Zeeland,VBO,3.657086,51.550910
Patrijzenlaan,5,,,4351RW,Veere,Veere,Zeeland,VBO,3.656306,51.551321
Patrijzenlaan,6,,,4351RW,Veere,Veere,Zeeland,VBO,3.657058,51.551278
Patrijzenlaan,7,,,4351RW,Veere,Veere,Zeeland,VBO,3.656336,51.551672
Patrijzenlaan,8,,,4351RW,Veere,Veere,Zeeland,VBO,3.657206,51.551568
Patrijzenlaan,9,,,4351RW,Veere,Veere,Zeeland,VBO,3.656354,51.551978
Patrijzenlaan,10,,,4351RW,Veere,Veere,Zeeland,VBO,3.657033,51.551925
Zwanenlaan,1,,,4351RX,Veere,Veere,Zeeland,VBO,3.656304,51.549873
Zwanenlaan,2,,,4351RX,Veere,Veere,Zeeland,VBO,3.655605,51.550421
Zwanenlaan,3,,,4351RX,Veere,Veere,Zeeland,VBO,3.656147,51.549458
Zwanenlaan,4,,,4351RX,Veere,Veere,Zeeland,VBO,3.655494,51.550689
Zwanenlaan,5,,,4351RX,Veere,Veere,Zeeland,VBO,3.655639,51.549927
Zwanenlaan,6,,,4351RX,Veere,Veere,Zeeland,VBO,3.655367,51.551010
Zwanenlaan,7,,,4351RX,Veere,Veere,Zeeland,VBO,3.655585,51.549449
Zwanenlaan,8,,,4351RX,Veere,Veere,Zeeland,VBO,3.655150,51.551385
Zwanenlaan,9,,,4351RX,Veere,Veere,Zeeland,VBO,3.654848,51.549474
Zwanenlaan,10,,,4351RX,Veere,Veere,Zeeland,VBO,3.655672,51.551312
Zwanenlaan,11,,,4351RX,Veere,Veere,Zeeland,VBO,3.654705,51.549823
Zwanenlaan,15,,,4351RX,Veere,Veere,Zeeland,VBO,3.654519,51.550539
Zwanenlaan,17,,,4351RX,Veere,Veere,Zeeland,VBO,3.654390,51.550897
Zwanenlaan,19,,,4351RX,Veere,Veere,Zeeland,VBO,3.654190,51.551227
Zwanenlaan,21,,,4351RX,Veere,Veere,Zeeland,VBO,3.654134,51.551576
Langedam,1,,,4351RZ,Veere,Veere,Zeeland,VBO,3.659149,51.548779
Langedam,2,A,,4351RZ,Veere,Veere,Zeeland,VBO,3.658817,51.549102
Langedam,2,,,4351RZ,Veere,Veere,Zeeland,VBO,3.659236,51.549022
Vioskeweg,3,A,,4351SB,Veere,Veere,Zeeland,VBO,3.645027,51.524485
Vioskeweg,3,,,4351SB,Veere,Veere,Zeeland,VBO,3.644663,51.524554
Golsteinseweg,24,,,4351SC,Veere,Veere,Zeeland,VBO,3.636989,51.522704
Veerseweg,70,A,,4351SC,Veere,Veere,Zeeland,VBO,3.642337,51.523957
Veerseweg,70,,,4351SC,Veere,Veere,Zeeland,VBO,3.642194,51.523780
Veerseweg,91,,,4351SC,Veere,Veere,Zeeland,VBO,3.646467,51.527728
Veerseweg,93,A,,4351SC,Veere,Veere,Zeeland,VBO,3.644868,51.525447
Veerseweg,93,,,4351SC,Veere,Veere,Zeeland,VBO,3.644623,51.525839
Veerseweg,95,,,4351SC,Veere,Veere,Zeeland,VBO,3.645734,51.525424
Veerseweg,97,A,,4351SC,Veere,Veere,Zeeland,VBO,3.646445,51.525064
Veerseweg,97,B,,4351SC,Veere,Veere,Zeeland,VBO,3.646330,51.524931
Veerseweg,97,,,4351SC,Veere,Veere,Zeeland,VBO,3.646719,51.525182
Veerseweg,99,,,4351SC,Veere,Veere,Zeeland,VBO,3.644306,51.525078
Veerseweg,101,A,,4351SC,Veere,Veere,Zeeland,VBO,3.644046,51.524802
Veerseweg,101,,,4351SC,Veere,Veere,Zeeland,VBO,3.643671,51.524719
Kruisweg,1,,,4351SE,Veere,Veere,Zeeland,VBO,3.643641,51.535642
Kruisweg,2,,,4351SE,Veere,Veere,Zeeland,VBO,3.637359,51.528823
Kruisweg,3,A,,4351SE,Veere,Veere,Zeeland,VBO,3.637625,51.530794
Kruisweg,3,,,4351SE,Veere,Veere,Zeeland,VBO,3.645358,51.535623
Kruisweg,4,,,4351SE,Veere,Veere,Zeeland,VBO,3.640031,51.529070
Kruisweg,5,B,,4351SE,Veere,Veere,Zeeland,VBO,3.657770,51.526134
Kruisweg,5,,,4351SE,Veere,Veere,Zeeland,VBO,3.645081,51.529667
Kruisweg,6,,,4351SE,Veere,Veere,Zeeland,VBO,3.643624,51.529708
Schone Walweg,2,A,,4351SG,Veere,Veere,Zeeland,VBO,3.644636,51.533447
Schone Walweg,2,,,4351SG,Veere,Veere,Zeeland,VBO,3.644614,51.533589
Schone Walweg,4,,,4351SG,Veere,Veere,Zeeland,VBO,3.645898,51.533554
Veerseweg,68,A,,4351SG,Veere,Veere,Zeeland,VBO,3.649248,51.534426
Veerseweg,68,,,4351SG,Veere,Veere,Zeeland,VBO,3.650221,51.535471
Veerseweg,89,A,,4351SG,Veere,Veere,Zeeland,VBO,3.649189,51.531832
Veerseweg,89,,,4351SG,Veere,Veere,Zeeland,VBO,3.649235,51.531923
Poppenkinderenburgseweg,2,,,4351SH,Veere,Veere,Zeeland,VBO,3.650412,51.531248
Zanddijkseweg,7,,,4351SH,Veere,Veere,Zeeland,VBO,3.664259,51.535948
Zanddijkseweg,8,A,,4351SH,Veere,Veere,Zeeland,VBO,3.665152,51.537405
Zanddijkseweg,8,B,,4351SH,Veere,Veere,Zeeland,VBO,3.665139,51.536303
Zanddijkseweg,8,C,,4351SH,Veere,Veere,Zeeland,VBO,3.665643,51.535808
Zanddijkseweg,8,,,4351SH,Veere,Veere,Zeeland,VBO,3.664258,51.537863
Zanddijkseweg,9,,,4351SH,Veere,Veere,Zeeland,VBO,3.664060,51.535487
Zanddijkseweg,10,,,4351SH,Veere,Veere,Zeeland,VBO,3.665092,51.534882
Zanddijkseweg,11,,,4351SH,Veere,Veere,Zeeland,VBO,3.655682,51.526849
Zanddijkseweg,12,A,,4351SH,Veere,Veere,Zeeland,VBO,3.657983,51.526595
Zanddijkseweg,12,,,4351SH,Veere,Veere,Zeeland,VBO,3.657296,51.528761
Zanddijkseweg,14,A,,4351SH,Veere,Veere,Zeeland,VBO,3.665626,51.536724
Zanddijkseweg,14,,,4351SH,Veere,Veere,Zeeland,VBO,3.657770,51.526134
Veerseweg,62,,,4351SJ,Veere,Veere,Zeeland,VBO,3.654612,51.539788
Veerseweg,64,,,4351SJ,Veere,Veere,Zeeland,VBO,3.654292,51.539100
Veerseweg,66,,,4351SJ,Veere,Veere,Zeeland,VBO,3.653536,51.538891
Veerseweg,85,A,,4351SJ,Veere,Veere,Zeeland,VBO,3.654533,51.538578
Veerseweg,85,,,4351SJ,Veere,Veere,Zeeland,VBO,3.654488,51.538510
Veerseweg,87,A,,4351SJ,Veere,Veere,Zeeland,VBO,3.654138,51.537471
Veerseweg,87,,,4351SJ,Veere,Veere,Zeeland,VBO,3.654786,51.537130
Bieweg,1,B,,4351SK,Veere,Veere,Zeeland,VBO,3.643693,51.541941
Bieweg,1,,,4351SK,Veere,Veere,Zeeland,VBO,3.647109,51.542246
Bieweg,3,,,4351SK,Veere,Veere,Zeeland,VBO,3.650056,51.540557
Bieweg,8,,,4351SK,Veere,Veere,Zeeland,VBO,3.642860,51.542841
Bieweg,10,,,4351SK,Veere,Veere,Zeeland,VBO,3.650145,51.540156
Veerseweg,103,,,4351SL,Veere,Veere,Zeeland,VBO,3.641451,51.521746
Veerseweg,105,,,4351SL,Veere,Veere,Zeeland,VBO,3.640798,51.521467
Veerseweg,107,,,4351SL,Veere,Veere,Zeeland,VBO,3.641166,51.521275
Veerseweg,109,,,4351SL,Veere,Veere,Zeeland,VBO,3.640130,51.520486
Okkerlust,1,,,4351SM,Veere,Veere,Zeeland,VBO,3.662217,51.540350
Okkerlust,3,,,4351SM,Veere,Veere,Zeeland,VBO,3.662172,51.540404
Okkerlust,5,,,4351SM,Veere,Veere,Zeeland,VBO,3.662128,51.540430
Okkerlust,7,,,4351SM,Veere,Veere,Zeeland,VBO,3.662069,51.540465
Okkerlust,9,,,4351SM,Veere,Veere,Zeeland,VBO,3.661909,51.540499
't Warmoeshof,1,,,4351SN,Veere,Veere,Zeeland,VBO,3.660856,51.540141
't Warmoeshof,2,,,4351SN,Veere,Veere,Zeeland,VBO,3.660813,51.539745
't Warmoeshof,4,,,4351SN,Veere,Veere,Zeeland,VBO,3.660619,51.539922
't Warmoeshof,6,,,4351SN,Veere,Veere,Zeeland,VBO,3.660484,51.540064
Wolfertlaan,1,,,4351SP,Veere,Veere,Zeeland,VBO,3.663903,51.540393
Wolfertlaan,2,,,4351SP,Veere,Veere,Zeeland,VBO,3.663028,51.540254
Wolfertlaan,3,,,4351SP,Veere,Veere,Zeeland,VBO,3.663963,51.540322
Wolfertlaan,4,,,4351SP,Veere,Veere,Zeeland,VBO,3.663163,51.540130
Wolfertlaan,5,,,4351SP,Veere,Veere,Zeeland,VBO,3.664154,51.540235
Wolfertlaan,6,,,4351SP,Veere,Veere,Zeeland,VBO,3.663906,51.539917
Wolfertlaan,7,,,4351SP,Veere,Veere,Zeeland,VBO,3.664265,51.540209
Wolfertlaan,8,,,4351SP,Veere,Veere,Zeeland,VBO,3.664024,51.539864
Wolfertlaan,9,,,4351SP,Veere,Veere,Zeeland,VBO,3.664446,51.540122
Wolfertlaan,10,,,4351SP,Veere,Veere,Zeeland,VBO,3.664228,51.539796
Wolfertlaan,11,,,4351SP,Veere,Veere,Zeeland,VBO,3.664519,51.540106
Wolfertlaan,12,,,4351SP,Veere,Veere,Zeeland,VBO,3.664348,51.539671
Wolfertlaan,13,,,4351SP,Veere,Veere,Zeeland,VBO,3.664726,51.539965
Wolfertlaan,14,,,4351SP,Veere,Veere,Zeeland,VBO,3.664745,51.539462
Wolfertlaan,16,,,4351SP,Veere,Veere,Zeeland,VBO,3.664965,51.539366
Wolfertlaan,18,,,4351SP,Veere,Veere,Zeeland,VBO,3.665231,51.539208
Mary Stuartlaan,1,,,4351SR,Veere,Veere,Zeeland,VBO,3.663372,51.540387
Mary Stuartlaan,2,,,4351SR,Veere,Veere,Zeeland,VBO,3.663346,51.539854
Mary Stuartlaan,3,,,4351SR,Veere,Veere,Zeeland,VBO,3.663496,51.540468
Mary Stuartlaan,4,,,4351SR,Veere,Veere,Zeeland,VBO,3.663388,51.539909
Mary Stuartlaan,5,,,4351SR,Veere,Veere,Zeeland,VBO,3.663593,51.540568
Mary Stuartlaan,6,,,4351SR,Veere,Veere,Zeeland,VBO,3.663458,51.539955
Mary Stuartlaan,7,,,4351SR,Veere,Veere,Zeeland,VBO,3.663678,51.540615
Mary Stuartlaan,8,,,4351SR,Veere,Veere,Zeeland,VBO,3.663499,51.540010
Mary Stuartlaan,10,,,4351SR,Veere,Veere,Zeeland,VBO,3.663540,51.540064
Mary Stuartlaan,12,,,4351SR,Veere,Veere,Zeeland,VBO,3.663596,51.540110
Charlotte van Bourbonlaan,7,,,4351ST,Veere,Veere,Zeeland,VBO,3.665114,51.540573
Kievitenlaan,1,,,4351TA,Veere,Veere,Zeeland,VBO,3.657184,51.549634
Kievitenlaan,2,,,4351TA,Veere,Veere,Zeeland,VBO,3.657155,51.549558
Kievitenlaan,3,,,4351TA,Veere,Veere,Zeeland,VBO,3.657091,51.549510
Kievitenlaan,4,,,4351TA,Veere,Veere,Zeeland,VBO,3.657107,51.549402
Kievitenlaan,5,,,4351TA,Veere,Veere,Zeeland,VBO,3.657044,51.549445
Kievitenlaan,6,,,4351TA,Veere,Veere,Zeeland,VBO,3.656953,51.549496
Kievitenlaan,7,,,4351TA,Veere,Veere,Zeeland,VBO,3.656887,51.549538
Kievitenlaan,8,,,4351TA,Veere,Veere,Zeeland,VBO,3.656833,51.549593
Kievitenlaan,9,,,4351TA,Veere,Veere,Zeeland,VBO,3.657080,51.550006
Kievitenlaan,10,,,4351TA,Veere,Veere,Zeeland,VBO,3.657105,51.550080
Kievitenlaan,11,,,4351TA,Veere,Veere,Zeeland,VBO,3.657245,51.549923
Kievitenlaan,12,,,4351TA,Veere,Veere,Zeeland,VBO,3.656824,51.549678
Kievitenlaan,13,,,4351TA,Veere,Veere,Zeeland,VBO,3.656824,51.549771
Kievitenlaan,14,,,4351TA,Veere,Veere,Zeeland,VBO,3.656828,51.549859
Kievitenlaan,15,,,4351TA,Veere,Veere,Zeeland,VBO,3.656823,51.549950
Kievitenlaan,16,,,4351TA,Veere,Veere,Zeeland,VBO,3.656822,51.550038
Kievitenlaan,17,,,4351TA,Veere,Veere,Zeeland,VBO,3.656817,51.550128
Kievitenlaan,18,,,4351TA,Veere,Veere,Zeeland,VBO,3.656993,51.549710
Kievitenlaan,19,,,4351TA,Veere,Veere,Zeeland,VBO,3.657017,51.549817
Kievitenlaan,20,,,4351TA,Veere,Veere,Zeeland,VBO,3.657015,51.549904
Kievitenlaan,21,,,4351TA,Veere,Veere,Zeeland,VBO,3.657248,51.549597
Kievitenlaan,22,,,4351TA,Veere,Veere,Zeeland,VBO,3.657224,51.549520
Kievitenlaan,23,,,4351TA,Veere,Veere,Zeeland,VBO,3.657150,51.549473
Kievitenlaan,24,,,4351TA,Veere,Veere,Zeeland,VBO,3.657051,51.549367
Kievitenlaan,25,,,4351TA,Veere,Veere,Zeeland,VBO,3.656979,51.549409
Kievitenlaan,26,,,4351TA,Veere,Veere,Zeeland,VBO,3.656899,51.549460
Kievitenlaan,27,,,4351TA,Veere,Veere,Zeeland,VBO,3.656833,51.549502
Kievitenlaan,28,,,4351TA,Veere,Veere,Zeeland,VBO,3.656772,51.549557
Kievitenlaan,29,,,4351TA,Veere,Veere,Zeeland,VBO,3.657021,51.550040
Kievitenlaan,30,,,4351TA,Veere,Veere,Zeeland,VBO,3.657044,51.550117
Kievitenlaan,31,,,4351TA,Veere,Veere,Zeeland,VBO,3.657185,51.549958
Kievitenlaan,32,,,4351TA,Veere,Veere,Zeeland,VBO,3.656769,51.549641
Kievitenlaan,33,,,4351TA,Veere,Veere,Zeeland,VBO,3.656775,51.549736
Kievitenlaan,34,,,4351TA,Veere,Veere,Zeeland,VBO,3.656772,51.549825
Kievitenlaan,35,,,4351TA,Veere,Veere,Zeeland,VBO,3.656772,51.549914
Kievitenlaan,36,,,4351TA,Veere,Veere,Zeeland,VBO,3.656769,51.550003
Kievitenlaan,37,,,4351TA,Veere,Veere,Zeeland,VBO,3.656768,51.550093
Kievitenlaan,38,,,4351TA,Veere,Veere,Zeeland,VBO,3.656938,51.549744
Kievitenlaan,39,,,4351TA,Veere,Veere,Zeeland,VBO,3.656962,51.549847
Kievitenlaan,40,,,4351TA,Veere,Veere,Zeeland,VBO,3.656961,51.549937
Kievitenlaan,41,,,4351TA,Veere,Veere,Zeeland,VBO,3.657245,51.550014
Kievitenlaan,42,,,4351TA,Veere,Veere,Zeeland,VBO,3.657180,51.550053
Kievitenlaan,43,,,4351TA,Veere,Veere,Zeeland,VBO,3.657182,51.550140
Ravelijn,1,A,,4351TB,Veere,Veere,Zeeland,VBO,3.656655,51.549155
Ravelijn,1,,,4351TB,Veere,Veere,Zeeland,VBO,3.656838,51.549147
Ravelijn,2,,,4351TB,Veere,Veere,Zeeland,VBO,3.655929,51.549131
Ravelijn,3,,,4351TB,Veere,Veere,Zeeland,VBO,3.654948,51.549125
Ravelijn,4,,,4351TB,Veere,Veere,Zeeland,VBO,3.655019,51.548785
Ravelijn,5,,,4351TB,Veere,Veere,Zeeland,VBO,3.655180,51.548337
Ravelijn,6,,,4351TB,Veere,Veere,Zeeland,VBO,3.655740,51.548400
Ravelijn,7,,,4351TB,Veere,Veere,Zeeland,VBO,3.656361,51.548768
