openbareruimtenaam,huisnummer,huisletter,huisnummertoevoeging,postcode,woonplaatsnaam,gemeentenaam,provincienaam,typeadresseerbaarobject,longitude,latitude
Nieuwe Vlissingseweg,43,,,4387AA,Vlissingen,Vlissingen,Zeeland,VBO,3.594311,51.467763
Nieuwe Vlissingseweg,45,,,4387AA,Vlissingen,Vlissingen,Zeeland,VBO,3.594342,51.467822
Nieuwe Vlissingseweg,47,,,4387AA,Vlissingen,Vlissingen,Zeeland,VBO,3.594368,51.467877
Nieuwe Vlissingseweg,49,,,4387AA,Vlissingen,Vlissingen,Zeeland,VBO,3.594394,51.467925
Nieuwe Vlissingseweg,51,,,4387AA,Vlissingen,Vlissingen,Zeeland,VBO,3.594421,51.467977
Nieuwe Vlissingseweg,53,,,4387AA,Vlissingen,Vlissingen,Zeeland,VBO,3.594447,51.468027
Nieuwe Vlissingseweg,55,,,4387AA,Vlissingen,Vlissingen,Zeeland,VBO,3.594472,51.468076
Nieuwe Vlissingseweg,57,,,4387AA,Vlissingen,Vlissingen,Zeeland,VBO,3.594498,51.468126
Nieuwe Vlissingseweg,59,,,4387AA,Vlissingen,Vlissingen,Zeeland,VBO,3.594525,51.468178
Nieuwe Vlissingseweg,61,,,4387AA,Vlissingen,Vlissingen,Zeeland,VBO,3.594552,51.468229
Nieuwe Vlissingseweg,63,,,4387AA,Vlissingen,Vlissingen,Zeeland,VBO,3.594579,51.468280
Nieuwe Vlissingseweg,65,,,4387AA,Vlissingen,Vlissingen,Zeeland,VBO,3.594606,51.468332
Nieuwe Vlissingseweg,67,,,4387AA,Vlissingen,Vlissingen,Zeeland,VBO,3.594633,51.468383
Nieuwe Vlissingseweg,69,,,4387AA,Vlissingen,Vlissingen,Zeeland,VBO,3.594668,51.468451
Nieuwe Vlissingseweg,71,,,4387AA,Vlissingen,Vlissingen,Zeeland,VBO,3.594716,51.468543
Nieuwe Vlissingseweg,73,,,4387AA,Vlissingen,Vlissingen,Zeeland,VBO,3.594754,51.468615
Nieuwe Vlissingseweg,75,,,4387AA,Vlissingen,Vlissingen,Zeeland,VBO,3.594778,51.468661
Nieuwe Vlissingseweg,77,,,4387AA,Vlissingen,Vlissingen,Zeeland,VBO,3.594818,51.468732
Nieuwe Vlissingseweg,79,,,4387AA,Vlissingen,Vlissingen,Zeeland,VBO,3.594818,51.468732
Nieuwe Vlissingseweg,81,,,4387AB,Vlissingen,Vlissingen,Zeeland,VBO,3.594867,51.468823
Nieuwe Vlissingseweg,83,,,4387AB,Vlissingen,Vlissingen,Zeeland,VBO,3.594890,51.468866
Nieuwe Vlissingseweg,85,,,4387AB,Vlissingen,Vlissingen,Zeeland,VBO,3.594912,51.468909
Nieuwe Vlissingseweg,87,,,4387AB,Vlissingen,Vlissingen,Zeeland,VBO,3.594937,51.468955
Nieuwe Vlissingseweg,89,,,4387AB,Vlissingen,Vlissingen,Zeeland,VBO,3.594960,51.468999
Nieuwe Vlissingseweg,91,,,4387AB,Vlissingen,Vlissingen,Zeeland,VBO,3.594984,51.469044
Nieuwe Vlissingseweg,93,,,4387AB,Vlissingen,Vlissingen,Zeeland,VBO,3.595008,51.469089
Nieuwe Vlissingseweg,95,,,4387AB,Vlissingen,Vlissingen,Zeeland,VBO,3.595031,51.469134
Nieuwe Vlissingseweg,97,,,4387AB,Vlissingen,Vlissingen,Zeeland,VBO,3.595056,51.469180
Nieuwe Vlissingseweg,99,,,4387AB,Vlissingen,Vlissingen,Zeeland,VBO,3.595095,51.469259
Nieuwe Vlissingseweg,101,,,4387AB,Vlissingen,Vlissingen,Zeeland,VBO,3.595125,51.469316
Nieuwe Vlissingseweg,103,,,4387AB,Vlissingen,Vlissingen,Zeeland,VBO,3.595163,51.469376
Nieuwe Vlissingseweg,105,,,4387AB,Vlissingen,Vlissingen,Zeeland,VBO,3.595188,51.469421
Nieuwe Vlissingseweg,107,,,4387AB,Vlissingen,Vlissingen,Zeeland,VBO,3.595214,51.469472
Nieuwe Vlissingseweg,109,,,4387AB,Vlissingen,Vlissingen,Zeeland,VBO,3.595237,51.469516
Nieuwe Vlissingseweg,111,,,4387AB,Vlissingen,Vlissingen,Zeeland,VBO,3.595261,51.469560
Nieuwe Vlissingseweg,113,,,4387AB,Vlissingen,Vlissingen,Zeeland,VBO,3.595283,51.469604
Nieuwe Vlissingseweg,115,,,4387AB,Vlissingen,Vlissingen,Zeeland,VBO,3.595307,51.469647
Nieuwe Vlissingseweg,117,,,4387AB,Vlissingen,Vlissingen,Zeeland,VBO,3.595333,51.469697
Nieuwe Vlissingseweg,119,,,4387AB,Vlissingen,Vlissingen,Zeeland,VBO,3.595359,51.469749
Nieuwe Vlissingseweg,121,,,4387AC,Vlissingen,Vlissingen,Zeeland,VBO,3.595386,51.469805
Nieuwe Vlissingseweg,123,,,4387AC,Vlissingen,Vlissingen,Zeeland,VBO,3.595411,51.469853
Nieuwe Vlissingseweg,125,,,4387AC,Vlissingen,Vlissingen,Zeeland,VBO,3.595447,51.469923
Nieuwe Vlissingseweg,127,,,4387AC,Vlissingen,Vlissingen,Zeeland,VBO,3.595473,51.469976
Nieuwe Vlissingseweg,129,,,4387AC,Vlissingen,Vlissingen,Zeeland,VBO,3.595499,51.470026
Nieuwe Vlissingseweg,131,,,4387AC,Vlissingen,Vlissingen,Zeeland,VBO,3.595445,51.470178
Nieuwe Vlissingseweg,133,,,4387AC,Vlissingen,Vlissingen,Zeeland,VBO,3.595496,51.470273
Nieuwe Vlissingseweg,135,,,4387AC,Vlissingen,Vlissingen,Zeeland,VBO,3.595522,51.470326
Nieuwe Vlissingseweg,137,,,4387AC,Vlissingen,Vlissingen,Zeeland,VBO,3.595558,51.470396
Nieuwe Vlissingseweg,139,,,4387AC,Vlissingen,Vlissingen,Zeeland,VBO,3.595558,51.470396
Nieuwe Vlissingseweg,141,,,4387AC,Vlissingen,Vlissingen,Zeeland,VBO,3.595568,51.470534
Nieuwe Vlissingseweg,145,,,4387AC,Vlissingen,Vlissingen,Zeeland,VBO,3.595674,51.470790
Nieuwe Vlissingseweg,147,,,4387AC,Vlissingen,Vlissingen,Zeeland,VBO,3.595694,51.470841
Nieuwe Vlissingseweg,149,,,4387AC,Vlissingen,Vlissingen,Zeeland,VBO,3.595884,51.471051
Nieuwe Vlissingseweg,151,,,4387AC,Vlissingen,Vlissingen,Zeeland,VBO,3.596174,51.471319
Nieuwe Vlissingseweg,153,,,4387AC,Vlissingen,Vlissingen,Zeeland,VBO,3.596226,51.471421
Nieuwe Vlissingseweg,155,,,4387AC,Vlissingen,Vlissingen,Zeeland,VBO,3.596269,51.471505
Nieuwe Vlissingseweg,157,,,4387AC,Vlissingen,Vlissingen,Zeeland,VBO,3.596299,51.471555
Nieuwe Vlissingseweg,159,,,4387AC,Vlissingen,Vlissingen,Zeeland,VBO,3.596322,51.471601
Nieuwe Vlissingseweg,161,,,4387AD,Vlissingen,Vlissingen,Zeeland,VBO,3.596347,51.471656
Nieuwe Vlissingseweg,163,,,4387AD,Vlissingen,Vlissingen,Zeeland,VBO,3.596391,51.471746
Nieuwe Vlissingseweg,165,,,4387AD,Vlissingen,Vlissingen,Zeeland,VBO,3.596423,51.471804
Nieuwe Vlissingseweg,167,,,4387AD,Vlissingen,Vlissingen,Zeeland,VBO,3.596470,51.471902
Nieuwe Vlissingseweg,171,,,4387AD,Vlissingen,Vlissingen,Zeeland,VBO,3.596626,51.472226
Nieuwe Vlissingseweg,175,,,4387AD,Vlissingen,Vlissingen,Zeeland,VBO,3.596774,51.472499
Nieuwe Vlissingseweg,177,,,4387AD,Vlissingen,Vlissingen,Zeeland,VBO,3.596799,51.472545
Nieuwe Vlissingseweg,179,,,4387AD,Vlissingen,Vlissingen,Zeeland,VBO,3.596823,51.472589
Nieuwe Vlissingseweg,181,,,4387AD,Vlissingen,Vlissingen,Zeeland,VBO,3.596848,51.472633
Nieuwe Vlissingseweg,183,,,4387AD,Vlissingen,Vlissingen,Zeeland,VBO,3.596872,51.472678
Nieuwe Vlissingseweg,191,,,4387AD,Vlissingen,Vlissingen,Zeeland,VBO,3.597016,51.472971
Nieuwe Vlissingseweg,193,,,4387AD,Vlissingen,Vlissingen,Zeeland,VBO,3.597038,51.473012
Nieuwe Vlissingseweg,195,,,4387AD,Vlissingen,Vlissingen,Zeeland,VBO,3.597061,51.473055
Nieuwe Vlissingseweg,197,,,4387AD,Vlissingen,Vlissingen,Zeeland,VBO,3.597084,51.473101
Nieuwe Vlissingseweg,199,,,4387AD,Vlissingen,Vlissingen,Zeeland,VBO,3.597107,51.473145
Nieuwe Vlissingseweg,201,,,4387AE,Vlissingen,Vlissingen,Zeeland,VBO,3.597130,51.473190
Nieuwe Vlissingseweg,203,,,4387AE,Vlissingen,Vlissingen,Zeeland,VBO,3.597154,51.473233
Nieuwe Vlissingseweg,205,,,4387AE,Vlissingen,Vlissingen,Zeeland,VBO,3.597176,51.473278
Nieuwe Vlissingseweg,211,,,4387AE,Vlissingen,Vlissingen,Zeeland,VBO,3.597292,51.473520
Nieuwe Vlissingseweg,213,,,4387AE,Vlissingen,Vlissingen,Zeeland,VBO,3.597336,51.473604
Nieuwe Vlissingseweg,215,,,4387AE,Vlissingen,Vlissingen,Zeeland,VBO,3.597373,51.473658
Nieuwe Vlissingseweg,217,,,4387AE,Vlissingen,Vlissingen,Zeeland,VBO,3.597398,51.473703
Nieuwe Vlissingseweg,229,,,4387AE,Vlissingen,Vlissingen,Zeeland,VBO,3.597563,51.474030
Nieuwe Vlissingseweg,231,,,4387AE,Vlissingen,Vlissingen,Zeeland,VBO,3.597585,51.474075
Nieuwe Vlissingseweg,233,,,4387AE,Vlissingen,Vlissingen,Zeeland,VBO,3.597608,51.474120
Nieuwe Vlissingseweg,235,,,4387AE,Vlissingen,Vlissingen,Zeeland,VBO,3.597631,51.474166
Nieuwe Vlissingseweg,237,,,4387AE,Vlissingen,Vlissingen,Zeeland,VBO,3.597371,51.474561
Vrijburgstraat,1,,,4387AG,Vlissingen,Vlissingen,Zeeland,VBO,3.594000,51.467679
Vrijburgstraat,3,,,4387AG,Vlissingen,Vlissingen,Zeeland,VBO,3.593921,51.467768
Vrijburgstraat,5,,,4387AG,Vlissingen,Vlissingen,Zeeland,VBO,3.593881,51.467811
Vrijburgstraat,7,,,4387AG,Vlissingen,Vlissingen,Zeeland,VBO,3.593840,51.467855
Vrijburgstraat,9,,,4387AG,Vlissingen,Vlissingen,Zeeland,VBO,3.593789,51.467909
Vrijburgstraat,11,,,4387AG,Vlissingen,Vlissingen,Zeeland,VBO,3.593716,51.467982
Vrijburgstraat,13,,,4387AG,Vlissingen,Vlissingen,Zeeland,VBO,3.593672,51.468026
Vrijburgstraat,15,,,4387AG,Vlissingen,Vlissingen,Zeeland,VBO,3.593535,51.468081
Vrijburgstraat,17,,,4387AG,Vlissingen,Vlissingen,Zeeland,VBO,3.593509,51.468134
Vrijburgstraat,19,,,4387AG,Vlissingen,Vlissingen,Zeeland,VBO,3.593481,51.468197
Vrijburgstraat,21,,,4387AG,Vlissingen,Vlissingen,Zeeland,VBO,3.593458,51.468247
Vrijburgstraat,23,,,4387AG,Vlissingen,Vlissingen,Zeeland,VBO,3.593415,51.468344
Vrijburgstraat,25,,,4387AG,Vlissingen,Vlissingen,Zeeland,VBO,3.593360,51.468654
Vrijburgstraat,27,,,4387AG,Vlissingen,Vlissingen,Zeeland,VBO,3.593319,51.468765
Vrijburgstraat,29,,,4387AG,Vlissingen,Vlissingen,Zeeland,VBO,3.593275,51.468879
Vrijburgstraat,33,,,4387AH,Vlissingen,Vlissingen,Zeeland,VBO,3.593238,51.468962
Vrijburgstraat,35,,,4387AH,Vlissingen,Vlissingen,Zeeland,VBO,3.593179,51.469104
Vrijburgstraat,37,,,4387AH,Vlissingen,Vlissingen,Zeeland,VBO,3.593157,51.469151
Vrijburgstraat,39,,,4387AH,Vlissingen,Vlissingen,Zeeland,VBO,3.593136,51.469201
Vrijburgstraat,41,,,4387AH,Vlissingen,Vlissingen,Zeeland,VBO,3.593114,51.469247
Vrijburgstraat,43,,,4387AH,Vlissingen,Vlissingen,Zeeland,VBO,3.593092,51.469305
Vrijburgstraat,45,,,4387AH,Vlissingen,Vlissingen,Zeeland,VBO,3.593071,51.469355
Vrijburgstraat,47,,,4387AH,Vlissingen,Vlissingen,Zeeland,VBO,3.592898,51.469469
Vrijburgstraat,49,,,4387AH,Vlissingen,Vlissingen,Zeeland,VBO,3.592745,51.469670
Vrijburgstraat,51,a,,4387AH,Vlissingen,Vlissingen,Zeeland,VBO,3.592197,51.469975
Vrijburgstraat,51,,,4387AH,Vlissingen,Vlissingen,Zeeland,VBO,3.592464,51.470014
Vrijburgstraat,65,,,4387AH,Vlissingen,Vlissingen,Zeeland,VBO,3.585231,51.469429
Vrijburgstraat,2,,,4387AJ,Vlissingen,Vlissingen,Zeeland,VBO,3.593966,51.468017
Vrijburgstraat,4,,,4387AJ,Vlissingen,Vlissingen,Zeeland,VBO,3.593939,51.468047
Vrijburgstraat,10,,,4387AJ,Vlissingen,Vlissingen,Zeeland,VBO,3.593774,51.468262
Vrijburgstraat,12,,,4387AJ,Vlissingen,Vlissingen,Zeeland,VBO,3.593696,51.468413
Vrijburgstraat,14,,,4387AJ,Vlissingen,Vlissingen,Zeeland,VBO,3.593678,51.468463
Vrijburgstraat,16,a,,4387AJ,Vlissingen,Vlissingen,Zeeland,VBO,3.593633,51.468602
Vrijburgstraat,16,,,4387AJ,Vlissingen,Vlissingen,Zeeland,VBO,3.593661,51.468512
Vrijburgstraat,18,,,4387AJ,Vlissingen,Vlissingen,Zeeland,VBO,3.593598,51.468738
Vrijburgstraat,22,,,4387AJ,Vlissingen,Vlissingen,Zeeland,VBO,3.593535,51.468915
Vrijburgstraat,24,,,4387AJ,Vlissingen,Vlissingen,Zeeland,VBO,3.593506,51.468983
Vrijburgstraat,26,,,4387AJ,Vlissingen,Vlissingen,Zeeland,VBO,3.593475,51.469054
Vrijburgstraat,28,,,4387AJ,Vlissingen,Vlissingen,Zeeland,VBO,3.593456,51.469100
Vrijburgstraat,30,,,4387AJ,Vlissingen,Vlissingen,Zeeland,VBO,3.593432,51.469162
Vrijburgstraat,32,,,4387AJ,Vlissingen,Vlissingen,Zeeland,VBO,3.593411,51.469211
Vrijburgstraat,34,,,4387AJ,Vlissingen,Vlissingen,Zeeland,VBO,3.593389,51.469263
Vrijburgstraat,36,,,4387AJ,Vlissingen,Vlissingen,Zeeland,VBO,3.593358,51.469339
Vrijburgstraat,38,b,,4387AJ,Vlissingen,Vlissingen,Zeeland,VBO,3.593214,51.469689
Vrijburgstraat,40,a,,4387AJ,Vlissingen,Vlissingen,Zeeland,VBO,3.592758,51.470157
Vrijburgstraat,40,b,,4387AJ,Vlissingen,Vlissingen,Zeeland,VBO,3.592591,51.470288
Vrijburgstraat,40,,,4387AJ,Vlissingen,Vlissingen,Zeeland,VBO,3.593050,51.469911
Vrijburgstraat,42,,,4387AJ,Vlissingen,Vlissingen,Zeeland,VBO,3.592254,51.470561
Vrijburgstraat,46,,,4387AJ,Vlissingen,Vlissingen,Zeeland,VBO,3.591261,51.470674
De Tuinderij,1,,,4387AK,Vlissingen,Vlissingen,Zeeland,VBO,3.592880,51.470518
De Tuinderij,2,,,4387AK,Vlissingen,Vlissingen,Zeeland,VBO,3.592931,51.470544
De Tuinderij,3,,,4387AK,Vlissingen,Vlissingen,Zeeland,VBO,3.593110,51.470641
De Tuinderij,4,,,4387AK,Vlissingen,Vlissingen,Zeeland,VBO,3.593165,51.470666
De Tuinderij,5,,,4387AK,Vlissingen,Vlissingen,Zeeland,VBO,3.593369,51.470744
De Tuinderij,6,,,4387AK,Vlissingen,Vlissingen,Zeeland,VBO,3.593563,51.470479
De Tuinderij,7,,,4387AK,Vlissingen,Vlissingen,Zeeland,VBO,3.593641,51.470345
De Tuinderij,8,,,4387AK,Vlissingen,Vlissingen,Zeeland,VBO,3.593637,51.470217
De Tuinderij,9,,,4387AK,Vlissingen,Vlissingen,Zeeland,VBO,3.593734,51.470055
De Tuinderij,10,,,4387AK,Vlissingen,Vlissingen,Zeeland,VBO,3.593948,51.469967
De Tuinderij,11,,,4387AK,Vlissingen,Vlissingen,Zeeland,VBO,3.594141,51.469958
De Tuinderij,12,,,4387AK,Vlissingen,Vlissingen,Zeeland,VBO,3.594297,51.470025
De Tuinderij,13,,,4387AK,Vlissingen,Vlissingen,Zeeland,VBO,3.594361,51.470133
De Tuinderij,14,,,4387AK,Vlissingen,Vlissingen,Zeeland,VBO,3.594297,51.470257
De Tuinderij,15,,,4387AK,Vlissingen,Vlissingen,Zeeland,VBO,3.594143,51.470363
De Tuinderij,16,,,4387AK,Vlissingen,Vlissingen,Zeeland,VBO,3.593984,51.470424
De Tuinderij,17,,,4387AK,Vlissingen,Vlissingen,Zeeland,VBO,3.593811,51.470540
De Tuinderij,18,,,4387AK,Vlissingen,Vlissingen,Zeeland,VBO,3.593630,51.470805
De Tuinderij,19,,,4387AK,Vlissingen,Vlissingen,Zeeland,VBO,3.593859,51.470838
De Tuinderij,20,,,4387AK,Vlissingen,Vlissingen,Zeeland,VBO,3.593930,51.470845
De Tuinderij,21,,,4387AK,Vlissingen,Vlissingen,Zeeland,VBO,3.594170,51.470854
De Tuinderij,22,,,4387AK,Vlissingen,Vlissingen,Zeeland,VBO,3.594240,51.470853
De Tuinderij,23,,,4387AK,Vlissingen,Vlissingen,Zeeland,VBO,3.594474,51.470837
De Tuinderij,24,,,4387AK,Vlissingen,Vlissingen,Zeeland,VBO,3.594671,51.470848
De Tuinderij,25,,,4387AK,Vlissingen,Vlissingen,Zeeland,VBO,3.594826,51.470915
De Tuinderij,26,,,4387AK,Vlissingen,Vlissingen,Zeeland,VBO,3.594918,51.471022
De Tuinderij,27,,,4387AK,Vlissingen,Vlissingen,Zeeland,VBO,3.594858,51.471219
De Tuinderij,28,,,4387AK,Vlissingen,Vlissingen,Zeeland,VBO,3.594692,51.471260
De Tuinderij,29,,,4387AK,Vlissingen,Vlissingen,Zeeland,VBO,3.594507,51.471268
De Tuinderij,30,,,4387AK,Vlissingen,Vlissingen,Zeeland,VBO,3.594359,51.471230
De Tuinderij,31,,,4387AK,Vlissingen,Vlissingen,Zeeland,VBO,3.594160,51.471151
De Tuinderij,32,,,4387AK,Vlissingen,Vlissingen,Zeeland,VBO,3.594098,51.471128
De Tuinderij,33,,,4387AK,Vlissingen,Vlissingen,Zeeland,VBO,3.593884,51.471059
De Tuinderij,34,,,4387AK,Vlissingen,Vlissingen,Zeeland,VBO,3.593820,51.471040
De Tuinderij,35,,,4387AK,Vlissingen,Vlissingen,Zeeland,VBO,3.593602,51.470982
De Tuinderij,36,,,4387AK,Vlissingen,Vlissingen,Zeeland,VBO,3.593451,51.470962
De Tuinderij,37,,,4387AK,Vlissingen,Vlissingen,Zeeland,VBO,3.593243,51.470903
De Tuinderij,38,,,4387AK,Vlissingen,Vlissingen,Zeeland,VBO,3.593182,51.470883
De Tuinderij,39,,,4387AK,Vlissingen,Vlissingen,Zeeland,VBO,3.592985,51.470805
De Tuinderij,40,,,4387AK,Vlissingen,Vlissingen,Zeeland,VBO,3.592929,51.470779
De Tuinderij,41,,,4387AK,Vlissingen,Vlissingen,Zeeland,VBO,3.592728,51.470675
Groeneweg,5,,,4387NA,Vlissingen,Vlissingen,Zeeland,VBO,3.567650,51.474136
Abeelseweg,4,,,4387PA,Vlissingen,Vlissingen,Zeeland,VBO,3.594990,51.477151
Zinderweg,1,,,4387PB,Vlissingen,Vlissingen,Zeeland,VBO,3.593205,51.476833
Handelsweg,1,,,4387PC,Vlissingen,Vlissingen,Zeeland,VBO,3.593095,51.472643
Handelsweg,3,,,4387PC,Vlissingen,Vlissingen,Zeeland,VBO,3.593139,51.472341
Handelsweg,5,,,4387PC,Vlissingen,Vlissingen,Zeeland,VBO,3.593171,51.472168
Handelsweg,7,,,4387PC,Vlissingen,Vlissingen,Zeeland,VBO,3.593124,51.471927
Handelsweg,9,a,,4387PC,Vlissingen,Vlissingen,Zeeland,VBO,3.593107,51.471525
Handelsweg,9,,,4387PC,Vlissingen,Vlissingen,Zeeland,VBO,3.593110,51.471635
Handelsweg,10,,,4387PC,Vlissingen,Vlissingen,Zeeland,VBO,3.592662,51.472471
Handelsweg,11,,,4387PC,Vlissingen,Vlissingen,Zeeland,VBO,3.592782,51.471471
Handelsweg,14,,,4387PC,Vlissingen,Vlissingen,Zeeland,VBO,3.592681,51.472272
Handelsweg,15,a,,4387PC,Vlissingen,Vlissingen,Zeeland,VBO,3.591475,51.471485
Handelsweg,15,,,4387PC,Vlissingen,Vlissingen,Zeeland,VBO,3.591659,51.471448
Handelsweg,16,,,4387PC,Vlissingen,Vlissingen,Zeeland,VBO,3.592689,51.472192
Handelsweg,17,a,,4387PC,Vlissingen,Vlissingen,Zeeland,VBO,3.591207,51.471470
Handelsweg,17,,,4387PC,Vlissingen,Vlissingen,Zeeland,VBO,3.591301,51.471239
Handelsweg,18,,,4387PC,Vlissingen,Vlissingen,Zeeland,VBO,3.592696,51.472118
Handelsweg,19,,,4387PC,Vlissingen,Vlissingen,Zeeland,VBO,3.591045,51.471463
Handelsweg,20,,,4387PC,Vlissingen,Vlissingen,Zeeland,VBO,3.592703,51.472042
Handelsweg,21,a,,4387PC,Vlissingen,Vlissingen,Zeeland,VBO,3.590599,51.471447
Handelsweg,21,,,4387PC,Vlissingen,Vlissingen,Zeeland,VBO,3.590827,51.471343
Handelsweg,22,,,4387PC,Vlissingen,Vlissingen,Zeeland,VBO,3.592711,51.471966
Handelsweg,23,,,4387PC,Vlissingen,Vlissingen,Zeeland,VBO,3.590281,51.471433
Handelsweg,24,,,4387PC,Vlissingen,Vlissingen,Zeeland,VBO,3.592719,51.471889
Handelsweg,25,,,4387PC,Vlissingen,Vlissingen,Zeeland,VBO,3.590098,51.471432
Handelsweg,27,,,4387PC,Vlissingen,Vlissingen,Zeeland,VBO,3.589325,51.471403
Handelsweg,28,,,4387PC,Vlissingen,Vlissingen,Zeeland,VBO,3.591148,51.471669
Handelsweg,29,a,,4387PC,Vlissingen,Vlissingen,Zeeland,VBO,3.589051,51.471250
Handelsweg,29,,,4387PC,Vlissingen,Vlissingen,Zeeland,VBO,3.589168,51.471397
Handelsweg,30,,,4387PC,Vlissingen,Vlissingen,Zeeland,VBO,3.591012,51.471646
Handelsweg,31,,,4387PC,Vlissingen,Vlissingen,Zeeland,VBO,3.588520,51.471372
Handelsweg,32,,,4387PC,Vlissingen,Vlissingen,Zeeland,VBO,3.590200,51.471636
Handelsweg,34,,,4387PC,Vlissingen,Vlissingen,Zeeland,VBO,3.590087,51.471631
Handelsweg,35,,,4387PC,Vlissingen,Vlissingen,Zeeland,VBO,3.588231,51.471388
Handelsweg,36,,,4387PC,Vlissingen,Vlissingen,Zeeland,VBO,3.589928,51.471625
Handelsweg,38,,,4387PC,Vlissingen,Vlissingen,Zeeland,VBO,3.589580,51.471606
Handelsweg,40,,,4387PC,Vlissingen,Vlissingen,Zeeland,VBO,3.589060,51.471611
Handelsweg,42,,,4387PC,Vlissingen,Vlissingen,Zeeland,VBO,3.588976,51.471609
Handelsweg,44,,,4387PC,Vlissingen,Vlissingen,Zeeland,VBO,3.588877,51.471605
Handelsweg,46,,,4387PC,Vlissingen,Vlissingen,Zeeland,VBO,3.588773,51.471602
Handelsweg,48,,,4387PC,Vlissingen,Vlissingen,Zeeland,VBO,3.588667,51.471597
Handelsweg,50,,,4387PC,Vlissingen,Vlissingen,Zeeland,VBO,3.588528,51.471598
Handelsweg,54,,,4387PC,Vlissingen,Vlissingen,Zeeland,VBO,3.588273,51.471590
Handelsweg,56,,,4387PC,Vlissingen,Vlissingen,Zeeland,VBO,3.588181,51.471586
Bedrijfsweg,1,a,,4387PD,Vlissingen,Vlissingen,Zeeland,VBO,3.593632,51.472805
Bedrijfsweg,1,,,4387PD,Vlissingen,Vlissingen,Zeeland,VBO,3.594857,51.472838
Bedrijfsweg,2,b,,4387PD,Vlissingen,Vlissingen,Zeeland,VBO,3.595625,51.473528
Bedrijfsweg,2,,,4387PD,Vlissingen,Vlissingen,Zeeland,VBO,3.595279,51.473297
Bedrijfsweg,2,,,4387PD,Vlissingen,Vlissingen,Zeeland,VBO,3.595279,51.473297
Bedrijfsweg,4,,,4387PD,Vlissingen,Vlissingen,Zeeland,VBO,3.593702,51.473183
Bedrijfsweg,5,a,,4387PD,Vlissingen,Vlissingen,Zeeland,VBO,3.592218,51.472805
Bedrijfsweg,5,,,4387PD,Vlissingen,Vlissingen,Zeeland,VBO,3.592506,51.472817
Bedrijfsweg,6,,,4387PD,Vlissingen,Vlissingen,Zeeland,VBO,3.593157,51.473259
Bedrijfsweg,7,,,4387PD,Vlissingen,Vlissingen,Zeeland,VBO,3.591962,51.472819
Bedrijfsweg,8,,,4387PD,Vlissingen,Vlissingen,Zeeland,VBO,3.592319,51.473205
Bedrijfsweg,9,,,4387PD,Vlissingen,Vlissingen,Zeeland,VBO,3.590984,51.472799
Bedrijfsweg,11,,,4387PD,Vlissingen,Vlissingen,Zeeland,VBO,3.590790,51.472820
Bedrijfsweg,12,,,4387PD,Vlissingen,Vlissingen,Zeeland,VBO,3.590303,51.473037
Bedrijfsweg,13,,,4387PD,Vlissingen,Vlissingen,Zeeland,VBO,3.590641,51.472814
Bedrijfsweg,14,,,4387PD,Vlissingen,Vlissingen,Zeeland,VBO,3.589931,51.473027
Bedrijfsweg,15,b,,4387PD,Vlissingen,Vlissingen,Zeeland,VBO,3.589944,51.472417
Bedrijfsweg,15,c,,4387PD,Vlissingen,Vlissingen,Zeeland,VBO,3.589957,51.472282
Bedrijfsweg,15,d,,4387PD,Vlissingen,Vlissingen,Zeeland,VBO,3.589971,51.472148
Bedrijfsweg,15,,,4387PD,Vlissingen,Vlissingen,Zeeland,VBO,3.589903,51.472733
Bedrijfsweg,16,,,4387PD,Vlissingen,Vlissingen,Zeeland,VBO,3.589207,51.472982
Bedrijfsweg,17,,,4387PD,Vlissingen,Vlissingen,Zeeland,VBO,3.589442,51.472779
Bedrijfsweg,19,,,4387PD,Vlissingen,Vlissingen,Zeeland,VBO,3.588809,51.472746
Bedrijfsweg,23,,,4387PD,Vlissingen,Vlissingen,Zeeland,VBO,3.588244,51.472699
Bedrijfsweg,26,,,4387PD,Vlissingen,Vlissingen,Zeeland,VBO,3.588932,51.472951
Bedrijfsweg,28,,,4387PD,Vlissingen,Vlissingen,Zeeland,VBO,3.588683,51.472942
Bedrijfsweg,30,,,4387PD,Vlissingen,Vlissingen,Zeeland,VBO,3.588224,51.472912
Transportweg,1,,,4387PE,Vlissingen,Vlissingen,Zeeland,VBO,3.591785,51.472652
Transportweg,3,,,4387PE,Vlissingen,Vlissingen,Zeeland,VBO,3.591792,51.472571
Transportweg,4,,,4387PE,Vlissingen,Vlissingen,Zeeland,VBO,3.591473,51.472109
Transportweg,5,,,4387PE,Vlissingen,Vlissingen,Zeeland,VBO,3.591816,51.472447
Transportweg,7,a,,4387PE,Vlissingen,Vlissingen,Zeeland,VBO,3.591824,51.472153
Transportweg,7,,,4387PE,Vlissingen,Vlissingen,Zeeland,VBO,3.591812,51.472284
Transportweg,9,,,4387PE,Vlissingen,Vlissingen,Zeeland,VBO,3.591803,51.471991
Productweg,1,,,4387PG,Vlissingen,Vlissingen,Zeeland,VBO,3.590641,51.472814
Productweg,2,,,4387PG,Vlissingen,Vlissingen,Zeeland,VBO,3.590148,51.472722
Productweg,3,,,4387PG,Vlissingen,Vlissingen,Zeeland,VBO,3.590493,51.472530
Productweg,4,,,4387PG,Vlissingen,Vlissingen,Zeeland,VBO,3.590152,51.472668
Productweg,5,,,4387PG,Vlissingen,Vlissingen,Zeeland,VBO,3.590504,51.472402
Productweg,6,,,4387PG,Vlissingen,Vlissingen,Zeeland,VBO,3.590150,51.472533
Productweg,7,,,4387PG,Vlissingen,Vlissingen,Zeeland,VBO,3.590516,51.472286
Productweg,9,,,4387PG,Vlissingen,Vlissingen,Zeeland,VBO,3.590528,51.472127
Productweg,10,,,4387PG,Vlissingen,Vlissingen,Zeeland,VBO,3.590187,51.472309
Productweg,11,,,4387PG,Vlissingen,Vlissingen,Zeeland,VBO,3.590630,51.472125
Productweg,12,,,4387PG,Vlissingen,Vlissingen,Zeeland,VBO,3.590195,51.472217
Productweg,13,,,4387PG,Vlissingen,Vlissingen,Zeeland,VBO,3.590730,51.472128
Productweg,14,,,4387PG,Vlissingen,Vlissingen,Zeeland,VBO,3.590204,51.472129
Productweg,15,,,4387PG,Vlissingen,Vlissingen,Zeeland,VBO,3.590831,51.472132
Productweg,16,,,4387PG,Vlissingen,Vlissingen,Zeeland,VBO,3.590213,51.472042
Productweg,17,,,4387PG,Vlissingen,Vlissingen,Zeeland,VBO,3.590931,51.472135
Productweg,18,,,4387PG,Vlissingen,Vlissingen,Zeeland,VBO,3.589887,51.471952
Productweg,19,,,4387PG,Vlissingen,Vlissingen,Zeeland,VBO,3.590546,51.471947
Productweg,20,,,4387PG,Vlissingen,Vlissingen,Zeeland,VBO,3.589958,51.471887
Productweg,22,,,4387PG,Vlissingen,Vlissingen,Zeeland,VBO,3.590116,51.471893
Productweg,24,,,4387PG,Vlissingen,Vlissingen,Zeeland,VBO,3.590275,51.471899
Octrooiweg,1,,,4387PJ,Vlissingen,Vlissingen,Zeeland,VBO,3.590479,51.473524
Octrooiweg,2,,,4387PJ,Vlissingen,Vlissingen,Zeeland,VBO,3.590331,51.473672
Octrooiweg,3,,,4387PJ,Vlissingen,Vlissingen,Zeeland,VBO,3.590338,51.473520
Octrooiweg,4,,,4387PJ,Vlissingen,Vlissingen,Zeeland,VBO,3.589766,51.473662
Octrooiweg,6,,,4387PJ,Vlissingen,Vlissingen,Zeeland,VBO,3.589760,51.473737
Octrooiweg,8,,,4387PJ,Vlissingen,Vlissingen,Zeeland,VBO,3.589755,51.473810
Octrooiweg,10,,,4387PJ,Vlissingen,Vlissingen,Zeeland,VBO,3.589762,51.473883
Octrooiweg,12,a,,4387PJ,Vlissingen,Vlissingen,Zeeland,VBO,3.589176,51.473700
Octrooiweg,12,,,4387PJ,Vlissingen,Vlissingen,Zeeland,VBO,3.589393,51.473711
Octrooiweg,14,,,4387PJ,Vlissingen,Vlissingen,Zeeland,VBO,3.589002,51.473692
Octrooiweg,16,a,,4387PJ,Vlissingen,Vlissingen,Zeeland,VBO,3.588699,51.473763
Octrooiweg,16,b,,4387PJ,Vlissingen,Vlissingen,Zeeland,VBO,3.588694,51.473808
Octrooiweg,16,c,,4387PJ,Vlissingen,Vlissingen,Zeeland,VBO,3.588578,51.473860
Octrooiweg,16,,,4387PJ,Vlissingen,Vlissingen,Zeeland,VBO,3.588699,51.473677
Octrooiweg,18,,,4387PJ,Vlissingen,Vlissingen,Zeeland,VBO,3.588384,51.473844
Octrooiweg,19,,,4387PJ,Vlissingen,Vlissingen,Zeeland,VBO,3.588274,51.473440
Octrooiweg,20,,,4387PJ,Vlissingen,Vlissingen,Zeeland,VBO,3.588397,51.473750
Octrooiweg,22,,,4387PJ,Vlissingen,Vlissingen,Zeeland,VBO,3.588406,51.473663
Octrooiweg,24,,,4387PJ,Vlissingen,Vlissingen,Zeeland,VBO,3.588239,51.473655
Octrooiweg,26,,,4387PJ,Vlissingen,Vlissingen,Zeeland,VBO,3.588122,51.473650
Logistiekweg,1,,,4387PK,Vlissingen,Vlissingen,Zeeland,VBO,3.589482,51.472527
Logistiekweg,3,a,,4387PK,Vlissingen,Vlissingen,Zeeland,VBO,3.589373,51.472328
Logistiekweg,3,,,4387PK,Vlissingen,Vlissingen,Zeeland,VBO,3.589363,51.472430
Logistiekweg,5,,,4387PK,Vlissingen,Vlissingen,Zeeland,VBO,3.589384,51.472212
Logistiekweg,7,,,4387PK,Vlissingen,Vlissingen,Zeeland,VBO,3.589398,51.472075
Logistiekweg,9,,,4387PK,Vlissingen,Vlissingen,Zeeland,VBO,3.589408,51.471956
Logistiekweg,10,,,4387PK,Vlissingen,Vlissingen,Zeeland,VBO,3.589005,51.472200
Logistiekweg,11,,,4387PK,Vlissingen,Vlissingen,Zeeland,VBO,3.589415,51.471883
Logistiekweg,12,,,4387PK,Vlissingen,Vlissingen,Zeeland,VBO,3.588948,51.472037
Logistiekweg,13,,,4387PK,Vlissingen,Vlissingen,Zeeland,VBO,3.589421,51.471821
Logistiekweg,15,,,4387PK,Vlissingen,Vlissingen,Zeeland,VBO,3.589637,51.471871
Logistiekweg,17,,,4387PK,Vlissingen,Vlissingen,Zeeland,VBO,3.589711,51.471874
Logistiekweg,20,,,4387PK,Vlissingen,Vlissingen,Zeeland,VBO,3.589047,51.471862
Logistiekweg,22,,,4387PK,Vlissingen,Vlissingen,Zeeland,VBO,3.588881,51.471856
Logistiekweg,24,,,4387PK,Vlissingen,Vlissingen,Zeeland,VBO,3.588778,51.471853
Logistiekweg,26,,,4387PK,Vlissingen,Vlissingen,Zeeland,VBO,3.588675,51.471849
Logistiekweg,28,,,4387PK,Vlissingen,Vlissingen,Zeeland,VBO,3.589056,51.471764
Logistiekweg,30,,,4387PK,Vlissingen,Vlissingen,Zeeland,VBO,3.589060,51.471611
Distributieweg,1,,,4387PL,Vlissingen,Vlissingen,Zeeland,VBO,3.587801,51.471487
Distributieweg,3,,,4387PL,Vlissingen,Vlissingen,Zeeland,VBO,3.587766,51.471761
Distributieweg,4,,,4387PL,Vlissingen,Vlissingen,Zeeland,VBO,3.588334,51.471857
Distributieweg,5,,,4387PL,Vlissingen,Vlissingen,Zeeland,VBO,3.587708,51.471912
Distributieweg,6,,,4387PL,Vlissingen,Vlissingen,Zeeland,VBO,3.588075,51.472162
Distributieweg,7,,,4387PL,Vlissingen,Vlissingen,Zeeland,VBO,3.587754,51.472031
Distributieweg,9,,,4387PL,Vlissingen,Vlissingen,Zeeland,VBO,3.587701,51.472212
Distributieweg,10,,,4387PL,Vlissingen,Vlissingen,Zeeland,VBO,3.588025,51.472387
Distributieweg,12,,,4387PL,Vlissingen,Vlissingen,Zeeland,VBO,3.588198,51.472394
Distributieweg,13,,,4387PL,Vlissingen,Vlissingen,Zeeland,VBO,3.587642,51.472515
Distributieweg,15,,,4387PL,Vlissingen,Vlissingen,Zeeland,VBO,3.587635,51.472594
Distributieweg,16,,,4387PL,Vlissingen,Vlissingen,Zeeland,VBO,3.587984,51.473262
Distributieweg,17,,,4387PL,Vlissingen,Vlissingen,Zeeland,VBO,3.587696,51.472993
Distributieweg,18,,,4387PL,Vlissingen,Vlissingen,Zeeland,VBO,3.587979,51.473319
Distributieweg,19,,,4387PL,Vlissingen,Vlissingen,Zeeland,VBO,3.587571,51.473218
Distributieweg,20,,,4387PL,Vlissingen,Vlissingen,Zeeland,VBO,3.587972,51.473383
Distributieweg,21,,,4387PL,Vlissingen,Vlissingen,Zeeland,VBO,3.587356,51.473391
Distributieweg,22,,,4387PL,Vlissingen,Vlissingen,Zeeland,VBO,3.587944,51.473788
Distributieweg,24,,,4387PL,Vlissingen,Vlissingen,Zeeland,VBO,3.587937,51.473851
Distributieweg,25,,,4387PL,Vlissingen,Vlissingen,Zeeland,VBO,3.587584,51.473773
Sportweg,2,,,4387PM,Vlissingen,Vlissingen,Zeeland,VBO,3.595130,51.474592
