openbareruimtenaam,huisnummer,huisletter,huisnummertoevoeging,postcode,woonplaatsnaam,gemeentenaam,provincienaam,typeadresseerbaarobject,longitude,latitude
Heerenstraat,1,,,4453AA,'s-Heerenhoek,Borsele,Zeeland,VBO,3.768447,51.452940
Heerenstraat,3,,,4453AA,'s-Heerenhoek,Borsele,Zeeland,VBO,3.768458,51.452878
Heerenstraat,5,,,4453AA,'s-Heerenhoek,Borsele,Zeeland,VBO,3.768482,51.452817
Heerenstraat,7,,,4453AA,'s-Heerenhoek,Borsele,Zeeland,VBO,3.768465,51.452760
Heerenstraat,9,,,4453AA,'s-Heerenhoek,Borsele,Zeeland,VBO,3.768509,51.452699
Heerenstraat,11,,,4453AA,'s-Heerenhoek,Borsele,Zeeland,VBO,3.768508,51.452631
Heerenstraat,13,,,4453AA,'s-Heerenhoek,Borsele,Zeeland,VBO,3.768514,51.452567
Heerenstraat,15,,,4453AA,'s-Heerenhoek,Borsele,Zeeland,VBO,3.768511,51.452502
Heerenstraat,17,,,4453AA,'s-Heerenhoek,Borsele,Zeeland,VBO,3.768516,51.452413
Heerenstraat,19,,,4453AA,'s-Heerenhoek,Borsele,Zeeland,VBO,3.768528,51.452338
Heerenstraat,21,,,4453AA,'s-Heerenhoek,Borsele,Zeeland,VBO,3.768530,51.452261
Heerenstraat,23,,,4453AA,'s-Heerenhoek,Borsele,Zeeland,VBO,3.768558,51.452183
Heerenstraat,25,,,4453AA,'s-Heerenhoek,Borsele,Zeeland,VBO,3.768591,51.452127
Heerenstraat,27,,,4453AA,'s-Heerenhoek,Borsele,Zeeland,VBO,3.768585,51.452052
Kuijpersdijk,23,,,4453AB,'s-Heerenhoek,Borsele,Zeeland,VBO,3.768856,51.451668
Kuijpersdijk,25,,,4453AB,'s-Heerenhoek,Borsele,Zeeland,VBO,3.768843,51.451544
Kuijpersdijk,27,,,4453AB,'s-Heerenhoek,Borsele,Zeeland,VBO,3.768820,51.451307
Kuijpersdijk,29,,,4453AB,'s-Heerenhoek,Borsele,Zeeland,VBO,3.768794,51.451179
Kuijpersdijk,31,,,4453AB,'s-Heerenhoek,Borsele,Zeeland,VBO,3.768762,51.451074
Kuijpersdijk,33,,,4453AB,'s-Heerenhoek,Borsele,Zeeland,VBO,3.768734,51.450992
Kuijpersdijk,35,,,4453AB,'s-Heerenhoek,Borsele,Zeeland,VBO,3.768735,51.450928
Kuijpersdijk,4,,,4453AC,'s-Heerenhoek,Borsele,Zeeland,VBO,3.768946,51.452791
Kuijpersdijk,6,,,4453AC,'s-Heerenhoek,Borsele,Zeeland,VBO,3.769005,51.452692
Kuijpersdijk,8,,,4453AC,'s-Heerenhoek,Borsele,Zeeland,VBO,3.769018,51.452599
Kuijpersdijk,10,,,4453AC,'s-Heerenhoek,Borsele,Zeeland,VBO,3.769083,51.452483
Kuijpersdijk,12,,,4453AC,'s-Heerenhoek,Borsele,Zeeland,VBO,3.769032,51.452381
Kuijpersdijk,14,,,4453AC,'s-Heerenhoek,Borsele,Zeeland,VBO,3.769056,51.452283
Kuijpersdijk,16,,,4453AC,'s-Heerenhoek,Borsele,Zeeland,VBO,3.769073,51.452198
Kuijpersdijk,18,,,4453AC,'s-Heerenhoek,Borsele,Zeeland,VBO,3.769087,51.452102
Kuijpersdijk,20,,,4453AC,'s-Heerenhoek,Borsele,Zeeland,VBO,3.769160,51.451870
Kuijpersdijk,22,,,4453AC,'s-Heerenhoek,Borsele,Zeeland,VBO,3.769171,51.451813
Kuijpersdijk,24,,,4453AC,'s-Heerenhoek,Borsele,Zeeland,VBO,3.769173,51.451705
Kuijpersdijk,28,,,4453AC,'s-Heerenhoek,Borsele,Zeeland,VBO,3.769402,51.451601
Kuijpersdijk,30,,,4453AC,'s-Heerenhoek,Borsele,Zeeland,VBO,3.769369,51.451486
Kuijpersdijk,32,,,4453AC,'s-Heerenhoek,Borsele,Zeeland,VBO,3.769039,51.451211
Molendijk,1,A,,4453AD,'s-Heerenhoek,Borsele,Zeeland,VBO,3.768931,51.453050
Molendijk,1,B,,4453AD,'s-Heerenhoek,Borsele,Zeeland,VBO,3.768925,51.453096
Molendijk,1,,,4453AD,'s-Heerenhoek,Borsele,Zeeland,VBO,3.768944,51.452993
Molendijk,5,,,4453AD,'s-Heerenhoek,Borsele,Zeeland,VBO,3.768855,51.453288
Molendijk,7,,,4453AD,'s-Heerenhoek,Borsele,Zeeland,VBO,3.768859,51.453408
Molendijk,9,,,4453AD,'s-Heerenhoek,Borsele,Zeeland,VBO,3.768867,51.453486
Molendijk,17,,,4453AD,'s-Heerenhoek,Borsele,Zeeland,VBO,3.768902,51.454395
Molendijk,19,,,4453AD,'s-Heerenhoek,Borsele,Zeeland,VBO,3.768897,51.454441
Molendijk,21,,,4453AD,'s-Heerenhoek,Borsele,Zeeland,VBO,3.768873,51.454563
Molendijk,23,,,4453AD,'s-Heerenhoek,Borsele,Zeeland,VBO,3.768855,51.454653
Molendijk,25,,,4453AD,'s-Heerenhoek,Borsele,Zeeland,VBO,3.768835,51.454719
Molendijk,27,,,4453AD,'s-Heerenhoek,Borsele,Zeeland,VBO,3.768823,51.454815
Molendijk,29,,,4453AD,'s-Heerenhoek,Borsele,Zeeland,VBO,3.768797,51.454904
Molendijk,31,,,4453AD,'s-Heerenhoek,Borsele,Zeeland,VBO,3.768786,51.455002
Molendijk,33,,,4453AD,'s-Heerenhoek,Borsele,Zeeland,VBO,3.768772,51.455078
Molendijk,35,,,4453AD,'s-Heerenhoek,Borsele,Zeeland,VBO,3.768749,51.455232
Molendijk,37,,,4453AD,'s-Heerenhoek,Borsele,Zeeland,VBO,3.768718,51.455357
Molendijk,39,,,4453AD,'s-Heerenhoek,Borsele,Zeeland,VBO,3.768695,51.455458
Molendijk,41,A,,4453AD,'s-Heerenhoek,Borsele,Zeeland,VBO,3.768642,51.455599
Molendijk,41,,,4453AD,'s-Heerenhoek,Borsele,Zeeland,VBO,3.768679,51.455535
Molendijk,43,,,4453AD,'s-Heerenhoek,Borsele,Zeeland,VBO,3.768668,51.455657
Molendijk,45,A,,4453AD,'s-Heerenhoek,Borsele,Zeeland,VBO,3.768669,51.455888
Molendijk,45,B,,4453AD,'s-Heerenhoek,Borsele,Zeeland,VBO,3.768618,51.456008
Molendijk,45,C,,4453AD,'s-Heerenhoek,Borsele,Zeeland,VBO,3.768610,51.456127
Molendijk,45,,,4453AD,'s-Heerenhoek,Borsele,Zeeland,VBO,3.768640,51.455753
Molendijk,47,,,4453AD,'s-Heerenhoek,Borsele,Zeeland,VBO,3.768680,51.456435
Molendijk,2,,,4453AE,'s-Heerenhoek,Borsele,Zeeland,VBO,3.768648,51.453215
Molendijk,4,,,4453AE,'s-Heerenhoek,Borsele,Zeeland,VBO,3.768645,51.453319
Molendijk,8,A,,4453AE,'s-Heerenhoek,Borsele,Zeeland,VBO,3.767972,51.453586
Molendijk,8,,,4453AE,'s-Heerenhoek,Borsele,Zeeland,VBO,3.767955,51.453674
Molendijk,10,,,4453AE,'s-Heerenhoek,Borsele,Zeeland,VBO,3.768486,51.453782
Molendijk,12,A,,4453AE,'s-Heerenhoek,Borsele,Zeeland,VBO,3.768443,51.454097
Molendijk,12,B,,4453AE,'s-Heerenhoek,Borsele,Zeeland,VBO,3.768436,51.454157
Molendijk,12,,,4453AE,'s-Heerenhoek,Borsele,Zeeland,VBO,3.767899,51.453913
Molendijk,14,A,,4453AE,'s-Heerenhoek,Borsele,Zeeland,VBO,3.768398,51.454390
Molendijk,14,,,4453AE,'s-Heerenhoek,Borsele,Zeeland,VBO,3.768430,51.454177
Molendijk,16,,,4453AE,'s-Heerenhoek,Borsele,Zeeland,VBO,3.768390,51.454518
Molendijk,18,,,4453AE,'s-Heerenhoek,Borsele,Zeeland,VBO,3.768369,51.454567
Molendijk,20,,,4453AE,'s-Heerenhoek,Borsele,Zeeland,VBO,3.768366,51.454647
Molendijk,22,,,4453AE,'s-Heerenhoek,Borsele,Zeeland,VBO,3.768331,51.454724
Molendijk,24,,,4453AE,'s-Heerenhoek,Borsele,Zeeland,VBO,3.768264,51.454971
Molendijk,26,A,,4453AE,'s-Heerenhoek,Borsele,Zeeland,VBO,3.768240,51.455108
Molendijk,26,,,4453AE,'s-Heerenhoek,Borsele,Zeeland,VBO,3.768257,51.455067
Molendijk,28,A,,4453AE,'s-Heerenhoek,Borsele,Zeeland,VBO,3.768120,51.455304
Molendijk,28,,,4453AE,'s-Heerenhoek,Borsele,Zeeland,VBO,3.768232,51.455183
Molendijk,30,,,4453AG,'s-Heerenhoek,Borsele,Zeeland,VBO,3.768180,51.455408
Molendijk,32,,,4453AG,'s-Heerenhoek,Borsele,Zeeland,VBO,3.768171,51.455452
Molendijk,34,,,4453AG,'s-Heerenhoek,Borsele,Zeeland,VBO,3.768152,51.455509
Molendijk,36,,,4453AG,'s-Heerenhoek,Borsele,Zeeland,VBO,3.768143,51.455590
Molendijk,38,,,4453AG,'s-Heerenhoek,Borsele,Zeeland,VBO,3.768093,51.455806
Molendijk,40,,,4453AG,'s-Heerenhoek,Borsele,Zeeland,VBO,3.768043,51.455981
Molendijk,42,,,4453AG,'s-Heerenhoek,Borsele,Zeeland,VBO,3.768036,51.456042
Molendijk,44,,,4453AG,'s-Heerenhoek,Borsele,Zeeland,VBO,3.768016,51.456152
Molendijk,46,,,4453AG,'s-Heerenhoek,Borsele,Zeeland,VBO,3.767985,51.456247
Molendijk,48,,,4453AG,'s-Heerenhoek,Borsele,Zeeland,VBO,3.767963,51.456337
Molendijk,50,,,4453AG,'s-Heerenhoek,Borsele,Zeeland,VBO,3.767960,51.456405
Molendijk,52,,,4453AG,'s-Heerenhoek,Borsele,Zeeland,VBO,3.767840,51.456758
Molendijk,54,A,,4453AG,'s-Heerenhoek,Borsele,Zeeland,VBO,3.767775,51.457066
Molendijk,54,,,4453AG,'s-Heerenhoek,Borsele,Zeeland,VBO,3.767814,51.456973
Molendijk,56,,,4453AG,'s-Heerenhoek,Borsele,Zeeland,VBO,3.767717,51.457361
Molendijk,58,,,4453AG,'s-Heerenhoek,Borsele,Zeeland,VBO,3.767673,51.457577
Molendijk,60,,,4453AG,'s-Heerenhoek,Borsele,Zeeland,VBO,3.767648,51.457655
Molendijk,62,,,4453AG,'s-Heerenhoek,Borsele,Zeeland,VBO,3.767547,51.458052
Molendijk,64,,,4453AG,'s-Heerenhoek,Borsele,Zeeland,VBO,3.767548,51.458110
Deken Holtkampstraat,9,,,4453AH,'s-Heerenhoek,Borsele,Zeeland,VBO,3.769740,51.454154
Deken Holtkampstraat,11,,,4453AH,'s-Heerenhoek,Borsele,Zeeland,VBO,3.770209,51.453982
Deken Holtkampstraat,13,,,4453AH,'s-Heerenhoek,Borsele,Zeeland,VBO,3.770061,51.453548
Marktstraat,2,,,4453AJ,'s-Heerenhoek,Borsele,Zeeland,VBO,3.769699,51.453265
Marktstraat,3,,,4453AJ,'s-Heerenhoek,Borsele,Zeeland,VBO,3.770139,51.452974
Marktstraat,4,,,4453AJ,'s-Heerenhoek,Borsele,Zeeland,VBO,3.769735,51.453168
Marktstraat,5,,,4453AJ,'s-Heerenhoek,Borsele,Zeeland,VBO,3.770324,51.452853
Marktstraat,6,,,4453AJ,'s-Heerenhoek,Borsele,Zeeland,VBO,3.769760,51.453068
Marktstraat,7,,,4453AJ,'s-Heerenhoek,Borsele,Zeeland,VBO,3.770331,51.452805
Marktstraat,8,,,4453AJ,'s-Heerenhoek,Borsele,Zeeland,VBO,3.769798,51.452940
Marktstraat,9,,,4453AJ,'s-Heerenhoek,Borsele,Zeeland,VBO,3.770343,51.452753
Marktstraat,10,,,4453AJ,'s-Heerenhoek,Borsele,Zeeland,VBO,3.769625,51.452822
Marktstraat,11,,,4453AJ,'s-Heerenhoek,Borsele,Zeeland,VBO,3.770347,51.452702
Marktstraat,12,,,4453AJ,'s-Heerenhoek,Borsele,Zeeland,VBO,3.769648,51.452710
Marktstraat,13,,,4453AJ,'s-Heerenhoek,Borsele,Zeeland,VBO,3.770361,51.452650
Marktstraat,15,,,4453AJ,'s-Heerenhoek,Borsele,Zeeland,VBO,3.770378,51.452560
Marktstraat,16,,,4453AJ,'s-Heerenhoek,Borsele,Zeeland,VBO,3.769585,51.452443
Marktstraat,17,,,4453AJ,'s-Heerenhoek,Borsele,Zeeland,VBO,3.770384,51.452508
Marktstraat,19,,,4453AJ,'s-Heerenhoek,Borsele,Zeeland,VBO,3.770395,51.452457
Marktstraat,21,,,4453AJ,'s-Heerenhoek,Borsele,Zeeland,VBO,3.770407,51.452408
Marktstraat,23,,,4453AJ,'s-Heerenhoek,Borsele,Zeeland,VBO,3.770416,51.452355
Marktstraat,25,,,4453AJ,'s-Heerenhoek,Borsele,Zeeland,VBO,3.770439,51.452261
Deken Tomaslaan,1,,,4453AK,'s-Heerenhoek,Borsele,Zeeland,VBO,3.770233,51.453403
Deken Tomaslaan,3,,,4453AK,'s-Heerenhoek,Borsele,Zeeland,VBO,3.770488,51.453447
Deken Tomaslaan,5,,,4453AK,'s-Heerenhoek,Borsele,Zeeland,VBO,3.770932,51.453497
Deken Tomaslaan,7,,,4453AK,'s-Heerenhoek,Borsele,Zeeland,VBO,3.771034,51.453501
Deken Tomaslaan,9,,,4453AK,'s-Heerenhoek,Borsele,Zeeland,VBO,3.771133,51.453508
Deken Tomaslaan,11,,,4453AK,'s-Heerenhoek,Borsele,Zeeland,VBO,3.771229,51.453512
Deken Tomaslaan,13,,,4453AK,'s-Heerenhoek,Borsele,Zeeland,VBO,3.771395,51.453493
Deken Tomaslaan,15,,,4453AK,'s-Heerenhoek,Borsele,Zeeland,VBO,3.771495,51.453499
Deken Tomaslaan,17,,,4453AK,'s-Heerenhoek,Borsele,Zeeland,VBO,3.771601,51.453505
Deken Tomaslaan,19,,,4453AK,'s-Heerenhoek,Borsele,Zeeland,VBO,3.771706,51.453510
Deken Tomaslaan,21,,,4453AK,'s-Heerenhoek,Borsele,Zeeland,VBO,3.771855,51.453575
Deken Tomaslaan,23,,,4453AK,'s-Heerenhoek,Borsele,Zeeland,VBO,3.771958,51.453580
Deken Tomaslaan,25,,,4453AK,'s-Heerenhoek,Borsele,Zeeland,VBO,3.772062,51.453587
Deken Tomaslaan,27,,,4453AK,'s-Heerenhoek,Borsele,Zeeland,VBO,3.772161,51.453593
Deken Tomaslaan,29,,,4453AK,'s-Heerenhoek,Borsele,Zeeland,VBO,3.772255,51.453593
Deken Tomaslaan,31,,,4453AK,'s-Heerenhoek,Borsele,Zeeland,VBO,3.772352,51.453598
Deken Tomaslaan,35,,,4453AK,'s-Heerenhoek,Borsele,Zeeland,VBO,3.773850,51.454162
Deken Tomaslaan,37,,,4453AK,'s-Heerenhoek,Borsele,Zeeland,VBO,3.774473,51.453663
Deken Tomaslaan,39,,,4453AK,'s-Heerenhoek,Borsele,Zeeland,VBO,3.774560,51.453667
Deken Tomaslaan,41,,,4453AK,'s-Heerenhoek,Borsele,Zeeland,VBO,3.774647,51.453673
Deken Tomaslaan,43,,,4453AK,'s-Heerenhoek,Borsele,Zeeland,VBO,3.774732,51.453677
Deken Tomaslaan,45,,,4453AK,'s-Heerenhoek,Borsele,Zeeland,VBO,3.774997,51.453693
Deken Tomaslaan,47,,,4453AK,'s-Heerenhoek,Borsele,Zeeland,VBO,3.775148,51.453697
Deken Tomaslaan,49,,,4453AK,'s-Heerenhoek,Borsele,Zeeland,VBO,3.775241,51.453702
Deken Tomaslaan,2,,,4453AL,'s-Heerenhoek,Borsele,Zeeland,VBO,3.770121,51.453231
Deken Tomaslaan,4,,,4453AL,'s-Heerenhoek,Borsele,Zeeland,VBO,3.770301,51.453226
Deken Tomaslaan,6,,,4453AL,'s-Heerenhoek,Borsele,Zeeland,VBO,3.770481,51.453226
Deken Tomaslaan,8,,,4453AL,'s-Heerenhoek,Borsele,Zeeland,VBO,3.770663,51.453229
Deken Tomaslaan,10,,,4453AL,'s-Heerenhoek,Borsele,Zeeland,VBO,3.771096,51.453238
Deken Tomaslaan,12,,,4453AL,'s-Heerenhoek,Borsele,Zeeland,VBO,3.771419,51.453233
Deken Tomaslaan,14,,,4453AL,'s-Heerenhoek,Borsele,Zeeland,VBO,3.771738,51.453259
Deken Tomaslaan,16,,,4453AL,'s-Heerenhoek,Borsele,Zeeland,VBO,3.771834,51.453264
Deken Tomaslaan,18,,,4453AL,'s-Heerenhoek,Borsele,Zeeland,VBO,3.771951,51.453271
Deken Tomaslaan,20,,,4453AL,'s-Heerenhoek,Borsele,Zeeland,VBO,3.772062,51.453278
Deken Tomaslaan,22,,,4453AL,'s-Heerenhoek,Borsele,Zeeland,VBO,3.772178,51.453285
Deken Tomaslaan,24,,,4453AL,'s-Heerenhoek,Borsele,Zeeland,VBO,3.772262,51.453291
Deken Tomaslaan,26,,,4453AL,'s-Heerenhoek,Borsele,Zeeland,VBO,3.772376,51.453298
Deken Tomaslaan,28,,,4453AL,'s-Heerenhoek,Borsele,Zeeland,VBO,3.772462,51.453303
Deken Tomaslaan,30,,,4453AL,'s-Heerenhoek,Borsele,Zeeland,VBO,3.772586,51.453310
Deken Tomaslaan,32,,,4453AL,'s-Heerenhoek,Borsele,Zeeland,VBO,3.772668,51.453316
Deken Tomaslaan,34,,,4453AL,'s-Heerenhoek,Borsele,Zeeland,VBO,3.773374,51.453381
Deken Tomaslaan,36,,,4453AL,'s-Heerenhoek,Borsele,Zeeland,VBO,3.774324,51.453364
Deken Tomaslaan,38,,,4453AL,'s-Heerenhoek,Borsele,Zeeland,VBO,3.774642,51.453387
Deken Tomaslaan,40,,,4453AL,'s-Heerenhoek,Borsele,Zeeland,VBO,3.774925,51.453384
Deken Tomaslaan,42,,,4453AL,'s-Heerenhoek,Borsele,Zeeland,VBO,3.775239,51.453410
Deken Tomaslaan,44,,,4453AL,'s-Heerenhoek,Borsele,Zeeland,VBO,3.775575,51.453433
Deken Tomaslaan,46,,,4453AL,'s-Heerenhoek,Borsele,Zeeland,VBO,3.776084,51.453461
Merietestraat,2,,,4453AM,'s-Heerenhoek,Borsele,Zeeland,VBO,3.770712,51.453069
Merietestraat,4,,,4453AM,'s-Heerenhoek,Borsele,Zeeland,VBO,3.770745,51.453016
Merietestraat,6,,,4453AM,'s-Heerenhoek,Borsele,Zeeland,VBO,3.770776,51.452965
Merietestraat,8,,,4453AM,'s-Heerenhoek,Borsele,Zeeland,VBO,3.770808,51.452914
Merietestraat,10,,,4453AM,'s-Heerenhoek,Borsele,Zeeland,VBO,3.770855,51.452822
Merietestraat,12,,,4453AM,'s-Heerenhoek,Borsele,Zeeland,VBO,3.770882,51.452772
Merietestraat,14,,,4453AM,'s-Heerenhoek,Borsele,Zeeland,VBO,3.770910,51.452719
Merietestraat,16,,,4453AM,'s-Heerenhoek,Borsele,Zeeland,VBO,3.770937,51.452665
Merietestraat,18,,,4453AM,'s-Heerenhoek,Borsele,Zeeland,VBO,3.770958,51.452543
Merietestraat,20,,,4453AM,'s-Heerenhoek,Borsele,Zeeland,VBO,3.770961,51.452485
Merietestraat,22,,,4453AM,'s-Heerenhoek,Borsele,Zeeland,VBO,3.770971,51.452328
Merietestraat,24,,,4453AM,'s-Heerenhoek,Borsele,Zeeland,VBO,3.770979,51.452266
Jacoba van Beierenpad,2,,,4453AN,'s-Heerenhoek,Borsele,Zeeland,VBO,3.771163,51.453028
Jacoba van Beierenpad,4,,,4453AN,'s-Heerenhoek,Borsele,Zeeland,VBO,3.771446,51.453024
van Steestraat,1,,,4453AP,'s-Heerenhoek,Borsele,Zeeland,VBO,3.771304,51.452849
van Steestraat,3,,,4453AP,'s-Heerenhoek,Borsele,Zeeland,VBO,3.771494,51.452862
van Steestraat,9,,,4453AP,'s-Heerenhoek,Borsele,Zeeland,VBO,3.771705,51.452863
van Steestraat,11,,,4453AP,'s-Heerenhoek,Borsele,Zeeland,VBO,3.771792,51.452869
van Steestraat,13,,,4453AP,'s-Heerenhoek,Borsele,Zeeland,VBO,3.771875,51.452874
van Steestraat,15,,,4453AP,'s-Heerenhoek,Borsele,Zeeland,VBO,3.771967,51.452878
van Steestraat,17,,,4453AP,'s-Heerenhoek,Borsele,Zeeland,VBO,3.772053,51.452883
van Steestraat,19,,,4453AP,'s-Heerenhoek,Borsele,Zeeland,VBO,3.772141,51.452889
van Steestraat,21,,,4453AP,'s-Heerenhoek,Borsele,Zeeland,VBO,3.772283,51.452895
van Steestraat,23,,,4453AP,'s-Heerenhoek,Borsele,Zeeland,VBO,3.772368,51.452901
van Steestraat,25,,,4453AP,'s-Heerenhoek,Borsele,Zeeland,VBO,3.772460,51.452906
van Steestraat,27,,,4453AP,'s-Heerenhoek,Borsele,Zeeland,VBO,3.772542,51.452910
van Steestraat,29,,,4453AP,'s-Heerenhoek,Borsele,Zeeland,VBO,3.772632,51.452915
van Steestraat,31,,,4453AP,'s-Heerenhoek,Borsele,Zeeland,VBO,3.772718,51.452921
van Steestraat,2,,,4453AR,'s-Heerenhoek,Borsele,Zeeland,VBO,3.771784,51.452649
van Steestraat,4,,,4453AR,'s-Heerenhoek,Borsele,Zeeland,VBO,3.771874,51.452654
van Steestraat,6,,,4453AR,'s-Heerenhoek,Borsele,Zeeland,VBO,3.771962,51.452660
van Steestraat,8,,,4453AR,'s-Heerenhoek,Borsele,Zeeland,VBO,3.772050,51.452664
van Steestraat,10,,,4453AR,'s-Heerenhoek,Borsele,Zeeland,VBO,3.772134,51.452669
van Steestraat,12,,,4453AR,'s-Heerenhoek,Borsele,Zeeland,VBO,3.772266,51.452677
van Steestraat,14,,,4453AR,'s-Heerenhoek,Borsele,Zeeland,VBO,3.772360,51.452683
van Steestraat,16,,,4453AR,'s-Heerenhoek,Borsele,Zeeland,VBO,3.772449,51.452687
van Steestraat,18,,,4453AR,'s-Heerenhoek,Borsele,Zeeland,VBO,3.772536,51.452692
van Steestraat,20,,,4453AR,'s-Heerenhoek,Borsele,Zeeland,VBO,3.772678,51.452721
van Steestraat,22,,,4453AR,'s-Heerenhoek,Borsele,Zeeland,VBO,3.772764,51.452727
Willibrordusstraat,1,,,4453AS,'s-Heerenhoek,Borsele,Zeeland,VBO,3.773457,51.453232
Willibrordusstraat,3,,,4453AS,'s-Heerenhoek,Borsele,Zeeland,VBO,3.773474,51.453114
Willibrordusstraat,5,,,4453AS,'s-Heerenhoek,Borsele,Zeeland,VBO,3.773492,51.452974
Willibrordusstraat,7,,,4453AS,'s-Heerenhoek,Borsele,Zeeland,VBO,3.773502,51.452744
Willibrordusstraat,9,,,4453AS,'s-Heerenhoek,Borsele,Zeeland,VBO,3.773537,51.452586
Willibrordusstraat,11,,,4453AS,'s-Heerenhoek,Borsele,Zeeland,VBO,3.773569,51.452418
Willibrordusstraat,13,,,4453AS,'s-Heerenhoek,Borsele,Zeeland,VBO,3.773581,51.452174
Willibrordusstraat,15,,,4453AS,'s-Heerenhoek,Borsele,Zeeland,VBO,3.773595,51.452077
Willibrordusstraat,17,,,4453AS,'s-Heerenhoek,Borsele,Zeeland,VBO,3.773613,51.451985
Willibrordusstraat,2,,,4453AT,'s-Heerenhoek,Borsele,Zeeland,VBO,3.772958,51.453331
Willibrordusstraat,4,,,4453AT,'s-Heerenhoek,Borsele,Zeeland,VBO,3.772970,51.453277
Willibrordusstraat,6,,,4453AT,'s-Heerenhoek,Borsele,Zeeland,VBO,3.772984,51.453218
Willibrordusstraat,8,,,4453AT,'s-Heerenhoek,Borsele,Zeeland,VBO,3.772995,51.453162
Willibrordusstraat,12,,,4453AT,'s-Heerenhoek,Borsele,Zeeland,VBO,3.772999,51.452957
Willibrordusstraat,18,,,4453AT,'s-Heerenhoek,Borsele,Zeeland,VBO,3.773079,51.452742
Willibrordusstraat,20,,,4453AT,'s-Heerenhoek,Borsele,Zeeland,VBO,3.773094,51.452688
Willibrordusstraat,22,,,4453AT,'s-Heerenhoek,Borsele,Zeeland,VBO,3.773103,51.452631
Willibrordusstraat,24,,,4453AT,'s-Heerenhoek,Borsele,Zeeland,VBO,3.773119,51.452573
Willibrordusstraat,26,,,4453AT,'s-Heerenhoek,Borsele,Zeeland,VBO,3.773131,51.452496
Willibrordusstraat,28,,,4453AT,'s-Heerenhoek,Borsele,Zeeland,VBO,3.773145,51.452442
Willibrordusstraat,30,,,4453AT,'s-Heerenhoek,Borsele,Zeeland,VBO,3.773156,51.452389
Willibrordusstraat,32,,,4453AT,'s-Heerenhoek,Borsele,Zeeland,VBO,3.772948,51.452158
Willibrordusstraat,34,,,4453AT,'s-Heerenhoek,Borsele,Zeeland,VBO,3.772954,51.452104
Willibrordusstraat,36,,,4453AT,'s-Heerenhoek,Borsele,Zeeland,VBO,3.772961,51.452052
Willibrordusstraat,38,,,4453AT,'s-Heerenhoek,Borsele,Zeeland,VBO,3.772971,51.451997
Willibrordusstraat,40,,,4453AT,'s-Heerenhoek,Borsele,Zeeland,VBO,3.772957,51.451905
Willibrordusstraat,42,,,4453AT,'s-Heerenhoek,Borsele,Zeeland,VBO,3.772966,51.451853
Willibrordusstraat,44,,,4453AT,'s-Heerenhoek,Borsele,Zeeland,VBO,3.772973,51.451799
Laustraat,1,A,,4453AV,'s-Heerenhoek,Borsele,Zeeland,VBO,3.769486,51.452173
Laustraat,1,,,4453AV,'s-Heerenhoek,Borsele,Zeeland,VBO,3.769690,51.452189
Laustraat,15,,,4453AV,'s-Heerenhoek,Borsele,Zeeland,VBO,3.771885,51.452318
Laustraat,17,,,4453AV,'s-Heerenhoek,Borsele,Zeeland,VBO,3.771972,51.452321
Laustraat,19,,,4453AV,'s-Heerenhoek,Borsele,Zeeland,VBO,3.772058,51.452327
Laustraat,21,,,4453AV,'s-Heerenhoek,Borsele,Zeeland,VBO,3.772146,51.452332
Laustraat,23,,,4453AV,'s-Heerenhoek,Borsele,Zeeland,VBO,3.772228,51.452337
Laustraat,25,,,4453AV,'s-Heerenhoek,Borsele,Zeeland,VBO,3.772318,51.452342
Laustraat,27,,,4453AV,'s-Heerenhoek,Borsele,Zeeland,VBO,3.772478,51.452340
Laustraat,29,,,4453AV,'s-Heerenhoek,Borsele,Zeeland,VBO,3.772567,51.452344
Laustraat,31,,,4453AV,'s-Heerenhoek,Borsele,Zeeland,VBO,3.772731,51.452353
Laustraat,33,,,4453AV,'s-Heerenhoek,Borsele,Zeeland,VBO,3.772816,51.452356
Laustraat,2,,,4453AW,'s-Heerenhoek,Borsele,Zeeland,VBO,3.769540,51.451919
Laustraat,4,,,4453AW,'s-Heerenhoek,Borsele,Zeeland,VBO,3.769634,51.451925
Laustraat,6,,,4453AW,'s-Heerenhoek,Borsele,Zeeland,VBO,3.769726,51.451930
Laustraat,8,,,4453AW,'s-Heerenhoek,Borsele,Zeeland,VBO,3.769811,51.451935
Laustraat,10,,,4453AW,'s-Heerenhoek,Borsele,Zeeland,VBO,3.769957,51.451960
Laustraat,12,,,4453AW,'s-Heerenhoek,Borsele,Zeeland,VBO,3.770048,51.451965
Laustraat,14,,,4453AW,'s-Heerenhoek,Borsele,Zeeland,VBO,3.770129,51.451969
Laustraat,16,,,4453AW,'s-Heerenhoek,Borsele,Zeeland,VBO,3.770219,51.451973
Laustraat,18,,,4453AW,'s-Heerenhoek,Borsele,Zeeland,VBO,3.770308,51.451978
Laustraat,20,,,4453AW,'s-Heerenhoek,Borsele,Zeeland,VBO,3.770455,51.451986
Laustraat,22,,,4453AW,'s-Heerenhoek,Borsele,Zeeland,VBO,3.770548,51.451991
Laustraat,24,,,4453AW,'s-Heerenhoek,Borsele,Zeeland,VBO,3.770634,51.451995
Laustraat,26,,,4453AW,'s-Heerenhoek,Borsele,Zeeland,VBO,3.770724,51.452002
Laustraat,28,,,4453AW,'s-Heerenhoek,Borsele,Zeeland,VBO,3.770917,51.452004
Laustraat,30,,,4453AW,'s-Heerenhoek,Borsele,Zeeland,VBO,3.771009,51.452009
Laustraat,32,,,4453AX,'s-Heerenhoek,Borsele,Zeeland,VBO,3.771189,51.452048
Laustraat,34,,,4453AX,'s-Heerenhoek,Borsele,Zeeland,VBO,3.771274,51.452052
Laustraat,36,,,4453AX,'s-Heerenhoek,Borsele,Zeeland,VBO,3.771359,51.452058
Laustraat,38,,,4453AX,'s-Heerenhoek,Borsele,Zeeland,VBO,3.771448,51.452062
Laustraat,40,,,4453AX,'s-Heerenhoek,Borsele,Zeeland,VBO,3.771530,51.452067
Laustraat,42,,,4453AX,'s-Heerenhoek,Borsele,Zeeland,VBO,3.771617,51.452072
Laustraat,44,,,4453AX,'s-Heerenhoek,Borsele,Zeeland,VBO,3.771771,51.452046
Laustraat,46,,,4453AX,'s-Heerenhoek,Borsele,Zeeland,VBO,3.771860,51.452050
Laustraat,48,,,4453AX,'s-Heerenhoek,Borsele,Zeeland,VBO,3.771944,51.452054
Laustraat,50,,,4453AX,'s-Heerenhoek,Borsele,Zeeland,VBO,3.772031,51.452058
Laustraat,52,,,4453AX,'s-Heerenhoek,Borsele,Zeeland,VBO,3.772173,51.452104
Laustraat,54,,,4453AX,'s-Heerenhoek,Borsele,Zeeland,VBO,3.772259,51.452110
Laustraat,56,,,4453AX,'s-Heerenhoek,Borsele,Zeeland,VBO,3.772349,51.452116
Laustraat,58,,,4453AX,'s-Heerenhoek,Borsele,Zeeland,VBO,3.772437,51.452120
Laustraat,60,,,4453AX,'s-Heerenhoek,Borsele,Zeeland,VBO,3.772522,51.452126
Laustraat,62,,,4453AX,'s-Heerenhoek,Borsele,Zeeland,VBO,3.772607,51.452129
Dregmansstraat,1,,,4453AZ,'s-Heerenhoek,Borsele,Zeeland,VBO,3.774783,51.452658
Dregmansstraat,3,,,4453AZ,'s-Heerenhoek,Borsele,Zeeland,VBO,3.774787,51.452611
Dregmansstraat,5,,,4453AZ,'s-Heerenhoek,Borsele,Zeeland,VBO,3.774794,51.452563
Dregmansstraat,7,,,4453AZ,'s-Heerenhoek,Borsele,Zeeland,VBO,3.774801,51.452517
Dregmansstraat,9,,,4453AZ,'s-Heerenhoek,Borsele,Zeeland,VBO,3.774847,51.452438
Dregmansstraat,11,,,4453AZ,'s-Heerenhoek,Borsele,Zeeland,VBO,3.774850,51.452386
Dregmansstraat,13,,,4453AZ,'s-Heerenhoek,Borsele,Zeeland,VBO,3.774856,51.452338
Dregmansstraat,14,,,4453AZ,'s-Heerenhoek,Borsele,Zeeland,VBO,3.774445,51.452479
Dregmansstraat,15,,,4453AZ,'s-Heerenhoek,Borsele,Zeeland,VBO,3.774866,51.452294
Dregmansstraat,16,,,4453AZ,'s-Heerenhoek,Borsele,Zeeland,VBO,3.774190,51.452461
Dregmansstraat,17,,,4453AZ,'s-Heerenhoek,Borsele,Zeeland,VBO,3.774872,51.452247
Dregmansstraat,18,,,4453AZ,'s-Heerenhoek,Borsele,Zeeland,VBO,3.773930,51.452446
Dregmansstraat,19,,,4453AZ,'s-Heerenhoek,Borsele,Zeeland,VBO,3.774881,51.452203
Dregmansstraat,20,,,4453AZ,'s-Heerenhoek,Borsele,Zeeland,VBO,3.774252,51.452181
Dregmansstraat,22,,,4453AZ,'s-Heerenhoek,Borsele,Zeeland,VBO,3.774258,51.452137
Dregmansstraat,24,,,4453AZ,'s-Heerenhoek,Borsele,Zeeland,VBO,3.774264,51.452094
Dregmansstraat,26,,,4453AZ,'s-Heerenhoek,Borsele,Zeeland,VBO,3.774270,51.452051
Dregmansstraat,28,,,4453AZ,'s-Heerenhoek,Borsele,Zeeland,VBO,3.774276,51.452007
Dregmansstraat,30,,,4453AZ,'s-Heerenhoek,Borsele,Zeeland,VBO,3.774282,51.451964
Dregmansstraat,32,,,4453AZ,'s-Heerenhoek,Borsele,Zeeland,VBO,3.774288,51.451920
Dregmansstraat,34,,,4453AZ,'s-Heerenhoek,Borsele,Zeeland,VBO,3.774294,51.451877
Dregmansstraat,36,,,4453AZ,'s-Heerenhoek,Borsele,Zeeland,VBO,3.774642,51.451961
Dregmansstraat,38,,,4453AZ,'s-Heerenhoek,Borsele,Zeeland,VBO,3.774711,51.451964
Dregmansstraat,40,,,4453AZ,'s-Heerenhoek,Borsele,Zeeland,VBO,3.774780,51.451968
Dregmansstraat,42,,,4453AZ,'s-Heerenhoek,Borsele,Zeeland,VBO,3.774848,51.451972
Dregmansstraat,44,,,4453AZ,'s-Heerenhoek,Borsele,Zeeland,VBO,3.774917,51.451976
Dregmansstraat,46,,,4453AZ,'s-Heerenhoek,Borsele,Zeeland,VBO,3.774986,51.451979
Dregmansstraat,48,,,4453AZ,'s-Heerenhoek,Borsele,Zeeland,VBO,3.775055,51.451983
van Zijlstraat,2,,,4453BA,'s-Heerenhoek,Borsele,Zeeland,VBO,3.773910,51.453383
van Zijlstraat,4,,,4453BA,'s-Heerenhoek,Borsele,Zeeland,VBO,3.773923,51.453198
van Zijlstraat,6,,,4453BA,'s-Heerenhoek,Borsele,Zeeland,VBO,3.773931,51.452990
van Zijlstraat,8,,,4453BA,'s-Heerenhoek,Borsele,Zeeland,VBO,3.774032,51.452731
van Zijlstraat,10,,,4453BA,'s-Heerenhoek,Borsele,Zeeland,VBO,3.774363,51.452756
van Zijlstraat,12,,,4453BA,'s-Heerenhoek,Borsele,Zeeland,VBO,3.774724,51.452854
van Zijlstraat,14,,,4453BA,'s-Heerenhoek,Borsele,Zeeland,VBO,3.774803,51.452860
van Zijlstraat,16,,,4453BA,'s-Heerenhoek,Borsele,Zeeland,VBO,3.774872,51.452858
van Zijlstraat,18,,,4453BA,'s-Heerenhoek,Borsele,Zeeland,VBO,3.774942,51.452863
van Zijlstraat,20,,,4453BA,'s-Heerenhoek,Borsele,Zeeland,VBO,3.775094,51.452883
van Zijlstraat,22,,,4453BA,'s-Heerenhoek,Borsele,Zeeland,VBO,3.775171,51.452889
van Zijlstraat,24,,,4453BA,'s-Heerenhoek,Borsele,Zeeland,VBO,3.775265,51.452894
van Zijlstraat,26,,,4453BA,'s-Heerenhoek,Borsele,Zeeland,VBO,3.775358,51.452900
van Zijlstraat,32,,,4453BA,'s-Heerenhoek,Borsele,Zeeland,VBO,3.775654,51.452916
van Zijlstraat,34,,,4453BA,'s-Heerenhoek,Borsele,Zeeland,VBO,3.775661,51.452863
van Zijlstraat,36,,,4453BA,'s-Heerenhoek,Borsele,Zeeland,VBO,3.775676,51.452747
van Zijlstraat,38,,,4453BA,'s-Heerenhoek,Borsele,Zeeland,VBO,3.775682,51.452691
van Zijlstraat,40,,,4453BA,'s-Heerenhoek,Borsele,Zeeland,VBO,3.775730,51.452577
van Zijlstraat,42,,,4453BA,'s-Heerenhoek,Borsele,Zeeland,VBO,3.775738,51.452522
van Zijlstraat,44,,,4453BA,'s-Heerenhoek,Borsele,Zeeland,VBO,3.775786,51.452291
van Zijlstraat,46,,,4453BA,'s-Heerenhoek,Borsele,Zeeland,VBO,3.775695,51.452284
van Zijlstraat,48,,,4453BA,'s-Heerenhoek,Borsele,Zeeland,VBO,3.775512,51.452276
van Zijlstraat,50,,,4453BA,'s-Heerenhoek,Borsele,Zeeland,VBO,3.775424,51.452267
van Zijlstraat,52,,,4453BA,'s-Heerenhoek,Borsele,Zeeland,VBO,3.775253,51.452256
van Zijlstraat,54,,,4453BA,'s-Heerenhoek,Borsele,Zeeland,VBO,3.775163,51.452251
van Zijlstraat,74,,,4453BA,'s-Heerenhoek,Borsele,Zeeland,VBO,3.775435,51.452032
van Zijlstraat,76,,,4453BA,'s-Heerenhoek,Borsele,Zeeland,VBO,3.775443,51.451976
van Zijlstraat,78,,,4453BA,'s-Heerenhoek,Borsele,Zeeland,VBO,3.775458,51.451864
van Zijlstraat,80,,,4453BA,'s-Heerenhoek,Borsele,Zeeland,VBO,3.775465,51.451808
van Zijlstraat,82,,,4453BA,'s-Heerenhoek,Borsele,Zeeland,VBO,3.775480,51.451696
van Zijlstraat,1,,,4453BB,'s-Heerenhoek,Borsele,Zeeland,VBO,3.774342,51.453091
van Zijlstraat,3,,,4453BB,'s-Heerenhoek,Borsele,Zeeland,VBO,3.774647,51.453101
van Zijlstraat,5,,,4453BB,'s-Heerenhoek,Borsele,Zeeland,VBO,3.774914,51.453124
van Zijlstraat,7,,,4453BB,'s-Heerenhoek,Borsele,Zeeland,VBO,3.775329,51.453163
van Zijlstraat,9,,,4453BB,'s-Heerenhoek,Borsele,Zeeland,VBO,3.775613,51.453155
van Zijlstraat,11,,,4453BB,'s-Heerenhoek,Borsele,Zeeland,VBO,3.776003,51.453252
van Zijlstraat,13,,,4453BB,'s-Heerenhoek,Borsele,Zeeland,VBO,3.776024,51.453067
van Zijlstraat,15,,,4453BB,'s-Heerenhoek,Borsele,Zeeland,VBO,3.776045,51.452871
van Zijlstraat,17,,,4453BB,'s-Heerenhoek,Borsele,Zeeland,VBO,3.776080,51.452695
van Zijlstraat,19,,,4453BB,'s-Heerenhoek,Borsele,Zeeland,VBO,3.776146,51.452486
van Zijlstraat,21,,,4453BB,'s-Heerenhoek,Borsele,Zeeland,VBO,3.776169,51.452298
van Zijlstraat,23,,,4453BB,'s-Heerenhoek,Borsele,Zeeland,VBO,3.776256,51.452088
van Zijlstraat,25,,,4453BB,'s-Heerenhoek,Borsele,Zeeland,VBO,3.775833,51.452030
van Zijlstraat,27,,,4453BB,'s-Heerenhoek,Borsele,Zeeland,VBO,3.775865,51.451885
Pastoor Fronhoffstraat,1,A,,4453BC,'s-Heerenhoek,Borsele,Zeeland,VBO,3.774339,51.454670
Pastoor Fronhoffstraat,1,,,4453BC,'s-Heerenhoek,Borsele,Zeeland,VBO,3.773804,51.454411
Pastoor Fronhoffstraat,2,,,4453BC,'s-Heerenhoek,Borsele,Zeeland,VBO,3.774394,51.454453
Pastoor Fronhoffstraat,3,A,,4453BC,'s-Heerenhoek,Borsele,Zeeland,VBO,3.774420,51.454666
Pastoor Fronhoffstraat,3,B,,4453BC,'s-Heerenhoek,Borsele,Zeeland,VBO,3.773867,51.454999
Pastoor Fronhoffstraat,3,,,4453BC,'s-Heerenhoek,Borsele,Zeeland,VBO,3.773806,51.454847
Pastoor Fronhoffstraat,4,,,4453BC,'s-Heerenhoek,Borsele,Zeeland,VBO,3.774472,51.454455
Pastoor Fronhoffstraat,5,,,4453BC,'s-Heerenhoek,Borsele,Zeeland,VBO,3.774509,51.454667
Pastoor Fronhoffstraat,6,,,4453BC,'s-Heerenhoek,Borsele,Zeeland,VBO,3.774550,51.454461
Pastoor Fronhoffstraat,7,,,4453BC,'s-Heerenhoek,Borsele,Zeeland,VBO,3.774587,51.454677
Pastoor Fronhoffstraat,8,,,4453BC,'s-Heerenhoek,Borsele,Zeeland,VBO,3.774639,51.454464
Pastoor Fronhoffstraat,9,,,4453BC,'s-Heerenhoek,Borsele,Zeeland,VBO,3.774905,51.454916
Pastoor Fronhoffstraat,10,,,4453BC,'s-Heerenhoek,Borsele,Zeeland,VBO,3.774898,51.454483
Pastoor Fronhoffstraat,11,,,4453BC,'s-Heerenhoek,Borsele,Zeeland,VBO,3.774899,51.454859
Pastoor Fronhoffstraat,12,,,4453BC,'s-Heerenhoek,Borsele,Zeeland,VBO,3.774976,51.454485
Pastoor Fronhoffstraat,13,,,4453BC,'s-Heerenhoek,Borsele,Zeeland,VBO,3.774920,51.454766
Pastoor Fronhoffstraat,14,,,4453BC,'s-Heerenhoek,Borsele,Zeeland,VBO,3.775195,51.454498
Pastoor Fronhoffstraat,15,,,4453BC,'s-Heerenhoek,Borsele,Zeeland,VBO,3.774926,51.454715
Pastoor Fronhoffstraat,16,,,4453BC,'s-Heerenhoek,Borsele,Zeeland,VBO,3.775493,51.454490
Pastoor Fronhoffstraat,17,,,4453BC,'s-Heerenhoek,Borsele,Zeeland,VBO,3.775242,51.454713
Pastoor Fronhoffstraat,18,,,4453BC,'s-Heerenhoek,Borsele,Zeeland,VBO,3.775506,51.454437
Pastoor Fronhoffstraat,19,,,4453BC,'s-Heerenhoek,Borsele,Zeeland,VBO,3.775531,51.454731
Pastoor Fronhoffstraat,20,,,4453BC,'s-Heerenhoek,Borsele,Zeeland,VBO,3.775509,51.454344
Pastoor Fronhoffstraat,21,,,4453BC,'s-Heerenhoek,Borsele,Zeeland,VBO,3.775831,51.454724
Pastoor Fronhoffstraat,22,,,4453BC,'s-Heerenhoek,Borsele,Zeeland,VBO,3.775517,51.454286
Pastoor Fronhoffstraat,23,,,4453BC,'s-Heerenhoek,Borsele,Zeeland,VBO,3.775866,51.454542
Pastoor Fronhoffstraat,24,,,4453BC,'s-Heerenhoek,Borsele,Zeeland,VBO,3.775532,51.454195
Pastoor Fronhoffstraat,25,,,4453BC,'s-Heerenhoek,Borsele,Zeeland,VBO,3.775896,51.454380
Pastoor Fronhoffstraat,26,,,4453BC,'s-Heerenhoek,Borsele,Zeeland,VBO,3.775505,51.453951
Pastoor Fronhoffstraat,27,,,4453BC,'s-Heerenhoek,Borsele,Zeeland,VBO,3.775917,51.454217
Pastoor Fronhoffstraat,28,,,4453BC,'s-Heerenhoek,Borsele,Zeeland,VBO,3.775514,51.453899
Pastoor Fronhoffstraat,29,,,4453BC,'s-Heerenhoek,Borsele,Zeeland,VBO,3.775890,51.454062
Pastoor Fronhoffstraat,30,,,4453BC,'s-Heerenhoek,Borsele,Zeeland,VBO,3.775534,51.453765
Pastoor Fronhoffstraat,31,,,4453BC,'s-Heerenhoek,Borsele,Zeeland,VBO,3.775890,51.453894
Pastoor Fronhoffstraat,32,,,4453BC,'s-Heerenhoek,Borsele,Zeeland,VBO,3.775541,51.453717
Pastoor Fronhoffstraat,33,,,4453BC,'s-Heerenhoek,Borsele,Zeeland,VBO,3.775931,51.453748
Deken de Zwagerpad,1,,,4453BD,'s-Heerenhoek,Borsele,Zeeland,VBO,3.774425,51.454160
Deken de Zwagerpad,2,,,4453BD,'s-Heerenhoek,Borsele,Zeeland,VBO,3.774439,51.453936
Deken de Zwagerpad,3,,,4453BD,'s-Heerenhoek,Borsele,Zeeland,VBO,3.774499,51.454174
Deken de Zwagerpad,4,,,4453BD,'s-Heerenhoek,Borsele,Zeeland,VBO,3.774525,51.453942
Deken de Zwagerpad,5,,,4453BD,'s-Heerenhoek,Borsele,Zeeland,VBO,3.774579,51.454169
Deken de Zwagerpad,6,,,4453BD,'s-Heerenhoek,Borsele,Zeeland,VBO,3.774609,51.453948
Deken de Zwagerpad,7,,,4453BD,'s-Heerenhoek,Borsele,Zeeland,VBO,3.774656,51.454174
Deken de Zwagerpad,8,,,4453BD,'s-Heerenhoek,Borsele,Zeeland,VBO,3.774695,51.453953
Deken de Zwagerpad,9,,,4453BD,'s-Heerenhoek,Borsele,Zeeland,VBO,3.774931,51.454164
Deken de Zwagerpad,10,,,4453BD,'s-Heerenhoek,Borsele,Zeeland,VBO,3.774945,51.453943
Deken de Zwagerpad,11,,,4453BD,'s-Heerenhoek,Borsele,Zeeland,VBO,3.775007,51.454168
Deken de Zwagerpad,12,,,4453BD,'s-Heerenhoek,Borsele,Zeeland,VBO,3.775048,51.453958
Deken de Zwagerpad,13,,,4453BD,'s-Heerenhoek,Borsele,Zeeland,VBO,3.775082,51.454172
Deken de Zwagerpad,14,,,4453BD,'s-Heerenhoek,Borsele,Zeeland,VBO,3.775125,51.453962
Deken de Zwagerpad,15,,,4453BD,'s-Heerenhoek,Borsele,Zeeland,VBO,3.775158,51.454176
Deken de Zwagerpad,16,,,4453BD,'s-Heerenhoek,Borsele,Zeeland,VBO,3.775202,51.453967
Deken de Zwagerpad,17,,,4453BD,'s-Heerenhoek,Borsele,Zeeland,VBO,3.775234,51.454180
Blikhoek,2,,,4453BE,'s-Heerenhoek,Borsele,Zeeland,VBO,3.770357,51.454425
Blikhoek,4,,,4453BE,'s-Heerenhoek,Borsele,Zeeland,VBO,3.769988,51.454718
Blikhoek,6,,,4453BE,'s-Heerenhoek,Borsele,Zeeland,VBO,3.769669,51.454645
Blikhoek,8,,,4453BE,'s-Heerenhoek,Borsele,Zeeland,VBO,3.769637,51.454747
Blikhoek,10,,,4453BE,'s-Heerenhoek,Borsele,Zeeland,VBO,3.769609,51.454805
Blikhoek,12,,,4453BE,'s-Heerenhoek,Borsele,Zeeland,VBO,3.769591,51.454873
Blikhoek,14,,,4453BE,'s-Heerenhoek,Borsele,Zeeland,VBO,3.769567,51.454940
Blikhoek,16,,,4453BE,'s-Heerenhoek,Borsele,Zeeland,VBO,3.769549,51.455005
Blikhoek,18,,,4453BE,'s-Heerenhoek,Borsele,Zeeland,VBO,3.769671,51.455019
Blikhoek,20,,,4453BE,'s-Heerenhoek,Borsele,Zeeland,VBO,3.769775,51.455037
Blikhoek,22,,,4453BE,'s-Heerenhoek,Borsele,Zeeland,VBO,3.769882,51.455047
Blikhoek,24,,,4453BE,'s-Heerenhoek,Borsele,Zeeland,VBO,3.769962,51.455058
Blikhoek,26,,,4453BE,'s-Heerenhoek,Borsele,Zeeland,VBO,3.770139,51.455085
Blikhoek,28,,,4453BE,'s-Heerenhoek,Borsele,Zeeland,VBO,3.770174,51.454986
Blikhoek,30,,,4453BE,'s-Heerenhoek,Borsele,Zeeland,VBO,3.770169,51.454894
Blikhoek,32,,,4453BE,'s-Heerenhoek,Borsele,Zeeland,VBO,3.770206,51.455095
Blikhoek,34,,,4453BE,'s-Heerenhoek,Borsele,Zeeland,VBO,3.770234,51.455022
Blikhoek,36,,,4453BE,'s-Heerenhoek,Borsele,Zeeland,VBO,3.770268,51.454964
Blikhoek,38,,,4453BE,'s-Heerenhoek,Borsele,Zeeland,VBO,3.770239,51.454903
Blikhoek,40,,,4453BG,'s-Heerenhoek,Borsele,Zeeland,VBO,3.770240,51.456270
Blikhoek,42,,,4453BG,'s-Heerenhoek,Borsele,Zeeland,VBO,3.770266,51.456313
Blikhoek,44,,,4453BG,'s-Heerenhoek,Borsele,Zeeland,VBO,3.770288,51.456358
Blikhoek,46,,,4453BG,'s-Heerenhoek,Borsele,Zeeland,VBO,3.770308,51.456407
Blikhoek,48,,,4453BG,'s-Heerenhoek,Borsele,Zeeland,VBO,3.770309,51.456472
Blikhoek,50,,,4453BG,'s-Heerenhoek,Borsele,Zeeland,VBO,3.770330,51.456521
Blikhoek,52,,,4453BG,'s-Heerenhoek,Borsele,Zeeland,VBO,3.770348,51.456566
Blikhoek,54,,,4453BG,'s-Heerenhoek,Borsele,Zeeland,VBO,3.770375,51.456614
Blikhoek,56,,,4453BG,'s-Heerenhoek,Borsele,Zeeland,VBO,3.770421,51.456697
Blikhoek,58,,,4453BG,'s-Heerenhoek,Borsele,Zeeland,VBO,3.770437,51.456739
Blikhoek,60,,,4453BG,'s-Heerenhoek,Borsele,Zeeland,VBO,3.770459,51.456783
Blikhoek,62,,,4453BG,'s-Heerenhoek,Borsele,Zeeland,VBO,3.770477,51.456830
Blikhoek,64,,,4453BG,'s-Heerenhoek,Borsele,Zeeland,VBO,3.770601,51.457026
Blikhoek,66,,,4453BG,'s-Heerenhoek,Borsele,Zeeland,VBO,3.770880,51.457628
Blikhoek,68,,,4453BG,'s-Heerenhoek,Borsele,Zeeland,VBO,3.770903,51.457686
Blikhoek,70,,,4453BG,'s-Heerenhoek,Borsele,Zeeland,VBO,3.770926,51.457752
Blikhoek,72,,,4453BG,'s-Heerenhoek,Borsele,Zeeland,VBO,3.770962,51.457828
Blikhoek,74,,,4453BG,'s-Heerenhoek,Borsele,Zeeland,VBO,3.770991,51.457894
Blikhoek,76,,,4453BG,'s-Heerenhoek,Borsele,Zeeland,VBO,3.771031,51.457948
Blikhoek,78,,,4453BG,'s-Heerenhoek,Borsele,Zeeland,VBO,3.771090,51.458201
Blikhoek,80,,,4453BG,'s-Heerenhoek,Borsele,Zeeland,VBO,3.771108,51.458243
Blikhoek,82,,,4453BG,'s-Heerenhoek,Borsele,Zeeland,VBO,3.771129,51.458285
Blikhoek,84,,,4453BG,'s-Heerenhoek,Borsele,Zeeland,VBO,3.771145,51.458327
Blikhoek,86,,,4453BG,'s-Heerenhoek,Borsele,Zeeland,VBO,3.771161,51.458368
Blikhoek,88,,,4453BG,'s-Heerenhoek,Borsele,Zeeland,VBO,3.771182,51.458412
Blikhoek,90,,,4453BG,'s-Heerenhoek,Borsele,Zeeland,VBO,3.771236,51.458539
Blikhoek,1,,,4453BH,'s-Heerenhoek,Borsele,Zeeland,VBO,3.769371,51.455320
Blikhoek,3,,,4453BH,'s-Heerenhoek,Borsele,Zeeland,VBO,3.769500,51.455336
Blikhoek,5,,,4453BH,'s-Heerenhoek,Borsele,Zeeland,VBO,3.769638,51.455353
Blikhoek,7,,,4453BH,'s-Heerenhoek,Borsele,Zeeland,VBO,3.769779,51.455371
Blikhoek,9,,,4453BH,'s-Heerenhoek,Borsele,Zeeland,VBO,3.769918,51.455388
Blikhoek,11,,,4453BH,'s-Heerenhoek,Borsele,Zeeland,VBO,3.770063,51.455406
Blikhoek,13,,,4453BH,'s-Heerenhoek,Borsele,Zeeland,VBO,3.769990,51.455598
Blikhoek,15,,,4453BH,'s-Heerenhoek,Borsele,Zeeland,VBO,3.769953,51.455730
Blikhoek,17,,,4453BH,'s-Heerenhoek,Borsele,Zeeland,VBO,3.769882,51.455932
Blikhoek,19,,,4453BH,'s-Heerenhoek,Borsele,Zeeland,VBO,3.769857,51.456061
kapelaan Koningstraat,1,,,4453BJ,'s-Heerenhoek,Borsele,Zeeland,VBO,3.770397,51.456015
kapelaan Koningstraat,3,,,4453BJ,'s-Heerenhoek,Borsele,Zeeland,VBO,3.770599,51.456044
kapelaan Koningstraat,7,,,4453BJ,'s-Heerenhoek,Borsele,Zeeland,VBO,3.771596,51.456205
kapelaan Koningstraat,9,,,4453BJ,'s-Heerenhoek,Borsele,Zeeland,VBO,3.771622,51.456258
kapelaan Koningstraat,11,,,4453BJ,'s-Heerenhoek,Borsele,Zeeland,VBO,3.771679,51.456411
kapelaan Koningstraat,13,,,4453BJ,'s-Heerenhoek,Borsele,Zeeland,VBO,3.771702,51.456458
kapelaan Koningstraat,15,,,4453BJ,'s-Heerenhoek,Borsele,Zeeland,VBO,3.771770,51.456615
kapelaan Koningstraat,17,,,4453BJ,'s-Heerenhoek,Borsele,Zeeland,VBO,3.771782,51.456659
kapelaan Koningstraat,19,,,4453BJ,'s-Heerenhoek,Borsele,Zeeland,VBO,3.771292,51.456723
kapelaan Koningstraat,21,,,4453BJ,'s-Heerenhoek,Borsele,Zeeland,VBO,3.771277,51.456677
kapelaan Koningstraat,23,,,4453BJ,'s-Heerenhoek,Borsele,Zeeland,VBO,3.771225,51.456571
kapelaan Koningstraat,25,,,4453BJ,'s-Heerenhoek,Borsele,Zeeland,VBO,3.771206,51.456522
kapelaan Koningstraat,27,,,4453BJ,'s-Heerenhoek,Borsele,Zeeland,VBO,3.771155,51.456416
kapelaan Koningstraat,29,,,4453BJ,'s-Heerenhoek,Borsele,Zeeland,VBO,3.771131,51.456368
kapelaan Koningstraat,31,,,4453BJ,'s-Heerenhoek,Borsele,Zeeland,VBO,3.771085,51.456258
kapelaan Koningstraat,33,,,4453BJ,'s-Heerenhoek,Borsele,Zeeland,VBO,3.771064,51.456212
kapelaan Koningstraat,4,,,4453BK,'s-Heerenhoek,Borsele,Zeeland,VBO,3.770571,51.455777
kapelaan Koningstraat,6,,,4453BK,'s-Heerenhoek,Borsele,Zeeland,VBO,3.771008,51.455951
kapelaan Koningstraat,8,,,4453BK,'s-Heerenhoek,Borsele,Zeeland,VBO,3.771267,51.455932
kapelaan Koningstraat,10,,,4453BK,'s-Heerenhoek,Borsele,Zeeland,VBO,3.771546,51.455945
kapelaan Koningstraat,12,,,4453BK,'s-Heerenhoek,Borsele,Zeeland,VBO,3.771903,51.455958
kapelaan Koningstraat,14,,,4453BK,'s-Heerenhoek,Borsele,Zeeland,VBO,3.772002,51.456276
kapelaan Koningstraat,16,,,4453BK,'s-Heerenhoek,Borsele,Zeeland,VBO,3.772074,51.456487
kapelaan Koningstraat,18,,,4453BK,'s-Heerenhoek,Borsele,Zeeland,VBO,3.772241,51.456694
kapelaan Koningstraat,20,,,4453BK,'s-Heerenhoek,Borsele,Zeeland,VBO,3.772174,51.456901
kapelaan Koningstraat,22,,,4453BK,'s-Heerenhoek,Borsele,Zeeland,VBO,3.771838,51.456957
kapelaan Koningstraat,24,,,4453BK,'s-Heerenhoek,Borsele,Zeeland,VBO,3.771473,51.456968
kapelaan Koningstraat,26,,,4453BK,'s-Heerenhoek,Borsele,Zeeland,VBO,3.771119,51.456957
kapelaan Koningstraat,28,,,4453BK,'s-Heerenhoek,Borsele,Zeeland,VBO,3.770924,51.456712
kapelaan Koningstraat,30,,,4453BK,'s-Heerenhoek,Borsele,Zeeland,VBO,3.770903,51.456662
kapelaan Koningstraat,32,,,4453BK,'s-Heerenhoek,Borsele,Zeeland,VBO,3.770859,51.456553
kapelaan Koningstraat,34,,,4453BK,'s-Heerenhoek,Borsele,Zeeland,VBO,3.770843,51.456511
kapelaan Koningstraat,36,,,4453BK,'s-Heerenhoek,Borsele,Zeeland,VBO,3.770796,51.456400
kapelaan Koningstraat,38,,,4453BK,'s-Heerenhoek,Borsele,Zeeland,VBO,3.770775,51.456354
kapelaan Koningstraat,40,,,4453BK,'s-Heerenhoek,Borsele,Zeeland,VBO,3.770736,51.456247
kapelaan Koningstraat,42,,,4453BK,'s-Heerenhoek,Borsele,Zeeland,VBO,3.770715,51.456199
Pastoor Wennenhof,1,,,4453BL,'s-Heerenhoek,Borsele,Zeeland,VBO,3.769564,51.455684
Pastoor Wennenhof,2,,,4453BL,'s-Heerenhoek,Borsele,Zeeland,VBO,3.769206,51.455625
Pastoor Wennenhof,3,,,4453BL,'s-Heerenhoek,Borsele,Zeeland,VBO,3.769145,51.455887
Pastoor Wennenhof,4,,,4453BL,'s-Heerenhoek,Borsele,Zeeland,VBO,3.769490,51.455883
Pastoor Kroonstraat,1,,,4453BM,'s-Heerenhoek,Borsele,Zeeland,VBO,3.769786,51.456234
Pastoor Kroonstraat,3,,,4453BM,'s-Heerenhoek,Borsele,Zeeland,VBO,3.769432,51.456191
Pastoor Kroonstraat,5,,,4453BM,'s-Heerenhoek,Borsele,Zeeland,VBO,3.769222,51.456169
Pastoor Kroonstraat,7,,,4453BM,'s-Heerenhoek,Borsele,Zeeland,VBO,3.769010,51.456148
van 't Westeindestraat,2,,,4453BN,'s-Heerenhoek,Borsele,Zeeland,VBO,3.770007,51.456990
van 't Westeindestraat,4,,,4453BN,'s-Heerenhoek,Borsele,Zeeland,VBO,3.769859,51.456993
van 't Westeindestraat,6,,,4453BN,'s-Heerenhoek,Borsele,Zeeland,VBO,3.769711,51.456997
van 't Westeindestraat,8,,,4453BN,'s-Heerenhoek,Borsele,Zeeland,VBO,3.769564,51.457001
van 't Westeindestraat,10,,,4453BN,'s-Heerenhoek,Borsele,Zeeland,VBO,3.769416,51.457005
van 't Westeindestraat,12,,,4453BN,'s-Heerenhoek,Borsele,Zeeland,VBO,3.769268,51.457008
van 't Westeindestraat,14,,,4453BN,'s-Heerenhoek,Borsele,Zeeland,VBO,3.769121,51.457012
van 't Westeindestraat,16,,,4453BN,'s-Heerenhoek,Borsele,Zeeland,VBO,3.768973,51.457016
van 't Westeindestraat,18,,,4453BN,'s-Heerenhoek,Borsele,Zeeland,VBO,3.768825,51.457019
van 't Westeindestraat,20,,,4453BN,'s-Heerenhoek,Borsele,Zeeland,VBO,3.768677,51.457023
de Jongestraat,1,,,4453BP,'s-Heerenhoek,Borsele,Zeeland,VBO,3.770139,51.457362
de Jongestraat,2,,,4453BP,'s-Heerenhoek,Borsele,Zeeland,VBO,3.770267,51.457674
de Jongestraat,3,,,4453BP,'s-Heerenhoek,Borsele,Zeeland,VBO,3.769844,51.457388
de Jongestraat,4,,,4453BP,'s-Heerenhoek,Borsele,Zeeland,VBO,3.770011,51.457651
de Jongestraat,5,,,4453BP,'s-Heerenhoek,Borsele,Zeeland,VBO,3.769475,51.457396
de Jongestraat,6,,,4453BP,'s-Heerenhoek,Borsele,Zeeland,VBO,3.769748,51.457657
de Jongestraat,7,,,4453BP,'s-Heerenhoek,Borsele,Zeeland,VBO,3.769165,51.457405
de Jongestraat,8,,,4453BP,'s-Heerenhoek,Borsele,Zeeland,VBO,3.769494,51.457677
de Jongestraat,9,,,4453BP,'s-Heerenhoek,Borsele,Zeeland,VBO,3.768867,51.457404
de Jongestraat,10,,,4453BP,'s-Heerenhoek,Borsele,Zeeland,VBO,3.769231,51.457679
de Jongestraat,11,,,4453BP,'s-Heerenhoek,Borsele,Zeeland,VBO,3.768600,51.457402
de Jongestraat,12,,,4453BP,'s-Heerenhoek,Borsele,Zeeland,VBO,3.768986,51.457696
de Jongestraat,14,,,4453BP,'s-Heerenhoek,Borsele,Zeeland,VBO,3.768710,51.457704
de Jongestraat,16,,,4453BP,'s-Heerenhoek,Borsele,Zeeland,VBO,3.768461,51.457700
Boonmanstraat,1,,,4453BR,'s-Heerenhoek,Borsele,Zeeland,VBO,3.770387,51.457936
Boonmanstraat,2,,,4453BR,'s-Heerenhoek,Borsele,Zeeland,VBO,3.770564,51.458241
Boonmanstraat,3,,,4453BR,'s-Heerenhoek,Borsele,Zeeland,VBO,3.770119,51.457940
Boonmanstraat,5,,,4453BR,'s-Heerenhoek,Borsele,Zeeland,VBO,3.770047,51.457943
Boonmanstraat,7,,,4453BR,'s-Heerenhoek,Borsele,Zeeland,VBO,3.769794,51.457954
Boonmanstraat,9,,,4453BR,'s-Heerenhoek,Borsele,Zeeland,VBO,3.769700,51.457959
Boonmanstraat,11,,,4453BR,'s-Heerenhoek,Borsele,Zeeland,VBO,3.769493,51.457968
Boonmanstraat,13,,,4453BR,'s-Heerenhoek,Borsele,Zeeland,VBO,3.769309,51.457972
Boonmanstraat,15,,,4453BR,'s-Heerenhoek,Borsele,Zeeland,VBO,3.769099,51.457972
Boonmanstraat,17,,,4453BR,'s-Heerenhoek,Borsele,Zeeland,VBO,3.769016,51.457971
Boonmanstraat,19,,,4453BR,'s-Heerenhoek,Borsele,Zeeland,VBO,3.768781,51.457985
Boonmanstraat,21,,,4453BR,'s-Heerenhoek,Borsele,Zeeland,VBO,3.768649,51.457983
Boonmanstraat,23,,,4453BR,'s-Heerenhoek,Borsele,Zeeland,VBO,3.768402,51.457980
de Winterstraat,1,,,4453BS,'s-Heerenhoek,Borsele,Zeeland,VBO,3.771269,51.457628
de Winterstraat,2,,,4453BS,'s-Heerenhoek,Borsele,Zeeland,VBO,3.770761,51.457372
de Winterstraat,3,,,4453BS,'s-Heerenhoek,Borsele,Zeeland,VBO,3.771498,51.457637
de Winterstraat,4,,,4453BS,'s-Heerenhoek,Borsele,Zeeland,VBO,3.771083,51.457335
de Winterstraat,5,,,4453BS,'s-Heerenhoek,Borsele,Zeeland,VBO,3.771810,51.457639
de Winterstraat,6,,,4453BS,'s-Heerenhoek,Borsele,Zeeland,VBO,3.771230,51.457337
de Winterstraat,7,,,4453BS,'s-Heerenhoek,Borsele,Zeeland,VBO,3.772059,51.457631
de Winterstraat,8,,,4453BS,'s-Heerenhoek,Borsele,Zeeland,VBO,3.771400,51.457335
de Winterstraat,9,,,4453BS,'s-Heerenhoek,Borsele,Zeeland,VBO,3.772331,51.457606
de Winterstraat,10,,,4453BS,'s-Heerenhoek,Borsele,Zeeland,VBO,3.771549,51.457331
de Winterstraat,11,,,4453BS,'s-Heerenhoek,Borsele,Zeeland,VBO,3.772651,51.457599
de Winterstraat,12,,,4453BS,'s-Heerenhoek,Borsele,Zeeland,VBO,3.771719,51.457325
de Winterstraat,14,,,4453BS,'s-Heerenhoek,Borsele,Zeeland,VBO,3.771880,51.457322
de Winterstraat,16,,,4453BS,'s-Heerenhoek,Borsele,Zeeland,VBO,3.772054,51.457317
de Winterstraat,18,,,4453BS,'s-Heerenhoek,Borsele,Zeeland,VBO,3.772194,51.457316
de Winterstraat,20,,,4453BS,'s-Heerenhoek,Borsele,Zeeland,VBO,3.772372,51.457309
de Winterstraat,22,,,4453BS,'s-Heerenhoek,Borsele,Zeeland,VBO,3.772519,51.457309
Vermuestraat,2,,,4453BT,'s-Heerenhoek,Borsele,Zeeland,VBO,3.771380,51.457931
Vermuestraat,4,,,4453BT,'s-Heerenhoek,Borsele,Zeeland,VBO,3.771657,51.457916
Vermuestraat,6,,,4453BT,'s-Heerenhoek,Borsele,Zeeland,VBO,3.771937,51.457886
Vermuestraat,8,,,4453BT,'s-Heerenhoek,Borsele,Zeeland,VBO,3.772223,51.457903
Vermuestraat,10,,,4453BT,'s-Heerenhoek,Borsele,Zeeland,VBO,3.772514,51.457902
Vermuestraat,11,,,4453BT,'s-Heerenhoek,Borsele,Zeeland,VBO,3.772654,51.458170
Vermuestraat,12,,,4453BT,'s-Heerenhoek,Borsele,Zeeland,VBO,3.772760,51.457896
Vermuestraat,13,,,4453BT,'s-Heerenhoek,Borsele,Zeeland,VBO,3.772949,51.458169
Theresiaplein,1,,,4453BV,'s-Heerenhoek,Borsele,Zeeland,VBO,3.772704,51.453703
Theresiaplein,2,,,4453BV,'s-Heerenhoek,Borsele,Zeeland,VBO,3.772850,51.453709
Theresiaplein,3,,,4453BV,'s-Heerenhoek,Borsele,Zeeland,VBO,3.772993,51.453716
Theresiaplein,4,,,4453BV,'s-Heerenhoek,Borsele,Zeeland,VBO,3.772867,51.453864
Theresiaplein,5,,,4453BV,'s-Heerenhoek,Borsele,Zeeland,VBO,3.772884,51.454044
Theresiaplein,6,,,4453BV,'s-Heerenhoek,Borsele,Zeeland,VBO,3.772871,51.454116
Theresiaplein,7,,,4453BV,'s-Heerenhoek,Borsele,Zeeland,VBO,3.772649,51.454045
Theresiaplein,8,,,4453BV,'s-Heerenhoek,Borsele,Zeeland,VBO,3.772708,51.453673
Theresiaplein,9,,,4453BV,'s-Heerenhoek,Borsele,Zeeland,VBO,3.772854,51.453680
Theresiaplein,10,,,4453BV,'s-Heerenhoek,Borsele,Zeeland,VBO,3.772997,51.453687
Theresiaplein,11,,,4453BV,'s-Heerenhoek,Borsele,Zeeland,VBO,3.772945,51.453807
Theresiaplein,12,,,4453BV,'s-Heerenhoek,Borsele,Zeeland,VBO,3.772935,51.453868
Theresiaplein,13,,,4453BV,'s-Heerenhoek,Borsele,Zeeland,VBO,3.772928,51.453925
Theresiaplein,14,,,4453BV,'s-Heerenhoek,Borsele,Zeeland,VBO,3.772926,51.454046
Theresiaplein,15,,,4453BV,'s-Heerenhoek,Borsele,Zeeland,VBO,3.772913,51.454118
Theresiaplein,16,,,4453BV,'s-Heerenhoek,Borsele,Zeeland,VBO,3.772900,51.454183
Theresiaplein,17,,,4453BV,'s-Heerenhoek,Borsele,Zeeland,VBO,3.772890,51.454245
Theresiaplein,18,,,4453BV,'s-Heerenhoek,Borsele,Zeeland,VBO,3.772712,51.453643
Theresiaplein,19,,,4453BV,'s-Heerenhoek,Borsele,Zeeland,VBO,3.772859,51.453650
Theresiaplein,20,,,4453BV,'s-Heerenhoek,Borsele,Zeeland,VBO,3.773002,51.453657
Theresiaplein,21,,,4453BV,'s-Heerenhoek,Borsele,Zeeland,VBO,3.773023,51.453810
Theresiaplein,22,,,4453BV,'s-Heerenhoek,Borsele,Zeeland,VBO,3.773016,51.453871
Theresiaplein,23,,,4453BV,'s-Heerenhoek,Borsele,Zeeland,VBO,3.773006,51.453929
Theresiaplein,24,,,4453BV,'s-Heerenhoek,Borsele,Zeeland,VBO,3.772973,51.454048
Theresiaplein,25,,,4453BV,'s-Heerenhoek,Borsele,Zeeland,VBO,3.772963,51.454122
Theresiaplein,26,,,4453BV,'s-Heerenhoek,Borsele,Zeeland,VBO,3.772954,51.454185
Theresiaplein,27,,,4453BV,'s-Heerenhoek,Borsele,Zeeland,VBO,3.772939,51.454248
Theresiaplein,28,,,4453BV,'s-Heerenhoek,Borsele,Zeeland,VBO,3.773018,51.454051
Theresiaplein,29,,,4453BV,'s-Heerenhoek,Borsele,Zeeland,VBO,3.773007,51.454124
Theresiaplein,30,,,4453BV,'s-Heerenhoek,Borsele,Zeeland,VBO,3.773002,51.454186
Theresiaplein,31,,,4453BV,'s-Heerenhoek,Borsele,Zeeland,VBO,3.772995,51.454250
Raasstraat,1,,,4453BW,'s-Heerenhoek,Borsele,Zeeland,VBO,3.770677,51.458527
Raasstraat,3,,,4453BW,'s-Heerenhoek,Borsele,Zeeland,VBO,3.770480,51.458545
Raasstraat,5,,,4453BW,'s-Heerenhoek,Borsele,Zeeland,VBO,3.770391,51.458547
Raasstraat,7,,,4453BW,'s-Heerenhoek,Borsele,Zeeland,VBO,3.770195,51.458551
Raasstraat,9,,,4453BW,'s-Heerenhoek,Borsele,Zeeland,VBO,3.770102,51.458552
Raasstraat,11,,,4453BW,'s-Heerenhoek,Borsele,Zeeland,VBO,3.769898,51.458548
Raasstraat,13,,,4453BW,'s-Heerenhoek,Borsele,Zeeland,VBO,3.769756,51.458550
Raasstraat,15,,,4453BW,'s-Heerenhoek,Borsele,Zeeland,VBO,3.769550,51.458558
Raasstraat,17,,,4453BW,'s-Heerenhoek,Borsele,Zeeland,VBO,3.769409,51.458561
Raasstraat,19,,,4453BW,'s-Heerenhoek,Borsele,Zeeland,VBO,3.769213,51.458575
Raasstraat,21,,,4453BW,'s-Heerenhoek,Borsele,Zeeland,VBO,3.769133,51.458576
Raasstraat,23,,,4453BW,'s-Heerenhoek,Borsele,Zeeland,VBO,3.768915,51.458571
Raasstraat,25,,,4453BW,'s-Heerenhoek,Borsele,Zeeland,VBO,3.768780,51.458575
Raasstraat,27,,,4453BW,'s-Heerenhoek,Borsele,Zeeland,VBO,3.768575,51.458594
Raasstraat,29,,,4453BW,'s-Heerenhoek,Borsele,Zeeland,VBO,3.768491,51.458597
Priemstraat,4,,,4453BX,'s-Heerenhoek,Borsele,Zeeland,VBO,3.771818,51.458516
Priemstraat,8,,,4453BX,'s-Heerenhoek,Borsele,Zeeland,VBO,3.772298,51.458508
Priemstraat,14,,,4453BX,'s-Heerenhoek,Borsele,Zeeland,VBO,3.773049,51.458493
Werrilaan,1,,,4453CA,'s-Heerenhoek,Borsele,Zeeland,VBO,3.769349,51.451305
Werrilaan,3,,,4453CA,'s-Heerenhoek,Borsele,Zeeland,VBO,3.769656,51.451321
Werrilaan,5,,,4453CA,'s-Heerenhoek,Borsele,Zeeland,VBO,3.769647,51.451419
Werrilaan,7,,,4453CA,'s-Heerenhoek,Borsele,Zeeland,VBO,3.769840,51.451388
Werrilaan,9,,,4453CA,'s-Heerenhoek,Borsele,Zeeland,VBO,3.770067,51.451450
Werrilaan,11,,,4453CA,'s-Heerenhoek,Borsele,Zeeland,VBO,3.770278,51.451450
Werrilaan,13,,,4453CA,'s-Heerenhoek,Borsele,Zeeland,VBO,3.770448,51.451467
Werrilaan,15,,,4453CA,'s-Heerenhoek,Borsele,Zeeland,VBO,3.770592,51.451474
Werrilaan,17,,,4453CA,'s-Heerenhoek,Borsele,Zeeland,VBO,3.770685,51.451479
Werrilaan,19,,,4453CA,'s-Heerenhoek,Borsele,Zeeland,VBO,3.770838,51.451486
Werrilaan,21,,,4453CA,'s-Heerenhoek,Borsele,Zeeland,VBO,3.771047,51.451493
Werrilaan,23,,,4453CA,'s-Heerenhoek,Borsele,Zeeland,VBO,3.771227,51.451499
Werrilaan,25,,,4453CA,'s-Heerenhoek,Borsele,Zeeland,VBO,3.771555,51.451518
Werrilaan,27,,,4453CA,'s-Heerenhoek,Borsele,Zeeland,VBO,3.771833,51.451531
Werrilaan,29,,,4453CA,'s-Heerenhoek,Borsele,Zeeland,VBO,3.771985,51.451533
Werrilaan,31,,,4453CA,'s-Heerenhoek,Borsele,Zeeland,VBO,3.772068,51.451538
Werrilaan,33,,,4453CA,'s-Heerenhoek,Borsele,Zeeland,VBO,3.772208,51.451547
Werrilaan,35,,,4453CA,'s-Heerenhoek,Borsele,Zeeland,VBO,3.772332,51.451569
Werrilaan,37,,,4453CA,'s-Heerenhoek,Borsele,Zeeland,VBO,3.772579,51.451550
Werrilaan,39,,,4453CA,'s-Heerenhoek,Borsele,Zeeland,VBO,3.772883,51.451574
Werrilaan,41,,,4453CA,'s-Heerenhoek,Borsele,Zeeland,VBO,3.772986,51.451579
Werrilaan,43,,,4453CB,'s-Heerenhoek,Borsele,Zeeland,VBO,3.773448,51.451626
Werrilaan,45,,,4453CB,'s-Heerenhoek,Borsele,Zeeland,VBO,3.773826,51.451635
Werrilaan,47,,,4453CB,'s-Heerenhoek,Borsele,Zeeland,VBO,3.774074,51.451654
Werrilaan,49,,,4453CB,'s-Heerenhoek,Borsele,Zeeland,VBO,3.774370,51.451665
Werrilaan,51,,,4453CB,'s-Heerenhoek,Borsele,Zeeland,VBO,3.774724,51.451672
Werrilaan,53,,,4453CB,'s-Heerenhoek,Borsele,Zeeland,VBO,3.775004,51.451678
Werrilaan,2,,,4453CC,'s-Heerenhoek,Borsele,Zeeland,VBO,3.769320,51.450869
Werrilaan,6,,,4453CC,'s-Heerenhoek,Borsele,Zeeland,VBO,3.769830,51.450840
Werrilaan,8,,,4453CC,'s-Heerenhoek,Borsele,Zeeland,VBO,3.770315,51.450833
Werrilaan,10,,,4453CC,'s-Heerenhoek,Borsele,Zeeland,VBO,3.771337,51.451119
Werrilaan,22,,,4453CC,'s-Heerenhoek,Borsele,Zeeland,VBO,3.772093,51.451174
Werrilaan,24,,,4453CC,'s-Heerenhoek,Borsele,Zeeland,VBO,3.772470,51.451203
Werrilaan,26,,,4453CC,'s-Heerenhoek,Borsele,Zeeland,VBO,3.772662,51.451219
Werrilaan,28,,,4453CC,'s-Heerenhoek,Borsele,Zeeland,VBO,3.772817,51.451209
Werrilaan,30,,,4453CC,'s-Heerenhoek,Borsele,Zeeland,VBO,3.772954,51.450907
Werrilaan,42,,,4453CC,'s-Heerenhoek,Borsele,Zeeland,VBO,3.773362,51.451241
Werrilaan,44,,,4453CC,'s-Heerenhoek,Borsele,Zeeland,VBO,3.773847,51.451267
Werrilaan,46,,,4453CC,'s-Heerenhoek,Borsele,Zeeland,VBO,3.774400,51.451290
Werrilaan,48,A,,4453CC,'s-Heerenhoek,Borsele,Zeeland,VBO,3.775308,51.451338
Werrilaan,48,,,4453CC,'s-Heerenhoek,Borsele,Zeeland,VBO,3.774895,51.451326
Werrilaan,50,,,4453CC,'s-Heerenhoek,Borsele,Zeeland,VBO,3.775772,51.451387
Werrilaan,52,,,4453CC,'s-Heerenhoek,Borsele,Zeeland,VBO,3.776219,51.451383
's-Heerenhoeksedijk,1,B,,4453CD,'s-Heerenhoek,Borsele,Zeeland,VBO,3.769120,51.450176
's-Heerenhoeksedijk,1,,,4453CD,'s-Heerenhoek,Borsele,Zeeland,VBO,3.768931,51.449577
's-Heerenhoeksedijk,2,,,4453CD,'s-Heerenhoek,Borsele,Zeeland,VBO,3.768620,51.450518
's-Heerenhoeksedijk,3,,,4453CD,'s-Heerenhoek,Borsele,Zeeland,VBO,3.768877,51.449438
's-Heerenhoeksedijk,4,,,4453CD,'s-Heerenhoek,Borsele,Zeeland,VBO,3.768592,51.450428
's-Heerenhoeksedijk,5,,,4453CD,'s-Heerenhoek,Borsele,Zeeland,VBO,3.768741,51.448965
's-Heerenhoeksedijk,6,A,,4453CD,'s-Heerenhoek,Borsele,Zeeland,VBO,3.768402,51.450007
's-Heerenhoeksedijk,6,,,4453CD,'s-Heerenhoek,Borsele,Zeeland,VBO,3.768543,51.450248
's-Heerenhoeksedijk,7,,,4453CD,'s-Heerenhoek,Borsele,Zeeland,VBO,3.768644,51.444654
's-Heerenhoeksedijk,8,,,4453CD,'s-Heerenhoek,Borsele,Zeeland,VBO,3.768413,51.449857
's-Heerenhoeksedijk,10,,,4453CD,'s-Heerenhoek,Borsele,Zeeland,VBO,3.768284,51.449755
's-Heerenhoeksedijk,12,,,4453CD,'s-Heerenhoek,Borsele,Zeeland,VBO,3.768382,51.449668
Emmastraat,1,A,,4453CE,'s-Heerenhoek,Borsele,Zeeland,VBO,3.768041,51.451081
Emmastraat,1,,,4453CE,'s-Heerenhoek,Borsele,Zeeland,VBO,3.767896,51.451122
Emmastraat,2,,,4453CE,'s-Heerenhoek,Borsele,Zeeland,VBO,3.768232,51.450839
Emmastraat,3,,,4453CE,'s-Heerenhoek,Borsele,Zeeland,VBO,3.767799,51.451128
Emmastraat,4,,,4453CE,'s-Heerenhoek,Borsele,Zeeland,VBO,3.768152,51.450859
Emmastraat,6,,,4453CE,'s-Heerenhoek,Borsele,Zeeland,VBO,3.767991,51.450893
Emmastraat,7,,,4453CE,'s-Heerenhoek,Borsele,Zeeland,VBO,3.767655,51.451136
Emmastraat,8,,,4453CE,'s-Heerenhoek,Borsele,Zeeland,VBO,3.767911,51.450903
Emmastraat,9,,,4453CE,'s-Heerenhoek,Borsele,Zeeland,VBO,3.767476,51.451144
Emmastraat,10,,,4453CE,'s-Heerenhoek,Borsele,Zeeland,VBO,3.767734,51.450907
Emmastraat,11,,,4453CE,'s-Heerenhoek,Borsele,Zeeland,VBO,3.767201,51.451083
Emmastraat,12,,,4453CE,'s-Heerenhoek,Borsele,Zeeland,VBO,3.767651,51.450909
Emmastraat,14,,,4453CE,'s-Heerenhoek,Borsele,Zeeland,VBO,3.767444,51.450816
Emmastraat,15,,,4453CE,'s-Heerenhoek,Borsele,Zeeland,VBO,3.768138,51.451371
Emmastraat,16,,,4453CE,'s-Heerenhoek,Borsele,Zeeland,VBO,3.767349,51.450817
Emmastraat,17,,,4453CE,'s-Heerenhoek,Borsele,Zeeland,VBO,3.768138,51.451415
Emmastraat,18,,,4453CE,'s-Heerenhoek,Borsele,Zeeland,VBO,3.767146,51.450831
Emmastraat,19,,,4453CE,'s-Heerenhoek,Borsele,Zeeland,VBO,3.768133,51.451460
Emmastraat,21,,,4453CE,'s-Heerenhoek,Borsele,Zeeland,VBO,3.768130,51.451501
Emmastraat,22,,,4453CE,'s-Heerenhoek,Borsele,Zeeland,VBO,3.766950,51.450818
Emmastraat,24,,,4453CE,'s-Heerenhoek,Borsele,Zeeland,VBO,3.766860,51.450820
Emmastraat,28,A,,4453CE,'s-Heerenhoek,Borsele,Zeeland,VBO,3.765602,51.450964
Emmastraat,28,,,4453CE,'s-Heerenhoek,Borsele,Zeeland,VBO,3.766644,51.450835
Emmastraat,30,,,4453CE,'s-Heerenhoek,Borsele,Zeeland,VBO,3.766784,51.451050
Emmastraat,32,,,4453CE,'s-Heerenhoek,Borsele,Zeeland,VBO,3.766788,51.451104
Emmastraat,34,,,4453CE,'s-Heerenhoek,Borsele,Zeeland,VBO,3.766794,51.451158
Emmastraat,36,,,4453CE,'s-Heerenhoek,Borsele,Zeeland,VBO,3.766800,51.451211
Emmastraat,38,,,4453CE,'s-Heerenhoek,Borsele,Zeeland,VBO,3.766803,51.451261
Emmastraat,40,,,4453CE,'s-Heerenhoek,Borsele,Zeeland,VBO,3.766810,51.451318
Emmastraat,42,,,4453CE,'s-Heerenhoek,Borsele,Zeeland,VBO,3.766846,51.451417
Emmastraat,44,,,4453CE,'s-Heerenhoek,Borsele,Zeeland,VBO,3.766851,51.451471
Emmastraat,46,,,4453CE,'s-Heerenhoek,Borsele,Zeeland,VBO,3.766858,51.451523
Emmastraat,48,,,4453CE,'s-Heerenhoek,Borsele,Zeeland,VBO,3.766867,51.451577
Emmastraat,50,,,4453CE,'s-Heerenhoek,Borsele,Zeeland,VBO,3.767281,51.451553
Emmastraat,52,,,4453CE,'s-Heerenhoek,Borsele,Zeeland,VBO,3.767287,51.451601
Emmastraat,54,,,4453CE,'s-Heerenhoek,Borsele,Zeeland,VBO,3.767288,51.451650
Emmastraat,56,,,4453CE,'s-Heerenhoek,Borsele,Zeeland,VBO,3.767295,51.451698
Emmastraat,58,,,4453CE,'s-Heerenhoek,Borsele,Zeeland,VBO,3.767739,51.451503
Emmastraat,60,,,4453CE,'s-Heerenhoek,Borsele,Zeeland,VBO,3.767740,51.451535
Emmastraat,62,,,4453CE,'s-Heerenhoek,Borsele,Zeeland,VBO,3.767742,51.451568
Emmastraat,64,,,4453CE,'s-Heerenhoek,Borsele,Zeeland,VBO,3.767744,51.451600
Emmastraat,66,,,4453CE,'s-Heerenhoek,Borsele,Zeeland,VBO,3.767745,51.451633
Emmastraat,68,,,4453CE,'s-Heerenhoek,Borsele,Zeeland,VBO,3.767747,51.451665
Emmastraat,70,,,4453CE,'s-Heerenhoek,Borsele,Zeeland,VBO,3.767749,51.451697
Emmastraat,72,,,4453CE,'s-Heerenhoek,Borsele,Zeeland,VBO,3.767803,51.451696
Emmastraat,74,,,4453CE,'s-Heerenhoek,Borsele,Zeeland,VBO,3.767856,51.451695
Emmastraat,76,,,4453CE,'s-Heerenhoek,Borsele,Zeeland,VBO,3.767909,51.451694
Emmastraat,78,,,4453CE,'s-Heerenhoek,Borsele,Zeeland,VBO,3.767962,51.451693
Emmastraat,80,,,4453CE,'s-Heerenhoek,Borsele,Zeeland,VBO,3.768015,51.451692
Benedenstraat,3,,,4453CG,'s-Heerenhoek,Borsele,Zeeland,VBO,3.768597,51.451798
Benedenstraat,5,,,4453CG,'s-Heerenhoek,Borsele,Zeeland,VBO,3.768580,51.451698
Benedenstraat,7,A,,4453CG,'s-Heerenhoek,Borsele,Zeeland,VBO,3.768598,51.451537
Benedenstraat,9,,,4453CG,'s-Heerenhoek,Borsele,Zeeland,VBO,3.768586,51.451473
Benedenstraat,11,,,4453CG,'s-Heerenhoek,Borsele,Zeeland,VBO,3.768556,51.451392
Benedenstraat,13,,,4453CG,'s-Heerenhoek,Borsele,Zeeland,VBO,3.768540,51.451321
Benedenstraat,15,,,4453CG,'s-Heerenhoek,Borsele,Zeeland,VBO,3.768523,51.451259
Benedenstraat,17,,,4453CG,'s-Heerenhoek,Borsele,Zeeland,VBO,3.768505,51.451201
Benedenstraat,19,,,4453CG,'s-Heerenhoek,Borsele,Zeeland,VBO,3.768484,51.451125
Benedenstraat,21,,,4453CG,'s-Heerenhoek,Borsele,Zeeland,VBO,3.768448,51.451049
Benedenstraat,23,,,4453CG,'s-Heerenhoek,Borsele,Zeeland,VBO,3.768431,51.450990
Pakhuisstraat,2,,,4453CH,'s-Heerenhoek,Borsele,Zeeland,VBO,3.767814,51.452881
Pakhuisstraat,3,,,4453CH,'s-Heerenhoek,Borsele,Zeeland,VBO,3.768108,51.452817
Pakhuisstraat,4,,,4453CH,'s-Heerenhoek,Borsele,Zeeland,VBO,3.767782,51.452694
Pakhuisstraat,6,,,4453CH,'s-Heerenhoek,Borsele,Zeeland,VBO,3.767867,51.452577
Pakhuisstraat,10,,,4453CH,'s-Heerenhoek,Borsele,Zeeland,VBO,3.767817,51.452416
Pakhuisstraat,12,,,4453CH,'s-Heerenhoek,Borsele,Zeeland,VBO,3.767893,51.452271
Prins Hendrikstraat,1,,,4453CJ,'s-Heerenhoek,Borsele,Zeeland,VBO,3.767849,51.452061
Prins Hendrikstraat,2,,,4453CJ,'s-Heerenhoek,Borsele,Zeeland,VBO,3.768281,51.451941
Prins Hendrikstraat,3,,,4453CJ,'s-Heerenhoek,Borsele,Zeeland,VBO,3.767510,51.452074
Prins Hendrikstraat,4,,,4453CJ,'s-Heerenhoek,Borsele,Zeeland,VBO,3.767974,51.451935
Prins Hendrikstraat,5,,,4453CJ,'s-Heerenhoek,Borsele,Zeeland,VBO,3.767452,51.452128
Prins Hendrikstraat,6,,,4453CJ,'s-Heerenhoek,Borsele,Zeeland,VBO,3.767631,51.451938
Prins Hendrikstraat,7,,,4453CJ,'s-Heerenhoek,Borsele,Zeeland,VBO,3.767458,51.452176
Prins Hendrikstraat,8,,,4453CJ,'s-Heerenhoek,Borsele,Zeeland,VBO,3.767555,51.451939
Prins Hendrikstraat,9,A,,4453CJ,'s-Heerenhoek,Borsele,Zeeland,VBO,3.767517,51.452429
Prins Hendrikstraat,9,,,4453CJ,'s-Heerenhoek,Borsele,Zeeland,VBO,3.767506,51.452312
Prins Hendrikstraat,10,,,4453CJ,'s-Heerenhoek,Borsele,Zeeland,VBO,3.767425,51.451923
Prins Hendrikstraat,11,,,4453CJ,'s-Heerenhoek,Borsele,Zeeland,VBO,3.767497,51.452574
Prins Hendrikstraat,12,,,4453CJ,'s-Heerenhoek,Borsele,Zeeland,VBO,3.767263,51.451951
Prins Hendrikstraat,13,,,4453CJ,'s-Heerenhoek,Borsele,Zeeland,VBO,3.767485,51.452826
Prins Hendrikstraat,14,,,4453CJ,'s-Heerenhoek,Borsele,Zeeland,VBO,3.767254,51.452059
Prins Hendrikstraat,16,,,4453CJ,'s-Heerenhoek,Borsele,Zeeland,VBO,3.767265,51.452127
Prins Hendrikstraat,18,,,4453CJ,'s-Heerenhoek,Borsele,Zeeland,VBO,3.767259,51.452246
Prins Hendrikstraat,20,,,4453CJ,'s-Heerenhoek,Borsele,Zeeland,VBO,3.767251,51.452446
Prins Hendrikstraat,24,,,4453CJ,'s-Heerenhoek,Borsele,Zeeland,VBO,3.767257,51.452680
Prins Hendrikstraat,26,,,4453CJ,'s-Heerenhoek,Borsele,Zeeland,VBO,3.767257,51.452732
Prins Hendrikstraat,28,,,4453CJ,'s-Heerenhoek,Borsele,Zeeland,VBO,3.767293,51.452837
Burgemeester Timansweg,3,,,4453CK,'s-Heerenhoek,Borsele,Zeeland,VBO,3.768506,51.453155
Burgemeester Timansweg,7,A,,4453CK,'s-Heerenhoek,Borsele,Zeeland,VBO,3.768349,51.453459
Burgemeester Timansweg,7,,,4453CK,'s-Heerenhoek,Borsele,Zeeland,VBO,3.768311,51.453161
Burgemeester Timansweg,9,,,4453CK,'s-Heerenhoek,Borsele,Zeeland,VBO,3.768093,51.453274
Burgemeester Timansweg,11,,,4453CK,'s-Heerenhoek,Borsele,Zeeland,VBO,3.767834,51.453207
Burgemeester Timansweg,13,A,,4453CK,'s-Heerenhoek,Borsele,Zeeland,VBO,3.767671,51.453475
Burgemeester Timansweg,13,,,4453CK,'s-Heerenhoek,Borsele,Zeeland,VBO,3.767628,51.453226
Burgemeester Timansweg,15,,,4453CK,'s-Heerenhoek,Borsele,Zeeland,VBO,3.767452,51.453510
Burgemeester Timansweg,17,,,4453CK,'s-Heerenhoek,Borsele,Zeeland,VBO,3.767287,51.453542
Burgemeester Timansweg,19,,,4453CK,'s-Heerenhoek,Borsele,Zeeland,VBO,3.767151,51.453554
Burgemeester Timansweg,25,,,4453CK,'s-Heerenhoek,Borsele,Zeeland,VBO,3.766692,51.453552
Burgemeester Timansweg,27,,,4453CK,'s-Heerenhoek,Borsele,Zeeland,VBO,3.766461,51.453576
Burgemeester Timansweg,29,,,4453CK,'s-Heerenhoek,Borsele,Zeeland,VBO,3.766332,51.453595
Burgemeester Timansweg,31,,,4453CK,'s-Heerenhoek,Borsele,Zeeland,VBO,3.766082,51.453598
Burgemeester Timansweg,33,,,4453CK,'s-Heerenhoek,Borsele,Zeeland,VBO,3.765907,51.453608
Burgemeester Timansweg,35,,,4453CK,'s-Heerenhoek,Borsele,Zeeland,VBO,3.765745,51.453639
Burgemeester Timansweg,37,,,4453CK,'s-Heerenhoek,Borsele,Zeeland,VBO,3.765588,51.453646
Burgemeester Timansweg,39,,,4453CK,'s-Heerenhoek,Borsele,Zeeland,VBO,3.765458,51.453634
Burgemeester Timansweg,43,,,4453CK,'s-Heerenhoek,Borsele,Zeeland,VBO,3.765148,51.453648
Burgemeester Timansweg,45,,,4453CK,'s-Heerenhoek,Borsele,Zeeland,VBO,3.765065,51.453661
Burgemeester Timansweg,47,,,4453CL,'s-Heerenhoek,Borsele,Zeeland,VBO,3.764616,51.453686
Burgemeester Timansweg,49,,,4453CL,'s-Heerenhoek,Borsele,Zeeland,VBO,3.764526,51.453694
Burgemeester Timansweg,53,,,4453CL,'s-Heerenhoek,Borsele,Zeeland,VBO,3.764045,51.453732
Burgemeester Timansweg,55,,,4453CL,'s-Heerenhoek,Borsele,Zeeland,VBO,3.763815,51.453730
Burgemeester Timansweg,57,,,4453CL,'s-Heerenhoek,Borsele,Zeeland,VBO,3.763656,51.453780
Burgemeester Timansweg,59,,,4453CL,'s-Heerenhoek,Borsele,Zeeland,VBO,3.763534,51.453748
Burgemeester Timansweg,61,,,4453CL,'s-Heerenhoek,Borsele,Zeeland,VBO,3.763240,51.453774
Burgemeester Timansweg,63,,,4453CL,'s-Heerenhoek,Borsele,Zeeland,VBO,3.763048,51.453781
Burgemeester Timansweg,65,,,4453CL,'s-Heerenhoek,Borsele,Zeeland,VBO,3.762900,51.453823
Burgemeester Timansweg,2,,,4453CM,'s-Heerenhoek,Borsele,Zeeland,VBO,3.768182,51.452960
Burgemeester Timansweg,4,,,4453CM,'s-Heerenhoek,Borsele,Zeeland,VBO,3.767849,51.452977
Burgemeester Timansweg,6,A,,4453CM,'s-Heerenhoek,Borsele,Zeeland,VBO,3.767622,51.452985
Burgemeester Timansweg,6,,,4453CM,'s-Heerenhoek,Borsele,Zeeland,VBO,3.767710,51.452986
Burgemeester Timansweg,8,,,4453CM,'s-Heerenhoek,Borsele,Zeeland,VBO,3.767541,51.452984
Burgemeester Timansweg,10,,,4453CM,'s-Heerenhoek,Borsele,Zeeland,VBO,3.767472,51.452986
Cingeldijk,10,,,4453CN,'s-Heerenhoek,Borsele,Zeeland,VBO,3.766998,51.452971
Cingeldijk,12,,,4453CN,'s-Heerenhoek,Borsele,Zeeland,VBO,3.766472,51.453027
Cingeldijk,14,,,4453CN,'s-Heerenhoek,Borsele,Zeeland,VBO,3.764887,51.452864
Burgemeester van Horsighstraat,1,,,4453CP,'s-Heerenhoek,Borsele,Zeeland,VBO,3.764704,51.453907
Burgemeester van Horsighstraat,3,,,4453CP,'s-Heerenhoek,Borsele,Zeeland,VBO,3.764757,51.454005
Burgemeester van Horsighstraat,5,,,4453CP,'s-Heerenhoek,Borsele,Zeeland,VBO,3.764834,51.454084
Burgemeester van Horsighstraat,7,,,4453CP,'s-Heerenhoek,Borsele,Zeeland,VBO,3.764870,51.454130
Burgemeester van Horsighstraat,9,,,4453CP,'s-Heerenhoek,Borsele,Zeeland,VBO,3.764942,51.454222
Burgemeester van Horsighstraat,13,A,,4453CP,'s-Heerenhoek,Borsele,Zeeland,VBO,3.765822,51.455190
Burgemeester van Horsighstraat,13,,,4453CP,'s-Heerenhoek,Borsele,Zeeland,VBO,3.765395,51.454373
Burgemeester van Horsighstraat,15,,,4453CP,'s-Heerenhoek,Borsele,Zeeland,VBO,3.765487,51.454374
Burgemeester van Horsighstraat,17,,,4453CP,'s-Heerenhoek,Borsele,Zeeland,VBO,3.765637,51.454374
Burgemeester van Horsighstraat,19,,,4453CP,'s-Heerenhoek,Borsele,Zeeland,VBO,3.765731,51.454373
Burgemeester van Horsighstraat,21,,,4453CP,'s-Heerenhoek,Borsele,Zeeland,VBO,3.765883,51.454372
Burgemeester van Horsighstraat,23,,,4453CP,'s-Heerenhoek,Borsele,Zeeland,VBO,3.765965,51.454373
Burgemeester van Horsighstraat,25,,,4453CP,'s-Heerenhoek,Borsele,Zeeland,VBO,3.766049,51.454373
Burgemeester van Horsighstraat,27,,,4453CP,'s-Heerenhoek,Borsele,Zeeland,VBO,3.766127,51.454372
Burgemeester van Horsighstraat,29,,,4453CR,'s-Heerenhoek,Borsele,Zeeland,VBO,3.766272,51.454370
Burgemeester van Horsighstraat,31,,,4453CR,'s-Heerenhoek,Borsele,Zeeland,VBO,3.766358,51.454371
Burgemeester van Horsighstraat,33,,,4453CR,'s-Heerenhoek,Borsele,Zeeland,VBO,3.766440,51.454372
Burgemeester van Horsighstraat,35,,,4453CR,'s-Heerenhoek,Borsele,Zeeland,VBO,3.766514,51.454370
Burgemeester van Horsighstraat,37,,,4453CR,'s-Heerenhoek,Borsele,Zeeland,VBO,3.766646,51.454365
Burgemeester van Horsighstraat,39,,,4453CR,'s-Heerenhoek,Borsele,Zeeland,VBO,3.766732,51.454366
Burgemeester van Horsighstraat,41,,,4453CR,'s-Heerenhoek,Borsele,Zeeland,VBO,3.766872,51.454381
Burgemeester van Horsighstraat,43,,,4453CR,'s-Heerenhoek,Borsele,Zeeland,VBO,3.767039,51.454165
Burgemeester van Horsighstraat,45,,,4453CR,'s-Heerenhoek,Borsele,Zeeland,VBO,3.767063,51.454042
Burgemeester van Horsighstraat,47,,,4453CR,'s-Heerenhoek,Borsele,Zeeland,VBO,3.767078,51.453986
Burgemeester van Horsighstraat,49,,,4453CR,'s-Heerenhoek,Borsele,Zeeland,VBO,3.767112,51.453898
Burgemeester van Horsighstraat,51,,,4453CR,'s-Heerenhoek,Borsele,Zeeland,VBO,3.767125,51.453846
Burgemeester van Horsighstraat,53,,,4453CR,'s-Heerenhoek,Borsele,Zeeland,VBO,3.767135,51.453797
Burgemeester van Horsighstraat,55,,,4453CR,'s-Heerenhoek,Borsele,Zeeland,VBO,3.767149,51.453749
Burgemeester van Horsighstraat,2,,,4453CS,'s-Heerenhoek,Borsele,Zeeland,VBO,3.765081,51.453836
Burgemeester van Horsighstraat,4,,,4453CS,'s-Heerenhoek,Borsele,Zeeland,VBO,3.765122,51.453976
Burgemeester van Horsighstraat,6,,,4453CS,'s-Heerenhoek,Borsele,Zeeland,VBO,3.765160,51.454075
Burgemeester van Horsighstraat,8,,,4453CS,'s-Heerenhoek,Borsele,Zeeland,VBO,3.765265,51.454133
Burgemeester van Horsighstraat,10,,,4453CS,'s-Heerenhoek,Borsele,Zeeland,VBO,3.765351,51.454131
Burgemeester van Horsighstraat,12,,,4453CS,'s-Heerenhoek,Borsele,Zeeland,VBO,3.765502,51.454130
Burgemeester van Horsighstraat,14,,,4453CS,'s-Heerenhoek,Borsele,Zeeland,VBO,3.765594,51.454129
Burgemeester van Horsighstraat,16,,,4453CS,'s-Heerenhoek,Borsele,Zeeland,VBO,3.765721,51.454126
Burgemeester van Horsighstraat,18,,,4453CS,'s-Heerenhoek,Borsele,Zeeland,VBO,3.765816,51.454129
Burgemeester van Horsighstraat,20,,,4453CS,'s-Heerenhoek,Borsele,Zeeland,VBO,3.765975,51.454132
Burgemeester van Horsighstraat,22,,,4453CS,'s-Heerenhoek,Borsele,Zeeland,VBO,3.766067,51.454132
Burgemeester van Horsighstraat,24,,,4453CS,'s-Heerenhoek,Borsele,Zeeland,VBO,3.766221,51.454131
Burgemeester van Horsighstraat,26,,,4453CS,'s-Heerenhoek,Borsele,Zeeland,VBO,3.766312,51.454131
Burgemeester van Horsighstraat,28,,,4453CS,'s-Heerenhoek,Borsele,Zeeland,VBO,3.766406,51.454130
Burgemeester van Horsighstraat,30,,,4453CS,'s-Heerenhoek,Borsele,Zeeland,VBO,3.766702,51.454141
Burgemeester van Horsighstraat,32,,,4453CS,'s-Heerenhoek,Borsele,Zeeland,VBO,3.766717,51.454084
Burgemeester van Horsighstraat,34,,,4453CS,'s-Heerenhoek,Borsele,Zeeland,VBO,3.766730,51.454031
Burgemeester van Horsighstraat,36,,,4453CS,'s-Heerenhoek,Borsele,Zeeland,VBO,3.766742,51.453979
Burgemeester van Horsighstraat,38,,,4453CS,'s-Heerenhoek,Borsele,Zeeland,VBO,3.766771,51.453914
Burgemeester van Horsighstraat,40,,,4453CS,'s-Heerenhoek,Borsele,Zeeland,VBO,3.766784,51.453866
Burgemeester van Horsighstraat,42,,,4453CS,'s-Heerenhoek,Borsele,Zeeland,VBO,3.766794,51.453815
Burgemeester van Horsighstraat,44,,,4453CS,'s-Heerenhoek,Borsele,Zeeland,VBO,3.766808,51.453765
Burgemeester van Horsighstraat,46,,,4453CS,'s-Heerenhoek,Borsele,Zeeland,VBO,3.766844,51.453588
's-Heerenbosch,1,,,4453CV,'s-Heerenhoek,Borsele,Zeeland,VBO,3.763363,51.454990
's-Heerenbosch,2,,,4453CV,'s-Heerenhoek,Borsele,Zeeland,VBO,3.763577,51.454673
's-Heerenbosch,3,,,4453CV,'s-Heerenhoek,Borsele,Zeeland,VBO,3.763550,51.454295
's-Heerenbosch,4,,,4453CV,'s-Heerenhoek,Borsele,Zeeland,VBO,3.763176,51.454575
's-Heerenbosch,5,,,4453CV,'s-Heerenhoek,Borsele,Zeeland,VBO,3.762983,51.454888
Stooflaan,1,,,4453CW,'s-Heerenhoek,Borsele,Zeeland,VBO,3.762752,51.453986
Stooflaan,3,,,4453CW,'s-Heerenhoek,Borsele,Zeeland,VBO,3.762555,51.454294
Stooflaan,5,,,4453CW,'s-Heerenhoek,Borsele,Zeeland,VBO,3.762403,51.454561
Stooflaan,7,,,4453CW,'s-Heerenhoek,Borsele,Zeeland,VBO,3.762347,51.454645
Stooflaan,9,,,4453CW,'s-Heerenhoek,Borsele,Zeeland,VBO,3.762299,51.454699
Stooflaan,11,Z,,4453CW,'s-Heerenhoek,Borsele,Zeeland,VBO,3.762101,51.455002
Stooflaan,11,,,4453CW,'s-Heerenhoek,Borsele,Zeeland,VBO,3.762156,51.454897
Borsselsedijk,47,,,4453RA,'s-Heerenhoek,Borsele,Zeeland,VBO,3.759315,51.454341
Borsselsedijk,48,,,4453RA,'s-Heerenhoek,Borsele,Zeeland,VBO,3.750866,51.452555
Borsselsedijk,50,,,4453RA,'s-Heerenhoek,Borsele,Zeeland,VBO,3.751525,51.453419
Borsselsedijk,51,,,4453RA,'s-Heerenhoek,Borsele,Zeeland,VBO,3.760478,51.454045
Borsselsedijk,52,,,4453RA,'s-Heerenhoek,Borsele,Zeeland,VBO,3.754875,51.453959
Borsselsedijk,54,,,4453RA,'s-Heerenhoek,Borsele,Zeeland,VBO,3.756779,51.453697
Borsselsedijk,56,,,4453RA,'s-Heerenhoek,Borsele,Zeeland,VBO,3.760259,51.453416
's-Heerenhoeksedijk,14,,,4453RB,'s-Heerenhoek,Borsele,Zeeland,VBO,3.762623,51.448123
's-Heerenhoeksedijk,18,,,4453RB,'s-Heerenhoek,Borsele,Zeeland,VBO,3.767560,51.448109
's-Heerenhoeksedijk,20,,,4453RB,'s-Heerenhoek,Borsele,Zeeland,VBO,3.767410,51.447782
's-Heerenhoeksedijk,22,,,4453RB,'s-Heerenhoek,Borsele,Zeeland,VBO,3.767422,51.447686
's-Heerenhoeksedijk,26,,,4453RB,'s-Heerenhoek,Borsele,Zeeland,VBO,3.767215,51.446613
's-Heerenhoeksedijk,28,,,4453RB,'s-Heerenhoek,Borsele,Zeeland,VBO,3.767285,51.446515
's-Heerenhoeksedijk,30,,,4453RB,'s-Heerenhoek,Borsele,Zeeland,VBO,3.767223,51.446320
's-Heerenhoeksedijk,32,,,4453RB,'s-Heerenhoek,Borsele,Zeeland,VBO,3.766913,51.445946
's-Heerenhoeksedijk,34,,,4453RB,'s-Heerenhoek,Borsele,Zeeland,VBO,3.767295,51.445762
's-Heerenhoeksedijk,38,,,4453RB,'s-Heerenhoek,Borsele,Zeeland,VBO,3.766955,51.445031
's-Heerenhoeksedijk,40,,,4453RB,'s-Heerenhoek,Borsele,Zeeland,VBO,3.767309,51.444087
's-Heerenhoeksedijk,42,,,4453RB,'s-Heerenhoek,Borsele,Zeeland,VBO,3.767501,51.443458
's-Heerenhoeksedijk,44,,,4453RB,'s-Heerenhoek,Borsele,Zeeland,VBO,3.767710,51.443291
's-Heerenhoeksedijk,48,,,4453RB,'s-Heerenhoek,Borsele,Zeeland,VBO,3.767834,51.443095
Lange Noordweg,2,A,,4453RC,'s-Heerenhoek,Borsele,Zeeland,VBO,3.762247,51.446067
Lange Noordweg,2,,,4453RC,'s-Heerenhoek,Borsele,Zeeland,VBO,3.763419,51.446262
Lange Noordweg,3,,,4453RC,'s-Heerenhoek,Borsele,Zeeland,VBO,3.762502,51.446555
Lange Noordweg,4,,,4453RC,'s-Heerenhoek,Borsele,Zeeland,VBO,3.764134,51.446366
Lange Noordweg,5,,,4453RC,'s-Heerenhoek,Borsele,Zeeland,VBO,3.764703,51.447010
Lange Noordweg,7,,,4453RC,'s-Heerenhoek,Borsele,Zeeland,VBO,3.766570,51.447261
Lange Noordweg,9,,,4453RC,'s-Heerenhoek,Borsele,Zeeland,VBO,3.766859,51.447306
Lange Noordweg,11,,,4453RC,'s-Heerenhoek,Borsele,Zeeland,VBO,3.767030,51.447337
West Langeweg,1,,,4453TA,'s-Heerenhoek,Borsele,Zeeland,VBO,3.778176,51.442713
West Langeweg,2,,,4453TA,'s-Heerenhoek,Borsele,Zeeland,VBO,3.777831,51.445360
West Langeweg,3,,,4453TA,'s-Heerenhoek,Borsele,Zeeland,VBO,3.776815,51.447199
West Langeweg,4,,,4453TA,'s-Heerenhoek,Borsele,Zeeland,VBO,3.777417,51.448433
West Langeweg,5,,,4453TA,'s-Heerenhoek,Borsele,Zeeland,VBO,3.776976,51.447378
Berendijk,3,,,4453TB,'s-Heerenhoek,Borsele,Zeeland,VBO,3.776956,51.442103
Kraaijertsedijk,2,,,4453TC,'s-Heerenhoek,Borsele,Zeeland,VBO,3.779826,51.441382
Beeldhoeveweg,7,,,4453TD,'s-Heerenhoek,Borsele,Zeeland,VBO,3.786981,51.444429
Beeldhoeveweg,8,,,4453TD,'s-Heerenhoek,Borsele,Zeeland,VBO,3.785280,51.450147
Beeldhoeveweg,9,,,4453TD,'s-Heerenhoek,Borsele,Zeeland,VBO,3.787194,51.441209
Beeldhoeveweg,10,,,4453TD,'s-Heerenhoek,Borsele,Zeeland,VBO,3.785474,51.449077
Beeldhoeveweg,12,,,4453TD,'s-Heerenhoek,Borsele,Zeeland,VBO,3.785805,51.446282
Vroonhoek,1,,,4453TE,'s-Heerenhoek,Borsele,Zeeland,VBO,3.788368,51.446004
Vroonhoek,2,,,4453TE,'s-Heerenhoek,Borsele,Zeeland,VBO,3.790956,51.445612
Molendijk,49,,,4453VA,'s-Heerenhoek,Borsele,Zeeland,VBO,3.767785,51.459367
Molendijk,51,,,4453VA,'s-Heerenhoek,Borsele,Zeeland,VBO,3.767744,51.459586
Molendijk,66,,,4453VA,'s-Heerenhoek,Borsele,Zeeland,VBO,3.767239,51.459458
Molendijk,68,,,4453VA,'s-Heerenhoek,Borsele,Zeeland,VBO,3.767174,51.459704
Molendijk,70,,,4453VA,'s-Heerenhoek,Borsele,Zeeland,VBO,3.767144,51.459786
Molendijk,72,,,4453VA,'s-Heerenhoek,Borsele,Zeeland,VBO,3.766698,51.459894
Molendijk,74,,,4453VA,'s-Heerenhoek,Borsele,Zeeland,VBO,3.767093,51.460162
Molendijk,76,,,4453VA,'s-Heerenhoek,Borsele,Zeeland,VBO,3.767066,51.460223
Molendijk,78,,,4453VA,'s-Heerenhoek,Borsele,Zeeland,VBO,3.767001,51.460464
Molendijk,80,,,4453VA,'s-Heerenhoek,Borsele,Zeeland,VBO,3.766962,51.460666
Molendijk,82,,,4453VA,'s-Heerenhoek,Borsele,Zeeland,VBO,3.766020,51.461762
Molendijk,84,,,4453VA,'s-Heerenhoek,Borsele,Zeeland,VBO,3.766287,51.461924
Molendijk,86,,,4453VA,'s-Heerenhoek,Borsele,Zeeland,VBO,3.763520,51.463428
Molendijk,88,A,,4453VA,'s-Heerenhoek,Borsele,Zeeland,VBO,3.763405,51.462666
Molendijk,88,B,,4453VA,'s-Heerenhoek,Borsele,Zeeland,VBO,3.763093,51.462596
Molendijk,88,,,4453VA,'s-Heerenhoek,Borsele,Zeeland,VBO,3.762907,51.462841
Molendijk,90,,,4453VA,'s-Heerenhoek,Borsele,Zeeland,VBO,3.762273,51.462362
Driedijk,5,,,4453VC,'s-Heerenhoek,Borsele,Zeeland,VBO,3.752347,51.457410
Vleugelhofweg,1,,,4453VD,'s-Heerenhoek,Borsele,Zeeland,VBO,3.770490,51.469276
Vleugelhofweg,2,A,,4453VD,'s-Heerenhoek,Borsele,Zeeland,VBO,3.774244,51.470550
Vleugelhofweg,2,,,4453VD,'s-Heerenhoek,Borsele,Zeeland,VBO,3.775408,51.470752
Vleugelhofweg,3,,,4453VD,'s-Heerenhoek,Borsele,Zeeland,VBO,3.770967,51.469595
Heinkenszandseweg,1,,,4453VE,'s-Heerenhoek,Borsele,Zeeland,VBO,3.767350,51.460878
Heinkenszandseweg,3,,,4453VE,'s-Heerenhoek,Borsele,Zeeland,VBO,3.767725,51.460922
Heinkenszandseweg,5,,,4453VE,'s-Heerenhoek,Borsele,Zeeland,VBO,3.768111,51.460961
Heinkenszandseweg,17,,,4453VE,'s-Heerenhoek,Borsele,Zeeland,VBO,3.774943,51.461634
Heinkenszandseweg,19,,,4453VE,'s-Heerenhoek,Borsele,Zeeland,VBO,3.775536,51.461391
Heinkenszandseweg,23,,,4453VE,'s-Heerenhoek,Borsele,Zeeland,VBO,3.776531,51.461538
Heinkenszandseweg,27,,,4453VE,'s-Heerenhoek,Borsele,Zeeland,VBO,3.778397,51.461485
Heinkenszandseweg,29,,,4453VE,'s-Heerenhoek,Borsele,Zeeland,VBO,3.778637,51.461487
Heinkenszandseweg,31,,,4453VE,'s-Heerenhoek,Borsele,Zeeland,VBO,3.778769,51.461517
Heinkenszandseweg,35,,,4453VE,'s-Heerenhoek,Borsele,Zeeland,VBO,3.779490,51.461508
Heinkenszandseweg,37,,,4453VE,'s-Heerenhoek,Borsele,Zeeland,VBO,3.779985,51.461562
Heinkenszandseweg,2,,,4453VG,'s-Heerenhoek,Borsele,Zeeland,VBO,3.768013,51.460602
Heinkenszandseweg,10,,,4453VG,'s-Heerenhoek,Borsele,Zeeland,VBO,3.772635,51.460779
Heinkenszandseweg,18,,,4453VG,'s-Heerenhoek,Borsele,Zeeland,VBO,3.774971,51.460932
Heinkenszandseweg,20,,,4453VG,'s-Heerenhoek,Borsele,Zeeland,VBO,3.776188,51.460994
Heinkenszandseweg,22,,,4453VG,'s-Heerenhoek,Borsele,Zeeland,VBO,3.777128,51.461032
Heinkenszandseweg,34,,,4453VG,'s-Heerenhoek,Borsele,Zeeland,VBO,3.783676,51.461342
Heinkenszandseweg,36,,,4453VG,'s-Heerenhoek,Borsele,Zeeland,VBO,3.784291,51.461453
Heinkenszandseweg,40,,,4453VG,'s-Heerenhoek,Borsele,Zeeland,VBO,3.786349,51.461505
Nassauweg,1,,,4453VH,'s-Heerenhoek,Borsele,Zeeland,VBO,3.776504,51.454262
Nassauweg,5,,,4453VH,'s-Heerenhoek,Borsele,Zeeland,VBO,3.776854,51.454233
Nassauweg,7,A,,4453VH,'s-Heerenhoek,Borsele,Zeeland,VBO,3.777077,51.454012
Nassauweg,7,,,4453VH,'s-Heerenhoek,Borsele,Zeeland,VBO,3.776976,51.454238
Nassauweg,9,,,4453VH,'s-Heerenhoek,Borsele,Zeeland,VBO,3.776564,51.454447
Nassauweg,13,A,,4453VH,'s-Heerenhoek,Borsele,Zeeland,VBO,3.778099,51.456980
Nassauweg,13,,,4453VH,'s-Heerenhoek,Borsele,Zeeland,VBO,3.776389,51.456597
Nassauweg,15,,,4453VH,'s-Heerenhoek,Borsele,Zeeland,VBO,3.776340,51.457015
Nassauweg,19,,,4453VH,'s-Heerenhoek,Borsele,Zeeland,VBO,3.776017,51.457377
Nassauweg,21,,,4453VH,'s-Heerenhoek,Borsele,Zeeland,VBO,3.776194,51.457379
Nassauweg,23,,,4453VH,'s-Heerenhoek,Borsele,Zeeland,VBO,3.776491,51.457518
Nassauweg,25,,,4453VH,'s-Heerenhoek,Borsele,Zeeland,VBO,3.775919,51.458850
Nassauweg,27,,,4453VH,'s-Heerenhoek,Borsele,Zeeland,VBO,3.775860,51.459469
Nassauweg,33,,,4453VH,'s-Heerenhoek,Borsele,Zeeland,VBO,3.775690,51.462026
Nassauweg,35,,,4453VH,'s-Heerenhoek,Borsele,Zeeland,VBO,3.775241,51.463621
Nassauweg,2,,,4453VJ,'s-Heerenhoek,Borsele,Zeeland,VBO,3.776731,51.449382
Nassauweg,4,,,4453VJ,'s-Heerenhoek,Borsele,Zeeland,VBO,3.776717,51.450003
Nassauweg,6,,,4453VJ,'s-Heerenhoek,Borsele,Zeeland,VBO,3.775704,51.454926
Nassauweg,8,,,4453VJ,'s-Heerenhoek,Borsele,Zeeland,VBO,3.775804,51.457210
Nassauweg,10,,,4453VJ,'s-Heerenhoek,Borsele,Zeeland,VBO,3.775771,51.457287
Nassauweg,12,,,4453VJ,'s-Heerenhoek,Borsele,Zeeland,VBO,3.775759,51.457372
Nassauweg,14,,,4453VJ,'s-Heerenhoek,Borsele,Zeeland,VBO,3.775692,51.457680
Nassauweg,16,,,4453VJ,'s-Heerenhoek,Borsele,Zeeland,VBO,3.775650,51.457807
Nassauweg,18,,,4453VJ,'s-Heerenhoek,Borsele,Zeeland,VBO,3.775404,51.458629
Nassauweg,20,,,4453VJ,'s-Heerenhoek,Borsele,Zeeland,VBO,3.775337,51.458945
Nassauweg,26,,,4453VJ,'s-Heerenhoek,Borsele,Zeeland,VBO,3.775206,51.460640
Nassauweg,30,,,4453VJ,'s-Heerenhoek,Borsele,Zeeland,VBO,3.774292,51.462702
Nassauweg,32,,,4453VJ,'s-Heerenhoek,Borsele,Zeeland,VBO,3.774599,51.463950
Beeldhoeveweg,2,,,4453VK,'s-Heerenhoek,Borsele,Zeeland,VBO,3.782769,51.467630
Beeldhoeveweg,3,,,4453VK,'s-Heerenhoek,Borsele,Zeeland,VBO,3.785555,51.454058
Beeldhoeveweg,4,,,4453VK,'s-Heerenhoek,Borsele,Zeeland,VBO,3.783448,51.463880
Beeldhoeveweg,5,,,4453VK,'s-Heerenhoek,Borsele,Zeeland,VBO,3.785737,51.451940
Beeldhoeveweg,6,A,,4453VK,'s-Heerenhoek,Borsele,Zeeland,VBO,3.784272,51.457431
Beeldhoeveweg,6,,,4453VK,'s-Heerenhoek,Borsele,Zeeland,VBO,3.783515,51.462753
Werrilaan,55,,,4453VL,'s-Heerenhoek,Borsele,Zeeland,VBO,3.775985,51.451719
Werrilaan,56,,,4453VL,'s-Heerenhoek,Borsele,Zeeland,VBO,3.781748,51.451714
Werrilaan,57,,,4453VL,'s-Heerenhoek,Borsele,Zeeland,VBO,3.776325,51.451772
Werrilaan,58,,,4453VL,'s-Heerenhoek,Borsele,Zeeland,VBO,3.782349,51.451677
Werrilaan,60,,,4453VL,'s-Heerenhoek,Borsele,Zeeland,VBO,3.783196,51.451881
Werrilaan,61,,,4453VL,'s-Heerenhoek,Borsele,Zeeland,VBO,3.778025,51.451895
Werrilaan,65,,,4453VL,'s-Heerenhoek,Borsele,Zeeland,VBO,3.778816,51.451888
Werrilaan,67,A,,4453VL,'s-Heerenhoek,Borsele,Zeeland,VBO,3.780192,51.452062
Werrilaan,67,,,4453VL,'s-Heerenhoek,Borsele,Zeeland,VBO,3.779061,51.451937
Werrilaan,71,,,4453VL,'s-Heerenhoek,Borsele,Zeeland,VBO,3.781670,51.452088
Werrilaan,73,,,4453VL,'s-Heerenhoek,Borsele,Zeeland,VBO,3.781931,51.452106
Werrilaan,75,,,4453VL,'s-Heerenhoek,Borsele,Zeeland,VBO,3.782169,51.452089
Werrilaan,77,,,4453VL,'s-Heerenhoek,Borsele,Zeeland,VBO,3.782513,51.452123
Stooflaan,2,,,4453VM,'s-Heerenhoek,Borsele,Zeeland,VBO,3.760000,51.456777
Stooflaan,4,,,4453VM,'s-Heerenhoek,Borsele,Zeeland,VBO,3.758028,51.460158
Stooflaan,13,,,4453VM,'s-Heerenhoek,Borsele,Zeeland,VBO,3.759348,51.459274
Stooflaan,15,,,4453VM,'s-Heerenhoek,Borsele,Zeeland,VBO,3.758534,51.460209
Stooflaan,17,,,4453VM,'s-Heerenhoek,Borsele,Zeeland,VBO,3.757879,51.461232
