openbareruimtenaam,huisnummer,huisletter,huisnummertoevoeging,postcode,woonplaatsnaam,gemeentenaam,provincienaam,typeadresseerbaarobject,longitude,latitude
Noordstraat,1,,,4525AA,Retranchement,Sluis,Zeeland,VBO,3.384697,51.348017
Noordstraat,3,,,4525AA,Retranchement,Sluis,Zeeland,VBO,3.384649,51.348080
Noordstraat,5,A,,4525AA,Retranchement,Sluis,Zeeland,VBO,3.384533,51.348197
Noordstraat,5,,,4525AA,Retranchement,Sluis,Zeeland,VBO,3.384580,51.348146
Noordstraat,7,,,4525AA,Retranchement,Sluis,Zeeland,VBO,3.384468,51.348248
Noordstraat,9,,,4525AA,Retranchement,Sluis,Zeeland,VBO,3.384414,51.348303
Noordstraat,11,,,4525AA,Retranchement,Sluis,Zeeland,VBO,3.383805,51.348671
Noordstraat,15,,,4525AA,Retranchement,Sluis,Zeeland,VBO,3.383699,51.348796
Noordstraat,17,,,4525AA,Retranchement,Sluis,Zeeland,VBO,3.383513,51.348900
Noordstraat,19,,,4525AA,Retranchement,Sluis,Zeeland,VBO,3.383309,51.349047
Noordstraat,21,,,4525AA,Retranchement,Sluis,Zeeland,VBO,3.383208,51.349108
Noordstraat,23,,,4525AA,Retranchement,Sluis,Zeeland,VBO,3.383037,51.349213
Noordstraat,25,,,4525AA,Retranchement,Sluis,Zeeland,VBO,3.382889,51.349343
Noordstraat,27,,,4525AA,Retranchement,Sluis,Zeeland,VBO,3.382645,51.349499
Noordstraat,29,,,4525AA,Retranchement,Sluis,Zeeland,VBO,3.382484,51.349654
Noordstraat,31,,,4525AA,Retranchement,Sluis,Zeeland,VBO,3.382403,51.349723
Noordstraat,33,,,4525AA,Retranchement,Sluis,Zeeland,VBO,3.382274,51.349816
Noordstraat,35,,,4525AA,Retranchement,Sluis,Zeeland,VBO,3.381742,51.349726
Noordstraat,37,,,4525AA,Retranchement,Sluis,Zeeland,VBO,3.381683,51.350057
Noordstraat,39,,,4525AA,Retranchement,Sluis,Zeeland,VBO,3.381435,51.350160
Noordstraat,41,,,4525AA,Retranchement,Sluis,Zeeland,VBO,3.381054,51.350320
Noordstraat,43,,,4525AA,Retranchement,Sluis,Zeeland,VBO,3.380742,51.350406
Noordstraat,45,,,4525AA,Retranchement,Sluis,Zeeland,VBO,3.380301,51.350607
Noordstraat,47,,,4525AA,Retranchement,Sluis,Zeeland,VBO,3.377083,51.352245
Noordstraat,49,,,4525AA,Retranchement,Sluis,Zeeland,VBO,3.377217,51.352451
Noordstraat,2,,,4525AB,Retranchement,Sluis,Zeeland,VBO,3.384783,51.348263
Noordstraat,4,,,4525AB,Retranchement,Sluis,Zeeland,VBO,3.384719,51.348542
Noordstraat,6,,,4525AB,Retranchement,Sluis,Zeeland,VBO,3.384471,51.348544
Noordstraat,8,,,4525AB,Retranchement,Sluis,Zeeland,VBO,3.384390,51.348616
Noordstraat,10,,,4525AB,Retranchement,Sluis,Zeeland,VBO,3.384299,51.348678
Noordstraat,12,,,4525AB,Retranchement,Sluis,Zeeland,VBO,3.384181,51.348744
Noordstraat,14,,,4525AB,Retranchement,Sluis,Zeeland,VBO,3.384064,51.348846
Noordstraat,16,,,4525AB,Retranchement,Sluis,Zeeland,VBO,3.383753,51.348972
Noordstraat,18,,,4525AB,Retranchement,Sluis,Zeeland,VBO,3.383539,51.349151
Noordstraat,20,,,4525AB,Retranchement,Sluis,Zeeland,VBO,3.383411,51.349268
Noordstraat,22,,,4525AB,Retranchement,Sluis,Zeeland,VBO,3.383293,51.349330
Noordstraat,24,,,4525AB,Retranchement,Sluis,Zeeland,VBO,3.383128,51.349470
Noordstraat,28,,,4525AB,Retranchement,Sluis,Zeeland,VBO,3.382836,51.349707
Noordstraat,30,,,4525AB,Retranchement,Sluis,Zeeland,VBO,3.382708,51.349831
Noordstraat,34,,,4525AB,Retranchement,Sluis,Zeeland,VBO,3.382291,51.350056
Noordstraat,36,,,4525AB,Retranchement,Sluis,Zeeland,VBO,3.381930,51.350233
Noordstraat,38,,,4525AB,Retranchement,Sluis,Zeeland,VBO,3.381807,51.350279
Noordstraat,40,,,4525AB,Retranchement,Sluis,Zeeland,VBO,3.381724,51.350311
Noordstraat,42,,,4525AB,Retranchement,Sluis,Zeeland,VBO,3.381587,51.350354
Noordstraat,44,,,4525AB,Retranchement,Sluis,Zeeland,VBO,3.381509,51.350379
Noordstraat,46,,,4525AB,Retranchement,Sluis,Zeeland,VBO,3.381339,51.350427
Noordstraat,48,,,4525AB,Retranchement,Sluis,Zeeland,VBO,3.381176,51.350511
Noordstraat,50,,,4525AB,Retranchement,Sluis,Zeeland,VBO,3.381101,51.350534
Noordstraat,52,,,4525AB,Retranchement,Sluis,Zeeland,VBO,3.380933,51.350586
Noordstraat,54,A,,4525AB,Retranchement,Sluis,Zeeland,VBO,3.380724,51.350674
Noordstraat,54,,,4525AB,Retranchement,Sluis,Zeeland,VBO,3.380785,51.350643
Noordstraat,56,A,,4525AB,Retranchement,Sluis,Zeeland,VBO,3.380499,51.350754
Noordstraat,56,,,4525AB,Retranchement,Sluis,Zeeland,VBO,3.380565,51.350725
Noordstraat,58,,,4525AB,Retranchement,Sluis,Zeeland,VBO,3.380331,51.350814
Noordstraat,60,,,4525AB,Retranchement,Sluis,Zeeland,VBO,3.380254,51.350835
Noordstraat,62,A,,4525AB,Retranchement,Sluis,Zeeland,VBO,3.380042,51.350922
Noordstraat,62,,,4525AB,Retranchement,Sluis,Zeeland,VBO,3.380115,51.350890
Noordstraat,64,,,4525AB,Retranchement,Sluis,Zeeland,VBO,3.379524,51.351131
Noordstraat,66,,,4525AB,Retranchement,Sluis,Zeeland,VBO,3.379696,51.351238
Noordstraat,68,,,4525AB,Retranchement,Sluis,Zeeland,VBO,3.379848,51.351306
Zwinstraat,1,A,,4525AC,Retranchement,Sluis,Zeeland,VBO,3.384175,51.347669
Zwinstraat,1,,,4525AC,Retranchement,Sluis,Zeeland,VBO,3.384326,51.347704
Zwinstraat,2,,T,4525AC,Retranchement,Sluis,Zeeland,VBO,3.384361,51.347924
Zwinstraat,3,A,,4525AC,Retranchement,Sluis,Zeeland,VBO,3.384031,51.347588
Zwinstraat,3,,,4525AC,Retranchement,Sluis,Zeeland,VBO,3.383993,51.347560
Zwinstraat,4,,,4525AC,Retranchement,Sluis,Zeeland,VBO,3.383920,51.347819
Zwinstraat,5,,,4525AC,Retranchement,Sluis,Zeeland,VBO,3.384142,51.347344
Zwinstraat,6,,,4525AC,Retranchement,Sluis,Zeeland,VBO,3.383783,51.347798
Zwinstraat,7,,,4525AC,Retranchement,Sluis,Zeeland,VBO,3.384253,51.347104
Zwinstraat,8,,,4525AC,Retranchement,Sluis,Zeeland,VBO,3.383674,51.347749
Zwinstraat,9,,,4525AC,Retranchement,Sluis,Zeeland,VBO,3.384383,51.346856
Zwinstraat,10,,,4525AC,Retranchement,Sluis,Zeeland,VBO,3.383517,51.347699
Zwinstraat,11,,,4525AC,Retranchement,Sluis,Zeeland,VBO,3.383287,51.347388
Zwinstraat,12,,,4525AC,Retranchement,Sluis,Zeeland,VBO,3.383389,51.347662
Zwinstraat,13,,,4525AC,Retranchement,Sluis,Zeeland,VBO,3.383167,51.347349
Zwinstraat,14,,,4525AC,Retranchement,Sluis,Zeeland,VBO,3.383099,51.347637
Zwinstraat,15,,,4525AC,Retranchement,Sluis,Zeeland,VBO,3.382936,51.347271
Zwinstraat,16,,,4525AC,Retranchement,Sluis,Zeeland,VBO,3.383000,51.347586
Zwinstraat,17,,,4525AC,Retranchement,Sluis,Zeeland,VBO,3.382766,51.347203
Zwinstraat,18,,,4525AC,Retranchement,Sluis,Zeeland,VBO,3.382937,51.347508
Zwinstraat,20,,,4525AC,Retranchement,Sluis,Zeeland,VBO,3.382874,51.347475
Zwinstraat,22,,,4525AC,Retranchement,Sluis,Zeeland,VBO,3.382786,51.347443
Zwinstraat,24,A,,4525AC,Retranchement,Sluis,Zeeland,VBO,3.382289,51.347178
Zwinstraat,24,,,4525AC,Retranchement,Sluis,Zeeland,VBO,3.382627,51.347350
Zwinstraat,26,,,4525AC,Retranchement,Sluis,Zeeland,VBO,3.382147,51.347328
Zwinstraat,28,,,4525AC,Retranchement,Sluis,Zeeland,VBO,3.381825,51.347619
Zwinstraat,30,,,4525AC,Retranchement,Sluis,Zeeland,VBO,3.380688,51.346323
Markt,1,,,4525AD,Retranchement,Sluis,Zeeland,VBO,3.384955,51.348190
Markt,3,,,4525AD,Retranchement,Sluis,Zeeland,VBO,3.385041,51.348233
Markt,4,,,4525AD,Retranchement,Sluis,Zeeland,VBO,3.385217,51.347863
Markt,5,,,4525AD,Retranchement,Sluis,Zeeland,VBO,3.385178,51.348417
Markt,6,,,4525AD,Retranchement,Sluis,Zeeland,VBO,3.385391,51.347901
Markt,7,,,4525AD,Retranchement,Sluis,Zeeland,VBO,3.385324,51.348479
Markt,8,,,4525AD,Retranchement,Sluis,Zeeland,VBO,3.385569,51.347940
Markt,9,,,4525AD,Retranchement,Sluis,Zeeland,VBO,3.385422,51.348542
Markt,10,,,4525AD,Retranchement,Sluis,Zeeland,VBO,3.385723,51.347980
Markt,11,,,4525AD,Retranchement,Sluis,Zeeland,VBO,3.385332,51.348839
Markt,12,,,4525AD,Retranchement,Sluis,Zeeland,VBO,3.385998,51.348042
Markt,14,,,4525AD,Retranchement,Sluis,Zeeland,VBO,3.386229,51.348136
Markt,16,,,4525AD,Retranchement,Sluis,Zeeland,VBO,3.385958,51.348270
Markt,18,,,4525AD,Retranchement,Sluis,Zeeland,VBO,3.385914,51.348337
Markt,20,,,4525AD,Retranchement,Sluis,Zeeland,VBO,3.385830,51.348438
Markt,22,,,4525AD,Retranchement,Sluis,Zeeland,VBO,3.386541,51.348607
Markt,24,,,4525AD,Retranchement,Sluis,Zeeland,VBO,3.386105,51.348623
Markt,26,,,4525AD,Retranchement,Sluis,Zeeland,VBO,3.386009,51.348730
Molenstraat,1,,,4525AE,Retranchement,Sluis,Zeeland,VBO,3.385779,51.348973
Molenstraat,2,,,4525AE,Retranchement,Sluis,Zeeland,VBO,3.386107,51.348828
Molenstraat,2,,,4525AE,Retranchement,Sluis,Zeeland,VBO,3.386131,51.348820
Molenstraat,3,,,4525AE,Retranchement,Sluis,Zeeland,VBO,3.385995,51.349160
Molenstraat,8,,,4525AE,Retranchement,Sluis,Zeeland,VBO,3.386549,51.349040
Molenstraat,9,,,4525AE,Retranchement,Sluis,Zeeland,VBO,3.386285,51.349168
Molenstraat,10,,,4525AE,Retranchement,Sluis,Zeeland,VBO,3.386700,51.349097
Molenstraat,11,,,4525AE,Retranchement,Sluis,Zeeland,VBO,3.386352,51.349255
Molenstraat,12,,,4525AE,Retranchement,Sluis,Zeeland,VBO,3.387055,51.349274
Molenstraat,13,,,4525AE,Retranchement,Sluis,Zeeland,VBO,3.386411,51.349308
Molenstraat,14,A,,4525AE,Retranchement,Sluis,Zeeland,VBO,3.391231,51.349815
Molenstraat,14,B,,4525AE,Retranchement,Sluis,Zeeland,VBO,3.391147,51.349813
Molenstraat,14,C,,4525AE,Retranchement,Sluis,Zeeland,VBO,3.391074,51.349812
Molenstraat,14,D,,4525AE,Retranchement,Sluis,Zeeland,VBO,3.390992,51.349810
Molenstraat,14,E,,4525AE,Retranchement,Sluis,Zeeland,VBO,3.391231,51.349815
Molenstraat,14,,,4525AE,Retranchement,Sluis,Zeeland,VBO,3.390817,51.350000
Molenstraat,15,,,4525AE,Retranchement,Sluis,Zeeland,VBO,3.386481,51.349349
Molenstraat,17,,,4525AE,Retranchement,Sluis,Zeeland,VBO,3.386580,51.349421
Molenstraat,19,,,4525AE,Retranchement,Sluis,Zeeland,VBO,3.386677,51.349468
Molenstraat,21,A,,4525AE,Retranchement,Sluis,Zeeland,VBO,3.386967,51.349591
Molenstraat,21,,,4525AE,Retranchement,Sluis,Zeeland,VBO,3.386740,51.349503
Molenstraat,23,,,4525AE,Retranchement,Sluis,Zeeland,VBO,3.386537,51.350363
Molenstraat,25,A,,4525AE,Retranchement,Sluis,Zeeland,VBO,3.387523,51.350308
Molenstraat,25,B,,4525AE,Retranchement,Sluis,Zeeland,VBO,3.387380,51.350545
Molenstraat,25,,,4525AE,Retranchement,Sluis,Zeeland,VBO,3.387805,51.350060
Molenstraat,27,,,4525AE,Retranchement,Sluis,Zeeland,VBO,3.387710,51.350466
Dorpsstraat,1,,,4525AG,Retranchement,Sluis,Zeeland,VBO,3.385217,51.347695
Dorpsstraat,3,,,4525AG,Retranchement,Sluis,Zeeland,VBO,3.385297,51.347572
Dorpsstraat,5,A,,4525AG,Retranchement,Sluis,Zeeland,VBO,3.385389,51.347413
Dorpsstraat,5,,,4525AG,Retranchement,Sluis,Zeeland,VBO,3.385375,51.347489
Dorpsstraat,15,,,4525AG,Retranchement,Sluis,Zeeland,VBO,3.385353,51.347115
Dorpsstraat,17,,,4525AG,Retranchement,Sluis,Zeeland,VBO,3.385338,51.347066
Dorpsstraat,19,,,4525AG,Retranchement,Sluis,Zeeland,VBO,3.385310,51.347009
Dorpsstraat,21,,,4525AG,Retranchement,Sluis,Zeeland,VBO,3.385282,51.346965
Dorpsstraat,23,,,4525AG,Retranchement,Sluis,Zeeland,VBO,3.385251,51.346849
Dorpsstraat,25,,,4525AG,Retranchement,Sluis,Zeeland,VBO,3.385193,51.346725
Dorpsstraat,27,,,4525AG,Retranchement,Sluis,Zeeland,VBO,3.385092,51.346505
Dorpsstraat,29,,,4525AG,Retranchement,Sluis,Zeeland,VBO,3.385074,51.346412
Dorpsstraat,31,,,4525AG,Retranchement,Sluis,Zeeland,VBO,3.385116,51.346228
Dorpsstraat,33,,,4525AG,Retranchement,Sluis,Zeeland,VBO,3.385146,51.346152
Dorpsstraat,35,A,,4525AG,Retranchement,Sluis,Zeeland,VBO,3.385462,51.345520
Dorpsstraat,35,B,,4525AG,Retranchement,Sluis,Zeeland,VBO,3.385545,51.345480
Dorpsstraat,35,,,4525AG,Retranchement,Sluis,Zeeland,VBO,3.385237,51.346057
Dorpsstraat,37,A,,4525AG,Retranchement,Sluis,Zeeland,VBO,3.385999,51.345218
Dorpsstraat,37,,,4525AG,Retranchement,Sluis,Zeeland,VBO,3.385681,51.345364
Dorpsstraat,39,,,4525AG,Retranchement,Sluis,Zeeland,VBO,3.386312,51.345142
Dorpsstraat,41,,,4525AG,Retranchement,Sluis,Zeeland,VBO,3.386668,51.345103
Dorpsstraat,43,,,4525AG,Retranchement,Sluis,Zeeland,VBO,3.386982,51.345027
Dorpsstraat,45,,,4525AG,Retranchement,Sluis,Zeeland,VBO,3.387213,51.344969
Dorpsstraat,47,,,4525AG,Retranchement,Sluis,Zeeland,VBO,3.388267,51.344610
Dorpsstraat,49,,,4525AG,Retranchement,Sluis,Zeeland,VBO,3.388398,51.344585
Dorpsstraat,4,,,4525AH,Retranchement,Sluis,Zeeland,VBO,3.384910,51.347679
Dorpsstraat,6,,,4525AH,Retranchement,Sluis,Zeeland,VBO,3.384946,51.347618
Dorpsstraat,8,,,4525AH,Retranchement,Sluis,Zeeland,VBO,3.384982,51.347559
Dorpsstraat,10,,,4525AH,Retranchement,Sluis,Zeeland,VBO,3.385003,51.347496
Dorpsstraat,12,,,4525AH,Retranchement,Sluis,Zeeland,VBO,3.385026,51.347429
Dorpsstraat,14,,,4525AH,Retranchement,Sluis,Zeeland,VBO,3.385081,51.347350
Dorpsstraat,16,,,4525AH,Retranchement,Sluis,Zeeland,VBO,3.384992,51.347121
Dorpsstraat,18,,,4525AH,Retranchement,Sluis,Zeeland,VBO,3.384954,51.346924
Dorpsstraat,20,A,,4525AH,Retranchement,Sluis,Zeeland,VBO,3.384861,51.346750
Dorpsstraat,20,,,4525AH,Retranchement,Sluis,Zeeland,VBO,3.384920,51.346868
Dorpsstraat,22,,,4525AH,Retranchement,Sluis,Zeeland,VBO,3.384828,51.346595
Dorpsstraat,24,,,4525AH,Retranchement,Sluis,Zeeland,VBO,3.384811,51.346506
Dorpsstraat,26,,,4525AH,Retranchement,Sluis,Zeeland,VBO,3.384798,51.346329
Dorpsstraat,28,,,4525AH,Retranchement,Sluis,Zeeland,VBO,3.384945,51.346001
Dorpsstraat,30,,,4525AH,Retranchement,Sluis,Zeeland,VBO,3.385042,51.345839
Dorpsstraat,32,,,4525AH,Retranchement,Sluis,Zeeland,VBO,3.385059,51.345571
Dorpsstraat,34,,,4525AH,Retranchement,Sluis,Zeeland,VBO,3.385143,51.345525
Dorpsstraat,36,,,4525AH,Retranchement,Sluis,Zeeland,VBO,3.385228,51.345446
Dorpsstraat,38,,,4525AH,Retranchement,Sluis,Zeeland,VBO,3.385247,51.345358
Dorpsstraat,40,,,4525AH,Retranchement,Sluis,Zeeland,VBO,3.385364,51.345191
Dorpsstraat,42,,,4525AH,Retranchement,Sluis,Zeeland,VBO,3.385438,51.345084
Dorpsstraat,44,,,4525AH,Retranchement,Sluis,Zeeland,VBO,3.388202,51.344465
Dorpsstraat,46,,,4525AH,Retranchement,Sluis,Zeeland,VBO,3.388304,51.344422
Prins Mauritsstraat,1,,,4525AJ,Retranchement,Sluis,Zeeland,VBO,3.385336,51.345775
Prins Mauritsstraat,3,,,4525AJ,Retranchement,Sluis,Zeeland,VBO,3.385460,51.345802
Prins Mauritsstraat,5,,,4525AJ,Retranchement,Sluis,Zeeland,VBO,3.385557,51.345818
Prins Mauritsstraat,7,,,4525AJ,Retranchement,Sluis,Zeeland,VBO,3.385650,51.345841
Prins Mauritsstraat,9,,,4525AJ,Retranchement,Sluis,Zeeland,VBO,3.385748,51.345859
Prins Mauritsstraat,11,,,4525AJ,Retranchement,Sluis,Zeeland,VBO,3.385859,51.345884
Prins Mauritsstraat,13,,,4525AJ,Retranchement,Sluis,Zeeland,VBO,3.385958,51.345901
Prins Mauritsstraat,15,,,4525AJ,Retranchement,Sluis,Zeeland,VBO,3.386485,51.345745
Prins Mauritsstraat,17,,,4525AJ,Retranchement,Sluis,Zeeland,VBO,3.386457,51.345800
Prins Mauritsstraat,19,,,4525AJ,Retranchement,Sluis,Zeeland,VBO,3.386430,51.345858
Prins Mauritsstraat,21,,,4525AJ,Retranchement,Sluis,Zeeland,VBO,3.386406,51.345908
Prins Mauritsstraat,23,,,4525AJ,Retranchement,Sluis,Zeeland,VBO,3.386379,51.345962
Prins Mauritsstraat,25,,,4525AJ,Retranchement,Sluis,Zeeland,VBO,3.386352,51.346016
Prins Mauritsstraat,27,,G1,4525AJ,Retranchement,Sluis,Zeeland,VBO,3.386148,51.345928
Prins Mauritsstraat,27,,G2,4525AJ,Retranchement,Sluis,Zeeland,VBO,3.386134,51.345953
Prins Mauritsstraat,27,,G3,4525AJ,Retranchement,Sluis,Zeeland,VBO,3.386122,51.345979
Prins Mauritsstraat,27,,G4,4525AJ,Retranchement,Sluis,Zeeland,VBO,3.386112,51.346009
Prins Mauritsstraat,27,,G5,4525AJ,Retranchement,Sluis,Zeeland,VBO,3.386095,51.346036
Prins Mauritsstraat,27,,G6,4525AJ,Retranchement,Sluis,Zeeland,VBO,3.386086,51.346056
Prins Mauritsstraat,27,,,4525AJ,Retranchement,Sluis,Zeeland,VBO,3.386036,51.346105
Prins Mauritsstraat,29,,,4525AJ,Retranchement,Sluis,Zeeland,VBO,3.385989,51.346173
Prins Mauritsstraat,31,,,4525AJ,Retranchement,Sluis,Zeeland,VBO,3.385961,51.346224
Prins Mauritsstraat,33,,,4525AJ,Retranchement,Sluis,Zeeland,VBO,3.385933,51.346288
Prins Mauritsstraat,35,,,4525AJ,Retranchement,Sluis,Zeeland,VBO,3.385904,51.346331
Prins Mauritsstraat,37,,,4525AJ,Retranchement,Sluis,Zeeland,VBO,3.385894,51.346377
Prins Mauritsstraat,39,,,4525AJ,Retranchement,Sluis,Zeeland,VBO,3.385824,51.346499
Prins Mauritsstraat,41,,,4525AJ,Retranchement,Sluis,Zeeland,VBO,3.385874,51.346543
Prins Mauritsstraat,43,,,4525AJ,Retranchement,Sluis,Zeeland,VBO,3.385916,51.346584
Prins Mauritsstraat,45,,,4525AJ,Retranchement,Sluis,Zeeland,VBO,3.385953,51.346626
Prins Mauritsstraat,47,,,4525AJ,Retranchement,Sluis,Zeeland,VBO,3.386136,51.346642
Prins Mauritsstraat,49,,,4525AJ,Retranchement,Sluis,Zeeland,VBO,3.386174,51.346683
Prins Mauritsstraat,51,,,4525AJ,Retranchement,Sluis,Zeeland,VBO,3.386220,51.346727
Prins Mauritsstraat,53,,,4525AJ,Retranchement,Sluis,Zeeland,VBO,3.386395,51.346840
Prins Mauritsstraat,6,,,4525AK,Retranchement,Sluis,Zeeland,VBO,3.385683,51.345635
Prins Mauritsstraat,8,,,4525AK,Retranchement,Sluis,Zeeland,VBO,3.385898,51.345649
Prins Mauritsstraat,12,,,4525AK,Retranchement,Sluis,Zeeland,VBO,3.386196,51.345744
Prins Mauritsstraat,14,,,4525AK,Retranchement,Sluis,Zeeland,VBO,3.386220,51.345687
Prins Mauritsstraat,16,,,4525AK,Retranchement,Sluis,Zeeland,VBO,3.386249,51.345637
Prins Mauritsstraat,18,,,4525AK,Retranchement,Sluis,Zeeland,VBO,3.386276,51.345584
Prins Mauritsstraat,20,,,4525AK,Retranchement,Sluis,Zeeland,VBO,3.386305,51.345527
Prins Mauritsstraat,22,,,4525AK,Retranchement,Sluis,Zeeland,VBO,3.386333,51.345478
Prins Mauritsstraat,24,A,,4525AK,Retranchement,Sluis,Zeeland,VBO,3.386934,51.345380
Prins Mauritsstraat,24,,,4525AK,Retranchement,Sluis,Zeeland,VBO,3.386577,51.345574
Prins Mauritsstraat,26,,,4525AK,Retranchement,Sluis,Zeeland,VBO,3.386659,51.345599
Prins Mauritsstraat,28,,,4525AK,Retranchement,Sluis,Zeeland,VBO,3.386742,51.345614
Prins Mauritsstraat,30,,,4525AK,Retranchement,Sluis,Zeeland,VBO,3.386836,51.345634
Prins Mauritsstraat,32,,,4525AK,Retranchement,Sluis,Zeeland,VBO,3.386918,51.345651
Prins Mauritsstraat,34,,,4525AK,Retranchement,Sluis,Zeeland,VBO,3.387005,51.345665
Prins Mauritsstraat,36,,,4525AK,Retranchement,Sluis,Zeeland,VBO,3.386805,51.345807
Prins Mauritsstraat,38,,,4525AK,Retranchement,Sluis,Zeeland,VBO,3.386766,51.345856
Prins Mauritsstraat,40,,,4525AK,Retranchement,Sluis,Zeeland,VBO,3.386746,51.345915
Prins Mauritsstraat,42,,,4525AK,Retranchement,Sluis,Zeeland,VBO,3.386719,51.345967
Prins Mauritsstraat,44,,,4525AK,Retranchement,Sluis,Zeeland,VBO,3.386690,51.346021
Prins Mauritsstraat,46,,,4525AK,Retranchement,Sluis,Zeeland,VBO,3.386664,51.346072
Prins Mauritsstraat,48,,,4525AK,Retranchement,Sluis,Zeeland,VBO,3.386914,51.346373
Prins Mauritsstraat,50,,,4525AK,Retranchement,Sluis,Zeeland,VBO,3.386826,51.346353
Prins Mauritsstraat,52,,,4525AK,Retranchement,Sluis,Zeeland,VBO,3.386739,51.346340
Prins Mauritsstraat,54,,,4525AK,Retranchement,Sluis,Zeeland,VBO,3.386654,51.346324
Prins Mauritsstraat,56,,,4525AK,Retranchement,Sluis,Zeeland,VBO,3.386559,51.346246
Prins Mauritsstraat,58,,,4525AK,Retranchement,Sluis,Zeeland,VBO,3.386473,51.346233
Prins Mauritsstraat,60,,,4525AK,Retranchement,Sluis,Zeeland,VBO,3.386385,51.346214
Prins Mauritsstraat,62,,,4525AK,Retranchement,Sluis,Zeeland,VBO,3.386297,51.346198
Prins Mauritsstraat,64,,,4525AK,Retranchement,Sluis,Zeeland,VBO,3.386333,51.346484
Prins Mauritsstraat,66,,,4525AK,Retranchement,Sluis,Zeeland,VBO,3.386382,51.346526
Prins Mauritsstraat,68,,,4525AK,Retranchement,Sluis,Zeeland,VBO,3.386602,51.346640
Diomedeweg,1,,,4525LA,Retranchement,Sluis,Zeeland,VBO,3.425938,51.320534
Diomedeweg,2,,,4525LA,Retranchement,Sluis,Zeeland,VBO,3.423623,51.318652
Contre Escarpe,2,,,4525LB,Retranchement,Sluis,Zeeland,VBO,3.388990,51.344506
Olieslagersweg,1,,,4525LC,Retranchement,Sluis,Zeeland,VBO,3.406307,51.320256
Olieslagersweg,2,,,4525LC,Retranchement,Sluis,Zeeland,VBO,3.407787,51.321855
Olieslagersweg,3,,,4525LC,Retranchement,Sluis,Zeeland,VBO,3.399626,51.322564
Provinciale weg,2,,,4525LD,Retranchement,Sluis,Zeeland,VBO,3.400294,51.323903
Provinciale weg,3,A,,4525LD,Retranchement,Sluis,Zeeland,VBO,3.404168,51.324421
Provinciale weg,3,,001,4525LD,Retranchement,Sluis,Zeeland,VBO,3.403926,51.324332
Provinciale weg,3,,002,4525LD,Retranchement,Sluis,Zeeland,VBO,3.403955,51.324294
Provinciale weg,3,,003,4525LD,Retranchement,Sluis,Zeeland,VBO,3.403989,51.324257
Provinciale weg,3,,004,4525LD,Retranchement,Sluis,Zeeland,VBO,3.404017,51.324220
Provinciale weg,3,,,4525LD,Retranchement,Sluis,Zeeland,VBO,3.403623,51.324580
Provinciale weg,6,,,4525LD,Retranchement,Sluis,Zeeland,VBO,3.406805,51.325641
Schenkelweg,1,,,4525LE,Retranchement,Sluis,Zeeland,VBO,3.398179,51.332615
Schenkelweg,2,,,4525LE,Retranchement,Sluis,Zeeland,VBO,3.396510,51.331705
Braamdijk,2,,,4525LG,Retranchement,Sluis,Zeeland,VBO,3.389134,51.344270
Braamdijk,3,,,4525LG,Retranchement,Sluis,Zeeland,VBO,3.388795,51.344124
Braamdijk,4,,,4525LG,Retranchement,Sluis,Zeeland,VBO,3.389267,51.344079
Braamdijk,5,,,4525LG,Retranchement,Sluis,Zeeland,VBO,3.389416,51.343894
Braamdijk,6,,,4525LG,Retranchement,Sluis,Zeeland,VBO,3.389535,51.343552
Braamdijk,9,,,4525LG,Retranchement,Sluis,Zeeland,VBO,3.390708,51.340141
Braamdijk,10,,,4525LG,Retranchement,Sluis,Zeeland,VBO,3.392288,51.339671
Braamdijk,11,A,,4525LG,Retranchement,Sluis,Zeeland,VBO,3.392458,51.339377
Braamdijk,11,,,4525LG,Retranchement,Sluis,Zeeland,VBO,3.392380,51.339520
Braamdijk,12,,,4525LG,Retranchement,Sluis,Zeeland,VBO,3.392384,51.339097
Braamdijk,13,,,4525LG,Retranchement,Sluis,Zeeland,VBO,3.392136,51.338962
Braamdijk,14,,,4525LG,Retranchement,Sluis,Zeeland,VBO,3.392023,51.338518
Braamdijk,15,,,4525LG,Retranchement,Sluis,Zeeland,VBO,3.392190,51.338622
Braamdijk,16,,,4525LG,Retranchement,Sluis,Zeeland,VBO,3.392263,51.338554
Braamdijk,17,,,4525LG,Retranchement,Sluis,Zeeland,VBO,3.392602,51.338705
Braamdijk,19,,,4525LG,Retranchement,Sluis,Zeeland,VBO,3.392682,51.338536
Braamdijk,20,,,4525LG,Retranchement,Sluis,Zeeland,VBO,3.392808,51.338494
Braamdijk,21,,,4525LG,Retranchement,Sluis,Zeeland,VBO,3.399622,51.334734
Eindstraat,1,,,4525LH,Retranchement,Sluis,Zeeland,VBO,3.392822,51.338934
Eindstraat,2,,,4525LH,Retranchement,Sluis,Zeeland,VBO,3.392992,51.338991
Eindstraat,3,,,4525LH,Retranchement,Sluis,Zeeland,VBO,3.393164,51.338661
Eindstraat,4,,,4525LH,Retranchement,Sluis,Zeeland,VBO,3.393493,51.338703
Eindstraat,5,,,4525LH,Retranchement,Sluis,Zeeland,VBO,3.393423,51.338980
Eindstraat,6,,,4525LH,Retranchement,Sluis,Zeeland,VBO,3.393485,51.338882
Eindstraat,7,,,4525LH,Retranchement,Sluis,Zeeland,VBO,3.393788,51.338843
Eindstraat,8,,,4525LH,Retranchement,Sluis,Zeeland,VBO,3.393981,51.338702
Platteweg,1,,,4525LJ,Retranchement,Sluis,Zeeland,VBO,3.393564,51.339702
Platteweg,2,,,4525LJ,Retranchement,Sluis,Zeeland,VBO,3.394701,51.339640
Platteweg,3,,,4525LJ,Retranchement,Sluis,Zeeland,VBO,3.396654,51.340276
Platteweg,4,,,4525LJ,Retranchement,Sluis,Zeeland,VBO,3.398165,51.340989
Oudelandseweg,1,,,4525LK,Retranchement,Sluis,Zeeland,VBO,3.396950,51.340057
Oudelandseweg,2,,,4525LK,Retranchement,Sluis,Zeeland,VBO,3.399403,51.339442
Achterweg,1,A,,4525LL,Retranchement,Sluis,Zeeland,VBO,3.390693,51.338859
Achterweg,1,,,4525LL,Retranchement,Sluis,Zeeland,VBO,3.391066,51.338844
Achterweg,2,,,4525LL,Retranchement,Sluis,Zeeland,VBO,3.390533,51.339128
Achterweg,3,,,4525LL,Retranchement,Sluis,Zeeland,VBO,3.389794,51.339471
Terhofstede,2,,,4525LM,Retranchement,Sluis,Zeeland,VBO,3.392012,51.338968
Terhofstede,3,,,4525LM,Retranchement,Sluis,Zeeland,VBO,3.391833,51.339080
Terhofstede,4,,,4525LM,Retranchement,Sluis,Zeeland,VBO,3.391740,51.339092
Terhofstede,5,,,4525LM,Retranchement,Sluis,Zeeland,VBO,3.391654,51.339109
Terhofstede,6,,,4525LM,Retranchement,Sluis,Zeeland,VBO,3.391914,51.338672
Terhofstede,8,A,,4525LM,Retranchement,Sluis,Zeeland,VBO,3.391296,51.339025
Terhofstede,8,,,4525LM,Retranchement,Sluis,Zeeland,VBO,3.391300,51.339139
Terhofstede,9,A,,4525LM,Retranchement,Sluis,Zeeland,VBO,3.391211,51.339347
Terhofstede,9,,,4525LM,Retranchement,Sluis,Zeeland,VBO,3.391340,51.339235
Terhofstede,10,,,4525LM,Retranchement,Sluis,Zeeland,VBO,3.391460,51.339384
Terhofstede,12,,T,4525LM,Retranchement,Sluis,Zeeland,VBO,3.391558,51.339614
Terhofstede,13,,,4525LM,Retranchement,Sluis,Zeeland,VBO,3.390911,51.339313
Terhofstede,14,,,4525LM,Retranchement,Sluis,Zeeland,VBO,3.390539,51.339354
Terhofstede,15,,,4525LM,Retranchement,Sluis,Zeeland,VBO,3.389046,51.340001
Zeedijk,1,,,4525LN,Retranchement,Sluis,Zeeland,VBO,3.385739,51.337122
Zeedijk,2,A,,4525LN,Retranchement,Sluis,Zeeland,VBO,3.388814,51.335702
Zeedijk,2,B,,4525LN,Retranchement,Sluis,Zeeland,VBO,3.389143,51.335964
Zeedijk,2,,,4525LN,Retranchement,Sluis,Zeeland,VBO,3.388993,51.335600
Zeedijk,3,,,4525LN,Retranchement,Sluis,Zeeland,VBO,3.389483,51.335199
Killedijk,1,,,4525LP,Retranchement,Sluis,Zeeland,VBO,3.388149,51.344122
Killedijk,2,,,4525LP,Retranchement,Sluis,Zeeland,VBO,3.388057,51.343987
Killedijk,4,,,4525LP,Retranchement,Sluis,Zeeland,VBO,3.388258,51.343436
Killedijk,5,,,4525LP,Retranchement,Sluis,Zeeland,VBO,3.388249,51.343155
Killedijk,8,,,4525LP,Retranchement,Sluis,Zeeland,VBO,3.388623,51.342543
Killedijk,9,,,4525LP,Retranchement,Sluis,Zeeland,VBO,3.388902,51.342117
Killedijk,10,,,4525LP,Retranchement,Sluis,Zeeland,VBO,3.388793,51.341653
Killedijk,11,,,4525LP,Retranchement,Sluis,Zeeland,VBO,3.388605,51.341447
Killedijk,12,,,4525LP,Retranchement,Sluis,Zeeland,VBO,3.387270,51.341350
Killedijk,13,,,4525LP,Retranchement,Sluis,Zeeland,VBO,3.386800,51.341187
Killedijk,14,,,4525LP,Retranchement,Sluis,Zeeland,VBO,3.386684,51.341139
Killedijk,15,,,4525LP,Retranchement,Sluis,Zeeland,VBO,3.388473,51.340548
Pompedijkje,1,,,4525LR,Retranchement,Sluis,Zeeland,VBO,3.390724,51.344133
Bosweg,3,,,4525LS,Retranchement,Sluis,Zeeland,VBO,3.402694,51.349280
Cadzandseweg,1,,,4525LT,Retranchement,Sluis,Zeeland,VBO,3.388487,51.355673
Cadzandseweg,2,,T,4525LT,Retranchement,Sluis,Zeeland,VBO,3.382334,51.361445
Groene weg,1,A,,4525LV,Retranchement,Sluis,Zeeland,VBO,3.389675,51.356888
Groene weg,1,B,,4525LV,Retranchement,Sluis,Zeeland,VBO,3.389749,51.356877
Groene weg,1,C,,4525LV,Retranchement,Sluis,Zeeland,VBO,3.389897,51.356851
Groene weg,1,D,,4525LV,Retranchement,Sluis,Zeeland,VBO,3.389985,51.356828
Groene weg,1,,,4525LV,Retranchement,Sluis,Zeeland,VBO,3.389539,51.356572
Groene weg,2,,,4525LV,Retranchement,Sluis,Zeeland,VBO,3.390104,51.360079
Strengweg,1,,,4525LW,Retranchement,Sluis,Zeeland,VBO,3.383853,51.360808
Strengweg,2,,,4525LW,Retranchement,Sluis,Zeeland,VBO,3.384650,51.361640
Strengweg,3,A,,4525LW,Retranchement,Sluis,Zeeland,VBO,3.386400,51.367842
Strengweg,3,,,4525LW,Retranchement,Sluis,Zeeland,VBO,3.386411,51.367899
Strengweg,4,,,4525LW,Retranchement,Sluis,Zeeland,VBO,3.385419,51.366041
Duinweg,1,A,,4525LX,Retranchement,Sluis,Zeeland,VBO,3.373527,51.366218
Duinweg,1,,,4525LX,Retranchement,Sluis,Zeeland,VBO,3.373709,51.366445
Duinweg,4,,,4525LX,Retranchement,Sluis,Zeeland,VBO,3.371959,51.372597
Herenweg,4,,,4525LZ,Retranchement,Sluis,Zeeland,VBO,3.414704,51.349439
Waterschipdijkje,1,,,4525MA,Retranchement,Sluis,Zeeland,VBO,3.398067,51.339797
Waterschipdijkje,1,,,4525MA,Retranchement,Sluis,Zeeland,VBO,3.398289,51.339965
Oude Zeedijk,2,,,4525MB,Retranchement,Sluis,Zeeland,VBO,3.419498,51.324148
Zanddijk,4,,,4525MC,Retranchement,Sluis,Zeeland,VBO,3.391310,51.349442
Kanaalweg,1,,,4525NA,Retranchement,Sluis,Zeeland,VBO,3.381253,51.346851
Kanaalweg,2,,,4525NA,Retranchement,Sluis,Zeeland,VBO,3.378798,51.348071
Kanaalweg,3,,,4525NA,Retranchement,Sluis,Zeeland,VBO,3.378653,51.348548
Kanaalweg,7,,,4525NA,Retranchement,Sluis,Zeeland,VBO,3.377040,51.357022
Kanaalweg,8,,,4525NA,Retranchement,Sluis,Zeeland,VBO,3.377865,51.357855
Wachtsluis,1,,,4525ND,Retranchement,Sluis,Zeeland,VBO,3.379896,51.361639
Wachtsluis,2,,,4525ND,Retranchement,Sluis,Zeeland,VBO,3.379874,51.363913
Wouter Jansenstraat,1,,,4525NE,Retranchement,Sluis,Zeeland,VBO,3.378091,51.369044
Wouter Jansenstraat,3,,,4525NE,Retranchement,Sluis,Zeeland,VBO,3.377981,51.369257
Joost de Moorstraat,1,,,4525NG,Retranchement,Sluis,Zeeland,VBO,3.378929,51.368276
Joost de Moorstraat,2,,,4525NG,Retranchement,Sluis,Zeeland,VBO,3.378984,51.368322
Joost de Moorstraat,3,,,4525NG,Retranchement,Sluis,Zeeland,VBO,3.378997,51.368367
Joost de Moorstraat,4,,,4525NG,Retranchement,Sluis,Zeeland,VBO,3.378965,51.368429
Joost de Moorstraat,5,,,4525NG,Retranchement,Sluis,Zeeland,VBO,3.378978,51.368474
Joost de Moorstraat,6,,,4525NG,Retranchement,Sluis,Zeeland,VBO,3.379033,51.368520
Joost de Moorstraat,7,,,4525NG,Retranchement,Sluis,Zeeland,VBO,3.379046,51.368566
Joost de Moorstraat,8,,,4525NG,Retranchement,Sluis,Zeeland,VBO,3.379014,51.368619
Joost de Moorstraat,9,,,4525NG,Retranchement,Sluis,Zeeland,VBO,3.379027,51.368664
Joost de Moorstraat,10,,,4525NG,Retranchement,Sluis,Zeeland,VBO,3.378981,51.368717
Joost de Moorstraat,11,,,4525NG,Retranchement,Sluis,Zeeland,VBO,3.378645,51.368846
Joost de Moorstraat,12,,,4525NG,Retranchement,Sluis,Zeeland,VBO,3.378701,51.368883
Joost de Moorstraat,13,,,4525NG,Retranchement,Sluis,Zeeland,VBO,3.378787,51.368894
Joost de Moorstraat,14,,,4525NG,Retranchement,Sluis,Zeeland,VBO,3.378843,51.368931
Joost de Moorstraat,15,,,4525NG,Retranchement,Sluis,Zeeland,VBO,3.378928,51.368941
Joost de Moorstraat,16,,,4525NG,Retranchement,Sluis,Zeeland,VBO,3.379015,51.368934
Joost de Moorstraat,17,,,4525NG,Retranchement,Sluis,Zeeland,VBO,3.379086,51.368944
Joost de Moorstraat,18,,,4525NG,Retranchement,Sluis,Zeeland,VBO,3.379174,51.368918
Gerrit van Hoekestraat,1,,,4525NH,Retranchement,Sluis,Zeeland,VBO,3.377716,51.371565
Jan Buucstraat,1,,,4525NJ,Retranchement,Sluis,Zeeland,VBO,3.377571,51.369098
Jan Buucstraat,2,,,4525NJ,Retranchement,Sluis,Zeeland,VBO,3.377089,51.368954
Jan Buucstraat,3,,,4525NJ,Retranchement,Sluis,Zeeland,VBO,3.376605,51.368856
Grote Christoffelstraat,6,,,4525NK,Retranchement,Sluis,Zeeland,VBO,3.377346,51.368671
Grote Christoffelstraat,8,,,4525NK,Retranchement,Sluis,Zeeland,VBO,3.377517,51.368377
Grote Christoffelstraat,10,,,4525NK,Retranchement,Sluis,Zeeland,VBO,3.377751,51.367950
Grote Christoffelstraat,12,,,4525NK,Retranchement,Sluis,Zeeland,VBO,3.377955,51.367567
Grote Christoffelstraat,14,,,4525NK,Retranchement,Sluis,Zeeland,VBO,3.378045,51.366813
Grote Christoffelstraat,16,,,4525NK,Retranchement,Sluis,Zeeland,VBO,3.377983,51.366596
Grote Christoffelstraat,18,,,4525NK,Retranchement,Sluis,Zeeland,VBO,3.377947,51.366434
Grote Christoffelstraat,20,,,4525NK,Retranchement,Sluis,Zeeland,VBO,3.377911,51.366271
Grote Christoffelstraat,22,,,4525NK,Retranchement,Sluis,Zeeland,VBO,3.377875,51.366118
Grote Christoffelstraat,24,,,4525NK,Retranchement,Sluis,Zeeland,VBO,3.377825,51.365955
Grote Christoffelstraat,26,,,4525NK,Retranchement,Sluis,Zeeland,VBO,3.377788,51.365802
Grote Christoffelstraat,28,,,4525NK,Retranchement,Sluis,Zeeland,VBO,3.377637,51.365646
Grote Christoffelstraat,30,,,4525NK,Retranchement,Sluis,Zeeland,VBO,3.377444,51.365796
Grote Christoffelstraat,32,,,4525NK,Retranchement,Sluis,Zeeland,VBO,3.377251,51.365936
Grote Christoffelstraat,34,,,4525NK,Retranchement,Sluis,Zeeland,VBO,3.377058,51.366077
Grote Christoffelstraat,36,,,4525NK,Retranchement,Sluis,Zeeland,VBO,3.376864,51.366235
Grote Christoffelstraat,38,,,4525NK,Retranchement,Sluis,Zeeland,VBO,3.376710,51.366466
Grote Christoffelstraat,40,,,4525NK,Retranchement,Sluis,Zeeland,VBO,3.376966,51.366534
Grote Christoffelstraat,42,,,4525NK,Retranchement,Sluis,Zeeland,VBO,3.377207,51.366601
Grote Christoffelstraat,44,,,4525NK,Retranchement,Sluis,Zeeland,VBO,3.377463,51.366668
Grote Christoffelstraat,46,,,4525NK,Retranchement,Sluis,Zeeland,VBO,3.377718,51.366735
Grote Christoffelstraat,3,,,4525NL,Retranchement,Sluis,Zeeland,VBO,3.377710,51.368875
Grote Christoffelstraat,5,,,4525NL,Retranchement,Sluis,Zeeland,VBO,3.377822,51.368625
Grote Christoffelstraat,7,,,4525NL,Retranchement,Sluis,Zeeland,VBO,3.377976,51.368394
Grote Christoffelstraat,9,,,4525NL,Retranchement,Sluis,Zeeland,VBO,3.378129,51.368172
Grote Christoffelstraat,11,,,4525NL,Retranchement,Sluis,Zeeland,VBO,3.378141,51.367903
Grote Christoffelstraat,13,,,4525NL,Retranchement,Sluis,Zeeland,VBO,3.378366,51.367682
Grote Christoffelstraat,15,,,4525NL,Retranchement,Sluis,Zeeland,VBO,3.378406,51.367422
Grote Christoffelstraat,17,,,4525NL,Retranchement,Sluis,Zeeland,VBO,3.378632,51.367201
Grote Christoffelstraat,19,,,4525NL,Retranchement,Sluis,Zeeland,VBO,3.378528,51.366947
Grote Christoffelstraat,21,,,4525NL,Retranchement,Sluis,Zeeland,VBO,3.378454,51.366667
Grote Christoffelstraat,23,,,4525NL,Retranchement,Sluis,Zeeland,VBO,3.378395,51.366378
Grote Christoffelstraat,25,,,4525NL,Retranchement,Sluis,Zeeland,VBO,3.378321,51.366098
Grote Christoffelstraat,27,,,4525NL,Retranchement,Sluis,Zeeland,VBO,3.378205,51.365791
Grote Christoffelstraat,29,,,4525NL,Retranchement,Sluis,Zeeland,VBO,3.378131,51.365529
Grote Christoffelstraat,31,,001,4525NL,Retranchement,Sluis,Zeeland,VBO,3.378184,51.365282
Grote Christoffelstraat,31,,002,4525NL,Retranchement,Sluis,Zeeland,VBO,3.378188,51.365234
Grote Christoffelstraat,33,,,4525NL,Retranchement,Sluis,Zeeland,VBO,3.378124,51.365034
Grote Christoffelstraat,35,,,4525NL,Retranchement,Sluis,Zeeland,VBO,3.377657,51.365188
Grote Christoffelstraat,37,,,4525NL,Retranchement,Sluis,Zeeland,VBO,3.377389,51.365417
Grote Christoffelstraat,39,,,4525NL,Retranchement,Sluis,Zeeland,VBO,3.377106,51.365637
Grote Christoffelstraat,41,,,4525NL,Retranchement,Sluis,Zeeland,VBO,3.376824,51.365848
Grote Christoffelstraat,43,,,4525NL,Retranchement,Sluis,Zeeland,VBO,3.376543,51.366065
Grote Christoffelstraat,45,,,4525NL,Retranchement,Sluis,Zeeland,VBO,3.376257,51.366273
Grote Christoffelstraat,47,,,4525NL,Retranchement,Sluis,Zeeland,VBO,3.375947,51.366479
Grote Christoffelstraat,49,,,4525NL,Retranchement,Sluis,Zeeland,VBO,3.376475,51.366704
Grote Christoffelstraat,51,,,4525NL,Retranchement,Sluis,Zeeland,VBO,3.377010,51.366849
Grote Christoffelstraat,53,,,4525NL,Retranchement,Sluis,Zeeland,VBO,3.377577,51.367003
Grote Christoffelstraat,55,,,4525NL,Retranchement,Sluis,Zeeland,VBO,3.377917,51.367125
Kaapvaartstraat,2,,,4525NM,Retranchement,Sluis,Zeeland,VBO,3.376440,51.368226
Kaapvaartstraat,4,,,4525NM,Retranchement,Sluis,Zeeland,VBO,3.376655,51.368048
Kaapvaartstraat,6,,,4525NM,Retranchement,Sluis,Zeeland,VBO,3.376805,51.367907
Kaapvaartstraat,8,,,4525NM,Retranchement,Sluis,Zeeland,VBO,3.376984,51.367748
Kaapvaartstraat,9,,,4525NM,Retranchement,Sluis,Zeeland,VBO,3.377380,51.368084
Kaapvaartstraat,10,,,4525NM,Retranchement,Sluis,Zeeland,VBO,3.377107,51.367579
Kaapvaartstraat,12,,,4525NM,Retranchement,Sluis,Zeeland,VBO,3.376866,51.367494
Kaapvaartstraat,14,,,4525NM,Retranchement,Sluis,Zeeland,VBO,3.376569,51.367409
Kaapvaartstraat,16,,,4525NM,Retranchement,Sluis,Zeeland,VBO,3.376325,51.367344
Kaapvaartstraat,18,,,4525NM,Retranchement,Sluis,Zeeland,VBO,3.375965,51.367304
Kaapvaartstraat,20,,,4525NM,Retranchement,Sluis,Zeeland,VBO,3.376024,51.367460
Kaapvaartstraat,22,,,4525NM,Retranchement,Sluis,Zeeland,VBO,3.376090,51.367618
Kaapvaartstraat,24,,,4525NM,Retranchement,Sluis,Zeeland,VBO,3.376146,51.367768
Kaapvaartstraat,26,,,4525NM,Retranchement,Sluis,Zeeland,VBO,3.376223,51.367958
Kaapvaartstraat,1,,,4525NN,Retranchement,Sluis,Zeeland,VBO,3.376758,51.368652
Kaapvaartstraat,3,,,4525NN,Retranchement,Sluis,Zeeland,VBO,3.376665,51.368471
Kaapvaartstraat,5,,,4525NN,Retranchement,Sluis,Zeeland,VBO,3.377171,51.368398
Kaapvaartstraat,7,,,4525NN,Retranchement,Sluis,Zeeland,VBO,3.377024,51.368153
Kaapvaartstraat,11,,,4525NN,Retranchement,Sluis,Zeeland,VBO,3.377428,51.367791
Kaapvaartstraat,13,,,4525NN,Retranchement,Sluis,Zeeland,VBO,3.377614,51.367471
Kaapvaartstraat,15,,,4525NN,Retranchement,Sluis,Zeeland,VBO,3.377333,51.367331
Kaapvaartstraat,17,,,4525NN,Retranchement,Sluis,Zeeland,VBO,3.377171,51.367095
Kaapvaartstraat,19,,,4525NN,Retranchement,Sluis,Zeeland,VBO,3.376764,51.367205
Kaapvaartstraat,21,,,4525NN,Retranchement,Sluis,Zeeland,VBO,3.376717,51.366961
Kaapvaartstraat,23,,,4525NN,Retranchement,Sluis,Zeeland,VBO,3.376238,51.367033
Kaapvaartstraat,25,,,4525NN,Retranchement,Sluis,Zeeland,VBO,3.376040,51.366799
Kaapvaartstraat,27,A,,4525NN,Retranchement,Sluis,Zeeland,VBO,3.375727,51.366838
Kaapvaartstraat,27,B,,4525NN,Retranchement,Sluis,Zeeland,VBO,3.375454,51.366910
Kaapvaartstraat,29,,,4525NN,Retranchement,Sluis,Zeeland,VBO,3.375509,51.367181
Kaapvaartstraat,31,,,4525NN,Retranchement,Sluis,Zeeland,VBO,3.375344,51.367417
Kaapvaartstraat,33,,,4525NN,Retranchement,Sluis,Zeeland,VBO,3.375662,51.367582
Kaapvaartstraat,35,,,4525NN,Retranchement,Sluis,Zeeland,VBO,3.375506,51.367821
Kaapvaartstraat,37,,,4525NN,Retranchement,Sluis,Zeeland,VBO,3.375823,51.367981
Kaapvaartstraat,39,,,4525NN,Retranchement,Sluis,Zeeland,VBO,3.375671,51.368218
Kaapvaartstraat,41,,,4525NN,Retranchement,Sluis,Zeeland,VBO,3.375986,51.368386
Kaapvaartstraat,43,,,4525NN,Retranchement,Sluis,Zeeland,VBO,3.375860,51.368615
Kaapvaartstraat,45,,,4525NN,Retranchement,Sluis,Zeeland,VBO,3.376164,51.368821
Spaanse Galeien,1,,,4525NP,Retranchement,Sluis,Zeeland,VBO,3.378280,51.369575
Spaanse Galeien,2,,,4525NP,Retranchement,Sluis,Zeeland,VBO,3.378317,51.369533
Spaanse Galeien,3,,,4525NP,Retranchement,Sluis,Zeeland,VBO,3.378342,51.369475
Spaanse Galeien,4,,,4525NP,Retranchement,Sluis,Zeeland,VBO,3.378384,51.369427
Spaanse Galeien,5,,,4525NP,Retranchement,Sluis,Zeeland,VBO,3.378440,51.369395
Spaanse Galeien,6,,,4525NP,Retranchement,Sluis,Zeeland,VBO,3.378480,51.369347
Spaanse Galeien,7,,,4525NP,Retranchement,Sluis,Zeeland,VBO,3.378538,51.369321
Spaanse Galeien,8,,,4525NP,Retranchement,Sluis,Zeeland,VBO,3.378625,51.369305
Spaanse Galeien,9,,,4525NP,Retranchement,Sluis,Zeeland,VBO,3.378684,51.369279
Spaanse Galeien,10,,,4525NP,Retranchement,Sluis,Zeeland,VBO,3.378715,51.369216
Spaanse Galeien,11,,,4525NP,Retranchement,Sluis,Zeeland,VBO,3.379135,51.369152
Spaanse Galeien,12,,,4525NP,Retranchement,Sluis,Zeeland,VBO,3.379190,51.369197
Spaanse Galeien,13,,,4525NP,Retranchement,Sluis,Zeeland,VBO,3.379202,51.369243
Spaanse Galeien,14,,,4525NP,Retranchement,Sluis,Zeeland,VBO,3.379157,51.369296
Spaanse Galeien,15,,,4525NP,Retranchement,Sluis,Zeeland,VBO,3.379169,51.369341
Spaanse Galeien,16,,,4525NP,Retranchement,Sluis,Zeeland,VBO,3.379219,51.369383
Spaanse Galeien,17,,,4525NP,Retranchement,Sluis,Zeeland,VBO,3.379232,51.369431
Spaanse Galeien,18,,,4525NP,Retranchement,Sluis,Zeeland,VBO,3.379198,51.369485
Spaanse Galeien,19,,,4525NP,Retranchement,Sluis,Zeeland,VBO,3.379209,51.369531
Spaanse Galeien,20,,,4525NP,Retranchement,Sluis,Zeeland,VBO,3.379179,51.369580
Spaanse Galeien,21,,,4525NP,Retranchement,Sluis,Zeeland,VBO,3.379217,51.369790
Spaanse Galeien,22,,,4525NP,Retranchement,Sluis,Zeeland,VBO,3.379150,51.369817
Spaanse Galeien,23,,,4525NP,Retranchement,Sluis,Zeeland,VBO,3.379073,51.369822
Spaanse Galeien,24,,,4525NP,Retranchement,Sluis,Zeeland,VBO,3.378985,51.369812
Spaanse Galeien,25,,,4525NP,Retranchement,Sluis,Zeeland,VBO,3.378816,51.369741
Spaanse Galeien,26,,,4525NR,Retranchement,Sluis,Zeeland,VBO,3.378740,51.369725
Spaanse Galeien,27,,,4525NR,Retranchement,Sluis,Zeeland,VBO,3.378652,51.369672
Spaanse Galeien,28,,,4525NR,Retranchement,Sluis,Zeeland,VBO,3.378563,51.369656
Spaanse Galeien,29,,,4525NR,Retranchement,Sluis,Zeeland,VBO,3.378032,51.369969
Spaanse Galeien,30,,,4525NR,Retranchement,Sluis,Zeeland,VBO,3.378041,51.370025
Spaanse Galeien,31,,,4525NR,Retranchement,Sluis,Zeeland,VBO,3.377981,51.370137
Spaanse Galeien,32,,,4525NR,Retranchement,Sluis,Zeeland,VBO,3.377974,51.370197
Spaanse Galeien,33,,,4525NR,Retranchement,Sluis,Zeeland,VBO,3.377994,51.370241
Spaanse Galeien,34,,,4525NR,Retranchement,Sluis,Zeeland,VBO,3.378056,51.370285
Spaanse Galeien,35,,,4525NR,Retranchement,Sluis,Zeeland,VBO,3.378077,51.370330
Spaanse Galeien,36,,,4525NR,Retranchement,Sluis,Zeeland,VBO,3.378053,51.370384
Spaanse Galeien,37,,,4525NR,Retranchement,Sluis,Zeeland,VBO,3.378074,51.370431
Spaanse Galeien,38,,,4525NR,Retranchement,Sluis,Zeeland,VBO,3.378139,51.370474
Spaanse Galeien,39,,,4525NR,Retranchement,Sluis,Zeeland,VBO,3.378157,51.370517
Spaanse Galeien,40,,,4525NR,Retranchement,Sluis,Zeeland,VBO,3.378129,51.370568
Spaanse Galeien,41,,,4525NR,Retranchement,Sluis,Zeeland,VBO,3.378202,51.370744
Spaanse Galeien,42,,,4525NR,Retranchement,Sluis,Zeeland,VBO,3.378179,51.370805
Spaanse Galeien,43,,,4525NR,Retranchement,Sluis,Zeeland,VBO,3.378188,51.370853
Spaanse Galeien,44,,,4525NR,Retranchement,Sluis,Zeeland,VBO,3.378216,51.370892
Spaanse Galeien,45,,,4525NR,Retranchement,Sluis,Zeeland,VBO,3.378224,51.370979
Spaanse Galeien,46,,,4525NR,Retranchement,Sluis,Zeeland,VBO,3.378193,51.371030
Spaanse Galeien,47,,,4525NR,Retranchement,Sluis,Zeeland,VBO,3.378955,51.370290
Spaanse Galeien,48,,,4525NR,Retranchement,Sluis,Zeeland,VBO,3.378890,51.370323
Spaanse Galeien,49,,,4525NR,Retranchement,Sluis,Zeeland,VBO,3.378802,51.370344
Spaanse Galeien,50,,,4525NR,Retranchement,Sluis,Zeeland,VBO,3.378730,51.370370
Spaanse Galeien,51,,,4525NS,Retranchement,Sluis,Zeeland,VBO,3.378646,51.370477
Spaanse Galeien,52,,,4525NS,Retranchement,Sluis,Zeeland,VBO,3.378643,51.370535
Spaanse Galeien,53,,,4525NS,Retranchement,Sluis,Zeeland,VBO,3.378642,51.370591
Spaanse Galeien,54,,,4525NS,Retranchement,Sluis,Zeeland,VBO,3.378616,51.370640
Spaanse Galeien,55,,,4525NS,Retranchement,Sluis,Zeeland,VBO,3.378899,51.370646
Spaanse Galeien,56,,,4525NS,Retranchement,Sluis,Zeeland,VBO,3.378994,51.370667
Spaanse Galeien,57,,,4525NS,Retranchement,Sluis,Zeeland,VBO,3.379075,51.370715
Spaanse Galeien,58,,,4525NS,Retranchement,Sluis,Zeeland,VBO,3.379148,51.370719
Spaanse Galeien,59,,,4525NS,Retranchement,Sluis,Zeeland,VBO,3.379331,51.370808
Spaanse Galeien,60,,,4525NS,Retranchement,Sluis,Zeeland,VBO,3.379420,51.370821
Spaanse Galeien,61,,,4525NS,Retranchement,Sluis,Zeeland,VBO,3.379499,51.370819
Spaanse Galeien,62,,,4525NS,Retranchement,Sluis,Zeeland,VBO,3.379561,51.370778
Spaanse Galeien,63,,,4525NS,Retranchement,Sluis,Zeeland,VBO,3.379408,51.370541
Spaanse Galeien,64,,,4525NS,Retranchement,Sluis,Zeeland,VBO,3.379446,51.370492
Spaanse Galeien,65,,,4525NS,Retranchement,Sluis,Zeeland,VBO,3.379431,51.370448
Spaanse Galeien,66,,,4525NS,Retranchement,Sluis,Zeeland,VBO,3.379462,51.370392
Spaanse Galeien,67,,,4525NS,Retranchement,Sluis,Zeeland,VBO,3.379452,51.370348
Spaanse Galeien,68,,,4525NS,Retranchement,Sluis,Zeeland,VBO,3.379392,51.370300
Spaanse Galeien,69,,,4525NS,Retranchement,Sluis,Zeeland,VBO,3.379384,51.370255
Spaanse Galeien,70,,,4525NS,Retranchement,Sluis,Zeeland,VBO,3.379418,51.370204
Spaanse Galeien,71,,,4525NS,Retranchement,Sluis,Zeeland,VBO,3.379409,51.370153
Spaanse Galeien,72,,,4525NS,Retranchement,Sluis,Zeeland,VBO,3.379348,51.370102
Spaanse Galeien,73,,,4525NS,Retranchement,Sluis,Zeeland,VBO,3.378205,51.371282
Spaanse Galeien,74,,,4525NS,Retranchement,Sluis,Zeeland,VBO,3.378124,51.371295
Spaanse Galeien,75,,,4525NS,Retranchement,Sluis,Zeeland,VBO,3.378054,51.371279
Spaanse Galeien,76,,,4525NT,Retranchement,Sluis,Zeeland,VBO,3.377992,51.371242
Spaanse Galeien,77,,,4525NT,Retranchement,Sluis,Zeeland,VBO,3.377936,51.371193
Spaanse Galeien,78,,,4525NT,Retranchement,Sluis,Zeeland,VBO,3.377872,51.371156
Spaanse Galeien,79,,,4525NT,Retranchement,Sluis,Zeeland,VBO,3.377801,51.371141
Spaanse Galeien,80,,,4525NT,Retranchement,Sluis,Zeeland,VBO,3.377714,51.371135
Spaanse Galeien,81,,,4525NT,Retranchement,Sluis,Zeeland,VBO,3.377454,51.371100
Spaanse Galeien,82,,,4525NT,Retranchement,Sluis,Zeeland,VBO,3.377503,51.371053
Spaanse Galeien,83,,,4525NT,Retranchement,Sluis,Zeeland,VBO,3.377527,51.370996
Spaanse Galeien,84,,,4525NT,Retranchement,Sluis,Zeeland,VBO,3.377567,51.370951
Spaanse Galeien,85,,,4525NT,Retranchement,Sluis,Zeeland,VBO,3.377614,51.370918
Spaanse Galeien,86,,,4525NT,Retranchement,Sluis,Zeeland,VBO,3.377660,51.370868
Spaanse Galeien,87,,,4525NT,Retranchement,Sluis,Zeeland,VBO,3.377669,51.370800
Spaanse Galeien,88,,,4525NT,Retranchement,Sluis,Zeeland,VBO,3.377755,51.370787
Spaanse Galeien,89,,,4525NT,Retranchement,Sluis,Zeeland,VBO,3.377812,51.370756
Spaanse Galeien,90,,,4525NT,Retranchement,Sluis,Zeeland,VBO,3.377858,51.370709
Spaanse Galeien,91,,,4525NT,Retranchement,Sluis,Zeeland,VBO,3.378636,51.370936
Spaanse Galeien,92,,,4525NT,Retranchement,Sluis,Zeeland,VBO,3.378727,51.370946
Spaanse Galeien,93,,,4525NT,Retranchement,Sluis,Zeeland,VBO,3.378799,51.370961
Spaanse Galeien,94,,,4525NT,Retranchement,Sluis,Zeeland,VBO,3.378861,51.370998
Spaanse Galeien,95,,,4525NT,Retranchement,Sluis,Zeeland,VBO,3.378932,51.371019
Spaanse Galeien,96,,,4525NT,Retranchement,Sluis,Zeeland,VBO,3.378995,51.371052
Spaanse Galeien,97,,,4525NT,Retranchement,Sluis,Zeeland,VBO,3.379065,51.371073
Spaanse Galeien,98,,,4525NT,Retranchement,Sluis,Zeeland,VBO,3.379130,51.371109
Spaanse Galeien,99,,,4525NT,Retranchement,Sluis,Zeeland,VBO,3.379248,51.371251
Spaanse Galeien,100,,,4525NT,Retranchement,Sluis,Zeeland,VBO,3.379293,51.371304
Spaanse Galeien,101,,,4525NV,Retranchement,Sluis,Zeeland,VBO,3.379306,51.371350
Spaanse Galeien,102,,,4525NV,Retranchement,Sluis,Zeeland,VBO,3.379264,51.371400
Spaanse Galeien,103,,,4525NV,Retranchement,Sluis,Zeeland,VBO,3.379666,51.371518
Spaanse Galeien,104,,,4525NV,Retranchement,Sluis,Zeeland,VBO,3.379728,51.371554
Spaanse Galeien,105,,,4525NV,Retranchement,Sluis,Zeeland,VBO,3.379746,51.371607
Spaanse Galeien,106,,,4525NV,Retranchement,Sluis,Zeeland,VBO,3.379714,51.371659
Spaanse Galeien,107,,,4525NV,Retranchement,Sluis,Zeeland,VBO,3.379729,51.371704
Spaanse Galeien,108,,,4525NV,Retranchement,Sluis,Zeeland,VBO,3.379778,51.371748
Spaanse Galeien,109,,,4525NV,Retranchement,Sluis,Zeeland,VBO,3.379791,51.371796
Spaanse Galeien,110,,,4525NV,Retranchement,Sluis,Zeeland,VBO,3.379761,51.371845
Spaanse Galeien,111,,,4525NV,Retranchement,Sluis,Zeeland,VBO,3.379775,51.371898
Spaanse Galeien,112,,,4525NV,Retranchement,Sluis,Zeeland,VBO,3.379734,51.371954
Spaanse Galeien,113,,,4525NV,Retranchement,Sluis,Zeeland,VBO,3.378901,51.371885
Spaanse Galeien,114,,,4525NV,Retranchement,Sluis,Zeeland,VBO,3.378988,51.371867
Spaanse Galeien,115,,,4525NV,Retranchement,Sluis,Zeeland,VBO,3.379005,51.371815
Spaanse Galeien,116,,,4525NV,Retranchement,Sluis,Zeeland,VBO,3.379060,51.371772
Spaanse Galeien,117,,,4525NV,Retranchement,Sluis,Zeeland,VBO,3.379137,51.371748
Spaanse Galeien,118,,,4525NV,Retranchement,Sluis,Zeeland,VBO,3.379169,51.371704
Spaanse Galeien,119,,,4525NV,Retranchement,Sluis,Zeeland,VBO,3.378715,51.371552
Spaanse Galeien,120,,,4525NV,Retranchement,Sluis,Zeeland,VBO,3.378733,51.371602
Spaanse Galeien,121,,,4525NV,Retranchement,Sluis,Zeeland,VBO,3.378718,51.371651
Spaanse Galeien,122,,,4525NV,Retranchement,Sluis,Zeeland,VBO,3.378642,51.371693
Spaanse Galeien,123,,,4525NV,Retranchement,Sluis,Zeeland,VBO,3.378579,51.371780
Spaanse Galeien,124,,,4525NV,Retranchement,Sluis,Zeeland,VBO,3.378464,51.371806
