openbareruimtenaam,huisnummer,huisletter,huisnummertoevoeging,postcode,woonplaatsnaam,gemeentenaam,provincienaam,typeadresseerbaarobject,longitude,latitude
Posthoornstraat,1,,,4553AA,Philippine,Terneuzen,Zeeland,VBO,3.758661,51.279114
Posthoornstraat,2,,,4553AA,Philippine,Terneuzen,Zeeland,VBO,3.758243,51.279142
Posthoornstraat,3,a,,4553AA,Philippine,Terneuzen,Zeeland,VBO,3.758430,51.278893
Posthoornstraat,5,,,4553AA,Philippine,Terneuzen,Zeeland,VBO,3.758054,51.278670
Posthoornstraat,6,,,4553AA,Philippine,Terneuzen,Zeeland,VBO,3.757113,51.278520
Posthoornstraat,8,,,4553AA,Philippine,Terneuzen,Zeeland,VBO,3.756891,51.278037
Posthoornstraat,9,,,4553AA,Philippine,Terneuzen,Zeeland,VBO,3.757545,51.278237
Posthoornstraat,10,,,4553AA,Philippine,Terneuzen,Zeeland,VBO,3.756676,51.277859
Posthoornstraat,11,,,4553AA,Philippine,Terneuzen,Zeeland,VBO,3.757403,51.278088
Gentsebreedstraat,1,,,4553AB,Philippine,Terneuzen,Zeeland,VBO,3.759167,51.279993
Gentsebreedstraat,3,,,4553AB,Philippine,Terneuzen,Zeeland,VBO,3.759028,51.279876
Gentsebreedstraat,5,,,4553AB,Philippine,Terneuzen,Zeeland,VBO,3.758998,51.279827
Gentsebreedstraat,7,,,4553AB,Philippine,Terneuzen,Zeeland,VBO,3.758970,51.279777
Gentsebreedstraat,9,,,4553AB,Philippine,Terneuzen,Zeeland,VBO,3.758950,51.279724
Gentsebreedstraat,11,,,4553AB,Philippine,Terneuzen,Zeeland,VBO,3.758911,51.279659
Gentsebreedstraat,15,,,4553AB,Philippine,Terneuzen,Zeeland,VBO,3.758846,51.279519
Gentsebreedstraat,17,,,4553AB,Philippine,Terneuzen,Zeeland,VBO,3.758833,51.279475
Gentsebreedstraat,19,,,4553AB,Philippine,Terneuzen,Zeeland,VBO,3.758813,51.279440
Gentsebreedstraat,21,,,4553AB,Philippine,Terneuzen,Zeeland,VBO,3.758755,51.279329
Gentsebreedstraat,23,,,4553AB,Philippine,Terneuzen,Zeeland,VBO,3.758720,51.279277
Gentsebreedstraat,25,,,4553AB,Philippine,Terneuzen,Zeeland,VBO,3.758705,51.279220
Gentsebreedstraat,2,,,4553AC,Philippine,Terneuzen,Zeeland,VBO,3.758853,51.280145
Gentsebreedstraat,4,,,4553AC,Philippine,Terneuzen,Zeeland,VBO,3.758812,51.280060
Gentsebreedstraat,6,,,4553AC,Philippine,Terneuzen,Zeeland,VBO,3.758780,51.279999
Gentsebreedstraat,10,,,4553AC,Philippine,Terneuzen,Zeeland,VBO,3.758736,51.279922
Gentsebreedstraat,14,,,4553AC,Philippine,Terneuzen,Zeeland,VBO,3.758689,51.279805
Gentsebreedstraat,16,,,4553AC,Philippine,Terneuzen,Zeeland,VBO,3.758660,51.279760
Gentsebreedstraat,18,,,4553AC,Philippine,Terneuzen,Zeeland,VBO,3.758638,51.279709
Gentsebreedstraat,20,,,4553AC,Philippine,Terneuzen,Zeeland,VBO,3.758612,51.279672
Gentsebreedstraat,22,,,4553AC,Philippine,Terneuzen,Zeeland,VBO,3.758590,51.279624
Gentsebreedstraat,24,,,4553AC,Philippine,Terneuzen,Zeeland,VBO,3.758568,51.279580
Gentsebreedstraat,26,,,4553AC,Philippine,Terneuzen,Zeeland,VBO,3.758546,51.279527
Gentsebreedstraat,28,,,4553AC,Philippine,Terneuzen,Zeeland,VBO,3.758517,51.279465
Gentsebreedstraat,30,,,4553AC,Philippine,Terneuzen,Zeeland,VBO,3.758462,51.279409
Meerpaalstraat,2,,,4553AD,Philippine,Terneuzen,Zeeland,VBO,3.758203,51.279339
Meerpaalstraat,3,,,4553AD,Philippine,Terneuzen,Zeeland,VBO,3.757183,51.279466
Poststraat,1,,,4553AE,Philippine,Terneuzen,Zeeland,VBO,3.758394,51.279945
Poststraat,2,,,4553AE,Philippine,Terneuzen,Zeeland,VBO,3.758102,51.279576
Poststraat,3,,,4553AE,Philippine,Terneuzen,Zeeland,VBO,3.757801,51.279495
Poststraat,4,,,4553AE,Philippine,Terneuzen,Zeeland,VBO,3.757900,51.279584
Rozemarijnstraat,2,,,4553AG,Philippine,Terneuzen,Zeeland,VBO,3.757728,51.279783
Rozemarijnstraat,3,,,4553AG,Philippine,Terneuzen,Zeeland,VBO,3.757852,51.279597
Rozemarijnstraat,7,,,4553AG,Philippine,Terneuzen,Zeeland,VBO,3.757729,51.279657
Rozemarijnstraat,9,,,4553AG,Philippine,Terneuzen,Zeeland,VBO,3.757662,51.279673
Rozemarijnstraat,10,,,4553AG,Philippine,Terneuzen,Zeeland,VBO,3.757317,51.279903
Rozemarijnstraat,12,,,4553AG,Philippine,Terneuzen,Zeeland,VBO,3.757262,51.279924
Rozemarijnstraat,13,,,4553AG,Philippine,Terneuzen,Zeeland,VBO,3.757506,51.279696
Rozemarijnstraat,14,,,4553AG,Philippine,Terneuzen,Zeeland,VBO,3.757191,51.279953
Rozemarijnstraat,15,,,4553AG,Philippine,Terneuzen,Zeeland,VBO,3.757439,51.279713
Rozemarijnstraat,16,,,4553AG,Philippine,Terneuzen,Zeeland,VBO,3.757149,51.280004
Rozemarijnstraat,17,,,4553AG,Philippine,Terneuzen,Zeeland,VBO,3.757376,51.279734
Rozemarijnstraat,18,,,4553AG,Philippine,Terneuzen,Zeeland,VBO,3.757086,51.280032
Rozemarijnstraat,21,,,4553AG,Philippine,Terneuzen,Zeeland,VBO,3.757155,51.279820
Weststraat,1,,,4553AH,Philippine,Terneuzen,Zeeland,VBO,3.758562,51.280203
Weststraat,3,,,4553AH,Philippine,Terneuzen,Zeeland,VBO,3.758479,51.280221
Weststraat,5,,,4553AH,Philippine,Terneuzen,Zeeland,VBO,3.758392,51.280243
Weststraat,7,,,4553AH,Philippine,Terneuzen,Zeeland,VBO,3.758306,51.280259
Weststraat,9,,,4553AH,Philippine,Terneuzen,Zeeland,VBO,3.758228,51.280275
Weststraat,11,,,4553AH,Philippine,Terneuzen,Zeeland,VBO,3.758146,51.280288
Weststraat,13,,,4553AH,Philippine,Terneuzen,Zeeland,VBO,3.758063,51.280303
Weststraat,15,,,4553AH,Philippine,Terneuzen,Zeeland,VBO,3.757887,51.280330
Weststraat,17,,,4553AH,Philippine,Terneuzen,Zeeland,VBO,3.757798,51.280351
Weststraat,21,,,4553AH,Philippine,Terneuzen,Zeeland,VBO,3.757624,51.280383
Weststraat,25,,,4553AH,Philippine,Terneuzen,Zeeland,VBO,3.757359,51.280449
Weststraat,27,,,4553AH,Philippine,Terneuzen,Zeeland,VBO,3.757279,51.280461
Weststraat,31,,,4553AH,Philippine,Terneuzen,Zeeland,VBO,3.756883,51.280520
Weststraat,33,,,4553AH,Philippine,Terneuzen,Zeeland,VBO,3.756792,51.280532
Weststraat,37,,,4553AH,Philippine,Terneuzen,Zeeland,VBO,3.756498,51.280541
Weststraat,39,a,,4553AH,Philippine,Terneuzen,Zeeland,VBO,3.755966,51.280492
Weststraat,39,b,,4553AH,Philippine,Terneuzen,Zeeland,VBO,3.755562,51.280364
Weststraat,39,,,4553AH,Philippine,Terneuzen,Zeeland,VBO,3.756232,51.280578
Weststraat,41,,,4553AH,Philippine,Terneuzen,Zeeland,VBO,3.755215,51.280238
Weststraat,43,,,4553AH,Philippine,Terneuzen,Zeeland,VBO,3.754862,51.280132
Weststraat,2,,,4553AJ,Philippine,Terneuzen,Zeeland,VBO,3.758835,51.280292
Weststraat,4,,,4553AJ,Philippine,Terneuzen,Zeeland,VBO,3.758715,51.280312
Weststraat,6,,,4553AJ,Philippine,Terneuzen,Zeeland,VBO,3.758598,51.280332
Weststraat,8,,,4553AJ,Philippine,Terneuzen,Zeeland,VBO,3.758494,51.280352
Weststraat,10,,,4553AJ,Philippine,Terneuzen,Zeeland,VBO,3.758392,51.280368
Weststraat,12,,,4553AJ,Philippine,Terneuzen,Zeeland,VBO,3.758306,51.280383
Weststraat,14,,,4553AJ,Philippine,Terneuzen,Zeeland,VBO,3.758257,51.280404
Weststraat,16,,,4553AJ,Philippine,Terneuzen,Zeeland,VBO,3.758164,51.280411
Weststraat,18,,,4553AJ,Philippine,Terneuzen,Zeeland,VBO,3.758089,51.280426
Weststraat,20,,,4553AJ,Philippine,Terneuzen,Zeeland,VBO,3.758023,51.280442
Weststraat,22,,,4553AJ,Philippine,Terneuzen,Zeeland,VBO,3.757940,51.280452
Weststraat,24,,,4553AJ,Philippine,Terneuzen,Zeeland,VBO,3.757857,51.280469
Weststraat,26,,,4553AJ,Philippine,Terneuzen,Zeeland,VBO,3.757797,51.280508
Weststraat,28,,,4553AK,Philippine,Terneuzen,Zeeland,VBO,3.757644,51.280503
Weststraat,30,,,4553AK,Philippine,Terneuzen,Zeeland,VBO,3.757569,51.280516
Weststraat,32,,,4553AK,Philippine,Terneuzen,Zeeland,VBO,3.757477,51.280549
Weststraat,34,,,4553AK,Philippine,Terneuzen,Zeeland,VBO,3.757408,51.280562
Weststraat,36,,,4553AK,Philippine,Terneuzen,Zeeland,VBO,3.757144,51.280634
Weststraat,38,a,,4553AK,Philippine,Terneuzen,Zeeland,VBO,3.756944,51.280777
Weststraat,38,,,4553AK,Philippine,Terneuzen,Zeeland,VBO,3.757080,51.280641
Weststraat,40,,,4553AK,Philippine,Terneuzen,Zeeland,VBO,3.756630,51.280732
Weststraat,42,,,4553AK,Philippine,Terneuzen,Zeeland,VBO,3.756522,51.280753
Weststraat,44,a,,4553AK,Philippine,Terneuzen,Zeeland,VBO,3.756114,51.280741
Weststraat,44,,,4553AK,Philippine,Terneuzen,Zeeland,VBO,3.756286,51.280765
Weststraat,46,,,4553AK,Philippine,Terneuzen,Zeeland,VBO,3.755965,51.280682
Weststraat,48,,,4553AK,Philippine,Terneuzen,Zeeland,VBO,3.755875,51.280662
Weststraat,50,,,4553AK,Philippine,Terneuzen,Zeeland,VBO,3.755786,51.280639
Weststraat,52,,,4553AK,Philippine,Terneuzen,Zeeland,VBO,3.755700,51.280615
Weststraat,54,,,4553AK,Philippine,Terneuzen,Zeeland,VBO,3.755640,51.280598
Weststraat,56,,,4553AK,Philippine,Terneuzen,Zeeland,VBO,3.755573,51.280582
Verbindingsstraat,1,,,4553AL,Philippine,Terneuzen,Zeeland,VBO,3.757873,51.280015
Verbindingsstraat,2,,,4553AL,Philippine,Terneuzen,Zeeland,VBO,3.757687,51.280051
Verbindingsstraat,3,,,4553AL,Philippine,Terneuzen,Zeeland,VBO,3.757813,51.279938
Verbindingsstraat,4,,,4553AL,Philippine,Terneuzen,Zeeland,VBO,3.757631,51.280013
Verbindingsstraat,5,,,4553AL,Philippine,Terneuzen,Zeeland,VBO,3.757755,51.279857
Verbindingsstraat,6,,,4553AL,Philippine,Terneuzen,Zeeland,VBO,3.757587,51.279871
Verbindingsstraat,8,,,4553AL,Philippine,Terneuzen,Zeeland,VBO,3.757535,51.279837
Philipsplein,1,,,4553AM,Philippine,Terneuzen,Zeeland,VBO,3.759252,51.280376
Philipsplein,2,a,,4553AM,Philippine,Terneuzen,Zeeland,VBO,3.759354,51.280390
Philipsplein,2,,,4553AM,Philippine,Terneuzen,Zeeland,VBO,3.759413,51.280392
Philipsplein,3,,,4553AM,Philippine,Terneuzen,Zeeland,VBO,3.759508,51.280424
Philipsplein,6,,,4553AM,Philippine,Terneuzen,Zeeland,VBO,3.759777,51.280505
Philipsplein,8,,,4553AM,Philippine,Terneuzen,Zeeland,VBO,3.759901,51.280535
Philipsplein,10,,,4553AM,Philippine,Terneuzen,Zeeland,VBO,3.760482,51.279969
Philipsplein,11,,,4553AM,Philippine,Terneuzen,Zeeland,VBO,3.760073,51.279828
Philipsplein,12,,,4553AM,Philippine,Terneuzen,Zeeland,VBO,3.759554,51.279976
Philipsplein,14,,,4553AM,Philippine,Terneuzen,Zeeland,VBO,3.759448,51.280021
Philipsplein,16,,,4553AM,Philippine,Terneuzen,Zeeland,VBO,3.759137,51.280078
Vaartstraat,1,,,4553AN,Philippine,Terneuzen,Zeeland,VBO,3.759819,51.279677
Vaartstraat,2,,,4553AN,Philippine,Terneuzen,Zeeland,VBO,3.759764,51.279957
Vaartstraat,3,,,4553AN,Philippine,Terneuzen,Zeeland,VBO,3.759793,51.279614
Vaartstraat,4,,,4553AN,Philippine,Terneuzen,Zeeland,VBO,3.759740,51.279852
Vaartstraat,5,,,4553AN,Philippine,Terneuzen,Zeeland,VBO,3.759739,51.279554
Vaartstraat,7,,,4553AN,Philippine,Terneuzen,Zeeland,VBO,3.759716,51.279490
Vaartstraat,9,,,4553AN,Philippine,Terneuzen,Zeeland,VBO,3.759665,51.279450
Vaartstraat,11,,,4553AN,Philippine,Terneuzen,Zeeland,VBO,3.759650,51.279409
Vaartstraat,13,,,4553AN,Philippine,Terneuzen,Zeeland,VBO,3.759634,51.279354
Vaartstraat,15,,,4553AN,Philippine,Terneuzen,Zeeland,VBO,3.759606,51.279298
Vaartstraat,16,,,4553AN,Philippine,Terneuzen,Zeeland,VBO,3.759405,51.279290
Vaartstraat,17,,,4553AN,Philippine,Terneuzen,Zeeland,VBO,3.759585,51.279262
Vaartstraat,18,,,4553AN,Philippine,Terneuzen,Zeeland,VBO,3.759396,51.279259
Vaartstraat,19,,,4553AN,Philippine,Terneuzen,Zeeland,VBO,3.759544,51.279221
Vaartstraat,20,,,4553AN,Philippine,Terneuzen,Zeeland,VBO,3.759376,51.279229
Vaartstraat,21,,,4553AN,Philippine,Terneuzen,Zeeland,VBO,3.759550,51.279181
Vaartstraat,23,,L1,4553AN,Philippine,Terneuzen,Zeeland,VBO,3.759799,51.278934
Vaartstraat,23,,,4553AN,Philippine,Terneuzen,Zeeland,VBO,3.759520,51.279140
Ravelijnstraat,1,,,4553AP,Philippine,Terneuzen,Zeeland,VBO,3.761651,51.279880
Ravelijnstraat,2,,,4553AP,Philippine,Terneuzen,Zeeland,VBO,3.761594,51.279954
Ravelijnstraat,3,,,4553AP,Philippine,Terneuzen,Zeeland,VBO,3.761584,51.279796
Ravelijnstraat,4,,,4553AP,Philippine,Terneuzen,Zeeland,VBO,3.761522,51.279917
Ravelijnstraat,5,,,4553AP,Philippine,Terneuzen,Zeeland,VBO,3.761480,51.279741
Ravelijnstraat,6,,,4553AP,Philippine,Terneuzen,Zeeland,VBO,3.761454,51.279860
Ravelijnstraat,7,,,4553AP,Philippine,Terneuzen,Zeeland,VBO,3.761410,51.279700
Ravelijnstraat,9,,,4553AP,Philippine,Terneuzen,Zeeland,VBO,3.761368,51.279668
Ravelijnstraat,10,,,4553AP,Philippine,Terneuzen,Zeeland,VBO,3.760800,51.279724
Ravelijnstraat,19,,L01,4553AP,Philippine,Terneuzen,Zeeland,VBO,3.760279,51.279594
Ravelijnstraat,19,,,4553AP,Philippine,Terneuzen,Zeeland,VBO,3.760393,51.279573
Ravelijnstraat,21,,,4553AP,Philippine,Terneuzen,Zeeland,VBO,3.760170,51.279619
Oude Kerkstraat,3,,,4553AR,Philippine,Terneuzen,Zeeland,VBO,3.760722,51.280651
Oude Kerkstraat,5,,,4553AR,Philippine,Terneuzen,Zeeland,VBO,3.760807,51.280620
Oude Kerkstraat,7,,,4553AR,Philippine,Terneuzen,Zeeland,VBO,3.760858,51.280588
Oude Kerkstraat,9,,,4553AR,Philippine,Terneuzen,Zeeland,VBO,3.760945,51.280563
Oude Kerkstraat,11,,,4553AR,Philippine,Terneuzen,Zeeland,VBO,3.761033,51.280518
Oude Kerkstraat,13,,,4553AR,Philippine,Terneuzen,Zeeland,VBO,3.761117,51.280481
Oude Kerkstraat,17,,,4553AR,Philippine,Terneuzen,Zeeland,VBO,3.761369,51.280429
Oude Kerkstraat,19,,,4553AR,Philippine,Terneuzen,Zeeland,VBO,3.761427,51.280370
Oude Kerkstraat,21,,,4553AR,Philippine,Terneuzen,Zeeland,VBO,3.761492,51.280359
Oude Kerkstraat,23,,,4553AR,Philippine,Terneuzen,Zeeland,VBO,3.761631,51.280320
Oude Kerkstraat,25,,,4553AR,Philippine,Terneuzen,Zeeland,VBO,3.761675,51.280300
Oude Kerkstraat,29,,,4553AR,Philippine,Terneuzen,Zeeland,VBO,3.761857,51.280216
Oude Kerkstraat,4,,,4553AS,Philippine,Terneuzen,Zeeland,VBO,3.760661,51.280549
Oude Kerkstraat,6,,,4553AS,Philippine,Terneuzen,Zeeland,VBO,3.760750,51.280538
Oude Kerkstraat,10,,,4553AS,Philippine,Terneuzen,Zeeland,VBO,3.760849,51.280462
Oude Kerkstraat,14,,,4553AS,Philippine,Terneuzen,Zeeland,VBO,3.760966,51.280456
Oude Kerkstraat,16,,,4553AS,Philippine,Terneuzen,Zeeland,VBO,3.761013,51.280408
Oude Kerkstraat,18,,,4553AS,Philippine,Terneuzen,Zeeland,VBO,3.761127,51.280373
Oude Kerkstraat,20,,,4553AS,Philippine,Terneuzen,Zeeland,VBO,3.761181,51.280363
Oude Kerkstraat,24,,,4553AS,Philippine,Terneuzen,Zeeland,VBO,3.761326,51.280287
Oude Kerkstraat,26,,,4553AS,Philippine,Terneuzen,Zeeland,VBO,3.761385,51.280263
Oude Kerkstraat,28,,,4553AS,Philippine,Terneuzen,Zeeland,VBO,3.761519,51.280222
Oude Kerkstraat,30,,,4553AS,Philippine,Terneuzen,Zeeland,VBO,3.761649,51.280178
Oude Kerkstraat,32,a,,4553AS,Philippine,Terneuzen,Zeeland,VBO,3.761895,51.280009
Oude Kerkstraat,32,,,4553AS,Philippine,Terneuzen,Zeeland,VBO,3.761715,51.280154
Oude Kerkstraat,34,,,4553AS,Philippine,Terneuzen,Zeeland,VBO,3.761822,51.279545
Jacob Hobeinstraat,1,,,4553AT,Philippine,Terneuzen,Zeeland,VBO,3.761168,51.280719
Jacob Hobeinstraat,2,,,4553AT,Philippine,Terneuzen,Zeeland,VBO,3.761364,51.280698
Jacob Hobeinstraat,3,,,4553AT,Philippine,Terneuzen,Zeeland,VBO,3.761574,51.280653
Jacob Hobeinstraat,4,,,4553AT,Philippine,Terneuzen,Zeeland,VBO,3.761786,51.280644
Jacob Hobeinstraat,5,,,4553AT,Philippine,Terneuzen,Zeeland,VBO,3.761981,51.280641
Jacob Hobeinstraat,6,,,4553AT,Philippine,Terneuzen,Zeeland,VBO,3.762164,51.280611
Jacob Hobeinstraat,7,,,4553AT,Philippine,Terneuzen,Zeeland,VBO,3.762382,51.280608
Jacob Hobeinstraat,8,,,4553AT,Philippine,Terneuzen,Zeeland,VBO,3.762994,51.280538
Jacob Hobeinstraat,9,,,4553AT,Philippine,Terneuzen,Zeeland,VBO,3.762844,51.280397
Havenstraat,1,,,4553AV,Philippine,Terneuzen,Zeeland,VBO,3.760041,51.280616
Havenstraat,2,,,4553AV,Philippine,Terneuzen,Zeeland,VBO,3.760171,51.280399
Havenstraat,3,,,4553AV,Philippine,Terneuzen,Zeeland,VBO,3.760125,51.280631
Havenstraat,4,,,4553AV,Philippine,Terneuzen,Zeeland,VBO,3.760211,51.280441
Havenstraat,5,,,4553AV,Philippine,Terneuzen,Zeeland,VBO,3.760193,51.280684
Havenstraat,6,,,4553AV,Philippine,Terneuzen,Zeeland,VBO,3.760261,51.280481
Havenstraat,7,,,4553AV,Philippine,Terneuzen,Zeeland,VBO,3.760221,51.280750
Havenstraat,8,,,4553AV,Philippine,Terneuzen,Zeeland,VBO,3.760307,51.280525
Havenstraat,9,,,4553AV,Philippine,Terneuzen,Zeeland,VBO,3.760193,51.280992
Havenstraat,12,,,4553AV,Philippine,Terneuzen,Zeeland,VBO,3.760398,51.280626
Havenstraat,14,,,4553AV,Philippine,Terneuzen,Zeeland,VBO,3.760559,51.280843
Stadhuisplein,1,,,4553AW,Philippine,Terneuzen,Zeeland,VBO,3.758966,51.280367
Achterweg,1,,,4553AX,Philippine,Terneuzen,Zeeland,VBO,3.759078,51.280556
Achterweg,3,,,4553AX,Philippine,Terneuzen,Zeeland,VBO,3.758449,51.280696
Koningin Emmastraat,1,,,4553AZ,Philippine,Terneuzen,Zeeland,VBO,3.757649,51.280627
Koningin Emmastraat,2,,,4553AZ,Philippine,Terneuzen,Zeeland,VBO,3.757908,51.280769
Koningin Emmastraat,3,,,4553AZ,Philippine,Terneuzen,Zeeland,VBO,3.757704,51.280666
Koningin Emmastraat,4,,,4553AZ,Philippine,Terneuzen,Zeeland,VBO,3.757920,51.280827
Koningin Emmastraat,5,,,4553AZ,Philippine,Terneuzen,Zeeland,VBO,3.757671,51.280709
Koningin Emmastraat,6,,,4553AZ,Philippine,Terneuzen,Zeeland,VBO,3.757928,51.280873
Koningin Emmastraat,7,,,4553AZ,Philippine,Terneuzen,Zeeland,VBO,3.757545,51.280798
Koningin Emmastraat,8,,,4553AZ,Philippine,Terneuzen,Zeeland,VBO,3.757942,51.280926
Koningin Emmastraat,10,,,4553AZ,Philippine,Terneuzen,Zeeland,VBO,3.757947,51.280973
Kasteelstraat,1,,,4553BA,Philippine,Terneuzen,Zeeland,VBO,3.759867,51.280975
Kasteelstraat,3,,,4553BA,Philippine,Terneuzen,Zeeland,VBO,3.759665,51.280993
Kasteelstraat,7,,,4553BA,Philippine,Terneuzen,Zeeland,VBO,3.759045,51.280999
Kasteelstraat,9,,,4553BA,Philippine,Terneuzen,Zeeland,VBO,3.758827,51.281004
Kasteelstraat,11,,,4553BA,Philippine,Terneuzen,Zeeland,VBO,3.758603,51.281015
Kasteelstraat,13,,,4553BA,Philippine,Terneuzen,Zeeland,VBO,3.758371,51.281006
Kasteelstraat,15,,,4553BA,Philippine,Terneuzen,Zeeland,VBO,3.758281,51.281008
Kasteelstraat,17,,,4553BA,Philippine,Terneuzen,Zeeland,VBO,3.757623,51.281033
Kasteelstraat,19,,,4553BA,Philippine,Terneuzen,Zeeland,VBO,3.757339,51.281025
Kasteelstraat,23,,,4553BA,Philippine,Terneuzen,Zeeland,VBO,3.756854,51.281037
Kasteelstraat,25,,,4553BA,Philippine,Terneuzen,Zeeland,VBO,3.756555,51.281031
Kasteelstraat,27,,,4553BA,Philippine,Terneuzen,Zeeland,VBO,3.756432,51.281024
Kasteelstraat,2,,,4553BB,Philippine,Terneuzen,Zeeland,VBO,3.759455,51.281278
Kasteelstraat,10,,,4553BB,Philippine,Terneuzen,Zeeland,VBO,3.759013,51.281298
Kasteelstraat,12,,,4553BB,Philippine,Terneuzen,Zeeland,VBO,3.758777,51.281273
Kasteelstraat,14,a,,4553BB,Philippine,Terneuzen,Zeeland,VBO,3.758426,51.281295
Kasteelstraat,14,,,4553BB,Philippine,Terneuzen,Zeeland,VBO,3.758525,51.281285
Kasteelstraat,16,,,4553BB,Philippine,Terneuzen,Zeeland,VBO,3.758080,51.281292
Kasteelstraat,18,a,,4553BB,Philippine,Terneuzen,Zeeland,VBO,3.757688,51.281306
Kasteelstraat,18,b,,4553BB,Philippine,Terneuzen,Zeeland,VBO,3.757584,51.281314
Kasteelstraat,18,,,4553BB,Philippine,Terneuzen,Zeeland,VBO,3.757745,51.281488
Kasteelstraat,20,,,4553BB,Philippine,Terneuzen,Zeeland,VBO,3.757245,51.281314
Kasteelstraat,22,,,4553BB,Philippine,Terneuzen,Zeeland,VBO,3.756591,51.281288
Kasteelstraat,24,,,4553BB,Philippine,Terneuzen,Zeeland,VBO,3.756411,51.281288
Kasteelstraat,26,,,4553BB,Philippine,Terneuzen,Zeeland,VBO,3.756307,51.281277
Kasteelstraat,30,,,4553BB,Philippine,Terneuzen,Zeeland,VBO,3.755973,51.281204
Kasteelstraat,32,,,4553BB,Philippine,Terneuzen,Zeeland,VBO,3.755836,51.281153
Kasteelstraat,34,,,4553BB,Philippine,Terneuzen,Zeeland,VBO,3.755767,51.281130
Kasteelstraat,36,,,4553BB,Philippine,Terneuzen,Zeeland,VBO,3.755622,51.281075
Kasteelstraat,38,,,4553BB,Philippine,Terneuzen,Zeeland,VBO,3.755386,51.280972
Kasteelstraat,40,,,4553BB,Philippine,Terneuzen,Zeeland,VBO,3.755140,51.280823
Spuikompark,1,,,4553BC,Philippine,Terneuzen,Zeeland,VBO,3.763278,51.283003
Spuikompark,2,,,4553BC,Philippine,Terneuzen,Zeeland,VBO,3.763524,51.283238
Spuikompark,3,,,4553BC,Philippine,Terneuzen,Zeeland,VBO,3.763791,51.283519
Spuikompark,4,,,4553BC,Philippine,Terneuzen,Zeeland,VBO,3.764111,51.283327
Spuikompark,5,,,4553BC,Philippine,Terneuzen,Zeeland,VBO,3.763799,51.283098
Spuikompark,6,,,4553BC,Philippine,Terneuzen,Zeeland,VBO,3.763544,51.282843
Spuikompark,7,,,4553BC,Philippine,Terneuzen,Zeeland,VBO,3.763865,51.282731
Spuikompark,8,,,4553BC,Philippine,Terneuzen,Zeeland,VBO,3.764137,51.282994
Spuikompark,9,,,4553BC,Philippine,Terneuzen,Zeeland,VBO,3.764410,51.283288
Spuikompark,10,,,4553BC,Philippine,Terneuzen,Zeeland,VBO,3.764708,51.283110
Spuikompark,11,,,4553BC,Philippine,Terneuzen,Zeeland,VBO,3.764428,51.282855
Spuikompark,12,,,4553BC,Philippine,Terneuzen,Zeeland,VBO,3.764156,51.282606
Spuikompark,13,,,4553BC,Philippine,Terneuzen,Zeeland,VBO,3.764457,51.282506
Spuikompark,14,,,4553BC,Philippine,Terneuzen,Zeeland,VBO,3.764738,51.282742
Spuikompark,15,,,4553BC,Philippine,Terneuzen,Zeeland,VBO,3.765002,51.283034
Spuikompark,16,,,4553BD,Philippine,Terneuzen,Zeeland,VBO,3.765329,51.282874
Spuikompark,17,,,4553BD,Philippine,Terneuzen,Zeeland,VBO,3.764975,51.282585
Spuikompark,18,,,4553BD,Philippine,Terneuzen,Zeeland,VBO,3.764736,51.282331
Spuikompark,19,,,4553BD,Philippine,Terneuzen,Zeeland,VBO,3.765101,51.282276
Spuikompark,20,,,4553BD,Philippine,Terneuzen,Zeeland,VBO,3.765359,51.282522
Spuikompark,21,,,4553BD,Philippine,Terneuzen,Zeeland,VBO,3.765608,51.282765
Spuikompark,22,,,4553BD,Philippine,Terneuzen,Zeeland,VBO,3.765894,51.282624
Spuikompark,23,,,4553BD,Philippine,Terneuzen,Zeeland,VBO,3.765616,51.282365
Spuikompark,24,,,4553BD,Philippine,Terneuzen,Zeeland,VBO,3.765358,51.282101
Spuikompark,25,,,4553BD,Philippine,Terneuzen,Zeeland,VBO,3.765667,51.282051
Spuikompark,26,,,4553BD,Philippine,Terneuzen,Zeeland,VBO,3.765922,51.282270
Spuikompark,27,,,4553BD,Philippine,Terneuzen,Zeeland,VBO,3.766173,51.282514
Spuikompark,28,,,4553BD,Philippine,Terneuzen,Zeeland,VBO,3.766438,51.282326
Spuikompark,29,,,4553BD,Philippine,Terneuzen,Zeeland,VBO,3.766102,51.282028
Spuikompark,30,,,4553BD,Philippine,Terneuzen,Zeeland,VBO,3.765768,51.281733
Visserslaan,1,,,4553BE,Philippine,Terneuzen,Zeeland,VBO,3.760249,51.281210
Visserslaan,3,,,4553BE,Philippine,Terneuzen,Zeeland,VBO,3.760334,51.281604
Visserslaan,5,,,4553BE,Philippine,Terneuzen,Zeeland,VBO,3.760449,51.281723
Visserslaan,7,,,4553BE,Philippine,Terneuzen,Zeeland,VBO,3.760511,51.281830
Visserslaan,9,,,4553BE,Philippine,Terneuzen,Zeeland,VBO,3.760558,51.281922
Visserslaan,11,,,4553BE,Philippine,Terneuzen,Zeeland,VBO,3.760576,51.281970
Visserslaan,13,,,4553BE,Philippine,Terneuzen,Zeeland,VBO,3.760633,51.282060
Visserslaan,15,,,4553BE,Philippine,Terneuzen,Zeeland,VBO,3.760692,51.282149
Visserslaan,17,,,4553BE,Philippine,Terneuzen,Zeeland,VBO,3.760717,51.282201
Visserslaan,19,,,4553BE,Philippine,Terneuzen,Zeeland,VBO,3.760773,51.282290
Visserslaan,21,,,4553BE,Philippine,Terneuzen,Zeeland,VBO,3.760806,51.282347
Visserslaan,23,,,4553BE,Philippine,Terneuzen,Zeeland,VBO,3.760856,51.282431
Visserslaan,25,,,4553BE,Philippine,Terneuzen,Zeeland,VBO,3.760882,51.282488
Waterpoortstraat,1,a,,4553BG,Philippine,Terneuzen,Zeeland,VBO,3.761786,51.281401
Waterpoortstraat,1,,,4553BG,Philippine,Terneuzen,Zeeland,VBO,3.761507,51.281395
Waterpoortstraat,2,a,,4553BG,Philippine,Terneuzen,Zeeland,VBO,3.761805,51.281862
Waterpoortstraat,2,,,4553BG,Philippine,Terneuzen,Zeeland,VBO,3.761945,51.281893
Waterpoortstraat,3,,,4553BG,Philippine,Terneuzen,Zeeland,VBO,3.761378,51.281803
Waterpoortstraat,4,,,4553BG,Philippine,Terneuzen,Zeeland,VBO,3.761168,51.281816
Waterpoortstraat,5,,,4553BG,Philippine,Terneuzen,Zeeland,VBO,3.761024,51.281803
Bastionstraat,2,,,4553BH,Philippine,Terneuzen,Zeeland,VBO,3.758124,51.281709
Bastionstraat,4,,,4553BH,Philippine,Terneuzen,Zeeland,VBO,3.758366,51.281689
Bastionstraat,6,,,4553BH,Philippine,Terneuzen,Zeeland,VBO,3.758530,51.281684
Bastionstraat,8,,,4553BH,Philippine,Terneuzen,Zeeland,VBO,3.758615,51.281683
Bastionstraat,10,,,4553BH,Philippine,Terneuzen,Zeeland,VBO,3.758764,51.281673
Bastionstraat,12,,,4553BH,Philippine,Terneuzen,Zeeland,VBO,3.758850,51.281675
Bastionstraat,14,,,4553BH,Philippine,Terneuzen,Zeeland,VBO,3.758997,51.281676
Bastionstraat,16,,,4553BH,Philippine,Terneuzen,Zeeland,VBO,3.759086,51.281670
Bastionstraat,18,,,4553BH,Philippine,Terneuzen,Zeeland,VBO,3.759236,51.281665
Bastionstraat,20,,,4553BH,Philippine,Terneuzen,Zeeland,VBO,3.759323,51.281668
Bastionstraat,22,,,4553BH,Philippine,Terneuzen,Zeeland,VBO,3.759480,51.281665
Bastionstraat,24,,,4553BH,Philippine,Terneuzen,Zeeland,VBO,3.759565,51.281660
Bastionstraat,26,,,4553BH,Philippine,Terneuzen,Zeeland,VBO,3.759723,51.281656
Bastionstraat,28,,,4553BH,Philippine,Terneuzen,Zeeland,VBO,3.759920,51.281827
Bastionstraat,30,,,4553BH,Philippine,Terneuzen,Zeeland,VBO,3.759969,51.281915
Bastionstraat,32,,,4553BH,Philippine,Terneuzen,Zeeland,VBO,3.760003,51.281969
Bastionstraat,34,,,4553BH,Philippine,Terneuzen,Zeeland,VBO,3.760058,51.282058
Bastionstraat,36,,,4553BH,Philippine,Terneuzen,Zeeland,VBO,3.760083,51.282111
Bastionstraat,38,,,4553BH,Philippine,Terneuzen,Zeeland,VBO,3.760077,51.282216
Bastionstraat,40,,,4553BH,Philippine,Terneuzen,Zeeland,VBO,3.760039,51.282268
Bastionstraat,42,,,4553BH,Philippine,Terneuzen,Zeeland,VBO,3.759990,51.282357
Bastionstraat,44,,,4553BH,Philippine,Terneuzen,Zeeland,VBO,3.759970,51.282405
Bastionstraat,46,,,4553BH,Philippine,Terneuzen,Zeeland,VBO,3.759914,51.282478
Ankerhof,1,,,4553BJ,Philippine,Terneuzen,Zeeland,VBO,3.758713,51.281938
Ankerhof,3,,,4553BJ,Philippine,Terneuzen,Zeeland,VBO,3.758723,51.282007
Ankerhof,5,,,4553BJ,Philippine,Terneuzen,Zeeland,VBO,3.758721,51.282079
Ankerhof,7,,,4553BJ,Philippine,Terneuzen,Zeeland,VBO,3.758727,51.282151
Ankerhof,9,,,4553BJ,Philippine,Terneuzen,Zeeland,VBO,3.759032,51.282032
Ankerhof,11,,,4553BJ,Philippine,Terneuzen,Zeeland,VBO,3.759032,51.282099
Ankerhof,13,,,4553BJ,Philippine,Terneuzen,Zeeland,VBO,3.759032,51.282173
Ankerhof,15,,,4553BJ,Philippine,Terneuzen,Zeeland,VBO,3.759038,51.282241
Ankerhof,17,,,4553BJ,Philippine,Terneuzen,Zeeland,VBO,3.759188,51.281922
Ankerhof,19,,,4553BJ,Philippine,Terneuzen,Zeeland,VBO,3.759295,51.281921
Ankerhof,21,,,4553BJ,Philippine,Terneuzen,Zeeland,VBO,3.759409,51.281917
Ankerhof,23,,,4553BJ,Philippine,Terneuzen,Zeeland,VBO,3.759510,51.281915
Ankerhof,25,,,4553BJ,Philippine,Terneuzen,Zeeland,VBO,3.759566,51.282059
Ankerhof,27,,,4553BJ,Philippine,Terneuzen,Zeeland,VBO,3.759568,51.282106
Ankerhof,29,,,4553BJ,Philippine,Terneuzen,Zeeland,VBO,3.759571,51.282193
Ankerhof,31,,,4553BJ,Philippine,Terneuzen,Zeeland,VBO,3.759576,51.282246
Ankerhof,33,,,4553BJ,Philippine,Terneuzen,Zeeland,VBO,3.759580,51.282328
Ankerhof,35,,,4553BJ,Philippine,Terneuzen,Zeeland,VBO,3.759587,51.282376
Ankerhof,37,,,4553BJ,Philippine,Terneuzen,Zeeland,VBO,3.759345,51.282280
Ankerhof,39,,,4553BJ,Philippine,Terneuzen,Zeeland,VBO,3.759339,51.282229
Ankerhof,41,,,4553BJ,Philippine,Terneuzen,Zeeland,VBO,3.759323,51.282155
Ankerhof,43,,,4553BJ,Philippine,Terneuzen,Zeeland,VBO,3.759321,51.282101
Havenpoortstraat,1,a,,4553BK,Philippine,Terneuzen,Zeeland,VBO,3.760353,51.282767
Havenpoortstraat,1,,,4553BK,Philippine,Terneuzen,Zeeland,VBO,3.760585,51.282605
Havenpoortstraat,4,,,4553BK,Philippine,Terneuzen,Zeeland,VBO,3.760202,51.282784
Havenpoortstraat,18,,,4553BK,Philippine,Terneuzen,Zeeland,VBO,3.758490,51.282422
Havenpoortstraat,20,,,4553BK,Philippine,Terneuzen,Zeeland,VBO,3.758324,51.282375
Havenpoortstraat,22,,,4553BK,Philippine,Terneuzen,Zeeland,VBO,3.758155,51.282326
Havenpoortstraat,24,,,4553BK,Philippine,Terneuzen,Zeeland,VBO,3.757948,51.282266
Sportparklaan,1,a,,4553BL,Philippine,Terneuzen,Zeeland,VBO,3.757692,51.281624
Sportparklaan,1,,,4553BL,Philippine,Terneuzen,Zeeland,VBO,3.757696,51.281733
Sportparklaan,2,,,4553BL,Philippine,Terneuzen,Zeeland,VBO,3.757816,51.282453
Sportparklaan,3,,,4553BL,Philippine,Terneuzen,Zeeland,VBO,3.757727,51.281850
Sportparklaan,4,,,4553BL,Philippine,Terneuzen,Zeeland,VBO,3.757778,51.282507
Sportparklaan,5,,,4553BL,Philippine,Terneuzen,Zeeland,VBO,3.757649,51.281977
Sportparklaan,6,,,4553BL,Philippine,Terneuzen,Zeeland,VBO,3.757754,51.282569
Sportparklaan,7,,,4553BL,Philippine,Terneuzen,Zeeland,VBO,3.757555,51.282116
Sportparklaan,8,,,4553BL,Philippine,Terneuzen,Zeeland,VBO,3.757715,51.282624
Sportparklaan,9,,,4553BL,Philippine,Terneuzen,Zeeland,VBO,3.757513,51.282225
Sportparklaan,10,,,4553BL,Philippine,Terneuzen,Zeeland,VBO,3.757636,51.282738
Sportparklaan,11,,,4553BL,Philippine,Terneuzen,Zeeland,VBO,3.757444,51.282356
Sportparklaan,12,,,4553BL,Philippine,Terneuzen,Zeeland,VBO,3.757609,51.282794
Sportparklaan,14,,,4553BL,Philippine,Terneuzen,Zeeland,VBO,3.757565,51.282849
Sportparklaan,16,,,4553BL,Philippine,Terneuzen,Zeeland,VBO,3.757531,51.282908
Sportparklaan,18,,,4553BL,Philippine,Terneuzen,Zeeland,VBO,3.757504,51.282966
Sportparklaan,20,,,4553BL,Philippine,Terneuzen,Zeeland,VBO,3.757463,51.283018
Eilandstraat,1,,,4553BM,Philippine,Terneuzen,Zeeland,VBO,3.758379,51.282580
Eilandstraat,2,,,4553BM,Philippine,Terneuzen,Zeeland,VBO,3.758847,51.282493
Eilandstraat,3,,,4553BM,Philippine,Terneuzen,Zeeland,VBO,3.758349,51.282630
Eilandstraat,4,,,4553BM,Philippine,Terneuzen,Zeeland,VBO,3.758764,51.282608
Eilandstraat,5,,,4553BM,Philippine,Terneuzen,Zeeland,VBO,3.758317,51.282675
Eilandstraat,6,,,4553BM,Philippine,Terneuzen,Zeeland,VBO,3.758733,51.282659
Eilandstraat,7,,,4553BM,Philippine,Terneuzen,Zeeland,VBO,3.758290,51.282727
Eilandstraat,8,,,4553BM,Philippine,Terneuzen,Zeeland,VBO,3.758678,51.282751
Eilandstraat,9,,,4553BM,Philippine,Terneuzen,Zeeland,VBO,3.758261,51.282777
Eilandstraat,10,,,4553BM,Philippine,Terneuzen,Zeeland,VBO,3.758637,51.282800
Eilandstraat,11,,,4553BM,Philippine,Terneuzen,Zeeland,VBO,3.758227,51.282826
Eilandstraat,13,,,4553BM,Philippine,Terneuzen,Zeeland,VBO,3.758172,51.282907
Eilandstraat,15,,,4553BM,Philippine,Terneuzen,Zeeland,VBO,3.758144,51.282960
Eilandstraat,17,,,4553BM,Philippine,Terneuzen,Zeeland,VBO,3.758112,51.283007
Eilandstraat,18,,,4553BM,Philippine,Terneuzen,Zeeland,VBO,3.758556,51.282880
Eilandstraat,19,,,4553BM,Philippine,Terneuzen,Zeeland,VBO,3.758084,51.283055
Eilandstraat,20,,,4553BM,Philippine,Terneuzen,Zeeland,VBO,3.758525,51.282940
Eilandstraat,21,,,4553BM,Philippine,Terneuzen,Zeeland,VBO,3.758051,51.283104
Eilandstraat,22,,,4553BM,Philippine,Terneuzen,Zeeland,VBO,3.758495,51.282984
Eilandstraat,23,,,4553BM,Philippine,Terneuzen,Zeeland,VBO,3.758026,51.283155
Eilandstraat,24,,,4553BM,Philippine,Terneuzen,Zeeland,VBO,3.758470,51.283034
Eilandstraat,26,,,4553BM,Philippine,Terneuzen,Zeeland,VBO,3.758433,51.283082
Eilandstraat,28,,,4553BM,Philippine,Terneuzen,Zeeland,VBO,3.758403,51.283136
Eilandstraat,30,,,4553BM,Philippine,Terneuzen,Zeeland,VBO,3.758376,51.283182
Eilandstraat,32,,,4553BM,Philippine,Terneuzen,Zeeland,VBO,3.758344,51.283235
Markiezenstraat,1,,,4553BN,Philippine,Terneuzen,Zeeland,VBO,3.759388,51.282585
Markiezenstraat,3,,,4553BN,Philippine,Terneuzen,Zeeland,VBO,3.759327,51.282692
Markiezenstraat,5,,,4553BN,Philippine,Terneuzen,Zeeland,VBO,3.759269,51.282774
Markiezenstraat,7,,,4553BN,Philippine,Terneuzen,Zeeland,VBO,3.759199,51.282857
Markiezenstraat,9,,,4553BN,Philippine,Terneuzen,Zeeland,VBO,3.759144,51.282945
Markiezenstraat,11,,,4553BN,Philippine,Terneuzen,Zeeland,VBO,3.759102,51.283037
Markiezenstraat,13,,,4553BN,Philippine,Terneuzen,Zeeland,VBO,3.759056,51.283113
Markiezenstraat,25,,,4553BN,Philippine,Terneuzen,Zeeland,VBO,3.759041,51.283227
Markiezenstraat,27,,,4553BN,Philippine,Terneuzen,Zeeland,VBO,3.759007,51.283278
Markiezenstraat,29,,,4553BN,Philippine,Terneuzen,Zeeland,VBO,3.758976,51.283327
Markiezenstraat,31,,,4553BN,Philippine,Terneuzen,Zeeland,VBO,3.758943,51.283378
Markiezenstraat,2,,,4553BP,Philippine,Terneuzen,Zeeland,VBO,3.759774,51.282659
Markiezenstraat,4,,,4553BP,Philippine,Terneuzen,Zeeland,VBO,3.759716,51.282754
Markiezenstraat,6,,,4553BP,Philippine,Terneuzen,Zeeland,VBO,3.759648,51.282862
Markiezenstraat,8,,,4553BP,Philippine,Terneuzen,Zeeland,VBO,3.759582,51.282961
Markiezenstraat,10,,,4553BP,Philippine,Terneuzen,Zeeland,VBO,3.759499,51.283073
Markiezenstraat,12,,,4553BP,Philippine,Terneuzen,Zeeland,VBO,3.759432,51.283181
Markiezenstraat,24,,,4553BP,Philippine,Terneuzen,Zeeland,VBO,3.759375,51.283289
Markiezenstraat,26,,,4553BP,Philippine,Terneuzen,Zeeland,VBO,3.759345,51.283347
Markiezenstraat,28,,,4553BP,Philippine,Terneuzen,Zeeland,VBO,3.759305,51.283401
Markiezenstraat,30,,,4553BP,Philippine,Terneuzen,Zeeland,VBO,3.759278,51.283454
Castiliëstraat,1,,,4553BR,Philippine,Terneuzen,Zeeland,VBO,3.757326,51.283252
Castiliëstraat,3,,,4553BR,Philippine,Terneuzen,Zeeland,VBO,3.757412,51.283270
Castiliëstraat,5,,,4553BR,Philippine,Terneuzen,Zeeland,VBO,3.757556,51.283312
Castiliëstraat,7,,,4553BR,Philippine,Terneuzen,Zeeland,VBO,3.757644,51.283331
Castiliëstraat,9,,,4553BR,Philippine,Terneuzen,Zeeland,VBO,3.757803,51.283367
Castiliëstraat,11,,,4553BR,Philippine,Terneuzen,Zeeland,VBO,3.757880,51.283393
Castiliëstraat,13,,,4553BR,Philippine,Terneuzen,Zeeland,VBO,3.758031,51.283425
Castiliëstraat,15,,,4553BR,Philippine,Terneuzen,Zeeland,VBO,3.758117,51.283443
Castiliëstraat,17,,,4553BR,Philippine,Terneuzen,Zeeland,VBO,3.758349,51.283500
Castiliëstraat,19,,,4553BR,Philippine,Terneuzen,Zeeland,VBO,3.758439,51.283527
Castiliëstraat,21,,,4553BR,Philippine,Terneuzen,Zeeland,VBO,3.758529,51.283546
Castiliëstraat,23,,,4553BR,Philippine,Terneuzen,Zeeland,VBO,3.758616,51.283565
Castiliëstraat,25,,,4553BR,Philippine,Terneuzen,Zeeland,VBO,3.758702,51.283587
Castiliëstraat,27,,,4553BR,Philippine,Terneuzen,Zeeland,VBO,3.758786,51.283607
Castiliëstraat,29,,,4553BR,Philippine,Terneuzen,Zeeland,VBO,3.758874,51.283631
Castiliëstraat,31,,,4553BR,Philippine,Terneuzen,Zeeland,VBO,3.759070,51.283674
Castiliëstraat,33,,,4553BR,Philippine,Terneuzen,Zeeland,VBO,3.759151,51.283698
Castiliëstraat,35,,,4553BR,Philippine,Terneuzen,Zeeland,VBO,3.759293,51.283733
Castiliëstraat,37,,,4553BR,Philippine,Terneuzen,Zeeland,VBO,3.759378,51.283758
Castiliëstraat,39,,,4553BR,Philippine,Terneuzen,Zeeland,VBO,3.759528,51.283792
Castiliëstraat,41,,,4553BR,Philippine,Terneuzen,Zeeland,VBO,3.759609,51.283813
Castiliëstraat,2,,,4553BS,Philippine,Terneuzen,Zeeland,VBO,3.759502,51.283502
Castiliëstraat,4,,,4553BS,Philippine,Terneuzen,Zeeland,VBO,3.759596,51.283523
Castiliëstraat,6,,,4553BS,Philippine,Terneuzen,Zeeland,VBO,3.759683,51.283547
Castiliëstraat,8,,,4553BS,Philippine,Terneuzen,Zeeland,VBO,3.759773,51.283564
Castiliëstraat,10,,,4553BS,Philippine,Terneuzen,Zeeland,VBO,3.760029,51.283634
Laureijnestraat,1,,,4553BT,Philippine,Terneuzen,Zeeland,VBO,3.760745,51.282841
Laureijnestraat,2,,,4553BT,Philippine,Terneuzen,Zeeland,VBO,3.760775,51.282905
Laureijnestraat,3,,,4553BT,Philippine,Terneuzen,Zeeland,VBO,3.760761,51.282998
Laureijnestraat,4,,,4553BT,Philippine,Terneuzen,Zeeland,VBO,3.760753,51.283068
Laureijnestraat,6,,,4553BT,Philippine,Terneuzen,Zeeland,VBO,3.760516,51.283470
Laureijnestraat,7,,,4553BT,Philippine,Terneuzen,Zeeland,VBO,3.760487,51.283528
Laureijnestraat,8,,,4553BT,Philippine,Terneuzen,Zeeland,VBO,3.760432,51.283594
Laureijnestraat,9,,,4553BT,Philippine,Terneuzen,Zeeland,VBO,3.760377,51.283705
Laureijnestraat,10,,,4553BV,Philippine,Terneuzen,Zeeland,VBO,3.760236,51.283886
Laureijnestraat,11,,,4553BV,Philippine,Terneuzen,Zeeland,VBO,3.760209,51.283927
Laureijnestraat,12,,,4553BV,Philippine,Terneuzen,Zeeland,VBO,3.760189,51.283968
Laureijnestraat,13,,,4553BV,Philippine,Terneuzen,Zeeland,VBO,3.760170,51.284003
Laureijnestraat,14,,,4553BV,Philippine,Terneuzen,Zeeland,VBO,3.760143,51.284045
Laureijnestraat,16,,,4553BV,Philippine,Terneuzen,Zeeland,VBO,3.760086,51.284126
Laureijnestraat,17,,,4553BV,Philippine,Terneuzen,Zeeland,VBO,3.760058,51.284163
Laureijnestraat,18,,,4553BV,Philippine,Terneuzen,Zeeland,VBO,3.760016,51.284210
Laureijnestraat,19,,,4553BV,Philippine,Terneuzen,Zeeland,VBO,3.759756,51.284613
Laureijnestraat,34,,,4553BW,Philippine,Terneuzen,Zeeland,VBO,3.759026,51.285439
Laureijnestraat,35,,,4553BW,Philippine,Terneuzen,Zeeland,VBO,3.758992,51.285489
Laureijnestraat,36,,,4553BW,Philippine,Terneuzen,Zeeland,VBO,3.758956,51.285541
Laureijnestraat,37,,,4553BW,Philippine,Terneuzen,Zeeland,VBO,3.758937,51.285587
Laureijnestraat,38,,,4553BW,Philippine,Terneuzen,Zeeland,VBO,3.758902,51.285636
Laureijnestraat,39,,,4553BW,Philippine,Terneuzen,Zeeland,VBO,3.758867,51.285688
Laureijnestraat,40,,,4553BW,Philippine,Terneuzen,Zeeland,VBO,3.758895,51.285910
Laureijnestraat,41,,,4553BW,Philippine,Terneuzen,Zeeland,VBO,3.758817,51.285890
Laureijnestraat,42,,,4553BW,Philippine,Terneuzen,Zeeland,VBO,3.758734,51.285863
Laureijnestraat,43,,,4553BW,Philippine,Terneuzen,Zeeland,VBO,3.758652,51.285846
Laureijnestraat,44,,,4553BW,Philippine,Terneuzen,Zeeland,VBO,3.758558,51.285830
Laureijnestraat,45,,,4553BW,Philippine,Terneuzen,Zeeland,VBO,3.758478,51.285807
Laureijnestraat,46,,,4553BW,Philippine,Terneuzen,Zeeland,VBO,3.758734,51.286158
Laureijnestraat,47,,,4553BW,Philippine,Terneuzen,Zeeland,VBO,3.758654,51.286132
Laureijnestraat,48,,,4553BW,Philippine,Terneuzen,Zeeland,VBO,3.758573,51.286109
Laureijnestraat,49,,,4553BW,Philippine,Terneuzen,Zeeland,VBO,3.758491,51.286095
Laureijnestraat,50,,,4553BW,Philippine,Terneuzen,Zeeland,VBO,3.758405,51.286069
Laureijnestraat,51,,,4553BW,Philippine,Terneuzen,Zeeland,VBO,3.758325,51.286050
Laureijnestraat,52,,,4553BW,Philippine,Terneuzen,Zeeland,VBO,3.758554,51.286335
Laureijnestraat,53,,,4553BW,Philippine,Terneuzen,Zeeland,VBO,3.758525,51.286380
Laureijnestraat,54,,,4553BW,Philippine,Terneuzen,Zeeland,VBO,3.758495,51.286437
Laureijnestraat,55,,,4553BW,Philippine,Terneuzen,Zeeland,VBO,3.758457,51.286489
Laureijnestraat,56,,,4553BW,Philippine,Terneuzen,Zeeland,VBO,3.758424,51.286545
Laureijnestraat,57,,,4553BW,Philippine,Terneuzen,Zeeland,VBO,3.758377,51.286598
Schorrenkruidlaan,2,,,4553BX,Philippine,Terneuzen,Zeeland,VBO,3.757087,51.283809
Schorrenkruidlaan,4,,,4553BX,Philippine,Terneuzen,Zeeland,VBO,3.757018,51.283859
Schorrenkruidlaan,6,,,4553BX,Philippine,Terneuzen,Zeeland,VBO,3.756979,51.283981
Schorrenkruidlaan,8,,,4553BX,Philippine,Terneuzen,Zeeland,VBO,3.756920,51.284034
Schorrenkruidlaan,10,,,4553BX,Philippine,Terneuzen,Zeeland,VBO,3.756862,51.284152
Schorrenkruidlaan,12,,,4553BX,Philippine,Terneuzen,Zeeland,VBO,3.756791,51.284202
Schorrenkruidlaan,14,,,4553BX,Philippine,Terneuzen,Zeeland,VBO,3.756731,51.284319
Schorrenkruidlaan,18,,,4553BX,Philippine,Terneuzen,Zeeland,VBO,3.756617,51.284549
Schorrenkruidlaan,20,,,4553BX,Philippine,Terneuzen,Zeeland,VBO,3.756706,51.284571
Schorrenkruidlaan,22,,,4553BX,Philippine,Terneuzen,Zeeland,VBO,3.756878,51.284613
Schorrenkruidlaan,24,,,4553BX,Philippine,Terneuzen,Zeeland,VBO,3.756969,51.284636
Schorrenkruidlaan,26,,,4553BX,Philippine,Terneuzen,Zeeland,VBO,3.757728,51.284815
Schorrenkruidlaan,28,,,4553BX,Philippine,Terneuzen,Zeeland,VBO,3.757821,51.284843
Schorrenkruidlaan,30,,,4553BX,Philippine,Terneuzen,Zeeland,VBO,3.757980,51.284878
Schorrenkruidlaan,32,,,4553BX,Philippine,Terneuzen,Zeeland,VBO,3.758074,51.284905
Schorrenkruidlaan,34,,,4553BX,Philippine,Terneuzen,Zeeland,VBO,3.758896,51.285046
Schorrenkruidlaan,36,,,4553BX,Philippine,Terneuzen,Zeeland,VBO,3.759028,51.285081
Schorrenkruidlaan,38,,,4553BX,Philippine,Terneuzen,Zeeland,VBO,3.759140,51.285103
Schorrenkruidlaan,40,,,4553BX,Philippine,Terneuzen,Zeeland,VBO,3.759264,51.285130
Schorrenkruidlaan,42,,,4553BX,Philippine,Terneuzen,Zeeland,VBO,3.759382,51.285169
Schorrenkruidlaan,1,,,4553BZ,Philippine,Terneuzen,Zeeland,VBO,3.756644,51.283481
Schorrenkruidlaan,3,,,4553BZ,Philippine,Terneuzen,Zeeland,VBO,3.756618,51.283533
Schorrenkruidlaan,5,,,4553BZ,Philippine,Terneuzen,Zeeland,VBO,3.756584,51.283585
Schorrenkruidlaan,7,,,4553BZ,Philippine,Terneuzen,Zeeland,VBO,3.756547,51.283634
Schorrenkruidlaan,9,,,4553BZ,Philippine,Terneuzen,Zeeland,VBO,3.756515,51.283681
Schorrenkruidlaan,11,,,4553BZ,Philippine,Terneuzen,Zeeland,VBO,3.756481,51.283739
Schorrenkruidlaan,13,,,4553BZ,Philippine,Terneuzen,Zeeland,VBO,3.756178,51.284236
Schorrenkruidlaan,15,,,4553BZ,Philippine,Terneuzen,Zeeland,VBO,3.756137,51.284290
Schorrenkruidlaan,17,,,4553BZ,Philippine,Terneuzen,Zeeland,VBO,3.756074,51.284404
Schorrenkruidlaan,19,,,4553BZ,Philippine,Terneuzen,Zeeland,VBO,3.756040,51.284467
Schorrenkruidlaan,21,,,4553BZ,Philippine,Terneuzen,Zeeland,VBO,3.756038,51.284584
Schorrenkruidlaan,23,,,4553BZ,Philippine,Terneuzen,Zeeland,VBO,3.755997,51.284649
Schorrenkruidlaan,25,,,4553BZ,Philippine,Terneuzen,Zeeland,VBO,3.755933,51.284757
Schorrenkruidlaan,27,a,,4553BZ,Philippine,Terneuzen,Zeeland,VBO,3.756224,51.284987
Schorrenkruidlaan,27,b,,4553BZ,Philippine,Terneuzen,Zeeland,VBO,3.756503,51.285140
Schorrenkruidlaan,27,c,,4553BZ,Philippine,Terneuzen,Zeeland,VBO,3.756579,51.285022
Schorrenkruidlaan,27,d,,4553BZ,Philippine,Terneuzen,Zeeland,VBO,3.756322,51.285310
Schorrenkruidlaan,27,,,4553BZ,Philippine,Terneuzen,Zeeland,VBO,3.755898,51.284816
Schorrenkruidlaan,29,,,4553BZ,Philippine,Terneuzen,Zeeland,VBO,3.757231,51.285027
Schorrenkruidlaan,31,,,4553BZ,Philippine,Terneuzen,Zeeland,VBO,3.757312,51.285049
Schorrenkruidlaan,33,,,4553BZ,Philippine,Terneuzen,Zeeland,VBO,3.757489,51.285098
Schorrenkruidlaan,35,,,4553BZ,Philippine,Terneuzen,Zeeland,VBO,3.757575,51.285110
Schorrenkruidlaan,37,,,4553BZ,Philippine,Terneuzen,Zeeland,VBO,3.757883,51.285185
Schorrenkruidlaan,41,,,4553BZ,Philippine,Terneuzen,Zeeland,VBO,3.758346,51.285306
Schorrenkruidlaan,43,,,4553BZ,Philippine,Terneuzen,Zeeland,VBO,3.758449,51.285325
Schorrenkruidlaan,45,,,4553BZ,Philippine,Terneuzen,Zeeland,VBO,3.758544,51.285354
Schorrenkruidlaan,47,,,4553BZ,Philippine,Terneuzen,Zeeland,VBO,3.758649,51.285372
Schorrenkruidlaan,49,,,4553BZ,Philippine,Terneuzen,Zeeland,VBO,3.758735,51.285416
Strandgaper,1,,,4553CA,Philippine,Terneuzen,Zeeland,VBO,3.756302,51.283478
Strandgaper,2,,,4553CA,Philippine,Terneuzen,Zeeland,VBO,3.756217,51.283458
Strandgaper,3,,,4553CA,Philippine,Terneuzen,Zeeland,VBO,3.756068,51.283423
Strandgaper,4,,,4553CA,Philippine,Terneuzen,Zeeland,VBO,3.755984,51.283406
Strandgaper,5,,,4553CA,Philippine,Terneuzen,Zeeland,VBO,3.755834,51.283363
Strandgaper,6,,,4553CA,Philippine,Terneuzen,Zeeland,VBO,3.755752,51.283337
Strandgaper,7,,,4553CA,Philippine,Terneuzen,Zeeland,VBO,3.755599,51.283307
Strandgaper,8,,,4553CA,Philippine,Terneuzen,Zeeland,VBO,3.755513,51.283288
Strandgaper,9,a,,4553CA,Philippine,Terneuzen,Zeeland,VBO,3.755282,51.283226
Strandgaper,9,b,,4553CA,Philippine,Terneuzen,Zeeland,VBO,3.755295,51.282683
Strandgaper,9,,,4553CA,Philippine,Terneuzen,Zeeland,VBO,3.755364,51.283247
Strandgaper,10,,,4553CA,Philippine,Terneuzen,Zeeland,VBO,3.755086,51.282975
Strandgaper,11,,,4553CA,Philippine,Terneuzen,Zeeland,VBO,3.755054,51.283031
Strandgaper,12,,,4553CA,Philippine,Terneuzen,Zeeland,VBO,3.755024,51.283080
Strandgaper,13,,,4553CA,Philippine,Terneuzen,Zeeland,VBO,3.754993,51.283129
Strandgaper,14,,,4553CA,Philippine,Terneuzen,Zeeland,VBO,3.754962,51.283181
Strandgaper,15,,,4553CA,Philippine,Terneuzen,Zeeland,VBO,3.754925,51.283232
Kokhaan,1,,,4553CB,Philippine,Terneuzen,Zeeland,VBO,3.756426,51.283923
Kokhaan,3,,,4553CB,Philippine,Terneuzen,Zeeland,VBO,3.756347,51.283903
Kokhaan,5,,,4553CB,Philippine,Terneuzen,Zeeland,VBO,3.756260,51.283884
Kokhaan,7,,,4553CB,Philippine,Terneuzen,Zeeland,VBO,3.756182,51.283863
Kokhaan,9,,,4553CB,Philippine,Terneuzen,Zeeland,VBO,3.756091,51.283841
Kokhaan,11,,,4553CB,Philippine,Terneuzen,Zeeland,VBO,3.756002,51.283823
Kokhaan,13,,,4553CB,Philippine,Terneuzen,Zeeland,VBO,3.755679,51.283835
Kokhaan,15,,,4553CB,Philippine,Terneuzen,Zeeland,VBO,3.755712,51.283782
Kokhaan,17,,,4553CB,Philippine,Terneuzen,Zeeland,VBO,3.755745,51.283730
Kokhaan,19,,,4553CB,Philippine,Terneuzen,Zeeland,VBO,3.755780,51.283679
Kokhaan,21,,,4553CB,Philippine,Terneuzen,Zeeland,VBO,3.755812,51.283627
Kokhaan,23,,,4553CB,Philippine,Terneuzen,Zeeland,VBO,3.755844,51.283577
Kokhaan,25,,,4553CB,Philippine,Terneuzen,Zeeland,VBO,3.755265,51.283739
Kokhaan,27,,,4553CB,Philippine,Terneuzen,Zeeland,VBO,3.755296,51.283682
Kokhaan,29,,,4553CB,Philippine,Terneuzen,Zeeland,VBO,3.755329,51.283635
Kokhaan,31,,,4553CB,Philippine,Terneuzen,Zeeland,VBO,3.755370,51.283586
Kokhaan,33,,,4553CB,Philippine,Terneuzen,Zeeland,VBO,3.755399,51.283531
Kokhaan,35,,,4553CB,Philippine,Terneuzen,Zeeland,VBO,3.755423,51.283481
Kokhaan,37,,,4553CB,Philippine,Terneuzen,Zeeland,VBO,3.754948,51.283633
Kokhaan,39,,,4553CB,Philippine,Terneuzen,Zeeland,VBO,3.754861,51.283614
Kokhaan,41,,,4553CB,Philippine,Terneuzen,Zeeland,VBO,3.754787,51.283592
Kokhaan,43,,,4553CB,Philippine,Terneuzen,Zeeland,VBO,3.754708,51.283572
Kokhaan,45,,,4553CB,Philippine,Terneuzen,Zeeland,VBO,3.754621,51.283550
Kokhaan,47,,,4553CB,Philippine,Terneuzen,Zeeland,VBO,3.754544,51.283535
Kokhaan,2,,,4553CC,Philippine,Terneuzen,Zeeland,VBO,3.755888,51.284197
Kokhaan,4,,,4553CC,Philippine,Terneuzen,Zeeland,VBO,3.755799,51.284174
Kokhaan,6,,,4553CC,Philippine,Terneuzen,Zeeland,VBO,3.755626,51.284131
Kokhaan,8,,,4553CC,Philippine,Terneuzen,Zeeland,VBO,3.755531,51.284108
Kokhaan,10,,,4553CC,Philippine,Terneuzen,Zeeland,VBO,3.755356,51.284064
Kokhaan,12,,,4553CC,Philippine,Terneuzen,Zeeland,VBO,3.755263,51.284044
Kokhaan,14,,,4553CC,Philippine,Terneuzen,Zeeland,VBO,3.755083,51.283999
Kokhaan,16,,,4553CC,Philippine,Terneuzen,Zeeland,VBO,3.754987,51.283974
Kokhaan,18,,,4553CC,Philippine,Terneuzen,Zeeland,VBO,3.754849,51.283952
Zouterik,1,,,4553CD,Philippine,Terneuzen,Zeeland,VBO,3.757758,51.285399
Zouterik,3,,,4553CD,Philippine,Terneuzen,Zeeland,VBO,3.757766,51.285637
Zouterik,5,,,4553CD,Philippine,Terneuzen,Zeeland,VBO,3.757685,51.285616
Zouterik,7,,,4553CD,Philippine,Terneuzen,Zeeland,VBO,3.757598,51.285592
Zouterik,9,,,4553CD,Philippine,Terneuzen,Zeeland,VBO,3.757517,51.285574
Zouterik,11,a,,4553CD,Philippine,Terneuzen,Zeeland,VBO,3.757331,51.285534
Zouterik,11,,,4553CD,Philippine,Terneuzen,Zeeland,VBO,3.757435,51.285553
Zouterik,13,,,4553CD,Philippine,Terneuzen,Zeeland,VBO,3.757321,51.286231
Zouterik,37,,,4553CD,Philippine,Terneuzen,Zeeland,VBO,3.757650,51.286289
Zouterik,39,,,4553CD,Philippine,Terneuzen,Zeeland,VBO,3.757742,51.286319
Zouterik,41,,,4553CD,Philippine,Terneuzen,Zeeland,VBO,3.757845,51.286342
Zouterik,43,,,4553CD,Philippine,Terneuzen,Zeeland,VBO,3.757941,51.286370
Zouterik,2,,,4553CE,Philippine,Terneuzen,Zeeland,VBO,3.758357,51.285501
Zouterik,4,,,4553CE,Philippine,Terneuzen,Zeeland,VBO,3.758313,51.285558
Zouterik,6,,,4553CE,Philippine,Terneuzen,Zeeland,VBO,3.758265,51.285650
Zouterik,8,,,4553CE,Philippine,Terneuzen,Zeeland,VBO,3.758222,51.285703
Zouterik,10,,,4553CE,Philippine,Terneuzen,Zeeland,VBO,3.758167,51.285795
Zouterik,12,,,4553CE,Philippine,Terneuzen,Zeeland,VBO,3.758129,51.285848
Zouterik,14,,,4553CE,Philippine,Terneuzen,Zeeland,VBO,3.758072,51.285938
Zouterik,16,,,4553CE,Philippine,Terneuzen,Zeeland,VBO,3.758043,51.285995
Zouterik,18,,,4553CE,Philippine,Terneuzen,Zeeland,VBO,3.757983,51.286084
Zouterik,20,,,4553CE,Philippine,Terneuzen,Zeeland,VBO,3.757945,51.286140
Alikruik,1,,,4553CG,Philippine,Terneuzen,Zeeland,VBO,3.754952,51.284561
Alikruik,2,,,4553CG,Philippine,Terneuzen,Zeeland,VBO,3.754676,51.284230
Alikruik,3,,,4553CG,Philippine,Terneuzen,Zeeland,VBO,3.755099,51.284593
Alikruik,4,,,4553CG,Philippine,Terneuzen,Zeeland,VBO,3.754762,51.284248
Alikruik,5,,,4553CG,Philippine,Terneuzen,Zeeland,VBO,3.755197,51.284611
Alikruik,6,,,4553CG,Philippine,Terneuzen,Zeeland,VBO,3.754963,51.284299
Alikruik,7,,,4553CG,Philippine,Terneuzen,Zeeland,VBO,3.755371,51.284652
Alikruik,8,,,4553CG,Philippine,Terneuzen,Zeeland,VBO,3.755049,51.284319
Alikruik,9,,,4553CG,Philippine,Terneuzen,Zeeland,VBO,3.755463,51.284678
Alikruik,10,,,4553CG,Philippine,Terneuzen,Zeeland,VBO,3.755216,51.284370
Alikruik,12,,,4553CG,Philippine,Terneuzen,Zeeland,VBO,3.755411,51.284403
Alikruik,14,,,4553CG,Philippine,Terneuzen,Zeeland,VBO,3.755628,51.284436
Alikruik,16,,,4553CG,Philippine,Terneuzen,Zeeland,VBO,3.755711,51.284450
Mosselbank,1,,,4553CH,Philippine,Terneuzen,Zeeland,VBO,3.754521,51.283813
Mosselbank,2,,,4553CH,Philippine,Terneuzen,Zeeland,VBO,3.754593,51.284457
Mosselbank,3,,,4553CH,Philippine,Terneuzen,Zeeland,VBO,3.754413,51.283988
Mosselbank,4,,,4553CH,Philippine,Terneuzen,Zeeland,VBO,3.754561,51.284509
Mosselbank,5,,,4553CH,Philippine,Terneuzen,Zeeland,VBO,3.754332,51.284147
Mosselbank,6,,,4553CH,Philippine,Terneuzen,Zeeland,VBO,3.754392,51.284730
Mosselbank,7,,,4553CH,Philippine,Terneuzen,Zeeland,VBO,3.754227,51.284319
Mosselbank,8,,,4553CH,Philippine,Terneuzen,Zeeland,VBO,3.754289,51.284895
Mosselbank,9,,,4553CH,Philippine,Terneuzen,Zeeland,VBO,3.754108,51.284487
Mosselbank,10,,,4553CH,Philippine,Terneuzen,Zeeland,VBO,3.754214,51.285057
Mosselbank,11,,,4553CH,Philippine,Terneuzen,Zeeland,VBO,3.753937,51.284709
Mosselbank,12,,,4553CH,Philippine,Terneuzen,Zeeland,VBO,3.754533,51.285138
Mosselbank,13,,,4553CH,Philippine,Terneuzen,Zeeland,VBO,3.753821,51.284912
Mosselbank,14,,,4553CH,Philippine,Terneuzen,Zeeland,VBO,3.754848,51.285217
Mosselbank,15,,,4553CH,Philippine,Terneuzen,Zeeland,VBO,3.753734,51.285046
Mosselbank,16,,,4553CH,Philippine,Terneuzen,Zeeland,VBO,3.755093,51.285282
Mosselbank,17,,,4553CH,Philippine,Terneuzen,Zeeland,VBO,3.753553,51.285256
Mosselbank,18,,,4553CH,Philippine,Terneuzen,Zeeland,VBO,3.755423,51.285359
Mosselbank,19,,,4553CH,Philippine,Terneuzen,Zeeland,VBO,3.753906,51.285286
Mosselbank,20,,,4553CH,Philippine,Terneuzen,Zeeland,VBO,3.755584,51.285108
Mosselbank,21,,,4553CH,Philippine,Terneuzen,Zeeland,VBO,3.754324,51.285383
Mosselbank,22,,,4553CH,Philippine,Terneuzen,Zeeland,VBO,3.756275,51.285370
Mosselbank,23,,,4553CH,Philippine,Terneuzen,Zeeland,VBO,3.754558,51.285448
Mosselbank,25,,,4553CH,Philippine,Terneuzen,Zeeland,VBO,3.754864,51.285553
Mosselbank,27,,,4553CH,Philippine,Terneuzen,Zeeland,VBO,3.755183,51.285608
Mosselbank,29,,,4553CH,Philippine,Terneuzen,Zeeland,VBO,3.755728,51.285754
Mosselbank,31,,,4553CH,Philippine,Terneuzen,Zeeland,VBO,3.755934,51.285844
Mosselbank,33,,,4553CH,Philippine,Terneuzen,Zeeland,VBO,3.756216,51.285861
Havenplein,1,,,4553CJ,Philippine,Terneuzen,Zeeland,VBO,3.761772,51.282446
Havenplein,3,,,4553CJ,Philippine,Terneuzen,Zeeland,VBO,3.761369,51.282377
Lamsoor,2,,,4553CK,Philippine,Terneuzen,Zeeland,VBO,3.757175,51.285246
Lamsoor,4,,,4553CK,Philippine,Terneuzen,Zeeland,VBO,3.757137,51.285304
Lamsoor,6,,,4553CK,Philippine,Terneuzen,Zeeland,VBO,3.757064,51.285422
Lamsoor,8,,,4553CK,Philippine,Terneuzen,Zeeland,VBO,3.757029,51.285479
Lamsoor,10,,,4553CK,Philippine,Terneuzen,Zeeland,VBO,3.756954,51.285604
Lamsoor,12,,,4553CK,Philippine,Terneuzen,Zeeland,VBO,3.756918,51.285650
Lamsoor,14,,,4553CK,Philippine,Terneuzen,Zeeland,VBO,3.756808,51.285804
Wulk,1,,,4553CL,Philippine,Terneuzen,Zeeland,VBO,3.754756,51.284817
Wulk,2,,,4553CL,Philippine,Terneuzen,Zeeland,VBO,3.755078,51.284888
Wulk,3,,,4553CL,Philippine,Terneuzen,Zeeland,VBO,3.755335,51.284966
Stern,1,,,4553CM,Philippine,Terneuzen,Zeeland,VBO,3.757426,51.283973
Stern,2,,,4553CM,Philippine,Terneuzen,Zeeland,VBO,3.757090,51.283542
Stern,3,,,4553CM,Philippine,Terneuzen,Zeeland,VBO,3.757513,51.283994
Stern,4,,,4553CM,Philippine,Terneuzen,Zeeland,VBO,3.757173,51.283562
Stern,5,,,4553CM,Philippine,Terneuzen,Zeeland,VBO,3.757672,51.284039
Stern,6,,,4553CM,Philippine,Terneuzen,Zeeland,VBO,3.757261,51.283588
Stern,7,,,4553CM,Philippine,Terneuzen,Zeeland,VBO,3.757768,51.284060
Stern,8,,,4553CM,Philippine,Terneuzen,Zeeland,VBO,3.757357,51.283608
Stern,9,,,4553CM,Philippine,Terneuzen,Zeeland,VBO,3.758483,51.284250
Stern,10,,,4553CM,Philippine,Terneuzen,Zeeland,VBO,3.757427,51.283637
Stern,11,,,4553CM,Philippine,Terneuzen,Zeeland,VBO,3.758546,51.284269
Stern,12,,,4553CM,Philippine,Terneuzen,Zeeland,VBO,3.757533,51.283664
Stern,13,,,4553CM,Philippine,Terneuzen,Zeeland,VBO,3.758617,51.284287
Stern,14,,,4553CM,Philippine,Terneuzen,Zeeland,VBO,3.757756,51.283703
Stern,15,,,4553CM,Philippine,Terneuzen,Zeeland,VBO,3.758706,51.284310
Stern,16,,,4553CM,Philippine,Terneuzen,Zeeland,VBO,3.758008,51.283776
Stern,17,,,4553CM,Philippine,Terneuzen,Zeeland,VBO,3.758824,51.284334
Stern,18,,,4553CM,Philippine,Terneuzen,Zeeland,VBO,3.758105,51.283799
Stern,19,,,4553CM,Philippine,Terneuzen,Zeeland,VBO,3.758923,51.284356
Stern,20,,,4553CM,Philippine,Terneuzen,Zeeland,VBO,3.758308,51.283834
Stern,22,,,4553CM,Philippine,Terneuzen,Zeeland,VBO,3.758391,51.283858
Stern,24,,,4553CM,Philippine,Terneuzen,Zeeland,VBO,3.758564,51.283959
Stern,26,,,4553CM,Philippine,Terneuzen,Zeeland,VBO,3.758681,51.283986
Stern,28,,,4553CM,Philippine,Terneuzen,Zeeland,VBO,3.758762,51.284005
Stern,30,,,4553CM,Philippine,Terneuzen,Zeeland,VBO,3.758970,51.284017
Stern,32,,,4553CM,Philippine,Terneuzen,Zeeland,VBO,3.759057,51.284035
Stern,34,,,4553CM,Philippine,Terneuzen,Zeeland,VBO,3.759187,51.284067
Stern,36,,,4553CM,Philippine,Terneuzen,Zeeland,VBO,3.759270,51.284105
Pluvier,1,,,4553CN,Philippine,Terneuzen,Zeeland,VBO,3.757879,51.284640
Pluvier,2,,,4553CN,Philippine,Terneuzen,Zeeland,VBO,3.757244,51.284700
Pluvier,3,,,4553CN,Philippine,Terneuzen,Zeeland,VBO,3.757913,51.284576
Pluvier,4,,,4553CN,Philippine,Terneuzen,Zeeland,VBO,3.757279,51.284639
Pluvier,5,,,4553CN,Philippine,Terneuzen,Zeeland,VBO,3.757981,51.284472
Pluvier,6,,,4553CN,Philippine,Terneuzen,Zeeland,VBO,3.757344,51.284543
Pluvier,7,,,4553CN,Philippine,Terneuzen,Zeeland,VBO,3.758013,51.284410
Pluvier,8,,,4553CN,Philippine,Terneuzen,Zeeland,VBO,3.757373,51.284483
Pluvier,9,,,4553CN,Philippine,Terneuzen,Zeeland,VBO,3.758086,51.284305
Pluvier,10,,,4553CN,Philippine,Terneuzen,Zeeland,VBO,3.757631,51.284269
Pluvier,11,,,4553CN,Philippine,Terneuzen,Zeeland,VBO,3.758114,51.284243
Pluvier,12,,,4553CN,Philippine,Terneuzen,Zeeland,VBO,3.757537,51.284243
Pluvier,13,,,4553CN,Philippine,Terneuzen,Zeeland,VBO,3.758169,51.284128
Pluvier,14,,,4553CN,Philippine,Terneuzen,Zeeland,VBO,3.757383,51.284201
Pluvier,16,,,4553CN,Philippine,Terneuzen,Zeeland,VBO,3.757284,51.284182
Marollenoord,2,,,4553CP,Philippine,Terneuzen,Zeeland,VBO,3.758379,51.284963
Marollenoord,4,,,4553CP,Philippine,Terneuzen,Zeeland,VBO,3.758471,51.284807
Marollenoord,6,,,4553CP,Philippine,Terneuzen,Zeeland,VBO,3.758547,51.284756
Marollenoord,8,,,4553CP,Philippine,Terneuzen,Zeeland,VBO,3.758693,51.284596
Marollenoord,10,,,4553CP,Philippine,Terneuzen,Zeeland,VBO,3.758743,51.284501
Marollenoord,1,a,,4553CR,Philippine,Terneuzen,Zeeland,VBO,3.759511,51.284841
Marollenoord,1,,,4553CR,Philippine,Terneuzen,Zeeland,VBO,3.759118,51.284709
Marollenoord,3,,,4553CR,Philippine,Terneuzen,Zeeland,VBO,3.759149,51.284657
Benedictijnerstraat,1,,,4553CS,Philippine,Terneuzen,Zeeland,VBO,3.752854,51.283212
Benedictijnerstraat,2,,,4553CS,Philippine,Terneuzen,Zeeland,VBO,3.753526,51.283675
Benedictijnerstraat,3,,,4553CS,Philippine,Terneuzen,Zeeland,VBO,3.752661,51.283153
Benedictijnerstraat,4,,,4553CS,Philippine,Terneuzen,Zeeland,VBO,3.753275,51.283612
Benedictijnerstraat,6,,,4553CS,Philippine,Terneuzen,Zeeland,VBO,3.752821,51.283525
Benedictijnerstraat,8,,,4553CS,Philippine,Terneuzen,Zeeland,VBO,3.752631,51.283478
Benedictijnerstraat,20,,,4553CS,Philippine,Terneuzen,Zeeland,VBO,3.752450,51.283428
Benedictijnerstraat,22,,,4553CS,Philippine,Terneuzen,Zeeland,VBO,3.752339,51.283395
Slijkgras,1,,,4553CT,Philippine,Terneuzen,Zeeland,VBO,3.756651,51.286045
Slijkgras,2,,,4553CT,Philippine,Terneuzen,Zeeland,VBO,3.757213,51.285763
Slijkgras,3,,,4553CT,Philippine,Terneuzen,Zeeland,VBO,3.756744,51.286068
Slijkgras,4,,,4553CT,Philippine,Terneuzen,Zeeland,VBO,3.757293,51.285790
Slijkgras,5,,,4553CT,Philippine,Terneuzen,Zeeland,VBO,3.757028,51.286137
Slijkgras,6,,,4553CT,Philippine,Terneuzen,Zeeland,VBO,3.757371,51.285808
Slijkgras,8,,,4553CT,Philippine,Terneuzen,Zeeland,VBO,3.757454,51.285827
Slijkgras,10,,,4553CT,Philippine,Terneuzen,Zeeland,VBO,3.757532,51.285845
Slijkgras,12,,,4553CT,Philippine,Terneuzen,Zeeland,VBO,3.757610,51.285871
Graaf van Vlaanderenstraat,1,,,4553CV,Philippine,Terneuzen,Zeeland,VBO,3.753479,51.283911
Graaf van Vlaanderenstraat,2,,,4553CV,Philippine,Terneuzen,Zeeland,VBO,3.754059,51.283759
Graaf van Vlaanderenstraat,3,,,4553CV,Philippine,Terneuzen,Zeeland,VBO,3.753455,51.283953
Graaf van Vlaanderenstraat,4,,,4553CV,Philippine,Terneuzen,Zeeland,VBO,3.753853,51.284011
Graaf van Vlaanderenstraat,5,,,4553CV,Philippine,Terneuzen,Zeeland,VBO,3.753373,51.284067
Graaf van Vlaanderenstraat,6,,,4553CV,Philippine,Terneuzen,Zeeland,VBO,3.753822,51.284074
Graaf van Vlaanderenstraat,7,,,4553CV,Philippine,Terneuzen,Zeeland,VBO,3.753319,51.284121
Graaf van Vlaanderenstraat,8,,,4553CV,Philippine,Terneuzen,Zeeland,VBO,3.753747,51.284177
Graaf van Vlaanderenstraat,9,,,4553CV,Philippine,Terneuzen,Zeeland,VBO,3.753278,51.284219
Graaf van Vlaanderenstraat,10,,,4553CV,Philippine,Terneuzen,Zeeland,VBO,3.753699,51.284239
Graaf van Vlaanderenstraat,11,,,4553CV,Philippine,Terneuzen,Zeeland,VBO,3.753234,51.284278
Graaf van Vlaanderenstraat,12,,,4553CV,Philippine,Terneuzen,Zeeland,VBO,3.753625,51.284342
Graaf van Vlaanderenstraat,14,,,4553CV,Philippine,Terneuzen,Zeeland,VBO,3.753590,51.284395
Graaf van Vlaanderenstraat,15,,,4553CV,Philippine,Terneuzen,Zeeland,VBO,3.753066,51.284520
Graaf van Vlaanderenstraat,16,,,4553CV,Philippine,Terneuzen,Zeeland,VBO,3.753471,51.284635
Graaf van Vlaanderenstraat,17,,,4553CV,Philippine,Terneuzen,Zeeland,VBO,3.753001,51.284634
Graaf van Vlaanderenstraat,18,,,4553CV,Philippine,Terneuzen,Zeeland,VBO,3.753350,51.284765
Graaf van Vlaanderenstraat,19,,,4553CV,Philippine,Terneuzen,Zeeland,VBO,3.752972,51.284682
Graaf van Vlaanderenstraat,20,,,4553CV,Philippine,Terneuzen,Zeeland,VBO,3.753304,51.284834
Graaf van Vlaanderenstraat,21,,,4553CV,Philippine,Terneuzen,Zeeland,VBO,3.752919,51.284783
Graaf van Vlaanderenstraat,22,,,4553CV,Philippine,Terneuzen,Zeeland,VBO,3.753244,51.284934
Graaf van Vlaanderenstraat,23,,,4553CV,Philippine,Terneuzen,Zeeland,VBO,3.752893,51.284823
Graaf van Vlaanderenstraat,24,,,4553CV,Philippine,Terneuzen,Zeeland,VBO,3.753205,51.284993
Graaf van Vlaanderenstraat,26,,,4553CV,Philippine,Terneuzen,Zeeland,VBO,3.753124,51.285232
Hertog van Bourgondiëstraat,1,,,4553CW,Philippine,Terneuzen,Zeeland,VBO,3.752751,51.285006
Hertog van Bourgondiëstraat,3,,,4553CW,Philippine,Terneuzen,Zeeland,VBO,3.752675,51.284987
Hertog van Bourgondiëstraat,5,,,4553CW,Philippine,Terneuzen,Zeeland,VBO,3.752434,51.284931
Hertog van Bourgondiëstraat,7,,,4553CW,Philippine,Terneuzen,Zeeland,VBO,3.752352,51.284912
Hertog van Bourgondiëstraat,9,,,4553CW,Philippine,Terneuzen,Zeeland,VBO,3.752064,51.284838
Hertog van Bourgondiëstraat,11,,,4553CW,Philippine,Terneuzen,Zeeland,VBO,3.751877,51.284796
Hertog van Bourgondiëstraat,13,,,4553CW,Philippine,Terneuzen,Zeeland,VBO,3.751793,51.284774
Hertog van Bourgondiëstraat,15,,,4553CW,Philippine,Terneuzen,Zeeland,VBO,3.751620,51.284730
Hertog van Bourgondiëstraat,17,,,4553CW,Philippine,Terneuzen,Zeeland,VBO,3.751536,51.284703
Meijland,1,a,,4553CX,Philippine,Terneuzen,Zeeland,VBO,3.752038,51.283252
Meijland,1,,,4553CX,Philippine,Terneuzen,Zeeland,VBO,3.751879,51.283494
Meijland,3,,,4553CX,Philippine,Terneuzen,Zeeland,VBO,3.751823,51.283598
Meijland,4,,,4553CX,Philippine,Terneuzen,Zeeland,VBO,3.752277,51.283604
Meijland,5,,,4553CX,Philippine,Terneuzen,Zeeland,VBO,3.751726,51.283722
Meijland,6,,,4553CX,Philippine,Terneuzen,Zeeland,VBO,3.752250,51.283660
Meijland,7,,,4553CX,Philippine,Terneuzen,Zeeland,VBO,3.751625,51.283862
Meijland,8,,,4553CX,Philippine,Terneuzen,Zeeland,VBO,3.752181,51.283771
Meijland,9,,,4553CX,Philippine,Terneuzen,Zeeland,VBO,3.751465,51.284097
Meijland,10,,,4553CX,Philippine,Terneuzen,Zeeland,VBO,3.752148,51.283829
Meijland,11,,,4553CX,Philippine,Terneuzen,Zeeland,VBO,3.751301,51.284359
Meijland,12,,,4553CX,Philippine,Terneuzen,Zeeland,VBO,3.752027,51.283940
Meijland,14,,,4553CX,Philippine,Terneuzen,Zeeland,VBO,3.751906,51.284155
Meijland,16,,,4553CX,Philippine,Terneuzen,Zeeland,VBO,3.751871,51.284225
Meijland,18,,,4553CX,Philippine,Terneuzen,Zeeland,VBO,3.751803,51.284313
Meijland,20,,,4553CX,Philippine,Terneuzen,Zeeland,VBO,3.751764,51.284362
Meijland,22,,,4553CX,Philippine,Terneuzen,Zeeland,VBO,3.751724,51.284453
Meijland,24,,,4553CX,Philippine,Terneuzen,Zeeland,VBO,3.751676,51.284524
Burgemeester van Hoekstraat,1,,,4553CZ,Philippine,Terneuzen,Zeeland,VBO,3.760702,51.283203
Burgemeester van Hoekstraat,2,,,4553CZ,Philippine,Terneuzen,Zeeland,VBO,3.760619,51.283340
Burgemeester van Hoekstraat,3,,,4553CZ,Philippine,Terneuzen,Zeeland,VBO,3.760619,51.283179
Burgemeester van Hoekstraat,4,,,4553CZ,Philippine,Terneuzen,Zeeland,VBO,3.760532,51.283322
Burgemeester van Hoekstraat,5,,,4553CZ,Philippine,Terneuzen,Zeeland,VBO,3.760504,51.283153
Burgemeester van Hoekstraat,6,,,4553CZ,Philippine,Terneuzen,Zeeland,VBO,3.760442,51.283294
Burgemeester van Hoekstraat,7,,,4553CZ,Philippine,Terneuzen,Zeeland,VBO,3.760414,51.283131
Burgemeester van Hoekstraat,8,,,4553CZ,Philippine,Terneuzen,Zeeland,VBO,3.760337,51.283272
Burgemeester van Hoekstraat,9,,,4553CZ,Philippine,Terneuzen,Zeeland,VBO,3.760313,51.283099
Burgemeester van Hoekstraat,10,,,4553CZ,Philippine,Terneuzen,Zeeland,VBO,3.760206,51.283241
Burgemeester van Hoekstraat,11,,,4553CZ,Philippine,Terneuzen,Zeeland,VBO,3.760046,51.282990
Burgemeester van Hoekstraat,12,,,4553CZ,Philippine,Terneuzen,Zeeland,VBO,3.760018,51.283045
Burgemeester van Hoekstraat,13,,,4553CZ,Philippine,Terneuzen,Zeeland,VBO,3.759989,51.283088
Burgemeester van Hoekstraat,14,,,4553CZ,Philippine,Terneuzen,Zeeland,VBO,3.759960,51.283137
Burgemeester van Hoekstraat,15,,,4553CZ,Philippine,Terneuzen,Zeeland,VBO,3.759926,51.283178
Burgemeester van Hoekstraat,16,,,4553CZ,Philippine,Terneuzen,Zeeland,VBO,3.759894,51.283219
Schans,1,,,4553DA,Philippine,Terneuzen,Zeeland,VBO,3.752679,51.283858
Schans,2,,,4553DA,Philippine,Terneuzen,Zeeland,VBO,3.753023,51.283817
Schans,3,,,4553DA,Philippine,Terneuzen,Zeeland,VBO,3.752648,51.283915
Schans,4,,,4553DA,Philippine,Terneuzen,Zeeland,VBO,3.752909,51.283985
Schans,5,,,4553DA,Philippine,Terneuzen,Zeeland,VBO,3.752573,51.284027
Schans,6,,,4553DA,Philippine,Terneuzen,Zeeland,VBO,3.752813,51.284153
Schans,7,,,4553DA,Philippine,Terneuzen,Zeeland,VBO,3.752533,51.284077
Schans,8,,,4553DA,Philippine,Terneuzen,Zeeland,VBO,3.752643,51.284409
Schans,9,,,4553DA,Philippine,Terneuzen,Zeeland,VBO,3.752388,51.284330
Schans,10,,,4553DA,Philippine,Terneuzen,Zeeland,VBO,3.752553,51.284574
Schans,11,,,4553DA,Philippine,Terneuzen,Zeeland,VBO,3.752265,51.284475
Schans,13,,,4553DA,Philippine,Terneuzen,Zeeland,VBO,3.752195,51.284631
Waterdijkbos,1,,,4553DB,Philippine,Terneuzen,Zeeland,VBO,3.752909,51.282830
Waterdijkbos,2,,,4553DB,Philippine,Terneuzen,Zeeland,VBO,3.752248,51.282879
Waterdijkbos,3,,,4553DB,Philippine,Terneuzen,Zeeland,VBO,3.752898,51.282342
Waterdijkbos,4,,,4553DB,Philippine,Terneuzen,Zeeland,VBO,3.752434,51.282709
Waterdijkbos,5,a,,4553DB,Philippine,Terneuzen,Zeeland,VBO,3.751698,51.282021
Waterdijkbos,5,,,4553DB,Philippine,Terneuzen,Zeeland,VBO,3.752322,51.282130
Waterdijkbos,6,a,,4553DB,Philippine,Terneuzen,Zeeland,VBO,3.751550,51.282408
Waterdijkbos,6,,,4553DB,Philippine,Terneuzen,Zeeland,VBO,3.751919,51.282498
Waterdijkbos,7,,,4553DB,Philippine,Terneuzen,Zeeland,VBO,3.751161,51.281862
Waterdijkbos,8,,,4553DB,Philippine,Terneuzen,Zeeland,VBO,3.750945,51.282227
Waterdijkbos,9,,,4553DB,Philippine,Terneuzen,Zeeland,VBO,3.750074,51.282310
Waterdijkbos,10,,,4553DB,Philippine,Terneuzen,Zeeland,VBO,3.750634,51.282813
Waterdijkbos,11,,,4553DB,Philippine,Terneuzen,Zeeland,VBO,3.749940,51.282651
Waterdijkbos,12,a,,4553DB,Philippine,Terneuzen,Zeeland,VBO,3.751504,51.283086
Waterdijkbos,12,,,4553DB,Philippine,Terneuzen,Zeeland,VBO,3.751115,51.282953
Waterdijkbos,13,,,4553DB,Philippine,Terneuzen,Zeeland,VBO,3.749915,51.283238
Waterdijkbos,14,,,4553DB,Philippine,Terneuzen,Zeeland,VBO,3.751221,51.283504
Waterdijkbos,15,,,4553DB,Philippine,Terneuzen,Zeeland,VBO,3.749730,51.283769
Waterdijkbos,16,,,4553DB,Philippine,Terneuzen,Zeeland,VBO,3.750637,51.283355
Waterdijkbos,17,a,,4553DB,Philippine,Terneuzen,Zeeland,VBO,3.750187,51.284374
Waterdijkbos,17,,,4553DB,Philippine,Terneuzen,Zeeland,VBO,3.749659,51.284191
Waterdijkbos,18,,,4553DB,Philippine,Terneuzen,Zeeland,VBO,3.750202,51.284049
Waterdijkbos,19,,,4553DB,Philippine,Terneuzen,Zeeland,VBO,3.750655,51.284537
Waterdijkbos,20,,,4553DB,Philippine,Terneuzen,Zeeland,VBO,3.750725,51.284201
Kanaalpark,1,a,,4553EA,Philippine,Terneuzen,Zeeland,VBO,3.762316,51.283818
Kanaalpark,1,,,4553EA,Philippine,Terneuzen,Zeeland,VBO,3.762887,51.283898
Kanaalpark,3,,,4553EA,Philippine,Terneuzen,Zeeland,VBO,3.762824,51.284017
Kanaalpark,5,,,4553EA,Philippine,Terneuzen,Zeeland,VBO,3.762766,51.284100
Kanaalpark,7,,,4553EA,Philippine,Terneuzen,Zeeland,VBO,3.762692,51.284213
Kanaalpark,9,,,4553EA,Philippine,Terneuzen,Zeeland,VBO,3.762622,51.284327
Kanaalpark,11,,,4553EA,Philippine,Terneuzen,Zeeland,VBO,3.762533,51.284443
Kanaalpark,13,,,4553EA,Philippine,Terneuzen,Zeeland,VBO,3.762500,51.284490
Kanaalpark,15,,,4553EA,Philippine,Terneuzen,Zeeland,VBO,3.762418,51.284591
Kanaalpark,17,,,4553EA,Philippine,Terneuzen,Zeeland,VBO,3.762333,51.284730
Kanaalpark,19,,,4553EA,Philippine,Terneuzen,Zeeland,VBO,3.762789,51.284697
Kanaalpark,21,,,4553EA,Philippine,Terneuzen,Zeeland,VBO,3.762730,51.284794
Kanaalpark,23,,,4553EA,Philippine,Terneuzen,Zeeland,VBO,3.762705,51.284837
Kanaalpark,25,,,4553EA,Philippine,Terneuzen,Zeeland,VBO,3.762638,51.285034
Kanaalpark,27,,,4553EA,Philippine,Terneuzen,Zeeland,VBO,3.762718,51.285055
Kanaalpark,29,,,4553EA,Philippine,Terneuzen,Zeeland,VBO,3.762949,51.285112
Kanaalpark,31,,,4553EA,Philippine,Terneuzen,Zeeland,VBO,3.763031,51.285138
Kanaalpark,35,,,4553EA,Philippine,Terneuzen,Zeeland,VBO,3.763320,51.285192
Kanaalpark,37,,,4553EB,Philippine,Terneuzen,Zeeland,VBO,3.763511,51.284983
Kanaalpark,39,,,4553EB,Philippine,Terneuzen,Zeeland,VBO,3.763542,51.284925
Kanaalpark,41,,,4553EB,Philippine,Terneuzen,Zeeland,VBO,3.763699,51.285409
Kanaalpark,43,a,,4553EB,Philippine,Terneuzen,Zeeland,VBO,3.763830,51.285144
Kanaalpark,43,,,4553EB,Philippine,Terneuzen,Zeeland,VBO,3.763771,51.285276
Kanaalpark,45,,,4553EB,Philippine,Terneuzen,Zeeland,VBO,3.763135,51.284785
Kanaalpark,47,,,4553EB,Philippine,Terneuzen,Zeeland,VBO,3.763213,51.284801
Kanaalpark,49,,,4553EB,Philippine,Terneuzen,Zeeland,VBO,3.764035,51.284995
Kanaalpark,51,,,4553EB,Philippine,Terneuzen,Zeeland,VBO,3.764333,51.285191
Kanaalpark,53,,,4553EB,Philippine,Terneuzen,Zeeland,VBO,3.764432,51.285382
Kanaalpark,55,,,4553EB,Philippine,Terneuzen,Zeeland,VBO,3.764461,51.285599
Kanaalpark,61,a,,4553EB,Philippine,Terneuzen,Zeeland,VBO,3.764319,51.285979
Kanaalpark,61,,,4553EB,Philippine,Terneuzen,Zeeland,VBO,3.764462,51.285800
Kanaalpark,63,,,4553EB,Philippine,Terneuzen,Zeeland,VBO,3.764218,51.286117
Kanaalpark,65,,,4553EB,Philippine,Terneuzen,Zeeland,VBO,3.763942,51.286218
Kanaalpark,67,,,4553EB,Philippine,Terneuzen,Zeeland,VBO,3.763672,51.286232
Kanaalpark,69,,,4553EB,Philippine,Terneuzen,Zeeland,VBO,3.763375,51.286311
Kanaalpark,71,,,4553EB,Philippine,Terneuzen,Zeeland,VBO,3.762923,51.286514
Kanaalpark,75,,,4553EB,Philippine,Terneuzen,Zeeland,VBO,3.762611,51.286653
Kanaalpark,2,,,4553EC,Philippine,Terneuzen,Zeeland,VBO,3.762106,51.283414
Kanaalpark,4,,,4553EC,Philippine,Terneuzen,Zeeland,VBO,3.762195,51.283437
Kanaalpark,6,,,4553EC,Philippine,Terneuzen,Zeeland,VBO,3.762370,51.283483
Kanaalpark,8,,,4553EC,Philippine,Terneuzen,Zeeland,VBO,3.762461,51.283505
Kanaalpark,10,,,4553EC,Philippine,Terneuzen,Zeeland,VBO,3.762619,51.283549
Kanaalpark,12,,,4553EC,Philippine,Terneuzen,Zeeland,VBO,3.762716,51.283571
Kanaalpark,14,,,4553EC,Philippine,Terneuzen,Zeeland,VBO,3.762891,51.283618
Kanaalpark,16,,,4553EC,Philippine,Terneuzen,Zeeland,VBO,3.762985,51.283640
Kanaalpark,18,,,4553EC,Philippine,Terneuzen,Zeeland,VBO,3.763323,51.283914
Kanaalpark,20,,,4553EC,Philippine,Terneuzen,Zeeland,VBO,3.763588,51.283981
Kanaalpark,22,,,4553EC,Philippine,Terneuzen,Zeeland,VBO,3.763186,51.284089
Kanaalpark,24,,,4553EC,Philippine,Terneuzen,Zeeland,VBO,3.763266,51.284107
Kanaalpark,26,,,4553EC,Philippine,Terneuzen,Zeeland,VBO,3.763436,51.284152
Kanaalpark,28,,,4553EC,Philippine,Terneuzen,Zeeland,VBO,3.763513,51.284172
Kanaalpark,30,,,4553EC,Philippine,Terneuzen,Zeeland,VBO,3.763686,51.284215
Kanaalpark,32,,,4553EC,Philippine,Terneuzen,Zeeland,VBO,3.763950,51.284296
Kanaalpark,34,,,4553EC,Philippine,Terneuzen,Zeeland,VBO,3.763918,51.284354
Kanaalpark,36,,,4553EC,Philippine,Terneuzen,Zeeland,VBO,3.763851,51.284458
Kanaalpark,38,,,4553EC,Philippine,Terneuzen,Zeeland,VBO,3.764237,51.284483
Kanaalpark,40,,,4553ED,Philippine,Terneuzen,Zeeland,VBO,3.762978,51.284434
Kanaalpark,42,,,4553ED,Philippine,Terneuzen,Zeeland,VBO,3.763050,51.284450
Kanaalpark,44,,,4553ED,Philippine,Terneuzen,Zeeland,VBO,3.763195,51.284487
Kanaalpark,46,,,4553ED,Philippine,Terneuzen,Zeeland,VBO,3.763266,51.284505
Kanaalpark,48,,,4553ED,Philippine,Terneuzen,Zeeland,VBO,3.763413,51.284540
Kanaalpark,50,,,4553ED,Philippine,Terneuzen,Zeeland,VBO,3.763488,51.284558
Kanaalpark,52,,,4553ED,Philippine,Terneuzen,Zeeland,VBO,3.763636,51.284595
Kanaalpark,54,,,4553ED,Philippine,Terneuzen,Zeeland,VBO,3.763708,51.284611
Kanaalpark,56,,,4553ED,Philippine,Terneuzen,Zeeland,VBO,3.764154,51.284694
Kanaalpark,58,a,,4553ED,Philippine,Terneuzen,Zeeland,VBO,3.764480,51.284788
Kanaalpark,58,,,4553ED,Philippine,Terneuzen,Zeeland,VBO,3.764403,51.284770
Kanaalpark,60,,,4553ED,Philippine,Terneuzen,Zeeland,VBO,3.764768,51.285064
Kanaalpark,62,,,4553ED,Philippine,Terneuzen,Zeeland,VBO,3.764853,51.285255
Kanaalpark,64,,,4553ED,Philippine,Terneuzen,Zeeland,VBO,3.764945,51.285398
Kanaalpark,66,,,4553ED,Philippine,Terneuzen,Zeeland,VBO,3.765098,51.285502
Kanaalpark,68,,,4553ED,Philippine,Terneuzen,Zeeland,VBO,3.764761,51.286133
Kanaalpark,70,,,4553ED,Philippine,Terneuzen,Zeeland,VBO,3.764641,51.286278
Kanaalpark,72,,,4553ED,Philippine,Terneuzen,Zeeland,VBO,3.764362,51.286418
Kanaalpark,74,,,4553ED,Philippine,Terneuzen,Zeeland,VBO,3.764031,51.286487
Kanaalpark,76,,,4553ED,Philippine,Terneuzen,Zeeland,VBO,3.763645,51.286553
Kanaalpark,78,,,4553ED,Philippine,Terneuzen,Zeeland,VBO,3.763224,51.286789
Kanaalpark,80,,,4553ED,Philippine,Terneuzen,Zeeland,VBO,3.763552,51.286996
Kanaalpark,82,,,4553ED,Philippine,Terneuzen,Zeeland,VBO,3.763110,51.287095
Kanaalpark,84,,,4553ED,Philippine,Terneuzen,Zeeland,VBO,3.762375,51.286932
Kanaalweide,1,a,,4553EE,Philippine,Terneuzen,Zeeland,VBO,3.762229,51.284913
Kanaalweide,1,,,4553EE,Philippine,Terneuzen,Zeeland,VBO,3.762264,51.284867
Kanaalweide,3,a,,4553EE,Philippine,Terneuzen,Zeeland,VBO,3.762145,51.285057
Kanaalweide,3,,,4553EE,Philippine,Terneuzen,Zeeland,VBO,3.762176,51.285011
Kanaalweide,5,a,,4553EE,Philippine,Terneuzen,Zeeland,VBO,3.762054,51.285200
Kanaalweide,5,,,4553EE,Philippine,Terneuzen,Zeeland,VBO,3.762081,51.285153
Kanaalweide,7,a,,4553EE,Philippine,Terneuzen,Zeeland,VBO,3.761915,51.285334
Kanaalweide,7,,,4553EE,Philippine,Terneuzen,Zeeland,VBO,3.761954,51.285283
Kanaalweide,10,,,4553EE,Philippine,Terneuzen,Zeeland,VBO,3.762124,51.285873
Kanaalweide,11,,,4553EE,Philippine,Terneuzen,Zeeland,VBO,3.761756,51.285660
Kanaalweide,12,,,4553EE,Philippine,Terneuzen,Zeeland,VBO,3.762436,51.286006
Kanaalweide,13,,,4553EE,Philippine,Terneuzen,Zeeland,VBO,3.761626,51.285823
Kanaalweide,14,,,4553EE,Philippine,Terneuzen,Zeeland,VBO,3.762840,51.286049
Kanaalweide,15,,,4553EE,Philippine,Terneuzen,Zeeland,VBO,3.763198,51.286134
Kanaalweide,16,,,4553EE,Philippine,Terneuzen,Zeeland,VBO,3.762909,51.285882
Kanaalweide,17,,,4553EE,Philippine,Terneuzen,Zeeland,VBO,3.763349,51.285925
Kanaalweide,18,,,4553EE,Philippine,Terneuzen,Zeeland,VBO,3.762946,51.285826
Kanaalweide,20,,,4553EE,Philippine,Terneuzen,Zeeland,VBO,3.763015,51.285697
Kanaalweide,22,,,4553EE,Philippine,Terneuzen,Zeeland,VBO,3.763047,51.285635
Kanaaldreef,1,,,4553EG,Philippine,Terneuzen,Zeeland,VBO,3.761455,51.285603
Sint Pieterspolder,5,,,4553NA,Philippine,Terneuzen,Zeeland,VBO,3.760643,51.264002
Sint Pieterspolder,6,,,4553NA,Philippine,Terneuzen,Zeeland,VBO,3.762442,51.261943
Posthoorn,3,,,4553NB,Philippine,Terneuzen,Zeeland,VBO,3.752273,51.270100
Posthoorn,6,,,4553NB,Philippine,Terneuzen,Zeeland,VBO,3.752183,51.269879
Posthoorn,7,,,4553NB,Philippine,Terneuzen,Zeeland,VBO,3.752162,51.269827
Posthoorn,8,,,4553NB,Philippine,Terneuzen,Zeeland,VBO,3.751773,51.269293
Philippineweg,1,,,4553NE,Philippine,Terneuzen,Zeeland,VBO,3.782633,51.269092
Philippineweg,3,,,4553NE,Philippine,Terneuzen,Zeeland,VBO,3.771812,51.273232
Philippineweg,5,,,4553NE,Philippine,Terneuzen,Zeeland,VBO,3.770979,51.273860
Philippineweg,7,,,4553NE,Philippine,Terneuzen,Zeeland,VBO,3.764273,51.280083
Philippineweg,9,,,4553NE,Philippine,Terneuzen,Zeeland,VBO,3.764737,51.280284
Posthoornweg,1,,,4553NG,Philippine,Terneuzen,Zeeland,VBO,3.754879,51.274180
Posthoornweg,2,,,4553NG,Philippine,Terneuzen,Zeeland,VBO,3.752407,51.270573
Posthoornweg,3,,,4553NG,Philippine,Terneuzen,Zeeland,VBO,3.753062,51.270888
Braakmanweg,1,,,4553NH,Philippine,Terneuzen,Zeeland,VBO,3.761774,51.282830
Braakmanweg,2,,,4553NH,Philippine,Terneuzen,Zeeland,VBO,3.762300,51.282843
Braakmanweg,3,,,4553NH,Philippine,Terneuzen,Zeeland,VBO,3.761684,51.282980
Braakmanweg,4,,,4553NH,Philippine,Terneuzen,Zeeland,VBO,3.761751,51.283728
Braakmanweg,6,,,4553NH,Philippine,Terneuzen,Zeeland,VBO,3.761721,51.283806
Braakmanweg,8,,,4553NH,Philippine,Terneuzen,Zeeland,VBO,3.761609,51.283986
Braakmanweg,10,,,4553NH,Philippine,Terneuzen,Zeeland,VBO,3.761572,51.284193
Braakmanweg,12,,,4553NH,Philippine,Terneuzen,Zeeland,VBO,3.761422,51.284329
Braakmanweg,16,,,4553NH,Philippine,Terneuzen,Zeeland,VBO,3.760807,51.285529
Braakmanweg,18,,,4553NH,Philippine,Terneuzen,Zeeland,VBO,3.760244,51.286061
Braakmanweg,20,,,4553NH,Philippine,Terneuzen,Zeeland,VBO,3.757207,51.291057
Kanaalpolderweg,1,,,4553NJ,Philippine,Terneuzen,Zeeland,VBO,3.759824,51.287075
Kanaalpolderweg,2,a,,4553NJ,Philippine,Terneuzen,Zeeland,VBO,3.761164,51.286770
Kanaalpolderweg,2,,,4553NJ,Philippine,Terneuzen,Zeeland,VBO,3.761769,51.287395
Kanaalpolderweg,3,,,4553NJ,Philippine,Terneuzen,Zeeland,VBO,3.761209,51.288050
Kanaalpolderweg,4,,,4553NJ,Philippine,Terneuzen,Zeeland,VBO,3.762769,51.287358
Kanaalpolderweg,5,,,4553NJ,Philippine,Terneuzen,Zeeland,VBO,3.764191,51.290885
Kanaalpolderweg,6,,,4553NJ,Philippine,Terneuzen,Zeeland,VBO,3.764408,51.289843
Kanaalpolderweg,8,,,4553NJ,Philippine,Terneuzen,Zeeland,VBO,3.765015,51.290372
Kanaalpolderweg,10,,,4553NJ,Philippine,Terneuzen,Zeeland,VBO,3.767793,51.291050
Zandstraat,86,,,4553NK,Philippine,Terneuzen,Zeeland,VBO,3.778146,51.273119
Zandstraat,88,,,4553NK,Philippine,Terneuzen,Zeeland,VBO,3.776197,51.274444
Zandstraat,90,,,4553NK,Philippine,Terneuzen,Zeeland,VBO,3.773228,51.277182
Zandstraat,94,,,4553NK,Philippine,Terneuzen,Zeeland,VBO,3.771739,51.278844
Zandstraat,96,,,4553NK,Philippine,Terneuzen,Zeeland,VBO,3.770266,51.279419
Zandstraat,98,,,4553NK,Philippine,Terneuzen,Zeeland,VBO,3.770190,51.280182
Zandstraat,100,,L1,4553NK,Philippine,Terneuzen,Zeeland,VBO,3.768273,51.280154
Zandstraat,100,,,4553NK,Philippine,Terneuzen,Zeeland,VBO,3.767973,51.280205
Zandstraat,102,,,4553NK,Philippine,Terneuzen,Zeeland,VBO,3.766736,51.280295
Zandstraat,227,,,4553NK,Philippine,Terneuzen,Zeeland,VBO,3.779459,51.271875
Zandstraat,229,,,4553NK,Philippine,Terneuzen,Zeeland,VBO,3.778413,51.272458
Zandstraat,231,,,4553NK,Philippine,Terneuzen,Zeeland,VBO,3.777556,51.272790
Zandstraat,233,,,4553NK,Philippine,Terneuzen,Zeeland,VBO,3.777417,51.272900
Zandstraat,235,,,4553NK,Philippine,Terneuzen,Zeeland,VBO,3.773427,51.275589
Zandstraat,237,,,4553NK,Philippine,Terneuzen,Zeeland,VBO,3.772914,51.276138
Zandstraat,239,,,4553NK,Philippine,Terneuzen,Zeeland,VBO,3.769903,51.278964
Zandstraat,241,a,,4553NK,Philippine,Terneuzen,Zeeland,VBO,3.765782,51.279912
Zandstraat,243,,,4553NK,Philippine,Terneuzen,Zeeland,VBO,3.765165,51.280064
Vergaertdijk,2,,,4553NL,Philippine,Terneuzen,Zeeland,VBO,3.768479,51.286671
Vergaertdijk,4,,,4553NL,Philippine,Terneuzen,Zeeland,VBO,3.770894,51.285622
Spanjaardsweg,1,,,4553PA,Philippine,Terneuzen,Zeeland,VBO,3.708129,51.281882
Spanjaardsweg,2,,,4553PA,Philippine,Terneuzen,Zeeland,VBO,3.708265,51.282907
Spanjaardsweg,3,,,4553PA,Philippine,Terneuzen,Zeeland,VBO,3.714233,51.288212
Spanjaardsweg,4,,,4553PA,Philippine,Terneuzen,Zeeland,VBO,3.708800,51.293861
Spanjaardsweg,5,,,4553PA,Philippine,Terneuzen,Zeeland,VBO,3.706307,51.303655
Spanjaardsweg,6,a,,4553PA,Philippine,Terneuzen,Zeeland,VBO,3.709364,51.308784
Spanjaardsweg,6,,,4553PA,Philippine,Terneuzen,Zeeland,VBO,3.709896,51.309360
Spanjaardsweg,7,,,4553PA,Philippine,Terneuzen,Zeeland,VBO,3.711787,51.310302
Spanjaardsweg,8,,,4553PA,Philippine,Terneuzen,Zeeland,VBO,3.713294,51.312600
Spanjaardsweg,9,,,4553PA,Philippine,Terneuzen,Zeeland,VBO,3.714576,51.312769
Clarapolderweg,1,,,4553PB,Philippine,Terneuzen,Zeeland,VBO,3.697132,51.279819
Isabellahaven,1,,,4553PD,Philippine,Terneuzen,Zeeland,VBO,3.718861,51.271624
Isabellahaven,2,,,4553PD,Philippine,Terneuzen,Zeeland,VBO,3.718445,51.271886
Isabellahaven,3,,,4553PD,Philippine,Terneuzen,Zeeland,VBO,3.716744,51.271832
Isabellahaven,4,,,4553PD,Philippine,Terneuzen,Zeeland,VBO,3.716335,51.271887
Isabellahaven,5,,,4553PD,Philippine,Terneuzen,Zeeland,VBO,3.716208,51.271964
Isabellahaven,6,,,4553PD,Philippine,Terneuzen,Zeeland,VBO,3.716025,51.271944
Olmendijkweg,2,,,4553PE,Philippine,Terneuzen,Zeeland,VBO,3.725338,51.275374
Olmendijkweg,3,,,4553PE,Philippine,Terneuzen,Zeeland,VBO,3.724846,51.275033
Olmendijkweg,4,,,4553PE,Philippine,Terneuzen,Zeeland,VBO,3.724509,51.274752
Olmendijkweg,5,,,4553PE,Philippine,Terneuzen,Zeeland,VBO,3.724459,51.274704
Olmendijkweg,6,,,4553PE,Philippine,Terneuzen,Zeeland,VBO,3.724000,51.274324
Olmendijkweg,7,,,4553PE,Philippine,Terneuzen,Zeeland,VBO,3.723830,51.274173
Olmendijkweg,8,,,4553PE,Philippine,Terneuzen,Zeeland,VBO,3.723751,51.274111
Olmendijkweg,9,,,4553PE,Philippine,Terneuzen,Zeeland,VBO,3.723519,51.273911
Olmendijkweg,10,,,4553PE,Philippine,Terneuzen,Zeeland,VBO,3.723230,51.273653
Isabellaweg,1,,,4553PJ,Philippine,Terneuzen,Zeeland,VBO,3.722486,51.300399
Isabellaweg,2,,L1,4553PJ,Philippine,Terneuzen,Zeeland,VBO,3.719201,51.297281
Isabellaweg,2,,,4553PJ,Philippine,Terneuzen,Zeeland,VBO,3.718611,51.297236
Isabellaweg,3,,,4553PJ,Philippine,Terneuzen,Zeeland,VBO,3.716864,51.296962
Isabellaweg,4,,,4553PJ,Philippine,Terneuzen,Zeeland,VBO,3.728293,51.303287
Boekhouteweg,1,,,4553PM,Philippine,Terneuzen,Zeeland,VBO,3.714846,51.276640
Boekhouteweg,2,,,4553PM,Philippine,Terneuzen,Zeeland,VBO,3.714621,51.277181
Boekhouteweg,4,,,4553PM,Philippine,Terneuzen,Zeeland,VBO,3.714278,51.276225
Dijckmeesterweg,1,a,,4553PN,Philippine,Terneuzen,Zeeland,VBO,3.754218,51.279830
Dijckmeesterweg,1,,,4553PN,Philippine,Terneuzen,Zeeland,VBO,3.753774,51.279725
Dijckmeesterweg,2,,,4553PN,Philippine,Terneuzen,Zeeland,VBO,3.744766,51.278507
Dijckmeesterweg,3,,,4553PN,Philippine,Terneuzen,Zeeland,VBO,3.752843,51.279360
Dijckmeesterweg,4,,,4553PN,Philippine,Terneuzen,Zeeland,VBO,3.729981,51.277899
Dijckmeesterweg,5,,,4553PN,Philippine,Terneuzen,Zeeland,VBO,3.751872,51.278793
Dijckmeesterweg,6,,,4553PN,Philippine,Terneuzen,Zeeland,VBO,3.728353,51.278093
Dijckmeesterweg,7,,,4553PN,Philippine,Terneuzen,Zeeland,VBO,3.750108,51.278735
Dijckmeesterweg,8,,,4553PN,Philippine,Terneuzen,Zeeland,VBO,3.719518,51.277770
Dijckmeesterweg,9,,,4553PN,Philippine,Terneuzen,Zeeland,VBO,3.746112,51.278188
Dijckmeesterweg,11,,,4553PN,Philippine,Terneuzen,Zeeland,VBO,3.743306,51.277790
Dijckmeesterweg,13,,,4553PN,Philippine,Terneuzen,Zeeland,VBO,3.738132,51.277139
Dijckmeesterweg,15,,,4553PN,Philippine,Terneuzen,Zeeland,VBO,3.737241,51.276727
Burgemeester Dhoogeweg,1,,,4553PP,Philippine,Terneuzen,Zeeland,VBO,3.724262,51.281458
Burgemeester Dhoogeweg,2,,,4553PP,Philippine,Terneuzen,Zeeland,VBO,3.725059,51.281721
Burgemeester Dhoogeweg,3,,,4553PP,Philippine,Terneuzen,Zeeland,VBO,3.727009,51.287728
Burgemeester Dhoogeweg,5,,,4553PP,Philippine,Terneuzen,Zeeland,VBO,3.730703,51.296482
Kleine Stelledijk,1,,,4553PR,Philippine,Terneuzen,Zeeland,VBO,3.752612,51.292340
Kleine Stelledijk,3,,,4553PR,Philippine,Terneuzen,Zeeland,VBO,3.735961,51.289766
Mosselverkorting,2,,,4553PS,Philippine,Terneuzen,Zeeland,VBO,3.754762,51.280908
Mosselverkorting,4,,,4553PS,Philippine,Terneuzen,Zeeland,VBO,3.754485,51.280954
Mosselverkorting,6,,,4553PS,Philippine,Terneuzen,Zeeland,VBO,3.754037,51.281119
Mosselverkorting,8,,,4553PS,Philippine,Terneuzen,Zeeland,VBO,3.752817,51.281434
Mosselpolderstraat,1,,,4553PT,Philippine,Terneuzen,Zeeland,VBO,3.743820,51.283873
Mosselpolderstraat,2,,,4553PT,Philippine,Terneuzen,Zeeland,VBO,3.755912,51.286531
Mosselpolderstraat,4,,,4553PT,Philippine,Terneuzen,Zeeland,VBO,3.751542,51.285186
Mosselpolderstraat,6,,L2,4553PT,Philippine,Terneuzen,Zeeland,VBO,3.749914,51.284757
Mosselpolderstraat,6,,,4553PT,Philippine,Terneuzen,Zeeland,VBO,3.750481,51.285044
Mosselpolderstraat,8,,,4553PT,Philippine,Terneuzen,Zeeland,VBO,3.746999,51.284420
Mosselpolderstraat,10,,,4553PT,Philippine,Terneuzen,Zeeland,VBO,3.742436,51.284216
Mosselpolderstraat,12,,,4553PT,Philippine,Terneuzen,Zeeland,VBO,3.740859,51.284337
Mosselpolderstraat,14,,,4553PT,Philippine,Terneuzen,Zeeland,VBO,3.736450,51.283876
Nieuwe Stelleweg,1,,,4553PV,Philippine,Terneuzen,Zeeland,VBO,3.755262,51.290983
Nieuwe Stelleweg,3,,,4553PV,Philippine,Terneuzen,Zeeland,VBO,3.753932,51.293486
