openbareruimtenaam,huisnummer,huisletter,huisnummertoevoeging,postcode,woonplaatsnaam,gemeentenaam,provincienaam,typeadresseerbaarobject,longitude,latitude
Rapenburg,1,a,,4581AA,Vogelwaarde,Hulst,Zeeland,VBO,3.986257,51.325756
Rapenburg,1,b,,4581AA,Vogelwaarde,Hulst,Zeeland,VBO,3.986294,51.325496
Rapenburg,1,,,4581AA,Vogelwaarde,Hulst,Zeeland,VBO,3.986126,51.325817
Rapenburg,3,,,4581AA,Vogelwaarde,Hulst,Zeeland,VBO,3.986297,51.325397
Rapenburg,5,,,4581AA,Vogelwaarde,Hulst,Zeeland,VBO,3.986300,51.325289
Rapenburg,9,,,4581AA,Vogelwaarde,Hulst,Zeeland,VBO,3.986268,51.324947
Rapenburg,11,,,4581AA,Vogelwaarde,Hulst,Zeeland,VBO,3.986199,51.324847
Rapenburg,13,,,4581AA,Vogelwaarde,Hulst,Zeeland,VBO,3.986231,51.324749
Rapenburg,15,,,4581AA,Vogelwaarde,Hulst,Zeeland,VBO,3.986161,51.324667
Rapenburg,17,,,4581AA,Vogelwaarde,Hulst,Zeeland,VBO,3.986193,51.324560
Rapenburg,19,,,4581AA,Vogelwaarde,Hulst,Zeeland,VBO,3.986138,51.324496
Rapenburg,21,,,4581AA,Vogelwaarde,Hulst,Zeeland,VBO,3.986112,51.324397
Rapenburg,23,,,4581AA,Vogelwaarde,Hulst,Zeeland,VBO,3.986143,51.324325
Rapenburg,25,,,4581AA,Vogelwaarde,Hulst,Zeeland,VBO,3.986103,51.324244
Rapenburg,27,,,4581AA,Vogelwaarde,Hulst,Zeeland,VBO,3.986105,51.324154
Rapenburg,29,,,4581AA,Vogelwaarde,Hulst,Zeeland,VBO,3.986008,51.324054
Rapenburg,31,,,4581AA,Vogelwaarde,Hulst,Zeeland,VBO,3.986010,51.324000
Rapenburg,33,,,4581AA,Vogelwaarde,Hulst,Zeeland,VBO,3.986070,51.323920
Rapenburg,35,,,4581AA,Vogelwaarde,Hulst,Zeeland,VBO,3.986029,51.323847
Rapenburg,37,,,4581AA,Vogelwaarde,Hulst,Zeeland,VBO,3.986046,51.323767
Rapenburg,39,,,4581AA,Vogelwaarde,Hulst,Zeeland,VBO,3.986006,51.323667
Rapenburg,41,,,4581AB,Vogelwaarde,Hulst,Zeeland,VBO,3.985418,51.323651
Rapenburg,43,,,4581AB,Vogelwaarde,Hulst,Zeeland,VBO,3.985980,51.323577
Rapenburg,45,,,4581AB,Vogelwaarde,Hulst,Zeeland,VBO,3.985898,51.323441
Rapenburg,47,,,4581AB,Vogelwaarde,Hulst,Zeeland,VBO,3.985886,51.323342
Rapenburg,49,,,4581AB,Vogelwaarde,Hulst,Zeeland,VBO,3.985474,51.323211
Rapenburg,51,,,4581AB,Vogelwaarde,Hulst,Zeeland,VBO,3.985768,51.322999
Rapenburg,59,,,4581AB,Vogelwaarde,Hulst,Zeeland,VBO,3.985649,51.322665
Rapenburg,61,,,4581AB,Vogelwaarde,Hulst,Zeeland,VBO,3.985752,51.322595
Rapenburg,63,,,4581AB,Vogelwaarde,Hulst,Zeeland,VBO,3.985712,51.322495
Rapenburg,71,,,4581AB,Vogelwaarde,Hulst,Zeeland,VBO,3.985615,51.322368
Rapenburg,73,,,4581AB,Vogelwaarde,Hulst,Zeeland,VBO,3.985518,51.322290
Rapenburg,75,a,,4581AB,Vogelwaarde,Hulst,Zeeland,VBO,3.985529,51.322316
Rapenburg,75,b,,4581AB,Vogelwaarde,Hulst,Zeeland,VBO,3.985463,51.322290
Rapenburg,75,c,,4581AB,Vogelwaarde,Hulst,Zeeland,VBO,3.985549,51.322265
Rapenburg,83,,,4581AB,Vogelwaarde,Hulst,Zeeland,VBO,3.985477,51.321710
Rapenburg,85,,,4581AB,Vogelwaarde,Hulst,Zeeland,VBO,3.985497,51.321549
Rapenburg,87,,,4581AB,Vogelwaarde,Hulst,Zeeland,VBO,3.985401,51.321404
Rapenburg,89,a,,4581AB,Vogelwaarde,Hulst,Zeeland,VBO,3.985293,51.321160
Rapenburg,89,b,,4581AB,Vogelwaarde,Hulst,Zeeland,VBO,3.985238,51.321096
Rapenburg,89,,,4581AB,Vogelwaarde,Hulst,Zeeland,VBO,3.985376,51.321259
Rapenburg,91,a,,4581AC,Vogelwaarde,Hulst,Zeeland,VBO,3.985328,51.320953
Rapenburg,91,,,4581AC,Vogelwaarde,Hulst,Zeeland,VBO,3.985355,51.321017
Rapenburg,93,,,4581AC,Vogelwaarde,Hulst,Zeeland,VBO,3.984975,51.320796
Rapenburg,95,,,4581AC,Vogelwaarde,Hulst,Zeeland,VBO,3.985232,51.320817
Rapenburg,101,,mz,4581AC,Vogelwaarde,Hulst,Zeeland,VBO,3.985181,51.320719
Rapenburg,101,,,4581AC,Vogelwaarde,Hulst,Zeeland,VBO,3.985253,51.320611
Rapenburg,103,,,4581AC,Vogelwaarde,Hulst,Zeeland,VBO,3.985285,51.320503
Rapenburg,105,,,4581AC,Vogelwaarde,Hulst,Zeeland,VBO,3.985230,51.320404
Rapenburg,107,,,4581AC,Vogelwaarde,Hulst,Zeeland,VBO,3.985233,51.320305
Rapenburg,109,,,4581AC,Vogelwaarde,Hulst,Zeeland,VBO,3.985193,51.320232
Rapenburg,111,,,4581AC,Vogelwaarde,Hulst,Zeeland,VBO,3.985182,51.320115
Rapenburg,113,,,4581AC,Vogelwaarde,Hulst,Zeeland,VBO,3.985100,51.319980
Rapenburg,115,a,,4581AC,Vogelwaarde,Hulst,Zeeland,VBO,3.983862,51.320033
Rapenburg,115,,,4581AC,Vogelwaarde,Hulst,Zeeland,VBO,3.985078,51.319755
Rapenburg,117,,,4581AC,Vogelwaarde,Hulst,Zeeland,VBO,3.984984,51.319556
Rapenburg,119,,,4581AC,Vogelwaarde,Hulst,Zeeland,VBO,3.983519,51.318657
Rapenburg,129,,,4581AC,Vogelwaarde,Hulst,Zeeland,VBO,3.984763,51.315517
Rapenburg,133,a,,4581AC,Vogelwaarde,Hulst,Zeeland,VBO,3.984461,51.315090
Rapenburg,135,,,4581AC,Vogelwaarde,Hulst,Zeeland,VBO,3.984608,51.314040
Rapenburg,143,,,4581AC,Vogelwaarde,Hulst,Zeeland,VBO,3.984696,51.312558
Rapenburg,2,,,4581AD,Vogelwaarde,Hulst,Zeeland,VBO,3.986692,51.325626
Rapenburg,4,,,4581AD,Vogelwaarde,Hulst,Zeeland,VBO,3.986666,51.325518
Rapenburg,6,,,4581AD,Vogelwaarde,Hulst,Zeeland,VBO,3.986655,51.325428
Rapenburg,10,,,4581AD,Vogelwaarde,Hulst,Zeeland,VBO,3.986617,51.325248
Rapenburg,12,,,4581AD,Vogelwaarde,Hulst,Zeeland,VBO,3.986592,51.325149
Rapenburg,16,,,4581AD,Vogelwaarde,Hulst,Zeeland,VBO,3.986624,51.325023
Rapenburg,18,,,4581AD,Vogelwaarde,Hulst,Zeeland,VBO,3.986584,51.324933
Rapenburg,20,,,4581AD,Vogelwaarde,Hulst,Zeeland,VBO,3.986543,51.324860
Rapenburg,24,,,4581AD,Vogelwaarde,Hulst,Zeeland,VBO,3.986503,51.324770
Rapenburg,26,,,4581AD,Vogelwaarde,Hulst,Zeeland,VBO,3.986448,51.324689
Rapenburg,30,a,,4581AD,Vogelwaarde,Hulst,Zeeland,VBO,3.987448,51.324341
Rapenburg,30,,,4581AD,Vogelwaarde,Hulst,Zeeland,VBO,3.986957,51.324443
Rapenburg,32,,,4581AD,Vogelwaarde,Hulst,Zeeland,VBO,3.987051,51.324210
Rapenburg,34,,,4581AD,Vogelwaarde,Hulst,Zeeland,VBO,3.986935,51.324236
Rapenburg,36,,,4581AD,Vogelwaarde,Hulst,Zeeland,VBO,3.986792,51.324234
Rapenburg,46,,,4581AD,Vogelwaarde,Hulst,Zeeland,VBO,3.986451,51.324131
Rapenburg,48,,,4581AD,Vogelwaarde,Hulst,Zeeland,VBO,3.986469,51.323997
Rapenburg,50,,,4581AD,Vogelwaarde,Hulst,Zeeland,VBO,3.986288,51.323815
Rapenburg,52,,,4581AE,Vogelwaarde,Hulst,Zeeland,VBO,3.986276,51.323743
Rapenburg,54,,,4581AE,Vogelwaarde,Hulst,Zeeland,VBO,3.986455,51.323606
Rapenburg,58,,,4581AE,Vogelwaarde,Hulst,Zeeland,VBO,3.986269,51.323509
Rapenburg,60,,,4581AE,Vogelwaarde,Hulst,Zeeland,VBO,3.986215,51.323391
Rapenburg,62,,,4581AE,Vogelwaarde,Hulst,Zeeland,VBO,3.986188,51.323328
Rapenburg,64,,,4581AE,Vogelwaarde,Hulst,Zeeland,VBO,3.986175,51.323274
Rapenburg,66,,,4581AE,Vogelwaarde,Hulst,Zeeland,VBO,3.986177,51.323220
Rapenburg,68,,,4581AE,Vogelwaarde,Hulst,Zeeland,VBO,3.986164,51.323166
Rapenburg,76,,,4581AE,Vogelwaarde,Hulst,Zeeland,VBO,3.986685,51.322859
Rapenburg,86,a,,4581AE,Vogelwaarde,Hulst,Zeeland,VBO,3.986003,51.322346
Rapenburg,86,,,4581AE,Vogelwaarde,Hulst,Zeeland,VBO,3.986014,51.322463
Rapenburg,88,,,4581AE,Vogelwaarde,Hulst,Zeeland,VBO,3.985948,51.322255
Rapenburg,90,,,4581AE,Vogelwaarde,Hulst,Zeeland,VBO,3.985908,51.322183
Rapenburg,94,,,4581AE,Vogelwaarde,Hulst,Zeeland,VBO,3.985939,51.322093
Rapenburg,96,,,4581AE,Vogelwaarde,Hulst,Zeeland,VBO,3.985899,51.322003
Rapenburg,98,,,4581AE,Vogelwaarde,Hulst,Zeeland,VBO,3.985916,51.321895
Rapenburg,106,a,,4581AG,Vogelwaarde,Hulst,Zeeland,VBO,3.985839,51.321607
Rapenburg,106,,,4581AG,Vogelwaarde,Hulst,Zeeland,VBO,3.985907,51.321733
Rapenburg,110,,,4581AG,Vogelwaarde,Hulst,Zeeland,VBO,3.985745,51.321417
Rapenburg,114,,,4581AG,Vogelwaarde,Hulst,Zeeland,VBO,3.985778,51.321264
Rapenburg,116,,,4581AG,Vogelwaarde,Hulst,Zeeland,VBO,3.985753,51.321156
Rapenburg,118,A,,4581AG,Vogelwaarde,Hulst,Zeeland,VBO,3.985808,51.321008
Rapenburg,118,,,4581AG,Vogelwaarde,Hulst,Zeeland,VBO,3.985750,51.321013
Rapenburg,122,,,4581AG,Vogelwaarde,Hulst,Zeeland,VBO,3.985647,51.320867
Rapenburg,126,,,4581AG,Vogelwaarde,Hulst,Zeeland,VBO,3.985635,51.320768
Rapenburg,128,,,4581AG,Vogelwaarde,Hulst,Zeeland,VBO,3.985596,51.320651
Rapenburg,130,,,4581AG,Vogelwaarde,Hulst,Zeeland,VBO,3.985607,51.320600
Rapenburg,132,a,,4581AG,Vogelwaarde,Hulst,Zeeland,VBO,3.985545,51.320425
Rapenburg,132,b,,4581AG,Vogelwaarde,Hulst,Zeeland,VBO,3.985520,51.320326
Rapenburg,132,c,,4581AG,Vogelwaarde,Hulst,Zeeland,VBO,3.985551,51.320255
Rapenburg,132,,,4581AG,Vogelwaarde,Hulst,Zeeland,VBO,3.985558,51.320480
Rapenburg,134,,,4581AG,Vogelwaarde,Hulst,Zeeland,VBO,3.985496,51.320164
Rapenburg,136,,,4581AG,Vogelwaarde,Hulst,Zeeland,VBO,3.985459,51.319975
Rapenburg,142,,,4581AG,Vogelwaarde,Hulst,Zeeland,VBO,3.985393,51.319776
Rapenburg,146,,,4581AG,Vogelwaarde,Hulst,Zeeland,VBO,3.985340,51.319641
Rapenburg,148,,,4581AG,Vogelwaarde,Hulst,Zeeland,VBO,3.985283,51.318705
Rapenburg,152,,,4581AG,Vogelwaarde,Hulst,Zeeland,VBO,3.986524,51.318001
Rapenburg,154,,,4581AG,Vogelwaarde,Hulst,Zeeland,VBO,3.985557,51.314906
Plataanstraat,1,,,4581AH,Vogelwaarde,Hulst,Zeeland,VBO,3.986263,51.325109
Plataanstraat,3,,,4581AH,Vogelwaarde,Hulst,Zeeland,VBO,3.986075,51.325134
Plataanstraat,5,,,4581AH,Vogelwaarde,Hulst,Zeeland,VBO,3.985676,51.325048
Grafelijkheid,1,,,4581AJ,Vogelwaarde,Hulst,Zeeland,VBO,3.986859,51.322041
Grafelijkheid,4,,,4581AJ,Vogelwaarde,Hulst,Zeeland,VBO,3.987132,51.321559
Esdoornstraat,2,,,4581AK,Vogelwaarde,Hulst,Zeeland,VBO,3.985030,51.323206
Esdoornstraat,3,,,4581AK,Vogelwaarde,Hulst,Zeeland,VBO,3.985186,51.322785
Esdoornstraat,4,,,4581AK,Vogelwaarde,Hulst,Zeeland,VBO,3.984944,51.323205
Esdoornstraat,5,,,4581AK,Vogelwaarde,Hulst,Zeeland,VBO,3.985056,51.322811
Esdoornstraat,6,,,4581AK,Vogelwaarde,Hulst,Zeeland,VBO,3.984858,51.323209
Esdoornstraat,7,,,4581AK,Vogelwaarde,Hulst,Zeeland,VBO,3.984854,51.322844
Esdoornstraat,8,,,4581AK,Vogelwaarde,Hulst,Zeeland,VBO,3.984771,51.323211
Esdoornstraat,9,a,,4581AK,Vogelwaarde,Hulst,Zeeland,VBO,3.984581,51.322868
Esdoornstraat,9,b,,4581AK,Vogelwaarde,Hulst,Zeeland,VBO,3.984422,51.322893
Esdoornstraat,9,c,,4581AK,Vogelwaarde,Hulst,Zeeland,VBO,3.984336,51.322901
Esdoornstraat,9,,,4581AK,Vogelwaarde,Hulst,Zeeland,VBO,3.984667,51.322869
Esdoornstraat,10,,,4581AK,Vogelwaarde,Hulst,Zeeland,VBO,3.984669,51.323210
Esdoornstraat,12,,,4581AK,Vogelwaarde,Hulst,Zeeland,VBO,3.984571,51.323210
Esdoornstraat,13,,,4581AK,Vogelwaarde,Hulst,Zeeland,VBO,3.984145,51.323061
Esdoornstraat,15,,,4581AK,Vogelwaarde,Hulst,Zeeland,VBO,3.984146,51.323025
Hazelaarstraat,1,,,4581AL,Vogelwaarde,Hulst,Zeeland,VBO,3.982981,51.322642
Hazelaarstraat,2,,,4581AL,Vogelwaarde,Hulst,Zeeland,VBO,3.983548,51.322874
Hazelaarstraat,4,,,4581AL,Vogelwaarde,Hulst,Zeeland,VBO,3.983643,51.323046
Wilgenstraat,3,,,4581AM,Vogelwaarde,Hulst,Zeeland,VBO,3.982244,51.323289
Wilgenstraat,5,,,4581AM,Vogelwaarde,Hulst,Zeeland,VBO,3.982271,51.323335
Wilgenstraat,7,,,4581AM,Vogelwaarde,Hulst,Zeeland,VBO,3.982326,51.323425
Wilgenstraat,9,,,4581AM,Vogelwaarde,Hulst,Zeeland,VBO,3.982352,51.323489
Wilgenstraat,11,,,4581AM,Vogelwaarde,Hulst,Zeeland,VBO,3.982379,51.323561
Wilgenstraat,13,,,4581AM,Vogelwaarde,Hulst,Zeeland,VBO,3.982420,51.323606
Wilgenstraat,15,,,4581AM,Vogelwaarde,Hulst,Zeeland,VBO,3.982460,51.323733
Wilgenstraat,17,,,4581AM,Vogelwaarde,Hulst,Zeeland,VBO,3.982501,51.323796
Wilgenstraat,19,,,4581AM,Vogelwaarde,Hulst,Zeeland,VBO,3.982556,51.323869
Wilgenstraat,21,,,4581AM,Vogelwaarde,Hulst,Zeeland,VBO,3.982582,51.323941
Wilgenstraat,23,,,4581AM,Vogelwaarde,Hulst,Zeeland,VBO,3.982971,51.323892
Wilgenstraat,25,,,4581AM,Vogelwaarde,Hulst,Zeeland,VBO,3.983087,51.323875
Wilgenstraat,27,,,4581AM,Vogelwaarde,Hulst,Zeeland,VBO,3.983217,51.323850
Wilgenstraat,29,,,4581AM,Vogelwaarde,Hulst,Zeeland,VBO,3.983317,51.323833
Wilgenstraat,31,,,4581AM,Vogelwaarde,Hulst,Zeeland,VBO,3.983489,51.323853
Wilgenstraat,33,,,4581AM,Vogelwaarde,Hulst,Zeeland,VBO,3.983605,51.323800
Wilgenstraat,35,,,4581AM,Vogelwaarde,Hulst,Zeeland,VBO,3.983764,51.323775
Wilgenstraat,37,,,4581AM,Vogelwaarde,Hulst,Zeeland,VBO,3.983894,51.323759
Wilgenstraat,39,,,4581AM,Vogelwaarde,Hulst,Zeeland,VBO,3.983911,51.323660
Wilgenstraat,41,,,4581AM,Vogelwaarde,Hulst,Zeeland,VBO,3.983870,51.323588
Wilgenstraat,43,,,4581AM,Vogelwaarde,Hulst,Zeeland,VBO,3.983858,51.323516
Wilgenstraat,45,,,4581AM,Vogelwaarde,Hulst,Zeeland,VBO,3.983845,51.323471
Wilgenstraat,47,,,4581AM,Vogelwaarde,Hulst,Zeeland,VBO,3.983804,51.323407
Wilgenstraat,49,,,4581AM,Vogelwaarde,Hulst,Zeeland,VBO,3.983806,51.323326
Julianastraat,1,,,4581AN,Vogelwaarde,Hulst,Zeeland,VBO,3.981353,51.323315
Julianastraat,3,,,4581AN,Vogelwaarde,Hulst,Zeeland,VBO,3.981366,51.323369
Julianastraat,5,,,4581AN,Vogelwaarde,Hulst,Zeeland,VBO,3.981504,51.323550
Julianastraat,7,,,4581AN,Vogelwaarde,Hulst,Zeeland,VBO,3.981545,51.323623
Julianastraat,9,,,4581AN,Vogelwaarde,Hulst,Zeeland,VBO,3.981586,51.323668
Julianastraat,11,,,4581AN,Vogelwaarde,Hulst,Zeeland,VBO,3.981613,51.323722
Julianastraat,15,,,4581AN,Vogelwaarde,Hulst,Zeeland,VBO,3.981639,51.323822
Julianastraat,17,,,4581AN,Vogelwaarde,Hulst,Zeeland,VBO,3.981666,51.323885
Julianastraat,19,,,4581AN,Vogelwaarde,Hulst,Zeeland,VBO,3.981719,51.324038
Julianastraat,21,,,4581AN,Vogelwaarde,Hulst,Zeeland,VBO,3.981731,51.324083
Julianastraat,23,,,4581AN,Vogelwaarde,Hulst,Zeeland,VBO,3.981744,51.324137
Julianastraat,25,,,4581AN,Vogelwaarde,Hulst,Zeeland,VBO,3.981771,51.324183
Julianastraat,2,,,4581AP,Vogelwaarde,Hulst,Zeeland,VBO,3.981793,51.323005
Julianastraat,4,,,4581AP,Vogelwaarde,Hulst,Zeeland,VBO,3.981747,51.323122
Julianastraat,6,,,4581AP,Vogelwaarde,Hulst,Zeeland,VBO,3.981700,51.323256
Julianastraat,8,,,4581AP,Vogelwaarde,Hulst,Zeeland,VBO,3.981741,51.323310
Julianastraat,10,,,4581AP,Vogelwaarde,Hulst,Zeeland,VBO,3.981782,51.323365
Julianastraat,12,,,4581AP,Vogelwaarde,Hulst,Zeeland,VBO,3.981809,51.323419
Julianastraat,14,,,4581AP,Vogelwaarde,Hulst,Zeeland,VBO,3.981878,51.323510
Julianastraat,16,,,4581AP,Vogelwaarde,Hulst,Zeeland,VBO,3.981906,51.323555
Julianastraat,18,,,4581AP,Vogelwaarde,Hulst,Zeeland,VBO,3.981960,51.323655
Julianastraat,20,,,4581AP,Vogelwaarde,Hulst,Zeeland,VBO,3.981987,51.323709
Julianastraat,22,,,4581AP,Vogelwaarde,Hulst,Zeeland,VBO,3.982055,51.323827
Julianastraat,24,,,4581AP,Vogelwaarde,Hulst,Zeeland,VBO,3.982082,51.323872
Julianastraat,26,,,4581AP,Vogelwaarde,Hulst,Zeeland,VBO,3.982137,51.323971
Bernhardstraat,1,,,4581AR,Vogelwaarde,Hulst,Zeeland,VBO,3.980816,51.323515
Bernhardstraat,2,,,4581AR,Vogelwaarde,Hulst,Zeeland,VBO,3.980926,51.323687
Bernhardstraat,3,,,4581AR,Vogelwaarde,Hulst,Zeeland,VBO,3.980904,51.323480
Bernhardstraat,4,,,4581AR,Vogelwaarde,Hulst,Zeeland,VBO,3.981027,51.323661
Bernhardstraat,5,,,4581AR,Vogelwaarde,Hulst,Zeeland,VBO,3.981019,51.323454
Bernhardstraat,6,,,4581AR,Vogelwaarde,Hulst,Zeeland,VBO,3.981114,51.323644
Bernhardstraat,7,,,4581AR,Vogelwaarde,Hulst,Zeeland,VBO,3.981105,51.323446
Bernhardstraat,8,,,4581AR,Vogelwaarde,Hulst,Zeeland,VBO,3.981201,51.323618
Wilhelminastraat,1,,,4581AS,Vogelwaarde,Hulst,Zeeland,VBO,3.980156,51.323534
Wilhelminastraat,2,,,4581AS,Vogelwaarde,Hulst,Zeeland,VBO,3.980501,51.323502
Wilhelminastraat,3,,,4581AS,Vogelwaarde,Hulst,Zeeland,VBO,3.980183,51.323570
Wilhelminastraat,4,,,4581AS,Vogelwaarde,Hulst,Zeeland,VBO,3.980499,51.323574
Wilhelminastraat,5,,,4581AS,Vogelwaarde,Hulst,Zeeland,VBO,3.980224,51.323634
Wilhelminastraat,6,,,4581AS,Vogelwaarde,Hulst,Zeeland,VBO,3.980593,51.323764
Wilhelminastraat,7,,,4581AS,Vogelwaarde,Hulst,Zeeland,VBO,3.980235,51.323760
Wilhelminastraat,8,,,4581AS,Vogelwaarde,Hulst,Zeeland,VBO,3.980606,51.323818
Wilhelminastraat,9,,,4581AS,Vogelwaarde,Hulst,Zeeland,VBO,3.980262,51.323805
Wilhelminastraat,10,,,4581AS,Vogelwaarde,Hulst,Zeeland,VBO,3.980619,51.323872
Wilhelminastraat,11,,,4581AS,Vogelwaarde,Hulst,Zeeland,VBO,3.980260,51.323868
Wilhelminastraat,12,,,4581AS,Vogelwaarde,Hulst,Zeeland,VBO,3.980632,51.323926
Wilhelminastraat,13,,,4581AS,Vogelwaarde,Hulst,Zeeland,VBO,3.980273,51.323913
Wilhelminastraat,14,,,4581AS,Vogelwaarde,Hulst,Zeeland,VBO,3.980673,51.323981
Wilhelminastraat,15,,,4581AS,Vogelwaarde,Hulst,Zeeland,VBO,3.980301,51.323958
Wilhelminastraat,16,,,4581AS,Vogelwaarde,Hulst,Zeeland,VBO,3.980686,51.324035
Wilhelminastraat,17,,,4581AS,Vogelwaarde,Hulst,Zeeland,VBO,3.980299,51.324012
Wilhelminastraat,18,,,4581AS,Vogelwaarde,Hulst,Zeeland,VBO,3.980699,51.324071
Wilhelminastraat,19,,,4581AS,Vogelwaarde,Hulst,Zeeland,VBO,3.980339,51.324102
Wilhelminastraat,20,,,4581AS,Vogelwaarde,Hulst,Zeeland,VBO,3.980726,51.324125
Wilhelminastraat,21,,,4581AS,Vogelwaarde,Hulst,Zeeland,VBO,3.980352,51.324157
Wilhelminastraat,23,,,4581AS,Vogelwaarde,Hulst,Zeeland,VBO,3.980365,51.324202
Wilhelminastraat,25,,,4581AS,Vogelwaarde,Hulst,Zeeland,VBO,3.980378,51.324247
Wilhelminastraat,27,,,4581AS,Vogelwaarde,Hulst,Zeeland,VBO,3.980405,51.324301
Wilhelminastraat,29,,,4581AS,Vogelwaarde,Hulst,Zeeland,VBO,3.980403,51.324346
Olmenstraat,1,a,,4581AT,Vogelwaarde,Hulst,Zeeland,VBO,3.980209,51.324613
Olmenstraat,1,,,4581AT,Vogelwaarde,Hulst,Zeeland,VBO,3.980035,51.324665
Olmenstraat,3,,,4581AT,Vogelwaarde,Hulst,Zeeland,VBO,3.980281,51.324578
Olmenstraat,5,,,4581AT,Vogelwaarde,Hulst,Zeeland,VBO,3.980353,51.324570
Olmenstraat,7,,,4581AT,Vogelwaarde,Hulst,Zeeland,VBO,3.980440,51.324562
Olmenstraat,9,,,4581AT,Vogelwaarde,Hulst,Zeeland,VBO,3.980512,51.324554
Olmenstraat,11,,,4581AT,Vogelwaarde,Hulst,Zeeland,VBO,3.980598,51.324546
Olmenstraat,13,,,4581AT,Vogelwaarde,Hulst,Zeeland,VBO,3.980757,51.324521
Olmenstraat,15,,,4581AT,Vogelwaarde,Hulst,Zeeland,VBO,3.980988,51.324526
Olmenstraat,17,,,4581AT,Vogelwaarde,Hulst,Zeeland,VBO,3.981038,51.324623
Olmenstraat,19,,,4581AT,Vogelwaarde,Hulst,Zeeland,VBO,3.981067,51.324689
Olmenstraat,25,,,4581AT,Vogelwaarde,Hulst,Zeeland,VBO,3.981304,51.324456
Olmenstraat,27,,,4581AT,Vogelwaarde,Hulst,Zeeland,VBO,3.981390,51.324448
Olmenstraat,29,,,4581AT,Vogelwaarde,Hulst,Zeeland,VBO,3.981463,51.324431
Olmenstraat,31,,,4581AT,Vogelwaarde,Hulst,Zeeland,VBO,3.981535,51.324423
Olmenstraat,33,,,4581AT,Vogelwaarde,Hulst,Zeeland,VBO,3.981778,51.324435
Olmenstraat,35,,,4581AT,Vogelwaarde,Hulst,Zeeland,VBO,3.981879,51.324409
Olmenstraat,37,,,4581AT,Vogelwaarde,Hulst,Zeeland,VBO,3.981951,51.324401
Olmenstraat,39,,,4581AT,Vogelwaarde,Hulst,Zeeland,VBO,3.982052,51.324402
Olmenstraat,41,,,4581AT,Vogelwaarde,Hulst,Zeeland,VBO,3.982109,51.324394
Olmenstraat,43,,,4581AT,Vogelwaarde,Hulst,Zeeland,VBO,3.982195,51.324395
Olmenstraat,45,,,4581AT,Vogelwaarde,Hulst,Zeeland,VBO,3.982568,51.324399
Olmenstraat,47,,,4581AT,Vogelwaarde,Hulst,Zeeland,VBO,3.982669,51.324391
Olmenstraat,49,,,4581AT,Vogelwaarde,Hulst,Zeeland,VBO,3.982741,51.324392
Olmenstraat,51,,,4581AT,Vogelwaarde,Hulst,Zeeland,VBO,3.982841,51.324393
Olmenstraat,53,,,4581AT,Vogelwaarde,Hulst,Zeeland,VBO,3.982913,51.324394
Olmenstraat,55,a,,4581AT,Vogelwaarde,Hulst,Zeeland,VBO,3.983227,51.324434
Olmenstraat,55,,,4581AT,Vogelwaarde,Hulst,Zeeland,VBO,3.983013,51.324395
Olmenstraat,57,,,4581AT,Vogelwaarde,Hulst,Zeeland,VBO,3.983515,51.324419
Olmenstraat,59,,,4581AT,Vogelwaarde,Hulst,Zeeland,VBO,3.983905,51.324334
Olmenstraat,61,,,4581AT,Vogelwaarde,Hulst,Zeeland,VBO,3.984222,51.324293
Olmenstraat,63,,,4581AT,Vogelwaarde,Hulst,Zeeland,VBO,3.984424,51.324242
Olmenstraat,65,,,4581AT,Vogelwaarde,Hulst,Zeeland,VBO,3.984699,51.323697
Olmenstraat,67,,,4581AT,Vogelwaarde,Hulst,Zeeland,VBO,3.984701,51.323634
Olmenstraat,69,,,4581AT,Vogelwaarde,Hulst,Zeeland,VBO,3.984676,51.323517
Olmenstraat,71,,,4581AT,Vogelwaarde,Hulst,Zeeland,VBO,3.984678,51.323463
Olmenstraat,2,,,4581AV,Vogelwaarde,Hulst,Zeeland,VBO,3.980849,51.324315
Olmenstraat,4,,,4581AV,Vogelwaarde,Hulst,Zeeland,VBO,3.980921,51.324307
Olmenstraat,6,,,4581AV,Vogelwaarde,Hulst,Zeeland,VBO,3.980979,51.324299
Olmenstraat,8,,,4581AV,Vogelwaarde,Hulst,Zeeland,VBO,3.981079,51.324291
Olmenstraat,10,,,4581AV,Vogelwaarde,Hulst,Zeeland,VBO,3.981180,51.324283
Olmenstraat,12,,,4581AV,Vogelwaarde,Hulst,Zeeland,VBO,3.981238,51.324275
Olmenstraat,14,,,4581AV,Vogelwaarde,Hulst,Zeeland,VBO,3.981324,51.324258
Olmenstraat,16,,,4581AV,Vogelwaarde,Hulst,Zeeland,VBO,3.981411,51.324241
Olmenstraat,18,,,4581AV,Vogelwaarde,Hulst,Zeeland,VBO,3.982217,51.324143
Olmenstraat,20,,,4581AV,Vogelwaarde,Hulst,Zeeland,VBO,3.982303,51.324153
Olmenstraat,22,,,4581AV,Vogelwaarde,Hulst,Zeeland,VBO,3.982518,51.324165
Olmenstraat,24,,,4581AV,Vogelwaarde,Hulst,Zeeland,VBO,3.982604,51.324175
Olmenstraat,30,,,4581AV,Vogelwaarde,Hulst,Zeeland,VBO,3.983034,51.324171
Olmenstraat,32,,,4581AV,Vogelwaarde,Hulst,Zeeland,VBO,3.983307,51.324165
Olmenstraat,34,a,,4581AV,Vogelwaarde,Hulst,Zeeland,VBO,3.983567,51.324114
Olmenstraat,34,,,4581AV,Vogelwaarde,Hulst,Zeeland,VBO,3.983495,51.324132
Olmenstraat,36,a,,4581AV,Vogelwaarde,Hulst,Zeeland,VBO,3.983813,51.324063
Olmenstraat,36,,,4581AV,Vogelwaarde,Hulst,Zeeland,VBO,3.983740,51.324081
Olmenstraat,40,,,4581AV,Vogelwaarde,Hulst,Zeeland,VBO,3.984260,51.323979
Olmenstraat,42,a,,4581AV,Vogelwaarde,Hulst,Zeeland,VBO,3.984198,51.323673
Olmenstraat,42,,,4581AV,Vogelwaarde,Hulst,Zeeland,VBO,3.984238,51.323763
Olmenstraat,44,a,,4581AV,Vogelwaarde,Hulst,Zeeland,VBO,3.984216,51.323529
Olmenstraat,44,,,4581AV,Vogelwaarde,Hulst,Zeeland,VBO,3.984214,51.323601
Olmenstraat,46,,,4581AV,Vogelwaarde,Hulst,Zeeland,VBO,3.984206,51.323385
Elzenstraat,2,,,4581AW,Vogelwaarde,Hulst,Zeeland,VBO,3.979487,51.323831
Elzenstraat,3,,,4581AW,Vogelwaarde,Hulst,Zeeland,VBO,3.979252,51.324965
Elzenstraat,4,,,4581AW,Vogelwaarde,Hulst,Zeeland,VBO,3.979546,51.323778
Elzenstraat,5,,,4581AW,Vogelwaarde,Hulst,Zeeland,VBO,3.979731,51.325219
Elzenstraat,6,,,4581AW,Vogelwaarde,Hulst,Zeeland,VBO,3.979605,51.323716
Elzenstraat,7,,,4581AW,Vogelwaarde,Hulst,Zeeland,VBO,3.979922,51.325527
Elzenstraat,8,,,4581AW,Vogelwaarde,Hulst,Zeeland,VBO,3.979693,51.323645
Elzenstraat,10,,,4581AW,Vogelwaarde,Hulst,Zeeland,VBO,3.979622,51.324094
Elzenstraat,12,,,4581AW,Vogelwaarde,Hulst,Zeeland,VBO,3.979695,51.324041
Elzenstraat,14,,,4581AW,Vogelwaarde,Hulst,Zeeland,VBO,3.979755,51.323979
Elzenstraat,16,,,4581AW,Vogelwaarde,Hulst,Zeeland,VBO,3.979828,51.323925
Elzenstraat,17,,,4581AW,Vogelwaarde,Hulst,Zeeland,VBO,3.979626,51.325820
Elzenstraat,18,,,4581AW,Vogelwaarde,Hulst,Zeeland,VBO,3.979756,51.324392
Elzenstraat,19,,,4581AW,Vogelwaarde,Hulst,Zeeland,VBO,3.979750,51.325992
Elzenstraat,20,,,4581AW,Vogelwaarde,Hulst,Zeeland,VBO,3.979801,51.324339
Elzenstraat,21,,,4581AW,Vogelwaarde,Hulst,Zeeland,VBO,3.979846,51.326137
Elzenstraat,22,,,4581AW,Vogelwaarde,Hulst,Zeeland,VBO,3.979875,51.324277
Elzenstraat,23,,,4581AW,Vogelwaarde,Hulst,Zeeland,VBO,3.980099,51.326311
Elzenstraat,24,,,4581AW,Vogelwaarde,Hulst,Zeeland,VBO,3.979948,51.324215
Elzenstraat,25,,,4581AW,Vogelwaarde,Hulst,Zeeland,VBO,3.980120,51.326545
Elzenstraat,26,,,4581AW,Vogelwaarde,Hulst,Zeeland,VBO,3.979905,51.324673
Elzenstraat,27,,,4581AW,Vogelwaarde,Hulst,Zeeland,VBO,3.979848,51.326542
Elzenstraat,28,,,4581AW,Vogelwaarde,Hulst,Zeeland,VBO,3.979971,51.324871
Elzenstraat,29,,,4581AW,Vogelwaarde,Hulst,Zeeland,VBO,3.979604,51.326557
Elzenstraat,30,,,4581AW,Vogelwaarde,Hulst,Zeeland,VBO,3.980108,51.325080
Elzenstraat,31,,,4581AW,Vogelwaarde,Hulst,Zeeland,VBO,3.979396,51.326294
Elzenstraat,32,,,4581AW,Vogelwaarde,Hulst,Zeeland,VBO,3.980133,51.325197
Elzenstraat,33,,,4581AW,Vogelwaarde,Hulst,Zeeland,VBO,3.979383,51.326249
Elzenstraat,34,,,4581AW,Vogelwaarde,Hulst,Zeeland,VBO,3.980160,51.325260
Elzenstraat,35,,,4581AW,Vogelwaarde,Hulst,Zeeland,VBO,3.979288,51.326095
Elzenstraat,36,,,4581AW,Vogelwaarde,Hulst,Zeeland,VBO,3.980328,51.325406
Elzenstraat,37,,,4581AW,Vogelwaarde,Hulst,Zeeland,VBO,3.979207,51.325914
Elzenstraat,40,,,4581AW,Vogelwaarde,Hulst,Zeeland,VBO,3.979217,51.326543
Elzenstraat,42,,,4581AW,Vogelwaarde,Hulst,Zeeland,VBO,3.979049,51.326388
Elzenstraat,44,,,4581AW,Vogelwaarde,Hulst,Zeeland,VBO,3.978967,51.326252
Elzenstraat,46,,,4581AW,Vogelwaarde,Hulst,Zeeland,VBO,3.978940,51.326207
Elzenstraat,48,,,4581AW,Vogelwaarde,Hulst,Zeeland,VBO,3.978845,51.326044
Elzenstraat,50,,,4581AW,Vogelwaarde,Hulst,Zeeland,VBO,3.978817,51.325999
Elzenstraat,52,,,4581AW,Vogelwaarde,Hulst,Zeeland,VBO,3.978649,51.325871
Elzenstraat,54,,,4581AW,Vogelwaarde,Hulst,Zeeland,VBO,3.978622,51.325817
Elzenstraat,56,,,4581AW,Vogelwaarde,Hulst,Zeeland,VBO,3.978581,51.325735
Elzenstraat,58,,,4581AW,Vogelwaarde,Hulst,Zeeland,VBO,3.978540,51.325681
Schakeldreef,1,,,4581AX,Vogelwaarde,Hulst,Zeeland,VBO,3.979692,51.325560
Schakeldreef,3,a,,4581AX,Vogelwaarde,Hulst,Zeeland,VBO,3.979216,51.325626
Schakeldreef,3,,,4581AX,Vogelwaarde,Hulst,Zeeland,VBO,3.979403,51.325619
Schakeldreef,5,,,4581AX,Vogelwaarde,Hulst,Zeeland,VBO,3.979027,51.325714
Bossestraat,5,,,4581BA,Vogelwaarde,Hulst,Zeeland,VBO,3.985184,51.321922
Bossestraat,7,,,4581BA,Vogelwaarde,Hulst,Zeeland,VBO,3.984955,51.321911
Bossestraat,9,a,,4581BA,Vogelwaarde,Hulst,Zeeland,VBO,3.984675,51.321577
Bossestraat,9,,,4581BA,Vogelwaarde,Hulst,Zeeland,VBO,3.984808,51.322026
Bossestraat,13,,,4581BA,Vogelwaarde,Hulst,Zeeland,VBO,3.984534,51.322049
Bossestraat,17,,,4581BA,Vogelwaarde,Hulst,Zeeland,VBO,3.984187,51.322135
Bossestraat,19,a,,4581BA,Vogelwaarde,Hulst,Zeeland,VBO,3.983726,51.322202
Bossestraat,19,,,4581BA,Vogelwaarde,Hulst,Zeeland,VBO,3.984014,51.322169
Bossestraat,29,,,4581BA,Vogelwaarde,Hulst,Zeeland,VBO,3.977963,51.323444
Bossestraat,31,,,4581BA,Vogelwaarde,Hulst,Zeeland,VBO,3.977443,51.323555
Bossestraat,33,a,,4581BA,Vogelwaarde,Hulst,Zeeland,VBO,3.976908,51.323701
Bossestraat,33,b,,4581BA,Vogelwaarde,Hulst,Zeeland,VBO,3.976691,51.323762
Bossestraat,33,,,4581BA,Vogelwaarde,Hulst,Zeeland,VBO,3.977167,51.323669
Bossestraat,37,,,4581BA,Vogelwaarde,Hulst,Zeeland,VBO,3.976155,51.323935
Bossestraat,41,,,4581BA,Vogelwaarde,Hulst,Zeeland,VBO,3.975995,51.323987
Bossestraat,43,a,,4581BA,Vogelwaarde,Hulst,Zeeland,VBO,3.975650,51.324010
Bossestraat,43,b,,4581BA,Vogelwaarde,Hulst,Zeeland,VBO,3.975448,51.324052
Bossestraat,43,,,4581BA,Vogelwaarde,Hulst,Zeeland,VBO,3.975894,51.324013
Bossestraat,45,a,,4581BA,Vogelwaarde,Hulst,Zeeland,VBO,3.975044,51.324128
Bossestraat,45,,,4581BA,Vogelwaarde,Hulst,Zeeland,VBO,3.975246,51.324095
Bossestraat,47,,,4581BA,Vogelwaarde,Hulst,Zeeland,VBO,3.974753,51.324242
Bossestraat,49,a,,4581BA,Vogelwaarde,Hulst,Zeeland,VBO,3.974349,51.324345
Bossestraat,49,,,4581BA,Vogelwaarde,Hulst,Zeeland,VBO,3.974608,51.324294
Bossestraat,51,,,4581BB,Vogelwaarde,Hulst,Zeeland,VBO,3.973988,51.324403
Bossestraat,53,,,4581BB,Vogelwaarde,Hulst,Zeeland,VBO,3.973671,51.324453
Bossestraat,55,,,4581BB,Vogelwaarde,Hulst,Zeeland,VBO,3.973397,51.324477
Bossestraat,57,,,4581BB,Vogelwaarde,Hulst,Zeeland,VBO,3.972744,51.324262
Bossestraat,63,,,4581BB,Vogelwaarde,Hulst,Zeeland,VBO,3.972960,51.324687
Bossestraat,67,,,4581BB,Vogelwaarde,Hulst,Zeeland,VBO,3.972745,51.324712
Bossestraat,69,,,4581BB,Vogelwaarde,Hulst,Zeeland,VBO,3.972265,51.324454
Bossestraat,71,,,4581BB,Vogelwaarde,Hulst,Zeeland,VBO,3.972507,51.324502
Bossestraat,73,,,4581BB,Vogelwaarde,Hulst,Zeeland,VBO,3.972383,51.324806
Bossestraat,75,,,4581BB,Vogelwaarde,Hulst,Zeeland,VBO,3.972253,51.324832
Bossestraat,77,,,4581BB,Vogelwaarde,Hulst,Zeeland,VBO,3.971953,51.324774
Bossestraat,81,,,4581BB,Vogelwaarde,Hulst,Zeeland,VBO,3.971788,51.324846
Bossestraat,83,,,4581BB,Vogelwaarde,Hulst,Zeeland,VBO,3.971568,51.324837
Bossestraat,85,,,4581BB,Vogelwaarde,Hulst,Zeeland,VBO,3.971416,51.324992
Bossestraat,87,,,4581BB,Vogelwaarde,Hulst,Zeeland,VBO,3.971228,51.325035
Bossestraat,89,,,4581BB,Vogelwaarde,Hulst,Zeeland,VBO,3.971025,51.325086
Bossestraat,91,,,4581BB,Vogelwaarde,Hulst,Zeeland,VBO,3.970780,51.325146
Bossestraat,93,,,4581BB,Vogelwaarde,Hulst,Zeeland,VBO,3.970607,51.325171
Bossestraat,97,,,4581BB,Vogelwaarde,Hulst,Zeeland,VBO,3.970086,51.325300
Bossestraat,99,,,4581BB,Vogelwaarde,Hulst,Zeeland,VBO,3.969771,51.325296
Bossestraat,101,,,4581BC,Vogelwaarde,Hulst,Zeeland,VBO,3.969291,51.325479
Bossestraat,105,,,4581BC,Vogelwaarde,Hulst,Zeeland,VBO,3.969031,51.325557
Bossestraat,107,,,4581BC,Vogelwaarde,Hulst,Zeeland,VBO,3.968828,51.325608
Bossestraat,109,,,4581BC,Vogelwaarde,Hulst,Zeeland,VBO,3.968554,51.325659
Bossestraat,111,,,4581BC,Vogelwaarde,Hulst,Zeeland,VBO,3.968421,51.325681
Bossestraat,113,a,,4581BC,Vogelwaarde,Hulst,Zeeland,VBO,3.967935,51.325490
Bossestraat,113,,,4581BC,Vogelwaarde,Hulst,Zeeland,VBO,3.968316,51.325704
Bossestraat,115,,,4581BC,Vogelwaarde,Hulst,Zeeland,VBO,3.967875,51.325821
Bossestraat,117,,,4581BC,Vogelwaarde,Hulst,Zeeland,VBO,3.967745,51.325847
Bossestraat,119,,,4581BC,Vogelwaarde,Hulst,Zeeland,VBO,3.967659,51.325845
Bossestraat,121,a,,4581BC,Vogelwaarde,Hulst,Zeeland,VBO,3.967298,51.325913
Bossestraat,121,,,4581BC,Vogelwaarde,Hulst,Zeeland,VBO,3.967442,51.325888
Bossestraat,123,,,4581BC,Vogelwaarde,Hulst,Zeeland,VBO,3.967167,51.325965
Bossestraat,125,,,4581BC,Vogelwaarde,Hulst,Zeeland,VBO,3.967066,51.325982
Bossestraat,129,,,4581BC,Vogelwaarde,Hulst,Zeeland,VBO,3.966892,51.326043
Bossestraat,131,,,4581BC,Vogelwaarde,Hulst,Zeeland,VBO,3.966661,51.326094
Bossestraat,133,,,4581BC,Vogelwaarde,Hulst,Zeeland,VBO,3.966386,51.326154
Bossestraat,135,a,,4581BC,Vogelwaarde,Hulst,Zeeland,VBO,3.966041,51.326203
Bossestraat,135,,,4581BC,Vogelwaarde,Hulst,Zeeland,VBO,3.966198,51.326205
Bossestraat,137,,,4581BC,Vogelwaarde,Hulst,Zeeland,VBO,3.965853,51.326246
Bossestraat,139,,,4581BC,Vogelwaarde,Hulst,Zeeland,VBO,3.965678,51.326325
Bossestraat,145,,,4581BC,Vogelwaarde,Hulst,Zeeland,VBO,3.962358,51.321439
Bossestraat,147,,,4581BC,Vogelwaarde,Hulst,Zeeland,VBO,3.964625,51.326519
Bossestraat,149,,,4581BC,Vogelwaarde,Hulst,Zeeland,VBO,3.963976,51.326619
Bossestraat,155,A,,4581BD,Vogelwaarde,Hulst,Zeeland,VBO,3.962602,51.326372
Bossestraat,155,,,4581BD,Vogelwaarde,Hulst,Zeeland,VBO,3.962843,51.326146
Bossestraat,157,,,4581BD,Vogelwaarde,Hulst,Zeeland,VBO,3.962139,51.327073
Bossestraat,159,,,4581BD,Vogelwaarde,Hulst,Zeeland,VBO,3.961892,51.327177
Bossestraat,161,a,,4581BD,Vogelwaarde,Hulst,Zeeland,VBO,3.961288,51.327224
Bossestraat,161,,,4581BD,Vogelwaarde,Hulst,Zeeland,VBO,3.961618,51.327228
Bossestraat,163,,,4581BD,Vogelwaarde,Hulst,Zeeland,VBO,3.961112,51.327357
Bossestraat,165,,,4581BD,Vogelwaarde,Hulst,Zeeland,VBO,3.960736,51.327442
Bossestraat,169,,,4581BD,Vogelwaarde,Hulst,Zeeland,VBO,3.960285,51.327167
Bossestraat,171,,,4581BD,Vogelwaarde,Hulst,Zeeland,VBO,3.960407,51.327402
Bossestraat,173,,,4581BD,Vogelwaarde,Hulst,Zeeland,VBO,3.960144,51.327552
Bossestraat,2,,,4581BE,Vogelwaarde,Hulst,Zeeland,VBO,3.985280,51.322067
Bossestraat,4,,,4581BE,Vogelwaarde,Hulst,Zeeland,VBO,3.985261,51.322406
Bossestraat,6,a,,4581BE,Vogelwaarde,Hulst,Zeeland,VBO,3.984426,51.322309
Bossestraat,6,,,4581BE,Vogelwaarde,Hulst,Zeeland,VBO,3.984513,51.322274
Bossestraat,8,,,4581BE,Vogelwaarde,Hulst,Zeeland,VBO,3.984282,51.322334
Bossestraat,10,,,4581BE,Vogelwaarde,Hulst,Zeeland,VBO,3.984109,51.322359
Bossestraat,12,,,4581BE,Vogelwaarde,Hulst,Zeeland,VBO,3.983979,51.322393
Bossestraat,14,,,4581BE,Vogelwaarde,Hulst,Zeeland,VBO,3.983820,51.322427
Bossestraat,18,,,4581BE,Vogelwaarde,Hulst,Zeeland,VBO,3.983545,51.322505
Bossestraat,24,,,4581BE,Vogelwaarde,Hulst,Zeeland,VBO,3.983357,51.322557
Bossestraat,30,a,,4581BE,Vogelwaarde,Hulst,Zeeland,VBO,3.982373,51.322806
Bossestraat,30,b,,4581BE,Vogelwaarde,Hulst,Zeeland,VBO,3.982272,51.322831
Bossestraat,30,,,4581BE,Vogelwaarde,Hulst,Zeeland,VBO,3.982743,51.322918
Bossestraat,32,a,,4581BE,Vogelwaarde,Hulst,Zeeland,VBO,3.982012,51.322882
Bossestraat,32,,,4581BE,Vogelwaarde,Hulst,Zeeland,VBO,3.982114,51.322856
Bossestraat,34,a,,4581BE,Vogelwaarde,Hulst,Zeeland,VBO,3.981130,51.323123
Bossestraat,34,,,4581BE,Vogelwaarde,Hulst,Zeeland,VBO,3.981217,51.323088
Bossestraat,36,a,,4581BE,Vogelwaarde,Hulst,Zeeland,VBO,3.980826,51.323209
Bossestraat,36,,,4581BE,Vogelwaarde,Hulst,Zeeland,VBO,3.980913,51.323174
Bossestraat,38,a,,4581BE,Vogelwaarde,Hulst,Zeeland,VBO,3.980580,51.323260
Bossestraat,38,b,,4581BE,Vogelwaarde,Hulst,Zeeland,VBO,3.980378,51.323294
Bossestraat,38,,,4581BE,Vogelwaarde,Hulst,Zeeland,VBO,3.980667,51.323225
Bossestraat,40,,,4581BG,Vogelwaarde,Hulst,Zeeland,VBO,3.980004,51.323334
Bossestraat,42,a,,4581BG,Vogelwaarde,Hulst,Zeeland,VBO,3.979671,51.323429
Bossestraat,42,b,,4581BG,Vogelwaarde,Hulst,Zeeland,VBO,3.979484,51.323463
Bossestraat,42,,,4581BG,Vogelwaarde,Hulst,Zeeland,VBO,3.979816,51.323377
Bossestraat,44,,,4581BG,Vogelwaarde,Hulst,Zeeland,VBO,3.979296,51.323497
Bossestraat,46,a,,4581BG,Vogelwaarde,Hulst,Zeeland,VBO,3.976088,51.324231
Bossestraat,46,b,,4581BG,Vogelwaarde,Hulst,Zeeland,VBO,3.976348,51.324171
Bossestraat,46,,,4581BG,Vogelwaarde,Hulst,Zeeland,VBO,3.977776,51.323928
Bossestraat,48,,,4581BG,Vogelwaarde,Hulst,Zeeland,VBO,3.975887,51.324255
Bossestraat,50,a,,4581BG,Vogelwaarde,Hulst,Zeeland,VBO,3.975337,51.324393
Bossestraat,50,,,4581BG,Vogelwaarde,Hulst,Zeeland,VBO,3.975568,51.324332
Bossestraat,52,,,4581BG,Vogelwaarde,Hulst,Zeeland,VBO,3.975049,51.324416
Bossestraat,54,,,4581BG,Vogelwaarde,Hulst,Zeeland,VBO,3.974832,51.324476
Bossestraat,56,,,4581BG,Vogelwaarde,Hulst,Zeeland,VBO,3.974643,51.324564
Bossestraat,60,,,4581BG,Vogelwaarde,Hulst,Zeeland,VBO,3.974240,51.324595
Bossestraat,62,,,4581BG,Vogelwaarde,Hulst,Zeeland,VBO,3.973965,51.324682
Bossestraat,64,,,4581BG,Vogelwaarde,Hulst,Zeeland,VBO,3.973690,51.324750
Bossestraat,66,a,,4581BG,Vogelwaarde,Hulst,Zeeland,VBO,3.972983,51.324894
Bossestraat,66,,,4581BG,Vogelwaarde,Hulst,Zeeland,VBO,3.973199,51.324870
Bossestraat,68,,,4581BG,Vogelwaarde,Hulst,Zeeland,VBO,3.972781,51.324928
Bossestraat,72,,,4581BG,Vogelwaarde,Hulst,Zeeland,VBO,3.972550,51.324979
Bossestraat,74,,,4581BG,Vogelwaarde,Hulst,Zeeland,VBO,3.972246,51.325065
Bossestraat,78,,,4581BG,Vogelwaarde,Hulst,Zeeland,VBO,3.972070,51.325189
Bossestraat,80,,,4581BG,Vogelwaarde,Hulst,Zeeland,VBO,3.971855,51.325159
Bossestraat,82,,,4581BG,Vogelwaarde,Hulst,Zeeland,VBO,3.971697,51.325175
Bossestraat,86,,,4581BG,Vogelwaarde,Hulst,Zeeland,VBO,3.971206,51.325268
Bossestraat,90,,,4581BG,Vogelwaarde,Hulst,Zeeland,VBO,3.970700,51.325397
Bossestraat,94,,,4581BG,Vogelwaarde,Hulst,Zeeland,VBO,3.970541,51.325449
Bossestraat,98,,,4581BG,Vogelwaarde,Hulst,Zeeland,VBO,3.970368,51.325474
Bossestraat,100,,,4581BH,Vogelwaarde,Hulst,Zeeland,VBO,3.970224,51.325490
Bossestraat,108,,,4581BH,Vogelwaarde,Hulst,Zeeland,VBO,3.969531,51.325626
Bossestraat,110,,,4581BH,Vogelwaarde,Hulst,Zeeland,VBO,3.969284,51.325721
Bossestraat,112,a,,4581BH,Vogelwaarde,Hulst,Zeeland,VBO,3.968370,51.326052
Bossestraat,112,,,4581BH,Vogelwaarde,Hulst,Zeeland,VBO,3.968835,51.325860
Bossestraat,114,,,4581BH,Vogelwaarde,Hulst,Zeeland,VBO,3.967951,51.326146
Bossestraat,116,,,4581BH,Vogelwaarde,Hulst,Zeeland,VBO,3.967474,51.326248
Bossestraat,118,,,4581BH,Vogelwaarde,Hulst,Zeeland,VBO,3.966620,51.326480
Bossestraat,122,,,4581BH,Vogelwaarde,Hulst,Zeeland,VBO,3.965685,51.326568
Bossestraat,124,,,4581BH,Vogelwaarde,Hulst,Zeeland,VBO,3.965511,51.326610
Bossestraat,126,a,,4581BH,Vogelwaarde,Hulst,Zeeland,VBO,3.965090,51.326785
Bossestraat,126,b,,4581BH,Vogelwaarde,Hulst,Zeeland,VBO,3.964752,51.326870
Bossestraat,126,d,,4581BH,Vogelwaarde,Hulst,Zeeland,VBO,3.964179,51.326976
Bossestraat,126,,,4581BH,Vogelwaarde,Hulst,Zeeland,VBO,3.965338,51.326653
Bossestraat,128,,,4581BH,Vogelwaarde,Hulst,Zeeland,VBO,3.963258,51.327077
Bossestraat,132,,,4581BH,Vogelwaarde,Hulst,Zeeland,VBO,3.962839,51.327180
Bossestraat,134,,,4581BH,Vogelwaarde,Hulst,Zeeland,VBO,3.962362,51.327282
Bossestraat,136,,,4581BH,Vogelwaarde,Hulst,Zeeland,VBO,3.962059,51.327359
Bossestraat,138,,,4581BH,Vogelwaarde,Hulst,Zeeland,VBO,3.961712,51.327427
Bossestraat,140,,,4581BH,Vogelwaarde,Hulst,Zeeland,VBO,3.961582,51.327461
Bossestraat,142,,,4581BH,Vogelwaarde,Hulst,Zeeland,VBO,3.961048,51.327554
Bossestraat,144,,,4581BH,Vogelwaarde,Hulst,Zeeland,VBO,3.960773,51.327622
Bossestraat,148,,,4581BH,Vogelwaarde,Hulst,Zeeland,VBO,3.960251,51.327823
Bossestraat,150,,,4581BH,Vogelwaarde,Hulst,Zeeland,VBO,3.960022,51.327775
Bossestraat,152,,,4581BH,Vogelwaarde,Hulst,Zeeland,VBO,3.959876,51.327854
Kastanjestraat,1,,,4581BJ,Vogelwaarde,Hulst,Zeeland,VBO,3.974129,51.324935
Kastanjestraat,2,,,4581BJ,Vogelwaarde,Hulst,Zeeland,VBO,3.974492,51.324814
Kastanjestraat,3,,,4581BJ,Vogelwaarde,Hulst,Zeeland,VBO,3.974156,51.324990
Kastanjestraat,4,,,4581BJ,Vogelwaarde,Hulst,Zeeland,VBO,3.974546,51.324922
Kastanjestraat,6,,,4581BJ,Vogelwaarde,Hulst,Zeeland,VBO,3.974543,51.325030
Kastanjestraat,8,,,4581BJ,Vogelwaarde,Hulst,Zeeland,VBO,3.974555,51.325093
Kastanjestraat,10,,,4581BJ,Vogelwaarde,Hulst,Zeeland,VBO,3.974596,51.325157
Kastanjestraat,12,,,4581BJ,Vogelwaarde,Hulst,Zeeland,VBO,3.974652,51.325193
Kastanjestraat,14,,,4581BJ,Vogelwaarde,Hulst,Zeeland,VBO,3.974791,51.325357
Kastanjestraat,16,,,4581BJ,Vogelwaarde,Hulst,Zeeland,VBO,3.974844,51.325492
Kastanjestraat,18,,,4581BJ,Vogelwaarde,Hulst,Zeeland,VBO,3.974911,51.325628
Kastanjestraat,20,,,4581BJ,Vogelwaarde,Hulst,Zeeland,VBO,3.974993,51.325782
Kastanjestraat,22,,,4581BJ,Vogelwaarde,Hulst,Zeeland,VBO,3.975089,51.325936
Acaciastraat,1,,,4581BK,Vogelwaarde,Hulst,Zeeland,VBO,3.973882,51.325058
Acaciastraat,3,,,4581BK,Vogelwaarde,Hulst,Zeeland,VBO,3.973823,51.325084
Acaciastraat,5,,,4581BK,Vogelwaarde,Hulst,Zeeland,VBO,3.973723,51.325092
Acaciastraat,7,,,4581BK,Vogelwaarde,Hulst,Zeeland,VBO,3.973665,51.325109
Acaciastraat,9,,,4581BK,Vogelwaarde,Hulst,Zeeland,VBO,3.973535,51.325135
Acaciastraat,11,,,4581BK,Vogelwaarde,Hulst,Zeeland,VBO,3.973463,51.325152
Acaciastraat,13,,,4581BK,Vogelwaarde,Hulst,Zeeland,VBO,3.973405,51.325169
Acaciastraat,15,,,4581BK,Vogelwaarde,Hulst,Zeeland,VBO,3.973289,51.325195
Acaciastraat,17,,,4581BK,Vogelwaarde,Hulst,Zeeland,VBO,3.973217,51.325212
Acaciastraat,19,,,4581BK,Vogelwaarde,Hulst,Zeeland,VBO,3.973144,51.325238
Acaciastraat,21,,,4581BK,Vogelwaarde,Hulst,Zeeland,VBO,3.973072,51.325255
Acaciastraat,23,,,4581BK,Vogelwaarde,Hulst,Zeeland,VBO,3.972985,51.325272
Acaciastraat,2,,,4581BL,Vogelwaarde,Hulst,Zeeland,VBO,3.974163,51.325241
Acaciastraat,6,,,4581BL,Vogelwaarde,Hulst,Zeeland,VBO,3.973976,51.325248
Acaciastraat,8,,,4581BL,Vogelwaarde,Hulst,Zeeland,VBO,3.973904,51.325265
Acaciastraat,10,,,4581BL,Vogelwaarde,Hulst,Zeeland,VBO,3.973846,51.325282
Acaciastraat,12,,,4581BL,Vogelwaarde,Hulst,Zeeland,VBO,3.973788,51.325309
Acaciastraat,14,,,4581BL,Vogelwaarde,Hulst,Zeeland,VBO,3.973701,51.325326
Acaciastraat,16,,,4581BL,Vogelwaarde,Hulst,Zeeland,VBO,3.973615,51.325343
Acaciastraat,18,,,4581BL,Vogelwaarde,Hulst,Zeeland,VBO,3.973470,51.325368
Acaciastraat,20,,,4581BL,Vogelwaarde,Hulst,Zeeland,VBO,3.973384,51.325385
Acaciastraat,22,,,4581BL,Vogelwaarde,Hulst,Zeeland,VBO,3.973326,51.325393
Acaciastraat,24,,,4581BL,Vogelwaarde,Hulst,Zeeland,VBO,3.973239,51.325419
Acaciastraat,26,,,4581BL,Vogelwaarde,Hulst,Zeeland,VBO,3.973167,51.325445
Acaciastraat,28,,,4581BL,Vogelwaarde,Hulst,Zeeland,VBO,3.973080,51.325462
Lindenstraat,1,,,4581BM,Vogelwaarde,Hulst,Zeeland,VBO,3.974413,51.325496
Lindenstraat,3,,,4581BM,Vogelwaarde,Hulst,Zeeland,VBO,3.974312,51.325522
Lindenstraat,5,,,4581BM,Vogelwaarde,Hulst,Zeeland,VBO,3.974254,51.325530
Lindenstraat,7,,,4581BM,Vogelwaarde,Hulst,Zeeland,VBO,3.974167,51.325565
Lindenstraat,9,,,4581BM,Vogelwaarde,Hulst,Zeeland,VBO,3.974023,51.325599
Lindenstraat,11,,,4581BM,Vogelwaarde,Hulst,Zeeland,VBO,3.973936,51.325616
Lindenstraat,13,,,4581BM,Vogelwaarde,Hulst,Zeeland,VBO,3.973864,51.325633
Lindenstraat,15,,,4581BM,Vogelwaarde,Hulst,Zeeland,VBO,3.973792,51.325650
Lindenstraat,17,,,4581BM,Vogelwaarde,Hulst,Zeeland,VBO,3.973705,51.325676
Lindenstraat,19,,,4581BM,Vogelwaarde,Hulst,Zeeland,VBO,3.973632,51.325693
Lindenstraat,21,,,4581BM,Vogelwaarde,Hulst,Zeeland,VBO,3.973546,51.325719
Lindenstraat,23,,,4581BM,Vogelwaarde,Hulst,Zeeland,VBO,3.973459,51.325745
Lindenstraat,25,,,4581BM,Vogelwaarde,Hulst,Zeeland,VBO,3.973224,51.325913
Lindenstraat,27,,,4581BM,Vogelwaarde,Hulst,Zeeland,VBO,3.973193,51.325976
Lindenstraat,29,,,4581BM,Vogelwaarde,Hulst,Zeeland,VBO,3.973206,51.326039
Lindenstraat,31,,,4581BM,Vogelwaarde,Hulst,Zeeland,VBO,3.973204,51.326084
Lindenstraat,2,,,4581BN,Vogelwaarde,Hulst,Zeeland,VBO,3.974550,51.325714
Lindenstraat,4,,,4581BN,Vogelwaarde,Hulst,Zeeland,VBO,3.974434,51.325748
Lindenstraat,6,,,4581BN,Vogelwaarde,Hulst,Zeeland,VBO,3.974362,51.325756
Lindenstraat,8,,,4581BN,Vogelwaarde,Hulst,Zeeland,VBO,3.974304,51.325773
Lindenstraat,10,,,4581BN,Vogelwaarde,Hulst,Zeeland,VBO,3.974246,51.325791
Lindenstraat,12,,,4581BN,Vogelwaarde,Hulst,Zeeland,VBO,3.974145,51.325816
Lindenstraat,14,,,4581BN,Vogelwaarde,Hulst,Zeeland,VBO,3.974000,51.325860
Lindenstraat,16,,,4581BN,Vogelwaarde,Hulst,Zeeland,VBO,3.973928,51.325877
Lindenstraat,18,,,4581BN,Vogelwaarde,Hulst,Zeeland,VBO,3.973856,51.325894
Lindenstraat,20,,,4581BN,Vogelwaarde,Hulst,Zeeland,VBO,3.973784,51.325911
Lindenstraat,22,,,4581BN,Vogelwaarde,Hulst,Zeeland,VBO,3.973697,51.325928
Lindenstraat,24,,,4581BN,Vogelwaarde,Hulst,Zeeland,VBO,3.973595,51.325963
Azaleastraat,1,,,4581BP,Vogelwaarde,Hulst,Zeeland,VBO,3.972367,51.325327
Azaleastraat,2,,,4581BP,Vogelwaarde,Hulst,Zeeland,VBO,3.972699,51.325242
Azaleastraat,3,,,4581BP,Vogelwaarde,Hulst,Zeeland,VBO,3.972394,51.325382
Azaleastraat,4,,,4581BP,Vogelwaarde,Hulst,Zeeland,VBO,3.972726,51.325305
Azaleastraat,5,,,4581BP,Vogelwaarde,Hulst,Zeeland,VBO,3.972404,51.325517
Azaleastraat,6,,,4581BP,Vogelwaarde,Hulst,Zeeland,VBO,3.972703,51.325574
Azaleastraat,7,,,4581BP,Vogelwaarde,Hulst,Zeeland,VBO,3.972359,51.325570
Azaleastraat,8,,,4581BP,Vogelwaarde,Hulst,Zeeland,VBO,3.972701,51.325655
Azaleastraat,9,,,4581BP,Vogelwaarde,Hulst,Zeeland,VBO,3.972299,51.325677
Azaleastraat,10,,,4581BP,Vogelwaarde,Hulst,Zeeland,VBO,3.972713,51.325718
Azaleastraat,11,,,4581BP,Vogelwaarde,Hulst,Zeeland,VBO,3.972254,51.325731
Azaleastraat,12,,,4581BP,Vogelwaarde,Hulst,Zeeland,VBO,3.972682,51.325790
Azaleastraat,14,,,4581BP,Vogelwaarde,Hulst,Zeeland,VBO,3.972666,51.325843
Azaleastraat,16,,,4581BP,Vogelwaarde,Hulst,Zeeland,VBO,3.972664,51.325915
Azaleastraat,18,,,4581BP,Vogelwaarde,Hulst,Zeeland,VBO,3.972663,51.325960
Populierenstraat,1,,,4581BR,Vogelwaarde,Hulst,Zeeland,VBO,3.971425,51.326071
Populierenstraat,15,,,4581BR,Vogelwaarde,Hulst,Zeeland,VBO,3.973116,51.326622
Populierenstraat,17,,,4581BR,Vogelwaarde,Hulst,Zeeland,VBO,3.973388,51.326643
Populierenstraat,19,,,4581BR,Vogelwaarde,Hulst,Zeeland,VBO,3.973951,51.326533
Populierenstraat,21,,,4581BR,Vogelwaarde,Hulst,Zeeland,VBO,3.974182,51.326482
Populierenstraat,23,,,4581BR,Vogelwaarde,Hulst,Zeeland,VBO,3.974456,51.326423
Populierenstraat,25,,,4581BR,Vogelwaarde,Hulst,Zeeland,VBO,3.974962,51.326330
Populierenstraat,27,,,4581BR,Vogelwaarde,Hulst,Zeeland,VBO,3.975280,51.326253
Populierenstraat,31,,,4581BR,Vogelwaarde,Hulst,Zeeland,VBO,3.975844,51.326107
Populierenstraat,33,,,4581BR,Vogelwaarde,Hulst,Zeeland,VBO,3.976147,51.326048
Populierenstraat,35,,,4581BR,Vogelwaarde,Hulst,Zeeland,VBO,3.976364,51.325996
Populierenstraat,39,,,4581BR,Vogelwaarde,Hulst,Zeeland,VBO,3.977330,51.326314
Populierenstraat,41,,,4581BR,Vogelwaarde,Hulst,Zeeland,VBO,3.978023,51.325711
Populierenstraat,43,,,4581BR,Vogelwaarde,Hulst,Zeeland,VBO,3.978316,51.325507
Populierenstraat,45,,,4581BR,Vogelwaarde,Hulst,Zeeland,VBO,3.978821,51.325397
Populierenstraat,47,,,4581BR,Vogelwaarde,Hulst,Zeeland,VBO,3.978908,51.325380
Populierenstraat,49,,,4581BR,Vogelwaarde,Hulst,Zeeland,VBO,3.979096,51.325346
Populierenstraat,51,,,4581BR,Vogelwaarde,Hulst,Zeeland,VBO,3.979197,51.325329
Populierenstraat,53,,,4581BR,Vogelwaarde,Hulst,Zeeland,VBO,3.979356,51.325277
Populierenstraat,55,,,4581BR,Vogelwaarde,Hulst,Zeeland,VBO,3.979457,51.325261
Populierenstraat,2,,,4581BS,Vogelwaarde,Hulst,Zeeland,VBO,3.971962,51.325880
Populierenstraat,4,,,4581BS,Vogelwaarde,Hulst,Zeeland,VBO,3.972162,51.325900
Populierenstraat,6,,,4581BS,Vogelwaarde,Hulst,Zeeland,VBO,3.972689,51.326051
Populierenstraat,8,,,4581BS,Vogelwaarde,Hulst,Zeeland,VBO,3.972701,51.326105
Populierenstraat,10,,,4581BS,Vogelwaarde,Hulst,Zeeland,VBO,3.972714,51.326159
Populierenstraat,12,,,4581BS,Vogelwaarde,Hulst,Zeeland,VBO,3.972726,51.326222
Populierenstraat,14,,,4581BS,Vogelwaarde,Hulst,Zeeland,VBO,3.973041,51.326262
Populierenstraat,16,,,4581BS,Vogelwaarde,Hulst,Zeeland,VBO,3.973112,51.326271
Populierenstraat,30,,,4581BS,Vogelwaarde,Hulst,Zeeland,VBO,3.973544,51.326250
Populierenstraat,32,,,4581BS,Vogelwaarde,Hulst,Zeeland,VBO,3.973802,51.326253
Populierenstraat,34,,,4581BS,Vogelwaarde,Hulst,Zeeland,VBO,3.974004,51.326210
Populierenstraat,36,,,4581BS,Vogelwaarde,Hulst,Zeeland,VBO,3.974076,51.326193
Populierenstraat,38,,,4581BS,Vogelwaarde,Hulst,Zeeland,VBO,3.974293,51.326142
Populierenstraat,40,,,4581BS,Vogelwaarde,Hulst,Zeeland,VBO,3.974380,51.326116
Populierenstraat,42,,,4581BS,Vogelwaarde,Hulst,Zeeland,VBO,3.974567,51.326082
Populierenstraat,44,,,4581BS,Vogelwaarde,Hulst,Zeeland,VBO,3.974669,51.326057
Populierenstraat,46,,,4581BS,Vogelwaarde,Hulst,Zeeland,VBO,3.975812,51.325747
Beukenstraat,1,,,4581BT,Vogelwaarde,Hulst,Zeeland,VBO,3.974161,51.326707
Beukenstraat,3,,,4581BT,Vogelwaarde,Hulst,Zeeland,VBO,3.974215,51.326806
Beukenstraat,4,,,4581BT,Vogelwaarde,Hulst,Zeeland,VBO,3.973596,51.326862
Beukenstraat,5,,,4581BT,Vogelwaarde,Hulst,Zeeland,VBO,3.974224,51.326977
Beukenstraat,6,,,4581BT,Vogelwaarde,Hulst,Zeeland,VBO,3.973350,51.326931
Beukenstraat,7,,,4581BT,Vogelwaarde,Hulst,Zeeland,VBO,3.973774,51.327142
Beukenstraat,8,,,4581BT,Vogelwaarde,Hulst,Zeeland,VBO,3.973076,51.326981
Beukenstraat,9,,,4581BT,Vogelwaarde,Hulst,Zeeland,VBO,3.973500,51.327193
Beukenstraat,10,,,4581BT,Vogelwaarde,Hulst,Zeeland,VBO,3.973011,51.327214
Beukenstraat,11,,,4581BT,Vogelwaarde,Hulst,Zeeland,VBO,3.973278,51.327415
Beukenstraat,12,,,4581BT,Vogelwaarde,Hulst,Zeeland,VBO,3.973034,51.327412
Kerkstraat,3,,,4581BV,Vogelwaarde,Hulst,Zeeland,VBO,3.971273,51.325449
Kerkstraat,5,,,4581BV,Vogelwaarde,Hulst,Zeeland,VBO,3.971284,51.325548
Kerkstraat,7,,,4581BV,Vogelwaarde,Hulst,Zeeland,VBO,3.971311,51.325602
Kerkstraat,9,,,4581BV,Vogelwaarde,Hulst,Zeeland,VBO,3.971132,51.325807
Kerkstraat,11,,,4581BV,Vogelwaarde,Hulst,Zeeland,VBO,3.971157,51.325942
Kerkstraat,13,,,4581BV,Vogelwaarde,Hulst,Zeeland,VBO,3.970890,51.326217
Kerkstraat,15,,,4581BV,Vogelwaarde,Hulst,Zeeland,VBO,3.970584,51.326376
Kerkstraat,17,,,4581BV,Vogelwaarde,Hulst,Zeeland,VBO,3.971009,51.326534
Kerkstraat,21,,,4581BV,Vogelwaarde,Hulst,Zeeland,VBO,3.970915,51.326802
Kerkstraat,23,,,4581BV,Vogelwaarde,Hulst,Zeeland,VBO,3.970856,51.326855
Kerkstraat,25,,,4581BV,Vogelwaarde,Hulst,Zeeland,VBO,3.970826,51.326900
Kerkstraat,27,,,4581BV,Vogelwaarde,Hulst,Zeeland,VBO,3.970225,51.327315
Kerkstraat,2,a,,4581BW,Vogelwaarde,Hulst,Zeeland,VBO,3.971535,51.325308
Kerkstraat,2,b,,4581BW,Vogelwaarde,Hulst,Zeeland,VBO,3.971546,51.325425
Kerkstraat,2,,,4581BW,Vogelwaarde,Hulst,Zeeland,VBO,3.971537,51.325245
Kerkstraat,4,,,4581BW,Vogelwaarde,Hulst,Zeeland,VBO,3.971498,51.325569
Kerkstraat,6,,,4581BW,Vogelwaarde,Hulst,Zeeland,VBO,3.971496,51.325631
Kerkstraat,8,,,4581BW,Vogelwaarde,Hulst,Zeeland,VBO,3.971505,51.325820
Kerkstraat,14,,,4581BW,Vogelwaarde,Hulst,Zeeland,VBO,3.971363,51.326241
Kerkstraat,16,,,4581BW,Vogelwaarde,Hulst,Zeeland,VBO,3.971331,51.326340
Kerkstraat,20,,,4581BW,Vogelwaarde,Hulst,Zeeland,VBO,3.971285,51.326447
Kerkstraat,24,,,4581BW,Vogelwaarde,Hulst,Zeeland,VBO,3.971220,51.326671
Kerkstraat,26,,,4581BW,Vogelwaarde,Hulst,Zeeland,VBO,3.971203,51.326770
Kerkstraat,28,,,4581BW,Vogelwaarde,Hulst,Zeeland,VBO,3.971141,51.326904
Kerkstraat,30,,,4581BW,Vogelwaarde,Hulst,Zeeland,VBO,3.970892,51.327089
Kerkstraat,32,,,4581BW,Vogelwaarde,Hulst,Zeeland,VBO,3.970858,51.327260
Kerkstraat,34,,,4581BW,Vogelwaarde,Hulst,Zeeland,VBO,3.970611,51.327365
Kerkstraat,36,,,4581BW,Vogelwaarde,Hulst,Zeeland,VBO,3.970509,51.327408
Kerkstraat,38,,,4581BW,Vogelwaarde,Hulst,Zeeland,VBO,3.970174,51.327575
Kerkhofpad,1,a,,4581BX,Vogelwaarde,Hulst,Zeeland,VBO,3.970228,51.325832
Kerkhofpad,1,,,4581BX,Vogelwaarde,Hulst,Zeeland,VBO,3.970218,51.325688
Kerkhofpad,3,a,,4581BX,Vogelwaarde,Hulst,Zeeland,VBO,3.970200,51.326263
Kerkhofpad,3,b,,4581BX,Vogelwaarde,Hulst,Zeeland,VBO,3.970212,51.326326
Kerkhofpad,3,c,,4581BX,Vogelwaarde,Hulst,Zeeland,VBO,3.970204,51.326587
Kerkhofpad,3,,,4581BX,Vogelwaarde,Hulst,Zeeland,VBO,3.970223,51.325985
Kerkhofpad,5,a,,4581BX,Vogelwaarde,Hulst,Zeeland,VBO,3.970182,51.326847
Kerkhofpad,5,,,4581BX,Vogelwaarde,Hulst,Zeeland,VBO,3.970246,51.326737
Kerkhofpad,7,,,4581BX,Vogelwaarde,Hulst,Zeeland,VBO,3.970165,51.326928
Kerkhofpad,9,a,,4581BX,Vogelwaarde,Hulst,Zeeland,VBO,3.970172,51.327162
Kerkhofpad,9,,,4581BX,Vogelwaarde,Hulst,Zeeland,VBO,3.970161,51.327063
Kerkhofpad,10,,,4581BZ,Vogelwaarde,Hulst,Zeeland,VBO,3.969832,51.326555
Kerkhofpad,18,a,,4581BZ,Vogelwaarde,Hulst,Zeeland,VBO,3.969866,51.326852
Kerkhofpad,18,,,4581BZ,Vogelwaarde,Hulst,Zeeland,VBO,3.969870,51.326717
Kerkhofpad,20,,,4581BZ,Vogelwaarde,Hulst,Zeeland,VBO,3.969847,51.326987
Kerkhofpad,22,a,,4581BZ,Vogelwaarde,Hulst,Zeeland,VBO,3.969839,51.327256
Kerkhofpad,22,,,4581BZ,Vogelwaarde,Hulst,Zeeland,VBO,3.969858,51.327095
Kerkhofpad,24,,,4581BZ,Vogelwaarde,Hulst,Zeeland,VBO,3.969836,51.327364
Kerkhofpad,26,,,4581BZ,Vogelwaarde,Hulst,Zeeland,VBO,3.969794,51.327795
Bossepad,1,,,4581CA,Vogelwaarde,Hulst,Zeeland,VBO,3.970496,51.329656
Bossepad,3,,,4581CA,Vogelwaarde,Hulst,Zeeland,VBO,3.970027,51.329983
Kerkdreef,1,a,,4581CB,Vogelwaarde,Hulst,Zeeland,VBO,3.970217,51.324789
Kerkdreef,1,b,,4581CB,Vogelwaarde,Hulst,Zeeland,VBO,3.970135,51.324662
Kerkdreef,1,c,,4581CB,Vogelwaarde,Hulst,Zeeland,VBO,3.970093,51.324608
Kerkdreef,1,,,4581CB,Vogelwaarde,Hulst,Zeeland,VBO,3.970255,51.324942
Kerkdreef,2,,,4581CB,Vogelwaarde,Hulst,Zeeland,VBO,3.969895,51.324974
Kerkdreef,3,,,4581CB,Vogelwaarde,Hulst,Zeeland,VBO,3.970034,51.324495
Kerkdreef,4,,,4581CB,Vogelwaarde,Hulst,Zeeland,VBO,3.969828,51.324829
Kerkdreef,5,a,,4581CB,Vogelwaarde,Hulst,Zeeland,VBO,3.969683,51.323655
Kerkdreef,5,,,4581CB,Vogelwaarde,Hulst,Zeeland,VBO,3.970007,51.324148
Kerkdreef,6,,,4581CB,Vogelwaarde,Hulst,Zeeland,VBO,3.969804,51.324676
Kerkdreef,8,,,4581CB,Vogelwaarde,Hulst,Zeeland,VBO,3.969749,51.324621
Kerkdreef,10,,,4581CB,Vogelwaarde,Hulst,Zeeland,VBO,3.969708,51.324549
Kerkdreef,12,,,4581CB,Vogelwaarde,Hulst,Zeeland,VBO,3.969680,51.324504
Kerkdreef,16,,,4581CB,Vogelwaarde,Hulst,Zeeland,VBO,3.969475,51.324177
Kerkdreef,18,,,4581CB,Vogelwaarde,Hulst,Zeeland,VBO,3.969323,51.323987
Kerkdreef,20,,,4581CB,Vogelwaarde,Hulst,Zeeland,VBO,3.969284,51.323878
Schoolstraat,1,a,,4581CC,Vogelwaarde,Hulst,Zeeland,VBO,3.969577,51.325060
Schoolstraat,1,b,,4581CC,Vogelwaarde,Hulst,Zeeland,VBO,3.969480,51.324942
Schoolstraat,1,,,4581CC,Vogelwaarde,Hulst,Zeeland,VBO,3.969590,51.325123
Schoolstraat,2,,,4581CC,Vogelwaarde,Hulst,Zeeland,VBO,3.969270,51.325245
Schoolstraat,3,,,4581CC,Vogelwaarde,Hulst,Zeeland,VBO,3.969439,51.324887
Schoolstraat,4,a,,4581CC,Vogelwaarde,Hulst,Zeeland,VBO,3.969136,51.324938
Schoolstraat,4,,,4581CC,Vogelwaarde,Hulst,Zeeland,VBO,3.969175,51.325073
Schoolstraat,5,,,4581CC,Vogelwaarde,Hulst,Zeeland,VBO,3.969426,51.324833
Schoolstraat,6,,,4581CC,Vogelwaarde,Hulst,Zeeland,VBO,3.969070,51.324766
Schoolstraat,7,,,4581CC,Vogelwaarde,Hulst,Zeeland,VBO,3.969385,51.324779
Schoolstraat,8,,,4581CC,Vogelwaarde,Hulst,Zeeland,VBO,3.968976,51.324549
Schoolstraat,9,,,4581CC,Vogelwaarde,Hulst,Zeeland,VBO,3.969359,51.324680
Schoolstraat,10,a,,4581CC,Vogelwaarde,Hulst,Zeeland,VBO,3.968734,51.323557
Schoolstraat,10,,,4581CC,Vogelwaarde,Hulst,Zeeland,VBO,3.968721,51.323980
Schoolstraat,11,a,,4581CC,Vogelwaarde,Hulst,Zeeland,VBO,3.969267,51.324427
Schoolstraat,11,,,4581CC,Vogelwaarde,Hulst,Zeeland,VBO,3.969291,51.324571
Schoolstraat,12,,,4581CC,Vogelwaarde,Hulst,Zeeland,VBO,3.968961,51.323182
Schoolstraat,13,,,4581CC,Vogelwaarde,Hulst,Zeeland,VBO,3.969222,51.324004
Schoolstraat,14,,,4581CC,Vogelwaarde,Hulst,Zeeland,VBO,3.968743,51.323288
Schoolstraat,16,,,4581CC,Vogelwaarde,Hulst,Zeeland,VBO,3.967342,51.318998
Schoolstraat,19,,,4581CC,Vogelwaarde,Hulst,Zeeland,VBO,3.969662,51.323263
Schoolstraat,21,,,4581CC,Vogelwaarde,Hulst,Zeeland,VBO,3.969634,51.320458
Dorpspad,1,,,4581CD,Vogelwaarde,Hulst,Zeeland,VBO,3.968668,51.324303
Dorpspad,2,,,4581CD,Vogelwaarde,Hulst,Zeeland,VBO,3.968057,51.324583
Dorpspad,3,,,4581CD,Vogelwaarde,Hulst,Zeeland,VBO,3.968037,51.323818
Dorpspad,4,,,4581CD,Vogelwaarde,Hulst,Zeeland,VBO,3.967275,51.324746
Eikenhof,1,,,4581DA,Vogelwaarde,Hulst,Zeeland,VBO,3.975270,51.326549
Eikenhof,2,,,4581DA,Vogelwaarde,Hulst,Zeeland,VBO,3.975683,51.326195
Eikenhof,3,,,4581DA,Vogelwaarde,Hulst,Zeeland,VBO,3.975556,51.326598
Eikenhof,5,,,4581DA,Vogelwaarde,Hulst,Zeeland,VBO,3.975729,51.326564
Eikenhof,7,,,4581DA,Vogelwaarde,Hulst,Zeeland,VBO,3.976043,51.326622
Eikenhof,9,,,4581DA,Vogelwaarde,Hulst,Zeeland,VBO,3.976304,51.326535
Eikenhof,11,,,4581DA,Vogelwaarde,Hulst,Zeeland,VBO,3.976008,51.326369
Iepenhof,2,,,4581DB,Vogelwaarde,Hulst,Zeeland,VBO,3.974938,51.326635
Iepenhof,4,,,4581DB,Vogelwaarde,Hulst,Zeeland,VBO,3.974564,51.326649
Meidoornstraat,2,,,4581DC,Vogelwaarde,Hulst,Zeeland,VBO,3.977153,51.326431
Meidoornstraat,5,,,4581DC,Vogelwaarde,Hulst,Zeeland,VBO,3.976760,51.326648
Meidoornstraat,7,,,4581DC,Vogelwaarde,Hulst,Zeeland,VBO,3.976638,51.326404
Meidoornstraat,8,,,4581DC,Vogelwaarde,Hulst,Zeeland,VBO,3.977238,51.326960
Meidoornstraat,9,,,4581DC,Vogelwaarde,Hulst,Zeeland,VBO,3.976528,51.326241
Amberboomstraat,3,,,4581DD,Vogelwaarde,Hulst,Zeeland,VBO,3.979677,51.326971
Amberboomstraat,5,,,4581DD,Vogelwaarde,Hulst,Zeeland,VBO,3.979601,51.327114
Amberboomstraat,7,,,4581DD,Vogelwaarde,Hulst,Zeeland,VBO,3.979556,51.327168
Amberboomstraat,9,,,4581DD,Vogelwaarde,Hulst,Zeeland,VBO,3.979391,51.327390
Amberboomstraat,11,,,4581DD,Vogelwaarde,Hulst,Zeeland,VBO,3.979361,51.327435
Amberboomstraat,13,,,4581DD,Vogelwaarde,Hulst,Zeeland,VBO,3.979285,51.327569
Amberboomstraat,15,,,4581DD,Vogelwaarde,Hulst,Zeeland,VBO,3.979241,51.327622
Amberboomstraat,17,,,4581DD,Vogelwaarde,Hulst,Zeeland,VBO,3.979180,51.327738
Amberboomstraat,19,,,4581DD,Vogelwaarde,Hulst,Zeeland,VBO,3.979164,51.327783
Mgr. L. Dobbelaarstraat,1,,,4581DE,Vogelwaarde,Hulst,Zeeland,VBO,3.979086,51.327045
Mgr. L. Dobbelaarstraat,2,,,4581DE,Vogelwaarde,Hulst,Zeeland,VBO,3.978906,51.327313
Mgr. L. Dobbelaarstraat,3,,,4581DE,Vogelwaarde,Hulst,Zeeland,VBO,3.978813,51.327051
Mgr. L. Dobbelaarstraat,4,,,4581DE,Vogelwaarde,Hulst,Zeeland,VBO,3.978647,51.327318
Mgr. L. Dobbelaarstraat,5,,,4581DE,Vogelwaarde,Hulst,Zeeland,VBO,3.978556,51.327039
Mgr. L. Dobbelaarstraat,6,,,4581DE,Vogelwaarde,Hulst,Zeeland,VBO,3.978361,51.327306
Mgr. L. Dobbelaarstraat,7,,,4581DE,Vogelwaarde,Hulst,Zeeland,VBO,3.978269,51.327035
Mgr. L. Dobbelaarstraat,8,,,4581DE,Vogelwaarde,Hulst,Zeeland,VBO,3.978074,51.327302
Mgr. L. Dobbelaarstraat,9,,,4581DE,Vogelwaarde,Hulst,Zeeland,VBO,3.978039,51.327023
Mgr. L. Dobbelaarstraat,10,,,4581DE,Vogelwaarde,Hulst,Zeeland,VBO,3.977772,51.327308
Mgr. L. Dobbelaarstraat,11,,,4581DE,Vogelwaarde,Hulst,Zeeland,VBO,3.977795,51.327038
Mgr. F. Janssenstraat,1,,,4581DG,Vogelwaarde,Hulst,Zeeland,VBO,3.978663,51.327732
Mgr. F. Janssenstraat,2,,,4581DG,Vogelwaarde,Hulst,Zeeland,VBO,3.979012,51.328060
Mgr. F. Janssenstraat,3,,,4581DG,Vogelwaarde,Hulst,Zeeland,VBO,3.978362,51.327719
Mgr. F. Janssenstraat,4,,,4581DG,Vogelwaarde,Hulst,Zeeland,VBO,3.978596,51.328046
Mgr. F. Janssenstraat,5,,,4581DG,Vogelwaarde,Hulst,Zeeland,VBO,3.978061,51.327707
Mgr. F. Janssenstraat,6,,,4581DG,Vogelwaarde,Hulst,Zeeland,VBO,3.978686,51.328389
Mgr. F. Janssenstraat,7,,,4581DG,Vogelwaarde,Hulst,Zeeland,VBO,3.977774,51.327712
Mgr. F. Janssenstraat,8,,,4581DG,Vogelwaarde,Hulst,Zeeland,VBO,3.978229,51.328329
Mgr. F. Janssenstraat,9,,,4581DG,Vogelwaarde,Hulst,Zeeland,VBO,3.976904,51.327540
Mgr. F. Janssenstraat,10,,,4581DG,Vogelwaarde,Hulst,Zeeland,VBO,3.978168,51.327987
Mgr. F. Janssenstraat,12,,,4581DG,Vogelwaarde,Hulst,Zeeland,VBO,3.977709,51.327981
Mgr. F. Janssenstraat,14,,,4581DG,Vogelwaarde,Hulst,Zeeland,VBO,3.977496,51.328356
Mgr. F. Janssenstraat,16,,,4581DG,Vogelwaarde,Hulst,Zeeland,VBO,3.977092,51.328246
Mgr. F. Janssenstraat,18,,,4581DG,Vogelwaarde,Hulst,Zeeland,VBO,3.977207,51.327957
Cederstraat,2,,,4581DH,Vogelwaarde,Hulst,Zeeland,VBO,3.976604,51.327789
Cederstraat,4,,,4581DH,Vogelwaarde,Hulst,Zeeland,VBO,3.976416,51.328031
Cederstraat,6,,,4581DH,Vogelwaarde,Hulst,Zeeland,VBO,3.976289,51.328212
Meulenpad,1,,,4581EA,Vogelwaarde,Hulst,Zeeland,VBO,3.969112,51.326627
Meulenpad,2,,,4581EA,Vogelwaarde,Hulst,Zeeland,VBO,3.969291,51.326890
Meulenpad,3,,,4581EA,Vogelwaarde,Hulst,Zeeland,VBO,3.968650,51.326730
Meulenpad,4,,,4581EA,Vogelwaarde,Hulst,Zeeland,VBO,3.969103,51.326915
Meulenpad,5,,,4581EA,Vogelwaarde,Hulst,Zeeland,VBO,3.968303,51.326815
Meulenpad,7,,,4581EA,Vogelwaarde,Hulst,Zeeland,VBO,3.967928,51.326892
Meulenpad,9,,,4581EA,Vogelwaarde,Hulst,Zeeland,VBO,3.967538,51.326968
Meulenpad,10,,,4581EA,Vogelwaarde,Hulst,Zeeland,VBO,3.968029,51.327190
Meulenpad,11,,,4581EA,Vogelwaarde,Hulst,Zeeland,VBO,3.966829,51.327148
Meulenpad,12,,,4581EA,Vogelwaarde,Hulst,Zeeland,VBO,3.967614,51.327292
Meulenpad,14,,,4581EA,Vogelwaarde,Hulst,Zeeland,VBO,3.967513,51.327300
Meulenpad,20,,,4581EA,Vogelwaarde,Hulst,Zeeland,VBO,3.966131,51.327323
Campensedijk,1,,,4581PV,Vogelwaarde,Hulst,Zeeland,VBO,3.959528,51.352329
Campensedijk,5,,,4581PV,Vogelwaarde,Hulst,Zeeland,VBO,3.959452,51.352922
Campensedijk,7,,,4581PV,Vogelwaarde,Hulst,Zeeland,VBO,3.959433,51.353065
Campensedijk,9,,,4581PV,Vogelwaarde,Hulst,Zeeland,VBO,3.959436,51.353434
Campensedijk,2,,,4581PW,Vogelwaarde,Hulst,Zeeland,VBO,3.962404,51.332407
Campensedijk,8,,,4581PW,Vogelwaarde,Hulst,Zeeland,VBO,3.962309,51.333143
Campensedijk,12,,,4581PW,Vogelwaarde,Hulst,Zeeland,VBO,3.961474,51.336899
Campensedijk,14,,,4581PW,Vogelwaarde,Hulst,Zeeland,VBO,3.961786,51.337038
Campensedijk,20,,,4581PW,Vogelwaarde,Hulst,Zeeland,VBO,3.961347,51.337284
Campensedijk,22,,,4581PW,Vogelwaarde,Hulst,Zeeland,VBO,3.961359,51.340637
Campensedijk,26,,,4581PW,Vogelwaarde,Hulst,Zeeland,VBO,3.960395,51.341570
Campensedijk,28,,,4581PW,Vogelwaarde,Hulst,Zeeland,VBO,3.960393,51.341660
Campensedijk,30,,,4581PW,Vogelwaarde,Hulst,Zeeland,VBO,3.960416,51.341822
Campensedijk,32,,,4581PW,Vogelwaarde,Hulst,Zeeland,VBO,3.960384,51.341938
Campensedijk,34,,,4581PW,Vogelwaarde,Hulst,Zeeland,VBO,3.960277,51.342968
Campensedijk,38,,,4581PW,Vogelwaarde,Hulst,Zeeland,VBO,3.960217,51.343150
Campensedijk,40,,,4581PW,Vogelwaarde,Hulst,Zeeland,VBO,3.960225,51.344265
Campensedijk,42,,,4581PW,Vogelwaarde,Hulst,Zeeland,VBO,3.961312,51.344395
Campensedijk,46,,,4581PW,Vogelwaarde,Hulst,Zeeland,VBO,3.960212,51.344687
Campensedijk,48,,,4581PW,Vogelwaarde,Hulst,Zeeland,VBO,3.960147,51.344920
Campensedijk,50,,,4581PW,Vogelwaarde,Hulst,Zeeland,VBO,3.961310,51.346750
Campensedijk,54,,,4581PW,Vogelwaarde,Hulst,Zeeland,VBO,3.959901,51.350491
Campensedijk,58,,,4581PW,Vogelwaarde,Hulst,Zeeland,VBO,3.960002,51.351391
Campensedijk,62,,,4581PW,Vogelwaarde,Hulst,Zeeland,VBO,3.959934,51.352273
Campensedijk,66,,,4581PW,Vogelwaarde,Hulst,Zeeland,VBO,3.959852,51.352540
Campensedijk,68,,,4581PW,Vogelwaarde,Hulst,Zeeland,VBO,3.959842,51.352837
Campensedijk,70,,,4581PW,Vogelwaarde,Hulst,Zeeland,VBO,3.959770,51.353330
Copwijkseweg,1,,,4581PX,Vogelwaarde,Hulst,Zeeland,VBO,3.980460,51.337436
Copwijkseweg,2,,,4581PX,Vogelwaarde,Hulst,Zeeland,VBO,3.979999,51.337008
Copwijkseweg,3,,,4581PX,Vogelwaarde,Hulst,Zeeland,VBO,3.980156,51.337504
Copwijkseweg,6,,,4581PX,Vogelwaarde,Hulst,Zeeland,VBO,3.978690,51.337585
Copwijkseweg,7,,,4581PX,Vogelwaarde,Hulst,Zeeland,VBO,3.967952,51.338111
Copwijkseweg,12,,,4581PX,Vogelwaarde,Hulst,Zeeland,VBO,3.961505,51.337295
Schapershoekpad,1,,,4581PZ,Vogelwaarde,Hulst,Zeeland,VBO,3.962513,51.332588
Schapershoekpad,2,,,4581PZ,Vogelwaarde,Hulst,Zeeland,VBO,3.962404,51.332398
Schapershoekpad,3,,,4581PZ,Vogelwaarde,Hulst,Zeeland,VBO,3.962823,51.332304
Schapershoekpad,4,,,4581PZ,Vogelwaarde,Hulst,Zeeland,VBO,3.962598,51.332140
Schapershoekpad,5,,,4581PZ,Vogelwaarde,Hulst,Zeeland,VBO,3.963059,51.332091
Schapershoekpad,6,,,4581PZ,Vogelwaarde,Hulst,Zeeland,VBO,3.963118,51.331753
Schapershoekpad,8,,,4581PZ,Vogelwaarde,Hulst,Zeeland,VBO,3.963216,51.331662
Schapershoekpad,9,,,4581PZ,Vogelwaarde,Hulst,Zeeland,VBO,3.963647,51.332116
Schapershoekpad,15,,,4581PZ,Vogelwaarde,Hulst,Zeeland,VBO,3.963264,51.331950
Schapershoekpad,17,,,4581PZ,Vogelwaarde,Hulst,Zeeland,VBO,3.963630,51.331748
Schapershoekpad,19,,,4581PZ,Vogelwaarde,Hulst,Zeeland,VBO,3.964535,51.331255
Schapershoekpad,21,,,4581PZ,Vogelwaarde,Hulst,Zeeland,VBO,3.965066,51.331117
Schapershoekpad,23,,,4581PZ,Vogelwaarde,Hulst,Zeeland,VBO,3.965173,51.331029
Schapershoekpad,25,,,4581PZ,Vogelwaarde,Hulst,Zeeland,VBO,3.965551,51.330872
Rechtepad,1,,,4581RL,Vogelwaarde,Hulst,Zeeland,VBO,3.974932,51.317070
Rechtepad,2,,,4581RL,Vogelwaarde,Hulst,Zeeland,VBO,3.975064,51.316505
Rechtepad,5,,,4581RL,Vogelwaarde,Hulst,Zeeland,VBO,3.974144,51.315631
Drie Gezustersdijk,1,,,4581RM,Vogelwaarde,Hulst,Zeeland,VBO,3.959871,51.327584
Drie Gezustersdijk,3,,,4581RM,Vogelwaarde,Hulst,Zeeland,VBO,3.959535,51.326843
Drie Gezustersdijk,5,,,4581RM,Vogelwaarde,Hulst,Zeeland,VBO,3.959224,51.326237
Drie Gezustersdijk,7,,,4581RM,Vogelwaarde,Hulst,Zeeland,VBO,3.959156,51.326101
Drie Gezustersdijk,9,a,,4581RM,Vogelwaarde,Hulst,Zeeland,VBO,3.959312,51.325725
Drie Gezustersdijk,9,,,4581RM,Vogelwaarde,Hulst,Zeeland,VBO,3.959116,51.326020
Drie Gezustersdijk,11,a,,4581RM,Vogelwaarde,Hulst,Zeeland,VBO,3.959042,51.325174
Drie Gezustersdijk,11,b,,4581RM,Vogelwaarde,Hulst,Zeeland,VBO,3.960461,51.325108
Drie Gezustersdijk,11,,,4581RM,Vogelwaarde,Hulst,Zeeland,VBO,3.959199,51.325481
Drie Gezustersdijk,13,,,4581RM,Vogelwaarde,Hulst,Zeeland,VBO,3.959003,51.324966
Drie Gezustersdijk,15,,,4581RM,Vogelwaarde,Hulst,Zeeland,VBO,3.958619,51.323110
Drie Gezustersdijk,19,,,4581RM,Vogelwaarde,Hulst,Zeeland,VBO,3.957906,51.323425
Drie Gezustersdijk,21,,,4581RM,Vogelwaarde,Hulst,Zeeland,VBO,3.957865,51.323352
Drie Gezustersdijk,23,,,4581RM,Vogelwaarde,Hulst,Zeeland,VBO,3.959233,51.322731
Drie Gezustersdijk,27,,,4581RM,Vogelwaarde,Hulst,Zeeland,VBO,3.957816,51.323073
Drie Gezustersdijk,29,,,4581RM,Vogelwaarde,Hulst,Zeeland,VBO,3.958094,51.322906
Drie Gezustersdijk,31,,,4581RM,Vogelwaarde,Hulst,Zeeland,VBO,3.957552,51.322791
Drie Gezustersdijk,37,,,4581RM,Vogelwaarde,Hulst,Zeeland,VBO,3.957663,51.322451
Drie Gezustersdijk,39,,,4581RM,Vogelwaarde,Hulst,Zeeland,VBO,3.957401,51.321675
Drie Gezustersdijk,41,,,4581RM,Vogelwaarde,Hulst,Zeeland,VBO,3.957434,51.321531
Drie Gezustersdijk,45,,,4581RM,Vogelwaarde,Hulst,Zeeland,VBO,3.957070,51.319854
Provincialeweg,1,,,4581RN,Vogelwaarde,Hulst,Zeeland,VBO,4.004076,51.312547
Provincialeweg,3,,,4581RN,Vogelwaarde,Hulst,Zeeland,VBO,4.002385,51.312002
Provincialeweg,4,,,4581RN,Vogelwaarde,Hulst,Zeeland,VBO,4.012589,51.313736
Provincialeweg,6,,,4581RN,Vogelwaarde,Hulst,Zeeland,VBO,4.007020,51.313382
Provincialeweg,7,,,4581RN,Vogelwaarde,Hulst,Zeeland,VBO,3.996796,51.312326
Provincialeweg,9,,,4581RN,Vogelwaarde,Hulst,Zeeland,VBO,3.988072,51.311924
Provincialeweg,10,,,4581RN,Vogelwaarde,Hulst,Zeeland,VBO,4.001473,51.313721
Provincialeweg,14,,,4581RN,Vogelwaarde,Hulst,Zeeland,VBO,4.000511,51.312801
Provincialeweg,16,,,4581RN,Vogelwaarde,Hulst,Zeeland,VBO,3.999122,51.312731
Provincialeweg,18,,,4581RN,Vogelwaarde,Hulst,Zeeland,VBO,3.998702,51.313418
Provincialeweg,20,,,4581RN,Vogelwaarde,Hulst,Zeeland,VBO,3.998878,51.312719
Provincialeweg,22,,,4581RN,Vogelwaarde,Hulst,Zeeland,VBO,3.998735,51.312717
Provincialeweg,24,a,,4581RN,Vogelwaarde,Hulst,Zeeland,VBO,3.992011,51.313077
Provincialeweg,24,,,4581RN,Vogelwaarde,Hulst,Zeeland,VBO,3.993747,51.312595
Provincialeweg,28,,,4581RN,Vogelwaarde,Hulst,Zeeland,VBO,3.990949,51.313083
Provincialeweg,38,,,4581RN,Vogelwaarde,Hulst,Zeeland,VBO,3.956531,51.311415
Provincialeweg,40,,,4581RN,Vogelwaarde,Hulst,Zeeland,VBO,3.955735,51.311630
Sasdijkweg,2,,,4581RP,Vogelwaarde,Hulst,Zeeland,VBO,3.986643,51.311754
Sasdijkweg,3,,,4581RP,Vogelwaarde,Hulst,Zeeland,VBO,3.984728,51.310131
Sasdijkweg,5,,,4581RP,Vogelwaarde,Hulst,Zeeland,VBO,3.984645,51.309773
Sasdijkweg,7,,,4581RP,Vogelwaarde,Hulst,Zeeland,VBO,3.984637,51.309339
Sasdijkweg,9,,,4581RP,Vogelwaarde,Hulst,Zeeland,VBO,3.984805,51.307597
Groot Cambrondijk,1,,,4581RR,Vogelwaarde,Hulst,Zeeland,VBO,3.996177,51.307679
Groot Cambrondijk,5,,,4581RR,Vogelwaarde,Hulst,Zeeland,VBO,4.015822,51.302573
Groot Cambrondijk,9,,,4581RR,Vogelwaarde,Hulst,Zeeland,VBO,4.017431,51.302484
Groot Cambrondijk,13,,,4581RR,Vogelwaarde,Hulst,Zeeland,VBO,4.019203,51.301237
Groot Cambrondijk,19,,,4581RR,Vogelwaarde,Hulst,Zeeland,VBO,4.024222,51.298851
Middelweg van de Cambron,2,a,,4581RR,Vogelwaarde,Hulst,Zeeland,VBO,4.011026,51.309438
Middelweg van de Cambron,2,,,4581RR,Vogelwaarde,Hulst,Zeeland,VBO,4.010211,51.308413
Middelweg van de Cambron,6,,,4581RR,Vogelwaarde,Hulst,Zeeland,VBO,4.008366,51.311564
Sasdijk,24,,,4581RS,Vogelwaarde,Hulst,Zeeland,VBO,3.983440,51.302555
Sasdijk,36,,,4581RS,Vogelwaarde,Hulst,Zeeland,VBO,3.971213,51.301692
Sasdijk,38,,,4581RS,Vogelwaarde,Hulst,Zeeland,VBO,3.968993,51.302731
Sasdijk,43,,,4581RS,Vogelwaarde,Hulst,Zeeland,VBO,3.970940,51.300974
Sasdijk,44,,,4581RS,Vogelwaarde,Hulst,Zeeland,VBO,3.963476,51.303517
Sasdijk,48,,,4581RS,Vogelwaarde,Hulst,Zeeland,VBO,3.962714,51.303571
Cambronsestraat,2,,,4581RT,Vogelwaarde,Hulst,Zeeland,VBO,3.998374,51.305242
Cambronsestraat,4,,,4581RT,Vogelwaarde,Hulst,Zeeland,VBO,3.998996,51.305987
Cambronsestraat,5,,,4581RT,Vogelwaarde,Hulst,Zeeland,VBO,3.998344,51.305728
Cambronsestraat,7,,,4581RT,Vogelwaarde,Hulst,Zeeland,VBO,4.029060,51.304045
Cambronsestraat,8,,,4581RT,Vogelwaarde,Hulst,Zeeland,VBO,4.008968,51.308227
Sasdijk,41,,,4581RT,Axel,Terneuzen,Zeeland,VBO,3.975904,51.300839
Patrijzendijk,1,,,4581RV,Vogelwaarde,Hulst,Zeeland,VBO,4.026507,51.298688
Patrijzendijk,3,,,4581RV,Vogelwaarde,Hulst,Zeeland,VBO,4.028048,51.299585
Patrijzendijk,5,,,4581RV,Vogelwaarde,Hulst,Zeeland,VBO,4.028929,51.300191
