openbareruimtenaam,huisnummer,huisletter,huisnummertoevoeging,postcode,woonplaatsnaam,gemeentenaam,provincienaam,typeadresseerbaarobject,longitude,latitude
Hengstdijkse Kerkstraat,1,,,4585AA,Hengstdijk,Hulst,Zeeland,VBO,3.995587,51.344027
Hengstdijkse Kerkstraat,3,,,4585AA,Hengstdijk,Hulst,Zeeland,VBO,3.995508,51.344260
Hengstdijkse Kerkstraat,5,a,,4585AA,Hengstdijk,Hulst,Zeeland,VBO,3.995652,51.344720
Hengstdijkse Kerkstraat,5,b,,4585AA,Hengstdijk,Hulst,Zeeland,VBO,3.995679,51.344775
Hengstdijkse Kerkstraat,5,c,,4585AA,Hengstdijk,Hulst,Zeeland,VBO,3.995662,51.344855
Hengstdijkse Kerkstraat,5,d,,4585AA,Hengstdijk,Hulst,Zeeland,VBO,3.995660,51.344918
Hengstdijkse Kerkstraat,5,,,4585AA,Hengstdijk,Hulst,Zeeland,VBO,3.995518,51.344404
Hengstdijkse Kerkstraat,7,a,,4585AA,Hengstdijk,Hulst,Zeeland,VBO,3.995699,51.345063
Hengstdijkse Kerkstraat,7,b,,4585AA,Hengstdijk,Hulst,Zeeland,VBO,3.995707,51.345260
Hengstdijkse Kerkstraat,7,,,4585AA,Hengstdijk,Hulst,Zeeland,VBO,3.995687,51.345000
Hengstdijkse Kerkstraat,9,,,4585AA,Hengstdijk,Hulst,Zeeland,VBO,3.995746,51.345423
Hengstdijkse Kerkstraat,11,,,4585AA,Hengstdijk,Hulst,Zeeland,VBO,3.995843,51.345514
Hengstdijkse Kerkstraat,13,,,4585AA,Hengstdijk,Hulst,Zeeland,VBO,3.996164,51.345823
Hengstdijkse Kerkstraat,15,a,,4585AA,Hengstdijk,Hulst,Zeeland,VBO,3.996323,51.346248
Hengstdijkse Kerkstraat,15,,,4585AA,Hengstdijk,Hulst,Zeeland,VBO,3.996481,51.345782
Hengstdijkse Kerkstraat,17,,,4585AA,Hengstdijk,Hulst,Zeeland,VBO,3.996831,51.346074
Hengstdijkse Kerkstraat,2,,,4585AB,Hengstdijk,Hulst,Zeeland,VBO,3.995904,51.344004
Hengstdijkse Kerkstraat,4,,,4585AB,Hengstdijk,Hulst,Zeeland,VBO,3.996217,51.344282
Hengstdijkse Kerkstraat,12,,,4585AB,Hengstdijk,Hulst,Zeeland,VBO,3.995899,51.344642
Hengstdijkse Kerkstraat,16,,,4585AB,Hengstdijk,Hulst,Zeeland,VBO,3.996022,51.344842
Hengstdijkse Kerkstraat,18,a,,4585AB,Hengstdijk,Hulst,Zeeland,VBO,3.996118,51.344978
Hengstdijkse Kerkstraat,18,,,4585AB,Hengstdijk,Hulst,Zeeland,VBO,3.996019,51.344932
Hengstdijkse Kerkstraat,20,,,4585AB,Hengstdijk,Hulst,Zeeland,VBO,3.996045,51.345031
Hengstdijkse Kerkstraat,22,,,4585AB,Hengstdijk,Hulst,Zeeland,VBO,3.996056,51.345121
Hengstdijkse Kerkstraat,24,,,4585AB,Hengstdijk,Hulst,Zeeland,VBO,3.996069,51.345175
Hengstdijkse Kerkstraat,26,,,4585AB,Hengstdijk,Hulst,Zeeland,VBO,3.996051,51.345283
Hengstdijkse Kerkstraat,32,,,4585AB,Hengstdijk,Hulst,Zeeland,VBO,3.996274,51.345510
Hengstdijkse Kerkstraat,34,,,4585AB,Hengstdijk,Hulst,Zeeland,VBO,3.996445,51.345557
Hengstdijkse Kerkstraat,19,,,4585AC,Hengstdijk,Hulst,Zeeland,VBO,3.999913,51.352844
Hengstdijkse Kerkstraat,36,,,4585AC,Hengstdijk,Hulst,Zeeland,VBO,3.998821,51.348750
Karnemelkstraat,1,a,,4585AD,Hengstdijk,Hulst,Zeeland,VBO,3.998628,51.346473
Karnemelkstraat,1,,,4585AD,Hengstdijk,Hulst,Zeeland,VBO,3.997664,51.346524
Karnemelkstraat,2,,,4585AD,Hengstdijk,Hulst,Zeeland,VBO,3.997608,51.346029
Karnemelkstraat,4,,,4585AD,Hengstdijk,Hulst,Zeeland,VBO,3.998390,51.346254
Norbertijnenstraat,1,,,4585AE,Hengstdijk,Hulst,Zeeland,VBO,3.994718,51.344772
Norbertijnenstraat,2,a,,4585AG,Hengstdijk,Hulst,Zeeland,VBO,3.995164,51.345209
Norbertijnenstraat,2,b,,4585AG,Hengstdijk,Hulst,Zeeland,VBO,3.995165,51.345155
Norbertijnenstraat,2,c,,4585AG,Hengstdijk,Hulst,Zeeland,VBO,3.995167,51.345092
Norbertijnenstraat,2,d,,4585AG,Hengstdijk,Hulst,Zeeland,VBO,3.995098,51.345001
Norbertijnenstraat,2,,,4585AG,Hengstdijk,Hulst,Zeeland,VBO,3.995162,51.345263
Norbertijnenstraat,4,,,4585AG,Hengstdijk,Hulst,Zeeland,VBO,3.995099,51.344957
Norbertijnenstraat,6,,,4585AG,Hengstdijk,Hulst,Zeeland,VBO,3.995087,51.344902
Norbertijnenstraat,8,,,4585AG,Hengstdijk,Hulst,Zeeland,VBO,3.995088,51.344849
Norbertijnenstraat,10,,,4585AG,Hengstdijk,Hulst,Zeeland,VBO,3.995090,51.344804
Norbertijnenstraat,12,a,,4585AG,Hengstdijk,Hulst,Zeeland,VBO,3.995570,51.344576
Norbertijnenstraat,12,b,,4585AG,Hengstdijk,Hulst,Zeeland,VBO,3.995456,51.344574
Norbertijnenstraat,12,c,,4585AG,Hengstdijk,Hulst,Zeeland,VBO,3.995326,51.344591
Norbertijnenstraat,12,,,4585AG,Hengstdijk,Hulst,Zeeland,VBO,3.995077,51.344741
Norbertijnenstraat,14,,,4585AG,Hengstdijk,Hulst,Zeeland,VBO,3.995053,51.344596
Norbertijnenstraat,16,,,4585AG,Hengstdijk,Hulst,Zeeland,VBO,3.995054,51.344551
Norbertijnenstraat,18,,,4585AG,Hengstdijk,Hulst,Zeeland,VBO,3.995042,51.344497
Norbertijnenstraat,20,,,4585AG,Hengstdijk,Hulst,Zeeland,VBO,3.995044,51.344434
Norbertijnenstraat,22,,,4585AG,Hengstdijk,Hulst,Zeeland,VBO,3.995030,51.344398
Norbertijnenstraat,24,,,4585AG,Hengstdijk,Hulst,Zeeland,VBO,3.995018,51.344335
Norbertijnenstraat,26,,,4585AG,Hengstdijk,Hulst,Zeeland,VBO,3.994949,51.344254
Norbertijnenstraat,28,,,4585AG,Hengstdijk,Hulst,Zeeland,VBO,3.994877,51.344262
Norbertijnenstraat,30,,,4585AG,Hengstdijk,Hulst,Zeeland,VBO,3.994790,51.344270
Norbertijnenstraat,32,,,4585AG,Hengstdijk,Hulst,Zeeland,VBO,3.994675,51.344268
Norbertijnenstraat,34,,,4585AG,Hengstdijk,Hulst,Zeeland,VBO,3.994357,51.344286
Norbertijnenstraat,36,,,4585AG,Hengstdijk,Hulst,Zeeland,VBO,3.994263,51.344296
Norbertijnenstraat,38,,,4585AG,Hengstdijk,Hulst,Zeeland,VBO,3.994169,51.344296
Norbertijnenstraat,40,,,4585AG,Hengstdijk,Hulst,Zeeland,VBO,3.993887,51.344314
Sint Josephstraat,1,,,4585AH,Hengstdijk,Hulst,Zeeland,VBO,3.997226,51.344407
Sint Josephstraat,2,t,,4585AH,Hengstdijk,Hulst,Zeeland,VBO,3.995928,51.343794
Sint Josephstraat,2,,,4585AH,Hengstdijk,Hulst,Zeeland,VBO,3.996109,51.343845
Sint Josephstraat,3,,,4585AH,Hengstdijk,Hulst,Zeeland,VBO,3.997290,51.343745
Sint Josephstraat,4,,,4585AH,Hengstdijk,Hulst,Zeeland,VBO,3.996282,51.343838
Sint Josephstraat,5,,,4585AH,Hengstdijk,Hulst,Zeeland,VBO,3.997825,51.343587
Sint Josephstraat,8,,,4585AH,Hengstdijk,Hulst,Zeeland,VBO,3.996963,51.343612
Sint Josephstraat,10,,,4585AH,Hengstdijk,Hulst,Zeeland,VBO,3.997136,51.343587
Sint Josephstraat,11,,,4585AH,Hengstdijk,Hulst,Zeeland,VBO,4.002373,51.343659
Sint Josephstraat,12,,,4585AH,Hengstdijk,Hulst,Zeeland,VBO,3.996842,51.342883
Sint Josephstraat,13,,,4585AH,Hengstdijk,Hulst,Zeeland,VBO,4.003285,51.343409
Sint Josephstraat,14,a,,4585AH,Hengstdijk,Hulst,Zeeland,VBO,3.997199,51.342959
Sint Josephstraat,16,a,,4585AH,Hengstdijk,Hulst,Zeeland,VBO,3.997147,51.343228
Sint Josephstraat,16,,,4585AH,Hengstdijk,Hulst,Zeeland,VBO,3.997167,51.343066
Sint Josephstraat,17,,,4585AH,Hengstdijk,Hulst,Zeeland,VBO,4.010873,51.343121
Sint Josephstraat,18,,,4585AH,Hengstdijk,Hulst,Zeeland,VBO,3.997228,51.343418
Sint Josephstraat,24,,,4585AH,Hengstdijk,Hulst,Zeeland,VBO,3.998063,51.343320
Sint Josephstraat,26,a,,4585AH,Hengstdijk,Hulst,Zeeland,VBO,4.001086,51.342534
Sint Josephstraat,26,,,4585AH,Hengstdijk,Hulst,Zeeland,VBO,3.998817,51.343077
Sint Josephstraat,28,,,4585AH,Hengstdijk,Hulst,Zeeland,VBO,4.006596,51.343107
Kievitstraat,1,,,4585AJ,Hengstdijk,Hulst,Zeeland,VBO,3.996128,51.343225
Kievitstraat,2,,,4585AJ,Hengstdijk,Hulst,Zeeland,VBO,3.996351,51.343452
Kievitstraat,3,,,4585AJ,Hengstdijk,Hulst,Zeeland,VBO,3.995783,51.343239
Kievitstraat,4,,,4585AJ,Hengstdijk,Hulst,Zeeland,VBO,3.996279,51.343451
Kievitstraat,5,,,4585AJ,Hengstdijk,Hulst,Zeeland,VBO,3.995510,51.343244
Kievitstraat,6,,,4585AJ,Hengstdijk,Hulst,Zeeland,VBO,3.996179,51.343459
Kievitstraat,7,,,4585AJ,Hengstdijk,Hulst,Zeeland,VBO,3.995223,51.343259
Kievitstraat,8,,,4585AJ,Hengstdijk,Hulst,Zeeland,VBO,3.996093,51.343449
Kievitstraat,9,,,4585AJ,Hengstdijk,Hulst,Zeeland,VBO,3.994950,51.343274
Kievitstraat,10,,,4585AJ,Hengstdijk,Hulst,Zeeland,VBO,3.995977,51.343466
Kievitstraat,11,,,4585AJ,Hengstdijk,Hulst,Zeeland,VBO,3.994605,51.343287
Kievitstraat,12,,,4585AJ,Hengstdijk,Hulst,Zeeland,VBO,3.995891,51.343465
Kievitstraat,13,,,4585AJ,Hengstdijk,Hulst,Zeeland,VBO,3.994231,51.343202
Kievitstraat,14,,,4585AJ,Hengstdijk,Hulst,Zeeland,VBO,3.995719,51.343463
Kievitstraat,15,,,4585AJ,Hengstdijk,Hulst,Zeeland,VBO,3.994252,51.343562
Kievitstraat,16,,,4585AJ,Hengstdijk,Hulst,Zeeland,VBO,3.995633,51.343471
Kievitstraat,18,,,4585AJ,Hengstdijk,Hulst,Zeeland,VBO,3.995546,51.343488
Kievitstraat,20,,,4585AJ,Hengstdijk,Hulst,Zeeland,VBO,3.995446,51.343486
Kievitstraat,22,,,4585AJ,Hengstdijk,Hulst,Zeeland,VBO,3.995374,51.343485
Kievitstraat,24,,,4585AJ,Hengstdijk,Hulst,Zeeland,VBO,3.995259,51.343484
Kievitstraat,26,,,4585AJ,Hengstdijk,Hulst,Zeeland,VBO,3.994985,51.343517
Plevierstraat,2,,,4585AK,Hengstdijk,Hulst,Zeeland,VBO,3.990363,51.344001
Plevierstraat,4,,,4585AK,Hengstdijk,Hulst,Zeeland,VBO,3.990963,51.344089
Plevierstraat,6,,,4585AK,Hengstdijk,Hulst,Zeeland,VBO,3.992217,51.343933
Plevierstraat,8,,,4585AK,Hengstdijk,Hulst,Zeeland,VBO,3.992433,51.343918
Plevierstraat,10,,,4585AK,Hengstdijk,Hulst,Zeeland,VBO,3.992590,51.343938
Plevierstraat,14,,,4585AK,Hengstdijk,Hulst,Zeeland,VBO,3.994761,51.343811
Plevierstraat,16,,,4585AK,Hengstdijk,Hulst,Zeeland,VBO,3.994962,51.343804
Plevierstraat,18,a,,4585AK,Hengstdijk,Hulst,Zeeland,VBO,3.995535,51.343838
Plevierstraat,18,,,4585AK,Hengstdijk,Hulst,Zeeland,VBO,3.995262,51.343871
Plevierstraat,20,,,4585AK,Hengstdijk,Hulst,Zeeland,VBO,3.995678,51.343867
Plevierstraat,1,a,,4585AL,Hengstdijk,Hulst,Zeeland,VBO,3.988563,51.344671
Plevierstraat,1,,,4585AL,Hengstdijk,Hulst,Zeeland,VBO,3.986079,51.345136
Plevierstraat,3,,,4585AL,Hengstdijk,Hulst,Zeeland,VBO,3.989109,51.344633
Plevierstraat,5,a,,4585AL,Hengstdijk,Hulst,Zeeland,VBO,3.990854,51.344357
Plevierstraat,5,,,4585AL,Hengstdijk,Hulst,Zeeland,VBO,3.991632,51.344295
Plevierstraat,9,,,4585AL,Hengstdijk,Hulst,Zeeland,VBO,3.991909,51.344145
Plevierstraat,11,,,4585AL,Hengstdijk,Hulst,Zeeland,VBO,3.992112,51.344085
Plevierstraat,13,,,4585AL,Hengstdijk,Hulst,Zeeland,VBO,3.992543,51.344054
Plevierstraat,17,,,4585AL,Hengstdijk,Hulst,Zeeland,VBO,3.993290,51.344036
Plevierstraat,21,,,4585AL,Hengstdijk,Hulst,Zeeland,VBO,3.993665,51.343986
Plevierstraat,23,,,4585AL,Hengstdijk,Hulst,Zeeland,VBO,3.993836,51.344015
Plevierstraat,27,,,4585AL,Hengstdijk,Hulst,Zeeland,VBO,3.994268,51.343967
Plevierstraat,31,,,4585AL,Hengstdijk,Hulst,Zeeland,VBO,3.994800,51.343964
Plevierstraat,33,,,4585AL,Hengstdijk,Hulst,Zeeland,VBO,3.995100,51.344013
Meerkoetstraat,2,,,4585AM,Hengstdijk,Hulst,Zeeland,VBO,3.996473,51.343705
Meerkoetstraat,4,,,4585AM,Hengstdijk,Hulst,Zeeland,VBO,3.996449,51.343645
Meerkoetstraat,3,,,4585AN,Hengstdijk,Hulst,Zeeland,VBO,3.996730,51.343268
Reygerskreek,1,,,4585AP,Hengstdijk,Hulst,Zeeland,VBO,3.995108,51.342781
Reygerskreek,2,,,4585AP,Hengstdijk,Hulst,Zeeland,VBO,3.995324,51.342784
Reygerskreek,3,,,4585AP,Hengstdijk,Hulst,Zeeland,VBO,3.995481,51.342786
Reygerskreek,4,,,4585AP,Hengstdijk,Hulst,Zeeland,VBO,3.995654,51.342779
Reygerskreek,5,,,4585AP,Hengstdijk,Hulst,Zeeland,VBO,3.995729,51.342654
Reygerskreek,6,,,4585AP,Hengstdijk,Hulst,Zeeland,VBO,3.995704,51.342545
Reygerskreek,7,,,4585AP,Hengstdijk,Hulst,Zeeland,VBO,3.995287,51.342585
Reygerskreek,8,,,4585AP,Hengstdijk,Hulst,Zeeland,VBO,3.995333,51.342487
Reygerskreek,9,,,4585AP,Hengstdijk,Hulst,Zeeland,VBO,3.995293,51.342379
Reygerskreek,10,,,4585AP,Hengstdijk,Hulst,Zeeland,VBO,3.995281,51.342280
Reygerskreek,11,,,4585AP,Hengstdijk,Hulst,Zeeland,VBO,3.995313,51.342190
Reygerskreek,12,,,4585AP,Hengstdijk,Hulst,Zeeland,VBO,3.995316,51.342091
Reygerskreek,13,,,4585AP,Hengstdijk,Hulst,Zeeland,VBO,3.995247,51.341983
Reygerskreek,14,,,4585AP,Hengstdijk,Hulst,Zeeland,VBO,3.995165,51.341874
Reygerskreek,15,,,4585AP,Hengstdijk,Hulst,Zeeland,VBO,3.994839,51.341726
Reygerskreek,17,,,4585AP,Hengstdijk,Hulst,Zeeland,VBO,3.994892,51.341871
Reygerskreek,18,,,4585AP,Hengstdijk,Hulst,Zeeland,VBO,3.994690,51.341904
Reygerskreek,19,,,4585AP,Hengstdijk,Hulst,Zeeland,VBO,3.994787,51.342013
Reygerskreek,20,,,4585AP,Hengstdijk,Hulst,Zeeland,VBO,3.994842,51.342113
Reygerskreek,21,,,4585AP,Hengstdijk,Hulst,Zeeland,VBO,3.994838,51.342220
Reygerskreek,22,,,4585AP,Hengstdijk,Hulst,Zeeland,VBO,3.994879,51.342311
Reygerskreek,23,,,4585AP,Hengstdijk,Hulst,Zeeland,VBO,3.994904,51.342419
Reygerskreek,24,,,4585AP,Hengstdijk,Hulst,Zeeland,VBO,3.994973,51.342519
Reygerskreek,25,,,4585AP,Hengstdijk,Hulst,Zeeland,VBO,3.994970,51.342618
Reygerskreek,26,,,4585AP,Hengstdijk,Hulst,Zeeland,VBO,3.995755,51.342276
Reygerskreek,27,,,4585AP,Hengstdijk,Hulst,Zeeland,VBO,3.995701,51.342177
Reygerskreek,28,,,4585AP,Hengstdijk,Hulst,Zeeland,VBO,3.995747,51.342079
Reygerskreek,29,,,4585AP,Hengstdijk,Hulst,Zeeland,VBO,3.995736,51.341979
Reygerskreek,30,,,4585AP,Hengstdijk,Hulst,Zeeland,VBO,3.995613,51.341771
Reygerskreek,31,,,4585AP,Hengstdijk,Hulst,Zeeland,VBO,3.995785,51.341782
Reygerskreek,32,,,4585AP,Hengstdijk,Hulst,Zeeland,VBO,3.995920,51.341595
Reygerskreek,33,,,4585AP,Hengstdijk,Hulst,Zeeland,VBO,3.995560,51.341609
Reygerskreek,34,,,4585AP,Hengstdijk,Hulst,Zeeland,VBO,3.995493,51.341446
Reygerskreek,35,,,4585AP,Hengstdijk,Hulst,Zeeland,VBO,3.995680,51.341439
Reygerskreek,36,,,4585AP,Hengstdijk,Hulst,Zeeland,VBO,3.996077,51.341624
Reygerskreek,37,,,4585AP,Hengstdijk,Hulst,Zeeland,VBO,3.996262,51.341653
Reygerskreek,38,,,4585AP,Hengstdijk,Hulst,Zeeland,VBO,3.996706,51.341694
Reygerskreek,39,,,4585AP,Hengstdijk,Hulst,Zeeland,VBO,3.996877,51.341732
Reygerskreek,41,,,4585AP,Hengstdijk,Hulst,Zeeland,VBO,3.996567,51.341367
Reygerskreek,42,,,4585AP,Hengstdijk,Hulst,Zeeland,VBO,3.996273,51.341312
Reygerskreek,48,,,4585AP,Hengstdijk,Hulst,Zeeland,VBO,3.996845,51.341858
Reygerskreek,49,,,4585AP,Hengstdijk,Hulst,Zeeland,VBO,3.996798,51.341974
Reygerskreek,50,,,4585AP,Hengstdijk,Hulst,Zeeland,VBO,3.996766,51.342073
Reygerskreek,51,,,4585AP,Hengstdijk,Hulst,Zeeland,VBO,3.996562,51.342178
Reygerskreek,52,,,4585AP,Hengstdijk,Hulst,Zeeland,VBO,3.996733,51.342234
Reygerskreek,53,,,4585AP,Hengstdijk,Hulst,Zeeland,VBO,3.996655,51.342440
Reygerskreek,54,,,4585AP,Hengstdijk,Hulst,Zeeland,VBO,3.996525,51.342438
Reygerskreek,55,,,4585AP,Hengstdijk,Hulst,Zeeland,VBO,3.996579,51.342556
Reygerskreek,56,,,4585AP,Hengstdijk,Hulst,Zeeland,VBO,3.996489,51.342690
Reygerskreek,57,,,4585AP,Hengstdijk,Hulst,Zeeland,VBO,3.996330,51.342733
Reygerskreek,58,,,4585AP,Hengstdijk,Hulst,Zeeland,VBO,3.996128,51.342775
Reygerskreek,59,,,4585AP,Hengstdijk,Hulst,Zeeland,VBO,3.996102,51.342667
Reygerskreek,60,,,4585AP,Hengstdijk,Hulst,Zeeland,VBO,3.996149,51.342551
Reygerskreek,61,,,4585AP,Hengstdijk,Hulst,Zeeland,VBO,3.996100,51.342281
Reygerskreek,62,,,4585AP,Hengstdijk,Hulst,Zeeland,VBO,3.996174,51.342183
Reygerskreek,63,,,4585AP,Hengstdijk,Hulst,Zeeland,VBO,3.996192,51.342084
Reygerskreek,64,,,4585AP,Hengstdijk,Hulst,Zeeland,VBO,3.996224,51.341967
Reygerskreek,65,,,4585AP,Hengstdijk,Hulst,Zeeland,VBO,3.996052,51.341965
Bergeendstraat,1,,,4585AR,Hengstdijk,Hulst,Zeeland,VBO,3.997664,51.343234
Bergeendstraat,4,,,4585AR,Hengstdijk,Hulst,Zeeland,VBO,3.998054,51.343140
Bergeendstraat,5,,,4585AR,Hengstdijk,Hulst,Zeeland,VBO,3.997671,51.343009
Bergeendstraat,6,,,4585AR,Hengstdijk,Hulst,Zeeland,VBO,3.998430,51.343072
Bergeendstraat,8,,,4585AR,Hengstdijk,Hulst,Zeeland,VBO,3.998509,51.342831
Bergeendstraat,10,,,4585AR,Hengstdijk,Hulst,Zeeland,VBO,3.998137,51.342781
Bergeendstraat,12,,,4585AR,Hengstdijk,Hulst,Zeeland,VBO,3.997778,51.342786
Bergeendstraat,14,,,4585AR,Hengstdijk,Hulst,Zeeland,VBO,3.997535,51.342747
Bergeendstraat,16,,,4585AR,Hengstdijk,Hulst,Zeeland,VBO,3.997249,51.342708
Margaretsedijk,1,,,4585PA,Hengstdijk,Hulst,Zeeland,VBO,3.987429,51.324977
Margaretsedijk,3,,,4585PA,Hengstdijk,Hulst,Zeeland,VBO,3.987794,51.325235
Margaretsedijk,5,,,4585PA,Hengstdijk,Hulst,Zeeland,VBO,3.990189,51.324805
Margaretsedijk,9,,,4585PA,Hengstdijk,Hulst,Zeeland,VBO,3.991188,51.324979
Margaretsedijk,19,,,4585PA,Hengstdijk,Hulst,Zeeland,VBO,3.993564,51.325646
Margaretsedijk,23,,,4585PA,Hengstdijk,Hulst,Zeeland,VBO,3.994249,51.325753
Margaretsedijk,25,,,4585PA,Hengstdijk,Hulst,Zeeland,VBO,3.994665,51.325767
Margaretsedijk,27,,,4585PA,Hengstdijk,Hulst,Zeeland,VBO,3.995127,51.325824
Margaretsedijk,31,,,4585PA,Hengstdijk,Hulst,Zeeland,VBO,3.996033,51.325604
Margaretsedijk,35,,,4585PA,Hengstdijk,Hulst,Zeeland,VBO,3.996425,51.324529
Margaretsedijk,39,,,4585PA,Hengstdijk,Hulst,Zeeland,VBO,4.000657,51.321712
Margaretsedijk,41,,,4585PA,Hengstdijk,Hulst,Zeeland,VBO,4.005221,51.320715
Margaretsedijk,43,,,4585PA,Hengstdijk,Hulst,Zeeland,VBO,4.005900,51.320543
Margaretsedijk,47,,,4585PA,Hengstdijk,Hulst,Zeeland,VBO,4.006724,51.320346
Margaretsedijk,49,,,4585PA,Hengstdijk,Hulst,Zeeland,VBO,4.007342,51.320317
Margaretsedijk,51,,,4585PA,Hengstdijk,Hulst,Zeeland,VBO,4.007929,51.320333
Margaretsedijk,53,t,,4585PA,Hengstdijk,Hulst,Zeeland,VBO,4.008666,51.320459
Margaretsedijk,53,,,4585PA,Hengstdijk,Hulst,Zeeland,VBO,4.008131,51.320309
Margaretsedijk,59,,,4585PA,Hengstdijk,Hulst,Zeeland,VBO,4.010192,51.320935
Margaretsedijk,63,,,4585PA,Hengstdijk,Hulst,Zeeland,VBO,4.010448,51.321019
Margaretsedijk,65,,,4585PA,Hengstdijk,Hulst,Zeeland,VBO,4.011303,51.321218
Margaretsedijk,67,,,4585PA,Hengstdijk,Hulst,Zeeland,VBO,4.012105,51.321273
Margaretsedijk,75,,,4585PA,Hengstdijk,Hulst,Zeeland,VBO,4.014347,51.321596
Margaretsedijk,77,,,4585PA,Hengstdijk,Hulst,Zeeland,VBO,4.014590,51.321643
Margaretsedijk,83,,,4585PA,Hengstdijk,Hulst,Zeeland,VBO,4.017614,51.322695
Margaretsedijk,85,,,4585PA,Hengstdijk,Hulst,Zeeland,VBO,4.018128,51.322773
Margaretsedijk,2,,,4585PB,Hengstdijk,Hulst,Zeeland,VBO,3.997031,51.324878
Margaretsedijk,4,,,4585PB,Hengstdijk,Hulst,Zeeland,VBO,3.997624,51.325200
Margaretsedijk,8,a,,4585PB,Hengstdijk,Hulst,Zeeland,VBO,3.998485,51.324636
Margaretsedijk,8,,,4585PB,Hengstdijk,Hulst,Zeeland,VBO,3.998194,51.324838
Margaretsedijk,16,,,4585PB,Hengstdijk,Hulst,Zeeland,VBO,4.003646,51.322026
Margaretsedijk,32,,,4585PB,Hengstdijk,Hulst,Zeeland,VBO,4.013032,51.321427
Margaretsedijk,34,,,4585PB,Hengstdijk,Hulst,Zeeland,VBO,4.013147,51.321438
Margaretsedijk,36,,,4585PB,Hengstdijk,Hulst,Zeeland,VBO,4.017025,51.322742
Margaretsedijk,38,,,4585PB,Hengstdijk,Hulst,Zeeland,VBO,4.017952,51.322924
Margaretsedijk,40,,,4585PB,Hengstdijk,Hulst,Zeeland,VBO,4.020522,51.322873
Margaretsedijk,42,,,4585PB,Hengstdijk,Hulst,Zeeland,VBO,4.020546,51.323017
Margaretsedijk,44,,,4585PB,Hengstdijk,Hulst,Zeeland,VBO,4.021629,51.323218
Ravensweg,1,,,4585PB,Hengstdijk,Hulst,Zeeland,VBO,3.995405,51.326441
Zuidweg,1,,,4585PC,Hengstdijk,Hulst,Zeeland,VBO,3.994048,51.327638
Zuidweg,3,,,4585PC,Hengstdijk,Hulst,Zeeland,VBO,3.999148,51.327942
Zuidweg,4,,,4585PC,Hengstdijk,Hulst,Zeeland,VBO,4.010530,51.329722
Zuidweg,6,A,,4585PC,Hengstdijk,Hulst,Zeeland,VBO,4.023488,51.329136
Heernissekerkpad,1,,,4585PD,Hengstdijk,Hulst,Zeeland,VBO,4.012703,51.325721
Heernissekerkpad,2,,,4585PD,Hengstdijk,Hulst,Zeeland,VBO,4.013826,51.326066
Heernissekerkpad,3,,,4585PD,Hengstdijk,Hulst,Zeeland,VBO,4.012531,51.325701
Heernissekerkpad,4,,,4585PD,Hengstdijk,Hulst,Zeeland,VBO,4.011772,51.325638
Heernissekerkpad,6,,,4585PD,Hengstdijk,Hulst,Zeeland,VBO,4.010160,51.324872
Polderweg,3,,,4585PE,Hengstdijk,Hulst,Zeeland,VBO,4.014826,51.325710
Polderweg,5,,,4585PE,Hengstdijk,Hulst,Zeeland,VBO,4.014407,51.325813
Polderweg,9,,,4585PE,Hengstdijk,Hulst,Zeeland,VBO,4.013956,51.326491
Polderweg,11,,,4585PE,Hengstdijk,Hulst,Zeeland,VBO,4.014164,51.326745
Polderweg,13,,,4585PE,Hengstdijk,Hulst,Zeeland,VBO,4.013022,51.328475
Polderweg,21,,,4585PE,Hengstdijk,Hulst,Zeeland,VBO,4.012212,51.330596
Polderweg,23,,,4585PE,Hengstdijk,Hulst,Zeeland,VBO,4.012002,51.330890
Polderweg,29,,,4585PE,Hengstdijk,Hulst,Zeeland,VBO,4.010726,51.332278
Polderweg,31,,,4585PE,Hengstdijk,Hulst,Zeeland,VBO,4.009458,51.333413
Polderweg,33,t,,4585PE,Hengstdijk,Hulst,Zeeland,VBO,4.009068,51.333729
Polderweg,33,,,4585PE,Hengstdijk,Hulst,Zeeland,VBO,4.009136,51.333616
Polderweg,37,,,4585PE,Hengstdijk,Hulst,Zeeland,VBO,4.009016,51.333795
Polderweg,39,,,4585PE,Hengstdijk,Hulst,Zeeland,VBO,4.008855,51.333892
Polderweg,4,,,4585PG,Hengstdijk,Hulst,Zeeland,VBO,4.018201,51.323718
Polderweg,6,a,,4585PG,Hengstdijk,Hulst,Zeeland,VBO,4.015267,51.325868
Polderweg,6,t,,4585PG,Hengstdijk,Hulst,Zeeland,VBO,4.015154,51.325727
Polderweg,6,,,4585PG,Hengstdijk,Hulst,Zeeland,VBO,4.018822,51.324058
Polderweg,8,,,4585PG,Hengstdijk,Hulst,Zeeland,VBO,4.017263,51.326278
Polderweg,14,,,4585PG,Hengstdijk,Hulst,Zeeland,VBO,4.011527,51.332350
Polderweg,16,,,4585PG,Hengstdijk,Hulst,Zeeland,VBO,4.011285,51.332302
Polderweg,20,,,4585PG,Hengstdijk,Hulst,Zeeland,VBO,4.010640,51.332735
Polderweg,24,,,4585PG,Hengstdijk,Hulst,Zeeland,VBO,4.010588,51.333031
Polderweg,26,,,4585PG,Hengstdijk,Hulst,Zeeland,VBO,4.010355,51.333154
Polderweg,30,,,4585PG,Hengstdijk,Hulst,Zeeland,VBO,4.009845,51.333400
Polderweg,34,,,4585PG,Hengstdijk,Hulst,Zeeland,VBO,4.009852,51.333670
Polderweg,38,,,4585PG,Hengstdijk,Hulst,Zeeland,VBO,4.008819,51.334125
Polderweg,40,,,4585PG,Hengstdijk,Hulst,Zeeland,VBO,4.008416,51.334384
Ser Paulusstraat,1,,,4585PH,Hengstdijk,Hulst,Zeeland,VBO,4.009271,51.334373
Kerkweg,1,,,4585PJ,Hengstdijk,Hulst,Zeeland,VBO,4.006695,51.333650
Kerkweg,2,,,4585PJ,Hengstdijk,Hulst,Zeeland,VBO,4.007859,51.334060
Kerkweg,4,,,4585PJ,Hengstdijk,Hulst,Zeeland,VBO,4.004099,51.334060
Kerkweg,5,,,4585PJ,Hengstdijk,Hulst,Zeeland,VBO,4.006109,51.333581
Vogeldijk,1,,,4585PK,Hengstdijk,Hulst,Zeeland,VBO,4.005720,51.340759
Vogeldijk,2,,,4585PK,Hengstdijk,Hulst,Zeeland,VBO,3.998366,51.339026
Vogeldijk,4,,,4585PK,Hengstdijk,Hulst,Zeeland,VBO,4.000511,51.339295
Vogeldijk,5,,,4585PK,Hengstdijk,Hulst,Zeeland,VBO,4.012593,51.340337
Vogeldijk,6,,,4585PK,Hengstdijk,Hulst,Zeeland,VBO,4.001003,51.339157
Vogeldijk,7,,,4585PK,Hengstdijk,Hulst,Zeeland,VBO,4.026268,51.336596
Vogeldijk,9,,,4585PK,Hengstdijk,Hulst,Zeeland,VBO,4.026282,51.337081
Vogeldijk,12,,,4585PK,Hengstdijk,Hulst,Zeeland,VBO,4.022271,51.339255
Vogelweg,2,,,4585PL,Hengstdijk,Hulst,Zeeland,VBO,3.987262,51.333239
Vogelweg,4,,,4585PL,Hengstdijk,Hulst,Zeeland,VBO,3.991626,51.341175
Vogelweg,6,,,4585PL,Hengstdijk,Hulst,Zeeland,VBO,3.991824,51.342211
Vogelweg,8,,,4585PL,Hengstdijk,Hulst,Zeeland,VBO,3.990859,51.342335
Vogelfort,1,,,4585PM,Hengstdijk,Hulst,Zeeland,VBO,3.980480,51.337697
Vogelfort,2,,,4585PM,Hengstdijk,Hulst,Zeeland,VBO,3.981197,51.338667
Vogelfort,3,,,4585PM,Hengstdijk,Hulst,Zeeland,VBO,3.980560,51.337896
Vogelfort,4,A,,4585PM,Hengstdijk,Hulst,Zeeland,VBO,3.983267,51.338204
Vogelfort,5,,,4585PM,Hengstdijk,Hulst,Zeeland,VBO,3.980536,51.338219
Vogelfort,6,,,4585PM,Hengstdijk,Hulst,Zeeland,VBO,3.983889,51.338385
Vogelfort,7,,,4585PM,Hengstdijk,Hulst,Zeeland,VBO,3.980604,51.338337
Vogelfort,9,,,4585PM,Hengstdijk,Hulst,Zeeland,VBO,3.980657,51.338499
Vogelfort,10,,,4585PM,Hengstdijk,Hulst,Zeeland,VBO,3.984867,51.338325
Vogelfort,11,,,4585PM,Hengstdijk,Hulst,Zeeland,VBO,3.985290,51.338591
Vogelfort,13,,,4585PM,Hengstdijk,Hulst,Zeeland,VBO,3.985198,51.338770
Vogelfort,14,,,4585PM,Hengstdijk,Hulst,Zeeland,VBO,3.985992,51.338608
Vogelfort,17,,,4585PM,Hengstdijk,Hulst,Zeeland,VBO,3.984992,51.338947
Hengstdijksekeiweg,1,a,,4585PN,Hengstdijk,Hulst,Zeeland,VBO,3.984718,51.325356
Hengstdijksekeiweg,1,b,,4585PN,Hengstdijk,Hulst,Zeeland,VBO,3.984997,51.326613
Hengstdijksekeiweg,1,c,,4585PN,Hengstdijk,Hulst,Zeeland,VBO,3.985616,51.326081
Hengstdijksekeiweg,1,d,,4585PN,Hengstdijk,Hulst,Zeeland,VBO,3.984960,51.326873
Hengstdijksekeiweg,1,,,4585PN,Hengstdijk,Hulst,Zeeland,VBO,3.985928,51.325882
Hengstdijksekeiweg,2,,,4585PN,Hengstdijk,Hulst,Zeeland,VBO,3.984302,51.328681
Hengstdijksekeiweg,3,,,4585PN,Hengstdijk,Hulst,Zeeland,VBO,3.983312,51.328669
Hengstdijksekeiweg,4,,,4585PN,Hengstdijk,Hulst,Zeeland,VBO,3.981467,51.335488
Zuiddijk,1,,,4585PP,Hengstdijk,Hulst,Zeeland,VBO,3.984480,51.344847
Zuiddijk,3,,,4585PP,Hengstdijk,Hulst,Zeeland,VBO,3.983807,51.344847
Zuiddijk,4,,,4585PP,Hengstdijk,Hulst,Zeeland,VBO,3.984954,51.345320
Zuiddijk,6,,,4585PP,Hengstdijk,Hulst,Zeeland,VBO,3.977522,51.347373
Zuiddijk,9,a,,4585PP,Hengstdijk,Hulst,Zeeland,VBO,3.978915,51.347522
Zuiddijk,9,,,4585PP,Hengstdijk,Hulst,Zeeland,VBO,3.979013,51.347577
Zuiddijk,10,,,4585PP,Hengstdijk,Hulst,Zeeland,VBO,3.971944,51.350116
Zuiddijk,11,t,,4585PP,Hengstdijk,Hulst,Zeeland,VBO,3.977849,51.347057
Zuiddijk,11,,,4585PP,Hengstdijk,Hulst,Zeeland,VBO,3.978336,51.347209
Zuiddijk,12,,,4585PP,Hengstdijk,Hulst,Zeeland,VBO,3.970535,51.351574
Zuiddijk,13,,,4585PP,Hengstdijk,Hulst,Zeeland,VBO,3.977639,51.346985
Zuiddijk,15,,,4585PP,Hengstdijk,Hulst,Zeeland,VBO,3.977425,51.346938
Zuiddijk,17,,,4585PP,Hengstdijk,Hulst,Zeeland,VBO,3.976524,51.347295
Zuiddijk,18,,,4585PP,Hengstdijk,Hulst,Zeeland,VBO,3.960169,51.353874
Zuiddijk,21,,,4585PP,Hengstdijk,Hulst,Zeeland,VBO,3.966076,51.351834
Zuiddijk,22,,,4585PP,Hengstdijk,Hulst,Zeeland,VBO,3.959472,51.353668
Zuiddijk,25,t,,4585PP,Hengstdijk,Hulst,Zeeland,VBO,3.963030,51.352519
Zuiddijk,25,,,4585PP,Hengstdijk,Hulst,Zeeland,VBO,3.962808,51.352576
Zuiddijk,27,,,4585PP,Hengstdijk,Hulst,Zeeland,VBO,3.960666,51.353125
Zuiddijk,29,,,4585PP,Hengstdijk,Hulst,Zeeland,VBO,3.960015,51.353297
Rummersdijkstraat,1,,,4585PR,Hengstdijk,Hulst,Zeeland,VBO,3.971620,51.354553
Dijk van de Klein Hengstdijkpolder,1,,,4585PS,Hengstdijk,Hulst,Zeeland,VBO,3.976936,51.358151
Dijk van de Klein Hengstdijkpolder,2,,,4585PS,Hengstdijk,Hulst,Zeeland,VBO,3.973600,51.354595
Dijk van de Klein Hengstdijkpolder,3,,,4585PS,Hengstdijk,Hulst,Zeeland,VBO,3.979179,51.360372
Dijk van de Klein Hengstdijkpolder,6,,,4585PS,Hengstdijk,Hulst,Zeeland,VBO,3.980721,51.359258
Plattedijk,1,,,4585PT,Hengstdijk,Hulst,Zeeland,VBO,3.979556,51.348599
Plattedijk,2,,,4585PT,Hengstdijk,Hulst,Zeeland,VBO,3.980374,51.348618
Plattedijk,3,,,4585PT,Hengstdijk,Hulst,Zeeland,VBO,3.982302,51.350799
Plattedijk,4,,,4585PT,Hengstdijk,Hulst,Zeeland,VBO,3.980794,51.348909
Plattedijk,5,,,4585PT,Hengstdijk,Hulst,Zeeland,VBO,3.981794,51.350991
Plattedijk,6,a,,4585PT,Hengstdijk,Hulst,Zeeland,VBO,3.988004,51.350733
Plattedijk,6,,,4585PT,Hengstdijk,Hulst,Zeeland,VBO,3.983300,51.351289
Plattedijk,8,,,4585PT,Hengstdijk,Hulst,Zeeland,VBO,4.001255,51.354505
Plattedijk,9,,,4585PT,Hengstdijk,Hulst,Zeeland,VBO,3.989088,51.353784
Plattedijk,10,,,4585PT,Hengstdijk,Hulst,Zeeland,VBO,4.002916,51.354660
Plattedijk,11,,,4585PT,Hengstdijk,Hulst,Zeeland,VBO,4.000547,51.354668
Plattedijk,12,,,4585PT,Hengstdijk,Hulst,Zeeland,VBO,4.003187,51.354708
Plattedijk,13,,,4585PT,Hengstdijk,Hulst,Zeeland,VBO,4.004284,51.354982
Plattedijk,14,,,4585PT,Hengstdijk,Hulst,Zeeland,VBO,4.004560,51.354877
Plattedijk,15,,,4585PT,Hengstdijk,Hulst,Zeeland,VBO,4.012034,51.356044
Plattedijk,16,,,4585PT,Hengstdijk,Hulst,Zeeland,VBO,4.013683,51.356118
Plattedijk,20,,,4585PT,Hengstdijk,Hulst,Zeeland,VBO,4.017886,51.356725
Hengstdijksestraat,1,,,4585PV,Hengstdijk,Hulst,Zeeland,VBO,4.001405,51.358543
Hengstdijksestraat,2,a,,4585PV,Hengstdijk,Hulst,Zeeland,VBO,3.997231,51.347694
Hengstdijksestraat,2,,,4585PV,Hengstdijk,Hulst,Zeeland,VBO,3.999791,51.354964
Hengstdijksestraat,4,,,4585PV,Hengstdijk,Hulst,Zeeland,VBO,4.002044,51.357542
Hengstdijksestraat,4,,,4585PV,Hengstdijk,Hulst,Zeeland,VBO,4.002175,51.357788
Hengstdijksestraat,5,,,4585PV,Hengstdijk,Hulst,Zeeland,VBO,3.994449,51.347448
Oude Havendijk,2,,,4585PW,Hengstdijk,Hulst,Zeeland,VBO,3.987051,51.341411
Oude Havendijk,2,,,4585PW,Hengstdijk,Hulst,Zeeland,VBO,3.987297,51.341141
Koningsdijk,1,,,4585RX,Hengstdijk,Hulst,Zeeland,VBO,3.987348,51.353871
Koningsdijk,2,,,4585RX,Hengstdijk,Hulst,Zeeland,VBO,3.987838,51.353814
Koningsdijk,3,,,4585RX,Hengstdijk,Hulst,Zeeland,VBO,3.987369,51.354105
Koningsdijk,4,,,4585RX,Hengstdijk,Hulst,Zeeland,VBO,3.986691,51.357504
Koningsdijk,5,,,4585RX,Hengstdijk,Hulst,Zeeland,VBO,3.987383,51.356011
Koningsdijk,7,,,4585RX,Hengstdijk,Hulst,Zeeland,VBO,3.986584,51.356647
Koningsdijk,8,,,4585RX,Hengstdijk,Hulst,Zeeland,VBO,3.986748,51.358899
Koningsdijk,9,,,4585RX,Hengstdijk,Hulst,Zeeland,VBO,3.985985,51.358035
Koningsdijk,10,,,4585RX,Hengstdijk,Hulst,Zeeland,VBO,3.990295,51.363580
Koningsdijk,11,,,4585RX,Hengstdijk,Hulst,Zeeland,VBO,3.985850,51.358223
Koningsdijk,12,,,4585RX,Hengstdijk,Hulst,Zeeland,VBO,3.991101,51.363536
Koningsdijk,13,,,4585RX,Hengstdijk,Hulst,Zeeland,VBO,3.985656,51.358472
Koningsdijk,14,,,4585RX,Hengstdijk,Hulst,Zeeland,VBO,3.993139,51.363102
Koningsdijk,15,,,4585RX,Hengstdijk,Hulst,Zeeland,VBO,3.985300,51.359313
Koningsdijk,16,,,4585RX,Hengstdijk,Hulst,Zeeland,VBO,3.993400,51.363015
Koningsdijk,17,,,4585RX,Hengstdijk,Hulst,Zeeland,VBO,3.985224,51.359456
Koningsdijk,18,,,4585RX,Hengstdijk,Hulst,Zeeland,VBO,3.993992,51.362914
