openbareruimtenaam,huisnummer,huisletter,huisnummertoevoeging,postcode,woonplaatsnaam,gemeentenaam,provincienaam,typeadresseerbaarobject,longitude,latitude
Leidingstraat,11,,,4634PA,Woensdrecht,Woensdrecht,Noord-Brabant,VBO,4.275245,51.410069
Hoogerwerf,14,,,4634PG,Woensdrecht,Woensdrecht,Noord-Brabant,VBO,4.272770,51.388423
Martinushoeveweg,3,a,,4634PH,Woensdrecht,Woensdrecht,Noord-Brabant,VBO,4.283928,51.398233
Martinushoeveweg,3,,,4634PH,Woensdrecht,Woensdrecht,Noord-Brabant,VBO,4.285326,51.398539
Martinushoeveweg,5,,,4634PH,Woensdrecht,Woensdrecht,Noord-Brabant,VBO,4.278173,51.397221
Martinushoeveweg,9,,,4634PH,Woensdrecht,Woensdrecht,Noord-Brabant,VBO,4.270304,51.393464
Nieuw Hinkelenoordweg,1,,,4634PJ,Woensdrecht,Woensdrecht,Noord-Brabant,VBO,4.280881,51.406347
Van der Duijnspolderweg,5,,,4634PK,Woensdrecht,Woensdrecht,Noord-Brabant,VBO,4.264507,51.416472
Van der Duijnspolderweg,7,,,4634PK,Woensdrecht,Woensdrecht,Noord-Brabant,VBO,4.265403,51.415707
Statieweg,2,,,4634PL,Woensdrecht,Woensdrecht,Noord-Brabant,VBO,4.295587,51.444184
Statieweg,3,,,4634PL,Woensdrecht,Woensdrecht,Noord-Brabant,VBO,4.294459,51.443686
Statieweg,5,,,4634PL,Woensdrecht,Woensdrecht,Noord-Brabant,VBO,4.294379,51.443582
Oud Hinkelenoorddijk,5,a,,4634PN,Woensdrecht,Woensdrecht,Noord-Brabant,VBO,4.281909,51.418367
Oud Hinkelenoorddijk,5,,,4634PN,Woensdrecht,Woensdrecht,Noord-Brabant,VBO,4.281407,51.418530
Oud Hinkelenoorddijk,7,,,4634PN,Woensdrecht,Woensdrecht,Noord-Brabant,VBO,4.284019,51.415175
Oud Hinkelenoorddijk,9,,,4634PN,Woensdrecht,Woensdrecht,Noord-Brabant,VBO,4.283571,51.409912
Oud Hinkelenoorddijk,11,,,4634PN,Woensdrecht,Woensdrecht,Noord-Brabant,VBO,4.289212,51.406647
Grindweg,1,a,,4634PP,Woensdrecht,Woensdrecht,Noord-Brabant,VBO,4.290183,51.427627
Grindweg,1,c,,4634PP,Woensdrecht,Woensdrecht,Noord-Brabant,VBO,4.295807,51.429053
Grindweg,1,,,4634PP,Woensdrecht,Woensdrecht,Noord-Brabant,VBO,4.295540,51.429123
Grindweg,2,,,4634PP,Woensdrecht,Woensdrecht,Noord-Brabant,VBO,4.297077,51.429682
Grindweg,3,a,,4634PP,Woensdrecht,Woensdrecht,Noord-Brabant,VBO,4.287891,51.426798
Grindweg,3,,,4634PP,Woensdrecht,Woensdrecht,Noord-Brabant,VBO,4.288741,51.426834
Grindweg,4,,,4634PP,Woensdrecht,Woensdrecht,Noord-Brabant,VBO,4.296183,51.429492
Grindweg,5,,,4634PP,Woensdrecht,Woensdrecht,Noord-Brabant,VBO,4.285024,51.425909
Grindweg,7,,,4634PP,Woensdrecht,Woensdrecht,Noord-Brabant,VBO,4.283876,51.425826
Grindweg,9,a,,4634PP,Woensdrecht,Woensdrecht,Noord-Brabant,VBO,4.277791,51.425176
Grindweg,9,,,4634PP,Woensdrecht,Woensdrecht,Noord-Brabant,VBO,4.277482,51.425037
Langeweg,1,,,4634PS,Woensdrecht,Woensdrecht,Noord-Brabant,VBO,4.292692,51.440714
Langeweg,2,a,,4634PS,Woensdrecht,Woensdrecht,Noord-Brabant,VBO,4.296441,51.433069
Langeweg,2,,,4634PS,Woensdrecht,Woensdrecht,Noord-Brabant,VBO,4.296166,51.432942
Langeweg,3,,,4634PS,Woensdrecht,Woensdrecht,Noord-Brabant,VBO,4.293776,51.440500
Langeweg,4,,,4634PS,Woensdrecht,Woensdrecht,Noord-Brabant,VBO,4.296087,51.434094
Vijdtpolder,1,,,4634PW,Woensdrecht,Woensdrecht,Noord-Brabant,VBO,4.275049,51.382550
Caterspolder,1,a,,4634PZ,Woensdrecht,Woensdrecht,Noord-Brabant,VBO,4.286069,51.440920
Caterspolder,1,,,4634PZ,Woensdrecht,Woensdrecht,Noord-Brabant,VBO,4.286467,51.440511
Caterspolder,3,,,4634PZ,Woensdrecht,Woensdrecht,Noord-Brabant,VBO,4.281018,51.435795
Bossestraat,1,,,4634RG,Woensdrecht,Woensdrecht,Noord-Brabant,VBO,4.310184,51.432166
Bossestraat,2,a,,4634RG,Woensdrecht,Woensdrecht,Noord-Brabant,VBO,4.310969,51.432416
Bossestraat,2,,,4634RG,Woensdrecht,Woensdrecht,Noord-Brabant,VBO,4.310769,51.432379
Bossestraat,3,,,4634RG,Woensdrecht,Woensdrecht,Noord-Brabant,VBO,4.310005,51.432425
Bossestraat,4,a,,4634RG,Woensdrecht,Woensdrecht,Noord-Brabant,VBO,4.310450,51.432484
Bossestraat,5,,,4634RG,Woensdrecht,Woensdrecht,Noord-Brabant,VBO,4.309945,51.432560
Bossestraat,6,,,4634RG,Woensdrecht,Woensdrecht,Noord-Brabant,VBO,4.309716,51.433726
Bossestraat,7,a,,4634RG,Woensdrecht,Woensdrecht,Noord-Brabant,VBO,4.309794,51.432837
Bossestraat,7,b,,4634RG,Woensdrecht,Woensdrecht,Noord-Brabant,VBO,4.309690,51.432998
Bossestraat,7,,,4634RG,Woensdrecht,Woensdrecht,Noord-Brabant,VBO,4.309870,51.432685
Bossestraat,9,a,,4634RG,Woensdrecht,Woensdrecht,Noord-Brabant,VBO,4.309538,51.433320
Bossestraat,9,,,4634RG,Woensdrecht,Woensdrecht,Noord-Brabant,VBO,4.309613,51.433186
Bossestraat,10,a,,4634RG,Woensdrecht,Woensdrecht,Noord-Brabant,VBO,4.309479,51.434076
Bossestraat,10,,,4634RG,Woensdrecht,Woensdrecht,Noord-Brabant,VBO,4.309494,51.433958
Bossestraat,11,a,,4634RG,Woensdrecht,Woensdrecht,Noord-Brabant,VBO,4.309330,51.433633
Bossestraat,11,,,4634RG,Woensdrecht,Woensdrecht,Noord-Brabant,VBO,4.309404,51.433517
Bossestraat,12,,,4634RG,Woensdrecht,Woensdrecht,Noord-Brabant,VBO,4.309342,51.434334
Bossestraat,13,,,4634RG,Woensdrecht,Woensdrecht,Noord-Brabant,VBO,4.309211,51.433794
Bossestraat,14,,,4634RG,Woensdrecht,Woensdrecht,Noord-Brabant,VBO,4.309165,51.434494
Bossestraat,15,,,4634RG,Woensdrecht,Woensdrecht,Noord-Brabant,VBO,4.309206,51.433991
Bossestraat,16,,,4634RG,Woensdrecht,Woensdrecht,Noord-Brabant,VBO,4.307378,51.436491
Bossestraat,17,,,4634RG,Woensdrecht,Woensdrecht,Noord-Brabant,VBO,4.308853,51.434321
Bossestraat,19,,,4634RG,Woensdrecht,Woensdrecht,Noord-Brabant,VBO,4.308746,51.434580
Bossestraat,23,,,4634RG,Woensdrecht,Woensdrecht,Noord-Brabant,VBO,4.308533,51.435082
Bossestraat,27,,,4634RG,Woensdrecht,Woensdrecht,Noord-Brabant,VBO,4.307756,51.435695
Bossestraat,31,,,4634RG,Woensdrecht,Woensdrecht,Noord-Brabant,VBO,4.307067,51.436264
Bossestraat,33,,,4634RG,Woensdrecht,Woensdrecht,Noord-Brabant,VBO,4.306283,51.437155
Hogerwaardpolder,1,,,4634SB,Woensdrecht,Woensdrecht,Noord-Brabant,VBO,4.274412,51.433105
Hogerwaardpolder,2,,,4634SB,Woensdrecht,Woensdrecht,Noord-Brabant,VBO,4.269297,51.436220
Caterspolder,2,,,4634SC,Woensdrecht,Woensdrecht,Noord-Brabant,VBO,4.285543,51.440153
Fortuinstraat,1,,,4634TD,Woensdrecht,Woensdrecht,Noord-Brabant,VBO,4.310869,51.430861
Fortuinstraat,6,,,4634TD,Woensdrecht,Woensdrecht,Noord-Brabant,VBO,4.310596,51.431154
Fortuinstraat,8,,,4634TD,Woensdrecht,Woensdrecht,Noord-Brabant,VBO,4.310366,51.431152
Fortuinstraat,10,,,4634TD,Woensdrecht,Woensdrecht,Noord-Brabant,VBO,4.310150,51.431150
Fortuinstraat,12,,,4634TD,Woensdrecht,Woensdrecht,Noord-Brabant,VBO,4.308721,51.431982
Fortuinstraat,14,,,4634TD,Woensdrecht,Woensdrecht,Noord-Brabant,VBO,4.309734,51.431129
Fortuinstraat,16,,,4634TD,Woensdrecht,Woensdrecht,Noord-Brabant,VBO,4.309504,51.431126
Fortuinstraat,18,,,4634TD,Woensdrecht,Woensdrecht,Noord-Brabant,VBO,4.309246,51.431125
Fortuinstraat,20,,,4634TD,Woensdrecht,Woensdrecht,Noord-Brabant,VBO,4.309030,51.431104
Fortuinstraat,22,,,4634TD,Woensdrecht,Woensdrecht,Noord-Brabant,VBO,4.308800,51.431093
Fortuinstraat,24,,,4634TD,Woensdrecht,Woensdrecht,Noord-Brabant,VBO,4.308556,51.431073
Fortuinstraat,26,,,4634TD,Woensdrecht,Woensdrecht,Noord-Brabant,VBO,4.308136,51.431195
Vinkenslag,2,,,4634TE,Woensdrecht,Woensdrecht,Noord-Brabant,VBO,4.301638,51.431107
Vinkenslag,4,,,4634TE,Woensdrecht,Woensdrecht,Noord-Brabant,VBO,4.301670,51.430973
Vinkenslag,6,,,4634TE,Woensdrecht,Woensdrecht,Noord-Brabant,VBO,4.301702,51.430838
Vinkenslag,8,,,4634TE,Woensdrecht,Woensdrecht,Noord-Brabant,VBO,4.301734,51.430713
Vinkenslag,10,,,4634TE,Woensdrecht,Woensdrecht,Noord-Brabant,VBO,4.301809,51.430570
Vinkenslag,12,,,4634TE,Woensdrecht,Woensdrecht,Noord-Brabant,VBO,4.301955,51.430463
Vinkenslag,14,,,4634TE,Woensdrecht,Woensdrecht,Noord-Brabant,VBO,4.302123,51.430395
Vinkenslag,16,,,4634TE,Woensdrecht,Woensdrecht,Noord-Brabant,VBO,4.302455,51.430346
Vinkenslag,18,,,4634TE,Woensdrecht,Woensdrecht,Noord-Brabant,VBO,4.302534,51.430339
Vinkenslag,20,,,4634TE,Woensdrecht,Woensdrecht,Noord-Brabant,VBO,4.302699,51.430333
Vinkenslag,22,,,4634TE,Woensdrecht,Woensdrecht,Noord-Brabant,VBO,4.302779,51.430334
Vinkenslag,24,,,4634TE,Woensdrecht,Woensdrecht,Noord-Brabant,VBO,4.302944,51.430343
Vinkenslag,26,,,4634TE,Woensdrecht,Woensdrecht,Noord-Brabant,VBO,4.303022,51.430351
Vinkenslag,28,,,4634TE,Woensdrecht,Woensdrecht,Noord-Brabant,VBO,4.303240,51.430387
Vinkenslag,30,,,4634TE,Woensdrecht,Woensdrecht,Noord-Brabant,VBO,4.303315,51.430404
Vinkenslag,32,,,4634TE,Woensdrecht,Woensdrecht,Noord-Brabant,VBO,4.303465,51.430447
Vinkenslag,34,,,4634TE,Woensdrecht,Woensdrecht,Noord-Brabant,VBO,4.303535,51.430472
Vinkenslag,36,,,4634TE,Woensdrecht,Woensdrecht,Noord-Brabant,VBO,4.303673,51.430528
Vinkenslag,38,,,4634TE,Woensdrecht,Woensdrecht,Noord-Brabant,VBO,4.303736,51.430559
Vinkenslag,40,,,4634TE,Woensdrecht,Woensdrecht,Noord-Brabant,VBO,4.303916,51.430654
Vinkenslag,42,,,4634TE,Woensdrecht,Woensdrecht,Noord-Brabant,VBO,4.304046,51.430726
Vinkenslag,44,,,4634TE,Woensdrecht,Woensdrecht,Noord-Brabant,VBO,4.304175,51.430798
Vinkenslag,46,,,4634TE,Woensdrecht,Woensdrecht,Noord-Brabant,VBO,4.304305,51.430870
Vinkenslag,48,,,4634TE,Woensdrecht,Woensdrecht,Noord-Brabant,VBO,4.304436,51.430942
Vinkenslag,50,,,4634TE,Woensdrecht,Woensdrecht,Noord-Brabant,VBO,4.304584,51.431020
Vinkenslag,52,,,4634TE,Woensdrecht,Woensdrecht,Noord-Brabant,VBO,4.304736,51.431087
Vinkenslag,54,,,4634TE,Woensdrecht,Woensdrecht,Noord-Brabant,VBO,4.304902,51.431139
Vinkenslag,56,,,4634TE,Woensdrecht,Woensdrecht,Noord-Brabant,VBO,4.305092,51.431180
Vinkenslag,58,,,4634TE,Woensdrecht,Woensdrecht,Noord-Brabant,VBO,4.305369,51.431201
Vinkenslag,1,,,4634TG,Woensdrecht,Woensdrecht,Noord-Brabant,VBO,4.301968,51.431235
Vinkenslag,3,,,4634TG,Woensdrecht,Woensdrecht,Noord-Brabant,VBO,4.302006,51.431079
Vinkenslag,5,,,4634TG,Woensdrecht,Woensdrecht,Noord-Brabant,VBO,4.302046,51.431001
Vinkenslag,7,,,4634TG,Woensdrecht,Woensdrecht,Noord-Brabant,VBO,4.302066,51.430823
Vinkenslag,9,,,4634TG,Woensdrecht,Woensdrecht,Noord-Brabant,VBO,4.302104,51.430744
Vinkenslag,11,,,4634TG,Woensdrecht,Woensdrecht,Noord-Brabant,VBO,4.302295,51.430593
Vinkenslag,13,,,4634TG,Woensdrecht,Woensdrecht,Noord-Brabant,VBO,4.302417,51.430575
Vinkenslag,15,,,4634TG,Woensdrecht,Woensdrecht,Noord-Brabant,VBO,4.302672,51.430578
Vinkenslag,17,,,4634TG,Woensdrecht,Woensdrecht,Noord-Brabant,VBO,4.302758,51.430587
Vinkenslag,19,,,4634TG,Woensdrecht,Woensdrecht,Noord-Brabant,VBO,4.302930,51.430580
Vinkenslag,21,,,4634TG,Woensdrecht,Woensdrecht,Noord-Brabant,VBO,4.303002,51.430590
Vinkenslag,23,,,4634TG,Woensdrecht,Woensdrecht,Noord-Brabant,VBO,4.303159,51.430627
Vinkenslag,25,,,4634TG,Woensdrecht,Woensdrecht,Noord-Brabant,VBO,4.303245,51.430637
Vinkenslag,29,,,4634TG,Woensdrecht,Woensdrecht,Noord-Brabant,VBO,4.303937,51.430964
Vinkenslag,31,,,4634TG,Woensdrecht,Woensdrecht,Noord-Brabant,VBO,4.304183,51.431113
Vinkenslag,33,,,4634TG,Woensdrecht,Woensdrecht,Noord-Brabant,VBO,4.304254,51.431150
Vinkenslag,35,,,4634TG,Woensdrecht,Woensdrecht,Noord-Brabant,VBO,4.304396,51.431232
Vinkenslag,37,,,4634TG,Woensdrecht,Woensdrecht,Noord-Brabant,VBO,4.304467,51.431260
Vinkenslag,39,,,4634TG,Woensdrecht,Woensdrecht,Noord-Brabant,VBO,4.304639,51.431315
Vinkenslag,41,,,4634TG,Woensdrecht,Woensdrecht,Noord-Brabant,VBO,4.304724,51.431343
Vinkenslag,43,,,4634TG,Woensdrecht,Woensdrecht,Noord-Brabant,VBO,4.304910,51.431390
Vinkenslag,45,,,4634TG,Woensdrecht,Woensdrecht,Noord-Brabant,VBO,4.304982,51.431399
Vinkenslag,47,,,4634TG,Woensdrecht,Woensdrecht,Noord-Brabant,VBO,4.305211,51.431428
Vinkenslag,49,,,4634TG,Woensdrecht,Woensdrecht,Noord-Brabant,VBO,4.305283,51.431429
Vinkenslag,51,,,4634TG,Woensdrecht,Woensdrecht,Noord-Brabant,VBO,4.305569,51.431503
Vinkenslag,53,,,4634TG,Woensdrecht,Woensdrecht,Noord-Brabant,VBO,4.305626,51.431531
Nederheide,1,,,4634TH,Woensdrecht,Woensdrecht,Noord-Brabant,VBO,4.311352,51.429588
Nederheide,3,,,4634TH,Woensdrecht,Woensdrecht,Noord-Brabant,VBO,4.311321,51.429705
Nederheide,5,,,4634TH,Woensdrecht,Woensdrecht,Noord-Brabant,VBO,4.311303,51.429831
Nederheide,7,,,4634TH,Woensdrecht,Woensdrecht,Noord-Brabant,VBO,4.311271,51.429974
Nederheide,9,a,,4634TH,Woensdrecht,Woensdrecht,Noord-Brabant,VBO,4.311148,51.430297
Nederheide,9,,,4634TH,Woensdrecht,Woensdrecht,Noord-Brabant,VBO,4.311239,51.430100
Nederheide,11,,,4634TH,Woensdrecht,Woensdrecht,Noord-Brabant,VBO,4.311115,51.430476
Nederheide,13,,,4634TH,Woensdrecht,Woensdrecht,Noord-Brabant,VBO,4.311092,51.430853
Nederheide,25,,,4634TH,Woensdrecht,Woensdrecht,Noord-Brabant,VBO,4.311079,51.431411
Nederheide,27,a,,4634TH,Woensdrecht,Woensdrecht,Noord-Brabant,VBO,4.311072,51.431707
Nederheide,27,,,4634TH,Woensdrecht,Woensdrecht,Noord-Brabant,VBO,4.311075,51.431599
Nederheide,29,,,4634TH,Woensdrecht,Woensdrecht,Noord-Brabant,VBO,4.311069,51.431851
Nederheide,31,,,4634TH,Woensdrecht,Woensdrecht,Noord-Brabant,VBO,4.311022,51.432012
Nederheide,2,a,,4634TJ,Woensdrecht,Woensdrecht,Noord-Brabant,VBO,4.311948,51.429324
Nederheide,2,b,,4634TJ,Woensdrecht,Woensdrecht,Noord-Brabant,VBO,4.311916,51.429477
Nederheide,2,c,,4634TJ,Woensdrecht,Woensdrecht,Noord-Brabant,VBO,4.311914,51.429549
Nederheide,2,d,,4634TJ,Woensdrecht,Woensdrecht,Noord-Brabant,VBO,4.311762,51.429889
Nederheide,2,,,4634TJ,Woensdrecht,Woensdrecht,Noord-Brabant,VBO,4.311950,51.429252
Nederheide,4,,,4634TJ,Woensdrecht,Woensdrecht,Noord-Brabant,VBO,4.311587,51.430004
Nederheide,6,,,4634TJ,Woensdrecht,Woensdrecht,Noord-Brabant,VBO,4.311696,51.430239
Nederheide,8,a,,4634TJ,Woensdrecht,Woensdrecht,Noord-Brabant,VBO,4.311603,51.430552
Nederheide,8,,,4634TJ,Woensdrecht,Woensdrecht,Noord-Brabant,VBO,4.311677,51.430427
Nederheide,10,,,4634TJ,Woensdrecht,Woensdrecht,Noord-Brabant,VBO,4.311506,51.430709
Nederheide,14,,,4634TJ,Woensdrecht,Woensdrecht,Noord-Brabant,VBO,4.311467,51.430896
Nederheide,16,a,,4634TJ,Woensdrecht,Woensdrecht,Noord-Brabant,VBO,4.311510,51.431415
Nederheide,16,b,,4634TJ,Woensdrecht,Woensdrecht,Noord-Brabant,VBO,4.311509,51.431478
Nederheide,16,,,4634TJ,Woensdrecht,Woensdrecht,Noord-Brabant,VBO,4.311514,51.431271
Nederheide,18,a,,4634TJ,Woensdrecht,Woensdrecht,Noord-Brabant,VBO,4.311487,51.431783
Nederheide,18,,,4634TJ,Woensdrecht,Woensdrecht,Noord-Brabant,VBO,4.311506,51.431612
Nederheide,20,,,4634TJ,Woensdrecht,Woensdrecht,Noord-Brabant,VBO,4.311442,51.431890
Nederheide,22,,,4634TJ,Woensdrecht,Woensdrecht,Noord-Brabant,VBO,4.311466,51.432070
Nederheide,24,,,4634TJ,Woensdrecht,Woensdrecht,Noord-Brabant,VBO,4.311478,51.432196
IJsberg,1,,,4634TK,Woensdrecht,Woensdrecht,Noord-Brabant,VBO,4.311391,51.429175
IJsberg,3,,,4634TK,Woensdrecht,Woensdrecht,Noord-Brabant,VBO,4.310990,51.429091
IJsberg,5,,,4634TK,Woensdrecht,Woensdrecht,Noord-Brabant,VBO,4.310558,51.429096
IJsberg,7,,,4634TK,Woensdrecht,Woensdrecht,Noord-Brabant,VBO,4.310066,51.429131
IJsberg,2,,,4634TL,Woensdrecht,Woensdrecht,Noord-Brabant,VBO,4.311341,51.429444
Dorpsstraat,5,,,4634TM,Woensdrecht,Woensdrecht,Noord-Brabant,VBO,4.308724,51.428463
Dorpsstraat,7,,,4634TM,Woensdrecht,Woensdrecht,Noord-Brabant,VBO,4.308318,51.428430
Dorpsstraat,9,,,4634TM,Woensdrecht,Woensdrecht,Noord-Brabant,VBO,4.307949,51.428450
Dorpsstraat,13,,,4634TM,Woensdrecht,Woensdrecht,Noord-Brabant,VBO,4.307553,51.428474
Dorpsstraat,15,,,4634TM,Woensdrecht,Woensdrecht,Noord-Brabant,VBO,4.307322,51.428526
Dorpsstraat,17,,,4634TM,Woensdrecht,Woensdrecht,Noord-Brabant,VBO,4.307149,51.428552
Dorpsstraat,19,,,4634TM,Woensdrecht,Woensdrecht,Noord-Brabant,VBO,4.307033,51.428569
Dorpsstraat,21,,,4634TM,Woensdrecht,Woensdrecht,Noord-Brabant,VBO,4.306922,51.428604
Dorpsstraat,23,a,,4634TM,Woensdrecht,Woensdrecht,Noord-Brabant,VBO,4.306664,51.428644
Dorpsstraat,23,,,4634TM,Woensdrecht,Woensdrecht,Noord-Brabant,VBO,4.306769,51.428628
Dorpsstraat,25,,,4634TM,Woensdrecht,Woensdrecht,Noord-Brabant,VBO,4.306528,51.428663
Dorpsstraat,27,,,4634TM,Woensdrecht,Woensdrecht,Noord-Brabant,VBO,4.306297,51.428697
Dorpsstraat,29,,,4634TM,Woensdrecht,Woensdrecht,Noord-Brabant,VBO,4.306139,51.428668
Dorpsstraat,31,,,4634TM,Woensdrecht,Woensdrecht,Noord-Brabant,VBO,4.305937,51.428702
Dorpsstraat,33,,,4634TM,Woensdrecht,Woensdrecht,Noord-Brabant,VBO,4.305618,51.428770
Dorpsstraat,35,,,4634TM,Woensdrecht,Woensdrecht,Noord-Brabant,VBO,4.305460,51.428806
Dorpsstraat,37,,,4634TM,Woensdrecht,Woensdrecht,Noord-Brabant,VBO,4.305287,51.428840
Dorpsstraat,39,a,,4634TM,Woensdrecht,Woensdrecht,Noord-Brabant,VBO,4.305062,51.428509
Dorpsstraat,39,,,4634TM,Woensdrecht,Woensdrecht,Noord-Brabant,VBO,4.305184,51.428929
Dorpsstraat,41,a,,4634TN,Woensdrecht,Woensdrecht,Noord-Brabant,VBO,4.304784,51.428989
Dorpsstraat,41,b,,4634TN,Woensdrecht,Woensdrecht,Noord-Brabant,VBO,4.304686,51.429003
Dorpsstraat,41,,,4634TN,Woensdrecht,Woensdrecht,Noord-Brabant,VBO,4.304889,51.428966
Dorpsstraat,43,a,,4634TN,Woensdrecht,Woensdrecht,Noord-Brabant,VBO,4.304778,51.428958
Dorpsstraat,43,b,,4634TN,Woensdrecht,Woensdrecht,Noord-Brabant,VBO,4.304883,51.428936
Dorpsstraat,43,c,,4634TN,Woensdrecht,Woensdrecht,Noord-Brabant,VBO,4.304987,51.428924
Dorpsstraat,43,d,,4634TN,Woensdrecht,Woensdrecht,Noord-Brabant,VBO,4.304691,51.428849
Dorpsstraat,43,e,,4634TN,Woensdrecht,Woensdrecht,Noord-Brabant,VBO,4.304680,51.428782
Dorpsstraat,43,f,,4634TN,Woensdrecht,Woensdrecht,Noord-Brabant,VBO,4.304669,51.428715
Dorpsstraat,43,,,4634TN,Woensdrecht,Woensdrecht,Noord-Brabant,VBO,4.304667,51.428969
Dorpsstraat,45,a,,4634TN,Woensdrecht,Woensdrecht,Noord-Brabant,VBO,4.304378,51.429021
Dorpsstraat,45,b,,4634TN,Woensdrecht,Woensdrecht,Noord-Brabant,VBO,4.304262,51.428982
Dorpsstraat,45,c,,4634TN,Woensdrecht,Woensdrecht,Noord-Brabant,VBO,4.304154,51.428990
Dorpsstraat,45,d,,4634TN,Woensdrecht,Woensdrecht,Noord-Brabant,VBO,4.304420,51.428866
Dorpsstraat,45,e,,4634TN,Woensdrecht,Woensdrecht,Noord-Brabant,VBO,4.304410,51.428799
Dorpsstraat,45,f,,4634TN,Woensdrecht,Woensdrecht,Noord-Brabant,VBO,4.304411,51.428731
Dorpsstraat,45,,,4634TN,Woensdrecht,Woensdrecht,Noord-Brabant,VBO,4.304490,51.429014
Dorpsstraat,47,a,,4634TN,Woensdrecht,Woensdrecht,Noord-Brabant,VBO,4.304771,51.428928
Dorpsstraat,47,b,,4634TN,Woensdrecht,Woensdrecht,Noord-Brabant,VBO,4.304735,51.428802
Dorpsstraat,47,c,,4634TN,Woensdrecht,Woensdrecht,Noord-Brabant,VBO,4.304719,51.428701
Dorpsstraat,47,d,,4634TN,Woensdrecht,Woensdrecht,Noord-Brabant,VBO,4.304338,51.428725
Dorpsstraat,47,e,,4634TN,Woensdrecht,Woensdrecht,Noord-Brabant,VBO,4.304354,51.428825
Dorpsstraat,47,f,,4634TN,Woensdrecht,Woensdrecht,Noord-Brabant,VBO,4.304479,51.428953
Dorpsstraat,47,g,,4634TN,Woensdrecht,Woensdrecht,Noord-Brabant,VBO,4.304369,51.428960
Dorpsstraat,47,,,4634TN,Woensdrecht,Woensdrecht,Noord-Brabant,VBO,4.304663,51.428938
Dorpsstraat,49,a,,4634TN,Woensdrecht,Woensdrecht,Noord-Brabant,VBO,4.304449,51.428864
Dorpsstraat,49,b,,4634TN,Woensdrecht,Woensdrecht,Noord-Brabant,VBO,4.304438,51.428797
Dorpsstraat,49,d,,4634TN,Woensdrecht,Woensdrecht,Noord-Brabant,VBO,4.304267,51.429014
Dorpsstraat,49,,,4634TN,Woensdrecht,Woensdrecht,Noord-Brabant,VBO,4.304434,51.429018
Dorpsstraat,51,,,4634TN,Woensdrecht,Woensdrecht,Noord-Brabant,VBO,4.303313,51.427788
Dorpsstraat,53,a,,4634TN,Woensdrecht,Woensdrecht,Noord-Brabant,VBO,4.303975,51.428990
Dorpsstraat,53,,,4634TN,Woensdrecht,Woensdrecht,Noord-Brabant,VBO,4.303889,51.428989
Dorpsstraat,55,,,4634TN,Woensdrecht,Woensdrecht,Noord-Brabant,VBO,4.303659,51.428960
Dorpsstraat,57,,,4634TN,Woensdrecht,Woensdrecht,Noord-Brabant,VBO,4.303415,51.428931
Dorpsstraat,59,,,4634TN,Woensdrecht,Woensdrecht,Noord-Brabant,VBO,4.303215,51.428902
Dorpsstraat,63,,,4634TN,Woensdrecht,Woensdrecht,Noord-Brabant,VBO,4.302770,51.428844
Dorpsstraat,65,,,4634TN,Woensdrecht,Woensdrecht,Noord-Brabant,VBO,4.302584,51.428824
Dorpsstraat,67,,,4634TN,Woensdrecht,Woensdrecht,Noord-Brabant,VBO,4.302224,51.428830
Dorpsstraat,69,,,4634TN,Woensdrecht,Woensdrecht,Noord-Brabant,VBO,4.302024,51.428801
Dorpsstraat,71,,,4634TN,Woensdrecht,Woensdrecht,Noord-Brabant,VBO,4.301952,51.428791
Dorpsstraat,73,,,4634TN,Woensdrecht,Woensdrecht,Noord-Brabant,VBO,4.301752,51.428726
Dorpsstraat,75,,,4634TN,Woensdrecht,Woensdrecht,Noord-Brabant,VBO,4.301593,51.428752
Dorpsstraat,77,,,4634TN,Woensdrecht,Woensdrecht,Noord-Brabant,VBO,4.301479,51.428742
Dorpsstraat,87,,,4634TN,Woensdrecht,Woensdrecht,Noord-Brabant,VBO,4.300656,51.428860
Dorpsstraat,89,,,4634TP,Woensdrecht,Woensdrecht,Noord-Brabant,VBO,4.300483,51.428885
Dorpsstraat,91,a,,4634TP,Woensdrecht,Woensdrecht,Noord-Brabant,VBO,4.300133,51.428883
Dorpsstraat,91,,,4634TP,Woensdrecht,Woensdrecht,Noord-Brabant,VBO,4.300338,51.428920
Dorpsstraat,93,a,,4634TP,Woensdrecht,Woensdrecht,Noord-Brabant,VBO,4.300004,51.428974
Dorpsstraat,97,,,4634TP,Woensdrecht,Woensdrecht,Noord-Brabant,VBO,4.299618,51.428985
Dorpsstraat,99,,,4634TP,Woensdrecht,Woensdrecht,Noord-Brabant,VBO,4.299212,51.429098
Dorpsstraat,101,,,4634TP,Woensdrecht,Woensdrecht,Noord-Brabant,VBO,4.299111,51.429115
Dorpsstraat,103,a,,4634TP,Woensdrecht,Woensdrecht,Noord-Brabant,VBO,4.298918,51.429005
Dorpsstraat,103,,,4634TP,Woensdrecht,Woensdrecht,Noord-Brabant,VBO,4.298981,51.429132
Dorpsstraat,105,,,4634TP,Woensdrecht,Woensdrecht,Noord-Brabant,VBO,4.298779,51.429160
Dorpsstraat,107,,,4634TP,Woensdrecht,Woensdrecht,Noord-Brabant,VBO,4.298649,51.429192
Dorpsstraat,109,,,4634TP,Woensdrecht,Woensdrecht,Noord-Brabant,VBO,4.298393,51.429073
Dorpsstraat,113,,,4634TP,Woensdrecht,Woensdrecht,Noord-Brabant,VBO,4.297837,51.428481
Dorpsstraat,115,,,4634TP,Woensdrecht,Woensdrecht,Noord-Brabant,VBO,4.298332,51.429225
Dorpsstraat,117,,,4634TP,Woensdrecht,Woensdrecht,Noord-Brabant,VBO,4.298107,51.429330
Dorpsstraat,119,,,4634TP,Woensdrecht,Woensdrecht,Noord-Brabant,VBO,4.297969,51.429383
Dorpsstraat,121,,,4634TP,Woensdrecht,Woensdrecht,Noord-Brabant,VBO,4.297874,51.429437
Dorpsstraat,123,,,4634TP,Woensdrecht,Woensdrecht,Noord-Brabant,VBO,4.297751,51.429489
Dorpsstraat,2,,,4634TR,Woensdrecht,Woensdrecht,Noord-Brabant,VBO,4.309157,51.428759
Dorpsstraat,4,a,,4634TR,Woensdrecht,Woensdrecht,Noord-Brabant,VBO,4.308784,51.428729
Dorpsstraat,4,,,4634TR,Woensdrecht,Woensdrecht,Noord-Brabant,VBO,4.308956,51.428748
Dorpsstraat,6,,,4634TR,Woensdrecht,Woensdrecht,Noord-Brabant,VBO,4.308597,51.428718
Dorpsstraat,8,,,4634TR,Woensdrecht,Woensdrecht,Noord-Brabant,VBO,4.308254,51.428625
Dorpsstraat,12,,,4634TR,Woensdrecht,Woensdrecht,Noord-Brabant,VBO,4.307664,51.428646
Dorpsstraat,14,,,4634TR,Woensdrecht,Woensdrecht,Noord-Brabant,VBO,4.307490,51.428708
Dorpsstraat,16,,,4634TR,Woensdrecht,Woensdrecht,Noord-Brabant,VBO,4.307246,51.428705
Dorpsstraat,22,,,4634TR,Woensdrecht,Woensdrecht,Noord-Brabant,VBO,4.306596,51.428807
Dorpsstraat,24,,,4634TR,Woensdrecht,Woensdrecht,Noord-Brabant,VBO,4.306419,51.428850
Dorpsstraat,26,,,4634TR,Woensdrecht,Woensdrecht,Noord-Brabant,VBO,4.306221,51.428867
Dorpsstraat,28,,,4634TR,Woensdrecht,Woensdrecht,Noord-Brabant,VBO,4.306019,51.428910
Dorpsstraat,30,a,,4634TR,Woensdrecht,Woensdrecht,Noord-Brabant,VBO,4.305512,51.429040
Dorpsstraat,30,,,4634TR,Woensdrecht,Woensdrecht,Noord-Brabant,VBO,4.305758,51.428988
Dorpsstraat,32,,,4634TR,Woensdrecht,Woensdrecht,Noord-Brabant,VBO,4.305296,51.429083
Dorpsstraat,34,,,4634TR,Woensdrecht,Woensdrecht,Noord-Brabant,VBO,4.305151,51.429126
Dorpsstraat,36,,,4634TS,Woensdrecht,Woensdrecht,Noord-Brabant,VBO,4.304156,51.429216
Dorpsstraat,38,,,4634TS,Woensdrecht,Woensdrecht,Noord-Brabant,VBO,4.304024,51.429300
Dorpsstraat,40,,,4634TS,Woensdrecht,Woensdrecht,Noord-Brabant,VBO,4.303840,51.429231
Dorpsstraat,42,,,4634TS,Woensdrecht,Woensdrecht,Noord-Brabant,VBO,4.303625,51.429193
Dorpsstraat,44,,,4634TS,Woensdrecht,Woensdrecht,Noord-Brabant,VBO,4.303453,51.429183
Dorpsstraat,46,,,4634TS,Woensdrecht,Woensdrecht,Noord-Brabant,VBO,4.303266,51.429154
Dorpsstraat,48,,,4634TS,Woensdrecht,Woensdrecht,Noord-Brabant,VBO,4.303080,51.429134
Dorpsstraat,50,,,4634TS,Woensdrecht,Woensdrecht,Noord-Brabant,VBO,4.302894,51.429105
Dorpsstraat,52,,,4634TS,Woensdrecht,Woensdrecht,Noord-Brabant,VBO,4.302736,51.429086
Dorpsstraat,54,,,4634TS,Woensdrecht,Woensdrecht,Noord-Brabant,VBO,4.302563,51.429093
Dorpsstraat,56,a,,4634TS,Woensdrecht,Woensdrecht,Noord-Brabant,VBO,4.302119,51.429008
Dorpsstraat,56,,,4634TS,Woensdrecht,Woensdrecht,Noord-Brabant,VBO,4.302220,51.429027
Dorpsstraat,58,,,4634TS,Woensdrecht,Woensdrecht,Noord-Brabant,VBO,4.302033,51.428999
Dorpsstraat,60,,,4634TS,Woensdrecht,Woensdrecht,Noord-Brabant,VBO,4.301890,51.428979
Dorpsstraat,62,,,4634TS,Woensdrecht,Woensdrecht,Noord-Brabant,VBO,4.301755,51.428956
Dorpsstraat,64,,,4634TS,Woensdrecht,Woensdrecht,Noord-Brabant,VBO,4.301546,51.428949
Dorpsstraat,66,,,4634TS,Woensdrecht,Woensdrecht,Noord-Brabant,VBO,4.301330,51.428956
Dorpsstraat,68,,,4634TS,Woensdrecht,Woensdrecht,Noord-Brabant,VBO,4.301085,51.428963
Dorpsstraat,72,,,4634TT,Woensdrecht,Woensdrecht,Noord-Brabant,VBO,4.300681,51.429031
Dorpsstraat,74,,,4634TT,Woensdrecht,Woensdrecht,Noord-Brabant,VBO,4.300436,51.429056
Dorpsstraat,76,a,,4634TT,Woensdrecht,Woensdrecht,Noord-Brabant,VBO,4.300190,51.429107
Dorpsstraat,76,,,4634TT,Woensdrecht,Woensdrecht,Noord-Brabant,VBO,4.300276,51.429099
Dorpsstraat,78,a,,4634TT,Woensdrecht,Woensdrecht,Noord-Brabant,VBO,4.300015,51.429138
Dorpsstraat,78,,,4634TT,Woensdrecht,Woensdrecht,Noord-Brabant,VBO,4.300098,51.429122
Dorpsstraat,80,a,,4634TT,Woensdrecht,Woensdrecht,Noord-Brabant,VBO,4.299512,51.429332
Dorpsstraat,80,,,4634TT,Woensdrecht,Woensdrecht,Noord-Brabant,VBO,4.299687,51.429288
Dorpsstraat,82,a,,4634TT,Woensdrecht,Woensdrecht,Noord-Brabant,VBO,4.299165,51.429269
Dorpsstraat,82,,,4634TT,Woensdrecht,Woensdrecht,Noord-Brabant,VBO,4.299379,51.429360
Dorpsstraat,84,,,4634TT,Woensdrecht,Woensdrecht,Noord-Brabant,VBO,4.298992,51.429303
Dorpsstraat,86,,,4634TT,Woensdrecht,Woensdrecht,Noord-Brabant,VBO,4.298871,51.429332
Dorpsstraat,88,a,,4634TT,Woensdrecht,Woensdrecht,Noord-Brabant,VBO,4.298643,51.429576
Dorpsstraat,88,,,4634TT,Woensdrecht,Woensdrecht,Noord-Brabant,VBO,4.298529,51.429406
Dorpsstraat,90,,,4634TT,Woensdrecht,Woensdrecht,Noord-Brabant,VBO,4.298356,51.429423
Dorpsstraat,92,,,4634TT,Woensdrecht,Woensdrecht,Noord-Brabant,VBO,4.298269,51.429458
Dorpsstraat,94,,,4634TT,Woensdrecht,Woensdrecht,Noord-Brabant,VBO,4.298182,51.429591
Dorpsstraat,96,,,4634TT,Woensdrecht,Woensdrecht,Noord-Brabant,VBO,4.298794,51.430131
Dorpsstraat,98,,,4634TT,Woensdrecht,Woensdrecht,Noord-Brabant,VBO,4.297731,51.429705
Dorpsstraat,100,,,4634TT,Woensdrecht,Woensdrecht,Noord-Brabant,VBO,4.297470,51.429810
Dorpsstraat,102,,,4634TT,Woensdrecht,Woensdrecht,Noord-Brabant,VBO,4.297337,51.429953
Rijzendeweg,1,a,,4634TV,Woensdrecht,Woensdrecht,Noord-Brabant,VBO,4.299048,51.429942
Rijzendeweg,1,,,4634TV,Woensdrecht,Woensdrecht,Noord-Brabant,VBO,4.298840,51.429634
Rijzendeweg,3,,,4634TV,Woensdrecht,Woensdrecht,Noord-Brabant,VBO,4.299217,51.430123
Rijzendeweg,5,,,4634TV,Woensdrecht,Woensdrecht,Noord-Brabant,VBO,4.299100,51.431380
Rijzendeweg,7,,,4634TV,Woensdrecht,Woensdrecht,Noord-Brabant,VBO,4.298746,51.431755
Rijzendeweg,9,a,,4634TV,Woensdrecht,Woensdrecht,Noord-Brabant,VBO,4.299906,51.430759
Rijzendeweg,9,,,4634TV,Woensdrecht,Woensdrecht,Noord-Brabant,VBO,4.299330,51.431383
Rijzendeweg,11,,,4634TV,Woensdrecht,Woensdrecht,Noord-Brabant,VBO,4.300148,51.430887
Rijzendeweg,13,a,,4634TV,Woensdrecht,Woensdrecht,Noord-Brabant,VBO,4.300445,51.431060
Rijzendeweg,13,b,,4634TV,Woensdrecht,Woensdrecht,Noord-Brabant,VBO,4.301212,51.431481
Rijzendeweg,13,,,4634TV,Woensdrecht,Woensdrecht,Noord-Brabant,VBO,4.300304,51.430978
Rijzendeweg,15,,,4634TV,Woensdrecht,Woensdrecht,Noord-Brabant,VBO,4.301657,51.431530
Rijzendeweg,17,a,,4634TW,Woensdrecht,Woensdrecht,Noord-Brabant,VBO,4.305667,51.435115
Rijzendeweg,17,b,,4634TW,Woensdrecht,Woensdrecht,Noord-Brabant,VBO,4.306284,51.435101
Rijzendeweg,17,,,4634TW,Woensdrecht,Woensdrecht,Noord-Brabant,VBO,4.305328,51.434911
Rijzendeweg,19,,,4634TW,Woensdrecht,Woensdrecht,Noord-Brabant,VBO,4.308099,51.433990
Rijzendeweg,21,,,4634TW,Woensdrecht,Woensdrecht,Noord-Brabant,VBO,4.308326,51.434091
Rijzendeweg,23,,,4634TW,Woensdrecht,Woensdrecht,Noord-Brabant,VBO,4.308642,51.434130
Rijzendeweg,2,a,,4634TX,Woensdrecht,Woensdrecht,Noord-Brabant,VBO,4.299409,51.429909
Rijzendeweg,2,,,4634TX,Woensdrecht,Woensdrecht,Noord-Brabant,VBO,4.299100,51.429601
Rijzendeweg,6,,,4634TX,Woensdrecht,Woensdrecht,Noord-Brabant,VBO,4.300139,51.430635
Rijzendeweg,8,a,,4634TX,Woensdrecht,Woensdrecht,Noord-Brabant,VBO,4.300524,51.430791
Rijzendeweg,8,b,,4634TX,Woensdrecht,Woensdrecht,Noord-Brabant,VBO,4.300680,51.430865
Rijzendeweg,8,c,,4634TX,Woensdrecht,Woensdrecht,Noord-Brabant,VBO,4.300894,51.430966
Rijzendeweg,8,,,4634TX,Woensdrecht,Woensdrecht,Noord-Brabant,VBO,4.300339,51.430709
Rijzendeweg,10,,,4634TX,Woensdrecht,Woensdrecht,Noord-Brabant,VBO,4.302206,51.431400
Rijzendeweg,12,,,4634TX,Woensdrecht,Woensdrecht,Noord-Brabant,VBO,4.302463,51.431502
Rijzendeweg,14,,,4634TX,Woensdrecht,Woensdrecht,Noord-Brabant,VBO,4.302705,51.431612
Rijzendeweg,16,,,4634TX,Woensdrecht,Woensdrecht,Noord-Brabant,VBO,4.302918,51.431704
Rijzendeweg,18,a,,4634TX,Woensdrecht,Woensdrecht,Noord-Brabant,VBO,4.303459,51.431660
Rijzendeweg,18,,,4634TX,Woensdrecht,Woensdrecht,Noord-Brabant,VBO,4.303146,51.431805
Rijzendeweg,20,,,4634TX,Woensdrecht,Woensdrecht,Noord-Brabant,VBO,4.303573,51.431988
Rijzendeweg,22,,,4634TX,Woensdrecht,Woensdrecht,Noord-Brabant,VBO,4.303857,51.432126
Rijzendeweg,24,,,4634TX,Woensdrecht,Woensdrecht,Noord-Brabant,VBO,4.304157,51.432228
Rijzendeweg,26,,,4634TX,Woensdrecht,Woensdrecht,Noord-Brabant,VBO,4.304428,51.432329
Rijzendeweg,34,,,4634TZ,Woensdrecht,Woensdrecht,Noord-Brabant,VBO,4.304770,51.432458
Rijzendeweg,36,,,4634TZ,Woensdrecht,Woensdrecht,Noord-Brabant,VBO,4.305098,51.432569
Rijzendeweg,38,,,4634TZ,Woensdrecht,Woensdrecht,Noord-Brabant,VBO,4.305340,51.432670
Rijzendeweg,40,,,4634TZ,Woensdrecht,Woensdrecht,Noord-Brabant,VBO,4.305697,51.432772
Rijzendeweg,44,,,4634TZ,Woensdrecht,Woensdrecht,Noord-Brabant,VBO,4.306442,51.433004
Rijzendeweg,46,,,4634TZ,Woensdrecht,Woensdrecht,Noord-Brabant,VBO,4.306868,51.433143
Rijzendeweg,48,,,4634TZ,Woensdrecht,Woensdrecht,Noord-Brabant,VBO,4.307210,51.433245
Rijzendeweg,50,,,4634TZ,Woensdrecht,Woensdrecht,Noord-Brabant,VBO,4.307524,51.433355
Rijzendeweg,52,,,4634TZ,Woensdrecht,Woensdrecht,Noord-Brabant,VBO,4.307937,51.433539
Rijzendeweg,54,,,4634TZ,Woensdrecht,Woensdrecht,Noord-Brabant,VBO,4.308136,51.433631
Rijzendeweg,56,,,4634TZ,Woensdrecht,Woensdrecht,Noord-Brabant,VBO,4.308402,51.433726
Rijzendeweg,58,,,4634TZ,Woensdrecht,Woensdrecht,Noord-Brabant,VBO,4.308600,51.433814
Mgr van Mensstraat,1,,,4634VA,Woensdrecht,Woensdrecht,Noord-Brabant,VBO,4.302156,51.429278
Mgr van Mensstraat,3,,,4634VA,Woensdrecht,Woensdrecht,Noord-Brabant,VBO,4.302126,51.429332
Mgr van Mensstraat,5,,,4634VA,Woensdrecht,Woensdrecht,Noord-Brabant,VBO,4.301879,51.429456
Mgr van Mensstraat,7,,,4634VA,Woensdrecht,Woensdrecht,Noord-Brabant,VBO,4.301863,51.429500
Mgr van Mensstraat,9,,,4634VA,Woensdrecht,Woensdrecht,Noord-Brabant,VBO,4.301862,51.429563
Mgr van Mensstraat,11,,,4634VA,Woensdrecht,Woensdrecht,Noord-Brabant,VBO,4.301832,51.429617
Mgr van Mensstraat,17,,,4634VA,Woensdrecht,Woensdrecht,Noord-Brabant,VBO,4.301873,51.429772
Mgr van Mensstraat,19,,,4634VA,Woensdrecht,Woensdrecht,Noord-Brabant,VBO,4.301959,51.429783
Mgr van Mensstraat,21,,,4634VA,Woensdrecht,Woensdrecht,Noord-Brabant,VBO,4.302044,51.429793
Mgr van Mensstraat,23,,,4634VA,Woensdrecht,Woensdrecht,Noord-Brabant,VBO,4.302128,51.429804
Mgr van Mensstraat,25,,,4634VA,Woensdrecht,Woensdrecht,Noord-Brabant,VBO,4.302213,51.429814
Mgr van Mensstraat,27,,,4634VA,Woensdrecht,Woensdrecht,Noord-Brabant,VBO,4.302297,51.429825
Mgr van Mensstraat,29,,,4634VA,Woensdrecht,Woensdrecht,Noord-Brabant,VBO,4.302382,51.429835
Mgr van Mensstraat,31,,,4634VB,Woensdrecht,Woensdrecht,Noord-Brabant,VBO,4.302466,51.429846
Mgr van Mensstraat,33,,,4634VB,Woensdrecht,Woensdrecht,Noord-Brabant,VBO,4.302552,51.429857
Mgr van Mensstraat,35,,,4634VB,Woensdrecht,Woensdrecht,Noord-Brabant,VBO,4.302719,51.429870
Mgr van Mensstraat,37,,,4634VB,Woensdrecht,Woensdrecht,Noord-Brabant,VBO,4.302805,51.429881
Mgr van Mensstraat,39,,,4634VB,Woensdrecht,Woensdrecht,Noord-Brabant,VBO,4.302889,51.429891
Mgr van Mensstraat,41,,,4634VB,Woensdrecht,Woensdrecht,Noord-Brabant,VBO,4.302974,51.429902
Mgr van Mensstraat,43,,,4634VB,Woensdrecht,Woensdrecht,Noord-Brabant,VBO,4.303058,51.429913
Mgr van Mensstraat,45,,,4634VB,Woensdrecht,Woensdrecht,Noord-Brabant,VBO,4.303142,51.429923
Mgr van Mensstraat,47,,,4634VB,Woensdrecht,Woensdrecht,Noord-Brabant,VBO,4.303226,51.429934
Mgr van Mensstraat,49,,,4634VB,Woensdrecht,Woensdrecht,Noord-Brabant,VBO,4.303312,51.429945
Mgr van Mensstraat,51,,,4634VB,Woensdrecht,Woensdrecht,Noord-Brabant,VBO,4.303473,51.429982
Mgr van Mensstraat,53,,,4634VB,Woensdrecht,Woensdrecht,Noord-Brabant,VBO,4.303562,51.429993
Mgr van Mensstraat,55,,,4634VB,Woensdrecht,Woensdrecht,Noord-Brabant,VBO,4.303649,51.430004
Mgr van Mensstraat,57,,,4634VB,Woensdrecht,Woensdrecht,Noord-Brabant,VBO,4.303736,51.430015
Mgr van Mensstraat,59,,,4634VB,Woensdrecht,Woensdrecht,Noord-Brabant,VBO,4.303824,51.430026
Mgr van Mensstraat,61,,,4634VB,Woensdrecht,Woensdrecht,Noord-Brabant,VBO,4.303912,51.430038
Mgr van Mensstraat,63,,,4634VB,Woensdrecht,Woensdrecht,Noord-Brabant,VBO,4.304077,51.430058
Mgr van Mensstraat,65,,,4634VB,Woensdrecht,Woensdrecht,Noord-Brabant,VBO,4.304166,51.430069
Mgr van Mensstraat,67,,,4634VB,Woensdrecht,Woensdrecht,Noord-Brabant,VBO,4.304253,51.430080
Mgr van Mensstraat,69,,,4634VB,Woensdrecht,Woensdrecht,Noord-Brabant,VBO,4.304341,51.430092
Mgr van Mensstraat,8,,,4634VC,Woensdrecht,Woensdrecht,Noord-Brabant,VBO,4.302468,51.429321
Mgr van Mensstraat,10,,,4634VC,Woensdrecht,Woensdrecht,Noord-Brabant,VBO,4.302443,51.429374
Mgr van Mensstraat,12,,,4634VC,Woensdrecht,Woensdrecht,Noord-Brabant,VBO,4.302434,51.429429
Mgr van Mensstraat,14,,,4634VC,Woensdrecht,Woensdrecht,Noord-Brabant,VBO,4.302408,51.429480
Mgr van Mensstraat,16,,,4634VC,Woensdrecht,Woensdrecht,Noord-Brabant,VBO,4.302398,51.429535
Mgr van Mensstraat,18,,,4634VC,Woensdrecht,Woensdrecht,Noord-Brabant,VBO,4.302373,51.429587
Mgr van Mensstraat,20,,,4634VC,Woensdrecht,Woensdrecht,Noord-Brabant,VBO,4.302672,51.429634
Mgr van Mensstraat,22,,,4634VC,Woensdrecht,Woensdrecht,Noord-Brabant,VBO,4.302758,51.429645
Mgr van Mensstraat,24,,,4634VC,Woensdrecht,Woensdrecht,Noord-Brabant,VBO,4.302842,51.429656
Mgr van Mensstraat,26,,,4634VC,Woensdrecht,Woensdrecht,Noord-Brabant,VBO,4.302927,51.429667
Mgr van Mensstraat,28,,,4634VC,Woensdrecht,Woensdrecht,Noord-Brabant,VBO,4.303011,51.429677
Mgr van Mensstraat,30,,,4634VC,Woensdrecht,Woensdrecht,Noord-Brabant,VBO,4.303097,51.429688
Mgr van Mensstraat,32,,,4634VC,Woensdrecht,Woensdrecht,Noord-Brabant,VBO,4.303270,51.429710
Mgr van Mensstraat,34,,,4634VC,Woensdrecht,Woensdrecht,Noord-Brabant,VBO,4.303358,51.429721
Mgr van Mensstraat,36,,,4634VC,Woensdrecht,Woensdrecht,Noord-Brabant,VBO,4.303444,51.429732
Mgr van Mensstraat,38,,,4634VC,Woensdrecht,Woensdrecht,Noord-Brabant,VBO,4.303530,51.429743
Mgr van Mensstraat,40,,,4634VC,Woensdrecht,Woensdrecht,Noord-Brabant,VBO,4.303619,51.429754
Mgr van Mensstraat,42,,,4634VC,Woensdrecht,Woensdrecht,Noord-Brabant,VBO,4.303706,51.429765
Mgr van Mensstraat,44,,,4634VC,Woensdrecht,Woensdrecht,Noord-Brabant,VBO,4.303793,51.429776
Mgr van Mensstraat,46,,,4634VC,Woensdrecht,Woensdrecht,Noord-Brabant,VBO,4.303881,51.429787
Mgr van Mensstraat,48,,,4634VC,Woensdrecht,Woensdrecht,Noord-Brabant,VBO,4.303999,51.429802
Mgr van Mensstraat,50,,,4634VC,Woensdrecht,Woensdrecht,Noord-Brabant,VBO,4.304087,51.429813
Mgr van Mensstraat,52,,,4634VC,Woensdrecht,Woensdrecht,Noord-Brabant,VBO,4.304174,51.429824
Mgr van Mensstraat,54,,,4634VC,Woensdrecht,Woensdrecht,Noord-Brabant,VBO,4.304262,51.429835
Molenakkers,1,,,4634VD,Woensdrecht,Woensdrecht,Noord-Brabant,VBO,4.304237,51.429460
Molenakkers,3,,,4634VD,Woensdrecht,Woensdrecht,Noord-Brabant,VBO,4.304031,51.429633
Molenakkers,4,,,4634VE,Woensdrecht,Woensdrecht,Noord-Brabant,VBO,4.305011,51.429575
Molenakkers,6,,,4634VE,Woensdrecht,Woensdrecht,Noord-Brabant,VBO,4.304895,51.429591
Molenakkers,8,,,4634VE,Woensdrecht,Woensdrecht,Noord-Brabant,VBO,4.304722,51.429608
Molenakkers,10,,,4634VE,Woensdrecht,Woensdrecht,Noord-Brabant,VBO,4.304607,51.429616
Molenakkers,12,,,4634VE,Woensdrecht,Woensdrecht,Noord-Brabant,VBO,4.304658,51.429895
Molenakkers,14,,,4634VE,Woensdrecht,Woensdrecht,Noord-Brabant,VBO,4.304759,51.429887
Molenakkers,16,,,4634VE,Woensdrecht,Woensdrecht,Noord-Brabant,VBO,4.304831,51.429879
Molenakkers,18,,,4634VE,Woensdrecht,Woensdrecht,Noord-Brabant,VBO,4.304932,51.429871
Molenakkers,20,,,4634VE,Woensdrecht,Woensdrecht,Noord-Brabant,VBO,4.305018,51.429862
Molenakkers,22,,,4634VE,Woensdrecht,Woensdrecht,Noord-Brabant,VBO,4.305119,51.429854
Molenakkers,24,,,4634VE,Woensdrecht,Woensdrecht,Noord-Brabant,VBO,4.305142,51.430088
Molenakkers,26,,,4634VE,Woensdrecht,Woensdrecht,Noord-Brabant,VBO,4.305056,51.430096
Molenakkers,28,,,4634VE,Woensdrecht,Woensdrecht,Noord-Brabant,VBO,4.304984,51.430105
Molenakkers,30,,,4634VE,Woensdrecht,Woensdrecht,Noord-Brabant,VBO,4.304883,51.430113
Molenakkers,32,,,4634VE,Woensdrecht,Woensdrecht,Noord-Brabant,VBO,4.304796,51.430121
Molenakkers,34,a,,4634VE,Woensdrecht,Woensdrecht,Noord-Brabant,VBO,4.304778,51.430271
Molenakkers,34,b,,4634VE,Woensdrecht,Woensdrecht,Noord-Brabant,VBO,4.304780,51.430299
Molenakkers,34,c,,4634VE,Woensdrecht,Woensdrecht,Noord-Brabant,VBO,4.304781,51.430328
Molenakkers,34,d,,4634VE,Woensdrecht,Woensdrecht,Noord-Brabant,VBO,4.304783,51.430356
Molenakkers,34,e,,4634VE,Woensdrecht,Woensdrecht,Noord-Brabant,VBO,4.304784,51.430384
Molenakkers,34,,,4634VE,Woensdrecht,Woensdrecht,Noord-Brabant,VBO,4.304710,51.430129
Molenakkers,36,,,4634VE,Woensdrecht,Woensdrecht,Noord-Brabant,VBO,4.304895,51.430380
Molenakkers,38,,,4634VE,Woensdrecht,Woensdrecht,Noord-Brabant,VBO,4.304985,51.430379
Molenakkers,40,,,4634VE,Woensdrecht,Woensdrecht,Noord-Brabant,VBO,4.305073,51.430377
Molenakkers,42,a,,4634VE,Woensdrecht,Woensdrecht,Noord-Brabant,VBO,4.305282,51.430317
Molenakkers,42,b,,4634VE,Woensdrecht,Woensdrecht,Noord-Brabant,VBO,4.305325,51.430316
Molenakkers,42,c,,4634VE,Woensdrecht,Woensdrecht,Noord-Brabant,VBO,4.305369,51.430316
Molenakkers,42,d,,4634VE,Woensdrecht,Woensdrecht,Noord-Brabant,VBO,4.305413,51.430316
Molenakkers,42,e,,4634VE,Woensdrecht,Woensdrecht,Noord-Brabant,VBO,4.305457,51.430316
Molenakkers,42,,,4634VE,Woensdrecht,Woensdrecht,Noord-Brabant,VBO,4.305163,51.430376
Berglaan,1,,,4634VG,Woensdrecht,Woensdrecht,Noord-Brabant,VBO,4.305220,51.429652
Berglaan,3,,,4634VG,Woensdrecht,Woensdrecht,Noord-Brabant,VBO,4.305293,51.429694
Berglaan,5,,,4634VG,Woensdrecht,Woensdrecht,Noord-Brabant,VBO,4.305429,51.429796
Berglaan,7,,,4634VG,Woensdrecht,Woensdrecht,Noord-Brabant,VBO,4.305431,51.429857
Berglaan,9,,,4634VG,Woensdrecht,Woensdrecht,Noord-Brabant,VBO,4.305434,51.429918
Berglaan,11,,,4634VG,Woensdrecht,Woensdrecht,Noord-Brabant,VBO,4.305437,51.429979
Berglaan,13,,,4634VG,Woensdrecht,Woensdrecht,Noord-Brabant,VBO,4.305439,51.430039
Berglaan,15,,,4634VG,Woensdrecht,Woensdrecht,Noord-Brabant,VBO,4.305442,51.430100
Berglaan,17,,,4634VG,Woensdrecht,Woensdrecht,Noord-Brabant,VBO,4.305444,51.430161
Berglaan,19,,,4634VG,Woensdrecht,Woensdrecht,Noord-Brabant,VBO,4.305447,51.430222
Berglaan,25,,,4634VG,Woensdrecht,Woensdrecht,Noord-Brabant,VBO,4.305386,51.430738
Berglaan,27,,,4634VG,Woensdrecht,Woensdrecht,Noord-Brabant,VBO,4.305383,51.430846
Berglaan,29,,,4634VG,Woensdrecht,Woensdrecht,Noord-Brabant,VBO,4.305395,51.430954
Berglaan,31,,,4634VG,Woensdrecht,Woensdrecht,Noord-Brabant,VBO,4.305823,51.431704
Berglaan,37,,,4634VG,Woensdrecht,Woensdrecht,Noord-Brabant,VBO,4.306212,51.432292
Berglaan,39,,,4634VG,Woensdrecht,Woensdrecht,Noord-Brabant,VBO,4.306180,51.432408
Berglaan,41,,,4634VG,Woensdrecht,Woensdrecht,Noord-Brabant,VBO,4.306090,51.432560
Berglaan,43,,,4634VG,Woensdrecht,Woensdrecht,Noord-Brabant,VBO,4.305973,51.432649
Berglaan,10,,,4634VH,Woensdrecht,Woensdrecht,Noord-Brabant,VBO,4.305631,51.429499
Berglaan,12,,,4634VH,Woensdrecht,Woensdrecht,Noord-Brabant,VBO,4.305782,51.429815
Berglaan,14,,,4634VH,Woensdrecht,Woensdrecht,Noord-Brabant,VBO,4.305780,51.429887
Berglaan,16,,,4634VH,Woensdrecht,Woensdrecht,Noord-Brabant,VBO,4.305792,51.429977
Berglaan,18,,,4634VH,Woensdrecht,Woensdrecht,Noord-Brabant,VBO,4.305790,51.430049
Berglaan,20,,,4634VH,Woensdrecht,Woensdrecht,Noord-Brabant,VBO,4.305802,51.430148
Berglaan,22,,,4634VH,Woensdrecht,Woensdrecht,Noord-Brabant,VBO,4.305801,51.430202
Berglaan,24,,,4634VH,Woensdrecht,Woensdrecht,Noord-Brabant,VBO,4.305799,51.430292
Berglaan,26,,,4634VH,Woensdrecht,Woensdrecht,Noord-Brabant,VBO,4.305797,51.430364
Stallaertstraat,1,,,4634VJ,Woensdrecht,Woensdrecht,Noord-Brabant,VBO,4.306137,51.429801
Stallaertstraat,3,,,4634VJ,Woensdrecht,Woensdrecht,Noord-Brabant,VBO,4.306226,51.429799
Stallaertstraat,5,,,4634VJ,Woensdrecht,Woensdrecht,Noord-Brabant,VBO,4.306639,51.429791
Stallaertstraat,7,,,4634VJ,Woensdrecht,Woensdrecht,Noord-Brabant,VBO,4.306729,51.429789
Stallaertstraat,9,,,4634VJ,Woensdrecht,Woensdrecht,Noord-Brabant,VBO,4.306818,51.429787
Stallaertstraat,11,,,4634VJ,Woensdrecht,Woensdrecht,Noord-Brabant,VBO,4.306908,51.429785
Stallaertstraat,22,,,4634VK,Woensdrecht,Woensdrecht,Noord-Brabant,VBO,4.306322,51.429617
Stallaertstraat,24,,,4634VK,Woensdrecht,Woensdrecht,Noord-Brabant,VBO,4.306504,51.429611
Stallaertstraat,26,,,4634VK,Woensdrecht,Woensdrecht,Noord-Brabant,VBO,4.306593,51.429610
Stallaertstraat,28,,,4634VK,Woensdrecht,Woensdrecht,Noord-Brabant,VBO,4.306680,51.429608
Stallaertstraat,30,,,4634VK,Woensdrecht,Woensdrecht,Noord-Brabant,VBO,4.306773,51.429606
Middelaerstraat,1,,,4634VL,Woensdrecht,Woensdrecht,Noord-Brabant,VBO,4.306243,51.429973
Middelaerstraat,3,,,4634VL,Woensdrecht,Woensdrecht,Noord-Brabant,VBO,4.306245,51.430027
Middelaerstraat,5,,,4634VL,Woensdrecht,Woensdrecht,Noord-Brabant,VBO,4.306264,51.430081
Middelaerstraat,7,,,4634VL,Woensdrecht,Woensdrecht,Noord-Brabant,VBO,4.306266,51.430135
Middelaerstraat,9,,,4634VL,Woensdrecht,Woensdrecht,Noord-Brabant,VBO,4.306252,51.430190
Middelaerstraat,11,,,4634VL,Woensdrecht,Woensdrecht,Noord-Brabant,VBO,4.306255,51.430243
Middelaerstraat,13,,,4634VL,Woensdrecht,Woensdrecht,Noord-Brabant,VBO,4.306274,51.430297
Middelaerstraat,15,,,4634VL,Woensdrecht,Woensdrecht,Noord-Brabant,VBO,4.306276,51.430352
Middelaerstraat,2,,,4634VM,Woensdrecht,Woensdrecht,Noord-Brabant,VBO,4.306626,51.429967
Middelaerstraat,4,,,4634VM,Woensdrecht,Woensdrecht,Noord-Brabant,VBO,4.306625,51.430021
Middelaerstraat,6,,,4634VM,Woensdrecht,Woensdrecht,Noord-Brabant,VBO,4.306638,51.430075
Middelaerstraat,8,,,4634VM,Woensdrecht,Woensdrecht,Noord-Brabant,VBO,4.306637,51.430129
Middelaerstraat,10,,,4634VM,Woensdrecht,Woensdrecht,Noord-Brabant,VBO,4.306636,51.430183
Middelaerstraat,12,,,4634VM,Woensdrecht,Woensdrecht,Noord-Brabant,VBO,4.306634,51.430237
Middelaerstraat,14,,,4634VM,Woensdrecht,Woensdrecht,Noord-Brabant,VBO,4.306662,51.430291
Middelaerstraat,16,,,4634VM,Woensdrecht,Woensdrecht,Noord-Brabant,VBO,4.306646,51.430345
van de Zandestraat,1,,,4634VN,Woensdrecht,Woensdrecht,Noord-Brabant,VBO,4.306897,51.428824
van de Zandestraat,3,,,4634VN,Woensdrecht,Woensdrecht,Noord-Brabant,VBO,4.306887,51.429105
van de Zandestraat,5,,,4634VN,Woensdrecht,Woensdrecht,Noord-Brabant,VBO,4.306797,51.429108
van de Zandestraat,7,,,4634VN,Woensdrecht,Woensdrecht,Noord-Brabant,VBO,4.306708,51.429111
van de Zandestraat,9,,,4634VN,Woensdrecht,Woensdrecht,Noord-Brabant,VBO,4.306619,51.429114
van de Zandestraat,11,,,4634VN,Woensdrecht,Woensdrecht,Noord-Brabant,VBO,4.306530,51.429118
van de Zandestraat,13,,,4634VN,Woensdrecht,Woensdrecht,Noord-Brabant,VBO,4.306440,51.429121
van de Zandestraat,15,,,4634VN,Woensdrecht,Woensdrecht,Noord-Brabant,VBO,4.306463,51.429342
van de Zandestraat,17,,,4634VN,Woensdrecht,Woensdrecht,Noord-Brabant,VBO,4.306553,51.429339
van de Zandestraat,19,,,4634VN,Woensdrecht,Woensdrecht,Noord-Brabant,VBO,4.306642,51.429336
van de Zandestraat,21,,,4634VN,Woensdrecht,Woensdrecht,Noord-Brabant,VBO,4.306728,51.429333
van de Zandestraat,23,,,4634VN,Woensdrecht,Woensdrecht,Noord-Brabant,VBO,4.306818,51.429329
van de Zandestraat,25,,,4634VN,Woensdrecht,Woensdrecht,Noord-Brabant,VBO,4.306909,51.429326
van de Zandestraat,2,,,4634VP,Woensdrecht,Woensdrecht,Noord-Brabant,VBO,4.307202,51.428888
van de Zandestraat,4,,,4634VP,Woensdrecht,Woensdrecht,Noord-Brabant,VBO,4.307207,51.429007
van de Zandestraat,6,,,4634VP,Woensdrecht,Woensdrecht,Noord-Brabant,VBO,4.307210,51.429063
van de Zandestraat,8,,,4634VP,Woensdrecht,Woensdrecht,Noord-Brabant,VBO,4.307213,51.429119
van de Zandestraat,10,,,4634VP,Woensdrecht,Woensdrecht,Noord-Brabant,VBO,4.307215,51.429174
van de Zandestraat,12,,,4634VP,Woensdrecht,Woensdrecht,Noord-Brabant,VBO,4.307218,51.429229
van de Zandestraat,14,,,4634VP,Woensdrecht,Woensdrecht,Noord-Brabant,VBO,4.307221,51.429285
van de Zandestraat,16,,,4634VP,Woensdrecht,Woensdrecht,Noord-Brabant,VBO,4.307223,51.429340
van de Zandestraat,18,,,4634VP,Woensdrecht,Woensdrecht,Noord-Brabant,VBO,4.307226,51.429397
van de Zandestraat,20,,,4634VP,Woensdrecht,Woensdrecht,Noord-Brabant,VBO,4.307228,51.429498
van de Zandestraat,22,,,4634VP,Woensdrecht,Woensdrecht,Noord-Brabant,VBO,4.307231,51.429554
van de Zandestraat,24,,,4634VP,Woensdrecht,Woensdrecht,Noord-Brabant,VBO,4.307234,51.429610
van de Zandestraat,26,,,4634VP,Woensdrecht,Woensdrecht,Noord-Brabant,VBO,4.307237,51.429666
Tuinstraat,1,,,4634VR,Woensdrecht,Woensdrecht,Noord-Brabant,VBO,4.306015,51.428442
Tuinstraat,2,,,4634VR,Woensdrecht,Woensdrecht,Noord-Brabant,VBO,4.305696,51.428574
Tuinstraat,3,,,4634VR,Woensdrecht,Woensdrecht,Noord-Brabant,VBO,4.306076,51.428308
Tuinstraat,4,,,4634VR,Woensdrecht,Woensdrecht,Noord-Brabant,VBO,4.305730,51.428435
Tuinstraat,5,,,4634VR,Woensdrecht,Woensdrecht,Noord-Brabant,VBO,4.306366,51.428194
Tuinstraat,6,,,4634VR,Woensdrecht,Woensdrecht,Noord-Brabant,VBO,4.305776,51.428251
Tuinstraat,7,,,4634VR,Woensdrecht,Woensdrecht,Noord-Brabant,VBO,4.306470,51.428069
Tuinstraat,8,a,,4634VR,Woensdrecht,Woensdrecht,Noord-Brabant,VBO,4.305999,51.427939
Tuinstraat,8,,,4634VR,Woensdrecht,Woensdrecht,Noord-Brabant,VBO,4.305838,51.428123
Tuinstraat,9,,,4634VR,Woensdrecht,Woensdrecht,Noord-Brabant,VBO,4.306574,51.427944
Tuinstraat,10,,,4634VR,Woensdrecht,Woensdrecht,Noord-Brabant,VBO,4.306962,51.426804
Tuinstraat,11,,,4634VR,Woensdrecht,Woensdrecht,Noord-Brabant,VBO,4.306677,51.427837
Tuinstraat,17,,,4634VR,Woensdrecht,Woensdrecht,Noord-Brabant,VBO,4.306898,51.427587
Tuinstraat,18,,,4634VR,Woensdrecht,Woensdrecht,Noord-Brabant,VBO,4.307482,51.426011
Tuinstraat,19,a,,4634VR,Woensdrecht,Woensdrecht,Noord-Brabant,VBO,4.306937,51.427522
Tuinstraat,19,,,4634VR,Woensdrecht,Woensdrecht,Noord-Brabant,VBO,4.307002,51.427454
Tuinstraat,21,,,4634VR,Woensdrecht,Woensdrecht,Noord-Brabant,VBO,4.307106,51.427347
Tuinstraat,23,,,4634VR,Woensdrecht,Woensdrecht,Noord-Brabant,VBO,4.307238,51.427222
Tuinstraat,25,,,4634VR,Woensdrecht,Woensdrecht,Noord-Brabant,VBO,4.307327,51.427097
Tuinstraat,27,,,4634VR,Woensdrecht,Woensdrecht,Noord-Brabant,VBO,4.307445,51.426990
Tuinstraat,29,,,4634VR,Woensdrecht,Woensdrecht,Noord-Brabant,VBO,4.307534,51.426865
Tuinstraat,31,,,4634VR,Woensdrecht,Woensdrecht,Noord-Brabant,VBO,4.307638,51.426740
Tuinstraat,33,,,4634VR,Woensdrecht,Woensdrecht,Noord-Brabant,VBO,4.307697,51.426551
Stompe Torenlaan,1,a,,4634VS,Woensdrecht,Woensdrecht,Noord-Brabant,VBO,4.299893,51.429738
Stompe Torenlaan,1,,,4634VS,Woensdrecht,Woensdrecht,Noord-Brabant,VBO,4.300162,51.429682
Stompe Torenlaan,2,,,4634VS,Woensdrecht,Woensdrecht,Noord-Brabant,VBO,4.300210,51.429458
Stompe Torenlaan,3,,,4634VS,Woensdrecht,Woensdrecht,Noord-Brabant,VBO,4.300234,51.429674
Stompe Torenlaan,4,,,4634VS,Woensdrecht,Woensdrecht,Noord-Brabant,VBO,4.300283,51.429441
Stompe Torenlaan,5,,,4634VS,Woensdrecht,Woensdrecht,Noord-Brabant,VBO,4.300393,51.429640
Stompe Torenlaan,6,,,4634VS,Woensdrecht,Woensdrecht,Noord-Brabant,VBO,4.300427,51.429415
Stompe Torenlaan,7,,,4634VS,Woensdrecht,Woensdrecht,Noord-Brabant,VBO,4.300465,51.429631
Stompe Torenlaan,8,,,4634VS,Woensdrecht,Woensdrecht,Noord-Brabant,VBO,4.300514,51.429407
Stompe Torenlaan,9,,,4634VS,Woensdrecht,Woensdrecht,Noord-Brabant,VBO,4.300624,51.429606
Stompe Torenlaan,10,,,4634VS,Woensdrecht,Woensdrecht,Noord-Brabant,VBO,4.300658,51.429372
Stompe Torenlaan,11,,,4634VS,Woensdrecht,Woensdrecht,Noord-Brabant,VBO,4.300696,51.429588
Stompe Torenlaan,12,,,4634VS,Woensdrecht,Woensdrecht,Noord-Brabant,VBO,4.300745,51.429364
Stompe Torenlaan,13,,,4634VS,Woensdrecht,Woensdrecht,Noord-Brabant,VBO,4.300719,51.429840
Stompe Torenlaan,14,,,4634VS,Woensdrecht,Woensdrecht,Noord-Brabant,VBO,4.301031,51.429421
Stompe Torenlaan,15,,,4634VS,Woensdrecht,Woensdrecht,Noord-Brabant,VBO,4.300718,51.429894
Stompe Torenlaan,16,,,4634VS,Woensdrecht,Woensdrecht,Noord-Brabant,VBO,4.301058,51.429475
Stompe Torenlaan,17,,,4634VS,Woensdrecht,Woensdrecht,Noord-Brabant,VBO,4.300686,51.430011
Stompe Torenlaan,18,,,4634VS,Woensdrecht,Woensdrecht,Noord-Brabant,VBO,4.301098,51.429637
Stompe Torenlaan,19,,,4634VS,Woensdrecht,Woensdrecht,Noord-Brabant,VBO,4.300671,51.430065
Stompe Torenlaan,20,,,4634VS,Woensdrecht,Woensdrecht,Noord-Brabant,VBO,4.301170,51.429638
Stompe Torenlaan,21,,,4634VS,Woensdrecht,Woensdrecht,Noord-Brabant,VBO,4.300610,51.430181
Stompe Torenlaan,22,,,4634VS,Woensdrecht,Woensdrecht,Noord-Brabant,VBO,4.301328,51.429639
Stompe Torenlaan,23,,,4634VS,Woensdrecht,Woensdrecht,Noord-Brabant,VBO,4.300565,51.430288
Stompe Torenlaan,24,,,4634VS,Woensdrecht,Woensdrecht,Noord-Brabant,VBO,4.301414,51.429649
Stompe Torenlaan,25,,,4634VS,Woensdrecht,Woensdrecht,Noord-Brabant,VBO,4.300533,51.430405
Stompe Torenlaan,26,,,4634VS,Woensdrecht,Woensdrecht,Noord-Brabant,VBO,4.301584,51.429750
Stompe Torenlaan,27,,,4634VS,Woensdrecht,Woensdrecht,Noord-Brabant,VBO,4.300675,51.430487
Stompe Torenlaan,28,,,4634VS,Woensdrecht,Woensdrecht,Noord-Brabant,VBO,4.301583,51.429794
Stompe Torenlaan,29,,,4634VS,Woensdrecht,Woensdrecht,Noord-Brabant,VBO,4.300975,51.430580
Stompe Torenlaan,30,,,4634VS,Woensdrecht,Woensdrecht,Noord-Brabant,VBO,4.301165,51.429835
Stompe Torenlaan,31,,,4634VS,Woensdrecht,Woensdrecht,Noord-Brabant,VBO,4.300943,51.430696
Stompe Torenlaan,32,,,4634VS,Woensdrecht,Woensdrecht,Noord-Brabant,VBO,4.301079,51.429835
Stompe Torenlaan,34,,,4634VS,Woensdrecht,Woensdrecht,Noord-Brabant,VBO,4.301031,51.430023
Stompe Torenlaan,36,,,4634VS,Woensdrecht,Woensdrecht,Noord-Brabant,VBO,4.301016,51.430068
Stompe Torenlaan,38,,,4634VS,Woensdrecht,Woensdrecht,Noord-Brabant,VBO,4.300971,51.430112
Stompe Torenlaan,40,,,4634VS,Woensdrecht,Woensdrecht,Noord-Brabant,VBO,4.300970,51.430157
Stompe Torenlaan,42,,,4634VS,Woensdrecht,Woensdrecht,Noord-Brabant,VBO,4.300923,51.430328
Stompe Torenlaan,44,,,4634VS,Woensdrecht,Woensdrecht,Noord-Brabant,VBO,4.301123,51.430401
Marktje,1,,,4634VT,Woensdrecht,Woensdrecht,Noord-Brabant,VBO,4.309056,51.427727
Marktje,3,,,4634VT,Woensdrecht,Woensdrecht,Noord-Brabant,VBO,4.308872,51.427462
Marktje,5,,,4634VT,Woensdrecht,Woensdrecht,Noord-Brabant,VBO,4.308947,51.427310
Marktje,7,a,,4634VT,Woensdrecht,Woensdrecht,Noord-Brabant,VBO,4.308895,51.427085
Marktje,7,,,4634VT,Woensdrecht,Woensdrecht,Noord-Brabant,VBO,4.308907,51.427175
Marktje,9,,,4634VT,Woensdrecht,Woensdrecht,Noord-Brabant,VBO,4.308713,51.426858
Marktje,11,,,4634VT,Woensdrecht,Woensdrecht,Noord-Brabant,VBO,4.308674,51.426687
Marktje,17,,,4634VT,Woensdrecht,Woensdrecht,Noord-Brabant,VBO,4.308577,51.426524
Marktje,19,,,4634VT,Woensdrecht,Woensdrecht,Noord-Brabant,VBO,4.308437,51.426388
Marktje,21,,,4634VT,Woensdrecht,Woensdrecht,Noord-Brabant,VBO,4.308355,51.426217
Marktje,23,,,4634VT,Woensdrecht,Woensdrecht,Noord-Brabant,VBO,4.308186,51.426026
Marktje,25,,,4634VT,Woensdrecht,Woensdrecht,Noord-Brabant,VBO,4.308148,51.425837
Marktje,27,,,4634VT,Woensdrecht,Woensdrecht,Noord-Brabant,VBO,4.308151,51.425684
Marktje,29,,,4634VT,Woensdrecht,Woensdrecht,Noord-Brabant,VBO,4.308672,51.425577
Marktje,31,,,4634VV,Woensdrecht,Woensdrecht,Noord-Brabant,VBO,4.308214,51.425460
Marktje,33,,,4634VV,Woensdrecht,Woensdrecht,Noord-Brabant,VBO,4.308274,51.425353
Marktje,35,,,4634VV,Woensdrecht,Woensdrecht,Noord-Brabant,VBO,4.308338,51.425154
Marktje,39,,,4634VV,Woensdrecht,Woensdrecht,Noord-Brabant,VBO,4.308515,51.425001
Marktje,41,,,4634VV,Woensdrecht,Woensdrecht,Noord-Brabant,VBO,4.308519,51.424898
Marktje,43,,,4634VV,Woensdrecht,Woensdrecht,Noord-Brabant,VBO,4.308678,51.424709
Marktje,45,,,4634VV,Woensdrecht,Woensdrecht,Noord-Brabant,VBO,4.309258,51.424831
Marktje,47,,,4634VV,Woensdrecht,Woensdrecht,Noord-Brabant,VBO,4.308797,51.424540
Marktje,49,,,4634VV,Woensdrecht,Woensdrecht,Noord-Brabant,VBO,4.309074,51.424353
Marktje,55,,,4634VV,Woensdrecht,Woensdrecht,Noord-Brabant,VBO,4.309265,51.424148
Marktje,57,,,4634VV,Woensdrecht,Woensdrecht,Noord-Brabant,VBO,4.309602,51.423954
Marktje,59,,,4634VV,Woensdrecht,Woensdrecht,Noord-Brabant,VBO,4.308437,51.423961
Marktje,61,,,4634VV,Woensdrecht,Woensdrecht,Noord-Brabant,VBO,4.308337,51.423933
Marktje,4,,,4634VW,Woensdrecht,Woensdrecht,Noord-Brabant,VBO,4.309398,51.428285
Marktje,6,,,4634VW,Woensdrecht,Woensdrecht,Noord-Brabant,VBO,4.309299,51.428239
Marktje,12,,,4634VW,Woensdrecht,Woensdrecht,Noord-Brabant,VBO,4.308789,51.427902
Marktje,14,,,4634VW,Woensdrecht,Woensdrecht,Noord-Brabant,VBO,4.308663,51.427784
Marktje,16,,,4634VW,Woensdrecht,Woensdrecht,Noord-Brabant,VBO,4.308423,51.427575
Marktje,18,,,4634VW,Woensdrecht,Woensdrecht,Noord-Brabant,VBO,4.308267,51.427483
Marktje,20,,,4634VW,Woensdrecht,Woensdrecht,Noord-Brabant,VBO,4.308183,51.427367
Marktje,22,,,4634VW,Woensdrecht,Woensdrecht,Noord-Brabant,VBO,4.308158,51.427240
Marktje,24,,,4634VW,Woensdrecht,Woensdrecht,Noord-Brabant,VBO,4.308175,51.427114
Marktje,26,,,4634VW,Woensdrecht,Woensdrecht,Noord-Brabant,VBO,4.308278,51.427007
Marktje,28,,,4634VW,Woensdrecht,Woensdrecht,Noord-Brabant,VBO,4.308482,51.426928
Marktje,30,,,4634VW,Woensdrecht,Woensdrecht,Noord-Brabant,VBO,4.308175,51.426512
Marktje,32,,,4634VW,Woensdrecht,Woensdrecht,Noord-Brabant,VBO,4.307930,51.426545
Marktje,34,,,4634VW,Woensdrecht,Woensdrecht,Noord-Brabant,VBO,4.307647,51.425734
Marktje,36,,,4634VW,Woensdrecht,Woensdrecht,Noord-Brabant,VBO,4.307722,51.425599
Marktje,38,,,4634VW,Woensdrecht,Woensdrecht,Noord-Brabant,VBO,4.307928,51.425404
Marktje,40,,,4634VW,Woensdrecht,Woensdrecht,Noord-Brabant,VBO,4.307977,51.425143
Melis Blecklaan,1,,,4634VX,Woensdrecht,Woensdrecht,Noord-Brabant,VBO,4.303557,51.430764
Melis Blecklaan,3,,,4634VX,Woensdrecht,Woensdrecht,Noord-Brabant,VBO,4.303511,51.430805
Melis Blecklaan,5,,,4634VX,Woensdrecht,Woensdrecht,Noord-Brabant,VBO,4.303469,51.430914
Melis Blecklaan,6,,,4634VX,Woensdrecht,Woensdrecht,Noord-Brabant,VBO,4.303812,51.431285
Melis Blecklaan,7,,,4634VX,Woensdrecht,Woensdrecht,Noord-Brabant,VBO,4.303424,51.430956
Melis Blecklaan,8,,,4634VX,Woensdrecht,Woensdrecht,Noord-Brabant,VBO,4.303843,51.431330
Melis Blecklaan,9,,,4634VX,Woensdrecht,Woensdrecht,Noord-Brabant,VBO,4.303377,51.431029
Melis Blecklaan,10,,,4634VX,Woensdrecht,Woensdrecht,Noord-Brabant,VBO,4.304000,51.431459
Melis Blecklaan,11,,,4634VX,Woensdrecht,Woensdrecht,Noord-Brabant,VBO,4.303332,51.431070
Melis Blecklaan,12,,,4634VX,Woensdrecht,Woensdrecht,Noord-Brabant,VBO,4.304062,51.431489
Melis Blecklaan,13,,,4634VX,Woensdrecht,Woensdrecht,Noord-Brabant,VBO,4.302786,51.430823
Melis Blecklaan,14,,,4634VX,Woensdrecht,Woensdrecht,Noord-Brabant,VBO,4.304226,51.431559
Melis Blecklaan,15,,,4634VX,Woensdrecht,Woensdrecht,Noord-Brabant,VBO,4.302776,51.430873
Melis Blecklaan,16,,,4634VX,Woensdrecht,Woensdrecht,Noord-Brabant,VBO,4.304291,51.431587
Melis Blecklaan,17,,,4634VX,Woensdrecht,Woensdrecht,Noord-Brabant,VBO,4.302685,51.430948
Melis Blecklaan,18,,,4634VX,Woensdrecht,Woensdrecht,Noord-Brabant,VBO,4.304452,51.431653
Melis Blecklaan,19,,,4634VX,Woensdrecht,Woensdrecht,Noord-Brabant,VBO,4.302819,51.431037
Melis Blecklaan,20,,,4634VX,Woensdrecht,Woensdrecht,Noord-Brabant,VBO,4.304518,51.431679
Melis Blecklaan,21,,,4634VX,Woensdrecht,Woensdrecht,Noord-Brabant,VBO,4.302890,51.431074
Melis Blecklaan,22,,,4634VX,Woensdrecht,Woensdrecht,Noord-Brabant,VBO,4.304681,51.431742
Melis Blecklaan,23,,,4634VX,Woensdrecht,Woensdrecht,Noord-Brabant,VBO,4.303032,51.431129
Melis Blecklaan,24,,,4634VX,Woensdrecht,Woensdrecht,Noord-Brabant,VBO,4.304749,51.431768
Melis Blecklaan,25,,,4634VX,Woensdrecht,Woensdrecht,Noord-Brabant,VBO,4.303146,51.431175
Melis Blecklaan,26,,,4634VX,Woensdrecht,Woensdrecht,Noord-Brabant,VBO,4.304915,51.431828
Melis Blecklaan,27,,,4634VX,Woensdrecht,Woensdrecht,Noord-Brabant,VBO,4.303261,51.431203
Melis Blecklaan,28,,,4634VX,Woensdrecht,Woensdrecht,Noord-Brabant,VBO,4.304984,51.431852
Melis Blecklaan,29,,,4634VX,Woensdrecht,Woensdrecht,Noord-Brabant,VBO,4.303343,51.431238
Melis Blecklaan,30,,,4634VX,Woensdrecht,Woensdrecht,Noord-Brabant,VBO,4.305152,51.431910
Melis Blecklaan,31,,,4634VX,Woensdrecht,Woensdrecht,Noord-Brabant,VBO,4.303425,51.431298
Melis Blecklaan,32,,,4634VX,Woensdrecht,Woensdrecht,Noord-Brabant,VBO,4.305221,51.431933
Melis Blecklaan,33,,,4634VX,Woensdrecht,Woensdrecht,Noord-Brabant,VBO,4.303471,51.431412
Melis Blecklaan,34,,,4634VX,Woensdrecht,Woensdrecht,Noord-Brabant,VBO,4.305399,51.431991
Melis Blecklaan,35,,,4634VX,Woensdrecht,Woensdrecht,Noord-Brabant,VBO,4.303556,51.431476
Melis Blecklaan,36,,,4634VX,Woensdrecht,Woensdrecht,Noord-Brabant,VBO,4.305471,51.432010
Melis Blecklaan,37,,,4634VX,Woensdrecht,Woensdrecht,Noord-Brabant,VBO,4.303797,51.431640
Melis Blecklaan,38,,,4634VX,Woensdrecht,Woensdrecht,Noord-Brabant,VBO,4.305698,51.432045
Melis Blecklaan,39,,,4634VX,Woensdrecht,Woensdrecht,Noord-Brabant,VBO,4.303868,51.431667
Melis Blecklaan,40,,,4634VX,Woensdrecht,Woensdrecht,Noord-Brabant,VBO,4.305776,51.432048
Melis Blecklaan,41,,,4634VX,Woensdrecht,Woensdrecht,Noord-Brabant,VBO,4.304024,51.431750
Melis Blecklaan,42,,,4634VX,Woensdrecht,Woensdrecht,Noord-Brabant,VBO,4.306035,51.432025
Melis Blecklaan,43,,,4634VX,Woensdrecht,Woensdrecht,Noord-Brabant,VBO,4.304081,51.431768
Melis Blecklaan,44,,,4634VX,Woensdrecht,Woensdrecht,Noord-Brabant,VBO,4.306103,51.432000
Melis Blecklaan,45,,,4634VX,Woensdrecht,Woensdrecht,Noord-Brabant,VBO,4.304238,51.431842
Melis Blecklaan,47,,,4634VX,Woensdrecht,Woensdrecht,Noord-Brabant,VBO,4.304309,51.431869
Melis Blecklaan,49,,,4634VX,Woensdrecht,Woensdrecht,Noord-Brabant,VBO,4.304466,51.431925
Melis Blecklaan,51,,,4634VX,Woensdrecht,Woensdrecht,Noord-Brabant,VBO,4.304608,51.431980
Melis Blecklaan,53,,,4634VX,Woensdrecht,Woensdrecht,Noord-Brabant,VBO,4.304751,51.432026
Melis Blecklaan,55,,,4634VX,Woensdrecht,Woensdrecht,Noord-Brabant,VBO,4.304894,51.432082
Melis Blecklaan,57,,,4634VX,Woensdrecht,Woensdrecht,Noord-Brabant,VBO,4.305051,51.432128
Melis Blecklaan,59,,,4634VX,Woensdrecht,Woensdrecht,Noord-Brabant,VBO,4.305236,51.432202
Melis Blecklaan,61,,,4634VX,Woensdrecht,Woensdrecht,Noord-Brabant,VBO,4.305465,51.432258
Melis Blecklaan,63,,,4634VX,Woensdrecht,Woensdrecht,Noord-Brabant,VBO,4.305708,51.432305
Veerstraat,3,,,4634VZ,Woensdrecht,Woensdrecht,Noord-Brabant,VBO,4.308061,51.428200
Veerstraat,6,,,4634VZ,Woensdrecht,Woensdrecht,Noord-Brabant,VBO,4.308158,51.427824
Het Groene Woud,1,,,4634WD,Woensdrecht,Woensdrecht,Noord-Brabant,VBO,4.307871,51.427821
Het Groene Woud,3,,,4634WD,Woensdrecht,Woensdrecht,Noord-Brabant,VBO,4.307685,51.427766
Het Groene Woud,5,,,4634WD,Woensdrecht,Woensdrecht,Noord-Brabant,VBO,4.307442,51.427709
Het Groene Woud,6,,,4634WD,Woensdrecht,Woensdrecht,Noord-Brabant,VBO,4.307745,51.428049
Het Groene Woud,7,,,4634WD,Woensdrecht,Woensdrecht,Noord-Brabant,VBO,4.307256,51.427663
Het Groene Woud,8,,,4634WD,Woensdrecht,Woensdrecht,Noord-Brabant,VBO,4.307472,51.427987
Het Groene Woud,10,,,4634WD,Woensdrecht,Woensdrecht,Noord-Brabant,VBO,4.307250,51.427941
Het Groene Woud,12,,,4634WD,Woensdrecht,Woensdrecht,Noord-Brabant,VBO,4.307021,51.427894
