openbareruimtenaam,huisnummer,huisletter,huisnummertoevoeging,postcode,woonplaatsnaam,gemeentenaam,provincienaam,typeadresseerbaarobject,longitude,latitude
Stoofstraat,3,,,4693BA,Poortvliet,Tholen,Zeeland,VBO,4.142134,51.542818
Stoofstraat,5,,,4693BA,Poortvliet,Tholen,Zeeland,VBO,4.141904,51.542820
Stoofstraat,7,a,,4693BA,Poortvliet,Tholen,Zeeland,VBO,4.141177,51.542681
Stoofstraat,7,,,4693BA,Poortvliet,Tholen,Zeeland,VBO,4.141533,51.542755
Stoofstraat,9,,,4693BA,Poortvliet,Tholen,Zeeland,VBO,4.140720,51.542558
Stoofstraat,2,,,4693BB,Poortvliet,Tholen,Zeeland,VBO,4.142339,51.543109
Stoofstraat,4,,,4693BB,Poortvliet,Tholen,Zeeland,VBO,4.142128,51.543076
Stoofstraat,6,,,4693BB,Poortvliet,Tholen,Zeeland,VBO,4.142040,51.543067
Stoofstraat,8,,,4693BB,Poortvliet,Tholen,Zeeland,VBO,4.141955,51.543057
Stoofstraat,10,,,4693BB,Poortvliet,Tholen,Zeeland,VBO,4.141852,51.543053
Stoofstraat,12,,,4693BB,Poortvliet,Tholen,Zeeland,VBO,4.141702,51.543036
Stoofstraat,16,,,4693BB,Poortvliet,Tholen,Zeeland,VBO,4.141512,51.543028
Stoofstraat,18,,,4693BB,Poortvliet,Tholen,Zeeland,VBO,4.141342,51.543009
Stoofstraat,20,,,4693BB,Poortvliet,Tholen,Zeeland,VBO,4.141256,51.543000
Stoofstraat,22,,,4693BB,Poortvliet,Tholen,Zeeland,VBO,4.141172,51.542990
Stoofstraat,24,,,4693BB,Poortvliet,Tholen,Zeeland,VBO,4.141097,51.542984
Stoofstraat,26,,,4693BB,Poortvliet,Tholen,Zeeland,VBO,4.140966,51.542987
Stoofstraat,28,,,4693BB,Poortvliet,Tholen,Zeeland,VBO,4.140820,51.542972
Stoofstraat,30,,,4693BB,Poortvliet,Tholen,Zeeland,VBO,4.140706,51.542927
Stoofstraat,32,,,4693BB,Poortvliet,Tholen,Zeeland,VBO,4.140643,51.542919
Stoofstraat,34,,,4693BB,Poortvliet,Tholen,Zeeland,VBO,4.140578,51.542912
Stoofstraat,36,,,4693BB,Poortvliet,Tholen,Zeeland,VBO,4.140440,51.542900
Stoofstraat,44,,,4693BB,Poortvliet,Tholen,Zeeland,VBO,4.140163,51.543111
Stoofstraat,46,,,4693BB,Poortvliet,Tholen,Zeeland,VBO,4.139984,51.543050
Zuidplantsoen,1,a,,4693BC,Poortvliet,Tholen,Zeeland,VBO,4.143616,51.543220
Zuidplantsoen,1,,,4693BC,Poortvliet,Tholen,Zeeland,VBO,4.143261,51.543228
Zuidplantsoen,2,a,,4693BC,Poortvliet,Tholen,Zeeland,VBO,4.143006,51.542470
Zuidplantsoen,2,,,4693BC,Poortvliet,Tholen,Zeeland,VBO,4.142899,51.542750
Zuidplantsoen,3,,,4693BC,Poortvliet,Tholen,Zeeland,VBO,4.143809,51.543259
Zuidplantsoen,4,,,4693BC,Poortvliet,Tholen,Zeeland,VBO,4.143482,51.542798
Zuidplantsoen,5,,,4693BC,Poortvliet,Tholen,Zeeland,VBO,4.144346,51.543336
Zuidplantsoen,6,,,4693BC,Poortvliet,Tholen,Zeeland,VBO,4.143778,51.542827
Zuidplantsoen,7,,,4693BC,Poortvliet,Tholen,Zeeland,VBO,4.144652,51.543378
Zuidplantsoen,9,,,4693BC,Poortvliet,Tholen,Zeeland,VBO,4.145406,51.543150
Zuidplantsoen,11,,,4693BC,Poortvliet,Tholen,Zeeland,VBO,4.145514,51.543089
Zuidplantsoen,13,,,4693BC,Poortvliet,Tholen,Zeeland,VBO,4.145571,51.543047
Zuidplantsoen,15,,,4693BC,Poortvliet,Tholen,Zeeland,VBO,4.145630,51.543001
Zuidplantsoen,17,,,4693BC,Poortvliet,Tholen,Zeeland,VBO,4.145683,51.542965
Zuidplantsoen,19,,,4693BC,Poortvliet,Tholen,Zeeland,VBO,4.145746,51.542921
Zuidplantsoen,21,,,4693BC,Poortvliet,Tholen,Zeeland,VBO,4.145800,51.542884
Zuidplantsoen,23,,,4693BC,Poortvliet,Tholen,Zeeland,VBO,4.145863,51.542840
Zuidplantsoen,25,,,4693BC,Poortvliet,Tholen,Zeeland,VBO,4.145923,51.542801
Parallelweg,1,,,4693BD,Poortvliet,Tholen,Zeeland,VBO,4.146358,51.542679
Parallelweg,5,,,4693BD,Poortvliet,Tholen,Zeeland,VBO,4.146736,51.542736
Parallelweg,7,,,4693BD,Poortvliet,Tholen,Zeeland,VBO,4.147106,51.542726
Parallelweg,9,,,4693BD,Poortvliet,Tholen,Zeeland,VBO,4.147467,51.542704
Schoolstraat,1,,,4693BE,Poortvliet,Tholen,Zeeland,VBO,4.146047,51.543854
Schoolstraat,3,,,4693BE,Poortvliet,Tholen,Zeeland,VBO,4.146294,51.543800
Schoolstraat,5,,,4693BE,Poortvliet,Tholen,Zeeland,VBO,4.146358,51.543778
Schoolstraat,7,,,4693BE,Poortvliet,Tholen,Zeeland,VBO,4.146415,51.543754
Schoolstraat,9,,,4693BE,Poortvliet,Tholen,Zeeland,VBO,4.146476,51.543733
Schoolstraat,11,,,4693BE,Poortvliet,Tholen,Zeeland,VBO,4.146608,51.543704
Schoolstraat,13,,,4693BE,Poortvliet,Tholen,Zeeland,VBO,4.146713,51.543668
Schoolstraat,15,,,4693BE,Poortvliet,Tholen,Zeeland,VBO,4.146808,51.543637
Schoolstraat,17,,,4693BE,Poortvliet,Tholen,Zeeland,VBO,4.146912,51.543595
Schoolstraat,19,,,4693BE,Poortvliet,Tholen,Zeeland,VBO,4.147109,51.543538
Schoolstraat,21,,,4693BE,Poortvliet,Tholen,Zeeland,VBO,4.147193,51.543505
Schoolstraat,23,,,4693BE,Poortvliet,Tholen,Zeeland,VBO,4.147394,51.543435
Schoolstraat,25,,,4693BE,Poortvliet,Tholen,Zeeland,VBO,4.147567,51.543379
Schoolstraat,27,,,4693BE,Poortvliet,Tholen,Zeeland,VBO,4.147798,51.543307
Schoolstraat,29,,,4693BE,Poortvliet,Tholen,Zeeland,VBO,4.147950,51.543131
Schoolstraat,31,,,4693BE,Poortvliet,Tholen,Zeeland,VBO,4.147990,51.542957
Schoolstraat,33,,,4693BE,Poortvliet,Tholen,Zeeland,VBO,4.148003,51.542766
Schoolstraat,2,,,4693BG,Poortvliet,Tholen,Zeeland,VBO,4.146243,51.543541
Schoolstraat,4,,,4693BG,Poortvliet,Tholen,Zeeland,VBO,4.146391,51.543475
Schoolstraat,6,,,4693BG,Poortvliet,Tholen,Zeeland,VBO,4.146809,51.543231
Schoolstraat,10,,,4693BG,Poortvliet,Tholen,Zeeland,VBO,4.147271,51.543167
Molenstraat,5,a,,4693BH,Poortvliet,Tholen,Zeeland,VBO,4.146708,51.544358
Molenstraat,5,b,,4693BH,Poortvliet,Tholen,Zeeland,VBO,4.146800,51.544340
Molenstraat,5,,,4693BH,Poortvliet,Tholen,Zeeland,VBO,4.146608,51.544376
Molenstraat,7,a,,4693BH,Poortvliet,Tholen,Zeeland,VBO,4.146726,51.544400
Molenstraat,7,b,,4693BH,Poortvliet,Tholen,Zeeland,VBO,4.146826,51.544378
Molenstraat,7,,,4693BH,Poortvliet,Tholen,Zeeland,VBO,4.146627,51.544417
Molenstraat,9,,,4693BH,Poortvliet,Tholen,Zeeland,VBO,4.146907,51.544316
Molenstraat,11,,,4693BH,Poortvliet,Tholen,Zeeland,VBO,4.147005,51.544295
Molenstraat,13,,,4693BH,Poortvliet,Tholen,Zeeland,VBO,4.147185,51.544282
Molenstraat,15,,,4693BH,Poortvliet,Tholen,Zeeland,VBO,4.147285,51.544261
Molenstraat,17,,,4693BH,Poortvliet,Tholen,Zeeland,VBO,4.147411,51.544229
Molenstraat,19,,,4693BH,Poortvliet,Tholen,Zeeland,VBO,4.147527,51.544205
Molenstraat,21,,,4693BH,Poortvliet,Tholen,Zeeland,VBO,4.147627,51.544182
Molenstraat,23,,,4693BH,Poortvliet,Tholen,Zeeland,VBO,4.147713,51.544156
Molenstraat,25,,,4693BH,Poortvliet,Tholen,Zeeland,VBO,4.147892,51.544158
Molenstraat,27,,,4693BH,Poortvliet,Tholen,Zeeland,VBO,4.148041,51.544154
Molenstraat,29,,,4693BH,Poortvliet,Tholen,Zeeland,VBO,4.148147,51.544153
Molenstraat,31,,,4693BH,Poortvliet,Tholen,Zeeland,VBO,4.148266,51.544155
Molenstraat,33,,,4693BH,Poortvliet,Tholen,Zeeland,VBO,4.148370,51.544156
Molenstraat,35,,,4693BH,Poortvliet,Tholen,Zeeland,VBO,4.148483,51.544157
Molenstraat,37,,,4693BH,Poortvliet,Tholen,Zeeland,VBO,4.148594,51.544159
Molenstraat,39,,,4693BH,Poortvliet,Tholen,Zeeland,VBO,4.148700,51.544160
Molenstraat,41,,,4693BH,Poortvliet,Tholen,Zeeland,VBO,4.148830,51.544161
Molenstraat,2,,,4693BJ,Poortvliet,Tholen,Zeeland,VBO,4.146588,51.544209
Molenstraat,6,,,4693BJ,Poortvliet,Tholen,Zeeland,VBO,4.146774,51.544130
Molenstraat,8,,,4693BJ,Poortvliet,Tholen,Zeeland,VBO,4.146860,51.544109
Molenstraat,10,,,4693BJ,Poortvliet,Tholen,Zeeland,VBO,4.147040,51.544065
Molenstraat,12,,,4693BJ,Poortvliet,Tholen,Zeeland,VBO,4.147117,51.544049
Molenstraat,14,,,4693BJ,Poortvliet,Tholen,Zeeland,VBO,4.147260,51.544011
Molenstraat,20,,,4693BJ,Poortvliet,Tholen,Zeeland,VBO,4.147455,51.543962
Molenstraat,22,,,4693BJ,Poortvliet,Tholen,Zeeland,VBO,4.147554,51.543927
Molenstraat,24,,,4693BJ,Poortvliet,Tholen,Zeeland,VBO,4.147631,51.543908
Molenstraat,28,,,4693BJ,Poortvliet,Tholen,Zeeland,VBO,4.147815,51.543844
Molenstraat,30,,,4693BK,Poortvliet,Tholen,Zeeland,VBO,4.147925,51.543824
Molenstraat,32,,,4693BK,Poortvliet,Tholen,Zeeland,VBO,4.148010,51.543806
Molenstraat,36,,,4693BK,Poortvliet,Tholen,Zeeland,VBO,4.148152,51.543774
Molenstraat,38,,,4693BK,Poortvliet,Tholen,Zeeland,VBO,4.148231,51.543558
Molenstraat,40,,,4693BK,Poortvliet,Tholen,Zeeland,VBO,4.148542,51.543465
Molenstraat,42,,,4693BK,Poortvliet,Tholen,Zeeland,VBO,4.148722,51.543516
Molenstraat,44,a,,4693BK,Poortvliet,Tholen,Zeeland,VBO,4.148363,51.543940
Molenstraat,44,b,,4693BK,Poortvliet,Tholen,Zeeland,VBO,4.148467,51.543940
Molenstraat,44,,,4693BK,Poortvliet,Tholen,Zeeland,VBO,4.148564,51.543728
Molenstraat,46,,,4693BK,Poortvliet,Tholen,Zeeland,VBO,4.148659,51.543942
Molenstraat,48,,,4693BK,Poortvliet,Tholen,Zeeland,VBO,4.148760,51.543942
Molenstraat,50,,,4693BK,Poortvliet,Tholen,Zeeland,VBO,4.148853,51.543937
Molenstraat,52,,,4693BK,Poortvliet,Tholen,Zeeland,VBO,4.148953,51.543938
Zuidstraat,1,,,4693BL,Poortvliet,Tholen,Zeeland,VBO,4.146399,51.544143
Zuidstraat,5,,,4693BL,Poortvliet,Tholen,Zeeland,VBO,4.146268,51.544039
Zuidstraat,7,,,4693BL,Poortvliet,Tholen,Zeeland,VBO,4.146191,51.543965
Zuidstraat,9,,,4693BL,Poortvliet,Tholen,Zeeland,VBO,4.146136,51.543931
Zuidstraat,11,,,4693BL,Poortvliet,Tholen,Zeeland,VBO,4.146087,51.543893
Zuidstraat,13,,,4693BL,Poortvliet,Tholen,Zeeland,VBO,4.145841,51.543602
Zuidstraat,15,,,4693BL,Poortvliet,Tholen,Zeeland,VBO,4.145799,51.543484
Zuidstraat,17,,,4693BL,Poortvliet,Tholen,Zeeland,VBO,4.145575,51.543392
Zuidstraat,19,,,4693BL,Poortvliet,Tholen,Zeeland,VBO,4.145426,51.543300
Zuidstraat,2,,,4693BM,Poortvliet,Tholen,Zeeland,VBO,4.146155,51.544151
Zuidstraat,4,,,4693BM,Poortvliet,Tholen,Zeeland,VBO,4.145902,51.543957
Zuidstraat,6,,,4693BM,Poortvliet,Tholen,Zeeland,VBO,4.145819,51.543915
Zuidstraat,12,,,4693BM,Poortvliet,Tholen,Zeeland,VBO,4.144797,51.543526
Paasdijkstraat,25,,,4693BN,Poortvliet,Tholen,Zeeland,VBO,4.146017,51.545796
Paasdijkstraat,27,,,4693BN,Poortvliet,Tholen,Zeeland,VBO,4.145979,51.546050
Paasdijkstraat,29,,,4693BN,Poortvliet,Tholen,Zeeland,VBO,4.145972,51.546122
Paasdijkstraat,31,,,4693BP,Poortvliet,Tholen,Zeeland,VBO,4.145974,51.546172
Paasdijkstraat,33,,,4693BP,Poortvliet,Tholen,Zeeland,VBO,4.145974,51.546225
Paasdijkstraat,35,,,4693BP,Poortvliet,Tholen,Zeeland,VBO,4.145947,51.546273
Paasdijkstraat,37,,,4693BP,Poortvliet,Tholen,Zeeland,VBO,4.145943,51.546320
Paasdijkstraat,39,,,4693BP,Poortvliet,Tholen,Zeeland,VBO,4.145946,51.546372
Paasdijkstraat,41,,,4693BP,Poortvliet,Tholen,Zeeland,VBO,4.145930,51.546423
Paasdijkstraat,43,,,4693BP,Poortvliet,Tholen,Zeeland,VBO,4.145907,51.546473
Paasdijkstraat,45,,,4693BP,Poortvliet,Tholen,Zeeland,VBO,4.145898,51.546635
Paasdijkstraat,47,,,4693BP,Poortvliet,Tholen,Zeeland,VBO,4.145837,51.546769
Paasdijkstraat,49,,,4693BP,Poortvliet,Tholen,Zeeland,VBO,4.145832,51.546824
Paasdijkstraat,51,,,4693BP,Poortvliet,Tholen,Zeeland,VBO,4.145832,51.546889
Paasdijkstraat,55,,,4693BP,Poortvliet,Tholen,Zeeland,VBO,4.145866,51.546990
Paasdijkstraat,2,a,,4693BR,Poortvliet,Tholen,Zeeland,VBO,4.146508,51.544420
Paasdijkstraat,2,,,4693BR,Poortvliet,Tholen,Zeeland,VBO,4.146527,51.544509
Paasdijkstraat,4,,,4693BR,Poortvliet,Tholen,Zeeland,VBO,4.146560,51.544571
Paasdijkstraat,6,,,4693BR,Poortvliet,Tholen,Zeeland,VBO,4.146580,51.544629
Paasdijkstraat,8,,,4693BR,Poortvliet,Tholen,Zeeland,VBO,4.146597,51.544500
Paasdijkstraat,10,,,4693BR,Poortvliet,Tholen,Zeeland,VBO,4.146624,51.544560
Paasdijkstraat,12,,,4693BR,Poortvliet,Tholen,Zeeland,VBO,4.146647,51.544619
Paasdijkstraat,14,,,4693BR,Poortvliet,Tholen,Zeeland,VBO,4.146611,51.544692
Paasdijkstraat,16,,,4693BR,Poortvliet,Tholen,Zeeland,VBO,4.146633,51.544754
Paasdijkstraat,18,,,4693BR,Poortvliet,Tholen,Zeeland,VBO,4.146657,51.544813
Paasdijkstraat,20,,,4693BR,Poortvliet,Tholen,Zeeland,VBO,4.146701,51.544682
Paasdijkstraat,22,,,4693BR,Poortvliet,Tholen,Zeeland,VBO,4.146715,51.544743
Paasdijkstraat,24,,,4693BR,Poortvliet,Tholen,Zeeland,VBO,4.146743,51.544805
Paasdijkstraat,40,,,4693BR,Poortvliet,Tholen,Zeeland,VBO,4.146399,51.545583
Langestraat,1,,,4693BS,Poortvliet,Tholen,Zeeland,VBO,4.146056,51.544187
Langestraat,3,,,4693BS,Poortvliet,Tholen,Zeeland,VBO,4.145878,51.544212
Langestraat,5,,,4693BS,Poortvliet,Tholen,Zeeland,VBO,4.145820,51.544241
Langestraat,9,,,4693BS,Poortvliet,Tholen,Zeeland,VBO,4.145707,51.544324
Langestraat,11,,,4693BS,Poortvliet,Tholen,Zeeland,VBO,4.145610,51.544342
Langestraat,13,,,4693BS,Poortvliet,Tholen,Zeeland,VBO,4.145530,51.544383
Langestraat,15,,,4693BS,Poortvliet,Tholen,Zeeland,VBO,4.145394,51.544410
Langestraat,17,,,4693BS,Poortvliet,Tholen,Zeeland,VBO,4.145296,51.544432
Langestraat,23,,,4693BS,Poortvliet,Tholen,Zeeland,VBO,4.145225,51.544446
Langestraat,25,,,4693BS,Poortvliet,Tholen,Zeeland,VBO,4.145140,51.544461
Langestraat,27,a,,4693BS,Poortvliet,Tholen,Zeeland,VBO,4.144928,51.544486
Langestraat,27,,,4693BS,Poortvliet,Tholen,Zeeland,VBO,4.145039,51.544478
Langestraat,29,,,4693BS,Poortvliet,Tholen,Zeeland,VBO,4.144836,51.544488
Langestraat,4,,,4693BT,Poortvliet,Tholen,Zeeland,VBO,4.146118,51.544332
Langestraat,6,,,4693BT,Poortvliet,Tholen,Zeeland,VBO,4.146048,51.544355
Langestraat,8,,,4693BT,Poortvliet,Tholen,Zeeland,VBO,4.145968,51.544388
Langestraat,10,,,4693BT,Poortvliet,Tholen,Zeeland,VBO,4.145885,51.544445
Langestraat,12,,,4693BT,Poortvliet,Tholen,Zeeland,VBO,4.145797,51.544471
Langestraat,16,,,4693BT,Poortvliet,Tholen,Zeeland,VBO,4.145613,51.544531
Langestraat,18,,,4693BT,Poortvliet,Tholen,Zeeland,VBO,4.145511,51.544567
Langestraat,20,,,4693BT,Poortvliet,Tholen,Zeeland,VBO,4.145437,51.544575
Langestraat,22,,,4693BT,Poortvliet,Tholen,Zeeland,VBO,4.145340,51.544604
Langestraat,24,,,4693BT,Poortvliet,Tholen,Zeeland,VBO,4.145237,51.544626
Langestraat,26,,,4693BT,Poortvliet,Tholen,Zeeland,VBO,4.145141,51.544641
Langestraat,28,,,4693BT,Poortvliet,Tholen,Zeeland,VBO,4.144931,51.544596
Langestraat,30,,,4693BT,Poortvliet,Tholen,Zeeland,VBO,4.144818,51.544606
Langestraat,32,,,4693BT,Poortvliet,Tholen,Zeeland,VBO,4.144701,51.544623
Langestraat,34,,,4693BT,Poortvliet,Tholen,Zeeland,VBO,4.144583,51.544639
Achterstraat,1,,,4693BV,Poortvliet,Tholen,Zeeland,VBO,4.145083,51.545212
Achterstraat,2,,,4693BV,Poortvliet,Tholen,Zeeland,VBO,4.144475,51.545558
Achterstraat,3,,,4693BV,Poortvliet,Tholen,Zeeland,VBO,4.145305,51.545122
Achterstraat,4,,,4693BV,Poortvliet,Tholen,Zeeland,VBO,4.144479,51.545505
Achterstraat,5,,,4693BV,Poortvliet,Tholen,Zeeland,VBO,4.145489,51.545050
Achterstraat,6,,,4693BV,Poortvliet,Tholen,Zeeland,VBO,4.144486,51.545448
Achterstraat,7,,,4693BV,Poortvliet,Tholen,Zeeland,VBO,4.145666,51.544985
Achterstraat,8,,,4693BV,Poortvliet,Tholen,Zeeland,VBO,4.144489,51.545393
Achterstraat,9,,,4693BV,Poortvliet,Tholen,Zeeland,VBO,4.145822,51.544914
Achterstraat,10,,,4693BV,Poortvliet,Tholen,Zeeland,VBO,4.144528,51.545310
Achterstraat,11,,,4693BV,Poortvliet,Tholen,Zeeland,VBO,4.145889,51.544902
Achterstraat,12,,,4693BV,Poortvliet,Tholen,Zeeland,VBO,4.144566,51.545264
Achterstraat,13,,,4693BV,Poortvliet,Tholen,Zeeland,VBO,4.146003,51.544883
Achterstraat,14,,,4693BV,Poortvliet,Tholen,Zeeland,VBO,4.144607,51.545215
Achterstraat,15,,,4693BV,Poortvliet,Tholen,Zeeland,VBO,4.146111,51.544872
Achterstraat,16,,,4693BV,Poortvliet,Tholen,Zeeland,VBO,4.144671,51.545148
Achterstraat,18,,,4693BV,Poortvliet,Tholen,Zeeland,VBO,4.144717,51.545113
Achterstraat,20,,,4693BV,Poortvliet,Tholen,Zeeland,VBO,4.144771,51.545077
Achterstraat,22,,,4693BV,Poortvliet,Tholen,Zeeland,VBO,4.144814,51.545040
Achterstraat,30,,,4693BV,Poortvliet,Tholen,Zeeland,VBO,4.145214,51.544745
Achterstraat,34,,,4693BV,Poortvliet,Tholen,Zeeland,VBO,4.145876,51.544629
Rozemarijnstraat,2,,,4693BW,Poortvliet,Tholen,Zeeland,VBO,4.145032,51.544737
Rozemarijnstraat,4,,,4693BW,Poortvliet,Tholen,Zeeland,VBO,4.144886,51.544762
Kerkplein,1,,,4693BX,Poortvliet,Tholen,Zeeland,VBO,4.143285,51.545182
Kerkplein,2,a,,4693BX,Poortvliet,Tholen,Zeeland,VBO,4.143741,51.544698
Kerkplein,3,,,4693BX,Poortvliet,Tholen,Zeeland,VBO,4.143375,51.545191
Kerkplein,5,,,4693BX,Poortvliet,Tholen,Zeeland,VBO,4.143466,51.545201
Kerkplein,7,,,4693BX,Poortvliet,Tholen,Zeeland,VBO,4.143617,51.545200
Kerkplein,9,,,4693BX,Poortvliet,Tholen,Zeeland,VBO,4.143709,51.545194
Kerkplein,11,,,4693BX,Poortvliet,Tholen,Zeeland,VBO,4.143789,51.545185
Kerkplein,13,,,4693BX,Poortvliet,Tholen,Zeeland,VBO,4.143939,51.545156
Kerkplein,15,,,4693BX,Poortvliet,Tholen,Zeeland,VBO,4.144021,51.545135
Kerkplein,17,,,4693BX,Poortvliet,Tholen,Zeeland,VBO,4.144106,51.545109
Kerkplein,19,,,4693BX,Poortvliet,Tholen,Zeeland,VBO,4.144206,51.545055
Kerkplein,21,,,4693BX,Poortvliet,Tholen,Zeeland,VBO,4.144258,51.545027
Kerkplein,23,,,4693BX,Poortvliet,Tholen,Zeeland,VBO,4.144309,51.544993
Kerkplein,25,,,4693BX,Poortvliet,Tholen,Zeeland,VBO,4.144360,51.544958
Kerkplein,27,,,4693BX,Poortvliet,Tholen,Zeeland,VBO,4.144436,51.544898
Kerkplein,29,,,4693BX,Poortvliet,Tholen,Zeeland,VBO,4.144465,51.544860
Kerkplein,31,,,4693BX,Poortvliet,Tholen,Zeeland,VBO,4.144497,51.544817
Kerkplein,33,,,4693BX,Poortvliet,Tholen,Zeeland,VBO,4.144531,51.544776
Markt,3,,,4693CA,Poortvliet,Tholen,Zeeland,VBO,4.144453,51.544457
Markt,5,,,4693CA,Poortvliet,Tholen,Zeeland,VBO,4.144412,51.544407
Markt,7,,,4693CA,Poortvliet,Tholen,Zeeland,VBO,4.144376,51.544361
Markt,9,,,4693CA,Poortvliet,Tholen,Zeeland,VBO,4.144318,51.544305
Markt,11,,,4693CA,Poortvliet,Tholen,Zeeland,VBO,4.144209,51.544245
Markt,13,,,4693CA,Poortvliet,Tholen,Zeeland,VBO,4.144132,51.544199
Markt,15,,,4693CA,Poortvliet,Tholen,Zeeland,VBO,4.144054,51.544160
Markt,19,,,4693CA,Poortvliet,Tholen,Zeeland,VBO,4.143871,51.544099
Markt,21,,,4693CA,Poortvliet,Tholen,Zeeland,VBO,4.143765,51.544069
Markt,23,,,4693CA,Poortvliet,Tholen,Zeeland,VBO,4.143615,51.544062
Markt,25,,,4693CA,Poortvliet,Tholen,Zeeland,VBO,4.143430,51.544030
Markt,27,,,4693CA,Poortvliet,Tholen,Zeeland,VBO,4.143266,51.543967
Markt,2,,,4693CB,Poortvliet,Tholen,Zeeland,VBO,4.143513,51.544693
Markt,6,,,4693CB,Poortvliet,Tholen,Zeeland,VBO,4.144184,51.544533
Markt,8,,,4693CB,Poortvliet,Tholen,Zeeland,VBO,4.144115,51.544464
Markt,10,a,,4693CB,Poortvliet,Tholen,Zeeland,VBO,4.143959,51.544343
Markt,10,,,4693CB,Poortvliet,Tholen,Zeeland,VBO,4.144056,51.544414
Markt,12,,,4693CB,Poortvliet,Tholen,Zeeland,VBO,4.143888,51.544289
Markt,14,,,4693CB,Poortvliet,Tholen,Zeeland,VBO,4.143783,51.544259
Markt,16,,,4693CB,Poortvliet,Tholen,Zeeland,VBO,4.143662,51.544255
Smidsstraat,1,,,4693CC,Poortvliet,Tholen,Zeeland,VBO,4.143073,51.543803
Smidsstraat,4,,,4693CC,Poortvliet,Tholen,Zeeland,VBO,4.142928,51.544045
Smidsstraat,6,,,4693CC,Poortvliet,Tholen,Zeeland,VBO,4.142878,51.543982
Smidsstraat,7,,,4693CC,Poortvliet,Tholen,Zeeland,VBO,4.143183,51.543575
Smidsstraat,8,,,4693CC,Poortvliet,Tholen,Zeeland,VBO,4.142850,51.543912
Smidsstraat,9,,,4693CC,Poortvliet,Tholen,Zeeland,VBO,4.143115,51.543459
Smidsstraat,10,,,4693CC,Poortvliet,Tholen,Zeeland,VBO,4.142679,51.543880
Smidsstraat,11,,,4693CC,Poortvliet,Tholen,Zeeland,VBO,4.142851,51.543211
Smidsstraat,12,,,4693CC,Poortvliet,Tholen,Zeeland,VBO,4.142689,51.543801
Smidsstraat,14,,,4693CC,Poortvliet,Tholen,Zeeland,VBO,4.142502,51.543801
Smidsstraat,18,,,4693CC,Poortvliet,Tholen,Zeeland,VBO,4.142654,51.543666
Smidsstraat,22,,,4693CC,Poortvliet,Tholen,Zeeland,VBO,4.142627,51.543549
Smidsstraat,24,,,4693CC,Poortvliet,Tholen,Zeeland,VBO,4.142594,51.543496
Smidsstraat,26,,,4693CC,Poortvliet,Tholen,Zeeland,VBO,4.142561,51.543446
Smidsstraat,28,,,4693CC,Poortvliet,Tholen,Zeeland,VBO,4.142358,51.543164
Noordstraat,2,,,4693CD,Poortvliet,Tholen,Zeeland,VBO,4.143297,51.544276
Noordstraat,4,,,4693CD,Poortvliet,Tholen,Zeeland,VBO,4.143201,51.544333
Noordstraat,5,,,4693CD,Poortvliet,Tholen,Zeeland,VBO,4.142731,51.544560
Noordstraat,6,,,4693CD,Poortvliet,Tholen,Zeeland,VBO,4.143078,51.544389
Noordstraat,7,,,4693CD,Poortvliet,Tholen,Zeeland,VBO,4.142720,51.544623
Noordstraat,9,a,,4693CD,Poortvliet,Tholen,Zeeland,VBO,4.142783,51.544836
Noordstraat,9,b,,4693CD,Poortvliet,Tholen,Zeeland,VBO,4.142803,51.544885
Noordstraat,9,,,4693CD,Poortvliet,Tholen,Zeeland,VBO,4.142776,51.544704
Noordstraat,10,,,4693CD,Poortvliet,Tholen,Zeeland,VBO,4.142994,51.544528
Noordstraat,11,,,4693CD,Poortvliet,Tholen,Zeeland,VBO,4.142889,51.544981
Noordstraat,12,,,4693CD,Poortvliet,Tholen,Zeeland,VBO,4.143006,51.544593
Noordstraat,13,,,4693CD,Poortvliet,Tholen,Zeeland,VBO,4.142917,51.545028
Noordstraat,14,,,4693CD,Poortvliet,Tholen,Zeeland,VBO,4.143214,51.544673
Noordstraat,15,,,4693CD,Poortvliet,Tholen,Zeeland,VBO,4.142937,51.545081
Noordstraat,17,,,4693CD,Poortvliet,Tholen,Zeeland,VBO,4.142919,51.545215
Noordstraat,18,,,4693CD,Poortvliet,Tholen,Zeeland,VBO,4.143044,51.544749
Noordstraat,19,,,4693CD,Poortvliet,Tholen,Zeeland,VBO,4.142917,51.545258
Noordstraat,20,,,4693CD,Poortvliet,Tholen,Zeeland,VBO,4.143090,51.544796
Noordstraat,21,,,4693CD,Poortvliet,Tholen,Zeeland,VBO,4.142918,51.545310
Noordstraat,22,,,4693CD,Poortvliet,Tholen,Zeeland,VBO,4.143125,51.544848
Noordstraat,24,,,4693CD,Poortvliet,Tholen,Zeeland,VBO,4.143171,51.544895
Noordstraat,25,,,4693CD,Poortvliet,Tholen,Zeeland,VBO,4.143031,51.545518
Noordstraat,26,,,4693CD,Poortvliet,Tholen,Zeeland,VBO,4.143205,51.544939
Noordstraat,30,,,4693CD,Poortvliet,Tholen,Zeeland,VBO,4.143358,51.545383
Noordstraat,32,,,4693CD,Poortvliet,Tholen,Zeeland,VBO,4.143370,51.545432
Noordstraat,34,,,4693CD,Poortvliet,Tholen,Zeeland,VBO,4.143369,51.545478
Noordstraat,36,,,4693CD,Poortvliet,Tholen,Zeeland,VBO,4.143373,51.545525
Noordstraat,38,,,4693CD,Poortvliet,Tholen,Zeeland,VBO,4.143388,51.545568
Noordstraat,40,,,4693CD,Poortvliet,Tholen,Zeeland,VBO,4.143400,51.545615
Noordstraat,42,,,4693CD,Poortvliet,Tholen,Zeeland,VBO,4.143402,51.545658
Deestraat,1,a,,4693CE,Poortvliet,Tholen,Zeeland,VBO,4.146016,51.545476
Deestraat,1,,,4693CE,Poortvliet,Tholen,Zeeland,VBO,4.145871,51.545495
Deestraat,3,,,4693CE,Poortvliet,Tholen,Zeeland,VBO,4.145772,51.545499
Deestraat,5,,,4693CE,Poortvliet,Tholen,Zeeland,VBO,4.145652,51.545502
Deestraat,9,a,,4693CE,Poortvliet,Tholen,Zeeland,VBO,4.145377,51.545457
Deestraat,11,,,4693CE,Poortvliet,Tholen,Zeeland,VBO,4.145268,51.545490
Deestraat,13,,,4693CE,Poortvliet,Tholen,Zeeland,VBO,4.145139,51.545515
Deestraat,15,,,4693CE,Poortvliet,Tholen,Zeeland,VBO,4.145052,51.545520
Deestraat,17,,,4693CE,Poortvliet,Tholen,Zeeland,VBO,4.144970,51.545528
Deestraat,23,,,4693CE,Poortvliet,Tholen,Zeeland,VBO,4.144188,51.545591
Deestraat,25,,,4693CE,Poortvliet,Tholen,Zeeland,VBO,4.144101,51.545597
Deestraat,27,,,4693CE,Poortvliet,Tholen,Zeeland,VBO,4.144027,51.545607
Deestraat,29,,,4693CE,Poortvliet,Tholen,Zeeland,VBO,4.143952,51.545615
Deestraat,31,,,4693CE,Poortvliet,Tholen,Zeeland,VBO,4.143872,51.545627
Deestraat,33,,,4693CE,Poortvliet,Tholen,Zeeland,VBO,4.143793,51.545637
Deestraat,39,,,4693CG,Poortvliet,Tholen,Zeeland,VBO,4.143007,51.545637
Deestraat,41,,,4693CG,Poortvliet,Tholen,Zeeland,VBO,4.142858,51.545642
Deestraat,43,,,4693CG,Poortvliet,Tholen,Zeeland,VBO,4.142741,51.545630
Deestraat,45,,,4693CG,Poortvliet,Tholen,Zeeland,VBO,4.142543,51.545607
Deestraat,47,,,4693CG,Poortvliet,Tholen,Zeeland,VBO,4.141569,51.545426
Deestraat,49,,,4693CG,Poortvliet,Tholen,Zeeland,VBO,4.141129,51.545211
Deestraat,51,,,4693CG,Poortvliet,Tholen,Zeeland,VBO,4.141044,51.545189
Deestraat,53,,,4693CG,Poortvliet,Tholen,Zeeland,VBO,4.140961,51.545167
Deestraat,55,,,4693CG,Poortvliet,Tholen,Zeeland,VBO,4.140871,51.545140
Deestraat,2,,,4693CH,Poortvliet,Tholen,Zeeland,VBO,4.145552,51.545725
Deestraat,10,,,4693CH,Poortvliet,Tholen,Zeeland,VBO,4.144738,51.545819
Deestraat,12,,,4693CH,Poortvliet,Tholen,Zeeland,VBO,4.144652,51.545821
Deestraat,14,,,4693CH,Poortvliet,Tholen,Zeeland,VBO,4.144443,51.545843
Deestraat,16,,,4693CH,Poortvliet,Tholen,Zeeland,VBO,4.144356,51.545845
Deestraat,18,,,4693CH,Poortvliet,Tholen,Zeeland,VBO,4.144132,51.545863
Deestraat,20,,,4693CH,Poortvliet,Tholen,Zeeland,VBO,4.144043,51.545868
Deestraat,30,,,4693CH,Poortvliet,Tholen,Zeeland,VBO,4.143865,51.545907
Deestraat,32,,,4693CH,Poortvliet,Tholen,Zeeland,VBO,4.143789,51.545912
Deestraat,34,,,4693CH,Poortvliet,Tholen,Zeeland,VBO,4.143712,51.545918
Deestraat,36,,,4693CH,Poortvliet,Tholen,Zeeland,VBO,4.143624,51.545928
Deestraat,50,,,4693CH,Poortvliet,Tholen,Zeeland,VBO,4.138744,51.544954
Burgemeet,1,,,4693CJ,Poortvliet,Tholen,Zeeland,VBO,4.142755,51.545910
Burgemeet,2,,,4693CJ,Poortvliet,Tholen,Zeeland,VBO,4.143313,51.545931
Burgemeet,3,,,4693CJ,Poortvliet,Tholen,Zeeland,VBO,4.142757,51.545967
Burgemeet,4,,,4693CJ,Poortvliet,Tholen,Zeeland,VBO,4.143318,51.545991
Burgemeet,5,,,4693CJ,Poortvliet,Tholen,Zeeland,VBO,4.142763,51.546021
Burgemeet,6,,,4693CJ,Poortvliet,Tholen,Zeeland,VBO,4.143324,51.546046
Burgemeet,7,,,4693CJ,Poortvliet,Tholen,Zeeland,VBO,4.142774,51.546072
Burgemeet,8,,,4693CJ,Poortvliet,Tholen,Zeeland,VBO,4.143338,51.546103
Burgemeet,9,,,4693CJ,Poortvliet,Tholen,Zeeland,VBO,4.142787,51.546130
Burgemeet,10,,,4693CJ,Poortvliet,Tholen,Zeeland,VBO,4.143354,51.546161
Burgemeet,11,,,4693CJ,Poortvliet,Tholen,Zeeland,VBO,4.142796,51.546181
Burgemeet,12,,,4693CJ,Poortvliet,Tholen,Zeeland,VBO,4.143361,51.546213
Burgemeet,14,,,4693CJ,Poortvliet,Tholen,Zeeland,VBO,4.143670,51.546202
Burgemeet,16,,,4693CJ,Poortvliet,Tholen,Zeeland,VBO,4.143758,51.546198
Burgemeet,18,,,4693CJ,Poortvliet,Tholen,Zeeland,VBO,4.143838,51.546196
Burgemeet,19,,,4693CJ,Poortvliet,Tholen,Zeeland,VBO,4.143268,51.546814
Burgemeet,20,,,4693CJ,Poortvliet,Tholen,Zeeland,VBO,4.143917,51.546191
Burgemeet,21,,,4693CJ,Poortvliet,Tholen,Zeeland,VBO,4.143155,51.546492
Burgemeet,22,,,4693CJ,Poortvliet,Tholen,Zeeland,VBO,4.144080,51.546149
Burgemeet,23,,,4693CJ,Poortvliet,Tholen,Zeeland,VBO,4.143455,51.546473
Burgemeet,24,,,4693CJ,Poortvliet,Tholen,Zeeland,VBO,4.144159,51.546148
Burgemeet,25,,,4693CJ,Poortvliet,Tholen,Zeeland,VBO,4.143960,51.546476
Burgemeet,26,,,4693CJ,Poortvliet,Tholen,Zeeland,VBO,4.144240,51.546145
Burgemeet,27,,,4693CJ,Poortvliet,Tholen,Zeeland,VBO,4.144100,51.546706
Burgemeet,28,,,4693CJ,Poortvliet,Tholen,Zeeland,VBO,4.144313,51.546137
Burgemeet,29,,,4693CJ,Poortvliet,Tholen,Zeeland,VBO,4.144446,51.546760
Burgemeet,30,,,4693CJ,Poortvliet,Tholen,Zeeland,VBO,4.144392,51.546130
Burgemeet,31,,,4693CJ,Poortvliet,Tholen,Zeeland,VBO,4.144701,51.546732
Burgemeet,32,,,4693CJ,Poortvliet,Tholen,Zeeland,VBO,4.144475,51.546287
Burgemeet,33,,,4693CJ,Poortvliet,Tholen,Zeeland,VBO,4.144980,51.546710
Burgemeet,34,,,4693CJ,Poortvliet,Tholen,Zeeland,VBO,4.144487,51.546337
Burgemeet,35,,,4693CJ,Poortvliet,Tholen,Zeeland,VBO,4.145219,51.546676
Burgemeet,36,,,4693CJ,Poortvliet,Tholen,Zeeland,VBO,4.144492,51.546391
Burgemeet,38,,,4693CJ,Poortvliet,Tholen,Zeeland,VBO,4.144504,51.546443
Burgemeet,40,,,4693CJ,Poortvliet,Tholen,Zeeland,VBO,4.144813,51.546429
Burgemeet,42,,,4693CJ,Poortvliet,Tholen,Zeeland,VBO,4.144912,51.546428
Burgemeet,44,,,4693CJ,Poortvliet,Tholen,Zeeland,VBO,4.145000,51.546422
Burgemeet,46,a,,4693CJ,Poortvliet,Tholen,Zeeland,VBO,4.145060,51.546216
Burgemeet,46,,,4693CJ,Poortvliet,Tholen,Zeeland,VBO,4.145085,51.546416
Burgemeet,48,,,4693CK,Poortvliet,Tholen,Zeeland,VBO,4.145048,51.546169
Burgemeet,50,,,4693CK,Poortvliet,Tholen,Zeeland,VBO,4.145042,51.546122
Burgemeet,52,,,4693CK,Poortvliet,Tholen,Zeeland,VBO,4.145037,51.546073
Burgemeet,54,,,4693CK,Poortvliet,Tholen,Zeeland,VBO,4.145026,51.546030
Burgemeet,56,,,4693CK,Poortvliet,Tholen,Zeeland,VBO,4.145110,51.545893
Burgemeet,58,,,4693CK,Poortvliet,Tholen,Zeeland,VBO,4.145103,51.545848
Burgemeet,60,,,4693CK,Poortvliet,Tholen,Zeeland,VBO,4.145096,51.545801
Burgemeet,61,,,4693CK,Poortvliet,Tholen,Zeeland,VBO,4.145479,51.546647
Burgemeet,62,,,4693CK,Poortvliet,Tholen,Zeeland,VBO,4.145083,51.545750
Burgemeet,63,,,4693CK,Poortvliet,Tholen,Zeeland,VBO,4.145472,51.546489
Burgemeet,65,,,4693CK,Poortvliet,Tholen,Zeeland,VBO,4.145465,51.546430
Burgemeet,67,,,4693CK,Poortvliet,Tholen,Zeeland,VBO,4.145499,51.546297
Burgemeet,69,,,4693CK,Poortvliet,Tholen,Zeeland,VBO,4.145494,51.546235
Burgemeet,71,,,4693CK,Poortvliet,Tholen,Zeeland,VBO,4.145513,51.546067
Burgemeet,73,,,4693CK,Poortvliet,Tholen,Zeeland,VBO,4.145542,51.545936
Burgemeet,75,,,4693CK,Poortvliet,Tholen,Zeeland,VBO,4.145534,51.545882
Wilhelminastraat,2,,,4693EA,Poortvliet,Tholen,Zeeland,VBO,4.142798,51.544337
Wilhelminastraat,3,,,4693EA,Poortvliet,Tholen,Zeeland,VBO,4.142620,51.544111
Wilhelminastraat,4,,,4693EA,Poortvliet,Tholen,Zeeland,VBO,4.142720,51.544328
Wilhelminastraat,5,,,4693EA,Poortvliet,Tholen,Zeeland,VBO,4.142468,51.544089
Wilhelminastraat,6,a,,4693EA,Poortvliet,Tholen,Zeeland,VBO,4.142555,51.544305
Wilhelminastraat,6,,,4693EA,Poortvliet,Tholen,Zeeland,VBO,4.142640,51.544317
Wilhelminastraat,7,,,4693EA,Poortvliet,Tholen,Zeeland,VBO,4.142385,51.544072
Wilhelminastraat,8,,,4693EA,Poortvliet,Tholen,Zeeland,VBO,4.142396,51.544298
Wilhelminastraat,9,,,4693EA,Poortvliet,Tholen,Zeeland,VBO,4.142259,51.544054
Wilhelminastraat,10,,,4693EA,Poortvliet,Tholen,Zeeland,VBO,4.142311,51.544290
Wilhelminastraat,11,,,4693EA,Poortvliet,Tholen,Zeeland,VBO,4.142177,51.544042
Wilhelminastraat,12,,,4693EA,Poortvliet,Tholen,Zeeland,VBO,4.142189,51.544276
Wilhelminastraat,14,,,4693EA,Poortvliet,Tholen,Zeeland,VBO,4.142102,51.544268
Wilhelminastraat,16,,,4693EA,Poortvliet,Tholen,Zeeland,VBO,4.141972,51.544256
Wilhelminastraat,18,,,4693EA,Poortvliet,Tholen,Zeeland,VBO,4.141887,51.544247
Burgemeester van Oeverenstraat,1,,,4693EB,Poortvliet,Tholen,Zeeland,VBO,4.142374,51.543219
Burgemeester van Oeverenstraat,3,,,4693EB,Poortvliet,Tholen,Zeeland,VBO,4.142245,51.543334
Burgemeester van Oeverenstraat,7,,,4693EB,Poortvliet,Tholen,Zeeland,VBO,4.141922,51.543474
Burgemeester van Oeverenstraat,9,,,4693EB,Poortvliet,Tholen,Zeeland,VBO,4.141838,51.543676
Burgemeester van Oeverenstraat,11,,,4693EB,Poortvliet,Tholen,Zeeland,VBO,4.141805,51.543715
Burgemeester van Oeverenstraat,13,,,4693EB,Poortvliet,Tholen,Zeeland,VBO,4.141774,51.543755
Burgemeester van Oeverenstraat,15,,,4693EB,Poortvliet,Tholen,Zeeland,VBO,4.141728,51.543831
Burgemeester van Oeverenstraat,17,,,4693EB,Poortvliet,Tholen,Zeeland,VBO,4.141707,51.543881
Burgemeester van Oeverenstraat,19,,,4693EB,Poortvliet,Tholen,Zeeland,VBO,4.141685,51.543931
Burgemeester van Oeverenstraat,21,,,4693EB,Poortvliet,Tholen,Zeeland,VBO,4.141663,51.543981
Burgemeester van Oeverenstraat,2,,,4693EC,Poortvliet,Tholen,Zeeland,VBO,4.142528,51.543395
Burgemeester van Oeverenstraat,4,,,4693EC,Poortvliet,Tholen,Zeeland,VBO,4.142289,51.543546
Burgemeester van Oeverenstraat,6,,,4693EC,Poortvliet,Tholen,Zeeland,VBO,4.142234,51.543589
Burgemeester van Oeverenstraat,8,,,4693EC,Poortvliet,Tholen,Zeeland,VBO,4.142122,51.543691
Burgemeester van Oeverenstraat,10,,,4693EC,Poortvliet,Tholen,Zeeland,VBO,4.142072,51.543746
Burgemeester van Oeverenstraat,12,,,4693EC,Poortvliet,Tholen,Zeeland,VBO,4.142046,51.543838
Burgemeester van Oeverenstraat,14,,,4693EC,Poortvliet,Tholen,Zeeland,VBO,4.142029,51.543886
Burgemeester van Oeverenstraat,16,,,4693EC,Poortvliet,Tholen,Zeeland,VBO,4.141976,51.543992
Julianastraat,1,,,4693ED,Poortvliet,Tholen,Zeeland,VBO,4.141299,51.544591
Julianastraat,3,,,4693ED,Poortvliet,Tholen,Zeeland,VBO,4.141382,51.544888
Julianastraat,5,,,4693ED,Poortvliet,Tholen,Zeeland,VBO,4.141524,51.545069
Julianastraat,7,,,4693ED,Poortvliet,Tholen,Zeeland,VBO,4.141565,51.545119
Julianastraat,9,,,4693ED,Poortvliet,Tholen,Zeeland,VBO,4.141607,51.545174
Julianastraat,11,,,4693ED,Poortvliet,Tholen,Zeeland,VBO,4.141641,51.545225
Julianastraat,13,,,4693ED,Poortvliet,Tholen,Zeeland,VBO,4.141746,51.545355
Julianastraat,2,,,4693EE,Poortvliet,Tholen,Zeeland,VBO,4.141788,51.544432
Julianastraat,4,,,4693EE,Poortvliet,Tholen,Zeeland,VBO,4.141773,51.544487
Julianastraat,6,,,4693EE,Poortvliet,Tholen,Zeeland,VBO,4.141761,51.544595
Julianastraat,8,,,4693EE,Poortvliet,Tholen,Zeeland,VBO,4.141750,51.544654
Julianastraat,10,,,4693EE,Poortvliet,Tholen,Zeeland,VBO,4.141746,51.544713
Julianastraat,12,,,4693EE,Poortvliet,Tholen,Zeeland,VBO,4.141738,51.544771
Julianastraat,14,,,4693EE,Poortvliet,Tholen,Zeeland,VBO,4.141839,51.544930
Julianastraat,16,,,4693EE,Poortvliet,Tholen,Zeeland,VBO,4.141883,51.544982
Julianastraat,18,,,4693EE,Poortvliet,Tholen,Zeeland,VBO,4.141922,51.545034
Julianastraat,20,,,4693EE,Poortvliet,Tholen,Zeeland,VBO,4.141967,51.545086
Julianastraat,22,,,4693EE,Poortvliet,Tholen,Zeeland,VBO,4.141998,51.545194
Julianastraat,24,,,4693EE,Poortvliet,Tholen,Zeeland,VBO,4.142038,51.545247
Julianastraat,26,,,4693EE,Poortvliet,Tholen,Zeeland,VBO,4.142080,51.545301
Julianastraat,28,,,4693EE,Poortvliet,Tholen,Zeeland,VBO,4.142119,51.545352
Julianastraat,30,,,4693EE,Poortvliet,Tholen,Zeeland,VBO,4.142167,51.545405
Julianastraat,32,,,4693EE,Poortvliet,Tholen,Zeeland,VBO,4.142210,51.545458
Hogedorpstraat,1,,,4693EG,Poortvliet,Tholen,Zeeland,VBO,4.141516,51.543301
Hogedorpstraat,2,a,,4693EG,Poortvliet,Tholen,Zeeland,VBO,4.140334,51.543170
Hogedorpstraat,2,b,,4693EG,Poortvliet,Tholen,Zeeland,VBO,4.140590,51.543210
Hogedorpstraat,2,c,,4693EG,Poortvliet,Tholen,Zeeland,VBO,4.140676,51.543221
Hogedorpstraat,2,d,,4693EG,Poortvliet,Tholen,Zeeland,VBO,4.140764,51.543232
Hogedorpstraat,3,,,4693EG,Poortvliet,Tholen,Zeeland,VBO,4.141509,51.543352
Hogedorpstraat,4,,,4693EG,Poortvliet,Tholen,Zeeland,VBO,4.141107,51.543267
Hogedorpstraat,5,,,4693EG,Poortvliet,Tholen,Zeeland,VBO,4.141502,51.543404
Hogedorpstraat,6,,,4693EG,Poortvliet,Tholen,Zeeland,VBO,4.141083,51.543323
Hogedorpstraat,7,,,4693EG,Poortvliet,Tholen,Zeeland,VBO,4.141497,51.543456
Hogedorpstraat,8,,,4693EG,Poortvliet,Tholen,Zeeland,VBO,4.141061,51.543383
Hogedorpstraat,9,,,4693EG,Poortvliet,Tholen,Zeeland,VBO,4.141490,51.543508
Hogedorpstraat,10,,,4693EG,Poortvliet,Tholen,Zeeland,VBO,4.141032,51.543442
Hogedorpstraat,11,,,4693EG,Poortvliet,Tholen,Zeeland,VBO,4.141478,51.543558
Hogedorpstraat,12,,,4693EG,Poortvliet,Tholen,Zeeland,VBO,4.141031,51.543504
Hogedorpstraat,13,,,4693EG,Poortvliet,Tholen,Zeeland,VBO,4.141469,51.543640
Hogedorpstraat,14,,,4693EG,Poortvliet,Tholen,Zeeland,VBO,4.141011,51.543563
Hogedorpstraat,15,,,4693EG,Poortvliet,Tholen,Zeeland,VBO,4.141460,51.543697
Hogedorpstraat,16,,,4693EG,Poortvliet,Tholen,Zeeland,VBO,4.141062,51.543749
Bernhardstraat,1,,,4693EH,Poortvliet,Tholen,Zeeland,VBO,4.141407,51.543884
Bernhardstraat,2,,,4693EH,Poortvliet,Tholen,Zeeland,VBO,4.141415,51.544201
Bernhardstraat,3,,,4693EH,Poortvliet,Tholen,Zeeland,VBO,4.140769,51.543783
Bernhardstraat,4,,,4693EH,Poortvliet,Tholen,Zeeland,VBO,4.141122,51.544109
Bernhardstraat,5,,,4693EH,Poortvliet,Tholen,Zeeland,VBO,4.140680,51.543770
Bernhardstraat,6,,,4693EH,Poortvliet,Tholen,Zeeland,VBO,4.140770,51.544026
Bernhardstraat,7,,,4693EH,Poortvliet,Tholen,Zeeland,VBO,4.140595,51.543758
Bernhardstraat,9,,,4693EH,Poortvliet,Tholen,Zeeland,VBO,4.140503,51.543746
Bernhardstraat,11,,,4693EH,Poortvliet,Tholen,Zeeland,VBO,4.140366,51.543708
Bernhardstraat,13,,,4693EH,Poortvliet,Tholen,Zeeland,VBO,4.140277,51.543697
Bernhardstraat,15,,,4693EH,Poortvliet,Tholen,Zeeland,VBO,4.140191,51.543687
Bernhardstraat,17,,,4693EH,Poortvliet,Tholen,Zeeland,VBO,4.140094,51.543675
Philips de Goedestraat,1,,,4693EJ,Poortvliet,Tholen,Zeeland,VBO,4.140350,51.543975
Philips de Goedestraat,2,,,4693EJ,Poortvliet,Tholen,Zeeland,VBO,4.140655,51.544160
Philips de Goedestraat,3,,,4693EJ,Poortvliet,Tholen,Zeeland,VBO,4.140326,51.544037
Philips de Goedestraat,4,,,4693EJ,Poortvliet,Tholen,Zeeland,VBO,4.140640,51.544218
Philips de Goedestraat,5,,,4693EJ,Poortvliet,Tholen,Zeeland,VBO,4.140309,51.544101
Philips de Goedestraat,6,,,4693EJ,Poortvliet,Tholen,Zeeland,VBO,4.140622,51.544268
Philips de Goedestraat,7,,,4693EJ,Poortvliet,Tholen,Zeeland,VBO,4.140282,51.544163
Philips de Goedestraat,8,,,4693EJ,Poortvliet,Tholen,Zeeland,VBO,4.140604,51.544322
Philips de Goedestraat,9,,,4693EJ,Poortvliet,Tholen,Zeeland,VBO,4.140263,51.544230
Philips de Goedestraat,10,,,4693EJ,Poortvliet,Tholen,Zeeland,VBO,4.140572,51.544409
Philips de Goedestraat,12,,,4693EJ,Poortvliet,Tholen,Zeeland,VBO,4.140552,51.544464
Philips de Goedestraat,14,,,4693EJ,Poortvliet,Tholen,Zeeland,VBO,4.140535,51.544518
Philips de Goedestraat,16,,,4693EJ,Poortvliet,Tholen,Zeeland,VBO,4.140518,51.544579
Philips de Goedestraat,18,,,4693EJ,Poortvliet,Tholen,Zeeland,VBO,4.140488,51.544653
Philips de Goedestraat,20,,,4693EJ,Poortvliet,Tholen,Zeeland,VBO,4.140474,51.544708
Philips de Goedestraat,22,,,4693EJ,Poortvliet,Tholen,Zeeland,VBO,4.140455,51.544767
Philips de Goedestraat,24,,,4693EJ,Poortvliet,Tholen,Zeeland,VBO,4.140434,51.544819
Jan van der Slikkeplein,1,,,4693EK,Poortvliet,Tholen,Zeeland,VBO,4.140181,51.544371
Jan van der Slikkeplein,3,,,4693EK,Poortvliet,Tholen,Zeeland,VBO,4.140076,51.544355
Jan van der Slikkeplein,5,,,4693EK,Poortvliet,Tholen,Zeeland,VBO,4.139981,51.544342
Jan van der Slikkeplein,7,,,4693EK,Poortvliet,Tholen,Zeeland,VBO,4.139871,51.544327
Jan van der Slikkeplein,9,,,4693EK,Poortvliet,Tholen,Zeeland,VBO,4.139773,51.544315
Jan van der Slikkeplein,17,,,4693EK,Poortvliet,Tholen,Zeeland,VBO,4.139497,51.544582
Jan van der Slikkeplein,19,,,4693EK,Poortvliet,Tholen,Zeeland,VBO,4.139599,51.544612
Jan van der Slikkeplein,21,,,4693EK,Poortvliet,Tholen,Zeeland,VBO,4.139688,51.544640
Jan van der Slikkeplein,23,,,4693EK,Poortvliet,Tholen,Zeeland,VBO,4.139786,51.544668
Jan van der Slikkeplein,25,,,4693EK,Poortvliet,Tholen,Zeeland,VBO,4.139880,51.544695
Jan van der Slikkeplein,27,,,4693EK,Poortvliet,Tholen,Zeeland,VBO,4.139972,51.544719
Jan van der Slikkeplein,29,,,4693EK,Poortvliet,Tholen,Zeeland,VBO,4.140067,51.544745
Burgemeester van Doornstraat,1,,,4693EL,Poortvliet,Tholen,Zeeland,VBO,4.139797,51.543360
Burgemeester van Doornstraat,3,,,4693EL,Poortvliet,Tholen,Zeeland,VBO,4.139687,51.543488
Burgemeester van Doornstraat,5,,,4693EL,Poortvliet,Tholen,Zeeland,VBO,4.139587,51.543597
Burgemeester van Doornstraat,7,,,4693EL,Poortvliet,Tholen,Zeeland,VBO,4.139495,51.543831
Burgemeester van Doornstraat,9,,,4693EL,Poortvliet,Tholen,Zeeland,VBO,4.139462,51.543884
Burgemeester van Doornstraat,11,,,4693EL,Poortvliet,Tholen,Zeeland,VBO,4.139422,51.543937
Burgemeester van Doornstraat,13,,,4693EL,Poortvliet,Tholen,Zeeland,VBO,4.139383,51.543987
Burgemeester van Doornstraat,15,,,4693EL,Poortvliet,Tholen,Zeeland,VBO,4.139348,51.544038
Burgemeester van Doornstraat,17,,,4693EL,Poortvliet,Tholen,Zeeland,VBO,4.139255,51.544110
Burgemeester van Doornstraat,19,,,4693EL,Poortvliet,Tholen,Zeeland,VBO,4.139212,51.544163
Burgemeester van Doornstraat,21,,,4693EL,Poortvliet,Tholen,Zeeland,VBO,4.139174,51.544224
Burgemeester van Doornstraat,23,,,4693EL,Poortvliet,Tholen,Zeeland,VBO,4.139132,51.544275
Burgemeester van Doornstraat,2,,,4693EM,Poortvliet,Tholen,Zeeland,VBO,4.139929,51.543873
Burgemeester van Doornstraat,4,,,4693EM,Poortvliet,Tholen,Zeeland,VBO,4.139908,51.543940
Burgemeester van Doornstraat,6,,,4693EM,Poortvliet,Tholen,Zeeland,VBO,4.139885,51.544004
Burgemeester van Doornstraat,8,,,4693EM,Poortvliet,Tholen,Zeeland,VBO,4.139865,51.544063
Burgemeester van Doornstraat,10,,,4693EM,Poortvliet,Tholen,Zeeland,VBO,4.139840,51.544127
Burgemeester van Doornstraat,12,,,4693EM,Poortvliet,Tholen,Zeeland,VBO,4.139590,51.544173
Burgemeester van Doornstraat,14,,,4693EM,Poortvliet,Tholen,Zeeland,VBO,4.139564,51.544238
Burgemeester van Doornstraat,16,,,4693EM,Poortvliet,Tholen,Zeeland,VBO,4.139542,51.544306
Burgemeester van Doornstraat,18,,,4693EM,Poortvliet,Tholen,Zeeland,VBO,4.139366,51.544555
Burgemeester van Doornstraat,20,,,4693EM,Poortvliet,Tholen,Zeeland,VBO,4.139275,51.544528
Burgemeester van Doornstraat,22,,,4693EM,Poortvliet,Tholen,Zeeland,VBO,4.139181,51.544503
Burgemeester van Doornstraat,24,,,4693EM,Poortvliet,Tholen,Zeeland,VBO,4.139089,51.544475
Burgemeester van Doornstraat,26,,,4693EM,Poortvliet,Tholen,Zeeland,VBO,4.138991,51.544447
Postweg,17,,,4693PA,Poortvliet,Tholen,Zeeland,VBO,4.176719,51.537293
Postweg,21,,,4693PA,Poortvliet,Tholen,Zeeland,VBO,4.174218,51.538332
Postweg,23,,,4693PA,Poortvliet,Tholen,Zeeland,VBO,4.158148,51.541960
Randweg,1,a,,4693PA,Poortvliet,Tholen,Zeeland,VBO,4.114030,51.553678
Randweg,1,,,4693PA,Poortvliet,Tholen,Zeeland,VBO,4.112044,51.552426
Randweg,2,a,,4693PA,Poortvliet,Tholen,Zeeland,VBO,4.115611,51.554834
Randweg,2,,,4693PA,Poortvliet,Tholen,Zeeland,VBO,4.114641,51.554292
Randweg,3,,,4693PA,Poortvliet,Tholen,Zeeland,VBO,4.112627,51.552741
Randweg,4,,,4693PA,Poortvliet,Tholen,Zeeland,VBO,4.115640,51.559295
Randweg,5,,,4693PA,Poortvliet,Tholen,Zeeland,VBO,4.115500,51.555453
Randweg,6,a,,4693PA,Poortvliet,Tholen,Zeeland,VBO,4.115844,51.560497
Randweg,6,,,4693PA,Poortvliet,Tholen,Zeeland,VBO,4.115896,51.560147
Randweg,7,,,4693PA,Poortvliet,Tholen,Zeeland,VBO,4.115656,51.555837
Randweg,8,,,4693PA,Poortvliet,Tholen,Zeeland,VBO,4.114895,51.560880
Randweg,9,,,4693PA,Poortvliet,Tholen,Zeeland,VBO,4.116009,51.556554
Randweg,10,,,4693PA,Poortvliet,Tholen,Zeeland,VBO,4.115256,51.560624
Randweg,13,,,4693PA,Poortvliet,Tholen,Zeeland,VBO,4.115926,51.557179
Korte Zandweg,2,,,4693PB,Poortvliet,Tholen,Zeeland,VBO,4.145764,51.536532
Korte Zandweg,4,,,4693PB,Poortvliet,Tholen,Zeeland,VBO,4.149318,51.538509
Korte Zandweg,6,,,4693PB,Poortvliet,Tholen,Zeeland,VBO,4.147635,51.540829
Lange Zandweg,1,,,4693PB,Poortvliet,Tholen,Zeeland,VBO,4.144286,51.538491
Oude Schoondorpseweg,1,,,4693PC,Poortvliet,Tholen,Zeeland,VBO,4.143170,51.531100
Oude Schoondorpseweg,3,,,4693PC,Poortvliet,Tholen,Zeeland,VBO,4.142650,51.530782
Lange Zandweg,6,,,4693PD,Poortvliet,Tholen,Zeeland,VBO,4.148264,51.529157
Lange Zandweg,8,,,4693PD,Poortvliet,Tholen,Zeeland,VBO,4.149771,51.526923
Lange Zandweg,9,,,4693PD,Poortvliet,Tholen,Zeeland,VBO,4.148546,51.529948
van der Slikkeweg,1,,,4693PE,Poortvliet,Tholen,Zeeland,VBO,4.155799,51.525014
van der Slikkeweg,2,,,4693PE,Poortvliet,Tholen,Zeeland,VBO,4.156522,51.524190
van der Slikkeweg,3,,,4693PE,Poortvliet,Tholen,Zeeland,VBO,4.160542,51.527882
van der Slikkeweg,4,,,4693PE,Poortvliet,Tholen,Zeeland,VBO,4.157838,51.524000
Havenweg,2,a,,4693PG,Poortvliet,Tholen,Zeeland,VBO,4.154263,51.524070
Havenweg,2,,,4693PG,Poortvliet,Tholen,Zeeland,VBO,4.154114,51.523942
Strijensepad,1,,,4693PG,Poortvliet,Tholen,Zeeland,VBO,4.154491,51.523910
Strijensepad,3,,,4693PG,Poortvliet,Tholen,Zeeland,VBO,4.154650,51.523880
Strijensepad,5,,,4693PG,Poortvliet,Tholen,Zeeland,VBO,4.155018,51.523860
Strijensepad,7,,,4693PG,Poortvliet,Tholen,Zeeland,VBO,4.155220,51.523845
Strijensepad,9,,,4693PG,Poortvliet,Tholen,Zeeland,VBO,4.155357,51.523841
Scheldestraat,1,,,4693PH,Poortvliet,Tholen,Zeeland,VBO,4.152846,51.524287
Scheldestraat,3,,,4693PH,Poortvliet,Tholen,Zeeland,VBO,4.152506,51.524418
Scheldestraat,4,,,4693PH,Poortvliet,Tholen,Zeeland,VBO,4.153767,51.524045
Scheldestraat,6,,,4693PH,Poortvliet,Tholen,Zeeland,VBO,4.153571,51.524145
Scheldestraat,8,,,4693PH,Poortvliet,Tholen,Zeeland,VBO,4.153474,51.524186
Scheldestraat,10,,,4693PH,Poortvliet,Tholen,Zeeland,VBO,4.153336,51.524289
Scheldestraat,12,,,4693PH,Poortvliet,Tholen,Zeeland,VBO,4.153166,51.524345
Scheldestraat,14,a,,4693PH,Poortvliet,Tholen,Zeeland,VBO,4.153074,51.524671
Scheldestraat,14,,,4693PH,Poortvliet,Tholen,Zeeland,VBO,4.152844,51.524577
Scheldestraat,16,,,4693PH,Poortvliet,Tholen,Zeeland,VBO,4.152470,51.524625
Scheldestraat,18,,,4693PH,Poortvliet,Tholen,Zeeland,VBO,4.152307,51.524667
Onder de Zeedijk,2,a,,4693PJ,Poortvliet,Tholen,Zeeland,VBO,4.153214,51.523746
Onder de Zeedijk,4,,,4693PJ,Poortvliet,Tholen,Zeeland,VBO,4.153115,51.523774
Onder de Zeedijk,6,,,4693PJ,Poortvliet,Tholen,Zeeland,VBO,4.152965,51.523825
Onder de Zeedijk,8,,,4693PJ,Poortvliet,Tholen,Zeeland,VBO,4.152568,51.524046
Onder de Zeedijk,10,,,4693PJ,Poortvliet,Tholen,Zeeland,VBO,4.152472,51.524089
Schoondorpseweg,1,,,4693PJ,Poortvliet,Tholen,Zeeland,VBO,4.142055,51.531024
Schelphoekseweg,1,,,4693PK,Poortvliet,Tholen,Zeeland,VBO,4.136905,51.525487
Schelphoekseweg,2,,,4693PK,Poortvliet,Tholen,Zeeland,VBO,4.139216,51.523539
Schelphoekseweg,3,,,4693PK,Poortvliet,Tholen,Zeeland,VBO,4.132503,51.527318
Schelphoekseweg,5,a,,4693PK,Poortvliet,Tholen,Zeeland,VBO,4.137572,51.524935
Schoondorpseweg,3,,,4693PL,Poortvliet,Tholen,Zeeland,VBO,4.133590,51.529704
Schoondorpseweg,5,,,4693PL,Poortvliet,Tholen,Zeeland,VBO,4.132407,51.529287
Schoondorpseweg,6,,,4693PL,Poortvliet,Tholen,Zeeland,VBO,4.138329,51.531127
Mallandseweg,1,,,4693PM,Poortvliet,Tholen,Zeeland,VBO,4.095706,51.564144
Nieuweweg,1,,,4693PN,Poortvliet,Tholen,Zeeland,VBO,4.102126,51.562535
Nieuweweg,3,,,4693PN,Poortvliet,Tholen,Zeeland,VBO,4.100607,51.563150
Nieuweweg,4,,,4693PN,Poortvliet,Tholen,Zeeland,VBO,4.103547,51.562130
Nieuweweg,5,,,4693PN,Poortvliet,Tholen,Zeeland,VBO,4.100139,51.563871
Nieuweweg,6,,,4693PN,Poortvliet,Tholen,Zeeland,VBO,4.103511,51.562447
Nieuweweg,7,,,4693PN,Poortvliet,Tholen,Zeeland,VBO,4.099271,51.564875
Nieuweweg,8,,,4693PN,Poortvliet,Tholen,Zeeland,VBO,4.100596,51.564447
Bram Groenewegeweg,6,a,,4693PP,Poortvliet,Tholen,Zeeland,VBO,4.130203,51.568919
Bram Groenewegeweg,6,,,4693PP,Poortvliet,Tholen,Zeeland,VBO,4.132114,51.564442
Bram Groenewegeweg,8,,,4693PP,Poortvliet,Tholen,Zeeland,VBO,4.125846,51.569148
Langeweg,1,,,4693PP,Poortvliet,Tholen,Zeeland,VBO,4.129564,51.562891
Langeweg,3,,,4693PP,Poortvliet,Tholen,Zeeland,VBO,4.137673,51.551974
Langeweg,9,,,4693PP,Poortvliet,Tholen,Zeeland,VBO,4.134756,51.545236
Bram Groenewegeweg,1,,,4693PR,Poortvliet,Tholen,Zeeland,VBO,4.136392,51.558201
Bram Groenewegeweg,2,a,,4693PR,Poortvliet,Tholen,Zeeland,VBO,4.140468,51.559546
Bram Groenewegeweg,2,,,4693PR,Poortvliet,Tholen,Zeeland,VBO,4.137970,51.562848
Bram Groenewegeweg,4,,,4693PR,Poortvliet,Tholen,Zeeland,VBO,4.136351,51.563041
Engelaarsdijk,1,,,4693PS,Poortvliet,Tholen,Zeeland,VBO,4.137024,51.555750
Engelaarsdijk,2,a,,4693PS,Poortvliet,Tholen,Zeeland,VBO,4.138272,51.556919
Engelaarsdijk,2,,,4693PS,Poortvliet,Tholen,Zeeland,VBO,4.138487,51.557021
Engelaarsdijk,3,,,4693PS,Poortvliet,Tholen,Zeeland,VBO,4.129669,51.552703
Engelaarsdijk,4,,,4693PS,Poortvliet,Tholen,Zeeland,VBO,4.130225,51.554343
Engelaarsdijk,5,,,4693PS,Poortvliet,Tholen,Zeeland,VBO,4.128908,51.552730
Zwarteweg,1,,,4693PT,Poortvliet,Tholen,Zeeland,VBO,4.148625,51.560753
Zwarteweg,2,a,,4693PT,Poortvliet,Tholen,Zeeland,VBO,4.148946,51.559805
Zwarteweg,2,,,4693PT,Poortvliet,Tholen,Zeeland,VBO,4.148124,51.559031
Kalfdamseweg,12,,,4693PV,Poortvliet,Tholen,Zeeland,VBO,4.111851,51.570388
Kalfdamseweg,14,,,4693PV,Poortvliet,Tholen,Zeeland,VBO,4.112333,51.574577
Noorddijk,1,,,4693PV,Poortvliet,Tholen,Zeeland,VBO,4.115501,51.578290
Noorddijk,3,,,4693PV,Poortvliet,Tholen,Zeeland,VBO,4.110855,51.577857
Bram Groenewegeweg,10,,,4693PW,Poortvliet,Tholen,Zeeland,VBO,4.122186,51.572941
Bram Groenewegeweg,12,,,4693PW,Poortvliet,Tholen,Zeeland,VBO,4.119532,51.576745
Weihoekweg,1,,,4693PW,Poortvliet,Tholen,Zeeland,VBO,4.130687,51.578224
Weihoekweg,2,,,4693PW,Poortvliet,Tholen,Zeeland,VBO,4.135345,51.579775
Weihoekweg,3,,,4693PW,Poortvliet,Tholen,Zeeland,VBO,4.125979,51.577227
Weihoekweg,4,,,4693PW,Poortvliet,Tholen,Zeeland,VBO,4.134401,51.579992
Weihoekweg,6,,,4693PW,Poortvliet,Tholen,Zeeland,VBO,4.124810,51.577581
Sluisweg,1,,,4693PX,Poortvliet,Tholen,Zeeland,VBO,4.139711,51.581342
Priestermeetpolder,1,,,4693PZ,Poortvliet,Tholen,Zeeland,VBO,4.145049,51.585985
Priestermeetpolder,3,,,4693PZ,Poortvliet,Tholen,Zeeland,VBO,4.144276,51.586614
Priestermeetpolder,6,,,4693PZ,Poortvliet,Tholen,Zeeland,VBO,4.146354,51.587348
Deestraat,57,,,4693RA,Poortvliet,Tholen,Zeeland,VBO,4.140786,51.545117
Deestraat,59,,,4693RA,Poortvliet,Tholen,Zeeland,VBO,4.140698,51.545097
Deestraat,61,,,4693RA,Poortvliet,Tholen,Zeeland,VBO,4.140531,51.545039
Deestraat,63,,,4693RA,Poortvliet,Tholen,Zeeland,VBO,4.140449,51.545026
Deestraat,65,,,4693RA,Poortvliet,Tholen,Zeeland,VBO,4.140355,51.545015
Deestraat,77,,,4693RA,Poortvliet,Tholen,Zeeland,VBO,4.139902,51.544947
Deestraat,79,,,4693RA,Poortvliet,Tholen,Zeeland,VBO,4.139684,51.544887
Deestraat,81,,,4693RA,Poortvliet,Tholen,Zeeland,VBO,4.139460,51.544826
Deestraat,83,,,4693RA,Poortvliet,Tholen,Zeeland,VBO,4.139252,51.544754
Deestraat,85,,,4693RA,Poortvliet,Tholen,Zeeland,VBO,4.138987,51.544678
Deestraat,87,,,4693RA,Poortvliet,Tholen,Zeeland,VBO,4.138361,51.544506
Deestraat,89,,,4693RA,Poortvliet,Tholen,Zeeland,VBO,4.136597,51.544479
Deestraat,91,,,4693RA,Poortvliet,Tholen,Zeeland,VBO,4.135344,51.544486
Stoofstraat,48,,,4693RA,Poortvliet,Tholen,Zeeland,VBO,4.139689,51.542972
Stoofstraat,50,,,4693RA,Poortvliet,Tholen,Zeeland,VBO,4.139086,51.542961
Stoofstraat,52,,,4693RA,Poortvliet,Tholen,Zeeland,VBO,4.138530,51.543115
Stoofstraat,56,,,4693RA,Poortvliet,Tholen,Zeeland,VBO,4.137527,51.543074
Stoofstraat,58,,,4693RA,Poortvliet,Tholen,Zeeland,VBO,4.137421,51.543089
Stoofstraat,60,a,,4693RA,Poortvliet,Tholen,Zeeland,VBO,4.136858,51.543255
Stoofstraat,60,,,4693RA,Poortvliet,Tholen,Zeeland,VBO,4.137151,51.543128
Stoofstraat,62,,,4693RA,Poortvliet,Tholen,Zeeland,VBO,4.136363,51.543652
Tolweg,1,,,4693RA,Poortvliet,Tholen,Zeeland,VBO,4.137813,51.543096
Tolweg,2,,,4693RA,Poortvliet,Tholen,Zeeland,VBO,4.138446,51.543445
Tolweg,4,,,4693RA,Poortvliet,Tholen,Zeeland,VBO,4.137991,51.543982
Tolweg,5,,,4693RA,Poortvliet,Tholen,Zeeland,VBO,4.137625,51.543499
Stoofstraat,11,,,4693RB,Poortvliet,Tholen,Zeeland,VBO,4.139845,51.542597
Stoofstraat,13,,,4693RB,Poortvliet,Tholen,Zeeland,VBO,4.139689,51.542596
Stoofstraat,15,,,4693RB,Poortvliet,Tholen,Zeeland,VBO,4.139479,51.542592
Stoofstraat,17,a,,4693RB,Poortvliet,Tholen,Zeeland,VBO,4.139025,51.542577
Stoofstraat,17,,,4693RB,Poortvliet,Tholen,Zeeland,VBO,4.139269,51.542578
Stoofstraat,19,,,4693RB,Poortvliet,Tholen,Zeeland,VBO,4.138703,51.542586
Stoofstraat,21,,,4693RB,Poortvliet,Tholen,Zeeland,VBO,4.138449,51.542700
Stoofstraat,23,,,4693RB,Poortvliet,Tholen,Zeeland,VBO,4.138323,51.542715
Stoofstraat,25,,,4693RB,Poortvliet,Tholen,Zeeland,VBO,4.138133,51.542736
Stoofstraat,27,,,4693RB,Poortvliet,Tholen,Zeeland,VBO,4.137930,51.542799
Kruytenburgseweg,1,,,4693RC,Poortvliet,Tholen,Zeeland,VBO,4.138111,51.541446
Kruytenburgseweg,3,,,4693RC,Poortvliet,Tholen,Zeeland,VBO,4.137625,51.541268
Kruytenburgseweg,4,,,4693RC,Poortvliet,Tholen,Zeeland,VBO,4.133926,51.538609
Kruytenburgseweg,6,,,4693RC,Poortvliet,Tholen,Zeeland,VBO,4.134445,51.538281
Lageweg,1,,,4693RD,Poortvliet,Tholen,Zeeland,VBO,4.148479,51.542743
Lageweg,3,,,4693RD,Poortvliet,Tholen,Zeeland,VBO,4.149561,51.542768
Paasdijkweg,1,a,,4693RE,Poortvliet,Tholen,Zeeland,VBO,4.149419,51.543190
Paasdijkweg,1,b,,4693RE,Poortvliet,Tholen,Zeeland,VBO,4.149254,51.543546
Paasdijkweg,1,,,4693RE,Poortvliet,Tholen,Zeeland,VBO,4.148505,51.544391
Paasdijkweg,2,,,4693RE,Poortvliet,Tholen,Zeeland,VBO,4.151016,51.543094
Paasdijkweg,3,,,4693RE,Poortvliet,Tholen,Zeeland,VBO,4.148404,51.544494
Paasdijkweg,5,a,,4693RE,Poortvliet,Tholen,Zeeland,VBO,4.148181,51.544697
Paasdijkweg,5,,,4693RE,Poortvliet,Tholen,Zeeland,VBO,4.148291,51.544595
Paasdijkweg,7,,,4693RE,Poortvliet,Tholen,Zeeland,VBO,4.147726,51.544974
Paasdijkweg,9,a,,4693RE,Poortvliet,Tholen,Zeeland,VBO,4.147327,51.545247
Paasdijkweg,9,,,4693RE,Poortvliet,Tholen,Zeeland,VBO,4.147615,51.545138
Paasdijkweg,11,,,4693RE,Poortvliet,Tholen,Zeeland,VBO,4.146901,51.545460
Paasdijkweg,15,,,4693RE,Poortvliet,Tholen,Zeeland,VBO,4.144694,51.547354
Paasdijkweg,16,,,4693RE,Poortvliet,Tholen,Zeeland,VBO,4.146594,51.547125
Paasdijkweg,17,,,4693RE,Poortvliet,Tholen,Zeeland,VBO,4.142524,51.547864
Paasdijkweg,19,a,,4693RE,Poortvliet,Tholen,Zeeland,VBO,4.143930,51.548145
Paasdijkweg,19,,,4693RE,Poortvliet,Tholen,Zeeland,VBO,4.142525,51.548999
Paasdijkweg,21,,,4693RE,Poortvliet,Tholen,Zeeland,VBO,4.144200,51.548074
Paasdijkweg,23,,,4693RE,Poortvliet,Tholen,Zeeland,VBO,4.144641,51.548173
Paasdijkweg,25,,,4693RE,Poortvliet,Tholen,Zeeland,VBO,4.145463,51.548143
Paasdijkweg,27,,,4693RE,Poortvliet,Tholen,Zeeland,VBO,4.145421,51.548526
Paasdijkweg,29,a,,4693RE,Poortvliet,Tholen,Zeeland,VBO,4.145114,51.548921
Paasdijkweg,29,,,4693RE,Poortvliet,Tholen,Zeeland,VBO,4.145244,51.549187
Paasdijkweg,33,,,4693RE,Poortvliet,Tholen,Zeeland,VBO,4.144211,51.550065
Paasdijkweg,35,,,4693RE,Poortvliet,Tholen,Zeeland,VBO,4.145383,51.549631
Paasdijkweg,37,,,4693RE,Poortvliet,Tholen,Zeeland,VBO,4.144310,51.551198
Paasdijkweg,39,,,4693RE,Poortvliet,Tholen,Zeeland,VBO,4.142384,51.550614
Paasdijkweg,40,,,4693RE,Poortvliet,Tholen,Zeeland,VBO,4.141172,51.557331
Schapenweg,1,,,4693RG,Poortvliet,Tholen,Zeeland,VBO,4.146058,51.550106
Schapenweg,3,,,4693RG,Poortvliet,Tholen,Zeeland,VBO,4.147237,51.549915
Schapenweg,5,,,4693RG,Poortvliet,Tholen,Zeeland,VBO,4.148408,51.549711
Schapenweg,7,,,4693RG,Poortvliet,Tholen,Zeeland,VBO,4.149219,51.549618
Schapenweg,9,,,4693RG,Poortvliet,Tholen,Zeeland,VBO,4.150049,51.549481
Schapenweg,11,,,4693RG,Poortvliet,Tholen,Zeeland,VBO,4.150357,51.549412
Schapenweg,13,,,4693RG,Poortvliet,Tholen,Zeeland,VBO,4.155984,51.548337
Kadijk,1,a,,4693RH,Poortvliet,Tholen,Zeeland,VBO,4.158727,51.549177
Kadijk,1,,,4693RH,Poortvliet,Tholen,Zeeland,VBO,4.159411,51.545787
Kadijk,2,,,4693RH,Poortvliet,Tholen,Zeeland,VBO,4.160299,51.544062
Kadijk,3,,,4693RH,Poortvliet,Tholen,Zeeland,VBO,4.159257,51.550497
Kadijk,4,,,4693RH,Poortvliet,Tholen,Zeeland,VBO,4.160308,51.544119
Kadijk,5,,,4693RH,Poortvliet,Tholen,Zeeland,VBO,4.159125,51.551266
Kadijk,7,,,4693RH,Poortvliet,Tholen,Zeeland,VBO,4.159586,51.552267
Kadijk,8,,,4693RH,Poortvliet,Tholen,Zeeland,VBO,4.160299,51.544190
Kadijk,10,,,4693RH,Poortvliet,Tholen,Zeeland,VBO,4.160281,51.544272
Kadijk,12,,,4693RH,Poortvliet,Tholen,Zeeland,VBO,4.160127,51.545266
Kadijk,14,,,4693RH,Poortvliet,Tholen,Zeeland,VBO,4.160079,51.545557
Kadijk,16,,,4693RH,Poortvliet,Tholen,Zeeland,VBO,4.160118,51.547400
Hogeweg,1,,,4693RJ,Poortvliet,Tholen,Zeeland,VBO,4.152782,51.545608
Hogeweg,2,a,,4693RJ,Poortvliet,Tholen,Zeeland,VBO,4.149854,51.543816
Hogeweg,2,,,4693RJ,Poortvliet,Tholen,Zeeland,VBO,4.149795,51.543788
Hogeweg,3,,,4693RJ,Poortvliet,Tholen,Zeeland,VBO,4.153030,51.545754
Hogeweg,4,,,4693RJ,Poortvliet,Tholen,Zeeland,VBO,4.151220,51.544323
Hogeweg,5,,,4693RJ,Poortvliet,Tholen,Zeeland,VBO,4.153125,51.545780
Hogeweg,6,,,4693RJ,Poortvliet,Tholen,Zeeland,VBO,4.153299,51.545536
Hogeweg,7,,,4693RJ,Poortvliet,Tholen,Zeeland,VBO,4.153289,51.545806
Hogeweg,8,,,4693RJ,Poortvliet,Tholen,Zeeland,VBO,4.153389,51.545564
Hogeweg,9,,,4693RJ,Poortvliet,Tholen,Zeeland,VBO,4.153363,51.545825
Hogeweg,10,,,4693RJ,Poortvliet,Tholen,Zeeland,VBO,4.153458,51.545577
Hogeweg,11,,,4693RJ,Poortvliet,Tholen,Zeeland,VBO,4.153487,51.545853
Hogeweg,12,,,4693RJ,Poortvliet,Tholen,Zeeland,VBO,4.153569,51.545622
Hogeweg,13,,,4693RJ,Poortvliet,Tholen,Zeeland,VBO,4.153593,51.545882
Hogeweg,15,a,,4693RJ,Poortvliet,Tholen,Zeeland,VBO,4.155016,51.545761
Hogeweg,15,,,4693RJ,Poortvliet,Tholen,Zeeland,VBO,4.153687,51.545910
Hogeweg,17,,,4693RJ,Poortvliet,Tholen,Zeeland,VBO,4.157809,51.545060
Hogeweg,19,,,4693RJ,Poortvliet,Tholen,Zeeland,VBO,4.160483,51.543775
Hogeweg,23,,,4693RJ,Poortvliet,Tholen,Zeeland,VBO,4.161193,51.543621
Hogeweg,25,,,4693RJ,Poortvliet,Tholen,Zeeland,VBO,4.162099,51.543378
Hogeweg,27,,,4693RJ,Poortvliet,Tholen,Zeeland,VBO,4.163226,51.542935
Hogeweg,29,,,4693RJ,Poortvliet,Tholen,Zeeland,VBO,4.163693,51.542602
Noordhoekseweg,1,,,4693RK,Poortvliet,Tholen,Zeeland,VBO,4.124597,51.547577
Noordhoekseweg,2,,,4693RK,Poortvliet,Tholen,Zeeland,VBO,4.126168,51.547403
Noordhoekseweg,3,,,4693RK,Poortvliet,Tholen,Zeeland,VBO,4.125084,51.547661
Engelaarsdijk,7,,,4693RL,Poortvliet,Tholen,Zeeland,VBO,4.116019,51.547453
Kalfdamseweg,1,,,4693RM,Poortvliet,Tholen,Zeeland,VBO,4.113844,51.561944
Kalfdamseweg,2,a,,4693RM,Poortvliet,Tholen,Zeeland,VBO,4.114795,51.562002
Kalfdamseweg,2,,,4693RM,Poortvliet,Tholen,Zeeland,VBO,4.114785,51.561817
Kalfdamseweg,3,,,4693RM,Poortvliet,Tholen,Zeeland,VBO,4.113582,51.562924
Kalfdamseweg,5,,,4693RM,Poortvliet,Tholen,Zeeland,VBO,4.112674,51.564196
Kalfdamseweg,6,,,4693RM,Poortvliet,Tholen,Zeeland,VBO,4.115065,51.564701
Kalfdamseweg,7,,,4693RM,Poortvliet,Tholen,Zeeland,VBO,4.112252,51.564146
Kalfdamseweg,8,,,4693RM,Poortvliet,Tholen,Zeeland,VBO,4.114517,51.564397
Kalfdamseweg,10,,,4693RM,Poortvliet,Tholen,Zeeland,VBO,4.113879,51.563889
Bitterhoekseweg,2,,,4693RN,Poortvliet,Tholen,Zeeland,VBO,4.125429,51.566896
Bitterhoekseweg,4,,,4693RN,Poortvliet,Tholen,Zeeland,VBO,4.125778,51.565689
Noormansweg,3,,,4693RP,Poortvliet,Tholen,Zeeland,VBO,4.119723,51.553221
Noormansweg,5,,,4693RP,Poortvliet,Tholen,Zeeland,VBO,4.120182,51.552476
Priestermeetweg,5,,,4693RR,Poortvliet,Tholen,Zeeland,VBO,4.133688,51.587392
Priestermeetweg,7,,,4693RR,Poortvliet,Tholen,Zeeland,VBO,4.132565,51.586951
Zanddreef,2,,,4693RS,Poortvliet,Tholen,Zeeland,VBO,4.139741,51.542137
Zanddreef,4,,,4693RS,Poortvliet,Tholen,Zeeland,VBO,4.140262,51.542095
Havenweg,1,,,4693RZ,Poortvliet,Tholen,Zeeland,VBO,4.155500,51.524515
Havenweg,7,,,4693RZ,Poortvliet,Tholen,Zeeland,VBO,4.156068,51.524298
Havenweg,11,,,4693RZ,Poortvliet,Tholen,Zeeland,VBO,4.155722,51.524213
Havenweg,17,,,4693RZ,Poortvliet,Tholen,Zeeland,VBO,4.155090,51.524294
Havenweg,19,,,4693RZ,Poortvliet,Tholen,Zeeland,VBO,4.154917,51.524182
Bartelmeetweg,1,,,4693SB,Poortvliet,Tholen,Zeeland,VBO,4.154608,51.579497
Bartelmeetweg,5,a,,4693SB,Poortvliet,Tholen,Zeeland,VBO,4.153651,51.580717
Bartelmeetweg,5,,,4693SB,Poortvliet,Tholen,Zeeland,VBO,4.152951,51.580678
Essendijkweg,1,,,4693SC,Poortvliet,Tholen,Zeeland,VBO,4.148133,51.572913
Essendijkweg,3,,,4693SC,Poortvliet,Tholen,Zeeland,VBO,4.146863,51.573846
Essendijkweg,5,,,4693SC,Poortvliet,Tholen,Zeeland,VBO,4.144861,51.575787
Pelleweg,1,a,,4693SE,Poortvliet,Tholen,Zeeland,VBO,4.144276,51.568514
Pelleweg,1,,,4693SE,Poortvliet,Tholen,Zeeland,VBO,4.137913,51.567316
Pelleweg,2,,,4693SE,Poortvliet,Tholen,Zeeland,VBO,4.139472,51.567060
Pelleweg,3,,,4693SE,Poortvliet,Tholen,Zeeland,VBO,4.145267,51.568466
Pelleweg,4,,,4693SE,Poortvliet,Tholen,Zeeland,VBO,4.139777,51.567082
Pelleweg,5,,,4693SE,Poortvliet,Tholen,Zeeland,VBO,4.146716,51.567741
Boneputteweg,1,,,4693SG,Poortvliet,Tholen,Zeeland,VBO,4.133877,51.573162
