openbareruimtenaam,huisnummer,huisletter,huisnummertoevoeging,postcode,woonplaatsnaam,gemeentenaam,provincienaam,typeadresseerbaarobject,longitude,latitude
Smoorstraat,1,a,,4705AA,Roosendaal,Roosendaal,Noord-Brabant,VBO,4.473445,51.546844
Smoorstraat,1,,,4705AA,Roosendaal,Roosendaal,Noord-Brabant,VBO,4.473224,51.547175
Smoorstraat,2,,,4705AA,Roosendaal,Roosendaal,Noord-Brabant,VBO,4.472729,51.547294
Smoorstraat,3,a,,4705AA,Roosendaal,Roosendaal,Noord-Brabant,VBO,4.471671,51.546885
Smoorstraat,3,,,4705AA,Roosendaal,Roosendaal,Noord-Brabant,VBO,4.472443,51.546899
Smoorstraat,4,,,4705AA,Roosendaal,Roosendaal,Noord-Brabant,VBO,4.472535,51.547266
Smoorstraat,5,,,4705AA,Roosendaal,Roosendaal,Noord-Brabant,VBO,4.471399,51.546873
Smoorstraat,6,,,4705AA,Roosendaal,Roosendaal,Noord-Brabant,VBO,4.472465,51.547254
Smoorstraat,7,,,4705AA,Roosendaal,Roosendaal,Noord-Brabant,VBO,4.471200,51.546826
Smoorstraat,8,,,4705AA,Roosendaal,Roosendaal,Noord-Brabant,VBO,4.472377,51.547236
Smoorstraat,10,,,4705AA,Roosendaal,Roosendaal,Noord-Brabant,VBO,4.472302,51.547220
Smoorstraat,12,,,4705AA,Roosendaal,Roosendaal,Noord-Brabant,VBO,4.472158,51.547187
Smoorstraat,14,,,4705AA,Roosendaal,Roosendaal,Noord-Brabant,VBO,4.471857,51.547173
Smoorstraat,16,,,4705AA,Roosendaal,Roosendaal,Noord-Brabant,VBO,4.471754,51.547091
Smoorstraat,18,,,4705AA,Roosendaal,Roosendaal,Noord-Brabant,VBO,4.471486,51.547028
Smoorstraat,20,a,,4705AA,Roosendaal,Roosendaal,Noord-Brabant,VBO,4.470747,51.546917
Smoorstraat,20,b,,4705AA,Roosendaal,Roosendaal,Noord-Brabant,VBO,4.471162,51.547287
Smoorstraat,20,c,,4705AA,Roosendaal,Roosendaal,Noord-Brabant,VBO,4.471108,51.547047
Smoorstraat,20,e,,4705AA,Roosendaal,Roosendaal,Noord-Brabant,VBO,4.471074,51.547204
Smoorstraat,20,f,,4705AA,Roosendaal,Roosendaal,Noord-Brabant,VBO,4.470937,51.547107
Smoorstraat,20,g,,4705AA,Roosendaal,Roosendaal,Noord-Brabant,VBO,4.470924,51.547110
Smoorstraat,20,,,4705AA,Roosendaal,Roosendaal,Noord-Brabant,VBO,4.471031,51.547031
Smoorstraat,24,,,4705AA,Roosendaal,Roosendaal,Noord-Brabant,VBO,4.470201,51.546791
Gastelseweg,97,,,4705AB,Roosendaal,Roosendaal,Noord-Brabant,VBO,4.473275,51.547429
Gastelseweg,111,,,4705AB,Roosendaal,Roosendaal,Noord-Brabant,VBO,4.473562,51.547597
Gastelseweg,113,,,4705AB,Roosendaal,Roosendaal,Noord-Brabant,VBO,4.473533,51.547660
Gastelseweg,115,,,4705AB,Roosendaal,Roosendaal,Noord-Brabant,VBO,4.473513,51.547737
Gastelseweg,117,,,4705AB,Roosendaal,Roosendaal,Noord-Brabant,VBO,4.473471,51.547840
Gastelseweg,127,,,4705AB,Roosendaal,Roosendaal,Noord-Brabant,VBO,4.473089,51.548121
Gastelseweg,129,,,4705AB,Roosendaal,Roosendaal,Noord-Brabant,VBO,4.473367,51.548288
Gastelseweg,131,,,4705AB,Roosendaal,Roosendaal,Noord-Brabant,VBO,4.473344,51.548329
Gastelseweg,133,,,4705AB,Roosendaal,Roosendaal,Noord-Brabant,VBO,4.473283,51.548428
Gastelseweg,135,,,4705AB,Roosendaal,Roosendaal,Noord-Brabant,VBO,4.473216,51.548528
Gastelseweg,141,,,4705AB,Roosendaal,Roosendaal,Noord-Brabant,VBO,4.472920,51.548527
Gastelseweg,145,,,4705AB,Roosendaal,Roosendaal,Noord-Brabant,VBO,4.472886,51.548833
Gastelseweg,147,a,,4705AB,Roosendaal,Roosendaal,Noord-Brabant,VBO,4.471409,51.548827
Gastelseweg,147,b,,4705AB,Roosendaal,Roosendaal,Noord-Brabant,VBO,4.471370,51.548967
Gastelseweg,147,,,4705AB,Roosendaal,Roosendaal,Noord-Brabant,VBO,4.472624,51.548985
Gastelseweg,72,,,4705AC,Roosendaal,Roosendaal,Noord-Brabant,VBO,4.474333,51.546828
Gastelseweg,74,,,4705AC,Roosendaal,Roosendaal,Noord-Brabant,VBO,4.474225,51.547005
Gastelseweg,76,,,4705AC,Roosendaal,Roosendaal,Noord-Brabant,VBO,4.475573,51.547259
Gastelseweg,78,,,4705AC,Roosendaal,Roosendaal,Noord-Brabant,VBO,4.474098,51.547227
Gastelseweg,80,,,4705AC,Roosendaal,Roosendaal,Noord-Brabant,VBO,4.474044,51.547328
Gastelseweg,82,a,,4705AC,Roosendaal,Roosendaal,Noord-Brabant,VBO,4.474028,51.547502
Gastelseweg,82,,,4705AC,Roosendaal,Roosendaal,Noord-Brabant,VBO,4.474055,51.547436
Gastelseweg,84,,,4705AC,Roosendaal,Roosendaal,Noord-Brabant,VBO,4.473915,51.547594
Gastelseweg,86,,,4705AC,Roosendaal,Roosendaal,Noord-Brabant,VBO,4.473897,51.547640
Gastelseweg,92,,,4705AC,Roosendaal,Roosendaal,Noord-Brabant,VBO,4.473974,51.547910
Gastelseweg,94,,,4705AC,Roosendaal,Roosendaal,Noord-Brabant,VBO,4.473735,51.548038
Gastelseweg,98,,,4705AC,Roosendaal,Roosendaal,Noord-Brabant,VBO,4.473803,51.548329
Gastelseweg,102,a,,4705AC,Roosendaal,Roosendaal,Noord-Brabant,VBO,4.474397,51.548612
Gastelseweg,104,,,4705AC,Roosendaal,Roosendaal,Noord-Brabant,VBO,4.473488,51.548715
Gastelseweg,106,,,4705AC,Roosendaal,Roosendaal,Noord-Brabant,VBO,4.473426,51.548825
Gastelseweg,108,,,4705AD,Roosendaal,Roosendaal,Noord-Brabant,VBO,4.473392,51.548894
Gastelseweg,110,,,4705AD,Roosendaal,Roosendaal,Noord-Brabant,VBO,4.473344,51.548974
Gastelseweg,114,a,,4705AD,Roosendaal,Roosendaal,Noord-Brabant,VBO,4.473346,51.549367
Gastelseweg,114,,,4705AD,Roosendaal,Roosendaal,Noord-Brabant,VBO,4.473421,51.549172
Gastelseweg,116,,,4705AD,Roosendaal,Roosendaal,Noord-Brabant,VBO,4.473285,51.549612
Gastelseweg,122,,,4705AD,Roosendaal,Roosendaal,Noord-Brabant,VBO,4.473290,51.549809
Gastelseweg,128,,,4705AD,Roosendaal,Roosendaal,Noord-Brabant,VBO,4.473261,51.549938
Gastelseweg,130,,,4705AD,Roosendaal,Roosendaal,Noord-Brabant,VBO,4.473247,51.550003
Gastelseweg,132,,,4705AD,Roosendaal,Roosendaal,Noord-Brabant,VBO,4.473339,51.550091
Gastelseweg,134,,,4705AD,Roosendaal,Roosendaal,Noord-Brabant,VBO,4.473307,51.550155
Gastelseweg,140,,,4705AD,Roosendaal,Roosendaal,Noord-Brabant,VBO,4.473370,51.550347
Schotsbossenstraat,1,a,,4705AE,Roosendaal,Roosendaal,Noord-Brabant,VBO,4.484501,51.544596
Schotsbossenstraat,1,c,,4705AE,Roosendaal,Roosendaal,Noord-Brabant,VBO,4.486118,51.545244
Schotsbossenstraat,1,d,,4705AE,Roosendaal,Roosendaal,Noord-Brabant,VBO,4.485509,51.544854
Schotsbossenstraat,3,,,4705AE,Roosendaal,Roosendaal,Noord-Brabant,VBO,4.486779,51.544231
Schotsbossenstraat,5,,,4705AE,Roosendaal,Roosendaal,Noord-Brabant,VBO,4.487083,51.544198
Schotsbossenstraat,7,a,,4705AE,Roosendaal,Roosendaal,Noord-Brabant,VBO,4.487404,51.544460
Schotsbossenstraat,7,,,4705AE,Roosendaal,Roosendaal,Noord-Brabant,VBO,4.487490,51.544201
Schotsbossenstraat,11,a,,4705AE,Roosendaal,Roosendaal,Noord-Brabant,VBO,4.488282,51.544069
Schotsbossenstraat,11,b,,4705AE,Roosendaal,Roosendaal,Noord-Brabant,VBO,4.488177,51.545229
Schotsbossenstraat,11,,,4705AE,Roosendaal,Roosendaal,Noord-Brabant,VBO,4.488166,51.544339
Schotsbossenstraat,13,,,4705AE,Roosendaal,Roosendaal,Noord-Brabant,VBO,4.488559,51.544039
Schotsbossenstraat,15,,,4705AE,Roosendaal,Roosendaal,Noord-Brabant,VBO,4.489287,51.544007
Schotsbossenstraat,17,,,4705AE,Roosendaal,Roosendaal,Noord-Brabant,VBO,4.490517,51.543876
Schotsbossenstraat,19,,,4705AE,Roosendaal,Roosendaal,Noord-Brabant,VBO,4.491644,51.543752
Schotsbossenstraat,4,,,4705AG,Roosendaal,Roosendaal,Noord-Brabant,VBO,4.486081,51.543917
Schotsbossenstraat,8,,,4705AG,Roosendaal,Roosendaal,Noord-Brabant,VBO,4.486692,51.543828
Schotsbossenstraat,10,a,,4705AG,Roosendaal,Roosendaal,Noord-Brabant,VBO,4.487281,51.543817
Schotsbossenstraat,10,b,,4705AG,Roosendaal,Roosendaal,Noord-Brabant,VBO,4.487439,51.543799
Schotsbossenstraat,10,c,,4705AG,Roosendaal,Roosendaal,Noord-Brabant,VBO,4.487436,51.543604
Schotsbossenstraat,10,d,,4705AG,Roosendaal,Roosendaal,Noord-Brabant,VBO,4.487141,51.543519
Schotsbossenstraat,10,e,,4705AG,Roosendaal,Roosendaal,Noord-Brabant,VBO,4.487167,51.543412
Schotsbossenstraat,10,f,,4705AG,Roosendaal,Roosendaal,Noord-Brabant,VBO,4.487345,51.543317
Schotsbossenstraat,10,,,4705AG,Roosendaal,Roosendaal,Noord-Brabant,VBO,4.487112,51.543835
Schotsbossenstraat,14,,,4705AG,Roosendaal,Roosendaal,Noord-Brabant,VBO,4.487806,51.543753
Schotsbossenstraat,16,,,4705AG,Roosendaal,Roosendaal,Noord-Brabant,VBO,4.488848,51.543639
Schotsbossenstraat,20,,,4705AG,Roosendaal,Roosendaal,Noord-Brabant,VBO,4.490141,51.543501
Jan Frederik Vlekkestraat,195,b,,4705AH,Roosendaal,Roosendaal,Noord-Brabant,VBO,4.491535,51.542371
Jan Frederik Vlekkestraat,195,,,4705AH,Roosendaal,Roosendaal,Noord-Brabant,VBO,4.491535,51.542057
Jan Frederik Vlekkestraat,197,,,4705AH,Roosendaal,Roosendaal,Noord-Brabant,VBO,4.491767,51.543234
Jan Frederik Vlekkestraat,199,,,4705AH,Roosendaal,Roosendaal,Noord-Brabant,VBO,4.491940,51.544169
Jan Frederik Vlekkestraat,201,,,4705AH,Roosendaal,Roosendaal,Noord-Brabant,VBO,4.492035,51.544606
Jan Frederik Vlekkestraat,266,a,,4705AJ,Roosendaal,Roosendaal,Noord-Brabant,VBO,4.492643,51.542758
Jan Frederik Vlekkestraat,266,,,4705AJ,Roosendaal,Roosendaal,Noord-Brabant,VBO,4.492903,51.542797
Jan Frederik Vlekkestraat,268,,,4705AJ,Roosendaal,Roosendaal,Noord-Brabant,VBO,4.493087,51.542892
Jan Frederik Vlekkestraat,270,a,,4705AJ,Roosendaal,Roosendaal,Noord-Brabant,VBO,4.492791,51.543529
Jan Frederik Vlekkestraat,270,,,4705AJ,Roosendaal,Roosendaal,Noord-Brabant,VBO,4.492741,51.543272
Jan Frederik Vlekkestraat,272,,,4705AJ,Roosendaal,Roosendaal,Noord-Brabant,VBO,4.492817,51.543667
Jan Frederik Vlekkestraat,274,,,4705AJ,Roosendaal,Roosendaal,Noord-Brabant,VBO,4.492843,51.543800
Jan Frederik Vlekkestraat,276,,,4705AJ,Roosendaal,Roosendaal,Noord-Brabant,VBO,4.492869,51.543935
Jan Frederik Vlekkestraat,278,,,4705AJ,Roosendaal,Roosendaal,Noord-Brabant,VBO,4.492895,51.544068
Jan Frederik Vlekkestraat,280,,,4705AJ,Roosendaal,Roosendaal,Noord-Brabant,VBO,4.492920,51.544192
Jan Frederik Vlekkestraat,282,,,4705AJ,Roosendaal,Roosendaal,Noord-Brabant,VBO,4.492944,51.544317
Jan Frederik Vlekkestraat,284,,,4705AJ,Roosendaal,Roosendaal,Noord-Brabant,VBO,4.492970,51.544455
Jan Frederik Vlekkestraat,286,,,4705AJ,Roosendaal,Roosendaal,Noord-Brabant,VBO,4.492995,51.544587
Jan Frederik Vlekkestraat,288,,,4705AJ,Roosendaal,Roosendaal,Noord-Brabant,VBO,4.493020,51.544721
Jan Frederik Vlekkestraat,290,,,4705AJ,Roosendaal,Roosendaal,Noord-Brabant,VBO,4.493045,51.544855
Jan Frederik Vlekkestraat,292,,,4705AJ,Roosendaal,Roosendaal,Noord-Brabant,VBO,4.493070,51.544989
Akkermansstraat,4,,,4705AK,Roosendaal,Roosendaal,Noord-Brabant,VBO,4.484586,51.552456
De Nieuwenberg,15,a,,4705AL,Roosendaal,Roosendaal,Noord-Brabant,VBO,4.486466,51.558399
De Nieuwenberg,15,,,4705AL,Roosendaal,Roosendaal,Noord-Brabant,VBO,4.486201,51.558455
Vogelenzangstraat,5,a,,4705AM,Roosendaal,Roosendaal,Noord-Brabant,VBO,4.483706,51.550001
Vogelenzangstraat,5,,,4705AM,Roosendaal,Roosendaal,Noord-Brabant,VBO,4.484158,51.550036
Vogelenzangstraat,6,,,4705AM,Roosendaal,Roosendaal,Noord-Brabant,VBO,4.483800,51.550253
Vogelenzangstraat,7,,,4705AM,Roosendaal,Roosendaal,Noord-Brabant,VBO,4.483087,51.550108
Spiekestraat,25,,,4705AN,Roosendaal,Roosendaal,Noord-Brabant,VBO,4.496693,51.551026
Spiekestraat,26,,,4705AN,Roosendaal,Roosendaal,Noord-Brabant,VBO,4.495648,51.551492
Puitenbroekstraat,2,,,4705AP,Roosendaal,Roosendaal,Noord-Brabant,VBO,4.482997,51.549433
Gastelseweg,161,,,4705RA,Roosendaal,Roosendaal,Noord-Brabant,VBO,4.472562,51.550158
Gastelseweg,167,,,4705RA,Roosendaal,Roosendaal,Noord-Brabant,VBO,4.473040,51.551436
Gastelseweg,169,,,4705RA,Roosendaal,Roosendaal,Noord-Brabant,VBO,4.473198,51.551684
Gastelseweg,171,,,4705RA,Roosendaal,Roosendaal,Noord-Brabant,VBO,4.473108,51.551814
Gastelseweg,175,,,4705RA,Roosendaal,Roosendaal,Noord-Brabant,VBO,4.473321,51.552016
Lepelstraat,2,,,4705RA,Roosendaal,Roosendaal,Noord-Brabant,VBO,4.472420,51.549615
Gastelseweg,142,a,,4705RB,Roosendaal,Roosendaal,Noord-Brabant,VBO,4.473487,51.550600
Gastelseweg,142,b,,4705RB,Roosendaal,Roosendaal,Noord-Brabant,VBO,4.473521,51.550647
Gastelseweg,142,c,,4705RB,Roosendaal,Roosendaal,Noord-Brabant,VBO,4.473520,51.550647
Gastelseweg,142,d,,4705RB,Roosendaal,Roosendaal,Noord-Brabant,VBO,4.473542,51.550705
Gastelseweg,142,e,,4705RB,Roosendaal,Roosendaal,Noord-Brabant,VBO,4.473542,51.550705
Gastelseweg,142,f,,4705RB,Roosendaal,Roosendaal,Noord-Brabant,VBO,4.473568,51.550780
Gastelseweg,142,g,,4705RB,Roosendaal,Roosendaal,Noord-Brabant,VBO,4.473568,51.550781
Gastelseweg,142,,,4705RB,Roosendaal,Roosendaal,Noord-Brabant,VBO,4.473485,51.550599
Gastelseweg,144,a,,4705RB,Roosendaal,Roosendaal,Noord-Brabant,VBO,4.473590,51.550845
Gastelseweg,144,b,,4705RB,Roosendaal,Roosendaal,Noord-Brabant,VBO,4.473597,51.550891
Gastelseweg,144,c,,4705RB,Roosendaal,Roosendaal,Noord-Brabant,VBO,4.473597,51.550892
Gastelseweg,144,d,,4705RB,Roosendaal,Roosendaal,Noord-Brabant,VBO,4.473617,51.550951
Gastelseweg,144,e,,4705RB,Roosendaal,Roosendaal,Noord-Brabant,VBO,4.473617,51.550951
Gastelseweg,144,f,,4705RB,Roosendaal,Roosendaal,Noord-Brabant,VBO,4.473601,51.551016
Gastelseweg,144,g,,4705RB,Roosendaal,Roosendaal,Noord-Brabant,VBO,4.473601,51.551017
Gastelseweg,144,,,4705RB,Roosendaal,Roosendaal,Noord-Brabant,VBO,4.473589,51.550846
Gastelseweg,152,a,,4705RB,Roosendaal,Roosendaal,Noord-Brabant,VBO,4.473603,51.551250
Gastelseweg,152,b,,4705RB,Roosendaal,Roosendaal,Noord-Brabant,VBO,4.474271,51.551404
Gastelseweg,152,,,4705RB,Roosendaal,Roosendaal,Noord-Brabant,VBO,4.474230,51.551251
Gastelseweg,154,,,4705RB,Roosendaal,Roosendaal,Noord-Brabant,VBO,4.473838,51.551567
Gastelseweg,160,,,4705RB,Roosendaal,Roosendaal,Noord-Brabant,VBO,4.473865,51.552059
Gastelseweg,164,,,4705RB,Roosendaal,Roosendaal,Noord-Brabant,VBO,4.473689,51.552222
Gastelseweg,166,a,,4705RB,Roosendaal,Roosendaal,Noord-Brabant,VBO,4.473859,51.552481
Gastelseweg,166,,,4705RB,Roosendaal,Roosendaal,Noord-Brabant,VBO,4.473696,51.552267
Gastelseweg,170,,,4705RB,Roosendaal,Roosendaal,Noord-Brabant,VBO,4.475077,51.553297
Gastelseweg,172,,,4705RB,Roosendaal,Roosendaal,Noord-Brabant,VBO,4.474374,51.552786
Gastelseweg,174,,,4705RB,Roosendaal,Roosendaal,Noord-Brabant,VBO,4.474330,51.552845
Buijenstraat,5,a,,4705RC,Roosendaal,Roosendaal,Noord-Brabant,VBO,4.474459,51.550848
Buijenstraat,5,,,4705RC,Roosendaal,Roosendaal,Noord-Brabant,VBO,4.474380,51.550832
Buijenstraat,7,,,4705RC,Roosendaal,Roosendaal,Noord-Brabant,VBO,4.474637,51.550879
Buijenstraat,9,,,4705RC,Roosendaal,Roosendaal,Noord-Brabant,VBO,4.474873,51.550925
Buijenstraat,11,,,4705RC,Roosendaal,Roosendaal,Noord-Brabant,VBO,4.475002,51.550954
Buijenstraat,13,,,4705RC,Roosendaal,Roosendaal,Noord-Brabant,VBO,4.475103,51.550975
Buijenstraat,15,a,,4705RC,Roosendaal,Roosendaal,Noord-Brabant,VBO,4.475467,51.551110
Buijenstraat,15,,,4705RC,Roosendaal,Roosendaal,Noord-Brabant,VBO,4.475327,51.551076
Buijenstraat,17,,,4705RC,Roosendaal,Roosendaal,Noord-Brabant,VBO,4.475734,51.551173
Buijenstraat,19,a,,4705RC,Roosendaal,Roosendaal,Noord-Brabant,VBO,4.476257,51.551298
Buijenstraat,19,,,4705RC,Roosendaal,Roosendaal,Noord-Brabant,VBO,4.476115,51.551264
Buijenstraat,21,a,,4705RC,Roosendaal,Roosendaal,Noord-Brabant,VBO,4.476698,51.551401
Buijenstraat,21,b,,4705RC,Roosendaal,Roosendaal,Noord-Brabant,VBO,4.476387,51.551556
Buijenstraat,21,,,4705RC,Roosendaal,Roosendaal,Noord-Brabant,VBO,4.476565,51.551370
Buijenstraat,23,a,,4705RC,Roosendaal,Roosendaal,Noord-Brabant,VBO,4.477080,51.551491
Buijenstraat,23,,,4705RC,Roosendaal,Roosendaal,Noord-Brabant,VBO,4.476934,51.551456
Buijenstraat,25,,,4705RC,Roosendaal,Roosendaal,Noord-Brabant,VBO,4.477304,51.551542
Buijenstraat,27,,,4705RC,Roosendaal,Roosendaal,Noord-Brabant,VBO,4.477706,51.551637
Buijenstraat,29,,,4705RC,Roosendaal,Roosendaal,Noord-Brabant,VBO,4.478421,51.551960
Buijenstraat,2,a,,4705RD,Roosendaal,Roosendaal,Noord-Brabant,VBO,4.473759,51.550423
Buijenstraat,2,c,,4705RD,Roosendaal,Roosendaal,Noord-Brabant,VBO,4.474325,51.550528
Buijenstraat,2,,,4705RD,Roosendaal,Roosendaal,Noord-Brabant,VBO,4.474763,51.550625
Buijenstraat,4,,,4705RD,Roosendaal,Roosendaal,Noord-Brabant,VBO,4.475004,51.550712
Buijenstraat,6,,,4705RD,Roosendaal,Roosendaal,Noord-Brabant,VBO,4.475290,51.550685
Buijenstraat,8,,,4705RD,Roosendaal,Roosendaal,Noord-Brabant,VBO,4.475698,51.550781
Buijenstraat,10,a,,4705RD,Roosendaal,Roosendaal,Noord-Brabant,VBO,4.476388,51.550320
Buijenstraat,10,,,4705RD,Roosendaal,Roosendaal,Noord-Brabant,VBO,4.476096,51.550874
Buijenstraat,12,,,4705RD,Roosendaal,Roosendaal,Noord-Brabant,VBO,4.478167,51.550405
Buijenstraat,14,,,4705RD,Roosendaal,Roosendaal,Noord-Brabant,VBO,4.478657,51.550528
Buijenstraat,16,,,4705RD,Roosendaal,Roosendaal,Noord-Brabant,VBO,4.478967,51.550611
Lagestraat,2,b,,4705RE,Roosendaal,Roosendaal,Noord-Brabant,VBO,4.477829,51.553885
Lagestraat,2,,,4705RE,Roosendaal,Roosendaal,Noord-Brabant,VBO,4.479028,51.553502
Lagestraat,4,,,4705RE,Roosendaal,Roosendaal,Noord-Brabant,VBO,4.477409,51.553972
Lagestraat,6,a,,4705RE,Roosendaal,Roosendaal,Noord-Brabant,VBO,4.476735,51.554008
Lagestraat,6,,,4705RE,Roosendaal,Roosendaal,Noord-Brabant,VBO,4.476848,51.553988
Lagestraat,8,a,,4705RE,Roosendaal,Roosendaal,Noord-Brabant,VBO,4.475083,51.554368
Lagestraat,8,,,4705RE,Roosendaal,Roosendaal,Noord-Brabant,VBO,4.476610,51.554020
Lagestraat,9,,,4705RE,Roosendaal,Roosendaal,Noord-Brabant,VBO,4.477535,51.553598
Lagestraat,11,,,4705RE,Roosendaal,Roosendaal,Noord-Brabant,VBO,4.477082,51.553676
Lagestraat,21,,,4705RE,Roosendaal,Roosendaal,Noord-Brabant,VBO,4.475647,51.553340
Meirestraat,1,,,4705RG,Roosendaal,Roosendaal,Noord-Brabant,VBO,4.478923,51.547589
Meirestraat,3,,,4705RG,Roosendaal,Roosendaal,Noord-Brabant,VBO,4.478938,51.547960
Meirestraat,5,a,,4705RG,Roosendaal,Roosendaal,Noord-Brabant,VBO,4.476842,51.548517
Meirestraat,15,,,4705RG,Roosendaal,Roosendaal,Noord-Brabant,VBO,4.480352,51.554014
Meirestraat,17,,,4705RG,Roosendaal,Roosendaal,Noord-Brabant,VBO,4.480421,51.554105
Meirestraat,19,,,4705RG,Roosendaal,Roosendaal,Noord-Brabant,VBO,4.480490,51.554195
Meirestraat,23,,,4705RG,Roosendaal,Roosendaal,Noord-Brabant,VBO,4.480626,51.554374
Meirestraat,25,,,4705RG,Roosendaal,Roosendaal,Noord-Brabant,VBO,4.480731,51.554501
Meirestraat,27,,,4705RG,Roosendaal,Roosendaal,Noord-Brabant,VBO,4.480859,51.554672
Meirestraat,29,,,4705RG,Roosendaal,Roosendaal,Noord-Brabant,VBO,4.480979,51.554830
Meirestraat,31,,,4705RG,Roosendaal,Roosendaal,Noord-Brabant,VBO,4.481100,51.554989
Meirestraat,33,,,4705RG,Roosendaal,Roosendaal,Noord-Brabant,VBO,4.481220,51.555145
Meirestraat,35,,,4705RG,Roosendaal,Roosendaal,Noord-Brabant,VBO,4.481257,51.555291
Meirestraat,37,,,4705RG,Roosendaal,Roosendaal,Noord-Brabant,VBO,4.481553,51.555642
Meirestraat,39,,,4705RG,Roosendaal,Roosendaal,Noord-Brabant,VBO,4.481682,51.555813
Meirestraat,43,,,4705RG,Roosendaal,Roosendaal,Noord-Brabant,VBO,4.482556,51.557137
Meirestraat,66,,,4705RG,Roosendaal,Roosendaal,Noord-Brabant,VBO,4.479668,51.548079
Meirestraat,68,,,4705RG,Roosendaal,Roosendaal,Noord-Brabant,VBO,4.483931,51.558225
Meirestraat,70,,,4705RG,Roosendaal,Roosendaal,Noord-Brabant,VBO,4.486432,51.558758
Leemstraat,4,a,,4705RH,Roosendaal,Roosendaal,Noord-Brabant,VBO,4.487289,51.545651
Leemstraat,4,b,,4705RH,Roosendaal,Roosendaal,Noord-Brabant,VBO,4.487204,51.545663
Leemstraat,4,c,,4705RH,Roosendaal,Roosendaal,Noord-Brabant,VBO,4.486795,51.545714
Leemstraat,4,d,,4705RH,Roosendaal,Roosendaal,Noord-Brabant,VBO,4.485979,51.545511
Leemstraat,4,e,,4705RH,Roosendaal,Roosendaal,Noord-Brabant,VBO,4.486934,51.545695
Leemstraat,4,f,,4705RH,Roosendaal,Roosendaal,Noord-Brabant,VBO,4.487066,51.545677
Leemstraat,4,g,,4705RH,Roosendaal,Roosendaal,Noord-Brabant,VBO,4.486795,51.545714
Leemstraat,4,,,4705RH,Roosendaal,Roosendaal,Noord-Brabant,VBO,4.486552,51.545780
Leemstraat,6,,,4705RH,Roosendaal,Roosendaal,Noord-Brabant,VBO,4.487754,51.545591
Leemstraat,8,,,4705RH,Roosendaal,Roosendaal,Noord-Brabant,VBO,4.488245,51.545523
Leemstraat,10,a,,4705RH,Roosendaal,Roosendaal,Noord-Brabant,VBO,4.488552,51.545241
Leemstraat,10,c,,4705RH,Roosendaal,Roosendaal,Noord-Brabant,VBO,4.489355,51.545454
Leemstraat,10,d,,4705RH,Roosendaal,Roosendaal,Noord-Brabant,VBO,4.489158,51.545191
Leemstraat,10,,,4705RH,Roosendaal,Roosendaal,Noord-Brabant,VBO,4.488640,51.545520
Leemstraat,12,a,,4705RH,Roosendaal,Roosendaal,Noord-Brabant,VBO,4.489644,51.545393
Leemstraat,12,,,4705RH,Roosendaal,Roosendaal,Noord-Brabant,VBO,4.489652,51.545399
Leemstraat,14,,,4705RH,Roosendaal,Roosendaal,Noord-Brabant,VBO,4.490179,51.544889
Leemstraat,30,,,4705RH,Roosendaal,Roosendaal,Noord-Brabant,VBO,4.496436,51.544724
Leemstraat,32,,,4705RH,Roosendaal,Roosendaal,Noord-Brabant,VBO,4.497574,51.544659
Leemstraat,34,,,4705RH,Roosendaal,Roosendaal,Noord-Brabant,VBO,4.497795,51.544648
Leemstraat,36,,,4705RH,Roosendaal,Roosendaal,Noord-Brabant,VBO,4.498016,51.544637
Leemstraat,38,,,4705RH,Roosendaal,Roosendaal,Noord-Brabant,VBO,4.498237,51.544626
Leemstraat,44,,,4705RH,Roosendaal,Roosendaal,Noord-Brabant,VBO,4.500995,51.544366
Leemstraat,46,,,4705RH,Roosendaal,Roosendaal,Noord-Brabant,VBO,4.502037,51.544196
Schuurakker,5,,,4705RJ,Roosendaal,Roosendaal,Noord-Brabant,VBO,4.493371,51.543497
Schuurakker,9,,,4705RJ,Roosendaal,Roosendaal,Noord-Brabant,VBO,4.493419,51.543742
Schuurakker,11,,,4705RJ,Roosendaal,Roosendaal,Noord-Brabant,VBO,4.493454,51.543921
Schuurakker,15,,,4705RJ,Roosendaal,Roosendaal,Noord-Brabant,VBO,4.493518,51.544281
Schuurakker,17,,,4705RJ,Roosendaal,Roosendaal,Noord-Brabant,VBO,4.493543,51.544421
Schuurakker,19,,,4705RJ,Roosendaal,Roosendaal,Noord-Brabant,VBO,4.493569,51.544555
Schuurakker,21,,,4705RJ,Roosendaal,Roosendaal,Noord-Brabant,VBO,4.493597,51.544682
Schuurakker,23,,,4705RJ,Roosendaal,Roosendaal,Noord-Brabant,VBO,4.493624,51.544824
Schuurakker,25,,,4705RJ,Roosendaal,Roosendaal,Noord-Brabant,VBO,4.493652,51.544958
Schuurakker,2,,,4705RK,Roosendaal,Roosendaal,Noord-Brabant,VBO,4.493681,51.542683
Schuurakker,4,,,4705RK,Roosendaal,Roosendaal,Noord-Brabant,VBO,4.493706,51.542816
Schuurakker,6,,,4705RK,Roosendaal,Roosendaal,Noord-Brabant,VBO,4.493732,51.542952
Schuurakker,8,a,,4705RK,Roosendaal,Roosendaal,Noord-Brabant,VBO,4.493907,51.543126
Schuurakker,8,b,,4705RK,Roosendaal,Roosendaal,Noord-Brabant,VBO,4.493976,51.543121
Schuurakker,8,c,,4705RK,Roosendaal,Roosendaal,Noord-Brabant,VBO,4.494050,51.543114
Schuurakker,8,d,,4705RK,Roosendaal,Roosendaal,Noord-Brabant,VBO,4.494120,51.543109
Schuurakker,8,e,,4705RK,Roosendaal,Roosendaal,Noord-Brabant,VBO,4.494192,51.543103
Schuurakker,8,,,4705RK,Roosendaal,Roosendaal,Noord-Brabant,VBO,4.493758,51.543087
Schuurakker,10,,,4705RK,Roosendaal,Roosendaal,Noord-Brabant,VBO,4.493841,51.543397
Schuurakker,14,,,4705RK,Roosendaal,Roosendaal,Noord-Brabant,VBO,4.493899,51.543689
Schuurakker,16,,,4705RK,Roosendaal,Roosendaal,Noord-Brabant,VBO,4.493930,51.543826
Schuurakker,18,,,4705RK,Roosendaal,Roosendaal,Noord-Brabant,VBO,4.493950,51.543911
Schuurakker,20,,,4705RK,Roosendaal,Roosendaal,Noord-Brabant,VBO,4.493962,51.543996
Schuurakker,22,,,4705RK,Roosendaal,Roosendaal,Noord-Brabant,VBO,4.493996,51.544303
Schuurakker,24,b,,4705RK,Roosendaal,Roosendaal,Noord-Brabant,VBO,4.494052,51.544583
Schuurakker,24,,,4705RK,Roosendaal,Roosendaal,Noord-Brabant,VBO,4.494006,51.544381
Schuurakker,26,,,4705RK,Roosendaal,Roosendaal,Noord-Brabant,VBO,4.494101,51.544846
Boerkensleen,1,,,4705RL,Roosendaal,Roosendaal,Noord-Brabant,VBO,4.490399,51.546188
Boerkensleen,2,,,4705RL,Roosendaal,Roosendaal,Noord-Brabant,VBO,4.491302,51.546935
Boerkensleen,3,,,4705RL,Roosendaal,Roosendaal,Noord-Brabant,VBO,4.490987,51.546334
Boerkensleen,5,,,4705RL,Roosendaal,Roosendaal,Noord-Brabant,VBO,4.490904,51.546623
Boerkensleen,6,,,4705RL,Roosendaal,Roosendaal,Noord-Brabant,VBO,4.491093,51.547423
Boerkensleen,7,,,4705RL,Roosendaal,Roosendaal,Noord-Brabant,VBO,4.490614,51.546934
Boerkensleen,8,a,,4705RL,Roosendaal,Roosendaal,Noord-Brabant,VBO,4.491389,51.547685
Boerkensleen,8,,,4705RL,Roosendaal,Roosendaal,Noord-Brabant,VBO,4.491215,51.547699
Boerkensleen,10,a,,4705RL,Roosendaal,Roosendaal,Noord-Brabant,VBO,4.491707,51.547514
Boerkensleen,10,b,,4705RL,Roosendaal,Roosendaal,Noord-Brabant,VBO,4.491868,51.547502
Boerkensleen,10,,,4705RL,Roosendaal,Roosendaal,Noord-Brabant,VBO,4.491863,51.547654
Boerkensleen,12,,,4705RL,Roosendaal,Roosendaal,Noord-Brabant,VBO,4.492158,51.547631
Boerkensleen,14,,,4705RL,Roosendaal,Roosendaal,Noord-Brabant,VBO,4.492588,51.547280
Boerkensleen,16,a,,4705RL,Roosendaal,Roosendaal,Noord-Brabant,VBO,4.492553,51.547100
Boerkensleen,16,,,4705RL,Roosendaal,Roosendaal,Noord-Brabant,VBO,4.492512,51.546876
Boerkensleen,17,a,,4705RL,Roosendaal,Roosendaal,Noord-Brabant,VBO,4.493340,51.547399
Boerkensleen,17,,,4705RL,Roosendaal,Roosendaal,Noord-Brabant,VBO,4.493189,51.547299
Boerkensleen,18,,,4705RL,Roosendaal,Roosendaal,Noord-Brabant,VBO,4.491873,51.547083
Boerkensleen,19,,,4705RL,Roosendaal,Roosendaal,Noord-Brabant,VBO,4.493636,51.547266
Boerkensleen,21,,,4705RL,Roosendaal,Roosendaal,Noord-Brabant,VBO,4.494072,51.547235
Boerkensleen,23,a,,4705RL,Roosendaal,Roosendaal,Noord-Brabant,VBO,4.495131,51.547085
Boerkensleen,23,b,,4705RL,Roosendaal,Roosendaal,Noord-Brabant,VBO,4.494960,51.546727
Boerkensleen,23,,,4705RL,Roosendaal,Roosendaal,Noord-Brabant,VBO,4.494593,51.547411
Boerkensleen,25,,,4705RL,Roosendaal,Roosendaal,Noord-Brabant,VBO,4.494532,51.546761
Boerkensleen,27,,,4705RL,Roosendaal,Roosendaal,Noord-Brabant,VBO,4.494305,51.546872
Boerkensleen,29,,,4705RL,Roosendaal,Roosendaal,Noord-Brabant,VBO,4.493865,51.546905
Boerkensleen,31,,,4705RL,Roosendaal,Roosendaal,Noord-Brabant,VBO,4.493485,51.546933
Boerkensleen,33,,,4705RL,Roosendaal,Roosendaal,Noord-Brabant,VBO,4.493156,51.546916
Boerkensleen,35,a,,4705RL,Roosendaal,Roosendaal,Noord-Brabant,VBO,4.492341,51.546420
Boerkensleen,35,,,4705RL,Roosendaal,Roosendaal,Noord-Brabant,VBO,4.492296,51.546103
Boerkensleen,37,,,4705RL,Roosendaal,Roosendaal,Noord-Brabant,VBO,4.492092,51.546445
Boerkensleen,39,a,,4705RL,Roosendaal,Roosendaal,Noord-Brabant,VBO,4.491497,51.546153
Boerkensleen,39,,,4705RL,Roosendaal,Roosendaal,Noord-Brabant,VBO,4.491727,51.546477
Lage Zegge,6,,,4705RM,Roosendaal,Roosendaal,Noord-Brabant,VBO,4.493776,51.542408
Lage Zegge,8,,,4705RM,Roosendaal,Roosendaal,Noord-Brabant,VBO,4.494041,51.542354
Lage Zegge,9,,,4705RM,Roosendaal,Roosendaal,Noord-Brabant,VBO,4.493808,51.542631
Lage Zegge,11,,,4705RM,Roosendaal,Roosendaal,Noord-Brabant,VBO,4.493880,51.542624
Lage Zegge,13,,,4705RM,Roosendaal,Roosendaal,Noord-Brabant,VBO,4.493951,51.542617
Lage Zegge,15,,,4705RM,Roosendaal,Roosendaal,Noord-Brabant,VBO,4.494024,51.542612
Lage Zegge,17,,,4705RM,Roosendaal,Roosendaal,Noord-Brabant,VBO,4.494093,51.542605
Bredaseweg,203,,,4705RN,Roosendaal,Roosendaal,Noord-Brabant,VBO,4.486813,51.539923
Bredaseweg,221,,,4705RN,Roosendaal,Roosendaal,Noord-Brabant,VBO,4.492504,51.541802
Bredaseweg,223,,,4705RN,Roosendaal,Roosendaal,Noord-Brabant,VBO,4.493018,51.541395
Bredaseweg,225,,,4705RN,Roosendaal,Roosendaal,Noord-Brabant,VBO,4.494727,51.542109
Bredaseweg,227,,,4705RN,Roosendaal,Roosendaal,Noord-Brabant,VBO,4.495290,51.541857
Bredaseweg,231,,,4705RN,Roosendaal,Roosendaal,Noord-Brabant,VBO,4.496444,51.542105
Bredaseweg,237,a,,4705RN,Roosendaal,Roosendaal,Noord-Brabant,VBO,4.497323,51.542668
Bredaseweg,237,,,4705RN,Roosendaal,Roosendaal,Noord-Brabant,VBO,4.497452,51.542436
Bredaseweg,241,,,4705RN,Roosendaal,Roosendaal,Noord-Brabant,VBO,4.498437,51.542554
Bredaseweg,243,,,4705RN,Roosendaal,Roosendaal,Noord-Brabant,VBO,4.499383,51.542729
Bredaseweg,249,,,4705RN,Roosendaal,Roosendaal,Noord-Brabant,VBO,4.500805,51.543050
Bredaseweg,255,,,4705RN,Roosendaal,Roosendaal,Noord-Brabant,VBO,4.501439,51.543519
Zeggeveld,1,,,4705RP,Roosendaal,Roosendaal,Noord-Brabant,VBO,4.494248,51.542638
Zeggeveld,3,,,4705RP,Roosendaal,Roosendaal,Noord-Brabant,VBO,4.494270,51.542774
Zeggeveld,5,,,4705RP,Roosendaal,Roosendaal,Noord-Brabant,VBO,4.494283,51.542911
Zeggeveld,7,,,4705RP,Roosendaal,Roosendaal,Noord-Brabant,VBO,4.494304,51.543049
Zeggeveld,9,b,,4705RP,Roosendaal,Roosendaal,Noord-Brabant,VBO,4.494438,51.543779
Zeggeveld,9,,,4705RP,Roosendaal,Roosendaal,Noord-Brabant,VBO,4.494386,51.543498
Zeggeveld,10,,,4705RP,Roosendaal,Roosendaal,Noord-Brabant,VBO,4.495298,51.544487
Zeggeveld,11,a,,4705RP,Roosendaal,Roosendaal,Noord-Brabant,VBO,4.494288,51.544138
Zeggeveld,11,b,,4705RP,Roosendaal,Roosendaal,Noord-Brabant,VBO,4.494547,51.544251
Zeggeveld,11,,,4705RP,Roosendaal,Roosendaal,Noord-Brabant,VBO,4.494472,51.543919
Zeggeveld,13,,,4705RP,Roosendaal,Roosendaal,Noord-Brabant,VBO,4.494570,51.544330
Zeggeveld,15,,,4705RP,Roosendaal,Roosendaal,Noord-Brabant,VBO,4.494609,51.544539
Zeggeveld,17,,,4705RP,Roosendaal,Roosendaal,Noord-Brabant,VBO,4.494684,51.544827
Venneveld,1,,,4705RR,Roosendaal,Roosendaal,Noord-Brabant,VBO,4.495122,51.543268
Venneveld,2,,,4705RR,Roosendaal,Roosendaal,Noord-Brabant,VBO,4.494936,51.542847
Venneveld,3,,,4705RR,Roosendaal,Roosendaal,Noord-Brabant,VBO,4.496671,51.543170
Venneveld,9,,,4705RR,Roosendaal,Roosendaal,Noord-Brabant,VBO,4.496848,51.544078
Venneveld,16,,,4705RR,Roosendaal,Roosendaal,Noord-Brabant,VBO,4.495910,51.542774
Venneveld,20,,,4705RR,Roosendaal,Roosendaal,Noord-Brabant,VBO,4.496741,51.542709
Venneveld,34,,,4705RR,Roosendaal,Roosendaal,Noord-Brabant,VBO,4.497202,51.543068
Venneveld,38,,,4705RR,Roosendaal,Roosendaal,Noord-Brabant,VBO,4.497261,51.543369
Venneveld,44,,,4705RR,Roosendaal,Roosendaal,Noord-Brabant,VBO,4.497331,51.543712
Venneveld,46,,,4705RR,Roosendaal,Roosendaal,Noord-Brabant,VBO,4.497388,51.544011
Venneveld,48,,,4705RR,Roosendaal,Roosendaal,Noord-Brabant,VBO,4.497536,51.544398
Venneveld,50,,,4705RR,Roosendaal,Roosendaal,Noord-Brabant,VBO,4.497787,51.544379
Venneveld,52,,,4705RR,Roosendaal,Roosendaal,Noord-Brabant,VBO,4.498038,51.544360
Venneveld,54,,,4705RR,Roosendaal,Roosendaal,Noord-Brabant,VBO,4.498288,51.544341
Keulsveld,1,,,4705RS,Roosendaal,Roosendaal,Noord-Brabant,VBO,4.499664,51.543699
Keulsveld,2,,,4705RS,Roosendaal,Roosendaal,Noord-Brabant,VBO,4.500187,51.543054
Keulsveld,6,,,4705RS,Roosendaal,Roosendaal,Noord-Brabant,VBO,4.500304,51.544044
Keulsveld,15,,,4705RS,Roosendaal,Roosendaal,Noord-Brabant,VBO,4.499773,51.544160
Leemstraat,1,a,,4705RT,Roosendaal,Roosendaal,Noord-Brabant,VBO,4.487662,51.546031
Leemstraat,1,b,,4705RT,Roosendaal,Roosendaal,Noord-Brabant,VBO,4.487475,51.546924
Leemstraat,1,c,,4705RT,Roosendaal,Roosendaal,Noord-Brabant,VBO,4.487716,51.547226
Leemstraat,1,d,,4705RT,Roosendaal,Roosendaal,Noord-Brabant,VBO,4.487731,51.547347
Leemstraat,1,e,,4705RT,Roosendaal,Roosendaal,Noord-Brabant,VBO,4.488065,51.547251
Leemstraat,1,f,,4705RT,Roosendaal,Roosendaal,Noord-Brabant,VBO,4.488131,51.547099
Leemstraat,1,g,,4705RT,Roosendaal,Roosendaal,Noord-Brabant,VBO,4.488041,51.546981
Leemstraat,1,h,,4705RT,Roosendaal,Roosendaal,Noord-Brabant,VBO,4.487844,51.546754
Leemstraat,1,k,,4705RT,Roosendaal,Roosendaal,Noord-Brabant,VBO,4.487675,51.546564
Leemstraat,1,m,,4705RT,Roosendaal,Roosendaal,Noord-Brabant,VBO,4.487492,51.546347
Leemstraat,1,n,,4705RT,Roosendaal,Roosendaal,Noord-Brabant,VBO,4.487281,51.546076
Leemstraat,3,,,4705RT,Roosendaal,Roosendaal,Noord-Brabant,VBO,4.488495,51.546029
Leemstraat,5,a,,4705RT,Roosendaal,Roosendaal,Noord-Brabant,VBO,4.490244,51.545965
Leemstraat,5,,,4705RT,Roosendaal,Roosendaal,Noord-Brabant,VBO,4.489042,51.545816
Leemstraat,7,a,,4705RT,Roosendaal,Roosendaal,Noord-Brabant,VBO,4.490491,51.545922
Leemstraat,7,,,4705RT,Roosendaal,Roosendaal,Noord-Brabant,VBO,4.490442,51.545634
Leemstraat,9,,,4705RT,Roosendaal,Roosendaal,Noord-Brabant,VBO,4.490699,51.545612
Leemstraat,11,a,,4705RT,Roosendaal,Roosendaal,Noord-Brabant,VBO,4.491349,51.545542
Leemstraat,11,b,,4705RT,Roosendaal,Roosendaal,Noord-Brabant,VBO,4.492090,51.545460
Leemstraat,11,,,4705RT,Roosendaal,Roosendaal,Noord-Brabant,VBO,4.491754,51.545542
Leemstraat,13,,,4705RT,Roosendaal,Roosendaal,Noord-Brabant,VBO,4.493013,51.545378
Leemstraat,15,a,,4705RT,Roosendaal,Roosendaal,Noord-Brabant,VBO,4.494689,51.545462
Leemstraat,15,,,4705RT,Roosendaal,Roosendaal,Noord-Brabant,VBO,4.497007,51.548206
Leemstraat,23,,,4705RT,Roosendaal,Roosendaal,Noord-Brabant,VBO,4.497885,51.545118
