openbareruimtenaam,huisnummer,huisletter,huisnummertoevoeging,postcode,woonplaatsnaam,gemeentenaam,provincienaam,typeadresseerbaarobject,longitude,latitude
Boeimeersingel,1,A,,4819AA,Breda,Breda,Noord-Brabant,VBO,4.776898,51.580258
Boeimeersingel,1,,,4819AA,Breda,Breda,Noord-Brabant,VBO,4.776882,51.580278
Boeimeersingel,2,A,,4819AA,Breda,Breda,Noord-Brabant,VBO,4.776820,51.580232
Boeimeersingel,2,,,4819AA,Breda,Breda,Noord-Brabant,VBO,4.776805,51.580253
Boeimeersingel,3,,,4819AA,Breda,Breda,Noord-Brabant,VBO,4.776725,51.580226
Boeimeersingel,4,,,4819AA,Breda,Breda,Noord-Brabant,VBO,4.776649,51.580201
Boeimeersingel,5,A,,4819AA,Breda,Breda,Noord-Brabant,VBO,4.776593,51.580147
Boeimeersingel,5,,,4819AA,Breda,Breda,Noord-Brabant,VBO,4.776574,51.580176
Boeimeersingel,6,A,,4819AA,Breda,Breda,Noord-Brabant,VBO,4.776420,51.580126
Boeimeersingel,6,B,,4819AA,Breda,Breda,Noord-Brabant,VBO,4.776433,51.580115
Boeimeersingel,6,C,,4819AA,Breda,Breda,Noord-Brabant,VBO,4.776447,51.580100
Boeimeersingel,7,A,,4819AA,Breda,Breda,Noord-Brabant,VBO,4.775810,51.579868
Boeimeersingel,7,B,,4819AA,Breda,Breda,Noord-Brabant,VBO,4.775752,51.579851
Boeimeersingel,7,,,4819AA,Breda,Breda,Noord-Brabant,VBO,4.775850,51.579879
Boeimeersingel,8,A,,4819AA,Breda,Breda,Noord-Brabant,VBO,4.775647,51.579824
Boeimeersingel,8,,,4819AA,Breda,Breda,Noord-Brabant,VBO,4.775699,51.579836
Boeimeersingel,9,A,,4819AA,Breda,Breda,Noord-Brabant,VBO,4.775549,51.579786
Boeimeersingel,9,B,,4819AA,Breda,Breda,Noord-Brabant,VBO,4.775476,51.579765
Boeimeersingel,9,C,,4819AA,Breda,Breda,Noord-Brabant,VBO,4.775421,51.579752
Boeimeersingel,9,D,,4819AA,Breda,Breda,Noord-Brabant,VBO,4.775358,51.579739
Boeimeersingel,9,E,,4819AA,Breda,Breda,Noord-Brabant,VBO,4.775304,51.579718
Boeimeersingel,9,,,4819AA,Breda,Breda,Noord-Brabant,VBO,4.775590,51.579801
Boeimeersingel,11,,,4819AA,Breda,Breda,Noord-Brabant,VBO,4.774649,51.579514
Boeimeersingel,12,A,,4819AA,Breda,Breda,Noord-Brabant,VBO,4.774587,51.579456
Boeimeersingel,12,,,4819AA,Breda,Breda,Noord-Brabant,VBO,4.774570,51.579492
Boeimeersingel,14,A,,4819AA,Breda,Breda,Noord-Brabant,VBO,4.774411,51.579433
Boeimeersingel,15,,,4819AA,Breda,Breda,Noord-Brabant,VBO,4.774201,51.579346
Boeimeersingel,16,,,4819AA,Breda,Breda,Noord-Brabant,VBO,4.774117,51.579323
Boeimeersingel,17,,,4819AA,Breda,Breda,Noord-Brabant,VBO,4.774012,51.579293
Julianalaan,1,,,4819AB,Breda,Breda,Noord-Brabant,VBO,4.772979,51.579038
Julianalaan,3,,,4819AB,Breda,Breda,Noord-Brabant,VBO,4.772617,51.578938
Julianalaan,5,,,4819AB,Breda,Breda,Noord-Brabant,VBO,4.772520,51.578913
Julianalaan,7,,,4819AB,Breda,Breda,Noord-Brabant,VBO,4.772429,51.578888
Julianalaan,9,,,4819AB,Breda,Breda,Noord-Brabant,VBO,4.772214,51.578830
Julianalaan,11,,,4819AB,Breda,Breda,Noord-Brabant,VBO,4.772121,51.578807
Julianalaan,13,,,4819AB,Breda,Breda,Noord-Brabant,VBO,4.772019,51.578783
Julianalaan,15,,,4819AB,Breda,Breda,Noord-Brabant,VBO,4.771810,51.578730
Julianalaan,17,,,4819AB,Breda,Breda,Noord-Brabant,VBO,4.771710,51.578709
Julianalaan,19,A,,4819AB,Breda,Breda,Noord-Brabant,VBO,4.771385,51.578645
Julianalaan,19,B,,4819AB,Breda,Breda,Noord-Brabant,VBO,4.771289,51.578627
Julianalaan,19,C,,4819AB,Breda,Breda,Noord-Brabant,VBO,4.771028,51.578579
Julianalaan,19,,,4819AB,Breda,Breda,Noord-Brabant,VBO,4.771615,51.578691
Julianalaan,21,,,4819AB,Breda,Breda,Noord-Brabant,VBO,4.769903,51.578469
Julianalaan,23,,,4819AB,Breda,Breda,Noord-Brabant,VBO,4.769796,51.578466
Julianalaan,25,,,4819AB,Breda,Breda,Noord-Brabant,VBO,4.769703,51.578463
Julianalaan,27,,,4819AB,Breda,Breda,Noord-Brabant,VBO,4.769604,51.578459
Julianalaan,29,,,4819AB,Breda,Breda,Noord-Brabant,VBO,4.769367,51.578455
Julianalaan,31,,,4819AB,Breda,Breda,Noord-Brabant,VBO,4.769280,51.578455
Julianalaan,33,,,4819AB,Breda,Breda,Noord-Brabant,VBO,4.769183,51.578457
Julianalaan,35,,,4819AB,Breda,Breda,Noord-Brabant,VBO,4.769098,51.578458
Julianalaan,37,,,4819AB,Breda,Breda,Noord-Brabant,VBO,4.769004,51.578459
Julianalaan,39,,,4819AB,Breda,Breda,Noord-Brabant,VBO,4.768907,51.578459
Julianalaan,41,,,4819AB,Breda,Breda,Noord-Brabant,VBO,4.768718,51.578477
Julianalaan,43,,,4819AB,Breda,Breda,Noord-Brabant,VBO,4.768624,51.578485
Julianalaan,45,,,4819AB,Breda,Breda,Noord-Brabant,VBO,4.768438,51.578490
Julianalaan,47,,,4819AB,Breda,Breda,Noord-Brabant,VBO,4.768350,51.578498
Julianalaan,49,,,4819AB,Breda,Breda,Noord-Brabant,VBO,4.768247,51.578507
Julianalaan,51,,,4819AB,Breda,Breda,Noord-Brabant,VBO,4.768171,51.578515
Julianalaan,53,,,4819AB,Breda,Breda,Noord-Brabant,VBO,4.768069,51.578524
Julianalaan,55,,,4819AB,Breda,Breda,Noord-Brabant,VBO,4.767978,51.578533
Julianalaan,57,,,4819AC,Breda,Breda,Noord-Brabant,VBO,4.767598,51.578574
Julianalaan,59,,,4819AC,Breda,Breda,Noord-Brabant,VBO,4.767505,51.578582
Julianalaan,61,,,4819AC,Breda,Breda,Noord-Brabant,VBO,4.767416,51.578592
Julianalaan,63,,,4819AC,Breda,Breda,Noord-Brabant,VBO,4.767331,51.578601
Julianalaan,65,,,4819AC,Breda,Breda,Noord-Brabant,VBO,4.767249,51.578609
Julianalaan,67,,,4819AC,Breda,Breda,Noord-Brabant,VBO,4.767160,51.578620
Julianalaan,69,,,4819AC,Breda,Breda,Noord-Brabant,VBO,4.766976,51.578640
Julianalaan,73,,,4819AC,Breda,Breda,Noord-Brabant,VBO,4.766790,51.578657
Julianalaan,75,,,4819AC,Breda,Breda,Noord-Brabant,VBO,4.766707,51.578666
Julianalaan,77,,,4819AC,Breda,Breda,Noord-Brabant,VBO,4.766626,51.578675
Julianalaan,79,,,4819AC,Breda,Breda,Noord-Brabant,VBO,4.766535,51.578688
Julianalaan,81,,,4819AC,Breda,Breda,Noord-Brabant,VBO,4.766347,51.578706
Julianalaan,83,,,4819AC,Breda,Breda,Noord-Brabant,VBO,4.766259,51.578715
Julianalaan,85,,,4819AC,Breda,Breda,Noord-Brabant,VBO,4.766179,51.578724
Julianalaan,87,,,4819AC,Breda,Breda,Noord-Brabant,VBO,4.766094,51.578733
Julianalaan,89,,,4819AC,Breda,Breda,Noord-Brabant,VBO,4.766006,51.578742
Julianalaan,91,,,4819AC,Breda,Breda,Noord-Brabant,VBO,4.765925,51.578751
Julianalaan,93,,,4819AC,Breda,Breda,Noord-Brabant,VBO,4.765726,51.578772
Julianalaan,95,,,4819AC,Breda,Breda,Noord-Brabant,VBO,4.765645,51.578781
Julianalaan,97,,,4819AC,Breda,Breda,Noord-Brabant,VBO,4.765564,51.578790
Julianalaan,99,,,4819AC,Breda,Breda,Noord-Brabant,VBO,4.765481,51.578799
Julianalaan,101,,,4819AC,Breda,Breda,Noord-Brabant,VBO,4.765396,51.578808
Julianalaan,103,,,4819AC,Breda,Breda,Noord-Brabant,VBO,4.765315,51.578817
Julianalaan,105,,,4819AC,Breda,Breda,Noord-Brabant,VBO,4.765107,51.578837
Julianalaan,107,,,4819AC,Breda,Breda,Noord-Brabant,VBO,4.764946,51.578856
Julianalaan,111,,,4819AC,Breda,Breda,Noord-Brabant,VBO,4.764653,51.578887
Michiel de Ruyterstraat,4,,,4819AD,Breda,Breda,Noord-Brabant,VBO,4.773039,51.578757
Michiel de Ruyterstraat,6,,,4819AD,Breda,Breda,Noord-Brabant,VBO,4.772735,51.578488
Michiel de Ruyterstraat,8,,,4819AD,Breda,Breda,Noord-Brabant,VBO,4.772430,51.578256
Michiel de Ruyterstraat,10,,,4819AD,Breda,Breda,Noord-Brabant,VBO,4.772409,51.578194
Michiel de Ruyterstraat,12,,,4819AD,Breda,Breda,Noord-Brabant,VBO,4.772392,51.578145
Michiel de Ruyterstraat,14,,,4819AD,Breda,Breda,Noord-Brabant,VBO,4.772376,51.578097
Michiel de Ruyterstraat,16,,,4819AD,Breda,Breda,Noord-Brabant,VBO,4.772358,51.578044
Michiel de Ruyterstraat,18,,,4819AD,Breda,Breda,Noord-Brabant,VBO,4.772336,51.577980
Michiel de Ruyterstraat,20,,,4819AD,Breda,Breda,Noord-Brabant,VBO,4.772304,51.577889
van Brakelstraat,1,,,4819AE,Breda,Breda,Noord-Brabant,VBO,4.771352,51.577918
van Brakelstraat,2,,,4819AE,Breda,Breda,Noord-Brabant,VBO,4.771803,51.577998
van Brakelstraat,3,,,4819AE,Breda,Breda,Noord-Brabant,VBO,4.771368,51.577966
van Brakelstraat,4,,,4819AE,Breda,Breda,Noord-Brabant,VBO,4.771818,51.578042
van Brakelstraat,5,,,4819AE,Breda,Breda,Noord-Brabant,VBO,4.771386,51.578020
van Brakelstraat,6,,,4819AE,Breda,Breda,Noord-Brabant,VBO,4.771837,51.578099
van Brakelstraat,7,,,4819AE,Breda,Breda,Noord-Brabant,VBO,4.771402,51.578069
van Brakelstraat,8,,,4819AE,Breda,Breda,Noord-Brabant,VBO,4.771852,51.578144
van Brakelstraat,9,,,4819AE,Breda,Breda,Noord-Brabant,VBO,4.771418,51.578119
van Brakelstraat,10,,,4819AE,Breda,Breda,Noord-Brabant,VBO,4.771871,51.578200
van Brakelstraat,11,,,4819AE,Breda,Breda,Noord-Brabant,VBO,4.771435,51.578169
van Brakelstraat,12,,,4819AE,Breda,Breda,Noord-Brabant,VBO,4.771887,51.578247
van Brakelstraat,13,,,4819AE,Breda,Breda,Noord-Brabant,VBO,4.771452,51.578221
van Brakelstraat,14,,,4819AE,Breda,Breda,Noord-Brabant,VBO,4.771906,51.578299
van Brakelstraat,15,,,4819AE,Breda,Breda,Noord-Brabant,VBO,4.771469,51.578274
van Brakelstraat,16,,,4819AE,Breda,Breda,Noord-Brabant,VBO,4.771922,51.578346
van Brakelstraat,17,,,4819AE,Breda,Breda,Noord-Brabant,VBO,4.771487,51.578328
van Brakelstraat,18,,,4819AE,Breda,Breda,Noord-Brabant,VBO,4.771885,51.578439
van Brakelstraat,20,,,4819AE,Breda,Breda,Noord-Brabant,VBO,4.771844,51.578482
van Brakelstraat,21,,,4819AE,Breda,Breda,Noord-Brabant,VBO,4.771587,51.578377
van Brakelstraat,22,,,4819AE,Breda,Breda,Noord-Brabant,VBO,4.771859,51.578460
van Brakelstraat,23,,,4819AE,Breda,Breda,Noord-Brabant,VBO,4.771601,51.578395
Tromplaan,1,,,4819AG,Breda,Breda,Noord-Brabant,VBO,4.771781,51.577864
Tromplaan,3,,,4819AG,Breda,Breda,Noord-Brabant,VBO,4.771913,51.577847
Tromplaan,4,,,4819AG,Breda,Breda,Noord-Brabant,VBO,4.771559,51.577615
Tromplaan,5,,,4819AG,Breda,Breda,Noord-Brabant,VBO,4.772108,51.577823
Tromplaan,6,,,4819AG,Breda,Breda,Noord-Brabant,VBO,4.771644,51.577605
Tromplaan,8,,,4819AG,Breda,Breda,Noord-Brabant,VBO,4.771715,51.577567
Tromplaan,10,,,4819AG,Breda,Breda,Noord-Brabant,VBO,4.771759,51.577567
Tromplaan,12,,,4819AG,Breda,Breda,Noord-Brabant,VBO,4.771802,51.577559
Witte de Withweg,2,,,4819AH,Breda,Breda,Noord-Brabant,VBO,4.771792,51.577471
Witte de Withweg,4,,,4819AH,Breda,Breda,Noord-Brabant,VBO,4.771774,51.577417
Witte de Withweg,6,,,4819AH,Breda,Breda,Noord-Brabant,VBO,4.771757,51.577365
Witte de Withweg,8,,,4819AH,Breda,Breda,Noord-Brabant,VBO,4.771740,51.577313
Witte de Withweg,10,,,4819AH,Breda,Breda,Noord-Brabant,VBO,4.771723,51.577262
Witte de Withweg,12,,,4819AH,Breda,Breda,Noord-Brabant,VBO,4.771705,51.577206
Witte de Withweg,14,,,4819AH,Breda,Breda,Noord-Brabant,VBO,4.771688,51.577154
Witte de Withweg,16,,,4819AH,Breda,Breda,Noord-Brabant,VBO,4.771670,51.577098
Witte de Withweg,18,,,4819AH,Breda,Breda,Noord-Brabant,VBO,4.771653,51.577047
Witte de Withweg,20,,,4819AH,Breda,Breda,Noord-Brabant,VBO,4.771636,51.576994
Piet Heynlaan,2,,,4819AJ,Breda,Breda,Noord-Brabant,VBO,4.770686,51.576757
Piet Heynlaan,3,,,4819AJ,Breda,Breda,Noord-Brabant,VBO,4.771329,51.576921
Piet Heynlaan,4,,,4819AJ,Breda,Breda,Noord-Brabant,VBO,4.770727,51.576752
Piet Heynlaan,5,,,4819AJ,Breda,Breda,Noord-Brabant,VBO,4.771418,51.576910
Piet Heynlaan,6,,,4819AJ,Breda,Breda,Noord-Brabant,VBO,4.770771,51.576747
Piet Heynlaan,7,,,4819AJ,Breda,Breda,Noord-Brabant,VBO,4.771504,51.576922
Piet Heynlaan,8,,,4819AJ,Breda,Breda,Noord-Brabant,VBO,4.770814,51.576741
Piet Heynlaan,9,,,4819AJ,Breda,Breda,Noord-Brabant,VBO,4.771552,51.576914
Piet Heynlaan,10,,,4819AJ,Breda,Breda,Noord-Brabant,VBO,4.770851,51.576737
Piet Heynlaan,11,,,4819AJ,Breda,Breda,Noord-Brabant,VBO,4.771597,51.576908
Piet Heynlaan,12,,,4819AJ,Breda,Breda,Noord-Brabant,VBO,4.770893,51.576731
Piet Heynlaan,14,,,4819AJ,Breda,Breda,Noord-Brabant,VBO,4.770934,51.576726
Piet Heynlaan,16,,,4819AJ,Breda,Breda,Noord-Brabant,VBO,4.770978,51.576720
Piet Heynlaan,18,,,4819AJ,Breda,Breda,Noord-Brabant,VBO,4.771067,51.576735
Piet Heynlaan,20,,,4819AJ,Breda,Breda,Noord-Brabant,VBO,4.771108,51.576729
Piet Heynlaan,22,,,4819AJ,Breda,Breda,Noord-Brabant,VBO,4.771149,51.576723
Piet Heynlaan,24,,,4819AJ,Breda,Breda,Noord-Brabant,VBO,4.771192,51.576716
Piet Heynlaan,26,,,4819AJ,Breda,Breda,Noord-Brabant,VBO,4.771624,51.576601
Piet Heynlaan,28,,,4819AJ,Breda,Breda,Noord-Brabant,VBO,4.771716,51.576585
Piet Heynlaan,30,,,4819AJ,Breda,Breda,Noord-Brabant,VBO,4.771801,51.576570
Piet Heynlaan,32,,,4819AJ,Breda,Breda,Noord-Brabant,VBO,4.771886,51.576556
Piet Heynlaan,34,,,4819AJ,Breda,Breda,Noord-Brabant,VBO,4.771973,51.576541
Piet Heynlaan,36,,,4819AJ,Breda,Breda,Noord-Brabant,VBO,4.772060,51.576526
Piet Heynlaan,38,,,4819AJ,Breda,Breda,Noord-Brabant,VBO,4.772146,51.576511
Piet Heynlaan,40,,,4819AJ,Breda,Breda,Noord-Brabant,VBO,4.772233,51.576496
Piet Heynlaan,42,,,4819AJ,Breda,Breda,Noord-Brabant,VBO,4.772321,51.576481
Piet Heynlaan,44,,,4819AJ,Breda,Breda,Noord-Brabant,VBO,4.772408,51.576466
Piet Heynlaan,46,,,4819AJ,Breda,Breda,Noord-Brabant,VBO,4.772494,51.576451
Piet Heynlaan,48,,,4819AJ,Breda,Breda,Noord-Brabant,VBO,4.772581,51.576437
Piet Heynlaan,50,,,4819AJ,Breda,Breda,Noord-Brabant,VBO,4.772667,51.576422
Piet Heynlaan,52,,,4819AJ,Breda,Breda,Noord-Brabant,VBO,4.772755,51.576407
Piet Heynlaan,54,,,4819AJ,Breda,Breda,Noord-Brabant,VBO,4.772849,51.576391
Piet Heynlaan,56,,,4819AJ,Breda,Breda,Noord-Brabant,VBO,4.772957,51.576370
Piet Heynlaan,1240,,TRC,4819AJ,Breda,Breda,Noord-Brabant,VBO,4.772921,51.576686
Banckertweg,1,,,4819AK,Breda,Breda,Noord-Brabant,VBO,4.771314,51.576080
Banckertweg,2,,,4819AK,Breda,Breda,Noord-Brabant,VBO,4.771224,51.576642
Banckertweg,3,,,4819AK,Breda,Breda,Noord-Brabant,VBO,4.771293,51.576024
Banckertweg,4,,,4819AK,Breda,Breda,Noord-Brabant,VBO,4.771205,51.576588
Banckertweg,5,,,4819AK,Breda,Breda,Noord-Brabant,VBO,4.771272,51.575969
Banckertweg,6,,,4819AK,Breda,Breda,Noord-Brabant,VBO,4.771184,51.576534
Banckertweg,7,,,4819AK,Breda,Breda,Noord-Brabant,VBO,4.771251,51.575914
Banckertweg,8,,,4819AK,Breda,Breda,Noord-Brabant,VBO,4.771165,51.576480
Banckertweg,9,,,4819AK,Breda,Breda,Noord-Brabant,VBO,4.771230,51.575860
Banckertweg,10,,,4819AK,Breda,Breda,Noord-Brabant,VBO,4.771145,51.576426
Banckertweg,11,,,4819AK,Breda,Breda,Noord-Brabant,VBO,4.771209,51.575804
Banckertweg,12,,,4819AK,Breda,Breda,Noord-Brabant,VBO,4.771127,51.576373
Banckertweg,14,,,4819AK,Breda,Breda,Noord-Brabant,VBO,4.771107,51.576318
Banckertweg,16,,,4819AK,Breda,Breda,Noord-Brabant,VBO,4.771086,51.576262
van Galenweg,1,,,4819AL,Breda,Breda,Noord-Brabant,VBO,4.771492,51.576317
van Galenweg,2,,,4819AL,Breda,Breda,Noord-Brabant,VBO,4.771738,51.576020
van Galenweg,3,,,4819AL,Breda,Breda,Noord-Brabant,VBO,4.771579,51.576302
van Galenweg,4,,,4819AL,Breda,Breda,Noord-Brabant,VBO,4.771718,51.575964
van Galenweg,5,,,4819AL,Breda,Breda,Noord-Brabant,VBO,4.771665,51.576287
van Galenweg,6,,,4819AL,Breda,Breda,Noord-Brabant,VBO,4.771699,51.575909
van Galenweg,7,,,4819AL,Breda,Breda,Noord-Brabant,VBO,4.771751,51.576272
van Galenweg,8,,,4819AL,Breda,Breda,Noord-Brabant,VBO,4.771679,51.575855
van Galenweg,9,,,4819AL,Breda,Breda,Noord-Brabant,VBO,4.771837,51.576258
van Galenweg,10,,,4819AL,Breda,Breda,Noord-Brabant,VBO,4.771659,51.575800
van Galenweg,11,,BS01,4819AL,Breda,Breda,Noord-Brabant,VBO,4.772096,51.576297
van Galenweg,11,,BS02,4819AL,Breda,Breda,Noord-Brabant,VBO,4.772139,51.576288
van Galenweg,11,,BS03,4819AL,Breda,Breda,Noord-Brabant,VBO,4.772179,51.576279
van Galenweg,11,,BS04,4819AL,Breda,Breda,Noord-Brabant,VBO,4.772223,51.576277
van Galenweg,11,,BS05,4819AL,Breda,Breda,Noord-Brabant,VBO,4.772262,51.576268
van Galenweg,11,,BS06,4819AL,Breda,Breda,Noord-Brabant,VBO,4.772305,51.576259
van Galenweg,11,,BS07,4819AL,Breda,Breda,Noord-Brabant,VBO,4.772333,51.576234
van Galenweg,11,,BS08,4819AL,Breda,Breda,Noord-Brabant,VBO,4.772332,51.576201
van Galenweg,11,,BS09,4819AL,Breda,Breda,Noord-Brabant,VBO,4.772318,51.576174
van Galenweg,11,,,4819AL,Breda,Breda,Noord-Brabant,VBO,4.771925,51.576243
van Galenweg,12,,,4819AL,Breda,Breda,Noord-Brabant,VBO,4.771639,51.575745
van Galenweg,13,,,4819AL,Breda,Breda,Noord-Brabant,VBO,4.772165,51.576133
van Galenweg,15,,,4819AL,Breda,Breda,Noord-Brabant,VBO,4.772145,51.576077
van Galenweg,17,,,4819AL,Breda,Breda,Noord-Brabant,VBO,4.772126,51.576023
van Galenweg,19,,,4819AL,Breda,Breda,Noord-Brabant,VBO,4.772107,51.575969
van Galenweg,21,,,4819AL,Breda,Breda,Noord-Brabant,VBO,4.772084,51.575913
van Galenweg,23,,,4819AL,Breda,Breda,Noord-Brabant,VBO,4.772065,51.575861
van Galenweg,25,,,4819AL,Breda,Breda,Noord-Brabant,VBO,4.772044,51.575802
van Galenweg,27,,,4819AL,Breda,Breda,Noord-Brabant,VBO,4.772023,51.575746
van Galenweg,29,,,4819AL,Breda,Breda,Noord-Brabant,VBO,4.772003,51.575693
van Gentlaan,1,,,4819AM,Breda,Breda,Noord-Brabant,VBO,4.770423,51.575907
van Gentlaan,2,,,4819AM,Breda,Breda,Noord-Brabant,VBO,4.770302,51.575562
van Gentlaan,3,,,4819AM,Breda,Breda,Noord-Brabant,VBO,4.770509,51.575895
van Gentlaan,4,,,4819AM,Breda,Breda,Noord-Brabant,VBO,4.770389,51.575550
van Gentlaan,5,,,4819AM,Breda,Breda,Noord-Brabant,VBO,4.770596,51.575883
van Gentlaan,6,,,4819AM,Breda,Breda,Noord-Brabant,VBO,4.770475,51.575538
van Gentlaan,7,,,4819AM,Breda,Breda,Noord-Brabant,VBO,4.770680,51.575871
van Gentlaan,8,,,4819AM,Breda,Breda,Noord-Brabant,VBO,4.770559,51.575526
van Gentlaan,9,,,4819AM,Breda,Breda,Noord-Brabant,VBO,4.770762,51.575859
van Gentlaan,10,,,4819AM,Breda,Breda,Noord-Brabant,VBO,4.770647,51.575514
van Gentlaan,11,,,4819AM,Breda,Breda,Noord-Brabant,VBO,4.770852,51.575846
van Gentlaan,12,,,4819AM,Breda,Breda,Noord-Brabant,VBO,4.770732,51.575502
van Gentlaan,13,,,4819AM,Breda,Breda,Noord-Brabant,VBO,4.771280,51.575733
van Gentlaan,14,,,4819AM,Breda,Breda,Noord-Brabant,VBO,4.770821,51.575489
van Gentlaan,15,,,4819AM,Breda,Breda,Noord-Brabant,VBO,4.771322,51.575729
van Gentlaan,16,,,4819AM,Breda,Breda,Noord-Brabant,VBO,4.771075,51.575453
van Gentlaan,17,,,4819AM,Breda,Breda,Noord-Brabant,VBO,4.771365,51.575721
van Gentlaan,18,,,4819AM,Breda,Breda,Noord-Brabant,VBO,4.771161,51.575441
van Gentlaan,19,,,4819AM,Breda,Breda,Noord-Brabant,VBO,4.771438,51.575712
van Gentlaan,20,,,4819AM,Breda,Breda,Noord-Brabant,VBO,4.771248,51.575428
van Gentlaan,21,,,4819AM,Breda,Breda,Noord-Brabant,VBO,4.771481,51.575703
van Gentlaan,22,,,4819AM,Breda,Breda,Noord-Brabant,VBO,4.771334,51.575416
van Gentlaan,23,,,4819AM,Breda,Breda,Noord-Brabant,VBO,4.771524,51.575703
van Gentlaan,24,,,4819AM,Breda,Breda,Noord-Brabant,VBO,4.771422,51.575404
van Gentlaan,25,,,4819AM,Breda,Breda,Noord-Brabant,VBO,4.772073,51.575625
van Gentlaan,26,,,4819AM,Breda,Breda,Noord-Brabant,VBO,4.771514,51.575391
van Gentlaan,27,,,4819AM,Breda,Breda,Noord-Brabant,VBO,4.772117,51.575617
van Gentlaan,29,,,4819AM,Breda,Breda,Noord-Brabant,VBO,4.772160,51.575608
van Gentlaan,30,,,4819AM,Breda,Breda,Noord-Brabant,VBO,4.771963,51.575373
van Gentlaan,31,,,4819AM,Breda,Breda,Noord-Brabant,VBO,4.772233,51.575599
van Gentlaan,32,,,4819AM,Breda,Breda,Noord-Brabant,VBO,4.772028,51.575360
van Gentlaan,33,,,4819AM,Breda,Breda,Noord-Brabant,VBO,4.772276,51.575591
van Gentlaan,34,,,4819AM,Breda,Breda,Noord-Brabant,VBO,4.772067,51.575356
van Gentlaan,35,,,4819AM,Breda,Breda,Noord-Brabant,VBO,4.772319,51.575591
van Gentlaan,36,,,4819AM,Breda,Breda,Noord-Brabant,VBO,4.772144,51.575344
van Gentlaan,37,,,4819AM,Breda,Breda,Noord-Brabant,VBO,4.772363,51.575582
van Gentlaan,38,,,4819AM,Breda,Breda,Noord-Brabant,VBO,4.772178,51.575338
van Gentlaan,39,,,4819AM,Breda,Breda,Noord-Brabant,VBO,4.772406,51.575573
van Gentlaan,40,,,4819AM,Breda,Breda,Noord-Brabant,VBO,4.772233,51.575332
van Gentlaan,41,,,4819AM,Breda,Breda,Noord-Brabant,VBO,4.772449,51.575573
van Gentlaan,42,,,4819AM,Breda,Breda,Noord-Brabant,VBO,4.772278,51.575324
van Gentlaan,43,,,4819AM,Breda,Breda,Noord-Brabant,VBO,4.772493,51.575565
van Gentlaan,44,,,4819AM,Breda,Breda,Noord-Brabant,VBO,4.772311,51.575321
van Gentlaan,45,,,4819AM,Breda,Breda,Noord-Brabant,VBO,4.772536,51.575556
van Gentlaan,46,,,4819AM,Breda,Breda,Noord-Brabant,VBO,4.772352,51.575312
van Gentlaan,48,,,4819AM,Breda,Breda,Noord-Brabant,VBO,4.772402,51.575305
van Gentlaan,50,,,4819AM,Breda,Breda,Noord-Brabant,VBO,4.772445,51.575302
Evertsenweg,1,,,4819AN,Breda,Breda,Noord-Brabant,VBO,4.771870,51.575328
Evertsenweg,2,,,4819AN,Breda,Breda,Noord-Brabant,VBO,4.771414,51.575124
Evertsenweg,3,,,4819AN,Breda,Breda,Noord-Brabant,VBO,4.771852,51.575277
Evertsenweg,4,,,4819AN,Breda,Breda,Noord-Brabant,VBO,4.771326,51.575137
Evertsenweg,5,,,4819AN,Breda,Breda,Noord-Brabant,VBO,4.771833,51.575224
Evertsenweg,6,,,4819AN,Breda,Breda,Noord-Brabant,VBO,4.771239,51.575149
Evertsenweg,7,,,4819AN,Breda,Breda,Noord-Brabant,VBO,4.771812,51.575167
Evertsenweg,8,,,4819AN,Breda,Breda,Noord-Brabant,VBO,4.771152,51.575162
Evertsenweg,9,,,4819AN,Breda,Breda,Noord-Brabant,VBO,4.771792,51.575110
Evertsenweg,10,,,4819AN,Breda,Breda,Noord-Brabant,VBO,4.771065,51.575174
Evertsenweg,11,,,4819AN,Breda,Breda,Noord-Brabant,VBO,4.771773,51.575057
Evertsenweg,12,,,4819AN,Breda,Breda,Noord-Brabant,VBO,4.770977,51.575187
Evertsenweg,13,,,4819AN,Breda,Breda,Noord-Brabant,VBO,4.771753,51.575001
Evertsenweg,14,,,4819AN,Breda,Breda,Noord-Brabant,VBO,4.770662,51.575104
Evertsenweg,15,,BS01,4819AN,Breda,Breda,Noord-Brabant,VBO,4.771822,51.574884
Evertsenweg,15,,BS02,4819AN,Breda,Breda,Noord-Brabant,VBO,4.771808,51.574857
Evertsenweg,15,,BS03,4819AN,Breda,Breda,Noord-Brabant,VBO,4.771793,51.574830
Evertsenweg,15,,BS04,4819AN,Breda,Breda,Noord-Brabant,VBO,4.771779,51.574803
Evertsenweg,15,,BS05,4819AN,Breda,Breda,Noord-Brabant,VBO,4.771780,51.574776
Evertsenweg,15,,BS06,4819AN,Breda,Breda,Noord-Brabant,VBO,4.771725,51.574756
Evertsenweg,15,,BS07,4819AN,Breda,Breda,Noord-Brabant,VBO,4.771678,51.574759
Evertsenweg,15,,BS08,4819AN,Breda,Breda,Noord-Brabant,VBO,4.771634,51.574767
Evertsenweg,15,,BS09,4819AN,Breda,Breda,Noord-Brabant,VBO,4.771591,51.574776
Evertsenweg,15,,,4819AN,Breda,Breda,Noord-Brabant,VBO,4.771734,51.574949
Evertsenweg,16,,,4819AN,Breda,Breda,Noord-Brabant,VBO,4.770644,51.575052
Evertsenweg,17,,,4819AN,Breda,Breda,Noord-Brabant,VBO,4.771419,51.574864
Evertsenweg,18,,,4819AN,Breda,Breda,Noord-Brabant,VBO,4.770623,51.574994
Evertsenweg,19,,,4819AN,Breda,Breda,Noord-Brabant,VBO,4.771331,51.574877
Evertsenweg,20,,,4819AN,Breda,Breda,Noord-Brabant,VBO,4.770604,51.574942
Evertsenweg,21,,,4819AN,Breda,Breda,Noord-Brabant,VBO,4.771243,51.574890
Evertsenweg,22,,,4819AN,Breda,Breda,Noord-Brabant,VBO,4.770583,51.574886
Evertsenweg,23,,,4819AN,Breda,Breda,Noord-Brabant,VBO,4.771156,51.574902
Evertsenweg,24,,,4819AN,Breda,Breda,Noord-Brabant,VBO,4.770564,51.574833
Evertsenweg,25,,,4819AN,Breda,Breda,Noord-Brabant,VBO,4.771068,51.574915
Evertsenweg,26,,,4819AN,Breda,Breda,Noord-Brabant,VBO,4.770543,51.574775
Evertsenweg,27,,,4819AN,Breda,Breda,Noord-Brabant,VBO,4.770980,51.574928
Evertsenweg,28,,,4819AN,Breda,Breda,Noord-Brabant,VBO,4.770524,51.574723
Kortenaerlaan,1,,,4819AP,Breda,Breda,Noord-Brabant,VBO,4.769964,51.574731
Kortenaerlaan,3,,,4819AP,Breda,Breda,Noord-Brabant,VBO,4.770005,51.574725
Kortenaerlaan,5,,,4819AP,Breda,Breda,Noord-Brabant,VBO,4.770049,51.574720
Kortenaerlaan,7,,,4819AP,Breda,Breda,Noord-Brabant,VBO,4.770093,51.574712
Kortenaerlaan,9,,,4819AP,Breda,Breda,Noord-Brabant,VBO,4.770137,51.574706
Kortenaerlaan,11,,,4819AP,Breda,Breda,Noord-Brabant,VBO,4.770178,51.574700
Kortenaerlaan,13,,,4819AP,Breda,Breda,Noord-Brabant,VBO,4.770230,51.574696
Kortenaerlaan,15,,,4819AP,Breda,Breda,Noord-Brabant,VBO,4.770319,51.574682
Kortenaerlaan,17,,,4819AP,Breda,Breda,Noord-Brabant,VBO,4.770360,51.574675
Kortenaerlaan,19,,,4819AP,Breda,Breda,Noord-Brabant,VBO,4.770402,51.574670
Kortenaerlaan,25,,,4819AP,Breda,Breda,Noord-Brabant,VBO,4.770882,51.574659
Kortenaerlaan,27,,,4819AP,Breda,Breda,Noord-Brabant,VBO,4.770971,51.574647
Kortenaerlaan,29,,,4819AP,Breda,Breda,Noord-Brabant,VBO,4.771059,51.574635
Kortenaerlaan,31,,,4819AP,Breda,Breda,Noord-Brabant,VBO,4.771147,51.574622
Kortenaerlaan,33,,,4819AP,Breda,Breda,Noord-Brabant,VBO,4.771236,51.574610
Kortenaerlaan,35,,,4819AP,Breda,Breda,Noord-Brabant,VBO,4.771323,51.574597
Kortenaerlaan,37,,,4819AP,Breda,Breda,Noord-Brabant,VBO,4.771579,51.574562
Kortenaerlaan,39,,,4819AP,Breda,Breda,Noord-Brabant,VBO,4.771667,51.574549
Kortenaerlaan,41,,,4819AP,Breda,Breda,Noord-Brabant,VBO,4.771756,51.574536
Kortenaerlaan,43,,,4819AP,Breda,Breda,Noord-Brabant,VBO,4.771844,51.574524
Kortenaerlaan,45,,,4819AP,Breda,Breda,Noord-Brabant,VBO,4.771929,51.574511
Kortenaerlaan,47,,,4819AP,Breda,Breda,Noord-Brabant,VBO,4.772016,51.574499
Kortenaerlaan,49,,,4819AP,Breda,Breda,Noord-Brabant,VBO,4.772106,51.574487
Kortenaerlaan,51,,,4819AP,Breda,Breda,Noord-Brabant,VBO,4.772194,51.574475
Kortenaerlaan,2,,,4819AR,Breda,Breda,Noord-Brabant,VBO,4.770062,51.574430
Kortenaerlaan,4,,,4819AR,Breda,Breda,Noord-Brabant,VBO,4.770100,51.574425
Kortenaerlaan,6,,,4819AR,Breda,Breda,Noord-Brabant,VBO,4.769935,51.574448
Kortenaerlaan,8,,,4819AR,Breda,Breda,Noord-Brabant,VBO,4.770140,51.574418
Kortenaerlaan,10,,,4819AR,Breda,Breda,Noord-Brabant,VBO,4.769893,51.574456
Kortenaerlaan,12,,,4819AR,Breda,Breda,Noord-Brabant,VBO,4.769984,51.574441
Kortenaerlaan,14,,,4819AR,Breda,Breda,Noord-Brabant,VBO,4.770021,51.574436
Kortenaerlaan,16,,,4819AR,Breda,Breda,Noord-Brabant,VBO,4.770221,51.574416
Kortenaerlaan,18,,,4819AR,Breda,Breda,Noord-Brabant,VBO,4.770264,51.574408
Kortenaerlaan,20,,,4819AR,Breda,Breda,Noord-Brabant,VBO,4.770315,51.574401
Kortenaerlaan,22,,,4819AR,Breda,Breda,Noord-Brabant,VBO,4.770365,51.574397
Kortenaerlaan,24,,,4819AR,Breda,Breda,Noord-Brabant,VBO,4.770742,51.574287
Kortenaerlaan,26,,,4819AR,Breda,Breda,Noord-Brabant,VBO,4.770831,51.574274
Kortenaerlaan,28,,,4819AR,Breda,Breda,Noord-Brabant,VBO,4.770919,51.574262
Kortenaerlaan,30,,,4819AR,Breda,Breda,Noord-Brabant,VBO,4.771006,51.574249
Kortenaerlaan,32,,,4819AR,Breda,Breda,Noord-Brabant,VBO,4.771094,51.574237
Kortenaerlaan,34,,,4819AR,Breda,Breda,Noord-Brabant,VBO,4.771182,51.574225
Kortenaerlaan,36,,,4819AR,Breda,Breda,Noord-Brabant,VBO,4.771269,51.574212
Kortenaerlaan,38,,,4819AR,Breda,Breda,Noord-Brabant,VBO,4.771358,51.574200
Kortenaerlaan,40,,,4819AR,Breda,Breda,Noord-Brabant,VBO,4.771616,51.574163
Kortenaerlaan,42,,,4819AR,Breda,Breda,Noord-Brabant,VBO,4.771705,51.574151
Kortenaerlaan,44,,,4819AR,Breda,Breda,Noord-Brabant,VBO,4.771792,51.574138
Kortenaerlaan,46,,,4819AR,Breda,Breda,Noord-Brabant,VBO,4.771880,51.574126
Kortenaerlaan,48,,,4819AR,Breda,Breda,Noord-Brabant,VBO,4.771967,51.574113
Kortenaerlaan,50,,,4819AR,Breda,Breda,Noord-Brabant,VBO,4.772055,51.574101
Kortenaerlaan,52,,,4819AR,Breda,Breda,Noord-Brabant,VBO,4.772142,51.574089
Kortenaerlaan,54,,,4819AR,Breda,Breda,Noord-Brabant,VBO,4.772231,51.574076
Zoutmanweg,1,,,4819AS,Breda,Breda,Noord-Brabant,VBO,4.770644,51.574019
Zoutmanweg,3,,,4819AS,Breda,Breda,Noord-Brabant,VBO,4.770733,51.574006
Zoutmanweg,5,,,4819AS,Breda,Breda,Noord-Brabant,VBO,4.770821,51.573994
Zoutmanweg,7,,,4819AS,Breda,Breda,Noord-Brabant,VBO,4.770909,51.573981
Zoutmanweg,11,,,4819AS,Breda,Breda,Noord-Brabant,VBO,4.771085,51.573956
Zoutmanweg,13,,,4819AS,Breda,Breda,Noord-Brabant,VBO,4.771172,51.573944
Zoutmanweg,15,,,4819AS,Breda,Breda,Noord-Brabant,VBO,4.771261,51.573931
Zoutmanweg,17,,,4819AS,Breda,Breda,Noord-Brabant,VBO,4.771486,51.573773
Zoutmanweg,19,,,4819AS,Breda,Breda,Noord-Brabant,VBO,4.771466,51.573718
Zoutmanweg,21,,,4819AS,Breda,Breda,Noord-Brabant,VBO,4.771446,51.573664
Zoutmanweg,23,,,4819AS,Breda,Breda,Noord-Brabant,VBO,4.771426,51.573609
Zoutmanweg,25,,,4819AS,Breda,Breda,Noord-Brabant,VBO,4.771406,51.573555
Zoutmanweg,27,,,4819AS,Breda,Breda,Noord-Brabant,VBO,4.771386,51.573500
Zoutmanweg,29,,,4819AS,Breda,Breda,Noord-Brabant,VBO,4.771367,51.573446
Zoutmanweg,31,,,4819AS,Breda,Breda,Noord-Brabant,VBO,4.771347,51.573391
Zoutmanweg,901,,,4819AS,Breda,Breda,Noord-Brabant,VBO,4.771548,51.573961
Zoutmanweg,903,,,4819AS,Breda,Breda,Noord-Brabant,VBO,4.771635,51.573944
Zoutmanweg,2,,,4819AT,Breda,Breda,Noord-Brabant,VBO,4.770377,51.574327
Zoutmanweg,4,,,4819AT,Breda,Breda,Noord-Brabant,VBO,4.770357,51.574272
Zoutmanweg,6,,,4819AT,Breda,Breda,Noord-Brabant,VBO,4.770337,51.574217
Zoutmanweg,8,,,4819AT,Breda,Breda,Noord-Brabant,VBO,4.770318,51.574163
Zoutmanweg,10,,,4819AT,Breda,Breda,Noord-Brabant,VBO,4.770298,51.574108
Zoutmanweg,12,,,4819AT,Breda,Breda,Noord-Brabant,VBO,4.770278,51.574053
Zoutmanweg,14,,,4819AT,Breda,Breda,Noord-Brabant,VBO,4.770259,51.573999
Zoutmanweg,16,,,4819AT,Breda,Breda,Noord-Brabant,VBO,4.770239,51.573943
Zoutmanweg,18,,,4819AT,Breda,Breda,Noord-Brabant,VBO,4.770465,51.573785
Zoutmanweg,20,,,4819AT,Breda,Breda,Noord-Brabant,VBO,4.770550,51.573773
Zoutmanweg,22,,,4819AT,Breda,Breda,Noord-Brabant,VBO,4.770642,51.573760
Zoutmanweg,22,,,4819AT,Breda,Breda,Noord-Brabant,VBO,4.770623,51.573752
Zoutmanweg,24,,,4819AT,Breda,Breda,Noord-Brabant,VBO,4.770729,51.573747
Zoutmanweg,26,,,4819AT,Breda,Breda,Noord-Brabant,VBO,4.770817,51.573735
Zoutmanweg,28,,,4819AT,Breda,Breda,Noord-Brabant,VBO,4.770905,51.573722
Zoutmanweg,30,,,4819AT,Breda,Breda,Noord-Brabant,VBO,4.770993,51.573710
Zoutmanweg,32,,,4819AT,Breda,Breda,Noord-Brabant,VBO,4.771082,51.573697
Zoutmanweg,902,,,4819AT,Breda,Breda,Noord-Brabant,VBO,4.771591,51.573953
Zoutmanweg,904,,,4819AT,Breda,Breda,Noord-Brabant,VBO,4.771707,51.573926
Zoutmanweg,906,,,4819AT,Breda,Breda,Noord-Brabant,VBO,4.771505,51.573961
Zoutmanweg,1180,,TRD,4819AT,Breda,Breda,Noord-Brabant,VBO,4.771665,51.573835
Cimburgalaan,1,,,4819BA,Breda,Breda,Noord-Brabant,VBO,4.775604,51.572035
Cimburgalaan,3,,,4819BA,Breda,Breda,Noord-Brabant,VBO,4.775523,51.572164
Cimburgalaan,5,,,4819BA,Breda,Breda,Noord-Brabant,VBO,4.775329,51.572268
Cimburgalaan,7,,,4819BA,Breda,Breda,Noord-Brabant,VBO,4.775217,51.572295
Cimburgalaan,9,,,4819BA,Breda,Breda,Noord-Brabant,VBO,4.775067,51.572321
Cimburgalaan,11,,,4819BA,Breda,Breda,Noord-Brabant,VBO,4.774976,51.572344
Cimburgalaan,13,,,4819BA,Breda,Breda,Noord-Brabant,VBO,4.774899,51.572361
Cimburgalaan,15,,,4819BA,Breda,Breda,Noord-Brabant,VBO,4.774821,51.572380
Cimburgalaan,17,,,4819BA,Breda,Breda,Noord-Brabant,VBO,4.774632,51.572412
Cimburgalaan,19,,,4819BA,Breda,Breda,Noord-Brabant,VBO,4.774548,51.572430
Cimburgalaan,21,,,4819BA,Breda,Breda,Noord-Brabant,VBO,4.774462,51.572454
Cimburgalaan,23,,G01,4819BA,Breda,Breda,Noord-Brabant,VBO,4.774152,51.572302
Cimburgalaan,23,,G02,4819BA,Breda,Breda,Noord-Brabant,VBO,4.774095,51.572301
Cimburgalaan,23,,G03,4819BA,Breda,Breda,Noord-Brabant,VBO,4.774037,51.572301
Cimburgalaan,23,,,4819BA,Breda,Breda,Noord-Brabant,VBO,4.774390,51.572473
Cimburgalaan,27,,,4819BA,Breda,Breda,Noord-Brabant,VBO,4.774051,51.572612
Cimburgalaan,29,,,4819BA,Breda,Breda,Noord-Brabant,VBO,4.773921,51.572585
Cimburgalaan,31,,,4819BA,Breda,Breda,Noord-Brabant,VBO,4.773814,51.572564
Cimburgalaan,33,,,4819BA,Breda,Breda,Noord-Brabant,VBO,4.773708,51.572542
Cimburgalaan,35,,,4819BA,Breda,Breda,Noord-Brabant,VBO,4.773584,51.572519
Cimburgalaan,37,,,4819BA,Breda,Breda,Noord-Brabant,VBO,4.773484,51.572501
Cimburgalaan,39,,,4819BA,Breda,Breda,Noord-Brabant,VBO,4.773370,51.572478
Cimburgalaan,41,,,4819BA,Breda,Breda,Noord-Brabant,VBO,4.773826,51.572813
Cimburgalaan,43,,,4819BA,Breda,Breda,Noord-Brabant,VBO,4.773710,51.572790
Cimburgalaan,45,,,4819BA,Breda,Breda,Noord-Brabant,VBO,4.773594,51.572767
Cimburgalaan,47,,,4819BA,Breda,Breda,Noord-Brabant,VBO,4.773486,51.572746
Cimburgalaan,49,,,4819BA,Breda,Breda,Noord-Brabant,VBO,4.773373,51.572724
Cimburgalaan,51,,,4819BA,Breda,Breda,Noord-Brabant,VBO,4.773259,51.572701
Cimburgalaan,53,,,4819BB,Breda,Breda,Noord-Brabant,VBO,4.773695,51.573025
Cimburgalaan,55,,,4819BB,Breda,Breda,Noord-Brabant,VBO,4.773600,51.573007
Cimburgalaan,57,,,4819BB,Breda,Breda,Noord-Brabant,VBO,4.773507,51.572989
Cimburgalaan,59,,,4819BB,Breda,Breda,Noord-Brabant,VBO,4.773422,51.572972
Cimburgalaan,61,,,4819BB,Breda,Breda,Noord-Brabant,VBO,4.773330,51.572954
Cimburgalaan,63,,,4819BB,Breda,Breda,Noord-Brabant,VBO,4.773245,51.572937
Cimburgalaan,65,,,4819BB,Breda,Breda,Noord-Brabant,VBO,4.773150,51.572918
Cimburgalaan,67,,,4819BB,Breda,Breda,Noord-Brabant,VBO,4.773061,51.572901
Cimburgalaan,69,,,4819BB,Breda,Breda,Noord-Brabant,VBO,4.773600,51.573254
Cimburgalaan,71,,,4819BB,Breda,Breda,Noord-Brabant,VBO,4.773510,51.573237
Cimburgalaan,73,,,4819BB,Breda,Breda,Noord-Brabant,VBO,4.773416,51.573218
Cimburgalaan,75,,,4819BB,Breda,Breda,Noord-Brabant,VBO,4.773333,51.573202
Cimburgalaan,77,,,4819BB,Breda,Breda,Noord-Brabant,VBO,4.773239,51.573183
Cimburgalaan,79,,,4819BB,Breda,Breda,Noord-Brabant,VBO,4.773154,51.573167
Cimburgalaan,81,,,4819BB,Breda,Breda,Noord-Brabant,VBO,4.773064,51.573149
Cimburgalaan,83,,,4819BB,Breda,Breda,Noord-Brabant,VBO,4.772970,51.573130
Cimburgalaan,85,,,4819BB,Breda,Breda,Noord-Brabant,VBO,4.773509,51.573485
Cimburgalaan,87,,,4819BB,Breda,Breda,Noord-Brabant,VBO,4.773392,51.573462
Cimburgalaan,89,,,4819BB,Breda,Breda,Noord-Brabant,VBO,4.773277,51.573439
Cimburgalaan,91,,,4819BB,Breda,Breda,Noord-Brabant,VBO,4.773165,51.573417
Cimburgalaan,93,,,4819BB,Breda,Breda,Noord-Brabant,VBO,4.773046,51.573394
Cimburgalaan,97,,,4819BB,Breda,Breda,Noord-Brabant,VBO,4.772924,51.573390
Cimburgalaan,99,,,4819BB,Breda,Breda,Noord-Brabant,VBO,4.772881,51.573390
Cimburgalaan,101,,,4819BB,Breda,Breda,Noord-Brabant,VBO,4.772838,51.573380
Cimburgalaan,107,,,4819BB,Breda,Breda,Noord-Brabant,VBO,4.773071,51.573818
Cimburgalaan,123,,,4819BB,Breda,Breda,Noord-Brabant,VBO,4.772693,51.573178
Cimburgalaan,125,,,4819BB,Breda,Breda,Noord-Brabant,VBO,4.772687,51.573092
Cimburgalaan,127,,,4819BB,Breda,Breda,Noord-Brabant,VBO,4.772789,51.572813
Cimburgalaan,129,,,4819BB,Breda,Breda,Noord-Brabant,VBO,4.772807,51.572727
Cimburgalaan,131,,,4819BB,Breda,Breda,Noord-Brabant,VBO,4.772932,51.572491
Cimburgalaan,2,,,4819BC,Breda,Breda,Noord-Brabant,VBO,4.776031,51.571987
Cimburgalaan,4,,,4819BC,Breda,Breda,Noord-Brabant,VBO,4.775941,51.572216
Cimburgalaan,6,,,4819BC,Breda,Breda,Noord-Brabant,VBO,4.775917,51.572278
Cimburgalaan,8,,,4819BC,Breda,Breda,Noord-Brabant,VBO,4.775894,51.572341
Cimburgalaan,16,,,4819BC,Breda,Breda,Noord-Brabant,VBO,4.775109,51.572614
Cimburgalaan,18,,G01,4819BC,Breda,Breda,Noord-Brabant,VBO,4.774477,51.572695
Cimburgalaan,18,,,4819BC,Breda,Breda,Noord-Brabant,VBO,4.774506,51.572696
Cimburgalaan,20,,,4819BC,Breda,Breda,Noord-Brabant,VBO,4.774659,51.572764
Cimburgalaan,22,,,4819BC,Breda,Breda,Noord-Brabant,VBO,4.774821,51.572839
Cimburgalaan,24,,,4819BC,Breda,Breda,Noord-Brabant,VBO,4.774947,51.572902
Cimburgalaan,26,,G01,4819BC,Breda,Breda,Noord-Brabant,VBO,4.774272,51.572891
Cimburgalaan,26,,,4819BC,Breda,Breda,Noord-Brabant,VBO,4.774363,51.572929
Cimburgalaan,28,,,4819BC,Breda,Breda,Noord-Brabant,VBO,4.774440,51.572963
Cimburgalaan,30,,,4819BC,Breda,Breda,Noord-Brabant,VBO,4.774517,51.572997
Cimburgalaan,32,,,4819BC,Breda,Breda,Noord-Brabant,VBO,4.774593,51.573031
Cimburgalaan,34,,,4819BC,Breda,Breda,Noord-Brabant,VBO,4.774670,51.573066
Cimburgalaan,36,,,4819BC,Breda,Breda,Noord-Brabant,VBO,4.774747,51.573100
Cimburgalaan,38,,,4819BC,Breda,Breda,Noord-Brabant,VBO,4.774824,51.573134
Cimburgalaan,40,,G01,4819BC,Breda,Breda,Noord-Brabant,VBO,4.774094,51.573109
Cimburgalaan,40,,,4819BC,Breda,Breda,Noord-Brabant,VBO,4.774183,51.573148
Cimburgalaan,42,,,4819BC,Breda,Breda,Noord-Brabant,VBO,4.774261,51.573183
Cimburgalaan,44,,,4819BC,Breda,Breda,Noord-Brabant,VBO,4.774337,51.573217
Cimburgalaan,46,,,4819BC,Breda,Breda,Noord-Brabant,VBO,4.774413,51.573251
Cimburgalaan,48,,,4819BC,Breda,Breda,Noord-Brabant,VBO,4.774490,51.573285
Cimburgalaan,50,,,4819BC,Breda,Breda,Noord-Brabant,VBO,4.774566,51.573319
Cimburgalaan,52,,,4819BC,Breda,Breda,Noord-Brabant,VBO,4.774643,51.573353
Cimburgalaan,54,,G01,4819BD,Breda,Breda,Noord-Brabant,VBO,4.773989,51.573358
Cimburgalaan,54,,,4819BD,Breda,Breda,Noord-Brabant,VBO,4.774075,51.573400
Cimburgalaan,56,,,4819BD,Breda,Breda,Noord-Brabant,VBO,4.774152,51.573434
Cimburgalaan,58,,,4819BD,Breda,Breda,Noord-Brabant,VBO,4.774229,51.573468
Cimburgalaan,60,,,4819BD,Breda,Breda,Noord-Brabant,VBO,4.774305,51.573502
Cimburgalaan,62,,,4819BD,Breda,Breda,Noord-Brabant,VBO,4.774382,51.573536
Cimburgalaan,64,,,4819BD,Breda,Breda,Noord-Brabant,VBO,4.774458,51.573570
Cimburgalaan,66,,,4819BD,Breda,Breda,Noord-Brabant,VBO,4.774536,51.573604
Cimburgalaan,68,,G01,4819BD,Breda,Breda,Noord-Brabant,VBO,4.773881,51.573610
Cimburgalaan,68,,,4819BD,Breda,Breda,Noord-Brabant,VBO,4.773970,51.573652
Cimburgalaan,70,,,4819BD,Breda,Breda,Noord-Brabant,VBO,4.774048,51.573686
Cimburgalaan,72,,,4819BD,Breda,Breda,Noord-Brabant,VBO,4.774125,51.573720
Cimburgalaan,74,,,4819BD,Breda,Breda,Noord-Brabant,VBO,4.774201,51.573754
Cimburgalaan,76,,,4819BD,Breda,Breda,Noord-Brabant,VBO,4.774272,51.573785
Cimburgalaan,78,,,4819BD,Breda,Breda,Noord-Brabant,VBO,4.774355,51.573822
Cimburgalaan,80,,,4819BD,Breda,Breda,Noord-Brabant,VBO,4.774432,51.573856
Cimburgalaan,82,,BIS,4819BD,Breda,Breda,Noord-Brabant,VBO,4.773731,51.573842
Cimburgalaan,82,,,4819BD,Breda,Breda,Noord-Brabant,VBO,4.773802,51.573874
Cimburgalaan,84,,,4819BD,Breda,Breda,Noord-Brabant,VBO,4.773879,51.573909
Cimburgalaan,86,,,4819BD,Breda,Breda,Noord-Brabant,VBO,4.773956,51.573943
Cimburgalaan,88,,,4819BD,Breda,Breda,Noord-Brabant,VBO,4.774032,51.573977
Cimburgalaan,90,,,4819BD,Breda,Breda,Noord-Brabant,VBO,4.774109,51.574011
Cimburgalaan,92,,,4819BD,Breda,Breda,Noord-Brabant,VBO,4.774185,51.574045
Cimburgalaan,94,,,4819BD,Breda,Breda,Noord-Brabant,VBO,4.774262,51.574079
Cimburgalaan,98,K,,4819BD,Breda,Breda,Noord-Brabant,VBO,4.774034,51.574353
Cimburgalaan,120,,,4819BD,Breda,Breda,Noord-Brabant,VBO,4.775512,51.573451
Cimburgalaan,130,,,4819BD,Breda,Breda,Noord-Brabant,VBO,4.775130,51.574316
Boeimeerlaan,2,,,4819BE,Breda,Breda,Noord-Brabant,VBO,4.772988,51.576325
Boeimeerlaan,4,,,4819BE,Breda,Breda,Noord-Brabant,VBO,4.772976,51.576300
Boeimeerlaan,6,,,4819BE,Breda,Breda,Noord-Brabant,VBO,4.772965,51.576271
Boeimeerlaan,8,,,4819BE,Breda,Breda,Noord-Brabant,VBO,4.772953,51.576246
Boeimeerlaan,10,A,,4819BE,Breda,Breda,Noord-Brabant,VBO,4.772844,51.576167
Boeimeerlaan,10,B,,4819BE,Breda,Breda,Noord-Brabant,VBO,4.772801,51.576173
Boeimeerlaan,10,,,4819BE,Breda,Breda,Noord-Brabant,VBO,4.772886,51.576161
Boeimeerlaan,12,A,,4819BE,Breda,Breda,Noord-Brabant,VBO,4.772815,51.576086
Boeimeerlaan,12,B,,4819BE,Breda,Breda,Noord-Brabant,VBO,4.772779,51.576091
Boeimeerlaan,12,,,4819BE,Breda,Breda,Noord-Brabant,VBO,4.772858,51.576085
Boeimeerlaan,14,A,,4819BE,Breda,Breda,Noord-Brabant,VBO,4.772793,51.576007
Boeimeerlaan,14,B,,4819BE,Breda,Breda,Noord-Brabant,VBO,4.772751,51.576013
Boeimeerlaan,14,,,4819BE,Breda,Breda,Noord-Brabant,VBO,4.772825,51.576005
Boeimeerlaan,16,A,,4819BE,Breda,Breda,Noord-Brabant,VBO,4.772762,51.575927
Boeimeerlaan,16,B,,4819BE,Breda,Breda,Noord-Brabant,VBO,4.772721,51.575933
Boeimeerlaan,16,,,4819BE,Breda,Breda,Noord-Brabant,VBO,4.772804,51.575917
Boeimeerlaan,18,A,,4819BE,Breda,Breda,Noord-Brabant,VBO,4.772727,51.575847
Boeimeerlaan,18,B,,4819BE,Breda,Breda,Noord-Brabant,VBO,4.772689,51.575853
Boeimeerlaan,18,,,4819BE,Breda,Breda,Noord-Brabant,VBO,4.772762,51.575840
Boeimeerlaan,20,A,,4819BE,Breda,Breda,Noord-Brabant,VBO,4.772703,51.575765
Boeimeerlaan,20,B,,4819BE,Breda,Breda,Noord-Brabant,VBO,4.772646,51.575766
Boeimeerlaan,20,,,4819BE,Breda,Breda,Noord-Brabant,VBO,4.772733,51.575760
Boeimeerlaan,22,A,,4819BE,Breda,Breda,Noord-Brabant,VBO,4.772678,51.575691
Boeimeerlaan,22,B,,4819BE,Breda,Breda,Noord-Brabant,VBO,4.772632,51.575700
Boeimeerlaan,22,,,4819BE,Breda,Breda,Noord-Brabant,VBO,4.772714,51.575692
Boeimeerlaan,24,A,,4819BE,Breda,Breda,Noord-Brabant,VBO,4.772647,51.575611
Boeimeerlaan,24,B,,4819BE,Breda,Breda,Noord-Brabant,VBO,4.772596,51.575623
Boeimeerlaan,24,,,4819BE,Breda,Breda,Noord-Brabant,VBO,4.772689,51.575607
Boeimeerlaan,26,A,,4819BG,Breda,Breda,Noord-Brabant,VBO,4.772526,51.575202
Boeimeerlaan,26,B,,4819BG,Breda,Breda,Noord-Brabant,VBO,4.772513,51.575168
Boeimeerlaan,26,,,4819BG,Breda,Breda,Noord-Brabant,VBO,4.772535,51.575232
Boeimeerlaan,28,A,,4819BG,Breda,Breda,Noord-Brabant,VBO,4.772490,51.575106
Boeimeerlaan,28,B,,4819BG,Breda,Breda,Noord-Brabant,VBO,4.772479,51.575082
Boeimeerlaan,28,,,4819BG,Breda,Breda,Noord-Brabant,VBO,4.772501,51.575135
Boeimeerlaan,30,A,,4819BG,Breda,Breda,Noord-Brabant,VBO,4.772460,51.575021
Boeimeerlaan,30,B,,4819BG,Breda,Breda,Noord-Brabant,VBO,4.772449,51.574994
Boeimeerlaan,30,,,4819BG,Breda,Breda,Noord-Brabant,VBO,4.772475,51.575055
Boeimeerlaan,32,A,,4819BG,Breda,Breda,Noord-Brabant,VBO,4.772434,51.574942
Boeimeerlaan,32,B,,4819BG,Breda,Breda,Noord-Brabant,VBO,4.772421,51.574918
Boeimeerlaan,32,,,4819BG,Breda,Breda,Noord-Brabant,VBO,4.772443,51.574969
Boeimeerlaan,34,A,,4819BG,Breda,Breda,Noord-Brabant,VBO,4.772400,51.574871
Boeimeerlaan,34,B,,4819BG,Breda,Breda,Noord-Brabant,VBO,4.772391,51.574841
Boeimeerlaan,34,,,4819BG,Breda,Breda,Noord-Brabant,VBO,4.772417,51.574896
Boeimeerlaan,36,A,,4819BG,Breda,Breda,Noord-Brabant,VBO,4.772372,51.574792
Boeimeerlaan,36,B,,4819BG,Breda,Breda,Noord-Brabant,VBO,4.772363,51.574769
Boeimeerlaan,36,,,4819BG,Breda,Breda,Noord-Brabant,VBO,4.772389,51.574817
Boeimeerlaan,38,A,,4819BG,Breda,Breda,Noord-Brabant,VBO,4.772346,51.574724
Boeimeerlaan,38,B,,4819BG,Breda,Breda,Noord-Brabant,VBO,4.772341,51.574699
Boeimeerlaan,38,,,4819BG,Breda,Breda,Noord-Brabant,VBO,4.772361,51.574747
Boeimeerlaan,40,A,,4819BG,Breda,Breda,Noord-Brabant,VBO,4.772324,51.574643
Boeimeerlaan,40,B,,4819BG,Breda,Breda,Noord-Brabant,VBO,4.772283,51.574663
Boeimeerlaan,40,,,4819BG,Breda,Breda,Noord-Brabant,VBO,4.772335,51.574670
Boeimeerlaan,42,,,4819BH,Breda,Breda,Noord-Brabant,VBO,4.772342,51.574588
Boeimeerlaan,44,,,4819BH,Breda,Breda,Noord-Brabant,VBO,4.772338,51.574558
Boeimeerlaan,46,,,4819BH,Breda,Breda,Noord-Brabant,VBO,4.772324,51.574531
Boeimeerlaan,48,,,4819BH,Breda,Breda,Noord-Brabant,VBO,4.772314,51.574503
Boeimeerlaan,50,,,4819BH,Breda,Breda,Noord-Brabant,VBO,4.772319,51.574019
Boeimeerlaan,52,,,4819BH,Breda,Breda,Noord-Brabant,VBO,4.772304,51.573992
Boeimeerlaan,54,,,4819BH,Breda,Breda,Noord-Brabant,VBO,4.772290,51.573965
Boeimeerlaan,56,,,4819BH,Breda,Breda,Noord-Brabant,VBO,4.772276,51.573929
Boeimeerlaan,58,,,4819BH,Breda,Breda,Noord-Brabant,VBO,4.772277,51.573902
Boeimeerlaan,60,A,,4819BH,Breda,Breda,Noord-Brabant,VBO,4.772196,51.573821
Boeimeerlaan,60,B,,4819BH,Breda,Breda,Noord-Brabant,VBO,4.772184,51.573784
Boeimeerlaan,60,,,4819BH,Breda,Breda,Noord-Brabant,VBO,4.772201,51.573844
Boeimeerlaan,62,A,,4819BH,Breda,Breda,Noord-Brabant,VBO,4.772162,51.573727
Boeimeerlaan,62,B,,4819BH,Breda,Breda,Noord-Brabant,VBO,4.772154,51.573707
Boeimeerlaan,62,,,4819BH,Breda,Breda,Noord-Brabant,VBO,4.772172,51.573755
Boeimeerlaan,64,A,,4819BH,Breda,Breda,Noord-Brabant,VBO,4.772134,51.573656
Boeimeerlaan,64,B,,4819BH,Breda,Breda,Noord-Brabant,VBO,4.772129,51.573630
Boeimeerlaan,64,,,4819BH,Breda,Breda,Noord-Brabant,VBO,4.772146,51.573684
Boeimeerlaan,66,A,,4819BH,Breda,Breda,Noord-Brabant,VBO,4.772109,51.573576
Boeimeerlaan,66,B,,4819BH,Breda,Breda,Noord-Brabant,VBO,4.772101,51.573551
Boeimeerlaan,66,,,4819BH,Breda,Breda,Noord-Brabant,VBO,4.772119,51.573604
Boeimeerlaan,68,A,,4819BH,Breda,Breda,Noord-Brabant,VBO,4.772081,51.573502
Boeimeerlaan,68,B,,4819BH,Breda,Breda,Noord-Brabant,VBO,4.772072,51.573476
Boeimeerlaan,68,,,4819BH,Breda,Breda,Noord-Brabant,VBO,4.772089,51.573530
Boeimeerlaan,70,A,,4819BH,Breda,Breda,Noord-Brabant,VBO,4.772054,51.573433
Boeimeerlaan,70,B,,4819BH,Breda,Breda,Noord-Brabant,VBO,4.772042,51.573407
Boeimeerlaan,70,,,4819BH,Breda,Breda,Noord-Brabant,VBO,4.772058,51.573454
Boeimeerlaan,72,A,,4819BH,Breda,Breda,Noord-Brabant,VBO,4.772032,51.573364
Boeimeerlaan,72,B,,4819BH,Breda,Breda,Noord-Brabant,VBO,4.772024,51.573343
Boeimeerlaan,72,,,4819BH,Breda,Breda,Noord-Brabant,VBO,4.772036,51.573384
Boeimeerlaan,74,A,,4819BH,Breda,Breda,Noord-Brabant,VBO,4.772014,51.573306
Boeimeerlaan,74,B,,4819BH,Breda,Breda,Noord-Brabant,VBO,4.772005,51.573286
Boeimeerlaan,74,,,4819BH,Breda,Breda,Noord-Brabant,VBO,4.772018,51.573324
Boeimeerlaan,76,A,,4819BJ,Breda,Breda,Noord-Brabant,VBO,4.771868,51.572915
Boeimeerlaan,76,B,,4819BJ,Breda,Breda,Noord-Brabant,VBO,4.771858,51.572890
Boeimeerlaan,76,,,4819BJ,Breda,Breda,Noord-Brabant,VBO,4.771876,51.572938
Boeimeerlaan,78,A,,4819BJ,Breda,Breda,Noord-Brabant,VBO,4.771841,51.572842
Boeimeerlaan,78,B,,4819BJ,Breda,Breda,Noord-Brabant,VBO,4.771831,51.572817
Boeimeerlaan,78,,,4819BJ,Breda,Breda,Noord-Brabant,VBO,4.771849,51.572866
Boeimeerlaan,80,A,,4819BJ,Breda,Breda,Noord-Brabant,VBO,4.771814,51.572768
Boeimeerlaan,80,B,,4819BJ,Breda,Breda,Noord-Brabant,VBO,4.771805,51.572743
Boeimeerlaan,80,,,4819BJ,Breda,Breda,Noord-Brabant,VBO,4.771822,51.572794
Boeimeerlaan,82,A,,4819BJ,Breda,Breda,Noord-Brabant,VBO,4.771787,51.572693
Boeimeerlaan,82,B,,4819BJ,Breda,Breda,Noord-Brabant,VBO,4.771779,51.572668
Boeimeerlaan,82,,,4819BJ,Breda,Breda,Noord-Brabant,VBO,4.771795,51.572719
Boeimeerlaan,84,A,,4819BJ,Breda,Breda,Noord-Brabant,VBO,4.771762,51.572620
Boeimeerlaan,84,B,,4819BJ,Breda,Breda,Noord-Brabant,VBO,4.771753,51.572595
Boeimeerlaan,84,,,4819BJ,Breda,Breda,Noord-Brabant,VBO,4.771771,51.572643
Boeimeerlaan,86,A,,4819BJ,Breda,Breda,Noord-Brabant,VBO,4.771737,51.572547
Boeimeerlaan,86,B,,4819BJ,Breda,Breda,Noord-Brabant,VBO,4.771729,51.572524
Boeimeerlaan,86,,,4819BJ,Breda,Breda,Noord-Brabant,VBO,4.771742,51.572571
Boeimeerlaan,88,A,,4819BJ,Breda,Breda,Noord-Brabant,VBO,4.771713,51.572473
Boeimeerlaan,88,B,,4819BJ,Breda,Breda,Noord-Brabant,VBO,4.771704,51.572448
Boeimeerlaan,88,,,4819BJ,Breda,Breda,Noord-Brabant,VBO,4.771720,51.572497
Boeimeerlaan,90,A,,4819BJ,Breda,Breda,Noord-Brabant,VBO,4.771682,51.572398
Boeimeerlaan,90,B,,4819BJ,Breda,Breda,Noord-Brabant,VBO,4.771673,51.572374
Boeimeerlaan,90,,,4819BJ,Breda,Breda,Noord-Brabant,VBO,4.771689,51.572423
Boeimeerlaan,92,A,,4819BJ,Breda,Breda,Noord-Brabant,VBO,4.771657,51.572323
Boeimeerlaan,92,B,,4819BJ,Breda,Breda,Noord-Brabant,VBO,4.771647,51.572299
Boeimeerlaan,92,,,4819BJ,Breda,Breda,Noord-Brabant,VBO,4.771664,51.572348
Boeimeerlaan,94,A,,4819BJ,Breda,Breda,Noord-Brabant,VBO,4.771630,51.572250
Boeimeerlaan,94,B,,4819BJ,Breda,Breda,Noord-Brabant,VBO,4.771621,51.572225
Boeimeerlaan,94,,,4819BJ,Breda,Breda,Noord-Brabant,VBO,4.771640,51.572276
Karel Doormanlaan,1,,,4819BK,Breda,Breda,Noord-Brabant,VBO,4.769410,51.573655
Karel Doormanlaan,2,,,4819BK,Breda,Breda,Noord-Brabant,VBO,4.769371,51.573299
Karel Doormanlaan,3,,,4819BK,Breda,Breda,Noord-Brabant,VBO,4.769586,51.573629
Karel Doormanlaan,4,,,4819BK,Breda,Breda,Noord-Brabant,VBO,4.769460,51.573286
Karel Doormanlaan,5,,,4819BK,Breda,Breda,Noord-Brabant,VBO,4.769673,51.573615
Karel Doormanlaan,6,,,4819BK,Breda,Breda,Noord-Brabant,VBO,4.769547,51.573274
Karel Doormanlaan,7,,,4819BK,Breda,Breda,Noord-Brabant,VBO,4.769760,51.573602
Karel Doormanlaan,8,,,4819BK,Breda,Breda,Noord-Brabant,VBO,4.769634,51.573261
Karel Doormanlaan,9,,,4819BK,Breda,Breda,Noord-Brabant,VBO,4.769853,51.573588
Karel Doormanlaan,10,,,4819BK,Breda,Breda,Noord-Brabant,VBO,4.769722,51.573249
Karel Doormanlaan,11,,,4819BK,Breda,Breda,Noord-Brabant,VBO,4.769934,51.573577
Karel Doormanlaan,12,,,4819BK,Breda,Breda,Noord-Brabant,VBO,4.769809,51.573236
Karel Doormanlaan,13,,,4819BK,Breda,Breda,Noord-Brabant,VBO,4.770022,51.573565
Karel Doormanlaan,14,,,4819BK,Breda,Breda,Noord-Brabant,VBO,4.769897,51.573223
Karel Doormanlaan,15,,,4819BK,Breda,Breda,Noord-Brabant,VBO,4.770110,51.573553
Karel Doormanlaan,16,,,4819BK,Breda,Breda,Noord-Brabant,VBO,4.769984,51.573211
Karel Doormanlaan,17,,,4819BK,Breda,Breda,Noord-Brabant,VBO,4.770368,51.573517
Karel Doormanlaan,18,,,4819BK,Breda,Breda,Noord-Brabant,VBO,4.770073,51.573198
Karel Doormanlaan,19,,,4819BK,Breda,Breda,Noord-Brabant,VBO,4.770457,51.573504
Karel Doormanlaan,21,,,4819BK,Breda,Breda,Noord-Brabant,VBO,4.770544,51.573492
Karel Doormanlaan,22,,,4819BK,Breda,Breda,Noord-Brabant,VBO,4.770531,51.573191
Karel Doormanlaan,23,,,4819BK,Breda,Breda,Noord-Brabant,VBO,4.770632,51.573479
Karel Doormanlaan,24,,,4819BK,Breda,Breda,Noord-Brabant,VBO,4.770581,51.573188
Karel Doormanlaan,25,,,4819BK,Breda,Breda,Noord-Brabant,VBO,4.770719,51.573467
Karel Doormanlaan,26,,,4819BK,Breda,Breda,Noord-Brabant,VBO,4.770626,51.573179
Karel Doormanlaan,27,,,4819BK,Breda,Breda,Noord-Brabant,VBO,4.770807,51.573455
Karel Doormanlaan,28,,,4819BK,Breda,Breda,Noord-Brabant,VBO,4.770698,51.573166
Karel Doormanlaan,29,,,4819BK,Breda,Breda,Noord-Brabant,VBO,4.770895,51.573442
Karel Doormanlaan,30,,,4819BK,Breda,Breda,Noord-Brabant,VBO,4.770743,51.573160
Karel Doormanlaan,31,,,4819BK,Breda,Breda,Noord-Brabant,VBO,4.770983,51.573430
Karel Doormanlaan,32,,,4819BK,Breda,Breda,Noord-Brabant,VBO,4.770790,51.573158
Karel Doormanlaan,34,,,4819BK,Breda,Breda,Noord-Brabant,VBO,4.770836,51.573149
Karel Doormanlaan,35,,,4819BK,Breda,Breda,Noord-Brabant,VBO,4.771383,51.573316
Karel Doormanlaan,36,,,4819BK,Breda,Breda,Noord-Brabant,VBO,4.771276,51.573084
Karel Doormanlaan,37,,,4819BK,Breda,Breda,Noord-Brabant,VBO,4.771454,51.573307
Karel Doormanlaan,38,,,4819BK,Breda,Breda,Noord-Brabant,VBO,4.771322,51.573076
Karel Doormanlaan,39,,,4819BK,Breda,Breda,Noord-Brabant,VBO,4.771497,51.573298
Karel Doormanlaan,40,,,4819BK,Breda,Breda,Noord-Brabant,VBO,4.771370,51.573069
Karel Doormanlaan,41,,,4819BK,Breda,Breda,Noord-Brabant,VBO,4.771582,51.573286
Karel Doormanlaan,42,,,4819BK,Breda,Breda,Noord-Brabant,VBO,4.771417,51.573060
Karel Doormanlaan,43,,,4819BK,Breda,Breda,Noord-Brabant,VBO,4.771625,51.573277
Karel Doormanlaan,44,,,4819BK,Breda,Breda,Noord-Brabant,VBO,4.771497,51.573049
Karel Doormanlaan,45,,,4819BK,Breda,Breda,Noord-Brabant,VBO,4.771673,51.573271
Karel Doormanlaan,46,,,4819BK,Breda,Breda,Noord-Brabant,VBO,4.771542,51.573044
Karel Doormanlaan,47,,,4819BK,Breda,Breda,Noord-Brabant,VBO,4.771718,51.573265
Karel Doormanlaan,48,,,4819BK,Breda,Breda,Noord-Brabant,VBO,4.771592,51.573036
Karel Doormanlaan,49,,,4819BK,Breda,Breda,Noord-Brabant,VBO,4.771771,51.573257
Karel Doormanlaan,50,,,4819BK,Breda,Breda,Noord-Brabant,VBO,4.771635,51.573030
Karel Doormanlaan,51,,,4819BK,Breda,Breda,Noord-Brabant,VBO,4.771821,51.573250
Karel Doormanlaan,52,,,4819BK,Breda,Breda,Noord-Brabant,VBO,4.771690,51.573026
Karel Doormanlaan,53,,,4819BK,Breda,Breda,Noord-Brabant,VBO,4.771870,51.573243
Karel Doormanlaan,54,,,4819BK,Breda,Breda,Noord-Brabant,VBO,4.771734,51.573017
Karel Doormanlaan,55,,,4819BK,Breda,Breda,Noord-Brabant,VBO,4.771918,51.573243
Karel Doormanlaan,56,,,4819BK,Breda,Breda,Noord-Brabant,VBO,4.771786,51.573008
Karel Doormanlaan,58,,,4819BK,Breda,Breda,Noord-Brabant,VBO,4.771836,51.573002
Verhuellweg,1,,,4819BL,Breda,Breda,Noord-Brabant,VBO,4.771237,51.573023
Verhuellweg,2,,,4819BL,Breda,Breda,Noord-Brabant,VBO,4.770849,51.573079
Verhuellweg,3,,,4819BL,Breda,Breda,Noord-Brabant,VBO,4.771217,51.572969
Verhuellweg,4,,,4819BL,Breda,Breda,Noord-Brabant,VBO,4.770830,51.573023
Verhuellweg,5,,,4819BL,Breda,Breda,Noord-Brabant,VBO,4.771197,51.572914
Verhuellweg,6,,,4819BL,Breda,Breda,Noord-Brabant,VBO,4.770810,51.572969
Verhuellweg,7,,,4819BL,Breda,Breda,Noord-Brabant,VBO,4.771178,51.572859
Verhuellweg,8,,,4819BL,Breda,Breda,Noord-Brabant,VBO,4.770790,51.572914
Verhuellweg,9,,,4819BL,Breda,Breda,Noord-Brabant,VBO,4.771158,51.572805
Verhuellweg,10,,,4819BL,Breda,Breda,Noord-Brabant,VBO,4.770771,51.572859
Verhuellweg,11,,,4819BL,Breda,Breda,Noord-Brabant,VBO,4.771138,51.572750
Verhuellweg,12,,,4819BL,Breda,Breda,Noord-Brabant,VBO,4.770751,51.572804
Verhuellweg,13,,,4819BL,Breda,Breda,Noord-Brabant,VBO,4.771118,51.572696
Verhuellweg,15,,G01,4819BL,Breda,Breda,Noord-Brabant,VBO,4.771193,51.572564
Verhuellweg,15,,G02,4819BL,Breda,Breda,Noord-Brabant,VBO,4.771185,51.572537
Verhuellweg,15,,G03,4819BL,Breda,Breda,Noord-Brabant,VBO,4.771175,51.572505
Verhuellweg,15,,G04,4819BL,Breda,Breda,Noord-Brabant,VBO,4.771160,51.572478
Verhuellweg,15,,G05,4819BL,Breda,Breda,Noord-Brabant,VBO,4.771114,51.572462
Verhuellweg,15,,G06,4819BL,Breda,Breda,Noord-Brabant,VBO,4.771056,51.572460
Verhuellweg,15,,G07,4819BL,Breda,Breda,Noord-Brabant,VBO,4.771013,51.572460
Verhuellweg,15,,G08,4819BL,Breda,Breda,Noord-Brabant,VBO,4.770970,51.572459
Verhuellweg,15,,G09,4819BL,Breda,Breda,Noord-Brabant,VBO,4.770926,51.572468
Verhuellweg,15,,G10,4819BL,Breda,Breda,Noord-Brabant,VBO,4.770883,51.572477
Verhuellweg,15,,,4819BL,Breda,Breda,Noord-Brabant,VBO,4.771095,51.572635
Verhuellweg,17,,,4819BL,Breda,Breda,Noord-Brabant,VBO,4.770746,51.572579
Verhuellweg,19,,,4819BL,Breda,Breda,Noord-Brabant,VBO,4.770656,51.572588
Verhuellweg,21,,,4819BL,Breda,Breda,Noord-Brabant,VBO,4.770567,51.572596
Verhuellweg,23,,,4819BL,Breda,Breda,Noord-Brabant,VBO,4.770478,51.572605
Verhuellweg,25,,,4819BL,Breda,Breda,Noord-Brabant,VBO,4.770390,51.572613
Verhuellweg,27,,,4819BL,Breda,Breda,Noord-Brabant,VBO,4.770301,51.572622
Verhuellweg,29,,,4819BL,Breda,Breda,Noord-Brabant,VBO,4.770212,51.572630
Verhuellweg,31,,,4819BL,Breda,Breda,Noord-Brabant,VBO,4.770122,51.572639
van Speykweg,1,,,4819BM,Breda,Breda,Noord-Brabant,VBO,4.770419,51.573139
van Speykweg,2,,,4819BM,Breda,Breda,Noord-Brabant,VBO,4.769850,51.572874
van Speykweg,3,,,4819BM,Breda,Breda,Noord-Brabant,VBO,4.770399,51.573084
van Speykweg,4,,,4819BM,Breda,Breda,Noord-Brabant,VBO,4.769830,51.572819
van Speykweg,5,,,4819BM,Breda,Breda,Noord-Brabant,VBO,4.770380,51.573029
van Speykweg,6,,,4819BM,Breda,Breda,Noord-Brabant,VBO,4.769810,51.572765
van Speykweg,7,,,4819BM,Breda,Breda,Noord-Brabant,VBO,4.770360,51.572975
van Speykweg,8,,,4819BM,Breda,Breda,Noord-Brabant,VBO,4.769791,51.572711
van Speykweg,9,,,4819BM,Breda,Breda,Noord-Brabant,VBO,4.770340,51.572920
van Speykweg,10,,,4819BM,Breda,Breda,Noord-Brabant,VBO,4.769771,51.572656
van Speykweg,11,,,4819BM,Breda,Breda,Noord-Brabant,VBO,4.770321,51.572865
van Speykweg,12,,,4819BM,Breda,Breda,Noord-Brabant,VBO,4.769751,51.572601
Graaf Engelbertlaan,2,,,4819BN,Breda,Breda,Noord-Brabant,VBO,4.776943,51.572066
Graaf Engelbertlaan,4,,,4819BN,Breda,Breda,Noord-Brabant,VBO,4.776585,51.572028
Graaf Engelbertlaan,6,A,G01,4819BN,Breda,Breda,Noord-Brabant,VBO,4.776268,51.572316
Graaf Engelbertlaan,6,A,G02,4819BN,Breda,Breda,Noord-Brabant,VBO,4.776308,51.572307
Graaf Engelbertlaan,6,A,G03,4819BN,Breda,Breda,Noord-Brabant,VBO,4.776344,51.572297
Graaf Engelbertlaan,6,A,G04,4819BN,Breda,Breda,Noord-Brabant,VBO,4.776385,51.572288
Graaf Engelbertlaan,6,A,G05,4819BN,Breda,Breda,Noord-Brabant,VBO,4.776427,51.572279
Graaf Engelbertlaan,6,A,G06,4819BN,Breda,Breda,Noord-Brabant,VBO,4.776473,51.572272
Graaf Engelbertlaan,6,,,4819BN,Breda,Breda,Noord-Brabant,VBO,4.776483,51.572018
Graaf Engelbertlaan,8,,,4819BN,Breda,Breda,Noord-Brabant,VBO,4.776249,51.571993
Graaf Engelbertlaan,10,,,4819BN,Breda,Breda,Noord-Brabant,VBO,4.776147,51.571983
Graaf Engelbertlaan,14,,,4819BN,Breda,Breda,Noord-Brabant,VBO,4.775222,51.572020
Graaf Engelbertlaan,16,,,4819BN,Breda,Breda,Noord-Brabant,VBO,4.775120,51.572023
Graaf Engelbertlaan,18,,,4819BN,Breda,Breda,Noord-Brabant,VBO,4.774920,51.572025
Graaf Engelbertlaan,20,,,4819BN,Breda,Breda,Noord-Brabant,VBO,4.774811,51.572027
Graaf Engelbertlaan,22,,,4819BN,Breda,Breda,Noord-Brabant,VBO,4.774617,51.572029
Graaf Engelbertlaan,24,,,4819BN,Breda,Breda,Noord-Brabant,VBO,4.774511,51.572031
Graaf Engelbertlaan,26,,,4819BN,Breda,Breda,Noord-Brabant,VBO,4.774319,51.572031
Graaf Engelbertlaan,28,,,4819BN,Breda,Breda,Noord-Brabant,VBO,4.774212,51.572033
Graaf Engelbertlaan,30,,,4819BN,Breda,Breda,Noord-Brabant,VBO,4.773968,51.572029
Graaf Engelbertlaan,32,,,4819BN,Breda,Breda,Noord-Brabant,VBO,4.773864,51.572030
Graaf Engelbertlaan,34,,,4819BN,Breda,Breda,Noord-Brabant,VBO,4.773649,51.572033
Graaf Engelbertlaan,36,,,4819BN,Breda,Breda,Noord-Brabant,VBO,4.773531,51.572034
Graaf Engelbertlaan,62,,,4819BN,Breda,Breda,Noord-Brabant,VBO,4.771500,51.572180
Graaf Engelbertlaan,64,,,4819BN,Breda,Breda,Noord-Brabant,VBO,4.771457,51.572188
Graaf Engelbertlaan,66,,,4819BN,Breda,Breda,Noord-Brabant,VBO,4.771413,51.572188
Graaf Engelbertlaan,68,,,4819BN,Breda,Breda,Noord-Brabant,VBO,4.771370,51.572197
Graaf Engelbertlaan,70,,,4819BN,Breda,Breda,Noord-Brabant,VBO,4.771327,51.572197
Graaf Engelbertlaan,72,,,4819BN,Breda,Breda,Noord-Brabant,VBO,4.771298,51.572206
Graaf Engelbertlaan,74,,,4819BP,Breda,Breda,Noord-Brabant,VBO,4.771211,51.572257
Graaf Engelbertlaan,76,,,4819BP,Breda,Breda,Noord-Brabant,VBO,4.771121,51.572265
Graaf Engelbertlaan,78,,,4819BP,Breda,Breda,Noord-Brabant,VBO,4.771032,51.572273
Graaf Engelbertlaan,80,,,4819BP,Breda,Breda,Noord-Brabant,VBO,4.770943,51.572281
Graaf Engelbertlaan,82,,,4819BP,Breda,Breda,Noord-Brabant,VBO,4.770854,51.572289
Graaf Engelbertlaan,84,,,4819BP,Breda,Breda,Noord-Brabant,VBO,4.770765,51.572298
Graaf Engelbertlaan,86,,,4819BP,Breda,Breda,Noord-Brabant,VBO,4.770676,51.572306
Graaf Engelbertlaan,88,,,4819BP,Breda,Breda,Noord-Brabant,VBO,4.770587,51.572314
Graaf Engelbertlaan,90,,,4819BP,Breda,Breda,Noord-Brabant,VBO,4.770499,51.572322
Graaf Engelbertlaan,92,,,4819BP,Breda,Breda,Noord-Brabant,VBO,4.770410,51.572330
Graaf Engelbertlaan,94,,,4819BP,Breda,Breda,Noord-Brabant,VBO,4.770321,51.572338
Graaf Engelbertlaan,96,,,4819BP,Breda,Breda,Noord-Brabant,VBO,4.770232,51.572346
Graaf Engelbertlaan,98,,,4819BP,Breda,Breda,Noord-Brabant,VBO,4.770143,51.572354
Graaf Engelbertlaan,100,,,4819BP,Breda,Breda,Noord-Brabant,VBO,4.770053,51.572363
Graaf Engelbertlaan,102,,,4819BP,Breda,Breda,Noord-Brabant,VBO,4.769701,51.572397
Graaf Engelbertlaan,104,,,4819BP,Breda,Breda,Noord-Brabant,VBO,4.769602,51.572406
Graaf Engelbertlaan,106,,,4819BP,Breda,Breda,Noord-Brabant,VBO,4.769513,51.572415
Graaf Engelbertlaan,108,,,4819BP,Breda,Breda,Noord-Brabant,VBO,4.769410,51.572424
Graaf Engelbertlaan,110,,,4819BP,Breda,Breda,Noord-Brabant,VBO,4.769315,51.572438
Graaf Engelbertlaan,112,,,4819BP,Breda,Breda,Noord-Brabant,VBO,4.769257,51.572447
Graaf Engelbertlaan,114,,,4819BP,Breda,Breda,Noord-Brabant,VBO,4.769214,51.572447
Graaf Engelbertlaan,116,,,4819BP,Breda,Breda,Noord-Brabant,VBO,4.769170,51.572455
Graaf Hendrik III laan,1,,,4819CA,Breda,Breda,Noord-Brabant,VBO,4.770909,51.578546
Graaf Hendrik III laan,3,,,4819CA,Breda,Breda,Noord-Brabant,VBO,4.770855,51.578297
Graaf Hendrik III laan,5,,,4819CA,Breda,Breda,Noord-Brabant,VBO,4.770854,51.578245
Graaf Hendrik III laan,7,,,4819CA,Breda,Breda,Noord-Brabant,VBO,4.770853,51.578193
Graaf Hendrik III laan,9,,,4819CA,Breda,Breda,Noord-Brabant,VBO,4.770853,51.578142
Graaf Hendrik III laan,11,,,4819CA,Breda,Breda,Noord-Brabant,VBO,4.770852,51.578092
Graaf Hendrik III laan,13,,,4819CA,Breda,Breda,Noord-Brabant,VBO,4.770851,51.578039
Graaf Hendrik III laan,15,,,4819CA,Breda,Breda,Noord-Brabant,VBO,4.770850,51.577983
Graaf Hendrik III laan,63,,,4819CA,Breda,Breda,Noord-Brabant,VBO,4.770594,51.576780
Graaf Hendrik III laan,65,A,,4819CA,Breda,Breda,Noord-Brabant,VBO,4.770619,51.576713
Graaf Hendrik III laan,65,B,,4819CA,Breda,Breda,Noord-Brabant,VBO,4.770559,51.576694
Graaf Hendrik III laan,65,C,,4819CA,Breda,Breda,Noord-Brabant,VBO,4.770613,51.576692
Graaf Hendrik III laan,65,,,4819CA,Breda,Breda,Noord-Brabant,VBO,4.770567,51.576718
Graaf Hendrik III laan,67,A,,4819CA,Breda,Breda,Noord-Brabant,VBO,4.770600,51.576645
Graaf Hendrik III laan,67,B,,4819CA,Breda,Breda,Noord-Brabant,VBO,4.770531,51.576623
Graaf Hendrik III laan,67,C,,4819CA,Breda,Breda,Noord-Brabant,VBO,4.770587,51.576620
Graaf Hendrik III laan,67,,,4819CA,Breda,Breda,Noord-Brabant,VBO,4.770542,51.576650
Graaf Hendrik III laan,69,A,,4819CA,Breda,Breda,Noord-Brabant,VBO,4.770566,51.576559
Graaf Hendrik III laan,69,B,,4819CA,Breda,Breda,Noord-Brabant,VBO,4.770499,51.576538
Graaf Hendrik III laan,69,C,,4819CA,Breda,Breda,Noord-Brabant,VBO,4.770560,51.576534
Graaf Hendrik III laan,69,,,4819CA,Breda,Breda,Noord-Brabant,VBO,4.770510,51.576564
Graaf Hendrik III laan,71,A,,4819CA,Breda,Breda,Noord-Brabant,VBO,4.770523,51.576475
Graaf Hendrik III laan,71,B,,4819CA,Breda,Breda,Noord-Brabant,VBO,4.770466,51.576455
Graaf Hendrik III laan,71,C,,4819CA,Breda,Breda,Noord-Brabant,VBO,4.770519,51.576451
Graaf Hendrik III laan,71,,,4819CA,Breda,Breda,Noord-Brabant,VBO,4.770472,51.576478
Graaf Hendrik III laan,73,A,,4819CB,Breda,Breda,Noord-Brabant,VBO,4.770493,51.576387
Graaf Hendrik III laan,73,B,,4819CB,Breda,Breda,Noord-Brabant,VBO,4.770432,51.576366
Graaf Hendrik III laan,73,C,,4819CB,Breda,Breda,Noord-Brabant,VBO,4.770487,51.576362
Graaf Hendrik III laan,73,,,4819CB,Breda,Breda,Noord-Brabant,VBO,4.770440,51.576391
Graaf Hendrik III laan,75,A,,4819CB,Breda,Breda,Noord-Brabant,VBO,4.770455,51.576297
Graaf Hendrik III laan,75,B,,4819CB,Breda,Breda,Noord-Brabant,VBO,4.770403,51.576276
Graaf Hendrik III laan,75,C,,4819CB,Breda,Breda,Noord-Brabant,VBO,4.770453,51.576272
Graaf Hendrik III laan,75,,,4819CB,Breda,Breda,Noord-Brabant,VBO,4.770407,51.576300
Graaf Hendrik III laan,77,A,,4819CB,Breda,Breda,Noord-Brabant,VBO,4.770421,51.576200
Graaf Hendrik III laan,77,B,,4819CB,Breda,Breda,Noord-Brabant,VBO,4.770368,51.576179
Graaf Hendrik III laan,77,C,,4819CB,Breda,Breda,Noord-Brabant,VBO,4.770416,51.576173
Graaf Hendrik III laan,77,,,4819CB,Breda,Breda,Noord-Brabant,VBO,4.770374,51.576203
Graaf Hendrik III laan,79,A,,4819CB,Breda,Breda,Noord-Brabant,VBO,4.770389,51.576132
Graaf Hendrik III laan,79,B,,4819CB,Breda,Breda,Noord-Brabant,VBO,4.770336,51.576115
Graaf Hendrik III laan,79,C,,4819CB,Breda,Breda,Noord-Brabant,VBO,4.770386,51.576108
Graaf Hendrik III laan,79,,,4819CB,Breda,Breda,Noord-Brabant,VBO,4.770344,51.576137
Graaf Hendrik III laan,83,,,4819CB,Breda,Breda,Noord-Brabant,VBO,4.770274,51.576064
Graaf Hendrik III laan,85,,,4819CB,Breda,Breda,Noord-Brabant,VBO,4.770269,51.576043
Graaf Hendrik III laan,87,,,4819CB,Breda,Breda,Noord-Brabant,VBO,4.770250,51.575989
Graaf Hendrik III laan,89,,,4819CB,Breda,Breda,Noord-Brabant,VBO,4.770260,51.576018
Graaf Hendrik III laan,91,,,4819CB,Breda,Breda,Noord-Brabant,VBO,4.770331,51.575935
Graaf Hendrik III laan,93,,,4819CB,Breda,Breda,Noord-Brabant,VBO,4.770205,51.575583
Graaf Hendrik III laan,95,,,4819CB,Breda,Breda,Noord-Brabant,VBO,4.770081,51.575530
Graaf Hendrik III laan,97,,,4819CB,Breda,Breda,Noord-Brabant,VBO,4.770074,51.575507
Graaf Hendrik III laan,99,,,4819CB,Breda,Breda,Noord-Brabant,VBO,4.770066,51.575481
Graaf Hendrik III laan,101,,,4819CB,Breda,Breda,Noord-Brabant,VBO,4.770059,51.575459
Graaf Hendrik III laan,105,A,,4819CB,Breda,Breda,Noord-Brabant,VBO,4.770118,51.575397
Graaf Hendrik III laan,105,B,,4819CB,Breda,Breda,Noord-Brabant,VBO,4.770062,51.575377
Graaf Hendrik III laan,105,C,,4819CB,Breda,Breda,Noord-Brabant,VBO,4.770115,51.575371
Graaf Hendrik III laan,105,,,4819CB,Breda,Breda,Noord-Brabant,VBO,4.770069,51.575402
Graaf Hendrik III laan,107,A,,4819CB,Breda,Breda,Noord-Brabant,VBO,4.770093,51.575315
Graaf Hendrik III laan,107,B,,4819CB,Breda,Breda,Noord-Brabant,VBO,4.770035,51.575293
Graaf Hendrik III laan,107,C,,4819CB,Breda,Breda,Noord-Brabant,VBO,4.770091,51.575284
Graaf Hendrik III laan,107,,,4819CB,Breda,Breda,Noord-Brabant,VBO,4.770040,51.575325
Graaf Hendrik III laan,109,A,,4819CC,Breda,Breda,Noord-Brabant,VBO,4.770076,51.575239
Graaf Hendrik III laan,109,B,,4819CC,Breda,Breda,Noord-Brabant,VBO,4.770008,51.575212
Graaf Hendrik III laan,109,C,,4819CC,Breda,Breda,Noord-Brabant,VBO,4.770072,51.575203
Graaf Hendrik III laan,109,,,4819CC,Breda,Breda,Noord-Brabant,VBO,4.770016,51.575246
Graaf Hendrik III laan,111,A,,4819CC,Breda,Breda,Noord-Brabant,VBO,4.770037,51.575156
Graaf Hendrik III laan,111,B,,4819CC,Breda,Breda,Noord-Brabant,VBO,4.769975,51.575132
Graaf Hendrik III laan,111,C,,4819CC,Breda,Breda,Noord-Brabant,VBO,4.770025,51.575124
Graaf Hendrik III laan,111,,,4819CC,Breda,Breda,Noord-Brabant,VBO,4.769986,51.575164
Graaf Hendrik III laan,113,A,,4819CC,Breda,Breda,Noord-Brabant,VBO,4.770001,51.575079
Graaf Hendrik III laan,113,B,,4819CC,Breda,Breda,Noord-Brabant,VBO,4.769945,51.575050
Graaf Hendrik III laan,113,C,,4819CC,Breda,Breda,Noord-Brabant,VBO,4.769996,51.575043
Graaf Hendrik III laan,113,,,4819CC,Breda,Breda,Noord-Brabant,VBO,4.769957,51.575085
Graaf Hendrik III laan,115,A,,4819CC,Breda,Breda,Noord-Brabant,VBO,4.769973,51.575000
Graaf Hendrik III laan,115,B,,4819CC,Breda,Breda,Noord-Brabant,VBO,4.769919,51.574977
Graaf Hendrik III laan,115,C,,4819CC,Breda,Breda,Noord-Brabant,VBO,4.769969,51.574969
Graaf Hendrik III laan,115,,,4819CC,Breda,Breda,Noord-Brabant,VBO,4.769928,51.575009
Graaf Hendrik III laan,117,A,,4819CC,Breda,Breda,Noord-Brabant,VBO,4.769947,51.574921
Graaf Hendrik III laan,117,B,,4819CC,Breda,Breda,Noord-Brabant,VBO,4.769886,51.574891
Graaf Hendrik III laan,117,C,,4819CC,Breda,Breda,Noord-Brabant,VBO,4.769937,51.574883
Graaf Hendrik III laan,117,,,4819CC,Breda,Breda,Noord-Brabant,VBO,4.769898,51.574928
Graaf Hendrik III laan,119,A,,4819CC,Breda,Breda,Noord-Brabant,VBO,4.769912,51.574839
Graaf Hendrik III laan,119,B,,4819CC,Breda,Breda,Noord-Brabant,VBO,4.769857,51.574811
Graaf Hendrik III laan,119,C,,4819CC,Breda,Breda,Noord-Brabant,VBO,4.769904,51.574804
Graaf Hendrik III laan,119,,,4819CC,Breda,Breda,Noord-Brabant,VBO,4.769867,51.574848
Graaf Hendrik III laan,121,,,4819CC,Breda,Breda,Noord-Brabant,VBO,4.769929,51.574752
Graaf Hendrik III laan,123,,,4819CD,Breda,Breda,Noord-Brabant,VBO,4.769775,51.574471
Graaf Hendrik III laan,125,A,,4819CD,Breda,Breda,Noord-Brabant,VBO,4.769769,51.574417
Graaf Hendrik III laan,125,B,,4819CD,Breda,Breda,Noord-Brabant,VBO,4.769709,51.574390
Graaf Hendrik III laan,125,C,,4819CD,Breda,Breda,Noord-Brabant,VBO,4.769769,51.574386
Graaf Hendrik III laan,125,,,4819CD,Breda,Breda,Noord-Brabant,VBO,4.769714,51.574422
Graaf Hendrik III laan,127,A,,4819CD,Breda,Breda,Noord-Brabant,VBO,4.769746,51.574329
Graaf Hendrik III laan,127,B,,4819CD,Breda,Breda,Noord-Brabant,VBO,4.769681,51.574307
Graaf Hendrik III laan,127,C,,4819CD,Breda,Breda,Noord-Brabant,VBO,4.769737,51.574298
Graaf Hendrik III laan,127,,,4819CD,Breda,Breda,Noord-Brabant,VBO,4.769691,51.574337
Graaf Hendrik III laan,129,A,,4819CD,Breda,Breda,Noord-Brabant,VBO,4.769716,51.574246
Graaf Hendrik III laan,129,B,,4819CD,Breda,Breda,Noord-Brabant,VBO,4.769651,51.574219
Graaf Hendrik III laan,129,C,,4819CD,Breda,Breda,Noord-Brabant,VBO,4.769707,51.574211
Graaf Hendrik III laan,129,,,4819CD,Breda,Breda,Noord-Brabant,VBO,4.769661,51.574251
Graaf Hendrik III laan,131,A,,4819CD,Breda,Breda,Noord-Brabant,VBO,4.769683,51.574167
Graaf Hendrik III laan,131,B,,4819CD,Breda,Breda,Noord-Brabant,VBO,4.769619,51.574134
Graaf Hendrik III laan,131,C,,4819CD,Breda,Breda,Noord-Brabant,VBO,4.769673,51.574130
Graaf Hendrik III laan,131,,,4819CD,Breda,Breda,Noord-Brabant,VBO,4.769630,51.574171
Graaf Hendrik III laan,133,A,,4819CD,Breda,Breda,Noord-Brabant,VBO,4.769653,51.574082
Graaf Hendrik III laan,133,B,,4819CD,Breda,Breda,Noord-Brabant,VBO,4.769589,51.574058
Graaf Hendrik III laan,133,C,,4819CD,Breda,Breda,Noord-Brabant,VBO,4.769643,51.574054
Graaf Hendrik III laan,133,,,4819CD,Breda,Breda,Noord-Brabant,VBO,4.769598,51.574087
Graaf Hendrik III laan,135,A,,4819CD,Breda,Breda,Noord-Brabant,VBO,4.769630,51.574008
Graaf Hendrik III laan,135,B,,4819CD,Breda,Breda,Noord-Brabant,VBO,4.769565,51.573984
Graaf Hendrik III laan,135,C,,4819CD,Breda,Breda,Noord-Brabant,VBO,4.769621,51.573980
Graaf Hendrik III laan,135,,,4819CD,Breda,Breda,Noord-Brabant,VBO,4.769575,51.574015
Graaf Hendrik III laan,137,A,,4819CE,Breda,Breda,Noord-Brabant,VBO,4.769600,51.573939
Graaf Hendrik III laan,137,B,,4819CE,Breda,Breda,Noord-Brabant,VBO,4.769540,51.573910
Graaf Hendrik III laan,137,C,,4819CE,Breda,Breda,Noord-Brabant,VBO,4.769596,51.573905
Graaf Hendrik III laan,137,,,4819CE,Breda,Breda,Noord-Brabant,VBO,4.769547,51.573944
Graaf Hendrik III laan,139,A,,4819CE,Breda,Breda,Noord-Brabant,VBO,4.769581,51.573861
Graaf Hendrik III laan,139,B,,4819CE,Breda,Breda,Noord-Brabant,VBO,4.769510,51.573835
Graaf Hendrik III laan,139,C,,4819CE,Breda,Breda,Noord-Brabant,VBO,4.769570,51.573828
Graaf Hendrik III laan,139,,,4819CE,Breda,Breda,Noord-Brabant,VBO,4.769523,51.573866
Graaf Hendrik III laan,141,,,4819CE,Breda,Breda,Noord-Brabant,VBO,4.769451,51.573768
Graaf Hendrik III laan,143,,,4819CE,Breda,Breda,Noord-Brabant,VBO,4.769414,51.573738
Graaf Hendrik III laan,145,,,4819CE,Breda,Breda,Noord-Brabant,VBO,4.769400,51.573711
Graaf Hendrik III laan,147,,,4819CE,Breda,Breda,Noord-Brabant,VBO,4.769400,51.573684
Graaf Hendrik III laan,149,,,4819CE,Breda,Breda,Noord-Brabant,VBO,4.769250,51.573297
Graaf Hendrik III laan,151,,,4819CE,Breda,Breda,Noord-Brabant,VBO,4.769238,51.573277
Graaf Hendrik III laan,153,,,4819CE,Breda,Breda,Noord-Brabant,VBO,4.769224,51.573241
Graaf Hendrik III laan,155,,,4819CE,Breda,Breda,Noord-Brabant,VBO,4.769241,51.573193
Graaf Hendrik III laan,157,A,,4819CE,Breda,Breda,Noord-Brabant,VBO,4.769227,51.573089
Graaf Hendrik III laan,157,B,,4819CE,Breda,Breda,Noord-Brabant,VBO,4.769282,51.573113
Graaf Hendrik III laan,157,C,,4819CE,Breda,Breda,Noord-Brabant,VBO,4.769280,51.573084
Graaf Hendrik III laan,157,,,4819CE,Breda,Breda,Noord-Brabant,VBO,4.769236,51.573118
Graaf Hendrik III laan,159,A,,4819CE,Breda,Breda,Noord-Brabant,VBO,4.769211,51.573010
Graaf Hendrik III laan,159,B,,4819CE,Breda,Breda,Noord-Brabant,VBO,4.769268,51.573034
Graaf Hendrik III laan,159,C,,4819CE,Breda,Breda,Noord-Brabant,VBO,4.769268,51.573007
Graaf Hendrik III laan,159,,,4819CE,Breda,Breda,Noord-Brabant,VBO,4.769215,51.573040
Graaf Hendrik III laan,161,A,,4819CE,Breda,Breda,Noord-Brabant,VBO,4.769183,51.572940
Graaf Hendrik III laan,161,B,,4819CE,Breda,Breda,Noord-Brabant,VBO,4.769248,51.572963
Graaf Hendrik III laan,161,C,,4819CE,Breda,Breda,Noord-Brabant,VBO,4.769236,51.572936
Graaf Hendrik III laan,161,,,4819CE,Breda,Breda,Noord-Brabant,VBO,4.769190,51.572968
Graaf Hendrik III laan,163,A,,4819CE,Breda,Breda,Noord-Brabant,VBO,4.769153,51.572859
Graaf Hendrik III laan,163,B,,4819CE,Breda,Breda,Noord-Brabant,VBO,4.769215,51.572882
Graaf Hendrik III laan,163,C,,4819CE,Breda,Breda,Noord-Brabant,VBO,4.769211,51.572854
Graaf Hendrik III laan,163,,,4819CE,Breda,Breda,Noord-Brabant,VBO,4.769165,51.572889
Graaf Hendrik III laan,165,A,,4819CG,Breda,Breda,Noord-Brabant,VBO,4.769128,51.572783
Graaf Hendrik III laan,165,B,,4819CG,Breda,Breda,Noord-Brabant,VBO,4.769192,51.572809
Graaf Hendrik III laan,165,C,,4819CG,Breda,Breda,Noord-Brabant,VBO,4.769183,51.572780
Graaf Hendrik III laan,165,,,4819CG,Breda,Breda,Noord-Brabant,VBO,4.769137,51.572813
Graaf Hendrik III laan,167,A,,4819CG,Breda,Breda,Noord-Brabant,VBO,4.769100,51.572707
Graaf Hendrik III laan,167,B,,4819CG,Breda,Breda,Noord-Brabant,VBO,4.769167,51.572736
Graaf Hendrik III laan,167,C,,4819CG,Breda,Breda,Noord-Brabant,VBO,4.769155,51.572704
Graaf Hendrik III laan,167,,,4819CG,Breda,Breda,Noord-Brabant,VBO,4.769107,51.572740
Graaf Hendrik III laan,169,A,,4819CG,Breda,Breda,Noord-Brabant,VBO,4.769073,51.572616
Graaf Hendrik III laan,169,B,,4819CG,Breda,Breda,Noord-Brabant,VBO,4.769132,51.572640
Graaf Hendrik III laan,169,C,,4819CG,Breda,Breda,Noord-Brabant,VBO,4.769126,51.572613
Graaf Hendrik III laan,169,,,4819CG,Breda,Breda,Noord-Brabant,VBO,4.769077,51.572644
Graaf Hendrik III laan,171,A,,4819CG,Breda,Breda,Noord-Brabant,VBO,4.769033,51.572535
Graaf Hendrik III laan,171,B,,4819CG,Breda,Breda,Noord-Brabant,VBO,4.769098,51.572559
Graaf Hendrik III laan,171,C,,4819CG,Breda,Breda,Noord-Brabant,VBO,4.769086,51.572531
Graaf Hendrik III laan,171,,,4819CG,Breda,Breda,Noord-Brabant,VBO,4.769045,51.572563
Graaf Hendrik III laan,173,,,4819CG,Breda,Breda,Noord-Brabant,VBO,4.769081,51.572475
Graaf Hendrik III laan,2,,,4819CH,Breda,Breda,Noord-Brabant,VBO,4.769915,51.578201
Graaf Hendrik III laan,4,,,4819CH,Breda,Breda,Noord-Brabant,VBO,4.769911,51.578022
Graaf Hendrik III laan,56,A,,4819CH,Breda,Breda,Noord-Brabant,VBO,4.769506,51.576847
Graaf Hendrik III laan,58,,,4819CH,Breda,Breda,Noord-Brabant,VBO,4.769463,51.576705
Graaf Hendrik III plein,17,A,,4819CJ,Breda,Breda,Noord-Brabant,VBO,4.770725,51.577652
Graaf Hendrik III plein,17,B,,4819CJ,Breda,Breda,Noord-Brabant,VBO,4.770717,51.577631
Graaf Hendrik III plein,19,A,,4819CJ,Breda,Breda,Noord-Brabant,VBO,4.770782,51.577644
Graaf Hendrik III plein,19,B,,4819CJ,Breda,Breda,Noord-Brabant,VBO,4.770772,51.577624
Graaf Hendrik III plein,21,A,,4819CJ,Breda,Breda,Noord-Brabant,VBO,4.770843,51.577638
Graaf Hendrik III plein,21,B,,4819CJ,Breda,Breda,Noord-Brabant,VBO,4.770835,51.577615
Graaf Hendrik III plein,21,,,4819CJ,Breda,Breda,Noord-Brabant,VBO,4.770853,51.577659
Graaf Hendrik III plein,23,A,,4819CJ,Breda,Breda,Noord-Brabant,VBO,4.770909,51.577629
Graaf Hendrik III plein,23,B,,4819CJ,Breda,Breda,Noord-Brabant,VBO,4.770900,51.577607
Graaf Hendrik III plein,25,A,,4819CJ,Breda,Breda,Noord-Brabant,VBO,4.770975,51.577619
Graaf Hendrik III plein,25,B,,4819CJ,Breda,Breda,Noord-Brabant,VBO,4.770965,51.577598
Graaf Hendrik III plein,25,,,4819CJ,Breda,Breda,Noord-Brabant,VBO,4.770987,51.577643
Graaf Hendrik III plein,27,A,,4819CJ,Breda,Breda,Noord-Brabant,VBO,4.771398,51.577625
Graaf Hendrik III plein,27,,,4819CJ,Breda,Breda,Noord-Brabant,VBO,4.771258,51.577644
Graaf Hendrik III plein,29,A,,4819CJ,Breda,Breda,Noord-Brabant,VBO,4.771349,51.577566
Graaf Hendrik III plein,29,,,4819CJ,Breda,Breda,Noord-Brabant,VBO,4.771237,51.577583
Graaf Hendrik III plein,31,A,,4819CJ,Breda,Breda,Noord-Brabant,VBO,4.771326,51.577519
Graaf Hendrik III plein,31,,,4819CJ,Breda,Breda,Noord-Brabant,VBO,4.771219,51.577526
Graaf Hendrik III plein,33,A,,4819CJ,Breda,Breda,Noord-Brabant,VBO,4.771307,51.577463
Graaf Hendrik III plein,33,,,4819CJ,Breda,Breda,Noord-Brabant,VBO,4.771205,51.577473
Graaf Hendrik III plein,35,A,,4819CJ,Breda,Breda,Noord-Brabant,VBO,4.771288,51.577413
Graaf Hendrik III plein,37,A,,4819CJ,Breda,Breda,Noord-Brabant,VBO,4.771274,51.577359
Graaf Hendrik III plein,39,A,,4819CJ,Breda,Breda,Noord-Brabant,VBO,4.771252,51.577299
Graaf Hendrik III plein,39,,,4819CJ,Breda,Breda,Noord-Brabant,VBO,4.771145,51.577312
Graaf Hendrik III plein,41,A,,4819CJ,Breda,Breda,Noord-Brabant,VBO,4.771238,51.577245
Graaf Hendrik III plein,43,A,,4819CK,Breda,Breda,Noord-Brabant,VBO,4.771210,51.577181
Graaf Hendrik III plein,45,A,,4819CK,Breda,Breda,Noord-Brabant,VBO,4.771199,51.577125
Graaf Hendrik III plein,45,,,4819CK,Breda,Breda,Noord-Brabant,VBO,4.771085,51.577140
Graaf Hendrik III plein,47,A,,4819CK,Breda,Breda,Noord-Brabant,VBO,4.771177,51.577075
Graaf Hendrik III plein,47,,,4819CK,Breda,Breda,Noord-Brabant,VBO,4.771065,51.577083
Graaf Hendrik III plein,49,A,,4819CK,Breda,Breda,Noord-Brabant,VBO,4.771171,51.577033
Graaf Hendrik III plein,49,,,4819CK,Breda,Breda,Noord-Brabant,VBO,4.771057,51.577046
Graaf Hendrik III plein,51,A,,4819CK,Breda,Breda,Noord-Brabant,VBO,4.771097,51.577004
Graaf Hendrik III plein,51,B,,4819CK,Breda,Breda,Noord-Brabant,VBO,4.771156,51.576996
Graaf Hendrik III plein,51,,,4819CK,Breda,Breda,Noord-Brabant,VBO,4.771042,51.577011
Graaf Hendrik III plein,53,A,,4819CK,Breda,Breda,Noord-Brabant,VBO,4.771027,51.576971
Graaf Hendrik III plein,53,B,,4819CK,Breda,Breda,Noord-Brabant,VBO,4.771079,51.576965
Graaf Hendrik III plein,6,,,4819CL,Breda,Breda,Noord-Brabant,VBO,4.769609,51.578011
Graaf Hendrik III plein,8,,,4819CL,Breda,Breda,Noord-Brabant,VBO,4.769523,51.578011
Graaf Hendrik III plein,10,,,4819CL,Breda,Breda,Noord-Brabant,VBO,4.769436,51.578012
Graaf Hendrik III plein,12,,,4819CL,Breda,Breda,Noord-Brabant,VBO,4.769349,51.578012
Graaf Hendrik III plein,14,,,4819CL,Breda,Breda,Noord-Brabant,VBO,4.769263,51.578012
Graaf Hendrik III plein,16,,,4819CL,Breda,Breda,Noord-Brabant,VBO,4.769176,51.578012
Graaf Hendrik III plein,18,,,4819CL,Breda,Breda,Noord-Brabant,VBO,4.769090,51.578012
Graaf Hendrik III plein,20,,,4819CL,Breda,Breda,Noord-Brabant,VBO,4.769003,51.578012
Graaf Hendrik III plein,22,,,4819CL,Breda,Breda,Noord-Brabant,VBO,4.768917,51.578012
Graaf Hendrik III plein,24,,,4819CL,Breda,Breda,Noord-Brabant,VBO,4.768827,51.578012
Graaf Hendrik III plein,28,,,4819CL,Breda,Breda,Noord-Brabant,VBO,4.768877,51.577671
Graaf Hendrik III plein,30,,,4819CL,Breda,Breda,Noord-Brabant,VBO,4.768756,51.577408
Graaf Hendrik III plein,32,,,4819CL,Breda,Breda,Noord-Brabant,VBO,4.768606,51.577086
Graaf Hendrik III plein,34,,,4819CL,Breda,Breda,Noord-Brabant,VBO,4.768690,51.577071
Graaf Hendrik III plein,36,,,4819CL,Breda,Breda,Noord-Brabant,VBO,4.768773,51.577056
Graaf Hendrik III plein,38,,,4819CL,Breda,Breda,Noord-Brabant,VBO,4.768856,51.577042
Graaf Hendrik III plein,40,,,4819CL,Breda,Breda,Noord-Brabant,VBO,4.768939,51.577027
Graaf Hendrik III plein,42,,,4819CL,Breda,Breda,Noord-Brabant,VBO,4.769022,51.577013
Graaf Hendrik III plein,44,,,4819CL,Breda,Breda,Noord-Brabant,VBO,4.769105,51.576998
Graaf Hendrik III plein,46,,,4819CL,Breda,Breda,Noord-Brabant,VBO,4.769188,51.576983
Graaf Hendrik III plein,48,,,4819CL,Breda,Breda,Noord-Brabant,VBO,4.769271,51.576969
Graaf Hendrik III plein,50,,,4819CL,Breda,Breda,Noord-Brabant,VBO,4.769355,51.576954
Graaf Hendrik III plein,52,,,4819CL,Breda,Breda,Noord-Brabant,VBO,4.769421,51.576892
Graaf Hendrik III plein,54,,,4819CL,Breda,Breda,Noord-Brabant,VBO,4.769464,51.576883
Graaf Hendrik III plein,56,,,4819CL,Breda,Breda,Noord-Brabant,VBO,4.769332,51.577340
Graaf Hendrik III plein,58,,,4819CL,Breda,Breda,Noord-Brabant,VBO,4.769374,51.577432
Graaf Hendrik III plein,60,,,4819CL,Breda,Breda,Noord-Brabant,VBO,4.769309,51.577345
Graaf Hendrik III plein,62,,,4819CL,Breda,Breda,Noord-Brabant,VBO,4.769350,51.577438
Graaf Hendrik III plein,64,,,4819CL,Breda,Breda,Noord-Brabant,VBO,4.769282,51.577349
Graaf Hendrik III plein,66,,,4819CL,Breda,Breda,Noord-Brabant,VBO,4.769329,51.577441
Graaf Hendrik III plein,68,,,4819CL,Breda,Breda,Noord-Brabant,VBO,4.769254,51.577355
Graaf Hendrik III plein,70,,,4819CL,Breda,Breda,Noord-Brabant,VBO,4.769299,51.577447
Graaf Hendrik III plein,72,,,4819CL,Breda,Breda,Noord-Brabant,VBO,4.769224,51.577359
Graaf Hendrik III plein,74,,,4819CL,Breda,Breda,Noord-Brabant,VBO,4.769273,51.577452
Graaf Hendrik III plein,76,,,4819CL,Breda,Breda,Noord-Brabant,VBO,4.769197,51.577366
Graaf Hendrik III plein,78,,,4819CL,Breda,Breda,Noord-Brabant,VBO,4.769260,51.577496
Graaf Hendrik III plein,80,,,4819CL,Breda,Breda,Noord-Brabant,VBO,4.769165,51.577368
Graaf Hendrik III plein,84,,,4819CL,Breda,Breda,Noord-Brabant,VBO,4.769413,51.577503
Graaf Hendrik III plein,86,,,4819CL,Breda,Breda,Noord-Brabant,VBO,4.769460,51.577611
Graaf Hendrik III plein,88,,,4819CL,Breda,Breda,Noord-Brabant,VBO,4.769383,51.577510
Graaf Hendrik III plein,90,,,4819CL,Breda,Breda,Noord-Brabant,VBO,4.769439,51.577613
Graaf Hendrik III plein,92,,,4819CL,Breda,Breda,Noord-Brabant,VBO,4.769361,51.577512
Graaf Hendrik III plein,94,,,4819CL,Breda,Breda,Noord-Brabant,VBO,4.769411,51.577618
Graaf Hendrik III plein,96,,,4819CL,Breda,Breda,Noord-Brabant,VBO,4.769333,51.577518
Graaf Hendrik III plein,98,,,4819CL,Breda,Breda,Noord-Brabant,VBO,4.769381,51.577623
Graaf Hendrik III plein,100,,,4819CL,Breda,Breda,Noord-Brabant,VBO,4.769304,51.577525
Graaf Hendrik III plein,102,,,4819CL,Breda,Breda,Noord-Brabant,VBO,4.769351,51.577629
Graaf Hendrik III plein,104,,,4819CL,Breda,Breda,Noord-Brabant,VBO,4.769322,51.577633
Graaf Hendrik III plein,106,,,4819CL,Breda,Breda,Noord-Brabant,VBO,4.769291,51.577638
Graaf Hendrik III plein,108,,,4819CL,Breda,Breda,Noord-Brabant,VBO,4.769229,51.577502
Graaf Hendrik III plein,110,,,4819CL,Breda,Breda,Noord-Brabant,VBO,4.768455,51.577832
Graaf Hendrik III plein,112,,,4819CL,Breda,Breda,Noord-Brabant,VBO,4.768432,51.577780
Graaf Hendrik III plein,114,,,4819CL,Breda,Breda,Noord-Brabant,VBO,4.768409,51.577728
Graaf Hendrik III plein,116,,,4819CL,Breda,Breda,Noord-Brabant,VBO,4.768386,51.577676
Graaf Hendrik III plein,118,,,4819CL,Breda,Breda,Noord-Brabant,VBO,4.768363,51.577624
Graaf Hendrik III plein,120,,,4819CL,Breda,Breda,Noord-Brabant,VBO,4.768469,51.577661
Graaf Hendrik III plein,122,,,4819CL,Breda,Breda,Noord-Brabant,VBO,4.768492,51.577713
Graaf Hendrik III plein,124,,,4819CL,Breda,Breda,Noord-Brabant,VBO,4.768515,51.577765
Graaf Hendrik III plein,126,,,4819CL,Breda,Breda,Noord-Brabant,VBO,4.768538,51.577817
Graaf Hendrik III plein,128,,,4819CL,Breda,Breda,Noord-Brabant,VBO,4.768557,51.577758
Graaf Hendrik III plein,130,,,4819CL,Breda,Breda,Noord-Brabant,VBO,4.768534,51.577706
Graaf Hendrik III plein,132,,A1,4819CL,Breda,Breda,Noord-Brabant,VBO,4.768381,51.577564
Graaf Hendrik III plein,132,,A3,4819CL,Breda,Breda,Noord-Brabant,VBO,4.768465,51.577550
Graaf Hendrik III plein,132,,A4,4819CL,Breda,Breda,Noord-Brabant,VBO,4.768358,51.577512
Graaf Hendrik III plein,132,,A5,4819CL,Breda,Breda,Noord-Brabant,VBO,4.768400,51.577505
Graaf Hendrik III plein,132,,A6,4819CL,Breda,Breda,Noord-Brabant,VBO,4.768442,51.577498
Graaf Hendrik III plein,132,,,4819CL,Breda,Breda,Noord-Brabant,VBO,4.768446,51.577609
Graaf Hendrik III plein,134,,,4819CL,Breda,Breda,Noord-Brabant,VBO,4.768251,51.577475
Graaf Hendrik III plein,136,,,4819CL,Breda,Breda,Noord-Brabant,VBO,4.768168,51.577489
Graaf Hendrik III plein,138,,,4819CL,Breda,Breda,Noord-Brabant,VBO,4.768085,51.577504
Graaf Hendrik III plein,140,,,4819CL,Breda,Breda,Noord-Brabant,VBO,4.768001,51.577518
Graaf Hendrik III plein,142,,,4819CL,Breda,Breda,Noord-Brabant,VBO,4.767918,51.577532
Graaf Hendrik III plein,144,,,4819CL,Breda,Breda,Noord-Brabant,VBO,4.767834,51.577547
Graaf Hendrik III plein,146,,,4819CL,Breda,Breda,Noord-Brabant,VBO,4.767751,51.577561
Graaf Hendrik III plein,148,,,4819CL,Breda,Breda,Noord-Brabant,VBO,4.767667,51.577575
Graaf Hendrik III plein,150,,,4819CL,Breda,Breda,Noord-Brabant,VBO,4.768236,51.577440
Graaf Hendrik III plein,152,,,4819CL,Breda,Breda,Noord-Brabant,VBO,4.768153,51.577455
Graaf Hendrik III plein,154,,,4819CL,Breda,Breda,Noord-Brabant,VBO,4.768069,51.577469
Graaf Hendrik III plein,156,,,4819CL,Breda,Breda,Noord-Brabant,VBO,4.767986,51.577483
Graaf Hendrik III plein,158,,,4819CL,Breda,Breda,Noord-Brabant,VBO,4.767902,51.577498
Graaf Hendrik III plein,160,,,4819CL,Breda,Breda,Noord-Brabant,VBO,4.767819,51.577512
Graaf Hendrik III plein,162,,,4819CL,Breda,Breda,Noord-Brabant,VBO,4.767735,51.577526
Graaf Hendrik III plein,164,,,4819CL,Breda,Breda,Noord-Brabant,VBO,4.767652,51.577541
Graaf Hendrik III plein,166,,,4819CL,Breda,Breda,Noord-Brabant,VBO,4.768137,51.577420
Graaf Hendrik III plein,168,,,4819CL,Breda,Breda,Noord-Brabant,VBO,4.768054,51.577434
Graaf Hendrik III plein,170,,,4819CL,Breda,Breda,Noord-Brabant,VBO,4.767970,51.577449
Graaf Hendrik III plein,172,,,4819CL,Breda,Breda,Noord-Brabant,VBO,4.767887,51.577463
Graaf Hendrik III plein,174,,,4819CL,Breda,Breda,Noord-Brabant,VBO,4.767803,51.577477
Graaf Hendrik III plein,176,,,4819CL,Breda,Breda,Noord-Brabant,VBO,4.767720,51.577492
Grote Spie,1,,,4819CM,Breda,Breda,Noord-Brabant,VBO,4.769174,51.575943
Grote Spie,3,,,4819CM,Breda,Breda,Noord-Brabant,VBO,4.769212,51.575927
Grote Spie,5,,,4819CM,Breda,Breda,Noord-Brabant,VBO,4.769245,51.575910
Grote Spie,7,,,4819CM,Breda,Breda,Noord-Brabant,VBO,4.769153,51.575920
Grote Spie,9,,,4819CM,Breda,Breda,Noord-Brabant,VBO,4.769189,51.575903
Grote Spie,11,,,4819CM,Breda,Breda,Noord-Brabant,VBO,4.769222,51.575888
Grote Spie,13,,,4819CM,Breda,Breda,Noord-Brabant,VBO,4.769125,51.575898
Grote Spie,15,,,4819CM,Breda,Breda,Noord-Brabant,VBO,4.769162,51.575883
Grote Spie,17,,,4819CM,Breda,Breda,Noord-Brabant,VBO,4.769196,51.575867
Grote Spie,19,,,4819CM,Breda,Breda,Noord-Brabant,VBO,4.769101,51.575876
Grote Spie,21,,,4819CM,Breda,Breda,Noord-Brabant,VBO,4.769137,51.575861
Grote Spie,23,,,4819CM,Breda,Breda,Noord-Brabant,VBO,4.769170,51.575845
Grote Spie,25,,,4819CM,Breda,Breda,Noord-Brabant,VBO,4.769076,51.575855
Grote Spie,27,,,4819CM,Breda,Breda,Noord-Brabant,VBO,4.769111,51.575840
Grote Spie,29,,,4819CM,Breda,Breda,Noord-Brabant,VBO,4.769147,51.575823
Grote Spie,31,,,4819CM,Breda,Breda,Noord-Brabant,VBO,4.769050,51.575833
Grote Spie,33,,,4819CM,Breda,Breda,Noord-Brabant,VBO,4.769086,51.575817
Grote Spie,35,,,4819CM,Breda,Breda,Noord-Brabant,VBO,4.769121,51.575800
Grote Spie,37,,,4819CM,Breda,Breda,Noord-Brabant,VBO,4.769026,51.575811
Grote Spie,39,,,4819CM,Breda,Breda,Noord-Brabant,VBO,4.769062,51.575795
Grote Spie,41,,,4819CN,Breda,Breda,Noord-Brabant,VBO,4.769095,51.575779
Grote Spie,43,,,4819CN,Breda,Breda,Noord-Brabant,VBO,4.768999,51.575788
Grote Spie,45,,,4819CN,Breda,Breda,Noord-Brabant,VBO,4.769034,51.575773
Grote Spie,47,,,4819CN,Breda,Breda,Noord-Brabant,VBO,4.769071,51.575757
Grote Spie,49,,,4819CN,Breda,Breda,Noord-Brabant,VBO,4.768974,51.575767
Grote Spie,51,,,4819CN,Breda,Breda,Noord-Brabant,VBO,4.769011,51.575750
Grote Spie,53,,,4819CN,Breda,Breda,Noord-Brabant,VBO,4.769046,51.575733
Grote Spie,55,,,4819CN,Breda,Breda,Noord-Brabant,VBO,4.768951,51.575745
Grote Spie,57,,,4819CN,Breda,Breda,Noord-Brabant,VBO,4.768987,51.575729
Grote Spie,59,,,4819CN,Breda,Breda,Noord-Brabant,VBO,4.769023,51.575713
Grote Spie,61,,,4819CN,Breda,Breda,Noord-Brabant,VBO,4.768926,51.575722
Grote Spie,63,,,4819CN,Breda,Breda,Noord-Brabant,VBO,4.768961,51.575706
Grote Spie,65,,,4819CN,Breda,Breda,Noord-Brabant,VBO,4.768996,51.575691
Grote Spie,67,,,4819CN,Breda,Breda,Noord-Brabant,VBO,4.768903,51.575701
Grote Spie,69,,,4819CN,Breda,Breda,Noord-Brabant,VBO,4.768938,51.575684
Grote Spie,71,,,4819CN,Breda,Breda,Noord-Brabant,VBO,4.768972,51.575670
Grote Spie,73,,,4819CN,Breda,Breda,Noord-Brabant,VBO,4.768879,51.575679
Grote Spie,75,,,4819CN,Breda,Breda,Noord-Brabant,VBO,4.768912,51.575663
Grote Spie,77,,,4819CN,Breda,Breda,Noord-Brabant,VBO,4.768947,51.575647
Grote Spie,79,,,4819CN,Breda,Breda,Noord-Brabant,VBO,4.768889,51.575632
Grote Spie,81,,,4819CN,Breda,Breda,Noord-Brabant,VBO,4.768998,51.575637
Grote Spie,87,,,4819CN,Breda,Breda,Noord-Brabant,VBO,4.769103,51.575732
Grote Spie,89,,,4819CN,Breda,Breda,Noord-Brabant,VBO,4.769170,51.575795
Grote Spie,95,,,4819CN,Breda,Breda,Noord-Brabant,VBO,4.769282,51.575887
Grote Spie,101,,,4819CP,Breda,Breda,Noord-Brabant,VBO,4.768917,51.575222
Grote Spie,103,,,4819CP,Breda,Breda,Noord-Brabant,VBO,4.768951,51.575207
Grote Spie,105,,,4819CP,Breda,Breda,Noord-Brabant,VBO,4.768988,51.575190
Grote Spie,107,,,4819CP,Breda,Breda,Noord-Brabant,VBO,4.768893,51.575201
Grote Spie,109,,,4819CP,Breda,Breda,Noord-Brabant,VBO,4.768929,51.575184
Grote Spie,111,,,4819CP,Breda,Breda,Noord-Brabant,VBO,4.768965,51.575169
Grote Spie,113,,,4819CP,Breda,Breda,Noord-Brabant,VBO,4.768868,51.575178
Grote Spie,115,,,4819CP,Breda,Breda,Noord-Brabant,VBO,4.768903,51.575163
Grote Spie,117,,,4819CP,Breda,Breda,Noord-Brabant,VBO,4.768938,51.575147
Grote Spie,119,,,4819CP,Breda,Breda,Noord-Brabant,VBO,4.768843,51.575156
Grote Spie,121,,,4819CP,Breda,Breda,Noord-Brabant,VBO,4.768878,51.575141
Grote Spie,123,,,4819CP,Breda,Breda,Noord-Brabant,VBO,4.768912,51.575126
Grote Spie,125,,,4819CP,Breda,Breda,Noord-Brabant,VBO,4.768819,51.575134
Grote Spie,127,,,4819CP,Breda,Breda,Noord-Brabant,VBO,4.768853,51.575118
Grote Spie,129,,,4819CP,Breda,Breda,Noord-Brabant,VBO,4.768888,51.575103
Grote Spie,131,,,4819CP,Breda,Breda,Noord-Brabant,VBO,4.768792,51.575113
Grote Spie,133,,,4819CP,Breda,Breda,Noord-Brabant,VBO,4.768826,51.575096
Grote Spie,135,,,4819CP,Breda,Breda,Noord-Brabant,VBO,4.768863,51.575081
Grote Spie,137,,,4819CP,Breda,Breda,Noord-Brabant,VBO,4.768766,51.575090
Grote Spie,139,,,4819CP,Breda,Breda,Noord-Brabant,VBO,4.768804,51.575074
Grote Spie,4050,,TRD,4819CP,Breda,Breda,Noord-Brabant,VBO,4.768980,51.575775
Grote Spie,4060,,TRD,4819CP,Breda,Breda,Noord-Brabant,VBO,4.768707,51.575033
Grote Spie,4070,,TRD,4819CP,Breda,Breda,Noord-Brabant,VBO,4.768447,51.574288
Grote Spie,4080,,TRD,4819CP,Breda,Breda,Noord-Brabant,VBO,4.768171,51.573518
Grote Spie,141,,,4819CR,Breda,Breda,Noord-Brabant,VBO,4.768838,51.575059
Grote Spie,143,,,4819CR,Breda,Breda,Noord-Brabant,VBO,4.768742,51.575068
Grote Spie,145,,,4819CR,Breda,Breda,Noord-Brabant,VBO,4.768780,51.575053
Grote Spie,147,,,4819CR,Breda,Breda,Noord-Brabant,VBO,4.768814,51.575037
Grote Spie,149,,,4819CR,Breda,Breda,Noord-Brabant,VBO,4.768718,51.575047
Grote Spie,151,,,4819CR,Breda,Breda,Noord-Brabant,VBO,4.768753,51.575031
Grote Spie,153,,,4819CR,Breda,Breda,Noord-Brabant,VBO,4.768786,51.575016
Grote Spie,155,,,4819CR,Breda,Breda,Noord-Brabant,VBO,4.768695,51.575025
Grote Spie,157,,,4819CR,Breda,Breda,Noord-Brabant,VBO,4.768729,51.575010
Grote Spie,159,,,4819CR,Breda,Breda,Noord-Brabant,VBO,4.768764,51.574993
Grote Spie,161,,,4819CR,Breda,Breda,Noord-Brabant,VBO,4.768668,51.575002
Grote Spie,163,,,4819CR,Breda,Breda,Noord-Brabant,VBO,4.768702,51.574987
Grote Spie,165,,,4819CR,Breda,Breda,Noord-Brabant,VBO,4.768737,51.574972
Grote Spie,167,,,4819CR,Breda,Breda,Noord-Brabant,VBO,4.768643,51.574981
Grote Spie,169,,,4819CR,Breda,Breda,Noord-Brabant,VBO,4.768678,51.574964
Grote Spie,171,,,4819CR,Breda,Breda,Noord-Brabant,VBO,4.768713,51.574950
Grote Spie,173,,,4819CR,Breda,Breda,Noord-Brabant,VBO,4.768616,51.574960
Grote Spie,175,,,4819CR,Breda,Breda,Noord-Brabant,VBO,4.768656,51.574943
Grote Spie,177,,,4819CR,Breda,Breda,Noord-Brabant,VBO,4.768689,51.574928
Grote Spie,179,,,4819CR,Breda,Breda,Noord-Brabant,VBO,4.768631,51.574912
Grote Spie,181,,,4819CR,Breda,Breda,Noord-Brabant,VBO,4.769002,51.575134
Grote Spie,187,,,4819CR,Breda,Breda,Noord-Brabant,VBO,4.768913,51.575064
Grote Spie,189,,,4819CR,Breda,Breda,Noord-Brabant,VBO,4.768846,51.575006
Grote Spie,195,,,4819CR,Breda,Breda,Noord-Brabant,VBO,4.768727,51.574902
Grote Spie,197,,,4819CS,Breda,Breda,Noord-Brabant,VBO,4.768621,51.574311
Grote Spie,199,,,4819CS,Breda,Breda,Noord-Brabant,VBO,4.768733,51.574401
Grote Spie,201,,,4819CS,Breda,Breda,Noord-Brabant,VBO,4.768610,51.574331
Grote Spie,203,,,4819CS,Breda,Breda,Noord-Brabant,VBO,4.768736,51.574423
Grote Spie,205,,,4819CS,Breda,Breda,Noord-Brabant,VBO,4.768603,51.574319
Grote Spie,207,,,4819CS,Breda,Breda,Noord-Brabant,VBO,4.768724,51.574414
Grote Spie,209,,,4819CS,Breda,Breda,Noord-Brabant,VBO,4.768596,51.574335
Grote Spie,211,,,4819CS,Breda,Breda,Noord-Brabant,VBO,4.768720,51.574429
Grote Spie,213,,,4819CS,Breda,Breda,Noord-Brabant,VBO,4.768590,51.574326
Grote Spie,215,,,4819CS,Breda,Breda,Noord-Brabant,VBO,4.768704,51.574419
Grote Spie,217,,,4819CS,Breda,Breda,Noord-Brabant,VBO,4.768646,51.574326
Grote Spie,219,,,4819CS,Breda,Breda,Noord-Brabant,VBO,4.768681,51.574405
Grote Spie,221,,,4819CS,Breda,Breda,Noord-Brabant,VBO,4.768633,51.574334
Grote Spie,223,,,4819CS,Breda,Breda,Noord-Brabant,VBO,4.768747,51.574431
Grote Spie,225,,,4819CS,Breda,Breda,Noord-Brabant,VBO,4.768615,51.574339
Grote Spie,227,,,4819CS,Breda,Breda,Noord-Brabant,VBO,4.768731,51.574437
Grote Spie,229,,,4819CS,Breda,Breda,Noord-Brabant,VBO,4.768618,51.574303
Grote Spie,231,,,4819CS,Breda,Breda,Noord-Brabant,VBO,4.768728,51.574391
Grote Spie,233,,,4819CS,Breda,Breda,Noord-Brabant,VBO,4.768596,51.574309
Grote Spie,235,,,4819CS,Breda,Breda,Noord-Brabant,VBO,4.768711,51.574398
Grote Spie,237,,,4819CT,Breda,Breda,Noord-Brabant,VBO,4.768647,51.574491
Grote Spie,239,,,4819CT,Breda,Breda,Noord-Brabant,VBO,4.768682,51.574475
Grote Spie,241,,,4819CT,Breda,Breda,Noord-Brabant,VBO,4.768613,51.574463
Grote Spie,243,,,4819CT,Breda,Breda,Noord-Brabant,VBO,4.768650,51.574448
Grote Spie,245,,,4819CT,Breda,Breda,Noord-Brabant,VBO,4.768584,51.574436
Grote Spie,247,,,4819CT,Breda,Breda,Noord-Brabant,VBO,4.768619,51.574420
Grote Spie,249,,,4819CT,Breda,Breda,Noord-Brabant,VBO,4.768551,51.574408
Grote Spie,251,,,4819CT,Breda,Breda,Noord-Brabant,VBO,4.768584,51.574392
Grote Spie,253,,,4819CT,Breda,Breda,Noord-Brabant,VBO,4.768518,51.574378
Grote Spie,255,,,4819CT,Breda,Breda,Noord-Brabant,VBO,4.768552,51.574362
Grote Spie,257,,,4819CT,Breda,Breda,Noord-Brabant,VBO,4.768486,51.574349
Grote Spie,259,,,4819CT,Breda,Breda,Noord-Brabant,VBO,4.768519,51.574333
Grote Spie,261,,,4819CT,Breda,Breda,Noord-Brabant,VBO,4.768452,51.574321
Grote Spie,263,,,4819CT,Breda,Breda,Noord-Brabant,VBO,4.768489,51.574306
Grote Spie,265,,,4819CT,Breda,Breda,Noord-Brabant,VBO,4.768418,51.574292
Grote Spie,267,,,4819CT,Breda,Breda,Noord-Brabant,VBO,4.768456,51.574274
Grote Spie,269,,,4819CT,Breda,Breda,Noord-Brabant,VBO,4.768387,51.574264
Grote Spie,271,,,4819CT,Breda,Breda,Noord-Brabant,VBO,4.768421,51.574246
Grote Spie,273,,,4819CT,Breda,Breda,Noord-Brabant,VBO,4.768353,51.574235
Grote Spie,275,,,4819CT,Breda,Breda,Noord-Brabant,VBO,4.768389,51.574219
Grote Spie,277,,,4819CT,Breda,Breda,Noord-Brabant,VBO,4.768468,51.574172
Grote Spie,283,,,4819CV,Breda,Breda,Noord-Brabant,VBO,4.768568,51.574262
Grote Spie,285,,,4819CV,Breda,Breda,Noord-Brabant,VBO,4.768630,51.574323
Grote Spie,291,,,4819CV,Breda,Breda,Noord-Brabant,VBO,4.768749,51.574412
Grote Spie,293,,,4819CV,Breda,Breda,Noord-Brabant,VBO,4.768376,51.573732
Grote Spie,295,,,4819CV,Breda,Breda,Noord-Brabant,VBO,4.768421,51.573713
Grote Spie,297,,,4819CV,Breda,Breda,Noord-Brabant,VBO,4.768346,51.573704
Grote Spie,299,,,4819CV,Breda,Breda,Noord-Brabant,VBO,4.768388,51.573684
Grote Spie,301,,,4819CV,Breda,Breda,Noord-Brabant,VBO,4.768317,51.573677
Grote Spie,303,,,4819CV,Breda,Breda,Noord-Brabant,VBO,4.768358,51.573657
Grote Spie,305,,,4819CV,Breda,Breda,Noord-Brabant,VBO,4.768284,51.573649
Grote Spie,307,,,4819CV,Breda,Breda,Noord-Brabant,VBO,4.768327,51.573627
Grote Spie,309,,,4819CV,Breda,Breda,Noord-Brabant,VBO,4.768248,51.573620
Grote Spie,311,,,4819CV,Breda,Breda,Noord-Brabant,VBO,4.768293,51.573599
Grote Spie,313,,,4819CV,Breda,Breda,Noord-Brabant,VBO,4.768217,51.573591
Grote Spie,315,,,4819CV,Breda,Breda,Noord-Brabant,VBO,4.768261,51.573570
Grote Spie,317,,,4819CV,Breda,Breda,Noord-Brabant,VBO,4.768185,51.573562
Grote Spie,319,,,4819CV,Breda,Breda,Noord-Brabant,VBO,4.768231,51.573542
Grote Spie,321,,,4819CV,Breda,Breda,Noord-Brabant,VBO,4.768153,51.573533
Grote Spie,323,,,4819CV,Breda,Breda,Noord-Brabant,VBO,4.768199,51.573512
Grote Spie,325,,,4819CV,Breda,Breda,Noord-Brabant,VBO,4.768119,51.573502
Grote Spie,327,,,4819CV,Breda,Breda,Noord-Brabant,VBO,4.768166,51.573483
Grote Spie,329,,,4819CV,Breda,Breda,Noord-Brabant,VBO,4.768087,51.573475
Grote Spie,331,,,4819CV,Breda,Breda,Noord-Brabant,VBO,4.768133,51.573456
Grote Spie,333,,,4819CW,Breda,Breda,Noord-Brabant,VBO,4.768438,51.573629
Grote Spie,335,,,4819CW,Breda,Breda,Noord-Brabant,VBO,4.768386,51.573586
Grote Spie,337,,,4819CW,Breda,Breda,Noord-Brabant,VBO,4.768412,51.573607
Grote Spie,339,,,4819CW,Breda,Breda,Noord-Brabant,VBO,4.768237,51.573453
Grote Spie,341,,,4819CW,Breda,Breda,Noord-Brabant,VBO,4.768402,51.573644
Grote Spie,343,,,4819CW,Breda,Breda,Noord-Brabant,VBO,4.768377,51.573623
Grote Spie,345,,,4819CW,Breda,Breda,Noord-Brabant,VBO,4.768425,51.573667
Grote Spie,347,,,4819CW,Breda,Breda,Noord-Brabant,VBO,4.768351,51.573601
Grote Spie,349,,,4819CW,Breda,Breda,Noord-Brabant,VBO,4.768299,51.573557
Grote Spie,351,,,4819CW,Breda,Breda,Noord-Brabant,VBO,4.768326,51.573578
Grote Spie,353,,,4819CW,Breda,Breda,Noord-Brabant,VBO,4.768461,51.573651
Grote Spie,355,,,4819CW,Breda,Breda,Noord-Brabant,VBO,4.768226,51.573491
Grote Spie,357,,,4819CW,Breda,Breda,Noord-Brabant,VBO,4.768253,51.573513
Grote Spie,359,,,4819CW,Breda,Breda,Noord-Brabant,VBO,4.768336,51.573541
Grote Spie,361,,,4819CW,Breda,Breda,Noord-Brabant,VBO,4.768362,51.573563
Grote Spie,363,,,4819CW,Breda,Breda,Noord-Brabant,VBO,4.768202,51.573470
Grote Spie,365,,,4819CW,Breda,Breda,Noord-Brabant,VBO,4.768260,51.573476
Grote Spie,367,,,4819CW,Breda,Breda,Noord-Brabant,VBO,4.768287,51.573497
Grote Spie,369,,,4819CW,Breda,Breda,Noord-Brabant,VBO,4.768311,51.573519
Grote Spie,371,,,4819CW,Breda,Breda,Noord-Brabant,VBO,4.768277,51.573534
Grote Spie,373,,G01,4819CW,Breda,Breda,Noord-Brabant,VBO,4.768476,51.573594
Grote Spie,375,,G01,4819CW,Breda,Breda,Noord-Brabant,VBO,4.768387,51.573524
Grote Spie,377,,G01,4819CW,Breda,Breda,Noord-Brabant,VBO,4.768319,51.573467
Grote Spie,379,,G01,4819CW,Breda,Breda,Noord-Brabant,VBO,4.768194,51.573366
Grote Spie,8,,,4819CX,Breda,Breda,Noord-Brabant,VBO,4.768947,51.576252
Grote Spie,10,,,4819CX,Breda,Breda,Noord-Brabant,VBO,4.768913,51.576195
Grote Spie,12,,,4819CX,Breda,Breda,Noord-Brabant,VBO,4.768880,51.576137
Grote Spie,14,,,4819CX,Breda,Breda,Noord-Brabant,VBO,4.768846,51.576079
Grote Spie,16,,,4819CX,Breda,Breda,Noord-Brabant,VBO,4.768569,51.575797
Grote Spie,18,,,4819CX,Breda,Breda,Noord-Brabant,VBO,4.768549,51.575743
Grote Spie,20,,,4819CX,Breda,Breda,Noord-Brabant,VBO,4.768529,51.575689
Grote Spie,22,,,4819CX,Breda,Breda,Noord-Brabant,VBO,4.768509,51.575636
Grote Spie,24,,,4819CX,Breda,Breda,Noord-Brabant,VBO,4.768490,51.575583
Grote Spie,26,,,4819CX,Breda,Breda,Noord-Brabant,VBO,4.768471,51.575531
Grote Spie,28,,,4819CX,Breda,Breda,Noord-Brabant,VBO,4.768451,51.575478
Grote Spie,30,,,4819CX,Breda,Breda,Noord-Brabant,VBO,4.768431,51.575425
Grote Spie,32,,,4819CX,Breda,Breda,Noord-Brabant,VBO,4.768412,51.575372
Grote Spie,34,,,4819CX,Breda,Breda,Noord-Brabant,VBO,4.768392,51.575319
Grote Spie,36,,,4819CX,Breda,Breda,Noord-Brabant,VBO,4.768367,51.575217
Grote Spie,38,,,4819CX,Breda,Breda,Noord-Brabant,VBO,4.768157,51.575264
Grote Spie,40,,,4819CX,Breda,Breda,Noord-Brabant,VBO,4.768114,51.575273
Grote Spie,42,,,4819CX,Breda,Breda,Noord-Brabant,VBO,4.768070,51.575282
Grote Spie,44,,,4819CX,Breda,Breda,Noord-Brabant,VBO,4.768027,51.575282
Grote Spie,46,,,4819CX,Breda,Breda,Noord-Brabant,VBO,4.767984,51.575290
Grote Spie,54,,,4819CX,Breda,Breda,Noord-Brabant,VBO,4.767885,51.574161
Grote Spie,56,,,4819CX,Breda,Breda,Noord-Brabant,VBO,4.767866,51.574108
Grote Spie,58,,,4819CX,Breda,Breda,Noord-Brabant,VBO,4.767847,51.574055
Grote Spie,60,,,4819CX,Breda,Breda,Noord-Brabant,VBO,4.767828,51.574003
Grote Spie,62,,,4819CX,Breda,Breda,Noord-Brabant,VBO,4.767809,51.573950
Grote Spie,64,,,4819CX,Breda,Breda,Noord-Brabant,VBO,4.767789,51.573898
Grote Spie,66,,,4819CX,Breda,Breda,Noord-Brabant,VBO,4.767770,51.573845
Grote Spie,68,,,4819CX,Breda,Breda,Noord-Brabant,VBO,4.767751,51.573793
Grote Spie,70,,,4819CX,Breda,Breda,Noord-Brabant,VBO,4.767732,51.573740
Grote Spie,72,,,4819CX,Breda,Breda,Noord-Brabant,VBO,4.767713,51.573687
Grote Spie,74,,,4819CX,Breda,Breda,Noord-Brabant,VBO,4.767694,51.573635
Grote Spie,76,,,4819CX,Breda,Breda,Noord-Brabant,VBO,4.767675,51.573582
Grote Spie,78,,,4819CX,Breda,Breda,Noord-Brabant,VBO,4.767655,51.573529
Grote Spie,80,,,4819CX,Breda,Breda,Noord-Brabant,VBO,4.767667,51.573471
Grote Spie,82,,,4819CX,Breda,Breda,Noord-Brabant,VBO,4.767655,51.573441
Grote Spie,84,,,4819CX,Breda,Breda,Noord-Brabant,VBO,4.767644,51.573411
Grote Spie,86,,,4819CX,Breda,Breda,Noord-Brabant,VBO,4.767633,51.573382
Grote Spie,88,,,4819CX,Breda,Breda,Noord-Brabant,VBO,4.767621,51.573351
Vriesdongen,1,,,4819EA,Breda,Breda,Noord-Brabant,VBO,4.767928,51.572940
Vriesdongen,43,,,4819EA,Breda,Breda,Noord-Brabant,VBO,4.767026,51.572582
Vriesdongen,45,,,4819EA,Breda,Breda,Noord-Brabant,VBO,4.766429,51.572637
Vriesdongen,47,,,4819EA,Breda,Breda,Noord-Brabant,VBO,4.765910,51.572692
Vriesdongen,49,,,4819EA,Breda,Breda,Noord-Brabant,VBO,4.765454,51.572782
Vriesdongen,51,,,4819EA,Breda,Breda,Noord-Brabant,VBO,4.764933,51.572846
Vriesdongen,2,,,4819EB,Breda,Breda,Noord-Brabant,VBO,4.767465,51.572882
Vriesdongen,4,,,4819EB,Breda,Breda,Noord-Brabant,VBO,4.767422,51.572761
Vriesdongen,6,,,4819EB,Breda,Breda,Noord-Brabant,VBO,4.767096,51.572806
Vriesdongen,8,,,4819EB,Breda,Breda,Noord-Brabant,VBO,4.766905,51.572834
Vriesdongen,10,,,4819EB,Breda,Breda,Noord-Brabant,VBO,4.766972,51.573024
Vriesdongen,12,,,4819EB,Breda,Breda,Noord-Brabant,VBO,4.767006,51.573118
Vriesdongen,14,,,4819EB,Breda,Breda,Noord-Brabant,VBO,4.766646,51.572987
Vriesdongen,16,,,4819EB,Breda,Breda,Noord-Brabant,VBO,4.766613,51.572891
Vriesdongen,18,,,4819EB,Breda,Breda,Noord-Brabant,VBO,4.766287,51.572922
Vriesdongen,20,,,4819EB,Breda,Breda,Noord-Brabant,VBO,4.766105,51.572947
Vriesdongen,22,,,4819EB,Breda,Breda,Noord-Brabant,VBO,4.766170,51.573146
Vriesdongen,24,,,4819EB,Breda,Breda,Noord-Brabant,VBO,4.766202,51.573233
Vriesdongen,26,,,4819EB,Breda,Breda,Noord-Brabant,VBO,4.765835,51.573095
Vriesdongen,28,,,4819EB,Breda,Breda,Noord-Brabant,VBO,4.765804,51.573007
Vriesdongen,30,,,4819EB,Breda,Breda,Noord-Brabant,VBO,4.765469,51.573038
Vriesdongen,32,,,4819EB,Breda,Breda,Noord-Brabant,VBO,4.765329,51.573057
Vriesdongen,34,,,4819EB,Breda,Breda,Noord-Brabant,VBO,4.765365,51.573254
Vriesdongen,36,,,4819EB,Breda,Breda,Noord-Brabant,VBO,4.765398,51.573344
Vriesdongen,38,,,4819EB,Breda,Breda,Noord-Brabant,VBO,4.765030,51.573208
Vriesdongen,40,,,4819EB,Breda,Breda,Noord-Brabant,VBO,4.764998,51.573121
Vriesdongen,42,,,4819EB,Breda,Breda,Noord-Brabant,VBO,4.764661,51.573150
Vriesdongen,44,,,4819EB,Breda,Breda,Noord-Brabant,VBO,4.764521,51.573170
Vriesdongen,46,,,4819EB,Breda,Breda,Noord-Brabant,VBO,4.764537,51.573355
Vriesdongen,48,,,4819EB,Breda,Breda,Noord-Brabant,VBO,4.764582,51.573475
Zaart,3,,,4819ED,Breda,Breda,Noord-Brabant,VBO,4.767473,51.573055
Zaart,5,,,4819ED,Breda,Breda,Noord-Brabant,VBO,4.767333,51.573076
Zaart,7,,,4819ED,Breda,Breda,Noord-Brabant,VBO,4.766694,51.573166
Zaart,9,,,4819ED,Breda,Breda,Noord-Brabant,VBO,4.766528,51.573190
Zaart,11,,,4819ED,Breda,Breda,Noord-Brabant,VBO,4.765862,51.573286
Zaart,13,,,4819ED,Breda,Breda,Noord-Brabant,VBO,4.765717,51.573306
Zaart,15,,,4819ED,Breda,Breda,Noord-Brabant,VBO,4.765073,51.573400
Zaart,17,,,4819ED,Breda,Breda,Noord-Brabant,VBO,4.764915,51.573422
Zaart,35,,,4819ED,Breda,Breda,Noord-Brabant,VBO,4.764219,51.574425
Zaart,6,,,4819EE,Breda,Breda,Noord-Brabant,VBO,4.767535,51.573348
Zaart,8,,,4819EE,Breda,Breda,Noord-Brabant,VBO,4.767450,51.573360
Zaart,10,,,4819EE,Breda,Breda,Noord-Brabant,VBO,4.767362,51.573373
Zaart,12,,,4819EE,Breda,Breda,Noord-Brabant,VBO,4.767277,51.573385
Zaart,14,,,4819EE,Breda,Breda,Noord-Brabant,VBO,4.767191,51.573397
Zaart,16,,,4819EE,Breda,Breda,Noord-Brabant,VBO,4.766775,51.573457
Zaart,18,,,4819EE,Breda,Breda,Noord-Brabant,VBO,4.766683,51.573469
Zaart,20,,,4819EE,Breda,Breda,Noord-Brabant,VBO,4.766599,51.573481
Zaart,22,,,4819EE,Breda,Breda,Noord-Brabant,VBO,4.766518,51.573492
Zaart,24,,,4819EE,Breda,Breda,Noord-Brabant,VBO,4.766432,51.573504
Zaart,26,,,4819EE,Breda,Breda,Noord-Brabant,VBO,4.766352,51.573515
Zaart,28,,,4819EE,Breda,Breda,Noord-Brabant,VBO,4.766261,51.573528
Zaart,30,,,4819EE,Breda,Breda,Noord-Brabant,VBO,4.765840,51.573586
Zaart,32,,,4819EE,Breda,Breda,Noord-Brabant,VBO,4.765755,51.573599
Zaart,34,,,4819EE,Breda,Breda,Noord-Brabant,VBO,4.765673,51.573611
Zaart,36,,,4819EE,Breda,Breda,Noord-Brabant,VBO,4.765585,51.573623
Zaart,38,,,4819EE,Breda,Breda,Noord-Brabant,VBO,4.765501,51.573635
Zaart,44,,,4819EE,Breda,Breda,Noord-Brabant,VBO,4.764730,51.573862
Zaart,46,,,4819EE,Breda,Breda,Noord-Brabant,VBO,4.764746,51.573906
Zaart,48,A,,4819EG,Breda,Breda,Noord-Brabant,VBO,4.764819,51.573847
Zaart,48,B,,4819EG,Breda,Breda,Noord-Brabant,VBO,4.764787,51.573872
Zaart,48,C,,4819EG,Breda,Breda,Noord-Brabant,VBO,4.764827,51.573867
Zaart,48,,,4819EG,Breda,Breda,Noord-Brabant,VBO,4.764777,51.573853
Zaart,50,A,,4819EG,Breda,Breda,Noord-Brabant,VBO,4.764962,51.573829
Zaart,50,B,,4819EG,Breda,Breda,Noord-Brabant,VBO,4.764928,51.573855
Zaart,50,C,,4819EG,Breda,Breda,Noord-Brabant,VBO,4.764972,51.573850
Zaart,50,,,4819EG,Breda,Breda,Noord-Brabant,VBO,4.764923,51.573834
Zaart,52,A,,4819EG,Breda,Breda,Noord-Brabant,VBO,4.765109,51.573810
Zaart,52,B,,4819EG,Breda,Breda,Noord-Brabant,VBO,4.765076,51.573833
Zaart,52,C,,4819EG,Breda,Breda,Noord-Brabant,VBO,4.765121,51.573829
Zaart,52,,,4819EG,Breda,Breda,Noord-Brabant,VBO,4.765071,51.573814
Zaart,54,,,4819EG,Breda,Breda,Noord-Brabant,VBO,4.764718,51.574205
Zaart,56,,,4819EG,Breda,Breda,Noord-Brabant,VBO,4.764733,51.574250
Zaart,58,A,,4819EG,Breda,Breda,Noord-Brabant,VBO,4.764804,51.574214
Zaart,58,B,,4819EG,Breda,Breda,Noord-Brabant,VBO,4.764849,51.574184
Zaart,58,C,,4819EG,Breda,Breda,Noord-Brabant,VBO,4.764860,51.574208
Zaart,58,,,4819EG,Breda,Breda,Noord-Brabant,VBO,4.764793,51.574193
Zaart,60,A,,4819EG,Breda,Breda,Noord-Brabant,VBO,4.764948,51.574193
Zaart,60,B,,4819EG,Breda,Breda,Noord-Brabant,VBO,4.764986,51.574168
Zaart,60,C,,4819EG,Breda,Breda,Noord-Brabant,VBO,4.764996,51.574189
Zaart,60,,,4819EG,Breda,Breda,Noord-Brabant,VBO,4.764939,51.574173
Zaart,62,A,,4819EG,Breda,Breda,Noord-Brabant,VBO,4.765069,51.574178
Zaart,62,B,,4819EG,Breda,Breda,Noord-Brabant,VBO,4.765117,51.574151
Zaart,62,C,,4819EG,Breda,Breda,Noord-Brabant,VBO,4.765121,51.574172
Zaart,62,,,4819EG,Breda,Breda,Noord-Brabant,VBO,4.765060,51.574158
Zaart,64,A,,4819EG,Breda,Breda,Noord-Brabant,VBO,4.765191,51.574158
Zaart,64,B,,4819EG,Breda,Breda,Noord-Brabant,VBO,4.765238,51.574134
Zaart,64,C,,4819EG,Breda,Breda,Noord-Brabant,VBO,4.765241,51.574154
Zaart,64,,,4819EG,Breda,Breda,Noord-Brabant,VBO,4.765187,51.574139
Zaart,66,,,4819EG,Breda,Breda,Noord-Brabant,VBO,4.764706,51.574548
Zaart,68,,,4819EG,Breda,Breda,Noord-Brabant,VBO,4.764721,51.574592
Zaart,70,A,,4819EH,Breda,Breda,Noord-Brabant,VBO,4.764798,51.574558
Zaart,70,B,,4819EH,Breda,Breda,Noord-Brabant,VBO,4.764837,51.574528
Zaart,70,C,,4819EH,Breda,Breda,Noord-Brabant,VBO,4.764844,51.574551
Zaart,70,,,4819EH,Breda,Breda,Noord-Brabant,VBO,4.764790,51.574535
Zaart,72,A,,4819EH,Breda,Breda,Noord-Brabant,VBO,4.764928,51.574539
Zaart,72,B,,4819EH,Breda,Breda,Noord-Brabant,VBO,4.764967,51.574512
Zaart,72,C,,4819EH,Breda,Breda,Noord-Brabant,VBO,4.764974,51.574535
Zaart,72,,,4819EH,Breda,Breda,Noord-Brabant,VBO,4.764922,51.574517
Zaart,74,A,,4819EH,Breda,Breda,Noord-Brabant,VBO,4.765053,51.574522
Zaart,74,B,,4819EH,Breda,Breda,Noord-Brabant,VBO,4.765089,51.574496
Zaart,74,C,,4819EH,Breda,Breda,Noord-Brabant,VBO,4.765098,51.574517
Zaart,74,,,4819EH,Breda,Breda,Noord-Brabant,VBO,4.765047,51.574500
Zaart,76,A,,4819EH,Breda,Breda,Noord-Brabant,VBO,4.765186,51.574501
Zaart,76,B,,4819EH,Breda,Breda,Noord-Brabant,VBO,4.765218,51.574476
Zaart,76,C,,4819EH,Breda,Breda,Noord-Brabant,VBO,4.765230,51.574496
Zaart,76,,,4819EH,Breda,Breda,Noord-Brabant,VBO,4.765179,51.574481
Zaart,78,A,,4819EH,Breda,Breda,Noord-Brabant,VBO,4.765310,51.574483
Zaart,78,B,,4819EH,Breda,Breda,Noord-Brabant,VBO,4.765345,51.574459
Zaart,78,C,,4819EH,Breda,Breda,Noord-Brabant,VBO,4.765354,51.574479
Zaart,78,,,4819EH,Breda,Breda,Noord-Brabant,VBO,4.765304,51.574463
Multatulistraat,1,,,4819EJ,Breda,Breda,Noord-Brabant,VBO,4.767407,51.574219
Multatulistraat,3,,,4819EJ,Breda,Breda,Noord-Brabant,VBO,4.767386,51.574162
Multatulistraat,5,,,4819EJ,Breda,Breda,Noord-Brabant,VBO,4.767366,51.574106
Multatulistraat,7,,,4819EJ,Breda,Breda,Noord-Brabant,VBO,4.767345,51.574049
Multatulistraat,9,,,4819EJ,Breda,Breda,Noord-Brabant,VBO,4.767325,51.573993
Multatulistraat,11,,,4819EJ,Breda,Breda,Noord-Brabant,VBO,4.767304,51.573937
Multatulistraat,13,,,4819EJ,Breda,Breda,Noord-Brabant,VBO,4.767283,51.573881
Multatulistraat,15,,,4819EJ,Breda,Breda,Noord-Brabant,VBO,4.767263,51.573825
Multatulistraat,17,,,4819EJ,Breda,Breda,Noord-Brabant,VBO,4.767239,51.573759
Multatulistraat,19,,,4819EJ,Breda,Breda,Noord-Brabant,VBO,4.767240,51.573744
Multatulistraat,21,,,4819EJ,Breda,Breda,Noord-Brabant,VBO,4.767201,51.573656
Multatulistraat,23,,,4819EJ,Breda,Breda,Noord-Brabant,VBO,4.767180,51.573599
Multatulistraat,27,,,4819EJ,Breda,Breda,Noord-Brabant,VBO,4.767160,51.573543
Multatulistraat,29,,,4819EJ,Breda,Breda,Noord-Brabant,VBO,4.767149,51.573513
Multatulistraat,31,,,4819EJ,Breda,Breda,Noord-Brabant,VBO,4.767138,51.573484
Multatulistraat,33,,,4819EJ,Breda,Breda,Noord-Brabant,VBO,4.767126,51.573454
Multatulistraat,35,,,4819EJ,Breda,Breda,Noord-Brabant,VBO,4.767115,51.573424
Albert Verweijstraat,1,,,4819EK,Breda,Breda,Noord-Brabant,VBO,4.766880,51.573764
Albert Verweijstraat,2,,,4819EK,Breda,Breda,Noord-Brabant,VBO,4.766960,51.573973
Albert Verweijstraat,3,,,4819EK,Breda,Breda,Noord-Brabant,VBO,4.766798,51.573776
Albert Verweijstraat,4,,,4819EK,Breda,Breda,Noord-Brabant,VBO,4.766877,51.573985
Albert Verweijstraat,5,,,4819EK,Breda,Breda,Noord-Brabant,VBO,4.766713,51.573788
Albert Verweijstraat,6,,,4819EK,Breda,Breda,Noord-Brabant,VBO,4.766792,51.573997
Albert Verweijstraat,7,,,4819EK,Breda,Breda,Noord-Brabant,VBO,4.766628,51.573800
Albert Verweijstraat,8,,,4819EK,Breda,Breda,Noord-Brabant,VBO,4.766705,51.574009
Albert Verweijstraat,9,,,4819EK,Breda,Breda,Noord-Brabant,VBO,4.766544,51.573812
Albert Verweijstraat,10,,,4819EK,Breda,Breda,Noord-Brabant,VBO,4.766624,51.574020
Albert Verweijstraat,11,,,4819EK,Breda,Breda,Noord-Brabant,VBO,4.766460,51.573824
Albert Verweijstraat,12,,,4819EK,Breda,Breda,Noord-Brabant,VBO,4.766540,51.574032
Albert Verweijstraat,13,,,4819EK,Breda,Breda,Noord-Brabant,VBO,4.766376,51.573836
Albert Verweijstraat,14,,,4819EK,Breda,Breda,Noord-Brabant,VBO,4.766450,51.574044
Willem Kloosstraat,2,,,4819EL,Breda,Breda,Noord-Brabant,VBO,4.766229,51.574394
Willem Kloosstraat,4,,,4819EL,Breda,Breda,Noord-Brabant,VBO,4.766208,51.574337
Willem Kloosstraat,6,,,4819EL,Breda,Breda,Noord-Brabant,VBO,4.766187,51.574280
Willem Kloosstraat,8,,,4819EL,Breda,Breda,Noord-Brabant,VBO,4.766165,51.574223
Willem Kloosstraat,10,,,4819EL,Breda,Breda,Noord-Brabant,VBO,4.766144,51.574166
Willem Kloosstraat,12,,,4819EL,Breda,Breda,Noord-Brabant,VBO,4.766123,51.574109
Willem Kloosstraat,14,,,4819EL,Breda,Breda,Noord-Brabant,VBO,4.766102,51.574052
Willem Kloosstraat,16,,,4819EL,Breda,Breda,Noord-Brabant,VBO,4.766081,51.573995
Willem Kloosstraat,18,,,4819EL,Breda,Breda,Noord-Brabant,VBO,4.766060,51.573939
Willem Kloosstraat,20,,,4819EL,Breda,Breda,Noord-Brabant,VBO,4.766039,51.573882
Willem Kloosstraat,22,,,4819EL,Breda,Breda,Noord-Brabant,VBO,4.766018,51.573825
Willem Kloosstraat,24,,,4819EL,Breda,Breda,Noord-Brabant,VBO,4.765996,51.573765
Willem Kloosstraat,26,,,4819EL,Breda,Breda,Noord-Brabant,VBO,4.765977,51.573709
Willem Kloosstraat,28,,,4819EL,Breda,Breda,Noord-Brabant,VBO,4.765965,51.573678
Willem Kloosstraat,30,,,4819EL,Breda,Breda,Noord-Brabant,VBO,4.765955,51.573649
Willem Kloosstraat,32,,,4819EL,Breda,Breda,Noord-Brabant,VBO,4.765944,51.573621
Willem Kloosstraat,34,,,4819EL,Breda,Breda,Noord-Brabant,VBO,4.765933,51.573591
Jacob van Lennepstraat,1,,,4819EM,Breda,Breda,Noord-Brabant,VBO,4.765723,51.574469
Jacob van Lennepstraat,3,,,4819EM,Breda,Breda,Noord-Brabant,VBO,4.765703,51.574416
Jacob van Lennepstraat,5,,,4819EM,Breda,Breda,Noord-Brabant,VBO,4.765684,51.574363
Jacob van Lennepstraat,7,,,4819EM,Breda,Breda,Noord-Brabant,VBO,4.765665,51.574311
Jacob van Lennepstraat,9,,,4819EM,Breda,Breda,Noord-Brabant,VBO,4.765646,51.574258
Jacob van Lennepstraat,11,,,4819EM,Breda,Breda,Noord-Brabant,VBO,4.765626,51.574206
Jacob van Lennepstraat,13,,,4819EM,Breda,Breda,Noord-Brabant,VBO,4.765607,51.574153
Jacob van Lennepstraat,15,,,4819EM,Breda,Breda,Noord-Brabant,VBO,4.765588,51.574101
Jacob van Lennepstraat,17,,,4819EM,Breda,Breda,Noord-Brabant,VBO,4.765569,51.574048
Jacob van Lennepstraat,19,,,4819EM,Breda,Breda,Noord-Brabant,VBO,4.765549,51.573996
Jacob van Lennepstraat,21,,,4819EM,Breda,Breda,Noord-Brabant,VBO,4.765530,51.573943
Jacob van Lennepstraat,23,,,4819EM,Breda,Breda,Noord-Brabant,VBO,4.765511,51.573890
Jacob van Lennepstraat,25,,,4819EM,Breda,Breda,Noord-Brabant,VBO,4.765491,51.573837
Jacob van Lennepstraat,27,,,4819EM,Breda,Breda,Noord-Brabant,VBO,4.765471,51.573783
Jacob van Lennepstraat,29,,,4819EM,Breda,Breda,Noord-Brabant,VBO,4.765458,51.573749
Jacob van Lennepstraat,31,,,4819EM,Breda,Breda,Noord-Brabant,VBO,4.765447,51.573720
Jacob van Lennepstraat,33,,,4819EM,Breda,Breda,Noord-Brabant,VBO,4.765438,51.573693
Jacob van Lennepstraat,80,,,4819EM,Breda,Breda,Noord-Brabant,VBO,4.765488,51.574846
Jacob van Lennepstraat,82,,,4819EM,Breda,Breda,Noord-Brabant,VBO,4.765516,51.574922
Veldekestraat,3,,,4819EN,Breda,Breda,Noord-Brabant,VBO,4.767841,51.574238
Veldekestraat,5,,,4819EN,Breda,Breda,Noord-Brabant,VBO,4.767803,51.574245
Veldekestraat,7,,,4819EN,Breda,Breda,Noord-Brabant,VBO,4.767760,51.574245
Veldekestraat,9,,,4819EN,Breda,Breda,Noord-Brabant,VBO,4.767717,51.574254
Veldekestraat,11,,,4819EN,Breda,Breda,Noord-Brabant,VBO,4.767654,51.574263
Veldekestraat,13,,,4819EN,Breda,Breda,Noord-Brabant,VBO,4.767611,51.574269
Veldekestraat,15,,,4819EN,Breda,Breda,Noord-Brabant,VBO,4.767568,51.574278
Veldekestraat,17,,,4819EN,Breda,Breda,Noord-Brabant,VBO,4.767523,51.574284
Veldekestraat,19,,,4819EN,Breda,Breda,Noord-Brabant,VBO,4.767472,51.574284
Veldekestraat,23,,,4819EN,Breda,Breda,Noord-Brabant,VBO,4.767074,51.574276
Veldekestraat,25,,,4819EN,Breda,Breda,Noord-Brabant,VBO,4.766989,51.574288
Veldekestraat,27,,,4819EN,Breda,Breda,Noord-Brabant,VBO,4.766903,51.574301
Veldekestraat,29,,,4819EN,Breda,Breda,Noord-Brabant,VBO,4.766819,51.574313
Veldekestraat,31,,,4819EN,Breda,Breda,Noord-Brabant,VBO,4.766735,51.574325
Veldekestraat,33,,,4819EN,Breda,Breda,Noord-Brabant,VBO,4.766650,51.574337
Veldekestraat,35,,,4819EN,Breda,Breda,Noord-Brabant,VBO,4.766564,51.574349
Veldekestraat,39,,,4819EN,Breda,Breda,Noord-Brabant,VBO,4.766243,51.574460
Veldekestraat,41,,,4819EN,Breda,Breda,Noord-Brabant,VBO,4.766199,51.574469
Veldekestraat,43,,,4819EN,Breda,Breda,Noord-Brabant,VBO,4.766156,51.574478
Veldekestraat,45,,,4819EN,Breda,Breda,Noord-Brabant,VBO,4.766118,51.574485
Veldekestraat,47,,,4819EN,Breda,Breda,Noord-Brabant,VBO,4.766079,51.574491
Veldekestraat,49,,,4819EN,Breda,Breda,Noord-Brabant,VBO,4.766036,51.574497
Veldekestraat,51,,,4819EN,Breda,Breda,Noord-Brabant,VBO,4.765948,51.574511
Veldekestraat,53,,,4819EN,Breda,Breda,Noord-Brabant,VBO,4.765904,51.574514
Veldekestraat,55,,,4819EN,Breda,Breda,Noord-Brabant,VBO,4.765858,51.574521
Veldekestraat,57,,,4819EN,Breda,Breda,Noord-Brabant,VBO,4.765800,51.574527
Veldekestraat,59,,,4819EN,Breda,Breda,Noord-Brabant,VBO,4.765747,51.574536
Veldekestraat,2,A,,4819EP,Breda,Breda,Noord-Brabant,VBO,4.767959,51.574384
Veldekestraat,2,,,4819EP,Breda,Breda,Noord-Brabant,VBO,4.768042,51.574379
Veldekestraat,4,A,,4819EP,Breda,Breda,Noord-Brabant,VBO,4.767831,51.574402
Veldekestraat,4,,,4819EP,Breda,Breda,Noord-Brabant,VBO,4.767904,51.574392
Veldekestraat,6,A,,4819EP,Breda,Breda,Noord-Brabant,VBO,4.767733,51.574418
Veldekestraat,6,,,4819EP,Breda,Breda,Noord-Brabant,VBO,4.767804,51.574408
Veldekestraat,8,A,,4819EP,Breda,Breda,Noord-Brabant,VBO,4.767596,51.574435
Veldekestraat,8,,,4819EP,Breda,Breda,Noord-Brabant,VBO,4.767662,51.574427
Veldekestraat,10,,,4819EP,Breda,Breda,Noord-Brabant,VBO,4.767525,51.574446
Veldekestraat,12,A,,4819EP,Breda,Breda,Noord-Brabant,VBO,4.767302,51.574482
Veldekestraat,12,,,4819EP,Breda,Breda,Noord-Brabant,VBO,4.767375,51.574470
Veldekestraat,14,,,4819EP,Breda,Breda,Noord-Brabant,VBO,4.767500,51.574481
Veldekestraat,16,,,4819EP,Breda,Breda,Noord-Brabant,VBO,4.767540,51.574474
Veldekestraat,18,,,4819EP,Breda,Breda,Noord-Brabant,VBO,4.767581,51.574470
Veldekestraat,20,,,4819EP,Breda,Breda,Noord-Brabant,VBO,4.767628,51.574463
Veldekestraat,22,,,4819EP,Breda,Breda,Noord-Brabant,VBO,4.767672,51.574457
Veldekestraat,24,,,4819EP,Breda,Breda,Noord-Brabant,VBO,4.767719,51.574451
Veldekestraat,26,,,4819EP,Breda,Breda,Noord-Brabant,VBO,4.767767,51.574445
Veldekestraat,28,,,4819EP,Breda,Breda,Noord-Brabant,VBO,4.767814,51.574438
Veldekestraat,30,,,4819EP,Breda,Breda,Noord-Brabant,VBO,4.767860,51.574431
Veldekestraat,32,,,4819EP,Breda,Breda,Noord-Brabant,VBO,4.767910,51.574422
Veldekestraat,42,,,4819EP,Breda,Breda,Noord-Brabant,VBO,4.766947,51.574544
Veldekestraat,44,,,4819EP,Breda,Breda,Noord-Brabant,VBO,4.766875,51.574554
Veldekestraat,46,A,,4819EP,Breda,Breda,Noord-Brabant,VBO,4.766932,51.574618
Veldekestraat,46,B,,4819EP,Breda,Breda,Noord-Brabant,VBO,4.766904,51.574646
Veldekestraat,46,C,,4819EP,Breda,Breda,Noord-Brabant,VBO,4.766947,51.574644
Veldekestraat,46,,,4819EP,Breda,Breda,Noord-Brabant,VBO,4.766895,51.574623
Veldekestraat,48,A,,4819EP,Breda,Breda,Noord-Brabant,VBO,4.766955,51.574671
Veldekestraat,48,B,,4819EP,Breda,Breda,Noord-Brabant,VBO,4.766920,51.574702
Veldekestraat,48,C,,4819EP,Breda,Breda,Noord-Brabant,VBO,4.766967,51.574699
Veldekestraat,48,,,4819EP,Breda,Breda,Noord-Brabant,VBO,4.766908,51.574675
Veldekestraat,50,A,,4819EP,Breda,Breda,Noord-Brabant,VBO,4.766985,51.574751
Veldekestraat,50,B,,4819EP,Breda,Breda,Noord-Brabant,VBO,4.766948,51.574781
Veldekestraat,50,C,,4819EP,Breda,Breda,Noord-Brabant,VBO,4.766991,51.574778
Veldekestraat,50,,,4819EP,Breda,Breda,Noord-Brabant,VBO,4.766937,51.574754
Veldekestraat,52,,,4819EP,Breda,Breda,Noord-Brabant,VBO,4.766384,51.574624
Veldekestraat,54,,,4819EP,Breda,Breda,Noord-Brabant,VBO,4.766455,51.574614
Veldekestraat,56,A,,4819ER,Breda,Breda,Noord-Brabant,VBO,4.766413,51.574711
Veldekestraat,56,B,,4819ER,Breda,Breda,Noord-Brabant,VBO,4.766445,51.574681
Veldekestraat,56,C,,4819ER,Breda,Breda,Noord-Brabant,VBO,4.766457,51.574705
Veldekestraat,56,,,4819ER,Breda,Breda,Noord-Brabant,VBO,4.766402,51.574687
Veldekestraat,58,A,,4819ER,Breda,Breda,Noord-Brabant,VBO,4.766440,51.574787
Veldekestraat,58,B,,4819ER,Breda,Breda,Noord-Brabant,VBO,4.766475,51.574758
Veldekestraat,58,C,,4819ER,Breda,Breda,Noord-Brabant,VBO,4.766489,51.574783
Veldekestraat,58,,,4819ER,Breda,Breda,Noord-Brabant,VBO,4.766429,51.574763
Veldekestraat,60,A,,4819ER,Breda,Breda,Noord-Brabant,VBO,4.766474,51.574872
Veldekestraat,60,B,,4819ER,Breda,Breda,Noord-Brabant,VBO,4.766511,51.574845
Veldekestraat,60,C,,4819ER,Breda,Breda,Noord-Brabant,VBO,4.766522,51.574869
Veldekestraat,60,,,4819ER,Breda,Breda,Noord-Brabant,VBO,4.766461,51.574850
Veldekestraat,62,,,4819ER,Breda,Breda,Noord-Brabant,VBO,4.765963,51.574685
Veldekestraat,64,,,4819ER,Breda,Breda,Noord-Brabant,VBO,4.765892,51.574695
Veldekestraat,66,A,,4819ER,Breda,Breda,Noord-Brabant,VBO,4.765916,51.574775
Veldekestraat,66,B,,4819ER,Breda,Breda,Noord-Brabant,VBO,4.765949,51.574742
Veldekestraat,66,C,,4819ER,Breda,Breda,Noord-Brabant,VBO,4.765961,51.574770
Veldekestraat,66,,,4819ER,Breda,Breda,Noord-Brabant,VBO,4.765903,51.574747
Veldekestraat,68,A,,4819ER,Breda,Breda,Noord-Brabant,VBO,4.765947,51.574855
Veldekestraat,68,B,,4819ER,Breda,Breda,Noord-Brabant,VBO,4.765984,51.574827
Veldekestraat,68,C,,4819ER,Breda,Breda,Noord-Brabant,VBO,4.765996,51.574852
Veldekestraat,68,,,4819ER,Breda,Breda,Noord-Brabant,VBO,4.765936,51.574832
Veldekestraat,70,A,,4819ER,Breda,Breda,Noord-Brabant,VBO,4.765975,51.574937
Veldekestraat,70,B,,4819ER,Breda,Breda,Noord-Brabant,VBO,4.766015,51.574909
Veldekestraat,70,C,,4819ER,Breda,Breda,Noord-Brabant,VBO,4.766031,51.574934
Veldekestraat,70,,,4819ER,Breda,Breda,Noord-Brabant,VBO,4.765964,51.574915
Langendijk,1,A,,4819ES,Breda,Breda,Noord-Brabant,VBO,4.768127,51.574624
Langendijk,1,,,4819ES,Breda,Breda,Noord-Brabant,VBO,4.768133,51.574641
Langendijk,3,A,,4819ES,Breda,Breda,Noord-Brabant,VBO,4.768057,51.574632
Langendijk,5,A,,4819ES,Breda,Breda,Noord-Brabant,VBO,4.767990,51.574638
Langendijk,5,,,4819ES,Breda,Breda,Noord-Brabant,VBO,4.767996,51.574661
Langendijk,7,A,,4819ES,Breda,Breda,Noord-Brabant,VBO,4.767925,51.574647
Langendijk,9,A,,4819ES,Breda,Breda,Noord-Brabant,VBO,4.767857,51.574657
Langendijk,9,,,4819ES,Breda,Breda,Noord-Brabant,VBO,4.767862,51.574681
Langendijk,11,A,,4819ES,Breda,Breda,Noord-Brabant,VBO,4.767798,51.574665
Langendijk,11,,,4819ES,Breda,Breda,Noord-Brabant,VBO,4.767800,51.574689
Langendijk,13,A,,4819ES,Breda,Breda,Noord-Brabant,VBO,4.767729,51.574675
Langendijk,13,,,4819ES,Breda,Breda,Noord-Brabant,VBO,4.767733,51.574699
Langendijk,15,A,,4819ES,Breda,Breda,Noord-Brabant,VBO,4.767662,51.574688
Langendijk,15,,,4819ES,Breda,Breda,Noord-Brabant,VBO,4.767663,51.574709
Langendijk,17,A,,4819ES,Breda,Breda,Noord-Brabant,VBO,4.767592,51.574696
Langendijk,19,A,,4819ES,Breda,Breda,Noord-Brabant,VBO,4.767528,51.574704
Langendijk,21,A,,4819ES,Breda,Breda,Noord-Brabant,VBO,4.767454,51.574716
Langendijk,21,,,4819ES,Breda,Breda,Noord-Brabant,VBO,4.767459,51.574735
Langendijk,23,A,,4819ES,Breda,Breda,Noord-Brabant,VBO,4.767362,51.574733
Langendijk,25,,,4819ET,Breda,Breda,Noord-Brabant,VBO,4.765273,51.575054
Langendijk,27,A,,4819ET,Breda,Breda,Noord-Brabant,VBO,4.764923,51.575095
Langendijk,27,B,,4819ET,Breda,Breda,Noord-Brabant,VBO,4.764862,51.575108
Langendijk,27,,,4819ET,Breda,Breda,Noord-Brabant,VBO,4.764976,51.575087
Langendijk,29,A,,4819ET,Breda,Breda,Noord-Brabant,VBO,4.764886,51.575076
Langendijk,29,B,,4819ET,Breda,Breda,Noord-Brabant,VBO,4.764930,51.575068
Langendijk,29,,,4819ET,Breda,Breda,Noord-Brabant,VBO,4.764843,51.575081
Langendijk,31,A,,4819ET,Breda,Breda,Noord-Brabant,VBO,4.764869,51.575058
Langendijk,31,B,,4819ET,Breda,Breda,Noord-Brabant,VBO,4.764909,51.575050
Langendijk,31,,,4819ET,Breda,Breda,Noord-Brabant,VBO,4.764827,51.575060
Langendijk,33,A,,4819ET,Breda,Breda,Noord-Brabant,VBO,4.764854,51.575038
Langendijk,33,B,,4819ET,Breda,Breda,Noord-Brabant,VBO,4.764897,51.575032
Langendijk,33,,,4819ET,Breda,Breda,Noord-Brabant,VBO,4.764819,51.575040
Langendijk,35,A,,4819ET,Breda,Breda,Noord-Brabant,VBO,4.764845,51.575018
Langendijk,35,B,,4819ET,Breda,Breda,Noord-Brabant,VBO,4.764885,51.575013
Langendijk,35,,,4819ET,Breda,Breda,Noord-Brabant,VBO,4.764807,51.575019
Langendijk,37,A,,4819ET,Breda,Breda,Noord-Brabant,VBO,4.764833,51.574997
Langendijk,37,B,,4819ET,Breda,Breda,Noord-Brabant,VBO,4.764877,51.574995
Langendijk,37,,,4819ET,Breda,Breda,Noord-Brabant,VBO,4.764797,51.574996
Langendijk,39,A,,4819ET,Breda,Breda,Noord-Brabant,VBO,4.764823,51.574977
Langendijk,39,B,,4819ET,Breda,Breda,Noord-Brabant,VBO,4.764868,51.574975
Langendijk,39,,,4819ET,Breda,Breda,Noord-Brabant,VBO,4.764783,51.574977
Langendijk,41,A,,4819ET,Breda,Breda,Noord-Brabant,VBO,4.764813,51.574956
Langendijk,41,B,,4819ET,Breda,Breda,Noord-Brabant,VBO,4.764851,51.574954
Langendijk,41,,,4819ET,Breda,Breda,Noord-Brabant,VBO,4.764778,51.574956
Langendijk,43,A,,4819ET,Breda,Breda,Noord-Brabant,VBO,4.764804,51.574936
Langendijk,43,B,,4819ET,Breda,Breda,Noord-Brabant,VBO,4.764846,51.574936
Langendijk,43,,,4819ET,Breda,Breda,Noord-Brabant,VBO,4.764770,51.574936
Langendijk,45,A,,4819ET,Breda,Breda,Noord-Brabant,VBO,4.764798,51.574916
Langendijk,45,B,,4819ET,Breda,Breda,Noord-Brabant,VBO,4.764843,51.574914
Langendijk,45,,,4819ET,Breda,Breda,Noord-Brabant,VBO,4.764765,51.574916
Langendijk,47,A,,4819ET,Breda,Breda,Noord-Brabant,VBO,4.764795,51.574895
Langendijk,47,B,,4819ET,Breda,Breda,Noord-Brabant,VBO,4.764838,51.574894
Langendijk,47,,,4819ET,Breda,Breda,Noord-Brabant,VBO,4.764758,51.574896
Langendijk,49,A,,4819ET,Breda,Breda,Noord-Brabant,VBO,4.764790,51.574874
Langendijk,49,B,,4819ET,Breda,Breda,Noord-Brabant,VBO,4.764833,51.574875
Langendijk,49,,,4819ET,Breda,Breda,Noord-Brabant,VBO,4.764753,51.574876
Langendijk,51,A,,4819ET,Breda,Breda,Noord-Brabant,VBO,4.764785,51.574853
Langendijk,51,B,,4819ET,Breda,Breda,Noord-Brabant,VBO,4.764826,51.574853
Langendijk,51,,,4819ET,Breda,Breda,Noord-Brabant,VBO,4.764748,51.574855
Langendijk,53,A,,4819ET,Breda,Breda,Noord-Brabant,VBO,4.764780,51.574832
Langendijk,53,B,,4819ET,Breda,Breda,Noord-Brabant,VBO,4.764823,51.574832
Langendijk,53,,,4819ET,Breda,Breda,Noord-Brabant,VBO,4.764743,51.574834
Langendijk,55,A,,4819ET,Breda,Breda,Noord-Brabant,VBO,4.764780,51.574812
Langendijk,55,B,,4819ET,Breda,Breda,Noord-Brabant,VBO,4.764822,51.574812
Langendijk,55,,,4819ET,Breda,Breda,Noord-Brabant,VBO,4.764742,51.574811
Langendijk,57,A,,4819ET,Breda,Breda,Noord-Brabant,VBO,4.764775,51.574792
Langendijk,57,B,,4819ET,Breda,Breda,Noord-Brabant,VBO,4.764819,51.574793
Langendijk,57,,,4819ET,Breda,Breda,Noord-Brabant,VBO,4.764739,51.574791
Langendijk,59,A,,4819ET,Breda,Breda,Noord-Brabant,VBO,4.764775,51.574772
Langendijk,59,B,,4819ET,Breda,Breda,Noord-Brabant,VBO,4.764817,51.574776
Langendijk,59,,,4819ET,Breda,Breda,Noord-Brabant,VBO,4.764737,51.574771
Langendijk,61,A,,4819ET,Breda,Breda,Noord-Brabant,VBO,4.764776,51.574754
Langendijk,61,B,,4819ET,Breda,Breda,Noord-Brabant,VBO,4.764815,51.574760
Langendijk,61,,,4819ET,Breda,Breda,Noord-Brabant,VBO,4.764736,51.574751
Langendijk,71,,,4819EV,Breda,Breda,Noord-Brabant,VBO,4.763627,51.575195
Langendijk,75,,,4819EV,Breda,Breda,Noord-Brabant,VBO,4.763127,51.573312
Langendijk,87,,,4819EV,Breda,Breda,Noord-Brabant,VBO,4.759558,51.574890
Langendijk,34,,,4819EW,Breda,Breda,Noord-Brabant,VBO,4.765324,51.575344
Langendijk,38,,,4819EW,Breda,Breda,Noord-Brabant,VBO,4.763547,51.575576
Langendijk,40,,,4819EW,Breda,Breda,Noord-Brabant,VBO,4.763092,51.575641
Langendijk,42,,,4819EW,Breda,Breda,Noord-Brabant,VBO,4.763002,51.575653
Langendijk,44,,,4819EW,Breda,Breda,Noord-Brabant,VBO,4.762913,51.575665
Langendijk,46,,,4819EW,Breda,Breda,Noord-Brabant,VBO,4.762823,51.575678
Langendijk,50,,,4819EW,Breda,Breda,Noord-Brabant,VBO,4.762045,51.576114
Bilderdijkstraat,3,,,4819GA,Breda,Breda,Noord-Brabant,VBO,4.768471,51.577055
Bilderdijkstraat,5,,,4819GA,Breda,Breda,Noord-Brabant,VBO,4.768463,51.577031
Bilderdijkstraat,7,,,4819GA,Breda,Breda,Noord-Brabant,VBO,4.768452,51.577003
Bilderdijkstraat,9,,,4819GA,Breda,Breda,Noord-Brabant,VBO,4.768446,51.576978
Bilderdijkstraat,11,,,4819GA,Breda,Breda,Noord-Brabant,VBO,4.768436,51.576952
Bilderdijkstraat,13,,,4819GA,Breda,Breda,Noord-Brabant,VBO,4.768522,51.576875
Bilderdijkstraat,15,,,4819GA,Breda,Breda,Noord-Brabant,VBO,4.768503,51.576823
Bilderdijkstraat,17,,,4819GA,Breda,Breda,Noord-Brabant,VBO,4.768485,51.576771
Bilderdijkstraat,19,,,4819GA,Breda,Breda,Noord-Brabant,VBO,4.768466,51.576719
Bilderdijkstraat,21,,,4819GA,Breda,Breda,Noord-Brabant,VBO,4.768448,51.576667
Bilderdijkstraat,23,,,4819GA,Breda,Breda,Noord-Brabant,VBO,4.768430,51.576615
Bilderdijkstraat,25,,,4819GA,Breda,Breda,Noord-Brabant,VBO,4.768411,51.576564
Bilderdijkstraat,27,,,4819GA,Breda,Breda,Noord-Brabant,VBO,4.768393,51.576512
Bilderdijkstraat,29,,,4819GA,Breda,Breda,Noord-Brabant,VBO,4.768374,51.576460
Bilderdijkstraat,31,,,4819GA,Breda,Breda,Noord-Brabant,VBO,4.768356,51.576408
Bilderdijkstraat,33,,,4819GA,Breda,Breda,Noord-Brabant,VBO,4.768338,51.576356
Bilderdijkstraat,35,,,4819GA,Breda,Breda,Noord-Brabant,VBO,4.768319,51.576304
Bilderdijkstraat,39,,,4819GA,Breda,Breda,Noord-Brabant,VBO,4.768258,51.576132
Bilderdijkstraat,41,,,4819GA,Breda,Breda,Noord-Brabant,VBO,4.768092,51.575866
Bilderdijkstraat,43,,,4819GA,Breda,Breda,Noord-Brabant,VBO,4.768072,51.575811
Bilderdijkstraat,45,,,4819GA,Breda,Breda,Noord-Brabant,VBO,4.768053,51.575759
Bilderdijkstraat,47,,,4819GA,Breda,Breda,Noord-Brabant,VBO,4.768033,51.575706
Bilderdijkstraat,49,,,4819GA,Breda,Breda,Noord-Brabant,VBO,4.768014,51.575653
Bilderdijkstraat,51,,,4819GA,Breda,Breda,Noord-Brabant,VBO,4.767994,51.575601
Bilderdijkstraat,53,,,4819GA,Breda,Breda,Noord-Brabant,VBO,4.767975,51.575549
Bilderdijkstraat,55,,,4819GA,Breda,Breda,Noord-Brabant,VBO,4.767956,51.575495
Bilderdijkstraat,57,,,4819GA,Breda,Breda,Noord-Brabant,VBO,4.767936,51.575442
Bilderdijkstraat,59,,,4819GA,Breda,Breda,Noord-Brabant,VBO,4.767916,51.575388
Bilderdijkstraat,65,,,4819GA,Breda,Breda,Noord-Brabant,VBO,4.767878,51.575285
Bilderdijkstraat,67,,,4819GA,Breda,Breda,Noord-Brabant,VBO,4.767860,51.575070
Bilderdijkstraat,69,,,4819GA,Breda,Breda,Noord-Brabant,VBO,4.767844,51.575026
Bilderdijkstraat,71,A,,4819GB,Breda,Breda,Noord-Brabant,VBO,4.767938,51.575041
Bilderdijkstraat,71,B,,4819GB,Breda,Breda,Noord-Brabant,VBO,4.767972,51.575007
Bilderdijkstraat,71,C,,4819GB,Breda,Breda,Noord-Brabant,VBO,4.767984,51.575034
Bilderdijkstraat,71,,,4819GB,Breda,Breda,Noord-Brabant,VBO,4.767930,51.575012
Bilderdijkstraat,73,A,,4819GB,Breda,Breda,Noord-Brabant,VBO,4.768062,51.575020
Bilderdijkstraat,73,B,,4819GB,Breda,Breda,Noord-Brabant,VBO,4.768097,51.574989
Bilderdijkstraat,73,C,,4819GB,Breda,Breda,Noord-Brabant,VBO,4.768105,51.575015
Bilderdijkstraat,73,,,4819GB,Breda,Breda,Noord-Brabant,VBO,4.768053,51.574994
Bilderdijkstraat,75,A,,4819GB,Breda,Breda,Noord-Brabant,VBO,4.768195,51.574998
Bilderdijkstraat,75,B,,4819GB,Breda,Breda,Noord-Brabant,VBO,4.768228,51.574968
Bilderdijkstraat,75,C,,4819GB,Breda,Breda,Noord-Brabant,VBO,4.768238,51.574994
Bilderdijkstraat,75,,,4819GB,Breda,Breda,Noord-Brabant,VBO,4.768183,51.574973
Bilderdijkstraat,2,,,4819GC,Breda,Breda,Noord-Brabant,VBO,4.767981,51.576996
Bilderdijkstraat,4,,,4819GC,Breda,Breda,Noord-Brabant,VBO,4.767949,51.576905
Bilderdijkstraat,6,,,4819GC,Breda,Breda,Noord-Brabant,VBO,4.767733,51.576811
Bilderdijkstraat,8,A,,4819GC,Breda,Breda,Noord-Brabant,VBO,4.768013,51.576772
Bilderdijkstraat,8,,,4819GC,Breda,Breda,Noord-Brabant,VBO,4.767875,51.576792
Bilderdijkstraat,10,,,4819GC,Breda,Breda,Noord-Brabant,VBO,4.767706,51.575865
Bilderdijkstraat,12,,,4819GC,Breda,Breda,Noord-Brabant,VBO,4.767677,51.575776
Bilderdijkstraat,14,,,4819GC,Breda,Breda,Noord-Brabant,VBO,4.767650,51.575698
Bilderdijkstraat,16,,,4819GC,Breda,Breda,Noord-Brabant,VBO,4.767621,51.575619
Bilderdijkstraat,18,,,4819GC,Breda,Breda,Noord-Brabant,VBO,4.767594,51.575532
Bilderdijkstraat,20,,,4819GC,Breda,Breda,Noord-Brabant,VBO,4.767569,51.575472
Ruusbroecstraat,3,,,4819GD,Breda,Breda,Noord-Brabant,VBO,4.765439,51.577028
Ruusbroecstraat,5,,,4819GD,Breda,Breda,Noord-Brabant,VBO,4.765421,51.576975
Ruusbroecstraat,7,,,4819GD,Breda,Breda,Noord-Brabant,VBO,4.765403,51.576923
Ruusbroecstraat,9,,,4819GD,Breda,Breda,Noord-Brabant,VBO,4.765384,51.576870
Ruusbroecstraat,11,,,4819GD,Breda,Breda,Noord-Brabant,VBO,4.765366,51.576817
Ruusbroecstraat,13,,,4819GD,Breda,Breda,Noord-Brabant,VBO,4.765348,51.576765
Ruusbroecstraat,15,,,4819GD,Breda,Breda,Noord-Brabant,VBO,4.765330,51.576712
Ruusbroecstraat,21,,,4819GD,Breda,Breda,Noord-Brabant,VBO,4.765157,51.576044
Ruusbroecstraat,2,,,4819GE,Breda,Breda,Noord-Brabant,VBO,4.765154,51.577360
Ruusbroecstraat,4,,,4819GE,Breda,Breda,Noord-Brabant,VBO,4.765140,51.577324
Ruusbroecstraat,6,,,4819GE,Breda,Breda,Noord-Brabant,VBO,4.765141,51.577297
Ruusbroecstraat,8,,,4819GE,Breda,Breda,Noord-Brabant,VBO,4.765126,51.577270
Ruusbroecstraat,10,,,4819GE,Breda,Breda,Noord-Brabant,VBO,4.765112,51.577243
Ruusbroecstraat,12,,,4819GE,Breda,Breda,Noord-Brabant,VBO,4.765113,51.577216
Ruusbroecstraat,14,,,4819GE,Breda,Breda,Noord-Brabant,VBO,4.765099,51.577189
Ruusbroecstraat,16,,,4819GE,Breda,Breda,Noord-Brabant,VBO,4.764678,51.577235
Ruusbroecstraat,18,,,4819GE,Breda,Breda,Noord-Brabant,VBO,4.764633,51.577239
Ruusbroecstraat,20,,,4819GE,Breda,Breda,Noord-Brabant,VBO,4.764597,51.577242
Ruusbroecstraat,22,,,4819GE,Breda,Breda,Noord-Brabant,VBO,4.764557,51.577247
Ruusbroecstraat,24,,,4819GE,Breda,Breda,Noord-Brabant,VBO,4.764511,51.577250
Ruusbroecstraat,26,,,4819GE,Breda,Breda,Noord-Brabant,VBO,4.764464,51.577229
Ruusbroecstraat,28,,,4819GE,Breda,Breda,Noord-Brabant,VBO,4.764450,51.577204
Ruusbroecstraat,30,,,4819GE,Breda,Breda,Noord-Brabant,VBO,4.764440,51.577176
Ruusbroecstraat,32,,,4819GE,Breda,Breda,Noord-Brabant,VBO,4.764429,51.577154
Ruusbroecstraat,34,,,4819GE,Breda,Breda,Noord-Brabant,VBO,4.764425,51.577128
Ruusbroecstraat,36,,,4819GE,Breda,Breda,Noord-Brabant,VBO,4.764419,51.577100
Ruusbroecstraat,38,,,4819GE,Breda,Breda,Noord-Brabant,VBO,4.764416,51.577068
Ruusbroecstraat,40,,,4819GE,Breda,Breda,Noord-Brabant,VBO,4.765085,51.577126
Ruusbroecstraat,42,,,4819GE,Breda,Breda,Noord-Brabant,VBO,4.765071,51.577099
Ruusbroecstraat,44,,,4819GE,Breda,Breda,Noord-Brabant,VBO,4.765009,51.577003
Ruusbroecstraat,46,,,4819GE,Breda,Breda,Noord-Brabant,VBO,4.764922,51.577013
Ruusbroecstraat,48,,,4819GE,Breda,Breda,Noord-Brabant,VBO,4.764836,51.577022
Ruusbroecstraat,50,,,4819GE,Breda,Breda,Noord-Brabant,VBO,4.764750,51.577032
Ruusbroecstraat,52,,,4819GE,Breda,Breda,Noord-Brabant,VBO,4.764588,51.576998
Ruusbroecstraat,54,,,4819GE,Breda,Breda,Noord-Brabant,VBO,4.764569,51.576945
Ruusbroecstraat,56,,,4819GE,Breda,Breda,Noord-Brabant,VBO,4.764551,51.576892
Ruusbroecstraat,58,,,4819GE,Breda,Breda,Noord-Brabant,VBO,4.764532,51.576839
Ruusbroecstraat,60,,,4819GE,Breda,Breda,Noord-Brabant,VBO,4.764478,51.576699
Ruusbroecstraat,62,,,4819GE,Breda,Breda,Noord-Brabant,VBO,4.764563,51.576683
Ruusbroecstraat,64,,,4819GE,Breda,Breda,Noord-Brabant,VBO,4.764646,51.576667
Ruusbroecstraat,66,,,4819GE,Breda,Breda,Noord-Brabant,VBO,4.764729,51.576651
Ruusbroecstraat,68,,,4819GE,Breda,Breda,Noord-Brabant,VBO,4.764812,51.576635
Ruusbroecstraat,70,,,4819GE,Breda,Breda,Noord-Brabant,VBO,4.764897,51.576619
Ruusbroecstraat,72,,,4819GE,Breda,Breda,Noord-Brabant,VBO,4.764932,51.576557
Ruusbroecstraat,74,,,4819GE,Breda,Breda,Noord-Brabant,VBO,4.764905,51.576472
Ruusbroecstraat,76,,,4819GE,Breda,Breda,Noord-Brabant,VBO,4.764890,51.576425
Ruusbroecstraat,78,,,4819GE,Breda,Breda,Noord-Brabant,VBO,4.764861,51.576335
Ruusbroecstraat,80,,,4819GE,Breda,Breda,Noord-Brabant,VBO,4.764806,51.576314
Ruusbroecstraat,82,,,4819GE,Breda,Breda,Noord-Brabant,VBO,4.764719,51.576327
Ruusbroecstraat,84,,,4819GE,Breda,Breda,Noord-Brabant,VBO,4.764634,51.576339
Ruusbroecstraat,86,,,4819GE,Breda,Breda,Noord-Brabant,VBO,4.764548,51.576351
Ruusbroecstraat,88,,,4819GE,Breda,Breda,Noord-Brabant,VBO,4.764462,51.576364
Ruusbroecstraat,90,,,4819GE,Breda,Breda,Noord-Brabant,VBO,4.764326,51.576328
Ruusbroecstraat,92,,,4819GE,Breda,Breda,Noord-Brabant,VBO,4.764303,51.576275
Ruusbroecstraat,94,,,4819GE,Breda,Breda,Noord-Brabant,VBO,4.764281,51.576222
Ruusbroecstraat,96,,,4819GE,Breda,Breda,Noord-Brabant,VBO,4.764258,51.576169
Ruusbroecstraat,98,,,4819GG,Breda,Breda,Noord-Brabant,VBO,4.764254,51.576034
Ruusbroecstraat,100,,,4819GG,Breda,Breda,Noord-Brabant,VBO,4.764339,51.576020
Ruusbroecstraat,102,,,4819GG,Breda,Breda,Noord-Brabant,VBO,4.764423,51.576005
Ruusbroecstraat,104,,,4819GG,Breda,Breda,Noord-Brabant,VBO,4.764507,51.575990
Ruusbroecstraat,106,,,4819GG,Breda,Breda,Noord-Brabant,VBO,4.764591,51.575976
Ruusbroecstraat,108,,,4819GG,Breda,Breda,Noord-Brabant,VBO,4.764676,51.575961
Ruusbroecstraat,110,,,4819GG,Breda,Breda,Noord-Brabant,VBO,4.764696,51.575819
Ruusbroecstraat,112,,,4819GG,Breda,Breda,Noord-Brabant,VBO,4.764659,51.575716
Ruusbroecstraat,114,,,4819GG,Breda,Breda,Noord-Brabant,VBO,4.764564,51.575653
Ruusbroecstraat,116,,,4819GG,Breda,Breda,Noord-Brabant,VBO,4.764478,51.575666
Ruusbroecstraat,118,,,4819GG,Breda,Breda,Noord-Brabant,VBO,4.764393,51.575678
Ruusbroecstraat,120,,,4819GG,Breda,Breda,Noord-Brabant,VBO,4.764308,51.575690
Ruusbroecstraat,122,,,4819GG,Breda,Breda,Noord-Brabant,VBO,4.764221,51.575702
Ruusbroecstraat,124,,,4819GG,Breda,Breda,Noord-Brabant,VBO,4.764088,51.575666
Ruusbroecstraat,126,,,4819GG,Breda,Breda,Noord-Brabant,VBO,4.764064,51.575613
Ruusbroecstraat,128,,,4819GG,Breda,Breda,Noord-Brabant,VBO,4.764040,51.575561
Ruusbroecstraat,130,,,4819GG,Breda,Breda,Noord-Brabant,VBO,4.764016,51.575508
Jacob Catssingel,1,,,4819HA,Breda,Breda,Noord-Brabant,VBO,4.764593,51.578840
Jacob Catssingel,3,,,4819HA,Breda,Breda,Noord-Brabant,VBO,4.764578,51.578789
Jacob Catssingel,5,,,4819HA,Breda,Breda,Noord-Brabant,VBO,4.764564,51.578739
Jacob Catssingel,7,,,4819HA,Breda,Breda,Noord-Brabant,VBO,4.764539,51.578646
Jacob Catssingel,9,,,4819HA,Breda,Breda,Noord-Brabant,VBO,4.764524,51.578594
Jacob Catssingel,11,,,4819HA,Breda,Breda,Noord-Brabant,VBO,4.764510,51.578545
Jacob Catssingel,15,,,4819HA,Breda,Breda,Noord-Brabant,VBO,4.764429,51.578215
Jacob Catssingel,17,,,4819HA,Breda,Breda,Noord-Brabant,VBO,4.764413,51.578159
Jacob Catssingel,19,,,4819HA,Breda,Breda,Noord-Brabant,VBO,4.764398,51.578110
Jacob Catssingel,21,,,4819HA,Breda,Breda,Noord-Brabant,VBO,4.764371,51.578012
Jacob Catssingel,23,,,4819HA,Breda,Breda,Noord-Brabant,VBO,4.764358,51.577962
Jacob Catssingel,25,,,4819HA,Breda,Breda,Noord-Brabant,VBO,4.764342,51.577904
Jacob Catssingel,27,,,4819HA,Breda,Breda,Noord-Brabant,VBO,4.764327,51.577853
Jacob Catssingel,31,,,4819HA,Breda,Breda,Noord-Brabant,VBO,4.764146,51.577281
Jacob Catssingel,33,,,4819HA,Breda,Breda,Noord-Brabant,VBO,4.764126,51.577228
Jacob Catssingel,35,,,4819HA,Breda,Breda,Noord-Brabant,VBO,4.764107,51.577176
Jacob Catssingel,37,,,4819HA,Breda,Breda,Noord-Brabant,VBO,4.764087,51.577123
Jacob Catssingel,39,,,4819HA,Breda,Breda,Noord-Brabant,VBO,4.764068,51.577071
Jacob Catssingel,41,,,4819HA,Breda,Breda,Noord-Brabant,VBO,4.764049,51.577018
Jacob Catssingel,43,,,4819HA,Breda,Breda,Noord-Brabant,VBO,4.764029,51.576966
Jacob Catssingel,45,,,4819HA,Breda,Breda,Noord-Brabant,VBO,4.764010,51.576913
Jacob Catssingel,47,,BIS,4819HA,Breda,Breda,Noord-Brabant,VBO,4.764341,51.576699
Jacob Catssingel,47,,,4819HA,Breda,Breda,Noord-Brabant,VBO,4.764355,51.576726
Jacob Catssingel,49,,BIS,4819HA,Breda,Breda,Noord-Brabant,VBO,4.764313,51.576645
Jacob Catssingel,49,,,4819HA,Breda,Breda,Noord-Brabant,VBO,4.764327,51.576672
Jacob Catssingel,51,,BIS,4819HA,Breda,Breda,Noord-Brabant,VBO,4.764299,51.576591
Jacob Catssingel,51,,,4819HA,Breda,Breda,Noord-Brabant,VBO,4.764313,51.576618
Jacob Catssingel,53,,BIS,4819HA,Breda,Breda,Noord-Brabant,VBO,4.764285,51.576544
Jacob Catssingel,53,,,4819HA,Breda,Breda,Noord-Brabant,VBO,4.764294,51.576571
Jacob Catssingel,55,,BIS,4819HA,Breda,Breda,Noord-Brabant,VBO,4.764264,51.576493
Jacob Catssingel,55,,,4819HA,Breda,Breda,Noord-Brabant,VBO,4.764274,51.576518
Jacob Catssingel,57,,BIS,4819HA,Breda,Breda,Noord-Brabant,VBO,4.764243,51.576438
Jacob Catssingel,57,,,4819HA,Breda,Breda,Noord-Brabant,VBO,4.764258,51.576465
Jacob Catssingel,59,,BIS,4819HA,Breda,Breda,Noord-Brabant,VBO,4.764230,51.576384
Jacob Catssingel,59,,,4819HA,Breda,Breda,Noord-Brabant,VBO,4.764229,51.576411
Jacob Catssingel,61,,,4819HB,Breda,Breda,Noord-Brabant,VBO,4.763957,51.576772
Jacob Catssingel,63,,,4819HB,Breda,Breda,Noord-Brabant,VBO,4.763938,51.576719
Jacob Catssingel,65,,,4819HB,Breda,Breda,Noord-Brabant,VBO,4.763918,51.576667
Jacob Catssingel,67,,,4819HB,Breda,Breda,Noord-Brabant,VBO,4.763899,51.576614
Jacob Catssingel,69,,,4819HB,Breda,Breda,Noord-Brabant,VBO,4.763880,51.576562
Jacob Catssingel,71,,,4819HB,Breda,Breda,Noord-Brabant,VBO,4.763860,51.576510
Jacob Catssingel,73,,,4819HB,Breda,Breda,Noord-Brabant,VBO,4.763841,51.576458
Jacob Catssingel,75,,,4819HB,Breda,Breda,Noord-Brabant,VBO,4.763822,51.576406
Jacob Catssingel,77,,,4819HB,Breda,Breda,Noord-Brabant,VBO,4.763803,51.576353
Jacob Catssingel,79,,,4819HB,Breda,Breda,Noord-Brabant,VBO,4.763783,51.576301
Jacob Catssingel,81,,,4819HB,Breda,Breda,Noord-Brabant,VBO,4.763764,51.576248
Jacob Catssingel,83,,BIS,4819HB,Breda,Breda,Noord-Brabant,VBO,4.764090,51.576033
Jacob Catssingel,83,,,4819HB,Breda,Breda,Noord-Brabant,VBO,4.764104,51.576060
Jacob Catssingel,85,,BIS,4819HB,Breda,Breda,Noord-Brabant,VBO,4.764077,51.575979
Jacob Catssingel,85,,,4819HB,Breda,Breda,Noord-Brabant,VBO,4.764076,51.576006
Jacob Catssingel,87,,BIS,4819HB,Breda,Breda,Noord-Brabant,VBO,4.764049,51.575925
Jacob Catssingel,87,,,4819HB,Breda,Breda,Noord-Brabant,VBO,4.764063,51.575952
Jacob Catssingel,89,,BIS,4819HB,Breda,Breda,Noord-Brabant,VBO,4.764035,51.575862
Jacob Catssingel,89,,,4819HB,Breda,Breda,Noord-Brabant,VBO,4.764034,51.575897
Jacob Catssingel,91,,BIS,4819HB,Breda,Breda,Noord-Brabant,VBO,4.764007,51.575807
Jacob Catssingel,91,,,4819HB,Breda,Breda,Noord-Brabant,VBO,4.764021,51.575834
Jacob Catssingel,93,,BIS,4819HB,Breda,Breda,Noord-Brabant,VBO,4.763993,51.575753
Jacob Catssingel,93,,,4819HB,Breda,Breda,Noord-Brabant,VBO,4.763993,51.575780
Jacob Catssingel,95,,BIS,4819HB,Breda,Breda,Noord-Brabant,VBO,4.763979,51.575726
Jacob Catssingel,95,,,4819HB,Breda,Breda,Noord-Brabant,VBO,4.763722,51.576107
Jacob Catssingel,97,,,4819HB,Breda,Breda,Noord-Brabant,VBO,4.763703,51.576054
Jacob Catssingel,99,,,4819HB,Breda,Breda,Noord-Brabant,VBO,4.763683,51.576001
Jacob Catssingel,101,,,4819HB,Breda,Breda,Noord-Brabant,VBO,4.763663,51.575949
Jacob Catssingel,103,,,4819HB,Breda,Breda,Noord-Brabant,VBO,4.763644,51.575896
Jacob Catssingel,105,,,4819HB,Breda,Breda,Noord-Brabant,VBO,4.763624,51.575843
Jacob Catssingel,107,,,4819HB,Breda,Breda,Noord-Brabant,VBO,4.763604,51.575791
Jacob Catssingel,109,,,4819HB,Breda,Breda,Noord-Brabant,VBO,4.763585,51.575738
Jacob Catssingel,111,,,4819HB,Breda,Breda,Noord-Brabant,VBO,4.763565,51.575685
Jacob Catssingel,113,,,4819HB,Breda,Breda,Noord-Brabant,VBO,4.763545,51.575633
Jacob Catssingel,2,A,,4819HC,Breda,Breda,Noord-Brabant,STA,4.764002,51.578774
Jacob Catssingel,2,A,,4819HC,Breda,Breda,Noord-Brabant,STA,4.764003,51.578775
Jacob Catssingel,2,,,4819HC,Breda,Breda,Noord-Brabant,STA,4.764075,51.578880
Jacob Catssingel,4,A,,4819HC,Breda,Breda,Noord-Brabant,STA,4.763939,51.578551
Jacob Catssingel,4,,,4819HC,Breda,Breda,Noord-Brabant,STA,4.763971,51.578662
Jacob Catssingel,6,A,,4819HC,Breda,Breda,Noord-Brabant,STA,4.763878,51.578330
Jacob Catssingel,6,,,4819HC,Breda,Breda,Noord-Brabant,STA,4.763908,51.578440
Jacob Catssingel,8,,,4819HC,Breda,Breda,Noord-Brabant,STA,4.763849,51.578220
Jacob Catssingel,10,,,4819HC,Breda,Breda,Noord-Brabant,VBO,4.763318,51.577897
Jacob Catssingel,12,,,4819HC,Breda,Breda,Noord-Brabant,VBO,4.761834,51.577687
Jacob Catssingel,14,,,4819HC,Breda,Breda,Noord-Brabant,VBO,4.763749,51.577480
Jacob Catssingel,16,,,4819HC,Breda,Breda,Noord-Brabant,VBO,4.763707,51.577365
Jacob Catssingel,18,,,4819HC,Breda,Breda,Noord-Brabant,VBO,4.763670,51.577260
Jacob Catssingel,20,,,4819HC,Breda,Breda,Noord-Brabant,VBO,4.763312,51.577027
Jacob Catssingel,22,,,4819HC,Breda,Breda,Noord-Brabant,VBO,4.763402,51.577015
Jacob Catssingel,24,,,4819HC,Breda,Breda,Noord-Brabant,VBO,4.763491,51.577002
Jacob Catssingel,26,,,4819HC,Breda,Breda,Noord-Brabant,VBO,4.763581,51.576990
Jacob Catssingel,28,,,4819HC,Breda,Breda,Noord-Brabant,VBO,4.763623,51.576916
Jacob Catssingel,30,,,4819HC,Breda,Breda,Noord-Brabant,VBO,4.763609,51.576880
Jacob Catssingel,32,,,4819HC,Breda,Breda,Noord-Brabant,VBO,4.763596,51.576846
Jacob Catssingel,34,,,4819HC,Breda,Breda,Noord-Brabant,VBO,4.763583,51.576813
Jacob Catssingel,36,,,4819HC,Breda,Breda,Noord-Brabant,VBO,4.763571,51.576776
Jacob Catssingel,38,,,4819HC,Breda,Breda,Noord-Brabant,VBO,4.763556,51.576740
Jacob Catssingel,40,,,4819HC,Breda,Breda,Noord-Brabant,VBO,4.763474,51.576692
Jacob Catssingel,42,,,4819HC,Breda,Breda,Noord-Brabant,VBO,4.763385,51.576707
Jacob Catssingel,44,,,4819HC,Breda,Breda,Noord-Brabant,VBO,4.763297,51.576722
Jacob Catssingel,46,,,4819HC,Breda,Breda,Noord-Brabant,VBO,4.763207,51.576737
Jacob Catssingel,48,,,4819HC,Breda,Breda,Noord-Brabant,VBO,4.763119,51.576495
Jacob Catssingel,50,,,4819HC,Breda,Breda,Noord-Brabant,VBO,4.763211,51.576484
Jacob Catssingel,52,,,4819HC,Breda,Breda,Noord-Brabant,VBO,4.763301,51.576473
Jacob Catssingel,54,,,4819HC,Breda,Breda,Noord-Brabant,VBO,4.763393,51.576462
Jacob Catssingel,56,,,4819HC,Breda,Breda,Noord-Brabant,VBO,4.763433,51.576396
Jacob Catssingel,58,,,4819HC,Breda,Breda,Noord-Brabant,VBO,4.763418,51.576351
Jacob Catssingel,60,,,4819HC,Breda,Breda,Noord-Brabant,VBO,4.763402,51.576312
Jacob Catssingel,62,,,4819HC,Breda,Breda,Noord-Brabant,VBO,4.763390,51.576278
Jacob Catssingel,64,,,4819HC,Breda,Breda,Noord-Brabant,VBO,4.763377,51.576241
Jacob Catssingel,66,,,4819HC,Breda,Breda,Noord-Brabant,VBO,4.763363,51.576209
Jacob Catssingel,68,,,4819HC,Breda,Breda,Noord-Brabant,VBO,4.763279,51.576165
Jacob Catssingel,70,,,4819HC,Breda,Breda,Noord-Brabant,VBO,4.763189,51.576179
Jacob Catssingel,72,,,4819HC,Breda,Breda,Noord-Brabant,VBO,4.763100,51.576193
Jacob Catssingel,74,,,4819HC,Breda,Breda,Noord-Brabant,VBO,4.763009,51.576207
Jacob Catssingel,76,,,4819HC,Breda,Breda,Noord-Brabant,VBO,4.762928,51.575969
Jacob Catssingel,78,,,4819HC,Breda,Breda,Noord-Brabant,VBO,4.763017,51.575974
Jacob Catssingel,80,,,4819HC,Breda,Breda,Noord-Brabant,VBO,4.763114,51.575964
Jacob Catssingel,82,,,4819HC,Breda,Breda,Noord-Brabant,VBO,4.763204,51.575941
Jacob Catssingel,86,,,4819HC,Breda,Breda,Noord-Brabant,VBO,4.763228,51.575830
Jacob Catssingel,88,,,4819HC,Breda,Breda,Noord-Brabant,VBO,4.763214,51.575794
Jacob Catssingel,90,,,4819HC,Breda,Breda,Noord-Brabant,VBO,4.763200,51.575749
Jacob Catssingel,92,,,4819HC,Breda,Breda,Noord-Brabant,VBO,4.763186,51.575722
Jacob Catssingel,94,,,4819HC,Breda,Breda,Noord-Brabant,VBO,4.763172,51.575686
Jacob Catssingel,8640,,TRAF,4819HC,Breda,Breda,Noord-Brabant,VBO,4.763840,51.577614
Vondelstraat,1,,,4819HD,Breda,Breda,Noord-Brabant,VBO,4.768140,51.577873
Vondelstraat,3,,,4819HD,Breda,Breda,Noord-Brabant,VBO,4.768062,51.577886
Vondelstraat,5,,,4819HD,Breda,Breda,Noord-Brabant,VBO,4.767990,51.577897
Vondelstraat,7,,,4819HD,Breda,Breda,Noord-Brabant,VBO,4.767915,51.577910
Vondelstraat,9,,,4819HD,Breda,Breda,Noord-Brabant,VBO,4.767835,51.577923
Vondelstraat,11,,,4819HD,Breda,Breda,Noord-Brabant,VBO,4.767750,51.577937
Vondelstraat,29,,,4819HD,Breda,Breda,Noord-Brabant,VBO,4.767130,51.577975
Vondelstraat,31,,,4819HD,Breda,Breda,Noord-Brabant,VBO,4.767043,51.577985
Vondelstraat,33,,,4819HD,Breda,Breda,Noord-Brabant,VBO,4.766971,51.577992
Vondelstraat,35,,,4819HD,Breda,Breda,Noord-Brabant,VBO,4.766896,51.578000
Vondelstraat,37,,,4819HD,Breda,Breda,Noord-Brabant,VBO,4.766821,51.578008
Vondelstraat,39,,,4819HD,Breda,Breda,Noord-Brabant,VBO,4.766734,51.578017
Vondelstraat,41,,,4819HD,Breda,Breda,Noord-Brabant,VBO,4.766661,51.578025
Vondelstraat,43,,,4819HD,Breda,Breda,Noord-Brabant,VBO,4.766580,51.578034
Vondelstraat,45,,,4819HD,Breda,Breda,Noord-Brabant,VBO,4.766500,51.578043
Vondelstraat,47,,,4819HD,Breda,Breda,Noord-Brabant,VBO,4.766427,51.578051
Vondelstraat,49,,,4819HD,Breda,Breda,Noord-Brabant,VBO,4.766346,51.578059
Vondelstraat,51,,,4819HD,Breda,Breda,Noord-Brabant,VBO,4.766270,51.578067
Vondelstraat,53,,,4819HD,Breda,Breda,Noord-Brabant,VBO,4.766188,51.578076
Vondelstraat,55,,,4819HD,Breda,Breda,Noord-Brabant,VBO,4.766110,51.578084
Vondelstraat,57,,,4819HD,Breda,Breda,Noord-Brabant,VBO,4.766034,51.578093
Vondelstraat,59,,,4819HD,Breda,Breda,Noord-Brabant,VBO,4.765951,51.578102
Vondelstraat,61,,,4819HD,Breda,Breda,Noord-Brabant,VBO,4.765879,51.578110
Vondelstraat,63,,,4819HD,Breda,Breda,Noord-Brabant,VBO,4.765796,51.578119
Vondelstraat,65,,,4819HD,Breda,Breda,Noord-Brabant,VBO,4.765723,51.578126
Vondelstraat,67,,,4819HD,Breda,Breda,Noord-Brabant,VBO,4.765638,51.578135
Vondelstraat,69,,,4819HD,Breda,Breda,Noord-Brabant,VBO,4.765563,51.578143
Vondelstraat,71,,,4819HD,Breda,Breda,Noord-Brabant,VBO,4.765488,51.578151
Vondelstraat,73,,,4819HD,Breda,Breda,Noord-Brabant,VBO,4.765407,51.578160
Vondelstraat,75,,,4819HD,Breda,Breda,Noord-Brabant,VBO,4.765332,51.578168
Vondelstraat,77,,,4819HD,Breda,Breda,Noord-Brabant,VBO,4.765251,51.578177
Vondelstraat,79,,,4819HD,Breda,Breda,Noord-Brabant,VBO,4.765174,51.578185
Vondelstraat,81,,,4819HD,Breda,Breda,Noord-Brabant,VBO,4.765093,51.578194
Vondelstraat,83,,,4819HD,Breda,Breda,Noord-Brabant,VBO,4.764960,51.578200
Vondelstraat,85,,,4819HD,Breda,Breda,Noord-Brabant,VBO,4.764878,51.578209
Vondelstraat,87,,,4819HD,Breda,Breda,Noord-Brabant,VBO,4.764787,51.578219
Vondelstraat,89,,,4819HD,Breda,Breda,Noord-Brabant,VBO,4.764422,51.578256
Vondelstraat,2,,,4819HE,Breda,Breda,Noord-Brabant,VBO,4.768609,51.578002
Vondelstraat,4,,,4819HE,Breda,Breda,Noord-Brabant,VBO,4.768530,51.578015
Vondelstraat,6,,,4819HE,Breda,Breda,Noord-Brabant,VBO,4.768451,51.578027
Vondelstraat,8,,,4819HE,Breda,Breda,Noord-Brabant,VBO,4.768375,51.578040
Vondelstraat,10,,,4819HE,Breda,Breda,Noord-Brabant,VBO,4.768289,51.578054
Vondelstraat,12,,,4819HE,Breda,Breda,Noord-Brabant,VBO,4.768216,51.578066
Vondelstraat,14,,,4819HE,Breda,Breda,Noord-Brabant,VBO,4.768137,51.578078
Vondelstraat,16,,,4819HE,Breda,Breda,Noord-Brabant,VBO,4.768057,51.578091
Vondelstraat,18,,,4819HE,Breda,Breda,Noord-Brabant,VBO,4.767987,51.578103
Vondelstraat,20,,,4819HE,Breda,Breda,Noord-Brabant,VBO,4.767903,51.578116
Vondelstraat,22,,,4819HE,Breda,Breda,Noord-Brabant,VBO,4.767827,51.578129
Vondelstraat,34,,,4819HE,Breda,Breda,Noord-Brabant,VBO,4.767396,51.578185
Vondelstraat,36,,,4819HE,Breda,Breda,Noord-Brabant,VBO,4.767320,51.578193
Vondelstraat,38,,,4819HE,Breda,Breda,Noord-Brabant,VBO,4.767242,51.578202
Vondelstraat,40,,,4819HE,Breda,Breda,Noord-Brabant,VBO,4.767163,51.578210
Vondelstraat,42,,,4819HE,Breda,Breda,Noord-Brabant,VBO,4.766982,51.578230
Vondelstraat,44,,,4819HE,Breda,Breda,Noord-Brabant,VBO,4.766909,51.578237
Vondelstraat,46,,,4819HE,Breda,Breda,Noord-Brabant,VBO,4.766827,51.578246
Vondelstraat,48,,,4819HE,Breda,Breda,Noord-Brabant,VBO,4.766753,51.578254
Vondelstraat,50,,,4819HE,Breda,Breda,Noord-Brabant,VBO,4.766672,51.578263
Vondelstraat,52,,,4819HE,Breda,Breda,Noord-Brabant,VBO,4.766525,51.578278
Vondelstraat,54,,,4819HE,Breda,Breda,Noord-Brabant,VBO,4.766410,51.578291
Vondelstraat,56,,,4819HE,Breda,Breda,Noord-Brabant,VBO,4.766345,51.578298
Vondelstraat,58,,,4819HE,Breda,Breda,Noord-Brabant,VBO,4.766266,51.578304
Vondelstraat,60,,,4819HE,Breda,Breda,Noord-Brabant,VBO,4.766174,51.578313
Vondelstraat,62,,,4819HE,Breda,Breda,Noord-Brabant,VBO,4.766003,51.578331
Vondelstraat,64,,,4819HE,Breda,Breda,Noord-Brabant,VBO,4.765921,51.578340
Vondelstraat,66,,,4819HE,Breda,Breda,Noord-Brabant,VBO,4.765847,51.578348
Vondelstraat,68,,,4819HE,Breda,Breda,Noord-Brabant,VBO,4.765765,51.578357
Vondelstraat,70,,,4819HE,Breda,Breda,Noord-Brabant,VBO,4.765690,51.578365
Vondelstraat,72,,,4819HE,Breda,Breda,Noord-Brabant,VBO,4.765508,51.578377
Vondelstraat,74,,,4819HE,Breda,Breda,Noord-Brabant,VBO,4.765437,51.578385
Vondelstraat,76,,,4819HE,Breda,Breda,Noord-Brabant,VBO,4.765352,51.578394
Vondelstraat,78,,,4819HE,Breda,Breda,Noord-Brabant,VBO,4.765273,51.578402
Vondelstraat,80,,,4819HE,Breda,Breda,Noord-Brabant,VBO,4.765196,51.578411
Vondelstraat,82,,,4819HE,Breda,Breda,Noord-Brabant,VBO,4.765000,51.578438
Vondelstraat,84,,,4819HE,Breda,Breda,Noord-Brabant,VBO,4.764917,51.578447
Vondelstraat,86,,,4819HE,Breda,Breda,Noord-Brabant,VBO,4.764825,51.578458
Vondelstraat,88,,,4819HE,Breda,Breda,Noord-Brabant,VBO,4.764541,51.578488
Brederostraat,1,,,4819HG,Breda,Breda,Noord-Brabant,VBO,4.768121,51.577099
Brederostraat,3,,,4819HG,Breda,Breda,Noord-Brabant,VBO,4.767991,51.577119
Brederostraat,5,,,4819HG,Breda,Breda,Noord-Brabant,VBO,4.767841,51.577138
Brederostraat,35,,,4819HG,Breda,Breda,Noord-Brabant,VBO,4.766130,51.577386
Brederostraat,39,,,4819HG,Breda,Breda,Noord-Brabant,VBO,4.765077,51.577382
Brederostraat,41,,,4819HG,Breda,Breda,Noord-Brabant,VBO,4.764991,51.577391
Brederostraat,43,,,4819HG,Breda,Breda,Noord-Brabant,VBO,4.764906,51.577401
Brederostraat,45,,,4819HG,Breda,Breda,Noord-Brabant,VBO,4.764820,51.577410
Brederostraat,47,,,4819HG,Breda,Breda,Noord-Brabant,VBO,4.764735,51.577419
Brederostraat,49,,,4819HG,Breda,Breda,Noord-Brabant,VBO,4.764650,51.577429
Brederostraat,51,,,4819HG,Breda,Breda,Noord-Brabant,VBO,4.764565,51.577438
Brederostraat,53,,,4819HG,Breda,Breda,Noord-Brabant,VBO,4.764479,51.577447
Brederostraat,55,,,4819HG,Breda,Breda,Noord-Brabant,VBO,4.764394,51.577457
Brederostraat,57,,,4819HG,Breda,Breda,Noord-Brabant,VBO,4.764309,51.577466
Brederostraat,59,,,4819HG,Breda,Breda,Noord-Brabant,VBO,4.764223,51.577475
Brederostraat,2,A,,4819HH,Breda,Breda,Noord-Brabant,VBO,4.768136,51.577402
Brederostraat,2,B,,4819HH,Breda,Breda,Noord-Brabant,VBO,4.767637,51.577506
Brederostraat,2,,,4819HH,Breda,Breda,Noord-Brabant,VBO,4.766935,51.577574
Brederostraat,4,,,4819HH,Breda,Breda,Noord-Brabant,VBO,4.766857,51.577583
Brederostraat,6,,,4819HH,Breda,Breda,Noord-Brabant,VBO,4.766779,51.577591
Brederostraat,8,,,4819HH,Breda,Breda,Noord-Brabant,VBO,4.766701,51.577599
Brederostraat,10,,,4819HH,Breda,Breda,Noord-Brabant,VBO,4.766624,51.577608
Brederostraat,12,,,4819HH,Breda,Breda,Noord-Brabant,VBO,4.766547,51.577616
Brederostraat,14,,,4819HH,Breda,Breda,Noord-Brabant,VBO,4.766467,51.577624
Brederostraat,16,,,4819HH,Breda,Breda,Noord-Brabant,VBO,4.766388,51.577633
Brederostraat,18,,,4819HH,Breda,Breda,Noord-Brabant,VBO,4.766308,51.577642
Brederostraat,20,,,4819HH,Breda,Breda,Noord-Brabant,VBO,4.766231,51.577650
Brederostraat,22,,,4819HH,Breda,Breda,Noord-Brabant,VBO,4.766155,51.577658
Brederostraat,24,,,4819HH,Breda,Breda,Noord-Brabant,VBO,4.766078,51.577667
Brederostraat,26,,,4819HH,Breda,Breda,Noord-Brabant,VBO,4.765996,51.577676
Brederostraat,28,,,4819HH,Breda,Breda,Noord-Brabant,VBO,4.765920,51.577684
Brederostraat,30,,,4819HH,Breda,Breda,Noord-Brabant,VBO,4.765841,51.577692
Brederostraat,32,,,4819HH,Breda,Breda,Noord-Brabant,VBO,4.765766,51.577700
Brederostraat,34,,,4819HH,Breda,Breda,Noord-Brabant,VBO,4.765682,51.577709
Brederostraat,36,,,4819HH,Breda,Breda,Noord-Brabant,VBO,4.765605,51.577718
Brederostraat,38,,,4819HH,Breda,Breda,Noord-Brabant,VBO,4.765530,51.577726
Brederostraat,40,,,4819HH,Breda,Breda,Noord-Brabant,VBO,4.765453,51.577734
Brederostraat,42,,,4819HH,Breda,Breda,Noord-Brabant,VBO,4.765376,51.577742
Brederostraat,44,,,4819HH,Breda,Breda,Noord-Brabant,VBO,4.765293,51.577751
Brederostraat,46,,,4819HH,Breda,Breda,Noord-Brabant,VBO,4.765216,51.577760
Brederostraat,48,,,4819HH,Breda,Breda,Noord-Brabant,VBO,4.765138,51.577769
Brederostraat,50,,,4819HH,Breda,Breda,Noord-Brabant,VBO,4.765064,51.577777
Brederostraat,52,,,4819HH,Breda,Breda,Noord-Brabant,VBO,4.764979,51.577786
Brederostraat,54,,,4819HH,Breda,Breda,Noord-Brabant,VBO,4.764850,51.577807
Brederostraat,56,,,4819HH,Breda,Breda,Noord-Brabant,VBO,4.764770,51.577816
Brederostraat,58,,,4819HH,Breda,Breda,Noord-Brabant,VBO,4.764676,51.577826
Boutensstraat,1,,,4819HJ,Breda,Breda,Noord-Brabant,VBO,4.766914,51.576831
Boutensstraat,3,,,4819HJ,Breda,Breda,Noord-Brabant,VBO,4.766491,51.576888
Boutensstraat,5,,,4819HJ,Breda,Breda,Noord-Brabant,VBO,4.766472,51.576835
Boutensstraat,7,,,4819HJ,Breda,Breda,Noord-Brabant,VBO,4.766453,51.576781
Boutensstraat,9,,,4819HJ,Breda,Breda,Noord-Brabant,VBO,4.766582,51.576723
Boutensstraat,10,,,4819HJ,Breda,Breda,Noord-Brabant,VBO,4.765961,51.576959
Boutensstraat,11,,,4819HJ,Breda,Breda,Noord-Brabant,VBO,4.766573,51.576693
Boutensstraat,12,,G01,4819HJ,Breda,Breda,Noord-Brabant,VBO,4.765791,51.577027
Boutensstraat,12,,,4819HJ,Breda,Breda,Noord-Brabant,VBO,4.765942,51.576906
Boutensstraat,13,,,4819HJ,Breda,Breda,Noord-Brabant,VBO,4.766570,51.576669
Boutensstraat,14,,,4819HJ,Breda,Breda,Noord-Brabant,VBO,4.765923,51.576853
Boutensstraat,15,,,4819HJ,Breda,Breda,Noord-Brabant,VBO,4.766556,51.576642
Boutensstraat,16,,,4819HJ,Breda,Breda,Noord-Brabant,VBO,4.765904,51.576800
Boutensstraat,17,,,4819HJ,Breda,Breda,Noord-Brabant,VBO,4.766530,51.576619
Boutensstraat,18,,,4819HJ,Breda,Breda,Noord-Brabant,VBO,4.765885,51.576748
Boutensstraat,20,,,4819HJ,Breda,Breda,Noord-Brabant,VBO,4.765866,51.576695
Boutensstraat,22,,,4819HJ,Breda,Breda,Noord-Brabant,VBO,4.765847,51.576642
Boutensstraat,25,,,4819HJ,Breda,Breda,Noord-Brabant,VBO,4.766339,51.576701
Boutensstraat,27,,,4819HJ,Breda,Breda,Noord-Brabant,VBO,4.766252,51.576707
Boutensstraat,29,,,4819HJ,Breda,Breda,Noord-Brabant,VBO,4.766165,51.576713
Boutensstraat,1340,,TRD,4819HJ,Breda,Breda,Noord-Brabant,VBO,4.766420,51.576557
P.C. Hooftstraat,2,,G01,4819HK,Breda,Breda,Noord-Brabant,VBO,4.767565,51.578351
P.C. Hooftstraat,2,,,4819HK,Breda,Breda,Noord-Brabant,VBO,4.767472,51.578190
P.C. Hooftstraat,4,,,4819HK,Breda,Breda,Noord-Brabant,VBO,4.767376,51.577946
P.C. Hooftstraat,6,,,4819HK,Breda,Breda,Noord-Brabant,VBO,4.767353,51.577893
P.C. Hooftstraat,8,,,4819HK,Breda,Breda,Noord-Brabant,VBO,4.767331,51.577843
P.C. Hooftstraat,9,,,4819HK,Breda,Breda,Noord-Brabant,VBO,4.767510,51.577107
P.C. Hooftstraat,10,,,4819HK,Breda,Breda,Noord-Brabant,VBO,4.767310,51.577796
P.C. Hooftstraat,12,,,4819HK,Breda,Breda,Noord-Brabant,VBO,4.767291,51.577752
P.C. Hooftstraat,14,,,4819HK,Breda,Breda,Noord-Brabant,VBO,4.767269,51.577703
P.C. Hooftstraat,16,,,4819HK,Breda,Breda,Noord-Brabant,VBO,4.767247,51.577652
P.C. Hooftstraat,18,,,4819HK,Breda,Breda,Noord-Brabant,VBO,4.767227,51.577606
P.C. Hooftstraat,20,,,4819HK,Breda,Breda,Noord-Brabant,VBO,4.767203,51.577552
P.C. Hooftstraat,22,,,4819HK,Breda,Breda,Noord-Brabant,VBO,4.767100,51.577297
P.C. Hooftstraat,24,,,4819HK,Breda,Breda,Noord-Brabant,VBO,4.767075,51.577227
P.C. Hooftstraat,26,,,4819HK,Breda,Breda,Noord-Brabant,VBO,4.767050,51.577157
P.C. Hooftstraat,28,,,4819HK,Breda,Breda,Noord-Brabant,VBO,4.767004,51.577030
P.C. Hooftstraat,36,,,4819HK,Breda,Breda,Noord-Brabant,VBO,4.766913,51.576775
P.C. Hooftstraat,38,,,4819HK,Breda,Breda,Noord-Brabant,VBO,4.766894,51.576722
P.C. Hooftstraat,40,,,4819HK,Breda,Breda,Noord-Brabant,VBO,4.766875,51.576669
P.C. Hooftstraat,42,,,4819HK,Breda,Breda,Noord-Brabant,VBO,4.766856,51.576617
P.C. Hooftstraat,44,,,4819HK,Breda,Breda,Noord-Brabant,VBO,4.766837,51.576563
P.C. Hooftstraat,46,,,4819HK,Breda,Breda,Noord-Brabant,VBO,4.766818,51.576511
Roland Holststraat,3,,,4819HL,Breda,Breda,Noord-Brabant,VBO,4.768428,51.575897
Roland Holststraat,5,,,4819HL,Breda,Breda,Noord-Brabant,VBO,4.768381,51.575902
Roland Holststraat,7,,,4819HL,Breda,Breda,Noord-Brabant,VBO,4.768313,51.575912
Roland Holststraat,9,,,4819HL,Breda,Breda,Noord-Brabant,VBO,4.768271,51.575915
Roland Holststraat,11,,,4819HL,Breda,Breda,Noord-Brabant,VBO,4.768226,51.575920
Roland Holststraat,13,,,4819HL,Breda,Breda,Noord-Brabant,VBO,4.768183,51.575929
Roland Holststraat,15,,,4819HL,Breda,Breda,Noord-Brabant,VBO,4.768139,51.575938
Roland Holststraat,23,,,4819HL,Breda,Breda,Noord-Brabant,VBO,4.767703,51.575970
Roland Holststraat,25,,,4819HL,Breda,Breda,Noord-Brabant,VBO,4.767655,51.575941
Roland Holststraat,27,A,,4819HL,Breda,Breda,Noord-Brabant,VBO,4.767683,51.575867
Roland Holststraat,27,B,,4819HL,Breda,Breda,Noord-Brabant,VBO,4.767641,51.575874
Roland Holststraat,27,C,,4819HL,Breda,Breda,Noord-Brabant,VBO,4.767601,51.575877
Roland Holststraat,29,A,,4819HL,Breda,Breda,Noord-Brabant,VBO,4.767657,51.575780
Roland Holststraat,29,B,,4819HL,Breda,Breda,Noord-Brabant,VBO,4.767616,51.575787
Roland Holststraat,29,C,,4819HL,Breda,Breda,Noord-Brabant,VBO,4.767574,51.575795
Roland Holststraat,31,A,,4819HL,Breda,Breda,Noord-Brabant,VBO,4.767630,51.575701
Roland Holststraat,31,B,,4819HL,Breda,Breda,Noord-Brabant,VBO,4.767585,51.575709
Roland Holststraat,31,C,,4819HL,Breda,Breda,Noord-Brabant,VBO,4.767537,51.575715
Roland Holststraat,33,A,,4819HL,Breda,Breda,Noord-Brabant,VBO,4.767598,51.575621
Roland Holststraat,33,B,,4819HL,Breda,Breda,Noord-Brabant,VBO,4.767557,51.575628
Roland Holststraat,33,C,,4819HL,Breda,Breda,Noord-Brabant,VBO,4.767512,51.575632
Roland Holststraat,35,A,,4819HL,Breda,Breda,Noord-Brabant,VBO,4.767577,51.575535
Roland Holststraat,35,B,,4819HL,Breda,Breda,Noord-Brabant,VBO,4.767537,51.575541
Roland Holststraat,35,C,,4819HL,Breda,Breda,Noord-Brabant,VBO,4.767485,51.575551
Roland Holststraat,37,A,,4819HL,Breda,Breda,Noord-Brabant,VBO,4.767548,51.575475
Roland Holststraat,37,B,,4819HL,Breda,Breda,Noord-Brabant,VBO,4.767512,51.575480
Roland Holststraat,37,C,,4819HL,Breda,Breda,Noord-Brabant,VBO,4.767466,51.575483
Roland Holststraat,39,,,4819HL,Breda,Breda,Noord-Brabant,VBO,4.767149,51.576038
Roland Holststraat,41,,,4819HL,Breda,Breda,Noord-Brabant,VBO,4.767124,51.575978
Roland Holststraat,43,A,,4819HM,Breda,Breda,Noord-Brabant,VBO,4.767145,51.575911
Roland Holststraat,43,B,,4819HM,Breda,Breda,Noord-Brabant,VBO,4.767091,51.575886
Roland Holststraat,43,C,,4819HM,Breda,Breda,Noord-Brabant,VBO,4.767138,51.575879
Roland Holststraat,43,,,4819HM,Breda,Breda,Noord-Brabant,VBO,4.767096,51.575915
Roland Holststraat,45,A,,4819HM,Breda,Breda,Noord-Brabant,VBO,4.767124,51.575844
Roland Holststraat,45,B,,4819HM,Breda,Breda,Noord-Brabant,VBO,4.767069,51.575816
Roland Holststraat,45,C,,4819HM,Breda,Breda,Noord-Brabant,VBO,4.767116,51.575811
Roland Holststraat,45,,,4819HM,Breda,Breda,Noord-Brabant,VBO,4.767075,51.575847
Roland Holststraat,47,A,,4819HM,Breda,Breda,Noord-Brabant,VBO,4.767098,51.575769
Roland Holststraat,47,B,,4819HM,Breda,Breda,Noord-Brabant,VBO,4.767040,51.575743
Roland Holststraat,47,C,,4819HM,Breda,Breda,Noord-Brabant,VBO,4.767087,51.575736
Roland Holststraat,47,,,4819HM,Breda,Breda,Noord-Brabant,VBO,4.767045,51.575774
Roland Holststraat,49,A,,4819HM,Breda,Breda,Noord-Brabant,VBO,4.767079,51.575703
Roland Holststraat,49,B,,4819HM,Breda,Breda,Noord-Brabant,VBO,4.767018,51.575680
Roland Holststraat,49,C,,4819HM,Breda,Breda,Noord-Brabant,VBO,4.767065,51.575672
Roland Holststraat,49,,,4819HM,Breda,Breda,Noord-Brabant,VBO,4.767024,51.575708
Roland Holststraat,51,A,,4819HM,Breda,Breda,Noord-Brabant,VBO,4.767057,51.575634
Roland Holststraat,51,B,,4819HM,Breda,Breda,Noord-Brabant,VBO,4.766997,51.575614
Roland Holststraat,51,C,,4819HM,Breda,Breda,Noord-Brabant,VBO,4.767046,51.575606
Roland Holststraat,51,,,4819HM,Breda,Breda,Noord-Brabant,VBO,4.767005,51.575636
Roland Holststraat,53,A,,4819HM,Breda,Breda,Noord-Brabant,VBO,4.767030,51.575566
Roland Holststraat,53,B,,4819HM,Breda,Breda,Noord-Brabant,VBO,4.766969,51.575549
Roland Holststraat,53,C,,4819HM,Breda,Breda,Noord-Brabant,VBO,4.767020,51.575536
Roland Holststraat,53,,,4819HM,Breda,Breda,Noord-Brabant,VBO,4.766979,51.575573
Roland Holststraat,55,,,4819HM,Breda,Breda,Noord-Brabant,VBO,4.766654,51.576116
Roland Holststraat,57,,,4819HM,Breda,Breda,Noord-Brabant,VBO,4.766631,51.576047
Roland Holststraat,59,A,,4819HN,Breda,Breda,Noord-Brabant,VBO,4.766661,51.575975
Roland Holststraat,59,B,,4819HN,Breda,Breda,Noord-Brabant,VBO,4.766597,51.575950
Roland Holststraat,59,C,,4819HN,Breda,Breda,Noord-Brabant,VBO,4.766650,51.575941
Roland Holststraat,59,,,4819HN,Breda,Breda,Noord-Brabant,VBO,4.766608,51.575983
Roland Holststraat,61,A,,4819HN,Breda,Breda,Noord-Brabant,VBO,4.766637,51.575909
Roland Holststraat,61,B,,4819HN,Breda,Breda,Noord-Brabant,VBO,4.766571,51.575883
Roland Holststraat,61,C,,4819HN,Breda,Breda,Noord-Brabant,VBO,4.766628,51.575876
Roland Holststraat,61,,,4819HN,Breda,Breda,Noord-Brabant,VBO,4.766583,51.575916
Roland Holststraat,63,A,,4819HN,Breda,Breda,Noord-Brabant,VBO,4.766617,51.575842
Roland Holststraat,63,B,,4819HN,Breda,Breda,Noord-Brabant,VBO,4.766549,51.575817
Roland Holststraat,63,C,,4819HN,Breda,Breda,Noord-Brabant,VBO,4.766606,51.575808
Roland Holststraat,63,,,4819HN,Breda,Breda,Noord-Brabant,VBO,4.766559,51.575851
Roland Holststraat,65,A,,4819HN,Breda,Breda,Noord-Brabant,VBO,4.766598,51.575775
Roland Holststraat,65,B,,4819HN,Breda,Breda,Noord-Brabant,VBO,4.766526,51.575750
Roland Holststraat,65,C,,4819HN,Breda,Breda,Noord-Brabant,VBO,4.766586,51.575740
Roland Holststraat,65,,,4819HN,Breda,Breda,Noord-Brabant,VBO,4.766536,51.575783
Roland Holststraat,67,A,,4819HN,Breda,Breda,Noord-Brabant,VBO,4.766573,51.575708
Roland Holststraat,67,B,,4819HN,Breda,Breda,Noord-Brabant,VBO,4.766501,51.575682
Roland Holststraat,67,C,,4819HN,Breda,Breda,Noord-Brabant,VBO,4.766559,51.575675
Roland Holststraat,67,,,4819HN,Breda,Breda,Noord-Brabant,VBO,4.766511,51.575714
Roland Holststraat,69,A,,4819HN,Breda,Breda,Noord-Brabant,VBO,4.766550,51.575641
Roland Holststraat,69,B,,4819HN,Breda,Breda,Noord-Brabant,VBO,4.766476,51.575615
Roland Holststraat,69,C,,4819HN,Breda,Breda,Noord-Brabant,VBO,4.766539,51.575606
Roland Holststraat,69,,,4819HN,Breda,Breda,Noord-Brabant,VBO,4.766488,51.575651
Roland Holststraat,71,,,4819HP,Breda,Breda,Noord-Brabant,VBO,4.766201,51.576143
Roland Holststraat,4,,,4819HR,Breda,Breda,Noord-Brabant,VBO,4.768690,51.576055
Roland Holststraat,6,,,4819HR,Breda,Breda,Noord-Brabant,VBO,4.768647,51.576065
Roland Holststraat,8,,,4819HR,Breda,Breda,Noord-Brabant,VBO,4.768549,51.576082
Roland Holststraat,10,,,4819HR,Breda,Breda,Noord-Brabant,VBO,4.768452,51.576095
Roland Holststraat,12,,,4819HR,Breda,Breda,Noord-Brabant,VBO,4.768357,51.576108
Roland Holststraat,16,,,4819HR,Breda,Breda,Noord-Brabant,VBO,4.767515,51.576290
Roland Holststraat,18,,,4819HR,Breda,Breda,Noord-Brabant,VBO,4.766753,51.576327
Roland Holststraat,20,,,4819HR,Breda,Breda,Noord-Brabant,VBO,4.766667,51.576339
Roland Holststraat,22,,,4819HR,Breda,Breda,Noord-Brabant,VBO,4.766583,51.576350
Roland Holststraat,24,,,4819HR,Breda,Breda,Noord-Brabant,VBO,4.766499,51.576362
Roland Holststraat,26,,,4819HR,Breda,Breda,Noord-Brabant,VBO,4.766415,51.576373
Roland Holststraat,28,,,4819HR,Breda,Breda,Noord-Brabant,VBO,4.766331,51.576385
Roland Holststraat,30,,,4819HR,Breda,Breda,Noord-Brabant,VBO,4.766247,51.576397
Roland Holststraat,32,,,4819HR,Breda,Breda,Noord-Brabant,VBO,4.766163,51.576408
Roland Holststraat,34,,,4819HR,Breda,Breda,Noord-Brabant,VBO,4.766078,51.576420
Roland Holststraat,36,,,4819HR,Breda,Breda,Noord-Brabant,VBO,4.765780,51.576461
Roland Holststraat,38,,,4819HR,Breda,Breda,Noord-Brabant,VBO,4.765694,51.576473
Roland Holststraat,40,,,4819HR,Breda,Breda,Noord-Brabant,VBO,4.765610,51.576484
Roland Holststraat,42,,,4819HR,Breda,Breda,Noord-Brabant,VBO,4.765526,51.576496
Roland Holststraat,44,,,4819HR,Breda,Breda,Noord-Brabant,VBO,4.765442,51.576508
Roland Holststraat,46,,,4819HR,Breda,Breda,Noord-Brabant,VBO,4.765358,51.576519
Roland Holststraat,48,,,4819HR,Breda,Breda,Noord-Brabant,VBO,4.765273,51.576531
