openbareruimtenaam,huisnummer,huisletter,huisnummertoevoeging,postcode,woonplaatsnaam,gemeentenaam,provincienaam,typeadresseerbaarobject,longitude,latitude
Bouvignelaan,3,,,4836AA,Breda,Breda,Noord-Brabant,VBO,4.782320,51.564169
Bouvignelaan,5,,,4836AA,Breda,Breda,Noord-Brabant,VBO,4.783876,51.561569
Bouvignelaan,7,W,,4836AA,Breda,Breda,Noord-Brabant,VBO,4.783521,51.562184
Bouvignelaan,35,,,4836AA,Breda,Breda,Noord-Brabant,VBO,4.785511,51.559633
Galderseweg,7,,,4836AB,Breda,Breda,Noord-Brabant,VBO,4.782266,51.555563
Galderseweg,15,,,4836AC,Breda,Breda,Noord-Brabant,VBO,4.782128,51.553784
Galderseweg,17,,,4836AC,Breda,Breda,Noord-Brabant,VBO,4.781042,51.554997
Galderseweg,19,,,4836AC,Breda,Breda,Noord-Brabant,VBO,4.781019,51.554939
Galderseweg,25,,,4836AC,Breda,Breda,Noord-Brabant,VBO,4.781158,51.553246
Galderseweg,27,A,,4836AC,Breda,Breda,Noord-Brabant,VBO,4.780838,51.553242
Galderseweg,27,,,4836AC,Breda,Breda,Noord-Brabant,VBO,4.780284,51.553170
Galderseweg,33,,,4836AC,Breda,Breda,Noord-Brabant,VBO,4.780129,51.552786
Galderseweg,35,,,4836AC,Breda,Breda,Noord-Brabant,VBO,4.780081,51.552668
Galderseweg,37,,,4836AC,Breda,Breda,Noord-Brabant,VBO,4.780032,51.552546
Galderseweg,39,,,4836AC,Breda,Breda,Noord-Brabant,VBO,4.779987,51.552414
Galderseweg,41,,,4836AC,Breda,Breda,Noord-Brabant,VBO,4.779933,51.552281
Galderseweg,45,,,4836AC,Breda,Breda,Noord-Brabant,VBO,4.780472,51.551796
Galderseweg,51,,,4836AC,Breda,Breda,Noord-Brabant,VBO,4.780545,51.551301
Galderseweg,53,,,4836AC,Breda,Breda,Noord-Brabant,VBO,4.779321,51.550855
Galderseweg,55,,,4836AC,Breda,Breda,Noord-Brabant,VBO,4.779301,51.550751
Galderseweg,61,,,4836AC,Breda,Breda,Noord-Brabant,VBO,4.779465,51.548813
Galderseweg,63,,,4836AC,Breda,Breda,Noord-Brabant,VBO,4.779626,51.549042
Galderseweg,65,A,,4836AC,Breda,Breda,Noord-Brabant,VBO,4.782748,51.548690
Galderseweg,65,B,,4836AC,Breda,Breda,Noord-Brabant,VBO,4.781776,51.547825
Galderseweg,65,C,,4836AC,Breda,Breda,Noord-Brabant,VBO,4.780300,51.548516
Galderseweg,65,,I,4836AC,Breda,Breda,Noord-Brabant,VBO,4.781519,51.547274
Galderseweg,65,,,4836AC,Breda,Breda,Noord-Brabant,VBO,4.781474,51.548468
Galderseweg,69,,,4836AD,Breda,Breda,Noord-Brabant,VBO,4.783812,51.549054
Galderseweg,75,,,4836AD,Breda,Breda,Noord-Brabant,VBO,4.781715,51.546387
Galderseweg,79,,,4836AD,Breda,Breda,Noord-Brabant,VBO,4.783492,51.545460
Galderseweg,83,B,,4836AD,Breda,Breda,Noord-Brabant,VBO,4.778131,51.538863
Galderseweg,83,,,4836AD,Breda,Breda,Noord-Brabant,VBO,4.777981,51.538818
Galderseweg,85,,,4836AD,Breda,Breda,Noord-Brabant,VBO,4.775751,51.539743
Galderseweg,87,,,4836AD,Breda,Breda,Noord-Brabant,VBO,4.775642,51.538702
Galderseweg,89,B,,4836AD,Breda,Breda,Noord-Brabant,VBO,4.779148,51.535998
Galderseweg,89,C,,4836AD,Breda,Breda,Noord-Brabant,VBO,4.776519,51.536041
Galderseweg,89,D,,4836AD,Breda,Breda,Noord-Brabant,VBO,4.776190,51.536100
Galderseweg,89,,,4836AD,Breda,Breda,Noord-Brabant,VBO,4.779169,51.536007
Galderseweg,91,A,,4836AD,Breda,Breda,Noord-Brabant,VBO,4.775392,51.536310
Galderseweg,91,B,,4836AD,Breda,Breda,Noord-Brabant,VBO,4.775118,51.536374
Galderseweg,91,,,4836AD,Breda,Breda,Noord-Brabant,VBO,4.775710,51.536234
Galderseweg,93,,,4836AD,Breda,Breda,Noord-Brabant,VBO,4.774709,51.536553
Galderseweg,95,,,4836AD,Breda,Breda,Noord-Brabant,VBO,4.774375,51.536599
Galderseweg,97,,,4836AD,Breda,Breda,Noord-Brabant,VBO,4.772762,51.532858
Galderseweg,81,,,4836AE,Breda,Breda,Noord-Brabant,VBO,4.778335,51.538918
Galderseweg,6,,,4836AG,Breda,Breda,Noord-Brabant,VBO,4.778636,51.553501
Galderseweg,70,,,4836AG,Breda,Breda,Noord-Brabant,VBO,4.767349,51.534269
Galderseweg,72,,,4836AG,Breda,Breda,Noord-Brabant,VBO,4.769713,51.533813
Galderseweg,90,,,4836AG,Breda,Breda,Noord-Brabant,VBO,4.768503,51.529004
Stouwdreef,1,,,4836AK,Breda,Breda,Noord-Brabant,VBO,4.767442,51.558629
Bouvignedreef,1,,,4836AL,Breda,Breda,Noord-Brabant,VBO,4.768524,51.559293
Bouvignedreef,3,,,4836AL,Breda,Breda,Noord-Brabant,VBO,4.768123,51.559037
Bouvignedreef,5,,,4836AL,Breda,Breda,Noord-Brabant,VBO,4.767663,51.559127
Huisdreef,4,A,,4836AM,Breda,Breda,Noord-Brabant,VBO,4.765873,51.560274
Huisdreef,4,B,,4836AM,Breda,Breda,Noord-Brabant,VBO,4.765920,51.560254
Huisdreef,4,,,4836AM,Breda,Breda,Noord-Brabant,VBO,4.766357,51.560223
Huisdreef,5,,,4836AM,Breda,Breda,Noord-Brabant,VBO,4.766995,51.559546
Burgemeester de Manlaan,98,,,4836AP,Breda,Breda,Noord-Brabant,VBO,4.768055,51.563761
Dr. Schaepmanlaan,1,,PG,4836AR,Breda,Breda,Noord-Brabant,VBO,4.757457,51.562257
Dr. Schaepmanlaan,1,,,4836AR,Breda,Breda,Noord-Brabant,VBO,4.757741,51.562087
Dr. Schaepmanlaan,3,,,4836AR,Breda,Breda,Noord-Brabant,VBO,4.757678,51.562130
Dr. Schaepmanlaan,5,,,4836AR,Breda,Breda,Noord-Brabant,VBO,4.757720,51.562075
Dr. Schaepmanlaan,7,,,4836AR,Breda,Breda,Noord-Brabant,VBO,4.757654,51.562118
Dr. Schaepmanlaan,9,,,4836AR,Breda,Breda,Noord-Brabant,VBO,4.757684,51.562058
Dr. Schaepmanlaan,11,,,4836AR,Breda,Breda,Noord-Brabant,VBO,4.757630,51.562105
Dr. Schaepmanlaan,13,,,4836AR,Breda,Breda,Noord-Brabant,VBO,4.757305,51.562370
Dr. Schaepmanlaan,15,,,4836AR,Breda,Breda,Noord-Brabant,VBO,4.757216,51.562327
Dr. Schaepmanlaan,17,,,4836AR,Breda,Breda,Noord-Brabant,VBO,4.757282,51.562386
Dr. Schaepmanlaan,19,,,4836AR,Breda,Breda,Noord-Brabant,VBO,4.757194,51.562343
Dr. Schaepmanlaan,21,,,4836AR,Breda,Breda,Noord-Brabant,VBO,4.757266,51.562399
Dr. Schaepmanlaan,23,,,4836AR,Breda,Breda,Noord-Brabant,VBO,4.757099,51.562272
Dr. Schaepmanlaan,25,,,4836AR,Breda,Breda,Noord-Brabant,VBO,4.756979,51.562217
Dr. Schaepmanlaan,27,,,4836AR,Breda,Breda,Noord-Brabant,VBO,4.757077,51.562288
Dr. Schaepmanlaan,29,,,4836AR,Breda,Breda,Noord-Brabant,VBO,4.756963,51.562232
Dr. Schaepmanlaan,31,,,4836AR,Breda,Breda,Noord-Brabant,VBO,4.757173,51.562356
Dr. Schaepmanlaan,33,,,4836AR,Breda,Breda,Noord-Brabant,VBO,4.757061,51.562299
Dr. Schaepmanlaan,35,,,4836AR,Breda,Breda,Noord-Brabant,VBO,4.756853,51.562203
Dr. Schaepmanlaan,39,,,4836AR,Breda,Breda,Noord-Brabant,VBO,4.756890,51.562175
Dr. Schaepmanlaan,41,,,4836AR,Breda,Breda,Noord-Brabant,VBO,4.756786,51.562128
Dr. Schaepmanlaan,43,,,4836AR,Breda,Breda,Noord-Brabant,VBO,4.756872,51.562189
Dr. Schaepmanlaan,45,,,4836AR,Breda,Breda,Noord-Brabant,VBO,4.756767,51.562141
Dr. Schaepmanlaan,47,,,4836AR,Breda,Breda,Noord-Brabant,VBO,4.756942,51.562246
Dr. Schaepmanlaan,51,,,4836AR,Breda,Breda,Noord-Brabant,VBO,4.755450,51.561186
Dr. Schaepmanlaan,53,,,4836AR,Breda,Breda,Noord-Brabant,VBO,4.755585,51.562091
Reeptiend,5,,,4836AT,Breda,Breda,Noord-Brabant,VBO,4.779498,51.550683
Reeptiend,11,,,4836AT,Breda,Breda,Noord-Brabant,VBO,4.780442,51.550745
Reeptiend,15,,,4836AT,Breda,Breda,Noord-Brabant,VBO,4.780970,51.550819
Reeptiend,19,,,4836AT,Breda,Breda,Noord-Brabant,VBO,4.781058,51.550825
Reeptiend,23,,,4836AT,Breda,Breda,Noord-Brabant,VBO,4.782284,51.551497
Reeptiend,25,,,4836AT,Breda,Breda,Noord-Brabant,VBO,4.782475,51.550933
Reeptiend,27,,,4836AT,Breda,Breda,Noord-Brabant,VBO,4.782876,51.550962
Reeptiend,29,,,4836AT,Breda,Breda,Noord-Brabant,VBO,4.783333,51.551044
Reeptiend,31,,,4836AT,Breda,Breda,Noord-Brabant,VBO,4.783621,51.551023
Reeptiend,33,,,4836AT,Breda,Breda,Noord-Brabant,VBO,4.783817,51.551039
Reeptiend,35,,,4836AT,Breda,Breda,Noord-Brabant,VBO,4.784096,51.551064
Reeptiend,37,,,4836AT,Breda,Breda,Noord-Brabant,VBO,4.784297,51.551115
Reeptiend,39,,,4836AT,Breda,Breda,Noord-Brabant,VBO,4.784781,51.551196
Reeptiend,901,,,4836AT,Breda,Breda,Noord-Brabant,VBO,4.784427,51.549926
Reeptiend,50,,,4836AV,Breda,Breda,Noord-Brabant,VBO,4.785636,51.550600
Overaseweg,1,,,4836BA,Breda,Breda,Noord-Brabant,VBO,4.749277,51.548018
Overaseweg,7,,,4836BA,Breda,Breda,Noord-Brabant,VBO,4.748360,51.547445
Overaseweg,9,,,4836BA,Breda,Breda,Noord-Brabant,VBO,4.748120,51.547079
Overaseweg,11,,,4836BA,Breda,Breda,Noord-Brabant,VBO,4.747499,51.546661
Overaseweg,11,,,4836BA,Breda,Breda,Noord-Brabant,VBO,4.747523,51.546658
Overaseweg,19,,,4836BA,Breda,Breda,Noord-Brabant,VBO,4.746312,51.544616
Overaseweg,21,,,4836BA,Breda,Breda,Noord-Brabant,VBO,4.747469,51.544782
Overaseweg,23,A,,4836BA,Breda,Breda,Noord-Brabant,VBO,4.748738,51.543468
Overaseweg,23,,,4836BA,Breda,Breda,Noord-Brabant,VBO,4.746455,51.544466
Overaseweg,25,,,4836BA,Breda,Breda,Noord-Brabant,VBO,4.746372,51.544096
Overaseweg,27,,,4836BA,Breda,Breda,Noord-Brabant,VBO,4.746259,51.543661
Overaseweg,29,,,4836BA,Breda,Breda,Noord-Brabant,VBO,4.746304,51.543237
Overaseweg,33,,,4836BA,Breda,Breda,Noord-Brabant,VBO,4.746315,51.542233
Overaseweg,41,,,4836BA,Breda,Breda,Noord-Brabant,VBO,4.746133,51.540761
Overaseweg,45,,,4836BA,Breda,Breda,Noord-Brabant,VBO,4.746122,51.540204
Overaseweg,49,,,4836BA,Breda,Breda,Noord-Brabant,VBO,4.746172,51.539594
Overaseweg,55,,,4836BA,Breda,Breda,Noord-Brabant,VBO,4.746100,51.538765
Overaseweg,57,,,4836BA,Breda,Breda,Noord-Brabant,VBO,4.746215,51.538080
Overaseweg,6,,,4836BB,Breda,Breda,Noord-Brabant,VBO,4.757723,51.561810
Overaseweg,8,,,4836BB,Breda,Breda,Noord-Brabant,VBO,4.757965,51.561478
Overaseweg,10,,,4836BB,Breda,Breda,Noord-Brabant,VBO,4.757911,51.561240
Overaseweg,12,,,4836BB,Breda,Breda,Noord-Brabant,VBO,4.757810,51.561000
Overaseweg,16,,,4836BB,Breda,Breda,Noord-Brabant,VBO,4.757852,51.560857
Overaseweg,18,,,4836BB,Breda,Breda,Noord-Brabant,VBO,4.757604,51.560593
Overaseweg,20,,,4836BB,Breda,Breda,Noord-Brabant,VBO,4.758014,51.560459
Overaseweg,22,,,4836BB,Breda,Breda,Noord-Brabant,VBO,4.758029,51.560402
Overaseweg,24,,,4836BB,Breda,Breda,Noord-Brabant,VBO,4.758049,51.560234
Overaseweg,26,,,4836BB,Breda,Breda,Noord-Brabant,VBO,4.758093,51.560053
Overaseweg,28,,,4836BB,Breda,Breda,Noord-Brabant,VBO,4.758148,51.559875
Overaseweg,30,,,4836BB,Breda,Breda,Noord-Brabant,VBO,4.758292,51.559770
Overaseweg,34,,,4836BB,Breda,Breda,Noord-Brabant,VBO,4.758362,51.559530
Overaseweg,38,,,4836BB,Breda,Breda,Noord-Brabant,VBO,4.758092,51.559224
Overaseweg,40,,,4836BB,Breda,Breda,Noord-Brabant,VBO,4.758411,51.559037
Overaseweg,42,,,4836BB,Breda,Breda,Noord-Brabant,VBO,4.758404,51.558934
Overaseweg,44,,,4836BB,Breda,Breda,Noord-Brabant,VBO,4.758377,51.558796
Overaseweg,46,,,4836BB,Breda,Breda,Noord-Brabant,VBO,4.758337,51.558634
Overaseweg,52,,,4836BB,Breda,Breda,Noord-Brabant,VBO,4.758162,51.558239
Overaseweg,78,,,4836BB,Breda,Breda,Noord-Brabant,VBO,4.757686,51.557638
Overaseweg,82,,,4836BC,Breda,Breda,Noord-Brabant,VBO,4.756748,51.557073
Overaseweg,86,,,4836BC,Breda,Breda,Noord-Brabant,VBO,4.757344,51.556216
Overaseweg,88,,,4836BC,Breda,Breda,Noord-Brabant,VBO,4.756468,51.555792
Overaseweg,90,,,4836BC,Breda,Breda,Noord-Brabant,VBO,4.756788,51.556248
Overaseweg,96,,,4836BC,Breda,Breda,Noord-Brabant,VBO,4.756755,51.555141
Overaseweg,100,,,4836BC,Breda,Breda,Noord-Brabant,VBO,4.756510,51.554902
Overaseweg,110,,,4836BC,Breda,Breda,Noord-Brabant,VBO,4.755699,51.554075
Overaseweg,112,,,4836BC,Breda,Breda,Noord-Brabant,VBO,4.754320,51.554326
Overaseweg,118,,,4836BC,Breda,Breda,Noord-Brabant,VBO,4.754633,51.553896
Overaseweg,132,,,4836BC,Breda,Breda,Noord-Brabant,VBO,4.751745,51.553731
Overaseweg,134,,,4836BC,Breda,Breda,Noord-Brabant,VBO,4.751035,51.553727
Overaseweg,158,,,4836BC,Breda,Breda,Noord-Brabant,VBO,4.750701,51.550295
Overaseweg,160,,,4836BC,Breda,Breda,Noord-Brabant,VBO,4.750452,51.550058
Overaseweg,162,A,,4836BC,Breda,Breda,Noord-Brabant,VBO,4.750033,51.549466
Overaseweg,162,B,,4836BC,Breda,Breda,Noord-Brabant,VBO,4.750034,51.549596
Overaseweg,162,,,4836BC,Breda,Breda,Noord-Brabant,VBO,4.750025,51.549775
Overaseweg,166,,,4836BC,Breda,Breda,Noord-Brabant,VBO,4.748983,51.548780
Overaseweg,168,,,4836BD,Breda,Breda,Noord-Brabant,VBO,4.747499,51.548881
Overaseweg,174,,,4836BD,Breda,Breda,Noord-Brabant,VBO,4.745983,51.547611
Overaseweg,180,,,4836BD,Breda,Breda,Noord-Brabant,VBO,4.744762,51.548859
Overaseweg,186,,,4836BD,Breda,Breda,Noord-Brabant,VBO,4.746223,51.547210
Overaseweg,188,,,4836BD,Breda,Breda,Noord-Brabant,VBO,4.745942,51.546659
Overaseweg,198,,,4836BD,Breda,Breda,Noord-Brabant,VBO,4.745757,51.544149
Overaseweg,200,,,4836BD,Breda,Breda,Noord-Brabant,VBO,4.745678,51.543480
Overaseweg,202,,,4836BD,Breda,Breda,Noord-Brabant,VBO,4.744214,51.543636
Overaseweg,204,,,4836BD,Breda,Breda,Noord-Brabant,VBO,4.743376,51.542616
Overaseweg,206,,,4836BD,Breda,Breda,Noord-Brabant,VBO,4.741739,51.542529
Overaseweg,210,,,4836BD,Breda,Breda,Noord-Brabant,VBO,4.745574,51.541647
Overaseweg,216,,,4836BD,Breda,Breda,Noord-Brabant,VBO,4.742394,51.540993
Overaseweg,230,,,4836BD,Breda,Breda,Noord-Brabant,VBO,4.745644,51.539771
Overaseweg,232,,,4836BD,Breda,Breda,Noord-Brabant,VBO,4.745474,51.538935
Overaseweg,236,,,4836BD,Breda,Breda,Noord-Brabant,VBO,4.745175,51.537892
Overaseweg,238,,,4836BD,Breda,Breda,Noord-Brabant,VBO,4.745116,51.537468
Overaseweg,240,,,4836BD,Breda,Breda,Noord-Brabant,VBO,4.745159,51.537055
Overaseweg,244,,BIS,4836BD,Breda,Breda,Noord-Brabant,VBO,4.744969,51.536252
Overaseweg,244,,,4836BD,Breda,Breda,Noord-Brabant,VBO,4.745342,51.536311
Overaseweg,246,,,4836BD,Breda,Breda,Noord-Brabant,VBO,4.745400,51.535767
Overaseweg,268,,,4836BD,Breda,Breda,Noord-Brabant,VBO,4.739925,51.533048
Overaseweg,270,,,4836BD,Breda,Breda,Noord-Brabant,VBO,4.739288,51.532537
Overaseweg,902,,,4836BD,Breda,Breda,Noord-Brabant,VBO,4.745808,51.544152
Heistraat,6,,,4836BE,Breda,Breda,Noord-Brabant,VBO,4.750199,51.547572
Heistraat,9,,,4836BE,Breda,Breda,Noord-Brabant,VBO,4.750216,51.539612
Heistraat,15,,,4836BE,Breda,Breda,Noord-Brabant,VBO,4.748804,51.539250
Heistraat,21,,,4836BE,Breda,Breda,Noord-Brabant,VBO,4.747875,51.538906
Heistraat,35,,,4836BE,Breda,Breda,Noord-Brabant,VBO,4.747071,51.537537
Heistraat,40,,,4836BE,Breda,Breda,Noord-Brabant,VBO,4.749684,51.544845
Heistraat,41,,,4836BE,Breda,Breda,Noord-Brabant,VBO,4.746834,51.536611
Heistraat,41,,,4836BE,Breda,Breda,Noord-Brabant,VBO,4.746888,51.536607
Heistraat,42,,,4836BE,Breda,Breda,Noord-Brabant,VBO,4.749440,51.543926
Heistraat,46,,,4836BE,Breda,Breda,Noord-Brabant,VBO,4.749738,51.543516
Heistraat,52,,,4836BE,Breda,Breda,Noord-Brabant,VBO,4.750263,51.542730
Heistraat,54,,,4836BE,Breda,Breda,Noord-Brabant,VBO,4.750212,51.542330
Heistraat,70,,,4836BE,Breda,Breda,Noord-Brabant,VBO,4.749877,51.540596
Heistraat,78,,,4836BE,Breda,Breda,Noord-Brabant,VBO,4.749831,51.539886
Heistraat,84,,,4836BE,Breda,Breda,Noord-Brabant,VBO,4.748828,51.539604
Heistraat,90,A,,4836BE,Breda,Breda,Noord-Brabant,VBO,4.747654,51.539297
Heistraat,90,,,4836BE,Breda,Breda,Noord-Brabant,VBO,4.748066,51.539385
Heiakkerpad,8,,,4836BG,Breda,Breda,Noord-Brabant,VBO,4.747628,51.541186
Heiakkerpad,15,,,4836BG,Breda,Breda,Noord-Brabant,VBO,4.748839,51.541503
Heiakkerpad,18,,,4836BG,Breda,Breda,Noord-Brabant,VBO,4.749352,51.541146
Heiakkerpad,20,,,4836BG,Breda,Breda,Noord-Brabant,VBO,4.749243,51.540819
Marellenweg,4,,,4836BH,Breda,Breda,Noord-Brabant,VBO,4.751769,51.539358
Marellenweg,6,,,4836BH,Breda,Breda,Noord-Brabant,VBO,4.752024,51.539164
Marellenweg,8,,,4836BH,Breda,Breda,Noord-Brabant,VBO,4.752448,51.538889
Marellenweg,20,,BIS,4836BH,Breda,Breda,Noord-Brabant,VBO,4.751593,51.533511
Marellenweg,20,,,4836BH,Breda,Breda,Noord-Brabant,VBO,4.752589,51.536010
Weerdstraat,30,,,4836BJ,Breda,Breda,Noord-Brabant,VBO,4.739776,51.536908
Weerdstraat,31,,I,4836BJ,Breda,Breda,Noord-Brabant,VBO,4.739624,51.535106
Weerdstraat,31,,,4836BJ,Breda,Breda,Noord-Brabant,VBO,4.739863,51.534957
Weerdstraat,32,,,4836BJ,Breda,Breda,Noord-Brabant,VBO,4.738815,51.536474
Weerdstraat,33,,,4836BJ,Breda,Breda,Noord-Brabant,VBO,4.738543,51.535947
Weerdstraat,35,,,4836BJ,Breda,Breda,Noord-Brabant,VBO,4.738450,51.535895
Weerdstraat,36,,,4836BJ,Breda,Breda,Noord-Brabant,VBO,4.737540,51.535989
Weerdstraat,37,,,4836BJ,Breda,Breda,Noord-Brabant,VBO,4.736750,51.535441
Weerdstraat,43,,,4836BJ,Breda,Breda,Noord-Brabant,VBO,4.735513,51.535719
Tweegelandenbrugweg,27,,,4836BK,Breda,Breda,Noord-Brabant,VBO,4.734405,51.543197
Tweegelandenbrugweg,28,,,4836BK,Breda,Breda,Noord-Brabant,VBO,4.738555,51.542480
Tweegelandenbrugweg,29,,,4836BK,Breda,Breda,Noord-Brabant,VBO,4.733070,51.543055
Tweegelandenbrugweg,30,,,4836BK,Breda,Breda,Noord-Brabant,VBO,4.738844,51.544702
Tweegelandenbrugweg,31,,,4836BK,Breda,Breda,Noord-Brabant,VBO,4.731333,51.543249
Tweegelandenbrugweg,37,,,4836BK,Breda,Breda,Noord-Brabant,VBO,4.730732,51.543767
Verlengde Heistraat,6,,,4836BL,Breda,Breda,Noord-Brabant,VBO,4.745510,51.533173
Blauwe Kamer Jagertje,1,,,4836CA,Breda,Breda,Noord-Brabant,VBO,4.780314,51.547657
Blauwe Kamer Jagertje,2,,,4836CA,Breda,Breda,Noord-Brabant,VBO,4.780134,51.547668
Blauwe Kamer Jagertje,3,,,4836CA,Breda,Breda,Noord-Brabant,VBO,4.779974,51.547951
Blauwe Kamer Moerke,1,,,4836CB,Breda,Breda,Noord-Brabant,VBO,4.779695,51.547951
Blauwe Kamer Moerke,2,,,4836CB,Breda,Breda,Noord-Brabant,VBO,4.779199,51.548124
Blauwe Kamer Moerke,3,,,4836CB,Breda,Breda,Noord-Brabant,VBO,4.779224,51.548235
Blauwe Kamer Beemd,1,,,4836CC,Breda,Breda,Noord-Brabant,VBO,4.780239,51.549083
Blauwe Kamer Beemd,2,,,4836CC,Breda,Breda,Noord-Brabant,VBO,4.780269,51.549213
Blauwe Kamer Beemd,3,,,4836CC,Breda,Breda,Noord-Brabant,VBO,4.780914,51.549276
Blauwe Kamer Kreek,1,,,4836CD,Breda,Breda,Noord-Brabant,VBO,4.781161,51.549208
Blauwe Kamer Kreek,2,,,4836CD,Breda,Breda,Noord-Brabant,VBO,4.781598,51.549483
Blauwe Kamer Kreek,3,,,4836CD,Breda,Breda,Noord-Brabant,VBO,4.781793,51.549470
Hazeldonk,6001,A,,4836LA,Breda,Breda,Noord-Brabant,VBO,4.745112,51.490233
Hazeldonk,6001,,,4836LA,Breda,Breda,Noord-Brabant,VBO,4.745273,51.490216
Hazeldonk,6002,,,4836LA,Breda,Breda,Noord-Brabant,VBO,4.745653,51.490092
Hazeldonk,6003,,,4836LA,Breda,Breda,Noord-Brabant,VBO,4.743841,51.489779
Hazeldonk,6004,,,4836LA,Breda,Breda,Noord-Brabant,VBO,4.744846,51.489545
Hazeldonk,6005,,,4836LA,Breda,Breda,Noord-Brabant,VBO,4.743737,51.489748
Hazeldonk,6006,,,4836LA,Breda,Breda,Noord-Brabant,VBO,4.744434,51.489419
Hazeldonk,6007,,,4836LA,Breda,Breda,Noord-Brabant,VBO,4.743639,51.489717
Hazeldonk,6008,,,4836LA,Breda,Breda,Noord-Brabant,VBO,4.743627,51.489006
Hazeldonk,6010,,,4836LA,Breda,Breda,Noord-Brabant,VBO,4.743274,51.488843
Hazeldonk,6011,,,4836LA,Breda,Breda,Noord-Brabant,VBO,4.742498,51.489498
Hazeldonk,6019,,,4836LA,Breda,Breda,Noord-Brabant,VBO,4.738942,51.489828
Hazeldonk,6021,,,4836LA,Breda,Breda,Noord-Brabant,VBO,4.739573,51.489623
Hazeldonk,6023,,,4836LA,Breda,Breda,Noord-Brabant,VBO,4.739649,51.489607
Hazeldonk,6025,,,4836LA,Breda,Breda,Noord-Brabant,VBO,4.739735,51.489586
Hazeldonk,6027,,,4836LA,Breda,Breda,Noord-Brabant,VBO,4.739825,51.489566
Hazeldonk,6029,,,4836LA,Breda,Breda,Noord-Brabant,VBO,4.739951,51.489506
Hazeldonk,6031,,,4836LA,Breda,Breda,Noord-Brabant,VBO,4.740056,51.489470
Hazeldonk,6033,,,4836LA,Breda,Breda,Noord-Brabant,VBO,4.740187,51.489439
Hazeldonk,6035,,,4836LA,Breda,Breda,Noord-Brabant,VBO,4.740310,51.489448
Hazeldonk,6039,,,4836LA,Breda,Breda,Noord-Brabant,VBO,4.740559,51.489484
Hazeldonk,6041,,,4836LA,Breda,Breda,Noord-Brabant,VBO,4.740633,51.489506
Hazeldonk,6043,,,4836LA,Breda,Breda,Noord-Brabant,VBO,4.740699,51.489528
Hazeldonk,6045,,,4836LA,Breda,Breda,Noord-Brabant,VBO,4.740761,51.489545
Hazeldonk,6047,,,4836LA,Breda,Breda,Noord-Brabant,VBO,4.740808,51.489563
Hazeldonk,6049,,,4836LA,Breda,Breda,Noord-Brabant,VBO,4.740597,51.489662
Hazeldonk,6051,,,4836LA,Breda,Breda,Noord-Brabant,VBO,4.740693,51.489686
Hazeldonk,6053,,,4836LA,Breda,Breda,Noord-Brabant,VBO,4.740475,51.489820
Hazeldonk,99,,,4836LB,Breda,Breda,Noord-Brabant,VBO,4.743272,51.499446
Hazeldonk,101,,,4836LB,Breda,Breda,Noord-Brabant,VBO,4.742931,51.499126
Hazeldonk,103,,,4836LB,Breda,Breda,Noord-Brabant,VBO,4.742770,51.498609
Hazeldonk,105,,,4836LB,Breda,Breda,Noord-Brabant,VBO,4.742915,51.498471
Hazeldonk,107,,,4836LB,Breda,Breda,Noord-Brabant,VBO,4.742685,51.498371
Hazeldonk,111,,,4836LB,Breda,Breda,Noord-Brabant,VBO,4.742398,51.497448
Hazeldonk,6505,,,4836LD,Breda,Breda,Noord-Brabant,VBO,4.747351,51.499112
Hazeldonk,6515,,,4836LD,Breda,Breda,Noord-Brabant,VBO,4.746777,51.499361
Hazeldonk,6519,,,4836LD,Breda,Breda,Noord-Brabant,VBO,4.746530,51.499798
Hazeldonk,6520,,,4836LD,Breda,Breda,Noord-Brabant,VBO,4.746322,51.501217
Hazeldonk,6521,,,4836LD,Breda,Breda,Noord-Brabant,VBO,4.746409,51.499890
Hazeldonk,6526,,,4836LD,Breda,Breda,Noord-Brabant,VBO,4.747808,51.503545
Hazeldonk,6530,,,4836LD,Breda,Breda,Noord-Brabant,VBO,4.745894,51.504317
Hazeldonk,6548,,,4836LD,Breda,Breda,Noord-Brabant,VBO,4.751661,51.503444
Hazeldonk,6550,,,4836LD,Breda,Breda,Noord-Brabant,VBO,4.751265,51.504803
Hazeldonk,6552,,,4836LD,Breda,Breda,Noord-Brabant,VBO,4.749636,51.504864
Hazeldonk,6301,,,4836LE,Breda,Breda,Noord-Brabant,VBO,4.745943,51.490407
Hazeldonk,6302,,,4836LE,Breda,Breda,Noord-Brabant,VBO,4.746220,51.490948
Hazeldonk,6304,A,,4836LE,Breda,Breda,Noord-Brabant,VBO,4.746579,51.491337
Hazeldonk,6304,,,4836LE,Breda,Breda,Noord-Brabant,VBO,4.746536,51.491353
Hazeldonk,6306,,,4836LE,Breda,Breda,Noord-Brabant,VBO,4.746602,51.491412
Hazeldonk,6308,,,4836LE,Breda,Breda,Noord-Brabant,VBO,4.746689,51.492241
Hazeldonk,6352,,,4836LE,Breda,Breda,Noord-Brabant,VBO,4.747180,51.493156
Hazeldonk,6354,,,4836LE,Breda,Breda,Noord-Brabant,VBO,4.747401,51.493459
Hazeldonk,6360,,,4836LE,Breda,Breda,Noord-Brabant,VBO,4.747801,51.494361
Hazeldonk,6362,,,4836LE,Breda,Breda,Noord-Brabant,VBO,4.747994,51.494545
Hazeldonk,6364,,,4836LE,Breda,Breda,Noord-Brabant,VBO,4.747997,51.494737
Hazeldonk,6383,,,4836LE,Breda,Breda,Noord-Brabant,VBO,4.746084,51.495357
Hazeldonk,6389,,,4836LE,Breda,Breda,Noord-Brabant,VBO,4.748459,51.495093
Hazeldonk,6392,,,4836LE,Breda,Breda,Noord-Brabant,VBO,4.749015,51.494550
Hazeldonk,6393,,,4836LE,Breda,Breda,Noord-Brabant,VBO,4.749085,51.494999
Hazeldonk,6252,,,4836LG,Breda,Breda,Noord-Brabant,VBO,4.745401,51.491343
Hazeldonk,6253,,,4836LG,Breda,Breda,Noord-Brabant,VBO,4.744159,51.491098
Hazeldonk,6255,,,4836LG,Breda,Breda,Noord-Brabant,VBO,4.743844,51.491300
Hazeldonk,6258,,,4836LG,Breda,Breda,Noord-Brabant,VBO,4.743784,51.491835
Hazeldonk,6259,,,4836LG,Breda,Breda,Noord-Brabant,VBO,4.742922,51.491532
Hazeldonk,6262,,,4836LG,Breda,Breda,Noord-Brabant,VBO,4.743350,51.491929
Hazeldonk,6263,,,4836LG,Breda,Breda,Noord-Brabant,VBO,4.742506,51.491590
Hazeldonk,6264,,,4836LG,Breda,Breda,Noord-Brabant,VBO,4.742876,51.491944
Hazeldonk,6265,A,,4836LG,Breda,Breda,Noord-Brabant,VBO,4.742039,51.491694
Hazeldonk,6265,,,4836LG,Breda,Breda,Noord-Brabant,VBO,4.742219,51.491657
Hazeldonk,6266,,,4836LG,Breda,Breda,Noord-Brabant,VBO,4.742931,51.492381
Hazeldonk,6267,,,4836LG,Breda,Breda,Noord-Brabant,VBO,4.741402,51.491799
Hazeldonk,6268,,,4836LG,Breda,Breda,Noord-Brabant,VBO,4.741315,51.492327
Hazeldonk,6270,,,4836LG,Breda,Breda,Noord-Brabant,VBO,4.741394,51.492479
Hazeldonk,6273,,,4836LG,Breda,Breda,Noord-Brabant,VBO,4.740848,51.492620
Hazeldonk,6284,,,4836LG,Breda,Breda,Noord-Brabant,VBO,4.742214,51.493650
Hazeldonk,6285,,,4836LG,Breda,Breda,Noord-Brabant,VBO,4.741942,51.494713
Hazeldonk,6286,,,4836LG,Breda,Breda,Noord-Brabant,VBO,4.742701,51.494170
Hazeldonk,6288,,,4836LG,Breda,Breda,Noord-Brabant,VBO,4.742884,51.494145
Hazeldonk,6295,,,4836LG,Breda,Breda,Noord-Brabant,VBO,4.742025,51.495213
Hazeldonk,6297,,,4836LG,Breda,Breda,Noord-Brabant,VBO,4.742064,51.492162
Hazeldonk,6403,A,,4836LH,Breda,Breda,Noord-Brabant,VBO,4.745945,51.491988
Hazeldonk,6403,,,4836LH,Breda,Breda,Noord-Brabant,VBO,4.745958,51.492014
Hazeldonk,6405,,,4836LH,Breda,Breda,Noord-Brabant,VBO,4.745722,51.492069
Hazeldonk,6407,,,4836LH,Breda,Breda,Noord-Brabant,VBO,4.745582,51.492097
Hazeldonk,6408,,,4836LH,Breda,Breda,Noord-Brabant,VBO,4.746117,51.492307
Hazeldonk,6409,,,4836LH,Breda,Breda,Noord-Brabant,VBO,4.745376,51.492137
Hazeldonk,6411,,,4836LH,Breda,Breda,Noord-Brabant,VBO,4.744304,51.492306
Hazeldonk,6412,,,4836LH,Breda,Breda,Noord-Brabant,VBO,4.744153,51.492705
Hazeldonk,6414,,,4836LH,Breda,Breda,Noord-Brabant,VBO,4.743889,51.493052
Hazeldonk,6416,,,4836LH,Breda,Breda,Noord-Brabant,VBO,4.743944,51.493148
Hazeldonk,6418,,,4836LH,Breda,Breda,Noord-Brabant,VBO,4.743777,51.492861
Hazeldonk,6452,,,4836LH,Breda,Breda,Noord-Brabant,VBO,4.743912,51.493100
Hazeldonk,6464,,,4836LH,Breda,Breda,Noord-Brabant,VBO,4.743956,51.493995
Hazeldonk,6465,,,4836LH,Breda,Breda,Noord-Brabant,VBO,4.743740,51.495527
Hazeldonk,6467,,,4836LH,Breda,Breda,Noord-Brabant,VBO,4.743892,51.495782
Hazeldonk,6469,,,4836LH,Breda,Breda,Noord-Brabant,VBO,4.744219,51.496016
Hazeldonk,6470,A,,4836LH,Breda,Breda,Noord-Brabant,VBO,4.744427,51.495764
Hazeldonk,6470,,,4836LH,Breda,Breda,Noord-Brabant,VBO,4.745373,51.495865
Hazeldonk,6471,,,4836LH,Breda,Breda,Noord-Brabant,VBO,4.744622,51.496687
Hazeldonk,6473,,,4836LH,Breda,Breda,Noord-Brabant,VBO,4.743752,51.496988
Hazeldonk,6475,A,,4836LH,Breda,Breda,Noord-Brabant,VBO,4.743265,51.496562
Hazeldonk,6475,,,4836LH,Breda,Breda,Noord-Brabant,VBO,4.743202,51.496575
Hazeldonk,6477,,,4836LH,Breda,Breda,Noord-Brabant,VBO,4.745070,51.497112
Hazeldonk,6480,,,4836LH,Breda,Breda,Noord-Brabant,VBO,4.745981,51.497184
Hazeldonk,6481,,,4836LH,Breda,Breda,Noord-Brabant,VBO,4.745868,51.497772
Hazeldonk,6489,,,4836LH,Breda,Breda,Noord-Brabant,VBO,4.746452,51.498495
Hazeldonk,6801,,,4836LK,Breda,Breda,Noord-Brabant,VBO,4.748175,51.500062
Hazeldonk,6802,B,,4836LK,Breda,Breda,Noord-Brabant,VBO,4.750588,51.501560
Hazeldonk,6802,,,4836LK,Breda,Breda,Noord-Brabant,VBO,4.751381,51.501833
Hazeldonk,6803,,,4836LK,Breda,Breda,Noord-Brabant,VBO,4.748829,51.501277
Hazeldonk,6809,,,4836LK,Breda,Breda,Noord-Brabant,VBO,4.749810,51.502628
Hazeldonk,6710,,,4836LN,Breda,Breda,Noord-Brabant,VBO,4.748215,51.497877
Hazeldonk,6730,,,4836LN,Breda,Breda,Noord-Brabant,VBO,4.748526,51.498781
Hazeldonk,6740,,,4836LN,Breda,Breda,Noord-Brabant,VBO,4.749630,51.498315
Hazeldonk,5002,,,4836LZ,Breda,Breda,Noord-Brabant,VBO,4.741523,51.499618
Hazeldonk,5004,,,4836LZ,Breda,Breda,Noord-Brabant,VBO,4.741205,51.498227
Hazeldonk,5006,,,4836LZ,Breda,Breda,Noord-Brabant,VBO,4.740786,51.498390
Diunt,1,,,4836MA,Breda,Breda,Noord-Brabant,VBO,4.749299,51.507314
Diunt,2,,,4836MA,Breda,Breda,Noord-Brabant,VBO,4.748799,51.507812
Diunt,3,,,4836MA,Breda,Breda,Noord-Brabant,VBO,4.748485,51.507627
Diunt,4,,,4836MA,Breda,Breda,Noord-Brabant,VBO,4.748314,51.508162
Diunt,5,,,4836MA,Breda,Breda,Noord-Brabant,VBO,4.748036,51.507747
Diunt,7,,,4836MA,Breda,Breda,Noord-Brabant,VBO,4.747657,51.507801
Diunt,9,,,4836MA,Breda,Breda,Noord-Brabant,VBO,4.746758,51.508201
Diunt,11,,,4836MA,Breda,Breda,Noord-Brabant,VBO,4.746267,51.508524
Diunt,13,,,4836MA,Breda,Breda,Noord-Brabant,VBO,4.746613,51.509190
Rijsbergsebaan,1,,,4836MC,Breda,Breda,Noord-Brabant,VBO,4.750328,51.509897
Rijsbergsebaan,3,A,,4836MC,Breda,Breda,Noord-Brabant,VBO,4.748664,51.512434
Rijsbergsebaan,3,,,4836MC,Breda,Breda,Noord-Brabant,VBO,4.749942,51.510668
Rijsbergsebaan,5,,,4836MC,Breda,Breda,Noord-Brabant,VBO,4.747730,51.513939
Rijsbergsebaan,7,,,4836MC,Breda,Breda,Noord-Brabant,VBO,4.747069,51.514783
Rijsbergsebaan,9,,,4836MC,Breda,Breda,Noord-Brabant,VBO,4.746387,51.515896
Rijsbergsebaan,11,,,4836MC,Breda,Breda,Noord-Brabant,VBO,4.746942,51.516246
Rijsbergsebaan,13,,,4836MC,Breda,Breda,Noord-Brabant,VBO,4.747114,51.517048
Rijsbergsebaan,15,,,4836MC,Breda,Breda,Noord-Brabant,VBO,4.749707,51.523113
Rijsbergsebaan,17,,,4836MC,Breda,Breda,Noord-Brabant,VBO,4.750268,51.524425
Rijsbergsebaan,22,,,4836MC,Breda,Breda,Noord-Brabant,VBO,4.750861,51.522547
Hazeldonksestraat,21,,,4836MD,Breda,Breda,Noord-Brabant,VBO,4.753030,51.505967
Moerstraat,2,A,,4836ME,Breda,Breda,Noord-Brabant,VBO,4.759939,51.522445
Moerstraat,2,C,,4836ME,Breda,Breda,Noord-Brabant,VBO,4.766137,51.524875
Moerstraat,2,,,4836ME,Breda,Breda,Noord-Brabant,VBO,4.764222,51.524162
Moerstraat,4,A,,4836ME,Breda,Breda,Noord-Brabant,VBO,4.761785,51.521456
Moerstraat,4,,,4836ME,Breda,Breda,Noord-Brabant,VBO,4.761160,51.520425
Moerstraat,6,,,4836ME,Breda,Breda,Noord-Brabant,VBO,4.760973,51.520401
Zwaantjesweg,1,A,,4836MG,Breda,Breda,Noord-Brabant,VBO,4.763666,51.527533
Zwaantjesweg,1,,,4836MG,Breda,Breda,Noord-Brabant,VBO,4.768463,51.525413
Zwaantjesweg,2,,,4836MG,Breda,Breda,Noord-Brabant,VBO,4.762190,51.528088
