openbareruimtenaam,huisnummer,huisletter,huisnummertoevoeging,postcode,woonplaatsnaam,gemeentenaam,provincienaam,typeadresseerbaarobject,longitude,latitude
Effenseweg,1,,,4838BA,Breda,Breda,Noord-Brabant,VBO,4.732058,51.554513
Effenseweg,3,,,4838BA,Breda,Breda,Noord-Brabant,VBO,4.732094,51.554423
Effenseweg,15,,,4838BA,Breda,Breda,Noord-Brabant,VBO,4.732559,51.553389
Effenseweg,41,,,4838BA,Breda,Breda,Noord-Brabant,VBO,4.734827,51.551886
Effenseweg,43,,,4838BA,Breda,Breda,Noord-Brabant,VBO,4.735060,51.551744
Effenseweg,45,,,4838BA,Breda,Breda,Noord-Brabant,VBO,4.735296,51.551599
Effenseweg,49,,,4838BA,Breda,Breda,Noord-Brabant,VBO,4.735857,51.551322
Effenseweg,79,,,4838BA,Breda,Breda,Noord-Brabant,VBO,4.743324,51.550789
Effenseweg,99,,,4838BA,Breda,Breda,Noord-Brabant,VBO,4.743217,51.547991
Effenseweg,2,,,4838BB,Breda,Breda,Noord-Brabant,VBO,4.731569,51.554107
Effenseweg,4,,,4838BB,Breda,Breda,Noord-Brabant,VBO,4.731619,51.553946
Effenseweg,8,,,4838BB,Breda,Breda,Noord-Brabant,VBO,4.731837,51.553701
Effenseweg,10,,,4838BB,Breda,Breda,Noord-Brabant,VBO,4.731927,51.553564
Effenseweg,12,,,4838BB,Breda,Breda,Noord-Brabant,VBO,4.732011,51.553436
Effenseweg,18,,,4838BB,Breda,Breda,Noord-Brabant,VBO,4.732259,51.553029
Effenseweg,20,,,4838BB,Breda,Breda,Noord-Brabant,VBO,4.732431,51.552931
Effenseweg,22,,,4838BB,Breda,Breda,Noord-Brabant,VBO,4.732634,51.552809
Effenseweg,24,,,4838BB,Breda,Breda,Noord-Brabant,VBO,4.732801,51.552708
Effenseweg,26,,,4838BB,Breda,Breda,Noord-Brabant,VBO,4.733230,51.552451
Effenseweg,38,,,4838BB,Breda,Breda,Noord-Brabant,VBO,4.733572,51.552245
Effenseweg,40,,,4838BB,Breda,Breda,Noord-Brabant,VBO,4.733906,51.551895
Effenseweg,42,,,4838BB,Breda,Breda,Noord-Brabant,VBO,4.734143,51.551772
Effenseweg,44,,,4838BB,Breda,Breda,Noord-Brabant,VBO,4.734386,51.551605
Effenseweg,50,,,4838BB,Breda,Breda,Noord-Brabant,VBO,4.734917,51.551391
Effenseweg,98,,,4838BB,Breda,Breda,Noord-Brabant,VBO,4.742935,51.545764
Effenseweg,100,,,4838BB,Breda,Breda,Noord-Brabant,VBO,4.745505,51.545248
Hogendries,4,,,4838BD,Breda,Breda,Noord-Brabant,VBO,4.733440,51.551964
Hogendries,6,,,4838BD,Breda,Breda,Noord-Brabant,VBO,4.733286,51.551841
Hogendries,7,,,4838BD,Breda,Breda,Noord-Brabant,VBO,4.733611,51.551661
Hogendries,8,,,4838BD,Breda,Breda,Noord-Brabant,VBO,4.733104,51.551648
Hogendries,11,,,4838BD,Breda,Breda,Noord-Brabant,VBO,4.733379,51.551426
Kooiakker,2,,,4838BE,Breda,Breda,Noord-Brabant,VBO,4.732528,51.552487
Kooiakker,4,,,4838BE,Breda,Breda,Noord-Brabant,VBO,4.732361,51.552359
Kooiakker,5,,,4838BE,Breda,Breda,Noord-Brabant,VBO,4.732863,51.552320
Kooiakker,6,,,4838BE,Breda,Breda,Noord-Brabant,VBO,4.732168,51.552180
Kooiakker,7,,,4838BE,Breda,Breda,Noord-Brabant,VBO,4.732711,51.552173
Kooiakker,9,,,4838BE,Breda,Breda,Noord-Brabant,VBO,4.732543,51.552029
Kooiakker,11,,,4838BE,Breda,Breda,Noord-Brabant,VBO,4.732425,51.551826
Schalkeveld,5,,,4838BG,Breda,Breda,Noord-Brabant,VBO,4.734592,51.551188
Schalkeveld,7,,,4838BG,Breda,Breda,Noord-Brabant,VBO,4.734438,51.551038
Schalkeveld,9,,,4838BG,Breda,Breda,Noord-Brabant,VBO,4.734211,51.550808
Schalkeveld,11,,,4838BG,Breda,Breda,Noord-Brabant,VBO,4.733898,51.550881
Schalkeveld,12,,,4838BG,Breda,Breda,Noord-Brabant,VBO,4.733812,51.551213
Schalkeveld,13,,,4838BG,Breda,Breda,Noord-Brabant,VBO,4.733635,51.550980
Schalkeveld,15,,,4838BG,Breda,Breda,Noord-Brabant,VBO,4.733391,51.551053
Schalkeveld,17,,,4838BG,Breda,Breda,Noord-Brabant,VBO,4.733082,51.551162
Schalkeveld,19,,,4838BG,Breda,Breda,Noord-Brabant,VBO,4.732859,51.551267
Schalkeveld,21,,,4838BG,Breda,Breda,Noord-Brabant,VBO,4.732575,51.551404
Schalkeveld,23,,,4838BG,Breda,Breda,Noord-Brabant,VBO,4.732277,51.551527
Schalkeveld,25,,,4838BG,Breda,Breda,Noord-Brabant,VBO,4.732051,51.551642
Schalkeveld,32,,,4838BG,Breda,Breda,Noord-Brabant,VBO,4.732775,51.551739
Schalkeveld,33,,,4838BG,Breda,Breda,Noord-Brabant,VBO,4.731679,51.551824
Schalkeveld,34,,,4838BG,Breda,Breda,Noord-Brabant,VBO,4.731936,51.551997
Schalkeveld,35,,,4838BG,Breda,Breda,Noord-Brabant,VBO,4.731425,51.551933
Schalkeveld,36,,,4838BG,Breda,Breda,Noord-Brabant,VBO,4.731507,51.552209
Schalkeveld,37,,,4838BG,Breda,Breda,Noord-Brabant,VBO,4.731208,51.552041
Schalkeveld,39,,,4838BG,Breda,Breda,Noord-Brabant,VBO,4.730982,51.552138
Schalkeveld,41,,,4838BG,Breda,Breda,Noord-Brabant,VBO,4.730713,51.552304
Oude Rijsbergsebaan,5,,,4838BH,Breda,Breda,Noord-Brabant,VBO,4.732125,51.552685
Oude Rijsbergsebaan,7,,,4838BH,Breda,Breda,Noord-Brabant,VBO,4.731873,51.552455
Oude Rijsbergsebaan,9,,,4838BH,Breda,Breda,Noord-Brabant,VBO,4.731705,51.552554
Oude Rijsbergsebaan,11,,,4838BH,Breda,Breda,Noord-Brabant,VBO,4.731579,51.552891
Oude Rijsbergsebaan,15,,,4838BH,Breda,Breda,Noord-Brabant,VBO,4.731289,51.552688
Oude Rijsbergsebaan,17,,,4838BH,Breda,Breda,Noord-Brabant,VBO,4.731054,51.552529
Oude Rijsbergsebaan,21,A,,4838BH,Breda,Breda,Noord-Brabant,VBO,4.730081,51.551846
Oude Rijsbergsebaan,21,,,4838BH,Breda,Breda,Noord-Brabant,VBO,4.730271,51.552075
Oude Rijsbergsebaan,23,,,4838BH,Breda,Breda,Noord-Brabant,VBO,4.729864,51.551493
Oude Rijsbergsebaan,25,,,4838BH,Breda,Breda,Noord-Brabant,VBO,4.729662,51.551218
Oude Rijsbergsebaan,27,,,4838BH,Breda,Breda,Noord-Brabant,VBO,4.729365,51.550831
Oude Rijsbergsebaan,31,,,4838BH,Breda,Breda,Noord-Brabant,VBO,4.728482,51.549760
Oude Rijsbergsebaan,33,,,4838BH,Breda,Breda,Noord-Brabant,VBO,4.728284,51.549779
Oude Rijsbergsebaan,35,,,4838BH,Breda,Breda,Noord-Brabant,VBO,4.728068,51.549337
Oude Rijsbergsebaan,37,,,4838BH,Breda,Breda,Noord-Brabant,VBO,4.728507,51.549019
Oude Rijsbergsebaan,39,,,4838BH,Breda,Breda,Noord-Brabant,VBO,4.727964,51.548813
Oude Rijsbergsebaan,47,,,4838BH,Breda,Breda,Noord-Brabant,VBO,4.728103,51.548055
Oude Rijsbergsebaan,51,,,4838BH,Breda,Breda,Noord-Brabant,VBO,4.727875,51.547248
Oude Rijsbergsebaan,67,,,4838BH,Breda,Breda,Noord-Brabant,VBO,4.726287,51.545557
Oude Rijsbergsebaan,69,,,4838BH,Breda,Breda,Noord-Brabant,VBO,4.726119,51.545262
Oude Rijsbergsebaan,71,,,4838BH,Breda,Breda,Noord-Brabant,VBO,4.725837,51.545245
Oude Rijsbergsebaan,77,,,4838BH,Breda,Breda,Noord-Brabant,VBO,4.724637,51.544576
Oude Rijsbergsebaan,83,,,4838BH,Breda,Breda,Noord-Brabant,VBO,4.724030,51.544489
Oude Rijsbergsebaan,4,,,4838BJ,Breda,Breda,Noord-Brabant,VBO,4.731979,51.553224
Oude Rijsbergsebaan,6,,,4838BJ,Breda,Breda,Noord-Brabant,VBO,4.731573,51.553230
Oude Rijsbergsebaan,8,,,4838BJ,Breda,Breda,Noord-Brabant,VBO,4.731322,51.553369
Oude Rijsbergsebaan,10,,,4838BJ,Breda,Breda,Noord-Brabant,VBO,4.731092,51.553532
Oude Rijsbergsebaan,12,,,4838BJ,Breda,Breda,Noord-Brabant,VBO,4.730900,51.553333
Oude Rijsbergsebaan,14,,,4838BJ,Breda,Breda,Noord-Brabant,VBO,4.731191,51.553071
Oude Rijsbergsebaan,16,,,4838BJ,Breda,Breda,Noord-Brabant,VBO,4.730993,51.552876
Oude Rijsbergsebaan,18,,,4838BJ,Breda,Breda,Noord-Brabant,VBO,4.730813,51.552749
Oude Rijsbergsebaan,20,,,4838BJ,Breda,Breda,Noord-Brabant,VBO,4.730531,51.552610
Oude Rijsbergsebaan,34,,,4838BJ,Breda,Breda,Noord-Brabant,VBO,4.726024,51.546195
Hoenderparkweg,11,,,4838BK,Breda,Breda,Noord-Brabant,VBO,4.729638,51.549986
Hoenderparkweg,13,,,4838BK,Breda,Breda,Noord-Brabant,VBO,4.729726,51.549950
Hoenderparkweg,14,,I,4838BK,Breda,Breda,Noord-Brabant,VBO,4.729831,51.549139
Hoenderparkweg,14,,,4838BK,Breda,Breda,Noord-Brabant,VBO,4.730072,51.549527
Hoenderparkweg,15,,,4838BK,Breda,Breda,Noord-Brabant,VBO,4.730094,51.549766
Hoenderparkweg,18,,,4838BK,Breda,Breda,Noord-Brabant,VBO,4.730828,51.549194
Hoenderparkweg,19,,,4838BK,Breda,Breda,Noord-Brabant,VBO,4.730704,51.549531
Hoenderparkweg,21,,,4838BK,Breda,Breda,Noord-Brabant,VBO,4.730776,51.549500
Oudlandstraatje,5,,,4838BL,Breda,Breda,Noord-Brabant,VBO,4.733848,51.550149
Oudlandstraatje,15,,,4838BL,Breda,Breda,Noord-Brabant,VBO,4.731969,51.548580
Oudlandstraatje,19,,,4838BL,Breda,Breda,Noord-Brabant,VBO,4.731245,51.547745
Oudlandstraatje,20,,,4838BL,Breda,Breda,Noord-Brabant,VBO,4.730600,51.547880
Oudlandstraatje,25,,,4838BL,Breda,Breda,Noord-Brabant,VBO,4.732940,51.545930
Oudlandstraatje,26,,,4838BL,Breda,Breda,Noord-Brabant,VBO,4.729906,51.546686
Oudlandstraatje,28,,,4838BL,Breda,Breda,Noord-Brabant,VBO,4.729763,51.546664
Oudlandstraatje,30,,,4838BL,Breda,Breda,Noord-Brabant,VBO,4.729720,51.546604
Oudlandstraatje,31,,,4838BL,Breda,Breda,Noord-Brabant,VBO,4.729975,51.545421
Oudlandstraatje,35,,,4838BL,Breda,Breda,Noord-Brabant,VBO,4.729376,51.544687
Oudlandstraatje,61,,,4838BL,Breda,Breda,Noord-Brabant,VBO,4.724353,51.539614
Buurtschap Effen,1,,,4838BM,Breda,Breda,Noord-Brabant,VBO,4.726889,51.534500
Buurtschap Effen,2,,,4838BM,Breda,Breda,Noord-Brabant,VBO,4.727361,51.534379
Meester Van Meelstraat,1,,,4838BN,Breda,Breda,Noord-Brabant,VBO,4.733469,51.553628
Meester Van Meelstraat,2,,,4838BN,Breda,Breda,Noord-Brabant,VBO,4.733919,51.553432
Meester Van Meelstraat,3,,,4838BN,Breda,Breda,Noord-Brabant,VBO,4.733753,51.553699
Meester Van Meelstraat,4,,,4838BN,Breda,Breda,Noord-Brabant,VBO,4.734076,51.553327
Meester Van Meelstraat,5,,,4838BN,Breda,Breda,Noord-Brabant,VBO,4.733983,51.553778
Meester Van Meelstraat,6,,,4838BN,Breda,Breda,Noord-Brabant,VBO,4.734248,51.553210
Meester Van Meelstraat,7,,,4838BN,Breda,Breda,Noord-Brabant,VBO,4.734335,51.553531
Meester Van Meelstraat,8,,,4838BN,Breda,Breda,Noord-Brabant,VBO,4.734421,51.553104
Meester Van Meelstraat,9,,,4838BN,Breda,Breda,Noord-Brabant,VBO,4.734617,51.553343
Meester Van Meelstraat,10,,,4838BN,Breda,Breda,Noord-Brabant,VBO,4.734601,51.552980
Meester Van Meelstraat,11,,,4838BN,Breda,Breda,Noord-Brabant,VBO,4.734848,51.553185
Meester Van Meelstraat,12,,,4838BN,Breda,Breda,Noord-Brabant,VBO,4.734779,51.552858
Meester Van Meelstraat,13,,,4838BN,Breda,Breda,Noord-Brabant,VBO,4.735097,51.553014
Meester Van Meelstraat,15,,,4838BN,Breda,Breda,Noord-Brabant,VBO,4.735486,51.552842
Meester Van Meelstraat,17,,,4838BN,Breda,Breda,Noord-Brabant,VBO,4.735169,51.552665
Meester Van Meelstraat,19,,,4838BN,Breda,Breda,Noord-Brabant,VBO,4.734902,51.552488
Meester Van Meelstraat,21,,,4838BN,Breda,Breda,Noord-Brabant,VBO,4.734499,51.552222
Pastoor Anssemsstraat,1,,,4838BP,Breda,Breda,Noord-Brabant,VBO,4.733382,51.553288
Pastoor Anssemsstraat,3,,,4838BP,Breda,Breda,Noord-Brabant,VBO,4.733488,51.553201
Pastoor Anssemsstraat,5,,,4838BP,Breda,Breda,Noord-Brabant,VBO,4.733597,51.553132
Pastoor Anssemsstraat,7,,,4838BP,Breda,Breda,Noord-Brabant,VBO,4.733692,51.553016
Pastoor Anssemsstraat,9,,,4838BP,Breda,Breda,Noord-Brabant,VBO,4.733817,51.552915
Pastoor Anssemsstraat,11,,,4838BP,Breda,Breda,Noord-Brabant,VBO,4.733948,51.552807
Pastoor Anssemsstraat,13,,,4838BP,Breda,Breda,Noord-Brabant,VBO,4.734130,51.552692
Pastoor Anssemsstraat,15,,,4838BP,Breda,Breda,Noord-Brabant,VBO,4.734283,51.552584
Baanakker,1,,,4838BR,Breda,Breda,Noord-Brabant,VBO,4.730368,51.551704
Baanakker,2,,,4838BR,Breda,Breda,Noord-Brabant,VBO,4.730686,51.551703
Baanakker,3,,,4838BR,Breda,Breda,Noord-Brabant,VBO,4.730900,51.551625
Baanakker,4,,,4838BR,Breda,Breda,Noord-Brabant,VBO,4.730949,51.551384
Baanakker,5,,,4838BR,Breda,Breda,Noord-Brabant,VBO,4.730661,51.551252
Baanakker,6,,,4838BR,Breda,Breda,Noord-Brabant,VBO,4.730381,51.551289
Baanakker,7,,,4838BR,Breda,Breda,Noord-Brabant,VBO,4.730172,51.551408
Elzenburgstraat,15,A,,4838EA,Breda,Breda,Noord-Brabant,VBO,4.738334,51.558868
Elzenburgstraat,15,,,4838EA,Breda,Breda,Noord-Brabant,VBO,4.738787,51.558694
Elzenburgstraat,26,,,4838EA,Breda,Breda,Noord-Brabant,VBO,4.739069,51.557868
Rijsbergseweg,241,,,4838EC,Breda,Breda,Noord-Brabant,VBO,4.734793,51.558214
Rijsbergseweg,259,,,4838EC,Breda,Breda,Noord-Brabant,VBO,4.734404,51.557763
Rijsbergseweg,261,,,4838EC,Breda,Breda,Noord-Brabant,VBO,4.734216,51.557640
Rijsbergseweg,265,,,4838EC,Breda,Breda,Noord-Brabant,VBO,4.733825,51.557402
Rijsbergseweg,267,,,4838EC,Breda,Breda,Noord-Brabant,VBO,4.733931,51.557145
Rijsbergseweg,273,,,4838EC,Breda,Breda,Noord-Brabant,VBO,4.733769,51.556661
Rijsbergseweg,283,,,4838EC,Breda,Breda,Noord-Brabant,VBO,4.735102,51.554435
Rijsbergseweg,287,,,4838EC,Breda,Breda,Noord-Brabant,VBO,4.734136,51.555937
Rijsbergseweg,289,,,4838ED,Breda,Breda,Noord-Brabant,VBO,4.734054,51.555902
Rijsbergseweg,291,,,4838ED,Breda,Breda,Noord-Brabant,VBO,4.733987,51.555873
Rijsbergseweg,347,,,4838ED,Breda,Breda,Noord-Brabant,VBO,4.731125,51.553990
Rijsbergseweg,369,,,4838ED,Breda,Breda,Noord-Brabant,VBO,4.730459,51.553097
Rijsbergseweg,437,,,4838ED,Breda,Breda,Noord-Brabant,VBO,4.728199,51.550177
Rijsbergseweg,439,,,4838ED,Breda,Breda,Noord-Brabant,VBO,4.727840,51.550175
Rijsbergseweg,495,,,4838ED,Breda,Breda,Noord-Brabant,VBO,4.725909,51.547818
Rijsbergseweg,531,,,4838ED,Breda,Breda,Noord-Brabant,VBO,4.723354,51.544127
Rijsbergseweg,535,,,4838ED,Breda,Breda,Noord-Brabant,VBO,4.722777,51.543909
Rijsbergseweg,537,,,4838ED,Breda,Breda,Noord-Brabant,VBO,4.723194,51.543633
Rijsbergseweg,539,,,4838ED,Breda,Breda,Noord-Brabant,VBO,4.723646,51.543310
Rijsbergseweg,545,,,4838ED,Breda,Breda,Noord-Brabant,VBO,4.721106,51.540999
Rijsbergseweg,258,,,4838EE,Breda,Breda,Noord-Brabant,VBO,4.734251,51.558790
Rijsbergseweg,276,,,4838EE,Breda,Breda,Noord-Brabant,VBO,4.733641,51.558057
Rijsbergseweg,278,,,4838EG,Breda,Breda,Noord-Brabant,VBO,4.733612,51.558021
Rijsbergseweg,286,,,4838EG,Breda,Breda,Noord-Brabant,VBO,4.733277,51.557770
Rijsbergseweg,288,,,4838EG,Breda,Breda,Noord-Brabant,VBO,4.733093,51.557572
Rijsbergseweg,300,,,4838EG,Breda,Breda,Noord-Brabant,VBO,4.732736,51.556980
Rijsbergseweg,304,,,4838EG,Breda,Breda,Noord-Brabant,VBO,4.731947,51.556614
Rijsbergseweg,334,,,4838EG,Breda,Breda,Noord-Brabant,VBO,4.731578,51.555499
Rijsbergseweg,336,,,4838EG,Breda,Breda,Noord-Brabant,VBO,4.731545,51.555459
Rijsbergseweg,348,,,4838EG,Breda,Breda,Noord-Brabant,VBO,4.731178,51.555186
Rijsbergseweg,354,,,4838EG,Breda,Breda,Noord-Brabant,VBO,4.730717,51.554837
Rijsbergseweg,356,,,4838EG,Breda,Breda,Noord-Brabant,VBO,4.730600,51.554749
Rijsbergseweg,360,,,4838EG,Breda,Breda,Noord-Brabant,VBO,4.730247,51.554549
Rijsbergseweg,390,,,4838EG,Breda,Breda,Noord-Brabant,VBO,4.729782,51.554143
Rijsbergseweg,400,,,4838EG,Breda,Breda,Noord-Brabant,VBO,4.729786,51.553272
Rijsbergseweg,444,,,4838EG,Breda,Breda,Noord-Brabant,VBO,4.728337,51.551478
Rijsbergseweg,446,,,4838EG,Breda,Breda,Noord-Brabant,VBO,4.728306,51.551440
Rijsbergseweg,466,,,4838EG,Breda,Breda,Noord-Brabant,VBO,4.727641,51.551139
Rijsbergseweg,468,,,4838EG,Breda,Breda,Noord-Brabant,VBO,4.727591,51.550564
Rijsbergseweg,470,,,4838EG,Breda,Breda,Noord-Brabant,VBO,4.727536,51.550494
Rijsbergseweg,472,,,4838EG,Breda,Breda,Noord-Brabant,VBO,4.726575,51.550006
Rijsbergseweg,534,,,4838EG,Breda,Breda,Noord-Brabant,VBO,4.725660,51.548256
Rijsbergseweg,536,,,4838EG,Breda,Breda,Noord-Brabant,VBO,4.725519,51.548129
Rijsbergseweg,590,,,4838EG,Breda,Breda,Noord-Brabant,VBO,4.720031,51.542743
Rijsbergseweg,600,,,4838EG,Breda,Breda,Noord-Brabant,VBO,4.719732,51.541763
Sintelweg,5,,,4838EJ,Breda,Breda,Noord-Brabant,VBO,4.720549,51.543485
Sintelweg,6,,,4838EJ,Breda,Breda,Noord-Brabant,VBO,4.719680,51.543701
Sintelweg,14,,,4838EJ,Breda,Breda,Noord-Brabant,VBO,4.718236,51.543551
Sintelweg,28,,,4838EJ,Breda,Breda,Noord-Brabant,VBO,4.716422,51.543718
Sintelweg,34,,,4838EJ,Breda,Breda,Noord-Brabant,VBO,4.714425,51.544661
Sintelweg,40,,,4838EJ,Breda,Breda,Noord-Brabant,VBO,4.714322,51.545069
Sintelweg,44,,,4838EJ,Breda,Breda,Noord-Brabant,VBO,4.713797,51.545515
Sintelweg,54,,,4838EJ,Breda,Breda,Noord-Brabant,VBO,4.712719,51.545539
Sintelweg,56,,,4838EJ,Breda,Breda,Noord-Brabant,VBO,4.712402,51.545566
Mastdreef,3,,I,4838EK,Breda,Breda,Noord-Brabant,VBO,4.721899,51.544415
Mastdreef,3,,,4838EK,Breda,Breda,Noord-Brabant,VBO,4.722001,51.544462
Mastdreef,9,,,4838EK,Breda,Breda,Noord-Brabant,VBO,4.722614,51.546407
Mastdreef,11,,,4838EK,Breda,Breda,Noord-Brabant,VBO,4.722635,51.546472
Mastdreef,17,,,4838EK,Breda,Breda,Noord-Brabant,VBO,4.721067,51.547080
Mastdreef,19,A,,4838EK,Breda,Breda,Noord-Brabant,VBO,4.719359,51.546004
Mastdreef,19,,,4838EK,Breda,Breda,Noord-Brabant,VBO,4.718280,51.545411
Mastdreef,21,,,4838EK,Breda,Breda,Noord-Brabant,VBO,4.720084,51.546845
Mastdreef,25,A,,4838EK,Breda,Breda,Noord-Brabant,VBO,4.721874,51.547804
Mastdreef,25,,,4838EK,Breda,Breda,Noord-Brabant,VBO,4.721956,51.547841
Mastdreef,27,,,4838EK,Breda,Breda,Noord-Brabant,VBO,4.719662,51.549190
Mastdreef,29,,,4838EK,Breda,Breda,Noord-Brabant,VBO,4.722533,51.548640
Mastdreef,31,,,4838EK,Breda,Breda,Noord-Brabant,VBO,4.722463,51.548686
Mastdreef,51,,,4838EK,Breda,Breda,Noord-Brabant,VBO,4.720682,51.552797
Mastdreef,53,,,4838EK,Breda,Breda,Noord-Brabant,VBO,4.721534,51.552825
Mastdreef,55,,,4838EK,Breda,Breda,Noord-Brabant,VBO,4.722046,51.553419
Mastdreef,67,,,4838EK,Breda,Breda,Noord-Brabant,VBO,4.721561,51.553764
Mastdreef,20,,I,4838EL,Breda,Breda,Noord-Brabant,VBO,4.722677,51.548099
Mastdreef,20,,,4838EL,Breda,Breda,Noord-Brabant,VBO,4.722631,51.548018
Mastdreef,30,,,4838EL,Breda,Breda,Noord-Brabant,VBO,4.723673,51.550302
Mastdreef,32,,,4838EL,Breda,Breda,Noord-Brabant,VBO,4.723481,51.550392
Mastdreef,38,A,,4838EL,Breda,Breda,Noord-Brabant,VBO,4.722987,51.551415
Mastdreef,38,,,4838EL,Breda,Breda,Noord-Brabant,VBO,4.722949,51.551789
Mastdreef,60,,,4838EL,Breda,Breda,Noord-Brabant,VBO,4.722325,51.556236
Hilbergsedreef,2,,,4838EM,Breda,Breda,Noord-Brabant,VBO,4.729454,51.553523
Hilbergsedreef,3,,,4838EM,Breda,Breda,Noord-Brabant,VBO,4.728664,51.553201
Hilbergsedreef,4,,,4838EM,Breda,Breda,Noord-Brabant,VBO,4.729242,51.553511
Hilbergsedreef,7,,by,4838EM,Breda,Breda,Noord-Brabant,VBO,4.728020,51.553119
Hilbergsedreef,7,,,4838EM,Breda,Breda,Noord-Brabant,VBO,4.728020,51.553119
Hilbergsedreef,9,,,4838EM,Breda,Breda,Noord-Brabant,VBO,4.727331,51.552445
Hilbergsedreef,10,,,4838EM,Breda,Breda,Noord-Brabant,VBO,4.727561,51.553410
Hilbergsedreef,11,,,4838EM,Breda,Breda,Noord-Brabant,VBO,4.726567,51.552488
Hilbergsedreef,13,A,,4838EM,Breda,Breda,Noord-Brabant,VBO,4.726384,51.551502
Hilbergsedreef,13,,,4838EM,Breda,Breda,Noord-Brabant,VBO,4.726409,51.551852
Hilbergsedreef,15,A,,4838EM,Breda,Breda,Noord-Brabant,VBO,4.726008,51.551186
Hilbergsedreef,15,,,4838EM,Breda,Breda,Noord-Brabant,VBO,4.726178,51.551251
Hilbergsedreef,16,,,4838EM,Breda,Breda,Noord-Brabant,VBO,4.725682,51.552937
Hilbergsedreef,21,A,,4838EM,Breda,Breda,Noord-Brabant,VBO,4.725587,51.550931
Hilbergsedreef,21,,,4838EM,Breda,Breda,Noord-Brabant,VBO,4.725586,51.550962
Hilbergsedreef,23,,,4838EM,Breda,Breda,Noord-Brabant,VBO,4.725583,51.551005
Hilbergsedreef,24,,,4838EM,Breda,Breda,Noord-Brabant,VBO,4.723791,51.553555
Hilbergsedreef,27,,,4838EM,Breda,Breda,Noord-Brabant,VBO,4.724104,51.551025
Hilbergsedreef,31,,,4838EM,Breda,Breda,Noord-Brabant,VBO,4.725797,51.551644
Hilbergsedreef,41,,,4838EM,Breda,Breda,Noord-Brabant,VBO,4.725158,51.552011
Raamschoorseweg,28,,,4838EN,Breda,Breda,Noord-Brabant,VBO,4.723894,51.558110
Raamschoorseweg,30,A,,4838EN,Breda,Breda,Noord-Brabant,VBO,4.723480,51.557811
Raamschoorseweg,30,,,4838EN,Breda,Breda,Noord-Brabant,VBO,4.723409,51.557752
Raamschoorseweg,31,,,4838EN,Breda,Breda,Noord-Brabant,VBO,4.724836,51.558015
Raamschoorseweg,35,,,4838EN,Breda,Breda,Noord-Brabant,VBO,4.725433,51.557105
Raamschoorseweg,41,,,4838EN,Breda,Breda,Noord-Brabant,VBO,4.720840,51.555604
Raamschoorseweg,43,,,4838EN,Breda,Breda,Noord-Brabant,VBO,4.720159,51.555398
Raamschoorseweg,58,,,4838EN,Breda,Breda,Noord-Brabant,VBO,4.716049,51.553426
Raamschoorseweg,61,,,4838EN,Breda,Breda,Noord-Brabant,VBO,4.715568,51.552551
Raamschoorseweg,63,,,4838EN,Breda,Breda,Noord-Brabant,VBO,4.715463,51.552510
Raamschoorseweg,64,,,4838EN,Breda,Breda,Noord-Brabant,VBO,4.714931,51.552605
Raamschoorseweg,67,,,4838EN,Breda,Breda,Noord-Brabant,VBO,4.712860,51.551079
Raamschoorseweg,75,,,4838EN,Breda,Breda,Noord-Brabant,VBO,4.711774,51.550626
Vaartwegje,5,,,4838EP,Breda,Breda,Noord-Brabant,VBO,4.715004,51.551321
Vaartwegje,6,,,4838EP,Breda,Breda,Noord-Brabant,VBO,4.713286,51.550625
Vaartwegje,12,,,4838EP,Breda,Breda,Noord-Brabant,VBO,4.714975,51.549202
Vaartwegje,46,,,4838EP,Breda,Breda,Noord-Brabant,VBO,4.715467,51.548149
Achterste Rithweg,28,,G01,4838ER,Breda,Breda,Noord-Brabant,VBO,4.715921,51.555541
Achterste Rithweg,28,,,4838ER,Breda,Breda,Noord-Brabant,VBO,4.715752,51.555462
Achterste Rithweg,30,A,,4838ER,Breda,Breda,Noord-Brabant,VBO,4.714989,51.555429
Achterste Rithweg,30,,,4838ER,Breda,Breda,Noord-Brabant,VBO,4.715362,51.555351
Achterste Rithweg,32,,,4838ER,Breda,Breda,Noord-Brabant,VBO,4.714978,51.555058
Achterste Rithweg,46,A,,4838ER,Breda,Breda,Noord-Brabant,VBO,4.713388,51.553927
Achterste Rithweg,46,,,4838ER,Breda,Breda,Noord-Brabant,VBO,4.713483,51.553984
Achterste Rithweg,56,,,4838ER,Breda,Breda,Noord-Brabant,VBO,4.713150,51.553223
Den Dogdreef,1,,,4838ES,Breda,Breda,Noord-Brabant,VBO,4.732421,51.559116
Den Dogdreef,3,,,4838ES,Breda,Breda,Noord-Brabant,VBO,4.731594,51.559858
Den Dogdreef,5,,,4838ES,Breda,Breda,Noord-Brabant,VBO,4.732431,51.559819
Den Dogdreef,7,,,4838ES,Breda,Breda,Noord-Brabant,VBO,4.733233,51.560098
Den Dogdreef,9,,,4838ES,Breda,Breda,Noord-Brabant,VBO,4.733057,51.560732
Den Dogdreef,11,,,4838ES,Breda,Breda,Noord-Brabant,VBO,4.732627,51.561153
Den Dogdreef,13,,,4838ES,Breda,Breda,Noord-Brabant,VBO,4.732106,51.561040
Liesboslaan,79,,,4838ET,Breda,Breda,Noord-Brabant,VBO,4.724950,51.577891
Liesboslaan,81,,,4838ET,Breda,Breda,Noord-Brabant,VBO,4.724854,51.577889
Liesboslaan,83,,,4838ET,Breda,Breda,Noord-Brabant,VBO,4.724673,51.577885
Liesboslaan,85,,,4838ET,Breda,Breda,Noord-Brabant,VBO,4.724578,51.577882
Liesboslaan,87,,,4838ET,Breda,Breda,Noord-Brabant,VBO,4.724277,51.577828
Liesboslaan,93,,,4838ET,Breda,Breda,Noord-Brabant,VBO,4.723971,51.577833
Liesboslaan,95,,,4838ET,Breda,Breda,Noord-Brabant,VBO,4.723481,51.577857
Liesboslaan,107,,,4838ET,Breda,Breda,Noord-Brabant,VBO,4.722867,51.577837
Liesboslaan,111,,,4838ET,Breda,Breda,Noord-Brabant,VBO,4.722139,51.577463
Liesboslaan,121,,,4838ET,Breda,Breda,Noord-Brabant,VBO,4.721120,51.577774
Liesboslaan,125,,,4838ET,Breda,Breda,Noord-Brabant,VBO,4.720527,51.577729
Liesboslaan,291,,,4838EV,Breda,Breda,Noord-Brabant,VBO,4.697322,51.573694
Liesboslaan,293,,,4838EV,Breda,Breda,Noord-Brabant,VBO,4.696763,51.573671
Liesboslaan,295,,,4838EV,Breda,Breda,Noord-Brabant,VBO,4.696292,51.573653
Liesboslaan,297,,,4838EV,Breda,Breda,Noord-Brabant,VBO,4.696026,51.573642
Liesboslaan,307,,,4838EV,Breda,Breda,Noord-Brabant,VBO,4.694142,51.573661
Liesboslaan,309,,,4838EV,Breda,Breda,Noord-Brabant,VBO,4.693873,51.573661
Liesboslaan,311,A,,4838EW,Breda,Breda,Noord-Brabant,VBO,4.692802,51.573428
Liesboslaan,311,B,,4838EW,Breda,Breda,Noord-Brabant,VBO,4.692680,51.573460
Liesboslaan,311,,,4838EW,Breda,Breda,Noord-Brabant,VBO,4.692801,51.573388
Liesboslaan,313,,,4838EW,Breda,Breda,Noord-Brabant,VBO,4.691872,51.573835
Liesboslaan,315,,A1,4838EW,Breda,Breda,Noord-Brabant,VBO,4.692359,51.573904
Liesboslaan,315,,A10,4838EW,Breda,Breda,Noord-Brabant,VBO,4.691757,51.573437
Liesboslaan,315,,A11,4838EW,Breda,Breda,Noord-Brabant,VBO,4.691738,51.573307
Liesboslaan,315,,A2,4838EW,Breda,Breda,Noord-Brabant,VBO,4.692476,51.573799
Liesboslaan,315,,A3,4838EW,Breda,Breda,Noord-Brabant,VBO,4.692469,51.573716
Liesboslaan,315,,A4,4838EW,Breda,Breda,Noord-Brabant,VBO,4.692457,51.573625
Liesboslaan,315,,A5,4838EW,Breda,Breda,Noord-Brabant,VBO,4.692448,51.573542
Liesboslaan,315,,A6,4838EW,Breda,Breda,Noord-Brabant,VBO,4.692436,51.573468
Liesboslaan,315,,A7,4838EW,Breda,Breda,Noord-Brabant,VBO,4.691784,51.573636
Liesboslaan,315,,A8,4838EW,Breda,Breda,Noord-Brabant,VBO,4.691777,51.573571
Liesboslaan,315,,A9,4838EW,Breda,Breda,Noord-Brabant,VBO,4.691767,51.573502
Liesboslaan,315,,B1,4838EW,Breda,Breda,Noord-Brabant,VBO,4.692054,51.573833
Liesboslaan,315,,B10,4838EW,Breda,Breda,Noord-Brabant,VBO,4.692405,51.573402
Liesboslaan,315,,B11,4838EW,Breda,Breda,Noord-Brabant,VBO,4.691819,51.573632
Liesboslaan,315,,B12,4838EW,Breda,Breda,Noord-Brabant,VBO,4.691799,51.573499
Liesboslaan,315,,B13,4838EW,Breda,Breda,Noord-Brabant,VBO,4.691779,51.573305
Liesboslaan,315,,B14,4838EW,Breda,Breda,Noord-Brabant,VBO,4.691782,51.573356
Liesboslaan,315,,B15,4838EW,Breda,Breda,Noord-Brabant,VBO,4.691796,51.573436
Liesboslaan,315,,B16,4838EW,Breda,Breda,Noord-Brabant,VBO,4.691818,51.573570
Liesboslaan,315,,B17,4838EW,Breda,Breda,Noord-Brabant,VBO,4.691824,51.573702
Liesboslaan,315,,B18,4838EW,Breda,Breda,Noord-Brabant,VBO,4.691573,51.573834
Liesboslaan,315,,B19,4838EW,Breda,Breda,Noord-Brabant,VBO,4.691614,51.573832
Liesboslaan,315,,B2,4838EW,Breda,Breda,Noord-Brabant,VBO,4.692097,51.573831
Liesboslaan,315,,B3,4838EW,Breda,Breda,Noord-Brabant,VBO,4.692145,51.573828
Liesboslaan,315,,B4,4838EW,Breda,Breda,Noord-Brabant,VBO,4.692355,51.573879
Liesboslaan,315,,B5,4838EW,Breda,Breda,Noord-Brabant,VBO,4.692442,51.573799
Liesboslaan,315,,B6,4838EW,Breda,Breda,Noord-Brabant,VBO,4.692439,51.573716
Liesboslaan,315,,B7,4838EW,Breda,Breda,Noord-Brabant,VBO,4.692429,51.573626
Liesboslaan,315,,B8,4838EW,Breda,Breda,Noord-Brabant,VBO,4.692418,51.573543
Liesboslaan,315,,B9,4838EW,Breda,Breda,Noord-Brabant,VBO,4.692410,51.573468
Liesboslaan,315,,C1,4838EW,Breda,Breda,Noord-Brabant,VBO,4.692048,51.573801
Liesboslaan,315,,C10,4838EW,Breda,Breda,Noord-Brabant,VBO,4.692386,51.573544
Liesboslaan,315,,C11,4838EW,Breda,Breda,Noord-Brabant,VBO,4.691858,51.573631
Liesboslaan,315,,C12,4838EW,Breda,Breda,Noord-Brabant,VBO,4.691840,51.573500
Liesboslaan,315,,C13,4838EW,Breda,Breda,Noord-Brabant,VBO,4.691825,51.573356
Liesboslaan,315,,C14,4838EW,Breda,Breda,Noord-Brabant,VBO,4.691817,51.573302
Liesboslaan,315,,C15,4838EW,Breda,Breda,Noord-Brabant,VBO,4.691833,51.573434
Liesboslaan,315,,C16,4838EW,Breda,Breda,Noord-Brabant,VBO,4.691854,51.573568
Liesboslaan,315,,C17,4838EW,Breda,Breda,Noord-Brabant,VBO,4.691865,51.573701
Liesboslaan,315,,C18,4838EW,Breda,Breda,Noord-Brabant,VBO,4.691569,51.573809
Liesboslaan,315,,C19,4838EW,Breda,Breda,Noord-Brabant,VBO,4.691608,51.573806
Liesboslaan,315,,C2,4838EW,Breda,Breda,Noord-Brabant,VBO,4.692094,51.573801
Liesboslaan,315,,C3,4838EW,Breda,Breda,Noord-Brabant,VBO,4.692143,51.573797
Liesboslaan,315,,C4,4838EW,Breda,Breda,Noord-Brabant,VBO,4.692351,51.573856
Liesboslaan,315,,C5,4838EW,Breda,Breda,Noord-Brabant,VBO,4.692405,51.573802
Liesboslaan,315,,C6,4838EW,Breda,Breda,Noord-Brabant,VBO,4.692402,51.573716
Liesboslaan,315,,C7,4838EW,Breda,Breda,Noord-Brabant,VBO,4.692395,51.573629
Liesboslaan,315,,C8,4838EW,Breda,Breda,Noord-Brabant,VBO,4.692373,51.573402
Liesboslaan,315,,C9,4838EW,Breda,Breda,Noord-Brabant,VBO,4.692374,51.573469
Liesboslaan,315,,D1,4838EW,Breda,Breda,Noord-Brabant,VBO,4.692371,51.573801
Liesboslaan,315,,D10,4838EW,Breda,Breda,Noord-Brabant,VBO,4.691879,51.573498
Liesboslaan,315,,D11,4838EW,Breda,Breda,Noord-Brabant,VBO,4.691862,51.573355
Liesboslaan,315,,D12,4838EW,Breda,Breda,Noord-Brabant,VBO,4.691854,51.573303
Liesboslaan,315,,D2,4838EW,Breda,Breda,Noord-Brabant,VBO,4.692364,51.573716
Liesboslaan,315,,D3,4838EW,Breda,Breda,Noord-Brabant,VBO,4.692351,51.573544
Liesboslaan,315,,D4,4838EW,Breda,Breda,Noord-Brabant,VBO,4.692338,51.573403
Liesboslaan,315,,D5,4838EW,Breda,Breda,Noord-Brabant,VBO,4.692190,51.573770
Liesboslaan,315,,D6,4838EW,Breda,Breda,Noord-Brabant,VBO,4.691998,51.573778
Liesboslaan,315,,D7,4838EW,Breda,Breda,Noord-Brabant,VBO,4.691898,51.573630
Liesboslaan,315,,D8,4838EW,Breda,Breda,Noord-Brabant,VBO,4.691565,51.573782
Liesboslaan,315,,D9,4838EW,Breda,Breda,Noord-Brabant,VBO,4.691606,51.573781
Liesboslaan,315,,,4838EW,Breda,Breda,Noord-Brabant,VBO,4.691824,51.573836
Liesboslaan,315,,,4838EW,Breda,Breda,Noord-Brabant,VBO,4.691848,51.573837
Rithsestraat,155,,,4838GA,Breda,Breda,Noord-Brabant,VBO,4.723617,51.560773
Rithsestraat,177,,,4838GA,Breda,Breda,Noord-Brabant,VBO,4.720407,51.559326
Rithsestraat,187,,,4838GA,Breda,Breda,Noord-Brabant,VBO,4.719430,51.558419
Rithsestraat,215,,,4838GA,Breda,Breda,Noord-Brabant,VBO,4.725759,51.564058
Rithsestraat,219,,,4838GA,Breda,Breda,Noord-Brabant,VBO,4.714130,51.556664
Rithsestraat,223,,,4838GB,Breda,Breda,Noord-Brabant,VBO,4.714159,51.556176
Rithsestraat,239,,,4838GB,Breda,Breda,Noord-Brabant,VBO,4.711992,51.556759
Rithsestraat,249,,,4838GB,Breda,Breda,Noord-Brabant,VBO,4.708967,51.556556
Rithsestraat,279,,,4838GB,Breda,Breda,Noord-Brabant,VBO,4.707378,51.559178
Rithsestraat,281,,,4838GB,Breda,Breda,Noord-Brabant,VBO,4.706804,51.559802
Rithsestraat,285,,,4838GB,Breda,Breda,Noord-Brabant,VBO,4.705562,51.560621
Rithsestraat,303,,,4838GB,Breda,Breda,Noord-Brabant,VBO,4.703755,51.561732
Rithsestraat,305,,,4838GB,Breda,Breda,Noord-Brabant,VBO,4.703164,51.562056
Rithsestraat,110,,,4838GC,Breda,Breda,Noord-Brabant,VBO,4.726052,51.567725
Rithsestraat,118,,,4838GC,Breda,Breda,Noord-Brabant,VBO,4.728311,51.566613
Rithsestraat,122,A,,4838GC,Breda,Breda,Noord-Brabant,VBO,4.728039,51.565928
Rithsestraat,122,,,4838GC,Breda,Breda,Noord-Brabant,VBO,4.728125,51.566101
Rithsestraat,128,,,4838GC,Breda,Breda,Noord-Brabant,VBO,4.726179,51.566535
Rithsestraat,140,,,4838GC,Breda,Breda,Noord-Brabant,VBO,4.726037,51.564909
Rithsestraat,146,,,4838GC,Breda,Breda,Noord-Brabant,VBO,4.722277,51.565820
Rithsestraat,148,,,4838GD,Breda,Breda,Noord-Brabant,VBO,4.724595,51.564004
Rithsestraat,152,,,4838GD,Breda,Breda,Noord-Brabant,VBO,4.723665,51.563640
Rithsestraat,170,,,4838GD,Breda,Breda,Noord-Brabant,VBO,4.722356,51.561456
Rithsestraat,172,,,4838GD,Breda,Breda,Noord-Brabant,VBO,4.722197,51.561347
Rithsestraat,174,,,4838GD,Breda,Breda,Noord-Brabant,VBO,4.721926,51.561046
Rithsestraat,190,,,4838GD,Breda,Breda,Noord-Brabant,VBO,4.720354,51.559831
Rithsestraat,192,,,4838GD,Breda,Breda,Noord-Brabant,VBO,4.719186,51.558891
Rithsestraat,208,,,4838GD,Breda,Breda,Noord-Brabant,VBO,4.718339,51.558444
Rithsestraat,220,,,4838GD,Breda,Breda,Noord-Brabant,VBO,4.715956,51.558059
Rithsestraat,228,,,4838GD,Breda,Breda,Noord-Brabant,VBO,4.712579,51.557738
Rithsestraat,230,,,4838GD,Breda,Breda,Noord-Brabant,VBO,4.711763,51.557638
Rithsestraat,304,,,4838GD,Breda,Breda,Noord-Brabant,VBO,4.704163,51.562097
Rithsestraat,306,,,4838GD,Breda,Breda,Noord-Brabant,VBO,4.704331,51.562174
Rithsestraat,310,,,4838GD,Breda,Breda,Noord-Brabant,VBO,4.703709,51.562522
Rithsestraat,312,,,4838GD,Breda,Breda,Noord-Brabant,VBO,4.704017,51.562633
Rithsestraat,314,,,4838GD,Breda,Breda,Noord-Brabant,VBO,4.703997,51.562672
Rithsestraat,324,,,4838GD,Breda,Breda,Noord-Brabant,VBO,4.702538,51.563492
Buurtschap Vuchtschoot,1,,,4838GE,Breda,Breda,Noord-Brabant,VBO,4.708512,51.553355
Buurtschap Vuchtschoot,2,,,4838GE,Breda,Breda,Noord-Brabant,VBO,4.707905,51.554126
Buurtschap Vuchtschoot,3,,,4838GE,Breda,Breda,Noord-Brabant,VBO,4.709316,51.554891
Buurtschap Vuchtschoot,4,,,4838GE,Breda,Breda,Noord-Brabant,VBO,4.709968,51.555566
Buurtschap Vuchtschoot,5,,,4838GE,Breda,Breda,Noord-Brabant,VBO,4.710496,51.555441
Buurtschap Vuchtschoot,6,,,4838GE,Breda,Breda,Noord-Brabant,VBO,4.711436,51.554956
Buurtschap Vuchtschoot,7,,,4838GE,Breda,Breda,Noord-Brabant,VBO,4.711690,51.553496
Buurtschap Vuchtschoot,8,,,4838GE,Breda,Breda,Noord-Brabant,VBO,4.711660,51.553012
Buurtschap Vuchtschoot,9,,,4838GE,Breda,Breda,Noord-Brabant,VBO,4.710705,51.553179
Buurtschap Vuchtschoot,10,,,4838GE,Breda,Breda,Noord-Brabant,VBO,4.710808,51.553394
Buurtschap Vuchtschoot,901,,,4838GE,Breda,Breda,Noord-Brabant,VBO,4.712159,51.555628
Hazardweg,24,,,4838GH,Breda,Breda,Noord-Brabant,VBO,4.713570,51.567308
Vuchtschootseweg,9,,,4838GJ,Breda,Breda,Noord-Brabant,VBO,4.712632,51.564644
Vuchtschootseweg,20,,,4838GJ,Breda,Breda,Noord-Brabant,VBO,4.708164,51.561356
Vuchtschootseweg,23,,by,4838GJ,Breda,Breda,Noord-Brabant,VBO,4.706676,51.560276
Vuchtschootseweg,23,,,4838GJ,Breda,Breda,Noord-Brabant,VBO,4.706676,51.560276
Vuchtschootseweg,30,,,4838GJ,Breda,Breda,Noord-Brabant,VBO,4.705009,51.559730
Vuchtschootseweg,39,,,4838GJ,Breda,Breda,Noord-Brabant,VBO,4.703135,51.556427
Vuchtschootseweg,41,,,4838GJ,Breda,Breda,Noord-Brabant,VBO,4.703777,51.556104
Vuchtschootseweg,43,,B1,4838GJ,Breda,Breda,Noord-Brabant,VBO,4.703805,51.555871
Vuchtschootseweg,43,,B2,4838GJ,Breda,Breda,Noord-Brabant,VBO,4.703760,51.555830
Vuchtschootseweg,45,,A1,4838GJ,Breda,Breda,Noord-Brabant,VBO,4.704319,51.555786
Vuchtschootseweg,45,,A2,4838GJ,Breda,Breda,Noord-Brabant,VBO,4.704349,51.555849
Vuchtschootseweg,45,,A3,4838GJ,Breda,Breda,Noord-Brabant,VBO,4.704395,51.555830
Vuchtschootseweg,45,,A4,4838GJ,Breda,Breda,Noord-Brabant,VBO,4.704444,51.555810
Vuchtschootseweg,45,,B1,4838GJ,Breda,Breda,Noord-Brabant,VBO,4.704365,51.555864
Vuchtschootseweg,45,,B2,4838GJ,Breda,Breda,Noord-Brabant,VBO,4.704409,51.555847
Vuchtschootseweg,45,,B3,4838GJ,Breda,Breda,Noord-Brabant,VBO,4.704458,51.555825
Vuchtschootseweg,47,,A1,4838GJ,Breda,Breda,Noord-Brabant,VBO,4.704567,51.555601
Vuchtschootseweg,47,,A2,4838GJ,Breda,Breda,Noord-Brabant,VBO,4.704492,51.555527
Vuchtschootseweg,47,,A3,4838GJ,Breda,Breda,Noord-Brabant,VBO,4.704421,51.555447
Vuchtschootseweg,49,,A1,4838GJ,Breda,Breda,Noord-Brabant,VBO,4.704154,51.555289
Vuchtschootseweg,49,,A2,4838GJ,Breda,Breda,Noord-Brabant,VBO,4.704384,51.555288
Vuchtschootseweg,49,,A3,4838GJ,Breda,Breda,Noord-Brabant,VBO,4.704321,51.555219
Vuchtschootseweg,49,,A4,4838GJ,Breda,Breda,Noord-Brabant,VBO,4.704234,51.555254
Vuchtschootseweg,49,,A5,4838GJ,Breda,Breda,Noord-Brabant,VBO,4.704301,51.555318
Vuchtschootseweg,49,,B1,4838GJ,Breda,Breda,Noord-Brabant,VBO,4.704403,51.555307
Vuchtschootseweg,49,,B2,4838GJ,Breda,Breda,Noord-Brabant,VBO,4.704349,51.555243
Vuchtschootseweg,49,,B3,4838GJ,Breda,Breda,Noord-Brabant,VBO,4.704261,51.555280
Vuchtschootseweg,49,,B4,4838GJ,Breda,Breda,Noord-Brabant,VBO,4.704318,51.555339
Vuchtschootseweg,51,,A1,4838GJ,Breda,Breda,Noord-Brabant,VBO,4.704039,51.555502
Vuchtschootseweg,51,,A2,4838GJ,Breda,Breda,Noord-Brabant,VBO,4.704081,51.555433
Vuchtschootseweg,51,,A3,4838GJ,Breda,Breda,Noord-Brabant,VBO,4.704034,51.555448
Vuchtschootseweg,51,,A4,4838GJ,Breda,Breda,Noord-Brabant,VBO,4.703978,51.555465
Vuchtschootseweg,51,,A5,4838GJ,Breda,Breda,Noord-Brabant,VBO,4.703893,51.555498
Vuchtschootseweg,51,,B1,4838GJ,Breda,Breda,Noord-Brabant,VBO,4.704069,51.555420
Vuchtschootseweg,51,,B2,4838GJ,Breda,Breda,Noord-Brabant,VBO,4.704021,51.555435
Vuchtschootseweg,51,,B3,4838GJ,Breda,Breda,Noord-Brabant,VBO,4.703968,51.555455
Vuchtschootseweg,51,,B4,4838GJ,Breda,Breda,Noord-Brabant,VBO,4.703881,51.555487
Vuchtschootseweg,61,,,4838GJ,Breda,Breda,Noord-Brabant,VBO,4.699693,51.548848
Vuchtschootseweg,83,,,4838GJ,Breda,Breda,Noord-Brabant,VBO,4.695167,51.545453
Bouwluststraatje,1,,,4838GK,Breda,Breda,Noord-Brabant,VBO,4.701995,51.557102
Bouwluststraatje,15,,,4838GK,Breda,Breda,Noord-Brabant,VBO,4.698447,51.557780
Bouwluststraatje,25,,,4838GK,Breda,Breda,Noord-Brabant,VBO,4.696448,51.559008
Moerdijkse Postbaan,15,,,4838GL,Breda,Breda,Noord-Brabant,VBO,4.692262,51.571719
Moerdijkse Postbaan,17,,,4838GL,Breda,Breda,Noord-Brabant,VBO,4.692277,51.571662
Moerdijkse Postbaan,19,,,4838GL,Breda,Breda,Noord-Brabant,VBO,4.692329,51.571522
Moerdijkse Postbaan,23,,,4838GL,Breda,Breda,Noord-Brabant,VBO,4.692383,51.571329
Moerdijkse Postbaan,25,,,4838GL,Breda,Breda,Noord-Brabant,VBO,4.692401,51.571266
Moerdijkse Postbaan,27,,,4838GL,Breda,Breda,Noord-Brabant,VBO,4.692432,51.571154
Moerdijkse Postbaan,29,,,4838GL,Breda,Breda,Noord-Brabant,VBO,4.692445,51.571108
Moerdijkse Postbaan,31,,,4838GL,Breda,Breda,Noord-Brabant,VBO,4.692471,51.571014
Moerdijkse Postbaan,33,,,4838GL,Breda,Breda,Noord-Brabant,VBO,4.692494,51.570931
Moerdijkse Postbaan,37,,,4838GL,Breda,Breda,Noord-Brabant,VBO,4.692678,51.570700
Moerdijkse Postbaan,41,,,4838GL,Breda,Breda,Noord-Brabant,VBO,4.693019,51.570447
Moerdijkse Postbaan,43,,,4838GL,Breda,Breda,Noord-Brabant,VBO,4.692683,51.570290
Moerdijkse Postbaan,49,,,4838GL,Breda,Breda,Noord-Brabant,VBO,4.694274,51.568134
Moerdijkse Postbaan,85,,,4838GL,Breda,Breda,Noord-Brabant,VBO,4.693620,51.564426
Moerdijkse Postbaan,95,,,4838GL,Breda,Breda,Noord-Brabant,VBO,4.693713,51.562104
Moerdijkse Postbaan,109,,,4838GL,Breda,Breda,Noord-Brabant,VBO,4.694989,51.554850
Moerdijkse Postbaan,111,,,4838GL,Breda,Breda,Noord-Brabant,VBO,4.694757,51.554462
Sprundelsebaan,35,,,4838GM,Breda,Breda,Noord-Brabant,VBO,4.725672,51.572676
Sprundelsebaan,47,,,4838GM,Breda,Breda,Noord-Brabant,VBO,4.725315,51.575915
Sprundelsebaan,49,,,4838GM,Breda,Breda,Noord-Brabant,VBO,4.725266,51.575400
Sprundelsebaan,61,,,4838GM,Breda,Breda,Noord-Brabant,VBO,4.724477,51.575750
Sprundelsebaan,75,,,4838GM,Breda,Breda,Noord-Brabant,VBO,4.721903,51.572205
Sprundelsebaan,87,,,4838GM,Breda,Breda,Noord-Brabant,VBO,4.717715,51.573784
Sprundelsebaan,89,,,4838GM,Breda,Breda,Noord-Brabant,VBO,4.717320,51.573749
Sprundelsebaan,91,,,4838GM,Breda,Breda,Noord-Brabant,VBO,4.717054,51.573656
Sprundelsebaan,95,,,4838GM,Breda,Breda,Noord-Brabant,VBO,4.716510,51.573496
Sprundelsebaan,101,,,4838GM,Breda,Breda,Noord-Brabant,VBO,4.713536,51.572262
Sprundelsebaan,103,,,4838GM,Breda,Breda,Noord-Brabant,VBO,4.712811,51.571926
Sprundelsebaan,109,A,,4838GM,Breda,Breda,Noord-Brabant,VBO,4.712004,51.571370
Sprundelsebaan,109,,,4838GM,Breda,Breda,Noord-Brabant,VBO,4.712022,51.571387
Sprundelsebaan,111,,,4838GM,Breda,Breda,Noord-Brabant,VBO,4.711931,51.571253
Sprundelsebaan,113,,,4838GM,Breda,Breda,Noord-Brabant,VBO,4.711929,51.570620
Sprundelsebaan,115,,,4838GN,Breda,Breda,Noord-Brabant,VBO,4.711926,51.570559
Sprundelsebaan,119,,,4838GN,Breda,Breda,Noord-Brabant,VBO,4.711790,51.569614
Sprundelsebaan,123,,,4838GN,Breda,Breda,Noord-Brabant,VBO,4.710998,51.569051
Sprundelsebaan,125,,,4838GN,Breda,Breda,Noord-Brabant,VBO,4.710167,51.568630
Sprundelsebaan,137,,,4838GN,Breda,Breda,Noord-Brabant,VBO,4.707126,51.566889
Sprundelsebaan,141,,,4838GN,Breda,Breda,Noord-Brabant,VBO,4.706713,51.566502
Sprundelsebaan,145,A,,4838GN,Breda,Breda,Noord-Brabant,VBO,4.705503,51.566024
Sprundelsebaan,145,,,4838GN,Breda,Breda,Noord-Brabant,VBO,4.706177,51.566277
Sprundelsebaan,147,,,4838GN,Breda,Breda,Noord-Brabant,VBO,4.705387,51.565969
Sprundelsebaan,149,,,4838GN,Breda,Breda,Noord-Brabant,VBO,4.705036,51.565803
Sprundelsebaan,161,,,4838GN,Breda,Breda,Noord-Brabant,VBO,4.700103,51.564245
Sprundelsebaan,165,,,4838GN,Breda,Breda,Noord-Brabant,VBO,4.699349,51.564181
Sprundelsebaan,167,,,4838GN,Breda,Breda,Noord-Brabant,VBO,4.697831,51.564041
Sprundelsebaan,177,,,4838GN,Breda,Breda,Noord-Brabant,VBO,4.695841,51.563472
Sprundelsebaan,181,,,4838GN,Breda,Breda,Noord-Brabant,VBO,4.694280,51.563174
Sprundelsebaan,183,A,,4838GN,Breda,Breda,Noord-Brabant,VBO,4.693809,51.563147
Sprundelsebaan,183,,,4838GN,Breda,Breda,Noord-Brabant,VBO,4.693495,51.563037
Sprundelsebaan,50,,,4838GP,Breda,Breda,Noord-Brabant,VBO,4.724364,51.576603
Sprundelsebaan,56,,,4838GP,Breda,Breda,Noord-Brabant,VBO,4.723694,51.576274
Sprundelsebaan,60,,,4838GP,Breda,Breda,Noord-Brabant,VBO,4.723188,51.575894
Sprundelsebaan,90,,,4838GP,Breda,Breda,Noord-Brabant,VBO,4.715097,51.573538
Sprundelsebaan,94,,,4838GP,Breda,Breda,Noord-Brabant,VBO,4.713584,51.572716
Sprundelsebaan,98,,,4838GP,Breda,Breda,Noord-Brabant,VBO,4.711635,51.571693
Sprundelsebaan,100,,,4838GP,Breda,Breda,Noord-Brabant,VBO,4.711449,51.570778
Sprundelsebaan,110,,,4838GP,Breda,Breda,Noord-Brabant,VBO,4.710137,51.569809
Sprundelsebaan,114,A,,4838GP,Breda,Breda,Noord-Brabant,VBO,4.707845,51.568284
Sprundelsebaan,114,,,4838GP,Breda,Breda,Noord-Brabant,VBO,4.708109,51.568155
Sprundelsebaan,124,,,4838GP,Breda,Breda,Noord-Brabant,VBO,4.705597,51.566326
Sprundelsebaan,126,,,4838GP,Breda,Breda,Noord-Brabant,VBO,4.704964,51.567050
Sprundelsebaan,130,,,4838GP,Breda,Breda,Noord-Brabant,VBO,4.703747,51.566053
Sprundelsebaan,140,,,4838GP,Breda,Breda,Noord-Brabant,VBO,4.701318,51.564769
Sprundelsebaan,174,,,4838GP,Breda,Breda,Noord-Brabant,VBO,4.696334,51.563993
Sprundelsebaan,176,,,4838GP,Breda,Breda,Noord-Brabant,VBO,4.694221,51.563687
Zoudtlandseweg,9,,,4838GR,Breda,Breda,Noord-Brabant,VBO,4.716326,51.575338
Zoudtlandseweg,11,,,4838GR,Breda,Breda,Noord-Brabant,VBO,4.717040,51.575703
Zoudtlandseweg,20,,,4838GR,Breda,Breda,Noord-Brabant,VBO,4.713407,51.575804
Zoudtlandseweg,60,,,4838GR,Breda,Breda,Noord-Brabant,VBO,4.703823,51.573795
Zoudtlandseweg,66,,,4838GR,Breda,Breda,Noord-Brabant,VBO,4.703380,51.573618
Liesstraat,1,,,4838GS,Breda,Breda,Noord-Brabant,VBO,4.698168,51.573708
Liesstraat,15,,,4838GS,Breda,Breda,Noord-Brabant,VBO,4.699129,51.572887
Liesstraat,41,,,4838GS,Breda,Breda,Noord-Brabant,VBO,4.701365,51.572599
Liesstraat,61,,,4838GS,Breda,Breda,Noord-Brabant,VBO,4.703875,51.573091
Liesstraat,85,,,4838GS,Breda,Breda,Noord-Brabant,VBO,4.706308,51.572785
Liesstraat,87,,,4838GS,Breda,Breda,Noord-Brabant,VBO,4.707106,51.572352
Liesstraat,97,,,4838GS,Breda,Breda,Noord-Brabant,VBO,4.709172,51.571496
Liesstraat,109,,,4838GS,Breda,Breda,Noord-Brabant,VBO,4.710799,51.571648
Liesstraat,2,,,4838GT,Breda,Breda,Noord-Brabant,VBO,4.697683,51.573658
Liesstraat,4,,,4838GT,Breda,Breda,Noord-Brabant,VBO,4.698009,51.573326
Liesstraat,6,,,4838GT,Breda,Breda,Noord-Brabant,VBO,4.698278,51.573055
Liesstraat,10,,,4838GT,Breda,Breda,Noord-Brabant,VBO,4.698699,51.572710
Liesstraat,14,,,4838GT,Breda,Breda,Noord-Brabant,VBO,4.699029,51.572545
Liesstraat,16,,,4838GT,Breda,Breda,Noord-Brabant,VBO,4.699213,51.572470
Liesstraat,18,,,4838GT,Breda,Breda,Noord-Brabant,VBO,4.699478,51.572380
Liesstraat,20,,,4838GT,Breda,Breda,Noord-Brabant,VBO,4.699637,51.572311
Liesstraat,22,,,4838GT,Breda,Breda,Noord-Brabant,VBO,4.699712,51.572279
Liesstraat,24,,,4838GT,Breda,Breda,Noord-Brabant,VBO,4.698597,51.571710
Liesstraat,32,,,4838GT,Breda,Breda,Noord-Brabant,VBO,4.700570,51.572095
Liesstraat,34,,,4838GT,Breda,Breda,Noord-Brabant,VBO,4.701234,51.572274
Liesstraat,36,,,4838GT,Breda,Breda,Noord-Brabant,VBO,4.702165,51.572263
Liesstraat,54,,,4838GT,Breda,Breda,Noord-Brabant,VBO,4.703629,51.571055
Liesstraat,64,,,4838GT,Breda,Breda,Noord-Brabant,VBO,4.704869,51.572885
Liesstraat,76,,,4838GT,Breda,Breda,Noord-Brabant,VBO,4.706057,51.572251
Liesstraat,82,,I,4838GT,Breda,Breda,Noord-Brabant,VBO,4.708749,51.571202
Liesstraat,82,,,4838GT,Breda,Breda,Noord-Brabant,VBO,4.708389,51.571304
Liesstraat,84,,,4838GT,Breda,Breda,Noord-Brabant,VBO,4.709553,51.571111
Liesstraat,100,,,4838GT,Breda,Breda,Noord-Brabant,VBO,4.710350,51.570885
Liesstraat,104,,,4838GT,Breda,Breda,Noord-Brabant,VBO,4.710585,51.570284
Liesstraat,108,A,,4838GT,Breda,Breda,Noord-Brabant,VBO,4.710673,51.570656
Liesstraat,108,,,4838GT,Breda,Breda,Noord-Brabant,VBO,4.710806,51.570742
Liesstraat,112,,,4838GT,Breda,Breda,Noord-Brabant,VBO,4.710587,51.570873
Liesstraat,114,,,4838GT,Breda,Breda,Noord-Brabant,VBO,4.710741,51.571195
Liesstraat,116,,,4838GT,Breda,Breda,Noord-Brabant,VBO,4.710944,51.571259
Liesdreef,1,A,,4838GV,Breda,Breda,Noord-Brabant,VBO,4.694437,51.569488
Liesdreef,1,,,4838GV,Breda,Breda,Noord-Brabant,VBO,4.694353,51.569472
Liesdreef,3,,,4838GV,Breda,Breda,Noord-Brabant,VBO,4.693719,51.569049
Liesdreef,10,,,4838GV,Breda,Breda,Noord-Brabant,VBO,4.695027,51.567347
Liesdreef,33,,,4838GV,Breda,Breda,Noord-Brabant,VBO,4.696029,51.566290
Liesdreef,40,,I,4838GV,Breda,Breda,Noord-Brabant,VBO,4.695920,51.564879
Liesdreef,40,,,4838GV,Breda,Breda,Noord-Brabant,VBO,4.695738,51.565203
Rithmeesterpark,13,,,4838GZ,Breda,Breda,Noord-Brabant,VBO,4.732341,51.568546
