openbareruimtenaam,huisnummer,huisletter,huisnummertoevoeging,postcode,woonplaatsnaam,gemeentenaam,provincienaam,typeadresseerbaarobject,longitude,latitude
Grimhuijsenstraat,1,A,,4851AA,Ulvenhout,Breda,Noord-Brabant,VBO,4.797942,51.550906
Grimhuijsenstraat,1,,,4851AA,Ulvenhout,Breda,Noord-Brabant,VBO,4.798194,51.550904
Grimhuijsenstraat,3,,,4851AA,Ulvenhout,Breda,Noord-Brabant,VBO,4.798528,51.550885
Grimhuijsenstraat,5,,,4851AA,Ulvenhout,Breda,Noord-Brabant,VBO,4.798604,51.550875
Grimhuijsenstraat,7,,,4851AA,Ulvenhout,Breda,Noord-Brabant,VBO,4.798687,51.550864
Grimhuijsenstraat,9,,,4851AA,Ulvenhout,Breda,Noord-Brabant,VBO,4.798757,51.550855
Grimhuijsenstraat,11,,,4851AA,Ulvenhout,Breda,Noord-Brabant,VBO,4.798961,51.550830
Grimhuijsenstraat,15,,,4851AA,Ulvenhout,Breda,Noord-Brabant,VBO,4.799086,51.550817
Grimhuijsenstraat,17,,,4851AA,Ulvenhout,Breda,Noord-Brabant,VBO,4.799178,51.550808
Grimhuijsenstraat,19,,,4851AA,Ulvenhout,Breda,Noord-Brabant,VBO,4.799288,51.550797
Grimhuijsenstraat,21,,,4851AA,Ulvenhout,Breda,Noord-Brabant,VBO,4.799374,51.550789
Grimhuijsenstraat,23,,,4851AA,Ulvenhout,Breda,Noord-Brabant,VBO,4.799445,51.550782
Grimhuijsenstraat,25,,,4851AA,Ulvenhout,Breda,Noord-Brabant,VBO,4.799528,51.550774
Grimhuijsenstraat,27,,,4851AA,Ulvenhout,Breda,Noord-Brabant,VBO,4.799599,51.550767
Grimhuijsenstraat,29,,,4851AA,Ulvenhout,Breda,Noord-Brabant,VBO,4.799681,51.550758
Grimhuijsenstraat,31,,,4851AA,Ulvenhout,Breda,Noord-Brabant,VBO,4.799918,51.550735
Grimhuijsenstraat,33,,,4851AA,Ulvenhout,Breda,Noord-Brabant,VBO,4.800168,51.550659
Grimhuijsenstraat,35,,,4851AA,Ulvenhout,Breda,Noord-Brabant,VBO,4.800253,51.550649
Grimhuijsenstraat,37,,,4851AA,Ulvenhout,Breda,Noord-Brabant,VBO,4.800378,51.550635
Grimhuijsenstraat,39,,,4851AA,Ulvenhout,Breda,Noord-Brabant,VBO,4.800538,51.550615
Grimhuijsenstraat,41,A,,4851AA,Ulvenhout,Breda,Noord-Brabant,VBO,4.800697,51.550596
Grimhuijsenstraat,41,,,4851AA,Ulvenhout,Breda,Noord-Brabant,VBO,4.800610,51.550606
Grimhuijsenstraat,43,,,4851AA,Ulvenhout,Breda,Noord-Brabant,VBO,4.800858,51.550576
Grimhuijsenstraat,45,,,4851AA,Ulvenhout,Breda,Noord-Brabant,VBO,4.800954,51.550563
Grimhuijsenstraat,4,,,4851AB,Ulvenhout,Breda,Noord-Brabant,VBO,4.799018,51.550582
Grimhuijsenstraat,6,,,4851AB,Ulvenhout,Breda,Noord-Brabant,VBO,4.799123,51.550568
Grimhuijsenstraat,8,,,4851AB,Ulvenhout,Breda,Noord-Brabant,VBO,4.799293,51.550546
Grimhuijsenstraat,10,,,4851AB,Ulvenhout,Breda,Noord-Brabant,VBO,4.799395,51.550532
Grimhuijsenstraat,12,,,4851AB,Ulvenhout,Breda,Noord-Brabant,VBO,4.799556,51.550511
Grimhuijsenstraat,14,,,4851AB,Ulvenhout,Breda,Noord-Brabant,VBO,4.799663,51.550497
Grimhuijsenstraat,16,,,4851AB,Ulvenhout,Breda,Noord-Brabant,VBO,4.799824,51.550476
Grimhuijsenstraat,18,,,4851AB,Ulvenhout,Breda,Noord-Brabant,VBO,4.799926,51.550463
Grimhuijsenstraat,20,,,4851AB,Ulvenhout,Breda,Noord-Brabant,VBO,4.800086,51.550442
Grimhuijsenstraat,22,,,4851AB,Ulvenhout,Breda,Noord-Brabant,VBO,4.800179,51.550430
Grimhuijsenstraat,24,,,4851AB,Ulvenhout,Breda,Noord-Brabant,VBO,4.800349,51.550409
Grimhuijsenstraat,26,,,4851AB,Ulvenhout,Breda,Noord-Brabant,VBO,4.800424,51.550400
Grimhuijsenstraat,28,,,4851AB,Ulvenhout,Breda,Noord-Brabant,VBO,4.800584,51.550379
Grimhuijsenstraat,30,,,4851AB,Ulvenhout,Breda,Noord-Brabant,VBO,4.800668,51.550369
Grimhuijsenstraat,32,,,4851AB,Ulvenhout,Breda,Noord-Brabant,VBO,4.800750,51.550358
Grimhuijsenstraat,34,,,4851AB,Ulvenhout,Breda,Noord-Brabant,VBO,4.800842,51.550346
Julianalaan,1,,,4851AC,Ulvenhout,Breda,Noord-Brabant,VBO,4.800531,51.549640
Julianalaan,3,,,4851AC,Ulvenhout,Breda,Noord-Brabant,VBO,4.800558,51.549699
Julianalaan,5,,,4851AC,Ulvenhout,Breda,Noord-Brabant,VBO,4.800604,51.549799
Julianalaan,7,,,4851AC,Ulvenhout,Breda,Noord-Brabant,VBO,4.800651,51.549902
Julianalaan,9,,,4851AC,Ulvenhout,Breda,Noord-Brabant,VBO,4.800673,51.549952
Julianalaan,11,,,4851AC,Ulvenhout,Breda,Noord-Brabant,VBO,4.800718,51.550056
Julianalaan,13,,,4851AC,Ulvenhout,Breda,Noord-Brabant,VBO,4.800743,51.550117
Julianalaan,15,,,4851AC,Ulvenhout,Breda,Noord-Brabant,VBO,4.800984,51.550840
Julianalaan,17,,,4851AC,Ulvenhout,Breda,Noord-Brabant,VBO,4.801001,51.550938
Julianalaan,19,,,4851AC,Ulvenhout,Breda,Noord-Brabant,VBO,4.801009,51.550993
Julianalaan,21,,,4851AC,Ulvenhout,Breda,Noord-Brabant,VBO,4.801022,51.551099
Julianalaan,23,,,4851AC,Ulvenhout,Breda,Noord-Brabant,VBO,4.801028,51.551154
Julianalaan,25,,,4851AC,Ulvenhout,Breda,Noord-Brabant,VBO,4.801036,51.551252
Julianalaan,27,,,4851AC,Ulvenhout,Breda,Noord-Brabant,VBO,4.801039,51.551311
Julianalaan,29,,,4851AC,Ulvenhout,Breda,Noord-Brabant,VBO,4.801039,51.551416
Julianalaan,31,,,4851AC,Ulvenhout,Breda,Noord-Brabant,VBO,4.801037,51.551512
Julianalaan,33,,,4851AC,Ulvenhout,Breda,Noord-Brabant,VBO,4.801034,51.551589
Julianalaan,35,,,4851AC,Ulvenhout,Breda,Noord-Brabant,VBO,4.801048,51.551769
Julianalaan,2,,,4851AD,Ulvenhout,Breda,Noord-Brabant,VBO,4.800914,51.549552
Julianalaan,4,,,4851AD,Ulvenhout,Breda,Noord-Brabant,VBO,4.800941,51.549608
Julianalaan,6,,,4851AD,Ulvenhout,Breda,Noord-Brabant,VBO,4.801015,51.549726
Julianalaan,8,,,4851AD,Ulvenhout,Breda,Noord-Brabant,VBO,4.801037,51.549776
Julianalaan,10,,,4851AD,Ulvenhout,Breda,Noord-Brabant,VBO,4.801095,51.549908
Julianalaan,12,,,4851AD,Ulvenhout,Breda,Noord-Brabant,VBO,4.801115,51.549955
Julianalaan,14,,,4851AD,Ulvenhout,Breda,Noord-Brabant,VBO,4.801166,51.550075
Julianalaan,16,,,4851AD,Ulvenhout,Breda,Noord-Brabant,VBO,4.801188,51.550128
Julianalaan,18,,,4851AD,Ulvenhout,Breda,Noord-Brabant,VBO,4.801221,51.550254
Julianalaan,20,,,4851AD,Ulvenhout,Breda,Noord-Brabant,VBO,4.801243,51.550309
Julianalaan,22,,,4851AD,Ulvenhout,Breda,Noord-Brabant,VBO,4.801328,51.550549
Julianalaan,24,,,4851AD,Ulvenhout,Breda,Noord-Brabant,VBO,4.801344,51.550609
Julianalaan,26,,,4851AD,Ulvenhout,Breda,Noord-Brabant,VBO,4.801367,51.550716
Julianalaan,28,,,4851AD,Ulvenhout,Breda,Noord-Brabant,VBO,4.801378,51.550771
Julianalaan,30,,,4851AD,Ulvenhout,Breda,Noord-Brabant,VBO,4.801429,51.550904
Julianalaan,32,A,,4851AD,Ulvenhout,Breda,Noord-Brabant,VBO,4.801464,51.551214
Julianalaan,32,,,4851AD,Ulvenhout,Breda,Noord-Brabant,VBO,4.801452,51.551063
Julianalaan,34,,,4851AD,Ulvenhout,Breda,Noord-Brabant,VBO,4.801474,51.551386
Julianalaan,36,,,4851AD,Ulvenhout,Breda,Noord-Brabant,VBO,4.801559,51.551687
Julianalaan,38,,,4851AD,Ulvenhout,Breda,Noord-Brabant,VBO,4.801879,51.551916
Julianalaan,40,,,4851AD,Ulvenhout,Breda,Noord-Brabant,VBO,4.802321,51.552230
Julianalaan,42,,,4851AD,Ulvenhout,Breda,Noord-Brabant,VBO,4.801364,51.551979
Bladerstraat,3,,,4851AE,Ulvenhout,Breda,Noord-Brabant,VBO,4.798084,51.551697
Bladerstraat,5,A,,4851AE,Ulvenhout,Breda,Noord-Brabant,VBO,4.798429,51.551772
Bladerstraat,5,,,4851AE,Ulvenhout,Breda,Noord-Brabant,VBO,4.798255,51.551731
Bladerstraat,7,,,4851AE,Ulvenhout,Breda,Noord-Brabant,VBO,4.798668,51.551797
Bladerstraat,9,,,4851AE,Ulvenhout,Breda,Noord-Brabant,VBO,4.799327,51.551969
Bladerstraat,11,,,4851AE,Ulvenhout,Breda,Noord-Brabant,VBO,4.799392,51.551979
Bladerstraat,13,,,4851AE,Ulvenhout,Breda,Noord-Brabant,VBO,4.799459,51.551989
Bladerstraat,15,,,4851AE,Ulvenhout,Breda,Noord-Brabant,VBO,4.799509,51.551997
Bladerstraat,17,,,4851AE,Ulvenhout,Breda,Noord-Brabant,VBO,4.799660,51.552020
Bladerstraat,19,,,4851AE,Ulvenhout,Breda,Noord-Brabant,VBO,4.799782,51.552038
Bladerstraat,21,,,4851AE,Ulvenhout,Breda,Noord-Brabant,VBO,4.799913,51.552058
Bladerstraat,23,,,4851AE,Ulvenhout,Breda,Noord-Brabant,VBO,4.800055,51.552080
Bladerstraat,25,,,4851AE,Ulvenhout,Breda,Noord-Brabant,VBO,4.800159,51.552096
Bladerstraat,27,,,4851AE,Ulvenhout,Breda,Noord-Brabant,VBO,4.800286,51.552115
Bladerstraat,29,,,4851AE,Ulvenhout,Breda,Noord-Brabant,VBO,4.800416,51.552135
Bladerstraat,31,,,4851AE,Ulvenhout,Breda,Noord-Brabant,VBO,4.800522,51.552151
Bladerstraat,2,A,,4851AG,Ulvenhout,Breda,Noord-Brabant,VBO,4.798030,51.551489
Bladerstraat,2,B,,4851AG,Ulvenhout,Breda,Noord-Brabant,VBO,4.797708,51.551471
Bladerstraat,2,C,,4851AG,Ulvenhout,Breda,Noord-Brabant,VBO,4.797717,51.551423
Bladerstraat,2,D,,4851AG,Ulvenhout,Breda,Noord-Brabant,VBO,4.797733,51.551378
Bladerstraat,2,E,,4851AG,Ulvenhout,Breda,Noord-Brabant,VBO,4.797759,51.551483
Bladerstraat,2,F,,4851AG,Ulvenhout,Breda,Noord-Brabant,VBO,4.797787,51.551383
Bladerstraat,2,G,,4851AG,Ulvenhout,Breda,Noord-Brabant,VBO,4.797773,51.551425
Bladerstraat,2,,,4851AG,Ulvenhout,Breda,Noord-Brabant,VBO,4.798190,51.551511
Bladerstraat,4,,,4851AG,Ulvenhout,Breda,Noord-Brabant,VBO,4.798324,51.551516
Bladerstraat,6,,,4851AG,Ulvenhout,Breda,Noord-Brabant,VBO,4.798439,51.551543
Bladerstraat,8,,,4851AG,Ulvenhout,Breda,Noord-Brabant,VBO,4.798595,51.551581
Bladerstraat,10,,,4851AG,Ulvenhout,Breda,Noord-Brabant,VBO,4.798770,51.551629
Bladerstraat,12,,,4851AG,Ulvenhout,Breda,Noord-Brabant,VBO,4.798891,51.551666
Bladerstraat,14,,,4851AG,Ulvenhout,Breda,Noord-Brabant,VBO,4.799049,51.551699
Bladerstraat,16,,,4851AG,Ulvenhout,Breda,Noord-Brabant,VBO,4.799176,51.551718
Bladerstraat,18,,,4851AG,Ulvenhout,Breda,Noord-Brabant,VBO,4.800203,51.551760
Bladerstraat,20,,,4851AG,Ulvenhout,Breda,Noord-Brabant,VBO,4.800327,51.551770
Bladerstraat,22,,,4851AG,Ulvenhout,Breda,Noord-Brabant,VBO,4.800482,51.551783
Bladerstraat,24,,,4851AG,Ulvenhout,Breda,Noord-Brabant,VBO,4.800618,51.551795
Bladerstraat,26,,,4851AG,Ulvenhout,Breda,Noord-Brabant,VBO,4.800769,51.551807
Bladerstraat,28,,,4851AG,Ulvenhout,Breda,Noord-Brabant,VBO,4.800897,51.551818
Rooiakker,1,,,4851AH,Ulvenhout,Breda,Noord-Brabant,VBO,4.799230,51.551555
Rooiakker,2,,,4851AH,Ulvenhout,Breda,Noord-Brabant,VBO,4.799258,51.551464
Rooiakker,3,,,4851AH,Ulvenhout,Breda,Noord-Brabant,VBO,4.799286,51.551376
Rooiakker,4,,,4851AH,Ulvenhout,Breda,Noord-Brabant,VBO,4.799298,51.551325
Rooiakker,5,,,4851AH,Ulvenhout,Breda,Noord-Brabant,VBO,4.799323,51.551260
Rooiakker,6,,,4851AH,Ulvenhout,Breda,Noord-Brabant,VBO,4.799444,51.551182
Rooiakker,7,,,4851AH,Ulvenhout,Breda,Noord-Brabant,VBO,4.799552,51.551170
Rooiakker,8,,,4851AH,Ulvenhout,Breda,Noord-Brabant,VBO,4.799705,51.551152
Rooiakker,9,,,4851AH,Ulvenhout,Breda,Noord-Brabant,VBO,4.799945,51.551126
Rooiakker,10,,,4851AH,Ulvenhout,Breda,Noord-Brabant,VBO,4.799944,51.551058
Rooiakker,11,,,4851AH,Ulvenhout,Breda,Noord-Brabant,VBO,4.799943,51.551006
Rooiakker,12,,,4851AH,Ulvenhout,Breda,Noord-Brabant,VBO,4.800260,51.550940
Rooiakker,13,,,4851AH,Ulvenhout,Breda,Noord-Brabant,VBO,4.800263,51.551016
Rooiakker,14,,,4851AH,Ulvenhout,Breda,Noord-Brabant,VBO,4.800262,51.551106
Rooiakker,15,,,4851AH,Ulvenhout,Breda,Noord-Brabant,VBO,4.800260,51.551184
Rooiakker,16,,,4851AH,Ulvenhout,Breda,Noord-Brabant,VBO,4.800256,51.551268
Rooiakker,17,,,4851AH,Ulvenhout,Breda,Noord-Brabant,VBO,4.800244,51.551338
Rooiakker,18,,,4851AH,Ulvenhout,Breda,Noord-Brabant,VBO,4.800248,51.551397
Rooiakker,19,,,4851AH,Ulvenhout,Breda,Noord-Brabant,VBO,4.800238,51.551506
Rooiakker,20,,,4851AH,Ulvenhout,Breda,Noord-Brabant,VBO,4.800232,51.551564
Akkerstraat,1,,,4851AJ,Ulvenhout,Breda,Noord-Brabant,VBO,4.798585,51.552001
Akkerstraat,3,,,4851AJ,Ulvenhout,Breda,Noord-Brabant,VBO,4.798578,51.552084
Akkerstraat,5,,,4851AJ,Ulvenhout,Breda,Noord-Brabant,VBO,4.798582,51.552182
Akkerstraat,7,,,4851AJ,Ulvenhout,Breda,Noord-Brabant,VBO,4.798587,51.552253
Akkerstraat,9,,,4851AJ,Ulvenhout,Breda,Noord-Brabant,VBO,4.798594,51.552353
Akkerstraat,11,,,4851AJ,Ulvenhout,Breda,Noord-Brabant,VBO,4.798599,51.552423
Akkerstraat,13,,,4851AJ,Ulvenhout,Breda,Noord-Brabant,VBO,4.798607,51.552527
Akkerstraat,15,,,4851AJ,Ulvenhout,Breda,Noord-Brabant,VBO,4.798612,51.552603
Akkerstraat,17,,,4851AJ,Ulvenhout,Breda,Noord-Brabant,VBO,4.798757,51.553265
Akkerstraat,19,,,4851AJ,Ulvenhout,Breda,Noord-Brabant,VBO,4.798777,51.553320
Akkerstraat,21,,,4851AJ,Ulvenhout,Breda,Noord-Brabant,VBO,4.798840,51.553496
Akkerstraat,23,,,4851AJ,Ulvenhout,Breda,Noord-Brabant,VBO,4.798859,51.553558
Akkerstraat,25,,,4851AJ,Ulvenhout,Breda,Noord-Brabant,VBO,4.798894,51.553713
Akkerstraat,27,,,4851AJ,Ulvenhout,Breda,Noord-Brabant,VBO,4.798902,51.553771
Akkerstraat,2,,,4851AK,Ulvenhout,Breda,Noord-Brabant,VBO,4.798992,51.551919
Akkerstraat,4,,,4851AK,Ulvenhout,Breda,Noord-Brabant,VBO,4.798980,51.552003
Akkerstraat,6,,,4851AK,Ulvenhout,Breda,Noord-Brabant,VBO,4.798974,51.552089
Akkerstraat,8,,,4851AK,Ulvenhout,Breda,Noord-Brabant,VBO,4.798980,51.552173
Akkerstraat,10,,,4851AK,Ulvenhout,Breda,Noord-Brabant,VBO,4.798986,51.552264
Akkerstraat,12,,,4851AK,Ulvenhout,Breda,Noord-Brabant,VBO,4.798992,51.552338
Akkerstraat,14,,,4851AK,Ulvenhout,Breda,Noord-Brabant,VBO,4.798992,51.552434
Akkerstraat,16,,,4851AK,Ulvenhout,Breda,Noord-Brabant,VBO,4.799012,51.552507
Akkerstraat,18,,,4851AK,Ulvenhout,Breda,Noord-Brabant,VBO,4.799039,51.552606
Akkerstraat,20,,,4851AK,Ulvenhout,Breda,Noord-Brabant,VBO,4.799065,51.552701
Akkerstraat,22,,,4851AK,Ulvenhout,Breda,Noord-Brabant,VBO,4.799094,51.552806
Akkerstraat,24,,,4851AK,Ulvenhout,Breda,Noord-Brabant,VBO,4.799129,51.552933
Akkerstraat,26,,,4851AK,Ulvenhout,Breda,Noord-Brabant,VBO,4.799150,51.553009
Akkerstraat,28,,,4851AK,Ulvenhout,Breda,Noord-Brabant,VBO,4.799193,51.553162
Akkerstraat,30,,,4851AK,Ulvenhout,Breda,Noord-Brabant,VBO,4.799269,51.553306
Akkerstraat,32,,,4851AK,Ulvenhout,Breda,Noord-Brabant,VBO,4.799329,51.553460
Akkerstraat,34,,,4851AK,Ulvenhout,Breda,Noord-Brabant,VBO,4.799378,51.553641
Akkerstraat,36,,,4851AK,Ulvenhout,Breda,Noord-Brabant,VBO,4.799419,51.553826
Akkerstraat,40,,,4851AK,Ulvenhout,Breda,Noord-Brabant,VBO,4.799198,51.554903
Akkerstraat,42,,,4851AK,Ulvenhout,Breda,Noord-Brabant,VBO,4.799236,51.554815
Akkerstraat,44,,,4851AK,Ulvenhout,Breda,Noord-Brabant,VBO,4.799354,51.554816
Akkerstraat,46,,,4851AK,Ulvenhout,Breda,Noord-Brabant,VBO,4.799520,51.554938
Akkerstraat,48,,,4851AK,Ulvenhout,Breda,Noord-Brabant,VBO,4.799540,51.555122
Akkerstraat,50,,,4851AK,Ulvenhout,Breda,Noord-Brabant,VBO,4.799525,51.555156
Akkerstraat,52,,,4851AK,Ulvenhout,Breda,Noord-Brabant,VBO,4.799503,51.555208
Akkerstraat,54,,,4851AK,Ulvenhout,Breda,Noord-Brabant,VBO,4.799220,51.554851
Akkerstraat,56,,,4851AK,Ulvenhout,Breda,Noord-Brabant,VBO,4.799291,51.554824
Akkerstraat,58,,,4851AK,Ulvenhout,Breda,Noord-Brabant,VBO,4.799500,51.554916
Akkerstraat,60,,,4851AK,Ulvenhout,Breda,Noord-Brabant,VBO,4.799424,51.555041
Akkerstraat,62,,,4851AK,Ulvenhout,Breda,Noord-Brabant,VBO,4.799480,51.555050
Akkerstraat,64,,,4851AK,Ulvenhout,Breda,Noord-Brabant,VBO,4.799380,51.554896
Akkerstraat,66,,,4851AK,Ulvenhout,Breda,Noord-Brabant,VBO,4.799494,51.554858
Akkerstraat,68,,,4851AK,Ulvenhout,Breda,Noord-Brabant,VBO,4.799522,51.555020
Poststraat,1,,,4851AL,Ulvenhout,Breda,Noord-Brabant,VBO,4.797419,51.552875
Poststraat,2,,,4851AL,Ulvenhout,Breda,Noord-Brabant,VBO,4.797713,51.552693
Poststraat,3,,,4851AL,Ulvenhout,Breda,Noord-Brabant,VBO,4.797523,51.552893
Poststraat,4,,,4851AL,Ulvenhout,Breda,Noord-Brabant,VBO,4.797903,51.552708
Poststraat,5,,,4851AL,Ulvenhout,Breda,Noord-Brabant,VBO,4.797592,51.552903
Poststraat,6,,,4851AL,Ulvenhout,Breda,Noord-Brabant,VBO,4.798075,51.552721
Poststraat,7,,,4851AL,Ulvenhout,Breda,Noord-Brabant,VBO,4.797681,51.552910
Poststraat,8,,,4851AL,Ulvenhout,Breda,Noord-Brabant,VBO,4.798257,51.552734
Poststraat,9,,,4851AL,Ulvenhout,Breda,Noord-Brabant,VBO,4.797785,51.552920
Poststraat,10,,,4851AL,Ulvenhout,Breda,Noord-Brabant,VBO,4.798438,51.552748
Poststraat,11,,,4851AL,Ulvenhout,Breda,Noord-Brabant,VBO,4.797916,51.552927
Poststraat,12,,,4851AL,Ulvenhout,Breda,Noord-Brabant,VBO,4.798604,51.552761
Poststraat,13,,,4851AL,Ulvenhout,Breda,Noord-Brabant,VBO,4.798055,51.552979
Poststraat,15,,,4851AL,Ulvenhout,Breda,Noord-Brabant,VBO,4.798139,51.552986
Poststraat,17,,,4851AL,Ulvenhout,Breda,Noord-Brabant,VBO,4.798216,51.553009
Poststraat,29,,,4851AL,Ulvenhout,Breda,Noord-Brabant,VBO,4.798381,51.552992
Poststraat,31,,,4851AL,Ulvenhout,Breda,Noord-Brabant,VBO,4.798460,51.552998
Poststraat,33,,,4851AL,Ulvenhout,Breda,Noord-Brabant,VBO,4.798559,51.553006
Poststraat,35,,,4851AL,Ulvenhout,Breda,Noord-Brabant,VBO,4.798641,51.553012
Poststraat,51513,,TRAF,4851AL,Teteringen,Breda,Noord-Brabant,VBO,4.817955,51.608178
Jachtlaan,1,,,4851AM,Ulvenhout,Breda,Noord-Brabant,VBO,4.796772,51.553188
Jachtlaan,2,,A1,4851AM,Ulvenhout,Breda,Noord-Brabant,VBO,4.797362,51.552875
Jachtlaan,2,,A2,4851AM,Ulvenhout,Breda,Noord-Brabant,VBO,4.797166,51.552863
Jachtlaan,2,,A3,4851AM,Ulvenhout,Breda,Noord-Brabant,VBO,4.797140,51.553038
Jachtlaan,2,,A4,4851AM,Ulvenhout,Breda,Noord-Brabant,VBO,4.797166,51.553111
Jachtlaan,2,,B1,4851AM,Ulvenhout,Breda,Noord-Brabant,VBO,4.797909,51.552959
Jachtlaan,2,,B10,4851AM,Ulvenhout,Breda,Noord-Brabant,VBO,4.797218,51.553112
Jachtlaan,2,,B2,4851AM,Ulvenhout,Breda,Noord-Brabant,VBO,4.797789,51.552955
Jachtlaan,2,,B3,4851AM,Ulvenhout,Breda,Noord-Brabant,VBO,4.797674,51.552950
Jachtlaan,2,,B4,4851AM,Ulvenhout,Breda,Noord-Brabant,VBO,4.797580,51.552941
Jachtlaan,2,,B5,4851AM,Ulvenhout,Breda,Noord-Brabant,VBO,4.797514,51.552934
Jachtlaan,2,,B6,4851AM,Ulvenhout,Breda,Noord-Brabant,VBO,4.797348,51.552910
Jachtlaan,2,,B7,4851AM,Ulvenhout,Breda,Noord-Brabant,VBO,4.797189,51.552862
Jachtlaan,2,,B8,4851AM,Ulvenhout,Breda,Noord-Brabant,VBO,4.797159,51.552899
Jachtlaan,2,,B9,4851AM,Ulvenhout,Breda,Noord-Brabant,VBO,4.797199,51.553042
Jachtlaan,2,,C1,4851AM,Ulvenhout,Breda,Noord-Brabant,VBO,4.797413,51.552941
Jachtlaan,2,,C2,4851AM,Ulvenhout,Breda,Noord-Brabant,VBO,4.797343,51.552943
Jachtlaan,2,,C3,4851AM,Ulvenhout,Breda,Noord-Brabant,VBO,4.797264,51.552937
Jachtlaan,2,,,4851AM,Ulvenhout,Breda,Noord-Brabant,VBO,4.797200,51.553259
Jachtlaan,3,,,4851AM,Ulvenhout,Breda,Noord-Brabant,VBO,4.796768,51.553391
Jachtlaan,4,,,4851AM,Ulvenhout,Breda,Noord-Brabant,VBO,4.797197,51.553346
Jachtlaan,5,,,4851AM,Ulvenhout,Breda,Noord-Brabant,VBO,4.796765,51.553517
Jachtlaan,6,,,4851AM,Ulvenhout,Breda,Noord-Brabant,VBO,4.797193,51.553498
Jachtlaan,7,,,4851AM,Ulvenhout,Breda,Noord-Brabant,VBO,4.796765,51.553646
Jachtlaan,8,,,4851AM,Ulvenhout,Breda,Noord-Brabant,VBO,4.797201,51.553674
Jachtlaan,9,,,4851AM,Ulvenhout,Breda,Noord-Brabant,VBO,4.796709,51.553881
Jachtlaan,10,,,4851AM,Ulvenhout,Breda,Noord-Brabant,VBO,4.797267,51.553821
Jachtlaan,11,,,4851AM,Ulvenhout,Breda,Noord-Brabant,VBO,4.796887,51.554150
Jachtlaan,12,,,4851AM,Ulvenhout,Breda,Noord-Brabant,VBO,4.797647,51.553961
Jachtlaan,13,,,4851AM,Ulvenhout,Breda,Noord-Brabant,VBO,4.797159,51.554330
Jachtlaan,14,,,4851AM,Ulvenhout,Breda,Noord-Brabant,VBO,4.798401,51.554036
Jachtlaan,15,,,4851AM,Ulvenhout,Breda,Noord-Brabant,VBO,4.797511,51.554337
Jachtlaan,16,,,4851AM,Ulvenhout,Breda,Noord-Brabant,VBO,4.798636,51.554056
Jachtlaan,17,,,4851AM,Ulvenhout,Breda,Noord-Brabant,VBO,4.797876,51.554345
Jachtlaan,18,,,4851AM,Ulvenhout,Breda,Noord-Brabant,VBO,4.798864,51.554076
Jachtlaan,19,,,4851AM,Ulvenhout,Breda,Noord-Brabant,VBO,4.798193,51.554381
Jachtlaan,21,,,4851AM,Ulvenhout,Breda,Noord-Brabant,VBO,4.798516,51.554315
Jachtlaan,23,,,4851AM,Ulvenhout,Breda,Noord-Brabant,VBO,4.798740,51.554324
Fazantlaan,1,,,4851AN,Ulvenhout,Breda,Noord-Brabant,VBO,4.796385,51.554199
Fazantlaan,2,,,4851AN,Ulvenhout,Breda,Noord-Brabant,VBO,4.796437,51.554047
Fazantlaan,3,,,4851AN,Ulvenhout,Breda,Noord-Brabant,VBO,4.796082,51.553874
Beukenhof,1,,,4851AP,Ulvenhout,Breda,Noord-Brabant,VBO,4.797653,51.553848
Beukenhof,2,,,4851AP,Ulvenhout,Breda,Noord-Brabant,VBO,4.797573,51.553657
Beukenhof,3,,,4851AP,Ulvenhout,Breda,Noord-Brabant,VBO,4.797647,51.553540
Beukenhof,4,,,4851AP,Ulvenhout,Breda,Noord-Brabant,VBO,4.797862,51.553443
Beukenhof,5,,,4851AP,Ulvenhout,Breda,Noord-Brabant,VBO,4.798151,51.553473
Beukenhof,6,,,4851AP,Ulvenhout,Breda,Noord-Brabant,VBO,4.798334,51.553617
Beukenhof,7,,,4851AP,Ulvenhout,Breda,Noord-Brabant,VBO,4.798350,51.553799
Wilhelminaplein,1,,,4851AR,Ulvenhout,Breda,Noord-Brabant,VBO,4.798726,51.554557
Wilhelminaplein,2,,,4851AR,Ulvenhout,Breda,Noord-Brabant,VBO,4.799408,51.554122
Wilhelminaplein,3,,,4851AR,Ulvenhout,Breda,Noord-Brabant,VBO,4.799794,51.554145
Wilhelminaplein,4,,,4851AR,Ulvenhout,Breda,Noord-Brabant,VBO,4.799847,51.555078
Wilhelminaplein,64523,,TRAF,4851AS,Ulvenhout,Breda,Noord-Brabant,VBO,4.798546,51.554641
Jeugdland,1,A,,4851AT,Ulvenhout,Breda,Noord-Brabant,VBO,4.796997,51.556241
Jeugdland,1,,,4851AT,Ulvenhout,Breda,Noord-Brabant,VBO,4.797326,51.556616
Jeugdland,2,,,4851AT,Ulvenhout,Breda,Noord-Brabant,VBO,4.797062,51.556356
Jeugdland,3,,,4851AT,Ulvenhout,Breda,Noord-Brabant,VBO,4.796876,51.556497
Jeugdland,4,,,4851AT,Ulvenhout,Breda,Noord-Brabant,VBO,4.796863,51.556364
Van Schermbeeklaan,1,,,4851AV,Ulvenhout,Breda,Noord-Brabant,VBO,4.800852,51.552240
Van Schermbeeklaan,2,,,4851AV,Ulvenhout,Breda,Noord-Brabant,VBO,4.800799,51.552366
Van Schermbeeklaan,3,,,4851AV,Ulvenhout,Breda,Noord-Brabant,VBO,4.800712,51.552553
Van Schermbeeklaan,4,,,4851AV,Ulvenhout,Breda,Noord-Brabant,VBO,4.800618,51.552721
Van Schermbeeklaan,5,,,4851AV,Ulvenhout,Breda,Noord-Brabant,VBO,4.800307,51.553153
Van Schermbeeklaan,6,,,4851AV,Ulvenhout,Breda,Noord-Brabant,VBO,4.800295,51.553345
Van Schermbeeklaan,7,,,4851AV,Ulvenhout,Breda,Noord-Brabant,VBO,4.800189,51.553521
Van Schermbeeklaan,8,,,4851AV,Ulvenhout,Breda,Noord-Brabant,VBO,4.800088,51.553675
Van Schermbeeklaan,9,,,4851AV,Ulvenhout,Breda,Noord-Brabant,VBO,4.799964,51.553856
Van Schermbeeklaan,10,,,4851AV,Ulvenhout,Breda,Noord-Brabant,VBO,4.799894,51.553996
Berkenhof,1,,,4851AW,Ulvenhout,Breda,Noord-Brabant,VBO,4.800323,51.552488
Berkenhof,2,,,4851AW,Ulvenhout,Breda,Noord-Brabant,VBO,4.799868,51.552634
Berkenhof,3,,,4851AW,Ulvenhout,Breda,Noord-Brabant,VBO,4.799742,51.552813
Berkenhof,4,,,4851AW,Ulvenhout,Breda,Noord-Brabant,VBO,4.799827,51.552991
Wolvenhoek,1,,,4851AX,Ulvenhout,Breda,Noord-Brabant,VBO,4.802010,51.551688
Wolvenhoek,2,,,4851AX,Ulvenhout,Breda,Noord-Brabant,VBO,4.801924,51.551411
Wolvenhoek,3,,,4851AX,Ulvenhout,Breda,Noord-Brabant,VBO,4.802322,51.551696
Wolvenhoek,4,,,4851AX,Ulvenhout,Breda,Noord-Brabant,VBO,4.802196,51.551416
Wolvenhoek,5,,,4851AX,Ulvenhout,Breda,Noord-Brabant,VBO,4.802703,51.551890
Wolvenhoek,6,,,4851AX,Ulvenhout,Breda,Noord-Brabant,VBO,4.802286,51.551110
Wolvenhoek,7,,,4851AX,Ulvenhout,Breda,Noord-Brabant,VBO,4.803033,51.551994
Wolvenhoek,8,,,4851AX,Ulvenhout,Breda,Noord-Brabant,VBO,4.802330,51.550908
Wolvenhoek,9,,,4851AX,Ulvenhout,Breda,Noord-Brabant,VBO,4.803184,51.551675
Wolvenhoek,10,,,4851AX,Ulvenhout,Breda,Noord-Brabant,VBO,4.802331,51.550759
Wolvenhoek,11,,,4851AX,Ulvenhout,Breda,Noord-Brabant,VBO,4.803184,51.551446
Wolvenhoek,12,,,4851AX,Ulvenhout,Breda,Noord-Brabant,VBO,4.802402,51.550582
Wolvenhoek,13,,,4851AX,Ulvenhout,Breda,Noord-Brabant,VBO,4.803115,51.551161
Wolvenhoek,14,,,4851AX,Ulvenhout,Breda,Noord-Brabant,VBO,4.802460,51.550402
Wolvenhoek,15,,,4851AX,Ulvenhout,Breda,Noord-Brabant,VBO,4.803203,51.550943
Wolvenhoek,17,,,4851AX,Ulvenhout,Breda,Noord-Brabant,VBO,4.803007,51.550637
Wolvenhoek,19,,,4851AX,Ulvenhout,Breda,Noord-Brabant,VBO,4.802934,51.550425
Sparrenlaan,2,,,4851AZ,Ulvenhout,Breda,Noord-Brabant,VBO,4.802479,51.550086
Sparrenlaan,3,,,4851AZ,Ulvenhout,Breda,Noord-Brabant,VBO,4.802809,51.549705
Sparrenlaan,4,,,4851AZ,Ulvenhout,Breda,Noord-Brabant,VBO,4.802406,51.549841
Sparrenlaan,5,,,4851AZ,Ulvenhout,Breda,Noord-Brabant,VBO,4.802790,51.549640
Sparrenlaan,6,,,4851AZ,Ulvenhout,Breda,Noord-Brabant,VBO,4.802379,51.549752
Sparrenlaan,7,,,4851AZ,Ulvenhout,Breda,Noord-Brabant,VBO,4.802745,51.549498
Sparrenlaan,8,,,4851AZ,Ulvenhout,Breda,Noord-Brabant,VBO,4.802347,51.549643
Sparrenlaan,9,,,4851AZ,Ulvenhout,Breda,Noord-Brabant,VBO,4.802725,51.549436
Sparrenlaan,10,,,4851AZ,Ulvenhout,Breda,Noord-Brabant,VBO,4.802327,51.549574
Sparrenlaan,11,,,4851AZ,Ulvenhout,Breda,Noord-Brabant,VBO,4.802678,51.549303
Sparrenlaan,12,,,4851AZ,Ulvenhout,Breda,Noord-Brabant,VBO,4.802279,51.549427
Sparrenlaan,13,,,4851AZ,Ulvenhout,Breda,Noord-Brabant,VBO,4.802624,51.549143
Sparrenlaan,14,,,4851AZ,Ulvenhout,Breda,Noord-Brabant,VBO,4.802234,51.549299
Sparrenlaan,16,,,4851AZ,Ulvenhout,Breda,Noord-Brabant,VBO,4.802212,51.549239
Sparrenlaan,18,,,4851AZ,Ulvenhout,Breda,Noord-Brabant,VBO,4.802168,51.549125
Bosrand,1,,,4851BA,Ulvenhout,Breda,Noord-Brabant,VBO,4.801701,51.550493
Bosrand,2,,,4851BA,Ulvenhout,Breda,Noord-Brabant,VBO,4.801605,51.550254
Bosrand,3,,,4851BA,Ulvenhout,Breda,Noord-Brabant,VBO,4.801804,51.550478
Bosrand,4,,,4851BA,Ulvenhout,Breda,Noord-Brabant,VBO,4.801830,51.550223
Bosrand,5,,,4851BA,Ulvenhout,Breda,Noord-Brabant,VBO,4.801989,51.550453
Bosrand,6,A,,4851BA,Ulvenhout,Breda,Noord-Brabant,VBO,4.802216,51.550156
Bosrand,6,,,4851BA,Ulvenhout,Breda,Noord-Brabant,VBO,4.802014,51.550200
Bosrand,7,,,4851BA,Ulvenhout,Breda,Noord-Brabant,VBO,4.803218,51.550284
Bosrand,8,,,4851BA,Ulvenhout,Breda,Noord-Brabant,VBO,4.802931,51.549938
Bosrand,10,,,4851BA,Ulvenhout,Breda,Noord-Brabant,VBO,4.803408,51.549857
Bosrand,12,,,4851BA,Ulvenhout,Breda,Noord-Brabant,VBO,4.804685,51.549716
Lijsterhof,1,,,4851BB,Ulvenhout,Breda,Noord-Brabant,VBO,4.805291,51.549560
Lijsterhof,2,,,4851BB,Ulvenhout,Breda,Noord-Brabant,VBO,4.805202,51.549232
Lijsterhof,3,,,4851BB,Ulvenhout,Breda,Noord-Brabant,VBO,4.805591,51.549112
Lijsterhof,4,,,4851BB,Ulvenhout,Breda,Noord-Brabant,VBO,4.806050,51.549038
Lijsterhof,5,,,4851BB,Ulvenhout,Breda,Noord-Brabant,VBO,4.806162,51.549423
Hertespoor,2,,,4851BC,Ulvenhout,Breda,Noord-Brabant,VBO,4.806856,51.549334
Hertespoor,4,,,4851BC,Ulvenhout,Breda,Noord-Brabant,VBO,4.806802,51.549069
Hertespoor,6,,,4851BC,Ulvenhout,Breda,Noord-Brabant,VBO,4.806511,51.548796
Weversdries,1,,,4851BD,Ulvenhout,Breda,Noord-Brabant,VBO,4.806131,51.546838
Weversdries,2,,,4851BD,Ulvenhout,Breda,Noord-Brabant,VBO,4.805974,51.547931
Weversdries,3,,,4851BD,Ulvenhout,Breda,Noord-Brabant,VBO,4.805839,51.546540
Weversdries,4,,,4851BD,Ulvenhout,Breda,Noord-Brabant,VBO,4.805921,51.547807
Weversdries,5,,,4851BD,Ulvenhout,Breda,Noord-Brabant,VBO,4.805457,51.545946
Weversdries,6,,,4851BD,Ulvenhout,Breda,Noord-Brabant,VBO,4.805825,51.547585
Weversdries,7,,,4851BD,Ulvenhout,Breda,Noord-Brabant,VBO,4.805283,51.545746
Weversdries,8,,,4851BD,Ulvenhout,Breda,Noord-Brabant,VBO,4.805791,51.547506
Weversdries,10,,,4851BD,Ulvenhout,Breda,Noord-Brabant,VBO,4.805741,51.547391
Weversdries,12,,,4851BD,Ulvenhout,Breda,Noord-Brabant,VBO,4.805689,51.547271
Weversdries,14,,,4851BD,Ulvenhout,Breda,Noord-Brabant,VBO,4.805661,51.547207
Weversdries,18,,,4851BD,Ulvenhout,Breda,Noord-Brabant,VBO,4.805359,51.546574
Weversdries,20,,,4851BD,Ulvenhout,Breda,Noord-Brabant,VBO,4.805296,51.546447
Weversdries,22,,,4851BD,Ulvenhout,Breda,Noord-Brabant,VBO,4.805252,51.546328
Weversdries,24,,,4851BD,Ulvenhout,Breda,Noord-Brabant,VBO,4.805187,51.546201
Weversdries,26,,,4851BD,Ulvenhout,Breda,Noord-Brabant,VBO,4.805130,51.546091
Weversdries,28,,,4851BD,Ulvenhout,Breda,Noord-Brabant,VBO,4.805097,51.546030
de Toom,1,,,4851BE,Ulvenhout,Breda,Noord-Brabant,VBO,4.806388,51.547636
de Toom,2,,,4851BE,Ulvenhout,Breda,Noord-Brabant,VBO,4.806199,51.547347
de Toom,3,,,4851BE,Ulvenhout,Breda,Noord-Brabant,VBO,4.806627,51.547480
de Toom,4,,,4851BE,Ulvenhout,Breda,Noord-Brabant,VBO,4.806416,51.547172
de Toom,5,,,4851BE,Ulvenhout,Breda,Noord-Brabant,VBO,4.806835,51.547317
de Toom,6,,,4851BE,Ulvenhout,Breda,Noord-Brabant,VBO,4.806630,51.547006
de Toom,7,,,4851BE,Ulvenhout,Breda,Noord-Brabant,VBO,4.807046,51.547143
de Toom,8,,,4851BE,Ulvenhout,Breda,Noord-Brabant,VBO,4.806863,51.546832
de Toom,9,,,4851BE,Ulvenhout,Breda,Noord-Brabant,VBO,4.807305,51.546962
Sterstraat,1,,,4851BG,Ulvenhout,Breda,Noord-Brabant,VBO,4.805996,51.546390
Sterstraat,2,,,4851BG,Ulvenhout,Breda,Noord-Brabant,VBO,4.805701,51.546088
Sterstraat,4,,,4851BG,Ulvenhout,Breda,Noord-Brabant,VBO,4.805895,51.546107
Sterstraat,6,,,4851BG,Ulvenhout,Breda,Noord-Brabant,VBO,4.806065,51.546142
Sterstraat,8,,,4851BG,Ulvenhout,Breda,Noord-Brabant,VBO,4.806203,51.546190
Sterstraat,10,,,4851BG,Ulvenhout,Breda,Noord-Brabant,VBO,4.806362,51.546247
Sterstraat,12,,,4851BG,Ulvenhout,Breda,Noord-Brabant,VBO,4.806538,51.546310
Sterstraat,14,,,4851BG,Ulvenhout,Breda,Noord-Brabant,VBO,4.806712,51.546371
Sterstraat,16,,,4851BG,Ulvenhout,Breda,Noord-Brabant,VBO,4.806869,51.546429
Sterstraat,18,,,4851BG,Ulvenhout,Breda,Noord-Brabant,VBO,4.806994,51.546472
Sterstraat,20,,,4851BG,Ulvenhout,Breda,Noord-Brabant,VBO,4.807138,51.546525
Sterstraat,22,,,4851BG,Ulvenhout,Breda,Noord-Brabant,VBO,4.807258,51.546572
Sterstraat,24,,,4851BG,Ulvenhout,Breda,Noord-Brabant,VBO,4.807479,51.546645
Torendreef,2,,,4851BH,Ulvenhout,Breda,Noord-Brabant,VBO,4.808663,51.548273
Torendreef,4,,,4851BH,Ulvenhout,Breda,Noord-Brabant,VBO,4.808500,51.548405
Torendreef,6,,,4851BH,Ulvenhout,Breda,Noord-Brabant,VBO,4.808418,51.548503
Torendreef,8,,,4851BH,Ulvenhout,Breda,Noord-Brabant,VBO,4.808368,51.548564
Torendreef,10,,,4851BH,Ulvenhout,Breda,Noord-Brabant,VBO,4.808296,51.548650
Torendreef,12,,,4851BH,Ulvenhout,Breda,Noord-Brabant,VBO,4.808247,51.548710
Torendreef,14,,,4851BH,Ulvenhout,Breda,Noord-Brabant,VBO,4.808166,51.548809
Elzendreef,1,,,4851BJ,Ulvenhout,Breda,Noord-Brabant,VBO,4.809148,51.548449
Elzendreef,2,,,4851BJ,Ulvenhout,Breda,Noord-Brabant,VBO,4.809392,51.548626
Elzendreef,3,,,4851BJ,Ulvenhout,Breda,Noord-Brabant,VBO,4.809095,51.548514
Elzendreef,4,,,4851BJ,Ulvenhout,Breda,Noord-Brabant,VBO,4.809351,51.548676
Elzendreef,5,,,4851BJ,Ulvenhout,Breda,Noord-Brabant,VBO,4.809029,51.548595
Elzendreef,6,,,4851BJ,Ulvenhout,Breda,Noord-Brabant,VBO,4.809321,51.548712
Elzendreef,7,,,4851BJ,Ulvenhout,Breda,Noord-Brabant,VBO,4.808976,51.548659
Elzendreef,8,,,4851BJ,Ulvenhout,Breda,Noord-Brabant,VBO,4.809279,51.548763
Elzendreef,9,,,4851BJ,Ulvenhout,Breda,Noord-Brabant,VBO,4.808905,51.548745
Elzendreef,10,,,4851BJ,Ulvenhout,Breda,Noord-Brabant,VBO,4.809250,51.548799
Elzendreef,11,,,4851BJ,Ulvenhout,Breda,Noord-Brabant,VBO,4.808854,51.548807
Elzendreef,12,,,4851BJ,Ulvenhout,Breda,Noord-Brabant,VBO,4.809207,51.548850
Elzendreef,13,,,4851BJ,Ulvenhout,Breda,Noord-Brabant,VBO,4.808774,51.548904
Elzendreef,14,,,4851BJ,Ulvenhout,Breda,Noord-Brabant,VBO,4.809104,51.548936
Pyramidedreef,2,,,4851BK,Ulvenhout,Breda,Noord-Brabant,VBO,4.810562,51.548275
Pyramidedreef,4,,,4851BK,Ulvenhout,Breda,Noord-Brabant,VBO,4.810525,51.548330
Pyramidedreef,6,,,4851BK,Ulvenhout,Breda,Noord-Brabant,VBO,4.810495,51.548366
Pyramidedreef,8,,,4851BK,Ulvenhout,Breda,Noord-Brabant,VBO,4.810451,51.548419
Pyramidedreef,10,,,4851BK,Ulvenhout,Breda,Noord-Brabant,VBO,4.810417,51.548461
Pyramidedreef,11,,,4851BK,Ulvenhout,Breda,Noord-Brabant,VBO,4.809751,51.548825
Pyramidedreef,12,,,4851BK,Ulvenhout,Breda,Noord-Brabant,VBO,4.810378,51.548510
Pyramidedreef,13,,,4851BK,Ulvenhout,Breda,Noord-Brabant,VBO,4.809701,51.548885
Pyramidedreef,14,,,4851BK,Ulvenhout,Breda,Noord-Brabant,VBO,4.810079,51.548899
Pyramidedreef,15,,,4851BK,Ulvenhout,Breda,Noord-Brabant,VBO,4.809601,51.548988
Pyramidedreef,16,,,4851BK,Ulvenhout,Breda,Noord-Brabant,VBO,4.810028,51.548961
Pyramidedreef,18,,,4851BK,Ulvenhout,Breda,Noord-Brabant,VBO,4.809920,51.549057
Acaciadreef,9,,,4851BL,Ulvenhout,Breda,Noord-Brabant,VBO,4.811050,51.548393
Acaciadreef,10,,,4851BL,Ulvenhout,Breda,Noord-Brabant,VBO,4.811418,51.548377
Acaciadreef,11,,,4851BL,Ulvenhout,Breda,Noord-Brabant,VBO,4.811003,51.548439
Acaciadreef,12,,,4851BL,Ulvenhout,Breda,Noord-Brabant,VBO,4.811384,51.548428
Acaciadreef,13,,,4851BL,Ulvenhout,Breda,Noord-Brabant,VBO,4.810974,51.548475
Acaciadreef,14,,,4851BL,Ulvenhout,Breda,Noord-Brabant,VBO,4.811349,51.548470
Acaciadreef,15,,,4851BL,Ulvenhout,Breda,Noord-Brabant,VBO,4.810925,51.548534
Acaciadreef,16,,,4851BL,Ulvenhout,Breda,Noord-Brabant,VBO,4.811303,51.548517
Acaciadreef,17,,,4851BL,Ulvenhout,Breda,Noord-Brabant,VBO,4.810894,51.548571
Acaciadreef,18,,,4851BL,Ulvenhout,Breda,Noord-Brabant,VBO,4.811264,51.548573
Acaciadreef,19,,,4851BL,Ulvenhout,Breda,Noord-Brabant,VBO,4.810861,51.548622
Acaciadreef,20,,,4851BL,Ulvenhout,Breda,Noord-Brabant,VBO,4.811232,51.548612
Acaciadreef,21,,,4851BL,Ulvenhout,Breda,Noord-Brabant,VBO,4.810540,51.549012
Acaciadreef,22,,,4851BL,Ulvenhout,Breda,Noord-Brabant,VBO,4.811188,51.548656
Acaciadreef,23,,,4851BL,Ulvenhout,Breda,Noord-Brabant,VBO,4.810376,51.549115
Acaciadreef,24,,,4851BL,Ulvenhout,Breda,Noord-Brabant,VBO,4.810867,51.549073
Acaciadreef,26,,,4851BL,Ulvenhout,Breda,Noord-Brabant,VBO,4.810753,51.549185
Acaciadreef,64589,,TRAF,4851BL,Ulvenhout,Breda,Noord-Brabant,VBO,4.810810,51.548277
Essendreef,1,A,,4851BM,Ulvenhout,Breda,Noord-Brabant,VBO,4.811919,51.548392
Essendreef,1,,,4851BM,Ulvenhout,Breda,Noord-Brabant,VBO,4.811973,51.548430
Essendreef,2,,,4851BM,Ulvenhout,Breda,Noord-Brabant,VBO,4.811754,51.549147
Essendreef,3,A,,4851BM,Ulvenhout,Breda,Noord-Brabant,VBO,4.811870,51.548451
Essendreef,3,,,4851BM,Ulvenhout,Breda,Noord-Brabant,VBO,4.811942,51.548467
Essendreef,4,,,4851BM,Ulvenhout,Breda,Noord-Brabant,VBO,4.811700,51.549213
Essendreef,5,A,,4851BM,Ulvenhout,Breda,Noord-Brabant,VBO,4.811818,51.548515
Essendreef,5,,,4851BM,Ulvenhout,Breda,Noord-Brabant,VBO,4.811883,51.548539
Essendreef,6,,,4851BM,Ulvenhout,Breda,Noord-Brabant,VBO,4.811633,51.549296
Essendreef,7,A,,4851BM,Ulvenhout,Breda,Noord-Brabant,VBO,4.811765,51.548579
Essendreef,7,,,4851BM,Ulvenhout,Breda,Noord-Brabant,VBO,4.811834,51.548598
Essendreef,8,,,4851BM,Ulvenhout,Breda,Noord-Brabant,VBO,4.811580,51.549359
Essendreef,9,A,,4851BM,Ulvenhout,Breda,Noord-Brabant,VBO,4.811713,51.548643
Essendreef,9,,,4851BM,Ulvenhout,Breda,Noord-Brabant,VBO,4.811783,51.548661
Essendreef,11,A,,4851BM,Ulvenhout,Breda,Noord-Brabant,VBO,4.811664,51.548701
Essendreef,11,,,4851BM,Ulvenhout,Breda,Noord-Brabant,VBO,4.811737,51.548716
Essendreef,13,,,4851BM,Ulvenhout,Breda,Noord-Brabant,VBO,4.811377,51.549131
Essendreef,15,,,4851BM,Ulvenhout,Breda,Noord-Brabant,VBO,4.811329,51.549190
Essendreef,17,,,4851BM,Ulvenhout,Breda,Noord-Brabant,VBO,4.811282,51.549282
Nieuwe Dreef,2,,,4851BN,Ulvenhout,Breda,Noord-Brabant,VBO,4.808524,51.547380
Nieuwe Dreef,4,,,4851BN,Ulvenhout,Breda,Noord-Brabant,VBO,4.808592,51.547431
Nieuwe Dreef,6,,,4851BN,Ulvenhout,Breda,Noord-Brabant,VBO,4.808749,51.547549
Nieuwe Dreef,8,,,4851BN,Ulvenhout,Breda,Noord-Brabant,VBO,4.808821,51.547603
Nieuwe Dreef,10,,,4851BN,Ulvenhout,Breda,Noord-Brabant,VBO,4.809115,51.547784
Nieuwe Dreef,12,,,4851BN,Ulvenhout,Breda,Noord-Brabant,VBO,4.809506,51.547963
Nieuwe Dreef,14,,,4851BN,Ulvenhout,Breda,Noord-Brabant,VBO,4.809576,51.548163
Nieuwe Dreef,16,,,4851BN,Ulvenhout,Breda,Noord-Brabant,VBO,4.809681,51.548241
Nieuwe Dreef,18,,,4851BN,Ulvenhout,Breda,Noord-Brabant,VBO,4.809791,51.548307
Nieuwe Dreef,20,,,4851BN,Ulvenhout,Breda,Noord-Brabant,VBO,4.809928,51.548378
Nieuwe Dreef,22,,,4851BN,Ulvenhout,Breda,Noord-Brabant,VBO,4.810094,51.548435
Nieuwe Dreef,24,,,4851BN,Ulvenhout,Breda,Noord-Brabant,VBO,4.810486,51.548544
Nieuwe Dreef,26,,,4851BN,Ulvenhout,Breda,Noord-Brabant,VBO,4.810752,51.548584
Nieuwe Dreef,28,,,4851BN,Ulvenhout,Breda,Noord-Brabant,VBO,4.811300,51.548693
Nieuwe Dreef,30,,,4851BN,Ulvenhout,Breda,Noord-Brabant,VBO,4.812233,51.548754
Nieuwe Dreef,32,,,4851BN,Ulvenhout,Breda,Noord-Brabant,VBO,4.812404,51.548758
Nieuwe Dreef,34,,,4851BN,Ulvenhout,Breda,Noord-Brabant,VBO,4.812583,51.548761
Nieuwe Dreef,36,,,4851BN,Ulvenhout,Breda,Noord-Brabant,VBO,4.812745,51.548762
Nieuwe Dreef,38,,,4851BN,Ulvenhout,Breda,Noord-Brabant,VBO,4.812916,51.548761
Nieuwe Dreef,40,,,4851BN,Ulvenhout,Breda,Noord-Brabant,VBO,4.813086,51.548759
Vossendreef,1,,,4851BP,Ulvenhout,Breda,Noord-Brabant,VBO,4.809564,51.547807
Vossendreef,2,,,4851BP,Ulvenhout,Breda,Noord-Brabant,VBO,4.809556,51.547583
Vossendreef,3,,,4851BP,Ulvenhout,Breda,Noord-Brabant,VBO,4.809878,51.547920
Vossendreef,4,,,4851BP,Ulvenhout,Breda,Noord-Brabant,VBO,4.809636,51.547585
Vossendreef,5,,,4851BP,Ulvenhout,Breda,Noord-Brabant,VBO,4.809990,51.547993
Vossendreef,6,,,4851BP,Ulvenhout,Breda,Noord-Brabant,VBO,4.809711,51.547586
Vossendreef,7,,,4851BP,Ulvenhout,Breda,Noord-Brabant,VBO,4.810095,51.548063
Vossendreef,8,,,4851BP,Ulvenhout,Breda,Noord-Brabant,VBO,4.809797,51.547588
Vossendreef,9,,,4851BP,Ulvenhout,Breda,Noord-Brabant,VBO,4.810207,51.548136
Vossendreef,10,,,4851BP,Ulvenhout,Breda,Noord-Brabant,VBO,4.809945,51.547640
Vossendreef,11,,,4851BP,Ulvenhout,Breda,Noord-Brabant,VBO,4.810620,51.548260
Vossendreef,12,,,4851BP,Ulvenhout,Breda,Noord-Brabant,VBO,4.810004,51.547679
Vossendreef,13,,,4851BP,Ulvenhout,Breda,Noord-Brabant,VBO,4.811049,51.548351
Vossendreef,14,,,4851BP,Ulvenhout,Breda,Noord-Brabant,VBO,4.810055,51.547712
Vossendreef,15,,,4851BP,Ulvenhout,Breda,Noord-Brabant,VBO,4.811528,51.548415
Vossendreef,16,,,4851BP,Ulvenhout,Breda,Noord-Brabant,VBO,4.810101,51.547743
Vossendreef,17,,,4851BP,Ulvenhout,Breda,Noord-Brabant,VBO,4.812442,51.548416
Vossendreef,18,,,4851BP,Ulvenhout,Breda,Noord-Brabant,VBO,4.810203,51.547810
Vossendreef,19,,,4851BP,Ulvenhout,Breda,Noord-Brabant,VBO,4.812618,51.548429
Vossendreef,20,,,4851BP,Ulvenhout,Breda,Noord-Brabant,VBO,4.810251,51.547841
Vossendreef,21,,,4851BP,Ulvenhout,Breda,Noord-Brabant,VBO,4.812784,51.548446
Vossendreef,22,,,4851BP,Ulvenhout,Breda,Noord-Brabant,VBO,4.810304,51.547876
Vossendreef,23,,,4851BP,Ulvenhout,Breda,Noord-Brabant,VBO,4.812952,51.548469
Vossendreef,24,,,4851BP,Ulvenhout,Breda,Noord-Brabant,VBO,4.810360,51.547913
Vossendreef,25,,,4851BP,Ulvenhout,Breda,Noord-Brabant,VBO,4.813124,51.548495
Vossendreef,26,,,4851BP,Ulvenhout,Breda,Noord-Brabant,VBO,4.810409,51.547944
Vossendreef,28,,,4851BP,Ulvenhout,Breda,Noord-Brabant,VBO,4.810462,51.547979
Vossendreef,30,,,4851BP,Ulvenhout,Breda,Noord-Brabant,VBO,4.810650,51.548052
Vossendreef,32,,,4851BP,Ulvenhout,Breda,Noord-Brabant,VBO,4.810717,51.548057
Vossendreef,34,,,4851BP,Ulvenhout,Breda,Noord-Brabant,VBO,4.810794,51.548063
Vossendreef,36,,,4851BP,Ulvenhout,Breda,Noord-Brabant,VBO,4.810866,51.548068
Vossendreef,38,,,4851BP,Ulvenhout,Breda,Noord-Brabant,VBO,4.811010,51.548079
Vossendreef,40,,,4851BP,Ulvenhout,Breda,Noord-Brabant,VBO,4.811075,51.548084
Vossendreef,42,,,4851BP,Ulvenhout,Breda,Noord-Brabant,VBO,4.811149,51.548089
Vossendreef,44,,,4851BP,Ulvenhout,Breda,Noord-Brabant,VBO,4.811227,51.548095
Vossendreef,46,,,4851BP,Ulvenhout,Breda,Noord-Brabant,VBO,4.811674,51.548130
Vossendreef,48,,,4851BP,Ulvenhout,Breda,Noord-Brabant,VBO,4.811754,51.548136
Vossendreef,50,,,4851BP,Ulvenhout,Breda,Noord-Brabant,VBO,4.811832,51.548142
Vossendreef,52,,,4851BP,Ulvenhout,Breda,Noord-Brabant,VBO,4.811906,51.548148
Vossendreef,54,,,4851BP,Ulvenhout,Breda,Noord-Brabant,VBO,4.812018,51.548156
Vossendreef,56,,,4851BP,Ulvenhout,Breda,Noord-Brabant,VBO,4.812105,51.548163
Vossendreef,58,,,4851BP,Ulvenhout,Breda,Noord-Brabant,VBO,4.812176,51.548169
Vossendreef,60,,,4851BP,Ulvenhout,Breda,Noord-Brabant,VBO,4.812253,51.548175
Vossendreef,62,,,4851BP,Ulvenhout,Breda,Noord-Brabant,VBO,4.812330,51.548181
Vossendreef,64,,,4851BP,Ulvenhout,Breda,Noord-Brabant,VBO,4.812413,51.548187
Vossendreef,66,,,4851BP,Ulvenhout,Breda,Noord-Brabant,VBO,4.812973,51.548240
Vossendreef,68,,,4851BP,Ulvenhout,Breda,Noord-Brabant,VBO,4.813320,51.548282
Vossendreef,70,,,4851BP,Ulvenhout,Breda,Noord-Brabant,VBO,4.813534,51.548623
Nieuwe Dreef,3,,,4851BR,Ulvenhout,Breda,Noord-Brabant,VBO,4.808341,51.547643
Nieuwe Dreef,5,,,4851BR,Ulvenhout,Breda,Noord-Brabant,VBO,4.808767,51.547966
Nieuwe Dreef,9,,,4851BR,Ulvenhout,Breda,Noord-Brabant,VBO,4.808929,51.548268
Nieuwe Dreef,11,,,4851BR,Ulvenhout,Breda,Noord-Brabant,VBO,4.809166,51.548273
Nieuwe Dreef,13,,,4851BR,Ulvenhout,Breda,Noord-Brabant,VBO,4.809527,51.548467
Nieuwe Dreef,15,,,4851BR,Ulvenhout,Breda,Noord-Brabant,VBO,4.809624,51.548520
Nieuwe Dreef,17,,,4851BR,Ulvenhout,Breda,Noord-Brabant,VBO,4.809784,51.548596
Nieuwe Dreef,19,,,4851BR,Ulvenhout,Breda,Noord-Brabant,VBO,4.809897,51.548640
Nieuwe Dreef,21,,,4851BR,Ulvenhout,Breda,Noord-Brabant,VBO,4.810193,51.548733
Nieuwe Dreef,23,,,4851BR,Ulvenhout,Breda,Noord-Brabant,VBO,4.810313,51.548764
Nieuwe Dreef,25,,,4851BR,Ulvenhout,Breda,Noord-Brabant,VBO,4.810515,51.548812
Nieuwe Dreef,27,,,4851BR,Ulvenhout,Breda,Noord-Brabant,VBO,4.810655,51.548840
Nieuwe Dreef,29,,,4851BR,Ulvenhout,Breda,Noord-Brabant,VBO,4.811018,51.548900
Nieuwe Dreef,31,,,4851BR,Ulvenhout,Breda,Noord-Brabant,VBO,4.811160,51.548919
Nieuwe Dreef,33,,,4851BR,Ulvenhout,Breda,Noord-Brabant,VBO,4.811363,51.548941
Nieuwe Dreef,35,,,4851BR,Ulvenhout,Breda,Noord-Brabant,VBO,4.811507,51.548954
Nieuwe Dreef,37,,,4851BR,Ulvenhout,Breda,Noord-Brabant,VBO,4.811900,51.548978
Nieuwe Dreef,39,,,4851BR,Ulvenhout,Breda,Noord-Brabant,VBO,4.812022,51.548982
Nieuwe Dreef,41,,,4851BR,Ulvenhout,Breda,Noord-Brabant,VBO,4.812232,51.548987
Nieuwe Dreef,43,,,4851BR,Ulvenhout,Breda,Noord-Brabant,VBO,4.812367,51.548991
Nieuwe Dreef,45,,,4851BR,Ulvenhout,Breda,Noord-Brabant,VBO,4.812731,51.548996
Nieuwe Dreef,47,,,4851BR,Ulvenhout,Breda,Noord-Brabant,VBO,4.812872,51.548995
Nieuwe Dreef,49,,,4851BR,Ulvenhout,Breda,Noord-Brabant,VBO,4.813073,51.548988
Nieuwe Dreef,51,,,4851BR,Ulvenhout,Breda,Noord-Brabant,VBO,4.813204,51.548982
Nieuwe Dreef,53,,,4851BR,Ulvenhout,Breda,Noord-Brabant,VBO,4.813403,51.548987
Berkendreef,2,,,4851BS,Ulvenhout,Breda,Noord-Brabant,VBO,4.809201,51.547486
Berkendreef,4,,,4851BS,Ulvenhout,Breda,Noord-Brabant,VBO,4.809204,51.547423
Berkendreef,6,,,4851BS,Ulvenhout,Breda,Noord-Brabant,VBO,4.809211,51.547269
Berkendreef,8,,,4851BS,Ulvenhout,Breda,Noord-Brabant,VBO,4.809220,51.547123
Eikendreef,3,,,4851BT,Ulvenhout,Breda,Noord-Brabant,VBO,4.813359,51.549220
Eikendreef,5,,,4851BT,Ulvenhout,Breda,Noord-Brabant,VBO,4.813295,51.549351
Eikendreef,7,,,4851BT,Ulvenhout,Breda,Noord-Brabant,VBO,4.813219,51.549509
Eikendreef,9,,,4851BT,Ulvenhout,Breda,Noord-Brabant,VBO,4.813133,51.549685
Iependreef,1,,,4851BV,Ulvenhout,Breda,Noord-Brabant,VBO,4.812254,51.549245
Iependreef,2,,,4851BV,Ulvenhout,Breda,Noord-Brabant,VBO,4.812641,51.549205
Iependreef,3,,,4851BV,Ulvenhout,Breda,Noord-Brabant,VBO,4.812240,51.549274
Iependreef,4,,,4851BV,Ulvenhout,Breda,Noord-Brabant,VBO,4.812610,51.549269
Iependreef,5,,,4851BV,Ulvenhout,Breda,Noord-Brabant,VBO,4.812211,51.549333
Iependreef,6,,,4851BV,Ulvenhout,Breda,Noord-Brabant,VBO,4.812567,51.549357
Iependreef,7,,,4851BV,Ulvenhout,Breda,Noord-Brabant,VBO,4.812194,51.549368
Iependreef,8,,,4851BV,Ulvenhout,Breda,Noord-Brabant,VBO,4.812533,51.549428
Iependreef,9,,,4851BV,Ulvenhout,Breda,Noord-Brabant,VBO,4.812164,51.549430
Iependreef,10,,,4851BV,Ulvenhout,Breda,Noord-Brabant,VBO,4.812462,51.549519
Iependreef,11,,,4851BV,Ulvenhout,Breda,Noord-Brabant,VBO,4.812149,51.549463
Gebuurdreef,1,,,4851BW,Ulvenhout,Breda,Noord-Brabant,VBO,4.808367,51.548036
Gebuurdreef,3,,,4851BW,Ulvenhout,Breda,Noord-Brabant,VBO,4.808068,51.548030
Gebuurdreef,5,,,4851BW,Ulvenhout,Breda,Noord-Brabant,VBO,4.807857,51.548024
Anneville-laan,3,,,4851CA,Ulvenhout,Breda,Noord-Brabant,VBO,4.798994,51.549663
Anneville-laan,5,,,4851CA,Ulvenhout,Breda,Noord-Brabant,VBO,4.799168,51.549607
Anneville-laan,7,,,4851CA,Ulvenhout,Breda,Noord-Brabant,VBO,4.799265,51.549594
Anneville-laan,9,,,4851CA,Ulvenhout,Breda,Noord-Brabant,VBO,4.799409,51.549574
Anneville-laan,11,A,,4851CA,Ulvenhout,Breda,Noord-Brabant,VBO,4.799869,51.549867
Anneville-laan,11,,,4851CA,Ulvenhout,Breda,Noord-Brabant,VBO,4.799502,51.549563
Anneville-laan,13,,,4851CA,Ulvenhout,Breda,Noord-Brabant,VBO,4.799643,51.549520
Anneville-laan,15,,,4851CA,Ulvenhout,Breda,Noord-Brabant,VBO,4.799716,51.549508
Anneville-laan,17,,,4851CA,Ulvenhout,Breda,Noord-Brabant,VBO,4.799820,51.549493
Anneville-laan,19,A,,4851CA,Ulvenhout,Breda,Noord-Brabant,VBO,4.799907,51.549516
Anneville-laan,19,,,4851CA,Ulvenhout,Breda,Noord-Brabant,VBO,4.799893,51.549482
Anneville-laan,21,,,4851CA,Ulvenhout,Breda,Noord-Brabant,VBO,4.800078,51.549475
Anneville-laan,23,,,4851CA,Ulvenhout,Breda,Noord-Brabant,VBO,4.800168,51.549459
Anneville-laan,25,,,4851CA,Ulvenhout,Breda,Noord-Brabant,VBO,4.800329,51.549430
Anneville-laan,27,,,4851CA,Ulvenhout,Breda,Noord-Brabant,VBO,4.800409,51.549416
Anneville-laan,29,,,4851CA,Ulvenhout,Breda,Noord-Brabant,VBO,4.800962,51.549395
Anneville-laan,31,,,4851CA,Ulvenhout,Breda,Noord-Brabant,VBO,4.801172,51.549322
Anneville-laan,33,,,4851CA,Ulvenhout,Breda,Noord-Brabant,VBO,4.801391,51.549278
Anneville-laan,35,A,,4851CA,Ulvenhout,Breda,Noord-Brabant,VBO,4.801662,51.549651
Anneville-laan,35,B,,4851CA,Ulvenhout,Breda,Noord-Brabant,VBO,4.801560,51.549673
Anneville-laan,35,C,,4851CA,Ulvenhout,Breda,Noord-Brabant,VBO,4.801463,51.549690
Anneville-laan,35,D,,4851CA,Ulvenhout,Breda,Noord-Brabant,VBO,4.801475,51.549719
Anneville-laan,35,E,,4851CA,Ulvenhout,Breda,Noord-Brabant,VBO,4.801484,51.549759
Anneville-laan,35,G,,4851CA,Ulvenhout,Breda,Noord-Brabant,VBO,4.801508,51.549790
Anneville-laan,35,H,,4851CA,Ulvenhout,Breda,Noord-Brabant,VBO,4.801531,51.549822
Anneville-laan,35,K,,4851CA,Ulvenhout,Breda,Noord-Brabant,VBO,4.801557,51.549864
Anneville-laan,35,L,,4851CA,Ulvenhout,Breda,Noord-Brabant,VBO,4.801596,51.549896
Anneville-laan,35,M,,4851CA,Ulvenhout,Breda,Noord-Brabant,VBO,4.801679,51.549891
Anneville-laan,35,N,,4851CA,Ulvenhout,Breda,Noord-Brabant,VBO,4.801752,51.549881
Anneville-laan,35,P,,4851CA,Ulvenhout,Breda,Noord-Brabant,VBO,4.801880,51.549830
Anneville-laan,35,Q,,4851CA,Ulvenhout,Breda,Noord-Brabant,VBO,4.801877,51.549798
Anneville-laan,35,R,,4851CA,Ulvenhout,Breda,Noord-Brabant,VBO,4.801872,51.549753
Anneville-laan,35,,,4851CA,Ulvenhout,Breda,Noord-Brabant,VBO,4.801516,51.549413
Anneville-laan,37,,,4851CA,Ulvenhout,Breda,Noord-Brabant,VBO,4.801736,51.549190
Anneville-laan,41,,,4851CA,Ulvenhout,Breda,Noord-Brabant,VBO,4.802894,51.549007
Anneville-laan,43,,,4851CA,Ulvenhout,Breda,Noord-Brabant,VBO,4.803170,51.548971
Anneville-laan,45,,,4851CA,Ulvenhout,Breda,Noord-Brabant,VBO,4.803397,51.548941
Anneville-laan,47,,,4851CA,Ulvenhout,Breda,Noord-Brabant,VBO,4.803616,51.548936
Anneville-laan,49,,,4851CA,Ulvenhout,Breda,Noord-Brabant,VBO,4.803691,51.548926
Anneville-laan,51,,,4851CB,Ulvenhout,Breda,Noord-Brabant,VBO,4.804552,51.548839
Anneville-laan,53,,,4851CB,Ulvenhout,Breda,Noord-Brabant,VBO,4.804982,51.548721
Anneville-laan,55,,,4851CB,Ulvenhout,Breda,Noord-Brabant,VBO,4.805272,51.548714
Anneville-laan,57,,,4851CB,Ulvenhout,Breda,Noord-Brabant,VBO,4.805565,51.548663
Anneville-laan,59,,,4851CB,Ulvenhout,Breda,Noord-Brabant,VBO,4.805861,51.548567
Anneville-laan,61,,,4851CB,Ulvenhout,Breda,Noord-Brabant,VBO,4.806175,51.548508
Anneville-laan,69,,,4851CB,Ulvenhout,Breda,Noord-Brabant,VBO,4.807398,51.547920
Anneville-laan,71,,,4851CB,Ulvenhout,Breda,Noord-Brabant,VBO,4.807693,51.547590
Anneville-laan,73,A,,4851CB,Ulvenhout,Breda,Noord-Brabant,VBO,4.808323,51.547166
Anneville-laan,73,B,,4851CB,Ulvenhout,Breda,Noord-Brabant,VBO,4.808617,51.547035
Anneville-laan,73,,,4851CB,Ulvenhout,Breda,Noord-Brabant,VBO,4.807966,51.547383
Anneville-laan,75,,,4851CB,Ulvenhout,Breda,Noord-Brabant,VBO,4.808929,51.546878
Anneville-laan,77,,,4851CB,Ulvenhout,Breda,Noord-Brabant,VBO,4.809334,51.546704
Anneville-laan,79,,,4851CB,Ulvenhout,Breda,Noord-Brabant,VBO,4.809664,51.546601
Anneville-laan,81,,,4851CB,Ulvenhout,Breda,Noord-Brabant,VBO,4.809857,51.546492
Anneville-laan,83,,,4851CB,Ulvenhout,Breda,Noord-Brabant,VBO,4.810235,51.546363
Anneville-laan,85,,,4851CB,Ulvenhout,Breda,Noord-Brabant,VBO,4.810541,51.546184
Anneville-laan,2,,,4851CC,Ulvenhout,Breda,Noord-Brabant,VBO,4.798273,51.549515
Anneville-laan,4,,,4851CC,Ulvenhout,Breda,Noord-Brabant,VBO,4.798393,51.549434
Anneville-laan,8,,,4851CC,Ulvenhout,Breda,Noord-Brabant,VBO,4.798741,51.549416
Anneville-laan,10,,,4851CC,Ulvenhout,Breda,Noord-Brabant,VBO,4.798954,51.549390
Anneville-laan,12,,,4851CC,Ulvenhout,Breda,Noord-Brabant,VBO,4.799030,51.549381
Anneville-laan,14,,,4851CC,Ulvenhout,Breda,Noord-Brabant,VBO,4.799097,51.549373
Anneville-laan,16,,,4851CC,Ulvenhout,Breda,Noord-Brabant,VBO,4.799292,51.549393
Anneville-laan,18,,,4851CC,Ulvenhout,Breda,Noord-Brabant,VBO,4.799429,51.549370
Anneville-laan,20,,,4851CC,Ulvenhout,Breda,Noord-Brabant,VBO,4.799525,51.549355
Anneville-laan,22,,,4851CC,Ulvenhout,Breda,Noord-Brabant,VBO,4.799679,51.549299
Anneville-laan,24,,,4851CC,Ulvenhout,Breda,Noord-Brabant,VBO,4.799743,51.549288
Anneville-laan,26,,,4851CC,Ulvenhout,Breda,Noord-Brabant,VBO,4.799806,51.549277
Anneville-laan,28,,,4851CC,Ulvenhout,Breda,Noord-Brabant,VBO,4.799869,51.549266
Anneville-laan,30,,,4851CC,Ulvenhout,Breda,Noord-Brabant,VBO,4.800010,51.549242
Anneville-laan,32,,,4851CC,Ulvenhout,Breda,Noord-Brabant,VBO,4.800058,51.549238
Anneville-laan,34,,,4851CC,Ulvenhout,Breda,Noord-Brabant,VBO,4.800117,51.549228
Anneville-laan,36,,,4851CC,Ulvenhout,Breda,Noord-Brabant,VBO,4.800167,51.549214
Anneville-laan,38,,,4851CC,Ulvenhout,Breda,Noord-Brabant,VBO,4.800306,51.549190
Anneville-laan,40,,,4851CC,Ulvenhout,Breda,Noord-Brabant,VBO,4.800467,51.549163
Anneville-laan,44,,,4851CC,Ulvenhout,Breda,Noord-Brabant,VBO,4.800806,51.549028
Anneville-laan,46,,,4851CC,Ulvenhout,Breda,Noord-Brabant,VBO,4.800966,51.548997
Anneville-laan,48,A,,4851CC,Ulvenhout,Breda,Noord-Brabant,VBO,4.801169,51.548971
Anneville-laan,48,,,4851CC,Ulvenhout,Breda,Noord-Brabant,VBO,4.801136,51.548963
Anneville-laan,50,,,4851CC,Ulvenhout,Breda,Noord-Brabant,VBO,4.801317,51.548929
Anneville-laan,52,,,4851CD,Ulvenhout,Breda,Noord-Brabant,VBO,4.801520,51.548889
Anneville-laan,54,,,4851CD,Ulvenhout,Breda,Noord-Brabant,VBO,4.801718,51.548851
Anneville-laan,56,,,4851CD,Ulvenhout,Breda,Noord-Brabant,VBO,4.801900,51.548815
Anneville-laan,58,,,4851CD,Ulvenhout,Breda,Noord-Brabant,VBO,4.802091,51.548778
Anneville-laan,60,,,4851CD,Ulvenhout,Breda,Noord-Brabant,VBO,4.802339,51.548738
Anneville-laan,62,,,4851CD,Ulvenhout,Breda,Noord-Brabant,VBO,4.802521,51.548716
Anneville-laan,64,,,4851CD,Ulvenhout,Breda,Noord-Brabant,VBO,4.802687,51.548697
Anneville-laan,66,,,4851CD,Ulvenhout,Breda,Noord-Brabant,VBO,4.802865,51.548675
Anneville-laan,68,,,4851CD,Ulvenhout,Breda,Noord-Brabant,VBO,4.803046,51.548654
Anneville-laan,70,,,4851CD,Ulvenhout,Breda,Noord-Brabant,VBO,4.803234,51.548631
Anneville-laan,72,,,4851CD,Ulvenhout,Breda,Noord-Brabant,VBO,4.803424,51.548608
Anneville-laan,74,,,4851CD,Ulvenhout,Breda,Noord-Brabant,VBO,4.803534,51.548595
Anneville-laan,78,,,4851CD,Ulvenhout,Breda,Noord-Brabant,VBO,4.804114,51.548568
Anneville-laan,80,,,4851CD,Ulvenhout,Breda,Noord-Brabant,VBO,4.804200,51.548555
Anneville-laan,82,,,4851CD,Ulvenhout,Breda,Noord-Brabant,VBO,4.804374,51.548499
Anneville-laan,84,,,4851CD,Ulvenhout,Breda,Noord-Brabant,VBO,4.804576,51.548461
Anneville-laan,86,,,4851CD,Ulvenhout,Breda,Noord-Brabant,VBO,4.804774,51.548416
Anneville-laan,88,,,4851CD,Ulvenhout,Breda,Noord-Brabant,VBO,4.804955,51.548374
Anneville-laan,90,,,4851CD,Ulvenhout,Breda,Noord-Brabant,VBO,4.805136,51.548333
Anneville-laan,92,,,4851CD,Ulvenhout,Breda,Noord-Brabant,VBO,4.805244,51.548308
Anneville-laan,94,,,4851CD,Ulvenhout,Breda,Noord-Brabant,VBO,4.805434,51.548265
Anneville-laan,98,,,4851CD,Ulvenhout,Breda,Noord-Brabant,VBO,4.805649,51.548216
Anneville-laan,100,,,4851CE,Ulvenhout,Breda,Noord-Brabant,VBO,4.805958,51.548146
Anneville-laan,106,,,4851CE,Ulvenhout,Breda,Noord-Brabant,VBO,4.806420,51.548010
Anneville-laan,108,,,4851CE,Ulvenhout,Breda,Noord-Brabant,VBO,4.806780,51.547804
Anneville-laan,110,,,4851CE,Ulvenhout,Breda,Noord-Brabant,VBO,4.806964,51.547625
Anneville-laan,112,,,4851CE,Ulvenhout,Breda,Noord-Brabant,VBO,4.807197,51.547456
Anneville-laan,114,,,4851CE,Ulvenhout,Breda,Noord-Brabant,VBO,4.807412,51.547307
Anneville-laan,116,,,4851CE,Ulvenhout,Breda,Noord-Brabant,VBO,4.807626,51.547167
Anneville-laan,118,,,4851CE,Ulvenhout,Breda,Noord-Brabant,VBO,4.808035,51.546854
Anneville-laan,120,,,4851CE,Ulvenhout,Breda,Noord-Brabant,VBO,4.808528,51.546726
Anneville-laan,146,,,4851CE,Ulvenhout,Breda,Noord-Brabant,VBO,4.810270,51.545966
Anneville-laan,152,,,4851CE,Ulvenhout,Breda,Noord-Brabant,VBO,4.810732,51.545762
Anneville-laan,154,,,4851CE,Ulvenhout,Breda,Noord-Brabant,VBO,4.811010,51.545457
Anneville-laan,156,,,4851CE,Ulvenhout,Breda,Noord-Brabant,VBO,4.811333,51.545299
Anneville-laan,64522,,TRD,4851CE,Ulvenhout,Breda,Noord-Brabant,VBO,4.801862,51.549583
Nachtegaalslaantje,5,,,4851CG,Ulvenhout,Breda,Noord-Brabant,VBO,4.796522,51.553149
Dorpstraat,3,,,4851CJ,Ulvenhout,Breda,Noord-Brabant,VBO,4.795553,51.554016
Dorpstraat,5,,,4851CJ,Ulvenhout,Breda,Noord-Brabant,VBO,4.795575,51.553728
Dorpstraat,7,,,4851CJ,Ulvenhout,Breda,Noord-Brabant,VBO,4.795619,51.553656
Dorpstraat,9,,,4851CJ,Ulvenhout,Breda,Noord-Brabant,VBO,4.795657,51.553594
Dorpstraat,11,,,4851CJ,Ulvenhout,Breda,Noord-Brabant,VBO,4.795724,51.553489
Dorpstraat,13,,,4851CJ,Ulvenhout,Breda,Noord-Brabant,VBO,4.795764,51.553427
Dorpstraat,17,A,,4851CJ,Ulvenhout,Breda,Noord-Brabant,VBO,4.795875,51.553308
Dorpstraat,17,B,,4851CJ,Ulvenhout,Breda,Noord-Brabant,VBO,4.795894,51.553281
Dorpstraat,17,C,,4851CJ,Ulvenhout,Breda,Noord-Brabant,VBO,4.795915,51.553318
Dorpstraat,17,D,,4851CJ,Ulvenhout,Breda,Noord-Brabant,VBO,4.795937,51.553288
Dorpstraat,17,,,4851CJ,Ulvenhout,Breda,Noord-Brabant,VBO,4.795839,51.553282
Dorpstraat,19,A,,4851CJ,Ulvenhout,Breda,Noord-Brabant,VBO,4.796018,51.553077
Dorpstraat,19,,,4851CJ,Ulvenhout,Breda,Noord-Brabant,VBO,4.795928,51.553180
Dorpstraat,21,,,4851CJ,Ulvenhout,Breda,Noord-Brabant,VBO,4.796071,51.553033
Dorpstraat,23,,,4851CJ,Ulvenhout,Breda,Noord-Brabant,VBO,4.796133,51.552962
Dorpstraat,25,,,4851CJ,Ulvenhout,Breda,Noord-Brabant,VBO,4.796201,51.552992
Dorpstraat,33,,,4851CJ,Ulvenhout,Breda,Noord-Brabant,VBO,4.796379,51.552849
Dorpstraat,35,,,4851CJ,Ulvenhout,Breda,Noord-Brabant,VBO,4.796533,51.552738
Dorpstraat,37,,,4851CJ,Ulvenhout,Breda,Noord-Brabant,VBO,4.796578,51.552690
Dorpstraat,45,,,4851CJ,Ulvenhout,Breda,Noord-Brabant,VBO,4.797017,51.552331
Dorpstraat,47,B,,4851CJ,Ulvenhout,Breda,Noord-Brabant,VBO,4.797232,51.552214
Dorpstraat,47,C,,4851CJ,Ulvenhout,Breda,Noord-Brabant,VBO,4.797187,51.552163
Dorpstraat,47,,,4851CJ,Ulvenhout,Breda,Noord-Brabant,VBO,4.797059,51.552278
Dorpstraat,49,,,4851CK,Ulvenhout,Breda,Noord-Brabant,VBO,4.797259,51.552088
Dorpstraat,51,A,,4851CK,Ulvenhout,Breda,Noord-Brabant,VBO,4.797354,51.551955
Dorpstraat,51,,,4851CK,Ulvenhout,Breda,Noord-Brabant,VBO,4.797322,51.552001
Dorpstraat,55,,,4851CK,Ulvenhout,Breda,Noord-Brabant,VBO,4.797470,51.551724
Dorpstraat,57,,,4851CK,Ulvenhout,Breda,Noord-Brabant,VBO,4.797506,51.551649
Dorpstraat,59,,,4851CK,Ulvenhout,Breda,Noord-Brabant,VBO,4.797533,51.551590
Dorpstraat,61,,,4851CK,Ulvenhout,Breda,Noord-Brabant,VBO,4.797612,51.551392
Dorpstraat,65,,,4851CK,Ulvenhout,Breda,Noord-Brabant,VBO,4.797691,51.551211
Dorpstraat,67,,,4851CK,Ulvenhout,Breda,Noord-Brabant,VBO,4.797756,51.551085
Dorpstraat,69,,,4851CK,Ulvenhout,Breda,Noord-Brabant,VBO,4.797777,51.550983
Dorpstraat,73,,,4851CK,Ulvenhout,Breda,Noord-Brabant,VBO,4.797785,51.550918
Dorpstraat,77,,,4851CK,Ulvenhout,Breda,Noord-Brabant,VBO,4.797855,51.550723
Dorpstraat,79,,,4851CL,Ulvenhout,Breda,Noord-Brabant,VBO,4.797876,51.550623
Dorpstraat,81,A,,4851CL,Ulvenhout,Breda,Noord-Brabant,VBO,4.797933,51.550386
Dorpstraat,81,B,,4851CL,Ulvenhout,Breda,Noord-Brabant,VBO,4.797943,51.550425
Dorpstraat,81,,,4851CL,Ulvenhout,Breda,Noord-Brabant,VBO,4.797906,51.550497
Dorpstraat,83,,,4851CL,Ulvenhout,Breda,Noord-Brabant,VBO,4.797955,51.550300
Dorpstraat,85,,,4851CL,Ulvenhout,Breda,Noord-Brabant,VBO,4.797970,51.550240
Dorpstraat,87,A,,4851CL,Ulvenhout,Breda,Noord-Brabant,VBO,4.798019,51.550110
Dorpstraat,87,,,4851CL,Ulvenhout,Breda,Noord-Brabant,VBO,4.798007,51.550159
Dorpstraat,89,,,4851CL,Ulvenhout,Breda,Noord-Brabant,VBO,4.798029,51.550037
Dorpstraat,91,,,4851CL,Ulvenhout,Breda,Noord-Brabant,VBO,4.798047,51.549984
Dorpstraat,93,,,4851CL,Ulvenhout,Breda,Noord-Brabant,VBO,4.798066,51.549920
Dorpstraat,95,,,4851CL,Ulvenhout,Breda,Noord-Brabant,VBO,4.798095,51.549851
Dorpstraat,97,,,4851CL,Ulvenhout,Breda,Noord-Brabant,VBO,4.798228,51.549750
Dorpstraat,99,A,,4851CL,Ulvenhout,Breda,Noord-Brabant,VBO,4.798184,51.549404
Dorpstraat,99,B,,4851CL,Ulvenhout,Breda,Noord-Brabant,VBO,4.798244,51.549406
Dorpstraat,99,,,4851CL,Ulvenhout,Breda,Noord-Brabant,VBO,4.798172,51.549521
Dorpstraat,101,,,4851CL,Ulvenhout,Breda,Noord-Brabant,VBO,4.798189,51.549347
Dorpstraat,103,,,4851CL,Ulvenhout,Breda,Noord-Brabant,VBO,4.798199,51.549266
Dorpstraat,105,A,,4851CL,Ulvenhout,Breda,Noord-Brabant,VBO,4.798215,51.549145
Dorpstraat,105,,,4851CL,Ulvenhout,Breda,Noord-Brabant,VBO,4.798211,51.549180
Dorpstraat,107,,,4851CL,Ulvenhout,Breda,Noord-Brabant,VBO,4.798227,51.549063
Dorpstraat,109,,,4851CL,Ulvenhout,Breda,Noord-Brabant,VBO,4.798264,51.548966
Dorpstraat,111,,,4851CL,Ulvenhout,Breda,Noord-Brabant,VBO,4.798391,51.548776
Dorpstraat,113,,,4851CL,Ulvenhout,Breda,Noord-Brabant,VBO,4.798464,51.548614
Dorpstraat,115,,,4851CL,Ulvenhout,Breda,Noord-Brabant,VBO,4.798528,51.548478
Dorpstraat,117,,,4851CL,Ulvenhout,Breda,Noord-Brabant,VBO,4.798558,51.548412
Dorpstraat,119,,,4851CL,Ulvenhout,Breda,Noord-Brabant,VBO,4.798645,51.548233
Dorpstraat,121,,,4851CL,Ulvenhout,Breda,Noord-Brabant,VBO,4.798672,51.548175
Withof,1,,,4851CL,Ulvenhout,Breda,Noord-Brabant,VBO,4.796265,51.551399
Withof,2,,,4851CL,Ulvenhout,Breda,Noord-Brabant,VBO,4.796282,51.551374
Withof,3,,,4851CL,Ulvenhout,Breda,Noord-Brabant,VBO,4.796298,51.551349
Withof,4,,,4851CL,Ulvenhout,Breda,Noord-Brabant,VBO,4.795345,51.551402
Withof,5,,,4851CL,Ulvenhout,Breda,Noord-Brabant,VBO,4.796254,51.551337
Withof,6,,,4851CL,Ulvenhout,Breda,Noord-Brabant,VBO,4.796270,51.551312
Withof,7,,,4851CL,Ulvenhout,Breda,Noord-Brabant,VBO,4.796288,51.551288
Withof,8,,,4851CL,Ulvenhout,Breda,Noord-Brabant,VBO,4.796315,51.551324
Withof,9,,,4851CL,Ulvenhout,Breda,Noord-Brabant,VBO,4.796331,51.551299
Withof,10,,,4851CL,Ulvenhout,Breda,Noord-Brabant,VBO,4.796348,51.551274
Withof,11,,,4851CL,Ulvenhout,Breda,Noord-Brabant,VBO,4.796364,51.551250
Withof,12,,,4851CL,Ulvenhout,Breda,Noord-Brabant,VBO,4.796380,51.551225
Withof,13,,,4851CL,Ulvenhout,Breda,Noord-Brabant,VBO,4.796420,51.551235
Withof,14,,,4851CL,Ulvenhout,Breda,Noord-Brabant,VBO,4.796460,51.551246
Withof,15,,,4851CL,Ulvenhout,Breda,Noord-Brabant,VBO,4.796499,51.551257
Withof,16,,,4851CL,Ulvenhout,Breda,Noord-Brabant,VBO,4.796539,51.551268
Withof,17,,,4851CL,Ulvenhout,Breda,Noord-Brabant,VBO,4.796578,51.551279
Withof,18,,,4851CL,Ulvenhout,Breda,Noord-Brabant,VBO,4.796555,51.551243
Withof,19,,,4851CL,Ulvenhout,Breda,Noord-Brabant,VBO,4.796595,51.551254
Withof,20,,,4851CL,Ulvenhout,Breda,Noord-Brabant,VBO,4.796634,51.551265
Withof,21,,,4851CL,Ulvenhout,Breda,Noord-Brabant,VBO,4.796618,51.551290
Withof,22,,,4851CL,Ulvenhout,Breda,Noord-Brabant,VBO,4.796658,51.551301
Withof,23,,,4851CL,Ulvenhout,Breda,Noord-Brabant,VBO,4.796697,51.551311
Withof,24,,,4851CL,Ulvenhout,Breda,Noord-Brabant,VBO,4.796737,51.551322
Withof,25,,,4851CL,Ulvenhout,Breda,Noord-Brabant,VBO,4.796776,51.551333
Withof,26,,,4851CL,Ulvenhout,Breda,Noord-Brabant,VBO,4.796816,51.551344
Withof,27,,,4851CL,Ulvenhout,Breda,Noord-Brabant,VBO,4.796856,51.551355
Withof,28,,,4851CL,Ulvenhout,Breda,Noord-Brabant,VBO,4.796839,51.551380
Withof,29,,,4851CL,Ulvenhout,Breda,Noord-Brabant,VBO,4.796823,51.551405
Withof,30,,,4851CL,Ulvenhout,Breda,Noord-Brabant,VBO,4.796806,51.551430
Withof,31,,,4851CL,Ulvenhout,Breda,Noord-Brabant,VBO,4.796790,51.551455
Withof,32,,,4851CL,Ulvenhout,Breda,Noord-Brabant,VBO,4.796773,51.551480
Withof,33,,,4851CL,Ulvenhout,Breda,Noord-Brabant,VBO,4.796757,51.551505
Withof,34,,,4851CL,Ulvenhout,Breda,Noord-Brabant,VBO,4.796740,51.551530
Withof,35,,,4851CL,Ulvenhout,Breda,Noord-Brabant,VBO,4.796458,51.551351
Withof,36,,,4851CL,Ulvenhout,Breda,Noord-Brabant,VBO,4.795848,51.551411
Withof,37,,,4851CL,Ulvenhout,Breda,Noord-Brabant,VBO,4.795880,51.551565
Withof,38,,,4851CL,Ulvenhout,Breda,Noord-Brabant,VBO,4.795789,51.551495
Withof,39,,,4851CL,Ulvenhout,Breda,Noord-Brabant,VBO,4.795830,51.551657
Withof,40,,,4851CL,Ulvenhout,Breda,Noord-Brabant,VBO,4.795739,51.551587
Withof,41,,,4851CL,Ulvenhout,Breda,Noord-Brabant,VBO,4.795780,51.551749
Withof,42,,,4851CL,Ulvenhout,Breda,Noord-Brabant,VBO,4.795688,51.551680
Withof,43,,,4851CL,Ulvenhout,Breda,Noord-Brabant,VBO,4.795902,51.551423
Withof,44,,,4851CL,Ulvenhout,Breda,Noord-Brabant,VBO,4.795911,51.551571
Withof,45,,,4851CL,Ulvenhout,Breda,Noord-Brabant,VBO,4.795820,51.551502
Withof,46,,,4851CL,Ulvenhout,Breda,Noord-Brabant,VBO,4.795861,51.551663
Withof,47,,,4851CL,Ulvenhout,Breda,Noord-Brabant,VBO,4.795769,51.551594
Withof,48,,,4851CL,Ulvenhout,Breda,Noord-Brabant,VBO,4.795810,51.551756
Withof,49,,,4851CL,Ulvenhout,Breda,Noord-Brabant,VBO,4.795719,51.551686
Withof,50,,,4851CL,Ulvenhout,Breda,Noord-Brabant,VBO,4.795772,51.551827
Withof,51,,,4851CL,Ulvenhout,Breda,Noord-Brabant,VBO,4.795656,51.551802
Withof,52,,,4851CL,Ulvenhout,Breda,Noord-Brabant,VBO,4.795952,51.551433
Withof,53,,,4851CL,Ulvenhout,Breda,Noord-Brabant,VBO,4.795942,51.551578
Withof,54,,,4851CL,Ulvenhout,Breda,Noord-Brabant,VBO,4.795851,51.551508
Withof,55,,,4851CL,Ulvenhout,Breda,Noord-Brabant,VBO,4.795891,51.551670
Withof,56,,,4851CL,Ulvenhout,Breda,Noord-Brabant,VBO,4.795800,51.551601
Withof,57,,,4851CL,Ulvenhout,Breda,Noord-Brabant,VBO,4.795841,51.551762
Withof,58,,,4851CL,Ulvenhout,Breda,Noord-Brabant,VBO,4.795750,51.551693
Withof,59,,,4851CL,Ulvenhout,Breda,Noord-Brabant,VBO,4.795802,51.551833
Withof,60,,,4851CL,Ulvenhout,Breda,Noord-Brabant,VBO,4.795854,51.551429
Withof,61,A,,4851CL,Ulvenhout,Breda,Noord-Brabant,VBO,4.795535,51.551287
Withof,61,B,,4851CL,Ulvenhout,Breda,Noord-Brabant,VBO,4.795453,51.551270
Withof,61,C,,4851CL,Ulvenhout,Breda,Noord-Brabant,VBO,4.795372,51.551252
Withof,61,D,,4851CL,Ulvenhout,Breda,Noord-Brabant,VBO,4.795290,51.551235
Withof,61,E,,4851CL,Ulvenhout,Breda,Noord-Brabant,VBO,4.795208,51.551218
Withof,62,A,,4851CL,Ulvenhout,Breda,Noord-Brabant,VBO,4.795521,51.551313
Withof,62,B,,4851CL,Ulvenhout,Breda,Noord-Brabant,VBO,4.795440,51.551295
Withof,62,C,,4851CL,Ulvenhout,Breda,Noord-Brabant,VBO,4.795358,51.551278
Withof,62,D,,4851CL,Ulvenhout,Breda,Noord-Brabant,VBO,4.795276,51.551260
Withof,62,E,,4851CL,Ulvenhout,Breda,Noord-Brabant,VBO,4.795194,51.551243
Withof,63,A,,4851CL,Ulvenhout,Breda,Noord-Brabant,VBO,4.795508,51.551338
Withof,63,B,,4851CL,Ulvenhout,Breda,Noord-Brabant,VBO,4.795426,51.551321
Withof,63,C,,4851CL,Ulvenhout,Breda,Noord-Brabant,VBO,4.795344,51.551303
Withof,63,D,,4851CL,Ulvenhout,Breda,Noord-Brabant,VBO,4.795262,51.551286
Withof,63,E,,4851CL,Ulvenhout,Breda,Noord-Brabant,VBO,4.795180,51.551269
Withof,64,A,,4851CL,Ulvenhout,Breda,Noord-Brabant,VBO,4.795494,51.551364
Withof,64,B,,4851CL,Ulvenhout,Breda,Noord-Brabant,VBO,4.795412,51.551346
Withof,64,C,,4851CL,Ulvenhout,Breda,Noord-Brabant,VBO,4.795330,51.551329
Withof,64,D,,4851CL,Ulvenhout,Breda,Noord-Brabant,VBO,4.795248,51.551312
Withof,64,E,,4851CL,Ulvenhout,Breda,Noord-Brabant,VBO,4.795166,51.551294
Dorpstraat,2,,,4851CM,Ulvenhout,Breda,Noord-Brabant,VBO,4.794113,51.554530
Dorpstraat,4,B,,4851CM,Ulvenhout,Breda,Noord-Brabant,VBO,4.794966,51.553958
Dorpstraat,4,,,4851CM,Ulvenhout,Breda,Noord-Brabant,VBO,4.794950,51.554031
Dorpstraat,6,,,4851CM,Ulvenhout,Breda,Noord-Brabant,VBO,4.795073,51.553857
Dorpstraat,8,,,4851CM,Ulvenhout,Breda,Noord-Brabant,VBO,4.795117,51.553795
Dorpstraat,10,A,,4851CM,Ulvenhout,Breda,Noord-Brabant,VBO,4.795184,51.553600
Dorpstraat,10,,,4851CM,Ulvenhout,Breda,Noord-Brabant,VBO,4.795164,51.553715
Dorpstraat,12,,,4851CM,Ulvenhout,Breda,Noord-Brabant,VBO,4.795251,51.553495
Dorpstraat,14,,,4851CM,Ulvenhout,Breda,Noord-Brabant,VBO,4.795306,51.553398
Dorpstraat,16,,,4851CM,Ulvenhout,Breda,Noord-Brabant,VBO,4.795364,51.553328
Dorpstraat,18,,,4851CM,Ulvenhout,Breda,Noord-Brabant,VBO,4.795431,51.553232
Dorpstraat,20,,,4851CM,Ulvenhout,Breda,Noord-Brabant,VBO,4.795453,51.553190
Dorpstraat,22,,,4851CM,Ulvenhout,Breda,Noord-Brabant,VBO,4.795494,51.553136
Dorpstraat,24,,,4851CM,Ulvenhout,Breda,Noord-Brabant,VBO,4.795538,51.553080
Dorpstraat,26,,,4851CM,Ulvenhout,Breda,Noord-Brabant,VBO,4.795581,51.553028
Dorpstraat,28,,,4851CM,Ulvenhout,Breda,Noord-Brabant,VBO,4.795626,51.552985
Dorpstraat,30,,,4851CM,Ulvenhout,Breda,Noord-Brabant,VBO,4.795703,51.552928
Dorpstraat,32,,,4851CM,Ulvenhout,Breda,Noord-Brabant,VBO,4.795757,51.552875
Dorpstraat,34,,,4851CM,Ulvenhout,Breda,Noord-Brabant,VBO,4.795806,51.552829
Dorpstraat,36,,,4851CM,Ulvenhout,Breda,Noord-Brabant,VBO,4.795906,51.552731
Dorpstraat,40,,,4851CM,Ulvenhout,Breda,Noord-Brabant,VBO,4.796665,51.552134
Dorpstraat,42,,,4851CM,Ulvenhout,Breda,Noord-Brabant,VBO,4.796798,51.551903
Dorpstraat,44,A,,4851CM,Ulvenhout,Breda,Noord-Brabant,VBO,4.797040,51.551677
Dorpstraat,44,,,4851CM,Ulvenhout,Breda,Noord-Brabant,VBO,4.796996,51.551709
Dorpstraat,46,A,,4851CM,Ulvenhout,Breda,Noord-Brabant,VBO,4.797025,51.551581
Dorpstraat,46,,,4851CM,Ulvenhout,Breda,Noord-Brabant,VBO,4.797076,51.551593
Dorpstraat,48,,,4851CM,Ulvenhout,Breda,Noord-Brabant,VBO,4.796901,51.551420
Dorpstraat,50,,,4851CM,Ulvenhout,Breda,Noord-Brabant,VBO,4.797316,51.551182
Dorpstraat,52,,,4851CN,Ulvenhout,Breda,Noord-Brabant,VBO,4.797315,51.551026
Dorpstraat,54,,,4851CN,Ulvenhout,Breda,Noord-Brabant,VBO,4.797432,51.550915
Dorpstraat,56,A,,4851CN,Ulvenhout,Breda,Noord-Brabant,VBO,4.797124,51.550786
Dorpstraat,56,B,,4851CN,Ulvenhout,Breda,Noord-Brabant,VBO,4.797417,51.550823
Dorpstraat,56,C,,4851CN,Ulvenhout,Breda,Noord-Brabant,VBO,4.797201,51.550809
Dorpstraat,56,,,4851CN,Ulvenhout,Breda,Noord-Brabant,VBO,4.797463,51.550815
Dorpstraat,58,,,4851CN,Ulvenhout,Breda,Noord-Brabant,VBO,4.797488,51.550730
Dorpstraat,60,,,4851CN,Ulvenhout,Breda,Noord-Brabant,VBO,4.797504,51.550682
Dorpstraat,62,,,4851CN,Ulvenhout,Breda,Noord-Brabant,VBO,4.797530,51.550595
Dorpstraat,64,,,4851CN,Ulvenhout,Breda,Noord-Brabant,VBO,4.797577,51.550441
Dorpstraat,66,A,,4851CN,Ulvenhout,Breda,Noord-Brabant,VBO,4.797576,51.550349
Dorpstraat,66,,,4851CN,Ulvenhout,Breda,Noord-Brabant,VBO,4.797606,51.550358
Dorpstraat,68,,,4851CN,Ulvenhout,Breda,Noord-Brabant,VBO,4.797640,51.550229
Dorpstraat,74,,,4851CN,Ulvenhout,Breda,Noord-Brabant,VBO,4.797771,51.549946
Dorpstraat,78,,,4851CN,Ulvenhout,Breda,Noord-Brabant,VBO,4.797806,51.549792
Dorpstraat,80,,,4851CN,Ulvenhout,Breda,Noord-Brabant,VBO,4.797825,51.549683
Dorpstraat,82,A,,4851CN,Ulvenhout,Breda,Noord-Brabant,VBO,4.797833,51.549582
Dorpstraat,82,,,4851CN,Ulvenhout,Breda,Noord-Brabant,VBO,4.797836,51.549615
Dorpstraat,84,,,4851CN,Ulvenhout,Breda,Noord-Brabant,VBO,4.797846,51.549541
Dorpstraat,86,,,4851CN,Ulvenhout,Breda,Noord-Brabant,VBO,4.797856,51.549477
Dorpstraat,88,,,4851CN,Ulvenhout,Breda,Noord-Brabant,VBO,4.797867,51.549368
Dorpstraat,92,A,,4851CN,Ulvenhout,Breda,Noord-Brabant,VBO,4.797273,51.548770
Dorpstraat,92,,,4851CN,Ulvenhout,Breda,Noord-Brabant,VBO,4.797186,51.548770
Dorpstraat,92,,,4851CN,Ulvenhout,Breda,Noord-Brabant,VBO,4.797313,51.548773
Dorpstraat,94,,,4851CN,Ulvenhout,Breda,Noord-Brabant,VBO,4.797989,51.548686
Dorpsplein,13,A,,4851CP,Ulvenhout,Breda,Noord-Brabant,VBO,4.797257,51.552670
Dorpsplein,13,C,,4851CP,Ulvenhout,Breda,Noord-Brabant,VBO,4.797457,51.552632
Dorpsplein,13,E,,4851CP,Ulvenhout,Breda,Noord-Brabant,VBO,4.797410,51.552551
Dorpsplein,13,G,,4851CP,Ulvenhout,Breda,Noord-Brabant,VBO,4.797261,51.552550
Dorpsplein,13,K,,4851CP,Ulvenhout,Breda,Noord-Brabant,VBO,4.797260,51.552589
Dorpsplein,13,,,4851CP,Ulvenhout,Breda,Noord-Brabant,VBO,4.797185,51.552644
Pastoor Vermuntstraat,1,A,,4851CR,Ulvenhout,Breda,Noord-Brabant,VBO,4.796932,51.551126
Pastoor Vermuntstraat,1,B,,4851CR,Ulvenhout,Breda,Noord-Brabant,VBO,4.796853,51.551011
Pastoor Vermuntstraat,1,C,,4851CR,Ulvenhout,Breda,Noord-Brabant,VBO,4.796702,51.551040
Pastoor Vermuntstraat,1,D,,4851CR,Ulvenhout,Breda,Noord-Brabant,VBO,4.796938,51.551049
Pastoor Vermuntstraat,1,,,4851CR,Ulvenhout,Breda,Noord-Brabant,VBO,4.796366,51.550949
Pastoor Vermuntstraat,3,,,4851CR,Ulvenhout,Breda,Noord-Brabant,VBO,4.796247,51.550917
Pastoor Vermuntstraat,5,,,4851CR,Ulvenhout,Breda,Noord-Brabant,VBO,4.795901,51.550824
Pastoor Vermuntstraat,7,,,4851CR,Ulvenhout,Breda,Noord-Brabant,VBO,4.795775,51.550790
Pastoor Vermuntstraat,9,,,4851CR,Ulvenhout,Breda,Noord-Brabant,VBO,4.795648,51.550756
Pastoor Vermuntstraat,11,,,4851CR,Ulvenhout,Breda,Noord-Brabant,VBO,4.795529,51.550724
Pastoor Vermuntstraat,13,,,4851CR,Ulvenhout,Breda,Noord-Brabant,VBO,4.795376,51.550682
Pastoor Vermuntstraat,15,,,4851CR,Ulvenhout,Breda,Noord-Brabant,VBO,4.795257,51.550650
Pastoor Vermuntstraat,17,,,4851CR,Ulvenhout,Breda,Noord-Brabant,VBO,4.794604,51.550522
Pastoor Vermuntstraat,19,,,4851CR,Ulvenhout,Breda,Noord-Brabant,VBO,4.794469,51.550502
Pastoor Vermuntstraat,21,,,4851CR,Ulvenhout,Breda,Noord-Brabant,VBO,4.794328,51.550481
Pastoor Vermuntstraat,23,,,4851CR,Ulvenhout,Breda,Noord-Brabant,VBO,4.794215,51.550463
Pastoor Vermuntstraat,25,,,4851CR,Ulvenhout,Breda,Noord-Brabant,VBO,4.794031,51.550435
Pastoor Vermuntstraat,27,,,4851CR,Ulvenhout,Breda,Noord-Brabant,VBO,4.793859,51.550410
Pastoor Vermuntstraat,29,,,4851CR,Ulvenhout,Breda,Noord-Brabant,VBO,4.793747,51.550393
Pastoor Vermuntstraat,31,,,4851CR,Ulvenhout,Breda,Noord-Brabant,VBO,4.793593,51.550369
Pastoor Vermuntstraat,8,,,4851CS,Ulvenhout,Breda,Noord-Brabant,VBO,4.794493,51.550725
Pastoor Vermuntstraat,10,,,4851CS,Ulvenhout,Breda,Noord-Brabant,VBO,4.794361,51.550705
Pastoor Vermuntstraat,12,,,4851CS,Ulvenhout,Breda,Noord-Brabant,VBO,4.794214,51.550683
Pastoor Vermuntstraat,14,,,4851CS,Ulvenhout,Breda,Noord-Brabant,VBO,4.794090,51.550664
Pastoor Vermuntstraat,16,,,4851CS,Ulvenhout,Breda,Noord-Brabant,VBO,4.793918,51.550637
Pastoor Vermuntstraat,18,,,4851CS,Ulvenhout,Breda,Noord-Brabant,VBO,4.793749,51.550612
Pastoor Vermuntstraat,20,,,4851CS,Ulvenhout,Breda,Noord-Brabant,VBO,4.793646,51.550596
Pastoor Vermuntstraat,22,,,4851CS,Ulvenhout,Breda,Noord-Brabant,VBO,4.793477,51.550571
Pastoor Lemmensstraat,1,,,4851CT,Ulvenhout,Breda,Noord-Brabant,VBO,4.796317,51.550717
Pastoor Lemmensstraat,3,,,4851CT,Ulvenhout,Breda,Noord-Brabant,VBO,4.796361,51.550630
Pastoor Lemmensstraat,5,,,4851CT,Ulvenhout,Breda,Noord-Brabant,VBO,4.796407,51.550540
Pastoor Lemmensstraat,7,,,4851CT,Ulvenhout,Breda,Noord-Brabant,VBO,4.796431,51.550492
Pastoor Lemmensstraat,9,,,4851CT,Ulvenhout,Breda,Noord-Brabant,VBO,4.796458,51.550439
Pastoor Lemmensstraat,11,,,4851CT,Ulvenhout,Breda,Noord-Brabant,VBO,4.796504,51.550346
Pastoor Lemmensstraat,13,,,4851CT,Ulvenhout,Breda,Noord-Brabant,VBO,4.796535,51.550285
Pastoor Lemmensstraat,15,,,4851CT,Ulvenhout,Breda,Noord-Brabant,VBO,4.796659,51.549911
Pastoor Lemmensstraat,17,,,4851CT,Ulvenhout,Breda,Noord-Brabant,VBO,4.796655,51.549856
Pastoor Lemmensstraat,19,,,4851CT,Ulvenhout,Breda,Noord-Brabant,VBO,4.796656,51.549800
Pastoor Lemmensstraat,21,,,4851CT,Ulvenhout,Breda,Noord-Brabant,VBO,4.796653,51.549705
Pastoor Lemmensstraat,23,,,4851CT,Ulvenhout,Breda,Noord-Brabant,VBO,4.796651,51.549641
Pastoor Lemmensstraat,2,,,4851CV,Ulvenhout,Breda,Noord-Brabant,VBO,4.796014,51.550659
Pastoor Lemmensstraat,4,,,4851CV,Ulvenhout,Breda,Noord-Brabant,VBO,4.796042,51.550603
Pastoor Lemmensstraat,6,,,4851CV,Ulvenhout,Breda,Noord-Brabant,VBO,4.796091,51.550507
Pastoor Lemmensstraat,8,,,4851CV,Ulvenhout,Breda,Noord-Brabant,VBO,4.796118,51.550453
Pastoor Lemmensstraat,10,,,4851CV,Ulvenhout,Breda,Noord-Brabant,VBO,4.796145,51.550399
Pastoor Lemmensstraat,12,,,4851CV,Ulvenhout,Breda,Noord-Brabant,VBO,4.796191,51.550308
Pastoor Lemmensstraat,14,,,4851CV,Ulvenhout,Breda,Noord-Brabant,VBO,4.796222,51.550247
Pastoor Lemmensstraat,16,,,4851CV,Ulvenhout,Breda,Noord-Brabant,VBO,4.796264,51.550163
Pastoor Lemmensstraat,18,,,4851CV,Ulvenhout,Breda,Noord-Brabant,VBO,4.796297,51.550098
Pastoor Lemmensstraat,20,,,4851CV,Ulvenhout,Breda,Noord-Brabant,VBO,4.796327,51.550012
Pastoor Lemmensstraat,22,,,4851CV,Ulvenhout,Breda,Noord-Brabant,VBO,4.796334,51.549947
Mgr. Van Dijkstraat,1,,,4851CW,Ulvenhout,Breda,Noord-Brabant,VBO,4.797134,51.549916
Mgr. Van Dijkstraat,2,,,4851CW,Ulvenhout,Breda,Noord-Brabant,VBO,4.796849,51.550108
Mgr. Van Dijkstraat,3,,,4851CW,Ulvenhout,Breda,Noord-Brabant,VBO,4.797033,51.549914
Mgr. Van Dijkstraat,4,,,4851CW,Ulvenhout,Breda,Noord-Brabant,VBO,4.796748,51.550105
Mgr. Van Dijkstraat,6,,,4851CW,Ulvenhout,Breda,Noord-Brabant,VBO,4.796660,51.550103
Mgr. Van Hooijdonkstraat,1,,,4851CX,Ulvenhout,Breda,Noord-Brabant,VBO,4.795339,51.549188
Mgr. Van Hooijdonkstraat,3,,,4851CX,Ulvenhout,Breda,Noord-Brabant,VBO,4.795154,51.549185
Mgr. Van Hooijdonkstraat,5,,,4851CX,Ulvenhout,Breda,Noord-Brabant,VBO,4.795003,51.549182
Mgr. Van Hooijdonkstraat,7,,,4851CX,Ulvenhout,Breda,Noord-Brabant,VBO,4.794819,51.549179
Mgr. Van Hooijdonkstraat,9,,,4851CX,Ulvenhout,Breda,Noord-Brabant,VBO,4.794528,51.549174
Mgr. Van Hooijdonkstraat,11,,,4851CX,Ulvenhout,Breda,Noord-Brabant,VBO,4.794322,51.549171
Mgr. Van Hooijdonkstraat,13,,,4851CX,Ulvenhout,Breda,Noord-Brabant,VBO,4.794114,51.549167
Mgr. Van Hooijdonkstraat,15,,,4851CX,Ulvenhout,Breda,Noord-Brabant,VBO,4.793912,51.549164
Mgr. Van Hooijdonkstraat,17,,,4851CX,Ulvenhout,Breda,Noord-Brabant,VBO,4.793701,51.549159
Mgr. Van Hooijdonkstraat,2,,,4851CZ,Ulvenhout,Breda,Noord-Brabant,VBO,4.797536,51.549484
Mgr. Van Hooijdonkstraat,4,,,4851CZ,Ulvenhout,Breda,Noord-Brabant,VBO,4.797418,51.549481
Mgr. Van Hooijdonkstraat,8,,,4851CZ,Ulvenhout,Breda,Noord-Brabant,VBO,4.796961,51.549572
Mgr. Van Hooijdonkstraat,10,,,4851CZ,Ulvenhout,Breda,Noord-Brabant,VBO,4.796315,51.549699
Mgr. Van Hooijdonkstraat,12,,,4851CZ,Ulvenhout,Breda,Noord-Brabant,VBO,4.796047,51.549745
Mgr. Van Hooijdonkstraat,14,,,4851CZ,Ulvenhout,Breda,Noord-Brabant,VBO,4.795826,51.549783
Mgr. Van Hooijdonkstraat,16,,,4851CZ,Ulvenhout,Breda,Noord-Brabant,VBO,4.795693,51.549805
Mgr. Van Hooijdonkstraat,18,,,4851CZ,Ulvenhout,Breda,Noord-Brabant,VBO,4.795541,51.549831
Mgr. Van Hooijdonkstraat,20,,,4851CZ,Ulvenhout,Breda,Noord-Brabant,VBO,4.795194,51.549598
Mgr. Van Hooijdonkstraat,22,,,4851CZ,Ulvenhout,Breda,Noord-Brabant,VBO,4.794898,51.549587
Mgr. Van Hooijdonkstraat,24,,,4851CZ,Ulvenhout,Breda,Noord-Brabant,VBO,4.794762,51.549578
Mgr. Van Hooijdonkstraat,26,,,4851CZ,Ulvenhout,Breda,Noord-Brabant,VBO,4.794579,51.549567
Mgr. Van Hooijdonkstraat,28,,,4851CZ,Ulvenhout,Breda,Noord-Brabant,VBO,4.794389,51.549554
Mgr. Van Hooijdonkstraat,30,,,4851CZ,Ulvenhout,Breda,Noord-Brabant,VBO,4.794238,51.549544
Mgr. Van Hooijdonkstraat,32,,,4851CZ,Ulvenhout,Breda,Noord-Brabant,VBO,4.794048,51.549532
Slotlaan,1,,,4851EA,Ulvenhout,Breda,Noord-Brabant,VBO,4.793901,51.553609
Slotlaan,3,,,4851EA,Ulvenhout,Breda,Noord-Brabant,VBO,4.794049,51.553380
Slotlaan,5,,,4851EA,Ulvenhout,Breda,Noord-Brabant,VBO,4.794095,51.553196
Slotlaan,7,,,4851EA,Ulvenhout,Breda,Noord-Brabant,VBO,4.794184,51.552893
Slotlaan,9,,,4851EA,Ulvenhout,Breda,Noord-Brabant,VBO,4.794258,51.552707
Slotlaan,11,,,4851EA,Ulvenhout,Breda,Noord-Brabant,VBO,4.794340,51.552507
Slotlaan,15,,,4851EA,Ulvenhout,Breda,Noord-Brabant,VBO,4.795096,51.551614
Slotlaan,21,,,4851EA,Ulvenhout,Breda,Noord-Brabant,VBO,4.795337,51.550464
Slotlaan,23,,,4851EA,Ulvenhout,Breda,Noord-Brabant,VBO,4.795369,51.550374
Slotlaan,25,,,4851EA,Ulvenhout,Breda,Noord-Brabant,VBO,4.795402,51.550284
Slotlaan,27,,,4851EA,Ulvenhout,Breda,Noord-Brabant,VBO,4.795427,51.550212
Slotlaan,29,,,4851EA,Ulvenhout,Breda,Noord-Brabant,VBO,4.795450,51.550148
Slotlaan,31,,,4851EA,Ulvenhout,Breda,Noord-Brabant,VBO,4.795486,51.550049
Slotlaan,33,,,4851EA,Ulvenhout,Breda,Noord-Brabant,VBO,4.795513,51.549974
Slotlaan,35,,,4851EA,Ulvenhout,Breda,Noord-Brabant,VBO,4.796034,51.547800
Slotlaan,37,,,4851EA,Ulvenhout,Breda,Noord-Brabant,VBO,4.796026,51.547725
Slotlaan,39,,,4851EA,Ulvenhout,Breda,Noord-Brabant,VBO,4.796015,51.547611
Slotlaan,41,,,4851EA,Ulvenhout,Breda,Noord-Brabant,VBO,4.796002,51.547477
Slotlaan,43,,,4851EA,Ulvenhout,Breda,Noord-Brabant,VBO,4.795990,51.547366
Slotlaan,45,,,4851EA,Ulvenhout,Breda,Noord-Brabant,VBO,4.795979,51.547260
Slotlaan,47,,,4851EC,Ulvenhout,Breda,Noord-Brabant,VBO,4.795910,51.546988
Slotlaan,49,,,4851EC,Ulvenhout,Breda,Noord-Brabant,VBO,4.795898,51.546919
Slotlaan,51,,,4851EC,Ulvenhout,Breda,Noord-Brabant,VBO,4.795882,51.546824
Slotlaan,53,,,4851EC,Ulvenhout,Breda,Noord-Brabant,VBO,4.795865,51.546725
Slotlaan,55,,,4851EC,Ulvenhout,Breda,Noord-Brabant,VBO,4.795844,51.546626
Slotlaan,57,,,4851EC,Ulvenhout,Breda,Noord-Brabant,VBO,4.795828,51.546550
Slotlaan,59,,,4851EC,Ulvenhout,Breda,Noord-Brabant,VBO,4.795808,51.546455
Slotlaan,61,,,4851EC,Ulvenhout,Breda,Noord-Brabant,VBO,4.795789,51.546365
Slotlaan,63,,,4851EC,Ulvenhout,Breda,Noord-Brabant,VBO,4.795768,51.546275
Slotlaan,65,,,4851EC,Ulvenhout,Breda,Noord-Brabant,VBO,4.795749,51.546194
Slotlaan,67,,,4851EC,Ulvenhout,Breda,Noord-Brabant,VBO,4.795721,51.546085
Slotlaan,69,,,4851EC,Ulvenhout,Breda,Noord-Brabant,VBO,4.795684,51.545950
Slotlaan,71,,,4851EC,Ulvenhout,Breda,Noord-Brabant,VBO,4.795643,51.545814
Slotlaan,73,,,4851EC,Ulvenhout,Breda,Noord-Brabant,VBO,4.795599,51.545692
Slotlaan,75,,,4851EC,Ulvenhout,Breda,Noord-Brabant,VBO,4.795544,51.545552
Slotlaan,79,,,4851EC,Ulvenhout,Breda,Noord-Brabant,VBO,4.795132,51.544837
Slotlaan,81,,,4851EC,Ulvenhout,Breda,Noord-Brabant,VBO,4.795076,51.544760
Slotlaan,83,,,4851EC,Ulvenhout,Breda,Noord-Brabant,VBO,4.794997,51.544652
Slotlaan,85,,,4851EC,Ulvenhout,Breda,Noord-Brabant,VBO,4.795065,51.543310
Slotlaan,2,,,4851ED,Ulvenhout,Breda,Noord-Brabant,VBO,4.793591,51.553272
Slotlaan,4,,,4851ED,Ulvenhout,Breda,Noord-Brabant,VBO,4.793649,51.553123
Slotlaan,6,,,4851ED,Ulvenhout,Breda,Noord-Brabant,VBO,4.793695,51.552952
Slotlaan,8,,,4851ED,Ulvenhout,Breda,Noord-Brabant,VBO,4.793783,51.552788
Slotlaan,10,,,4851ED,Ulvenhout,Breda,Noord-Brabant,VBO,4.793883,51.552464
Slotlaan,12,,,4851ED,Ulvenhout,Breda,Noord-Brabant,VBO,4.793966,51.552259
Slotlaan,16,,,4851ED,Ulvenhout,Breda,Noord-Brabant,VBO,4.794148,51.551904
Slotlaan,18,,,4851ED,Ulvenhout,Breda,Noord-Brabant,VBO,4.794259,51.551683
Slotlaan,20,,,4851ED,Ulvenhout,Breda,Noord-Brabant,VBO,4.794352,51.551422
Slotlaan,24,,,4851ED,Ulvenhout,Breda,Noord-Brabant,VBO,4.794581,51.551139
Slotlaan,26,,,4851ED,Ulvenhout,Breda,Noord-Brabant,VBO,4.794618,51.551077
Slotlaan,28,,,4851ED,Ulvenhout,Breda,Noord-Brabant,VBO,4.794692,51.550990
Slotlaan,30,,,4851ED,Ulvenhout,Breda,Noord-Brabant,VBO,4.794733,51.550921
Slotlaan,32,,,4851ED,Ulvenhout,Breda,Noord-Brabant,VBO,4.794802,51.550806
Slotlaan,34,,,4851ED,Ulvenhout,Breda,Noord-Brabant,VBO,4.794906,51.550576
Slotlaan,36,,,4851ED,Ulvenhout,Breda,Noord-Brabant,VBO,4.794938,51.550487
Slotlaan,38,,,4851ED,Ulvenhout,Breda,Noord-Brabant,VBO,4.794973,51.550391
Slotlaan,40,,,4851ED,Ulvenhout,Breda,Noord-Brabant,VBO,4.795021,51.550259
Slotlaan,46,,,4851ED,Ulvenhout,Breda,Noord-Brabant,VBO,4.795132,51.549953
Slotlaan,48,,,4851ED,Ulvenhout,Breda,Noord-Brabant,VBO,4.795166,51.549858
Slotlaan,50,,,4851ED,Ulvenhout,Breda,Noord-Brabant,VBO,4.795197,51.549771
Slotlaan,52,,,4851ED,Ulvenhout,Breda,Noord-Brabant,VBO,4.795187,51.549683
Slotlaan,54,,,4851ED,Ulvenhout,Breda,Noord-Brabant,VBO,4.795436,51.548948
Slotlaan,56,,,4851ED,Ulvenhout,Breda,Noord-Brabant,VBO,4.795475,51.548819
Slotlaan,58,,,4851ED,Ulvenhout,Breda,Noord-Brabant,VBO,4.795514,51.548691
Slotlaan,60,,,4851EE,Ulvenhout,Breda,Noord-Brabant,VBO,4.795552,51.548562
Slotlaan,62,A,,4851EE,Ulvenhout,Breda,Noord-Brabant,VBO,4.795619,51.548164
Slotlaan,62,,,4851EE,Ulvenhout,Breda,Noord-Brabant,VBO,4.795589,51.548436
Slotlaan,64,,,4851EE,Ulvenhout,Breda,Noord-Brabant,VBO,4.795592,51.547860
Slotlaan,66,,,4851EE,Ulvenhout,Breda,Noord-Brabant,VBO,4.795578,51.547729
Slotlaan,68,,,4851EE,Ulvenhout,Breda,Noord-Brabant,VBO,4.795564,51.547602
Slotlaan,70,,,4851EE,Ulvenhout,Breda,Noord-Brabant,VBO,4.795549,51.547444
Slotlaan,72,,,4851EE,Ulvenhout,Breda,Noord-Brabant,VBO,4.795449,51.546769
Slotlaan,74,,,4851EE,Ulvenhout,Breda,Noord-Brabant,VBO,4.795436,51.546695
Slotlaan,76,,,4851EE,Ulvenhout,Breda,Noord-Brabant,VBO,4.795414,51.546587
Slotlaan,78,,,4851EE,Ulvenhout,Breda,Noord-Brabant,VBO,4.795397,51.546507
Slotlaan,80,,,4851EE,Ulvenhout,Breda,Noord-Brabant,VBO,4.795370,51.546392
Slotlaan,82,,,4851EE,Ulvenhout,Breda,Noord-Brabant,VBO,4.795344,51.546280
Slotlaan,84,,,4851EE,Ulvenhout,Breda,Noord-Brabant,VBO,4.795327,51.546210
Slotlaan,86,,,4851EE,Ulvenhout,Breda,Noord-Brabant,VBO,4.795268,51.545993
Slotlaan,88,,,4851EE,Ulvenhout,Breda,Noord-Brabant,VBO,4.795167,51.545707
Slotlaan,90,,,4851EE,Ulvenhout,Breda,Noord-Brabant,VBO,4.795126,51.545590
Slotlaan,92,,,4851EE,Ulvenhout,Breda,Noord-Brabant,VBO,4.795055,51.545465
Slotlaan,94,,,4851EE,Ulvenhout,Breda,Noord-Brabant,VBO,4.795009,51.545340
Slotlaan,96,,,4851EE,Ulvenhout,Breda,Noord-Brabant,VBO,4.794805,51.545044
Slotlaan,98,,,4851EE,Ulvenhout,Breda,Noord-Brabant,VBO,4.794695,51.544891
Slotlaan,100,,,4851EE,Ulvenhout,Breda,Noord-Brabant,VBO,4.794589,51.544746
Slotlaan,102,,,4851EE,Ulvenhout,Breda,Noord-Brabant,VBO,4.794431,51.544549
Slotlaan,104,A,,4851EE,Ulvenhout,Breda,Noord-Brabant,VBO,4.793438,51.543495
Slotlaan,104,B,,4851EE,Ulvenhout,Breda,Noord-Brabant,VBO,4.793294,51.543505
Slotlaan,104,,,4851EE,Ulvenhout,Breda,Noord-Brabant,VBO,4.794240,51.543738
Slotlaan,106,A,,4851EE,Ulvenhout,Breda,Noord-Brabant,VBO,4.794533,51.543464
Slotlaan,106,,,4851EE,Ulvenhout,Breda,Noord-Brabant,VBO,4.793999,51.543531
Slotlaan,108,,,4851EE,Ulvenhout,Breda,Noord-Brabant,VBO,4.794619,51.543374
Slotlaan,110,,,4851EE,Ulvenhout,Breda,Noord-Brabant,VBO,4.794690,51.543237
Slotlaan,112,,,4851EE,Ulvenhout,Breda,Noord-Brabant,VBO,4.794774,51.543134
Vallei,1,,,4851EG,Ulvenhout,Breda,Noord-Brabant,VBO,4.793018,51.544787
Vallei,2,,,4851EG,Ulvenhout,Breda,Noord-Brabant,VBO,4.793546,51.544704
Vallei,3,,,4851EG,Ulvenhout,Breda,Noord-Brabant,VBO,4.794194,51.544560
Vallei,4,,,4851EG,Ulvenhout,Breda,Noord-Brabant,VBO,4.794837,51.544414
Vallei,5,,,4851EG,Ulvenhout,Breda,Noord-Brabant,VBO,4.795215,51.544326
Markdal,1,A,,4851EH,Ulvenhout,Breda,Noord-Brabant,VBO,4.794490,51.553902
Markdal,1,,,4851EH,Ulvenhout,Breda,Noord-Brabant,VBO,4.794377,51.553861
Markdal,2,,,4851EH,Ulvenhout,Breda,Noord-Brabant,VBO,4.794185,51.553804
Markdal,3,,,4851EH,Ulvenhout,Breda,Noord-Brabant,VBO,4.793907,51.553730
Markdal,4,,,4851EH,Ulvenhout,Breda,Noord-Brabant,VBO,4.793411,51.553566
Markdal,5,,,4851EH,Ulvenhout,Breda,Noord-Brabant,VBO,4.793145,51.553487
Markdal,6,,,4851EH,Ulvenhout,Breda,Noord-Brabant,VBO,4.792816,51.553369
Markdal,7,,,4851EH,Ulvenhout,Breda,Noord-Brabant,VBO,4.792835,51.553086
Markdal,8,,,4851EH,Ulvenhout,Breda,Noord-Brabant,VBO,4.792817,51.552869
Markdal,9,,,4851EH,Ulvenhout,Breda,Noord-Brabant,VBO,4.792982,51.552538
Markdal,10,,,4851EH,Ulvenhout,Breda,Noord-Brabant,VBO,4.792939,51.552277
Markdal,11,A,,4851EH,Ulvenhout,Breda,Noord-Brabant,VBO,4.793372,51.551678
Markdal,11,B,,4851EH,Ulvenhout,Breda,Noord-Brabant,VBO,4.793383,51.551303
Markdal,11,,,4851EH,Ulvenhout,Breda,Noord-Brabant,VBO,4.793017,51.551981
Markdal,12,,,4851EH,Ulvenhout,Breda,Noord-Brabant,VBO,4.793110,51.550620
Markdal,13,,,4851EH,Ulvenhout,Breda,Noord-Brabant,VBO,4.793263,51.550274
Markdal,14,,,4851EH,Ulvenhout,Breda,Noord-Brabant,VBO,4.793343,51.550085
Markdal,15,,,4851EH,Ulvenhout,Breda,Noord-Brabant,VBO,4.793470,51.549784
Markdal,16,,,4851EH,Ulvenhout,Breda,Noord-Brabant,VBO,4.793578,51.549528
Markdal,17,,,4851EJ,Ulvenhout,Breda,Noord-Brabant,VBO,4.793210,51.548796
Markdal,18,,,4851EJ,Ulvenhout,Breda,Noord-Brabant,VBO,4.792651,51.548702
Markdal,19,,,4851EJ,Ulvenhout,Breda,Noord-Brabant,VBO,4.792686,51.548500
Markdal,20,,,4851EJ,Ulvenhout,Breda,Noord-Brabant,VBO,4.792675,51.548319
Markdal,21,,,4851EJ,Ulvenhout,Breda,Noord-Brabant,VBO,4.792703,51.548135
Markdal,22,,,4851EJ,Ulvenhout,Breda,Noord-Brabant,VBO,4.792683,51.547885
Markdal,23,,,4851EJ,Ulvenhout,Breda,Noord-Brabant,VBO,4.792690,51.547747
Markdal,24,,,4851EJ,Ulvenhout,Breda,Noord-Brabant,VBO,4.792751,51.547502
Markdal,25,,,4851EJ,Ulvenhout,Breda,Noord-Brabant,VBO,4.792715,51.547315
Markdal,26,,,4851EJ,Ulvenhout,Breda,Noord-Brabant,VBO,4.792755,51.547123
Markdal,27,,,4851EJ,Ulvenhout,Breda,Noord-Brabant,VBO,4.792747,51.546856
Markdal,28,,,4851EJ,Ulvenhout,Breda,Noord-Brabant,VBO,4.792761,51.546644
Markdal,29,,,4851EJ,Ulvenhout,Breda,Noord-Brabant,VBO,4.792861,51.546326
Markdal,30,,,4851EJ,Ulvenhout,Breda,Noord-Brabant,VBO,4.792834,51.546085
Markdal,31,,,4851EJ,Ulvenhout,Breda,Noord-Brabant,VBO,4.792827,51.545894
Markdal,32,,,4851EJ,Ulvenhout,Breda,Noord-Brabant,VBO,4.792828,51.545743
Markdal,33,,,4851EJ,Ulvenhout,Breda,Noord-Brabant,VBO,4.792827,51.545501
Markdal,34,,,4851EJ,Ulvenhout,Breda,Noord-Brabant,VBO,4.792838,51.545238
Markdal,35,,,4851EJ,Ulvenhout,Breda,Noord-Brabant,VBO,4.792846,51.545067
Jan van de Lekstraat,1,,,4851EK,Ulvenhout,Breda,Noord-Brabant,VBO,4.793529,51.552492
Jan van de Lekstraat,2,,,4851EK,Ulvenhout,Breda,Noord-Brabant,VBO,4.793329,51.552776
Jan van de Lekstraat,3,,,4851EK,Ulvenhout,Breda,Noord-Brabant,VBO,4.793228,51.552503
Jan van de Lekstraat,4,,,4851EK,Ulvenhout,Breda,Noord-Brabant,VBO,4.793218,51.552770
Laurentiusstraat,2,A,,4851EL,Ulvenhout,Breda,Noord-Brabant,VBO,4.795326,51.552605
Laurentiusstraat,2,,,4851EL,Ulvenhout,Breda,Noord-Brabant,VBO,4.795154,51.552599
Laurentiusstraat,3,,A1,4851EL,Ulvenhout,Breda,Noord-Brabant,VBO,4.794953,51.552161
Laurentiusstraat,3,,A2,4851EL,Ulvenhout,Breda,Noord-Brabant,VBO,4.794930,51.552154
Laurentiusstraat,3,,A3,4851EL,Ulvenhout,Breda,Noord-Brabant,VBO,4.794904,51.552146
Laurentiusstraat,3,,A4,4851EL,Ulvenhout,Breda,Noord-Brabant,VBO,4.794869,51.552135
Laurentiusstraat,3,,A5,4851EL,Ulvenhout,Breda,Noord-Brabant,VBO,4.794843,51.552128
Laurentiusstraat,3,,A6,4851EL,Ulvenhout,Breda,Noord-Brabant,VBO,4.794817,51.552120
Laurentiusstraat,3,,A7,4851EL,Ulvenhout,Breda,Noord-Brabant,VBO,4.794793,51.552113
Laurentiusstraat,4,,,4851EL,Ulvenhout,Breda,Noord-Brabant,VBO,4.794793,51.552727
Laurentiusstraat,5,,B1,4851EL,Ulvenhout,Breda,Noord-Brabant,VBO,4.794712,51.552092
Laurentiusstraat,5,,B2,4851EL,Ulvenhout,Breda,Noord-Brabant,VBO,4.794685,51.552082
Laurentiusstraat,5,,B3,4851EL,Ulvenhout,Breda,Noord-Brabant,VBO,4.794620,51.552065
Laurentiusstraat,5,,B4,4851EL,Ulvenhout,Breda,Noord-Brabant,VBO,4.794632,51.552047
Laurentiusstraat,5,,B5,4851EL,Ulvenhout,Breda,Noord-Brabant,VBO,4.794650,51.552034
Laurentiusstraat,5,,B6,4851EL,Ulvenhout,Breda,Noord-Brabant,VBO,4.794659,51.552017
Laurentiusstraat,5,,B7,4851EL,Ulvenhout,Breda,Noord-Brabant,VBO,4.794675,51.552001
Laurentiusstraat,5,,B8,4851EL,Ulvenhout,Breda,Noord-Brabant,VBO,4.794688,51.551982
Laurentiusstraat,6,,,4851EL,Ulvenhout,Breda,Noord-Brabant,VBO,4.794756,51.552468
Laurentiusstraat,7,,C1,4851EL,Ulvenhout,Breda,Noord-Brabant,VBO,4.795056,51.552070
Laurentiusstraat,7,,C2,4851EL,Ulvenhout,Breda,Noord-Brabant,VBO,4.795028,51.552062
Laurentiusstraat,7,,C3,4851EL,Ulvenhout,Breda,Noord-Brabant,VBO,4.795002,51.552055
Laurentiusstraat,7,,C4,4851EL,Ulvenhout,Breda,Noord-Brabant,VBO,4.794976,51.552046
Laurentiusstraat,7,,C5,4851EL,Ulvenhout,Breda,Noord-Brabant,VBO,4.794942,51.552036
Laurentiusstraat,7,,C6,4851EL,Ulvenhout,Breda,Noord-Brabant,VBO,4.794917,51.552030
Laurentiusstraat,7,,C7,4851EL,Ulvenhout,Breda,Noord-Brabant,VBO,4.794889,51.552021
Laurentiusstraat,7,,C8,4851EL,Ulvenhout,Breda,Noord-Brabant,VBO,4.794864,51.552014
Laurentiusstraat,8,,,4851EL,Ulvenhout,Breda,Noord-Brabant,VBO,4.794530,51.552398
Laurentiusstraat,10,,,4851EL,Ulvenhout,Breda,Noord-Brabant,VBO,4.793447,51.552196
Laurentiusstraat,11,,,4851EL,Ulvenhout,Breda,Noord-Brabant,VBO,4.793700,51.551810
Jan de Wijsestraat,1,,,4851EM,Ulvenhout,Breda,Noord-Brabant,VBO,4.794231,51.551077
Jan de Wijsestraat,2,,,4851EM,Ulvenhout,Breda,Noord-Brabant,VBO,4.793877,51.551325
Jan de Wijsestraat,3,,,4851EM,Ulvenhout,Breda,Noord-Brabant,VBO,4.794070,51.551051
Jan de Wijsestraat,5,,,4851EM,Ulvenhout,Breda,Noord-Brabant,VBO,4.793940,51.551030
Jan de Wijsestraat,7,,,4851EM,Ulvenhout,Breda,Noord-Brabant,VBO,4.793772,51.551003
Jan de Wijsestraat,9,,,4851EM,Ulvenhout,Breda,Noord-Brabant,VBO,4.793612,51.550978
Jan de Wijsestraat,11,,,4851EM,Ulvenhout,Breda,Noord-Brabant,VBO,4.793484,51.550957
Jan de Wijsestraat,13,,,4851EM,Ulvenhout,Breda,Noord-Brabant,VBO,4.793318,51.550930
Jan de Wijsestraat,15,,,4851EM,Ulvenhout,Breda,Noord-Brabant,VBO,4.793072,51.550863
Deken Fickstraat,1,,,4851EN,Ulvenhout,Breda,Noord-Brabant,VBO,4.795105,51.550018
Deken Fickstraat,2,,,4851EN,Ulvenhout,Breda,Noord-Brabant,VBO,4.794922,51.550203
Deken Fickstraat,3,,,4851EN,Ulvenhout,Breda,Noord-Brabant,VBO,4.794802,51.549967
Deken Fickstraat,4,,,4851EN,Ulvenhout,Breda,Noord-Brabant,VBO,4.794728,51.550178
Deken Fickstraat,5,,,4851EN,Ulvenhout,Breda,Noord-Brabant,VBO,4.794667,51.549950
Deken Fickstraat,6,,,4851EN,Ulvenhout,Breda,Noord-Brabant,VBO,4.794585,51.550160
Deken Fickstraat,7,,,4851EN,Ulvenhout,Breda,Noord-Brabant,VBO,4.794526,51.549932
Deken Fickstraat,8,,,4851EN,Ulvenhout,Breda,Noord-Brabant,VBO,4.794454,51.550144
Deken Fickstraat,9,,,4851EN,Ulvenhout,Breda,Noord-Brabant,VBO,4.794382,51.549913
Deken Fickstraat,10,,,4851EN,Ulvenhout,Breda,Noord-Brabant,VBO,4.794308,51.550125
Deken Fickstraat,11,,,4851EN,Ulvenhout,Breda,Noord-Brabant,VBO,4.794244,51.549896
Deken Fickstraat,12,,,4851EN,Ulvenhout,Breda,Noord-Brabant,VBO,4.794180,51.550109
Deken Fickstraat,13,,,4851EN,Ulvenhout,Breda,Noord-Brabant,VBO,4.794113,51.549879
Deken Fickstraat,14,,,4851EN,Ulvenhout,Breda,Noord-Brabant,VBO,4.794034,51.550091
Deken Fickstraat,15,,,4851EN,Ulvenhout,Breda,Noord-Brabant,VBO,4.793971,51.549861
Deken Fickstraat,16,,,4851EN,Ulvenhout,Breda,Noord-Brabant,VBO,4.793873,51.550071
Deken Fickstraat,17,,,4851EN,Ulvenhout,Breda,Noord-Brabant,VBO,4.793843,51.549845
Deken Fickstraat,18,,,4851EN,Ulvenhout,Breda,Noord-Brabant,VBO,4.793686,51.550047
Vinkenbos,1,,,4851EP,Ulvenhout,Breda,Noord-Brabant,VBO,4.793718,51.548865
Vinkenbos,3,,,4851EP,Ulvenhout,Breda,Noord-Brabant,VBO,4.793728,51.548753
Vinkenbos,5,,,4851EP,Ulvenhout,Breda,Noord-Brabant,VBO,4.793736,51.548670
Vinkenbos,7,,,4851EP,Ulvenhout,Breda,Noord-Brabant,VBO,4.793749,51.548559
Vinkenbos,9,,,4851EP,Ulvenhout,Breda,Noord-Brabant,VBO,4.793762,51.548427
Vinkenbos,11,,,4851EP,Ulvenhout,Breda,Noord-Brabant,VBO,4.793774,51.548310
Vinkenbos,13,,,4851EP,Ulvenhout,Breda,Noord-Brabant,VBO,4.793839,51.547789
Vinkenbos,15,,,4851EP,Ulvenhout,Breda,Noord-Brabant,VBO,4.793844,51.547616
Vinkenbos,17,,,4851EP,Ulvenhout,Breda,Noord-Brabant,VBO,4.793862,51.547447
Vinkenbos,19,,,4851EP,Ulvenhout,Breda,Noord-Brabant,VBO,4.793877,51.546788
Vinkenbos,21,,,4851EP,Ulvenhout,Breda,Noord-Brabant,VBO,4.793881,51.546680
Vinkenbos,23,,,4851EP,Ulvenhout,Breda,Noord-Brabant,VBO,4.793885,51.546601
Vinkenbos,25,,,4851EP,Ulvenhout,Breda,Noord-Brabant,VBO,4.793887,51.546508
Vinkenbos,27,,,4851EP,Ulvenhout,Breda,Noord-Brabant,VBO,4.793891,51.546428
Vinkenbos,29,,,4851EP,Ulvenhout,Breda,Noord-Brabant,VBO,4.793895,51.546314
Vinkenbos,33,,,4851EP,Ulvenhout,Breda,Noord-Brabant,VBO,4.793918,51.545667
Vinkenbos,35,,,4851EP,Ulvenhout,Breda,Noord-Brabant,VBO,4.793924,51.545546
Vinkenbos,37,,,4851EP,Ulvenhout,Breda,Noord-Brabant,VBO,4.793930,51.545384
Vinkenbos,39,,,4851EP,Ulvenhout,Breda,Noord-Brabant,VBO,4.793940,51.545098
Vinkenbos,41,,,4851EP,Ulvenhout,Breda,Noord-Brabant,VBO,4.793943,51.545017
Vinkenbos,43,,,4851EP,Ulvenhout,Breda,Noord-Brabant,VBO,4.793947,51.544921
Vinkenbos,45,,,4851EP,Ulvenhout,Breda,Noord-Brabant,VBO,4.793951,51.544829
Vinkenbos,47,,,4851EP,Ulvenhout,Breda,Noord-Brabant,VBO,4.793982,51.544623
Vinkenbos,2,,,4851ER,Ulvenhout,Breda,Noord-Brabant,VBO,4.793301,51.548535
Vinkenbos,4,,,4851ER,Ulvenhout,Breda,Noord-Brabant,VBO,4.793290,51.548328
Vinkenbos,6,,,4851ER,Ulvenhout,Breda,Noord-Brabant,VBO,4.793278,51.548096
Vinkenbos,8,,,4851ER,Ulvenhout,Breda,Noord-Brabant,VBO,4.793342,51.547845
Vinkenbos,10,,,4851ER,Ulvenhout,Breda,Noord-Brabant,VBO,4.793388,51.547687
Vinkenbos,12,,,4851ER,Ulvenhout,Breda,Noord-Brabant,VBO,4.793396,51.547469
Vinkenbos,14,,,4851ER,Ulvenhout,Breda,Noord-Brabant,VBO,4.793387,51.547274
Vinkenbos,14,,,4851ER,Ulvenhout,Breda,Noord-Brabant,VBO,4.793374,51.547318
Vinkenbos,16,,,4851ER,Ulvenhout,Breda,Noord-Brabant,VBO,4.793444,51.547097
Vinkenbos,18,,,4851ER,Ulvenhout,Breda,Noord-Brabant,VBO,4.793452,51.546900
Vinkenbos,20,,,4851ER,Ulvenhout,Breda,Noord-Brabant,VBO,4.793449,51.546744
Vinkenbos,22,,,4851ER,Ulvenhout,Breda,Noord-Brabant,VBO,4.793472,51.546379
Vinkenbos,24,,,4851ER,Ulvenhout,Breda,Noord-Brabant,VBO,4.793479,51.546196
Vinkenbos,26,,,4851ER,Ulvenhout,Breda,Noord-Brabant,VBO,4.793486,51.546015
Vinkenbos,28,,,4851ER,Ulvenhout,Breda,Noord-Brabant,VBO,4.793478,51.545834
Vinkenbos,30,,,4851ER,Ulvenhout,Breda,Noord-Brabant,VBO,4.793471,51.545626
Vinkenbos,32,,,4851ER,Ulvenhout,Breda,Noord-Brabant,VBO,4.793509,51.545416
Vinkenbos,34,,,4851ER,Ulvenhout,Breda,Noord-Brabant,VBO,4.793488,51.545218
Vinkenbos,36,,,4851ER,Ulvenhout,Breda,Noord-Brabant,VBO,4.793526,51.544983
Vogelsanck,1,,,4851ES,Ulvenhout,Breda,Noord-Brabant,VBO,4.795183,51.547861
Vogelsanck,3,,,4851ES,Ulvenhout,Breda,Noord-Brabant,VBO,4.795037,51.547856
Vogelsanck,4,,,4851ES,Ulvenhout,Breda,Noord-Brabant,VBO,4.795437,51.548131
Vogelsanck,5,,,4851ES,Ulvenhout,Breda,Noord-Brabant,VBO,4.794900,51.547852
Vogelsanck,6,,,4851ES,Ulvenhout,Breda,Noord-Brabant,VBO,4.795281,51.548126
Vogelsanck,7,,,4851ES,Ulvenhout,Breda,Noord-Brabant,VBO,4.794749,51.547847
Vogelsanck,8,,,4851ES,Ulvenhout,Breda,Noord-Brabant,VBO,4.795145,51.548122
Vogelsanck,9,,,4851ES,Ulvenhout,Breda,Noord-Brabant,VBO,4.794608,51.547842
Vogelsanck,10,,,4851ES,Ulvenhout,Breda,Noord-Brabant,VBO,4.795000,51.548117
Vogelsanck,11,,,4851ES,Ulvenhout,Breda,Noord-Brabant,VBO,4.794473,51.547838
Vogelsanck,12,,,4851ES,Ulvenhout,Breda,Noord-Brabant,VBO,4.794855,51.548113
Vogelsanck,13,,,4851ES,Ulvenhout,Breda,Noord-Brabant,VBO,4.794325,51.547833
Vogelsanck,14,,,4851ES,Ulvenhout,Breda,Noord-Brabant,VBO,4.794694,51.548107
Vogelsanck,15,,,4851ES,Ulvenhout,Breda,Noord-Brabant,VBO,4.794188,51.547829
Vogelsanck,16,,,4851ES,Ulvenhout,Breda,Noord-Brabant,VBO,4.794433,51.548098
Vogelsanck,18,,,4851ES,Ulvenhout,Breda,Noord-Brabant,VBO,4.794276,51.548093
Vogelsanck,20,,,4851ES,Ulvenhout,Breda,Noord-Brabant,VBO,4.794132,51.548089
Vogelsanck,22,,,4851ES,Ulvenhout,Breda,Noord-Brabant,VBO,4.793984,51.548084
Vogelsanck,24,,,4851ES,Ulvenhout,Breda,Noord-Brabant,VBO,4.793805,51.548078
Laathof,1,,,4851ET,Ulvenhout,Breda,Noord-Brabant,VBO,4.794813,51.548930
Laathof,3,,,4851ET,Ulvenhout,Breda,Noord-Brabant,VBO,4.794829,51.548856
Laathof,4,,,4851ET,Ulvenhout,Breda,Noord-Brabant,VBO,4.794523,51.548977
Laathof,5,,,4851ET,Ulvenhout,Breda,Noord-Brabant,VBO,4.794844,51.548787
Laathof,6,,,4851ET,Ulvenhout,Breda,Noord-Brabant,VBO,4.794489,51.548976
Laathof,7,,,4851ET,Ulvenhout,Breda,Noord-Brabant,VBO,4.794858,51.548725
Laathof,8,,,4851ET,Ulvenhout,Breda,Noord-Brabant,VBO,4.794452,51.548972
Laathof,9,,,4851ET,Ulvenhout,Breda,Noord-Brabant,VBO,4.794875,51.548648
Laathof,10,,,4851ET,Ulvenhout,Breda,Noord-Brabant,VBO,4.794418,51.548969
Laathof,11,,,4851ET,Ulvenhout,Breda,Noord-Brabant,VBO,4.794890,51.548581
Laathof,12,,,4851ET,Ulvenhout,Breda,Noord-Brabant,VBO,4.794299,51.548901
Laathof,13,,,4851ET,Ulvenhout,Breda,Noord-Brabant,VBO,4.794905,51.548511
Laathof,14,,,4851ET,Ulvenhout,Breda,Noord-Brabant,VBO,4.794315,51.548833
Laathof,15,,,4851ET,Ulvenhout,Breda,Noord-Brabant,VBO,4.794921,51.548439
Laathof,16,,,4851ET,Ulvenhout,Breda,Noord-Brabant,VBO,4.794330,51.548765
Laathof,17,,G2,4851ET,Ulvenhout,Breda,Noord-Brabant,VBO,4.794726,51.548280
Laathof,17,,G3,4851ET,Ulvenhout,Breda,Noord-Brabant,VBO,4.794773,51.548283
Laathof,17,,,4851ET,Ulvenhout,Breda,Noord-Brabant,VBO,4.794935,51.548374
Laathof,18,,,4851ET,Ulvenhout,Breda,Noord-Brabant,VBO,4.794351,51.548674
Laathof,20,,,4851ET,Ulvenhout,Breda,Noord-Brabant,VBO,4.794367,51.548607
Laathof,22,,,4851ET,Ulvenhout,Breda,Noord-Brabant,VBO,4.794382,51.548543
Laathof,24,,,4851ET,Ulvenhout,Breda,Noord-Brabant,VBO,4.794398,51.548472
Laathof,26,,,4851ET,Ulvenhout,Breda,Noord-Brabant,VBO,4.794414,51.548401
Laathof,28,,,4851ET,Ulvenhout,Breda,Noord-Brabant,VBO,4.794430,51.548332
den Deel,1,,,4851EV,Ulvenhout,Breda,Noord-Brabant,VBO,4.795504,51.547030
den Deel,2,,,4851EV,Ulvenhout,Breda,Noord-Brabant,VBO,4.795144,51.547432
den Deel,3,,,4851EV,Ulvenhout,Breda,Noord-Brabant,VBO,4.795352,51.547031
den Deel,4,,,4851EV,Ulvenhout,Breda,Noord-Brabant,VBO,4.795012,51.547431
den Deel,5,,,4851EV,Ulvenhout,Breda,Noord-Brabant,VBO,4.795205,51.547033
den Deel,6,,,4851EV,Ulvenhout,Breda,Noord-Brabant,VBO,4.794857,51.547430
den Deel,7,,,4851EV,Ulvenhout,Breda,Noord-Brabant,VBO,4.795056,51.547034
den Deel,8,,,4851EV,Ulvenhout,Breda,Noord-Brabant,VBO,4.794699,51.547429
den Deel,9,,,4851EV,Ulvenhout,Breda,Noord-Brabant,VBO,4.794880,51.547036
den Deel,10,,,4851EV,Ulvenhout,Breda,Noord-Brabant,VBO,4.794534,51.547428
den Deel,11,,,4851EV,Ulvenhout,Breda,Noord-Brabant,VBO,4.794482,51.547040
den Deel,12,,,4851EV,Ulvenhout,Breda,Noord-Brabant,VBO,4.794361,51.547426
den Deel,13,,,4851EV,Ulvenhout,Breda,Noord-Brabant,VBO,4.794344,51.547041
den Deel,14,,,4851EV,Ulvenhout,Breda,Noord-Brabant,VBO,4.794233,51.547425
den Deel,15,,,4851EV,Ulvenhout,Breda,Noord-Brabant,VBO,4.794194,51.547043
den Deel,17,,,4851EV,Ulvenhout,Breda,Noord-Brabant,VBO,4.794058,51.547045
den Deel,19,,,4851EV,Ulvenhout,Breda,Noord-Brabant,VBO,4.793890,51.547046
Eikakker,1,,,4851EW,Ulvenhout,Breda,Noord-Brabant,VBO,4.794845,51.546793
Eikakker,2,,,4851EW,Ulvenhout,Breda,Noord-Brabant,VBO,4.794454,51.546784
Eikakker,3,,,4851EW,Ulvenhout,Breda,Noord-Brabant,VBO,4.794840,51.546728
Eikakker,4,,,4851EW,Ulvenhout,Breda,Noord-Brabant,VBO,4.794449,51.546723
Eikakker,5,,,4851EW,Ulvenhout,Breda,Noord-Brabant,VBO,4.794835,51.546668
Eikakker,6,,,4851EW,Ulvenhout,Breda,Noord-Brabant,VBO,4.794444,51.546662
Eikakker,7,,,4851EW,Ulvenhout,Breda,Noord-Brabant,VBO,4.794831,51.546609
Eikakker,8,,,4851EW,Ulvenhout,Breda,Noord-Brabant,VBO,4.794439,51.546598
Eikakker,9,,,4851EW,Ulvenhout,Breda,Noord-Brabant,VBO,4.794824,51.546518
Eikakker,10,,,4851EW,Ulvenhout,Breda,Noord-Brabant,VBO,4.794431,51.546487
Eikakker,11,,,4851EW,Ulvenhout,Breda,Noord-Brabant,VBO,4.794819,51.546455
Eikakker,12,,,4851EW,Ulvenhout,Breda,Noord-Brabant,VBO,4.794427,51.546436
Eikakker,13,,,4851EW,Ulvenhout,Breda,Noord-Brabant,VBO,4.794812,51.546365
Eikakker,14,,,4851EW,Ulvenhout,Breda,Noord-Brabant,VBO,4.794422,51.546373
Eikakker,15,,,4851EW,Ulvenhout,Breda,Noord-Brabant,VBO,4.794808,51.546310
Eikakker,16,,,4851EW,Ulvenhout,Breda,Noord-Brabant,VBO,4.794417,51.546307
Eikakker,17,,,4851EW,Ulvenhout,Breda,Noord-Brabant,VBO,4.794803,51.546244
Korenmaat,3,,,4851EX,Ulvenhout,Breda,Noord-Brabant,VBO,4.794845,51.545762
Korenmaat,4,,,4851EX,Ulvenhout,Breda,Noord-Brabant,VBO,4.795090,51.546006
Korenmaat,5,,,4851EX,Ulvenhout,Breda,Noord-Brabant,VBO,4.794673,51.545776
Korenmaat,6,,,4851EX,Ulvenhout,Breda,Noord-Brabant,VBO,4.794954,51.546017
Korenmaat,7,,,4851EX,Ulvenhout,Breda,Noord-Brabant,VBO,4.794481,51.545791
Korenmaat,8,,,4851EX,Ulvenhout,Breda,Noord-Brabant,VBO,4.794793,51.546032
Korenmaat,9,,,4851EX,Ulvenhout,Breda,Noord-Brabant,VBO,4.794348,51.545802
Korenmaat,10,,,4851EX,Ulvenhout,Breda,Noord-Brabant,VBO,4.794375,51.546063
Korenmaat,11,,,4851EX,Ulvenhout,Breda,Noord-Brabant,VBO,4.793968,51.545826
Korenmaat,12,,,4851EX,Ulvenhout,Breda,Noord-Brabant,VBO,4.794170,51.546080
Korenmaat,14,,,4851EX,Ulvenhout,Breda,Noord-Brabant,VBO,4.793922,51.546100
't Vlot,1,A,,4851EZ,Ulvenhout,Breda,Noord-Brabant,VBO,4.795295,51.545028
't Vlot,1,,,4851EZ,Ulvenhout,Breda,Noord-Brabant,VBO,4.795473,51.544988
't Vlot,2,A,,4851EZ,Ulvenhout,Breda,Noord-Brabant,VBO,4.795436,51.545271
't Vlot,2,,,4851EZ,Ulvenhout,Breda,Noord-Brabant,VBO,4.794664,51.545342
't Vlot,3,,,4851EZ,Ulvenhout,Breda,Noord-Brabant,VBO,4.794442,51.545087
't Vlot,4,,,4851EZ,Ulvenhout,Breda,Noord-Brabant,VBO,4.794444,51.545349
't Vlot,5,,,4851EZ,Ulvenhout,Breda,Noord-Brabant,VBO,4.794296,51.545092
Koekelberg,1,A,,4851PC,Ulvenhout,Breda,Noord-Brabant,VBO,4.789116,51.535874
Koekelberg,1,,,4851PC,Ulvenhout,Breda,Noord-Brabant,VBO,4.788636,51.535692
Koekelberg,2,,,4851PC,Ulvenhout,Breda,Noord-Brabant,VBO,4.789399,51.536349
Koekelberg,3,,,4851PC,Ulvenhout,Breda,Noord-Brabant,VBO,4.786343,51.534293
Koekelberg,4,,,4851PC,Ulvenhout,Breda,Noord-Brabant,VBO,4.787374,51.535880
Koekelberg,6,,,4851PC,Ulvenhout,Breda,Noord-Brabant,VBO,4.786879,51.535356
Koekelberg,8,,,4851PC,Ulvenhout,Breda,Noord-Brabant,VBO,4.787845,51.543626
Koekelberg,10,,,4851PC,Ulvenhout,Breda,Noord-Brabant,VBO,4.784609,51.542851
Huisdreef,1,,,4851RA,Ulvenhout,Breda,Noord-Brabant,VBO,4.815966,51.550397
Huisdreef,3,,,4851RA,Ulvenhout,Breda,Noord-Brabant,VBO,4.815443,51.550679
Kerkdreef,1,,,4851RB,Ulvenhout,Breda,Noord-Brabant,VBO,4.815983,51.550171
Kerkdreef,3,,,4851RB,Ulvenhout,Breda,Noord-Brabant,VBO,4.814828,51.550016
St. Annadreef,2,,,4851RC,Ulvenhout,Breda,Noord-Brabant,VBO,4.817498,51.550131
Geersbroekseweg,1,A,,4851RD,Ulvenhout,Breda,Noord-Brabant,VBO,4.817815,51.549261
Geersbroekseweg,1,,,4851RD,Ulvenhout,Breda,Noord-Brabant,VBO,4.816517,51.550293
Geersbroekseweg,3,,A10,4851RD,Ulvenhout,Breda,Noord-Brabant,VBO,4.819176,51.548722
Geersbroekseweg,3,,A11,4851RD,Ulvenhout,Breda,Noord-Brabant,VBO,4.819306,51.548688
Geersbroekseweg,3,,A12,4851RD,Ulvenhout,Breda,Noord-Brabant,VBO,4.819500,51.548533
Geersbroekseweg,3,,A13,4851RD,Ulvenhout,Breda,Noord-Brabant,VBO,4.819735,51.548617
Geersbroekseweg,3,,A14,4851RD,Ulvenhout,Breda,Noord-Brabant,VBO,4.819421,51.548838
Geersbroekseweg,3,,A15,4851RD,Ulvenhout,Breda,Noord-Brabant,VBO,4.819704,51.548882
Geersbroekseweg,3,,A16,4851RD,Ulvenhout,Breda,Noord-Brabant,VBO,4.819952,51.548700
Geersbroekseweg,3,,A17,4851RD,Ulvenhout,Breda,Noord-Brabant,VBO,4.820119,51.548782
Geersbroekseweg,3,,A18,4851RD,Ulvenhout,Breda,Noord-Brabant,VBO,4.819862,51.548983
Geersbroekseweg,3,,A19,4851RD,Ulvenhout,Breda,Noord-Brabant,VBO,4.820128,51.549002
Geersbroekseweg,3,,A2,4851RD,Ulvenhout,Breda,Noord-Brabant,VBO,4.818703,51.548580
Geersbroekseweg,3,,A20,4851RD,Ulvenhout,Breda,Noord-Brabant,VBO,4.820335,51.548897
Geersbroekseweg,3,,A21,4851RD,Ulvenhout,Breda,Noord-Brabant,VBO,4.820614,51.548984
Geersbroekseweg,3,,A23,4851RD,Ulvenhout,Breda,Noord-Brabant,VBO,4.820866,51.548842
Geersbroekseweg,3,,A24,4851RD,Ulvenhout,Breda,Noord-Brabant,VBO,4.820873,51.549027
Geersbroekseweg,3,,A26,4851RD,Ulvenhout,Breda,Noord-Brabant,VBO,4.821111,51.548833
Geersbroekseweg,3,,A27,4851RD,Ulvenhout,Breda,Noord-Brabant,VBO,4.821374,51.548839
Geersbroekseweg,3,,A28,4851RD,Ulvenhout,Breda,Noord-Brabant,VBO,4.821340,51.549021
Geersbroekseweg,3,,A29,4851RD,Ulvenhout,Breda,Noord-Brabant,VBO,4.821589,51.549019
Geersbroekseweg,3,,A3,4851RD,Ulvenhout,Breda,Noord-Brabant,VBO,4.818881,51.548460
Geersbroekseweg,3,,A30,4851RD,Ulvenhout,Breda,Noord-Brabant,VBO,4.821625,51.548841
Geersbroekseweg,3,,A31,4851RD,Ulvenhout,Breda,Noord-Brabant,VBO,4.821910,51.548840
Geersbroekseweg,3,,A32,4851RD,Ulvenhout,Breda,Noord-Brabant,VBO,4.821868,51.549022
Geersbroekseweg,3,,A33,4851RD,Ulvenhout,Breda,Noord-Brabant,VBO,4.822101,51.549040
Geersbroekseweg,3,,A35,4851RD,Ulvenhout,Breda,Noord-Brabant,VBO,4.822449,51.548849
Geersbroekseweg,3,,A36,4851RD,Ulvenhout,Breda,Noord-Brabant,VBO,4.822391,51.549051
Geersbroekseweg,3,,A37,4851RD,Ulvenhout,Breda,Noord-Brabant,VBO,4.822799,51.548916
Geersbroekseweg,3,,A38,4851RD,Ulvenhout,Breda,Noord-Brabant,VBO,4.822993,51.548989
Geersbroekseweg,3,,A39,4851RD,Bavel,Breda,Noord-Brabant,VBO,4.823090,51.549175
Geersbroekseweg,3,,A4,4851RD,Ulvenhout,Breda,Noord-Brabant,VBO,4.819096,51.548366
Geersbroekseweg,3,,A40,4851RD,Ulvenhout,Breda,Noord-Brabant,VBO,4.822397,51.549205
Geersbroekseweg,3,,A41,4851RD,Ulvenhout,Breda,Noord-Brabant,VBO,4.822105,51.549176
Geersbroekseweg,3,,A42,4851RD,Ulvenhout,Breda,Noord-Brabant,VBO,4.821850,51.549167
Geersbroekseweg,3,,A43,4851RD,Ulvenhout,Breda,Noord-Brabant,VBO,4.821602,51.549173
Geersbroekseweg,3,,A44,4851RD,Ulvenhout,Breda,Noord-Brabant,VBO,4.821368,51.549167
Geersbroekseweg,3,,A45,4851RD,Ulvenhout,Breda,Noord-Brabant,VBO,4.821097,51.549170
Geersbroekseweg,3,,A46,4851RD,Ulvenhout,Breda,Noord-Brabant,VBO,4.820808,51.549176
Geersbroekseweg,3,,A47,4851RD,Ulvenhout,Breda,Noord-Brabant,VBO,4.820588,51.549151
Geersbroekseweg,3,,A48,4851RD,Ulvenhout,Breda,Noord-Brabant,VBO,4.820326,51.549184
Geersbroekseweg,3,,A49,4851RD,Ulvenhout,Breda,Noord-Brabant,VBO,4.820084,51.549171
Geersbroekseweg,3,,A5,4851RD,Ulvenhout,Breda,Noord-Brabant,VBO,4.819293,51.548448
Geersbroekseweg,3,,A50,4851RD,Ulvenhout,Breda,Noord-Brabant,VBO,4.819838,51.549172
Geersbroekseweg,3,,A52,4851RD,Ulvenhout,Breda,Noord-Brabant,VBO,4.819322,51.549187
Geersbroekseweg,3,,A53,4851RD,Ulvenhout,Breda,Noord-Brabant,VBO,4.819237,51.549041
Geersbroekseweg,3,,A54,4851RD,Ulvenhout,Breda,Noord-Brabant,VBO,4.819076,51.549177
Geersbroekseweg,3,,A55,4851RD,Ulvenhout,Breda,Noord-Brabant,VBO,4.818863,51.549037
Geersbroekseweg,3,,A56,4851RD,Ulvenhout,Breda,Noord-Brabant,VBO,4.818833,51.549196
Geersbroekseweg,3,,A57,4851RD,Ulvenhout,Breda,Noord-Brabant,VBO,4.818531,51.549180
Geersbroekseweg,3,,A58,4851RD,Ulvenhout,Breda,Noord-Brabant,VBO,4.818489,51.549035
Geersbroekseweg,3,,A59,4851RD,Ulvenhout,Breda,Noord-Brabant,VBO,4.818648,51.548936
Geersbroekseweg,3,,A7,4851RD,Ulvenhout,Breda,Noord-Brabant,VBO,4.818953,51.548717
Geersbroekseweg,3,,A8,4851RD,Ulvenhout,Breda,Noord-Brabant,VBO,4.818821,51.548823
Geersbroekseweg,3,,A9,4851RD,Ulvenhout,Breda,Noord-Brabant,VBO,4.819057,51.548831
Geersbroekseweg,3,,,4851RD,Ulvenhout,Breda,Noord-Brabant,VBO,4.817858,51.549221
Geersbroekseweg,5,,,4851RD,Ulvenhout,Breda,Noord-Brabant,VBO,4.821032,51.548423
Geersbroekseweg,7,,,4851RD,Ulvenhout,Breda,Noord-Brabant,VBO,4.821064,51.548361
Geersbroekseweg,9,,,4851RD,Ulvenhout,Breda,Noord-Brabant,VBO,4.820860,51.547824
Geersbroekseweg,11,,,4851RD,Ulvenhout,Breda,Noord-Brabant,VBO,4.821484,51.547833
Geersbroekseweg,4,,,4851RE,Ulvenhout,Breda,Noord-Brabant,VBO,4.819539,51.547980
Kraaijenbergsestraat,1,A,,4851RG,Ulvenhout,Breda,Noord-Brabant,VBO,4.809812,51.547300
Kraaijenbergsestraat,1,,,4851RG,Ulvenhout,Breda,Noord-Brabant,VBO,4.809656,51.547219
Kraaijenbergsestraat,2,A,,4851RG,Ulvenhout,Breda,Noord-Brabant,VBO,4.809731,51.546926
Kraaijenbergsestraat,2,,,4851RG,Ulvenhout,Breda,Noord-Brabant,VBO,4.810239,51.547052
Kraaijenbergsestraat,3,A,,4851RG,Ulvenhout,Breda,Noord-Brabant,VBO,4.810159,51.547453
Kraaijenbergsestraat,3,,,4851RG,Ulvenhout,Breda,Noord-Brabant,VBO,4.810007,51.547393
Kraaijenbergsestraat,4,A,,4851RG,Ulvenhout,Breda,Noord-Brabant,VBO,4.810607,51.547131
Kraaijenbergsestraat,4,,,4851RG,Ulvenhout,Breda,Noord-Brabant,VBO,4.810810,51.547236
Kraaijenbergsestraat,5,A,,4851RG,Ulvenhout,Breda,Noord-Brabant,VBO,4.810532,51.547585
Kraaijenbergsestraat,5,,,4851RG,Ulvenhout,Breda,Noord-Brabant,VBO,4.810369,51.547532
Kraaijenbergsestraat,7,A,,4851RG,Ulvenhout,Breda,Noord-Brabant,VBO,4.810882,51.547679
Kraaijenbergsestraat,7,,,4851RG,Ulvenhout,Breda,Noord-Brabant,VBO,4.810714,51.547639
Kraaijenbergsestraat,9,A,,4851RG,Ulvenhout,Breda,Noord-Brabant,VBO,4.811276,51.547738
Kraaijenbergsestraat,9,,,4851RG,Ulvenhout,Breda,Noord-Brabant,VBO,4.811078,51.547715
Kraaijenbergsestraat,10,,,4851RG,Ulvenhout,Breda,Noord-Brabant,VBO,4.815260,51.548041
Kraaijenbergsestraat,11,,,4851RG,Ulvenhout,Breda,Noord-Brabant,VBO,4.811979,51.547837
Kraaijenbergsestraat,13,,,4851RG,Ulvenhout,Breda,Noord-Brabant,VBO,4.812313,51.547852
Kraaijenbergsestraat,15,,,4851RG,Ulvenhout,Breda,Noord-Brabant,VBO,4.812692,51.547995
Kraaijenbergsestraat,16,,,4851RG,Ulvenhout,Breda,Noord-Brabant,VBO,4.817148,51.547340
Kraaijenbergsestraat,17,,,4851RG,Ulvenhout,Breda,Noord-Brabant,VBO,4.813266,51.547979
Kraaijenbergsestraat,18,,,4851RG,Ulvenhout,Breda,Noord-Brabant,VBO,4.818157,51.547882
Kraaijenbergsestraat,19,,,4851RG,Ulvenhout,Breda,Noord-Brabant,VBO,4.813703,51.548109
Kraaijenbergsestraat,21,,,4851RG,Ulvenhout,Breda,Noord-Brabant,VBO,4.814043,51.548169
Kraaijenbergsestraat,23,,,4851RG,Ulvenhout,Breda,Noord-Brabant,VBO,4.814416,51.548237
Kraaijenbergsestraat,25,,,4851RG,Ulvenhout,Breda,Noord-Brabant,VBO,4.814870,51.548343
Kraaijenbergsestraat,27,,,4851RG,Ulvenhout,Breda,Noord-Brabant,VBO,4.815231,51.548366
Kraaijenbergsestraat,29,,,4851RG,Ulvenhout,Breda,Noord-Brabant,VBO,4.815556,51.548376
Kraaijenbergsestraat,31,,,4851RG,Ulvenhout,Breda,Noord-Brabant,VBO,4.815940,51.548416
Kraaijenbergsestraat,33,,,4851RG,Ulvenhout,Breda,Noord-Brabant,VBO,4.816348,51.548337
Kraaijenbergsestraat,35,,,4851RG,Ulvenhout,Breda,Noord-Brabant,VBO,4.816448,51.548336
Kraaijenbergsestraat,37,,,4851RG,Ulvenhout,Breda,Noord-Brabant,VBO,4.816892,51.548403
Kraaijenbergsestraat,39,,,4851RG,Ulvenhout,Breda,Noord-Brabant,VBO,4.817244,51.548397
Kraaijenbergsestraat,41,,,4851RG,Ulvenhout,Breda,Noord-Brabant,VBO,4.817693,51.548387
Kraaijenbergsestraat,43,,,4851RG,Ulvenhout,Breda,Noord-Brabant,VBO,4.818406,51.548326
Chaamseweg,13,,,4851RJ,Ulvenhout,Breda,Noord-Brabant,VBO,4.796949,51.540767
Chaamseweg,18,,,4851RK,Ulvenhout,Breda,Noord-Brabant,VBO,4.796001,51.539584
Boonakker,1,A,,4851SB,Ulvenhout,Breda,Noord-Brabant,VBO,4.796991,51.546870
Boonakker,1,,,4851SB,Ulvenhout,Breda,Noord-Brabant,VBO,4.797100,51.546857
Boonakker,3,A,,4851SB,Ulvenhout,Breda,Noord-Brabant,VBO,4.796694,51.546918
Boonakker,3,,,4851SB,Ulvenhout,Breda,Noord-Brabant,VBO,4.796819,51.546903
Boonakker,4,,,4851SB,Ulvenhout,Breda,Noord-Brabant,VBO,4.796715,51.547192
Boonakker,5,,,4851SB,Ulvenhout,Breda,Noord-Brabant,VBO,4.796513,51.546936
Boonakker,6,,,4851SB,Ulvenhout,Breda,Noord-Brabant,VBO,4.796571,51.547206
Boonakker,7,,G4,4851SB,Ulvenhout,Breda,Noord-Brabant,VBO,4.796390,51.546531
Boonakker,7,,G5,4851SB,Ulvenhout,Breda,Noord-Brabant,VBO,4.796366,51.546505
Boonakker,7,,G6,4851SB,Ulvenhout,Breda,Noord-Brabant,VBO,4.796343,51.546483
Boonakker,7,,G7,4851SB,Ulvenhout,Breda,Noord-Brabant,VBO,4.796316,51.546462
Boonakker,7,,,4851SB,Ulvenhout,Breda,Noord-Brabant,VBO,4.796393,51.546944
Boonakker,8,,,4851SB,Ulvenhout,Breda,Noord-Brabant,VBO,4.796424,51.547221
Boonakker,10,,,4851SB,Ulvenhout,Breda,Noord-Brabant,VBO,4.796288,51.547235
Boonakker,64540,,TRD,4851SB,Ulvenhout,Breda,Noord-Brabant,VBO,4.797340,51.547091
de Gouw,1,A,,4851SC,Ulvenhout,Breda,Noord-Brabant,VBO,4.797354,51.547857
de Gouw,1,,,4851SC,Ulvenhout,Breda,Noord-Brabant,VBO,4.797328,51.547858
de Gouw,2,,G1,4851SC,Ulvenhout,Breda,Noord-Brabant,VBO,4.796391,51.547819
de Gouw,2,,G10,4851SC,Ulvenhout,Breda,Noord-Brabant,VBO,4.796362,51.547571
de Gouw,2,,G11,4851SC,Ulvenhout,Breda,Noord-Brabant,VBO,4.796358,51.547544
de Gouw,2,,G12,4851SC,Ulvenhout,Breda,Noord-Brabant,VBO,4.796355,51.547517
de Gouw,2,,G13,4851SC,Ulvenhout,Breda,Noord-Brabant,VBO,4.796347,51.547490
de Gouw,2,,G14,4851SC,Ulvenhout,Breda,Noord-Brabant,VBO,4.796345,51.547465
de Gouw,2,,G15,4851SC,Ulvenhout,Breda,Noord-Brabant,VBO,4.796346,51.547444
de Gouw,2,,G2,4851SC,Ulvenhout,Breda,Noord-Brabant,VBO,4.796384,51.547793
de Gouw,2,,G3,4851SC,Ulvenhout,Breda,Noord-Brabant,VBO,4.796386,51.547767
de Gouw,2,,G4,4851SC,Ulvenhout,Breda,Noord-Brabant,VBO,4.796378,51.547731
de Gouw,2,,G5,4851SC,Ulvenhout,Breda,Noord-Brabant,VBO,4.796375,51.547705
de Gouw,2,,G6,4851SC,Ulvenhout,Breda,Noord-Brabant,VBO,4.796373,51.547679
de Gouw,2,,G7,4851SC,Ulvenhout,Breda,Noord-Brabant,VBO,4.796370,51.547647
de Gouw,2,,G8,4851SC,Ulvenhout,Breda,Noord-Brabant,VBO,4.796364,51.547625
de Gouw,2,,G9,4851SC,Ulvenhout,Breda,Noord-Brabant,VBO,4.796365,51.547598
de Gouw,2,,,4851SC,Ulvenhout,Breda,Noord-Brabant,VBO,4.796913,51.547739
de Gouw,3,A,,4851SC,Ulvenhout,Breda,Noord-Brabant,VBO,4.797351,51.547764
de Gouw,3,,,4851SC,Ulvenhout,Breda,Noord-Brabant,VBO,4.797346,51.547807
de Gouw,4,,,4851SC,Ulvenhout,Breda,Noord-Brabant,VBO,4.796887,51.547669
de Gouw,5,,,4851SC,Ulvenhout,Breda,Noord-Brabant,VBO,4.797288,51.547690
de Gouw,6,,,4851SC,Ulvenhout,Breda,Noord-Brabant,VBO,4.796864,51.547608
de Gouw,7,,,4851SC,Ulvenhout,Breda,Noord-Brabant,VBO,4.797264,51.547623
de Gouw,8,,,4851SC,Ulvenhout,Breda,Noord-Brabant,VBO,4.796836,51.547532
de Gouw,9,,,4851SC,Ulvenhout,Breda,Noord-Brabant,VBO,4.797238,51.547553
de Gouw,10,,,4851SC,Ulvenhout,Breda,Noord-Brabant,VBO,4.796810,51.547461
de Gouw,11,,,4851SC,Ulvenhout,Breda,Noord-Brabant,VBO,4.797206,51.547467
de Gouw,12,,,4851SC,Ulvenhout,Breda,Noord-Brabant,VBO,4.796787,51.547399
de Gouw,13,,,4851SC,Ulvenhout,Breda,Noord-Brabant,VBO,4.797184,51.547406
de Gouw,15,,,4851SC,Ulvenhout,Breda,Noord-Brabant,VBO,4.797159,51.547337
de Gouw,17,,,4851SC,Ulvenhout,Breda,Noord-Brabant,VBO,4.797124,51.547243
de Gouw,19,,,4851SC,Ulvenhout,Breda,Noord-Brabant,VBO,4.797103,51.547186
de Gouw,21,,,4851SC,Ulvenhout,Breda,Noord-Brabant,VBO,4.797082,51.547127
Molenstraat,45,,,4851SE,Ulvenhout,Breda,Noord-Brabant,VBO,4.796787,51.544456
Molenstraat,47,,,4851SE,Ulvenhout,Breda,Noord-Brabant,VBO,4.796706,51.544349
Molenstraat,49,,,4851SE,Ulvenhout,Breda,Noord-Brabant,VBO,4.796614,51.544226
Molenstraat,51,,,4851SE,Ulvenhout,Breda,Noord-Brabant,VBO,4.796502,51.544076
Molenstraat,53,,,4851SE,Ulvenhout,Breda,Noord-Brabant,VBO,4.796331,51.543848
Molenstraat,55,,,4851SE,Ulvenhout,Breda,Noord-Brabant,VBO,4.796217,51.543730
Molenstraat,57,,,4851SE,Ulvenhout,Breda,Noord-Brabant,VBO,4.796121,51.543623
Molenstraat,59,,,4851SE,Ulvenhout,Breda,Noord-Brabant,VBO,4.796029,51.543506
Molenstraat,61,,,4851SE,Ulvenhout,Breda,Noord-Brabant,VBO,4.795593,51.543210
Molenstraat,67,,,4851SE,Ulvenhout,Breda,Noord-Brabant,VBO,4.795418,51.542607
Molenstraat,69,,,4851SE,Ulvenhout,Breda,Noord-Brabant,VBO,4.795405,51.542517
Molenstraat,71,,,4851SE,Ulvenhout,Breda,Noord-Brabant,VBO,4.795392,51.542425
Molenstraat,73,,,4851SE,Ulvenhout,Breda,Noord-Brabant,VBO,4.795370,51.542305
Molenstraat,1,A,,4851SG,Ulvenhout,Breda,Noord-Brabant,VBO,4.798538,51.547525
Molenstraat,1,B,,4851SG,Ulvenhout,Breda,Noord-Brabant,VBO,4.798365,51.547260
Molenstraat,1,,,4851SG,Ulvenhout,Breda,Noord-Brabant,VBO,4.798350,51.547150
Molenstraat,3,,,4851SG,Ulvenhout,Breda,Noord-Brabant,VBO,4.798327,51.547075
Molenstraat,5,,,4851SG,Ulvenhout,Breda,Noord-Brabant,VBO,4.798290,51.546961
Molenstraat,7,,,4851SG,Ulvenhout,Breda,Noord-Brabant,VBO,4.798256,51.546866
Molenstraat,9,,,4851SG,Ulvenhout,Breda,Noord-Brabant,VBO,4.798205,51.546716
Molenstraat,11,,,4851SG,Ulvenhout,Breda,Noord-Brabant,VBO,4.798169,51.546607
Molenstraat,13,,,4851SG,Ulvenhout,Breda,Noord-Brabant,VBO,4.798099,51.546490
Molenstraat,15,,,4851SG,Ulvenhout,Breda,Noord-Brabant,VBO,4.798015,51.546360
Molenstraat,17,,,4851SG,Ulvenhout,Breda,Noord-Brabant,VBO,4.797932,51.546232
Molenstraat,19,,,4851SG,Ulvenhout,Breda,Noord-Brabant,VBO,4.797885,51.546162
Molenstraat,21,,,4851SG,Ulvenhout,Breda,Noord-Brabant,VBO,4.798069,51.546015
Molenstraat,23,,,4851SG,Ulvenhout,Breda,Noord-Brabant,VBO,4.798107,51.545783
Molenstraat,25,,,4851SG,Ulvenhout,Breda,Noord-Brabant,VBO,4.797565,51.545839
Molenstraat,35,,,4851SG,Ulvenhout,Breda,Noord-Brabant,VBO,4.797251,51.545113
Molenstraat,37,,,4851SG,Ulvenhout,Breda,Noord-Brabant,VBO,4.797169,51.544986
Molenstraat,39,,,4851SG,Ulvenhout,Breda,Noord-Brabant,VBO,4.797089,51.544862
Molenstraat,41,,,4851SG,Ulvenhout,Breda,Noord-Brabant,VBO,4.796924,51.544639
Molenstraat,43,,,4851SG,Ulvenhout,Breda,Noord-Brabant,VBO,4.796878,51.544579
Molenstraat,2,,,4851SH,Ulvenhout,Breda,Noord-Brabant,VBO,4.798081,51.547886
Molenstraat,4,A,,4851SH,Ulvenhout,Breda,Noord-Brabant,VBO,4.798100,51.547767
Molenstraat,4,,,4851SH,Ulvenhout,Breda,Noord-Brabant,VBO,4.798103,51.547816
Molenstraat,6,,,4851SH,Ulvenhout,Breda,Noord-Brabant,VBO,4.798063,51.547770
Molenstraat,8,,,4851SH,Ulvenhout,Breda,Noord-Brabant,VBO,4.798046,51.547618
Molenstraat,10,,,4851SH,Ulvenhout,Breda,Noord-Brabant,VBO,4.798023,51.547546
Molenstraat,12,,,4851SH,Ulvenhout,Breda,Noord-Brabant,VBO,4.797998,51.547465
Molenstraat,14,,,4851SH,Ulvenhout,Breda,Noord-Brabant,VBO,4.797974,51.547388
Molenstraat,16,,,4851SH,Ulvenhout,Breda,Noord-Brabant,VBO,4.797950,51.547312
Molenstraat,18,,,4851SH,Ulvenhout,Breda,Noord-Brabant,VBO,4.797925,51.547234
Molenstraat,20,,,4851SH,Ulvenhout,Breda,Noord-Brabant,VBO,4.797899,51.547057
Molenstraat,22,,,4851SH,Ulvenhout,Breda,Noord-Brabant,VBO,4.797876,51.546999
Molenstraat,24,,,4851SH,Ulvenhout,Breda,Noord-Brabant,VBO,4.797779,51.546760
Molenstraat,26,A,,4851SH,Ulvenhout,Breda,Noord-Brabant,VBO,4.797639,51.546511
Molenstraat,26,,,4851SH,Ulvenhout,Breda,Noord-Brabant,VBO,4.797712,51.546631
Molenstraat,28,,,4851SH,Ulvenhout,Breda,Noord-Brabant,VBO,4.797567,51.546398
Molenstraat,30,,,4851SH,Ulvenhout,Breda,Noord-Brabant,VBO,4.797485,51.546272
Molenstraat,32,,,4851SJ,Ulvenhout,Breda,Noord-Brabant,VBO,4.797408,51.546155
Molenstraat,34,,,4851SJ,Ulvenhout,Breda,Noord-Brabant,VBO,4.797333,51.546062
Molenstraat,36,,,4851SJ,Ulvenhout,Breda,Noord-Brabant,VBO,4.796958,51.545865
Molenstraat,38,,,4851SJ,Ulvenhout,Breda,Noord-Brabant,VBO,4.796784,51.545688
Molenstraat,40,,,4851SJ,Ulvenhout,Breda,Noord-Brabant,VBO,4.796533,51.545607
Molenstraat,42,,,4851SJ,Ulvenhout,Breda,Noord-Brabant,VBO,4.796359,51.545527
Molenstraat,44,,,4851SJ,Ulvenhout,Breda,Noord-Brabant,VBO,4.796168,51.545437
Molenstraat,46,,,4851SJ,Ulvenhout,Breda,Noord-Brabant,VBO,4.795992,51.545356
Molenstraat,48,,,4851SJ,Ulvenhout,Breda,Noord-Brabant,VBO,4.795824,51.545276
Molenstraat,50,,,4851SJ,Ulvenhout,Breda,Noord-Brabant,VBO,4.795656,51.544946
Molenstraat,52,,,4851SJ,Ulvenhout,Breda,Noord-Brabant,VBO,4.795831,51.544907
Molenstraat,54,,,4851SJ,Ulvenhout,Breda,Noord-Brabant,VBO,4.795947,51.544879
Molenstraat,56,,,4851SJ,Ulvenhout,Breda,Noord-Brabant,VBO,4.796107,51.544834
Molenstraat,58,,,4851SJ,Ulvenhout,Breda,Noord-Brabant,VBO,4.795879,51.544572
Molenstraat,60,,,4851SJ,Ulvenhout,Breda,Noord-Brabant,VBO,4.795769,51.544437
Molenstraat,62,,,4851SJ,Ulvenhout,Breda,Noord-Brabant,VBO,4.795662,51.544280
Molenstraat,66,,,4851SJ,Ulvenhout,Breda,Noord-Brabant,VBO,4.794764,51.542290
Molenstraat,68,,,4851SJ,Ulvenhout,Breda,Noord-Brabant,VBO,4.794746,51.542142
Tolweg,1,,,4851SJ,Ulvenhout,Breda,Noord-Brabant,VBO,4.795290,51.540868
Tolweg,3,,,4851SJ,Ulvenhout,Breda,Noord-Brabant,VBO,4.795589,51.540722
Tolweg,7,,,4851SJ,Ulvenhout,Breda,Noord-Brabant,VBO,4.795398,51.540253
Tolweg,9,,,4851SJ,Ulvenhout,Breda,Noord-Brabant,VBO,4.795253,51.540546
Tolweg,11,,,4851SJ,Ulvenhout,Breda,Noord-Brabant,VBO,4.795449,51.539867
Tolweg,13,,,4851SJ,Ulvenhout,Breda,Noord-Brabant,VBO,4.795108,51.539994
Tolweg,15,,,4851SJ,Ulvenhout,Breda,Noord-Brabant,VBO,4.794763,51.540259
Strijbeekseweg,1,,,4851SK,Ulvenhout,Breda,Noord-Brabant,VBO,4.795186,51.541818
Strijbeekseweg,3,,,4851SK,Ulvenhout,Breda,Noord-Brabant,VBO,4.795214,51.541728
Strijbeekseweg,5,,,4851SK,Ulvenhout,Breda,Noord-Brabant,VBO,4.795200,51.541652
Strijbeekseweg,9,,,4851SK,Ulvenhout,Breda,Noord-Brabant,VBO,4.795020,51.541112
Strijbeekseweg,11,A,,4851SK,Ulvenhout,Breda,Noord-Brabant,VBO,4.794392,51.540527
Strijbeekseweg,11,B,,4851SK,Ulvenhout,Breda,Noord-Brabant,VBO,4.793504,51.540023
Strijbeekseweg,11,,,4851SK,Ulvenhout,Breda,Noord-Brabant,VBO,4.794775,51.540776
Strijbeekseweg,13,,,4851SK,Ulvenhout,Breda,Noord-Brabant,VBO,4.792995,51.539775
Strijbeekseweg,15,A,,4851SK,Ulvenhout,Breda,Noord-Brabant,VBO,4.791929,51.538956
Strijbeekseweg,15,B,,4851SK,Ulvenhout,Breda,Noord-Brabant,VBO,4.791587,51.538725
Strijbeekseweg,15,,,4851SK,Ulvenhout,Breda,Noord-Brabant,VBO,4.792398,51.539141
Strijbeekseweg,17,,,4851SK,Ulvenhout,Breda,Noord-Brabant,VBO,4.791104,51.538508
Strijbeekseweg,19,A,,4851SK,Ulvenhout,Breda,Noord-Brabant,VBO,4.792351,51.537944
Strijbeekseweg,19,,,4851SK,Ulvenhout,Breda,Noord-Brabant,VBO,4.790906,51.538278
Strijbeekseweg,21,A,,4851SK,Ulvenhout,Breda,Noord-Brabant,VBO,4.790624,51.537517
Strijbeekseweg,21,B,,4851SK,Ulvenhout,Breda,Noord-Brabant,VBO,4.791648,51.536116
Strijbeekseweg,21,,,4851SK,Ulvenhout,Breda,Noord-Brabant,VBO,4.790861,51.537830
Strijbeekseweg,23,,,4851SK,Ulvenhout,Breda,Noord-Brabant,VBO,4.791240,51.536370
Strijbeekseweg,2,A,,4851SL,Ulvenhout,Breda,Noord-Brabant,VBO,4.794839,51.541987
Strijbeekseweg,2,,,4851SL,Ulvenhout,Breda,Noord-Brabant,VBO,4.794894,51.541847
Strijbeekseweg,4,A,,4851SL,Ulvenhout,Breda,Noord-Brabant,VBO,4.794714,51.541686
Strijbeekseweg,4,B,,4851SL,Ulvenhout,Breda,Noord-Brabant,VBO,4.794670,51.541565
Strijbeekseweg,4,,,4851SL,Ulvenhout,Breda,Noord-Brabant,VBO,4.794877,51.541794
Strijbeekseweg,6,,,4851SL,Ulvenhout,Breda,Noord-Brabant,VBO,4.794544,51.541153
Strijbeekseweg,8,A,,4851SL,Ulvenhout,Breda,Noord-Brabant,VBO,4.792803,51.540287
Strijbeekseweg,8,,,4851SL,Ulvenhout,Breda,Noord-Brabant,VBO,4.794477,51.541083
Strijbeekseweg,12,,,4851SL,Ulvenhout,Breda,Noord-Brabant,VBO,4.791448,51.539752
Strijbeekseweg,14,,,4851SL,Ulvenhout,Breda,Noord-Brabant,VBO,4.790940,51.539097
Strijbeekseweg,16,A,,4851SL,Ulvenhout,Breda,Noord-Brabant,VBO,4.789636,51.537295
Strijbeekseweg,16,B,,4851SL,Ulvenhout,Breda,Noord-Brabant,VBO,4.789705,51.537681
Strijbeekseweg,16,,,4851SL,Ulvenhout,Breda,Noord-Brabant,VBO,4.790245,51.538050
Strijbeekseweg,18,A,,4851SL,Ulvenhout,Breda,Noord-Brabant,VBO,4.789949,51.536901
Strijbeekseweg,18,B,,4851SL,Ulvenhout,Breda,Noord-Brabant,VBO,4.789950,51.536849
Strijbeekseweg,18,C,,4851SL,Ulvenhout,Breda,Noord-Brabant,VBO,4.789950,51.536587
Strijbeekseweg,18,,,4851SL,Ulvenhout,Breda,Noord-Brabant,VBO,4.788852,51.538434
Chaamseweg,1,A,,4851SM,Ulvenhout,Breda,Noord-Brabant,VBO,4.795898,51.541731
Chaamseweg,1,B,,4851SM,Ulvenhout,Breda,Noord-Brabant,VBO,4.795939,51.541738
Chaamseweg,1,C,,4851SM,Ulvenhout,Breda,Noord-Brabant,VBO,4.796008,51.541811
Chaamseweg,1,D,,4851SM,Ulvenhout,Breda,Noord-Brabant,VBO,4.796084,51.541871
Chaamseweg,1,,,4851SM,Ulvenhout,Breda,Noord-Brabant,VBO,4.795885,51.541725
Chaamseweg,2,,,4851SM,Ulvenhout,Breda,Noord-Brabant,VBO,4.795386,51.541261
Chaamseweg,4,,,4851SM,Ulvenhout,Breda,Noord-Brabant,VBO,4.795622,51.541202
Chaamseweg,5,,,4851SM,Ulvenhout,Breda,Noord-Brabant,VBO,4.796007,51.541367
Chaamseweg,6,,,4851SM,Ulvenhout,Breda,Noord-Brabant,VBO,4.795942,51.540978
Chaamseweg,7,,,4851SM,Ulvenhout,Breda,Noord-Brabant,VBO,4.796063,51.541342
Chaamseweg,8,,,4851SM,Ulvenhout,Breda,Noord-Brabant,VBO,4.796091,51.540849
Chaamseweg,9,,,4851SM,Ulvenhout,Breda,Noord-Brabant,VBO,4.796133,51.541312
Chaamseweg,10,,,4851SM,Ulvenhout,Breda,Noord-Brabant,VBO,4.796419,51.540717
Chaamseweg,11,,,4851SM,Ulvenhout,Breda,Noord-Brabant,VBO,4.796205,51.541266
Chaamseweg,12,,,4851SM,Ulvenhout,Breda,Noord-Brabant,VBO,4.796621,51.540594
Chaamseweg,14,,,4851SM,Ulvenhout,Breda,Noord-Brabant,VBO,4.796725,51.540474
Chaamseweg,16,,,4851SM,Ulvenhout,Breda,Noord-Brabant,VBO,4.796761,51.540272
Chaamse Baan,2,,,4851SN,Ulvenhout,Breda,Noord-Brabant,VBO,4.794333,51.539615
Chaamse Baan,4,,,4851SN,Ulvenhout,Breda,Noord-Brabant,VBO,4.794062,51.539446
Chaamse Baan,6,,,4851SN,Ulvenhout,Breda,Noord-Brabant,VBO,4.794554,51.539528
Chaamse Baan,8,,,4851SN,Ulvenhout,Breda,Noord-Brabant,VBO,4.795518,51.538924
Oude Beekhoek,1,,,4851SP,Ulvenhout,Breda,Noord-Brabant,VBO,4.797213,51.540665
Oude Beekhoek,2,,,4851SP,Ulvenhout,Breda,Noord-Brabant,VBO,4.798615,51.541474
Oude Beekhoek,3,,,4851SP,Ulvenhout,Breda,Noord-Brabant,VBO,4.797375,51.540856
Oude Beekhoek,5,,,4851SP,Ulvenhout,Breda,Noord-Brabant,VBO,4.798334,51.541512
Mouterijstraat,1,A,,4851SR,Ulvenhout,Breda,Noord-Brabant,VBO,4.797640,51.547928
Mouterijstraat,1,B,,4851SR,Ulvenhout,Breda,Noord-Brabant,VBO,4.797791,51.547938
Mouterijstraat,1,,,4851SR,Ulvenhout,Breda,Noord-Brabant,VBO,4.797642,51.547949
Mouterijstraat,2,A,,4851SR,Ulvenhout,Breda,Noord-Brabant,VBO,4.797554,51.547935
Mouterijstraat,2,,,4851SR,Ulvenhout,Breda,Noord-Brabant,VBO,4.797557,51.547962
Mouterijstraat,3,A,,4851SR,Ulvenhout,Breda,Noord-Brabant,VBO,4.797310,51.547771
Mouterijstraat,3,,,4851SR,Ulvenhout,Breda,Noord-Brabant,VBO,4.797318,51.547810
Mouterijstraat,4,A,,4851SR,Ulvenhout,Breda,Noord-Brabant,VBO,4.797350,51.547955
Mouterijstraat,4,,,4851SR,Ulvenhout,Breda,Noord-Brabant,VBO,4.797357,51.547969
Mouterijstraat,5,,,4851SR,Ulvenhout,Breda,Noord-Brabant,VBO,4.796945,51.548007
Mouterijstraat,7,,,4851SR,Ulvenhout,Breda,Noord-Brabant,VBO,4.796720,51.548019
Mouterijstraat,9,,,4851SR,Ulvenhout,Breda,Noord-Brabant,VBO,4.796520,51.548029
Mouterijstraat,11,,,4851SR,Ulvenhout,Breda,Noord-Brabant,VBO,4.796302,51.548041
Mouterijstraat,13,,,4851SR,Ulvenhout,Breda,Noord-Brabant,VBO,4.796065,51.548053
Vlasaard,1,,,4851SV,Ulvenhout,Breda,Noord-Brabant,VBO,4.794927,51.542903
Vlasaard,2,,,4851SV,Ulvenhout,Breda,Noord-Brabant,VBO,4.794805,51.542876
Vlasaard,3,,,4851SV,Ulvenhout,Breda,Noord-Brabant,VBO,4.794595,51.542851
Vlasaard,4,,,4851SV,Ulvenhout,Breda,Noord-Brabant,VBO,4.794453,51.542819
Vlasaard,5,,,4851SV,Ulvenhout,Breda,Noord-Brabant,VBO,4.794313,51.542719
Vlasaard,6,,,4851SV,Ulvenhout,Breda,Noord-Brabant,VBO,4.794329,51.542622
Vlasaard,7,,,4851SV,Ulvenhout,Breda,Noord-Brabant,VBO,4.794503,51.542534
Vlasaard,8,,,4851SV,Ulvenhout,Breda,Noord-Brabant,VBO,4.794649,51.542516
Vlasaard,9,,,4851SV,Ulvenhout,Breda,Noord-Brabant,VBO,4.794897,51.542502
Beekdal,2,,,4851SW,Ulvenhout,Breda,Noord-Brabant,VBO,4.795909,51.542659
Beekdal,4,,,4851SW,Ulvenhout,Breda,Noord-Brabant,VBO,4.795970,51.542645
Beekdal,6,,,4851SW,Ulvenhout,Breda,Noord-Brabant,VBO,4.796042,51.542628
Beekdal,7,,,4851SW,Ulvenhout,Breda,Noord-Brabant,VBO,4.795887,51.542905
Beekdal,8,,,4851SW,Ulvenhout,Breda,Noord-Brabant,VBO,4.796119,51.542611
Beekdal,9,,,4851SW,Ulvenhout,Breda,Noord-Brabant,VBO,4.796080,51.542885
Beekdal,10,,,4851SW,Ulvenhout,Breda,Noord-Brabant,VBO,4.796241,51.542566
Beekdal,11,,,4851SW,Ulvenhout,Breda,Noord-Brabant,VBO,4.796332,51.542810
Beekdal,12,,,4851SW,Ulvenhout,Breda,Noord-Brabant,VBO,4.796305,51.542538
Beekdal,13,,,4851SW,Ulvenhout,Breda,Noord-Brabant,VBO,4.796540,51.542720
Beekdal,14,,,4851SW,Ulvenhout,Breda,Noord-Brabant,VBO,4.796370,51.542510
Beekdal,15,,,4851SW,Ulvenhout,Breda,Noord-Brabant,VBO,4.796599,51.542695
Beekdal,16,,,4851SW,Ulvenhout,Breda,Noord-Brabant,VBO,4.796428,51.542485
Beekdal,17,,,4851SW,Ulvenhout,Breda,Noord-Brabant,VBO,4.796737,51.542635
Beekdal,18,,,4851SW,Ulvenhout,Breda,Noord-Brabant,VBO,4.796502,51.542453
Beekdal,19,,,4851SW,Ulvenhout,Breda,Noord-Brabant,VBO,4.796817,51.542601
Beekdal,20,,,4851SW,Ulvenhout,Breda,Noord-Brabant,VBO,4.796594,51.542412
Beekdal,21,,,4851SW,Ulvenhout,Breda,Noord-Brabant,VBO,4.796947,51.542545
Beekdal,22,,,4851SW,Ulvenhout,Breda,Noord-Brabant,VBO,4.796658,51.542383
Beekdal,23,,,4851SW,Ulvenhout,Breda,Noord-Brabant,VBO,4.797023,51.542512
Beekdal,24,A,,4851SW,Ulvenhout,Breda,Noord-Brabant,VBO,4.796788,51.542323
Beekdal,24,,,4851SW,Ulvenhout,Breda,Noord-Brabant,VBO,4.796722,51.542353
Beekdal,25,,,4851SW,Ulvenhout,Breda,Noord-Brabant,VBO,4.797218,51.542406
Beekdal,26,,,4851SW,Ulvenhout,Breda,Noord-Brabant,VBO,4.796983,51.542207
Beekdal,27,,,4851SW,Ulvenhout,Breda,Noord-Brabant,VBO,4.797353,51.542306
Beekdal,28,,,4851SW,Ulvenhout,Breda,Noord-Brabant,VBO,4.797126,51.542110
Beekdal,29,,,4851SW,Ulvenhout,Breda,Noord-Brabant,VBO,4.797487,51.542205
Beekdal,30,,,4851SW,Ulvenhout,Breda,Noord-Brabant,VBO,4.797256,51.542003
Beekdal,31,,,4851SW,Ulvenhout,Breda,Noord-Brabant,VBO,4.797609,51.542115
Beekdal,32,,,4851SW,Ulvenhout,Breda,Noord-Brabant,VBO,4.797406,51.541902
Beekdal,33,,,4851SW,Ulvenhout,Breda,Noord-Brabant,VBO,4.797764,51.542015
Beekdal,34,,,4851SW,Ulvenhout,Breda,Noord-Brabant,VBO,4.797285,51.541748
Beekdal,35,,,4851SW,Ulvenhout,Breda,Noord-Brabant,VBO,4.798090,51.541943
Beekdal,36,,,4851SW,Ulvenhout,Breda,Noord-Brabant,VBO,4.797165,51.541657
Beekdal,37,,,4851SW,Ulvenhout,Breda,Noord-Brabant,VBO,4.797891,51.541819
Beekdal,38,A,,4851SW,Ulvenhout,Breda,Noord-Brabant,VBO,4.796966,51.541523
Beekdal,38,,,4851SW,Ulvenhout,Breda,Noord-Brabant,VBO,4.797038,51.541569
Beekdal,39,,,4851SW,Ulvenhout,Breda,Noord-Brabant,VBO,4.797826,51.541724
Beekdal,40,,,4851SW,Ulvenhout,Breda,Noord-Brabant,VBO,4.796836,51.541442
Beekdal,41,,,4851SW,Ulvenhout,Breda,Noord-Brabant,VBO,4.797730,51.541660
Beekdal,42,,,4851SW,Ulvenhout,Breda,Noord-Brabant,VBO,4.796708,51.541368
Beekdal,43,,,4851SW,Ulvenhout,Breda,Noord-Brabant,VBO,4.797648,51.541585
Beekdal,44,,,4851SW,Ulvenhout,Breda,Noord-Brabant,VBO,4.796658,51.541338
Beekdal,45,,,4851SW,Ulvenhout,Breda,Noord-Brabant,VBO,4.797634,51.541506
Beekdal,46,,,4851SW,Ulvenhout,Breda,Noord-Brabant,VBO,4.796605,51.541290
Beekdal,47,,,4851SW,Ulvenhout,Breda,Noord-Brabant,VBO,4.797544,51.541445
Beekdal,48,,,4851SW,Ulvenhout,Breda,Noord-Brabant,VBO,4.796527,51.541269
Beekdal,49,,,4851SW,Ulvenhout,Breda,Noord-Brabant,VBO,4.797401,51.541346
Beekdal,50,,,4851SW,Ulvenhout,Breda,Noord-Brabant,VBO,4.796436,51.541277
Beekdal,51,,,4851SW,Ulvenhout,Breda,Noord-Brabant,VBO,4.797313,51.541285
Beekdal,52,,,4851SW,Ulvenhout,Breda,Noord-Brabant,VBO,4.796361,51.541274
Beekdal,53,,,4851SW,Ulvenhout,Breda,Noord-Brabant,VBO,4.797184,51.541266
Beekdal,54,,,4851SW,Ulvenhout,Breda,Noord-Brabant,VBO,4.796284,51.541258
Beekdal,55,,,4851SW,Ulvenhout,Breda,Noord-Brabant,VBO,4.797077,51.541197
Beekdal,57,,,4851SW,Ulvenhout,Breda,Noord-Brabant,VBO,4.796976,51.541174
Beekdal,59,,,4851SW,Ulvenhout,Breda,Noord-Brabant,VBO,4.796922,51.541075
Beekdal,61,,,4851SW,Ulvenhout,Breda,Noord-Brabant,VBO,4.796823,51.541055
Beekdal,63,,,4851SW,Ulvenhout,Breda,Noord-Brabant,VBO,4.796729,51.540954
J.F. Kellyweg,2,,,4851SX,Ulvenhout,Breda,Noord-Brabant,VBO,4.797747,51.539934
J.F. Kellyweg,4,,,4851SX,Ulvenhout,Breda,Noord-Brabant,VBO,4.798119,51.539719
J.F. Kellyweg,6,,,4851SX,Ulvenhout,Breda,Noord-Brabant,VBO,4.798478,51.539513
J.F. Kellyweg,8,,,4851SX,Ulvenhout,Breda,Noord-Brabant,VBO,4.802524,51.541438
J.F. Kellyweg,10,,,4851SX,Ulvenhout,Breda,Noord-Brabant,VBO,4.804763,51.541642
J.F. Kellyweg,12,,,4851SX,Ulvenhout,Breda,Noord-Brabant,VBO,4.804991,51.541423
J.F. Kellyweg,14,,,4851SX,Ulvenhout,Breda,Noord-Brabant,VBO,4.805835,51.541775
J.F. Kellyweg,16,,,4851SX,Ulvenhout,Breda,Noord-Brabant,VBO,4.805818,51.541821
J.F. Kellyweg,18,,,4851SX,Ulvenhout,Breda,Noord-Brabant,VBO,4.805806,51.541884
J.F. Kellyweg,20,,,4851SX,Ulvenhout,Breda,Noord-Brabant,VBO,4.805911,51.541900
J.F. Kellyweg,22,,,4851SX,Ulvenhout,Breda,Noord-Brabant,VBO,4.806017,51.541912
J.F. Kellyweg,24,,,4851SX,Ulvenhout,Breda,Noord-Brabant,VBO,4.806115,51.541915
J.F. Kellyweg,26,,,4851SX,Ulvenhout,Breda,Noord-Brabant,VBO,4.806131,51.541859
J.F. Kellyweg,28,,,4851SX,Ulvenhout,Breda,Noord-Brabant,VBO,4.806155,51.541801
J.F. Kellyweg,30,,,4851SX,Ulvenhout,Breda,Noord-Brabant,VBO,4.806175,51.541754
J.F. Kellyweg,32,,,4851SX,Ulvenhout,Breda,Noord-Brabant,VBO,4.806196,51.541698
J.F. Kellyweg,34,,,4851SX,Ulvenhout,Breda,Noord-Brabant,VBO,4.806094,51.541676
J.F. Kellyweg,36,,,4851SX,Ulvenhout,Breda,Noord-Brabant,VBO,4.805981,51.541666
J.F. Kellyweg,38,,,4851SX,Ulvenhout,Breda,Noord-Brabant,VBO,4.805883,51.541658
J.F. Kellyweg,40,,,4851SX,Ulvenhout,Breda,Noord-Brabant,VBO,4.805860,51.541721
't Hoekske,2,A,,4851SZ,Ulvenhout,Breda,Noord-Brabant,VBO,4.797334,51.539753
't Hoekske,2,B,,4851SZ,Ulvenhout,Breda,Noord-Brabant,VBO,4.797367,51.539704
't Hoekske,2,,,4851SZ,Ulvenhout,Breda,Noord-Brabant,VBO,4.797271,51.539961
't Hoekske,4,,,4851SZ,Ulvenhout,Breda,Noord-Brabant,VBO,4.797481,51.539552
't Hoekske,6,,,4851SZ,Ulvenhout,Breda,Noord-Brabant,VBO,4.797569,51.539377
't Hoekske,8,,,4851SZ,Ulvenhout,Breda,Noord-Brabant,VBO,4.797639,51.539219
't Hofflandt,1,,,4851TA,Ulvenhout,Breda,Noord-Brabant,VBO,4.799095,51.548134
't Hofflandt,3,,,4851TA,Ulvenhout,Breda,Noord-Brabant,VBO,4.799273,51.548112
't Hofflandt,5,,,4851TA,Ulvenhout,Breda,Noord-Brabant,VBO,4.799457,51.548089
't Hofflandt,7,,,4851TA,Ulvenhout,Breda,Noord-Brabant,VBO,4.799616,51.548070
't Hofflandt,9,,,4851TA,Ulvenhout,Breda,Noord-Brabant,VBO,4.799751,51.548053
't Hofflandt,11,,,4851TA,Ulvenhout,Breda,Noord-Brabant,VBO,4.799899,51.548035
't Hofflandt,13,,,4851TA,Ulvenhout,Breda,Noord-Brabant,VBO,4.800028,51.548019
't Hofflandt,15,,,4851TA,Ulvenhout,Breda,Noord-Brabant,VBO,4.800454,51.547938
't Hofflandt,17,,,4851TA,Ulvenhout,Breda,Noord-Brabant,VBO,4.800697,51.547905
't Hofflandt,19,,,4851TA,Ulvenhout,Breda,Noord-Brabant,VBO,4.800884,51.547879
't Hofflandt,21,,,4851TA,Ulvenhout,Breda,Noord-Brabant,VBO,4.801044,51.547856
't Hofflandt,23,,,4851TA,Ulvenhout,Breda,Noord-Brabant,VBO,4.801180,51.547836
't Hofflandt,25,,,4851TA,Ulvenhout,Breda,Noord-Brabant,VBO,4.801353,51.547811
't Hofflandt,27,,,4851TA,Ulvenhout,Breda,Noord-Brabant,VBO,4.801521,51.547787
't Hofflandt,29,,,4851TA,Ulvenhout,Breda,Noord-Brabant,VBO,4.801664,51.547766
't Hofflandt,31,,,4851TB,Ulvenhout,Breda,Noord-Brabant,VBO,4.801891,51.547734
't Hofflandt,33,,,4851TB,Ulvenhout,Breda,Noord-Brabant,VBO,4.802027,51.547716
't Hofflandt,35,,,4851TB,Ulvenhout,Breda,Noord-Brabant,VBO,4.802166,51.547698
't Hofflandt,37,,,4851TB,Ulvenhout,Breda,Noord-Brabant,VBO,4.802296,51.547681
't Hofflandt,39,,,4851TB,Ulvenhout,Breda,Noord-Brabant,VBO,4.802475,51.547657
't Hofflandt,41,,,4851TB,Ulvenhout,Breda,Noord-Brabant,VBO,4.802677,51.547629
't Hofflandt,43,,,4851TB,Ulvenhout,Breda,Noord-Brabant,VBO,4.802886,51.547601
't Hofflandt,45,,,4851TB,Ulvenhout,Breda,Noord-Brabant,VBO,4.803054,51.547578
't Hofflandt,47,,,4851TB,Ulvenhout,Breda,Noord-Brabant,VBO,4.803183,51.547561
't Hofflandt,49,,,4851TB,Ulvenhout,Breda,Noord-Brabant,VBO,4.804147,51.547429
't Hofflandt,51,,,4851TB,Ulvenhout,Breda,Noord-Brabant,VBO,4.804269,51.547413
't Hofflandt,53,,,4851TB,Ulvenhout,Breda,Noord-Brabant,VBO,4.804436,51.547391
't Hofflandt,55,,,4851TB,Ulvenhout,Breda,Noord-Brabant,VBO,4.804660,51.547361
't Hofflandt,57,,,4851TB,Ulvenhout,Breda,Noord-Brabant,VBO,4.804865,51.547331
't Hofflandt,59,,,4851TB,Ulvenhout,Breda,Noord-Brabant,VBO,4.805052,51.547301
't Hofflandt,61,,,4851TB,Ulvenhout,Breda,Noord-Brabant,VBO,4.805256,51.547268
't Hofflandt,2,,,4851TC,Ulvenhout,Breda,Noord-Brabant,VBO,4.800100,51.547267
't Hofflandt,4,,,4851TC,Ulvenhout,Breda,Noord-Brabant,VBO,4.800283,51.547240
't Hofflandt,6,,,4851TC,Ulvenhout,Breda,Noord-Brabant,VBO,4.800458,51.547215
't Hofflandt,8,,,4851TC,Ulvenhout,Breda,Noord-Brabant,VBO,4.800648,51.547186
't Hofflandt,10,,,4851TC,Ulvenhout,Breda,Noord-Brabant,VBO,4.801056,51.547216
't Hofflandt,12,,,4851TC,Ulvenhout,Breda,Noord-Brabant,VBO,4.801144,51.547427
't Hofflandt,14,,,4851TC,Ulvenhout,Breda,Noord-Brabant,VBO,4.801256,51.547427
't Hofflandt,16,,,4851TC,Ulvenhout,Breda,Noord-Brabant,VBO,4.801445,51.547402
't Hofflandt,18,,,4851TC,Ulvenhout,Breda,Noord-Brabant,VBO,4.801579,51.547384
't Hofflandt,20,,,4851TC,Ulvenhout,Breda,Noord-Brabant,VBO,4.801770,51.547358
't Hofflandt,22,,,4851TC,Ulvenhout,Breda,Noord-Brabant,VBO,4.801938,51.547335
't Hofflandt,24,,,4851TC,Ulvenhout,Breda,Noord-Brabant,VBO,4.802057,51.547319
't Hofflandt,28,,,4851TC,Ulvenhout,Breda,Noord-Brabant,VBO,4.802464,51.547264
't Hofflandt,30,,,4851TC,Ulvenhout,Breda,Noord-Brabant,VBO,4.802678,51.547235
't Hofflandt,32,,,4851TC,Ulvenhout,Breda,Noord-Brabant,VBO,4.802883,51.547209
't Hofflandt,34,,,4851TC,Ulvenhout,Breda,Noord-Brabant,VBO,4.803099,51.547177
't Hofflandt,36,,,4851TC,Ulvenhout,Breda,Noord-Brabant,VBO,4.803702,51.547096
't Hofflandt,38,,,4851TC,Ulvenhout,Breda,Noord-Brabant,VBO,4.803892,51.547069
't Hofflandt,40,,,4851TC,Ulvenhout,Breda,Noord-Brabant,VBO,4.804078,51.547042
't Hofflandt,42,,,4851TC,Ulvenhout,Breda,Noord-Brabant,VBO,4.804186,51.547028
't Hofflandt,44,,,4851TC,Ulvenhout,Breda,Noord-Brabant,VBO,4.804363,51.547004
't Hofflandt,46,,,4851TC,Ulvenhout,Breda,Noord-Brabant,VBO,4.804476,51.546989
't Hofflandt,48,,,4851TC,Ulvenhout,Breda,Noord-Brabant,VBO,4.804867,51.546933
't Hofflandt,50,,,4851TC,Ulvenhout,Breda,Noord-Brabant,VBO,4.805150,51.546852
't Hofflandt,52,,,4851TC,Ulvenhout,Breda,Noord-Brabant,VBO,4.805460,51.546834
De Roskam,3,,,4851TD,Ulvenhout,Breda,Noord-Brabant,VBO,4.800712,51.548725
De Roskam,5,,,4851TD,Ulvenhout,Breda,Noord-Brabant,VBO,4.800687,51.548671
De Roskam,7,,,4851TD,Ulvenhout,Breda,Noord-Brabant,VBO,4.800663,51.548615
De Roskam,9,,,4851TD,Ulvenhout,Breda,Noord-Brabant,VBO,4.800639,51.548560
De Roskam,11,,,4851TD,Ulvenhout,Breda,Noord-Brabant,VBO,4.800546,51.548348
De Roskam,13,,,4851TD,Ulvenhout,Breda,Noord-Brabant,VBO,4.800520,51.548286
De Roskam,15,,,4851TD,Ulvenhout,Breda,Noord-Brabant,VBO,4.800496,51.548231
De Roskam,17,,,4851TD,Ulvenhout,Breda,Noord-Brabant,VBO,4.800471,51.548174
De Roskam,21,,,4851TD,Ulvenhout,Breda,Noord-Brabant,VBO,4.800014,51.547057
De Roskam,23,,,4851TD,Ulvenhout,Breda,Noord-Brabant,VBO,4.799977,51.546956
De Roskam,2,,,4851TE,Ulvenhout,Breda,Noord-Brabant,VBO,4.800407,51.548933
De Roskam,4,,,4851TE,Ulvenhout,Breda,Noord-Brabant,VBO,4.800377,51.548866
De Roskam,6,,,4851TE,Ulvenhout,Breda,Noord-Brabant,VBO,4.800352,51.548808
De Roskam,8,,,4851TE,Ulvenhout,Breda,Noord-Brabant,VBO,4.800089,51.548870
De Roskam,10,,,4851TE,Ulvenhout,Breda,Noord-Brabant,VBO,4.799985,51.548887
De Roskam,12,,,4851TE,Ulvenhout,Breda,Noord-Brabant,VBO,4.799896,51.548902
De Roskam,14,,,4851TE,Ulvenhout,Breda,Noord-Brabant,VBO,4.799814,51.548916
De Roskam,16,A,,4851TE,Ulvenhout,Breda,Noord-Brabant,VBO,4.799124,51.549139
De Roskam,16,,G1,4851TE,Ulvenhout,Breda,Noord-Brabant,VBO,4.799692,51.549067
De Roskam,16,,G2,4851TE,Ulvenhout,Breda,Noord-Brabant,VBO,4.799649,51.549071
De Roskam,16,,G3,4851TE,Ulvenhout,Breda,Noord-Brabant,VBO,4.799605,51.549080
De Roskam,16,,G4,4851TE,Ulvenhout,Breda,Noord-Brabant,VBO,4.799562,51.549089
De Roskam,16,,G5,4851TE,Ulvenhout,Breda,Noord-Brabant,VBO,4.799519,51.549098
De Roskam,16,,,4851TE,Ulvenhout,Breda,Noord-Brabant,VBO,4.799711,51.548933
De Roskam,18,,,4851TE,Ulvenhout,Breda,Noord-Brabant,VBO,4.799521,51.548907
De Roskam,20,,,4851TE,Ulvenhout,Breda,Noord-Brabant,VBO,4.799492,51.548841
De Roskam,22,,,4851TE,Ulvenhout,Breda,Noord-Brabant,VBO,4.799469,51.548788
De Roskam,24,,,4851TE,Ulvenhout,Breda,Noord-Brabant,VBO,4.799445,51.548733
De Roskam,26,,,4851TE,Ulvenhout,Breda,Noord-Brabant,VBO,4.799421,51.548677
De Roskam,28,,,4851TE,Ulvenhout,Breda,Noord-Brabant,VBO,4.799397,51.548624
De Roskam,30,,,4851TE,Ulvenhout,Breda,Noord-Brabant,VBO,4.799373,51.548567
De Roskam,32,,,4851TE,Ulvenhout,Breda,Noord-Brabant,VBO,4.799349,51.548513
De Roskam,34,,,4851TE,Ulvenhout,Breda,Noord-Brabant,VBO,4.799495,51.548425
De Roskam,36,,,4851TE,Ulvenhout,Breda,Noord-Brabant,VBO,4.799595,51.548407
De Roskam,38,,,4851TE,Ulvenhout,Breda,Noord-Brabant,VBO,4.799684,51.548392
De Roskam,40,,,4851TE,Ulvenhout,Breda,Noord-Brabant,VBO,4.799774,51.548376
De Roskam,42,,,4851TE,Ulvenhout,Breda,Noord-Brabant,VBO,4.799860,51.548361
De Roskam,44,,,4851TE,Ulvenhout,Breda,Noord-Brabant,VBO,4.800146,51.548333
De Roskam,46,,,4851TE,Ulvenhout,Breda,Noord-Brabant,VBO,4.800118,51.548270
De Roskam,48,,,4851TE,Ulvenhout,Breda,Noord-Brabant,VBO,4.800091,51.548209
De Roskam,50,,,4851TE,Ulvenhout,Breda,Noord-Brabant,VBO,4.799541,51.547588
Gareelstraat,1,,,4851TG,Ulvenhout,Breda,Noord-Brabant,VBO,4.800926,51.548516
Gareelstraat,3,,,4851TG,Ulvenhout,Breda,Noord-Brabant,VBO,4.801052,51.548500
Gareelstraat,5,,,4851TG,Ulvenhout,Breda,Noord-Brabant,VBO,4.801177,51.548483
Gareelstraat,7,,,4851TG,Ulvenhout,Breda,Noord-Brabant,VBO,4.801281,51.548469
Gareelstraat,9,,,4851TG,Ulvenhout,Breda,Noord-Brabant,VBO,4.801417,51.548451
Gareelstraat,11,,,4851TG,Ulvenhout,Breda,Noord-Brabant,VBO,4.801529,51.548435
Gareelstraat,13,,,4851TG,Ulvenhout,Breda,Noord-Brabant,VBO,4.801658,51.548418
Gareelstraat,15,,,4851TG,Ulvenhout,Breda,Noord-Brabant,VBO,4.801773,51.548403
Gareelstraat,17,,,4851TG,Ulvenhout,Breda,Noord-Brabant,VBO,4.801922,51.548382
Gareelstraat,19,,,4851TG,Ulvenhout,Breda,Noord-Brabant,VBO,4.802157,51.548333
Gareelstraat,21,,,4851TG,Ulvenhout,Breda,Noord-Brabant,VBO,4.802275,51.548316
Gareelstraat,23,,,4851TG,Ulvenhout,Breda,Noord-Brabant,VBO,4.802425,51.548296
Gareelstraat,25,,,4851TG,Ulvenhout,Breda,Noord-Brabant,VBO,4.802545,51.548280
Gareelstraat,27,,,4851TG,Ulvenhout,Breda,Noord-Brabant,VBO,4.802687,51.548261
Gareelstraat,29,,,4851TG,Ulvenhout,Breda,Noord-Brabant,VBO,4.802815,51.548243
Gareelstraat,31,,,4851TG,Ulvenhout,Breda,Noord-Brabant,VBO,4.802979,51.548221
Gareelstraat,2,,,4851TH,Ulvenhout,Breda,Noord-Brabant,VBO,4.800836,51.548303
Gareelstraat,4,,,4851TH,Ulvenhout,Breda,Noord-Brabant,VBO,4.800971,51.548285
Gareelstraat,6,,,4851TH,Ulvenhout,Breda,Noord-Brabant,VBO,4.801091,51.548269
Gareelstraat,8,,,4851TH,Ulvenhout,Breda,Noord-Brabant,VBO,4.801245,51.548248
Gareelstraat,10,,,4851TH,Ulvenhout,Breda,Noord-Brabant,VBO,4.801377,51.548231
Gareelstraat,12,,,4851TH,Ulvenhout,Breda,Noord-Brabant,VBO,4.801531,51.548210
Gareelstraat,14,,,4851TH,Ulvenhout,Breda,Noord-Brabant,VBO,4.801663,51.548192
Gareelstraat,16,,,4851TH,Ulvenhout,Breda,Noord-Brabant,VBO,4.801755,51.548180
Gareelstraat,18,,,4851TH,Ulvenhout,Breda,Noord-Brabant,VBO,4.801848,51.548168
Gareelstraat,20,,,4851TH,Ulvenhout,Breda,Noord-Brabant,VBO,4.802065,51.548120
Gareelstraat,22,,,4851TH,Ulvenhout,Breda,Noord-Brabant,VBO,4.802184,51.548104
Gareelstraat,24,,,4851TH,Ulvenhout,Breda,Noord-Brabant,VBO,4.802317,51.548086
Gareelstraat,26,,,4851TH,Ulvenhout,Breda,Noord-Brabant,VBO,4.802432,51.548071
Gareelstraat,28,,,4851TH,Ulvenhout,Breda,Noord-Brabant,VBO,4.802567,51.548052
Gareelstraat,30,,,4851TH,Ulvenhout,Breda,Noord-Brabant,VBO,4.802683,51.548037
Gareelstraat,32,,,4851TH,Ulvenhout,Breda,Noord-Brabant,VBO,4.802817,51.548019
Gareelstraat,34,,,4851TH,Ulvenhout,Breda,Noord-Brabant,VBO,4.802931,51.548003
Craenlaer,1,,,4851TJ,Ulvenhout,Breda,Noord-Brabant,VBO,4.804496,51.549480
Craenlaer,3,,,4851TJ,Ulvenhout,Breda,Noord-Brabant,VBO,4.804446,51.549322
Craenlaer,5,A,,4851TJ,Ulvenhout,Breda,Noord-Brabant,VBO,4.804042,51.548365
Craenlaer,5,,,4851TJ,Ulvenhout,Breda,Noord-Brabant,VBO,4.804330,51.548991
Craenlaer,7,,,4851TJ,Ulvenhout,Breda,Noord-Brabant,VBO,4.804024,51.548146
Craenlaer,9,,,4851TJ,Ulvenhout,Breda,Noord-Brabant,VBO,4.803969,51.547859
Craenlaer,11,,,4851TJ,Ulvenhout,Breda,Noord-Brabant,VBO,4.803889,51.547659
Craenlaer,13,,,4851TJ,Ulvenhout,Breda,Noord-Brabant,VBO,4.803839,51.547506
Craenlaer,15,,,4851TJ,Ulvenhout,Breda,Noord-Brabant,VBO,4.803605,51.546852
Craenlaer,17,,,4851TJ,Ulvenhout,Breda,Noord-Brabant,VBO,4.803530,51.546688
Craenlaer,2,,,4851TK,Ulvenhout,Breda,Noord-Brabant,VBO,4.803889,51.549802
Craenlaer,4,,,4851TK,Ulvenhout,Breda,Noord-Brabant,VBO,4.803840,51.549563
Craenlaer,6,,,4851TK,Ulvenhout,Breda,Noord-Brabant,VBO,4.803811,51.549428
Craenlaer,8,,,4851TK,Ulvenhout,Breda,Noord-Brabant,VBO,4.803750,51.549295
Craenlaer,12,,,4851TK,Ulvenhout,Breda,Noord-Brabant,VBO,4.803425,51.548301
Craenlaer,14,,,4851TK,Ulvenhout,Breda,Noord-Brabant,VBO,4.803383,51.548174
Craenlaer,16,,,4851TK,Ulvenhout,Breda,Noord-Brabant,VBO,4.803311,51.547963
Craenlaer,18,,,4851TK,Ulvenhout,Breda,Noord-Brabant,VBO,4.803267,51.547822
Craenlaer,20,,,4851TK,Ulvenhout,Breda,Noord-Brabant,VBO,4.803027,51.546950
Craenlaer,22,,,4851TK,Ulvenhout,Breda,Noord-Brabant,VBO,4.802981,51.546823
Craenlaer,24,,,4851TK,Ulvenhout,Breda,Noord-Brabant,VBO,4.802936,51.546695
Haamstraat,1,,,4851TL,Ulvenhout,Breda,Noord-Brabant,VBO,4.804253,51.548070
Haamstraat,2,,,4851TL,Ulvenhout,Breda,Noord-Brabant,VBO,4.804287,51.547833
Haamstraat,3,,,4851TL,Ulvenhout,Breda,Noord-Brabant,VBO,4.804370,51.548055
Haamstraat,4,,,4851TL,Ulvenhout,Breda,Noord-Brabant,VBO,4.804452,51.547811
Haamstraat,5,,,4851TL,Ulvenhout,Breda,Noord-Brabant,VBO,4.804549,51.548031
Haamstraat,6,,,4851TL,Ulvenhout,Breda,Noord-Brabant,VBO,4.804552,51.547797
Haamstraat,7,,,4851TL,Ulvenhout,Breda,Noord-Brabant,VBO,4.804662,51.548016
Haamstraat,8,,,4851TL,Ulvenhout,Breda,Noord-Brabant,VBO,4.804711,51.547774
Haamstraat,9,,,4851TL,Ulvenhout,Breda,Noord-Brabant,VBO,4.804855,51.547989
Haamstraat,10,,,4851TL,Ulvenhout,Breda,Noord-Brabant,VBO,4.804820,51.547758
Haamstraat,11,,,4851TL,Ulvenhout,Breda,Noord-Brabant,VBO,4.804967,51.547970
Haamstraat,12,,,4851TL,Ulvenhout,Breda,Noord-Brabant,VBO,4.805011,51.547726
Haamstraat,13,,,4851TL,Ulvenhout,Breda,Noord-Brabant,VBO,4.805164,51.547935
Haamstraat,14,,,4851TL,Ulvenhout,Breda,Noord-Brabant,VBO,4.805113,51.547708
Haamstraat,15,,,4851TL,Ulvenhout,Breda,Noord-Brabant,VBO,4.805259,51.547919
Haamstraat,16,,,4851TL,Ulvenhout,Breda,Noord-Brabant,VBO,4.805301,51.547675
Haamstraat,17,,,4851TL,Ulvenhout,Breda,Noord-Brabant,VBO,4.805463,51.547883
Haamstraat,18,,,4851TL,Ulvenhout,Breda,Noord-Brabant,VBO,4.805427,51.547653
Haamstraat,19,,,4851TL,Ulvenhout,Breda,Noord-Brabant,VBO,4.805562,51.547866
Elfenlaantje,2,,,4851TM,Ulvenhout,Breda,Noord-Brabant,VBO,4.802049,51.548597
Hoge Akker,1,,,4851VA,Ulvenhout,Breda,Noord-Brabant,VBO,4.804759,51.546718
Hoge Akker,2,,,4851VA,Ulvenhout,Breda,Noord-Brabant,VBO,4.804389,51.546780
Hoge Akker,3,,,4851VA,Ulvenhout,Breda,Noord-Brabant,VBO,4.804724,51.546641
Hoge Akker,4,,,4851VA,Ulvenhout,Breda,Noord-Brabant,VBO,4.804350,51.546690
Hoge Akker,5,,,4851VA,Ulvenhout,Breda,Noord-Brabant,VBO,4.804687,51.546558
Hoge Akker,6,,,4851VA,Ulvenhout,Breda,Noord-Brabant,VBO,4.804311,51.546602
Hoge Akker,7,,,4851VA,Ulvenhout,Breda,Noord-Brabant,VBO,4.804651,51.546477
Hoge Akker,8,,,4851VA,Ulvenhout,Breda,Noord-Brabant,VBO,4.804274,51.546520
Hoge Akker,9,,,4851VA,Ulvenhout,Breda,Noord-Brabant,VBO,4.804605,51.546382
Hoge Akker,10,,,4851VA,Ulvenhout,Breda,Noord-Brabant,VBO,4.804154,51.546391
Hoge Akker,11,,,4851VA,Ulvenhout,Breda,Noord-Brabant,VBO,4.804552,51.546307
Pennendijk,1,,,4851VB,Ulvenhout,Breda,Noord-Brabant,VBO,4.799571,51.547039
Pennendijk,3,,,4851VB,Ulvenhout,Breda,Noord-Brabant,VBO,4.799749,51.546782
Pennendijk,5,,,4851VB,Ulvenhout,Breda,Noord-Brabant,VBO,4.799829,51.546681
Pennendijk,7,,,4851VB,Ulvenhout,Breda,Noord-Brabant,VBO,4.799994,51.546470
Pennendijk,9,,,4851VB,Ulvenhout,Breda,Noord-Brabant,VBO,4.800157,51.546266
Pennendijk,11,,,4851VB,Ulvenhout,Breda,Noord-Brabant,VBO,4.800867,51.546148
Pennendijk,13,,,4851VB,Ulvenhout,Breda,Noord-Brabant,VBO,4.801414,51.546269
Pennendijk,15,,,4851VB,Ulvenhout,Breda,Noord-Brabant,VBO,4.801809,51.546320
Pennendijk,17,,,4851VB,Ulvenhout,Breda,Noord-Brabant,VBO,4.802262,51.546362
Pennendijk,19,,,4851VB,Ulvenhout,Breda,Noord-Brabant,VBO,4.802602,51.546421
Pennendijk,21,,,4851VB,Ulvenhout,Breda,Noord-Brabant,VBO,4.802888,51.546446
Pennendijk,23,,,4851VB,Ulvenhout,Breda,Noord-Brabant,VBO,4.803683,51.546467
Pennendijk,29,,,4851VB,Ulvenhout,Breda,Noord-Brabant,VBO,4.804426,51.546137
Pennendijk,31,,,4851VB,Ulvenhout,Breda,Noord-Brabant,VBO,4.804744,51.545991
Pennendijk,33,,,4851VB,Ulvenhout,Breda,Noord-Brabant,VBO,4.804932,51.545881
Pennendijk,39,,,4851VB,Ulvenhout,Breda,Noord-Brabant,VBO,4.805477,51.545673
Pennendijk,41,,,4851VC,Ulvenhout,Breda,Noord-Brabant,VBO,4.805673,51.545656
Pennendijk,43,,,4851VC,Ulvenhout,Breda,Noord-Brabant,VBO,4.805847,51.545682
Pennendijk,45,,,4851VC,Ulvenhout,Breda,Noord-Brabant,VBO,4.805987,51.545710
Pennendijk,47,,,4851VC,Ulvenhout,Breda,Noord-Brabant,VBO,4.806137,51.545745
Pennendijk,49,,,4851VC,Ulvenhout,Breda,Noord-Brabant,VBO,4.806334,51.545799
Pennendijk,51,,,4851VC,Ulvenhout,Breda,Noord-Brabant,VBO,4.806571,51.545827
Pennendijk,53,,,4851VC,Ulvenhout,Breda,Noord-Brabant,VBO,4.806650,51.545858
Pennendijk,55,A,,4851VC,Ulvenhout,Breda,Noord-Brabant,VBO,4.806917,51.545990
Pennendijk,55,,,4851VC,Ulvenhout,Breda,Noord-Brabant,VBO,4.806798,51.545947
Pennendijk,57,,,4851VC,Ulvenhout,Breda,Noord-Brabant,VBO,4.807088,51.546000
Pennendijk,59,,,4851VC,Ulvenhout,Breda,Noord-Brabant,VBO,4.807215,51.546054
Pennendijk,61,,,4851VC,Ulvenhout,Breda,Noord-Brabant,VBO,4.807510,51.546200
Pennendijk,63,,,4851VC,Ulvenhout,Breda,Noord-Brabant,VBO,4.807617,51.546237
Pennendijk,65,,,4851VC,Ulvenhout,Breda,Noord-Brabant,VBO,4.807805,51.546293
Pennendijk,67,,,4851VC,Ulvenhout,Breda,Noord-Brabant,VBO,4.807891,51.546327
Pennendijk,71,,,4851VC,Ulvenhout,Breda,Noord-Brabant,VBO,4.808216,51.546504
Pennendijk,2,,,4851VD,Ulvenhout,Breda,Noord-Brabant,VBO,4.798907,51.547263
Pennendijk,4,,,4851VD,Ulvenhout,Breda,Noord-Brabant,VBO,4.799062,51.547056
Pennendijk,6,,,4851VD,Ulvenhout,Breda,Noord-Brabant,VBO,4.799157,51.546903
Pennendijk,8,,,4851VD,Ulvenhout,Breda,Noord-Brabant,VBO,4.799277,51.546784
Pennendijk,10,,,4851VD,Ulvenhout,Breda,Noord-Brabant,VBO,4.799337,51.546686
Pennendijk,12,,,4851VD,Ulvenhout,Breda,Noord-Brabant,VBO,4.799404,51.546599
Pennendijk,14,,,4851VD,Ulvenhout,Breda,Noord-Brabant,VBO,4.799483,51.546518
Pennendijk,16,,,4851VD,Ulvenhout,Breda,Noord-Brabant,VBO,4.799583,51.546369
Pennendijk,18,,,4851VD,Ulvenhout,Breda,Noord-Brabant,VBO,4.799678,51.546239
Pennendijk,20,,,4851VD,Ulvenhout,Breda,Noord-Brabant,VBO,4.799829,51.546079
Pennendijk,22,,,4851VD,Ulvenhout,Breda,Noord-Brabant,VBO,4.799934,51.545945
Pennendijk,24,,,4851VD,Ulvenhout,Breda,Noord-Brabant,VBO,4.803855,51.546003
Pennendijk,26,,,4851VD,Ulvenhout,Breda,Noord-Brabant,VBO,4.804273,51.545867
Pennendijk,28,,,4851VD,Ulvenhout,Breda,Noord-Brabant,VBO,4.804761,51.545699
Pennendijk,30,,,4851VD,Ulvenhout,Breda,Noord-Brabant,VBO,4.804889,51.545465
Pennendijk,32,,,4851VD,Ulvenhout,Breda,Noord-Brabant,VBO,4.805797,51.545382
Pennendijk,34,,,4851VD,Ulvenhout,Breda,Noord-Brabant,VBO,4.806298,51.545476
Pennendijk,36,,,4851VD,Ulvenhout,Breda,Noord-Brabant,VBO,4.806475,51.545543
Pennendijk,38,,,4851VD,Ulvenhout,Breda,Noord-Brabant,VBO,4.806660,51.545596
Pennendijk,40,,,4851VD,Ulvenhout,Breda,Noord-Brabant,VBO,4.806839,51.545647
Pennendijk,42,,,4851VD,Ulvenhout,Breda,Noord-Brabant,VBO,4.807028,51.545701
Pennendijk,44,A,,4851VD,Ulvenhout,Breda,Noord-Brabant,VBO,4.807438,51.545775
Pennendijk,44,,,4851VD,Ulvenhout,Breda,Noord-Brabant,VBO,4.807294,51.545738
Pennendijk,46,,,4851VD,Ulvenhout,Breda,Noord-Brabant,VBO,4.807648,51.545927
Pennendijk,48,,,4851VD,Ulvenhout,Breda,Noord-Brabant,VBO,4.807842,51.546009
Pennendijk,50,,,4851VD,Ulvenhout,Breda,Noord-Brabant,VBO,4.808059,51.546098
Pennendijk,52,,,4851VD,Ulvenhout,Breda,Noord-Brabant,VBO,4.808278,51.546187
Steedreef,2,,G1,4851VE,Ulvenhout,Breda,Noord-Brabant,VBO,4.801647,51.547099
Steedreef,2,,G10,4851VE,Ulvenhout,Breda,Noord-Brabant,VBO,4.801390,51.547071
Steedreef,2,,G11,4851VE,Ulvenhout,Breda,Noord-Brabant,VBO,4.801396,51.547098
Steedreef,2,,G12,4851VE,Ulvenhout,Breda,Noord-Brabant,VBO,4.801407,51.547130
Steedreef,2,,G13,4851VE,Ulvenhout,Breda,Noord-Brabant,VBO,4.801416,51.547156
Steedreef,2,,G14,4851VE,Ulvenhout,Breda,Noord-Brabant,VBO,4.801423,51.547181
Steedreef,2,,G15,4851VE,Ulvenhout,Breda,Noord-Brabant,VBO,4.801432,51.547203
Steedreef,2,,G2,4851VE,Ulvenhout,Breda,Noord-Brabant,VBO,4.801639,51.547077
Steedreef,2,,G3,4851VE,Ulvenhout,Breda,Noord-Brabant,VBO,4.801631,51.547051
Steedreef,2,,G4,4851VE,Ulvenhout,Breda,Noord-Brabant,VBO,4.801622,51.547028
Steedreef,2,,G5,4851VE,Ulvenhout,Breda,Noord-Brabant,VBO,4.801613,51.547007
Steedreef,2,,G6,4851VE,Ulvenhout,Breda,Noord-Brabant,VBO,4.801608,51.546987
Steedreef,2,,G7,4851VE,Ulvenhout,Breda,Noord-Brabant,VBO,4.801359,51.546988
Steedreef,2,,G8,4851VE,Ulvenhout,Breda,Noord-Brabant,VBO,4.801365,51.547016
Steedreef,2,,G9,4851VE,Ulvenhout,Breda,Noord-Brabant,VBO,4.801378,51.547043
Steedreef,2,,,4851VE,Ulvenhout,Breda,Noord-Brabant,VBO,4.801952,51.547066
Steedreef,3,,,4851VE,Ulvenhout,Breda,Noord-Brabant,VBO,4.802357,51.547054
Steedreef,4,,,4851VE,Ulvenhout,Breda,Noord-Brabant,VBO,4.801933,51.547010
Steedreef,5,,,4851VE,Ulvenhout,Breda,Noord-Brabant,VBO,4.802330,51.546975
Steedreef,6,,,4851VE,Ulvenhout,Breda,Noord-Brabant,VBO,4.801912,51.546947
Steedreef,7,,,4851VE,Ulvenhout,Breda,Noord-Brabant,VBO,4.802300,51.546888
Steedreef,8,,,4851VE,Ulvenhout,Breda,Noord-Brabant,VBO,4.801892,51.546888
Steedreef,9,,,4851VE,Ulvenhout,Breda,Noord-Brabant,VBO,4.802273,51.546809
Steedreef,10,,,4851VE,Ulvenhout,Breda,Noord-Brabant,VBO,4.801854,51.546779
Steedreef,11,,,4851VE,Ulvenhout,Breda,Noord-Brabant,VBO,4.802239,51.546716
Steedreef,12,,,4851VE,Ulvenhout,Breda,Noord-Brabant,VBO,4.801835,51.546723
Steedreef,13,,,4851VE,Ulvenhout,Breda,Noord-Brabant,VBO,4.802211,51.546634
Steedreef,14,,,4851VE,Ulvenhout,Breda,Noord-Brabant,VBO,4.801815,51.546666
Steedreef,16,,,4851VE,Ulvenhout,Breda,Noord-Brabant,VBO,4.801795,51.546607
Steedreef,64532,,TRD,4851VE,Ulvenhout,Breda,Noord-Brabant,VBO,4.801668,51.547130
Heistuk,1,,,4851VG,Ulvenhout,Breda,Noord-Brabant,VBO,4.800969,51.547004
Heistuk,2,,,4851VG,Ulvenhout,Breda,Noord-Brabant,VBO,4.800578,51.546964
Heistuk,3,,,4851VG,Ulvenhout,Breda,Noord-Brabant,VBO,4.801022,51.546996
Heistuk,4,,,4851VG,Ulvenhout,Breda,Noord-Brabant,VBO,4.800558,51.546907
Heistuk,5,,,4851VG,Ulvenhout,Breda,Noord-Brabant,VBO,4.801064,51.546991
Heistuk,6,,,4851VG,Ulvenhout,Breda,Noord-Brabant,VBO,4.800534,51.546837
Heistuk,7,,,4851VG,Ulvenhout,Breda,Noord-Brabant,VBO,4.801131,51.546982
Heistuk,8,,,4851VG,Ulvenhout,Breda,Noord-Brabant,VBO,4.800517,51.546790
Heistuk,9,,,4851VG,Ulvenhout,Breda,Noord-Brabant,VBO,4.801178,51.546975
Heistuk,10,,,4851VG,Ulvenhout,Breda,Noord-Brabant,VBO,4.800495,51.546725
Heistuk,11,,,4851VG,Ulvenhout,Breda,Noord-Brabant,VBO,4.801222,51.546969
Heistuk,13,,,4851VG,Ulvenhout,Breda,Noord-Brabant,VBO,4.801329,51.546899
Heistuk,15,,,4851VG,Ulvenhout,Breda,Noord-Brabant,VBO,4.801309,51.546841
Heistuk,17,,,4851VG,Ulvenhout,Breda,Noord-Brabant,VBO,4.801288,51.546782
Heistuk,19,,,4851VG,Ulvenhout,Breda,Noord-Brabant,VBO,4.801267,51.546722
Heistuk,21,,,4851VG,Ulvenhout,Breda,Noord-Brabant,VBO,4.801247,51.546664
Heistuk,23,,,4851VG,Ulvenhout,Breda,Noord-Brabant,VBO,4.801229,51.546614
Heistuk,25,,,4851VG,Ulvenhout,Breda,Noord-Brabant,VBO,4.801065,51.546576
Heistuk,27,,,4851VG,Ulvenhout,Breda,Noord-Brabant,VBO,4.801050,51.546535
Heistuk,29,,,4851VG,Ulvenhout,Breda,Noord-Brabant,VBO,4.800960,51.546590
Heistuk,31,,,4851VG,Ulvenhout,Breda,Noord-Brabant,VBO,4.800945,51.546549
Heistuk,33,,,4851VG,Ulvenhout,Breda,Noord-Brabant,VBO,4.800855,51.546605
Heistuk,35,,,4851VG,Ulvenhout,Breda,Noord-Brabant,VBO,4.800840,51.546563
Heistuk,37,,,4851VG,Ulvenhout,Breda,Noord-Brabant,VBO,4.800766,51.546383
Nieuwe Beekhoek,1,,,4851VK,Ulvenhout,Breda,Noord-Brabant,VBO,4.800941,51.545075
Nieuwe Beekhoek,2,,,4851VK,Ulvenhout,Breda,Noord-Brabant,VBO,4.800011,51.545582
Nieuwe Beekhoek,3,,,4851VK,Ulvenhout,Breda,Noord-Brabant,VBO,4.799502,51.543974
Nieuwe Beekhoek,4,,,4851VK,Ulvenhout,Breda,Noord-Brabant,VBO,4.800178,51.545353
Nieuwe Beekhoek,5,,,4851VK,Ulvenhout,Breda,Noord-Brabant,VBO,4.799037,51.543862
Nieuwe Beekhoek,6,,,4851VK,Ulvenhout,Breda,Noord-Brabant,VBO,4.800177,51.545134
Nieuwe Beekhoek,7,,,4851VK,Ulvenhout,Breda,Noord-Brabant,VBO,4.799426,51.543681
Nieuwe Beekhoek,8,,,4851VK,Ulvenhout,Breda,Noord-Brabant,VBO,4.800083,51.544979
Nieuwe Beekhoek,10,,,4851VK,Ulvenhout,Breda,Noord-Brabant,VBO,4.799977,51.544842
Nieuwe Beekhoek,12,,,4851VK,Ulvenhout,Breda,Noord-Brabant,VBO,4.799890,51.544573
Nieuwe Beekhoek,14,,,4851VK,Ulvenhout,Breda,Noord-Brabant,VBO,4.799835,51.544433
Nieuwe Beekhoek,16,,,4851VK,Ulvenhout,Breda,Noord-Brabant,VBO,4.799852,51.544273
Nieuwe Beekhoek,18,,,4851VK,Ulvenhout,Breda,Noord-Brabant,VBO,4.799301,51.544259
Nieuwe Beekhoek,20,,,4851VK,Ulvenhout,Breda,Noord-Brabant,VBO,4.799007,51.544280
Nieuwe Beekhoek,22,,,4851VK,Ulvenhout,Breda,Noord-Brabant,VBO,4.798802,51.544131
Nieuwe Beekhoek,24,,,4851VK,Ulvenhout,Breda,Noord-Brabant,VBO,4.798705,51.544016
Nieuwe Beekhoek,26,,,4851VK,Ulvenhout,Breda,Noord-Brabant,VBO,4.798604,51.543896
Nieuwe Beekhoek,28,,,4851VK,Ulvenhout,Breda,Noord-Brabant,VBO,4.798788,51.543554
Nieuwe Beekhoek,30,,,4851VK,Ulvenhout,Breda,Noord-Brabant,VBO,4.798728,51.543372
Nieuwe Beekhoek,32,,,4851VK,Ulvenhout,Breda,Noord-Brabant,VBO,4.798588,51.543200
Nieuwe Beekhoek,34,,,4851VK,Ulvenhout,Breda,Noord-Brabant,VBO,4.798135,51.543143
Nieuwe Beekhoek,36,,,4851VK,Ulvenhout,Breda,Noord-Brabant,VBO,4.797700,51.543109
Nieuwe Beekhoek,38,,,4851VK,Ulvenhout,Breda,Noord-Brabant,VBO,4.797348,51.543126
Nieuwe Beekhoek,40,,,4851VK,Ulvenhout,Breda,Noord-Brabant,VBO,4.797076,51.543177
Nieuwe Beekhoek,42,,,4851VK,Ulvenhout,Breda,Noord-Brabant,VBO,4.796698,51.543272
Nieuwe Beekhoek,44,,,4851VK,Ulvenhout,Breda,Noord-Brabant,VBO,4.796416,51.543371
Vang,1,,,4851VL,Ulvenhout,Breda,Noord-Brabant,VBO,4.799613,51.545564
Vang,3,,,4851VL,Ulvenhout,Breda,Noord-Brabant,VBO,4.799488,51.545534
Vang,5,,,4851VL,Ulvenhout,Breda,Noord-Brabant,VBO,4.799343,51.545502
Vang,7,,,4851VL,Ulvenhout,Breda,Noord-Brabant,VBO,4.799220,51.545475
Vang,9,,,4851VL,Ulvenhout,Breda,Noord-Brabant,VBO,4.799071,51.545444
Vang,11,,,4851VL,Ulvenhout,Breda,Noord-Brabant,VBO,4.798949,51.545419
Vang,13,,,4851VL,Ulvenhout,Breda,Noord-Brabant,VBO,4.798810,51.545393
Vang,15,,,4851VL,Ulvenhout,Breda,Noord-Brabant,VBO,4.798675,51.545369
Vang,17,,,4851VL,Ulvenhout,Breda,Noord-Brabant,VBO,4.798520,51.545345
Vang,19,,,4851VL,Ulvenhout,Breda,Noord-Brabant,VBO,4.798394,51.545327
Vang,21,,,4851VL,Ulvenhout,Breda,Noord-Brabant,VBO,4.798159,51.545282
Vang,23,,,4851VL,Ulvenhout,Breda,Noord-Brabant,VBO,4.797919,51.545262
Vang,25,,,4851VL,Ulvenhout,Breda,Noord-Brabant,VBO,4.797715,51.545251
Vang,27,,,4851VL,Ulvenhout,Breda,Noord-Brabant,VBO,4.797468,51.545251
Vang,2,A,,4851VM,Ulvenhout,Breda,Noord-Brabant,VBO,4.799566,51.545820
Vang,2,,,4851VM,Ulvenhout,Breda,Noord-Brabant,VBO,4.799708,51.545840
Vang,4,,,4851VM,Ulvenhout,Breda,Noord-Brabant,VBO,4.799382,51.545781
Vang,6,,,4851VM,Ulvenhout,Breda,Noord-Brabant,VBO,4.799180,51.545733
Vang,8,,,4851VM,Ulvenhout,Breda,Noord-Brabant,VBO,4.798875,51.545678
Vang,10,,,4851VM,Ulvenhout,Breda,Noord-Brabant,VBO,4.798590,51.545617
Vang,12,,,4851VM,Ulvenhout,Breda,Noord-Brabant,VBO,4.797872,51.545578
Wiek,1,,,4851VN,Ulvenhout,Breda,Noord-Brabant,VBO,4.799432,51.544672
Wiek,3,,,4851VN,Ulvenhout,Breda,Noord-Brabant,VBO,4.799212,51.544688
Wiek,5,,,4851VN,Ulvenhout,Breda,Noord-Brabant,VBO,4.799031,51.544701
Wiek,7,,,4851VN,Ulvenhout,Breda,Noord-Brabant,VBO,4.798926,51.544709
Wiek,9,A,,4851VN,Ulvenhout,Breda,Noord-Brabant,VBO,4.798621,51.544652
Wiek,9,,,4851VN,Ulvenhout,Breda,Noord-Brabant,VBO,4.798705,51.544725
Wiek,11,,,4851VN,Ulvenhout,Breda,Noord-Brabant,VBO,4.798352,51.544740
Wiek,13,,,4851VN,Ulvenhout,Breda,Noord-Brabant,VBO,4.798312,51.544672
Wiek,15,,,4851VN,Ulvenhout,Breda,Noord-Brabant,VBO,4.798282,51.544623
Wiek,17,,,4851VN,Ulvenhout,Breda,Noord-Brabant,VBO,4.798239,51.544551
Wiek,19,,,4851VN,Ulvenhout,Breda,Noord-Brabant,VBO,4.798185,51.544461
Wiek,21,,,4851VN,Ulvenhout,Breda,Noord-Brabant,VBO,4.798147,51.544398
Wiek,23,,,4851VN,Ulvenhout,Breda,Noord-Brabant,VBO,4.798121,51.544356
Wiek,25,,,4851VN,Ulvenhout,Breda,Noord-Brabant,VBO,4.798089,51.544303
Wiek,27,,,4851VN,Ulvenhout,Breda,Noord-Brabant,VBO,4.797958,51.544120
Wiek,29,,,4851VN,Ulvenhout,Breda,Noord-Brabant,VBO,4.797958,51.544090
Wiek,31,,,4851VN,Ulvenhout,Breda,Noord-Brabant,VBO,4.798004,51.544075
Wiek,33,,,4851VN,Ulvenhout,Breda,Noord-Brabant,VBO,4.798057,51.544088
Wiek,35,,,4851VN,Ulvenhout,Breda,Noord-Brabant,VBO,4.798111,51.544070
Wiek,37,,,4851VN,Ulvenhout,Breda,Noord-Brabant,VBO,4.798140,51.544031
Wiek,39,,,4851VN,Ulvenhout,Breda,Noord-Brabant,VBO,4.798188,51.544022
Wiek,41,,,4851VN,Ulvenhout,Breda,Noord-Brabant,VBO,4.798222,51.544034
Wiek,43,,,4851VP,Ulvenhout,Breda,Noord-Brabant,VBO,4.798245,51.543731
Wiek,45,,,4851VP,Ulvenhout,Breda,Noord-Brabant,VBO,4.798181,51.543683
Wiek,47,,,4851VP,Ulvenhout,Breda,Noord-Brabant,VBO,4.798127,51.543642
Wiek,49,,,4851VP,Ulvenhout,Breda,Noord-Brabant,VBO,4.798065,51.543595
Wiek,51,,,4851VP,Ulvenhout,Breda,Noord-Brabant,VBO,4.797766,51.543573
Wiek,53,,,4851VP,Ulvenhout,Breda,Noord-Brabant,VBO,4.797675,51.543580
Wiek,55,,,4851VP,Ulvenhout,Breda,Noord-Brabant,VBO,4.797584,51.543588
Wiek,57,,,4851VP,Ulvenhout,Breda,Noord-Brabant,VBO,4.797372,51.543587
Wiek,59,,,4851VP,Ulvenhout,Breda,Noord-Brabant,VBO,4.797286,51.543594
Wiek,61,,,4851VP,Ulvenhout,Breda,Noord-Brabant,VBO,4.797035,51.543628
Wiek,63,,,4851VP,Ulvenhout,Breda,Noord-Brabant,VBO,4.796939,51.543649
Wiek,65,,,4851VP,Ulvenhout,Breda,Noord-Brabant,VBO,4.796775,51.543718
Wiek,67,,,4851VP,Ulvenhout,Breda,Noord-Brabant,VBO,4.796679,51.543750
Wiek,2,,,4851VR,Ulvenhout,Breda,Noord-Brabant,VBO,4.799660,51.544890
Wiek,4,,,4851VR,Ulvenhout,Breda,Noord-Brabant,VBO,4.799480,51.544929
Wiek,6,,,4851VR,Ulvenhout,Breda,Noord-Brabant,VBO,4.799281,51.544963
Wiek,8,,,4851VR,Ulvenhout,Breda,Noord-Brabant,VBO,4.799064,51.544978
Wiek,12,,,4851VR,Ulvenhout,Breda,Noord-Brabant,VBO,4.798856,51.544975
Wiek,14,,,4851VR,Ulvenhout,Breda,Noord-Brabant,VBO,4.798657,51.544973
Wiek,16,,,4851VR,Ulvenhout,Breda,Noord-Brabant,VBO,4.798466,51.544970
Wiek,18,,,4851VR,Ulvenhout,Breda,Noord-Brabant,VBO,4.798261,51.544973
Wiek,20,,,4851VR,Ulvenhout,Breda,Noord-Brabant,VBO,4.798206,51.544950
Wiek,22,,,4851VR,Ulvenhout,Breda,Noord-Brabant,VBO,4.798162,51.544949
Wiek,24,,,4851VR,Ulvenhout,Breda,Noord-Brabant,VBO,4.798105,51.544974
Wiek,26,,,4851VR,Ulvenhout,Breda,Noord-Brabant,VBO,4.798067,51.544973
Wiek,28,,,4851VR,Ulvenhout,Breda,Noord-Brabant,VBO,4.797998,51.544945
Wiek,30,,,4851VR,Ulvenhout,Breda,Noord-Brabant,VBO,4.797959,51.544944
Wiek,32,,,4851VR,Ulvenhout,Breda,Noord-Brabant,VBO,4.797909,51.544966
Wiek,34,,G1,4851VS,Ulvenhout,Breda,Noord-Brabant,VBO,4.797712,51.544937
Wiek,34,,G2,4851VS,Ulvenhout,Breda,Noord-Brabant,VBO,4.797703,51.544969
Wiek,34,,G3,4851VS,Ulvenhout,Breda,Noord-Brabant,VBO,4.797674,51.544977
Wiek,34,,G4,4851VS,Ulvenhout,Breda,Noord-Brabant,VBO,4.797631,51.544995
Wiek,34,,G5,4851VS,Ulvenhout,Breda,Noord-Brabant,VBO,4.797587,51.545013
Wiek,34,,,4851VS,Ulvenhout,Breda,Noord-Brabant,VBO,4.797685,51.544896
Wiek,36,,,4851VS,Ulvenhout,Breda,Noord-Brabant,VBO,4.797679,51.544862
Wiek,38,,,4851VS,Ulvenhout,Breda,Noord-Brabant,VBO,4.797614,51.544816
Wiek,40,,,4851VS,Ulvenhout,Breda,Noord-Brabant,VBO,4.797561,51.544730
Wiek,42,,G1,4851VS,Ulvenhout,Breda,Noord-Brabant,VBO,4.797025,51.544125
Wiek,42,,G2,4851VS,Ulvenhout,Breda,Noord-Brabant,VBO,4.797068,51.544116
Wiek,42,,G3,4851VS,Ulvenhout,Breda,Noord-Brabant,VBO,4.797109,51.544105
Wiek,42,,G4,4851VS,Ulvenhout,Breda,Noord-Brabant,VBO,4.797138,51.544096
Wiek,42,,,4851VS,Ulvenhout,Breda,Noord-Brabant,VBO,4.797444,51.544517
Wiek,44,,,4851VS,Ulvenhout,Breda,Noord-Brabant,VBO,4.797535,51.544496
Wiek,46,,,4851VS,Ulvenhout,Breda,Noord-Brabant,VBO,4.797615,51.544476
Wiek,48,,,4851VS,Ulvenhout,Breda,Noord-Brabant,VBO,4.797713,51.544453
Wiek,50,,,4851VS,Ulvenhout,Breda,Noord-Brabant,VBO,4.797574,51.544290
Wiek,52,,,4851VS,Ulvenhout,Breda,Noord-Brabant,VBO,4.797538,51.544241
Wiek,54,,,4851VS,Ulvenhout,Breda,Noord-Brabant,VBO,4.797506,51.544197
Wiek,56,,,4851VS,Ulvenhout,Breda,Noord-Brabant,VBO,4.797462,51.544136
Wiek,58,,,4851VS,Ulvenhout,Breda,Noord-Brabant,VBO,4.797392,51.544041
Wiek,60,,,4851VS,Ulvenhout,Breda,Noord-Brabant,VBO,4.797345,51.543976
Wiek,62,,,4851VS,Ulvenhout,Breda,Noord-Brabant,VBO,4.797315,51.543901
Wiek,64,,,4851VS,Ulvenhout,Breda,Noord-Brabant,VBO,4.797233,51.543842
Wiek,66,,,4851VS,Ulvenhout,Breda,Noord-Brabant,VBO,4.796924,51.543932
Wiek,68,,,4851VS,Ulvenhout,Breda,Noord-Brabant,VBO,4.796832,51.543959
Wiek,64552,,TRD,4851VS,Ulvenhout,Breda,Noord-Brabant,VBO,4.798438,51.544196
Riekeschot,1,,,4851WB,Ulvenhout,Breda,Noord-Brabant,VBO,4.808703,51.546188
Riekeschot,3,,,4851WB,Ulvenhout,Breda,Noord-Brabant,VBO,4.808867,51.545970
Riekeschot,5,,,4851WB,Ulvenhout,Breda,Noord-Brabant,VBO,4.809002,51.545800
Riekeschot,7,,,4851WB,Ulvenhout,Breda,Noord-Brabant,VBO,4.809138,51.545647
Riekeschot,9,,G1,4851WB,Ulvenhout,Breda,Noord-Brabant,VBO,4.808801,51.545207
Riekeschot,9,,G2,4851WB,Ulvenhout,Breda,Noord-Brabant,VBO,4.808816,51.545162
Riekeschot,9,,G3,4851WB,Ulvenhout,Breda,Noord-Brabant,VBO,4.808860,51.545135
Riekeschot,9,,G4,4851WB,Ulvenhout,Breda,Noord-Brabant,VBO,4.808889,51.545108
Riekeschot,9,,G5,4851WB,Ulvenhout,Breda,Noord-Brabant,VBO,4.808908,51.545090
Riekeschot,9,,G6,4851WB,Ulvenhout,Breda,Noord-Brabant,VBO,4.808942,51.545059
Riekeschot,9,,G7,4851WB,Ulvenhout,Breda,Noord-Brabant,VBO,4.808976,51.545028
Riekeschot,9,,G8,4851WB,Ulvenhout,Breda,Noord-Brabant,VBO,4.809004,51.545002
Riekeschot,9,,,4851WB,Ulvenhout,Breda,Noord-Brabant,VBO,4.809337,51.545538
Riekeschot,11,,,4851WB,Ulvenhout,Breda,Noord-Brabant,VBO,4.809496,51.545361
Riekeschot,13,,,4851WB,Ulvenhout,Breda,Noord-Brabant,VBO,4.809649,51.545233
Riekeschot,15,,,4851WB,Ulvenhout,Breda,Noord-Brabant,VBO,4.809820,51.545090
Riekeschot,17,,,4851WB,Ulvenhout,Breda,Noord-Brabant,VBO,4.809968,51.544982
Riekeschot,19,,,4851WB,Ulvenhout,Breda,Noord-Brabant,VBO,4.810155,51.544826
Riekeschot,2,,G1,4851WC,Ulvenhout,Breda,Noord-Brabant,VBO,4.808066,51.545864
Riekeschot,2,,G10,4851WC,Ulvenhout,Breda,Noord-Brabant,VBO,4.807715,51.545720
Riekeschot,2,,G2,4851WC,Ulvenhout,Breda,Noord-Brabant,VBO,4.808029,51.545849
Riekeschot,2,,G3,4851WC,Ulvenhout,Breda,Noord-Brabant,VBO,4.807987,51.545835
Riekeschot,2,,G4,4851WC,Ulvenhout,Breda,Noord-Brabant,VBO,4.807948,51.545817
Riekeschot,2,,G5,4851WC,Ulvenhout,Breda,Noord-Brabant,VBO,4.807907,51.545799
Riekeschot,2,,G6,4851WC,Ulvenhout,Breda,Noord-Brabant,VBO,4.807871,51.545786
Riekeschot,2,,G7,4851WC,Ulvenhout,Breda,Noord-Brabant,VBO,4.807832,51.545769
Riekeschot,2,,G8,4851WC,Ulvenhout,Breda,Noord-Brabant,VBO,4.807797,51.545751
Riekeschot,2,,G9,4851WC,Ulvenhout,Breda,Noord-Brabant,VBO,4.807757,51.545736
Riekeschot,2,,,4851WC,Ulvenhout,Breda,Noord-Brabant,VBO,4.808482,51.545913
Riekeschot,4,,,4851WC,Ulvenhout,Breda,Noord-Brabant,VBO,4.808596,51.545747
Riekeschot,6,,,4851WC,Ulvenhout,Breda,Noord-Brabant,VBO,4.809071,51.545319
Riekeschot,8,,,4851WC,Ulvenhout,Breda,Noord-Brabant,VBO,4.809150,51.545252
Riekeschot,10,,,4851WC,Ulvenhout,Breda,Noord-Brabant,VBO,4.809237,51.545180
Riekeschot,12,,,4851WC,Ulvenhout,Breda,Noord-Brabant,VBO,4.809319,51.545110
Riekeschot,14,,,4851WC,Ulvenhout,Breda,Noord-Brabant,VBO,4.809387,51.545032
Riekeschot,16,,,4851WC,Ulvenhout,Breda,Noord-Brabant,VBO,4.809462,51.544969
Riekeschot,18,,,4851WC,Ulvenhout,Breda,Noord-Brabant,VBO,4.809560,51.544886
Steenland,1,,,4851WD,Ulvenhout,Breda,Noord-Brabant,VBO,4.806785,51.545203
Steenland,2,,,4851WD,Ulvenhout,Breda,Noord-Brabant,VBO,4.806921,51.545233
Steenland,3,,,4851WD,Ulvenhout,Breda,Noord-Brabant,VBO,4.807065,51.545275
Steenland,4,,,4851WD,Ulvenhout,Breda,Noord-Brabant,VBO,4.807168,51.545297
Steenland,5,,,4851WD,Ulvenhout,Breda,Noord-Brabant,VBO,4.807259,51.545316
Steenland,6,,,4851WD,Ulvenhout,Breda,Noord-Brabant,VBO,4.807355,51.545337
Steenland,7,,,4851WD,Ulvenhout,Breda,Noord-Brabant,VBO,4.807043,51.545306
Steenland,8,,,4851WD,Ulvenhout,Breda,Noord-Brabant,VBO,4.807138,51.545326
Steenland,9,,,4851WD,Ulvenhout,Breda,Noord-Brabant,VBO,4.807234,51.545346
Steenland,10,,,4851WD,Ulvenhout,Breda,Noord-Brabant,VBO,4.807329,51.545367
Steenland,11,,,4851WD,Ulvenhout,Breda,Noord-Brabant,VBO,4.807500,51.545407
Steenland,12,,,4851WD,Ulvenhout,Breda,Noord-Brabant,VBO,4.807595,51.545427
Steenland,13,,,4851WD,Ulvenhout,Breda,Noord-Brabant,VBO,4.807691,51.545447
Steenland,14,,,4851WD,Ulvenhout,Breda,Noord-Brabant,VBO,4.807787,51.545467
Steenland,15,,,4851WD,Ulvenhout,Breda,Noord-Brabant,VBO,4.807509,51.545358
Steenland,16,,,4851WD,Ulvenhout,Breda,Noord-Brabant,VBO,4.807615,51.545380
Steenland,17,,,4851WD,Ulvenhout,Breda,Noord-Brabant,VBO,4.807720,51.545402
Steenland,18,,,4851WD,Ulvenhout,Breda,Noord-Brabant,VBO,4.807827,51.545425
Steenland,19,,,4851WD,Ulvenhout,Breda,Noord-Brabant,VBO,4.807931,51.545469
Steenland,20,,,4851WD,Ulvenhout,Breda,Noord-Brabant,VBO,4.808015,51.545502
Steenland,21,,,4851WD,Ulvenhout,Breda,Noord-Brabant,VBO,4.808093,51.545532
Steenland,22,,,4851WD,Ulvenhout,Breda,Noord-Brabant,VBO,4.808168,51.545562
Steenland,23,,,4851WD,Ulvenhout,Breda,Noord-Brabant,VBO,4.808249,51.545594
Steenland,24,,,4851WD,Ulvenhout,Breda,Noord-Brabant,VBO,4.808322,51.545623
Steenland,26,,,4851WE,Ulvenhout,Breda,Noord-Brabant,VBO,4.808848,51.545518
Steenland,27,,,4851WE,Ulvenhout,Breda,Noord-Brabant,VBO,4.808705,51.545442
Steenland,28,,,4851WE,Ulvenhout,Breda,Noord-Brabant,VBO,4.808568,51.545369
Steenland,29,,,4851WE,Ulvenhout,Breda,Noord-Brabant,VBO,4.808456,51.545291
Steenland,30,,,4851WE,Ulvenhout,Breda,Noord-Brabant,VBO,4.808382,51.545252
Steenland,31,,,4851WE,Ulvenhout,Breda,Noord-Brabant,VBO,4.808314,51.545216
Steenland,32,,,4851WE,Ulvenhout,Breda,Noord-Brabant,VBO,4.808239,51.545176
Steenland,33,,,4851WE,Ulvenhout,Breda,Noord-Brabant,VBO,4.808016,51.545066
Steenland,34,,,4851WE,Ulvenhout,Breda,Noord-Brabant,VBO,4.807922,51.545027
Steenland,35,,,4851WE,Ulvenhout,Breda,Noord-Brabant,VBO,4.807834,51.544991
Steenland,36,,,4851WE,Ulvenhout,Breda,Noord-Brabant,VBO,4.807719,51.544959
Steenland,37,,,4851WE,Ulvenhout,Breda,Noord-Brabant,VBO,4.807626,51.544920
Steenland,38,,,4851WE,Ulvenhout,Breda,Noord-Brabant,VBO,4.807535,51.544883
Steenland,39,,,4851WE,Ulvenhout,Breda,Noord-Brabant,VBO,4.807272,51.544848
Steenland,40,,,4851WE,Ulvenhout,Breda,Noord-Brabant,VBO,4.807233,51.544896
Steenland,41,,,4851WE,Ulvenhout,Breda,Noord-Brabant,VBO,4.807173,51.544948
Steenland,42,,,4851WE,Ulvenhout,Breda,Noord-Brabant,VBO,4.807132,51.544999
Steenland,43,,,4851WE,Ulvenhout,Breda,Noord-Brabant,VBO,4.807087,51.545057
Steenland,44,,,4851WE,Ulvenhout,Breda,Noord-Brabant,VBO,4.806747,51.544981
Steenland,45,,,4851WE,Ulvenhout,Breda,Noord-Brabant,VBO,4.806560,51.544932
Beekakker,2,,,4851WG,Ulvenhout,Breda,Noord-Brabant,VBO,4.807613,51.543971
Beekakker,3,,,4851WG,Ulvenhout,Breda,Noord-Brabant,VBO,4.807801,51.544012
Beekakker,4,,,4851WG,Ulvenhout,Breda,Noord-Brabant,VBO,4.808218,51.544047
Beekakker,5,,,4851WG,Ulvenhout,Breda,Noord-Brabant,VBO,4.808444,51.544065
Beekakker,6,,,4851WG,Ulvenhout,Breda,Noord-Brabant,VBO,4.808607,51.544130
Beekakker,7,,,4851WG,Ulvenhout,Breda,Noord-Brabant,VBO,4.808809,51.544212
Beekakker,8,,,4851WG,Ulvenhout,Breda,Noord-Brabant,VBO,4.809163,51.544310
Beekakker,9,,,4851WG,Ulvenhout,Breda,Noord-Brabant,VBO,4.809318,51.544419
Beekakker,10,,,4851WG,Ulvenhout,Breda,Noord-Brabant,VBO,4.809466,51.544521
Beekakker,11,,,4851WG,Ulvenhout,Breda,Noord-Brabant,VBO,4.809609,51.544620
Beekakker,12,,,4851WG,Ulvenhout,Breda,Noord-Brabant,VBO,4.809773,51.544734
Koolhof,1,,,4851WJ,Ulvenhout,Breda,Noord-Brabant,VBO,4.808418,51.545023
Koolhof,2,,,4851WJ,Ulvenhout,Breda,Noord-Brabant,VBO,4.808163,51.544890
Koolhof,3,,,4851WJ,Ulvenhout,Breda,Noord-Brabant,VBO,4.808476,51.544971
Koolhof,4,,,4851WJ,Ulvenhout,Breda,Noord-Brabant,VBO,4.808236,51.544822
Koolhof,5,,,4851WJ,Ulvenhout,Breda,Noord-Brabant,VBO,4.808538,51.544913
Koolhof,6,,,4851WJ,Ulvenhout,Breda,Noord-Brabant,VBO,4.808318,51.544746
Koolhof,7,,,4851WJ,Ulvenhout,Breda,Noord-Brabant,VBO,4.808634,51.544857
Koolhof,8,,,4851WJ,Ulvenhout,Breda,Noord-Brabant,VBO,4.808398,51.544673
Koolhof,9,,,4851WJ,Ulvenhout,Breda,Noord-Brabant,VBO,4.808685,51.544810
Koolhof,10,,,4851WJ,Ulvenhout,Breda,Noord-Brabant,VBO,4.808417,51.544568
Koolhof,11,,,4851WJ,Ulvenhout,Breda,Noord-Brabant,VBO,4.808735,51.544763
Koolhof,12,,,4851WJ,Ulvenhout,Breda,Noord-Brabant,VBO,4.808483,51.544506
Koolhof,13,,,4851WJ,Ulvenhout,Breda,Noord-Brabant,VBO,4.808793,51.544710
Koolhof,14,,,4851WJ,Ulvenhout,Breda,Noord-Brabant,VBO,4.808603,51.544428
Koolhof,15,,,4851WJ,Ulvenhout,Breda,Noord-Brabant,VBO,4.808800,51.544599
Koolhof,17,,,4851WJ,Ulvenhout,Breda,Noord-Brabant,VBO,4.808871,51.544533
Smidsheining,1,,,4851WK,Ulvenhout,Breda,Noord-Brabant,VBO,4.807736,51.544711
Smidsheining,2,,,4851WK,Ulvenhout,Breda,Noord-Brabant,VBO,4.807316,51.544793
Smidsheining,3,,,4851WK,Ulvenhout,Breda,Noord-Brabant,VBO,4.807821,51.544603
Smidsheining,4,,,4851WK,Ulvenhout,Breda,Noord-Brabant,VBO,4.807376,51.544668
Smidsheining,5,,,4851WK,Ulvenhout,Breda,Noord-Brabant,VBO,4.807870,51.544540
Smidsheining,6,,,4851WK,Ulvenhout,Breda,Noord-Brabant,VBO,4.807430,51.544598
Smidsheining,7,,,4851WK,Ulvenhout,Breda,Noord-Brabant,VBO,4.807886,51.544419
Smidsheining,8,,,4851WK,Ulvenhout,Breda,Noord-Brabant,VBO,4.807442,51.544472
Smidsheining,9,,,4851WK,Ulvenhout,Breda,Noord-Brabant,VBO,4.807930,51.544363
Smidsheining,10,,,4851WK,Ulvenhout,Breda,Noord-Brabant,VBO,4.807491,51.544411
Smidsheining,11,,,4851WK,Ulvenhout,Breda,Noord-Brabant,VBO,4.808004,51.544271
Smidsheining,12,,,4851WK,Ulvenhout,Breda,Noord-Brabant,VBO,4.807596,51.544309
Smidsheining,13,,,4851WK,Ulvenhout,Breda,Noord-Brabant,VBO,4.808051,51.544211
Smidsheining,14,,,4851WK,Ulvenhout,Breda,Noord-Brabant,VBO,4.807641,51.544253
Hoogsteen,2,,,4851WL,Ulvenhout,Breda,Noord-Brabant,VBO,4.806025,51.545222
Hoogsteen,4,,,4851WL,Ulvenhout,Breda,Noord-Brabant,VBO,4.806096,51.545075
Hoogsteen,64568,,TRD,4851WL,Ulvenhout,Breda,Noord-Brabant,VBO,4.807014,51.544602
Hoogsteen,1,,,4851WN,Ulvenhout,Breda,Noord-Brabant,VBO,4.806374,51.545256
Hoogsteen,3,,,4851WN,Ulvenhout,Breda,Noord-Brabant,VBO,4.806429,51.545141
Hoogsteen,5,,,4851WN,Ulvenhout,Breda,Noord-Brabant,VBO,4.806367,51.544855
Hoogsteen,7,,,4851WN,Ulvenhout,Breda,Noord-Brabant,VBO,4.806573,51.544624
Hoogsteen,9,,,4851WN,Ulvenhout,Breda,Noord-Brabant,VBO,4.806681,51.544514
Hoogsteen,11,,,4851WN,Ulvenhout,Breda,Noord-Brabant,VBO,4.806779,51.544414
Hoogsteen,13,,,4851WN,Ulvenhout,Breda,Noord-Brabant,VBO,4.806906,51.544312
Hoogsteen,15,,,4851WN,Ulvenhout,Breda,Noord-Brabant,VBO,4.807001,51.544214
Hoogsteen,17,,,4851WN,Ulvenhout,Breda,Noord-Brabant,VBO,4.807110,51.544104
Hoogsteen,19,,,4851WN,Ulvenhout,Breda,Noord-Brabant,VBO,4.807304,51.543923
