openbareruimtenaam,huisnummer,huisletter,huisnummertoevoeging,postcode,woonplaatsnaam,gemeentenaam,provincienaam,typeadresseerbaarobject,longitude,latitude
Dorpsstraat,1,,,4861AA,Chaam,Alphen-Chaam,Noord-Brabant,VBO,4.863933,51.504025
Dorpsstraat,3,a,,4861AA,Chaam,Alphen-Chaam,Noord-Brabant,VBO,4.863923,51.504193
Dorpsstraat,3,,,4861AA,Chaam,Alphen-Chaam,Noord-Brabant,VBO,4.864008,51.504162
Dorpsstraat,5,a,,4861AA,Chaam,Alphen-Chaam,Noord-Brabant,VBO,4.863664,51.504269
Dorpsstraat,5,,,4861AA,Chaam,Alphen-Chaam,Noord-Brabant,VBO,4.863864,51.504213
Dorpsstraat,7,,,4861AA,Chaam,Alphen-Chaam,Noord-Brabant,VBO,4.863303,51.504312
Dorpsstraat,9,,,4861AA,Chaam,Alphen-Chaam,Noord-Brabant,VBO,4.862951,51.504560
Dorpsstraat,11,,,4861AA,Chaam,Alphen-Chaam,Noord-Brabant,VBO,4.862839,51.504625
Dorpsstraat,13,,,4861AA,Chaam,Alphen-Chaam,Noord-Brabant,VBO,4.862709,51.504678
Dorpsstraat,15,,,4861AA,Chaam,Alphen-Chaam,Noord-Brabant,VBO,4.862507,51.504713
Dorpsstraat,17,,,4861AA,Chaam,Alphen-Chaam,Noord-Brabant,VBO,4.862420,51.504740
Dorpsstraat,21,,,4861AA,Chaam,Alphen-Chaam,Noord-Brabant,VBO,4.862159,51.504856
Dorpsstraat,23,a,,4861AA,Chaam,Alphen-Chaam,Noord-Brabant,VBO,4.862028,51.504819
Dorpsstraat,23,,,4861AA,Chaam,Alphen-Chaam,Noord-Brabant,VBO,4.862116,51.504873
Dorpsstraat,25,a,,4861AA,Chaam,Alphen-Chaam,Noord-Brabant,VBO,4.861915,51.504836
Dorpsstraat,25,,,4861AA,Chaam,Alphen-Chaam,Noord-Brabant,VBO,4.862058,51.504900
Dorpsstraat,27,,by,4861AA,Chaam,Alphen-Chaam,Noord-Brabant,VBO,4.861616,51.504476
Dorpsstraat,27,,,4861AA,Chaam,Alphen-Chaam,Noord-Brabant,VBO,4.861856,51.504935
Dorpsstraat,41,a,,4861AB,Chaam,Alphen-Chaam,Noord-Brabant,VBO,4.860411,51.505342
Dorpsstraat,41,,,4861AB,Chaam,Alphen-Chaam,Noord-Brabant,VBO,4.860655,51.505451
Dorpsstraat,43,,,4861AB,Chaam,Alphen-Chaam,Noord-Brabant,VBO,4.860409,51.505540
Dorpsstraat,45,,,4861AB,Chaam,Alphen-Chaam,Noord-Brabant,VBO,4.860264,51.505584
Dorpsstraat,49,,,4861AB,Chaam,Alphen-Chaam,Noord-Brabant,VBO,4.859860,51.505690
Dorpsstraat,53,,,4861AB,Chaam,Alphen-Chaam,Noord-Brabant,VBO,4.859613,51.505806
Dorpsstraat,55,,,4861AB,Chaam,Alphen-Chaam,Noord-Brabant,VBO,4.859626,51.505914
Dorpsstraat,57,,,4861AB,Chaam,Alphen-Chaam,Noord-Brabant,VBO,4.859554,51.505967
Dorpsstraat,59,a,,4861AB,Chaam,Alphen-Chaam,Noord-Brabant,VBO,4.859380,51.506083
Dorpsstraat,59,,,4861AB,Chaam,Alphen-Chaam,Noord-Brabant,VBO,4.859438,51.506030
Dorpsstraat,61,,,4861AB,Chaam,Alphen-Chaam,Noord-Brabant,VBO,4.859263,51.506200
Dorpsstraat,65,,,4861AB,Chaam,Alphen-Chaam,Noord-Brabant,VBO,4.858913,51.506594
Dorpsstraat,67,,,4861AB,Chaam,Alphen-Chaam,Noord-Brabant,VBO,4.858839,51.506737
Dorpsstraat,69,,,4861AB,Chaam,Alphen-Chaam,Noord-Brabant,VBO,4.858781,51.506755
Dorpsstraat,71,a,,4861AB,Chaam,Alphen-Chaam,Noord-Brabant,VBO,4.858723,51.506818
Dorpsstraat,71,,,4861AB,Chaam,Alphen-Chaam,Noord-Brabant,VBO,4.858737,51.506818
Dorpsstraat,6,,,4861AC,Chaam,Alphen-Chaam,Noord-Brabant,VBO,4.865209,51.503934
Dorpsstraat,8,,,4861AC,Chaam,Alphen-Chaam,Noord-Brabant,VBO,4.865051,51.503943
Dorpsstraat,10,,,4861AC,Chaam,Alphen-Chaam,Noord-Brabant,VBO,4.864949,51.504005
Dorpsstraat,12,,,4861AC,Chaam,Alphen-Chaam,Noord-Brabant,VBO,4.864718,51.504094
Dorpsstraat,14,,,4861AC,Chaam,Alphen-Chaam,Noord-Brabant,VBO,4.864631,51.504130
Dorpsstraat,18,,,4861AC,Chaam,Alphen-Chaam,Noord-Brabant,VBO,4.864500,51.504183
Dorpsstraat,20,,,4861AC,Chaam,Alphen-Chaam,Noord-Brabant,VBO,4.864428,51.504210
Dorpsstraat,22,,,4861AC,Chaam,Alphen-Chaam,Noord-Brabant,VBO,4.864342,51.504218
Dorpsstraat,24,,,4861AC,Chaam,Alphen-Chaam,Noord-Brabant,VBO,4.864254,51.504281
Dorpsstraat,26,,,4861AC,Chaam,Alphen-Chaam,Noord-Brabant,VBO,4.864124,51.504334
Dorpsstraat,28,,,4861AC,Chaam,Alphen-Chaam,Noord-Brabant,VBO,4.863980,51.504378
Dorpsstraat,30,a,,4861AC,Chaam,Alphen-Chaam,Noord-Brabant,VBO,4.863834,51.504539
Dorpsstraat,30,,,4861AC,Chaam,Alphen-Chaam,Noord-Brabant,VBO,4.864073,51.504999
Dorpsstraat,32,,,4861AC,Chaam,Alphen-Chaam,Noord-Brabant,VBO,4.863560,51.504565
Dorpsstraat,34,,,4861AC,Chaam,Alphen-Chaam,Noord-Brabant,VBO,4.863415,51.504627
Dorpsstraat,36,,,4861AC,Chaam,Alphen-Chaam,Noord-Brabant,VBO,4.863227,51.504708
Dorpsstraat,38,,,4861AC,Chaam,Alphen-Chaam,Noord-Brabant,VBO,4.863039,51.504806
Dorpsstraat,40,,,4861AC,Chaam,Alphen-Chaam,Noord-Brabant,VBO,4.862735,51.504912
Dorpsstraat,44,,,4861AC,Chaam,Alphen-Chaam,Noord-Brabant,VBO,4.862518,51.505010
Torenpad,1,,,4861AC,Chaam,Alphen-Chaam,Noord-Brabant,VBO,4.864032,51.503790
Dorpsstraat,46,,,4861AD,Chaam,Alphen-Chaam,Noord-Brabant,VBO,4.862646,51.505145
Dorpsstraat,47,,,4861AD,Chaam,Alphen-Chaam,Noord-Brabant,VBO,4.860077,51.505574
Dorpsstraat,48,,,4861AD,Chaam,Alphen-Chaam,Noord-Brabant,VBO,4.862198,51.505251
Dorpsstraat,52,,,4861AD,Chaam,Alphen-Chaam,Noord-Brabant,VBO,4.860883,51.505650
Dorpsstraat,56,,,4861AD,Chaam,Alphen-Chaam,Noord-Brabant,VBO,4.860738,51.505694
Dorpsstraat,58,,,4861AD,Chaam,Alphen-Chaam,Noord-Brabant,VBO,4.860637,51.505739
Dorpsstraat,60,,by,4861AD,Chaam,Alphen-Chaam,Noord-Brabant,VBO,4.860664,51.505938
Dorpsstraat,60,,,4861AD,Chaam,Alphen-Chaam,Noord-Brabant,VBO,4.860536,51.505774
Dorpsstraat,62,a,,4861AD,Chaam,Alphen-Chaam,Noord-Brabant,VBO,4.860505,51.505936
Dorpsstraat,62,,,4861AD,Chaam,Alphen-Chaam,Noord-Brabant,VBO,4.860548,51.505909
Dorpsstraat,64,,,4861AD,Chaam,Alphen-Chaam,Noord-Brabant,VBO,4.860261,51.505872
Dorpsstraat,66,,,4861AD,Chaam,Alphen-Chaam,Noord-Brabant,VBO,4.860174,51.505925
Dorpsstraat,68,,,4861AD,Chaam,Alphen-Chaam,Noord-Brabant,VBO,4.860072,51.505997
Dorpsstraat,70,a,,4861AD,Chaam,Alphen-Chaam,Noord-Brabant,VBO,4.860200,51.506168
Dorpsstraat,70,b,,4861AD,Chaam,Alphen-Chaam,Noord-Brabant,VBO,4.860200,51.506168
Dorpsstraat,70,,,4861AD,Chaam,Alphen-Chaam,Noord-Brabant,VBO,4.859927,51.506050
Dorpsstraat,72,,BOV,4861AD,Chaam,Alphen-Chaam,Noord-Brabant,VBO,4.859854,51.506149
Dorpsstraat,72,,,4861AD,Chaam,Alphen-Chaam,Noord-Brabant,VBO,4.859811,51.506139
Dorpsstraat,74,,,4861AD,Chaam,Alphen-Chaam,Noord-Brabant,VBO,4.859666,51.506265
Dorpsstraat,76,,,4861AD,Chaam,Alphen-Chaam,Noord-Brabant,VBO,4.859593,51.506300
Dorpsstraat,78,,,4861AD,Chaam,Alphen-Chaam,Noord-Brabant,VBO,4.859506,51.506372
Dorpsstraat,80,,,4861AD,Chaam,Alphen-Chaam,Noord-Brabant,VBO,4.859517,51.506623
Dorpsstraat,82,,,4861AD,Chaam,Alphen-Chaam,Noord-Brabant,VBO,4.859300,51.506703
Dorpsstraat,84,,,4861AD,Chaam,Alphen-Chaam,Noord-Brabant,VBO,4.859198,51.506820
Dorpsstraat,86,,,4861AD,Chaam,Alphen-Chaam,Noord-Brabant,VBO,4.859126,51.506855
Dorpsstraat,88,a,,4861AD,Chaam,Alphen-Chaam,Noord-Brabant,VBO,4.859024,51.506972
Dorpsstraat,90,a,,4861AD,Chaam,Alphen-Chaam,Noord-Brabant,VBO,4.858821,51.507070
Dorpsstraat,90,,,4861AD,Chaam,Alphen-Chaam,Noord-Brabant,VBO,4.858879,51.507052
Dorpsstraat,92,,,4861AD,Chaam,Alphen-Chaam,Noord-Brabant,VBO,4.858961,51.507385
Dorpsstraat,94,,,4861AD,Chaam,Alphen-Chaam,Noord-Brabant,VBO,4.859157,51.507616
Bredaseweg,1,,,4861AE,Chaam,Alphen-Chaam,Noord-Brabant,VBO,4.858259,51.507040
Bredaseweg,3,,,4861AE,Chaam,Alphen-Chaam,Noord-Brabant,VBO,4.858144,51.507076
Bredaseweg,5,,,4861AE,Chaam,Alphen-Chaam,Noord-Brabant,VBO,4.858057,51.507102
Bredaseweg,7,a,,4861AE,Chaam,Alphen-Chaam,Noord-Brabant,VBO,4.857755,51.507038
Bredaseweg,7,,,4861AE,Chaam,Alphen-Chaam,Noord-Brabant,VBO,4.857985,51.507120
Bredaseweg,9,,,4861AE,Chaam,Alphen-Chaam,Noord-Brabant,VBO,4.857582,51.507091
Bredaseweg,11,,,4861AE,Chaam,Alphen-Chaam,Noord-Brabant,VBO,4.857465,51.507252
Bredaseweg,13,a,,4861AE,Chaam,Alphen-Chaam,Noord-Brabant,VBO,4.856874,51.507259
Bredaseweg,13,,,4861AE,Chaam,Alphen-Chaam,Noord-Brabant,VBO,4.857248,51.507296
Bredaseweg,15,,,4861AE,Chaam,Alphen-Chaam,Noord-Brabant,VBO,4.856757,51.507438
Bredaseweg,17,,,4861AE,Chaam,Alphen-Chaam,Noord-Brabant,VBO,4.856670,51.507447
Bredaseweg,19,,,4861AE,Chaam,Alphen-Chaam,Noord-Brabant,VBO,4.856555,51.507482
Bredaseweg,21,,,4861AE,Chaam,Alphen-Chaam,Noord-Brabant,VBO,4.856396,51.507517
Bredaseweg,23,,,4861AE,Chaam,Alphen-Chaam,Noord-Brabant,VBO,4.856251,51.507552
Bredaseweg,25,,,4861AG,Chaam,Alphen-Chaam,Noord-Brabant,VBO,4.856121,51.507597
Bredaseweg,27,,,4861AG,Chaam,Alphen-Chaam,Noord-Brabant,VBO,4.855948,51.507632
Bredaseweg,31,,,4861AG,Chaam,Alphen-Chaam,Noord-Brabant,VBO,4.855500,51.507747
Bredaseweg,33,a,,4861AG,Chaam,Alphen-Chaam,Noord-Brabant,VBO,4.854919,51.507684
Bredaseweg,33,,,4861AG,Chaam,Alphen-Chaam,Noord-Brabant,VBO,4.855279,51.507800
Bredaseweg,35,,,4861AG,Chaam,Alphen-Chaam,Noord-Brabant,VBO,4.854647,51.507987
Bredaseweg,37,,,4861AG,Chaam,Alphen-Chaam,Noord-Brabant,VBO,4.854604,51.508012
Bredaseweg,39,,,4861AG,Chaam,Alphen-Chaam,Noord-Brabant,VBO,4.854532,51.508021
Bredaseweg,41,,,4861AG,Chaam,Alphen-Chaam,Noord-Brabant,VBO,4.854474,51.508048
Bredaseweg,45,,,4861AG,Chaam,Alphen-Chaam,Noord-Brabant,VBO,4.854315,51.508065
Bredaseweg,47,,,4861AG,Chaam,Alphen-Chaam,Noord-Brabant,VBO,4.854229,51.508074
Bredaseweg,49,,,4861AG,Chaam,Alphen-Chaam,Noord-Brabant,VBO,4.854156,51.508091
Bredaseweg,51,,,4861AG,Chaam,Alphen-Chaam,Noord-Brabant,VBO,4.854041,51.508100
Bredaseweg,2,a,,4861AH,Chaam,Alphen-Chaam,Noord-Brabant,VBO,4.858873,51.507537
Bredaseweg,2,,,4861AH,Chaam,Alphen-Chaam,Noord-Brabant,VBO,4.858831,51.507474
Bredaseweg,4,,by,4861AH,Chaam,Alphen-Chaam,Noord-Brabant,VBO,4.858661,51.507195
Bredaseweg,4,,,4861AH,Chaam,Alphen-Chaam,Noord-Brabant,VBO,4.858633,51.507150
Bredaseweg,6,,,4861AH,Chaam,Alphen-Chaam,Noord-Brabant,VBO,4.858546,51.507176
Bredaseweg,8,,,4861AH,Chaam,Alphen-Chaam,Noord-Brabant,VBO,4.858416,51.507221
Bredaseweg,10,,,4861AH,Chaam,Alphen-Chaam,Noord-Brabant,VBO,4.858314,51.507310
Bredaseweg,12,,,4861AH,Chaam,Alphen-Chaam,Noord-Brabant,VBO,4.858141,51.507300
Bredaseweg,14,,,4861AH,Chaam,Alphen-Chaam,Noord-Brabant,VBO,4.857938,51.507443
Bredaseweg,16,,,4861AH,Chaam,Alphen-Chaam,Noord-Brabant,VBO,4.857650,51.507433
Bredaseweg,18,,,4861AH,Chaam,Alphen-Chaam,Noord-Brabant,VBO,4.857461,51.507540
Bredaseweg,20,,,4861AH,Chaam,Alphen-Chaam,Noord-Brabant,VBO,4.857288,51.507575
Bredaseweg,22,,,4861AH,Chaam,Alphen-Chaam,Noord-Brabant,VBO,4.856956,51.507610
Bredaseweg,24,a,,4861AH,Chaam,Alphen-Chaam,Noord-Brabant,VBO,4.856930,51.508166
Bredaseweg,24,,,4861AH,Chaam,Alphen-Chaam,Noord-Brabant,VBO,4.856826,51.507645
Bredaseweg,26,,,4861AH,Chaam,Alphen-Chaam,Noord-Brabant,VBO,4.856537,51.507761
Bredaseweg,28,a,,4861AJ,Chaam,Alphen-Chaam,Noord-Brabant,VBO,4.856277,51.507822
Bredaseweg,28,,,4861AJ,Chaam,Alphen-Chaam,Noord-Brabant,VBO,4.856378,51.507796
Bredaseweg,30,,,4861AJ,Chaam,Alphen-Chaam,Noord-Brabant,VBO,4.856133,51.507849
Bredaseweg,32,,,4861AJ,Chaam,Alphen-Chaam,Noord-Brabant,VBO,4.856017,51.507875
Bredaseweg,34,,,4861AJ,Chaam,Alphen-Chaam,Noord-Brabant,VBO,4.855872,51.507928
Bredaseweg,36,a,,4861AJ,Chaam,Alphen-Chaam,Noord-Brabant,VBO,4.855670,51.507972
Bredaseweg,36,,,4861AJ,Chaam,Alphen-Chaam,Noord-Brabant,VBO,4.855815,51.507946
Bredaseweg,38,a,,4861AJ,Chaam,Alphen-Chaam,Noord-Brabant,VBO,4.855430,51.508045
Bredaseweg,38,,,4861AJ,Chaam,Alphen-Chaam,Noord-Brabant,VBO,4.855895,51.508429
Bredaseweg,40,,,4861AJ,Chaam,Alphen-Chaam,Noord-Brabant,VBO,4.855251,51.508096
Bredaseweg,42,,,4861AJ,Chaam,Alphen-Chaam,Noord-Brabant,VBO,4.855092,51.508131
Bredaseweg,44,,,4861AJ,Chaam,Alphen-Chaam,Noord-Brabant,VBO,4.854919,51.508176
Bredaseweg,46,,,4861AJ,Chaam,Alphen-Chaam,Noord-Brabant,VBO,4.854731,51.508220
Bredaseweg,48,a,,4861AJ,Chaam,Alphen-Chaam,Noord-Brabant,VBO,4.854052,51.508405
Bredaseweg,48,,,4861AJ,Chaam,Alphen-Chaam,Noord-Brabant,VBO,4.854369,51.508344
Beekstraat,1,,,4861AK,Chaam,Alphen-Chaam,Noord-Brabant,VBO,4.859822,51.506427
Beekstraat,5,,,4861AK,Chaam,Alphen-Chaam,Noord-Brabant,VBO,4.860021,51.506698
Beekstraat,7,,,4861AK,Chaam,Alphen-Chaam,Noord-Brabant,VBO,4.860105,51.506860
Beekstraat,9,,,4861AK,Chaam,Alphen-Chaam,Noord-Brabant,VBO,4.860162,51.506914
Beekstraat,11,,,4861AK,Chaam,Alphen-Chaam,Noord-Brabant,VBO,4.860262,51.506995
Beekstraat,13,,,4861AK,Chaam,Alphen-Chaam,Noord-Brabant,VBO,4.860319,51.507059
Beekstraat,15,,,4861AK,Chaam,Alphen-Chaam,Noord-Brabant,VBO,4.860419,51.507149
Beekstraat,17,,,4861AK,Chaam,Alphen-Chaam,Noord-Brabant,VBO,4.860476,51.507203
Beekstraat,19,,,4861AK,Chaam,Alphen-Chaam,Noord-Brabant,VBO,4.860575,51.507302
Beekstraat,21,,,4861AK,Chaam,Alphen-Chaam,Noord-Brabant,VBO,4.860675,51.507366
Beekstraat,23,,,4861AK,Chaam,Alphen-Chaam,Noord-Brabant,VBO,4.860732,51.507447
Beekstraat,25,,,4861AK,Chaam,Alphen-Chaam,Noord-Brabant,VBO,4.860804,51.507501
Beekstraat,27,,,4861AK,Chaam,Alphen-Chaam,Noord-Brabant,VBO,4.860889,51.507591
Beekstraat,29,,,4861AK,Chaam,Alphen-Chaam,Noord-Brabant,VBO,4.860946,51.507646
Beekstraat,31,,,4861AK,Chaam,Alphen-Chaam,Noord-Brabant,VBO,4.861089,51.507736
Beekstraat,33,,,4861AK,Chaam,Alphen-Chaam,Noord-Brabant,VBO,4.861146,51.507790
Beekstraat,35,,,4861AK,Chaam,Alphen-Chaam,Noord-Brabant,VBO,4.861260,51.507881
Beekstraat,37,,,4861AK,Chaam,Alphen-Chaam,Noord-Brabant,VBO,4.861346,51.507926
Beekstraat,39,,,4861AK,Chaam,Alphen-Chaam,Noord-Brabant,VBO,4.861446,51.508016
Beekstraat,41,,,4861AK,Chaam,Alphen-Chaam,Noord-Brabant,VBO,4.861517,51.508062
Beekstraat,2,a,,4861AL,Chaam,Alphen-Chaam,Noord-Brabant,VBO,4.860125,51.506374
Beekstraat,2,b,,4861AL,Chaam,Alphen-Chaam,Noord-Brabant,VBO,4.860240,51.506456
Beekstraat,2,,,4861AL,Chaam,Alphen-Chaam,Noord-Brabant,VBO,4.860011,51.506293
Beekstraat,4,,,4861AL,Chaam,Alphen-Chaam,Noord-Brabant,VBO,4.860353,51.506609
Beekstraat,6,,,4861AL,Chaam,Alphen-Chaam,Noord-Brabant,VBO,4.860438,51.506708
Beekstraat,8,,,4861AL,Chaam,Alphen-Chaam,Noord-Brabant,VBO,4.860609,51.506907
Beekstraat,10,,,4861AL,Chaam,Alphen-Chaam,Noord-Brabant,VBO,4.860666,51.506961
Beekstraat,12,,,4861AL,Chaam,Alphen-Chaam,Noord-Brabant,VBO,4.860751,51.507051
Beekstraat,14,,,4861AL,Chaam,Alphen-Chaam,Noord-Brabant,VBO,4.860823,51.507106
Beekstraat,16,,,4861AL,Chaam,Alphen-Chaam,Noord-Brabant,VBO,4.860908,51.507196
Beekstraat,18,,,4861AL,Chaam,Alphen-Chaam,Noord-Brabant,VBO,4.860965,51.507241
Beekstraat,20,,,4861AL,Chaam,Alphen-Chaam,Noord-Brabant,VBO,4.861065,51.507332
Beekstraat,22,,,4861AL,Chaam,Alphen-Chaam,Noord-Brabant,VBO,4.861165,51.507422
Beekstraat,24,,,4861AL,Chaam,Alphen-Chaam,Noord-Brabant,VBO,4.861250,51.507512
Beekstraat,30,,,4861AL,Chaam,Alphen-Chaam,Noord-Brabant,VBO,4.861707,51.507856
Eekhof,1,,,4861AM,Chaam,Alphen-Chaam,Noord-Brabant,VBO,4.861058,51.506720
Eekhof,3,,,4861AM,Chaam,Alphen-Chaam,Noord-Brabant,VBO,4.861143,51.506802
Eekhof,5,,,4861AM,Chaam,Alphen-Chaam,Noord-Brabant,VBO,4.861165,51.506907
Eekhof,7,,,4861AM,Chaam,Alphen-Chaam,Noord-Brabant,VBO,4.861216,51.506959
Eekhof,9,,,4861AM,Chaam,Alphen-Chaam,Noord-Brabant,VBO,4.861180,51.507024
Eekhof,11,,,4861AM,Chaam,Alphen-Chaam,Noord-Brabant,VBO,4.861214,51.507066
Eekhof,13,,,4861AM,Chaam,Alphen-Chaam,Noord-Brabant,VBO,4.861330,51.507088
Eekhof,15,,,4861AM,Chaam,Alphen-Chaam,Noord-Brabant,VBO,4.861380,51.507145
Eekhof,17,,,4861AM,Chaam,Alphen-Chaam,Noord-Brabant,VBO,4.861503,51.507217
Eekhof,19,,,4861AM,Chaam,Alphen-Chaam,Noord-Brabant,VBO,4.861563,51.507285
Eekhof,21,,,4861AM,Chaam,Alphen-Chaam,Noord-Brabant,VBO,4.861612,51.507344
Eekhof,2,,,4861AN,Chaam,Alphen-Chaam,Noord-Brabant,VBO,4.860824,51.506537
Eekhof,4,,,4861AN,Chaam,Alphen-Chaam,Noord-Brabant,VBO,4.860926,51.506499
Eekhof,6,,,4861AN,Chaam,Alphen-Chaam,Noord-Brabant,VBO,4.861034,51.506456
Eekhof,8,,,4861AN,Chaam,Alphen-Chaam,Noord-Brabant,VBO,4.861202,51.506437
Eekhof,10,,,4861AN,Chaam,Alphen-Chaam,Noord-Brabant,VBO,4.861241,51.506524
Eekhof,12,,,4861AN,Chaam,Alphen-Chaam,Noord-Brabant,VBO,4.861264,51.506517
Eekhof,14,,,4861AN,Chaam,Alphen-Chaam,Noord-Brabant,VBO,4.861329,51.506588
Eekhof,16,,,4861AN,Chaam,Alphen-Chaam,Noord-Brabant,VBO,4.861304,51.506604
Eekhof,18,,,4861AN,Chaam,Alphen-Chaam,Noord-Brabant,VBO,4.861405,51.506667
Eekhof,20,,,4861AN,Chaam,Alphen-Chaam,Noord-Brabant,VBO,4.861540,51.506759
Eekhof,22,,,4861AN,Chaam,Alphen-Chaam,Noord-Brabant,VBO,4.861550,51.506849
Eekhof,24,,,4861AN,Chaam,Alphen-Chaam,Noord-Brabant,VBO,4.861614,51.506922
Eekhof,26,,,4861AN,Chaam,Alphen-Chaam,Noord-Brabant,VBO,4.861714,51.506957
Eekhof,28,,,4861AN,Chaam,Alphen-Chaam,Noord-Brabant,VBO,4.861523,51.506768
Eekhof,30,,,4861AN,Chaam,Alphen-Chaam,Noord-Brabant,VBO,4.861528,51.506857
Eekhof,32,,,4861AN,Chaam,Alphen-Chaam,Noord-Brabant,VBO,4.861595,51.506931
Eekhof,34,,,4861AN,Chaam,Alphen-Chaam,Noord-Brabant,VBO,4.861695,51.506966
Eekhof,36,,,4861AN,Chaam,Alphen-Chaam,Noord-Brabant,VBO,4.861749,51.507111
Eekhof,38,,,4861AN,Chaam,Alphen-Chaam,Noord-Brabant,VBO,4.861798,51.507176
Eekhof,40,,,4861AN,Chaam,Alphen-Chaam,Noord-Brabant,VBO,4.861823,51.507156
Eekhof,42,,,4861AN,Chaam,Alphen-Chaam,Noord-Brabant,VBO,4.861959,51.507236
Eekhof,44,,,4861AN,Chaam,Alphen-Chaam,Noord-Brabant,VBO,4.861921,51.507262
Eekhof,46,,,4861AN,Chaam,Alphen-Chaam,Noord-Brabant,VBO,4.862033,51.507306
Eekhof,48,,,4861AN,Chaam,Alphen-Chaam,Noord-Brabant,VBO,4.862034,51.507388
Eekhof,50,,,4861AN,Chaam,Alphen-Chaam,Noord-Brabant,VBO,4.861922,51.507411
Eekhof,52,,,4861AN,Chaam,Alphen-Chaam,Noord-Brabant,VBO,4.861835,51.507457
Eekhof,54,,,4861AN,Chaam,Alphen-Chaam,Noord-Brabant,VBO,4.861610,51.507593
Eekhof,56,,,4861AN,Chaam,Alphen-Chaam,Noord-Brabant,VBO,4.861522,51.507632
Eekhof,58,,,4861AN,Chaam,Alphen-Chaam,Noord-Brabant,VBO,4.861430,51.507674
Eekhof,60,,,4861AN,Chaam,Alphen-Chaam,Noord-Brabant,VBO,4.861671,51.507641
Eekhof,62,,,4861AN,Chaam,Alphen-Chaam,Noord-Brabant,VBO,4.861579,51.507684
Eekhof,64,,,4861AN,Chaam,Alphen-Chaam,Noord-Brabant,VBO,4.861491,51.507735
Withagen,1,a,,4861AP,Chaam,Alphen-Chaam,Noord-Brabant,VBO,4.862765,51.507321
Withagen,1,b,,4861AP,Chaam,Alphen-Chaam,Noord-Brabant,VBO,4.862778,51.507402
Withagen,1,c,,4861AP,Chaam,Alphen-Chaam,Noord-Brabant,VBO,4.862721,51.507357
Withagen,1,d,,4861AP,Chaam,Alphen-Chaam,Noord-Brabant,VBO,4.862691,51.507456
Withagen,1,e,,4861AP,Chaam,Alphen-Chaam,Noord-Brabant,VBO,4.862634,51.507411
Withagen,1,f,,4861AP,Chaam,Alphen-Chaam,Noord-Brabant,VBO,4.862633,51.507482
Withagen,1,,,4861AP,Chaam,Alphen-Chaam,Noord-Brabant,VBO,4.862836,51.507375
Withagen,3,,,4861AP,Chaam,Alphen-Chaam,Noord-Brabant,VBO,4.862474,51.507545
Withagen,5,,,4861AP,Chaam,Alphen-Chaam,Noord-Brabant,VBO,4.862286,51.507652
Withagen,7,,,4861AP,Chaam,Alphen-Chaam,Noord-Brabant,VBO,4.862141,51.507732
Withagen,9,,,4861AP,Chaam,Alphen-Chaam,Noord-Brabant,VBO,4.862068,51.507777
Withagen,11,,,4861AP,Chaam,Alphen-Chaam,Noord-Brabant,VBO,4.861938,51.507848
Withagen,13,,,4861AP,Chaam,Alphen-Chaam,Noord-Brabant,VBO,4.861822,51.507901
Withagen,15,,,4861AP,Chaam,Alphen-Chaam,Noord-Brabant,VBO,4.861358,51.508169
Withagen,17,,,4861AP,Chaam,Alphen-Chaam,Noord-Brabant,VBO,4.860908,51.508436
Withagen,19,,,4861AP,Chaam,Alphen-Chaam,Noord-Brabant,VBO,4.860806,51.508517
Withagen,21,,,4861AP,Chaam,Alphen-Chaam,Noord-Brabant,VBO,4.860603,51.508651
Withagen,23,,,4861AP,Chaam,Alphen-Chaam,Noord-Brabant,VBO,4.860474,51.508578
Withagen,25,,,4861AP,Chaam,Alphen-Chaam,Noord-Brabant,VBO,4.860302,51.508488
Withagen,27,,,4861AP,Chaam,Alphen-Chaam,Noord-Brabant,VBO,4.860419,51.508398
Withagen,29,,,4861AP,Chaam,Alphen-Chaam,Noord-Brabant,VBO,4.860261,51.508299
Withagen,31,,,4861AP,Chaam,Alphen-Chaam,Noord-Brabant,VBO,4.860174,51.508361
Withagen,33,,,4861AP,Chaam,Alphen-Chaam,Noord-Brabant,VBO,4.860000,51.508459
Withagen,35,,,4861AP,Chaam,Alphen-Chaam,Noord-Brabant,VBO,4.859899,51.508486
Withagen,37,,,4861AP,Chaam,Alphen-Chaam,Noord-Brabant,VBO,4.859726,51.508512
Withagen,39,,,4861AP,Chaam,Alphen-Chaam,Noord-Brabant,VBO,4.859610,51.508538
Withagen,41,,,4861AP,Chaam,Alphen-Chaam,Noord-Brabant,VBO,4.859452,51.508574
Withagen,43,,,4861AP,Chaam,Alphen-Chaam,Noord-Brabant,VBO,4.859336,51.508591
Withagen,45,,,4861AP,Chaam,Alphen-Chaam,Noord-Brabant,VBO,4.859105,51.508626
Withagen,47,,,4861AP,Chaam,Alphen-Chaam,Noord-Brabant,VBO,4.858918,51.508661
Withagen,49,,,4861AP,Chaam,Alphen-Chaam,Noord-Brabant,VBO,4.858831,51.508679
Withagen,51,,,4861AP,Chaam,Alphen-Chaam,Noord-Brabant,VBO,4.858514,51.508722
Withagen,53,,,4861AP,Chaam,Alphen-Chaam,Noord-Brabant,VBO,4.858457,51.508605
Withagen,55,,,4861AP,Chaam,Alphen-Chaam,Noord-Brabant,VBO,4.858444,51.508542
Withagen,57,,,4861AP,Chaam,Alphen-Chaam,Noord-Brabant,VBO,4.858387,51.508425
Withagen,59,,,4861AP,Chaam,Alphen-Chaam,Noord-Brabant,VBO,4.857999,51.508414
Withagen,61,,,4861AP,Chaam,Alphen-Chaam,Noord-Brabant,VBO,4.857912,51.508441
Withagen,63,,,4861AP,Chaam,Alphen-Chaam,Noord-Brabant,VBO,4.857724,51.508476
Withagen,65,,,4861AP,Chaam,Alphen-Chaam,Noord-Brabant,VBO,4.857623,51.508494
Withagen,67,,,4861AP,Chaam,Alphen-Chaam,Noord-Brabant,VBO,4.857436,51.508502
Withagen,69,,,4861AP,Chaam,Alphen-Chaam,Noord-Brabant,VBO,4.857364,51.508519
Withagen,71,,,4861AP,Chaam,Alphen-Chaam,Noord-Brabant,VBO,4.857176,51.508545
Withagen,73,,,4861AP,Chaam,Alphen-Chaam,Noord-Brabant,VBO,4.857104,51.508563
Withagen,75,,,4861AP,Chaam,Alphen-Chaam,Noord-Brabant,VBO,4.856930,51.508607
Withagen,77,,,4861AP,Chaam,Alphen-Chaam,Noord-Brabant,VBO,4.856829,51.508625
Withagen,79,,,4861AP,Chaam,Alphen-Chaam,Noord-Brabant,VBO,4.856656,51.508642
Withagen,81,,,4861AP,Chaam,Alphen-Chaam,Noord-Brabant,VBO,4.856584,51.508651
Withagen,83,,,4861AP,Chaam,Alphen-Chaam,Noord-Brabant,VBO,4.856411,51.508668
Withagen,85,,,4861AP,Chaam,Alphen-Chaam,Noord-Brabant,VBO,4.856310,51.508676
Withagen,87,,,4861AP,Chaam,Alphen-Chaam,Noord-Brabant,VBO,4.856137,51.508676
Withagen,89,,,4861AP,Chaam,Alphen-Chaam,Noord-Brabant,VBO,4.856051,51.508693
Withagen,91,,,4861AP,Chaam,Alphen-Chaam,Noord-Brabant,VBO,4.855892,51.508701
Withagen,93,,,4861AP,Chaam,Alphen-Chaam,Noord-Brabant,VBO,4.855806,51.508719
Withagen,95,,,4861AP,Chaam,Alphen-Chaam,Noord-Brabant,VBO,4.855632,51.508736
Withagen,97,,,4861AP,Chaam,Alphen-Chaam,Noord-Brabant,VBO,4.855546,51.508745
Withagen,99,,,4861AP,Chaam,Alphen-Chaam,Noord-Brabant,VBO,4.855373,51.508771
Withagen,101,,,4861AP,Chaam,Alphen-Chaam,Noord-Brabant,VBO,4.855301,51.508771
Withagen,2,,,4861AR,Chaam,Alphen-Chaam,Noord-Brabant,VBO,4.862815,51.507987
Withagen,4,,,4861AR,Chaam,Alphen-Chaam,Noord-Brabant,VBO,4.862786,51.507977
Withagen,6,a,,4861AR,Chaam,Alphen-Chaam,Noord-Brabant,VBO,4.862684,51.508058
Withagen,6,,,4861AR,Chaam,Alphen-Chaam,Noord-Brabant,VBO,4.862815,51.507960
Withagen,8,,,4861AR,Chaam,Alphen-Chaam,Noord-Brabant,VBO,4.862786,51.507942
Withagen,10,,,4861AR,Chaam,Alphen-Chaam,Noord-Brabant,VBO,4.862757,51.507959
Withagen,12,,,4861AR,Chaam,Alphen-Chaam,Noord-Brabant,VBO,4.862786,51.507986
Withagen,14,,,4861AR,Chaam,Alphen-Chaam,Noord-Brabant,VBO,4.862815,51.507978
Withagen,16,,,4861AR,Chaam,Alphen-Chaam,Noord-Brabant,VBO,4.862829,51.507960
Withagen,18,,,4861AR,Chaam,Alphen-Chaam,Noord-Brabant,VBO,4.862757,51.507977
Withagen,20,,,4861AR,Chaam,Alphen-Chaam,Noord-Brabant,VBO,4.862786,51.508004
Withagen,22,,,4861AR,Chaam,Alphen-Chaam,Noord-Brabant,VBO,4.862815,51.507996
Withagen,24,,,4861AR,Chaam,Alphen-Chaam,Noord-Brabant,VBO,4.862844,51.507978
Withagen,26,,,4861AR,Chaam,Alphen-Chaam,Noord-Brabant,VBO,4.862728,51.507977
Withagen,28,,,4861AR,Chaam,Alphen-Chaam,Noord-Brabant,VBO,4.862757,51.507995
Withagen,30,,,4861AR,Chaam,Alphen-Chaam,Noord-Brabant,VBO,4.862786,51.508013
Withagen,32,,,4861AR,Chaam,Alphen-Chaam,Noord-Brabant,VBO,4.862814,51.508014
Withagen,34,,,4861AR,Chaam,Alphen-Chaam,Noord-Brabant,VBO,4.862843,51.507996
Withagen,36,,,4861AR,Chaam,Alphen-Chaam,Noord-Brabant,VBO,4.862699,51.507986
Withagen,38,,,4861AR,Chaam,Alphen-Chaam,Noord-Brabant,VBO,4.862728,51.507995
Withagen,40,,,4861AR,Chaam,Alphen-Chaam,Noord-Brabant,VBO,4.862757,51.508013
Withagen,42,,,4861AR,Chaam,Alphen-Chaam,Noord-Brabant,VBO,4.862020,51.508199
Withagen,44,,,4861AR,Chaam,Alphen-Chaam,Noord-Brabant,VBO,4.861687,51.508341
Withagen,46,,,4861AR,Chaam,Alphen-Chaam,Noord-Brabant,VBO,4.861426,51.508502
Withagen,48,,,4861AR,Chaam,Alphen-Chaam,Noord-Brabant,VBO,4.861237,51.508618
Withagen,50,,,4861AR,Chaam,Alphen-Chaam,Noord-Brabant,VBO,4.861049,51.508734
Withagen,52,,,4861AR,Chaam,Alphen-Chaam,Noord-Brabant,VBO,4.860889,51.508859
Withagen,54,,01,4861AR,Chaam,Alphen-Chaam,Noord-Brabant,VBO,4.860106,51.509260
Withagen,54,,02,4861AR,Chaam,Alphen-Chaam,Noord-Brabant,VBO,4.860121,51.509251
Withagen,54,,03,4861AR,Chaam,Alphen-Chaam,Noord-Brabant,VBO,4.860135,51.509242
Withagen,54,,04,4861AR,Chaam,Alphen-Chaam,Noord-Brabant,VBO,4.860150,51.509233
Withagen,54,,05,4861AR,Chaam,Alphen-Chaam,Noord-Brabant,VBO,4.860164,51.509224
Withagen,54,,06,4861AR,Chaam,Alphen-Chaam,Noord-Brabant,VBO,4.860179,51.509215
Withagen,54,,07,4861AR,Chaam,Alphen-Chaam,Noord-Brabant,VBO,4.860193,51.509206
Withagen,54,,08,4861AR,Chaam,Alphen-Chaam,Noord-Brabant,VBO,4.860208,51.509197
Withagen,54,,09,4861AR,Chaam,Alphen-Chaam,Noord-Brabant,VBO,4.860222,51.509188
Withagen,54,,10,4861AR,Chaam,Alphen-Chaam,Noord-Brabant,VBO,4.860237,51.509180
Withagen,54,,11,4861AR,Chaam,Alphen-Chaam,Noord-Brabant,VBO,4.860251,51.509171
Withagen,54,,12,4861AR,Chaam,Alphen-Chaam,Noord-Brabant,VBO,4.860266,51.509162
Withagen,54,,13,4861AR,Chaam,Alphen-Chaam,Noord-Brabant,VBO,4.860280,51.509153
Withagen,54,,14,4861AR,Chaam,Alphen-Chaam,Noord-Brabant,VBO,4.860295,51.509144
Withagen,54,,15,4861AR,Chaam,Alphen-Chaam,Noord-Brabant,VBO,4.860309,51.509135
Withagen,54,,16,4861AR,Chaam,Alphen-Chaam,Noord-Brabant,VBO,4.860324,51.509126
Withagen,54,,17,4861AR,Chaam,Alphen-Chaam,Noord-Brabant,VBO,4.860338,51.509117
Withagen,54,,18,4861AR,Chaam,Alphen-Chaam,Noord-Brabant,VBO,4.860353,51.509108
Withagen,54,,19,4861AR,Chaam,Alphen-Chaam,Noord-Brabant,VBO,4.860367,51.509099
Withagen,54,,20,4861AR,Chaam,Alphen-Chaam,Noord-Brabant,VBO,4.860382,51.509090
Withagen,54,,21,4861AR,Chaam,Alphen-Chaam,Noord-Brabant,VBO,4.860396,51.509081
Withagen,54,,22,4861AR,Chaam,Alphen-Chaam,Noord-Brabant,VBO,4.860411,51.509072
Withagen,54,,23,4861AR,Chaam,Alphen-Chaam,Noord-Brabant,VBO,4.860425,51.509064
Withagen,54,,24,4861AR,Chaam,Alphen-Chaam,Noord-Brabant,VBO,4.860440,51.509055
Withagen,54,,25,4861AR,Chaam,Alphen-Chaam,Noord-Brabant,VBO,4.860454,51.509046
Withagen,54,,26,4861AR,Chaam,Alphen-Chaam,Noord-Brabant,VBO,4.860469,51.509037
Withagen,54,,27,4861AR,Chaam,Alphen-Chaam,Noord-Brabant,VBO,4.860483,51.509028
Withagen,54,,28,4861AR,Chaam,Alphen-Chaam,Noord-Brabant,VBO,4.860498,51.509019
Withagen,54,,29,4861AR,Chaam,Alphen-Chaam,Noord-Brabant,VBO,4.860512,51.509010
Withagen,54,,30,4861AR,Chaam,Alphen-Chaam,Noord-Brabant,VBO,4.860527,51.509001
Withagen,54,,31,4861AR,Chaam,Alphen-Chaam,Noord-Brabant,VBO,4.859943,51.509655
Withagen,54,,32,4861AR,Chaam,Alphen-Chaam,Noord-Brabant,VBO,4.859958,51.509646
Withagen,54,,33,4861AR,Chaam,Alphen-Chaam,Noord-Brabant,VBO,4.859972,51.509637
Withagen,54,,34,4861AR,Chaam,Alphen-Chaam,Noord-Brabant,VBO,4.859987,51.509628
Withagen,54,,35,4861AR,Chaam,Alphen-Chaam,Noord-Brabant,VBO,4.860001,51.509619
Withagen,54,,36,4861AR,Chaam,Alphen-Chaam,Noord-Brabant,VBO,4.860016,51.509610
Withagen,54,,37,4861AR,Chaam,Alphen-Chaam,Noord-Brabant,VBO,4.860030,51.509601
Withagen,54,,38,4861AR,Chaam,Alphen-Chaam,Noord-Brabant,VBO,4.860045,51.509592
Withagen,54,,39,4861AR,Chaam,Alphen-Chaam,Noord-Brabant,VBO,4.860059,51.509583
Withagen,54,,40,4861AR,Chaam,Alphen-Chaam,Noord-Brabant,VBO,4.860074,51.509574
Withagen,54,,41,4861AR,Chaam,Alphen-Chaam,Noord-Brabant,VBO,4.860088,51.509565
Withagen,54,,42,4861AR,Chaam,Alphen-Chaam,Noord-Brabant,VBO,4.860103,51.509556
Withagen,54,,,4861AR,Chaam,Alphen-Chaam,Noord-Brabant,VBO,4.860293,51.509279
Withagen,56,,,4861AR,Chaam,Alphen-Chaam,Noord-Brabant,VBO,4.859116,51.508905
Withagen,58,,,4861AR,Chaam,Alphen-Chaam,Noord-Brabant,VBO,4.858914,51.508931
Withagen,60,,,4861AR,Chaam,Alphen-Chaam,Noord-Brabant,VBO,4.858785,51.508939
Withagen,62,,,4861AR,Chaam,Alphen-Chaam,Noord-Brabant,VBO,4.858611,51.508974
Withagen,64,,,4861AR,Chaam,Alphen-Chaam,Noord-Brabant,VBO,4.858511,51.508983
Withagen,66,,,4861AR,Chaam,Alphen-Chaam,Noord-Brabant,VBO,4.858323,51.509009
Withagen,68,,,4861AR,Chaam,Alphen-Chaam,Noord-Brabant,VBO,4.858236,51.509018
Withagen,70,,,4861AR,Chaam,Alphen-Chaam,Noord-Brabant,VBO,4.858063,51.509035
Withagen,72,,,4861AR,Chaam,Alphen-Chaam,Noord-Brabant,VBO,4.858049,51.509044
Withagen,74,,,4861AR,Chaam,Alphen-Chaam,Noord-Brabant,VBO,4.857949,51.509063
Withagen,76,a,,4861AR,Chaam,Alphen-Chaam,Noord-Brabant,VBO,4.857813,51.509202
Withagen,76,b,,4861AR,Chaam,Alphen-Chaam,Noord-Brabant,VBO,4.857786,51.509180
Withagen,76,c,,4861AR,Chaam,Alphen-Chaam,Noord-Brabant,VBO,4.857763,51.509156
Withagen,76,d,,4861AR,Chaam,Alphen-Chaam,Noord-Brabant,VBO,4.857740,51.509132
Withagen,76,e,,4861AR,Chaam,Alphen-Chaam,Noord-Brabant,VBO,4.857717,51.509109
Withagen,76,f,,4861AR,Chaam,Alphen-Chaam,Noord-Brabant,VBO,4.857692,51.509085
Withagen,76,,,4861AR,Chaam,Alphen-Chaam,Noord-Brabant,VBO,4.857962,51.509052
Withagen,78,,,4861AR,Chaam,Alphen-Chaam,Noord-Brabant,VBO,4.857758,51.509004
Withagen,80,,,4861AR,Chaam,Alphen-Chaam,Noord-Brabant,VBO,4.857733,51.508988
Withagen,82,,,4861AR,Chaam,Alphen-Chaam,Noord-Brabant,VBO,4.857693,51.508921
Withagen,84,,,4861AR,Chaam,Alphen-Chaam,Noord-Brabant,VBO,4.857690,51.508934
Withagen,86,,,4861AR,Chaam,Alphen-Chaam,Noord-Brabant,VBO,4.857569,51.508771
Withagen,88,,,4861AR,Chaam,Alphen-Chaam,Noord-Brabant,VBO,4.857447,51.508780
Withagen,90,,,4861AR,Chaam,Alphen-Chaam,Noord-Brabant,VBO,4.857245,51.508824
Withagen,92,,,4861AR,Chaam,Alphen-Chaam,Noord-Brabant,VBO,4.857173,51.508833
Withagen,94,,,4861AR,Chaam,Alphen-Chaam,Noord-Brabant,VBO,4.856697,51.508858
Withagen,96,,,4861AR,Chaam,Alphen-Chaam,Noord-Brabant,VBO,4.856610,51.508866
Withagen,98,,,4861AR,Chaam,Alphen-Chaam,Noord-Brabant,VBO,4.856449,51.509144
Withagen,100,,,4861AR,Chaam,Alphen-Chaam,Noord-Brabant,VBO,4.856420,51.509117
Withagen,102,,,4861AR,Chaam,Alphen-Chaam,Noord-Brabant,VBO,4.856406,51.509063
Withagen,104,,,4861AR,Chaam,Alphen-Chaam,Noord-Brabant,VBO,4.856365,51.508910
Withagen,106,,,4861AR,Chaam,Alphen-Chaam,Noord-Brabant,VBO,4.856308,51.508883
Withagen,108,,,4861AR,Chaam,Alphen-Chaam,Noord-Brabant,VBO,4.856250,51.508919
Withagen,110,,,4861AR,Chaam,Alphen-Chaam,Noord-Brabant,VBO,4.856091,51.508936
Withagen,112,,,4861AR,Chaam,Alphen-Chaam,Noord-Brabant,VBO,4.856005,51.508927
Withagen,114,,,4861AR,Chaam,Alphen-Chaam,Noord-Brabant,VBO,4.855947,51.508935
Withagen,116,,,4861AR,Chaam,Alphen-Chaam,Noord-Brabant,VBO,4.856002,51.509133
Withagen,118,,,4861AR,Chaam,Alphen-Chaam,Noord-Brabant,VBO,4.856074,51.509134
Withagen,120,,,4861AR,Chaam,Alphen-Chaam,Noord-Brabant,VBO,4.856030,51.509214
Withagen,122,,,4861AR,Chaam,Alphen-Chaam,Noord-Brabant,VBO,4.856074,51.509197
Withagen,124,,,4861AR,Chaam,Alphen-Chaam,Noord-Brabant,VBO,4.855684,51.509240
Withagen,126,,,4861AR,Chaam,Alphen-Chaam,Noord-Brabant,VBO,4.855699,51.509213
Withagen,128,,,4861AR,Chaam,Alphen-Chaam,Noord-Brabant,VBO,4.855656,51.509177
Withagen,130,,,4861AR,Chaam,Alphen-Chaam,Noord-Brabant,VBO,4.855659,51.508961
Withagen,132,,,4861AR,Chaam,Alphen-Chaam,Noord-Brabant,VBO,4.855558,51.508979
Withagen,134,,,4861AR,Chaam,Alphen-Chaam,Noord-Brabant,VBO,4.855485,51.508987
Gilzeweg,1,a,,4861AS,Chaam,Alphen-Chaam,Noord-Brabant,VBO,4.861541,51.506030
Gilzeweg,1,b,,4861AS,Chaam,Alphen-Chaam,Noord-Brabant,VBO,4.861569,51.506093
Gilzeweg,1,,by,4861AS,Chaam,Alphen-Chaam,Noord-Brabant,VBO,4.861228,51.505696
Gilzeweg,1,,,4861AS,Chaam,Alphen-Chaam,Noord-Brabant,VBO,4.861271,51.505723
Gilzeweg,3,,,4861AS,Chaam,Alphen-Chaam,Noord-Brabant,VBO,4.861626,51.506157
Gilzeweg,5,a,,4861AS,Chaam,Alphen-Chaam,Noord-Brabant,VBO,4.861710,51.506328
Gilzeweg,5,,,4861AS,Chaam,Alphen-Chaam,Noord-Brabant,VBO,4.861669,51.506193
Gilzeweg,7,,,4861AS,Chaam,Alphen-Chaam,Noord-Brabant,VBO,4.861795,51.506436
Gilzeweg,9,,,4861AS,Chaam,Alphen-Chaam,Noord-Brabant,VBO,4.861895,51.506544
Gilzeweg,11,a,,4861AS,Chaam,Alphen-Chaam,Noord-Brabant,VBO,4.862066,51.506743
Gilzeweg,11,,,4861AS,Chaam,Alphen-Chaam,Noord-Brabant,VBO,4.861981,51.506608
Gilzeweg,13,,,4861AS,Chaam,Alphen-Chaam,Noord-Brabant,VBO,4.862180,51.506806
Gilzeweg,15,,,4861AS,Chaam,Alphen-Chaam,Noord-Brabant,VBO,4.862323,51.506924
Gilzeweg,17,,,4861AS,Chaam,Alphen-Chaam,Noord-Brabant,VBO,4.862451,51.507059
Gilzeweg,19,a,,4861AS,Chaam,Alphen-Chaam,Noord-Brabant,VBO,4.862360,51.507320
Gilzeweg,19,b,,4861AS,Chaam,Alphen-Chaam,Noord-Brabant,VBO,4.862808,51.507339
Gilzeweg,19,,,4861AS,Chaam,Alphen-Chaam,Noord-Brabant,VBO,4.862593,51.507213
Gilzeweg,21,a,,4861AS,Chaam,Alphen-Chaam,Noord-Brabant,VBO,4.863308,51.507647
Gilzeweg,21,,,4861AS,Chaam,Alphen-Chaam,Noord-Brabant,VBO,4.863237,51.507602
Gilzeweg,23,,,4861AS,Chaam,Alphen-Chaam,Noord-Brabant,VBO,4.863710,51.507775
Gilzeweg,25,a,,4861AS,Chaam,Alphen-Chaam,Noord-Brabant,VBO,4.863939,51.507947
Gilzeweg,25,,,4861AS,Chaam,Alphen-Chaam,Noord-Brabant,VBO,4.863839,51.507847
Gilzeweg,27,,,4861AS,Chaam,Alphen-Chaam,Noord-Brabant,VBO,4.864096,51.508055
Gilzeweg,29,,,4861AS,Chaam,Alphen-Chaam,Noord-Brabant,VBO,4.864225,51.508128
Gilzeweg,31,,,4861AS,Chaam,Alphen-Chaam,Noord-Brabant,VBO,4.864368,51.508200
Gilzeweg,33,,,4861AS,Chaam,Alphen-Chaam,Noord-Brabant,VBO,4.864439,51.508255
Gilzeweg,35,,,4861AS,Chaam,Alphen-Chaam,Noord-Brabant,VBO,4.864568,51.508336
Gilzeweg,37,a,,4861AS,Chaam,Alphen-Chaam,Noord-Brabant,VBO,4.864839,51.508526
Gilzeweg,37,,,4861AS,Chaam,Alphen-Chaam,Noord-Brabant,VBO,4.864725,51.508427
Gilzeweg,39,,,4861AS,Chaam,Alphen-Chaam,Noord-Brabant,VBO,4.864969,51.508545
Gilzeweg,41,,,4861AS,Chaam,Alphen-Chaam,Noord-Brabant,VBO,4.865112,51.508662
Gilzeweg,43,a,,4861AS,Chaam,Alphen-Chaam,Noord-Brabant,VBO,4.865254,51.508816
Gilzeweg,43,b,nabi,4861AS,Chaam,Alphen-Chaam,Noord-Brabant,VBO,4.863954,51.509401
Gilzeweg,43,b,,4861AS,Chaam,Alphen-Chaam,Noord-Brabant,VBO,4.863822,51.509330
Gilzeweg,43,c,,4861AS,Chaam,Alphen-Chaam,Noord-Brabant,VBO,4.864695,51.509829
Gilzeweg,43,d,,4861AS,Chaam,Alphen-Chaam,Noord-Brabant,VBO,4.862029,51.509952
Gilzeweg,43,,,4861AS,Chaam,Alphen-Chaam,Noord-Brabant,VBO,4.865183,51.508698
Gilzeweg,45,,,4861AS,Chaam,Alphen-Chaam,Noord-Brabant,VBO,4.866025,51.509376
Gilzeweg,2,a,,4861AT,Chaam,Alphen-Chaam,Noord-Brabant,VBO,4.861673,51.505824
Gilzeweg,2,,,4861AT,Chaam,Alphen-Chaam,Noord-Brabant,VBO,4.861920,51.505637
Gilzeweg,4,a,,4861AT,Chaam,Alphen-Chaam,Noord-Brabant,VBO,4.861944,51.506014
Gilzeweg,4,b,,4861AT,Chaam,Alphen-Chaam,Noord-Brabant,VBO,4.862029,51.506122
Gilzeweg,4,c,,4861AT,Chaam,Alphen-Chaam,Noord-Brabant,VBO,4.862072,51.506177
Gilzeweg,4,,,4861AT,Chaam,Alphen-Chaam,Noord-Brabant,VBO,4.861845,51.505870
Gilzeweg,6,,,4861AT,Chaam,Alphen-Chaam,Noord-Brabant,VBO,4.862273,51.506258
Gilzeweg,8,,,4861AT,Chaam,Alphen-Chaam,Noord-Brabant,VBO,4.862270,51.506465
Gilzeweg,10,a,,4861AT,Chaam,Alphen-Chaam,Noord-Brabant,VBO,4.862513,51.506682
Gilzeweg,10,,,4861AT,Chaam,Alphen-Chaam,Noord-Brabant,VBO,4.862370,51.506564
Gilzeweg,12,,by,4861AT,Chaam,Alphen-Chaam,Noord-Brabant,VBO,4.862844,51.506683
Gilzeweg,12,,,4861AT,Chaam,Alphen-Chaam,Noord-Brabant,VBO,4.862627,51.506808
Gilzeweg,14,a,,4861AT,Chaam,Alphen-Chaam,Noord-Brabant,VBO,4.863742,51.507496
Gilzeweg,14,b,,4861AT,Chaam,Alphen-Chaam,Noord-Brabant,VBO,4.863957,51.507596
Gilzeweg,14,,,4861AT,Chaam,Alphen-Chaam,Noord-Brabant,VBO,4.863628,51.507424
Gilzeweg,16,,,4861AT,Chaam,Alphen-Chaam,Noord-Brabant,VBO,4.864028,51.507659
Gilzeweg,18,a,,4861AT,Chaam,Alphen-Chaam,Noord-Brabant,VBO,4.865010,51.507511
Gilzeweg,18,,,4861AT,Chaam,Alphen-Chaam,Noord-Brabant,VBO,4.864329,51.507859
Gilzeweg,20,a,,4861AT,Chaam,Alphen-Chaam,Noord-Brabant,VBO,4.864716,51.508022
Gilzeweg,20,,,4861AT,Chaam,Alphen-Chaam,Noord-Brabant,VBO,4.864486,51.507940
Gilzeweg,22,,by,4861AT,Chaam,Alphen-Chaam,Noord-Brabant,VBO,4.865466,51.507945
Gilzeweg,22,,,4861AT,Chaam,Alphen-Chaam,Noord-Brabant,VBO,4.865060,51.508176
Gilzeweg,24,a,,4861AT,Chaam,Alphen-Chaam,Noord-Brabant,VBO,4.865517,51.508439
Gilzeweg,24,,,4861AT,Chaam,Alphen-Chaam,Noord-Brabant,VBO,4.865488,51.508511
Gilzeweg,26,,,4861AT,Chaam,Alphen-Chaam,Noord-Brabant,VBO,4.865788,51.508692
Gilzeweg,28,a,,4861AT,Chaam,Alphen-Chaam,Noord-Brabant,VBO,4.868096,51.510506
Gilzeweg,28,,bij,4861AT,Chaam,Alphen-Chaam,Noord-Brabant,VBO,4.866363,51.508776
Gilzeweg,28,,,4861AT,Chaam,Alphen-Chaam,Noord-Brabant,VBO,4.865957,51.508800
Vogelenzang,1,,,4861AV,Chaam,Alphen-Chaam,Noord-Brabant,VBO,4.865994,51.508315
Vogelenzang,2,,by,4861AV,Chaam,Alphen-Chaam,Noord-Brabant,VBO,4.865924,51.508126
Vogelenzang,2,,,4861AV,Chaam,Alphen-Chaam,Noord-Brabant,VBO,4.865289,51.508240
Vogelenzang,3,,,4861AV,Chaam,Alphen-Chaam,Noord-Brabant,VBO,4.866398,51.508290
Vogelenzang,4,,,4861AV,Chaam,Alphen-Chaam,Noord-Brabant,VBO,4.866560,51.508003
Vogelenzang,6,,,4861AV,Chaam,Alphen-Chaam,Noord-Brabant,VBO,4.866833,51.507996
Vogelenzang,10,,,4861AV,Chaam,Alphen-Chaam,Noord-Brabant,VBO,4.868359,51.508110
Valkenakker,1,,,4861AW,Chaam,Alphen-Chaam,Noord-Brabant,VBO,4.861183,51.508294
Valkenakker,3,,,4861AW,Chaam,Alphen-Chaam,Noord-Brabant,VBO,4.861098,51.508240
Valkenakker,5,,,4861AW,Chaam,Alphen-Chaam,Noord-Brabant,VBO,4.860969,51.508158
Valkenakker,7,,,4861AW,Chaam,Alphen-Chaam,Noord-Brabant,VBO,4.860898,51.508095
Valkenakker,9,,,4861AW,Chaam,Alphen-Chaam,Noord-Brabant,VBO,4.860783,51.508031
Valkenakker,11,,,4861AW,Chaam,Alphen-Chaam,Noord-Brabant,VBO,4.860726,51.507986
Valkenakker,13,,,4861AW,Chaam,Alphen-Chaam,Noord-Brabant,VBO,4.860598,51.507869
Valkenakker,15,,,4861AW,Chaam,Alphen-Chaam,Noord-Brabant,VBO,4.860526,51.507815
Valkenakker,17,,,4861AW,Chaam,Alphen-Chaam,Noord-Brabant,VBO,4.860542,51.507689
Valkenakker,19,,,4861AW,Chaam,Alphen-Chaam,Noord-Brabant,VBO,4.860499,51.507662
Valkenakker,21,,,4861AW,Chaam,Alphen-Chaam,Noord-Brabant,VBO,4.860356,51.507616
Valkenakker,23,,,4861AW,Chaam,Alphen-Chaam,Noord-Brabant,VBO,4.860284,51.507634
Valkenakker,25,,,4861AW,Chaam,Alphen-Chaam,Noord-Brabant,VBO,4.860153,51.507741
Valkenakker,27,,,4861AW,Chaam,Alphen-Chaam,Noord-Brabant,VBO,4.860037,51.507767
Valkenakker,29,,,4861AW,Chaam,Alphen-Chaam,Noord-Brabant,VBO,4.859878,51.507812
Valkenakker,31,,,4861AW,Chaam,Alphen-Chaam,Noord-Brabant,VBO,4.859791,51.507838
Valkenakker,33,,,4861AW,Chaam,Alphen-Chaam,Noord-Brabant,VBO,4.859604,51.507873
Valkenakker,35,,,4861AW,Chaam,Alphen-Chaam,Noord-Brabant,VBO,4.859517,51.507909
Valkenakker,37,,,4861AW,Chaam,Alphen-Chaam,Noord-Brabant,VBO,4.859387,51.507953
Valkenakker,39,,,4861AW,Chaam,Alphen-Chaam,Noord-Brabant,VBO,4.859286,51.507980
Valkenakker,41,,,4861AW,Chaam,Alphen-Chaam,Noord-Brabant,VBO,4.859112,51.508015
Valkenakker,43,,,4861AW,Chaam,Alphen-Chaam,Noord-Brabant,VBO,4.859011,51.508041
Valkenakker,45,,,4861AW,Chaam,Alphen-Chaam,Noord-Brabant,VBO,4.858795,51.508094
Valkenakker,47,,,4861AW,Chaam,Alphen-Chaam,Noord-Brabant,VBO,4.858708,51.508121
Valkenakker,49,,,4861AW,Chaam,Alphen-Chaam,Noord-Brabant,VBO,4.858520,51.508165
Valkenakker,51,,,4861AW,Chaam,Alphen-Chaam,Noord-Brabant,VBO,4.858433,51.508192
Valkenakker,53,,,4861AW,Chaam,Alphen-Chaam,Noord-Brabant,VBO,4.858260,51.508227
Valkenakker,55,,,4861AW,Chaam,Alphen-Chaam,Noord-Brabant,VBO,4.858159,51.508253
Valkenakker,2,,,4861AX,Chaam,Alphen-Chaam,Noord-Brabant,VBO,4.860736,51.508337
Valkenakker,4,,,4861AX,Chaam,Alphen-Chaam,Noord-Brabant,VBO,4.860622,51.508264
Valkenakker,6,,,4861AX,Chaam,Alphen-Chaam,Noord-Brabant,VBO,4.860377,51.508236
Valkenakker,8,,,4861AX,Chaam,Alphen-Chaam,Noord-Brabant,VBO,4.860479,51.508165
Valkenakker,10,,,4861AX,Chaam,Alphen-Chaam,Noord-Brabant,VBO,4.860193,51.507984
Valkenakker,12,,,4861AX,Chaam,Alphen-Chaam,Noord-Brabant,VBO,4.860092,51.508010
Valkenakker,14,,,4861AX,Chaam,Alphen-Chaam,Noord-Brabant,VBO,4.859919,51.508054
Valkenakker,16,,,4861AX,Chaam,Alphen-Chaam,Noord-Brabant,VBO,4.859832,51.508081
Valkenakker,18,,,4861AX,Chaam,Alphen-Chaam,Noord-Brabant,VBO,4.859673,51.508134
Valkenakker,20,,,4861AX,Chaam,Alphen-Chaam,Noord-Brabant,VBO,4.859586,51.508152
Valkenakker,22,,,4861AX,Chaam,Alphen-Chaam,Noord-Brabant,VBO,4.859413,51.508187
Valkenakker,24,,,4861AX,Chaam,Alphen-Chaam,Noord-Brabant,VBO,4.859312,51.508214
Valkenakker,26,,,4861AX,Chaam,Alphen-Chaam,Noord-Brabant,VBO,4.859138,51.508267
Valkenakker,28,,,4861AX,Chaam,Alphen-Chaam,Noord-Brabant,VBO,4.858878,51.508319
Valkenakker,30,,,4861AX,Chaam,Alphen-Chaam,Noord-Brabant,VBO,4.858676,51.508363
Geerakker,1,,,4861AZ,Chaam,Alphen-Chaam,Noord-Brabant,VBO,4.859215,51.509094
Geerakker,2,,,4861AZ,Chaam,Alphen-Chaam,Noord-Brabant,VBO,4.859498,51.509509
Geerakker,3,,,4861AZ,Chaam,Alphen-Chaam,Noord-Brabant,VBO,4.859242,51.509274
Geerakker,4,,,4861AZ,Chaam,Alphen-Chaam,Noord-Brabant,VBO,4.859239,51.509544
Geerakker,5,,,4861AZ,Chaam,Alphen-Chaam,Noord-Brabant,VBO,4.858924,51.509326
Geerakker,6,,,4861AZ,Chaam,Alphen-Chaam,Noord-Brabant,VBO,4.858863,51.509605
Geerakker,7,,,4861AZ,Chaam,Alphen-Chaam,Noord-Brabant,VBO,4.858823,51.509335
Geerakker,8,,,4861AZ,Chaam,Alphen-Chaam,Noord-Brabant,VBO,4.858561,51.509621
Geerakker,9,,,4861AZ,Chaam,Alphen-Chaam,Noord-Brabant,VBO,4.858636,51.509361
Geerakker,10,,,4861AZ,Chaam,Alphen-Chaam,Noord-Brabant,VBO,4.858186,51.509647
Geerakker,11,,,4861AZ,Chaam,Alphen-Chaam,Noord-Brabant,VBO,4.858535,51.509361
Geerakker,12,,,4861AZ,Chaam,Alphen-Chaam,Noord-Brabant,VBO,4.857927,51.509654
Geerakker,13,,,4861AZ,Chaam,Alphen-Chaam,Noord-Brabant,VBO,4.858348,51.509369
Geerakker,14,,,4861AZ,Chaam,Alphen-Chaam,Noord-Brabant,VBO,4.857595,51.509680
Geerakker,15,,,4861AZ,Chaam,Alphen-Chaam,Noord-Brabant,VBO,4.858247,51.509377
Geerakker,16,,,4861AZ,Chaam,Alphen-Chaam,Noord-Brabant,VBO,4.857220,51.509696
Geerakker,17,,,4861AZ,Chaam,Alphen-Chaam,Noord-Brabant,VBO,4.858059,51.509385
Geerakker,18,,,4861AZ,Chaam,Alphen-Chaam,Noord-Brabant,VBO,4.857193,51.509525
Geerakker,19,,,4861AZ,Chaam,Alphen-Chaam,Noord-Brabant,VBO,4.857958,51.509394
Geerakker,20,,,4861AZ,Chaam,Alphen-Chaam,Noord-Brabant,VBO,4.857066,51.509336
Geerakker,21,,,4861AZ,Chaam,Alphen-Chaam,Noord-Brabant,VBO,4.857569,51.509392
Geerakker,22,,,4861AZ,Chaam,Alphen-Chaam,Noord-Brabant,VBO,4.856967,51.509183
Geerakker,23,,,4861AZ,Chaam,Alphen-Chaam,Noord-Brabant,VBO,4.857527,51.509320
Geerakker,24,,,4861AZ,Chaam,Alphen-Chaam,Noord-Brabant,VBO,4.856925,51.509057
Geerakker,25,,,4861AZ,Chaam,Alphen-Chaam,Noord-Brabant,VBO,4.857456,51.509239
Geerakker,26,,,4861AZ,Chaam,Alphen-Chaam,Noord-Brabant,VBO,4.856897,51.509012
Geerakker,27,,,4861AZ,Chaam,Alphen-Chaam,Noord-Brabant,VBO,4.857413,51.509185
Geerakker,28,,,4861AZ,Chaam,Alphen-Chaam,Noord-Brabant,VBO,4.856798,51.508858
Geerakker,29,,,4861AZ,Chaam,Alphen-Chaam,Noord-Brabant,VBO,4.857357,51.509086
Geerakker,31,,,4861AZ,Chaam,Alphen-Chaam,Noord-Brabant,VBO,4.857314,51.509031
Wolfsdonk,1,,,4861BA,Chaam,Alphen-Chaam,Noord-Brabant,VBO,4.863543,51.507253
Wolfsdonk,3,,,4861BA,Chaam,Alphen-Chaam,Noord-Brabant,VBO,4.863775,51.507146
Wolfsdonk,5,,,4861BA,Chaam,Alphen-Chaam,Noord-Brabant,VBO,4.863950,51.506958
Wolfsdonk,7,,,4861BA,Chaam,Alphen-Chaam,Noord-Brabant,VBO,4.864181,51.506887
Wolfsdonk,9,,,4861BA,Chaam,Alphen-Chaam,Noord-Brabant,VBO,4.864313,51.506699
Wolfsdonk,11,,,4861BA,Chaam,Alphen-Chaam,Noord-Brabant,VBO,4.864544,51.506655
Wolfsdonk,13,,,4861BA,Chaam,Alphen-Chaam,Noord-Brabant,VBO,4.864690,51.506476
Wolfsdonk,15,,,4861BA,Chaam,Alphen-Chaam,Noord-Brabant,VBO,4.864936,51.506387
Wolfsdonk,17,,,4861BA,Chaam,Alphen-Chaam,Noord-Brabant,VBO,4.865082,51.506244
Wolfsdonk,19,,,4861BA,Chaam,Alphen-Chaam,Noord-Brabant,VBO,4.865342,51.506155
Wolfsdonk,21,,,4861BA,Chaam,Alphen-Chaam,Noord-Brabant,VBO,4.865559,51.506039
Wolfsdonk,23,,,4861BA,Chaam,Alphen-Chaam,Noord-Brabant,VBO,4.865819,51.505987
Wolfsdonk,25,,,4861BA,Chaam,Alphen-Chaam,Noord-Brabant,VBO,4.865994,51.505853
Wolfsdonk,27,,,4861BA,Chaam,Alphen-Chaam,Noord-Brabant,VBO,4.866297,51.505773
Wolfsdonk,29,,,4861BA,Chaam,Alphen-Chaam,Noord-Brabant,VBO,4.866471,51.505648
Wolfsdonk,31,,,4861BA,Chaam,Alphen-Chaam,Noord-Brabant,VBO,4.866731,51.505568
Wolfsdonk,33,,,4861BA,Chaam,Alphen-Chaam,Noord-Brabant,VBO,4.867425,51.505356
Wolfsdonk,35,,,4861BA,Chaam,Alphen-Chaam,Noord-Brabant,VBO,4.867758,51.505258
Wolfsdonk,37,,,4861BA,Chaam,Alphen-Chaam,Noord-Brabant,VBO,4.868119,51.505116
Wolfsdonk,39,,,4861BA,Chaam,Alphen-Chaam,Noord-Brabant,VBO,4.868380,51.504964
Wolfsdonk,41,,,4861BA,Chaam,Alphen-Chaam,Noord-Brabant,VBO,4.868685,51.504813
Wolfsdonk,43,,,4861BA,Chaam,Alphen-Chaam,Noord-Brabant,VBO,4.869003,51.504652
Wolfsdonk,45,,,4861BA,Chaam,Alphen-Chaam,Noord-Brabant,VBO,4.869351,51.504465
Wolfsdonk,47,,,4861BA,Chaam,Alphen-Chaam,Noord-Brabant,VBO,4.869568,51.504349
Wolfsdonk,2,,,4861BB,Chaam,Alphen-Chaam,Noord-Brabant,VBO,4.863229,51.507027
Wolfsdonk,4,,,4861BB,Chaam,Alphen-Chaam,Noord-Brabant,VBO,4.863461,51.506884
Wolfsdonk,6,,,4861BB,Chaam,Alphen-Chaam,Noord-Brabant,VBO,4.863840,51.506481
Wolfsdonk,8,,,4861BB,Chaam,Alphen-Chaam,Noord-Brabant,VBO,4.865157,51.505930
Wolfsdonk,10,,,4861BB,Chaam,Alphen-Chaam,Noord-Brabant,VBO,4.865230,51.505894
Wolfsdonk,12,,,4861BB,Chaam,Alphen-Chaam,Noord-Brabant,VBO,4.865360,51.505805
Wolfsdonk,14,,,4861BB,Chaam,Alphen-Chaam,Noord-Brabant,VBO,4.865447,51.505769
Wolfsdonk,16,,,4861BB,Chaam,Alphen-Chaam,Noord-Brabant,VBO,4.865621,51.505725
Wolfsdonk,18,,,4861BB,Chaam,Alphen-Chaam,Noord-Brabant,VBO,4.865693,51.505689
Wolfsdonk,20,,,4861BB,Chaam,Alphen-Chaam,Noord-Brabant,VBO,4.865809,51.505609
Wolfsdonk,22,,,4861BB,Chaam,Alphen-Chaam,Noord-Brabant,VBO,4.865896,51.505573
Wolfsdonk,24,,,4861BB,Chaam,Alphen-Chaam,Noord-Brabant,VBO,4.866055,51.505538
Wolfsdonk,26,,,4861BB,Chaam,Alphen-Chaam,Noord-Brabant,VBO,4.866142,51.505503
Wolfsdonk,28,,,4861BB,Chaam,Alphen-Chaam,Noord-Brabant,VBO,4.866315,51.505431
Wolfsdonk,30,,,4861BB,Chaam,Alphen-Chaam,Noord-Brabant,VBO,4.866402,51.505396
Wolfsdonk,32,,,4861BB,Chaam,Alphen-Chaam,Noord-Brabant,VBO,4.866561,51.505334
Wolfsdonk,34,,,4861BB,Chaam,Alphen-Chaam,Noord-Brabant,VBO,4.866648,51.505307
Wolfsdonk,36,,,4861BB,Chaam,Alphen-Chaam,Noord-Brabant,VBO,4.866793,51.505245
Wolfsdonk,38,,,4861BC,Chaam,Alphen-Chaam,Noord-Brabant,VBO,4.867212,51.505112
Wolfsdonk,40,,,4861BC,Chaam,Alphen-Chaam,Noord-Brabant,VBO,4.867313,51.505085
Wolfsdonk,42,,,4861BC,Chaam,Alphen-Chaam,Noord-Brabant,VBO,4.867487,51.505032
Wolfsdonk,44,,,4861BC,Chaam,Alphen-Chaam,Noord-Brabant,VBO,4.867573,51.505006
Wolfsdonk,46,,,4861BC,Chaam,Alphen-Chaam,Noord-Brabant,VBO,4.867761,51.504953
Wolfsdonk,48,,,4861BC,Chaam,Alphen-Chaam,Noord-Brabant,VBO,4.867848,51.504926
Wolfsdonk,50,,,4861BC,Chaam,Alphen-Chaam,Noord-Brabant,VBO,4.868036,51.504819
Wolfsdonk,52,,,4861BC,Chaam,Alphen-Chaam,Noord-Brabant,VBO,4.868109,51.504792
Wolfsdonk,54,,,4861BC,Chaam,Alphen-Chaam,Noord-Brabant,VBO,4.868239,51.504721
Wolfsdonk,56,,,4861BC,Chaam,Alphen-Chaam,Noord-Brabant,VBO,4.868326,51.504676
Wolfsdonk,58,,,4861BC,Chaam,Alphen-Chaam,Noord-Brabant,VBO,4.868457,51.504605
Wolfsdonk,60,,,4861BC,Chaam,Alphen-Chaam,Noord-Brabant,VBO,4.868529,51.504569
Wolfsdonk,62,,,4861BC,Chaam,Alphen-Chaam,Noord-Brabant,VBO,4.868659,51.504498
Wolfsdonk,64,,,4861BC,Chaam,Alphen-Chaam,Noord-Brabant,VBO,4.868732,51.504462
Wolfsdonk,66,,,4861BC,Chaam,Alphen-Chaam,Noord-Brabant,VBO,4.868906,51.504382
Wolfsdonk,68,,,4861BC,Chaam,Alphen-Chaam,Noord-Brabant,VBO,4.868978,51.504338
Wolfsdonk,70,,,4861BC,Chaam,Alphen-Chaam,Noord-Brabant,VBO,4.869108,51.504275
Wolfsdonk,72,,,4861BC,Chaam,Alphen-Chaam,Noord-Brabant,VBO,4.869181,51.504231
Wolfsdonk,74,,,4861BC,Chaam,Alphen-Chaam,Noord-Brabant,VBO,4.869326,51.504159
Wolfsdonk,76,,,4861BC,Chaam,Alphen-Chaam,Noord-Brabant,VBO,4.869398,51.504124
Antoniushof,1,,,4861BD,Chaam,Alphen-Chaam,Noord-Brabant,VBO,4.864812,51.504634
Antoniushof,2,,,4861BD,Chaam,Alphen-Chaam,Noord-Brabant,VBO,4.865274,51.504564
Antoniushof,3,,,4861BD,Chaam,Alphen-Chaam,Noord-Brabant,VBO,4.864897,51.504742
Antoniushof,4,,,4861BD,Chaam,Alphen-Chaam,Noord-Brabant,VBO,4.865287,51.504672
Antoniushof,5,,,4861BD,Chaam,Alphen-Chaam,Noord-Brabant,VBO,4.864968,51.504832
Kinderbeemd,1,,,4861BE,Chaam,Alphen-Chaam,Noord-Brabant,VBO,4.864810,51.506081
Kinderbeemd,2,,,4861BE,Chaam,Alphen-Chaam,Noord-Brabant,VBO,4.864263,51.506016
Kinderbeemd,3,,,4861BE,Chaam,Alphen-Chaam,Noord-Brabant,VBO,4.864710,51.505982
Kinderbeemd,4,a,,4861BE,Chaam,Alphen-Chaam,Noord-Brabant,VBO,4.863791,51.505807
Kinderbeemd,4,,,4861BE,Chaam,Alphen-Chaam,Noord-Brabant,VBO,4.863949,51.505816
Kinderbeemd,5,,,4861BE,Chaam,Alphen-Chaam,Noord-Brabant,VBO,4.864610,51.505891
Kinderbeemd,6,,,4861BE,Chaam,Alphen-Chaam,Noord-Brabant,VBO,4.863763,51.505663
Kinderbeemd,7,,,4861BE,Chaam,Alphen-Chaam,Noord-Brabant,VBO,4.864496,51.505792
Kinderbeemd,8,,,4861BE,Chaam,Alphen-Chaam,Noord-Brabant,VBO,4.863706,51.505600
Kinderbeemd,9,,,4861BE,Chaam,Alphen-Chaam,Noord-Brabant,VBO,4.864439,51.505747
Kinderbeemd,10,,,4861BE,Chaam,Alphen-Chaam,Noord-Brabant,VBO,4.863621,51.505491
Kinderbeemd,11,,,4861BE,Chaam,Alphen-Chaam,Noord-Brabant,VBO,4.864054,51.505403
Kinderbeemd,12,,,4861BE,Chaam,Alphen-Chaam,Noord-Brabant,VBO,4.863564,51.505419
Kinderbeemd,13,,,4861BE,Chaam,Alphen-Chaam,Noord-Brabant,VBO,4.863997,51.505358
Kinderbeemd,14,,,4861BE,Chaam,Alphen-Chaam,Noord-Brabant,VBO,4.863666,51.505312
Kinderbeemd,16,,,4861BE,Chaam,Alphen-Chaam,Noord-Brabant,VBO,4.863753,51.505267
Hoefakker,1,,,4861BH,Chaam,Alphen-Chaam,Noord-Brabant,VBO,4.864715,51.505559
Hoefakker,3,,,4861BH,Chaam,Alphen-Chaam,Noord-Brabant,VBO,4.864788,51.505524
Hoefakker,5,,,4861BH,Chaam,Alphen-Chaam,Noord-Brabant,VBO,4.864961,51.505479
Hoefakker,7,,,4861BH,Chaam,Alphen-Chaam,Noord-Brabant,VBO,4.865033,51.505444
Hoefakker,9,,,4861BH,Chaam,Alphen-Chaam,Noord-Brabant,VBO,4.865135,51.505354
Hoefakker,11,,,4861BH,Chaam,Alphen-Chaam,Noord-Brabant,VBO,4.865208,51.505319
Hoefakker,13,,,4861BH,Chaam,Alphen-Chaam,Noord-Brabant,VBO,4.865381,51.505266
Hoefakker,15,,,4861BH,Chaam,Alphen-Chaam,Noord-Brabant,VBO,4.865453,51.505230
Hoefakker,17,,,4861BH,Chaam,Alphen-Chaam,Noord-Brabant,VBO,4.865570,51.505141
Hoefakker,19,,,4861BH,Chaam,Alphen-Chaam,Noord-Brabant,VBO,4.865657,51.505105
Hoefakker,21,,,4861BH,Chaam,Alphen-Chaam,Noord-Brabant,VBO,4.865830,51.505025
Hoefakker,23,,,4861BH,Chaam,Alphen-Chaam,Noord-Brabant,VBO,4.865903,51.504989
Hoefakker,25,,,4861BH,Chaam,Alphen-Chaam,Noord-Brabant,VBO,4.866062,51.504927
Hoefakker,27,,,4861BH,Chaam,Alphen-Chaam,Noord-Brabant,VBO,4.866337,51.504820
Hoefakker,2,,,4861BJ,Chaam,Alphen-Chaam,Noord-Brabant,VBO,4.864298,51.505521
Hoefakker,4,,,4861BJ,Chaam,Alphen-Chaam,Noord-Brabant,VBO,4.864385,51.505477
Hoefakker,6,,,4861BJ,Chaam,Alphen-Chaam,Noord-Brabant,VBO,4.864530,51.505406
Hoefakker,8,,,4861BJ,Chaam,Alphen-Chaam,Noord-Brabant,VBO,4.864602,51.505370
Hoefakker,10,,,4861BJ,Chaam,Alphen-Chaam,Noord-Brabant,VBO,4.864863,51.505245
Hoefakker,12,,,4861BJ,Chaam,Alphen-Chaam,Noord-Brabant,VBO,4.864964,51.505192
Hoefakker,14,,,4861BJ,Chaam,Alphen-Chaam,Noord-Brabant,VBO,4.865065,51.505147
Hoefakker,16,,,4861BJ,Chaam,Alphen-Chaam,Noord-Brabant,VBO,4.865167,51.505076
Hoefakker,18,,,4861BJ,Chaam,Alphen-Chaam,Noord-Brabant,VBO,4.865268,51.505040
Hoefakker,20,,,4861BJ,Chaam,Alphen-Chaam,Noord-Brabant,VBO,4.865457,51.504933
Hoefakker,22,,,4861BJ,Chaam,Alphen-Chaam,Noord-Brabant,VBO,4.865558,51.504889
Hoefakker,24,,,4861BJ,Chaam,Alphen-Chaam,Noord-Brabant,VBO,4.865717,51.504827
Hoefakker,26,,,4861BJ,Chaam,Alphen-Chaam,Noord-Brabant,VBO,4.865804,51.504791
Hoefakker,28,,,4861BJ,Chaam,Alphen-Chaam,Noord-Brabant,VBO,4.866252,51.504640
Wouwerdries,2,,,4861BK,Chaam,Alphen-Chaam,Noord-Brabant,VBO,4.865874,51.503704
Wouwerdries,5,,,4861BK,Chaam,Alphen-Chaam,Noord-Brabant,VBO,4.865539,51.504035
Wouwerdries,7,,,4861BK,Chaam,Alphen-Chaam,Noord-Brabant,VBO,4.865696,51.504170
Wouwerdries,8,,,4861BK,Chaam,Alphen-Chaam,Noord-Brabant,VBO,4.866332,51.504002
Wouwerdries,9,,,4861BK,Chaam,Alphen-Chaam,Noord-Brabant,VBO,4.865868,51.504288
Wouwerdries,10,,,4861BK,Chaam,Alphen-Chaam,Noord-Brabant,VBO,4.866403,51.504084
Wouwerdries,11,,,4861BK,Chaam,Alphen-Chaam,Noord-Brabant,VBO,4.865910,51.504333
Wouwerdries,12,,,4861BK,Chaam,Alphen-Chaam,Noord-Brabant,VBO,4.866659,51.504390
Wouwerdries,13,,,4861BK,Chaam,Alphen-Chaam,Noord-Brabant,VBO,4.866010,51.504423
Wouwerdries,14,,,4861BK,Chaam,Alphen-Chaam,Noord-Brabant,VBO,4.866701,51.504444
Wouwerdries,15,,,4861BK,Chaam,Alphen-Chaam,Noord-Brabant,VBO,4.866067,51.504478
Wouwerdries,16,,,4861BK,Chaam,Alphen-Chaam,Noord-Brabant,VBO,4.866772,51.504544
Wouwerdries,17,,,4861BK,Chaam,Alphen-Chaam,Noord-Brabant,VBO,4.866167,51.504568
Wouwerdries,18,,,4861BK,Chaam,Alphen-Chaam,Noord-Brabant,VBO,4.866815,51.504598
Wouwerdries,19,,,4861BK,Chaam,Alphen-Chaam,Noord-Brabant,VBO,4.866423,51.504848
Wouwerdries,20,,,4861BK,Chaam,Alphen-Chaam,Noord-Brabant,VBO,4.866885,51.504706
Wouwerdries,21,,,4861BK,Chaam,Alphen-Chaam,Noord-Brabant,VBO,4.866494,51.504947
Wouwerdries,22,,,4861BK,Chaam,Alphen-Chaam,Noord-Brabant,VBO,4.866928,51.504751
Wouwerdries,23,,,4861BK,Chaam,Alphen-Chaam,Noord-Brabant,VBO,4.866551,51.505001
Wouwerdries,24,,,4861BK,Chaam,Alphen-Chaam,Noord-Brabant,VBO,4.866999,51.504859
Wouwerdries,26,,,4861BK,Chaam,Alphen-Chaam,Noord-Brabant,VBO,4.867041,51.504913
Blokkenweide,1,,,4861BM,Chaam,Alphen-Chaam,Noord-Brabant,VBO,4.867150,51.504222
Blokkenweide,3,,,4861BM,Chaam,Alphen-Chaam,Noord-Brabant,VBO,4.867193,51.504276
Blokkenweide,5,,,4861BM,Chaam,Alphen-Chaam,Noord-Brabant,VBO,4.867307,51.504366
Blokkenweide,7,,,4861BM,Chaam,Alphen-Chaam,Noord-Brabant,VBO,4.867350,51.504411
Blokkenweide,9,,,4861BM,Chaam,Alphen-Chaam,Noord-Brabant,VBO,4.867450,51.504493
Blokkenweide,11,,,4861BM,Chaam,Alphen-Chaam,Noord-Brabant,VBO,4.867492,51.504547
Blokkenweide,13,,,4861BM,Chaam,Alphen-Chaam,Noord-Brabant,VBO,4.867592,51.504628
Blokkenweide,15,,,4861BM,Chaam,Alphen-Chaam,Noord-Brabant,VBO,4.867635,51.504682
Blokkenweide,17,,,4861BM,Chaam,Alphen-Chaam,Noord-Brabant,VBO,4.867738,51.504485
Blokkenweide,19,,,4861BM,Chaam,Alphen-Chaam,Noord-Brabant,VBO,4.867810,51.504449
Blokkenweide,21,,,4861BM,Chaam,Alphen-Chaam,Noord-Brabant,VBO,4.867955,51.504378
Blokkenweide,23,,,4861BM,Chaam,Alphen-Chaam,Noord-Brabant,VBO,4.868042,51.504325
Blokkenweide,25,,,4861BM,Chaam,Alphen-Chaam,Noord-Brabant,VBO,4.868158,51.504271
Blokkenweide,27,,,4861BM,Chaam,Alphen-Chaam,Noord-Brabant,VBO,4.868245,51.504236
Blokkenweide,29,,,4861BM,Chaam,Alphen-Chaam,Noord-Brabant,VBO,4.868375,51.504164
Blokkenweide,31,,,4861BM,Chaam,Alphen-Chaam,Noord-Brabant,VBO,4.868448,51.504120
Blokkenweide,33,,,4861BM,Chaam,Alphen-Chaam,Noord-Brabant,VBO,4.868779,51.504148
Blokkenweide,35,,,4861BM,Chaam,Alphen-Chaam,Noord-Brabant,VBO,4.868722,51.504094
Blokkenweide,37,,,4861BM,Chaam,Alphen-Chaam,Noord-Brabant,VBO,4.868622,51.503995
Blokkenweide,39,,,4861BM,Chaam,Alphen-Chaam,Noord-Brabant,VBO,4.868536,51.503913
Blokkenweide,41,,,4861BM,Chaam,Alphen-Chaam,Noord-Brabant,VBO,4.868465,51.503841
Blokkenweide,43,,,4861BM,Chaam,Alphen-Chaam,Noord-Brabant,VBO,4.868408,51.503787
Blokkenweide,2,,,4861BN,Chaam,Alphen-Chaam,Noord-Brabant,VBO,4.866546,51.504183
Blokkenweide,4,,,4861BN,Chaam,Alphen-Chaam,Noord-Brabant,VBO,4.866878,51.504059
Blokkenweide,6,,,4861BN,Chaam,Alphen-Chaam,Noord-Brabant,VBO,4.866965,51.504032
Blokkenweide,8,,,4861BN,Chaam,Alphen-Chaam,Noord-Brabant,VBO,4.867124,51.503997
Blokkenweide,10,,,4861BN,Chaam,Alphen-Chaam,Noord-Brabant,VBO,4.867211,51.503952
Blokkenweide,12,,,4861BN,Chaam,Alphen-Chaam,Noord-Brabant,VBO,4.867384,51.503917
Blokkenweide,14,,,4861BN,Chaam,Alphen-Chaam,Noord-Brabant,VBO,4.867471,51.503882
Blokkenweide,16,,,4861BN,Chaam,Alphen-Chaam,Noord-Brabant,VBO,4.867616,51.503828
Blokkenweide,18,,,4861BN,Chaam,Alphen-Chaam,Noord-Brabant,VBO,4.867702,51.503793
Blokkenweide,20,,,4861BN,Chaam,Alphen-Chaam,Noord-Brabant,VBO,4.867833,51.503730
Blokkenweide,22,,,4861BN,Chaam,Alphen-Chaam,Noord-Brabant,VBO,4.867920,51.503695
Blokkenweide,24,,,4861BN,Chaam,Alphen-Chaam,Noord-Brabant,VBO,4.868093,51.503642
Blokkenweide,26,,,4861BN,Chaam,Alphen-Chaam,Noord-Brabant,VBO,4.868252,51.503579
Blokkenweide,28,,,4861BN,Chaam,Alphen-Chaam,Noord-Brabant,VBO,4.868397,51.503517
Blokkenweide,30,,,4861BN,Chaam,Alphen-Chaam,Noord-Brabant,VBO,4.868470,51.503446
Blokkenweide,32,,,4861BN,Chaam,Alphen-Chaam,Noord-Brabant,VBO,4.868571,51.503446
Meijsberg,2,a,,4861BP,Chaam,Alphen-Chaam,Noord-Brabant,VBO,4.868662,51.503006
Meijsberg,2,,,4861BP,Chaam,Alphen-Chaam,Noord-Brabant,VBO,4.868434,51.502825
Meijsberg,3,a,,4861BP,Chaam,Alphen-Chaam,Noord-Brabant,VBO,4.867920,51.503238
Meijsberg,3,,,4861BP,Chaam,Alphen-Chaam,Noord-Brabant,VBO,4.868330,51.503103
Meijsberg,4,,,4861BP,Chaam,Alphen-Chaam,Noord-Brabant,VBO,4.868833,51.503160
Meijsberg,5,,,4861BP,Chaam,Alphen-Chaam,Noord-Brabant,VBO,4.868529,51.503275
Meijsberg,6,,,4861BP,Chaam,Alphen-Chaam,Noord-Brabant,VBO,4.868961,51.503304
Meijsberg,7,,,4861BP,Chaam,Alphen-Chaam,Noord-Brabant,VBO,4.868828,51.503582
Meijsberg,8,,,4861BP,Chaam,Alphen-Chaam,Noord-Brabant,VBO,4.869233,51.503494
Meijsberg,9,,,4861BP,Chaam,Alphen-Chaam,Noord-Brabant,VBO,4.868885,51.503645
Meijsberg,10,,,4861BP,Chaam,Alphen-Chaam,Noord-Brabant,VBO,4.869447,51.503657
Meijsberg,11,,,4861BP,Chaam,Alphen-Chaam,Noord-Brabant,VBO,4.868985,51.503726
Meijsberg,12,,,4861BP,Chaam,Alphen-Chaam,Noord-Brabant,VBO,4.869618,51.503828
Meijsberg,13,,,4861BP,Chaam,Alphen-Chaam,Noord-Brabant,VBO,4.869042,51.503790
Meijsberg,14,,,4861BP,Chaam,Alphen-Chaam,Noord-Brabant,VBO,4.869875,51.504009
Meijsberg,15,,,4861BP,Chaam,Alphen-Chaam,Noord-Brabant,VBO,4.869142,51.503880
Meijsberg,16,,,4861BP,Chaam,Alphen-Chaam,Noord-Brabant,VBO,4.870031,51.504172
Meijsberg,17,,,4861BP,Chaam,Alphen-Chaam,Noord-Brabant,VBO,4.869199,51.503943
Baarleseweg,3,,,4861BR,Chaam,Alphen-Chaam,Noord-Brabant,VBO,4.866092,51.503588
Baarleseweg,5,a,,4861BR,Chaam,Alphen-Chaam,Noord-Brabant,VBO,4.866395,51.503508
Baarleseweg,5,,,4861BR,Chaam,Alphen-Chaam,Noord-Brabant,VBO,4.866308,51.503544
Baarleseweg,7,,,4861BR,Chaam,Alphen-Chaam,Noord-Brabant,VBO,4.866569,51.503437
Baarleseweg,9,,,4861BR,Chaam,Alphen-Chaam,Noord-Brabant,VBO,4.866829,51.503330
Baarleseweg,11,,,4861BR,Chaam,Alphen-Chaam,Noord-Brabant,VBO,4.866871,51.503402
Baarleseweg,13,a,,4861BR,Chaam,Alphen-Chaam,Noord-Brabant,VBO,4.866971,51.503511
Baarleseweg,13,,,4861BR,Chaam,Alphen-Chaam,Noord-Brabant,VBO,4.866943,51.503439
Baarleseweg,15,,,4861BR,Chaam,Alphen-Chaam,Noord-Brabant,VBO,4.867060,51.503251
Baarleseweg,17,,,4861BR,Chaam,Alphen-Chaam,Noord-Brabant,VBO,4.867220,51.503188
Baarleseweg,21,,,4861BR,Chaam,Alphen-Chaam,Noord-Brabant,VBO,4.867350,51.503081
Baarleseweg,23,a,,4861BR,Chaam,Alphen-Chaam,Noord-Brabant,VBO,4.867550,51.503069
Baarleseweg,23,,,4861BR,Chaam,Alphen-Chaam,Noord-Brabant,VBO,4.867509,51.503043
Baarleseweg,25,a,,4861BR,Chaam,Alphen-Chaam,Noord-Brabant,VBO,4.867611,51.502938
Baarleseweg,25,,,4861BR,Chaam,Alphen-Chaam,Noord-Brabant,VBO,4.867524,51.502992
Baarleseweg,27,,,4861BR,Chaam,Alphen-Chaam,Noord-Brabant,VBO,4.867713,51.502885
Baarleseweg,29,a,,4861BR,Chaam,Alphen-Chaam,Noord-Brabant,VBO,4.868073,51.502860
Baarleseweg,29,,,4861BR,Chaam,Alphen-Chaam,Noord-Brabant,VBO,4.867843,51.502841
Baarleseweg,31,,,4861BR,Chaam,Alphen-Chaam,Noord-Brabant,VBO,4.868320,51.502645
Baarleseweg,33,,,4861BR,Chaam,Alphen-Chaam,Noord-Brabant,VBO,4.868466,51.502547
Baarleseweg,35,,,4861BR,Chaam,Alphen-Chaam,Noord-Brabant,VBO,4.868611,51.502503
Baarleseweg,37,a,bij,4861BR,Chaam,Alphen-Chaam,Noord-Brabant,VBO,4.869943,51.501834
Baarleseweg,37,a,,4861BR,Chaam,Alphen-Chaam,Noord-Brabant,VBO,4.869673,51.502759
Baarleseweg,37,,,4861BR,Chaam,Alphen-Chaam,Noord-Brabant,VBO,4.868947,51.502437
Baarleseweg,39,,,4861BR,Chaam,Alphen-Chaam,Noord-Brabant,VBO,4.870233,51.501602
Baarleseweg,41,,,4861BR,Chaam,Alphen-Chaam,Noord-Brabant,VBO,4.871376,51.501184
Baarleseweg,43,,,4861BR,Chaam,Alphen-Chaam,Noord-Brabant,VBO,4.871341,51.500456
Baarleseweg,45,a,,4861BR,Chaam,Alphen-Chaam,Noord-Brabant,VBO,4.871820,51.498831
Baarleseweg,45,,by,4861BR,Chaam,Alphen-Chaam,Noord-Brabant,VBO,4.871426,51.499279
Baarleseweg,45,,,4861BR,Chaam,Alphen-Chaam,Noord-Brabant,VBO,4.871426,51.499333
Baarleseweg,2,,,4861BS,Chaam,Alphen-Chaam,Noord-Brabant,VBO,4.865690,51.503460
Baarleseweg,4,,,4861BS,Chaam,Alphen-Chaam,Noord-Brabant,VBO,4.865921,51.503407
Baarleseweg,6,,,4861BS,Chaam,Alphen-Chaam,Noord-Brabant,VBO,4.865993,51.503381
Baarleseweg,8,,,4861BS,Chaam,Alphen-Chaam,Noord-Brabant,VBO,4.866109,51.503336
Baarleseweg,10,,,4861BS,Chaam,Alphen-Chaam,Noord-Brabant,VBO,4.866196,51.503301
Baarleseweg,12,,,4861BS,Chaam,Alphen-Chaam,Noord-Brabant,VBO,4.866370,51.503131
Baarleseweg,14,,,4861BS,Chaam,Alphen-Chaam,Noord-Brabant,VBO,4.866803,51.503097
Baarleseweg,16,,,4861BS,Chaam,Alphen-Chaam,Noord-Brabant,VBO,4.866962,51.503016
Baarleseweg,18,a,,4861BS,Chaam,Alphen-Chaam,Noord-Brabant,VBO,4.867397,51.502812
Baarleseweg,18,b,,4861BS,Chaam,Alphen-Chaam,Noord-Brabant,VBO,4.867513,51.502758
Baarleseweg,18,,,4861BS,Chaam,Alphen-Chaam,Noord-Brabant,VBO,4.867194,51.502865
Baarleseweg,20,,,4861BS,Chaam,Alphen-Chaam,Noord-Brabant,VBO,4.867586,51.502660
Baarleseweg,22,,,4861BS,Chaam,Alphen-Chaam,Noord-Brabant,VBO,4.867759,51.502588
Baarleseweg,24,,,4861BS,Chaam,Alphen-Chaam,Noord-Brabant,VBO,4.867947,51.502544
Baarleseweg,26,,,4861BS,Chaam,Alphen-Chaam,Noord-Brabant,VBO,4.868135,51.502464
Baarleseweg,28,a,,4861BS,Chaam,Alphen-Chaam,Noord-Brabant,VBO,4.868275,51.502293
Baarleseweg,28,,,4861BS,Chaam,Alphen-Chaam,Noord-Brabant,VBO,4.868193,51.502429
Baarleseweg,30,,,4861BT,Chaam,Alphen-Chaam,Noord-Brabant,VBO,4.868483,51.502295
Baarleseweg,32,,,4861BT,Chaam,Alphen-Chaam,Noord-Brabant,VBO,4.868686,51.502152
Baarleseweg,34,a,,4861BT,Chaam,Alphen-Chaam,Noord-Brabant,VBO,4.868834,51.501856
Baarleseweg,34,B,,4861BT,Chaam,Alphen-Chaam,Noord-Brabant,VBO,4.869079,51.501773
Baarleseweg,34,c,,4861BT,Chaam,Alphen-Chaam,Noord-Brabant,VBO,4.869355,51.501607
Baarleseweg,34,d,,4861BT,Chaam,Alphen-Chaam,Noord-Brabant,VBO,4.869500,51.501500
Baarleseweg,34,,,4861BT,Chaam,Alphen-Chaam,Noord-Brabant,VBO,4.868773,51.502099
Baarleseweg,36,,,4861BT,Chaam,Alphen-Chaam,Noord-Brabant,VBO,4.869819,51.501357
Baarleseweg,38,,,4861BT,Chaam,Alphen-Chaam,Noord-Brabant,VBO,4.869964,51.501259
Baarleseweg,40,a,,4861BT,Chaam,Alphen-Chaam,Noord-Brabant,VBO,4.870066,51.501169
Baarleseweg,40,,,4861BT,Chaam,Alphen-Chaam,Noord-Brabant,VBO,4.869922,51.501169
Baarleseweg,42,a,,4861BT,Chaam,Alphen-Chaam,Noord-Brabant,VBO,4.870284,51.500991
Baarleseweg,42,b,,4861BT,Chaam,Alphen-Chaam,Noord-Brabant,VBO,4.870344,51.500775
Baarleseweg,42,,,4861BT,Chaam,Alphen-Chaam,Noord-Brabant,VBO,4.870225,51.501044
Baarleseweg,44,,,4861BT,Chaam,Alphen-Chaam,Noord-Brabant,VBO,4.870534,51.500524
Baarleseweg,46,a,,4861BT,Chaam,Alphen-Chaam,Noord-Brabant,VBO,4.870020,51.500082
Baarleseweg,48,,,4861BT,Chaam,Alphen-Chaam,Noord-Brabant,VBO,4.870944,51.499933
Dukaatstraat,2,,,4861BV,Chaam,Alphen-Chaam,Noord-Brabant,VBO,4.870298,51.502285
Florijnstraat,1,,,4861BW,Chaam,Alphen-Chaam,Noord-Brabant,VBO,4.870817,51.503492
Florijnstraat,2,,,4861BW,Chaam,Alphen-Chaam,Noord-Brabant,VBO,4.869894,51.502310
Florijnstraat,3,,,4861BW,Chaam,Alphen-Chaam,Noord-Brabant,VBO,4.871525,51.503270
Florijnstraat,4,,,4861BW,Chaam,Alphen-Chaam,Noord-Brabant,VBO,4.870164,51.502653
Florijnstraat,5,,,4861BW,Chaam,Alphen-Chaam,Noord-Brabant,VBO,4.871901,51.503128
Florijnstraat,6,,,4861BW,Chaam,Alphen-Chaam,Noord-Brabant,VBO,4.870650,51.502988
Florijnstraat,7,a,,4861BW,Chaam,Alphen-Chaam,Noord-Brabant,VBO,4.872008,51.502619
Florijnstraat,7,,,4861BW,Chaam,Alphen-Chaam,Noord-Brabant,VBO,4.872293,51.502795
Florijnstraat,8,,,4861BW,Chaam,Alphen-Chaam,Noord-Brabant,VBO,4.871256,51.502856
Florijnstraat,9,,,4861BW,Chaam,Alphen-Chaam,Noord-Brabant,VBO,4.871366,51.502092
Florijnstraat,10,,,4861BW,Chaam,Alphen-Chaam,Noord-Brabant,VBO,4.871227,51.502598
Florijnstraat,11,,,4861BW,Chaam,Alphen-Chaam,Noord-Brabant,VBO,4.871147,51.501878
Florijnstraat,12,a,,4861BW,Chaam,Alphen-Chaam,Noord-Brabant,VBO,4.871118,51.502370
Florijnstraat,12,,,4861BW,Chaam,Alphen-Chaam,Noord-Brabant,VBO,4.871118,51.502370
Florijnstraat,13,,,4861BW,Chaam,Alphen-Chaam,Noord-Brabant,VBO,4.870629,51.501453
Kleistraat,1,,,4861CA,Chaam,Alphen-Chaam,Noord-Brabant,VBO,4.859367,51.498515
Kleistraat,2,a,,4861CA,Chaam,Alphen-Chaam,Noord-Brabant,VBO,4.857904,51.499200
Kleistraat,2,b,,4861CA,Chaam,Alphen-Chaam,Noord-Brabant,VBO,4.848766,51.501082
Kleistraat,2,,,4861CA,Chaam,Alphen-Chaam,Noord-Brabant,VBO,4.858625,51.499105
Kleistraat,3,,,4861CA,Chaam,Alphen-Chaam,Noord-Brabant,VBO,4.857418,51.498920
Kleistraat,4,,,4861CA,Chaam,Alphen-Chaam,Noord-Brabant,VBO,4.845507,51.501214
Kleistraat,5,,,4861CA,Chaam,Alphen-Chaam,Noord-Brabant,VBO,4.855600,51.499199
Kleistraat,6,,,4861CA,Chaam,Alphen-Chaam,Noord-Brabant,VBO,4.840832,51.500875
Kleistraat,7,,,4861CA,Chaam,Alphen-Chaam,Noord-Brabant,VBO,4.854187,51.499309
Kleistraat,8,,,4861CA,Chaam,Alphen-Chaam,Noord-Brabant,VBO,4.840645,51.500892
Kleistraat,9,a,,4861CA,Chaam,Alphen-Chaam,Noord-Brabant,VBO,4.851454,51.499063
Kleistraat,9,,,4861CA,Chaam,Alphen-Chaam,Noord-Brabant,VBO,4.852863,51.499204
Kleistraat,11,,,4861CA,Chaam,Alphen-Chaam,Noord-Brabant,VBO,4.851545,51.498659
Kleistraat,13,,,4861CA,Chaam,Alphen-Chaam,Noord-Brabant,VBO,4.849637,51.500448
Kleistraat,15,a,,4861CA,Chaam,Alphen-Chaam,Noord-Brabant,VBO,4.847723,51.500331
Kleistraat,15,,,4861CA,Chaam,Alphen-Chaam,Noord-Brabant,VBO,4.848786,51.500552
Kleistraat,17,,,4861CA,Chaam,Alphen-Chaam,Noord-Brabant,VBO,4.840162,51.500377
Kleistraat,19,,,4861CA,Chaam,Alphen-Chaam,Noord-Brabant,VBO,4.840107,51.500116
Kleistraat,21,,,4861CA,Chaam,Alphen-Chaam,Noord-Brabant,VBO,4.839976,51.500150
Kleistraat,23,,,4861CA,Chaam,Alphen-Chaam,Noord-Brabant,VBO,4.839966,51.499855
Kleipad,1,,,4861CB,Chaam,Alphen-Chaam,Noord-Brabant,VBO,4.838254,51.500704
Kleipad,3,,,4861CB,Chaam,Alphen-Chaam,Noord-Brabant,VBO,4.837938,51.500816
Kleipad,5,,,4861CB,Chaam,Alphen-Chaam,Noord-Brabant,VBO,4.837852,51.500843
Ginderdoorstraat,1,,,4861CC,Chaam,Alphen-Chaam,Noord-Brabant,VBO,4.837178,51.501720
Ginderdoorstraat,2,,,4861CC,Chaam,Alphen-Chaam,Noord-Brabant,VBO,4.837059,51.502061
Ginderdoorstraat,3,a,,4861CC,Chaam,Alphen-Chaam,Noord-Brabant,VBO,4.836248,51.501267
Ginderdoorstraat,3,,,4861CC,Chaam,Alphen-Chaam,Noord-Brabant,VBO,4.836836,51.501440
Ginderdoorstraat,4,,,4861CC,Chaam,Alphen-Chaam,Noord-Brabant,VBO,4.835313,51.501118
Ginderdoorstraat,5,,,4861CC,Chaam,Alphen-Chaam,Noord-Brabant,VBO,4.836018,51.501194
Ginderdoorstraat,6,,,4861CC,Chaam,Alphen-Chaam,Noord-Brabant,VBO,4.834439,51.500755
Ginderdoorstraat,7,,,4861CC,Chaam,Alphen-Chaam,Noord-Brabant,VBO,4.834257,51.500340
Rettestraat,1,,,4861CD,Chaam,Alphen-Chaam,Noord-Brabant,VBO,4.832003,51.507997
Rettestraat,2,,,4861CD,Chaam,Alphen-Chaam,Noord-Brabant,VBO,4.837722,51.503224
Rettestraat,4,,,4861CD,Chaam,Alphen-Chaam,Noord-Brabant,VBO,4.837477,51.503279
Rettestraat,6,,,4861CD,Chaam,Alphen-Chaam,Noord-Brabant,VBO,4.833441,51.507069
Hondsdonkseweg,1,,,4861CE,Chaam,Alphen-Chaam,Noord-Brabant,VBO,4.830874,51.509619
Molenstraat,2,,,4861CG,Chaam,Alphen-Chaam,Noord-Brabant,VBO,4.841072,51.506107
Kapelweg,1,,,4861CH,Chaam,Alphen-Chaam,Noord-Brabant,VBO,4.855355,51.505328
Kapelweg,2,a,,4861CH,Chaam,Alphen-Chaam,Noord-Brabant,VBO,4.850592,51.504449
Kapelweg,2,,by,4861CH,Chaam,Alphen-Chaam,Noord-Brabant,VBO,4.850952,51.503623
Kapelweg,2,,,4861CH,Chaam,Alphen-Chaam,Noord-Brabant,VBO,4.850548,51.503832
Kapelweg,3,,,4861CH,Chaam,Alphen-Chaam,Noord-Brabant,VBO,4.855255,51.505283
Kapelweg,5,,,4861CH,Chaam,Alphen-Chaam,Noord-Brabant,VBO,4.855155,51.505228
Kapelweg,6,,,4861CH,Chaam,Alphen-Chaam,Noord-Brabant,VBO,4.848166,51.503039
Kapelweg,7,a,,4861CH,Chaam,Alphen-Chaam,Noord-Brabant,VBO,4.849559,51.502706
Kapelweg,7,,,4861CH,Chaam,Alphen-Chaam,Noord-Brabant,VBO,4.854790,51.504732
Kapelweg,8,,,4861CH,Chaam,Alphen-Chaam,Noord-Brabant,VBO,4.848113,51.502688
Kapelweg,9,,,4861CH,Chaam,Alphen-Chaam,Noord-Brabant,VBO,4.848302,51.502536
Staartenweg,1,,,4861CJ,Chaam,Alphen-Chaam,Noord-Brabant,VBO,4.856295,51.502573
Staartenweg,2,,,4861CJ,Chaam,Alphen-Chaam,Noord-Brabant,VBO,4.856985,51.502702
Baroniestraat,1,,,4861DA,Chaam,Alphen-Chaam,Noord-Brabant,VBO,4.866339,51.502124
Baroniestraat,3,,,4861DA,Chaam,Alphen-Chaam,Noord-Brabant,VBO,4.866268,51.502051
Baroniestraat,5,,,4861DA,Chaam,Alphen-Chaam,Noord-Brabant,VBO,4.866211,51.501979
Baroniestraat,7,,,4861DA,Chaam,Alphen-Chaam,Noord-Brabant,VBO,4.866096,51.501916
Baroniestraat,9,,,4861DA,Chaam,Alphen-Chaam,Noord-Brabant,VBO,4.866025,51.501853
Baroniestraat,11,,,4861DA,Chaam,Alphen-Chaam,Noord-Brabant,VBO,4.865925,51.501825
Langstraat,2,,,4861DB,Chaam,Alphen-Chaam,Noord-Brabant,VBO,4.864413,51.502464
Langstraat,4,,,4861DB,Chaam,Alphen-Chaam,Noord-Brabant,VBO,4.864492,51.502454
Langstraat,6,,,4861DB,Chaam,Alphen-Chaam,Noord-Brabant,VBO,4.864568,51.502443
Langstraat,8,,,4861DB,Chaam,Alphen-Chaam,Noord-Brabant,VBO,4.864644,51.502432
Langstraat,10,,,4861DB,Chaam,Alphen-Chaam,Noord-Brabant,VBO,4.864716,51.502419
Langstraat,12,,,4861DB,Chaam,Alphen-Chaam,Noord-Brabant,VBO,4.864866,51.502402
Langstraat,14,,,4861DB,Chaam,Alphen-Chaam,Noord-Brabant,VBO,4.864947,51.502405
Langstraat,16,,,4861DB,Chaam,Alphen-Chaam,Noord-Brabant,VBO,4.864983,51.502406
Langstraat,17,a,,4861DB,Chaam,Alphen-Chaam,Noord-Brabant,VBO,4.864555,51.502721
Langstraat,17,b,,4861DB,Chaam,Alphen-Chaam,Noord-Brabant,VBO,4.864635,51.502732
Langstraat,17,c,,4861DB,Chaam,Alphen-Chaam,Noord-Brabant,VBO,4.864711,51.502745
Langstraat,17,d,,4861DB,Chaam,Alphen-Chaam,Noord-Brabant,VBO,4.864787,51.502754
Langstraat,17,e,,4861DB,Chaam,Alphen-Chaam,Noord-Brabant,VBO,4.864863,51.502765
Langstraat,17,f,,4861DB,Chaam,Alphen-Chaam,Noord-Brabant,VBO,4.864937,51.502778
Langstraat,17,g,,4861DB,Chaam,Alphen-Chaam,Noord-Brabant,VBO,4.865013,51.502792
Langstraat,17,h,,4861DB,Chaam,Alphen-Chaam,Noord-Brabant,VBO,4.865088,51.502798
Langstraat,17,i,,4861DB,Chaam,Alphen-Chaam,Noord-Brabant,VBO,4.865165,51.502812
Langstraat,18,,,4861DB,Chaam,Alphen-Chaam,Noord-Brabant,VBO,4.865087,51.502379
Langstraat,19,,,4861DB,Chaam,Alphen-Chaam,Noord-Brabant,VBO,4.865438,51.502830
Langstraat,20,,,4861DB,Chaam,Alphen-Chaam,Noord-Brabant,VBO,4.865180,51.502446
Langstraat,21,,,4861DB,Chaam,Alphen-Chaam,Noord-Brabant,VBO,4.865655,51.502768
Langstraat,22,,,4861DB,Chaam,Alphen-Chaam,Noord-Brabant,VBO,4.865256,51.502494
Langstraat,23,,,4861DB,Chaam,Alphen-Chaam,Noord-Brabant,VBO,4.865814,51.502679
Langstraat,24,,,4861DB,Chaam,Alphen-Chaam,Noord-Brabant,VBO,4.865286,51.502520
Langstraat,25,,,4861DB,Chaam,Alphen-Chaam,Noord-Brabant,VBO,4.865987,51.502626
Langstraat,26,,,4861DB,Chaam,Alphen-Chaam,Noord-Brabant,VBO,4.865357,51.502566
Langstraat,27,,,4861DB,Chaam,Alphen-Chaam,Noord-Brabant,VBO,4.866104,51.502491
Langstraat,28,,,4861DB,Chaam,Alphen-Chaam,Noord-Brabant,VBO,4.865392,51.502589
Langstraat,29,,,4861DB,Chaam,Alphen-Chaam,Noord-Brabant,VBO,4.866596,51.502323
Langstraat,31,,,4861DB,Chaam,Alphen-Chaam,Noord-Brabant,VBO,4.866712,51.502233
Langstraat,33,,,4861DB,Chaam,Alphen-Chaam,Noord-Brabant,VBO,4.866814,51.502126
Langstraat,35,,,4861DB,Chaam,Alphen-Chaam,Noord-Brabant,VBO,4.866902,51.502009
Langstraat,37,,,4861DB,Chaam,Alphen-Chaam,Noord-Brabant,VBO,4.867018,51.501902
Langstraat,39,,,4861DB,Chaam,Alphen-Chaam,Noord-Brabant,VBO,4.867135,51.501804
Langstraat,41,,,4861DB,Chaam,Alphen-Chaam,Noord-Brabant,VBO,4.867251,51.501696
Langstraat,43,,,4861DB,Chaam,Alphen-Chaam,Noord-Brabant,VBO,4.867382,51.501598
Kempenstraat,1,,,4861DC,Chaam,Alphen-Chaam,Noord-Brabant,VBO,4.866876,51.501713
Kempenstraat,2,,,4861DC,Chaam,Alphen-Chaam,Noord-Brabant,VBO,4.866615,51.501873
Kempenstraat,3,,,4861DC,Chaam,Alphen-Chaam,Noord-Brabant,VBO,4.866719,51.501640
Kempenstraat,4,,,4861DC,Chaam,Alphen-Chaam,Noord-Brabant,VBO,4.866587,51.501828
Kempenstraat,5,,,4861DC,Chaam,Alphen-Chaam,Noord-Brabant,VBO,4.866647,51.501595
Kempenstraat,6,,,4861DC,Chaam,Alphen-Chaam,Noord-Brabant,VBO,4.866472,51.501783
Kempenstraat,7,,,4861DC,Chaam,Alphen-Chaam,Noord-Brabant,VBO,4.866605,51.501559
Kempenstraat,8,,,4861DC,Chaam,Alphen-Chaam,Noord-Brabant,VBO,4.866430,51.501738
Kempenstraat,9,,,4861DC,Chaam,Alphen-Chaam,Noord-Brabant,VBO,4.866547,51.501522
Kempenstraat,10,,,4861DC,Chaam,Alphen-Chaam,Noord-Brabant,VBO,4.866401,51.501684
Kempenstraat,11,,,4861DC,Chaam,Alphen-Chaam,Noord-Brabant,VBO,4.866476,51.501477
Kempenstraat,12,,,4861DC,Chaam,Alphen-Chaam,Noord-Brabant,VBO,4.866330,51.501665
Kempenstraat,14,,,4861DC,Chaam,Alphen-Chaam,Noord-Brabant,VBO,4.866258,51.501620
Meierijstraat,2,,,4861DD,Chaam,Alphen-Chaam,Noord-Brabant,VBO,4.867038,51.501471
Meierijstraat,4,,,4861DD,Chaam,Alphen-Chaam,Noord-Brabant,VBO,4.866995,51.501434
Meierijstraat,6,,,4861DD,Chaam,Alphen-Chaam,Noord-Brabant,VBO,4.866866,51.501344
Meierijstraat,8,,,4861DD,Chaam,Alphen-Chaam,Noord-Brabant,VBO,4.866809,51.501299
Brabander,17,,,4861DE,Chaam,Alphen-Chaam,Noord-Brabant,VBO,4.865739,51.501636
Brabander,19,,,4861DE,Chaam,Alphen-Chaam,Noord-Brabant,VBO,4.865870,51.501546
Brabander,21,,,4861DE,Chaam,Alphen-Chaam,Noord-Brabant,VBO,4.866015,51.501457
Brabander,23,,,4861DE,Chaam,Alphen-Chaam,Noord-Brabant,VBO,4.866261,51.501341
Brabander,25,,,4861DE,Chaam,Alphen-Chaam,Noord-Brabant,VBO,4.866407,51.501243
Brabander,27,,,4861DE,Chaam,Alphen-Chaam,Noord-Brabant,VBO,4.866566,51.501136
Biesbosch,1,,,4861DG,Chaam,Alphen-Chaam,Noord-Brabant,VBO,4.865892,51.500960
Biesbosch,2,,,4861DG,Chaam,Alphen-Chaam,Noord-Brabant,VBO,4.865664,51.500844
Biesbosch,3,,,4861DG,Chaam,Alphen-Chaam,Noord-Brabant,VBO,4.865462,51.500741
Biesbosch,4,,,4861DG,Chaam,Alphen-Chaam,Noord-Brabant,VBO,4.865075,51.500590
Biesbosch,5,,,4861DG,Chaam,Alphen-Chaam,Noord-Brabant,VBO,4.864946,51.500805
Biesbosch,7,,,4861DG,Chaam,Alphen-Chaam,Noord-Brabant,VBO,4.865230,51.501095
Biesbosch,8,,,4861DG,Chaam,Alphen-Chaam,Noord-Brabant,VBO,4.865459,51.501224
Altena,1,,,4861DH,Chaam,Alphen-Chaam,Noord-Brabant,VBO,4.868157,51.501848
Altena,2,,,4861DH,Chaam,Alphen-Chaam,Noord-Brabant,VBO,4.868000,51.501737
Altena,3,,,4861DH,Chaam,Alphen-Chaam,Noord-Brabant,VBO,4.868209,51.501811
Altena,4,,,4861DH,Chaam,Alphen-Chaam,Noord-Brabant,VBO,4.868051,51.501699
Altena,5,,,4861DH,Chaam,Alphen-Chaam,Noord-Brabant,VBO,4.868273,51.501771
Altena,6,,,4861DH,Chaam,Alphen-Chaam,Noord-Brabant,VBO,4.868169,51.501620
Altena,7,,,4861DH,Chaam,Alphen-Chaam,Noord-Brabant,VBO,4.868388,51.501691
Altena,8,,,4861DH,Chaam,Alphen-Chaam,Noord-Brabant,VBO,4.868230,51.501581
Altena,9,,,4861DH,Chaam,Alphen-Chaam,Noord-Brabant,VBO,4.868446,51.501649
Altena,10,,,4861DH,Chaam,Alphen-Chaam,Noord-Brabant,VBO,4.868346,51.501496
Altena,11,,,4861DH,Chaam,Alphen-Chaam,Noord-Brabant,VBO,4.868507,51.501614
Altena,12,,,4861DH,Chaam,Alphen-Chaam,Noord-Brabant,VBO,4.868394,51.501462
Altena,13,,,4861DH,Chaam,Alphen-Chaam,Noord-Brabant,VBO,4.868885,51.501355
Altena,14,,,4861DH,Chaam,Alphen-Chaam,Noord-Brabant,VBO,4.868522,51.501376
Altena,15,,,4861DH,Chaam,Alphen-Chaam,Noord-Brabant,VBO,4.868939,51.501318
Altena,16,,,4861DH,Chaam,Alphen-Chaam,Noord-Brabant,VBO,4.868695,51.501249
Altena,17,,,4861DH,Chaam,Alphen-Chaam,Noord-Brabant,VBO,4.869058,51.501235
Altena,18,,,4861DH,Chaam,Alphen-Chaam,Noord-Brabant,VBO,4.868756,51.501212
Altena,19,,,4861DH,Chaam,Alphen-Chaam,Noord-Brabant,VBO,4.869115,51.501194
Altena,20,,,4861DH,Chaam,Alphen-Chaam,Noord-Brabant,VBO,4.868884,51.501121
Altena,21,,,4861DH,Chaam,Alphen-Chaam,Noord-Brabant,VBO,4.869211,51.501133
Altena,23,,,4861DH,Chaam,Alphen-Chaam,Noord-Brabant,VBO,4.869312,51.501059
Markiezaat,1,,,4861DJ,Chaam,Alphen-Chaam,Noord-Brabant,VBO,4.867748,51.501471
Markiezaat,2,,,4861DJ,Chaam,Alphen-Chaam,Noord-Brabant,VBO,4.868111,51.502051
Markiezaat,3,,,4861DJ,Chaam,Alphen-Chaam,Noord-Brabant,VBO,4.867683,51.501421
Markiezaat,4,,,4861DJ,Chaam,Alphen-Chaam,Noord-Brabant,VBO,4.868054,51.502023
Markiezaat,5,,,4861DJ,Chaam,Alphen-Chaam,Noord-Brabant,VBO,4.867562,51.501329
Markiezaat,6,,,4861DJ,Chaam,Alphen-Chaam,Noord-Brabant,VBO,4.867982,51.501978
Markiezaat,7,,,4861DJ,Chaam,Alphen-Chaam,Noord-Brabant,VBO,4.867497,51.501279
Markiezaat,8,,,4861DJ,Chaam,Alphen-Chaam,Noord-Brabant,VBO,4.867925,51.501942
Markiezaat,9,,,4861DJ,Chaam,Alphen-Chaam,Noord-Brabant,VBO,4.867386,51.501195
Markiezaat,10,,,4861DJ,Chaam,Alphen-Chaam,Noord-Brabant,VBO,4.867868,51.501915
Markiezaat,11,,,4861DJ,Chaam,Alphen-Chaam,Noord-Brabant,VBO,4.867334,51.501155
Markiezaat,12,,,4861DJ,Chaam,Alphen-Chaam,Noord-Brabant,VBO,4.867811,51.501852
Markiezaat,13,,,4861DJ,Chaam,Alphen-Chaam,Noord-Brabant,VBO,4.867281,51.501115
Markiezaat,14,,,4861DJ,Chaam,Alphen-Chaam,Noord-Brabant,VBO,4.867739,51.501815
Markiezaat,15,,,4861DJ,Chaam,Alphen-Chaam,Noord-Brabant,VBO,4.867230,51.501075
Markiezaat,17,,,4861DJ,Chaam,Alphen-Chaam,Noord-Brabant,VBO,4.867130,51.500989
Markiezaat,19,,,4861DJ,Chaam,Alphen-Chaam,Noord-Brabant,VBO,4.867072,51.500954
Markiezaat,21,,,4861DJ,Chaam,Alphen-Chaam,Noord-Brabant,VBO,4.867026,51.500913
Markiezaat,23,,,4861DJ,Chaam,Alphen-Chaam,Noord-Brabant,VBO,4.866978,51.500871
Heerebeemd,2,,,4861DK,Chaam,Alphen-Chaam,Noord-Brabant,VBO,4.869173,51.501714
Heerebeemd,4,,,4861DK,Chaam,Alphen-Chaam,Noord-Brabant,VBO,4.868923,51.501614
Heerebeemd,6,,,4861DK,Chaam,Alphen-Chaam,Noord-Brabant,VBO,4.868865,51.501578
Heerebeemd,8,,,4861DK,Chaam,Alphen-Chaam,Noord-Brabant,VBO,4.868823,51.501550
Heerebeemd,10,,,4861DK,Chaam,Alphen-Chaam,Noord-Brabant,VBO,4.868751,51.501523
Heerebeemd,12,,,4861DK,Chaam,Alphen-Chaam,Noord-Brabant,VBO,4.868694,51.501487
Heerebeemd,14,,,4861DK,Chaam,Alphen-Chaam,Noord-Brabant,VBO,4.868126,51.501184
Heerebeemd,16,,,4861DK,Chaam,Alphen-Chaam,Noord-Brabant,VBO,4.867912,51.501049
Heerebeemd,18,,,4861DK,Chaam,Alphen-Chaam,Noord-Brabant,VBO,4.867770,51.500972
Heerebeemd,20,,,4861DK,Chaam,Alphen-Chaam,Noord-Brabant,VBO,4.867703,51.500932
Heerebeemd,22,,,4861DK,Chaam,Alphen-Chaam,Noord-Brabant,VBO,4.867638,51.500900
Heerebeemd,24,,,4861DK,Chaam,Alphen-Chaam,Noord-Brabant,VBO,4.867580,51.500865
Heerebeemd,26,,,4861DK,Chaam,Alphen-Chaam,Noord-Brabant,VBO,4.867519,51.500830
Heerebeemd,28,,,4861DK,Chaam,Alphen-Chaam,Noord-Brabant,VBO,4.867372,51.500749
Heerebeemd,30,,,4861DK,Chaam,Alphen-Chaam,Noord-Brabant,VBO,4.867310,51.500714
Heerebeemd,32,,,4861DK,Chaam,Alphen-Chaam,Noord-Brabant,VBO,4.867248,51.500679
Boterfabriekweg,1,,,4861EA,Chaam,Alphen-Chaam,Noord-Brabant,VBO,4.858505,51.506942
Boterfabriekweg,2,,,4861EA,Chaam,Alphen-Chaam,Noord-Brabant,VBO,4.858022,51.506392
Boterfabriekweg,3,,,4861EA,Chaam,Alphen-Chaam,Noord-Brabant,VBO,4.858377,51.506834
Boterfabriekweg,4,,,4861EA,Chaam,Alphen-Chaam,Noord-Brabant,VBO,4.858152,51.506357
Boterfabriekweg,5,,,4861EA,Chaam,Alphen-Chaam,Noord-Brabant,VBO,4.858306,51.506762
Boterfabriekweg,6,,,4861EA,Chaam,Alphen-Chaam,Noord-Brabant,VBO,4.858268,51.506330
Boterfabriekweg,7,,,4861EA,Chaam,Alphen-Chaam,Noord-Brabant,VBO,4.858264,51.506690
Boterfabriekweg,8,,,4861EA,Chaam,Alphen-Chaam,Noord-Brabant,VBO,4.858398,51.506295
Boterfabriekweg,9,,,4861EA,Chaam,Alphen-Chaam,Noord-Brabant,VBO,4.858206,51.506644
Boterfabriekweg,10,,,4861EA,Chaam,Alphen-Chaam,Noord-Brabant,VBO,4.858513,51.506259
Boterfabriekweg,11,,,4861EA,Chaam,Alphen-Chaam,Noord-Brabant,VBO,4.858135,51.506554
Boterfabriekweg,12,,,4861EA,Chaam,Alphen-Chaam,Noord-Brabant,VBO,4.858614,51.506242
Boterfabriekweg,13,,,4861EA,Chaam,Alphen-Chaam,Noord-Brabant,VBO,4.858352,51.506474
Boterfabriekweg,14,,,4861EA,Chaam,Alphen-Chaam,Noord-Brabant,VBO,4.858730,51.506206
Boterfabriekweg,15,,,4861EA,Chaam,Alphen-Chaam,Noord-Brabant,VBO,4.858439,51.506448
Boterfabriekweg,16,,,4861EA,Chaam,Alphen-Chaam,Noord-Brabant,VBO,4.858889,51.506162
Boterfabriekweg,17,,,4861EA,Chaam,Alphen-Chaam,Noord-Brabant,VBO,4.858699,51.506404
Boterfabriekweg,18,,,4861EA,Chaam,Alphen-Chaam,Noord-Brabant,VBO,4.859075,51.506244
Boterfabriekweg,19,,,4861EA,Chaam,Alphen-Chaam,Noord-Brabant,VBO,4.858858,51.506360
Boterfabriekweg,21,,,4861EA,Chaam,Alphen-Chaam,Noord-Brabant,VBO,4.858957,51.506531
Horst,2,,,4861EB,Chaam,Alphen-Chaam,Noord-Brabant,VBO,4.857231,51.505040
Horst,4,,,4861EB,Chaam,Alphen-Chaam,Noord-Brabant,VBO,4.857288,51.505130
Horst,6,,,4861EB,Chaam,Alphen-Chaam,Noord-Brabant,VBO,4.857359,51.505202
Horst,8,,,4861EB,Chaam,Alphen-Chaam,Noord-Brabant,VBO,4.857402,51.505248
Horst,10,,,4861EB,Chaam,Alphen-Chaam,Noord-Brabant,VBO,4.857458,51.505338
Horst,12,,,4861EB,Chaam,Alphen-Chaam,Noord-Brabant,VBO,4.857486,51.505383
Horst,14,,,4861EB,Chaam,Alphen-Chaam,Noord-Brabant,VBO,4.857557,51.505473
Horst,16,,,4861EB,Chaam,Alphen-Chaam,Noord-Brabant,VBO,4.857586,51.505527
Horst,18,,,4861EB,Chaam,Alphen-Chaam,Noord-Brabant,VBO,4.857686,51.505608
Horst,20,,,4861EB,Chaam,Alphen-Chaam,Noord-Brabant,VBO,4.857714,51.505653
Horst,22,,,4861EB,Chaam,Alphen-Chaam,Noord-Brabant,VBO,4.857799,51.505744
Horst,24,,,4861EB,Chaam,Alphen-Chaam,Noord-Brabant,VBO,4.857828,51.505780
Horst,26,,,4861EB,Chaam,Alphen-Chaam,Noord-Brabant,VBO,4.857913,51.505870
Horst,28,,,4861EB,Chaam,Alphen-Chaam,Noord-Brabant,VBO,4.857941,51.505915
Horst,30,,,4861EB,Chaam,Alphen-Chaam,Noord-Brabant,VBO,4.858300,51.506034
Horst,32,,,4861EB,Chaam,Alphen-Chaam,Noord-Brabant,VBO,4.858170,51.506060
Horst,34,,,4861EB,Chaam,Alphen-Chaam,Noord-Brabant,VBO,4.858054,51.506104
Horst,36,,,4861EB,Chaam,Alphen-Chaam,Noord-Brabant,VBO,4.857881,51.506113
Horst,38,,,4861EB,Chaam,Alphen-Chaam,Noord-Brabant,VBO,4.857910,51.506158
Horst,40,,,4861EB,Chaam,Alphen-Chaam,Noord-Brabant,VBO,4.857795,51.506130
Horst,42,,,4861EB,Chaam,Alphen-Chaam,Noord-Brabant,VBO,4.857823,51.506175
Horst,44,,,4861EB,Chaam,Alphen-Chaam,Noord-Brabant,VBO,4.857578,51.506192
Horst,46,,,4861EB,Chaam,Alphen-Chaam,Noord-Brabant,VBO,4.857606,51.506237
Horst,48,,,4861EB,Chaam,Alphen-Chaam,Noord-Brabant,VBO,4.857505,51.506264
Horst,50,,,4861EB,Chaam,Alphen-Chaam,Noord-Brabant,VBO,4.857477,51.506210
Horst,52,,,4861EB,Chaam,Alphen-Chaam,Noord-Brabant,VBO,4.857332,51.506254
Horst,54,,,4861EB,Chaam,Alphen-Chaam,Noord-Brabant,VBO,4.857260,51.506272
Horst,56,,,4861EB,Chaam,Alphen-Chaam,Noord-Brabant,VBO,4.857116,51.506316
Horst,58,,,4861EB,Chaam,Alphen-Chaam,Noord-Brabant,VBO,4.857043,51.506334
Horst,60,,,4861EB,Chaam,Alphen-Chaam,Noord-Brabant,VBO,4.856899,51.506369
Horst,62,,,4861EB,Chaam,Alphen-Chaam,Noord-Brabant,VBO,4.856827,51.506387
Horst,64,,,4861EB,Chaam,Alphen-Chaam,Noord-Brabant,VBO,4.856682,51.506431
Horst,66,,,4861EB,Chaam,Alphen-Chaam,Noord-Brabant,VBO,4.856610,51.506448
Horst,68,,,4861EB,Chaam,Alphen-Chaam,Noord-Brabant,VBO,4.856465,51.506484
Horst,70,,,4861EB,Chaam,Alphen-Chaam,Noord-Brabant,VBO,4.856393,51.506501
Horst,72,,,4861EB,Chaam,Alphen-Chaam,Noord-Brabant,VBO,4.856249,51.506555
Horst,74,,,4861EB,Chaam,Alphen-Chaam,Noord-Brabant,VBO,4.856176,51.506581
Horst,76,,,4861EB,Chaam,Alphen-Chaam,Noord-Brabant,VBO,4.856046,51.506635
Horst,78,,,4861EB,Chaam,Alphen-Chaam,Noord-Brabant,VBO,4.855974,51.506661
Horst,80,,,4861EB,Chaam,Alphen-Chaam,Noord-Brabant,VBO,4.855858,51.506706
Horst,82,,,4861EB,Chaam,Alphen-Chaam,Noord-Brabant,VBO,4.855771,51.506732
Horst,1,,,4861EC,Chaam,Alphen-Chaam,Noord-Brabant,VBO,4.857141,51.505345
Horst,3,,,4861EC,Chaam,Alphen-Chaam,Noord-Brabant,VBO,4.857126,51.505381
Horst,5,,,4861EC,Chaam,Alphen-Chaam,Noord-Brabant,VBO,4.857212,51.505480
Horst,7,,,4861EC,Chaam,Alphen-Chaam,Noord-Brabant,VBO,4.857240,51.505534
Horst,9,,,4861EC,Chaam,Alphen-Chaam,Noord-Brabant,VBO,4.857297,51.505598
Horst,11,,,4861EC,Chaam,Alphen-Chaam,Noord-Brabant,VBO,4.857453,51.505805
Horst,13,,,4861EC,Chaam,Alphen-Chaam,Noord-Brabant,VBO,4.857322,51.505867
Horst,15,,,4861EC,Chaam,Alphen-Chaam,Noord-Brabant,VBO,4.857221,51.505912
Horst,17,,,4861EC,Chaam,Alphen-Chaam,Noord-Brabant,VBO,4.857091,51.505965
Horst,19,,,4861EC,Chaam,Alphen-Chaam,Noord-Brabant,VBO,4.856857,51.506216
Horst,21,,,4861EC,Chaam,Alphen-Chaam,Noord-Brabant,VBO,4.856699,51.506251
Horst,23,,,4861EC,Chaam,Alphen-Chaam,Noord-Brabant,VBO,4.856612,51.506278
Horst,25,,,4861EC,Chaam,Alphen-Chaam,Noord-Brabant,VBO,4.856482,51.506313
Horst,27,,,4861EC,Chaam,Alphen-Chaam,Noord-Brabant,VBO,4.856381,51.506340
Horst,29,,,4861EC,Chaam,Alphen-Chaam,Noord-Brabant,VBO,4.856106,51.506392
Horst,31,,,4861EC,Chaam,Alphen-Chaam,Noord-Brabant,VBO,4.855962,51.506455
Horst,33,,,4861EC,Chaam,Alphen-Chaam,Noord-Brabant,VBO,4.855803,51.506499
Horst,35,,,4861EC,Chaam,Alphen-Chaam,Noord-Brabant,VBO,4.855687,51.506561
Horst,37,,,4861EC,Chaam,Alphen-Chaam,Noord-Brabant,VBO,4.855556,51.506614
Vossenberg,1,,,4861ED,Chaam,Alphen-Chaam,Noord-Brabant,VBO,4.856360,51.505656
Vossenberg,2,,,4861ED,Chaam,Alphen-Chaam,Noord-Brabant,VBO,4.856635,51.505568
Vossenberg,3,,,4861ED,Chaam,Alphen-Chaam,Noord-Brabant,VBO,4.856460,51.505747
Vossenberg,4,,,4861ED,Chaam,Alphen-Chaam,Noord-Brabant,VBO,4.856748,51.505676
Vossenberg,5,,,4861ED,Chaam,Alphen-Chaam,Noord-Brabant,VBO,4.856545,51.505810
Vossenberg,6,,,4861ED,Chaam,Alphen-Chaam,Noord-Brabant,VBO,4.856848,51.505784
Vossenberg,7,,,4861ED,Chaam,Alphen-Chaam,Noord-Brabant,VBO,4.856574,51.505855
Vossenberg,8,,,4861ED,Chaam,Alphen-Chaam,Noord-Brabant,VBO,4.856961,51.505965
Vossenberg,9,,,4861ED,Chaam,Alphen-Chaam,Noord-Brabant,VBO,4.856644,51.505954
Vossenberg,11,,,4861ED,Chaam,Alphen-Chaam,Noord-Brabant,VBO,4.856658,51.505990
Roode Beek,1,,,4861EE,Chaam,Alphen-Chaam,Noord-Brabant,VBO,4.855278,51.505750
Roode Beek,2,,TRAF,4861EE,Chaam,Alphen-Chaam,Noord-Brabant,VBO,4.855336,51.507027
Roode Beek,2,,,4861EE,Chaam,Alphen-Chaam,Noord-Brabant,VBO,4.855464,51.505922
Roode Beek,3,,,4861EE,Chaam,Alphen-Chaam,Noord-Brabant,VBO,4.855104,51.505893
Roode Beek,4,,,4861EE,Chaam,Alphen-Chaam,Noord-Brabant,VBO,4.855348,51.506002
Roode Beek,5,,,4861EE,Chaam,Alphen-Chaam,Noord-Brabant,VBO,4.854901,51.506027
Roode Beek,6,,,4861EE,Chaam,Alphen-Chaam,Noord-Brabant,VBO,4.855187,51.506154
Roode Beek,7,,,4861EE,Chaam,Alphen-Chaam,Noord-Brabant,VBO,4.854913,51.506243
Roode Beek,8,,,4861EE,Chaam,Alphen-Chaam,Noord-Brabant,VBO,4.855272,51.506263
Roode Beek,9,,,4861EE,Chaam,Alphen-Chaam,Noord-Brabant,VBO,4.854998,51.506360
Roode Beek,10,,,4861EE,Chaam,Alphen-Chaam,Noord-Brabant,VBO,4.855301,51.506299
Roode Beek,12,,,4861EE,Chaam,Alphen-Chaam,Noord-Brabant,VBO,4.855386,51.506398
Roode Beek,14,,,4861EE,Chaam,Alphen-Chaam,Noord-Brabant,VBO,4.855414,51.506443
Roode Beek,15,,,4861EE,Chaam,Alphen-Chaam,Noord-Brabant,VBO,4.855384,51.507365
Roode Beek,16,,,4861EE,Chaam,Alphen-Chaam,Noord-Brabant,VBO,4.855611,51.506884
Roode Beek,17,,,4861EE,Chaam,Alphen-Chaam,Noord-Brabant,VBO,4.855408,51.507419
Roode Beek,18,,,4861EE,Chaam,Alphen-Chaam,Noord-Brabant,VBO,4.855638,51.507037
Roode Beek,20,,,4861EE,Chaam,Alphen-Chaam,Noord-Brabant,VBO,4.855651,51.507181
Roode Beek,22,,,4861EE,Chaam,Alphen-Chaam,Noord-Brabant,VBO,4.855721,51.507343
Ravenbos,1,,,4861EG,Chaam,Alphen-Chaam,Noord-Brabant,VBO,4.855678,51.506076
Ravenbos,2,,,4861EG,Chaam,Alphen-Chaam,Noord-Brabant,VBO,4.855895,51.505951
Ravenbos,3,,,4861EG,Chaam,Alphen-Chaam,Noord-Brabant,VBO,4.855721,51.506121
Ravenbos,4,,,4861EG,Chaam,Alphen-Chaam,Noord-Brabant,VBO,4.856024,51.506050
Ravenbos,5,,,4861EG,Chaam,Alphen-Chaam,Noord-Brabant,VBO,4.855835,51.506193
Ravenbos,6,,,4861EG,Chaam,Alphen-Chaam,Noord-Brabant,VBO,4.856152,51.506150
Ravenbos,7,,,4861EG,Chaam,Alphen-Chaam,Noord-Brabant,VBO,4.855863,51.506229
Zwanendries,1,,,4861EH,Chaam,Alphen-Chaam,Noord-Brabant,VBO,4.855182,51.506622
Zwanendries,3,,,4861EH,Chaam,Alphen-Chaam,Noord-Brabant,VBO,4.854864,51.506728
Zwanendries,5,,,4861EH,Chaam,Alphen-Chaam,Noord-Brabant,VBO,4.854633,51.506781
Zwanendries,7,,,4861EH,Chaam,Alphen-Chaam,Noord-Brabant,VBO,4.854358,51.506870
Zwanendries,9,,,4861EH,Chaam,Alphen-Chaam,Noord-Brabant,VBO,4.854286,51.506887
Zwanendries,11,,,4861EH,Chaam,Alphen-Chaam,Noord-Brabant,VBO,4.854141,51.506923
Zwanendries,13,,,4861EH,Chaam,Alphen-Chaam,Noord-Brabant,VBO,4.854069,51.506940
Zwanendries,15,,,4861EH,Chaam,Alphen-Chaam,Noord-Brabant,VBO,4.853333,51.507036
Zwanendries,17,,,4861EH,Chaam,Alphen-Chaam,Noord-Brabant,VBO,4.853218,51.507044
Zwanendries,19,,,4861EH,Chaam,Alphen-Chaam,Noord-Brabant,VBO,4.853074,51.507062
Zwanendries,21,,,4861EH,Chaam,Alphen-Chaam,Noord-Brabant,VBO,4.852958,51.507079
Zwanendries,2,,,4861EJ,Chaam,Alphen-Chaam,Noord-Brabant,VBO,4.855251,51.506874
Zwanendries,4,,,4861EJ,Chaam,Alphen-Chaam,Noord-Brabant,VBO,4.854962,51.506926
Zwanendries,6,,,4861EJ,Chaam,Alphen-Chaam,Noord-Brabant,VBO,4.854890,51.506944
Zwanendries,8,,,4861EJ,Chaam,Alphen-Chaam,Noord-Brabant,VBO,4.854746,51.506979
Zwanendries,10,,,4861EJ,Chaam,Alphen-Chaam,Noord-Brabant,VBO,4.854673,51.507006
Zwanendries,12,,,4861EJ,Chaam,Alphen-Chaam,Noord-Brabant,VBO,4.854529,51.507041
Zwanendries,14,,,4861EJ,Chaam,Alphen-Chaam,Noord-Brabant,VBO,4.854457,51.507059
Zwanendries,16,,,4861EJ,Chaam,Alphen-Chaam,Noord-Brabant,VBO,4.854312,51.507094
Zwanendries,18,,,4861EJ,Chaam,Alphen-Chaam,Noord-Brabant,VBO,4.854240,51.507121
Zwanendries,20,,,4861EJ,Chaam,Alphen-Chaam,Noord-Brabant,VBO,4.854052,51.507138
Zwanendries,22,,,4861EJ,Chaam,Alphen-Chaam,Noord-Brabant,VBO,4.853951,51.507155
Zwanendries,24,,,4861EJ,Chaam,Alphen-Chaam,Noord-Brabant,VBO,4.853692,51.507181
Zwanendries,30,,,4861EJ,Chaam,Alphen-Chaam,Noord-Brabant,VBO,4.853403,51.507216
Zwanendries,32,,,4861EJ,Chaam,Alphen-Chaam,Noord-Brabant,VBO,4.853331,51.507225
Zwanendries,34,,,4861EJ,Chaam,Alphen-Chaam,Noord-Brabant,VBO,4.853172,51.507242
Zwanendries,36,,,4861EJ,Chaam,Alphen-Chaam,Noord-Brabant,VBO,4.853086,51.507250
Zwanendries,38,,,4861EJ,Chaam,Alphen-Chaam,Noord-Brabant,VBO,4.852898,51.507268
Ganzenbeemd,2,,,4861EK,Chaam,Alphen-Chaam,Noord-Brabant,VBO,4.852153,51.508217
Ganzenbeemd,4,,,4861EK,Chaam,Alphen-Chaam,Noord-Brabant,VBO,4.852155,51.508055
Ganzenbeemd,6,,,4861EK,Chaam,Alphen-Chaam,Noord-Brabant,VBO,4.852201,51.507813
Ganzenbeemd,8,,,4861EK,Chaam,Alphen-Chaam,Noord-Brabant,VBO,4.852116,51.507632
Ganzenbeemd,10,,,4861EK,Chaam,Alphen-Chaam,Noord-Brabant,VBO,4.852177,51.507363
Ganzenbeemd,12,,,4861EK,Chaam,Alphen-Chaam,Noord-Brabant,VBO,4.852181,51.507066
Ganzenbeemd,16,,,4861EK,Chaam,Alphen-Chaam,Noord-Brabant,VBO,4.852056,51.506607
Ganzenbeemd,18,,,4861EK,Chaam,Alphen-Chaam,Noord-Brabant,VBO,4.851886,51.506364
Ganzenbeemd,20,,,4861EK,Chaam,Alphen-Chaam,Noord-Brabant,VBO,4.852233,51.506321
Ganzenbeemd,22,,,4861EK,Chaam,Alphen-Chaam,Noord-Brabant,VBO,4.852492,51.506295
Ganzenbeemd,24,,,4861EK,Chaam,Alphen-Chaam,Noord-Brabant,VBO,4.852781,51.506215
Ganzenbeemd,26,,,4861EK,Chaam,Alphen-Chaam,Noord-Brabant,VBO,4.853055,51.506172
Ganzenbeemd,28,,,4861EK,Chaam,Alphen-Chaam,Noord-Brabant,VBO,4.853359,51.506110
Ganzenbeemd,30,,,4861EK,Chaam,Alphen-Chaam,Noord-Brabant,VBO,4.853676,51.506103
Ganzenbeemd,32,,,4861EK,Chaam,Alphen-Chaam,Noord-Brabant,VBO,4.853978,51.506104
Ganzenbeemd,34,,,4861EK,Chaam,Alphen-Chaam,Noord-Brabant,VBO,4.854349,51.506411
Ganzenbeemd,36,,,4861EK,Chaam,Alphen-Chaam,Noord-Brabant,VBO,4.854448,51.506546
Ganzenbeemd,1,a,,4861EL,Chaam,Alphen-Chaam,Noord-Brabant,VBO,4.852520,51.507616
Ganzenbeemd,1,b,,4861EL,Chaam,Alphen-Chaam,Noord-Brabant,VBO,4.852551,51.507392
Ganzenbeemd,1,,,4861EL,Chaam,Alphen-Chaam,Noord-Brabant,VBO,4.852518,51.507805
Ganzenbeemd,3,,,4861EL,Chaam,Alphen-Chaam,Noord-Brabant,VBO,4.852538,51.507284
Ganzenbeemd,5,,,4861EL,Chaam,Alphen-Chaam,Noord-Brabant,VBO,4.852670,51.507105
Ganzenbeemd,7,,,4861EL,Chaam,Alphen-Chaam,Noord-Brabant,VBO,4.852671,51.507051
Ganzenbeemd,9,,,4861EL,Chaam,Alphen-Chaam,Noord-Brabant,VBO,4.852686,51.506952
Ganzenbeemd,11,,,4861EL,Chaam,Alphen-Chaam,Noord-Brabant,VBO,4.852687,51.506889
Ganzenbeemd,13,,,4861EL,Chaam,Alphen-Chaam,Noord-Brabant,VBO,4.852688,51.506781
Ganzenbeemd,15,,,4861EL,Chaam,Alphen-Chaam,Noord-Brabant,VBO,4.852603,51.506691
Ganzenbeemd,17,,,4861EL,Chaam,Alphen-Chaam,Noord-Brabant,VBO,4.852461,51.506492
Ganzenbeemd,19,,,4861EL,Chaam,Alphen-Chaam,Noord-Brabant,VBO,4.852489,51.506556
Ganzenbeemd,21,,,4861EL,Chaam,Alphen-Chaam,Noord-Brabant,VBO,4.852548,51.506484
Ganzenbeemd,23,,,4861EL,Chaam,Alphen-Chaam,Noord-Brabant,VBO,4.852561,51.506538
Ganzenbeemd,25,,,4861EL,Chaam,Alphen-Chaam,Noord-Brabant,VBO,4.852706,51.506449
Ganzenbeemd,27,,,4861EL,Chaam,Alphen-Chaam,Noord-Brabant,VBO,4.852764,51.506431
Ganzenbeemd,29,,,4861EL,Chaam,Alphen-Chaam,Noord-Brabant,VBO,4.852923,51.506405
Ganzenbeemd,31,,,4861EL,Chaam,Alphen-Chaam,Noord-Brabant,VBO,4.852995,51.506387
Ganzenbeemd,33,,,4861EL,Chaam,Alphen-Chaam,Noord-Brabant,VBO,4.853327,51.506317
Ganzenbeemd,35,,,4861EL,Chaam,Alphen-Chaam,Noord-Brabant,VBO,4.853400,51.506299
Ganzenbeemd,37,,,4861EL,Chaam,Alphen-Chaam,Noord-Brabant,VBO,4.853587,51.506318
Ganzenbeemd,39,,,4861EL,Chaam,Alphen-Chaam,Noord-Brabant,VBO,4.853644,51.506300
Ganzenbeemd,41,,,4861EL,Chaam,Alphen-Chaam,Noord-Brabant,VBO,4.853832,51.506310
Ganzenbeemd,43,,,4861EL,Chaam,Alphen-Chaam,Noord-Brabant,VBO,4.853904,51.506301
Ganzenbeemd,45,,,4861EL,Chaam,Alphen-Chaam,Noord-Brabant,VBO,4.853988,51.506508
Ganzenbeemd,47,,,4861EL,Chaam,Alphen-Chaam,Noord-Brabant,VBO,4.854059,51.506554
Ganzenbeemd,49,,,4861EL,Chaam,Alphen-Chaam,Noord-Brabant,VBO,4.854116,51.506653
Ganzenbeemd,51,,,4861EL,Chaam,Alphen-Chaam,Noord-Brabant,VBO,4.854144,51.506698
Eendendonk,1,,,4861EM,Chaam,Alphen-Chaam,Noord-Brabant,VBO,4.853108,51.506585
Eendendonk,2,,,4861EM,Chaam,Alphen-Chaam,Noord-Brabant,VBO,4.853454,51.506542
Eendendonk,3,,,4861EM,Chaam,Alphen-Chaam,Noord-Brabant,VBO,4.853136,51.506657
Eendendonk,4,,,4861EM,Chaam,Alphen-Chaam,Noord-Brabant,VBO,4.853483,51.506578
Eendendonk,5,,,4861EM,Chaam,Alphen-Chaam,Noord-Brabant,VBO,4.853193,51.506756
Eendendonk,6,,,4861EM,Chaam,Alphen-Chaam,Noord-Brabant,VBO,4.853539,51.506686
Eendendonk,7,,,4861EM,Chaam,Alphen-Chaam,Noord-Brabant,VBO,4.853221,51.506820
Eendendonk,8,,,4861EM,Chaam,Alphen-Chaam,Noord-Brabant,VBO,4.853567,51.506731
Eendendonk,10,,,4861EM,Chaam,Alphen-Chaam,Noord-Brabant,VBO,4.853624,51.506830
Eendendonk,12,,,4861EM,Chaam,Alphen-Chaam,Noord-Brabant,VBO,4.853638,51.506857
Eendendonk,14,,,4861EM,Chaam,Alphen-Chaam,Noord-Brabant,VBO,4.853680,51.506965
Eendendonk,16,,,4861EM,Chaam,Alphen-Chaam,Noord-Brabant,VBO,4.853737,51.507002
Prinsenhof,1,,,4861EN,Chaam,Alphen-Chaam,Noord-Brabant,VBO,4.854966,51.507275
Prinsenhof,2,,,4861EN,Chaam,Alphen-Chaam,Noord-Brabant,VBO,4.855038,51.507423
Prinsenhof,3,,,4861EN,Chaam,Alphen-Chaam,Noord-Brabant,VBO,4.854862,51.507300
Prinsenhof,4,,,4861EN,Chaam,Alphen-Chaam,Noord-Brabant,VBO,4.854958,51.507443
Prinsenhof,5,,,4861EN,Chaam,Alphen-Chaam,Noord-Brabant,VBO,4.854820,51.507313
Prinsenhof,6,,,4861EN,Chaam,Alphen-Chaam,Noord-Brabant,VBO,4.854888,51.507462
Prinsenhof,8,,,4861EN,Chaam,Alphen-Chaam,Noord-Brabant,VBO,4.854829,51.507475
Prinsenhof,10,,,4861EN,Chaam,Alphen-Chaam,Noord-Brabant,VBO,4.854749,51.507499
Meerleseweg,1,,,4861NA,Chaam,Alphen-Chaam,Noord-Brabant,VBO,4.847753,51.511199
Meerleseweg,3,,,4861NA,Chaam,Alphen-Chaam,Noord-Brabant,VBO,4.847533,51.510308
Meerleseweg,5,,,4861NA,Chaam,Alphen-Chaam,Noord-Brabant,VBO,4.846866,51.509424
Meerleseweg,9,,,4861NA,Chaam,Alphen-Chaam,Noord-Brabant,VBO,4.846090,51.508117
Meerleseweg,11,,,4861NA,Chaam,Alphen-Chaam,Noord-Brabant,VBO,4.844734,51.507023
Meerleseweg,13,,,4861NA,Chaam,Alphen-Chaam,Noord-Brabant,VBO,4.844637,51.506708
Meerleseweg,15,,,4861NA,Chaam,Alphen-Chaam,Noord-Brabant,VBO,4.843693,51.504915
Meerleseweg,17,,,4861NA,Chaam,Alphen-Chaam,Noord-Brabant,VBO,4.842370,51.503542
Meerleseweg,19,,,4861NA,Chaam,Alphen-Chaam,Noord-Brabant,VBO,4.841985,51.503271
Meerleseweg,21,a,,4861NA,Chaam,Alphen-Chaam,Noord-Brabant,VBO,4.841477,51.502953
Meerleseweg,21,,,4861NA,Chaam,Alphen-Chaam,Noord-Brabant,VBO,4.840839,51.502762
Meerleseweg,23,,,4861NA,Chaam,Alphen-Chaam,Noord-Brabant,VBO,4.839582,51.501822
Meerleseweg,25,,,4861NA,Chaam,Alphen-Chaam,Noord-Brabant,VBO,4.837758,51.496698
Meerleseweg,27,,,4861NA,Chaam,Alphen-Chaam,Noord-Brabant,VBO,4.836223,51.494992
Meerleseweg,29,,,4861NA,Chaam,Alphen-Chaam,Noord-Brabant,VBO,4.831897,51.491925
Meerleseweg,31,,,4861NA,Chaam,Alphen-Chaam,Noord-Brabant,VBO,4.829805,51.491106
Meerleseweg,33,,,4861NA,Chaam,Alphen-Chaam,Noord-Brabant,VBO,4.828458,51.489775
Meerleseweg,37,,,4861NA,Chaam,Alphen-Chaam,Noord-Brabant,VBO,4.829004,51.488279
Meerleseweg,2,a,,4861NB,Chaam,Alphen-Chaam,Noord-Brabant,VBO,4.847039,51.510674
Meerleseweg,2,,,4861NB,Chaam,Alphen-Chaam,Noord-Brabant,VBO,4.847503,51.511593
Meerleseweg,4,,,4861NB,Chaam,Alphen-Chaam,Noord-Brabant,VBO,4.846857,51.510206
Meerleseweg,6,,,4861NB,Chaam,Alphen-Chaam,Noord-Brabant,VBO,4.845516,51.507926
Meerleseweg,8,,,4861NB,Chaam,Alphen-Chaam,Noord-Brabant,VBO,4.844513,51.507418
Meerleseweg,10,,,4861NB,Chaam,Alphen-Chaam,Noord-Brabant,VBO,4.843617,51.506506
Meerleseweg,12,,,4861NB,Chaam,Alphen-Chaam,Noord-Brabant,VBO,4.842779,51.504335
Meerleseweg,14,,,4861NB,Chaam,Alphen-Chaam,Noord-Brabant,VBO,4.839548,51.502334
Meerleseweg,16,,,4861NB,Chaam,Alphen-Chaam,Noord-Brabant,VBO,4.838808,51.501566
Meerleseweg,18,a,,4861NB,Chaam,Alphen-Chaam,Noord-Brabant,VBO,4.838427,51.500556
Meerleseweg,18,,,4861NB,Chaam,Alphen-Chaam,Noord-Brabant,VBO,4.838101,51.500543
Meerleseweg,20,a,,4861NB,Chaam,Alphen-Chaam,Noord-Brabant,VBO,4.837268,51.496669
Meerleseweg,20,,,4861NB,Chaam,Alphen-Chaam,Noord-Brabant,VBO,4.837326,51.496633
Meerleseweg,22,,,4861NB,Chaam,Alphen-Chaam,Noord-Brabant,VBO,4.834935,51.494366
Meerleseweg,24,,,4861NB,Chaam,Alphen-Chaam,Noord-Brabant,VBO,4.833871,51.493049
Meerleseweg,26,,TRAF,4861NB,Chaam,Alphen-Chaam,Noord-Brabant,VBO,4.827954,51.490539
Oude Bredasebaan,1,,,4861NC,Chaam,Alphen-Chaam,Noord-Brabant,VBO,4.827332,51.501359
Oude Bredasebaan,2,,,4861NC,Chaam,Alphen-Chaam,Noord-Brabant,VBO,4.825860,51.501568
Oude Bredasebaan,3,,,4861NC,Chaam,Alphen-Chaam,Noord-Brabant,VBO,4.830516,51.500089
Oude Bredasebaan,4,,,4861NC,Chaam,Alphen-Chaam,Noord-Brabant,VBO,4.825531,51.501359
Oude Bredasebaan,5,,,4861NC,Chaam,Alphen-Chaam,Noord-Brabant,VBO,4.830716,51.500162
Oude Bredasebaan,7,,,4861NC,Chaam,Alphen-Chaam,Noord-Brabant,VBO,4.832296,51.499378
Oude Bredasebaan,8,,,4861NC,Chaam,Alphen-Chaam,Noord-Brabant,VBO,4.826597,51.501400
Oude Bredasebaan,9,a,,4861NC,Chaam,Alphen-Chaam,Noord-Brabant,VBO,4.839177,51.497208
Oude Bredasebaan,9,,,4861NC,Chaam,Alphen-Chaam,Noord-Brabant,VBO,4.837802,51.497768
Oude Bredasebaan,10,,,4861NC,Chaam,Alphen-Chaam,Noord-Brabant,VBO,4.826859,51.501132
Oude Bredasebaan,11,,,4861NC,Chaam,Alphen-Chaam,Noord-Brabant,VBO,4.842141,51.496251
Oude Bredasebaan,12,,,4861NC,Chaam,Alphen-Chaam,Noord-Brabant,VBO,4.827118,51.501142
Oude Bredasebaan,13,a,,4861NC,Chaam,Alphen-Chaam,Noord-Brabant,VBO,4.844456,51.495318
Oude Bredasebaan,13,,,4861NC,Chaam,Alphen-Chaam,Noord-Brabant,VBO,4.843747,51.495576
Oude Bredasebaan,14,,,4861NC,Chaam,Alphen-Chaam,Noord-Brabant,VBO,4.827525,51.500901
Oude Bredasebaan,15,,,4861NC,Chaam,Alphen-Chaam,Noord-Brabant,VBO,4.845168,51.494818
Oude Bredasebaan,16,,,4861NC,Chaam,Alphen-Chaam,Noord-Brabant,VBO,4.828595,51.500538
Oude Bredasebaan,20,,,4861NC,Chaam,Alphen-Chaam,Noord-Brabant,VBO,4.830216,51.499845
Oude Bredasebaan,22,,,4861NC,Chaam,Alphen-Chaam,Noord-Brabant,VBO,4.836379,51.497591
Oude Bredasebaan,24,,,4861NC,Chaam,Alphen-Chaam,Noord-Brabant,VBO,4.840338,51.496450
Oude Bredasebaan,28,,,4861NC,Chaam,Alphen-Chaam,Noord-Brabant,VBO,4.852477,51.490403
Hemelstraat,1,,,4861ND,Chaam,Alphen-Chaam,Noord-Brabant,VBO,4.831426,51.498664
Hemelstraat,2,,,4861ND,Chaam,Alphen-Chaam,Noord-Brabant,VBO,4.830273,51.496420
Hemelstraat,4,,,4861ND,Chaam,Alphen-Chaam,Noord-Brabant,VBO,4.830219,51.496069
Vagevuurstraat,1,,,4861NE,Chaam,Alphen-Chaam,Noord-Brabant,VBO,4.833509,51.495555
Vagevuurstraat,3,,,4861NE,Chaam,Alphen-Chaam,Noord-Brabant,VBO,4.831140,51.496182
Bleke Heidestraat,1,,,4861NG,Chaam,Alphen-Chaam,Noord-Brabant,VBO,4.835157,51.492659
Bleke Heidestraat,2,,,4861NG,Chaam,Alphen-Chaam,Noord-Brabant,VBO,4.835111,51.490699
Bleke Heidestraat,3,,,4861NG,Chaam,Alphen-Chaam,Noord-Brabant,VBO,4.835962,51.490416
Bleke Heidestraat,4,,,4861NG,Chaam,Alphen-Chaam,Noord-Brabant,VBO,4.835547,51.490162
Kloosterstraat,1,,,4861PA,Chaam,Alphen-Chaam,Noord-Brabant,VBO,4.872955,51.516976
Kloosterstraat,3,a,,4861PA,Chaam,Alphen-Chaam,Noord-Brabant,VBO,4.871538,51.521230
Kloosterstraat,3,,,4861PA,Chaam,Alphen-Chaam,Noord-Brabant,VBO,4.872338,51.519292
Kloosterstraat,5,,,4861PA,Chaam,Alphen-Chaam,Noord-Brabant,VBO,4.870911,51.521892
Kloosterstraat,7,a,,4861PA,Chaam,Alphen-Chaam,Noord-Brabant,VBO,4.871336,51.522523
Kloosterstraat,7,,,4861PA,Chaam,Alphen-Chaam,Noord-Brabant,VBO,4.870995,51.522073
Kloosterstraat,9,,,4861PA,Chaam,Alphen-Chaam,Noord-Brabant,VBO,4.870230,51.523471
Kloosterstraat,11,,,4861PA,Chaam,Alphen-Chaam,Noord-Brabant,VBO,4.871089,51.523916
Kloosterstraat,13,,,4861PA,Chaam,Alphen-Chaam,Noord-Brabant,VBO,4.862950,51.527475
Kloosterstraat,15,a,,4861PA,Chaam,Alphen-Chaam,Noord-Brabant,VBO,4.858822,51.528050
Kloosterstraat,15,b,,4861PA,Chaam,Alphen-Chaam,Noord-Brabant,VBO,4.857265,51.528114
Kloosterstraat,15,,,4861PA,Chaam,Alphen-Chaam,Noord-Brabant,VBO,4.862517,51.527509
Kloosterstraat,17,a,,4861PA,Chaam,Alphen-Chaam,Noord-Brabant,VBO,4.853520,51.529203
Kloosterstraat,17,,,4861PA,Chaam,Alphen-Chaam,Noord-Brabant,VBO,4.855585,51.528835
Kloosterstraat,19,,,4861PA,Chaam,Alphen-Chaam,Noord-Brabant,VBO,4.852493,51.529522
Kloosterstraat,21,,,4861PA,Chaam,Alphen-Chaam,Noord-Brabant,VBO,4.852177,51.529395
Kloosterstraat,23,,,4861PA,Chaam,Alphen-Chaam,Noord-Brabant,VBO,4.851728,51.529617
Kloosterstraat,27,,,4861PA,Chaam,Alphen-Chaam,Noord-Brabant,VBO,4.851049,51.529749
Kloosterstraat,29,,,4861PA,Chaam,Alphen-Chaam,Noord-Brabant,VBO,4.850369,51.529971
Kloosterstraat,31,,,4861PA,Chaam,Alphen-Chaam,Noord-Brabant,VBO,4.847415,51.529975
Kloosterstraat,2,,,4861PB,Chaam,Alphen-Chaam,Noord-Brabant,VBO,4.873721,51.516691
Kloosterstraat,4,,by,4861PB,Chaam,Alphen-Chaam,Noord-Brabant,VBO,4.874243,51.517700
Kloosterstraat,4,,,4861PB,Chaam,Alphen-Chaam,Noord-Brabant,VBO,4.873410,51.517436
Kloosterstraat,6,,,4861PB,Chaam,Alphen-Chaam,Noord-Brabant,VBO,4.873024,51.518459
Kloosterstraat,8,,bis,4861PB,Chaam,Alphen-Chaam,Noord-Brabant,VBO,4.874011,51.519075
Kloosterstraat,8,,,4861PB,Chaam,Alphen-Chaam,Noord-Brabant,VBO,4.872963,51.518800
Kloosterstraat,10,a,,4861PB,Chaam,Alphen-Chaam,Noord-Brabant,VBO,4.864057,51.527687
Kloosterstraat,10,,,4861PB,Chaam,Alphen-Chaam,Noord-Brabant,VBO,4.864405,51.527562
Kloosterstraat,12,,,4861PB,Chaam,Alphen-Chaam,Noord-Brabant,VBO,4.862095,51.527921
Kloosterstraat,14,,,4861PB,Chaam,Alphen-Chaam,Noord-Brabant,VBO,4.860635,51.528273
Kloosterstraat,16,,,4861PB,Chaam,Alphen-Chaam,Noord-Brabant,VBO,4.858703,51.528328
Kloosterstraat,18,,,4861PB,Chaam,Alphen-Chaam,Noord-Brabant,VBO,4.855061,51.529255
Hoge Akkerpad,1,,,4861PC,Chaam,Alphen-Chaam,Noord-Brabant,VBO,4.846060,51.532423
Zandstraat,1,a,,4861PD,Chaam,Alphen-Chaam,Noord-Brabant,VBO,4.855345,51.529652
Zandstraat,1,,,4861PD,Chaam,Alphen-Chaam,Noord-Brabant,VBO,4.855361,51.529517
Zandstraat,2,,,4861PD,Chaam,Alphen-Chaam,Noord-Brabant,VBO,4.855610,51.529186
Zandstraat,3,,,4861PD,Chaam,Alphen-Chaam,Noord-Brabant,VBO,4.855588,51.529779
Zandstraat,4,,,4861PD,Chaam,Alphen-Chaam,Noord-Brabant,VBO,4.855988,51.531300
Zandstraat,5,,,4861PD,Chaam,Alphen-Chaam,Noord-Brabant,VBO,4.855210,51.531278
Zandstraat,7,,,4861PD,Chaam,Alphen-Chaam,Noord-Brabant,VBO,4.854224,51.531786
Zandstraat,9,,,4861PD,Chaam,Alphen-Chaam,Noord-Brabant,VBO,4.853229,51.531862
Zandstraat,11,,,4861PD,Chaam,Alphen-Chaam,Noord-Brabant,VBO,4.853109,51.532230
Zwartlaagweg,2,,,4861PE,Chaam,Alphen-Chaam,Noord-Brabant,VBO,4.857790,51.531245
Bosweg,1,,,4861PG,Chaam,Alphen-Chaam,Noord-Brabant,VBO,4.861537,51.528790
Bosweg,2,,,4861PG,Chaam,Alphen-Chaam,Noord-Brabant,VBO,4.862179,51.529233
Bosweg,4,,,4861PG,Chaam,Alphen-Chaam,Noord-Brabant,VBO,4.862637,51.529419
Snijderseweg,1,a,,4861PJ,Chaam,Alphen-Chaam,Noord-Brabant,VBO,4.854724,51.527249
Snijderseweg,1,,,4861PJ,Chaam,Alphen-Chaam,Noord-Brabant,VBO,4.854334,51.521216
Snijderseweg,2,,,4861PJ,Chaam,Alphen-Chaam,Noord-Brabant,VBO,4.853132,51.515592
Snijderseweg,3,,,4861PJ,Chaam,Alphen-Chaam,Noord-Brabant,VBO,4.854580,51.528498
Snijderseweg,4,,,4861PJ,Chaam,Alphen-Chaam,Noord-Brabant,VBO,4.853558,51.516116
Snijderseweg,5,,,4861PJ,Chaam,Alphen-Chaam,Noord-Brabant,VBO,4.855208,51.529013
Snijderseweg,6,,,4861PJ,Chaam,Alphen-Chaam,Noord-Brabant,VBO,4.853698,51.516440
Snijderseweg,12,a,,4861PJ,Chaam,Alphen-Chaam,Noord-Brabant,VBO,4.854590,51.520228
Snijderseweg,12,,,4861PJ,Chaam,Alphen-Chaam,Noord-Brabant,VBO,4.854215,51.517835
Snijderseweg,14,,,4861PJ,Chaam,Alphen-Chaam,Noord-Brabant,VBO,4.855330,51.522308
Snijderseweg,16,,,4861PJ,Chaam,Alphen-Chaam,Noord-Brabant,VBO,4.855222,51.522874
Snijderseweg,18,,,4861PJ,Chaam,Alphen-Chaam,Noord-Brabant,VBO,4.855362,51.523216
Snijderseweg,20,a,,4861PJ,Chaam,Alphen-Chaam,Noord-Brabant,VBO,4.855876,51.526149
Snijderseweg,20,,,4861PJ,Chaam,Alphen-Chaam,Noord-Brabant,VBO,4.856076,51.524999
Snijderseweg,22,,,4861PJ,Chaam,Alphen-Chaam,Noord-Brabant,VBO,4.855300,51.527279
Snijderseweg,24,,,4861PJ,Chaam,Alphen-Chaam,Noord-Brabant,VBO,4.855017,51.528140
Moleneind,1,a,,4861PK,Chaam,Alphen-Chaam,Noord-Brabant,VBO,4.854602,51.516740
Moleneind,1,b,,4861PK,Chaam,Alphen-Chaam,Noord-Brabant,VBO,4.854474,51.516632
Moleneind,1,,,4861PK,Chaam,Alphen-Chaam,Noord-Brabant,VBO,4.854645,51.516768
Moleneind,2,,,4861PK,Chaam,Alphen-Chaam,Noord-Brabant,VBO,4.854989,51.515682
Moleneind,3,,,4861PK,Chaam,Alphen-Chaam,Noord-Brabant,VBO,4.854527,51.517028
Moleneind,4,,,4861PK,Chaam,Alphen-Chaam,Noord-Brabant,VBO,4.855732,51.517483
Moleneind,5,,,4861PK,Chaam,Alphen-Chaam,Noord-Brabant,VBO,4.854238,51.517062
Zuurstraat,1,a,,4861PL,Chaam,Alphen-Chaam,Noord-Brabant,VBO,4.868243,51.520784
Zuurstraat,1,,,4861PL,Chaam,Alphen-Chaam,Noord-Brabant,VBO,4.870505,51.520839
Zuurstraat,3,,,4861PL,Chaam,Alphen-Chaam,Noord-Brabant,VBO,4.865110,51.520069
Zuurstraat,4,,,4861PL,Chaam,Alphen-Chaam,Noord-Brabant,VBO,4.856897,51.522630
Zuurstraat,5,,,4861PL,Chaam,Alphen-Chaam,Noord-Brabant,VBO,4.866543,51.520767
Gilzeweg,47,,,4861PM,Chaam,Alphen-Chaam,Noord-Brabant,VBO,4.866406,51.510070
Gilzeweg,49,,by,4861PM,Chaam,Alphen-Chaam,Noord-Brabant,VBO,4.866566,51.511221
Gilzeweg,49,,,4861PM,Chaam,Alphen-Chaam,Noord-Brabant,VBO,4.867375,51.511036
Gilzeweg,51,,,4861PM,Chaam,Alphen-Chaam,Noord-Brabant,VBO,4.868912,51.513919
Gilzeweg,55,a,,4861PM,Chaam,Alphen-Chaam,Noord-Brabant,VBO,4.872045,51.515911
Gilzeweg,55,b,,4861PM,Chaam,Alphen-Chaam,Noord-Brabant,VBO,4.872545,51.516210
Gilzeweg,55,c,,4861PM,Chaam,Alphen-Chaam,Noord-Brabant,VBO,4.873047,51.516464
Gilzeweg,55,,,4861PM,Chaam,Alphen-Chaam,Noord-Brabant,VBO,4.871673,51.515604
Gilzeweg,57,a,,4861PM,Chaam,Alphen-Chaam,Noord-Brabant,VBO,4.876527,51.519580
Gilzeweg,57,c,,4861PM,Chaam,Alphen-Chaam,Noord-Brabant,VBO,4.879663,51.521319
Gilzeweg,57,,,4861PM,Chaam,Alphen-Chaam,Noord-Brabant,VBO,4.877558,51.518910
Gilzeweg,59,,,4861PM,Chaam,Alphen-Chaam,Noord-Brabant,VBO,4.882109,51.521618
Verlangenweg,1,,,4861PM,Chaam,Alphen-Chaam,Noord-Brabant,VBO,4.876490,51.526762
Gilzeweg,30,a,,4861PN,Chaam,Alphen-Chaam,Noord-Brabant,VBO,4.868745,51.512157
Gilzeweg,30,,,4861PN,Chaam,Alphen-Chaam,Noord-Brabant,VBO,4.868744,51.512220
Gilzeweg,32,,,4861PN,Chaam,Alphen-Chaam,Noord-Brabant,VBO,4.869414,51.512897
Gilzeweg,34,,,4861PN,Chaam,Alphen-Chaam,Noord-Brabant,VBO,4.869551,51.513491
Gilzeweg,36,a,,4861PN,Chaam,Alphen-Chaam,Noord-Brabant,VBO,4.871149,51.514828
Gilzeweg,36,,,4861PN,Chaam,Alphen-Chaam,Noord-Brabant,VBO,4.869420,51.513625
Gilzeweg,38,,,4861PN,Chaam,Alphen-Chaam,Noord-Brabant,VBO,4.873306,51.515894
Gilzeweg,40,,,4861PN,Chaam,Alphen-Chaam,Noord-Brabant,VBO,4.876275,51.517664
Gilzeweg,42,a,,4861PN,Chaam,Alphen-Chaam,Noord-Brabant,VBO,4.876978,51.517892
Gilzeweg,42,b,01,4861PN,Chaam,Alphen-Chaam,Noord-Brabant,VBO,4.877830,51.517707
Gilzeweg,42,b,02,4861PN,Chaam,Alphen-Chaam,Noord-Brabant,VBO,4.878017,51.517789
Gilzeweg,42,b,03,4861PN,Chaam,Alphen-Chaam,Noord-Brabant,VBO,4.878217,51.517906
Gilzeweg,42,b,05,4861PN,Chaam,Alphen-Chaam,Noord-Brabant,VBO,4.878346,51.517997
Gilzeweg,42,b,06,4861PN,Chaam,Alphen-Chaam,Noord-Brabant,VBO,4.878561,51.518070
Gilzeweg,42,b,07,4861PN,Chaam,Alphen-Chaam,Noord-Brabant,VBO,4.878747,51.518169
Gilzeweg,42,b,08,4861PN,Chaam,Alphen-Chaam,Noord-Brabant,VBO,4.878573,51.518277
Gilzeweg,42,b,09,4861PN,Chaam,Alphen-Chaam,Noord-Brabant,VBO,4.878402,51.518132
Gilzeweg,42,b,10,4861PN,Chaam,Alphen-Chaam,Noord-Brabant,VBO,4.878214,51.518230
Gilzeweg,42,b,11,4861PN,Chaam,Alphen-Chaam,Noord-Brabant,VBO,4.878112,51.518301
Gilzeweg,42,b,12,4861PN,Chaam,Alphen-Chaam,Noord-Brabant,VBO,4.878269,51.518419
Gilzeweg,42,b,13,4861PN,Chaam,Alphen-Chaam,Noord-Brabant,VBO,4.878383,51.518527
Gilzeweg,42,b,14,4861PN,Chaam,Alphen-Chaam,Noord-Brabant,VBO,4.878585,51.518474
Gilzeweg,42,b,15,4861PN,Chaam,Alphen-Chaam,Noord-Brabant,VBO,4.878774,51.518394
Gilzeweg,42,b,16,4861PN,Chaam,Alphen-Chaam,Noord-Brabant,VBO,4.879063,51.518306
Gilzeweg,42,b,17,4861PN,Chaam,Alphen-Chaam,Noord-Brabant,VBO,4.879237,51.518225
Gilzeweg,42,b,18,4861PN,Chaam,Alphen-Chaam,Noord-Brabant,VBO,4.879468,51.518155
Gilzeweg,42,b,19,4861PN,Chaam,Alphen-Chaam,Noord-Brabant,VBO,4.879728,51.518066
Gilzeweg,42,b,20,4861PN,Chaam,Alphen-Chaam,Noord-Brabant,VBO,4.879470,51.517957
Gilzeweg,42,b,21,4861PN,Chaam,Alphen-Chaam,Noord-Brabant,VBO,4.879313,51.517848
Gilzeweg,42,b,22,4861PN,Chaam,Alphen-Chaam,Noord-Brabant,VBO,4.879155,51.517767
Gilzeweg,42,b,23,4861PN,Chaam,Alphen-Chaam,Noord-Brabant,VBO,4.878981,51.517874
Gilzeweg,42,b,24,4861PN,Chaam,Alphen-Chaam,Noord-Brabant,VBO,4.879051,51.518090
Gilzeweg,42,b,25,4861PN,Chaam,Alphen-Chaam,Noord-Brabant,VBO,4.878893,51.517990
Gilzeweg,42,b,26,4861PN,Chaam,Alphen-Chaam,Noord-Brabant,VBO,4.878722,51.517891
Gilzeweg,42,b,27,4861PN,Chaam,Alphen-Chaam,Noord-Brabant,VBO,4.878910,51.517757
Gilzeweg,42,b,28,4861PN,Chaam,Alphen-Chaam,Noord-Brabant,VBO,4.879027,51.517667
Gilzeweg,42,b,29,4861PN,Chaam,Alphen-Chaam,Noord-Brabant,VBO,4.878870,51.517550
Gilzeweg,42,b,30,4861PN,Chaam,Alphen-Chaam,Noord-Brabant,VBO,4.878695,51.517666
Gilzeweg,42,b,31,4861PN,Chaam,Alphen-Chaam,Noord-Brabant,VBO,4.878536,51.517773
Gilzeweg,42,b,32,4861PN,Chaam,Alphen-Chaam,Noord-Brabant,VBO,4.878364,51.517682
Gilzeweg,42,b,33,4861PN,Chaam,Alphen-Chaam,Noord-Brabant,VBO,4.878437,51.517575
Gilzeweg,42,b,34,4861PN,Chaam,Alphen-Chaam,Noord-Brabant,VBO,4.878669,51.517468
Gilzeweg,42,b,35,4861PN,Chaam,Alphen-Chaam,Noord-Brabant,VBO,4.878425,51.517332
Gilzeweg,42,b,36,4861PN,Chaam,Alphen-Chaam,Noord-Brabant,VBO,4.878294,51.517466
Gilzeweg,42,b,37,4861PN,Chaam,Alphen-Chaam,Noord-Brabant,VBO,4.878149,51.517556
Gilzeweg,42,b,38,4861PN,Chaam,Alphen-Chaam,Noord-Brabant,VBO,4.878196,51.517205
Gilzeweg,42,b,39,4861PN,Chaam,Alphen-Chaam,Noord-Brabant,VBO,4.878036,51.517330
Gilzeweg,42,b,40,4861PN,Chaam,Alphen-Chaam,Noord-Brabant,VBO,4.877908,51.517204
Gilzeweg,42,b,41,4861PN,Chaam,Alphen-Chaam,Noord-Brabant,VBO,4.878025,51.517097
Gilzeweg,42,b,42,4861PN,Chaam,Alphen-Chaam,Noord-Brabant,VBO,4.877839,51.516961
Gilzeweg,42,b,43,4861PN,Chaam,Alphen-Chaam,Noord-Brabant,VBO,4.877665,51.517041
Gilzeweg,42,b,44,4861PN,Chaam,Alphen-Chaam,Noord-Brabant,VBO,4.877478,51.516986
Gilzeweg,42,b,45,4861PN,Chaam,Alphen-Chaam,Noord-Brabant,VBO,4.877653,51.516861
Gilzeweg,42,b,46,4861PN,Chaam,Alphen-Chaam,Noord-Brabant,VBO,4.877352,51.516689
Gilzeweg,42,b,47,4861PN,Chaam,Alphen-Chaam,Noord-Brabant,VBO,4.877278,51.516824
Gilzeweg,42,b,48,4861PN,Chaam,Alphen-Chaam,Noord-Brabant,VBO,4.877136,51.516715
Gilzeweg,42,b,49,4861PN,Chaam,Alphen-Chaam,Noord-Brabant,VBO,4.876949,51.516607
Gilzeweg,42,b,50,4861PN,Chaam,Alphen-Chaam,Noord-Brabant,VBO,4.877194,51.516617
Gilzeweg,42,b,51,4861PN,Chaam,Alphen-Chaam,Noord-Brabant,VBO,4.877454,51.516609
Gilzeweg,42,b,52,4861PN,Chaam,Alphen-Chaam,Noord-Brabant,VBO,4.877685,51.516502
Gilzeweg,42,b,53,4861PN,Chaam,Alphen-Chaam,Noord-Brabant,VBO,4.877528,51.516420
Gilzeweg,42,b,54,4861PN,Chaam,Alphen-Chaam,Noord-Brabant,VBO,4.877443,51.516285
Gilzeweg,42,b,55,4861PN,Chaam,Alphen-Chaam,Noord-Brabant,VBO,4.877226,51.516320
Gilzeweg,42,b,56,4861PN,Chaam,Alphen-Chaam,Noord-Brabant,VBO,4.877024,51.516373
Gilzeweg,42,b,57,4861PN,Chaam,Alphen-Chaam,Noord-Brabant,VBO,4.876793,51.516417
Gilzeweg,42,b,58,4861PN,Chaam,Alphen-Chaam,Noord-Brabant,VBO,4.876649,51.516452
Gilzeweg,42,b,59,4861PN,Chaam,Alphen-Chaam,Noord-Brabant,VBO,4.876403,51.516523
Gilzeweg,42,b,60,4861PN,Chaam,Alphen-Chaam,Noord-Brabant,VBO,4.876172,51.516594
Gilzeweg,42,b,61,4861PN,Chaam,Alphen-Chaam,Noord-Brabant,VBO,4.875983,51.516674
Gilzeweg,42,b,62,4861PN,Chaam,Alphen-Chaam,Noord-Brabant,VBO,4.876156,51.516747
Gilzeweg,42,b,63,4861PN,Chaam,Alphen-Chaam,Noord-Brabant,VBO,4.876254,51.516936
Gilzeweg,42,b,65,4861PN,Chaam,Alphen-Chaam,Noord-Brabant,VBO,4.876531,51.516686
Gilzeweg,42,b,66,4861PN,Chaam,Alphen-Chaam,Noord-Brabant,VBO,4.876702,51.516794
Gilzeweg,42,b,67,4861PN,Chaam,Alphen-Chaam,Noord-Brabant,VBO,4.876615,51.516875
Gilzeweg,42,b,68,4861PN,Chaam,Alphen-Chaam,Noord-Brabant,VBO,4.876758,51.517019
Gilzeweg,42,b,69,4861PN,Chaam,Alphen-Chaam,Noord-Brabant,VBO,4.876903,51.516921
Gilzeweg,42,b,70,4861PN,Chaam,Alphen-Chaam,Noord-Brabant,VBO,4.877104,51.516958
Gilzeweg,42,b,71,4861PN,Chaam,Alphen-Chaam,Noord-Brabant,VBO,4.876842,51.517163
Gilzeweg,42,b,72,4861PN,Chaam,Alphen-Chaam,Noord-Brabant,VBO,4.877028,51.517326
Gilzeweg,42,b,73,4861PN,Chaam,Alphen-Chaam,Noord-Brabant,VBO,4.877187,51.517228
Gilzeweg,42,b,74,4861PN,Chaam,Alphen-Chaam,Noord-Brabant,VBO,4.877333,51.517139
Gilzeweg,42,b,,4861PN,Chaam,Alphen-Chaam,Noord-Brabant,VBO,4.877703,51.517473
Gilzeweg,42,,,4861PN,Chaam,Alphen-Chaam,Noord-Brabant,VBO,4.876838,51.517532
Gilzeweg,44,,,4861PN,Chaam,Alphen-Chaam,Noord-Brabant,VBO,4.877191,51.518199
Gilzeweg,46,,,4861PN,Chaam,Alphen-Chaam,Noord-Brabant,VBO,4.878022,51.518607
Gilzeweg,48,,,4861PN,Chaam,Alphen-Chaam,Noord-Brabant,VBO,4.878308,51.518815
Gilzeweg,50,,,4861PN,Chaam,Alphen-Chaam,Noord-Brabant,VBO,4.880084,51.519775
Gilzeweg,52,,,4861PN,Chaam,Alphen-Chaam,Noord-Brabant,VBO,4.882861,51.521360
Industriestraat,1,,,4861PR,Chaam,Alphen-Chaam,Noord-Brabant,VBO,4.879174,51.518675
Industriestraat,2,,,4861PR,Chaam,Alphen-Chaam,Noord-Brabant,VBO,4.878639,51.518798
Industriestraat,3,,,4861PR,Chaam,Alphen-Chaam,Noord-Brabant,VBO,4.879333,51.518576
Industriestraat,4,,,4861PR,Chaam,Alphen-Chaam,Noord-Brabant,VBO,4.878799,51.518736
Industriestraat,5,,,4861PR,Chaam,Alphen-Chaam,Noord-Brabant,VBO,4.879536,51.518514
Industriestraat,6,,,4861PR,Chaam,Alphen-Chaam,Noord-Brabant,VBO,4.878943,51.518692
Industriestraat,7,,,4861PR,Chaam,Alphen-Chaam,Noord-Brabant,VBO,4.879724,51.518479
Industriestraat,8,,,4861PR,Chaam,Alphen-Chaam,Noord-Brabant,VBO,4.879061,51.518503
Industriestraat,9,,,4861PR,Chaam,Alphen-Chaam,Noord-Brabant,VBO,4.879897,51.518444
Industriestraat,10,,,4861PR,Chaam,Alphen-Chaam,Noord-Brabant,VBO,4.879220,51.518432
Industriestraat,12,a,,4861PR,Chaam,Alphen-Chaam,Noord-Brabant,VBO,4.879769,51.518264
Industriestraat,12,,,4861PR,Chaam,Alphen-Chaam,Noord-Brabant,VBO,4.879596,51.518281
Industriestraat,14,a,,4861PR,Chaam,Alphen-Chaam,Noord-Brabant,VBO,4.880144,51.518247
Industriestraat,14,,,4861PR,Chaam,Alphen-Chaam,Noord-Brabant,VBO,4.880001,51.518175
Industriestraat,16,,,4861PR,Chaam,Alphen-Chaam,Noord-Brabant,VBO,4.880287,51.518338
Industriestraat,18,,,4861PR,Chaam,Alphen-Chaam,Noord-Brabant,VBO,4.880576,51.518240
Industriestraat,20,,,4861PR,Chaam,Alphen-Chaam,Noord-Brabant,VBO,4.882312,51.517637
Industriestraat,22,,,4861PR,Chaam,Alphen-Chaam,Noord-Brabant,VBO,4.882413,51.517601
Industriestraat,24,a,,4861PR,Chaam,Alphen-Chaam,Noord-Brabant,VBO,4.884606,51.516926
Industriestraat,24,,,4861PR,Chaam,Alphen-Chaam,Noord-Brabant,VBO,4.883425,51.517264
Industriestraat,26,,,4861PR,Chaam,Alphen-Chaam,Noord-Brabant,VBO,4.883255,51.517020
Industriestraat,28,,,4861PR,Chaam,Alphen-Chaam,Noord-Brabant,VBO,4.884413,51.516576
Industriestraat,30,,,4861PR,Chaam,Alphen-Chaam,Noord-Brabant,VBO,4.885321,51.516526
Industriestraat,32,,TRAF,4861PR,Chaam,Alphen-Chaam,Noord-Brabant,VBO,4.883794,51.516510
Wildertstraat,1,a,,4861PS,Chaam,Alphen-Chaam,Noord-Brabant,VBO,4.873972,51.516180
Wildertstraat,3,,,4861PS,Chaam,Alphen-Chaam,Noord-Brabant,VBO,4.874914,51.514413
Wildertstraat,5,,,4861PS,Chaam,Alphen-Chaam,Noord-Brabant,VBO,4.877499,51.513813
Wildertstraat,7,,,4861PS,Chaam,Alphen-Chaam,Noord-Brabant,VBO,4.875115,51.513165
Wildertstraat,9,,,4861PS,Chaam,Alphen-Chaam,Noord-Brabant,VBO,4.875524,51.512672
Wildertstraat,11,,,4861PS,Chaam,Alphen-Chaam,Noord-Brabant,VBO,4.877731,51.511163
Wildertstraat,13,,,4861PS,Chaam,Alphen-Chaam,Noord-Brabant,VBO,4.877886,51.510130
Wildertstraat,15,,,4861PS,Chaam,Alphen-Chaam,Noord-Brabant,VBO,4.877977,51.508467
Wildertstraat,17,,,4861PS,Chaam,Alphen-Chaam,Noord-Brabant,VBO,4.878879,51.507716
Wildertstraat,19,,,4861PS,Chaam,Alphen-Chaam,Noord-Brabant,VBO,4.879617,51.507405
Wildertstraat,21,,,4861PS,Chaam,Alphen-Chaam,Noord-Brabant,VBO,4.879776,51.507360
Wildertstraat,23,,,4861PS,Chaam,Alphen-Chaam,Noord-Brabant,VBO,4.880671,51.507193
Wildertstraat,25,,,4861PS,Chaam,Alphen-Chaam,Noord-Brabant,VBO,4.880801,51.507158
Wildertstraat,27,,,4861PS,Chaam,Alphen-Chaam,Noord-Brabant,VBO,4.881328,51.506387
Wildertstraat,29,,,4861PS,Chaam,Alphen-Chaam,Noord-Brabant,VBO,4.881530,51.506298
Wildertstraat,31,,by,4861PS,Chaam,Alphen-Chaam,Noord-Brabant,VBO,4.882089,51.506588
Wildertstraat,31,,,4861PS,Chaam,Alphen-Chaam,Noord-Brabant,VBO,4.881905,51.506291
Wildertstraat,33,,01,4861PS,Chaam,Alphen-Chaam,Noord-Brabant,VBO,4.885825,51.505579
Wildertstraat,33,,02,4861PS,Chaam,Alphen-Chaam,Noord-Brabant,VBO,4.885498,51.505686
Wildertstraat,33,,03,4861PS,Chaam,Alphen-Chaam,Noord-Brabant,VBO,4.885424,51.505866
Wildertstraat,33,,04,4861PS,Chaam,Alphen-Chaam,Noord-Brabant,VBO,4.885697,51.505957
Wildertstraat,33,,05,4861PS,Chaam,Alphen-Chaam,Noord-Brabant,VBO,4.885843,51.505742
Wildertstraat,33,,06,4861PS,Chaam,Alphen-Chaam,Noord-Brabant,VBO,4.886143,51.505950
Wildertstraat,33,,07,4861PS,Chaam,Alphen-Chaam,Noord-Brabant,VBO,4.885608,51.506154
Wildertstraat,33,,08,4861PS,Chaam,Alphen-Chaam,Noord-Brabant,VBO,4.885954,51.506138
Wildertstraat,33,,09,4861PS,Chaam,Alphen-Chaam,Noord-Brabant,VBO,4.886285,51.506193
Wildertstraat,33,,10,4861PS,Chaam,Alphen-Chaam,Noord-Brabant,VBO,4.886195,51.506525
Wildertstraat,33,,11,4861PS,Chaam,Alphen-Chaam,Noord-Brabant,VBO,4.885688,51.506730
Wildertstraat,33,,12,4861PS,Chaam,Alphen-Chaam,Noord-Brabant,VBO,4.886049,51.506695
Wildertstraat,33,,13,4861PS,Chaam,Alphen-Chaam,Noord-Brabant,VBO,4.886351,51.506760
Wildertstraat,33,,14,4861PS,Chaam,Alphen-Chaam,Noord-Brabant,VBO,4.885471,51.506828
Wildertstraat,33,,15,4861PS,Chaam,Alphen-Chaam,Noord-Brabant,VBO,4.885686,51.506963
Wildertstraat,33,,16,4861PS,Chaam,Alphen-Chaam,Noord-Brabant,VBO,4.884382,51.506302
Wildertstraat,33,,17,4861PS,Chaam,Alphen-Chaam,Noord-Brabant,VBO,4.884241,51.506067
Wildertstraat,33,,18,4861PS,Chaam,Alphen-Chaam,Noord-Brabant,VBO,4.884081,51.506228
Wildertstraat,33,,19,4861PS,Chaam,Alphen-Chaam,Noord-Brabant,VBO,4.883805,51.506380
Wildertstraat,33,,20,4861PS,Chaam,Alphen-Chaam,Noord-Brabant,VBO,4.883532,51.506370
Wildertstraat,33,,21,4861PS,Chaam,Alphen-Chaam,Noord-Brabant,VBO,4.883375,51.506225
Wildertstraat,33,,22,4861PS,Chaam,Alphen-Chaam,Noord-Brabant,VBO,4.883087,51.506197
Wildertstraat,33,,23,4861PS,Chaam,Alphen-Chaam,Noord-Brabant,VBO,4.882870,51.506313
Wildertstraat,33,,24,4861PS,Chaam,Alphen-Chaam,Noord-Brabant,VBO,4.882554,51.506231
Wildertstraat,33,,25,4861PS,Chaam,Alphen-Chaam,Noord-Brabant,VBO,4.882799,51.506151
Wildertstraat,33,,26,4861PS,Chaam,Alphen-Chaam,Noord-Brabant,VBO,4.883618,51.506112
Wildertstraat,33,,27,4861PS,Chaam,Alphen-Chaam,Noord-Brabant,VBO,4.883429,51.506558
Wildertstraat,33,,28,4861PS,Chaam,Alphen-Chaam,Noord-Brabant,VBO,4.883098,51.506494
Wildertstraat,33,,29,4861PS,Chaam,Alphen-Chaam,Noord-Brabant,VBO,4.882938,51.506628
Wildertstraat,33,,30,4861PS,Chaam,Alphen-Chaam,Noord-Brabant,VBO,4.882469,51.506060
Wildertstraat,33,,31,4861PS,Chaam,Alphen-Chaam,Noord-Brabant,VBO,4.882678,51.506031
Wildertstraat,33,,32,4861PS,Chaam,Alphen-Chaam,Noord-Brabant,VBO,4.883120,51.505856
Wildertstraat,33,,33,4861PS,Chaam,Alphen-Chaam,Noord-Brabant,VBO,4.883349,51.505929
Wildertstraat,33,,34,4861PS,Chaam,Alphen-Chaam,Noord-Brabant,VBO,4.883438,51.505758
Wildertstraat,33,,35,4861PS,Chaam,Alphen-Chaam,Noord-Brabant,VBO,4.883726,51.505706
Wildertstraat,33,,36,4861PS,Chaam,Alphen-Chaam,Noord-Brabant,VBO,4.883839,51.505931
Wildertstraat,33,,37,4861PS,Chaam,Alphen-Chaam,Noord-Brabant,VBO,4.884193,51.506517
Wildertstraat,33,,38,4861PS,Chaam,Alphen-Chaam,Noord-Brabant,VBO,4.884480,51.506581
Wildertstraat,33,,39,4861PS,Chaam,Alphen-Chaam,Noord-Brabant,VBO,4.884683,51.506456
Wildertstraat,33,,40,4861PS,Chaam,Alphen-Chaam,Noord-Brabant,VBO,4.885172,51.506530
Wildertstraat,33,,41,4861PS,Chaam,Alphen-Chaam,Noord-Brabant,VBO,4.884897,51.506601
Wildertstraat,33,,42,4861PS,Chaam,Alphen-Chaam,Noord-Brabant,VBO,4.885199,51.506701
Wildertstraat,33,,43,4861PS,Chaam,Alphen-Chaam,Noord-Brabant,VBO,4.885039,51.506871
Wildertstraat,33,,44,4861PS,Chaam,Alphen-Chaam,Noord-Brabant,VBO,4.885267,51.507043
Wildertstraat,33,,45,4861PS,Chaam,Alphen-Chaam,Noord-Brabant,VBO,4.885526,51.507098
Wildertstraat,33,,46,4861PS,Chaam,Alphen-Chaam,Noord-Brabant,VBO,4.885944,51.507009
Wildertstraat,33,,47,4861PS,Chaam,Alphen-Chaam,Noord-Brabant,VBO,4.886204,51.506948
Wildertstraat,33,,48,4861PS,Chaam,Alphen-Chaam,Noord-Brabant,VBO,4.886959,51.506871
Wildertstraat,33,,49,4861PS,Chaam,Alphen-Chaam,Noord-Brabant,VBO,4.887286,51.506800
Wildertstraat,33,,50,4861PS,Chaam,Alphen-Chaam,Noord-Brabant,VBO,4.887662,51.506738
Wildertstraat,33,,51,4861PS,Chaam,Alphen-Chaam,Noord-Brabant,VBO,4.887498,51.506648
Wildertstraat,33,,52,4861PS,Chaam,Alphen-Chaam,Noord-Brabant,VBO,4.887764,51.506586
Wildertstraat,33,,53,4861PS,Chaam,Alphen-Chaam,Noord-Brabant,VBO,4.887593,51.506423
Wildertstraat,33,,54,4861PS,Chaam,Alphen-Chaam,Noord-Brabant,VBO,4.887964,51.506695
Wildertstraat,33,,55,4861PS,Chaam,Alphen-Chaam,Noord-Brabant,VBO,4.888168,51.506498
Wildertstraat,33,,56,4861PS,Chaam,Alphen-Chaam,Noord-Brabant,VBO,4.887954,51.506335
Wildertstraat,33,,57,4861PS,Chaam,Alphen-Chaam,Noord-Brabant,VBO,4.888303,51.506358
Wildertstraat,33,,58,4861PS,Chaam,Alphen-Chaam,Noord-Brabant,VBO,4.888470,51.506571
Wildertstraat,33,,59,4861PS,Chaam,Alphen-Chaam,Noord-Brabant,VBO,4.888759,51.506518
Wildertstraat,33,,60,4861PS,Chaam,Alphen-Chaam,Noord-Brabant,VBO,4.888558,51.506400
Wildertstraat,33,,61,4861PS,Chaam,Alphen-Chaam,Noord-Brabant,VBO,4.888818,51.506366
Wildertstraat,33,,62,4861PS,Chaam,Alphen-Chaam,Noord-Brabant,VBO,4.888589,51.506230
Wildertstraat,33,,63,4861PS,Chaam,Alphen-Chaam,Noord-Brabant,VBO,4.888906,51.506177
Wildertstraat,33,,64,4861PS,Chaam,Alphen-Chaam,Noord-Brabant,VBO,4.889295,51.505990
Wildertstraat,33,,65,4861PS,Chaam,Alphen-Chaam,Noord-Brabant,VBO,4.889415,51.505775
Wildertstraat,33,,66,4861PS,Chaam,Alphen-Chaam,Noord-Brabant,VBO,4.889432,51.505550
Wildertstraat,33,,67,4861PS,Chaam,Alphen-Chaam,Noord-Brabant,VBO,4.889736,51.505426
Wildertstraat,33,,68,4861PS,Chaam,Alphen-Chaam,Noord-Brabant,VBO,4.889853,51.505264
Wildertstraat,33,,69,4861PS,Chaam,Alphen-Chaam,Noord-Brabant,VBO,4.889522,51.505245
Wildertstraat,33,,70,4861PS,Chaam,Alphen-Chaam,Noord-Brabant,VBO,4.889233,51.505271
Wildertstraat,33,,71,4861PS,Chaam,Alphen-Chaam,Noord-Brabant,VBO,4.888874,51.505179
Wildertstraat,33,,72,4861PS,Chaam,Alphen-Chaam,Noord-Brabant,VBO,4.888613,51.505349
Wildertstraat,33,,73,4861PS,Chaam,Alphen-Chaam,Noord-Brabant,VBO,4.888515,51.505133
Wildertstraat,33,,74,4861PS,Chaam,Alphen-Chaam,Noord-Brabant,VBO,4.888268,51.505258
Wildertstraat,33,,75,4861PS,Chaam,Alphen-Chaam,Noord-Brabant,VBO,4.888112,51.505059
Wildertstraat,33,,76,4861PS,Chaam,Alphen-Chaam,Noord-Brabant,VBO,4.887780,51.505094
Wildertstraat,33,,77,4861PS,Chaam,Alphen-Chaam,Noord-Brabant,VBO,4.887507,51.505075
Wildertstraat,33,,78,4861PS,Chaam,Alphen-Chaam,Noord-Brabant,VBO,4.887249,51.504939
Wildertstraat,33,,79,4861PS,Chaam,Alphen-Chaam,Noord-Brabant,VBO,4.887074,51.505181
Wildertstraat,33,,80,4861PS,Chaam,Alphen-Chaam,Noord-Brabant,VBO,4.887337,51.505300
Wildertstraat,33,,81,4861PS,Chaam,Alphen-Chaam,Noord-Brabant,VBO,4.887014,51.505387
Wildertstraat,33,,82,4861PS,Chaam,Alphen-Chaam,Noord-Brabant,VBO,4.887257,51.505532
Wildertstraat,33,,83,4861PS,Chaam,Alphen-Chaam,Noord-Brabant,VBO,4.886954,51.505594
Wildertstraat,33,,84,4861PS,Chaam,Alphen-Chaam,Noord-Brabant,VBO,4.888035,51.506066
Wildertstraat,33,,85,4861PS,Chaam,Alphen-Chaam,Noord-Brabant,VBO,4.888390,51.505995
Wildertstraat,33,,86,4861PS,Chaam,Alphen-Chaam,Noord-Brabant,VBO,4.888779,51.505997
Wildertstraat,33,,87,4861PS,Chaam,Alphen-Chaam,Noord-Brabant,VBO,4.889097,51.505854
Wildertstraat,33,,88,4861PS,Chaam,Alphen-Chaam,Noord-Brabant,VBO,4.888897,51.505728
Wildertstraat,33,,89,4861PS,Chaam,Alphen-Chaam,Noord-Brabant,VBO,4.888856,51.505548
Wildertstraat,33,,90,4861PS,Chaam,Alphen-Chaam,Noord-Brabant,VBO,4.888507,51.505758
Wildertstraat,33,,91,4861PS,Chaam,Alphen-Chaam,Noord-Brabant,VBO,4.888147,51.505850
Wildertstraat,33,,92,4861PS,Chaam,Alphen-Chaam,Noord-Brabant,VBO,4.888210,51.505669
Wildertstraat,33,,93,4861PS,Chaam,Alphen-Chaam,Noord-Brabant,VBO,4.887786,51.505930
Wildertstraat,33,,94,4861PS,Chaam,Alphen-Chaam,Noord-Brabant,VBO,4.887788,51.505750
Wildertstraat,33,,95,4861PS,Chaam,Alphen-Chaam,Noord-Brabant,VBO,4.887542,51.505636
Wildertstraat,33,,96,4861PS,Chaam,Alphen-Chaam,Noord-Brabant,VBO,4.888208,51.505473
Wildertstraat,33,,97,4861PS,Chaam,Alphen-Chaam,Noord-Brabant,VBO,4.888438,51.505537
Wildertstraat,33,,98,4861PS,Chaam,Alphen-Chaam,Noord-Brabant,VBO,4.884063,51.505551
Wildertstraat,33,,99,4861PS,Chaam,Alphen-Chaam,Noord-Brabant,VBO,4.884346,51.505519
Wildertstraat,33,,by,4861PS,Chaam,Alphen-Chaam,Noord-Brabant,VBO,4.885190,51.505026
Wildertstraat,33,,,4861PS,Chaam,Alphen-Chaam,Noord-Brabant,VBO,4.885267,51.505623
Wildertstraat,35,,,4861PS,Chaam,Alphen-Chaam,Noord-Brabant,VBO,4.885925,51.504834
Wildertstraat,2,a,,4861PT,Chaam,Alphen-Chaam,Noord-Brabant,VBO,4.876009,51.511847
Wildertstraat,2,,,4861PT,Chaam,Alphen-Chaam,Noord-Brabant,VBO,4.874751,51.512844
Wildertstraat,4,,,4861PT,Chaam,Alphen-Chaam,Noord-Brabant,VBO,4.876444,51.511625
Wildertstraat,6,,,4861PT,Chaam,Alphen-Chaam,Noord-Brabant,VBO,4.880723,51.506358
Schuttershoefweg,1,a,,4861PV,Chaam,Alphen-Chaam,Noord-Brabant,VBO,4.869279,51.510784
Schuttershoefweg,1,d,,4861PV,Chaam,Alphen-Chaam,Noord-Brabant,VBO,4.872379,51.510537
Schuttershoefweg,1,,,4861PV,Chaam,Alphen-Chaam,Noord-Brabant,VBO,4.870467,51.511436
Schuttershoefweg,2,,,4861PV,Chaam,Alphen-Chaam,Noord-Brabant,VBO,4.868999,51.510064
Schuttershoefweg,3,,,4861PV,Chaam,Alphen-Chaam,Noord-Brabant,VBO,4.872959,51.510216
Schuttershoefweg,4,a,,4861PV,Chaam,Alphen-Chaam,Noord-Brabant,VBO,4.870467,51.510223
Schuttershoefweg,4,,,4861PV,Chaam,Alphen-Chaam,Noord-Brabant,VBO,4.869845,51.510418
Schuttershoefweg,5,,,4861PV,Chaam,Alphen-Chaam,Noord-Brabant,VBO,4.874372,51.510078
Schuttershoefweg,6,,,4861PV,Chaam,Alphen-Chaam,Noord-Brabant,VBO,4.872568,51.509127
Schuttershoefweg,7,,,4861PV,Chaam,Alphen-Chaam,Noord-Brabant,VBO,4.874907,51.509892
Schuttershoefweg,8,a,by,4861PV,Chaam,Alphen-Chaam,Noord-Brabant,VBO,4.875614,51.508493
Schuttershoefweg,8,a,,4861PV,Chaam,Alphen-Chaam,Noord-Brabant,VBO,4.875882,51.508997
Schuttershoefweg,8,,,4861PV,Chaam,Alphen-Chaam,Noord-Brabant,VBO,4.874767,51.509532
Schuttershoefweg,9,,,4861PV,Chaam,Alphen-Chaam,Noord-Brabant,VBO,4.875616,51.509661
Schuttershoefweg,10,,,4861PV,Chaam,Alphen-Chaam,Noord-Brabant,VBO,4.876911,51.508516
Kerkdreef,1,a,,4861PW,Chaam,Alphen-Chaam,Noord-Brabant,VBO,4.869428,51.506542
Kerkdreef,1,,02,4861PW,Chaam,Alphen-Chaam,Noord-Brabant,VBO,4.868652,51.506440
Kerkdreef,1,,03,4861PW,Chaam,Alphen-Chaam,Noord-Brabant,VBO,4.868696,51.506368
Kerkdreef,1,,05,4861PW,Chaam,Alphen-Chaam,Noord-Brabant,VBO,4.868767,51.506458
Kerkdreef,1,,06,4861PW,Chaam,Alphen-Chaam,Noord-Brabant,VBO,4.868723,51.506521
Kerkdreef,1,,08,4861PW,Chaam,Alphen-Chaam,Noord-Brabant,VBO,4.868547,51.506772
Kerkdreef,1,,09,4861PW,Chaam,Alphen-Chaam,Noord-Brabant,VBO,4.868447,51.506735
Kerkdreef,1,,10,4861PW,Chaam,Alphen-Chaam,Noord-Brabant,VBO,4.868346,51.506708
Kerkdreef,1,,11,4861PW,Chaam,Alphen-Chaam,Noord-Brabant,VBO,4.868237,51.506679
Kerkdreef,1,,13,4861PW,Chaam,Alphen-Chaam,Noord-Brabant,VBO,4.868318,51.506627
Kerkdreef,1,,14,4861PW,Chaam,Alphen-Chaam,Noord-Brabant,VBO,4.868433,51.506663
Kerkdreef,1,,15,4861PW,Chaam,Alphen-Chaam,Noord-Brabant,VBO,4.868608,51.506511
Kerkdreef,1,,16,4861PW,Chaam,Alphen-Chaam,Noord-Brabant,VBO,4.868652,51.506440
Kerkdreef,1,,17,4861PW,Chaam,Alphen-Chaam,Noord-Brabant,VBO,4.868696,51.506368
Kerkdreef,1,,19,4861PW,Chaam,Alphen-Chaam,Noord-Brabant,VBO,4.868767,51.506458
Kerkdreef,1,,20,4861PW,Chaam,Alphen-Chaam,Noord-Brabant,VBO,4.868723,51.506521
Kerkdreef,1,,,4861PW,Chaam,Alphen-Chaam,Noord-Brabant,VBO,4.869428,51.506542
Kerkdreef,2,,,4861PW,Chaam,Alphen-Chaam,Noord-Brabant,VBO,4.874000,51.506023
Kerkdreef,3,,,4861PW,Chaam,Alphen-Chaam,Noord-Brabant,VBO,4.869724,51.507154
Kerkdreef,4,,,4861PW,Chaam,Alphen-Chaam,Noord-Brabant,VBO,4.874370,51.506483
Kerkdreef,5,,,4861PW,Chaam,Alphen-Chaam,Noord-Brabant,VBO,4.870778,51.506916
Kerkdreef,6,a,,4861PW,Chaam,Alphen-Chaam,Noord-Brabant,VBO,4.875307,51.506397
Kerkdreef,6,,,4861PW,Chaam,Alphen-Chaam,Noord-Brabant,VBO,4.874647,51.506186
Kerkdreef,7,,,4861PW,Chaam,Alphen-Chaam,Noord-Brabant,VBO,4.875374,51.506856
Kerkdreef,8,,,4861PW,Chaam,Alphen-Chaam,Noord-Brabant,VBO,4.876997,51.507258
Kerkdreef,9,,,4861PW,Chaam,Alphen-Chaam,Noord-Brabant,VBO,4.875400,51.507063
Dingemansstraat,1,,,4861PX,Chaam,Alphen-Chaam,Noord-Brabant,VBO,4.880928,51.504750
Dingemansstraat,2,,,4861PX,Chaam,Alphen-Chaam,Noord-Brabant,VBO,4.880995,51.505226
Nieuweweg,1,,,4861PZ,Chaam,Alphen-Chaam,Noord-Brabant,VBO,4.874339,51.500262
Nieuweweg,2,a,,4861PZ,Chaam,Alphen-Chaam,Noord-Brabant,VBO,4.880604,51.502807
Nieuweweg,2,,,4861PZ,Chaam,Alphen-Chaam,Noord-Brabant,VBO,4.880187,51.502715
Nieuweweg,3,,,4861PZ,Chaam,Alphen-Chaam,Noord-Brabant,VBO,4.882499,51.503399
Nieuweweg,4,,,4861PZ,Chaam,Alphen-Chaam,Noord-Brabant,VBO,4.882403,51.502940
Nieuweweg,6,,,4861PZ,Chaam,Alphen-Chaam,Noord-Brabant,VBO,4.883726,51.503153
Nieuweweg,8,,,4861PZ,Chaam,Alphen-Chaam,Noord-Brabant,VBO,4.885495,51.503394
Alphensebaan,1,,,4861RA,Chaam,Alphen-Chaam,Noord-Brabant,VBO,4.873839,51.499928
Alphensebaan,2,a,,4861RA,Chaam,Alphen-Chaam,Noord-Brabant,VBO,4.872153,51.499929
Alphensebaan,2,,,4861RA,Chaam,Alphen-Chaam,Noord-Brabant,VBO,4.872007,51.500117
Alphensebaan,3,a,,4861RA,Chaam,Alphen-Chaam,Noord-Brabant,VBO,4.875424,51.499791
Alphensebaan,3,,,4861RA,Chaam,Alphen-Chaam,Noord-Brabant,VBO,4.874574,51.499859
Alphensebaan,4,a,,4861RA,Chaam,Alphen-Chaam,Noord-Brabant,VBO,4.872918,51.499798
Alphensebaan,4,,,4861RA,Chaam,Alphen-Chaam,Noord-Brabant,VBO,4.872514,51.499931
Alphensebaan,5,,,4861RA,Chaam,Alphen-Chaam,Noord-Brabant,VBO,4.875713,51.499747
Alphensebaan,6,,,4861RA,Chaam,Alphen-Chaam,Noord-Brabant,VBO,4.873624,51.499783
Alphensebaan,7,a,,4861RA,Chaam,Alphen-Chaam,Noord-Brabant,VBO,4.877287,51.499350
Alphensebaan,7,b,,4861RA,Chaam,Alphen-Chaam,Noord-Brabant,VBO,4.877790,51.499406
Alphensebaan,7,,,4861RA,Chaam,Alphen-Chaam,Noord-Brabant,VBO,4.876767,51.499509
Alphensebaan,8,a,,4861RA,Chaam,Alphen-Chaam,Noord-Brabant,VBO,4.876483,51.499139
Alphensebaan,8,b,,4861RA,Chaam,Alphen-Chaam,Noord-Brabant,VBO,4.876853,51.498983
Alphensebaan,8,,,4861RA,Chaam,Alphen-Chaam,Noord-Brabant,VBO,4.875906,51.499254
Alphensebaan,9,,,4861RA,Chaam,Alphen-Chaam,Noord-Brabant,VBO,4.878125,51.499146
Alphensebaan,11,,,4861RA,Chaam,Alphen-Chaam,Noord-Brabant,VBO,4.880419,51.498779
Alphensebaan,12,,,4861RA,Chaam,Alphen-Chaam,Noord-Brabant,VBO,4.885465,51.498270
Alphensebaan,13,a,,4861RA,Chaam,Alphen-Chaam,Noord-Brabant,VBO,4.881438,51.499017
Alphensebaan,13,b,,4861RA,Chaam,Alphen-Chaam,Noord-Brabant,VBO,4.883457,51.498810
Alphensebaan,13,,,4861RA,Chaam,Alphen-Chaam,Noord-Brabant,VBO,4.880906,51.498979
Alphensebaan,15,a,,4861RA,Chaam,Alphen-Chaam,Noord-Brabant,VBO,4.890676,51.498454
Alphensebaan,15,b,,4861RA,Chaam,Alphen-Chaam,Noord-Brabant,VBO,4.893257,51.497764
Alphensebaan,15,,,4861RA,Chaam,Alphen-Chaam,Noord-Brabant,VBO,4.885100,51.498736
Alphensebaan,16,,,4861RA,Chaam,Alphen-Chaam,Noord-Brabant,VBO,4.886892,51.498097
Alphensebaan,17,,,4861RA,Chaam,Alphen-Chaam,Noord-Brabant,VBO,4.905979,51.495799
Alphensebaan,18,,,4861RA,Chaam,Alphen-Chaam,Noord-Brabant,VBO,4.890509,51.497878
Alphensebaan,20,,,4861RA,Chaam,Alphen-Chaam,Noord-Brabant,VBO,4.891174,51.497657
Putvenweg,5,,,4861RB,Chaam,Alphen-Chaam,Noord-Brabant,VBO,4.905016,51.501526
Flaasdijk,1,,101,4861RC,Chaam,Alphen-Chaam,Noord-Brabant,VBO,4.894947,51.491030
Flaasdijk,1,,104,4861RC,Chaam,Alphen-Chaam,Noord-Brabant,VBO,4.894087,51.492042
Flaasdijk,1,,105,4861RC,Chaam,Alphen-Chaam,Noord-Brabant,VBO,4.893969,51.492257
Flaasdijk,1,,151,4861RC,Chaam,Alphen-Chaam,Noord-Brabant,VBO,4.889805,51.487411
Flaasdijk,1,,157,4861RC,Chaam,Alphen-Chaam,Noord-Brabant,VBO,4.890108,51.487144
Flaasdijk,1,,16,4861RC,Chaam,Alphen-Chaam,Noord-Brabant,VBO,4.891682,51.494638
Flaasdijk,1,,164,4861RC,Chaam,Alphen-Chaam,Noord-Brabant,VBO,4.890416,51.486902
Flaasdijk,1,,17,4861RC,Chaam,Alphen-Chaam,Noord-Brabant,VBO,4.891293,51.494682
Flaasdijk,1,,170,4861RC,Chaam,Alphen-Chaam,Noord-Brabant,VBO,4.890675,51.486625
Flaasdijk,1,,175,4861RC,Chaam,Alphen-Chaam,Noord-Brabant,VBO,4.890951,51.486393
Flaasdijk,1,,176,4861RC,Chaam,Alphen-Chaam,Noord-Brabant,VBO,4.890825,51.486140
Flaasdijk,1,,18,4861RC,Chaam,Alphen-Chaam,Noord-Brabant,VBO,4.890889,51.494743
Flaasdijk,1,,41,4861RC,Chaam,Alphen-Chaam,Noord-Brabant,VBO,4.890456,51.494831
Flaasdijk,1,,42,4861RC,Chaam,Alphen-Chaam,Noord-Brabant,VBO,4.890096,51.494901
Flaasdijk,1,,43,4861RC,Chaam,Alphen-Chaam,Noord-Brabant,VBO,4.889662,51.495016
Flaasdijk,1,,44,4861RC,Chaam,Alphen-Chaam,Noord-Brabant,VBO,4.889344,51.495114
Flaasdijk,1,,45,4861RC,Chaam,Alphen-Chaam,Noord-Brabant,VBO,4.888969,51.495229
Flaasdijk,1,,46,4861RC,Chaam,Alphen-Chaam,Noord-Brabant,VBO,4.888606,51.495443
Flaasdijk,1,,47,4861RC,Chaam,Alphen-Chaam,Noord-Brabant,VBO,4.888245,51.495595
Flaasdijk,1,,48,4861RC,Chaam,Alphen-Chaam,Noord-Brabant,VBO,4.887855,51.495674
Flaasdijk,1,,49,4861RC,Chaam,Alphen-Chaam,Noord-Brabant,VBO,4.887451,51.495735
Flaasdijk,1,,50,4861RC,Chaam,Alphen-Chaam,Noord-Brabant,VBO,4.887033,51.495805
Flaasdijk,1,,51,4861RC,Chaam,Alphen-Chaam,Noord-Brabant,VBO,4.894208,51.492797
Flaasdijk,1,,52,4861RC,Chaam,Alphen-Chaam,Noord-Brabant,VBO,4.893994,51.492572
Flaasdijk,1,,61,4861RC,Chaam,Alphen-Chaam,Noord-Brabant,VBO,4.893256,51.492937
Flaasdijk,1,,74,4861RC,Chaam,Alphen-Chaam,Noord-Brabant,VBO,4.894306,51.491755
Flaasdijk,1,,75,4861RC,Chaam,Alphen-Chaam,Noord-Brabant,VBO,4.894412,51.491279
Flaasdijk,1,,83,4861RC,Chaam,Alphen-Chaam,Noord-Brabant,VBO,4.895195,51.490734
Flaasdijk,1,,84,4861RC,Chaam,Alphen-Chaam,Noord-Brabant,VBO,4.894779,51.490607
Flaasdijk,1,,85,4861RC,Chaam,Alphen-Chaam,Noord-Brabant,VBO,4.894423,51.490246
Flaasdijk,1,,89,4861RC,Chaam,Alphen-Chaam,Noord-Brabant,VBO,4.893715,51.493101
Flaasdijk,1,,,4861RC,Chaam,Alphen-Chaam,Noord-Brabant,VBO,4.895367,51.491098
Flaasdijk,2,,,4861RC,Chaam,Alphen-Chaam,Noord-Brabant,VBO,4.899053,51.493495
Flaasdijk,3,,,4861RC,Chaam,Alphen-Chaam,Noord-Brabant,VBO,4.898366,51.491712
Sluisstraat,1,,,4861RD,Chaam,Alphen-Chaam,Noord-Brabant,VBO,4.881621,51.496878
Sluisstraat,2,a,,4861RD,Chaam,Alphen-Chaam,Noord-Brabant,VBO,4.880196,51.498041
Sluisstraat,2,,,4861RD,Chaam,Alphen-Chaam,Noord-Brabant,VBO,4.880122,51.498274
Sluisstraat,3,,,4861RD,Chaam,Alphen-Chaam,Noord-Brabant,VBO,4.886291,51.491245
Sluisstraat,4,,,4861RD,Chaam,Alphen-Chaam,Noord-Brabant,VBO,4.881480,51.496599
Sluisstraat,6,,,4861RD,Chaam,Alphen-Chaam,Noord-Brabant,VBO,4.887188,51.489496
Schaanstraat,1,,,4861RE,Chaam,Alphen-Chaam,Noord-Brabant,VBO,4.876702,51.493738
Schaanstraat,2,a,,4861RE,Chaam,Alphen-Chaam,Noord-Brabant,VBO,4.877800,51.492143
Schaanstraat,2,,,4861RE,Chaam,Alphen-Chaam,Noord-Brabant,VBO,4.877567,51.492375
Schaanstraat,3,,by,4861RE,Chaam,Alphen-Chaam,Noord-Brabant,VBO,4.878073,51.493465
Schaanstraat,3,,,4861RE,Chaam,Alphen-Chaam,Noord-Brabant,VBO,4.877872,51.493393
Schaanstraat,5,,,4861RE,Chaam,Alphen-Chaam,Noord-Brabant,VBO,4.877834,51.492970
Schaanstraat,7,,,4861RE,Chaam,Alphen-Chaam,Noord-Brabant,VBO,4.878199,51.492477
Schaanstraat,9,,,4861RE,Chaam,Alphen-Chaam,Noord-Brabant,VBO,4.881436,51.492743
Schaanstraat,11,,,4861RE,Chaam,Alphen-Chaam,Noord-Brabant,VBO,4.884165,51.492045
Schaanstraat,13,,,4861RE,Chaam,Alphen-Chaam,Noord-Brabant,VBO,4.884187,51.491379
Baarleseweg,47,,,4861RG,Chaam,Alphen-Chaam,Noord-Brabant,VBO,4.874688,51.494853
Baarleseweg,49,,by,4861RG,Chaam,Alphen-Chaam,Noord-Brabant,VBO,4.875574,51.494129
Baarleseweg,49,,,4861RG,Chaam,Alphen-Chaam,Noord-Brabant,VBO,4.875114,51.494073
Baarleseweg,51,,,4861RG,Chaam,Alphen-Chaam,Noord-Brabant,VBO,4.877867,51.491307
Baarleseweg,53,,,4861RG,Chaam,Alphen-Chaam,Noord-Brabant,VBO,4.877954,51.491236
Baarleseweg,50,a,,4861RH,Chaam,Alphen-Chaam,Noord-Brabant,VBO,4.870821,51.499348
Baarleseweg,50,b,,4861RH,Chaam,Alphen-Chaam,Noord-Brabant,VBO,4.872380,51.496461
Baarleseweg,50,,,4861RH,Chaam,Alphen-Chaam,Noord-Brabant,VBO,4.870960,51.499798
Baarleseweg,52,a,,4861RH,Chaam,Alphen-Chaam,Noord-Brabant,VBO,4.873314,51.495341
Baarleseweg,52,a,,4861RH,Chaam,Alphen-Chaam,Noord-Brabant,VBO,4.873320,51.495811
Baarleseweg,52,,01,4861RH,Chaam,Alphen-Chaam,Noord-Brabant,VBO,4.873402,51.495405
Baarleseweg,52,,02,4861RH,Chaam,Alphen-Chaam,Noord-Brabant,VBO,4.873291,51.495469
Baarleseweg,52,,03,4861RH,Chaam,Alphen-Chaam,Noord-Brabant,VBO,4.873467,51.495382
Baarleseweg,52,,04,4861RH,Chaam,Alphen-Chaam,Noord-Brabant,VBO,4.873255,51.495412
Baarleseweg,52,,05,4861RH,Chaam,Alphen-Chaam,Noord-Brabant,VBO,4.873370,51.495492
Baarleseweg,52,,06,4861RH,Chaam,Alphen-Chaam,Noord-Brabant,VBO,4.873178,51.495415
Baarleseweg,52,,07,4861RH,Chaam,Alphen-Chaam,Noord-Brabant,VBO,4.873124,51.495395
Baarleseweg,52,,08,4861RH,Chaam,Alphen-Chaam,Noord-Brabant,VBO,4.873068,51.495378
Baarleseweg,52,,09,4861RH,Chaam,Alphen-Chaam,Noord-Brabant,VBO,4.873007,51.495353
Baarleseweg,52,,10,4861RH,Chaam,Alphen-Chaam,Noord-Brabant,VBO,4.872947,51.495332
Baarleseweg,52,,11,4861RH,Chaam,Alphen-Chaam,Noord-Brabant,VBO,4.873517,51.495323
Baarleseweg,52,,12,4861RH,Chaam,Alphen-Chaam,Noord-Brabant,VBO,4.873548,51.495288
Baarleseweg,52,,13,4861RH,Chaam,Alphen-Chaam,Noord-Brabant,VBO,4.873582,51.495257
Baarleseweg,52,,14,4861RH,Chaam,Alphen-Chaam,Noord-Brabant,VBO,4.873619,51.495218
Baarleseweg,52,,15,4861RH,Chaam,Alphen-Chaam,Noord-Brabant,VBO,4.873650,51.495183
Baarleseweg,52,,16,4861RH,Chaam,Alphen-Chaam,Noord-Brabant,VBO,4.873681,51.495150
Baarleseweg,52,,17,4861RH,Chaam,Alphen-Chaam,Noord-Brabant,VBO,4.873128,51.495378
Baarleseweg,52,,18,4861RH,Chaam,Alphen-Chaam,Noord-Brabant,VBO,4.873073,51.495363
Baarleseweg,52,,19,4861RH,Chaam,Alphen-Chaam,Noord-Brabant,VBO,4.872957,51.495320
Baarleseweg,52,,20,4861RH,Chaam,Alphen-Chaam,Noord-Brabant,VBO,4.873465,51.495307
Baarleseweg,52,,21,4861RH,Chaam,Alphen-Chaam,Noord-Brabant,VBO,4.873523,51.495236
Baarleseweg,52,,22,4861RH,Chaam,Alphen-Chaam,Noord-Brabant,VBO,4.873577,51.495202
Baarleseweg,52,,,4861RH,Chaam,Alphen-Chaam,Noord-Brabant,VBO,4.873264,51.495943
Baarleseweg,54,,,4861RH,Chaam,Alphen-Chaam,Noord-Brabant,VBO,4.874055,51.492216
Baarleseweg,56,,,4861RH,Chaam,Alphen-Chaam,Noord-Brabant,VBO,4.872987,51.491196
Baarleseweg,58,,,4861RH,Chaam,Alphen-Chaam,Noord-Brabant,VBO,4.873418,51.491261
Baarleseweg,60,,,4861RH,Chaam,Alphen-Chaam,Noord-Brabant,VBO,4.876046,51.491874
Baarleseweg,62,,,4861RH,Chaam,Alphen-Chaam,Noord-Brabant,VBO,4.878601,51.490025
Baarleseweg,64,,,4861RH,Chaam,Alphen-Chaam,Noord-Brabant,VBO,4.880888,51.487644
Baarleseweg,66,,,4861RH,Chaam,Alphen-Chaam,Noord-Brabant,VBO,4.881258,51.486791
Baarleseweg,68,,,4861RH,Chaam,Alphen-Chaam,Noord-Brabant,VBO,4.890623,51.478274
Leerdreef,1,,,4861RJ,Chaam,Alphen-Chaam,Noord-Brabant,VBO,4.894375,51.482713
Leerdreef,3,,,4861RJ,Chaam,Alphen-Chaam,Noord-Brabant,VBO,4.894181,51.483305
Legstraat,1,a,,4861RK,Chaam,Alphen-Chaam,Noord-Brabant,VBO,4.861268,51.498542
Legstraat,1,b,,4861RK,Chaam,Alphen-Chaam,Noord-Brabant,VBO,4.864390,51.497459
Legstraat,2,a,,4861RK,Chaam,Alphen-Chaam,Noord-Brabant,VBO,4.861347,51.497895
Legstraat,2,,,4861RK,Chaam,Alphen-Chaam,Noord-Brabant,VBO,4.861084,51.498181
Legstraat,3,a,,4861RK,Chaam,Alphen-Chaam,Noord-Brabant,VBO,4.868635,51.495266
Legstraat,3,,,4861RK,Chaam,Alphen-Chaam,Noord-Brabant,VBO,4.865128,51.497147
Legstraat,4,,,4861RK,Chaam,Alphen-Chaam,Noord-Brabant,VBO,4.862267,51.497980
Legstraat,5,,,4861RK,Chaam,Alphen-Chaam,Noord-Brabant,VBO,4.869344,51.494973
Legstraat,6,,,4861RK,Chaam,Alphen-Chaam,Noord-Brabant,VBO,4.863021,51.497614
Legstraat,7,,,4861RK,Chaam,Alphen-Chaam,Noord-Brabant,VBO,4.869978,51.494904
Legstraat,8,a,,4861RK,Chaam,Alphen-Chaam,Noord-Brabant,VBO,4.866913,51.495951
Legstraat,8,,,4861RK,Chaam,Alphen-Chaam,Noord-Brabant,VBO,4.866754,51.496040
Legstraat,10,,,4861RK,Chaam,Alphen-Chaam,Noord-Brabant,VBO,4.868119,51.495093
Legstraat,12,,,4861RK,Chaam,Alphen-Chaam,Noord-Brabant,VBO,4.870544,51.494529
Legstraat,14,a,,4861RK,Chaam,Alphen-Chaam,Noord-Brabant,VBO,4.873199,51.494073
Legstraat,14,,,4861RK,Chaam,Alphen-Chaam,Noord-Brabant,VBO,4.872609,51.493999
Legstraat,16,a,,4861RK,Chaam,Alphen-Chaam,Noord-Brabant,VBO,4.874079,51.493942
Legstraat,16,,,4861RK,Chaam,Alphen-Chaam,Noord-Brabant,VBO,4.873964,51.493933
Legstraat,20,,,4861RK,Chaam,Alphen-Chaam,Noord-Brabant,VBO,4.874584,51.493873
Goordijkstraat,1,,,4861RL,Chaam,Alphen-Chaam,Noord-Brabant,VBO,4.869492,51.490803
Goordijkstraat,2,,,4861RL,Chaam,Alphen-Chaam,Noord-Brabant,VBO,4.867398,51.491378
Goordijkstraat,3,,,4861RL,Chaam,Alphen-Chaam,Noord-Brabant,VBO,4.869408,51.490605
Goordijkstraat,4,,,4861RL,Chaam,Alphen-Chaam,Noord-Brabant,VBO,4.866258,51.490303
Goordijkstraat,5,,,4861RL,Chaam,Alphen-Chaam,Noord-Brabant,VBO,4.867837,51.484422
Oude Baan,1,,,4861RM,Chaam,Alphen-Chaam,Noord-Brabant,VBO,4.863080,51.488734
Oude Baan,2,,,4861RM,Chaam,Alphen-Chaam,Noord-Brabant,VBO,4.864999,51.485884
Oude Baan,3,a,,4861RM,Chaam,Alphen-Chaam,Noord-Brabant,VBO,4.863993,51.488163
Oude Baan,3,,,4861RM,Chaam,Alphen-Chaam,Noord-Brabant,VBO,4.863820,51.488252
Oude Baan,4,,,4861RM,Chaam,Alphen-Chaam,Noord-Brabant,VBO,4.866625,51.484633
Oude Baan,5,,,4861RM,Chaam,Alphen-Chaam,Noord-Brabant,VBO,4.864257,51.487768
Oude Baan,7,,,4861RM,Chaam,Alphen-Chaam,Noord-Brabant,VBO,4.865182,51.486208
Oude Baan,9,,,4861RM,Chaam,Alphen-Chaam,Noord-Brabant,VBO,4.867885,51.483991
Oude Baan,11,,,4861RM,Chaam,Alphen-Chaam,Noord-Brabant,VBO,4.870196,51.482069
Houtgoorstraat,1,,,4861RN,Chaam,Alphen-Chaam,Noord-Brabant,VBO,4.864729,51.491824
Houtgoorstraat,2,,,4861RN,Chaam,Alphen-Chaam,Noord-Brabant,VBO,4.868031,51.493906
Houtgoorstraat,3,,,4861RN,Chaam,Alphen-Chaam,Noord-Brabant,VBO,4.860228,51.491523
Houtgoorstraat,4,a,,4861RN,Chaam,Alphen-Chaam,Noord-Brabant,VBO,4.865687,51.492404
Houtgoorstraat,4,,,4861RN,Chaam,Alphen-Chaam,Noord-Brabant,VBO,4.866287,51.492784
Houtgoorstraat,6,,,4861RN,Chaam,Alphen-Chaam,Noord-Brabant,VBO,4.864092,51.492118
Houtgoorstraat,8,,,4861RN,Chaam,Alphen-Chaam,Noord-Brabant,VBO,4.863976,51.492163
Houtgoorstraat,12,,,4861RN,Chaam,Alphen-Chaam,Noord-Brabant,VBO,4.863487,51.492160
Houtgoorstraat,14,,,4861RN,Chaam,Alphen-Chaam,Noord-Brabant,VBO,4.862652,51.492148
Houtgoorstraat,16,,,4861RN,Chaam,Alphen-Chaam,Noord-Brabant,VBO,4.862119,51.492127
Dekkersstraat,1,,,4861RP,Chaam,Alphen-Chaam,Noord-Brabant,VBO,4.858664,51.493325
Dekkersstraat,2,,,4861RP,Chaam,Alphen-Chaam,Noord-Brabant,VBO,4.858834,51.493542
Dekkersstraat,4,,,4861RP,Chaam,Alphen-Chaam,Noord-Brabant,VBO,4.856600,51.493738
Dekkersstraat,6,,,4861RP,Chaam,Alphen-Chaam,Noord-Brabant,VBO,4.853574,51.491441
Ulicotenseweg,1,,,4861RR,Chaam,Alphen-Chaam,Noord-Brabant,VBO,4.864609,51.503509
Ulicotenseweg,3,,,4861RR,Chaam,Alphen-Chaam,Noord-Brabant,VBO,4.864537,51.503491
Ulicotenseweg,5,,,4861RR,Chaam,Alphen-Chaam,Noord-Brabant,VBO,4.864336,51.503436
Ulicotenseweg,7,,,4861RR,Chaam,Alphen-Chaam,Noord-Brabant,VBO,4.864178,51.503408
Ulicotenseweg,9,a,,4861RR,Chaam,Alphen-Chaam,Noord-Brabant,VBO,4.863919,51.503353
Ulicotenseweg,9,,,4861RR,Chaam,Alphen-Chaam,Noord-Brabant,VBO,4.863876,51.503389
Ulicotenseweg,11,a,,4861RR,Chaam,Alphen-Chaam,Noord-Brabant,VBO,4.863473,51.503306
Ulicotenseweg,11,,,4861RR,Chaam,Alphen-Chaam,Noord-Brabant,VBO,4.863689,51.503334
Ulicotenseweg,13,a,,4861RR,Chaam,Alphen-Chaam,Noord-Brabant,VBO,4.863072,51.503179
Ulicotenseweg,13,b,,4861RR,Chaam,Alphen-Chaam,Noord-Brabant,VBO,4.862943,51.503061
Ulicotenseweg,13,,,4861RR,Chaam,Alphen-Chaam,Noord-Brabant,VBO,4.863300,51.503342
Ulicotenseweg,15,a,,4861RR,Chaam,Alphen-Chaam,Noord-Brabant,VBO,4.862758,51.502863
Ulicotenseweg,15,,,4861RR,Chaam,Alphen-Chaam,Noord-Brabant,VBO,4.862844,51.502953
Ulicotenseweg,17,,,4861RR,Chaam,Alphen-Chaam,Noord-Brabant,VBO,4.862645,51.502745
Ulicotenseweg,19,a,,4861RR,Chaam,Alphen-Chaam,Noord-Brabant,VBO,4.862405,51.502322
Ulicotenseweg,19,b,,4861RR,Chaam,Alphen-Chaam,Noord-Brabant,VBO,4.862321,51.502052
Ulicotenseweg,19,c,,4861RR,Chaam,Alphen-Chaam,Noord-Brabant,VBO,4.862151,51.501853
Ulicotenseweg,19,d,,4861RR,Chaam,Alphen-Chaam,Noord-Brabant,VBO,4.862123,51.501727
Ulicotenseweg,19,,,4861RR,Chaam,Alphen-Chaam,Noord-Brabant,VBO,4.862516,51.502619
Ulicotenseweg,21,a,,4861RR,Chaam,Alphen-Chaam,Noord-Brabant,VBO,4.862011,51.501502
Ulicotenseweg,21,,,4861RR,Chaam,Alphen-Chaam,Noord-Brabant,VBO,4.862111,51.501592
Ulicotenseweg,23,,,4861RS,Chaam,Alphen-Chaam,Noord-Brabant,VBO,4.862491,51.501109
Ulicotenseweg,25,,,4861RS,Chaam,Alphen-Chaam,Noord-Brabant,VBO,4.861691,51.500521
Ulicotenseweg,27,,,4861RS,Chaam,Alphen-Chaam,Noord-Brabant,VBO,4.861592,51.500368
Ulicotenseweg,29,,,4861RS,Chaam,Alphen-Chaam,Noord-Brabant,VBO,4.861507,51.500205
Ulicotenseweg,31,a,,4861RS,Chaam,Alphen-Chaam,Noord-Brabant,VBO,4.861197,51.499638
Ulicotenseweg,31,b,,4861RS,Chaam,Alphen-Chaam,Noord-Brabant,VBO,4.861149,51.492554
Ulicotenseweg,31,,,4861RS,Chaam,Alphen-Chaam,Noord-Brabant,VBO,4.861211,51.499692
Ulicotenseweg,33,,,4861RS,Chaam,Alphen-Chaam,Noord-Brabant,VBO,4.862168,51.491660
Ulicotenseweg,35,,,4861RS,Chaam,Alphen-Chaam,Noord-Brabant,VBO,4.862301,51.491328
Ulicotenseweg,37,a,,4861RS,Chaam,Alphen-Chaam,Noord-Brabant,VBO,4.863188,51.489354
Ulicotenseweg,37,,,4861RS,Chaam,Alphen-Chaam,Noord-Brabant,VBO,4.862683,51.489379
Ulicotenseweg,39,,,4861RS,Chaam,Alphen-Chaam,Noord-Brabant,VBO,4.862812,51.488220
Ulicotenseweg,41,,,4861RS,Chaam,Alphen-Chaam,Noord-Brabant,VBO,4.862031,51.487237
Ulicotenseweg,43,,,4861RS,Chaam,Alphen-Chaam,Noord-Brabant,VBO,4.861336,51.480865
Ulicotenseweg,4,,,4861RT,Chaam,Alphen-Chaam,Noord-Brabant,VBO,4.863626,51.503837
Ulicotenseweg,6,,,4861RT,Chaam,Alphen-Chaam,Noord-Brabant,VBO,4.863615,51.503559
Ulicotenseweg,10,,,4861RT,Chaam,Alphen-Chaam,Noord-Brabant,VBO,4.863212,51.503530
Ulicotenseweg,14,,,4861RT,Chaam,Alphen-Chaam,Noord-Brabant,VBO,4.862510,51.503149
Ulicotenseweg,16,,,4861RT,Chaam,Alphen-Chaam,Noord-Brabant,VBO,4.862453,51.503086
Ulicotenseweg,18,,,4861RT,Chaam,Alphen-Chaam,Noord-Brabant,VBO,4.862325,51.502960
Ulicotenseweg,20,,,4861RT,Chaam,Alphen-Chaam,Noord-Brabant,VBO,4.862211,51.502842
Ulicotenseweg,22,,,4861RT,Chaam,Alphen-Chaam,Noord-Brabant,VBO,4.862040,51.502743
Ulicotenseweg,24,,,4861RT,Chaam,Alphen-Chaam,Noord-Brabant,VBO,4.861885,51.502427
Ulicotenseweg,26,a,,4861RT,Chaam,Alphen-Chaam,Noord-Brabant,VBO,4.861617,51.501941
Ulicotenseweg,26,,,4861RT,Chaam,Alphen-Chaam,Noord-Brabant,VBO,4.861643,51.502148
Ulicotenseweg,28,,,4861RT,Chaam,Alphen-Chaam,Noord-Brabant,VBO,4.861620,51.501671
Ulicotenseweg,30,,,4861RT,Chaam,Alphen-Chaam,Noord-Brabant,VBO,4.861482,51.501140
Ulicotenseweg,32,,,4861RT,Chaam,Alphen-Chaam,Noord-Brabant,VBO,4.861170,51.500725
Ulicotenseweg,34,,,4861RT,Chaam,Alphen-Chaam,Noord-Brabant,VBO,4.861173,51.500510
Ulicotenseweg,36,,,4861RT,Chaam,Alphen-Chaam,Noord-Brabant,VBO,4.860160,51.498384
Ulicotenseweg,38,,,4861RT,Chaam,Alphen-Chaam,Noord-Brabant,VBO,4.859988,51.497106
Ulicotenseweg,40,,,4861RT,Chaam,Alphen-Chaam,Noord-Brabant,VBO,4.859905,51.493106
Ulicotenseweg,42,,,4861RT,Chaam,Alphen-Chaam,Noord-Brabant,VBO,4.860342,51.492605
Ulicotenseweg,44,,,4861RT,Chaam,Alphen-Chaam,Noord-Brabant,VBO,4.860735,51.492265
Ulicotenseweg,46,,,4861RT,Chaam,Alphen-Chaam,Noord-Brabant,VBO,4.861982,51.490152
Ulicotenseweg,48,,,4861RT,Chaam,Alphen-Chaam,Noord-Brabant,VBO,4.862357,51.489000
Ulicotenseweg,50,,,4861RT,Chaam,Alphen-Chaam,Noord-Brabant,VBO,4.860653,51.484453
Raadhuisplein,1,,,4861RV,Chaam,Alphen-Chaam,Noord-Brabant,VBO,4.865372,51.503522
Raadhuisplein,2,,,4861RW,Chaam,Alphen-Chaam,Noord-Brabant,VBO,4.865158,51.503386
Raadhuisplein,3,,,4861RW,Chaam,Alphen-Chaam,Noord-Brabant,VBO,4.864957,51.503322
Kapelstraat,1,a,,4861SB,Chaam,Alphen-Chaam,Noord-Brabant,VBO,4.859716,51.505672
Kapelstraat,1,,,4861SB,Chaam,Alphen-Chaam,Noord-Brabant,VBO,4.859573,51.505527
Kapelstraat,3,,,4861SB,Chaam,Alphen-Chaam,Noord-Brabant,VBO,4.859531,51.505482
Kapelstraat,5,,,4861SB,Chaam,Alphen-Chaam,Noord-Brabant,VBO,4.859445,51.505410
Kapelstraat,7,,,4861SB,Chaam,Alphen-Chaam,Noord-Brabant,VBO,4.859388,51.505355
Kapelstraat,9,,,4861SB,Chaam,Alphen-Chaam,Noord-Brabant,VBO,4.859303,51.505283
Kapelstraat,11,,,4861SB,Chaam,Alphen-Chaam,Noord-Brabant,VBO,4.859246,51.505220
Kapelstraat,13,,,4861SB,Chaam,Alphen-Chaam,Noord-Brabant,VBO,4.859189,51.505139
Kapelstraat,15,,,4861SB,Chaam,Alphen-Chaam,Noord-Brabant,VBO,4.859132,51.505085
Kapelstraat,17,,,4861SB,Chaam,Alphen-Chaam,Noord-Brabant,VBO,4.858562,51.504588
Kapelstraat,19,,,4861SB,Chaam,Alphen-Chaam,Noord-Brabant,VBO,4.857902,51.504360
Kapelstraat,21,,,4861SB,Chaam,Alphen-Chaam,Noord-Brabant,VBO,4.857655,51.504521
Kapelstraat,23,,,4861SB,Chaam,Alphen-Chaam,Noord-Brabant,VBO,4.857380,51.504654
Kapelstraat,25,,,4861SB,Chaam,Alphen-Chaam,Noord-Brabant,VBO,4.857119,51.504779
Kapelstraat,27,,,4861SB,Chaam,Alphen-Chaam,Noord-Brabant,VBO,4.856801,51.504912
Kapelstraat,29,,,4861SB,Chaam,Alphen-Chaam,Noord-Brabant,VBO,4.856612,51.504992
Kapelstraat,31,,,4861SB,Chaam,Alphen-Chaam,Noord-Brabant,VBO,4.856439,51.505072
Kapelstraat,33,,,4861SB,Chaam,Alphen-Chaam,Noord-Brabant,VBO,4.856206,51.505233
Kapelstraat,35,,,4861SB,Chaam,Alphen-Chaam,Noord-Brabant,VBO,4.855902,51.505376
Kapelstraat,37,,,4861SB,Chaam,Alphen-Chaam,Noord-Brabant,VBO,4.855656,51.505473
Kapelstraat,39,,,4861SB,Chaam,Alphen-Chaam,Noord-Brabant,VBO,4.855467,51.505598
De Werf,1,,,4861SC,Chaam,Alphen-Chaam,Noord-Brabant,VBO,4.857942,51.505207
De Werf,3,,,4861SC,Chaam,Alphen-Chaam,Noord-Brabant,VBO,4.858023,51.505302
Kapelstraat,2,,,4861SC,Chaam,Alphen-Chaam,Noord-Brabant,VBO,4.859485,51.505715
Kapelstraat,4,,,4861SC,Chaam,Alphen-Chaam,Noord-Brabant,VBO,4.859442,51.505688
Kapelstraat,6,,,4861SC,Chaam,Alphen-Chaam,Noord-Brabant,VBO,4.859385,51.505607
Kapelstraat,8,,,4861SC,Chaam,Alphen-Chaam,Noord-Brabant,VBO,4.859285,51.505526
Kapelstraat,10,,,4861SC,Chaam,Alphen-Chaam,Noord-Brabant,VBO,4.859214,51.505480
Kapelstraat,12,,,4861SC,Chaam,Alphen-Chaam,Noord-Brabant,VBO,4.858535,51.505639
Kapelstraat,14,,,4861SC,Chaam,Alphen-Chaam,Noord-Brabant,VBO,4.859042,51.505417
Kapelstraat,16,,,4861SC,Chaam,Alphen-Chaam,Noord-Brabant,VBO,4.858870,51.505299
Kapelstraat,20,,,4861SC,Chaam,Alphen-Chaam,Noord-Brabant,VBO,4.858771,51.505200
Kapelstraat,22,,,4861SC,Chaam,Alphen-Chaam,Noord-Brabant,VBO,4.858714,51.505146
Kapelstraat,24,,,4861SC,Chaam,Alphen-Chaam,Noord-Brabant,VBO,4.858614,51.505055
Kapelstraat,26,a,,4861SC,Chaam,Alphen-Chaam,Noord-Brabant,VBO,4.858528,51.505010
Kapelstraat,26,,,4861SC,Chaam,Alphen-Chaam,Noord-Brabant,VBO,4.858557,51.504983
Kapelstraat,32,,,4861SC,Chaam,Alphen-Chaam,Noord-Brabant,VBO,4.856927,51.505174
Kapelstraat,34,,,4861SC,Chaam,Alphen-Chaam,Noord-Brabant,VBO,4.856754,51.505236
Kapelstraat,36,,,4861SC,Chaam,Alphen-Chaam,Noord-Brabant,VBO,4.856580,51.505307
Kapelstraat,38,,,4861SC,Chaam,Alphen-Chaam,Noord-Brabant,VBO,4.856406,51.505378
Kapelstraat,40,,,4861SC,Chaam,Alphen-Chaam,Noord-Brabant,VBO,4.856117,51.505502
Kapelstraat,42,,,4861SC,Chaam,Alphen-Chaam,Noord-Brabant,VBO,4.855957,51.505592
Kapelstraat,44,,,4861SC,Chaam,Alphen-Chaam,Noord-Brabant,VBO,4.855856,51.505627
Kapelstraat,46,,,4861SC,Chaam,Alphen-Chaam,Noord-Brabant,VBO,4.855711,51.505734
Beckershagen,1,,,4861SE,Chaam,Alphen-Chaam,Noord-Brabant,VBO,4.861000,51.502963
Beckershagen,3,,,4861SE,Chaam,Alphen-Chaam,Noord-Brabant,VBO,4.860682,51.503105
Beckershagen,5,,,4861SE,Chaam,Alphen-Chaam,Noord-Brabant,VBO,4.860450,51.503230
Beckershagen,7,,,4861SE,Chaam,Alphen-Chaam,Noord-Brabant,VBO,4.859944,51.503371
Beckershagen,9,,,4861SE,Chaam,Alphen-Chaam,Noord-Brabant,VBO,4.859697,51.503559
Beckershagen,11,,,4861SE,Chaam,Alphen-Chaam,Noord-Brabant,VBO,4.859262,51.503773
Beckershagen,13,,,4861SE,Chaam,Alphen-Chaam,Noord-Brabant,VBO,4.858958,51.503969
Beckershagen,15,,,4861SE,Chaam,Alphen-Chaam,Noord-Brabant,VBO,4.858697,51.504103
Beckershagen,17,,,4861SE,Chaam,Alphen-Chaam,Noord-Brabant,VBO,4.858305,51.504317
Beckershagen,2,a,,4861SG,Chaam,Alphen-Chaam,Noord-Brabant,VBO,4.861950,51.503030
Beckershagen,2,b,,4861SG,Chaam,Alphen-Chaam,Noord-Brabant,VBO,4.861807,51.502912
Beckershagen,2,,,4861SG,Chaam,Alphen-Chaam,Noord-Brabant,VBO,4.861779,51.502885
Beckershagen,4,,,4861SG,Chaam,Alphen-Chaam,Noord-Brabant,VBO,4.861677,51.502939
Beckershagen,6,,,4861SG,Chaam,Alphen-Chaam,Noord-Brabant,VBO,4.861576,51.503010
Beckershagen,8,,,4861SG,Chaam,Alphen-Chaam,Noord-Brabant,VBO,4.861474,51.503046
Beckershagen,10,,,4861SG,Chaam,Alphen-Chaam,Noord-Brabant,VBO,4.861330,51.503108
Beckershagen,12,,,4861SG,Chaam,Alphen-Chaam,Noord-Brabant,VBO,4.861257,51.503144
Beckershagen,14,,,4861SG,Chaam,Alphen-Chaam,Noord-Brabant,VBO,4.861127,51.503206
Beckershagen,16,,,4861SG,Chaam,Alphen-Chaam,Noord-Brabant,VBO,4.861040,51.503251
Beckershagen,18,,,4861SG,Chaam,Alphen-Chaam,Noord-Brabant,VBO,4.860896,51.503295
Beckershagen,20,,,4861SG,Chaam,Alphen-Chaam,Noord-Brabant,VBO,4.860809,51.503339
Beckershagen,22,,,4861SG,Chaam,Alphen-Chaam,Noord-Brabant,VBO,4.860678,51.503402
Beckershagen,24,,,4861SG,Chaam,Alphen-Chaam,Noord-Brabant,VBO,4.860606,51.503437
Beckershagen,26,,,4861SG,Chaam,Alphen-Chaam,Noord-Brabant,VBO,4.860475,51.503518
Beckershagen,28,,,4861SG,Chaam,Alphen-Chaam,Noord-Brabant,VBO,4.860403,51.503553
Beckershagen,30,,,4861SH,Chaam,Alphen-Chaam,Noord-Brabant,VBO,4.860258,51.503625
Beckershagen,32,,,4861SH,Chaam,Alphen-Chaam,Noord-Brabant,VBO,4.860186,51.503660
Beckershagen,34,,,4861SH,Chaam,Alphen-Chaam,Noord-Brabant,VBO,4.860041,51.503731
Beckershagen,36,,,4861SH,Chaam,Alphen-Chaam,Noord-Brabant,VBO,4.859968,51.503767
Beckershagen,38,,,4861SH,Chaam,Alphen-Chaam,Noord-Brabant,VBO,4.859823,51.503838
Beckershagen,40,,,4861SH,Chaam,Alphen-Chaam,Noord-Brabant,VBO,4.859751,51.503874
Beckershagen,42,,,4861SH,Chaam,Alphen-Chaam,Noord-Brabant,VBO,4.859621,51.503936
Beckershagen,44,,,4861SH,Chaam,Alphen-Chaam,Noord-Brabant,VBO,4.859534,51.503981
Beckershagen,46,,,4861SH,Chaam,Alphen-Chaam,Noord-Brabant,VBO,4.859375,51.504034
Beckershagen,48,,,4861SH,Chaam,Alphen-Chaam,Noord-Brabant,VBO,4.859215,51.504114
Beckershagen,50,,,4861SH,Chaam,Alphen-Chaam,Noord-Brabant,VBO,4.859143,51.504150
Beckershagen,52,,,4861SH,Chaam,Alphen-Chaam,Noord-Brabant,VBO,4.859012,51.504221
Beckershagen,54,,,4861SH,Chaam,Alphen-Chaam,Noord-Brabant,VBO,4.858940,51.504257
Beckershagen,56,,,4861SH,Chaam,Alphen-Chaam,Noord-Brabant,VBO,4.858766,51.504391
Schootakkerstraat,1,,,4861SJ,Chaam,Alphen-Chaam,Noord-Brabant,VBO,4.862336,51.503265
Schootakkerstraat,3,,,4861SJ,Chaam,Alphen-Chaam,Noord-Brabant,VBO,4.862206,51.503328
Schootakkerstraat,5,,,4861SJ,Chaam,Alphen-Chaam,Noord-Brabant,VBO,4.862119,51.503363
Schootakkerstraat,7,,,4861SJ,Chaam,Alphen-Chaam,Noord-Brabant,VBO,4.861931,51.503452
Schootakkerstraat,11,,,4861SJ,Chaam,Alphen-Chaam,Noord-Brabant,VBO,4.861844,51.503497
Schootakkerstraat,17,,,4861SJ,Chaam,Alphen-Chaam,Noord-Brabant,VBO,4.861612,51.503604
Schootakkerstraat,19,,,4861SJ,Chaam,Alphen-Chaam,Noord-Brabant,VBO,4.861525,51.503648
Schootakkerstraat,21,,,4861SJ,Chaam,Alphen-Chaam,Noord-Brabant,VBO,4.861351,51.503728
Schootakkerstraat,23,,,4861SJ,Chaam,Alphen-Chaam,Noord-Brabant,VBO,4.861250,51.503773
Schootakkerstraat,25,,,4861SJ,Chaam,Alphen-Chaam,Noord-Brabant,VBO,4.861120,51.503835
Schootakkerstraat,27,,,4861SJ,Chaam,Alphen-Chaam,Noord-Brabant,VBO,4.861033,51.503880
Schootakkerstraat,29,,,4861SJ,Chaam,Alphen-Chaam,Noord-Brabant,VBO,4.860859,51.503960
Schootakkerstraat,31,,,4861SJ,Chaam,Alphen-Chaam,Noord-Brabant,VBO,4.860758,51.504004
Schootakkerstraat,33,,,4861SJ,Chaam,Alphen-Chaam,Noord-Brabant,VBO,4.860555,51.504102
Schootakkerstraat,35,,,4861SJ,Chaam,Alphen-Chaam,Noord-Brabant,VBO,4.860454,51.504147
Schootakkerstraat,37,,,4861SK,Chaam,Alphen-Chaam,Noord-Brabant,VBO,4.860236,51.504245
Schootakkerstraat,39,,,4861SK,Chaam,Alphen-Chaam,Noord-Brabant,VBO,4.860150,51.504280
Schootakkerstraat,41,,,4861SK,Chaam,Alphen-Chaam,Noord-Brabant,VBO,4.859961,51.504369
Schootakkerstraat,43,,,4861SK,Chaam,Alphen-Chaam,Noord-Brabant,VBO,4.859903,51.504405
Schootakkerstraat,45,,,4861SK,Chaam,Alphen-Chaam,Noord-Brabant,VBO,4.859845,51.504441
Schootakkerstraat,47,,,4861SK,Chaam,Alphen-Chaam,Noord-Brabant,VBO,4.859701,51.504494
Schootakkerstraat,49,,,4861SK,Chaam,Alphen-Chaam,Noord-Brabant,VBO,4.859628,51.504530
Schootakkerstraat,51,,,4861SK,Chaam,Alphen-Chaam,Noord-Brabant,VBO,4.859512,51.504601
Schootakkerstraat,53,,,4861SK,Chaam,Alphen-Chaam,Noord-Brabant,VBO,4.859411,51.504636
Schootakkerstraat,55,,,4861SK,Chaam,Alphen-Chaam,Noord-Brabant,VBO,4.859295,51.504699
Schootakkerstraat,57,,,4861SK,Chaam,Alphen-Chaam,Noord-Brabant,VBO,4.859222,51.504734
Schootakkerstraat,59,,,4861SK,Chaam,Alphen-Chaam,Noord-Brabant,VBO,4.859078,51.504797
Schootakkerstraat,61,,,4861SK,Chaam,Alphen-Chaam,Noord-Brabant,VBO,4.858948,51.504832
Schootakkerstraat,63,,,4861SK,Chaam,Alphen-Chaam,Noord-Brabant,VBO,4.858861,51.504877
Schootakkerstraat,2,,,4861SL,Chaam,Alphen-Chaam,Noord-Brabant,VBO,4.862767,51.503375
Schootakkerstraat,4,,,4861SL,Chaam,Alphen-Chaam,Noord-Brabant,VBO,4.862564,51.503446
Schootakkerstraat,6,a,,4861SL,Chaam,Alphen-Chaam,Noord-Brabant,VBO,4.862275,51.503607
Schootakkerstraat,6,,,4861SL,Chaam,Alphen-Chaam,Noord-Brabant,VBO,4.862448,51.503553
Schootakkerstraat,8,,,4861SL,Chaam,Alphen-Chaam,Noord-Brabant,VBO,4.862130,51.503651
Schootakkerstraat,10,,,4861SL,Chaam,Alphen-Chaam,Noord-Brabant,VBO,4.861942,51.503740
Schootakkerstraat,14,,,4861SL,Chaam,Alphen-Chaam,Noord-Brabant,VBO,4.861174,51.504105
Schootakkerstraat,16,a,,4861SL,Chaam,Alphen-Chaam,Noord-Brabant,VBO,4.860856,51.504247
Schootakkerstraat,16,,,4861SL,Chaam,Alphen-Chaam,Noord-Brabant,VBO,4.860971,51.504203
Schootakkerstraat,18,a,,4861SL,Chaam,Alphen-Chaam,Noord-Brabant,VBO,4.860639,51.504336
Schootakkerstraat,18,,,4861SL,Chaam,Alphen-Chaam,Noord-Brabant,VBO,4.860754,51.504301
Schootakkerstraat,20,,,4861SL,Chaam,Alphen-Chaam,Noord-Brabant,VBO,4.860392,51.504470
Schootakkerstraat,22,,,4861SL,Chaam,Alphen-Chaam,Noord-Brabant,VBO,4.860305,51.504506
Schootakkerstraat,24,,,4861SL,Chaam,Alphen-Chaam,Noord-Brabant,VBO,4.860175,51.504568
Schootakkerstraat,26,,26,4861SL,Chaam,Alphen-Chaam,Noord-Brabant,VBO,4.859741,51.505112
Schootakkerstraat,26,,27,4861SL,Chaam,Alphen-Chaam,Noord-Brabant,VBO,4.859702,51.505129
Schootakkerstraat,26,,28,4861SL,Chaam,Alphen-Chaam,Noord-Brabant,VBO,4.859664,51.505147
Schootakkerstraat,26,,29,4861SL,Chaam,Alphen-Chaam,Noord-Brabant,VBO,4.859549,51.505054
Schootakkerstraat,26,,30,4861SL,Chaam,Alphen-Chaam,Noord-Brabant,VBO,4.859585,51.505037
Schootakkerstraat,26,,31,4861SL,Chaam,Alphen-Chaam,Noord-Brabant,VBO,4.859621,51.505019
Schootakkerstraat,26,,33,4861SL,Chaam,Alphen-Chaam,Noord-Brabant,VBO,4.859693,51.504984
Schootakkerstraat,26,,34,4861SL,Chaam,Alphen-Chaam,Noord-Brabant,VBO,4.859728,51.504967
Schootakkerstraat,26,,35,4861SL,Chaam,Alphen-Chaam,Noord-Brabant,VBO,4.859764,51.504950
Schootakkerstraat,26,,36,4861SL,Chaam,Alphen-Chaam,Noord-Brabant,VBO,4.859800,51.504932
Schootakkerstraat,26,,37,4861SL,Chaam,Alphen-Chaam,Noord-Brabant,VBO,4.859836,51.504915
Schootakkerstraat,26,,38,4861SL,Chaam,Alphen-Chaam,Noord-Brabant,VBO,4.859872,51.504898
Schootakkerstraat,26,,39,4861SL,Chaam,Alphen-Chaam,Noord-Brabant,VBO,4.859908,51.504880
Schootakkerstraat,26,,41,4861SL,Chaam,Alphen-Chaam,Noord-Brabant,VBO,4.859781,51.505095
Schootakkerstraat,26,,42,4861SL,Chaam,Alphen-Chaam,Noord-Brabant,VBO,4.859855,51.505061
Schootakkerstraat,26,,43,4861SL,Chaam,Alphen-Chaam,Noord-Brabant,VBO,4.859967,51.505011
Schootakkerstraat,26,,44,4861SL,Chaam,Alphen-Chaam,Noord-Brabant,VBO,4.859818,51.505078
Schootakkerstraat,26,,45,4861SL,Chaam,Alphen-Chaam,Noord-Brabant,VBO,4.859892,51.505044
Schootakkerstraat,26,,46,4861SL,Chaam,Alphen-Chaam,Noord-Brabant,VBO,4.859929,51.505028
Schootakkerstraat,26,,,4861SL,Chaam,Alphen-Chaam,Noord-Brabant,VBO,4.860088,51.504613
Schootakkerstraat,28,,,4861SL,Chaam,Alphen-Chaam,Noord-Brabant,VBO,4.859914,51.504702
Schootakkerstraat,30,,,4861SL,Chaam,Alphen-Chaam,Noord-Brabant,VBO,4.859827,51.504737
Schootakkerstraat,32,,,4861SL,Chaam,Alphen-Chaam,Noord-Brabant,VBO,4.859755,51.504773
Schootakkerstraat,34,,,4861SL,Chaam,Alphen-Chaam,Noord-Brabant,VBO,4.859639,51.504835
Schootakkerstraat,36,,,4861SL,Chaam,Alphen-Chaam,Noord-Brabant,VBO,4.859552,51.504880
Schootakkerstraat,38,,,4861SL,Chaam,Alphen-Chaam,Noord-Brabant,VBO,4.859422,51.504942
Schootakkerstraat,40,,,4861SL,Chaam,Alphen-Chaam,Noord-Brabant,VBO,4.859335,51.504978
Kerkstraat,1,a,,4861SM,Chaam,Alphen-Chaam,Noord-Brabant,VBO,4.861964,51.504279
Kerkstraat,1,,,4861SM,Chaam,Alphen-Chaam,Noord-Brabant,VBO,4.862078,51.504451
Kerkstraat,2,,,4861SM,Chaam,Alphen-Chaam,Noord-Brabant,VBO,4.861947,51.504549
Kerkstraat,3,,,4861SM,Chaam,Alphen-Chaam,Noord-Brabant,VBO,4.861807,51.504198
Kerkstraat,5,,,4861SM,Chaam,Alphen-Chaam,Noord-Brabant,VBO,4.861859,51.504155
Kerkstraat,7,,,4861SM,Chaam,Alphen-Chaam,Noord-Brabant,VBO,4.861664,51.504053
Kerkstraat,9,,,4861SM,Chaam,Alphen-Chaam,Noord-Brabant,VBO,4.861622,51.504008
Brouwerij,11,,,4861SN,Chaam,Alphen-Chaam,Noord-Brabant,VBO,4.861580,51.504974
Brouwerij,12,,,4861SN,Chaam,Alphen-Chaam,Noord-Brabant,VBO,4.861712,51.504967
Brouwerij,13,,,4861SN,Chaam,Alphen-Chaam,Noord-Brabant,VBO,4.861553,51.504997
Brouwerij,14,,,4861SN,Chaam,Alphen-Chaam,Noord-Brabant,VBO,4.861700,51.505003
Brouwerij,15,,,4861SN,Chaam,Alphen-Chaam,Noord-Brabant,VBO,4.861481,51.504933
Brouwerij,16,,,4861SN,Chaam,Alphen-Chaam,Noord-Brabant,VBO,4.861644,51.505029
Brouwerij,17,,,4861SN,Chaam,Alphen-Chaam,Noord-Brabant,VBO,4.861406,51.504872
Brouwerij,18,,,4861SN,Chaam,Alphen-Chaam,Noord-Brabant,VBO,4.861585,51.505033
Brouwerij,19,,,4861SN,Chaam,Alphen-Chaam,Noord-Brabant,VBO,4.861328,51.504817
Brouwerij,20,,,4861SN,Chaam,Alphen-Chaam,Noord-Brabant,VBO,4.861432,51.504774
Brouwerij,21,,,4861SN,Chaam,Alphen-Chaam,Noord-Brabant,VBO,4.861361,51.504801
Brouwerij,22,,,4861SN,Chaam,Alphen-Chaam,Noord-Brabant,VBO,4.861525,51.504934
Brouwerij,23,,,4861SN,Chaam,Alphen-Chaam,Noord-Brabant,VBO,4.861490,51.504750
Brouwerij,24,,,4861SN,Chaam,Alphen-Chaam,Noord-Brabant,VBO,4.861269,51.504618
Brouwerij,25,,,4861SN,Chaam,Alphen-Chaam,Noord-Brabant,VBO,4.861197,51.504653
Brouwerij,26,,,4861SN,Chaam,Alphen-Chaam,Noord-Brabant,VBO,4.861226,51.504582
Brouwerij,27,,,4861SN,Chaam,Alphen-Chaam,Noord-Brabant,VBO,4.861154,51.504581
Brouwerij,28,,,4861SN,Chaam,Alphen-Chaam,Noord-Brabant,VBO,4.861068,51.504608
Brouwerij,29,,,4861SN,Chaam,Alphen-Chaam,Noord-Brabant,VBO,4.861168,51.504608
Brouwerij,30,,,4861SN,Chaam,Alphen-Chaam,Noord-Brabant,VBO,4.861125,51.504608
Brouwerij,31,,,4861SN,Chaam,Alphen-Chaam,Noord-Brabant,VBO,4.861154,51.504635
Brouwerij,32,,,4861SN,Chaam,Alphen-Chaam,Noord-Brabant,VBO,4.861196,51.504680
Brouwerij,33,,,4861SN,Chaam,Alphen-Chaam,Noord-Brabant,VBO,4.861124,51.504680
Brouwerij,34,,,4861SN,Chaam,Alphen-Chaam,Noord-Brabant,VBO,4.861082,51.504644
Brouwerij,35,,,4861SN,Chaam,Alphen-Chaam,Noord-Brabant,VBO,4.861097,51.504590
Brouwerij,36,,,4861SN,Chaam,Alphen-Chaam,Noord-Brabant,VBO,4.861211,51.504618
Brouwerij,37,,,4861SN,Chaam,Alphen-Chaam,Noord-Brabant,VBO,4.861183,51.504573
Brouwerij,38,,,4861SN,Chaam,Alphen-Chaam,Noord-Brabant,VBO,4.861240,51.504600
Brouwerij,39,,,4861SN,Chaam,Alphen-Chaam,Noord-Brabant,VBO,4.861240,51.504636
Brouwerij,40,,,4861SN,Chaam,Alphen-Chaam,Noord-Brabant,VBO,4.860576,51.504750
Brouwerij,41,,,4861SN,Chaam,Alphen-Chaam,Noord-Brabant,VBO,4.860461,51.504767
Brouwerij,42,,,4861SN,Chaam,Alphen-Chaam,Noord-Brabant,VBO,4.860432,51.504803
Brouwerij,43,,,4861SN,Chaam,Alphen-Chaam,Noord-Brabant,VBO,4.860617,51.504956
Brouwerij,44,,,4861SN,Chaam,Alphen-Chaam,Noord-Brabant,VBO,4.860474,51.504848
Brouwerij,45,,,4861SN,Chaam,Alphen-Chaam,Noord-Brabant,VBO,4.860546,51.504848
Brouwerij,46,,,4861SN,Chaam,Alphen-Chaam,Noord-Brabant,VBO,4.860504,51.504803
Brouwerij,47,,,4861SN,Chaam,Alphen-Chaam,Noord-Brabant,VBO,4.860572,51.505048
Brouwerij,48,,,4861SN,Chaam,Alphen-Chaam,Noord-Brabant,VBO,4.860471,51.505127
Elsakkerpad,1,,,4861TA,Chaam,Alphen-Chaam,Noord-Brabant,VBO,4.854541,51.508453
Elsakkerpad,2,,,4861TA,Chaam,Alphen-Chaam,Noord-Brabant,VBO,4.854843,51.508526
Elsakkerpad,3,,,4861TA,Chaam,Alphen-Chaam,Noord-Brabant,VBO,4.854553,51.508677
Elsakkerpad,4,,,4861TA,Chaam,Alphen-Chaam,Noord-Brabant,VBO,4.855015,51.508572
Elsakkerpad,5,,,4861TA,Chaam,Alphen-Chaam,Noord-Brabant,VBO,4.854679,51.508984
Elsakkerpad,6,,,4861TA,Chaam,Alphen-Chaam,Noord-Brabant,VBO,4.854984,51.508778
Elsakkerpad,7,,,4861TA,Chaam,Alphen-Chaam,Noord-Brabant,VBO,4.854749,51.509155
Elsakkerpad,8,,,4861TA,Chaam,Alphen-Chaam,Noord-Brabant,VBO,4.855124,51.509102
Elsakkerpad,9,,,4861TA,Chaam,Alphen-Chaam,Noord-Brabant,VBO,4.854819,51.509353
Elsakkerpad,10,,,4861TA,Chaam,Alphen-Chaam,Noord-Brabant,VBO,4.855194,51.509300
Elsakkerpad,11,,,4861TA,Chaam,Alphen-Chaam,Noord-Brabant,VBO,4.854903,51.509542
Elsakkerpad,12,,,4861TA,Chaam,Alphen-Chaam,Noord-Brabant,VBO,4.855306,51.509580
Elsakkerpad,13,,,4861TA,Chaam,Alphen-Chaam,Noord-Brabant,VBO,4.855029,51.509821
Elsakkerpad,14,,,4861TA,Chaam,Alphen-Chaam,Noord-Brabant,VBO,4.855504,51.509841
Elsakkerpad,15,,,4861TA,Chaam,Alphen-Chaam,Noord-Brabant,VBO,4.852471,51.511769
Elsakkerpad,16,,,4861TA,Chaam,Alphen-Chaam,Noord-Brabant,VBO,4.858336,51.510384
Elsakkerpad,18,,,4861TA,Chaam,Alphen-Chaam,Noord-Brabant,VBO,4.858449,51.510592
Elsakkerpad,20,,,4861TA,Chaam,Alphen-Chaam,Noord-Brabant,VBO,4.856089,51.510374
Elsakkerpad,22,,,4861TA,Chaam,Alphen-Chaam,Noord-Brabant,VBO,4.856668,51.511312
Elsakkerpad,24,,,4861TA,Chaam,Alphen-Chaam,Noord-Brabant,VBO,4.856246,51.511732
Bredaseweg,53,,,4861TB,Chaam,Alphen-Chaam,Noord-Brabant,VBO,4.853797,51.508018
Bredaseweg,55,a,,4861TB,Chaam,Alphen-Chaam,Noord-Brabant,VBO,4.853222,51.507934
Bredaseweg,55,,,4861TB,Chaam,Alphen-Chaam,Noord-Brabant,VBO,4.853667,51.508062
Bredaseweg,57,,,4861TB,Chaam,Alphen-Chaam,Noord-Brabant,VBO,4.852729,51.508211
Bredaseweg,59,,,4861TB,Chaam,Alphen-Chaam,Noord-Brabant,VBO,4.852541,51.508264
Bredaseweg,61,,,4861TB,Chaam,Alphen-Chaam,Noord-Brabant,VBO,4.852222,51.508442
Bredaseweg,65,a,,4861TB,Chaam,Alphen-Chaam,Noord-Brabant,VBO,4.851513,51.508717
Bredaseweg,67,,,4861TB,Chaam,Alphen-Chaam,Noord-Brabant,VBO,4.851208,51.508896
Bredaseweg,69,a,,4861TB,Chaam,Alphen-Chaam,Noord-Brabant,VBO,4.850527,51.509261
Bredaseweg,69,,,4861TB,Chaam,Alphen-Chaam,Noord-Brabant,VBO,4.850716,51.509073
Bredaseweg,71,,,4861TC,Chaam,Alphen-Chaam,Noord-Brabant,VBO,4.850292,51.509629
Bredaseweg,73,,,4861TC,Chaam,Alphen-Chaam,Noord-Brabant,VBO,4.849507,51.510281
Bredaseweg,75,a,,4861TC,Chaam,Alphen-Chaam,Noord-Brabant,VBO,4.848953,51.511116
Bredaseweg,75,,,4861TC,Chaam,Alphen-Chaam,Noord-Brabant,VBO,4.849137,51.510910
Bredaseweg,77,,,4861TC,Chaam,Alphen-Chaam,Noord-Brabant,VBO,4.848673,51.511338
Bredaseweg,79,,,4861TC,Chaam,Alphen-Chaam,Noord-Brabant,VBO,4.848334,51.511993
Bredaseweg,81,,,4861TC,Chaam,Alphen-Chaam,Noord-Brabant,VBO,4.848011,51.512486
Bredaseweg,83,,,4861TC,Chaam,Alphen-Chaam,Noord-Brabant,VBO,4.847590,51.512789
Bredaseweg,85,,,4861TC,Chaam,Alphen-Chaam,Noord-Brabant,VBO,4.847296,51.513152
Bredaseweg,87,a,,4861TC,Chaam,Alphen-Chaam,Noord-Brabant,VBO,4.846194,51.513897
Bredaseweg,87,,,4861TC,Chaam,Alphen-Chaam,Noord-Brabant,VBO,4.845760,51.514012
Bredaseweg,89,,,4861TC,Chaam,Alphen-Chaam,Noord-Brabant,VBO,4.843907,51.514750
Bredaseweg,91,,,4861TC,Chaam,Alphen-Chaam,Noord-Brabant,VBO,4.843487,51.514936
Bredaseweg,93,,,4861TC,Chaam,Alphen-Chaam,Noord-Brabant,VBO,4.843125,51.515142
Bredaseweg,50,,,4861TD,Chaam,Alphen-Chaam,Noord-Brabant,VBO,4.852377,51.508757
Bredaseweg,52,,,4861TD,Chaam,Alphen-Chaam,Noord-Brabant,VBO,4.850372,51.510204
Bredaseweg,54,,,4861TD,Chaam,Alphen-Chaam,Noord-Brabant,VBO,4.849734,51.511443
Bredaseweg,56,,,4861TD,Chaam,Alphen-Chaam,Noord-Brabant,VBO,4.850016,51.512033
Bredaseweg,58,a,,4861TD,Chaam,Alphen-Chaam,Noord-Brabant,VBO,4.849130,51.511637
Bredaseweg,58,,,4861TD,Chaam,Alphen-Chaam,Noord-Brabant,VBO,4.849315,51.511907
Bredaseweg,60,,,4861TD,Chaam,Alphen-Chaam,Noord-Brabant,VBO,4.848660,51.512444
Bredaseweg,62,,,4861TD,Chaam,Alphen-Chaam,Noord-Brabant,VBO,4.847465,51.513562
Bredaseweg,64,,,4861TD,Chaam,Alphen-Chaam,Noord-Brabant,VBO,4.847506,51.513787
Bredaseweg,66,,,4861TD,Chaam,Alphen-Chaam,Noord-Brabant,VBO,4.844579,51.515202
Bredaseweg,68,,,4861TD,Chaam,Alphen-Chaam,Noord-Brabant,VBO,4.840722,51.517252
Bredaseweg,70,,,4861TD,Chaam,Alphen-Chaam,Noord-Brabant,VBO,4.837671,51.518208
Bredaseweg,72,a,,4861TD,Chaam,Alphen-Chaam,Noord-Brabant,VBO,4.835064,51.521684
Bredaseweg,72,,,4861TD,Chaam,Alphen-Chaam,Noord-Brabant,VBO,4.834824,51.521269
Bredaseweg,74,,,4861TD,Chaam,Alphen-Chaam,Noord-Brabant,VBO,4.832967,51.522321
Bredaseweg,76,,,4861TD,Chaam,Alphen-Chaam,Noord-Brabant,VBO,4.833484,51.522458
Bredaseweg,78,,,4861TD,Chaam,Alphen-Chaam,Noord-Brabant,VBO,4.833657,51.522405
Woeststraat,1,,,4861TE,Chaam,Alphen-Chaam,Noord-Brabant,VBO,4.839935,51.525221
Dassemussestraat,1,a,,4861TG,Chaam,Alphen-Chaam,Noord-Brabant,VBO,4.847213,51.514226
Dassemussestraat,1,,,4861TG,Chaam,Alphen-Chaam,Noord-Brabant,VBO,4.847730,51.514291
Dassemussestraat,2,,,4861TG,Chaam,Alphen-Chaam,Noord-Brabant,VBO,4.849254,51.514595
Dassemussestraat,3,a,,4861TG,Chaam,Alphen-Chaam,Noord-Brabant,VBO,4.848273,51.514860
Dassemussestraat,3,,,4861TG,Chaam,Alphen-Chaam,Noord-Brabant,VBO,4.848131,51.514518
Dassemussestraat,4,,,4861TG,Chaam,Alphen-Chaam,Noord-Brabant,VBO,4.852519,51.515077
Dassemussestraat,5,a,,4861TG,Chaam,Alphen-Chaam,Noord-Brabant,VBO,4.849004,51.514787
Dassemussestraat,5,,,4861TG,Chaam,Alphen-Chaam,Noord-Brabant,VBO,4.849237,51.514819
Dassemussestraat,7,,by,4861TG,Chaam,Alphen-Chaam,Noord-Brabant,VBO,4.849778,51.515379
Dassemussestraat,7,,,4861TG,Chaam,Alphen-Chaam,Noord-Brabant,VBO,4.850043,51.514904
Heikantsestraat,1,,,4861TH,Chaam,Alphen-Chaam,Noord-Brabant,VBO,4.867714,51.511631
Heikantsestraat,2,a,,4861TH,Chaam,Alphen-Chaam,Noord-Brabant,VBO,4.864877,51.512751
Heikantsestraat,2,,,4861TH,Chaam,Alphen-Chaam,Noord-Brabant,VBO,4.867514,51.512177
Heikantsestraat,3,a,,4861TH,Chaam,Alphen-Chaam,Noord-Brabant,VBO,4.866062,51.511966
Heikantsestraat,3,,,4861TH,Chaam,Alphen-Chaam,Noord-Brabant,VBO,4.865978,51.512225
Heikantsestraat,4,a,,4861TH,Chaam,Alphen-Chaam,Noord-Brabant,VBO,4.857623,51.514732
Heikantsestraat,4,,,4861TH,Chaam,Alphen-Chaam,Noord-Brabant,VBO,4.859432,51.513985
Heikantsestraat,5,,,4861TH,Chaam,Alphen-Chaam,Noord-Brabant,VBO,4.865733,51.512278
Heikantsestraat,6,,,4861TH,Chaam,Alphen-Chaam,Noord-Brabant,VBO,4.856150,51.514959
Heikantsestraat,7,,,4861TH,Chaam,Alphen-Chaam,Noord-Brabant,VBO,4.865030,51.511997
Heikantsestraat,8,,,4861TH,Chaam,Alphen-Chaam,Noord-Brabant,VBO,4.855118,51.515138
Heikantsestraat,9,,,4861TH,Chaam,Alphen-Chaam,Noord-Brabant,VBO,4.857357,51.514002
Heikantsestraat,11,,,4861TH,Chaam,Alphen-Chaam,Noord-Brabant,VBO,4.856719,51.514404
Heikantsestraat,13,,,4861TH,Chaam,Alphen-Chaam,Noord-Brabant,VBO,4.855331,51.514811
Heikantsestraat,15,,,4861TH,Chaam,Alphen-Chaam,Noord-Brabant,VBO,4.853008,51.515151
Heikantsestraat,17,,,4861TH,Chaam,Alphen-Chaam,Noord-Brabant,VBO,4.853187,51.514595
Heikantsestraat,19,,,4861TH,Chaam,Alphen-Chaam,Noord-Brabant,VBO,4.852878,51.515133
Vianenstraat,1,,,4861TJ,Chaam,Alphen-Chaam,Noord-Brabant,VBO,4.863717,51.514678
Vianenstraat,2,,,4861TJ,Chaam,Alphen-Chaam,Noord-Brabant,VBO,4.869193,51.514523
Vianenstraat,3,,,4861TJ,Chaam,Alphen-Chaam,Noord-Brabant,VBO,4.862896,51.514702
Vianenstraat,4,,,4861TJ,Chaam,Alphen-Chaam,Noord-Brabant,VBO,4.867895,51.514688
Vianenstraat,6,,,4861TJ,Chaam,Alphen-Chaam,Noord-Brabant,VBO,4.867090,51.514550
Vianenstraat,8,,,4861TJ,Chaam,Alphen-Chaam,Noord-Brabant,VBO,4.865791,51.514751
Vianenstraat,10,,,4861TJ,Chaam,Alphen-Chaam,Noord-Brabant,VBO,4.864623,51.514799
Vianenstraat,12,,,4861TJ,Chaam,Alphen-Chaam,Noord-Brabant,VBO,4.862053,51.515291
Vianenstraat,14,,,4861TJ,Chaam,Alphen-Chaam,Noord-Brabant,VBO,4.861043,51.515439
Vianenstraat,16,,,4861TJ,Chaam,Alphen-Chaam,Noord-Brabant,VBO,4.861075,51.515143
