openbareruimtenaam,huisnummer,huisletter,huisnummertoevoeging,postcode,woonplaatsnaam,gemeentenaam,provincienaam,typeadresseerbaarobject,longitude,latitude
Kattestraat,42,,,4874AA,Etten-Leur,Etten-Leur,Noord-Brabant,VBO,4.621614,51.572309
Kattestraat,44,,,4874AA,Etten-Leur,Etten-Leur,Noord-Brabant,VBO,4.621297,51.572447
Kattestraat,46,,,4874AA,Etten-Leur,Etten-Leur,Noord-Brabant,VBO,4.620972,51.572623
Hertesprong,1,,,4874JA,Etten-Leur,Etten-Leur,Noord-Brabant,VBO,4.621370,51.573473
Hertesprong,3,,,4874JA,Etten-Leur,Etten-Leur,Noord-Brabant,VBO,4.621333,51.573519
Hertesprong,5,,,4874JA,Etten-Leur,Etten-Leur,Noord-Brabant,VBO,4.621305,51.573584
Hertesprong,7,,,4874JA,Etten-Leur,Etten-Leur,Noord-Brabant,VBO,4.621202,51.573792
Hertesprong,9,,,4874JA,Etten-Leur,Etten-Leur,Noord-Brabant,VBO,4.621098,51.573779
Hertesprong,11,,,4874JA,Etten-Leur,Etten-Leur,Noord-Brabant,VBO,4.620994,51.573765
Hertesprong,13,,,4874JA,Etten-Leur,Etten-Leur,Noord-Brabant,VBO,4.620873,51.573769
Hertesprong,15,,,4874JA,Etten-Leur,Etten-Leur,Noord-Brabant,VBO,4.620750,51.573753
Hertesprong,17,,,4874JA,Etten-Leur,Etten-Leur,Noord-Brabant,VBO,4.620612,51.573725
Hertesprong,19,,,4874JA,Etten-Leur,Etten-Leur,Noord-Brabant,VBO,4.620500,51.573695
Hertesprong,21,,,4874JA,Etten-Leur,Etten-Leur,Noord-Brabant,VBO,4.620456,51.573907
Hertesprong,23,,,4874JA,Etten-Leur,Etten-Leur,Noord-Brabant,VBO,4.620567,51.573921
Hertesprong,25,,,4874JA,Etten-Leur,Etten-Leur,Noord-Brabant,VBO,4.620926,51.573950
Hertesprong,27,,,4874JA,Etten-Leur,Etten-Leur,Noord-Brabant,VBO,4.620915,51.574079
Hertesprong,29,,,4874JA,Etten-Leur,Etten-Leur,Noord-Brabant,VBO,4.620892,51.574132
Hertesprong,31,,,4874JA,Etten-Leur,Etten-Leur,Noord-Brabant,VBO,4.620808,51.574239
Hertesprong,33,,,4874JA,Etten-Leur,Etten-Leur,Noord-Brabant,VBO,4.620785,51.574293
Hertesprong,35,,,4874JA,Etten-Leur,Etten-Leur,Noord-Brabant,VBO,4.620706,51.574404
Hertesprong,37,,,4874JA,Etten-Leur,Etten-Leur,Noord-Brabant,VBO,4.620687,51.574447
Hertesprong,41,,,4874JA,Etten-Leur,Etten-Leur,Noord-Brabant,VBO,4.620662,51.574553
Hertesprong,43,,,4874JA,Etten-Leur,Etten-Leur,Noord-Brabant,VBO,4.620630,51.574626
Hertesprong,2,,,4874JB,Etten-Leur,Etten-Leur,Noord-Brabant,VBO,4.621533,51.573762
Hertesprong,4,,,4874JB,Etten-Leur,Etten-Leur,Noord-Brabant,VBO,4.621505,51.573820
Hertesprong,6,,,4874JB,Etten-Leur,Etten-Leur,Noord-Brabant,VBO,4.621475,51.573885
Hertesprong,8,,,4874JB,Etten-Leur,Etten-Leur,Noord-Brabant,VBO,4.621492,51.573930
Hertesprong,10,,,4874JB,Etten-Leur,Etten-Leur,Noord-Brabant,VBO,4.621533,51.573938
Hertesprong,12,,,4874JB,Etten-Leur,Etten-Leur,Noord-Brabant,VBO,4.621577,51.573946
Hertesprong,14,,,4874JB,Etten-Leur,Etten-Leur,Noord-Brabant,VBO,4.621617,51.573954
Hertesprong,16,,,4874JB,Etten-Leur,Etten-Leur,Noord-Brabant,VBO,4.621659,51.573961
Hertesprong,18,,,4874JB,Etten-Leur,Etten-Leur,Noord-Brabant,VBO,4.621710,51.573948
Hertesprong,20,,,4874JB,Etten-Leur,Etten-Leur,Noord-Brabant,VBO,4.621767,51.573991
Hertesprong,22,,,4874JB,Etten-Leur,Etten-Leur,Noord-Brabant,VBO,4.621871,51.574010
Hertesprong,24,,,4874JB,Etten-Leur,Etten-Leur,Noord-Brabant,VBO,4.621953,51.574025
Hertesprong,26,,,4874JB,Etten-Leur,Etten-Leur,Noord-Brabant,VBO,4.622042,51.574041
Hertesprong,30,,,4874JB,Etten-Leur,Etten-Leur,Noord-Brabant,VBO,4.621917,51.574486
Hertesprong,32,,,4874JB,Etten-Leur,Etten-Leur,Noord-Brabant,VBO,4.621939,51.574433
Hertesprong,34,,,4874JB,Etten-Leur,Etten-Leur,Noord-Brabant,VBO,4.621952,51.574323
Hertesprong,36,,,4874JB,Etten-Leur,Etten-Leur,Noord-Brabant,VBO,4.621969,51.574281
Hertesprong,38,,,4874JB,Etten-Leur,Etten-Leur,Noord-Brabant,VBO,4.621602,51.574168
Hertesprong,40,,,4874JB,Etten-Leur,Etten-Leur,Noord-Brabant,VBO,4.621506,51.574151
Hertesprong,42,,,4874JB,Etten-Leur,Etten-Leur,Noord-Brabant,VBO,4.621335,51.574101
Hertesprong,44,,,4874JB,Etten-Leur,Etten-Leur,Noord-Brabant,VBO,4.621152,51.574325
Hertesprong,46,,,4874JB,Etten-Leur,Etten-Leur,Noord-Brabant,VBO,4.621126,51.574385
Hertesprong,48,,,4874JB,Etten-Leur,Etten-Leur,Noord-Brabant,VBO,4.621111,51.574489
Hertesprong,50,,,4874JB,Etten-Leur,Etten-Leur,Noord-Brabant,VBO,4.621087,51.574544
Hertesprong,52,,,4874JB,Etten-Leur,Etten-Leur,Noord-Brabant,VBO,4.621071,51.574648
Hertesprong,54,,,4874JB,Etten-Leur,Etten-Leur,Noord-Brabant,VBO,4.621043,51.574711
Hertesprong,56,,,4874JB,Etten-Leur,Etten-Leur,Noord-Brabant,VBO,4.620978,51.574794
Hertesprong,58,,,4874JB,Etten-Leur,Etten-Leur,Noord-Brabant,VBO,4.620947,51.574865
Reedonk,1,,,4874JE,Etten-Leur,Etten-Leur,Noord-Brabant,VBO,4.623079,51.573798
Reedonk,3,,,4874JE,Etten-Leur,Etten-Leur,Noord-Brabant,VBO,4.623048,51.573862
Reedonk,5,,,4874JE,Etten-Leur,Etten-Leur,Noord-Brabant,VBO,4.623017,51.573923
Reedonk,7,,,4874JE,Etten-Leur,Etten-Leur,Noord-Brabant,VBO,4.622904,51.574146
Reedonk,9,,,4874JE,Etten-Leur,Etten-Leur,Noord-Brabant,VBO,4.622814,51.574132
Reedonk,11,,,4874JE,Etten-Leur,Etten-Leur,Noord-Brabant,VBO,4.622745,51.574121
Reedonk,13,,,4874JE,Etten-Leur,Etten-Leur,Noord-Brabant,VBO,4.622671,51.574135
Reedonk,15,,,4874JE,Etten-Leur,Etten-Leur,Noord-Brabant,VBO,4.622584,51.574108
Reedonk,17,,,4874JE,Etten-Leur,Etten-Leur,Noord-Brabant,VBO,4.622475,51.574097
Reedonk,19,,,4874JE,Etten-Leur,Etten-Leur,Noord-Brabant,VBO,4.622375,51.574262
Reedonk,21,,,4874JE,Etten-Leur,Etten-Leur,Noord-Brabant,VBO,4.622451,51.574288
Reedonk,23,,,4874JE,Etten-Leur,Etten-Leur,Noord-Brabant,VBO,4.622546,51.574313
Reedonk,25,,,4874JE,Etten-Leur,Etten-Leur,Noord-Brabant,VBO,4.622604,51.574328
Reedonk,27,,,4874JE,Etten-Leur,Etten-Leur,Noord-Brabant,VBO,4.622685,51.574336
Reedonk,29,,,4874JE,Etten-Leur,Etten-Leur,Noord-Brabant,VBO,4.622525,51.574576
Reedonk,31,,,4874JE,Etten-Leur,Etten-Leur,Noord-Brabant,VBO,4.622415,51.574669
Reedonk,33,,,4874JE,Etten-Leur,Etten-Leur,Noord-Brabant,VBO,4.622357,51.574754
Reedonk,35,,,4874JE,Etten-Leur,Etten-Leur,Noord-Brabant,VBO,4.622250,51.574876
Reedonk,2,,,4874JG,Etten-Leur,Etten-Leur,Noord-Brabant,VBO,4.623289,51.574026
Reedonk,4,,,4874JG,Etten-Leur,Etten-Leur,Noord-Brabant,VBO,4.623250,51.574084
Reedonk,6,,,4874JG,Etten-Leur,Etten-Leur,Noord-Brabant,VBO,4.623220,51.574129
Reedonk,8,,,4874JG,Etten-Leur,Etten-Leur,Noord-Brabant,VBO,4.623178,51.574191
Reedonk,10,,,4874JG,Etten-Leur,Etten-Leur,Noord-Brabant,VBO,4.623328,51.574436
Reedonk,12,,,4874JG,Etten-Leur,Etten-Leur,Noord-Brabant,VBO,4.623232,51.574416
Reedonk,14,,,4874JG,Etten-Leur,Etten-Leur,Noord-Brabant,VBO,4.623156,51.574400
Reedonk,16,,,4874JG,Etten-Leur,Etten-Leur,Noord-Brabant,VBO,4.623009,51.574374
Reedonk,18,,,4874JG,Etten-Leur,Etten-Leur,Noord-Brabant,VBO,4.622988,51.574561
Reedonk,20,,,4874JG,Etten-Leur,Etten-Leur,Noord-Brabant,VBO,4.622969,51.574624
Reedonk,22,,,4874JG,Etten-Leur,Etten-Leur,Noord-Brabant,VBO,4.622954,51.574675
Reedonk,24,,,4874JG,Etten-Leur,Etten-Leur,Noord-Brabant,VBO,4.622935,51.574736
Reedonk,26,,,4874JG,Etten-Leur,Etten-Leur,Noord-Brabant,VBO,4.622810,51.575028
Reedonk,28,,,4874JG,Etten-Leur,Etten-Leur,Noord-Brabant,VBO,4.622673,51.575002
Reedonk,30,,,4874JG,Etten-Leur,Etten-Leur,Noord-Brabant,VBO,4.622470,51.574974
Welpepad,1,,,4874JH,Etten-Leur,Etten-Leur,Noord-Brabant,VBO,4.623979,51.573953
Welpepad,3,,,4874JH,Etten-Leur,Etten-Leur,Noord-Brabant,VBO,4.623945,51.574013
Welpepad,5,,,4874JH,Etten-Leur,Etten-Leur,Noord-Brabant,VBO,4.623919,51.574060
Welpepad,7,,,4874JH,Etten-Leur,Etten-Leur,Noord-Brabant,VBO,4.623891,51.574111
Welpepad,9,,,4874JH,Etten-Leur,Etten-Leur,Noord-Brabant,VBO,4.623865,51.574156
Welpepad,11,,,4874JH,Etten-Leur,Etten-Leur,Noord-Brabant,VBO,4.623835,51.574209
Welpepad,13,,,4874JH,Etten-Leur,Etten-Leur,Noord-Brabant,VBO,4.623782,51.574250
Welpepad,15,,,4874JH,Etten-Leur,Etten-Leur,Noord-Brabant,VBO,4.623750,51.574307
Welpepad,17,,,4874JH,Etten-Leur,Etten-Leur,Noord-Brabant,VBO,4.623669,51.574478
Welpepad,19,,,4874JH,Etten-Leur,Etten-Leur,Noord-Brabant,VBO,4.623632,51.574543
Welpepad,21,,,4874JH,Etten-Leur,Etten-Leur,Noord-Brabant,VBO,4.623607,51.574588
Welpepad,23,,,4874JH,Etten-Leur,Etten-Leur,Noord-Brabant,VBO,4.623579,51.574638
Welpepad,25,,,4874JH,Etten-Leur,Etten-Leur,Noord-Brabant,VBO,4.623580,51.574691
Welpepad,27,,,4874JH,Etten-Leur,Etten-Leur,Noord-Brabant,VBO,4.623552,51.574741
Welpepad,29,,,4874JH,Etten-Leur,Etten-Leur,Noord-Brabant,VBO,4.623527,51.574786
Welpepad,31,,,4874JH,Etten-Leur,Etten-Leur,Noord-Brabant,VBO,4.623491,51.574849
Welpepad,2,,,4874JJ,Etten-Leur,Etten-Leur,Noord-Brabant,VBO,4.623807,51.574777
Welpepad,4,,,4874JJ,Etten-Leur,Etten-Leur,Noord-Brabant,VBO,4.623776,51.574834
Welpepad,6,,,4874JJ,Etten-Leur,Etten-Leur,Noord-Brabant,VBO,4.623745,51.574891
Welpepad,8,,,4874JJ,Etten-Leur,Etten-Leur,Noord-Brabant,VBO,4.623715,51.574948
Welpepad,10,,,4874JJ,Etten-Leur,Etten-Leur,Noord-Brabant,VBO,4.623684,51.575005
Wolvespoor,1,,,4874JK,Etten-Leur,Etten-Leur,Noord-Brabant,VBO,4.625734,51.574814
Wolvespoor,3,,,4874JK,Etten-Leur,Etten-Leur,Noord-Brabant,VBO,4.625708,51.574877
Wolvespoor,5,,,4874JK,Etten-Leur,Etten-Leur,Noord-Brabant,VBO,4.625690,51.574948
Wolvespoor,7,,,4874JK,Etten-Leur,Etten-Leur,Noord-Brabant,VBO,4.625123,51.575070
Wolvespoor,9,,,4874JK,Etten-Leur,Etten-Leur,Noord-Brabant,VBO,4.625031,51.575062
Wolvespoor,11,,,4874JK,Etten-Leur,Etten-Leur,Noord-Brabant,VBO,4.624944,51.575054
Wolvespoor,13,,,4874JK,Etten-Leur,Etten-Leur,Noord-Brabant,VBO,4.624852,51.575063
Wolvespoor,15,,,4874JK,Etten-Leur,Etten-Leur,Noord-Brabant,VBO,4.624763,51.575055
Wolvespoor,17,,,4874JK,Etten-Leur,Etten-Leur,Noord-Brabant,VBO,4.624662,51.575046
Wolvespoor,19,,,4874JK,Etten-Leur,Etten-Leur,Noord-Brabant,VBO,4.624726,51.574832
Wolvespoor,21,,,4874JK,Etten-Leur,Etten-Leur,Noord-Brabant,VBO,4.624741,51.574769
Wolvespoor,23,,,4874JK,Etten-Leur,Etten-Leur,Noord-Brabant,VBO,4.624726,51.574710
Wolvespoor,25,,,4874JK,Etten-Leur,Etten-Leur,Noord-Brabant,VBO,4.624740,51.574653
Wolvespoor,27,,,4874JK,Etten-Leur,Etten-Leur,Noord-Brabant,VBO,4.624754,51.574595
Wolvespoor,2,,,4874JL,Etten-Leur,Etten-Leur,Noord-Brabant,VBO,4.626165,51.574681
Wolvespoor,4,,,4874JL,Etten-Leur,Etten-Leur,Noord-Brabant,VBO,4.626112,51.574738
Wolvespoor,6,,,4874JL,Etten-Leur,Etten-Leur,Noord-Brabant,VBO,4.626047,51.574794
Wolvespoor,8,,,4874JL,Etten-Leur,Etten-Leur,Noord-Brabant,VBO,4.626008,51.574903
Wolvespoor,10,,,4874JL,Etten-Leur,Etten-Leur,Noord-Brabant,VBO,4.625995,51.574959
Wolvespoor,12,,,4874JL,Etten-Leur,Etten-Leur,Noord-Brabant,VBO,4.625982,51.575011
Wolvespoor,14,,,4874JL,Etten-Leur,Etten-Leur,Noord-Brabant,VBO,4.625971,51.575145
Wolvespoor,16,A,,4874JL,Etten-Leur,Etten-Leur,Noord-Brabant,VBO,4.625771,51.575127
Wolvespoor,16,,,4874JL,Etten-Leur,Etten-Leur,Noord-Brabant,VBO,4.625869,51.575136
Wolvespoor,18,,,4874JL,Etten-Leur,Etten-Leur,Noord-Brabant,VBO,4.625430,51.575139
Wolvespoor,20,A,,4874JL,Etten-Leur,Etten-Leur,Noord-Brabant,VBO,4.625404,51.575249
Wolvespoor,20,,,4874JL,Etten-Leur,Etten-Leur,Noord-Brabant,VBO,4.625415,51.575201
Wolvespoor,22,,,4874JL,Etten-Leur,Etten-Leur,Noord-Brabant,VBO,4.625154,51.575360
Wolvespoor,24,,,4874JL,Etten-Leur,Etten-Leur,Noord-Brabant,VBO,4.624904,51.575293
Wolvespoor,26,,,4874JL,Etten-Leur,Etten-Leur,Noord-Brabant,VBO,4.624679,51.575244
Wolvespoor,28,,,4874JL,Etten-Leur,Etten-Leur,Noord-Brabant,VBO,4.624309,51.575080
Wolvespoor,30,,,4874JL,Etten-Leur,Etten-Leur,Noord-Brabant,VBO,4.624325,51.575018
Wolvespoor,32,,,4874JL,Etten-Leur,Etten-Leur,Noord-Brabant,VBO,4.624339,51.574965
Wolvespoor,34,,,4874JL,Etten-Leur,Etten-Leur,Noord-Brabant,VBO,4.624381,51.574911
Wolvespoor,36,,,4874JL,Etten-Leur,Etten-Leur,Noord-Brabant,VBO,4.624395,51.574855
Wolvespoor,38,,,4874JL,Etten-Leur,Etten-Leur,Noord-Brabant,VBO,4.624408,51.574799
Wolvespoor,40,,,4874JL,Etten-Leur,Etten-Leur,Noord-Brabant,VBO,4.624170,51.574619
Wolvespoor,42,,,4874JL,Etten-Leur,Etten-Leur,Noord-Brabant,VBO,4.624282,51.574630
Wolvespoor,44,,,4874JL,Etten-Leur,Etten-Leur,Noord-Brabant,VBO,4.624367,51.574638
Wolvespoor,46,,,4874JL,Etten-Leur,Etten-Leur,Noord-Brabant,VBO,4.624456,51.574646
Dasseburcht,1,,,4874JM,Etten-Leur,Etten-Leur,Noord-Brabant,VBO,4.629017,51.575366
Dasseburcht,3,,,4874JM,Etten-Leur,Etten-Leur,Noord-Brabant,VBO,4.628946,51.575330
Dasseburcht,5,,,4874JM,Etten-Leur,Etten-Leur,Noord-Brabant,VBO,4.628875,51.575294
Dasseburcht,7,,,4874JM,Etten-Leur,Etten-Leur,Noord-Brabant,VBO,4.628803,51.575258
Dasseburcht,9,,,4874JM,Etten-Leur,Etten-Leur,Noord-Brabant,VBO,4.628732,51.575222
Dasseburcht,11,,,4874JM,Etten-Leur,Etten-Leur,Noord-Brabant,VBO,4.628601,51.575182
Dasseburcht,13,,,4874JM,Etten-Leur,Etten-Leur,Noord-Brabant,VBO,4.628503,51.575177
Dasseburcht,15,,,4874JM,Etten-Leur,Etten-Leur,Noord-Brabant,VBO,4.628405,51.575171
Dasseburcht,17,,,4874JM,Etten-Leur,Etten-Leur,Noord-Brabant,VBO,4.628306,51.575166
Dasseburcht,19,,,4874JM,Etten-Leur,Etten-Leur,Noord-Brabant,VBO,4.628159,51.575176
Dasseburcht,21,,,4874JM,Etten-Leur,Etten-Leur,Noord-Brabant,VBO,4.628080,51.575207
Dasseburcht,23,,,4874JM,Etten-Leur,Etten-Leur,Noord-Brabant,VBO,4.628001,51.575237
Dasseburcht,25,,,4874JM,Etten-Leur,Etten-Leur,Noord-Brabant,VBO,4.627922,51.575267
Dasseburcht,27,,,4874JM,Etten-Leur,Etten-Leur,Noord-Brabant,VBO,4.627762,51.575442
Dasseburcht,29,,,4874JM,Etten-Leur,Etten-Leur,Noord-Brabant,VBO,4.627680,51.575421
Dasseburcht,31,,,4874JM,Etten-Leur,Etten-Leur,Noord-Brabant,VBO,4.627598,51.575400
Dasseburcht,33,,,4874JM,Etten-Leur,Etten-Leur,Noord-Brabant,VBO,4.627516,51.575379
Dasseburcht,35,,,4874JM,Etten-Leur,Etten-Leur,Noord-Brabant,VBO,4.627435,51.575358
Dasseburcht,37,,,4874JM,Etten-Leur,Etten-Leur,Noord-Brabant,VBO,4.627145,51.575266
Dasseburcht,39,,,4874JM,Etten-Leur,Etten-Leur,Noord-Brabant,VBO,4.627180,51.575213
Dasseburcht,41,,,4874JM,Etten-Leur,Etten-Leur,Noord-Brabant,VBO,4.627215,51.575160
Dasseburcht,43,,,4874JM,Etten-Leur,Etten-Leur,Noord-Brabant,VBO,4.627250,51.575107
Dasseburcht,45,,,4874JM,Etten-Leur,Etten-Leur,Noord-Brabant,VBO,4.627285,51.575054
Dasseburcht,2,,,4874JN,Etten-Leur,Etten-Leur,Noord-Brabant,VBO,4.629584,51.575238
Dasseburcht,4,,,4874JN,Etten-Leur,Etten-Leur,Noord-Brabant,VBO,4.629531,51.575279
Dasseburcht,6,,,4874JN,Etten-Leur,Etten-Leur,Noord-Brabant,VBO,4.629474,51.575322
Dasseburcht,8,,,4874JN,Etten-Leur,Etten-Leur,Noord-Brabant,VBO,4.629401,51.575350
Dasseburcht,10,,,4874JN,Etten-Leur,Etten-Leur,Noord-Brabant,VBO,4.629342,51.575395
Dasseburcht,12,,,4874JN,Etten-Leur,Etten-Leur,Noord-Brabant,VBO,4.629281,51.575442
Dasseburcht,14,,,4874JN,Etten-Leur,Etten-Leur,Noord-Brabant,VBO,4.629162,51.575548
Dasseburcht,16,,,4874JN,Etten-Leur,Etten-Leur,Noord-Brabant,VBO,4.629176,51.575606
Dasseburcht,18,,,4874JN,Etten-Leur,Etten-Leur,Noord-Brabant,VBO,4.629190,51.575664
Dasseburcht,20,,,4874JN,Etten-Leur,Etten-Leur,Noord-Brabant,VBO,4.629204,51.575723
Dasseburcht,22,,,4874JN,Etten-Leur,Etten-Leur,Noord-Brabant,VBO,4.629615,51.575700
Dasseburcht,24,,,4874JN,Etten-Leur,Etten-Leur,Noord-Brabant,VBO,4.629711,51.575684
Dasseburcht,26,,,4874JN,Etten-Leur,Etten-Leur,Noord-Brabant,VBO,4.629795,51.575670
Dasseburcht,28,,,4874JN,Etten-Leur,Etten-Leur,Noord-Brabant,VBO,4.628825,51.575743
Dasseburcht,30,,,4874JN,Etten-Leur,Etten-Leur,Noord-Brabant,VBO,4.628740,51.575748
Dasseburcht,32,,,4874JN,Etten-Leur,Etten-Leur,Noord-Brabant,VBO,4.628656,51.575753
Dasseburcht,34,,,4874JN,Etten-Leur,Etten-Leur,Noord-Brabant,VBO,4.628572,51.575758
Dasseburcht,36,,,4874JN,Etten-Leur,Etten-Leur,Noord-Brabant,VBO,4.628478,51.575736
Dasseburcht,38,,,4874JN,Etten-Leur,Etten-Leur,Noord-Brabant,VBO,4.628388,51.575741
Dasseburcht,40,,,4874JN,Etten-Leur,Etten-Leur,Noord-Brabant,VBO,4.628299,51.575747
Dasseburcht,42,,,4874JN,Etten-Leur,Etten-Leur,Noord-Brabant,VBO,4.628209,51.575752
Dasseburcht,44,,,4874JP,Etten-Leur,Etten-Leur,Noord-Brabant,VBO,4.627864,51.575788
Dasseburcht,46,,,4874JP,Etten-Leur,Etten-Leur,Noord-Brabant,VBO,4.627869,51.575727
Dasseburcht,48,,,4874JP,Etten-Leur,Etten-Leur,Noord-Brabant,VBO,4.627873,51.575667
Dasseburcht,50,,,4874JP,Etten-Leur,Etten-Leur,Noord-Brabant,VBO,4.627877,51.575606
Dasseburcht,52,,,4874JP,Etten-Leur,Etten-Leur,Noord-Brabant,VBO,4.627525,51.575610
Dasseburcht,54,,,4874JP,Etten-Leur,Etten-Leur,Noord-Brabant,VBO,4.627489,51.575663
Dasseburcht,56,,,4874JP,Etten-Leur,Etten-Leur,Noord-Brabant,VBO,4.627455,51.575716
Dasseburcht,58,,,4874JP,Etten-Leur,Etten-Leur,Noord-Brabant,VBO,4.627419,51.575769
Dasseburcht,60,,,4874JP,Etten-Leur,Etten-Leur,Noord-Brabant,VBO,4.627116,51.575685
Dasseburcht,62,,,4874JP,Etten-Leur,Etten-Leur,Noord-Brabant,VBO,4.627029,51.575677
Dasseburcht,64,,,4874JP,Etten-Leur,Etten-Leur,Noord-Brabant,VBO,4.626931,51.575667
Dasseburcht,66,,,4874JP,Etten-Leur,Etten-Leur,Noord-Brabant,VBO,4.626768,51.575284
Dasseburcht,68,,,4874JP,Etten-Leur,Etten-Leur,Noord-Brabant,VBO,4.626801,51.575233
Dasseburcht,70,,,4874JP,Etten-Leur,Etten-Leur,Noord-Brabant,VBO,4.626837,51.575178
Konijnenberg,1,,,4874JW,Etten-Leur,Etten-Leur,Noord-Brabant,VBO,4.629857,51.575007
Konijnenberg,3,,,4874JW,Etten-Leur,Etten-Leur,Noord-Brabant,VBO,4.629911,51.574965
Konijnenberg,5,,,4874JW,Etten-Leur,Etten-Leur,Noord-Brabant,VBO,4.629965,51.574924
Konijnenberg,7,,,4874JW,Etten-Leur,Etten-Leur,Noord-Brabant,VBO,4.630019,51.574883
Konijnenberg,9,,,4874JW,Etten-Leur,Etten-Leur,Noord-Brabant,VBO,4.630051,51.574830
Konijnenberg,11,,,4874JW,Etten-Leur,Etten-Leur,Noord-Brabant,VBO,4.630108,51.574786
Konijnenberg,13,,,4874JW,Etten-Leur,Etten-Leur,Noord-Brabant,VBO,4.630165,51.574742
Konijnenberg,15,,,4874JW,Etten-Leur,Etten-Leur,Noord-Brabant,VBO,4.630221,51.574699
Konijnenberg,17,,,4874JW,Etten-Leur,Etten-Leur,Noord-Brabant,VBO,4.630549,51.574806
Konijnenberg,19,,,4874JW,Etten-Leur,Etten-Leur,Noord-Brabant,VBO,4.630624,51.574845
Konijnenberg,21,,,4874JW,Etten-Leur,Etten-Leur,Noord-Brabant,VBO,4.630693,51.574880
Konijnenberg,23,,,4874JW,Etten-Leur,Etten-Leur,Noord-Brabant,VBO,4.630759,51.574914
Konijnenberg,25,,,4874JW,Etten-Leur,Etten-Leur,Noord-Brabant,VBO,4.630826,51.574948
Konijnenberg,27,,,4874JW,Etten-Leur,Etten-Leur,Noord-Brabant,VBO,4.630919,51.574961
Konijnenberg,29,,,4874JW,Etten-Leur,Etten-Leur,Noord-Brabant,VBO,4.630985,51.574994
Konijnenberg,31,,,4874JW,Etten-Leur,Etten-Leur,Noord-Brabant,VBO,4.631061,51.575033
Konijnenberg,51,,,4874JX,Etten-Leur,Etten-Leur,Noord-Brabant,VBO,4.630546,51.574494
Konijnenberg,53,,,4874JX,Etten-Leur,Etten-Leur,Noord-Brabant,VBO,4.630723,51.574426
Konijnenberg,2,,,4874JZ,Etten-Leur,Etten-Leur,Noord-Brabant,VBO,4.629845,51.574696
Konijnenberg,4,,,4874JZ,Etten-Leur,Etten-Leur,Noord-Brabant,VBO,4.629898,51.574655
Konijnenberg,6,,,4874JZ,Etten-Leur,Etten-Leur,Noord-Brabant,VBO,4.629952,51.574614
Konijnenberg,8,,,4874JZ,Etten-Leur,Etten-Leur,Noord-Brabant,VBO,4.629986,51.574559
Konijnenberg,10,,,4874JZ,Etten-Leur,Etten-Leur,Noord-Brabant,VBO,4.630042,51.574516
Konijnenberg,12,,,4874JZ,Etten-Leur,Etten-Leur,Noord-Brabant,VBO,4.630225,51.574413
Konijnenberg,14,,,4874JZ,Etten-Leur,Etten-Leur,Noord-Brabant,VBO,4.630281,51.574369
Konijnenberg,16,,,4874JZ,Etten-Leur,Etten-Leur,Noord-Brabant,VBO,4.630334,51.574328
Konijnenberg,18,,,4874JZ,Etten-Leur,Etten-Leur,Noord-Brabant,VBO,4.630389,51.574286
Konijnenberg,20,,,4874JZ,Etten-Leur,Etten-Leur,Noord-Brabant,VBO,4.630468,51.574255
Konijnenberg,22,,,4874JZ,Etten-Leur,Etten-Leur,Noord-Brabant,VBO,4.630524,51.574212
Konijnenberg,24,,,4874JZ,Etten-Leur,Etten-Leur,Noord-Brabant,VBO,4.630752,51.574133
Konijnenberg,26,,,4874JZ,Etten-Leur,Etten-Leur,Noord-Brabant,VBO,4.630975,51.574252
Konijnenberg,28,,,4874JZ,Etten-Leur,Etten-Leur,Noord-Brabant,VBO,4.631196,51.574361
Konijnenberg,30,,,4874JZ,Etten-Leur,Etten-Leur,Noord-Brabant,VBO,4.631417,51.574441
Konijnenberg,32,,,4874JZ,Etten-Leur,Etten-Leur,Noord-Brabant,VBO,4.631636,51.574514
Wildbaan,3,,,4874KA,Etten-Leur,Etten-Leur,Noord-Brabant,VBO,4.630611,51.575335
Wildbaan,5,,,4874KA,Etten-Leur,Etten-Leur,Noord-Brabant,VBO,4.630532,51.575295
Wildbaan,7,,,4874KA,Etten-Leur,Etten-Leur,Noord-Brabant,VBO,4.630467,51.575262
Wildbaan,9,,,4874KA,Etten-Leur,Etten-Leur,Noord-Brabant,VBO,4.630379,51.575241
Wildbaan,11,,,4874KA,Etten-Leur,Etten-Leur,Noord-Brabant,VBO,4.630311,51.575206
Wildbaan,13,,,4874KA,Etten-Leur,Etten-Leur,Noord-Brabant,VBO,4.630246,51.575174
Wildbaan,15,,,4874KA,Etten-Leur,Etten-Leur,Noord-Brabant,VBO,4.630165,51.575132
Wildbaan,17,,,4874KA,Etten-Leur,Etten-Leur,Noord-Brabant,VBO,4.629597,51.574856
Wildbaan,19,,,4874KA,Etten-Leur,Etten-Leur,Noord-Brabant,VBO,4.629527,51.574820
Wildbaan,21,,,4874KA,Etten-Leur,Etten-Leur,Noord-Brabant,VBO,4.629457,51.574784
Wildbaan,23,,,4874KA,Etten-Leur,Etten-Leur,Noord-Brabant,VBO,4.629387,51.574749
Wildbaan,25,,,4874KA,Etten-Leur,Etten-Leur,Noord-Brabant,VBO,4.628389,51.574504
Wildbaan,27,,,4874KA,Etten-Leur,Etten-Leur,Noord-Brabant,VBO,4.628317,51.574459
Wildbaan,29,,,4874KA,Etten-Leur,Etten-Leur,Noord-Brabant,VBO,4.628248,51.574425
Wildbaan,31,,,4874KA,Etten-Leur,Etten-Leur,Noord-Brabant,VBO,4.628214,51.574391
Wildbaan,33,,,4874KA,Etten-Leur,Etten-Leur,Noord-Brabant,VBO,4.628114,51.574341
Wildbaan,35,,,4874KB,Etten-Leur,Etten-Leur,Noord-Brabant,VBO,4.627677,51.574485
Wildbaan,37,,,4874KB,Etten-Leur,Etten-Leur,Noord-Brabant,VBO,4.627616,51.574532
Wildbaan,39,,,4874KB,Etten-Leur,Etten-Leur,Noord-Brabant,VBO,4.627555,51.574578
Wildbaan,41,,,4874KB,Etten-Leur,Etten-Leur,Noord-Brabant,VBO,4.627494,51.574625
Wildbaan,43,,,4874KB,Etten-Leur,Etten-Leur,Noord-Brabant,VBO,4.627155,51.574724
Wildbaan,45,,,4874KB,Etten-Leur,Etten-Leur,Noord-Brabant,VBO,4.627041,51.574694
Wildbaan,47,,,4874KB,Etten-Leur,Etten-Leur,Noord-Brabant,VBO,4.626911,51.574642
Wildbaan,49,,,4874KB,Etten-Leur,Etten-Leur,Noord-Brabant,VBO,4.626812,51.574617
Wildbaan,51,,,4874KB,Etten-Leur,Etten-Leur,Noord-Brabant,VBO,4.626702,51.574591
Wildbaan,59,A,,4874KC,Etten-Leur,Etten-Leur,Noord-Brabant,VBO,4.624954,51.574106
Wildbaan,59,B,,4874KC,Etten-Leur,Etten-Leur,Noord-Brabant,VBO,4.624931,51.574098
Wildbaan,59,C,,4874KC,Etten-Leur,Etten-Leur,Noord-Brabant,VBO,4.624911,51.574131
Wildbaan,59,,,4874KC,Etten-Leur,Etten-Leur,Noord-Brabant,VBO,4.624976,51.574113
Wildbaan,61,A,,4874KC,Etten-Leur,Etten-Leur,Noord-Brabant,VBO,4.624998,51.574054
Wildbaan,61,B,,4874KC,Etten-Leur,Etten-Leur,Noord-Brabant,VBO,4.624976,51.574047
Wildbaan,61,,,4874KC,Etten-Leur,Etten-Leur,Noord-Brabant,VBO,4.625021,51.574061
Wildbaan,63,A,,4874KC,Etten-Leur,Etten-Leur,Noord-Brabant,VBO,4.625033,51.574014
Wildbaan,63,B,,4874KC,Etten-Leur,Etten-Leur,Noord-Brabant,VBO,4.625010,51.574007
Wildbaan,63,,,4874KC,Etten-Leur,Etten-Leur,Noord-Brabant,VBO,4.625055,51.574022
Wildbaan,65,A,,4874KC,Etten-Leur,Etten-Leur,Noord-Brabant,VBO,4.625077,51.573963
Wildbaan,65,B,,4874KC,Etten-Leur,Etten-Leur,Noord-Brabant,VBO,4.625055,51.573955
Wildbaan,65,C,,4874KC,Etten-Leur,Etten-Leur,Noord-Brabant,VBO,4.625114,51.573950
Wildbaan,65,,,4874KC,Etten-Leur,Etten-Leur,Noord-Brabant,VBO,4.625101,51.573969
Wildbaan,67,A,,4874KC,Etten-Leur,Etten-Leur,Noord-Brabant,VBO,4.625158,51.573699
Wildbaan,67,B,,4874KC,Etten-Leur,Etten-Leur,Noord-Brabant,VBO,4.625136,51.573691
Wildbaan,67,,,4874KC,Etten-Leur,Etten-Leur,Noord-Brabant,VBO,4.625180,51.573706
Wildbaan,69,A,,4874KC,Etten-Leur,Etten-Leur,Noord-Brabant,VBO,4.625111,51.573755
Wildbaan,69,B,,4874KC,Etten-Leur,Etten-Leur,Noord-Brabant,VBO,4.625089,51.573747
Wildbaan,69,,,4874KC,Etten-Leur,Etten-Leur,Noord-Brabant,VBO,4.625133,51.573762
Wildbaan,71,A,,4874KC,Etten-Leur,Etten-Leur,Noord-Brabant,VBO,4.625077,51.573794
Wildbaan,71,B,,4874KC,Etten-Leur,Etten-Leur,Noord-Brabant,VBO,4.625055,51.573787
Wildbaan,71,,,4874KC,Etten-Leur,Etten-Leur,Noord-Brabant,VBO,4.625099,51.573802
Wildbaan,73,A,,4874KC,Etten-Leur,Etten-Leur,Noord-Brabant,VBO,4.625034,51.573843
Wildbaan,73,B,,4874KC,Etten-Leur,Etten-Leur,Noord-Brabant,VBO,4.625012,51.573836
Wildbaan,73,,,4874KC,Etten-Leur,Etten-Leur,Noord-Brabant,VBO,4.625056,51.573851
Wildbaan,75,A,,4874KC,Etten-Leur,Etten-Leur,Noord-Brabant,VBO,4.625000,51.573883
Wildbaan,75,B,,4874KC,Etten-Leur,Etten-Leur,Noord-Brabant,VBO,4.624978,51.573875
Wildbaan,75,,,4874KC,Etten-Leur,Etten-Leur,Noord-Brabant,VBO,4.625023,51.573891
Wildbaan,77,A,,4874KC,Etten-Leur,Etten-Leur,Noord-Brabant,VBO,4.624952,51.573938
Wildbaan,77,B,,4874KC,Etten-Leur,Etten-Leur,Noord-Brabant,VBO,4.624930,51.573931
Wildbaan,77,,,4874KC,Etten-Leur,Etten-Leur,Noord-Brabant,VBO,4.624975,51.573947
Wildbaan,79,A,,4874KC,Etten-Leur,Etten-Leur,Noord-Brabant,VBO,4.624874,51.574034
Wildbaan,79,B,,4874KC,Etten-Leur,Etten-Leur,Noord-Brabant,VBO,4.624885,51.574020
Wildbaan,79,,,4874KC,Etten-Leur,Etten-Leur,Noord-Brabant,VBO,4.624862,51.574048
Wildbaan,81,A,,4874KC,Etten-Leur,Etten-Leur,Noord-Brabant,VBO,4.624785,51.574004
Wildbaan,81,B,,4874KC,Etten-Leur,Etten-Leur,Noord-Brabant,VBO,4.624797,51.573991
Wildbaan,81,,,4874KC,Etten-Leur,Etten-Leur,Noord-Brabant,VBO,4.624770,51.574017
Wildbaan,83,A,,4874KC,Etten-Leur,Etten-Leur,Noord-Brabant,VBO,4.624721,51.573983
Wildbaan,83,B,,4874KC,Etten-Leur,Etten-Leur,Noord-Brabant,VBO,4.624733,51.573969
Wildbaan,83,,,4874KC,Etten-Leur,Etten-Leur,Noord-Brabant,VBO,4.624709,51.573997
Wildbaan,85,A,,4874KC,Etten-Leur,Etten-Leur,Noord-Brabant,VBO,4.624632,51.573953
Wildbaan,85,B,,4874KC,Etten-Leur,Etten-Leur,Noord-Brabant,VBO,4.624644,51.573940
Wildbaan,85,C,,4874KC,Etten-Leur,Etten-Leur,Noord-Brabant,VBO,4.624576,51.573952
Wildbaan,85,,,4874KC,Etten-Leur,Etten-Leur,Noord-Brabant,VBO,4.624620,51.573967
Wildbaan,87,A,,4874KC,Etten-Leur,Etten-Leur,Noord-Brabant,VBO,4.624622,51.573862
Wildbaan,87,B,,4874KC,Etten-Leur,Etten-Leur,Noord-Brabant,VBO,4.624632,51.573850
Wildbaan,87,,,4874KC,Etten-Leur,Etten-Leur,Noord-Brabant,VBO,4.624612,51.573874
Wildbaan,89,A,,4874KC,Etten-Leur,Etten-Leur,Noord-Brabant,VBO,4.624715,51.573894
Wildbaan,89,B,,4874KC,Etten-Leur,Etten-Leur,Noord-Brabant,VBO,4.624726,51.573882
Wildbaan,89,C,,4874KC,Etten-Leur,Etten-Leur,Noord-Brabant,VBO,4.624767,51.573896
Wildbaan,89,,,4874KC,Etten-Leur,Etten-Leur,Noord-Brabant,VBO,4.624705,51.573906
Wildbaan,91,,,4874KC,Etten-Leur,Etten-Leur,Noord-Brabant,VBO,4.623206,51.573505
Wildbaan,93,,,4874KC,Etten-Leur,Etten-Leur,Noord-Brabant,VBO,4.623113,51.573494
Wildbaan,95,,,4874KC,Etten-Leur,Etten-Leur,Noord-Brabant,VBO,4.623032,51.573484
Wildbaan,97,,,4874KC,Etten-Leur,Etten-Leur,Noord-Brabant,VBO,4.622943,51.573473
Wildbaan,99,,,4874KC,Etten-Leur,Etten-Leur,Noord-Brabant,VBO,4.622853,51.573481
Wildbaan,101,,,4874KC,Etten-Leur,Etten-Leur,Noord-Brabant,VBO,4.622770,51.573471
Wildbaan,103,,,4874KC,Etten-Leur,Etten-Leur,Noord-Brabant,VBO,4.622681,51.573460
Wildbaan,105,,,4874KC,Etten-Leur,Etten-Leur,Noord-Brabant,VBO,4.622309,51.573408
Wildbaan,107,,,4874KC,Etten-Leur,Etten-Leur,Noord-Brabant,VBO,4.622232,51.573385
Wildbaan,109,,,4874KC,Etten-Leur,Etten-Leur,Noord-Brabant,VBO,4.622135,51.573369
Wildbaan,111,,,4874KC,Etten-Leur,Etten-Leur,Noord-Brabant,VBO,4.621447,51.573169
Wildbaan,113,,,4874KC,Etten-Leur,Etten-Leur,Noord-Brabant,VBO,4.621346,51.573139
Wildbaan,115,,,4874KC,Etten-Leur,Etten-Leur,Noord-Brabant,VBO,4.621216,51.573100
Wildbaan,117,,,4874KC,Etten-Leur,Etten-Leur,Noord-Brabant,VBO,4.621116,51.573071
Wildbaan,119,,,4874KC,Etten-Leur,Etten-Leur,Noord-Brabant,VBO,4.620979,51.573030
Wildbaan,121,,,4874KC,Etten-Leur,Etten-Leur,Noord-Brabant,VBO,4.620884,51.573002
Wildbaan,4,,,4874KD,Etten-Leur,Etten-Leur,Noord-Brabant,VBO,4.630128,51.575527
Wildbaan,6,,,4874KD,Etten-Leur,Etten-Leur,Noord-Brabant,VBO,4.630050,51.575480
Wildbaan,8,,,4874KD,Etten-Leur,Etten-Leur,Noord-Brabant,VBO,4.630007,51.575429
Wildbaan,10,,,4874KD,Etten-Leur,Etten-Leur,Noord-Brabant,VBO,4.629946,51.575392
Wildbaan,12,,,4874KD,Etten-Leur,Etten-Leur,Noord-Brabant,VBO,4.629869,51.575345
Wildbaan,14,,,4874KD,Etten-Leur,Etten-Leur,Noord-Brabant,VBO,4.629328,51.575079
Wildbaan,16,,,4874KD,Etten-Leur,Etten-Leur,Noord-Brabant,VBO,4.629250,51.575039
Wildbaan,18,,,4874KD,Etten-Leur,Etten-Leur,Noord-Brabant,VBO,4.629183,51.575005
Wildbaan,20,,,4874KD,Etten-Leur,Etten-Leur,Noord-Brabant,VBO,4.629128,51.574954
Wildbaan,22,,,4874KD,Etten-Leur,Etten-Leur,Noord-Brabant,VBO,4.629056,51.574918
Wildbaan,24,,,4874KD,Etten-Leur,Etten-Leur,Noord-Brabant,VBO,4.628984,51.574882
Wildbaan,26,,,4874KD,Etten-Leur,Etten-Leur,Noord-Brabant,VBO,4.628912,51.574845
Wildbaan,28,,,4874KD,Etten-Leur,Etten-Leur,Noord-Brabant,VBO,4.628725,51.574803
Wildbaan,30,,,4874KD,Etten-Leur,Etten-Leur,Noord-Brabant,VBO,4.628636,51.574798
Wildbaan,32,,,4874KD,Etten-Leur,Etten-Leur,Noord-Brabant,VBO,4.628546,51.574793
Wildbaan,34,,,4874KD,Etten-Leur,Etten-Leur,Noord-Brabant,VBO,4.628456,51.574789
Wildbaan,36,,,4874KD,Etten-Leur,Etten-Leur,Noord-Brabant,VBO,4.628373,51.574766
Wildbaan,38,,,4874KD,Etten-Leur,Etten-Leur,Noord-Brabant,VBO,4.628283,51.574761
Wildbaan,40,,,4874KD,Etten-Leur,Etten-Leur,Noord-Brabant,VBO,4.628187,51.574755
Wildbaan,42,,,4874KE,Etten-Leur,Etten-Leur,Noord-Brabant,VBO,4.627990,51.574782
Wildbaan,44,,,4874KE,Etten-Leur,Etten-Leur,Noord-Brabant,VBO,4.627911,51.574811
Wildbaan,46,,,4874KE,Etten-Leur,Etten-Leur,Noord-Brabant,VBO,4.627832,51.574840
Wildbaan,48,,,4874KE,Etten-Leur,Etten-Leur,Noord-Brabant,VBO,4.627752,51.574869
Wildbaan,50,,,4874KE,Etten-Leur,Etten-Leur,Noord-Brabant,VBO,4.627668,51.574878
Wildbaan,52,,,4874KE,Etten-Leur,Etten-Leur,Noord-Brabant,VBO,4.627590,51.574907
Wildbaan,54,,,4874KE,Etten-Leur,Etten-Leur,Noord-Brabant,VBO,4.627512,51.574936
Wildbaan,56,,,4874KE,Etten-Leur,Etten-Leur,Noord-Brabant,VBO,4.627435,51.574964
Wildbaan,58,,,4874KE,Etten-Leur,Etten-Leur,Noord-Brabant,VBO,4.626900,51.574968
Wildbaan,60,,,4874KE,Etten-Leur,Etten-Leur,Noord-Brabant,VBO,4.626737,51.574907
Wildbaan,64,,,4874KE,Etten-Leur,Etten-Leur,Noord-Brabant,VBO,4.626434,51.574775
Wildbaan,66,,,4874KE,Etten-Leur,Etten-Leur,Noord-Brabant,VBO,4.625837,51.574621
Wildbaan,68,,,4874KE,Etten-Leur,Etten-Leur,Noord-Brabant,VBO,4.625735,51.574594
Wildbaan,70,,,4874KE,Etten-Leur,Etten-Leur,Noord-Brabant,VBO,4.625658,51.574574
Wildbaan,72,,,4874KE,Etten-Leur,Etten-Leur,Noord-Brabant,VBO,4.625565,51.574570
Wildbaan,74,,,4874KE,Etten-Leur,Etten-Leur,Noord-Brabant,VBO,4.625481,51.574548
Wildbaan,76,,,4874KE,Etten-Leur,Etten-Leur,Noord-Brabant,VBO,4.625386,51.574516
Wildbaan,78,,,4874KG,Etten-Leur,Etten-Leur,Noord-Brabant,VBO,4.625189,51.574468
Wildbaan,80,,,4874KG,Etten-Leur,Etten-Leur,Noord-Brabant,VBO,4.625100,51.574445
Wildbaan,82,,,4874KG,Etten-Leur,Etten-Leur,Noord-Brabant,VBO,4.625033,51.574408
Wildbaan,84,,,4874KG,Etten-Leur,Etten-Leur,Noord-Brabant,VBO,4.624948,51.574386
Wildbaan,86,,,4874KG,Etten-Leur,Etten-Leur,Noord-Brabant,VBO,4.624858,51.574355
Wildbaan,88,,,4874KG,Etten-Leur,Etten-Leur,Noord-Brabant,VBO,4.624605,51.574281
Wildbaan,90,,,4874KG,Etten-Leur,Etten-Leur,Noord-Brabant,VBO,4.624507,51.574256
Wildbaan,92,,,4874KG,Etten-Leur,Etten-Leur,Noord-Brabant,VBO,4.624429,51.574235
Wildbaan,94,,,4874KG,Etten-Leur,Etten-Leur,Noord-Brabant,VBO,4.624371,51.574181
Wildbaan,96,,,4874KG,Etten-Leur,Etten-Leur,Noord-Brabant,VBO,4.624293,51.574161
Wildbaan,98,,,4874KG,Etten-Leur,Etten-Leur,Noord-Brabant,VBO,4.624201,51.574137
Wildbaan,100,,,4874KG,Etten-Leur,Etten-Leur,Noord-Brabant,VBO,4.623668,51.573889
Wildbaan,102,,,4874KG,Etten-Leur,Etten-Leur,Noord-Brabant,VBO,4.623585,51.573871
Wildbaan,104,,,4874KG,Etten-Leur,Etten-Leur,Noord-Brabant,VBO,4.623504,51.573853
Wildbaan,106,,,4874KG,Etten-Leur,Etten-Leur,Noord-Brabant,VBO,4.623418,51.573835
Wildbaan,108,,,4874KG,Etten-Leur,Etten-Leur,Noord-Brabant,VBO,4.622736,51.573732
Wildbaan,110,,,4874KG,Etten-Leur,Etten-Leur,Noord-Brabant,VBO,4.622642,51.573727
Wildbaan,112,,,4874KG,Etten-Leur,Etten-Leur,Noord-Brabant,VBO,4.622547,51.573710
Wildbaan,114,,,4874KG,Etten-Leur,Etten-Leur,Noord-Brabant,VBO,4.622231,51.573671
Wildbaan,116,,,4874KG,Etten-Leur,Etten-Leur,Noord-Brabant,VBO,4.622135,51.573663
Wildbaan,118,,,4874KG,Etten-Leur,Etten-Leur,Noord-Brabant,VBO,4.622057,51.573645
Wildbaan,120,,,4874KG,Etten-Leur,Etten-Leur,Noord-Brabant,VBO,4.621974,51.573626
Wildbaan,122,,,4874KG,Etten-Leur,Etten-Leur,Noord-Brabant,VBO,4.621877,51.573632
Wildbaan,124,,,4874KG,Etten-Leur,Etten-Leur,Noord-Brabant,VBO,4.621799,51.573615
Wildbaan,126,,,4874KG,Etten-Leur,Etten-Leur,Noord-Brabant,VBO,4.621712,51.573589
Wildbaan,130,,,4874KG,Etten-Leur,Etten-Leur,Noord-Brabant,VBO,4.621027,51.573374
Wildbaan,132,,,4874KG,Etten-Leur,Etten-Leur,Noord-Brabant,VBO,4.620924,51.573343
Wildbaan,134,,,4874KG,Etten-Leur,Etten-Leur,Noord-Brabant,VBO,4.620778,51.573320
Wildbaan,136,,,4874KG,Etten-Leur,Etten-Leur,Noord-Brabant,VBO,4.620674,51.573290
Wezelpad,1,,,4874KJ,Etten-Leur,Etten-Leur,Noord-Brabant,VBO,4.621834,51.573254
Wezelpad,2,,,4874KJ,Etten-Leur,Etten-Leur,Noord-Brabant,VBO,4.621652,51.572933
Wezelpad,3,,,4874KJ,Etten-Leur,Etten-Leur,Noord-Brabant,VBO,4.621944,51.573093
Wezelpad,4,,,4874KJ,Etten-Leur,Etten-Leur,Noord-Brabant,VBO,4.621701,51.572873
Wezelpad,5,,,4874KJ,Etten-Leur,Etten-Leur,Noord-Brabant,VBO,4.622235,51.572562
Wezelpad,6,A,,4874KJ,Etten-Leur,Etten-Leur,Noord-Brabant,VBO,4.621878,51.572586
Wezelpad,6,,,4874KJ,Etten-Leur,Etten-Leur,Noord-Brabant,VBO,4.621752,51.572742
Wezelpad,7,,,4874KJ,Etten-Leur,Etten-Leur,Noord-Brabant,VBO,4.622383,51.572426
Wezelpad,8,,,4874KJ,Etten-Leur,Etten-Leur,Noord-Brabant,VBO,4.621995,51.572436
Wezelpad,9,,,4874KJ,Etten-Leur,Etten-Leur,Noord-Brabant,VBO,4.622606,51.572278
Wezelpad,10,,,4874KJ,Etten-Leur,Etten-Leur,Noord-Brabant,VBO,4.622131,51.572274
Wezelpad,11,,,4874KJ,Etten-Leur,Etten-Leur,Noord-Brabant,VBO,4.622645,51.572134
Wezelpad,12,,,4874KJ,Etten-Leur,Etten-Leur,Noord-Brabant,VBO,4.622325,51.572149
Eekhoornpad,1,,,4874KK,Etten-Leur,Etten-Leur,Noord-Brabant,VBO,4.625926,51.573086
Eekhoornpad,3,,,4874KK,Etten-Leur,Etten-Leur,Noord-Brabant,VBO,4.625845,51.573060
Eekhoornpad,5,,,4874KK,Etten-Leur,Etten-Leur,Noord-Brabant,VBO,4.625763,51.573033
Eekhoornpad,7,,,4874KK,Etten-Leur,Etten-Leur,Noord-Brabant,VBO,4.625682,51.573007
Eekhoornpad,9,,,4874KK,Etten-Leur,Etten-Leur,Noord-Brabant,VBO,4.625601,51.572981
Eekhoornpad,11,,,4874KK,Etten-Leur,Etten-Leur,Noord-Brabant,VBO,4.625268,51.572845
Eekhoornpad,13,,,4874KK,Etten-Leur,Etten-Leur,Noord-Brabant,VBO,4.625360,51.572694
Eekhoornpad,15,,,4874KK,Etten-Leur,Etten-Leur,Noord-Brabant,VBO,4.624788,51.572551
Eekhoornpad,17,,,4874KK,Etten-Leur,Etten-Leur,Noord-Brabant,VBO,4.624744,51.572676
Eekhoornpad,19,,,4874KK,Etten-Leur,Etten-Leur,Noord-Brabant,VBO,4.624235,51.572652
Eekhoornpad,21,,,4874KK,Etten-Leur,Etten-Leur,Noord-Brabant,VBO,4.624024,51.572586
Eekhoornpad,23,,,4874KK,Etten-Leur,Etten-Leur,Noord-Brabant,VBO,4.623757,51.572494
Eekhoornpad,25,,,4874KK,Etten-Leur,Etten-Leur,Noord-Brabant,VBO,4.623538,51.572394
Eekhoornpad,2,,,4874KL,Etten-Leur,Etten-Leur,Noord-Brabant,VBO,4.625633,51.573203
Eekhoornpad,4,,,4874KL,Etten-Leur,Etten-Leur,Noord-Brabant,VBO,4.625553,51.573178
Eekhoornpad,6,,,4874KL,Etten-Leur,Etten-Leur,Noord-Brabant,VBO,4.625474,51.573152
Eekhoornpad,8,,,4874KL,Etten-Leur,Etten-Leur,Noord-Brabant,VBO,4.625395,51.573127
Eekhoornpad,10,,,4874KL,Etten-Leur,Etten-Leur,Noord-Brabant,VBO,4.625326,51.573125
Eekhoornpad,12,,,4874KL,Etten-Leur,Etten-Leur,Noord-Brabant,VBO,4.625243,51.573098
Eekhoornpad,14,,,4874KL,Etten-Leur,Etten-Leur,Noord-Brabant,VBO,4.625160,51.573071
Eekhoornpad,16,,,4874KL,Etten-Leur,Etten-Leur,Noord-Brabant,VBO,4.625078,51.573045
Eekhoornpad,18,,,4874KL,Etten-Leur,Etten-Leur,Noord-Brabant,VBO,4.624604,51.572915
Eekhoornpad,20,,,4874KL,Etten-Leur,Etten-Leur,Noord-Brabant,VBO,4.624501,51.572901
Eekhoornpad,22,,,4874KL,Etten-Leur,Etten-Leur,Noord-Brabant,VBO,4.624416,51.572889
Eekhoornpad,24,,,4874KL,Etten-Leur,Etten-Leur,Noord-Brabant,VBO,4.624343,51.572860
Eekhoornpad,26,,,4874KL,Etten-Leur,Etten-Leur,Noord-Brabant,VBO,4.624256,51.572848
Eekhoornpad,28,,,4874KL,Etten-Leur,Etten-Leur,Noord-Brabant,VBO,4.624160,51.572835
Eekhoornpad,30,,,4874KL,Etten-Leur,Etten-Leur,Noord-Brabant,VBO,4.623458,51.572591
Otterpad,1,,,4874KM,Etten-Leur,Etten-Leur,Noord-Brabant,VBO,4.623451,51.573572
Otterpad,2,,,4874KM,Etten-Leur,Etten-Leur,Noord-Brabant,VBO,4.623308,51.573300
Otterpad,3,,,4874KM,Etten-Leur,Etten-Leur,Noord-Brabant,VBO,4.623479,51.573519
Otterpad,4,,,4874KM,Etten-Leur,Etten-Leur,Noord-Brabant,VBO,4.623360,51.573251
Otterpad,5,,,4874KM,Etten-Leur,Etten-Leur,Noord-Brabant,VBO,4.623500,51.573469
Otterpad,6,,,4874KM,Etten-Leur,Etten-Leur,Noord-Brabant,VBO,4.623397,51.573205
Otterpad,7,,,4874KM,Etten-Leur,Etten-Leur,Noord-Brabant,VBO,4.623846,51.573106
Otterpad,8,,,4874KM,Etten-Leur,Etten-Leur,Noord-Brabant,VBO,4.623770,51.572816
Otterpad,9,,,4874KM,Etten-Leur,Etten-Leur,Noord-Brabant,VBO,4.623894,51.573047
Otterpad,11,,,4874KM,Etten-Leur,Etten-Leur,Noord-Brabant,VBO,4.623942,51.572989
Marterhof,1,,,4874KN,Etten-Leur,Etten-Leur,Noord-Brabant,VBO,4.625068,51.573472
Marterhof,3,,,4874KN,Etten-Leur,Etten-Leur,Noord-Brabant,VBO,4.624981,51.573444
Marterhof,5,,,4874KN,Etten-Leur,Etten-Leur,Noord-Brabant,VBO,4.624919,51.573424
Marterhof,7,,,4874KN,Etten-Leur,Etten-Leur,Noord-Brabant,VBO,4.624822,51.573413
Marterhof,9,,,4874KN,Etten-Leur,Etten-Leur,Noord-Brabant,VBO,4.624753,51.573391
Marterhof,11,,,4874KN,Etten-Leur,Etten-Leur,Noord-Brabant,VBO,4.624658,51.573360
Marterhof,13,,,4874KN,Etten-Leur,Etten-Leur,Noord-Brabant,VBO,4.624600,51.573205
Marterhof,15,,,4874KN,Etten-Leur,Etten-Leur,Noord-Brabant,VBO,4.624454,51.573328
Marterhof,17,,,4874KN,Etten-Leur,Etten-Leur,Noord-Brabant,VBO,4.624373,51.573302
Marterhof,19,,,4874KN,Etten-Leur,Etten-Leur,Noord-Brabant,VBO,4.624292,51.573275
Marterhof,21,,,4874KN,Etten-Leur,Etten-Leur,Noord-Brabant,VBO,4.624212,51.573249
Marterhof,23,,,4874KN,Etten-Leur,Etten-Leur,Noord-Brabant,VBO,4.624131,51.573223
Marterhof,25,,,4874KN,Etten-Leur,Etten-Leur,Noord-Brabant,VBO,4.623549,51.573031
Marterhof,27,,,4874KN,Etten-Leur,Etten-Leur,Noord-Brabant,VBO,4.623469,51.573005
Marterhof,29,,,4874KN,Etten-Leur,Etten-Leur,Noord-Brabant,VBO,4.623389,51.572978
Marterhof,31,,,4874KN,Etten-Leur,Etten-Leur,Noord-Brabant,VBO,4.623309,51.572952
Marterhof,33,,,4874KN,Etten-Leur,Etten-Leur,Noord-Brabant,VBO,4.623245,51.572911
Marterhof,35,,,4874KN,Etten-Leur,Etten-Leur,Noord-Brabant,VBO,4.623169,51.572886
Marterhof,37,,,4874KN,Etten-Leur,Etten-Leur,Noord-Brabant,VBO,4.623080,51.572857
Marterhof,39,,,4874KN,Etten-Leur,Etten-Leur,Noord-Brabant,VBO,4.622564,51.572768
Marterhof,14,,,4874KP,Etten-Leur,Etten-Leur,Noord-Brabant,VBO,4.624498,51.573550
Marterhof,16,,,4874KP,Etten-Leur,Etten-Leur,Noord-Brabant,VBO,4.624457,51.573602
Marterhof,18,,,4874KP,Etten-Leur,Etten-Leur,Noord-Brabant,VBO,4.624451,51.573650
Marterhof,20,,,4874KP,Etten-Leur,Etten-Leur,Noord-Brabant,VBO,4.624410,51.573702
Marterhof,22,,,4874KP,Etten-Leur,Etten-Leur,Noord-Brabant,VBO,4.624368,51.573754
Marterhof,24,,,4874KP,Etten-Leur,Etten-Leur,Noord-Brabant,VBO,4.624009,51.573720
Marterhof,26,,,4874KP,Etten-Leur,Etten-Leur,Noord-Brabant,VBO,4.624048,51.573662
Marterhof,28,,,4874KP,Etten-Leur,Etten-Leur,Noord-Brabant,VBO,4.624074,51.573622
Marterhof,30,,,4874KP,Etten-Leur,Etten-Leur,Noord-Brabant,VBO,4.624138,51.573573
Marterhof,32,,,4874KP,Etten-Leur,Etten-Leur,Noord-Brabant,VBO,4.624165,51.573533
Marterhof,34,,,4874KP,Etten-Leur,Etten-Leur,Noord-Brabant,VBO,4.624205,51.573473
Marterhof,36,,,4874KR,Etten-Leur,Etten-Leur,Noord-Brabant,VBO,4.623945,51.573365
Marterhof,38,,,4874KR,Etten-Leur,Etten-Leur,Noord-Brabant,VBO,4.623852,51.573334
Marterhof,40,,,4874KR,Etten-Leur,Etten-Leur,Noord-Brabant,VBO,4.623776,51.573309
Marterhof,42,,,4874KR,Etten-Leur,Etten-Leur,Noord-Brabant,VBO,4.623689,51.573281
Marterhof,44,,,4874KR,Etten-Leur,Etten-Leur,Noord-Brabant,VBO,4.623080,51.573080
Marterhof,46,,,4874KR,Etten-Leur,Etten-Leur,Noord-Brabant,VBO,4.623002,51.573054
Marterhof,48,,,4874KR,Etten-Leur,Etten-Leur,Noord-Brabant,VBO,4.622924,51.573029
Marterhof,50,,,4874KR,Etten-Leur,Etten-Leur,Noord-Brabant,VBO,4.622846,51.573003
Marterhof,52,,,4874KR,Etten-Leur,Etten-Leur,Noord-Brabant,VBO,4.622470,51.572962
Marterhof,54,,,4874KR,Etten-Leur,Etten-Leur,Noord-Brabant,VBO,4.622400,51.572939
Marterhof,56,,,4874KR,Etten-Leur,Etten-Leur,Noord-Brabant,VBO,4.622325,51.572914
Marterhof,58,,,4874KR,Etten-Leur,Etten-Leur,Noord-Brabant,VBO,4.622251,51.572870
Marterhof,60,,,4874KR,Etten-Leur,Etten-Leur,Noord-Brabant,VBO,4.622186,51.572848
Marterhof,62,,,4874KR,Etten-Leur,Etten-Leur,Noord-Brabant,VBO,4.622090,51.572816
Beverdam,15,,,4874KS,Etten-Leur,Etten-Leur,Noord-Brabant,VBO,4.626365,51.573984
Beverdam,17,,,4874KS,Etten-Leur,Etten-Leur,Noord-Brabant,VBO,4.626285,51.573956
Beverdam,19,,,4874KS,Etten-Leur,Etten-Leur,Noord-Brabant,VBO,4.626196,51.573926
Beverdam,21,,,4874KS,Etten-Leur,Etten-Leur,Noord-Brabant,VBO,4.626132,51.573905
Beverdam,23,,,4874KS,Etten-Leur,Etten-Leur,Noord-Brabant,VBO,4.626056,51.573859
Beverdam,25,,,4874KS,Etten-Leur,Etten-Leur,Noord-Brabant,VBO,4.625993,51.573838
Beverdam,27,,,4874KS,Etten-Leur,Etten-Leur,Noord-Brabant,VBO,4.625897,51.573806
Beverdam,29,,,4874KS,Etten-Leur,Etten-Leur,Noord-Brabant,VBO,4.625595,51.573703
Beverdam,31,,,4874KS,Etten-Leur,Etten-Leur,Noord-Brabant,VBO,4.625648,51.573654
Beverdam,33,,,4874KS,Etten-Leur,Etten-Leur,Noord-Brabant,VBO,4.625701,51.573590
Beverdam,35,,,4874KS,Etten-Leur,Etten-Leur,Noord-Brabant,VBO,4.625725,51.573530
Beverdam,37,,,4874KS,Etten-Leur,Etten-Leur,Noord-Brabant,VBO,4.625782,51.573487
Beverdam,39,,,4874KS,Etten-Leur,Etten-Leur,Noord-Brabant,VBO,4.625839,51.573444
Beverdam,41,,,4874KS,Etten-Leur,Etten-Leur,Noord-Brabant,VBO,4.625897,51.573401
Beverdam,43,,,4874KS,Etten-Leur,Etten-Leur,Noord-Brabant,VBO,4.625954,51.573357
Beverdam,45,,,4874KT,Etten-Leur,Etten-Leur,Noord-Brabant,VBO,4.626231,51.573485
Beverdam,47,,,4874KT,Etten-Leur,Etten-Leur,Noord-Brabant,VBO,4.626309,51.573520
Beverdam,49,,,4874KT,Etten-Leur,Etten-Leur,Noord-Brabant,VBO,4.626390,51.573548
Beverdam,51,,,4874KT,Etten-Leur,Etten-Leur,Noord-Brabant,VBO,4.626486,51.573573
Beverdam,53,,,4874KT,Etten-Leur,Etten-Leur,Noord-Brabant,VBO,4.626596,51.573795
Beverdam,55,,,4874KT,Etten-Leur,Etten-Leur,Noord-Brabant,VBO,4.626649,51.573747
Beverdam,57,,,4874KT,Etten-Leur,Etten-Leur,Noord-Brabant,VBO,4.626697,51.573689
Beverdam,59,,,4874KT,Etten-Leur,Etten-Leur,Noord-Brabant,VBO,4.626730,51.573649
Beverdam,61,,,4874KT,Etten-Leur,Etten-Leur,Noord-Brabant,VBO,4.626750,51.573586
Beverdam,63,,,4874KT,Etten-Leur,Etten-Leur,Noord-Brabant,VBO,4.626785,51.573529
Beverdam,65,,,4874KT,Etten-Leur,Etten-Leur,Noord-Brabant,VBO,4.626841,51.573468
Beverdam,67,,,4874KT,Etten-Leur,Etten-Leur,Noord-Brabant,VBO,4.626910,51.573426
Beverdam,69,,,4874KT,Etten-Leur,Etten-Leur,Noord-Brabant,VBO,4.626975,51.573375
Beverdam,71,,,4874KT,Etten-Leur,Etten-Leur,Noord-Brabant,VBO,4.627027,51.573335
Beverdam,73,,,4874KT,Etten-Leur,Etten-Leur,Noord-Brabant,VBO,4.626867,51.573159
Beverdam,75,,,4874KT,Etten-Leur,Etten-Leur,Noord-Brabant,VBO,4.626811,51.573202
Beverdam,77,,,4874KT,Etten-Leur,Etten-Leur,Noord-Brabant,VBO,4.626750,51.573248
Beverdam,79,,,4874KT,Etten-Leur,Etten-Leur,Noord-Brabant,VBO,4.626677,51.573274
Beverdam,81,,,4874KT,Etten-Leur,Etten-Leur,Noord-Brabant,VBO,4.626622,51.573316
Beverdam,83,,,4874KT,Etten-Leur,Etten-Leur,Noord-Brabant,VBO,4.626555,51.573367
Beverdam,85,,,4874KT,Etten-Leur,Etten-Leur,Noord-Brabant,VBO,4.626273,51.573243
Beverdam,87,,,4874KT,Etten-Leur,Etten-Leur,Noord-Brabant,VBO,4.626203,51.573206
Beverdam,89,,,4874KT,Etten-Leur,Etten-Leur,Noord-Brabant,VBO,4.626119,51.573163
Beverdam,91,,,4874KT,Etten-Leur,Etten-Leur,Noord-Brabant,VBO,4.626324,51.572994
Beverdam,2,,,4874KV,Etten-Leur,Etten-Leur,Noord-Brabant,VBO,4.625364,51.573566
Beverdam,4,,,4874KV,Etten-Leur,Etten-Leur,Noord-Brabant,VBO,4.625415,51.573506
Beverdam,6,,,4874KV,Etten-Leur,Etten-Leur,Noord-Brabant,VBO,4.625449,51.573465
Beverdam,8,,,4874KV,Etten-Leur,Etten-Leur,Noord-Brabant,VBO,4.625498,51.573408
Hazeleger,2,,,4874KW,Etten-Leur,Etten-Leur,Noord-Brabant,VBO,4.628761,51.574544
Hazeleger,4,,,4874KW,Etten-Leur,Etten-Leur,Noord-Brabant,VBO,4.628807,51.574509
Hazeleger,6,,,4874KW,Etten-Leur,Etten-Leur,Noord-Brabant,VBO,4.628879,51.574454
Hazeleger,8,,,4874KW,Etten-Leur,Etten-Leur,Noord-Brabant,VBO,4.628940,51.574436
Hazeleger,10,,,4874KW,Etten-Leur,Etten-Leur,Noord-Brabant,VBO,4.629005,51.574386
Hazeleger,12,,,4874KW,Etten-Leur,Etten-Leur,Noord-Brabant,VBO,4.629061,51.574343
Hazeleger,14,,,4874KW,Etten-Leur,Etten-Leur,Noord-Brabant,VBO,4.629149,51.574303
Hazeleger,16,,,4874KW,Etten-Leur,Etten-Leur,Noord-Brabant,VBO,4.629203,51.574261
Hazeleger,18,,,4874KW,Etten-Leur,Etten-Leur,Noord-Brabant,VBO,4.629258,51.574219
Hazeleger,20,,,4874KW,Etten-Leur,Etten-Leur,Noord-Brabant,VBO,4.629313,51.574177
Hazeleger,22,,,4874KW,Etten-Leur,Etten-Leur,Noord-Brabant,VBO,4.629368,51.574135
Hazeleger,24,,,4874KW,Etten-Leur,Etten-Leur,Noord-Brabant,VBO,4.629143,51.573989
Hazeleger,26,,,4874KW,Etten-Leur,Etten-Leur,Noord-Brabant,VBO,4.629069,51.573949
Hazeleger,28,,,4874KW,Etten-Leur,Etten-Leur,Noord-Brabant,VBO,4.628995,51.573909
Hazeleger,30,,,4874KW,Etten-Leur,Etten-Leur,Noord-Brabant,VBO,4.628921,51.573869
Hazeleger,32,,,4874KW,Etten-Leur,Etten-Leur,Noord-Brabant,VBO,4.628848,51.573830
Hazeleger,1,,,4874KX,Etten-Leur,Etten-Leur,Noord-Brabant,VBO,4.629138,51.574660
Hazeleger,3,,,4874KX,Etten-Leur,Etten-Leur,Noord-Brabant,VBO,4.629145,51.574600
Hazeleger,5,,,4874KX,Etten-Leur,Etten-Leur,Noord-Brabant,VBO,4.629200,51.574557
Hazeleger,7,,,4874KX,Etten-Leur,Etten-Leur,Noord-Brabant,VBO,4.629256,51.574515
Hazeleger,9,,,4874KX,Etten-Leur,Etten-Leur,Noord-Brabant,VBO,4.629311,51.574472
Hazeleger,11,,,4874KX,Etten-Leur,Etten-Leur,Noord-Brabant,VBO,4.629367,51.574430
Hazeleger,13,,,4874KX,Etten-Leur,Etten-Leur,Noord-Brabant,VBO,4.629444,51.574399
Hazeleger,15,,,4874KX,Etten-Leur,Etten-Leur,Noord-Brabant,VBO,4.629503,51.574354
Hazeleger,17,,,4874KX,Etten-Leur,Etten-Leur,Noord-Brabant,VBO,4.629561,51.574310
Hazeleger,19,,,4874KX,Etten-Leur,Etten-Leur,Noord-Brabant,VBO,4.629620,51.574265
Hazeleger,21,,,4874KX,Etten-Leur,Etten-Leur,Noord-Brabant,VBO,4.629793,51.574173
Hazeleger,23,,,4874KX,Etten-Leur,Etten-Leur,Noord-Brabant,VBO,4.629857,51.574124
Hazeleger,25,,,4874KX,Etten-Leur,Etten-Leur,Noord-Brabant,VBO,4.629910,51.574084
Hazeleger,27,,,4874KX,Etten-Leur,Etten-Leur,Noord-Brabant,VBO,4.629968,51.574040
Hazeleger,29,,,4874KX,Etten-Leur,Etten-Leur,Noord-Brabant,VBO,4.630019,51.574001
Hazeleger,31,,,4874KX,Etten-Leur,Etten-Leur,Noord-Brabant,VBO,4.630051,51.573948
Hazeleger,33,,,4874KX,Etten-Leur,Etten-Leur,Noord-Brabant,VBO,4.630117,51.573898
Hazeleger,35,,,4874KX,Etten-Leur,Etten-Leur,Noord-Brabant,VBO,4.629660,51.573974
Hazeleger,37,,,4874KX,Etten-Leur,Etten-Leur,Noord-Brabant,VBO,4.629590,51.573938
Hazeleger,39,,,4874KX,Etten-Leur,Etten-Leur,Noord-Brabant,VBO,4.629514,51.573899
Hazeleger,41,,,4874KX,Etten-Leur,Etten-Leur,Noord-Brabant,VBO,4.629429,51.573879
Hazeleger,43,,,4874KX,Etten-Leur,Etten-Leur,Noord-Brabant,VBO,4.629354,51.573841
Hazeleger,45,,,4874KX,Etten-Leur,Etten-Leur,Noord-Brabant,VBO,4.629280,51.573803
Hazeleger,47,,,4874KX,Etten-Leur,Etten-Leur,Noord-Brabant,VBO,4.629205,51.573765
Hazeleger,49,,,4874KZ,Etten-Leur,Etten-Leur,Noord-Brabant,VBO,4.629130,51.573750
Hazeleger,51,,,4874KZ,Etten-Leur,Etten-Leur,Noord-Brabant,VBO,4.629052,51.573710
Hazeleger,53,,,4874KZ,Etten-Leur,Etten-Leur,Noord-Brabant,VBO,4.628973,51.573670
Hazeleger,55,,,4874KZ,Etten-Leur,Etten-Leur,Noord-Brabant,VBO,4.628895,51.573630
Hazeleger,57,,,4874KZ,Etten-Leur,Etten-Leur,Noord-Brabant,VBO,4.628629,51.573661
Hazeleger,59,,,4874KZ,Etten-Leur,Etten-Leur,Noord-Brabant,VBO,4.628569,51.573707
Hazeleger,61,,,4874KZ,Etten-Leur,Etten-Leur,Noord-Brabant,VBO,4.628509,51.573753
Hazeleger,63,,,4874KZ,Etten-Leur,Etten-Leur,Noord-Brabant,VBO,4.628450,51.573798
Hazeleger,65,,,4874KZ,Etten-Leur,Etten-Leur,Noord-Brabant,VBO,4.628391,51.573844
Hazeleger,67,,,4874KZ,Etten-Leur,Etten-Leur,Noord-Brabant,VBO,4.627923,51.573844
Hazeleger,69,,,4874KZ,Etten-Leur,Etten-Leur,Noord-Brabant,VBO,4.627985,51.573887
Hazeleger,71,,,4874KZ,Etten-Leur,Etten-Leur,Noord-Brabant,VBO,4.628047,51.573930
Hazeleger,73,,,4874KZ,Etten-Leur,Etten-Leur,Noord-Brabant,VBO,4.628109,51.573973
Hazeleger,75,,,4874KZ,Etten-Leur,Etten-Leur,Noord-Brabant,VBO,4.628172,51.574017
Hazeleger,77,,,4874KZ,Etten-Leur,Etten-Leur,Noord-Brabant,VBO,4.627742,51.574258
Hazeleger,79,,,4874KZ,Etten-Leur,Etten-Leur,Noord-Brabant,VBO,4.627679,51.574214
Hazeleger,81,,,4874KZ,Etten-Leur,Etten-Leur,Noord-Brabant,VBO,4.627617,51.574171
Hazeleger,83,,,4874KZ,Etten-Leur,Etten-Leur,Noord-Brabant,VBO,4.627554,51.574128
Hazeleger,85,,,4874KZ,Etten-Leur,Etten-Leur,Noord-Brabant,VBO,4.627492,51.574084
Hazeleger,87,,,4874KZ,Etten-Leur,Etten-Leur,Noord-Brabant,VBO,4.627131,51.574261
Hazeleger,89,,,4874KZ,Etten-Leur,Etten-Leur,Noord-Brabant,VBO,4.627216,51.574289
Hazeleger,91,,,4874KZ,Etten-Leur,Etten-Leur,Noord-Brabant,VBO,4.627302,51.574318
Hazeleger,93,,,4874KZ,Etten-Leur,Etten-Leur,Noord-Brabant,VBO,4.627388,51.574346
Midden Donk,1,,,4874LK,Etten-Leur,Etten-Leur,Noord-Brabant,VBO,4.602791,51.575747
Midden Donk,3,,,4874LK,Etten-Leur,Etten-Leur,Noord-Brabant,VBO,4.602756,51.575286
Midden Donk,5,,,4874LK,Etten-Leur,Etten-Leur,Noord-Brabant,VBO,4.602636,51.574458
Midden Donk,9,,,4874LK,Etten-Leur,Etten-Leur,Noord-Brabant,VBO,4.602283,51.571964
Midden Donk,11,,,4874LK,Etten-Leur,Etten-Leur,Noord-Brabant,VBO,4.602187,51.571002
Midden Donk,15,,,4874LK,Etten-Leur,Etten-Leur,Noord-Brabant,VBO,4.602309,51.568845
Midden Donk,2,A,,4874LL,Etten-Leur,Etten-Leur,Noord-Brabant,VBO,4.602368,51.575947
Midden Donk,2,,,4874LL,Etten-Leur,Etten-Leur,Noord-Brabant,VBO,4.602308,51.575286
Midden Donk,4,,,4874LL,Etten-Leur,Etten-Leur,Noord-Brabant,VBO,4.602245,51.574896
Midden Donk,6,,,4874LL,Etten-Leur,Etten-Leur,Noord-Brabant,VBO,4.602108,51.573694
Midden Donk,8,,,4874LL,Etten-Leur,Etten-Leur,Noord-Brabant,VBO,4.601918,51.572887
Midden Donk,10,,,4874LL,Etten-Leur,Etten-Leur,Noord-Brabant,VBO,4.601765,51.572392
Midden Donk,12,,,4874LL,Etten-Leur,Etten-Leur,Noord-Brabant,VBO,4.601684,51.569617
Midden Donk,14,,,4874LL,Etten-Leur,Etten-Leur,Noord-Brabant,VBO,4.601815,51.568778
Midden Donk,16,,,4874LL,Etten-Leur,Etten-Leur,Noord-Brabant,VBO,4.601886,51.568589
Lage Donk,11,,,4874LM,Etten-Leur,Etten-Leur,Noord-Brabant,VBO,4.602208,51.577386
Lage Donk,15,,,4874LM,Etten-Leur,Etten-Leur,Noord-Brabant,VBO,4.602544,51.577758
Lage Donk,21,,,4874LM,Etten-Leur,Etten-Leur,Noord-Brabant,VBO,4.602827,51.578399
Lage Donk,29,,,4874LM,Etten-Leur,Etten-Leur,Noord-Brabant,VBO,4.602986,51.578782
Lage Donk,33,,,4874LM,Etten-Leur,Etten-Leur,Noord-Brabant,VBO,4.603172,51.579118
Lage Donk,35,,,4874LM,Etten-Leur,Etten-Leur,Noord-Brabant,VBO,4.602827,51.580134
Lage Donk,45,,,4874LM,Etten-Leur,Etten-Leur,Noord-Brabant,VBO,4.601950,51.581571
Lage Donk,49,,,4874LM,Etten-Leur,Etten-Leur,Noord-Brabant,VBO,4.604034,51.581007
Lage Donk,51,,,4874LM,Etten-Leur,Etten-Leur,Noord-Brabant,VBO,4.604088,51.581105
Lage Donk,67,,,4874LN,Etten-Leur,Etten-Leur,Noord-Brabant,VBO,4.604533,51.582429
Lage Donk,81,,,4874LN,Etten-Leur,Etten-Leur,Noord-Brabant,VBO,4.605048,51.583687
Lage Donk,87,,,4874LN,Etten-Leur,Etten-Leur,Noord-Brabant,VBO,4.605391,51.584346
Lage Donk,95,,,4874LN,Etten-Leur,Etten-Leur,Noord-Brabant,VBO,4.605521,51.584828
Lage Donk,103,,,4874LN,Etten-Leur,Etten-Leur,Noord-Brabant,VBO,4.606709,51.585763
Lage Donk,111,,,4874LN,Etten-Leur,Etten-Leur,Noord-Brabant,VBO,4.607865,51.586212
Lage Donk,121,,,4874LN,Etten-Leur,Etten-Leur,Noord-Brabant,VBO,4.613007,51.585454
Lage Donk,12,,,4874LP,Etten-Leur,Etten-Leur,Noord-Brabant,VBO,4.602581,51.577210
Lage Donk,16,,,4874LP,Etten-Leur,Etten-Leur,Noord-Brabant,VBO,4.603010,51.577773
Lage Donk,18,,,4874LP,Etten-Leur,Etten-Leur,Noord-Brabant,VBO,4.603243,51.578215
Lage Donk,24,,,4874LP,Etten-Leur,Etten-Leur,Noord-Brabant,VBO,4.603518,51.578669
Lage Donk,30,,,4874LP,Etten-Leur,Etten-Leur,Noord-Brabant,VBO,4.603692,51.579328
Lage Donk,38,,,4874LP,Etten-Leur,Etten-Leur,Noord-Brabant,VBO,4.604074,51.580121
Lage Donk,46,,,4874LP,Etten-Leur,Etten-Leur,Noord-Brabant,VBO,4.604264,51.580894
Lage Donk,52,,,4874LP,Etten-Leur,Etten-Leur,Noord-Brabant,VBO,4.604715,51.581645
Lage Donk,64,,,4874LP,Etten-Leur,Etten-Leur,Noord-Brabant,VBO,4.605490,51.583039
Lage Donk,72,,,4874LP,Etten-Leur,Etten-Leur,Noord-Brabant,VBO,4.605611,51.583391
Lage Donk,96,,,4874LP,Etten-Leur,Etten-Leur,Noord-Brabant,VBO,4.606166,51.585257
Lage Donk,110,A,,4874LP,Etten-Leur,Etten-Leur,Noord-Brabant,VBO,4.607990,51.585813
Achter Boerkens,7,,,4874LR,Etten-Leur,Etten-Leur,Noord-Brabant,VBO,4.604669,51.586108
Achter Boerkens,18,,,4874LR,Etten-Leur,Etten-Leur,Noord-Brabant,VBO,4.602908,51.586195
Vlaanderbos,3,,,4874LS,Etten-Leur,Etten-Leur,Noord-Brabant,VBO,4.604771,51.586438
Vlaanderbos,6,,,4874LS,Etten-Leur,Etten-Leur,Noord-Brabant,VBO,4.605436,51.588501
Vlaanderbos,7,,,4874LS,Etten-Leur,Etten-Leur,Noord-Brabant,VBO,4.604622,51.586897
Vlaanderbos,11,,,4874LS,Etten-Leur,Etten-Leur,Noord-Brabant,VBO,4.604656,51.587616
Vlaanderbos,19,,,4874LS,Etten-Leur,Etten-Leur,Noord-Brabant,VBO,4.605500,51.590012
Vlaanderbos,21,,,4874LS,Etten-Leur,Etten-Leur,Noord-Brabant,VBO,4.606416,51.591698
Achter de Vaart,1,A,,4874LT,Etten-Leur,Etten-Leur,Noord-Brabant,VBO,4.608946,51.576313
Achter de Vaart,1,,,4874LT,Etten-Leur,Etten-Leur,Noord-Brabant,VBO,4.608426,51.576153
Achter de Vaart,3,A,,4874LT,Etten-Leur,Etten-Leur,Noord-Brabant,VBO,4.609470,51.577749
Achter de Vaart,3,,,4874LT,Etten-Leur,Etten-Leur,Noord-Brabant,VBO,4.609050,51.576453
Achter de Vaart,5,,,4874LT,Etten-Leur,Etten-Leur,Noord-Brabant,VBO,4.609594,51.578719
Achter de Vaart,7,,,4874LT,Etten-Leur,Etten-Leur,Noord-Brabant,VBO,4.609760,51.579170
Laakseweg,8,,,4874LV,Etten-Leur,Etten-Leur,Noord-Brabant,VBO,4.609819,51.576632
Laakseweg,24,,,4874LV,Etten-Leur,Etten-Leur,Noord-Brabant,VBO,4.610498,51.579737
Laakseweg,30,,,4874LV,Etten-Leur,Etten-Leur,Noord-Brabant,VBO,4.610682,51.580603
Laakseweg,76,,,4874LV,Etten-Leur,Etten-Leur,Noord-Brabant,VBO,4.611099,51.585978
Hoevenseweg,2,,,4874LW,Etten-Leur,Etten-Leur,Noord-Brabant,VBO,4.632452,51.574370
Hoevenseweg,12,,,4874LW,Etten-Leur,Etten-Leur,Noord-Brabant,VBO,4.627101,51.576217
Hoevenseweg,14,,,4874LW,Etten-Leur,Etten-Leur,Noord-Brabant,VBO,4.626402,51.575997
Hoevenseweg,16,,,4874LW,Etten-Leur,Etten-Leur,Noord-Brabant,VBO,4.625639,51.575980
Hoevenseweg,18,A,,4874LW,Etten-Leur,Etten-Leur,Noord-Brabant,VBO,4.624654,51.576072
Hoevenseweg,18,,,4874LW,Etten-Leur,Etten-Leur,Noord-Brabant,VBO,4.624932,51.575799
Hoevenseweg,20,A,,4874LW,Etten-Leur,Etten-Leur,Noord-Brabant,VBO,4.623763,51.575646
Hoevenseweg,20,,,4874LW,Etten-Leur,Etten-Leur,Noord-Brabant,VBO,4.623898,51.575671
Hoevenseweg,22,,,4874LW,Etten-Leur,Etten-Leur,Noord-Brabant,VBO,4.622963,51.575553
Hoevenseweg,24,,,4874LW,Etten-Leur,Etten-Leur,Noord-Brabant,VBO,4.622611,51.575511
Hoevenseweg,26,,,4874LW,Etten-Leur,Etten-Leur,Noord-Brabant,VBO,4.621705,51.575490
Hoevenseweg,28,,,4874LW,Etten-Leur,Etten-Leur,Noord-Brabant,VBO,4.620638,51.575305
Hoevenseweg,34,,,4874LW,Etten-Leur,Etten-Leur,Noord-Brabant,VBO,4.617804,51.575502
Hoevenseweg,38,,,4874LW,Etten-Leur,Etten-Leur,Noord-Brabant,VBO,4.615664,51.575496
Hoevenseweg,40,,,4874LW,Etten-Leur,Etten-Leur,Noord-Brabant,VBO,4.615504,51.575499
Hoevenseweg,42,,,4874LW,Etten-Leur,Etten-Leur,Noord-Brabant,VBO,4.614531,51.575785
Hoevenseweg,44,C,,4874LW,Etten-Leur,Etten-Leur,Noord-Brabant,VBO,4.604066,51.576474
Hoevenseweg,44,,,4874LW,Etten-Leur,Etten-Leur,Noord-Brabant,VBO,4.612274,51.575852
Hoevenseweg,46,,,4874LW,Etten-Leur,Etten-Leur,Noord-Brabant,VBO,4.602394,51.576592
Hoevenseweg,48,,,4874LW,Etten-Leur,Etten-Leur,Noord-Brabant,VBO,4.601654,51.576740
Hoevenseweg,52,,,4874LW,Etten-Leur,Etten-Leur,Noord-Brabant,VBO,4.600017,51.576817
Hoevenseweg,54,,,4874LW,Etten-Leur,Etten-Leur,Noord-Brabant,VBO,4.599213,51.576674
Hoevenseweg,58,,,4874LW,Etten-Leur,Etten-Leur,Noord-Brabant,VBO,4.597374,51.576934
Hoevenseweg,5,,,4874LX,Etten-Leur,Etten-Leur,Noord-Brabant,VBO,4.631341,51.574804
Hoevenseweg,11,,,4874LX,Etten-Leur,Etten-Leur,Noord-Brabant,VBO,4.626551,51.575597
Hoevenseweg,13,,,4874LX,Etten-Leur,Etten-Leur,Noord-Brabant,VBO,4.626280,51.575563
Hoevenseweg,15,,,4874LX,Etten-Leur,Etten-Leur,Noord-Brabant,VBO,4.625971,51.575533
Hoevenseweg,17,,,4874LX,Etten-Leur,Etten-Leur,Noord-Brabant,VBO,4.625725,51.575562
Hoevenseweg,19,,,4874LX,Etten-Leur,Etten-Leur,Noord-Brabant,VBO,4.625492,51.575533
Hoevenseweg,23,A,,4874LX,Etten-Leur,Etten-Leur,Noord-Brabant,VBO,4.623632,51.575236
Hoevenseweg,23,,,4874LX,Etten-Leur,Etten-Leur,Noord-Brabant,VBO,4.623917,51.575357
Hoevenseweg,25,,,4874LX,Etten-Leur,Etten-Leur,Noord-Brabant,VBO,4.623283,51.575174
Hoevenseweg,27,,,4874LX,Etten-Leur,Etten-Leur,Noord-Brabant,VBO,4.622986,51.575137
Hoevenseweg,31,,,4874LX,Etten-Leur,Etten-Leur,Noord-Brabant,VBO,4.621667,51.574942
Hoevenseweg,33,,,4874LX,Etten-Leur,Etten-Leur,Noord-Brabant,VBO,4.620460,51.574847
Bijenweide,4,,,4874MA,Etten-Leur,Etten-Leur,Noord-Brabant,VBO,4.632084,51.577317
Bijenweide,6,,,4874MA,Etten-Leur,Etten-Leur,Noord-Brabant,VBO,4.631848,51.577253
Bijenweide,8,,,4874MA,Etten-Leur,Etten-Leur,Noord-Brabant,VBO,4.631517,51.577161
Bijenweide,10,,,4874MA,Etten-Leur,Etten-Leur,Noord-Brabant,VBO,4.631489,51.577209
Bijenweide,12,,,4874MA,Etten-Leur,Etten-Leur,Noord-Brabant,VBO,4.631461,51.577257
Bijenweide,14,,,4874MA,Etten-Leur,Etten-Leur,Noord-Brabant,VBO,4.631433,51.577304
Bijenweide,16,,,4874MA,Etten-Leur,Etten-Leur,Noord-Brabant,VBO,4.631404,51.577352
Bijenweide,18,,,4874MA,Etten-Leur,Etten-Leur,Noord-Brabant,VBO,4.631376,51.577400
Bijenweide,20,,,4874MA,Etten-Leur,Etten-Leur,Noord-Brabant,VBO,4.631348,51.577447
Bijenweide,22,,,4874MA,Etten-Leur,Etten-Leur,Noord-Brabant,VBO,4.631319,51.577485
Bijenweide,24,,,4874MA,Etten-Leur,Etten-Leur,Noord-Brabant,VBO,4.631689,51.577562
Bijenweide,26,,,4874MA,Etten-Leur,Etten-Leur,Noord-Brabant,VBO,4.631934,51.577611
Bijenweide,1,,,4874MB,Etten-Leur,Etten-Leur,Noord-Brabant,VBO,4.632438,51.577209
Bijenweide,3,,,4874MB,Etten-Leur,Etten-Leur,Noord-Brabant,VBO,4.632251,51.577152
Bijenweide,5,,,4874MB,Etten-Leur,Etten-Leur,Noord-Brabant,VBO,4.632121,51.577114
Bijenweide,7,,,4874MB,Etten-Leur,Etten-Leur,Noord-Brabant,VBO,4.631899,51.577046
Bijenweide,9,,,4874MB,Etten-Leur,Etten-Leur,Noord-Brabant,VBO,4.631683,51.576978
Bijenweide,11,,,4874MB,Etten-Leur,Etten-Leur,Noord-Brabant,VBO,4.631627,51.576827
Bijenweide,13,,,4874MB,Etten-Leur,Etten-Leur,Noord-Brabant,VBO,4.631511,51.576693
Bijenweide,15,,,4874MB,Etten-Leur,Etten-Leur,Noord-Brabant,VBO,4.631191,51.576640
Bijenweide,17,,,4874MB,Etten-Leur,Etten-Leur,Noord-Brabant,VBO,4.630987,51.576687
Bijenweide,19,,,4874MB,Etten-Leur,Etten-Leur,Noord-Brabant,VBO,4.630906,51.577126
Bijenweide,21,,,4874MB,Etten-Leur,Etten-Leur,Noord-Brabant,VBO,4.630879,51.577180
Bijenweide,23,,,4874MB,Etten-Leur,Etten-Leur,Noord-Brabant,VBO,4.630859,51.577221
Bijenweide,25,,,4874MB,Etten-Leur,Etten-Leur,Noord-Brabant,VBO,4.630842,51.577256
Bijenweide,27,,,4874MB,Etten-Leur,Etten-Leur,Noord-Brabant,VBO,4.630805,51.577374
Bijenweide,29,,,4874MB,Etten-Leur,Etten-Leur,Noord-Brabant,VBO,4.630800,51.577423
Bijenweide,31,,,4874MB,Etten-Leur,Etten-Leur,Noord-Brabant,VBO,4.630796,51.577473
Bijenweide,33,,,4874MB,Etten-Leur,Etten-Leur,Noord-Brabant,VBO,4.630793,51.577502
Bijenweide,35,,,4874MB,Etten-Leur,Etten-Leur,Noord-Brabant,VBO,4.630777,51.577641
Bijenweide,37,,,4874MB,Etten-Leur,Etten-Leur,Noord-Brabant,VBO,4.630842,51.577771
Bijenweide,39,,,4874MB,Etten-Leur,Etten-Leur,Noord-Brabant,VBO,4.630982,51.577878
Bijenweide,41,,,4874MB,Etten-Leur,Etten-Leur,Noord-Brabant,VBO,4.631086,51.577903
Bijenweide,43,,,4874MB,Etten-Leur,Etten-Leur,Noord-Brabant,VBO,4.631290,51.577904
Bijenweide,45,,,4874MB,Etten-Leur,Etten-Leur,Noord-Brabant,VBO,4.631583,51.577748
Bijenweide,47,,,4874MB,Etten-Leur,Etten-Leur,Noord-Brabant,VBO,4.631791,51.577803
Bijenweide,49,,,4874MB,Etten-Leur,Etten-Leur,Noord-Brabant,VBO,4.632048,51.577840
Bloemenweide,1,,,4874MC,Etten-Leur,Etten-Leur,Noord-Brabant,VBO,4.632049,51.578187
Bloemenweide,2,,,4874MC,Etten-Leur,Etten-Leur,Noord-Brabant,VBO,4.631931,51.578413
Bloemenweide,3,,,4874MC,Etten-Leur,Etten-Leur,Noord-Brabant,VBO,4.631968,51.578182
Bloemenweide,4,,,4874MC,Etten-Leur,Etten-Leur,Noord-Brabant,VBO,4.631650,51.578404
Bloemenweide,5,,,4874MC,Etten-Leur,Etten-Leur,Noord-Brabant,VBO,4.631887,51.578176
Bloemenweide,6,,,4874MC,Etten-Leur,Etten-Leur,Noord-Brabant,VBO,4.631383,51.578506
Bloemenweide,7,,,4874MC,Etten-Leur,Etten-Leur,Noord-Brabant,VBO,4.631806,51.578170
Bloemenweide,8,,,4874MC,Etten-Leur,Etten-Leur,Noord-Brabant,VBO,4.631257,51.578396
Bloemenweide,9,,,4874MC,Etten-Leur,Etten-Leur,Noord-Brabant,VBO,4.631725,51.578164
Bloemenweide,10,,,4874MC,Etten-Leur,Etten-Leur,Noord-Brabant,VBO,4.631138,51.578301
Bloemenweide,11,,,4874MC,Etten-Leur,Etten-Leur,Noord-Brabant,VBO,4.631644,51.578159
Bloemenweide,12,,,4874MC,Etten-Leur,Etten-Leur,Noord-Brabant,VBO,4.631129,51.578164
Bloemenweide,13,,,4874MC,Etten-Leur,Etten-Leur,Noord-Brabant,VBO,4.631563,51.578153
Bloemenweide,15,,,4874MC,Etten-Leur,Etten-Leur,Noord-Brabant,VBO,4.631482,51.578147
Klaverweide,1,,,4874MD,Etten-Leur,Etten-Leur,Noord-Brabant,VBO,4.631927,51.578792
Klaverweide,2,,,4874MD,Etten-Leur,Etten-Leur,Noord-Brabant,VBO,4.632697,51.578987
Klaverweide,3,,,4874MD,Etten-Leur,Etten-Leur,Noord-Brabant,VBO,4.631843,51.578801
Klaverweide,4,,,4874MD,Etten-Leur,Etten-Leur,Noord-Brabant,VBO,4.632769,51.578980
Klaverweide,5,,,4874MD,Etten-Leur,Etten-Leur,Noord-Brabant,VBO,4.631627,51.578774
Klaverweide,6,,,4874MD,Etten-Leur,Etten-Leur,Noord-Brabant,VBO,4.632852,51.578968
Klaverweide,7,,,4874MD,Etten-Leur,Etten-Leur,Noord-Brabant,VBO,4.631552,51.578804
Klaverweide,8,,,4874MD,Etten-Leur,Etten-Leur,Noord-Brabant,VBO,4.632930,51.578960
Klaverweide,9,,,4874MD,Etten-Leur,Etten-Leur,Noord-Brabant,VBO,4.631525,51.578954
Klaverweide,10,,,4874MD,Etten-Leur,Etten-Leur,Noord-Brabant,VBO,4.633011,51.578952
Klaverweide,11,,,4874MD,Etten-Leur,Etten-Leur,Noord-Brabant,VBO,4.631539,51.579008
Klaverweide,12,,,4874MD,Etten-Leur,Etten-Leur,Noord-Brabant,VBO,4.633093,51.578944
Klaverweide,13,,,4874MD,Etten-Leur,Etten-Leur,Noord-Brabant,VBO,4.631678,51.579129
Klaverweide,14,,,4874MD,Etten-Leur,Etten-Leur,Noord-Brabant,VBO,4.633276,51.578749
Klaverweide,15,,,4874MD,Etten-Leur,Etten-Leur,Noord-Brabant,VBO,4.631728,51.579142
Klaverweide,16,,,4874MD,Etten-Leur,Etten-Leur,Noord-Brabant,VBO,4.633184,51.578725
Klaverweide,17,,,4874MD,Etten-Leur,Etten-Leur,Noord-Brabant,VBO,4.631983,51.579069
Klaverweide,18,,,4874MD,Etten-Leur,Etten-Leur,Noord-Brabant,VBO,4.633072,51.578696
Klaverweide,20,,,4874MD,Etten-Leur,Etten-Leur,Noord-Brabant,VBO,4.632987,51.578673
Klaverweide,22,,,4874MD,Etten-Leur,Etten-Leur,Noord-Brabant,VBO,4.633290,51.578733
Klaverweide,24,,,4874MD,Etten-Leur,Etten-Leur,Noord-Brabant,VBO,4.633194,51.578708
Klaverweide,26,,,4874MD,Etten-Leur,Etten-Leur,Noord-Brabant,VBO,4.633083,51.578679
Klaverweide,28,,,4874MD,Etten-Leur,Etten-Leur,Noord-Brabant,VBO,4.632997,51.578657
Klaverweide,30,,,4874MD,Etten-Leur,Etten-Leur,Noord-Brabant,VBO,4.633232,51.578657
Grasweide,1,,,4874ME,Etten-Leur,Etten-Leur,Noord-Brabant,VBO,4.632101,51.579421
Grasweide,5,,,4874ME,Etten-Leur,Etten-Leur,Noord-Brabant,VBO,4.631659,51.579367
Grasweide,7,,,4874ME,Etten-Leur,Etten-Leur,Noord-Brabant,VBO,4.631668,51.579415
Grasweide,9,,,4874ME,Etten-Leur,Etten-Leur,Noord-Brabant,VBO,4.631677,51.579464
Grasweide,11,,,4874ME,Etten-Leur,Etten-Leur,Noord-Brabant,VBO,4.631687,51.579517
Grasweide,13,,,4874ME,Etten-Leur,Etten-Leur,Noord-Brabant,VBO,4.631750,51.579615
Grasweide,15,,,4874ME,Etten-Leur,Etten-Leur,Noord-Brabant,VBO,4.631777,51.579663
Grasweide,17,,,4874ME,Etten-Leur,Etten-Leur,Noord-Brabant,VBO,4.631830,51.579768
Grasweide,19,,,4874ME,Etten-Leur,Etten-Leur,Noord-Brabant,VBO,4.631872,51.579810
Grasweide,21,,,4874ME,Etten-Leur,Etten-Leur,Noord-Brabant,VBO,4.631912,51.579851
Grasweide,23,,,4874ME,Etten-Leur,Etten-Leur,Noord-Brabant,VBO,4.631953,51.579892
Grasweide,25,,,4874ME,Etten-Leur,Etten-Leur,Noord-Brabant,VBO,4.632233,51.579674
Hooiweg,2,,,4874MG,Etten-Leur,Etten-Leur,Noord-Brabant,VBO,4.633843,51.579148
Hooiweg,4,,,4874MG,Etten-Leur,Etten-Leur,Noord-Brabant,VBO,4.634046,51.579223
Hooiweg,6,,,4874MG,Etten-Leur,Etten-Leur,Noord-Brabant,VBO,4.634160,51.579352
Hooiweg,8,,,4874MG,Etten-Leur,Etten-Leur,Noord-Brabant,VBO,4.634215,51.579479
Hooiweg,10,,,4874MG,Etten-Leur,Etten-Leur,Noord-Brabant,VBO,4.634261,51.579611
Hooiweg,12,,,4874MG,Etten-Leur,Etten-Leur,Noord-Brabant,VBO,4.634363,51.579727
Hooiweg,14,,,4874MG,Etten-Leur,Etten-Leur,Noord-Brabant,VBO,4.634500,51.579821
Hooiweg,16,,,4874MG,Etten-Leur,Etten-Leur,Noord-Brabant,VBO,4.634683,51.579915
Hooiweg,18,,,4874MG,Etten-Leur,Etten-Leur,Noord-Brabant,VBO,4.634761,51.579946
Hooiweg,20,,,4874MG,Etten-Leur,Etten-Leur,Noord-Brabant,VBO,4.634993,51.580011
Hooiweg,1,,,4874MH,Etten-Leur,Etten-Leur,Noord-Brabant,VBO,4.634118,51.579852
Hooiweg,3,,,4874MH,Etten-Leur,Etten-Leur,Noord-Brabant,VBO,4.634298,51.579972
Hooiweg,5,,,4874MH,Etten-Leur,Etten-Leur,Noord-Brabant,VBO,4.634503,51.580093
Hooiweg,7,,,4874MH,Etten-Leur,Etten-Leur,Noord-Brabant,VBO,4.634744,51.580167
Hooiweg,11,,,4874MH,Etten-Leur,Etten-Leur,Noord-Brabant,VBO,4.634642,51.580382
Hooiweg,15,,,4874MH,Etten-Leur,Etten-Leur,Noord-Brabant,VBO,4.634546,51.580527
Hooiweg,17,,,4874MH,Etten-Leur,Etten-Leur,Noord-Brabant,VBO,4.634190,51.581047
Hooiweg,19,,,4874MH,Etten-Leur,Etten-Leur,Noord-Brabant,VBO,4.633918,51.580970
Hooiweg,21,,,4874MH,Etten-Leur,Etten-Leur,Noord-Brabant,VBO,4.633691,51.580906
Hooiweg,23,,,4874MH,Etten-Leur,Etten-Leur,Noord-Brabant,VBO,4.633596,51.580879
Hooiweg,25,,,4874MH,Etten-Leur,Etten-Leur,Noord-Brabant,VBO,4.633409,51.580825
Hooiweg,27,,,4874MH,Etten-Leur,Etten-Leur,Noord-Brabant,VBO,4.633227,51.580773
Hooiweg,29,,,4874MH,Etten-Leur,Etten-Leur,Noord-Brabant,VBO,4.633125,51.580744
Hooiweg,31,,,4874MH,Etten-Leur,Etten-Leur,Noord-Brabant,VBO,4.632923,51.580657
Hooiweg,33,,,4874MH,Etten-Leur,Etten-Leur,Noord-Brabant,VBO,4.632690,51.580620
Hooiweg,35,,,4874MH,Etten-Leur,Etten-Leur,Noord-Brabant,VBO,4.632384,51.580514
Hooiweg,37,,,4874MH,Etten-Leur,Etten-Leur,Noord-Brabant,VBO,4.632379,51.580465
Hooiweg,39,,,4874MH,Etten-Leur,Etten-Leur,Noord-Brabant,VBO,4.632373,51.580417
Hooiweg,41,,,4874MH,Etten-Leur,Etten-Leur,Noord-Brabant,VBO,4.632367,51.580369
Hooiweg,43,,,4874MH,Etten-Leur,Etten-Leur,Noord-Brabant,VBO,4.632362,51.580321
Hooiweg,45,,,4874MH,Etten-Leur,Etten-Leur,Noord-Brabant,VBO,4.632629,51.580189
Hooiweg,47,,,4874MH,Etten-Leur,Etten-Leur,Noord-Brabant,VBO,4.632798,51.580121
Hooiweg,49,,,4874MH,Etten-Leur,Etten-Leur,Noord-Brabant,VBO,4.632995,51.580043
Hooiweg,51,,,4874MH,Etten-Leur,Etten-Leur,Noord-Brabant,VBO,4.633199,51.579971
Hooiweg,53,,,4874MH,Etten-Leur,Etten-Leur,Noord-Brabant,VBO,4.633530,51.579854
Hooiweg,55,,,4874MH,Etten-Leur,Etten-Leur,Noord-Brabant,VBO,4.633573,51.579812
Hooiweg,57,,,4874MH,Etten-Leur,Etten-Leur,Noord-Brabant,VBO,4.633644,51.579784
Hooiweg,59,,,4874MH,Etten-Leur,Etten-Leur,Noord-Brabant,VBO,4.633714,51.579756
Hooiweg,61,,,4874MH,Etten-Leur,Etten-Leur,Noord-Brabant,VBO,4.633784,51.579728
Hooiweg,63,,,4874MH,Etten-Leur,Etten-Leur,Noord-Brabant,VBO,4.633854,51.579700
Hooiweg,65,,,4874MH,Etten-Leur,Etten-Leur,Noord-Brabant,VBO,4.633925,51.579690
Bleekweide,1,,,4874MJ,Etten-Leur,Etten-Leur,Noord-Brabant,VBO,4.633298,51.580248
Bleekweide,2,,,4874MJ,Etten-Leur,Etten-Leur,Noord-Brabant,VBO,4.633626,51.580052
Bleekweide,3,,,4874MJ,Etten-Leur,Etten-Leur,Noord-Brabant,VBO,4.633331,51.580446
Bleekweide,4,,,4874MJ,Etten-Leur,Etten-Leur,Noord-Brabant,VBO,4.633726,51.580185
Bleekweide,5,,,4874MJ,Etten-Leur,Etten-Leur,Noord-Brabant,VBO,4.633572,51.580545
Bleekweide,6,,,4874MJ,Etten-Leur,Etten-Leur,Noord-Brabant,VBO,4.633862,51.580284
Bleekweide,7,,,4874MJ,Etten-Leur,Etten-Leur,Noord-Brabant,VBO,4.633842,51.580573
Bleekweide,8,,,4874MJ,Etten-Leur,Etten-Leur,Noord-Brabant,VBO,4.634000,51.580386
Bleekweide,9,,,4874MJ,Etten-Leur,Etten-Leur,Noord-Brabant,VBO,4.634095,51.580618
Bleekweide,10,,,4874MJ,Etten-Leur,Etten-Leur,Noord-Brabant,VBO,4.634192,51.580444
Bleekweide,11,,,4874MJ,Etten-Leur,Etten-Leur,Noord-Brabant,VBO,4.634364,51.580701
Hooiweg,150,,,4874MK,Etten-Leur,Etten-Leur,Noord-Brabant,VBO,4.631785,51.580268
Hooiweg,152,,,4874MK,Etten-Leur,Etten-Leur,Noord-Brabant,VBO,4.631858,51.580242
Hooiweg,154,,,4874MK,Etten-Leur,Etten-Leur,Noord-Brabant,VBO,4.631930,51.580216
Hooiweg,156,,,4874MK,Etten-Leur,Etten-Leur,Noord-Brabant,VBO,4.632002,51.580191
Hooiweg,158,,,4874MK,Etten-Leur,Etten-Leur,Noord-Brabant,VBO,4.632074,51.580165
Hooiweg,160,,,4874MK,Etten-Leur,Etten-Leur,Noord-Brabant,VBO,4.632146,51.580139
Hooiweg,162,,,4874MK,Etten-Leur,Etten-Leur,Noord-Brabant,VBO,4.632261,51.580099
Hooiweg,164,,,4874MK,Etten-Leur,Etten-Leur,Noord-Brabant,VBO,4.632325,51.580076
Hooiweg,166,,,4874MK,Etten-Leur,Etten-Leur,Noord-Brabant,VBO,4.632389,51.580053
Hooiweg,168,,,4874MK,Etten-Leur,Etten-Leur,Noord-Brabant,VBO,4.632454,51.580030
Hooiweg,170,,,4874MK,Etten-Leur,Etten-Leur,Noord-Brabant,VBO,4.632518,51.580007
Hooiweg,172,,,4874MK,Etten-Leur,Etten-Leur,Noord-Brabant,VBO,4.632582,51.579984
Veldweg,1,,,4874ML,Etten-Leur,Etten-Leur,Noord-Brabant,VBO,4.632960,51.577005
Veldweg,3,,,4874ML,Etten-Leur,Etten-Leur,Noord-Brabant,VBO,4.632845,51.577119
Veldweg,5,,,4874ML,Etten-Leur,Etten-Leur,Noord-Brabant,VBO,4.632797,51.577171
Veldweg,7,,,4874ML,Etten-Leur,Etten-Leur,Noord-Brabant,VBO,4.632695,51.577292
Veldweg,21,,,4874ML,Etten-Leur,Etten-Leur,Noord-Brabant,VBO,4.632539,51.577433
Veldweg,23,,,4874ML,Etten-Leur,Etten-Leur,Noord-Brabant,VBO,4.632500,51.577467
Veldweg,25,,,4874ML,Etten-Leur,Etten-Leur,Noord-Brabant,VBO,4.632459,51.577509
Veldweg,27,,,4874ML,Etten-Leur,Etten-Leur,Noord-Brabant,VBO,4.632422,51.577561
Veldweg,29,,,4874ML,Etten-Leur,Etten-Leur,Noord-Brabant,VBO,4.632397,51.577613
Veldweg,31,,,4874ML,Etten-Leur,Etten-Leur,Noord-Brabant,VBO,4.632383,51.577668
Veldweg,33,,,4874ML,Etten-Leur,Etten-Leur,Noord-Brabant,VBO,4.632348,51.577706
Veldweg,35,,,4874ML,Etten-Leur,Etten-Leur,Noord-Brabant,VBO,4.632336,51.577908
Veldweg,37,,,4874ML,Etten-Leur,Etten-Leur,Noord-Brabant,VBO,4.632286,51.578049
Veldweg,39,,,4874ML,Etten-Leur,Etten-Leur,Noord-Brabant,VBO,4.632256,51.578183
Veldweg,43,,,4874ML,Etten-Leur,Etten-Leur,Noord-Brabant,VBO,4.632193,51.578462
Veldweg,45,,,4874ML,Etten-Leur,Etten-Leur,Noord-Brabant,VBO,4.632190,51.578532
Veldweg,47,,,4874ML,Etten-Leur,Etten-Leur,Noord-Brabant,VBO,4.632193,51.578655
Veldweg,49,,,4874ML,Etten-Leur,Etten-Leur,Noord-Brabant,VBO,4.632199,51.578725
Veldweg,51,,,4874ML,Etten-Leur,Etten-Leur,Noord-Brabant,VBO,4.632268,51.579074
Veldweg,53,,,4874ML,Etten-Leur,Etten-Leur,Noord-Brabant,VBO,4.632291,51.579146
Veldweg,55,,,4874ML,Etten-Leur,Etten-Leur,Noord-Brabant,VBO,4.632335,51.579264
Veldweg,57,,,4874ML,Etten-Leur,Etten-Leur,Noord-Brabant,VBO,4.632365,51.579332
Veldweg,59,,,4874ML,Etten-Leur,Etten-Leur,Noord-Brabant,VBO,4.632546,51.579611
Veldweg,61,,,4874ML,Etten-Leur,Etten-Leur,Noord-Brabant,VBO,4.632618,51.579717
Veldweg,63,,,4874ML,Etten-Leur,Etten-Leur,Noord-Brabant,VBO,4.632680,51.579799
Veldweg,65,,,4874ML,Etten-Leur,Etten-Leur,Noord-Brabant,VBO,4.632748,51.579882
Veldweg,2,,,4874MN,Etten-Leur,Etten-Leur,Noord-Brabant,VBO,4.633102,51.577434
Veldweg,4,,,4874MN,Etten-Leur,Etten-Leur,Noord-Brabant,VBO,4.633116,51.577496
Veldweg,6,,,4874MN,Etten-Leur,Etten-Leur,Noord-Brabant,VBO,4.633110,51.577606
Veldweg,8,,,4874MN,Etten-Leur,Etten-Leur,Noord-Brabant,VBO,4.633090,51.577667
Veldweg,10,,,4874MN,Etten-Leur,Etten-Leur,Noord-Brabant,VBO,4.633023,51.577769
Veldweg,12,,,4874MN,Etten-Leur,Etten-Leur,Noord-Brabant,VBO,4.632971,51.577822
Veldweg,14,,,4874MN,Etten-Leur,Etten-Leur,Noord-Brabant,VBO,4.632853,51.577904
Veldweg,16,,,4874MN,Etten-Leur,Etten-Leur,Noord-Brabant,VBO,4.632774,51.577942
Veldweg,18,,,4874MN,Etten-Leur,Etten-Leur,Noord-Brabant,VBO,4.632694,51.578067
Veldweg,20,,,4874MN,Etten-Leur,Etten-Leur,Noord-Brabant,VBO,4.632653,51.578224
Veldweg,22,,,4874MN,Etten-Leur,Etten-Leur,Noord-Brabant,VBO,4.632817,51.578238
Veldweg,24,,,4874MN,Etten-Leur,Etten-Leur,Noord-Brabant,VBO,4.633004,51.578269
Veldweg,26,,,4874MN,Etten-Leur,Etten-Leur,Noord-Brabant,VBO,4.632897,51.578430
Veldweg,28,,,4874MN,Etten-Leur,Etten-Leur,Noord-Brabant,VBO,4.632641,51.578461
Veldweg,30,,,4874MN,Etten-Leur,Etten-Leur,Noord-Brabant,VBO,4.632641,51.578530
Veldweg,32,,,4874MN,Etten-Leur,Etten-Leur,Noord-Brabant,VBO,4.632639,51.578624
Akkerhof,1,,,4874MP,Etten-Leur,Etten-Leur,Noord-Brabant,VBO,4.634132,51.578049
Akkerhof,3,,,4874MP,Etten-Leur,Etten-Leur,Noord-Brabant,VBO,4.634053,51.577995
Akkerhof,5,,,4874MP,Etten-Leur,Etten-Leur,Noord-Brabant,VBO,4.633932,51.577964
Akkerhof,7,,,4874MP,Etten-Leur,Etten-Leur,Noord-Brabant,VBO,4.633811,51.577932
Akkerhof,9,,,4874MP,Etten-Leur,Etten-Leur,Noord-Brabant,VBO,4.633692,51.577902
Akkerhof,11,,,4874MP,Etten-Leur,Etten-Leur,Noord-Brabant,VBO,4.633495,51.577975
Akkerhof,13,,,4874MP,Etten-Leur,Etten-Leur,Noord-Brabant,VBO,4.633446,51.578047
Akkerhof,15,,,4874MP,Etten-Leur,Etten-Leur,Noord-Brabant,VBO,4.633502,51.578183
Akkerhof,17,,,4874MP,Etten-Leur,Etten-Leur,Noord-Brabant,VBO,4.633621,51.578214
Akkerhof,19,,,4874MP,Etten-Leur,Etten-Leur,Noord-Brabant,VBO,4.633742,51.578245
Akkerhof,21,,,4874MP,Etten-Leur,Etten-Leur,Noord-Brabant,VBO,4.633862,51.578276
Akkerhof,23,,,4874MP,Etten-Leur,Etten-Leur,Noord-Brabant,VBO,4.633986,51.578276
Kweekakker,2,,,4874MR,Etten-Leur,Etten-Leur,Noord-Brabant,VBO,4.634575,51.578880
Kweekakker,4,,,4874MR,Etten-Leur,Etten-Leur,Noord-Brabant,VBO,4.634537,51.578978
Kweekakker,6,,,4874MR,Etten-Leur,Etten-Leur,Noord-Brabant,VBO,4.634427,51.579024
Vrijheidsakker,1,,,4874MS,Etten-Leur,Etten-Leur,Noord-Brabant,VBO,4.635251,51.578105
Vrijheidsakker,2,,,4874MS,Etten-Leur,Etten-Leur,Noord-Brabant,VBO,4.635366,51.578659
Vrijheidsakker,3,,,4874MS,Etten-Leur,Etten-Leur,Noord-Brabant,VBO,4.635208,51.578144
Vrijheidsakker,4,,,4874MS,Etten-Leur,Etten-Leur,Noord-Brabant,VBO,4.635321,51.578724
Vrijheidsakker,5,,,4874MS,Etten-Leur,Etten-Leur,Noord-Brabant,VBO,4.635162,51.578182
Vrijheidsakker,6,,,4874MS,Etten-Leur,Etten-Leur,Noord-Brabant,VBO,4.635276,51.578790
Vrijheidsakker,7,,,4874MS,Etten-Leur,Etten-Leur,Noord-Brabant,VBO,4.635119,51.578223
Vrijheidsakker,8,,,4874MS,Etten-Leur,Etten-Leur,Noord-Brabant,VBO,4.635227,51.578857
Vrijheidsakker,9,,,4874MS,Etten-Leur,Etten-Leur,Noord-Brabant,VBO,4.635075,51.578260
Vrijheidsakker,10,,,4874MS,Etten-Leur,Etten-Leur,Noord-Brabant,VBO,4.635186,51.578923
Vrijheidsakker,11,,,4874MS,Etten-Leur,Etten-Leur,Noord-Brabant,VBO,4.635028,51.578301
Vrijheidsakker,12,,,4874MS,Etten-Leur,Etten-Leur,Noord-Brabant,VBO,4.635135,51.578992
Vrijheidsakker,13,,,4874MS,Etten-Leur,Etten-Leur,Noord-Brabant,VBO,4.634976,51.578341
Vrijheidsakker,15,,,4874MS,Etten-Leur,Etten-Leur,Noord-Brabant,VBO,4.634900,51.578436
Vrijheidsakker,17,,,4874MS,Etten-Leur,Etten-Leur,Noord-Brabant,VBO,4.634867,51.578483
Vrijheidsakker,19,,,4874MS,Etten-Leur,Etten-Leur,Noord-Brabant,VBO,4.634834,51.578528
Vrijheidsakker,21,,,4874MS,Etten-Leur,Etten-Leur,Noord-Brabant,VBO,4.634802,51.578572
Vrijheidsakker,23,,,4874MS,Etten-Leur,Etten-Leur,Noord-Brabant,VBO,4.634773,51.578618
Vrijheidsakker,25,,,4874MS,Etten-Leur,Etten-Leur,Noord-Brabant,VBO,4.634748,51.578662
Vrijheidsakker,27,,,4874MS,Etten-Leur,Etten-Leur,Noord-Brabant,VBO,4.634722,51.578707
Vrijheidsakker,29,,,4874MS,Etten-Leur,Etten-Leur,Noord-Brabant,VBO,4.634681,51.578753
Heerlijkheid,1,,,4874MT,Etten-Leur,Etten-Leur,Noord-Brabant,VBO,4.635616,51.578334
Heerlijkheid,2,,,4874MT,Etten-Leur,Etten-Leur,Noord-Brabant,VBO,4.635938,51.578403
Heerlijkheid,3,,,4874MT,Etten-Leur,Etten-Leur,Noord-Brabant,VBO,4.635600,51.578414
Heerlijkheid,4,,,4874MT,Etten-Leur,Etten-Leur,Noord-Brabant,VBO,4.635899,51.578458
Heerlijkheid,5,,,4874MT,Etten-Leur,Etten-Leur,Noord-Brabant,VBO,4.635570,51.578486
Heerlijkheid,6,,,4874MT,Etten-Leur,Etten-Leur,Noord-Brabant,VBO,4.635961,51.578408
Heerlijkheid,7,,,4874MT,Etten-Leur,Etten-Leur,Noord-Brabant,VBO,4.635587,51.578333
Heerlijkheid,8,,,4874MT,Etten-Leur,Etten-Leur,Noord-Brabant,VBO,4.635917,51.578461
Heerlijkheid,9,,,4874MT,Etten-Leur,Etten-Leur,Noord-Brabant,VBO,4.635571,51.578412
Heerlijkheid,10,,,4874MT,Etten-Leur,Etten-Leur,Noord-Brabant,VBO,4.635857,51.578551
Heerlijkheid,11,,,4874MT,Etten-Leur,Etten-Leur,Noord-Brabant,VBO,4.635541,51.578486
Heerlijkheid,12,,,4874MT,Etten-Leur,Etten-Leur,Noord-Brabant,VBO,4.635813,51.578623
Heerlijkheid,13,,,4874MT,Etten-Leur,Etten-Leur,Noord-Brabant,VBO,4.635511,51.578558
Heerlijkheid,14,,,4874MT,Etten-Leur,Etten-Leur,Noord-Brabant,VBO,4.635990,51.578415
Heerlijkheid,15,,,4874MT,Etten-Leur,Etten-Leur,Noord-Brabant,VBO,4.635562,51.578332
Heerlijkheid,16,,,4874MT,Etten-Leur,Etten-Leur,Noord-Brabant,VBO,4.635945,51.578471
Heerlijkheid,17,,,4874MT,Etten-Leur,Etten-Leur,Noord-Brabant,VBO,4.635542,51.578411
Heerlijkheid,18,,,4874MT,Etten-Leur,Etten-Leur,Noord-Brabant,VBO,4.635886,51.578560
Heerlijkheid,19,,,4874MT,Etten-Leur,Etten-Leur,Noord-Brabant,VBO,4.635512,51.578486
Heerlijkheid,20,,,4874MT,Etten-Leur,Etten-Leur,Noord-Brabant,VBO,4.635842,51.578630
Heerlijkheid,21,,,4874MT,Etten-Leur,Etten-Leur,Noord-Brabant,VBO,4.635487,51.578556
Heerlijkheid,22,,,4874MT,Etten-Leur,Etten-Leur,Noord-Brabant,VBO,4.636018,51.578420
Heerlijkheid,23,,,4874MT,Etten-Leur,Etten-Leur,Noord-Brabant,VBO,4.635537,51.578331
Heerlijkheid,24,,,4874MT,Etten-Leur,Etten-Leur,Noord-Brabant,VBO,4.635974,51.578480
Heerlijkheid,25,,,4874MT,Etten-Leur,Etten-Leur,Noord-Brabant,VBO,4.635514,51.578410
Heerlijkheid,26,,,4874MT,Etten-Leur,Etten-Leur,Noord-Brabant,VBO,4.635915,51.578566
Heerlijkheid,27,,,4874MT,Etten-Leur,Etten-Leur,Noord-Brabant,VBO,4.635483,51.578486
Heerlijkheid,28,,,4874MT,Etten-Leur,Etten-Leur,Noord-Brabant,VBO,4.635871,51.578635
Heerlijkheid,29,,,4874MT,Etten-Leur,Etten-Leur,Noord-Brabant,VBO,4.635462,51.578553
Heerlijkheid,30,,,4874MT,Etten-Leur,Etten-Leur,Noord-Brabant,VBO,4.636033,51.578426
Heerlijkheid,31,,,4874MT,Etten-Leur,Etten-Leur,Noord-Brabant,VBO,4.635511,51.578330
Heerlijkheid,32,,,4874MT,Etten-Leur,Etten-Leur,Noord-Brabant,VBO,4.636003,51.578486
Heerlijkheid,33,,,4874MT,Etten-Leur,Etten-Leur,Noord-Brabant,VBO,4.635485,51.578409
Heerlijkheid,34,,,4874MT,Etten-Leur,Etten-Leur,Noord-Brabant,VBO,4.635944,51.578569
Heerlijkheid,35,,,4874MT,Etten-Leur,Etten-Leur,Noord-Brabant,VBO,4.635455,51.578484
Heerlijkheid,36,,,4874MT,Etten-Leur,Etten-Leur,Noord-Brabant,VBO,4.635899,51.578641
Heerlijkheid,37,,,4874MT,Etten-Leur,Etten-Leur,Noord-Brabant,VBO,4.635433,51.578552
Heerlijkheid,38,,,4874MT,Etten-Leur,Etten-Leur,Noord-Brabant,VBO,4.636061,51.578435
Heerlijkheid,39,,,4874MT,Etten-Leur,Etten-Leur,Noord-Brabant,VBO,4.635115,51.579111
Heerlijkheid,40,,,4874MT,Etten-Leur,Etten-Leur,Noord-Brabant,VBO,4.636032,51.578489
Heerlijkheid,41,,,4874MT,Etten-Leur,Etten-Leur,Noord-Brabant,VBO,4.635035,51.579201
Heerlijkheid,42,,,4874MT,Etten-Leur,Etten-Leur,Noord-Brabant,VBO,4.635972,51.578579
Heerlijkheid,43,,,4874MT,Etten-Leur,Etten-Leur,Noord-Brabant,VBO,4.634938,51.579283
Heerlijkheid,44,,,4874MT,Etten-Leur,Etten-Leur,Noord-Brabant,VBO,4.635928,51.578646
Heerlijkheid,45,,,4874MT,Etten-Leur,Etten-Leur,Noord-Brabant,VBO,4.634845,51.579365
Heerlijkheid,46,,,4874MT,Etten-Leur,Etten-Leur,Noord-Brabant,VBO,4.635448,51.579218
Heerlijkheid,48,,,4874MT,Etten-Leur,Etten-Leur,Noord-Brabant,VBO,4.635389,51.579295
Heerlijkheid,50,,,4874MT,Etten-Leur,Etten-Leur,Noord-Brabant,VBO,4.635338,51.579363
Heerlijkheid,52,,,4874MT,Etten-Leur,Etten-Leur,Noord-Brabant,VBO,4.635295,51.579446
Heerlijkheid,54,,,4874MT,Etten-Leur,Etten-Leur,Noord-Brabant,VBO,4.635242,51.579517
Heerlijkheid,56,,,4874MT,Etten-Leur,Etten-Leur,Noord-Brabant,VBO,4.635197,51.579589
Heerlijkheid,58,,,4874MT,Etten-Leur,Etten-Leur,Noord-Brabant,VBO,4.635148,51.579663
Heerlijkheid,60,,,4874MT,Etten-Leur,Etten-Leur,Noord-Brabant,VBO,4.635082,51.579746
Edward Poppelaan,1,,,4874NA,Etten-Leur,Etten-Leur,Noord-Brabant,VBO,4.633044,51.575034
Edward Poppelaan,2,,,4874NA,Etten-Leur,Etten-Leur,Noord-Brabant,VBO,4.632681,51.574552
Edward Poppelaan,3,,,4874NA,Etten-Leur,Etten-Leur,Noord-Brabant,VBO,4.633097,51.575062
Edward Poppelaan,4,,,4874NA,Etten-Leur,Etten-Leur,Noord-Brabant,VBO,4.633447,51.574770
Edward Poppelaan,5,,,4874NA,Etten-Leur,Etten-Leur,Noord-Brabant,VBO,4.633207,51.575124
Edward Poppelaan,6,B,,4874NA,Etten-Leur,Etten-Leur,Noord-Brabant,VBO,4.633995,51.575262
Edward Poppelaan,6,,,4874NA,Etten-Leur,Etten-Leur,Noord-Brabant,VBO,4.633663,51.575038
Edward Poppelaan,8,,,4874NA,Etten-Leur,Etten-Leur,Noord-Brabant,VBO,4.634259,51.575406
Edward Poppelaan,12,,,4874NA,Etten-Leur,Etten-Leur,Noord-Brabant,VBO,4.635220,51.576090
Edward Poppelaan,14,,,4874NA,Etten-Leur,Etten-Leur,Noord-Brabant,VBO,4.634967,51.575644
Edward Poppelaan,16,,,4874NA,Etten-Leur,Etten-Leur,Noord-Brabant,VBO,4.633985,51.576669
Edward Poppelaan,18,,,4874NA,Etten-Leur,Etten-Leur,Noord-Brabant,VBO,4.633719,51.576548
Edward Poppelaan,20,,,4874NA,Etten-Leur,Etten-Leur,Noord-Brabant,VBO,4.633851,51.576258
Goorstraat,3,,,4874NC,Etten-Leur,Etten-Leur,Noord-Brabant,VBO,4.627908,51.584639
Goorstraat,4,A,,4874NC,Etten-Leur,Etten-Leur,Noord-Brabant,VBO,4.629828,51.585101
Goorstraat,4,,,4874NC,Etten-Leur,Etten-Leur,Noord-Brabant,VBO,4.631103,51.585113
Goorstraat,5,,,4874NC,Etten-Leur,Etten-Leur,Noord-Brabant,VBO,4.625629,51.584936
Goorstraat,6,,,4874NC,Etten-Leur,Etten-Leur,Noord-Brabant,VBO,4.624903,51.585279
Goorstraat,7,,,4874NC,Etten-Leur,Etten-Leur,Noord-Brabant,VBO,4.622861,51.584910
Goorstraat,8,,,4874NC,Etten-Leur,Etten-Leur,Noord-Brabant,VBO,4.624172,51.585284
Goorstraat,9,,,4874NC,Etten-Leur,Etten-Leur,Noord-Brabant,VBO,4.620931,51.585108
Goorstraat,10,A,,4874NC,Etten-Leur,Etten-Leur,Noord-Brabant,VBO,4.621486,51.585435
Goorstraat,10,,,4874NC,Etten-Leur,Etten-Leur,Noord-Brabant,VBO,4.622428,51.585358
Goorstraat,12,,,4874NC,Etten-Leur,Etten-Leur,Noord-Brabant,VBO,4.620557,51.585465
Goorstraat,15,,,4874NC,Etten-Leur,Etten-Leur,Noord-Brabant,VBO,4.617938,51.584874
Bankenstraat,1,,,4874ND,Etten-Leur,Etten-Leur,Noord-Brabant,VBO,4.614660,51.575991
Bankenstraat,3,,,4874ND,Etten-Leur,Etten-Leur,Noord-Brabant,VBO,4.614633,51.576796
Bankenstraat,5,,,4874ND,Etten-Leur,Etten-Leur,Noord-Brabant,VBO,4.615556,51.578962
Bankenstraat,7,,,4874ND,Etten-Leur,Etten-Leur,Noord-Brabant,VBO,4.616362,51.580010
Bankenstraat,9,A,,4874ND,Etten-Leur,Etten-Leur,Noord-Brabant,VBO,4.616280,51.582435
Bankenstraat,9,,,4874ND,Etten-Leur,Etten-Leur,Noord-Brabant,VBO,4.616420,51.580973
Bankenstraat,11,,,4874ND,Etten-Leur,Etten-Leur,Noord-Brabant,VBO,4.615930,51.584153
Bankenstraat,13,,,4874ND,Etten-Leur,Etten-Leur,Noord-Brabant,VBO,4.616312,51.584647
Bankenstraat,15,,,4874ND,Etten-Leur,Etten-Leur,Noord-Brabant,VBO,4.617367,51.585123
Bankenstraat,17,,,4874ND,Etten-Leur,Etten-Leur,Noord-Brabant,VBO,4.618110,51.585654
Bankenstraat,19,,,4874ND,Etten-Leur,Etten-Leur,Noord-Brabant,VBO,4.619289,51.587471
Bankenstraat,21,A,,4874ND,Etten-Leur,Etten-Leur,Noord-Brabant,VBO,4.619804,51.588266
Bankenstraat,21,,,4874ND,Etten-Leur,Etten-Leur,Noord-Brabant,VBO,4.619465,51.587832
Bankenstraat,23,,,4874ND,Etten-Leur,Etten-Leur,Noord-Brabant,VBO,4.620300,51.589655
Bankenstraat,25,,,4874ND,Etten-Leur,Etten-Leur,Noord-Brabant,VBO,4.620413,51.590088
Bankenstraat,27,,,4874ND,Etten-Leur,Etten-Leur,Noord-Brabant,VBO,4.620633,51.590449
Bankenstraat,29,A,,4874ND,Etten-Leur,Etten-Leur,Noord-Brabant,VBO,4.621029,51.590795
Bankenstraat,29,,,4874ND,Etten-Leur,Etten-Leur,Noord-Brabant,VBO,4.620978,51.590727
Bankenstraat,31,,,4874ND,Etten-Leur,Etten-Leur,Noord-Brabant,VBO,4.621092,51.591005
Bankenstraat,33,,,4874ND,Etten-Leur,Etten-Leur,Noord-Brabant,VBO,4.621315,51.591390
Bankenstraat,35,,,4874ND,Etten-Leur,Etten-Leur,Noord-Brabant,VBO,4.622010,51.592309
Bankenstraat,41,,,4874ND,Etten-Leur,Etten-Leur,Noord-Brabant,VBO,4.622774,51.593409
Bankenstraat,61,,,4874ND,Etten-Leur,Etten-Leur,Noord-Brabant,VBO,4.624498,51.595888
Bankenstraat,2,,,4874NE,Etten-Leur,Etten-Leur,Noord-Brabant,VBO,4.615009,51.576558
Bankenstraat,4,,,4874NE,Etten-Leur,Etten-Leur,Noord-Brabant,VBO,4.615592,51.578011
Bankenstraat,6,,,4874NE,Etten-Leur,Etten-Leur,Noord-Brabant,VBO,4.616826,51.580023
Bankenstraat,8,A,,4874NE,Etten-Leur,Etten-Leur,Noord-Brabant,VBO,4.616878,51.580657
Bankenstraat,8,,,4874NE,Etten-Leur,Etten-Leur,Noord-Brabant,VBO,4.616868,51.580541
Bankenstraat,10,A,,4874NE,Etten-Leur,Etten-Leur,Noord-Brabant,VBO,4.616797,51.581755
Bankenstraat,10,,,4874NE,Etten-Leur,Etten-Leur,Noord-Brabant,VBO,4.616853,51.580926
Bankenstraat,12,,,4874NE,Etten-Leur,Etten-Leur,Noord-Brabant,VBO,4.616629,51.583968
Bankenstraat,14,A,,4874NE,Etten-Leur,Etten-Leur,Noord-Brabant,VBO,4.618402,51.585363
Bankenstraat,14,,,4874NE,Etten-Leur,Etten-Leur,Noord-Brabant,VBO,4.616623,51.584413
Bankenstraat,16,,,4874NE,Etten-Leur,Etten-Leur,Noord-Brabant,VBO,4.619722,51.587416
Bankenstraat,18,,,4874NE,Etten-Leur,Etten-Leur,Noord-Brabant,VBO,4.620612,51.588468
Bankenstraat,22,,,4874NE,Etten-Leur,Etten-Leur,Noord-Brabant,VBO,4.620967,51.590331
Bankenstraat,80,,,4874NE,Etten-Leur,Etten-Leur,Noord-Brabant,VBO,4.622950,51.592843
Kuijerstraat,1,,,4874NG,Etten-Leur,Etten-Leur,Noord-Brabant,VBO,4.620866,51.591073
Kuijerstraat,3,,,4874NG,Etten-Leur,Etten-Leur,Noord-Brabant,VBO,4.620454,51.591188
Geerstraat,7,,,4874NH,Etten-Leur,Etten-Leur,Noord-Brabant,VBO,4.628268,51.589517
Geerstraat,9,,,4874NH,Etten-Leur,Etten-Leur,Noord-Brabant,VBO,4.627678,51.589646
Geerstraat,22,,,4874NH,Etten-Leur,Etten-Leur,Noord-Brabant,VBO,4.626358,51.590551
Geerstraat,27,,,4874NH,Etten-Leur,Etten-Leur,Noord-Brabant,VBO,4.625442,51.589726
Geerstraat,28,,,4874NH,Etten-Leur,Etten-Leur,Noord-Brabant,VBO,4.625439,51.591432
Geerstraat,29,,,4874NH,Etten-Leur,Etten-Leur,Noord-Brabant,VBO,4.624874,51.589731
Geerstraat,31,,,4874NH,Etten-Leur,Etten-Leur,Noord-Brabant,VBO,4.626534,51.589959
Geerstraat,32,,,4874NH,Etten-Leur,Etten-Leur,Noord-Brabant,VBO,4.624741,51.591750
Geerstraat,38,,,4874NH,Etten-Leur,Etten-Leur,Noord-Brabant,VBO,4.624050,51.591843
Geerstraat,42,,,4874NH,Etten-Leur,Etten-Leur,Noord-Brabant,VBO,4.623410,51.591952
Geerstraat,43,,,4874NH,Etten-Leur,Etten-Leur,Noord-Brabant,VBO,4.625063,51.591191
Geerstraat,48,,,4874NH,Etten-Leur,Etten-Leur,Noord-Brabant,VBO,4.623103,51.592118
Haansberg,1,,,4874NJ,Etten-Leur,Etten-Leur,Noord-Brabant,VBO,4.629870,51.576132
Haansberg,3,,,4874NJ,Etten-Leur,Etten-Leur,Noord-Brabant,VBO,4.629754,51.576665
Haansberg,15,,,4874NJ,Etten-Leur,Etten-Leur,Noord-Brabant,VBO,4.629597,51.577840
Haansberg,17,,,4874NJ,Etten-Leur,Etten-Leur,Noord-Brabant,VBO,4.629113,51.578139
Haansberg,19,,,4874NJ,Etten-Leur,Etten-Leur,Noord-Brabant,VBO,4.629974,51.578689
Haansberg,21,,,4874NJ,Etten-Leur,Etten-Leur,Noord-Brabant,VBO,4.630676,51.579809
Haansberg,23,,,4874NJ,Etten-Leur,Etten-Leur,Noord-Brabant,VBO,4.630584,51.580601
Haansberg,25,,,4874NJ,Etten-Leur,Etten-Leur,Noord-Brabant,VBO,4.630808,51.581224
Haansberg,27,,,4874NJ,Etten-Leur,Etten-Leur,Noord-Brabant,VBO,4.630717,51.582213
Haansberg,29,,,4874NJ,Etten-Leur,Etten-Leur,Noord-Brabant,VBO,4.631064,51.582817
Haansberg,31,,,4874NJ,Etten-Leur,Etten-Leur,Noord-Brabant,VBO,4.631170,51.584001
Haansberg,33,,,4874NJ,Etten-Leur,Etten-Leur,Noord-Brabant,VBO,4.631182,51.584173
Haansberg,35,,,4874NJ,Etten-Leur,Etten-Leur,Noord-Brabant,VBO,4.631235,51.584301
Haansberg,37,A,,4874NJ,Etten-Leur,Etten-Leur,Noord-Brabant,VBO,4.631192,51.585762
Haansberg,37,B,,4874NJ,Etten-Leur,Etten-Leur,Noord-Brabant,VBO,4.631214,51.586198
Haansberg,37,,,4874NJ,Etten-Leur,Etten-Leur,Noord-Brabant,VBO,4.631256,51.584894
Haansberg,39,,,4874NJ,Etten-Leur,Etten-Leur,Noord-Brabant,VBO,4.630751,51.587147
Haansberg,41,A,,4874NJ,Etten-Leur,Etten-Leur,Noord-Brabant,VBO,4.629765,51.588671
Haansberg,41,,,4874NJ,Etten-Leur,Etten-Leur,Noord-Brabant,VBO,4.630181,51.588089
Haansberg,43,,,4874NJ,Etten-Leur,Etten-Leur,Noord-Brabant,VBO,4.629695,51.588873
Haansberg,47,A,,4874NJ,Etten-Leur,Etten-Leur,Noord-Brabant,VBO,4.629461,51.589491
Haansberg,47,,,4874NJ,Etten-Leur,Etten-Leur,Noord-Brabant,VBO,4.629501,51.589188
Haansberg,55,,,4874NJ,Etten-Leur,Etten-Leur,Noord-Brabant,VBO,4.628991,51.592034
Haansberg,57,,,4874NJ,Etten-Leur,Etten-Leur,Noord-Brabant,VBO,4.628908,51.592284
Haansberg,2,,,4874NK,Etten-Leur,Etten-Leur,Noord-Brabant,VBO,4.630807,51.575872
Haansberg,4,A,,4874NK,Etten-Leur,Etten-Leur,Noord-Brabant,VBO,4.630598,51.576002
Haansberg,4,,,4874NK,Etten-Leur,Etten-Leur,Noord-Brabant,VBO,4.630682,51.575940
Haansberg,6,,,4874NK,Etten-Leur,Etten-Leur,Noord-Brabant,VBO,4.630484,51.576104
Haansberg,12,,,4874NK,Etten-Leur,Etten-Leur,Noord-Brabant,VBO,4.630246,51.576344
Haansberg,18,,,4874NK,Etten-Leur,Etten-Leur,Noord-Brabant,VBO,4.630225,51.576588
Haansberg,20,,,4874NK,Etten-Leur,Etten-Leur,Noord-Brabant,VBO,4.630177,51.576782
Haansberg,24,,,4874NK,Etten-Leur,Etten-Leur,Noord-Brabant,VBO,4.630107,51.576989
Haansberg,26,,,4874NK,Etten-Leur,Etten-Leur,Noord-Brabant,VBO,4.630062,51.577091
Haansberg,28,A,,4874NK,Etten-Leur,Etten-Leur,Noord-Brabant,VBO,4.630006,51.577673
Haansberg,28,,,4874NK,Etten-Leur,Etten-Leur,Noord-Brabant,VBO,4.630035,51.577315
Haansberg,30,,,4874NK,Etten-Leur,Etten-Leur,Noord-Brabant,VBO,4.630236,51.578077
Haansberg,32,,,4874NK,Etten-Leur,Etten-Leur,Noord-Brabant,VBO,4.630522,51.578489
Haansberg,34,,,4874NK,Etten-Leur,Etten-Leur,Noord-Brabant,VBO,4.630643,51.578678
Haansberg,36,,,4874NK,Etten-Leur,Etten-Leur,Noord-Brabant,VBO,4.630753,51.578850
Haansberg,38,,,4874NK,Etten-Leur,Etten-Leur,Noord-Brabant,VBO,4.630925,51.579107
Haansberg,40,,,4874NK,Etten-Leur,Etten-Leur,Noord-Brabant,VBO,4.630970,51.579307
Haansberg,42,,,4874NK,Etten-Leur,Etten-Leur,Noord-Brabant,VBO,4.631089,51.579512
Haansberg,44,,,4874NK,Etten-Leur,Etten-Leur,Noord-Brabant,VBO,4.631132,51.579784
Haansberg,46,,,4874NK,Etten-Leur,Etten-Leur,Noord-Brabant,VBO,4.631137,51.579925
Haansberg,48,,,4874NK,Etten-Leur,Etten-Leur,Noord-Brabant,VBO,4.631199,51.580124
Haansberg,50,,,4874NL,Etten-Leur,Etten-Leur,Noord-Brabant,VBO,4.631234,51.580301
Haansberg,52,,,4874NL,Etten-Leur,Etten-Leur,Noord-Brabant,VBO,4.631284,51.580959
Haansberg,54,,,4874NL,Etten-Leur,Etten-Leur,Noord-Brabant,VBO,4.631334,51.581382
Haansberg,56,,,4874NL,Etten-Leur,Etten-Leur,Noord-Brabant,VBO,4.631361,51.581852
Haansberg,58,,,4874NL,Etten-Leur,Etten-Leur,Noord-Brabant,VBO,4.631419,51.582221
Haansberg,60,,,4874NL,Etten-Leur,Etten-Leur,Noord-Brabant,VBO,4.631523,51.582807
Haansberg,62,,,4874NL,Etten-Leur,Etten-Leur,Noord-Brabant,VBO,4.631567,51.583298
Haansberg,64,,,4874NL,Etten-Leur,Etten-Leur,Noord-Brabant,VBO,4.631576,51.583380
Haansberg,66,,,4874NL,Etten-Leur,Etten-Leur,Noord-Brabant,VBO,4.631553,51.583461
Haansberg,68,,,4874NL,Etten-Leur,Etten-Leur,Noord-Brabant,VBO,4.631563,51.583651
Haansberg,70,,,4874NL,Etten-Leur,Etten-Leur,Noord-Brabant,VBO,4.631581,51.583790
Haansberg,72,,,4874NL,Etten-Leur,Etten-Leur,Noord-Brabant,VBO,4.631589,51.583858
Haansberg,74,,,4874NL,Etten-Leur,Etten-Leur,Noord-Brabant,VBO,4.631770,51.584173
Haansberg,76,,,4874NL,Etten-Leur,Etten-Leur,Noord-Brabant,VBO,4.631694,51.585073
Haansberg,78,,,4874NL,Etten-Leur,Etten-Leur,Noord-Brabant,VBO,4.631749,51.585345
Haansberg,80,A,,4874NL,Etten-Leur,Etten-Leur,Noord-Brabant,VBO,4.631488,51.586974
Haansberg,80,,,4874NL,Etten-Leur,Etten-Leur,Noord-Brabant,VBO,4.631554,51.586875
Haansberg,88,,,4874NL,Etten-Leur,Etten-Leur,Noord-Brabant,VBO,4.630691,51.588258
Haansberg,92,,,4874NL,Etten-Leur,Etten-Leur,Noord-Brabant,VBO,4.630296,51.588697
Haansberg,98,A,,4874NL,Etten-Leur,Etten-Leur,Noord-Brabant,VBO,4.629876,51.589598
Haansberg,98,,,4874NL,Etten-Leur,Etten-Leur,Noord-Brabant,VBO,4.629921,51.589374
Haansberg,100,,,4874NL,Etten-Leur,Etten-Leur,Noord-Brabant,VBO,4.629933,51.589820
Haansberg,102,,,4874NL,Etten-Leur,Etten-Leur,Noord-Brabant,VBO,4.630000,51.590137
Haansberg,108,A,,4874NL,Etten-Leur,Etten-Leur,Noord-Brabant,VBO,4.629876,51.590991
Haansberg,108,,,4874NL,Etten-Leur,Etten-Leur,Noord-Brabant,VBO,4.629900,51.591082
Haansberg,110,,,4874NL,Etten-Leur,Etten-Leur,Noord-Brabant,VBO,4.629760,51.591596
Haansberg,114,,,4874NL,Etten-Leur,Etten-Leur,Noord-Brabant,VBO,4.629430,51.591985
Haansberg,116,,,4874NL,Etten-Leur,Etten-Leur,Noord-Brabant,VBO,4.629392,51.592093
Haansberg,120,,,4874NL,Etten-Leur,Etten-Leur,Noord-Brabant,VBO,4.629249,51.592631
Haansberg,128,,,4874NL,Etten-Leur,Etten-Leur,Noord-Brabant,VBO,4.629010,51.593808
Haansberg,146,,,4874NL,Etten-Leur,Etten-Leur,Noord-Brabant,VBO,4.628857,51.596496
Oude Grind,11,,,4874NM,Etten-Leur,Etten-Leur,Noord-Brabant,VBO,4.627943,51.576795
Oude Grind,15,,,4874NM,Etten-Leur,Etten-Leur,Noord-Brabant,VBO,4.628519,51.577201
Pilsestraat,2,,,4874NN,Etten-Leur,Etten-Leur,Noord-Brabant,VBO,4.631707,51.581799
Windgat,31,,,4874NP,Etten-Leur,Etten-Leur,Noord-Brabant,VBO,4.634926,51.605418
Windgat,35,,,4874NP,Etten-Leur,Etten-Leur,Noord-Brabant,VBO,4.636154,51.605894
Haansberg,63,,,4874NR,Etten-Leur,Etten-Leur,Noord-Brabant,VBO,4.628279,51.594800
Haansberg,67,,,4874NR,Etten-Leur,Etten-Leur,Noord-Brabant,VBO,4.628300,51.595619
Concordialaan,101,,,4874NS,Etten-Leur,Etten-Leur,Noord-Brabant,VBO,4.631402,51.576227
Concordialaan,103,,,4874NS,Etten-Leur,Etten-Leur,Noord-Brabant,VBO,4.631638,51.576340
Concordialaan,105,,,4874NS,Etten-Leur,Etten-Leur,Noord-Brabant,VBO,4.631829,51.576435
Concordialaan,107,,,4874NS,Etten-Leur,Etten-Leur,Noord-Brabant,VBO,4.631909,51.576475
Concordialaan,109,,,4874NS,Etten-Leur,Etten-Leur,Noord-Brabant,VBO,4.632085,51.576562
Concordialaan,111,,,4874NS,Etten-Leur,Etten-Leur,Noord-Brabant,VBO,4.632151,51.576595
Concordialaan,113,,,4874NS,Etten-Leur,Etten-Leur,Noord-Brabant,VBO,4.632370,51.576705
Concordialaan,115,,,4874NS,Etten-Leur,Etten-Leur,Noord-Brabant,VBO,4.632544,51.576791
Concordialaan,117,,,4874NS,Etten-Leur,Etten-Leur,Noord-Brabant,VBO,4.632732,51.576885
Concordialaan,123,,,4874NS,Etten-Leur,Etten-Leur,Noord-Brabant,VBO,4.633365,51.577208
Concordialaan,125,,,4874NS,Etten-Leur,Etten-Leur,Noord-Brabant,VBO,4.633622,51.577337
Concordialaan,127,,,4874NS,Etten-Leur,Etten-Leur,Noord-Brabant,VBO,4.633886,51.577478
Concordialaan,129,,,4874NS,Etten-Leur,Etten-Leur,Noord-Brabant,VBO,4.634063,51.577566
Concordialaan,131,,,4874NS,Etten-Leur,Etten-Leur,Noord-Brabant,VBO,4.634232,51.577686
Concordialaan,133,A,,4874NS,Etten-Leur,Etten-Leur,Noord-Brabant,VBO,4.634414,51.577715
Concordialaan,133,B,,4874NS,Etten-Leur,Etten-Leur,Noord-Brabant,VBO,4.634348,51.577707
Concordialaan,133,C,,4874NS,Etten-Leur,Etten-Leur,Noord-Brabant,VBO,4.634397,51.577727
Concordialaan,133,D,,4874NS,Etten-Leur,Etten-Leur,Noord-Brabant,VBO,4.634333,51.577718
Concordialaan,133,E,,4874NS,Etten-Leur,Etten-Leur,Noord-Brabant,VBO,4.634382,51.577737
Concordialaan,133,H,,4874NS,Etten-Leur,Etten-Leur,Noord-Brabant,VBO,4.634321,51.577728
Concordialaan,133,J,,4874NS,Etten-Leur,Etten-Leur,Noord-Brabant,VBO,4.634370,51.577746
Concordialaan,133,,,4874NS,Etten-Leur,Etten-Leur,Noord-Brabant,VBO,4.634364,51.577696
Bollendonkseweg,17,,,4874NT,Etten-Leur,Etten-Leur,Noord-Brabant,VBO,4.619641,51.612390
Bollendonkseweg,21,,,4874NT,Etten-Leur,Etten-Leur,Noord-Brabant,VBO,4.616993,51.616047
Bollendonkseweg,22,,,4874NT,Etten-Leur,Etten-Leur,Noord-Brabant,VBO,4.619936,51.613217
Bollendonkseweg,26,,,4874NT,Etten-Leur,Etten-Leur,Noord-Brabant,VBO,4.617331,51.616685
Bollendonkseweg,33,,,4874NT,Etten-Leur,Etten-Leur,Noord-Brabant,VBO,4.612803,51.621075
Akkerweg,2,A,,4874NV,Etten-Leur,Etten-Leur,Noord-Brabant,VBO,4.634641,51.577940
Akkerweg,2,B,,4874NV,Etten-Leur,Etten-Leur,Noord-Brabant,VBO,4.634606,51.577982
Akkerweg,2,C,,4874NV,Etten-Leur,Etten-Leur,Noord-Brabant,VBO,4.634583,51.578028
Akkerweg,2,D,,4874NV,Etten-Leur,Etten-Leur,Noord-Brabant,VBO,4.634548,51.578075
Akkerweg,2,,,4874NV,Etten-Leur,Etten-Leur,Noord-Brabant,VBO,4.634675,51.577893
Akkerweg,3,,,4874NV,Etten-Leur,Etten-Leur,Noord-Brabant,VBO,4.634306,51.577912
Akkerweg,4,A,,4874NV,Etten-Leur,Etten-Leur,Noord-Brabant,VBO,4.634493,51.578163
Akkerweg,4,B,,4874NV,Etten-Leur,Etten-Leur,Noord-Brabant,VBO,4.634463,51.578209
Akkerweg,4,C,,4874NV,Etten-Leur,Etten-Leur,Noord-Brabant,VBO,4.634395,51.578307
Akkerweg,4,D,,4874NV,Etten-Leur,Etten-Leur,Noord-Brabant,VBO,4.634366,51.578351
Akkerweg,4,,,4874NV,Etten-Leur,Etten-Leur,Noord-Brabant,VBO,4.634520,51.578119
Akkerweg,5,,,4874NV,Etten-Leur,Etten-Leur,Noord-Brabant,VBO,4.633767,51.578518
Akkerweg,6,A,,4874NV,Etten-Leur,Etten-Leur,Noord-Brabant,VBO,4.634301,51.578441
Akkerweg,6,B,,4874NV,Etten-Leur,Etten-Leur,Noord-Brabant,VBO,4.634274,51.578489
Akkerweg,6,C,,4874NV,Etten-Leur,Etten-Leur,Noord-Brabant,VBO,4.634242,51.578531
Akkerweg,6,D,,4874NV,Etten-Leur,Etten-Leur,Noord-Brabant,VBO,4.634209,51.578575
Akkerweg,6,E,,4874NV,Etten-Leur,Etten-Leur,Noord-Brabant,VBO,4.634180,51.578621
Akkerweg,6,,,4874NV,Etten-Leur,Etten-Leur,Noord-Brabant,VBO,4.634332,51.578396
Akkerweg,7,,,4874NV,Etten-Leur,Etten-Leur,Noord-Brabant,VBO,4.633723,51.578576
Akkerweg,8,,,4874NV,Etten-Leur,Etten-Leur,Noord-Brabant,VBO,4.633999,51.578915
Akkerweg,15,,,4874NV,Etten-Leur,Etten-Leur,Noord-Brabant,VBO,4.633729,51.578707
Akkerweg,17,,,4874NV,Etten-Leur,Etten-Leur,Noord-Brabant,VBO,4.633695,51.578759
Akkerweg,19,,,4874NV,Etten-Leur,Etten-Leur,Noord-Brabant,VBO,4.633660,51.578810
Akkerweg,21,,,4874NV,Etten-Leur,Etten-Leur,Noord-Brabant,VBO,4.633639,51.578847
Akkerweg,23,,,4874NV,Etten-Leur,Etten-Leur,Noord-Brabant,VBO,4.633609,51.578893
Akkerweg,25,,,4874NV,Etten-Leur,Etten-Leur,Noord-Brabant,VBO,4.633576,51.578940
Akkerweg,27,,,4874NV,Etten-Leur,Etten-Leur,Noord-Brabant,VBO,4.633547,51.578986
Akkerweg,29,,,4874NV,Etten-Leur,Etten-Leur,Noord-Brabant,VBO,4.633518,51.579034
Akkerweg,31,,,4874NV,Etten-Leur,Etten-Leur,Noord-Brabant,VBO,4.633485,51.579085
Akkerweg,33,,,4874NV,Etten-Leur,Etten-Leur,Noord-Brabant,VBO,4.633358,51.579200
Akkerweg,35,,,4874NV,Etten-Leur,Etten-Leur,Noord-Brabant,VBO,4.633282,51.579213
Akkerweg,37,,,4874NV,Etten-Leur,Etten-Leur,Noord-Brabant,VBO,4.633207,51.579226
Akkerweg,39,,,4874NV,Etten-Leur,Etten-Leur,Noord-Brabant,VBO,4.633131,51.579239
Akkerweg,41,,,4874NV,Etten-Leur,Etten-Leur,Noord-Brabant,VBO,4.633056,51.579252
Akkerweg,43,,,4874NV,Etten-Leur,Etten-Leur,Noord-Brabant,VBO,4.632981,51.579266
Akkerweg,45,,,4874NV,Etten-Leur,Etten-Leur,Noord-Brabant,VBO,4.632905,51.579279
Akkerweg,47,,,4874NV,Etten-Leur,Etten-Leur,Noord-Brabant,VBO,4.632830,51.579292
Don Boscoplantsoen,1,,,4874NW,Etten-Leur,Etten-Leur,Noord-Brabant,VBO,4.633530,51.575803
Don Boscoplantsoen,2,,,4874NW,Etten-Leur,Etten-Leur,Noord-Brabant,VBO,4.633075,51.575232
Don Boscoplantsoen,3,,,4874NW,Etten-Leur,Etten-Leur,Noord-Brabant,VBO,4.633494,51.575780
Don Boscoplantsoen,4,,,4874NW,Etten-Leur,Etten-Leur,Noord-Brabant,VBO,4.632956,51.575164
Don Boscoplantsoen,5,,,4874NW,Etten-Leur,Etten-Leur,Noord-Brabant,VBO,4.633414,51.575737
Don Boscoplantsoen,6,,,4874NW,Etten-Leur,Etten-Leur,Noord-Brabant,VBO,4.632895,51.575131
Don Boscoplantsoen,7,,,4874NW,Etten-Leur,Etten-Leur,Noord-Brabant,VBO,4.633378,51.575716
Don Boscoplantsoen,8,,,4874NW,Etten-Leur,Etten-Leur,Noord-Brabant,VBO,4.632618,51.574808
Don Boscoplantsoen,9,,,4874NW,Etten-Leur,Etten-Leur,Noord-Brabant,VBO,4.633296,51.575673
Don Boscoplantsoen,10,,,4874NW,Etten-Leur,Etten-Leur,Noord-Brabant,VBO,4.632567,51.574843
Don Boscoplantsoen,11,,,4874NW,Etten-Leur,Etten-Leur,Noord-Brabant,VBO,4.633262,51.575652
Don Boscoplantsoen,12,,,4874NW,Etten-Leur,Etten-Leur,Noord-Brabant,VBO,4.632519,51.574875
Don Boscoplantsoen,13,,,4874NW,Etten-Leur,Etten-Leur,Noord-Brabant,VBO,4.633181,51.575607
Don Boscoplantsoen,14,,,4874NW,Etten-Leur,Etten-Leur,Noord-Brabant,VBO,4.632467,51.574910
Don Boscoplantsoen,15,,,4874NW,Etten-Leur,Etten-Leur,Noord-Brabant,VBO,4.633148,51.575585
Don Boscoplantsoen,16,,,4874NW,Etten-Leur,Etten-Leur,Noord-Brabant,VBO,4.632156,51.575131
Don Boscoplantsoen,17,,,4874NW,Etten-Leur,Etten-Leur,Noord-Brabant,VBO,4.633089,51.575555
Don Boscoplantsoen,18,,,4874NW,Etten-Leur,Etten-Leur,Noord-Brabant,VBO,4.632086,51.575179
Don Boscoplantsoen,19,,,4874NW,Etten-Leur,Etten-Leur,Noord-Brabant,VBO,4.632884,51.575488
Don Boscoplantsoen,20,,,4874NW,Etten-Leur,Etten-Leur,Noord-Brabant,VBO,4.632012,51.575228
Don Boscoplantsoen,21,,,4874NW,Etten-Leur,Etten-Leur,Noord-Brabant,VBO,4.632851,51.575469
Don Boscoplantsoen,22,,,4874NW,Etten-Leur,Etten-Leur,Noord-Brabant,VBO,4.632582,51.574785
Don Boscoplantsoen,23,,,4874NW,Etten-Leur,Etten-Leur,Noord-Brabant,VBO,4.632771,51.575421
Don Boscoplantsoen,24,,,4874NW,Etten-Leur,Etten-Leur,Noord-Brabant,VBO,4.632533,51.574817
Don Boscoplantsoen,25,,,4874NW,Etten-Leur,Etten-Leur,Noord-Brabant,VBO,4.632740,51.575406
Don Boscoplantsoen,26,,,4874NW,Etten-Leur,Etten-Leur,Noord-Brabant,VBO,4.632479,51.574851
Don Boscoplantsoen,27,,,4874NW,Etten-Leur,Etten-Leur,Noord-Brabant,VBO,4.632653,51.575357
Don Boscoplantsoen,28,,,4874NW,Etten-Leur,Etten-Leur,Noord-Brabant,VBO,4.632426,51.574887
Don Boscoplantsoen,29,,,4874NW,Etten-Leur,Etten-Leur,Noord-Brabant,VBO,4.632622,51.575341
Don Boscoplantsoen,30,,,4874NW,Etten-Leur,Etten-Leur,Noord-Brabant,VBO,4.632362,51.574932
Don Boscoplantsoen,31,,,4874NW,Etten-Leur,Etten-Leur,Noord-Brabant,VBO,4.632537,51.575296
Don Boscoplantsoen,32,,,4874NW,Etten-Leur,Etten-Leur,Noord-Brabant,VBO,4.632299,51.574971
Don Boscoplantsoen,33,,,4874NW,Etten-Leur,Etten-Leur,Noord-Brabant,VBO,4.632506,51.575277
Don Boscoplantsoen,34,,,4874NW,Etten-Leur,Etten-Leur,Noord-Brabant,VBO,4.632234,51.575015
Don Boscoplantsoen,36,,,4874NW,Etten-Leur,Etten-Leur,Noord-Brabant,VBO,4.632126,51.575113
Don Boscoplantsoen,38,,,4874NW,Etten-Leur,Etten-Leur,Noord-Brabant,VBO,4.632054,51.575158
Don Boscoplantsoen,40,,,4874NW,Etten-Leur,Etten-Leur,Noord-Brabant,VBO,4.631979,51.575210
Don Boscoplantsoen,42,,,4874NW,Etten-Leur,Etten-Leur,Noord-Brabant,VBO,4.632545,51.574763
Don Boscoplantsoen,44,,,4874NW,Etten-Leur,Etten-Leur,Noord-Brabant,VBO,4.632498,51.574793
Don Boscoplantsoen,46,,,4874NW,Etten-Leur,Etten-Leur,Noord-Brabant,VBO,4.632438,51.574827
Don Boscoplantsoen,48,,,4874NW,Etten-Leur,Etten-Leur,Noord-Brabant,VBO,4.632387,51.574864
Don Boscoplantsoen,50,,,4874NW,Etten-Leur,Etten-Leur,Noord-Brabant,VBO,4.632326,51.574910
Don Boscoplantsoen,52,,,4874NW,Etten-Leur,Etten-Leur,Noord-Brabant,VBO,4.632266,51.574949
Don Boscoplantsoen,54,,,4874NW,Etten-Leur,Etten-Leur,Noord-Brabant,VBO,4.632202,51.574996
Don Boscoplantsoen,56,,,4874NW,Etten-Leur,Etten-Leur,Noord-Brabant,VBO,4.632089,51.575088
Don Boscoplantsoen,58,,,4874NW,Etten-Leur,Etten-Leur,Noord-Brabant,VBO,4.632005,51.575130
Don Boscoplantsoen,60,,,4874NW,Etten-Leur,Etten-Leur,Noord-Brabant,VBO,4.631928,51.575181
Rioolseweg,2,,,4874NX,Etten-Leur,Etten-Leur,Noord-Brabant,VBO,4.614455,51.593277
Rioolseweg,4,,,4874NX,Etten-Leur,Etten-Leur,Noord-Brabant,VBO,4.614758,51.594811
Rioolseweg,15,,,4874NX,Etten-Leur,Etten-Leur,Noord-Brabant,VBO,4.613738,51.595529
Rioolseweg,25,,,4874NX,Etten-Leur,Etten-Leur,Noord-Brabant,VBO,4.615103,51.600111
Concordialaan,2,,,4874NZ,Etten-Leur,Etten-Leur,Noord-Brabant,VBO,4.631497,51.575643
Concordialaan,4,,,4874NZ,Etten-Leur,Etten-Leur,Noord-Brabant,VBO,4.631729,51.575810
Concordialaan,6,,,4874NZ,Etten-Leur,Etten-Leur,Noord-Brabant,VBO,4.631814,51.575851
Concordialaan,8,,,4874NZ,Etten-Leur,Etten-Leur,Noord-Brabant,VBO,4.631994,51.575939
Concordialaan,10,A,,4874NZ,Etten-Leur,Etten-Leur,Noord-Brabant,VBO,4.632323,51.576046
Concordialaan,10,,,4874NZ,Etten-Leur,Etten-Leur,Noord-Brabant,VBO,4.632295,51.576061
Concordialaan,12,,,4874NZ,Etten-Leur,Etten-Leur,Noord-Brabant,VBO,4.632532,51.576207
Emmerweg,4,,,4874PA,Etten-Leur,Etten-Leur,Noord-Brabant,VBO,4.614244,51.608192
