openbareruimtenaam,huisnummer,huisletter,huisnummertoevoeging,postcode,woonplaatsnaam,gemeentenaam,provincienaam,typeadresseerbaarobject,longitude,latitude
Innovatiepark,1,,,4906AA,Oosterhout,Oosterhout,Noord-Brabant,VBO,4.823602,51.673055
Innovatiepark,3,A,,4906AA,Oosterhout,Oosterhout,Noord-Brabant,VBO,4.824230,51.673211
Innovatiepark,3,,,4906AA,Oosterhout,Oosterhout,Noord-Brabant,VBO,4.824336,51.673226
Innovatiepark,4,A,,4906AA,Oosterhout,Oosterhout,Noord-Brabant,VBO,4.825380,51.674571
Innovatiepark,4,B,,4906AA,Oosterhout,Oosterhout,Noord-Brabant,VBO,4.825793,51.674499
Innovatiepark,4,C,,4906AA,Oosterhout,Oosterhout,Noord-Brabant,VBO,4.825596,51.674205
Innovatiepark,4,D,,4906AA,Oosterhout,Oosterhout,Noord-Brabant,VBO,4.825882,51.674353
Innovatiepark,4,,,4906AA,Oosterhout,Oosterhout,Noord-Brabant,VBO,4.824887,51.674465
Innovatiepark,5,,,4906AA,Oosterhout,Oosterhout,Noord-Brabant,VBO,4.824383,51.673766
Innovatiepark,7,,,4906AA,Oosterhout,Oosterhout,Noord-Brabant,VBO,4.823401,51.673591
Innovatiepark,12,,,4906AA,Oosterhout,Oosterhout,Noord-Brabant,VBO,4.827770,51.674998
Innovatiepark,14,,,4906AA,Oosterhout,Oosterhout,Noord-Brabant,VBO,4.828733,51.675266
Innovatiepark,15,C,,4906AA,Oosterhout,Oosterhout,Noord-Brabant,VBO,4.835289,51.671614
Innovatiepark,15,,,4906AA,Oosterhout,Oosterhout,Noord-Brabant,VBO,4.833257,51.674708
Innovatiepark,16,,,4906AA,Oosterhout,Oosterhout,Noord-Brabant,VBO,4.829334,51.675461
Innovatiepark,20,,,4906AA,Oosterhout,Oosterhout,Noord-Brabant,VBO,4.830136,51.675457
Innovatiepark,24,,,4906AA,Oosterhout,Oosterhout,Noord-Brabant,VBO,4.831309,51.675829
Innovatiepark,26,,,4906AA,Oosterhout,Oosterhout,Noord-Brabant,VBO,4.831696,51.675406
Innovatiepark,30,,,4906AA,Oosterhout,Oosterhout,Noord-Brabant,VBO,4.831483,51.675374
Innovatiepark,32,,,4906AA,Oosterhout,Oosterhout,Noord-Brabant,VBO,4.831393,51.675360
Innovatiepark,34,,,4906AA,Oosterhout,Oosterhout,Noord-Brabant,VBO,4.831301,51.675346
Innovatiepark,36,,,4906AA,Oosterhout,Oosterhout,Noord-Brabant,VBO,4.831212,51.675333
Innovatiepark,38,,,4906AA,Oosterhout,Oosterhout,Noord-Brabant,VBO,4.831120,51.675319
Innovatiepark,40,,,4906AA,Oosterhout,Oosterhout,Noord-Brabant,VBO,4.831028,51.675305
Innovatiepark,42,,,4906AA,Oosterhout,Oosterhout,Noord-Brabant,VBO,4.830937,51.675291
Innovatiepark,46,,,4906AA,Oosterhout,Oosterhout,Noord-Brabant,VBO,4.831968,51.674897
Logistiekweg,2,,,4906AB,Oosterhout,Oosterhout,Noord-Brabant,VBO,4.829323,51.669278
Logistiekweg,3,,,4906AB,Oosterhout,Oosterhout,Noord-Brabant,VBO,4.829357,51.666018
Logistiekweg,5,,,4906AB,Oosterhout,Oosterhout,Noord-Brabant,VBO,4.829339,51.666185
Logistiekweg,9,,,4906AB,Oosterhout,Oosterhout,Noord-Brabant,VBO,4.847286,51.673444
Logistiekweg,15,,,4906AB,Oosterhout,Oosterhout,Noord-Brabant,VBO,4.845229,51.670452
Logistiekweg,18,,,4906AB,Oosterhout,Oosterhout,Noord-Brabant,VBO,4.836561,51.670816
Technologieweg,3,,,4906AC,Oosterhout,Oosterhout,Noord-Brabant,VBO,4.825352,51.673328
Technologieweg,6,,,4906AC,Oosterhout,Oosterhout,Noord-Brabant,VBO,4.825444,51.672777
Technologieweg,7,,,4906AC,Oosterhout,Oosterhout,Noord-Brabant,VBO,4.827064,51.673816
Technologieweg,10,,,4906AC,Oosterhout,Oosterhout,Noord-Brabant,VBO,4.826712,51.672896
Technologieweg,11,,,4906AC,Oosterhout,Oosterhout,Noord-Brabant,VBO,4.827770,51.674998
Technologieweg,15,,,4906AC,Oosterhout,Oosterhout,Noord-Brabant,VBO,4.828615,51.674172
Technologieweg,19,,,4906AC,Oosterhout,Oosterhout,Noord-Brabant,VBO,4.829429,51.674312
Distributieweg,4,A,,4906AD,Oosterhout,Oosterhout,Noord-Brabant,VBO,4.827211,51.670779
Distributieweg,4,B,,4906AD,Oosterhout,Oosterhout,Noord-Brabant,VBO,4.827570,51.670628
Distributieweg,4,C,,4906AD,Oosterhout,Oosterhout,Noord-Brabant,VBO,4.827924,51.670492
Distributieweg,4,D,,4906AD,Oosterhout,Oosterhout,Noord-Brabant,VBO,4.828275,51.670360
Distributieweg,8,,,4906AD,Oosterhout,Oosterhout,Noord-Brabant,VBO,4.826618,51.671148
Distributieweg,12,,,4906AD,Oosterhout,Oosterhout,Noord-Brabant,VBO,4.825995,51.671573
Distributieweg,14,,,4906AD,Oosterhout,Oosterhout,Noord-Brabant,VBO,4.825915,51.671776
Distributieweg,15,,,4906AD,Oosterhout,Oosterhout,Noord-Brabant,VBO,4.824209,51.672420
Distributieweg,16,,,4906AD,Oosterhout,Oosterhout,Noord-Brabant,VBO,4.825820,51.672071
Distributieweg,20,,,4906AD,Oosterhout,Oosterhout,Noord-Brabant,VBO,4.825680,51.672427
Mechanisatieweg,2,,,4906AE,Oosterhout,Oosterhout,Noord-Brabant,VBO,4.829745,51.670574
Mechanisatieweg,5,,,4906AE,Oosterhout,Oosterhout,Noord-Brabant,VBO,4.831722,51.670918
Mechanisatieweg,6,,,4906AE,Oosterhout,Oosterhout,Noord-Brabant,VBO,4.829060,51.671429
Mechanisatieweg,8,,,4906AE,Oosterhout,Oosterhout,Noord-Brabant,VBO,4.829014,51.672467
Mechanisatieweg,10,,,4906AE,Oosterhout,Oosterhout,Noord-Brabant,VBO,4.828360,51.673239
De Boedingen,3,A,,4906BA,Oosterhout,Oosterhout,Noord-Brabant,VBO,4.838826,51.654719
De Boedingen,3,,,4906BA,Oosterhout,Oosterhout,Noord-Brabant,VBO,4.838908,51.654725
De Boedingen,7,,,4906BA,Oosterhout,Oosterhout,Noord-Brabant,VBO,4.838859,51.654952
De Boedingen,8,,,4906BA,Oosterhout,Oosterhout,Noord-Brabant,VBO,4.839887,51.655204
De Boedingen,9,A,,4906BA,Oosterhout,Oosterhout,Noord-Brabant,VBO,4.838595,51.655339
De Boedingen,9,,,4906BA,Oosterhout,Oosterhout,Noord-Brabant,VBO,4.838321,51.655320
De Boedingen,11,A,,4906BA,Oosterhout,Oosterhout,Noord-Brabant,VBO,4.838607,51.655302
De Boedingen,11,,,4906BA,Oosterhout,Oosterhout,Noord-Brabant,VBO,4.838331,51.655283
De Boedingen,13,,,4906BA,Oosterhout,Oosterhout,Noord-Brabant,VBO,4.838342,51.655243
De Boedingen,15,,,4906BA,Oosterhout,Oosterhout,Noord-Brabant,VBO,4.837872,51.655143
De Boedingen,19,,,4906BA,Oosterhout,Oosterhout,Noord-Brabant,VBO,4.836818,51.655200
De Boedingen,23,,,4906BA,Oosterhout,Oosterhout,Noord-Brabant,VBO,4.835970,51.655147
De Boedingen,27,,,4906BA,Oosterhout,Oosterhout,Noord-Brabant,VBO,4.834902,51.655046
De Boedingen,31,,,4906BA,Oosterhout,Oosterhout,Noord-Brabant,VBO,4.834334,51.654977
De Boedingen,33,,,4906BA,Oosterhout,Oosterhout,Noord-Brabant,VBO,4.833676,51.654931
De Boedingen,35,,,4906BA,Oosterhout,Oosterhout,Noord-Brabant,VBO,4.833290,51.654943
De Boedingen,39,,,4906BA,Oosterhout,Oosterhout,Noord-Brabant,VBO,4.832557,51.654882
De Kreek,1,,,4906BB,Oosterhout,Oosterhout,Noord-Brabant,VBO,4.844953,51.652378
De Kreek,2,,,4906BB,Oosterhout,Oosterhout,Noord-Brabant,VBO,4.844354,51.652426
De Kreek,5,,,4906BB,Oosterhout,Oosterhout,Noord-Brabant,VBO,4.844841,51.652014
De Kreek,6,,,4906BB,Oosterhout,Oosterhout,Noord-Brabant,VBO,4.844123,51.651827
De Kreek,8,,,4906BB,Oosterhout,Oosterhout,Noord-Brabant,VBO,4.843999,51.651840
De Kreek,10,,,4906BB,Oosterhout,Oosterhout,Noord-Brabant,VBO,4.843871,51.651859
De Kreek,12,,,4906BB,Oosterhout,Oosterhout,Noord-Brabant,VBO,4.843514,51.651849
De Kreek,16,A,,4906BB,Oosterhout,Oosterhout,Noord-Brabant,VBO,4.843003,51.651910
De Kreek,16,,,4906BB,Oosterhout,Oosterhout,Noord-Brabant,VBO,4.842820,51.651925
De Kreek,18,,,4906BB,Oosterhout,Oosterhout,Noord-Brabant,VBO,4.843038,51.652098
De Kreek,20,A,,4906BB,Oosterhout,Oosterhout,Noord-Brabant,VBO,4.842526,51.651967
De Kreek,20,,,4906BB,Oosterhout,Oosterhout,Noord-Brabant,VBO,4.842679,51.651941
De Kreek,22,,,4906BB,Oosterhout,Oosterhout,Noord-Brabant,VBO,4.842578,51.652150
De Kreek,24,,,4906BB,Oosterhout,Oosterhout,Noord-Brabant,VBO,4.842471,51.652301
De Waard,1,,,4906BC,Oosterhout,Oosterhout,Noord-Brabant,VBO,4.841318,51.654812
De Waard,4,,,4906BC,Oosterhout,Oosterhout,Noord-Brabant,VBO,4.842423,51.655436
De Waard,5,A,,4906BC,Oosterhout,Oosterhout,Noord-Brabant,VBO,4.841524,51.655249
De Waard,5,C,,4906BC,Oosterhout,Oosterhout,Noord-Brabant,VBO,4.841466,51.655250
De Waard,5,D,,4906BC,Oosterhout,Oosterhout,Noord-Brabant,VBO,4.841413,51.655149
De Waard,5,E,,4906BC,Oosterhout,Oosterhout,Noord-Brabant,VBO,4.841415,51.655250
De Waard,5,F,,4906BC,Oosterhout,Oosterhout,Noord-Brabant,VBO,4.841362,51.655149
De Waard,5,G,,4906BC,Oosterhout,Oosterhout,Noord-Brabant,VBO,4.841365,51.655251
De Waard,5,H,,4906BC,Oosterhout,Oosterhout,Noord-Brabant,VBO,4.841312,51.655150
De Waard,5,J,,4906BC,Oosterhout,Oosterhout,Noord-Brabant,VBO,4.841314,51.655251
De Waard,5,,,4906BC,Oosterhout,Oosterhout,Noord-Brabant,VBO,4.841521,51.655148
De Waard,6,,,4906BC,Oosterhout,Oosterhout,Noord-Brabant,VBO,4.842393,51.655335
De Waard,8,,,4906BC,Oosterhout,Oosterhout,Noord-Brabant,VBO,4.842362,51.655232
De Waard,9,,,4906BC,Oosterhout,Oosterhout,Noord-Brabant,VBO,4.841408,51.655445
De Waard,10,,,4906BC,Oosterhout,Oosterhout,Noord-Brabant,VBO,4.842348,51.655186
Max Havelaardreef,170,,,4906BD,Oosterhout,Oosterhout,Noord-Brabant,VBO,4.842215,51.652122
Max Havelaardreef,172,,,4906BD,Oosterhout,Oosterhout,Noord-Brabant,VBO,4.841866,51.652342
Max Havelaardreef,174,,,4906BD,Oosterhout,Oosterhout,Noord-Brabant,VBO,4.842217,51.652441
Max Havelaardreef,176,,,4906BD,Oosterhout,Oosterhout,Noord-Brabant,VBO,4.841753,51.652573
Max Havelaardreef,178,,,4906BD,Oosterhout,Oosterhout,Noord-Brabant,VBO,4.841925,51.652792
Max Havelaardreef,180,,,4906BD,Oosterhout,Oosterhout,Noord-Brabant,VBO,4.841671,51.652802
Max Havelaardreef,182,,,4906BD,Oosterhout,Oosterhout,Noord-Brabant,VBO,4.841839,51.653013
Max Havelaardreef,184,,,4906BD,Oosterhout,Oosterhout,Noord-Brabant,VBO,4.841574,51.653025
Max Havelaardreef,186,,,4906BD,Oosterhout,Oosterhout,Noord-Brabant,VBO,4.841745,51.653243
Max Havelaardreef,188,,,4906BD,Oosterhout,Oosterhout,Noord-Brabant,VBO,4.841471,51.653274
Max Havelaardreef,190,,,4906BD,Oosterhout,Oosterhout,Noord-Brabant,VBO,4.841712,51.653440
Max Havelaardreef,192,,,4906BD,Oosterhout,Oosterhout,Noord-Brabant,VBO,4.841355,51.653517
Max Havelaardreef,194,,,4906BD,Oosterhout,Oosterhout,Noord-Brabant,VBO,4.841538,51.653748
Max Havelaardreef,196,,,4906BD,Oosterhout,Oosterhout,Noord-Brabant,VBO,4.841291,51.653849
Koperslagerijweg,4,,,4906BE,Oosterhout,Oosterhout,Noord-Brabant,VBO,4.832938,51.664485
Veldeind,6,,,4906CA,Oosterhout,Oosterhout,Noord-Brabant,VBO,4.833849,51.649215
Veldeind,8,,,4906CA,Oosterhout,Oosterhout,Noord-Brabant,VBO,4.833742,51.649315
Industrieweg,25,,,4906CD,Oosterhout,Oosterhout,Noord-Brabant,VBO,4.831601,51.660209
Energieweg,1,,,4906CG,Oosterhout,Oosterhout,Noord-Brabant,VBO,4.832959,51.658282
Energieweg,2,,,4906CG,Oosterhout,Oosterhout,Noord-Brabant,VBO,4.832694,51.657507
Energieweg,4,,,4906CG,Oosterhout,Oosterhout,Noord-Brabant,VBO,4.835144,51.657540
Energieweg,6,,,4906CG,Oosterhout,Oosterhout,Noord-Brabant,VBO,4.835533,51.657545
Energieweg,8,,,4906CG,Oosterhout,Oosterhout,Noord-Brabant,VBO,4.838963,51.657591
Energieweg,10,,,4906CG,Oosterhout,Oosterhout,Noord-Brabant,VBO,4.839351,51.657597
Energieweg,12,,,4906CG,Oosterhout,Oosterhout,Noord-Brabant,VBO,4.842827,51.657452
Energieweg,14,,,4906CG,Oosterhout,Oosterhout,Noord-Brabant,VBO,4.843597,51.657919
Energieweg,16,,,4906CG,Oosterhout,Oosterhout,Noord-Brabant,VBO,4.844478,51.657934
Energieweg,18,,,4906CG,Oosterhout,Oosterhout,Noord-Brabant,VBO,4.845221,51.657925
Energieweg,19,,,4906CG,Oosterhout,Oosterhout,Noord-Brabant,VBO,4.841262,51.658473
Energieweg,20,,,4906CG,Oosterhout,Oosterhout,Noord-Brabant,VBO,4.845996,51.657985
Energieweg,23,A,,4906CG,Oosterhout,Oosterhout,Noord-Brabant,VBO,4.842686,51.658351
Energieweg,23,,,4906CG,Oosterhout,Oosterhout,Noord-Brabant,VBO,4.843041,51.658356
Energieweg,25,,,4906CG,Oosterhout,Oosterhout,Noord-Brabant,VBO,4.843898,51.658484
Energieweg,26,,,4906CG,Oosterhout,Oosterhout,Noord-Brabant,VBO,4.846998,51.657440
Energieweg,30,,,4906CG,Oosterhout,Oosterhout,Noord-Brabant,VBO,4.847359,51.656983
Energieweg,31,,,4906CG,Oosterhout,Oosterhout,Noord-Brabant,VBO,4.846248,51.658353
Energieweg,34,,,4906CG,Oosterhout,Oosterhout,Noord-Brabant,VBO,4.847400,51.656124
Energieweg,35,,,4906CG,Oosterhout,Oosterhout,Noord-Brabant,VBO,4.847029,51.658456
Energieweg,37,,,4906CG,Oosterhout,Oosterhout,Noord-Brabant,VBO,4.847036,51.658335
Energieweg,39,,,4906CG,Oosterhout,Oosterhout,Noord-Brabant,VBO,4.848001,51.658243
Energieweg,41,,,4906CG,Oosterhout,Oosterhout,Noord-Brabant,VBO,4.848073,51.657886
Energieweg,43,,,4906CG,Oosterhout,Oosterhout,Noord-Brabant,VBO,4.847931,51.657894
Energieweg,45,,,4906CG,Oosterhout,Oosterhout,Noord-Brabant,VBO,4.847781,51.657903
Energieweg,47,,,4906CG,Oosterhout,Oosterhout,Noord-Brabant,VBO,4.847639,51.657913
Energieweg,49,,,4906CG,Oosterhout,Oosterhout,Noord-Brabant,VBO,4.847505,51.657919
Energieweg,51,,,4906CG,Oosterhout,Oosterhout,Noord-Brabant,VBO,4.847839,51.657587
Ambachtsweg,8,,,4906CH,Oosterhout,Oosterhout,Noord-Brabant,VBO,4.838780,51.659061
Ambachtsweg,9,,,4906CH,Oosterhout,Oosterhout,Noord-Brabant,VBO,4.838104,51.659210
Ambachtsweg,16,,,4906CH,Oosterhout,Oosterhout,Noord-Brabant,VBO,4.838035,51.660041
Visserijweg,1,A,,4906CJ,Oosterhout,Oosterhout,Noord-Brabant,VBO,4.847480,51.667932
Visserijweg,1,B,,4906CJ,Oosterhout,Oosterhout,Noord-Brabant,VBO,4.847471,51.667985
Visserijweg,1,C,,4906CJ,Oosterhout,Oosterhout,Noord-Brabant,VBO,4.847461,51.668039
Visserijweg,1,D,,4906CJ,Oosterhout,Oosterhout,Noord-Brabant,VBO,4.847452,51.668093
Visserijweg,1,E,,4906CJ,Oosterhout,Oosterhout,Noord-Brabant,VBO,4.847442,51.668146
Visserijweg,1,F,,4906CJ,Oosterhout,Oosterhout,Noord-Brabant,VBO,4.847952,51.667964
Visserijweg,1,G,,4906CJ,Oosterhout,Oosterhout,Noord-Brabant,VBO,4.847943,51.668018
Visserijweg,1,H,,4906CJ,Oosterhout,Oosterhout,Noord-Brabant,VBO,4.847933,51.668071
Visserijweg,1,K,,4906CJ,Oosterhout,Oosterhout,Noord-Brabant,VBO,4.847924,51.668125
Visserijweg,1,L,,4906CJ,Oosterhout,Oosterhout,Noord-Brabant,VBO,4.847914,51.668179
Visserijweg,1,,,4906CJ,Oosterhout,Oosterhout,Noord-Brabant,VBO,4.848349,51.667988
Visserijweg,2,A,,4906CJ,Oosterhout,Oosterhout,Noord-Brabant,VBO,4.845823,51.667806
Visserijweg,2,,,4906CJ,Oosterhout,Oosterhout,Noord-Brabant,VBO,4.846665,51.667720
Visserijweg,3,A,,4906CJ,Oosterhout,Oosterhout,Noord-Brabant,VBO,4.847596,51.667238
Visserijweg,3,B,,4906CJ,Oosterhout,Oosterhout,Noord-Brabant,VBO,4.849361,51.667823
Visserijweg,3,,,4906CJ,Oosterhout,Oosterhout,Noord-Brabant,VBO,4.847937,51.666897
Visserijweg,4,,,4906CJ,Oosterhout,Oosterhout,Noord-Brabant,VBO,4.847020,51.665303
Visserijweg,5,,,4906CJ,Oosterhout,Oosterhout,Noord-Brabant,VBO,4.847915,51.666058
Visserijweg,9,,,4906CJ,Oosterhout,Oosterhout,Noord-Brabant,VBO,4.848020,51.664319
Handelsweg,7,,,4906CK,Oosterhout,Oosterhout,Noord-Brabant,VBO,4.833806,51.659891
Nijverheidsweg,4,,,4906CL,Oosterhout,Oosterhout,Noord-Brabant,VBO,4.845276,51.657615
Nijverheidsweg,6,,,4906CL,Oosterhout,Oosterhout,Noord-Brabant,VBO,4.845332,51.657416
Nijverheidsweg,10,,,4906CL,Oosterhout,Oosterhout,Noord-Brabant,VBO,4.845461,51.656827
Nijverheidsweg,14,,,4906CL,Oosterhout,Oosterhout,Noord-Brabant,VBO,4.845413,51.656407
Nijverheidsweg,26,,,4906CL,Oosterhout,Oosterhout,Noord-Brabant,VBO,4.846183,51.656587
Nijverheidsweg,28,,,4906CL,Oosterhout,Oosterhout,Noord-Brabant,VBO,4.846483,51.656597
Nijverheidsweg,34,,,4906CL,Oosterhout,Oosterhout,Noord-Brabant,VBO,4.846815,51.656325
Nijverheidsweg,36,,,4906CL,Oosterhout,Oosterhout,Noord-Brabant,VBO,4.847086,51.656597
Nijverheidsweg,5,,,4906CM,Oosterhout,Oosterhout,Noord-Brabant,VBO,4.846061,51.657698
Nijverheidsweg,9,,,4906CM,Oosterhout,Oosterhout,Noord-Brabant,VBO,4.846065,51.657469
Nijverheidsweg,11,,,4906CM,Oosterhout,Oosterhout,Noord-Brabant,VBO,4.846065,51.657308
Nijverheidsweg,15,,,4906CM,Oosterhout,Oosterhout,Noord-Brabant,VBO,4.846268,51.657137
Nijverheidsweg,17,,,4906CM,Oosterhout,Oosterhout,Noord-Brabant,VBO,4.846042,51.657093
Nijverheidsweg,19,,,4906CM,Oosterhout,Oosterhout,Noord-Brabant,VBO,4.846056,51.656976
Nijverheidsweg,21,,,4906CM,Oosterhout,Oosterhout,Noord-Brabant,VBO,4.846274,51.656977
Nijverheidsweg,23,,,4906CM,Oosterhout,Oosterhout,Noord-Brabant,VBO,4.846489,51.657076
Beurtvaartweg,2,,,4906CN,Oosterhout,Oosterhout,Noord-Brabant,VBO,4.842307,51.658520
Beurtvaartweg,8,,,4906CN,Oosterhout,Oosterhout,Noord-Brabant,VBO,4.842289,51.658867
Koopmansweg,3,,,4906CP,Oosterhout,Oosterhout,Noord-Brabant,VBO,4.845254,51.658822
Koopmansweg,5,,,4906CP,Oosterhout,Oosterhout,Noord-Brabant,VBO,4.845217,51.659430
Koopmansweg,11,,,4906CP,Oosterhout,Oosterhout,Noord-Brabant,VBO,4.846127,51.659298
Krombraak,2,,,4906CR,Oosterhout,Oosterhout,Noord-Brabant,VBO,4.846425,51.654639
Krombraak,3,,,4906CR,Oosterhout,Oosterhout,Noord-Brabant,VBO,4.844691,51.653902
Krombraak,4,,,4906CR,Oosterhout,Oosterhout,Noord-Brabant,VBO,4.845953,51.654690
Krombraak,5,,,4906CR,Oosterhout,Oosterhout,Noord-Brabant,VBO,4.844322,51.653946
Krombraak,6,A,,4906CR,Oosterhout,Oosterhout,Noord-Brabant,VBO,4.843712,51.654412
Krombraak,6,B,,4906CR,Oosterhout,Oosterhout,Noord-Brabant,VBO,4.844309,51.654494
Krombraak,6,C,,4906CR,Oosterhout,Oosterhout,Noord-Brabant,VBO,4.844104,51.654519
Krombraak,6,,,4906CR,Oosterhout,Oosterhout,Noord-Brabant,VBO,4.844507,51.654471
Krombraak,8,,,4906CR,Oosterhout,Oosterhout,Noord-Brabant,VBO,4.844249,51.654858
Krombraak,10,,,4906CR,Oosterhout,Oosterhout,Noord-Brabant,VBO,4.844367,51.655262
Krombraak,11,,,4906CR,Oosterhout,Oosterhout,Noord-Brabant,VBO,4.842103,51.654136
Krombraak,13,,,4906CR,Oosterhout,Oosterhout,Noord-Brabant,VBO,4.841480,51.654097
Krombraak,14,,,4906CR,Oosterhout,Oosterhout,Noord-Brabant,VBO,4.843237,51.654521
Krombraak,15,,,4906CR,Oosterhout,Oosterhout,Noord-Brabant,VBO,4.841346,51.654282
Krombraak,16,,,4906CR,Oosterhout,Oosterhout,Noord-Brabant,VBO,4.842338,51.654624
Touwslagerijweg,4,,,4906CS,Oosterhout,Oosterhout,Noord-Brabant,VBO,4.840492,51.664806
De Wetering,1,,,4906CT,Oosterhout,Oosterhout,Noord-Brabant,VBO,4.845367,51.653641
De Wetering,2,,,4906CT,Oosterhout,Oosterhout,Noord-Brabant,VBO,4.844720,51.653614
De Wetering,5,,,4906CT,Oosterhout,Oosterhout,Noord-Brabant,VBO,4.845183,51.652997
De Wetering,8,,,4906CT,Oosterhout,Oosterhout,Noord-Brabant,VBO,4.844252,51.653144
De Wetering,9,,,4906CT,Oosterhout,Oosterhout,Noord-Brabant,VBO,4.845208,51.652811
De Wetering,11,,,4906CT,Oosterhout,Oosterhout,Noord-Brabant,VBO,4.845307,51.652799
De Wetering,12,,,4906CT,Oosterhout,Oosterhout,Noord-Brabant,VBO,4.844261,51.652814
De Wetering,13,,,4906CT,Oosterhout,Oosterhout,Noord-Brabant,VBO,4.845406,51.652787
De Wetering,15,,,4906CT,Oosterhout,Oosterhout,Noord-Brabant,VBO,4.845506,51.652775
De Wetering,17,,,4906CT,Oosterhout,Oosterhout,Noord-Brabant,VBO,4.845605,51.652763
De Wetering,18,,,4906CT,Oosterhout,Oosterhout,Noord-Brabant,VBO,4.843540,51.652904
De Wetering,19,,,4906CT,Oosterhout,Oosterhout,Noord-Brabant,VBO,4.845704,51.652752
De Wetering,21,,,4906CT,Oosterhout,Oosterhout,Noord-Brabant,VBO,4.845804,51.652740
De Wetering,23,,,4906CT,Oosterhout,Oosterhout,Noord-Brabant,VBO,4.845090,51.652825
De Wetering,24,,,4906CT,Oosterhout,Oosterhout,Noord-Brabant,VBO,4.843372,51.653459
De Wetering,25,,,4906CT,Oosterhout,Oosterhout,Noord-Brabant,VBO,4.845052,51.652702
De Wetering,27,,,4906CT,Oosterhout,Oosterhout,Noord-Brabant,VBO,4.845170,51.652688
De Wetering,28,,,4906CT,Oosterhout,Oosterhout,Noord-Brabant,VBO,4.843331,51.653824
De Wetering,29,,,4906CT,Oosterhout,Oosterhout,Noord-Brabant,VBO,4.845269,51.652676
De Wetering,31,,,4906CT,Oosterhout,Oosterhout,Noord-Brabant,VBO,4.845368,51.652664
De Wetering,33,,,4906CT,Oosterhout,Oosterhout,Noord-Brabant,VBO,4.845468,51.652652
De Wetering,35,,,4906CT,Oosterhout,Oosterhout,Noord-Brabant,VBO,4.845567,51.652640
De Wetering,37,,,4906CT,Oosterhout,Oosterhout,Noord-Brabant,VBO,4.845667,51.652628
De Wetering,39,,,4906CT,Oosterhout,Oosterhout,Noord-Brabant,VBO,4.845766,51.652617
De Wetering,45,,,4906CT,Oosterhout,Oosterhout,Noord-Brabant,VBO,4.843816,51.652479
De Wetering,47,,,4906CT,Oosterhout,Oosterhout,Noord-Brabant,VBO,4.843701,51.652492
De Wetering,51,,,4906CT,Oosterhout,Oosterhout,Noord-Brabant,VBO,4.843192,51.652557
De Wetering,53,,,4906CT,Oosterhout,Oosterhout,Noord-Brabant,VBO,4.843090,51.652569
De Wetering,55,,,4906CT,Oosterhout,Oosterhout,Noord-Brabant,VBO,4.842991,51.652581
De Wetering,57,,,4906CT,Oosterhout,Oosterhout,Noord-Brabant,VBO,4.842889,51.652593
De Wetering,59,,,4906CT,Oosterhout,Oosterhout,Noord-Brabant,VBO,4.842790,51.652605
De Wetering,61,,,4906CT,Oosterhout,Oosterhout,Noord-Brabant,VBO,4.842688,51.652617
De Wetering,63,,,4906CT,Oosterhout,Oosterhout,Noord-Brabant,VBO,4.842651,51.652493
De Wetering,65,,,4906CT,Oosterhout,Oosterhout,Noord-Brabant,VBO,4.842753,51.652480
De Wetering,67,,,4906CT,Oosterhout,Oosterhout,Noord-Brabant,VBO,4.842850,51.652469
De Wetering,69,,,4906CT,Oosterhout,Oosterhout,Noord-Brabant,VBO,4.842952,51.652457
De Wetering,71,,,4906CT,Oosterhout,Oosterhout,Noord-Brabant,VBO,4.843049,51.652445
De Wetering,73,,,4906CT,Oosterhout,Oosterhout,Noord-Brabant,VBO,4.843150,51.652433
De Wetering,75,,,4906CT,Oosterhout,Oosterhout,Noord-Brabant,VBO,4.843250,51.652421
De Wetering,79,,,4906CT,Oosterhout,Oosterhout,Noord-Brabant,VBO,4.842787,51.652859
De Wetering,81,,,4906CT,Oosterhout,Oosterhout,Noord-Brabant,VBO,4.842753,51.652960
De Wetering,83,,,4906CT,Oosterhout,Oosterhout,Noord-Brabant,VBO,4.842529,51.652890
De Wetering,85,,,4906CT,Oosterhout,Oosterhout,Noord-Brabant,VBO,4.842364,51.652870
De Wetering,87,,,4906CT,Oosterhout,Oosterhout,Noord-Brabant,VBO,4.842213,51.653185
De Wetering,89,,,4906CT,Oosterhout,Oosterhout,Noord-Brabant,VBO,4.842300,51.653196
De Wetering,91,,,4906CT,Oosterhout,Oosterhout,Noord-Brabant,VBO,4.842387,51.653206
De Wetering,93,,,4906CT,Oosterhout,Oosterhout,Noord-Brabant,VBO,4.842471,51.653215
De Wetering,95,,,4906CT,Oosterhout,Oosterhout,Noord-Brabant,VBO,4.842555,51.653224
De Wetering,97,,,4906CT,Oosterhout,Oosterhout,Noord-Brabant,VBO,4.842642,51.653233
De Wetering,99,,,4906CT,Oosterhout,Oosterhout,Noord-Brabant,VBO,4.842780,51.653221
De Wetering,101,,,4906CT,Oosterhout,Oosterhout,Noord-Brabant,VBO,4.842762,51.653277
De Wetering,103,,,4906CT,Oosterhout,Oosterhout,Noord-Brabant,VBO,4.842748,51.653331
De Wetering,105,,,4906CT,Oosterhout,Oosterhout,Noord-Brabant,VBO,4.842731,51.653386
De Wetering,107,,,4906CT,Oosterhout,Oosterhout,Noord-Brabant,VBO,4.842614,51.653337
De Wetering,109,,,4906CT,Oosterhout,Oosterhout,Noord-Brabant,VBO,4.842527,51.653326
De Wetering,111,,,4906CT,Oosterhout,Oosterhout,Noord-Brabant,VBO,4.842443,51.653317
De Wetering,113,,,4906CT,Oosterhout,Oosterhout,Noord-Brabant,VBO,4.842359,51.653311
De Wetering,115,,,4906CT,Oosterhout,Oosterhout,Noord-Brabant,VBO,4.842272,51.653300
De Wetering,117,,,4906CT,Oosterhout,Oosterhout,Noord-Brabant,VBO,4.842181,51.653291
De Wetering,119,,,4906CT,Oosterhout,Oosterhout,Noord-Brabant,VBO,4.842166,51.653950
De Wetering,121,,,4906CT,Oosterhout,Oosterhout,Noord-Brabant,VBO,4.842205,51.653789
De Wetering,123,,,4906CT,Oosterhout,Oosterhout,Noord-Brabant,VBO,4.842254,51.653629
De Wetering,125,,,4906CT,Oosterhout,Oosterhout,Noord-Brabant,VBO,4.842562,51.653668
De Wetering,127,,,4906CT,Oosterhout,Oosterhout,Noord-Brabant,VBO,4.842527,51.653824
De Wetering,129,,,4906CT,Oosterhout,Oosterhout,Noord-Brabant,VBO,4.842474,51.654033
Koopvaardijweg,1,,,4906CV,Oosterhout,Oosterhout,Noord-Brabant,VBO,4.830795,51.665506
Koopvaardijweg,2,,,4906CV,Oosterhout,Oosterhout,Noord-Brabant,VBO,4.830699,51.665005
Koopvaardijweg,3,A,,4906CV,Oosterhout,Oosterhout,Noord-Brabant,VBO,4.835591,51.666211
Koopvaardijweg,3,,,4906CV,Oosterhout,Oosterhout,Noord-Brabant,VBO,4.833143,51.665751
Koopvaardijweg,5,A,,4906CV,Oosterhout,Oosterhout,Noord-Brabant,VBO,4.835997,51.666380
Koopvaardijweg,5,C,,4906CV,Oosterhout,Oosterhout,Noord-Brabant,VBO,4.837532,51.666169
Koopvaardijweg,5,,,4906CV,Oosterhout,Oosterhout,Noord-Brabant,VBO,4.836380,51.666406
Koopvaardijweg,6,,,4906CV,Oosterhout,Oosterhout,Noord-Brabant,VBO,4.831208,51.665173
Koopvaardijweg,7,,,4906CV,Oosterhout,Oosterhout,Noord-Brabant,VBO,4.840716,51.666407
Koopvaardijweg,9,,,4906CV,Oosterhout,Oosterhout,Noord-Brabant,VBO,4.842439,51.666644
Koopvaardijweg,12,,,4906CV,Oosterhout,Oosterhout,Noord-Brabant,VBO,4.832249,51.665111
Koopvaardijweg,14,,,4906CV,Oosterhout,Oosterhout,Noord-Brabant,VBO,4.832967,51.665232
Koopvaardijweg,15,,,4906CV,Oosterhout,Oosterhout,Noord-Brabant,VBO,4.844094,51.666496
Koopvaardijweg,16,,,4906CV,Oosterhout,Oosterhout,Noord-Brabant,VBO,4.833269,51.665318
Koopvaardijweg,18,,,4906CV,Oosterhout,Oosterhout,Noord-Brabant,VBO,4.834403,51.665303
Koopvaardijweg,19,A,,4906CV,Oosterhout,Oosterhout,Noord-Brabant,VBO,4.846113,51.666641
Koopvaardijweg,19,B,,4906CV,Oosterhout,Oosterhout,Noord-Brabant,VBO,4.846472,51.666666
Koopvaardijweg,19,,,4906CV,Oosterhout,Oosterhout,Noord-Brabant,VBO,4.845969,51.666631
Koopvaardijweg,21,,,4906CV,Oosterhout,Oosterhout,Noord-Brabant,VBO,4.846942,51.666721
Koopvaardijweg,22,,,4906CV,Oosterhout,Oosterhout,Noord-Brabant,VBO,4.835187,51.665470
Koopvaardijweg,26,,,4906CV,Oosterhout,Oosterhout,Noord-Brabant,VBO,4.835755,51.665355
Koopvaardijweg,30,,,4906CV,Oosterhout,Oosterhout,Noord-Brabant,VBO,4.836419,51.665572
Koopvaardijweg,32,,,4906CV,Oosterhout,Oosterhout,Noord-Brabant,VBO,4.836970,51.665623
Koopvaardijweg,34,,,4906CV,Oosterhout,Oosterhout,Noord-Brabant,VBO,4.837079,51.665624
Koopvaardijweg,38,,,4906CV,Oosterhout,Oosterhout,Noord-Brabant,VBO,4.837673,51.665652
Koopvaardijweg,42,,,4906CV,Oosterhout,Oosterhout,Noord-Brabant,VBO,4.838350,51.665699
Koopvaardijweg,46,,,4906CV,Oosterhout,Oosterhout,Noord-Brabant,VBO,4.839059,51.665697
Koopvaardijweg,48,,,4906CV,Oosterhout,Oosterhout,Noord-Brabant,VBO,4.839417,51.665695
Koopvaardijweg,50,,,4906CV,Oosterhout,Oosterhout,Noord-Brabant,VBO,4.840232,51.665638
Koopvaardijweg,54,,,4906CV,Oosterhout,Oosterhout,Noord-Brabant,VBO,4.841326,51.665899
Zeilmakerijweg,1,,,4906CW,Oosterhout,Oosterhout,Noord-Brabant,VBO,4.839578,51.663833
Zeilmakerijweg,4,,,4906CW,Oosterhout,Oosterhout,Noord-Brabant,VBO,4.838277,51.663982
Zeilmakerijweg,8,,,4906CW,Oosterhout,Oosterhout,Noord-Brabant,VBO,4.838090,51.663260
Zeilmakerijweg,9,,,4906CW,Oosterhout,Oosterhout,Noord-Brabant,VBO,4.838036,51.662704
Zeilmakerijweg,13,,,4906CW,Oosterhout,Oosterhout,Noord-Brabant,VBO,4.837092,51.662771
Rederijweg,4,,,4906CX,Oosterhout,Oosterhout,Noord-Brabant,VBO,4.831449,51.663321
Rederijweg,6,,,4906CX,Oosterhout,Oosterhout,Noord-Brabant,VBO,4.833467,51.664050
Rederijweg,8,,,4906CX,Oosterhout,Oosterhout,Noord-Brabant,VBO,4.834432,51.663831
Rederijweg,17,,,4906CX,Oosterhout,Oosterhout,Noord-Brabant,VBO,4.834511,51.664671
Rederijweg,18,,,4906CX,Oosterhout,Oosterhout,Noord-Brabant,VBO,4.840262,51.663996
Rederijweg,19,,,4906CX,Oosterhout,Oosterhout,Noord-Brabant,VBO,4.835233,51.664480
Rederijweg,22,,,4906CX,Oosterhout,Oosterhout,Noord-Brabant,VBO,4.842449,51.662143
Rederijweg,23,,,4906CX,Oosterhout,Oosterhout,Noord-Brabant,VBO,4.835694,51.664526
Rederijweg,25,,,4906CX,Oosterhout,Oosterhout,Noord-Brabant,VBO,4.836367,51.664532
Rederijweg,26,,,4906CX,Oosterhout,Oosterhout,Noord-Brabant,VBO,4.844523,51.664004
Rederijweg,30,,,4906CX,Oosterhout,Oosterhout,Noord-Brabant,VBO,4.845762,51.664182
Rederijweg,32,,,4906CX,Oosterhout,Oosterhout,Noord-Brabant,VBO,4.847192,51.663681
Rederijweg,33,,,4906CX,Oosterhout,Oosterhout,Noord-Brabant,VBO,4.838788,51.664530
Rederijweg,37,,,4906CX,Oosterhout,Oosterhout,Noord-Brabant,VBO,4.839515,51.664578
Rederijweg,39,,,4906CX,Oosterhout,Oosterhout,Noord-Brabant,VBO,4.839766,51.664752
Rederijweg,41,,,4906CX,Oosterhout,Oosterhout,Noord-Brabant,VBO,4.841509,51.664601
Het Goorke,1,,,4906CZ,Oosterhout,Oosterhout,Noord-Brabant,VBO,4.832401,51.654283
Het Goorke,3,,,4906CZ,Oosterhout,Oosterhout,Noord-Brabant,VBO,4.832545,51.654105
Het Goorke,5,,,4906CZ,Oosterhout,Oosterhout,Noord-Brabant,VBO,4.832745,51.654194
Het Goorke,7,,,4906CZ,Oosterhout,Oosterhout,Noord-Brabant,VBO,4.832904,51.654112
Het Goorke,9,,,4906CZ,Oosterhout,Oosterhout,Noord-Brabant,VBO,4.833253,51.654138
Het Goorke,11,,,4906CZ,Oosterhout,Oosterhout,Noord-Brabant,VBO,4.833247,51.654350
Het Goorke,13,,,4906CZ,Oosterhout,Oosterhout,Noord-Brabant,VBO,4.833419,51.654359
Het Goorke,15,,,4906CZ,Oosterhout,Oosterhout,Noord-Brabant,VBO,4.833636,51.654162
Het Goorke,17,,,4906CZ,Oosterhout,Oosterhout,Noord-Brabant,VBO,4.833794,51.654382
Het Goorke,19,,,4906CZ,Oosterhout,Oosterhout,Noord-Brabant,VBO,4.833999,51.654187
Het Goorke,21,,,4906CZ,Oosterhout,Oosterhout,Noord-Brabant,VBO,4.834311,51.654207
Het Goorke,23,,,4906CZ,Oosterhout,Oosterhout,Noord-Brabant,VBO,4.834314,51.654437
Het Goorke,25,,,4906CZ,Oosterhout,Oosterhout,Noord-Brabant,VBO,4.834518,51.654368
Het Goorke,27,,,4906CZ,Oosterhout,Oosterhout,Noord-Brabant,VBO,4.834703,51.654241
Het Goorke,29,A,,4906CZ,Oosterhout,Oosterhout,Noord-Brabant,VBO,4.834993,51.654494
Het Goorke,29,,,4906CZ,Oosterhout,Oosterhout,Noord-Brabant,VBO,4.835202,51.654272
Het Goorke,31,,,4906CZ,Oosterhout,Oosterhout,Noord-Brabant,VBO,4.835657,51.654534
Het Goorke,33,,,4906CZ,Oosterhout,Oosterhout,Noord-Brabant,VBO,4.835677,51.654300
Het Goorke,35,,,4906CZ,Oosterhout,Oosterhout,Noord-Brabant,VBO,4.835957,51.654552
Het Goorke,37,,,4906CZ,Oosterhout,Oosterhout,Noord-Brabant,VBO,4.836162,51.654332
Het Goorke,39,,,4906CZ,Oosterhout,Oosterhout,Noord-Brabant,VBO,4.836414,51.654584
Het Goorke,41,,,4906CZ,Oosterhout,Oosterhout,Noord-Brabant,VBO,4.836703,51.654381
Het Goorke,43,,,4906CZ,Oosterhout,Oosterhout,Noord-Brabant,VBO,4.837216,51.654417
Het Goorke,45,,,4906CZ,Oosterhout,Oosterhout,Noord-Brabant,VBO,4.837127,51.654670
Het Goorke,47,A,,4906CZ,Oosterhout,Oosterhout,Noord-Brabant,VBO,4.837403,51.654550
Het Goorke,47,,,4906CZ,Oosterhout,Oosterhout,Noord-Brabant,VBO,4.837589,51.654446
Het Goorke,49,,,4906CZ,Oosterhout,Oosterhout,Noord-Brabant,VBO,4.837755,51.654625
Het Goorke,51,,,4906CZ,Oosterhout,Oosterhout,Noord-Brabant,VBO,4.837927,51.654471
Het Goorke,53,,,4906CZ,Oosterhout,Oosterhout,Noord-Brabant,VBO,4.838149,51.654689
Het Goorke,55,,,4906CZ,Oosterhout,Oosterhout,Noord-Brabant,VBO,4.838380,51.654498
Het Goorke,57,,,4906CZ,Oosterhout,Oosterhout,Noord-Brabant,VBO,4.838928,51.654550
Het Goorke,59,,,4906CZ,Oosterhout,Oosterhout,Noord-Brabant,VBO,4.839543,51.654591
Het Goorke,61,A,,4906CZ,Oosterhout,Oosterhout,Noord-Brabant,VBO,4.840265,51.654680
Het Goorke,61,B,,4906CZ,Oosterhout,Oosterhout,Noord-Brabant,VBO,4.840257,51.654722
Het Goorke,61,,,4906CZ,Oosterhout,Oosterhout,Noord-Brabant,VBO,4.840272,51.654640
Merijntje Gijzenstraat,3,A,,4906EA,Oosterhout,Oosterhout,Noord-Brabant,VBO,4.836226,51.651180
Merijntje Gijzenstraat,3,B,,4906EA,Oosterhout,Oosterhout,Noord-Brabant,VBO,4.836301,51.651187
Merijntje Gijzenstraat,3,C,,4906EA,Oosterhout,Oosterhout,Noord-Brabant,VBO,4.836145,51.651196
Merijntje Gijzenstraat,3,D,,4906EA,Oosterhout,Oosterhout,Noord-Brabant,VBO,4.836221,51.651203
Merijntje Gijzenstraat,3,E,,4906EA,Oosterhout,Oosterhout,Noord-Brabant,VBO,4.836140,51.651218
Merijntje Gijzenstraat,3,F,,4906EA,Oosterhout,Oosterhout,Noord-Brabant,VBO,4.836187,51.651225
Merijntje Gijzenstraat,3,G,,4906EA,Oosterhout,Oosterhout,Noord-Brabant,VBO,4.836290,51.651232
Merijntje Gijzenstraat,3,,,4906EA,Oosterhout,Oosterhout,Noord-Brabant,VBO,4.836150,51.651173
Merijntje Gijzenstraat,4,,,4906EA,Oosterhout,Oosterhout,Noord-Brabant,VBO,4.836476,51.650352
Merijntje Gijzenstraat,6,,,4906EA,Oosterhout,Oosterhout,Noord-Brabant,VBO,4.836454,51.650403
Merijntje Gijzenstraat,8,,,4906EA,Oosterhout,Oosterhout,Noord-Brabant,VBO,4.836431,51.650453
Merijntje Gijzenstraat,9,,,4906EA,Oosterhout,Oosterhout,Noord-Brabant,VBO,4.838567,51.651513
Merijntje Gijzenstraat,10,,,4906EA,Oosterhout,Oosterhout,Noord-Brabant,VBO,4.836410,51.650500
Merijntje Gijzenstraat,12,,,4906EA,Oosterhout,Oosterhout,Noord-Brabant,VBO,4.836387,51.650551
Merijntje Gijzenstraat,14,,,4906EA,Oosterhout,Oosterhout,Noord-Brabant,VBO,4.836364,51.650601
Merijntje Gijzenstraat,16,,,4906EA,Oosterhout,Oosterhout,Noord-Brabant,VBO,4.836342,51.650652
Merijntje Gijzenstraat,18,,,4906EA,Oosterhout,Oosterhout,Noord-Brabant,VBO,4.836252,51.650816
Merijntje Gijzenstraat,20,,,4906EA,Oosterhout,Oosterhout,Noord-Brabant,VBO,4.836332,51.650840
Merijntje Gijzenstraat,22,,,4906EA,Oosterhout,Oosterhout,Noord-Brabant,VBO,4.836411,51.650864
Merijntje Gijzenstraat,24,,,4906EA,Oosterhout,Oosterhout,Noord-Brabant,VBO,4.836490,51.650888
Merijntje Gijzenstraat,26,,,4906EA,Oosterhout,Oosterhout,Noord-Brabant,VBO,4.836569,51.650912
Merijntje Gijzenstraat,28,,,4906EA,Oosterhout,Oosterhout,Noord-Brabant,VBO,4.836649,51.650936
Merijntje Gijzenstraat,30,,,4906EA,Oosterhout,Oosterhout,Noord-Brabant,VBO,4.836729,51.650960
Merijntje Gijzenstraat,32,,,4906EA,Oosterhout,Oosterhout,Noord-Brabant,VBO,4.837065,51.651053
Merijntje Gijzenstraat,34,,,4906EA,Oosterhout,Oosterhout,Noord-Brabant,VBO,4.837146,51.651072
Merijntje Gijzenstraat,36,,,4906EA,Oosterhout,Oosterhout,Noord-Brabant,VBO,4.837228,51.651091
Merijntje Gijzenstraat,38,,,4906EA,Oosterhout,Oosterhout,Noord-Brabant,VBO,4.837309,51.651110
Merijntje Gijzenstraat,40,,,4906EA,Oosterhout,Oosterhout,Noord-Brabant,VBO,4.837391,51.651130
Merijntje Gijzenstraat,42,,,4906EA,Oosterhout,Oosterhout,Noord-Brabant,VBO,4.837473,51.651149
Merijntje Gijzenstraat,44,,,4906EA,Oosterhout,Oosterhout,Noord-Brabant,VBO,4.837554,51.651168
Merijntje Gijzenstraat,46,,,4906EA,Oosterhout,Oosterhout,Noord-Brabant,VBO,4.837887,51.651240
Merijntje Gijzenstraat,48,,,4906EA,Oosterhout,Oosterhout,Noord-Brabant,VBO,4.837970,51.651254
Merijntje Gijzenstraat,50,,,4906EA,Oosterhout,Oosterhout,Noord-Brabant,VBO,4.838054,51.651269
Merijntje Gijzenstraat,52,,,4906EA,Oosterhout,Oosterhout,Noord-Brabant,VBO,4.838137,51.651283
Merijntje Gijzenstraat,54,,,4906EA,Oosterhout,Oosterhout,Noord-Brabant,VBO,4.838221,51.651298
Merijntje Gijzenstraat,56,,,4906EA,Oosterhout,Oosterhout,Noord-Brabant,VBO,4.838304,51.651312
Merijntje Gijzenstraat,58,,,4906EA,Oosterhout,Oosterhout,Noord-Brabant,VBO,4.838388,51.651327
Merijntje Gijzenstraat,15,,,4906EB,Oosterhout,Oosterhout,Noord-Brabant,VBO,4.841619,51.651361
Merijntje Gijzenstraat,17,,,4906EB,Oosterhout,Oosterhout,Noord-Brabant,VBO,4.841630,51.651337
Merijntje Gijzenstraat,19,,,4906EB,Oosterhout,Oosterhout,Noord-Brabant,VBO,4.841625,51.651440
Merijntje Gijzenstraat,21,,,4906EB,Oosterhout,Oosterhout,Noord-Brabant,VBO,4.841636,51.651416
Merijntje Gijzenstraat,23,,,4906EB,Oosterhout,Oosterhout,Noord-Brabant,VBO,4.841646,51.651393
Merijntje Gijzenstraat,25,,,4906EB,Oosterhout,Oosterhout,Noord-Brabant,VBO,4.841657,51.651369
Merijntje Gijzenstraat,27,,,4906EB,Oosterhout,Oosterhout,Noord-Brabant,VBO,4.841668,51.651345
Merijntje Gijzenstraat,29,,,4906EB,Oosterhout,Oosterhout,Noord-Brabant,VBO,4.841664,51.651448
Merijntje Gijzenstraat,31,,,4906EB,Oosterhout,Oosterhout,Noord-Brabant,VBO,4.841675,51.651423
Merijntje Gijzenstraat,33,,,4906EB,Oosterhout,Oosterhout,Noord-Brabant,VBO,4.841685,51.651400
Merijntje Gijzenstraat,35,,,4906EB,Oosterhout,Oosterhout,Noord-Brabant,VBO,4.841696,51.651376
Merijntje Gijzenstraat,37,,,4906EB,Oosterhout,Oosterhout,Noord-Brabant,VBO,4.841707,51.651352
Merijntje Gijzenstraat,39,,,4906EB,Oosterhout,Oosterhout,Noord-Brabant,VBO,4.841703,51.651455
Merijntje Gijzenstraat,41,,,4906EB,Oosterhout,Oosterhout,Noord-Brabant,VBO,4.841714,51.651430
Merijntje Gijzenstraat,43,,,4906EB,Oosterhout,Oosterhout,Noord-Brabant,VBO,4.841724,51.651407
Merijntje Gijzenstraat,45,,,4906EB,Oosterhout,Oosterhout,Noord-Brabant,VBO,4.841735,51.651383
Merijntje Gijzenstraat,47,,,4906EB,Oosterhout,Oosterhout,Noord-Brabant,VBO,4.841746,51.651359
Merijntje Gijzenstraat,49,,,4906EB,Oosterhout,Oosterhout,Noord-Brabant,VBO,4.841741,51.651462
Merijntje Gijzenstraat,51,,,4906EB,Oosterhout,Oosterhout,Noord-Brabant,VBO,4.841753,51.651436
Merijntje Gijzenstraat,53,,,4906EB,Oosterhout,Oosterhout,Noord-Brabant,VBO,4.841763,51.651413
Merijntje Gijzenstraat,55,,,4906EB,Oosterhout,Oosterhout,Noord-Brabant,VBO,4.841774,51.651389
Merijntje Gijzenstraat,57,,,4906EB,Oosterhout,Oosterhout,Noord-Brabant,VBO,4.841785,51.651365
Merijntje Gijzenstraat,59,,,4906EB,Oosterhout,Oosterhout,Noord-Brabant,VBO,4.841781,51.651468
Merijntje Gijzenstraat,60,,,4906EB,Oosterhout,Oosterhout,Noord-Brabant,VBO,4.838736,51.651371
Merijntje Gijzenstraat,61,,,4906EB,Oosterhout,Oosterhout,Noord-Brabant,VBO,4.841792,51.651443
Merijntje Gijzenstraat,62,,,4906EB,Oosterhout,Oosterhout,Noord-Brabant,VBO,4.838822,51.651381
Merijntje Gijzenstraat,63,,,4906EB,Oosterhout,Oosterhout,Noord-Brabant,VBO,4.841802,51.651420
Merijntje Gijzenstraat,64,,,4906EB,Oosterhout,Oosterhout,Noord-Brabant,VBO,4.838907,51.651391
Merijntje Gijzenstraat,65,,,4906EB,Oosterhout,Oosterhout,Noord-Brabant,VBO,4.841813,51.651396
Merijntje Gijzenstraat,66,,,4906EB,Oosterhout,Oosterhout,Noord-Brabant,VBO,4.838993,51.651401
Merijntje Gijzenstraat,67,,,4906EB,Oosterhout,Oosterhout,Noord-Brabant,VBO,4.841824,51.651372
Merijntje Gijzenstraat,68,,,4906EB,Oosterhout,Oosterhout,Noord-Brabant,VBO,4.839079,51.651411
Merijntje Gijzenstraat,69,,,4906EB,Oosterhout,Oosterhout,Noord-Brabant,VBO,4.841830,51.651451
Merijntje Gijzenstraat,70,,,4906EB,Oosterhout,Oosterhout,Noord-Brabant,VBO,4.839164,51.651421
Merijntje Gijzenstraat,71,,,4906EB,Oosterhout,Oosterhout,Noord-Brabant,VBO,4.841842,51.651425
Merijntje Gijzenstraat,72,,,4906EB,Oosterhout,Oosterhout,Noord-Brabant,VBO,4.839250,51.651431
Merijntje Gijzenstraat,73,,,4906EB,Oosterhout,Oosterhout,Noord-Brabant,VBO,4.841852,51.651403
Merijntje Gijzenstraat,74,,,4906EB,Oosterhout,Oosterhout,Noord-Brabant,VBO,4.839607,51.651459
Merijntje Gijzenstraat,76,,,4906EB,Oosterhout,Oosterhout,Noord-Brabant,VBO,4.839696,51.651464
Merijntje Gijzenstraat,77,,,4906EB,Oosterhout,Oosterhout,Noord-Brabant,VBO,4.841334,51.651416
Merijntje Gijzenstraat,78,,,4906EB,Oosterhout,Oosterhout,Noord-Brabant,VBO,4.839784,51.651467
Merijntje Gijzenstraat,80,,,4906EB,Oosterhout,Oosterhout,Noord-Brabant,VBO,4.839871,51.651473
Merijntje Gijzenstraat,82,,,4906EB,Oosterhout,Oosterhout,Noord-Brabant,VBO,4.839959,51.651478
Merijntje Gijzenstraat,84,,,4906EB,Oosterhout,Oosterhout,Noord-Brabant,VBO,4.840047,51.651483
Merijntje Gijzenstraat,86,,,4906EB,Oosterhout,Oosterhout,Noord-Brabant,VBO,4.840135,51.651488
Merijntje Gijzenstraat,88,,,4906EB,Oosterhout,Oosterhout,Noord-Brabant,VBO,4.840515,51.651497
Merijntje Gijzenstraat,90,,,4906EB,Oosterhout,Oosterhout,Noord-Brabant,VBO,4.840605,51.651497
Merijntje Gijzenstraat,92,,,4906EB,Oosterhout,Oosterhout,Noord-Brabant,VBO,4.840695,51.651497
Merijntje Gijzenstraat,94,,,4906EB,Oosterhout,Oosterhout,Noord-Brabant,VBO,4.840789,51.651500
Merijntje Gijzenstraat,96,,,4906EB,Oosterhout,Oosterhout,Noord-Brabant,VBO,4.840875,51.651497
Merijntje Gijzenstraat,98,,,4906EB,Oosterhout,Oosterhout,Noord-Brabant,VBO,4.840965,51.651497
Merijntje Gijzenstraat,100,,,4906EB,Oosterhout,Oosterhout,Noord-Brabant,VBO,4.841055,51.651497
Merijntje Gijzenstraat,102,,,4906EB,Oosterhout,Oosterhout,Noord-Brabant,VBO,4.841119,51.651323
Merijntje Gijzenstraat,104,,,4906EB,Oosterhout,Oosterhout,Noord-Brabant,VBO,4.841142,51.651272
Merijntje Gijzenstraat,106,,,4906EB,Oosterhout,Oosterhout,Noord-Brabant,VBO,4.841164,51.651222
Merijntje Gijzenstraat,108,,,4906EB,Oosterhout,Oosterhout,Noord-Brabant,VBO,4.841187,51.651171
Heer Halewijnstraat,4,,,4906EC,Oosterhout,Oosterhout,Noord-Brabant,VBO,4.836818,51.650760
Heer Halewijnstraat,6,,,4906EC,Oosterhout,Oosterhout,Noord-Brabant,VBO,4.836847,51.650696
Heer Halewijnstraat,8,,,4906EC,Oosterhout,Oosterhout,Noord-Brabant,VBO,4.836875,51.650634
Heer Halewijnstraat,10,,,4906EC,Oosterhout,Oosterhout,Noord-Brabant,VBO,4.836904,51.650570
Heer Halewijnstraat,12,,,4906EC,Oosterhout,Oosterhout,Noord-Brabant,VBO,4.836931,51.650509
Heer Halewijnstraat,14,,,4906EC,Oosterhout,Oosterhout,Noord-Brabant,VBO,4.836960,51.650446
Heer Halewijnstraat,18,,,4906EC,Oosterhout,Oosterhout,Noord-Brabant,VBO,4.837084,51.650143
Heer Halewijnstraat,20,,,4906EC,Oosterhout,Oosterhout,Noord-Brabant,VBO,4.837184,51.649946
Heer Halewijnstraat,22,,,4906EC,Oosterhout,Oosterhout,Noord-Brabant,VBO,4.837212,51.649883
Heer Halewijnstraat,24,,,4906EC,Oosterhout,Oosterhout,Noord-Brabant,VBO,4.837240,51.649820
Heer Halewijnstraat,26,,,4906EC,Oosterhout,Oosterhout,Noord-Brabant,VBO,4.837269,51.649757
Heer Halewijnstraat,28,,,4906EC,Oosterhout,Oosterhout,Noord-Brabant,VBO,4.837296,51.649696
Heer Halewijnstraat,30,,,4906EC,Oosterhout,Oosterhout,Noord-Brabant,VBO,4.837325,51.649632
Heer Halewijnstraat,3,,,4906ED,Oosterhout,Oosterhout,Noord-Brabant,VBO,4.837144,51.650886
Heer Halewijnstraat,5,,,4906ED,Oosterhout,Oosterhout,Noord-Brabant,VBO,4.837173,51.650822
Heer Halewijnstraat,7,,,4906ED,Oosterhout,Oosterhout,Noord-Brabant,VBO,4.837202,51.650758
Heer Halewijnstraat,9,,,4906ED,Oosterhout,Oosterhout,Noord-Brabant,VBO,4.837230,51.650696
Heer Halewijnstraat,11,,,4906ED,Oosterhout,Oosterhout,Noord-Brabant,VBO,4.837258,51.650632
Heer Halewijnstraat,13,,,4906ED,Oosterhout,Oosterhout,Noord-Brabant,VBO,4.837286,51.650571
Heer Halewijnstraat,15,,,4906ED,Oosterhout,Oosterhout,Noord-Brabant,VBO,4.837314,51.650507
Heer Halewijnstraat,19,,,4906ED,Oosterhout,Oosterhout,Noord-Brabant,VBO,4.837462,51.650209
Heer Halewijnstraat,21,,,4906ED,Oosterhout,Oosterhout,Noord-Brabant,VBO,4.837528,51.650033
Heer Halewijnstraat,23,,,4906ED,Oosterhout,Oosterhout,Noord-Brabant,VBO,4.837550,51.649982
Heer Halewijnstraat,25,,,4906ED,Oosterhout,Oosterhout,Noord-Brabant,VBO,4.837573,51.649931
Heer Halewijnstraat,27,,,4906ED,Oosterhout,Oosterhout,Noord-Brabant,VBO,4.837594,51.649885
Heer Halewijnstraat,29,,,4906ED,Oosterhout,Oosterhout,Noord-Brabant,VBO,4.837617,51.649834
Heer Halewijnstraat,31,,,4906ED,Oosterhout,Oosterhout,Noord-Brabant,VBO,4.837639,51.649783
Heer Halewijnstraat,33,,,4906ED,Oosterhout,Oosterhout,Noord-Brabant,VBO,4.837661,51.649735
Heer Halewijnstraat,35,,,4906ED,Oosterhout,Oosterhout,Noord-Brabant,VBO,4.837684,51.649685
Dr. Vlimmenstraat,4,,,4906EE,Oosterhout,Oosterhout,Noord-Brabant,VBO,4.837640,51.650984
Dr. Vlimmenstraat,6,,,4906EE,Oosterhout,Oosterhout,Noord-Brabant,VBO,4.837663,51.650933
Dr. Vlimmenstraat,8,,,4906EE,Oosterhout,Oosterhout,Noord-Brabant,VBO,4.837686,51.650883
Dr. Vlimmenstraat,10,,,4906EE,Oosterhout,Oosterhout,Noord-Brabant,VBO,4.837708,51.650832
Dr. Vlimmenstraat,12,,,4906EE,Oosterhout,Oosterhout,Noord-Brabant,VBO,4.837729,51.650785
Dr. Vlimmenstraat,14,,,4906EE,Oosterhout,Oosterhout,Noord-Brabant,VBO,4.837752,51.650735
Dr. Vlimmenstraat,16,,,4906EE,Oosterhout,Oosterhout,Noord-Brabant,VBO,4.837775,51.650684
Dr. Vlimmenstraat,18,,,4906EE,Oosterhout,Oosterhout,Noord-Brabant,VBO,4.837797,51.650636
Dr. Vlimmenstraat,20,,,4906EE,Oosterhout,Oosterhout,Noord-Brabant,VBO,4.837819,51.650585
Dr. Vlimmenstraat,24,,,4906EE,Oosterhout,Oosterhout,Noord-Brabant,VBO,4.837938,51.650292
Dr. Vlimmenstraat,26,,,4906EE,Oosterhout,Oosterhout,Noord-Brabant,VBO,4.838029,51.650120
Dr. Vlimmenstraat,28,,,4906EE,Oosterhout,Oosterhout,Noord-Brabant,VBO,4.838051,51.650069
Dr. Vlimmenstraat,30,,,4906EE,Oosterhout,Oosterhout,Noord-Brabant,VBO,4.838074,51.650018
Dr. Vlimmenstraat,32,,,4906EE,Oosterhout,Oosterhout,Noord-Brabant,VBO,4.838095,51.649972
Dr. Vlimmenstraat,34,,,4906EE,Oosterhout,Oosterhout,Noord-Brabant,VBO,4.838118,51.649921
Dr. Vlimmenstraat,36,,,4906EE,Oosterhout,Oosterhout,Noord-Brabant,VBO,4.838140,51.649870
Dr. Vlimmenstraat,38,,,4906EE,Oosterhout,Oosterhout,Noord-Brabant,VBO,4.838162,51.649822
Dr. Vlimmenstraat,40,,,4906EE,Oosterhout,Oosterhout,Noord-Brabant,VBO,4.838185,51.649772
Dr. Vlimmenstraat,3,,,4906EG,Oosterhout,Oosterhout,Noord-Brabant,VBO,4.837995,51.651045
Dr. Vlimmenstraat,5,,,4906EG,Oosterhout,Oosterhout,Noord-Brabant,VBO,4.838024,51.650981
Dr. Vlimmenstraat,7,,,4906EG,Oosterhout,Oosterhout,Noord-Brabant,VBO,4.838053,51.650918
Dr. Vlimmenstraat,9,,,4906EG,Oosterhout,Oosterhout,Noord-Brabant,VBO,4.838081,51.650855
Dr. Vlimmenstraat,11,,,4906EG,Oosterhout,Oosterhout,Noord-Brabant,VBO,4.838109,51.650791
Dr. Vlimmenstraat,13,,,4906EG,Oosterhout,Oosterhout,Noord-Brabant,VBO,4.838381,51.650167
Dr. Vlimmenstraat,15,,,4906EG,Oosterhout,Oosterhout,Noord-Brabant,VBO,4.838410,51.650103
Dr. Vlimmenstraat,17,,,4906EG,Oosterhout,Oosterhout,Noord-Brabant,VBO,4.838438,51.650041
Dr. Vlimmenstraat,19,,,4906EG,Oosterhout,Oosterhout,Noord-Brabant,VBO,4.838466,51.649977
Dr. Vlimmenstraat,21,,,4906EG,Oosterhout,Oosterhout,Noord-Brabant,VBO,4.838494,51.649916
Dr. Vlimmenstraat,23,,,4906EG,Oosterhout,Oosterhout,Noord-Brabant,VBO,4.838522,51.649852
Maria Lécinastraat,3,,,4906EH,Oosterhout,Oosterhout,Noord-Brabant,VBO,4.838839,51.651189
Maria Lécinastraat,4,,,4906EH,Oosterhout,Oosterhout,Noord-Brabant,VBO,4.838470,51.651157
Maria Lécinastraat,5,,,4906EH,Oosterhout,Oosterhout,Noord-Brabant,VBO,4.838867,51.651125
Maria Lécinastraat,6,,,4906EH,Oosterhout,Oosterhout,Noord-Brabant,VBO,4.838491,51.651111
Maria Lécinastraat,7,,,4906EH,Oosterhout,Oosterhout,Noord-Brabant,VBO,4.838896,51.651061
Maria Lécinastraat,8,,,4906EH,Oosterhout,Oosterhout,Noord-Brabant,VBO,4.838513,51.651062
Maria Lécinastraat,9,,,4906EH,Oosterhout,Oosterhout,Noord-Brabant,VBO,4.838924,51.650999
Maria Lécinastraat,10,,,4906EH,Oosterhout,Oosterhout,Noord-Brabant,VBO,4.838533,51.651017
Maria Lécinastraat,11,,,4906EH,Oosterhout,Oosterhout,Noord-Brabant,VBO,4.838952,51.650935
Maria Lécinastraat,12,,,4906EH,Oosterhout,Oosterhout,Noord-Brabant,VBO,4.838555,51.650969
Maria Lécinastraat,14,,,4906EH,Oosterhout,Oosterhout,Noord-Brabant,VBO,4.838576,51.650922
Maria Lécinastraat,16,,,4906EH,Oosterhout,Oosterhout,Noord-Brabant,VBO,4.838598,51.650874
Anton Wachterstraat,4,,,4906EJ,Oosterhout,Oosterhout,Noord-Brabant,VBO,4.839312,51.651271
Anton Wachterstraat,6,,,4906EJ,Oosterhout,Oosterhout,Noord-Brabant,VBO,4.839340,51.651207
Anton Wachterstraat,8,,,4906EJ,Oosterhout,Oosterhout,Noord-Brabant,VBO,4.839369,51.651145
Anton Wachterstraat,10,,,4906EJ,Oosterhout,Oosterhout,Noord-Brabant,VBO,4.839397,51.651081
Anton Wachterstraat,12,,,4906EJ,Oosterhout,Oosterhout,Noord-Brabant,VBO,4.839425,51.651020
Anton Wachterstraat,14,,,4906EJ,Oosterhout,Oosterhout,Noord-Brabant,VBO,4.839709,51.650404
Anton Wachterstraat,16,,,4906EJ,Oosterhout,Oosterhout,Noord-Brabant,VBO,4.839737,51.650340
Anton Wachterstraat,18,,,4906EJ,Oosterhout,Oosterhout,Noord-Brabant,VBO,4.839766,51.650278
Anton Wachterstraat,20,,,4906EJ,Oosterhout,Oosterhout,Noord-Brabant,VBO,4.839794,51.650214
Anton Wachterstraat,22,,,4906EJ,Oosterhout,Oosterhout,Noord-Brabant,VBO,4.839822,51.650153
Anton Wachterstraat,24,,,4906EJ,Oosterhout,Oosterhout,Noord-Brabant,VBO,4.839850,51.650089
Anton Wachterstraat,3,,,4906EK,Oosterhout,Oosterhout,Noord-Brabant,VBO,4.839687,51.651288
Anton Wachterstraat,5,,,4906EK,Oosterhout,Oosterhout,Noord-Brabant,VBO,4.839709,51.651238
Anton Wachterstraat,7,,,4906EK,Oosterhout,Oosterhout,Noord-Brabant,VBO,4.839732,51.651187
Anton Wachterstraat,9,,,4906EK,Oosterhout,Oosterhout,Noord-Brabant,VBO,4.839755,51.651136
Anton Wachterstraat,11,,,4906EK,Oosterhout,Oosterhout,Noord-Brabant,VBO,4.839777,51.651086
Anton Wachterstraat,13,,,4906EK,Oosterhout,Oosterhout,Noord-Brabant,VBO,4.839799,51.651039
Anton Wachterstraat,15,,,4906EK,Oosterhout,Oosterhout,Noord-Brabant,VBO,4.839822,51.650988
Anton Wachterstraat,17,,,4906EK,Oosterhout,Oosterhout,Noord-Brabant,VBO,4.839844,51.650938
Anton Wachterstraat,21,,,4906EK,Oosterhout,Oosterhout,Noord-Brabant,VBO,4.839987,51.650648
Anton Wachterstraat,23,,,4906EK,Oosterhout,Oosterhout,Noord-Brabant,VBO,4.840053,51.650473
Anton Wachterstraat,25,,,4906EK,Oosterhout,Oosterhout,Noord-Brabant,VBO,4.840075,51.650424
Anton Wachterstraat,27,,,4906EK,Oosterhout,Oosterhout,Noord-Brabant,VBO,4.840098,51.650373
Anton Wachterstraat,29,,,4906EK,Oosterhout,Oosterhout,Noord-Brabant,VBO,4.840120,51.650323
Anton Wachterstraat,31,,,4906EK,Oosterhout,Oosterhout,Noord-Brabant,VBO,4.840143,51.650272
Anton Wachterstraat,33,,,4906EK,Oosterhout,Oosterhout,Noord-Brabant,VBO,4.840164,51.650225
Anton Wachterstraat,35,,,4906EK,Oosterhout,Oosterhout,Noord-Brabant,VBO,4.840187,51.650174
Anton Wachterstraat,37,,,4906EK,Oosterhout,Oosterhout,Noord-Brabant,VBO,4.840210,51.650124
Victor Slingelandstraat,4,,,4906EL,Oosterhout,Oosterhout,Noord-Brabant,VBO,4.840210,51.651325
Victor Slingelandstraat,6,,,4906EL,Oosterhout,Oosterhout,Noord-Brabant,VBO,4.840233,51.651274
Victor Slingelandstraat,8,,,4906EL,Oosterhout,Oosterhout,Noord-Brabant,VBO,4.840256,51.651223
Victor Slingelandstraat,10,,,4906EL,Oosterhout,Oosterhout,Noord-Brabant,VBO,4.840278,51.651173
Victor Slingelandstraat,12,,,4906EL,Oosterhout,Oosterhout,Noord-Brabant,VBO,4.840300,51.651126
Victor Slingelandstraat,14,,,4906EL,Oosterhout,Oosterhout,Noord-Brabant,VBO,4.840322,51.651075
Victor Slingelandstraat,16,,,4906EL,Oosterhout,Oosterhout,Noord-Brabant,VBO,4.840345,51.651025
Victor Slingelandstraat,20,,,4906EL,Oosterhout,Oosterhout,Noord-Brabant,VBO,4.840464,51.650731
Victor Slingelandstraat,22,,,4906EL,Oosterhout,Oosterhout,Noord-Brabant,VBO,4.840565,51.650534
Victor Slingelandstraat,24,,,4906EL,Oosterhout,Oosterhout,Noord-Brabant,VBO,4.840594,51.650471
Victor Slingelandstraat,26,,,4906EL,Oosterhout,Oosterhout,Noord-Brabant,VBO,4.840622,51.650408
Victor Slingelandstraat,28,,,4906EL,Oosterhout,Oosterhout,Noord-Brabant,VBO,4.840651,51.650344
Victor Slingelandstraat,30,,,4906EL,Oosterhout,Oosterhout,Noord-Brabant,VBO,4.840678,51.650284
Victor Slingelandstraat,32,,,4906EL,Oosterhout,Oosterhout,Noord-Brabant,VBO,4.840707,51.650220
Victor Slingelandstraat,3,,,4906EM,Oosterhout,Oosterhout,Noord-Brabant,VBO,4.840614,51.651278
Victor Slingelandstraat,5,,,4906EM,Oosterhout,Oosterhout,Noord-Brabant,VBO,4.840642,51.651215
Victor Slingelandstraat,7,,,4906EM,Oosterhout,Oosterhout,Noord-Brabant,VBO,4.840671,51.651151
Victor Slingelandstraat,9,,,4906EM,Oosterhout,Oosterhout,Noord-Brabant,VBO,4.840699,51.651088
Victor Slingelandstraat,13,,,4906EM,Oosterhout,Oosterhout,Noord-Brabant,VBO,4.840842,51.650797
Victor Slingelandstraat,15,,,4906EM,Oosterhout,Oosterhout,Noord-Brabant,VBO,4.840920,51.650596
Victor Slingelandstraat,17,,,4906EM,Oosterhout,Oosterhout,Noord-Brabant,VBO,4.840949,51.650532
Victor Slingelandstraat,19,,,4906EM,Oosterhout,Oosterhout,Noord-Brabant,VBO,4.840977,51.650470
Victor Slingelandstraat,21,,,4906EM,Oosterhout,Oosterhout,Noord-Brabant,VBO,4.841006,51.650406
Victor Slingelandstraat,23,,,4906EM,Oosterhout,Oosterhout,Noord-Brabant,VBO,4.841033,51.650345
Victor Slingelandstraat,25,,,4906EM,Oosterhout,Oosterhout,Noord-Brabant,VBO,4.841061,51.650281
Max Havelaardreef,15,,,4906EN,Oosterhout,Oosterhout,Noord-Brabant,VBO,4.836495,51.650312
Max Havelaardreef,17,,,4906EN,Oosterhout,Oosterhout,Noord-Brabant,VBO,4.836982,51.650396
Max Havelaardreef,19,,,4906EN,Oosterhout,Oosterhout,Noord-Brabant,VBO,4.837337,51.650458
Max Havelaardreef,21,,,4906EN,Oosterhout,Oosterhout,Noord-Brabant,VBO,4.837837,51.650545
Max Havelaardreef,23,,,4906EN,Oosterhout,Oosterhout,Noord-Brabant,VBO,4.838225,51.650650
Max Havelaardreef,25,,,4906EN,Oosterhout,Oosterhout,Noord-Brabant,VBO,4.838309,51.650664
Max Havelaardreef,27,,,4906EN,Oosterhout,Oosterhout,Noord-Brabant,VBO,4.838518,51.650701
Max Havelaardreef,29,,,4906EN,Oosterhout,Oosterhout,Noord-Brabant,VBO,4.838601,51.650715
Max Havelaardreef,31,,,4906EN,Oosterhout,Oosterhout,Noord-Brabant,VBO,4.839067,51.650796
Max Havelaardreef,33,,,4906EN,Oosterhout,Oosterhout,Noord-Brabant,VBO,4.839151,51.650811
Max Havelaardreef,35,,,4906EN,Oosterhout,Oosterhout,Noord-Brabant,VBO,4.839360,51.650847
Max Havelaardreef,37,,,4906EN,Oosterhout,Oosterhout,Noord-Brabant,VBO,4.839443,51.650862
Max Havelaardreef,39,,,4906EN,Oosterhout,Oosterhout,Noord-Brabant,VBO,4.839862,51.650897
Max Havelaardreef,41,,,4906EN,Oosterhout,Oosterhout,Noord-Brabant,VBO,4.840363,51.650984
Max Havelaardreef,43,,,4906EN,Oosterhout,Oosterhout,Noord-Brabant,VBO,4.840718,51.651046
Max Havelaardreef,45,,,4906EN,Oosterhout,Oosterhout,Noord-Brabant,VBO,4.841208,51.651131
Max Havelaardreef,100,,,4906EP,Oosterhout,Oosterhout,Noord-Brabant,VBO,4.836685,51.650074
Max Havelaardreef,102,,,4906EP,Oosterhout,Oosterhout,Noord-Brabant,VBO,4.836764,51.650088
Max Havelaardreef,104,,,4906EP,Oosterhout,Oosterhout,Noord-Brabant,VBO,4.836844,51.650102
Max Havelaardreef,106,,,4906EP,Oosterhout,Oosterhout,Noord-Brabant,VBO,4.836923,51.650115
Max Havelaardreef,108,,,4906EP,Oosterhout,Oosterhout,Noord-Brabant,VBO,4.837002,51.650129
Max Havelaardreef,114,,,4906EP,Oosterhout,Oosterhout,Noord-Brabant,VBO,4.837539,51.650223
Max Havelaardreef,116,,,4906EP,Oosterhout,Oosterhout,Noord-Brabant,VBO,4.837618,51.650236
Max Havelaardreef,118,,,4906EP,Oosterhout,Oosterhout,Noord-Brabant,VBO,4.837698,51.650250
Max Havelaardreef,120,,,4906EP,Oosterhout,Oosterhout,Noord-Brabant,VBO,4.837777,51.650264
Max Havelaardreef,122,,,4906EP,Oosterhout,Oosterhout,Noord-Brabant,VBO,4.837856,51.650278
Max Havelaardreef,126,,,4906EP,Oosterhout,Oosterhout,Noord-Brabant,VBO,4.838369,51.650330
Max Havelaardreef,128,,,4906EP,Oosterhout,Oosterhout,Noord-Brabant,VBO,4.838453,51.650344
Max Havelaardreef,130,,,4906EP,Oosterhout,Oosterhout,Noord-Brabant,VBO,4.838662,51.650380
Max Havelaardreef,132,,,4906EP,Oosterhout,Oosterhout,Noord-Brabant,VBO,4.838745,51.650395
Max Havelaardreef,134,,,4906EP,Oosterhout,Oosterhout,Noord-Brabant,VBO,4.839211,51.650476
Max Havelaardreef,136,,,4906EP,Oosterhout,Oosterhout,Noord-Brabant,VBO,4.839295,51.650490
Max Havelaardreef,138,,,4906EP,Oosterhout,Oosterhout,Noord-Brabant,VBO,4.839504,51.650527
Max Havelaardreef,140,,,4906EP,Oosterhout,Oosterhout,Noord-Brabant,VBO,4.839587,51.650541
Max Havelaardreef,144,,,4906EP,Oosterhout,Oosterhout,Noord-Brabant,VBO,4.840065,51.650662
Max Havelaardreef,146,,,4906EP,Oosterhout,Oosterhout,Noord-Brabant,VBO,4.840144,51.650675
Max Havelaardreef,148,,,4906EP,Oosterhout,Oosterhout,Noord-Brabant,VBO,4.840224,51.650689
Max Havelaardreef,150,,,4906EP,Oosterhout,Oosterhout,Noord-Brabant,VBO,4.840303,51.650703
Max Havelaardreef,152,,,4906EP,Oosterhout,Oosterhout,Noord-Brabant,VBO,4.840382,51.650717
Max Havelaardreef,158,,,4906EP,Oosterhout,Oosterhout,Noord-Brabant,VBO,4.840919,51.650810
Max Havelaardreef,160,,,4906EP,Oosterhout,Oosterhout,Noord-Brabant,VBO,4.840998,51.650824
Max Havelaardreef,162,,,4906EP,Oosterhout,Oosterhout,Noord-Brabant,VBO,4.841078,51.650838
Max Havelaardreef,164,,,4906EP,Oosterhout,Oosterhout,Noord-Brabant,VBO,4.841157,51.650851
Max Havelaardreef,166,,,4906EP,Oosterhout,Oosterhout,Noord-Brabant,VBO,4.841236,51.650865
Erik Pinksterblomstraat,1,,,4906ER,Oosterhout,Oosterhout,Noord-Brabant,VBO,4.836607,51.650061
Erik Pinksterblomstraat,3,,,4906ER,Oosterhout,Oosterhout,Noord-Brabant,VBO,4.836685,51.649888
Erik Pinksterblomstraat,5,,,4906ER,Oosterhout,Oosterhout,Noord-Brabant,VBO,4.836707,51.649838
Erik Pinksterblomstraat,7,,,4906ER,Oosterhout,Oosterhout,Noord-Brabant,VBO,4.836730,51.649788
Erik Pinksterblomstraat,9,,,4906ER,Oosterhout,Oosterhout,Noord-Brabant,VBO,4.836752,51.649737
Erik Pinksterblomstraat,11,,,4906ER,Oosterhout,Oosterhout,Noord-Brabant,VBO,4.836775,51.649686
Erik Pinksterblomstraat,13,,,4906ER,Oosterhout,Oosterhout,Noord-Brabant,VBO,4.836797,51.649640
Erik Pinksterblomstraat,15,,,4906ER,Oosterhout,Oosterhout,Noord-Brabant,VBO,4.836819,51.649589
Erik Pinksterblomstraat,17,,,4906ER,Oosterhout,Oosterhout,Noord-Brabant,VBO,4.836842,51.649538
Erik Pinksterblomstraat,19,,,4906ER,Oosterhout,Oosterhout,Noord-Brabant,VBO,4.836860,51.649498
Erik Pinksterblomstraat,21,,,4906ER,Oosterhout,Oosterhout,Noord-Brabant,VBO,4.837347,51.649583
Erik Pinksterblomstraat,23,,,4906ER,Oosterhout,Oosterhout,Noord-Brabant,VBO,4.837702,51.649644
Erik Pinksterblomstraat,25,,,4906ER,Oosterhout,Oosterhout,Noord-Brabant,VBO,4.838203,51.649731
Erik Pinksterblomstraat,27,,,4906ER,Oosterhout,Oosterhout,Noord-Brabant,VBO,4.838545,51.649791
Erik Pinksterblomstraat,29,,,4906ER,Oosterhout,Oosterhout,Noord-Brabant,VBO,4.839049,51.649880
Erik Pinksterblomstraat,31,,,4906ER,Oosterhout,Oosterhout,Noord-Brabant,VBO,4.839381,51.649936
Erik Pinksterblomstraat,33,,,4906ER,Oosterhout,Oosterhout,Noord-Brabant,VBO,4.839891,51.650026
Erik Pinksterblomstraat,35,,,4906ER,Oosterhout,Oosterhout,Noord-Brabant,VBO,4.840228,51.650083
Erik Pinksterblomstraat,37,,,4906ER,Oosterhout,Oosterhout,Noord-Brabant,VBO,4.840729,51.650170
Erik Pinksterblomstraat,39,,,4906ER,Oosterhout,Oosterhout,Noord-Brabant,VBO,4.841084,51.650232
Erik Pinksterblomstraat,41,,,4906ER,Oosterhout,Oosterhout,Noord-Brabant,VBO,4.841571,51.650317
Erik Pinksterblomstraat,43,,,4906ER,Oosterhout,Oosterhout,Noord-Brabant,VBO,4.841553,51.650357
Erik Pinksterblomstraat,45,,,4906ER,Oosterhout,Oosterhout,Noord-Brabant,VBO,4.841530,51.650408
Erik Pinksterblomstraat,47,,,4906ER,Oosterhout,Oosterhout,Noord-Brabant,VBO,4.841507,51.650458
Erik Pinksterblomstraat,49,,,4906ER,Oosterhout,Oosterhout,Noord-Brabant,VBO,4.841486,51.650505
Erik Pinksterblomstraat,51,,,4906ER,Oosterhout,Oosterhout,Noord-Brabant,VBO,4.841463,51.650556
Erik Pinksterblomstraat,53,,,4906ER,Oosterhout,Oosterhout,Noord-Brabant,VBO,4.841441,51.650606
Erik Pinksterblomstraat,55,,,4906ER,Oosterhout,Oosterhout,Noord-Brabant,VBO,4.841418,51.650657
Erik Pinksterblomstraat,57,,,4906ER,Oosterhout,Oosterhout,Noord-Brabant,VBO,4.841396,51.650707
Erik Pinksterblomstraat,61,,,4906ER,Oosterhout,Oosterhout,Noord-Brabant,VBO,4.841318,51.650879
Henri Osewoudtstraat,3,,,4906ES,Oosterhout,Oosterhout,Noord-Brabant,VBO,4.839217,51.650312
Henri Osewoudtstraat,4,,,4906ES,Oosterhout,Oosterhout,Noord-Brabant,VBO,4.838873,51.650260
Henri Osewoudtstraat,5,,,4906ES,Oosterhout,Oosterhout,Noord-Brabant,VBO,4.839246,51.650249
Henri Osewoudtstraat,6,,,4906ES,Oosterhout,Oosterhout,Noord-Brabant,VBO,4.838894,51.650213
Henri Osewoudtstraat,7,,,4906ES,Oosterhout,Oosterhout,Noord-Brabant,VBO,4.839274,51.650186
Henri Osewoudtstraat,8,,,4906ES,Oosterhout,Oosterhout,Noord-Brabant,VBO,4.838916,51.650165
Henri Osewoudtstraat,9,,,4906ES,Oosterhout,Oosterhout,Noord-Brabant,VBO,4.839303,51.650123
Henri Osewoudtstraat,10,,,4906ES,Oosterhout,Oosterhout,Noord-Brabant,VBO,4.838936,51.650120
Henri Osewoudtstraat,11,,,4906ES,Oosterhout,Oosterhout,Noord-Brabant,VBO,4.839330,51.650062
Henri Osewoudtstraat,12,,,4906ES,Oosterhout,Oosterhout,Noord-Brabant,VBO,4.838958,51.650072
Henri Osewoudtstraat,13,,,4906ES,Oosterhout,Oosterhout,Noord-Brabant,VBO,4.839359,51.649998
Henri Osewoudtstraat,14,,,4906ES,Oosterhout,Oosterhout,Noord-Brabant,VBO,4.838979,51.650025
Henri Osewoudtstraat,16,,,4906ES,Oosterhout,Oosterhout,Noord-Brabant,VBO,4.839001,51.649976
Henri Osewoudtstraat,18,,,4906ES,Oosterhout,Oosterhout,Noord-Brabant,VBO,4.839022,51.649928
Erik Pinksterblomstraat,4,,,4906ET,Oosterhout,Oosterhout,Noord-Brabant,VBO,4.836849,51.649276
Erik Pinksterblomstraat,6,A,,4906ET,Oosterhout,Oosterhout,Noord-Brabant,VBO,4.837437,51.649376
Erik Pinksterblomstraat,6,,,4906ET,Oosterhout,Oosterhout,Noord-Brabant,VBO,4.837306,51.649349
Erik Pinksterblomstraat,8,,,4906ET,Oosterhout,Oosterhout,Noord-Brabant,VBO,4.837357,51.649358
Erik Pinksterblomstraat,10,,,4906ET,Oosterhout,Oosterhout,Noord-Brabant,VBO,4.837312,51.649331
Erik Pinksterblomstraat,12,,,4906ET,Oosterhout,Oosterhout,Noord-Brabant,VBO,4.837363,51.649340
Erik Pinksterblomstraat,14,,,4906ET,Oosterhout,Oosterhout,Noord-Brabant,VBO,4.837322,51.649314
Erik Pinksterblomstraat,16,,,4906ET,Oosterhout,Oosterhout,Noord-Brabant,VBO,4.837371,51.649323
Erik Pinksterblomstraat,18,,,4906ET,Oosterhout,Oosterhout,Noord-Brabant,VBO,4.837328,51.649297
Erik Pinksterblomstraat,20,,,4906ET,Oosterhout,Oosterhout,Noord-Brabant,VBO,4.837381,51.649306
Erik Pinksterblomstraat,22,,,4906ET,Oosterhout,Oosterhout,Noord-Brabant,VBO,4.837339,51.649280
Erik Pinksterblomstraat,24,,,4906ET,Oosterhout,Oosterhout,Noord-Brabant,VBO,4.837390,51.649289
Erik Pinksterblomstraat,26,,,4906ET,Oosterhout,Oosterhout,Noord-Brabant,VBO,4.837369,51.649267
Erik Pinksterblomstraat,28,,,4906ET,Oosterhout,Oosterhout,Noord-Brabant,VBO,4.837377,51.649249
Erik Pinksterblomstraat,30,A,,4906ET,Oosterhout,Oosterhout,Noord-Brabant,VBO,4.838229,51.649478
Erik Pinksterblomstraat,30,,,4906ET,Oosterhout,Oosterhout,Noord-Brabant,VBO,4.838157,51.649453
Erik Pinksterblomstraat,32,,,4906ET,Oosterhout,Oosterhout,Noord-Brabant,VBO,4.838208,51.649462
Erik Pinksterblomstraat,34,,,4906ET,Oosterhout,Oosterhout,Noord-Brabant,VBO,4.838166,51.649436
Erik Pinksterblomstraat,36,,,4906ET,Oosterhout,Oosterhout,Noord-Brabant,VBO,4.838215,51.649445
Erik Pinksterblomstraat,38,,,4906ET,Oosterhout,Oosterhout,Noord-Brabant,VBO,4.838172,51.649419
Erik Pinksterblomstraat,40,,,4906ET,Oosterhout,Oosterhout,Noord-Brabant,VBO,4.838224,51.649427
Erik Pinksterblomstraat,42,,,4906ET,Oosterhout,Oosterhout,Noord-Brabant,VBO,4.838182,51.649402
Erik Pinksterblomstraat,44,,,4906ET,Oosterhout,Oosterhout,Noord-Brabant,VBO,4.838233,51.649411
Erik Pinksterblomstraat,46,,,4906ET,Oosterhout,Oosterhout,Noord-Brabant,VBO,4.838189,51.649384
Erik Pinksterblomstraat,48,,,4906ET,Oosterhout,Oosterhout,Noord-Brabant,VBO,4.838240,51.649393
Erik Pinksterblomstraat,50,,,4906ET,Oosterhout,Oosterhout,Noord-Brabant,VBO,4.838196,51.649367
Erik Pinksterblomstraat,52,,,4906ET,Oosterhout,Oosterhout,Noord-Brabant,VBO,4.838247,51.649375
Erik Pinksterblomstraat,54,,,4906ET,Oosterhout,Oosterhout,Noord-Brabant,VBO,4.838228,51.649354
Erik Pinksterblomstraat,56,,,4906ET,Oosterhout,Oosterhout,Noord-Brabant,VBO,4.838235,51.649336
Erik Pinksterblomstraat,58,A,,4906ET,Oosterhout,Oosterhout,Noord-Brabant,VBO,4.839066,51.649597
Erik Pinksterblomstraat,58,,,4906ET,Oosterhout,Oosterhout,Noord-Brabant,VBO,4.838999,51.649567
Erik Pinksterblomstraat,60,,,4906ET,Oosterhout,Oosterhout,Noord-Brabant,VBO,4.839050,51.649576
Erik Pinksterblomstraat,62,,,4906ET,Oosterhout,Oosterhout,Noord-Brabant,VBO,4.839008,51.649550
Erik Pinksterblomstraat,64,,,4906ET,Oosterhout,Oosterhout,Noord-Brabant,VBO,4.839059,51.649559
Erik Pinksterblomstraat,66,,,4906ET,Oosterhout,Oosterhout,Noord-Brabant,VBO,4.839015,51.649533
Erik Pinksterblomstraat,68,,,4906ET,Oosterhout,Oosterhout,Noord-Brabant,VBO,4.839066,51.649541
Erik Pinksterblomstraat,70,,,4906ET,Oosterhout,Oosterhout,Noord-Brabant,VBO,4.839023,51.649515
Erik Pinksterblomstraat,72,,,4906ET,Oosterhout,Oosterhout,Noord-Brabant,VBO,4.839074,51.649524
Erik Pinksterblomstraat,74,,,4906ET,Oosterhout,Oosterhout,Noord-Brabant,VBO,4.839032,51.649498
Erik Pinksterblomstraat,76,,,4906ET,Oosterhout,Oosterhout,Noord-Brabant,VBO,4.839081,51.649507
Erik Pinksterblomstraat,78,,,4906ET,Oosterhout,Oosterhout,Noord-Brabant,VBO,4.839038,51.649481
Erik Pinksterblomstraat,80,,,4906ET,Oosterhout,Oosterhout,Noord-Brabant,VBO,4.839089,51.649489
Erik Pinksterblomstraat,82,,,4906ET,Oosterhout,Oosterhout,Noord-Brabant,VBO,4.839047,51.649463
Erik Pinksterblomstraat,84,,,4906ET,Oosterhout,Oosterhout,Noord-Brabant,VBO,4.839098,51.649472
Erik Pinksterblomstraat,86,,,4906ET,Oosterhout,Oosterhout,Noord-Brabant,VBO,4.839082,51.649449
Erik Pinksterblomstraat,88,,,4906ET,Oosterhout,Oosterhout,Noord-Brabant,VBO,4.839090,51.649432
Erik Pinksterblomstraat,90,A,,4906ET,Oosterhout,Oosterhout,Noord-Brabant,VBO,4.839906,51.649722
Erik Pinksterblomstraat,90,,,4906ET,Oosterhout,Oosterhout,Noord-Brabant,VBO,4.839831,51.649703
Erik Pinksterblomstraat,92,,,4906ET,Oosterhout,Oosterhout,Noord-Brabant,VBO,4.839882,51.649712
Erik Pinksterblomstraat,94,,,4906ET,Oosterhout,Oosterhout,Noord-Brabant,VBO,4.839841,51.649686
Erik Pinksterblomstraat,96,,,4906ET,Oosterhout,Oosterhout,Noord-Brabant,VBO,4.839889,51.649694
Erik Pinksterblomstraat,98,,,4906ET,Oosterhout,Oosterhout,Noord-Brabant,VBO,4.839847,51.649668
Erik Pinksterblomstraat,100,,,4906ET,Oosterhout,Oosterhout,Noord-Brabant,VBO,4.839895,51.649677
Erik Pinksterblomstraat,102,,,4906ET,Oosterhout,Oosterhout,Noord-Brabant,VBO,4.839853,51.649651
Erik Pinksterblomstraat,104,,,4906ET,Oosterhout,Oosterhout,Noord-Brabant,VBO,4.839905,51.649660
Erik Pinksterblomstraat,106,,,4906ET,Oosterhout,Oosterhout,Noord-Brabant,VBO,4.839861,51.649633
Erik Pinksterblomstraat,108,,,4906ET,Oosterhout,Oosterhout,Noord-Brabant,VBO,4.839911,51.649642
Erik Pinksterblomstraat,110,,,4906ET,Oosterhout,Oosterhout,Noord-Brabant,VBO,4.839867,51.649616
Erik Pinksterblomstraat,112,,,4906ET,Oosterhout,Oosterhout,Noord-Brabant,VBO,4.839918,51.649625
Erik Pinksterblomstraat,114,,,4906ET,Oosterhout,Oosterhout,Noord-Brabant,VBO,4.839877,51.649599
Erik Pinksterblomstraat,116,,,4906ET,Oosterhout,Oosterhout,Noord-Brabant,VBO,4.839925,51.649607
Erik Pinksterblomstraat,118,,,4906ET,Oosterhout,Oosterhout,Noord-Brabant,VBO,4.839910,51.649584
Erik Pinksterblomstraat,120,,,4906ET,Oosterhout,Oosterhout,Noord-Brabant,VBO,4.839920,51.649567
Erik Pinksterblomstraat,122,A,,4906ET,Oosterhout,Oosterhout,Noord-Brabant,VBO,4.840740,51.649878
Erik Pinksterblomstraat,122,,,4906ET,Oosterhout,Oosterhout,Noord-Brabant,VBO,4.840655,51.649853
Erik Pinksterblomstraat,124,,,4906ET,Oosterhout,Oosterhout,Noord-Brabant,VBO,4.840707,51.649862
Erik Pinksterblomstraat,126,,,4906ET,Oosterhout,Oosterhout,Noord-Brabant,VBO,4.840662,51.649836
Erik Pinksterblomstraat,128,,,4906ET,Oosterhout,Oosterhout,Noord-Brabant,VBO,4.840713,51.649844
Erik Pinksterblomstraat,130,,,4906ET,Oosterhout,Oosterhout,Noord-Brabant,VBO,4.840670,51.649818
Erik Pinksterblomstraat,132,,,4906ET,Oosterhout,Oosterhout,Noord-Brabant,VBO,4.840721,51.649827
Erik Pinksterblomstraat,134,,,4906ET,Oosterhout,Oosterhout,Noord-Brabant,VBO,4.840679,51.649801
Erik Pinksterblomstraat,136,,,4906ET,Oosterhout,Oosterhout,Noord-Brabant,VBO,4.840728,51.649810
Erik Pinksterblomstraat,138,,,4906ET,Oosterhout,Oosterhout,Noord-Brabant,VBO,4.840686,51.649784
Erik Pinksterblomstraat,140,,,4906ET,Oosterhout,Oosterhout,Noord-Brabant,VBO,4.840737,51.649792
Erik Pinksterblomstraat,142,,,4906ET,Oosterhout,Oosterhout,Noord-Brabant,VBO,4.840695,51.649767
Erik Pinksterblomstraat,144,,,4906ET,Oosterhout,Oosterhout,Noord-Brabant,VBO,4.840747,51.649775
Erik Pinksterblomstraat,146,,,4906ET,Oosterhout,Oosterhout,Noord-Brabant,VBO,4.840725,51.649753
Erik Pinksterblomstraat,148,,,4906ET,Oosterhout,Oosterhout,Noord-Brabant,VBO,4.840733,51.649736
Erik Pinksterblomstraat,150,A,,4906ET,Oosterhout,Oosterhout,Noord-Brabant,VBO,4.841558,51.650092
Erik Pinksterblomstraat,150,,,4906ET,Oosterhout,Oosterhout,Noord-Brabant,VBO,4.841432,51.650065
Erik Pinksterblomstraat,152,,,4906ET,Oosterhout,Oosterhout,Noord-Brabant,VBO,4.841483,51.650074
Erik Pinksterblomstraat,154,,,4906ET,Oosterhout,Oosterhout,Noord-Brabant,VBO,4.841442,51.650048
Erik Pinksterblomstraat,156,,,4906ET,Oosterhout,Oosterhout,Noord-Brabant,VBO,4.841491,51.650056
Erik Pinksterblomstraat,158,,,4906ET,Oosterhout,Oosterhout,Noord-Brabant,VBO,4.841448,51.650030
Erik Pinksterblomstraat,160,,,4906ET,Oosterhout,Oosterhout,Noord-Brabant,VBO,4.841498,51.650039
Erik Pinksterblomstraat,162,,,4906ET,Oosterhout,Oosterhout,Noord-Brabant,VBO,4.841456,51.650013
Erik Pinksterblomstraat,164,,,4906ET,Oosterhout,Oosterhout,Noord-Brabant,VBO,4.841508,51.650022
Erik Pinksterblomstraat,166,,,4906ET,Oosterhout,Oosterhout,Noord-Brabant,VBO,4.841463,51.649996
Erik Pinksterblomstraat,168,,,4906ET,Oosterhout,Oosterhout,Noord-Brabant,VBO,4.841514,51.650004
Erik Pinksterblomstraat,170,,,4906ET,Oosterhout,Oosterhout,Noord-Brabant,VBO,4.841494,51.649982
Erik Pinksterblomstraat,172,,,4906ET,Oosterhout,Oosterhout,Noord-Brabant,VBO,4.841503,51.649965
Max Havelaardreef,10,,,4906EV,Oosterhout,Oosterhout,Noord-Brabant,VBO,4.833747,51.651093
Max Havelaardreef,12,,,4906EV,Oosterhout,Oosterhout,Noord-Brabant,VBO,4.833829,51.651096
Max Havelaardreef,14,,,4906EV,Oosterhout,Oosterhout,Noord-Brabant,VBO,4.834005,51.651102
Max Havelaardreef,16,,,4906EV,Oosterhout,Oosterhout,Noord-Brabant,VBO,4.834087,51.651105
Max Havelaardreef,18,,,4906EV,Oosterhout,Oosterhout,Noord-Brabant,VBO,4.834264,51.651111
Max Havelaardreef,20,,,4906EV,Oosterhout,Oosterhout,Noord-Brabant,VBO,4.834346,51.651114
Max Havelaardreef,22,,,4906EV,Oosterhout,Oosterhout,Noord-Brabant,VBO,4.834584,51.651123
Max Havelaardreef,24,,,4906EV,Oosterhout,Oosterhout,Noord-Brabant,VBO,4.834666,51.651126
Max Havelaardreef,26,,,4906EV,Oosterhout,Oosterhout,Noord-Brabant,VBO,4.834842,51.651132
Max Havelaardreef,28,,,4906EV,Oosterhout,Oosterhout,Noord-Brabant,VBO,4.834924,51.651135
Max Havelaardreef,30,,,4906EV,Oosterhout,Oosterhout,Noord-Brabant,VBO,4.835101,51.651141
Max Havelaardreef,32,,,4906EV,Oosterhout,Oosterhout,Noord-Brabant,VBO,4.835183,51.651144
Max Havelaardreef,34,,,4906EV,Oosterhout,Oosterhout,Noord-Brabant,VBO,4.835387,51.651155
Max Havelaardreef,36,,,4906EV,Oosterhout,Oosterhout,Noord-Brabant,VBO,4.835474,51.650967
Max Havelaardreef,38,,,4906EV,Oosterhout,Oosterhout,Noord-Brabant,VBO,4.835496,51.650918
Max Havelaardreef,40,,,4906EV,Oosterhout,Oosterhout,Noord-Brabant,VBO,4.835543,51.650813
Max Havelaardreef,42,,,4906EV,Oosterhout,Oosterhout,Noord-Brabant,VBO,4.835565,51.650764
Max Havelaardreef,44,,,4906EV,Oosterhout,Oosterhout,Noord-Brabant,VBO,4.835612,51.650660
Max Havelaardreef,46,,,4906EV,Oosterhout,Oosterhout,Noord-Brabant,VBO,4.835634,51.650610
Max Havelaardreef,48,,,4906EV,Oosterhout,Oosterhout,Noord-Brabant,VBO,4.835681,51.650506
Max Havelaardreef,50,,,4906EV,Oosterhout,Oosterhout,Noord-Brabant,VBO,4.835703,51.650457
Max Havelaardreef,52,,,4906EV,Oosterhout,Oosterhout,Noord-Brabant,VBO,4.835750,51.650352
Max Havelaardreef,54,,,4906EV,Oosterhout,Oosterhout,Noord-Brabant,VBO,4.835772,51.650303
Max Havelaardreef,56,,,4906EV,Oosterhout,Oosterhout,Noord-Brabant,VBO,4.835819,51.650198
Max Havelaardreef,58,,,4906EV,Oosterhout,Oosterhout,Noord-Brabant,VBO,4.835841,51.650149
Pallieterplein,1,,,4906EW,Oosterhout,Oosterhout,Noord-Brabant,VBO,4.834666,51.650799
Pallieterplein,3,,,4906EW,Oosterhout,Oosterhout,Noord-Brabant,VBO,4.834745,51.650813
Pallieterplein,5,,,4906EW,Oosterhout,Oosterhout,Noord-Brabant,VBO,4.834821,51.650826
Pallieterplein,7,,,4906EW,Oosterhout,Oosterhout,Noord-Brabant,VBO,4.834900,51.650840
Pallieterplein,9,,,4906EW,Oosterhout,Oosterhout,Noord-Brabant,VBO,4.834975,51.650853
Pallieterplein,11,,,4906EW,Oosterhout,Oosterhout,Noord-Brabant,VBO,4.835032,51.650694
Pallieterplein,13,,,4906EW,Oosterhout,Oosterhout,Noord-Brabant,VBO,4.835055,51.650645
Pallieterplein,15,,,4906EW,Oosterhout,Oosterhout,Noord-Brabant,VBO,4.835075,51.650598
Pallieterplein,17,,,4906EW,Oosterhout,Oosterhout,Noord-Brabant,VBO,4.835097,51.650552
Pallieterplein,19,,,4906EW,Oosterhout,Oosterhout,Noord-Brabant,VBO,4.835117,51.650505
Pallieterplein,21,,,4906EW,Oosterhout,Oosterhout,Noord-Brabant,VBO,4.835138,51.650458
Pallieterplein,23,,,4906EW,Oosterhout,Oosterhout,Noord-Brabant,VBO,4.835160,51.650411
Pallieterplein,25,,,4906EW,Oosterhout,Oosterhout,Noord-Brabant,VBO,4.835180,51.650365
Pallieterplein,27,,,4906EW,Oosterhout,Oosterhout,Noord-Brabant,VBO,4.835202,51.650317
Pallieterplein,29,,,4906EW,Oosterhout,Oosterhout,Noord-Brabant,VBO,4.835223,51.650270
Pallieterplein,31,,,4906EW,Oosterhout,Oosterhout,Noord-Brabant,VBO,4.835244,51.650223
Pallieterplein,33,,,4906EW,Oosterhout,Oosterhout,Noord-Brabant,VBO,4.835265,51.650177
Pallieterplein,35,,,4906EW,Oosterhout,Oosterhout,Noord-Brabant,VBO,4.835286,51.650130
Pallieterplein,37,,,4906EW,Oosterhout,Oosterhout,Noord-Brabant,VBO,4.835307,51.650083
Pallieterplein,39,,,4906EW,Oosterhout,Oosterhout,Noord-Brabant,VBO,4.835328,51.650036
Pallieterplein,41,,,4906EX,Oosterhout,Oosterhout,Noord-Brabant,VBO,4.835396,51.649885
Pallieterplein,43,,,4906EX,Oosterhout,Oosterhout,Noord-Brabant,VBO,4.835417,51.649838
Pallieterplein,45,,,4906EX,Oosterhout,Oosterhout,Noord-Brabant,VBO,4.835438,51.649791
Pallieterplein,47,,,4906EX,Oosterhout,Oosterhout,Noord-Brabant,VBO,4.835500,51.649649
Pallieterplein,49,,,4906EX,Oosterhout,Oosterhout,Noord-Brabant,VBO,4.835425,51.649636
Pallieterplein,51,,,4906EX,Oosterhout,Oosterhout,Noord-Brabant,VBO,4.835350,51.649622
Pallieterplein,53,,,4906EX,Oosterhout,Oosterhout,Noord-Brabant,VBO,4.835274,51.649609
Pallieterplein,55,,,4906EX,Oosterhout,Oosterhout,Noord-Brabant,VBO,4.835195,51.649596
Pallieterplein,57,,,4906EX,Oosterhout,Oosterhout,Noord-Brabant,VBO,4.835120,51.649583
Pallieterplein,59,,,4906EX,Oosterhout,Oosterhout,Noord-Brabant,VBO,4.835039,51.649569
Pallieterplein,61,,,4906EX,Oosterhout,Oosterhout,Noord-Brabant,VBO,4.834972,51.649557
Pallieterplein,63,,,4906EX,Oosterhout,Oosterhout,Noord-Brabant,VBO,4.834897,51.649544
Pallieterplein,65,,,4906EX,Oosterhout,Oosterhout,Noord-Brabant,VBO,4.834818,51.649530
Pallieterplein,67,,,4906EX,Oosterhout,Oosterhout,Noord-Brabant,VBO,4.834743,51.649517
Pallieterplein,69,,,4906EX,Oosterhout,Oosterhout,Noord-Brabant,VBO,4.834664,51.649503
Pallieterplein,71,,,4906EX,Oosterhout,Oosterhout,Noord-Brabant,VBO,4.834616,51.649651
Pallieterplein,73,,,4906EX,Oosterhout,Oosterhout,Noord-Brabant,VBO,4.834595,51.649698
Pallieterplein,75,,,4906EX,Oosterhout,Oosterhout,Noord-Brabant,VBO,4.834574,51.649745
Pallieterplein,77,,,4906EZ,Oosterhout,Oosterhout,Noord-Brabant,VBO,4.834506,51.649896
Pallieterplein,79,,,4906EZ,Oosterhout,Oosterhout,Noord-Brabant,VBO,4.834485,51.649943
Pallieterplein,81,,,4906EZ,Oosterhout,Oosterhout,Noord-Brabant,VBO,4.834464,51.649990
Pallieterplein,83,,,4906EZ,Oosterhout,Oosterhout,Noord-Brabant,VBO,4.834443,51.650037
Pallieterplein,85,,,4906EZ,Oosterhout,Oosterhout,Noord-Brabant,VBO,4.834422,51.650083
Pallieterplein,87,,,4906EZ,Oosterhout,Oosterhout,Noord-Brabant,VBO,4.834401,51.650130
Pallieterplein,89,,,4906EZ,Oosterhout,Oosterhout,Noord-Brabant,VBO,4.834380,51.650177
Pallieterplein,91,,,4906EZ,Oosterhout,Oosterhout,Noord-Brabant,VBO,4.834358,51.650225
Pallieterplein,93,,,4906EZ,Oosterhout,Oosterhout,Noord-Brabant,VBO,4.834337,51.650271
Pallieterplein,95,,,4906EZ,Oosterhout,Oosterhout,Noord-Brabant,VBO,4.834316,51.650318
Pallieterplein,97,,,4906EZ,Oosterhout,Oosterhout,Noord-Brabant,VBO,4.834295,51.650365
Pallieterplein,99,,,4906EZ,Oosterhout,Oosterhout,Noord-Brabant,VBO,4.834274,51.650412
Pallieterplein,101,,,4906EZ,Oosterhout,Oosterhout,Noord-Brabant,VBO,4.834253,51.650458
Pallieterplein,103,,,4906EZ,Oosterhout,Oosterhout,Noord-Brabant,VBO,4.834232,51.650505
Pallieterplein,105,,,4906EZ,Oosterhout,Oosterhout,Noord-Brabant,VBO,4.834210,51.650554
Pallieterplein,107,,,4906EZ,Oosterhout,Oosterhout,Noord-Brabant,VBO,4.834137,51.650707
Pallieterplein,109,,,4906EZ,Oosterhout,Oosterhout,Noord-Brabant,VBO,4.834216,51.650721
Pallieterplein,111,,,4906EZ,Oosterhout,Oosterhout,Noord-Brabant,VBO,4.834291,51.650734
Pallieterplein,113,,,4906EZ,Oosterhout,Oosterhout,Noord-Brabant,VBO,4.834370,51.650748
Pallieterplein,115,,,4906EZ,Oosterhout,Oosterhout,Noord-Brabant,VBO,4.834445,51.650761
Pieter Stastokstraat,1,,,4906GA,Oosterhout,Oosterhout,Noord-Brabant,VBO,4.833390,51.651035
Pieter Stastokstraat,3,,,4906GA,Oosterhout,Oosterhout,Noord-Brabant,VBO,4.833423,51.651041
Pieter Stastokstraat,5,,,4906GA,Oosterhout,Oosterhout,Noord-Brabant,VBO,4.833456,51.651046
Pieter Stastokstraat,7,,,4906GA,Oosterhout,Oosterhout,Noord-Brabant,VBO,4.833487,51.651052
Pieter Stastokstraat,9,,,4906GA,Oosterhout,Oosterhout,Noord-Brabant,VBO,4.833438,51.650980
Pieter Stastokstraat,11,,,4906GA,Oosterhout,Oosterhout,Noord-Brabant,VBO,4.833480,51.650987
Pieter Stastokstraat,13,,,4906GA,Oosterhout,Oosterhout,Noord-Brabant,VBO,4.833459,51.650933
Pieter Stastokstraat,15,,,4906GA,Oosterhout,Oosterhout,Noord-Brabant,VBO,4.833501,51.650940
Pieter Stastokstraat,17,,,4906GA,Oosterhout,Oosterhout,Noord-Brabant,VBO,4.833480,51.650886
Pieter Stastokstraat,19,,,4906GA,Oosterhout,Oosterhout,Noord-Brabant,VBO,4.833522,51.650894
Pieter Stastokstraat,21,,,4906GA,Oosterhout,Oosterhout,Noord-Brabant,VBO,4.833501,51.650840
Pieter Stastokstraat,23,,,4906GA,Oosterhout,Oosterhout,Noord-Brabant,VBO,4.833543,51.650847
Pieter Stastokstraat,25,,,4906GA,Oosterhout,Oosterhout,Noord-Brabant,VBO,4.833522,51.650793
Pieter Stastokstraat,27,,,4906GA,Oosterhout,Oosterhout,Noord-Brabant,VBO,4.833564,51.650800
Pieter Stastokstraat,29,,,4906GA,Oosterhout,Oosterhout,Noord-Brabant,VBO,4.833543,51.650746
Pieter Stastokstraat,31,,,4906GA,Oosterhout,Oosterhout,Noord-Brabant,VBO,4.833585,51.650753
Pieter Stastokstraat,33,,,4906GA,Oosterhout,Oosterhout,Noord-Brabant,VBO,4.833564,51.650699
Pieter Stastokstraat,35,,,4906GA,Oosterhout,Oosterhout,Noord-Brabant,VBO,4.833606,51.650707
Pieter Stastokstraat,37,,,4906GA,Oosterhout,Oosterhout,Noord-Brabant,VBO,4.833585,51.650653
Pieter Stastokstraat,39,,,4906GA,Oosterhout,Oosterhout,Noord-Brabant,VBO,4.833627,51.650660
Pieter Stastokstraat,41,,,4906GA,Oosterhout,Oosterhout,Noord-Brabant,VBO,4.833607,51.650605
Pieter Stastokstraat,43,,,4906GA,Oosterhout,Oosterhout,Noord-Brabant,VBO,4.833649,51.650612
Pieter Stastokstraat,45,,,4906GA,Oosterhout,Oosterhout,Noord-Brabant,VBO,4.833628,51.650558
Pieter Stastokstraat,47,,,4906GA,Oosterhout,Oosterhout,Noord-Brabant,VBO,4.833670,51.650565
Pieter Stastokstraat,49,,,4906GA,Oosterhout,Oosterhout,Noord-Brabant,VBO,4.833649,51.650511
Pieter Stastokstraat,51,,,4906GA,Oosterhout,Oosterhout,Noord-Brabant,VBO,4.833691,51.650518
Pieter Stastokstraat,40,,,4906GB,Oosterhout,Oosterhout,Noord-Brabant,VBO,4.833373,51.650071
Pieter Stastokstraat,53,,,4906GB,Oosterhout,Oosterhout,Noord-Brabant,VBO,4.833689,51.650422
Pieter Stastokstraat,55,,,4906GB,Oosterhout,Oosterhout,Noord-Brabant,VBO,4.833731,51.650429
Pieter Stastokstraat,57,,,4906GB,Oosterhout,Oosterhout,Noord-Brabant,VBO,4.833710,51.650375
Pieter Stastokstraat,59,,,4906GB,Oosterhout,Oosterhout,Noord-Brabant,VBO,4.833752,51.650383
Pieter Stastokstraat,61,,,4906GB,Oosterhout,Oosterhout,Noord-Brabant,VBO,4.833731,51.650329
Pieter Stastokstraat,63,,,4906GB,Oosterhout,Oosterhout,Noord-Brabant,VBO,4.833773,51.650336
Pieter Stastokstraat,65,,,4906GB,Oosterhout,Oosterhout,Noord-Brabant,VBO,4.833752,51.650282
Pieter Stastokstraat,67,,,4906GB,Oosterhout,Oosterhout,Noord-Brabant,VBO,4.833794,51.650289
Pieter Stastokstraat,69,,,4906GB,Oosterhout,Oosterhout,Noord-Brabant,VBO,4.833774,51.650234
Pieter Stastokstraat,71,,,4906GB,Oosterhout,Oosterhout,Noord-Brabant,VBO,4.833815,51.650241
Pieter Stastokstraat,73,,,4906GB,Oosterhout,Oosterhout,Noord-Brabant,VBO,4.833794,51.650187
Pieter Stastokstraat,75,,,4906GB,Oosterhout,Oosterhout,Noord-Brabant,VBO,4.833836,51.650194
Pieter Stastokstraat,77,,,4906GB,Oosterhout,Oosterhout,Noord-Brabant,VBO,4.833816,51.650140
Pieter Stastokstraat,79,,,4906GB,Oosterhout,Oosterhout,Noord-Brabant,VBO,4.833857,51.650148
Pieter Stastokstraat,81,,,4906GB,Oosterhout,Oosterhout,Noord-Brabant,VBO,4.833836,51.650094
Pieter Stastokstraat,83,,,4906GB,Oosterhout,Oosterhout,Noord-Brabant,VBO,4.833878,51.650101
Pieter Stastokstraat,85,,,4906GB,Oosterhout,Oosterhout,Noord-Brabant,VBO,4.833858,51.650047
Pieter Stastokstraat,87,,,4906GB,Oosterhout,Oosterhout,Noord-Brabant,VBO,4.833899,51.650054
Pieter Stastokstraat,89,,,4906GB,Oosterhout,Oosterhout,Noord-Brabant,VBO,4.833879,51.650000
Pieter Stastokstraat,91,,,4906GB,Oosterhout,Oosterhout,Noord-Brabant,VBO,4.833920,51.650007
Pieter Stastokstraat,93,,,4906GB,Oosterhout,Oosterhout,Noord-Brabant,VBO,4.833900,51.649953
Pieter Stastokstraat,95,,,4906GB,Oosterhout,Oosterhout,Noord-Brabant,VBO,4.833941,51.649961
Pieter Stastokstraat,97,,,4906GB,Oosterhout,Oosterhout,Noord-Brabant,VBO,4.833921,51.649907
Pieter Stastokstraat,99,,,4906GB,Oosterhout,Oosterhout,Noord-Brabant,VBO,4.833962,51.649914
Pieter Stastokstraat,101,,,4906GB,Oosterhout,Oosterhout,Noord-Brabant,VBO,4.833924,51.649844
Pieter Stastokstraat,103,,,4906GB,Oosterhout,Oosterhout,Noord-Brabant,VBO,4.834096,51.649875
Pieter Stastokstraat,105,,,4906GB,Oosterhout,Oosterhout,Noord-Brabant,VBO,4.833957,51.649850
Pieter Stastokstraat,107,,,4906GB,Oosterhout,Oosterhout,Noord-Brabant,VBO,4.834135,51.649881
Pieter Stastokstraat,109,,,4906GB,Oosterhout,Oosterhout,Noord-Brabant,VBO,4.833990,51.649856
Pieter Stastokstraat,111,,,4906GB,Oosterhout,Oosterhout,Noord-Brabant,VBO,4.834022,51.649861
Pieter Stastokstraat,113,,,4906GC,Oosterhout,Oosterhout,Noord-Brabant,VBO,4.834040,51.649587
Pieter Stastokstraat,115,,,4906GC,Oosterhout,Oosterhout,Noord-Brabant,VBO,4.834218,51.649618
Pieter Stastokstraat,117,,,4906GC,Oosterhout,Oosterhout,Noord-Brabant,VBO,4.834073,51.649593
Pieter Stastokstraat,119,,,4906GC,Oosterhout,Oosterhout,Noord-Brabant,VBO,4.834249,51.649623
Pieter Stastokstraat,121,,,4906GC,Oosterhout,Oosterhout,Noord-Brabant,VBO,4.834106,51.649598
Pieter Stastokstraat,123,,,4906GC,Oosterhout,Oosterhout,Noord-Brabant,VBO,4.834137,51.649604
Pieter Stastokstraat,125,,,4906GC,Oosterhout,Oosterhout,Noord-Brabant,VBO,4.834083,51.649533
Pieter Stastokstraat,127,,,4906GC,Oosterhout,Oosterhout,Noord-Brabant,VBO,4.834136,51.649544
Pieter Stastokstraat,129,,,4906GC,Oosterhout,Oosterhout,Noord-Brabant,VBO,4.834104,51.649486
Pieter Stastokstraat,131,,,4906GC,Oosterhout,Oosterhout,Noord-Brabant,VBO,4.834157,51.649497
Pieter Stastokstraat,133,,,4906GC,Oosterhout,Oosterhout,Noord-Brabant,VBO,4.834125,51.649440
Pieter Stastokstraat,135,,,4906GC,Oosterhout,Oosterhout,Noord-Brabant,VBO,4.834178,51.649451
Pieter Stastokstraat,137,,,4906GC,Oosterhout,Oosterhout,Noord-Brabant,VBO,4.834146,51.649393
Pieter Stastokstraat,139,,,4906GC,Oosterhout,Oosterhout,Noord-Brabant,VBO,4.834199,51.649404
Pieter Stastokstraat,141,,,4906GC,Oosterhout,Oosterhout,Noord-Brabant,VBO,4.834167,51.649346
Pieter Stastokstraat,143,,,4906GC,Oosterhout,Oosterhout,Noord-Brabant,VBO,4.834220,51.649357
Pieter Stastokstraat,145,,,4906GC,Oosterhout,Oosterhout,Noord-Brabant,VBO,4.834188,51.649299
Pieter Stastokstraat,147,,,4906GC,Oosterhout,Oosterhout,Noord-Brabant,VBO,4.834241,51.649310
Pieter Stastokstraat,149,,,4906GC,Oosterhout,Oosterhout,Noord-Brabant,VBO,4.834209,51.649253
Pieter Stastokstraat,151,,,4906GC,Oosterhout,Oosterhout,Noord-Brabant,VBO,4.834262,51.649264
Pieter Stastokstraat,153,,,4906GC,Oosterhout,Oosterhout,Noord-Brabant,VBO,4.834230,51.649206
Pieter Stastokstraat,155,,,4906GC,Oosterhout,Oosterhout,Noord-Brabant,VBO,4.834283,51.649217
Pieter Stastokstraat,157,,,4906GC,Oosterhout,Oosterhout,Noord-Brabant,VBO,4.834251,51.649159
Pieter Stastokstraat,159,,,4906GC,Oosterhout,Oosterhout,Noord-Brabant,VBO,4.834304,51.649170
Pieter Stastokstraat,161,,,4906GC,Oosterhout,Oosterhout,Noord-Brabant,VBO,4.834397,51.649132
Pieter Stastokstraat,163,,,4906GC,Oosterhout,Oosterhout,Noord-Brabant,VBO,4.834260,51.649107
Pieter Stastokstraat,165,,,4906GC,Oosterhout,Oosterhout,Noord-Brabant,VBO,4.834429,51.649138
Pieter Stastokstraat,167,,,4906GC,Oosterhout,Oosterhout,Noord-Brabant,VBO,4.834292,51.649113
Pieter Stastokstraat,169,,,4906GC,Oosterhout,Oosterhout,Noord-Brabant,VBO,4.834461,51.649143
Pieter Stastokstraat,171,,,4906GC,Oosterhout,Oosterhout,Noord-Brabant,VBO,4.834324,51.649118
Pieter Stastokstraat,173,,,4906GC,Oosterhout,Oosterhout,Noord-Brabant,VBO,4.834356,51.649124
Pieter Stastokstraat,175,,,4906GD,Oosterhout,Oosterhout,Noord-Brabant,VBO,4.834544,51.649114
Pieter Stastokstraat,177,,,4906GD,Oosterhout,Oosterhout,Noord-Brabant,VBO,4.834620,51.649127
Pieter Stastokstraat,179,,,4906GD,Oosterhout,Oosterhout,Noord-Brabant,VBO,4.834695,51.649140
Pieter Stastokstraat,181,,,4906GD,Oosterhout,Oosterhout,Noord-Brabant,VBO,4.834770,51.649153
Pieter Stastokstraat,183,,,4906GD,Oosterhout,Oosterhout,Noord-Brabant,VBO,4.834845,51.649166
Pieter Stastokstraat,185,,,4906GD,Oosterhout,Oosterhout,Noord-Brabant,VBO,4.834920,51.649179
Pieter Stastokstraat,187,,,4906GD,Oosterhout,Oosterhout,Noord-Brabant,VBO,4.834995,51.649192
Pieter Stastokstraat,189,,,4906GD,Oosterhout,Oosterhout,Noord-Brabant,VBO,4.835072,51.649206
Pieter Stastokstraat,191,,,4906GD,Oosterhout,Oosterhout,Noord-Brabant,VBO,4.835147,51.649219
Pieter Stastokstraat,193,,,4906GD,Oosterhout,Oosterhout,Noord-Brabant,VBO,4.835223,51.649232
Pieter Stastokstraat,195,,,4906GD,Oosterhout,Oosterhout,Noord-Brabant,VBO,4.835298,51.649245
Pieter Stastokstraat,197,,,4906GD,Oosterhout,Oosterhout,Noord-Brabant,VBO,4.835373,51.649258
Pieter Stastokstraat,199,,,4906GD,Oosterhout,Oosterhout,Noord-Brabant,VBO,4.835448,51.649271
Pieter Stastokstraat,201,,,4906GD,Oosterhout,Oosterhout,Noord-Brabant,VBO,4.835523,51.649284
Pieter Stastokstraat,203,,,4906GD,Oosterhout,Oosterhout,Noord-Brabant,VBO,4.835600,51.649297
Pieter Stastokstraat,205,,,4906GD,Oosterhout,Oosterhout,Noord-Brabant,VBO,4.835675,51.649310
Pieter Stastokstraat,207,,,4906GD,Oosterhout,Oosterhout,Noord-Brabant,VBO,4.835750,51.649324
Pieter Stastokstraat,209,,,4906GD,Oosterhout,Oosterhout,Noord-Brabant,VBO,4.835826,51.649337
Pieter Stastokstraat,211,,,4906GD,Oosterhout,Oosterhout,Noord-Brabant,VBO,4.835901,51.649350
Pieter Stastokstraat,213,,,4906GD,Oosterhout,Oosterhout,Noord-Brabant,VBO,4.835976,51.649363
Pieter Stastokstraat,215,,,4906GD,Oosterhout,Oosterhout,Noord-Brabant,VBO,4.836051,51.649376
Pieter Stastokstraat,217,,,4906GD,Oosterhout,Oosterhout,Noord-Brabant,VBO,4.836129,51.649379
Pieter Stastokstraat,219,,,4906GD,Oosterhout,Oosterhout,Noord-Brabant,VBO,4.836119,51.649402
Pieter Stastokstraat,221,,,4906GD,Oosterhout,Oosterhout,Noord-Brabant,VBO,4.836110,51.649422
Pieter Stastokstraat,223,,,4906GD,Oosterhout,Oosterhout,Noord-Brabant,VBO,4.836101,51.649442
Pieter Stastokstraat,225,,,4906GD,Oosterhout,Oosterhout,Noord-Brabant,VBO,4.836091,51.649593
Pieter Stastokstraat,227,,,4906GD,Oosterhout,Oosterhout,Noord-Brabant,VBO,4.836069,51.649642
Pieter Stastokstraat,229,,,4906GD,Oosterhout,Oosterhout,Noord-Brabant,VBO,4.836022,51.649747
Pieter Stastokstraat,231,,,4906GD,Oosterhout,Oosterhout,Noord-Brabant,VBO,4.836000,51.649796
Pieter Stastokstraat,233,,,4906GD,Oosterhout,Oosterhout,Noord-Brabant,VBO,4.835953,51.649901
Pieter Stastokstraat,235,,,4906GD,Oosterhout,Oosterhout,Noord-Brabant,VBO,4.835931,51.649950
Max Havelaardreef,109,,,4906HA,Oosterhout,Oosterhout,Noord-Brabant,VBO,4.841302,51.652195
Max Havelaardreef,111,,,4906HA,Oosterhout,Oosterhout,Noord-Brabant,VBO,4.841215,51.652388
Max Havelaardreef,113,,,4906HA,Oosterhout,Oosterhout,Noord-Brabant,VBO,4.841146,51.652539
Max Havelaardreef,115,A,,4906HA,Oosterhout,Oosterhout,Noord-Brabant,VBO,4.841044,51.652678
Max Havelaardreef,115,,,4906HA,Oosterhout,Oosterhout,Noord-Brabant,VBO,4.841102,51.652730
Max Havelaardreef,117,A,,4906HA,Oosterhout,Oosterhout,Noord-Brabant,VBO,4.840952,51.652898
Max Havelaardreef,117,,,4906HA,Oosterhout,Oosterhout,Noord-Brabant,VBO,4.841037,51.652873
Max Havelaardreef,119,,,4906HA,Oosterhout,Oosterhout,Noord-Brabant,VBO,4.840881,51.653082
Max Havelaardreef,121,,,4906HA,Oosterhout,Oosterhout,Noord-Brabant,VBO,4.840849,51.653156
Max Havelaardreef,123,,,4906HA,Oosterhout,Oosterhout,Noord-Brabant,VBO,4.840815,51.653236
Max Havelaardreef,125,,,4906HA,Oosterhout,Oosterhout,Noord-Brabant,VBO,4.840787,51.653301
Frits van Egtersstraat,1,,,4906HB,Oosterhout,Oosterhout,Noord-Brabant,VBO,4.835693,51.652072
Joachim Stillerstraat,2,,,4906HC,Oosterhout,Oosterhout,Noord-Brabant,VBO,4.835892,51.651582
Joachim Stillerstraat,4,,,4906HC,Oosterhout,Oosterhout,Noord-Brabant,VBO,4.836389,51.651668
Joachim Stillerstraat,6,,,4906HC,Oosterhout,Oosterhout,Noord-Brabant,VBO,4.836765,51.651731
Joachim Stillerstraat,8,,,4906HC,Oosterhout,Oosterhout,Noord-Brabant,VBO,4.837255,51.651821
Frans Laarmansstraat,1,,,4906HD,Oosterhout,Oosterhout,Noord-Brabant,VBO,4.837085,51.652762
Frans Laarmansstraat,2,,,4906HD,Oosterhout,Oosterhout,Noord-Brabant,VBO,4.836829,51.652664
Frans Laarmansstraat,3,,,4906HD,Oosterhout,Oosterhout,Noord-Brabant,VBO,4.837258,51.652569
Frans Laarmansstraat,4,,,4906HD,Oosterhout,Oosterhout,Noord-Brabant,VBO,4.836958,51.652434
Frans Laarmansstraat,5,,,4906HD,Oosterhout,Oosterhout,Noord-Brabant,VBO,4.837352,51.652376
Frans Laarmansstraat,6,,,4906HD,Oosterhout,Oosterhout,Noord-Brabant,VBO,4.837058,51.652253
Frans Laarmansstraat,7,,,4906HD,Oosterhout,Oosterhout,Noord-Brabant,VBO,4.837379,51.652324
Frans Laarmansstraat,8,,,4906HD,Oosterhout,Oosterhout,Noord-Brabant,VBO,4.837157,51.652040
Frans Laarmansstraat,9,,,4906HD,Oosterhout,Oosterhout,Noord-Brabant,VBO,4.837487,51.652159
Frans Laarmansstraat,11,,,4906HD,Oosterhout,Oosterhout,Noord-Brabant,VBO,4.837557,51.651996
Frans Laarmansstraat,12,,,4906HD,Oosterhout,Oosterhout,Noord-Brabant,VBO,4.837683,51.651714
Frans Laarmansstraat,14,,,4906HD,Oosterhout,Oosterhout,Noord-Brabant,VBO,4.838226,51.651811
Frans Laarmansstraat,16,,,4906HD,Oosterhout,Oosterhout,Noord-Brabant,VBO,4.838594,51.651872
Frans Laarmansstraat,18,,,4906HD,Oosterhout,Oosterhout,Noord-Brabant,VBO,4.838892,51.651946
Ferdinand Huyckstraat,1,,,4906HE,Oosterhout,Oosterhout,Noord-Brabant,VBO,4.837834,51.653046
Ferdinand Huyckstraat,2,,,4906HE,Oosterhout,Oosterhout,Noord-Brabant,VBO,4.837581,51.652943
Ferdinand Huyckstraat,3,,,4906HE,Oosterhout,Oosterhout,Noord-Brabant,VBO,4.838039,51.652822
Ferdinand Huyckstraat,4,,,4906HE,Oosterhout,Oosterhout,Noord-Brabant,VBO,4.837704,51.652727
Ferdinand Huyckstraat,5,,,4906HE,Oosterhout,Oosterhout,Noord-Brabant,VBO,4.838187,51.652592
Ferdinand Huyckstraat,6,,,4906HE,Oosterhout,Oosterhout,Noord-Brabant,VBO,4.837815,51.652564
Ferdinand Huyckstraat,7,,,4906HE,Oosterhout,Oosterhout,Noord-Brabant,VBO,4.838300,51.652371
Ferdinand Huyckstraat,8,,,4906HE,Oosterhout,Oosterhout,Noord-Brabant,VBO,4.837904,51.652400
Ferdinand Huyckstraat,9,,,4906HE,Oosterhout,Oosterhout,Noord-Brabant,VBO,4.838410,51.652116
Ferdinand Huyckstraat,10,,,4906HE,Oosterhout,Oosterhout,Noord-Brabant,VBO,4.837997,51.652261
Ferdinand Huyckstraat,12,,,4906HE,Oosterhout,Oosterhout,Noord-Brabant,VBO,4.838020,51.652209
Ferdinand Huyckstraat,14,,,4906HE,Oosterhout,Oosterhout,Noord-Brabant,VBO,4.838074,51.652021
Esmoreitstraat,2,,,4906HG,Oosterhout,Oosterhout,Noord-Brabant,VBO,4.838328,51.653227
Esmoreitstraat,3,,,4906HG,Oosterhout,Oosterhout,Noord-Brabant,VBO,4.838829,51.653040
Esmoreitstraat,4,,,4906HG,Oosterhout,Oosterhout,Noord-Brabant,VBO,4.838461,51.653043
Esmoreitstraat,5,,,4906HG,Oosterhout,Oosterhout,Noord-Brabant,VBO,4.838979,51.652841
Esmoreitstraat,6,,,4906HG,Oosterhout,Oosterhout,Noord-Brabant,VBO,4.838500,51.652995
Esmoreitstraat,7,,,4906HG,Oosterhout,Oosterhout,Noord-Brabant,VBO,4.839139,51.652565
Esmoreitstraat,8,,,4906HG,Oosterhout,Oosterhout,Noord-Brabant,VBO,4.838574,51.652850
Esmoreitstraat,9,,,4906HG,Oosterhout,Oosterhout,Noord-Brabant,VBO,4.839238,51.652340
Esmoreitstraat,10,,,4906HG,Oosterhout,Oosterhout,Noord-Brabant,VBO,4.838669,51.652697
Esmoreitstraat,11,,,4906HG,Oosterhout,Oosterhout,Noord-Brabant,VBO,4.839336,51.652123
Esmoreitstraat,12,,,4906HG,Oosterhout,Oosterhout,Noord-Brabant,VBO,4.838753,51.652533
Esmoreitstraat,14,,,4906HG,Oosterhout,Oosterhout,Noord-Brabant,VBO,4.838825,51.652370
Esmoreitstraat,16,,,4906HG,Oosterhout,Oosterhout,Noord-Brabant,VBO,4.838919,51.652168
Esmoreitstraat,20,,,4906HG,Oosterhout,Oosterhout,Noord-Brabant,VBO,4.839447,51.651826
Esmoreitstraat,22,,,4906HG,Oosterhout,Oosterhout,Noord-Brabant,VBO,4.839907,51.651908
Esmoreitstraat,24,,,4906HG,Oosterhout,Oosterhout,Noord-Brabant,VBO,4.840230,51.651964
Reinaertstraat,3,,,4906HH,Oosterhout,Oosterhout,Noord-Brabant,VBO,4.840715,51.652606
Reinaertstraat,4,,,4906HH,Oosterhout,Oosterhout,Noord-Brabant,VBO,4.840345,51.652574
Reinaertstraat,5,,,4906HH,Oosterhout,Oosterhout,Noord-Brabant,VBO,4.840811,51.652405
Reinaertstraat,6,,,4906HH,Oosterhout,Oosterhout,Noord-Brabant,VBO,4.840416,51.652417
Reinaertstraat,7,,,4906HH,Oosterhout,Oosterhout,Noord-Brabant,VBO,4.840899,51.652206
Reinaertstraat,8,,,4906HH,Oosterhout,Oosterhout,Noord-Brabant,VBO,4.840484,51.652255
Reinaertstraat,10,,,4906HH,Oosterhout,Oosterhout,Noord-Brabant,VBO,4.840589,51.652021
Reinaertstraat,12,,,4906HH,Oosterhout,Oosterhout,Noord-Brabant,VBO,4.840987,51.651928
Reinaertstraat,14,,,4906HH,Oosterhout,Oosterhout,Noord-Brabant,VBO,4.841354,51.651988
Elegaststraat,2,,,4906HJ,Oosterhout,Oosterhout,Noord-Brabant,VBO,4.839518,51.652622
Elegaststraat,3,,,4906HJ,Oosterhout,Oosterhout,Noord-Brabant,VBO,4.839982,51.652466
Elegaststraat,4,,,4906HJ,Oosterhout,Oosterhout,Noord-Brabant,VBO,4.839592,51.652449
Elegaststraat,5,,,4906HJ,Oosterhout,Oosterhout,Noord-Brabant,VBO,4.840081,51.652248
Elegaststraat,6,,,4906HJ,Oosterhout,Oosterhout,Noord-Brabant,VBO,4.839667,51.652294
Elegaststraat,8,,,4906HJ,Oosterhout,Oosterhout,Noord-Brabant,VBO,4.839742,51.652125
Leopold Sondagstraat,1,,,4906HK,Oosterhout,Oosterhout,Noord-Brabant,VBO,4.840636,51.653597
Leopold Sondagstraat,2,,,4906HK,Oosterhout,Oosterhout,Noord-Brabant,VBO,4.840688,51.653830
Leopold Sondagstraat,3,,,4906HK,Oosterhout,Oosterhout,Noord-Brabant,VBO,4.840475,51.653619
Leopold Sondagstraat,4,,,4906HK,Oosterhout,Oosterhout,Noord-Brabant,VBO,4.840542,51.653852
Leopold Sondagstraat,5,,,4906HK,Oosterhout,Oosterhout,Noord-Brabant,VBO,4.840313,51.653654
Leopold Sondagstraat,6,,,4906HK,Oosterhout,Oosterhout,Noord-Brabant,VBO,4.840406,51.653887
Leopold Sondagstraat,7,,,4906HK,Oosterhout,Oosterhout,Noord-Brabant,VBO,4.840161,51.653699
Leopold Sondagstraat,8,,,4906HK,Oosterhout,Oosterhout,Noord-Brabant,VBO,4.840275,51.653935
Leopold Sondagstraat,9,,,4906HK,Oosterhout,Oosterhout,Noord-Brabant,VBO,4.840022,51.653757
Leopold Sondagstraat,10,,,4906HK,Oosterhout,Oosterhout,Noord-Brabant,VBO,4.840156,51.653992
Leopold Sondagstraat,11,,,4906HK,Oosterhout,Oosterhout,Noord-Brabant,VBO,4.839889,51.653821
Eline Verelaan,3,,,4906HL,Oosterhout,Oosterhout,Noord-Brabant,VBO,4.840530,51.653310
Eline Verelaan,5,,,4906HL,Oosterhout,Oosterhout,Noord-Brabant,VBO,4.840427,51.653324
Eline Verelaan,7,,,4906HL,Oosterhout,Oosterhout,Noord-Brabant,VBO,4.840250,51.653357
Eline Verelaan,9,,,4906HL,Oosterhout,Oosterhout,Noord-Brabant,VBO,4.840170,51.653377
Eline Verelaan,11,,,4906HL,Oosterhout,Oosterhout,Noord-Brabant,VBO,4.840001,51.653425
Eline Verelaan,13,,,4906HL,Oosterhout,Oosterhout,Noord-Brabant,VBO,4.839923,51.653451
Eline Verelaan,15,,,4906HL,Oosterhout,Oosterhout,Noord-Brabant,VBO,4.839770,51.653512
Eline Verelaan,17,,,4906HL,Oosterhout,Oosterhout,Noord-Brabant,VBO,4.839682,51.653547
Eline Verelaan,19,,,4906HL,Oosterhout,Oosterhout,Noord-Brabant,VBO,4.839491,51.653651
Eline Verelaan,21,,,4906HL,Oosterhout,Oosterhout,Noord-Brabant,VBO,4.839368,51.653609
Eline Verelaan,23,,,4906HL,Oosterhout,Oosterhout,Noord-Brabant,VBO,4.839246,51.653557
Eline Verelaan,25,,,4906HL,Oosterhout,Oosterhout,Noord-Brabant,VBO,4.839119,51.653513
Eline Verelaan,27,,,4906HL,Oosterhout,Oosterhout,Noord-Brabant,VBO,4.838997,51.653465
Eline Verelaan,29,,,4906HL,Oosterhout,Oosterhout,Noord-Brabant,VBO,4.838876,51.653423
Eline Verelaan,31,,,4906HL,Oosterhout,Oosterhout,Noord-Brabant,VBO,4.838748,51.653370
Eline Verelaan,33,,,4906HL,Oosterhout,Oosterhout,Noord-Brabant,VBO,4.838623,51.653329
Eline Verelaan,37,,,4906HL,Oosterhout,Oosterhout,Noord-Brabant,VBO,4.838257,51.653196
Eline Verelaan,39,,,4906HL,Oosterhout,Oosterhout,Noord-Brabant,VBO,4.838137,51.653145
Eline Verelaan,41,,,4906HL,Oosterhout,Oosterhout,Noord-Brabant,VBO,4.838045,51.653108
Eline Verelaan,43,,,4906HL,Oosterhout,Oosterhout,Noord-Brabant,VBO,4.837927,51.653066
Eline Verelaan,49,,,4906HL,Oosterhout,Oosterhout,Noord-Brabant,VBO,4.837510,51.652912
Eline Verelaan,51,,,4906HL,Oosterhout,Oosterhout,Noord-Brabant,VBO,4.837388,51.652865
Eline Verelaan,53,,,4906HL,Oosterhout,Oosterhout,Noord-Brabant,VBO,4.837294,51.652832
Eline Verelaan,55,,,4906HL,Oosterhout,Oosterhout,Noord-Brabant,VBO,4.837176,51.652786
Eline Verelaan,61,,,4906HL,Oosterhout,Oosterhout,Noord-Brabant,VBO,4.836761,51.652639
Eline Verelaan,63,,,4906HL,Oosterhout,Oosterhout,Noord-Brabant,VBO,4.836618,51.652583
Eline Verelaan,65,,,4906HL,Oosterhout,Oosterhout,Noord-Brabant,VBO,4.836550,51.652561
Eline Verelaan,67,,,4906HL,Oosterhout,Oosterhout,Noord-Brabant,VBO,4.836409,51.652508
Elckerlycplein,1,,,4906HM,Oosterhout,Oosterhout,Noord-Brabant,VBO,4.840615,51.652837
Elckerlycplein,2,,,4906HM,Oosterhout,Oosterhout,Noord-Brabant,VBO,4.840519,51.653053
Elckerlycplein,4,,,4906HM,Oosterhout,Oosterhout,Noord-Brabant,VBO,4.840193,51.653069
Elckerlycplein,5,,,4906HM,Oosterhout,Oosterhout,Noord-Brabant,VBO,4.840245,51.652769
Elckerlycplein,6,,,4906HM,Oosterhout,Oosterhout,Noord-Brabant,VBO,4.839925,51.653125
Elckerlycplein,7,,,4906HM,Oosterhout,Oosterhout,Noord-Brabant,VBO,4.839877,51.652712
Elckerlycplein,8,,,4906HM,Oosterhout,Oosterhout,Noord-Brabant,VBO,4.839687,51.653222
Elckerlycplein,10,,,4906HM,Oosterhout,Oosterhout,Noord-Brabant,VBO,4.839402,51.653280
Elckerlycplein,12,,,4906HM,Oosterhout,Oosterhout,Noord-Brabant,VBO,4.839279,51.653239
Elckerlycplein,14,,,4906HM,Oosterhout,Oosterhout,Noord-Brabant,VBO,4.839275,51.653047
Elckerlycplein,16,,,4906HM,Oosterhout,Oosterhout,Noord-Brabant,VBO,4.839403,51.652848
Mariken van Nimwegenstraat,1,,,4906HN,Oosterhout,Oosterhout,Noord-Brabant,VBO,4.836335,51.652481
Mariken van Nimwegenstraat,3,,,4906HN,Oosterhout,Oosterhout,Noord-Brabant,VBO,4.836498,51.652297
Mariken van Nimwegenstraat,5,,,4906HN,Oosterhout,Oosterhout,Noord-Brabant,VBO,4.836585,51.652157
Mariken van Nimwegenstraat,7,,,4906HN,Oosterhout,Oosterhout,Noord-Brabant,VBO,4.836650,51.652009
Eline Verelaan,4,,,4906JA,Oosterhout,Oosterhout,Noord-Brabant,VBO,4.839104,51.653865
Eline Verelaan,6,,,4906JA,Oosterhout,Oosterhout,Noord-Brabant,VBO,4.838917,51.653794
Eline Verelaan,8,,,4906JA,Oosterhout,Oosterhout,Noord-Brabant,VBO,4.838733,51.653725
Eline Verelaan,10,,,4906JA,Oosterhout,Oosterhout,Noord-Brabant,VBO,4.838548,51.653656
Eline Verelaan,12,,,4906JA,Oosterhout,Oosterhout,Noord-Brabant,VBO,4.838361,51.653585
Eline Verelaan,28,,,4906JA,Oosterhout,Oosterhout,Noord-Brabant,VBO,4.835399,51.652475
Eline Verelaan,30,,,4906JA,Oosterhout,Oosterhout,Noord-Brabant,VBO,4.835211,51.652629
Eline Verelaan,32,,,4906JA,Oosterhout,Oosterhout,Noord-Brabant,VBO,4.835030,51.652755
Eline Verelaan,34,,,4906JA,Oosterhout,Oosterhout,Noord-Brabant,VBO,4.834776,51.652892
Eline Verelaan,36,,,4906JA,Oosterhout,Oosterhout,Noord-Brabant,VBO,4.834508,51.653020
Eline Verelaan,38,,,4906JA,Oosterhout,Oosterhout,Noord-Brabant,VBO,4.834227,51.653132
Eline Verelaan,40,,,4906JA,Oosterhout,Oosterhout,Noord-Brabant,VBO,4.833970,51.653205
Eline Verelaan,42,,,4906JA,Oosterhout,Oosterhout,Noord-Brabant,VBO,4.833667,51.653271
Eline Verelaan,44,,,4906JA,Oosterhout,Oosterhout,Noord-Brabant,VBO,4.832392,51.653344
Eline Verelaan,46,,,4906JA,Oosterhout,Oosterhout,Noord-Brabant,VBO,4.833370,51.653634
Eline Verelaan,48,,,4906JA,Oosterhout,Oosterhout,Noord-Brabant,VBO,4.833191,51.653623
Eline Verelaan,50,,,4906JA,Oosterhout,Oosterhout,Noord-Brabant,VBO,4.833048,51.653615
Eline Verelaan,52,,,4906JA,Oosterhout,Oosterhout,Noord-Brabant,VBO,4.832894,51.653602
Eline Verelaan,54,,,4906JA,Oosterhout,Oosterhout,Noord-Brabant,VBO,4.832731,51.653591
Eline Verelaan,56,,,4906JA,Oosterhout,Oosterhout,Noord-Brabant,VBO,4.832577,51.653581
Eline Verelaan,58,,,4906JA,Oosterhout,Oosterhout,Noord-Brabant,VBO,4.833360,51.653677
Eline Verelaan,60,,,4906JA,Oosterhout,Oosterhout,Noord-Brabant,VBO,4.833181,51.653666
Eline Verelaan,62,,,4906JA,Oosterhout,Oosterhout,Noord-Brabant,VBO,4.833038,51.653657
Eline Verelaan,64,,,4906JA,Oosterhout,Oosterhout,Noord-Brabant,VBO,4.832884,51.653645
Eline Verelaan,66,,,4906JA,Oosterhout,Oosterhout,Noord-Brabant,VBO,4.832721,51.653634
Eline Verelaan,68,,,4906JA,Oosterhout,Oosterhout,Noord-Brabant,VBO,4.832567,51.653624
Eline Verelaan,70,,,4906JA,Oosterhout,Oosterhout,Noord-Brabant,VBO,4.833349,51.653724
Eline Verelaan,71,,,4906JA,Oosterhout,Oosterhout,Noord-Brabant,VBO,4.834869,51.652408
Eline Verelaan,72,,,4906JA,Oosterhout,Oosterhout,Noord-Brabant,VBO,4.833170,51.653713
Eline Verelaan,73,,,4906JA,Oosterhout,Oosterhout,Noord-Brabant,VBO,4.834819,51.652450
Eline Verelaan,74,,,4906JA,Oosterhout,Oosterhout,Noord-Brabant,VBO,4.833027,51.653705
Eline Verelaan,75,,,4906JA,Oosterhout,Oosterhout,Noord-Brabant,VBO,4.834693,51.652534
Eline Verelaan,76,,,4906JA,Oosterhout,Oosterhout,Noord-Brabant,VBO,4.832873,51.653692
Eline Verelaan,77,,,4906JA,Oosterhout,Oosterhout,Noord-Brabant,VBO,4.834635,51.652572
Eline Verelaan,78,,,4906JA,Oosterhout,Oosterhout,Noord-Brabant,VBO,4.832710,51.653681
Eline Verelaan,80,,,4906JA,Oosterhout,Oosterhout,Noord-Brabant,VBO,4.832556,51.653671
Eline Verelaan,82,,,4906JA,Oosterhout,Oosterhout,Noord-Brabant,VBO,4.833161,51.653762
Eline Verelaan,83,,,4906JA,Oosterhout,Oosterhout,Noord-Brabant,VBO,4.834050,51.652841
Eline Verelaan,84,,,4906JA,Oosterhout,Oosterhout,Noord-Brabant,VBO,4.833018,51.653753
Eline Verelaan,85,,,4906JA,Oosterhout,Oosterhout,Noord-Brabant,VBO,4.833968,51.652866
Eline Verelaan,86,,,4906JA,Oosterhout,Oosterhout,Noord-Brabant,VBO,4.832864,51.653741
Eline Verelaan,87,,,4906JA,Oosterhout,Oosterhout,Noord-Brabant,VBO,4.833804,51.652915
Eline Verelaan,88,,,4906JA,Oosterhout,Oosterhout,Noord-Brabant,VBO,4.832701,51.653730
Eline Verelaan,89,,,4906JA,Oosterhout,Oosterhout,Noord-Brabant,VBO,4.833723,51.652936
Eline Verelaan,90,,,4906JA,Oosterhout,Oosterhout,Noord-Brabant,VBO,4.832547,51.653719
Eline Verelaan,92,,,4906JA,Oosterhout,Oosterhout,Noord-Brabant,VBO,4.832459,51.653695
Eline Verelaan,94,,,4906JA,Oosterhout,Oosterhout,Noord-Brabant,VBO,4.832477,51.653621
Eline Verelaan,95,,,4906JA,Oosterhout,Oosterhout,Noord-Brabant,VBO,4.833018,51.653039
Eline Verelaan,96,,,4906JA,Oosterhout,Oosterhout,Noord-Brabant,VBO,4.832497,51.653540
Eline Verelaan,97,,,4906JA,Oosterhout,Oosterhout,Noord-Brabant,VBO,4.832928,51.653044
Eline Verelaan,98,,,4906JA,Oosterhout,Oosterhout,Noord-Brabant,VBO,4.832519,51.653455
Eline Verelaan,99,,,4906JA,Oosterhout,Oosterhout,Noord-Brabant,VBO,4.832748,51.653050
Eline Verelaan,100,,,4906JA,Oosterhout,Oosterhout,Noord-Brabant,VBO,4.832541,51.653367
Eline Verelaan,101,,,4906JA,Oosterhout,Oosterhout,Noord-Brabant,VBO,4.832657,51.653049
Eline Verelaan,102,,,4906JA,Oosterhout,Oosterhout,Noord-Brabant,VBO,4.832414,51.653691
Eline Verelaan,104,,,4906JA,Oosterhout,Oosterhout,Noord-Brabant,VBO,4.832433,51.653616
Eline Verelaan,106,,,4906JA,Oosterhout,Oosterhout,Noord-Brabant,VBO,4.832453,51.653536
Eline Verelaan,108,,,4906JA,Oosterhout,Oosterhout,Noord-Brabant,VBO,4.832474,51.653451
Eline Verelaan,110,,,4906JA,Oosterhout,Oosterhout,Noord-Brabant,VBO,4.832496,51.653362
Eline Verelaan,112,,,4906JA,Oosterhout,Oosterhout,Noord-Brabant,VBO,4.832370,51.653687
Eline Verelaan,114,,,4906JA,Oosterhout,Oosterhout,Noord-Brabant,VBO,4.832388,51.653612
Eline Verelaan,116,,,4906JA,Oosterhout,Oosterhout,Noord-Brabant,VBO,4.832408,51.653532
Eline Verelaan,118,,,4906JA,Oosterhout,Oosterhout,Noord-Brabant,VBO,4.832430,51.653446
Eline Verelaan,120,,,4906JA,Oosterhout,Oosterhout,Noord-Brabant,VBO,4.832452,51.653358
Eline Verelaan,122,,,4906JA,Oosterhout,Oosterhout,Noord-Brabant,VBO,4.832321,51.653680
Eline Verelaan,124,,,4906JA,Oosterhout,Oosterhout,Noord-Brabant,VBO,4.832340,51.653606
Eline Verelaan,126,,,4906JA,Oosterhout,Oosterhout,Noord-Brabant,VBO,4.832360,51.653526
Eline Verelaan,128,,,4906JA,Oosterhout,Oosterhout,Noord-Brabant,VBO,4.832381,51.653440
Eline Verelaan,130,,,4906JA,Oosterhout,Oosterhout,Noord-Brabant,VBO,4.832277,51.653676
Eline Verelaan,132,,,4906JA,Oosterhout,Oosterhout,Noord-Brabant,VBO,4.832295,51.653602
Eline Verelaan,134,,,4906JA,Oosterhout,Oosterhout,Noord-Brabant,VBO,4.832315,51.653521
Tijl Uilenspiegelstraat,4,,,4906JB,Oosterhout,Oosterhout,Noord-Brabant,VBO,4.833732,51.653477
Tijl Uilenspiegelstraat,6,,,4906JB,Oosterhout,Oosterhout,Noord-Brabant,VBO,4.833747,51.653531
Tijl Uilenspiegelstraat,8,,,4906JB,Oosterhout,Oosterhout,Noord-Brabant,VBO,4.833828,51.653688
Tijl Uilenspiegelstraat,9,,,4906JB,Oosterhout,Oosterhout,Noord-Brabant,VBO,4.835818,51.653743
Tijl Uilenspiegelstraat,10,,,4906JB,Oosterhout,Oosterhout,Noord-Brabant,VBO,4.833898,51.653724
Tijl Uilenspiegelstraat,11,,,4906JB,Oosterhout,Oosterhout,Noord-Brabant,VBO,4.836100,51.653608
Tijl Uilenspiegelstraat,12,,,4906JB,Oosterhout,Oosterhout,Noord-Brabant,VBO,4.834147,51.653759
Tijl Uilenspiegelstraat,13,,,4906JB,Oosterhout,Oosterhout,Noord-Brabant,VBO,4.836301,51.653485
Tijl Uilenspiegelstraat,14,,,4906JB,Oosterhout,Oosterhout,Noord-Brabant,VBO,4.834238,51.653765
Tijl Uilenspiegelstraat,15,,,4906JB,Oosterhout,Oosterhout,Noord-Brabant,VBO,4.836491,51.653352
Tijl Uilenspiegelstraat,16,,,4906JB,Oosterhout,Oosterhout,Noord-Brabant,VBO,4.834416,51.653778
Tijl Uilenspiegelstraat,17,,,4906JB,Oosterhout,Oosterhout,Noord-Brabant,VBO,4.836674,51.653209
Tijl Uilenspiegelstraat,18,,,4906JB,Oosterhout,Oosterhout,Noord-Brabant,VBO,4.834507,51.653785
Tijl Uilenspiegelstraat,19,,,4906JB,Oosterhout,Oosterhout,Noord-Brabant,VBO,4.836881,51.653030
Tijl Uilenspiegelstraat,20,,,4906JB,Oosterhout,Oosterhout,Noord-Brabant,VBO,4.834684,51.653798
Tijl Uilenspiegelstraat,22,,,4906JB,Oosterhout,Oosterhout,Noord-Brabant,VBO,4.834773,51.653803
Tijl Uilenspiegelstraat,24,,,4906JB,Oosterhout,Oosterhout,Noord-Brabant,VBO,4.834990,51.653808
Tijl Uilenspiegelstraat,26,,,4906JB,Oosterhout,Oosterhout,Noord-Brabant,VBO,4.835077,51.653794
Tijl Uilenspiegelstraat,28,,,4906JB,Oosterhout,Oosterhout,Noord-Brabant,VBO,4.835269,51.653729
Tijl Uilenspiegelstraat,30,,,4906JB,Oosterhout,Oosterhout,Noord-Brabant,VBO,4.835345,51.653698
Tijl Uilenspiegelstraat,32,,,4906JB,Oosterhout,Oosterhout,Noord-Brabant,VBO,4.835621,51.653569
Tijl Uilenspiegelstraat,34,,,4906JB,Oosterhout,Oosterhout,Noord-Brabant,VBO,4.835850,51.653445
Tijl Uilenspiegelstraat,36,,,4906JB,Oosterhout,Oosterhout,Noord-Brabant,VBO,4.836037,51.653329
Tijl Uilenspiegelstraat,38,,,4906JB,Oosterhout,Oosterhout,Noord-Brabant,VBO,4.836212,51.653210
Tijl Uilenspiegelstraat,40,,,4906JB,Oosterhout,Oosterhout,Noord-Brabant,VBO,4.836373,51.653082
Tijl Uilenspiegelstraat,42,,,4906JB,Oosterhout,Oosterhout,Noord-Brabant,VBO,4.836562,51.652911
Léonie van Oudyckstraat,3,,,4906JC,Oosterhout,Oosterhout,Noord-Brabant,VBO,4.835589,51.653958
Léonie van Oudyckstraat,4,,,4906JC,Oosterhout,Oosterhout,Noord-Brabant,VBO,4.835871,51.653788
Léonie van Oudyckstraat,6,,,4906JC,Oosterhout,Oosterhout,Noord-Brabant,VBO,4.836051,51.653866
Léonie van Oudyckstraat,7,,,4906JC,Oosterhout,Oosterhout,Noord-Brabant,VBO,4.838033,51.653854
Léonie van Oudyckstraat,8,,,4906JC,Oosterhout,Oosterhout,Noord-Brabant,VBO,4.836132,51.653888
Léonie van Oudyckstraat,10,,,4906JC,Oosterhout,Oosterhout,Noord-Brabant,VBO,4.836340,51.653909
Léonie van Oudyckstraat,12,,,4906JC,Oosterhout,Oosterhout,Noord-Brabant,VBO,4.836429,51.653917
Léonie van Oudyckstraat,14,,,4906JC,Oosterhout,Oosterhout,Noord-Brabant,VBO,4.836605,51.653928
Léonie van Oudyckstraat,16,,,4906JC,Oosterhout,Oosterhout,Noord-Brabant,VBO,4.836694,51.653935
Léonie van Oudyckstraat,18,,,4906JC,Oosterhout,Oosterhout,Noord-Brabant,VBO,4.836872,51.653948
Léonie van Oudyckstraat,20,,,4906JC,Oosterhout,Oosterhout,Noord-Brabant,VBO,4.836963,51.653953
Léonie van Oudyckstraat,22,,,4906JC,Oosterhout,Oosterhout,Noord-Brabant,VBO,4.837141,51.653966
Léonie van Oudyckstraat,24,,,4906JC,Oosterhout,Oosterhout,Noord-Brabant,VBO,4.837233,51.653972
Léonie van Oudyckstraat,26,,,4906JC,Oosterhout,Oosterhout,Noord-Brabant,VBO,4.837449,51.653945
Léonie van Oudyckstraat,28,,,4906JC,Oosterhout,Oosterhout,Noord-Brabant,VBO,4.837527,51.653920
Léonie van Oudyckstraat,30,,,4906JC,Oosterhout,Oosterhout,Noord-Brabant,VBO,4.837672,51.653822
Léonie van Oudyckstraat,32,,,4906JC,Oosterhout,Oosterhout,Noord-Brabant,VBO,4.837727,51.653777
Léonie van Oudyckstraat,34,,,4906JC,Oosterhout,Oosterhout,Noord-Brabant,VBO,4.837863,51.653658
Léonie van Oudyckstraat,36,,,4906JC,Oosterhout,Oosterhout,Noord-Brabant,VBO,4.838059,51.653472
Ina Dammanstraat,3,,,4906JD,Oosterhout,Oosterhout,Noord-Brabant,VBO,4.837914,51.654083
Ina Dammanstraat,4,,,4906JD,Oosterhout,Oosterhout,Noord-Brabant,VBO,4.838102,51.653889
Ina Dammanstraat,5,,,4906JD,Oosterhout,Oosterhout,Noord-Brabant,VBO,4.839346,51.654228
Ina Dammanstraat,6,,,4906JD,Oosterhout,Oosterhout,Noord-Brabant,VBO,4.838241,51.653958
Ina Dammanstraat,7,,,4906JD,Oosterhout,Oosterhout,Noord-Brabant,VBO,4.839572,51.654126
Ina Dammanstraat,8,,,4906JD,Oosterhout,Oosterhout,Noord-Brabant,VBO,4.838318,51.653992
Ina Dammanstraat,9,,,4906JD,Oosterhout,Oosterhout,Noord-Brabant,VBO,4.839611,51.654086
Ina Dammanstraat,10,,,4906JD,Oosterhout,Oosterhout,Noord-Brabant,VBO,4.838496,51.654047
Ina Dammanstraat,11,,,4906JD,Oosterhout,Oosterhout,Noord-Brabant,VBO,4.839616,51.654142
Ina Dammanstraat,12,,,4906JD,Oosterhout,Oosterhout,Noord-Brabant,VBO,4.838583,51.654063
Ina Dammanstraat,13,,,4906JD,Oosterhout,Oosterhout,Noord-Brabant,VBO,4.839655,51.654102
Ina Dammanstraat,14,,,4906JD,Oosterhout,Oosterhout,Noord-Brabant,VBO,4.838769,51.654080
Ina Dammanstraat,15,,,4906JD,Oosterhout,Oosterhout,Noord-Brabant,VBO,4.839689,51.654066
Ina Dammanstraat,16,,,4906JD,Oosterhout,Oosterhout,Noord-Brabant,VBO,4.838858,51.654086
Ina Dammanstraat,17,,,4906JD,Oosterhout,Oosterhout,Noord-Brabant,VBO,4.839659,51.654158
Ina Dammanstraat,18,,,4906JD,Oosterhout,Oosterhout,Noord-Brabant,VBO,4.839036,51.654100
Ina Dammanstraat,19,,,4906JD,Oosterhout,Oosterhout,Noord-Brabant,VBO,4.839698,51.654118
Ina Dammanstraat,20,,,4906JD,Oosterhout,Oosterhout,Noord-Brabant,VBO,4.839129,51.654105
Ina Dammanstraat,21,,,4906JD,Oosterhout,Oosterhout,Noord-Brabant,VBO,4.839732,51.654082
Ina Dammanstraat,23,,,4906JD,Oosterhout,Oosterhout,Noord-Brabant,VBO,4.839702,51.654175
Pieter Basstraat,1,,,4906JE,Oosterhout,Oosterhout,Noord-Brabant,VBO,4.837312,51.653190
Pieter Basstraat,2,,,4906JE,Oosterhout,Oosterhout,Noord-Brabant,VBO,4.837626,51.653311
Pieter Basstraat,3,,,4906JE,Oosterhout,Oosterhout,Noord-Brabant,VBO,4.837100,51.653389
Pieter Basstraat,4,,,4906JE,Oosterhout,Oosterhout,Noord-Brabant,VBO,4.837391,51.653524
Pieter Basstraat,5,,,4906JE,Oosterhout,Oosterhout,Noord-Brabant,VBO,4.836917,51.653532
Pieter Basstraat,6,,,4906JE,Oosterhout,Oosterhout,Noord-Brabant,VBO,4.837142,51.653715
Pieter Basstraat,7,,,4906JE,Oosterhout,Oosterhout,Noord-Brabant,VBO,4.836691,51.653695
Gijsbreght van Amstelstraat,1,,,4906JG,Oosterhout,Oosterhout,Noord-Brabant,VBO,4.835812,51.652630
Gijsbreght van Amstelstraat,2,,,4906JG,Oosterhout,Oosterhout,Noord-Brabant,VBO,4.836133,51.652748
Gijsbreght van Amstelstraat,3,,,4906JG,Oosterhout,Oosterhout,Noord-Brabant,VBO,4.835624,51.652798
Gijsbreght van Amstelstraat,4,,,4906JG,Oosterhout,Oosterhout,Noord-Brabant,VBO,4.835917,51.652934
Gijsbreght van Amstelstraat,5,,,4906JG,Oosterhout,Oosterhout,Noord-Brabant,VBO,4.835472,51.652917
Gijsbreght van Amstelstraat,6,,,4906JG,Oosterhout,Oosterhout,Noord-Brabant,VBO,4.835741,51.653064
Gijsbreght van Amstelstraat,7,,,4906JG,Oosterhout,Oosterhout,Noord-Brabant,VBO,4.835300,51.653024
Gijsbreght van Amstelstraat,8,,,4906JG,Oosterhout,Oosterhout,Noord-Brabant,VBO,4.835555,51.653180
Gijsbreght van Amstelstraat,9,,,4906JG,Oosterhout,Oosterhout,Noord-Brabant,VBO,4.835096,51.653137
Gijsbreght van Amstelstraat,10,,,4906JG,Oosterhout,Oosterhout,Noord-Brabant,VBO,4.835313,51.653318
Gijsbreght van Amstelstraat,11,,,4906JG,Oosterhout,Oosterhout,Noord-Brabant,VBO,4.834760,51.653275
Gijsbreght van Amstelstraat,12,,,4906JG,Oosterhout,Oosterhout,Noord-Brabant,VBO,4.834990,51.653478
Gijsbreght van Amstelstraat,13,,,4906JG,Oosterhout,Oosterhout,Noord-Brabant,VBO,4.834558,51.653352
Gijsbreght van Amstelstraat,14,,,4906JG,Oosterhout,Oosterhout,Noord-Brabant,VBO,4.834784,51.653559
Gijsbreght van Amstelstraat,15,,,4906JG,Oosterhout,Oosterhout,Noord-Brabant,VBO,4.834355,51.653419
Gijsbreght van Amstelstraat,16,,,4906JG,Oosterhout,Oosterhout,Noord-Brabant,VBO,4.834177,51.653547
Sara Burgerhartstraat,1,,,4906JH,Oosterhout,Oosterhout,Noord-Brabant,VBO,4.832477,51.653036
Sara Burgerhartstraat,2,,,4906JH,Oosterhout,Oosterhout,Noord-Brabant,VBO,4.832705,51.651824
Sara Burgerhartstraat,3,,,4906JH,Oosterhout,Oosterhout,Noord-Brabant,VBO,4.832519,51.652862
Sara Burgerhartstraat,4,,,4906JH,Oosterhout,Oosterhout,Noord-Brabant,VBO,4.832772,51.651826
Sara Burgerhartstraat,5,,,4906JH,Oosterhout,Oosterhout,Noord-Brabant,VBO,4.832530,51.652815
Sara Burgerhartstraat,6,,,4906JH,Oosterhout,Oosterhout,Noord-Brabant,VBO,4.832707,51.651808
Sara Burgerhartstraat,7,,,4906JH,Oosterhout,Oosterhout,Noord-Brabant,VBO,4.832591,51.652717
Sara Burgerhartstraat,8,,,4906JH,Oosterhout,Oosterhout,Noord-Brabant,VBO,4.832768,51.651810
Sara Burgerhartstraat,9,,,4906JH,Oosterhout,Oosterhout,Noord-Brabant,VBO,4.832599,51.652668
Sara Burgerhartstraat,10,,,4906JH,Oosterhout,Oosterhout,Noord-Brabant,VBO,4.832708,51.651792
Sara Burgerhartstraat,11,,,4906JH,Oosterhout,Oosterhout,Noord-Brabant,VBO,4.832589,51.652565
Sara Burgerhartstraat,12,,,4906JH,Oosterhout,Oosterhout,Noord-Brabant,VBO,4.832765,51.651794
Sara Burgerhartstraat,13,,,4906JH,Oosterhout,Oosterhout,Noord-Brabant,VBO,4.832603,51.652516
Sara Burgerhartstraat,14,,,4906JH,Oosterhout,Oosterhout,Noord-Brabant,VBO,4.832712,51.651775
Sara Burgerhartstraat,15,,,4906JH,Oosterhout,Oosterhout,Noord-Brabant,VBO,4.832631,51.652405
Sara Burgerhartstraat,16,,,4906JH,Oosterhout,Oosterhout,Noord-Brabant,VBO,4.832762,51.651778
Sara Burgerhartstraat,17,,,4906JH,Oosterhout,Oosterhout,Noord-Brabant,VBO,4.832648,51.652338
Sara Burgerhartstraat,18,,,4906JH,Oosterhout,Oosterhout,Noord-Brabant,VBO,4.832712,51.651759
Sara Burgerhartstraat,19,,,4906JH,Oosterhout,Oosterhout,Noord-Brabant,VBO,4.832737,51.652168
Sara Burgerhartstraat,20,,,4906JH,Oosterhout,Oosterhout,Noord-Brabant,VBO,4.832761,51.651761
Sara Burgerhartstraat,21,,,4906JH,Oosterhout,Oosterhout,Noord-Brabant,VBO,4.832838,51.652166
Sara Burgerhartstraat,22,,,4906JH,Oosterhout,Oosterhout,Noord-Brabant,VBO,4.832717,51.651743
Sara Burgerhartstraat,23,,,4906JH,Oosterhout,Oosterhout,Noord-Brabant,VBO,4.833253,51.652110
Sara Burgerhartstraat,24,,,4906JH,Oosterhout,Oosterhout,Noord-Brabant,VBO,4.832760,51.651744
Sara Burgerhartstraat,25,,,4906JH,Oosterhout,Oosterhout,Noord-Brabant,VBO,4.833333,51.652084
Sara Burgerhartstraat,26,,,4906JH,Oosterhout,Oosterhout,Noord-Brabant,VBO,4.832737,51.651733
Sara Burgerhartstraat,27,,,4906JH,Oosterhout,Oosterhout,Noord-Brabant,VBO,4.833679,51.651922
Sara Burgerhartstraat,28,,,4906JH,Oosterhout,Oosterhout,Noord-Brabant,VBO,4.833008,51.651799
Sara Burgerhartstraat,29,,,4906JH,Oosterhout,Oosterhout,Noord-Brabant,VBO,4.833742,51.651881
Sara Burgerhartstraat,30,,,4906JH,Oosterhout,Oosterhout,Noord-Brabant,VBO,4.833095,51.651776
Sara Burgerhartstraat,31,,,4906JH,Oosterhout,Oosterhout,Noord-Brabant,VBO,4.834003,51.651942
Sara Burgerhartstraat,32,,,4906JH,Oosterhout,Oosterhout,Noord-Brabant,VBO,4.833172,51.651747
Sara Burgerhartstraat,33,,,4906JH,Oosterhout,Oosterhout,Noord-Brabant,VBO,4.834097,51.651977
Sara Burgerhartstraat,34,,,4906JH,Oosterhout,Oosterhout,Noord-Brabant,VBO,4.833245,51.651710
Sara Burgerhartstraat,35,,,4906JH,Oosterhout,Oosterhout,Noord-Brabant,VBO,4.834254,51.652034
Sara Burgerhartstraat,36,,,4906JH,Oosterhout,Oosterhout,Noord-Brabant,VBO,4.833308,51.651669
Sara Burgerhartstraat,37,,,4906JH,Oosterhout,Oosterhout,Noord-Brabant,VBO,4.834324,51.652062
Sara Burgerhartstraat,38,,,4906JH,Oosterhout,Oosterhout,Noord-Brabant,VBO,4.833362,51.651620
Sara Burgerhartstraat,39,,,4906JH,Oosterhout,Oosterhout,Noord-Brabant,VBO,4.834439,51.652135
Sara Burgerhartstraat,40,,,4906JH,Oosterhout,Oosterhout,Noord-Brabant,VBO,4.832994,51.651774
Sara Burgerhartstraat,41,,,4906JH,Oosterhout,Oosterhout,Noord-Brabant,VBO,4.834509,51.652159
Sara Burgerhartstraat,42,,,4906JH,Oosterhout,Oosterhout,Noord-Brabant,VBO,4.833076,51.651752
Sara Burgerhartstraat,43,,,4906JH,Oosterhout,Oosterhout,Noord-Brabant,VBO,4.834669,51.652191
Sara Burgerhartstraat,44,,,4906JH,Oosterhout,Oosterhout,Noord-Brabant,VBO,4.833148,51.651725
Sara Burgerhartstraat,45,,,4906JH,Oosterhout,Oosterhout,Noord-Brabant,VBO,4.834741,51.652217
Sara Burgerhartstraat,46,,,4906JH,Oosterhout,Oosterhout,Noord-Brabant,VBO,4.833216,51.651690
Sara Burgerhartstraat,47,,,4906JH,Oosterhout,Oosterhout,Noord-Brabant,VBO,4.834972,51.652310
Sara Burgerhartstraat,48,,,4906JH,Oosterhout,Oosterhout,Noord-Brabant,VBO,4.833275,51.651652
Sara Burgerhartstraat,50,,,4906JH,Oosterhout,Oosterhout,Noord-Brabant,VBO,4.833325,51.651607
Sara Burgerhartstraat,52,,,4906JH,Oosterhout,Oosterhout,Noord-Brabant,VBO,4.833357,51.651564
Sara Burgerhartstraat,54,,,4906JH,Oosterhout,Oosterhout,Noord-Brabant,VBO,4.833384,51.651525
Sara Burgerhartstraat,56,,,4906JH,Oosterhout,Oosterhout,Noord-Brabant,VBO,4.833405,51.651485
Sara Burgerhartstraat,58,,,4906JH,Oosterhout,Oosterhout,Noord-Brabant,VBO,4.833418,51.651449
Sara Burgerhartstraat,60,,,4906JH,Oosterhout,Oosterhout,Noord-Brabant,VBO,4.832979,51.651748
Sara Burgerhartstraat,62,,,4906JH,Oosterhout,Oosterhout,Noord-Brabant,VBO,4.833056,51.651728
Sara Burgerhartstraat,64,,,4906JH,Oosterhout,Oosterhout,Noord-Brabant,VBO,4.833123,51.651703
Sara Burgerhartstraat,66,,,4906JH,Oosterhout,Oosterhout,Noord-Brabant,VBO,4.833186,51.651670
Sara Burgerhartstraat,68,,,4906JH,Oosterhout,Oosterhout,Noord-Brabant,VBO,4.833241,51.651635
Sara Burgerhartstraat,70,,,4906JH,Oosterhout,Oosterhout,Noord-Brabant,VBO,4.833288,51.651593
Sara Burgerhartstraat,72,,,4906JH,Oosterhout,Oosterhout,Noord-Brabant,VBO,4.833318,51.651552
Sara Burgerhartstraat,74,,,4906JH,Oosterhout,Oosterhout,Noord-Brabant,VBO,4.833343,51.651516
Sara Burgerhartstraat,76,,,4906JH,Oosterhout,Oosterhout,Noord-Brabant,VBO,4.833363,51.651481
Sara Burgerhartstraat,78,,,4906JH,Oosterhout,Oosterhout,Noord-Brabant,VBO,4.833376,51.651444
Woutertje Pietersestraat,1,,,4906JJ,Oosterhout,Oosterhout,Noord-Brabant,VBO,4.833550,51.652971
Woutertje Pietersestraat,2,,,4906JJ,Oosterhout,Oosterhout,Noord-Brabant,VBO,4.833194,51.653022
Woutertje Pietersestraat,3,,,4906JJ,Oosterhout,Oosterhout,Noord-Brabant,VBO,4.833477,51.652803
Woutertje Pietersestraat,4,,,4906JJ,Oosterhout,Oosterhout,Noord-Brabant,VBO,4.833133,51.652851
Woutertje Pietersestraat,5,,,4906JJ,Oosterhout,Oosterhout,Noord-Brabant,VBO,4.833458,51.652754
Woutertje Pietersestraat,6,,,4906JJ,Oosterhout,Oosterhout,Noord-Brabant,VBO,4.833112,51.652801
Woutertje Pietersestraat,7,,,4906JJ,Oosterhout,Oosterhout,Noord-Brabant,VBO,4.833450,51.652650
Woutertje Pietersestraat,8,,,4906JJ,Oosterhout,Oosterhout,Noord-Brabant,VBO,4.833043,51.652709
Woutertje Pietersestraat,9,,,4906JJ,Oosterhout,Oosterhout,Noord-Brabant,VBO,4.833435,51.652602
Woutertje Pietersestraat,10,,,4906JJ,Oosterhout,Oosterhout,Noord-Brabant,VBO,4.833025,51.652659
Woutertje Pietersestraat,11,,,4906JJ,Oosterhout,Oosterhout,Noord-Brabant,VBO,4.833360,51.652508
Woutertje Pietersestraat,12,,,4906JJ,Oosterhout,Oosterhout,Noord-Brabant,VBO,4.833022,51.652555
Woutertje Pietersestraat,13,,,4906JJ,Oosterhout,Oosterhout,Noord-Brabant,VBO,4.833342,51.652460
Woutertje Pietersestraat,14,,,4906JJ,Oosterhout,Oosterhout,Noord-Brabant,VBO,4.833004,51.652507
Woutertje Pietersestraat,15,,,4906JJ,Oosterhout,Oosterhout,Noord-Brabant,VBO,4.833294,51.652351
Woutertje Pietersestraat,16,,,4906JJ,Oosterhout,Oosterhout,Noord-Brabant,VBO,4.832966,51.652398
Woutertje Pietersestraat,17,,,4906JJ,Oosterhout,Oosterhout,Noord-Brabant,VBO,4.833264,51.652285
Woutertje Pietersestraat,18,,,4906JJ,Oosterhout,Oosterhout,Noord-Brabant,VBO,4.832942,51.652330
Thijs Glorieusstraat,1,,,4906JK,Oosterhout,Oosterhout,Noord-Brabant,VBO,4.834492,51.652642
Thijs Glorieusstraat,2,,,4906JK,Oosterhout,Oosterhout,Noord-Brabant,VBO,4.834203,51.652779
Thijs Glorieusstraat,3,,,4906JK,Oosterhout,Oosterhout,Noord-Brabant,VBO,4.834320,51.652507
Thijs Glorieusstraat,4,,,4906JK,Oosterhout,Oosterhout,Noord-Brabant,VBO,4.834043,51.652638
Thijs Glorieusstraat,5,,,4906JK,Oosterhout,Oosterhout,Noord-Brabant,VBO,4.834274,51.652465
Thijs Glorieusstraat,6,,,4906JK,Oosterhout,Oosterhout,Noord-Brabant,VBO,4.833993,51.652598
Thijs Glorieusstraat,7,,,4906JK,Oosterhout,Oosterhout,Noord-Brabant,VBO,4.834202,51.652371
Thijs Glorieusstraat,8,,,4906JK,Oosterhout,Oosterhout,Noord-Brabant,VBO,4.833870,51.652528
Thijs Glorieusstraat,9,,,4906JK,Oosterhout,Oosterhout,Noord-Brabant,VBO,4.834158,51.652331
Thijs Glorieusstraat,10,,,4906JK,Oosterhout,Oosterhout,Noord-Brabant,VBO,4.833820,51.652490
Thijs Glorieusstraat,11,,,4906JK,Oosterhout,Oosterhout,Noord-Brabant,VBO,4.834032,51.652264
Thijs Glorieusstraat,12,,,4906JK,Oosterhout,Oosterhout,Noord-Brabant,VBO,4.833755,51.652393
Thijs Glorieusstraat,13,,,4906JK,Oosterhout,Oosterhout,Noord-Brabant,VBO,4.833984,51.652222
Thijs Glorieusstraat,14,,,4906JK,Oosterhout,Oosterhout,Noord-Brabant,VBO,4.833709,51.652352
Thijs Glorieusstraat,15,,,4906JK,Oosterhout,Oosterhout,Noord-Brabant,VBO,4.833869,51.652134
Thijs Glorieusstraat,16,,,4906JK,Oosterhout,Oosterhout,Noord-Brabant,VBO,4.833606,51.652261
Thijs Glorieusstraat,17,,,4906JK,Oosterhout,Oosterhout,Noord-Brabant,VBO,4.833804,51.652077
Thijs Glorieusstraat,18,,,4906JK,Oosterhout,Oosterhout,Noord-Brabant,VBO,4.833533,51.652204
Markkant,3,,,4906KB,Oosterhout,Oosterhout,Noord-Brabant,VBO,4.832908,51.646477
Markkant,5,A,,4906KB,Oosterhout,Oosterhout,Noord-Brabant,VBO,4.832829,51.646775
Markkant,5,,,4906KB,Oosterhout,Oosterhout,Noord-Brabant,VBO,4.832839,51.646736
Markkant,7,A,,4906KB,Oosterhout,Oosterhout,Noord-Brabant,VBO,4.832806,51.646867
Markkant,7,,,4906KB,Oosterhout,Oosterhout,Noord-Brabant,VBO,4.832814,51.646835
Markkant,9,A,,4906KB,Oosterhout,Oosterhout,Noord-Brabant,VBO,4.832783,51.646958
Markkant,9,,,4906KB,Oosterhout,Oosterhout,Noord-Brabant,VBO,4.832792,51.646924
Markkant,11,,,4906KB,Oosterhout,Oosterhout,Noord-Brabant,VBO,4.832747,51.647010
Markkant,15,,,4906KB,Oosterhout,Oosterhout,Noord-Brabant,VBO,4.832326,51.646782
Markkant,17,,,4906KB,Oosterhout,Oosterhout,Noord-Brabant,VBO,4.832257,51.646708
Markkant,19,,,4906KB,Oosterhout,Oosterhout,Noord-Brabant,VBO,4.832199,51.646636
Markkant,21,,,4906KB,Oosterhout,Oosterhout,Noord-Brabant,VBO,4.832126,51.646563
Markkant,23,,,4906KB,Oosterhout,Oosterhout,Noord-Brabant,VBO,4.832072,51.646495
Markkant,25,,,4906KB,Oosterhout,Oosterhout,Noord-Brabant,VBO,4.831845,51.646487
Markkant,27,,,4906KB,Oosterhout,Oosterhout,Noord-Brabant,VBO,4.831829,51.646536
Markkant,29,,,4906KB,Oosterhout,Oosterhout,Noord-Brabant,VBO,4.831817,51.646583
Markkant,31,,,4906KB,Oosterhout,Oosterhout,Noord-Brabant,VBO,4.831805,51.646631
Markkant,33,,,4906KB,Oosterhout,Oosterhout,Noord-Brabant,VBO,4.831791,51.646681
Markkant,35,,,4906KB,Oosterhout,Oosterhout,Noord-Brabant,VBO,4.831781,51.646727
Markkant,37,,,4906KB,Oosterhout,Oosterhout,Noord-Brabant,VBO,4.831767,51.646777
Markkant,39,,,4906KB,Oosterhout,Oosterhout,Noord-Brabant,VBO,4.831754,51.646824
Markkant,41,,,4906KB,Oosterhout,Oosterhout,Noord-Brabant,VBO,4.831735,51.647011
Markkant,43,,,4906KB,Oosterhout,Oosterhout,Noord-Brabant,VBO,4.831657,51.647003
Markkant,45,,,4906KB,Oosterhout,Oosterhout,Noord-Brabant,VBO,4.831577,51.646992
Markkant,47,,,4906KB,Oosterhout,Oosterhout,Noord-Brabant,VBO,4.831309,51.646903
Markkant,49,,,4906KB,Oosterhout,Oosterhout,Noord-Brabant,VBO,4.831246,51.646831
Markkant,51,,,4906KB,Oosterhout,Oosterhout,Noord-Brabant,VBO,4.831177,51.646755
Markkant,53,,,4906KB,Oosterhout,Oosterhout,Noord-Brabant,VBO,4.831114,51.646686
Markkant,55,,,4906KB,Oosterhout,Oosterhout,Noord-Brabant,VBO,4.831048,51.646613
Markkant,57,,,4906KB,Oosterhout,Oosterhout,Noord-Brabant,VBO,4.830825,51.646608
Markkant,59,,,4906KB,Oosterhout,Oosterhout,Noord-Brabant,VBO,4.830811,51.646658
Markkant,61,,,4906KB,Oosterhout,Oosterhout,Noord-Brabant,VBO,4.830795,51.646707
Markkant,63,,,4906KB,Oosterhout,Oosterhout,Noord-Brabant,VBO,4.830785,51.646755
Markkant,65,,,4906KB,Oosterhout,Oosterhout,Noord-Brabant,VBO,4.830771,51.646805
Markkant,67,,,4906KB,Oosterhout,Oosterhout,Noord-Brabant,VBO,4.830760,51.646851
Markkant,69,,,4906KB,Oosterhout,Oosterhout,Noord-Brabant,VBO,4.830740,51.647038
Markkant,71,,,4906KB,Oosterhout,Oosterhout,Noord-Brabant,VBO,4.830661,51.647029
Markkant,73,,,4906KB,Oosterhout,Oosterhout,Noord-Brabant,VBO,4.830581,51.647022
Markkant,75,,,4906KB,Oosterhout,Oosterhout,Noord-Brabant,VBO,4.830304,51.646988
Markkant,77,,,4906KB,Oosterhout,Oosterhout,Noord-Brabant,VBO,4.830228,51.646915
Markkant,79,,,4906KB,Oosterhout,Oosterhout,Noord-Brabant,VBO,4.830172,51.646845
Markkant,81,,,4906KB,Oosterhout,Oosterhout,Noord-Brabant,VBO,4.830104,51.646773
Markkant,83,,,4906KB,Oosterhout,Oosterhout,Noord-Brabant,VBO,4.830048,51.646700
Markkant,85,,,4906KB,Oosterhout,Oosterhout,Noord-Brabant,VBO,4.829829,51.646694
Markkant,87,,,4906KB,Oosterhout,Oosterhout,Noord-Brabant,VBO,4.829815,51.646745
Markkant,89,,,4906KB,Oosterhout,Oosterhout,Noord-Brabant,VBO,4.829802,51.646791
Markkant,91,,,4906KB,Oosterhout,Oosterhout,Noord-Brabant,VBO,4.829791,51.646841
Markkant,93,,,4906KB,Oosterhout,Oosterhout,Noord-Brabant,VBO,4.829778,51.646889
Markkant,95,,,4906KB,Oosterhout,Oosterhout,Noord-Brabant,VBO,4.829767,51.646938
Markkant,97,,,4906KB,Oosterhout,Oosterhout,Noord-Brabant,VBO,4.829390,51.647021
Markkant,99,,,4906KB,Oosterhout,Oosterhout,Noord-Brabant,VBO,4.829374,51.647082
Markkant,101,,,4906KB,Oosterhout,Oosterhout,Noord-Brabant,VBO,4.829354,51.647018
Markkant,103,,,4906KB,Oosterhout,Oosterhout,Noord-Brabant,VBO,4.829338,51.647079
Markkant,105,,,4906KB,Oosterhout,Oosterhout,Noord-Brabant,VBO,4.829567,51.647068
Markkant,107,,,4906KB,Oosterhout,Oosterhout,Noord-Brabant,VBO,4.829319,51.647015
Markkant,109,,,4906KB,Oosterhout,Oosterhout,Noord-Brabant,VBO,4.829302,51.647076
Markkant,111,,,4906KB,Oosterhout,Oosterhout,Noord-Brabant,VBO,4.829531,51.647065
Markkant,113,,,4906KB,Oosterhout,Oosterhout,Noord-Brabant,VBO,4.829283,51.647012
Markkant,115,,,4906KB,Oosterhout,Oosterhout,Noord-Brabant,VBO,4.829266,51.647073
Markkant,117,,,4906KB,Oosterhout,Oosterhout,Noord-Brabant,VBO,4.829495,51.647062
Markkant,119,,,4906KB,Oosterhout,Oosterhout,Noord-Brabant,VBO,4.829247,51.647009
Markkant,121,,,4906KB,Oosterhout,Oosterhout,Noord-Brabant,VBO,4.829230,51.647070
Markkant,123,,,4906KB,Oosterhout,Oosterhout,Noord-Brabant,VBO,4.829459,51.647059
Markkant,125,,,4906KB,Oosterhout,Oosterhout,Noord-Brabant,VBO,4.829211,51.647006
Markkant,127,,,4906KB,Oosterhout,Oosterhout,Noord-Brabant,VBO,4.829423,51.647056
Burgemeester Huijbregts-Schiedonlaan,2,,,4906KD,Oosterhout,Oosterhout,Noord-Brabant,VBO,4.832916,51.648088
Markkant,8,,,4906KD,Oosterhout,Oosterhout,Noord-Brabant,VBO,4.832696,51.647187
Markkant,10,,,4906KD,Oosterhout,Oosterhout,Noord-Brabant,VBO,4.832726,51.647301
Markkant,14,,,4906KD,Oosterhout,Oosterhout,Noord-Brabant,VBO,4.832675,51.647590
Markkant,16,,,4906KD,Oosterhout,Oosterhout,Noord-Brabant,VBO,4.832558,51.647580
Markkant,18,,,4906KD,Oosterhout,Oosterhout,Noord-Brabant,VBO,4.832400,51.647565
Markkant,20,,,4906KD,Oosterhout,Oosterhout,Noord-Brabant,VBO,4.832299,51.647554
Markkant,22,,,4906KD,Oosterhout,Oosterhout,Noord-Brabant,VBO,4.832602,51.647658
Markkant,24,,,4906KD,Oosterhout,Oosterhout,Noord-Brabant,VBO,4.832619,51.647598
Markkant,26,,,4906KD,Oosterhout,Oosterhout,Noord-Brabant,VBO,4.832340,51.647572
Markkant,28,,,4906KD,Oosterhout,Oosterhout,Noord-Brabant,VBO,4.832324,51.647631
Markkant,30,,,4906KD,Oosterhout,Oosterhout,Noord-Brabant,VBO,4.832601,51.647665
Markkant,32,,,4906KD,Oosterhout,Oosterhout,Noord-Brabant,VBO,4.832617,51.647605
Markkant,34,,,4906KD,Oosterhout,Oosterhout,Noord-Brabant,VBO,4.832338,51.647579
Markkant,36,,,4906KD,Oosterhout,Oosterhout,Noord-Brabant,VBO,4.832322,51.647639
Markkant,38,,,4906KD,Oosterhout,Oosterhout,Noord-Brabant,VBO,4.832599,51.647673
Markkant,40,,,4906KD,Oosterhout,Oosterhout,Noord-Brabant,VBO,4.832615,51.647612
Markkant,42,,,4906KD,Oosterhout,Oosterhout,Noord-Brabant,VBO,4.832336,51.647586
Markkant,44,,,4906KD,Oosterhout,Oosterhout,Noord-Brabant,VBO,4.832319,51.647646
Markkant,46,,,4906KD,Oosterhout,Oosterhout,Noord-Brabant,VBO,4.832597,51.647680
Markkant,48,,,4906KD,Oosterhout,Oosterhout,Noord-Brabant,VBO,4.832614,51.647619
Markkant,50,,,4906KD,Oosterhout,Oosterhout,Noord-Brabant,VBO,4.832335,51.647593
Markkant,52,,,4906KD,Oosterhout,Oosterhout,Noord-Brabant,VBO,4.832319,51.647653
Markkant,54,,,4906KD,Oosterhout,Oosterhout,Noord-Brabant,VBO,4.832595,51.647687
Markkant,56,,,4906KD,Oosterhout,Oosterhout,Noord-Brabant,VBO,4.832612,51.647626
Markkant,58,,,4906KD,Oosterhout,Oosterhout,Noord-Brabant,VBO,4.832333,51.647600
Markkant,60,,,4906KD,Oosterhout,Oosterhout,Noord-Brabant,VBO,4.832317,51.647660
Markkant,62,,,4906KD,Oosterhout,Oosterhout,Noord-Brabant,VBO,4.832593,51.647694
Markkant,64,,,4906KD,Oosterhout,Oosterhout,Noord-Brabant,VBO,4.832610,51.647633
Markkant,66,,,4906KD,Oosterhout,Oosterhout,Noord-Brabant,VBO,4.832331,51.647608
Markkant,68,,,4906KD,Oosterhout,Oosterhout,Noord-Brabant,VBO,4.832315,51.647667
Markkant,72,,,4906KD,Oosterhout,Oosterhout,Noord-Brabant,VBO,4.831904,51.647477
Markkant,74,,,4906KD,Oosterhout,Oosterhout,Noord-Brabant,VBO,4.831886,51.647563
Markkant,76,,,4906KD,Oosterhout,Oosterhout,Noord-Brabant,VBO,4.831658,51.647455
Markkant,78,,,4906KD,Oosterhout,Oosterhout,Noord-Brabant,VBO,4.831641,51.647535
Markkant,80,,,4906KD,Oosterhout,Oosterhout,Noord-Brabant,VBO,4.831404,51.647516
Markkant,82,,,4906KD,Oosterhout,Oosterhout,Noord-Brabant,VBO,4.831429,51.647432
Markkant,84,,,4906KD,Oosterhout,Oosterhout,Noord-Brabant,VBO,4.831179,51.647410
Markkant,86,,,4906KD,Oosterhout,Oosterhout,Noord-Brabant,VBO,4.831162,51.647486
Markkant,88,,,4906KD,Oosterhout,Oosterhout,Noord-Brabant,VBO,4.830922,51.647470
Markkant,90,,,4906KD,Oosterhout,Oosterhout,Noord-Brabant,VBO,4.830941,51.647382
Markkant,92,,,4906KD,Oosterhout,Oosterhout,Noord-Brabant,VBO,4.830701,51.647363
Markkant,94,,,4906KD,Oosterhout,Oosterhout,Noord-Brabant,VBO,4.830681,51.647445
Markkant,96,,,4906KD,Oosterhout,Oosterhout,Noord-Brabant,VBO,4.830441,51.647423
Markkant,98,,,4906KD,Oosterhout,Oosterhout,Noord-Brabant,VBO,4.830462,51.647340
Markkant,100,,,4906KD,Oosterhout,Oosterhout,Noord-Brabant,VBO,4.830220,51.647317
Markkant,102,,,4906KD,Oosterhout,Oosterhout,Noord-Brabant,VBO,4.830199,51.647399
Markkant,104,,,4906KD,Oosterhout,Oosterhout,Noord-Brabant,VBO,4.829959,51.647380
Markkant,106,,,4906KD,Oosterhout,Oosterhout,Noord-Brabant,VBO,4.829979,51.647293
Markkant,108,,,4906KD,Oosterhout,Oosterhout,Noord-Brabant,VBO,4.829737,51.647269
Markkant,110,,,4906KD,Oosterhout,Oosterhout,Noord-Brabant,VBO,4.829718,51.647352
IJzertijd,1,,,4906LD,Oosterhout,Oosterhout,Noord-Brabant,VBO,4.829580,51.649046
IJzertijd,3,,,4906LD,Oosterhout,Oosterhout,Noord-Brabant,VBO,4.829503,51.649053
IJzertijd,5,,,4906LD,Oosterhout,Oosterhout,Noord-Brabant,VBO,4.829430,51.649060
IJzertijd,7,,,4906LD,Oosterhout,Oosterhout,Noord-Brabant,VBO,4.829355,51.649068
IJzertijd,9,,,4906LD,Oosterhout,Oosterhout,Noord-Brabant,VBO,4.829280,51.649073
IJzertijd,11,,,4906LD,Oosterhout,Oosterhout,Noord-Brabant,VBO,4.829182,51.649073
IJzertijd,13,,,4906LD,Oosterhout,Oosterhout,Noord-Brabant,VBO,4.829043,51.649085
IJzertijd,15,,,4906LD,Oosterhout,Oosterhout,Noord-Brabant,VBO,4.828950,51.649103
IJzertijd,17,,,4906LD,Oosterhout,Oosterhout,Noord-Brabant,VBO,4.828875,51.649111
IJzertijd,19,,,4906LD,Oosterhout,Oosterhout,Noord-Brabant,VBO,4.828799,51.649117
IJzertijd,21,,,4906LD,Oosterhout,Oosterhout,Noord-Brabant,VBO,4.828726,51.649124
IJzertijd,23,,,4906LD,Oosterhout,Oosterhout,Noord-Brabant,VBO,4.828652,51.649132
IJzertijd,25,,,4906LD,Oosterhout,Oosterhout,Noord-Brabant,VBO,4.828551,51.649130
IJzertijd,27,,,4906LD,Oosterhout,Oosterhout,Noord-Brabant,VBO,4.828413,51.649142
IJzertijd,29,,,4906LD,Oosterhout,Oosterhout,Noord-Brabant,VBO,4.828319,51.649160
IJzertijd,31,,,4906LD,Oosterhout,Oosterhout,Noord-Brabant,VBO,4.828246,51.649167
IJzertijd,33,,,4906LD,Oosterhout,Oosterhout,Noord-Brabant,VBO,4.828171,51.649175
IJzertijd,35,,,4906LD,Oosterhout,Oosterhout,Noord-Brabant,VBO,4.828096,51.649181
IJzertijd,37,,,4906LD,Oosterhout,Oosterhout,Noord-Brabant,VBO,4.828013,51.649188
IJzertijd,38,,,4906LD,Oosterhout,Oosterhout,Noord-Brabant,VBO,4.827671,51.649617
IJzertijd,39,,,4906LD,Oosterhout,Oosterhout,Noord-Brabant,VBO,4.827547,51.649237
IJzertijd,40,,,4906LD,Oosterhout,Oosterhout,Noord-Brabant,VBO,4.827589,51.649624
IJzertijd,41,,,4906LD,Oosterhout,Oosterhout,Noord-Brabant,VBO,4.827344,51.649254
IJzertijd,42,,,4906LD,Oosterhout,Oosterhout,Noord-Brabant,VBO,4.827516,51.649631
IJzertijd,43,,,4906LD,Oosterhout,Oosterhout,Noord-Brabant,VBO,4.827260,51.649256
IJzertijd,44,,,4906LD,Oosterhout,Oosterhout,Noord-Brabant,VBO,4.827441,51.649636
IJzertijd,45,,,4906LD,Oosterhout,Oosterhout,Noord-Brabant,VBO,4.827182,51.649263
IJzertijd,46,,,4906LD,Oosterhout,Oosterhout,Noord-Brabant,VBO,4.827345,51.649656
IJzertijd,47,,,4906LD,Oosterhout,Oosterhout,Noord-Brabant,VBO,4.827105,51.649270
IJzertijd,48,,,4906LD,Oosterhout,Oosterhout,Noord-Brabant,VBO,4.827207,51.649669
IJzertijd,49,,,4906LD,Oosterhout,Oosterhout,Noord-Brabant,VBO,4.827025,51.649282
IJzertijd,50,,,4906LD,Oosterhout,Oosterhout,Noord-Brabant,VBO,4.827108,51.649668
IJzertijd,51,,,4906LD,Oosterhout,Oosterhout,Noord-Brabant,VBO,4.826851,51.649297
IJzertijd,52,,,4906LD,Oosterhout,Oosterhout,Noord-Brabant,VBO,4.827033,51.649673
IJzertijd,53,,,4906LD,Oosterhout,Oosterhout,Noord-Brabant,VBO,4.826769,51.649300
IJzertijd,54,,,4906LD,Oosterhout,Oosterhout,Noord-Brabant,VBO,4.826958,51.649681
IJzertijd,55,,,4906LD,Oosterhout,Oosterhout,Noord-Brabant,VBO,4.826691,51.649307
IJzertijd,56,,,4906LD,Oosterhout,Oosterhout,Noord-Brabant,VBO,4.826876,51.649689
IJzertijd,57,,,4906LD,Oosterhout,Oosterhout,Noord-Brabant,VBO,4.826614,51.649314
IJzertijd,59,,,4906LD,Oosterhout,Oosterhout,Noord-Brabant,VBO,4.826532,51.649326
IJzertijd,61,,,4906LD,Oosterhout,Oosterhout,Noord-Brabant,VBO,4.826359,51.649337
IJzertijd,63,,,4906LD,Oosterhout,Oosterhout,Noord-Brabant,VBO,4.826270,51.649343
Nieuwe Herstraat,14,,,4906LM,Oosterhout,Oosterhout,Noord-Brabant,VBO,4.823728,51.650458
Nieuwe Herstraat,16,,,4906LM,Oosterhout,Oosterhout,Noord-Brabant,VBO,4.823559,51.650450
Nieuwe Herstraat,18,,,4906LM,Oosterhout,Oosterhout,Noord-Brabant,VBO,4.823440,51.650442
Nieuwe Herstraat,20,,,4906LM,Oosterhout,Oosterhout,Noord-Brabant,VBO,4.823294,51.650432
Nieuwe Herstraat,22,,,4906LM,Oosterhout,Oosterhout,Noord-Brabant,VBO,4.823177,51.650425
Nieuwe Herstraat,24,,,4906LM,Oosterhout,Oosterhout,Noord-Brabant,VBO,4.823030,51.650415
Nieuwe Herstraat,26,,,4906LM,Oosterhout,Oosterhout,Noord-Brabant,VBO,4.822911,51.650408
Nieuwe Herstraat,28,,,4906LM,Oosterhout,Oosterhout,Noord-Brabant,VBO,4.822743,51.650395
Steentijd,1,,,4906LN,Oosterhout,Oosterhout,Noord-Brabant,VBO,4.827663,51.649803
Steentijd,3,,,4906LN,Oosterhout,Oosterhout,Noord-Brabant,VBO,4.827675,51.649855
Steentijd,5,,,4906LN,Oosterhout,Oosterhout,Noord-Brabant,VBO,4.827687,51.649906
Steentijd,7,,,4906LN,Oosterhout,Oosterhout,Noord-Brabant,VBO,4.827699,51.649958
Steentijd,9,,,4906LN,Oosterhout,Oosterhout,Noord-Brabant,VBO,4.827735,51.650051
Steentijd,11,,,4906LN,Oosterhout,Oosterhout,Noord-Brabant,VBO,4.827748,51.650103
Steentijd,13,,,4906LN,Oosterhout,Oosterhout,Noord-Brabant,VBO,4.827759,51.650153
Steentijd,15,,,4906LN,Oosterhout,Oosterhout,Noord-Brabant,VBO,4.827771,51.650204
Steentijd,17,,,4906LN,Oosterhout,Oosterhout,Noord-Brabant,VBO,4.827784,51.650256
Slijpsteen,1,,,4906LP,Oosterhout,Oosterhout,Noord-Brabant,VBO,4.827821,51.650424
Slijpsteen,2,,,4906LP,Oosterhout,Oosterhout,Noord-Brabant,VBO,4.828018,51.650729
Slijpsteen,3,,,4906LP,Oosterhout,Oosterhout,Noord-Brabant,VBO,4.827721,51.650447
Slijpsteen,4,,,4906LP,Oosterhout,Oosterhout,Noord-Brabant,VBO,4.827818,51.650747
Slijpsteen,5,,,4906LP,Oosterhout,Oosterhout,Noord-Brabant,VBO,4.827506,51.650463
Slijpsteen,6,,,4906LP,Oosterhout,Oosterhout,Noord-Brabant,VBO,4.827683,51.650762
Slijpsteen,7,,,4906LP,Oosterhout,Oosterhout,Noord-Brabant,VBO,4.827423,51.650474
Slijpsteen,8,,,4906LP,Oosterhout,Oosterhout,Noord-Brabant,VBO,4.827509,51.650778
Slijpsteen,9,,,4906LP,Oosterhout,Oosterhout,Noord-Brabant,VBO,4.827208,51.650490
Slijpsteen,10,,,4906LP,Oosterhout,Oosterhout,Noord-Brabant,VBO,4.827373,51.650787
Slijpsteen,11,,,4906LP,Oosterhout,Oosterhout,Noord-Brabant,VBO,4.827103,51.650489
Slijpsteen,12,,,4906LP,Oosterhout,Oosterhout,Noord-Brabant,VBO,4.827173,51.650805
Vuursteen,2,,,4906LR,Oosterhout,Oosterhout,Noord-Brabant,VBO,4.826955,51.649867
Vuursteen,4,,,4906LR,Oosterhout,Oosterhout,Noord-Brabant,VBO,4.826967,51.649919
Vuursteen,6,,,4906LR,Oosterhout,Oosterhout,Noord-Brabant,VBO,4.826979,51.649970
Vuursteen,8,,,4906LR,Oosterhout,Oosterhout,Noord-Brabant,VBO,4.826991,51.650020
Vuursteen,10,,,4906LR,Oosterhout,Oosterhout,Noord-Brabant,VBO,4.827003,51.650072
Vuursteen,11,,,4906LR,Oosterhout,Oosterhout,Noord-Brabant,VBO,4.826634,51.650610
Vuursteen,12,,,4906LR,Oosterhout,Oosterhout,Noord-Brabant,VBO,4.827039,51.650165
Vuursteen,13,,,4906LR,Oosterhout,Oosterhout,Noord-Brabant,VBO,4.826646,51.650662
Vuursteen,14,,,4906LR,Oosterhout,Oosterhout,Noord-Brabant,VBO,4.827051,51.650217
Vuursteen,15,,,4906LR,Oosterhout,Oosterhout,Noord-Brabant,VBO,4.826657,51.650707
Vuursteen,16,,,4906LR,Oosterhout,Oosterhout,Noord-Brabant,VBO,4.827063,51.650268
Vuursteen,17,,,4906LR,Oosterhout,Oosterhout,Noord-Brabant,VBO,4.826669,51.650758
Vuursteen,18,,,4906LR,Oosterhout,Oosterhout,Noord-Brabant,VBO,4.827075,51.650320
Kling,2,,,4906LS,Oosterhout,Oosterhout,Noord-Brabant,VBO,4.826286,51.650616
Kling,4,,,4906LS,Oosterhout,Oosterhout,Noord-Brabant,VBO,4.826201,51.650611
Kling,6,,,4906LS,Oosterhout,Oosterhout,Noord-Brabant,VBO,4.825971,51.650592
Kling,8,,,4906LS,Oosterhout,Oosterhout,Noord-Brabant,VBO,4.825885,51.650590
Tegula,1,,,4906LW,Oosterhout,Oosterhout,Noord-Brabant,VBO,4.823810,51.650735
Tegula,6,,,4906LW,Oosterhout,Oosterhout,Noord-Brabant,VBO,4.823466,51.650997
Pijlpunt,1,,,4906MA,Oosterhout,Oosterhout,Noord-Brabant,VBO,4.826375,51.650805
Pijlpunt,3,,,4906MA,Oosterhout,Oosterhout,Noord-Brabant,VBO,4.826296,51.650825
Pijlpunt,5,,,4906MA,Oosterhout,Oosterhout,Noord-Brabant,VBO,4.826097,51.650881
Pijlpunt,7,,,4906MA,Oosterhout,Oosterhout,Noord-Brabant,VBO,4.826016,51.650898
Herweg,13,,,4906MB,Oosterhout,Oosterhout,Noord-Brabant,VBO,4.825719,51.648712
Herweg,17,,,4906MB,Oosterhout,Oosterhout,Noord-Brabant,VBO,4.825242,51.649977
Herweg,21,,,4906MB,Oosterhout,Oosterhout,Noord-Brabant,VBO,4.825261,51.650749
Herweg,27,,,4906MB,Oosterhout,Oosterhout,Noord-Brabant,VBO,4.825401,51.651223
Herweg,35,,,4906MB,Oosterhout,Oosterhout,Noord-Brabant,VBO,4.825891,51.652848
Weststadweg,1,,,4906MK,Oosterhout,Oosterhout,Noord-Brabant,VBO,4.828669,51.656192
