openbareruimtenaam,huisnummer,huisletter,huisnummertoevoeging,postcode,woonplaatsnaam,gemeentenaam,provincienaam,typeadresseerbaarobject,longitude,latitude
Liniestraat,2,,,4911AA,Den Hout,Oosterhout,Noord-Brabant,VBO,4.791201,51.660550
Liniestraat,4,,,4911AA,Den Hout,Oosterhout,Noord-Brabant,VBO,4.791740,51.661442
Liniestraat,6,,,4911AA,Den Hout,Oosterhout,Noord-Brabant,VBO,4.792246,51.661762
Liniestraat,8,,,4911AA,Den Hout,Oosterhout,Noord-Brabant,VBO,4.792163,51.662557
Dordrechtseweg,1,A,,4911AB,Den Hout,Oosterhout,Noord-Brabant,VBO,4.804744,51.658335
Dordrechtseweg,1,,,4911AB,Den Hout,Oosterhout,Noord-Brabant,VBO,4.804890,51.658514
Dordrechtseweg,2,,,4911AB,Den Hout,Oosterhout,Noord-Brabant,VBO,4.805368,51.658590
Dordrechtseweg,3,,,4911AB,Den Hout,Oosterhout,Noord-Brabant,VBO,4.804957,51.659646
Dordrechtseweg,4,,,4911AB,Den Hout,Oosterhout,Noord-Brabant,VBO,4.805371,51.658933
Dordrechtseweg,8,,,4911AB,Den Hout,Oosterhout,Noord-Brabant,VBO,4.804884,51.660524
Dordrechtseweg,10,,,4911AB,Den Hout,Oosterhout,Noord-Brabant,VBO,4.804893,51.660727
Dordrechtseweg,12,,,4911AB,Den Hout,Oosterhout,Noord-Brabant,VBO,4.804817,51.660860
Dordrechtseweg,13,,,4911AB,Den Hout,Oosterhout,Noord-Brabant,VBO,4.802496,51.664262
Dordrechtseweg,14,,,4911AB,Den Hout,Oosterhout,Noord-Brabant,VBO,4.804282,51.662609
Dordrechtseweg,15,,,4911AB,Den Hout,Oosterhout,Noord-Brabant,VBO,4.802689,51.664726
Dordrechtseweg,16,A,,4911AB,Den Hout,Oosterhout,Noord-Brabant,VBO,4.803461,51.664153
Dordrechtseweg,16,,,4911AB,Den Hout,Oosterhout,Noord-Brabant,VBO,4.803493,51.664040
Stelvenseweg,1,,,4911AC,Den Hout,Oosterhout,Noord-Brabant,VBO,4.814538,51.666068
Stelvenseweg,3,,,4911AC,Den Hout,Oosterhout,Noord-Brabant,VBO,4.814621,51.666640
Stelvenseweg,4,A,,4911AC,Den Hout,Oosterhout,Noord-Brabant,VBO,4.821858,51.671670
Stelvenseweg,4,,,4911AC,Den Hout,Oosterhout,Noord-Brabant,VBO,4.821599,51.671544
Stelvenseweg,7,,,4911AC,Den Hout,Oosterhout,Noord-Brabant,VBO,4.818993,51.670368
Hespelaar,1,,,4911AD,Den Hout,Oosterhout,Noord-Brabant,VBO,4.814225,51.663814
Hespelaar,5,,,4911AD,Den Hout,Oosterhout,Noord-Brabant,VBO,4.814257,51.664454
Hespelaar,7,,,4911AD,Den Hout,Oosterhout,Noord-Brabant,VBO,4.814173,51.664542
Hespelaar,13,,,4911AD,Den Hout,Oosterhout,Noord-Brabant,VBO,4.812213,51.665635
Hespelaar,15,,,4911AD,Den Hout,Oosterhout,Noord-Brabant,VBO,4.811958,51.665527
Hespelaar,19,,,4911AD,Den Hout,Oosterhout,Noord-Brabant,VBO,4.810518,51.665396
Hespelaar,23,A,,4911AD,Den Hout,Oosterhout,Noord-Brabant,VBO,4.809354,51.663938
Hespelaar,23,,,4911AD,Den Hout,Oosterhout,Noord-Brabant,VBO,4.808968,51.663922
Hespelaar,25,,,4911AD,Den Hout,Oosterhout,Noord-Brabant,VBO,4.808886,51.665438
Hespelaar,29,,,4911AD,Den Hout,Oosterhout,Noord-Brabant,VBO,4.807313,51.665505
Hespelaar,37,,,4911AD,Den Hout,Oosterhout,Noord-Brabant,VBO,4.803377,51.664976
Hespelaar,2,,,4911AE,Den Hout,Oosterhout,Noord-Brabant,VBO,4.814553,51.664083
Hespelaar,4,A,,4911AE,Den Hout,Oosterhout,Noord-Brabant,VBO,4.814825,51.664646
Hespelaar,4,,,4911AE,Den Hout,Oosterhout,Noord-Brabant,VBO,4.814617,51.664406
Hespelaar,6,,,4911AE,Den Hout,Oosterhout,Noord-Brabant,VBO,4.814917,51.664871
Hespelaar,8,,,4911AE,Den Hout,Oosterhout,Noord-Brabant,VBO,4.814225,51.665692
Hespelaar,14,,,4911AE,Den Hout,Oosterhout,Noord-Brabant,VBO,4.812473,51.665857
Hespelaar,16,,,4911AE,Den Hout,Oosterhout,Noord-Brabant,VBO,4.812304,51.665855
Hespelaar,20,,,4911AE,Den Hout,Oosterhout,Noord-Brabant,VBO,4.810384,51.665811
Hespelaar,24,A,,4911AE,Den Hout,Oosterhout,Noord-Brabant,VBO,4.809217,51.665767
Hespelaar,24,,,4911AE,Den Hout,Oosterhout,Noord-Brabant,VBO,4.809402,51.665769
Hespelaar,30,,,4911AE,Den Hout,Oosterhout,Noord-Brabant,VBO,4.805965,51.665948
Moerstraat,2,,,4911AG,Den Hout,Oosterhout,Noord-Brabant,VBO,4.803020,51.664094
Moerstraat,3,,,4911AG,Den Hout,Oosterhout,Noord-Brabant,VBO,4.801315,51.663200
Moerstraat,9,A,,4911AG,Den Hout,Oosterhout,Noord-Brabant,VBO,4.798247,51.662613
Moerstraat,9,,,4911AG,Den Hout,Oosterhout,Noord-Brabant,VBO,4.798260,51.662480
Moerstraat,10,,,4911AG,Den Hout,Oosterhout,Noord-Brabant,VBO,4.793692,51.662613
Moerstraat,12,,,4911AG,Den Hout,Oosterhout,Noord-Brabant,VBO,4.792966,51.662580
Houteindsestraat,17,,,4911AH,Den Hout,Oosterhout,Noord-Brabant,VBO,4.790075,51.656564
Houteindsestraat,19,,,4911AH,Den Hout,Oosterhout,Noord-Brabant,VBO,4.790249,51.657415
Houteindsestraat,21,,,4911AH,Den Hout,Oosterhout,Noord-Brabant,VBO,4.790319,51.657697
Houteindsestraat,23,A,,4911AH,Den Hout,Oosterhout,Noord-Brabant,VBO,4.790117,51.658011
Houteindsestraat,23,,,4911AH,Den Hout,Oosterhout,Noord-Brabant,VBO,4.790345,51.657983
Houteindsestraat,25,,,4911AH,Den Hout,Oosterhout,Noord-Brabant,VBO,4.790425,51.658483
Houteindsestraat,29,,,4911AH,Den Hout,Oosterhout,Noord-Brabant,VBO,4.790500,51.660152
Houteindsestraat,31,,,4911AH,Den Hout,Oosterhout,Noord-Brabant,VBO,4.790080,51.660815
Houteindsestraat,16,,,4911AJ,Den Hout,Oosterhout,Noord-Brabant,VBO,4.790759,51.657262
Houteindsestraat,20,,,4911AJ,Den Hout,Oosterhout,Noord-Brabant,VBO,4.791062,51.659690
Houteindsestraat,22,,,4911AJ,Den Hout,Oosterhout,Noord-Brabant,VBO,4.791088,51.659848
Schransmansdreef,2,,,4911AK,Den Hout,Oosterhout,Noord-Brabant,VBO,4.786744,51.655656
Schransmansdreef,7,,,4911AK,Den Hout,Oosterhout,Noord-Brabant,VBO,4.789844,51.656547
Schransmansdreef,8,,,4911AK,Den Hout,Oosterhout,Noord-Brabant,VBO,4.788173,51.655931
Bankenweg,4,,,4911AL,Den Hout,Oosterhout,Noord-Brabant,VBO,4.794794,51.646409
Bankenweg,5,,,4911AL,Den Hout,Oosterhout,Noord-Brabant,VBO,4.799567,51.645593
Bankenweg,6,,,4911AL,Den Hout,Oosterhout,Noord-Brabant,VBO,4.795360,51.645380
Bankenweg,7,,,4911AL,Den Hout,Oosterhout,Noord-Brabant,VBO,4.794492,51.644735
Bankenweg,9,,,4911AL,Den Hout,Oosterhout,Noord-Brabant,VBO,4.793733,51.644692
Hultenkant,6,,,4911AM,Den Hout,Oosterhout,Noord-Brabant,VBO,4.795148,51.655400
Hultenkant,10,,,4911AM,Den Hout,Oosterhout,Noord-Brabant,VBO,4.795970,51.654784
Hultenkant,14,,,4911AM,Den Hout,Oosterhout,Noord-Brabant,VBO,4.795807,51.654101
Hultenkant,16,,,4911AM,Den Hout,Oosterhout,Noord-Brabant,VBO,4.794815,51.653723
Markkanaalpad,1,,,4911AM,Den Hout,Oosterhout,Noord-Brabant,VBO,4.802554,51.644356
Witteweg,2,A,,4911AN,Den Hout,Oosterhout,Noord-Brabant,VBO,4.792652,51.645257
Witteweg,2,,,4911AN,Den Hout,Oosterhout,Noord-Brabant,VBO,4.792724,51.645146
Witteweg,4,,,4911AN,Den Hout,Oosterhout,Noord-Brabant,VBO,4.791917,51.646471
Eindsepad,1,,,4911AP,Den Hout,Oosterhout,Noord-Brabant,VBO,4.810095,51.657928
Eindsepad,3,,,4911AP,Den Hout,Oosterhout,Noord-Brabant,VBO,4.809627,51.658017
Eindsepad,5,,,4911AP,Den Hout,Oosterhout,Noord-Brabant,VBO,4.809287,51.658013
Eindsepad,7,A,,4911AP,Den Hout,Oosterhout,Noord-Brabant,VBO,4.808049,51.657994
Eindsepad,7,,,4911AP,Den Hout,Oosterhout,Noord-Brabant,VBO,4.808664,51.658030
Eindsepad,9,,,4911AP,Den Hout,Oosterhout,Noord-Brabant,VBO,4.807643,51.657976
Eindsepad,11,,,4911AP,Den Hout,Oosterhout,Noord-Brabant,VBO,4.806945,51.657812
Eindsepad,21,,,4911AP,Den Hout,Oosterhout,Noord-Brabant,VBO,4.793835,51.656290
Eindsepad,25,,,4911AP,Den Hout,Oosterhout,Noord-Brabant,VBO,4.793618,51.656515
Eindsepad,2,,,4911AR,Den Hout,Oosterhout,Noord-Brabant,VBO,4.809370,51.658172
Eindsepad,4,,,4911AR,Den Hout,Oosterhout,Noord-Brabant,VBO,4.808954,51.658231
Eindsepad,6,,,4911AR,Den Hout,Oosterhout,Noord-Brabant,VBO,4.808499,51.658278
Eindsepad,8,,,4911AR,Den Hout,Oosterhout,Noord-Brabant,VBO,4.808047,51.658225
Eindsepad,10,,,4911AR,Den Hout,Oosterhout,Noord-Brabant,VBO,4.807725,51.658210
Eindsepad,12,,,4911AR,Den Hout,Oosterhout,Noord-Brabant,VBO,4.806814,51.658142
Eindsepad,14,,,4911AR,Den Hout,Oosterhout,Noord-Brabant,VBO,4.805817,51.658042
Eindsepad,16,,,4911AR,Den Hout,Oosterhout,Noord-Brabant,VBO,4.805577,51.658049
Eindsepad,18,,,4911AR,Den Hout,Oosterhout,Noord-Brabant,VBO,4.805387,51.658046
Eindsepad,20,A,,4911AR,Den Hout,Oosterhout,Noord-Brabant,VBO,4.804759,51.657880
Eindsepad,20,,,4911AR,Den Hout,Oosterhout,Noord-Brabant,VBO,4.805104,51.657949
Eindsepad,22,,,4911AR,Den Hout,Oosterhout,Noord-Brabant,VBO,4.804413,51.657827
Houtse Pad,1,A,,4911AS,Den Hout,Oosterhout,Noord-Brabant,VBO,4.809675,51.661081
Houtse Pad,1,,,4911AS,Den Hout,Oosterhout,Noord-Brabant,VBO,4.811716,51.661000
Houtse Pad,3,A,,4911AS,Den Hout,Oosterhout,Noord-Brabant,VBO,4.807146,51.661066
Houtse Pad,3,B,,4911AS,Den Hout,Oosterhout,Noord-Brabant,VBO,4.807124,51.661390
Houtse Pad,3,,,4911AS,Den Hout,Oosterhout,Noord-Brabant,VBO,4.807275,51.661051
Houtse Pad,4,,,4911AS,Den Hout,Oosterhout,Noord-Brabant,VBO,4.807372,51.661491
Houtse Pad,5,,,4911AS,Den Hout,Oosterhout,Noord-Brabant,VBO,4.804838,51.661641
Houtse Heuvel,1,,,4911AT,Den Hout,Oosterhout,Noord-Brabant,VBO,4.812507,51.657778
Houtse Heuvel,3,,,4911AT,Den Hout,Oosterhout,Noord-Brabant,VBO,4.812107,51.657478
Houtse Heuvel,5,,,4911AT,Den Hout,Oosterhout,Noord-Brabant,VBO,4.811962,51.657842
Houtse Heuvel,7,A,,4911AT,Den Hout,Oosterhout,Noord-Brabant,VBO,4.811784,51.657751
Houtse Heuvel,7,,,4911AT,Den Hout,Oosterhout,Noord-Brabant,VBO,4.811753,51.657872
Houtse Heuvel,9,,,4911AT,Den Hout,Oosterhout,Noord-Brabant,VBO,4.811624,51.657890
Houtse Heuvel,11,,,4911AT,Den Hout,Oosterhout,Noord-Brabant,VBO,4.811493,51.657909
Houtse Heuvel,13,,,4911AT,Den Hout,Oosterhout,Noord-Brabant,VBO,4.811353,51.657925
Houtse Heuvel,15,A,,4911AT,Den Hout,Oosterhout,Noord-Brabant,VBO,4.811173,51.657942
Houtse Heuvel,15,,,4911AT,Den Hout,Oosterhout,Noord-Brabant,VBO,4.811106,51.657947
Houtse Heuvel,17,A,,4911AT,Den Hout,Oosterhout,Noord-Brabant,VBO,4.810853,51.657924
Houtse Heuvel,17,,,4911AT,Den Hout,Oosterhout,Noord-Brabant,VBO,4.810839,51.657969
Houtse Heuvel,19,,,4911AT,Den Hout,Oosterhout,Noord-Brabant,VBO,4.810694,51.657977
Houtse Heuvel,21,,,4911AT,Den Hout,Oosterhout,Noord-Brabant,VBO,4.810505,51.657990
Houtse Heuvel,23,A,,4911AT,Den Hout,Oosterhout,Noord-Brabant,VBO,4.810004,51.658339
Houtse Heuvel,23,,,4911AT,Den Hout,Oosterhout,Noord-Brabant,VBO,4.809908,51.658225
Houtse Heuvel,25,,,4911AT,Den Hout,Oosterhout,Noord-Brabant,VBO,4.810050,51.658404
Houtse Heuvel,29,,,4911AT,Den Hout,Oosterhout,Noord-Brabant,VBO,4.810383,51.658764
Houtse Heuvel,31,,,4911AT,Den Hout,Oosterhout,Noord-Brabant,VBO,4.810580,51.659015
Houtse Heuvel,33,,,4911AT,Den Hout,Oosterhout,Noord-Brabant,VBO,4.810708,51.659181
Houtse Heuvel,35,A,,4911AT,Den Hout,Oosterhout,Noord-Brabant,VBO,4.810885,51.659429
Houtse Heuvel,35,,,4911AT,Den Hout,Oosterhout,Noord-Brabant,VBO,4.810808,51.659320
Houtse Heuvel,37,,,4911AV,Den Hout,Oosterhout,Noord-Brabant,VBO,4.811001,51.659558
Houtse Heuvel,39,,,4911AV,Den Hout,Oosterhout,Noord-Brabant,VBO,4.811080,51.659664
Houtse Heuvel,41,,,4911AV,Den Hout,Oosterhout,Noord-Brabant,VBO,4.811154,51.659764
Houtse Heuvel,43,A,,4911AV,Den Hout,Oosterhout,Noord-Brabant,VBO,4.810991,51.660000
Houtse Heuvel,43,,,4911AV,Den Hout,Oosterhout,Noord-Brabant,VBO,4.811309,51.660008
Houtse Heuvel,45,,,4911AV,Den Hout,Oosterhout,Noord-Brabant,VBO,4.811506,51.660192
Houtse Heuvel,47,A,,4911AV,Den Hout,Oosterhout,Noord-Brabant,VBO,4.811681,51.660405
Houtse Heuvel,47,,,4911AV,Den Hout,Oosterhout,Noord-Brabant,VBO,4.811577,51.660289
Houtse Heuvel,49,,,4911AV,Den Hout,Oosterhout,Noord-Brabant,VBO,4.811890,51.660679
Houtse Heuvel,51,,,4911AV,Den Hout,Oosterhout,Noord-Brabant,VBO,4.811986,51.660806
Houtse Heuvel,53,,,4911AV,Den Hout,Oosterhout,Noord-Brabant,VBO,4.812060,51.660910
Houtse Heuvel,55,,,4911AV,Den Hout,Oosterhout,Noord-Brabant,VBO,4.812249,51.661149
Houtse Heuvel,57,,,4911AV,Den Hout,Oosterhout,Noord-Brabant,VBO,4.812566,51.661566
Houtse Heuvel,59,A,,4911AV,Den Hout,Oosterhout,Noord-Brabant,VBO,4.812619,51.661752
Houtse Heuvel,59,B,,4911AV,Den Hout,Oosterhout,Noord-Brabant,VBO,4.812475,51.661782
Houtse Heuvel,59,,,4911AV,Den Hout,Oosterhout,Noord-Brabant,VBO,4.812776,51.661864
Houtse Heuvel,61,A,,4911AV,Den Hout,Oosterhout,Noord-Brabant,VBO,4.813052,51.662260
Houtse Heuvel,61,,,4911AV,Den Hout,Oosterhout,Noord-Brabant,VBO,4.812974,51.662151
Houtse Heuvel,63,,,4911AV,Den Hout,Oosterhout,Noord-Brabant,VBO,4.813197,51.662462
Houtse Heuvel,65,,,4911AV,Den Hout,Oosterhout,Noord-Brabant,VBO,4.813548,51.662768
Houtse Heuvel,67,,,4911AV,Den Hout,Oosterhout,Noord-Brabant,VBO,4.813762,51.663077
Houtse Heuvel,69,A,,4911AV,Den Hout,Oosterhout,Noord-Brabant,VBO,4.814000,51.663457
Houtse Heuvel,69,,,4911AV,Den Hout,Oosterhout,Noord-Brabant,VBO,4.813936,51.663349
Houtse Heuvel,71,,,4911AV,Den Hout,Oosterhout,Noord-Brabant,VBO,4.814052,51.663534
Houtse Heuvel,2,,,4911AW,Den Hout,Oosterhout,Noord-Brabant,VBO,4.812847,51.657960
Houtse Heuvel,4,,,4911AW,Den Hout,Oosterhout,Noord-Brabant,VBO,4.812699,51.658137
Houtse Heuvel,6,A,,4911AW,Den Hout,Oosterhout,Noord-Brabant,VBO,4.812639,51.658231
Houtse Heuvel,6,,,4911AW,Den Hout,Oosterhout,Noord-Brabant,VBO,4.812606,51.658284
Houtse Heuvel,8,A,,4911AW,Den Hout,Oosterhout,Noord-Brabant,VBO,4.812551,51.658404
Houtse Heuvel,8,,,4911AW,Den Hout,Oosterhout,Noord-Brabant,VBO,4.812575,51.658358
Houtse Heuvel,10,,,4911AW,Den Hout,Oosterhout,Noord-Brabant,VBO,4.812437,51.658540
Houtse Heuvel,12,,,4911AW,Den Hout,Oosterhout,Noord-Brabant,VBO,4.812561,51.658697
Houtse Heuvel,14,,,4911AW,Den Hout,Oosterhout,Noord-Brabant,VBO,4.812506,51.658875
Houtse Heuvel,16,,,4911AW,Den Hout,Oosterhout,Noord-Brabant,VBO,4.812521,51.659022
Houtse Heuvel,18,,,4911AW,Den Hout,Oosterhout,Noord-Brabant,VBO,4.813055,51.659271
Houtse Heuvel,20,,,4911AW,Den Hout,Oosterhout,Noord-Brabant,VBO,4.812552,51.659240
Houtse Heuvel,22,,,4911AW,Den Hout,Oosterhout,Noord-Brabant,VBO,4.812565,51.659305
Houtse Heuvel,24,A,,4911AW,Den Hout,Oosterhout,Noord-Brabant,VBO,4.812646,51.659575
Houtse Heuvel,24,,,4911AW,Den Hout,Oosterhout,Noord-Brabant,VBO,4.812647,51.659458
Houtse Heuvel,26,,,4911AW,Den Hout,Oosterhout,Noord-Brabant,VBO,4.812682,51.659683
Houtse Heuvel,28,,,4911AW,Den Hout,Oosterhout,Noord-Brabant,VBO,4.812762,51.659761
Houtse Heuvel,30,A,,4911AW,Den Hout,Oosterhout,Noord-Brabant,VBO,4.814044,51.660119
Houtse Heuvel,30,,,4911AW,Den Hout,Oosterhout,Noord-Brabant,VBO,4.812802,51.659907
Houtse Heuvel,32,A,,4911AW,Den Hout,Oosterhout,Noord-Brabant,VBO,4.813120,51.660413
Houtse Heuvel,32,,,4911AW,Den Hout,Oosterhout,Noord-Brabant,VBO,4.813050,51.660252
Houtse Heuvel,34,,,4911AW,Den Hout,Oosterhout,Noord-Brabant,VBO,4.813202,51.660614
Houtse Heuvel,36,A,,4911AW,Den Hout,Oosterhout,Noord-Brabant,VBO,4.813455,51.661122
Houtse Heuvel,36,B,,4911AW,Den Hout,Oosterhout,Noord-Brabant,VBO,4.813506,51.661271
Houtse Heuvel,36,,,4911AW,Den Hout,Oosterhout,Noord-Brabant,VBO,4.813399,51.660863
Houtse Heuvel,38,A,,4911AW,Den Hout,Oosterhout,Noord-Brabant,VBO,4.813638,51.661545
Houtse Heuvel,38,,,4911AW,Den Hout,Oosterhout,Noord-Brabant,VBO,4.813603,51.661470
Houtse Heuvel,40,,,4911AW,Den Hout,Oosterhout,Noord-Brabant,VBO,4.813670,51.661606
Houtse Heuvel,42,A,,4911AW,Den Hout,Oosterhout,Noord-Brabant,VBO,4.813778,51.661765
Houtse Heuvel,42,,,4911AW,Den Hout,Oosterhout,Noord-Brabant,VBO,4.813739,51.661701
Houtse Heuvel,44,A,,4911AW,Den Hout,Oosterhout,Noord-Brabant,VBO,4.813843,51.661863
Houtse Heuvel,44,,,4911AW,Den Hout,Oosterhout,Noord-Brabant,VBO,4.813814,51.661820
Houtse Heuvel,46,,,4911AW,Den Hout,Oosterhout,Noord-Brabant,VBO,4.813894,51.661961
Houtse Heuvel,48,,,4911AW,Den Hout,Oosterhout,Noord-Brabant,VBO,4.813926,51.662014
Houtse Heuvel,50,,,4911AW,Den Hout,Oosterhout,Noord-Brabant,VBO,4.814044,51.662192
Houtse Heuvel,52,,,4911AW,Den Hout,Oosterhout,Noord-Brabant,VBO,4.814106,51.662341
Houtse Heuvel,54,,,4911AW,Den Hout,Oosterhout,Noord-Brabant,VBO,4.814205,51.662520
Houtse Heuvel,58,,,4911AW,Den Hout,Oosterhout,Noord-Brabant,VBO,4.814344,51.662775
Achterstraat,1,,,4911AX,Den Hout,Oosterhout,Noord-Brabant,VBO,4.820434,51.657374
Achterstraat,3,,,4911AX,Den Hout,Oosterhout,Noord-Brabant,VBO,4.820152,51.657683
Achterstraat,7,,,4911AX,Den Hout,Oosterhout,Noord-Brabant,VBO,4.819029,51.658843
Achterstraat,9,,,4911AX,Den Hout,Oosterhout,Noord-Brabant,VBO,4.818712,51.659279
Achterstraat,13,A,,4911AX,Den Hout,Oosterhout,Noord-Brabant,VBO,4.817815,51.660625
Achterstraat,13,,,4911AX,Den Hout,Oosterhout,Noord-Brabant,VBO,4.818088,51.660059
Achterstraat,15,,,4911AX,Den Hout,Oosterhout,Noord-Brabant,VBO,4.817703,51.661019
Achterstraat,17,,,4911AX,Den Hout,Oosterhout,Noord-Brabant,VBO,4.817592,51.661189
Achterstraat,21,,,4911AX,Den Hout,Oosterhout,Noord-Brabant,VBO,4.816526,51.661580
Achterstraat,25,,,4911AX,Den Hout,Oosterhout,Noord-Brabant,VBO,4.816774,51.662018
Achterstraat,27,A,,4911AX,Den Hout,Oosterhout,Noord-Brabant,VBO,4.815989,51.662418
Achterstraat,27,D,,4911AX,Den Hout,Oosterhout,Noord-Brabant,VBO,4.814999,51.662965
Achterstraat,27,,,4911AX,Den Hout,Oosterhout,Noord-Brabant,VBO,4.816438,51.662153
Achterstraat,29,,,4911AX,Den Hout,Oosterhout,Noord-Brabant,VBO,4.814686,51.663219
Achterstraat,2,A,,4911AZ,Den Hout,Oosterhout,Noord-Brabant,VBO,4.821710,51.656386
Achterstraat,2,B,,4911AZ,Den Hout,Oosterhout,Noord-Brabant,VBO,4.821790,51.656526
Achterstraat,2,,,4911AZ,Den Hout,Oosterhout,Noord-Brabant,VBO,4.821491,51.656685
Achterstraat,4,,,4911AZ,Den Hout,Oosterhout,Noord-Brabant,VBO,4.821223,51.656976
Achterstraat,6,,,4911AZ,Den Hout,Oosterhout,Noord-Brabant,VBO,4.820310,51.658032
Achterstraat,8,,,4911AZ,Den Hout,Oosterhout,Noord-Brabant,VBO,4.819954,51.658456
Achterstraat,10,A,,4911AZ,Den Hout,Oosterhout,Noord-Brabant,VBO,4.819394,51.659185
Achterstraat,10,,,4911AZ,Den Hout,Oosterhout,Noord-Brabant,VBO,4.819630,51.658904
Achterstraat,12,,,4911AZ,Den Hout,Oosterhout,Noord-Brabant,VBO,4.818650,51.659980
Achterstraat,14,A,,4911AZ,Den Hout,Oosterhout,Noord-Brabant,VBO,4.818240,51.660829
Achterstraat,14,,,4911AZ,Den Hout,Oosterhout,Noord-Brabant,VBO,4.818365,51.660501
Achterstraat,16,A,,4911AZ,Den Hout,Oosterhout,Noord-Brabant,VBO,4.817988,51.661279
Achterstraat,16,,,4911AZ,Den Hout,Oosterhout,Noord-Brabant,VBO,4.818066,51.661160
Achterstraat,18,,,4911AZ,Den Hout,Oosterhout,Noord-Brabant,VBO,4.817636,51.661658
Achterstraat,20,,,4911AZ,Den Hout,Oosterhout,Noord-Brabant,VBO,4.817594,51.662137
Achterstraat,24,,,4911AZ,Den Hout,Oosterhout,Noord-Brabant,VBO,4.816952,51.662194
Achterstraat,26,,,4911AZ,Den Hout,Oosterhout,Noord-Brabant,VBO,4.815482,51.663302
Achterstraat,28,A,,4911AZ,Den Hout,Oosterhout,Noord-Brabant,VBO,4.815503,51.663672
Achterstraat,28,,,4911AZ,Den Hout,Oosterhout,Noord-Brabant,VBO,4.815028,51.663622
Achterstraat,30,,,4911AZ,Den Hout,Oosterhout,Noord-Brabant,VBO,4.814750,51.663725
Middenakker,2,,,4911BA,Den Hout,Oosterhout,Noord-Brabant,VBO,4.812734,51.656594
Middenakker,4,,,4911BA,Den Hout,Oosterhout,Noord-Brabant,VBO,4.812838,51.656452
Middenakker,6,,,4911BA,Den Hout,Oosterhout,Noord-Brabant,VBO,4.812938,51.656329
Middenakker,8,,,4911BA,Den Hout,Oosterhout,Noord-Brabant,VBO,4.813063,51.656121
Middenakker,10,,,4911BA,Den Hout,Oosterhout,Noord-Brabant,VBO,4.812970,51.656098
Middenakker,12,,,4911BA,Den Hout,Oosterhout,Noord-Brabant,VBO,4.812810,51.656063
Middenakker,14,,,4911BA,Den Hout,Oosterhout,Noord-Brabant,VBO,4.812750,51.656045
Middenakker,18,,,4911BA,Den Hout,Oosterhout,Noord-Brabant,VBO,4.812827,51.655850
Middenakker,20,,,4911BA,Den Hout,Oosterhout,Noord-Brabant,VBO,4.812866,51.655790
Middenakker,22,,,4911BA,Den Hout,Oosterhout,Noord-Brabant,VBO,4.812971,51.655648
Middenakker,24,,,4911BA,Den Hout,Oosterhout,Noord-Brabant,VBO,4.813011,51.655590
Middenakker,26,,,4911BA,Den Hout,Oosterhout,Noord-Brabant,VBO,4.813167,51.655462
Middenakker,28,,,4911BA,Den Hout,Oosterhout,Noord-Brabant,VBO,4.813253,51.655336
Middenakker,30,,,4911BA,Den Hout,Oosterhout,Noord-Brabant,VBO,4.813335,51.655217
Ruiterspoor,1,,,4911BA,Den Hout,Oosterhout,Noord-Brabant,VBO,4.810442,51.657729
Ruiterspoor,3,,,4911BA,Den Hout,Oosterhout,Noord-Brabant,VBO,4.810287,51.657678
Ruiterspoor,5,,,4911BA,Den Hout,Oosterhout,Noord-Brabant,VBO,4.810264,51.657490
Ruiterspoor,7,,,4911BA,Den Hout,Oosterhout,Noord-Brabant,VBO,4.810264,51.657331
Ruiterspoor,9,,,4911BA,Den Hout,Oosterhout,Noord-Brabant,VBO,4.810357,51.657051
Ruiterspoor,11,,,4911BA,Den Hout,Oosterhout,Noord-Brabant,VBO,4.810348,51.657001
Ruiterspoor,13,,,4911BA,Den Hout,Oosterhout,Noord-Brabant,VBO,4.810339,51.656952
Ruiterspoor,15,,,4911BA,Den Hout,Oosterhout,Noord-Brabant,VBO,4.810329,51.656898
Ruiterspoor,17,,,4911BA,Den Hout,Oosterhout,Noord-Brabant,VBO,4.810319,51.656842
Ruiterspoor,19,,,4911BA,Den Hout,Oosterhout,Noord-Brabant,VBO,4.810303,51.656757
Ruiterspoor,21,A,,4911BA,Den Hout,Oosterhout,Noord-Brabant,VBO,4.810160,51.656359
Ruiterspoor,21,B,,4911BA,Den Hout,Oosterhout,Noord-Brabant,VBO,4.810162,51.656306
Ruiterspoor,21,C,,4911BA,Den Hout,Oosterhout,Noord-Brabant,VBO,4.810164,51.656256
Ruiterspoor,21,D,,4911BA,Den Hout,Oosterhout,Noord-Brabant,VBO,4.810166,51.656202
Ruiterspoor,21,,,4911BA,Den Hout,Oosterhout,Noord-Brabant,VBO,4.810274,51.656604
Ruiterspoor,23,A,,4911BA,Den Hout,Oosterhout,Noord-Brabant,VBO,4.810172,51.656050
Ruiterspoor,23,B,,4911BA,Den Hout,Oosterhout,Noord-Brabant,VBO,4.810173,51.656001
Ruiterspoor,23,C,,4911BA,Den Hout,Oosterhout,Noord-Brabant,VBO,4.810176,51.655948
Ruiterspoor,23,,,4911BA,Den Hout,Oosterhout,Noord-Brabant,VBO,4.810170,51.656109
Ruiterspoor,25,,,4911BA,Den Hout,Oosterhout,Noord-Brabant,VBO,4.810138,51.655825
Ruiterspoor,27,,,4911BA,Den Hout,Oosterhout,Noord-Brabant,VBO,4.810173,51.655685
Ruiterspoor,31,,,4911BA,Den Hout,Oosterhout,Noord-Brabant,VBO,4.810200,51.655230
Ruiterspoor,33,,,4911BA,Den Hout,Oosterhout,Noord-Brabant,VBO,4.810172,51.655167
Ruiterspoor,35,,,4911BA,Den Hout,Oosterhout,Noord-Brabant,VBO,4.810120,51.655051
Ruiterspoor,37,,,4911BA,Den Hout,Oosterhout,Noord-Brabant,VBO,4.810094,51.654992
Ruiterspoor,39,,,4911BA,Den Hout,Oosterhout,Noord-Brabant,VBO,4.810013,51.654881
Ruiterspoor,41,,,4911BA,Den Hout,Oosterhout,Noord-Brabant,VBO,4.809990,51.654830
Ruiterspoor,43,,,4911BA,Den Hout,Oosterhout,Noord-Brabant,VBO,4.809937,51.654711
Ruiterspoor,45,,,4911BA,Den Hout,Oosterhout,Noord-Brabant,VBO,4.809907,51.654647
Ruiterspoor,47,,,4911BA,Den Hout,Oosterhout,Noord-Brabant,VBO,4.809546,51.652602
Ruiterspoor,67,,,4911BA,Den Hout,Oosterhout,Noord-Brabant,VBO,4.808571,51.647480
Ruiterspoor,69,,,4911BA,Den Hout,Oosterhout,Noord-Brabant,VBO,4.808548,51.647069
Ruiterspoor,71,,,4911BA,Den Hout,Oosterhout,Noord-Brabant,VBO,4.808414,51.646506
Ruiterspoor,73,,,4911BA,Den Hout,Oosterhout,Noord-Brabant,VBO,4.808817,51.646508
Ruiterspoor,75,,,4911BA,Den Hout,Oosterhout,Noord-Brabant,VBO,4.809815,51.646903
Ruiterspoor,77,,,4911BA,Den Hout,Oosterhout,Noord-Brabant,VBO,4.811322,51.646572
Middenakker,1,,,4911BB,Den Hout,Oosterhout,Noord-Brabant,VBO,4.813189,51.656499
Middenakker,3,,,4911BB,Den Hout,Oosterhout,Noord-Brabant,VBO,4.813213,51.656463
Middenakker,5,,,4911BB,Den Hout,Oosterhout,Noord-Brabant,VBO,4.813244,51.656418
Middenakker,7,,,4911BB,Den Hout,Oosterhout,Noord-Brabant,VBO,4.813274,51.656373
Middenakker,9,,,4911BB,Den Hout,Oosterhout,Noord-Brabant,VBO,4.813305,51.656329
Middenakker,11,,,4911BB,Den Hout,Oosterhout,Noord-Brabant,VBO,4.813337,51.656282
Middenakker,13,,,4911BB,Den Hout,Oosterhout,Noord-Brabant,VBO,4.813361,51.656246
Middenakker,15,,,4911BB,Den Hout,Oosterhout,Noord-Brabant,VBO,4.813438,51.656174
Middenakker,17,,,4911BB,Den Hout,Oosterhout,Noord-Brabant,VBO,4.813467,51.656091
Middenakker,19,,,4911BB,Den Hout,Oosterhout,Noord-Brabant,VBO,4.813497,51.656046
Middenakker,21,,,4911BB,Den Hout,Oosterhout,Noord-Brabant,VBO,4.813528,51.656002
Middenakker,23,,,4911BB,Den Hout,Oosterhout,Noord-Brabant,VBO,4.813557,51.655959
Middenakker,25,,,4911BB,Den Hout,Oosterhout,Noord-Brabant,VBO,4.813590,51.655910
Middenakker,27,,,4911BB,Den Hout,Oosterhout,Noord-Brabant,VBO,4.813632,51.655861
Middenakker,31,,,4911BB,Den Hout,Oosterhout,Noord-Brabant,VBO,4.813888,51.655644
Middenakker,33,,,4911BB,Den Hout,Oosterhout,Noord-Brabant,VBO,4.813785,51.655617
Middenakker,35,,,4911BB,Den Hout,Oosterhout,Noord-Brabant,VBO,4.813610,51.655570
Middenakker,37,,,4911BB,Den Hout,Oosterhout,Noord-Brabant,VBO,4.813495,51.655541
Middenakker,39,,,4911BB,Den Hout,Oosterhout,Noord-Brabant,VBO,4.813658,51.655352
Middenakker,41,,,4911BB,Den Hout,Oosterhout,Noord-Brabant,VBO,4.813730,51.655211
Ruiterspoor,2,A,,4911BB,Den Hout,Oosterhout,Noord-Brabant,VBO,4.809875,51.657331
Ruiterspoor,2,B,,4911BB,Den Hout,Oosterhout,Noord-Brabant,VBO,4.809825,51.657165
Ruiterspoor,2,,,4911BB,Den Hout,Oosterhout,Noord-Brabant,VBO,4.809927,51.657497
Ruiterspoor,4,A,,4911BB,Den Hout,Oosterhout,Noord-Brabant,VBO,4.809767,51.656814
Ruiterspoor,4,B,,4911BB,Den Hout,Oosterhout,Noord-Brabant,VBO,4.809763,51.656676
Ruiterspoor,4,C,,4911BB,Den Hout,Oosterhout,Noord-Brabant,VBO,4.809768,51.656626
Ruiterspoor,4,,,4911BB,Den Hout,Oosterhout,Noord-Brabant,VBO,4.809805,51.656982
Ruiterspoor,6,A,,4911BB,Den Hout,Oosterhout,Noord-Brabant,VBO,4.808695,51.656479
Ruiterspoor,6,,,4911BB,Den Hout,Oosterhout,Noord-Brabant,VBO,4.809830,51.656461
Ruiterspoor,8,A,,4911BB,Den Hout,Oosterhout,Noord-Brabant,VBO,4.809727,51.656061
Ruiterspoor,8,B,,4911BB,Den Hout,Oosterhout,Noord-Brabant,VBO,4.809651,51.655855
Ruiterspoor,8,,,4911BB,Den Hout,Oosterhout,Noord-Brabant,VBO,4.809871,51.655909
Ruiterspoor,10,,,4911BB,Den Hout,Oosterhout,Noord-Brabant,VBO,4.809886,51.655662
Ruiterspoor,12,,,4911BB,Den Hout,Oosterhout,Noord-Brabant,VBO,4.809871,51.655523
Ruiterspoor,14,,,4911BB,Den Hout,Oosterhout,Noord-Brabant,VBO,4.809829,51.655360
Ruiterspoor,16,,,4911BB,Den Hout,Oosterhout,Noord-Brabant,VBO,4.809763,51.655235
Ruiterspoor,18,,,4911BB,Den Hout,Oosterhout,Noord-Brabant,VBO,4.809700,51.655093
Ruiterspoor,20,,,4911BB,Den Hout,Oosterhout,Noord-Brabant,VBO,4.809637,51.654973
Ruiterspoor,22,,,4911BB,Den Hout,Oosterhout,Noord-Brabant,VBO,4.809567,51.654825
Molenakker,1,,,4911BC,Den Hout,Oosterhout,Noord-Brabant,VBO,4.810541,51.657303
Molenakker,2,,,4911BC,Den Hout,Oosterhout,Noord-Brabant,VBO,4.810732,51.657026
Molenakker,3,,,4911BC,Den Hout,Oosterhout,Noord-Brabant,VBO,4.810757,51.657278
Molenakker,4,,,4911BC,Den Hout,Oosterhout,Noord-Brabant,VBO,4.810835,51.657014
Molenakker,5,,,4911BC,Den Hout,Oosterhout,Noord-Brabant,VBO,4.810996,51.657251
Molenakker,6,,,4911BC,Den Hout,Oosterhout,Noord-Brabant,VBO,4.811027,51.656992
Molenakker,7,,,4911BC,Den Hout,Oosterhout,Noord-Brabant,VBO,4.811093,51.657240
Molenakker,8,,,4911BC,Den Hout,Oosterhout,Noord-Brabant,VBO,4.811123,51.656982
Molenakker,9,,,4911BC,Den Hout,Oosterhout,Noord-Brabant,VBO,4.811258,51.657223
Molenakker,10,,,4911BC,Den Hout,Oosterhout,Noord-Brabant,VBO,4.811303,51.656962
Molenakker,11,,,4911BC,Den Hout,Oosterhout,Noord-Brabant,VBO,4.811364,51.657211
Molenakker,13,,,4911BC,Den Hout,Oosterhout,Noord-Brabant,VBO,4.811554,51.657189
Molenakker,14,,,4911BC,Den Hout,Oosterhout,Noord-Brabant,VBO,4.812053,51.656849
Molenakker,15,,,4911BC,Den Hout,Oosterhout,Noord-Brabant,VBO,4.811649,51.657178
Molenakker,16,,,4911BC,Den Hout,Oosterhout,Noord-Brabant,VBO,4.812233,51.656811
Molenakker,18,,,4911BC,Den Hout,Oosterhout,Noord-Brabant,VBO,4.812561,51.656705
Molenakker,21,,,4911BC,Den Hout,Oosterhout,Noord-Brabant,VBO,4.812273,51.657091
Herstraat,1,A,,4911BD,Den Hout,Oosterhout,Noord-Brabant,VBO,4.814242,51.656793
Herstraat,1,B,,4911BD,Den Hout,Oosterhout,Noord-Brabant,VBO,4.814490,51.656497
Herstraat,1,,,4911BD,Den Hout,Oosterhout,Noord-Brabant,VBO,4.814276,51.656871
Herstraat,3,,,4911BD,Den Hout,Oosterhout,Noord-Brabant,VBO,4.814526,51.656352
Herstraat,5,,,4911BD,Den Hout,Oosterhout,Noord-Brabant,VBO,4.814510,51.656258
Herstraat,7,B,,4911BD,Den Hout,Oosterhout,Noord-Brabant,VBO,4.814718,51.655923
Herstraat,7,,,4911BD,Den Hout,Oosterhout,Noord-Brabant,VBO,4.814589,51.656138
Herstraat,9,A,,4911BD,Den Hout,Oosterhout,Noord-Brabant,VBO,4.814808,51.655873
Herstraat,9,,,4911BD,Den Hout,Oosterhout,Noord-Brabant,VBO,4.814731,51.655731
Herstraat,2,,,4911BE,Den Hout,Oosterhout,Noord-Brabant,VBO,4.813711,51.656926
Herstraat,4,,,4911BE,Den Hout,Oosterhout,Noord-Brabant,VBO,4.813899,51.656742
Herstraat,6,,,4911BE,Den Hout,Oosterhout,Noord-Brabant,VBO,4.813939,51.656687
Herstraat,8,,,4911BE,Den Hout,Oosterhout,Noord-Brabant,VBO,4.814016,51.656579
Herstraat,10,,,4911BE,Den Hout,Oosterhout,Noord-Brabant,VBO,4.814132,51.656422
Herstraat,12,,,4911BE,Den Hout,Oosterhout,Noord-Brabant,VBO,4.814231,51.656169
Herstraat,14,,,4911BE,Den Hout,Oosterhout,Noord-Brabant,VBO,4.814364,51.656043
Herstraat,16,,,4911BE,Den Hout,Oosterhout,Noord-Brabant,VBO,4.814405,51.655872
Herstraat,20,,,4911BE,Den Hout,Oosterhout,Noord-Brabant,VBO,4.814421,51.655780
Herstraat,22,,,4911BE,Den Hout,Oosterhout,Noord-Brabant,VBO,4.814441,51.655654
Herstraat,24,,,4911BE,Den Hout,Oosterhout,Noord-Brabant,VBO,4.814446,51.655597
Herstraat,26,,,4911BE,Den Hout,Oosterhout,Noord-Brabant,VBO,4.814452,51.655539
Herstraat,28,,,4911BE,Den Hout,Oosterhout,Noord-Brabant,VBO,4.814458,51.655482
Herstraat,30,,,4911BE,Den Hout,Oosterhout,Noord-Brabant,VBO,4.814468,51.655377
Herstraat,32,,,4911BE,Den Hout,Oosterhout,Noord-Brabant,VBO,4.814474,51.655319
Herstraat,34,,,4911BE,Den Hout,Oosterhout,Noord-Brabant,VBO,4.814479,51.655266
Herstraat,36,,,4911BE,Den Hout,Oosterhout,Noord-Brabant,VBO,4.814485,51.655207
Herstraat,38,,,4911BE,Den Hout,Oosterhout,Noord-Brabant,VBO,4.814485,51.655102
Herstraat,40,,,4911BE,Den Hout,Oosterhout,Noord-Brabant,VBO,4.814484,51.655051
Herstraat,42,,,4911BE,Den Hout,Oosterhout,Noord-Brabant,VBO,4.814482,51.654993
Herstraat,44,,,4911BE,Den Hout,Oosterhout,Noord-Brabant,VBO,4.814481,51.654939
Herstraat,46,,,4911BE,Den Hout,Oosterhout,Noord-Brabant,VBO,4.814475,51.654693
Herstraat,48,,,4911BE,Den Hout,Oosterhout,Noord-Brabant,VBO,4.814473,51.654639
Herstraat,50,,,4911BE,Den Hout,Oosterhout,Noord-Brabant,VBO,4.814472,51.654581
Herstraat,52,,,4911BE,Den Hout,Oosterhout,Noord-Brabant,VBO,4.814470,51.654524
Herstraat,60,,,4911BE,Den Hout,Oosterhout,Noord-Brabant,VBO,4.814483,51.654230
Vrachelsestraat,27,,,4911BG,Den Hout,Oosterhout,Noord-Brabant,VBO,4.830618,51.651075
Vrachelsestraat,31,,,4911BG,Den Hout,Oosterhout,Noord-Brabant,VBO,4.830321,51.651331
Vrachelsestraat,33,,,4911BG,Den Hout,Oosterhout,Noord-Brabant,VBO,4.829694,51.651437
Vrachelsestraat,35,,,4911BG,Den Hout,Oosterhout,Noord-Brabant,VBO,4.829249,51.651751
Vrachelsestraat,41,,,4911BG,Den Hout,Oosterhout,Noord-Brabant,VBO,4.827768,51.652384
Vrachelsestraat,49,A,,4911BG,Den Hout,Oosterhout,Noord-Brabant,VBO,4.823901,51.653977
Vrachelsestraat,49,,,4911BG,Den Hout,Oosterhout,Noord-Brabant,VBO,4.824267,51.653850
Vrachelsestraat,51,A,,4911BG,Den Hout,Oosterhout,Noord-Brabant,VBO,4.822028,51.654703
Vrachelsestraat,51,B,,4911BG,Den Hout,Oosterhout,Noord-Brabant,VBO,4.822512,51.654350
Vrachelsestraat,51,,,4911BG,Den Hout,Oosterhout,Noord-Brabant,VBO,4.823138,51.654083
Vrachelsestraat,53,,,4911BH,Den Hout,Oosterhout,Noord-Brabant,VBO,4.821321,51.655291
Vrachelsestraat,57,,,4911BH,Den Hout,Oosterhout,Noord-Brabant,VBO,4.818750,51.655902
Vrachelsestraat,59,,,4911BH,Den Hout,Oosterhout,Noord-Brabant,VBO,4.818446,51.655994
Vrachelsestraat,61,,,4911BH,Den Hout,Oosterhout,Noord-Brabant,VBO,4.818245,51.656049
Vrachelsestraat,65,A,,4911BH,Den Hout,Oosterhout,Noord-Brabant,VBO,4.815562,51.656728
Vrachelsestraat,65,,,4911BH,Den Hout,Oosterhout,Noord-Brabant,VBO,4.815829,51.656688
Vrachelsestraat,67,A,,4911BH,Den Hout,Oosterhout,Noord-Brabant,VBO,4.815126,51.656795
Vrachelsestraat,67,,,4911BH,Den Hout,Oosterhout,Noord-Brabant,VBO,4.815359,51.656746
Vrachelsestraat,69,,,4911BH,Den Hout,Oosterhout,Noord-Brabant,VBO,4.814931,51.656884
Vrachelsestraat,71,,,4911BH,Den Hout,Oosterhout,Noord-Brabant,VBO,4.814863,51.656897
Vrachelsestraat,73,,,4911BH,Den Hout,Oosterhout,Noord-Brabant,VBO,4.814773,51.656930
Vrachelsestraat,75,,,4911BH,Den Hout,Oosterhout,Noord-Brabant,VBO,4.814649,51.656956
Vrachelsestraat,77,,,4911BH,Den Hout,Oosterhout,Noord-Brabant,VBO,4.814568,51.656969
Vrachelsestraat,85,,,4911BH,Den Hout,Oosterhout,Noord-Brabant,VBO,4.813440,51.657017
Vrachelsestraat,89,,,4911BH,Den Hout,Oosterhout,Noord-Brabant,VBO,4.812800,51.657690
Vrachelsestraat,36,,,4911BJ,Den Hout,Oosterhout,Noord-Brabant,VBO,4.831116,51.651239
Vrachelsestraat,38,,,4911BJ,Den Hout,Oosterhout,Noord-Brabant,VBO,4.830417,51.651740
Vrachelsestraat,40,,,4911BJ,Den Hout,Oosterhout,Noord-Brabant,VBO,4.829772,51.652023
Vrachelsestraat,42,,,4911BJ,Den Hout,Oosterhout,Noord-Brabant,VBO,4.829394,51.652052
Vrachelsestraat,44,A,,4911BJ,Den Hout,Oosterhout,Noord-Brabant,VBO,4.828635,51.652369
Vrachelsestraat,44,,,4911BJ,Den Hout,Oosterhout,Noord-Brabant,VBO,4.829126,51.652167
Vrachelsestraat,46,,,4911BJ,Den Hout,Oosterhout,Noord-Brabant,VBO,4.827792,51.652766
Vrachelsestraat,48,A,,4911BJ,Den Hout,Oosterhout,Noord-Brabant,VBO,4.826190,51.653442
Vrachelsestraat,48,,,4911BJ,Den Hout,Oosterhout,Noord-Brabant,VBO,4.826514,51.653393
Vrachelsestraat,50,,,4911BJ,Den Hout,Oosterhout,Noord-Brabant,VBO,4.824973,51.654109
Vrachelsestraat,52,A,,4911BJ,Den Hout,Oosterhout,Noord-Brabant,VBO,4.823654,51.654571
Vrachelsestraat,52,,,4911BJ,Den Hout,Oosterhout,Noord-Brabant,VBO,4.823719,51.654404
Vrachelsestraat,54,A,,4911BJ,Den Hout,Oosterhout,Noord-Brabant,VBO,4.822318,51.655074
Vrachelsestraat,54,,,4911BJ,Den Hout,Oosterhout,Noord-Brabant,VBO,4.822501,51.655012
Vrachelsestraat,56,,,4911BK,Den Hout,Oosterhout,Noord-Brabant,VBO,4.821256,51.655549
Vrachelsestraat,58,A,,4911BK,Den Hout,Oosterhout,Noord-Brabant,VBO,4.819987,51.656051
Vrachelsestraat,58,,,4911BK,Den Hout,Oosterhout,Noord-Brabant,VBO,4.819617,51.656149
Vrachelsestraat,60,,,4911BK,Den Hout,Oosterhout,Noord-Brabant,VBO,4.818443,51.656403
Vrachelsestraat,62,,,4911BK,Den Hout,Oosterhout,Noord-Brabant,VBO,4.817066,51.656840
Vrachelsestraat,64,A,,4911BK,Den Hout,Oosterhout,Noord-Brabant,VBO,4.815767,51.657005
Vrachelsestraat,64,,,4911BK,Den Hout,Oosterhout,Noord-Brabant,VBO,4.816194,51.656902
Vrachelsestraat,66,,,4911BK,Den Hout,Oosterhout,Noord-Brabant,VBO,4.815474,51.657017
Vrachelsestraat,68,,,4911BK,Den Hout,Oosterhout,Noord-Brabant,VBO,4.815295,51.657050
Vrachelsestraat,70,,,4911BK,Den Hout,Oosterhout,Noord-Brabant,VBO,4.815017,51.657102
Vrachelsestraat,72,,,4911BK,Den Hout,Oosterhout,Noord-Brabant,VBO,4.814808,51.657141
Vrachelsestraat,74,,,4911BK,Den Hout,Oosterhout,Noord-Brabant,VBO,4.814477,51.657159
Vrachelsestraat,76,A,,4911BK,Den Hout,Oosterhout,Noord-Brabant,VBO,4.814221,51.657241
Vrachelsestraat,76,,,4911BK,Den Hout,Oosterhout,Noord-Brabant,VBO,4.814315,51.657223
Vrachelsestraat,78,,,4911BK,Den Hout,Oosterhout,Noord-Brabant,VBO,4.814047,51.657274
Vrachelsestraat,80,,,4911BK,Den Hout,Oosterhout,Noord-Brabant,VBO,4.813837,51.657341
Vrachelsestraat,82,,,4911BK,Den Hout,Oosterhout,Noord-Brabant,VBO,4.813448,51.657491
Vrachelsestraat,84,,,4911BK,Den Hout,Oosterhout,Noord-Brabant,VBO,4.813398,51.657544
Vrachelsestraat,86,,,4911BK,Den Hout,Oosterhout,Noord-Brabant,VBO,4.813179,51.657715
Heijligerweg,11,,,4911BN,Den Hout,Oosterhout,Noord-Brabant,VBO,4.828531,51.654110
Ter Aalst,2,,,4911BP,Den Hout,Oosterhout,Noord-Brabant,VBO,4.807144,51.640706
Ter Aalst,3,,,4911BP,Den Hout,Oosterhout,Noord-Brabant,VBO,4.805107,51.640223
Ter Aalst,4,,,4911BP,Den Hout,Oosterhout,Noord-Brabant,VBO,4.805447,51.640444
Ter Aalst,6,,,4911BP,Den Hout,Oosterhout,Noord-Brabant,VBO,4.804504,51.641552
Ter Aalst,7,A,,4911BP,Den Hout,Oosterhout,Noord-Brabant,VBO,4.803698,51.640092
Ter Aalst,7,,,4911BP,Den Hout,Oosterhout,Noord-Brabant,VBO,4.803669,51.639734
Ter Aalst,8,,,4911BP,Den Hout,Oosterhout,Noord-Brabant,VBO,4.803957,51.641725
Ter Aalst,9,,,4911BP,Den Hout,Oosterhout,Noord-Brabant,VBO,4.802045,51.639546
Ter Aalst,11,,,4911BP,Oosterhout,Oosterhout,Noord-Brabant,VBO,4.800109,51.636106
Pannenhuisstraat,21,,,4911BR,Oosterhout,Oosterhout,Noord-Brabant,VBO,4.819731,51.639541
Pannenhuisstraat,23,,,4911BR,Oosterhout,Oosterhout,Noord-Brabant,VBO,4.820015,51.639429
Pannenhuisstraat,12,B,,4911BS,Oosterhout,Oosterhout,Noord-Brabant,VBO,4.822832,51.642242
Pannenhuisstraat,12,D,,4911BS,Oosterhout,Oosterhout,Noord-Brabant,VBO,4.822230,51.642347
Pannenhuisstraat,12,,,4911BS,Oosterhout,Oosterhout,Noord-Brabant,VBO,4.824623,51.641416
Rijksweg A59,5,,,4911BV,Den Hout,Oosterhout,Noord-Brabant,VBO,4.827086,51.676152
Rijksweg A59,6,,,4911BV,Den Hout,Oosterhout,Noord-Brabant,VBO,4.819480,51.673598
Terheijdensspoor,9,,,4911BW,Den Hout,Oosterhout,Noord-Brabant,VBO,4.806239,51.647243
Hoge Akker,5,,,4911BX,Den Hout,Oosterhout,Noord-Brabant,VBO,4.811286,51.655654
Hoge Akker,7,,,4911BX,Den Hout,Oosterhout,Noord-Brabant,VBO,4.811294,51.655606
Hoge Akker,9,,,4911BX,Den Hout,Oosterhout,Noord-Brabant,VBO,4.811303,51.655557
Hoge Akker,11,,,4911BX,Den Hout,Oosterhout,Noord-Brabant,VBO,4.811254,51.655509
Hoge Akker,13,,,4911BX,Den Hout,Oosterhout,Noord-Brabant,VBO,4.811262,51.655461
Hoge Akker,15,,,4911BX,Den Hout,Oosterhout,Noord-Brabant,VBO,4.811271,51.655411
Hoge Akker,17,,,4911BX,Den Hout,Oosterhout,Noord-Brabant,VBO,4.811280,51.655364
Hoge Akker,19,,,4911BX,Den Hout,Oosterhout,Noord-Brabant,VBO,4.811288,51.655315
Hoge Akker,21,,,4911BX,Den Hout,Oosterhout,Noord-Brabant,VBO,4.811276,51.655091
Hoge Akker,23,,,4911BX,Den Hout,Oosterhout,Noord-Brabant,VBO,4.811391,51.655084
Hoge Akker,25,,,4911BX,Den Hout,Oosterhout,Noord-Brabant,VBO,4.811588,51.655073
Hoge Akker,27,,,4911BX,Den Hout,Oosterhout,Noord-Brabant,VBO,4.811688,51.655066
Hoge Akker,29,,,4911BX,Den Hout,Oosterhout,Noord-Brabant,VBO,4.811824,51.655031
Hoge Akker,31,,,4911BX,Den Hout,Oosterhout,Noord-Brabant,VBO,4.811963,51.655023
Hoge Akker,33,,,4911BX,Den Hout,Oosterhout,Noord-Brabant,VBO,4.812113,51.655014
Hoge Akker,35,,,4911BX,Den Hout,Oosterhout,Noord-Brabant,VBO,4.812265,51.655005
Hoge Akker,39,,,4911BX,Den Hout,Oosterhout,Noord-Brabant,VBO,4.812483,51.655009
Hoge Akker,41,,,4911BX,Den Hout,Oosterhout,Noord-Brabant,VBO,4.812734,51.655004
Hoge Akker,43,,,4911BX,Den Hout,Oosterhout,Noord-Brabant,VBO,4.812834,51.654998
Hoge Akker,45,,,4911BX,Den Hout,Oosterhout,Noord-Brabant,VBO,4.813070,51.654950
Hoge Akker,47,,,4911BX,Den Hout,Oosterhout,Noord-Brabant,VBO,4.813289,51.654933
Hoge Akker,51,,,4911BX,Den Hout,Oosterhout,Noord-Brabant,VBO,4.813680,51.654921
Hoge Akker,53,,,4911BX,Den Hout,Oosterhout,Noord-Brabant,VBO,4.813921,51.654915
Hoge Akker,2,,,4911BZ,Den Hout,Oosterhout,Noord-Brabant,VBO,4.810358,51.655451
Hoge Akker,4,,,4911BZ,Den Hout,Oosterhout,Noord-Brabant,VBO,4.810456,51.655455
Hoge Akker,6,A,,4911BZ,Den Hout,Oosterhout,Noord-Brabant,VBO,4.810805,51.655431
Hoge Akker,6,,,4911BZ,Den Hout,Oosterhout,Noord-Brabant,VBO,4.810801,51.655475
Hoge Akker,8,A,,4911BZ,Den Hout,Oosterhout,Noord-Brabant,VBO,4.810786,51.655313
Hoge Akker,8,,,4911BZ,Den Hout,Oosterhout,Noord-Brabant,VBO,4.810781,51.655358
Hoge Akker,10,A,,4911BZ,Den Hout,Oosterhout,Noord-Brabant,VBO,4.810729,51.655168
Hoge Akker,10,,,4911BZ,Den Hout,Oosterhout,Noord-Brabant,VBO,4.810738,51.655229
Hoge Akker,12,,,4911BZ,Den Hout,Oosterhout,Noord-Brabant,VBO,4.810715,51.655114
Hoge Akker,14,,,4911BZ,Den Hout,Oosterhout,Noord-Brabant,VBO,4.810704,51.655061
Hoge Akker,16,A,,4911BZ,Den Hout,Oosterhout,Noord-Brabant,VBO,4.810682,51.654953
Hoge Akker,16,,,4911BZ,Den Hout,Oosterhout,Noord-Brabant,VBO,4.810693,51.655005
Hoge Akker,18,,,4911BZ,Den Hout,Oosterhout,Noord-Brabant,VBO,4.810528,51.654836
Hoge Akker,20,,,4911BZ,Den Hout,Oosterhout,Noord-Brabant,VBO,4.810510,51.654744
Hoge Akker,22,,,4911BZ,Den Hout,Oosterhout,Noord-Brabant,VBO,4.810492,51.654647
Hoge Akker,24,,,4911BZ,Den Hout,Oosterhout,Noord-Brabant,VBO,4.810470,51.654555
Hoge Akker,30,,,4911BZ,Den Hout,Oosterhout,Noord-Brabant,VBO,4.811103,51.654822
Hoge Akker,32,,,4911BZ,Den Hout,Oosterhout,Noord-Brabant,VBO,4.811307,51.654810
Hoge Akker,34,,,4911BZ,Den Hout,Oosterhout,Noord-Brabant,VBO,4.811504,51.654798
Hoge Akker,36,,,4911BZ,Den Hout,Oosterhout,Noord-Brabant,VBO,4.811728,51.654785
Hoge Akker,38,,,4911BZ,Den Hout,Oosterhout,Noord-Brabant,VBO,4.811947,51.654771
Hoge Akker,40,,,4911BZ,Den Hout,Oosterhout,Noord-Brabant,VBO,4.812162,51.654759
Hoge Akker,42,,,4911BZ,Den Hout,Oosterhout,Noord-Brabant,VBO,4.812366,51.654746
Hoge Akker,44,,,4911BZ,Den Hout,Oosterhout,Noord-Brabant,VBO,4.812583,51.654733
Hoge Akker,46,,,4911BZ,Den Hout,Oosterhout,Noord-Brabant,VBO,4.812807,51.654720
Hoge Akker,48,,,4911BZ,Den Hout,Oosterhout,Noord-Brabant,VBO,4.813097,51.654679
Hoge Akker,50,,,4911BZ,Den Hout,Oosterhout,Noord-Brabant,VBO,4.813172,51.654676
Hoge Akker,52,,,4911BZ,Den Hout,Oosterhout,Noord-Brabant,VBO,4.813352,51.654683
Hoge Akker,54,,,4911BZ,Den Hout,Oosterhout,Noord-Brabant,VBO,4.813438,51.654679
Hoge Akker,56,,,4911BZ,Den Hout,Oosterhout,Noord-Brabant,VBO,4.813612,51.654658
Hoge Akker,58,,,4911BZ,Den Hout,Oosterhout,Noord-Brabant,VBO,4.813691,51.654655
Hoge Akker,60,,,4911BZ,Den Hout,Oosterhout,Noord-Brabant,VBO,4.813876,51.654662
Blikkenweg,1,,,4911CD,Den Hout,Oosterhout,Noord-Brabant,VBO,4.808314,51.637968
Blikkenweg,2,,,4911CD,Den Hout,Oosterhout,Noord-Brabant,VBO,4.808003,51.636787
Blikkenweg,3,,,4911CD,Den Hout,Oosterhout,Noord-Brabant,VBO,4.807814,51.637646
Houtsesteeg,1,,,4911CG,Den Hout,Oosterhout,Noord-Brabant,VBO,4.819751,51.660448
Houtsesteeg,3,,,4911CG,Den Hout,Oosterhout,Noord-Brabant,VBO,4.822513,51.660853
Houtsesteeg,5,,,4911CG,Den Hout,Oosterhout,Noord-Brabant,VBO,4.824358,51.661141
