openbareruimtenaam,huisnummer,huisletter,huisnummertoevoeging,postcode,woonplaatsnaam,gemeentenaam,provincienaam,typeadresseerbaarobject,longitude,latitude
Polluxstraat,1,,,5047RA,Tilburg,Tilburg,Noord-Brabant,VBO,5.002806,51.595134
Polluxstraat,3,a,,5047RA,Tilburg,Tilburg,Noord-Brabant,VBO,5.002476,51.594849
Polluxstraat,3,,,5047RA,Tilburg,Tilburg,Noord-Brabant,VBO,5.002563,51.594921
Polluxstraat,5,,,5047RA,Tilburg,Tilburg,Noord-Brabant,VBO,5.002121,51.594531
Polluxstraat,7,,,5047RA,Tilburg,Tilburg,Noord-Brabant,VBO,5.002699,51.594405
Polluxstraat,9,,,5047RA,Tilburg,Tilburg,Noord-Brabant,VBO,5.001812,51.594214
Polluxstraat,11,,,5047RA,Tilburg,Tilburg,Noord-Brabant,VBO,5.001846,51.594198
Polluxstraat,15,,,5047RA,Tilburg,Tilburg,Noord-Brabant,VBO,5.001308,51.594011
Polluxstraat,17,,,5047RA,Tilburg,Tilburg,Noord-Brabant,VBO,5.000988,51.594204
Polluxstraat,19,,,5047RA,Tilburg,Tilburg,Noord-Brabant,VBO,5.000882,51.594256
Polluxstraat,21,,,5047RA,Tilburg,Tilburg,Noord-Brabant,VBO,5.000372,51.594497
Polluxstraat,25,,,5047RA,Tilburg,Tilburg,Noord-Brabant,VBO,5.000104,51.594575
Polluxstraat,29,,,5047RA,Tilburg,Tilburg,Noord-Brabant,VBO,4.999558,51.594888
Polluxstraat,33,,,5047RA,Tilburg,Tilburg,Noord-Brabant,VBO,4.999155,51.595076
Polluxstraat,37,,,5047RA,Tilburg,Tilburg,Noord-Brabant,VBO,4.998657,51.595273
Polluxstraat,39,,,5047RA,Tilburg,Tilburg,Noord-Brabant,VBO,4.998598,51.595298
Polluxstraat,41,,,5047RA,Tilburg,Tilburg,Noord-Brabant,VBO,4.998237,51.595481
Polluxstraat,41,,,5047RA,Tilburg,Tilburg,Noord-Brabant,VBO,4.998303,51.595533
Polluxstraat,45,,,5047RA,Tilburg,Tilburg,Noord-Brabant,VBO,4.997664,51.595705
Polluxstraat,49,a,,5047RA,Tilburg,Tilburg,Noord-Brabant,VBO,4.996590,51.596058
Polluxstraat,49,,,5047RA,Tilburg,Tilburg,Noord-Brabant,VBO,4.996878,51.595888
Polluxstraat,51,,,5047RA,Tilburg,Tilburg,Noord-Brabant,VBO,4.996280,51.596174
Polluxstraat,2,b,,5047RB,Tilburg,Tilburg,Noord-Brabant,VBO,5.001736,51.595081
Polluxstraat,2,c,,5047RB,Tilburg,Tilburg,Noord-Brabant,VBO,5.001541,51.594996
Polluxstraat,4,,,5047RB,Tilburg,Tilburg,Noord-Brabant,VBO,5.001434,51.594815
Polluxstraat,6,,,5047RB,Tilburg,Tilburg,Noord-Brabant,VBO,5.000562,51.595058
Polluxstraat,8,,,5047RB,Tilburg,Tilburg,Noord-Brabant,VBO,5.000097,51.595260
Polluxstraat,10,,,5047RB,Tilburg,Tilburg,Noord-Brabant,VBO,4.999318,51.595661
Polluxstraat,14,,,5047RB,Tilburg,Tilburg,Noord-Brabant,VBO,4.998151,51.596107
Polluxstraat,20,,,5047RB,Tilburg,Tilburg,Noord-Brabant,VBO,4.995341,51.598219
Polluxstraat,22,,,5047RB,Tilburg,Tilburg,Noord-Brabant,VBO,4.995486,51.598905
Castorstraat,8,,,5047RC,Tilburg,Tilburg,Noord-Brabant,VBO,4.999267,51.597871
Castorstraat,13,,,5047RC,Tilburg,Tilburg,Noord-Brabant,VBO,5.001293,51.596050
Castorstraat,15,,,5047RC,Tilburg,Tilburg,Noord-Brabant,VBO,5.000286,51.596431
Castorstraat,17,,,5047RC,Tilburg,Tilburg,Noord-Brabant,VBO,4.999701,51.596629
Castorstraat,19,,,5047RC,Tilburg,Tilburg,Noord-Brabant,VBO,4.999624,51.596564
Castorstraat,21,,,5047RC,Tilburg,Tilburg,Noord-Brabant,VBO,4.999563,51.596498
Castorstraat,23,,,5047RC,Tilburg,Tilburg,Noord-Brabant,VBO,4.999493,51.596434
Castorstraat,25,,,5047RC,Tilburg,Tilburg,Noord-Brabant,VBO,4.999428,51.596366
Castorstraat,27,,,5047RC,Tilburg,Tilburg,Noord-Brabant,VBO,4.999364,51.596301
Castorstraat,29,,,5047RC,Tilburg,Tilburg,Noord-Brabant,VBO,4.999279,51.596803
Hectorstraat,3,,,5047RE,Tilburg,Tilburg,Noord-Brabant,VBO,4.999207,51.600528
Hectorstraat,7,,,5047RE,Tilburg,Tilburg,Noord-Brabant,VBO,4.998880,51.599949
Hectorstraat,11,,,5047RE,Tilburg,Tilburg,Noord-Brabant,VBO,4.998221,51.599221
Hectorstraat,15,,,5047RE,Tilburg,Tilburg,Noord-Brabant,VBO,4.997935,51.598680
Hectorstraat,17,,,5047RE,Tilburg,Tilburg,Noord-Brabant,VBO,4.997818,51.598054
Hectorstraat,23,,,5047RE,Tilburg,Tilburg,Noord-Brabant,VBO,4.997671,51.597663
Atlasstraat,1,a,,5047RG,Tilburg,Tilburg,Noord-Brabant,VBO,5.005469,51.605025
Atlasstraat,1,b,,5047RG,Tilburg,Tilburg,Noord-Brabant,VBO,5.006785,51.605284
Atlasstraat,1,,,5047RG,Tilburg,Tilburg,Noord-Brabant,VBO,5.005617,51.605566
Atlasstraat,7,,,5047RG,Tilburg,Tilburg,Noord-Brabant,VBO,5.003706,51.605713
Atlasstraat,11,,,5047RG,Tilburg,Tilburg,Noord-Brabant,VBO,5.000597,51.606375
Atlasstraat,17,,,5047RG,Tilburg,Tilburg,Noord-Brabant,VBO,5.002110,51.602350
Theseusstraat,11,,,5047RH,Tilburg,Tilburg,Noord-Brabant,VBO,5.004178,51.599668
Theseusstraat,21,,,5047RH,Tilburg,Tilburg,Noord-Brabant,VBO,5.002272,51.600963
Theseusstraat,51,,,5047RH,Tilburg,Tilburg,Noord-Brabant,VBO,4.999816,51.601057
Theseusstraat,61,a,,5047RH,Tilburg,Tilburg,Noord-Brabant,VBO,4.995684,51.602087
Theseusstraat,61,b,,5047RH,Tilburg,Tilburg,Noord-Brabant,VBO,4.995641,51.603102
Theseusstraat,63,a,,5047RH,Tilburg,Tilburg,Noord-Brabant,VBO,4.991914,51.601950
Theseusstraat,63,b,,5047RH,Tilburg,Tilburg,Noord-Brabant,VBO,4.991887,51.603057
Theseusstraat,30,,,5047RJ,Tilburg,Tilburg,Noord-Brabant,VBO,5.000725,51.600130
Theseusstraat,36,,,5047RJ,Tilburg,Tilburg,Noord-Brabant,VBO,4.997423,51.600978
Theseusstraat,40,,,5047RJ,Tilburg,Tilburg,Noord-Brabant,VBO,4.995632,51.599591
Theseusstraat,42,,,5047RJ,Tilburg,Tilburg,Noord-Brabant,VBO,4.995777,51.600278
Theseusstraat,44,,,5047RJ,Tilburg,Tilburg,Noord-Brabant,VBO,4.992072,51.600330
Theseusstraat,48,,,5047RJ,Tilburg,Tilburg,Noord-Brabant,VBO,4.989948,51.600922
Athenastraat,4,,,5047RK,Tilburg,Tilburg,Noord-Brabant,VBO,4.997570,51.605832
Athenastraat,6,,,5047RK,Tilburg,Tilburg,Noord-Brabant,VBO,4.997563,51.604719
Athenastraat,8,,,5047RK,Tilburg,Tilburg,Noord-Brabant,VBO,4.997557,51.603343
Athenastraat,10,,,5047RK,Tilburg,Tilburg,Noord-Brabant,VBO,4.997553,51.602454
Asteriastraat,1,,,5047RM,Tilburg,Tilburg,Noord-Brabant,VBO,4.993724,51.605595
Asteriastraat,2,a,,5047RM,Tilburg,Tilburg,Noord-Brabant,VBO,4.995606,51.604414
Asteriastraat,2,b,,5047RM,Tilburg,Tilburg,Noord-Brabant,VBO,4.995635,51.603304
Asteriastraat,4,a,,5047RM,Tilburg,Tilburg,Noord-Brabant,VBO,4.991851,51.604370
Asteriastraat,4,b,,5047RM,Tilburg,Tilburg,Noord-Brabant,VBO,4.991883,51.603260
Asteriastraat,8,,,5047RM,Tilburg,Tilburg,Noord-Brabant,VBO,4.989528,51.604637
Asteriastraat,17,,,5047RM,Tilburg,Tilburg,Noord-Brabant,VBO,4.984620,51.606259
Asteriastraat,19,,,5047RM,Tilburg,Tilburg,Noord-Brabant,VBO,4.985290,51.604894
Asteriastraat,25,,,5047RM,Tilburg,Tilburg,Noord-Brabant,VBO,4.984098,51.604114
Asteriastraat,27,,,5047RM,Tilburg,Tilburg,Noord-Brabant,VBO,4.983582,51.603693
Asteriastraat,29,,,5047RM,Tilburg,Tilburg,Noord-Brabant,VBO,4.983066,51.603271
Asteriastraat,31,,,5047RM,Tilburg,Tilburg,Noord-Brabant,VBO,4.982550,51.602850
Asteriastraat,37,,,5047RM,Tilburg,Tilburg,Noord-Brabant,VBO,4.979793,51.602573
Erebusstraat,7,,,5047RN,Tilburg,Tilburg,Noord-Brabant,VBO,4.987055,51.603250
Erebusstraat,9,,,5047RN,Tilburg,Tilburg,Noord-Brabant,VBO,4.986308,51.603605
Erebusstraat,11,,,5047RN,Tilburg,Tilburg,Noord-Brabant,VBO,4.985562,51.603889
Erebusstraat,13,,,5047RN,Tilburg,Tilburg,Noord-Brabant,VBO,4.986301,51.602466
Erebusstraat,15,,,5047RN,Tilburg,Tilburg,Noord-Brabant,VBO,4.986282,51.602447
Letostraat,17,,,5047RP,Tilburg,Tilburg,Noord-Brabant,VBO,4.991807,51.599068
Letostraat,19,,,5047RP,Tilburg,Tilburg,Noord-Brabant,VBO,4.991941,51.599699
Letostraat,29,,,5047RP,Tilburg,Tilburg,Noord-Brabant,VBO,4.986684,51.600901
Letostraat,31,,,5047RP,Tilburg,Tilburg,Noord-Brabant,VBO,4.985718,51.601271
Letostraat,33,,,5047RP,Tilburg,Tilburg,Noord-Brabant,VBO,4.984569,51.601708
Letostraat,35,,,5047RP,Tilburg,Tilburg,Noord-Brabant,VBO,4.983598,51.602078
Dongensekanaaldijk,3,,,5047SC,Tilburg,Tilburg,Noord-Brabant,VBO,5.035260,51.582432
Dongensekanaaldijk,5,,,5047SC,Tilburg,Tilburg,Noord-Brabant,VBO,5.034618,51.582441
Dongensekanaaldijk,7,,,5047SC,Tilburg,Tilburg,Noord-Brabant,VBO,5.034497,51.582455
Dongenseweg,61,a,,5047SE,Tilburg,Tilburg,Noord-Brabant,VBO,5.040042,51.588121
Dongenseweg,61,k,,5047SE,Tilburg,Tilburg,Noord-Brabant,VBO,5.037791,51.586333
Dongenseweg,61,,,5047SE,Tilburg,Tilburg,Noord-Brabant,VBO,5.040986,51.588519
Dongenseweg,63,a,,5047SE,Tilburg,Tilburg,Noord-Brabant,VBO,5.037117,51.587462
Dongenseweg,63,b,,5047SE,Tilburg,Tilburg,Noord-Brabant,VBO,5.036657,51.587625
Dongenseweg,63,d,,5047SE,Tilburg,Tilburg,Noord-Brabant,VBO,5.038226,51.587731
Dongenseweg,63,,,5047SE,Tilburg,Tilburg,Noord-Brabant,VBO,5.037089,51.587779
Dongenseweg,65,a,,5047SE,Tilburg,Tilburg,Noord-Brabant,VBO,5.034804,51.588390
Dongenseweg,65,,,5047SE,Tilburg,Tilburg,Noord-Brabant,VBO,5.036039,51.587764
Dongenseweg,67,a,,5047SE,Tilburg,Tilburg,Noord-Brabant,VBO,5.034267,51.589467
Dongenseweg,67,b,,5047SE,Tilburg,Tilburg,Noord-Brabant,VBO,5.034367,51.589518
Dongenseweg,67,,,5047SE,Tilburg,Tilburg,Noord-Brabant,VBO,5.033980,51.589320
Dongenseweg,69,,,5047SE,Tilburg,Tilburg,Noord-Brabant,VBO,5.033555,51.589548
Dongenseweg,75,,,5047SE,Tilburg,Tilburg,Noord-Brabant,VBO,5.033055,51.589858
Dongenseweg,77,,,5047SE,Tilburg,Tilburg,Noord-Brabant,VBO,5.032855,51.590564
Dongenseweg,145,,,5047SE,Tilburg,Tilburg,Noord-Brabant,VBO,5.030189,51.591450
Dongenseweg,82,,,5047SG,Tilburg,Tilburg,Noord-Brabant,VBO,5.043731,51.581559
Dongenseweg,90,,,5047SG,Tilburg,Tilburg,Noord-Brabant,VBO,5.040797,51.583623
Dongenseweg,94,,,5047SG,Tilburg,Tilburg,Noord-Brabant,VBO,5.040700,51.583691
Dongenseweg,96,,,5047SG,Tilburg,Tilburg,Noord-Brabant,VBO,5.040652,51.583724
Dongenseweg,98,,,5047SG,Tilburg,Tilburg,Noord-Brabant,VBO,5.040157,51.583925
Dongenseweg,100,,,5047SG,Tilburg,Tilburg,Noord-Brabant,VBO,5.040023,51.584046
Dongenseweg,106,,,5047SG,Tilburg,Tilburg,Noord-Brabant,VBO,5.039266,51.584296
Dongenseweg,108,,,5047SG,Tilburg,Tilburg,Noord-Brabant,VBO,5.038718,51.584636
Dongenseweg,110,,,5047SG,Tilburg,Tilburg,Noord-Brabant,VBO,5.038434,51.584945
Dongenseweg,116,,,5047SG,Tilburg,Tilburg,Noord-Brabant,VBO,5.037605,51.585739
Dongenseweg,118,,,5047SG,Tilburg,Tilburg,Noord-Brabant,VBO,5.037185,51.585863
Dongenseweg,120,,,5047SH,Tilburg,Tilburg,Noord-Brabant,VBO,5.036710,51.586152
Dongenseweg,122,,,5047SH,Tilburg,Tilburg,Noord-Brabant,VBO,5.036081,51.586286
Dongenseweg,124,,,5047SH,Tilburg,Tilburg,Noord-Brabant,VBO,5.035766,51.586660
Dongenseweg,126,a,,5047SH,Tilburg,Tilburg,Noord-Brabant,VBO,5.034946,51.587002
Dongenseweg,126,,,5047SH,Tilburg,Tilburg,Noord-Brabant,VBO,5.035516,51.586867
Dongenseweg,128,,,5047SH,Tilburg,Tilburg,Noord-Brabant,VBO,5.034897,51.587336
Dongenseweg,194,a,,5047SH,Tilburg,Tilburg,Noord-Brabant,VBO,5.021576,51.596215
Dongenseweg,194,,,5047SH,Tilburg,Tilburg,Noord-Brabant,VBO,5.021646,51.596169
Dongenseweg,196,,,5047SH,Tilburg,Tilburg,Noord-Brabant,VBO,5.021523,51.596265
Dongenseweg,200,,,5047SH,Tilburg,Tilburg,Noord-Brabant,VBO,5.009189,51.603820
Albionstraat,3,,,5047SJ,Tilburg,Tilburg,Noord-Brabant,VBO,5.036551,51.585431
Albionstraat,9,,,5047SJ,Tilburg,Tilburg,Noord-Brabant,VBO,5.036289,51.585319
Albionstraat,10,,,5047SJ,Tilburg,Tilburg,Noord-Brabant,VBO,5.036761,51.585158
Albionstraat,18,,,5047SJ,Tilburg,Tilburg,Noord-Brabant,VBO,5.035606,51.584459
Albionstraat,24,,,5047SJ,Tilburg,Tilburg,Noord-Brabant,VBO,5.034367,51.583805
Albionstraat,25,a,,5047SJ,Tilburg,Tilburg,Noord-Brabant,VBO,5.035538,51.584810
Albionstraat,25,,,5047SJ,Tilburg,Tilburg,Noord-Brabant,VBO,5.035670,51.584888
Albionstraat,27,,,5047SJ,Tilburg,Tilburg,Noord-Brabant,VBO,5.035331,51.584698
Albionstraat,28,,,5047SJ,Tilburg,Tilburg,Noord-Brabant,VBO,5.035567,51.583581
Albionstraat,29,,,5047SJ,Tilburg,Tilburg,Noord-Brabant,VBO,5.034827,51.584598
Albionstraat,30,,,5047SJ,Tilburg,Tilburg,Noord-Brabant,VBO,5.035857,51.583631
Albionstraat,31,,,5047SJ,Tilburg,Tilburg,Noord-Brabant,VBO,5.034231,51.584155
Albionstraat,33,g,,5047SJ,Tilburg,Tilburg,Noord-Brabant,VBO,5.034702,51.583531
Albionstraat,33,,,5047SJ,Tilburg,Tilburg,Noord-Brabant,VBO,5.034012,51.583977
Albionstraat,34,,,5047SJ,Tilburg,Tilburg,Noord-Brabant,VBO,5.036370,51.583460
Albionstraat,35,,,5047SJ,Tilburg,Tilburg,Noord-Brabant,VBO,5.034862,51.583511
Albionstraat,36,,,5047SJ,Tilburg,Tilburg,Noord-Brabant,VBO,5.036979,51.583414
Albionstraat,39,,,5047SJ,Tilburg,Tilburg,Noord-Brabant,VBO,5.035510,51.583372
Albionstraat,40,,,5047SJ,Tilburg,Tilburg,Noord-Brabant,VBO,5.038280,51.583759
Albionstraat,40,,,5047SJ,Tilburg,Tilburg,Noord-Brabant,VBO,5.038291,51.583752
Albionstraat,42,,,5047SJ,Tilburg,Tilburg,Noord-Brabant,VBO,5.037644,51.584096
Albionstraat,44,,,5047SJ,Tilburg,Tilburg,Noord-Brabant,VBO,5.037238,51.584173
Albionstraat,46,,,5047SJ,Tilburg,Tilburg,Noord-Brabant,VBO,5.037431,51.584305
Albionstraat,53,a,,5047SJ,Tilburg,Tilburg,Noord-Brabant,VBO,5.039041,51.583021
Albionstraat,53,,,5047SJ,Tilburg,Tilburg,Noord-Brabant,VBO,5.038403,51.583157
Albionstraat,55,,,5047SJ,Tilburg,Tilburg,Noord-Brabant,VBO,5.038543,51.583314
Albionstraat,65,,,5047SJ,Tilburg,Tilburg,Noord-Brabant,VBO,5.039953,51.582369
Albionstraat,69,,,5047SJ,Tilburg,Tilburg,Noord-Brabant,VBO,5.040296,51.582250
Albionstraat,71,,,5047SJ,Tilburg,Tilburg,Noord-Brabant,VBO,5.040331,51.582338
Albionstraat,73,,,5047SJ,Tilburg,Tilburg,Noord-Brabant,VBO,5.041356,51.582483
Hellasstraat,2,,,5047SK,Tilburg,Tilburg,Noord-Brabant,VBO,5.035675,51.585225
Hellasstraat,12,,,5047SK,Tilburg,Tilburg,Noord-Brabant,VBO,5.034874,51.585358
Hellasstraat,19,,,5047SK,Tilburg,Tilburg,Noord-Brabant,VBO,5.035516,51.586867
Hellasstraat,20,,,5047SK,Tilburg,Tilburg,Noord-Brabant,VBO,5.032869,51.586529
Pater Geurtjensweg,1,a,,5047SL,Tilburg,Tilburg,Noord-Brabant,VBO,5.032043,51.585811
Pater Geurtjensweg,1,,,5047SL,Tilburg,Tilburg,Noord-Brabant,VBO,5.032264,51.585662
Pater Geurtjensweg,7,,,5047SL,Tilburg,Tilburg,Noord-Brabant,VBO,5.033722,51.584628
Pater Geurtjensweg,8,,,5047SL,Tilburg,Tilburg,Noord-Brabant,VBO,5.034874,51.585358
Duijnsbergseweg,34,,,5047SM,Tilburg,Tilburg,Noord-Brabant,VBO,5.025681,51.586389
Albionstraat,60,,,5047SN,Tilburg,Tilburg,Noord-Brabant,VBO,5.037201,51.584494
Albionstraat,75,,,5047SP,Tilburg,Tilburg,Noord-Brabant,VBO,5.040102,51.582729
Albionstraat,99,a,,5047SP,Tilburg,Tilburg,Noord-Brabant,VBO,5.039346,51.583393
Albionstraat,99,,,5047SP,Tilburg,Tilburg,Noord-Brabant,VBO,5.039958,51.583610
Albionstraat,125,,,5047SP,Tilburg,Tilburg,Noord-Brabant,VBO,5.037204,51.584804
Heibloemseweg,33,,,5047SR,Tilburg,Tilburg,Noord-Brabant,VBO,5.000326,51.601133
Heibloemseweg,40,,,5047SR,Tilburg,Tilburg,Noord-Brabant,VBO,5.001585,51.601177
Boterberg,1,,,5047ST,Tilburg,Tilburg,Noord-Brabant,VBO,5.029473,51.590745
Boterberg,2,,,5047ST,Tilburg,Tilburg,Noord-Brabant,VBO,5.029806,51.590350
Boterberg,3,,,5047ST,Tilburg,Tilburg,Noord-Brabant,VBO,5.028731,51.590246
Boterberg,5,,,5047ST,Tilburg,Tilburg,Noord-Brabant,VBO,5.028180,51.590069
Boterberg,7,,,5047ST,Tilburg,Tilburg,Noord-Brabant,VBO,5.027672,51.589863
Boterberg,8,,,5047ST,Tilburg,Tilburg,Noord-Brabant,VBO,5.028735,51.589668
Boterberg,9,,,5047ST,Tilburg,Tilburg,Noord-Brabant,VBO,5.025515,51.588468
Boterberg,10,,,5047ST,Tilburg,Tilburg,Noord-Brabant,VBO,5.028472,51.589513
Boterberg,11,,,5047ST,Tilburg,Tilburg,Noord-Brabant,VBO,5.024595,51.587811
Boterberg,18,,,5047ST,Tilburg,Tilburg,Noord-Brabant,VBO,5.027305,51.588672
Boterberg,22,,,5047ST,Tilburg,Tilburg,Noord-Brabant,VBO,5.026618,51.588320
Boterberg,26,,,5047ST,Tilburg,Tilburg,Noord-Brabant,VBO,5.026185,51.588169
Boterberg,30,,,5047ST,Tilburg,Tilburg,Noord-Brabant,VBO,5.025100,51.587556
Brakman,61,,,5047SV,Tilburg,Tilburg,Noord-Brabant,VBO,5.025387,51.589948
Brakman,63,,,5047SV,Tilburg,Tilburg,Noord-Brabant,VBO,5.025601,51.589807
Brakman,65,,,5047SV,Tilburg,Tilburg,Noord-Brabant,VBO,5.026544,51.589238
Brakman,67,,,5047SV,Tilburg,Tilburg,Noord-Brabant,VBO,5.027745,51.588689
Brakman,69,,,5047SV,Tilburg,Tilburg,Noord-Brabant,VBO,5.027713,51.588671
Brakman,71,,,5047SV,Tilburg,Tilburg,Noord-Brabant,VBO,5.027818,51.588625
Brakman,77,,,5047SV,Tilburg,Tilburg,Noord-Brabant,VBO,5.028863,51.587737
Brakman,48,,,5047SW,Tilburg,Tilburg,Noord-Brabant,VBO,5.021961,51.592834
Brakman,50,,,5047SW,Tilburg,Tilburg,Noord-Brabant,VBO,5.023564,51.591958
Brakman,54,,,5047SW,Tilburg,Tilburg,Noord-Brabant,VBO,5.025266,51.591401
Brakman,60,a,,5047SW,Tilburg,Tilburg,Noord-Brabant,VBO,5.025887,51.590152
Brakman,62,,,5047SW,Tilburg,Tilburg,Noord-Brabant,VBO,5.026600,51.589920
Brakman,64,,,5047SW,Tilburg,Tilburg,Noord-Brabant,VBO,5.026767,51.589811
Brakman,66,,,5047SW,Tilburg,Tilburg,Noord-Brabant,VBO,5.026934,51.589702
Brakman,68,,,5047SW,Tilburg,Tilburg,Noord-Brabant,VBO,5.027136,51.589398
Brakman,70,,,5047SW,Tilburg,Tilburg,Noord-Brabant,VBO,5.027659,51.589017
Brakman,80,,,5047SW,Tilburg,Tilburg,Noord-Brabant,VBO,5.029853,51.588047
Heieinde,1,,,5047SX,Tilburg,Tilburg,Noord-Brabant,VBO,5.017473,51.592474
Heieinde,6,a,,5047SX,Tilburg,Tilburg,Noord-Brabant,VBO,5.019156,51.591326
Heieinde,6,b,,5047SX,Tilburg,Tilburg,Noord-Brabant,VBO,5.019232,51.591294
Heieinde,7,,,5047SX,Tilburg,Tilburg,Noord-Brabant,VBO,5.020131,51.590393
Heieinde,8,,,5047SX,Tilburg,Tilburg,Noord-Brabant,VBO,5.020102,51.590858
Heieinde,9,,,5047SX,Tilburg,Tilburg,Noord-Brabant,VBO,5.020354,51.589613
Heieinde,12,,01,5047SX,Tilburg,Tilburg,Noord-Brabant,VBO,5.022999,51.588986
Heieinde,12,,,5047SX,Tilburg,Tilburg,Noord-Brabant,VBO,5.022716,51.589029
Heieinde,13,,,5047SX,Tilburg,Tilburg,Noord-Brabant,VBO,5.024070,51.587674
Heieinde,14,,,5047SX,Tilburg,Tilburg,Noord-Brabant,VBO,5.023140,51.588738
Heieinde,15,,,5047SX,Tilburg,Tilburg,Noord-Brabant,VBO,5.024539,51.587359
Heieinde,16,,,5047SX,Tilburg,Tilburg,Noord-Brabant,VBO,5.023588,51.588465
Heieinde,18,,,5047SX,Tilburg,Tilburg,Noord-Brabant,VBO,5.023947,51.588187
Rodenberg,12,,01,5047SZ,Tilburg,Tilburg,Noord-Brabant,VBO,5.020898,51.591445
Rodenberg,12,,02,5047SZ,Tilburg,Tilburg,Noord-Brabant,VBO,5.020930,51.591425
Rodenberg,12,,03,5047SZ,Tilburg,Tilburg,Noord-Brabant,VBO,5.020962,51.591404
Rodenberg,12,,04,5047SZ,Tilburg,Tilburg,Noord-Brabant,VBO,5.020993,51.591383
Rodenberg,12,,05,5047SZ,Tilburg,Tilburg,Noord-Brabant,VBO,5.021026,51.591362
Rodenberg,12,,06,5047SZ,Tilburg,Tilburg,Noord-Brabant,VBO,5.021058,51.591341
Rodenberg,12,,07,5047SZ,Tilburg,Tilburg,Noord-Brabant,VBO,5.021090,51.591320
Rodenberg,12,,08,5047SZ,Tilburg,Tilburg,Noord-Brabant,VBO,5.021122,51.591300
Rodenberg,12,,09,5047SZ,Tilburg,Tilburg,Noord-Brabant,VBO,5.021154,51.591278
Rodenberg,12,,10,5047SZ,Tilburg,Tilburg,Noord-Brabant,VBO,5.021186,51.591257
Rodenberg,12,,11,5047SZ,Tilburg,Tilburg,Noord-Brabant,VBO,5.021218,51.591236
Rodenberg,12,,12,5047SZ,Tilburg,Tilburg,Noord-Brabant,VBO,5.021251,51.591215
Rodenberg,12,,13,5047SZ,Tilburg,Tilburg,Noord-Brabant,VBO,5.021283,51.591194
Rodenberg,12,,14,5047SZ,Tilburg,Tilburg,Noord-Brabant,VBO,5.021315,51.591173
Rodenberg,12,,15,5047SZ,Tilburg,Tilburg,Noord-Brabant,VBO,5.021347,51.591152
Rodenberg,12,,16,5047SZ,Tilburg,Tilburg,Noord-Brabant,VBO,5.021379,51.591132
Rodenberg,12,,17,5047SZ,Tilburg,Tilburg,Noord-Brabant,VBO,5.021411,51.591111
Rodenberg,12,,18,5047SZ,Tilburg,Tilburg,Noord-Brabant,VBO,5.021443,51.591090
Rodenberg,12,,19,5047SZ,Tilburg,Tilburg,Noord-Brabant,VBO,5.021475,51.591069
Rodenberg,12,,20,5047SZ,Tilburg,Tilburg,Noord-Brabant,VBO,5.021507,51.591048
Rodenberg,12,,21,5047SZ,Tilburg,Tilburg,Noord-Brabant,VBO,5.021539,51.591027
Rodenberg,12,,22,5047SZ,Tilburg,Tilburg,Noord-Brabant,VBO,5.021570,51.591007
Rodenberg,12,,23,5047SZ,Tilburg,Tilburg,Noord-Brabant,VBO,5.021602,51.590985
Rodenberg,12,,24,5047SZ,Tilburg,Tilburg,Noord-Brabant,VBO,5.021635,51.590964
Rodenberg,12,,25,5047SZ,Tilburg,Tilburg,Noord-Brabant,VBO,5.021667,51.590943
Rodenberg,12,,26,5047SZ,Tilburg,Tilburg,Noord-Brabant,VBO,5.021451,51.590815
Rodenberg,12,,27,5047SZ,Tilburg,Tilburg,Noord-Brabant,VBO,5.021419,51.590837
Rodenberg,12,,28,5047SZ,Tilburg,Tilburg,Noord-Brabant,VBO,5.021387,51.590857
Rodenberg,12,,29,5047SZ,Tilburg,Tilburg,Noord-Brabant,VBO,5.021355,51.590878
Rodenberg,12,,30,5047SZ,Tilburg,Tilburg,Noord-Brabant,VBO,5.021323,51.590899
Rodenberg,12,,31,5047SZ,Tilburg,Tilburg,Noord-Brabant,VBO,5.021291,51.590920
Rodenberg,12,,32,5047SZ,Tilburg,Tilburg,Noord-Brabant,VBO,5.021259,51.590941
Rodenberg,12,,33,5047SZ,Tilburg,Tilburg,Noord-Brabant,VBO,5.021227,51.590962
Rodenberg,12,,34,5047SZ,Tilburg,Tilburg,Noord-Brabant,VBO,5.021195,51.590983
Rodenberg,12,,35,5047SZ,Tilburg,Tilburg,Noord-Brabant,VBO,5.021163,51.591003
Rodenberg,12,,36,5047SZ,Tilburg,Tilburg,Noord-Brabant,VBO,5.021131,51.591024
Rodenberg,12,,37,5047SZ,Tilburg,Tilburg,Noord-Brabant,VBO,5.021099,51.591045
Rodenberg,12,,38,5047SZ,Tilburg,Tilburg,Noord-Brabant,VBO,5.021067,51.591066
Rodenberg,12,,39,5047SZ,Tilburg,Tilburg,Noord-Brabant,VBO,5.021035,51.591087
Rodenberg,12,,40,5047SZ,Tilburg,Tilburg,Noord-Brabant,VBO,5.021003,51.591108
Rodenberg,12,,41,5047SZ,Tilburg,Tilburg,Noord-Brabant,VBO,5.020971,51.591129
Rodenberg,12,,42,5047SZ,Tilburg,Tilburg,Noord-Brabant,VBO,5.020939,51.591150
Rodenberg,12,,43,5047SZ,Tilburg,Tilburg,Noord-Brabant,VBO,5.020907,51.591171
Rodenberg,12,,44,5047SZ,Tilburg,Tilburg,Noord-Brabant,VBO,5.020875,51.591192
Rodenberg,12,,45,5047SZ,Tilburg,Tilburg,Noord-Brabant,VBO,5.020843,51.591213
Rodenberg,12,,46,5047SZ,Tilburg,Tilburg,Noord-Brabant,VBO,5.020811,51.591234
Rodenberg,12,,47,5047SZ,Tilburg,Tilburg,Noord-Brabant,VBO,5.020779,51.591255
Rodenberg,12,,48,5047SZ,Tilburg,Tilburg,Noord-Brabant,VBO,5.020747,51.591276
Rodenberg,12,,49,5047SZ,Tilburg,Tilburg,Noord-Brabant,VBO,5.020715,51.591296
Rodenberg,12,,50,5047SZ,Tilburg,Tilburg,Noord-Brabant,VBO,5.020683,51.591317
Rodenberg,51,,,5047SZ,Tilburg,Tilburg,Noord-Brabant,VBO,5.020035,51.591666
Groenvenseweg,1,,,5047TB,Tilburg,Tilburg,Noord-Brabant,VBO,4.996364,51.607820
Rouwveldenseweg,30,,,5047TC,Tilburg,Tilburg,Noord-Brabant,VBO,4.988561,51.601292
Schepersdijk,38,,,5047TD,Tilburg,Tilburg,Noord-Brabant,VBO,4.997933,51.594852
Schepersdijk,40,,,5047TD,Tilburg,Tilburg,Noord-Brabant,VBO,4.997994,51.594921
Schepersdijk,42,,,5047TD,Tilburg,Tilburg,Noord-Brabant,VBO,4.998154,51.595014
Uiterste Stuiver-West,3,,,5047TE,Tilburg,Tilburg,Noord-Brabant,VBO,4.980716,51.608609
Uiterste Stuiver-West,40,,,5047TE,Tilburg,Tilburg,Noord-Brabant,VBO,4.980729,51.608011
Uiterste Stuiver-West,50,,,5047TE,Tilburg,Tilburg,Noord-Brabant,VBO,4.978075,51.608577
Voldijk,20,,,5047TG,Tilburg,Tilburg,Noord-Brabant,VBO,4.988879,51.599410
Dongensekanaaldijk,9,,,5047TJ,Tilburg,Tilburg,Noord-Brabant,VBO,4.992176,51.596962
Dongensekanaaldijk,11,,,5047TJ,Tilburg,Tilburg,Noord-Brabant,VBO,4.992070,51.597001
Oudenstaart,1,,,5047TK,Tilburg,Tilburg,Noord-Brabant,VBO,5.016051,51.594304
Oudenstaart,11,,,5047TK,Tilburg,Tilburg,Noord-Brabant,VBO,5.015481,51.598448
Rheastraat,2,,,5047TL,Tilburg,Tilburg,Noord-Brabant,VBO,5.004570,51.595067
Rheastraat,3,,,5047TL,Tilburg,Tilburg,Noord-Brabant,VBO,5.007094,51.593640
Rheastraat,12,a,,5047TL,Tilburg,Tilburg,Noord-Brabant,VBO,5.008869,51.593549
Rheastraat,12,,,5047TL,Tilburg,Tilburg,Noord-Brabant,VBO,5.008847,51.593526
Rheastraat,14,,,5047TL,Tilburg,Tilburg,Noord-Brabant,VBO,5.009582,51.594107
Rheastraat,17,,,5047TL,Tilburg,Tilburg,Noord-Brabant,VBO,5.008315,51.593367
Rheastraat,18,a,,5047TL,Tilburg,Tilburg,Noord-Brabant,VBO,5.010651,51.593936
Rheastraat,18,,,5047TL,Tilburg,Tilburg,Noord-Brabant,VBO,5.010772,51.594060
Rheastraat,19,,,5047TL,Tilburg,Tilburg,Noord-Brabant,VBO,5.008448,51.593261
Rheastraat,20,,,5047TL,Tilburg,Tilburg,Noord-Brabant,VBO,5.010170,51.593604
Rheastraat,21,,,5047TL,Tilburg,Tilburg,Noord-Brabant,VBO,5.008757,51.593143
Rheastraat,22,,,5047TL,Tilburg,Tilburg,Noord-Brabant,VBO,5.010052,51.593271
Rheastraat,23,,,5047TL,Tilburg,Tilburg,Noord-Brabant,VBO,5.008495,51.592806
Rheastraat,24,,,5047TL,Tilburg,Tilburg,Noord-Brabant,VBO,5.009421,51.593007
Rheastraat,25,,,5047TL,Tilburg,Tilburg,Noord-Brabant,VBO,5.008396,51.592706
Rheastraat,26,,,5047TL,Tilburg,Tilburg,Noord-Brabant,VBO,5.009089,51.592670
Rheastraat,27,,,5047TL,Tilburg,Tilburg,Noord-Brabant,VBO,5.008161,51.592477
Rheastraat,28,,,5047TL,Tilburg,Tilburg,Noord-Brabant,VBO,5.008974,51.592555
Rheastraat,30,,,5047TL,Tilburg,Tilburg,Noord-Brabant,VBO,5.009367,51.592353
Rheastraat,32,,,5047TL,Tilburg,Tilburg,Noord-Brabant,VBO,5.009553,51.592281
Rheastraat,33,,,5047TL,Tilburg,Tilburg,Noord-Brabant,VBO,5.007939,51.592261
Rheastraat,34,,,5047TL,Tilburg,Tilburg,Noord-Brabant,VBO,5.008647,51.592223
Rheastraat,35,,,5047TL,Tilburg,Tilburg,Noord-Brabant,VBO,5.007840,51.592160
Rheastraat,38,,,5047TL,Tilburg,Tilburg,Noord-Brabant,VBO,5.008343,51.591911
Rheastraat,39,,,5047TL,Tilburg,Tilburg,Noord-Brabant,VBO,5.007617,51.591961
Rheastraat,40,,,5047TL,Tilburg,Tilburg,Noord-Brabant,VBO,5.008196,51.591763
Rheastraat,41,,,5047TL,Tilburg,Tilburg,Noord-Brabant,VBO,5.007580,51.591975
Rheastraat,43,,,5047TL,Tilburg,Tilburg,Noord-Brabant,VBO,5.007472,51.591813
Gesworenhoekseweg,1,,,5047TM,Tilburg,Tilburg,Noord-Brabant,VBO,5.011506,51.600731
Gesworenhoekseweg,2,,,5047TM,Tilburg,Tilburg,Noord-Brabant,VBO,5.015671,51.601448
Gesworenhoekseweg,3,,,5047TM,Tilburg,Tilburg,Noord-Brabant,VBO,5.010141,51.599922
Gesworenhoekseweg,4,a,,5047TM,Tilburg,Tilburg,Noord-Brabant,VBO,5.015924,51.598968
Gesworenhoekseweg,4,,,5047TM,Tilburg,Tilburg,Noord-Brabant,VBO,5.013361,51.600338
Gesworenhoekseweg,5,,,5047TM,Tilburg,Tilburg,Noord-Brabant,VBO,5.007672,51.598459
Gesworenhoekseweg,5,,,5047TM,Tilburg,Tilburg,Noord-Brabant,VBO,5.008196,51.598768
Gesworenhoekseweg,7,,,5047TM,Tilburg,Tilburg,Noord-Brabant,VBO,5.007147,51.598150
Gesworenhoekseweg,8,,,5047TM,Tilburg,Tilburg,Noord-Brabant,VBO,5.005581,51.595641
Gesworenhoekseweg,9,,,5047TM,Tilburg,Tilburg,Noord-Brabant,VBO,5.004493,51.596196
Gesworenhoekseweg,10,,,5047TM,Tilburg,Tilburg,Noord-Brabant,VBO,5.004215,51.594564
Gesworenhoekseweg,11,,,5047TM,Tilburg,Tilburg,Noord-Brabant,VBO,5.004456,51.596210
Gesworenhoekseweg,12,,,5047TM,Tilburg,Tilburg,Noord-Brabant,VBO,5.003965,51.594102
Vierbundersweg,48,,,5047TN,Tilburg,Tilburg,Noord-Brabant,VBO,4.956545,51.612657
Vierbundersweg,52,,,5047TN,Tilburg,Tilburg,Noord-Brabant,VBO,4.957006,51.611445
Vierbundersweg,56,,,5047TN,Tilburg,Tilburg,Noord-Brabant,VBO,4.958439,51.613215
Vierbundersweg,64,,,5047TN,Tilburg,Tilburg,Noord-Brabant,VBO,4.962236,51.613004
Vierbundersweg,68,,,5047TN,Tilburg,Tilburg,Noord-Brabant,VBO,4.966844,51.611999
Vierbundersweg,70,,,5047TN,Tilburg,Tilburg,Noord-Brabant,VBO,4.968317,51.611594
Vierbundersweg,72,,,5047TN,Tilburg,Tilburg,Noord-Brabant,VBO,4.969087,51.611292
Vierbundersweg,78,,,5047TN,Tilburg,Tilburg,Noord-Brabant,VBO,4.970638,51.610648
Vierbundersweg,80,,,5047TN,Tilburg,Tilburg,Noord-Brabant,VBO,4.971413,51.610506
Vierbundersweg,82,,,5047TN,Tilburg,Tilburg,Noord-Brabant,VBO,4.972439,51.610237
Vierbundersweg,90,,,5047TN,Tilburg,Tilburg,Noord-Brabant,VBO,4.977485,51.608708
Selenakker,1,,,5047TP,Tilburg,Tilburg,Noord-Brabant,VBO,5.029424,51.590069
Selenakker,3,,,5047TP,Tilburg,Tilburg,Noord-Brabant,VBO,5.029720,51.589875
Selenakker,5,,,5047TP,Tilburg,Tilburg,Noord-Brabant,VBO,5.029390,51.589612
Selenakker,10,,,5047TP,Tilburg,Tilburg,Noord-Brabant,VBO,5.030132,51.589715
Selenakker,12,,,5047TP,Tilburg,Tilburg,Noord-Brabant,VBO,5.029545,51.589349
Selenakker,26,,,5047TP,Tilburg,Tilburg,Noord-Brabant,VBO,5.029093,51.588907
Selenakker,28,,,5047TP,Tilburg,Tilburg,Noord-Brabant,VBO,5.028758,51.588825
Selenakker,30,,,5047TP,Tilburg,Tilburg,Noord-Brabant,VBO,5.028517,51.588690
Kranenberg,1,,,5047TR,Tilburg,Tilburg,Noord-Brabant,VBO,5.024078,51.590400
Kranenberg,2,,,5047TR,Tilburg,Tilburg,Noord-Brabant,VBO,5.027511,51.591517
Kranenberg,3,,,5047TR,Tilburg,Tilburg,Noord-Brabant,VBO,5.023481,51.590048
Kranenberg,4,,,5047TR,Tilburg,Tilburg,Noord-Brabant,VBO,5.024742,51.590210
Kranenberg,5,a,,5047TR,Tilburg,Tilburg,Noord-Brabant,VBO,5.023319,51.589786
Kranenberg,5,,,5047TR,Tilburg,Tilburg,Noord-Brabant,VBO,5.023368,51.589981
Kranenberg,6,,,5047TR,Tilburg,Tilburg,Noord-Brabant,VBO,5.024200,51.589904
Kranenberg,7,,,5047TR,Tilburg,Tilburg,Noord-Brabant,VBO,5.023142,51.589846
Kranenberg,8,,01,5047TR,Tilburg,Tilburg,Noord-Brabant,VBO,5.024261,51.589240
Kranenberg,8,,02,5047TR,Tilburg,Tilburg,Noord-Brabant,VBO,5.024081,51.589134
Kranenberg,8,,,5047TR,Tilburg,Tilburg,Noord-Brabant,VBO,5.023574,51.589531
Kranenberg,9,,,5047TR,Tilburg,Tilburg,Noord-Brabant,VBO,5.023028,51.589779
Kranenberg,10,,,5047TR,Tilburg,Tilburg,Noord-Brabant,VBO,5.021920,51.588165
Kranenberg,11,,,5047TR,Tilburg,Tilburg,Noord-Brabant,VBO,5.022643,51.589572
Kranenberg,15,,,5047TR,Tilburg,Tilburg,Noord-Brabant,VBO,5.022289,51.589438
Kranenberg,17,,,5047TR,Tilburg,Tilburg,Noord-Brabant,VBO,5.021955,51.589056
Kranenberg,19,,,5047TR,Tilburg,Tilburg,Noord-Brabant,VBO,5.021470,51.588767
Kranenberg,21,,,5047TR,Tilburg,Tilburg,Noord-Brabant,VBO,5.021177,51.588600
Kranenberg,23,,,5047TR,Tilburg,Tilburg,Noord-Brabant,VBO,5.020821,51.588424
Hermesstraat,1,,,5047TS,Tilburg,Tilburg,Noord-Brabant,VBO,5.012334,51.592345
Hermesstraat,2,,,5047TS,Tilburg,Tilburg,Noord-Brabant,VBO,5.016018,51.592861
Hermesstraat,6,,,5047TS,Tilburg,Tilburg,Noord-Brabant,VBO,5.012923,51.590990
Hermesstraat,8,,,5047TS,Tilburg,Tilburg,Noord-Brabant,VBO,5.014425,51.591757
Hermesstraat,10,,,5047TS,Tilburg,Tilburg,Noord-Brabant,VBO,5.011901,51.589889
Persephonéstraat,1,,,5047TT,Tilburg,Tilburg,Noord-Brabant,VBO,5.013024,51.590925
Persephonéstraat,2,,,5047TT,Tilburg,Tilburg,Noord-Brabant,VBO,5.013614,51.591224
Persephonéstraat,3,,01,5047TT,Tilburg,Tilburg,Noord-Brabant,VBO,5.013765,51.590311
Persephonéstraat,3,,02,5047TT,Tilburg,Tilburg,Noord-Brabant,VBO,5.013712,51.590257
Persephonéstraat,3,,03,5047TT,Tilburg,Tilburg,Noord-Brabant,VBO,5.013657,51.590202
Persephonéstraat,3,,04,5047TT,Tilburg,Tilburg,Noord-Brabant,VBO,5.013603,51.590146
Persephonéstraat,3,,05,5047TT,Tilburg,Tilburg,Noord-Brabant,VBO,5.013548,51.590091
Persephonéstraat,3,,06,5047TT,Tilburg,Tilburg,Noord-Brabant,VBO,5.013494,51.590036
Persephonéstraat,3,,07,5047TT,Tilburg,Tilburg,Noord-Brabant,VBO,5.013439,51.589981
Persephonéstraat,3,,08,5047TT,Tilburg,Tilburg,Noord-Brabant,VBO,5.013385,51.589925
Persephonéstraat,5,,01,5047TT,Tilburg,Tilburg,Noord-Brabant,VBO,5.013888,51.590267
Persephonéstraat,5,,02,5047TT,Tilburg,Tilburg,Noord-Brabant,VBO,5.013833,51.590211
Persephonéstraat,5,,03,5047TT,Tilburg,Tilburg,Noord-Brabant,VBO,5.013778,51.590155
Persephonéstraat,5,,04,5047TT,Tilburg,Tilburg,Noord-Brabant,VBO,5.013724,51.590100
Persephonéstraat,5,,05,5047TT,Tilburg,Tilburg,Noord-Brabant,VBO,5.013669,51.590045
Persephonéstraat,5,,06,5047TT,Tilburg,Tilburg,Noord-Brabant,VBO,5.013615,51.589989
Persephonéstraat,5,,07,5047TT,Tilburg,Tilburg,Noord-Brabant,VBO,5.013561,51.589934
Persephonéstraat,5,,08,5047TT,Tilburg,Tilburg,Noord-Brabant,VBO,5.013506,51.589878
Persephonéstraat,7,a,,5047TT,Tilburg,Tilburg,Noord-Brabant,VBO,5.014880,51.589717
Persephonéstraat,7,,,5047TT,Tilburg,Tilburg,Noord-Brabant,VBO,5.014528,51.589792
Persephonéstraat,9,,01,5047TT,Tilburg,Tilburg,Noord-Brabant,VBO,5.014776,51.589510
Persephonéstraat,9,,02,5047TT,Tilburg,Tilburg,Noord-Brabant,VBO,5.014864,51.589558
Persephonéstraat,9,,03,5047TT,Tilburg,Tilburg,Noord-Brabant,VBO,5.014934,51.589511
Persephonéstraat,9,,04,5047TT,Tilburg,Tilburg,Noord-Brabant,VBO,5.015005,51.589464
Persephonéstraat,9,,05,5047TT,Tilburg,Tilburg,Noord-Brabant,VBO,5.015075,51.589417
Persephonéstraat,9,,06,5047TT,Tilburg,Tilburg,Noord-Brabant,VBO,5.015147,51.589370
Persephonéstraat,9,,07,5047TT,Tilburg,Tilburg,Noord-Brabant,VBO,5.015066,51.589318
Persephonéstraat,9,,08,5047TT,Tilburg,Tilburg,Noord-Brabant,VBO,5.014990,51.589274
Persephonéstraat,9,,09,5047TT,Tilburg,Tilburg,Noord-Brabant,VBO,5.014911,51.589227
Persephonéstraat,9,,10,5047TT,Tilburg,Tilburg,Noord-Brabant,VBO,5.014830,51.589180
Persephonéstraat,9,,11,5047TT,Tilburg,Tilburg,Noord-Brabant,VBO,5.014749,51.589133
Persephonéstraat,9,,12,5047TT,Tilburg,Tilburg,Noord-Brabant,VBO,5.014669,51.589087
Persephonéstraat,9,,13,5047TT,Tilburg,Tilburg,Noord-Brabant,VBO,5.014587,51.589039
Persephonéstraat,9,,14,5047TT,Tilburg,Tilburg,Noord-Brabant,VBO,5.014299,51.589230
Persephonéstraat,9,,15,5047TT,Tilburg,Tilburg,Noord-Brabant,VBO,5.014379,51.589278
Persephonéstraat,9,,16,5047TT,Tilburg,Tilburg,Noord-Brabant,VBO,5.014460,51.589325
Persephonéstraat,9,,17,5047TT,Tilburg,Tilburg,Noord-Brabant,VBO,5.014540,51.589372
Persephonéstraat,9,,18,5047TT,Tilburg,Tilburg,Noord-Brabant,VBO,5.014620,51.589419
Persephonéstraat,9,,19,5047TT,Tilburg,Tilburg,Noord-Brabant,VBO,5.014700,51.589466
Persephonéstraat,17,,,5047TT,Tilburg,Tilburg,Noord-Brabant,VBO,5.015425,51.589263
Persephonéstraat,19,,,5047TT,Tilburg,Tilburg,Noord-Brabant,VBO,5.015664,51.589093
Persephonéstraat,38,a,,5047TT,Tilburg,Tilburg,Noord-Brabant,VBO,5.015464,51.589574
Persephonéstraat,38,,,5047TT,Tilburg,Tilburg,Noord-Brabant,VBO,5.015505,51.589878
Persephonéstraat,40,,,5047TT,Tilburg,Tilburg,Noord-Brabant,VBO,5.015677,51.589520
Persephonéstraat,42,,,5047TT,Tilburg,Tilburg,Noord-Brabant,VBO,5.015825,51.589422
Persephonéstraat,44,,,5047TT,Tilburg,Tilburg,Noord-Brabant,VBO,5.015993,51.589310
Apollostraat,1,,01,5047TV,Tilburg,Tilburg,Noord-Brabant,VBO,5.018999,51.590983
Apollostraat,1,,,5047TV,Tilburg,Tilburg,Noord-Brabant,VBO,5.018102,51.590611
Apollostraat,3,,,5047TV,Tilburg,Tilburg,Noord-Brabant,VBO,5.017290,51.590039
Apollostraat,7,,,5047TV,Tilburg,Tilburg,Noord-Brabant,VBO,5.016975,51.589831
Apollostraat,10,,,5047TV,Tilburg,Tilburg,Noord-Brabant,VBO,5.018342,51.589361
Apollostraat,11,,,5047TV,Tilburg,Tilburg,Noord-Brabant,VBO,5.016674,51.589614
Apollostraat,15,,01,5047TV,Tilburg,Tilburg,Noord-Brabant,VBO,5.016143,51.589619
Apollostraat,15,,02,5047TV,Tilburg,Tilburg,Noord-Brabant,VBO,5.016226,51.589669
Apollostraat,15,,,5047TV,Tilburg,Tilburg,Noord-Brabant,VBO,5.016389,51.589445
Apollostraat,21,,,5047TV,Tilburg,Tilburg,Noord-Brabant,VBO,5.015496,51.588940
Apollostraat,23,,,5047TV,Tilburg,Tilburg,Noord-Brabant,VBO,5.015218,51.588750
Apollostraat,25,,,5047TV,Tilburg,Tilburg,Noord-Brabant,VBO,5.015060,51.588656
Aphroditestraat,1,,,5047TW,Tilburg,Tilburg,Noord-Brabant,VBO,5.028410,51.586975
Aphroditestraat,2,,,5047TW,Tilburg,Tilburg,Noord-Brabant,VBO,5.029650,51.587191
Aphroditestraat,3,,,5047TW,Tilburg,Tilburg,Noord-Brabant,VBO,5.028030,51.586723
Aphroditestraat,4,,,5047TW,Tilburg,Tilburg,Noord-Brabant,VBO,5.029487,51.586744
Aphroditestraat,5,,,5047TW,Tilburg,Tilburg,Noord-Brabant,VBO,5.028063,51.586740
Aphroditestraat,6,,,5047TW,Tilburg,Tilburg,Noord-Brabant,VBO,5.028678,51.586664
Aphroditestraat,7,,,5047TW,Tilburg,Tilburg,Noord-Brabant,VBO,5.028095,51.586758
Aphroditestraat,8,,,5047TW,Tilburg,Tilburg,Noord-Brabant,VBO,5.028581,51.586611
Aphroditestraat,9,,,5047TW,Tilburg,Tilburg,Noord-Brabant,VBO,5.027952,51.586778
Aphroditestraat,10,,,5047TW,Tilburg,Tilburg,Noord-Brabant,VBO,5.028487,51.586560
Aphroditestraat,11,,,5047TW,Tilburg,Tilburg,Noord-Brabant,VBO,5.027874,51.586834
Aphroditestraat,13,,,5047TW,Tilburg,Tilburg,Noord-Brabant,VBO,5.027795,51.586890
Aphroditestraat,15,,,5047TW,Tilburg,Tilburg,Noord-Brabant,VBO,5.027719,51.586944
Aphroditestraat,17,,,5047TW,Tilburg,Tilburg,Noord-Brabant,VBO,5.027642,51.586999
Aphroditestraat,18,,,5047TW,Tilburg,Tilburg,Noord-Brabant,VBO,5.028622,51.585996
Aphroditestraat,19,,,5047TW,Tilburg,Tilburg,Noord-Brabant,VBO,5.027564,51.587055
Aphroditestraat,21,,,5047TW,Tilburg,Tilburg,Noord-Brabant,VBO,5.027488,51.587109
Aphroditestraat,23,,,5047TW,Tilburg,Tilburg,Noord-Brabant,VBO,5.027410,51.587165
Aphroditestraat,24,,,5047TW,Tilburg,Tilburg,Noord-Brabant,VBO,5.027715,51.585875
Aphroditestraat,25,,,5047TW,Tilburg,Tilburg,Noord-Brabant,VBO,5.027336,51.587218
Aphroditestraat,27,,,5047TW,Tilburg,Tilburg,Noord-Brabant,VBO,5.027368,51.587235
Aphroditestraat,29,,,5047TW,Tilburg,Tilburg,Noord-Brabant,VBO,5.027401,51.587253
Aphroditestraat,31,,,5047TW,Tilburg,Tilburg,Noord-Brabant,VBO,5.027129,51.587105
Aphroditestraat,33,,,5047TW,Tilburg,Tilburg,Noord-Brabant,VBO,5.027097,51.587087
Aphroditestraat,35,,,5047TW,Tilburg,Tilburg,Noord-Brabant,VBO,5.027064,51.587070
Aphroditestraat,37,,,5047TW,Tilburg,Tilburg,Noord-Brabant,VBO,5.027203,51.587053
Aphroditestraat,39,,,5047TW,Tilburg,Tilburg,Noord-Brabant,VBO,5.027281,51.586997
Aphroditestraat,43,,,5047TW,Tilburg,Tilburg,Noord-Brabant,VBO,5.027437,51.586886
Aphroditestraat,45,,,5047TW,Tilburg,Tilburg,Noord-Brabant,VBO,5.027513,51.586832
Aphroditestraat,47,,,5047TW,Tilburg,Tilburg,Noord-Brabant,VBO,5.027590,51.586777
Aphroditestraat,49,,,5047TW,Tilburg,Tilburg,Noord-Brabant,VBO,5.027668,51.586722
Aphroditestraat,51,,,5047TW,Tilburg,Tilburg,Noord-Brabant,VBO,5.027745,51.586667
Aphroditestraat,53,,,5047TW,Tilburg,Tilburg,Noord-Brabant,VBO,5.027824,51.586611
Aphroditestraat,55,,,5047TW,Tilburg,Tilburg,Noord-Brabant,VBO,5.027791,51.586593
Aphroditestraat,57,,,5047TW,Tilburg,Tilburg,Noord-Brabant,VBO,5.027759,51.586575
Aphroditestraat,59,,,5047TW,Tilburg,Tilburg,Noord-Brabant,VBO,5.027443,51.586477
Aphroditestraat,61,,,5047TW,Tilburg,Tilburg,Noord-Brabant,VBO,5.027311,51.586406
Aphroditestraat,63,,,5047TW,Tilburg,Tilburg,Noord-Brabant,VBO,5.027158,51.586322
Aphroditestraat,67,,,5047TW,Tilburg,Tilburg,Noord-Brabant,VBO,5.026976,51.586768
Aphroditestraat,69,,,5047TW,Tilburg,Tilburg,Noord-Brabant,VBO,5.026857,51.586703
Aphroditestraat,71,,,5047TW,Tilburg,Tilburg,Noord-Brabant,VBO,5.026742,51.586640
Aphroditestraat,73,,,5047TW,Tilburg,Tilburg,Noord-Brabant,VBO,5.026625,51.586576
Aphroditestraat,75,,,5047TW,Tilburg,Tilburg,Noord-Brabant,VBO,5.026596,51.586597
Aphroditestraat,77,,,5047TW,Tilburg,Tilburg,Noord-Brabant,VBO,5.026394,51.586740
Aphroditestraat,79,,,5047TW,Tilburg,Tilburg,Noord-Brabant,VBO,5.026423,51.586719
Aphroditestraat,81,,,5047TW,Tilburg,Tilburg,Noord-Brabant,VBO,5.026511,51.586803
Aphroditestraat,83,,,5047TW,Tilburg,Tilburg,Noord-Brabant,VBO,5.026628,51.586868
Aphroditestraat,85,,,5047TW,Tilburg,Tilburg,Noord-Brabant,VBO,5.026746,51.586932
Herastraat,5,,,5047TX,Tilburg,Tilburg,Noord-Brabant,VBO,5.014015,51.588984
Herastraat,9,,,5047TX,Tilburg,Tilburg,Noord-Brabant,VBO,5.013563,51.589183
Herastraat,15,,,5047TX,Tilburg,Tilburg,Noord-Brabant,VBO,5.012999,51.589403
Herastraat,37,,,5047TX,Tilburg,Tilburg,Noord-Brabant,VBO,5.008325,51.591140
Herastraat,39,a,,5047TX,Tilburg,Tilburg,Noord-Brabant,VBO,5.007131,51.591681
Herastraat,39,,,5047TX,Tilburg,Tilburg,Noord-Brabant,VBO,5.007780,51.591348
Herastraat,41,,,5047TX,Tilburg,Tilburg,Noord-Brabant,VBO,5.006758,51.591767
Herastraat,43,,01,5047TX,Tilburg,Tilburg,Noord-Brabant,VBO,5.006512,51.591923
Herastraat,43,,02,5047TX,Tilburg,Tilburg,Noord-Brabant,VBO,5.006392,51.591921
Herastraat,43,,03,5047TX,Tilburg,Tilburg,Noord-Brabant,VBO,5.006306,51.591954
Herastraat,43,,04,5047TX,Tilburg,Tilburg,Noord-Brabant,VBO,5.006255,51.592022
Herastraat,43,,05,5047TX,Tilburg,Tilburg,Noord-Brabant,VBO,5.006309,51.592076
Herastraat,43,,06,5047TX,Tilburg,Tilburg,Noord-Brabant,VBO,5.006362,51.592131
Herastraat,43,,07,5047TX,Tilburg,Tilburg,Noord-Brabant,VBO,5.006416,51.592185
Herastraat,43,,08,5047TX,Tilburg,Tilburg,Noord-Brabant,VBO,5.006470,51.592240
Herastraat,43,,09,5047TX,Tilburg,Tilburg,Noord-Brabant,VBO,5.006524,51.592294
Herastraat,43,,10,5047TX,Tilburg,Tilburg,Noord-Brabant,VBO,5.006578,51.592349
Herastraat,43,,11,5047TX,Tilburg,Tilburg,Noord-Brabant,VBO,5.006835,51.592250
Herastraat,43,,12,5047TX,Tilburg,Tilburg,Noord-Brabant,VBO,5.006781,51.592196
Herastraat,43,,13,5047TX,Tilburg,Tilburg,Noord-Brabant,VBO,5.006728,51.592141
Herastraat,43,,14,5047TX,Tilburg,Tilburg,Noord-Brabant,VBO,5.006674,51.592087
Herastraat,43,,15,5047TX,Tilburg,Tilburg,Noord-Brabant,VBO,5.006620,51.592032
Herastraat,43,,16,5047TX,Tilburg,Tilburg,Noord-Brabant,VBO,5.006566,51.591978
Herastraat,47,,,5047TX,Tilburg,Tilburg,Noord-Brabant,VBO,5.005840,51.592156
Herastraat,49,,,5047TX,Tilburg,Tilburg,Noord-Brabant,VBO,5.005181,51.592389
Herastraat,51,,,5047TX,Tilburg,Tilburg,Noord-Brabant,VBO,5.004648,51.592751
Herastraat,53,a,,5047TX,Tilburg,Tilburg,Noord-Brabant,VBO,5.003881,51.592723
Herastraat,53,,,5047TX,Tilburg,Tilburg,Noord-Brabant,VBO,5.004294,51.592889
Herastraat,55,,,5047TX,Tilburg,Tilburg,Noord-Brabant,VBO,5.003657,51.593135
Caledoniastraat,1,,01,5047TZ,Tilburg,Tilburg,Noord-Brabant,VBO,5.033285,51.583835
Caledoniastraat,1,,02,5047TZ,Tilburg,Tilburg,Noord-Brabant,VBO,5.033105,51.583878
Caledoniastraat,1,,,5047TZ,Tilburg,Tilburg,Noord-Brabant,VBO,5.033608,51.583785
Caledoniastraat,3,,,5047TZ,Tilburg,Tilburg,Noord-Brabant,VBO,5.032827,51.583939
Caledoniastraat,5,,,5047TZ,Tilburg,Tilburg,Noord-Brabant,VBO,5.032533,51.583992
Caledoniastraat,7,,,5047TZ,Tilburg,Tilburg,Noord-Brabant,VBO,5.032184,51.584075
Caledoniastraat,9,,,5047TZ,Tilburg,Tilburg,Noord-Brabant,VBO,5.032011,51.584107
Caledoniastraat,10,,,5047TZ,Tilburg,Tilburg,Noord-Brabant,VBO,5.032018,51.583621
Caledoniastraat,13,,,5047TZ,Tilburg,Tilburg,Noord-Brabant,VBO,5.031336,51.584236
Caledoniastraat,15,,,5047TZ,Tilburg,Tilburg,Noord-Brabant,VBO,5.031403,51.584190
Hestiastraat,1,,,5047VA,Tilburg,Tilburg,Noord-Brabant,VBO,5.031279,51.588530
Hestiastraat,2,,,5047VA,Tilburg,Tilburg,Noord-Brabant,VBO,5.030503,51.587626
Hestiastraat,4,,,5047VA,Tilburg,Tilburg,Noord-Brabant,VBO,5.030762,51.587767
Hestiastraat,8,,,5047VA,Tilburg,Tilburg,Noord-Brabant,VBO,5.031034,51.587899
Hestiastraat,10,,,5047VA,Tilburg,Tilburg,Noord-Brabant,VBO,5.031492,51.588133
Hestiastraat,12,,,5047VA,Tilburg,Tilburg,Noord-Brabant,VBO,5.031945,51.587818
Hestiastraat,16,,,5047VA,Tilburg,Tilburg,Noord-Brabant,VBO,5.031074,51.587424
Hestiastraat,18,,,5047VA,Tilburg,Tilburg,Noord-Brabant,VBO,5.030911,51.587191
