openbareruimtenaam,huisnummer,huisletter,huisnummertoevoeging,postcode,woonplaatsnaam,gemeentenaam,provincienaam,typeadresseerbaarobject,longitude,latitude
Heihoef,1,a,,5113BA,Ulicoten,Baarle-Nassau,Noord-Brabant,VBO,4.868038,51.451686
Heihoef,1,,,5113BA,Ulicoten,Baarle-Nassau,Noord-Brabant,VBO,4.868926,51.453263
Heihoef,3,,,5113BA,Ulicoten,Baarle-Nassau,Noord-Brabant,VBO,4.868201,51.451201
Heihoef,5,,,5113BA,Ulicoten,Baarle-Nassau,Noord-Brabant,VBO,4.867510,51.451297
Fransebaan,2,a,,5113BB,Ulicoten,Baarle-Nassau,Noord-Brabant,VBO,4.899625,51.456245
Fransebaan,2,b,,5113BB,Ulicoten,Baarle-Nassau,Noord-Brabant,VBO,4.903985,51.456182
Fransebaan,2,,,5113BB,Ulicoten,Baarle-Nassau,Noord-Brabant,VBO,4.899596,51.456308
Fransebaan,4,,,5113BB,Ulicoten,Baarle-Nassau,Noord-Brabant,VBO,4.900174,51.456076
Maaijkant,1,,,5113BC,Ulicoten,Baarle-Nassau,Noord-Brabant,VBO,4.863029,51.460644
Maaijkant,2,a,,5113BC,Ulicoten,Baarle-Nassau,Noord-Brabant,VBO,4.868788,51.462871
Maaijkant,2,d,,5113BC,Ulicoten,Baarle-Nassau,Noord-Brabant,VBO,4.860694,51.457190
Maaijkant,2,,,5113BC,Ulicoten,Baarle-Nassau,Noord-Brabant,VBO,4.868471,51.462942
Maaijkant,3,a,,5113BC,Ulicoten,Baarle-Nassau,Noord-Brabant,VBO,4.864730,51.461631
Maaijkant,3,,,5113BC,Ulicoten,Baarle-Nassau,Noord-Brabant,VBO,4.864679,51.461595
Maaijkant,4,a,,5113BC,Ulicoten,Baarle-Nassau,Noord-Brabant,VBO,4.869383,51.463665
Maaijkant,4,,,5113BC,Ulicoten,Baarle-Nassau,Noord-Brabant,VBO,4.869319,51.462973
Maaijkant,5,a,,5113BC,Ulicoten,Baarle-Nassau,Noord-Brabant,VBO,4.865373,51.461975
Maaijkant,5,,,5113BC,Ulicoten,Baarle-Nassau,Noord-Brabant,VBO,4.864797,51.462036
Maaijkant,6,,,5113BC,Ulicoten,Baarle-Nassau,Noord-Brabant,VBO,4.869926,51.462751
Maaijkant,7,,,5113BC,Ulicoten,Baarle-Nassau,Noord-Brabant,VBO,4.867793,51.463029
Maaijkant,8,,,5113BC,Ulicoten,Baarle-Nassau,Noord-Brabant,VBO,4.870769,51.464579
Maaijkant,9,,,5113BC,Ulicoten,Baarle-Nassau,Noord-Brabant,VBO,4.867795,51.462867
Maaijkant,11,,,5113BC,Ulicoten,Baarle-Nassau,Noord-Brabant,VBO,4.868766,51.463546
Maaijkant,12,,,5113BC,Ulicoten,Baarle-Nassau,Noord-Brabant,VBO,4.871713,51.465069
Maaijkant,13,,,5113BC,Ulicoten,Baarle-Nassau,Noord-Brabant,VBO,4.872602,51.466664
Maaijkant,14,,,5113BC,Ulicoten,Baarle-Nassau,Noord-Brabant,VBO,4.871712,51.465141
Maaijkant,15,,,5113BD,Ulicoten,Baarle-Nassau,Noord-Brabant,VBO,4.872858,51.466925
Maaijkant,16,a,,5113BD,Ulicoten,Baarle-Nassau,Noord-Brabant,VBO,4.873994,51.466872
Maaijkant,16,,,5113BD,Ulicoten,Baarle-Nassau,Noord-Brabant,VBO,4.874111,51.466859
Maaijkant,17,a,,5113BD,Ulicoten,Baarle-Nassau,Noord-Brabant,VBO,4.871774,51.467298
Maaijkant,17,,,5113BD,Ulicoten,Baarle-Nassau,Noord-Brabant,VBO,4.871687,51.467361
Maaijkant,18,,,5113BD,Ulicoten,Baarle-Nassau,Noord-Brabant,VBO,4.876757,51.466997
Maaijkant,19,a,,5113BD,Ulicoten,Baarle-Nassau,Noord-Brabant,VBO,4.870787,51.468067
Maaijkant,19,,,5113BD,Ulicoten,Baarle-Nassau,Noord-Brabant,VBO,4.870527,51.468156
Maaijkant,20,,,5113BD,Ulicoten,Baarle-Nassau,Noord-Brabant,VBO,4.877674,51.467342
Maaijkant,21,a,,5113BD,Ulicoten,Baarle-Nassau,Noord-Brabant,VBO,4.878348,51.470123
Maaijkant,21,,,5113BD,Ulicoten,Baarle-Nassau,Noord-Brabant,VBO,4.876828,51.468920
Maaijkant,23,,,5113BD,Ulicoten,Baarle-Nassau,Noord-Brabant,VBO,4.878977,51.470512
Maaijkant,25,,,5113BD,Ulicoten,Baarle-Nassau,Noord-Brabant,VBO,4.879063,51.470575
Maaijkant,26,,,5113BD,Ulicoten,Baarle-Nassau,Noord-Brabant,VBO,4.879584,51.470308
Hondseind,1,a,,5113BE,Ulicoten,Baarle-Nassau,Noord-Brabant,VBO,4.865894,51.460513
Hondseind,1,,,5113BE,Ulicoten,Baarle-Nassau,Noord-Brabant,VBO,4.869039,51.459736
Hondseind,2,a,,5113BE,Ulicoten,Baarle-Nassau,Noord-Brabant,VBO,4.873019,51.459016
Hondseind,2,b,,5113BE,Ulicoten,Baarle-Nassau,Noord-Brabant,VBO,4.873265,51.458927
Hondseind,2,c,,5113BE,Ulicoten,Baarle-Nassau,Noord-Brabant,VBO,4.874391,51.458582
Hondseind,2,,,5113BE,Ulicoten,Baarle-Nassau,Noord-Brabant,VBO,4.868076,51.459713
Hondseind,3,,,5113BE,Ulicoten,Baarle-Nassau,Noord-Brabant,VBO,4.873321,51.459053
Hondseind,4,,,5113BE,Ulicoten,Baarle-Nassau,Noord-Brabant,VBO,4.878262,51.458518
Hondseind,5,,,5113BE,Ulicoten,Baarle-Nassau,Noord-Brabant,VBO,4.873465,51.459000
Hondseind,7,,,5113BE,Ulicoten,Baarle-Nassau,Noord-Brabant,VBO,4.874143,51.458886
Hondseind,9,,,5113BE,Ulicoten,Baarle-Nassau,Noord-Brabant,VBO,4.874346,51.458752
Hondseind,10,,,5113BE,Ulicoten,Baarle-Nassau,Noord-Brabant,VBO,4.881307,51.459016
Hondseind,11,a,,5113BE,Ulicoten,Baarle-Nassau,Noord-Brabant,VBO,4.879113,51.459600
Hondseind,11,,,5113BE,Ulicoten,Baarle-Nassau,Noord-Brabant,VBO,4.879113,51.459600
Hondseind,15,,,5113BE,Ulicoten,Baarle-Nassau,Noord-Brabant,VBO,4.881340,51.458612
Maaijkantsestraat,1,,,5113BG,Ulicoten,Baarle-Nassau,Noord-Brabant,VBO,4.866993,51.465039
Maaijkantsestraat,2,,,5113BG,Ulicoten,Baarle-Nassau,Noord-Brabant,VBO,4.864831,51.466620
Maaijkantsestraat,3,,,5113BG,Ulicoten,Baarle-Nassau,Noord-Brabant,VBO,4.865692,51.465572
Maaijkantsestraat,4,,,5113BG,Ulicoten,Baarle-Nassau,Noord-Brabant,VBO,4.861566,51.468934
Maaijkantsestraat,5,,,5113BG,Ulicoten,Baarle-Nassau,Noord-Brabant,VBO,4.862939,51.467301
Chaamseweg-Hazenberg,1,a,,5113BH,Ulicoten,Baarle-Nassau,Noord-Brabant,VBO,4.856425,51.459292
Chaamseweg-Hazenberg,1,b,,5113BH,Ulicoten,Baarle-Nassau,Noord-Brabant,VBO,4.857189,51.460428
Chaamseweg-Hazenberg,1,,,5113BH,Ulicoten,Baarle-Nassau,Noord-Brabant,VBO,4.856534,51.458619
Chaamseweg-Hazenberg,3,a,,5113BH,Ulicoten,Baarle-Nassau,Noord-Brabant,VBO,4.856956,51.461955
Chaamseweg-Hazenberg,3,,,5113BH,Ulicoten,Baarle-Nassau,Noord-Brabant,VBO,4.856956,51.461955
Chaamseweg-Hazenberg,5,,,5113BH,Ulicoten,Baarle-Nassau,Noord-Brabant,VBO,4.856715,51.464067
Chaamseweg-Hazenberg,7,,,5113BH,Ulicoten,Baarle-Nassau,Noord-Brabant,VBO,4.853482,51.464924
Chaamseweg-Hazenberg,9,,,5113BH,Ulicoten,Baarle-Nassau,Noord-Brabant,VBO,4.856899,51.464328
Chaamseweg-Hazenberg,11,,,5113BH,Ulicoten,Baarle-Nassau,Noord-Brabant,VBO,4.856737,51.464624
Chaamseweg-Hazenberg,13,,,5113BH,Ulicoten,Baarle-Nassau,Noord-Brabant,VBO,4.856967,51.464679
Chaamseweg-Hazenberg,15,,,5113BH,Ulicoten,Baarle-Nassau,Noord-Brabant,VBO,4.857521,51.466560
Chaamseweg-Hazenberg,17,,,5113BH,Ulicoten,Baarle-Nassau,Noord-Brabant,VBO,4.857965,51.467974
Chaamseweg-Hazenberg,19,a,,5113BH,Ulicoten,Baarle-Nassau,Noord-Brabant,VBO,4.858494,51.469468
Chaamseweg-Hazenberg,19,b,,5113BH,Ulicoten,Baarle-Nassau,Noord-Brabant,VBO,4.858003,51.469646
Chaamseweg-Hazenberg,19,,,5113BH,Ulicoten,Baarle-Nassau,Noord-Brabant,VBO,4.858536,51.469567
Chaamseweg-Hazenberg,21,,,5113BH,Ulicoten,Baarle-Nassau,Noord-Brabant,VBO,4.856901,51.471609
Chaamseweg-Hazenberg,23,a,,5113BH,Ulicoten,Baarle-Nassau,Noord-Brabant,VBO,4.859573,51.472026
Chaamseweg-Hazenberg,23,,,5113BH,Ulicoten,Baarle-Nassau,Noord-Brabant,VBO,4.859383,51.471045
Chaamseweg-Hazenberg,25,,,5113BH,Ulicoten,Baarle-Nassau,Noord-Brabant,VBO,4.859721,51.474130
Chaamseweg-Hazenberg,2,c,,5113BJ,Ulicoten,Baarle-Nassau,Noord-Brabant,VBO,4.857176,51.459053
Chaamseweg-Hazenberg,2,d,,5113BJ,Ulicoten,Baarle-Nassau,Noord-Brabant,VBO,4.857204,51.459116
Chaamseweg-Hazenberg,2,,,5113BJ,Ulicoten,Baarle-Nassau,Noord-Brabant,VBO,4.856995,51.458567
Chaamseweg-Hazenberg,4,,,5113BJ,Ulicoten,Baarle-Nassau,Noord-Brabant,VBO,4.857513,51.459792
Chaamseweg-Hazenberg,6,,,5113BJ,Ulicoten,Baarle-Nassau,Noord-Brabant,VBO,4.857569,51.459918
Chaamseweg-Hazenberg,8,,,5113BJ,Ulicoten,Baarle-Nassau,Noord-Brabant,VBO,4.857698,51.461258
Chaamseweg-Hazenberg,10,,,5113BJ,Ulicoten,Baarle-Nassau,Noord-Brabant,VBO,4.857674,51.462022
Chaamseweg-Hazenberg,12,a,,5113BJ,Ulicoten,Baarle-Nassau,Noord-Brabant,VBO,4.858055,51.463893
Chaamseweg-Hazenberg,12,,,5113BJ,Ulicoten,Baarle-Nassau,Noord-Brabant,VBO,4.857675,51.461977
Chaamseweg-Hazenberg,14,,,5113BJ,Ulicoten,Baarle-Nassau,Noord-Brabant,VBO,4.858965,51.463636
Chaamseweg-Hazenberg,16,,,5113BJ,Ulicoten,Baarle-Nassau,Noord-Brabant,VBO,4.859732,51.464494
Chaamseweg-Hazenberg,18,,,5113BJ,Ulicoten,Baarle-Nassau,Noord-Brabant,VBO,4.857743,51.465977
Chaamseweg-Hazenberg,20,,,5113BJ,Ulicoten,Baarle-Nassau,Noord-Brabant,VBO,4.858050,51.466814
Chaamseweg-Hazenberg,22,,,5113BJ,Ulicoten,Baarle-Nassau,Noord-Brabant,VBO,4.858562,51.468578
Chaamseweg-Hazenberg,24,,,5113BJ,Ulicoten,Baarle-Nassau,Noord-Brabant,VBO,4.859688,51.470804
Kleine Maaijen,1,,,5113BK,Ulicoten,Baarle-Nassau,Noord-Brabant,VBO,4.862924,51.472212
Kleine Maaijen,2,,,5113BK,Ulicoten,Baarle-Nassau,Noord-Brabant,VBO,4.863403,51.471899
Kleine Maaijen,3,a,,5113BK,Ulicoten,Baarle-Nassau,Noord-Brabant,VBO,4.864699,51.475608
Kleine Maaijen,3,,,5113BK,Ulicoten,Baarle-Nassau,Noord-Brabant,VBO,4.864879,51.472454
Kleine Maaijen,6,a,,5113BK,Ulicoten,Baarle-Nassau,Noord-Brabant,VBO,4.866878,51.472625
Kleine Maaijen,6,,,5113BK,Ulicoten,Baarle-Nassau,Noord-Brabant,VBO,4.865831,51.472315
Kleine Maaijen,8,,,5113BK,Ulicoten,Baarle-Nassau,Noord-Brabant,VBO,4.867004,51.472940
Meerleseweg,2,,,5113BL,Ulicoten,Baarle-Nassau,Noord-Brabant,VBO,4.852962,51.458926
Meerleseweg,3,a,,5113BL,Ulicoten,Baarle-Nassau,Noord-Brabant,VBO,4.852404,51.458690
Meerleseweg,3,b,,5113BL,Ulicoten,Baarle-Nassau,Noord-Brabant,VBO,4.851232,51.459179
Meerleseweg,3,,,5113BL,Ulicoten,Baarle-Nassau,Noord-Brabant,VBO,4.853199,51.458334
Meerleseweg,4,,,5113BL,Ulicoten,Baarle-Nassau,Noord-Brabant,VBO,4.853415,51.459521
Meerleseweg,5,,,5113BL,Ulicoten,Baarle-Nassau,Noord-Brabant,VBO,4.850524,51.459427
Meerleseweg,6,,,5113BL,Ulicoten,Baarle-Nassau,Noord-Brabant,VBO,4.848256,51.460226
Meerleseweg,7,a,,5113BL,Ulicoten,Baarle-Nassau,Noord-Brabant,VBO,4.849818,51.459505
Meerleseweg,7,,,5113BL,Ulicoten,Baarle-Nassau,Noord-Brabant,VBO,4.849284,51.459646
Meerleseweg,8,a,,5113BL,Ulicoten,Baarle-Nassau,Noord-Brabant,VBO,4.844906,51.461172
Meerleseweg,8,,,5113BL,Ulicoten,Baarle-Nassau,Noord-Brabant,VBO,4.845514,51.460869
Het Bosch,1,a,,5113BM,Ulicoten,Baarle-Nassau,Noord-Brabant,VBO,4.843906,51.461836
Het Bosch,1,,,5113BM,Ulicoten,Baarle-Nassau,Noord-Brabant,VBO,4.844287,51.463587
Het Bosch,2,a,,5113BM,Ulicoten,Baarle-Nassau,Noord-Brabant,VBO,4.844896,51.463239
Het Bosch,2,,,5113BM,Ulicoten,Baarle-Nassau,Noord-Brabant,VBO,4.844903,51.463283
Lijmbeek,2,,,5113BN,Ulicoten,Baarle-Nassau,Noord-Brabant,VBO,4.837206,51.467266
Lijmbeek,4,a,,5113BN,Ulicoten,Baarle-Nassau,Noord-Brabant,VBO,4.837210,51.468156
Lijmbeek,4,,,5113BN,Ulicoten,Baarle-Nassau,Noord-Brabant,VBO,4.837244,51.467671
Lijmbeek,6,,,5113BN,Ulicoten,Baarle-Nassau,Noord-Brabant,VBO,4.837393,51.468135
Armeshof,2,,,5113BP,Ulicoten,Baarle-Nassau,Noord-Brabant,VBO,4.846797,51.459446
Armeshof,4,,,5113BP,Ulicoten,Baarle-Nassau,Noord-Brabant,VBO,4.847530,51.458335
Armeshof,6,,,5113BP,Ulicoten,Baarle-Nassau,Noord-Brabant,VBO,4.848437,51.458312
Bosstraat,1,,,5113BR,Ulicoten,Baarle-Nassau,Noord-Brabant,VBO,4.852591,51.457450
Bosstraat,2,a,,5113BR,Ulicoten,Baarle-Nassau,Noord-Brabant,VBO,4.848630,51.457244
Bosstraat,2,b,,5113BR,Ulicoten,Baarle-Nassau,Noord-Brabant,VBO,4.848652,51.457497
Bosstraat,2,,,5113BR,Ulicoten,Baarle-Nassau,Noord-Brabant,VBO,4.853707,51.457941
Bosstraat,3,,,5113BR,Ulicoten,Baarle-Nassau,Noord-Brabant,VBO,4.850550,51.457252
Bosstraat,4,,,5113BR,Ulicoten,Baarle-Nassau,Noord-Brabant,VBO,4.846066,51.456827
Bosstraat,5,,,5113BR,Ulicoten,Baarle-Nassau,Noord-Brabant,VBO,4.850047,51.457160
Bosstraat,6,,,5113BR,Ulicoten,Baarle-Nassau,Noord-Brabant,VBO,4.844107,51.457015
Bosstraat,7,,,5113BR,Ulicoten,Baarle-Nassau,Noord-Brabant,VBO,4.847980,51.456809
Bosstraat,9,,,5113BR,Ulicoten,Baarle-Nassau,Noord-Brabant,VBO,4.842977,51.456408
Bosstraat,10,,,5113BR,Ulicoten,Baarle-Nassau,Noord-Brabant,VBO,4.843159,51.456885
Bosstraat,11,,,5113BR,Ulicoten,Baarle-Nassau,Noord-Brabant,VBO,4.841587,51.455979
Heikantsestraat,1,a,,5113BS,Ulicoten,Baarle-Nassau,Noord-Brabant,VBO,4.850887,51.453101
Heikantsestraat,1,b,,5113BS,Ulicoten,Baarle-Nassau,Noord-Brabant,VBO,4.851476,51.453121
Heikantsestraat,1,,,5113BS,Ulicoten,Baarle-Nassau,Noord-Brabant,VBO,4.856807,51.452463
Heikantsestraat,2,,,5113BS,Ulicoten,Baarle-Nassau,Noord-Brabant,VBO,4.857597,51.452583
Heikantsestraat,3,,,5113BS,Ulicoten,Baarle-Nassau,Noord-Brabant,VBO,4.850354,51.453134
Heikantsestraat,4,a,,5113BS,Ulicoten,Baarle-Nassau,Noord-Brabant,VBO,4.854248,51.453426
Heikantsestraat,4,,,5113BS,Ulicoten,Baarle-Nassau,Noord-Brabant,VBO,4.855116,51.453147
Heikantsestraat,5,,,5113BS,Ulicoten,Baarle-Nassau,Noord-Brabant,VBO,4.850356,51.452963
Heikantsestraat,6,,,5113BS,Ulicoten,Baarle-Nassau,Noord-Brabant,VBO,4.846793,51.453756
Heikantsestraat,7,,,5113BS,Ulicoten,Baarle-Nassau,Noord-Brabant,VBO,4.849015,51.453191
Heikantsestraat,8,,,5113BS,Ulicoten,Baarle-Nassau,Noord-Brabant,VBO,4.844717,51.454079
Heikantsestraat,9,,,5113BS,Ulicoten,Baarle-Nassau,Noord-Brabant,VBO,4.846656,51.453171
Heikantsestraat,10,,,5113BS,Ulicoten,Baarle-Nassau,Noord-Brabant,VBO,4.842191,51.453546
Heikantsestraat,11,,,5113BS,Ulicoten,Baarle-Nassau,Noord-Brabant,VBO,4.840242,51.452970
Oude Strumpt,3,,,5113BT,Ulicoten,Baarle-Nassau,Noord-Brabant,VBO,4.843211,51.442899
Oude Strumpt,4,a,,5113BT,Ulicoten,Baarle-Nassau,Noord-Brabant,VBO,4.843179,51.443168
Oude Strumpt,4,,,5113BT,Ulicoten,Baarle-Nassau,Noord-Brabant,VBO,4.843322,51.443223
Oude Strumpt,6,,,5113BT,Ulicoten,Baarle-Nassau,Noord-Brabant,VBO,4.842763,51.443049
Oude Strumpt,7,,,5113BT,Ulicoten,Baarle-Nassau,Noord-Brabant,VBO,4.838169,51.441113
Oude Strumpt,8,,,5113BT,Ulicoten,Baarle-Nassau,Noord-Brabant,VBO,4.839037,51.441908
Oude Strumpt,9,,,5113BT,Ulicoten,Baarle-Nassau,Noord-Brabant,VBO,4.837252,51.440812
Oude Strumpt,11,,,5113BT,Ulicoten,Baarle-Nassau,Noord-Brabant,VBO,4.836479,51.440512
Oude Strumpt,12,,,5113BT,Ulicoten,Baarle-Nassau,Noord-Brabant,VBO,4.835526,51.440786
Oude Strumpt,16,,,5113BT,Ulicoten,Baarle-Nassau,Noord-Brabant,VBO,4.835315,51.441585
Oude Strumpt,17,,,5113BT,Ulicoten,Baarle-Nassau,Noord-Brabant,VBO,4.827845,51.440876
Oude Strumpt,18,a,,5113BT,Ulicoten,Baarle-Nassau,Noord-Brabant,VBO,4.834527,51.441348
Oude Strumpt,18,,,5113BT,Ulicoten,Baarle-Nassau,Noord-Brabant,VBO,4.835070,51.441665
Oude Strumpt,19,,,5113BT,Ulicoten,Baarle-Nassau,Noord-Brabant,VBO,4.827544,51.440748
Oude Strumpt,20,,,5113BT,Ulicoten,Baarle-Nassau,Noord-Brabant,VBO,4.834528,51.441294
Oude Strumpt,21,,,5113BT,Ulicoten,Baarle-Nassau,Noord-Brabant,VBO,4.827086,51.440611
Postel,2,,,5113BV,Ulicoten,Baarle-Nassau,Noord-Brabant,VBO,4.829450,51.436649
Postel,4,a,,5113BV,Ulicoten,Baarle-Nassau,Noord-Brabant,VBO,4.827741,51.435293
Postel,4,,,5113BV,Ulicoten,Baarle-Nassau,Noord-Brabant,VBO,4.827465,51.435378
Postel,6,,,5113BV,Ulicoten,Baarle-Nassau,Noord-Brabant,VBO,4.830488,51.435261
Postel,8,,,5113BV,Ulicoten,Baarle-Nassau,Noord-Brabant,VBO,4.828231,51.435205
Postel,10,,,5113BV,Ulicoten,Baarle-Nassau,Noord-Brabant,VBO,4.830580,51.434776
Haldijk,2,,,5113BW,Ulicoten,Baarle-Nassau,Noord-Brabant,VBO,4.863798,51.434962
Haldijk,5,,,5113BW,Ulicoten,Baarle-Nassau,Noord-Brabant,VBO,4.845962,51.432862
Haldijk,6,,,5113BW,Ulicoten,Baarle-Nassau,Noord-Brabant,VBO,4.850270,51.433376
Haldijk,7,,,5113BW,Ulicoten,Baarle-Nassau,Noord-Brabant,VBO,4.844655,51.432748
Haldijk,9,,,5113BW,Ulicoten,Baarle-Nassau,Noord-Brabant,VBO,4.837726,51.432491
Haldijk,10,,,5113BW,Ulicoten,Baarle-Nassau,Noord-Brabant,VBO,4.837220,51.432740
Haldijk,11,a,,5113BW,Ulicoten,Baarle-Nassau,Noord-Brabant,VBO,4.832972,51.432028
Haldijk,11,,,5113BW,Ulicoten,Baarle-Nassau,Noord-Brabant,VBO,4.832351,51.432268
Haldijk,12,,,5113BW,Ulicoten,Baarle-Nassau,Noord-Brabant,VBO,4.833440,51.432561
Haldijk,13,a,,5113BW,Ulicoten,Baarle-Nassau,Noord-Brabant,VBO,4.830784,51.432179
Haldijk,13,,,5113BW,Ulicoten,Baarle-Nassau,Noord-Brabant,VBO,4.830468,51.432178
Haldijk,15,,,5113BW,Ulicoten,Baarle-Nassau,Noord-Brabant,VBO,4.830152,51.432158
Haldijk,17,,,5113BW,Ulicoten,Baarle-Nassau,Noord-Brabant,VBO,4.826717,51.432007
Haldijk,19,,,5113BW,Ulicoten,Baarle-Nassau,Noord-Brabant,VBO,4.826344,51.431897
Nieuwe Strumpt,1,,,5113BX,Ulicoten,Baarle-Nassau,Noord-Brabant,VBO,4.850371,51.445575
Nieuwe Strumpt,4,,,5113BX,Ulicoten,Baarle-Nassau,Noord-Brabant,VBO,4.850419,51.441503
Nieuwe Strumpt,7,,,5113BX,Ulicoten,Baarle-Nassau,Noord-Brabant,VBO,4.850433,51.434240
Nieuwe Strumpt,8,,,5113BX,Ulicoten,Baarle-Nassau,Noord-Brabant,VBO,4.850120,51.436333
Nieuwe Strumpt,10,,,5113BX,Ulicoten,Baarle-Nassau,Noord-Brabant,VBO,4.849894,51.433572
Nieuwe Strumptse Baan,2,,,5113BZ,Ulicoten,Baarle-Nassau,Noord-Brabant,VBO,4.859953,51.441773
Nieuwe Strumptse Baan,3,,,5113BZ,Ulicoten,Baarle-Nassau,Noord-Brabant,VBO,4.850512,51.439688
Nieuwe Strumptse Baan,4,,,5113BZ,Ulicoten,Baarle-Nassau,Noord-Brabant,VBO,4.849616,51.440070
Nieuwe Strumptse Baan,6,,,5113BZ,Ulicoten,Baarle-Nassau,Noord-Brabant,VBO,4.848078,51.439991
Postelsestraat,2,,,5113CA,Ulicoten,Baarle-Nassau,Noord-Brabant,VBO,4.834245,51.439684
Postelsestraat,3,,,5113CA,Ulicoten,Baarle-Nassau,Noord-Brabant,VBO,4.834896,51.439354
Postelsestraat,5,,,5113CA,Ulicoten,Baarle-Nassau,Noord-Brabant,VBO,4.834559,51.438687
Oude Strumptse Baan,3,,,5113CB,Ulicoten,Baarle-Nassau,Noord-Brabant,VBO,4.851345,51.432491
Oude Strumptse Baan,5,,,5113CB,Ulicoten,Baarle-Nassau,Noord-Brabant,VBO,4.850303,51.432999
Oude Strumptse Baan,6,,,5113CB,Ulicoten,Baarle-Nassau,Noord-Brabant,VBO,4.845574,51.435624
Oude Strumptse Baan,10,,,5113CB,Ulicoten,Baarle-Nassau,Noord-Brabant,VBO,4.844312,51.436198
Oude Strumptse Baan,12,,,5113CB,Ulicoten,Baarle-Nassau,Noord-Brabant,VBO,4.843703,51.436546
Oude Strumptse Baan,14,,,5113CB,Ulicoten,Baarle-Nassau,Noord-Brabant,VBO,4.843617,51.436590
Beemdendreef,2,,,5113CD,Ulicoten,Baarle-Nassau,Noord-Brabant,VBO,4.848589,51.432074
Beemdendreef,3,,,5113CD,Ulicoten,Baarle-Nassau,Noord-Brabant,VBO,4.847727,51.430776
Beemdendreef,4,,,5113CD,Ulicoten,Baarle-Nassau,Noord-Brabant,VBO,4.847408,51.430945
Beemdendreef,6,,,5113CD,Ulicoten,Baarle-Nassau,Noord-Brabant,VBO,4.846028,51.429725
Oude Bredasebaan,29,,,5113CG,Ulicoten,Baarle-Nassau,Noord-Brabant,VBO,4.877727,51.471639
Oude Bredasebaan,31,,,5113CG,Ulicoten,Baarle-Nassau,Noord-Brabant,VBO,4.874323,51.473530
Oude Bredasebaan,35,,,5113CG,Ulicoten,Baarle-Nassau,Noord-Brabant,VBO,4.872596,51.473549
Wildertsebaan,4,,,5113CH,Ulicoten,Baarle-Nassau,Noord-Brabant,VBO,4.874434,51.439436
Wildertsebaan,6,,,5113CH,Ulicoten,Baarle-Nassau,Noord-Brabant,VBO,4.866667,51.441972
Wildertsebaan,9,,,5113CH,Ulicoten,Baarle-Nassau,Noord-Brabant,VBO,4.867878,51.439146
Heidreef,1,,,5113CK,Ulicoten,Baarle-Nassau,Noord-Brabant,VBO,4.862733,51.451357
Molenstraat,1,,,5113GG,Ulicoten,Baarle-Nassau,Noord-Brabant,VBO,4.854071,51.457637
Molenstraat,2,a,,5113GG,Ulicoten,Baarle-Nassau,Noord-Brabant,VBO,4.853570,51.457374
Molenstraat,2,b,,5113GG,Ulicoten,Baarle-Nassau,Noord-Brabant,VBO,4.853810,51.457797
Molenstraat,2,,,5113GG,Ulicoten,Baarle-Nassau,Noord-Brabant,VBO,4.853711,51.457581
Molenstraat,3,,,5113GG,Ulicoten,Baarle-Nassau,Noord-Brabant,VBO,4.853971,51.457501
Molenstraat,4,,,5113GG,Ulicoten,Baarle-Nassau,Noord-Brabant,VBO,4.853473,51.457041
Molenstraat,5,,,5113GG,Ulicoten,Baarle-Nassau,Noord-Brabant,VBO,4.853901,51.457357
Molenstraat,6,a,,5113GG,Ulicoten,Baarle-Nassau,Noord-Brabant,VBO,4.853164,51.456446
Molenstraat,6,,,5113GG,Ulicoten,Baarle-Nassau,Noord-Brabant,VBO,4.853262,51.456689
Molenstraat,7,,,5113GG,Ulicoten,Baarle-Nassau,Noord-Brabant,VBO,4.853795,51.456575
Molenstraat,8,,,5113GG,Ulicoten,Baarle-Nassau,Noord-Brabant,VBO,4.853123,51.456239
Molenstraat,9,,,5113GG,Ulicoten,Baarle-Nassau,Noord-Brabant,VBO,4.849273,51.445992
Molenstraat,10,,,5113GG,Ulicoten,Baarle-Nassau,Noord-Brabant,VBO,4.853015,51.455591
Molenstraat,12,,,5113GG,Ulicoten,Baarle-Nassau,Noord-Brabant,VBO,4.852962,51.455267
Molenstraat,14,a,,5113GG,Ulicoten,Baarle-Nassau,Noord-Brabant,VBO,4.852865,51.454899
Molenstraat,14,,,5113GG,Ulicoten,Baarle-Nassau,Noord-Brabant,VBO,4.852879,51.454953
Molenstraat,16,,,5113GG,Ulicoten,Baarle-Nassau,Noord-Brabant,VBO,4.852260,51.453718
Molenstraat,18,,,5113GG,Ulicoten,Baarle-Nassau,Noord-Brabant,VBO,4.850870,51.449649
Molenstraat,20,,,5113GG,Ulicoten,Baarle-Nassau,Noord-Brabant,VBO,4.848772,51.445792
Baarleseweg,1,a,,5113TA,Ulicoten,Baarle-Nassau,Noord-Brabant,VBO,4.890924,51.450572
Baarleseweg,1,b,1,5113TA,Ulicoten,Baarle-Nassau,Noord-Brabant,VBO,4.889886,51.450273
Baarleseweg,1,b,10,5113TA,Ulicoten,Baarle-Nassau,Noord-Brabant,VBO,4.889142,51.450078
Baarleseweg,1,b,11,5113TA,Ulicoten,Baarle-Nassau,Noord-Brabant,VBO,4.889186,51.449906
Baarleseweg,1,b,12,5113TA,Ulicoten,Baarle-Nassau,Noord-Brabant,VBO,4.889167,51.449853
Baarleseweg,1,b,13,5113TA,Ulicoten,Baarle-Nassau,Noord-Brabant,VBO,4.889064,51.449868
Baarleseweg,1,b,14,5113TA,Ulicoten,Baarle-Nassau,Noord-Brabant,VBO,4.889084,51.449921
Baarleseweg,1,b,15,5113TA,Ulicoten,Baarle-Nassau,Noord-Brabant,VBO,4.888545,51.450161
Baarleseweg,1,b,16,5113TA,Ulicoten,Baarle-Nassau,Noord-Brabant,VBO,4.888524,51.450103
Baarleseweg,1,b,17,5113TA,Ulicoten,Baarle-Nassau,Noord-Brabant,VBO,4.888437,51.450115
Baarleseweg,1,b,18,5113TA,Ulicoten,Baarle-Nassau,Noord-Brabant,VBO,4.888458,51.450173
Baarleseweg,1,b,19,5113TA,Ulicoten,Baarle-Nassau,Noord-Brabant,VBO,4.888483,51.449989
Baarleseweg,1,b,2,5113TA,Ulicoten,Baarle-Nassau,Noord-Brabant,VBO,4.889849,51.450172
Baarleseweg,1,b,20,5113TA,Ulicoten,Baarle-Nassau,Noord-Brabant,VBO,4.888462,51.449931
Baarleseweg,1,b,21,5113TA,Ulicoten,Baarle-Nassau,Noord-Brabant,VBO,4.888442,51.449874
Baarleseweg,1,b,22,5113TA,Ulicoten,Baarle-Nassau,Noord-Brabant,VBO,4.888355,51.449887
Baarleseweg,1,b,23,5113TA,Ulicoten,Baarle-Nassau,Noord-Brabant,VBO,4.888375,51.449944
Baarleseweg,1,b,24,5113TA,Ulicoten,Baarle-Nassau,Noord-Brabant,VBO,4.888396,51.450002
Baarleseweg,1,b,25,5113TA,Ulicoten,Baarle-Nassau,Noord-Brabant,VBO,4.888198,51.450208
Baarleseweg,1,b,26,5113TA,Ulicoten,Baarle-Nassau,Noord-Brabant,VBO,4.888177,51.450150
Baarleseweg,1,b,27,5113TA,Ulicoten,Baarle-Nassau,Noord-Brabant,VBO,4.888157,51.450093
Baarleseweg,1,b,28,5113TA,Ulicoten,Baarle-Nassau,Noord-Brabant,VBO,4.888070,51.450105
Baarleseweg,1,b,29,5113TA,Ulicoten,Baarle-Nassau,Noord-Brabant,VBO,4.888090,51.450162
Baarleseweg,1,b,3,5113TA,Ulicoten,Baarle-Nassau,Noord-Brabant,VBO,4.889813,51.450074
Baarleseweg,1,b,30,5113TA,Ulicoten,Baarle-Nassau,Noord-Brabant,VBO,4.888111,51.450220
Baarleseweg,1,b,31,5113TA,Ulicoten,Baarle-Nassau,Noord-Brabant,VBO,4.888117,51.449982
Baarleseweg,1,b,32,5113TA,Ulicoten,Baarle-Nassau,Noord-Brabant,VBO,4.888096,51.449924
Baarleseweg,1,b,33,5113TA,Ulicoten,Baarle-Nassau,Noord-Brabant,VBO,4.888009,51.449936
Baarleseweg,1,b,34,5113TA,Ulicoten,Baarle-Nassau,Noord-Brabant,VBO,4.888030,51.449994
Baarleseweg,1,b,35,5113TA,Ulicoten,Baarle-Nassau,Noord-Brabant,VBO,4.888877,51.450107
Baarleseweg,1,b,36,5113TA,Ulicoten,Baarle-Nassau,Noord-Brabant,VBO,4.888851,51.450036
Baarleseweg,1,b,37,5113TA,Ulicoten,Baarle-Nassau,Noord-Brabant,VBO,4.888768,51.450048
Baarleseweg,1,b,38,5113TA,Ulicoten,Baarle-Nassau,Noord-Brabant,VBO,4.888794,51.450119
Baarleseweg,1,b,39,5113TA,Ulicoten,Baarle-Nassau,Noord-Brabant,VBO,4.888802,51.449902
Baarleseweg,1,b,4,5113TA,Ulicoten,Baarle-Nassau,Noord-Brabant,VBO,4.890253,51.450147
Baarleseweg,1,b,40,5113TA,Ulicoten,Baarle-Nassau,Noord-Brabant,VBO,4.888776,51.449831
Baarleseweg,1,b,41,5113TA,Ulicoten,Baarle-Nassau,Noord-Brabant,VBO,4.888692,51.449843
Baarleseweg,1,b,42,5113TA,Ulicoten,Baarle-Nassau,Noord-Brabant,VBO,4.888719,51.449914
Baarleseweg,1,b,44,5113TA,Ulicoten,Baarle-Nassau,Noord-Brabant,VBO,4.889563,51.450687
Baarleseweg,1,b,5,5113TA,Ulicoten,Baarle-Nassau,Noord-Brabant,VBO,4.890168,51.450048
Baarleseweg,1,b,6,5113TA,Ulicoten,Baarle-Nassau,Noord-Brabant,VBO,4.890097,51.449948
Baarleseweg,1,b,7,5113TA,Ulicoten,Baarle-Nassau,Noord-Brabant,VBO,4.889244,51.450064
Baarleseweg,1,b,8,5113TA,Ulicoten,Baarle-Nassau,Noord-Brabant,VBO,4.889225,51.450011
Baarleseweg,1,b,9,5113TA,Ulicoten,Baarle-Nassau,Noord-Brabant,VBO,4.889122,51.450026
Baarleseweg,1,b,,5113TA,Ulicoten,Baarle-Nassau,Noord-Brabant,VBO,4.890003,51.450685
Baarleseweg,1,c,,5113TA,Ulicoten,Baarle-Nassau,Noord-Brabant,VBO,4.893633,51.450224
Baarleseweg,1,,,5113TA,Ulicoten,Baarle-Nassau,Noord-Brabant,VBO,4.889656,51.450773
Baarleseweg,2,,,5113TA,Ulicoten,Baarle-Nassau,Noord-Brabant,VBO,4.892793,51.450724
Baarleseweg,3,,,5113TA,Ulicoten,Baarle-Nassau,Noord-Brabant,VBO,4.887493,51.451259
Baarleseweg,4,,,5113TA,Ulicoten,Baarle-Nassau,Noord-Brabant,VBO,4.892030,51.450784
Baarleseweg,5,a,,5113TA,Ulicoten,Baarle-Nassau,Noord-Brabant,VBO,4.878840,51.449244
Baarleseweg,5,,,5113TA,Ulicoten,Baarle-Nassau,Noord-Brabant,VBO,4.879104,51.448876
Baarleseweg,6,,,5113TA,Ulicoten,Baarle-Nassau,Noord-Brabant,VBO,4.889450,51.451222
Baarleseweg,7,,,5113TA,Ulicoten,Baarle-Nassau,Noord-Brabant,VBO,4.878875,51.452588
Baarleseweg,8,,,5113TA,Ulicoten,Baarle-Nassau,Noord-Brabant,VBO,4.888701,51.451345
Baarleseweg,10,,,5113TA,Ulicoten,Baarle-Nassau,Noord-Brabant,VBO,4.887259,51.451590
Baarleseweg,12,,,5113TA,Ulicoten,Baarle-Nassau,Noord-Brabant,VBO,4.884000,51.452268
Baarleseweg,14,a,,5113TA,Ulicoten,Baarle-Nassau,Noord-Brabant,VBO,4.882963,51.452372
Baarleseweg,14,,,5113TA,Ulicoten,Baarle-Nassau,Noord-Brabant,VBO,4.883323,51.452391
Baarleseweg,16,a,,5113TA,Ulicoten,Baarle-Nassau,Noord-Brabant,VBO,4.882704,51.452389
Baarleseweg,16,,,5113TA,Ulicoten,Baarle-Nassau,Noord-Brabant,VBO,4.882547,51.452490
Baarleseweg,18,,,5113TA,Ulicoten,Baarle-Nassau,Noord-Brabant,VBO,4.881176,51.452652
Baarleseweg,20,,,5113TA,Ulicoten,Baarle-Nassau,Noord-Brabant,VBO,4.881032,51.452651
Baarleseweg,22,,,5113TA,Ulicoten,Baarle-Nassau,Noord-Brabant,VBO,4.879764,51.452870
Baarleseweg,24,,,5113TA,Ulicoten,Baarle-Nassau,Noord-Brabant,VBO,4.875887,51.453492
Baarleseweg,26,,,5113TA,Ulicoten,Baarle-Nassau,Noord-Brabant,VBO,4.875513,51.453499
Baarleseweg,28,,,5113TA,Ulicoten,Baarle-Nassau,Noord-Brabant,VBO,4.875383,51.453525
Baarleseweg,30,a,,5113TA,Ulicoten,Baarle-Nassau,Noord-Brabant,VBO,4.872204,51.454271
Baarleseweg,30,,,5113TA,Ulicoten,Baarle-Nassau,Noord-Brabant,VBO,4.872008,51.454230
Baarleseweg,32,,,5113TA,Ulicoten,Baarle-Nassau,Noord-Brabant,VBO,4.870999,51.454396
Bartelbaan,2,,,5113TB,Ulicoten,Baarle-Nassau,Noord-Brabant,VBO,4.868505,51.454834
Dorpsstraat,1,,,5113TC,Ulicoten,Baarle-Nassau,Noord-Brabant,VBO,4.868628,51.454170
Dorpsstraat,3,a,,5113TC,Ulicoten,Baarle-Nassau,Noord-Brabant,VBO,4.866936,51.454451
Dorpsstraat,3,,,5113TC,Ulicoten,Baarle-Nassau,Noord-Brabant,VBO,4.867229,51.454451
Dorpsstraat,5,a,,5113TC,Ulicoten,Baarle-Nassau,Noord-Brabant,VBO,4.866408,51.454573
Dorpsstraat,7,,,5113TC,Ulicoten,Baarle-Nassau,Noord-Brabant,VBO,4.866204,51.454815
Dorpsstraat,9,a,,5113TC,Ulicoten,Baarle-Nassau,Noord-Brabant,VBO,4.864255,51.455328
Dorpsstraat,9,,,5113TC,Ulicoten,Baarle-Nassau,Noord-Brabant,VBO,4.864530,51.455239
Dorpsstraat,11,,,5113TC,Ulicoten,Baarle-Nassau,Noord-Brabant,VBO,4.863923,51.455425
Dorpsstraat,13,,,5113TC,Ulicoten,Baarle-Nassau,Noord-Brabant,VBO,4.863807,51.455532
Dorpsstraat,15,,,5113TC,Ulicoten,Baarle-Nassau,Noord-Brabant,VBO,4.863562,51.455594
Dorpsstraat,17,,,5113TC,Ulicoten,Baarle-Nassau,Noord-Brabant,VBO,4.863403,51.455656
Dorpsstraat,19,,,5113TC,Ulicoten,Baarle-Nassau,Noord-Brabant,VBO,4.862956,51.455699
Dorpsstraat,21,,,5113TC,Ulicoten,Baarle-Nassau,Noord-Brabant,VBO,4.862753,51.455851
Dorpsstraat,23,,,5113TC,Ulicoten,Baarle-Nassau,Noord-Brabant,VBO,4.862666,51.455878
Dorpsstraat,25,,,5113TC,Ulicoten,Baarle-Nassau,Noord-Brabant,VBO,4.862421,51.455931
Dorpsstraat,29,,,5113TC,Ulicoten,Baarle-Nassau,Noord-Brabant,VBO,4.861916,51.456045
Dorpsstraat,31,a,,5113TC,Ulicoten,Baarle-Nassau,Noord-Brabant,VBO,4.861603,51.456158
Dorpsstraat,31,,,5113TC,Ulicoten,Baarle-Nassau,Noord-Brabant,VBO,4.861545,51.456186
Dorpsstraat,33,,,5113TC,Ulicoten,Baarle-Nassau,Noord-Brabant,VBO,4.861367,51.456276
Dorpsstraat,35,,,5113TC,Ulicoten,Baarle-Nassau,Noord-Brabant,VBO,4.861237,51.456312
Dorpsstraat,37,a,,5113TC,Ulicoten,Baarle-Nassau,Noord-Brabant,VBO,4.861035,51.456395
Dorpsstraat,37,,,5113TC,Ulicoten,Baarle-Nassau,Noord-Brabant,VBO,4.861165,51.456338
Dorpsstraat,39,a,,5113TC,Ulicoten,Baarle-Nassau,Noord-Brabant,VBO,4.860746,51.456453
Dorpsstraat,39,,,5113TC,Ulicoten,Baarle-Nassau,Noord-Brabant,VBO,4.860946,51.456417
Dorpsstraat,41,,,5113TC,Ulicoten,Baarle-Nassau,Noord-Brabant,VBO,4.860472,51.456515
Dorpsstraat,43,,,5113TC,Ulicoten,Baarle-Nassau,Noord-Brabant,VBO,4.860139,51.456666
Dorpsstraat,45,,,5113TC,Ulicoten,Baarle-Nassau,Noord-Brabant,VBO,4.859649,51.456727
Dorpsstraat,47,,,5113TD,Ulicoten,Baarle-Nassau,Noord-Brabant,VBO,4.859259,51.456923
Dorpsstraat,49,,,5113TD,Ulicoten,Baarle-Nassau,Noord-Brabant,VBO,4.858984,51.457012
Dorpsstraat,51,,,5113TD,Ulicoten,Baarle-Nassau,Noord-Brabant,VBO,4.858854,51.457047
Dorpsstraat,53,,,5113TD,Ulicoten,Baarle-Nassau,Noord-Brabant,VBO,4.858638,51.457127
Dorpsstraat,55,,,5113TD,Ulicoten,Baarle-Nassau,Noord-Brabant,VBO,4.858320,51.457198
Dorpsstraat,57,,,5113TD,Ulicoten,Baarle-Nassau,Noord-Brabant,VBO,4.858219,51.457260
Dorpsstraat,59,,,5113TD,Ulicoten,Baarle-Nassau,Noord-Brabant,VBO,4.858117,51.457313
Dorpsstraat,61,,,5113TD,Ulicoten,Baarle-Nassau,Noord-Brabant,VBO,4.858002,51.457349
Dorpsstraat,63,,,5113TD,Ulicoten,Baarle-Nassau,Noord-Brabant,VBO,4.857886,51.457384
Dorpsstraat,65,,,5113TD,Ulicoten,Baarle-Nassau,Noord-Brabant,VBO,4.857713,51.457446
Dorpsstraat,67,,,5113TD,Ulicoten,Baarle-Nassau,Noord-Brabant,VBO,4.857396,51.457526
Dorpsstraat,69,,,5113TD,Ulicoten,Baarle-Nassau,Noord-Brabant,VBO,4.857010,51.457290
Dorpsstraat,71,a,,5113TD,Ulicoten,Baarle-Nassau,Noord-Brabant,VBO,4.856806,51.457460
Dorpsstraat,71,b,,5113TD,Ulicoten,Baarle-Nassau,Noord-Brabant,VBO,4.856707,51.457361
Dorpsstraat,71,c,,5113TD,Ulicoten,Baarle-Nassau,Noord-Brabant,VBO,4.856732,51.457685
Dorpsstraat,71,d,,5113TD,Ulicoten,Baarle-Nassau,Noord-Brabant,VBO,4.856894,51.457362
Dorpsstraat,71,e,,5113TD,Ulicoten,Baarle-Nassau,Noord-Brabant,VBO,4.856894,51.457362
Dorpsstraat,71,f,,5113TD,Ulicoten,Baarle-Nassau,Noord-Brabant,VBO,4.856894,51.457362
Dorpsstraat,71,g,,5113TD,Ulicoten,Baarle-Nassau,Noord-Brabant,VBO,4.856707,51.457361
Dorpsstraat,71,,,5113TD,Ulicoten,Baarle-Nassau,Noord-Brabant,VBO,4.857008,51.457461
Dorpsstraat,73,,,5113TD,Ulicoten,Baarle-Nassau,Noord-Brabant,VBO,4.856573,51.457765
Dorpsstraat,75,,,5113TD,Ulicoten,Baarle-Nassau,Noord-Brabant,VBO,4.856284,51.457826
Dorpsstraat,77,,,5113TD,Ulicoten,Baarle-Nassau,Noord-Brabant,VBO,4.856126,51.457844
Dorpsstraat,79,,,5113TD,Ulicoten,Baarle-Nassau,Noord-Brabant,VBO,4.855910,51.457861
Dorpsstraat,81,,,5113TD,Ulicoten,Baarle-Nassau,Noord-Brabant,VBO,4.855751,51.457869
Dorpsstraat,83,,,5113TD,Ulicoten,Baarle-Nassau,Noord-Brabant,VBO,4.855521,51.457877
Dorpsstraat,85,,,5113TD,Ulicoten,Baarle-Nassau,Noord-Brabant,VBO,4.855291,51.457858
Dorpsstraat,87,,,5113TD,Ulicoten,Baarle-Nassau,Noord-Brabant,VBO,4.855032,51.457875
Dorpsstraat,89,,,5113TD,Ulicoten,Baarle-Nassau,Noord-Brabant,VBO,4.854931,51.457883
Dorpsstraat,91,,,5113TD,Ulicoten,Baarle-Nassau,Noord-Brabant,VBO,4.854571,51.457891
Dorpsstraat,95,,,5113TD,Ulicoten,Baarle-Nassau,Noord-Brabant,VBO,4.854298,51.457862
Dorpsstraat,2,,,5113TE,Ulicoten,Baarle-Nassau,Noord-Brabant,VBO,4.868422,51.454582
Dorpsstraat,4,,,5113TE,Ulicoten,Baarle-Nassau,Noord-Brabant,VBO,4.865795,51.455317
Dorpsstraat,8,,,5113TE,Ulicoten,Baarle-Nassau,Noord-Brabant,VBO,4.864670,51.455590
Dorpsstraat,10,,,5113TE,Ulicoten,Baarle-Nassau,Noord-Brabant,VBO,4.864193,51.455705
Dorpsstraat,12,,,5113TE,Ulicoten,Baarle-Nassau,Noord-Brabant,VBO,4.863718,51.455766
Dorpsstraat,14,,,5113TE,Ulicoten,Baarle-Nassau,Noord-Brabant,VBO,4.863299,51.455881
Dorpsstraat,16,,,5113TE,Ulicoten,Baarle-Nassau,Noord-Brabant,VBO,4.863155,51.455925
Dorpsstraat,18,,,5113TE,Ulicoten,Baarle-Nassau,Noord-Brabant,VBO,4.862967,51.456005
Dorpsstraat,20,,,5113TE,Ulicoten,Baarle-Nassau,Noord-Brabant,VBO,4.862735,51.456175
Dorpsstraat,22,,,5113TE,Ulicoten,Baarle-Nassau,Noord-Brabant,VBO,4.862476,51.456201
Dorpsstraat,24,a,,5113TE,Ulicoten,Baarle-Nassau,Noord-Brabant,VBO,4.861985,51.456306
Dorpsstraat,24,b,,5113TE,Ulicoten,Baarle-Nassau,Noord-Brabant,VBO,4.861927,51.456333
Dorpsstraat,24,,,5113TE,Ulicoten,Baarle-Nassau,Noord-Brabant,VBO,4.862233,51.456267
Dorpsstraat,26,,,5113TE,Ulicoten,Baarle-Nassau,Noord-Brabant,VBO,4.861567,51.456403
Dorpsstraat,28,,,5113TE,Ulicoten,Baarle-Nassau,Noord-Brabant,VBO,4.861422,51.456510
Dorpsstraat,30,,,5113TE,Ulicoten,Baarle-Nassau,Noord-Brabant,VBO,4.861191,51.456590
Dorpsstraat,32,a,,5113TE,Ulicoten,Baarle-Nassau,Noord-Brabant,VBO,4.860497,51.456812
Dorpsstraat,32,,,5113TE,Ulicoten,Baarle-Nassau,Noord-Brabant,VBO,4.860815,51.456687
Dorpsstraat,34,,,5113TE,Ulicoten,Baarle-Nassau,Noord-Brabant,VBO,4.859642,51.457032
Dorpsstraat,36,,,5113TE,Ulicoten,Baarle-Nassau,Noord-Brabant,VBO,4.859516,51.457068
Dorpsstraat,38,,,5113TE,Ulicoten,Baarle-Nassau,Noord-Brabant,VBO,4.858852,51.457254
Dorpsstraat,40,,,5113TE,Ulicoten,Baarle-Nassau,Noord-Brabant,VBO,4.858664,51.457307
Dorpsstraat,42,,,5113TE,Ulicoten,Baarle-Nassau,Noord-Brabant,VBO,4.858460,51.457549
Dorpsstraat,44,,,5113TE,Ulicoten,Baarle-Nassau,Noord-Brabant,VBO,4.858086,51.457574
Dorpsstraat,46,,,5113TE,Ulicoten,Baarle-Nassau,Noord-Brabant,VBO,4.857739,51.457662
Dorpsstraat,50,,,5113TE,Ulicoten,Baarle-Nassau,Noord-Brabant,VBO,4.857177,51.457786
Dorpsstraat,52,,,5113TE,Ulicoten,Baarle-Nassau,Noord-Brabant,VBO,4.856917,51.457865
Dorpsstraat,54,a,,5113TE,Ulicoten,Baarle-Nassau,Noord-Brabant,VBO,4.856729,51.457918
Dorpsstraat,54,,,5113TE,Ulicoten,Baarle-Nassau,Noord-Brabant,VBO,4.856697,51.457920
Dorpsstraat,58,a,,5113TE,Ulicoten,Baarle-Nassau,Noord-Brabant,VBO,4.855781,51.458050
Dorpsstraat,58,,,5113TE,Ulicoten,Baarle-Nassau,Noord-Brabant,VBO,4.855879,51.458040
Dorpsstraat,58,,,5113TE,Ulicoten,Baarle-Nassau,Noord-Brabant,VBO,4.855986,51.458027
Dorpsstraat,60,a,,5113TE,Ulicoten,Baarle-Nassau,Noord-Brabant,VBO,4.854943,51.458114
Dorpsstraat,60,,,5113TE,Ulicoten,Baarle-Nassau,Noord-Brabant,VBO,4.855110,51.458203
Dorpsstraat,62,a,,5113TE,Ulicoten,Baarle-Nassau,Noord-Brabant,VBO,4.854237,51.458195
Dorpsstraat,62,,,5113TE,Ulicoten,Baarle-Nassau,Noord-Brabant,VBO,4.854479,51.458376
Bernardusstraat,1,a,,5113TG,Ulicoten,Baarle-Nassau,Noord-Brabant,VBO,4.859494,51.456466
Bernardusstraat,1,b,,5113TG,Ulicoten,Baarle-Nassau,Noord-Brabant,VBO,4.859450,51.456555
Bernardusstraat,1,,,5113TG,Ulicoten,Baarle-Nassau,Noord-Brabant,VBO,4.859293,51.456465
Bernardusstraat,3,,,5113TG,Ulicoten,Baarle-Nassau,Noord-Brabant,VBO,4.859250,51.456411
Bernardusstraat,4,,,5113TG,Ulicoten,Baarle-Nassau,Noord-Brabant,VBO,4.858915,51.456742
Bernardusstraat,5,,,5113TG,Ulicoten,Baarle-Nassau,Noord-Brabant,VBO,4.859179,51.456329
Bernardusstraat,6,,,5113TG,Ulicoten,Baarle-Nassau,Noord-Brabant,VBO,4.858990,51.456544
Bernardusstraat,7,,,5113TG,Ulicoten,Baarle-Nassau,Noord-Brabant,VBO,4.859137,51.456275
Bernardusstraat,8,,,5113TG,Ulicoten,Baarle-Nassau,Noord-Brabant,VBO,4.858890,51.456436
Bernardusstraat,9,,,5113TG,Ulicoten,Baarle-Nassau,Noord-Brabant,VBO,4.859037,51.456158
Bernardusstraat,10,,,5113TG,Ulicoten,Baarle-Nassau,Noord-Brabant,VBO,4.858720,51.456229
Bernardusstraat,12,,,5113TG,Ulicoten,Baarle-Nassau,Noord-Brabant,VBO,4.858475,51.456263
Bernardusstraat,13,,,5113TG,Ulicoten,Baarle-Nassau,Noord-Brabant,VBO,4.858272,51.455922
Bernardusstraat,14,,,5113TG,Ulicoten,Baarle-Nassau,Noord-Brabant,VBO,4.858273,51.456316
Bernardusstraat,15,,,5113TG,Ulicoten,Baarle-Nassau,Noord-Brabant,VBO,4.858181,51.456031
Bernardusstraat,16,,,5113TG,Ulicoten,Baarle-Nassau,Noord-Brabant,VBO,4.858114,51.456370
Bernardusstraat,17,,,5113TG,Ulicoten,Baarle-Nassau,Noord-Brabant,VBO,4.857756,51.456060
Bernardusstraat,18,,,5113TG,Ulicoten,Baarle-Nassau,Noord-Brabant,VBO,4.857941,51.456414
Bernardusstraat,19,,,5113TG,Ulicoten,Baarle-Nassau,Noord-Brabant,VBO,4.856723,51.455995
Bernardusstraat,20,,,5113TG,Ulicoten,Baarle-Nassau,Noord-Brabant,VBO,4.857724,51.456476
Bernardusstraat,22,,,5113TG,Ulicoten,Baarle-Nassau,Noord-Brabant,VBO,4.857537,51.456529
Bernardusstraat,24,,,5113TG,Ulicoten,Baarle-Nassau,Noord-Brabant,VBO,4.857391,51.456672
Bernardusstraat,26,,,5113TG,Ulicoten,Baarle-Nassau,Noord-Brabant,VBO,4.857276,51.456698
Bernardusstraat,28,,,5113TG,Ulicoten,Baarle-Nassau,Noord-Brabant,VBO,4.857146,51.456725
Bernardusstraat,30,,,5113TG,Ulicoten,Baarle-Nassau,Noord-Brabant,VBO,4.856715,51.456678
Bernardusstraat,32,,,5113TG,Ulicoten,Baarle-Nassau,Noord-Brabant,VBO,4.856614,51.456704
Bernardusstraat,34,,,5113TG,Ulicoten,Baarle-Nassau,Noord-Brabant,VBO,4.856455,51.456749
Bernardusstraat,36,,,5113TG,Ulicoten,Baarle-Nassau,Noord-Brabant,VBO,4.856354,51.456775
Bernardusstraat,38,,,5113TG,Ulicoten,Baarle-Nassau,Noord-Brabant,VBO,4.856181,51.456828
Bernardusstraat,40,,,5113TG,Ulicoten,Baarle-Nassau,Noord-Brabant,VBO,4.856094,51.456855
Wilhelminastraat,1,a,,5113TH,Ulicoten,Baarle-Nassau,Noord-Brabant,VBO,4.860618,51.456127
Wilhelminastraat,1,b,,5113TH,Ulicoten,Baarle-Nassau,Noord-Brabant,VBO,4.860568,51.456179
Wilhelminastraat,1,,,5113TH,Ulicoten,Baarle-Nassau,Noord-Brabant,VBO,4.860751,51.456013
Wilhelminastraat,2,a,,5113TH,Ulicoten,Baarle-Nassau,Noord-Brabant,VBO,4.859941,51.456414
Wilhelminastraat,2,,,5113TH,Ulicoten,Baarle-Nassau,Noord-Brabant,VBO,4.859824,51.456575
Wilhelminastraat,3,,,5113TH,Ulicoten,Baarle-Nassau,Noord-Brabant,VBO,4.860809,51.455968
Wilhelminastraat,4,,,5113TH,Ulicoten,Baarle-Nassau,Noord-Brabant,VBO,4.860115,51.456325
Wilhelminastraat,5,,,5113TH,Ulicoten,Baarle-Nassau,Noord-Brabant,VBO,4.860867,51.455915
Wilhelminastraat,6,,,5113TH,Ulicoten,Baarle-Nassau,Noord-Brabant,VBO,4.860173,51.456271
Wilhelminastraat,7,,,5113TH,Ulicoten,Baarle-Nassau,Noord-Brabant,VBO,4.860955,51.455834
Wilhelminastraat,8,,,5113TH,Ulicoten,Baarle-Nassau,Noord-Brabant,VBO,4.860260,51.456182
Wilhelminastraat,9,,,5113TH,Ulicoten,Baarle-Nassau,Noord-Brabant,VBO,4.861013,51.455780
Wilhelminastraat,10,,,5113TH,Ulicoten,Baarle-Nassau,Noord-Brabant,VBO,4.860333,51.456128
Wilhelminastraat,11,,,5113TH,Ulicoten,Baarle-Nassau,Noord-Brabant,VBO,4.861115,51.455700
Wilhelminastraat,12,,,5113TH,Ulicoten,Baarle-Nassau,Noord-Brabant,VBO,4.860420,51.456047
Wilhelminastraat,13,,,5113TH,Ulicoten,Baarle-Nassau,Noord-Brabant,VBO,4.861158,51.455646
Wilhelminastraat,14,,,5113TH,Ulicoten,Baarle-Nassau,Noord-Brabant,VBO,4.860522,51.455958
Wilhelminastraat,16,,,5113TH,Ulicoten,Baarle-Nassau,Noord-Brabant,VBO,4.860987,51.455502
Wilhelminastraat,18,,,5113TH,Ulicoten,Baarle-Nassau,Noord-Brabant,VBO,4.861598,51.454938
Kerkepad,1,,,5113TJ,Ulicoten,Baarle-Nassau,Noord-Brabant,VBO,4.857330,51.457004
Kerkepad,2,a,,5113TJ,Ulicoten,Baarle-Nassau,Noord-Brabant,VBO,4.857141,51.457129
Kerkepad,2,,,5113TJ,Ulicoten,Baarle-Nassau,Noord-Brabant,VBO,4.856971,51.456940
Kerkepad,3,,,5113TJ,Ulicoten,Baarle-Nassau,Noord-Brabant,VBO,4.857287,51.456950
Kerkepad,4,,,5113TJ,Ulicoten,Baarle-Nassau,Noord-Brabant,VBO,4.856928,51.456868
Bernardusstraat,23,,,5113TL,Ulicoten,Baarle-Nassau,Noord-Brabant,VBO,4.856646,51.456390
Bernardusstraat,25,,,5113TL,Ulicoten,Baarle-Nassau,Noord-Brabant,VBO,4.856560,51.456399
Bernardusstraat,27,,,5113TL,Ulicoten,Baarle-Nassau,Noord-Brabant,VBO,4.856473,51.456407
Bernardusstraat,29,,,5113TL,Ulicoten,Baarle-Nassau,Noord-Brabant,VBO,4.856329,51.456424
Bernardusstraat,31,,,5113TL,Ulicoten,Baarle-Nassau,Noord-Brabant,VBO,4.856243,51.456424
Bernardusstraat,33,,,5113TL,Ulicoten,Baarle-Nassau,Noord-Brabant,VBO,4.856171,51.456433
Bernardusstraat,35,,,5113TL,Ulicoten,Baarle-Nassau,Noord-Brabant,VBO,4.856027,51.456450
Bernardusstraat,37,,,5113TL,Ulicoten,Baarle-Nassau,Noord-Brabant,VBO,4.855940,51.456459
Bernardusstraat,39,,,5113TL,Ulicoten,Baarle-Nassau,Noord-Brabant,VBO,4.855868,51.456467
Bernardusstraat,41,,,5113TL,Ulicoten,Baarle-Nassau,Noord-Brabant,VBO,4.855710,51.456485
Bernardusstraat,42,,,5113TL,Ulicoten,Baarle-Nassau,Noord-Brabant,VBO,4.855806,51.456854
Bernardusstraat,43,,,5113TL,Ulicoten,Baarle-Nassau,Noord-Brabant,VBO,4.855652,51.456502
Bernardusstraat,44,,,5113TL,Ulicoten,Baarle-Nassau,Noord-Brabant,VBO,4.855734,51.456880
Bernardusstraat,45,,,5113TL,Ulicoten,Baarle-Nassau,Noord-Brabant,VBO,4.855508,51.456547
Bernardusstraat,46,,,5113TL,Ulicoten,Baarle-Nassau,Noord-Brabant,VBO,4.855648,51.456898
Bernardusstraat,47,,,5113TL,Ulicoten,Baarle-Nassau,Noord-Brabant,VBO,4.855435,51.456573
Bernardusstraat,48,,,5113TL,Ulicoten,Baarle-Nassau,Noord-Brabant,VBO,4.854969,51.457128
Bernardusstraat,49,,,5113TL,Ulicoten,Baarle-Nassau,Noord-Brabant,VBO,4.855320,51.456636
Bernardusstraat,50,,,5113TL,Ulicoten,Baarle-Nassau,Noord-Brabant,VBO,4.854896,51.457155
Bernardusstraat,51,,,5113TL,Ulicoten,Baarle-Nassau,Noord-Brabant,VBO,4.855262,51.456671
Bernardusstraat,52,,,5113TL,Ulicoten,Baarle-Nassau,Noord-Brabant,VBO,4.854824,51.457173
Bernardusstraat,53,,,5113TL,Ulicoten,Baarle-Nassau,Noord-Brabant,VBO,4.855218,51.456707
Bernardusstraat,54,,,5113TL,Ulicoten,Baarle-Nassau,Noord-Brabant,VBO,4.854738,51.457181
Bernardusstraat,55,,,5113TL,Ulicoten,Baarle-Nassau,Noord-Brabant,VBO,4.855059,51.456805
Bernardusstraat,56,,,5113TL,Ulicoten,Baarle-Nassau,Noord-Brabant,VBO,4.854665,51.457253
Bernardusstraat,57,,,5113TL,Ulicoten,Baarle-Nassau,Noord-Brabant,VBO,4.855015,51.456841
Bernardusstraat,58,,,5113TL,Ulicoten,Baarle-Nassau,Noord-Brabant,VBO,4.854564,51.457252
Bernardusstraat,59,,,5113TL,Ulicoten,Baarle-Nassau,Noord-Brabant,VBO,4.854957,51.456877
Bernardusstraat,60,,,5113TL,Ulicoten,Baarle-Nassau,Noord-Brabant,VBO,4.854449,51.457270
Bernardusstraat,61,,,5113TL,Ulicoten,Baarle-Nassau,Noord-Brabant,VBO,4.854827,51.456939
Bernardusstraat,62,,,5113TL,Ulicoten,Baarle-Nassau,Noord-Brabant,VBO,4.854305,51.457296
Bernardusstraat,63,,,5113TL,Ulicoten,Baarle-Nassau,Noord-Brabant,VBO,4.854769,51.456966
Bernardusstraat,64,,,5113TL,Ulicoten,Baarle-Nassau,Noord-Brabant,VBO,4.854146,51.457295
Bernardusstraat,65,,,5113TL,Ulicoten,Baarle-Nassau,Noord-Brabant,VBO,4.854697,51.457001
Bernardusstraat,67,,,5113TL,Ulicoten,Baarle-Nassau,Noord-Brabant,VBO,4.854466,51.457045
Bernardusstraat,69,,,5113TL,Ulicoten,Baarle-Nassau,Noord-Brabant,VBO,4.854221,51.457089
Bernardusstraat,71,,,5113TL,Ulicoten,Baarle-Nassau,Noord-Brabant,VBO,4.854134,51.457098
Bernardusstraat,73,,,5113TL,Ulicoten,Baarle-Nassau,Noord-Brabant,VBO,4.853976,51.457097
Bernardusstraat,75,,,5113TL,Ulicoten,Baarle-Nassau,Noord-Brabant,VBO,4.853904,51.457115
Kloosterstraat,2,,,5113TM,Ulicoten,Baarle-Nassau,Noord-Brabant,VBO,4.857780,51.457914
Kloosterstraat,4,,,5113TM,Ulicoten,Baarle-Nassau,Noord-Brabant,VBO,4.857807,51.458040
Kloosterstraat,5,,,5113TM,Ulicoten,Baarle-Nassau,Noord-Brabant,VBO,4.857532,51.458201
Kloosterstraat,6,,,5113TM,Ulicoten,Baarle-Nassau,Noord-Brabant,VBO,4.857848,51.458175
Kloosterstraat,7,,,5113TM,Ulicoten,Baarle-Nassau,Noord-Brabant,VBO,4.857545,51.458273
Kloosterstraat,8,,,5113TM,Ulicoten,Baarle-Nassau,Noord-Brabant,VBO,4.857919,51.458328
Kloosterstraat,9,,,5113TM,Ulicoten,Baarle-Nassau,Noord-Brabant,VBO,4.857559,51.458327
Kloosterstraat,10,,,5113TM,Ulicoten,Baarle-Nassau,Noord-Brabant,VBO,4.857974,51.458481
Kloosterstraat,11,,,5113TM,Ulicoten,Baarle-Nassau,Noord-Brabant,VBO,4.857601,51.458381
Kloosterstraat,12,,,5113TM,Ulicoten,Baarle-Nassau,Noord-Brabant,VBO,4.858030,51.458643
Kloosterstraat,13,,,5113TM,Ulicoten,Baarle-Nassau,Noord-Brabant,VBO,4.857643,51.458516
Kloosterstraat,15,,,5113TM,Ulicoten,Baarle-Nassau,Noord-Brabant,VBO,4.857657,51.458570
Kloosterstraat,17,,,5113TM,Ulicoten,Baarle-Nassau,Noord-Brabant,VBO,4.857670,51.458633
Kloosterstraat,19,,,5113TM,Ulicoten,Baarle-Nassau,Noord-Brabant,VBO,4.857713,51.458687
Beekdal,1,,,5113TN,Ulicoten,Baarle-Nassau,Noord-Brabant,VBO,4.857523,51.458920
Beekdal,3,,,5113TN,Ulicoten,Baarle-Nassau,Noord-Brabant,VBO,4.857725,51.458894
Beekdal,5,,,5113TN,Ulicoten,Baarle-Nassau,Noord-Brabant,VBO,4.857826,51.458885
Beekdal,7,,,5113TN,Ulicoten,Baarle-Nassau,Noord-Brabant,VBO,4.857912,51.458868
Beekdal,9,,,5113TN,Ulicoten,Baarle-Nassau,Noord-Brabant,VBO,4.857999,51.458850
Beekdal,11,,,5113TN,Ulicoten,Baarle-Nassau,Noord-Brabant,VBO,4.858186,51.458824
Den Dries,1,,,5113TP,Ulicoten,Baarle-Nassau,Noord-Brabant,VBO,4.863001,51.456787
Den Dries,2,a,,5113TP,Ulicoten,Baarle-Nassau,Noord-Brabant,VBO,4.862126,51.456550
Den Dries,2,,,5113TP,Ulicoten,Baarle-Nassau,Noord-Brabant,VBO,4.862069,51.456495
Den Dries,3,,,5113TP,Ulicoten,Baarle-Nassau,Noord-Brabant,VBO,4.863304,51.456762
Den Dries,4,,,5113TP,Ulicoten,Baarle-Nassau,Noord-Brabant,VBO,4.862426,51.456758
Den Dries,5,,,5113TP,Ulicoten,Baarle-Nassau,Noord-Brabant,VBO,4.863592,51.456709
Den Dries,6,,,5113TP,Ulicoten,Baarle-Nassau,Noord-Brabant,VBO,4.862628,51.456696
Den Dries,7,,,5113TP,Ulicoten,Baarle-Nassau,Noord-Brabant,VBO,4.863866,51.456665
Den Dries,8,,,5113TP,Ulicoten,Baarle-Nassau,Noord-Brabant,VBO,4.862700,51.456669
Den Dries,10,,,5113TP,Ulicoten,Baarle-Nassau,Noord-Brabant,VBO,4.862902,51.456616
Den Dries,12,,,5113TP,Ulicoten,Baarle-Nassau,Noord-Brabant,VBO,4.863162,51.456581
Den Dries,14,,,5113TP,Ulicoten,Baarle-Nassau,Noord-Brabant,VBO,4.863421,51.456546
Den Dries,16,,,5113TP,Ulicoten,Baarle-Nassau,Noord-Brabant,VBO,4.863695,51.456512
Den Dries,18,,,5113TP,Ulicoten,Baarle-Nassau,Noord-Brabant,VBO,4.863810,51.456494
Den Dries,20,,,5113TP,Ulicoten,Baarle-Nassau,Noord-Brabant,VBO,4.863770,51.456206
