openbareruimtenaam,huisnummer,huisletter,huisnummertoevoeging,postcode,woonplaatsnaam,gemeentenaam,provincienaam,typeadresseerbaarobject,longitude,latitude
Rooseveltlaan,1,,,5242AA,Rosmalen,'s-Hertogenbosch,Noord-Brabant,VBO,5.360992,51.711605
Rooseveltlaan,2,,,5242AA,Rosmalen,'s-Hertogenbosch,Noord-Brabant,VBO,5.360635,51.711283
Rooseveltlaan,3,,,5242AA,Rosmalen,'s-Hertogenbosch,Noord-Brabant,VBO,5.358668,51.710949
Rooseveltlaan,4,,,5242AA,Rosmalen,'s-Hertogenbosch,Noord-Brabant,VBO,5.359845,51.711188
Rooseveltlaan,5,,,5242AA,Rosmalen,'s-Hertogenbosch,Noord-Brabant,VBO,5.358362,51.710832
Rooseveltlaan,6,A,,5242AA,Rosmalen,'s-Hertogenbosch,Noord-Brabant,VBO,5.359317,51.710996
Rooseveltlaan,6,,,5242AA,Rosmalen,'s-Hertogenbosch,Noord-Brabant,VBO,5.359550,51.711134
Rooseveltlaan,7,,,5242AA,Rosmalen,'s-Hertogenbosch,Noord-Brabant,VBO,5.358031,51.710779
Rooseveltlaan,8,,,5242AA,Rosmalen,'s-Hertogenbosch,Noord-Brabant,VBO,5.358881,51.710696
Rooseveltlaan,9,,,5242AA,Rosmalen,'s-Hertogenbosch,Noord-Brabant,VBO,5.357726,51.710661
Rooseveltlaan,10,,,5242AA,Rosmalen,'s-Hertogenbosch,Noord-Brabant,VBO,5.358658,51.710642
Rooseveltlaan,11,,,5242AA,Rosmalen,'s-Hertogenbosch,Noord-Brabant,VBO,5.357394,51.710607
Rooseveltlaan,12,,,5242AA,Rosmalen,'s-Hertogenbosch,Noord-Brabant,VBO,5.358434,51.710587
Rooseveltlaan,13,,,5242AA,Rosmalen,'s-Hertogenbosch,Noord-Brabant,VBO,5.357088,51.710491
Rooseveltlaan,14,,,5242AA,Rosmalen,'s-Hertogenbosch,Noord-Brabant,VBO,5.358209,51.710533
Rooseveltlaan,15,,,5242AA,Rosmalen,'s-Hertogenbosch,Noord-Brabant,VBO,5.356757,51.710437
Rooseveltlaan,16,,,5242AA,Rosmalen,'s-Hertogenbosch,Noord-Brabant,VBO,5.357985,51.710479
Rooseveltlaan,18,,,5242AA,Rosmalen,'s-Hertogenbosch,Noord-Brabant,VBO,5.357761,51.710425
Rooseveltlaan,20,,,5242AA,Rosmalen,'s-Hertogenbosch,Noord-Brabant,VBO,5.357537,51.710370
Rooseveltlaan,22,,,5242AA,Rosmalen,'s-Hertogenbosch,Noord-Brabant,VBO,5.356943,51.710187
Rooseveltlaan,24,,,5242AA,Rosmalen,'s-Hertogenbosch,Noord-Brabant,VBO,5.356668,51.710179
Rooseveltlaan,26,,,5242AA,Rosmalen,'s-Hertogenbosch,Noord-Brabant,VBO,5.356393,51.710172
Rooseveltlaan,28,,,5242AA,Rosmalen,'s-Hertogenbosch,Noord-Brabant,VBO,5.356118,51.710165
Rooseveltlaan,30,,,5242AA,Rosmalen,'s-Hertogenbosch,Noord-Brabant,VBO,5.355842,51.710157
Burg. Jhr. von Heijdenlaan,2,,,5242AB,Rosmalen,'s-Hertogenbosch,Noord-Brabant,VBO,5.353057,51.709570
Burg. Jhr. von Heijdenlaan,4,,,5242AB,Rosmalen,'s-Hertogenbosch,Noord-Brabant,VBO,5.352794,51.709421
Burg. Jhr. von Heijdenlaan,6,,,5242AB,Rosmalen,'s-Hertogenbosch,Noord-Brabant,VBO,5.353241,51.709376
Burg. Jhr. von Heijdenlaan,11,,,5242AB,Rosmalen,'s-Hertogenbosch,Noord-Brabant,VBO,5.352198,51.709472
Heer en Beekstraat,5,,,5242AC,Rosmalen,'s-Hertogenbosch,Noord-Brabant,VBO,5.354941,51.708148
Heer en Beekstraat,7,,,5242AC,Rosmalen,'s-Hertogenbosch,Noord-Brabant,VBO,5.355303,51.708072
Heer en Beekstraat,9,,,5242AC,Rosmalen,'s-Hertogenbosch,Noord-Brabant,VBO,5.355389,51.707968
Heer en Beekstraat,11,,,5242AC,Rosmalen,'s-Hertogenbosch,Noord-Brabant,VBO,5.355490,51.707881
Heer en Beekstraat,13,,,5242AC,Rosmalen,'s-Hertogenbosch,Noord-Brabant,VBO,5.355606,51.707780
Heer en Beekstraat,15,,,5242AC,Rosmalen,'s-Hertogenbosch,Noord-Brabant,VBO,5.355631,51.707758
Heer en Beekstraat,17,,,5242AC,Rosmalen,'s-Hertogenbosch,Noord-Brabant,VBO,5.355595,51.707579
Heer en Beekstraat,19,A,,5242AC,Rosmalen,'s-Hertogenbosch,Noord-Brabant,VBO,5.355925,51.707397
Heer en Beekstraat,19,B,,5242AC,Rosmalen,'s-Hertogenbosch,Noord-Brabant,VBO,5.356077,51.707251
Heer en Beekstraat,19,,,5242AC,Rosmalen,'s-Hertogenbosch,Noord-Brabant,VBO,5.355622,51.707459
Heer en Beekstraat,21,A,,5242AC,Rosmalen,'s-Hertogenbosch,Noord-Brabant,VBO,5.356372,51.706891
Heer en Beekstraat,21,B,,5242AC,Rosmalen,'s-Hertogenbosch,Noord-Brabant,VBO,5.356577,51.706766
Heer en Beekstraat,21,,,5242AC,Rosmalen,'s-Hertogenbosch,Noord-Brabant,VBO,5.356186,51.707019
Heer en Beekstraat,23,,,5242AC,Rosmalen,'s-Hertogenbosch,Noord-Brabant,VBO,5.356734,51.706610
Heer en Beekstraat,25,,,5242AC,Rosmalen,'s-Hertogenbosch,Noord-Brabant,VBO,5.356866,51.706351
Heer en Beekstraat,27,,,5242AC,Rosmalen,'s-Hertogenbosch,Noord-Brabant,VBO,5.356900,51.706186
Heer en Beekstraat,29,,,5242AC,Rosmalen,'s-Hertogenbosch,Noord-Brabant,VBO,5.356970,51.706035
Heer en Beekstraat,31,A,,5242AC,Rosmalen,'s-Hertogenbosch,Noord-Brabant,VBO,5.357132,51.705698
Heer en Beekstraat,31,,,5242AC,Rosmalen,'s-Hertogenbosch,Noord-Brabant,VBO,5.357043,51.705889
Heer en Beekstraat,33,,,5242AC,Rosmalen,'s-Hertogenbosch,Noord-Brabant,VBO,5.357213,51.705553
Heer en Beekstraat,35,,,5242AC,Rosmalen,'s-Hertogenbosch,Noord-Brabant,VBO,5.357287,51.705407
Heer en Beekstraat,37,,,5242AC,Rosmalen,'s-Hertogenbosch,Noord-Brabant,VBO,5.357381,51.705225
Heer en Beekstraat,39,,,5242AC,Rosmalen,'s-Hertogenbosch,Noord-Brabant,VBO,5.357506,51.704982
Heer en Beekstraat,41,,,5242AC,Rosmalen,'s-Hertogenbosch,Noord-Brabant,VBO,5.357630,51.704746
Heer en Beekstraat,43,,,5242AC,Rosmalen,'s-Hertogenbosch,Noord-Brabant,VBO,5.357848,51.704554
Heer en Beekstraat,45,,,5242AC,Rosmalen,'s-Hertogenbosch,Noord-Brabant,VBO,5.357765,51.704268
Heer en Beekstraat,47,,,5242AC,Rosmalen,'s-Hertogenbosch,Noord-Brabant,VBO,5.357970,51.703937
Heer en Beekstraat,49,,,5242AC,Rosmalen,'s-Hertogenbosch,Noord-Brabant,VBO,5.358104,51.703667
Heer en Beekstraat,6,,,5242AD,Rosmalen,'s-Hertogenbosch,Noord-Brabant,VBO,5.355529,51.708262
Heer en Beekstraat,8,,,5242AD,Rosmalen,'s-Hertogenbosch,Noord-Brabant,VBO,5.355746,51.708080
Heer en Beekstraat,10,,,5242AD,Rosmalen,'s-Hertogenbosch,Noord-Brabant,VBO,5.355864,51.707981
Heer en Beekstraat,12,,,5242AD,Rosmalen,'s-Hertogenbosch,Noord-Brabant,VBO,5.355927,51.707928
Heer en Beekstraat,14,,,5242AD,Rosmalen,'s-Hertogenbosch,Noord-Brabant,VBO,5.356019,51.707845
Heer en Beekstraat,16,,,5242AD,Rosmalen,'s-Hertogenbosch,Noord-Brabant,VBO,5.356071,51.707801
Heer en Beekstraat,18,B,,5242AD,Rosmalen,'s-Hertogenbosch,Noord-Brabant,VBO,5.356558,51.707761
Heer en Beekstraat,18,,,5242AD,Rosmalen,'s-Hertogenbosch,Noord-Brabant,VBO,5.356166,51.707698
Heer en Beekstraat,20,,,5242AD,Rosmalen,'s-Hertogenbosch,Noord-Brabant,VBO,5.356217,51.707599
Heer en Beekstraat,22,,,5242AD,Rosmalen,'s-Hertogenbosch,Noord-Brabant,VBO,5.356258,51.707561
Heer en Beekstraat,24,,,5242AD,Rosmalen,'s-Hertogenbosch,Noord-Brabant,VBO,5.356313,51.707512
Heer en Beekstraat,26,,,5242AD,Rosmalen,'s-Hertogenbosch,Noord-Brabant,VBO,5.356400,51.707434
Heer en Beekstraat,28,,,5242AD,Rosmalen,'s-Hertogenbosch,Noord-Brabant,VBO,5.356475,51.707366
Heer en Beekstraat,30,,,5242AD,Rosmalen,'s-Hertogenbosch,Noord-Brabant,VBO,5.356602,51.707252
Heer en Beekstraat,32,,,5242AD,Rosmalen,'s-Hertogenbosch,Noord-Brabant,VBO,5.356715,51.707153
Heer en Beekstraat,34,,,5242AD,Rosmalen,'s-Hertogenbosch,Noord-Brabant,VBO,5.356848,51.707046
Heer en Beekstraat,36,,,5242AD,Rosmalen,'s-Hertogenbosch,Noord-Brabant,VBO,5.356940,51.706965
Heer en Beekstraat,38,,,5242AD,Rosmalen,'s-Hertogenbosch,Noord-Brabant,VBO,5.357068,51.706851
Elststraat,1,,,5242AE,Rosmalen,'s-Hertogenbosch,Noord-Brabant,VBO,5.356132,51.706179
Elststraat,2,,,5242AE,Rosmalen,'s-Hertogenbosch,Noord-Brabant,VBO,5.356224,51.706403
Gele Hoevelaan,1,,,5242AG,Rosmalen,'s-Hertogenbosch,Noord-Brabant,VBO,5.359306,51.703876
Gele Hoevelaan,2,,,5242AG,Rosmalen,'s-Hertogenbosch,Noord-Brabant,VBO,5.358886,51.704185
Gele Hoevelaan,3,,,5242AG,Rosmalen,'s-Hertogenbosch,Noord-Brabant,VBO,5.359772,51.703939
Gele Hoevelaan,4,,,5242AG,Rosmalen,'s-Hertogenbosch,Noord-Brabant,VBO,5.360135,51.704284
Gele Hoevelaan,5,,,5242AG,Rosmalen,'s-Hertogenbosch,Noord-Brabant,VBO,5.360396,51.704061
Gele Hoevelaan,6,,,5242AG,Rosmalen,'s-Hertogenbosch,Noord-Brabant,VBO,5.360782,51.704397
Gele Hoevelaan,7,,,5242AG,Rosmalen,'s-Hertogenbosch,Noord-Brabant,VBO,5.361039,51.704159
Gele Hoevelaan,8,,,5242AG,Rosmalen,'s-Hertogenbosch,Noord-Brabant,VBO,5.361325,51.704471
Notaris van de Mortellaan,1,,,5242AH,Rosmalen,'s-Hertogenbosch,Noord-Brabant,VBO,5.359890,51.704606
Notaris van de Mortellaan,2,,,5242AH,Rosmalen,'s-Hertogenbosch,Noord-Brabant,VBO,5.359723,51.704896
Notaris van de Mortellaan,3,,,5242AH,Rosmalen,'s-Hertogenbosch,Noord-Brabant,VBO,5.360879,51.704735
Notaris van de Mortellaan,4,,,5242AH,Rosmalen,'s-Hertogenbosch,Noord-Brabant,VBO,5.360091,51.704935
Notaris van de Mortellaan,5,,,5242AH,Rosmalen,'s-Hertogenbosch,Noord-Brabant,VBO,5.361421,51.704857
Notaris van de Mortellaan,6,,,5242AH,Rosmalen,'s-Hertogenbosch,Noord-Brabant,VBO,5.360615,51.705023
Notaris van de Mortellaan,8,,,5242AH,Rosmalen,'s-Hertogenbosch,Noord-Brabant,VBO,5.361137,51.705096
Notaris van de Mortellaan,10,,,5242AH,Rosmalen,'s-Hertogenbosch,Noord-Brabant,VBO,5.361544,51.705127
Jkvr. de la Courtlaan,1,,,5242AJ,Rosmalen,'s-Hertogenbosch,Noord-Brabant,VBO,5.359620,51.705595
Jkvr. de la Courtlaan,2,A,,5242AJ,Rosmalen,'s-Hertogenbosch,Noord-Brabant,VBO,5.359254,51.705846
Jkvr. de la Courtlaan,2,B,,5242AJ,Rosmalen,'s-Hertogenbosch,Noord-Brabant,VBO,5.359254,51.705846
Jkvr. de la Courtlaan,2,,,5242AJ,Rosmalen,'s-Hertogenbosch,Noord-Brabant,VBO,5.358451,51.705626
Jkvr. de la Courtlaan,3,,,5242AJ,Rosmalen,'s-Hertogenbosch,Noord-Brabant,VBO,5.360078,51.705621
Jkvr. de la Courtlaan,4,,,5242AJ,Rosmalen,'s-Hertogenbosch,Noord-Brabant,VBO,5.359656,51.705940
Jkvr. de la Courtlaan,5,,,5242AJ,Rosmalen,'s-Hertogenbosch,Noord-Brabant,VBO,5.360429,51.705664
Jkvr. de la Courtlaan,6,,,5242AJ,Rosmalen,'s-Hertogenbosch,Noord-Brabant,VBO,5.360122,51.705933
Jkvr. de la Courtlaan,7,,,5242AJ,Rosmalen,'s-Hertogenbosch,Noord-Brabant,VBO,5.360940,51.705675
Jkvr. de la Courtlaan,9,,,5242AJ,Rosmalen,'s-Hertogenbosch,Noord-Brabant,VBO,5.361376,51.705724
Jkvr. de la Courtlaan,10,,,5242AJ,Rosmalen,'s-Hertogenbosch,Noord-Brabant,VBO,5.361494,51.705932
Rector Zwijsenlaan,1,,,5242AK,Rosmalen,'s-Hertogenbosch,Noord-Brabant,VBO,5.359336,51.706491
Rector Zwijsenlaan,3,,,5242AK,Rosmalen,'s-Hertogenbosch,Noord-Brabant,VBO,5.359429,51.706492
Rector Zwijsenlaan,5,,,5242AK,Rosmalen,'s-Hertogenbosch,Noord-Brabant,VBO,5.359524,51.706493
Rector Zwijsenlaan,7,,,5242AK,Rosmalen,'s-Hertogenbosch,Noord-Brabant,VBO,5.359618,51.706494
Rector Zwijsenlaan,9,,,5242AK,Rosmalen,'s-Hertogenbosch,Noord-Brabant,VBO,5.359712,51.706495
Rector Zwijsenlaan,11,,,5242AK,Rosmalen,'s-Hertogenbosch,Noord-Brabant,VBO,5.359807,51.706496
Rector Zwijsenlaan,13,,,5242AK,Rosmalen,'s-Hertogenbosch,Noord-Brabant,VBO,5.359901,51.706497
Rector Zwijsenlaan,15,,,5242AK,Rosmalen,'s-Hertogenbosch,Noord-Brabant,VBO,5.360125,51.706525
Rector Zwijsenlaan,17,,,5242AK,Rosmalen,'s-Hertogenbosch,Noord-Brabant,VBO,5.360221,51.706526
Rector Zwijsenlaan,19,,,5242AK,Rosmalen,'s-Hertogenbosch,Noord-Brabant,VBO,5.360403,51.706527
Rector Zwijsenlaan,21,,,5242AK,Rosmalen,'s-Hertogenbosch,Noord-Brabant,VBO,5.360499,51.706528
Rector Zwijsenlaan,23,,,5242AK,Rosmalen,'s-Hertogenbosch,Noord-Brabant,VBO,5.360683,51.706530
Rector Zwijsenlaan,25,,,5242AK,Rosmalen,'s-Hertogenbosch,Noord-Brabant,VBO,5.360779,51.706531
Rector Zwijsenlaan,27,,,5242AK,Rosmalen,'s-Hertogenbosch,Noord-Brabant,VBO,5.360962,51.706532
Rector Zwijsenlaan,29,,,5242AK,Rosmalen,'s-Hertogenbosch,Noord-Brabant,VBO,5.361058,51.706533
Rector Zwijsenlaan,31,,,5242AK,Rosmalen,'s-Hertogenbosch,Noord-Brabant,VBO,5.361242,51.706535
Rector Zwijsenlaan,33,,,5242AK,Rosmalen,'s-Hertogenbosch,Noord-Brabant,VBO,5.361339,51.706536
Rector Zwijsenlaan,35,,,5242AK,Rosmalen,'s-Hertogenbosch,Noord-Brabant,VBO,5.361530,51.706538
Rector Zwijsenlaan,10,,,5242AL,Rosmalen,'s-Hertogenbosch,Noord-Brabant,VBO,5.360189,51.706777
Rector Zwijsenlaan,12,,,5242AL,Rosmalen,'s-Hertogenbosch,Noord-Brabant,VBO,5.360282,51.706780
Rector Zwijsenlaan,14,,,5242AL,Rosmalen,'s-Hertogenbosch,Noord-Brabant,VBO,5.360374,51.706783
Rector Zwijsenlaan,16,,,5242AL,Rosmalen,'s-Hertogenbosch,Noord-Brabant,VBO,5.360561,51.706792
Rector Zwijsenlaan,18,,,5242AL,Rosmalen,'s-Hertogenbosch,Noord-Brabant,VBO,5.360653,51.706796
Rector Zwijsenlaan,20,,,5242AL,Rosmalen,'s-Hertogenbosch,Noord-Brabant,VBO,5.360838,51.706803
Rector Zwijsenlaan,22,,,5242AL,Rosmalen,'s-Hertogenbosch,Noord-Brabant,VBO,5.360937,51.706806
Rector Zwijsenlaan,24,,,5242AL,Rosmalen,'s-Hertogenbosch,Noord-Brabant,VBO,5.361115,51.706814
Rector Zwijsenlaan,26,,,5242AL,Rosmalen,'s-Hertogenbosch,Noord-Brabant,VBO,5.361214,51.706816
Rector Zwijsenlaan,28,,,5242AL,Rosmalen,'s-Hertogenbosch,Noord-Brabant,VBO,5.361394,51.706839
Rector Zwijsenlaan,30,,,5242AL,Rosmalen,'s-Hertogenbosch,Noord-Brabant,VBO,5.361492,51.706845
Driebergenlaan,1,,,5242AM,Rosmalen,'s-Hertogenbosch,Noord-Brabant,VBO,5.357854,51.706816
Driebergenlaan,2,,,5242AM,Rosmalen,'s-Hertogenbosch,Noord-Brabant,VBO,5.358176,51.707009
Driebergenlaan,3,,,5242AM,Rosmalen,'s-Hertogenbosch,Noord-Brabant,VBO,5.357942,51.706632
Driebergenlaan,4,,,5242AM,Rosmalen,'s-Hertogenbosch,Noord-Brabant,VBO,5.358267,51.706877
Driebergenlaan,5,,,5242AM,Rosmalen,'s-Hertogenbosch,Noord-Brabant,VBO,5.358077,51.706416
Driebergenlaan,6,,,5242AM,Rosmalen,'s-Hertogenbosch,Noord-Brabant,VBO,5.358369,51.706725
Driebergenlaan,7,,,5242AM,Rosmalen,'s-Hertogenbosch,Noord-Brabant,VBO,5.358235,51.706154
Driebergenlaan,8,,,5242AM,Rosmalen,'s-Hertogenbosch,Noord-Brabant,VBO,5.358495,51.706546
Driebergenlaan,9,,,5242AM,Rosmalen,'s-Hertogenbosch,Noord-Brabant,VBO,5.358361,51.705922
Driebergenlaan,10,,,5242AM,Rosmalen,'s-Hertogenbosch,Noord-Brabant,VBO,5.358676,51.706339
Driebergenlaan,12,,,5242AM,Rosmalen,'s-Hertogenbosch,Noord-Brabant,VBO,5.358761,51.706195
Driebergenlaan,13,,,5242AM,Rosmalen,'s-Hertogenbosch,Noord-Brabant,VBO,5.358919,51.705112
Driebergenlaan,15,,,5242AM,Rosmalen,'s-Hertogenbosch,Noord-Brabant,VBO,5.358810,51.704825
Driebergenlaan,17,,,5242AM,Rosmalen,'s-Hertogenbosch,Noord-Brabant,VBO,5.359055,51.704521
Willem de Zwijgerlaan,1,,,5242AN,Rosmalen,'s-Hertogenbosch,Noord-Brabant,VBO,5.357078,51.709218
Willem de Zwijgerlaan,2,,,5242AN,Rosmalen,'s-Hertogenbosch,Noord-Brabant,VBO,5.357662,51.707898
Willem de Zwijgerlaan,3,,,5242AN,Rosmalen,'s-Hertogenbosch,Noord-Brabant,VBO,5.357048,51.708994
Willem de Zwijgerlaan,4,,,5242AN,Rosmalen,'s-Hertogenbosch,Noord-Brabant,VBO,5.357821,51.707671
Willem de Zwijgerlaan,5,,,5242AN,Rosmalen,'s-Hertogenbosch,Noord-Brabant,VBO,5.357020,51.708772
Willem de Zwijgerlaan,6,,,5242AN,Rosmalen,'s-Hertogenbosch,Noord-Brabant,VBO,5.357891,51.707474
Willem de Zwijgerlaan,7,,,5242AN,Rosmalen,'s-Hertogenbosch,Noord-Brabant,VBO,5.357226,51.708070
Willem de Zwijgerlaan,8,,,5242AN,Rosmalen,'s-Hertogenbosch,Noord-Brabant,VBO,5.358016,51.707261
Willem de Zwijgerlaan,9,,,5242AN,Rosmalen,'s-Hertogenbosch,Noord-Brabant,VBO,5.357277,51.707852
Willem de Zwijgerlaan,11,,,5242AN,Rosmalen,'s-Hertogenbosch,Noord-Brabant,VBO,5.357348,51.707667
Willem de Zwijgerlaan,13,,,5242AN,Rosmalen,'s-Hertogenbosch,Noord-Brabant,VBO,5.357469,51.707500
Willem de Zwijgerlaan,15,,,5242AN,Rosmalen,'s-Hertogenbosch,Noord-Brabant,VBO,5.357577,51.707314
Willem de Zwijgerlaan,17,,,5242AN,Rosmalen,'s-Hertogenbosch,Noord-Brabant,VBO,5.357683,51.707142
Van Oldenbarneveltlaan,1,,,5242AP,Rosmalen,'s-Hertogenbosch,Noord-Brabant,VBO,5.355230,51.709957
Van Oldenbarneveltlaan,3,,,5242AP,Rosmalen,'s-Hertogenbosch,Noord-Brabant,VBO,5.355230,51.709702
Van Oldenbarneveltlaan,5,,,5242AP,Rosmalen,'s-Hertogenbosch,Noord-Brabant,VBO,5.355348,51.709426
Van Oldenbarneveltlaan,7,,,5242AP,Rosmalen,'s-Hertogenbosch,Noord-Brabant,VBO,5.355393,51.709287
Frederik Hendriklaan,1,,,5242AR,Rosmalen,'s-Hertogenbosch,Noord-Brabant,VBO,5.357013,51.709703
Frederik Hendriklaan,2,,,5242AR,Rosmalen,'s-Hertogenbosch,Noord-Brabant,VBO,5.357061,51.709524
Frederik Hendriklaan,3,,,5242AR,Rosmalen,'s-Hertogenbosch,Noord-Brabant,VBO,5.356737,51.709696
Frederik Hendriklaan,4,,,5242AR,Rosmalen,'s-Hertogenbosch,Noord-Brabant,VBO,5.356659,51.709504
Frederik Hendriklaan,5,,,5242AR,Rosmalen,'s-Hertogenbosch,Noord-Brabant,VBO,5.356462,51.709689
Frederik Hendriklaan,6,,,5242AR,Rosmalen,'s-Hertogenbosch,Noord-Brabant,VBO,5.356337,51.709485
Frederik Hendriklaan,7,,,5242AR,Rosmalen,'s-Hertogenbosch,Noord-Brabant,VBO,5.356187,51.709681
Frederik Hendriklaan,9,,,5242AR,Rosmalen,'s-Hertogenbosch,Noord-Brabant,VBO,5.355913,51.709674
Prins Mauritslaan,1,,,5242AS,Rosmalen,'s-Hertogenbosch,Noord-Brabant,VBO,5.355972,51.709429
Prins Mauritslaan,2,,,5242AS,Rosmalen,'s-Hertogenbosch,Noord-Brabant,VBO,5.356300,51.709244
Prins Mauritslaan,3,,,5242AS,Rosmalen,'s-Hertogenbosch,Noord-Brabant,VBO,5.355969,51.709221
Prins Mauritslaan,4,,,5242AS,Rosmalen,'s-Hertogenbosch,Noord-Brabant,VBO,5.356335,51.708987
Prins Mauritslaan,5,,,5242AS,Rosmalen,'s-Hertogenbosch,Noord-Brabant,VBO,5.355966,51.709014
Prins Mauritslaan,6,,,5242AS,Rosmalen,'s-Hertogenbosch,Noord-Brabant,VBO,5.356302,51.708817
Prins Mauritslaan,7,,,5242AS,Rosmalen,'s-Hertogenbosch,Noord-Brabant,VBO,5.355963,51.708795
Burgemeester Mazairaclaan,1,,,5242AT,Rosmalen,'s-Hertogenbosch,Noord-Brabant,VBO,5.360679,51.708696
Burgemeester Mazairaclaan,3,,,5242AT,Rosmalen,'s-Hertogenbosch,Noord-Brabant,VBO,5.360742,51.708698
Burgemeester Mazairaclaan,5,,,5242AT,Rosmalen,'s-Hertogenbosch,Noord-Brabant,VBO,5.360806,51.708699
Burgemeester Mazairaclaan,7,,,5242AT,Rosmalen,'s-Hertogenbosch,Noord-Brabant,VBO,5.360869,51.708701
Burgemeester Mazairaclaan,9,,,5242AT,Rosmalen,'s-Hertogenbosch,Noord-Brabant,VBO,5.360932,51.708702
Burgemeester Mazairaclaan,11,,,5242AT,Rosmalen,'s-Hertogenbosch,Noord-Brabant,VBO,5.360995,51.708704
Burgemeester Mazairaclaan,13,,,5242AT,Rosmalen,'s-Hertogenbosch,Noord-Brabant,VBO,5.361058,51.708705
Burgemeester Mazairaclaan,15,,,5242AT,Rosmalen,'s-Hertogenbosch,Noord-Brabant,VBO,5.361122,51.708707
Burgemeester Mazairaclaan,17,,,5242AT,Rosmalen,'s-Hertogenbosch,Noord-Brabant,VBO,5.361185,51.708708
Burgemeester Mazairaclaan,19,,,5242AT,Rosmalen,'s-Hertogenbosch,Noord-Brabant,VBO,5.361248,51.708710
Burgemeester Mazairaclaan,21,,,5242AT,Rosmalen,'s-Hertogenbosch,Noord-Brabant,VBO,5.361311,51.708711
Burgemeester Mazairaclaan,23,,,5242AT,Rosmalen,'s-Hertogenbosch,Noord-Brabant,VBO,5.361374,51.708713
Burgemeester Mazairaclaan,25,,,5242AT,Rosmalen,'s-Hertogenbosch,Noord-Brabant,VBO,5.360677,51.708732
Burgemeester Mazairaclaan,27,,,5242AT,Rosmalen,'s-Hertogenbosch,Noord-Brabant,VBO,5.360740,51.708733
Burgemeester Mazairaclaan,29,,,5242AT,Rosmalen,'s-Hertogenbosch,Noord-Brabant,VBO,5.360803,51.708735
Burgemeester Mazairaclaan,31,,,5242AT,Rosmalen,'s-Hertogenbosch,Noord-Brabant,VBO,5.360866,51.708737
Burgemeester Mazairaclaan,33,,,5242AT,Rosmalen,'s-Hertogenbosch,Noord-Brabant,VBO,5.360930,51.708738
Burgemeester Mazairaclaan,35,,,5242AT,Rosmalen,'s-Hertogenbosch,Noord-Brabant,VBO,5.360993,51.708740
Burgemeester Mazairaclaan,37,,,5242AT,Rosmalen,'s-Hertogenbosch,Noord-Brabant,VBO,5.361056,51.708741
Burgemeester Mazairaclaan,39,,,5242AT,Rosmalen,'s-Hertogenbosch,Noord-Brabant,VBO,5.361119,51.708743
Burgemeester Mazairaclaan,41,,,5242AT,Rosmalen,'s-Hertogenbosch,Noord-Brabant,VBO,5.361182,51.708744
Burgemeester Mazairaclaan,43,,,5242AT,Rosmalen,'s-Hertogenbosch,Noord-Brabant,VBO,5.361246,51.708746
Burgemeester Mazairaclaan,45,,,5242AT,Rosmalen,'s-Hertogenbosch,Noord-Brabant,VBO,5.361309,51.708747
Burgemeester Mazairaclaan,47,,,5242AT,Rosmalen,'s-Hertogenbosch,Noord-Brabant,VBO,5.361372,51.708749
Burgemeester Mazairaclaan,49,,,5242AT,Rosmalen,'s-Hertogenbosch,Noord-Brabant,VBO,5.360067,51.708623
Burgemeester Mazairaclaan,51,,,5242AT,Rosmalen,'s-Hertogenbosch,Noord-Brabant,VBO,5.359922,51.708624
Burgemeester Mazairaclaan,53,,,5242AT,Rosmalen,'s-Hertogenbosch,Noord-Brabant,VBO,5.359777,51.708626
Burgemeester Mazairaclaan,55,,,5242AT,Rosmalen,'s-Hertogenbosch,Noord-Brabant,VBO,5.359632,51.708627
Burgemeester Mazairaclaan,57,,,5242AT,Rosmalen,'s-Hertogenbosch,Noord-Brabant,VBO,5.359489,51.708657
Burgemeester Mazairaclaan,59,,,5242AT,Rosmalen,'s-Hertogenbosch,Noord-Brabant,VBO,5.359342,51.708658
Burgemeester Mazairaclaan,2,A,,5242AV,Rosmalen,'s-Hertogenbosch,Noord-Brabant,VBO,5.361027,51.708285
Burgemeester Mazairaclaan,2,B,,5242AV,Rosmalen,'s-Hertogenbosch,Noord-Brabant,VBO,5.361211,51.708238
Burgemeester Mazairaclaan,2,C,,5242AV,Rosmalen,'s-Hertogenbosch,Noord-Brabant,VBO,5.361028,51.708236
Burgemeester Mazairaclaan,2,,,5242AV,Rosmalen,'s-Hertogenbosch,Noord-Brabant,VBO,5.361209,51.708288
Burgemeester Mazairaclaan,4,,,5242AV,Rosmalen,'s-Hertogenbosch,Noord-Brabant,VBO,5.360491,51.708343
Burgemeester Mazairaclaan,6,,,5242AV,Rosmalen,'s-Hertogenbosch,Noord-Brabant,VBO,5.360041,51.708325
Burgemeester Mazairaclaan,8,,,5242AV,Rosmalen,'s-Hertogenbosch,Noord-Brabant,VBO,5.359528,51.708336
Burgemeester Mazairaclaan,12,,,5242AV,Rosmalen,'s-Hertogenbosch,Noord-Brabant,VBO,5.358063,51.708396
Burgemeester Mazairaclaan,14,,,5242AV,Rosmalen,'s-Hertogenbosch,Noord-Brabant,VBO,5.357628,51.708383
Burgemeester Mazairaclaan,16,,,5242AV,Rosmalen,'s-Hertogenbosch,Noord-Brabant,VBO,5.356862,51.708398
Burgemeester Mazairaclaan,18,,,5242AV,Rosmalen,'s-Hertogenbosch,Noord-Brabant,VBO,5.356494,51.708420
Burgemeester Mazairaclaan,20,,,5242AV,Rosmalen,'s-Hertogenbosch,Noord-Brabant,VBO,5.356082,51.708424
Burgemeester Mazairaclaan,26,,,5242AV,Rosmalen,'s-Hertogenbosch,Noord-Brabant,VBO,5.354428,51.708669
Burgemeester Mazairaclaan,28,,,5242AV,Rosmalen,'s-Hertogenbosch,Noord-Brabant,VBO,5.354290,51.708875
Burgemeester Mazairaclaan,30,,,5242AV,Rosmalen,'s-Hertogenbosch,Noord-Brabant,VBO,5.354214,51.709039
Burgemeester Mazairaclaan,32,,,5242AV,Rosmalen,'s-Hertogenbosch,Noord-Brabant,VBO,5.353881,51.709255
Burgemeester Mazairaclaan,34,,,5242AV,Rosmalen,'s-Hertogenbosch,Noord-Brabant,VBO,5.353723,51.709393
Burgemeester Mazairaclaan,36,,,5242AV,Rosmalen,'s-Hertogenbosch,Noord-Brabant,VBO,5.353594,51.709539
Maarten Tromplaan,1,,,5242AW,Rosmalen,'s-Hertogenbosch,Noord-Brabant,VBO,5.361231,51.710752
Maarten Tromplaan,2,,,5242AW,Rosmalen,'s-Hertogenbosch,Noord-Brabant,VBO,5.360217,51.710485
Maarten Tromplaan,3,,,5242AW,Rosmalen,'s-Hertogenbosch,Noord-Brabant,VBO,5.361006,51.710736
Maarten Tromplaan,4,,,5242AW,Rosmalen,'s-Hertogenbosch,Noord-Brabant,VBO,5.359892,51.710465
Maarten Tromplaan,5,,,5242AW,Rosmalen,'s-Hertogenbosch,Noord-Brabant,VBO,5.360758,51.710720
Maarten Tromplaan,6,,,5242AW,Rosmalen,'s-Hertogenbosch,Noord-Brabant,VBO,5.359606,51.710446
Maarten Tromplaan,7,,,5242AW,Rosmalen,'s-Hertogenbosch,Noord-Brabant,VBO,5.360365,51.710738
Maarten Tromplaan,9,,,5242AW,Rosmalen,'s-Hertogenbosch,Noord-Brabant,VBO,5.360051,51.710731
Maarten Tromplaan,11,,,5242AW,Rosmalen,'s-Hertogenbosch,Noord-Brabant,VBO,5.359760,51.710703
Maarten Tromplaan,13,,,5242AW,Rosmalen,'s-Hertogenbosch,Noord-Brabant,VBO,5.359462,51.710655
Jan Evertsenlaan,1,,,5242AX,Rosmalen,'s-Hertogenbosch,Noord-Brabant,VBO,5.359101,51.710430
Jan Evertsenlaan,3,,,5242AX,Rosmalen,'s-Hertogenbosch,Noord-Brabant,VBO,5.359151,51.710184
Burgemeester Mazairaclaan,91,,,5242AZ,Rosmalen,'s-Hertogenbosch,Noord-Brabant,VBO,5.358443,51.708674
Burgemeester Mazairaclaan,93,,,5242AZ,Rosmalen,'s-Hertogenbosch,Noord-Brabant,VBO,5.358252,51.708675
Burgemeester Mazairaclaan,95,,,5242AZ,Rosmalen,'s-Hertogenbosch,Noord-Brabant,VBO,5.358154,51.708676
Burgemeester Mazairaclaan,97,,,5242AZ,Rosmalen,'s-Hertogenbosch,Noord-Brabant,VBO,5.357963,51.708678
Burgemeester Mazairaclaan,99,,,5242AZ,Rosmalen,'s-Hertogenbosch,Noord-Brabant,VBO,5.357865,51.708679
Burgemeester Mazairaclaan,101,,,5242AZ,Rosmalen,'s-Hertogenbosch,Noord-Brabant,VBO,5.357676,51.708680
Burgemeester Mazairaclaan,103,,,5242AZ,Rosmalen,'s-Hertogenbosch,Noord-Brabant,VBO,5.357579,51.708681
Burgemeester Mazairaclaan,105,,,5242AZ,Rosmalen,'s-Hertogenbosch,Noord-Brabant,VBO,5.357389,51.708683
Burgemeester Mazairaclaan,107,,,5242AZ,Rosmalen,'s-Hertogenbosch,Noord-Brabant,VBO,5.355249,51.708768
Burgemeester Mazairaclaan,109,,,5242AZ,Rosmalen,'s-Hertogenbosch,Noord-Brabant,VBO,5.354985,51.708879
Burgemeester Mazairaclaan,111,,,5242AZ,Rosmalen,'s-Hertogenbosch,Noord-Brabant,VBO,5.354726,51.709036
Burgemeester Mazairaclaan,113,,,5242AZ,Rosmalen,'s-Hertogenbosch,Noord-Brabant,VBO,5.354467,51.709226
Burgemeester Mazairaclaan,115,,,5242AZ,Rosmalen,'s-Hertogenbosch,Noord-Brabant,VBO,5.354272,51.709395
Burgemeester Mazairaclaan,117,,,5242AZ,Rosmalen,'s-Hertogenbosch,Noord-Brabant,VBO,5.354023,51.709598
Burgemeester Mazairaclaan,119,,,5242AZ,Rosmalen,'s-Hertogenbosch,Noord-Brabant,VBO,5.354360,51.709924
Burgemeester Mazairaclaan,121,,,5242AZ,Rosmalen,'s-Hertogenbosch,Noord-Brabant,VBO,5.354384,51.709904
Burgemeester Mazairaclaan,123,,,5242AZ,Rosmalen,'s-Hertogenbosch,Noord-Brabant,VBO,5.354409,51.709883
Burgemeester Mazairaclaan,125,,,5242AZ,Rosmalen,'s-Hertogenbosch,Noord-Brabant,VBO,5.353772,51.709937
Burgemeester Siepkenslaan,1,,,5242BA,Rosmalen,'s-Hertogenbosch,Noord-Brabant,VBO,5.358391,51.709402
Burgemeester Siepkenslaan,2,,,5242BA,Rosmalen,'s-Hertogenbosch,Noord-Brabant,VBO,5.358355,51.709123
Burgemeester Siepkenslaan,3,,,5242BA,Rosmalen,'s-Hertogenbosch,Noord-Brabant,VBO,5.358174,51.709403
Burgemeester Siepkenslaan,4,,,5242BA,Rosmalen,'s-Hertogenbosch,Noord-Brabant,VBO,5.358138,51.709124
Burgemeester Siepkenslaan,5,,,5242BA,Rosmalen,'s-Hertogenbosch,Noord-Brabant,VBO,5.357956,51.709383
Burgemeester Siepkenslaan,6,,,5242BA,Rosmalen,'s-Hertogenbosch,Noord-Brabant,VBO,5.357921,51.709126
Burgemeester Siepkenslaan,7,,,5242BA,Rosmalen,'s-Hertogenbosch,Noord-Brabant,VBO,5.357739,51.709384
Burgemeester Siepkenslaan,8,,,5242BA,Rosmalen,'s-Hertogenbosch,Noord-Brabant,VBO,5.357704,51.709128
Burgemeester Siepkenslaan,9,,,5242BA,Rosmalen,'s-Hertogenbosch,Noord-Brabant,VBO,5.357522,51.709386
Burgemeester Siepkenslaan,10,,,5242BA,Rosmalen,'s-Hertogenbosch,Noord-Brabant,VBO,5.357487,51.709130
Kennedylaan,2,A,,5242BB,Rosmalen,'s-Hertogenbosch,Noord-Brabant,VBO,5.360955,51.709718
Kennedylaan,2,,,5242BB,Rosmalen,'s-Hertogenbosch,Noord-Brabant,VBO,5.361101,51.709726
Kennedylaan,4,,,5242BB,Rosmalen,'s-Hertogenbosch,Noord-Brabant,VBO,5.360746,51.709726
Kennedylaan,6,,,5242BB,Rosmalen,'s-Hertogenbosch,Noord-Brabant,VBO,5.360600,51.709718
Kennedylaan,8,A,,5242BB,Rosmalen,'s-Hertogenbosch,Noord-Brabant,VBO,5.360311,51.709686
Kennedylaan,8,,,5242BB,Rosmalen,'s-Hertogenbosch,Noord-Brabant,VBO,5.360455,51.709711
Kennedylaan,10,,,5242BB,Rosmalen,'s-Hertogenbosch,Noord-Brabant,VBO,5.360049,51.709663
Kennedylaan,12,,,5242BB,Rosmalen,'s-Hertogenbosch,Noord-Brabant,VBO,5.359859,51.709658
Kennedylaan,14,,,5242BB,Rosmalen,'s-Hertogenbosch,Noord-Brabant,VBO,5.359761,51.709655
Kennedylaan,16,,,5242BB,Rosmalen,'s-Hertogenbosch,Noord-Brabant,VBO,5.359571,51.709650
Kennedylaan,18,,,5242BB,Rosmalen,'s-Hertogenbosch,Noord-Brabant,VBO,5.359474,51.709647
Kennedylaan,20,,,5242BB,Rosmalen,'s-Hertogenbosch,Noord-Brabant,VBO,5.359283,51.709641
Kennedylaan,22,,,5242BB,Rosmalen,'s-Hertogenbosch,Noord-Brabant,VBO,5.358872,51.709850
Kennedylaan,24,,,5242BB,Rosmalen,'s-Hertogenbosch,Noord-Brabant,VBO,5.358432,51.709786
Kennedylaan,26,,,5242BB,Rosmalen,'s-Hertogenbosch,Noord-Brabant,VBO,5.358204,51.709789
Kennedylaan,28,,,5242BB,Rosmalen,'s-Hertogenbosch,Noord-Brabant,VBO,5.357999,51.709819
Kennedylaan,30,,,5242BB,Rosmalen,'s-Hertogenbosch,Noord-Brabant,VBO,5.357783,51.709821
Kennedylaan,32,,,5242BB,Rosmalen,'s-Hertogenbosch,Noord-Brabant,VBO,5.357566,51.709824
Jan van Amstellaan,5,,,5242BC,Rosmalen,'s-Hertogenbosch,Noord-Brabant,VBO,5.361187,51.709426
Jan van Amstellaan,7,,,5242BC,Rosmalen,'s-Hertogenbosch,Noord-Brabant,VBO,5.361194,51.709307
Jan van Amstellaan,9,,,5242BC,Rosmalen,'s-Hertogenbosch,Noord-Brabant,VBO,5.361197,51.709247
Jan van Amstellaan,11,,,5242BC,Rosmalen,'s-Hertogenbosch,Noord-Brabant,VBO,5.361203,51.709129
Churchilllaan,1,,,5242BD,Rosmalen,'s-Hertogenbosch,Noord-Brabant,VBO,5.358926,51.709712
Churchilllaan,3,,,5242BD,Rosmalen,'s-Hertogenbosch,Noord-Brabant,VBO,5.358918,51.709603
Churchilllaan,5,,,5242BD,Rosmalen,'s-Hertogenbosch,Noord-Brabant,VBO,5.358910,51.709495
Churchilllaan,7,,,5242BD,Rosmalen,'s-Hertogenbosch,Noord-Brabant,VBO,5.358902,51.709387
Churchilllaan,9,,,5242BD,Rosmalen,'s-Hertogenbosch,Noord-Brabant,VBO,5.358895,51.709278
Churchilllaan,11,,,5242BD,Rosmalen,'s-Hertogenbosch,Noord-Brabant,VBO,5.358925,51.709138
Churchilllaan,13,,,5242BD,Rosmalen,'s-Hertogenbosch,Noord-Brabant,VBO,5.358923,51.709019
Churchilllaan,15,,,5242BD,Rosmalen,'s-Hertogenbosch,Noord-Brabant,VBO,5.358923,51.708958
Churchilllaan,17,,,5242BD,Rosmalen,'s-Hertogenbosch,Noord-Brabant,VBO,5.358921,51.708841
Churchilllaan,19,,,5242BD,Rosmalen,'s-Hertogenbosch,Noord-Brabant,VBO,5.358920,51.708780
Churchilllaan,21,,,5242BD,Rosmalen,'s-Hertogenbosch,Noord-Brabant,VBO,5.358918,51.708663
Churchilllaan,23,,,5242BD,Rosmalen,'s-Hertogenbosch,Noord-Brabant,VBO,5.358813,51.708207
Churchilllaan,25,,,5242BD,Rosmalen,'s-Hertogenbosch,Noord-Brabant,VBO,5.358897,51.707668
Churchilllaan,43,,,5242BD,Rosmalen,'s-Hertogenbosch,Noord-Brabant,VBO,5.359098,51.707211
Churchilllaan,45,,,5242BD,Rosmalen,'s-Hertogenbosch,Noord-Brabant,VBO,5.359116,51.707153
Churchilllaan,47,,,5242BD,Rosmalen,'s-Hertogenbosch,Noord-Brabant,VBO,5.359134,51.707096
Churchilllaan,49,,,5242BD,Rosmalen,'s-Hertogenbosch,Noord-Brabant,VBO,5.359169,51.706984
Churchilllaan,51,,,5242BD,Rosmalen,'s-Hertogenbosch,Noord-Brabant,VBO,5.359188,51.706926
Churchilllaan,53,,,5242BD,Rosmalen,'s-Hertogenbosch,Noord-Brabant,VBO,5.359206,51.706868
Churchilllaan,55,,,5242BD,Rosmalen,'s-Hertogenbosch,Noord-Brabant,VBO,5.359199,51.706750
Churchilllaan,57,,,5242BD,Rosmalen,'s-Hertogenbosch,Noord-Brabant,VBO,5.359218,51.706690
Churchilllaan,59,,,5242BD,Rosmalen,'s-Hertogenbosch,Noord-Brabant,VBO,5.359236,51.706634
Churchilllaan,2,,,5242BE,Rosmalen,'s-Hertogenbosch,Noord-Brabant,VBO,5.359288,51.709311
Churchilllaan,4,,,5242BE,Rosmalen,'s-Hertogenbosch,Noord-Brabant,VBO,5.359289,51.709203
Churchilllaan,6,,,5242BE,Rosmalen,'s-Hertogenbosch,Noord-Brabant,VBO,5.359289,51.709095
Churchilllaan,8,,,5242BE,Rosmalen,'s-Hertogenbosch,Noord-Brabant,VBO,5.359290,51.708986
Churchilllaan,20,,,5242BE,Rosmalen,'s-Hertogenbosch,Noord-Brabant,VBO,5.359431,51.708062
Churchilllaan,22,,,5242BE,Rosmalen,'s-Hertogenbosch,Noord-Brabant,VBO,5.359423,51.707854
Churchilllaan,26,,,5242BE,Rosmalen,'s-Hertogenbosch,Noord-Brabant,VBO,5.359450,51.707598
Churchilllaan,28,,,5242BE,Rosmalen,'s-Hertogenbosch,Noord-Brabant,VBO,5.359462,51.707539
Churchilllaan,30,,,5242BE,Rosmalen,'s-Hertogenbosch,Noord-Brabant,VBO,5.359477,51.707433
Churchilllaan,32,,,5242BE,Rosmalen,'s-Hertogenbosch,Noord-Brabant,VBO,5.359489,51.707367
Churchilllaan,34,,,5242BE,Rosmalen,'s-Hertogenbosch,Noord-Brabant,VBO,5.359495,51.707308
Churchilllaan,36,,,5242BE,Rosmalen,'s-Hertogenbosch,Noord-Brabant,VBO,5.359513,51.707198
Churchilllaan,38,,,5242BE,Rosmalen,'s-Hertogenbosch,Noord-Brabant,VBO,5.359527,51.707132
Churchilllaan,40,,,5242BE,Rosmalen,'s-Hertogenbosch,Noord-Brabant,VBO,5.359542,51.707063
Churchilllaan,42,,,5242BE,Rosmalen,'s-Hertogenbosch,Noord-Brabant,VBO,5.359557,51.706964
Churchilllaan,44,,,5242BE,Rosmalen,'s-Hertogenbosch,Noord-Brabant,VBO,5.359568,51.706903
Churchilllaan,46,,,5242BE,Rosmalen,'s-Hertogenbosch,Noord-Brabant,VBO,5.359578,51.706846
Witte de Withlaan,1,,,5242BG,Rosmalen,'s-Hertogenbosch,Noord-Brabant,VBO,5.360695,51.710544
Witte de Withlaan,3,,,5242BG,Rosmalen,'s-Hertogenbosch,Noord-Brabant,VBO,5.360709,51.710426
Witte de Withlaan,5,,,5242BG,Rosmalen,'s-Hertogenbosch,Noord-Brabant,VBO,5.360725,51.710360
Witte de Withlaan,7,,,5242BG,Rosmalen,'s-Hertogenbosch,Noord-Brabant,VBO,5.360739,51.710241
Witte de Withlaan,9,,,5242BG,Rosmalen,'s-Hertogenbosch,Noord-Brabant,VBO,5.360747,51.710183
Witte de Withlaan,11,,,5242BG,Rosmalen,'s-Hertogenbosch,Noord-Brabant,VBO,5.360762,51.710075
Karel Doormanlaan,1,,,5242BH,Rosmalen,'s-Hertogenbosch,Noord-Brabant,VBO,5.360356,51.711211
Karel Doormanlaan,3,,,5242BH,Rosmalen,'s-Hertogenbosch,Noord-Brabant,VBO,5.360387,51.711026
Karel Doormanlaan,4,,,5242BH,Rosmalen,'s-Hertogenbosch,Noord-Brabant,VBO,5.360649,51.711118
Karel Doormanlaan,6,,,5242BH,Rosmalen,'s-Hertogenbosch,Noord-Brabant,VBO,5.360673,51.710975
Hertog Jan II-laan,1,,,5242BJ,Rosmalen,'s-Hertogenbosch,Noord-Brabant,VBO,5.358512,51.707526
Kennedylaan,1,,,5242BK,Rosmalen,'s-Hertogenbosch,Noord-Brabant,VBO,5.360345,51.710061
Kennedylaan,3,,,5242BK,Rosmalen,'s-Hertogenbosch,Noord-Brabant,VBO,5.360199,51.710054
Kennedylaan,5,,,5242BK,Rosmalen,'s-Hertogenbosch,Noord-Brabant,VBO,5.360058,51.710047
Kennedylaan,7,,,5242BK,Rosmalen,'s-Hertogenbosch,Noord-Brabant,VBO,5.359907,51.710037
Kennedylaan,9,,,5242BK,Rosmalen,'s-Hertogenbosch,Noord-Brabant,VBO,5.359724,51.710048
Kennedylaan,11,,,5242BK,Rosmalen,'s-Hertogenbosch,Noord-Brabant,VBO,5.359557,51.710041
Kennedylaan,13,,,5242BK,Rosmalen,'s-Hertogenbosch,Noord-Brabant,VBO,5.358798,51.710038
Kennedylaan,15,,,5242BK,Rosmalen,'s-Hertogenbosch,Noord-Brabant,VBO,5.358455,51.710091
Kennedylaan,17,,,5242BK,Rosmalen,'s-Hertogenbosch,Noord-Brabant,VBO,5.358149,51.710067
Kennedylaan,19,,,5242BK,Rosmalen,'s-Hertogenbosch,Noord-Brabant,VBO,5.358037,51.710084
Kennedylaan,21,,,5242BK,Rosmalen,'s-Hertogenbosch,Noord-Brabant,VBO,5.357811,51.710056
Kennedylaan,23,,,5242BK,Rosmalen,'s-Hertogenbosch,Noord-Brabant,VBO,5.357559,51.710068
Michiel de Ruyterlaan,1,,,5242BM,Rosmalen,'s-Hertogenbosch,Noord-Brabant,VBO,5.360095,51.709377
Michiel de Ruyterlaan,2,,,5242BM,Rosmalen,'s-Hertogenbosch,Noord-Brabant,VBO,5.360390,51.709405
Michiel de Ruyterlaan,3,,,5242BM,Rosmalen,'s-Hertogenbosch,Noord-Brabant,VBO,5.360062,51.709308
Michiel de Ruyterlaan,4,,,5242BM,Rosmalen,'s-Hertogenbosch,Noord-Brabant,VBO,5.360393,51.709337
Michiel de Ruyterlaan,5,,,5242BM,Rosmalen,'s-Hertogenbosch,Noord-Brabant,VBO,5.360066,51.709240
Michiel de Ruyterlaan,6,,,5242BM,Rosmalen,'s-Hertogenbosch,Noord-Brabant,VBO,5.360456,51.709247
Michiel de Ruyterlaan,7,,,5242BM,Rosmalen,'s-Hertogenbosch,Noord-Brabant,VBO,5.360033,51.709172
Michiel de Ruyterlaan,8,,,5242BM,Rosmalen,'s-Hertogenbosch,Noord-Brabant,VBO,5.360459,51.709180
Michiel de Ruyterlaan,9,,,5242BM,Rosmalen,'s-Hertogenbosch,Noord-Brabant,VBO,5.360036,51.709104
Michiel de Ruyterlaan,10,,,5242BM,Rosmalen,'s-Hertogenbosch,Noord-Brabant,VBO,5.360426,51.709111
Michiel de Ruyterlaan,11,,,5242BM,Rosmalen,'s-Hertogenbosch,Noord-Brabant,VBO,5.360098,51.709021
Michiel de Ruyterlaan,12,,,5242BM,Rosmalen,'s-Hertogenbosch,Noord-Brabant,VBO,5.360429,51.709044
Michiel de Ruyterlaan,13,,,5242BM,Rosmalen,'s-Hertogenbosch,Noord-Brabant,VBO,5.360101,51.708952
Michiel de Ruyterlaan,14,,,5242BM,Rosmalen,'s-Hertogenbosch,Noord-Brabant,VBO,5.360397,51.708976
Bisschop-Bekkerslaan,1,,,5242BN,Rosmalen,'s-Hertogenbosch,Noord-Brabant,VBO,5.360394,51.708014
Bisschop-Bekkerslaan,3,,,5242BN,Rosmalen,'s-Hertogenbosch,Noord-Brabant,VBO,5.360408,51.707898
Bisschop-Bekkerslaan,4,,,5242BN,Rosmalen,'s-Hertogenbosch,Noord-Brabant,VBO,5.360977,51.707930
Bisschop-Bekkerslaan,5,,,5242BN,Rosmalen,'s-Hertogenbosch,Noord-Brabant,VBO,5.360420,51.707820
Bisschop-Bekkerslaan,7,,,5242BN,Rosmalen,'s-Hertogenbosch,Noord-Brabant,VBO,5.360420,51.707728
Bisschop-Bekkerslaan,9,,,5242BN,Rosmalen,'s-Hertogenbosch,Noord-Brabant,VBO,5.360439,51.707615
Bisschop-Bekkerslaan,11,,,5242BN,Rosmalen,'s-Hertogenbosch,Noord-Brabant,VBO,5.360438,51.707577
Bisschop-Bekkerslaan,13,,,5242BN,Rosmalen,'s-Hertogenbosch,Noord-Brabant,VBO,5.360457,51.707463
Bisschop-Bekkerslaan,15,,,5242BN,Rosmalen,'s-Hertogenbosch,Noord-Brabant,VBO,5.360569,51.707368
Bisschop-Bekkerslaan,17,,,5242BN,Rosmalen,'s-Hertogenbosch,Noord-Brabant,VBO,5.360751,51.707373
Bisschop-Bekkerslaan,19,,,5242BN,Rosmalen,'s-Hertogenbosch,Noord-Brabant,VBO,5.360805,51.707376
Bisschop-Bekkerslaan,21,,,5242BN,Rosmalen,'s-Hertogenbosch,Noord-Brabant,VBO,5.360998,51.707385
Bisschop-Bekkerslaan,23,,,5242BN,Rosmalen,'s-Hertogenbosch,Noord-Brabant,VBO,5.361050,51.707386
Bisschop-Bekkerslaan,25,,,5242BN,Rosmalen,'s-Hertogenbosch,Noord-Brabant,VBO,5.361238,51.707395
Bisschop-Bekkerslaan,27,,,5242BN,Rosmalen,'s-Hertogenbosch,Noord-Brabant,VBO,5.361296,51.707409
Bisschop-Bekkerslaan,29,,,5242BN,Rosmalen,'s-Hertogenbosch,Noord-Brabant,VBO,5.361480,51.707414
Parkweg,1,,,5242CA,Rosmalen,'s-Hertogenbosch,Noord-Brabant,VBO,5.363826,51.711975
Parkweg,2,,,5242CA,Rosmalen,'s-Hertogenbosch,Noord-Brabant,VBO,5.363591,51.711904
Parkweg,3,,,5242CA,Rosmalen,'s-Hertogenbosch,Noord-Brabant,VBO,5.363788,51.712034
Parkweg,4,,,5242CA,Rosmalen,'s-Hertogenbosch,Noord-Brabant,VBO,5.363386,51.712090
Parkweg,5,,,5242CA,Rosmalen,'s-Hertogenbosch,Noord-Brabant,VBO,5.363714,51.712145
Parkweg,6,,,5242CA,Rosmalen,'s-Hertogenbosch,Noord-Brabant,VBO,5.363358,51.712151
Parkweg,7,,,5242CA,Rosmalen,'s-Hertogenbosch,Noord-Brabant,VBO,5.363675,51.712203
Parkweg,8,,,5242CA,Rosmalen,'s-Hertogenbosch,Noord-Brabant,VBO,5.363277,51.712262
Parkweg,9,,,5242CA,Rosmalen,'s-Hertogenbosch,Noord-Brabant,VBO,5.363658,51.712333
Parkweg,10,,,5242CA,Rosmalen,'s-Hertogenbosch,Noord-Brabant,VBO,5.364652,51.712492
Parkweg,11,,,5242CA,Rosmalen,'s-Hertogenbosch,Noord-Brabant,VBO,5.363633,51.712394
Parkweg,12,,,5242CA,Rosmalen,'s-Hertogenbosch,Noord-Brabant,VBO,5.364663,51.712429
Parkweg,13,,,5242CA,Rosmalen,'s-Hertogenbosch,Noord-Brabant,VBO,5.364295,51.712490
Parkweg,14,,,5242CA,Rosmalen,'s-Hertogenbosch,Noord-Brabant,VBO,5.364684,51.712310
Parkweg,15,,,5242CA,Rosmalen,'s-Hertogenbosch,Noord-Brabant,VBO,5.364342,51.712373
Parkweg,16,,,5242CA,Rosmalen,'s-Hertogenbosch,Noord-Brabant,VBO,5.364695,51.712248
Parkweg,17,,,5242CA,Rosmalen,'s-Hertogenbosch,Noord-Brabant,VBO,5.364366,51.712312
Parkweg,18,,,5242CA,Rosmalen,'s-Hertogenbosch,Noord-Brabant,VBO,5.364744,51.712130
Parkweg,19,,,5242CA,Rosmalen,'s-Hertogenbosch,Noord-Brabant,VBO,5.364376,51.712177
Parkweg,21,,,5242CA,Rosmalen,'s-Hertogenbosch,Noord-Brabant,VBO,5.364384,51.712114
Da Costastraat,1,,,5242CB,Rosmalen,'s-Hertogenbosch,Noord-Brabant,VBO,5.362746,51.711088
Da Costastraat,2,A,,5242CB,Rosmalen,'s-Hertogenbosch,Noord-Brabant,VBO,5.363147,51.710945
Da Costastraat,2,B,,5242CB,Rosmalen,'s-Hertogenbosch,Noord-Brabant,VBO,5.362954,51.710949
Da Costastraat,2,,,5242CB,Rosmalen,'s-Hertogenbosch,Noord-Brabant,VBO,5.363324,51.710941
Da Costastraat,3,,,5242CB,Rosmalen,'s-Hertogenbosch,Noord-Brabant,VBO,5.362642,51.711090
Da Costastraat,4,,,5242CB,Rosmalen,'s-Hertogenbosch,Noord-Brabant,VBO,5.362845,51.710953
Da Costastraat,5,,,5242CB,Rosmalen,'s-Hertogenbosch,Noord-Brabant,VBO,5.362480,51.711094
Da Costastraat,6,,,5242CB,Rosmalen,'s-Hertogenbosch,Noord-Brabant,VBO,5.362744,51.710955
Da Costastraat,7,,,5242CB,Rosmalen,'s-Hertogenbosch,Noord-Brabant,VBO,5.362378,51.711096
Da Costastraat,8,,,5242CB,Rosmalen,'s-Hertogenbosch,Noord-Brabant,VBO,5.362554,51.710959
Da Costastraat,9,,,5242CB,Rosmalen,'s-Hertogenbosch,Noord-Brabant,VBO,5.362275,51.711098
Da Costastraat,10,,,5242CB,Rosmalen,'s-Hertogenbosch,Noord-Brabant,VBO,5.362452,51.710961
Da Costastraat,12,,,5242CB,Rosmalen,'s-Hertogenbosch,Noord-Brabant,VBO,5.362351,51.710964
Da Costastraat,14,,,5242CB,Rosmalen,'s-Hertogenbosch,Noord-Brabant,VBO,5.362248,51.710966
Jacob Catsstraat,1,,,5242CC,Rosmalen,'s-Hertogenbosch,Noord-Brabant,VBO,5.362483,51.709345
Jacob Catsstraat,2,,,5242CC,Rosmalen,'s-Hertogenbosch,Noord-Brabant,VBO,5.362465,51.709543
Jacob Catsstraat,3,,,5242CC,Rosmalen,'s-Hertogenbosch,Noord-Brabant,VBO,5.362750,51.709325
Jacob Catsstraat,4,,,5242CC,Rosmalen,'s-Hertogenbosch,Noord-Brabant,VBO,5.362705,51.709546
Jacob Catsstraat,5,,,5242CC,Rosmalen,'s-Hertogenbosch,Noord-Brabant,VBO,5.362750,51.709242
Jacob Catsstraat,6,,,5242CC,Rosmalen,'s-Hertogenbosch,Noord-Brabant,VBO,5.362877,51.709548
Jacob Catsstraat,7,,,5242CC,Rosmalen,'s-Hertogenbosch,Noord-Brabant,VBO,5.362750,51.709163
Jacob Catsstraat,8,,,5242CC,Rosmalen,'s-Hertogenbosch,Noord-Brabant,VBO,5.363043,51.709549
Jacob Catsstraat,9,,,5242CC,Rosmalen,'s-Hertogenbosch,Noord-Brabant,VBO,5.362757,51.709080
Jacob Catsstraat,11,,,5242CC,Rosmalen,'s-Hertogenbosch,Noord-Brabant,VBO,5.362757,51.709002
Jacob Catsstraat,13,,,5242CC,Rosmalen,'s-Hertogenbosch,Noord-Brabant,VBO,5.362589,51.709095
Bredestraat,1,,,5242CD,Rosmalen,'s-Hertogenbosch,Noord-Brabant,VBO,5.363095,51.711464
Bredestraat,3,,,5242CD,Rosmalen,'s-Hertogenbosch,Noord-Brabant,VBO,5.363106,51.711401
Bredestraat,5,,,5242CD,Rosmalen,'s-Hertogenbosch,Noord-Brabant,VBO,5.363118,51.711338
Bredestraat,7,,,5242CD,Rosmalen,'s-Hertogenbosch,Noord-Brabant,VBO,5.363129,51.711275
Bredestraat,9,,,5242CD,Rosmalen,'s-Hertogenbosch,Noord-Brabant,VBO,5.363140,51.711213
Bredestraat,11,,,5242CD,Rosmalen,'s-Hertogenbosch,Noord-Brabant,VBO,5.363151,51.711150
Bredestraat,13,,,5242CD,Rosmalen,'s-Hertogenbosch,Noord-Brabant,VBO,5.363338,51.710697
Bredestraat,15,,,5242CD,Rosmalen,'s-Hertogenbosch,Noord-Brabant,VBO,5.363330,51.710562
Bredestraat,17,,,5242CD,Rosmalen,'s-Hertogenbosch,Noord-Brabant,VBO,5.363322,51.710427
Bredestraat,19,A,,5242CD,Rosmalen,'s-Hertogenbosch,Noord-Brabant,VBO,5.363151,51.710360
Bredestraat,19,,,5242CD,Rosmalen,'s-Hertogenbosch,Noord-Brabant,VBO,5.363314,51.710301
Bredestraat,21,,,5242CD,Rosmalen,'s-Hertogenbosch,Noord-Brabant,VBO,5.363306,51.710175
Bredestraat,23,,,5242CD,Rosmalen,'s-Hertogenbosch,Noord-Brabant,VBO,5.363298,51.710049
Bredestraat,25,,,5242CD,Rosmalen,'s-Hertogenbosch,Noord-Brabant,VBO,5.363290,51.709925
Bredestraat,27,,,5242CD,Rosmalen,'s-Hertogenbosch,Noord-Brabant,VBO,5.363286,51.709860
Bredestraat,29,,,5242CD,Rosmalen,'s-Hertogenbosch,Noord-Brabant,VBO,5.363250,51.709605
Bredestraat,31,,,5242CD,Rosmalen,'s-Hertogenbosch,Noord-Brabant,VBO,5.363215,51.709334
Bredestraat,33,,,5242CD,Rosmalen,'s-Hertogenbosch,Noord-Brabant,VBO,5.363184,51.709217
Bredestraat,35,,,5242CD,Rosmalen,'s-Hertogenbosch,Noord-Brabant,VBO,5.363184,51.709121
Bredestraat,2,,,5242CE,Rosmalen,'s-Hertogenbosch,Noord-Brabant,VBO,5.363788,51.711629
Bredestraat,4,,,5242CE,Rosmalen,'s-Hertogenbosch,Noord-Brabant,VBO,5.363796,51.711565
Bredestraat,6,,,5242CE,Rosmalen,'s-Hertogenbosch,Noord-Brabant,VBO,5.363803,51.711500
Bredestraat,8,,,5242CE,Rosmalen,'s-Hertogenbosch,Noord-Brabant,VBO,5.363817,51.711388
Bredestraat,10,,,5242CE,Rosmalen,'s-Hertogenbosch,Noord-Brabant,VBO,5.363825,51.711323
Bredestraat,12,A,,5242CE,Rosmalen,'s-Hertogenbosch,Noord-Brabant,VBO,5.363697,51.710567
Bredestraat,12,,,5242CE,Rosmalen,'s-Hertogenbosch,Noord-Brabant,VBO,5.363701,51.710628
Bredestraat,14,,,5242CE,Rosmalen,'s-Hertogenbosch,Noord-Brabant,VBO,5.363690,51.710450
Bredestraat,16,,,5242CE,Rosmalen,'s-Hertogenbosch,Noord-Brabant,VBO,5.363686,51.710385
Bredestraat,18,,,5242CG,Rosmalen,'s-Hertogenbosch,Noord-Brabant,VBO,5.363672,51.710180
Bredestraat,20,,,5242CG,Rosmalen,'s-Hertogenbosch,Noord-Brabant,VBO,5.363668,51.710114
Bredestraat,22,,,5242CG,Rosmalen,'s-Hertogenbosch,Noord-Brabant,VBO,5.363661,51.710001
Bredestraat,24,,,5242CG,Rosmalen,'s-Hertogenbosch,Noord-Brabant,VBO,5.363656,51.709936
Bredestraat,26,,,5242CG,Rosmalen,'s-Hertogenbosch,Noord-Brabant,VBO,5.363649,51.709823
Bredestraat,28,,,5242CG,Rosmalen,'s-Hertogenbosch,Noord-Brabant,VBO,5.363645,51.709758
Bredestraat,30,,,5242CG,Rosmalen,'s-Hertogenbosch,Noord-Brabant,VBO,5.363638,51.709645
Bredestraat,32,,,5242CG,Rosmalen,'s-Hertogenbosch,Noord-Brabant,VBO,5.363633,51.709580
Bredestraat,34,,,5242CG,Rosmalen,'s-Hertogenbosch,Noord-Brabant,VBO,5.363576,51.709057
Bredestraat,36,,,5242CG,Rosmalen,'s-Hertogenbosch,Noord-Brabant,VBO,5.363563,51.708855
Bredestraat,38,,,5242CG,Rosmalen,'s-Hertogenbosch,Noord-Brabant,VBO,5.363559,51.708810
P C Hooftstraat,1,,,5242CH,Rosmalen,'s-Hertogenbosch,Noord-Brabant,VBO,5.363815,51.710962
P C Hooftstraat,2,,,5242CH,Rosmalen,'s-Hertogenbosch,Noord-Brabant,VBO,5.364184,51.711278
P C Hooftstraat,3,,,5242CH,Rosmalen,'s-Hertogenbosch,Noord-Brabant,VBO,5.363902,51.710958
P C Hooftstraat,4,,,5242CH,Rosmalen,'s-Hertogenbosch,Noord-Brabant,VBO,5.364271,51.711270
P C Hooftstraat,5,,,5242CH,Rosmalen,'s-Hertogenbosch,Noord-Brabant,VBO,5.364088,51.710949
P C Hooftstraat,6,,,5242CH,Rosmalen,'s-Hertogenbosch,Noord-Brabant,VBO,5.364443,51.711255
P C Hooftstraat,7,,,5242CH,Rosmalen,'s-Hertogenbosch,Noord-Brabant,VBO,5.364175,51.710945
P C Hooftstraat,8,,,5242CH,Rosmalen,'s-Hertogenbosch,Noord-Brabant,VBO,5.364529,51.711248
P C Hooftstraat,9,,,5242CH,Rosmalen,'s-Hertogenbosch,Noord-Brabant,VBO,5.364364,51.710936
P C Hooftstraat,10,,,5242CH,Rosmalen,'s-Hertogenbosch,Noord-Brabant,VBO,5.364701,51.711233
P C Hooftstraat,11,,,5242CH,Rosmalen,'s-Hertogenbosch,Noord-Brabant,VBO,5.364451,51.710932
P C Hooftstraat,12,,,5242CH,Rosmalen,'s-Hertogenbosch,Noord-Brabant,VBO,5.364787,51.711225
P C Hooftstraat,13,,,5242CH,Rosmalen,'s-Hertogenbosch,Noord-Brabant,VBO,5.364637,51.710924
P C Hooftstraat,14,,,5242CH,Rosmalen,'s-Hertogenbosch,Noord-Brabant,VBO,5.364981,51.711226
P C Hooftstraat,15,,,5242CH,Rosmalen,'s-Hertogenbosch,Noord-Brabant,VBO,5.364724,51.710920
P C Hooftstraat,16,,,5242CH,Rosmalen,'s-Hertogenbosch,Noord-Brabant,VBO,5.365091,51.711216
P C Hooftstraat,17,,,5242CH,Rosmalen,'s-Hertogenbosch,Noord-Brabant,VBO,5.364911,51.710911
P C Hooftstraat,18,,,5242CH,Rosmalen,'s-Hertogenbosch,Noord-Brabant,VBO,5.365321,51.711176
P C Hooftstraat,19,,,5242CH,Rosmalen,'s-Hertogenbosch,Noord-Brabant,VBO,5.364998,51.710907
P C Hooftstraat,20,,,5242CH,Rosmalen,'s-Hertogenbosch,Noord-Brabant,VBO,5.365393,51.711169
Vondelstraat,1,,,5242CJ,Rosmalen,'s-Hertogenbosch,Noord-Brabant,VBO,5.364149,51.710180
Vondelstraat,2,,,5242CJ,Rosmalen,'s-Hertogenbosch,Noord-Brabant,VBO,5.364159,51.710362
Vondelstraat,3,,,5242CJ,Rosmalen,'s-Hertogenbosch,Noord-Brabant,VBO,5.364233,51.710179
Vondelstraat,4,,,5242CJ,Rosmalen,'s-Hertogenbosch,Noord-Brabant,VBO,5.364243,51.710360
Vondelstraat,5,,,5242CJ,Rosmalen,'s-Hertogenbosch,Noord-Brabant,VBO,5.364321,51.710177
Vondelstraat,6,,,5242CJ,Rosmalen,'s-Hertogenbosch,Noord-Brabant,VBO,5.364331,51.710358
Vondelstraat,7,,,5242CJ,Rosmalen,'s-Hertogenbosch,Noord-Brabant,VBO,5.364473,51.710171
Vondelstraat,8,,,5242CJ,Rosmalen,'s-Hertogenbosch,Noord-Brabant,VBO,5.364505,51.710355
Vondelstraat,9,,,5242CJ,Rosmalen,'s-Hertogenbosch,Noord-Brabant,VBO,5.364579,51.710171
Vondelstraat,10,,,5242CJ,Rosmalen,'s-Hertogenbosch,Noord-Brabant,VBO,5.364590,51.710353
Vondelstraat,11,,,5242CJ,Rosmalen,'s-Hertogenbosch,Noord-Brabant,VBO,5.364666,51.710169
Vondelstraat,12,,,5242CJ,Rosmalen,'s-Hertogenbosch,Noord-Brabant,VBO,5.364703,51.710355
Brederostraat,1,,,5242CK,Rosmalen,'s-Hertogenbosch,Noord-Brabant,VBO,5.363703,51.709363
Brederostraat,3,,,5242CK,Rosmalen,'s-Hertogenbosch,Noord-Brabant,VBO,5.364003,51.709358
Brederostraat,4,,,5242CK,Rosmalen,'s-Hertogenbosch,Noord-Brabant,VBO,5.364150,51.709536
Brederostraat,5,,,5242CK,Rosmalen,'s-Hertogenbosch,Noord-Brabant,VBO,5.364104,51.709356
Brederostraat,6,,,5242CK,Rosmalen,'s-Hertogenbosch,Noord-Brabant,VBO,5.364237,51.709534
Brederostraat,7,,,5242CK,Rosmalen,'s-Hertogenbosch,Noord-Brabant,VBO,5.364312,51.709354
Brederostraat,8,,,5242CK,Rosmalen,'s-Hertogenbosch,Noord-Brabant,VBO,5.364412,51.709531
Brederostraat,9,,,5242CK,Rosmalen,'s-Hertogenbosch,Noord-Brabant,VBO,5.364398,51.709352
Brederostraat,10,,,5242CK,Rosmalen,'s-Hertogenbosch,Noord-Brabant,VBO,5.364499,51.709529
Brederostraat,11,,,5242CK,Rosmalen,'s-Hertogenbosch,Noord-Brabant,VBO,5.364484,51.709350
Brederostraat,12,,,5242CK,Rosmalen,'s-Hertogenbosch,Noord-Brabant,VBO,5.364673,51.709526
Brederostraat,13,,,5242CK,Rosmalen,'s-Hertogenbosch,Noord-Brabant,VBO,5.364688,51.709346
Brederostraat,14,,,5242CK,Rosmalen,'s-Hertogenbosch,Noord-Brabant,VBO,5.364759,51.709525
Brederostraat,15,,,5242CK,Rosmalen,'s-Hertogenbosch,Noord-Brabant,VBO,5.364894,51.709342
Huygensstraat,1,,,5242CL,Rosmalen,'s-Hertogenbosch,Noord-Brabant,VBO,5.365183,51.710594
Huygensstraat,3,,,5242CL,Rosmalen,'s-Hertogenbosch,Noord-Brabant,VBO,5.365188,51.710529
Huygensstraat,5,,,5242CL,Rosmalen,'s-Hertogenbosch,Noord-Brabant,VBO,5.365196,51.710416
Huygensstraat,7,,,5242CL,Rosmalen,'s-Hertogenbosch,Noord-Brabant,VBO,5.365201,51.710351
Huygensstraat,9,,,5242CL,Rosmalen,'s-Hertogenbosch,Noord-Brabant,VBO,5.365218,51.710134
Huygensstraat,11,,,5242CL,Rosmalen,'s-Hertogenbosch,Noord-Brabant,VBO,5.365223,51.710069
Huygensstraat,13,,,5242CL,Rosmalen,'s-Hertogenbosch,Noord-Brabant,VBO,5.365232,51.709956
Huygensstraat,15,,,5242CL,Rosmalen,'s-Hertogenbosch,Noord-Brabant,VBO,5.365237,51.709891
Huygensstraat,17,,,5242CL,Rosmalen,'s-Hertogenbosch,Noord-Brabant,VBO,5.365246,51.709779
Huygensstraat,19,,,5242CL,Rosmalen,'s-Hertogenbosch,Noord-Brabant,VBO,5.365251,51.709714
Huygensstraat,21,,,5242CL,Rosmalen,'s-Hertogenbosch,Noord-Brabant,VBO,5.365259,51.709601
Huygensstraat,23,,,5242CL,Rosmalen,'s-Hertogenbosch,Noord-Brabant,VBO,5.365264,51.709536
Huygensstraat,25,,,5242CL,Rosmalen,'s-Hertogenbosch,Noord-Brabant,VBO,5.365247,51.709332
Huygensstraat,27,,,5242CL,Rosmalen,'s-Hertogenbosch,Noord-Brabant,VBO,5.365250,51.709229
Huygensstraat,29,,,5242CL,Rosmalen,'s-Hertogenbosch,Noord-Brabant,VBO,5.365266,51.709039
Huygensstraat,31,,,5242CL,Rosmalen,'s-Hertogenbosch,Noord-Brabant,VBO,5.365248,51.708843
Huygensstraat,2,,,5242CM,Rosmalen,'s-Hertogenbosch,Noord-Brabant,VBO,5.365840,51.711338
Huygensstraat,4,,,5242CM,Rosmalen,'s-Hertogenbosch,Noord-Brabant,VBO,5.365841,51.711281
Huygensstraat,6,,,5242CM,Rosmalen,'s-Hertogenbosch,Noord-Brabant,VBO,5.365809,51.711161
Huygensstraat,8,,,5242CM,Rosmalen,'s-Hertogenbosch,Noord-Brabant,VBO,5.365811,51.711105
Huygensstraat,10,,,5242CM,Rosmalen,'s-Hertogenbosch,Noord-Brabant,VBO,5.365779,51.710985
Huygensstraat,12,,,5242CM,Rosmalen,'s-Hertogenbosch,Noord-Brabant,VBO,5.365781,51.710929
Huygensstraat,14,,,5242CM,Rosmalen,'s-Hertogenbosch,Noord-Brabant,VBO,5.365749,51.710802
Huygensstraat,16,,,5242CM,Rosmalen,'s-Hertogenbosch,Noord-Brabant,VBO,5.366234,51.709500
Huygensstraat,18,,,5242CM,Rosmalen,'s-Hertogenbosch,Noord-Brabant,VBO,5.366196,51.709499
Huygensstraat,20,,,5242CM,Rosmalen,'s-Hertogenbosch,Noord-Brabant,VBO,5.366158,51.709497
Huygensstraat,22,,,5242CM,Rosmalen,'s-Hertogenbosch,Noord-Brabant,VBO,5.366120,51.709496
Huygensstraat,24,A,,5242CM,Rosmalen,'s-Hertogenbosch,Noord-Brabant,VBO,5.365854,51.709488
Huygensstraat,24,,,5242CM,Rosmalen,'s-Hertogenbosch,Noord-Brabant,VBO,5.366082,51.709495
Huygensstraat,26,B,,5242CM,Rosmalen,'s-Hertogenbosch,Noord-Brabant,VBO,5.365968,51.709491
Huygensstraat,26,,,5242CM,Rosmalen,'s-Hertogenbosch,Noord-Brabant,VBO,5.366006,51.709493
Huygensstraat,28,,,5242CM,Rosmalen,'s-Hertogenbosch,Noord-Brabant,VBO,5.365930,51.709490
Huygensstraat,30,,,5242CM,Rosmalen,'s-Hertogenbosch,Noord-Brabant,VBO,5.365892,51.709489
Huygensstraat,32,,,5242CM,Rosmalen,'s-Hertogenbosch,Noord-Brabant,VBO,5.365854,51.709488
Huygensstraat,34,A,,5242CM,Rosmalen,'s-Hertogenbosch,Noord-Brabant,VBO,5.366202,51.709427
Huygensstraat,34,B,,5242CM,Rosmalen,'s-Hertogenbosch,Noord-Brabant,VBO,5.366164,51.709426
Huygensstraat,34,C,,5242CM,Rosmalen,'s-Hertogenbosch,Noord-Brabant,VBO,5.366126,51.709424
Huygensstraat,34,D,,5242CM,Rosmalen,'s-Hertogenbosch,Noord-Brabant,VBO,5.366088,51.709423
Huygensstraat,34,E,,5242CM,Rosmalen,'s-Hertogenbosch,Noord-Brabant,VBO,5.366050,51.709422
Huygensstraat,34,F,,5242CM,Rosmalen,'s-Hertogenbosch,Noord-Brabant,VBO,5.366012,51.709421
Huygensstraat,34,G,,5242CM,Rosmalen,'s-Hertogenbosch,Noord-Brabant,VBO,5.365974,51.709420
Huygensstraat,34,H,,5242CM,Rosmalen,'s-Hertogenbosch,Noord-Brabant,VBO,5.365936,51.709418
Huygensstraat,34,,,5242CM,Rosmalen,'s-Hertogenbosch,Noord-Brabant,VBO,5.366240,51.709428
Huygensstraat,36,,,5242CM,Rosmalen,'s-Hertogenbosch,Noord-Brabant,VBO,5.365890,51.709175
Huygensstraat,38,A,,5242CM,Rosmalen,'s-Hertogenbosch,Noord-Brabant,VBO,5.365888,51.709102
Huygensstraat,38,,,5242CM,Rosmalen,'s-Hertogenbosch,Noord-Brabant,VBO,5.365969,51.709176
Huygensstraat,40,,,5242CM,Rosmalen,'s-Hertogenbosch,Noord-Brabant,VBO,5.365946,51.709103
Huygensstraat,42,,,5242CM,Rosmalen,'s-Hertogenbosch,Noord-Brabant,VBO,5.365848,51.709004
Huygensstraat,44,,,5242CM,Rosmalen,'s-Hertogenbosch,Noord-Brabant,VBO,5.365853,51.708941
Huygensstraat,46,,,5242CM,Rosmalen,'s-Hertogenbosch,Noord-Brabant,VBO,5.365863,51.708803
De Hoef,2,,,5242CN,Rosmalen,'s-Hertogenbosch,Noord-Brabant,VBO,5.370662,51.713320
De Hoef,4,,,5242CN,Rosmalen,'s-Hertogenbosch,Noord-Brabant,VBO,5.370587,51.713244
De Hoef,6,,,5242CN,Rosmalen,'s-Hertogenbosch,Noord-Brabant,VBO,5.370466,51.713300
De Hoef,8,,,5242CN,Rosmalen,'s-Hertogenbosch,Noord-Brabant,VBO,5.370655,51.713353
De Hoef,10,,,5242CN,Rosmalen,'s-Hertogenbosch,Noord-Brabant,VBO,5.370594,51.713221
De Hoef,12,,,5242CN,Rosmalen,'s-Hertogenbosch,Noord-Brabant,VBO,5.370454,51.713287
De Hoef,14,,,5242CN,Rosmalen,'s-Hertogenbosch,Noord-Brabant,VBO,5.370465,51.713376
De Hoef,16,,,5242CN,Rosmalen,'s-Hertogenbosch,Noord-Brabant,VBO,5.370411,51.713422
De Hoef,18,,,5242CN,Rosmalen,'s-Hertogenbosch,Noord-Brabant,VBO,5.370322,51.713556
De Hoef,20,,,5242CN,Rosmalen,'s-Hertogenbosch,Noord-Brabant,VBO,5.370368,51.713519
De Hoef,22,,,5242CN,Rosmalen,'s-Hertogenbosch,Noord-Brabant,VBO,5.370425,51.713483
De Hoef,24,,,5242CN,Rosmalen,'s-Hertogenbosch,Noord-Brabant,VBO,5.370462,51.713456
De Hoef,26,,,5242CN,Rosmalen,'s-Hertogenbosch,Noord-Brabant,VBO,5.370523,51.713418
De Hoef,28,,,5242CN,Rosmalen,'s-Hertogenbosch,Noord-Brabant,VBO,5.370665,51.713376
De Hoef,30,,,5242CN,Rosmalen,'s-Hertogenbosch,Noord-Brabant,VBO,5.370590,51.713210
De Hoef,32,,,5242CN,Rosmalen,'s-Hertogenbosch,Noord-Brabant,VBO,5.370449,51.713271
De Hoef,34,,,5242CN,Rosmalen,'s-Hertogenbosch,Noord-Brabant,VBO,5.370449,51.713366
De Hoef,36,,,5242CN,Rosmalen,'s-Hertogenbosch,Noord-Brabant,VBO,5.370397,51.713411
De Hoef,38,,,5242CN,Rosmalen,'s-Hertogenbosch,Noord-Brabant,VBO,5.370351,51.713446
De Hoef,40,,,5242CN,Rosmalen,'s-Hertogenbosch,Noord-Brabant,VBO,5.370306,51.713483
De Hoef,42,,,5242CN,Rosmalen,'s-Hertogenbosch,Noord-Brabant,VBO,5.370339,51.713568
De Hoef,44,,,5242CN,Rosmalen,'s-Hertogenbosch,Noord-Brabant,VBO,5.370389,51.713527
De Hoef,46,,,5242CN,Rosmalen,'s-Hertogenbosch,Noord-Brabant,VBO,5.370443,51.713493
De Hoef,48,,,5242CN,Rosmalen,'s-Hertogenbosch,Noord-Brabant,VBO,5.370480,51.713463
De Hoef,50,,,5242CN,Rosmalen,'s-Hertogenbosch,Noord-Brabant,VBO,5.370538,51.713426
De Hoef,52,,,5242CN,Rosmalen,'s-Hertogenbosch,Noord-Brabant,VBO,5.370671,51.713394
De Hoef,54,,,5242CN,Rosmalen,'s-Hertogenbosch,Noord-Brabant,VBO,5.370598,51.713197
De Hoef,56,,,5242CN,Rosmalen,'s-Hertogenbosch,Noord-Brabant,VBO,5.370441,51.713252
De Hoef,58,,,5242CN,Rosmalen,'s-Hertogenbosch,Noord-Brabant,VBO,5.370436,51.713358
De Hoef,60,,,5242CN,Rosmalen,'s-Hertogenbosch,Noord-Brabant,VBO,5.370374,51.713405
De Hoef,62,,,5242CN,Rosmalen,'s-Hertogenbosch,Noord-Brabant,VBO,5.370328,51.713438
De Hoef,64,,,5242CN,Rosmalen,'s-Hertogenbosch,Noord-Brabant,VBO,5.370291,51.713474
De Hoef,66,,,5242CN,Rosmalen,'s-Hertogenbosch,Noord-Brabant,VBO,5.370360,51.713577
De Hoef,68,,,5242CN,Rosmalen,'s-Hertogenbosch,Noord-Brabant,VBO,5.370403,51.713537
De Hoef,70,,,5242CN,Rosmalen,'s-Hertogenbosch,Noord-Brabant,VBO,5.370454,51.713504
De Hoef,72,,,5242CN,Rosmalen,'s-Hertogenbosch,Noord-Brabant,VBO,5.370495,51.713471
De Hoef,74,,,5242CN,Rosmalen,'s-Hertogenbosch,Noord-Brabant,VBO,5.370419,51.713352
De Hoef,76,,,5242CN,Rosmalen,'s-Hertogenbosch,Noord-Brabant,VBO,5.370358,51.713399
De Hoef,78,,,5242CN,Rosmalen,'s-Hertogenbosch,Noord-Brabant,VBO,5.370306,51.713430
De Hoef,80,,,5242CN,Rosmalen,'s-Hertogenbosch,Noord-Brabant,VBO,5.370274,51.713467
De Hoef,82,,,5242CN,Rosmalen,'s-Hertogenbosch,Noord-Brabant,VBO,5.370419,51.713545
De Hoef,84,,,5242CN,Rosmalen,'s-Hertogenbosch,Noord-Brabant,VBO,5.370470,51.713512
De Hoef,86,,,5242CN,Rosmalen,'s-Hertogenbosch,Noord-Brabant,VBO,5.370510,51.713483
De Hoef,88,,,5242CN,Rosmalen,'s-Hertogenbosch,Noord-Brabant,VBO,5.370550,51.713440
De Hoef,90,,,5242CN,Rosmalen,'s-Hertogenbosch,Noord-Brabant,VBO,5.370334,51.713645
De Hoef,92,,,5242CN,Rosmalen,'s-Hertogenbosch,Noord-Brabant,VBO,5.369775,51.713653
De Hoef,94,,,5242CN,Rosmalen,'s-Hertogenbosch,Noord-Brabant,VBO,5.369873,51.713544
De Hoef,96,,,5242CN,Rosmalen,'s-Hertogenbosch,Noord-Brabant,VBO,5.370035,51.713516
De Hoef,100,,,5242CN,Rosmalen,'s-Hertogenbosch,Noord-Brabant,VBO,5.369967,51.714027
De Hoef,102,,,5242CN,Rosmalen,'s-Hertogenbosch,Noord-Brabant,VBO,5.369764,51.714107
De Hoef,104,,,5242CN,Rosmalen,'s-Hertogenbosch,Noord-Brabant,VBO,5.369802,51.713882
De Hoef,106,,,5242CN,Rosmalen,'s-Hertogenbosch,Noord-Brabant,VBO,5.369668,51.714082
De Hoef,108,,,5242CN,Rosmalen,'s-Hertogenbosch,Noord-Brabant,VBO,5.369637,51.713730
De Hoef,110,,,5242CN,Rosmalen,'s-Hertogenbosch,Noord-Brabant,VBO,5.369944,51.714011
De Hoef,112,,,5242CN,Rosmalen,'s-Hertogenbosch,Noord-Brabant,VBO,5.369903,51.714039
De Hoef,114,,,5242CN,Rosmalen,'s-Hertogenbosch,Noord-Brabant,VBO,5.369849,51.714071
De Hoef,116,,,5242CN,Rosmalen,'s-Hertogenbosch,Noord-Brabant,VBO,5.369777,51.714035
De Hoef,118,,,5242CN,Rosmalen,'s-Hertogenbosch,Noord-Brabant,VBO,5.369718,51.713883
De Hoef,120,,,5242CN,Rosmalen,'s-Hertogenbosch,Noord-Brabant,VBO,5.369643,51.713854
De Hoef,122,,,5242CN,Rosmalen,'s-Hertogenbosch,Noord-Brabant,VBO,5.369590,51.713828
De Hoef,124,,,5242CN,Rosmalen,'s-Hertogenbosch,Noord-Brabant,VBO,5.369532,51.713796
De Hoef,126,,,5242CN,Rosmalen,'s-Hertogenbosch,Noord-Brabant,VBO,5.369467,51.713764
De Hoef,128,,,5242CN,Rosmalen,'s-Hertogenbosch,Noord-Brabant,VBO,5.369503,51.713729
De Hoef,130,,,5242CN,Rosmalen,'s-Hertogenbosch,Noord-Brabant,VBO,5.369580,51.713761
De Hoef,132,,,5242CN,Rosmalen,'s-Hertogenbosch,Noord-Brabant,VBO,5.369647,51.713794
De Hoef,134,,,5242CN,Rosmalen,'s-Hertogenbosch,Noord-Brabant,VBO,5.369711,51.713820
De Hoef,136,,,5242CN,Rosmalen,'s-Hertogenbosch,Noord-Brabant,VBO,5.369766,51.713850
De Hoef,138,,,5242CN,Rosmalen,'s-Hertogenbosch,Noord-Brabant,VBO,5.369941,51.714031
De Hoef,140,,,5242CN,Rosmalen,'s-Hertogenbosch,Noord-Brabant,VBO,5.369913,51.714049
De Hoef,142,,,5242CN,Rosmalen,'s-Hertogenbosch,Noord-Brabant,VBO,5.369862,51.714086
De Hoef,144,,,5242CN,Rosmalen,'s-Hertogenbosch,Noord-Brabant,VBO,5.369717,51.714065
De Hoef,146,,,5242CN,Rosmalen,'s-Hertogenbosch,Noord-Brabant,VBO,5.369768,51.714024
De Hoef,148,,,5242CN,Rosmalen,'s-Hertogenbosch,Noord-Brabant,VBO,5.369954,51.714042
De Hoef,150,,,5242CN,Rosmalen,'s-Hertogenbosch,Noord-Brabant,VBO,5.369927,51.714064
De Hoef,152,,,5242CN,Rosmalen,'s-Hertogenbosch,Noord-Brabant,VBO,5.369884,51.714093
De Hoef,154,,,5242CN,Rosmalen,'s-Hertogenbosch,Noord-Brabant,VBO,5.369847,51.714110
De Hoef,156,,,5242CN,Rosmalen,'s-Hertogenbosch,Noord-Brabant,VBO,5.369701,51.714057
De Hoef,158,,,5242CN,Rosmalen,'s-Hertogenbosch,Noord-Brabant,VBO,5.369718,51.714028
De Hoef,160,,,5242CN,Rosmalen,'s-Hertogenbosch,Noord-Brabant,VBO,5.369752,51.714017
De Hoef,164,,,5242CN,Rosmalen,'s-Hertogenbosch,Noord-Brabant,VBO,5.369145,51.714329
De Hoef,166,,,5242CN,Rosmalen,'s-Hertogenbosch,Noord-Brabant,VBO,5.369240,51.714298
De Hoef,168,,,5242CN,Rosmalen,'s-Hertogenbosch,Noord-Brabant,VBO,5.369334,51.714265
De Hoef,170,,,5242CN,Rosmalen,'s-Hertogenbosch,Noord-Brabant,VBO,5.369414,51.714233
De Hoef,172,,,5242CN,Rosmalen,'s-Hertogenbosch,Noord-Brabant,VBO,5.369447,51.714258
De Hoef,174,,,5242CN,Rosmalen,'s-Hertogenbosch,Noord-Brabant,VBO,5.369364,51.714284
De Hoef,176,,,5242CN,Rosmalen,'s-Hertogenbosch,Noord-Brabant,VBO,5.369277,51.714318
De Hoef,178,,,5242CN,Rosmalen,'s-Hertogenbosch,Noord-Brabant,VBO,5.369130,51.714323
De Hoef,180,,,5242CN,Rosmalen,'s-Hertogenbosch,Noord-Brabant,VBO,5.369221,51.714290
De Hoef,182,,,5242CN,Rosmalen,'s-Hertogenbosch,Noord-Brabant,VBO,5.369319,51.714254
De Hoef,184,,,5242CN,Rosmalen,'s-Hertogenbosch,Noord-Brabant,VBO,5.369400,51.714222
De Hoef,186,,,5242CN,Rosmalen,'s-Hertogenbosch,Noord-Brabant,VBO,5.369462,51.714202
De Hoef,188,,,5242CN,Rosmalen,'s-Hertogenbosch,Noord-Brabant,VBO,5.369514,51.714248
De Hoef,190,,,5242CN,Rosmalen,'s-Hertogenbosch,Noord-Brabant,VBO,5.369465,51.714270
De Hoef,192,,,5242CN,Rosmalen,'s-Hertogenbosch,Noord-Brabant,VBO,5.369377,51.714294
De Hoef,194,,,5242CN,Rosmalen,'s-Hertogenbosch,Noord-Brabant,VBO,5.369282,51.714336
De Hoef,196,,,5242CN,Rosmalen,'s-Hertogenbosch,Noord-Brabant,VBO,5.369118,51.714313
De Hoef,198,,,5242CN,Rosmalen,'s-Hertogenbosch,Noord-Brabant,VBO,5.369211,51.714280
De Hoef,200,,,5242CN,Rosmalen,'s-Hertogenbosch,Noord-Brabant,VBO,5.369308,51.714243
De Hoef,202,,,5242CN,Rosmalen,'s-Hertogenbosch,Noord-Brabant,VBO,5.369393,51.714210
De Hoef,204,,,5242CN,Rosmalen,'s-Hertogenbosch,Noord-Brabant,VBO,5.369445,51.714191
De Hoef,206,,,5242CN,Rosmalen,'s-Hertogenbosch,Noord-Brabant,VBO,5.369590,51.714232
De Hoef,208,,,5242CN,Rosmalen,'s-Hertogenbosch,Noord-Brabant,VBO,5.369526,51.714257
De Hoef,210,,,5242CN,Rosmalen,'s-Hertogenbosch,Noord-Brabant,VBO,5.369478,51.714279
De Hoef,212,,,5242CN,Rosmalen,'s-Hertogenbosch,Noord-Brabant,VBO,5.369391,51.714308
De Hoef,214,,,5242CN,Rosmalen,'s-Hertogenbosch,Noord-Brabant,VBO,5.369297,51.714347
De Hoef,216,,,5242CN,Rosmalen,'s-Hertogenbosch,Noord-Brabant,VBO,5.369108,51.714305
De Hoef,218,,,5242CN,Rosmalen,'s-Hertogenbosch,Noord-Brabant,VBO,5.369201,51.714270
De Hoef,220,,,5242CN,Rosmalen,'s-Hertogenbosch,Noord-Brabant,VBO,5.369300,51.714235
De Hoef,222,,,5242CN,Rosmalen,'s-Hertogenbosch,Noord-Brabant,VBO,5.369377,51.714202
De Hoef,224,,,5242CN,Rosmalen,'s-Hertogenbosch,Noord-Brabant,VBO,5.369434,51.714181
De Hoef,226,,,5242CN,Rosmalen,'s-Hertogenbosch,Noord-Brabant,VBO,5.369534,51.714266
De Hoef,228,,,5242CN,Rosmalen,'s-Hertogenbosch,Noord-Brabant,VBO,5.369492,51.714288
De Hoef,230,,,5242CN,Rosmalen,'s-Hertogenbosch,Noord-Brabant,VBO,5.369399,51.714318
De Hoef,232,,,5242CN,Rosmalen,'s-Hertogenbosch,Noord-Brabant,VBO,5.369310,51.714356
De Hoef,234,,,5242CN,Rosmalen,'s-Hertogenbosch,Noord-Brabant,VBO,5.369242,51.714379
De Hoef,238,,,5242CN,Rosmalen,'s-Hertogenbosch,Noord-Brabant,VBO,5.369197,51.713696
De Hoef,240,,,5242CN,Rosmalen,'s-Hertogenbosch,Noord-Brabant,VBO,5.369233,51.713532
De Hoef,242,,,5242CN,Rosmalen,'s-Hertogenbosch,Noord-Brabant,VBO,5.369335,51.713540
De Hoef,244,,,5242CN,Rosmalen,'s-Hertogenbosch,Noord-Brabant,VBO,5.369201,51.713680
De Hoef,246,,,5242CN,Rosmalen,'s-Hertogenbosch,Noord-Brabant,VBO,5.369235,51.713523
De Hoef,248,,,5242CN,Rosmalen,'s-Hertogenbosch,Noord-Brabant,VBO,5.369335,51.713529
De Hoef,250,,,5242CN,Rosmalen,'s-Hertogenbosch,Noord-Brabant,VBO,5.369201,51.713667
De Hoef,252,,,5242CN,Rosmalen,'s-Hertogenbosch,Noord-Brabant,VBO,5.369237,51.713511
De Hoef,254,,,5242CN,Rosmalen,'s-Hertogenbosch,Noord-Brabant,VBO,5.369337,51.713517
De Hoef,256,,,5242CN,Rosmalen,'s-Hertogenbosch,Noord-Brabant,VBO,5.369206,51.713653
De Hoef,258,,,5242CN,Rosmalen,'s-Hertogenbosch,Noord-Brabant,VBO,5.369238,51.713497
De Hoef,260,,,5242CN,Rosmalen,'s-Hertogenbosch,Noord-Brabant,VBO,5.369340,51.713506
De Hoef,262,,,5242CN,Rosmalen,'s-Hertogenbosch,Noord-Brabant,VBO,5.369381,51.713703
Sportlaan,1,,,5242CN,Rosmalen,'s-Hertogenbosch,Noord-Brabant,VBO,5.362260,51.711437
Sportlaan,3,,,5242CN,Rosmalen,'s-Hertogenbosch,Noord-Brabant,VBO,5.362363,51.711444
Sportlaan,5,,,5242CN,Rosmalen,'s-Hertogenbosch,Noord-Brabant,VBO,5.362522,51.711456
Sportlaan,7,,,5242CN,Rosmalen,'s-Hertogenbosch,Noord-Brabant,VBO,5.362624,51.711463
Sportlaan,9,,,5242CN,Rosmalen,'s-Hertogenbosch,Noord-Brabant,VBO,5.362725,51.711470
Sportlaan,11,,,5242CN,Rosmalen,'s-Hertogenbosch,Noord-Brabant,VBO,5.364243,51.711766
Sportlaan,13,,,5242CN,Rosmalen,'s-Hertogenbosch,Noord-Brabant,VBO,5.364349,51.711778
Sportlaan,15,,,5242CN,Rosmalen,'s-Hertogenbosch,Noord-Brabant,VBO,5.364621,51.711799
Sportlaan,17,,,5242CN,Rosmalen,'s-Hertogenbosch,Noord-Brabant,VBO,5.364731,51.711792
Sportlaan,19,,,5242CN,Rosmalen,'s-Hertogenbosch,Noord-Brabant,VBO,5.364948,51.711760
Sportlaan,21,,,5242CN,Rosmalen,'s-Hertogenbosch,Noord-Brabant,VBO,5.365124,51.711736
Sportlaan,23,,,5242CN,Rosmalen,'s-Hertogenbosch,Noord-Brabant,VBO,5.365351,51.711684
Sportlaan,25,,,5242CN,Rosmalen,'s-Hertogenbosch,Noord-Brabant,VBO,5.365571,51.711645
De Hoef,280,,,5242CP,Rosmalen,'s-Hertogenbosch,Noord-Brabant,VBO,5.368533,51.714196
De Hoef,282,,,5242CP,Rosmalen,'s-Hertogenbosch,Noord-Brabant,VBO,5.368562,51.714143
De Hoef,284,,,5242CP,Rosmalen,'s-Hertogenbosch,Noord-Brabant,VBO,5.368590,51.714103
De Hoef,286,,,5242CP,Rosmalen,'s-Hertogenbosch,Noord-Brabant,VBO,5.368616,51.714060
De Hoef,288,,,5242CP,Rosmalen,'s-Hertogenbosch,Noord-Brabant,VBO,5.368293,51.714294
De Hoef,290,,,5242CP,Rosmalen,'s-Hertogenbosch,Noord-Brabant,VBO,5.368151,51.714262
De Hoef,292,,,5242CP,Rosmalen,'s-Hertogenbosch,Noord-Brabant,VBO,5.368525,51.714318
De Hoef,294,,,5242CP,Rosmalen,'s-Hertogenbosch,Noord-Brabant,VBO,5.368509,51.714247
De Hoef,296,,,5242CP,Rosmalen,'s-Hertogenbosch,Noord-Brabant,VBO,5.368571,51.714203
De Hoef,298,,,5242CP,Rosmalen,'s-Hertogenbosch,Noord-Brabant,VBO,5.368608,51.714157
De Hoef,300,,,5242CP,Rosmalen,'s-Hertogenbosch,Noord-Brabant,VBO,5.368632,51.714114
De Hoef,302,,,5242CP,Rosmalen,'s-Hertogenbosch,Noord-Brabant,VBO,5.368662,51.714070
De Hoef,304,,,5242CP,Rosmalen,'s-Hertogenbosch,Noord-Brabant,VBO,5.368326,51.714302
De Hoef,306,,,5242CP,Rosmalen,'s-Hertogenbosch,Noord-Brabant,VBO,5.368173,51.714244
De Hoef,308,,,5242CP,Rosmalen,'s-Hertogenbosch,Noord-Brabant,VBO,5.367946,51.714223
De Hoef,310,,,5242CP,Rosmalen,'s-Hertogenbosch,Noord-Brabant,VBO,5.367967,51.714193
De Hoef,312,,,5242CP,Rosmalen,'s-Hertogenbosch,Noord-Brabant,VBO,5.368511,51.714344
De Hoef,314,,,5242CP,Rosmalen,'s-Hertogenbosch,Noord-Brabant,VBO,5.368558,51.714258
De Hoef,316,,,5242CP,Rosmalen,'s-Hertogenbosch,Noord-Brabant,VBO,5.368625,51.714214
De Hoef,318,,,5242CP,Rosmalen,'s-Hertogenbosch,Noord-Brabant,VBO,5.368655,51.714169
De Hoef,320,,,5242CP,Rosmalen,'s-Hertogenbosch,Noord-Brabant,VBO,5.368685,51.714124
De Hoef,322,,,5242CP,Rosmalen,'s-Hertogenbosch,Noord-Brabant,VBO,5.368715,51.714083
De Hoef,324,,,5242CP,Rosmalen,'s-Hertogenbosch,Noord-Brabant,VBO,5.368344,51.714290
De Hoef,326,,,5242CP,Rosmalen,'s-Hertogenbosch,Noord-Brabant,VBO,5.368177,51.714230
De Hoef,328,,,5242CP,Rosmalen,'s-Hertogenbosch,Noord-Brabant,VBO,5.367920,51.714220
De Hoef,330,,,5242CP,Rosmalen,'s-Hertogenbosch,Noord-Brabant,VBO,5.367935,51.714190
De Hoef,332,,,5242CP,Rosmalen,'s-Hertogenbosch,Noord-Brabant,VBO,5.368506,51.714367
De Hoef,334,,,5242CP,Rosmalen,'s-Hertogenbosch,Noord-Brabant,VBO,5.368354,51.714270
De Hoef,338,,,5242CP,Rosmalen,'s-Hertogenbosch,Noord-Brabant,VBO,5.367871,51.714210
De Hoef,340,,,5242CP,Rosmalen,'s-Hertogenbosch,Noord-Brabant,VBO,5.367894,51.714184
De Hoef,342,,,5242CP,Rosmalen,'s-Hertogenbosch,Noord-Brabant,VBO,5.367995,51.714242
De Hoef,344,,,5242CP,Rosmalen,'s-Hertogenbosch,Noord-Brabant,VBO,5.368452,51.713807
De Hoef,346,,,5242CP,Rosmalen,'s-Hertogenbosch,Noord-Brabant,VBO,5.368516,51.713720
De Hoef,348,,,5242CP,Rosmalen,'s-Hertogenbosch,Noord-Brabant,VBO,5.368551,51.713539
De Hoef,350,,,5242CP,Rosmalen,'s-Hertogenbosch,Noord-Brabant,VBO,5.368447,51.713528
De Hoef,352,,,5242CP,Rosmalen,'s-Hertogenbosch,Noord-Brabant,VBO,5.368196,51.714016
De Hoef,354,,,5242CP,Rosmalen,'s-Hertogenbosch,Noord-Brabant,VBO,5.368254,51.713962
De Hoef,356,,,5242CP,Rosmalen,'s-Hertogenbosch,Noord-Brabant,VBO,5.368393,51.713802
De Hoef,358,,,5242CP,Rosmalen,'s-Hertogenbosch,Noord-Brabant,VBO,5.368466,51.713717
De Hoef,360,,,5242CP,Rosmalen,'s-Hertogenbosch,Noord-Brabant,VBO,5.368558,51.713516
De Hoef,362,,,5242CP,Rosmalen,'s-Hertogenbosch,Noord-Brabant,VBO,5.368457,51.713511
De Hoef,364,,,5242CP,Rosmalen,'s-Hertogenbosch,Noord-Brabant,VBO,5.368158,51.714010
De Hoef,366,,,5242CP,Rosmalen,'s-Hertogenbosch,Noord-Brabant,VBO,5.368210,51.713952
De Hoef,368,,,5242CP,Rosmalen,'s-Hertogenbosch,Noord-Brabant,VBO,5.368337,51.713793
De Hoef,370,,,5242CP,Rosmalen,'s-Hertogenbosch,Noord-Brabant,VBO,5.368398,51.713716
De Hoef,372,,,5242CP,Rosmalen,'s-Hertogenbosch,Noord-Brabant,VBO,5.368569,51.713499
De Hoef,374,,,5242CP,Rosmalen,'s-Hertogenbosch,Noord-Brabant,VBO,5.368466,51.713492
De Hoef,376,,,5242CP,Rosmalen,'s-Hertogenbosch,Noord-Brabant,VBO,5.368090,51.713991
De Hoef,378,,,5242CP,Rosmalen,'s-Hertogenbosch,Noord-Brabant,VBO,5.368152,51.713946
De Hoef,380,,,5242CP,Rosmalen,'s-Hertogenbosch,Noord-Brabant,VBO,5.368295,51.713789
De Hoef,382,,,5242CP,Rosmalen,'s-Hertogenbosch,Noord-Brabant,VBO,5.368347,51.713716
De Hoef,384,,,5242CP,Rosmalen,'s-Hertogenbosch,Noord-Brabant,VBO,5.368473,51.713475
Sportlaan,27,,,5242CP,Rosmalen,'s-Hertogenbosch,Noord-Brabant,VBO,5.365918,51.711609
Sportlaan,29,,,5242CP,Rosmalen,'s-Hertogenbosch,Noord-Brabant,VBO,5.366009,51.711611
Sportlaan,31,,,5242CP,Rosmalen,'s-Hertogenbosch,Noord-Brabant,VBO,5.366431,51.711562
Sportlaan,33,,,5242CP,Rosmalen,'s-Hertogenbosch,Noord-Brabant,VBO,5.366919,51.711462
Sportlaan,35,,,5242CP,Rosmalen,'s-Hertogenbosch,Noord-Brabant,VBO,5.367109,51.711464
Sportlaan,37,,,5242CP,Rosmalen,'s-Hertogenbosch,Noord-Brabant,VBO,5.367398,51.711416
Sportlaan,39,,,5242CP,Rosmalen,'s-Hertogenbosch,Noord-Brabant,VBO,5.367869,51.711352
Sportlaan,41,,,5242CP,Rosmalen,'s-Hertogenbosch,Noord-Brabant,VBO,5.368497,51.711448
Sportlaan,43,,,5242CP,Rosmalen,'s-Hertogenbosch,Noord-Brabant,VBO,5.368878,51.711452
Sportlaan,45,,,5242CP,Rosmalen,'s-Hertogenbosch,Noord-Brabant,VBO,5.369405,51.711546
Sportlaan,47,,,5242CP,Rosmalen,'s-Hertogenbosch,Noord-Brabant,VBO,5.369914,51.711554
Sportlaan,49,,,5242CP,Rosmalen,'s-Hertogenbosch,Noord-Brabant,VBO,5.370415,51.711560
Sportlaan,51,,,5242CP,Rosmalen,'s-Hertogenbosch,Noord-Brabant,VBO,5.371016,51.711569
Sportlaan,53,,,5242CP,Rosmalen,'s-Hertogenbosch,Noord-Brabant,VBO,5.372003,51.711559
Sportlaan,55,,,5242CP,Rosmalen,'s-Hertogenbosch,Noord-Brabant,VBO,5.372278,51.711559
Sportlaan,57,,,5242CP,Rosmalen,'s-Hertogenbosch,Noord-Brabant,VBO,5.372578,51.711565
Sportlaan,59,,,5242CP,Rosmalen,'s-Hertogenbosch,Noord-Brabant,VBO,5.372903,51.711588
Sportlaan,61,A,,5242CP,Rosmalen,'s-Hertogenbosch,Noord-Brabant,VBO,5.373759,51.711565
Sportlaan,61,,,5242CP,Rosmalen,'s-Hertogenbosch,Noord-Brabant,VBO,5.373197,51.711641
Sportlaan,4,,,5242CR,Rosmalen,'s-Hertogenbosch,Noord-Brabant,VBO,5.362333,51.711636
Sportlaan,6,,,5242CR,Rosmalen,'s-Hertogenbosch,Noord-Brabant,VBO,5.362606,51.711675
Sportlaan,8,,,5242CR,Rosmalen,'s-Hertogenbosch,Noord-Brabant,VBO,5.362688,51.711687
Sportlaan,10,,,5242CR,Rosmalen,'s-Hertogenbosch,Noord-Brabant,VBO,5.362920,51.711719
Sportlaan,12,,,5242CR,Rosmalen,'s-Hertogenbosch,Noord-Brabant,VBO,5.363178,51.711734
Sportlaan,14,A,,5242CR,Rosmalen,'s-Hertogenbosch,Noord-Brabant,VBO,5.366397,51.711963
Sportlaan,14,,,5242CR,Rosmalen,'s-Hertogenbosch,Noord-Brabant,VBO,5.363367,51.711790
Sportlaan,16,A,,5242CR,Rosmalen,'s-Hertogenbosch,Noord-Brabant,VBO,5.367912,51.712021
Sportlaan,16,B,,5242CR,Rosmalen,'s-Hertogenbosch,Noord-Brabant,VBO,5.367912,51.712021
Sportlaan,16,,,5242CR,Rosmalen,'s-Hertogenbosch,Noord-Brabant,VBO,5.368016,51.712041
Sportlaan,18,A,,5242CR,Rosmalen,'s-Hertogenbosch,Noord-Brabant,VBO,5.368503,51.712729
Sportlaan,18,,,5242CR,Rosmalen,'s-Hertogenbosch,Noord-Brabant,VBO,5.368137,51.712662
Sportlaan,20,A,,5242CR,Rosmalen,'s-Hertogenbosch,Noord-Brabant,VBO,5.372152,51.711969
Sportlaan,20,B,,5242CR,Rosmalen,'s-Hertogenbosch,Noord-Brabant,VBO,5.372154,51.712016
Sportlaan,20,C,,5242CR,Rosmalen,'s-Hertogenbosch,Noord-Brabant,VBO,5.372151,51.712063
Sportlaan,20,,,5242CR,Rosmalen,'s-Hertogenbosch,Noord-Brabant,VBO,5.372159,51.711913
Sportlaan,22,A,,5242CR,Rosmalen,'s-Hertogenbosch,Noord-Brabant,VBO,5.372133,51.712171
Sportlaan,22,B,,5242CR,Rosmalen,'s-Hertogenbosch,Noord-Brabant,VBO,5.372128,51.712257
Sportlaan,22,C,,5242CR,Rosmalen,'s-Hertogenbosch,Noord-Brabant,VBO,5.372133,51.712310
Sportlaan,22,,,5242CR,Rosmalen,'s-Hertogenbosch,Noord-Brabant,VBO,5.372151,51.712110
Sportlaan,24,A,,5242CR,Rosmalen,'s-Hertogenbosch,Noord-Brabant,VBO,5.372113,51.712410
Sportlaan,24,B,,5242CR,Rosmalen,'s-Hertogenbosch,Noord-Brabant,VBO,5.372126,51.712460
Sportlaan,24,,,5242CR,Rosmalen,'s-Hertogenbosch,Noord-Brabant,VBO,5.372130,51.712356
Sportlaan,26,,,5242CR,Rosmalen,'s-Hertogenbosch,Noord-Brabant,VBO,5.373422,51.712312
van der Leeuwstraat,1,,,5242CS,Rosmalen,'s-Hertogenbosch,Noord-Brabant,VBO,5.370470,51.711482
van der Leeuwstraat,3,,,5242CS,Rosmalen,'s-Hertogenbosch,Noord-Brabant,VBO,5.370474,51.711363
van der Leeuwstraat,5,,,5242CS,Rosmalen,'s-Hertogenbosch,Noord-Brabant,VBO,5.370475,51.711307
van der Leeuwstraat,7,,,5242CS,Rosmalen,'s-Hertogenbosch,Noord-Brabant,VBO,5.370479,51.711186
van der Leeuwstraat,9,,,5242CS,Rosmalen,'s-Hertogenbosch,Noord-Brabant,VBO,5.370481,51.711130
van der Leeuwstraat,11,,,5242CS,Rosmalen,'s-Hertogenbosch,Noord-Brabant,VBO,5.370521,51.711013
Lodeizenstraat,1,,,5242CT,Rosmalen,'s-Hertogenbosch,Noord-Brabant,VBO,5.369455,51.711467
Lodeizenstraat,2,,,5242CT,Rosmalen,'s-Hertogenbosch,Noord-Brabant,VBO,5.369865,51.711474
Lodeizenstraat,3,,,5242CT,Rosmalen,'s-Hertogenbosch,Noord-Brabant,VBO,5.369459,51.711348
Lodeizenstraat,4,,,5242CT,Rosmalen,'s-Hertogenbosch,Noord-Brabant,VBO,5.369868,51.711354
Lodeizenstraat,5,,,5242CT,Rosmalen,'s-Hertogenbosch,Noord-Brabant,VBO,5.369461,51.711292
Lodeizenstraat,6,,,5242CT,Rosmalen,'s-Hertogenbosch,Noord-Brabant,VBO,5.369870,51.711298
Lodeizenstraat,7,,,5242CT,Rosmalen,'s-Hertogenbosch,Noord-Brabant,VBO,5.369502,51.711173
Lodeizenstraat,8,,,5242CT,Rosmalen,'s-Hertogenbosch,Noord-Brabant,VBO,5.369839,51.711178
Lodeizenstraat,9,,,5242CT,Rosmalen,'s-Hertogenbosch,Noord-Brabant,VBO,5.369504,51.711117
Lodeizenstraat,10,,,5242CT,Rosmalen,'s-Hertogenbosch,Noord-Brabant,VBO,5.369840,51.711122
Lodeizenstraat,11,,,5242CT,Rosmalen,'s-Hertogenbosch,Noord-Brabant,VBO,5.369564,51.710993
Lodeizenstraat,12,,,5242CT,Rosmalen,'s-Hertogenbosch,Noord-Brabant,VBO,5.369808,51.711003
Martinus Nijhoffstraat,1,,,5242CV,Rosmalen,'s-Hertogenbosch,Noord-Brabant,VBO,5.368522,51.711369
Martinus Nijhoffstraat,2,,,5242CV,Rosmalen,'s-Hertogenbosch,Noord-Brabant,VBO,5.368857,51.711373
Martinus Nijhoffstraat,3,,,5242CV,Rosmalen,'s-Hertogenbosch,Noord-Brabant,VBO,5.368525,51.711250
Martinus Nijhoffstraat,4,,,5242CV,Rosmalen,'s-Hertogenbosch,Noord-Brabant,VBO,5.368862,51.711253
Martinus Nijhoffstraat,5,,,5242CV,Rosmalen,'s-Hertogenbosch,Noord-Brabant,VBO,5.368527,51.711194
Martinus Nijhoffstraat,6,,,5242CV,Rosmalen,'s-Hertogenbosch,Noord-Brabant,VBO,5.368863,51.711197
Martinus Nijhoffstraat,7,,,5242CV,Rosmalen,'s-Hertogenbosch,Noord-Brabant,VBO,5.368566,51.711075
Martinus Nijhoffstraat,8,,,5242CV,Rosmalen,'s-Hertogenbosch,Noord-Brabant,VBO,5.368831,51.711077
Martinus Nijhoffstraat,9,,,5242CV,Rosmalen,'s-Hertogenbosch,Noord-Brabant,VBO,5.368568,51.711019
Martinus Nijhoffstraat,10,,,5242CV,Rosmalen,'s-Hertogenbosch,Noord-Brabant,VBO,5.368832,51.711021
Herman de Manlaan,1,,,5242CW,Rosmalen,'s-Hertogenbosch,Noord-Brabant,VBO,5.367453,51.711337
Herman de Manlaan,2,,,5242CW,Rosmalen,'s-Hertogenbosch,Noord-Brabant,VBO,5.367849,51.711272
Herman de Manlaan,3,,,5242CW,Rosmalen,'s-Hertogenbosch,Noord-Brabant,VBO,5.367421,51.711218
Herman de Manlaan,4,,,5242CW,Rosmalen,'s-Hertogenbosch,Noord-Brabant,VBO,5.367889,51.711153
Herman de Manlaan,5,,,5242CW,Rosmalen,'s-Hertogenbosch,Noord-Brabant,VBO,5.367423,51.711161
Herman de Manlaan,6,,,5242CW,Rosmalen,'s-Hertogenbosch,Noord-Brabant,VBO,5.367891,51.711097
Herman de Manlaan,7,,,5242CW,Rosmalen,'s-Hertogenbosch,Noord-Brabant,VBO,5.367391,51.711042
Herman de Manlaan,8,,,5242CW,Rosmalen,'s-Hertogenbosch,Noord-Brabant,VBO,5.367859,51.710978
Herman de Manlaan,9,,,5242CW,Rosmalen,'s-Hertogenbosch,Noord-Brabant,VBO,5.367393,51.710986
Herman de Manlaan,11,,,5242CW,Rosmalen,'s-Hertogenbosch,Noord-Brabant,VBO,5.367433,51.710868
Herman de Manlaan,13,,,5242CW,Rosmalen,'s-Hertogenbosch,Noord-Brabant,VBO,5.367435,51.710811
Herman de Manlaan,15,,,5242CW,Rosmalen,'s-Hertogenbosch,Noord-Brabant,VBO,5.367475,51.710693
Gerard Bruningstraat,1,,,5242CX,Rosmalen,'s-Hertogenbosch,Noord-Brabant,VBO,5.366487,51.711482
Gerard Bruningstraat,2,,,5242CX,Rosmalen,'s-Hertogenbosch,Noord-Brabant,VBO,5.366797,51.711428
Gerard Bruningstraat,3,,,5242CX,Rosmalen,'s-Hertogenbosch,Noord-Brabant,VBO,5.366455,51.711363
Gerard Bruningstraat,4,,,5242CX,Rosmalen,'s-Hertogenbosch,Noord-Brabant,VBO,5.366845,51.711207
Gerard Bruningstraat,5,,,5242CX,Rosmalen,'s-Hertogenbosch,Noord-Brabant,VBO,5.366457,51.711306
Gerard Bruningstraat,6,,,5242CX,Rosmalen,'s-Hertogenbosch,Noord-Brabant,VBO,5.366847,51.711150
Gerard Bruningstraat,7,,,5242CX,Rosmalen,'s-Hertogenbosch,Noord-Brabant,VBO,5.366425,51.711188
Gerard Bruningstraat,8,,,5242CX,Rosmalen,'s-Hertogenbosch,Noord-Brabant,VBO,5.366851,51.711031
Gerard Bruningstraat,9,,,5242CX,Rosmalen,'s-Hertogenbosch,Noord-Brabant,VBO,5.366426,51.711131
Gerard Bruningstraat,10,,,5242CX,Rosmalen,'s-Hertogenbosch,Noord-Brabant,VBO,5.366853,51.710975
Gerard Bruningstraat,11,,,5242CX,Rosmalen,'s-Hertogenbosch,Noord-Brabant,VBO,5.366430,51.711013
Gerard Bruningstraat,12,,,5242CX,Rosmalen,'s-Hertogenbosch,Noord-Brabant,VBO,5.366820,51.710855
Gerard Bruningstraat,13,,,5242CX,Rosmalen,'s-Hertogenbosch,Noord-Brabant,VBO,5.366432,51.710956
Gerard Bruningstraat,14,,,5242CX,Rosmalen,'s-Hertogenbosch,Noord-Brabant,VBO,5.366822,51.710799
Gerard Bruningstraat,15,,,5242CX,Rosmalen,'s-Hertogenbosch,Noord-Brabant,VBO,5.366472,51.710838
Gerard Bruningstraat,16,,,5242CX,Rosmalen,'s-Hertogenbosch,Noord-Brabant,VBO,5.366790,51.710680
Gerard Bruningstraat,17,,,5242CX,Rosmalen,'s-Hertogenbosch,Noord-Brabant,VBO,5.366474,51.710782
Gerard Bruningstraat,19,,,5242CX,Rosmalen,'s-Hertogenbosch,Noord-Brabant,VBO,5.366514,51.710663
Molenhoekpassage,1,,,5242CZ,Rosmalen,'s-Hertogenbosch,Noord-Brabant,VBO,5.366474,51.710361
Molenhoekpassage,2,,,5242CZ,Rosmalen,'s-Hertogenbosch,Noord-Brabant,VBO,5.366476,51.710348
Molenhoekpassage,3,,,5242CZ,Rosmalen,'s-Hertogenbosch,Noord-Brabant,VBO,5.366493,51.710229
Molenhoekpassage,4,,,5242CZ,Rosmalen,'s-Hertogenbosch,Noord-Brabant,VBO,5.366486,51.710234
Molenhoekpassage,5,,,5242CZ,Rosmalen,'s-Hertogenbosch,Noord-Brabant,VBO,5.366746,51.710182
Molenhoekpassage,7,,,5242CZ,Rosmalen,'s-Hertogenbosch,Noord-Brabant,VBO,5.367139,51.710046
Molenhoekpassage,8,,,5242CZ,Rosmalen,'s-Hertogenbosch,Noord-Brabant,VBO,5.367138,51.709976
Molenhoekpassage,9,,,5242CZ,Rosmalen,'s-Hertogenbosch,Noord-Brabant,VBO,5.367147,51.709917
Molenhoekpassage,10,,,5242CZ,Rosmalen,'s-Hertogenbosch,Noord-Brabant,VBO,5.367145,51.709837
Molenhoekpassage,11,,,5242CZ,Rosmalen,'s-Hertogenbosch,Noord-Brabant,VBO,5.367106,51.709763
Molenhoekpassage,12,,,5242CZ,Rosmalen,'s-Hertogenbosch,Noord-Brabant,VBO,5.367229,51.709771
Molenhoekpassage,13,,,5242CZ,Rosmalen,'s-Hertogenbosch,Noord-Brabant,VBO,5.366895,51.709784
Molenhoekpassage,14,,,5242CZ,Rosmalen,'s-Hertogenbosch,Noord-Brabant,VBO,5.366891,51.709858
Molenhoekpassage,15,,,5242CZ,Rosmalen,'s-Hertogenbosch,Noord-Brabant,VBO,5.366884,51.709939
Molenhoekpassage,16,,,5242CZ,Rosmalen,'s-Hertogenbosch,Noord-Brabant,VBO,5.366881,51.710018
Molenhoekpassage,17,,,5242CZ,Rosmalen,'s-Hertogenbosch,Noord-Brabant,VBO,5.366778,51.710016
Molenhoekpassage,18,,,5242CZ,Rosmalen,'s-Hertogenbosch,Noord-Brabant,VBO,5.366670,51.710015
Molenhoekpassage,19,,,5242CZ,Rosmalen,'s-Hertogenbosch,Noord-Brabant,VBO,5.366567,51.710011
Molenhoekpassage,20,,,5242CZ,Rosmalen,'s-Hertogenbosch,Noord-Brabant,VBO,5.366453,51.710015
Molenhoekpassage,21,,,5242CZ,Rosmalen,'s-Hertogenbosch,Noord-Brabant,VBO,5.366634,51.709851
Molenhoekpassage,22,,,5242CZ,Rosmalen,'s-Hertogenbosch,Noord-Brabant,VBO,5.366635,51.709797
Molenhoekpassage,23,,,5242CZ,Rosmalen,'s-Hertogenbosch,Noord-Brabant,VBO,5.366641,51.709740
Marie Koenenstraat,2,,,5242EA,Rosmalen,'s-Hertogenbosch,Noord-Brabant,VBO,5.365740,51.710569
Marie Koenenstraat,4,,,5242EA,Rosmalen,'s-Hertogenbosch,Noord-Brabant,VBO,5.365831,51.710570
Marie Koenenstraat,6,,,5242EA,Rosmalen,'s-Hertogenbosch,Noord-Brabant,VBO,5.366022,51.710572
Marie Koenenstraat,8,,,5242EA,Rosmalen,'s-Hertogenbosch,Noord-Brabant,VBO,5.366113,51.710574
Marie Koenenstraat,10,,,5242EA,Rosmalen,'s-Hertogenbosch,Noord-Brabant,VBO,5.366441,51.710582
Marie Koenenstraat,12,,,5242EA,Rosmalen,'s-Hertogenbosch,Noord-Brabant,VBO,5.366845,51.710600
Marie Koenenstraat,14,,,5242EA,Rosmalen,'s-Hertogenbosch,Noord-Brabant,VBO,5.367425,51.710611
Slauerhoffstraat,4,,,5242EB,Rosmalen,'s-Hertogenbosch,Noord-Brabant,VBO,5.367818,51.710228
Slauerhoffstraat,6,,,5242EB,Rosmalen,'s-Hertogenbosch,Noord-Brabant,VBO,5.367820,51.710169
Slauerhoffstraat,8,,,5242EB,Rosmalen,'s-Hertogenbosch,Noord-Brabant,VBO,5.367849,51.710036
Slauerhoffstraat,10,,,5242EB,Rosmalen,'s-Hertogenbosch,Noord-Brabant,VBO,5.367851,51.709979
Slauerhoffstraat,12,,,5242EB,Rosmalen,'s-Hertogenbosch,Noord-Brabant,VBO,5.367852,51.709923
Slauerhoffstraat,14,,,5242EB,Rosmalen,'s-Hertogenbosch,Noord-Brabant,VBO,5.367854,51.709863
Slauerhoffstraat,16,,,5242EB,Rosmalen,'s-Hertogenbosch,Noord-Brabant,VBO,5.367857,51.709786
Slauerhoffstraat,18,,,5242EB,Rosmalen,'s-Hertogenbosch,Noord-Brabant,VBO,5.367859,51.709730
Slauerhoffstraat,20,,,5242EB,Rosmalen,'s-Hertogenbosch,Noord-Brabant,VBO,5.367861,51.709672
Slauerhoffstraat,22,,,5242EB,Rosmalen,'s-Hertogenbosch,Noord-Brabant,VBO,5.367863,51.709613
Slauerhoffstraat,24,,,5242EB,Rosmalen,'s-Hertogenbosch,Noord-Brabant,VBO,5.367865,51.709555
Slauerhoffstraat,26,,,5242EB,Rosmalen,'s-Hertogenbosch,Noord-Brabant,VBO,5.367867,51.709497
Slauerhoffstraat,28,,,5242EB,Rosmalen,'s-Hertogenbosch,Noord-Brabant,VBO,5.367869,51.709440
Slauerhoffstraat,30,,,5242EB,Rosmalen,'s-Hertogenbosch,Noord-Brabant,VBO,5.367871,51.709381
Bilderdijkstraat,1,,,5242EC,Rosmalen,'s-Hertogenbosch,Noord-Brabant,VBO,5.367490,51.709197
Bilderdijkstraat,3,,,5242EC,Rosmalen,'s-Hertogenbosch,Noord-Brabant,VBO,5.367584,51.709198
Bilderdijkstraat,5,,,5242EC,Rosmalen,'s-Hertogenbosch,Noord-Brabant,VBO,5.367676,51.709199
Bilderdijkstraat,7,,,5242EC,Rosmalen,'s-Hertogenbosch,Noord-Brabant,VBO,5.367769,51.709200
Bilderdijkstraat,9,,,5242EC,Rosmalen,'s-Hertogenbosch,Noord-Brabant,VBO,5.367861,51.709202
Bilderdijkstraat,11,,,5242EC,Rosmalen,'s-Hertogenbosch,Noord-Brabant,VBO,5.367954,51.709203
Bilderdijkstraat,13,,,5242EC,Rosmalen,'s-Hertogenbosch,Noord-Brabant,VBO,5.368123,51.709205
Bilderdijkstraat,15,,,5242EC,Rosmalen,'s-Hertogenbosch,Noord-Brabant,VBO,5.368217,51.709206
Bilderdijkstraat,17,,,5242EC,Rosmalen,'s-Hertogenbosch,Noord-Brabant,VBO,5.368309,51.709207
Bilderdijkstraat,19,,,5242EC,Rosmalen,'s-Hertogenbosch,Noord-Brabant,VBO,5.368401,51.709208
Bilderdijkstraat,21,,,5242EC,Rosmalen,'s-Hertogenbosch,Noord-Brabant,VBO,5.368493,51.709209
Bilderdijkstraat,23,,,5242EC,Rosmalen,'s-Hertogenbosch,Noord-Brabant,VBO,5.368587,51.709210
Anna Blamanstraat,1,A,,5242ED,Rosmalen,'s-Hertogenbosch,Noord-Brabant,VBO,5.368506,51.710255
Anna Blamanstraat,1,B,,5242ED,Rosmalen,'s-Hertogenbosch,Noord-Brabant,VBO,5.368559,51.710177
Anna Blamanstraat,1,,,5242ED,Rosmalen,'s-Hertogenbosch,Noord-Brabant,VBO,5.368506,51.710255
Anna Blamanstraat,3,,,5242ED,Rosmalen,'s-Hertogenbosch,Noord-Brabant,VBO,5.368478,51.710044
Anna Blamanstraat,5,,,5242ED,Rosmalen,'s-Hertogenbosch,Noord-Brabant,VBO,5.368480,51.709986
Anna Blamanstraat,7,,,5242ED,Rosmalen,'s-Hertogenbosch,Noord-Brabant,VBO,5.368482,51.709928
Anna Blamanstraat,9,,,5242ED,Rosmalen,'s-Hertogenbosch,Noord-Brabant,VBO,5.368484,51.709871
Anna Blamanstraat,11,,,5242ED,Rosmalen,'s-Hertogenbosch,Noord-Brabant,VBO,5.368485,51.709813
Anna Blamanstraat,13,,,5242ED,Rosmalen,'s-Hertogenbosch,Noord-Brabant,VBO,5.368487,51.709755
Anna Blamanstraat,15,,,5242ED,Rosmalen,'s-Hertogenbosch,Noord-Brabant,VBO,5.368489,51.709698
Anna Blamanstraat,17,,,5242ED,Rosmalen,'s-Hertogenbosch,Noord-Brabant,VBO,5.368491,51.709639
Anna Blamanstraat,19,,,5242ED,Rosmalen,'s-Hertogenbosch,Noord-Brabant,VBO,5.368494,51.709562
Anna Blamanstraat,21,,,5242ED,Rosmalen,'s-Hertogenbosch,Noord-Brabant,VBO,5.368496,51.709505
Anna Blamanstraat,23,,,5242ED,Rosmalen,'s-Hertogenbosch,Noord-Brabant,VBO,5.368498,51.709448
Anna Blamanstraat,25,,,5242ED,Rosmalen,'s-Hertogenbosch,Noord-Brabant,VBO,5.368500,51.709389
Anna Blamanstraat,2,,,5242EE,Rosmalen,'s-Hertogenbosch,Noord-Brabant,VBO,5.368871,51.710127
Anna Blamanstraat,4,,,5242EE,Rosmalen,'s-Hertogenbosch,Noord-Brabant,VBO,5.368972,51.710128
Anna Blamanstraat,6,,,5242EE,Rosmalen,'s-Hertogenbosch,Noord-Brabant,VBO,5.369159,51.710131
Anna Blamanstraat,8,,,5242EE,Rosmalen,'s-Hertogenbosch,Noord-Brabant,VBO,5.369259,51.710132
Anna Blamanstraat,10,,,5242EE,Rosmalen,'s-Hertogenbosch,Noord-Brabant,VBO,5.369444,51.710134
Anna Blamanstraat,12,,,5242EE,Rosmalen,'s-Hertogenbosch,Noord-Brabant,VBO,5.369544,51.710136
Anna Blamanstraat,14,,,5242EE,Rosmalen,'s-Hertogenbosch,Noord-Brabant,VBO,5.369575,51.709956
Anna Blamanstraat,16,,,5242EE,Rosmalen,'s-Hertogenbosch,Noord-Brabant,VBO,5.369474,51.709955
Anna Blamanstraat,18,,,5242EE,Rosmalen,'s-Hertogenbosch,Noord-Brabant,VBO,5.369289,51.709953
Anna Blamanstraat,20,,,5242EE,Rosmalen,'s-Hertogenbosch,Noord-Brabant,VBO,5.369188,51.709951
Anna Blamanstraat,22,,,5242EE,Rosmalen,'s-Hertogenbosch,Noord-Brabant,VBO,5.369001,51.709949
Anna Blamanstraat,24,,,5242EE,Rosmalen,'s-Hertogenbosch,Noord-Brabant,VBO,5.368901,51.709948
Anna Blamanstraat,26,,,5242EE,Rosmalen,'s-Hertogenbosch,Noord-Brabant,VBO,5.368888,51.709637
Anna Blamanstraat,28,,,5242EE,Rosmalen,'s-Hertogenbosch,Noord-Brabant,VBO,5.368989,51.709639
Anna Blamanstraat,30,,,5242EE,Rosmalen,'s-Hertogenbosch,Noord-Brabant,VBO,5.369175,51.709641
Anna Blamanstraat,32,,,5242EE,Rosmalen,'s-Hertogenbosch,Noord-Brabant,VBO,5.369276,51.709642
Anna Blamanstraat,34,,,5242EE,Rosmalen,'s-Hertogenbosch,Noord-Brabant,VBO,5.369461,51.709645
Anna Blamanstraat,36,,,5242EE,Rosmalen,'s-Hertogenbosch,Noord-Brabant,VBO,5.369561,51.709646
Anna Blamanstraat,38,,,5242EE,Rosmalen,'s-Hertogenbosch,Noord-Brabant,VBO,5.369591,51.709467
Anna Blamanstraat,40,,,5242EG,Rosmalen,'s-Hertogenbosch,Noord-Brabant,VBO,5.369491,51.709466
Anna Blamanstraat,42,,,5242EG,Rosmalen,'s-Hertogenbosch,Noord-Brabant,VBO,5.369303,51.709463
Anna Blamanstraat,44,,,5242EG,Rosmalen,'s-Hertogenbosch,Noord-Brabant,VBO,5.369203,51.709462
Anna Blamanstraat,46,,,5242EG,Rosmalen,'s-Hertogenbosch,Noord-Brabant,VBO,5.369017,51.709459
Anna Blamanstraat,48,,,5242EG,Rosmalen,'s-Hertogenbosch,Noord-Brabant,VBO,5.368917,51.709458
Anna Blamanstraat,50,,,5242EG,Rosmalen,'s-Hertogenbosch,Noord-Brabant,VBO,5.368902,51.709148
Anna Blamanstraat,52,,,5242EG,Rosmalen,'s-Hertogenbosch,Noord-Brabant,VBO,5.369002,51.709149
Anna Blamanstraat,54,,,5242EG,Rosmalen,'s-Hertogenbosch,Noord-Brabant,VBO,5.369189,51.709151
Anna Blamanstraat,56,,,5242EG,Rosmalen,'s-Hertogenbosch,Noord-Brabant,VBO,5.369289,51.709153
Anna Blamanstraat,58,,,5242EG,Rosmalen,'s-Hertogenbosch,Noord-Brabant,VBO,5.369475,51.709155
Anna Blamanstraat,60,,,5242EG,Rosmalen,'s-Hertogenbosch,Noord-Brabant,VBO,5.369576,51.709156
Anna Blamanstraat,62,,,5242EG,Rosmalen,'s-Hertogenbosch,Noord-Brabant,VBO,5.369605,51.708977
Anna Blamanstraat,64,,,5242EG,Rosmalen,'s-Hertogenbosch,Noord-Brabant,VBO,5.369505,51.708976
Anna Blamanstraat,66,,,5242EG,Rosmalen,'s-Hertogenbosch,Noord-Brabant,VBO,5.369319,51.708974
Anna Blamanstraat,68,,,5242EG,Rosmalen,'s-Hertogenbosch,Noord-Brabant,VBO,5.369218,51.708972
Anna Blamanstraat,70,,,5242EG,Rosmalen,'s-Hertogenbosch,Noord-Brabant,VBO,5.369032,51.708970
Anna Blamanstraat,72,,,5242EG,Rosmalen,'s-Hertogenbosch,Noord-Brabant,VBO,5.368932,51.708969
Felix Timmermanslaan,1,,,5242EH,Rosmalen,'s-Hertogenbosch,Noord-Brabant,VBO,5.367843,51.710415
Felix Timmermanslaan,3,,,5242EH,Rosmalen,'s-Hertogenbosch,Noord-Brabant,VBO,5.367943,51.710416
Felix Timmermanslaan,5,,,5242EH,Rosmalen,'s-Hertogenbosch,Noord-Brabant,VBO,5.368130,51.710418
Felix Timmermanslaan,7,,,5242EH,Rosmalen,'s-Hertogenbosch,Noord-Brabant,VBO,5.368231,51.710420
Felix Timmermanslaan,9,,,5242EH,Rosmalen,'s-Hertogenbosch,Noord-Brabant,VBO,5.368417,51.710422
Felix Timmermanslaan,11,,,5242EH,Rosmalen,'s-Hertogenbosch,Noord-Brabant,VBO,5.368517,51.710424
Felix Timmermanslaan,13,,,5242EH,Rosmalen,'s-Hertogenbosch,Noord-Brabant,VBO,5.368887,51.710428
Felix Timmermanslaan,15,,,5242EH,Rosmalen,'s-Hertogenbosch,Noord-Brabant,VBO,5.368987,51.710429
Felix Timmermanslaan,17,,,5242EH,Rosmalen,'s-Hertogenbosch,Noord-Brabant,VBO,5.369171,51.710432
Felix Timmermanslaan,19,,,5242EH,Rosmalen,'s-Hertogenbosch,Noord-Brabant,VBO,5.369272,51.710433
Felix Timmermanslaan,21,,,5242EH,Rosmalen,'s-Hertogenbosch,Noord-Brabant,VBO,5.369459,51.710435
Felix Timmermanslaan,23,,,5242EH,Rosmalen,'s-Hertogenbosch,Noord-Brabant,VBO,5.369559,51.710437
Felix Timmermanslaan,2,,,5242EJ,Rosmalen,'s-Hertogenbosch,Noord-Brabant,VBO,5.367894,51.710755
Felix Timmermanslaan,4,,,5242EJ,Rosmalen,'s-Hertogenbosch,Noord-Brabant,VBO,5.367987,51.710756
Felix Timmermanslaan,6,,,5242EJ,Rosmalen,'s-Hertogenbosch,Noord-Brabant,VBO,5.368083,51.710757
Felix Timmermanslaan,8,,,5242EJ,Rosmalen,'s-Hertogenbosch,Noord-Brabant,VBO,5.368179,51.710758
Felix Timmermanslaan,10,,,5242EJ,Rosmalen,'s-Hertogenbosch,Noord-Brabant,VBO,5.368274,51.710759
Felix Timmermanslaan,12,,,5242EJ,Rosmalen,'s-Hertogenbosch,Noord-Brabant,VBO,5.368370,51.710760
Felix Timmermanslaan,14,,,5242EJ,Rosmalen,'s-Hertogenbosch,Noord-Brabant,VBO,5.368464,51.710762
Felix Timmermanslaan,16,,,5242EJ,Rosmalen,'s-Hertogenbosch,Noord-Brabant,VBO,5.368866,51.710767
Felix Timmermanslaan,18,,,5242EJ,Rosmalen,'s-Hertogenbosch,Noord-Brabant,VBO,5.368961,51.710768
Felix Timmermanslaan,20,,,5242EJ,Rosmalen,'s-Hertogenbosch,Noord-Brabant,VBO,5.369056,51.710769
Felix Timmermanslaan,22,,,5242EJ,Rosmalen,'s-Hertogenbosch,Noord-Brabant,VBO,5.369150,51.710770
Felix Timmermanslaan,24,,,5242EJ,Rosmalen,'s-Hertogenbosch,Noord-Brabant,VBO,5.369246,51.710772
Felix Timmermanslaan,26,,,5242EJ,Rosmalen,'s-Hertogenbosch,Noord-Brabant,VBO,5.369342,51.710773
Felix Timmermanslaan,28,,,5242EJ,Rosmalen,'s-Hertogenbosch,Noord-Brabant,VBO,5.369437,51.710774
Felix Timmermanslaan,30,,,5242EJ,Rosmalen,'s-Hertogenbosch,Noord-Brabant,VBO,5.369847,51.710780
Felix Timmermanslaan,32,,,5242EJ,Rosmalen,'s-Hertogenbosch,Noord-Brabant,VBO,5.369940,51.710781
Felix Timmermanslaan,34,,,5242EJ,Rosmalen,'s-Hertogenbosch,Noord-Brabant,VBO,5.370035,51.710782
Felix Timmermanslaan,36,,,5242EJ,Rosmalen,'s-Hertogenbosch,Noord-Brabant,VBO,5.370130,51.710783
Felix Timmermanslaan,38,,,5242EJ,Rosmalen,'s-Hertogenbosch,Noord-Brabant,VBO,5.370227,51.710785
Felix Timmermanslaan,40,,,5242EJ,Rosmalen,'s-Hertogenbosch,Noord-Brabant,VBO,5.370322,51.710786
Felix Timmermanslaan,42,,,5242EJ,Rosmalen,'s-Hertogenbosch,Noord-Brabant,VBO,5.370415,51.710787
Het Blazoen,1,,,5242EK,Rosmalen,'s-Hertogenbosch,Noord-Brabant,VBO,5.368950,51.711802
Het Blazoen,2,,,5242EK,Rosmalen,'s-Hertogenbosch,Noord-Brabant,VBO,5.368945,51.711923
Het Blazoen,3,,,5242EK,Rosmalen,'s-Hertogenbosch,Noord-Brabant,VBO,5.368954,51.711982
Het Blazoen,4,,,5242EK,Rosmalen,'s-Hertogenbosch,Noord-Brabant,VBO,5.368949,51.712104
Het Blazoen,5,,,5242EK,Rosmalen,'s-Hertogenbosch,Noord-Brabant,VBO,5.368960,51.712157
Het Blazoen,6,,,5242EK,Rosmalen,'s-Hertogenbosch,Noord-Brabant,VBO,5.369033,51.712283
Het Blazoen,7,,,5242EK,Rosmalen,'s-Hertogenbosch,Noord-Brabant,VBO,5.369054,51.712339
Het Blazoen,8,,,5242EK,Rosmalen,'s-Hertogenbosch,Noord-Brabant,VBO,5.369041,51.712462
Het Blazoen,9,,,5242EK,Rosmalen,'s-Hertogenbosch,Noord-Brabant,VBO,5.369052,51.712518
Het Blazoen,10,,,5242EK,Rosmalen,'s-Hertogenbosch,Noord-Brabant,VBO,5.368993,51.712859
Het Blazoen,11,,,5242EK,Rosmalen,'s-Hertogenbosch,Noord-Brabant,VBO,5.369117,51.712862
Het Blazoen,12,,,5242EK,Rosmalen,'s-Hertogenbosch,Noord-Brabant,VBO,5.369248,51.712866
Het Blazoen,13,,,5242EK,Rosmalen,'s-Hertogenbosch,Noord-Brabant,VBO,5.369519,51.711905
Het Blazoen,14,,,5242EK,Rosmalen,'s-Hertogenbosch,Noord-Brabant,VBO,5.369530,51.711956
Het Blazoen,15,,,5242EK,Rosmalen,'s-Hertogenbosch,Noord-Brabant,VBO,5.369529,51.712012
Het Blazoen,16,,,5242EK,Rosmalen,'s-Hertogenbosch,Noord-Brabant,VBO,5.369530,51.712068
Het Blazoen,17,,,5242EK,Rosmalen,'s-Hertogenbosch,Noord-Brabant,VBO,5.369529,51.712124
Het Blazoen,18,,,5242EK,Rosmalen,'s-Hertogenbosch,Noord-Brabant,VBO,5.369522,51.712180
Het Blazoen,19,,,5242EK,Rosmalen,'s-Hertogenbosch,Noord-Brabant,VBO,5.369520,51.712261
Het Blazoen,20,,,5242EK,Rosmalen,'s-Hertogenbosch,Noord-Brabant,VBO,5.369528,51.712324
Het Blazoen,21,,,5242EK,Rosmalen,'s-Hertogenbosch,Noord-Brabant,VBO,5.369532,51.712374
Het Blazoen,22,,,5242EK,Rosmalen,'s-Hertogenbosch,Noord-Brabant,VBO,5.369549,51.712433
Het Blazoen,23,,,5242EK,Rosmalen,'s-Hertogenbosch,Noord-Brabant,VBO,5.369524,51.712495
Het Blazoen,24,,,5242EK,Rosmalen,'s-Hertogenbosch,Noord-Brabant,VBO,5.369542,51.712859
Het Blazoen,25,,,5242EK,Rosmalen,'s-Hertogenbosch,Noord-Brabant,VBO,5.369448,51.712861
Het Blazoen,26,,,5242EK,Rosmalen,'s-Hertogenbosch,Noord-Brabant,VBO,5.369360,51.712862
Het Blazoen,27,,,5242EK,Rosmalen,'s-Hertogenbosch,Noord-Brabant,VBO,5.370039,51.711959
Het Blazoen,28,,,5242EK,Rosmalen,'s-Hertogenbosch,Noord-Brabant,VBO,5.370074,51.712020
Het Blazoen,29,,,5242EK,Rosmalen,'s-Hertogenbosch,Noord-Brabant,VBO,5.370079,51.712136
Het Blazoen,30,,,5242EK,Rosmalen,'s-Hertogenbosch,Noord-Brabant,VBO,5.370081,51.712200
Het Blazoen,31,,,5242EK,Rosmalen,'s-Hertogenbosch,Noord-Brabant,VBO,5.370066,51.712315
Het Blazoen,32,,,5242EK,Rosmalen,'s-Hertogenbosch,Noord-Brabant,VBO,5.370078,51.712381
Het Blazoen,33,,,5242EK,Rosmalen,'s-Hertogenbosch,Noord-Brabant,VBO,5.369932,51.712730
Het Blazoen,34,,,5242EK,Rosmalen,'s-Hertogenbosch,Noord-Brabant,VBO,5.370070,51.712738
Het Blazoen,35,,,5242EK,Rosmalen,'s-Hertogenbosch,Noord-Brabant,VBO,5.370192,51.712747
Het Blazoen,36,,,5242EK,Rosmalen,'s-Hertogenbosch,Noord-Brabant,VBO,5.370557,51.711943
Het Blazoen,37,,,5242EK,Rosmalen,'s-Hertogenbosch,Noord-Brabant,VBO,5.370551,51.711995
Het Blazoen,38,,,5242EK,Rosmalen,'s-Hertogenbosch,Noord-Brabant,VBO,5.370561,51.712047
Het Blazoen,39,,,5242EK,Rosmalen,'s-Hertogenbosch,Noord-Brabant,VBO,5.370568,51.712098
Het Blazoen,40,,,5242EK,Rosmalen,'s-Hertogenbosch,Noord-Brabant,VBO,5.370558,51.712164
Het Blazoen,41,,,5242EK,Rosmalen,'s-Hertogenbosch,Noord-Brabant,VBO,5.370552,51.712234
Het Blazoen,42,,,5242EK,Rosmalen,'s-Hertogenbosch,Noord-Brabant,VBO,5.370562,51.712300
Het Blazoen,43,,,5242EK,Rosmalen,'s-Hertogenbosch,Noord-Brabant,VBO,5.370564,51.712349
Het Blazoen,44,,,5242EK,Rosmalen,'s-Hertogenbosch,Noord-Brabant,VBO,5.370556,51.712399
Het Blazoen,45,,,5242EK,Rosmalen,'s-Hertogenbosch,Noord-Brabant,VBO,5.370579,51.712456
Het Blazoen,46,,,5242EK,Rosmalen,'s-Hertogenbosch,Noord-Brabant,VBO,5.370492,51.712739
Het Blazoen,47,,,5242EK,Rosmalen,'s-Hertogenbosch,Noord-Brabant,VBO,5.370403,51.712742
Het Blazoen,48,,,5242EK,Rosmalen,'s-Hertogenbosch,Noord-Brabant,VBO,5.370315,51.712743
Het Blazoen,54,,,5242EK,Rosmalen,'s-Hertogenbosch,Noord-Brabant,VBO,5.370935,51.712636
Het Blazoen,55,,,5242EK,Rosmalen,'s-Hertogenbosch,Noord-Brabant,VBO,5.371068,51.712634
Het Blazoen,56,,,5242EK,Rosmalen,'s-Hertogenbosch,Noord-Brabant,VBO,5.371206,51.712637
Het Blazoen,57,,,5242EK,Rosmalen,'s-Hertogenbosch,Noord-Brabant,VBO,5.371494,51.712633
Het Blazoen,58,,,5242EK,Rosmalen,'s-Hertogenbosch,Noord-Brabant,VBO,5.371405,51.712633
Het Blazoen,59,,,5242EK,Rosmalen,'s-Hertogenbosch,Noord-Brabant,VBO,5.371315,51.712632
Jacq Perkstraat,1,,,5242GA,Rosmalen,'s-Hertogenbosch,Noord-Brabant,VBO,5.370551,51.710342
Jacq Perkstraat,3,,,5242GA,Rosmalen,'s-Hertogenbosch,Noord-Brabant,VBO,5.370457,51.710341
Jacq Perkstraat,5,,,5242GA,Rosmalen,'s-Hertogenbosch,Noord-Brabant,VBO,5.370262,51.710338
Jacq Perkstraat,7,,,5242GA,Rosmalen,'s-Hertogenbosch,Noord-Brabant,VBO,5.370167,51.710337
Jacq Perkstraat,9,,,5242GA,Rosmalen,'s-Hertogenbosch,Noord-Brabant,VBO,5.369973,51.710335
Jacq Perkstraat,11,,,5242GA,Rosmalen,'s-Hertogenbosch,Noord-Brabant,VBO,5.369879,51.710334
Jacq Perkstraat,13,,,5242GA,Rosmalen,'s-Hertogenbosch,Noord-Brabant,VBO,5.369862,51.710172
Jacq Perkstraat,15,,,5242GA,Rosmalen,'s-Hertogenbosch,Noord-Brabant,VBO,5.369957,51.710173
Jacq Perkstraat,17,,,5242GA,Rosmalen,'s-Hertogenbosch,Noord-Brabant,VBO,5.370101,51.710175
Jacq Perkstraat,19,,,5242GA,Rosmalen,'s-Hertogenbosch,Noord-Brabant,VBO,5.370195,51.710176
Jacq Perkstraat,21,,,5242GA,Rosmalen,'s-Hertogenbosch,Noord-Brabant,VBO,5.370287,51.710177
Jacq Perkstraat,23,,,5242GA,Rosmalen,'s-Hertogenbosch,Noord-Brabant,VBO,5.370380,51.710178
Jacq Perkstraat,25,,,5242GA,Rosmalen,'s-Hertogenbosch,Noord-Brabant,VBO,5.370566,51.709839
Jacq Perkstraat,27,,,5242GA,Rosmalen,'s-Hertogenbosch,Noord-Brabant,VBO,5.370474,51.709838
Jacq Perkstraat,29,,,5242GA,Rosmalen,'s-Hertogenbosch,Noord-Brabant,VBO,5.370381,51.709837
Jacq Perkstraat,31,,,5242GA,Rosmalen,'s-Hertogenbosch,Noord-Brabant,VBO,5.370286,51.709836
Jacq Perkstraat,33,,,5242GA,Rosmalen,'s-Hertogenbosch,Noord-Brabant,VBO,5.370125,51.709834
Jacq Perkstraat,35,,,5242GA,Rosmalen,'s-Hertogenbosch,Noord-Brabant,VBO,5.370031,51.709832
Jacq Perkstraat,37,,,5242GA,Rosmalen,'s-Hertogenbosch,Noord-Brabant,VBO,5.369938,51.709831
Jacq Perkstraat,39,,,5242GA,Rosmalen,'s-Hertogenbosch,Noord-Brabant,VBO,5.369845,51.709830
Jacq Perkstraat,41,,,5242GA,Rosmalen,'s-Hertogenbosch,Noord-Brabant,VBO,5.369878,51.709668
Jacq Perkstraat,43,,,5242GA,Rosmalen,'s-Hertogenbosch,Noord-Brabant,VBO,5.369973,51.709669
Jacq Perkstraat,45,,,5242GA,Rosmalen,'s-Hertogenbosch,Noord-Brabant,VBO,5.370117,51.709672
Jacq Perkstraat,47,,,5242GA,Rosmalen,'s-Hertogenbosch,Noord-Brabant,VBO,5.370210,51.709673
Jacq Perkstraat,49,,,5242GA,Rosmalen,'s-Hertogenbosch,Noord-Brabant,VBO,5.370303,51.709674
Jacq Perkstraat,51,,,5242GA,Rosmalen,'s-Hertogenbosch,Noord-Brabant,VBO,5.370397,51.709675
Jacq Perkstraat,53,,,5242GA,Rosmalen,'s-Hertogenbosch,Noord-Brabant,VBO,5.370584,51.709336
Jacq Perkstraat,55,,,5242GA,Rosmalen,'s-Hertogenbosch,Noord-Brabant,VBO,5.370489,51.709335
Jacq Perkstraat,57,,,5242GA,Rosmalen,'s-Hertogenbosch,Noord-Brabant,VBO,5.370396,51.709333
Jacq Perkstraat,59,,,5242GB,Rosmalen,'s-Hertogenbosch,Noord-Brabant,VBO,5.370304,51.709332
Jacq Perkstraat,61,,,5242GB,Rosmalen,'s-Hertogenbosch,Noord-Brabant,VBO,5.370141,51.709330
Jacq Perkstraat,63,,,5242GB,Rosmalen,'s-Hertogenbosch,Noord-Brabant,VBO,5.370046,51.709329
Jacq Perkstraat,65,,,5242GB,Rosmalen,'s-Hertogenbosch,Noord-Brabant,VBO,5.369954,51.709328
Jacq Perkstraat,67,,,5242GB,Rosmalen,'s-Hertogenbosch,Noord-Brabant,VBO,5.369861,51.709327
Jacq Perkstraat,69,,,5242GB,Rosmalen,'s-Hertogenbosch,Noord-Brabant,VBO,5.369897,51.709138
Jacq Perkstraat,71,,,5242GB,Rosmalen,'s-Hertogenbosch,Noord-Brabant,VBO,5.369993,51.709140
Jacq Perkstraat,73,,,5242GB,Rosmalen,'s-Hertogenbosch,Noord-Brabant,VBO,5.370135,51.709178
Jacq Perkstraat,75,,,5242GB,Rosmalen,'s-Hertogenbosch,Noord-Brabant,VBO,5.370228,51.709179
Jacq Perkstraat,77,,,5242GB,Rosmalen,'s-Hertogenbosch,Noord-Brabant,VBO,5.370320,51.709180
Jacq Perkstraat,79,,,5242GB,Rosmalen,'s-Hertogenbosch,Noord-Brabant,VBO,5.370415,51.709181
Jacq Perkstraat,2,,,5242GC,Rosmalen,'s-Hertogenbosch,Noord-Brabant,VBO,5.370903,51.710238
Jacq Perkstraat,4,,,5242GC,Rosmalen,'s-Hertogenbosch,Noord-Brabant,VBO,5.370995,51.710239
Jacq Perkstraat,6,,,5242GC,Rosmalen,'s-Hertogenbosch,Noord-Brabant,VBO,5.371087,51.710240
Jacq Perkstraat,8,,,5242GC,Rosmalen,'s-Hertogenbosch,Noord-Brabant,VBO,5.371179,51.710241
Jacq Perkstraat,10,,,5242GC,Rosmalen,'s-Hertogenbosch,Noord-Brabant,VBO,5.371271,51.710243
Jacq Perkstraat,12,,,5242GC,Rosmalen,'s-Hertogenbosch,Noord-Brabant,VBO,5.371311,51.710091
Jacq Perkstraat,14,,,5242GC,Rosmalen,'s-Hertogenbosch,Noord-Brabant,VBO,5.371219,51.710089
Jacq Perkstraat,16,,,5242GC,Rosmalen,'s-Hertogenbosch,Noord-Brabant,VBO,5.371125,51.710088
Jacq Perkstraat,18,,,5242GC,Rosmalen,'s-Hertogenbosch,Noord-Brabant,VBO,5.370877,51.709391
Jacq Perkstraat,20,,,5242GC,Rosmalen,'s-Hertogenbosch,Noord-Brabant,VBO,5.370923,51.709335
Stijn Streuvelslaan,1,,,5242GD,Rosmalen,'s-Hertogenbosch,Noord-Brabant,VBO,5.371538,51.710338
Stijn Streuvelslaan,2,,,5242GD,Rosmalen,'s-Hertogenbosch,Noord-Brabant,VBO,5.371889,51.710352
Stijn Streuvelslaan,3,,,5242GD,Rosmalen,'s-Hertogenbosch,Noord-Brabant,VBO,5.371578,51.710288
Stijn Streuvelslaan,4,,,5242GD,Rosmalen,'s-Hertogenbosch,Noord-Brabant,VBO,5.371930,51.710300
Stijn Streuvelslaan,5,,,5242GD,Rosmalen,'s-Hertogenbosch,Noord-Brabant,VBO,5.371620,51.710235
Stijn Streuvelslaan,6,,,5242GD,Rosmalen,'s-Hertogenbosch,Noord-Brabant,VBO,5.371971,51.710249
Stijn Streuvelslaan,7,,,5242GD,Rosmalen,'s-Hertogenbosch,Noord-Brabant,VBO,5.371592,51.710131
Stijn Streuvelslaan,8,,,5242GD,Rosmalen,'s-Hertogenbosch,Noord-Brabant,VBO,5.372012,51.710197
Stijn Streuvelslaan,9,,,5242GD,Rosmalen,'s-Hertogenbosch,Noord-Brabant,VBO,5.371634,51.710079
Stijn Streuvelslaan,10,,,5242GD,Rosmalen,'s-Hertogenbosch,Noord-Brabant,VBO,5.371932,51.710047
Stijn Streuvelslaan,11,,,5242GD,Rosmalen,'s-Hertogenbosch,Noord-Brabant,VBO,5.371675,51.710028
Stijn Streuvelslaan,12,,,5242GD,Rosmalen,'s-Hertogenbosch,Noord-Brabant,VBO,5.371975,51.709995
Stijn Streuvelslaan,13,,,5242GD,Rosmalen,'s-Hertogenbosch,Noord-Brabant,VBO,5.371674,51.709931
Stijn Streuvelslaan,14,,,5242GD,Rosmalen,'s-Hertogenbosch,Noord-Brabant,VBO,5.372016,51.709943
Stijn Streuvelslaan,15,,,5242GD,Rosmalen,'s-Hertogenbosch,Noord-Brabant,VBO,5.371716,51.709878
Stijn Streuvelslaan,16,,,5242GD,Rosmalen,'s-Hertogenbosch,Noord-Brabant,VBO,5.372055,51.709893
Stijn Streuvelslaan,17,,,5242GD,Rosmalen,'s-Hertogenbosch,Noord-Brabant,VBO,5.371377,51.709764
Stijn Streuvelslaan,19,,,5242GD,Rosmalen,'s-Hertogenbosch,Noord-Brabant,VBO,5.371286,51.709763
Stijn Streuvelslaan,21,,,5242GD,Rosmalen,'s-Hertogenbosch,Noord-Brabant,VBO,5.371195,51.709708
Stijn Streuvelslaan,23,,,5242GD,Rosmalen,'s-Hertogenbosch,Noord-Brabant,VBO,5.371104,51.709707
Stijn Streuvelslaan,25,,,5242GD,Rosmalen,'s-Hertogenbosch,Noord-Brabant,VBO,5.371017,51.709652
Stijn Streuvelslaan,27,,,5242GD,Rosmalen,'s-Hertogenbosch,Noord-Brabant,VBO,5.370922,51.709651
Hildebrandstraat,2,,,5242GE,Rosmalen,'s-Hertogenbosch,Noord-Brabant,VBO,5.372302,51.711012
Hildebrandstraat,4,,,5242GE,Rosmalen,'s-Hertogenbosch,Noord-Brabant,VBO,5.372396,51.711036
Hildebrandstraat,6,,,5242GE,Rosmalen,'s-Hertogenbosch,Noord-Brabant,VBO,5.372557,51.711097
Hildebrandstraat,8,,,5242GE,Rosmalen,'s-Hertogenbosch,Noord-Brabant,VBO,5.372650,51.711121
Hildebrandstraat,10,,,5242GE,Rosmalen,'s-Hertogenbosch,Noord-Brabant,VBO,5.372805,51.711198
Hildebrandstraat,12,,,5242GE,Rosmalen,'s-Hertogenbosch,Noord-Brabant,VBO,5.372891,51.711222
Hildebrandstraat,14,,,5242GE,Rosmalen,'s-Hertogenbosch,Noord-Brabant,VBO,5.373077,51.711253
Hildebrandstraat,16,,,5242GE,Rosmalen,'s-Hertogenbosch,Noord-Brabant,VBO,5.373170,51.711278
Hildebrandstraat,18,,,5242GE,Rosmalen,'s-Hertogenbosch,Noord-Brabant,VBO,5.373368,51.711289
Hildebrandstraat,20,,,5242GE,Rosmalen,'s-Hertogenbosch,Noord-Brabant,VBO,5.373460,51.711314
Hildebrandstraat,22,,,5242GE,Rosmalen,'s-Hertogenbosch,Noord-Brabant,VBO,5.373885,51.711143
Hildebrandstraat,24,,,5242GE,Rosmalen,'s-Hertogenbosch,Noord-Brabant,VBO,5.373928,51.711089
Hildebrandstraat,26,,,5242GE,Rosmalen,'s-Hertogenbosch,Noord-Brabant,VBO,5.374035,51.710997
Hildebrandstraat,28,,,5242GE,Rosmalen,'s-Hertogenbosch,Noord-Brabant,VBO,5.374079,51.710943
Hildebrandstraat,30,,,5242GE,Rosmalen,'s-Hertogenbosch,Noord-Brabant,VBO,5.374185,51.710851
Hildebrandstraat,32,,,5242GE,Rosmalen,'s-Hertogenbosch,Noord-Brabant,VBO,5.374229,51.710798
Hildebrandstraat,34,,,5242GE,Rosmalen,'s-Hertogenbosch,Noord-Brabant,VBO,5.374283,51.710690
Hildebrandstraat,36,,,5242GE,Rosmalen,'s-Hertogenbosch,Noord-Brabant,VBO,5.374327,51.710636
Hildebrandstraat,38,,,5242GE,Rosmalen,'s-Hertogenbosch,Noord-Brabant,VBO,5.373830,51.710602
Hildebrandstraat,40,,,5242GE,Rosmalen,'s-Hertogenbosch,Noord-Brabant,VBO,5.373743,51.710576
Hildebrandstraat,42,,,5242GE,Rosmalen,'s-Hertogenbosch,Noord-Brabant,VBO,5.373569,51.710543
Hildebrandstraat,44,,,5242GE,Rosmalen,'s-Hertogenbosch,Noord-Brabant,VBO,5.373483,51.710516
Hildebrandstraat,46,,,5242GE,Rosmalen,'s-Hertogenbosch,Noord-Brabant,VBO,5.373308,51.710483
Hildebrandstraat,48,,,5242GE,Rosmalen,'s-Hertogenbosch,Noord-Brabant,VBO,5.373221,51.710456
Hildebrandstraat,50,,,5242GE,Rosmalen,'s-Hertogenbosch,Noord-Brabant,VBO,5.372995,51.710303
Hildebrandstraat,1,,,5242GG,Rosmalen,'s-Hertogenbosch,Noord-Brabant,VBO,5.372503,51.710827
Hildebrandstraat,3,,,5242GG,Rosmalen,'s-Hertogenbosch,Noord-Brabant,VBO,5.372583,51.710852
Hildebrandstraat,5,,,5242GG,Rosmalen,'s-Hertogenbosch,Noord-Brabant,VBO,5.372708,51.710930
Hildebrandstraat,7,,,5242GG,Rosmalen,'s-Hertogenbosch,Noord-Brabant,VBO,5.372795,51.710957
Hildebrandstraat,9,,,5242GG,Rosmalen,'s-Hertogenbosch,Noord-Brabant,VBO,5.372967,51.710990
Hildebrandstraat,11,,,5242GG,Rosmalen,'s-Hertogenbosch,Noord-Brabant,VBO,5.373047,51.711015
Hildebrandstraat,13,,,5242GG,Rosmalen,'s-Hertogenbosch,Noord-Brabant,VBO,5.373226,51.711039
Hildebrandstraat,15,,,5242GG,Rosmalen,'s-Hertogenbosch,Noord-Brabant,VBO,5.373306,51.711064
Hildebrandstraat,17,,,5242GG,Rosmalen,'s-Hertogenbosch,Noord-Brabant,VBO,5.373452,51.711129
Hildebrandstraat,19,,,5242GG,Rosmalen,'s-Hertogenbosch,Noord-Brabant,VBO,5.373532,51.711154
Hildebrandstraat,21,,,5242GG,Rosmalen,'s-Hertogenbosch,Noord-Brabant,VBO,5.373781,51.710841
Hildebrandstraat,23,,,5242GG,Rosmalen,'s-Hertogenbosch,Noord-Brabant,VBO,5.373702,51.710816
Hildebrandstraat,25,,,5242GG,Rosmalen,'s-Hertogenbosch,Noord-Brabant,VBO,5.373549,51.710759
Hildebrandstraat,27,,,5242GG,Rosmalen,'s-Hertogenbosch,Noord-Brabant,VBO,5.373469,51.710735
Hildebrandstraat,29,,,5242GG,Rosmalen,'s-Hertogenbosch,Noord-Brabant,VBO,5.373291,51.710710
Hildebrandstraat,31,,,5242GG,Rosmalen,'s-Hertogenbosch,Noord-Brabant,VBO,5.373211,51.710686
Hildebrandstraat,33,,,5242GG,Rosmalen,'s-Hertogenbosch,Noord-Brabant,VBO,5.373078,51.710605
Hildebrandstraat,35,,,5242GG,Rosmalen,'s-Hertogenbosch,Noord-Brabant,VBO,5.372998,51.710580
Hildebrandstraat,37,,,5242GG,Rosmalen,'s-Hertogenbosch,Noord-Brabant,VBO,5.372829,51.710543
Willem Elsschotstraat,10,,,5242GJ,Rosmalen,'s-Hertogenbosch,Noord-Brabant,VBO,5.371511,51.711027
Willem Elsschotstraat,12,,,5242GJ,Rosmalen,'s-Hertogenbosch,Noord-Brabant,VBO,5.371576,51.711081
Willem Elsschotstraat,14,,,5242GJ,Rosmalen,'s-Hertogenbosch,Noord-Brabant,VBO,5.371576,51.711027
Willem Elsschotstraat,16,,,5242GJ,Rosmalen,'s-Hertogenbosch,Noord-Brabant,VBO,5.371576,51.710973
Willem Elsschotstraat,18,,,5242GJ,Rosmalen,'s-Hertogenbosch,Noord-Brabant,VBO,5.371576,51.710918
Willem Elsschotstraat,20,,,5242GJ,Rosmalen,'s-Hertogenbosch,Noord-Brabant,VBO,5.371830,51.711005
Willem Elsschotstraat,22,,,5242GJ,Rosmalen,'s-Hertogenbosch,Noord-Brabant,VBO,5.371869,51.710948
Willem Elsschotstraat,24,,,5242GJ,Rosmalen,'s-Hertogenbosch,Noord-Brabant,VBO,5.371889,51.710920
Willem Elsschotstraat,26,,,5242GJ,Rosmalen,'s-Hertogenbosch,Noord-Brabant,VBO,5.371920,51.710929
Willem Elsschotstraat,28,,,5242GJ,Rosmalen,'s-Hertogenbosch,Noord-Brabant,VBO,5.371900,51.710957
Willem Elsschotstraat,30,,,5242GJ,Rosmalen,'s-Hertogenbosch,Noord-Brabant,VBO,5.371880,51.710985
Willem Elsschotstraat,32,,,5242GJ,Rosmalen,'s-Hertogenbosch,Noord-Brabant,VBO,5.371861,51.711013
Willem Elsschotstraat,34,,,5242GJ,Rosmalen,'s-Hertogenbosch,Noord-Brabant,VBO,5.371911,51.710993
Willem Elsschotstraat,36,,,5242GJ,Rosmalen,'s-Hertogenbosch,Noord-Brabant,VBO,5.372070,51.710965
Willem Elsschotstraat,38,,,5242GJ,Rosmalen,'s-Hertogenbosch,Noord-Brabant,VBO,5.372031,51.711022
Willem Elsschotstraat,40,,,5242GJ,Rosmalen,'s-Hertogenbosch,Noord-Brabant,VBO,5.371965,51.711039
Willem Elsschotstraat,42,,,5242GJ,Rosmalen,'s-Hertogenbosch,Noord-Brabant,VBO,5.371984,51.711010
Willem Elsschotstraat,44,,,5242GJ,Rosmalen,'s-Hertogenbosch,Noord-Brabant,VBO,5.372004,51.710981
Willem Elsschotstraat,46,,,5242GJ,Rosmalen,'s-Hertogenbosch,Noord-Brabant,VBO,5.372024,51.710952
Willem Elsschotstraat,54,,,5242GJ,Rosmalen,'s-Hertogenbosch,Noord-Brabant,VBO,5.372700,51.710538
Willem Elsschotstraat,56,,,5242GJ,Rosmalen,'s-Hertogenbosch,Noord-Brabant,VBO,5.373005,51.710215
Willem Elsschotstraat,1,,,5242GK,Rosmalen,'s-Hertogenbosch,Noord-Brabant,VBO,5.371093,51.710570
Willem Elsschotstraat,3,,,5242GK,Rosmalen,'s-Hertogenbosch,Noord-Brabant,VBO,5.371186,51.710571
Willem Elsschotstraat,5,,,5242GK,Rosmalen,'s-Hertogenbosch,Noord-Brabant,VBO,5.371277,51.710573
Willem Elsschotstraat,7,,,5242GK,Rosmalen,'s-Hertogenbosch,Noord-Brabant,VBO,5.371368,51.710574
Willem Elsschotstraat,9,,,5242GK,Rosmalen,'s-Hertogenbosch,Noord-Brabant,VBO,5.371461,51.710575
Willem Elsschotstraat,11,,,5242GK,Rosmalen,'s-Hertogenbosch,Noord-Brabant,VBO,5.371800,51.710560
Willem Elsschotstraat,13,,,5242GK,Rosmalen,'s-Hertogenbosch,Noord-Brabant,VBO,5.371883,51.710586
Willem Elsschotstraat,15,,,5242GK,Rosmalen,'s-Hertogenbosch,Noord-Brabant,VBO,5.371967,51.710611
Willem Elsschotstraat,17,,,5242GK,Rosmalen,'s-Hertogenbosch,Noord-Brabant,VBO,5.372073,51.710608
Willem Elsschotstraat,19,,,5242GK,Rosmalen,'s-Hertogenbosch,Noord-Brabant,VBO,5.372154,51.710633
Willem Elsschotstraat,21,,,5242GK,Rosmalen,'s-Hertogenbosch,Noord-Brabant,VBO,5.372416,51.710484
Willem Elsschotstraat,23,,,5242GK,Rosmalen,'s-Hertogenbosch,Noord-Brabant,VBO,5.372458,51.710433
Willem Elsschotstraat,25,,,5242GK,Rosmalen,'s-Hertogenbosch,Noord-Brabant,VBO,5.372500,51.710380
Willem Elsschotstraat,27,,,5242GK,Rosmalen,'s-Hertogenbosch,Noord-Brabant,VBO,5.372541,51.710328
Willem Elsschotstraat,29,,,5242GK,Rosmalen,'s-Hertogenbosch,Noord-Brabant,VBO,5.372609,51.710243
Willem Elsschotstraat,31,,,5242GK,Rosmalen,'s-Hertogenbosch,Noord-Brabant,VBO,5.372650,51.710192
Willem Elsschotstraat,33,,,5242GK,Rosmalen,'s-Hertogenbosch,Noord-Brabant,VBO,5.372690,51.710140
Willem Elsschotstraat,35,,,5242GK,Rosmalen,'s-Hertogenbosch,Noord-Brabant,VBO,5.372732,51.710088
Sasseltberg,10,,,5242GL,Rosmalen,'s-Hertogenbosch,Noord-Brabant,VBO,5.376828,51.709754
Sasseltberg,22,,,5242GL,Rosmalen,'s-Hertogenbosch,Noord-Brabant,VBO,5.378444,51.708897
Sasseltberg,1,,,5242GN,Rosmalen,'s-Hertogenbosch,Noord-Brabant,VBO,5.375762,51.710127
Sasseltberg,3,,,5242GN,Rosmalen,'s-Hertogenbosch,Noord-Brabant,VBO,5.375424,51.709909
Sasseltberg,5,,,5242GN,Rosmalen,'s-Hertogenbosch,Noord-Brabant,VBO,5.375557,51.709786
Sasseltberg,7,,,5242GN,Rosmalen,'s-Hertogenbosch,Noord-Brabant,VBO,5.376011,51.709924
Sasseltberg,9,,,5242GN,Rosmalen,'s-Hertogenbosch,Noord-Brabant,VBO,5.376304,51.709687
Sasseltberg,11,,,5242GN,Rosmalen,'s-Hertogenbosch,Noord-Brabant,VBO,5.376536,51.709480
Sasseltberg,13,,,5242GN,Rosmalen,'s-Hertogenbosch,Noord-Brabant,VBO,5.377339,51.708883
Sasseltberg,15,,,5242GN,Rosmalen,'s-Hertogenbosch,Noord-Brabant,VBO,5.377737,51.708736
Sasseltberg,17,,,5242GN,Rosmalen,'s-Hertogenbosch,Noord-Brabant,VBO,5.378055,51.708643
Sportlaan,30,,,5242GP,Rosmalen,'s-Hertogenbosch,Noord-Brabant,VBO,5.374814,51.711409
Sportlaan,32,,,5242GP,Rosmalen,'s-Hertogenbosch,Noord-Brabant,VBO,5.375148,51.711092
Sportlaan,63,,,5242GP,Rosmalen,'s-Hertogenbosch,Noord-Brabant,VBO,5.374023,51.711458
Sportlaan,65,,,5242GP,Rosmalen,'s-Hertogenbosch,Noord-Brabant,VBO,5.374281,51.711341
Sportlaan,67,,,5242GP,Rosmalen,'s-Hertogenbosch,Noord-Brabant,VBO,5.374532,51.711188
Sportlaan,69,,,5242GP,Rosmalen,'s-Hertogenbosch,Noord-Brabant,VBO,5.374712,51.711035
Sportlaan,71,,,5242GP,Rosmalen,'s-Hertogenbosch,Noord-Brabant,VBO,5.374872,51.710882
Sportlaan,73,,,5242GP,Rosmalen,'s-Hertogenbosch,Noord-Brabant,VBO,5.375053,51.710720
Zandstraat,1,,,5242GR,Rosmalen,'s-Hertogenbosch,Noord-Brabant,VBO,5.375918,51.709455
Zandstraat,2,,,5242GR,Rosmalen,'s-Hertogenbosch,Noord-Brabant,VBO,5.376782,51.709139
Zandstraat,3,,,5242GR,Rosmalen,'s-Hertogenbosch,Noord-Brabant,VBO,5.376096,51.709264
Zandstraat,4,,,5242GR,Rosmalen,'s-Hertogenbosch,Noord-Brabant,VBO,5.376403,51.708997
Zandstraat,5,,,5242GR,Rosmalen,'s-Hertogenbosch,Noord-Brabant,VBO,5.375558,51.708678
Zandstraat,6,,,5242GR,Rosmalen,'s-Hertogenbosch,Noord-Brabant,VBO,5.376027,51.708878
Zandstraat,7,,,5242GR,Rosmalen,'s-Hertogenbosch,Noord-Brabant,VBO,5.375288,51.708600
Zandstraat,8,,,5242GR,Rosmalen,'s-Hertogenbosch,Noord-Brabant,VBO,5.376135,51.708616
Zandstraat,9,,,5242GR,Rosmalen,'s-Hertogenbosch,Noord-Brabant,VBO,5.375377,51.708424
Zandstraat,10,,,5242GR,Rosmalen,'s-Hertogenbosch,Noord-Brabant,VBO,5.376172,51.708558
Zandstraat,11,,,5242GR,Rosmalen,'s-Hertogenbosch,Noord-Brabant,VBO,5.375684,51.708492
Zandstraat,12,,,5242GR,Rosmalen,'s-Hertogenbosch,Noord-Brabant,VBO,5.376206,51.708441
Zandstraat,13,,,5242GR,Rosmalen,'s-Hertogenbosch,Noord-Brabant,VBO,5.375972,51.708247
Zandstraat,14,,,5242GR,Rosmalen,'s-Hertogenbosch,Noord-Brabant,VBO,5.376243,51.708382
Zandstraat,15,,,5242GR,Rosmalen,'s-Hertogenbosch,Noord-Brabant,VBO,5.376009,51.708186
Zandstraat,17,,,5242GR,Rosmalen,'s-Hertogenbosch,Noord-Brabant,VBO,5.376053,51.708072
Zandstraat,19,,,5242GR,Rosmalen,'s-Hertogenbosch,Noord-Brabant,VBO,5.376090,51.708013
Zandstraat,20,,,5242GR,Rosmalen,'s-Hertogenbosch,Noord-Brabant,VBO,5.376715,51.708169
Zandstraat,21,,,5242GR,Rosmalen,'s-Hertogenbosch,Noord-Brabant,VBO,5.376244,51.707914
Zandstraat,22,,,5242GR,Rosmalen,'s-Hertogenbosch,Noord-Brabant,VBO,5.376964,51.708271
Zandstraat,24,,,5242GR,Rosmalen,'s-Hertogenbosch,Noord-Brabant,VBO,5.377440,51.708397
Heidonk,1,,,5242GS,Rosmalen,'s-Hertogenbosch,Noord-Brabant,VBO,5.377163,51.708631
Heidonk,2,,,5242GS,Rosmalen,'s-Hertogenbosch,Noord-Brabant,VBO,5.376851,51.708748
Heidonk,3,,,5242GS,Rosmalen,'s-Hertogenbosch,Noord-Brabant,VBO,5.376657,51.708664
Heidonk,4,,,5242GS,Rosmalen,'s-Hertogenbosch,Noord-Brabant,VBO,5.376758,51.708537
Molenstraat,2,,,5242HA,Rosmalen,'s-Hertogenbosch,Noord-Brabant,VBO,5.361912,51.711709
Molenstraat,6,,,5242HA,Rosmalen,'s-Hertogenbosch,Noord-Brabant,VBO,5.361912,51.711709
Molenstraat,9,,,5242HA,Rosmalen,'s-Hertogenbosch,Noord-Brabant,VBO,5.361311,51.711691
Molenstraat,12,A,,5242HA,Rosmalen,'s-Hertogenbosch,Noord-Brabant,VBO,5.361890,51.711195
Molenstraat,12,B,,5242HA,Rosmalen,'s-Hertogenbosch,Noord-Brabant,VBO,5.361896,51.711131
Molenstraat,12,,,5242HA,Rosmalen,'s-Hertogenbosch,Noord-Brabant,VBO,5.361856,51.711340
Molenstraat,13,,,5242HA,Rosmalen,'s-Hertogenbosch,Noord-Brabant,VBO,5.361363,51.711254
Molenstraat,14,,,5242HA,Rosmalen,'s-Hertogenbosch,Noord-Brabant,VBO,5.361790,51.710925
Molenstraat,15,A,,5242HA,Rosmalen,'s-Hertogenbosch,Noord-Brabant,VBO,5.361466,51.710818
Molenstraat,15,,,5242HA,Rosmalen,'s-Hertogenbosch,Noord-Brabant,VBO,5.361373,51.711072
Molenstraat,16,,,5242HA,Rosmalen,'s-Hertogenbosch,Noord-Brabant,VBO,5.361812,51.710805
Molenstraat,18,,,5242HA,Rosmalen,'s-Hertogenbosch,Noord-Brabant,VBO,5.361844,51.710651
Molenstraat,20,,,5242HA,Rosmalen,'s-Hertogenbosch,Noord-Brabant,VBO,5.361868,51.710441
Molenstraat,22,,,5242HA,Rosmalen,'s-Hertogenbosch,Noord-Brabant,VBO,5.361881,51.710273
Molenstraat,24,,,5242HA,Rosmalen,'s-Hertogenbosch,Noord-Brabant,VBO,5.361897,51.710119
Molenstraat,26,A,,5242HA,Rosmalen,'s-Hertogenbosch,Noord-Brabant,VBO,5.361914,51.709886
Molenstraat,26,,,5242HA,Rosmalen,'s-Hertogenbosch,Noord-Brabant,VBO,5.361902,51.710016
Molenstraat,28,,,5242HA,Rosmalen,'s-Hertogenbosch,Noord-Brabant,VBO,5.361927,51.709746
Molenstraat,30,,,5242HA,Rosmalen,'s-Hertogenbosch,Noord-Brabant,VBO,5.361942,51.709601
Molenstraat,34,,,5242HA,Rosmalen,'s-Hertogenbosch,Noord-Brabant,VBO,5.362001,51.709247
Molenstraat,35,,,5242HA,Rosmalen,'s-Hertogenbosch,Noord-Brabant,VBO,5.361273,51.707958
Molenstraat,40,A,,5242HA,Rosmalen,'s-Hertogenbosch,Noord-Brabant,VBO,5.362152,51.708042
Molenstraat,40,B,,5242HA,Rosmalen,'s-Hertogenbosch,Noord-Brabant,VBO,5.362145,51.707930
Molenstraat,40,C,,5242HA,Rosmalen,'s-Hertogenbosch,Noord-Brabant,VBO,5.362216,51.708153
Molenstraat,40,D,,5242HA,Rosmalen,'s-Hertogenbosch,Noord-Brabant,VBO,5.362209,51.708041
Molenstraat,40,E,,5242HA,Rosmalen,'s-Hertogenbosch,Noord-Brabant,VBO,5.362203,51.707929
Molenstraat,40,F,,5242HA,Rosmalen,'s-Hertogenbosch,Noord-Brabant,VBO,5.362274,51.708152
Molenstraat,40,G,,5242HA,Rosmalen,'s-Hertogenbosch,Noord-Brabant,VBO,5.362267,51.708039
Molenstraat,40,,,5242HA,Rosmalen,'s-Hertogenbosch,Noord-Brabant,VBO,5.362158,51.708154
Molenstraat,46,,,5242HA,Rosmalen,'s-Hertogenbosch,Noord-Brabant,VBO,5.362095,51.706228
Molenstraat,48,,,5242HA,Rosmalen,'s-Hertogenbosch,Noord-Brabant,VBO,5.362283,51.705315
Molenstraat,50,,,5242HA,Rosmalen,'s-Hertogenbosch,Noord-Brabant,VBO,5.362294,51.704643
Diepenbrocklaan,1,,,5242HB,Rosmalen,'s-Hertogenbosch,Noord-Brabant,VBO,5.362403,51.704993
Diepenbrocklaan,2,,,5242HB,Rosmalen,'s-Hertogenbosch,Noord-Brabant,VBO,5.363189,51.705444
Diepenbrocklaan,3,,,5242HB,Rosmalen,'s-Hertogenbosch,Noord-Brabant,VBO,5.362876,51.705048
Diepenbrocklaan,4,,,5242HB,Rosmalen,'s-Hertogenbosch,Noord-Brabant,VBO,5.363738,51.705639
Diepenbrocklaan,5,,,5242HB,Rosmalen,'s-Hertogenbosch,Noord-Brabant,VBO,5.363208,51.705164
Diepenbrocklaan,6,,,5242HB,Rosmalen,'s-Hertogenbosch,Noord-Brabant,VBO,5.364351,51.705863
Diepenbrocklaan,7,,,5242HB,Rosmalen,'s-Hertogenbosch,Noord-Brabant,VBO,5.363680,51.705256
Diepenbrocklaan,8,,,5242HB,Rosmalen,'s-Hertogenbosch,Noord-Brabant,VBO,5.365198,51.706238
Diepenbrocklaan,9,,,5242HB,Rosmalen,'s-Hertogenbosch,Noord-Brabant,VBO,5.363977,51.705405
Diepenbrocklaan,10,,,5242HB,Rosmalen,'s-Hertogenbosch,Noord-Brabant,VBO,5.366129,51.706519
Diepenbrocklaan,11,,,5242HB,Rosmalen,'s-Hertogenbosch,Noord-Brabant,VBO,5.364334,51.705540
Diepenbrocklaan,12,,,5242HB,Rosmalen,'s-Hertogenbosch,Noord-Brabant,VBO,5.366415,51.706681
Diepenbrocklaan,13,,,5242HB,Rosmalen,'s-Hertogenbosch,Noord-Brabant,VBO,5.364752,51.705709
Diepenbrocklaan,14,,,5242HB,Rosmalen,'s-Hertogenbosch,Noord-Brabant,VBO,5.366597,51.706732
Diepenbrocklaan,15,,,5242HB,Rosmalen,'s-Hertogenbosch,Noord-Brabant,VBO,5.365337,51.705939
Diepenbrocklaan,17,,,5242HB,Rosmalen,'s-Hertogenbosch,Noord-Brabant,VBO,5.365633,51.706058
Diepenbrocklaan,21,,,5242HB,Rosmalen,'s-Hertogenbosch,Noord-Brabant,VBO,5.366853,51.706468
Diepenbrocklaan,23,,,5242HB,Rosmalen,'s-Hertogenbosch,Noord-Brabant,VBO,5.367480,51.706651
Haydnlaan,1,,,5242HC,Rosmalen,'s-Hertogenbosch,Noord-Brabant,VBO,5.367829,51.706836
Haydnlaan,2,,,5242HC,Rosmalen,'s-Hertogenbosch,Noord-Brabant,VBO,5.368350,51.707402
Haydnlaan,3,,,5242HC,Rosmalen,'s-Hertogenbosch,Noord-Brabant,VBO,5.368662,51.706687
Haydnlaan,4,,,5242HC,Rosmalen,'s-Hertogenbosch,Noord-Brabant,VBO,5.368608,51.707095
Haydnlaan,5,,,5242HC,Rosmalen,'s-Hertogenbosch,Noord-Brabant,VBO,5.369690,51.706561
Vivaldilaan,1,,,5242HD,Rosmalen,'s-Hertogenbosch,Noord-Brabant,VBO,5.369435,51.707229
Vivaldilaan,2,,,5242HD,Rosmalen,'s-Hertogenbosch,Noord-Brabant,VBO,5.369052,51.707336
Vivaldilaan,3,,,5242HD,Rosmalen,'s-Hertogenbosch,Noord-Brabant,VBO,5.369635,51.707265
Vivaldilaan,4,,,5242HD,Rosmalen,'s-Hertogenbosch,Noord-Brabant,VBO,5.368822,51.707551
Vivaldilaan,5,,,5242HD,Rosmalen,'s-Hertogenbosch,Noord-Brabant,VBO,5.369843,51.707303
Vivaldilaan,6,,,5242HD,Rosmalen,'s-Hertogenbosch,Noord-Brabant,VBO,5.368678,51.707842
Vivaldilaan,7,,,5242HD,Rosmalen,'s-Hertogenbosch,Noord-Brabant,VBO,5.370051,51.707341
Vivaldilaan,8,,,5242HD,Rosmalen,'s-Hertogenbosch,Noord-Brabant,VBO,5.368552,51.707821
Vivaldilaan,9,,,5242HD,Rosmalen,'s-Hertogenbosch,Noord-Brabant,VBO,5.369973,51.707547
Vivaldilaan,10,,,5242HD,Rosmalen,'s-Hertogenbosch,Noord-Brabant,VBO,5.368425,51.707800
Vivaldilaan,11,,,5242HD,Rosmalen,'s-Hertogenbosch,Noord-Brabant,VBO,5.369879,51.707530
Vivaldilaan,12,,,5242HD,Rosmalen,'s-Hertogenbosch,Noord-Brabant,VBO,5.368299,51.707780
Vivaldilaan,13,,,5242HD,Rosmalen,'s-Hertogenbosch,Noord-Brabant,VBO,5.369695,51.707496
Vivaldilaan,14,,,5242HD,Rosmalen,'s-Hertogenbosch,Noord-Brabant,VBO,5.368170,51.707757
Vivaldilaan,15,,,5242HD,Rosmalen,'s-Hertogenbosch,Noord-Brabant,VBO,5.369598,51.707478
Vivaldilaan,16,,,5242HD,Rosmalen,'s-Hertogenbosch,Noord-Brabant,VBO,5.368035,51.707784
Vivaldilaan,17,,,5242HD,Rosmalen,'s-Hertogenbosch,Noord-Brabant,VBO,5.369410,51.707458
Vivaldilaan,18,,,5242HD,Rosmalen,'s-Hertogenbosch,Noord-Brabant,VBO,5.367945,51.707851
Vivaldilaan,19,,,5242HD,Rosmalen,'s-Hertogenbosch,Noord-Brabant,VBO,5.369316,51.707441
Vivaldilaan,20,,,5242HD,Rosmalen,'s-Hertogenbosch,Noord-Brabant,VBO,5.367927,51.707937
Vivaldilaan,21,,,5242HD,Rosmalen,'s-Hertogenbosch,Noord-Brabant,VBO,5.369160,51.707772
Vivaldilaan,22,,,5242HD,Rosmalen,'s-Hertogenbosch,Noord-Brabant,VBO,5.367991,51.708018
Vivaldilaan,23,,,5242HD,Rosmalen,'s-Hertogenbosch,Noord-Brabant,VBO,5.369257,51.707789
Vivaldilaan,24,,,5242HD,Rosmalen,'s-Hertogenbosch,Noord-Brabant,VBO,5.368108,51.708062
Vivaldilaan,25,,,5242HD,Rosmalen,'s-Hertogenbosch,Noord-Brabant,VBO,5.369452,51.707801
Vivaldilaan,26,,,5242HD,Rosmalen,'s-Hertogenbosch,Noord-Brabant,VBO,5.368245,51.708059
Vivaldilaan,27,,,5242HD,Rosmalen,'s-Hertogenbosch,Noord-Brabant,VBO,5.369542,51.707818
Vivaldilaan,28,,,5242HD,Rosmalen,'s-Hertogenbosch,Noord-Brabant,VBO,5.368375,51.708057
Vivaldilaan,29,,,5242HD,Rosmalen,'s-Hertogenbosch,Noord-Brabant,VBO,5.369730,51.707851
Vivaldilaan,30,,,5242HD,Rosmalen,'s-Hertogenbosch,Noord-Brabant,VBO,5.368506,51.708054
Vivaldilaan,31,,,5242HD,Rosmalen,'s-Hertogenbosch,Noord-Brabant,VBO,5.369820,51.707867
Vivaldilaan,32,,,5242HD,Rosmalen,'s-Hertogenbosch,Noord-Brabant,VBO,5.368639,51.708052
Vivaldilaan,33,,,5242HD,Rosmalen,'s-Hertogenbosch,Noord-Brabant,VBO,5.369767,51.708115
Vivaldilaan,35,,,5242HD,Rosmalen,'s-Hertogenbosch,Noord-Brabant,VBO,5.369666,51.708111
Vivaldilaan,37,,,5242HD,Rosmalen,'s-Hertogenbosch,Noord-Brabant,VBO,5.369480,51.708091
Vivaldilaan,39,,,5242HD,Rosmalen,'s-Hertogenbosch,Noord-Brabant,VBO,5.369379,51.708087
Vivaldilaan,41,,,5242HD,Rosmalen,'s-Hertogenbosch,Noord-Brabant,VBO,5.369191,51.708080
Vivaldilaan,43,,,5242HD,Rosmalen,'s-Hertogenbosch,Noord-Brabant,VBO,5.369090,51.708075
Vivaldilaan,45,,,5242HD,Rosmalen,'s-Hertogenbosch,Noord-Brabant,VBO,5.368899,51.708080
Sweelincklaan,3,,,5242HE,Rosmalen,'s-Hertogenbosch,Noord-Brabant,VBO,5.366917,51.708149
Sweelincklaan,4,,,5242HE,Rosmalen,'s-Hertogenbosch,Noord-Brabant,VBO,5.367409,51.708062
Sweelincklaan,5,,,5242HE,Rosmalen,'s-Hertogenbosch,Noord-Brabant,VBO,5.366924,51.707974
Sweelincklaan,6,,,5242HE,Rosmalen,'s-Hertogenbosch,Noord-Brabant,VBO,5.367392,51.707847
Sweelincklaan,7,,,5242HE,Rosmalen,'s-Hertogenbosch,Noord-Brabant,VBO,5.366926,51.707786
Sweelincklaan,8,,,5242HE,Rosmalen,'s-Hertogenbosch,Noord-Brabant,VBO,5.367402,51.707612
Sweelincklaan,9,,,5242HE,Rosmalen,'s-Hertogenbosch,Noord-Brabant,VBO,5.367007,51.707577
Sweelincklaan,10,,,5242HE,Rosmalen,'s-Hertogenbosch,Noord-Brabant,VBO,5.367403,51.707363
Sweelincklaan,11,,,5242HE,Rosmalen,'s-Hertogenbosch,Noord-Brabant,VBO,5.367034,51.707163
Sweelincklaan,12,,,5242HE,Rosmalen,'s-Hertogenbosch,Noord-Brabant,VBO,5.367392,51.707171
Sweelincklaan,13,,,5242HE,Rosmalen,'s-Hertogenbosch,Noord-Brabant,VBO,5.366999,51.706856
Rossinilaan,1,,,5242HG,Rosmalen,'s-Hertogenbosch,Noord-Brabant,VBO,5.366329,51.707192
Rossinilaan,2,,,5242HG,Rosmalen,'s-Hertogenbosch,Noord-Brabant,VBO,5.366296,51.707407
Rossinilaan,3,,,5242HG,Rosmalen,'s-Hertogenbosch,Noord-Brabant,VBO,5.366625,51.707201
Rossinilaan,4,,,5242HG,Rosmalen,'s-Hertogenbosch,Noord-Brabant,VBO,5.366625,51.707418
Debussylaan,1,,,5242HH,Rosmalen,'s-Hertogenbosch,Noord-Brabant,VBO,5.365341,51.708292
Debussylaan,3,,,5242HH,Rosmalen,'s-Hertogenbosch,Noord-Brabant,VBO,5.365333,51.708157
Debussylaan,5,,,5242HH,Rosmalen,'s-Hertogenbosch,Noord-Brabant,VBO,5.365326,51.708022
Debussylaan,7,,,5242HH,Rosmalen,'s-Hertogenbosch,Noord-Brabant,VBO,5.365319,51.707888
Debussylaan,9,,,5242HH,Rosmalen,'s-Hertogenbosch,Noord-Brabant,VBO,5.365312,51.707753
Debussylaan,11,,,5242HH,Rosmalen,'s-Hertogenbosch,Noord-Brabant,VBO,5.365305,51.707618
Debussylaan,13,,,5242HH,Rosmalen,'s-Hertogenbosch,Noord-Brabant,VBO,5.365298,51.707483
Debussylaan,15,,,5242HH,Rosmalen,'s-Hertogenbosch,Noord-Brabant,VBO,5.365107,51.707359
Debussylaan,17,,,5242HH,Rosmalen,'s-Hertogenbosch,Noord-Brabant,VBO,5.365105,51.707295
Debussylaan,21,,,5242HH,Rosmalen,'s-Hertogenbosch,Noord-Brabant,VBO,5.365543,51.706401
Debussylaan,2,,,5242HJ,Rosmalen,'s-Hertogenbosch,Noord-Brabant,VBO,5.365855,51.708487
Debussylaan,4,,,5242HJ,Rosmalen,'s-Hertogenbosch,Noord-Brabant,VBO,5.365845,51.708337
Debussylaan,6,,,5242HJ,Rosmalen,'s-Hertogenbosch,Noord-Brabant,VBO,5.365831,51.708166
Debussylaan,8,,,5242HJ,Rosmalen,'s-Hertogenbosch,Noord-Brabant,VBO,5.365825,51.708102
Debussylaan,10,,,5242HJ,Rosmalen,'s-Hertogenbosch,Noord-Brabant,VBO,5.365813,51.707951
Debussylaan,12,,,5242HJ,Rosmalen,'s-Hertogenbosch,Noord-Brabant,VBO,5.365808,51.707887
Debussylaan,14,,,5242HJ,Rosmalen,'s-Hertogenbosch,Noord-Brabant,VBO,5.365795,51.707735
Debussylaan,16,,,5242HJ,Rosmalen,'s-Hertogenbosch,Noord-Brabant,VBO,5.365790,51.707670
Debussylaan,18,,,5242HJ,Rosmalen,'s-Hertogenbosch,Noord-Brabant,VBO,5.365777,51.707520
Debussylaan,20,,,5242HJ,Rosmalen,'s-Hertogenbosch,Noord-Brabant,VBO,5.365772,51.707456
Debussylaan,22,,,5242HJ,Rosmalen,'s-Hertogenbosch,Noord-Brabant,VBO,5.365830,51.707176
Debussylaan,24,,,5242HJ,Rosmalen,'s-Hertogenbosch,Noord-Brabant,VBO,5.365803,51.707052
Debussylaan,26,,,5242HJ,Rosmalen,'s-Hertogenbosch,Noord-Brabant,VBO,5.365777,51.706935
Wagnerlaan,1,,,5242HK,Rosmalen,'s-Hertogenbosch,Noord-Brabant,VBO,5.364141,51.706503
Wagnerlaan,2,,,5242HK,Rosmalen,'s-Hertogenbosch,Noord-Brabant,VBO,5.364466,51.706342
Wagnerlaan,4,,,5242HK,Rosmalen,'s-Hertogenbosch,Noord-Brabant,VBO,5.364687,51.706111
Beethovenlaan,1,,,5242HL,Rosmalen,'s-Hertogenbosch,Noord-Brabant,VBO,5.362301,51.705714
Beethovenlaan,2,,,5242HL,Rosmalen,'s-Hertogenbosch,Noord-Brabant,VBO,5.362177,51.705987
Beethovenlaan,3,,,5242HL,Rosmalen,'s-Hertogenbosch,Noord-Brabant,VBO,5.362940,51.705840
Beethovenlaan,4,,,5242HL,Rosmalen,'s-Hertogenbosch,Noord-Brabant,VBO,5.362699,51.706104
Beethovenlaan,5,,,5242HL,Rosmalen,'s-Hertogenbosch,Noord-Brabant,VBO,5.363485,51.705970
Beethovenlaan,6,,,5242HL,Rosmalen,'s-Hertogenbosch,Noord-Brabant,VBO,5.363144,51.706183
Beethovenlaan,7,,,5242HL,Rosmalen,'s-Hertogenbosch,Noord-Brabant,VBO,5.364084,51.706105
Beethovenlaan,8,,,5242HL,Rosmalen,'s-Hertogenbosch,Noord-Brabant,VBO,5.363529,51.706221
Beethovenlaan,10,,,5242HL,Rosmalen,'s-Hertogenbosch,Noord-Brabant,VBO,5.363988,51.706327
Chopinlaan,1,,,5242HM,Rosmalen,'s-Hertogenbosch,Noord-Brabant,VBO,5.362128,51.706543
Chopinlaan,3,,,5242HM,Rosmalen,'s-Hertogenbosch,Noord-Brabant,VBO,5.362429,51.706566
Chopinlaan,5,,,5242HM,Rosmalen,'s-Hertogenbosch,Noord-Brabant,VBO,5.362532,51.706574
Chopinlaan,6,,,5242HM,Rosmalen,'s-Hertogenbosch,Noord-Brabant,VBO,5.363541,51.706981
Chopinlaan,7,,,5242HM,Rosmalen,'s-Hertogenbosch,Noord-Brabant,VBO,5.362733,51.706588
Chopinlaan,8,,,5242HM,Rosmalen,'s-Hertogenbosch,Noord-Brabant,VBO,5.363654,51.706986
Chopinlaan,9,,,5242HM,Rosmalen,'s-Hertogenbosch,Noord-Brabant,VBO,5.362836,51.706595
Chopinlaan,10,,,5242HM,Rosmalen,'s-Hertogenbosch,Noord-Brabant,VBO,5.363865,51.706994
Chopinlaan,11,,,5242HM,Rosmalen,'s-Hertogenbosch,Noord-Brabant,VBO,5.363042,51.706609
Chopinlaan,12,,,5242HM,Rosmalen,'s-Hertogenbosch,Noord-Brabant,VBO,5.363978,51.706998
Chopinlaan,13,,,5242HM,Rosmalen,'s-Hertogenbosch,Noord-Brabant,VBO,5.363145,51.706616
Chopinlaan,14,,,5242HM,Rosmalen,'s-Hertogenbosch,Noord-Brabant,VBO,5.364266,51.707010
Chopinlaan,15,,,5242HM,Rosmalen,'s-Hertogenbosch,Noord-Brabant,VBO,5.363345,51.706630
Chopinlaan,16,,,5242HM,Rosmalen,'s-Hertogenbosch,Noord-Brabant,VBO,5.364358,51.707024
Chopinlaan,17,,,5242HM,Rosmalen,'s-Hertogenbosch,Noord-Brabant,VBO,5.363448,51.706637
Chopinlaan,19,,,5242HM,Rosmalen,'s-Hertogenbosch,Noord-Brabant,VBO,5.363651,51.706652
Chopinlaan,21,,,5242HM,Rosmalen,'s-Hertogenbosch,Noord-Brabant,VBO,5.363754,51.706659
Chopinlaan,23,,,5242HM,Rosmalen,'s-Hertogenbosch,Noord-Brabant,VBO,5.363955,51.706673
Chopinlaan,25,,,5242HM,Rosmalen,'s-Hertogenbosch,Noord-Brabant,VBO,5.364057,51.706680
Chopinlaan,27,,,5242HM,Rosmalen,'s-Hertogenbosch,Noord-Brabant,VBO,5.364422,51.706705
Chopinlaan,29,,,5242HM,Rosmalen,'s-Hertogenbosch,Noord-Brabant,VBO,5.364525,51.706713
Chopinlaan,31,,,5242HM,Rosmalen,'s-Hertogenbosch,Noord-Brabant,VBO,5.364726,51.706727
Chopinlaan,33,,,5242HM,Rosmalen,'s-Hertogenbosch,Noord-Brabant,VBO,5.364829,51.706734
Chopinlaan,35,,,5242HM,Rosmalen,'s-Hertogenbosch,Noord-Brabant,VBO,5.365074,51.706748
Schubertlaan,1,,,5242HN,Rosmalen,'s-Hertogenbosch,Noord-Brabant,VBO,5.364430,51.707953
Schubertlaan,2,,,5242HN,Rosmalen,'s-Hertogenbosch,Noord-Brabant,VBO,5.364687,51.708165
Schubertlaan,3,,,5242HN,Rosmalen,'s-Hertogenbosch,Noord-Brabant,VBO,5.364347,51.707520
Schubertlaan,4,,,5242HN,Rosmalen,'s-Hertogenbosch,Noord-Brabant,VBO,5.364724,51.707995
Schubertlaan,5,,,5242HN,Rosmalen,'s-Hertogenbosch,Noord-Brabant,VBO,5.364344,51.707462
Schubertlaan,6,,,5242HN,Rosmalen,'s-Hertogenbosch,Noord-Brabant,VBO,5.364722,51.707928
Schubertlaan,7,,,5242HN,Rosmalen,'s-Hertogenbosch,Noord-Brabant,VBO,5.364338,51.707347
Schubertlaan,8,,,5242HN,Rosmalen,'s-Hertogenbosch,Noord-Brabant,VBO,5.364717,51.707795
Schubertlaan,9,,,5242HN,Rosmalen,'s-Hertogenbosch,Noord-Brabant,VBO,5.364335,51.707289
Schubertlaan,10,,,5242HN,Rosmalen,'s-Hertogenbosch,Noord-Brabant,VBO,5.364706,51.707723
Schubertlaan,12,,,5242HN,Rosmalen,'s-Hertogenbosch,Noord-Brabant,VBO,5.364715,51.707589
Schubertlaan,14,,,5242HN,Rosmalen,'s-Hertogenbosch,Noord-Brabant,VBO,5.364693,51.707520
Bartholdylaan,1,,,5242HP,Rosmalen,'s-Hertogenbosch,Noord-Brabant,VBO,5.363674,51.707731
Bartholdylaan,2,,,5242HP,Rosmalen,'s-Hertogenbosch,Noord-Brabant,VBO,5.363754,51.707942
Bartholdylaan,3,,,5242HP,Rosmalen,'s-Hertogenbosch,Noord-Brabant,VBO,5.363764,51.707729
Bartholdylaan,4,,,5242HP,Rosmalen,'s-Hertogenbosch,Noord-Brabant,VBO,5.363959,51.707930
Bartholdylaan,5,,,5242HP,Rosmalen,'s-Hertogenbosch,Noord-Brabant,VBO,5.363940,51.707726
Bartholdylaan,6,,,5242HP,Rosmalen,'s-Hertogenbosch,Noord-Brabant,VBO,5.364069,51.707940
Bartholdylaan,7,,,5242HP,Rosmalen,'s-Hertogenbosch,Noord-Brabant,VBO,5.364030,51.707724
Bartholdylaan,8,,,5242HP,Rosmalen,'s-Hertogenbosch,Noord-Brabant,VBO,5.364275,51.707936
Bartholdylaan,9,,,5242HP,Rosmalen,'s-Hertogenbosch,Noord-Brabant,VBO,5.364206,51.707720
Bartholdylaan,11,,,5242HP,Rosmalen,'s-Hertogenbosch,Noord-Brabant,VBO,5.364296,51.707719
Mozartlaan,1,,,5242HR,Rosmalen,'s-Hertogenbosch,Noord-Brabant,VBO,5.363158,51.707902
Mozartlaan,2,,,5242HR,Rosmalen,'s-Hertogenbosch,Noord-Brabant,VBO,5.363605,51.707970
Mozartlaan,3,,,5242HR,Rosmalen,'s-Hertogenbosch,Noord-Brabant,VBO,5.363158,51.707844
Mozartlaan,4,,,5242HR,Rosmalen,'s-Hertogenbosch,Noord-Brabant,VBO,5.363602,51.707535
Mozartlaan,5,,,5242HR,Rosmalen,'s-Hertogenbosch,Noord-Brabant,VBO,5.363156,51.707729
Mozartlaan,6,,,5242HR,Rosmalen,'s-Hertogenbosch,Noord-Brabant,VBO,5.363599,51.707477
Mozartlaan,7,,,5242HR,Rosmalen,'s-Hertogenbosch,Noord-Brabant,VBO,5.363156,51.707671
Mozartlaan,8,,,5242HR,Rosmalen,'s-Hertogenbosch,Noord-Brabant,VBO,5.363593,51.707363
Mozartlaan,9,,,5242HR,Rosmalen,'s-Hertogenbosch,Noord-Brabant,VBO,5.363154,51.707557
Mozartlaan,10,,,5242HR,Rosmalen,'s-Hertogenbosch,Noord-Brabant,VBO,5.363590,51.707305
Mozartlaan,11,A,,5242HR,Rosmalen,'s-Hertogenbosch,Noord-Brabant,VBO,5.363132,51.707314
Mozartlaan,11,,,5242HR,Rosmalen,'s-Hertogenbosch,Noord-Brabant,VBO,5.363154,51.707499
Mozartlaan,13,,,5242HR,Rosmalen,'s-Hertogenbosch,Noord-Brabant,VBO,5.362465,51.707385
Mozartlaan,15,,,5242HR,Rosmalen,'s-Hertogenbosch,Noord-Brabant,VBO,5.362968,51.707016
Mozartlaan,17,,,5242HR,Rosmalen,'s-Hertogenbosch,Noord-Brabant,VBO,5.362968,51.707016
Oude Baan,2,A,,5242HS,Rosmalen,'s-Hertogenbosch,Noord-Brabant,VBO,5.362178,51.708782
Oude Baan,2,B,,5242HS,Rosmalen,'s-Hertogenbosch,Noord-Brabant,VBO,5.362247,51.708783
Oude Baan,2,C,,5242HS,Rosmalen,'s-Hertogenbosch,Noord-Brabant,VBO,5.362315,51.708783
Oude Baan,2,D,,5242HS,Rosmalen,'s-Hertogenbosch,Noord-Brabant,VBO,5.362384,51.708784
Oude Baan,2,E,,5242HS,Rosmalen,'s-Hertogenbosch,Noord-Brabant,VBO,5.362452,51.708785
Oude Baan,2,F,,5242HS,Rosmalen,'s-Hertogenbosch,Noord-Brabant,VBO,5.362520,51.708786
Oude Baan,2,G,,5242HS,Rosmalen,'s-Hertogenbosch,Noord-Brabant,VBO,5.362589,51.708786
Oude Baan,2,H,,5242HS,Rosmalen,'s-Hertogenbosch,Noord-Brabant,VBO,5.362109,51.708805
Oude Baan,2,K,,5242HS,Rosmalen,'s-Hertogenbosch,Noord-Brabant,VBO,5.362178,51.708806
Oude Baan,2,L,,5242HS,Rosmalen,'s-Hertogenbosch,Noord-Brabant,VBO,5.362246,51.708806
Oude Baan,2,N,,5242HS,Rosmalen,'s-Hertogenbosch,Noord-Brabant,VBO,5.362314,51.708807
Oude Baan,2,P,,5242HS,Rosmalen,'s-Hertogenbosch,Noord-Brabant,VBO,5.362383,51.708808
Oude Baan,2,R,,5242HS,Rosmalen,'s-Hertogenbosch,Noord-Brabant,VBO,5.362451,51.708809
Oude Baan,2,T,,5242HS,Rosmalen,'s-Hertogenbosch,Noord-Brabant,VBO,5.362519,51.708810
Oude Baan,2,,,5242HS,Rosmalen,'s-Hertogenbosch,Noord-Brabant,VBO,5.362451,51.708809
Oude Baan,4,A,,5242HS,Rosmalen,'s-Hertogenbosch,Noord-Brabant,VBO,5.362588,51.708810
Oude Baan,4,B,,5242HS,Rosmalen,'s-Hertogenbosch,Noord-Brabant,VBO,5.362109,51.708829
Oude Baan,4,C,,5242HS,Rosmalen,'s-Hertogenbosch,Noord-Brabant,VBO,5.362177,51.708830
Oude Baan,4,D,,5242HS,Rosmalen,'s-Hertogenbosch,Noord-Brabant,VBO,5.362245,51.708830
Oude Baan,4,E,,5242HS,Rosmalen,'s-Hertogenbosch,Noord-Brabant,VBO,5.362314,51.708831
Oude Baan,4,F,,5242HS,Rosmalen,'s-Hertogenbosch,Noord-Brabant,VBO,5.362382,51.708832
Oude Baan,4,G,,5242HS,Rosmalen,'s-Hertogenbosch,Noord-Brabant,VBO,5.362450,51.708833
Oude Baan,4,H,,5242HS,Rosmalen,'s-Hertogenbosch,Noord-Brabant,VBO,5.362519,51.708834
Oude Baan,4,K,,5242HS,Rosmalen,'s-Hertogenbosch,Noord-Brabant,VBO,5.362587,51.708834
Oude Baan,6,A,,5242HS,Rosmalen,'s-Hertogenbosch,Noord-Brabant,VBO,5.362861,51.708766
Oude Baan,6,B,,5242HS,Rosmalen,'s-Hertogenbosch,Noord-Brabant,VBO,5.363145,51.708772
Oude Baan,8,,,5242HS,Rosmalen,'s-Hertogenbosch,Noord-Brabant,VBO,5.363921,51.708786
Oude Baan,10,,,5242HS,Rosmalen,'s-Hertogenbosch,Noord-Brabant,VBO,5.364012,51.708997
Oude Baan,12,,,5242HS,Rosmalen,'s-Hertogenbosch,Noord-Brabant,VBO,5.364255,51.708806
Oude Baan,14,,,5242HS,Rosmalen,'s-Hertogenbosch,Noord-Brabant,VBO,5.364432,51.708805
Oude Baan,16,,,5242HS,Rosmalen,'s-Hertogenbosch,Noord-Brabant,VBO,5.364688,51.708803
Oude Baan,18,,,5242HS,Rosmalen,'s-Hertogenbosch,Noord-Brabant,VBO,5.364920,51.708808
Oude Baan,20,,,5242HS,Rosmalen,'s-Hertogenbosch,Noord-Brabant,VBO,5.366292,51.708772
Oude Baan,26,A,,5242HS,Rosmalen,'s-Hertogenbosch,Noord-Brabant,VBO,5.367371,51.708899
Oude Baan,26,,,5242HS,Rosmalen,'s-Hertogenbosch,Noord-Brabant,VBO,5.367351,51.708735
Oude Baan,28,,,5242HS,Rosmalen,'s-Hertogenbosch,Noord-Brabant,VBO,5.367566,51.708729
Oude Baan,1,,,5242HT,Rosmalen,'s-Hertogenbosch,Noord-Brabant,VBO,5.362963,51.708404
Oude Baan,3,A,,5242HT,Rosmalen,'s-Hertogenbosch,Noord-Brabant,VBO,5.363692,51.708352
Oude Baan,3,,,5242HT,Rosmalen,'s-Hertogenbosch,Noord-Brabant,VBO,5.363638,51.708354
Oude Baan,5,A,,5242HT,Rosmalen,'s-Hertogenbosch,Noord-Brabant,VBO,5.363812,51.708296
Oude Baan,5,,,5242HT,Rosmalen,'s-Hertogenbosch,Noord-Brabant,VBO,5.363816,51.708350
Oude Baan,7,A,,5242HT,Rosmalen,'s-Hertogenbosch,Noord-Brabant,VBO,5.364005,51.708365
Oude Baan,7,,,5242HT,Rosmalen,'s-Hertogenbosch,Noord-Brabant,VBO,5.363930,51.708362
Oude Baan,9,,,5242HT,Rosmalen,'s-Hertogenbosch,Noord-Brabant,VBO,5.364112,51.708360
Oude Baan,11,A,,5242HT,Rosmalen,'s-Hertogenbosch,Noord-Brabant,VBO,5.364248,51.708278
Oude Baan,11,,,5242HT,Rosmalen,'s-Hertogenbosch,Noord-Brabant,VBO,5.364251,51.708336
Oude Baan,13,A,,5242HT,Rosmalen,'s-Hertogenbosch,Noord-Brabant,VBO,5.364391,51.708288
Oude Baan,13,,,5242HT,Rosmalen,'s-Hertogenbosch,Noord-Brabant,VBO,5.364396,51.708337
Oude Baan,15,A,,5242HT,Rosmalen,'s-Hertogenbosch,Noord-Brabant,VBO,5.364705,51.708268
Oude Baan,15,,,5242HT,Rosmalen,'s-Hertogenbosch,Noord-Brabant,VBO,5.364711,51.708326
Oude Baan,17,A,,5242HT,Rosmalen,'s-Hertogenbosch,Noord-Brabant,VBO,5.364889,51.708272
Oude Baan,17,,,5242HT,Rosmalen,'s-Hertogenbosch,Noord-Brabant,VBO,5.364892,51.708321
Oude Baan,19,,,5242HT,Rosmalen,'s-Hertogenbosch,Noord-Brabant,VBO,5.366385,51.708472
Oude Baan,21,A,,5242HT,Rosmalen,'s-Hertogenbosch,Noord-Brabant,VBO,5.366935,51.708468
Oude Baan,21,,,5242HT,Rosmalen,'s-Hertogenbosch,Noord-Brabant,VBO,5.366636,51.708467
Oude Baan,23,,,5242HT,Rosmalen,'s-Hertogenbosch,Noord-Brabant,VBO,5.367347,51.708489
Oude Baan,25,,,5242HT,Rosmalen,'s-Hertogenbosch,Noord-Brabant,VBO,5.367641,51.708481
Oude Baan,27,A,,5242HT,Rosmalen,'s-Hertogenbosch,Noord-Brabant,VBO,5.368012,51.708452
Oude Baan,27,B,,5242HT,Rosmalen,'s-Hertogenbosch,Noord-Brabant,VBO,5.368012,51.708452
Oude Baan,27,,,5242HT,Rosmalen,'s-Hertogenbosch,Noord-Brabant,VBO,5.368012,51.708452
Oude Baan,29,A,,5242HT,Rosmalen,'s-Hertogenbosch,Noord-Brabant,VBO,5.368461,51.708460
Oude Baan,29,B,,5242HT,Rosmalen,'s-Hertogenbosch,Noord-Brabant,VBO,5.368696,51.708455
Oude Baan,29,,,5242HT,Rosmalen,'s-Hertogenbosch,Noord-Brabant,VBO,5.368226,51.708465
Oude Baan,31,,,5242HT,Rosmalen,'s-Hertogenbosch,Noord-Brabant,VBO,5.368976,51.708454
Oude Baan,33,,,5242HT,Rosmalen,'s-Hertogenbosch,Noord-Brabant,VBO,5.369238,51.708476
Oude Baan,39,A,,5242HT,Rosmalen,'s-Hertogenbosch,Noord-Brabant,VBO,5.369771,51.708563
Oude Baan,39,B,,5242HT,Rosmalen,'s-Hertogenbosch,Noord-Brabant,VBO,5.369982,51.708636
Oude Baan,39,,,5242HT,Rosmalen,'s-Hertogenbosch,Noord-Brabant,VBO,5.369514,51.708520
Oude Baan,41,,,5242HT,Rosmalen,'s-Hertogenbosch,Noord-Brabant,VBO,5.370165,51.708689
Oude Baan,43,,,5242HT,Rosmalen,'s-Hertogenbosch,Noord-Brabant,VBO,5.370375,51.708751
Oude Baan,45,,,5242HT,Rosmalen,'s-Hertogenbosch,Noord-Brabant,VBO,5.370579,51.708811
Oude Baan,47,,,5242HT,Rosmalen,'s-Hertogenbosch,Noord-Brabant,VBO,5.370763,51.708868
Oude Baan,49,,,5242HT,Rosmalen,'s-Hertogenbosch,Noord-Brabant,VBO,5.370947,51.708924
Oude Baan,51,,,5242HT,Rosmalen,'s-Hertogenbosch,Noord-Brabant,VBO,5.371318,51.709022
Oude Baan,53,,,5242HT,Rosmalen,'s-Hertogenbosch,Noord-Brabant,VBO,5.371618,51.709114
Oude Baan,55,,,5242HT,Rosmalen,'s-Hertogenbosch,Noord-Brabant,VBO,5.371922,51.709207
Hoefberg,1,,,5242JA,Rosmalen,'s-Hertogenbosch,Noord-Brabant,VBO,5.372268,51.708907
Hoefberg,2,,,5242JA,Rosmalen,'s-Hertogenbosch,Noord-Brabant,VBO,5.372380,51.708771
Hoefberg,3,,,5242JA,Rosmalen,'s-Hertogenbosch,Noord-Brabant,VBO,5.372178,51.708878
Hoefberg,4,,,5242JA,Rosmalen,'s-Hertogenbosch,Noord-Brabant,VBO,5.372291,51.708742
Hoefberg,5,,,5242JA,Rosmalen,'s-Hertogenbosch,Noord-Brabant,VBO,5.372011,51.708823
Hoefberg,6,,,5242JA,Rosmalen,'s-Hertogenbosch,Noord-Brabant,VBO,5.372128,51.708687
Hoefberg,7,,,5242JA,Rosmalen,'s-Hertogenbosch,Noord-Brabant,VBO,5.371921,51.708794
Hoefberg,8,,,5242JA,Rosmalen,'s-Hertogenbosch,Noord-Brabant,VBO,5.372038,51.708657
Hoefberg,9,,,5242JA,Rosmalen,'s-Hertogenbosch,Noord-Brabant,VBO,5.371754,51.708739
Hoefberg,10,,,5242JA,Rosmalen,'s-Hertogenbosch,Noord-Brabant,VBO,5.371883,51.708591
Hoefberg,11,,,5242JA,Rosmalen,'s-Hertogenbosch,Noord-Brabant,VBO,5.371665,51.708709
Hoefberg,12,,,5242JA,Rosmalen,'s-Hertogenbosch,Noord-Brabant,VBO,5.371793,51.708561
Hoefberg,13,,,5242JA,Rosmalen,'s-Hertogenbosch,Noord-Brabant,VBO,5.371485,51.708649
Hoefberg,14,,,5242JA,Rosmalen,'s-Hertogenbosch,Noord-Brabant,VBO,5.371487,51.708477
Hoefberg,15,,,5242JA,Rosmalen,'s-Hertogenbosch,Noord-Brabant,VBO,5.371404,51.708622
Hoefberg,16,,,5242JA,Rosmalen,'s-Hertogenbosch,Noord-Brabant,VBO,5.371320,51.708392
Hoefberg,17,,,5242JA,Rosmalen,'s-Hertogenbosch,Noord-Brabant,VBO,5.371209,51.708557
Hoefberg,18,,,5242JA,Rosmalen,'s-Hertogenbosch,Noord-Brabant,VBO,5.371239,51.708365
Hoefberg,19,,,5242JA,Rosmalen,'s-Hertogenbosch,Noord-Brabant,VBO,5.371129,51.708530
Hoefberg,20,,,5242JA,Rosmalen,'s-Hertogenbosch,Noord-Brabant,VBO,5.371073,51.708280
Hoefberg,21,,,5242JA,Rosmalen,'s-Hertogenbosch,Noord-Brabant,VBO,5.370961,51.708431
Hoefberg,22,,,5242JA,Rosmalen,'s-Hertogenbosch,Noord-Brabant,VBO,5.370992,51.708253
Hoefberg,23,,,5242JA,Rosmalen,'s-Hertogenbosch,Noord-Brabant,VBO,5.370881,51.708404
Zandbergen,3,,,5242JB,Rosmalen,'s-Hertogenbosch,Noord-Brabant,VBO,5.373064,51.708526
Zandbergen,5,,,5242JB,Rosmalen,'s-Hertogenbosch,Noord-Brabant,VBO,5.373214,51.708315
Zandbergen,7,,,5242JB,Rosmalen,'s-Hertogenbosch,Noord-Brabant,VBO,5.373515,51.707931
Zandbergen,9,,,5242JB,Rosmalen,'s-Hertogenbosch,Noord-Brabant,VBO,5.373730,51.707697
Zandbergen,11,,,5242JB,Rosmalen,'s-Hertogenbosch,Noord-Brabant,VBO,5.373817,51.707458
Zandbergen,13,,,5242JB,Rosmalen,'s-Hertogenbosch,Noord-Brabant,VBO,5.373881,51.707248
Zandbergen,4,,,5242JC,Rosmalen,'s-Hertogenbosch,Noord-Brabant,VBO,5.372593,51.709095
Zandbergen,6,,,5242JC,Rosmalen,'s-Hertogenbosch,Noord-Brabant,VBO,5.372650,51.709037
Zandbergen,8,,,5242JC,Rosmalen,'s-Hertogenbosch,Noord-Brabant,VBO,5.372959,51.708908
Zandbergen,10,,,5242JC,Rosmalen,'s-Hertogenbosch,Noord-Brabant,VBO,5.373455,51.708742
Zandbergen,14,,,5242JC,Rosmalen,'s-Hertogenbosch,Noord-Brabant,VBO,5.373808,51.708301
Zandbergen,16,,,5242JC,Rosmalen,'s-Hertogenbosch,Noord-Brabant,VBO,5.374261,51.708414
Zandbergen,18,,,5242JC,Rosmalen,'s-Hertogenbosch,Noord-Brabant,VBO,5.374929,51.708171
Zandbergen,20,,,5242JC,Rosmalen,'s-Hertogenbosch,Noord-Brabant,VBO,5.375117,51.707997
Zandbergen,22,,,5242JC,Rosmalen,'s-Hertogenbosch,Noord-Brabant,VBO,5.374730,51.707886
Zandbergen,24,,,5242JC,Rosmalen,'s-Hertogenbosch,Noord-Brabant,VBO,5.374626,51.708145
Zandbergen,26,,,5242JC,Rosmalen,'s-Hertogenbosch,Noord-Brabant,VBO,5.374311,51.708110
Zandbergen,28,,,5242JC,Rosmalen,'s-Hertogenbosch,Noord-Brabant,VBO,5.373944,51.708047
Zandbergen,30,,,5242JC,Rosmalen,'s-Hertogenbosch,Noord-Brabant,VBO,5.374052,51.707712
Zandbergen,32,,,5242JC,Rosmalen,'s-Hertogenbosch,Noord-Brabant,VBO,5.374468,51.707777
Zandbergen,34,,,5242JC,Rosmalen,'s-Hertogenbosch,Noord-Brabant,VBO,5.375021,51.707648
Zandbergen,36,,,5242JC,Rosmalen,'s-Hertogenbosch,Noord-Brabant,VBO,5.374626,51.707559
Zandbergen,38,,,5242JC,Rosmalen,'s-Hertogenbosch,Noord-Brabant,VBO,5.374234,51.707499
Heiweg,1,A,,5242JD,Rosmalen,'s-Hertogenbosch,Noord-Brabant,VBO,5.377933,51.710321
Heiweg,1,B,,5242JD,Rosmalen,'s-Hertogenbosch,Noord-Brabant,VBO,5.378135,51.710474
Heiweg,1,,,5242JD,Rosmalen,'s-Hertogenbosch,Noord-Brabant,VBO,5.377741,51.710207
Heiweg,3,A,,5242JD,Rosmalen,'s-Hertogenbosch,Noord-Brabant,VBO,5.379078,51.710793
Heiweg,3,,,5242JD,Rosmalen,'s-Hertogenbosch,Noord-Brabant,VBO,5.378852,51.710712
Heiweg,5,,,5242JD,Rosmalen,'s-Hertogenbosch,Noord-Brabant,VBO,5.379522,51.710977
St. Brigittastraat,6,,,5242JE,Rosmalen,'s-Hertogenbosch,Noord-Brabant,VBO,5.372103,51.707715
St. Brigittastraat,8,,,5242JE,Rosmalen,'s-Hertogenbosch,Noord-Brabant,VBO,5.371974,51.707814
St. Brigittastraat,10,,,5242JE,Rosmalen,'s-Hertogenbosch,Noord-Brabant,VBO,5.371841,51.707915
St. Brigittastraat,12,,,5242JE,Rosmalen,'s-Hertogenbosch,Noord-Brabant,VBO,5.371682,51.708005
St. Brigittastraat,14,,,5242JE,Rosmalen,'s-Hertogenbosch,Noord-Brabant,VBO,5.371513,51.708128
St. Brigittastraat,18,,,5242JE,Rosmalen,'s-Hertogenbosch,Noord-Brabant,VBO,5.372459,51.707976
St. Brigittastraat,20,,,5242JE,Rosmalen,'s-Hertogenbosch,Noord-Brabant,VBO,5.372237,51.708148
St. Brigittastraat,22,A,,5242JE,Rosmalen,'s-Hertogenbosch,Noord-Brabant,VBO,5.372593,51.708206
St. Brigittastraat,22,,,5242JE,Rosmalen,'s-Hertogenbosch,Noord-Brabant,VBO,5.372476,51.708341
St. Brigittastraat,24,,,5242JE,Rosmalen,'s-Hertogenbosch,Noord-Brabant,VBO,5.372685,51.708104
St. Brigittastraat,2,,,5242JG,Rosmalen,'s-Hertogenbosch,Noord-Brabant,VBO,5.371892,51.707546
St. Brigittastraat,4,A,,5242JG,Rosmalen,'s-Hertogenbosch,Noord-Brabant,VBO,5.371407,51.707881
St. Brigittastraat,4,B,,5242JG,Rosmalen,'s-Hertogenbosch,Noord-Brabant,VBO,5.371226,51.708057
St. Brigittastraat,4,,,5242JG,Rosmalen,'s-Hertogenbosch,Noord-Brabant,VBO,5.371607,51.707742
St. Brigittastraat,15,,,5242JG,Rosmalen,'s-Hertogenbosch,Noord-Brabant,VBO,5.371934,51.707338
St. Brigittastraat,17,,,5242JG,Rosmalen,'s-Hertogenbosch,Noord-Brabant,VBO,5.371986,51.707369
St. Brigittastraat,19,,,5242JG,Rosmalen,'s-Hertogenbosch,Noord-Brabant,VBO,5.372133,51.707454
St. Brigittastraat,21,,,5242JG,Rosmalen,'s-Hertogenbosch,Noord-Brabant,VBO,5.372293,51.707535
St. Brigittastraat,23,,,5242JG,Rosmalen,'s-Hertogenbosch,Noord-Brabant,VBO,5.372444,51.707610
St. Brigittastraat,25,,,5242JG,Rosmalen,'s-Hertogenbosch,Noord-Brabant,VBO,5.372590,51.707694
St. Brigittastraat,27,,,5242JG,Rosmalen,'s-Hertogenbosch,Noord-Brabant,VBO,5.372881,51.707499
St. Brigittastraat,29,,,5242JG,Rosmalen,'s-Hertogenbosch,Noord-Brabant,VBO,5.372916,51.707300
St. Brigittastraat,31,,,5242JG,Rosmalen,'s-Hertogenbosch,Noord-Brabant,VBO,5.373143,51.707122
St. Brigittastraat,33,,,5242JG,Rosmalen,'s-Hertogenbosch,Noord-Brabant,VBO,5.373433,51.707195
St. Brigittastraat,35,,,5242JG,Rosmalen,'s-Hertogenbosch,Noord-Brabant,VBO,5.373248,51.707370
St. Brigittastraat,37,,,5242JG,Rosmalen,'s-Hertogenbosch,Noord-Brabant,VBO,5.373165,51.707521
St. Brigittastraat,39,,,5242JG,Rosmalen,'s-Hertogenbosch,Noord-Brabant,VBO,5.373080,51.707635
St. Brigittastraat,41,,,5242JG,Rosmalen,'s-Hertogenbosch,Noord-Brabant,VBO,5.372949,51.707741
St. Brigittastraat,43,,,5242JG,Rosmalen,'s-Hertogenbosch,Noord-Brabant,VBO,5.372826,51.707838
Heirust,3,,,5242JJ,Rosmalen,'s-Hertogenbosch,Noord-Brabant,VBO,5.374066,51.708857
Heirust,5,,,5242JJ,Rosmalen,'s-Hertogenbosch,Noord-Brabant,VBO,5.373708,51.709151
Heirust,7,,,5242JJ,Rosmalen,'s-Hertogenbosch,Noord-Brabant,VBO,5.373976,51.709214
Heirust,9,,,5242JJ,Rosmalen,'s-Hertogenbosch,Noord-Brabant,VBO,5.374374,51.709101
Heirust,11,,,5242JJ,Rosmalen,'s-Hertogenbosch,Noord-Brabant,VBO,5.374543,51.708934
Heirust,13,,,5242JJ,Rosmalen,'s-Hertogenbosch,Noord-Brabant,VBO,5.374694,51.708769
Heirust,15,,,5242JJ,Rosmalen,'s-Hertogenbosch,Noord-Brabant,VBO,5.374808,51.708610
Heirust,19,,,5242JJ,Rosmalen,'s-Hertogenbosch,Noord-Brabant,VBO,5.375388,51.709109
Heirust,21,,,5242JJ,Rosmalen,'s-Hertogenbosch,Noord-Brabant,VBO,5.375566,51.709193
Heirust,23,,,5242JJ,Rosmalen,'s-Hertogenbosch,Noord-Brabant,VBO,5.375467,51.709336
Heirust,25,,,5242JJ,Rosmalen,'s-Hertogenbosch,Noord-Brabant,VBO,5.375060,51.709271
Heirust,27,,,5242JJ,Rosmalen,'s-Hertogenbosch,Noord-Brabant,VBO,5.374776,51.709134
Heirust,29,,,5242JJ,Rosmalen,'s-Hertogenbosch,Noord-Brabant,VBO,5.374465,51.709385
Heirust,31,,,5242JJ,Rosmalen,'s-Hertogenbosch,Noord-Brabant,VBO,5.374693,51.709493
Heirust,33,,,5242JJ,Rosmalen,'s-Hertogenbosch,Noord-Brabant,VBO,5.374930,51.709575
Heirust,35,,,5242JJ,Rosmalen,'s-Hertogenbosch,Noord-Brabant,VBO,5.375243,51.709650
Heirust,2,,,5242JK,Rosmalen,'s-Hertogenbosch,Noord-Brabant,VBO,5.373110,51.708919
Heirust,4,,,5242JK,Rosmalen,'s-Hertogenbosch,Noord-Brabant,VBO,5.373271,51.708982
Heirust,6,,,5242JK,Rosmalen,'s-Hertogenbosch,Noord-Brabant,VBO,5.373357,51.709015
Heirust,8,,,5242JK,Rosmalen,'s-Hertogenbosch,Noord-Brabant,VBO,5.373392,51.709250
Heirust,10,,,5242JK,Rosmalen,'s-Hertogenbosch,Noord-Brabant,VBO,5.373483,51.709278
Heirust,12,,,5242JK,Rosmalen,'s-Hertogenbosch,Noord-Brabant,VBO,5.373665,51.709313
Heirust,14,,,5242JK,Rosmalen,'s-Hertogenbosch,Noord-Brabant,VBO,5.373756,51.709341
Heirust,16,,,5242JK,Rosmalen,'s-Hertogenbosch,Noord-Brabant,VBO,5.373942,51.709372
Heirust,18,,,5242JK,Rosmalen,'s-Hertogenbosch,Noord-Brabant,VBO,5.374033,51.709400
Heirust,20,,,5242JK,Rosmalen,'s-Hertogenbosch,Noord-Brabant,VBO,5.374191,51.709464
Heirust,22,,,5242JK,Rosmalen,'s-Hertogenbosch,Noord-Brabant,VBO,5.374282,51.709492
Heirust,24,,,5242JK,Rosmalen,'s-Hertogenbosch,Noord-Brabant,VBO,5.374428,51.709569
Heirust,26,,,5242JK,Rosmalen,'s-Hertogenbosch,Noord-Brabant,VBO,5.374520,51.709597
Heirust,28,,,5242JK,Rosmalen,'s-Hertogenbosch,Noord-Brabant,VBO,5.374804,51.709711
Heirust,30,,,5242JK,Rosmalen,'s-Hertogenbosch,Noord-Brabant,VBO,5.374896,51.709739
Heirust,32,,,5242JK,Rosmalen,'s-Hertogenbosch,Noord-Brabant,VBO,5.375077,51.709778
Heirust,34,,,5242JK,Rosmalen,'s-Hertogenbosch,Noord-Brabant,VBO,5.375168,51.709806
Zuid Willemsdreef,15,,,5242JL,Rosmalen,'s-Hertogenbosch,Noord-Brabant,VBO,5.350632,51.708111
Graafsebaan,12,,,5242JM,Rosmalen,'s-Hertogenbosch,Noord-Brabant,VBO,5.353054,51.702293
Graafsebaan,14,,,5242JM,Rosmalen,'s-Hertogenbosch,Noord-Brabant,VBO,5.353207,51.702314
Graafsebaan,16,,,5242JM,Rosmalen,'s-Hertogenbosch,Noord-Brabant,VBO,5.353288,51.702326
Graafsebaan,18,,,5242JM,Rosmalen,'s-Hertogenbosch,Noord-Brabant,VBO,5.353459,51.702348
Graafsebaan,20,,,5242JM,Rosmalen,'s-Hertogenbosch,Noord-Brabant,VBO,5.353619,51.702373
Graafsebaan,22,,,5242JM,Rosmalen,'s-Hertogenbosch,Noord-Brabant,VBO,5.353879,51.702411
Graafsebaan,24,,,5242JM,Rosmalen,'s-Hertogenbosch,Noord-Brabant,VBO,5.354349,51.702634
Graafsebaan,26,,,5242JM,Rosmalen,'s-Hertogenbosch,Noord-Brabant,VBO,5.354980,51.702804
Graafsebaan,42,A,,5242JN,Rosmalen,'s-Hertogenbosch,Noord-Brabant,VBO,5.358512,51.703243
Graafsebaan,42,,,5242JN,Rosmalen,'s-Hertogenbosch,Noord-Brabant,VBO,5.358529,51.703213
Graafsebaan,52,,,5242JN,Rosmalen,'s-Hertogenbosch,Noord-Brabant,VBO,5.362640,51.704179
Graafsebaan,54,,,5242JN,Rosmalen,'s-Hertogenbosch,Noord-Brabant,VBO,5.363765,51.704659
Graafsebaan,56,,,5242JN,Rosmalen,'s-Hertogenbosch,Noord-Brabant,VBO,5.364108,51.704545
Graafsebaan,58,,,5242JN,Rosmalen,'s-Hertogenbosch,Noord-Brabant,VBO,5.364184,51.704564
Graafsebaan,60,,,5242JN,Rosmalen,'s-Hertogenbosch,Noord-Brabant,VBO,5.364334,51.704596
Graafsebaan,62,,,5242JN,Rosmalen,'s-Hertogenbosch,Noord-Brabant,VBO,5.364417,51.704614
Graafsebaan,64,,,5242JN,Rosmalen,'s-Hertogenbosch,Noord-Brabant,VBO,5.364558,51.704895
Graafsebaan,66,,,5242JN,Rosmalen,'s-Hertogenbosch,Noord-Brabant,VBO,5.365111,51.704740
Graafsebaan,68,,,5242JN,Rosmalen,'s-Hertogenbosch,Noord-Brabant,VBO,5.365252,51.704789
Graafsebaan,70,,,5242JN,Rosmalen,'s-Hertogenbosch,Noord-Brabant,VBO,5.365397,51.704881
Graafsebaan,72,,,5242JN,Rosmalen,'s-Hertogenbosch,Noord-Brabant,VBO,5.365538,51.705105
Graafsebaan,74,,,5242JN,Rosmalen,'s-Hertogenbosch,Noord-Brabant,VBO,5.366003,51.705239
Graafsebaan,76,B,,5242JN,Rosmalen,'s-Hertogenbosch,Noord-Brabant,VBO,5.366764,51.705463
Graafsebaan,76,C,,5242JN,Rosmalen,'s-Hertogenbosch,Noord-Brabant,VBO,5.367142,51.705629
Graafsebaan,76,D,,5242JN,Rosmalen,'s-Hertogenbosch,Noord-Brabant,VBO,5.367241,51.705662
Graafsebaan,76,E,,5242JN,Rosmalen,'s-Hertogenbosch,Noord-Brabant,VBO,5.367112,51.705664
Graafsebaan,76,F,,5242JN,Rosmalen,'s-Hertogenbosch,Noord-Brabant,VBO,5.367212,51.705697
Graafsebaan,76,G,,5242JN,Rosmalen,'s-Hertogenbosch,Noord-Brabant,VBO,5.367083,51.705698
Graafsebaan,76,,,5242JN,Rosmalen,'s-Hertogenbosch,Noord-Brabant,VBO,5.366501,51.705395
Graafsebaan,78,A,,5242JN,Rosmalen,'s-Hertogenbosch,Noord-Brabant,VBO,5.367622,51.705733
Graafsebaan,78,B,,5242JN,Rosmalen,'s-Hertogenbosch,Noord-Brabant,VBO,5.367905,51.705825
Graafsebaan,80,A,,5242JN,Rosmalen,'s-Hertogenbosch,Noord-Brabant,VBO,5.368185,51.706327
Graafsebaan,80,,,5242JN,Rosmalen,'s-Hertogenbosch,Noord-Brabant,VBO,5.368319,51.705921
Graafsebaan,82,,,5242JP,Rosmalen,'s-Hertogenbosch,Noord-Brabant,VBO,5.368791,51.705859
Graafsebaan,84,,,5242JP,Rosmalen,'s-Hertogenbosch,Noord-Brabant,VBO,5.369157,51.706118
Graafsebaan,90,,,5242JP,Rosmalen,'s-Hertogenbosch,Noord-Brabant,VBO,5.369732,51.706019
Graafsebaan,100,,,5242JP,Rosmalen,'s-Hertogenbosch,Noord-Brabant,VBO,5.370437,51.706184
Graafsebaan,102,,,5242JP,Rosmalen,'s-Hertogenbosch,Noord-Brabant,VBO,5.370632,51.706231
Graafsebaan,104,,,5242JP,Rosmalen,'s-Hertogenbosch,Noord-Brabant,VBO,5.370726,51.706254
Graafsebaan,106,,,5242JP,Rosmalen,'s-Hertogenbosch,Noord-Brabant,VBO,5.371015,51.706260
Graafsebaan,108,,,5242JP,Rosmalen,'s-Hertogenbosch,Noord-Brabant,VBO,5.370186,51.706959
Graafsebaan,110,A,,5242JP,Rosmalen,'s-Hertogenbosch,Noord-Brabant,VBO,5.371531,51.706526
Graafsebaan,110,B,,5242JP,Rosmalen,'s-Hertogenbosch,Noord-Brabant,VBO,5.371602,51.706544
Graafsebaan,110,C,,5242JP,Rosmalen,'s-Hertogenbosch,Noord-Brabant,VBO,5.371952,51.706630
Graafsebaan,110,D,,5242JP,Rosmalen,'s-Hertogenbosch,Noord-Brabant,VBO,5.371882,51.706613
Graafsebaan,110,E,,5242JP,Rosmalen,'s-Hertogenbosch,Noord-Brabant,VBO,5.371812,51.706596
Graafsebaan,110,F,,5242JP,Rosmalen,'s-Hertogenbosch,Noord-Brabant,VBO,5.371742,51.706578
Graafsebaan,110,G,,5242JP,Rosmalen,'s-Hertogenbosch,Noord-Brabant,VBO,5.371672,51.706561
Graafsebaan,110,H,,5242JP,Rosmalen,'s-Hertogenbosch,Noord-Brabant,VBO,5.371435,51.706551
Graafsebaan,110,K,,5242JP,Rosmalen,'s-Hertogenbosch,Noord-Brabant,VBO,5.371505,51.706568
Graafsebaan,110,M,,5242JP,Rosmalen,'s-Hertogenbosch,Noord-Brabant,VBO,5.371575,51.706585
Graafsebaan,110,P,,5242JP,Rosmalen,'s-Hertogenbosch,Noord-Brabant,VBO,5.371925,51.706672
Graafsebaan,110,Q,,5242JP,Rosmalen,'s-Hertogenbosch,Noord-Brabant,VBO,5.371855,51.706655
Graafsebaan,110,R,,5242JP,Rosmalen,'s-Hertogenbosch,Noord-Brabant,VBO,5.371785,51.706637
Graafsebaan,110,S,,5242JP,Rosmalen,'s-Hertogenbosch,Noord-Brabant,VBO,5.371715,51.706620
Graafsebaan,110,T,,5242JP,Rosmalen,'s-Hertogenbosch,Noord-Brabant,VBO,5.371645,51.706603
Graafsebaan,110,,,5242JP,Rosmalen,'s-Hertogenbosch,Noord-Brabant,VBO,5.371461,51.706509
Graafsebaan,112,A,,5242JP,Rosmalen,'s-Hertogenbosch,Noord-Brabant,VBO,5.371478,51.706610
Graafsebaan,112,B,,5242JP,Rosmalen,'s-Hertogenbosch,Noord-Brabant,VBO,5.371548,51.706627
Graafsebaan,112,C,,5242JP,Rosmalen,'s-Hertogenbosch,Noord-Brabant,VBO,5.371899,51.706714
Graafsebaan,112,E,,5242JP,Rosmalen,'s-Hertogenbosch,Noord-Brabant,VBO,5.371758,51.706679
Graafsebaan,112,F,,5242JP,Rosmalen,'s-Hertogenbosch,Noord-Brabant,VBO,5.371688,51.706662
Graafsebaan,112,G,,5242JP,Rosmalen,'s-Hertogenbosch,Noord-Brabant,VBO,5.371618,51.706644
Graafsebaan,112,,,5242JP,Rosmalen,'s-Hertogenbosch,Noord-Brabant,VBO,5.371408,51.706592
Graafsebaan,114,A,,5242JP,Rosmalen,'s-Hertogenbosch,Noord-Brabant,VBO,5.372579,51.706662
Graafsebaan,114,,,5242JP,Rosmalen,'s-Hertogenbosch,Noord-Brabant,VBO,5.372507,51.706643
Graafsebaan,116,,,5242JP,Rosmalen,'s-Hertogenbosch,Noord-Brabant,VBO,5.372700,51.706656
Heibloem,1,A,,5242JR,Rosmalen,'s-Hertogenbosch,Noord-Brabant,VBO,5.372060,51.706905
Heibloem,1,,,5242JR,Rosmalen,'s-Hertogenbosch,Noord-Brabant,VBO,5.372180,51.706828
Heibloem,3,,,5242JR,Rosmalen,'s-Hertogenbosch,Noord-Brabant,VBO,5.371972,51.706961
Heibloem,5,,,5242JR,Rosmalen,'s-Hertogenbosch,Noord-Brabant,VBO,5.371921,51.706993
Heibloem,7,,,5242JR,Rosmalen,'s-Hertogenbosch,Noord-Brabant,VBO,5.371843,51.707043
Heibloem,9,,,5242JR,Rosmalen,'s-Hertogenbosch,Noord-Brabant,VBO,5.371792,51.707075
Heibloem,11,,,5242JR,Rosmalen,'s-Hertogenbosch,Noord-Brabant,VBO,5.371713,51.707125
Heibloem,13,,,5242JR,Rosmalen,'s-Hertogenbosch,Noord-Brabant,VBO,5.371662,51.707157
Heibloem,15,,,5242JR,Rosmalen,'s-Hertogenbosch,Noord-Brabant,VBO,5.371203,51.707372
Heibloem,17,,,5242JR,Rosmalen,'s-Hertogenbosch,Noord-Brabant,VBO,5.371095,51.707533
Heibloem,19,,,5242JR,Rosmalen,'s-Hertogenbosch,Noord-Brabant,VBO,5.370975,51.707716
Heibloem,21,,,5242JR,Rosmalen,'s-Hertogenbosch,Noord-Brabant,VBO,5.370874,51.707914
Heibloem,23,,,5242JR,Rosmalen,'s-Hertogenbosch,Noord-Brabant,VBO,5.370784,51.708090
Heibloem,2,,,5242JS,Rosmalen,'s-Hertogenbosch,Noord-Brabant,VBO,5.371391,51.706775
Heibloem,4,,,5242JS,Rosmalen,'s-Hertogenbosch,Noord-Brabant,VBO,5.371319,51.706846
Heibloem,6,,,5242JS,Rosmalen,'s-Hertogenbosch,Noord-Brabant,VBO,5.371240,51.706923
Heibloem,8,,,5242JS,Rosmalen,'s-Hertogenbosch,Noord-Brabant,VBO,5.371165,51.706996
Heibloem,10,,,5242JS,Rosmalen,'s-Hertogenbosch,Noord-Brabant,VBO,5.371080,51.707080
Heibloem,12,,,5242JS,Rosmalen,'s-Hertogenbosch,Noord-Brabant,VBO,5.371002,51.707156
Heibloem,14,,,5242JS,Rosmalen,'s-Hertogenbosch,Noord-Brabant,VBO,5.370936,51.707235
Heibloem,16,,,5242JS,Rosmalen,'s-Hertogenbosch,Noord-Brabant,VBO,5.370875,51.707316
Heibloem,18,,,5242JS,Rosmalen,'s-Hertogenbosch,Noord-Brabant,VBO,5.370811,51.707401
Heibloem,20,A,,5242JS,Rosmalen,'s-Hertogenbosch,Noord-Brabant,VBO,5.370718,51.707439
Heibloem,20,,,5242JS,Rosmalen,'s-Hertogenbosch,Noord-Brabant,VBO,5.370771,51.707453
Heibloem,22,,,5242JS,Rosmalen,'s-Hertogenbosch,Noord-Brabant,VBO,5.370407,51.707395
Heibloem,24,,,5242JS,Rosmalen,'s-Hertogenbosch,Noord-Brabant,VBO,5.370269,51.707370
Heibloem,26,,,5242JS,Rosmalen,'s-Hertogenbosch,Noord-Brabant,VBO,5.370174,51.707583
Heibloem,28,,,5242JS,Rosmalen,'s-Hertogenbosch,Noord-Brabant,VBO,5.370310,51.707608
Heibloem,30,,,5242JS,Rosmalen,'s-Hertogenbosch,Noord-Brabant,VBO,5.370613,51.707712
Heibloem,32,,,5242JS,Rosmalen,'s-Hertogenbosch,Noord-Brabant,VBO,5.370574,51.707788
Heibloem,34,,,5242JS,Rosmalen,'s-Hertogenbosch,Noord-Brabant,VBO,5.370517,51.707898
Heibloem,36,,,5242JS,Rosmalen,'s-Hertogenbosch,Noord-Brabant,VBO,5.370474,51.707964
Heibloem,38,,,5242JS,Rosmalen,'s-Hertogenbosch,Noord-Brabant,VBO,5.370165,51.707916
Heibloem,40,,,5242JS,Rosmalen,'s-Hertogenbosch,Noord-Brabant,VBO,5.370036,51.707892
Heibloem,42,,,5242JS,Rosmalen,'s-Hertogenbosch,Noord-Brabant,VBO,5.370009,51.708103
Heibloem,44,,,5242JS,Rosmalen,'s-Hertogenbosch,Noord-Brabant,VBO,5.370147,51.708128
Heibloem,46,,,5242JS,Rosmalen,'s-Hertogenbosch,Noord-Brabant,VBO,5.370307,51.708167
Heibloem,48,,,5242JS,Rosmalen,'s-Hertogenbosch,Noord-Brabant,VBO,5.370432,51.708208
Heibloem,50,,,5242JS,Rosmalen,'s-Hertogenbosch,Noord-Brabant,VBO,5.370571,51.708277
Heibloem,52,,,5242JS,Rosmalen,'s-Hertogenbosch,Noord-Brabant,VBO,5.370702,51.708320
Tielekeshoeven,1,,,5242KA,Rosmalen,'s-Hertogenbosch,Noord-Brabant,VBO,5.379149,51.713354
Tielekeshoeven,2,,,5242KA,Rosmalen,'s-Hertogenbosch,Noord-Brabant,VBO,5.379176,51.713415
Tielekeshoeven,3,,,5242KA,Rosmalen,'s-Hertogenbosch,Noord-Brabant,VBO,5.379202,51.713475
Tielekeshoeven,4,,,5242KA,Rosmalen,'s-Hertogenbosch,Noord-Brabant,VBO,5.379227,51.713536
Tielekeshoeven,5,,,5242KA,Rosmalen,'s-Hertogenbosch,Noord-Brabant,VBO,5.379253,51.713596
Tielekeshoeven,6,,,5242KA,Rosmalen,'s-Hertogenbosch,Noord-Brabant,VBO,5.379316,51.713625
Tielekeshoeven,7,,,5242KA,Rosmalen,'s-Hertogenbosch,Noord-Brabant,VBO,5.379416,51.713621
Tielekeshoeven,8,,,5242KA,Rosmalen,'s-Hertogenbosch,Noord-Brabant,VBO,5.379517,51.713617
Tielekeshoeven,9,,,5242KA,Rosmalen,'s-Hertogenbosch,Noord-Brabant,VBO,5.379581,51.713646
Tielekeshoeven,10,,,5242KA,Rosmalen,'s-Hertogenbosch,Noord-Brabant,VBO,5.379647,51.713676
Tielekeshoeven,11,,,5242KA,Rosmalen,'s-Hertogenbosch,Noord-Brabant,VBO,5.379740,51.713742
Tielekeshoeven,12,,,5242KA,Rosmalen,'s-Hertogenbosch,Noord-Brabant,VBO,5.379841,51.713739
Tielekeshoeven,13,,,5242KA,Rosmalen,'s-Hertogenbosch,Noord-Brabant,VBO,5.379924,51.713751
Tielekeshoeven,14,,,5242KA,Rosmalen,'s-Hertogenbosch,Noord-Brabant,VBO,5.380006,51.713764
Tielekeshoeven,15,,,5242KA,Rosmalen,'s-Hertogenbosch,Noord-Brabant,VBO,5.380088,51.713777
Tielekeshoeven,16,,,5242KA,Rosmalen,'s-Hertogenbosch,Noord-Brabant,VBO,5.380152,51.713806
Tielekeshoeven,17,,,5242KB,Rosmalen,'s-Hertogenbosch,Noord-Brabant,VBO,5.380356,51.713601
Tielekeshoeven,18,,,5242KB,Rosmalen,'s-Hertogenbosch,Noord-Brabant,VBO,5.380328,51.713539
Tielekeshoeven,19,,,5242KB,Rosmalen,'s-Hertogenbosch,Noord-Brabant,VBO,5.380264,51.713510
Tielekeshoeven,20,,,5242KB,Rosmalen,'s-Hertogenbosch,Noord-Brabant,VBO,5.380201,51.713482
Tielekeshoeven,21,,,5242KB,Rosmalen,'s-Hertogenbosch,Noord-Brabant,VBO,5.380101,51.713486
Tielekeshoeven,22,,,5242KB,Rosmalen,'s-Hertogenbosch,Noord-Brabant,VBO,5.380001,51.713490
Tielekeshoeven,23,,,5242KB,Rosmalen,'s-Hertogenbosch,Noord-Brabant,VBO,5.379938,51.713461
Tielekeshoeven,24,,,5242KB,Rosmalen,'s-Hertogenbosch,Noord-Brabant,VBO,5.379911,51.713400
Tielekeshoeven,25,,,5242KB,Rosmalen,'s-Hertogenbosch,Noord-Brabant,VBO,5.379885,51.713340
Tielekeshoeven,26,,,5242KB,Rosmalen,'s-Hertogenbosch,Noord-Brabant,VBO,5.379822,51.713311
Tielekeshoeven,27,,,5242KB,Rosmalen,'s-Hertogenbosch,Noord-Brabant,VBO,5.379728,51.713244
Tielekeshoeven,28,,,5242KB,Rosmalen,'s-Hertogenbosch,Noord-Brabant,VBO,5.379662,51.713214
Tielekeshoeven,29,,,5242KB,Rosmalen,'s-Hertogenbosch,Noord-Brabant,VBO,5.379598,51.713186
Tielekeshoeven,30,,,5242KB,Rosmalen,'s-Hertogenbosch,Noord-Brabant,VBO,5.379517,51.713174
Tielekeshoeven,31,,,5242KB,Rosmalen,'s-Hertogenbosch,Noord-Brabant,VBO,5.379436,51.713161
Tielekeshoeven,32,,,5242KB,Rosmalen,'s-Hertogenbosch,Noord-Brabant,VBO,5.379353,51.713148
Tielekeshoeven,33,,,5242KB,Rosmalen,'s-Hertogenbosch,Noord-Brabant,VBO,5.380737,51.713354
Tielekeshoeven,34,,,5242KB,Rosmalen,'s-Hertogenbosch,Noord-Brabant,VBO,5.380660,51.713319
Tielekeshoeven,35,,,5242KB,Rosmalen,'s-Hertogenbosch,Noord-Brabant,VBO,5.380621,51.713257
Tielekeshoeven,36,,,5242KB,Rosmalen,'s-Hertogenbosch,Noord-Brabant,VBO,5.380550,51.713225
Tielekeshoeven,37,,,5242KB,Rosmalen,'s-Hertogenbosch,Noord-Brabant,VBO,5.380477,51.713192
Tielekeshoeven,38,,,5242KB,Rosmalen,'s-Hertogenbosch,Noord-Brabant,VBO,5.380382,51.713178
Tielekeshoeven,39,,,5242KB,Rosmalen,'s-Hertogenbosch,Noord-Brabant,VBO,5.380284,51.713163
Tielekeshoeven,40,,,5242KB,Rosmalen,'s-Hertogenbosch,Noord-Brabant,VBO,5.380207,51.713128
Tielekeshoeven,41,,,5242KC,Rosmalen,'s-Hertogenbosch,Noord-Brabant,VBO,5.380095,51.713062
Tielekeshoeven,42,,,5242KC,Rosmalen,'s-Hertogenbosch,Noord-Brabant,VBO,5.380048,51.713002
Tielekeshoeven,43,,,5242KC,Rosmalen,'s-Hertogenbosch,Noord-Brabant,VBO,5.379978,51.712970
Tielekeshoeven,44,,,5242KC,Rosmalen,'s-Hertogenbosch,Noord-Brabant,VBO,5.379860,51.712972
Tielekeshoeven,45,,,5242KC,Rosmalen,'s-Hertogenbosch,Noord-Brabant,VBO,5.379785,51.712938
Tielekeshoeven,46,,,5242KC,Rosmalen,'s-Hertogenbosch,Noord-Brabant,VBO,5.381692,51.713493
Tielekeshoeven,47,,,5242KC,Rosmalen,'s-Hertogenbosch,Noord-Brabant,VBO,5.381647,51.713448
Tielekeshoeven,48,,,5242KC,Rosmalen,'s-Hertogenbosch,Noord-Brabant,VBO,5.381586,51.713420
Tielekeshoeven,49,,,5242KC,Rosmalen,'s-Hertogenbosch,Noord-Brabant,VBO,5.381522,51.713392
Tielekeshoeven,50,,,5242KC,Rosmalen,'s-Hertogenbosch,Noord-Brabant,VBO,5.381421,51.713395
Tielekeshoeven,51,,,5242KC,Rosmalen,'s-Hertogenbosch,Noord-Brabant,VBO,5.381360,51.713368
Tielekeshoeven,52,,,5242KC,Rosmalen,'s-Hertogenbosch,Noord-Brabant,VBO,5.381312,51.713321
Tielekeshoeven,53,,,5242KC,Rosmalen,'s-Hertogenbosch,Noord-Brabant,VBO,5.381195,51.713342
Tielekeshoeven,54,,,5242KC,Rosmalen,'s-Hertogenbosch,Noord-Brabant,VBO,5.381129,51.713312
Tielekeshoeven,55,,,5242KC,Rosmalen,'s-Hertogenbosch,Noord-Brabant,VBO,5.381123,51.713236
Tielekeshoeven,56,,,5242KC,Rosmalen,'s-Hertogenbosch,Noord-Brabant,VBO,5.381059,51.713208
Tielekeshoeven,57,,,5242KC,Rosmalen,'s-Hertogenbosch,Noord-Brabant,VBO,5.381014,51.713163
Tielekeshoeven,58,,,5242KC,Rosmalen,'s-Hertogenbosch,Noord-Brabant,VBO,5.380953,51.713135
Tielekeshoeven,59,,,5242KC,Rosmalen,'s-Hertogenbosch,Noord-Brabant,VBO,5.380888,51.713106
Tielekeshoeven,60,,,5242KD,Rosmalen,'s-Hertogenbosch,Noord-Brabant,VBO,5.380613,51.712981
Tielekeshoeven,61,,,5242KD,Rosmalen,'s-Hertogenbosch,Noord-Brabant,VBO,5.380512,51.712964
Tielekeshoeven,62,,,5242KD,Rosmalen,'s-Hertogenbosch,Noord-Brabant,VBO,5.380460,51.712912
Tielekeshoeven,63,,,5242KD,Rosmalen,'s-Hertogenbosch,Noord-Brabant,VBO,5.380409,51.712860
Tielekeshoeven,64,,,5242KD,Rosmalen,'s-Hertogenbosch,Noord-Brabant,VBO,5.380335,51.712827
Tielekeshoeven,65,,,5242KD,Rosmalen,'s-Hertogenbosch,Noord-Brabant,VBO,5.380264,51.712795
Tielekeshoeven,66,,,5242KD,Rosmalen,'s-Hertogenbosch,Noord-Brabant,VBO,5.380169,51.712781
Tielekeshoeven,67,,,5242KD,Rosmalen,'s-Hertogenbosch,Noord-Brabant,VBO,5.380071,51.712766
Tielekeshoeven,68,,,5242KD,Rosmalen,'s-Hertogenbosch,Noord-Brabant,VBO,5.379979,51.712753
Tielekeshoeven,69,,,5242KD,Rosmalen,'s-Hertogenbosch,Noord-Brabant,VBO,5.379879,51.712737
Tielekeshoeven,70,,,5242KD,Rosmalen,'s-Hertogenbosch,Noord-Brabant,VBO,5.380643,51.713952
Tielekeshoeven,71,,,5242KD,Rosmalen,'s-Hertogenbosch,Noord-Brabant,VBO,5.380669,51.713899
Tielekeshoeven,72,,,5242KD,Rosmalen,'s-Hertogenbosch,Noord-Brabant,VBO,5.380717,51.713858
Tielekeshoeven,73,,,5242KD,Rosmalen,'s-Hertogenbosch,Noord-Brabant,VBO,5.380764,51.713817
Tielekeshoeven,74,,,5242KD,Rosmalen,'s-Hertogenbosch,Noord-Brabant,VBO,5.380847,51.713793
Tielekeshoeven,75,,,5242KD,Rosmalen,'s-Hertogenbosch,Noord-Brabant,VBO,5.380897,51.713751
Tielekeshoeven,76,,,5242KD,Rosmalen,'s-Hertogenbosch,Noord-Brabant,VBO,5.380911,51.713692
Tielekeshoeven,77,,,5242KD,Rosmalen,'s-Hertogenbosch,Noord-Brabant,VBO,5.380853,51.713550
Tielekeshoeven,78,,,5242KD,Rosmalen,'s-Hertogenbosch,Noord-Brabant,VBO,5.380953,51.713546
Tielekeshoeven,79,,,5242KD,Rosmalen,'s-Hertogenbosch,Noord-Brabant,VBO,5.381055,51.713543
Tielekeshoeven,80,,,5242KD,Rosmalen,'s-Hertogenbosch,Noord-Brabant,VBO,5.381118,51.713571
Tielekeshoeven,81,,,5242KD,Rosmalen,'s-Hertogenbosch,Noord-Brabant,VBO,5.381182,51.713600
Tielekeshoeven,82,,,5242KD,Rosmalen,'s-Hertogenbosch,Noord-Brabant,VBO,5.381283,51.713596
Tielekeshoeven,83,,,5242KD,Rosmalen,'s-Hertogenbosch,Noord-Brabant,VBO,5.381346,51.713625
Tielekeshoeven,84,,,5242KD,Rosmalen,'s-Hertogenbosch,Noord-Brabant,VBO,5.381409,51.713653
Tielekeshoeven,85,,,5242KD,Rosmalen,'s-Hertogenbosch,Noord-Brabant,VBO,5.381455,51.713699
Tielekeshoeven,86,,,5242KD,Rosmalen,'s-Hertogenbosch,Noord-Brabant,VBO,5.381502,51.713744
Tielekeshoeven,87,,,5242KE,Rosmalen,'s-Hertogenbosch,Noord-Brabant,VBO,5.381220,51.713770
Tielekeshoeven,88,,,5242KE,Rosmalen,'s-Hertogenbosch,Noord-Brabant,VBO,5.381171,51.713812
Tielekeshoeven,89,,,5242KE,Rosmalen,'s-Hertogenbosch,Noord-Brabant,VBO,5.381123,51.713853
Tielekeshoeven,90,,,5242KE,Rosmalen,'s-Hertogenbosch,Noord-Brabant,VBO,5.381051,51.713884
Tielekeshoeven,92,,,5242KE,Rosmalen,'s-Hertogenbosch,Noord-Brabant,VBO,5.381036,51.714258
Tielekeshoeven,93,,,5242KE,Rosmalen,'s-Hertogenbosch,Noord-Brabant,VBO,5.381121,51.714269
Tielekeshoeven,94,,,5242KE,Rosmalen,'s-Hertogenbosch,Noord-Brabant,VBO,5.381185,51.714297
Tielekeshoeven,95,,,5242KE,Rosmalen,'s-Hertogenbosch,Noord-Brabant,VBO,5.381247,51.714325
Tielekeshoeven,96,,,5242KE,Rosmalen,'s-Hertogenbosch,Noord-Brabant,VBO,5.381278,51.714383
Tielekeshoeven,97,,,5242KE,Rosmalen,'s-Hertogenbosch,Noord-Brabant,VBO,5.381545,51.714109
Tielekeshoeven,98,,,5242KE,Rosmalen,'s-Hertogenbosch,Noord-Brabant,VBO,5.381629,51.714084
Tielekeshoeven,99,,,5242KE,Rosmalen,'s-Hertogenbosch,Noord-Brabant,VBO,5.381680,51.714041
Tielekeshoeven,100,,,5242KE,Rosmalen,'s-Hertogenbosch,Noord-Brabant,VBO,5.381668,51.713973
Tielekeshoeven,101,,,5242KE,Rosmalen,'s-Hertogenbosch,Noord-Brabant,VBO,5.381715,51.713933
Tielekeshoeven,102,,,5242KE,Rosmalen,'s-Hertogenbosch,Noord-Brabant,VBO,5.381763,51.713891
Tielekeshoeven,103,,,5242KE,Rosmalen,'s-Hertogenbosch,Noord-Brabant,VBO,5.381824,51.713855
Tielekeshoeven,104,,,5242KE,Rosmalen,'s-Hertogenbosch,Noord-Brabant,VBO,5.381874,51.713812
Tielekeshoeven,105,,,5242KE,Rosmalen,'s-Hertogenbosch,Noord-Brabant,VBO,5.381888,51.713754
Tielekeshoeven,106,,,5242KG,Rosmalen,'s-Hertogenbosch,Noord-Brabant,VBO,5.381862,51.713599
Tielekeshoeven,107,,,5242KG,Rosmalen,'s-Hertogenbosch,Noord-Brabant,VBO,5.381949,51.713611
Tielekeshoeven,108,,,5242KG,Rosmalen,'s-Hertogenbosch,Noord-Brabant,VBO,5.382014,51.713640
Tielekeshoeven,109,,,5242KG,Rosmalen,'s-Hertogenbosch,Noord-Brabant,VBO,5.382081,51.713670
Tielekeshoeven,110,,,5242KG,Rosmalen,'s-Hertogenbosch,Noord-Brabant,VBO,5.382148,51.713700
Tielekeshoeven,111,,,5242KG,Rosmalen,'s-Hertogenbosch,Noord-Brabant,VBO,5.382215,51.713730
Tielekeshoeven,112,,,5242KG,Rosmalen,'s-Hertogenbosch,Noord-Brabant,VBO,5.382257,51.713784
Tielekeshoeven,113,,,5242KG,Rosmalen,'s-Hertogenbosch,Noord-Brabant,VBO,5.382326,51.713814
Tielekeshoeven,114,,,5242KG,Rosmalen,'s-Hertogenbosch,Noord-Brabant,VBO,5.382391,51.713844
Tielekeshoeven,115,,,5242KG,Rosmalen,'s-Hertogenbosch,Noord-Brabant,VBO,5.382436,51.713892
Tielekeshoeven,116,,,5242KG,Rosmalen,'s-Hertogenbosch,Noord-Brabant,VBO,5.382164,51.713912
Tielekeshoeven,117,,,5242KG,Rosmalen,'s-Hertogenbosch,Noord-Brabant,VBO,5.382092,51.713943
Tielekeshoeven,118,,,5242KG,Rosmalen,'s-Hertogenbosch,Noord-Brabant,VBO,5.382042,51.713985
Tielekeshoeven,119,,,5242KG,Rosmalen,'s-Hertogenbosch,Noord-Brabant,VBO,5.382082,51.714066
Tielekeshoeven,120,,,5242KG,Rosmalen,'s-Hertogenbosch,Noord-Brabant,VBO,5.382034,51.714106
Tielekeshoeven,121,,,5242KG,Rosmalen,'s-Hertogenbosch,Noord-Brabant,VBO,5.381962,51.714138
Tielekeshoeven,122,,,5242KG,Rosmalen,'s-Hertogenbosch,Noord-Brabant,VBO,5.381914,51.714179
Tielekeshoeven,123,,,5242KG,Rosmalen,'s-Hertogenbosch,Noord-Brabant,VBO,5.381841,51.714211
Tielekeshoeven,124,,,5242KG,Rosmalen,'s-Hertogenbosch,Noord-Brabant,VBO,5.381749,51.714251
Tielekeshoeven,125,,,5242KG,Rosmalen,'s-Hertogenbosch,Noord-Brabant,VBO,5.381699,51.714294
Tielekeshoeven,126,,,5242KG,Rosmalen,'s-Hertogenbosch,Noord-Brabant,VBO,5.381755,51.714398
Tielekeshoeven,127,,,5242KG,Rosmalen,'s-Hertogenbosch,Noord-Brabant,VBO,5.381707,51.714440
Tielekeshoeven,128,,,5242KG,Rosmalen,'s-Hertogenbosch,Noord-Brabant,VBO,5.381656,51.714484
Tielekeshoeven,129,,,5242KG,Rosmalen,'s-Hertogenbosch,Noord-Brabant,VBO,5.381631,51.714536
Tielekeshoeven,130,,,5242KG,Rosmalen,'s-Hertogenbosch,Noord-Brabant,VBO,5.381582,51.714577
Tielekeshoeven,131,,,5242KG,Rosmalen,'s-Hertogenbosch,Noord-Brabant,VBO,5.381515,51.714666
Tielekeshoeven,132,,,5242KG,Rosmalen,'s-Hertogenbosch,Noord-Brabant,VBO,5.381467,51.714707
Tielekeshoeven,133,,,5242KG,Rosmalen,'s-Hertogenbosch,Noord-Brabant,VBO,5.381397,51.714736
Tielekeshoeven,134,,,5242KH,Rosmalen,'s-Hertogenbosch,Noord-Brabant,VBO,5.381144,51.714657
Tielekeshoeven,135,,,5242KH,Rosmalen,'s-Hertogenbosch,Noord-Brabant,VBO,5.381074,51.714629
Tielekeshoeven,136,,,5242KH,Rosmalen,'s-Hertogenbosch,Noord-Brabant,VBO,5.381012,51.714601
Tielekeshoeven,137,,,5242KH,Rosmalen,'s-Hertogenbosch,Noord-Brabant,VBO,5.380964,51.714558
Tielekeshoeven,138,,,5242KH,Rosmalen,'s-Hertogenbosch,Noord-Brabant,VBO,5.380874,51.714546
Tielekeshoeven,139,,,5242KH,Rosmalen,'s-Hertogenbosch,Noord-Brabant,VBO,5.380765,51.714499
Tielekeshoeven,140,,,5242KH,Rosmalen,'s-Hertogenbosch,Noord-Brabant,VBO,5.380726,51.714451
Tielekeshoeven,141,,,5242KH,Rosmalen,'s-Hertogenbosch,Noord-Brabant,VBO,5.380664,51.714423
Tielekeshoeven,142,,,5242KH,Rosmalen,'s-Hertogenbosch,Noord-Brabant,VBO,5.380600,51.714394
Tielekeshoeven,143,,,5242KH,Rosmalen,'s-Hertogenbosch,Noord-Brabant,VBO,5.380569,51.714336
Tielekeshoeven,144,,,5242KH,Rosmalen,'s-Hertogenbosch,Noord-Brabant,VBO,5.380506,51.714307
Tielekeshoeven,145,,,5242KH,Rosmalen,'s-Hertogenbosch,Noord-Brabant,VBO,5.380442,51.714279
Tielekeshoeven,146,,,5242KH,Rosmalen,'s-Hertogenbosch,Noord-Brabant,VBO,5.380355,51.714273
Tielekeshoeven,147,,,5242KH,Rosmalen,'s-Hertogenbosch,Noord-Brabant,VBO,5.380290,51.714244
Tielekeshoeven,148,,,5242KH,Rosmalen,'s-Hertogenbosch,Noord-Brabant,VBO,5.380175,51.714196
Tielekeshoeven,149,,,5242KH,Rosmalen,'s-Hertogenbosch,Noord-Brabant,VBO,5.380147,51.714135
Tielekeshoeven,150,,,5242KH,Rosmalen,'s-Hertogenbosch,Noord-Brabant,VBO,5.380068,51.714124
Tielekeshoeven,151,,,5242KH,Rosmalen,'s-Hertogenbosch,Noord-Brabant,VBO,5.379983,51.714110
Tielekeshoeven,152,,,5242KH,Rosmalen,'s-Hertogenbosch,Noord-Brabant,VBO,5.379901,51.714097
Tielekeshoeven,153,,,5242KH,Rosmalen,'s-Hertogenbosch,Noord-Brabant,VBO,5.379818,51.714084
Tielekeshoeven,154,,,5242KH,Rosmalen,'s-Hertogenbosch,Noord-Brabant,VBO,5.379755,51.714056
Tielekeshoeven,155,,,5242KH,Rosmalen,'s-Hertogenbosch,Noord-Brabant,VBO,5.379483,51.713825
Tielekeshoeven,156,,,5242KH,Rosmalen,'s-Hertogenbosch,Noord-Brabant,VBO,5.379486,51.713888
Tielekeshoeven,157,,,5242KH,Rosmalen,'s-Hertogenbosch,Noord-Brabant,VBO,5.379467,51.713939
Tielekeshoeven,158,,,5242KH,Rosmalen,'s-Hertogenbosch,Noord-Brabant,VBO,5.379446,51.713991
Eikakkerhoeven,1,,,5242KJ,Rosmalen,'s-Hertogenbosch,Noord-Brabant,VBO,5.379309,51.714348
Eikakkerhoeven,2,,,5242KJ,Rosmalen,'s-Hertogenbosch,Noord-Brabant,VBO,5.379371,51.714402
Eikakkerhoeven,3,,,5242KJ,Rosmalen,'s-Hertogenbosch,Noord-Brabant,VBO,5.379415,51.714447
Eikakkerhoeven,4,,,5242KJ,Rosmalen,'s-Hertogenbosch,Noord-Brabant,VBO,5.379478,51.714476
Eikakkerhoeven,5,,,5242KJ,Rosmalen,'s-Hertogenbosch,Noord-Brabant,VBO,5.379520,51.714521
Eikakkerhoeven,6,,,5242KJ,Rosmalen,'s-Hertogenbosch,Noord-Brabant,VBO,5.379582,51.714550
Eikakkerhoeven,7,,,5242KJ,Rosmalen,'s-Hertogenbosch,Noord-Brabant,VBO,5.379646,51.714579
Eikakkerhoeven,8,,,5242KJ,Rosmalen,'s-Hertogenbosch,Noord-Brabant,VBO,5.379708,51.714607
Eikakkerhoeven,9,,,5242KJ,Rosmalen,'s-Hertogenbosch,Noord-Brabant,VBO,5.379808,51.714605
Eikakkerhoeven,10,,,5242KJ,Rosmalen,'s-Hertogenbosch,Noord-Brabant,VBO,5.379911,51.714603
Eikakkerhoeven,11,,,5242KJ,Rosmalen,'s-Hertogenbosch,Noord-Brabant,VBO,5.380042,51.714640
Eikakkerhoeven,12,,,5242KJ,Rosmalen,'s-Hertogenbosch,Noord-Brabant,VBO,5.380106,51.714669
Eikakkerhoeven,13,,,5242KJ,Rosmalen,'s-Hertogenbosch,Noord-Brabant,VBO,5.380197,51.714673
Eikakkerhoeven,14,,,5242KJ,Rosmalen,'s-Hertogenbosch,Noord-Brabant,VBO,5.380261,51.714702
Eikakkerhoeven,15,,,5242KJ,Rosmalen,'s-Hertogenbosch,Noord-Brabant,VBO,5.380354,51.714706
Eikakkerhoeven,16,,,5242KJ,Rosmalen,'s-Hertogenbosch,Noord-Brabant,VBO,5.380415,51.714734
Eikakkerhoeven,17,,,5242KJ,Rosmalen,'s-Hertogenbosch,Noord-Brabant,VBO,5.380450,51.714787
Eikakkerhoeven,18,,,5242KJ,Rosmalen,'s-Hertogenbosch,Noord-Brabant,VBO,5.380516,51.714817
Eikakkerhoeven,19,,,5242KJ,Rosmalen,'s-Hertogenbosch,Noord-Brabant,VBO,5.380687,51.714817
Eikakkerhoeven,20,,,5242KJ,Rosmalen,'s-Hertogenbosch,Noord-Brabant,VBO,5.380750,51.714845
Eikakkerhoeven,21,,,5242KJ,Rosmalen,'s-Hertogenbosch,Noord-Brabant,VBO,5.380813,51.714874
Eikakkerhoeven,22,,,5242KJ,Rosmalen,'s-Hertogenbosch,Noord-Brabant,VBO,5.380913,51.714869
Eikakkerhoeven,23,,,5242KJ,Rosmalen,'s-Hertogenbosch,Noord-Brabant,VBO,5.380993,51.714883
Eikakkerhoeven,24,,,5242KJ,Rosmalen,'s-Hertogenbosch,Noord-Brabant,VBO,5.381059,51.714913
Eikakkerhoeven,26,,,5242KK,Rosmalen,'s-Hertogenbosch,Noord-Brabant,VBO,5.380452,51.715020
Eikakkerhoeven,27,,,5242KK,Rosmalen,'s-Hertogenbosch,Noord-Brabant,VBO,5.380516,51.715049
Eikakkerhoeven,28,,,5242KK,Rosmalen,'s-Hertogenbosch,Noord-Brabant,VBO,5.380548,51.715124
Eikakkerhoeven,33,,,5242KK,Rosmalen,'s-Hertogenbosch,Noord-Brabant,VBO,5.379055,51.714191
Eikakkerhoeven,34,,,5242KK,Rosmalen,'s-Hertogenbosch,Noord-Brabant,VBO,5.379007,51.714146
Eikakkerhoeven,35,,,5242KK,Rosmalen,'s-Hertogenbosch,Noord-Brabant,VBO,5.378943,51.714117
Eikakkerhoeven,36,,,5242KK,Rosmalen,'s-Hertogenbosch,Noord-Brabant,VBO,5.378877,51.714085
Eikakkerhoeven,37,,,5242KK,Rosmalen,'s-Hertogenbosch,Noord-Brabant,VBO,5.378811,51.714055
Eikakkerhoeven,38,,,5242KK,Rosmalen,'s-Hertogenbosch,Noord-Brabant,VBO,5.378745,51.714024
Eikakkerhoeven,39,,,5242KK,Rosmalen,'s-Hertogenbosch,Noord-Brabant,VBO,5.378659,51.714007
Eikakkerhoeven,40,,,5242KK,Rosmalen,'s-Hertogenbosch,Noord-Brabant,VBO,5.378591,51.713976
Eikakkerhoeven,41,,,5242KK,Rosmalen,'s-Hertogenbosch,Noord-Brabant,VBO,5.378528,51.713946
Eikakkerhoeven,42,,,5242KK,Rosmalen,'s-Hertogenbosch,Noord-Brabant,VBO,5.378444,51.713930
Eikakkerhoeven,43,,,5242KK,Rosmalen,'s-Hertogenbosch,Noord-Brabant,VBO,5.378478,51.714090
Eikakkerhoeven,44,,,5242KK,Rosmalen,'s-Hertogenbosch,Noord-Brabant,VBO,5.378465,51.714149
Eikakkerhoeven,45,,,5242KK,Rosmalen,'s-Hertogenbosch,Noord-Brabant,VBO,5.378417,51.714190
Eikakkerhoeven,46,,,5242KK,Rosmalen,'s-Hertogenbosch,Noord-Brabant,VBO,5.378392,51.714243
Eikakkerhoeven,47,,,5242KK,Rosmalen,'s-Hertogenbosch,Noord-Brabant,VBO,5.378342,51.714285
Eikakkerhoeven,48,,,5242KK,Rosmalen,'s-Hertogenbosch,Noord-Brabant,VBO,5.378293,51.714327
Eikakkerhoeven,49,,,5242KK,Rosmalen,'s-Hertogenbosch,Noord-Brabant,VBO,5.378223,51.714357
Eikakkerhoeven,50,,,5242KK,Rosmalen,'s-Hertogenbosch,Noord-Brabant,VBO,5.378177,51.714397
Eikakkerhoeven,51,,,5242KK,Rosmalen,'s-Hertogenbosch,Noord-Brabant,VBO,5.378151,51.714450
Eikakkerhoeven,52,,,5242KK,Rosmalen,'s-Hertogenbosch,Noord-Brabant,VBO,5.378086,51.714531
Eikakkerhoeven,55,,,5242KL,Rosmalen,'s-Hertogenbosch,Noord-Brabant,VBO,5.378510,51.714406
Eikakkerhoeven,56,,,5242KL,Rosmalen,'s-Hertogenbosch,Noord-Brabant,VBO,5.378560,51.714364
Eikakkerhoeven,57,,,5242KL,Rosmalen,'s-Hertogenbosch,Noord-Brabant,VBO,5.378608,51.714324
Eikakkerhoeven,58,,,5242KL,Rosmalen,'s-Hertogenbosch,Noord-Brabant,VBO,5.378682,51.714293
Eikakkerhoeven,59,,,5242KL,Rosmalen,'s-Hertogenbosch,Noord-Brabant,VBO,5.378731,51.714252
Eikakkerhoeven,60,,,5242KL,Rosmalen,'s-Hertogenbosch,Noord-Brabant,VBO,5.378780,51.714211
Eikakkerhoeven,61,,,5242KL,Rosmalen,'s-Hertogenbosch,Noord-Brabant,VBO,5.378898,51.714687
Eikakkerhoeven,62,,,5242KL,Rosmalen,'s-Hertogenbosch,Noord-Brabant,VBO,5.378963,51.714716
Eikakkerhoeven,63,,,5242KL,Rosmalen,'s-Hertogenbosch,Noord-Brabant,VBO,5.379026,51.714745
Eikakkerhoeven,64,,,5242KL,Rosmalen,'s-Hertogenbosch,Noord-Brabant,VBO,5.379126,51.714740
Eikakkerhoeven,65,,,5242KL,Rosmalen,'s-Hertogenbosch,Noord-Brabant,VBO,5.379151,51.714801
Eikakkerhoeven,66,,,5242KL,Rosmalen,'s-Hertogenbosch,Noord-Brabant,VBO,5.379216,51.714830
Eikakkerhoeven,67,,,5242KL,Rosmalen,'s-Hertogenbosch,Noord-Brabant,VBO,5.379316,51.714826
Eikakkerhoeven,68,,,5242KL,Rosmalen,'s-Hertogenbosch,Noord-Brabant,VBO,5.379418,51.714823
Eikakkerhoeven,69,,,5242KL,Rosmalen,'s-Hertogenbosch,Noord-Brabant,VBO,5.379524,51.714883
Eikakkerhoeven,70,,,5242KL,Rosmalen,'s-Hertogenbosch,Noord-Brabant,VBO,5.379588,51.714912
Eikakkerhoeven,71,,,5242KL,Rosmalen,'s-Hertogenbosch,Noord-Brabant,VBO,5.379680,51.714916
Eikakkerhoeven,72,,,5242KL,Rosmalen,'s-Hertogenbosch,Noord-Brabant,VBO,5.379743,51.714945
Eikakkerhoeven,73,,,5242KL,Rosmalen,'s-Hertogenbosch,Noord-Brabant,VBO,5.379836,51.714949
Eikakkerhoeven,74,,,5242KL,Rosmalen,'s-Hertogenbosch,Noord-Brabant,VBO,5.379900,51.714978
Eikakkerhoeven,75,,,5242KL,Rosmalen,'s-Hertogenbosch,Noord-Brabant,VBO,5.379937,51.715032
Eikakkerhoeven,76,,,5242KL,Rosmalen,'s-Hertogenbosch,Noord-Brabant,VBO,5.379999,51.715060
Eikakkerhoeven,77,,,5242KL,Rosmalen,'s-Hertogenbosch,Noord-Brabant,VBO,5.380036,51.715114
Eikakkerhoeven,78,,,5242KM,Rosmalen,'s-Hertogenbosch,Noord-Brabant,VBO,5.379984,51.715429
Eikakkerhoeven,79,,,5242KM,Rosmalen,'s-Hertogenbosch,Noord-Brabant,VBO,5.379966,51.715482
Eikakkerhoeven,80,,,5242KM,Rosmalen,'s-Hertogenbosch,Noord-Brabant,VBO,5.379919,51.715522
Eikakkerhoeven,81,,,5242KM,Rosmalen,'s-Hertogenbosch,Noord-Brabant,VBO,5.379872,51.715563
Eikakkerhoeven,82,,,5242KM,Rosmalen,'s-Hertogenbosch,Noord-Brabant,VBO,5.379825,51.715603
Eikakkerhoeven,83,A,,5242KM,Rosmalen,'s-Hertogenbosch,Noord-Brabant,VBO,5.379446,51.715354
Eikakkerhoeven,83,,,5242KM,Rosmalen,'s-Hertogenbosch,Noord-Brabant,VBO,5.379354,51.715313
Eikakkerhoeven,84,,,5242KM,Rosmalen,'s-Hertogenbosch,Noord-Brabant,VBO,5.378355,51.714788
Eikakkerhoeven,85,,,5242KM,Rosmalen,'s-Hertogenbosch,Noord-Brabant,VBO,5.378385,51.714851
Eikakkerhoeven,86,,,5242KM,Rosmalen,'s-Hertogenbosch,Noord-Brabant,VBO,5.378450,51.714879
Eikakkerhoeven,87,,,5242KM,Rosmalen,'s-Hertogenbosch,Noord-Brabant,VBO,5.378551,51.714876
Eikakkerhoeven,88,,,5242KM,Rosmalen,'s-Hertogenbosch,Noord-Brabant,VBO,5.378614,51.714905
Eikakkerhoeven,89,,,5242KM,Rosmalen,'s-Hertogenbosch,Noord-Brabant,VBO,5.378644,51.714963
Eikakkerhoeven,90,,,5242KM,Rosmalen,'s-Hertogenbosch,Noord-Brabant,VBO,5.378704,51.714994
Eikakkerhoeven,91,,,5242KM,Rosmalen,'s-Hertogenbosch,Noord-Brabant,VBO,5.378806,51.714986
Eikakkerhoeven,92,,,5242KM,Rosmalen,'s-Hertogenbosch,Noord-Brabant,VBO,5.378872,51.715017
Eikakkerhoeven,93,,,5242KM,Rosmalen,'s-Hertogenbosch,Noord-Brabant,VBO,5.378902,51.715074
Eikakkerhoeven,94,,,5242KM,Rosmalen,'s-Hertogenbosch,Noord-Brabant,VBO,5.378635,51.715284
Eikakkerhoeven,95,,,5242KM,Rosmalen,'s-Hertogenbosch,Noord-Brabant,VBO,5.378440,51.715222
Eikakkerhoeven,96,,,5242KM,Rosmalen,'s-Hertogenbosch,Noord-Brabant,VBO,5.378319,51.715096
Eikakkerhoeven,97,,,5242KM,Rosmalen,'s-Hertogenbosch,Noord-Brabant,VBO,5.378137,51.715008
Eikakkerhoeven,98,,,5242KM,Rosmalen,'s-Hertogenbosch,Noord-Brabant,VBO,5.377992,51.714902
Eikakkerhoeven,99,,,5242KM,Rosmalen,'s-Hertogenbosch,Noord-Brabant,VBO,5.377809,51.714815
Eikakkerhoeven,100,,,5242KM,Rosmalen,'s-Hertogenbosch,Noord-Brabant,VBO,5.377470,51.714765
Buskeshoeven,1,,,5242KN,Rosmalen,'s-Hertogenbosch,Noord-Brabant,VBO,5.377328,51.717066
Buskeshoeven,3,,,5242KN,Rosmalen,'s-Hertogenbosch,Noord-Brabant,VBO,5.377416,51.716951
Buskeshoeven,5,,,5242KN,Rosmalen,'s-Hertogenbosch,Noord-Brabant,VBO,5.377441,51.716795
Buskeshoeven,7,,,5242KN,Rosmalen,'s-Hertogenbosch,Noord-Brabant,VBO,5.377474,51.716752
Buskeshoeven,9,,,5242KN,Rosmalen,'s-Hertogenbosch,Noord-Brabant,VBO,5.377448,51.716632
Buskeshoeven,11,,,5242KN,Rosmalen,'s-Hertogenbosch,Noord-Brabant,VBO,5.377481,51.716590
Buskeshoeven,13,,,5242KN,Rosmalen,'s-Hertogenbosch,Noord-Brabant,VBO,5.377453,51.716471
Buskeshoeven,15,,,5242KN,Rosmalen,'s-Hertogenbosch,Noord-Brabant,VBO,5.377487,51.716429
Buskeshoeven,17,,,5242KN,Rosmalen,'s-Hertogenbosch,Noord-Brabant,VBO,5.377526,51.716327
Buskeshoeven,19,,,5242KN,Rosmalen,'s-Hertogenbosch,Noord-Brabant,VBO,5.377526,51.716275
Buskeshoeven,21,,,5242KN,Rosmalen,'s-Hertogenbosch,Noord-Brabant,VBO,5.377526,51.716224
Buskeshoeven,23,,,5242KN,Rosmalen,'s-Hertogenbosch,Noord-Brabant,VBO,5.377550,51.715933
Buskeshoeven,25,,,5242KN,Rosmalen,'s-Hertogenbosch,Noord-Brabant,VBO,5.377530,51.715851
Buskeshoeven,27,,,5242KN,Rosmalen,'s-Hertogenbosch,Noord-Brabant,VBO,5.377499,51.715792
Buskeshoeven,29,,,5242KN,Rosmalen,'s-Hertogenbosch,Noord-Brabant,VBO,5.377463,51.715736
Buskeshoeven,31,,,5242KN,Rosmalen,'s-Hertogenbosch,Noord-Brabant,VBO,5.377400,51.715665
Buskeshoeven,33,,,5242KN,Rosmalen,'s-Hertogenbosch,Noord-Brabant,VBO,5.377400,51.715612
Buskeshoeven,35,,,5242KN,Rosmalen,'s-Hertogenbosch,Noord-Brabant,VBO,5.377387,51.715543
Buskeshoeven,37,,,5242KN,Rosmalen,'s-Hertogenbosch,Noord-Brabant,VBO,5.377708,51.715464
Buskeshoeven,39,,,5242KN,Rosmalen,'s-Hertogenbosch,Noord-Brabant,VBO,5.377694,51.715512
Buskeshoeven,41,,,5242KN,Rosmalen,'s-Hertogenbosch,Noord-Brabant,VBO,5.377681,51.715561
Buskeshoeven,43,,,5242KN,Rosmalen,'s-Hertogenbosch,Noord-Brabant,VBO,5.377744,51.715627
Buskeshoeven,45,,,5242KN,Rosmalen,'s-Hertogenbosch,Noord-Brabant,VBO,5.377747,51.715678
Buskeshoeven,47,,,5242KN,Rosmalen,'s-Hertogenbosch,Noord-Brabant,VBO,5.377830,51.715751
Buskeshoeven,49,,,5242KN,Rosmalen,'s-Hertogenbosch,Noord-Brabant,VBO,5.377857,51.715810
Buskeshoeven,51,,,5242KP,Rosmalen,'s-Hertogenbosch,Noord-Brabant,VBO,5.378071,51.715877
Buskeshoeven,53,,,5242KP,Rosmalen,'s-Hertogenbosch,Noord-Brabant,VBO,5.378158,51.715903
Buskeshoeven,55,,,5242KP,Rosmalen,'s-Hertogenbosch,Noord-Brabant,VBO,5.378241,51.715903
Buskeshoeven,57,,,5242KP,Rosmalen,'s-Hertogenbosch,Noord-Brabant,VBO,5.378323,51.715903
Buskeshoeven,59,,,5242KP,Rosmalen,'s-Hertogenbosch,Noord-Brabant,VBO,5.378439,51.715888
Buskeshoeven,61,,,5242KP,Rosmalen,'s-Hertogenbosch,Noord-Brabant,VBO,5.378557,51.715978
Buskeshoeven,63,,,5242KP,Rosmalen,'s-Hertogenbosch,Noord-Brabant,VBO,5.378614,51.716025
Buskeshoeven,65,,,5242KP,Rosmalen,'s-Hertogenbosch,Noord-Brabant,VBO,5.378707,51.716023
Buskeshoeven,67,,,5242KP,Rosmalen,'s-Hertogenbosch,Noord-Brabant,VBO,5.378763,51.716070
Buskeshoeven,69,,,5242KP,Rosmalen,'s-Hertogenbosch,Noord-Brabant,VBO,5.378858,51.716068
Buskeshoeven,71,,,5242KP,Rosmalen,'s-Hertogenbosch,Noord-Brabant,VBO,5.378969,51.716176
Buskeshoeven,73,,,5242KP,Rosmalen,'s-Hertogenbosch,Noord-Brabant,VBO,5.378950,51.716224
Buskeshoeven,75,,,5242KP,Rosmalen,'s-Hertogenbosch,Noord-Brabant,VBO,5.378978,51.716274
Buskeshoeven,77,,,5242KP,Rosmalen,'s-Hertogenbosch,Noord-Brabant,VBO,5.379042,51.716304
Buskeshoeven,79,A,,5242KP,Rosmalen,'s-Hertogenbosch,Noord-Brabant,VBO,5.379225,51.716389
Buskeshoeven,79,,,5242KP,Rosmalen,'s-Hertogenbosch,Noord-Brabant,VBO,5.379225,51.716389
Buskeshoeven,81,,,5242KP,Rosmalen,'s-Hertogenbosch,Noord-Brabant,VBO,5.379293,51.716418
Buskeshoeven,83,,,5242KP,Rosmalen,'s-Hertogenbosch,Noord-Brabant,VBO,5.379367,51.716440
Buskeshoeven,85,,,5242KP,Rosmalen,'s-Hertogenbosch,Noord-Brabant,VBO,5.379424,51.716488
Buskeshoeven,87,,,5242KP,Rosmalen,'s-Hertogenbosch,Noord-Brabant,VBO,5.379655,51.716293
Buskeshoeven,89,,,5242KP,Rosmalen,'s-Hertogenbosch,Noord-Brabant,VBO,5.379798,51.716427
Buskeshoeven,91,,,5242KP,Rosmalen,'s-Hertogenbosch,Noord-Brabant,VBO,5.379689,51.716647
Buskeshoeven,93,,,5242KP,Rosmalen,'s-Hertogenbosch,Noord-Brabant,VBO,5.379895,51.716688
Buskeshoeven,95,,,5242KP,Rosmalen,'s-Hertogenbosch,Noord-Brabant,VBO,5.380131,51.716737
Buskeshoeven,97,,,5242KR,Rosmalen,'s-Hertogenbosch,Noord-Brabant,VBO,5.379894,51.717058
Buskeshoeven,99,,,5242KR,Rosmalen,'s-Hertogenbosch,Noord-Brabant,VBO,5.379826,51.717037
Buskeshoeven,101,,,5242KR,Rosmalen,'s-Hertogenbosch,Noord-Brabant,VBO,5.379681,51.716994
Buskeshoeven,103,,,5242KR,Rosmalen,'s-Hertogenbosch,Noord-Brabant,VBO,5.379612,51.716973
Buskeshoeven,105,,,5242KR,Rosmalen,'s-Hertogenbosch,Noord-Brabant,VBO,5.379466,51.716929
Buskeshoeven,107,,,5242KR,Rosmalen,'s-Hertogenbosch,Noord-Brabant,VBO,5.379399,51.716909
Buskeshoeven,109,,,5242KR,Rosmalen,'s-Hertogenbosch,Noord-Brabant,VBO,5.379331,51.716888
Buskeshoeven,111,,,5242KR,Rosmalen,'s-Hertogenbosch,Noord-Brabant,VBO,5.379421,51.717039
Buskeshoeven,113,,,5242KR,Rosmalen,'s-Hertogenbosch,Noord-Brabant,VBO,5.379306,51.717062
Buskeshoeven,115,,,5242KR,Rosmalen,'s-Hertogenbosch,Noord-Brabant,VBO,5.379192,51.717084
Buskeshoeven,117,,,5242KR,Rosmalen,'s-Hertogenbosch,Noord-Brabant,VBO,5.379077,51.717108
Buskeshoeven,119,,,5242KR,Rosmalen,'s-Hertogenbosch,Noord-Brabant,VBO,5.379007,51.717240
Buskeshoeven,121,,,5242KR,Rosmalen,'s-Hertogenbosch,Noord-Brabant,VBO,5.378797,51.717200
Buskeshoeven,123,,,5242KR,Rosmalen,'s-Hertogenbosch,Noord-Brabant,VBO,5.378575,51.717163
Buskeshoeven,125,,,5242KR,Rosmalen,'s-Hertogenbosch,Noord-Brabant,VBO,5.378366,51.717130
Buskeshoeven,127,,,5242KR,Rosmalen,'s-Hertogenbosch,Noord-Brabant,VBO,5.378147,51.717100
Buskeshoeven,129,,,5242KR,Rosmalen,'s-Hertogenbosch,Noord-Brabant,VBO,5.377748,51.717031
Buskeshoeven,131,,,5242KR,Rosmalen,'s-Hertogenbosch,Noord-Brabant,VBO,5.377673,51.717076
Buskeshoeven,133,,,5242KR,Rosmalen,'s-Hertogenbosch,Noord-Brabant,VBO,5.377674,51.717127
Buskeshoeven,135,,,5242KR,Rosmalen,'s-Hertogenbosch,Noord-Brabant,VBO,5.377600,51.717170
Buskeshoeven,2,,,5242KS,Rosmalen,'s-Hertogenbosch,Noord-Brabant,VBO,5.377794,51.716765
Buskeshoeven,4,,,5242KS,Rosmalen,'s-Hertogenbosch,Noord-Brabant,VBO,5.377770,51.716726
Buskeshoeven,6,,,5242KS,Rosmalen,'s-Hertogenbosch,Noord-Brabant,VBO,5.377711,51.716736
Buskeshoeven,8,,,5242KS,Rosmalen,'s-Hertogenbosch,Noord-Brabant,VBO,5.377742,51.716679
Buskeshoeven,10,,,5242KS,Rosmalen,'s-Hertogenbosch,Noord-Brabant,VBO,5.377685,51.716691
Buskeshoeven,12,,,5242KS,Rosmalen,'s-Hertogenbosch,Noord-Brabant,VBO,5.377722,51.716636
Buskeshoeven,14,,,5242KS,Rosmalen,'s-Hertogenbosch,Noord-Brabant,VBO,5.377784,51.716531
Buskeshoeven,16,,,5242KS,Rosmalen,'s-Hertogenbosch,Noord-Brabant,VBO,5.377818,51.716487
Buskeshoeven,18,,,5242KS,Rosmalen,'s-Hertogenbosch,Noord-Brabant,VBO,5.377852,51.716443
Buskeshoeven,20,,,5242KS,Rosmalen,'s-Hertogenbosch,Noord-Brabant,VBO,5.377886,51.716367
Buskeshoeven,22,,,5242KS,Rosmalen,'s-Hertogenbosch,Noord-Brabant,VBO,5.377832,51.716306
Buskeshoeven,24,,,5242KS,Rosmalen,'s-Hertogenbosch,Noord-Brabant,VBO,5.377804,51.716255
Buskeshoeven,26,,,5242KS,Rosmalen,'s-Hertogenbosch,Noord-Brabant,VBO,5.377776,51.716204
Buskeshoeven,28,,,5242KS,Rosmalen,'s-Hertogenbosch,Noord-Brabant,VBO,5.378486,51.716146
Buskeshoeven,30,,,5242KS,Rosmalen,'s-Hertogenbosch,Noord-Brabant,VBO,5.378511,51.716190
Buskeshoeven,32,,,5242KS,Rosmalen,'s-Hertogenbosch,Noord-Brabant,VBO,5.378646,51.716267
Buskeshoeven,34,,,5242KT,Rosmalen,'s-Hertogenbosch,Noord-Brabant,VBO,5.378670,51.716310
Buskeshoeven,36,,,5242KT,Rosmalen,'s-Hertogenbosch,Noord-Brabant,VBO,5.378696,51.716355
Buskeshoeven,38,,,5242KT,Rosmalen,'s-Hertogenbosch,Noord-Brabant,VBO,5.378818,51.716415
Buskeshoeven,40,,,5242KT,Rosmalen,'s-Hertogenbosch,Noord-Brabant,VBO,5.378889,51.716436
Buskeshoeven,42,,,5242KT,Rosmalen,'s-Hertogenbosch,Noord-Brabant,VBO,5.378960,51.716457
Buskeshoeven,44,,,5242KT,Rosmalen,'s-Hertogenbosch,Noord-Brabant,VBO,5.379113,51.716516
Buskeshoeven,46,,,5242KT,Rosmalen,'s-Hertogenbosch,Noord-Brabant,VBO,5.379182,51.716547
Buskeshoeven,48,,,5242KT,Rosmalen,'s-Hertogenbosch,Noord-Brabant,VBO,5.379134,51.716559
Buskeshoeven,50,,,5242KT,Rosmalen,'s-Hertogenbosch,Noord-Brabant,VBO,5.379213,51.716592
Buskeshoeven,52,,,5242KT,Rosmalen,'s-Hertogenbosch,Noord-Brabant,VBO,5.379172,51.716601
Buskeshoeven,54,,,5242KT,Rosmalen,'s-Hertogenbosch,Noord-Brabant,VBO,5.379185,51.716645
Buskeshoeven,56,,,5242KT,Rosmalen,'s-Hertogenbosch,Noord-Brabant,VBO,5.379124,51.716750
Buskeshoeven,58,,,5242KT,Rosmalen,'s-Hertogenbosch,Noord-Brabant,VBO,5.379089,51.716794
Buskeshoeven,60,,,5242KT,Rosmalen,'s-Hertogenbosch,Noord-Brabant,VBO,5.379055,51.716839
Buskeshoeven,62,A,,5242KT,Rosmalen,'s-Hertogenbosch,Noord-Brabant,VBO,5.378929,51.716890
Buskeshoeven,62,,,5242KT,Rosmalen,'s-Hertogenbosch,Noord-Brabant,VBO,5.378953,51.716923
Buskeshoeven,64,,,5242KT,Rosmalen,'s-Hertogenbosch,Noord-Brabant,VBO,5.378907,51.716987
Buskeshoeven,66,,,5242KT,Rosmalen,'s-Hertogenbosch,Noord-Brabant,VBO,5.378833,51.717003
Buskeshoeven,68,,,5242KT,Rosmalen,'s-Hertogenbosch,Noord-Brabant,VBO,5.378751,51.716979
Buskeshoeven,70,,,5242KT,Rosmalen,'s-Hertogenbosch,Noord-Brabant,VBO,5.378584,51.716940
Buskeshoeven,72,,,5242KT,Rosmalen,'s-Hertogenbosch,Noord-Brabant,VBO,5.378513,51.716919
Buskeshoeven,74,,,5242KT,Rosmalen,'s-Hertogenbosch,Noord-Brabant,VBO,5.378443,51.716898
Buskeshoeven,76,,,5242KT,Rosmalen,'s-Hertogenbosch,Noord-Brabant,VBO,5.378372,51.716877
Buskeshoeven,78,,,5242KT,Rosmalen,'s-Hertogenbosch,Noord-Brabant,VBO,5.378301,51.716855
Buskeshoeven,80,,,5242KT,Rosmalen,'s-Hertogenbosch,Noord-Brabant,VBO,5.378091,51.716867
Buskeshoeven,82,,,5242KT,Rosmalen,'s-Hertogenbosch,Noord-Brabant,VBO,5.378021,51.716846
Buskeshoeven,84,,,5242KT,Rosmalen,'s-Hertogenbosch,Noord-Brabant,VBO,5.377947,51.716824
