openbareruimtenaam,huisnummer,huisletter,huisnummertoevoeging,postcode,woonplaatsnaam,gemeentenaam,provincienaam,typeadresseerbaarobject,longitude,latitude
Kievitsven,18,,,5249JJ,Rosmalen,'s-Hertogenbosch,Noord-Brabant,VBO,5.397094,51.726261
Kievitsven,20,,,5249JJ,Rosmalen,'s-Hertogenbosch,Noord-Brabant,VBO,5.397601,51.726039
Kievitsven,22,,,5249JJ,Rosmalen,'s-Hertogenbosch,Noord-Brabant,VBO,5.397490,51.726027
Kievitsven,24,,,5249JJ,Rosmalen,'s-Hertogenbosch,Noord-Brabant,VBO,5.397376,51.726014
Kievitsven,26,,,5249JJ,Rosmalen,'s-Hertogenbosch,Noord-Brabant,VBO,5.397263,51.726002
Kievitsven,28,,,5249JJ,Rosmalen,'s-Hertogenbosch,Noord-Brabant,VBO,5.397765,51.726025
Kievitsven,30,,,5249JJ,Rosmalen,'s-Hertogenbosch,Noord-Brabant,VBO,5.397788,51.725945
Kievitsven,32,,,5249JJ,Rosmalen,'s-Hertogenbosch,Noord-Brabant,VBO,5.397642,51.725907
Kievitsven,34,,,5249JJ,Rosmalen,'s-Hertogenbosch,Noord-Brabant,VBO,5.397525,51.725894
Kievitsven,36,,,5249JJ,Rosmalen,'s-Hertogenbosch,Noord-Brabant,VBO,5.397417,51.725882
Kievitsven,38,,,5249JJ,Rosmalen,'s-Hertogenbosch,Noord-Brabant,VBO,5.397301,51.725869
Kievitsven,40,,,5249JJ,Rosmalen,'s-Hertogenbosch,Noord-Brabant,VBO,5.397859,51.725706
Kievitsven,42,,,5249JJ,Rosmalen,'s-Hertogenbosch,Noord-Brabant,VBO,5.397863,51.725446
Kievitsven,44,,,5249JJ,Rosmalen,'s-Hertogenbosch,Noord-Brabant,VBO,5.397994,51.725301
Kievitsven,48,A,,5249JJ,Rosmalen,'s-Hertogenbosch,Noord-Brabant,VBO,5.397702,51.725117
Kievitsven,48,B,,5249JJ,Rosmalen,'s-Hertogenbosch,Noord-Brabant,VBO,5.397560,51.725102
Kievitsven,48,,,5249JJ,Rosmalen,'s-Hertogenbosch,Noord-Brabant,VBO,5.397842,51.725129
Kievitsven,50,,,5249JJ,Rosmalen,'s-Hertogenbosch,Noord-Brabant,VBO,5.398025,51.725126
Kievitsven,52,,,5249JJ,Rosmalen,'s-Hertogenbosch,Noord-Brabant,VBO,5.397842,51.725129
Kievitsven,54,,,5249JK,Rosmalen,'s-Hertogenbosch,Noord-Brabant,VBO,5.397842,51.725129
Kievitsven,56,,,5249JK,Rosmalen,'s-Hertogenbosch,Noord-Brabant,VBO,5.397842,51.725129
Kievitsven,58,A,,5249JK,Rosmalen,'s-Hertogenbosch,Noord-Brabant,VBO,5.397842,51.725129
Kievitsven,58,B,,5249JK,Rosmalen,'s-Hertogenbosch,Noord-Brabant,VBO,5.397842,51.725129
Kievitsven,58,,,5249JK,Rosmalen,'s-Hertogenbosch,Noord-Brabant,VBO,5.397904,51.724984
Kievitsven,60,A,,5249JK,Rosmalen,'s-Hertogenbosch,Noord-Brabant,VBO,5.397745,51.724742
Kievitsven,60,D,,5249JK,Rosmalen,'s-Hertogenbosch,Noord-Brabant,VBO,5.397803,51.724582
Kievitsven,62,A,,5249JK,Rosmalen,'s-Hertogenbosch,Noord-Brabant,VBO,5.398101,51.724780
Kievitsven,62,B,,5249JK,Rosmalen,'s-Hertogenbosch,Noord-Brabant,VBO,5.398162,51.724573
Kievitsven,62,,,5249JK,Rosmalen,'s-Hertogenbosch,Noord-Brabant,VBO,5.398101,51.724780
Kievitsven,64,A,,5249JK,Rosmalen,'s-Hertogenbosch,Noord-Brabant,VBO,5.398279,51.724408
Kievitsven,64,B,,5249JK,Rosmalen,'s-Hertogenbosch,Noord-Brabant,VBO,5.398181,51.724395
Kievitsven,64,C,,5249JK,Rosmalen,'s-Hertogenbosch,Noord-Brabant,VBO,5.398181,51.724395
Kievitsven,64,D,,5249JK,Rosmalen,'s-Hertogenbosch,Noord-Brabant,VBO,5.398181,51.724395
Kievitsven,64,E,,5249JK,Rosmalen,'s-Hertogenbosch,Noord-Brabant,VBO,5.398181,51.724395
Kievitsven,64,F,,5249JK,Rosmalen,'s-Hertogenbosch,Noord-Brabant,VBO,5.397735,51.724357
Kievitsven,64,G,,5249JK,Rosmalen,'s-Hertogenbosch,Noord-Brabant,VBO,5.397754,51.724305
Kievitsven,64,H,,5249JK,Rosmalen,'s-Hertogenbosch,Noord-Brabant,VBO,5.397769,51.724257
Kievitsven,64,K,,5249JK,Rosmalen,'s-Hertogenbosch,Noord-Brabant,VBO,5.398181,51.724395
Kievitsven,64,L,,5249JK,Rosmalen,'s-Hertogenbosch,Noord-Brabant,VBO,5.398181,51.724395
Kievitsven,64,N,,5249JK,Rosmalen,'s-Hertogenbosch,Noord-Brabant,VBO,5.398181,51.724395
Kievitsven,64,P,,5249JK,Rosmalen,'s-Hertogenbosch,Noord-Brabant,VBO,5.398181,51.724395
Kievitsven,64,R,,5249JK,Rosmalen,'s-Hertogenbosch,Noord-Brabant,VBO,5.398181,51.724395
Kievitsven,64,,,5249JK,Rosmalen,'s-Hertogenbosch,Noord-Brabant,VBO,5.398384,51.724418
Kievitsven,66,A,,5249JK,Rosmalen,'s-Hertogenbosch,Noord-Brabant,VBO,5.398372,51.724195
Kievitsven,66,B,,5249JK,Rosmalen,'s-Hertogenbosch,Noord-Brabant,VBO,5.398181,51.724395
Kievitsven,66,C,,5249JK,Rosmalen,'s-Hertogenbosch,Noord-Brabant,VBO,5.398219,51.724163
Kievitsven,66,D,,5249JK,Rosmalen,'s-Hertogenbosch,Noord-Brabant,VBO,5.398143,51.724146
Kievitsven,66,E,,5249JK,Rosmalen,'s-Hertogenbosch,Noord-Brabant,VBO,5.398181,51.724395
Kievitsven,66,F,,5249JK,Rosmalen,'s-Hertogenbosch,Noord-Brabant,VBO,5.398181,51.724395
Kievitsven,66,,,5249JK,Rosmalen,'s-Hertogenbosch,Noord-Brabant,VBO,5.398448,51.724212
Kievitsven,68,,,5249JK,Rosmalen,'s-Hertogenbosch,Noord-Brabant,VBO,5.399175,51.724396
Kievitsven,70,A,,5249JK,Rosmalen,'s-Hertogenbosch,Noord-Brabant,VBO,5.398930,51.724661
Kievitsven,70,B,,5249JK,Rosmalen,'s-Hertogenbosch,Noord-Brabant,VBO,5.399015,51.724668
Kievitsven,70,C,,5249JK,Rosmalen,'s-Hertogenbosch,Noord-Brabant,VBO,5.399099,51.724678
Kievitsven,70,D,,5249JK,Rosmalen,'s-Hertogenbosch,Noord-Brabant,VBO,5.399170,51.724687
Kievitsven,70,E,,5249JK,Rosmalen,'s-Hertogenbosch,Noord-Brabant,VBO,5.399264,51.724700
Kievitsven,70,F,,5249JK,Rosmalen,'s-Hertogenbosch,Noord-Brabant,VBO,5.399340,51.724707
Kievitsven,70,G,,5249JK,Rosmalen,'s-Hertogenbosch,Noord-Brabant,VBO,5.399427,51.724713
Kievitsven,70,,,5249JK,Rosmalen,'s-Hertogenbosch,Noord-Brabant,VBO,5.398864,51.724650
Kievitsven,72,,,5249JK,Rosmalen,'s-Hertogenbosch,Noord-Brabant,VBO,5.398879,51.724811
Kievitsven,74,,,5249JK,Rosmalen,'s-Hertogenbosch,Noord-Brabant,VBO,5.398984,51.724821
Kievitsven,76,,,5249JK,Rosmalen,'s-Hertogenbosch,Noord-Brabant,VBO,5.399093,51.724834
Kievitsven,78,,,5249JK,Rosmalen,'s-Hertogenbosch,Noord-Brabant,VBO,5.399211,51.724846
Kievitsven,80,,,5249JK,Rosmalen,'s-Hertogenbosch,Noord-Brabant,VBO,5.399316,51.724856
Kievitsven,82,,,5249JK,Rosmalen,'s-Hertogenbosch,Noord-Brabant,VBO,5.398792,51.724832
Kievitsven,84,,,5249JK,Rosmalen,'s-Hertogenbosch,Noord-Brabant,VBO,5.398771,51.724908
Kievitsven,86,,,5249JK,Rosmalen,'s-Hertogenbosch,Noord-Brabant,VBO,5.398830,51.724940
Kievitsven,88,,,5249JK,Rosmalen,'s-Hertogenbosch,Noord-Brabant,VBO,5.398936,51.724952
Kievitsven,90,,,5249JK,Rosmalen,'s-Hertogenbosch,Noord-Brabant,VBO,5.399046,51.724964
Kievitsven,92,,,5249JK,Rosmalen,'s-Hertogenbosch,Noord-Brabant,VBO,5.399165,51.724977
Kievitsven,94,,,5249JK,Rosmalen,'s-Hertogenbosch,Noord-Brabant,VBO,5.399274,51.724988
Kievitsven,98,,,5249JK,Rosmalen,'s-Hertogenbosch,Noord-Brabant,VBO,5.398616,51.725154
Kievitsven,100,,,5249JK,Rosmalen,'s-Hertogenbosch,Noord-Brabant,VBO,5.398585,51.725244
Kievitsven,102,,,5249JK,Rosmalen,'s-Hertogenbosch,Noord-Brabant,VBO,5.398520,51.725733
Kievitsven,104,,,5249JK,Rosmalen,'s-Hertogenbosch,Noord-Brabant,VBO,5.398333,51.726377
Kievitsven,108,,,5249JK,Rosmalen,'s-Hertogenbosch,Noord-Brabant,VBO,5.398256,51.726785
Kruisstraatse Akkers,26,,,5249JM,Rosmalen,'s-Hertogenbosch,Noord-Brabant,VBO,5.402305,51.730297
Kruisstraatse Akkers,28,,,5249JM,Rosmalen,'s-Hertogenbosch,Noord-Brabant,VBO,5.402347,51.730084
Kruisstraatse Akkers,30,,,5249JM,Rosmalen,'s-Hertogenbosch,Noord-Brabant,VBO,5.402375,51.729735
Kruisstraatse Akkers,32,,,5249JM,Rosmalen,'s-Hertogenbosch,Noord-Brabant,VBO,5.402748,51.729721
Vinkenveld,1,A,,5249JN,Rosmalen,'s-Hertogenbosch,Noord-Brabant,VBO,5.401851,51.729300
Vinkenveld,1,D,,5249JN,Rosmalen,'s-Hertogenbosch,Noord-Brabant,VBO,5.401660,51.729593
Vinkenveld,1,,,5249JN,Rosmalen,'s-Hertogenbosch,Noord-Brabant,VBO,5.401837,51.729471
Vinkenveld,3,,,5249JN,Rosmalen,'s-Hertogenbosch,Noord-Brabant,VBO,5.401966,51.729161
Vinkenveld,5,,,5249JN,Rosmalen,'s-Hertogenbosch,Noord-Brabant,VBO,5.402209,51.728645
Vinkenveld,7,A,,5249JN,Rosmalen,'s-Hertogenbosch,Noord-Brabant,VBO,5.402116,51.728368
Vinkenveld,7,,,5249JN,Rosmalen,'s-Hertogenbosch,Noord-Brabant,VBO,5.402352,51.728291
Vinkenveld,9,,,5249JN,Rosmalen,'s-Hertogenbosch,Noord-Brabant,VBO,5.402229,51.728138
Vinkenveld,13,,,5249JN,Rosmalen,'s-Hertogenbosch,Noord-Brabant,VBO,5.402847,51.727073
Vinkenveld,15,,,5249JN,Rosmalen,'s-Hertogenbosch,Noord-Brabant,VBO,5.402952,51.726881
Vinkenveld,17,,,5249JN,Rosmalen,'s-Hertogenbosch,Noord-Brabant,VBO,5.403034,51.726506
Vinkenveld,23,,,5249JN,Rosmalen,'s-Hertogenbosch,Noord-Brabant,VBO,5.403201,51.726224
Vinkenveld,2,B,,5249JP,Rosmalen,'s-Hertogenbosch,Noord-Brabant,VBO,5.402533,51.728989
Vinkenveld,2,C,,5249JP,Rosmalen,'s-Hertogenbosch,Noord-Brabant,VBO,5.402858,51.729073
Vinkenveld,2,,,5249JP,Rosmalen,'s-Hertogenbosch,Noord-Brabant,VBO,5.402443,51.729296
Vinkenveld,4,C,,5249JP,Rosmalen,'s-Hertogenbosch,Noord-Brabant,VBO,5.402782,51.728479
Vinkenveld,4,,,5249JP,Rosmalen,'s-Hertogenbosch,Noord-Brabant,VBO,5.402728,51.728633
Vinkenveld,6,A,,5249JP,Rosmalen,'s-Hertogenbosch,Noord-Brabant,VBO,5.403349,51.727522
Vinkenveld,6,B,,5249JP,Rosmalen,'s-Hertogenbosch,Noord-Brabant,VBO,5.403411,51.727155
Vinkenveld,6,C,,5249JP,Rosmalen,'s-Hertogenbosch,Noord-Brabant,VBO,5.403411,51.727155
Vinkenveld,6,D,,5249JP,Rosmalen,'s-Hertogenbosch,Noord-Brabant,VBO,5.403501,51.726934
Vinkenveld,6,,,5249JP,Rosmalen,'s-Hertogenbosch,Noord-Brabant,VBO,5.403349,51.727522
Vinkenveld,8,A,,5249JP,Rosmalen,'s-Hertogenbosch,Noord-Brabant,VBO,5.403549,51.726612
Vinkenveld,8,,,5249JP,Rosmalen,'s-Hertogenbosch,Noord-Brabant,VBO,5.403501,51.726763
Vinkenveld,10,A,,5249JP,Rosmalen,'s-Hertogenbosch,Noord-Brabant,VBO,5.404230,51.726813
Vinkenveld,10,,,5249JP,Rosmalen,'s-Hertogenbosch,Noord-Brabant,VBO,5.404141,51.726668
Vinkenveld,12,,,5249JP,Rosmalen,'s-Hertogenbosch,Noord-Brabant,VBO,5.404540,51.726806
Vinkenveld,14,,,5249JP,Rosmalen,'s-Hertogenbosch,Noord-Brabant,VBO,5.404631,51.726473
Vinkenveld,16,,,5249JP,Rosmalen,'s-Hertogenbosch,Noord-Brabant,VBO,5.404433,51.726429
Vinkenveld,18,,,5249JP,Rosmalen,'s-Hertogenbosch,Noord-Brabant,VBO,5.404084,51.726378
Vinkenveld,20,,,5249JP,Rosmalen,'s-Hertogenbosch,Noord-Brabant,VBO,5.403708,51.726333
Vinkenveld,22,A,,5249JP,Rosmalen,'s-Hertogenbosch,Noord-Brabant,VBO,5.404349,51.726106
Vinkenveld,22,,,5249JP,Rosmalen,'s-Hertogenbosch,Noord-Brabant,VBO,5.403856,51.726114
Vinkenveld,24,,,5249JP,Rosmalen,'s-Hertogenbosch,Noord-Brabant,VBO,5.403823,51.725977
Huisbergenweg,1,,,5249JR,Rosmalen,'s-Hertogenbosch,Noord-Brabant,VBO,5.399071,51.727956
Huisbergenweg,2,,,5249JR,Rosmalen,'s-Hertogenbosch,Noord-Brabant,VBO,5.398468,51.727603
Huisbergenweg,3,,,5249JR,Rosmalen,'s-Hertogenbosch,Noord-Brabant,VBO,5.398952,51.729050
Huisbergenweg,4,A,,5249JR,Rosmalen,'s-Hertogenbosch,Noord-Brabant,VBO,5.398585,51.728012
Huisbergenweg,4,,,5249JR,Rosmalen,'s-Hertogenbosch,Noord-Brabant,VBO,5.398594,51.727979
Huisbergenweg,5,,,5249JR,Rosmalen,'s-Hertogenbosch,Noord-Brabant,VBO,5.399669,51.729418
Huisbergenweg,6,A,,5249JR,Rosmalen,'s-Hertogenbosch,Noord-Brabant,VBO,5.398460,51.728279
Huisbergenweg,6,B,,5249JR,Rosmalen,'s-Hertogenbosch,Noord-Brabant,VBO,5.398452,51.728305
Huisbergenweg,6,C,,5249JR,Rosmalen,'s-Hertogenbosch,Noord-Brabant,VBO,5.398182,51.728190
Huisbergenweg,6,,,5249JR,Rosmalen,'s-Hertogenbosch,Noord-Brabant,VBO,5.398481,51.728224
Huisbergenweg,7,,,5249JR,Rosmalen,'s-Hertogenbosch,Noord-Brabant,VBO,5.399608,51.729604
Huisbergenweg,8,,,5249JR,Rosmalen,'s-Hertogenbosch,Noord-Brabant,VBO,5.398453,51.728831
Huisbergenweg,9,,,5249JR,Rosmalen,'s-Hertogenbosch,Noord-Brabant,VBO,5.399544,51.729814
Huisbergenweg,10,,,5249JR,Rosmalen,'s-Hertogenbosch,Noord-Brabant,VBO,5.398340,51.729360
Huisbergenweg,11,,,5249JR,Rosmalen,'s-Hertogenbosch,Noord-Brabant,VBO,5.399470,51.730073
Friezenstraat,2,A,,5249JS,Rosmalen,'s-Hertogenbosch,Noord-Brabant,VBO,5.397000,51.727365
Friezenstraat,2,B,,5249JS,Rosmalen,'s-Hertogenbosch,Noord-Brabant,VBO,5.397509,51.727398
Friezenstraat,2,,,5249JS,Rosmalen,'s-Hertogenbosch,Noord-Brabant,VBO,5.396913,51.727362
Friezenstraat,4,A,,5249JS,Rosmalen,'s-Hertogenbosch,Noord-Brabant,VBO,5.398132,51.727463
Friezenstraat,4,,,5249JS,Rosmalen,'s-Hertogenbosch,Noord-Brabant,VBO,5.397857,51.727435
Friezenstraat,6,,,5249JS,Rosmalen,'s-Hertogenbosch,Noord-Brabant,VBO,5.399574,51.727327
Friezenstraat,8,A,,5249JS,Rosmalen,'s-Hertogenbosch,Noord-Brabant,VBO,5.400233,51.727299
Friezenstraat,8,B,,5249JS,Rosmalen,'s-Hertogenbosch,Noord-Brabant,VBO,5.400448,51.727323
Friezenstraat,8,,,5249JS,Rosmalen,'s-Hertogenbosch,Noord-Brabant,VBO,5.400015,51.727282
Friezenstraat,10,A,,5249JS,Rosmalen,'s-Hertogenbosch,Noord-Brabant,VBO,5.400763,51.727537
Friezenstraat,10,,,5249JS,Rosmalen,'s-Hertogenbosch,Noord-Brabant,VBO,5.400763,51.727537
Friezenstraat,12,A,,5249JS,Rosmalen,'s-Hertogenbosch,Noord-Brabant,VBO,5.401449,51.727370
Friezenstraat,12,,,5249JS,Rosmalen,'s-Hertogenbosch,Noord-Brabant,VBO,5.401345,51.727358
Friezenstraat,14,,,5249JS,Rosmalen,'s-Hertogenbosch,Noord-Brabant,VBO,5.401737,51.727400
Friezenstraat,16,,,5249JS,Rosmalen,'s-Hertogenbosch,Noord-Brabant,VBO,5.402335,51.727485
Friezenstraat,18,,,5249JS,Rosmalen,'s-Hertogenbosch,Noord-Brabant,VBO,5.402671,51.727441
Friezenstraat,1,A,,5249JT,Rosmalen,'s-Hertogenbosch,Noord-Brabant,VBO,5.399113,51.726810
Friezenstraat,1,B,,5249JT,Rosmalen,'s-Hertogenbosch,Noord-Brabant,VBO,5.399148,51.726679
Friezenstraat,1,C,,5249JT,Rosmalen,'s-Hertogenbosch,Noord-Brabant,VBO,5.399194,51.726543
Friezenstraat,1,,,5249JT,Rosmalen,'s-Hertogenbosch,Noord-Brabant,VBO,5.399160,51.726985
Friezenstraat,3,,,5249JT,Rosmalen,'s-Hertogenbosch,Noord-Brabant,VBO,5.399487,51.726897
Friezenstraat,5,,,5249JT,Rosmalen,'s-Hertogenbosch,Noord-Brabant,VBO,5.399812,51.726782
Friezenstraat,7,,,5249JT,Rosmalen,'s-Hertogenbosch,Noord-Brabant,VBO,5.402338,51.726821
Friezenstraat,9,,,5249JT,Rosmalen,'s-Hertogenbosch,Noord-Brabant,VBO,5.402431,51.727077
Biestkampweg,1,,,5249JV,Rosmalen,'s-Hertogenbosch,Noord-Brabant,VBO,5.399969,51.726649
Biestkampweg,2,,,5249JV,Rosmalen,'s-Hertogenbosch,Noord-Brabant,VBO,5.400812,51.726887
Biestkampweg,3,A,,5249JV,Rosmalen,'s-Hertogenbosch,Noord-Brabant,VBO,5.399648,51.726426
Biestkampweg,3,B,,5249JV,Rosmalen,'s-Hertogenbosch,Noord-Brabant,VBO,5.399347,51.726399
Biestkampweg,3,,,5249JV,Rosmalen,'s-Hertogenbosch,Noord-Brabant,VBO,5.399997,51.726505
Biestkampweg,4,,,5249JV,Rosmalen,'s-Hertogenbosch,Noord-Brabant,VBO,5.400682,51.726137
Biestkampweg,5,,,5249JV,Rosmalen,'s-Hertogenbosch,Noord-Brabant,VBO,5.399970,51.726105
Biestkampweg,6,A,,5249JV,Rosmalen,'s-Hertogenbosch,Noord-Brabant,VBO,5.401297,51.725943
Biestkampweg,6,,,5249JV,Rosmalen,'s-Hertogenbosch,Noord-Brabant,VBO,5.400727,51.725917
Biestkampweg,8,A,,5249JV,Rosmalen,'s-Hertogenbosch,Noord-Brabant,VBO,5.401188,51.725543
Biestkampweg,8,,,5249JV,Rosmalen,'s-Hertogenbosch,Noord-Brabant,VBO,5.401155,51.725656
Biestkampweg,9,A,,5249JV,Rosmalen,'s-Hertogenbosch,Noord-Brabant,VBO,5.400225,51.725722
Biestkampweg,9,,,5249JV,Rosmalen,'s-Hertogenbosch,Noord-Brabant,VBO,5.400225,51.725722
Biestkampweg,10,,,5249JV,Rosmalen,'s-Hertogenbosch,Noord-Brabant,VBO,5.400947,51.725382
Biestkampweg,11,A,,5249JV,Rosmalen,'s-Hertogenbosch,Noord-Brabant,VBO,5.400059,51.725443
Biestkampweg,11,B,,5249JV,Rosmalen,'s-Hertogenbosch,Noord-Brabant,VBO,5.399917,51.725428
Biestkampweg,11,C,,5249JV,Rosmalen,'s-Hertogenbosch,Noord-Brabant,VBO,5.399690,51.725442
Biestkampweg,11,,,5249JV,Rosmalen,'s-Hertogenbosch,Noord-Brabant,VBO,5.400304,51.725451
Biestkampweg,13,,,5249JV,Rosmalen,'s-Hertogenbosch,Noord-Brabant,VBO,5.399529,51.725164
Biestkampweg,15,,,5249JV,Rosmalen,'s-Hertogenbosch,Noord-Brabant,VBO,5.399841,51.725118
Biestkampweg,17,,,5249JV,Rosmalen,'s-Hertogenbosch,Noord-Brabant,VBO,5.400099,51.725198
Biestkampweg,19,,,5249JV,Rosmalen,'s-Hertogenbosch,Noord-Brabant,VBO,5.400356,51.725229
Biestkampweg,21,,,5249JV,Rosmalen,'s-Hertogenbosch,Noord-Brabant,VBO,5.400195,51.724942
Biestkampweg,23,,,5249JV,Rosmalen,'s-Hertogenbosch,Noord-Brabant,VBO,5.399927,51.724865
Biestkampweg,25,A,,5249JV,Rosmalen,'s-Hertogenbosch,Noord-Brabant,VBO,5.399701,51.724555
Biestkampweg,25,,,5249JV,Rosmalen,'s-Hertogenbosch,Noord-Brabant,VBO,5.399661,51.724774
Hofkesweg,3,A,,5249JW,Rosmalen,'s-Hertogenbosch,Noord-Brabant,VBO,5.401359,51.725028
Hofkesweg,3,,,5249JW,Rosmalen,'s-Hertogenbosch,Noord-Brabant,VBO,5.401134,51.724965
Hofkesweg,4,,,5249JW,Rosmalen,'s-Hertogenbosch,Noord-Brabant,VBO,5.401530,51.725447
Hofkesweg,5,,,5249JW,Rosmalen,'s-Hertogenbosch,Noord-Brabant,VBO,5.401877,51.725171
Hofkesweg,6,,,5249JW,Rosmalen,'s-Hertogenbosch,Noord-Brabant,VBO,5.401836,51.725536
Hofkesweg,7,A,,5249JW,Rosmalen,'s-Hertogenbosch,Noord-Brabant,VBO,5.402507,51.725401
Hofkesweg,7,,,5249JW,Rosmalen,'s-Hertogenbosch,Noord-Brabant,VBO,5.402438,51.725382
Hofkesweg,8,A,,5249JW,Rosmalen,'s-Hertogenbosch,Noord-Brabant,VBO,5.402150,51.725911
Hofkesweg,8,B,,5249JW,Rosmalen,'s-Hertogenbosch,Noord-Brabant,VBO,5.402150,51.725911
Hofkesweg,8,C,,5249JW,Rosmalen,'s-Hertogenbosch,Noord-Brabant,VBO,5.402150,51.725911
Hofkesweg,8,D,,5249JW,Rosmalen,'s-Hertogenbosch,Noord-Brabant,VBO,5.402150,51.725911
Hofkesweg,8,E,,5249JW,Rosmalen,'s-Hertogenbosch,Noord-Brabant,VBO,5.402150,51.725911
Hofkesweg,8,F,,5249JW,Rosmalen,'s-Hertogenbosch,Noord-Brabant,VBO,5.402150,51.725911
Hofkesweg,8,G,,5249JW,Rosmalen,'s-Hertogenbosch,Noord-Brabant,VBO,5.402150,51.725911
Hofkesweg,8,,,5249JW,Rosmalen,'s-Hertogenbosch,Noord-Brabant,VBO,5.402313,51.725609
Hofkesweg,9,A,,5249JW,Rosmalen,'s-Hertogenbosch,Noord-Brabant,VBO,5.402809,51.725495
Hofkesweg,9,,,5249JW,Rosmalen,'s-Hertogenbosch,Noord-Brabant,VBO,5.402748,51.725480
Hofkesweg,10,A,,5249JW,Rosmalen,'s-Hertogenbosch,Noord-Brabant,VBO,5.402743,51.726039
Hofkesweg,10,B,,5249JW,Rosmalen,'s-Hertogenbosch,Noord-Brabant,VBO,5.402725,51.726321
Hofkesweg,10,,,5249JW,Rosmalen,'s-Hertogenbosch,Noord-Brabant,VBO,5.402769,51.725748
Hofkesweg,11,A,,5249JW,Rosmalen,'s-Hertogenbosch,Noord-Brabant,VBO,5.403112,51.725584
Hofkesweg,11,,,5249JW,Rosmalen,'s-Hertogenbosch,Noord-Brabant,VBO,5.403052,51.725565
Hofkesweg,12,,,5249JW,Rosmalen,'s-Hertogenbosch,Noord-Brabant,VBO,5.403168,51.725981
Hofkesweg,13,,,5249JW,Rosmalen,'s-Hertogenbosch,Noord-Brabant,VBO,5.403405,51.725677
Hofkesweg,15,,,5249JW,Rosmalen,'s-Hertogenbosch,Noord-Brabant,VBO,5.403822,51.725759
Heikampweg,1,,,5249JX,Rosmalen,'s-Hertogenbosch,Noord-Brabant,VBO,5.399252,51.728372
Heikampweg,2,,,5249JX,Rosmalen,'s-Hertogenbosch,Noord-Brabant,VBO,5.399130,51.728647
Heikampweg,3,A,,5249JX,Rosmalen,'s-Hertogenbosch,Noord-Brabant,VBO,5.399741,51.728082
Heikampweg,3,B,,5249JX,Rosmalen,'s-Hertogenbosch,Noord-Brabant,VBO,5.399756,51.728030
Heikampweg,3,C,,5249JX,Rosmalen,'s-Hertogenbosch,Noord-Brabant,VBO,5.399771,51.727978
Heikampweg,3,D,,5249JX,Rosmalen,'s-Hertogenbosch,Noord-Brabant,VBO,5.399786,51.727925
Heikampweg,3,E,,5249JX,Rosmalen,'s-Hertogenbosch,Noord-Brabant,VBO,5.399801,51.727873
Heikampweg,3,F,,5249JX,Rosmalen,'s-Hertogenbosch,Noord-Brabant,VBO,5.399816,51.727821
Heikampweg,3,,,5249JX,Rosmalen,'s-Hertogenbosch,Noord-Brabant,VBO,5.399586,51.728378
Heikampweg,4,,,5249JX,Rosmalen,'s-Hertogenbosch,Noord-Brabant,VBO,5.399780,51.728719
Heikampweg,5,A,,5249JX,Rosmalen,'s-Hertogenbosch,Noord-Brabant,VBO,5.400561,51.728485
Heikampweg,5,,,5249JX,Rosmalen,'s-Hertogenbosch,Noord-Brabant,VBO,5.400098,51.728295
Heikampweg,6,,,5249JX,Rosmalen,'s-Hertogenbosch,Noord-Brabant,VBO,5.400122,51.728784
Heikampweg,7,,,5249JX,Rosmalen,'s-Hertogenbosch,Noord-Brabant,VBO,5.401150,51.728546
Heikampweg,9,,,5249JX,Rosmalen,'s-Hertogenbosch,Noord-Brabant,VBO,5.401566,51.728553
Heikampweg,11,,,5249JX,Rosmalen,'s-Hertogenbosch,Noord-Brabant,VBO,5.401876,51.728623
Biestkampweg,27,,,5249JZ,Rosmalen,'s-Hertogenbosch,Noord-Brabant,VBO,5.399847,51.724583
Biestkampweg,29,,,5249JZ,Rosmalen,'s-Hertogenbosch,Noord-Brabant,VBO,5.400002,51.724631
Biestkampweg,31,,,5249JZ,Rosmalen,'s-Hertogenbosch,Noord-Brabant,VBO,5.400160,51.724680
Biestkampweg,33,,,5249JZ,Rosmalen,'s-Hertogenbosch,Noord-Brabant,VBO,5.400314,51.724729
Biestkampweg,35,,,5249JZ,Rosmalen,'s-Hertogenbosch,Noord-Brabant,VBO,5.400469,51.724779
Biestkampweg,37,,,5249JZ,Rosmalen,'s-Hertogenbosch,Noord-Brabant,VBO,5.400616,51.724825
Biestkampweg,39,,,5249JZ,Rosmalen,'s-Hertogenbosch,Noord-Brabant,VBO,5.400781,51.724879
Kruisstraat,42,B,,5249PA,Rosmalen,'s-Hertogenbosch,Noord-Brabant,VBO,5.397373,51.732657
Kruisstraat,42,,,5249PA,Rosmalen,'s-Hertogenbosch,Noord-Brabant,VBO,5.397058,51.732523
Kruisstraat,44,,,5249PA,Rosmalen,'s-Hertogenbosch,Noord-Brabant,VBO,5.397637,51.732702
Kruisstraat,46,,,5249PA,Rosmalen,'s-Hertogenbosch,Noord-Brabant,VBO,5.398156,51.732711
Kruisstraat,48,A,,5249PA,Rosmalen,'s-Hertogenbosch,Noord-Brabant,VBO,5.398416,51.732832
Kruisstraat,48,,,5249PA,Rosmalen,'s-Hertogenbosch,Noord-Brabant,VBO,5.398134,51.732876
Kruisstraat,50,,,5249PA,Rosmalen,'s-Hertogenbosch,Noord-Brabant,VBO,5.398674,51.732817
Kruisstraat,52,A,,5249PA,Rosmalen,'s-Hertogenbosch,Noord-Brabant,VBO,5.399442,51.732932
Kruisstraat,52,B,,5249PA,Rosmalen,'s-Hertogenbosch,Noord-Brabant,VBO,5.399620,51.732967
Kruisstraat,52,C,,5249PA,Rosmalen,'s-Hertogenbosch,Noord-Brabant,VBO,5.399898,51.733038
Kruisstraat,52,,,5249PA,Rosmalen,'s-Hertogenbosch,Noord-Brabant,VBO,5.398985,51.732987
Kruisstraat,54,A,,5249PA,Rosmalen,'s-Hertogenbosch,Noord-Brabant,VBO,5.400501,51.733158
Kruisstraat,54,,,5249PA,Rosmalen,'s-Hertogenbosch,Noord-Brabant,VBO,5.400146,51.733084
Kruisstraat,56,,,5249PA,Rosmalen,'s-Hertogenbosch,Noord-Brabant,VBO,5.400888,51.733195
Kruisstraat,58,A,,5249PA,Rosmalen,'s-Hertogenbosch,Noord-Brabant,VBO,5.401929,51.733581
Kruisstraat,58,,,5249PA,Rosmalen,'s-Hertogenbosch,Noord-Brabant,VBO,5.401784,51.733716
Kruisstraat,60,,,5249PA,Rosmalen,'s-Hertogenbosch,Noord-Brabant,VBO,5.403094,51.733914
Kruisstraat,62,,,5249PA,Rosmalen,'s-Hertogenbosch,Noord-Brabant,VBO,5.404144,51.734524
Kruisstraat,64,A,,5249PA,Rosmalen,'s-Hertogenbosch,Noord-Brabant,VBO,5.405524,51.734640
Kruisstraat,64,,,5249PA,Rosmalen,'s-Hertogenbosch,Noord-Brabant,VBO,5.405022,51.734614
Kruisstraat,66,,,5249PA,Rosmalen,'s-Hertogenbosch,Noord-Brabant,VBO,5.405801,51.734765
Kruisstraat,70,,,5249PA,Rosmalen,'s-Hertogenbosch,Noord-Brabant,VBO,5.406818,51.734902
Kruisstraat,33,A,,5249PB,Rosmalen,'s-Hertogenbosch,Noord-Brabant,VBO,5.396978,51.732207
Kruisstraat,33,B,,5249PB,Rosmalen,'s-Hertogenbosch,Noord-Brabant,VBO,5.397433,51.732329
Kruisstraat,33,C,,5249PB,Rosmalen,'s-Hertogenbosch,Noord-Brabant,VBO,5.397760,51.732395
Kruisstraat,33,,,5249PB,Rosmalen,'s-Hertogenbosch,Noord-Brabant,VBO,5.396888,51.732185
Kruisstraat,35,,,5249PB,Rosmalen,'s-Hertogenbosch,Noord-Brabant,VBO,5.398461,51.731580
Kruisstraat,37,,,5249PB,Rosmalen,'s-Hertogenbosch,Noord-Brabant,VBO,5.398169,51.732523
Kruisstraat,39,A,,5249PB,Rosmalen,'s-Hertogenbosch,Noord-Brabant,VBO,5.398882,51.732503
Kruisstraat,39,B,,5249PB,Rosmalen,'s-Hertogenbosch,Noord-Brabant,VBO,5.398562,51.732063
Kruisstraat,39,C,,5249PB,Rosmalen,'s-Hertogenbosch,Noord-Brabant,VBO,5.399250,51.732405
Kruisstraat,39,,,5249PB,Rosmalen,'s-Hertogenbosch,Noord-Brabant,VBO,5.398645,51.732457
Kruisstraat,41,A,,5249PB,Rosmalen,'s-Hertogenbosch,Noord-Brabant,VBO,5.399778,51.732725
Kruisstraat,41,,,5249PB,Rosmalen,'s-Hertogenbosch,Noord-Brabant,VBO,5.399436,51.732640
Kruisstraat,43,A,,5249PB,Rosmalen,'s-Hertogenbosch,Noord-Brabant,VBO,5.400238,51.732793
Kruisstraat,43,,,5249PB,Rosmalen,'s-Hertogenbosch,Noord-Brabant,VBO,5.399979,51.732733
Kruisstraat,43,,,5249PB,Rosmalen,'s-Hertogenbosch,Noord-Brabant,VBO,5.399983,51.732757
Kruisstraat,45,A,,5249PB,Rosmalen,'s-Hertogenbosch,Noord-Brabant,VBO,5.401026,51.733000
Kruisstraat,45,,,5249PB,Rosmalen,'s-Hertogenbosch,Noord-Brabant,VBO,5.400475,51.732936
Kruisstraat,47,A,,5249PB,Rosmalen,'s-Hertogenbosch,Noord-Brabant,VBO,5.402496,51.733292
Kruisstraat,47,,,5249PB,Rosmalen,'s-Hertogenbosch,Noord-Brabant,VBO,5.401206,51.733035
Kruisstraat,49,,,5249PB,Rosmalen,'s-Hertogenbosch,Noord-Brabant,VBO,5.403884,51.733934
Kruisstraat,51,,,5249PB,Rosmalen,'s-Hertogenbosch,Noord-Brabant,VBO,5.406078,51.734460
Kruisstraat,53,,,5249PB,Rosmalen,'s-Hertogenbosch,Noord-Brabant,VBO,5.406932,51.734532
Vreeweg,10,,,5249PG,Rosmalen,'s-Hertogenbosch,Noord-Brabant,VBO,5.416580,51.747421
Kerkdijk,6,,,5249PH,Rosmalen,'s-Hertogenbosch,Noord-Brabant,VBO,5.423516,51.742447
Kerkdijk,8,,,5249PH,Rosmalen,'s-Hertogenbosch,Noord-Brabant,VBO,5.421826,51.744878
Kerkdijk,10,,,5249PH,Rosmalen,'s-Hertogenbosch,Noord-Brabant,VBO,5.421656,51.744974
Kerkdijk,12,,,5249PH,Rosmalen,'s-Hertogenbosch,Noord-Brabant,VBO,5.419799,51.747479
Heeseindseweg,8,,,5249PN,Rosmalen,'s-Hertogenbosch,Noord-Brabant,VBO,5.411083,51.739232
Heeseindseweg,10,,,5249PN,Rosmalen,'s-Hertogenbosch,Noord-Brabant,VBO,5.413876,51.739667
Heeseindseweg,12,,,5249PN,Rosmalen,'s-Hertogenbosch,Noord-Brabant,VBO,5.418757,51.740556
Paddegraafweg,2,,,5249PR,Rosmalen,'s-Hertogenbosch,Noord-Brabant,VBO,5.408692,51.739663
Paddegraafweg,4,,,5249PR,Rosmalen,'s-Hertogenbosch,Noord-Brabant,VBO,5.407671,51.741308
Paddegraafweg,6,,,5249PR,Rosmalen,'s-Hertogenbosch,Noord-Brabant,VBO,5.407330,51.741883
Eerste Hoefsteeg,4,,,5249PS,Rosmalen,'s-Hertogenbosch,Noord-Brabant,VBO,5.399823,51.750568
Eerste Hoefsteeg,6,,,5249PS,Rosmalen,'s-Hertogenbosch,Noord-Brabant,VBO,5.401790,51.751003
Eerste Hoefsteeg,7,,,5249PS,Rosmalen,'s-Hertogenbosch,Noord-Brabant,VBO,5.406072,51.751352
Eerste Hoefsteeg,9,A,,5249PS,Rosmalen,'s-Hertogenbosch,Noord-Brabant,VBO,5.413130,51.752719
Eerste Hoefsteeg,9,,,5249PS,Rosmalen,'s-Hertogenbosch,Noord-Brabant,VBO,5.412524,51.752653
Eerste Polderweg,4,,,5249PT,Rosmalen,'s-Hertogenbosch,Noord-Brabant,VBO,5.403721,51.735481
Kruisstraat,19,,,5249RD,Rosmalen,'s-Hertogenbosch,Noord-Brabant,VBO,5.395883,51.731671
Kruisstraat,19,,,5249RD,Rosmalen,'s-Hertogenbosch,Noord-Brabant,VBO,5.395907,51.731639
Kruisstraat,21,,,5249RD,Rosmalen,'s-Hertogenbosch,Noord-Brabant,VBO,5.395845,51.731911
Kruisstraat,25,,,5249RD,Rosmalen,'s-Hertogenbosch,Noord-Brabant,VBO,5.396021,51.731965
Kruisstraat,27,,,5249RD,Rosmalen,'s-Hertogenbosch,Noord-Brabant,VBO,5.396143,51.731990
Kruisstraat,29,,,5249RD,Rosmalen,'s-Hertogenbosch,Noord-Brabant,VBO,5.396277,51.731909
Kruisstraat,31,,,5249RD,Rosmalen,'s-Hertogenbosch,Noord-Brabant,VBO,5.396496,51.732033
Kruisstraat,40,A,,5249RE,Rosmalen,'s-Hertogenbosch,Noord-Brabant,VBO,5.395754,51.732211
Kruisstraat,40,B,,5249RE,Rosmalen,'s-Hertogenbosch,Noord-Brabant,VBO,5.396099,51.732298
Kruisstraat,40,C,,5249RE,Rosmalen,'s-Hertogenbosch,Noord-Brabant,VBO,5.396397,51.732370
Kruisstraat,40,D,,5249RE,Rosmalen,'s-Hertogenbosch,Noord-Brabant,VBO,5.396655,51.732623
Kruisstraat,40,,,5249RE,Rosmalen,'s-Hertogenbosch,Noord-Brabant,VBO,5.395271,51.731996
Vliertwijksestraat,2,,,5249RH,Rosmalen,'s-Hertogenbosch,Noord-Brabant,VBO,5.395451,51.731763
Vliertwijksestraat,4,B,,5249RH,Rosmalen,'s-Hertogenbosch,Noord-Brabant,VBO,5.395438,51.731515
Vliertwijksestraat,4,C,,5249RH,Rosmalen,'s-Hertogenbosch,Noord-Brabant,VBO,5.395479,51.731384
Vliertwijksestraat,6,,,5249RH,Rosmalen,'s-Hertogenbosch,Noord-Brabant,VBO,5.395521,51.731247
Vliertwijksestraat,8,,,5249RH,Rosmalen,'s-Hertogenbosch,Noord-Brabant,VBO,5.395562,51.731114
Vliertwijksestraat,10,,,5249RH,Rosmalen,'s-Hertogenbosch,Noord-Brabant,VBO,5.395604,51.730977
Vliertwijksestraat,12,,,5249RH,Rosmalen,'s-Hertogenbosch,Noord-Brabant,VBO,5.395631,51.730816
Vliertwijksestraat,14,,,5249RH,Rosmalen,'s-Hertogenbosch,Noord-Brabant,VBO,5.395678,51.730666
Vliertwijksestraat,16,,,5249RH,Rosmalen,'s-Hertogenbosch,Noord-Brabant,VBO,5.395714,51.730549
Vliertwijksestraat,18,,,5249RH,Rosmalen,'s-Hertogenbosch,Noord-Brabant,VBO,5.395752,51.730429
Vliertwijksestraat,20,,,5249RJ,Rosmalen,'s-Hertogenbosch,Noord-Brabant,VBO,5.395788,51.730285
Vliertwijksestraat,22,,,5249RJ,Rosmalen,'s-Hertogenbosch,Noord-Brabant,VBO,5.395833,51.730144
Vliertwijksestraat,24,,,5249RJ,Rosmalen,'s-Hertogenbosch,Noord-Brabant,VBO,5.395891,51.729991
Vliertwijksestraat,26,A,,5249RJ,Rosmalen,'s-Hertogenbosch,Noord-Brabant,VBO,5.395973,51.729692
Vliertwijksestraat,26,,,5249RJ,Rosmalen,'s-Hertogenbosch,Noord-Brabant,VBO,5.395963,51.729779
Vliertwijksestraat,28,,,5249RJ,Rosmalen,'s-Hertogenbosch,Noord-Brabant,VBO,5.396018,51.729564
Vliertwijksestraat,30,,,5249RJ,Rosmalen,'s-Hertogenbosch,Noord-Brabant,VBO,5.396053,51.729447
Vliertwijksestraat,32,,,5249RJ,Rosmalen,'s-Hertogenbosch,Noord-Brabant,VBO,5.396094,51.729312
Vliertwijksestraat,34,,,5249RJ,Rosmalen,'s-Hertogenbosch,Noord-Brabant,VBO,5.396127,51.729193
Vliertwijksestraat,36,A,,5249RJ,Rosmalen,'s-Hertogenbosch,Noord-Brabant,VBO,5.396751,51.728889
Vliertwijksestraat,36,,,5249RJ,Rosmalen,'s-Hertogenbosch,Noord-Brabant,VBO,5.396158,51.729073
Vliertwijksestraat,38,A,,5249RJ,Rosmalen,'s-Hertogenbosch,Noord-Brabant,VBO,5.396357,51.728323
Vliertwijksestraat,38,B,,5249RJ,Rosmalen,'s-Hertogenbosch,Noord-Brabant,VBO,5.396371,51.728261
Vliertwijksestraat,38,C,,5249RJ,Rosmalen,'s-Hertogenbosch,Noord-Brabant,VBO,5.396683,51.728161
Vliertwijksestraat,38,,,5249RJ,Rosmalen,'s-Hertogenbosch,Noord-Brabant,VBO,5.396926,51.728500
Vliertwijksestraat,42,,,5249RJ,Rosmalen,'s-Hertogenbosch,Noord-Brabant,VBO,5.397094,51.726261
Grintweg,3,,,5249RK,Rosmalen,'s-Hertogenbosch,Noord-Brabant,VBO,5.395151,51.732151
Grintweg,5,,,5249RK,Rosmalen,'s-Hertogenbosch,Noord-Brabant,VBO,5.395233,51.732322
Grintweg,7,A,,5249RK,Rosmalen,'s-Hertogenbosch,Noord-Brabant,VBO,5.395332,51.732579
Grintweg,7,B,,5249RK,Rosmalen,'s-Hertogenbosch,Noord-Brabant,VBO,5.395119,51.732501
Grintweg,7,,,5249RK,Rosmalen,'s-Hertogenbosch,Noord-Brabant,VBO,5.395190,51.732416
Grintweg,9,,,5249RK,Rosmalen,'s-Hertogenbosch,Noord-Brabant,VBO,5.395154,51.732684
Grintweg,19,,,5249RK,Rosmalen,'s-Hertogenbosch,Noord-Brabant,VBO,5.387138,51.746864
Grintweg,25,,,5249RK,Rosmalen,'s-Hertogenbosch,Noord-Brabant,VBO,5.383736,51.751467
