openbareruimtenaam,huisnummer,huisletter,huisnummertoevoeging,postcode,woonplaatsnaam,gemeentenaam,provincienaam,typeadresseerbaarobject,longitude,latitude
Ambrosiushof,3,,,5254HA,Haarsteeg,Heusden,Noord-Brabant,VBO,5.201538,51.711559
Ambrosiushof,5,,,5254HA,Haarsteeg,Heusden,Noord-Brabant,VBO,5.201814,51.711637
Ambrosiushof,7,,,5254HA,Haarsteeg,Heusden,Noord-Brabant,VBO,5.201884,51.711661
Ambrosiushof,9,,,5254HA,Haarsteeg,Heusden,Noord-Brabant,VBO,5.201961,51.711770
Ambrosiushof,11,,,5254HA,Haarsteeg,Heusden,Noord-Brabant,VBO,5.202031,51.711794
Ambrosiushof,13,,,5254HA,Haarsteeg,Heusden,Noord-Brabant,VBO,5.202165,51.711840
Ambrosiushof,15,,,5254HA,Haarsteeg,Heusden,Noord-Brabant,VBO,5.202235,51.711864
Ambrosiushof,17,,,5254HA,Haarsteeg,Heusden,Noord-Brabant,VBO,5.202368,51.711910
Ambrosiushof,19,,,5254HA,Haarsteeg,Heusden,Noord-Brabant,VBO,5.202438,51.711934
Ambrosiushof,21,,,5254HA,Haarsteeg,Heusden,Noord-Brabant,VBO,5.202572,51.711980
Ambrosiushof,23,,,5254HA,Haarsteeg,Heusden,Noord-Brabant,VBO,5.202641,51.712004
Ambrosiushof,25,,,5254HA,Haarsteeg,Heusden,Noord-Brabant,VBO,5.202775,51.712050
Ambrosiushof,27,,,5254HA,Haarsteeg,Heusden,Noord-Brabant,VBO,5.202845,51.712074
Ambrosiushof,29,,,5254HA,Haarsteeg,Heusden,Noord-Brabant,VBO,5.203035,51.712058
Ambrosiushof,31,,,5254HA,Haarsteeg,Heusden,Noord-Brabant,VBO,5.203106,51.712082
Ambrosiushof,33,,,5254HA,Haarsteeg,Heusden,Noord-Brabant,VBO,5.203238,51.712128
Ambrosiushof,35,,,5254HA,Haarsteeg,Heusden,Noord-Brabant,VBO,5.203308,51.712153
Ambrosiushof,37,,,5254HA,Haarsteeg,Heusden,Noord-Brabant,VBO,5.203442,51.712199
Ambrosiushof,39,,,5254HA,Haarsteeg,Heusden,Noord-Brabant,VBO,5.203512,51.712223
Ambrosiushof,41,,,5254HA,Haarsteeg,Heusden,Noord-Brabant,VBO,5.203852,51.712375
Ambrosiushof,43,,,5254HA,Haarsteeg,Heusden,Noord-Brabant,VBO,5.203785,51.712490
Ambrosiushof,45,,,5254HB,Haarsteeg,Heusden,Noord-Brabant,VBO,5.203372,51.711923
Ambrosiushof,47,,,5254HB,Haarsteeg,Heusden,Noord-Brabant,VBO,5.203298,51.711898
Ambrosiushof,49,,,5254HB,Haarsteeg,Heusden,Noord-Brabant,VBO,5.203094,51.711792
Ambrosiushof,51,,,5254HB,Haarsteeg,Heusden,Noord-Brabant,VBO,5.203072,51.711744
Ambrosiushof,53,,,5254HB,Haarsteeg,Heusden,Noord-Brabant,VBO,5.203023,51.711639
Ambrosiushof,55,,,5254HB,Haarsteeg,Heusden,Noord-Brabant,VBO,5.203002,51.711594
Ambrosiushof,57,,,5254HB,Haarsteeg,Heusden,Noord-Brabant,VBO,5.203031,51.711432
Ambrosiushof,59,,,5254HB,Haarsteeg,Heusden,Noord-Brabant,VBO,5.203075,51.711383
Ambrosiushof,61,,,5254HB,Haarsteeg,Heusden,Noord-Brabant,VBO,5.203156,51.711292
Ambrosiushof,63,,,5254HB,Haarsteeg,Heusden,Noord-Brabant,VBO,5.203446,51.711378
Ambrosiushof,65,,,5254HB,Haarsteeg,Heusden,Noord-Brabant,VBO,5.203515,51.711402
Ambrosiushof,67,,,5254HB,Haarsteeg,Heusden,Noord-Brabant,VBO,5.203723,51.711508
Ambrosiushof,69,,,5254HB,Haarsteeg,Heusden,Noord-Brabant,VBO,5.203744,51.711555
Ambrosiushof,71,,,5254HB,Haarsteeg,Heusden,Noord-Brabant,VBO,5.203790,51.711656
Ambrosiushof,73,,,5254HB,Haarsteeg,Heusden,Noord-Brabant,VBO,5.203813,51.711707
Ambrosiushof,75,,,5254HB,Haarsteeg,Heusden,Noord-Brabant,VBO,5.203781,51.711870
Ambrosiushof,77,,,5254HB,Haarsteeg,Heusden,Noord-Brabant,VBO,5.203741,51.711914
Ambrosiushof,79,,,5254HB,Haarsteeg,Heusden,Noord-Brabant,VBO,5.203652,51.712012
Willy van den Berkstraat,1,,,5254HC,Haarsteeg,Heusden,Noord-Brabant,VBO,5.201674,51.712426
Willy van den Berkstraat,2,,,5254HC,Haarsteeg,Heusden,Noord-Brabant,VBO,5.201228,51.711957
Willy van den Berkstraat,4,,,5254HC,Haarsteeg,Heusden,Noord-Brabant,VBO,5.201541,51.712014
Willy van den Berkstraat,6,,,5254HC,Haarsteeg,Heusden,Noord-Brabant,VBO,5.201730,51.712081
Willy van den Berkstraat,7,,,5254HC,Haarsteeg,Heusden,Noord-Brabant,VBO,5.203140,51.712939
Willy van den Berkstraat,8,,,5254HC,Haarsteeg,Heusden,Noord-Brabant,VBO,5.201915,51.712146
Willy van den Berkstraat,10,,,5254HC,Haarsteeg,Heusden,Noord-Brabant,VBO,5.202120,51.712217
Willy van den Berkstraat,12,,,5254HC,Haarsteeg,Heusden,Noord-Brabant,VBO,5.202343,51.712295
Willy van den Berkstraat,14,,,5254HC,Haarsteeg,Heusden,Noord-Brabant,VBO,5.202540,51.712365
Willy van den Berkstraat,16,,,5254HC,Haarsteeg,Heusden,Noord-Brabant,VBO,5.202734,51.712433
Willy van den Berkstraat,18,,,5254HC,Haarsteeg,Heusden,Noord-Brabant,VBO,5.202940,51.712505
Willy van den Berkstraat,20,,,5254HC,Haarsteeg,Heusden,Noord-Brabant,VBO,5.203175,51.712588
Willy van den Berkstraat,22,,,5254HC,Haarsteeg,Heusden,Noord-Brabant,VBO,5.203339,51.712645
Willy van den Berkstraat,24,,,5254HC,Haarsteeg,Heusden,Noord-Brabant,VBO,5.203544,51.712718
Ambrosiushof,2,,,5254HD,Haarsteeg,Heusden,Noord-Brabant,VBO,5.201519,51.711272
Ambrosiushof,4,,,5254HD,Haarsteeg,Heusden,Noord-Brabant,VBO,5.201705,51.711337
Ambrosiushof,6,,,5254HD,Haarsteeg,Heusden,Noord-Brabant,VBO,5.201919,51.711402
Ambrosiushof,8,,,5254HD,Haarsteeg,Heusden,Noord-Brabant,VBO,5.202227,51.711474
Ambrosiushof,10,,,5254HD,Haarsteeg,Heusden,Noord-Brabant,VBO,5.202612,51.711381
Ambrosiushof,12,,,5254HD,Haarsteeg,Heusden,Noord-Brabant,VBO,5.202778,51.711267
Ambrosiushof,14,,,5254HD,Haarsteeg,Heusden,Noord-Brabant,VBO,5.202910,51.711119
Ambrosiushof,16,,,5254HD,Haarsteeg,Heusden,Noord-Brabant,VBO,5.202955,51.711068
Ambrosiushof,18,,,5254HD,Haarsteeg,Heusden,Noord-Brabant,VBO,5.203178,51.711025
Ambrosiushof,20,,,5254HD,Haarsteeg,Heusden,Noord-Brabant,VBO,5.203336,51.711111
Ambrosiushof,22,,,5254HD,Haarsteeg,Heusden,Noord-Brabant,VBO,5.203511,51.711171
Ambrosiushof,24,,,5254HD,Haarsteeg,Heusden,Noord-Brabant,VBO,5.203688,51.711232
Ambrosiushof,26,,,5254HD,Haarsteeg,Heusden,Noord-Brabant,VBO,5.203871,51.711286
Ambrosiushof,28,,,5254HD,Haarsteeg,Heusden,Noord-Brabant,VBO,5.204040,51.711355
Ambrosiushof,30,,,5254HD,Haarsteeg,Heusden,Noord-Brabant,VBO,5.204218,51.711416
Ambrosiushof,32,,,5254HD,Haarsteeg,Heusden,Noord-Brabant,VBO,5.204482,51.711435
Ambrosiushof,34,,,5254HD,Haarsteeg,Heusden,Noord-Brabant,VBO,5.204496,51.711588
Ambrosiushof,36,,,5254HD,Haarsteeg,Heusden,Noord-Brabant,VBO,5.204323,51.711714
Ambrosiushof,38,,,5254HD,Haarsteeg,Heusden,Noord-Brabant,VBO,5.204225,51.711822
Ambrosiushof,40,,,5254HD,Haarsteeg,Heusden,Noord-Brabant,VBO,5.203978,51.712120
Ambrosiushof,42,R,,5254HD,Haarsteeg,Heusden,Noord-Brabant,VBO,5.204987,51.712483
Ambrosiushof,42,,,5254HD,Haarsteeg,Heusden,Noord-Brabant,VBO,5.204204,51.712187
Ambrosiushof,44,,,5254HD,Haarsteeg,Heusden,Noord-Brabant,VBO,5.205220,51.712825
Janus van Engelenstraat,2,,,5254HE,Haarsteeg,Heusden,Noord-Brabant,VBO,5.203258,51.713357
Janus van Engelenstraat,4,,,5254HE,Haarsteeg,Heusden,Noord-Brabant,VBO,5.203153,51.713537
Janus van Engelenstraat,6,,,5254HE,Haarsteeg,Heusden,Noord-Brabant,VBO,5.203017,51.713661
Hendrik de Jonghstraat,1,,,5254HG,Haarsteeg,Heusden,Noord-Brabant,VBO,5.202865,51.713300
Hendrik de Jonghstraat,2,,,5254HG,Haarsteeg,Heusden,Noord-Brabant,VBO,5.202705,51.713512
Hendrik de Jonghstraat,8,,,5254HG,Haarsteeg,Heusden,Noord-Brabant,VBO,5.201442,51.713085
Hendrik de Jonghstraat,9,,,5254HG,Haarsteeg,Heusden,Noord-Brabant,VBO,5.201393,51.712784
Hendrik de Jonghstraat,10,,,5254HG,Haarsteeg,Heusden,Noord-Brabant,VBO,5.201322,51.713374
Hendrik de Jonghstraat,11,,,5254HG,Haarsteeg,Heusden,Noord-Brabant,VBO,5.201128,51.713555
Hendrik de Jonghstraat,14,,,5254HG,Haarsteeg,Heusden,Noord-Brabant,VBO,5.202067,51.713646
Ipperhoeve,2,,,5254JA,Haarsteeg,Heusden,Noord-Brabant,VBO,5.201156,51.710458
Ipperhoeve,4,,,5254JA,Haarsteeg,Heusden,Noord-Brabant,VBO,5.201081,51.710621
Ipperhoeve,6,,,5254JA,Haarsteeg,Heusden,Noord-Brabant,VBO,5.201114,51.710834
Ipperhoeve,8,,,5254JA,Haarsteeg,Heusden,Noord-Brabant,VBO,5.200948,51.711042
Ipperhoeve,10,,,5254JA,Haarsteeg,Heusden,Noord-Brabant,VBO,5.200810,51.711304
Ipperhoeve,14,A,,5254JA,Haarsteeg,Heusden,Noord-Brabant,VBO,5.200793,51.711677
Ipperhoeve,14,,,5254JA,Haarsteeg,Heusden,Noord-Brabant,VBO,5.200763,51.711530
Ipperhoeve,16,,,5254JA,Haarsteeg,Heusden,Noord-Brabant,VBO,5.200685,51.711780
Ipperhoeve,18,,,5254JA,Haarsteeg,Heusden,Noord-Brabant,VBO,5.200953,51.712173
Ipperhoeve,20,,,5254JA,Haarsteeg,Heusden,Noord-Brabant,VBO,5.200904,51.712311
Ipperhoeve,22,,,5254JA,Haarsteeg,Heusden,Noord-Brabant,VBO,5.200863,51.712456
Ipperhoeve,24,,,5254JA,Haarsteeg,Heusden,Noord-Brabant,VBO,5.200834,51.712597
Ipperhoeve,26,,,5254JA,Haarsteeg,Heusden,Noord-Brabant,VBO,5.200789,51.712653
Ipperhoeve,28,,,5254JA,Haarsteeg,Heusden,Noord-Brabant,VBO,5.200759,51.712767
Ipperhoeve,30,,,5254JA,Haarsteeg,Heusden,Noord-Brabant,VBO,5.200708,51.712902
Ipperhoeve,32,,,5254JA,Haarsteeg,Heusden,Noord-Brabant,VBO,5.200663,51.713049
Ipperhoeve,34,,,5254JA,Haarsteeg,Heusden,Noord-Brabant,VBO,5.200638,51.713188
Ipperhoeve,36,,,5254JA,Haarsteeg,Heusden,Noord-Brabant,VBO,5.200593,51.713244
Ipperhoeve,38,,,5254JA,Haarsteeg,Heusden,Noord-Brabant,VBO,5.200554,51.713360
Ipperhoeve,40,,,5254JA,Haarsteeg,Heusden,Noord-Brabant,VBO,5.200523,51.713506
Ipperhoeve,42,,,5254JA,Haarsteeg,Heusden,Noord-Brabant,VBO,5.200464,51.713633
Ipperhoeve,44,A,,5254JA,Haarsteeg,Heusden,Noord-Brabant,VBO,5.200416,51.713827
Ipperhoeve,44,B,,5254JA,Haarsteeg,Heusden,Noord-Brabant,VBO,5.200380,51.713931
Ipperhoeve,44,C,,5254JA,Haarsteeg,Heusden,Noord-Brabant,VBO,5.200343,51.713977
Ipperhoeve,44,,,5254JA,Haarsteeg,Heusden,Noord-Brabant,VBO,5.200454,51.713780
Ipperhoeve,46,,,5254JA,Haarsteeg,Heusden,Noord-Brabant,VBO,5.200187,51.713842
Ipperhoeve,48,,,5254JA,Haarsteeg,Heusden,Noord-Brabant,VBO,5.200101,51.713831
Ipperhoeve,50,,,5254JA,Haarsteeg,Heusden,Noord-Brabant,VBO,5.200013,51.713819
Ipperhoeve,52,,,5254JA,Haarsteeg,Heusden,Noord-Brabant,VBO,5.199928,51.713808
Ipperhoeve,54,,,5254JA,Haarsteeg,Heusden,Noord-Brabant,VBO,5.199842,51.713797
Meester Prinsenstraat,3,,,5254JB,Haarsteeg,Heusden,Noord-Brabant,VBO,5.199874,51.710526
Meester Prinsenstraat,5,,,5254JB,Haarsteeg,Heusden,Noord-Brabant,VBO,5.199868,51.710600
Meester Prinsenstraat,7,A,,5254JB,Haarsteeg,Heusden,Noord-Brabant,VBO,5.199690,51.710796
Meester Prinsenstraat,7,,,5254JB,Haarsteeg,Heusden,Noord-Brabant,VBO,5.199821,51.710689
Meester Prinsenstraat,9,,,5254JB,Haarsteeg,Heusden,Noord-Brabant,VBO,5.199768,51.710900
Meester Prinsenstraat,11,,,5254JB,Haarsteeg,Heusden,Noord-Brabant,VBO,5.199739,51.710976
Meester Prinsenstraat,15,A,,5254JB,Haarsteeg,Heusden,Noord-Brabant,VBO,5.199547,51.711345
Meester Prinsenstraat,15,B,,5254JB,Haarsteeg,Heusden,Noord-Brabant,VBO,5.199580,51.711195
Meester Prinsenstraat,15,,,5254JB,Haarsteeg,Heusden,Noord-Brabant,VBO,5.199681,51.711084
Meester Prinsenstraat,19,,,5254JB,Haarsteeg,Heusden,Noord-Brabant,VBO,5.199435,51.711479
Meester Prinsenstraat,21,,,5254JB,Haarsteeg,Heusden,Noord-Brabant,VBO,5.199451,51.711623
Meester Prinsenstraat,23,,,5254JB,Haarsteeg,Heusden,Noord-Brabant,VBO,5.199420,51.711717
Meester Prinsenstraat,25,,,5254JB,Haarsteeg,Heusden,Noord-Brabant,VBO,5.199414,51.711787
Meester Prinsenstraat,27,A,,5254JB,Haarsteeg,Heusden,Noord-Brabant,VBO,5.199341,51.712028
Meester Prinsenstraat,27,,,5254JB,Haarsteeg,Heusden,Noord-Brabant,VBO,5.199361,51.711888
Meester Prinsenstraat,29,,,5254JB,Haarsteeg,Heusden,Noord-Brabant,VBO,5.199238,51.712265
Meester Prinsenstraat,31,A,,5254JB,Haarsteeg,Heusden,Noord-Brabant,VBO,5.199130,51.712582
Meester Prinsenstraat,31,,,5254JB,Haarsteeg,Heusden,Noord-Brabant,VBO,5.199172,51.712462
Meester Prinsenstraat,33,,,5254JB,Haarsteeg,Heusden,Noord-Brabant,VBO,5.199052,51.712816
Meester Prinsenstraat,35,,,5254JB,Haarsteeg,Heusden,Noord-Brabant,VBO,5.198962,51.713049
Meester Prinsenstraat,37,,,5254JB,Haarsteeg,Heusden,Noord-Brabant,VBO,5.198922,51.713260
Meester Prinsenstraat,2,A,,5254JC,Haarsteeg,Heusden,Noord-Brabant,VBO,5.200274,51.710681
Meester Prinsenstraat,2,,,5254JC,Haarsteeg,Heusden,Noord-Brabant,VBO,5.200297,51.710613
Meester Prinsenstraat,4,,,5254JC,Haarsteeg,Heusden,Noord-Brabant,VBO,5.200197,51.710850
Meester Prinsenstraat,6,,,5254JC,Haarsteeg,Heusden,Noord-Brabant,VBO,5.200009,51.710994
Meester Prinsenstraat,8,,,5254JC,Haarsteeg,Heusden,Noord-Brabant,VBO,5.199962,51.711122
Meester Prinsenstraat,10,A,,5254JC,Haarsteeg,Heusden,Noord-Brabant,VBO,5.199955,51.711256
Meester Prinsenstraat,10,,,5254JC,Haarsteeg,Heusden,Noord-Brabant,VBO,5.199916,51.711246
Meester Prinsenstraat,12,,,5254JC,Haarsteeg,Heusden,Noord-Brabant,VBO,5.199870,51.711369
Meester Prinsenstraat,16,,,5254JC,Haarsteeg,Heusden,Noord-Brabant,VBO,5.199877,51.711588
Meester Prinsenstraat,18,,,5254JC,Haarsteeg,Heusden,Noord-Brabant,VBO,5.199857,51.711651
Meester Prinsenstraat,20,,,5254JC,Haarsteeg,Heusden,Noord-Brabant,VBO,5.199798,51.711782
Meester Prinsenstraat,22,,,5254JC,Haarsteeg,Heusden,Noord-Brabant,VBO,5.199698,51.711879
Meester Prinsenstraat,24,,,5254JC,Haarsteeg,Heusden,Noord-Brabant,VBO,5.199664,51.711974
Meester Prinsenstraat,26,,,5254JC,Haarsteeg,Heusden,Noord-Brabant,VBO,5.199624,51.712098
Meester Prinsenstraat,28,,,5254JC,Haarsteeg,Heusden,Noord-Brabant,VBO,5.199608,51.712146
Meester Prinsenstraat,30,,,5254JC,Haarsteeg,Heusden,Noord-Brabant,VBO,5.199568,51.712224
Meester Prinsenstraat,32,A,,5254JC,Haarsteeg,Heusden,Noord-Brabant,VBO,5.199518,51.712574
Meester Prinsenstraat,32,,,5254JC,Haarsteeg,Heusden,Noord-Brabant,VBO,5.199579,51.712376
Meester Prinsenstraat,34,,,5254JD,Haarsteeg,Heusden,Noord-Brabant,VBO,5.199441,51.712736
Meester Prinsenstraat,38,,,5254JD,Haarsteeg,Heusden,Noord-Brabant,VBO,5.199327,51.713033
Meester Prinsenstraat,40,,,5254JD,Haarsteeg,Heusden,Noord-Brabant,VBO,5.199317,51.713156
Meester Prinsenstraat,42,,,5254JD,Haarsteeg,Heusden,Noord-Brabant,VBO,5.199299,51.713210
Meester Prinsenstraat,44,,,5254JD,Haarsteeg,Heusden,Noord-Brabant,VBO,5.199265,51.713310
Meester Prinsenstraat,46,,,5254JD,Haarsteeg,Heusden,Noord-Brabant,VBO,5.199265,51.713365
Meester Prinsenstraat,48,,,5254JD,Haarsteeg,Heusden,Noord-Brabant,VBO,5.199200,51.713505
Meester Prinsenstraat,50,,,5254JD,Haarsteeg,Heusden,Noord-Brabant,VBO,5.199174,51.713626
Meester Prinsenstraat,52,,,5254JD,Haarsteeg,Heusden,Noord-Brabant,VBO,5.199141,51.713722
Meester Prinsenstraat,54,,,5254JD,Haarsteeg,Heusden,Noord-Brabant,VBO,5.198983,51.713988
Meester Prinsenstraat,56,,,5254JD,Haarsteeg,Heusden,Noord-Brabant,VBO,5.199058,51.714047
Meester Prinsenstraat,60,,,5254JD,Haarsteeg,Heusden,Noord-Brabant,VBO,5.199186,51.714215
Mari van Eschstraat,1,,,5254JE,Haarsteeg,Heusden,Noord-Brabant,VBO,5.198927,51.712196
Mari van Eschstraat,2,,,5254JE,Haarsteeg,Heusden,Noord-Brabant,VBO,5.198335,51.712400
Mari van Eschstraat,3,,,5254JE,Haarsteeg,Heusden,Noord-Brabant,VBO,5.198826,51.712183
Mari van Eschstraat,5,,,5254JE,Haarsteeg,Heusden,Noord-Brabant,VBO,5.198723,51.712170
Mari van Eschstraat,7,,,5254JE,Haarsteeg,Heusden,Noord-Brabant,VBO,5.198525,51.712133
Mari van Eschstraat,9,,,5254JE,Haarsteeg,Heusden,Noord-Brabant,VBO,5.198424,51.712120
Mari van Eschstraat,11,,,5254JE,Haarsteeg,Heusden,Noord-Brabant,VBO,5.198253,51.712110
Mari van Eschstraat,13,,,5254JE,Haarsteeg,Heusden,Noord-Brabant,VBO,5.198137,51.712095
Mari van Eschstraat,15,,,5254JE,Haarsteeg,Heusden,Noord-Brabant,VBO,5.197989,51.712035
Mari van Eschstraat,17,,,5254JE,Haarsteeg,Heusden,Noord-Brabant,VBO,5.197880,51.712021
Mari van Eschstraat,19,,,5254JE,Haarsteeg,Heusden,Noord-Brabant,VBO,5.197712,51.711999
Mari van Eschstraat,21,,,5254JE,Haarsteeg,Heusden,Noord-Brabant,VBO,5.197611,51.711986
Mari van Eschstraat,23,,,5254JE,Haarsteeg,Heusden,Noord-Brabant,VBO,5.197421,51.711962
Pater van den Elsenstraat,1,,,5254JG,Haarsteeg,Heusden,Noord-Brabant,VBO,5.198562,51.713220
Pater van den Elsenstraat,3,,,5254JG,Haarsteeg,Heusden,Noord-Brabant,VBO,5.198474,51.713207
Pater van den Elsenstraat,5,,,5254JG,Haarsteeg,Heusden,Noord-Brabant,VBO,5.198388,51.713194
Pater van den Elsenstraat,7,,,5254JG,Haarsteeg,Heusden,Noord-Brabant,VBO,5.198303,51.713170
Pater van den Elsenstraat,9,,,5254JG,Haarsteeg,Heusden,Noord-Brabant,VBO,5.198132,51.713145
Pater van den Elsenstraat,11,,,5254JG,Haarsteeg,Heusden,Noord-Brabant,VBO,5.198045,51.713132
Pater van den Elsenstraat,13,,,5254JG,Haarsteeg,Heusden,Noord-Brabant,VBO,5.197958,51.713119
Pater van den Elsenstraat,15,,,5254JG,Haarsteeg,Heusden,Noord-Brabant,VBO,5.197871,51.713106
Pater van den Elsenstraat,17,,,5254JG,Haarsteeg,Heusden,Noord-Brabant,VBO,5.197784,51.713093
Pater van den Elsenstraat,19,,,5254JG,Haarsteeg,Heusden,Noord-Brabant,VBO,5.197697,51.713080
Pater van den Elsenstraat,21,,,5254JG,Haarsteeg,Heusden,Noord-Brabant,VBO,5.197503,51.713051
Pater van den Elsenstraat,23,,,5254JG,Haarsteeg,Heusden,Noord-Brabant,VBO,5.197300,51.713032
Pater van den Elsenstraat,25,A,,5254JG,Haarsteeg,Heusden,Noord-Brabant,VBO,5.197412,51.712677
Pater van den Elsenstraat,25,,,5254JG,Haarsteeg,Heusden,Noord-Brabant,VBO,5.197282,51.712888
Pater van den Elsenstraat,27,,,5254JH,Haarsteeg,Heusden,Noord-Brabant,VBO,5.197469,51.711712
Pater van den Elsenstraat,29,,,5254JH,Haarsteeg,Heusden,Noord-Brabant,VBO,5.197489,51.711651
Pater van den Elsenstraat,31,,,5254JH,Haarsteeg,Heusden,Noord-Brabant,VBO,5.197533,51.711517
Pater van den Elsenstraat,33,,,5254JH,Haarsteeg,Heusden,Noord-Brabant,VBO,5.197574,51.711391
Pater van den Elsenstraat,35,,,5254JH,Haarsteeg,Heusden,Noord-Brabant,VBO,5.197593,51.711337
Pater van den Elsenstraat,37,,,5254JH,Haarsteeg,Heusden,Noord-Brabant,VBO,5.197635,51.711216
Pater van den Elsenstraat,39,,,5254JH,Haarsteeg,Heusden,Noord-Brabant,VBO,5.197654,51.711159
Pater van den Elsenstraat,41,,,5254JH,Haarsteeg,Heusden,Noord-Brabant,VBO,5.197694,51.711039
Pater van den Elsenstraat,43,,,5254JH,Haarsteeg,Heusden,Noord-Brabant,VBO,5.197714,51.710981
Pater van den Elsenstraat,45,,,5254JH,Haarsteeg,Heusden,Noord-Brabant,VBO,5.197753,51.710864
Pater van den Elsenstraat,47,,,5254JH,Haarsteeg,Heusden,Noord-Brabant,VBO,5.197775,51.710800
Pater van den Elsenstraat,49,,,5254JH,Haarsteeg,Heusden,Noord-Brabant,VBO,5.197841,51.710661
Pater van den Elsenstraat,51,,,5254JH,Haarsteeg,Heusden,Noord-Brabant,VBO,5.197874,51.710506
Pater van den Elsenstraat,2,A,,5254JJ,Haarsteeg,Heusden,Noord-Brabant,VBO,5.198735,51.713593
Pater van den Elsenstraat,2,T,,5254JJ,Haarsteeg,Heusden,Noord-Brabant,VBO,5.198808,51.713466
Pater van den Elsenstraat,2,,,5254JJ,Haarsteeg,Heusden,Noord-Brabant,VBO,5.198621,51.713433
Pater van den Elsenstraat,4,,,5254JJ,Haarsteeg,Heusden,Noord-Brabant,VBO,5.198424,51.713404
Pater van den Elsenstraat,6,,,5254JJ,Haarsteeg,Heusden,Noord-Brabant,VBO,5.198325,51.713389
Pater van den Elsenstraat,8,A,,5254JJ,Haarsteeg,Heusden,Noord-Brabant,VBO,5.198057,51.713349
Pater van den Elsenstraat,8,,,5254JJ,Haarsteeg,Heusden,Noord-Brabant,VBO,5.198164,51.713365
Pater van den Elsenstraat,10,,,5254JJ,Haarsteeg,Heusden,Noord-Brabant,VBO,5.197896,51.713325
Pater van den Elsenstraat,12,,,5254JJ,Haarsteeg,Heusden,Noord-Brabant,VBO,5.197805,51.713311
Pater van den Elsenstraat,14,,,5254JJ,Haarsteeg,Heusden,Noord-Brabant,VBO,5.197630,51.713285
Pater van den Elsenstraat,16,,,5254JJ,Haarsteeg,Heusden,Noord-Brabant,VBO,5.197539,51.713272
Pater van den Elsenstraat,18,,,5254JJ,Haarsteeg,Heusden,Noord-Brabant,VBO,5.197355,51.713271
Pater van den Elsenstraat,20,,,5254JJ,Haarsteeg,Heusden,Noord-Brabant,VBO,5.197267,51.713258
Pater van den Elsenstraat,22,,,5254JJ,Haarsteeg,Heusden,Noord-Brabant,VBO,5.197092,51.713232
Pater van den Elsenstraat,24,,,5254JJ,Haarsteeg,Heusden,Noord-Brabant,VBO,5.197002,51.713231
Pater van den Elsenstraat,26,,,5254JJ,Haarsteeg,Heusden,Noord-Brabant,VBO,5.196667,51.713272
Pater van den Elsenstraat,28,,,5254JJ,Haarsteeg,Heusden,Noord-Brabant,VBO,5.196556,51.713258
Pater van den Elsenstraat,30,,,5254JJ,Haarsteeg,Heusden,Noord-Brabant,VBO,5.196449,51.713244
Pater van den Elsenstraat,32,,,5254JJ,Haarsteeg,Heusden,Noord-Brabant,VBO,5.196729,51.713070
Pater van den Elsenstraat,34,,,5254JJ,Haarsteeg,Heusden,Noord-Brabant,VBO,5.196629,51.713057
Pater van den Elsenstraat,36,,,5254JJ,Haarsteeg,Heusden,Noord-Brabant,VBO,5.196526,51.713043
Pater van den Elsenstraat,38,,,5254JJ,Haarsteeg,Heusden,Noord-Brabant,VBO,5.196939,51.712890
Pater van den Elsenstraat,40,,,5254JJ,Haarsteeg,Heusden,Noord-Brabant,VBO,5.196957,51.712836
Pater van den Elsenstraat,42,,,5254JJ,Haarsteeg,Heusden,Noord-Brabant,VBO,5.196995,51.712722
Pater van den Elsenstraat,44,,,5254JK,Haarsteeg,Heusden,Noord-Brabant,VBO,5.196996,51.712667
Pater van den Elsenstraat,46,,,5254JK,Haarsteeg,Heusden,Noord-Brabant,VBO,5.197053,51.712498
Pater van den Elsenstraat,48,,,5254JK,Haarsteeg,Heusden,Noord-Brabant,VBO,5.196959,51.712486
Pater van den Elsenstraat,50,,,5254JK,Haarsteeg,Heusden,Noord-Brabant,VBO,5.196783,51.712463
Pater van den Elsenstraat,52,,,5254JK,Haarsteeg,Heusden,Noord-Brabant,VBO,5.197004,51.712303
Pater van den Elsenstraat,54,,,5254JK,Haarsteeg,Heusden,Noord-Brabant,VBO,5.197025,51.712240
Pater van den Elsenstraat,56,,,5254JK,Haarsteeg,Heusden,Noord-Brabant,VBO,5.197065,51.712122
Pater van den Elsenstraat,58,,,5254JK,Haarsteeg,Heusden,Noord-Brabant,VBO,5.197085,51.712062
Pater van den Elsenstraat,60,,,5254JK,Haarsteeg,Heusden,Noord-Brabant,VBO,5.197128,51.711932
Pater van den Elsenstraat,62,,,5254JK,Haarsteeg,Heusden,Noord-Brabant,VBO,5.197169,51.711811
Pater van den Elsenstraat,64,,,5254JK,Haarsteeg,Heusden,Noord-Brabant,VBO,5.197217,51.711668
Pater van den Elsenstraat,66,,,5254JK,Haarsteeg,Heusden,Noord-Brabant,VBO,5.197260,51.711538
Pater van den Elsenstraat,68,,,5254JK,Haarsteeg,Heusden,Noord-Brabant,VBO,5.197283,51.711470
Pater van den Elsenstraat,70,,,5254JK,Haarsteeg,Heusden,Noord-Brabant,VBO,5.197304,51.711352
Pater van den Elsenstraat,72,,,5254JK,Haarsteeg,Heusden,Noord-Brabant,VBO,5.197366,51.711225
Pater van den Elsenstraat,74,,,5254JK,Haarsteeg,Heusden,Noord-Brabant,VBO,5.197411,51.711092
Pater van den Elsenstraat,76,,,5254JK,Haarsteeg,Heusden,Noord-Brabant,VBO,5.197431,51.711032
Pater van den Elsenstraat,78,,,5254JK,Haarsteeg,Heusden,Noord-Brabant,VBO,5.197473,51.710906
Pater van den Elsenstraat,80,,,5254JK,Haarsteeg,Heusden,Noord-Brabant,VBO,5.197496,51.710772
Pater van den Elsenstraat,82,,,5254JK,Haarsteeg,Heusden,Noord-Brabant,VBO,5.197538,51.710620
Pater van den Elsenstraat,84,,,5254JK,Haarsteeg,Heusden,Noord-Brabant,VBO,5.197586,51.710480
Pater van den Elsenstraat,86,,,5254JK,Haarsteeg,Heusden,Noord-Brabant,VBO,5.197575,51.710338
Pater van den Elsenstraat,88,,,5254JK,Haarsteeg,Heusden,Noord-Brabant,VBO,5.197600,51.710266
Donkhof,1,,,5254JL,Haarsteeg,Heusden,Noord-Brabant,VBO,5.197618,51.709562
Donkhof,2,,,5254JL,Haarsteeg,Heusden,Noord-Brabant,VBO,5.197705,51.709578
Donkhof,3,,,5254JL,Haarsteeg,Heusden,Noord-Brabant,VBO,5.197644,51.709527
Donkhof,4,,,5254JL,Haarsteeg,Heusden,Noord-Brabant,VBO,5.197701,51.709541
Donkhof,5,,,5254JL,Haarsteeg,Heusden,Noord-Brabant,VBO,5.197658,51.709495
Donkhof,6,,,5254JL,Haarsteeg,Heusden,Noord-Brabant,VBO,5.197702,51.709489
Donkhof,7,,,5254JL,Haarsteeg,Heusden,Noord-Brabant,VBO,5.197668,51.709462
Donkhof,8,,,5254JL,Haarsteeg,Heusden,Noord-Brabant,VBO,5.197753,51.709474
Donkhof,9,,,5254JL,Haarsteeg,Heusden,Noord-Brabant,VBO,5.197979,51.709191
Donkhof,10,,,5254JL,Haarsteeg,Heusden,Noord-Brabant,VBO,5.197962,51.709236
Donkhof,11,,,5254JL,Haarsteeg,Heusden,Noord-Brabant,VBO,5.198014,51.709212
Donkhof,12,,,5254JL,Haarsteeg,Heusden,Noord-Brabant,VBO,5.198020,51.709243
Donkhof,13,,,5254JL,Haarsteeg,Heusden,Noord-Brabant,VBO,5.198087,51.709217
Donkhof,14,,,5254JL,Haarsteeg,Heusden,Noord-Brabant,VBO,5.198090,51.709263
Donkhof,15,,,5254JL,Haarsteeg,Heusden,Noord-Brabant,VBO,5.198140,51.709239
Donkhof,16,,,5254JL,Haarsteeg,Heusden,Noord-Brabant,VBO,5.198141,51.709286
Donkhof,17,,,5254JL,Haarsteeg,Heusden,Noord-Brabant,VBO,5.198202,51.708948
Donkhof,19,,,5254JL,Haarsteeg,Heusden,Noord-Brabant,VBO,5.198224,51.708904
Donkhof,21,,,5254JL,Haarsteeg,Heusden,Noord-Brabant,VBO,5.198250,51.708857
Donkhof,23,,,5254JL,Haarsteeg,Heusden,Noord-Brabant,VBO,5.198273,51.708811
Donkhof,25,,,5254JL,Haarsteeg,Heusden,Noord-Brabant,VBO,5.198291,51.708765
Donkhof,27,,,5254JL,Haarsteeg,Heusden,Noord-Brabant,VBO,5.198305,51.708732
Donkhof,29,,,5254JL,Haarsteeg,Heusden,Noord-Brabant,VBO,5.198338,51.708674
Donkhof,31,,,5254JL,Haarsteeg,Heusden,Noord-Brabant,VBO,5.198367,51.708627
Donkhof,33,,,5254JL,Haarsteeg,Heusden,Noord-Brabant,VBO,5.198411,51.708525
Donkhof,35,,,5254JL,Haarsteeg,Heusden,Noord-Brabant,VBO,5.198442,51.708478
Donkhof,37,,,5254JL,Haarsteeg,Heusden,Noord-Brabant,VBO,5.198460,51.708430
Donkhof,39,,,5254JL,Haarsteeg,Heusden,Noord-Brabant,VBO,5.198509,51.708370
Donkhof,41,,,5254JL,Haarsteeg,Heusden,Noord-Brabant,VBO,5.198519,51.708336
Donkhof,43,,,5254JL,Haarsteeg,Heusden,Noord-Brabant,VBO,5.198538,51.708293
Donkhof,45,,,5254JL,Haarsteeg,Heusden,Noord-Brabant,VBO,5.198556,51.708247
Donkhof,47,,,5254JL,Haarsteeg,Heusden,Noord-Brabant,VBO,5.198576,51.708198
Priemsteeg,2,A,,5254JM,Haarsteeg,Heusden,Noord-Brabant,VBO,5.201086,51.707874
Priemsteeg,2,B,,5254JM,Haarsteeg,Heusden,Noord-Brabant,VBO,5.200931,51.708050
Priemsteeg,2,C,,5254JM,Haarsteeg,Heusden,Noord-Brabant,VBO,5.200892,51.708100
Priemsteeg,2,D,,5254JM,Haarsteeg,Heusden,Noord-Brabant,VBO,5.200656,51.708395
Priemsteeg,2,E,,5254JM,Haarsteeg,Heusden,Noord-Brabant,VBO,5.200616,51.708445
Priemsteeg,2,,,5254JM,Haarsteeg,Heusden,Noord-Brabant,VBO,5.201317,51.707579
Priemsteeg,4,,,5254JM,Haarsteeg,Heusden,Noord-Brabant,VBO,5.200483,51.708586
Priemsteeg,6,,,5254JM,Haarsteeg,Heusden,Noord-Brabant,VBO,5.200394,51.708727
Priemsteeg,8,,,5254JM,Haarsteeg,Heusden,Noord-Brabant,VBO,5.200349,51.708784
Priemsteeg,10,,,5254JM,Haarsteeg,Heusden,Noord-Brabant,VBO,5.200210,51.708935
Priemsteeg,12,A,,5254JM,Haarsteeg,Heusden,Noord-Brabant,VBO,5.200072,51.709124
Priemsteeg,12,B,,5254JM,Haarsteeg,Heusden,Noord-Brabant,VBO,5.200020,51.709187
Priemsteeg,12,,,5254JM,Haarsteeg,Heusden,Noord-Brabant,VBO,5.200169,51.708986
Priemsteeg,14,A,,5254JM,Haarsteeg,Heusden,Noord-Brabant,VBO,5.199826,51.709415
Priemsteeg,14,,,5254JM,Haarsteeg,Heusden,Noord-Brabant,VBO,5.199922,51.709298
Priemsteeg,16,T,,5254JM,Haarsteeg,Heusden,Noord-Brabant,VBO,5.199615,51.709697
Priemsteeg,16,,,5254JM,Haarsteeg,Heusden,Noord-Brabant,VBO,5.199661,51.709599
Priemsteeg,39,A,,5254JM,Haarsteeg,Heusden,Noord-Brabant,VBO,5.200811,51.707642
Priemsteeg,39,,,5254JM,Haarsteeg,Heusden,Noord-Brabant,VBO,5.201027,51.707366
Priemsteeg,41,,,5254JM,Haarsteeg,Heusden,Noord-Brabant,VBO,5.200371,51.708100
Priemsteeg,43,,,5254JM,Haarsteeg,Heusden,Noord-Brabant,VBO,5.200150,51.708411
Priemsteeg,47,,,5254JM,Haarsteeg,Heusden,Noord-Brabant,VBO,5.200081,51.708632
Priemsteeg,49,,,5254JM,Haarsteeg,Heusden,Noord-Brabant,VBO,5.199945,51.708800
Priemsteeg,59,,,5254JM,Haarsteeg,Heusden,Noord-Brabant,VBO,5.199375,51.709073
Priemsteeg,63,,,5254JM,Haarsteeg,Heusden,Noord-Brabant,VBO,5.199182,51.709214
Priemsteeg,65,,,5254JM,Haarsteeg,Heusden,Noord-Brabant,VBO,5.198953,51.709279
Priemsteeg,67,,,5254JM,Haarsteeg,Heusden,Noord-Brabant,VBO,5.198840,51.709253
Priemsteeg,71,,,5254JM,Haarsteeg,Heusden,Noord-Brabant,VBO,5.199630,51.709158
Priemsteeg,73,,,5254JM,Haarsteeg,Heusden,Noord-Brabant,VBO,5.199576,51.709229
Priemsteeg,75,,,5254JM,Haarsteeg,Heusden,Noord-Brabant,VBO,5.199470,51.709398
Priemsteeg,77,,,5254JM,Haarsteeg,Heusden,Noord-Brabant,VBO,5.199284,51.709608
Haarsteegsestraat,1,,,5254JN,Haarsteeg,Heusden,Noord-Brabant,VBO,5.200961,51.710154
Haarsteegsestraat,3,A,,5254JN,Haarsteeg,Heusden,Noord-Brabant,VBO,5.200458,51.710044
Haarsteegsestraat,3,B,,5254JN,Haarsteeg,Heusden,Noord-Brabant,VBO,5.200360,51.710025
Haarsteegsestraat,3,,,5254JN,Haarsteeg,Heusden,Noord-Brabant,VBO,5.200743,51.710075
Haarsteegsestraat,5,,,5254JN,Haarsteeg,Heusden,Noord-Brabant,VBO,5.199985,51.710018
Haarsteegsestraat,7,,,5254JN,Haarsteeg,Heusden,Noord-Brabant,VBO,5.199779,51.709959
Haarsteegsestraat,9,,,5254JN,Haarsteeg,Heusden,Noord-Brabant,VBO,5.199429,51.709918
Haarsteegsestraat,11,,,5254JN,Haarsteeg,Heusden,Noord-Brabant,VBO,5.198987,51.709834
Haarsteegsestraat,15,A,,5254JN,Haarsteeg,Heusden,Noord-Brabant,VBO,5.198269,51.709760
Haarsteegsestraat,15,,,5254JN,Haarsteeg,Heusden,Noord-Brabant,VBO,5.198366,51.709767
Haarsteegsestraat,17,,,5254JN,Haarsteeg,Heusden,Noord-Brabant,VBO,5.198081,51.709736
Haarsteegsestraat,23,,,5254JN,Haarsteeg,Heusden,Noord-Brabant,VBO,5.198147,51.708402
Haarsteegsestraat,25,,,5254JN,Haarsteeg,Heusden,Noord-Brabant,VBO,5.197855,51.708832
Haarsteegsestraat,27,A,,5254JN,Haarsteeg,Heusden,Noord-Brabant,VBO,5.197354,51.709643
Haarsteegsestraat,29,A,,5254JN,Haarsteeg,Heusden,Noord-Brabant,VBO,5.197170,51.709636
Haarsteegsestraat,29,B,,5254JN,Haarsteeg,Heusden,Noord-Brabant,VBO,5.197184,51.709598
Haarsteegsestraat,29,C,,5254JN,Haarsteeg,Heusden,Noord-Brabant,VBO,5.197201,51.709556
Haarsteegsestraat,29,D,,5254JN,Haarsteeg,Heusden,Noord-Brabant,VBO,5.197221,51.709514
Haarsteegsestraat,29,E,,5254JN,Haarsteeg,Heusden,Noord-Brabant,VBO,5.197280,51.709417
Haarsteegsestraat,29,,,5254JN,Haarsteeg,Heusden,Noord-Brabant,VBO,5.197032,51.709613
Haarsteegsestraat,31,A,,5254JN,Haarsteeg,Heusden,Noord-Brabant,VBO,5.197019,51.709122
Haarsteegsestraat,31,,,5254JN,Haarsteeg,Heusden,Noord-Brabant,VBO,5.197210,51.709225
Haarsteegsestraat,33,A,,5254JN,Haarsteeg,Heusden,Noord-Brabant,VBO,5.197522,51.708912
Haarsteegsestraat,33,,,5254JN,Haarsteeg,Heusden,Noord-Brabant,VBO,5.197420,51.708971
Haarsteegsestraat,35,A,,5254JN,Haarsteeg,Heusden,Noord-Brabant,VBO,5.197511,51.708207
Haarsteegsestraat,35,B,,5254JN,Haarsteeg,Heusden,Noord-Brabant,VBO,5.197176,51.708143
Haarsteegsestraat,35,C,,5254JN,Haarsteeg,Heusden,Noord-Brabant,VBO,5.197312,51.708459
Haarsteegsestraat,35,,,5254JN,Haarsteeg,Heusden,Noord-Brabant,VBO,5.197642,51.708315
Haarsteegsestraat,37,,,5254JN,Haarsteeg,Heusden,Noord-Brabant,VBO,5.196590,51.709560
Haarsteegsestraat,39,A,,5254JN,Haarsteeg,Heusden,Noord-Brabant,VBO,5.196618,51.709277
Haarsteegsestraat,39,,,5254JN,Haarsteeg,Heusden,Noord-Brabant,VBO,5.196345,51.709512
Haarsteegsestraat,41,,,5254JN,Haarsteeg,Heusden,Noord-Brabant,VBO,5.196133,51.709474
Haarsteegsestraat,43,,,5254JN,Haarsteeg,Heusden,Noord-Brabant,VBO,5.195812,51.709421
Haarsteegsestraat,45,,,5254JN,Haarsteeg,Heusden,Noord-Brabant,VBO,5.194948,51.709328
Haarsteegsestraat,47,,,5254JN,Haarsteeg,Heusden,Noord-Brabant,VBO,5.194566,51.709285
Haarsteegsestraat,49,,,5254JN,Haarsteeg,Heusden,Noord-Brabant,VBO,5.194252,51.709234
Haarsteegsestraat,51,A,,5254JN,Haarsteeg,Heusden,Noord-Brabant,VBO,5.193724,51.709137
Haarsteegsestraat,51,,,5254JN,Haarsteeg,Heusden,Noord-Brabant,VBO,5.193989,51.709190
Haarsteegsestraat,53,A,,5254JP,Haarsteeg,Heusden,Noord-Brabant,VBO,5.193129,51.709044
Haarsteegsestraat,53,,,5254JP,Haarsteeg,Heusden,Noord-Brabant,VBO,5.193401,51.709093
Haarsteegsestraat,55,A,,5254JP,Haarsteeg,Heusden,Noord-Brabant,VBO,5.192434,51.708986
Haarsteegsestraat,55,,,5254JP,Haarsteeg,Heusden,Noord-Brabant,VBO,5.192712,51.709048
Haarsteegsestraat,57,,,5254JP,Haarsteeg,Heusden,Noord-Brabant,VBO,5.192323,51.708963
Haarsteegsestraat,59,A,,5254JP,Haarsteeg,Heusden,Noord-Brabant,VBO,5.191985,51.708933
Haarsteegsestraat,59,,,5254JP,Haarsteeg,Heusden,Noord-Brabant,VBO,5.191994,51.708909
Haarsteegsestraat,61,,,5254JP,Haarsteeg,Heusden,Noord-Brabant,VBO,5.191780,51.708903
Haarsteegsestraat,63,A,,5254JP,Haarsteeg,Heusden,Noord-Brabant,VBO,5.192290,51.707928
Haarsteegsestraat,63,,,5254JP,Haarsteeg,Heusden,Noord-Brabant,VBO,5.192244,51.708003
Haarsteegsestraat,65,,,5254JP,Haarsteeg,Heusden,Noord-Brabant,VBO,5.191502,51.708847
Haarsteegsestraat,67,A,,5254JP,Haarsteeg,Heusden,Noord-Brabant,VBO,5.191666,51.708493
Haarsteegsestraat,67,,,5254JP,Haarsteeg,Heusden,Noord-Brabant,VBO,5.191400,51.708828
Haarsteegsestraat,69,,,5254JP,Haarsteeg,Heusden,Noord-Brabant,VBO,5.191897,51.708028
Haarsteegsestraat,71,,,5254JP,Haarsteeg,Heusden,Noord-Brabant,VBO,5.191860,51.708100
Haarsteegsestraat,73,,,5254JP,Haarsteeg,Heusden,Noord-Brabant,VBO,5.191183,51.708815
Haarsteegsestraat,75,,,5254JP,Haarsteeg,Heusden,Noord-Brabant,VBO,5.191093,51.708797
Haarsteegsestraat,77,,,5254JP,Haarsteeg,Heusden,Noord-Brabant,VBO,5.190707,51.708726
Haarsteegsestraat,79,,,5254JP,Haarsteeg,Heusden,Noord-Brabant,VBO,5.190297,51.708704
Haarsteegsestraat,81,A,,5254JP,Haarsteeg,Heusden,Noord-Brabant,VBO,5.189730,51.708613
Haarsteegsestraat,81,,,5254JP,Haarsteeg,Heusden,Noord-Brabant,VBO,5.190006,51.708666
Haarsteegsestraat,83,,,5254JP,Haarsteeg,Heusden,Noord-Brabant,VBO,5.189534,51.708586
Haarsteegsestraat,85,,,5254JP,Haarsteeg,Heusden,Noord-Brabant,VBO,5.189220,51.708534
Haarsteegsestraat,87,,,5254JP,Haarsteeg,Heusden,Noord-Brabant,VBO,5.188994,51.708522
Haarsteegsestraat,89,,,5254JP,Haarsteeg,Heusden,Noord-Brabant,VBO,5.188827,51.708492
Haarsteegsestraat,91,,,5254JP,Haarsteeg,Heusden,Noord-Brabant,VBO,5.188745,51.708477
Haarsteegsestraat,93,,,5254JP,Haarsteeg,Heusden,Noord-Brabant,VBO,5.188541,51.708439
Haarsteegsestraat,95,A,,5254JP,Haarsteeg,Heusden,Noord-Brabant,VBO,5.188572,51.707935
Haarsteegsestraat,95,,,5254JP,Haarsteeg,Heusden,Noord-Brabant,VBO,5.188371,51.708368
Haarsteegsestraat,97,,,5254JP,Haarsteeg,Heusden,Noord-Brabant,VBO,5.188117,51.708323
Haarsteegsestraat,99,A,,5254JP,Haarsteeg,Heusden,Noord-Brabant,VBO,5.187238,51.708202
Haarsteegsestraat,99,,,5254JP,Haarsteeg,Heusden,Noord-Brabant,VBO,5.187487,51.708260
Haarsteegsestraat,101,,,5254JP,Haarsteeg,Heusden,Noord-Brabant,VBO,5.187071,51.708198
Haarsteegsestraat,103,,,5254JP,Haarsteeg,Heusden,Noord-Brabant,VBO,5.186404,51.708097
Haarsteegsestraat,2,,,5254JR,Haarsteeg,Heusden,Noord-Brabant,VBO,5.200800,51.710435
Haarsteegsestraat,6,,,5254JR,Haarsteeg,Heusden,Noord-Brabant,VBO,5.200377,51.710383
Haarsteegsestraat,8,A,,5254JR,Haarsteeg,Heusden,Noord-Brabant,VBO,5.199441,51.710389
Haarsteegsestraat,8,B,,5254JR,Haarsteeg,Heusden,Noord-Brabant,VBO,5.199494,51.710400
Haarsteegsestraat,8,,,5254JR,Haarsteeg,Heusden,Noord-Brabant,VBO,5.199343,51.710375
Haarsteegsestraat,10,,,5254JR,Haarsteeg,Heusden,Noord-Brabant,VBO,5.198936,51.710425
Haarsteegsestraat,12,,,5254JR,Haarsteeg,Heusden,Noord-Brabant,VBO,5.198676,51.710282
Haarsteegsestraat,14,A,,5254JR,Haarsteeg,Heusden,Noord-Brabant,VBO,5.198494,51.710060
Haarsteegsestraat,14,,,5254JR,Haarsteeg,Heusden,Noord-Brabant,VBO,5.198488,51.710092
Haarsteegsestraat,16,,,5254JR,Haarsteeg,Heusden,Noord-Brabant,VBO,5.198283,51.710014
Haarsteegsestraat,18,,,5254JR,Haarsteeg,Heusden,Noord-Brabant,VBO,5.198137,51.709996
Haarsteegsestraat,20,,,5254JR,Haarsteeg,Heusden,Noord-Brabant,VBO,5.197697,51.710030
Haarsteegsestraat,22,,,5254JR,Haarsteeg,Heusden,Noord-Brabant,VBO,5.197600,51.709965
Haarsteegsestraat,24,,,5254JR,Haarsteeg,Heusden,Noord-Brabant,VBO,5.197344,51.709906
Haarsteegsestraat,26,,,5254JR,Haarsteeg,Heusden,Noord-Brabant,VBO,5.197082,51.709879
Haarsteegsestraat,28,,,5254JR,Haarsteeg,Heusden,Noord-Brabant,VBO,5.196879,51.709849
Haarsteegsestraat,30,A,,5254JR,Haarsteeg,Heusden,Noord-Brabant,VBO,5.196291,51.709810
Haarsteegsestraat,30,B,,5254JR,Haarsteeg,Heusden,Noord-Brabant,VBO,5.196531,51.709815
Haarsteegsestraat,30,,,5254JR,Haarsteeg,Heusden,Noord-Brabant,VBO,5.196619,51.709815
Haarsteegsestraat,32,A,,5254JR,Haarsteeg,Heusden,Noord-Brabant,VBO,5.196140,51.709793
Haarsteegsestraat,32,,,5254JR,Haarsteeg,Heusden,Noord-Brabant,VBO,5.196113,51.709791
Haarsteegsestraat,34,,,5254JR,Haarsteeg,Heusden,Noord-Brabant,VBO,5.195986,51.709752
Haarsteegsestraat,36,,,5254JR,Haarsteeg,Heusden,Noord-Brabant,VBO,5.195761,51.709718
Haarsteegsestraat,38,,,5254JS,Haarsteeg,Heusden,Noord-Brabant,VBO,5.195388,51.709762
Haarsteegsestraat,40,,,5254JS,Haarsteeg,Heusden,Noord-Brabant,VBO,5.195182,51.709622
Haarsteegsestraat,42,,,5254JS,Haarsteeg,Heusden,Noord-Brabant,VBO,5.195019,51.709605
Haarsteegsestraat,44,A,,5254JS,Haarsteeg,Heusden,Noord-Brabant,VBO,5.194655,51.710034
Haarsteegsestraat,44,,,5254JS,Haarsteeg,Heusden,Noord-Brabant,VBO,5.194838,51.709616
Haarsteegsestraat,46,,,5254JS,Haarsteeg,Heusden,Noord-Brabant,VBO,5.194549,51.709606
Haarsteegsestraat,48,,,5254JS,Haarsteeg,Heusden,Noord-Brabant,VBO,5.194185,51.709546
Haarsteegsestraat,50,,,5254JS,Haarsteeg,Heusden,Noord-Brabant,VBO,5.193929,51.709459
Haarsteegsestraat,52,,,5254JS,Haarsteeg,Heusden,Noord-Brabant,VBO,5.193646,51.709435
Haarsteegsestraat,54,,,5254JS,Haarsteeg,Heusden,Noord-Brabant,VBO,5.193445,51.709971
Haarsteegsestraat,56,A,,5254JS,Haarsteeg,Heusden,Noord-Brabant,VBO,5.193245,51.709426
Haarsteegsestraat,56,B,,5254JS,Haarsteeg,Heusden,Noord-Brabant,VBO,5.193006,51.709533
Haarsteegsestraat,56,,,5254JS,Haarsteeg,Heusden,Noord-Brabant,VBO,5.193313,51.709423
Haarsteegsestraat,58,A,,5254JS,Haarsteeg,Heusden,Noord-Brabant,VBO,5.192439,51.709260
Haarsteegsestraat,58,,,5254JS,Haarsteeg,Heusden,Noord-Brabant,VBO,5.192377,51.709252
Haarsteegsestraat,62,,,5254JS,Haarsteeg,Heusden,Noord-Brabant,VBO,5.191958,51.709329
Haarsteegsestraat,64,,,5254JS,Haarsteeg,Heusden,Noord-Brabant,VBO,5.191727,51.709166
Haarsteegsestraat,66,,,5254JS,Haarsteeg,Heusden,Noord-Brabant,VBO,5.191460,51.709119
Haarsteegsestraat,68,,,5254JS,Haarsteeg,Heusden,Noord-Brabant,VBO,5.191326,51.709507
Haarsteegsestraat,70,,,5254JS,Haarsteeg,Heusden,Noord-Brabant,VBO,5.191159,51.709096
Haarsteegsestraat,72,,,5254JS,Haarsteeg,Heusden,Noord-Brabant,VBO,5.190939,51.709070
Haarsteegsestraat,74,,,5254JS,Haarsteeg,Heusden,Noord-Brabant,VBO,5.190644,51.709049
Haarsteegsestraat,76,A,,5254JS,Haarsteeg,Heusden,Noord-Brabant,VBO,5.189735,51.709688
Haarsteegsestraat,76,,,5254JS,Haarsteeg,Heusden,Noord-Brabant,VBO,5.190010,51.708929
Haarsteegsestraat,78,,,5254JT,Haarsteeg,Heusden,Noord-Brabant,VBO,5.189103,51.708854
Haarsteegsestraat,80,A,,5254JT,Haarsteeg,Heusden,Noord-Brabant,VBO,5.188682,51.708793
Haarsteegsestraat,80,,,5254JT,Haarsteeg,Heusden,Noord-Brabant,VBO,5.188845,51.708816
Haarsteegsestraat,82,,,5254JT,Haarsteeg,Heusden,Noord-Brabant,VBO,5.188462,51.708777
Haarsteegsestraat,84,,,5254JT,Haarsteeg,Heusden,Noord-Brabant,VBO,5.188235,51.708710
Haarsteegsestraat,86,A,,5254JT,Haarsteeg,Heusden,Noord-Brabant,VBO,5.187755,51.708663
Haarsteegsestraat,86,B,,5254JT,Haarsteeg,Heusden,Noord-Brabant,VBO,5.187656,51.708649
Haarsteegsestraat,86,,,5254JT,Haarsteeg,Heusden,Noord-Brabant,VBO,5.188043,51.708660
Haarsteegsestraat,88,,,5254JT,Haarsteeg,Heusden,Noord-Brabant,VBO,5.187463,51.708573
Haarsteegsestraat,100,,,5254JT,Haarsteeg,Heusden,Noord-Brabant,VBO,5.186784,51.708512
Haarsteegsestraat,102,,,5254JT,Haarsteeg,Heusden,Noord-Brabant,VBO,5.186341,51.708461
Haarsteegsestraat,104,A,,5254JT,Haarsteeg,Heusden,Noord-Brabant,VBO,5.186031,51.708420
Haarsteegsestraat,104,B,,5254JT,Haarsteeg,Heusden,Noord-Brabant,VBO,5.185813,51.708389
Haarsteegsestraat,104,,,5254JT,Haarsteeg,Heusden,Noord-Brabant,VBO,5.186162,51.709151
Haarsteegsestraat,106,A,,5254JT,Haarsteeg,Heusden,Noord-Brabant,VBO,5.185383,51.708306
Haarsteegsestraat,106,B,,5254JT,Haarsteeg,Heusden,Noord-Brabant,VBO,5.185055,51.708644
Haarsteegsestraat,106,,,5254JT,Haarsteeg,Heusden,Noord-Brabant,VBO,5.185619,51.708352
Haarsteegsestraat,108,,,5254JT,Haarsteeg,Heusden,Noord-Brabant,VBO,5.185035,51.708257
Haarsteegsestraat,110,,,5254JT,Haarsteeg,Heusden,Noord-Brabant,VBO,5.184950,51.708390
Haarsteegsestraat,112,,,5254JT,Haarsteeg,Heusden,Noord-Brabant,VBO,5.184723,51.708218
Haarsteegsestraat,114,T,,5254JT,Haarsteeg,Heusden,Noord-Brabant,VBO,5.184260,51.708482
Haarsteegsestraat,114,,,5254JT,Haarsteeg,Heusden,Noord-Brabant,VBO,5.184402,51.708172
De Hoeven,1,A,,5254JV,Haarsteeg,Heusden,Noord-Brabant,VBO,5.182801,51.707581
De Hoeven,1,B,,5254JV,Haarsteeg,Heusden,Noord-Brabant,VBO,5.183714,51.707416
De Hoeven,1,,,5254JV,Haarsteeg,Heusden,Noord-Brabant,VBO,5.183019,51.707629
De Hoeven,3,A,,5254JV,Haarsteeg,Heusden,Noord-Brabant,VBO,5.182488,51.707578
De Hoeven,3,B,,5254JV,Haarsteeg,Heusden,Noord-Brabant,VBO,5.181840,51.707459
De Hoeven,3,C,,5254JV,Haarsteeg,Heusden,Noord-Brabant,VBO,5.181498,51.707393
De Hoeven,3,D,,5254JV,Haarsteeg,Heusden,Noord-Brabant,VBO,5.181218,51.707340
De Hoeven,3,E,,5254JV,Haarsteeg,Heusden,Noord-Brabant,VBO,5.182070,51.707313
De Hoeven,5,,,5254JV,Haarsteeg,Heusden,Noord-Brabant,VBO,5.180880,51.707455
De Hoeven,7,,,5254JV,Haarsteeg,Heusden,Noord-Brabant,VBO,5.180696,51.707424
De Hoeven,9,,,5254JV,Haarsteeg,Heusden,Noord-Brabant,VBO,5.180590,51.707394
De Hoeven,11,A,,5254JV,Haarsteeg,Heusden,Noord-Brabant,VBO,5.180509,51.707041
De Hoeven,11,B,,5254JV,Haarsteeg,Heusden,Noord-Brabant,VBO,5.180131,51.707212
De Hoeven,11,C,,5254JV,Haarsteeg,Heusden,Noord-Brabant,VBO,5.179831,51.707145
De Hoeven,11,,,5254JV,Haarsteeg,Heusden,Noord-Brabant,VBO,5.180454,51.707235
De Hoeven,13,,,5254JV,Haarsteeg,Heusden,Noord-Brabant,VBO,5.179491,51.707105
De Hoeven,15,,,5254JV,Haarsteeg,Heusden,Noord-Brabant,VBO,5.179200,51.707065
De Hoeven,17,,,5254JV,Haarsteeg,Heusden,Noord-Brabant,VBO,5.179017,51.706963
De Hoeven,19,A,,5254JV,Haarsteeg,Heusden,Noord-Brabant,VBO,5.178124,51.706918
De Hoeven,19,B,,5254JV,Haarsteeg,Heusden,Noord-Brabant,VBO,5.178731,51.706708
De Hoeven,19,,,5254JV,Haarsteeg,Heusden,Noord-Brabant,VBO,5.178412,51.706961
De Hoeven,21,A,,5254JV,Haarsteeg,Heusden,Noord-Brabant,VBO,5.177919,51.706734
De Hoeven,21,,,5254JV,Haarsteeg,Heusden,Noord-Brabant,VBO,5.177844,51.706853
De Hoeven,23,A,,5254JW,Haarsteeg,Heusden,Noord-Brabant,VBO,5.177896,51.705996
De Hoeven,23,B,,5254JW,Haarsteeg,Heusden,Noord-Brabant,VBO,5.177449,51.706783
De Hoeven,23,,,5254JW,Haarsteeg,Heusden,Noord-Brabant,VBO,5.177534,51.706753
De Hoeven,25,,,5254JW,Haarsteeg,Heusden,Noord-Brabant,VBO,5.177165,51.706769
De Hoeven,27,T,,5254JW,Haarsteeg,Heusden,Noord-Brabant,VBO,5.175752,51.706606
De Hoeven,27,,,5254JW,Haarsteeg,Heusden,Noord-Brabant,VBO,5.175935,51.706662
De Hoeven,29,A,,5254JW,Haarsteeg,Heusden,Noord-Brabant,VBO,5.174827,51.706496
De Hoeven,29,B,,5254JW,Haarsteeg,Heusden,Noord-Brabant,VBO,5.174863,51.706430
De Hoeven,29,,,5254JW,Haarsteeg,Heusden,Noord-Brabant,VBO,5.174730,51.706567
De Hoeven,31,,,5254JW,Haarsteeg,Heusden,Noord-Brabant,VBO,5.174475,51.706556
De Hoeven,33,A,,5254JW,Haarsteeg,Heusden,Noord-Brabant,VBO,5.174023,51.706046
De Hoeven,33,,,5254JW,Haarsteeg,Heusden,Noord-Brabant,VBO,5.174166,51.706516
De Hoeven,35,,,5254JW,Haarsteeg,Heusden,Noord-Brabant,VBO,5.173204,51.706398
De Hoeven,37,,,5254JW,Haarsteeg,Heusden,Noord-Brabant,VBO,5.172549,51.706336
De Hoeven,41,,,5254JW,Haarsteeg,Heusden,Noord-Brabant,VBO,5.171749,51.706274
De Hoeven,47,,,5254JW,Haarsteeg,Heusden,Noord-Brabant,VBO,5.170854,51.706115
De Hoeven,61,,,5254JW,Haarsteeg,Heusden,Noord-Brabant,VBO,5.167605,51.705804
De Hoeven,2,,,5254JX,Haarsteeg,Heusden,Noord-Brabant,VBO,5.183940,51.708104
De Hoeven,4,,,5254JX,Haarsteeg,Heusden,Noord-Brabant,VBO,5.183726,51.708073
De Hoeven,6,,,5254JX,Haarsteeg,Heusden,Noord-Brabant,VBO,5.183564,51.708037
De Hoeven,8,,,5254JX,Haarsteeg,Heusden,Noord-Brabant,VBO,5.183314,51.707999
De Hoeven,10,,,5254JX,Haarsteeg,Heusden,Noord-Brabant,VBO,5.183129,51.707971
De Hoeven,12,,,5254JX,Haarsteeg,Heusden,Noord-Brabant,VBO,5.183056,51.707960
De Hoeven,14,,,5254JX,Haarsteeg,Heusden,Noord-Brabant,VBO,5.182901,51.707936
De Hoeven,16,,,5254JX,Haarsteeg,Heusden,Noord-Brabant,VBO,5.182797,51.707920
De Hoeven,18,,,5254JX,Haarsteeg,Heusden,Noord-Brabant,VBO,5.182635,51.707893
De Hoeven,20,,,5254JX,Haarsteeg,Heusden,Noord-Brabant,VBO,5.182490,51.707884
De Hoeven,22,,,5254JX,Haarsteeg,Heusden,Noord-Brabant,VBO,5.182379,51.707856
De Hoeven,24,A,,5254JX,Haarsteeg,Heusden,Noord-Brabant,VBO,5.181789,51.707782
De Hoeven,24,,,5254JX,Haarsteeg,Heusden,Noord-Brabant,VBO,5.182120,51.707839
De Hoeven,26,A,,5254JX,Haarsteeg,Heusden,Noord-Brabant,VBO,5.181277,51.707738
De Hoeven,26,,,5254JX,Haarsteeg,Heusden,Noord-Brabant,VBO,5.181566,51.707788
De Hoeven,28,,,5254JX,Haarsteeg,Heusden,Noord-Brabant,VBO,5.181016,51.707674
De Hoeven,30,,,5254JX,Haarsteeg,Heusden,Noord-Brabant,VBO,5.180595,51.707619
De Hoeven,32,,,5254JX,Haarsteeg,Heusden,Noord-Brabant,VBO,5.180339,51.707579
De Hoeven,34,A,,5254JX,Haarsteeg,Heusden,Noord-Brabant,VBO,5.179912,51.707498
De Hoeven,34,,,5254JX,Haarsteeg,Heusden,Noord-Brabant,VBO,5.180136,51.707512
De Hoeven,36,,,5254JX,Haarsteeg,Heusden,Noord-Brabant,VBO,5.179723,51.707467
De Hoeven,38,A,,5254JX,Haarsteeg,Heusden,Noord-Brabant,VBO,5.179300,51.707791
De Hoeven,38,,,5254JX,Haarsteeg,Heusden,Noord-Brabant,VBO,5.179403,51.707400
De Hoeven,40,A,1,5254JX,Haarsteeg,Heusden,Noord-Brabant,VBO,5.179067,51.707402
De Hoeven,40,A,,5254JX,Haarsteeg,Heusden,Noord-Brabant,VBO,5.178874,51.707380
De Hoeven,40,B,,5254JX,Haarsteeg,Heusden,Noord-Brabant,VBO,5.178586,51.707361
De Hoeven,40,C,,5254JX,Haarsteeg,Heusden,Noord-Brabant,VBO,5.178359,51.707338
De Hoeven,40,,,5254JX,Haarsteeg,Heusden,Noord-Brabant,VBO,5.179316,51.707376
Ipperhoeve,1,A,,5254JZ,Haarsteeg,Heusden,Noord-Brabant,VBO,5.200720,51.710760
Ipperhoeve,1,,,5254JZ,Haarsteeg,Heusden,Noord-Brabant,VBO,5.200656,51.710918
Ipperhoeve,3,,,5254JZ,Haarsteeg,Heusden,Noord-Brabant,VBO,5.200636,51.710973
Ipperhoeve,5,,,5254JZ,Haarsteeg,Heusden,Noord-Brabant,VBO,5.200600,51.711072
Ipperhoeve,7,,,5254JZ,Haarsteeg,Heusden,Noord-Brabant,VBO,5.200580,51.711127
Ipperhoeve,9,,,5254JZ,Haarsteeg,Heusden,Noord-Brabant,VBO,5.200562,51.711227
Ipperhoeve,11,,,5254JZ,Haarsteeg,Heusden,Noord-Brabant,VBO,5.200524,51.711282
Ipperhoeve,13,,,5254JZ,Haarsteeg,Heusden,Noord-Brabant,VBO,5.200488,51.711381
Ipperhoeve,15,,,5254JZ,Haarsteeg,Heusden,Noord-Brabant,VBO,5.200468,51.711436
Ipperhoeve,17,,,5254JZ,Haarsteeg,Heusden,Noord-Brabant,VBO,5.200166,51.712034
Ipperhoeve,19,,,5254JZ,Haarsteeg,Heusden,Noord-Brabant,VBO,5.200366,51.712105
Ipperhoeve,21,,,5254JZ,Haarsteeg,Heusden,Noord-Brabant,VBO,5.200561,51.712191
Ipperhoeve,23,,,5254JZ,Haarsteeg,Heusden,Noord-Brabant,VBO,5.200500,51.712410
Ipperhoeve,25,,,5254JZ,Haarsteeg,Heusden,Noord-Brabant,VBO,5.200459,51.712535
Ipperhoeve,27,,,5254JZ,Haarsteeg,Heusden,Noord-Brabant,VBO,5.200440,51.712595
Ipperhoeve,29,,,5254JZ,Haarsteeg,Heusden,Noord-Brabant,VBO,5.200373,51.712706
Ipperhoeve,31,,,5254JZ,Haarsteeg,Heusden,Noord-Brabant,VBO,5.200352,51.712768
Ipperhoeve,33,,,5254JZ,Haarsteeg,Heusden,Noord-Brabant,VBO,5.200311,51.712891
Ipperhoeve,35,,,5254JZ,Haarsteeg,Heusden,Noord-Brabant,VBO,5.200297,51.713023
Ipperhoeve,37,,,5254JZ,Haarsteeg,Heusden,Noord-Brabant,VBO,5.200255,51.713147
Ipperhoeve,39,,,5254JZ,Haarsteeg,Heusden,Noord-Brabant,VBO,5.200233,51.713215
Ipperhoeve,41,,,5254JZ,Haarsteeg,Heusden,Noord-Brabant,VBO,5.200122,51.713429
Ipperhoeve,43,,,5254JZ,Haarsteeg,Heusden,Noord-Brabant,VBO,5.200035,51.713417
Ipperhoeve,45,,,5254JZ,Haarsteeg,Heusden,Noord-Brabant,VBO,5.199949,51.713406
Ipperhoeve,47,,,5254JZ,Haarsteeg,Heusden,Noord-Brabant,VBO,5.199822,51.713408
Ipperhoeve,49,,,5254JZ,Haarsteeg,Heusden,Noord-Brabant,VBO,5.199734,51.713397
Ipperhoeve,51,,,5254JZ,Haarsteeg,Heusden,Noord-Brabant,VBO,5.199646,51.713386
Klein Bernse Hoeve,1,,,5254KA,Haarsteeg,Heusden,Noord-Brabant,VBO,5.186277,51.710336
Klein Bernse Hoeve,2,,,5254KA,Haarsteeg,Heusden,Noord-Brabant,VBO,5.187211,51.708840
Klein Bernse Hoeve,4,,,5254KA,Haarsteeg,Heusden,Noord-Brabant,VBO,5.187188,51.708989
Klein Bernse Hoeve,6,A,,5254KA,Haarsteeg,Heusden,Noord-Brabant,VBO,5.187132,51.709379
Klein Bernse Hoeve,6,B,,5254KA,Haarsteeg,Heusden,Noord-Brabant,VBO,5.187256,51.709588
Klein Bernse Hoeve,6,C,,5254KA,Haarsteeg,Heusden,Noord-Brabant,VBO,5.187213,51.709705
Klein Bernse Hoeve,6,,,5254KA,Haarsteeg,Heusden,Noord-Brabant,VBO,5.187262,51.709184
Klein Bernse Hoeve,8,,,5254KA,Haarsteeg,Heusden,Noord-Brabant,VBO,5.186609,51.710316
Klein Bernse Hoeve,10,,,5254KA,Haarsteeg,Heusden,Noord-Brabant,VBO,5.186745,51.710829
Klein Bernse Hoeve,12,,,5254KA,Haarsteeg,Heusden,Noord-Brabant,VBO,5.186512,51.710997
Oude Haven,1,,,5254KB,Haarsteeg,Heusden,Noord-Brabant,VBO,5.191915,51.714572
Oude Haven,2,,,5254KB,Haarsteeg,Heusden,Noord-Brabant,VBO,5.199326,51.714400
Oude Haven,3,,,5254KB,Haarsteeg,Heusden,Noord-Brabant,VBO,5.199963,51.714392
Oude Haven,4,,,5254KB,Haarsteeg,Heusden,Noord-Brabant,VBO,5.198881,51.714270
Oude Haven,5,,,5254KB,Haarsteeg,Heusden,Noord-Brabant,VBO,5.199562,51.714129
Oude Haven,6,,,5254KB,Haarsteeg,Heusden,Noord-Brabant,VBO,5.198254,51.714082
Oude Haven,8,,,5254KB,Haarsteeg,Heusden,Noord-Brabant,VBO,5.197749,51.713951
Oude Haven,10,,,5254KB,Haarsteeg,Heusden,Noord-Brabant,VBO,5.195357,51.713683
Oude Haven,11,,,5254KB,Haarsteeg,Heusden,Noord-Brabant,VBO,5.198319,51.713950
Oude Haven,13,,,5254KB,Haarsteeg,Heusden,Noord-Brabant,VBO,5.198004,51.713830
Oude Haven,15,,,5254KB,Haarsteeg,Heusden,Noord-Brabant,VBO,5.197561,51.713758
Oude Haven,17,,,5254KB,Haarsteeg,Heusden,Noord-Brabant,VBO,5.196932,51.713654
Oude Haven,19,,,5254KB,Haarsteeg,Heusden,Noord-Brabant,VBO,5.196619,51.713609
Oude Haven,31,A,,5254KB,Haarsteeg,Heusden,Noord-Brabant,VBO,5.195111,51.713361
Oude Haven,31,,,5254KB,Haarsteeg,Heusden,Noord-Brabant,VBO,5.195476,51.713479
Inlaagdijk,1,A,,5254KC,Haarsteeg,Heusden,Noord-Brabant,VBO,5.215850,51.713233
Inlaagdijk,1,,,5254KC,Haarsteeg,Heusden,Noord-Brabant,VBO,5.215948,51.713235
Inlaagdijk,5,,,5254KC,Haarsteeg,Heusden,Noord-Brabant,VBO,5.215060,51.713104
Inlaagdijk,7,,,5254KC,Haarsteeg,Heusden,Noord-Brabant,VBO,5.215353,51.713269
Inlaagdijk,9,,,5254KC,Haarsteeg,Heusden,Noord-Brabant,VBO,5.214790,51.713326
Inlaagdijk,13,,,5254KC,Haarsteeg,Heusden,Noord-Brabant,VBO,5.212171,51.713549
Inlaagdijk,15,,,5254KC,Haarsteeg,Heusden,Noord-Brabant,VBO,5.210941,51.713674
Inlaagdijk,17,,,5254KC,Haarsteeg,Heusden,Noord-Brabant,VBO,5.210038,51.713738
Inlaagdijk,19,,,5254KC,Haarsteeg,Heusden,Noord-Brabant,VBO,5.209648,51.713757
Inlaagdijk,23,,,5254KC,Haarsteeg,Heusden,Noord-Brabant,VBO,5.208129,51.713903
Inlaagdijk,25,,,5254KC,Haarsteeg,Heusden,Noord-Brabant,VBO,5.207857,51.713926
Inlaagdijk,27,G,,5254KC,Haarsteeg,Heusden,Noord-Brabant,VBO,5.206920,51.713829
Inlaagdijk,27,,,5254KC,Haarsteeg,Heusden,Noord-Brabant,VBO,5.206808,51.714017
Inlaagdijk,29,,,5254KC,Haarsteeg,Heusden,Noord-Brabant,VBO,5.206384,51.714061
Inlaagdijk,31,,,5254KC,Haarsteeg,Heusden,Noord-Brabant,VBO,5.206172,51.714082
Inlaagdijk,33,,,5254KC,Haarsteeg,Heusden,Noord-Brabant,VBO,5.205929,51.714107
Inlaagdijk,37,,,5254KC,Haarsteeg,Heusden,Noord-Brabant,VBO,5.205434,51.714154
Inlaagdijk,2,,,5254KD,Haarsteeg,Heusden,Noord-Brabant,VBO,5.201652,51.714702
Inlaagdijk,39,,,5254KD,Haarsteeg,Heusden,Noord-Brabant,VBO,5.205220,51.714188
Inlaagdijk,43,,,5254KD,Haarsteeg,Heusden,Noord-Brabant,VBO,5.204744,51.714221
Inlaagdijk,45,,,5254KD,Haarsteeg,Heusden,Noord-Brabant,VBO,5.204340,51.714256
Inlaagdijk,47,,,5254KD,Haarsteeg,Heusden,Noord-Brabant,VBO,5.203353,51.714289
Inlaagdijk,49,,,5254KD,Haarsteeg,Heusden,Noord-Brabant,VBO,5.203177,51.714346
Inlaagdijk,55,A,,5254KD,Haarsteeg,Heusden,Noord-Brabant,VBO,5.202310,51.714434
Inlaagdijk,55,,,5254KD,Haarsteeg,Heusden,Noord-Brabant,VBO,5.202424,51.714411
Inlaagdijk,57,,,5254KD,Haarsteeg,Heusden,Noord-Brabant,VBO,5.202066,51.714458
Inlaagdijk,59,,,5254KD,Haarsteeg,Heusden,Noord-Brabant,VBO,5.201856,51.714445
Inlaagdijk,61,,,5254KD,Haarsteeg,Heusden,Noord-Brabant,VBO,5.201742,51.714486
Inlaagdijk,63,,,5254KD,Haarsteeg,Heusden,Noord-Brabant,VBO,5.201573,51.714498
Inlaagdijk,65,,,5254KD,Haarsteeg,Heusden,Noord-Brabant,VBO,5.201405,51.714518
Inlaagdijk,67,,,5254KD,Haarsteeg,Heusden,Noord-Brabant,VBO,5.201269,51.714528
Inlaagdijk,69,,,5254KD,Haarsteeg,Heusden,Noord-Brabant,VBO,5.201070,51.714553
Vergereindseweg,2,,,5254KE,Haarsteeg,Heusden,Noord-Brabant,VBO,5.201657,51.715255
Vergereindseweg,10,,,5254KE,Haarsteeg,Heusden,Noord-Brabant,VBO,5.208101,51.722937
Kavelingweg,1,T,,5254KG,Haarsteeg,Heusden,Noord-Brabant,VBO,5.205360,51.712918
Kavelingweg,1,,,5254KG,Haarsteeg,Heusden,Noord-Brabant,STA,5.206004,51.713251
Kavelingweg,2,,,5254KG,Haarsteeg,Heusden,Noord-Brabant,VBO,5.205564,51.712698
Kavelingweg,3,,,5254KG,Haarsteeg,Heusden,Noord-Brabant,STA,5.206146,51.713301
Kavelingweg,5,,,5254KG,Haarsteeg,Heusden,Noord-Brabant,VBO,5.206424,51.713332
Kavelingweg,7,,,5254KG,Haarsteeg,Heusden,Noord-Brabant,VBO,5.206609,51.713397
Kavelingweg,9,,,5254KG,Haarsteeg,Heusden,Noord-Brabant,VBO,5.206766,51.713455
Hauwkes,1,,,5254LA,Haarsteeg,Heusden,Noord-Brabant,VBO,5.201178,51.708564
Hauwkes,3,,,5254LA,Haarsteeg,Heusden,Noord-Brabant,VBO,5.201136,51.708613
Hauwkes,5,,,5254LA,Haarsteeg,Heusden,Noord-Brabant,VBO,5.201059,51.708737
Hauwkes,7,,,5254LA,Haarsteeg,Heusden,Noord-Brabant,VBO,5.201017,51.708787
Hauwkes,9,,,5254LA,Haarsteeg,Heusden,Noord-Brabant,VBO,5.200895,51.708896
Hauwkes,11,,,5254LA,Haarsteeg,Heusden,Noord-Brabant,VBO,5.200853,51.708945
Hauwkes,13,,,5254LA,Haarsteeg,Heusden,Noord-Brabant,VBO,5.200979,51.709095
Hauwkes,15,,,5254LA,Haarsteeg,Heusden,Noord-Brabant,VBO,5.201245,51.709098
Hauwkes,17,,,5254LA,Haarsteeg,Heusden,Noord-Brabant,VBO,5.201295,51.709053
Hauwkes,19,,,5254LA,Haarsteeg,Heusden,Noord-Brabant,VBO,5.201395,51.708934
Hauwkes,21,,,5254LA,Haarsteeg,Heusden,Noord-Brabant,VBO,5.201446,51.708889
Hauwkes,23,,,5254LA,Haarsteeg,Heusden,Noord-Brabant,VBO,5.201566,51.708780
Hauwkes,25,,,5254LA,Haarsteeg,Heusden,Noord-Brabant,VBO,5.201617,51.708734
Hauwkes,27,,,5254LA,Haarsteeg,Heusden,Noord-Brabant,VBO,5.201738,51.708625
Hauwkes,29,,,5254LA,Haarsteeg,Heusden,Noord-Brabant,VBO,5.201789,51.708579
Hauwkes,2,,,5254LB,Haarsteeg,Heusden,Noord-Brabant,VBO,5.201481,51.708281
Hauwkes,4,,,5254LB,Haarsteeg,Heusden,Noord-Brabant,VBO,5.201534,51.708236
Hauwkes,6,,,5254LB,Haarsteeg,Heusden,Noord-Brabant,VBO,5.201682,51.708140
Hauwkes,8,,,5254LB,Haarsteeg,Heusden,Noord-Brabant,VBO,5.201736,51.708095
Hauwkes,10,,,5254LB,Haarsteeg,Heusden,Noord-Brabant,VBO,5.201844,51.707978
Hauwkes,12,,,5254LB,Haarsteeg,Heusden,Noord-Brabant,VBO,5.201896,51.707935
Hauwkes,14,,,5254LB,Haarsteeg,Heusden,Noord-Brabant,VBO,5.201984,51.707784
Hauwkes,16,,,5254LB,Haarsteeg,Heusden,Noord-Brabant,VBO,5.202289,51.707890
Hauwkes,18,,,5254LB,Haarsteeg,Heusden,Noord-Brabant,VBO,5.202488,51.708007
Hauwkes,20,,,5254LB,Haarsteeg,Heusden,Noord-Brabant,VBO,5.202323,51.708125
Hauwkes,22,,,5254LB,Haarsteeg,Heusden,Noord-Brabant,VBO,5.202274,51.708170
Hauwkes,24,,,5254LB,Haarsteeg,Heusden,Noord-Brabant,VBO,5.202132,51.708270
Hauwkes,26,,,5254LB,Haarsteeg,Heusden,Noord-Brabant,VBO,5.202081,51.708315
Hauwkes,28,,,5254LB,Haarsteeg,Heusden,Noord-Brabant,VBO,5.201960,51.708425
Hauwkes,30,,,5254LB,Haarsteeg,Heusden,Noord-Brabant,VBO,5.201909,51.708471
De Omloop,4,T,,5254TJ,Haarsteeg,Heusden,Noord-Brabant,VBO,5.208684,51.724114
De Omloop,6,,,5254TJ,Haarsteeg,Heusden,Noord-Brabant,VBO,5.215333,51.724675
De Omloop,7,,,5254TJ,Haarsteeg,Heusden,Noord-Brabant,VBO,5.206931,51.724498
De Omloop,10,,,5254TJ,Haarsteeg,Heusden,Noord-Brabant,VBO,5.221833,51.725877
De Omloop,12,A,,5254TJ,Haarsteeg,Heusden,Noord-Brabant,VBO,5.226989,51.726763
De Omloop,12,,,5254TJ,Haarsteeg,Heusden,Noord-Brabant,VBO,5.227112,51.726889
De Omloop,13,A,,5254TJ,Haarsteeg,Heusden,Noord-Brabant,VBO,5.222451,51.726679
De Omloop,13,,,5254TJ,Haarsteeg,Heusden,Noord-Brabant,VBO,5.222321,51.726519
Voordijk,63,,,5254VG,Haarsteeg,Heusden,Noord-Brabant,VBO,5.222312,51.709890
Voordijk,65,,,5254VG,Haarsteeg,Heusden,Noord-Brabant,VBO,5.221868,51.710226
Voordijk,67,,,5254VG,Haarsteeg,Heusden,Noord-Brabant,VBO,5.221303,51.710203
Voordijk,69,,,5254VG,Haarsteeg,Heusden,Noord-Brabant,VBO,5.220575,51.710090
Voordijk,71,,,5254VG,Haarsteeg,Heusden,Noord-Brabant,VBO,5.221283,51.710529
Voordijk,73,,,5254VG,Haarsteeg,Heusden,Noord-Brabant,VBO,5.219662,51.711031
Voordijk,75,,,5254VG,Haarsteeg,Heusden,Noord-Brabant,VBO,5.220119,51.711270
Voordijk,77,,,5254VG,Haarsteeg,Heusden,Noord-Brabant,VBO,5.219705,51.711496
Voordijk,79,,,5254VG,Haarsteeg,Heusden,Noord-Brabant,VBO,5.219231,51.711921
Voordijk,81,,,5254VG,Haarsteeg,Heusden,Noord-Brabant,VBO,5.217839,51.712229
Voordijk,83,,,5254VG,Haarsteeg,Heusden,Noord-Brabant,VBO,5.216890,51.712111
Voordijk,85,,,5254VG,Haarsteeg,Heusden,Noord-Brabant,VBO,5.217581,51.712406
De Maashoevenweg,1,,,5254VH,Haarsteeg,Heusden,Noord-Brabant,VBO,5.222053,51.720253
De Maashoevenweg,2,,,5254VH,Haarsteeg,Heusden,Noord-Brabant,VBO,5.221466,51.719814
De Maashoevenweg,3,A,,5254VH,Haarsteeg,Heusden,Noord-Brabant,VBO,5.222907,51.718933
De Maashoevenweg,3,,,5254VH,Haarsteeg,Heusden,Noord-Brabant,VBO,5.222666,51.719088
De Maashoevenweg,4,,,5254VH,Haarsteeg,Heusden,Noord-Brabant,VBO,5.222390,51.717990
Tuinbouwweg,1,A,,5254VJ,Haarsteeg,Heusden,Noord-Brabant,VBO,5.168904,51.701382
Tuinbouwweg,1,B,,5254VJ,Haarsteeg,Heusden,Noord-Brabant,VBO,5.170524,51.701415
Tuinbouwweg,1,C,,5254VJ,Haarsteeg,Heusden,Noord-Brabant,VBO,5.172527,51.701646
Tuinbouwweg,1,D,,5254VJ,Haarsteeg,Heusden,Noord-Brabant,VBO,5.172282,51.701725
Tuinbouwweg,1,,,5254VJ,Haarsteeg,Heusden,Noord-Brabant,VBO,5.169308,51.701257
Tuinbouwweg,3,,,5254VJ,Haarsteeg,Heusden,Noord-Brabant,VBO,5.172884,51.701690
Tuinbouwweg,7,A,,5254VJ,Haarsteeg,Heusden,Noord-Brabant,VBO,5.175062,51.702110
Tuinbouwweg,7,B,,5254VJ,Haarsteeg,Heusden,Noord-Brabant,VBO,5.175152,51.701946
Tuinbouwweg,7,,,5254VJ,Haarsteeg,Heusden,Noord-Brabant,VBO,5.175258,51.701983
Tuinbouwweg,9,T,,5254VJ,Haarsteeg,Heusden,Noord-Brabant,VBO,5.177055,51.702087
Tuinbouwweg,9,,,5254VJ,Haarsteeg,Heusden,Noord-Brabant,VBO,5.176560,51.702143
Tuinbouwweg,10,,,5254VJ,Haarsteeg,Heusden,Noord-Brabant,VBO,5.169029,51.700823
Tuinbouwweg,12,,,5254VJ,Haarsteeg,Heusden,Noord-Brabant,VBO,5.169571,51.700866
Tuinbouwweg,13,,,5254VJ,Haarsteeg,Heusden,Noord-Brabant,VBO,5.178321,51.702374
Tuinbouwweg,14,,,5254VJ,Haarsteeg,Heusden,Noord-Brabant,VBO,5.170911,51.701037
Tuinbouwweg,15,,,5254VJ,Haarsteeg,Heusden,Noord-Brabant,VBO,5.179285,51.702494
Tuinbouwweg,17,,,5254VJ,Haarsteeg,Heusden,Noord-Brabant,VBO,5.180539,51.702649
Tuinbouwweg,18,,,5254VJ,Haarsteeg,Heusden,Noord-Brabant,VBO,5.171603,51.701144
Tuinbouwweg,19,,,5254VJ,Haarsteeg,Heusden,Noord-Brabant,VBO,5.181871,51.702870
Tuinbouwweg,21,,,5254VJ,Haarsteeg,Heusden,Noord-Brabant,VBO,5.182645,51.702908
Tuinbouwweg,22,,,5254VJ,Haarsteeg,Heusden,Noord-Brabant,VBO,5.172075,51.701198
Tuinbouwweg,23,A,,5254VJ,Haarsteeg,Heusden,Noord-Brabant,VBO,5.183935,51.703307
Tuinbouwweg,23,,,5254VJ,Haarsteeg,Heusden,Noord-Brabant,VBO,5.183511,51.703030
Tuinbouwweg,24,,,5254VJ,Haarsteeg,Heusden,Noord-Brabant,VBO,5.172905,51.701237
Tuinbouwweg,25,,,5254VJ,Haarsteeg,Heusden,Noord-Brabant,VBO,5.184622,51.703171
Tuinbouwweg,26,,,5254VJ,Haarsteeg,Heusden,Noord-Brabant,VBO,5.175370,51.701618
Tuinbouwweg,27,,,5254VJ,Haarsteeg,Heusden,Noord-Brabant,VBO,5.185601,51.703295
Tuinbouwweg,29,,,5254VJ,Haarsteeg,Heusden,Noord-Brabant,VBO,5.187600,51.703483
Tuinbouwweg,30,,,5254VJ,Haarsteeg,Heusden,Noord-Brabant,VBO,5.176006,51.701710
Tuinbouwweg,31,A,,5254VJ,Haarsteeg,Heusden,Noord-Brabant,VBO,5.190381,51.703863
Tuinbouwweg,31,B,,5254VJ,Haarsteeg,Heusden,Noord-Brabant,VBO,5.189273,51.703819
Tuinbouwweg,31,C,,5254VJ,Haarsteeg,Heusden,Noord-Brabant,VBO,5.193140,51.704234
Tuinbouwweg,31,D,,5254VJ,Haarsteeg,Heusden,Noord-Brabant,VBO,5.193514,51.704399
Tuinbouwweg,31,E,,5254VJ,Haarsteeg,Heusden,Noord-Brabant,VBO,5.204928,51.706455
Tuinbouwweg,31,F,,5254VJ,Haarsteeg,Heusden,Noord-Brabant,VBO,5.205247,51.706620
Tuinbouwweg,31,,,5254VJ,Haarsteeg,Heusden,Noord-Brabant,VBO,5.189715,51.703798
Tuinbouwweg,32,,,5254VJ,Haarsteeg,Heusden,Noord-Brabant,VBO,5.176710,51.701823
Tuinbouwweg,33,A,,5254VJ,Haarsteeg,Heusden,Noord-Brabant,VBO,5.206311,51.706874
Tuinbouwweg,33,,,5254VJ,Haarsteeg,Heusden,Noord-Brabant,VBO,5.206520,51.706940
Tuinbouwweg,38,,,5254VJ,Haarsteeg,Heusden,Noord-Brabant,VBO,5.178744,51.702055
Tuinbouwweg,39,,,5254VJ,Haarsteeg,Heusden,Noord-Brabant,VBO,5.210516,51.708357
Tuinbouwweg,40,,,5254VJ,Haarsteeg,Heusden,Noord-Brabant,VBO,5.178656,51.701849
Tuinbouwweg,41,A,,5254VJ,Haarsteeg,Heusden,Noord-Brabant,VBO,5.210164,51.708766
Tuinbouwweg,41,B,,5254VJ,Haarsteeg,Heusden,Noord-Brabant,VBO,5.210092,51.708840
Tuinbouwweg,41,C,,5254VJ,Haarsteeg,Heusden,Noord-Brabant,VBO,5.209975,51.708965
Tuinbouwweg,41,D,,5254VJ,Haarsteeg,Heusden,Noord-Brabant,VBO,5.209871,51.709086
Tuinbouwweg,41,E,,5254VJ,Haarsteeg,Heusden,Noord-Brabant,VBO,5.210664,51.708900
Tuinbouwweg,41,F,,5254VJ,Haarsteeg,Heusden,Noord-Brabant,VBO,5.210564,51.708999
Tuinbouwweg,41,G,,5254VJ,Haarsteeg,Heusden,Noord-Brabant,VBO,5.210443,51.709134
Tuinbouwweg,41,H,,5254VJ,Haarsteeg,Heusden,Noord-Brabant,VBO,5.210322,51.709275
Tuinbouwweg,41,I,,5254VJ,Haarsteeg,Heusden,Noord-Brabant,VBO,5.210965,51.708964
Tuinbouwweg,41,J,,5254VJ,Haarsteeg,Heusden,Noord-Brabant,VBO,5.210598,51.709379
Tuinbouwweg,41,K,,5254VJ,Haarsteeg,Heusden,Noord-Brabant,VBO,5.210477,51.709328
Tuinbouwweg,41,L,,5254VJ,Haarsteeg,Heusden,Noord-Brabant,VBO,5.210709,51.709414
Tuinbouwweg,42,,,5254VJ,Haarsteeg,Heusden,Noord-Brabant,VBO,5.183208,51.702608
Tuinbouwweg,43,,,5254VJ,Haarsteeg,Heusden,Noord-Brabant,VBO,5.211987,51.708692
Tuinbouwweg,45,,,5254VJ,Haarsteeg,Heusden,Noord-Brabant,VBO,5.212983,51.709019
Tuinbouwweg,47,,,5254VJ,Haarsteeg,Heusden,Noord-Brabant,VBO,5.213389,51.708995
Tuinbouwweg,49,A,,5254VJ,Haarsteeg,Heusden,Noord-Brabant,VBO,5.214813,51.709383
Tuinbouwweg,49,,,5254VJ,Haarsteeg,Heusden,Noord-Brabant,VBO,5.214166,51.709404
Tuinbouwweg,57,,,5254VJ,Haarsteeg,Heusden,Noord-Brabant,VBO,5.217113,51.710113
Tuinbouwweg,58,,,5254VJ,Haarsteeg,Heusden,Noord-Brabant,VBO,5.203251,51.705146
Tuinbouwweg,60,,,5254VJ,Haarsteeg,Heusden,Noord-Brabant,VBO,5.203539,51.705546
Tuinbouwweg,61,,,5254VJ,Haarsteeg,Heusden,Noord-Brabant,VBO,5.219327,51.710900
Tuinbouwweg,66,,,5254VJ,Haarsteeg,Heusden,Noord-Brabant,VBO,5.205669,51.706249
Tuinbouwweg,68,A,,5254VJ,Haarsteeg,Heusden,Noord-Brabant,VBO,5.206893,51.706570
Tuinbouwweg,68,,,5254VJ,Haarsteeg,Heusden,Noord-Brabant,VBO,5.206959,51.706673
Tuinbouwweg,76,,,5254VJ,Haarsteeg,Heusden,Noord-Brabant,VBO,5.209458,51.707501
Tuinbouwweg,78,,,5254VJ,Haarsteeg,Heusden,Noord-Brabant,VBO,5.210933,51.707393
Tuinbouwweg,80,A,,5254VJ,Haarsteeg,Heusden,Noord-Brabant,VBO,5.211613,51.707866
Tuinbouwweg,80,,,5254VJ,Haarsteeg,Heusden,Noord-Brabant,VBO,5.211298,51.708047
Tuinbouwweg,86,,,5254VJ,Haarsteeg,Heusden,Noord-Brabant,VBO,5.215310,51.709090
Tuinbouwweg,94,A,,5254VJ,Haarsteeg,Heusden,Noord-Brabant,VBO,5.216352,51.709343
Tuinbouwweg,94,,,5254VJ,Haarsteeg,Heusden,Noord-Brabant,VBO,5.215824,51.709260
Mommersteeg,5,,,5254VK,Haarsteeg,Heusden,Noord-Brabant,VBO,5.209854,51.703998
Mommersteeg,7,,,5254VK,Haarsteeg,Heusden,Noord-Brabant,VBO,5.208301,51.704883
Mommersteeg,9,A,,5254VK,Haarsteeg,Heusden,Noord-Brabant,VBO,5.206915,51.705786
Mommersteeg,9,,,5254VK,Haarsteeg,Heusden,Noord-Brabant,VBO,5.207194,51.705709
Mommersteeg,11,A,,5254VK,Haarsteeg,Heusden,Noord-Brabant,VBO,5.205349,51.706888
Mommersteeg,11,,,5254VK,Haarsteeg,Heusden,Noord-Brabant,VBO,5.205513,51.706758
Mommersteeg,13,,,5254VK,Haarsteeg,Heusden,Noord-Brabant,VBO,5.204883,51.707232
Mommersteeg,15,A,,5254VK,Haarsteeg,Heusden,Noord-Brabant,VBO,5.204350,51.707595
Mommersteeg,15,,,5254VK,Haarsteeg,Heusden,Noord-Brabant,VBO,5.204524,51.707473
Mommersteeg,17,,,5254VK,Haarsteeg,Heusden,Noord-Brabant,VBO,5.204218,51.707655
Mommersteeg,19,A,,5254VK,Haarsteeg,Heusden,Noord-Brabant,VBO,5.203593,51.707723
Mommersteeg,19,,,5254VK,Haarsteeg,Heusden,Noord-Brabant,VBO,5.204161,51.707750
Mommersteeg,23,A,,5254VK,Haarsteeg,Heusden,Noord-Brabant,VBO,5.203561,51.708117
Mommersteeg,23,,,5254VK,Haarsteeg,Heusden,Noord-Brabant,VBO,5.203687,51.707993
Mommersteeg,25,,,5254VL,Haarsteeg,Heusden,Noord-Brabant,VBO,5.203449,51.708219
Mommersteeg,27,,,5254VL,Haarsteeg,Heusden,Noord-Brabant,VBO,5.203393,51.708260
Mommersteeg,29,A,,5254VL,Haarsteeg,Heusden,Noord-Brabant,VBO,5.202874,51.708493
Mommersteeg,29,,,5254VL,Haarsteeg,Heusden,Noord-Brabant,VBO,5.203156,51.708315
Mommersteeg,31,,,5254VL,Haarsteeg,Heusden,Noord-Brabant,VBO,5.202719,51.708604
Mommersteeg,33,,,5254VL,Haarsteeg,Heusden,Noord-Brabant,VBO,5.202656,51.708652
Mommersteeg,35,,,5254VL,Haarsteeg,Heusden,Noord-Brabant,VBO,5.202560,51.708776
Mommersteeg,37,,,5254VL,Haarsteeg,Heusden,Noord-Brabant,VBO,5.202378,51.708931
Mommersteeg,39,,,5254VL,Haarsteeg,Heusden,Noord-Brabant,VBO,5.202212,51.709058
Mommersteeg,41,,,5254VL,Haarsteeg,Heusden,Noord-Brabant,VBO,5.202066,51.709162
Mommersteeg,43,,,5254VL,Haarsteeg,Heusden,Noord-Brabant,VBO,5.201944,51.709280
Mommersteeg,45,,,5254VL,Haarsteeg,Heusden,Noord-Brabant,VBO,5.201848,51.709373
Mommersteeg,47,,,5254VL,Haarsteeg,Heusden,Noord-Brabant,VBO,5.201726,51.709493
Mommersteeg,49,,,5254VL,Haarsteeg,Heusden,Noord-Brabant,VBO,5.201626,51.709626
Mommersteeg,51,B,,5254VL,Haarsteeg,Heusden,Noord-Brabant,VBO,5.200872,51.709583
Mommersteeg,51,,,5254VL,Haarsteeg,Heusden,Noord-Brabant,VBO,5.201478,51.709772
Mommersteeg,53,,,5254VL,Haarsteeg,Heusden,Noord-Brabant,VBO,5.201427,51.709874
Mommersteeg,55,,,5254VL,Haarsteeg,Heusden,Noord-Brabant,VBO,5.201380,51.709917
Mommersteeg,57,,,5254VL,Haarsteeg,Heusden,Noord-Brabant,VBO,5.201314,51.709976
Mommersteeg,59,,,5254VL,Haarsteeg,Heusden,Noord-Brabant,VBO,5.201271,51.710016
Mommersteeg,44,,,5254VM,Haarsteeg,Heusden,Noord-Brabant,VBO,5.209908,51.704327
Mommersteeg,46,A,,5254VM,Haarsteeg,Heusden,Noord-Brabant,VBO,5.209067,51.704845
Mommersteeg,46,,,5254VM,Haarsteeg,Heusden,Noord-Brabant,VBO,5.209267,51.704939
Mommersteeg,48,A,,5254VM,Haarsteeg,Heusden,Noord-Brabant,VBO,5.207806,51.705756
Mommersteeg,48,B,,5254VM,Haarsteeg,Heusden,Noord-Brabant,VBO,5.207870,51.706001
Mommersteeg,48,,,5254VM,Haarsteeg,Heusden,Noord-Brabant,VBO,5.208295,51.705567
Mommersteeg,50,A,,5254VM,Haarsteeg,Heusden,Noord-Brabant,VBO,5.207053,51.706159
Mommersteeg,50,B,,5254VM,Haarsteeg,Heusden,Noord-Brabant,VBO,5.207301,51.706053
Mommersteeg,50,,,5254VM,Haarsteeg,Heusden,Noord-Brabant,VBO,5.207538,51.705940
Mommersteeg,52,A,,5254VM,Haarsteeg,Heusden,Noord-Brabant,VBO,5.206586,51.706445
Mommersteeg,52,,,5254VM,Haarsteeg,Heusden,Noord-Brabant,VBO,5.206724,51.706290
Mommersteeg,54,,,5254VM,Haarsteeg,Heusden,Noord-Brabant,VBO,5.206484,51.706544
Mommersteeg,56,,,5254VM,Haarsteeg,Heusden,Noord-Brabant,VBO,5.205856,51.706896
Mommersteeg,58,,,5254VM,Haarsteeg,Heusden,Noord-Brabant,VBO,5.205712,51.706994
Mommersteeg,60,,,5254VM,Haarsteeg,Heusden,Noord-Brabant,VBO,5.205435,51.707180
Mommersteeg,62,,,5254VM,Haarsteeg,Heusden,Noord-Brabant,VBO,5.205250,51.707351
Mommersteeg,64,,,5254VM,Haarsteeg,Heusden,Noord-Brabant,VBO,5.205151,51.707489
Mommersteeg,66,,,5254VM,Haarsteeg,Heusden,Noord-Brabant,VBO,5.204872,51.707568
Mommersteeg,68,,,5254VM,Haarsteeg,Heusden,Noord-Brabant,VBO,5.204716,51.707657
Mommersteeg,70,,,5254VM,Haarsteeg,Heusden,Noord-Brabant,VBO,5.204617,51.707766
Mommersteeg,72,A,,5254VM,Haarsteeg,Heusden,Noord-Brabant,VBO,5.204885,51.708136
Mommersteeg,72,B,,5254VM,Haarsteeg,Heusden,Noord-Brabant,VBO,5.204557,51.708014
Mommersteeg,72,,,5254VM,Haarsteeg,Heusden,Noord-Brabant,VBO,5.204423,51.707956
Mommersteeg,74,,,5254VN,Haarsteeg,Heusden,Noord-Brabant,VBO,5.204155,51.708121
Mommersteeg,76,,,5254VN,Haarsteeg,Heusden,Noord-Brabant,VBO,5.203918,51.708260
Mommersteeg,78,,,5254VN,Haarsteeg,Heusden,Noord-Brabant,VBO,5.204679,51.708726
Mommersteeg,80,A,,5254VN,Haarsteeg,Heusden,Noord-Brabant,VBO,5.203377,51.708709
Mommersteeg,80,B,,5254VN,Haarsteeg,Heusden,Noord-Brabant,VBO,5.203565,51.708520
Mommersteeg,80,,,5254VN,Haarsteeg,Heusden,Noord-Brabant,VBO,5.203660,51.708396
Mommersteeg,82,,,5254VN,Haarsteeg,Heusden,Noord-Brabant,VBO,5.203069,51.708885
Mommersteeg,84,,,5254VN,Haarsteeg,Heusden,Noord-Brabant,VBO,5.202846,51.708993
Mommersteeg,86,,,5254VN,Haarsteeg,Heusden,Noord-Brabant,VBO,5.202761,51.709067
Mommersteeg,88,A,,5254VN,Haarsteeg,Heusden,Noord-Brabant,VBO,5.202534,51.709368
Mommersteeg,88,,,5254VN,Haarsteeg,Heusden,Noord-Brabant,VBO,5.202609,51.709205
Mommersteeg,90,,,5254VN,Haarsteeg,Heusden,Noord-Brabant,VBO,5.202244,51.709510
Mommersteeg,92,A,,5254VN,Haarsteeg,Heusden,Noord-Brabant,VBO,5.203490,51.709952
Mommersteeg,92,B,,5254VN,Haarsteeg,Heusden,Noord-Brabant,VBO,5.202868,51.709841
Mommersteeg,92,,,5254VN,Haarsteeg,Heusden,Noord-Brabant,VBO,5.202152,51.709603
Mommersteeg,96,,,5254VN,Haarsteeg,Heusden,Noord-Brabant,VBO,5.201777,51.709976
Mommersteeg,98,,,5254VN,Haarsteeg,Heusden,Noord-Brabant,VBO,5.201535,51.710172
Mommersteeg,100,A,,5254VN,Haarsteeg,Heusden,Noord-Brabant,VBO,5.201405,51.710362
Mommersteeg,100,B,,5254VN,Haarsteeg,Heusden,Noord-Brabant,VBO,5.201500,51.710305
Mommersteeg,100,,,5254VN,Haarsteeg,Heusden,Noord-Brabant,VBO,5.201330,51.710335
Mommersteeg,102,,,5254VN,Haarsteeg,Heusden,Noord-Brabant,VBO,5.202236,51.710666
Het Zand,1,,,5254VT,Haarsteeg,Heusden,Noord-Brabant,VBO,5.180190,51.713152
Het Zand,2,A,,5254VT,Haarsteeg,Heusden,Noord-Brabant,VBO,5.180052,51.713441
Het Zand,2,,,5254VT,Haarsteeg,Heusden,Noord-Brabant,VBO,5.180112,51.713365
Het Zand,3,,,5254VT,Haarsteeg,Heusden,Noord-Brabant,VBO,5.179293,51.713387
Het Zand,4,,,5254VT,Haarsteeg,Heusden,Noord-Brabant,VBO,5.179744,51.713190
Het Zand,5,,,5254VT,Haarsteeg,Heusden,Noord-Brabant,VBO,5.178939,51.713579
Het Zand,8,,,5254VT,Haarsteeg,Heusden,Noord-Brabant,VBO,5.179903,51.712120
Heusdenseweg,1,,,5254VV,Haarsteeg,Heusden,Noord-Brabant,VBO,5.183816,51.708455
Heusdenseweg,2,A,,5254VV,Haarsteeg,Heusden,Noord-Brabant,VBO,5.184148,51.709593
Heusdenseweg,2,,,5254VV,Haarsteeg,Heusden,Noord-Brabant,VBO,5.184009,51.709539
Heusdenseweg,3,,,5254VV,Haarsteeg,Heusden,Noord-Brabant,VBO,5.183231,51.708486
Heusdenseweg,5,,,5254VV,Haarsteeg,Heusden,Noord-Brabant,VBO,5.183764,51.708658
Heusdenseweg,7,,,5254VV,Haarsteeg,Heusden,Noord-Brabant,VBO,5.183725,51.708880
Heusdenseweg,9,,,5254VV,Haarsteeg,Heusden,Noord-Brabant,VBO,5.183630,51.709069
Heusdenseweg,11,,,5254VV,Haarsteeg,Heusden,Noord-Brabant,VBO,5.183465,51.709333
Heusdenseweg,13,,,5254VV,Haarsteeg,Heusden,Noord-Brabant,VBO,5.183585,51.709334
Heusdenseweg,15,,,5254VV,Haarsteeg,Heusden,Noord-Brabant,VBO,5.183512,51.709527
Heusdenseweg,17,,,5254VV,Haarsteeg,Heusden,Noord-Brabant,VBO,5.183422,51.709681
Heusdenseweg,19,,,5254VV,Haarsteeg,Heusden,Noord-Brabant,VBO,5.183408,51.709736
Heusdenseweg,23,,,5254VV,Haarsteeg,Heusden,Noord-Brabant,VBO,5.183217,51.710119
Heusdenseweg,25,,,5254VV,Haarsteeg,Heusden,Noord-Brabant,VBO,5.183073,51.710105
Heusdenseweg,29,,,5254VV,Haarsteeg,Heusden,Noord-Brabant,VBO,5.183004,51.710561
Veldweg,5,A,,5254VW,Haarsteeg,Heusden,Noord-Brabant,VBO,5.177615,51.717257
Veldweg,5,,,5254VW,Haarsteeg,Heusden,Noord-Brabant,VBO,5.177385,51.717135
Veldweg,7,,,5254VW,Haarsteeg,Heusden,Noord-Brabant,VBO,5.177902,51.717329
