openbareruimtenaam,huisnummer,huisletter,huisnummertoevoeging,postcode,woonplaatsnaam,gemeentenaam,provincienaam,typeadresseerbaarobject,longitude,latitude
Waaldijk,51,,,5306AA,Brakel,Zaltbommel,Gelderland,VBO,5.099759,51.818780
Waaldijk,61,,,5306AA,Brakel,Zaltbommel,Gelderland,VBO,5.099175,51.819489
Waaldijk,63,,,5306AA,Brakel,Zaltbommel,Gelderland,VBO,5.099131,51.819552
Waaldijk,65,,,5306AA,Brakel,Zaltbommel,Gelderland,VBO,5.098212,51.820323
Waaldijk,67,,,5306AA,Brakel,Zaltbommel,Gelderland,VBO,5.098110,51.820421
Waaldijk,69,,,5306AA,Brakel,Zaltbommel,Gelderland,VBO,5.097993,51.820493
Waaldijk,71,,,5306AA,Brakel,Zaltbommel,Gelderland,VBO,5.097877,51.820546
Waaldijk,73,,,5306AA,Brakel,Zaltbommel,Gelderland,VBO,5.097877,51.820591
Waaldijk,75,,,5306AA,Brakel,Zaltbommel,Gelderland,VBO,5.097876,51.820645
Waaldijk,85,,,5306AA,Brakel,Zaltbommel,Gelderland,VBO,5.097382,51.820860
Waaldijk,87,,,5306AA,Brakel,Zaltbommel,Gelderland,VBO,5.096990,51.820841
Waaldijk,89,a,,5306AA,Brakel,Zaltbommel,Gelderland,VBO,5.096613,51.820831
Waaldijk,89,,,5306AA,Brakel,Zaltbommel,Gelderland,VBO,5.096845,51.820858
Waaldijk,91,,,5306AA,Brakel,Zaltbommel,Gelderland,VBO,5.096294,51.820911
Waaldijk,93,,,5306AA,Brakel,Zaltbommel,Gelderland,VBO,5.096061,51.820928
Waaldijk,95,,,5306AA,Brakel,Zaltbommel,Gelderland,VBO,5.095728,51.820955
Waaldijk,97,,,5306AA,Brakel,Zaltbommel,Gelderland,VBO,5.095409,51.820963
Waaldijk,99,c,,5306AA,Brakel,Zaltbommel,Gelderland,VBO,5.093434,51.821232
Waaldijk,99,,,5306AA,Brakel,Zaltbommel,Gelderland,VBO,5.094988,51.820998
Waaldijk,101,,,5306AA,Brakel,Zaltbommel,Gelderland,VBO,5.092797,51.821154
Waaldijk,103,,,5306AA,Brakel,Zaltbommel,Gelderland,VBO,5.092492,51.821135
Waaldijk,105,,,5306AA,Brakel,Zaltbommel,Gelderland,VBO,5.092152,51.821138
Waaldijk,107,,,5306AA,Brakel,Zaltbommel,Gelderland,VBO,5.091955,51.821251
Waaldijk,109,,,5306AA,Brakel,Zaltbommel,Gelderland,VBO,5.091563,51.821277
Waaldijk,111,,,5306AB,Brakel,Zaltbommel,Gelderland,VBO,5.090940,51.821149
Waaldijk,113,,,5306AB,Brakel,Zaltbommel,Gelderland,VBO,5.090460,51.821310
Waaldijk,119,,,5306AB,Brakel,Zaltbommel,Gelderland,VBO,5.090112,51.821363
Waaldijk,121,,,5306AB,Brakel,Zaltbommel,Gelderland,VBO,5.090025,51.821363
Waaldijk,125,,,5306AB,Brakel,Zaltbommel,Gelderland,VBO,5.089793,51.821362
Waaldijk,129,,,5306AB,Brakel,Zaltbommel,Gelderland,VBO,5.089608,51.821397
Waaldijk,133,,,5306AB,Brakel,Zaltbommel,Gelderland,VBO,5.089649,51.821155
Waaldijk,137,,,5306AB,Brakel,Zaltbommel,Gelderland,VBO,5.088578,51.820865
Waaldijk,143,,,5306AB,Brakel,Zaltbommel,Gelderland,VBO,5.089183,51.821513
Waaldijk,145,a,,5306AB,Brakel,Zaltbommel,Gelderland,VBO,5.088661,51.821672
Waaldijk,145,,,5306AB,Brakel,Zaltbommel,Gelderland,VBO,5.089023,51.821540
Waaldijk,147,,,5306AB,Brakel,Zaltbommel,Gelderland,VBO,5.088354,51.821808
Waaldijk,149,a,,5306AB,Brakel,Zaltbommel,Gelderland,VBO,5.087497,51.822048
Waaldijk,149,,,5306AB,Brakel,Zaltbommel,Gelderland,VBO,5.087641,51.822103
Waaldijk,153,,,5306AB,Brakel,Zaltbommel,Gelderland,VBO,5.087089,51.822263
Waaldijk,155,,,5306AB,Brakel,Zaltbommel,Gelderland,VBO,5.086840,51.822631
Waaldijk,157,,,5306AB,Brakel,Zaltbommel,Gelderland,VBO,5.086854,51.822766
Waaldijk,159,,,5306AB,Brakel,Zaltbommel,Gelderland,VBO,5.086678,51.822990
Waaldijk,161,,,5306AB,Brakel,Zaltbommel,Gelderland,VBO,5.086634,51.823125
Waaldijk,163,,,5306AB,Brakel,Zaltbommel,Gelderland,VBO,5.086473,51.823322
Waaldijk,165,,,5306AB,Brakel,Zaltbommel,Gelderland,VBO,5.086356,51.823376
Molensteeg,1,,,5306AD,Brakel,Zaltbommel,Gelderland,VBO,5.085398,51.823571
Molensteeg,2,,,5306AD,Brakel,Zaltbommel,Gelderland,VBO,5.085316,51.822735
Molensteeg,3,,,5306AD,Brakel,Zaltbommel,Gelderland,VBO,5.085487,51.823167
Molensteeg,5,a,,5306AD,Brakel,Zaltbommel,Gelderland,VBO,5.086353,51.821767
Molensteeg,5,b,,5306AD,Brakel,Zaltbommel,Gelderland,VBO,5.086530,51.821282
Molensteeg,5,,,5306AD,Brakel,Zaltbommel,Gelderland,VBO,5.085678,51.822799
Molensteeg,6,,,5306AD,Brakel,Zaltbommel,Gelderland,VBO,5.085610,51.822142
Molensteeg,7,,,5306AD,Brakel,Zaltbommel,Gelderland,VBO,5.086869,51.820420
Molensteeg,8,,,5306AD,Brakel,Zaltbommel,Gelderland,VBO,5.085699,51.821954
Molensteeg,9,,,5306AD,Brakel,Zaltbommel,Gelderland,VBO,5.086958,51.820222
Molensteeg,10,,,5306AD,Brakel,Zaltbommel,Gelderland,VBO,5.085801,51.821756
Molensteeg,11,,,5306AD,Brakel,Zaltbommel,Gelderland,VBO,5.087312,51.819315
Molensteeg,12,,,5306AD,Brakel,Zaltbommel,Gelderland,VBO,5.085862,51.821388
Molensteeg,14,,,5306AD,Brakel,Zaltbommel,Gelderland,VBO,5.085936,51.821200
Molensteeg,16,,,5306AD,Brakel,Zaltbommel,Gelderland,VBO,5.086024,51.821002
Molensteeg,18,,,5306AD,Brakel,Zaltbommel,Gelderland,VBO,5.086069,51.820723
Molensteeg,20,,,5306AD,Brakel,Zaltbommel,Gelderland,VBO,5.086406,51.820284
Molensteeg,22,,,5306AD,Brakel,Zaltbommel,Gelderland,VBO,5.086465,51.820068
Molensteeg,24,,,5306AD,Brakel,Zaltbommel,Gelderland,VBO,5.086525,51.819871
Molensteeg,26,,,5306AD,Brakel,Zaltbommel,Gelderland,VBO,5.086627,51.819691
Molensteeg,28,,,5306AD,Brakel,Zaltbommel,Gelderland,VBO,5.086687,51.819494
Molensteeg,30,,,5306AD,Brakel,Zaltbommel,Gelderland,VBO,5.086761,51.819233
Appelweg,1,,,5306AE,Brakel,Zaltbommel,Gelderland,VBO,5.085198,51.821229
Appelweg,2,,,5306AE,Brakel,Zaltbommel,Gelderland,VBO,5.084020,51.821356
Appelweg,3,,,5306AE,Brakel,Zaltbommel,Gelderland,VBO,5.084767,51.821074
Appelweg,4,,,5306AE,Brakel,Zaltbommel,Gelderland,VBO,5.083412,51.821193
Appelweg,5,,,5306AE,Brakel,Zaltbommel,Gelderland,VBO,5.084510,51.820981
Appelweg,6,,,5306AE,Brakel,Zaltbommel,Gelderland,VBO,5.082123,51.820902
Appelweg,7,,,5306AE,Brakel,Zaltbommel,Gelderland,VBO,5.081578,51.820302
Appelweg,8,,,5306AE,Brakel,Zaltbommel,Gelderland,VBO,5.080646,51.820629
Groenesteeg,2,a,,5306AG,Brakel,Zaltbommel,Gelderland,VBO,5.086111,51.819103
Groenesteeg,2,,,5306AG,Brakel,Zaltbommel,Gelderland,VBO,5.085689,51.819024
Groenesteeg,3,,,5306AG,Brakel,Zaltbommel,Gelderland,VBO,5.085851,51.818665
Groenesteeg,4,,,5306AG,Brakel,Zaltbommel,Gelderland,VBO,5.085402,51.818953
Groenesteeg,5,,,5306AG,Brakel,Zaltbommel,Gelderland,VBO,5.085561,51.818637
Groenesteeg,6,,,5306AG,Brakel,Zaltbommel,Gelderland,VBO,5.084994,51.818914
Groenesteeg,7,,,5306AG,Brakel,Zaltbommel,Gelderland,VBO,5.085315,51.818573
Groenesteeg,8,,,5306AG,Brakel,Zaltbommel,Gelderland,VBO,5.083299,51.818658
Groenesteeg,9,,,5306AG,Brakel,Zaltbommel,Gelderland,VBO,5.085011,51.818528
Groenesteeg,11,,,5306AG,Brakel,Zaltbommel,Gelderland,VBO,5.084750,51.818491
Groenesteeg,13,,,5306AG,Brakel,Zaltbommel,Gelderland,VBO,5.084214,51.818391
Groenesteeg,15,,,5306AG,Brakel,Zaltbommel,Gelderland,VBO,5.083186,51.818172
Hovendsedijk,1,,,5306AH,Brakel,Zaltbommel,Gelderland,VBO,5.091184,51.817078
Hovendsedijk,3,,,5306AH,Brakel,Zaltbommel,Gelderland,VBO,5.090908,51.817257
Hovendsedijk,5,,,5306AH,Brakel,Zaltbommel,Gelderland,VBO,5.090675,51.817400
Hovendsedijk,7,,,5306AH,Brakel,Zaltbommel,Gelderland,VBO,5.090456,51.817490
Hovendsedijk,9,,,5306AH,Brakel,Zaltbommel,Gelderland,VBO,5.090239,51.817543
Hovendsedijk,11,,,5306AH,Brakel,Zaltbommel,Gelderland,VBO,5.090151,51.817570
Hovendsedijk,13,,,5306AH,Brakel,Zaltbommel,Gelderland,VBO,5.089963,51.817605
Hovendsedijk,15,,,5306AH,Brakel,Zaltbommel,Gelderland,VBO,5.089861,51.817614
Hovendsedijk,17,,,5306AH,Brakel,Zaltbommel,Gelderland,VBO,5.089716,51.817641
Hovendsedijk,19,,,5306AH,Brakel,Zaltbommel,Gelderland,VBO,5.089629,51.817659
Hovendsedijk,21,,,5306AH,Brakel,Zaltbommel,Gelderland,VBO,5.089469,51.817721
Hovendsedijk,23,,,5306AH,Brakel,Zaltbommel,Gelderland,VBO,5.089338,51.817739
Hovendsedijk,25,,,5306AH,Brakel,Zaltbommel,Gelderland,VBO,5.089135,51.817765
Hovendsedijk,27,,,5306AH,Brakel,Zaltbommel,Gelderland,VBO,5.089019,51.817783
Hovendsedijk,29,,,5306AH,Brakel,Zaltbommel,Gelderland,VBO,5.088844,51.817809
Hovendsedijk,31,,,5306AH,Brakel,Zaltbommel,Gelderland,VBO,5.088743,51.817827
Hovendsedijk,33,,,5306AH,Brakel,Zaltbommel,Gelderland,VBO,5.088598,51.817836
Hovendsedijk,35,,,5306AH,Brakel,Zaltbommel,Gelderland,VBO,5.088496,51.817862
Hovendsedijk,37,,,5306AH,Brakel,Zaltbommel,Gelderland,VBO,5.088293,51.817916
Hovendsedijk,39,,,5306AH,Brakel,Zaltbommel,Gelderland,VBO,5.088220,51.817943
Hovendsedijk,41,,,5306AH,Brakel,Zaltbommel,Gelderland,VBO,5.088002,51.818077
Hovendsedijk,43,,,5306AH,Brakel,Zaltbommel,Gelderland,VBO,5.087870,51.818175
Hovendsedijk,45,,,5306AH,Brakel,Zaltbommel,Gelderland,VBO,5.087739,51.818274
Hovendsedijk,47,,,5306AH,Brakel,Zaltbommel,Gelderland,VBO,5.087345,51.818605
Hovendsedijk,49,,,5306AH,Brakel,Zaltbommel,Gelderland,VBO,5.087229,51.818722
Hovendsedijk,51,,,5306AH,Brakel,Zaltbommel,Gelderland,VBO,5.087112,51.818839
Hovendsedijk,2,a,,5306AJ,Brakel,Zaltbommel,Gelderland,VBO,5.090920,51.817590
Hovendsedijk,2,b,,5306AJ,Brakel,Zaltbommel,Gelderland,VBO,5.090411,51.817759
Hovendsedijk,2,,,5306AJ,Brakel,Zaltbommel,Gelderland,VBO,5.091138,51.817456
Hovendsedijk,4,,,5306AJ,Brakel,Zaltbommel,Gelderland,VBO,5.090299,51.817782
Hovendsedijk,6,,,5306AJ,Brakel,Zaltbommel,Gelderland,VBO,5.090164,51.817813
Hovendsedijk,8,,,5306AJ,Brakel,Zaltbommel,Gelderland,VBO,5.090092,51.817830
Hovendsedijk,10,,,5306AJ,Brakel,Zaltbommel,Gelderland,VBO,5.089975,51.817857
Hovendsedijk,12,,,5306AJ,Brakel,Zaltbommel,Gelderland,VBO,5.089830,51.817875
Hovendsedijk,14,,,5306AJ,Brakel,Zaltbommel,Gelderland,VBO,5.089700,51.817901
Hovendsedijk,16,,,5306AJ,Brakel,Zaltbommel,Gelderland,VBO,5.089467,51.817937
Hovendsedijk,18,,,5306AJ,Brakel,Zaltbommel,Gelderland,VBO,5.089206,51.817936
Hovendsedijk,20,,,5306AJ,Brakel,Zaltbommel,Gelderland,VBO,5.088945,51.817980
Hovendsedijk,22,a,,5306AJ,Brakel,Zaltbommel,Gelderland,VBO,5.088698,51.818052
Hovendsedijk,22,,,5306AJ,Brakel,Zaltbommel,Gelderland,VBO,5.088800,51.818034
Hovendsedijk,24,,,5306AJ,Brakel,Zaltbommel,Gelderland,VBO,5.088538,51.818060
Hovendsedijk,26,,,5306AJ,Brakel,Zaltbommel,Gelderland,VBO,5.088203,51.818365
Hovendsedijk,28,,,5306AJ,Brakel,Zaltbommel,Gelderland,VBO,5.088130,51.818410
Hovendsestraat,1,,,5306AK,Brakel,Zaltbommel,Gelderland,VBO,5.090637,51.818668
Hovendsestraat,2,,,5306AK,Brakel,Zaltbommel,Gelderland,VBO,5.090362,51.818640
Hovendsestraat,3,,,5306AK,Brakel,Zaltbommel,Gelderland,VBO,5.090652,51.818605
Hovendsestraat,4,,,5306AK,Brakel,Zaltbommel,Gelderland,VBO,5.090391,51.818586
Hovendsestraat,5,,,5306AK,Brakel,Zaltbommel,Gelderland,VBO,5.090638,51.818506
Hovendsestraat,6,,,5306AK,Brakel,Zaltbommel,Gelderland,VBO,5.090247,51.818424
Hovendsestraat,7,,,5306AK,Brakel,Zaltbommel,Gelderland,VBO,5.090653,51.818425
Hovendsestraat,8,,,5306AK,Brakel,Zaltbommel,Gelderland,VBO,5.090451,51.818335
Hovendsestraat,9,,,5306AK,Brakel,Zaltbommel,Gelderland,VBO,5.090697,51.818353
Hovendsestraat,10,,,5306AK,Brakel,Zaltbommel,Gelderland,VBO,5.090466,51.818209
Hovendsestraat,11,,,5306AK,Brakel,Zaltbommel,Gelderland,VBO,5.090713,51.818237
Hovendsestraat,12,,,5306AK,Brakel,Zaltbommel,Gelderland,VBO,5.090525,51.818056
Hovendsestraat,13,,,5306AK,Brakel,Zaltbommel,Gelderland,VBO,5.090728,51.818102
Hovendsestraat,14,,,5306AK,Brakel,Zaltbommel,Gelderland,VBO,5.090555,51.817939
Hovendsestraat,15,,,5306AK,Brakel,Zaltbommel,Gelderland,VBO,5.090758,51.817994
Hovendsestraat,16,,,5306AK,Brakel,Zaltbommel,Gelderland,VBO,5.090570,51.817832
Hovendsestraat,17,,,5306AK,Brakel,Zaltbommel,Gelderland,VBO,5.090788,51.817868
Hovendsestraat,18,,,5306AK,Brakel,Zaltbommel,Gelderland,VBO,5.090585,51.817715
Hovendsestraat,19,,,5306AK,Brakel,Zaltbommel,Gelderland,VBO,5.090788,51.817796
Hovendsestraat,21,,,5306AK,Brakel,Zaltbommel,Gelderland,VBO,5.090803,51.817715
Veerdam,1,,,5306AL,Brakel,Zaltbommel,Gelderland,VBO,5.091775,51.824270
Kruispad,1,,,5306AM,Brakel,Zaltbommel,Gelderland,VBO,5.092185,51.819346
Kruispad,3,,,5306AM,Brakel,Zaltbommel,Gelderland,VBO,5.091881,51.819264
Kruispad,5,a,,5306AM,Brakel,Zaltbommel,Gelderland,VBO,5.091245,51.818867
Kruispad,5,,,5306AM,Brakel,Zaltbommel,Gelderland,VBO,5.091534,51.819048
Kruispad,7,,,5306AM,Brakel,Zaltbommel,Gelderland,VBO,5.090898,51.818749
Kruispad,9,,,5306AM,Brakel,Zaltbommel,Gelderland,VBO,5.090100,51.818720
Kruispad,11,,,5306AM,Brakel,Zaltbommel,Gelderland,VBO,5.089723,51.818746
Kruispad,13,,,5306AM,Brakel,Zaltbommel,Gelderland,VBO,5.089651,51.818728
Kruispad,15,,,5306AM,Brakel,Zaltbommel,Gelderland,VBO,5.089462,51.818701
Kruispad,17,,,5306AM,Brakel,Zaltbommel,Gelderland,VBO,5.089274,51.818700
Kruispad,19,,,5306AM,Brakel,Zaltbommel,Gelderland,VBO,5.088984,51.818655
Kruispad,21,,,5306AM,Brakel,Zaltbommel,Gelderland,VBO,5.088767,51.818609
Kruispad,23,,,5306AM,Brakel,Zaltbommel,Gelderland,VBO,5.088564,51.818573
Kruispad,25,,,5306AM,Brakel,Zaltbommel,Gelderland,VBO,5.088434,51.818545
Kruispad,2,,,5306AN,Brakel,Zaltbommel,Gelderland,VBO,5.093024,51.819698
Kruispad,4,,,5306AN,Brakel,Zaltbommel,Gelderland,VBO,5.092922,51.819689
Kruispad,6,,,5306AN,Brakel,Zaltbommel,Gelderland,VBO,5.092328,51.819553
Kruispad,8,,,5306AN,Brakel,Zaltbommel,Gelderland,VBO,5.092169,51.819526
Kruispad,10,,,5306AN,Brakel,Zaltbommel,Gelderland,VBO,5.091503,51.819317
Kruispad,12,,,5306AN,Brakel,Zaltbommel,Gelderland,VBO,5.091287,51.819164
Kruispad,14,,,5306AN,Brakel,Zaltbommel,Gelderland,VBO,5.091084,51.819109
Kruispad,16,,,5306AN,Brakel,Zaltbommel,Gelderland,VBO,5.090795,51.818893
Kruispad,18,,,5306AN,Brakel,Zaltbommel,Gelderland,VBO,5.090592,51.818874
Kruispad,20,,,5306AN,Brakel,Zaltbommel,Gelderland,VBO,5.090491,51.818874
Kruispad,22,,,5306AN,Brakel,Zaltbommel,Gelderland,VBO,5.090259,51.818883
Kruispad,24,,,5306AN,Brakel,Zaltbommel,Gelderland,VBO,5.089910,51.818945
Kruispad,26,,,5306AN,Brakel,Zaltbommel,Gelderland,VBO,5.088779,51.818969
Kommerstraat,1,,,5306AP,Brakel,Zaltbommel,Gelderland,VBO,5.091945,51.820514
Kommerstraat,2,,,5306AP,Brakel,Zaltbommel,Gelderland,VBO,5.091650,51.821277
Kommerstraat,3,,,5306AP,Brakel,Zaltbommel,Gelderland,VBO,5.091960,51.820442
Kommerstraat,5,,,5306AP,Brakel,Zaltbommel,Gelderland,VBO,5.091947,51.820280
Kommerstraat,6,,,5306AP,Brakel,Zaltbommel,Gelderland,VBO,5.091608,51.821088
Kommerstraat,8,,,5306AP,Brakel,Zaltbommel,Gelderland,VBO,5.091623,51.820971
Kommerstraat,10,,,5306AP,Brakel,Zaltbommel,Gelderland,VBO,5.091623,51.820881
Kommerstraat,12,,,5306AP,Brakel,Zaltbommel,Gelderland,VBO,5.091624,51.820845
Kommerstraat,14,,,5306AP,Brakel,Zaltbommel,Gelderland,VBO,5.091625,51.820657
Kommerstraat,16,,,5306AP,Brakel,Zaltbommel,Gelderland,VBO,5.091625,51.820585
Kommerstraat,18,,,5306AP,Brakel,Zaltbommel,Gelderland,VBO,5.091597,51.820477
Kommerstraat,20,,,5306AP,Brakel,Zaltbommel,Gelderland,VBO,5.091441,51.819892
Kommerstraat,22,,,5306AP,Brakel,Zaltbommel,Gelderland,VBO,5.091538,51.819597
Kooihoek,1,,,5306AR,Brakel,Zaltbommel,Gelderland,VBO,5.093931,51.820627
Kooihoek,2,,,5306AR,Brakel,Zaltbommel,Gelderland,VBO,5.093870,51.821184
Kooihoek,3,,,5306AR,Brakel,Zaltbommel,Gelderland,VBO,5.093800,51.820671
Kooihoek,4,,,5306AR,Brakel,Zaltbommel,Gelderland,VBO,5.093236,51.820499
Kooihoek,5,,,5306AR,Brakel,Zaltbommel,Gelderland,VBO,5.093657,51.820356
Kooihoek,6,a,,5306AR,Brakel,Zaltbommel,Gelderland,VBO,5.093164,51.820346
Kooihoek,6,b,,5306AR,Brakel,Zaltbommel,Gelderland,VBO,5.093107,51.820283
Kooihoek,6,,,5306AR,Brakel,Zaltbommel,Gelderland,VBO,5.093207,51.820463
Kooihoek,7,,,5306AR,Brakel,Zaltbommel,Gelderland,VBO,5.093542,51.820248
Kooihoek,8,a,,5306AR,Brakel,Zaltbommel,Gelderland,VBO,5.092367,51.820290
Kooihoek,8,,,5306AR,Brakel,Zaltbommel,Gelderland,VBO,5.092485,51.820288
Kooihoek,9,,,5306AR,Brakel,Zaltbommel,Gelderland,VBO,5.093499,51.820176
Kooihoek,10,,,5306AR,Brakel,Zaltbommel,Gelderland,VBO,5.092702,51.820129
Koningstraat,1,,,5306AS,Brakel,Zaltbommel,Gelderland,VBO,5.096499,51.820624
Koningstraat,2,,,5306AS,Brakel,Zaltbommel,Gelderland,VBO,5.096253,51.820524
Koningstraat,3,,,5306AS,Brakel,Zaltbommel,Gelderland,VBO,5.096499,51.820588
Koningstraat,4,,,5306AS,Brakel,Zaltbommel,Gelderland,VBO,5.096253,51.820435
Koningstraat,5,,,5306AS,Brakel,Zaltbommel,Gelderland,VBO,5.096485,51.820507
Koningstraat,7,,,5306AS,Brakel,Zaltbommel,Gelderland,VBO,5.096485,51.820462
Koningstraat,9,,,5306AS,Brakel,Zaltbommel,Gelderland,VBO,5.096471,51.820399
Koningstraat,10,,,5306AS,Brakel,Zaltbommel,Gelderland,VBO,5.096225,51.820345
Koningstraat,12,,,5306AS,Brakel,Zaltbommel,Gelderland,VBO,5.096211,51.820282
Koningstraat,13,,,5306AS,Brakel,Zaltbommel,Gelderland,VBO,5.096457,51.820309
Koningstraat,15,,,5306AS,Brakel,Zaltbommel,Gelderland,VBO,5.096501,51.820237
Koningstraat,16,,,5306AS,Brakel,Zaltbommel,Gelderland,VBO,5.096240,51.820165
Koningstraat,18,,,5306AS,Brakel,Zaltbommel,Gelderland,VBO,5.096226,51.820093
Koningstraat,19,,,5306AS,Brakel,Zaltbommel,Gelderland,VBO,5.096501,51.820175
Koningstraat,20,,,5306AS,Brakel,Zaltbommel,Gelderland,VBO,5.096212,51.820039
Koningstraat,21,,,5306AS,Brakel,Zaltbommel,Gelderland,VBO,5.096487,51.820130
Koningstraat,23,,,5306AS,Brakel,Zaltbommel,Gelderland,VBO,5.096488,51.820076
Nieuwstraat,1,,,5306AT,Brakel,Zaltbommel,Gelderland,VBO,5.097951,51.820322
Nieuwstraat,2,,,5306AT,Brakel,Zaltbommel,Gelderland,VBO,5.097644,51.820735
Nieuwstraat,3,,,5306AT,Brakel,Zaltbommel,Gelderland,VBO,5.097966,51.820277
Nieuwstraat,4,,,5306AT,Brakel,Zaltbommel,Gelderland,VBO,5.097644,51.820672
Nieuwstraat,6,,,5306AT,Brakel,Zaltbommel,Gelderland,VBO,5.097398,51.820617
Nieuwstraat,8,,,5306AT,Brakel,Zaltbommel,Gelderland,VBO,5.097645,51.820582
Nieuwstraat,10,,,5306AT,Brakel,Zaltbommel,Gelderland,VBO,5.097674,51.820519
Nieuwstraat,12,,,5306AT,Brakel,Zaltbommel,Gelderland,VBO,5.097675,51.820438
Nieuwstraat,14,,,5306AT,Brakel,Zaltbommel,Gelderland,VBO,5.097665,51.820311
Nieuwstraat,16,,,5306AT,Brakel,Zaltbommel,Gelderland,VBO,5.097667,51.820254
Gortstraat,1,,,5306AV,Brakel,Zaltbommel,Gelderland,VBO,5.095527,51.820532
Gortstraat,2,,,5306AV,Brakel,Zaltbommel,Gelderland,VBO,5.094336,51.820807
Gortstraat,3,,,5306AV,Brakel,Zaltbommel,Gelderland,VBO,5.095688,51.820397
Gortstraat,4,,,5306AV,Brakel,Zaltbommel,Gelderland,VBO,5.094822,51.820587
Gortstraat,5,,,5306AV,Brakel,Zaltbommel,Gelderland,VBO,5.095761,51.820334
Gortstraat,6,,,5306AV,Brakel,Zaltbommel,Gelderland,VBO,5.095049,51.820494
Gortstraat,7,,,5306AV,Brakel,Zaltbommel,Gelderland,VBO,5.095848,51.820263
Gortstraat,8,,,5306AV,Brakel,Zaltbommel,Gelderland,VBO,5.095355,51.820271
Gortstraat,9,,,5306AV,Brakel,Zaltbommel,Gelderland,VBO,5.095907,51.820209
Gortstraat,10,,,5306AV,Brakel,Zaltbommel,Gelderland,VBO,5.095501,51.820145
Gortstraat,11,,,5306AV,Brakel,Zaltbommel,Gelderland,VBO,5.096038,51.820137
Flegelstraat,1,,,5306AW,Brakel,Zaltbommel,Gelderland,VBO,5.095086,51.819245
Flegelstraat,3,,,5306AW,Brakel,Zaltbommel,Gelderland,VBO,5.094797,51.819101
Flegelstraat,5,,,5306AW,Brakel,Zaltbommel,Gelderland,VBO,5.094595,51.818992
Flegelstraat,7,a,,5306AW,Brakel,Zaltbommel,Gelderland,VBO,5.093808,51.818232
Flegelstraat,7,,,5306AW,Brakel,Zaltbommel,Gelderland,VBO,5.093904,51.818209
Flegelstraat,9,,,5306AW,Brakel,Zaltbommel,Gelderland,VBO,5.093357,51.817497
Flegelstraat,13,,,5306AW,Brakel,Zaltbommel,Gelderland,VBO,5.092996,51.817307
Flegelstraat,15,,,5306AW,Brakel,Zaltbommel,Gelderland,VBO,5.092851,51.817217
Flegelstraat,17,,,5306AW,Brakel,Zaltbommel,Gelderland,VBO,5.092808,51.817172
Flegelstraat,19,,,5306AW,Brakel,Zaltbommel,Gelderland,VBO,5.092606,51.817055
Flegelstraat,21,,,5306AW,Brakel,Zaltbommel,Gelderland,VBO,5.092549,51.816884
Flegelstraat,2,,,5306AX,Brakel,Zaltbommel,Gelderland,VBO,5.094549,51.819325
Flegelstraat,4,,,5306AX,Brakel,Zaltbommel,Gelderland,VBO,5.094145,51.819054
Flegelstraat,6,,,5306AX,Brakel,Zaltbommel,Gelderland,VBO,5.094029,51.818964
Flegelstraat,8,,,5306AX,Brakel,Zaltbommel,Gelderland,VBO,5.093870,51.818838
Flegelstraat,10,a,,5306AX,Brakel,Zaltbommel,Gelderland,VBO,5.093234,51.818616
Flegelstraat,10,,,5306AX,Brakel,Zaltbommel,Gelderland,VBO,5.093489,51.818575
Flegelstraat,12,,,5306AX,Brakel,Zaltbommel,Gelderland,VBO,5.093309,51.818290
Flegelstraat,14,,,5306AX,Brakel,Zaltbommel,Gelderland,VBO,5.093260,51.818213
Flegelstraat,16,,,5306AX,Brakel,Zaltbommel,Gelderland,VBO,5.092703,51.817774
Flegelstraat,18,,,5306AX,Brakel,Zaltbommel,Gelderland,VBO,5.092544,51.817630
Flegelstraat,20,,,5306AX,Brakel,Zaltbommel,Gelderland,VBO,5.092414,51.817495
Flegelstraat,22,,,5306AX,Brakel,Zaltbommel,Gelderland,VBO,5.092314,51.817378
Flegelstraat,24,,,5306AX,Brakel,Zaltbommel,Gelderland,VBO,5.092300,51.817216
Flegelstraat,26,,,5306AX,Brakel,Zaltbommel,Gelderland,VBO,5.092271,51.817171
Flegelstraat,28,,,5306AX,Brakel,Zaltbommel,Gelderland,VBO,5.092272,51.817117
Flegelstraat,30,,,5306AX,Brakel,Zaltbommel,Gelderland,VBO,5.092258,51.817063
Flegelstraat,32,,,5306AX,Brakel,Zaltbommel,Gelderland,VBO,5.092258,51.816982
Flegelstraat,34,,,5306AX,Brakel,Zaltbommel,Gelderland,VBO,5.092244,51.816928
Flegelstraat,36,,,5306AX,Brakel,Zaltbommel,Gelderland,VBO,5.092244,51.816874
Flegelstraat,38,,,5306AX,Brakel,Zaltbommel,Gelderland,VBO,5.092245,51.816829
Janstraat,3,,,5306AZ,Brakel,Zaltbommel,Gelderland,VBO,5.091006,51.817689
Janstraat,4,,,5306AZ,Brakel,Zaltbommel,Gelderland,VBO,5.091123,51.817527
Janstraat,5,,,5306AZ,Brakel,Zaltbommel,Gelderland,VBO,5.091006,51.817743
Janstraat,6,,,5306AZ,Brakel,Zaltbommel,Gelderland,VBO,5.091253,51.817661
Janstraat,8,,,5306AZ,Brakel,Zaltbommel,Gelderland,VBO,5.091282,51.817717
Marktplein,1,,,5306BA,Brakel,Zaltbommel,Gelderland,VBO,5.098608,51.819640
Marktplein,2,,,5306BA,Brakel,Zaltbommel,Gelderland,VBO,5.097086,51.819529
Marktplein,4,,,5306BA,Brakel,Zaltbommel,Gelderland,VBO,5.097480,51.819125
Marktplein,8,,,5306BA,Brakel,Zaltbommel,Gelderland,VBO,5.098408,51.819128
Dreef,1,,,5306BB,Brakel,Zaltbommel,Gelderland,VBO,5.096785,51.818872
Dwarssteeg,2,,,5306BC,Brakel,Zaltbommel,Gelderland,VBO,5.098986,51.817241
Dwarssteeg,3,,,5306BC,Brakel,Zaltbommel,Gelderland,VBO,5.098741,51.819272
Dwarssteeg,4,,,5306BC,Brakel,Zaltbommel,Gelderland,VBO,5.099117,51.817116
Dwarssteeg,5,,,5306BC,Brakel,Zaltbommel,Gelderland,VBO,5.098872,51.819111
Dwarssteeg,7,a,,5306BC,Brakel,Zaltbommel,Gelderland,VBO,5.101201,51.817849
Dwarssteeg,7,b,,5306BC,Brakel,Zaltbommel,Gelderland,VBO,5.099564,51.818895
Dwarssteeg,7,c,,5306BC,Brakel,Zaltbommel,Gelderland,VBO,5.102258,51.816991
Dwarssteeg,7,,,5306BC,Brakel,Zaltbommel,Gelderland,VBO,5.099221,51.819013
Dwarssteeg,9,,,5306BC,Brakel,Zaltbommel,Gelderland,VBO,5.101897,51.815604
Jonker Aartendam,1,,,5306BD,Brakel,Zaltbommel,Gelderland,VBO,5.094431,51.817311
Jonker Aartendam,2,,,5306BD,Brakel,Zaltbommel,Gelderland,VBO,5.094487,51.817617
Jonker Aartendam,3,,,5306BD,Brakel,Zaltbommel,Gelderland,VBO,5.094373,51.817347
Jonker Aartendam,4,,,5306BD,Brakel,Zaltbommel,Gelderland,VBO,5.094386,51.817643
Jonker Aartendam,5,,,5306BD,Brakel,Zaltbommel,Gelderland,VBO,5.094300,51.817383
Jonker Aartendam,6,,,5306BD,Brakel,Zaltbommel,Gelderland,VBO,5.094211,51.817805
Jonker Aartendam,7,,,5306BD,Brakel,Zaltbommel,Gelderland,VBO,5.094242,51.817409
Jonker Aartendam,8,,,5306BD,Brakel,Zaltbommel,Gelderland,VBO,5.093978,51.817921
Jonker Aartendam,9,,,5306BD,Brakel,Zaltbommel,Gelderland,VBO,5.094170,51.817445
Jonker Aartendam,10,,,5306BD,Brakel,Zaltbommel,Gelderland,VBO,5.093802,51.818056
Jonker Aartendam,11,,,5306BD,Brakel,Zaltbommel,Gelderland,VBO,5.093908,51.817570
Jonker Aartendam,12,,,5306BD,Brakel,Zaltbommel,Gelderland,VBO,5.093076,51.818287
Jonker Aartendam,13,,,5306BD,Brakel,Zaltbommel,Gelderland,VBO,5.093660,51.817678
Jonker Aartendam,15,,,5306BD,Brakel,Zaltbommel,Gelderland,VBO,5.093428,51.817794
Jonker Aartendam,17,,,5306BD,Brakel,Zaltbommel,Gelderland,VBO,5.092904,51.817990
Elftstraat,1,,,5306BE,Brakel,Zaltbommel,Gelderland,VBO,5.094115,51.816906
Elftstraat,2,,,5306BE,Brakel,Zaltbommel,Gelderland,VBO,5.094288,51.817122
Elftstraat,3,,,5306BE,Brakel,Zaltbommel,Gelderland,VBO,5.093955,51.816941
Elftstraat,4,,,5306BE,Brakel,Zaltbommel,Gelderland,VBO,5.094201,51.817140
Elftstraat,5,,,5306BE,Brakel,Zaltbommel,Gelderland,VBO,5.093694,51.817004
Elftstraat,6,,,5306BE,Brakel,Zaltbommel,Gelderland,VBO,5.094041,51.817193
Elftstraat,8,,,5306BE,Brakel,Zaltbommel,Gelderland,VBO,5.093939,51.817211
Vrijheidslaan,1,,,5306BJ,Brakel,Zaltbommel,Gelderland,VBO,5.093830,51.816141
Vrijheidslaan,3,,,5306BJ,Brakel,Zaltbommel,Gelderland,VBO,5.094747,51.817797
Vrijheidslaan,5,,,5306BJ,Brakel,Zaltbommel,Gelderland,VBO,5.094892,51.817923
Vrijheidslaan,7,,,5306BJ,Brakel,Zaltbommel,Gelderland,VBO,5.095021,51.818050
Vrijheidslaan,9,,,5306BJ,Brakel,Zaltbommel,Gelderland,VBO,5.095139,51.818176
Vrijheidslaan,11,,,5306BJ,Brakel,Zaltbommel,Gelderland,VBO,5.095266,51.818302
Vrijheidslaan,13,,,5306BJ,Brakel,Zaltbommel,Gelderland,VBO,5.095396,51.818437
Vrijheidslaan,15,,,5306BJ,Brakel,Zaltbommel,Gelderland,VBO,5.095540,51.818599
Vrijheidslaan,10,,,5306BK,Brakel,Zaltbommel,Gelderland,VBO,5.094238,51.815809
Vrijheidslaan,12,,,5306BK,Brakel,Zaltbommel,Gelderland,VBO,5.094369,51.815783
Vrijheidslaan,14,,,5306BK,Brakel,Zaltbommel,Gelderland,VBO,5.094485,51.815765
Vrijheidslaan,16,,,5306BK,Brakel,Zaltbommel,Gelderland,VBO,5.094587,51.815738
Vrijheidslaan,18,,,5306BK,Brakel,Zaltbommel,Gelderland,VBO,5.094164,51.816079
Vrijheidslaan,20,,,5306BK,Brakel,Zaltbommel,Gelderland,VBO,5.094251,51.816070
Vrijheidslaan,22,,,5306BK,Brakel,Zaltbommel,Gelderland,VBO,5.094309,51.816043
Vrijheidslaan,24,,,5306BK,Brakel,Zaltbommel,Gelderland,VBO,5.094411,51.816035
Vrijheidslaan,26,,,5306BK,Brakel,Zaltbommel,Gelderland,VBO,5.094614,51.816053
Vrijheidslaan,28,,,5306BK,Brakel,Zaltbommel,Gelderland,VBO,5.094701,51.816035
Vrijheidslaan,30,,,5306BL,Brakel,Zaltbommel,Gelderland,VBO,5.094249,51.816358
Vrijheidslaan,32,,,5306BL,Brakel,Zaltbommel,Gelderland,VBO,5.094351,51.816340
Vrijheidslaan,34,,,5306BL,Brakel,Zaltbommel,Gelderland,VBO,5.094438,51.816331
Vrijheidslaan,36,,,5306BL,Brakel,Zaltbommel,Gelderland,VBO,5.094539,51.816314
Vrijheidslaan,38,,,5306BL,Brakel,Zaltbommel,Gelderland,VBO,5.094627,51.816305
Vrijheidslaan,40,,,5306BL,Brakel,Zaltbommel,Gelderland,VBO,5.094801,51.816287
Vrijheidslaan,42,,,5306BL,Brakel,Zaltbommel,Gelderland,VBO,5.094859,51.816278
Vrijheidslaan,44,,,5306BL,Brakel,Zaltbommel,Gelderland,VBO,5.094435,51.816727
Vrijheidslaan,46,,,5306BL,Brakel,Zaltbommel,Gelderland,VBO,5.094522,51.816700
Vrijheidslaan,48,,,5306BL,Brakel,Zaltbommel,Gelderland,VBO,5.094624,51.816673
Vrijheidslaan,50,,,5306BL,Brakel,Zaltbommel,Gelderland,VBO,5.094697,51.816674
Vrijheidslaan,52,,,5306BL,Brakel,Zaltbommel,Gelderland,VBO,5.094784,51.816647
Vrijheidslaan,54,,,5306BL,Brakel,Zaltbommel,Gelderland,VBO,5.094929,51.816602
Vrijheidslaan,56,,,5306BL,Brakel,Zaltbommel,Gelderland,VBO,5.095016,51.816566
Vrijheidslaan,58,,,5306BM,Brakel,Zaltbommel,Gelderland,VBO,5.094593,51.816988
Vrijheidslaan,60,,,5306BM,Brakel,Zaltbommel,Gelderland,VBO,5.094695,51.816961
Vrijheidslaan,62,,,5306BM,Brakel,Zaltbommel,Gelderland,VBO,5.094782,51.816943
Vrijheidslaan,64,,,5306BM,Brakel,Zaltbommel,Gelderland,VBO,5.094855,51.816908
Vrijheidslaan,66,,,5306BM,Brakel,Zaltbommel,Gelderland,VBO,5.094956,51.816881
Vrijheidslaan,68,,,5306BM,Brakel,Zaltbommel,Gelderland,VBO,5.095073,51.816818
Vrijheidslaan,70,,,5306BM,Brakel,Zaltbommel,Gelderland,VBO,5.095174,51.816810
Vrijheidslaan,72,,,5306BM,Brakel,Zaltbommel,Gelderland,VBO,5.094766,51.817204
Vrijheidslaan,74,,,5306BM,Brakel,Zaltbommel,Gelderland,VBO,5.094867,51.817177
Vrijheidslaan,76,,,5306BM,Brakel,Zaltbommel,Gelderland,VBO,5.094940,51.817168
Vrijheidslaan,78,,,5306BM,Brakel,Zaltbommel,Gelderland,VBO,5.095071,51.817106
Vrijheidslaan,80,,,5306BM,Brakel,Zaltbommel,Gelderland,VBO,5.095187,51.817043
Vrijheidslaan,82,,,5306BM,Brakel,Zaltbommel,Gelderland,VBO,5.095332,51.817026
Vrijheidslaan,84,,,5306BN,Brakel,Zaltbommel,Gelderland,VBO,5.095040,51.817429
Vrijheidslaan,86,,,5306BN,Brakel,Zaltbommel,Gelderland,VBO,5.095389,51.817331
Vrijheidslaan,88,,,5306BN,Brakel,Zaltbommel,Gelderland,VBO,5.095547,51.817530
Vrijheidslaan,90,,,5306BN,Brakel,Zaltbommel,Gelderland,VBO,5.095328,51.817673
Vrijheidslaan,94,,,5306BN,Brakel,Zaltbommel,Gelderland,VBO,5.095818,51.818168
Van Damweg,2,,,5306BP,Brakel,Zaltbommel,Gelderland,VBO,5.100599,51.814396
De Haag,1,,,5306CA,Brakel,Zaltbommel,Gelderland,VBO,5.087017,51.819944
De Haag,3,,,5306CA,Brakel,Zaltbommel,Gelderland,VBO,5.087249,51.819953
De Haag,5,,,5306CA,Brakel,Zaltbommel,Gelderland,VBO,5.087336,51.819963
De Haag,7,,,5306CA,Brakel,Zaltbommel,Gelderland,VBO,5.087510,51.819954
De Haag,9,,,5306CA,Brakel,Zaltbommel,Gelderland,VBO,5.087583,51.819954
De Haag,11,,,5306CA,Brakel,Zaltbommel,Gelderland,VBO,5.087757,51.819946
De Haag,13,,,5306CA,Brakel,Zaltbommel,Gelderland,VBO,5.087844,51.819946
De Haag,15,,,5306CA,Brakel,Zaltbommel,Gelderland,VBO,5.088033,51.819938
De Haag,17,,,5306CA,Brakel,Zaltbommel,Gelderland,VBO,5.088105,51.819938
De Haag,19,,,5306CA,Brakel,Zaltbommel,Gelderland,VBO,5.088815,51.820047
De Haag,21,,,5306CA,Brakel,Zaltbommel,Gelderland,VBO,5.089076,51.820030
De Haag,23,,,5306CA,Brakel,Zaltbommel,Gelderland,VBO,5.089265,51.819968
De Haag,25,,,5306CA,Brakel,Zaltbommel,Gelderland,VBO,5.089367,51.819959
De Haag,27,,,5306CA,Brakel,Zaltbommel,Gelderland,VBO,5.089526,51.819959
De Haag,29,,,5306CA,Brakel,Zaltbommel,Gelderland,VBO,5.089613,51.819959
De Haag,31,,,5306CA,Brakel,Zaltbommel,Gelderland,VBO,5.089589,51.819312
De Haag,33,,,5306CA,Brakel,Zaltbommel,Gelderland,VBO,5.089488,51.819186
De Haag,2,,,5306CB,Brakel,Zaltbommel,Gelderland,VBO,5.087368,51.819567
De Haag,4,,,5306CB,Brakel,Zaltbommel,Gelderland,VBO,5.087571,51.819631
De Haag,6,,,5306CB,Brakel,Zaltbommel,Gelderland,VBO,5.087687,51.819640
De Haag,8,,,5306CB,Brakel,Zaltbommel,Gelderland,VBO,5.087875,51.819640
De Haag,10,,,5306CB,Brakel,Zaltbommel,Gelderland,VBO,5.088165,51.819650
De Haag,12,,,5306CB,Brakel,Zaltbommel,Gelderland,VBO,5.088485,51.819579
De Haag,14,,,5306CB,Brakel,Zaltbommel,Gelderland,VBO,5.088602,51.819445
De Haag,16,,,5306CB,Brakel,Zaltbommel,Gelderland,VBO,5.088689,51.819319
De Haag,18,,,5306CB,Brakel,Zaltbommel,Gelderland,VBO,5.088690,51.819265
De Haag,20,,,5306CB,Brakel,Zaltbommel,Gelderland,VBO,5.088778,51.819139
Baldershof,1,,,5306CC,Brakel,Zaltbommel,Gelderland,VBO,5.089689,51.819546
Baldershof,3,,,5306CC,Brakel,Zaltbommel,Gelderland,VBO,5.090037,51.819538
Baldershof,5,,,5306CC,Brakel,Zaltbommel,Gelderland,VBO,5.090138,51.819538
Baldershof,7,,,5306CC,Brakel,Zaltbommel,Gelderland,VBO,5.090341,51.819539
Baldershof,9,,,5306CC,Brakel,Zaltbommel,Gelderland,VBO,5.090486,51.819566
Baldershof,11,,,5306CC,Brakel,Zaltbommel,Gelderland,VBO,5.090660,51.819639
Baldershof,2,,,5306CD,Brakel,Zaltbommel,Gelderland,VBO,5.089893,51.819286
Baldershof,4,,,5306CD,Brakel,Zaltbommel,Gelderland,VBO,5.089952,51.819277
Baldershof,6,,,5306CD,Brakel,Zaltbommel,Gelderland,VBO,5.090068,51.819269
Baldershof,8,,,5306CD,Brakel,Zaltbommel,Gelderland,VBO,5.090140,51.819269
Baldershof,10,,,5306CD,Brakel,Zaltbommel,Gelderland,VBO,5.090314,51.819269
Baldershof,12,,,5306CD,Brakel,Zaltbommel,Gelderland,VBO,5.090401,51.819269
Baldershof,14,,,5306CD,Brakel,Zaltbommel,Gelderland,VBO,5.090488,51.819261
Baldershof,16,,,5306CD,Brakel,Zaltbommel,Gelderland,VBO,5.090575,51.819270
Baldershof,18,,,5306CD,Brakel,Zaltbommel,Gelderland,VBO,5.090662,51.819261
Baldershof,20,,,5306CD,Brakel,Zaltbommel,Gelderland,VBO,5.090966,51.819478
Baldershof,22,,,5306CD,Brakel,Zaltbommel,Gelderland,VBO,5.090309,51.820015
Baldershof,24,,,5306CD,Brakel,Zaltbommel,Gelderland,VBO,5.090121,51.819997
Baldershof,26,,,5306CD,Brakel,Zaltbommel,Gelderland,VBO,5.090019,51.819987
Baldershof,28,,,5306CD,Brakel,Zaltbommel,Gelderland,VBO,5.089874,51.819978
Baldershof,30,,,5306CD,Brakel,Zaltbommel,Gelderland,VBO,5.089787,51.819978
Lijsenhof,1,,,5306CE,Brakel,Zaltbommel,Gelderland,VBO,5.088366,51.819983
Lijsenhof,3,,,5306CE,Brakel,Zaltbommel,Gelderland,VBO,5.088395,51.820019
Lijsenhof,5,,,5306CE,Brakel,Zaltbommel,Gelderland,VBO,5.088408,51.820136
Lijsenhof,7,,,5306CE,Brakel,Zaltbommel,Gelderland,VBO,5.088423,51.820190
Lijsenhof,9,,,5306CE,Brakel,Zaltbommel,Gelderland,VBO,5.088407,51.820307
Lijsenhof,11,a,,5306CE,Brakel,Zaltbommel,Gelderland,VBO,5.087885,51.820270
Lijsenhof,11,,,5306CE,Brakel,Zaltbommel,Gelderland,VBO,5.088074,51.820261
Lijsenhof,13,,,5306CE,Brakel,Zaltbommel,Gelderland,VBO,5.087869,51.820503
Lijsenhof,15,,,5306CE,Brakel,Zaltbommel,Gelderland,VBO,5.088116,51.820531
Lijsenhof,17,,,5306CE,Brakel,Zaltbommel,Gelderland,VBO,5.088319,51.820522
Lijsenhof,19,,,5306CE,Brakel,Zaltbommel,Gelderland,VBO,5.089449,51.820696
Lijsenhof,21,,,5306CE,Brakel,Zaltbommel,Gelderland,VBO,5.089420,51.820750
Lijsenhof,23,,,5306CE,Brakel,Zaltbommel,Gelderland,VBO,5.089798,51.820607
Lijsenhof,25,,,5306CE,Brakel,Zaltbommel,Gelderland,VBO,5.089813,51.820544
Lijsenhof,27,,,5306CE,Brakel,Zaltbommel,Gelderland,VBO,5.090103,51.820545
Lijsenhof,29,,,5306CE,Brakel,Zaltbommel,Gelderland,VBO,5.090204,51.820554
Lijsenhof,31,,,5306CE,Brakel,Zaltbommel,Gelderland,VBO,5.090364,51.820564
Lijsenhof,33,,,5306CE,Brakel,Zaltbommel,Gelderland,VBO,5.090451,51.820573
Lijsenhof,35,,,5306CE,Brakel,Zaltbommel,Gelderland,VBO,5.090654,51.820591
Lijsenhof,37,a,,5306CE,Brakel,Zaltbommel,Gelderland,VBO,5.091133,51.820409
Lijsenhof,37,,,5306CE,Brakel,Zaltbommel,Gelderland,VBO,5.090871,51.820592
Lijsenhof,39,,,5306CE,Brakel,Zaltbommel,Gelderland,VBO,5.090800,51.820358
Lijsenhof,41,,,5306CE,Brakel,Zaltbommel,Gelderland,VBO,5.090626,51.820349
Lijsenhof,43,,,5306CE,Brakel,Zaltbommel,Gelderland,VBO,5.090700,51.820124
Lijsenhof,45,,,5306CE,Brakel,Zaltbommel,Gelderland,VBO,5.090715,51.820070
Lijsenhof,47,,,5306CE,Brakel,Zaltbommel,Gelderland,VBO,5.090803,51.819927
Lijsenhof,2,,,5306CG,Brakel,Zaltbommel,Gelderland,VBO,5.088813,51.820326
Lijsenhof,4,,,5306CG,Brakel,Zaltbommel,Gelderland,VBO,5.088886,51.820344
Lijsenhof,6,,,5306CG,Brakel,Zaltbommel,Gelderland,VBO,5.088987,51.820335
Lijsenhof,8,,,5306CG,Brakel,Zaltbommel,Gelderland,VBO,5.089074,51.820345
Lijsenhof,10,,,5306CG,Brakel,Zaltbommel,Gelderland,VBO,5.089219,51.820336
Lijsenhof,12,,,5306CG,Brakel,Zaltbommel,Gelderland,VBO,5.089452,51.820328
Lijsenhof,14,,,5306CG,Brakel,Zaltbommel,Gelderland,VBO,5.089539,51.820328
Lijsenhof,16,,,5306CG,Brakel,Zaltbommel,Gelderland,VBO,5.089756,51.820274
Lijsenhof,18,,,5306CG,Brakel,Zaltbommel,Gelderland,VBO,5.089843,51.820284
Lijsenhof,20,,,5306CG,Brakel,Zaltbommel,Gelderland,VBO,5.090090,51.820302
Lijsenhof,22,,,5306CG,Brakel,Zaltbommel,Gelderland,VBO,5.090264,51.820303
Waaldijk,1,,,5306EW,Brakel,Zaltbommel,Gelderland,VBO,5.116826,51.812160
Waaldijk,41,,,5306EW,Brakel,Zaltbommel,Gelderland,VBO,5.102582,51.817313
Liesveldsesteeg,3,,,5306EX,Brakel,Zaltbommel,Gelderland,VBO,5.103828,51.815285
Liesveldsesteeg,5,,,5306EX,Brakel,Zaltbommel,Gelderland,VBO,5.105279,51.815073
Liesveldsesteeg,7,,,5306EX,Brakel,Zaltbommel,Gelderland,VBO,5.106513,51.814878
Liesveldsesteeg,9,,,5306EX,Brakel,Zaltbommel,Gelderland,VBO,5.107312,51.814745
Liesveldsesteeg,11,,,5306EX,Brakel,Zaltbommel,Gelderland,VBO,5.108212,51.814594
Liesveldsesteeg,13,,,5306EX,Brakel,Zaltbommel,Gelderland,VBO,5.109489,51.814354
Liesveldsesteeg,17,,,5306EX,Brakel,Zaltbommel,Gelderland,VBO,5.113234,51.813761
Liesveldsesteeg,19,,,5306EX,Brakel,Zaltbommel,Gelderland,VBO,5.113336,51.813743
Liesveldsesteeg,21,,,5306EX,Brakel,Zaltbommel,Gelderland,VBO,5.113597,51.813699
Liesveldsesteeg,23,,,5306EX,Brakel,Zaltbommel,Gelderland,VBO,5.114642,51.813576
Liesveldsesteeg,2,,,5306EZ,Brakel,Zaltbommel,Gelderland,VBO,5.101681,51.815289
Liesveldsesteeg,4,,,5306EZ,Brakel,Zaltbommel,Gelderland,VBO,5.102117,51.815227
Liesveldsesteeg,6,,,5306EZ,Brakel,Zaltbommel,Gelderland,VBO,5.102538,51.815093
Liesveldsesteeg,8,,,5306EZ,Brakel,Zaltbommel,Gelderland,VBO,5.103032,51.814986
Liesveldsesteeg,10,,,5306EZ,Brakel,Zaltbommel,Gelderland,VBO,5.103482,51.814933
Liesveldsesteeg,12,,,5306EZ,Brakel,Zaltbommel,Gelderland,VBO,5.103946,51.814934
Liesveldsesteeg,14,a,,5306EZ,Brakel,Zaltbommel,Gelderland,VBO,5.105354,51.814668
Liesveldsesteeg,14,,,5306EZ,Brakel,Zaltbommel,Gelderland,VBO,5.104381,51.814855
Liesveldsesteeg,16,,,5306EZ,Brakel,Zaltbommel,Gelderland,VBO,5.105906,51.814598
Liesveldsesteeg,18,,,5306EZ,Brakel,Zaltbommel,Gelderland,VBO,5.106690,51.814456
Liesveldsesteeg,20,,,5306EZ,Brakel,Zaltbommel,Gelderland,VBO,5.107387,51.814332
Liesveldsesteeg,22,,,5306EZ,Brakel,Zaltbommel,Gelderland,VBO,5.107880,51.814225
Liesveldsesteeg,24,,,5306EZ,Brakel,Zaltbommel,Gelderland,VBO,5.108490,51.814136
Liesveldsesteeg,26,,,5306EZ,Brakel,Zaltbommel,Gelderland,VBO,5.109912,51.813942
Liesveldsesteeg,28,a,,5306EZ,Brakel,Zaltbommel,Gelderland,VBO,5.112055,51.813113
Liesveldsesteeg,28,,,5306EZ,Brakel,Zaltbommel,Gelderland,VBO,5.111437,51.813676
Liesveldsesteeg,30,,,5306EZ,Brakel,Zaltbommel,Gelderland,VBO,5.112729,51.813472
Liesveldsesteeg,32,,,5306EZ,Brakel,Zaltbommel,Gelderland,VBO,5.112990,51.813455
Burgemeester Posweg,1,,,5306GA,Brakel,Zaltbommel,Gelderland,VBO,5.098927,51.819650
Burgemeester Posweg,7,a,,5306GA,Brakel,Zaltbommel,Gelderland,VBO,5.096596,51.819817
Burgemeester Posweg,7,,,5306GA,Brakel,Zaltbommel,Gelderland,VBO,5.096620,51.819703
Burgemeester Posweg,9,,,5306GA,Brakel,Zaltbommel,Gelderland,VBO,5.096112,51.819850
Burgemeester Posweg,11,,,5306GA,Brakel,Zaltbommel,Gelderland,VBO,5.095954,51.819878
Burgemeester Posweg,13,,,5306GA,Brakel,Zaltbommel,Gelderland,VBO,5.095677,51.819894
Burgemeester Posweg,15,,,5306GA,Brakel,Zaltbommel,Gelderland,VBO,5.095589,51.819912
Burgemeester Posweg,17,,,5306GA,Brakel,Zaltbommel,Gelderland,VBO,5.095156,51.819623
Burgemeester Posweg,19,,,5306GA,Brakel,Zaltbommel,Gelderland,VBO,5.093953,51.819566
Burgemeester Posweg,21,a,,5306GA,Brakel,Zaltbommel,Gelderland,VBO,5.093532,51.819556
Burgemeester Posweg,21,,,5306GA,Brakel,Zaltbommel,Gelderland,VBO,5.093764,51.819539
Burgemeester Posweg,23,,,5306GA,Brakel,Zaltbommel,Gelderland,VBO,5.093301,51.819465
Burgemeester Posweg,25,,,5306GA,Brakel,Zaltbommel,Gelderland,VBO,5.093258,51.819357
Burgemeester Posweg,27,,,5306GA,Brakel,Zaltbommel,Gelderland,VBO,5.093215,51.819214
Burgemeester Posweg,29,,,5306GA,Brakel,Zaltbommel,Gelderland,VBO,5.093100,51.819159
Burgemeester Posweg,31,,,5306GA,Brakel,Zaltbommel,Gelderland,VBO,5.093014,51.819015
Burgemeester Posweg,33,,,5306GA,Brakel,Zaltbommel,Gelderland,VBO,5.092956,51.818889
Burgemeester Posweg,35,,,5306GA,Brakel,Zaltbommel,Gelderland,VBO,5.092914,51.818754
Burgemeester Posweg,37,,,5306GA,Brakel,Zaltbommel,Gelderland,VBO,5.092871,51.818700
Burgemeester Posweg,39,,,5306GA,Brakel,Zaltbommel,Gelderland,VBO,5.092829,51.818467
Burgemeester Posweg,41,,,5306GA,Brakel,Zaltbommel,Gelderland,VBO,5.092829,51.818404
Burgemeester Posweg,43,,,5306GB,Brakel,Zaltbommel,Gelderland,VBO,5.092628,51.818142
Burgemeester Posweg,45,,,5306GB,Brakel,Zaltbommel,Gelderland,VBO,5.092208,51.817944
Burgemeester Posweg,49,,,5306GB,Brakel,Zaltbommel,Gelderland,VBO,5.092021,51.817781
Burgemeester Posweg,51,a,,5306GB,Brakel,Zaltbommel,Gelderland,VBO,5.091921,51.817601
Burgemeester Posweg,51,,,5306GB,Brakel,Zaltbommel,Gelderland,VBO,5.091949,51.817691
Burgemeester Posweg,53,,,5306GB,Brakel,Zaltbommel,Gelderland,VBO,5.091849,51.817520
Burgemeester Posweg,55,,,5306GB,Brakel,Zaltbommel,Gelderland,VBO,5.091762,51.817403
Burgemeester Posweg,57,,,5306GB,Brakel,Zaltbommel,Gelderland,VBO,5.091705,51.817277
Burgemeester Posweg,59,,,5306GB,Brakel,Zaltbommel,Gelderland,VBO,5.091648,51.817169
Burgemeester Posweg,61,,,5306GB,Brakel,Zaltbommel,Gelderland,VBO,5.091634,51.817061
Burgemeester Posweg,63,,,5306GB,Brakel,Zaltbommel,Gelderland,VBO,5.091620,51.816917
Burgemeester Posweg,65,,,5306GB,Brakel,Zaltbommel,Gelderland,VBO,5.091869,51.816657
Burgemeester Posweg,67,,,5306GB,Brakel,Zaltbommel,Gelderland,VBO,5.091726,51.816298
Burgemeester Posweg,69,,,5306GB,Brakel,Zaltbommel,Gelderland,VBO,5.090896,51.814624
Burgemeester Posweg,71,,,5306GB,Brakel,Zaltbommel,Gelderland,VBO,5.087912,51.807506
Burgemeester Posweg,4,,,5306GD,Brakel,Zaltbommel,Gelderland,VBO,5.098417,51.820062
Burgemeester Posweg,6,,,5306GD,Brakel,Zaltbommel,Gelderland,VBO,5.098185,51.820017
Burgemeester Posweg,8,,,5306GD,Brakel,Zaltbommel,Gelderland,VBO,5.098011,51.819980
Burgemeester Posweg,10,,,5306GD,Brakel,Zaltbommel,Gelderland,VBO,5.097866,51.819980
Burgemeester Posweg,12,a,,5306GD,Brakel,Zaltbommel,Gelderland,VBO,5.097691,51.819952
Burgemeester Posweg,12,b,,5306GD,Brakel,Zaltbommel,Gelderland,VBO,5.097597,51.820001
Burgemeester Posweg,12,c,,5306GD,Brakel,Zaltbommel,Gelderland,VBO,5.097687,51.820004
Burgemeester Posweg,12,d,,5306GD,Brakel,Zaltbommel,Gelderland,VBO,5.097590,51.820052
Burgemeester Posweg,12,e,,5306GD,Brakel,Zaltbommel,Gelderland,VBO,5.097687,51.820056
Burgemeester Posweg,12,f,,5306GD,Brakel,Zaltbommel,Gelderland,VBO,5.097594,51.820100
Burgemeester Posweg,12,g,,5306GD,Brakel,Zaltbommel,Gelderland,VBO,5.097417,51.820006
Burgemeester Posweg,12,h,,5306GD,Brakel,Zaltbommel,Gelderland,VBO,5.097410,51.820092
Burgemeester Posweg,12,,,5306GD,Brakel,Zaltbommel,Gelderland,VBO,5.097601,51.819950
Burgemeester Posweg,14,a,,5306GD,Brakel,Zaltbommel,Gelderland,VBO,5.096913,51.820030
Burgemeester Posweg,14,,,5306GD,Brakel,Zaltbommel,Gelderland,VBO,5.097155,51.820014
Burgemeester Posweg,16,,,5306GD,Brakel,Zaltbommel,Gelderland,VBO,5.096682,51.819995
Burgemeester Posweg,18,,,5306GD,Brakel,Zaltbommel,Gelderland,VBO,5.095196,51.820117
Burgemeester Posweg,20,,,5306GD,Brakel,Zaltbommel,Gelderland,VBO,5.094993,51.820126
Burgemeester Posweg,22,,,5306GD,Brakel,Zaltbommel,Gelderland,VBO,5.094631,51.820062
Burgemeester Posweg,24,,,5306GD,Brakel,Zaltbommel,Gelderland,VBO,5.094443,51.820053
Burgemeester Posweg,26,,,5306GD,Brakel,Zaltbommel,Gelderland,VBO,5.094429,51.819864
Burgemeester Posweg,30,,,5306GD,Brakel,Zaltbommel,Gelderland,VBO,5.094140,51.819827
Burgemeester Posweg,32,a,,5306GD,Brakel,Zaltbommel,Gelderland,VBO,5.093471,51.819978
Burgemeester Posweg,32,b,,5306GD,Brakel,Zaltbommel,Gelderland,VBO,5.092678,51.819248
Burgemeester Posweg,32,,,5306GD,Brakel,Zaltbommel,Gelderland,VBO,5.093937,51.819782
Burgemeester Posweg,34,a,,5306GE,Brakel,Zaltbommel,Gelderland,VBO,5.092564,51.819068
Burgemeester Posweg,34,,,5306GE,Brakel,Zaltbommel,Gelderland,VBO,5.092593,51.819068
Burgemeester Posweg,36,,,5306GE,Brakel,Zaltbommel,Gelderland,VBO,5.092594,51.818915
Burgemeester Posweg,38,,,5306GE,Brakel,Zaltbommel,Gelderland,VBO,5.092579,51.818852
Burgemeester Posweg,40,a,,5306GE,Brakel,Zaltbommel,Gelderland,VBO,5.092443,51.818749
Burgemeester Posweg,40,,,5306GE,Brakel,Zaltbommel,Gelderland,VBO,5.092395,51.818692
Burgemeester Posweg,42,,,5306GE,Brakel,Zaltbommel,Gelderland,VBO,5.092436,51.818555
Burgemeester Posweg,44,a,,5306GE,Brakel,Zaltbommel,Gelderland,VBO,5.092208,51.818503
Burgemeester Posweg,44,,,5306GE,Brakel,Zaltbommel,Gelderland,VBO,5.092158,51.818525
Burgemeester Posweg,46,a,,5306GE,Brakel,Zaltbommel,Gelderland,VBO,5.091783,51.818707
Burgemeester Posweg,46,b,,5306GE,Brakel,Zaltbommel,Gelderland,VBO,5.091539,51.818284
Burgemeester Posweg,46,c,,5306GE,Brakel,Zaltbommel,Gelderland,VBO,5.091989,51.818177
Burgemeester Posweg,46,d,,5306GE,Brakel,Zaltbommel,Gelderland,VBO,5.091949,51.818031
Burgemeester Posweg,46,,,5306GE,Brakel,Zaltbommel,Gelderland,VBO,5.092249,51.818357
Burgemeester Posweg,48,,,5306GE,Brakel,Zaltbommel,Gelderland,VBO,5.091846,51.817907
Burgemeester Posweg,50,,,5306GE,Brakel,Zaltbommel,Gelderland,VBO,5.091760,51.817817
Burgemeester Posweg,52,,,5306GE,Brakel,Zaltbommel,Gelderland,VBO,5.091659,51.817745
Burgemeester Posweg,54,,,5306GE,Brakel,Zaltbommel,Gelderland,VBO,5.091587,51.817663
Burgemeester Posweg,56,,,5306GE,Brakel,Zaltbommel,Gelderland,VBO,5.091558,51.817582
Burgemeester Posweg,58,,,5306GE,Brakel,Zaltbommel,Gelderland,VBO,5.091500,51.817519
Burgemeester Posweg,60,,,5306GE,Brakel,Zaltbommel,Gelderland,VBO,5.091443,51.817411
Burgemeester Posweg,64,,,5306GG,Brakel,Zaltbommel,Gelderland,VBO,5.091243,51.816952
Burgemeester Posweg,66,,,5306GG,Brakel,Zaltbommel,Gelderland,VBO,5.091316,51.816845
Burgemeester Posweg,68,,,5306GG,Brakel,Zaltbommel,Gelderland,VBO,5.091362,51.816530
Burgemeester Posweg,70,,,5306GG,Brakel,Zaltbommel,Gelderland,VBO,5.091262,51.816260
Burgemeester Posweg,72,,,5306GG,Brakel,Zaltbommel,Gelderland,VBO,5.091104,51.816035
Burgemeester Posweg,74,,,5306GG,Brakel,Zaltbommel,Gelderland,VBO,5.091004,51.815873
Burgemeester Posweg,76,,,5306GG,Brakel,Zaltbommel,Gelderland,VBO,5.090889,51.815693
Burgemeester Posweg,78,,,5306GG,Brakel,Zaltbommel,Gelderland,VBO,5.090803,51.815540
Burgemeester Posweg,80,a,,5306GG,Brakel,Zaltbommel,Gelderland,VBO,5.090643,51.815326
Burgemeester Posweg,80,,,5306GG,Brakel,Zaltbommel,Gelderland,VBO,5.090688,51.815387
Burgemeester Posweg,82,,,5306GG,Brakel,Zaltbommel,Gelderland,VBO,5.090544,51.815216
Burgemeester Posweg,84,,,5306GG,Brakel,Zaltbommel,Gelderland,VBO,5.090458,51.815045
Burgemeester Posweg,86,,,5306GG,Brakel,Zaltbommel,Gelderland,VBO,5.090343,51.814874
Burgemeester Posweg,88,,,5306GG,Brakel,Zaltbommel,Gelderland,VBO,5.090258,51.814604
Burgemeester Posweg,90,,,5306GG,Brakel,Zaltbommel,Gelderland,VBO,5.090273,51.814442
Burgemeester Posweg,92,,,5306GG,Brakel,Zaltbommel,Gelderland,VBO,5.090303,51.814317
Burgemeester Posweg,108,,,5306GG,Brakel,Zaltbommel,Gelderland,VBO,5.089091,51.811167
Burgemeester Posweg,110,,,5306GG,Brakel,Zaltbommel,Gelderland,VBO,5.088110,51.810536
Burgemeester Posweg,112,,,5306GG,Brakel,Zaltbommel,Gelderland,VBO,5.087594,51.809573
Burgemeester Posweg,114,,,5306GG,Brakel,Zaltbommel,Gelderland,VBO,5.087190,51.809275
Burgemeester Posweg,116,,,5306GG,Brakel,Zaltbommel,Gelderland,VBO,5.086806,51.808169
Burgemeester Posweg,118,a,,5306GG,Brakel,Zaltbommel,Gelderland,VBO,5.086325,51.807381
Burgemeester Posweg,118,,,5306GG,Brakel,Zaltbommel,Gelderland,VBO,5.086443,51.807116
Burgemeester Posweg,120,,,5306GG,Brakel,Zaltbommel,Gelderland,VBO,5.085364,51.806960
Burgemeester Posweg,124,,,5306GG,Brakel,Zaltbommel,Gelderland,VBO,5.085724,51.806201
Fintstraat,1,,,5306GH,Brakel,Zaltbommel,Gelderland,VBO,5.092825,51.816759
Fintstraat,2,,,5306GH,Brakel,Zaltbommel,Gelderland,VBO,5.092116,51.816550
Fintstraat,3,,,5306GH,Brakel,Zaltbommel,Gelderland,VBO,5.093028,51.816732
Fintstraat,4,,,5306GH,Brakel,Zaltbommel,Gelderland,VBO,5.092377,51.816524
Fintstraat,5,,,5306GH,Brakel,Zaltbommel,Gelderland,VBO,5.093145,51.816724
Fintstraat,6,,,5306GH,Brakel,Zaltbommel,Gelderland,VBO,5.092479,51.816515
Fintstraat,7,,,5306GH,Brakel,Zaltbommel,Gelderland,VBO,5.093275,51.816706
Fintstraat,8,,,5306GH,Brakel,Zaltbommel,Gelderland,VBO,5.092566,51.816506
Fintstraat,9,,,5306GH,Brakel,Zaltbommel,Gelderland,VBO,5.093391,51.816688
Fintstraat,10,,,5306GH,Brakel,Zaltbommel,Gelderland,VBO,5.092653,51.816498
Fintstraat,11,,,5306GH,Brakel,Zaltbommel,Gelderland,VBO,5.093522,51.816671
Fintstraat,12,,,5306GH,Brakel,Zaltbommel,Gelderland,VBO,5.092827,51.816516
Fintstraat,13,,,5306GH,Brakel,Zaltbommel,Gelderland,VBO,5.093638,51.816653
Fintstraat,14,,,5306GH,Brakel,Zaltbommel,Gelderland,VBO,5.092899,51.816507
Fintstraat,15,,,5306GH,Brakel,Zaltbommel,Gelderland,VBO,5.093740,51.816644
Fintstraat,16,,,5306GH,Brakel,Zaltbommel,Gelderland,VBO,5.093073,51.816508
Fintstraat,17,,,5306GH,Brakel,Zaltbommel,Gelderland,VBO,5.093827,51.816626
Fintstraat,18,,,5306GH,Brakel,Zaltbommel,Gelderland,VBO,5.093175,51.816490
Fintstraat,19,,,5306GH,Brakel,Zaltbommel,Gelderland,VBO,5.094015,51.816600
Fintstraat,20,,,5306GH,Brakel,Zaltbommel,Gelderland,VBO,5.093277,51.816481
Fintstraat,22,,,5306GH,Brakel,Zaltbommel,Gelderland,VBO,5.093349,51.816463
Fintstraat,24,,,5306GH,Brakel,Zaltbommel,Gelderland,VBO,5.093523,51.816446
Fintstraat,26,,,5306GH,Brakel,Zaltbommel,Gelderland,VBO,5.093712,51.816419
Fintstraat,28,,,5306GH,Brakel,Zaltbommel,Gelderland,VBO,5.093915,51.816393
Zalmstraat,1,a,,5306GJ,Brakel,Zaltbommel,Gelderland,VBO,5.092263,51.816218
Zalmstraat,1,,,5306GJ,Brakel,Zaltbommel,Gelderland,VBO,5.092016,51.816271
Zalmstraat,2,,,5306GJ,Brakel,Zaltbommel,Gelderland,VBO,5.091641,51.815947
Zalmstraat,3,,,5306GJ,Brakel,Zaltbommel,Gelderland,VBO,5.092394,51.816209
Zalmstraat,4,,,5306GJ,Brakel,Zaltbommel,Gelderland,VBO,5.092076,51.815957
Zalmstraat,5,,,5306GJ,Brakel,Zaltbommel,Gelderland,VBO,5.092553,51.816183
Zalmstraat,6,,,5306GJ,Brakel,Zaltbommel,Gelderland,VBO,5.092236,51.815948
Zalmstraat,7,,,5306GJ,Brakel,Zaltbommel,Gelderland,VBO,5.092669,51.816183
Zalmstraat,8,,,5306GJ,Brakel,Zaltbommel,Gelderland,VBO,5.092337,51.815940
Zalmstraat,9,,,5306GJ,Brakel,Zaltbommel,Gelderland,VBO,5.092829,51.816174
Zalmstraat,10,,,5306GJ,Brakel,Zaltbommel,Gelderland,VBO,5.092497,51.815922
Zalmstraat,11,,,5306GJ,Brakel,Zaltbommel,Gelderland,VBO,5.092945,51.816157
Zalmstraat,12,,,5306GJ,Brakel,Zaltbommel,Gelderland,VBO,5.092599,51.815904
Zalmstraat,13,,,5306GJ,Brakel,Zaltbommel,Gelderland,VBO,5.093163,51.816148
Zalmstraat,14,,,5306GJ,Brakel,Zaltbommel,Gelderland,VBO,5.092773,51.815896
Zalmstraat,15,,,5306GJ,Brakel,Zaltbommel,Gelderland,VBO,5.093468,51.816113
Zalmstraat,16,,,5306GJ,Brakel,Zaltbommel,Gelderland,VBO,5.092860,51.815896
Zalmstraat,18,,,5306GJ,Brakel,Zaltbommel,Gelderland,VBO,5.093048,51.815887
Zalmstraat,20,,,5306GJ,Brakel,Zaltbommel,Gelderland,VBO,5.093150,51.815870
Zalmstraat,22,,,5306GJ,Brakel,Zaltbommel,Gelderland,VBO,5.093310,51.815852
Zalmstraat,24,,,5306GJ,Brakel,Zaltbommel,Gelderland,VBO,5.093411,51.815843
Zalmstraat,26,,,5306GJ,Brakel,Zaltbommel,Gelderland,VBO,5.093585,51.815826
Zalmstraat,28,,,5306GJ,Brakel,Zaltbommel,Gelderland,VBO,5.093687,51.815817
Bevingweg,1,,,5306GK,Brakel,Zaltbommel,Gelderland,VBO,5.079230,51.800724
Bevingweg,3,,,5306GK,Brakel,Zaltbommel,Gelderland,VBO,5.073354,51.801248
Molenkamp,1,,,5306GL,Brakel,Zaltbommel,Gelderland,VBO,5.093334,51.814423
Molenkamp,3,,,5306GL,Brakel,Zaltbommel,Gelderland,VBO,5.093391,51.814522
Molenkamp,5,,,5306GL,Brakel,Zaltbommel,Gelderland,VBO,5.093346,51.814792
Molenkamp,7,,,5306GL,Brakel,Zaltbommel,Gelderland,VBO,5.093345,51.814846
Molenkamp,9,,,5306GL,Brakel,Zaltbommel,Gelderland,VBO,5.093330,51.814908
Molenkamp,11,,,5306GL,Brakel,Zaltbommel,Gelderland,VBO,5.093330,51.814962
Molenkamp,13,,,5306GL,Brakel,Zaltbommel,Gelderland,VBO,5.093228,51.815016
Molenkamp,15,,,5306GL,Brakel,Zaltbommel,Gelderland,VBO,5.093141,51.815034
Molenkamp,17,,,5306GL,Brakel,Zaltbommel,Gelderland,VBO,5.093068,51.815043
Molenkamp,19,,,5306GL,Brakel,Zaltbommel,Gelderland,VBO,5.092865,51.815096
Molenkamp,21,,,5306GL,Brakel,Zaltbommel,Gelderland,VBO,5.092575,51.815122
Molenkamp,23,,,5306GL,Brakel,Zaltbommel,Gelderland,VBO,5.092226,51.815220
Molenkamp,25,,,5306GL,Brakel,Zaltbommel,Gelderland,VBO,5.092126,51.814995
Molenkamp,27,,,5306GL,Brakel,Zaltbommel,Gelderland,VBO,5.092026,51.814815
Molenkamp,29,,,5306GL,Brakel,Zaltbommel,Gelderland,VBO,5.091954,51.814716
Molenkamp,31,,,5306GL,Brakel,Zaltbommel,Gelderland,VBO,5.092354,51.814637
Molenkamp,33,,,5306GL,Brakel,Zaltbommel,Gelderland,VBO,5.092375,51.814699
Molenkamp,35,,,5306GL,Brakel,Zaltbommel,Gelderland,VBO,5.092475,51.814852
Molenkamp,37,,,5306GL,Brakel,Zaltbommel,Gelderland,VBO,5.092717,51.814874
Molenkamp,39,,,5306GL,Brakel,Zaltbommel,Gelderland,VBO,5.092911,51.814781
Molenkamp,41,,,5306GL,Brakel,Zaltbommel,Gelderland,VBO,5.092984,51.814719
Molenkamp,43,,,5306GL,Brakel,Zaltbommel,Gelderland,VBO,5.092970,51.814584
Molenkamp,45,,,5306GL,Brakel,Zaltbommel,Gelderland,VBO,5.092956,51.814503
Molenkamp,2,a,,5306GM,Brakel,Zaltbommel,Gelderland,VBO,5.093669,51.813983
Molenkamp,2,b,,5306GM,Brakel,Zaltbommel,Gelderland,VBO,5.093717,51.814065
Molenkamp,2,,,5306GM,Brakel,Zaltbommel,Gelderland,VBO,5.093579,51.813991
Molenkamp,4,,,5306GM,Brakel,Zaltbommel,Gelderland,VBO,5.093696,51.814129
Molenkamp,6,,,5306GM,Brakel,Zaltbommel,Gelderland,VBO,5.093798,51.814415
Molenkamp,8,,,5306GM,Brakel,Zaltbommel,Gelderland,VBO,5.093870,51.814460
Molenkamp,10,c,,5306GM,Brakel,Zaltbommel,Gelderland,VBO,5.093716,51.815063
Molenkamp,10,,,5306GM,Brakel,Zaltbommel,Gelderland,VBO,5.093941,51.814604
Molenkamp,12,,,5306GM,Brakel,Zaltbommel,Gelderland,VBO,5.093371,51.815295
Molenkamp,14,,,5306GM,Brakel,Zaltbommel,Gelderland,VBO,5.093472,51.815466
Molenkamp,16,,,5306GM,Brakel,Zaltbommel,Gelderland,VBO,5.092950,51.815375
Molenkamp,18,,,5306GM,Brakel,Zaltbommel,Gelderland,VBO,5.092747,51.815401
Molenkamp,20,,,5306GM,Brakel,Zaltbommel,Gelderland,VBO,5.092515,51.815464
Molenkamp,22,,,5306GM,Brakel,Zaltbommel,Gelderland,VBO,5.092239,51.815508
Molenkamp,24,,,5306GM,Brakel,Zaltbommel,Gelderland,VBO,5.091547,51.814850
Koekoek,1,,,5306GN,Brakel,Zaltbommel,Gelderland,VBO,5.093814,51.815081
Koekoek,3,,,5306GN,Brakel,Zaltbommel,Gelderland,VBO,5.094041,51.815112
Koekoek,4,,,5306GN,Brakel,Zaltbommel,Gelderland,VBO,5.094564,51.814908
Koekoek,5,,,5306GN,Brakel,Zaltbommel,Gelderland,VBO,5.094136,51.815133
Koekoek,7,,,5306GN,Brakel,Zaltbommel,Gelderland,VBO,5.094353,51.815140
Koekoek,9,,,5306GN,Brakel,Zaltbommel,Gelderland,VBO,5.094448,51.815152
Koekoek,11,,,5306GN,Brakel,Zaltbommel,Gelderland,VBO,5.094676,51.815153
Koekoek,13,,,5306GN,Brakel,Zaltbommel,Gelderland,VBO,5.094762,51.815148
Koekoek,15,,,5306GN,Brakel,Zaltbommel,Gelderland,VBO,5.094852,51.815150
Koekoek,17,,,5306GN,Brakel,Zaltbommel,Gelderland,VBO,5.095316,51.815057
Koekoek,19,,,5306GN,Brakel,Zaltbommel,Gelderland,VBO,5.095388,51.815041
Koekoek,21,,,5306GN,Brakel,Zaltbommel,Gelderland,VBO,5.095469,51.815026
Koekoek,23,,,5306GN,Brakel,Zaltbommel,Gelderland,VBO,5.095639,51.814987
Koekoek,25,,,5306GN,Brakel,Zaltbommel,Gelderland,VBO,5.095717,51.814972
Bosuil,5,,,5306GP,Brakel,Zaltbommel,Gelderland,VBO,5.094941,51.815141
Bosuil,7,,,5306GP,Brakel,Zaltbommel,Gelderland,VBO,5.094899,51.815355
Bosuil,9,,,5306GP,Brakel,Zaltbommel,Gelderland,VBO,5.094921,51.815426
Bosuil,11,,,5306GP,Brakel,Zaltbommel,Gelderland,VBO,5.094904,51.815648
Bosuil,13,,,5306GP,Brakel,Zaltbommel,Gelderland,VBO,5.095171,51.815752
Bosuil,15,,,5306GP,Brakel,Zaltbommel,Gelderland,VBO,5.095413,51.815758
Bosuil,17,,,5306GP,Brakel,Zaltbommel,Gelderland,VBO,5.095733,51.815696
Bosuil,19,,,5306GP,Brakel,Zaltbommel,Gelderland,VBO,5.096038,51.815643
Bosuil,21,,,5306GP,Brakel,Zaltbommel,Gelderland,VBO,5.096343,51.815545
Bosuil,23,,,5306GP,Brakel,Zaltbommel,Gelderland,VBO,5.096313,51.815333
Bosuil,25,,,5306GP,Brakel,Zaltbommel,Gelderland,VBO,5.096253,51.815179
Bosuil,27,,,5306GP,Brakel,Zaltbommel,Gelderland,VBO,5.096149,51.814983
Bosuil,4,,,5306GR,Brakel,Zaltbommel,Gelderland,VBO,5.095262,51.815270
Bosuil,6,,,5306GR,Brakel,Zaltbommel,Gelderland,VBO,5.095278,51.815463
Bosuil,8,,,5306GR,Brakel,Zaltbommel,Gelderland,VBO,5.095489,51.815480
Bosuil,10,,,5306GR,Brakel,Zaltbommel,Gelderland,VBO,5.095694,51.815441
Bosuil,12,,,5306GR,Brakel,Zaltbommel,Gelderland,VBO,5.095917,51.815390
Bosuil,14,,,5306GR,Brakel,Zaltbommel,Gelderland,VBO,5.095833,51.815178
Bosuil,16,,,5306GR,Brakel,Zaltbommel,Gelderland,VBO,5.095791,51.814956
Groenling,1,,,5306GS,Brakel,Zaltbommel,Gelderland,VBO,5.095157,51.814150
Groenling,2,,,5306GS,Brakel,Zaltbommel,Gelderland,VBO,5.093823,51.814123
Groenling,3,,,5306GS,Brakel,Zaltbommel,Gelderland,VBO,5.095253,51.814239
Groenling,4,,,5306GS,Brakel,Zaltbommel,Gelderland,VBO,5.094024,51.814107
Groenling,5,,,5306GS,Brakel,Zaltbommel,Gelderland,VBO,5.095350,51.814328
Groenling,6,,,5306GS,Brakel,Zaltbommel,Gelderland,VBO,5.094119,51.814087
Groenling,7,,,5306GS,Brakel,Zaltbommel,Gelderland,VBO,5.095501,51.814529
Groenling,8,,,5306GS,Brakel,Zaltbommel,Gelderland,VBO,5.094233,51.814050
Groenling,10,,,5306GS,Brakel,Zaltbommel,Gelderland,VBO,5.094516,51.814042
Groenling,12,,,5306GS,Brakel,Zaltbommel,Gelderland,VBO,5.094697,51.813939
Groenling,14,,,5306GS,Brakel,Zaltbommel,Gelderland,VBO,5.094719,51.813728
Groenling,16,,,5306GS,Brakel,Zaltbommel,Gelderland,VBO,5.094922,51.813881
Groenling,22,,,5306GS,Brakel,Zaltbommel,Gelderland,VBO,5.093818,51.814091
Groenling,24,,,5306GS,Brakel,Zaltbommel,Gelderland,VBO,5.093878,51.814086
Groenling,26,,,5306GS,Brakel,Zaltbommel,Gelderland,VBO,5.093992,51.814058
Groenling,28,,,5306GS,Brakel,Zaltbommel,Gelderland,VBO,5.094094,51.814041
Groenling,30,,,5306GS,Brakel,Zaltbommel,Gelderland,VBO,5.094209,51.814014
Groenling,32,,,5306GS,Brakel,Zaltbommel,Gelderland,VBO,5.094406,51.814034
Groenling,34,,,5306GS,Brakel,Zaltbommel,Gelderland,VBO,5.094525,51.813996
Groenling,36,,,5306GS,Brakel,Zaltbommel,Gelderland,VBO,5.094668,51.813891
Groenling,38,,,5306GS,Brakel,Zaltbommel,Gelderland,VBO,5.094739,51.813761
Groenling,40,,,5306GS,Brakel,Zaltbommel,Gelderland,VBO,5.094913,51.813835
Groenling,42,,,5306GS,Brakel,Zaltbommel,Gelderland,VBO,5.094755,51.813794
Groenling,44,,,5306GS,Brakel,Zaltbommel,Gelderland,VBO,5.095699,51.814040
Groenling,46,,,5306GS,Brakel,Zaltbommel,Gelderland,VBO,5.095772,51.814224
Groenling,48,,,5306GS,Brakel,Zaltbommel,Gelderland,VBO,5.095863,51.814390
Groenling,50,,,5306GS,Brakel,Zaltbommel,Gelderland,VBO,5.095958,51.814558
Bonte Specht,1,,,5306GT,Brakel,Zaltbommel,Gelderland,VBO,5.094394,51.814318
Bonte Specht,2,,,5306GT,Brakel,Zaltbommel,Gelderland,VBO,5.094808,51.814220
Bonte Specht,3,,,5306GT,Brakel,Zaltbommel,Gelderland,VBO,5.094414,51.814373
Bonte Specht,4,,,5306GT,Brakel,Zaltbommel,Gelderland,VBO,5.094864,51.814317
Bonte Specht,5,,,5306GT,Brakel,Zaltbommel,Gelderland,VBO,5.094439,51.814428
Bonte Specht,6,,,5306GT,Brakel,Zaltbommel,Gelderland,VBO,5.094913,51.814433
Bonte Specht,7,,,5306GT,Brakel,Zaltbommel,Gelderland,VBO,5.094463,51.814466
Bonte Specht,8,,,5306GT,Brakel,Zaltbommel,Gelderland,VBO,5.094949,51.814592
Bonte Specht,9,,,5306GT,Brakel,Zaltbommel,Gelderland,VBO,5.094488,51.814512
Bonte Specht,11,,,5306GT,Brakel,Zaltbommel,Gelderland,VBO,5.094631,51.814669
Bonte Specht,13,,,5306GT,Brakel,Zaltbommel,Gelderland,VBO,5.094544,51.814704
Bonte Specht,15,,,5306GT,Brakel,Zaltbommel,Gelderland,VBO,5.094559,51.814758
Bonte Specht,17,,,5306GT,Brakel,Zaltbommel,Gelderland,VBO,5.094556,51.814806
Bonte Specht,19,,,5306GT,Brakel,Zaltbommel,Gelderland,VBO,5.094560,51.814856
Langekamp,5,,,5306GV,Brakel,Zaltbommel,Gelderland,VBO,5.083363,51.807377
Langekamp,6,,,5306GV,Brakel,Zaltbommel,Gelderland,VBO,5.083803,51.807722
Langekamp,8,,,5306GV,Brakel,Zaltbommel,Gelderland,VBO,5.083236,51.808413
Langekamp,9,,,5306GV,Brakel,Zaltbommel,Gelderland,VBO,5.082124,51.808117
Langekamp,14,,,5306GV,Brakel,Zaltbommel,Gelderland,VBO,5.084394,51.809224
Langekamp,15,,,5306GV,Brakel,Zaltbommel,Gelderland,VBO,5.082311,51.808667
Langekamp,16,,,5306GV,Brakel,Zaltbommel,Gelderland,VBO,5.084085,51.809547
Langekamp,22,,,5306GV,Brakel,Zaltbommel,Gelderland,VBO,5.082023,51.809796
Langekamp,24,,,5306GV,Brakel,Zaltbommel,Gelderland,VBO,5.081671,51.809356
Langekamp,26,,,5306GV,Brakel,Zaltbommel,Gelderland,VBO,5.081136,51.809349
IJsvogel,2,,,5306GW,Brakel,Zaltbommel,Gelderland,VBO,5.094999,51.814578
IJsvogel,4,,,5306GW,Brakel,Zaltbommel,Gelderland,VBO,5.095053,51.814565
IJsvogel,6,,,5306GW,Brakel,Zaltbommel,Gelderland,VBO,5.095171,51.814577
IJsvogel,8,,,5306GW,Brakel,Zaltbommel,Gelderland,VBO,5.095349,51.814547
IJsvogel,10,,,5306GW,Brakel,Zaltbommel,Gelderland,VBO,5.095423,51.814543
Verdrietweg,1,,,5306HB,Brakel,Zaltbommel,Gelderland,VBO,5.089138,51.799743
Verdrietweg,2,,,5306HB,Brakel,Zaltbommel,Gelderland,VBO,5.089551,51.798729
Verdrietweg,3,,,5306HB,Brakel,Zaltbommel,Gelderland,VBO,5.095567,51.798663
Verdrietweg,4,,,5306HB,Brakel,Zaltbommel,Gelderland,VBO,5.088274,51.798815
Van Heemstraweg,1,,,5306TA,Brakel,Zaltbommel,Gelderland,VBO,5.090480,51.803655
Van Heemstraweg,2,a,,5306TA,Brakel,Zaltbommel,Gelderland,VBO,5.077755,51.804325
Van Heemstraweg,2,b,,5306TA,Brakel,Zaltbommel,Gelderland,VBO,5.080815,51.805021
Van Heemstraweg,2,,,5306TA,Brakel,Zaltbommel,Gelderland,VBO,5.078176,51.804245
Van Heemstraweg,4,,,5306TA,Brakel,Zaltbommel,Gelderland,VBO,5.075135,51.803752
Van Heemstraweg,6,,,5306TA,Brakel,Zaltbommel,Gelderland,VBO,5.070662,51.802643
Van Heemstraweg,8,,,5306TA,Brakel,Zaltbommel,Gelderland,VBO,5.066495,51.801508
Nieuwendijk,5,,,5306TB,Brakel,Zaltbommel,Gelderland,VBO,5.061348,51.799553
Nieuwendijk,7,,,5306TB,Brakel,Zaltbommel,Gelderland,VBO,5.062659,51.799121
Langerakseweg,2,,,5306TC,Brakel,Zaltbommel,Gelderland,VBO,5.084107,51.806256
Langerakseweg,4,,,5306TC,Brakel,Zaltbommel,Gelderland,VBO,5.082295,51.806230
Prinkweg,1,,,5306TJ,Brakel,Zaltbommel,Gelderland,VBO,5.070930,51.812082
Prinkweg,3,,,5306TJ,Brakel,Zaltbommel,Gelderland,VBO,5.070741,51.812081
Leuvensveldseweg,1,a,,5306TK,Brakel,Zaltbommel,Gelderland,VBO,5.076392,51.814892
Leuvensveldseweg,1,b,,5306TK,Brakel,Zaltbommel,Gelderland,VBO,5.079013,51.816512
Leuvensveldseweg,1,,,5306TK,Brakel,Zaltbommel,Gelderland,VBO,5.080204,51.817383
Leuvensveldseweg,2,a,,5306TK,Brakel,Zaltbommel,Gelderland,VBO,5.074808,51.814648
Leuvensveldseweg,2,,,5306TK,Brakel,Zaltbommel,Gelderland,VBO,5.072301,51.813038
Leuvensveldseweg,3,,,5306TK,Brakel,Zaltbommel,Gelderland,VBO,5.073302,51.812915
Waarddijk,2,,,5306TL,Brakel,Zaltbommel,Gelderland,VBO,5.073320,51.820753
Waarddijk,3,,,5306TL,Brakel,Zaltbommel,Gelderland,VBO,5.081498,51.822753
Engsteeg,2,a,,5306TM,Brakel,Zaltbommel,Gelderland,VBO,5.077840,51.821661
Engsteeg,2,,,5306TM,Brakel,Zaltbommel,Gelderland,VBO,5.077143,51.821716
Engsteeg,4,,,5306TM,Brakel,Zaltbommel,Gelderland,VBO,5.080604,51.818220
Molenkampsweg,3,,,5306VN,Brakel,Zaltbommel,Gelderland,VBO,5.092625,51.814179
Molenkampsweg,9,,,5306VN,Brakel,Zaltbommel,Gelderland,VBO,5.095310,51.813781
Molenkampsweg,13,,,5306VN,Brakel,Zaltbommel,Gelderland,VBO,5.102522,51.812731
Molenkampsweg,15,a,,5306VN,Brakel,Zaltbommel,Gelderland,VBO,5.104753,51.811125
Molenkampsweg,15,b,,5306VN,Brakel,Zaltbommel,Gelderland,VBO,5.105399,51.811580
Molenkampsweg,15,,,5306VN,Brakel,Zaltbommel,Gelderland,VBO,5.103750,51.811518
Molenkampsweg,17,,,5306VN,Brakel,Zaltbommel,Gelderland,VBO,5.109922,51.809960
Molenkampsweg,19,a,,5306VN,Brakel,Zaltbommel,Gelderland,VBO,5.110808,51.809774
Molenkampsweg,19,,,5306VN,Brakel,Zaltbommel,Gelderland,VBO,5.110416,51.809835
Molenkampsweg,21,,,5306VN,Brakel,Zaltbommel,Gelderland,VBO,5.111810,51.809560
Molenkampsweg,23,,,5306VN,Brakel,Zaltbommel,Gelderland,VBO,5.112725,51.809248
Molenkampsweg,25,a,,5306VN,Brakel,Zaltbommel,Gelderland,VBO,5.114236,51.808730
Molenkampsweg,25,,,5306VN,Brakel,Zaltbommel,Gelderland,VBO,5.113554,51.808944
Molenkampsweg,27,,,5306VN,Brakel,Zaltbommel,Gelderland,VBO,5.115763,51.808005
Molenkampsweg,29,,,5306VN,Brakel,Zaltbommel,Gelderland,VBO,5.116461,51.807719
Molenkampsweg,31,,,5306VN,Brakel,Zaltbommel,Gelderland,VBO,5.116839,51.807585
Molenkampsweg,33,,,5306VN,Brakel,Zaltbommel,Gelderland,VBO,5.117493,51.807317
Molenkampsweg,35,,,5306VN,Brakel,Zaltbommel,Gelderland,VBO,5.118408,51.807032
Molenkampsweg,37,,,5306VN,Brakel,Zaltbommel,Gelderland,VBO,5.119498,51.806702
Molenkampsweg,39,,,5306VN,Brakel,Zaltbommel,Gelderland,VBO,5.120006,51.806541
Molenkampsweg,2,a,,5306VP,Brakel,Zaltbommel,Gelderland,VBO,5.092815,51.813691
Molenkampsweg,2,,,5306VP,Brakel,Zaltbommel,Gelderland,VBO,5.094428,51.813374
Molenkampsweg,10,,,5306VP,Brakel,Zaltbommel,Gelderland,VBO,5.096390,51.813085
Molenkampsweg,12,a,,5306VP,Brakel,Zaltbommel,Gelderland,VBO,5.100382,51.812089
Molenkampsweg,12,,,5306VP,Brakel,Zaltbommel,Gelderland,VBO,5.100763,51.811858
Molenkampsweg,14,,,5306VP,Brakel,Zaltbommel,Gelderland,VBO,5.104210,51.810793
Molenkampsweg,16,,,5306VP,Brakel,Zaltbommel,Gelderland,VBO,5.104911,51.810495
Molenkampsweg,20,,,5306VP,Brakel,Zaltbommel,Gelderland,VBO,5.109708,51.809501
Molenkampsweg,22,,,5306VP,Brakel,Zaltbommel,Gelderland,VBO,5.110842,51.808884
Molenkampsweg,24,,,5306VP,Brakel,Zaltbommel,Gelderland,VBO,5.113935,51.808181
Molenkampsweg,26,,,5306VP,Brakel,Zaltbommel,Gelderland,VBO,5.114401,51.807948
Molenkampsweg,28,,,5306VP,Brakel,Zaltbommel,Gelderland,VBO,5.115956,51.807269
Molenkampsweg,30,,,5306VP,Brakel,Zaltbommel,Gelderland,VBO,5.116755,51.807100
Molenkampsweg,32,,,5306VP,Brakel,Zaltbommel,Gelderland,VBO,5.117409,51.806886
Molenkampsweg,34,,,5306VP,Brakel,Zaltbommel,Gelderland,VBO,5.117874,51.806716
Kooiweg,1,a,,5306VT,Brakel,Zaltbommel,Gelderland,VBO,5.112811,51.804610
Kooiweg,1,b,,5306VT,Brakel,Zaltbommel,Gelderland,VBO,5.115856,51.804671
Kooiweg,1,,,5306VT,Brakel,Zaltbommel,Gelderland,VBO,5.113263,51.804206
Kooiweg,2,a,,5306VT,Brakel,Zaltbommel,Gelderland,VBO,5.096404,51.808174
Kooiweg,2,b,,5306VT,Brakel,Zaltbommel,Gelderland,VBO,5.096828,51.808801
Kooiweg,2,c,,5306VT,Brakel,Zaltbommel,Gelderland,VBO,5.091482,51.810363
Kooiweg,2,,,5306VT,Brakel,Zaltbommel,Gelderland,VBO,5.109621,51.804728
Kooiweg,3,,,5306VT,Brakel,Zaltbommel,Gelderland,VBO,5.111186,51.804912
Kooiweg,5,,,5306VT,Brakel,Zaltbommel,Gelderland,VBO,5.108170,51.805739
Kooiweg,6,,,5306VT,Brakel,Zaltbommel,Gelderland,VBO,5.118615,51.806367
Kooiweg,7,,,5306VT,Brakel,Zaltbommel,Gelderland,VBO,5.107069,51.807041
Kooiweg,9,,,5306VT,Brakel,Zaltbommel,Gelderland,VBO,5.104780,51.806802
Kooiweg,11,,,5306VT,Brakel,Zaltbommel,Gelderland,VBO,5.099242,51.808560
Kooiweg,19,,,5306VT,Brakel,Zaltbommel,Gelderland,VBO,5.091020,51.811127
Wilhelminalaan,1,,,5306XA,Brakel,Zaltbommel,Gelderland,VBO,5.090367,51.816595
Wilhelminalaan,3,,,5306XA,Brakel,Zaltbommel,Gelderland,VBO,5.090297,51.816651
Wilhelminalaan,5,,,5306XA,Brakel,Zaltbommel,Gelderland,VBO,5.090132,51.816695
Wilhelminalaan,7,,,5306XA,Brakel,Zaltbommel,Gelderland,VBO,5.090043,51.816719
Wilhelminalaan,9,,,5306XA,Brakel,Zaltbommel,Gelderland,VBO,5.089662,51.816907
Wilhelminalaan,11,,,5306XA,Brakel,Zaltbommel,Gelderland,VBO,5.089456,51.816949
Wilhelminalaan,13,,,5306XA,Brakel,Zaltbommel,Gelderland,VBO,5.089313,51.816974
Wilhelminalaan,15,,,5306XA,Brakel,Zaltbommel,Gelderland,VBO,5.089161,51.817003
Wilhelminalaan,17,,,5306XA,Brakel,Zaltbommel,Gelderland,VBO,5.088944,51.817054
Wilhelminalaan,19,,,5306XA,Brakel,Zaltbommel,Gelderland,VBO,5.088785,51.817083
Wilhelminalaan,21,,,5306XA,Brakel,Zaltbommel,Gelderland,VBO,5.088645,51.817098
Wilhelminalaan,23,,,5306XA,Brakel,Zaltbommel,Gelderland,VBO,5.088488,51.817108
Wilhelminalaan,25,,,5306XA,Brakel,Zaltbommel,Gelderland,VBO,5.089550,51.816926
Wilhelminalaan,27,,,5306XA,Brakel,Zaltbommel,Gelderland,VBO,5.089389,51.816967
Wilhelminalaan,29,,,5306XA,Brakel,Zaltbommel,Gelderland,VBO,5.089248,51.816998
Wilhelminalaan,31,,,5306XA,Brakel,Zaltbommel,Gelderland,VBO,5.089078,51.817021
Wilhelminalaan,33,,,5306XA,Brakel,Zaltbommel,Gelderland,VBO,5.088881,51.817052
Wilhelminalaan,35,,,5306XA,Brakel,Zaltbommel,Gelderland,VBO,5.088711,51.817074
Wilhelminalaan,37,,,5306XA,Brakel,Zaltbommel,Gelderland,VBO,5.088571,51.817094
Wilhelminalaan,39,,,5306XA,Brakel,Zaltbommel,Gelderland,VBO,5.088445,51.817093
Wilhelminalaan,41,,,5306XA,Brakel,Zaltbommel,Gelderland,VBO,5.089582,51.816875
Wilhelminalaan,43,,,5306XA,Brakel,Zaltbommel,Gelderland,VBO,5.089391,51.816913
Wilhelminalaan,45,,,5306XA,Brakel,Zaltbommel,Gelderland,VBO,5.089248,51.816946
Wilhelminalaan,47,,,5306XA,Brakel,Zaltbommel,Gelderland,VBO,5.089093,51.816977
Wilhelminalaan,49,,,5306XA,Brakel,Zaltbommel,Gelderland,VBO,5.088890,51.817015
Wilhelminalaan,51,,,5306XA,Brakel,Zaltbommel,Gelderland,VBO,5.088729,51.817043
Wilhelminalaan,53,,,5306XA,Brakel,Zaltbommel,Gelderland,VBO,5.088601,51.817059
Wilhelminalaan,55,,,5306XA,Brakel,Zaltbommel,Gelderland,VBO,5.088502,51.817040
Wilhelminalaan,57,,,5306XA,Brakel,Zaltbommel,Gelderland,VBO,5.088058,51.817190
Wilhelminalaan,59,,,5306XA,Brakel,Zaltbommel,Gelderland,VBO,5.087946,51.817247
Wilhelminalaan,61,,,5306XA,Brakel,Zaltbommel,Gelderland,VBO,5.087816,51.817292
Wilhelminalaan,63,,,5306XA,Brakel,Zaltbommel,Gelderland,VBO,5.087704,51.817345
Wilhelminalaan,65,,,5306XA,Brakel,Zaltbommel,Gelderland,VBO,5.088105,51.817168
Wilhelminalaan,67,,,5306XA,Brakel,Zaltbommel,Gelderland,VBO,5.087961,51.817210
Wilhelminalaan,69,,,5306XA,Brakel,Zaltbommel,Gelderland,VBO,5.087817,51.817252
Wilhelminalaan,71,,,5306XA,Brakel,Zaltbommel,Gelderland,VBO,5.087683,51.817307
Wilhelminalaan,73,,,5306XA,Brakel,Zaltbommel,Gelderland,VBO,5.088029,51.817156
Wilhelminalaan,75,,,5306XA,Brakel,Zaltbommel,Gelderland,VBO,5.087885,51.817198
Wilhelminalaan,77,,,5306XA,Brakel,Zaltbommel,Gelderland,VBO,5.087737,51.817251
Wilhelminalaan,79,,,5306XA,Brakel,Zaltbommel,Gelderland,VBO,5.087604,51.817305
Wilhelminalaan,81,,,5306XA,Brakel,Zaltbommel,Gelderland,VBO,5.087310,51.817455
Wilhelminalaan,83,,,5306XA,Brakel,Zaltbommel,Gelderland,VBO,5.087193,51.817544
Wilhelminalaan,85,,,5306XA,Brakel,Zaltbommel,Gelderland,VBO,5.086945,51.817715
Wilhelminalaan,87,,,5306XA,Brakel,Zaltbommel,Gelderland,VBO,5.086799,51.817885
Wilhelminalaan,89,,,5306XA,Brakel,Zaltbommel,Gelderland,VBO,5.086711,51.818047
Wilhelminalaan,91,,,5306XA,Brakel,Zaltbommel,Gelderland,VBO,5.086623,51.818181
Wilhelminalaan,93,,,5306XA,Brakel,Zaltbommel,Gelderland,VBO,5.086564,51.818334
Wilhelminalaan,95,,,5306XA,Brakel,Zaltbommel,Gelderland,VBO,5.086491,51.818441
Wilhelminalaan,97,,,5306XA,Brakel,Zaltbommel,Gelderland,VBO,5.086418,51.818477
Wilhelminalaan,99,,,5306XA,Brakel,Zaltbommel,Gelderland,VBO,5.086345,51.818576
Wilhelminalaan,2,a,,5306XC,Brakel,Zaltbommel,Gelderland,VBO,5.090533,51.816933
Wilhelminalaan,2,b,,5306XC,Brakel,Zaltbommel,Gelderland,VBO,5.090877,51.816853
Wilhelminalaan,2,,,5306XC,Brakel,Zaltbommel,Gelderland,VBO,5.090562,51.816861
Wilhelminalaan,4,a,,5306XC,Brakel,Zaltbommel,Gelderland,VBO,5.090376,51.816979
Wilhelminalaan,4,,,5306XC,Brakel,Zaltbommel,Gelderland,VBO,5.090337,51.816949
Wilhelminalaan,6,a,,5306XC,Brakel,Zaltbommel,Gelderland,VBO,5.090405,51.817011
Wilhelminalaan,6,b,,5306XC,Brakel,Zaltbommel,Gelderland,VBO,5.090242,51.817004
Wilhelminalaan,6,c,,5306XC,Brakel,Zaltbommel,Gelderland,VBO,5.090271,51.817031
Wilhelminalaan,6,,,5306XC,Brakel,Zaltbommel,Gelderland,VBO,5.090228,51.816977
Wilhelminalaan,8,,,5306XC,Brakel,Zaltbommel,Gelderland,VBO,5.089966,51.817066
Wilhelminalaan,10,,,5306XC,Brakel,Zaltbommel,Gelderland,VBO,5.089850,51.817111
Wilhelminalaan,12,,,5306XC,Brakel,Zaltbommel,Gelderland,VBO,5.089690,51.817155
Wilhelminalaan,14,,,5306XC,Brakel,Zaltbommel,Gelderland,VBO,5.089588,51.817173
Wilhelminalaan,16,,,5306XC,Brakel,Zaltbommel,Gelderland,VBO,5.089414,51.817209
Wilhelminalaan,18,,,5306XC,Brakel,Zaltbommel,Gelderland,VBO,5.089327,51.817226
Wilhelminalaan,20,,,5306XC,Brakel,Zaltbommel,Gelderland,VBO,5.089153,51.817253
Wilhelminalaan,22,,,5306XC,Brakel,Zaltbommel,Gelderland,VBO,5.089051,51.817262
Wilhelminalaan,24,,,5306XC,Brakel,Zaltbommel,Gelderland,VBO,5.088877,51.817297
Wilhelminalaan,26,,,5306XC,Brakel,Zaltbommel,Gelderland,VBO,5.088775,51.817306
Wilhelminalaan,28,,,5306XC,Brakel,Zaltbommel,Gelderland,VBO,5.088630,51.817323
Wilhelminalaan,30,,,5306XC,Brakel,Zaltbommel,Gelderland,VBO,5.088514,51.817341
Wilhelminalaan,32,,,5306XC,Brakel,Zaltbommel,Gelderland,VBO,5.088383,51.817368
Wilhelminalaan,34,,,5306XC,Brakel,Zaltbommel,Gelderland,VBO,5.088296,51.817394
Wilhelminalaan,40,,,5306XD,Brakel,Zaltbommel,Gelderland,VBO,5.087902,51.817556
Wilhelminalaan,42,,,5306XD,Brakel,Zaltbommel,Gelderland,VBO,5.087789,51.817624
Wilhelminalaan,44,,,5306XD,Brakel,Zaltbommel,Gelderland,VBO,5.087643,51.817693
Wilhelminalaan,46,,,5306XD,Brakel,Zaltbommel,Gelderland,VBO,5.087564,51.817734
Wilhelminalaan,48,,,5306XD,Brakel,Zaltbommel,Gelderland,VBO,5.087450,51.817805
Wilhelminalaan,50,,,5306XD,Brakel,Zaltbommel,Gelderland,VBO,5.087373,51.817870
Wilhelminalaan,56,,,5306XD,Brakel,Zaltbommel,Gelderland,VBO,5.087160,51.818138
Wilhelminalaan,58,,,5306XD,Brakel,Zaltbommel,Gelderland,VBO,5.087217,51.818264
Wilhelminalaan,60,,,5306XD,Brakel,Zaltbommel,Gelderland,VBO,5.087333,51.818309
Wilhelminalaan,62,,,5306XD,Brakel,Zaltbommel,Gelderland,VBO,5.087478,51.818345
Wilhelminalaan,64,,,5306XD,Brakel,Zaltbommel,Gelderland,VBO,5.087593,51.818390
Wilhelminalaan,66,,,5306XD,Brakel,Zaltbommel,Gelderland,VBO,5.086940,51.818452
Wilhelminalaan,68,,,5306XD,Brakel,Zaltbommel,Gelderland,VBO,5.086809,51.818577
Wilhelminalaan,70,,,5306XD,Brakel,Zaltbommel,Gelderland,VBO,5.086678,51.818694
Kastanjestraat,15,,,5306XE,Brakel,Zaltbommel,Gelderland,VBO,5.089884,51.816487
Kastanjestraat,17,,,5306XE,Brakel,Zaltbommel,Gelderland,VBO,5.089883,51.816437
Kastanjestraat,19,,,5306XE,Brakel,Zaltbommel,Gelderland,VBO,5.089816,51.816397
Kastanjestraat,21,,,5306XE,Brakel,Zaltbommel,Gelderland,VBO,5.089783,51.816293
Kastanjestraat,23,,,5306XE,Brakel,Zaltbommel,Gelderland,VBO,5.089754,51.816212
Kastanjestraat,25,,,5306XE,Brakel,Zaltbommel,Gelderland,VBO,5.089682,51.816212
Kastanjestraat,27,,,5306XE,Brakel,Zaltbommel,Gelderland,VBO,5.089634,51.816154
Kastanjestraat,29,,,5306XE,Brakel,Zaltbommel,Gelderland,VBO,5.089610,51.816032
Kastanjestraat,31,,,5306XE,Brakel,Zaltbommel,Gelderland,VBO,5.089518,51.816000
Kastanjestraat,33,,,5306XE,Brakel,Zaltbommel,Gelderland,VBO,5.089485,51.815954
Kastanjestraat,35,,,5306XE,Brakel,Zaltbommel,Gelderland,VBO,5.088791,51.814960
Kastanjestraat,37,,,5306XE,Brakel,Zaltbommel,Gelderland,VBO,5.088733,51.814888
Kastanjestraat,39,,,5306XE,Brakel,Zaltbommel,Gelderland,VBO,5.088589,51.814816
Kastanjestraat,41,,,5306XE,Brakel,Zaltbommel,Gelderland,VBO,5.088517,51.814734
Kastanjestraat,45,,,5306XE,Brakel,Zaltbommel,Gelderland,VBO,5.088301,51.814536
Kastanjestraat,2,,,5306XG,Brakel,Zaltbommel,Gelderland,VBO,5.089383,51.816369
Kastanjestraat,4,,,5306XG,Brakel,Zaltbommel,Gelderland,VBO,5.089551,51.816625
Kastanjestraat,6,,,5306XG,Brakel,Zaltbommel,Gelderland,VBO,5.089554,51.816696
Kastanjestraat,8,,,5306XG,Brakel,Zaltbommel,Gelderland,VBO,5.089492,51.816598
Kastanjestraat,10,,,5306XG,Brakel,Zaltbommel,Gelderland,VBO,5.089442,51.816511
Kastanjestraat,12,,,5306XG,Brakel,Zaltbommel,Gelderland,VBO,5.089386,51.816415
Kastanjestraat,14,,,5306XG,Brakel,Zaltbommel,Gelderland,VBO,5.089545,51.816738
Kastanjestraat,16,a,,5306XG,Brakel,Zaltbommel,Gelderland,VBO,5.089405,51.816530
Kastanjestraat,16,b,,5306XG,Brakel,Zaltbommel,Gelderland,VBO,5.089329,51.816444
Kastanjestraat,16,,,5306XG,Brakel,Zaltbommel,Gelderland,VBO,5.089474,51.816640
Kastanjestraat,18,,,5306XG,Brakel,Zaltbommel,Gelderland,VBO,5.088296,51.815201
Kastanjestraat,20,,,5306XG,Brakel,Zaltbommel,Gelderland,VBO,5.088238,51.815156
Kastanjestraat,22,,,5306XG,Brakel,Zaltbommel,Gelderland,VBO,5.088152,51.815066
Kastanjestraat,24,,,5306XG,Brakel,Zaltbommel,Gelderland,VBO,5.088080,51.815021
Kastanjestraat,26,,,5306XG,Brakel,Zaltbommel,Gelderland,VBO,5.087993,51.814922
Kastanjestraat,28,,,5306XG,Brakel,Zaltbommel,Gelderland,VBO,5.087950,51.814868
Beukenstraat,1,,,5306XH,Brakel,Zaltbommel,Gelderland,VBO,5.086973,51.815746
Beukenstraat,2,,,5306XH,Brakel,Zaltbommel,Gelderland,VBO,5.087705,51.816908
Beukenstraat,3,,,5306XH,Brakel,Zaltbommel,Gelderland,VBO,5.086944,51.815692
Beukenstraat,4,,,5306XH,Brakel,Zaltbommel,Gelderland,VBO,5.087661,51.816872
Beukenstraat,5,,,5306XH,Brakel,Zaltbommel,Gelderland,VBO,5.086858,51.815602
Beukenstraat,6,,,5306XH,Brakel,Zaltbommel,Gelderland,VBO,5.087604,51.816826
Beukenstraat,7,,,5306XH,Brakel,Zaltbommel,Gelderland,VBO,5.086800,51.815548
Beukenstraat,8,,,5306XH,Brakel,Zaltbommel,Gelderland,VBO,5.087546,51.816781
Beukenstraat,9,,,5306XH,Brakel,Zaltbommel,Gelderland,VBO,5.086714,51.815467
Beukenstraat,10,,,5306XH,Brakel,Zaltbommel,Gelderland,VBO,5.087445,51.816709
Beukenstraat,11,,,5306XH,Brakel,Zaltbommel,Gelderland,VBO,5.086670,51.815422
Beukenstraat,12,,,5306XH,Brakel,Zaltbommel,Gelderland,VBO,5.087387,51.816664
Beukenstraat,14,,,5306XH,Brakel,Zaltbommel,Gelderland,VBO,5.087330,51.816619
Beukenstraat,16,,,5306XH,Brakel,Zaltbommel,Gelderland,VBO,5.086435,51.815925
Beukenstraat,18,,,5306XH,Brakel,Zaltbommel,Gelderland,VBO,5.086377,51.815888
Beukenstraat,20,,,5306XH,Brakel,Zaltbommel,Gelderland,VBO,5.086262,51.815825
Beukenstraat,22,,,5306XH,Brakel,Zaltbommel,Gelderland,VBO,5.086175,51.815780
Beukenstraat,24,,,5306XH,Brakel,Zaltbommel,Gelderland,VBO,5.086074,51.815708
Beukenstraat,26,,,5306XH,Brakel,Zaltbommel,Gelderland,VBO,5.086016,51.815663
Rietsingel,1,,,5306XJ,Brakel,Zaltbommel,Gelderland,VBO,5.084081,51.816584
Rietsingel,2,,,5306XJ,Brakel,Zaltbommel,Gelderland,VBO,5.084730,51.817125
Rietsingel,3,,,5306XJ,Brakel,Zaltbommel,Gelderland,VBO,5.084139,51.816620
Rietsingel,4,,,5306XJ,Brakel,Zaltbommel,Gelderland,VBO,5.084788,51.817152
Rietsingel,5,,,5306XJ,Brakel,Zaltbommel,Gelderland,VBO,5.084255,51.816692
Rietsingel,6,,,5306XJ,Brakel,Zaltbommel,Gelderland,VBO,5.084904,51.817224
Rietsingel,7,,,5306XJ,Brakel,Zaltbommel,Gelderland,VBO,5.084327,51.816728
Rietsingel,8,,,5306XJ,Brakel,Zaltbommel,Gelderland,VBO,5.084961,51.817269
Rietsingel,9,,,5306XJ,Brakel,Zaltbommel,Gelderland,VBO,5.084428,51.816800
Rietsingel,10,,,5306XJ,Brakel,Zaltbommel,Gelderland,VBO,5.085296,51.817117
Rietsingel,11,,,5306XJ,Brakel,Zaltbommel,Gelderland,VBO,5.084486,51.816836
Rietsingel,12,,,5306XJ,Brakel,Zaltbommel,Gelderland,VBO,5.085209,51.817063
Rietsingel,13,,,5306XJ,Brakel,Zaltbommel,Gelderland,VBO,5.085119,51.817476
Rietsingel,14,,,5306XJ,Brakel,Zaltbommel,Gelderland,VBO,5.085108,51.817000
Rietsingel,15,,,5306XJ,Brakel,Zaltbommel,Gelderland,VBO,5.085178,51.817449
Rietsingel,16,,,5306XJ,Brakel,Zaltbommel,Gelderland,VBO,5.085021,51.816946
Rietsingel,17,,,5306XJ,Brakel,Zaltbommel,Gelderland,VBO,5.085294,51.817378
Rietsingel,18,,,5306XJ,Brakel,Zaltbommel,Gelderland,VBO,5.084964,51.816901
Rietsingel,19,,,5306XJ,Brakel,Zaltbommel,Gelderland,VBO,5.085338,51.817342
Rietsingel,20,,,5306XJ,Brakel,Zaltbommel,Gelderland,VBO,5.084848,51.816846
Rietsingel,21,,,5306XJ,Brakel,Zaltbommel,Gelderland,VBO,5.085454,51.817270
Rietsingel,23,,,5306XJ,Brakel,Zaltbommel,Gelderland,VBO,5.085513,51.817235
Rietsingel,25,,,5306XJ,Brakel,Zaltbommel,Gelderland,VBO,5.085629,51.817163
Rietsingel,27,,,5306XJ,Brakel,Zaltbommel,Gelderland,VBO,5.085697,51.817128
Elzenstraat,1,,,5306XK,Brakel,Zaltbommel,Gelderland,VBO,5.089793,51.814711
Elzenstraat,5,,,5306XK,Brakel,Zaltbommel,Gelderland,VBO,5.089591,51.814530
Elzenstraat,7,,,5306XK,Brakel,Zaltbommel,Gelderland,VBO,5.089548,51.814467
Elzenstraat,15,,,5306XK,Brakel,Zaltbommel,Gelderland,VBO,5.089141,51.814574
Elzenstraat,17,,,5306XK,Brakel,Zaltbommel,Gelderland,VBO,5.089170,51.814637
Elzenstraat,19,a,,5306XK,Brakel,Zaltbommel,Gelderland,VBO,5.089343,51.814817
Elzenstraat,19,,,5306XK,Brakel,Zaltbommel,Gelderland,VBO,5.089271,51.814736
Elzenstraat,21,,,5306XK,Brakel,Zaltbommel,Gelderland,VBO,5.087845,51.815389
Elzenstraat,23,,,5306XK,Brakel,Zaltbommel,Gelderland,VBO,5.087788,51.815344
Elzenstraat,25,,,5306XK,Brakel,Zaltbommel,Gelderland,VBO,5.087687,51.815254
Elzenstraat,27,,,5306XK,Brakel,Zaltbommel,Gelderland,VBO,5.087629,51.815209
Elzenstraat,29,,,5306XK,Brakel,Zaltbommel,Gelderland,VBO,5.087543,51.815118
Elzenstraat,31,,,5306XK,Brakel,Zaltbommel,Gelderland,VBO,5.087499,51.815073
Elzenstraat,33,,,5306XK,Brakel,Zaltbommel,Gelderland,VBO,5.087078,51.815234
Elzenstraat,35,,,5306XK,Brakel,Zaltbommel,Gelderland,VBO,5.087150,51.815279
Elzenstraat,37,,,5306XK,Brakel,Zaltbommel,Gelderland,VBO,5.087236,51.815369
Elzenstraat,39,,,5306XK,Brakel,Zaltbommel,Gelderland,VBO,5.087294,51.815414
Elzenstraat,41,,,5306XK,Brakel,Zaltbommel,Gelderland,VBO,5.087395,51.815514
Elzenstraat,43,,,5306XK,Brakel,Zaltbommel,Gelderland,VBO,5.087438,51.815559
Elzenstraat,45,,,5306XK,Brakel,Zaltbommel,Gelderland,VBO,5.086071,51.816157
Elzenstraat,47,,,5306XK,Brakel,Zaltbommel,Gelderland,VBO,5.085999,51.816112
Elzenstraat,49,,,5306XK,Brakel,Zaltbommel,Gelderland,VBO,5.085869,51.816040
Elzenstraat,51,,,5306XK,Brakel,Zaltbommel,Gelderland,VBO,5.085825,51.816004
Elzenstraat,53,,,5306XK,Brakel,Zaltbommel,Gelderland,VBO,5.085681,51.815923
Elzenstraat,55,,,5306XK,Brakel,Zaltbommel,Gelderland,VBO,5.085623,51.815878
Elzenstraat,57,,,5306XK,Brakel,Zaltbommel,Gelderland,VBO,5.085158,51.816047
Elzenstraat,59,,,5306XK,Brakel,Zaltbommel,Gelderland,VBO,5.085303,51.816119
Elzenstraat,61,,,5306XK,Brakel,Zaltbommel,Gelderland,VBO,5.085360,51.816147
Elzenstraat,63,,,5306XK,Brakel,Zaltbommel,Gelderland,VBO,5.085490,51.816219
Elzenstraat,65,,,5306XK,Brakel,Zaltbommel,Gelderland,VBO,5.085548,51.816264
Elzenstraat,67,,,5306XK,Brakel,Zaltbommel,Gelderland,VBO,5.085678,51.816345
Elzenstraat,69,,,5306XK,Brakel,Zaltbommel,Gelderland,VBO,5.085736,51.816381
Elzenstraat,71,,,5306XK,Brakel,Zaltbommel,Gelderland,VBO,5.085343,51.816623
Elzenstraat,73,,,5306XK,Brakel,Zaltbommel,Gelderland,VBO,5.085256,51.816560
Elzenstraat,75,,,5306XK,Brakel,Zaltbommel,Gelderland,VBO,5.085141,51.816488
Elzenstraat,77,,,5306XK,Brakel,Zaltbommel,Gelderland,VBO,5.085054,51.816433
Elzenstraat,79,,,5306XK,Brakel,Zaltbommel,Gelderland,VBO,5.084938,51.816352
Elzenstraat,81,,,5306XK,Brakel,Zaltbommel,Gelderland,VBO,5.084852,51.816307
Elzenstraat,12,,,5306XM,Brakel,Zaltbommel,Gelderland,VBO,5.090067,51.814945
Elzenstraat,14,,,5306XM,Brakel,Zaltbommel,Gelderland,VBO,5.089965,51.814972
Elzenstraat,16,,,5306XM,Brakel,Zaltbommel,Gelderland,VBO,5.089791,51.814998
Elzenstraat,18,,,5306XM,Brakel,Zaltbommel,Gelderland,VBO,5.089704,51.815016
Elzenstraat,20,,,5306XM,Brakel,Zaltbommel,Gelderland,VBO,5.089544,51.815079
Elzenstraat,22,,,5306XM,Brakel,Zaltbommel,Gelderland,VBO,5.089457,51.815105
Elzenstraat,24,,,5306XM,Brakel,Zaltbommel,Gelderland,VBO,5.089355,51.815132
Elzenstraat,26,,,5306XM,Brakel,Zaltbommel,Gelderland,VBO,5.089268,51.815150
Elzenstraat,28,,,5306XM,Brakel,Zaltbommel,Gelderland,VBO,5.089094,51.815176
Elzenstraat,30,,,5306XM,Brakel,Zaltbommel,Gelderland,VBO,5.089007,51.815194
Elzenstraat,32,,,5306XM,Brakel,Zaltbommel,Gelderland,VBO,5.088920,51.815230
Elzenstraat,34,,,5306XM,Brakel,Zaltbommel,Gelderland,VBO,5.088498,51.815409
Elzenstraat,36,,,5306XM,Brakel,Zaltbommel,Gelderland,VBO,5.088411,51.815426
Elzenstraat,38,,,5306XM,Brakel,Zaltbommel,Gelderland,VBO,5.088323,51.815471
Elzenstraat,40,,,5306XM,Brakel,Zaltbommel,Gelderland,VBO,5.088251,51.815489
Elzenstraat,42,,,5306XM,Brakel,Zaltbommel,Gelderland,VBO,5.088192,51.815534
Elzenstraat,44,,,5306XM,Brakel,Zaltbommel,Gelderland,VBO,5.088105,51.815560
Elzenstraat,46,,,5306XM,Brakel,Zaltbommel,Gelderland,VBO,5.087960,51.815605
Elzenstraat,48,,,5306XM,Brakel,Zaltbommel,Gelderland,VBO,5.087887,51.815650
Elzenstraat,50,,,5306XM,Brakel,Zaltbommel,Gelderland,VBO,5.087829,51.815658
Elzenstraat,52,,,5306XM,Brakel,Zaltbommel,Gelderland,VBO,5.087742,51.815703
Elzenstraat,54,,,5306XM,Brakel,Zaltbommel,Gelderland,VBO,5.087684,51.815721
Elzenstraat,56,,,5306XM,Brakel,Zaltbommel,Gelderland,VBO,5.087553,51.815793
Elzenstraat,58,,,5306XM,Brakel,Zaltbommel,Gelderland,VBO,5.087494,51.815828
Elzenstraat,60,,,5306XM,Brakel,Zaltbommel,Gelderland,VBO,5.087422,51.815864
Elzenstraat,62,,,5306XM,Brakel,Zaltbommel,Gelderland,VBO,5.087349,51.815891
Elzenstraat,64,,,5306XM,Brakel,Zaltbommel,Gelderland,VBO,5.087276,51.815918
Elzenstraat,66,,,5306XM,Brakel,Zaltbommel,Gelderland,VBO,5.087204,51.815945
Elzenstraat,68,,,5306XM,Brakel,Zaltbommel,Gelderland,VBO,5.086680,51.816159
Elzenstraat,70,,,5306XM,Brakel,Zaltbommel,Gelderland,VBO,5.086622,51.816204
Elzenstraat,72,,,5306XM,Brakel,Zaltbommel,Gelderland,VBO,5.086563,51.816240
Elzenstraat,74,,,5306XM,Brakel,Zaltbommel,Gelderland,VBO,5.086491,51.816275
Elzenstraat,76,,,5306XM,Brakel,Zaltbommel,Gelderland,VBO,5.086432,51.816320
Elzenstraat,78,,,5306XM,Brakel,Zaltbommel,Gelderland,VBO,5.086301,51.816401
Elzenstraat,80,,,5306XM,Brakel,Zaltbommel,Gelderland,VBO,5.086229,51.816445
Elzenstraat,82,,,5306XM,Brakel,Zaltbommel,Gelderland,VBO,5.086156,51.816490
Elzenstraat,84,,,5306XM,Brakel,Zaltbommel,Gelderland,VBO,5.086097,51.816526
Elzenstraat,86,,,5306XM,Brakel,Zaltbommel,Gelderland,VBO,5.086039,51.816571
Elzenstraat,88,,,5306XM,Brakel,Zaltbommel,Gelderland,VBO,5.085981,51.816616
Elzenstraat,90,,,5306XM,Brakel,Zaltbommel,Gelderland,VBO,5.085850,51.816687
Elzenstraat,92,,,5306XM,Brakel,Zaltbommel,Gelderland,VBO,5.085777,51.816732
Elzenstraat,94,,,5306XM,Brakel,Zaltbommel,Gelderland,VBO,5.085719,51.816768
Elzenstraat,96,,,5306XM,Brakel,Zaltbommel,Gelderland,VBO,5.085661,51.816803
Elzenstraat,98,,,5306XM,Brakel,Zaltbommel,Gelderland,VBO,5.085602,51.816857
Meidoornstraat,1,,,5306XN,Brakel,Zaltbommel,Gelderland,VBO,5.089160,51.816129
Meidoornstraat,3,,,5306XN,Brakel,Zaltbommel,Gelderland,VBO,5.089059,51.816147
Meidoornstraat,5,,,5306XN,Brakel,Zaltbommel,Gelderland,VBO,5.088986,51.816174
Meidoornstraat,7,,,5306XN,Brakel,Zaltbommel,Gelderland,VBO,5.088928,51.816210
Meidoornstraat,9,,,5306XN,Brakel,Zaltbommel,Gelderland,VBO,5.088826,51.816245
Meidoornstraat,11,,,5306XN,Brakel,Zaltbommel,Gelderland,VBO,5.088753,51.816308
Meidoornstraat,13,,,5306XN,Brakel,Zaltbommel,Gelderland,VBO,5.088651,51.816362
Meidoornstraat,15,,,5306XN,Brakel,Zaltbommel,Gelderland,VBO,5.088578,51.816388
Meidoornstraat,17,,,5306XN,Brakel,Zaltbommel,Gelderland,VBO,5.088491,51.816406
Meidoornstraat,19,,,5306XN,Brakel,Zaltbommel,Gelderland,VBO,5.088433,51.816433
Meidoornstraat,21,,,5306XN,Brakel,Zaltbommel,Gelderland,VBO,5.088375,51.816460
Meidoornstraat,23,,,5306XN,Brakel,Zaltbommel,Gelderland,VBO,5.088230,51.816504
Meidoornstraat,25,,,5306XN,Brakel,Zaltbommel,Gelderland,VBO,5.088128,51.816531
Meidoornstraat,27,,,5306XN,Brakel,Zaltbommel,Gelderland,VBO,5.088055,51.816558
Meidoornstraat,29,,,5306XN,Brakel,Zaltbommel,Gelderland,VBO,5.087997,51.816603
Meidoornstraat,31,,,5306XN,Brakel,Zaltbommel,Gelderland,VBO,5.087953,51.816639
Meidoornstraat,2,,,5306XP,Brakel,Zaltbommel,Gelderland,VBO,5.089324,51.816379
Meidoornstraat,4,,,5306XP,Brakel,Zaltbommel,Gelderland,VBO,5.089379,51.816481
Meidoornstraat,6,,,5306XP,Brakel,Zaltbommel,Gelderland,VBO,5.088966,51.816538
Meidoornstraat,8,,,5306XP,Brakel,Zaltbommel,Gelderland,VBO,5.088755,51.816609
Meidoornstraat,10,,,5306XP,Brakel,Zaltbommel,Gelderland,VBO,5.088609,51.816681
Meidoornstraat,12,,,5306XP,Brakel,Zaltbommel,Gelderland,VBO,5.088460,51.816738
Meidoornstraat,14,,,5306XP,Brakel,Zaltbommel,Gelderland,VBO,5.088322,51.816794
Meidoornstraat,16,,,5306XP,Brakel,Zaltbommel,Gelderland,VBO,5.088187,51.816850
Meidoornstraat,18,,,5306XP,Brakel,Zaltbommel,Gelderland,VBO,5.088931,51.816583
Meidoornstraat,20,,,5306XP,Brakel,Zaltbommel,Gelderland,VBO,5.088761,51.816656
Meidoornstraat,22,,,5306XP,Brakel,Zaltbommel,Gelderland,VBO,5.088620,51.816724
Meidoornstraat,24,,,5306XP,Brakel,Zaltbommel,Gelderland,VBO,5.088445,51.816790
Meidoornstraat,26,,,5306XP,Brakel,Zaltbommel,Gelderland,VBO,5.088325,51.816840
Meidoornstraat,28,,,5306XP,Brakel,Zaltbommel,Gelderland,VBO,5.088147,51.816897
Meidoornstraat,30,,,5306XP,Brakel,Zaltbommel,Gelderland,VBO,5.088997,51.816585
Meidoornstraat,32,,,5306XP,Brakel,Zaltbommel,Gelderland,VBO,5.088811,51.816669
Meidoornstraat,34,,,5306XP,Brakel,Zaltbommel,Gelderland,VBO,5.088692,51.816713
Meidoornstraat,36,,,5306XP,Brakel,Zaltbommel,Gelderland,VBO,5.088526,51.816780
Meidoornstraat,38,,,5306XP,Brakel,Zaltbommel,Gelderland,VBO,5.088389,51.816835
Meidoornstraat,40,,,5306XP,Brakel,Zaltbommel,Gelderland,VBO,5.088219,51.816904
Lindenstraat,1,,,5306XR,Brakel,Zaltbommel,Gelderland,VBO,5.087442,51.817132
Lindenstraat,2,,,5306XR,Brakel,Zaltbommel,Gelderland,VBO,5.087151,51.817347
Lindenstraat,3,,,5306XR,Brakel,Zaltbommel,Gelderland,VBO,5.087399,51.817096
Lindenstraat,4,,,5306XR,Brakel,Zaltbommel,Gelderland,VBO,5.087093,51.817302
Lindenstraat,5,,,5306XR,Brakel,Zaltbommel,Gelderland,VBO,5.087370,51.817069
Lindenstraat,6,,,5306XR,Brakel,Zaltbommel,Gelderland,VBO,5.087006,51.817265
Lindenstraat,7,,,5306XR,Brakel,Zaltbommel,Gelderland,VBO,5.087356,51.817050
Lindenstraat,8,,,5306XR,Brakel,Zaltbommel,Gelderland,VBO,5.086963,51.817229
Lindenstraat,9,,,5306XR,Brakel,Zaltbommel,Gelderland,VBO,5.087327,51.817032
Lindenstraat,10,,,5306XR,Brakel,Zaltbommel,Gelderland,VBO,5.086804,51.817175
Lindenstraat,11,,,5306XR,Brakel,Zaltbommel,Gelderland,VBO,5.087197,51.816978
Lindenstraat,12,,,5306XR,Brakel,Zaltbommel,Gelderland,VBO,5.086731,51.817148
Lindenstraat,13,,,5306XR,Brakel,Zaltbommel,Gelderland,VBO,5.087153,51.816933
Lindenstraat,14,,,5306XR,Brakel,Zaltbommel,Gelderland,VBO,5.086659,51.817112
Lindenstraat,15,,,5306XR,Brakel,Zaltbommel,Gelderland,VBO,5.087081,51.816888
Lindenstraat,16,,,5306XR,Brakel,Zaltbommel,Gelderland,VBO,5.086601,51.817067
Lindenstraat,17,,,5306XR,Brakel,Zaltbommel,Gelderland,VBO,5.087024,51.816834
Lindenstraat,18,,,5306XR,Brakel,Zaltbommel,Gelderland,VBO,5.086515,51.817030
Lindenstraat,19,,,5306XR,Brakel,Zaltbommel,Gelderland,VBO,5.086966,51.816789
Lindenstraat,20,,,5306XR,Brakel,Zaltbommel,Gelderland,VBO,5.086471,51.816985
Esdoornstraat,1,a,,5306XS,Brakel,Zaltbommel,Gelderland,VBO,5.090138,51.815260
Esdoornstraat,1,,,5306XS,Brakel,Zaltbommel,Gelderland,VBO,5.090254,51.815224
Esdoornstraat,3,a,,5306XS,Brakel,Zaltbommel,Gelderland,VBO,5.089862,51.815304
Esdoornstraat,3,,,5306XS,Brakel,Zaltbommel,Gelderland,VBO,5.089992,51.815277
Esdoornstraat,5,,,5306XS,Brakel,Zaltbommel,Gelderland,VBO,5.089702,51.815367
Esdoornstraat,7,,,5306XS,Brakel,Zaltbommel,Gelderland,VBO,5.089600,51.815384
Esdoornstraat,9,,,5306XS,Brakel,Zaltbommel,Gelderland,VBO,5.089527,51.815411
Esdoornstraat,11,,,5306XS,Brakel,Zaltbommel,Gelderland,VBO,5.089342,51.815444
Esdoornstraat,13,,,5306XS,Brakel,Zaltbommel,Gelderland,VBO,5.089252,51.815464
Esdoornstraat,15,,,5306XS,Brakel,Zaltbommel,Gelderland,VBO,5.089171,51.815491
Esdoornstraat,17,,,5306XS,Brakel,Zaltbommel,Gelderland,VBO,5.089084,51.815507
Esdoornstraat,19,,,5306XS,Brakel,Zaltbommel,Gelderland,VBO,5.088743,51.815643
Esdoornstraat,21,,,5306XS,Brakel,Zaltbommel,Gelderland,VBO,5.088670,51.815679
Esdoornstraat,23,,,5306XS,Brakel,Zaltbommel,Gelderland,VBO,5.088583,51.815705
Esdoornstraat,25,,,5306XS,Brakel,Zaltbommel,Gelderland,VBO,5.088510,51.815741
Esdoornstraat,27,,,5306XS,Brakel,Zaltbommel,Gelderland,VBO,5.088437,51.815768
Esdoornstraat,29,,,5306XS,Brakel,Zaltbommel,Gelderland,VBO,5.088365,51.815795
Esdoornstraat,31,,,5306XS,Brakel,Zaltbommel,Gelderland,VBO,5.088219,51.815839
Esdoornstraat,33,,,5306XS,Brakel,Zaltbommel,Gelderland,VBO,5.088132,51.815866
Esdoornstraat,35,,,5306XS,Brakel,Zaltbommel,Gelderland,VBO,5.088059,51.815902
Esdoornstraat,37,,,5306XS,Brakel,Zaltbommel,Gelderland,VBO,5.087987,51.815929
Esdoornstraat,39,,,5306XS,Brakel,Zaltbommel,Gelderland,VBO,5.087914,51.815964
Esdoornstraat,41,,,5306XS,Brakel,Zaltbommel,Gelderland,VBO,5.087798,51.816027
Esdoornstraat,43,,,5306XS,Brakel,Zaltbommel,Gelderland,VBO,5.087725,51.816063
Esdoornstraat,45,,,5306XS,Brakel,Zaltbommel,Gelderland,VBO,5.087638,51.816089
Esdoornstraat,47,,,5306XS,Brakel,Zaltbommel,Gelderland,VBO,5.087579,51.816116
Esdoornstraat,49,,,5306XS,Brakel,Zaltbommel,Gelderland,VBO,5.087492,51.816143
Esdoornstraat,51,,,5306XS,Brakel,Zaltbommel,Gelderland,VBO,5.087420,51.816179
Esdoornstraat,53,,,5306XS,Brakel,Zaltbommel,Gelderland,VBO,5.087012,51.816393
Esdoornstraat,55,,,5306XS,Brakel,Zaltbommel,Gelderland,VBO,5.086939,51.816420
Esdoornstraat,57,,,5306XS,Brakel,Zaltbommel,Gelderland,VBO,5.086881,51.816465
Esdoornstraat,59,,,5306XS,Brakel,Zaltbommel,Gelderland,VBO,5.086808,51.816501
Esdoornstraat,61,,,5306XS,Brakel,Zaltbommel,Gelderland,VBO,5.086706,51.816590
Esdoornstraat,63,,,5306XS,Brakel,Zaltbommel,Gelderland,VBO,5.086633,51.816635
Esdoornstraat,65,,,5306XS,Brakel,Zaltbommel,Gelderland,VBO,5.086575,51.816671
Esdoornstraat,67,,,5306XS,Brakel,Zaltbommel,Gelderland,VBO,5.086531,51.816707
Esdoornstraat,69,a,,5306XS,Brakel,Zaltbommel,Gelderland,VBO,5.086142,51.816762
Esdoornstraat,69,b,,5306XS,Brakel,Zaltbommel,Gelderland,VBO,5.086113,51.816782
Esdoornstraat,69,c,,5306XS,Brakel,Zaltbommel,Gelderland,VBO,5.086073,51.816799
Esdoornstraat,69,d,,5306XS,Brakel,Zaltbommel,Gelderland,VBO,5.086046,51.816818
Esdoornstraat,69,e,,5306XS,Brakel,Zaltbommel,Gelderland,VBO,5.086015,51.816838
Esdoornstraat,69,f,,5306XS,Brakel,Zaltbommel,Gelderland,VBO,5.085989,51.816856
Esdoornstraat,69,g,,5306XS,Brakel,Zaltbommel,Gelderland,VBO,5.085955,51.816874
Esdoornstraat,69,h,,5306XS,Brakel,Zaltbommel,Gelderland,VBO,5.085926,51.816893
Esdoornstraat,69,j,,5306XS,Brakel,Zaltbommel,Gelderland,VBO,5.085895,51.816914
Esdoornstraat,69,k,,5306XS,Brakel,Zaltbommel,Gelderland,VBO,5.085864,51.816930
Esdoornstraat,69,l,,5306XS,Brakel,Zaltbommel,Gelderland,VBO,5.085833,51.816951
Esdoornstraat,69,m,,5306XS,Brakel,Zaltbommel,Gelderland,VBO,5.085990,51.817050
Esdoornstraat,69,n,,5306XS,Brakel,Zaltbommel,Gelderland,VBO,5.086026,51.817030
Esdoornstraat,69,q,,5306XS,Brakel,Zaltbommel,Gelderland,VBO,5.086057,51.817011
Esdoornstraat,69,r,,5306XS,Brakel,Zaltbommel,Gelderland,VBO,5.086076,51.816993
Esdoornstraat,69,s,,5306XS,Brakel,Zaltbommel,Gelderland,VBO,5.086112,51.816975
Esdoornstraat,69,t,,5306XS,Brakel,Zaltbommel,Gelderland,VBO,5.086138,51.816954
Esdoornstraat,69,u,,5306XS,Brakel,Zaltbommel,Gelderland,VBO,5.086174,51.816936
Esdoornstraat,69,v,,5306XS,Brakel,Zaltbommel,Gelderland,VBO,5.086201,51.816916
Esdoornstraat,69,w,,5306XS,Brakel,Zaltbommel,Gelderland,VBO,5.086240,51.816900
Esdoornstraat,69,,,5306XS,Brakel,Zaltbommel,Gelderland,VBO,5.086473,51.816734
Esdoornstraat,2,a,,5306XT,Brakel,Zaltbommel,Gelderland,VBO,5.090309,51.815537
Esdoornstraat,2,b,,5306XT,Brakel,Zaltbommel,Gelderland,VBO,5.090250,51.815564
Esdoornstraat,2,c,,5306XT,Brakel,Zaltbommel,Gelderland,VBO,5.090172,51.815576
Esdoornstraat,2,d,,5306XT,Brakel,Zaltbommel,Gelderland,VBO,5.089860,51.815637
Esdoornstraat,2,,,5306XT,Brakel,Zaltbommel,Gelderland,VBO,5.090365,51.815532
Esdoornstraat,4,,,5306XT,Brakel,Zaltbommel,Gelderland,VBO,5.089787,51.815654
Esdoornstraat,6,,,5306XT,Brakel,Zaltbommel,Gelderland,VBO,5.089714,51.815672
Esdoornstraat,8,,,5306XT,Brakel,Zaltbommel,Gelderland,VBO,5.089540,51.815726
Esdoornstraat,10,,,5306XT,Brakel,Zaltbommel,Gelderland,VBO,5.089409,51.815734
Esdoornstraat,12,,,5306XT,Brakel,Zaltbommel,Gelderland,VBO,5.089351,51.815761
Esdoornstraat,14,,,5306XT,Brakel,Zaltbommel,Gelderland,VBO,5.088872,51.815895
Esdoornstraat,16,,,5306XT,Brakel,Zaltbommel,Gelderland,VBO,5.088799,51.815922
Esdoornstraat,18,,,5306XT,Brakel,Zaltbommel,Gelderland,VBO,5.088741,51.815957
Esdoornstraat,20,,,5306XT,Brakel,Zaltbommel,Gelderland,VBO,5.088683,51.815984
Esdoornstraat,22,,,5306XT,Brakel,Zaltbommel,Gelderland,VBO,5.088595,51.816020
Esdoornstraat,24,,,5306XT,Brakel,Zaltbommel,Gelderland,VBO,5.088479,51.816092
Esdoornstraat,26,,,5306XT,Brakel,Zaltbommel,Gelderland,VBO,5.088392,51.816118
Esdoornstraat,28,,,5306XT,Brakel,Zaltbommel,Gelderland,VBO,5.088333,51.816145
Esdoornstraat,30,,,5306XT,Brakel,Zaltbommel,Gelderland,VBO,5.088275,51.816172
Esdoornstraat,32,,,5306XT,Brakel,Zaltbommel,Gelderland,VBO,5.088188,51.816208
Esdoornstraat,34,,,5306XT,Brakel,Zaltbommel,Gelderland,VBO,5.088130,51.816235
Esdoornstraat,36,,,5306XT,Brakel,Zaltbommel,Gelderland,VBO,5.087955,51.816297
Esdoornstraat,38,,,5306XT,Brakel,Zaltbommel,Gelderland,VBO,5.087897,51.816315
Esdoornstraat,40,,,5306XT,Brakel,Zaltbommel,Gelderland,VBO,5.087825,51.816342
Esdoornstraat,42,,,5306XT,Brakel,Zaltbommel,Gelderland,VBO,5.087752,51.816359
Esdoornstraat,44,,,5306XT,Brakel,Zaltbommel,Gelderland,VBO,5.087679,51.816404
Weitjesweg,2,,,5306XW,Brakel,Zaltbommel,Gelderland,VBO,5.090058,51.814127
Weitjesweg,4,,,5306XW,Brakel,Zaltbommel,Gelderland,VBO,5.089753,51.814144
Weitjesweg,6,,,5306XW,Brakel,Zaltbommel,Gelderland,VBO,5.089506,51.814207
Weitjesweg,8,,,5306XW,Brakel,Zaltbommel,Gelderland,VBO,5.089027,51.814403
Weitjesweg,10,,,5306XW,Brakel,Zaltbommel,Gelderland,VBO,5.088693,51.814474
Weitjesweg,12,,,5306XW,Brakel,Zaltbommel,Gelderland,VBO,5.087821,51.814715
Weitjesweg,14,,,5306XW,Brakel,Zaltbommel,Gelderland,VBO,5.087632,51.814750
Weitjesweg,16,,,5306XW,Brakel,Zaltbommel,Gelderland,VBO,5.087487,51.814804
Weitjesweg,18,,,5306XW,Brakel,Zaltbommel,Gelderland,VBO,5.087312,51.814866
Weitjesweg,20,,,5306XW,Brakel,Zaltbommel,Gelderland,VBO,5.086876,51.815036
Weitjesweg,22,,,5306XW,Brakel,Zaltbommel,Gelderland,VBO,5.086716,51.815080
Weitjesweg,24,,,5306XW,Brakel,Zaltbommel,Gelderland,VBO,5.086527,51.815161
Weitjesweg,26,,,5306XW,Brakel,Zaltbommel,Gelderland,VBO,5.086396,51.815214
Weitjesweg,28,,,5306XW,Brakel,Zaltbommel,Gelderland,VBO,5.086222,51.815295
Weitjesweg,30,,,5306XW,Brakel,Zaltbommel,Gelderland,VBO,5.085844,51.815465
Weitjesweg,32,,,5306XX,Brakel,Zaltbommel,Gelderland,VBO,5.085712,51.815554
Weitjesweg,34,,,5306XX,Brakel,Zaltbommel,Gelderland,VBO,5.085538,51.815626
Weitjesweg,36,,,5306XX,Brakel,Zaltbommel,Gelderland,VBO,5.085392,51.815697
Weitjesweg,38,,,5306XX,Brakel,Zaltbommel,Gelderland,VBO,5.084840,51.815929
Weitjesweg,40,,,5306XX,Brakel,Zaltbommel,Gelderland,VBO,5.084694,51.816001
Weitjesweg,42,,,5306XX,Brakel,Zaltbommel,Gelderland,VBO,5.084534,51.816081
Weitjesweg,44,,,5306XX,Brakel,Zaltbommel,Gelderland,VBO,5.084418,51.816144
Weitjesweg,46,,,5306XX,Brakel,Zaltbommel,Gelderland,VBO,5.084272,51.816234
Weitjesweg,48,,,5306XX,Brakel,Zaltbommel,Gelderland,VBO,5.083777,51.816466
Weitjesweg,50,,,5306XX,Brakel,Zaltbommel,Gelderland,VBO,5.083719,51.816502
Weitjesweg,52,a,,5306XX,Brakel,Zaltbommel,Gelderland,VBO,5.084234,51.817177
Weitjesweg,52,b,,5306XX,Brakel,Zaltbommel,Gelderland,VBO,5.083922,51.817332
Weitjesweg,52,c,,5306XX,Brakel,Zaltbommel,Gelderland,VBO,5.083636,51.817152
Weitjesweg,52,d,,5306XX,Brakel,Zaltbommel,Gelderland,VBO,5.083331,51.816953
Weitjesweg,52,e,,5306XX,Brakel,Zaltbommel,Gelderland,VBO,5.083956,51.816930
Weitjesweg,52,,,5306XX,Brakel,Zaltbommel,Gelderland,VBO,5.083535,51.816737
Weitjesweg,54,,,5306XX,Brakel,Zaltbommel,Gelderland,VBO,5.083106,51.817147
Weitjesweg,56,,,5306XX,Brakel,Zaltbommel,Gelderland,VBO,5.082452,51.817379
Wilgenstraat,1,,,5306XZ,Brakel,Zaltbommel,Gelderland,VBO,5.090796,51.816538
Wilgenstraat,2,a,,5306XZ,Brakel,Zaltbommel,Gelderland,VBO,5.090300,51.816324
Wilgenstraat,2,b,,5306XZ,Brakel,Zaltbommel,Gelderland,VBO,5.090265,51.816280
Wilgenstraat,2,,,5306XZ,Brakel,Zaltbommel,Gelderland,VBO,5.090349,51.816375
Wilgenstraat,3,,,5306XZ,Brakel,Zaltbommel,Gelderland,VBO,5.090753,51.816484
Wilgenstraat,4,,,5306XZ,Brakel,Zaltbommel,Gelderland,VBO,5.090204,51.816168
Wilgenstraat,5,,,5306XZ,Brakel,Zaltbommel,Gelderland,VBO,5.090740,51.816349
Wilgenstraat,6,,,5306XZ,Brakel,Zaltbommel,Gelderland,VBO,5.090161,51.816123
Wilgenstraat,7,,,5306XZ,Brakel,Zaltbommel,Gelderland,VBO,5.090712,51.816061
Wilgenstraat,8,,,5306XZ,Brakel,Zaltbommel,Gelderland,VBO,5.090132,51.816078
Wilgenstraat,9,,,5306XZ,Brakel,Zaltbommel,Gelderland,VBO,5.090640,51.816088
Wilgenstraat,10,,,5306XZ,Brakel,Zaltbommel,Gelderland,VBO,5.090089,51.816033
Wilgenstraat,11,,,5306XZ,Brakel,Zaltbommel,Gelderland,VBO,5.090481,51.815926
Wilgenstraat,12,,,5306XZ,Brakel,Zaltbommel,Gelderland,VBO,5.090017,51.815925
Wilgenstraat,13,,,5306XZ,Brakel,Zaltbommel,Gelderland,VBO,5.090467,51.815890
Wilgenstraat,14,,,5306XZ,Brakel,Zaltbommel,Gelderland,VBO,5.090003,51.815880
Wilgenstraat,16,,,5306XZ,Brakel,Zaltbommel,Gelderland,VBO,5.089960,51.815826
