openbareruimtenaam,huisnummer,huisletter,huisnummertoevoeging,postcode,woonplaatsnaam,gemeentenaam,provincienaam,typeadresseerbaarobject,longitude,latitude
Krangstraat,1,a,,5314AA,Bruchem,Zaltbommel,Gelderland,VBO,5.247643,51.793127
Krangstraat,1,,,5314AA,Bruchem,Zaltbommel,Gelderland,VBO,5.248106,51.793343
Krangstraat,3,a,,5314AA,Bruchem,Zaltbommel,Gelderland,VBO,5.244241,51.791774
Krangstraat,3,b,,5314AA,Bruchem,Zaltbommel,Gelderland,VBO,5.242567,51.791119
Krangstraat,3,c,,5314AA,Bruchem,Zaltbommel,Gelderland,VBO,5.243199,51.790979
Krangstraat,3,,,5314AA,Bruchem,Zaltbommel,Gelderland,VBO,5.247266,51.793027
Krangstraat,5,,,5314AA,Bruchem,Zaltbommel,Gelderland,VBO,5.241289,51.790288
Krangstraat,7,,,5314AA,Bruchem,Zaltbommel,Gelderland,VBO,5.240811,51.790233
Krangstraat,9,,,5314AA,Bruchem,Zaltbommel,Gelderland,VBO,5.240651,51.790170
Krangstraat,11,,,5314AA,Bruchem,Zaltbommel,Gelderland,VBO,5.240362,51.790044
Krangstraat,13,,,5314AA,Bruchem,Zaltbommel,Gelderland,VBO,5.239479,51.789710
Krangstraat,15,,,5314AA,Bruchem,Zaltbommel,Gelderland,VBO,5.239348,51.789728
Krangstraat,17,,,5314AA,Bruchem,Zaltbommel,Gelderland,VBO,5.239145,51.789737
Krangstraat,19,,,5314AA,Bruchem,Zaltbommel,Gelderland,VBO,5.238928,51.789727
Krangstraat,21,,,5314AA,Bruchem,Zaltbommel,Gelderland,VBO,5.238682,51.789700
Krangstraat,23,,,5314AA,Bruchem,Zaltbommel,Gelderland,VBO,5.238435,51.789682
Krangstraat,25,,,5314AA,Bruchem,Zaltbommel,Gelderland,VBO,5.238218,51.789682
Krangstraat,27,,,5314AA,Bruchem,Zaltbommel,Gelderland,VBO,5.237986,51.789663
Krangstraat,29,,,5314AA,Bruchem,Zaltbommel,Gelderland,VBO,5.237769,51.789663
Krangstraat,31,,,5314AA,Bruchem,Zaltbommel,Gelderland,VBO,5.237537,51.789663
Krangstraat,33,,,5314AA,Bruchem,Zaltbommel,Gelderland,VBO,5.237348,51.789653
Krangstraat,35,,,5314AB,Bruchem,Zaltbommel,Gelderland,VBO,5.236827,51.789590
Krangstraat,37,,,5314AB,Bruchem,Zaltbommel,Gelderland,VBO,5.236740,51.789590
Krangstraat,39,,,5314AB,Bruchem,Zaltbommel,Gelderland,VBO,5.236552,51.789572
Krangstraat,41,,,5314AB,Bruchem,Zaltbommel,Gelderland,VBO,5.236421,51.789571
Krangstraat,43,,,5314AB,Bruchem,Zaltbommel,Gelderland,VBO,5.236217,51.789602
Krangstraat,45,,,5314AB,Bruchem,Zaltbommel,Gelderland,VBO,5.236117,51.789625
Krangstraat,47,,,5314AB,Bruchem,Zaltbommel,Gelderland,VBO,5.235943,51.789616
Dorpsstraat,1,a,,5314AD,Bruchem,Zaltbommel,Gelderland,VBO,5.237026,51.787573
Dorpsstraat,1,,,5314AD,Bruchem,Zaltbommel,Gelderland,VBO,5.237065,51.787604
Dorpsstraat,3,a,,5314AD,Bruchem,Zaltbommel,Gelderland,VBO,5.236687,51.788080
Dorpsstraat,3,,,5314AD,Bruchem,Zaltbommel,Gelderland,VBO,5.236760,51.788035
Dorpsstraat,5,a,,5314AD,Bruchem,Zaltbommel,Gelderland,VBO,5.236571,51.788142
Dorpsstraat,5,,,5314AD,Bruchem,Zaltbommel,Gelderland,VBO,5.236643,51.788107
Dorpsstraat,7,,,5314AD,Bruchem,Zaltbommel,Gelderland,VBO,5.236266,51.788187
Dorpsstraat,9,,,5314AD,Bruchem,Zaltbommel,Gelderland,VBO,5.236034,51.788384
Dorpsstraat,11,,,5314AD,Bruchem,Zaltbommel,Gelderland,VBO,5.235715,51.788402
Dorpsstraat,13,,,5314AD,Bruchem,Zaltbommel,Gelderland,VBO,5.235961,51.788582
Dorpsstraat,15,,,5314AD,Bruchem,Zaltbommel,Gelderland,VBO,5.235602,51.788738
Dorpsstraat,17,,,5314AD,Bruchem,Zaltbommel,Gelderland,VBO,5.235278,51.788869
Dorpsstraat,19,,,5314AD,Bruchem,Zaltbommel,Gelderland,VBO,5.235061,51.788967
Dorpsstraat,21,,,5314AD,Bruchem,Zaltbommel,Gelderland,VBO,5.234770,51.789111
Dorpsstraat,23,a,,5314AD,Bruchem,Zaltbommel,Gelderland,VBO,5.234395,51.789016
Dorpsstraat,23,,,5314AD,Bruchem,Zaltbommel,Gelderland,VBO,5.234634,51.789159
Dorpsstraat,25,,,5314AD,Bruchem,Zaltbommel,Gelderland,VBO,5.234378,51.789317
Dorpsstraat,27,,,5314AD,Bruchem,Zaltbommel,Gelderland,VBO,5.234277,51.789308
Dorpsstraat,29,,,5314AD,Bruchem,Zaltbommel,Gelderland,VBO,5.234030,51.789317
Dorpsstraat,31,,,5314AD,Bruchem,Zaltbommel,Gelderland,VBO,5.233944,51.789308
Dorpsstraat,33,,,5314AD,Bruchem,Zaltbommel,Gelderland,VBO,5.233697,51.789262
Dorpsstraat,35,,,5314AD,Bruchem,Zaltbommel,Gelderland,VBO,5.233567,51.789262
Dorpsstraat,37,,,5314AD,Bruchem,Zaltbommel,Gelderland,VBO,5.233349,51.789262
Dorpsstraat,39,,,5314AD,Bruchem,Zaltbommel,Gelderland,VBO,5.233248,51.789253
Dorpsstraat,41,,,5314AD,Bruchem,Zaltbommel,Gelderland,VBO,5.232828,51.789279
Dorpsstraat,43,,,5314AD,Bruchem,Zaltbommel,Gelderland,VBO,5.232697,51.789279
Dorpsstraat,45,,,5314AD,Bruchem,Zaltbommel,Gelderland,VBO,5.232494,51.789270
Dorpsstraat,47,,,5314AD,Bruchem,Zaltbommel,Gelderland,VBO,5.232378,51.789261
Dorpsstraat,49,,,5314AD,Bruchem,Zaltbommel,Gelderland,VBO,5.232146,51.789260
Dorpsstraat,53,,,5314AD,Bruchem,Zaltbommel,Gelderland,VBO,5.231885,51.789278
Dorpsstraat,55,,,5314AD,Bruchem,Zaltbommel,Gelderland,VBO,5.231335,51.789268
Dorpsstraat,4,,,5314AE,Bruchem,Zaltbommel,Gelderland,VBO,5.239314,51.787040
Dorpsstraat,6,,,5314AE,Bruchem,Zaltbommel,Gelderland,VBO,5.238718,51.787345
Dorpsstraat,8,,,5314AE,Bruchem,Zaltbommel,Gelderland,VBO,5.238022,51.787731
Dorpsstraat,10,,,5314AE,Bruchem,Zaltbommel,Gelderland,VBO,5.236787,51.788601
Dorpsstraat,12,,,5314AE,Bruchem,Zaltbommel,Gelderland,VBO,5.236598,51.788754
Dorpsstraat,14,,,5314AE,Bruchem,Zaltbommel,Gelderland,VBO,5.236365,51.788879
Dorpsstraat,16,,,5314AE,Bruchem,Zaltbommel,Gelderland,VBO,5.236046,51.788987
Dorpsstraat,18,,,5314AE,Bruchem,Zaltbommel,Gelderland,VBO,5.235959,51.789031
Dorpsstraat,20,,,5314AE,Bruchem,Zaltbommel,Gelderland,VBO,5.235799,51.789220
Dorpsstraat,24,,,5314AE,Bruchem,Zaltbommel,Gelderland,VBO,5.235479,51.789615
Dorpsstraat,1003,t,,5314AE,Bruchem,Zaltbommel,Gelderland,VBO,5.235523,51.789301
Groenelaantje,2,,,5314AG,Bruchem,Zaltbommel,Gelderland,VBO,5.238992,51.787813
Korte Groenestraat,1,,,5314AH,Bruchem,Zaltbommel,Gelderland,VBO,5.239148,51.789089
Korte Groenestraat,2,,,5314AH,Bruchem,Zaltbommel,Gelderland,VBO,5.239002,51.789368
Korte Groenestraat,3,,,5314AH,Bruchem,Zaltbommel,Gelderland,VBO,5.238785,51.789152
Korte Groenestraat,4,,,5314AH,Bruchem,Zaltbommel,Gelderland,VBO,5.238900,51.789386
Korte Groenestraat,5,,,5314AH,Bruchem,Zaltbommel,Gelderland,VBO,5.238669,51.789161
Korte Groenestraat,6,,,5314AH,Bruchem,Zaltbommel,Gelderland,VBO,5.238726,51.789404
Korte Groenestraat,7,,,5314AH,Bruchem,Zaltbommel,Gelderland,VBO,5.238452,51.789143
Korte Groenestraat,8,,,5314AH,Bruchem,Zaltbommel,Gelderland,VBO,5.238639,51.789403
Korte Groenestraat,9,,,5314AH,Bruchem,Zaltbommel,Gelderland,VBO,5.238379,51.789115
Korte Groenestraat,10,,,5314AH,Bruchem,Zaltbommel,Gelderland,VBO,5.238465,51.789394
Korte Groenestraat,11,,,5314AH,Bruchem,Zaltbommel,Gelderland,VBO,5.238292,51.789079
Korte Groenestraat,12,,,5314AH,Bruchem,Zaltbommel,Gelderland,VBO,5.238277,51.789394
Korte Groenestraat,14,,,5314AH,Bruchem,Zaltbommel,Gelderland,VBO,5.238074,51.789394
Korte Groenestraat,16,,,5314AH,Bruchem,Zaltbommel,Gelderland,VBO,5.238016,51.789430
Korte Groenestraat,18,,,5314AH,Bruchem,Zaltbommel,Gelderland,VBO,5.237813,51.789384
Korte Groenestraat,20,,,5314AH,Bruchem,Zaltbommel,Gelderland,VBO,5.237741,51.789420
Groenestraat,1,a,,5314AJ,Bruchem,Zaltbommel,Gelderland,VBO,5.240804,51.787656
Groenestraat,1,b,,5314AJ,Bruchem,Zaltbommel,Gelderland,VBO,5.240456,51.787779
Groenestraat,1,,,5314AJ,Bruchem,Zaltbommel,Gelderland,VBO,5.240093,51.787922
Groenestraat,3,,,5314AJ,Bruchem,Zaltbommel,Gelderland,VBO,5.239847,51.788003
Groenestraat,5,,,5314AJ,Bruchem,Zaltbommel,Gelderland,VBO,5.239731,51.788039
Groenestraat,7,,,5314AJ,Bruchem,Zaltbommel,Gelderland,VBO,5.239528,51.788083
Groenestraat,9,,,5314AJ,Bruchem,Zaltbommel,Gelderland,VBO,5.239209,51.788182
Groenestraat,11,,,5314AJ,Bruchem,Zaltbommel,Gelderland,VBO,5.238453,51.788621
Groenestraat,13,,,5314AJ,Bruchem,Zaltbommel,Gelderland,VBO,5.238917,51.788640
Groenestraat,15,,,5314AJ,Bruchem,Zaltbommel,Gelderland,VBO,5.238989,51.788811
Groenestraat,17,,,5314AJ,Bruchem,Zaltbommel,Gelderland,VBO,5.239076,51.788955
Groenestraat,19,,,5314AJ,Bruchem,Zaltbommel,Gelderland,VBO,5.239277,51.789314
Groenestraat,21,,,5314AJ,Bruchem,Zaltbommel,Gelderland,VBO,5.239349,51.789422
Groenestraat,23,,,5314AJ,Bruchem,Zaltbommel,Gelderland,VBO,5.239393,51.789476
Groenestraat,4,,,5314AK,Bruchem,Zaltbommel,Gelderland,VBO,5.240817,51.788166
Groenestraat,6,,,5314AK,Bruchem,Zaltbommel,Gelderland,VBO,5.240368,51.788273
Groenestraat,8,,,5314AK,Bruchem,Zaltbommel,Gelderland,VBO,5.239889,51.788326
Groenestraat,10,,,5314AK,Bruchem,Zaltbommel,Gelderland,VBO,5.239309,51.788550
Groenestraat,12,,,5314AK,Bruchem,Zaltbommel,Gelderland,VBO,5.239410,51.788712
Groenestraat,14,,,5314AK,Bruchem,Zaltbommel,Gelderland,VBO,5.239482,51.788847
Groenestraat,16,,,5314AK,Bruchem,Zaltbommel,Gelderland,VBO,5.239496,51.788964
Groenestraat,20,,,5314AK,Bruchem,Zaltbommel,Gelderland,VBO,5.239611,51.789162
Groenestraat,22,,,5314AK,Bruchem,Zaltbommel,Gelderland,VBO,5.239654,51.789207
Groenestraat,24,,,5314AK,Bruchem,Zaltbommel,Gelderland,VBO,5.239712,51.789342
Groenestraat,26,,,5314AK,Bruchem,Zaltbommel,Gelderland,VBO,5.239755,51.789405
Groenestraat,28,,,5314AK,Bruchem,Zaltbommel,Gelderland,VBO,5.239827,51.789540
Groenestraat,30,,,5314AK,Bruchem,Zaltbommel,Gelderland,VBO,5.239871,51.789585
Groenestraat,32,,,5314AK,Bruchem,Zaltbommel,Gelderland,VBO,5.239957,51.789711
Groenestraat,34,,,5314AK,Bruchem,Zaltbommel,Gelderland,VBO,5.239971,51.789774
Peperstraat,1,,,5314AL,Bruchem,Zaltbommel,Gelderland,VBO,5.251011,51.791477
Peperstraat,3,a,,5314AL,Bruchem,Zaltbommel,Gelderland,VBO,5.250099,51.791116
Peperstraat,3,,,5314AL,Bruchem,Zaltbommel,Gelderland,VBO,5.250722,51.791252
Peperstraat,5,,,5314AL,Bruchem,Zaltbommel,Gelderland,VBO,5.249302,51.790855
Peperstraat,7,,,5314AL,Bruchem,Zaltbommel,Gelderland,VBO,5.249042,51.790773
Peperstraat,9,,,5314AL,Bruchem,Zaltbommel,Gelderland,VBO,5.248723,51.790638
Peperstraat,11,,,5314AL,Bruchem,Zaltbommel,Gelderland,VBO,5.248563,51.790558
Peperstraat,13,,,5314AL,Bruchem,Zaltbommel,Gelderland,VBO,5.248316,51.790461
Peperstraat,15,a,,5314AL,Bruchem,Zaltbommel,Gelderland,VBO,5.248075,51.790367
Peperstraat,15,,,5314AL,Bruchem,Zaltbommel,Gelderland,VBO,5.248436,51.790076
Peperstraat,17,,,5314AL,Bruchem,Zaltbommel,Gelderland,VBO,5.247754,51.790161
Peperstraat,19,a,,5314AL,Bruchem,Zaltbommel,Gelderland,VBO,5.246611,51.789377
Peperstraat,19,,,5314AL,Bruchem,Zaltbommel,Gelderland,VBO,5.247001,51.789647
Peperstraat,21,a,,5314AL,Bruchem,Zaltbommel,Gelderland,VBO,5.244137,51.787918
Peperstraat,21,,,5314AL,Bruchem,Zaltbommel,Gelderland,VBO,5.245454,51.788549
Peperstraat,23,,,5314AL,Bruchem,Zaltbommel,Gelderland,VBO,5.243891,51.787702
Peperstraat,25,,,5314AL,Bruchem,Zaltbommel,Gelderland,VBO,5.242922,51.787171
Peperstraat,27,,,5314AM,Bruchem,Zaltbommel,Gelderland,VBO,5.241835,51.787214
Peperstraat,29,a,,5314AM,Bruchem,Zaltbommel,Gelderland,VBO,5.241140,51.787141
Peperstraat,29,,,5314AM,Bruchem,Zaltbommel,Gelderland,VBO,5.241400,51.787322
Peperstraat,31,,,5314AM,Bruchem,Zaltbommel,Gelderland,VBO,5.240952,51.786997
Peperstraat,33,a,,5314AM,Bruchem,Zaltbommel,Gelderland,VBO,5.240258,51.786376
Peperstraat,33,,,5314AM,Bruchem,Zaltbommel,Gelderland,VBO,5.240663,51.786682
Peperstraat,37,,,5314AM,Bruchem,Zaltbommel,Gelderland,VBO,5.239969,51.785972
Peperstraat,39,,,5314AM,Bruchem,Zaltbommel,Gelderland,VBO,5.239204,51.785099
Peperstraat,41,b,,5314AM,Bruchem,Zaltbommel,Gelderland,VBO,5.236315,51.782407
Peperstraat,41,c,,5314AM,Bruchem,Zaltbommel,Gelderland,VBO,5.236243,51.782147
Peperstraat,41,,,5314AM,Bruchem,Zaltbommel,Gelderland,VBO,5.238814,51.784748
Peperstraat,43,,,5314AM,Bruchem,Zaltbommel,Gelderland,VBO,5.236434,51.781338
Peperstraat,2,a,,5314AN,Bruchem,Zaltbommel,Gelderland,VBO,5.248302,51.790844
Peperstraat,2,,,5314AN,Bruchem,Zaltbommel,Gelderland,VBO,5.248099,51.790844
Peperstraat,4,a,,5314AN,Bruchem,Zaltbommel,Gelderland,VBO,5.246685,51.790902
Peperstraat,4,,,5314AN,Bruchem,Zaltbommel,Gelderland,VBO,5.247361,51.790466
Peperstraat,6,,,5314AN,Bruchem,Zaltbommel,Gelderland,VBO,5.246971,51.790160
Peperstraat,8,,,5314AN,Bruchem,Zaltbommel,Gelderland,VBO,5.246522,51.789881
Peperstraat,10,,,5314AN,Bruchem,Zaltbommel,Gelderland,VBO,5.245958,51.789511
Peperstraat,12,,,5314AN,Bruchem,Zaltbommel,Gelderland,VBO,5.245597,51.789160
Peperstraat,14,,,5314AN,Bruchem,Zaltbommel,Gelderland,VBO,5.245250,51.788953
Peperstraat,16,,,5314AN,Bruchem,Zaltbommel,Gelderland,VBO,5.244685,51.788800
Peperstraat,18,,,5314AN,Bruchem,Zaltbommel,Gelderland,VBO,5.244396,51.788647
Peperstraat,20,,,5314AN,Bruchem,Zaltbommel,Gelderland,VBO,5.243527,51.788412
Peperstraat,22,,,5314AN,Bruchem,Zaltbommel,Gelderland,VBO,5.243223,51.788259
Peperstraat,24,,,5314AN,Bruchem,Zaltbommel,Gelderland,VBO,5.242949,51.787971
Peperstraat,26,,,5314AN,Bruchem,Zaltbommel,Gelderland,VBO,5.242588,51.787530
Peperstraat,28,,,5314AN,Bruchem,Zaltbommel,Gelderland,VBO,5.241949,51.787808
Peperstraat,30,,,5314AP,Bruchem,Zaltbommel,Gelderland,VBO,5.240328,51.787221
Peperstraat,32,,,5314AP,Bruchem,Zaltbommel,Gelderland,VBO,5.239807,51.786771
Peperstraat,34,a,,5314AP,Bruchem,Zaltbommel,Gelderland,VBO,5.238219,51.785124
Peperstraat,34,,,5314AP,Bruchem,Zaltbommel,Gelderland,VBO,5.238782,51.785691
Peperstraat,36,,,5314AP,Bruchem,Zaltbommel,Gelderland,VBO,5.238075,51.784810
Peperstraat,38,,,5314AP,Bruchem,Zaltbommel,Gelderland,VBO,5.237988,51.784756
Peperstraat,40,,,5314AP,Bruchem,Zaltbommel,Gelderland,VBO,5.237757,51.784549
Peperstraat,42,,,5314AP,Bruchem,Zaltbommel,Gelderland,VBO,5.237684,51.784477
Peperstraat,44,,,5314AP,Bruchem,Zaltbommel,Gelderland,VBO,5.237583,51.784396
Peperstraat,46,,,5314AP,Bruchem,Zaltbommel,Gelderland,VBO,5.237482,51.784315
Peperstraat,48,,,5314AP,Bruchem,Zaltbommel,Gelderland,VBO,5.237381,51.784251
Peperstraat,50,,,5314AP,Bruchem,Zaltbommel,Gelderland,VBO,5.237323,51.784144
Peperstraat,52,,,5314AP,Bruchem,Zaltbommel,Gelderland,VBO,5.237237,51.784072
Peperstraat,54,,,5314AP,Bruchem,Zaltbommel,Gelderland,VBO,5.237092,51.783954
Peperstraat,56,,,5314AP,Bruchem,Zaltbommel,Gelderland,VBO,5.236890,51.783774
Peperstraat,58,,,5314AP,Bruchem,Zaltbommel,Gelderland,VBO,5.236658,51.783585
Peperstraat,60,,,5314AP,Bruchem,Zaltbommel,Gelderland,VBO,5.236601,51.783549
Peperstraat,62,,,5314AP,Bruchem,Zaltbommel,Gelderland,VBO,5.236340,51.783387
Peperstraat,64,,,5314AP,Bruchem,Zaltbommel,Gelderland,VBO,5.235905,51.783450
Peperstraat,66,,,5314AP,Bruchem,Zaltbommel,Gelderland,VBO,5.236095,51.783207
Peperstraat,68,,,5314AP,Bruchem,Zaltbommel,Gelderland,VBO,5.235892,51.783045
Peperstraat,70,,,5314AP,Bruchem,Zaltbommel,Gelderland,VBO,5.235738,51.781418
Ruttenweg,1,,,5314AR,Bruchem,Zaltbommel,Gelderland,VBO,5.246664,51.788100
Ruttenweg,2,,,5314AR,Bruchem,Zaltbommel,Gelderland,VBO,5.246253,51.788092
Broekheuvelstraat,1,a,,5314AS,Bruchem,Zaltbommel,Gelderland,VBO,5.242128,51.786343
Broekheuvelstraat,1,b,,5314AS,Bruchem,Zaltbommel,Gelderland,VBO,5.241321,51.784751
Broekheuvelstraat,1,,,5314AS,Bruchem,Zaltbommel,Gelderland,VBO,5.242720,51.786937
Broekheuvelstraat,2,,,5314AS,Bruchem,Zaltbommel,Gelderland,VBO,5.241404,51.786036
Broekheuvelstraat,3,,,5314AS,Bruchem,Zaltbommel,Gelderland,VBO,5.240526,51.784184
Broekheuvelstraat,5,,,5314AS,Bruchem,Zaltbommel,Gelderland,VBO,5.240253,51.783518
Kerkplein,1,,,5314AT,Bruchem,Zaltbommel,Gelderland,VBO,5.237705,51.786912
Kerkplein,6,,,5314AT,Bruchem,Zaltbommel,Gelderland,VBO,5.237009,51.787019
Kerkplein,8,,,5314AT,Bruchem,Zaltbommel,Gelderland,VBO,5.237025,51.786687
Kerkplein,10,,,5314AT,Bruchem,Zaltbommel,Gelderland,VBO,5.237242,51.786642
Kerkstraat,1,,,5314AV,Bruchem,Zaltbommel,Gelderland,VBO,5.238228,51.786679
de Kosterijstraat,1,,,5314AW,Bruchem,Zaltbommel,Gelderland,VBO,5.237635,51.786418
de Kosterijstraat,3,,,5314AW,Bruchem,Zaltbommel,Gelderland,VBO,5.237562,51.786364
de Kosterijstraat,5,,,5314AW,Bruchem,Zaltbommel,Gelderland,VBO,5.237403,51.786238
de Kosterijstraat,7,,,5314AW,Bruchem,Zaltbommel,Gelderland,VBO,5.237331,51.786184
de Kosterijstraat,9,,,5314AW,Bruchem,Zaltbommel,Gelderland,VBO,5.237288,51.786139
de Kosterijstraat,11,,,5314AW,Bruchem,Zaltbommel,Gelderland,VBO,5.237244,51.786094
de Kosterijstraat,13,,,5314AW,Bruchem,Zaltbommel,Gelderland,VBO,5.237143,51.785995
de Kosterijstraat,15,,,5314AW,Bruchem,Zaltbommel,Gelderland,VBO,5.237085,51.785941
de Kosterijstraat,17,,,5314AW,Bruchem,Zaltbommel,Gelderland,VBO,5.237042,51.785896
de Kosterijstraat,19,,,5314AW,Bruchem,Zaltbommel,Gelderland,VBO,5.236984,51.785842
de Kosterijstraat,21,,,5314AW,Bruchem,Zaltbommel,Gelderland,VBO,5.236941,51.785806
de Kosterijstraat,23,,,5314AW,Bruchem,Zaltbommel,Gelderland,VBO,5.236854,51.785707
de Kosterijstraat,25,,,5314AW,Bruchem,Zaltbommel,Gelderland,VBO,5.236796,51.785662
de Kosterijstraat,27,,,5314AW,Bruchem,Zaltbommel,Gelderland,VBO,5.236768,51.785617
de Kosterijstraat,29,,,5314AW,Bruchem,Zaltbommel,Gelderland,VBO,5.236710,51.785563
de Kosterijstraat,31,,,5314AW,Bruchem,Zaltbommel,Gelderland,VBO,5.236652,51.785518
de Kosterijstraat,33,,,5314AW,Bruchem,Zaltbommel,Gelderland,VBO,5.236625,51.785041
de Kosterijstraat,35,,,5314AW,Bruchem,Zaltbommel,Gelderland,VBO,5.236567,51.785005
de Kosterijstraat,37,,,5314AW,Bruchem,Zaltbommel,Gelderland,VBO,5.236523,51.784960
de Kosterijstraat,39,,,5314AW,Bruchem,Zaltbommel,Gelderland,VBO,5.236466,51.784906
de Kosterijstraat,41,,,5314AW,Bruchem,Zaltbommel,Gelderland,VBO,5.236365,51.784807
de Kosterijstraat,43,,,5314AW,Bruchem,Zaltbommel,Gelderland,VBO,5.236292,51.784762
de Kosterijstraat,45,,,5314AW,Bruchem,Zaltbommel,Gelderland,VBO,5.236249,51.784717
de Kosterijstraat,47,,,5314AW,Bruchem,Zaltbommel,Gelderland,VBO,5.236220,51.784681
de Kosterijstraat,49,,,5314AW,Bruchem,Zaltbommel,Gelderland,VBO,5.235628,51.784150
de Kosterijstraat,51,,,5314AW,Bruchem,Zaltbommel,Gelderland,VBO,5.235773,51.784088
de Kosterijstraat,53,,,5314AW,Bruchem,Zaltbommel,Gelderland,VBO,5.235932,51.784034
de Kosterijstraat,55,,,5314AW,Bruchem,Zaltbommel,Gelderland,VBO,5.236078,51.783962
de Kosterijstraat,2,,,5314AX,Bruchem,Zaltbommel,Gelderland,VBO,5.236505,51.786129
de Kosterijstraat,6,,,5314AX,Bruchem,Zaltbommel,Gelderland,VBO,5.236449,51.785892
de Kosterijstraat,8,,,5314AX,Bruchem,Zaltbommel,Gelderland,VBO,5.236397,51.785851
de Kosterijstraat,10,,,5314AX,Bruchem,Zaltbommel,Gelderland,VBO,5.236362,51.785803
de Kosterijstraat,12,,,5314AX,Bruchem,Zaltbommel,Gelderland,VBO,5.236312,51.785760
de Kosterijstraat,14,,,5314AX,Bruchem,Zaltbommel,Gelderland,VBO,5.236275,51.785706
de Kosterijstraat,16,,,5314AX,Bruchem,Zaltbommel,Gelderland,VBO,5.236281,51.785238
de Kosterijstraat,18,,,5314AX,Bruchem,Zaltbommel,Gelderland,VBO,5.236218,51.785185
de Kosterijstraat,20,,,5314AX,Bruchem,Zaltbommel,Gelderland,VBO,5.236161,51.785140
de Kosterijstraat,22,,,5314AX,Bruchem,Zaltbommel,Gelderland,VBO,5.236105,51.785046
de Kosterijstraat,24,,,5314AX,Bruchem,Zaltbommel,Gelderland,VBO,5.236046,51.784991
de Kosterijstraat,26,,,5314AX,Bruchem,Zaltbommel,Gelderland,VBO,5.235987,51.784942
de Kosterijstraat,28,,,5314AX,Bruchem,Zaltbommel,Gelderland,VBO,5.235930,51.784834
de Kosterijstraat,30,,,5314AX,Bruchem,Zaltbommel,Gelderland,VBO,5.235857,51.784789
de Kosterijstraat,32,,,5314AX,Bruchem,Zaltbommel,Gelderland,VBO,5.235829,51.784753
de Kosterijstraat,34,,,5314AX,Bruchem,Zaltbommel,Gelderland,VBO,5.235727,51.784654
de Kosterijstraat,36,,,5314AX,Bruchem,Zaltbommel,Gelderland,VBO,5.235684,51.784600
de Kosterijstraat,38,,,5314AX,Bruchem,Zaltbommel,Gelderland,VBO,5.235641,51.784555
de Kosterijstraat,40,,,5314AX,Bruchem,Zaltbommel,Gelderland,VBO,5.235382,51.783961
de Kosterijstraat,42,,,5314AX,Bruchem,Zaltbommel,Gelderland,VBO,5.235571,51.783854
de Kosterijstraat,44,,,5314AX,Bruchem,Zaltbommel,Gelderland,VBO,5.235803,51.783764
Gruttostraat,1,,,5314AZ,Bruchem,Zaltbommel,Gelderland,VBO,5.235222,51.784105
Gruttostraat,2,,,5314AZ,Bruchem,Zaltbommel,Gelderland,VBO,5.235220,51.784581
Gruttostraat,3,,,5314AZ,Bruchem,Zaltbommel,Gelderland,VBO,5.235164,51.784150
Gruttostraat,4,,,5314AZ,Bruchem,Zaltbommel,Gelderland,VBO,5.235075,51.784644
Gruttostraat,5,,,5314AZ,Bruchem,Zaltbommel,Gelderland,VBO,5.235135,51.784186
Gruttostraat,6,,,5314AZ,Bruchem,Zaltbommel,Gelderland,VBO,5.234974,51.784680
Gruttostraat,7,,,5314AZ,Bruchem,Zaltbommel,Gelderland,VBO,5.235091,51.784240
Gruttostraat,8,,,5314AZ,Bruchem,Zaltbommel,Gelderland,VBO,5.234843,51.784734
Gruttostraat,9,,,5314AZ,Bruchem,Zaltbommel,Gelderland,VBO,5.234931,51.784356
Gruttostraat,10,,,5314AZ,Bruchem,Zaltbommel,Gelderland,VBO,5.234756,51.784778
Gruttostraat,11,,,5314AZ,Bruchem,Zaltbommel,Gelderland,VBO,5.234888,51.784401
Gruttostraat,12,,,5314AZ,Bruchem,Zaltbommel,Gelderland,VBO,5.234596,51.784841
Gruttostraat,13,,,5314AZ,Bruchem,Zaltbommel,Gelderland,VBO,5.234807,51.784449
Gruttostraat,14,,,5314AZ,Bruchem,Zaltbommel,Gelderland,VBO,5.234914,51.785120
Gruttostraat,15,,,5314AZ,Bruchem,Zaltbommel,Gelderland,VBO,5.234549,51.784600
Gruttostraat,16,,,5314AZ,Bruchem,Zaltbommel,Gelderland,VBO,5.235059,51.785048
Gruttostraat,17,,,5314AZ,Bruchem,Zaltbommel,Gelderland,VBO,5.234479,51.784627
Gruttostraat,18,,,5314AZ,Bruchem,Zaltbommel,Gelderland,VBO,5.235161,51.785022
Gruttostraat,19,,,5314AZ,Bruchem,Zaltbommel,Gelderland,VBO,5.234412,51.784653
Gruttostraat,20,,,5314AZ,Bruchem,Zaltbommel,Gelderland,VBO,5.235306,51.784959
Gruttostraat,21,,,5314AZ,Bruchem,Zaltbommel,Gelderland,VBO,5.234345,51.784676
Gruttostraat,22,,,5314AZ,Bruchem,Zaltbommel,Gelderland,VBO,5.235393,51.784914
Gruttostraat,24,,,5314AZ,Bruchem,Zaltbommel,Gelderland,VBO,5.235524,51.784851
Gruttostraat,25,,,5314AZ,Bruchem,Zaltbommel,Gelderland,VBO,5.235638,51.785238
Gruttostraat,27,,,5314AZ,Bruchem,Zaltbommel,Gelderland,VBO,5.235784,51.785175
Fazantstraat,1,,,5314BA,Bruchem,Zaltbommel,Gelderland,VBO,5.238288,51.786095
Fazantstraat,3,,,5314BA,Bruchem,Zaltbommel,Gelderland,VBO,5.238245,51.786032
Fazantstraat,5,,,5314BA,Bruchem,Zaltbommel,Gelderland,VBO,5.238172,51.785942
Fazantstraat,7,,,5314BA,Bruchem,Zaltbommel,Gelderland,VBO,5.238115,51.785888
Fazantstraat,9,,,5314BA,Bruchem,Zaltbommel,Gelderland,VBO,5.238071,51.785825
Fazantstraat,11,,,5314BA,Bruchem,Zaltbommel,Gelderland,VBO,5.238028,51.785789
Fazantstraat,13,,,5314BA,Bruchem,Zaltbommel,Gelderland,VBO,5.237970,51.785744
Fazantstraat,15,,,5314BA,Bruchem,Zaltbommel,Gelderland,VBO,5.237883,51.785672
Fazantstraat,17,,,5314BA,Bruchem,Zaltbommel,Gelderland,VBO,5.237826,51.785618
Fazantstraat,19,,,5314BA,Bruchem,Zaltbommel,Gelderland,VBO,5.237782,51.785582
Fazantstraat,21,,,5314BA,Bruchem,Zaltbommel,Gelderland,VBO,5.237724,51.785528
Fazantstraat,23,,,5314BA,Bruchem,Zaltbommel,Gelderland,VBO,5.237681,51.785474
Fazantstraat,25,,,5314BA,Bruchem,Zaltbommel,Gelderland,VBO,5.237565,51.785402
Fazantstraat,27,,,5314BA,Bruchem,Zaltbommel,Gelderland,VBO,5.237522,51.785366
Fazantstraat,29,,,5314BA,Bruchem,Zaltbommel,Gelderland,VBO,5.237479,51.785321
Fazantstraat,31,,,5314BA,Bruchem,Zaltbommel,Gelderland,VBO,5.237435,51.785276
Fazantstraat,33,,,5314BA,Bruchem,Zaltbommel,Gelderland,VBO,5.237392,51.785231
Fazantstraat,35,,,5314BA,Bruchem,Zaltbommel,Gelderland,VBO,5.237262,51.785123
Fazantstraat,37,,,5314BA,Bruchem,Zaltbommel,Gelderland,VBO,5.237233,51.785078
Fazantstraat,2,,,5314BB,Bruchem,Zaltbommel,Gelderland,VBO,5.237954,51.786248
Fazantstraat,4,,,5314BB,Bruchem,Zaltbommel,Gelderland,VBO,5.237896,51.786194
Fazantstraat,6,,,5314BB,Bruchem,Zaltbommel,Gelderland,VBO,5.237795,51.786122
Fazantstraat,8,,,5314BB,Bruchem,Zaltbommel,Gelderland,VBO,5.237737,51.786059
Fazantstraat,10,,,5314BB,Bruchem,Zaltbommel,Gelderland,VBO,5.237679,51.786023
Fazantstraat,12,,,5314BB,Bruchem,Zaltbommel,Gelderland,VBO,5.237650,51.785978
Fazantstraat,14,,,5314BB,Bruchem,Zaltbommel,Gelderland,VBO,5.237593,51.785915
Fazantstraat,16,,,5314BB,Bruchem,Zaltbommel,Gelderland,VBO,5.237492,51.785834
Fazantstraat,18,,,5314BB,Bruchem,Zaltbommel,Gelderland,VBO,5.237448,51.785789
Fazantstraat,20,,,5314BB,Bruchem,Zaltbommel,Gelderland,VBO,5.237419,51.785753
Fazantstraat,22,,,5314BB,Bruchem,Zaltbommel,Gelderland,VBO,5.237376,51.785699
Fazantstraat,24,,,5314BB,Bruchem,Zaltbommel,Gelderland,VBO,5.237304,51.785645
Fazantstraat,26,,,5314BB,Bruchem,Zaltbommel,Gelderland,VBO,5.237188,51.785555
Fazantstraat,28,,,5314BB,Bruchem,Zaltbommel,Gelderland,VBO,5.237174,51.785501
Fazantstraat,30,,,5314BB,Bruchem,Zaltbommel,Gelderland,VBO,5.237130,51.785474
Fazantstraat,32,,,5314BB,Bruchem,Zaltbommel,Gelderland,VBO,5.237087,51.785420
Fazantstraat,34,,,5314BB,Bruchem,Zaltbommel,Gelderland,VBO,5.237015,51.785375
Patrijsstraat,1,,,5314BC,Bruchem,Zaltbommel,Gelderland,VBO,5.237494,51.784980
Patrijsstraat,3,,,5314BC,Bruchem,Zaltbommel,Gelderland,VBO,5.237567,51.784935
Patrijsstraat,5,,,5314BC,Bruchem,Zaltbommel,Gelderland,VBO,5.237654,51.784899
Patrijsstraat,7,,,5314BC,Bruchem,Zaltbommel,Gelderland,VBO,5.237770,51.784863
Dwarsstraat,1,,,5314BD,Bruchem,Zaltbommel,Gelderland,VBO,5.241316,51.786468
Dwarsstraat,2,,,5314BD,Bruchem,Zaltbommel,Gelderland,VBO,5.240998,51.786036
Akkerstraat,1,,,5314BE,Bruchem,Zaltbommel,Gelderland,VBO,5.235618,51.782739
Akkerstraat,2,,,5314BE,Bruchem,Zaltbommel,Gelderland,VBO,5.235427,51.783422
Akkerstraat,3,,,5314BE,Bruchem,Zaltbommel,Gelderland,VBO,5.235414,51.782964
Akkerstraat,4,,,5314BE,Bruchem,Zaltbommel,Gelderland,VBO,5.235253,51.783584
Akkerstraat,5,,,5314BE,Bruchem,Zaltbommel,Gelderland,VBO,5.234456,51.783538
Akkerstraat,6,,,5314BE,Bruchem,Zaltbommel,Gelderland,VBO,5.235107,51.783709
Akkerstraat,7,a,,5314BE,Bruchem,Zaltbommel,Gelderland,VBO,5.233132,51.783910
Akkerstraat,7,,,5314BE,Bruchem,Zaltbommel,Gelderland,VBO,5.233918,51.783977
Akkerstraat,8,,,5314BE,Bruchem,Zaltbommel,Gelderland,VBO,5.234889,51.783880
Akkerstraat,10,,,5314BE,Bruchem,Zaltbommel,Gelderland,VBO,5.234700,51.784050
Akkerstraat,12,,,5314BE,Bruchem,Zaltbommel,Gelderland,VBO,5.234453,51.784257
Ottersdam,1,,,5314BG,Bruchem,Zaltbommel,Gelderland,VBO,5.231750,51.786545
Ottersdam,2,,,5314BG,Bruchem,Zaltbommel,Gelderland,VBO,5.233524,51.786433
Ottersdam,3,,,5314BG,Bruchem,Zaltbommel,Gelderland,VBO,5.231272,51.786437
Ottersdam,4,,,5314BG,Bruchem,Zaltbommel,Gelderland,VBO,5.232474,51.786663
Ottersdam,8,a,,5314BG,Bruchem,Zaltbommel,Gelderland,VBO,5.231589,51.786931
Ottersdam,8,,,5314BG,Bruchem,Zaltbommel,Gelderland,VBO,5.231444,51.786949
Annekeshof,1,,,5314BH,Bruchem,Zaltbommel,Gelderland,VBO,5.236573,51.787378
Annekeshof,2,a,,5314BH,Bruchem,Zaltbommel,Gelderland,VBO,5.236970,51.787904
Annekeshof,2,b,,5314BH,Bruchem,Zaltbommel,Gelderland,VBO,5.236862,51.787891
Annekeshof,2,c,,5314BH,Bruchem,Zaltbommel,Gelderland,VBO,5.236833,51.787873
Annekeshof,2,d,,5314BH,Bruchem,Zaltbommel,Gelderland,VBO,5.236759,51.787819
Annekeshof,2,,,5314BH,Bruchem,Zaltbommel,Gelderland,VBO,5.236471,51.787675
Annekeshof,3,,,5314BH,Bruchem,Zaltbommel,Gelderland,VBO,5.236532,51.786794
Annekeshof,4,,,5314BH,Bruchem,Zaltbommel,Gelderland,VBO,5.236240,51.787504
Annekeshof,5,,,5314BH,Bruchem,Zaltbommel,Gelderland,VBO,5.236185,51.786353
Annekeshof,6,,,5314BH,Bruchem,Zaltbommel,Gelderland,VBO,5.236225,51.787486
Annekeshof,7,,,5314BH,Bruchem,Zaltbommel,Gelderland,VBO,5.236142,51.786308
Annekeshof,8,,,5314BH,Bruchem,Zaltbommel,Gelderland,VBO,5.236211,51.787459
Annekeshof,9,,,5314BH,Bruchem,Zaltbommel,Gelderland,VBO,5.236041,51.786227
Annekeshof,10,,,5314BH,Bruchem,Zaltbommel,Gelderland,VBO,5.236196,51.787441
Annekeshof,11,,,5314BH,Bruchem,Zaltbommel,Gelderland,VBO,5.235983,51.786182
Annekeshof,12,,,5314BH,Bruchem,Zaltbommel,Gelderland,VBO,5.236182,51.787414
Annekeshof,13,,,5314BH,Bruchem,Zaltbommel,Gelderland,VBO,5.235752,51.785966
Annekeshof,14,,,5314BH,Bruchem,Zaltbommel,Gelderland,VBO,5.236153,51.787396
Annekeshof,15,,,5314BH,Bruchem,Zaltbommel,Gelderland,VBO,5.235810,51.785939
Annekeshof,17,,,5314BH,Bruchem,Zaltbommel,Gelderland,VBO,5.235955,51.785877
Annekeshof,18,,,5314BH,Bruchem,Zaltbommel,Gelderland,VBO,5.235938,51.786659
Annekeshof,19,,,5314BH,Bruchem,Zaltbommel,Gelderland,VBO,5.236028,51.785841
Annekeshof,20,,,5314BH,Bruchem,Zaltbommel,Gelderland,VBO,5.235866,51.786622
Annekeshof,22,,,5314BH,Bruchem,Zaltbommel,Gelderland,VBO,5.235837,51.786595
Annekeshof,24,,,5314BH,Bruchem,Zaltbommel,Gelderland,VBO,5.235808,51.786550
Annekeshof,26,,,5314BH,Bruchem,Zaltbommel,Gelderland,VBO,5.235765,51.786514
Annekeshof,28,,,5314BH,Bruchem,Zaltbommel,Gelderland,VBO,5.235634,51.786424
Annekeshof,30,,,5314BH,Bruchem,Zaltbommel,Gelderland,VBO,5.235606,51.786379
Annekeshof,32,,,5314BH,Bruchem,Zaltbommel,Gelderland,VBO,5.235566,51.786350
Annekeshof,34,,,5314BH,Bruchem,Zaltbommel,Gelderland,VBO,5.235519,51.786315
Annekeshof,36,,,5314BH,Bruchem,Zaltbommel,Gelderland,VBO,5.235461,51.786271
Annekeshof,38,,,5314BH,Bruchem,Zaltbommel,Gelderland,VBO,5.235448,51.785732
Annekeshof,40,,,5314BH,Bruchem,Zaltbommel,Gelderland,VBO,5.235507,51.785696
Annekeshof,42,,,5314BH,Bruchem,Zaltbommel,Gelderland,VBO,5.235652,51.785633
Annekeshof,44,,,5314BH,Bruchem,Zaltbommel,Gelderland,VBO,5.235710,51.785607
Annekeshof,46,,,5314BH,Bruchem,Zaltbommel,Gelderland,VBO,5.235840,51.785535
Annekeshof,48,,,5314BH,Bruchem,Zaltbommel,Gelderland,VBO,5.235913,51.785499
Annekeshof,50,,,5314BH,Bruchem,Zaltbommel,Gelderland,VBO,5.236044,51.785436
Annekeshof,52,,,5314BH,Bruchem,Zaltbommel,Gelderland,VBO,5.236131,51.785409
Hoenderveld,1,a,,5314BJ,Bruchem,Zaltbommel,Gelderland,VBO,5.236148,51.786817
Hoenderveld,1,,,5314BJ,Bruchem,Zaltbommel,Gelderland,VBO,5.236111,51.786955
Hoenderveld,2,,,5314BJ,Bruchem,Zaltbommel,Gelderland,VBO,5.236052,51.787270
Hoenderveld,3,,,5314BJ,Bruchem,Zaltbommel,Gelderland,VBO,5.236010,51.786955
Hoenderveld,4,,,5314BJ,Bruchem,Zaltbommel,Gelderland,VBO,5.235965,51.787261
Hoenderveld,5,,,5314BJ,Bruchem,Zaltbommel,Gelderland,VBO,5.235827,51.786958
Hoenderveld,6,,,5314BJ,Bruchem,Zaltbommel,Gelderland,VBO,5.235690,51.787269
Hoenderveld,7,,,5314BJ,Bruchem,Zaltbommel,Gelderland,VBO,5.235720,51.786955
Hoenderveld,8,,,5314BJ,Bruchem,Zaltbommel,Gelderland,VBO,5.235472,51.787377
Hoenderveld,9,,,5314BJ,Bruchem,Zaltbommel,Gelderland,VBO,5.235125,51.787161
Hoenderveld,10,,,5314BJ,Bruchem,Zaltbommel,Gelderland,VBO,5.235298,51.787503
Hoenderveld,11,,,5314BJ,Bruchem,Zaltbommel,Gelderland,VBO,5.234951,51.787250
Hoenderveld,12,a,,5314BJ,Bruchem,Zaltbommel,Gelderland,VBO,5.235167,51.787619
Hoenderveld,12,,,5314BJ,Bruchem,Zaltbommel,Gelderland,VBO,5.235087,51.787668
Hoenderveld,13,,,5314BJ,Bruchem,Zaltbommel,Gelderland,VBO,5.234878,51.787277
Hoenderveld,15,,,5314BJ,Bruchem,Zaltbommel,Gelderland,VBO,5.234762,51.787403
Hoenderveld,16,,,5314BJ,Bruchem,Zaltbommel,Gelderland,VBO,5.234905,51.787754
Hoenderveld,18,,,5314BJ,Bruchem,Zaltbommel,Gelderland,VBO,5.234745,51.787969
Hoenderveld,19,,,5314BJ,Bruchem,Zaltbommel,Gelderland,VBO,5.234500,51.787529
Hoenderveld,20,,,5314BJ,Bruchem,Zaltbommel,Gelderland,VBO,5.234716,51.788032
Hoenderveld,21,,,5314BJ,Bruchem,Zaltbommel,Gelderland,VBO,5.234413,51.787699
Hoenderveld,22,,,5314BJ,Bruchem,Zaltbommel,Gelderland,VBO,5.234745,51.788014
Hoenderveld,23,,,5314BJ,Bruchem,Zaltbommel,Gelderland,VBO,5.234384,51.787753
Hoenderveld,24,,,5314BJ,Bruchem,Zaltbommel,Gelderland,VBO,5.234716,51.787996
Hoenderveld,25,,,5314BJ,Bruchem,Zaltbommel,Gelderland,VBO,5.234282,51.787879
Hoenderveld,26,,,5314BJ,Bruchem,Zaltbommel,Gelderland,VBO,5.234687,51.788014
Hoenderveld,27,,,5314BJ,Bruchem,Zaltbommel,Gelderland,VBO,5.234253,51.787933
Hoenderveld,28,,,5314BJ,Bruchem,Zaltbommel,Gelderland,VBO,5.234716,51.788041
Hoenderveld,29,,,5314BJ,Bruchem,Zaltbommel,Gelderland,VBO,5.234238,51.788085
Hoenderveld,30,,,5314BJ,Bruchem,Zaltbommel,Gelderland,VBO,5.234891,51.788141
Hoenderveld,31,,,5314BJ,Bruchem,Zaltbommel,Gelderland,VBO,5.234252,51.788139
Hoenderveld,32,,,5314BJ,Bruchem,Zaltbommel,Gelderland,VBO,5.234947,51.788176
Hoenderveld,33,,,5314BJ,Bruchem,Zaltbommel,Gelderland,VBO,5.234569,51.788544
Hoenderveld,34,,,5314BJ,Bruchem,Zaltbommel,Gelderland,VBO,5.235020,51.788221
Hoenderveld,35,,,5314BJ,Bruchem,Zaltbommel,Gelderland,VBO,5.234671,51.788607
Hoenderveld,36,,,5314BJ,Bruchem,Zaltbommel,Gelderland,VBO,5.235092,51.788266
Hoenderveld,37,,,5314BJ,Bruchem,Zaltbommel,Gelderland,VBO,5.234757,51.788661
Hoenderveld,38,,,5314BJ,Bruchem,Zaltbommel,Gelderland,VBO,5.235164,51.788356
Hoenderveld,39,,,5314BJ,Bruchem,Zaltbommel,Gelderland,VBO,5.234844,51.788733
Hoenderveld,40,,,5314BJ,Bruchem,Zaltbommel,Gelderland,VBO,5.235231,51.788379
Hoenderveld,42,,,5314BJ,Bruchem,Zaltbommel,Gelderland,VBO,5.235281,51.788431
Hoenderveld,44,,,5314BJ,Bruchem,Zaltbommel,Gelderland,VBO,5.235343,51.788476
Vreedstraat,1,,,5314BK,Bruchem,Zaltbommel,Gelderland,VBO,5.235767,51.781535
Vreedstraat,2,a,,5314BK,Bruchem,Zaltbommel,Gelderland,VBO,5.233345,51.782143
Vreedstraat,2,,,5314BK,Bruchem,Zaltbommel,Gelderland,VBO,5.232677,51.782448
Vreedstraat,3,,,5314BK,Bruchem,Zaltbommel,Gelderland,VBO,5.235245,51.781525
Vreedstraat,4,,,5314BK,Bruchem,Zaltbommel,Gelderland,VBO,5.231575,51.782563
Vreedstraat,5,,,5314BK,Bruchem,Zaltbommel,Gelderland,VBO,5.229343,51.782623
Vreedstraat,6,,,5314BK,Bruchem,Zaltbommel,Gelderland,VBO,5.230814,51.784800
Vreedstraat,7,,,5314BK,Bruchem,Zaltbommel,Gelderland,VBO,5.229386,51.782830
Vreedstraat,8,,,5314BK,Bruchem,Zaltbommel,Gelderland,VBO,5.230348,51.785321
Vreedstraat,9,,,5314BK,Bruchem,Zaltbommel,Gelderland,VBO,5.229414,51.783019
Vreedstraat,10,,,5314BK,Bruchem,Zaltbommel,Gelderland,VBO,5.229188,51.785607
Vreedstraat,11,,,5314BK,Bruchem,Zaltbommel,Gelderland,VBO,5.229414,51.783171
Vreedstraat,13,,,5314BK,Bruchem,Zaltbommel,Gelderland,VBO,5.229500,51.783360
Vreedstraat,15,,,5314BK,Bruchem,Zaltbommel,Gelderland,VBO,5.229586,51.783558
Vreedstraat,17,,,5314BK,Bruchem,Zaltbommel,Gelderland,VBO,5.229687,51.783801
Vreedstraat,19,,,5314BK,Bruchem,Zaltbommel,Gelderland,VBO,5.229741,51.785032
Vreedstraat,21,,,5314BK,Bruchem,Zaltbommel,Gelderland,VBO,5.229755,51.785158
Vreedstraat,23,,,5314BK,Bruchem,Zaltbommel,Gelderland,VBO,5.229392,51.784779
Hoogveldweg,1,,,5314BL,Bruchem,Zaltbommel,Gelderland,VBO,5.229722,51.782030
Hoogveldweg,2,,,5314BL,Bruchem,Zaltbommel,Gelderland,VBO,5.228887,51.780519
Hoogveldweg,3,,,5314BL,Bruchem,Zaltbommel,Gelderland,VBO,5.229737,51.781940
Hoogveldweg,4,,,5314BL,Bruchem,Zaltbommel,Gelderland,VBO,5.228280,51.779907
Hoogveldweg,5,,,5314BL,Bruchem,Zaltbommel,Gelderland,VBO,5.229708,51.781824
Hoogveldweg,6,,,5314BL,Bruchem,Zaltbommel,Gelderland,VBO,5.227833,51.779493
Hoogveldweg,7,,,5314BL,Bruchem,Zaltbommel,Gelderland,VBO,5.229709,51.781716
Hoogveldweg,8,,,5314BL,Bruchem,Zaltbommel,Gelderland,VBO,5.227298,51.779124
Hoogveldweg,9,,,5314BL,Bruchem,Zaltbommel,Gelderland,VBO,5.229709,51.781590
Hoogveldweg,10,,,5314BL,Bruchem,Zaltbommel,Gelderland,VBO,5.226633,51.778754
Hoogveldweg,11,,,5314BL,Bruchem,Zaltbommel,Gelderland,VBO,5.229724,51.781455
Hoogveldweg,13,,,5314BL,Bruchem,Zaltbommel,Gelderland,VBO,5.229958,51.780871
Hoogveldweg,15,,,5314BL,Bruchem,Zaltbommel,Gelderland,VBO,5.229989,51.780197
Hoogveldweg,17,,,5314BL,Bruchem,Zaltbommel,Gelderland,VBO,5.229482,51.780313
Hoogveldweg,19,,,5314BL,Bruchem,Zaltbommel,Gelderland,VBO,5.229699,51.780287
Hoogveldweg,21,a,,5314BL,Bruchem,Zaltbommel,Gelderland,VBO,5.229837,51.779824
Hoogveldweg,21,,,5314BL,Bruchem,Zaltbommel,Gelderland,VBO,5.229077,51.779962
Hoogveldweg,23,,,5314BL,Bruchem,Zaltbommel,Gelderland,VBO,5.228443,51.779116
Hoogveldweg,25,,,5314BL,Bruchem,Zaltbommel,Gelderland,VBO,5.227691,51.778612
Hoogveldweg,31,,,5314BL,Bruchem,Zaltbommel,Gelderland,VBO,5.226765,51.778116
Burge,2,,,5314BM,Bruchem,Zaltbommel,Gelderland,VBO,5.230664,51.781987
Burge,4,,,5314BM,Bruchem,Zaltbommel,Gelderland,VBO,5.230636,51.781897
Burge,6,,,5314BM,Bruchem,Zaltbommel,Gelderland,VBO,5.230607,51.781789
Burge,8,,,5314BM,Bruchem,Zaltbommel,Gelderland,VBO,5.230564,51.781681
Burge,10,,,5314BM,Bruchem,Zaltbommel,Gelderland,VBO,5.230521,51.781546
Burge,12,,,5314BM,Bruchem,Zaltbommel,Gelderland,VBO,5.230478,51.781447
Burge,14,,,5314BM,Bruchem,Zaltbommel,Gelderland,VBO,5.230435,51.781357
Geerweg,1,,,5314BN,Bruchem,Zaltbommel,Gelderland,VBO,5.236465,51.780790
Geerweg,2,,,5314BN,Bruchem,Zaltbommel,Gelderland,VBO,5.235134,51.780159
Geerweg,3,a,,5314BN,Bruchem,Zaltbommel,Gelderland,VBO,5.236005,51.779966
Geerweg,3,,,5314BN,Bruchem,Zaltbommel,Gelderland,VBO,5.236147,51.780502
Geerweg,5,,,5314BN,Bruchem,Zaltbommel,Gelderland,VBO,5.235700,51.779935
Nieuwstraat,1,,,5314BP,Bruchem,Zaltbommel,Gelderland,VBO,5.237159,51.781222
Nieuwstraat,3,a,,5314BP,Bruchem,Zaltbommel,Gelderland,VBO,5.238129,51.781366
Nieuwstraat,3,,,5314BP,Bruchem,Zaltbommel,Gelderland,VBO,5.238028,51.781268
Nieuwstraat,7,,,5314BP,Bruchem,Zaltbommel,Gelderland,VBO,5.242469,51.779314
Kievitstraat,1,,,5314BR,Bruchem,Zaltbommel,Gelderland,VBO,5.237336,51.784737
Kievitstraat,2,,,5314BR,Bruchem,Zaltbommel,Gelderland,VBO,5.236987,51.784880
Kievitstraat,3,,,5314BR,Bruchem,Zaltbommel,Gelderland,VBO,5.237263,51.784692
Kievitstraat,4,,,5314BR,Bruchem,Zaltbommel,Gelderland,VBO,5.236930,51.784826
Kievitstraat,5,,,5314BR,Bruchem,Zaltbommel,Gelderland,VBO,5.237220,51.784638
Kievitstraat,6,,,5314BR,Bruchem,Zaltbommel,Gelderland,VBO,5.236886,51.784790
Kievitstraat,7,,,5314BR,Bruchem,Zaltbommel,Gelderland,VBO,5.237162,51.784593
Kievitstraat,8,,,5314BR,Bruchem,Zaltbommel,Gelderland,VBO,5.236829,51.784745
Kievitstraat,9,,,5314BR,Bruchem,Zaltbommel,Gelderland,VBO,5.237076,51.784494
Kievitstraat,10,,,5314BR,Bruchem,Zaltbommel,Gelderland,VBO,5.236727,51.784646
Kievitstraat,11,,,5314BR,Bruchem,Zaltbommel,Gelderland,VBO,5.237018,51.784458
Kievitstraat,12,,,5314BR,Bruchem,Zaltbommel,Gelderland,VBO,5.236684,51.784592
Kievitstraat,13,,,5314BR,Bruchem,Zaltbommel,Gelderland,VBO,5.236960,51.784404
Kievitstraat,14,,,5314BR,Bruchem,Zaltbommel,Gelderland,VBO,5.236641,51.784556
Kievitstraat,15,,,5314BR,Bruchem,Zaltbommel,Gelderland,VBO,5.236902,51.784359
Kievitstraat,16,,,5314BR,Bruchem,Zaltbommel,Gelderland,VBO,5.236568,51.784502
Kievitstraat,17,,,5314BR,Bruchem,Zaltbommel,Gelderland,VBO,5.236859,51.784314
Kievitstraat,19,,,5314BR,Bruchem,Zaltbommel,Gelderland,VBO,5.236569,51.784232
Kievitstraat,21,,,5314BR,Bruchem,Zaltbommel,Gelderland,VBO,5.236497,51.784268
Kievitstraat,23,,,5314BR,Bruchem,Zaltbommel,Gelderland,VBO,5.236424,51.784295
Kievitstraat,25,,,5314BR,Bruchem,Zaltbommel,Gelderland,VBO,5.236366,51.784331
Kievitstraat,27,,,5314BR,Bruchem,Zaltbommel,Gelderland,VBO,5.236207,51.784394
Kievitstraat,29,,,5314BR,Bruchem,Zaltbommel,Gelderland,VBO,5.236148,51.784421
Kievitstraat,31,,,5314BR,Bruchem,Zaltbommel,Gelderland,VBO,5.236061,51.784465
Kievitstraat,33,,,5314BR,Bruchem,Zaltbommel,Gelderland,VBO,5.235989,51.784492
Kievitstraat,1009,t,,5314BR,Bruchem,Zaltbommel,Gelderland,VBO,5.236708,51.784196
Nieuwstraat,8,,,5314BS,Bruchem,Zaltbommel,Gelderland,VBO,5.241727,51.778868
Diaconieshof,1,,,5314BT,Bruchem,Zaltbommel,Gelderland,VBO,5.234570,51.788284
Diaconieshof,3,,,5314BT,Bruchem,Zaltbommel,Gelderland,VBO,5.234498,51.788319
Diaconieshof,5,,,5314BT,Bruchem,Zaltbommel,Gelderland,VBO,5.234352,51.788391
Diaconieshof,7,,,5314BT,Bruchem,Zaltbommel,Gelderland,VBO,5.234251,51.788427
Kerkeland,2,,,5314BV,Bruchem,Zaltbommel,Gelderland,VBO,5.234618,51.786998
Kerkeland,3,,,5314BV,Bruchem,Zaltbommel,Gelderland,VBO,5.234314,51.786782
Kerkeland,4,,,5314BV,Bruchem,Zaltbommel,Gelderland,VBO,5.234473,51.787097
Kerkeland,5,,,5314BV,Bruchem,Zaltbommel,Gelderland,VBO,5.234053,51.786917
Kerkeland,6,,,5314BV,Bruchem,Zaltbommel,Gelderland,VBO,5.234299,51.787178
Kerkeland,8,,,5314BV,Bruchem,Zaltbommel,Gelderland,VBO,5.234197,51.787330
Kerkeland,10,,,5314BV,Bruchem,Zaltbommel,Gelderland,VBO,5.234080,51.787519
Kerkeland,12,,,5314BV,Bruchem,Zaltbommel,Gelderland,VBO,5.233935,51.787663
Kerkeland,14,,,5314BV,Bruchem,Zaltbommel,Gelderland,VBO,5.233804,51.787833
Kerkeland,16,,,5314BV,Bruchem,Zaltbommel,Gelderland,VBO,5.233658,51.787932
Kershof,1,,,5314BW,Bruchem,Zaltbommel,Gelderland,VBO,5.235245,51.785831
Kershof,2,,,5314BW,Bruchem,Zaltbommel,Gelderland,VBO,5.235331,51.786109
Kershof,3,,,5314BW,Bruchem,Zaltbommel,Gelderland,VBO,5.234969,51.785947
Kershof,4,,,5314BW,Bruchem,Zaltbommel,Gelderland,VBO,5.235186,51.786181
Kershof,5,,,5314BW,Bruchem,Zaltbommel,Gelderland,VBO,5.234650,51.786064
Kershof,6,a,,5314BW,Bruchem,Zaltbommel,Gelderland,VBO,5.234968,51.786289
Kershof,6,,,5314BW,Bruchem,Zaltbommel,Gelderland,VBO,5.235041,51.786253
Kershof,7,,,5314BW,Bruchem,Zaltbommel,Gelderland,VBO,5.234447,51.786162
Kershof,8,,,5314BW,Bruchem,Zaltbommel,Gelderland,VBO,5.235084,51.786433
Kershof,9,,,5314BW,Bruchem,Zaltbommel,Gelderland,VBO,5.234200,51.786261
Kershof,10,,,5314BW,Bruchem,Zaltbommel,Gelderland,VBO,5.235113,51.786487
Kershof,11,,,5314BW,Bruchem,Zaltbommel,Gelderland,VBO,5.233983,51.786341
Kershof,12,,,5314BW,Bruchem,Zaltbommel,Gelderland,VBO,5.235214,51.786568
Kershof,13,,,5314BW,Bruchem,Zaltbommel,Gelderland,VBO,5.234054,51.786548
Kershof,14,,,5314BW,Bruchem,Zaltbommel,Gelderland,VBO,5.235272,51.786613
Kershof,15,,,5314BW,Bruchem,Zaltbommel,Gelderland,VBO,5.234562,51.786549
Kershof,16,,,5314BW,Bruchem,Zaltbommel,Gelderland,VBO,5.235329,51.786703
Kershof,17,,,5314BW,Bruchem,Zaltbommel,Gelderland,VBO,5.234619,51.786675
Kershof,18,,,5314BW,Bruchem,Zaltbommel,Gelderland,VBO,5.235358,51.786748
Kershof,19,,,5314BW,Bruchem,Zaltbommel,Gelderland,VBO,5.234662,51.786720
Kershof,20,,,5314BW,Bruchem,Zaltbommel,Gelderland,VBO,5.235387,51.786793
Kershof,21,,,5314BW,Bruchem,Zaltbommel,Gelderland,VBO,5.234836,51.786891
Kershof,22,,,5314BW,Bruchem,Zaltbommel,Gelderland,VBO,5.235416,51.786829
Kershof,23,,,5314BW,Bruchem,Zaltbommel,Gelderland,VBO,5.234951,51.786972
Kershof,24,,,5314BW,Bruchem,Zaltbommel,Gelderland,VBO,5.235459,51.786865
Molenstraat,1,,,5314BX,Bruchem,Zaltbommel,Gelderland,VBO,5.231321,51.788971
Molenstraat,7,a,,5314BX,Bruchem,Zaltbommel,Gelderland,VBO,5.231530,51.787318
Molenstraat,7,,,5314BX,Bruchem,Zaltbommel,Gelderland,VBO,5.232063,51.788092
Molenstraat,9,,,5314BX,Bruchem,Zaltbommel,Gelderland,VBO,5.230341,51.787469
Molenstraat,11,,,5314BX,Bruchem,Zaltbommel,Gelderland,VBO,5.230040,51.786336
Molenstraat,13,,,5314BX,Bruchem,Zaltbommel,Gelderland,VBO,5.230403,51.786265
Molenstraat,15,,,5314BX,Bruchem,Zaltbommel,Gelderland,VBO,5.230360,51.786157
Molenstraat,17,,,5314BX,Bruchem,Zaltbommel,Gelderland,VBO,5.229259,51.786206
Molenstraat,19,,,5314BX,Bruchem,Zaltbommel,Gelderland,VBO,5.228652,51.785633
Molenstraat,21,,,5314BX,Bruchem,Zaltbommel,Gelderland,VBO,5.227828,51.784868
Molenstraat,23,,,5314BX,Bruchem,Zaltbommel,Gelderland,VBO,5.225805,51.783283
Molenstraat,2,,,5314BZ,Bruchem,Zaltbommel,Gelderland,VBO,5.230581,51.789276
Molenstraat,4,,,5314BZ,Bruchem,Zaltbommel,Gelderland,VBO,5.230698,51.789105
Molenstraat,6,,,5314BZ,Bruchem,Zaltbommel,Gelderland,VBO,5.230281,51.788617
Molenstraat,8,,,5314BZ,Bruchem,Zaltbommel,Gelderland,VBO,5.229588,51.787378
Molenstraat,10,,,5314BZ,Bruchem,Zaltbommel,Gelderland,VBO,5.229183,51.786901
Molenstraat,12,,,5314BZ,Bruchem,Zaltbommel,Gelderland,VBO,5.228707,51.786289
Molenstraat,16,,,5314BZ,Bruchem,Zaltbommel,Gelderland,VBO,5.228514,51.786114
Molenstraat,18,,,5314BZ,Bruchem,Zaltbommel,Gelderland,VBO,5.227566,51.785353
Molenstraat,20,a,,5314BZ,Bruchem,Zaltbommel,Gelderland,VBO,5.226938,51.784980
Molenstraat,20,,,5314BZ,Bruchem,Zaltbommel,Gelderland,VBO,5.227104,51.784901
Molenstraat,22,,,5314BZ,Bruchem,Zaltbommel,Gelderland,VBO,5.226742,51.784786
Molenstraat,24,,,5314BZ,Bruchem,Zaltbommel,Gelderland,VBO,5.226265,51.784399
Molenstraat,26,,,5314BZ,Bruchem,Zaltbommel,Gelderland,VBO,5.226106,51.784263
Molenstraat,28,,,5314BZ,Bruchem,Zaltbommel,Gelderland,VBO,5.224341,51.783344
Burg De Kortstraat,2,,,5314CA,Bruchem,Zaltbommel,Gelderland,VBO,5.233989,51.788588
Burg De Kortstraat,4,,,5314CA,Bruchem,Zaltbommel,Gelderland,VBO,5.233874,51.788507
Burg De Kortstraat,6,,,5314CA,Bruchem,Zaltbommel,Gelderland,VBO,5.233787,51.788453
Burg De Kortstraat,8,,,5314CA,Bruchem,Zaltbommel,Gelderland,VBO,5.233686,51.788372
Burg De Kortstraat,10,,,5314CA,Bruchem,Zaltbommel,Gelderland,VBO,5.233585,51.788309
Burg De Kortstraat,12,,,5314CA,Bruchem,Zaltbommel,Gelderland,VBO,5.233466,51.788206
Burg De Kortstraat,14,,,5314CA,Bruchem,Zaltbommel,Gelderland,VBO,5.233339,51.788183
Burg De Kortstraat,16,,,5314CA,Bruchem,Zaltbommel,Gelderland,VBO,5.233267,51.788057
Sarskampseweg,2,,,5314CH,Bruchem,Zaltbommel,Gelderland,VBO,5.225319,51.779096
Sarskampseweg,4,,,5314CH,Bruchem,Zaltbommel,Gelderland,VBO,5.228649,51.777250
Sarskampseweg,6,,,5314CH,Bruchem,Zaltbommel,Gelderland,VBO,5.232241,51.777210
Veldleeuwerik,2,,,5314DA,Bruchem,Zaltbommel,Gelderland,VBO,5.234840,51.785436
Veldleeuwerik,4,,,5314DA,Bruchem,Zaltbommel,Gelderland,VBO,5.234768,51.785465
Veldleeuwerik,6,,,5314DA,Bruchem,Zaltbommel,Gelderland,VBO,5.234699,51.785489
Veldleeuwerik,8,,,5314DA,Bruchem,Zaltbommel,Gelderland,VBO,5.234631,51.785516
Veldleeuwerik,10,,,5314DA,Bruchem,Zaltbommel,Gelderland,VBO,5.234562,51.785544
Veldleeuwerik,12,,,5314DA,Bruchem,Zaltbommel,Gelderland,VBO,5.234393,51.785640
Veldleeuwerik,14,,,5314DA,Bruchem,Zaltbommel,Gelderland,VBO,5.234277,51.785687
Veldleeuwerik,16,,,5314DA,Bruchem,Zaltbommel,Gelderland,VBO,5.234063,51.785802
Kwartelkoning,1,,,5314DB,Bruchem,Zaltbommel,Gelderland,VBO,5.234520,51.785197
Kwartelkoning,2,,,5314DB,Bruchem,Zaltbommel,Gelderland,VBO,5.234479,51.785159
Kwartelkoning,3,,,5314DB,Bruchem,Zaltbommel,Gelderland,VBO,5.234416,51.785122
Kwartelkoning,4,,,5314DB,Bruchem,Zaltbommel,Gelderland,VBO,5.234359,51.785086
Kwartelkoning,5,,,5314DB,Bruchem,Zaltbommel,Gelderland,VBO,5.234298,51.785059
Kwartelkoning,6,,,5314DB,Bruchem,Zaltbommel,Gelderland,VBO,5.234183,51.784977
Kwartelkoning,7,,,5314DB,Bruchem,Zaltbommel,Gelderland,VBO,5.234130,51.784941
Kwartelkoning,8,,,5314DB,Bruchem,Zaltbommel,Gelderland,VBO,5.234084,51.784905
Kwartelkoning,9,,,5314DB,Bruchem,Zaltbommel,Gelderland,VBO,5.234034,51.784872
Kwartelkoning,10,,,5314DB,Bruchem,Zaltbommel,Gelderland,VBO,5.233982,51.784838
Kwartelkoning,11,,,5314DB,Bruchem,Zaltbommel,Gelderland,VBO,5.233834,51.784775
Kwartelkoning,12,,,5314DB,Bruchem,Zaltbommel,Gelderland,VBO,5.233521,51.785060
Kwartelkoning,13,,,5314DB,Bruchem,Zaltbommel,Gelderland,VBO,5.233581,51.785196
Kwartelkoning,14,,,5314DB,Bruchem,Zaltbommel,Gelderland,VBO,5.233644,51.785258
Kwartelkoning,15,,,5314DB,Bruchem,Zaltbommel,Gelderland,VBO,5.233730,51.785393
Kwartelkoning,16,,,5314DB,Bruchem,Zaltbommel,Gelderland,VBO,5.233793,51.785456
Boerenzwaluw,2,,,5314DC,Bruchem,Zaltbommel,Gelderland,VBO,5.234267,51.784467
Vlierdseweg,2,,,5314KD,Bruchem,Zaltbommel,Gelderland,VBO,5.267427,51.777266
Vlierdseweg,4,,,5314KD,Bruchem,Zaltbommel,Gelderland,VBO,5.269079,51.777546
Steenweg,1,a,,5314LE,Bruchem,Zaltbommel,Gelderland,VBO,5.251226,51.792304
Steenweg,1,,,5314LE,Bruchem,Zaltbommel,Gelderland,VBO,5.250425,51.793606
Steenweg,2,,,5314LE,Bruchem,Zaltbommel,Gelderland,VBO,5.249555,51.793587
Steenweg,3,a,,5314LE,Bruchem,Zaltbommel,Gelderland,VBO,5.253864,51.789829
Steenweg,3,,,5314LE,Bruchem,Zaltbommel,Gelderland,VBO,5.253624,51.790006
Steenweg,4,,,5314LE,Bruchem,Zaltbommel,Gelderland,VBO,5.252711,51.789915
Steenweg,6,,,5314LE,Bruchem,Zaltbommel,Gelderland,VBO,5.255039,51.786807
Steenweg,8,,,5314LE,Bruchem,Zaltbommel,Gelderland,VBO,5.256173,51.785613
Sint Antoniestraat,1,,,5314LG,Bruchem,Zaltbommel,Gelderland,VBO,5.252444,51.792063
Sint Antoniestraat,2,,,5314LG,Bruchem,Zaltbommel,Gelderland,VBO,5.252242,51.791649
Sint Antoniestraat,3,,,5314LG,Bruchem,Zaltbommel,Gelderland,VBO,5.255908,51.792094
Sint Antoniestraat,4,a,,5314LG,Bruchem,Zaltbommel,Gelderland,VBO,5.254214,51.791669
Sint Antoniestraat,4,,,5314LG,Bruchem,Zaltbommel,Gelderland,VBO,5.253590,51.791740
Sint Antoniestraat,5,,,5314LG,Bruchem,Zaltbommel,Gelderland,VBO,5.256735,51.791933
Sint Antoniestraat,6,,,5314LG,Bruchem,Zaltbommel,Gelderland,VBO,5.257316,51.791547
Sint Antoniestraat,7,,,5314LG,Bruchem,Zaltbommel,Gelderland,VBO,5.257401,51.792023
Sint Antoniestraat,9,,,5314LG,Bruchem,Zaltbommel,Gelderland,VBO,5.256909,51.792579
Parallelweg,2,,,5314LH,Bruchem,Zaltbommel,Gelderland,VBO,5.257197,51.782289
Parallelweg,4,,,5314LH,Bruchem,Zaltbommel,Gelderland,VBO,5.257183,51.782226
Parallelweg,6,,,5314LH,Bruchem,Zaltbommel,Gelderland,VBO,5.257179,51.778720
Rijksweg A2,2,a,,5314LJ,Bruchem,Zaltbommel,Gelderland,VBO,5.260471,51.775021
Rijksweg A2,2,b,,5314LJ,Bruchem,Zaltbommel,Gelderland,VBO,5.257685,51.776784
Rijksweg A2,2,,,5314LJ,Bruchem,Zaltbommel,Gelderland,VBO,5.257692,51.776474
Viaductweg,2,a,,5314LK,Bruchem,Zaltbommel,Gelderland,VBO,5.251296,51.788295
Viaductweg,2,,,5314LK,Bruchem,Zaltbommel,Gelderland,VBO,5.252969,51.789237
Viaductweg,3,a,,5314LK,Bruchem,Zaltbommel,Gelderland,VBO,5.240264,51.780183
Viaductweg,3,,,5314LK,Bruchem,Zaltbommel,Gelderland,VBO,5.251646,51.787352
Viaductweg,4,a,,5314LK,Bruchem,Zaltbommel,Gelderland,VBO,5.238860,51.779436
Viaductweg,4,,,5314LK,Bruchem,Zaltbommel,Gelderland,VBO,5.240334,51.780938
Viaductweg,5,,,5314LK,Bruchem,Zaltbommel,Gelderland,VBO,5.238476,51.777503
Viaductweg,6,,,5314LK,Bruchem,Zaltbommel,Gelderland,VBO,5.238500,51.778995
Viaductweg,8,,,5314LK,Bruchem,Zaltbommel,Gelderland,VBO,5.238138,51.778582
Viaductweg,9,,,5314LK,Bruchem,Zaltbommel,Gelderland,VBO,5.237539,51.775991
Viaductweg,10,,,5314LK,Bruchem,Zaltbommel,Gelderland,VBO,5.236804,51.777035
Viaductweg,12,a,,5314LK,Bruchem,Zaltbommel,Gelderland,VBO,5.236429,51.775680
Viaductweg,12,,,5314LK,Bruchem,Zaltbommel,Gelderland,VBO,5.235815,51.775845
Viaductweg,14,,,5314LK,Bruchem,Zaltbommel,Gelderland,VBO,5.237975,51.773355
Inktfordseweg,1,a,,5314LL,Bruchem,Zaltbommel,Gelderland,VBO,5.263774,51.788695
Inktfordseweg,1,b,,5314LL,Bruchem,Zaltbommel,Gelderland,VBO,5.263763,51.787230
Inktfordseweg,1,,,5314LL,Bruchem,Zaltbommel,Gelderland,VBO,5.263714,51.789154
Inktfordseweg,2,,,5314LL,Bruchem,Zaltbommel,Gelderland,VBO,5.260015,51.790246
Inktfordseweg,3,,,5314LL,Bruchem,Zaltbommel,Gelderland,VBO,5.263660,51.786701
Inktfordseweg,4,,,5314LL,Bruchem,Zaltbommel,Gelderland,VBO,5.261413,51.782895
Inktfordseweg,5,,,5314LL,Bruchem,Zaltbommel,Gelderland,VBO,5.262700,51.783742
Inktfordseweg,7,,,5314LL,Bruchem,Zaltbommel,Gelderland,VBO,5.262464,51.779993
Inktfordseweg,9,,,5314LL,Bruchem,Zaltbommel,Gelderland,VBO,5.262508,51.779957
Inktfordseweg,11,,,5314LL,Bruchem,Zaltbommel,Gelderland,VBO,5.262814,51.779302
Inktfordseweg,13,,,5314LL,Bruchem,Zaltbommel,Gelderland,VBO,5.262908,51.776686
Kolkweg,1,a,,5314LN,Bruchem,Zaltbommel,Gelderland,VBO,5.256079,51.782286
Kolkweg,1,,,5314LN,Bruchem,Zaltbommel,Gelderland,VBO,5.256053,51.782251
Kolkweg,5,,,5314LN,Bruchem,Zaltbommel,Gelderland,VBO,5.250170,51.782074
Kolkweg,7,,,5314LN,Bruchem,Zaltbommel,Gelderland,VBO,5.248232,51.782741
Broekseweg,1,,,5314LS,Bruchem,Zaltbommel,Gelderland,VBO,5.242514,51.774371
Middelstraat,1,,,5314NA,Bruchem,Zaltbommel,Gelderland,VBO,5.227765,51.794540
Middelstraat,2,,,5314NA,Bruchem,Zaltbommel,Gelderland,VBO,5.225045,51.793143
Middelstraat,3,,,5314NA,Bruchem,Zaltbommel,Gelderland,VBO,5.226085,51.794241
Middelstraat,7,,,5314NA,Bruchem,Zaltbommel,Gelderland,VBO,5.210397,51.791342
Kleinestraat,2,,,5314NB,Bruchem,Zaltbommel,Gelderland,VBO,5.230334,51.789509
Kleinestraat,3,,,5314NB,Bruchem,Zaltbommel,Gelderland,VBO,5.215006,51.787753
Kleinestraat,4,,,5314NB,Bruchem,Zaltbommel,Gelderland,VBO,5.230204,51.789464
Kleinestraat,5,i,,5314NB,Bruchem,Zaltbommel,Gelderland,VBO,5.214426,51.787707
Kleinestraat,5,,,5314NB,Bruchem,Zaltbommel,Gelderland,VBO,5.214441,51.787689
Kleinestraat,6,,,5314NB,Bruchem,Zaltbommel,Gelderland,VBO,5.229914,51.789401
Kleinestraat,8,,,5314NB,Bruchem,Zaltbommel,Gelderland,VBO,5.209888,51.788096
Kleinestraat,10,,,5314NB,Bruchem,Zaltbommel,Gelderland,VBO,5.207949,51.787347
