openbareruimtenaam,huisnummer,huisletter,huisnummertoevoeging,postcode,woonplaatsnaam,gemeentenaam,provincienaam,typeadresseerbaarobject,longitude,latitude
Delwijnsekade,3,,,5325GA,Well,Maasdriel,Gelderland,VBO,5.211746,51.768900
Delwijnsekade,7,,,5325GA,Well,Maasdriel,Gelderland,VBO,5.209325,51.769112
Delwijnsekade,9,,,5325GA,Well,Maasdriel,Gelderland,VBO,5.193242,51.766273
Bernseweg,17,,,5325KA,Well,Maasdriel,Gelderland,VBO,5.196132,51.750862
Bernseweg,40,,,5325KA,Well,Maasdriel,Gelderland,VBO,5.194466,51.751138
Bernseweg,42,,,5325KA,Well,Maasdriel,Gelderland,VBO,5.193814,51.751002
Bernseweg,44,,,5325KA,Well,Maasdriel,Gelderland,VBO,5.193467,51.750894
Slijkwellsestraat,1,,,5325KB,Well,Maasdriel,Gelderland,VBO,5.193362,51.748404
Slijkwellsestraat,3,,,5325KB,Well,Maasdriel,Gelderland,VBO,5.192910,51.749095
Slijkwellsestraat,4,a,,5325KB,Well,Maasdriel,Gelderland,VBO,5.194537,51.747894
Slijkwellsestraat,4,,,5325KB,Well,Maasdriel,Gelderland,VBO,5.194698,51.747597
Slijkwellsestraat,5,,,5325KB,Well,Maasdriel,Gelderland,VBO,5.191861,51.750631
Slijkwellsestraat,6,,,5325KB,Well,Maasdriel,Gelderland,VBO,5.194363,51.748046
Slijkwellsestraat,8,,,5325KB,Well,Maasdriel,Gelderland,VBO,5.193897,51.748675
Slijkwellsestraat,10,,,5325KB,Well,Maasdriel,Gelderland,VBO,5.193343,51.749438
Slijkwellsestraat,12,,,5325KB,Well,Maasdriel,Gelderland,VBO,5.192950,51.749985
Slijkwellsestraat,14,,,5325KB,Well,Maasdriel,Gelderland,VBO,5.192862,51.750147
Slijkwellsestraat,16,,,5325KB,Well,Maasdriel,Gelderland,VBO,5.192353,51.750820
Slijkwellsestraat,20,a,,5325KB,Well,Maasdriel,Gelderland,VBO,5.192050,51.751581
Slijkwellsestraat,20,,,5325KB,Well,Maasdriel,Gelderland,VBO,5.191914,51.751402
Slijkwellsestraat,22,,,5325KB,Well,Maasdriel,Gelderland,VBO,5.190895,51.753002
Slijkwellsestraat,24,,,5325KB,Well,Maasdriel,Gelderland,VBO,5.190779,51.753110
Slijkwellsedijk,2,,,5325KC,Well,Maasdriel,Gelderland,VBO,5.190746,51.753901
Slijkwellsedijk,4,,,5325KC,Well,Maasdriel,Gelderland,VBO,5.191294,51.754432
Slijkwellsedijk,6,,,5325KC,Well,Maasdriel,Gelderland,VBO,5.190396,51.754439
Slijkwellsedijk,10,,,5325KC,Well,Maasdriel,Gelderland,VBO,5.190263,51.755131
Slijkwellsedijk,12,,,5325KC,Well,Maasdriel,Gelderland,VBO,5.190867,51.756893
Slijkwellsedijk,14,,,5325KC,Well,Maasdriel,Gelderland,VBO,5.189846,51.757665
Slijkwellsedijk,16,,,5325KC,Well,Maasdriel,Gelderland,VBO,5.189295,51.757862
Wellseindsedijk,1,a,,5325KD,Well,Maasdriel,Gelderland,VBO,5.175713,51.762542
Wellseindsedijk,1,,,5325KD,Well,Maasdriel,Gelderland,VBO,5.176021,51.762504
Wellseindsedijk,2,,,5325KD,Well,Maasdriel,Gelderland,VBO,5.189145,51.758242
Wellseindsedijk,4,,,5325KD,Well,Maasdriel,Gelderland,VBO,5.188843,51.758500
Wellseindsedijk,6,,,5325KD,Well,Maasdriel,Gelderland,VBO,5.187738,51.759495
Wellseindsedijk,8,,,5325KD,Well,Maasdriel,Gelderland,VBO,5.187896,51.759837
Wellseindsedijk,14,,,5325KD,Well,Maasdriel,Gelderland,VBO,5.185431,51.760480
Wellseindsedijk,16,,,5325KD,Well,Maasdriel,Gelderland,VBO,5.185169,51.760615
Wellseindsedijk,18,,,5325KD,Well,Maasdriel,Gelderland,VBO,5.181659,51.761795
Wellseindsedijk,20,,,5325KD,Well,Maasdriel,Gelderland,VBO,5.179179,51.762375
Wellseindsedijk,22,,,5325KD,Well,Maasdriel,Gelderland,VBO,5.177469,51.762605
Wellseindsedijk,24,,,5325KD,Well,Maasdriel,Gelderland,VBO,5.177510,51.763019
Wellseindsedijk,30,,,5325KD,Well,Maasdriel,Gelderland,VBO,5.176526,51.762846
Wellseindsedijk,32,,,5325KD,Well,Maasdriel,Gelderland,VBO,5.176179,51.762810
Wellseindsedijk,34,,,5325KD,Well,Maasdriel,Gelderland,VBO,5.175686,51.762908
Wellseindsedijk,36,,,5325KD,Well,Maasdriel,Gelderland,VBO,5.175048,51.762952
Onderweg,3,,,5325KE,Well,Maasdriel,Gelderland,VBO,5.183298,51.761330
Onderweg,5,,,5325KE,Well,Maasdriel,Gelderland,VBO,5.183819,51.761295
Onderweg,7,,,5325KE,Well,Maasdriel,Gelderland,VBO,5.184051,51.761188
Onderweg,9,,,5325KE,Well,Maasdriel,Gelderland,VBO,5.184270,51.760999
Onderweg,11,,,5325KE,Well,Maasdriel,Gelderland,VBO,5.184546,51.760820
Onderweg,13,,,5325KE,Well,Maasdriel,Gelderland,VBO,5.184662,51.760596
Klemit,1,a,,5325KG,Well,Maasdriel,Gelderland,VBO,5.181269,51.762185
Klemit,1,,,5325KG,Well,Maasdriel,Gelderland,VBO,5.181542,51.762046
Klemit,3,,,5325KG,Well,Maasdriel,Gelderland,VBO,5.181092,51.762288
Klemit,5,,,5325KG,Well,Maasdriel,Gelderland,VBO,5.181019,51.762333
Klemit,6,,,5325KG,Well,Maasdriel,Gelderland,VBO,5.182499,51.761671
Klemit,7,,,5325KG,Well,Maasdriel,Gelderland,VBO,5.180902,51.762450
Klemit,8,a,,5325KG,Well,Maasdriel,Gelderland,VBO,5.182295,51.762012
Klemit,8,,,5325KG,Well,Maasdriel,Gelderland,VBO,5.182412,51.761751
Klemit,9,,,5325KG,Well,Maasdriel,Gelderland,VBO,5.180554,51.762602
Klemit,10,a,,5325KG,Well,Maasdriel,Gelderland,VBO,5.181584,51.762388
Klemit,10,,,5325KG,Well,Maasdriel,Gelderland,VBO,5.181744,51.762226
Klemit,11,,,5325KG,Well,Maasdriel,Gelderland,VBO,5.180452,51.762737
Klemit,12,,,5325KG,Well,Maasdriel,Gelderland,VBO,5.181424,51.762460
Klemit,13,,,5325KG,Well,Maasdriel,Gelderland,VBO,5.180379,51.762790
Klemit,14,,,5325KG,Well,Maasdriel,Gelderland,VBO,5.181278,51.762539
Klemit,15,,,5325KG,Well,Maasdriel,Gelderland,VBO,5.180292,51.762871
Klemit,16,,,5325KG,Well,Maasdriel,Gelderland,VBO,5.181192,51.762594
Klemit,18,,,5325KG,Well,Maasdriel,Gelderland,VBO,5.181049,51.762700
Klemit,20,a,,5325KG,Well,Maasdriel,Gelderland,VBO,5.180886,51.762872
Klemit,20,,,5325KG,Well,Maasdriel,Gelderland,VBO,5.180972,51.762761
Klemit,22,,,5325KG,Well,Maasdriel,Gelderland,VBO,5.180566,51.763105
Klemit,24,a,,5325KG,Well,Maasdriel,Gelderland,VBO,5.180420,51.763402
Klemit,24,,,5325KG,Well,Maasdriel,Gelderland,VBO,5.180261,51.763311
Wellseindsestraat,1,a,,5325KH,Well,Maasdriel,Gelderland,VBO,5.177975,51.762678
Wellseindsestraat,1,b,,5325KH,Well,Maasdriel,Gelderland,VBO,5.179814,51.762996
Wellseindsestraat,2,a,,5325KH,Well,Maasdriel,Gelderland,VBO,5.180875,51.763757
Wellseindsestraat,2,,,5325KH,Well,Maasdriel,Gelderland,VBO,5.180060,51.762943
Wellseindsestraat,3,,,5325KH,Well,Maasdriel,Gelderland,VBO,5.179886,51.763068
Wellseindsestraat,4,a,,5325KH,Well,Maasdriel,Gelderland,VBO,5.181200,51.763987
Wellseindsestraat,4,b,,5325KH,Well,Maasdriel,Gelderland,VBO,5.181373,51.764113
Wellseindsestraat,4,,,5325KH,Well,Maasdriel,Gelderland,VBO,5.180997,51.763852
Wellseindsestraat,5,,,5325KH,Well,Maasdriel,Gelderland,VBO,5.182206,51.765733
Wellseindsestraat,6,,,5325KH,Well,Maasdriel,Gelderland,VBO,5.181590,51.764267
Wellseindsestraat,7,,,5325KH,Well,Maasdriel,Gelderland,VBO,5.182205,51.765796
Wellseindsestraat,8,,,5325KH,Well,Maasdriel,Gelderland,VBO,5.181691,51.764222
Wellseindsestraat,9,,,5325KH,Well,Maasdriel,Gelderland,VBO,5.182088,51.766074
Wellseindsestraat,10,,,5325KH,Well,Maasdriel,Gelderland,VBO,5.181980,51.764577
Wellseindsestraat,11,,,5325KH,Well,Maasdriel,Gelderland,VBO,5.182146,51.766200
Wellseindsestraat,12,,,5325KH,Well,Maasdriel,Gelderland,VBO,5.182268,51.764780
Boosterensteeg,2,,,5325KJ,Well,Maasdriel,Gelderland,VBO,5.182733,51.764574
Boosterensteeg,5,,,5325KJ,Well,Maasdriel,Gelderland,VBO,5.185981,51.763825
Boosterensteeg,6,,,5325KJ,Well,Maasdriel,Gelderland,VBO,5.184285,51.763966
Boosterensteeg,10,,,5325KJ,Well,Maasdriel,Gelderland,VBO,5.185286,51.763590
Lenshoek,1,a,,5325KK,Well,Maasdriel,Gelderland,VBO,5.179363,51.763382
Lenshoek,1,,,5325KK,Well,Maasdriel,Gelderland,VBO,5.179653,51.763203
Lenshoek,2,,,5325KK,Well,Maasdriel,Gelderland,VBO,5.179840,51.763499
Lenshoek,3,a,,5325KK,Well,Maasdriel,Gelderland,VBO,5.179061,51.763507
Lenshoek,3,,,5325KK,Well,Maasdriel,Gelderland,VBO,5.178307,51.763074
Lenshoek,4,,,5325KK,Well,Maasdriel,Gelderland,VBO,5.179550,51.763688
Lenshoek,5,,,5325KK,Well,Maasdriel,Gelderland,VBO,5.178869,51.763687
Lenshoek,6,,,5325KK,Well,Maasdriel,Gelderland,VBO,5.179216,51.763831
Lenshoek,7,,,5325KK,Well,Maasdriel,Gelderland,VBO,5.178695,51.763776
Lenshoek,8,a,,5325KK,Well,Maasdriel,Gelderland,VBO,5.178750,51.764298
Lenshoek,8,,,5325KK,Well,Maasdriel,Gelderland,VBO,5.178969,51.763974
Lenshoek,9,,,5325KK,Well,Maasdriel,Gelderland,VBO,5.178578,51.763920
Lenshoek,10,,,5325KK,Well,Maasdriel,Gelderland,VBO,5.177835,51.764907
Lenshoek,11,,,5325KK,Well,Maasdriel,Gelderland,VBO,5.178302,51.764054
Lenshoek,13,,,5325KK,Well,Maasdriel,Gelderland,VBO,5.178113,51.764180
Lenshoek,19,,,5325KK,Well,Maasdriel,Gelderland,VBO,5.176677,51.764887
Molen Achterdijk,3,,,5325KL,Well,Maasdriel,Gelderland,VBO,5.199679,51.761636
Molen Achterdijk,5,,,5325KL,Well,Maasdriel,Gelderland,VBO,5.200372,51.762123
Molen Achterdijk,6,,,5325KL,Well,Maasdriel,Gelderland,VBO,5.196144,51.759578
Molen Achterdijk,7,,,5325KL,Well,Maasdriel,Gelderland,VBO,5.201603,51.762143
Molen Achterdijk,8,,,5325KL,Well,Maasdriel,Gelderland,VBO,5.202115,51.760915
Molen Achterdijk,12,,,5325KL,Well,Maasdriel,Gelderland,VBO,5.210001,51.762415
Heilkesakker,2,,,5325KM,Well,Maasdriel,Gelderland,VBO,5.183477,51.761701
Heilkesakker,4,,,5325KM,Well,Maasdriel,Gelderland,VBO,5.183567,51.761761
Heilkesakker,6,,,5325KM,Well,Maasdriel,Gelderland,VBO,5.183824,51.761905
Heilkesakker,8,,,5325KM,Well,Maasdriel,Gelderland,VBO,5.183569,51.762034
Heilkesakker,10,,,5325KM,Well,Maasdriel,Gelderland,VBO,5.183382,51.762109
Heilkesakker,12,,,5325KM,Well,Maasdriel,Gelderland,VBO,5.183203,51.761943
Heilkesakker,14,,,5325KM,Well,Maasdriel,Gelderland,VBO,5.183145,51.761906
Heilkesakker,16,,,5325KM,Well,Maasdriel,Gelderland,VBO,5.183012,51.761807
Heilkesakker,18,,,5325KM,Well,Maasdriel,Gelderland,VBO,5.182940,51.761763
Heilkesakker,20,,,5325KM,Well,Maasdriel,Gelderland,VBO,5.182688,51.761619
Heilkesakker,22,,,5325KM,Well,Maasdriel,Gelderland,VBO,5.182758,51.761591
Heilkesakker,24,,,5325KM,Well,Maasdriel,Gelderland,VBO,5.182822,51.761553
Heust,3,,,5325XB,Well,Maasdriel,Gelderland,VBO,5.205133,51.745385
Heust,9,a,,5325XB,Well,Maasdriel,Gelderland,VBO,5.204897,51.746508
Heust,11,,,5325XB,Well,Maasdriel,Gelderland,VBO,5.204852,51.746679
Heust,13,,,5325XB,Well,Maasdriel,Gelderland,VBO,5.204852,51.746814
Heust,15,,,5325XB,Well,Maasdriel,Gelderland,VBO,5.204735,51.746971
Heust,17,,,5325XB,Well,Maasdriel,Gelderland,VBO,5.204546,51.747244
Heust,19,,,5325XB,Well,Maasdriel,Gelderland,VBO,5.204458,51.747442
Heust,21,,,5325XB,Well,Maasdriel,Gelderland,VBO,5.204269,51.747676
Heust,23,,,5325XB,Well,Maasdriel,Gelderland,VBO,5.204138,51.747918
Heust,25,,,5325XB,Well,Maasdriel,Gelderland,VBO,5.204297,51.747936
Heust,27,,,5325XB,Well,Maasdriel,Gelderland,VBO,5.204253,51.748170
Heust,29,,,5325XB,Well,Maasdriel,Gelderland,VBO,5.204194,51.748430
Heust,31,,,5325XB,Well,Maasdriel,Gelderland,VBO,5.204105,51.748763
Heust,33,,,5325XB,Well,Maasdriel,Gelderland,VBO,5.204046,51.749104
Heust,35,,,5325XB,Well,Maasdriel,Gelderland,VBO,5.204117,51.749527
Heust,37,,,5325XB,Well,Maasdriel,Gelderland,VBO,5.204116,51.749671
Heust,39,,,5325XB,Well,Maasdriel,Gelderland,VBO,5.204101,51.749931
Heust,41,,,5325XB,Well,Maasdriel,Gelderland,VBO,5.204158,51.750174
Heust,43,a,,5325XB,Well,Maasdriel,Gelderland,VBO,5.204000,51.750430
Heust,43,,,5325XB,Well,Maasdriel,Gelderland,VBO,5.204158,51.750415
Heust,45,,,5325XB,Well,Maasdriel,Gelderland,VBO,5.204271,51.750705
Heust,47,,,5325XB,Well,Maasdriel,Gelderland,VBO,5.204412,51.751050
Heust,49,a,,5325XB,Well,Maasdriel,Gelderland,VBO,5.204887,51.752503
Heust,51,a,,5325XB,Well,Maasdriel,Gelderland,VBO,5.206544,51.754528
Heust,51,,,5325XB,Well,Maasdriel,Gelderland,VBO,5.206174,51.754320
Heust,53,,,5325XB,Well,Maasdriel,Gelderland,VBO,5.206703,51.754645
Heust,55,,,5325XB,Well,Maasdriel,Gelderland,VBO,5.207872,51.755753
Heust,57,,,5325XB,Well,Maasdriel,Gelderland,VBO,5.208045,51.755879
Heust,2,,,5325XC,Well,Maasdriel,Gelderland,VBO,5.205409,51.745187
Heust,4,,,5325XC,Well,Maasdriel,Gelderland,VBO,5.205589,51.745431
Heust,6,,,5325XC,Well,Maasdriel,Gelderland,VBO,5.205393,51.745439
Heust,8,,,5325XC,Well,Maasdriel,Gelderland,VBO,5.205465,51.745637
Heust,10,,,5325XC,Well,Maasdriel,Gelderland,VBO,5.205406,51.745889
Heust,12,,,5325XC,Well,Maasdriel,Gelderland,VBO,5.204952,51.747218
Heust,14,,,5325XC,Well,Maasdriel,Gelderland,VBO,5.204879,51.747281
Heust,16,,,5325XC,Well,Maasdriel,Gelderland,VBO,5.204812,51.747463
Heust,18,,,5325XC,Well,Maasdriel,Gelderland,VBO,5.204718,51.747703
Heust,20,,,5325XC,Well,Maasdriel,Gelderland,VBO,5.204424,51.748736
Heust,22,,,5325XC,Well,Maasdriel,Gelderland,VBO,5.204467,51.748997
Heust,24,a,,5325XC,Well,Maasdriel,Gelderland,VBO,5.204466,51.749141
Heust,24,,,5325XC,Well,Maasdriel,Gelderland,VBO,5.204566,51.749357
Heust,28,,,5325XC,Well,Maasdriel,Gelderland,VBO,5.204608,51.749860
Heust,30,,,5325XC,Well,Maasdriel,Gelderland,VBO,5.204664,51.750292
Heust,32,,,5325XC,Well,Maasdriel,Gelderland,VBO,5.204836,51.750697
Dreef,1,,,5325XD,Well,Maasdriel,Gelderland,VBO,5.205453,51.745035
Dreef,2,,,5325XD,Well,Maasdriel,Gelderland,VBO,5.205468,51.744810
Dreef,3,,,5325XD,Well,Maasdriel,Gelderland,VBO,5.205959,51.745278
Dreef,5,,,5325XD,Well,Maasdriel,Gelderland,VBO,5.206650,51.746133
Dreef,6,,,5325XD,Well,Maasdriel,Gelderland,VBO,5.205902,51.744856
Dreef,7,,,5325XD,Well,Maasdriel,Gelderland,VBO,5.206808,51.746538
Dreef,8,,,5325XD,Well,Maasdriel,Gelderland,VBO,5.206235,51.745000
Dreef,10,,,5325XD,Well,Maasdriel,Gelderland,VBO,5.206495,51.745108
Dreef,12,,,5325XD,Well,Maasdriel,Gelderland,VBO,5.206697,51.745198
Dreef,14,,,5325XD,Well,Maasdriel,Gelderland,VBO,5.206928,51.745468
Pannenhuis,1,,,5325XE,Well,Maasdriel,Gelderland,VBO,5.203395,51.745319
Pannenhuis,2,,,5325XE,Well,Maasdriel,Gelderland,VBO,5.203657,51.745014
Pannenhuis,4,,,5325XE,Well,Maasdriel,Gelderland,VBO,5.203744,51.745023
Pannenhuis,6,,,5325XE,Well,Maasdriel,Gelderland,VBO,5.203860,51.745032
Pannenhuis,8,,,5325XE,Well,Maasdriel,Gelderland,VBO,5.203936,51.745041
Pannenhuis,10,,,5325XE,Well,Maasdriel,Gelderland,VBO,5.204034,51.745051
Pannenhuis,12,,,5325XE,Well,Maasdriel,Gelderland,VBO,5.204192,51.745177
Pannenhuis,14,,,5325XE,Well,Maasdriel,Gelderland,VBO,5.204033,51.745257
Pannenhuis,16,,,5325XE,Well,Maasdriel,Gelderland,VBO,5.204018,51.745320
Pannenhuis,18,,,5325XE,Well,Maasdriel,Gelderland,VBO,5.204003,51.745374
Pannenhuis,20,,,5325XE,Well,Maasdriel,Gelderland,VBO,5.203974,51.745428
Pannenhuis,22,,,5325XE,Well,Maasdriel,Gelderland,VBO,5.203974,51.745482
Pannenhuis,24,,,5325XE,Well,Maasdriel,Gelderland,VBO,5.203915,51.745626
Pannenhuis,26,,,5325XE,Well,Maasdriel,Gelderland,VBO,5.203713,51.745625
Pannenhuis,28,,,5325XE,Well,Maasdriel,Gelderland,VBO,5.203597,51.745634
Dorpstraat,1,,,5325XG,Well,Maasdriel,Gelderland,VBO,5.205181,51.744623
Dorpstraat,2,,,5325XG,Well,Maasdriel,Gelderland,VBO,5.204816,51.744845
Dorpstraat,3,,,5325XG,Well,Maasdriel,Gelderland,VBO,5.204760,51.744521
Dorpstraat,4,,,5325XG,Well,Maasdriel,Gelderland,VBO,5.204411,51.744710
Dorpstraat,5,,,5325XG,Well,Maasdriel,Gelderland,VBO,5.204543,51.744467
Dorpstraat,6,,,5325XG,Well,Maasdriel,Gelderland,VBO,5.204267,51.744691
Dorpstraat,7,,,5325XG,Well,Maasdriel,Gelderland,VBO,5.203704,51.744331
Dorpstraat,8,,,5325XG,Well,Maasdriel,Gelderland,VBO,5.203818,51.744718
Dorpstraat,9,,,5325XG,Well,Maasdriel,Gelderland,VBO,5.203269,51.744393
Dorpstraat,11,,,5325XG,Well,Maasdriel,Gelderland,VBO,5.203268,51.744501
Dorpstraat,14,a,,5325XG,Well,Maasdriel,Gelderland,VBO,5.202949,51.744815
Dorpstraat,14,,,5325XG,Well,Maasdriel,Gelderland,VBO,5.203267,51.744771
Dorpstraat,16,,,5325XG,Well,Maasdriel,Gelderland,VBO,5.202702,51.744887
Dorpstraat,18,,,5325XG,Well,Maasdriel,Gelderland,VBO,5.202572,51.744904
Dorpstraat,20,,,5325XG,Well,Maasdriel,Gelderland,VBO,5.202384,51.744886
Dorpstraat,22,,,5325XG,Well,Maasdriel,Gelderland,VBO,5.202239,51.744895
Dorpstraat,24,,,5325XG,Well,Maasdriel,Gelderland,VBO,5.202036,51.744877
Dorpstraat,26,,,5325XG,Well,Maasdriel,Gelderland,VBO,5.201906,51.744894
Dorpstraat,28,,,5325XG,Well,Maasdriel,Gelderland,VBO,5.201732,51.744863
Dorpstraat,30,,,5325XG,Well,Maasdriel,Gelderland,VBO,5.201587,51.744885
Maaijenstraat,1,,,5325XH,Well,Maasdriel,Gelderland,VBO,5.201211,51.744776
Maaijenstraat,2,,,5325XH,Well,Maasdriel,Gelderland,VBO,5.201428,51.744948
Maaijenstraat,3,,,5325XH,Well,Maasdriel,Gelderland,VBO,5.200965,51.744911
Maaijenstraat,4,,,5325XH,Well,Maasdriel,Gelderland,VBO,5.201355,51.744983
Maaijenstraat,5,,,5325XH,Well,Maasdriel,Gelderland,VBO,5.200645,51.745099
Maaijenstraat,6,,,5325XH,Well,Maasdriel,Gelderland,VBO,5.201283,51.745019
Maaijenstraat,7,,,5325XH,Well,Maasdriel,Gelderland,VBO,5.200515,51.745171
Maaijenstraat,8,,,5325XH,Well,Maasdriel,Gelderland,VBO,5.201181,51.745091
Maaijenstraat,9,,,5325XH,Well,Maasdriel,Gelderland,VBO,5.199936,51.745303
Maaijenstraat,10,,,5325XH,Well,Maasdriel,Gelderland,VBO,5.201108,51.745163
Maaijenstraat,11,,,5325XH,Well,Maasdriel,Gelderland,VBO,5.197969,51.746456
Maaijenstraat,12,,,5325XH,Well,Maasdriel,Gelderland,VBO,5.200978,51.745234
Maaijenstraat,14,,,5325XH,Well,Maasdriel,Gelderland,VBO,5.200905,51.745270
Maaijenstraat,16,,,5325XH,Well,Maasdriel,Gelderland,VBO,5.200614,51.745539
Maaijenstraat,18,,,5325XH,Well,Maasdriel,Gelderland,VBO,5.200397,51.745665
Maaijenstraat,20,,,5325XH,Well,Maasdriel,Gelderland,VBO,5.200339,51.745710
Maaijenstraat,22,,,5325XH,Well,Maasdriel,Gelderland,VBO,5.200280,51.745755
Maaijenstraat,24,,,5325XH,Well,Maasdriel,Gelderland,VBO,5.200208,51.745817
Maaijenstraat,26,,,5325XH,Well,Maasdriel,Gelderland,VBO,5.200121,51.745862
Maaijenstraat,28,,,5325XH,Well,Maasdriel,Gelderland,VBO,5.200048,51.745898
Maaijenstraat,30,,,5325XH,Well,Maasdriel,Gelderland,VBO,5.199932,51.746033
Maaijenstraat,32,,,5325XH,Well,Maasdriel,Gelderland,VBO,5.199774,51.746225
Maaijenstraat,34,,,5325XH,Well,Maasdriel,Gelderland,VBO,5.199916,51.746446
Maaijenstraat,36,,,5325XH,Well,Maasdriel,Gelderland,VBO,5.199684,51.746545
Maaijenstraat,38,,,5325XH,Well,Maasdriel,Gelderland,VBO,5.199087,51.747164
Weigraaf,1,,,5325XJ,Well,Maasdriel,Gelderland,VBO,5.198867,51.747820
Weigraaf,2,,,5325XJ,Well,Maasdriel,Gelderland,VBO,5.199567,51.747333
Weth vd Schansstraat,1,,,5325XK,Well,Maasdriel,Gelderland,VBO,5.201154,51.744543
Weth vd Schansstraat,2,,,5325XK,Well,Maasdriel,Gelderland,VBO,5.200913,51.744657
Weth vd Schansstraat,3,,,5325XK,Well,Maasdriel,Gelderland,VBO,5.200981,51.744461
Weth vd Schansstraat,4,,,5325XK,Well,Maasdriel,Gelderland,VBO,5.200825,51.744626
Weth vd Schansstraat,5,,,5325XK,Well,Maasdriel,Gelderland,VBO,5.200750,51.744335
Weth vd Schansstraat,6,,,5325XK,Well,Maasdriel,Gelderland,VBO,5.200742,51.744592
Weth vd Schansstraat,7,,,5325XK,Well,Maasdriel,Gelderland,VBO,5.200518,51.744227
Weth vd Schansstraat,8,,,5325XK,Well,Maasdriel,Gelderland,VBO,5.200474,51.744515
Weth vd Schansstraat,9,,,5325XK,Well,Maasdriel,Gelderland,VBO,5.200345,51.744128
Weth vd Schansstraat,10,,,5325XK,Well,Maasdriel,Gelderland,VBO,5.200387,51.744470
Weth vd Schansstraat,12,,,5325XK,Well,Maasdriel,Gelderland,VBO,5.200243,51.744415
Weth vd Schansstraat,14,,,5325XK,Well,Maasdriel,Gelderland,VBO,5.200185,51.744388
Weth vd Schansstraat,16,,,5325XK,Well,Maasdriel,Gelderland,VBO,5.200113,51.744343
Weth vd Schansstraat,18,,,5325XK,Well,Maasdriel,Gelderland,VBO,5.199954,51.744271
Schoolstraat,1,,,5325XL,Well,Maasdriel,Gelderland,VBO,5.204500,51.744359
Schoolstraat,3,,,5325XL,Well,Maasdriel,Gelderland,VBO,5.204515,51.744296
Schoolstraat,4,,,5325XL,Well,Maasdriel,Gelderland,VBO,5.204139,51.744017
Schoolstraat,5,,,5325XL,Well,Maasdriel,Gelderland,VBO,5.204660,51.744216
Schoolstraat,6,,,5325XL,Well,Maasdriel,Gelderland,VBO,5.204357,51.743900
Schoolstraat,7,,,5325XL,Well,Maasdriel,Gelderland,VBO,5.204675,51.744090
Schoolstraat,9,,,5325XL,Well,Maasdriel,Gelderland,VBO,5.204689,51.744054
Schoolstraat,11,,,5325XL,Well,Maasdriel,Gelderland,VBO,5.204704,51.744009
Schoolstraat,13,,,5325XL,Well,Maasdriel,Gelderland,VBO,5.204719,51.743964
Schoolstraat,15,,,5325XL,Well,Maasdriel,Gelderland,VBO,5.204676,51.743865
Schoolstraat,17,,,5325XL,Well,Maasdriel,Gelderland,VBO,5.205142,51.743807
Schoolstraat,19,,,5325XL,Well,Maasdriel,Gelderland,VBO,5.204706,51.743613
Dijkstraat,1,,,5325XM,Well,Maasdriel,Gelderland,VBO,5.205498,51.744693
Dijkstraat,2,a,,5325XM,Well,Maasdriel,Gelderland,VBO,5.205221,51.744500
Dijkstraat,2,,,5325XM,Well,Maasdriel,Gelderland,VBO,5.205224,51.744279
Dijkstraat,3,,,5325XM,Well,Maasdriel,Gelderland,VBO,5.205527,51.744487
Dijkstraat,4,,,5325XM,Well,Maasdriel,Gelderland,VBO,5.205253,51.744225
Dijkstraat,5,,,5325XM,Well,Maasdriel,Gelderland,VBO,5.205542,51.744433
Dijkstraat,6,,,5325XM,Well,Maasdriel,Gelderland,VBO,5.205268,51.744172
Dijkstraat,7,,,5325XM,Well,Maasdriel,Gelderland,VBO,5.205543,51.744280
Dijkstraat,8,,,5325XM,Well,Maasdriel,Gelderland,VBO,5.205283,51.744127
Dijkstraat,9,,,5325XM,Well,Maasdriel,Gelderland,VBO,5.205557,51.744235
Dijkstraat,10,,,5325XM,Well,Maasdriel,Gelderland,VBO,5.205297,51.744082
Dijkstraat,11,,,5325XM,Well,Maasdriel,Gelderland,VBO,5.205689,51.743956
Dijkstraat,12,,,5325XM,Well,Maasdriel,Gelderland,VBO,5.205338,51.743839
Wellsedijk,3,,,5325XN,Well,Maasdriel,Gelderland,VBO,5.207564,51.745721
Wellsedijk,7,,,5325XN,Well,Maasdriel,Gelderland,VBO,5.207508,51.745326
Wellsedijk,9,,,5325XN,Well,Maasdriel,Gelderland,VBO,5.207479,51.745182
Wellsedijk,11,,,5325XN,Well,Maasdriel,Gelderland,VBO,5.207465,51.745128
Wellsedijk,13,,,5325XN,Well,Maasdriel,Gelderland,VBO,5.207437,51.744939
Wellsedijk,17,,,5325XN,Well,Maasdriel,Gelderland,VBO,5.206686,51.744389
Wellsedijk,25,,,5325XN,Well,Maasdriel,Gelderland,VBO,5.204446,51.743253
Wellsedijk,27,,,5325XN,Well,Maasdriel,Gelderland,VBO,5.204331,51.743208
Wellsedijk,29,,,5325XN,Well,Maasdriel,Gelderland,VBO,5.203854,51.742992
Wellsedijk,31,,,5325XN,Well,Maasdriel,Gelderland,VBO,5.200028,51.743831
Wellsedijk,33,,,5325XN,Well,Maasdriel,Gelderland,VBO,5.199912,51.743893
Wellsedijk,35,,,5325XN,Well,Maasdriel,Gelderland,VBO,5.199505,51.744100
Wellsedijk,39,,,5325XN,Well,Maasdriel,Gelderland,VBO,5.196660,51.745758
Wellsedijk,41,,,5325XN,Well,Maasdriel,Gelderland,VBO,5.196472,51.745910
Wellsedijk,2,,,5325XP,Well,Maasdriel,Gelderland,VBO,5.207189,51.745406
Wellsedijk,4,,,5325XP,Well,Maasdriel,Gelderland,VBO,5.207164,51.745308
Wellsedijk,6,,,5325XP,Well,Maasdriel,Gelderland,VBO,5.207132,51.745208
Wellsedijk,8,,,5325XP,Well,Maasdriel,Gelderland,VBO,5.207161,51.745082
Wellsedijk,10,,,5325XP,Well,Maasdriel,Gelderland,VBO,5.207133,51.744992
Wellsedijk,12,,,5325XP,Well,Maasdriel,Gelderland,VBO,5.206887,51.744803
Wellsedijk,14,,,5325XP,Well,Maasdriel,Gelderland,VBO,5.206671,51.744605
Wellsedijk,16,,,5325XP,Well,Maasdriel,Gelderland,VBO,5.206370,51.744480
Wellsedijk,18,,,5325XP,Well,Maasdriel,Gelderland,VBO,5.206145,51.744284
Wellsedijk,20,,,5325XP,Well,Maasdriel,Gelderland,VBO,5.205934,51.744092
Wellsedijk,22,,,5325XP,Well,Maasdriel,Gelderland,VBO,5.200753,51.743589
Wellsedijk,24,a,,5325XP,Well,Maasdriel,Gelderland,VBO,5.199649,51.744459
Wellsedijk,24,b,,5325XP,Well,Maasdriel,Gelderland,VBO,5.199282,51.744682
Wellsedijk,24,,,5325XP,Well,Maasdriel,Gelderland,VBO,5.200695,51.743643
Wellsedijk,26,,,5325XP,Well,Maasdriel,Gelderland,VBO,5.199169,51.744980
Wellsedijk,28,,,5325XP,Well,Maasdriel,Gelderland,VBO,5.195307,51.747320
Koetsiersakker,1,,,5325XR,Well,Maasdriel,Gelderland,VBO,5.202466,51.745893
Koetsiersakker,2,,,5325XR,Well,Maasdriel,Gelderland,VBO,5.203016,51.745993
Koetsiersakker,3,,,5325XR,Well,Maasdriel,Gelderland,VBO,5.202423,51.745965
Koetsiersakker,4,,,5325XR,Well,Maasdriel,Gelderland,VBO,5.203016,51.746038
Koetsiersakker,5,,,5325XR,Well,Maasdriel,Gelderland,VBO,5.202466,51.746100
Koetsiersakker,6,,,5325XR,Well,Maasdriel,Gelderland,VBO,5.202987,51.746172
Koetsiersakker,7,,,5325XR,Well,Maasdriel,Gelderland,VBO,5.202451,51.746145
Koetsiersakker,8,,,5325XR,Well,Maasdriel,Gelderland,VBO,5.202972,51.746244
Koetsiersakker,9,,,5325XR,Well,Maasdriel,Gelderland,VBO,5.202349,51.746351
Koetsiersakker,11,,,5325XR,Well,Maasdriel,Gelderland,VBO,5.202319,51.746513
Koetsiersakker,13,,,5325XR,Well,Maasdriel,Gelderland,VBO,5.202302,51.746650
Koetsiersakker,15,,,5325XR,Well,Maasdriel,Gelderland,VBO,5.202238,51.746764
Koetsiersakker,17,,,5325XR,Well,Maasdriel,Gelderland,VBO,5.202244,51.746814
Koetsiersakker,18,,,5325XR,Well,Maasdriel,Gelderland,VBO,5.202140,51.747154
Koetsiersakker,19,,,5325XR,Well,Maasdriel,Gelderland,VBO,5.202183,51.746913
Koetsiersakker,20,,,5325XR,Well,Maasdriel,Gelderland,VBO,5.201929,51.747150
Koetsiersakker,21,,,5325XR,Well,Maasdriel,Gelderland,VBO,5.202158,51.746952
Koetsiersakker,22,,,5325XR,Well,Maasdriel,Gelderland,VBO,5.201669,51.747118
Koetsiersakker,24,,,5325XR,Well,Maasdriel,Gelderland,VBO,5.201501,51.747114
De Bogerd,2,,,5325XS,Well,Maasdriel,Gelderland,VBO,5.200502,51.744758
De Bogerd,4,,,5325XS,Well,Maasdriel,Gelderland,VBO,5.200444,51.744797
De Bogerd,6,,,5325XS,Well,Maasdriel,Gelderland,VBO,5.200385,51.744831
De Bogerd,8,,,5325XS,Well,Maasdriel,Gelderland,VBO,5.200327,51.744865
De Bogerd,10,,,5325XS,Well,Maasdriel,Gelderland,VBO,5.200266,51.744899
De Bogerd,12,,,5325XS,Well,Maasdriel,Gelderland,VBO,5.200211,51.744929
De Bogerd,14,,,5325XS,Well,Maasdriel,Gelderland,VBO,5.200164,51.744964
De Bogerd,16,,,5325XS,Well,Maasdriel,Gelderland,VBO,5.200049,51.745028
De Bogerd,18,,,5325XS,Well,Maasdriel,Gelderland,VBO,5.200025,51.745080
De Bogerd,20,,,5325XS,Well,Maasdriel,Gelderland,VBO,5.200000,51.745136
Van Malsenstraat,1,,,5325XT,Well,Maasdriel,Gelderland,VBO,5.202787,51.745354
Van Malsenstraat,2,,,5325XT,Well,Maasdriel,Gelderland,VBO,5.203320,51.745632
Van Malsenstraat,3,,,5325XT,Well,Maasdriel,Gelderland,VBO,5.202700,51.745345
Van Malsenstraat,4,,,5325XT,Well,Maasdriel,Gelderland,VBO,5.203210,51.745632
Van Malsenstraat,5,,,5325XT,Well,Maasdriel,Gelderland,VBO,5.202599,51.745345
Van Malsenstraat,6,,,5325XT,Well,Maasdriel,Gelderland,VBO,5.203090,51.745669
Van Malsenstraat,7,,,5325XT,Well,Maasdriel,Gelderland,VBO,5.202425,51.745345
Van Malsenstraat,8,,,5325XT,Well,Maasdriel,Gelderland,VBO,5.202989,51.745669
Van Malsenstraat,9,,,5325XT,Well,Maasdriel,Gelderland,VBO,5.202324,51.745344
Van Malsenstraat,10,,,5325XT,Well,Maasdriel,Gelderland,VBO,5.202627,51.745651
Van Malsenstraat,11,,,5325XT,Well,Maasdriel,Gelderland,VBO,5.202208,51.745344
Van Malsenstraat,12,,,5325XT,Well,Maasdriel,Gelderland,VBO,5.202540,51.745641
Van Malsenstraat,13,,,5325XT,Well,Maasdriel,Gelderland,VBO,5.201976,51.745344
Van Malsenstraat,14,,,5325XT,Well,Maasdriel,Gelderland,VBO,5.202337,51.745632
Van Malsenstraat,15,,,5325XT,Well,Maasdriel,Gelderland,VBO,5.201918,51.745353
Van Malsenstraat,16,,,5325XT,Well,Maasdriel,Gelderland,VBO,5.202250,51.745632
Van Malsenstraat,17,,,5325XT,Well,Maasdriel,Gelderland,VBO,5.201846,51.745353
Van Malsenstraat,18,,,5325XT,Well,Maasdriel,Gelderland,VBO,5.202091,51.745659
Van Malsenstraat,19,,,5325XT,Well,Maasdriel,Gelderland,VBO,5.201796,51.745361
Van Malsenstraat,20,,,5325XT,Well,Maasdriel,Gelderland,VBO,5.202004,51.745659
Van Malsenstraat,21,,,5325XT,Well,Maasdriel,Gelderland,VBO,5.201701,51.745370
Van Malsenstraat,22,,,5325XT,Well,Maasdriel,Gelderland,VBO,5.201801,51.745685
Van Malsenstraat,23,,,5325XT,Well,Maasdriel,Gelderland,VBO,5.201573,51.745433
Van Malsenstraat,24,,,5325XT,Well,Maasdriel,Gelderland,VBO,5.201656,51.745685
Van Malsenstraat,25,,,5325XT,Well,Maasdriel,Gelderland,VBO,5.201450,51.745435
Van Malsenstraat,26,,,5325XT,Well,Maasdriel,Gelderland,VBO,5.201483,51.745640
Van Malsenstraat,28,,,5325XT,Well,Maasdriel,Gelderland,VBO,5.201409,51.745628
Van Malsenstraat,30,,,5325XT,Well,Maasdriel,Gelderland,VBO,5.201353,51.745631
Vossenakker,1,,,5325XW,Well,Maasdriel,Gelderland,VBO,5.200937,51.745744
Vossenakker,3,,,5325XW,Well,Maasdriel,Gelderland,VBO,5.200898,51.745771
Vossenakker,5,,,5325XW,Well,Maasdriel,Gelderland,VBO,5.200926,51.745817
Vossenakker,7,,,5325XW,Well,Maasdriel,Gelderland,VBO,5.200881,51.745832
Vossenakker,9,,,5325XW,Well,Maasdriel,Gelderland,VBO,5.200912,51.745868
Vossenakker,11,,,5325XW,Well,Maasdriel,Gelderland,VBO,5.200863,51.745889
Vossenakker,13,,,5325XW,Well,Maasdriel,Gelderland,VBO,5.200905,51.745901
Vossenakker,15,,,5325XW,Well,Maasdriel,Gelderland,VBO,5.200861,51.745926
Vossenakker,17,,,5325XW,Well,Maasdriel,Gelderland,VBO,5.200890,51.745959
Vossenakker,19,,,5325XW,Well,Maasdriel,Gelderland,VBO,5.200840,51.745981
Vossenakker,21,,,5325XW,Well,Maasdriel,Gelderland,VBO,5.200916,51.746106
Vossenakker,23,,,5325XW,Well,Maasdriel,Gelderland,VBO,5.200930,51.746151
Vossenakker,25,,,5325XW,Well,Maasdriel,Gelderland,VBO,5.200901,51.746277
Vossenakker,27,,,5325XW,Well,Maasdriel,Gelderland,VBO,5.200886,51.746340
Vossenakker,29,,,5325XW,Well,Maasdriel,Gelderland,VBO,5.200842,51.746466
Vossenakker,31,,,5325XW,Well,Maasdriel,Gelderland,VBO,5.200828,51.746520
Vossenakker,33,,,5325XW,Well,Maasdriel,Gelderland,VBO,5.200827,51.746663
Vossenakker,35,,,5325XW,Well,Maasdriel,Gelderland,VBO,5.200783,51.746708
Vossenakker,37,,,5325XW,Well,Maasdriel,Gelderland,VBO,5.200768,51.746816
Vossenakker,39,,,5325XW,Well,Maasdriel,Gelderland,VBO,5.200768,51.746888
Vossenakker,41,,,5325XW,Well,Maasdriel,Gelderland,VBO,5.200739,51.747014
Vossenakker,43,,,5325XW,Well,Maasdriel,Gelderland,VBO,5.200702,51.747077
Vossenakker,45,,,5325XW,Well,Maasdriel,Gelderland,VBO,5.199950,51.747007
Vossenakker,2,,,5325XX,Well,Maasdriel,Gelderland,VBO,5.201236,51.746517
Vossenakker,4,,,5325XX,Well,Maasdriel,Gelderland,VBO,5.201397,51.746533
Vossenakker,6,,,5325XX,Well,Maasdriel,Gelderland,VBO,5.201594,51.746532
Vossenakker,8,,,5325XX,Well,Maasdriel,Gelderland,VBO,5.201697,51.746541
Vossenakker,10,,,5325XX,Well,Maasdriel,Gelderland,VBO,5.201796,51.746626
Vossenakker,12,,,5325XX,Well,Maasdriel,Gelderland,VBO,5.201773,51.746692
Vossenakker,14,,,5325XX,Well,Maasdriel,Gelderland,VBO,5.201722,51.746770
Vossenakker,16,,,5325XX,Well,Maasdriel,Gelderland,VBO,5.201673,51.746861
Vossenakker,18,,,5325XX,Well,Maasdriel,Gelderland,VBO,5.201285,51.746576
Vossenakker,20,,,5325XX,Well,Maasdriel,Gelderland,VBO,5.201424,51.746576
Vossenakker,22,,,5325XX,Well,Maasdriel,Gelderland,VBO,5.201552,51.746572
Vossenakker,24,,,5325XX,Well,Maasdriel,Gelderland,VBO,5.201661,51.746592
Vossenakker,26,,,5325XX,Well,Maasdriel,Gelderland,VBO,5.201691,51.746649
Vossenakker,28,,,5325XX,Well,Maasdriel,Gelderland,VBO,5.201651,51.746710
Vossenakker,30,,,5325XX,Well,Maasdriel,Gelderland,VBO,5.201602,51.746802
Vossenakker,32,,,5325XX,Well,Maasdriel,Gelderland,VBO,5.201576,51.746883
Peerakker,1,,,5325XZ,Well,Maasdriel,Gelderland,VBO,5.202170,51.746041
Peerakker,2,,,5325XZ,Well,Maasdriel,Gelderland,VBO,5.202033,51.746317
Peerakker,3,,,5325XZ,Well,Maasdriel,Gelderland,VBO,5.202040,51.746029
Peerakker,4,,,5325XZ,Well,Maasdriel,Gelderland,VBO,5.201929,51.746290
Peerakker,5,,,5325XZ,Well,Maasdriel,Gelderland,VBO,5.201914,51.746014
Peerakker,6,,,5325XZ,Well,Maasdriel,Gelderland,VBO,5.201744,51.746263
Peerakker,7,,,5325XZ,Well,Maasdriel,Gelderland,VBO,5.201803,51.745993
Peerakker,8,,,5325XZ,Well,Maasdriel,Gelderland,VBO,5.201640,51.746257
Peerakker,9,,,5325XZ,Well,Maasdriel,Gelderland,VBO,5.201660,51.745963
Peerakker,10,,,5325XZ,Well,Maasdriel,Gelderland,VBO,5.201469,51.746237
Peerakker,11,,,5325XZ,Well,Maasdriel,Gelderland,VBO,5.201527,51.745981
Peerakker,12,,,5325XZ,Well,Maasdriel,Gelderland,VBO,5.201341,51.746228
Peerakker,13,,,5325XZ,Well,Maasdriel,Gelderland,VBO,5.201409,51.745942
Peerakker,15,,,5325XZ,Well,Maasdriel,Gelderland,VBO,5.201243,51.745936
