openbareruimtenaam,huisnummer,huisletter,huisnummertoevoeging,postcode,woonplaatsnaam,gemeentenaam,provincienaam,typeadresseerbaarobject,longitude,latitude
Beukenlaan,1,,,5363RA,Velp,Grave,Noord-Brabant,VBO,5.715706,51.747411
Beukenlaan,3,,,5363RA,Velp,Grave,Noord-Brabant,VBO,5.715663,51.747339
Beukenlaan,4,,,5363RA,Velp,Grave,Noord-Brabant,VBO,5.713020,51.746412
Beukenlaan,5,,,5363RA,Velp,Grave,Noord-Brabant,VBO,5.715574,51.747160
Beukenlaan,6,a,,5363RA,Velp,Grave,Noord-Brabant,VBO,5.710877,51.746436
Beukenlaan,6,b,,5363RA,Velp,Grave,Noord-Brabant,VBO,5.710648,51.746796
Beukenlaan,6,c,,5363RA,Velp,Grave,Noord-Brabant,VBO,5.710968,51.746903
Beukenlaan,6,d,,5363RA,Velp,Grave,Noord-Brabant,VBO,5.710937,51.746678
Beukenlaan,6,,,5363RA,Velp,Grave,Noord-Brabant,VBO,5.710717,51.746248
Beukenlaan,7,,,5363RA,Velp,Grave,Noord-Brabant,VBO,5.715545,51.747097
Beukenlaan,8,,,5363RA,Velp,Grave,Noord-Brabant,VBO,5.709941,51.746291
Beukenlaan,9,,,5363RA,Velp,Grave,Noord-Brabant,VBO,5.714576,51.747306
Beukenlaan,11,,,5363RA,Velp,Grave,Noord-Brabant,VBO,5.713474,51.747085
Heihoekscheweg,2,,,5363SB,Velp,Grave,Noord-Brabant,VBO,5.724233,51.735378
Bosch en Duinweg,1,,,5363SC,Velp,Grave,Noord-Brabant,VBO,5.711344,51.732763
Bosch en Duinweg,3,,,5363SC,Velp,Grave,Noord-Brabant,VBO,5.710503,51.732586
Bosch en Duinweg,5,,,5363SC,Velp,Grave,Noord-Brabant,VBO,5.708071,51.732619
Middelweg,1,,,5363SE,Velp,Grave,Noord-Brabant,VBO,5.725213,51.740589
Tweehuizerweg,1,,,5363SH,Velp,Grave,Noord-Brabant,VBO,5.712068,51.736878
Tweehuizerweg,2,,,5363SH,Velp,Grave,Noord-Brabant,VBO,5.708202,51.736790
Tweehuizerweg,4,,,5363SH,Velp,Grave,Noord-Brabant,VBO,5.710460,51.736711
Heistraat,1,,,5363SJ,Velp,Grave,Noord-Brabant,VBO,5.713538,51.743903
Heistraat,2,,,5363SJ,Velp,Grave,Noord-Brabant,VBO,5.710920,51.738265
Heistraat,3,,,5363SJ,Velp,Grave,Noord-Brabant,VBO,5.713470,51.744255
Heistraat,4,,,5363SJ,Velp,Grave,Noord-Brabant,VBO,5.710657,51.737879
Heistraat,7,,,5363SJ,Velp,Grave,Noord-Brabant,VBO,5.711000,51.739326
Heistraat,9,,,5363SJ,Velp,Grave,Noord-Brabant,VBO,5.709605,51.738565
Voskeschestraat,1,,,5363SK,Velp,Grave,Noord-Brabant,VBO,5.722600,51.741675
Voskeschestraat,2,,,5363SK,Velp,Grave,Noord-Brabant,VBO,5.722427,51.739797
Voskeschestraat,3,,,5363SK,Velp,Grave,Noord-Brabant,VBO,5.721671,51.741327
Voskeschestraat,5,,,5363SK,Velp,Grave,Noord-Brabant,VBO,5.719377,51.738466
Voskeschestraat,7,,,5363SK,Velp,Grave,Noord-Brabant,VBO,5.719289,51.738395
Voskeschestraat,9,,,5363SK,Velp,Grave,Noord-Brabant,VBO,5.715107,51.734622
Voskeschestraat,11,,,5363SK,Velp,Grave,Noord-Brabant,VBO,5.714859,51.734452
Kranenhofscheweg,1,a,,5363SL,Velp,Grave,Noord-Brabant,VBO,5.721986,51.742809
Kranenhofscheweg,2,a,,5363SL,Velp,Grave,Noord-Brabant,VBO,5.717791,51.743324
Kranenhofscheweg,2,,,5363SL,Velp,Grave,Noord-Brabant,VBO,5.717906,51.743288
Kranenhofscheweg,4,,,5363SL,Velp,Grave,Noord-Brabant,VBO,5.718171,51.743845
Venstraat,2,,,5363SM,Velp,Grave,Noord-Brabant,VBO,5.717912,51.742111
Valkhofscheweg,2,a,,5363SN,Velp,Grave,Noord-Brabant,VBO,5.714635,51.743495
Valkhofscheweg,2,,,5363SN,Velp,Grave,Noord-Brabant,VBO,5.715729,51.743318
Valkhofscheweg,4,,,5363SN,Velp,Grave,Noord-Brabant,VBO,5.713883,51.743569
Valkhofscheweg,6,,,5363SN,Velp,Grave,Noord-Brabant,VBO,5.713594,51.743588
Valkhofscheweg,13,,,5363SN,Velp,Grave,Noord-Brabant,VBO,5.712988,51.743877
Valkhofscheweg,15,,,5363SN,Velp,Grave,Noord-Brabant,VBO,5.712466,51.743861
Valkhofscheweg,16,,,5363SN,Velp,Grave,Noord-Brabant,VBO,5.711048,51.743380
Voskeschedwarsstraat,1,a,,5363SP,Velp,Grave,Noord-Brabant,VBO,5.719659,51.741468
Voskeschedwarsstraat,1,,,5363SP,Velp,Grave,Noord-Brabant,VBO,5.719484,51.741198
Voskeschedwarsstraat,2,,,5363SP,Velp,Grave,Noord-Brabant,VBO,5.718071,51.742065
Steegschenhofscheweg,1,a,,5363SR,Velp,Grave,Noord-Brabant,VBO,5.729034,51.748155
Steegschenhofscheweg,1,,,5363SR,Velp,Grave,Noord-Brabant,VBO,5.728832,51.748192
Steegschenhofscheweg,2,,,5363SR,Velp,Grave,Noord-Brabant,VBO,5.729321,51.747786
Steegschenhofscheweg,5,a,,5363SR,Velp,Grave,Noord-Brabant,VBO,5.728452,51.747734
Steegschenhofscheweg,5,,,5363SR,Velp,Grave,Noord-Brabant,VBO,5.728340,51.747896
Steegschenhofscheweg,9,,,5363SR,Velp,Grave,Noord-Brabant,VBO,5.728447,51.747132
Steegschenhofscheweg,11,,,5363SR,Velp,Grave,Noord-Brabant,VBO,5.728327,51.746557
Steegschenhofscheweg,15,,,5363SR,Velp,Grave,Noord-Brabant,VBO,5.728165,51.746153
Steegschenhofscheweg,19,,,5363SR,Velp,Grave,Noord-Brabant,VBO,5.727450,51.745418
Generaal de Bonsweg,1,,01,5363ST,Velp,Grave,Noord-Brabant,VBO,5.730453,51.747036
Generaal de Bonsweg,1,,02,5363ST,Velp,Grave,Noord-Brabant,VBO,5.730476,51.747070
Generaal de Bonsweg,1,,03,5363ST,Velp,Grave,Noord-Brabant,VBO,5.730498,51.747104
Generaal de Bonsweg,1,,04,5363ST,Velp,Grave,Noord-Brabant,VBO,5.730519,51.747135
Generaal de Bonsweg,1,,05,5363ST,Velp,Grave,Noord-Brabant,VBO,5.730660,51.747104
Generaal de Bonsweg,1,,06,5363ST,Velp,Grave,Noord-Brabant,VBO,5.730635,51.747073
Generaal de Bonsweg,1,,07,5363ST,Velp,Grave,Noord-Brabant,VBO,5.730612,51.747042
Generaal de Bonsweg,1,,08,5363ST,Velp,Grave,Noord-Brabant,VBO,5.730584,51.747010
Generaal de Bonsweg,1,,09,5363ST,Velp,Grave,Noord-Brabant,VBO,5.730560,51.746975
Generaal de Bonsweg,1,,10,5363ST,Velp,Grave,Noord-Brabant,VBO,5.730538,51.746943
Generaal de Bonsweg,1,,11,5363ST,Velp,Grave,Noord-Brabant,VBO,5.730519,51.746914
Generaal de Bonsweg,1,,12,5363ST,Velp,Grave,Noord-Brabant,VBO,5.730498,51.746882
Generaal de Bonsweg,1,,13,5363ST,Velp,Grave,Noord-Brabant,VBO,5.730476,51.746849
Generaal de Bonsweg,1,,14,5363ST,Velp,Grave,Noord-Brabant,VBO,5.730457,51.746815
Generaal de Bonsweg,1,,15,5363ST,Velp,Grave,Noord-Brabant,VBO,5.730317,51.746848
Generaal de Bonsweg,1,,16,5363ST,Velp,Grave,Noord-Brabant,VBO,5.730337,51.746882
Generaal de Bonsweg,1,,17,5363ST,Velp,Grave,Noord-Brabant,VBO,5.730367,51.746915
Generaal de Bonsweg,1,,18,5363ST,Velp,Grave,Noord-Brabant,VBO,5.730387,51.746949
Generaal de Bonsweg,1,,20,5363ST,Velp,Grave,Noord-Brabant,VBO,5.730479,51.747029
Generaal de Bonsweg,1,,21,5363ST,Velp,Grave,Noord-Brabant,VBO,5.730503,51.747062
Generaal de Bonsweg,1,,22,5363ST,Velp,Grave,Noord-Brabant,VBO,5.730527,51.747096
Generaal de Bonsweg,1,,23,5363ST,Velp,Grave,Noord-Brabant,VBO,5.730545,51.747129
Generaal de Bonsweg,1,,24,5363ST,Velp,Grave,Noord-Brabant,VBO,5.730625,51.747112
Generaal de Bonsweg,1,,25,5363ST,Velp,Grave,Noord-Brabant,VBO,5.730600,51.747079
Generaal de Bonsweg,1,,26,5363ST,Velp,Grave,Noord-Brabant,VBO,5.730574,51.747048
Generaal de Bonsweg,1,,27,5363ST,Velp,Grave,Noord-Brabant,VBO,5.730549,51.747016
Generaal de Bonsweg,1,,28,5363ST,Velp,Grave,Noord-Brabant,VBO,5.730523,51.746981
Generaal de Bonsweg,1,,29,5363ST,Velp,Grave,Noord-Brabant,VBO,5.730500,51.746952
Generaal de Bonsweg,1,,30,5363ST,Velp,Grave,Noord-Brabant,VBO,5.730481,51.746923
Generaal de Bonsweg,1,,31,5363ST,Velp,Grave,Noord-Brabant,VBO,5.730458,51.746890
Generaal de Bonsweg,1,,32,5363ST,Velp,Grave,Noord-Brabant,VBO,5.730438,51.746857
Generaal de Bonsweg,1,,33,5363ST,Velp,Grave,Noord-Brabant,VBO,5.730419,51.746824
Generaal de Bonsweg,1,,34,5363ST,Velp,Grave,Noord-Brabant,VBO,5.730375,51.746875
Generaal de Bonsweg,1,,35,5363ST,Velp,Grave,Noord-Brabant,VBO,5.730418,51.746941
Generaal de Bonsweg,1,,,5363ST,Velp,Grave,Noord-Brabant,VBO,5.731607,51.747518
Generaal de Bonsweg,2,,,5363ST,Velp,Grave,Noord-Brabant,VBO,5.732565,51.747758
Generaal de Bonsweg,3,,,5363ST,Velp,Grave,Noord-Brabant,VBO,5.732285,51.747247
Generaal de Bonsweg,4,,,5363ST,Velp,Grave,Noord-Brabant,VBO,5.732666,51.747722
Generaal de Bonsweg,6,,,5363ST,Velp,Grave,Noord-Brabant,VBO,5.734992,51.747023
Elftweg,1,,,5363SV,Velp,Grave,Noord-Brabant,VBO,5.731867,51.751257
Bosschebaan,1,,,5363SW,Velp,Grave,Noord-Brabant,VBO,5.731647,51.750817
Bosschebaan,5,,,5363SW,Velp,Grave,Noord-Brabant,VBO,5.729011,51.748865
Bosschebaan,7,,,5363SW,Velp,Grave,Noord-Brabant,VBO,5.728677,51.748812
Bosschebaan,9,a,,5363SW,Velp,Grave,Noord-Brabant,VBO,5.720814,51.746821
Bosschebaan,9,b,,5363SW,Velp,Grave,Noord-Brabant,VBO,5.720712,51.746804
Bosschebaan,9,,,5363SW,Velp,Grave,Noord-Brabant,VBO,5.721117,51.746767
Bosschebaan,11,a,,5363SW,Velp,Grave,Noord-Brabant,VBO,5.719973,51.746644
Bosschebaan,11,,,5363SW,Velp,Grave,Noord-Brabant,VBO,5.720073,51.746491
Bosschebaan,13,a,,5363SW,Velp,Grave,Noord-Brabant,VBO,5.719494,51.746493
Bosschebaan,13,b,,5363SW,Velp,Grave,Noord-Brabant,VBO,5.719760,51.746730
Bosschebaan,13,,,5363SW,Velp,Grave,Noord-Brabant,VBO,5.719797,51.746420
Bosschebaan,17,,,5363SW,Velp,Grave,Noord-Brabant,VBO,5.707514,51.743784
Bosschebaan,19,,,5363SW,Velp,Grave,Noord-Brabant,VBO,5.706673,51.743625
Bosschebaan,21,,,5363SW,Velp,Grave,Noord-Brabant,VBO,5.706223,51.743545
Bosschebaan,23,,,5363SW,Velp,Grave,Noord-Brabant,VBO,5.705484,51.743368
Bosschebaan,2,a,,5363SX,Velp,Grave,Noord-Brabant,VBO,5.731696,51.749720
Bosschebaan,2,,,5363SX,Velp,Grave,Noord-Brabant,VBO,5.731731,51.750439
Bosschebaan,4,a,,5363SX,Velp,Grave,Noord-Brabant,VBO,5.718500,51.745336
Bosschebaan,4,b,,5363SX,Velp,Grave,Noord-Brabant,VBO,5.718110,51.745400
Bosschebaan,4,,,5363SX,Velp,Grave,Noord-Brabant,VBO,5.729734,51.748800
Bosschebaan,6,a,,5363SX,Velp,Grave,Noord-Brabant,VBO,5.717690,51.745356
Bosschebaan,6,,,5363SX,Velp,Grave,Noord-Brabant,VBO,5.717690,51.745428
Bosschebaan,8,a,,5363SX,Velp,Grave,Noord-Brabant,VBO,5.716051,51.745046
Bosschebaan,8,,,5363SX,Velp,Grave,Noord-Brabant,VBO,5.715965,51.745154
Bosschebaan,10,a,,5363SX,Velp,Grave,Noord-Brabant,VBO,5.715356,51.744994
Bosschebaan,10,b,,5363SX,Velp,Grave,Noord-Brabant,VBO,5.714286,51.744393
Bosschebaan,10,,,5363SX,Velp,Grave,Noord-Brabant,VBO,5.715412,51.744787
Bosschebaan,12,a,,5363SX,Velp,Grave,Noord-Brabant,VBO,5.713166,51.744515
Bosschebaan,12,,,5363SX,Velp,Grave,Noord-Brabant,VBO,5.713224,51.744524
Bosschebaan,14,,,5363SX,Velp,Grave,Noord-Brabant,VBO,5.713020,51.744416
Bosschebaan,16,a,,5363SX,Velp,Grave,Noord-Brabant,VBO,5.712092,51.744131
Bosschebaan,16,,,5363SX,Velp,Grave,Noord-Brabant,VBO,5.712948,51.744399
Bosschebaan,18,,,5363SX,Velp,Grave,Noord-Brabant,VBO,5.711643,51.744142
Bosschebaan,22,a,,5363SX,Velp,Grave,Noord-Brabant,VBO,5.705203,51.742622
Bosschebaan,22,,,5363SX,Velp,Grave,Noord-Brabant,VBO,5.708454,51.743602
Bosschebaan,24,,,5363SX,Velp,Grave,Noord-Brabant,VBO,5.703031,51.742520
Venesteinlaan,1,,,5363SZ,Velp,Grave,Noord-Brabant,VBO,5.703290,51.744371
Venesteinlaan,2,,,5363SZ,Velp,Grave,Noord-Brabant,VBO,5.704185,51.743955
Venesteinlaan,3,,,5363SZ,Velp,Grave,Noord-Brabant,VBO,5.702393,51.744482
Reekschekampweg,1,,,5363TA,Velp,Grave,Noord-Brabant,VBO,5.703191,51.746780
Tolschestraat,1,b,,5363TB,Velp,Grave,Noord-Brabant,VBO,5.715984,51.745730
Tolschestraat,1,c,,5363TB,Velp,Grave,Noord-Brabant,VBO,5.716217,51.745891
Tolschestraat,1,,,5363TB,Velp,Grave,Noord-Brabant,VBO,5.715984,51.745703
Tolschestraat,3,a,,5363TB,Velp,Grave,Noord-Brabant,VBO,5.716015,51.746017
Tolschestraat,3,,,5363TB,Velp,Grave,Noord-Brabant,VBO,5.716130,51.745963
Tolschestraat,5,,,5363TB,Velp,Grave,Noord-Brabant,VBO,5.716147,51.746268
Tolschestraat,7,,,5363TB,Velp,Grave,Noord-Brabant,VBO,5.716193,51.746565
Tolschestraat,9,,,5363TB,Velp,Grave,Noord-Brabant,VBO,5.716237,51.746718
Tolschestraat,11,a,,5363TB,Velp,Grave,Noord-Brabant,VBO,5.716297,51.746951
Tolschestraat,11,,,5363TB,Velp,Grave,Noord-Brabant,VBO,5.716267,51.746834
Tolschestraat,13,a,,5363TB,Velp,Grave,Noord-Brabant,VBO,5.716342,51.747122
Tolschestraat,13,,,5363TB,Velp,Grave,Noord-Brabant,VBO,5.716312,51.747077
Tolschestraat,15,,,5363TB,Velp,Grave,Noord-Brabant,VBO,5.716386,51.747292
Tolschestraat,17,,,5363TB,Velp,Grave,Noord-Brabant,VBO,5.716431,51.747445
Tolschestraat,19,,,5363TB,Velp,Grave,Noord-Brabant,VBO,5.716446,51.747607
Tolschestraat,21,a,,5363TB,Velp,Grave,Noord-Brabant,VBO,5.716814,51.748361
Tolschestraat,21,,,5363TB,Velp,Grave,Noord-Brabant,VBO,5.716826,51.748091
Tolschestraat,25,,,5363TB,Velp,Grave,Noord-Brabant,VBO,5.716689,51.749152
Tolschestraat,27,,,5363TB,Velp,Grave,Noord-Brabant,VBO,5.716690,51.749233
Tolschestraat,29,,,5363TB,Velp,Grave,Noord-Brabant,VBO,5.716720,51.749323
Tolschestraat,31,,,5363TB,Velp,Grave,Noord-Brabant,VBO,5.716649,51.749602
Tolschestraat,39,,,5363TB,Velp,Grave,Noord-Brabant,VBO,5.716277,51.750241
Tolschestraat,43,,,5363TB,Velp,Grave,Noord-Brabant,VBO,5.716006,51.750718
Tolschestraat,45,,,5363TB,Velp,Grave,Noord-Brabant,VBO,5.715717,51.750809
Tolschestraat,47,,,5363TB,Velp,Grave,Noord-Brabant,VBO,5.715517,51.751187
Tolschestraat,2,,,5363TC,Velp,Grave,Noord-Brabant,VBO,5.713607,51.746130
Tolschestraat,4,,,5363TC,Velp,Grave,Noord-Brabant,VBO,5.715867,51.747563
Tolschestraat,6,,,5363TC,Velp,Grave,Noord-Brabant,VBO,5.715896,51.747644
Tolschestraat,8,,,5363TC,Velp,Grave,Noord-Brabant,VBO,5.715926,51.747779
Tolschestraat,10,,,5363TC,Velp,Grave,Noord-Brabant,VBO,5.715927,51.747842
Tolschestraat,12,,,5363TC,Velp,Grave,Noord-Brabant,VBO,5.715942,51.747968
Tolschestraat,14,,,5363TC,Velp,Grave,Noord-Brabant,VBO,5.715987,51.748084
Tolschestraat,16,,,5363TC,Velp,Grave,Noord-Brabant,VBO,5.716016,51.748201
Tolschestraat,18,,,5363TC,Velp,Grave,Noord-Brabant,VBO,5.716017,51.748273
Tolschestraat,22,,,5363TC,Velp,Grave,Noord-Brabant,VBO,5.716062,51.748453
Tolschestraat,24,,,5363TC,Velp,Grave,Noord-Brabant,VBO,5.716077,51.748579
Tolschestraat,26,,,5363TC,Velp,Grave,Noord-Brabant,VBO,5.716092,51.748632
Tolschestraat,28,,,5363TC,Velp,Grave,Noord-Brabant,VBO,5.716195,51.748848
Tolschestraat,30,,,5363TC,Velp,Grave,Noord-Brabant,VBO,5.716240,51.749081
Tolschestraat,32,,,5363TC,Velp,Grave,Noord-Brabant,VBO,5.716241,51.749261
Tolschestraat,34,,,5363TC,Velp,Grave,Noord-Brabant,VBO,5.716242,51.749396
Tolschestraat,36,,,5363TC,Velp,Grave,Noord-Brabant,VBO,5.716185,51.749531
Tolschestraat,38,,,5363TC,Velp,Grave,Noord-Brabant,VBO,5.716085,51.749693
Tolschestraat,40,a,,5363TC,Velp,Grave,Noord-Brabant,VBO,5.715608,51.749757
Tolschestraat,40,,,5363TC,Velp,Grave,Noord-Brabant,VBO,5.716057,51.749765
Tolschestraat,42,,,5363TC,Velp,Grave,Noord-Brabant,VBO,5.715942,51.749918
Tolschestraat,44,,,5363TC,Velp,Grave,Noord-Brabant,VBO,5.715870,51.750035
Tolschestraat,46,,,5363TC,Velp,Grave,Noord-Brabant,VBO,5.715756,51.750197
Tolschestraat,48,,,5363TD,Velp,Grave,Noord-Brabant,VBO,5.714349,51.749914
Tolschestraat,50,,,5363TD,Velp,Grave,Noord-Brabant,VBO,5.715641,51.750387
Tolschestraat,52,,,5363TD,Velp,Grave,Noord-Brabant,VBO,5.715570,51.750486
Tolschestraat,54,,,5363TD,Velp,Grave,Noord-Brabant,VBO,5.715498,51.750540
Tolschestraat,56,,,5363TD,Velp,Grave,Noord-Brabant,VBO,5.715469,51.750630
Tolschestraat,58,,,5363TD,Velp,Grave,Noord-Brabant,VBO,5.715398,51.750738
Tolschestraat,60,,,5363TD,Velp,Grave,Noord-Brabant,VBO,5.715340,51.750810
Tolschestraat,62,,,5363TD,Velp,Grave,Noord-Brabant,VBO,5.715211,51.751008
Tolschestraat,64,,,5363TD,Velp,Grave,Noord-Brabant,VBO,5.715183,51.751053
Zaalheuvelweg,1,,,5363TE,Velp,Grave,Noord-Brabant,VBO,5.716951,51.749313
Zaalheuvelweg,3,,,5363TE,Velp,Grave,Noord-Brabant,VBO,5.717082,51.749322
Zaalheuvelweg,5,,,5363TE,Velp,Grave,Noord-Brabant,VBO,5.717226,51.749303
Zaalheuvelweg,7,,,5363TE,Velp,Grave,Noord-Brabant,VBO,5.717458,51.749366
Zaalheuvelweg,9,,,5363TE,Velp,Grave,Noord-Brabant,VBO,5.717676,51.749356
Zaalheuvelweg,11,,,5363TE,Velp,Grave,Noord-Brabant,VBO,5.717734,51.749356
Zaalheuvelweg,13,,,5363TE,Velp,Grave,Noord-Brabant,VBO,5.717951,51.749346
Zaalheuvelweg,15,,,5363TE,Velp,Grave,Noord-Brabant,VBO,5.718009,51.749346
Zaalheuvelweg,17,,,5363TE,Velp,Grave,Noord-Brabant,VBO,5.718226,51.749337
Zaalheuvelweg,19,,,5363TE,Velp,Grave,Noord-Brabant,VBO,5.718284,51.749336
Zaalheuvelweg,21,,,5363TE,Velp,Grave,Noord-Brabant,VBO,5.718310,51.749013
Zaalheuvelweg,23,,,5363TE,Velp,Grave,Noord-Brabant,VBO,5.718324,51.748977
Zaalheuvelweg,25,,,5363TE,Velp,Grave,Noord-Brabant,VBO,5.718309,51.748851
Zaalheuvelweg,27,,,5363TE,Velp,Grave,Noord-Brabant,VBO,5.718294,51.748806
Zaalheuvelweg,29,,,5363TE,Velp,Grave,Noord-Brabant,VBO,5.718264,51.748671
Zaalheuvelweg,31,,,5363TE,Velp,Grave,Noord-Brabant,VBO,5.718250,51.748635
Zaalheuvelweg,33,,,5363TE,Velp,Grave,Noord-Brabant,VBO,5.718234,51.748438
Zaalheuvelweg,35,,,5363TE,Velp,Grave,Noord-Brabant,VBO,5.718204,51.748366
Zaalheuvelweg,37,,,5363TE,Velp,Grave,Noord-Brabant,VBO,5.718189,51.748213
Zaalheuvelweg,39,,,5363TE,Velp,Grave,Noord-Brabant,VBO,5.718159,51.748078
Zaalheuvelweg,41,,,5363TE,Velp,Grave,Noord-Brabant,VBO,5.718144,51.748051
Zaalheuvelweg,43,a,,5363TE,Velp,Grave,Noord-Brabant,VBO,5.718129,51.747971
Zaalheuvelweg,43,,,5363TE,Velp,Grave,Noord-Brabant,VBO,5.718143,51.747989
Zaalheuvelweg,45,,,5363TE,Velp,Grave,Noord-Brabant,VBO,5.717854,51.747944
Zaalheuvelweg,47,,,5363TE,Velp,Grave,Noord-Brabant,VBO,5.717767,51.747936
Zaalheuvelweg,49,,,5363TE,Velp,Grave,Noord-Brabant,VBO,5.717723,51.747927
Zaalheuvelweg,51,,,5363TE,Velp,Grave,Noord-Brabant,VBO,5.717665,51.747927
Zaalheuvelweg,53,,,5363TE,Velp,Grave,Noord-Brabant,VBO,5.717578,51.747927
Zaalheuvelweg,55,,,5363TE,Velp,Grave,Noord-Brabant,VBO,5.717434,51.747937
Zaalheuvelweg,2,,,5363TG,Velp,Grave,Noord-Brabant,VBO,5.717040,51.749583
Zaalheuvelweg,4,,,5363TG,Velp,Grave,Noord-Brabant,VBO,5.717141,51.749582
Zaalheuvelweg,6,,,5363TG,Velp,Grave,Noord-Brabant,VBO,5.717257,51.749582
Zaalheuvelweg,8,,,5363TG,Velp,Grave,Noord-Brabant,VBO,5.717344,51.749582
Zaalheuvelweg,10,,,5363TG,Velp,Grave,Noord-Brabant,VBO,5.717532,51.749581
Zaalheuvelweg,12,,,5363TG,Velp,Grave,Noord-Brabant,VBO,5.717605,51.749563
Zaalheuvelweg,14,,,5363TG,Velp,Grave,Noord-Brabant,VBO,5.717721,51.749563
Zaalheuvelweg,16,,,5363TG,Velp,Grave,Noord-Brabant,VBO,5.717822,51.749562
Zaalheuvelweg,18,,,5363TG,Velp,Grave,Noord-Brabant,VBO,5.718054,51.749562
Zaalheuvelweg,20,,,5363TG,Velp,Grave,Noord-Brabant,VBO,5.718155,51.749552
Zaalheuvelweg,22,,,5363TG,Velp,Grave,Noord-Brabant,VBO,5.718242,51.749552
Zaalheuvelweg,24,,,5363TG,Velp,Grave,Noord-Brabant,VBO,5.718343,51.749543
Zaalheuvelweg,26,,,5363TG,Velp,Grave,Noord-Brabant,VBO,5.718764,51.749605
Zaalheuvelweg,28,,,5363TG,Velp,Grave,Noord-Brabant,VBO,5.718748,51.749524
Zaalheuvelweg,30,,,5363TG,Velp,Grave,Noord-Brabant,VBO,5.718718,51.749317
Zaalheuvelweg,32,,,5363TG,Velp,Grave,Noord-Brabant,VBO,5.718746,51.749245
Zaalheuvelweg,34,,,5363TG,Velp,Grave,Noord-Brabant,VBO,5.718731,51.749137
Zaalheuvelweg,36,,,5363TG,Velp,Grave,Noord-Brabant,VBO,5.718716,51.749066
Zaalheuvelweg,58,,,5363TG,Velp,Grave,Noord-Brabant,VBO,5.718596,51.748455
Zaalheuvelweg,60,,,5363TG,Velp,Grave,Noord-Brabant,VBO,5.718566,51.748329
Zaalheuvelweg,62,,,5363TG,Velp,Grave,Noord-Brabant,VBO,5.718199,51.747710
Zaalheuvelweg,64,,,5363TG,Velp,Grave,Noord-Brabant,VBO,5.717982,51.747692
Zaalheuvelweg,66,,,5363TG,Velp,Grave,Noord-Brabant,VBO,5.717866,51.747693
Zaalheuvelweg,68,,,5363TG,Velp,Grave,Noord-Brabant,VBO,5.717649,51.747675
Zaalheuvelweg,70,,,5363TG,Velp,Grave,Noord-Brabant,VBO,5.717403,51.747676
Zaalheuvelweg,72,,,5363TG,Velp,Grave,Noord-Brabant,VBO,5.717229,51.747668
Zaalheuvelweg,74,,,5363TG,Velp,Grave,Noord-Brabant,VBO,5.717011,51.747650
Vogelenzangscheweg,1,,,5363TH,Velp,Grave,Noord-Brabant,VBO,5.719164,51.748983
Vogelenzangscheweg,2,,,5363TH,Velp,Grave,Noord-Brabant,VBO,5.719119,51.748777
Vogelenzangscheweg,3,,,5363TH,Velp,Grave,Noord-Brabant,VBO,5.719411,51.748983
Vogelenzangscheweg,4,,,5363TH,Velp,Grave,Noord-Brabant,VBO,5.719221,51.748776
Vogelenzangscheweg,5,,,5363TH,Velp,Grave,Noord-Brabant,VBO,5.719729,51.748955
Vogelenzangscheweg,6,,,5363TH,Velp,Grave,Noord-Brabant,VBO,5.719394,51.748749
Vogelenzangscheweg,7,,,5363TH,Velp,Grave,Noord-Brabant,VBO,5.719975,51.748963
Vogelenzangscheweg,8,,,5363TH,Velp,Grave,Noord-Brabant,VBO,5.719510,51.748749
Vogelenzangscheweg,9,,,5363TH,Velp,Grave,Noord-Brabant,VBO,5.720207,51.749043
Vogelenzangscheweg,10,,,5363TH,Velp,Grave,Noord-Brabant,VBO,5.719713,51.748730
Schotschestraat,1,a,,5363TJ,Velp,Grave,Noord-Brabant,VBO,5.713145,51.751670
Schotschestraat,1,,,5363TJ,Velp,Grave,Noord-Brabant,VBO,5.714765,51.751396
Schotschestraat,3,,,5363TJ,Velp,Grave,Noord-Brabant,VBO,5.711375,51.752216
Schotschestraat,5,,,5363TJ,Velp,Grave,Noord-Brabant,VBO,5.710646,51.752522
Schotschestraat,7,,,5363TJ,Velp,Grave,Noord-Brabant,VBO,5.709191,51.753568
Grippensteinschestraat,1,,,5363TK,Velp,Grave,Noord-Brabant,VBO,5.717516,51.755262
Grippensteinschestraat,2,,,5363TK,Velp,Grave,Noord-Brabant,VBO,5.718722,51.755843
Grippensteinschestraat,3,a,,5363TK,Velp,Grave,Noord-Brabant,VBO,5.717104,51.754355
Grippensteinschestraat,3,b,,5363TK,Velp,Grave,Noord-Brabant,VBO,5.716721,51.753529
Grippensteinschestraat,3,,,5363TK,Velp,Grave,Noord-Brabant,VBO,5.716661,51.755192
Grippensteinschestraat,4,,,5363TK,Velp,Grave,Noord-Brabant,VBO,5.717461,51.753635
Grippensteinschestraat,5,,,5363TK,Velp,Grave,Noord-Brabant,VBO,5.715349,51.752068
Grippensteinschestraat,10,,,5363TK,Velp,Grave,Noord-Brabant,VBO,5.715796,51.751734
Grippensteinschestraat,11,,,5363TK,Velp,Grave,Noord-Brabant,VBO,5.714925,51.751503
Grippensteinschestraat,12,,,5363TK,Velp,Grave,Noord-Brabant,VBO,5.715707,51.751483
Wolfgatschestraat,1,,,5363TL,Velp,Grave,Noord-Brabant,VBO,5.714039,51.757159
Wolfgatschestraat,2,,,5363TL,Velp,Grave,Noord-Brabant,VBO,5.715598,51.756400
Wolfgatschestraat,3,,,5363TL,Velp,Grave,Noord-Brabant,VBO,5.711947,51.758244
Wolfgatschestraat,4,,,5363TL,Velp,Grave,Noord-Brabant,VBO,5.715497,51.756427
Wolfgatschestraat,5,,,5363TL,Velp,Grave,Noord-Brabant,VBO,5.711863,51.758379
Wolfgatschestraat,6,a,,5363TL,Velp,Grave,Noord-Brabant,VBO,5.715136,51.756599
Wolfgatschestraat,6,,,5363TL,Velp,Grave,Noord-Brabant,VBO,5.715208,51.756572
Wolfgatschestraat,7,,,5363TL,Velp,Grave,Noord-Brabant,VBO,5.711711,51.758323
Wolfgatschestraat,8,,,5363TL,Velp,Grave,Noord-Brabant,VBO,5.714804,51.756681
Wolfgatschestraat,14,,,5363TL,Velp,Grave,Noord-Brabant,VBO,5.711942,51.757570
Hoogveldscheweg,1,a,,5363TM,Velp,Grave,Noord-Brabant,VBO,5.729524,51.749673
Hoogveldscheweg,1,b,,5363TM,Velp,Grave,Noord-Brabant,VBO,5.729648,51.750742
Hoogveldscheweg,1,c,,5363TM,Velp,Grave,Noord-Brabant,VBO,5.729765,51.750912
Hoogveldscheweg,1,,,5363TM,Velp,Grave,Noord-Brabant,VBO,5.727895,51.752617
Hoogveldscheweg,2,,,5363TM,Velp,Grave,Noord-Brabant,VBO,5.726257,51.750554
Hoogveldscheweg,3,a,,5363TM,Velp,Grave,Noord-Brabant,VBO,5.727171,51.752655
Hoogveldscheweg,3,,,5363TM,Velp,Grave,Noord-Brabant,VBO,5.727070,51.752682
Hoogveldscheweg,4,a,,5363TM,Velp,Grave,Noord-Brabant,VBO,5.725070,51.751307
Hoogveldscheweg,4,,,5363TM,Velp,Grave,Noord-Brabant,VBO,5.726716,51.751811
Hoogveldscheweg,5,,,5363TM,Velp,Grave,Noord-Brabant,VBO,5.725709,51.752704
Hoogveldscheweg,6,,,5363TM,Velp,Grave,Noord-Brabant,VBO,5.722811,51.752532
Hoogveldscheweg,7,,,5363TM,Velp,Grave,Noord-Brabant,VBO,5.723648,51.754112
Hoogveldscheweg,8,,,5363TM,Velp,Grave,Noord-Brabant,VBO,5.721742,51.752859
Hoogveldscheweg,9,,,5363TM,Velp,Grave,Noord-Brabant,VBO,5.722092,51.755204
Hoogveldscheweg,11,,,5363TM,Velp,Grave,Noord-Brabant,VBO,5.721388,51.755907
Lageweg,1,a,,5363TN,Velp,Grave,Noord-Brabant,VBO,5.722659,51.759364
Lageweg,1,b,,5363TN,Velp,Grave,Noord-Brabant,VBO,5.722615,51.759301
Lageweg,1,,,5363TN,Velp,Grave,Noord-Brabant,VBO,5.722396,51.759095
Lageweg,2,,,5363TN,Velp,Grave,Noord-Brabant,VBO,5.722438,51.756839
Lageweg,3,,,5363TN,Velp,Grave,Noord-Brabant,VBO,5.721714,51.756940
Pastoriestraat,1,,,5363TP,Velp,Grave,Noord-Brabant,VBO,5.719512,51.756910
Pastoriestraat,2,,,5363TP,Velp,Grave,Noord-Brabant,VBO,5.715683,51.758152
Pastoriestraat,3,,,5363TP,Velp,Grave,Noord-Brabant,VBO,5.719208,51.756893
Pastoriestraat,4,,,5363TP,Velp,Grave,Noord-Brabant,VBO,5.715583,51.758368
Pastoriestraat,5,,,5363TP,Velp,Grave,Noord-Brabant,VBO,5.718934,51.757002
Pastoriestraat,6,,,5363TP,Velp,Grave,Noord-Brabant,VBO,5.714964,51.758838
Pastoriestraat,7,,,5363TP,Velp,Grave,Noord-Brabant,VBO,5.718168,51.757211
Pastoriestraat,9,,,5363TP,Velp,Grave,Noord-Brabant,VBO,5.718023,51.757274
Pastoriestraat,11,,,5363TP,Velp,Grave,Noord-Brabant,VBO,5.715830,51.758476
Pastoriestraat,13,,,5363TP,Velp,Grave,Noord-Brabant,VBO,5.715701,51.758557
Pastoriestraat,17,,,5363TP,Velp,Grave,Noord-Brabant,VBO,5.715197,51.758972
Pastoriestraat,19,,,5363TP,Velp,Grave,Noord-Brabant,VBO,5.713421,51.759786
Schoolstraatje,1,,,5363TR,Velp,Grave,Noord-Brabant,VBO,5.716364,51.760083
Schoolstraatje,2,,,5363TR,Velp,Grave,Noord-Brabant,VBO,5.716781,51.759704
Hanenstraat,1,,,5363TS,Velp,Grave,Noord-Brabant,VBO,5.716082,51.761127
Hanenstraat,3,,,5363TS,Velp,Grave,Noord-Brabant,VBO,5.716022,51.760956
Hanenstraat,5,,,5363TS,Velp,Grave,Noord-Brabant,VBO,5.715964,51.760830
Hanenstraat,7,,,5363TS,Velp,Grave,Noord-Brabant,VBO,5.715948,51.760677
Hanenstraat,8,a,,5363TS,Velp,Grave,Noord-Brabant,VBO,5.716441,51.760712
Hanenstraat,8,b,,5363TS,Velp,Grave,Noord-Brabant,VBO,5.716410,51.760416
Hanenstraat,8,c,,5363TS,Velp,Grave,Noord-Brabant,VBO,5.716425,51.760559
Hanenstraat,8,,,5363TS,Velp,Grave,Noord-Brabant,VBO,5.716456,51.760865
Hanenstraat,9,,,5363TS,Velp,Grave,Noord-Brabant,VBO,5.715904,51.760633
Hanenstraat,10,,,5363TS,Velp,Grave,Noord-Brabant,VBO,5.716046,51.760282
Hanenstraat,13,,,5363TS,Velp,Grave,Noord-Brabant,VBO,5.715390,51.759582
Hanenstraat,14,,,5363TS,Velp,Grave,Noord-Brabant,VBO,5.715693,51.759546
Hanenstraat,15,,,5363TS,Velp,Grave,Noord-Brabant,VBO,5.714923,51.759188
Hanenstraat,16,,,5363TS,Velp,Grave,Noord-Brabant,VBO,5.715387,51.759205
Hanenstraat,18,a,,5363TS,Velp,Grave,Noord-Brabant,VBO,5.714528,51.758560
Hanenstraat,18,b,,5363TS,Velp,Grave,Noord-Brabant,VBO,5.714847,51.758554
Hanenstraat,18,,,5363TS,Velp,Grave,Noord-Brabant,VBO,5.714586,51.758614
Hanenstraat,20,,,5363TS,Velp,Grave,Noord-Brabant,VBO,5.714266,51.758444
Pannestaartweg,1,,,5363TT,Velp,Grave,Noord-Brabant,VBO,5.704887,51.761400
Pannestaartweg,2,,,5363TT,Velp,Grave,Noord-Brabant,VBO,5.713877,51.760674
Pannestaartweg,3,,,5363TT,Velp,Grave,Noord-Brabant,VBO,5.700773,51.761456
Oude Maasdijk,2,,,5363TV,Velp,Grave,Noord-Brabant,VBO,5.700176,51.760963
Oude Maasdijk,4,a,,5363TV,Velp,Grave,Noord-Brabant,VBO,5.694312,51.759235
Oude Maasdijk,4,b,,5363TV,Velp,Grave,Noord-Brabant,VBO,5.694312,51.759235
Oude Maasdijk,4,c,,5363TV,Velp,Grave,Noord-Brabant,VBO,5.694312,51.759235
Oude Maasdijk,4,d,,5363TV,Velp,Grave,Noord-Brabant,VBO,5.694312,51.759235
Oude Maasdijk,4,e,,5363TV,Velp,Grave,Noord-Brabant,VBO,5.694312,51.759235
Oude Maasdijk,4,f,,5363TV,Velp,Grave,Noord-Brabant,VBO,5.694312,51.759235
Oude Maasdijk,4,g,,5363TV,Velp,Grave,Noord-Brabant,VBO,5.694312,51.759235
Oude Maasdijk,4,h,,5363TV,Velp,Grave,Noord-Brabant,VBO,5.694312,51.759235
Oude Maasdijk,4,,,5363TV,Velp,Grave,Noord-Brabant,VBO,5.694312,51.759235
Oude Maasdijk,6,,,5363TV,Velp,Grave,Noord-Brabant,VBO,5.692846,51.758754
Oude Maasdijk,8,,,5363TV,Velp,Grave,Noord-Brabant,VBO,5.691527,51.758631
Bronkhorstweg,1,a,,5363TW,Velp,Grave,Noord-Brabant,VBO,5.722462,51.760129
Bronkhorstweg,1,b,,5363TW,Velp,Grave,Noord-Brabant,VBO,5.722853,51.760083
Bronkhorstweg,1,c,,5363TW,Velp,Grave,Noord-Brabant,VBO,5.723374,51.760009
Bronkhorstweg,1,,,5363TW,Velp,Grave,Noord-Brabant,VBO,5.722247,51.760185
Bronkhorstweg,3,,,5363TW,Velp,Grave,Noord-Brabant,VBO,5.722028,51.760184
Bronkhorstweg,5,a,,5363TW,Velp,Grave,Noord-Brabant,VBO,5.721680,51.760203
Bronkhorstweg,5,,,5363TW,Velp,Grave,Noord-Brabant,VBO,5.721565,51.760221
Bronkhorstweg,7,,,5363TW,Velp,Grave,Noord-Brabant,VBO,5.721405,51.760222
Bronkhorstweg,9,,,5363TW,Velp,Grave,Noord-Brabant,VBO,5.721174,51.760330
Bronkhorstweg,11,,,5363TW,Velp,Grave,Noord-Brabant,VBO,5.720741,51.760448
Bronkhorstweg,13,,,5363TW,Velp,Grave,Noord-Brabant,VBO,5.720567,51.760494
Bronkhorstweg,15,a,,5363TW,Velp,Grave,Noord-Brabant,VBO,5.720076,51.760693
Bronkhorstweg,15,,,5363TW,Velp,Grave,Noord-Brabant,VBO,5.720350,51.760566
Bronkhorstweg,17,a,,5363TW,Velp,Grave,Noord-Brabant,VBO,5.719772,51.760739
Bronkhorstweg,17,,,5363TW,Velp,Grave,Noord-Brabant,VBO,5.719743,51.760739
Bronkhorstweg,19,a,,5363TW,Velp,Grave,Noord-Brabant,VBO,5.719267,51.760911
Bronkhorstweg,19,b,,5363TW,Velp,Grave,Noord-Brabant,VBO,5.719180,51.760938
Bronkhorstweg,19,c,,5363TW,Velp,Grave,Noord-Brabant,VBO,5.718992,51.761028
Bronkhorstweg,19,d,,5363TW,Velp,Grave,Noord-Brabant,VBO,5.718674,51.761110
Bronkhorstweg,19,,,5363TW,Velp,Grave,Noord-Brabant,VBO,5.719484,51.760901
Bronkhorstweg,21,,,5363TW,Velp,Grave,Noord-Brabant,VBO,5.718371,51.761192
Bronkhorstweg,23,,,5363TW,Velp,Grave,Noord-Brabant,VBO,5.716375,51.761701
Bronkhorstweg,25,,,5363TW,Velp,Grave,Noord-Brabant,VBO,5.716230,51.761683
Bronkhorstweg,27,,,5363TW,Velp,Grave,Noord-Brabant,VBO,5.715898,51.761720
Bronkhorstweg,29,,,5363TW,Velp,Grave,Noord-Brabant,VBO,5.715231,51.761668
Bronkhorstweg,37,,,5363TW,Velp,Grave,Noord-Brabant,VBO,5.714766,51.761490
Bronkhorstweg,39,,,5363TW,Velp,Grave,Noord-Brabant,VBO,5.714678,51.761319
Bronkhorstweg,41,,,5363TW,Velp,Grave,Noord-Brabant,VBO,5.714532,51.761203
Bronkhorstweg,43,,,5363TW,Velp,Grave,Noord-Brabant,VBO,5.714343,51.761042
Bronkhorstweg,45,,,5363TW,Velp,Grave,Noord-Brabant,VBO,5.714096,51.760952
Bronkhorstweg,47,,,5363TW,Velp,Grave,Noord-Brabant,VBO,5.713864,51.760926
Bronkhorstweg,49,,,5363TW,Velp,Grave,Noord-Brabant,VBO,5.713618,51.760918
Bronkhorstweg,2,,,5363TX,Velp,Grave,Noord-Brabant,VBO,5.723023,51.759651
Bronkhorstweg,4,,,5363TX,Velp,Grave,Noord-Brabant,VBO,5.722937,51.759669
Bronkhorstweg,6,,,5363TX,Velp,Grave,Noord-Brabant,VBO,5.722850,51.759678
Bronkhorstweg,8,,,5363TX,Velp,Grave,Noord-Brabant,VBO,5.722748,51.759696
Bronkhorstweg,10,,,5363TX,Velp,Grave,Noord-Brabant,VBO,5.722604,51.759724
Bronkhorstweg,12,,,5363TX,Velp,Grave,Noord-Brabant,VBO,5.722532,51.759742
Bronkhorstweg,14,,,5363TX,Velp,Grave,Noord-Brabant,VBO,5.722430,51.759760
Bronkhorstweg,16,,,5363TX,Velp,Grave,Noord-Brabant,VBO,5.722286,51.759788
Bronkhorstweg,18,,,5363TX,Velp,Grave,Noord-Brabant,VBO,5.722213,51.759806
Bronkhorstweg,20,,,5363TX,Velp,Grave,Noord-Brabant,VBO,5.722127,51.759824
Bronkhorstweg,22,,,5363TX,Velp,Grave,Noord-Brabant,VBO,5.722040,51.759842
Bronkhorstweg,24,,,5363TX,Velp,Grave,Noord-Brabant,VBO,5.721794,51.759933
Bronkhorstweg,26,,,5363TX,Velp,Grave,Noord-Brabant,VBO,5.721693,51.759951
Bronkhorstweg,28,,,5363TX,Velp,Grave,Noord-Brabant,VBO,5.720739,51.760232
Bronkhorstweg,30,,,5363TX,Velp,Grave,Noord-Brabant,VBO,5.720335,51.760377
Bronkhorstweg,32,,,5363TX,Velp,Grave,Noord-Brabant,VBO,5.719930,51.760451
Bronkhorstweg,34,,,5363TX,Velp,Grave,Noord-Brabant,VBO,5.719742,51.760514
Bronkhorstweg,36,,,5363TX,Velp,Grave,Noord-Brabant,VBO,5.719510,51.760569
Bronkhorstweg,38,,,5363TX,Velp,Grave,Noord-Brabant,VBO,5.719308,51.760641
Bronkhorstweg,40,,,5363TX,Velp,Grave,Noord-Brabant,VBO,5.719062,51.760714
Bronkhorstweg,42,a,,5363TX,Velp,Grave,Noord-Brabant,VBO,5.718528,51.760868
Bronkhorstweg,42,,,5363TX,Velp,Grave,Noord-Brabant,VBO,5.718773,51.760795
Bronkhorstweg,44,,,5363TX,Velp,Grave,Noord-Brabant,VBO,5.718369,51.760931
Bronkhorstweg,46,,,5363TZ,Velp,Grave,Noord-Brabant,VBO,5.718065,51.760995
Bronkhorstweg,48,,,5363TZ,Velp,Grave,Noord-Brabant,VBO,5.717791,51.761095
Bronkhorstweg,50,,,5363TZ,Velp,Grave,Noord-Brabant,VBO,5.717531,51.761221
Bronkhorstweg,52,,,5363TZ,Velp,Grave,Noord-Brabant,VBO,5.717285,51.761294
Bronkhorstweg,54,,,5363TZ,Velp,Grave,Noord-Brabant,VBO,5.716966,51.761313
Bronkhorstweg,58,,,5363TZ,Velp,Grave,Noord-Brabant,VBO,5.715866,51.761397
Bronkhorstweg,62,,,5363TZ,Velp,Grave,Noord-Brabant,VBO,5.715533,51.761425
Bronkhorstweg,64,,,5363TZ,Velp,Grave,Noord-Brabant,VBO,5.715257,51.761264
Bronkhorstweg,66,,,5363TZ,Velp,Grave,Noord-Brabant,VBO,5.714923,51.761094
Bronkhorstweg,68,,,5363TZ,Velp,Grave,Noord-Brabant,VBO,5.714850,51.761022
Bronkhorstweg,70,,,5363TZ,Velp,Grave,Noord-Brabant,VBO,5.714747,51.760888
Basilius van Bruggelaan,1,,,5363VA,Velp,Grave,Noord-Brabant,VBO,5.717966,51.761301
Basilius van Bruggelaan,2,a,,5363VA,Velp,Grave,Noord-Brabant,VBO,5.716774,51.762630
Basilius van Bruggelaan,2,b,,5363VA,Velp,Grave,Noord-Brabant,VBO,5.716487,51.762646
Basilius van Bruggelaan,2,,,5363VA,Velp,Grave,Noord-Brabant,VBO,5.717124,51.762478
Basilius van Bruggelaan,4,,,5363VA,Velp,Grave,Noord-Brabant,VBO,5.713417,51.763246
Schansweg,1,,,5363VB,Velp,Grave,Noord-Brabant,VBO,5.723243,51.734716
Prenkweg,2,,,5363VC,Velp,Grave,Noord-Brabant,VBO,5.719893,51.757448
De Eek,1,a,,5363VD,Velp,Grave,Noord-Brabant,VBO,5.729283,51.750374
De Eek,1,,,5363VD,Velp,Grave,Noord-Brabant,VBO,5.729356,51.750536
De Eek,3,a,,5363VD,Velp,Grave,Noord-Brabant,VBO,5.729469,51.750140
De Eek,3,,,5363VD,Velp,Grave,Noord-Brabant,VBO,5.729440,51.750158
De Eek,5,,,5363VD,Velp,Grave,Noord-Brabant,VBO,5.729945,51.749914
De Eek,7,,,5363VD,Velp,Grave,Noord-Brabant,VBO,5.730093,51.750237
De Eek,9,,,5363VD,Velp,Grave,Noord-Brabant,VBO,5.730501,51.750623
Pastoor Loefsweg,1,,,5363VE,Velp,Grave,Noord-Brabant,VBO,5.715513,51.762575
Lievendael,1,,,5363VG,Velp,Grave,Noord-Brabant,VBO,5.719456,51.749216
Lievendael,2,,,5363VG,Velp,Grave,Noord-Brabant,VBO,5.719789,51.749251
Lievendael,3,,,5363VG,Velp,Grave,Noord-Brabant,VBO,5.719456,51.749270
Lievendael,4,,,5363VG,Velp,Grave,Noord-Brabant,VBO,5.719864,51.749539
Lievendael,5,,,5363VG,Velp,Grave,Noord-Brabant,VBO,5.719487,51.749504
Lievendael,7,,,5363VG,Velp,Grave,Noord-Brabant,VBO,5.719487,51.749558
Hegveld,1,,,5363VH,Velp,Grave,Noord-Brabant,VBO,5.719058,51.748310
Hegveld,2,,,5363VH,Velp,Grave,Noord-Brabant,VBO,5.718535,51.748095
Hegveld,3,,,5363VH,Velp,Grave,Noord-Brabant,VBO,5.719102,51.748309
Hegveld,4,,,5363VH,Velp,Grave,Noord-Brabant,VBO,5.718723,51.748077
Hegveld,5,,,5363VH,Velp,Grave,Noord-Brabant,VBO,5.719264,51.748391
Hegveld,6,,,5363VH,Velp,Grave,Noord-Brabant,VBO,5.718825,51.748076
Hegveld,7,,,5363VH,Velp,Grave,Noord-Brabant,VBO,5.719348,51.748390
Hegveld,8,,,5363VH,Velp,Grave,Noord-Brabant,VBO,5.719042,51.748076
Hegveld,9,,,5363VH,Velp,Grave,Noord-Brabant,VBO,5.719565,51.748308
Hegveld,10,,,5363VH,Velp,Grave,Noord-Brabant,VBO,5.719245,51.748066
Hegveld,11,,,5363VH,Velp,Grave,Noord-Brabant,VBO,5.719782,51.748316
Hegveld,12,,,5363VH,Velp,Grave,Noord-Brabant,VBO,5.719346,51.748093
Hegveld,14,,,5363VH,Velp,Grave,Noord-Brabant,VBO,5.719534,51.748092
Hegveld,16,,,5363VH,Velp,Grave,Noord-Brabant,VBO,5.719636,51.748101
Hegveld,18,,,5363VH,Velp,Grave,Noord-Brabant,VBO,5.719853,51.748101
Kastanjelaan,1,,,5363VJ,Velp,Grave,Noord-Brabant,VBO,5.713525,51.748109
Kastanjelaan,3,,,5363VJ,Velp,Grave,Noord-Brabant,VBO,5.713250,51.748173
Kastanjelaan,5,,,5363VJ,Velp,Grave,Noord-Brabant,VBO,5.712947,51.748228
Kastanjelaan,7,,,5363VJ,Velp,Grave,Noord-Brabant,VBO,5.712686,51.748273
Kastanjelaan,9,,,5363VJ,Velp,Grave,Noord-Brabant,VBO,5.712325,51.748337
Kastanjelaan,11,,,5363VJ,Velp,Grave,Noord-Brabant,VBO,5.712035,51.748383
Kastanjelaan,13,,,5363VJ,Velp,Grave,Noord-Brabant,VBO,5.711746,51.748429
Kastanjelaan,15,,,5363VJ,Velp,Grave,Noord-Brabant,VBO,5.711168,51.748538
Kastanjelaan,17,,,5363VJ,Velp,Grave,Noord-Brabant,VBO,5.710879,51.748620
Kastanjelaan,19,,,5363VJ,Velp,Grave,Noord-Brabant,VBO,5.710589,51.748675
Lindeplein,1,a,,5363VK,Velp,Grave,Noord-Brabant,VBO,5.715483,51.748562
Lindeplein,1,b,,5363VK,Velp,Grave,Noord-Brabant,VBO,5.715252,51.748698
Lindeplein,2,a,,5363VK,Velp,Grave,Noord-Brabant,VBO,5.715235,51.748329
Lindeplein,2,b,,5363VK,Velp,Grave,Noord-Brabant,VBO,5.715046,51.748204
Lindeplein,3,a,,5363VK,Velp,Grave,Noord-Brabant,VBO,5.714955,51.748825
Lindeplein,3,,,5363VK,Velp,Grave,Noord-Brabant,VBO,5.714891,51.748695
Lindeplein,4,a,,5363VK,Velp,Grave,Noord-Brabant,VBO,5.714596,51.748097
Lindeplein,4,b,,5363VK,Velp,Grave,Noord-Brabant,VBO,5.714494,51.747927
Lindeplein,5,a,,5363VK,Velp,Grave,Noord-Brabant,VBO,5.714253,51.748620
Lindeplein,5,b,,5363VK,Velp,Grave,Noord-Brabant,VBO,5.714121,51.748476
Lindeplein,7,a,,5363VK,Velp,Grave,Noord-Brabant,VBO,5.714279,51.748260
Lindeplein,7,b,,5363VK,Velp,Grave,Noord-Brabant,VBO,5.714191,51.748081
Vetwei,1,,,5363VL,Velp,Grave,Noord-Brabant,VBO,5.717106,51.748675
Vetwei,2,,,5363VL,Velp,Grave,Noord-Brabant,VBO,5.717670,51.748565
Vetwei,3,,,5363VL,Velp,Grave,Noord-Brabant,VBO,5.717106,51.748720
Vetwei,4,,,5363VL,Velp,Grave,Noord-Brabant,VBO,5.717670,51.748610
Vetwei,5,,,5363VL,Velp,Grave,Noord-Brabant,VBO,5.717107,51.748764
Vetwei,6,,,5363VL,Velp,Grave,Noord-Brabant,VBO,5.717671,51.748664
Vetwei,8,,,5363VL,Velp,Grave,Noord-Brabant,VBO,5.717671,51.748709
Vetwei,10,,,5363VL,Velp,Grave,Noord-Brabant,VBO,5.717700,51.748754
Vetwei,12,,,5363VL,Velp,Grave,Noord-Brabant,VBO,5.717701,51.748871
Vetwei,14,,,5363VL,Velp,Grave,Noord-Brabant,VBO,5.717701,51.748925
Vetwei,16,,,5363VL,Velp,Grave,Noord-Brabant,VBO,5.717702,51.748970
Vetwei,18,,,5363VL,Velp,Grave,Noord-Brabant,VBO,5.717702,51.749014
Vetwei,20,,,5363VL,Velp,Grave,Noord-Brabant,VBO,5.717702,51.749059
Vetwei,22,,,5363VL,Velp,Grave,Noord-Brabant,VBO,5.717398,51.748970
Vetwei,24,,,5363VL,Velp,Grave,Noord-Brabant,VBO,5.717224,51.748980
Vetwei,26,,,5363VL,Velp,Grave,Noord-Brabant,VBO,5.717137,51.748980
Vetwei,28,,,5363VL,Velp,Grave,Noord-Brabant,VBO,5.716963,51.748999
Appèlplaats,1,,,5363VS,Velp,Grave,Noord-Brabant,VBO,5.728645,51.742655
Appèlplaats,2,,,5363VS,Velp,Grave,Noord-Brabant,VBO,5.729357,51.743013
Veldartilleriestraat,2,,,5363VT,Velp,Grave,Noord-Brabant,VBO,5.728430,51.744158
Stoottroepenweg,2,,,5363VV,Velp,Grave,Noord-Brabant,VBO,5.730305,51.743891
Stoottroepenweg,4,,,5363VV,Velp,Grave,Noord-Brabant,VBO,5.731044,51.744318
Stoottroepenweg,6,,,5363VV,Velp,Grave,Noord-Brabant,VBO,5.730905,51.744107
Infanteriestraat,1,,,5363VW,Velp,Grave,Noord-Brabant,VBO,5.729744,51.744324
Infanteriestraat,2,b,,5363VW,Velp,Grave,Noord-Brabant,VBO,5.729929,51.745055
Infanteriestraat,2,,,5363VW,Velp,Grave,Noord-Brabant,VBO,5.729689,51.744675
Infanteriestraat,3,,,5363VW,Velp,Grave,Noord-Brabant,VBO,5.728829,51.744520
Garnizoenstraat,1,,,5363VX,Velp,Grave,Noord-Brabant,VBO,5.728879,51.744929
Garnizoenstraat,2,,,5363VX,Velp,Grave,Noord-Brabant,VBO,5.729227,51.744865
Garnizoenstraat,3,,,5363VX,Velp,Grave,Noord-Brabant,VBO,5.729056,51.745251
Garnizoenstraat,4,,,5363VX,Velp,Grave,Noord-Brabant,VBO,5.729417,51.745161
Garnizoenstraat,5,,,5363VX,Velp,Grave,Noord-Brabant,VBO,5.729260,51.745503
Garnizoenstraat,6,,,5363VX,Velp,Grave,Noord-Brabant,VBO,5.729622,51.745457
Intendanceplantsoen,1,,04,5363VZ,Velp,Grave,Noord-Brabant,VBO,5.731707,51.746785
Intendanceplantsoen,2,,,5363VZ,Velp,Grave,Noord-Brabant,VBO,5.730201,51.745543
