openbareruimtenaam,huisnummer,huisletter,huisnummertoevoeging,postcode,woonplaatsnaam,gemeentenaam,provincienaam,typeadresseerbaarobject,longitude,latitude
Karweg,2,,,5364MZ,Escharen,Grave,Noord-Brabant,VBO,5.740488,51.740643
Liefkenshoekschestraat,1,a,,5364NB,Escharen,Grave,Noord-Brabant,VBO,5.720053,51.726132
Liefkenshoekschestraat,1,,,5364NB,Escharen,Grave,Noord-Brabant,VBO,5.720241,51.726123
Liefkenshoekschestraat,2,,,5364NB,Escharen,Grave,Noord-Brabant,VBO,5.719777,51.725953
Liefkenshoekschestraat,3,a,,5364NB,Escharen,Grave,Noord-Brabant,VBO,5.717753,51.726273
Liefkenshoekschestraat,3,,,5364NB,Escharen,Grave,Noord-Brabant,VBO,5.718216,51.726254
Liefkenshoekschestraat,4,,,5364NB,Escharen,Grave,Noord-Brabant,VBO,5.718663,51.726010
Liefkenshoekschestraat,6,a,,5364NB,Escharen,Grave,Noord-Brabant,VBO,5.717417,51.725906
Liefkenshoekschestraat,6,,,5364NB,Escharen,Grave,Noord-Brabant,VBO,5.718041,51.726075
Schrijfakkerweg,1,a,,5364NC,Escharen,Grave,Noord-Brabant,VBO,5.731322,51.727223
Schrijfakkerweg,1,,,5364NC,Escharen,Grave,Noord-Brabant,VBO,5.733370,51.728179
Schrijfakkerweg,2,,,5364NC,Escharen,Grave,Noord-Brabant,VBO,5.735214,51.727077
Schrijfakkerweg,3,,,5364NC,Escharen,Grave,Noord-Brabant,VBO,5.727326,51.727019
Schrijfakkerweg,4,a,,5364NC,Escharen,Grave,Noord-Brabant,VBO,5.734605,51.727083
Schrijfakkerweg,4,,,5364NC,Escharen,Grave,Noord-Brabant,VBO,5.734665,51.727105
Schrijfakkerweg,5,,,5364NC,Escharen,Grave,Noord-Brabant,VBO,5.725340,51.726692
Schrijfakkerweg,6,,,5364NC,Escharen,Grave,Noord-Brabant,VBO,5.733810,51.727063
Schrijfakkerweg,8,,,5364NC,Escharen,Grave,Noord-Brabant,VBO,5.732348,51.727040
Schrijfakkerweg,12,,,5364NC,Escharen,Grave,Noord-Brabant,VBO,5.728496,51.726710
Schrijfakkerweg,14,,,5364NC,Escharen,Grave,Noord-Brabant,VBO,5.722771,51.725648
Schrijfakkerweg,16,,,5364NC,Escharen,Grave,Noord-Brabant,VBO,5.722596,51.725603
Lageheiweg,1,,,5364ND,Escharen,Grave,Noord-Brabant,VBO,5.725954,51.725504
Lageheiweg,3,a,,5364ND,Escharen,Grave,Noord-Brabant,VBO,5.727482,51.724717
Lageheiweg,3,,,5364ND,Escharen,Grave,Noord-Brabant,VBO,5.727149,51.724763
Lageheiweg,5,,,5364ND,Escharen,Grave,Noord-Brabant,VBO,5.729166,51.723526
Lageheiweg,7,,,5364ND,Escharen,Grave,Noord-Brabant,VBO,5.727854,51.724150
Lageheiweg,9,a,,5364ND,Escharen,Grave,Noord-Brabant,VBO,5.729377,51.722708
Lageheiweg,9,,,5364ND,Escharen,Grave,Noord-Brabant,VBO,5.729537,51.722824
Lageheiweg,11,,,5364ND,Escharen,Grave,Noord-Brabant,VBO,5.729723,51.722518
Busweg,1,a,,5364NE,Escharen,Grave,Noord-Brabant,VBO,5.723139,51.730375
Busweg,1,,,5364NE,Escharen,Grave,Noord-Brabant,VBO,5.723254,51.732307
Busweg,2,,,5364NE,Escharen,Grave,Noord-Brabant,VBO,5.723178,51.729889
Busweg,3,,,5364NE,Escharen,Grave,Noord-Brabant,VBO,5.722804,51.730169
Busweg,4,a,,5364NE,Escharen,Grave,Noord-Brabant,VBO,5.723556,51.730060
Busweg,4,,,5364NE,Escharen,Grave,Noord-Brabant,VBO,5.723353,51.730006
Bremweg,1,,,5364NG,Escharen,Grave,Noord-Brabant,VBO,5.715776,51.727097
Campagnelaan,2,,,5364NH,Escharen,Grave,Noord-Brabant,VBO,5.738522,51.722411
Campagnelaan,4,,,5364NH,Escharen,Grave,Noord-Brabant,VBO,5.741935,51.722167
Campagnelaan,6,,,5364NH,Escharen,Grave,Noord-Brabant,VBO,5.742540,51.721787
Zeisweg,2,,,5364NJ,Escharen,Grave,Noord-Brabant,VBO,5.740261,51.722792
Hoogeweg,1,,,5364NK,Escharen,Grave,Noord-Brabant,VBO,5.734639,51.746332
Hoogeweg,3,,,5364NK,Escharen,Grave,Noord-Brabant,VBO,5.734387,51.745605
Hoogeweg,4,,,5364NK,Escharen,Grave,Noord-Brabant,VBO,5.736972,51.724168
Hoogeweg,6,,,5364NK,Escharen,Grave,Noord-Brabant,VBO,5.736971,51.724060
Hoogeweg,9,a,,5364NK,Escharen,Grave,Noord-Brabant,VBO,5.735672,51.741349
Hoogeweg,9,,,5364NK,Escharen,Grave,Noord-Brabant,VBO,5.735687,51.741421
Hoogeweg,11,a,,5364NK,Escharen,Grave,Noord-Brabant,VBO,5.734344,51.740014
Hoogeweg,11,,,5364NK,Escharen,Grave,Noord-Brabant,VBO,5.732825,51.740126
Hoogeweg,13,a,,5364NK,Escharen,Grave,Noord-Brabant,VBO,5.735930,51.737321
Hoogeweg,13,,,5364NK,Escharen,Grave,Noord-Brabant,VBO,5.736251,51.737554
Hoogeweg,15,,,5364NK,Escharen,Grave,Noord-Brabant,VBO,5.735494,51.737098
Hoogeweg,17,,,5364NK,Escharen,Grave,Noord-Brabant,VBO,5.736319,51.736997
Hoogeweg,19,,,5364NK,Escharen,Grave,Noord-Brabant,VBO,5.731996,51.732048
Hoogeweg,21,a,,5364NK,Escharen,Grave,Noord-Brabant,VBO,5.732766,51.730536
Hoogeweg,21,,,5364NK,Escharen,Grave,Noord-Brabant,VBO,5.732446,51.730312
Hoogeweg,23,,,5364NK,Escharen,Grave,Noord-Brabant,VBO,5.736795,51.727441
Hoogeweg,25,,,5364NK,Escharen,Grave,Noord-Brabant,VBO,5.736581,51.725958
Hondsdijk,1,b,,5364NL,Escharen,Grave,Noord-Brabant,VBO,5.734494,51.736939
Hondsdijk,1,c,,5364NL,Escharen,Grave,Noord-Brabant,VBO,5.735694,51.736666
Hondsdijk,1,,,5364NL,Escharen,Grave,Noord-Brabant,VBO,5.735343,51.736308
Hondsdijk,2,,,5364NL,Escharen,Grave,Noord-Brabant,VBO,5.732989,51.735146
Hondsdijk,3,,,5364NL,Escharen,Grave,Noord-Brabant,VBO,5.732983,51.736225
Hondsdijk,5,,,5364NL,Escharen,Grave,Noord-Brabant,VBO,5.732238,51.735364
Boltschestraat,1,a,,5364NM,Escharen,Grave,Noord-Brabant,VBO,5.731040,51.741570
Boltschestraat,1,,,5364NM,Escharen,Grave,Noord-Brabant,VBO,5.729577,51.739560
Boltschestraat,2,,,5364NM,Escharen,Grave,Noord-Brabant,VBO,5.729898,51.737933
Boltschestraat,3,,,5364NM,Escharen,Grave,Noord-Brabant,VBO,5.730136,51.736943
Boltschestraat,4,,,5364NM,Escharen,Grave,Noord-Brabant,VBO,5.730967,51.735718
Ploegweg,2,,,5364NN,Escharen,Grave,Noord-Brabant,VBO,5.736957,51.737157
Ploegweg,4,,,5364NN,Escharen,Grave,Noord-Brabant,VBO,5.737204,51.737246
Kranenhofscheweg,1,,,5364NP,Escharen,Grave,Noord-Brabant,VBO,5.729002,51.742007
Kranenhofscheweg,3,,,5364NP,Escharen,Grave,Noord-Brabant,VBO,5.733386,51.741608
Kranenhofscheweg,5,,,5364NP,Escharen,Grave,Noord-Brabant,VBO,5.733686,51.741085
Kranenhofscheweg,6,,,5364NP,Escharen,Grave,Noord-Brabant,VBO,5.731112,51.743367
Kranenhofscheweg,10,,,5364NP,Escharen,Grave,Noord-Brabant,VBO,5.732380,51.742509
Beerschemaasweg,1,,,5364NR,Escharen,Grave,Noord-Brabant,VBO,5.737374,51.740481
Beerschemaasweg,17,,,5364NR,Escharen,Grave,Noord-Brabant,VBO,5.742835,51.740878
Beerschemaasweg,19,,,5364NR,Escharen,Grave,Noord-Brabant,VBO,5.743124,51.740841
Beerschemaasweg,21,,,5364NR,Escharen,Grave,Noord-Brabant,VBO,5.743443,51.740831
Beerschemaasweg,23,,,5364NR,Escharen,Grave,Noord-Brabant,VBO,5.743703,51.740813
Beerschemaasweg,25,,,5364NR,Escharen,Grave,Noord-Brabant,VBO,5.744050,51.740776
Beerschemaasweg,27,,,5364NR,Escharen,Grave,Noord-Brabant,VBO,5.744427,51.740765
Beerschemaasweg,29,,,5364NR,Escharen,Grave,Noord-Brabant,VBO,5.744789,51.740836
Beerschemaasweg,31,,,5364NR,Escharen,Grave,Noord-Brabant,VBO,5.745050,51.740844
Beerschemaasweg,33,,,5364NR,Escharen,Grave,Noord-Brabant,VBO,5.745325,51.740862
Beerschemaasweg,41,,,5364NR,Escharen,Grave,Noord-Brabant,VBO,5.746252,51.740886
Beerschemaasweg,43,,,5364NR,Escharen,Grave,Noord-Brabant,VBO,5.746513,51.740921
Beerschemaasweg,45,a,,5364NR,Escharen,Grave,Noord-Brabant,VBO,5.745671,51.738883
Beerschemaasweg,45,,,5364NR,Escharen,Grave,Noord-Brabant,VBO,5.746207,51.738836
Beerschemaasweg,47,,,5364NR,Escharen,Grave,Noord-Brabant,VBO,5.746904,51.740974
Beerschemaasweg,49,,,5364NR,Escharen,Grave,Noord-Brabant,VBO,5.747194,51.741009
Beerschemaasweg,51,,,5364NR,Escharen,Grave,Noord-Brabant,VBO,5.747397,51.741035
Beerschemaasweg,53,a,,5364NR,Escharen,Grave,Noord-Brabant,VBO,5.747890,51.741132
Beerschemaasweg,53,,,5364NR,Escharen,Grave,Noord-Brabant,VBO,5.747615,51.741088
Beerschemaasweg,55,,,5364NR,Escharen,Grave,Noord-Brabant,VBO,5.748443,51.741427
Beerschemaasweg,4,,,5364NS,Escharen,Grave,Noord-Brabant,VBO,5.738974,51.741510
Beerschemaasweg,6,,,5364NS,Escharen,Grave,Noord-Brabant,VBO,5.742577,51.741149
Beerschemaasweg,8,,,5364NS,Escharen,Grave,Noord-Brabant,VBO,5.742736,51.741157
Beerschemaasweg,10,,,5364NS,Escharen,Grave,Noord-Brabant,VBO,5.742924,51.741139
Beerschemaasweg,12,,,5364NS,Escharen,Grave,Noord-Brabant,VBO,5.743127,51.741129
Beerschemaasweg,14,,,5364NS,Escharen,Grave,Noord-Brabant,VBO,5.743315,51.741119
Beerschemaasweg,16,,,5364NS,Escharen,Grave,Noord-Brabant,VBO,5.743517,51.741101
Beerschemaasweg,18,,,5364NS,Escharen,Grave,Noord-Brabant,VBO,5.743676,51.741091
Beerschemaasweg,20,,,5364NS,Escharen,Grave,Noord-Brabant,VBO,5.743879,51.741073
Beerschemaasweg,22,,,5364NS,Escharen,Grave,Noord-Brabant,VBO,5.744299,51.741044
Beerschemaasweg,24,,,5364NS,Escharen,Grave,Noord-Brabant,VBO,5.744545,51.741044
Beerschemaasweg,26,,,5364NS,Escharen,Grave,Noord-Brabant,VBO,5.744762,51.741052
Beerschemaasweg,28,,,5364NS,Escharen,Grave,Noord-Brabant,VBO,5.744979,51.741051
Beerschemaasweg,30,,,5364NS,Escharen,Grave,Noord-Brabant,VBO,5.745182,51.741087
Beerschemaasweg,32,,,5364NS,Escharen,Grave,Noord-Brabant,VBO,5.745573,51.741122
Beerschemaasweg,34,,,5364NS,Escharen,Grave,Noord-Brabant,VBO,5.746081,51.741174
Beerschemaasweg,36,,,5364NS,Escharen,Grave,Noord-Brabant,VBO,5.746472,51.741209
Beerschemaasweg,38,,,5364NS,Escharen,Grave,Noord-Brabant,VBO,5.746733,51.741235
Beerschemaasweg,40,,,5364NS,Escharen,Grave,Noord-Brabant,VBO,5.746979,51.741261
Beerschemaasweg,42,,,5364NS,Escharen,Grave,Noord-Brabant,VBO,5.747370,51.741332
Beerschemaasweg,50,,,5364NS,Escharen,Grave,Noord-Brabant,VBO,5.748692,51.741804
Beerschemaasweg,54,,,5364NS,Escharen,Grave,Noord-Brabant,VBO,5.750101,51.742339
Beerschemaasweg,56,,,5364NS,Escharen,Grave,Noord-Brabant,VBO,5.750535,51.742365
Beerschemaasweg,58,,,5364NS,Escharen,Grave,Noord-Brabant,VBO,5.750869,51.742444
Beerschemaasweg,60,,,5364NS,Escharen,Grave,Noord-Brabant,VBO,5.751057,51.742498
Beerschemaasweg,62,,,5364NS,Escharen,Grave,Noord-Brabant,VBO,5.751130,51.742516
Beerschemaasweg,64,,,5364NS,Escharen,Grave,Noord-Brabant,VBO,5.751318,51.742533
Beerschemaasweg,66,,,5364NS,Escharen,Grave,Noord-Brabant,VBO,5.751405,51.742542
Beerschemaasweg,68,,,5364NS,Escharen,Grave,Noord-Brabant,VBO,5.751579,51.742586
Beerschemaasweg,70,,,5364NS,Escharen,Grave,Noord-Brabant,VBO,5.751652,51.742604
Beerschemaasweg,72,,,5364NS,Escharen,Grave,Noord-Brabant,VBO,5.751826,51.742666
Beerschemaasweg,74,,,5364NS,Escharen,Grave,Noord-Brabant,VBO,5.751899,51.742702
Rotscheweg,1,,,5364NT,Escharen,Grave,Noord-Brabant,VBO,5.748200,51.736457
Rotscheweg,2,a,,5364NT,Escharen,Grave,Noord-Brabant,VBO,5.756076,51.733008
Rotscheweg,2,,,5364NT,Escharen,Grave,Noord-Brabant,VBO,5.755762,51.733441
Rotscheweg,3,a,,5364NT,Escharen,Grave,Noord-Brabant,VBO,5.749319,51.735187
Rotscheweg,3,,,5364NT,Escharen,Grave,Noord-Brabant,VBO,5.749306,51.735339
Rotscheweg,4,,,5364NT,Escharen,Grave,Noord-Brabant,VBO,5.757857,51.731187
Rotscheweg,5,,,5364NT,Escharen,Grave,Noord-Brabant,VBO,5.751292,51.733841
Rotscheweg,7,,,5364NT,Escharen,Grave,Noord-Brabant,VBO,5.750315,51.733035
Rotscheweg,17,,,5364NT,Escharen,Grave,Noord-Brabant,VBO,5.755527,51.731435
Rotscheweg,19,,,5364NT,Escharen,Grave,Noord-Brabant,VBO,5.755614,51.731347
Kievitweg,1,a,,5364NV,Escharen,Grave,Noord-Brabant,VBO,5.759851,51.725500
Kievitweg,1,,,5364NV,Escharen,Grave,Noord-Brabant,VBO,5.760170,51.725616
Kievitweg,2,,,5364NV,Escharen,Grave,Noord-Brabant,VBO,5.758309,51.726404
Vogelshoekscheweg,1,a,,5364NW,Escharen,Grave,Noord-Brabant,VBO,5.757794,51.725363
Vogelshoekscheweg,1,,,5364NW,Escharen,Grave,Noord-Brabant,VBO,5.756688,51.726310
Vogelshoekscheweg,2,,,5364NW,Escharen,Grave,Noord-Brabant,VBO,5.758274,51.725568
Vogelshoekscheweg,3,,,5364NW,Escharen,Grave,Noord-Brabant,VBO,5.758359,51.725361
Kwartelweg,2,a,,5364NZ,Escharen,Grave,Noord-Brabant,VBO,5.752604,51.731428
Kwartelweg,2,,,5364NZ,Escharen,Grave,Noord-Brabant,VBO,5.752835,51.731373
Middelrotscheweg,1,,,5364PA,Escharen,Grave,Noord-Brabant,VBO,5.750954,51.740404
Middelrotscheweg,2,,,5364PA,Escharen,Grave,Noord-Brabant,VBO,5.758646,51.735670
Middelrotscheweg,4,,,5364PA,Escharen,Grave,Noord-Brabant,VBO,5.760994,51.734242
Middelrotscheweg,6,,,5364PA,Escharen,Grave,Noord-Brabant,VBO,5.761139,51.734260
Eksterweg,2,,,5364PB,Escharen,Grave,Noord-Brabant,VBO,5.760595,51.743708
Eksterweg,4,,,5364PB,Escharen,Grave,Noord-Brabant,VBO,5.760871,51.743806
Hommerzaadweg,1,,,5364PC,Escharen,Grave,Noord-Brabant,VBO,5.760538,51.742126
Spechtenweg,1,,,5364PD,Escharen,Grave,Noord-Brabant,VBO,5.757487,51.740842
Spechtenweg,2,,,5364PD,Escharen,Grave,Noord-Brabant,VBO,5.759997,51.741427
Spechtenweg,3,,,5364PD,Escharen,Grave,Noord-Brabant,VBO,5.759283,51.740935
Gaaiweg,1,,,5364PE,Escharen,Grave,Noord-Brabant,VBO,5.764651,51.738743
Heesakkerweg,1,,,5364PG,Escharen,Grave,Noord-Brabant,VBO,5.760888,51.742368
Heesakkerweg,2,,,5364PG,Escharen,Grave,Noord-Brabant,VBO,5.762903,51.743809
Heesakkerweg,4,,,5364PG,Escharen,Grave,Noord-Brabant,VBO,5.761626,51.744163
Cuykschesteeg,1,,,5364PH,Escharen,Grave,Noord-Brabant,VBO,5.760450,51.747205
Cuykschesteeg,2,,,5364PH,Escharen,Grave,Noord-Brabant,VBO,5.752088,51.742836
Cuykschesteeg,3,,,5364PH,Escharen,Grave,Noord-Brabant,VBO,5.763121,51.747988
Cuykschesteeg,4,,,5364PH,Escharen,Grave,Noord-Brabant,VBO,5.755029,51.744795
Hongerkampseweg,2,,,5364PJ,Escharen,Grave,Noord-Brabant,VBO,5.757837,51.748175
Heesbergenweg,1,,,5364PL,Escharen,Grave,Noord-Brabant,VBO,5.757071,51.744807
Heesbergenweg,2,,,5364PL,Escharen,Grave,Noord-Brabant,VBO,5.757146,51.745166
Heesbergenweg,3,,,5364PL,Escharen,Grave,Noord-Brabant,VBO,5.756940,51.744762
Meester Bongaardsweg,2,,,5364PM,Escharen,Grave,Noord-Brabant,VBO,5.745365,51.744218
Meester Bongaardsweg,4,,,5364PM,Escharen,Grave,Noord-Brabant,VBO,5.745649,51.744192
Meester Bongaardsweg,6,,,5364PM,Escharen,Grave,Noord-Brabant,VBO,5.745778,51.744181
Meester Bongaardsweg,7,,,5364PM,Escharen,Grave,Noord-Brabant,VBO,5.746377,51.743825
Meester Bongaardsweg,10,,,5364PM,Escharen,Grave,Noord-Brabant,VBO,5.745459,51.744271
Meester Bongaardsweg,12,,,5364PM,Escharen,Grave,Noord-Brabant,VBO,5.745338,51.744280
Meester Bongaardsweg,16,,,5364PM,Escharen,Grave,Noord-Brabant,VBO,5.745664,51.744249
Meester Bongaardsweg,18,,,5364PM,Escharen,Grave,Noord-Brabant,VBO,5.745784,51.744237
Meester Bongaardsweg,20,,,5364PM,Escharen,Grave,Noord-Brabant,VBO,5.745974,51.744176
Meester Bongaardsweg,22,,,5364PM,Escharen,Grave,Noord-Brabant,VBO,5.746321,51.744157
Graafschedijk,1,,,5364PP,Escharen,Grave,Noord-Brabant,VBO,5.746345,51.745281
Graafschedijk,3,,,5364PP,Escharen,Grave,Noord-Brabant,VBO,5.746530,51.744849
Graafschedijk,5,,,5364PP,Escharen,Grave,Noord-Brabant,VBO,5.746399,51.744822
Graafschedijk,7,,,5364PP,Escharen,Grave,Noord-Brabant,VBO,5.746297,51.744706
Graafschedijk,9,,,5364PP,Escharen,Grave,Noord-Brabant,VBO,5.746340,51.744625
Graafschedijk,11,,,5364PP,Escharen,Grave,Noord-Brabant,VBO,5.746368,51.744544
Graafschedijk,13,,,5364PP,Escharen,Grave,Noord-Brabant,VBO,5.746382,51.744481
Graafschedijk,15,,,5364PP,Escharen,Grave,Noord-Brabant,VBO,5.746396,51.744409
Graafschedijk,17,,,5364PP,Escharen,Grave,Noord-Brabant,VBO,5.746540,51.744345
Graafschedijk,19,,,5364PP,Escharen,Grave,Noord-Brabant,VBO,5.746699,51.744336
Graafschedijk,21,a,,5364PP,Escharen,Grave,Noord-Brabant,VBO,5.746797,51.743922
Graafschedijk,21,b,,5364PP,Escharen,Grave,Noord-Brabant,VBO,5.746638,51.743950
Graafschedijk,21,c,,5364PP,Escharen,Grave,Noord-Brabant,VBO,5.746552,51.744022
Graafschedijk,21,d,,5364PP,Escharen,Grave,Noord-Brabant,VBO,5.746784,51.744057
Graafschedijk,21,e,,5364PP,Escharen,Grave,Noord-Brabant,VBO,5.746741,51.744156
Graafschedijk,21,f,,5364PP,Escharen,Grave,Noord-Brabant,VBO,5.746741,51.744066
Graafschedijk,21,g,,5364PP,Escharen,Grave,Noord-Brabant,VBO,5.746668,51.743985
Graafschedijk,21,h,,5364PP,Escharen,Grave,Noord-Brabant,VBO,5.746567,51.744058
Graafschedijk,21,j,,5364PP,Escharen,Grave,Noord-Brabant,VBO,5.746799,51.744066
Graafschedijk,21,k,,5364PP,Escharen,Grave,Noord-Brabant,VBO,5.746712,51.744165
Graafschedijk,23,,,5364PP,Escharen,Grave,Noord-Brabant,VBO,5.746622,51.743698
Graafschedijk,25,,,5364PP,Escharen,Grave,Noord-Brabant,VBO,5.746664,51.743554
Graafschedijk,27,,,5364PP,Escharen,Grave,Noord-Brabant,VBO,5.746678,51.743419
Graafschedijk,29,,,5364PP,Escharen,Grave,Noord-Brabant,VBO,5.746705,51.743284
Graafschedijk,33,,,5364PP,Escharen,Grave,Noord-Brabant,VBO,5.746932,51.742618
Graafschedijk,35,,,5364PP,Escharen,Grave,Noord-Brabant,VBO,5.746946,51.742546
Graafschedijk,37,,,5364PP,Escharen,Grave,Noord-Brabant,VBO,5.746974,51.742448
Graafschedijk,39,,,5364PP,Escharen,Grave,Noord-Brabant,VBO,5.747017,51.742375
Graafschedijk,41,,,5364PP,Escharen,Grave,Noord-Brabant,VBO,5.747088,51.742276
Graafschedijk,43,,,5364PP,Escharen,Grave,Noord-Brabant,VBO,5.747146,51.742195
Graafschedijk,45,,,5364PR,Escharen,Grave,Noord-Brabant,VBO,5.747232,51.742105
Graafschedijk,47,,,5364PR,Escharen,Grave,Noord-Brabant,VBO,5.747303,51.742015
Graafschedijk,49,,,5364PR,Escharen,Grave,Noord-Brabant,VBO,5.747390,51.741934
Graafschedijk,51,,,5364PR,Escharen,Grave,Noord-Brabant,VBO,5.747447,51.741862
Graafschedijk,53,,,5364PR,Escharen,Grave,Noord-Brabant,VBO,5.747533,51.741754
Graafschedijk,55,,,5364PR,Escharen,Grave,Noord-Brabant,VBO,5.747619,51.741690
Graafschedijk,57,a,,5364PR,Escharen,Grave,Noord-Brabant,VBO,5.747762,51.741474
Graafschedijk,57,,,5364PR,Escharen,Grave,Noord-Brabant,VBO,5.747821,51.741546
Graafschedijk,61,,,5364PR,Escharen,Grave,Noord-Brabant,VBO,5.748571,51.741175
Graafschedijk,63,,,5364PR,Escharen,Grave,Noord-Brabant,VBO,5.749624,51.740669
Graafschedijk,65,,,5364PR,Escharen,Grave,Noord-Brabant,VBO,5.751591,51.740465
Graafschedijk,67,,,5364PR,Escharen,Grave,Noord-Brabant,VBO,5.753372,51.740468
Graafschedijk,69,,,5364PR,Escharen,Grave,Noord-Brabant,VBO,5.755368,51.740174
Graafschedijk,71,,,5364PR,Escharen,Grave,Noord-Brabant,VBO,5.756865,51.739163
Graafschedijk,73,,,5364PR,Escharen,Grave,Noord-Brabant,VBO,5.757743,51.738504
Graafschedijk,75,,,5364PR,Escharen,Grave,Noord-Brabant,VBO,5.760192,51.736995
Graafschedijk,79,,,5364PR,Escharen,Grave,Noord-Brabant,VBO,5.761732,51.735939
Graafschedijk,2,,,5364PS,Escharen,Grave,Noord-Brabant,VBO,5.746910,51.745387
Graafschedijk,4,,,5364PS,Escharen,Grave,Noord-Brabant,VBO,5.746881,51.745270
Graafschedijk,6,,,5364PS,Escharen,Grave,Noord-Brabant,VBO,5.746850,51.745108
Graafschedijk,8,,,5364PS,Escharen,Grave,Noord-Brabant,VBO,5.746835,51.745046
Graafschedijk,10,,,5364PS,Escharen,Grave,Noord-Brabant,VBO,5.746821,51.745001
Graafschedijk,12,,,5364PS,Escharen,Grave,Noord-Brabant,VBO,5.746820,51.744974
Graafschedijk,14,,,5364PS,Escharen,Grave,Noord-Brabant,VBO,5.746863,51.744929
Graafschedijk,16,,,5364PS,Escharen,Grave,Noord-Brabant,VBO,5.746906,51.744803
Graafschedijk,18,,,5364PS,Escharen,Grave,Noord-Brabant,VBO,5.746934,51.744740
Graafschedijk,20,,,5364PS,Escharen,Grave,Noord-Brabant,VBO,5.746963,51.744650
Graafschedijk,22,,,5364PS,Escharen,Grave,Noord-Brabant,VBO,5.746976,51.744587
Graafschedijk,24,,,5364PS,Escharen,Grave,Noord-Brabant,VBO,5.747234,51.744155
Graafschedijk,26,,,5364PS,Escharen,Grave,Noord-Brabant,VBO,5.747290,51.743993
Graafschedijk,36,,,5364PS,Escharen,Grave,Noord-Brabant,VBO,5.747240,51.743130
Graafschedijk,38,,,5364PS,Escharen,Grave,Noord-Brabant,VBO,5.747282,51.742923
Graafschedijk,40,,,5364PS,Escharen,Grave,Noord-Brabant,VBO,5.747309,51.742734
Graafschedijk,42,,,5364PS,Escharen,Grave,Noord-Brabant,VBO,5.747437,51.742464
Graafschedijk,46,,,5364PS,Escharen,Grave,Noord-Brabant,VBO,5.747581,51.742275
Graafschedijk,48,,,5364PS,Escharen,Grave,Noord-Brabant,VBO,5.747652,51.742176
Graafschedijk,50,,,5364PS,Escharen,Grave,Noord-Brabant,VBO,5.747767,51.742050
Graafschedijk,52,,,5364PS,Escharen,Grave,Noord-Brabant,VBO,5.747868,51.741950
Graafschedijk,54,b,,5364PS,Escharen,Grave,Noord-Brabant,VBO,5.748300,51.741652
Graafschedijk,54,,,5364PS,Escharen,Grave,Noord-Brabant,VBO,5.748012,51.741860
Graafschedijk,56,a,,5364PS,Escharen,Grave,Noord-Brabant,VBO,5.754346,51.740906
Graafschedijk,56,,,5364PS,Escharen,Grave,Noord-Brabant,VBO,5.750812,51.740818
Graafschedijk,58,,,5364PS,Escharen,Grave,Noord-Brabant,VBO,5.759372,51.737708
Graafschedijk,60,,,5364PS,Escharen,Grave,Noord-Brabant,VBO,5.762883,51.736825
Burgem.de Bourbonplein,1,,,5364PT,Escharen,Grave,Noord-Brabant,VBO,5.744641,51.744064
Burgem.de Bourbonplein,2,,,5364PT,Escharen,Grave,Noord-Brabant,VBO,5.745174,51.743765
Burgem.de Bourbonplein,3,,,5364PT,Escharen,Grave,Noord-Brabant,VBO,5.744682,51.743803
Burgem.de Bourbonplein,5,,,5364PT,Escharen,Grave,Noord-Brabant,VBO,5.744696,51.743677
Burgem.de Bourbonplein,7,,,5364PT,Escharen,Grave,Noord-Brabant,VBO,5.744681,51.743650
Molenpad,2,,,5364PV,Escharen,Grave,Noord-Brabant,VBO,5.744497,51.744127
Molenpad,3,,,5364PV,Escharen,Grave,Noord-Brabant,VBO,5.744137,51.744362
Molenpad,4,,,5364PV,Escharen,Grave,Noord-Brabant,VBO,5.744395,51.744109
Molenpad,5,,,5364PV,Escharen,Grave,Noord-Brabant,VBO,5.743920,51.744371
Molenpad,8,,,5364PV,Escharen,Grave,Noord-Brabant,VBO,5.744026,51.744128
Molenpad,10,,,5364PV,Escharen,Grave,Noord-Brabant,VBO,5.743850,51.744142
Zanddijk,1,,,5364PW,Escharen,Grave,Noord-Brabant,VBO,5.743500,51.744445
Zanddijk,3,,,5364PW,Escharen,Grave,Noord-Brabant,VBO,5.743397,51.744265
Zanddijk,5,,,5364PW,Escharen,Grave,Noord-Brabant,VBO,5.743484,51.744166
Zanddijk,7,,,5364PW,Escharen,Grave,Noord-Brabant,VBO,5.743483,51.744112
Zanddijk,9,,,5364PW,Escharen,Grave,Noord-Brabant,VBO,5.743338,51.744032
Zanddijk,11,,,5364PW,Escharen,Grave,Noord-Brabant,VBO,5.743380,51.743861
Zanddijk,13,,,5364PW,Escharen,Grave,Noord-Brabant,VBO,5.743393,51.743663
Zanddijk,15,,,5364PW,Escharen,Grave,Noord-Brabant,VBO,5.743435,51.743483
Zanddijk,17,,,5364PW,Escharen,Grave,Noord-Brabant,VBO,5.743477,51.743348
Zanddijk,19,,,5364PW,Escharen,Grave,Noord-Brabant,VBO,5.743506,51.743276
Zanddijk,21,a,,5364PW,Escharen,Grave,Noord-Brabant,VBO,5.743069,51.742999
Zanddijk,21,,,5364PW,Escharen,Grave,Noord-Brabant,VBO,5.743533,51.743123
Zanddijk,23,,,5364PW,Escharen,Grave,Noord-Brabant,VBO,5.743561,51.743015
Zanddijk,25,,,5364PW,Escharen,Grave,Noord-Brabant,VBO,5.743618,51.742862
Zanddijk,27,a,,5364PW,Escharen,Grave,Noord-Brabant,VBO,5.743717,51.742547
Zanddijk,27,b,,5364PW,Escharen,Grave,Noord-Brabant,VBO,5.743831,51.742385
Zanddijk,27,,,5364PW,Escharen,Grave,Noord-Brabant,VBO,5.743776,51.742691
Zanddijk,29,,,5364PW,Escharen,Grave,Noord-Brabant,VBO,5.743846,51.742331
Zanddijk,31,,,5364PW,Escharen,Grave,Noord-Brabant,VBO,5.743874,51.742214
Zanddijk,33,,,5364PW,Escharen,Grave,Noord-Brabant,VBO,5.743888,51.742151
Zanddijk,35,,,5364PW,Escharen,Grave,Noord-Brabant,VBO,5.743916,51.742034
Zanddijk,37,,,5364PW,Escharen,Grave,Noord-Brabant,VBO,5.743929,51.741873
Zanddijk,41,,,5364PW,Escharen,Grave,Noord-Brabant,VBO,5.743884,51.741666
Zanddijk,43,,,5364PW,Escharen,Grave,Noord-Brabant,VBO,5.743912,51.741531
Zanddijk,45,,,5364PW,Escharen,Grave,Noord-Brabant,VBO,5.743896,51.741414
Zanddijk,47,,,5364PW,Escharen,Grave,Noord-Brabant,VBO,5.743895,51.741297
Zanddijk,8,,,5364PX,Escharen,Grave,Noord-Brabant,VBO,5.743815,51.743904
Zanddijk,10,,,5364PX,Escharen,Grave,Noord-Brabant,VBO,5.743857,51.743778
Zanddijk,12,,,5364PX,Escharen,Grave,Noord-Brabant,VBO,5.743841,51.743617
Zanddijk,14,,,5364PX,Escharen,Grave,Noord-Brabant,VBO,5.743884,51.743482
Zanddijk,16,,,5364PX,Escharen,Grave,Noord-Brabant,VBO,5.743926,51.743338
Zanddijk,18,,,5364PX,Escharen,Grave,Noord-Brabant,VBO,5.743954,51.743221
Zanddijk,20,,,5364PX,Escharen,Grave,Noord-Brabant,VBO,5.743982,51.743095
Zanddijk,22,,,5364PX,Escharen,Grave,Noord-Brabant,VBO,5.744010,51.742978
Zanddijk,24,,,5364PX,Escharen,Grave,Noord-Brabant,VBO,5.744038,51.742915
Zanddijk,28,,,5364PX,Escharen,Grave,Noord-Brabant,VBO,5.744123,51.742636
Zanddijk,30,a,,5364PX,Escharen,Grave,Noord-Brabant,VBO,5.744223,51.742402
Zanddijk,30,,,5364PX,Escharen,Grave,Noord-Brabant,VBO,5.744223,51.742465
Zanddijk,32,,,5364PX,Escharen,Grave,Noord-Brabant,VBO,5.744308,51.742249
Zanddijk,34,a,,5364PX,Escharen,Grave,Noord-Brabant,VBO,5.744322,51.742077
Zanddijk,34,,,5364PX,Escharen,Grave,Noord-Brabant,VBO,5.744322,51.742159
Zanddijk,36,,,5364PX,Escharen,Grave,Noord-Brabant,VBO,5.744349,51.741952
Zanddijk,38,,,5364PX,Escharen,Grave,Noord-Brabant,VBO,5.744348,51.741835
Zanddijk,40,,,5364PX,Escharen,Grave,Noord-Brabant,VBO,5.744304,51.741656
Zanddijk,42,,,5364PX,Escharen,Grave,Noord-Brabant,VBO,5.744302,51.741503
Zanddijk,44,,,5364PX,Escharen,Grave,Noord-Brabant,VBO,5.744287,51.741368
Korteweg,1,,,5364PZ,Escharen,Grave,Noord-Brabant,VBO,5.744430,51.742941
Korteweg,3,,,5364PZ,Escharen,Grave,Noord-Brabant,VBO,5.744647,51.742976
St. Machutusweg,1,a,,5364RA,Escharen,Grave,Noord-Brabant,VBO,5.744954,51.743371
St. Machutusweg,1,,,5364RA,Escharen,Grave,Noord-Brabant,VBO,5.744954,51.743397
St. Machutusweg,5,,,5364RA,Escharen,Grave,Noord-Brabant,VBO,5.744967,51.743200
St. Machutusweg,7,,,5364RA,Escharen,Grave,Noord-Brabant,VBO,5.745067,51.743011
St. Machutusweg,9,,,5364RA,Escharen,Grave,Noord-Brabant,VBO,5.745009,51.743020
St. Machutusweg,11,,,5364RA,Escharen,Grave,Noord-Brabant,VBO,5.744964,51.742723
St. Machutusweg,13,,,5364RA,Escharen,Grave,Noord-Brabant,VBO,5.745020,51.742516
St. Machutusweg,15,a,,5364RA,Escharen,Grave,Noord-Brabant,VBO,5.745033,51.742328
St. Machutusweg,15,,,5364RA,Escharen,Grave,Noord-Brabant,VBO,5.745077,51.742381
St. Machutusweg,17,,,5364RA,Escharen,Grave,Noord-Brabant,VBO,5.745148,51.742219
St. Machutusweg,19,,,5364RA,Escharen,Grave,Noord-Brabant,VBO,5.745205,51.742084
St. Machutusweg,21,a,,5364RA,Escharen,Grave,Noord-Brabant,VBO,5.745290,51.741877
St. Machutusweg,21,,,5364RA,Escharen,Grave,Noord-Brabant,VBO,5.745261,51.741949
St. Machutusweg,23,,,5364RA,Escharen,Grave,Noord-Brabant,VBO,5.745375,51.741697
St. Machutusweg,25,,,5364RA,Escharen,Grave,Noord-Brabant,VBO,5.745432,51.741571
St. Machutusweg,27,,,5364RA,Escharen,Grave,Noord-Brabant,VBO,5.745489,51.741454
St. Machutusweg,29,,,5364RA,Escharen,Grave,Noord-Brabant,VBO,5.745503,51.741382
St. Machutusweg,2,a,,5364RB,Escharen,Grave,Noord-Brabant,VBO,5.745949,51.742801
St. Machutusweg,2,b,,5364RB,Escharen,Grave,Noord-Brabant,VBO,5.745454,51.742470
St. Machutusweg,2,,,5364RB,Escharen,Grave,Noord-Brabant,VBO,5.745345,51.743306
St. Machutusweg,4,a,,5364RB,Escharen,Grave,Noord-Brabant,VBO,5.745639,51.742128
St. Machutusweg,4,,,5364RB,Escharen,Grave,Noord-Brabant,VBO,5.745511,51.742317
St. Machutusweg,6,,,5364RB,Escharen,Grave,Noord-Brabant,VBO,5.745653,51.742047
St. Machutusweg,8,,,5364RB,Escharen,Grave,Noord-Brabant,VBO,5.745696,51.741912
St. Machutusweg,10,,,5364RB,Escharen,Grave,Noord-Brabant,VBO,5.745767,51.741786
St. Machutusweg,12,a,,5364RB,Escharen,Grave,Noord-Brabant,VBO,5.745866,51.741516
St. Machutusweg,12,,,5364RB,Escharen,Grave,Noord-Brabant,VBO,5.745824,51.741651
St. Machutusweg,14,,,5364RB,Escharen,Grave,Noord-Brabant,VBO,5.745894,51.741435
Willem van Esterenweg,1,,,5364RC,Escharen,Grave,Noord-Brabant,VBO,5.745638,51.745607
Willem van Esterenweg,2,a,,5364RC,Escharen,Grave,Noord-Brabant,VBO,5.746039,51.745093
Willem van Esterenweg,2,,,5364RC,Escharen,Grave,Noord-Brabant,VBO,5.745996,51.745111
Willem van Esterenweg,3,,,5364RC,Escharen,Grave,Noord-Brabant,VBO,5.745519,51.745238
Willem van Esterenweg,5,,,5364RC,Escharen,Grave,Noord-Brabant,VBO,5.745359,51.745068
Willem van Esterenweg,7,,,5364RC,Escharen,Grave,Noord-Brabant,VBO,5.745329,51.744969
Willem van Esterenweg,9,,,5364RC,Escharen,Grave,Noord-Brabant,VBO,5.745009,51.744746
Willem van Esterenweg,11,,,5364RC,Escharen,Grave,Noord-Brabant,VBO,5.744950,51.744638
Willem van Esterenweg,13,,,5364RC,Escharen,Grave,Noord-Brabant,VBO,5.745036,51.744521
Willem van Esterenweg,15,,,5364RC,Escharen,Grave,Noord-Brabant,VBO,5.744759,51.744351
Akkerslagen,2,,,5364RE,Escharen,Grave,Noord-Brabant,VBO,5.747076,51.744389
Akkerslagen,4,,,5364RE,Escharen,Grave,Noord-Brabant,VBO,5.747120,51.744389
Akkerslagen,6,,,5364RE,Escharen,Grave,Noord-Brabant,VBO,5.747134,51.744389
Akkerslagen,8,,,5364RE,Escharen,Grave,Noord-Brabant,VBO,5.747163,51.744397
Akkerslagen,10,,,5364RE,Escharen,Grave,Noord-Brabant,VBO,5.747192,51.744397
Akkerslagen,12,,,5364RE,Escharen,Grave,Noord-Brabant,VBO,5.747221,51.744406
Akkerslagen,14,,,5364RE,Escharen,Grave,Noord-Brabant,VBO,5.747424,51.744460
Akkerslagen,16,,,5364RE,Escharen,Grave,Noord-Brabant,VBO,5.747598,51.744477
Akkerslagen,18,,,5364RE,Escharen,Grave,Noord-Brabant,VBO,5.747685,51.744486
Akkerslagen,20,,,5364RE,Escharen,Grave,Noord-Brabant,VBO,5.747859,51.744512
Akkerslagen,22,,,5364RE,Escharen,Grave,Noord-Brabant,VBO,5.747975,51.744503
Akkerslagen,24,,,5364RE,Escharen,Grave,Noord-Brabant,VBO,5.748148,51.744430
Akkerslagen,26,,,5364RE,Escharen,Grave,Noord-Brabant,VBO,5.748278,51.744376
Akkerslagen,28,,,5364RE,Escharen,Grave,Noord-Brabant,VBO,5.748321,51.744331
Akkerslagen,30,,,5364RE,Escharen,Grave,Noord-Brabant,VBO,5.748420,51.744061
Akkerslagen,32,,,5364RE,Escharen,Grave,Noord-Brabant,VBO,5.748492,51.743926
Akkerslagen,34,,,5364RE,Escharen,Grave,Noord-Brabant,VBO,5.748621,51.743782
Akkerslagen,36,,,5364RE,Escharen,Grave,Noord-Brabant,VBO,5.748793,51.743610
Akkerslagen,38,,,5364RE,Escharen,Grave,Noord-Brabant,VBO,5.748908,51.743502
Akkerslagen,40,,,5364RE,Escharen,Grave,Noord-Brabant,VBO,5.749066,51.743385
Akkerslagen,42,,,5364RE,Escharen,Grave,Noord-Brabant,VBO,5.749225,51.743268
Akkerslagen,44,,,5364RE,Escharen,Grave,Noord-Brabant,VBO,5.749456,51.743177
Akkerslagen,46,,,5364RE,Escharen,Grave,Noord-Brabant,VBO,5.749687,51.743095
Akkerslagen,48,,,5364RE,Escharen,Grave,Noord-Brabant,VBO,5.749918,51.743059
Akkerslagen,50,,,5364RE,Escharen,Grave,Noord-Brabant,VBO,5.750237,51.743067
Akkerslagen,52,,,5364RE,Escharen,Grave,Noord-Brabant,VBO,5.750512,51.743084
Akkerslagen,54,,,5364RE,Escharen,Grave,Noord-Brabant,VBO,5.750700,51.743110
Akkerslagen,56,,,5364RE,Escharen,Grave,Noord-Brabant,VBO,5.750918,51.743145
Akkerslagen,58,,,5364RE,Escharen,Grave,Noord-Brabant,VBO,5.751135,51.743190
Akkerslagen,60,,,5364RE,Escharen,Grave,Noord-Brabant,VBO,5.751353,51.743225
Akkerslagen,62,,,5364RE,Escharen,Grave,Noord-Brabant,VBO,5.751556,51.743260
Akkerslagen,64,,,5364RE,Escharen,Grave,Noord-Brabant,VBO,5.751759,51.743305
Akkerslagen,66,,,5364RE,Escharen,Grave,Noord-Brabant,VBO,5.752005,51.743340
Akkerslagen,13,,,5364RG,Escharen,Grave,Noord-Brabant,VBO,5.747596,51.744198
Akkerslagen,15,,,5364RG,Escharen,Grave,Noord-Brabant,VBO,5.747683,51.744207
Akkerslagen,17,,,5364RG,Escharen,Grave,Noord-Brabant,VBO,5.747926,51.744238
Akkerslagen,19,,,5364RG,Escharen,Grave,Noord-Brabant,VBO,5.747941,51.744200
Akkerslagen,21,,,5364RG,Escharen,Grave,Noord-Brabant,VBO,5.747967,51.744159
Akkerslagen,23,,,5364RG,Escharen,Grave,Noord-Brabant,VBO,5.747987,51.744119
Akkerslagen,25,,,5364RG,Escharen,Grave,Noord-Brabant,VBO,5.748000,51.744026
Akkerslagen,27,,,5364RG,Escharen,Grave,Noord-Brabant,VBO,5.748043,51.743972
Akkerslagen,29,,,5364RG,Escharen,Grave,Noord-Brabant,VBO,5.748043,51.743927
Akkerslagen,31,,,5364RG,Escharen,Grave,Noord-Brabant,VBO,5.748071,51.743864
Akkerslagen,39,,,5364RG,Escharen,Grave,Noord-Brabant,VBO,5.748172,51.743765
Akkerslagen,41,,,5364RG,Escharen,Grave,Noord-Brabant,VBO,5.748258,51.743648
Akkerslagen,43,,,5364RG,Escharen,Grave,Noord-Brabant,VBO,5.748372,51.743504
Akkerslagen,45,,,5364RG,Escharen,Grave,Noord-Brabant,VBO,5.748531,51.743378
Akkerslagen,47,,,5364RG,Escharen,Grave,Noord-Brabant,VBO,5.748703,51.743260
Akkerslagen,49,,,5364RG,Escharen,Grave,Noord-Brabant,VBO,5.748876,51.743134
Akkerslagen,51,,,5364RG,Escharen,Grave,Noord-Brabant,VBO,5.749049,51.743016
Akkerslagen,53,,,5364RG,Escharen,Grave,Noord-Brabant,VBO,5.749757,51.742807
Akkerslagen,55,,,5364RG,Escharen,Grave,Noord-Brabant,VBO,5.749844,51.742798
Akkerslagen,57,,,5364RG,Escharen,Grave,Noord-Brabant,VBO,5.749973,51.742735
Akkerslagen,59,,,5364RG,Escharen,Grave,Noord-Brabant,VBO,5.749987,51.742681
Akkerslagen,63,,,5364RG,Escharen,Grave,Noord-Brabant,VBO,5.750234,51.742788
Akkerslagen,65,,,5364RG,Escharen,Grave,Noord-Brabant,VBO,5.750307,51.742797
Akkerslagen,67,,,5364RG,Escharen,Grave,Noord-Brabant,VBO,5.750481,51.742823
Akkerslagen,69,,,5364RG,Escharen,Grave,Noord-Brabant,VBO,5.750568,51.742841
Akkerslagen,71,,,5364RG,Escharen,Grave,Noord-Brabant,VBO,5.750727,51.742876
Akkerslagen,73,,,5364RG,Escharen,Grave,Noord-Brabant,VBO,5.750814,51.742885
Akkerslagen,75,,,5364RG,Escharen,Grave,Noord-Brabant,VBO,5.750974,51.742930
Akkerslagen,77,,,5364RG,Escharen,Grave,Noord-Brabant,VBO,5.751061,51.742938
Akkerslagen,79,,,5364RG,Escharen,Grave,Noord-Brabant,VBO,5.751235,51.742974
Akkerslagen,81,,,5364RG,Escharen,Grave,Noord-Brabant,VBO,5.751322,51.742982
Akkerslagen,83,,,5364RG,Escharen,Grave,Noord-Brabant,VBO,5.751554,51.743027
Akkerslagen,85,,,5364RG,Escharen,Grave,Noord-Brabant,VBO,5.751873,51.743035
Veldweg,9,,,5364RH,Escharen,Grave,Noord-Brabant,VBO,5.747918,51.742768
Veldweg,11,,,5364RH,Escharen,Grave,Noord-Brabant,VBO,5.748062,51.742678
Veldweg,13,,,5364RH,Escharen,Grave,Noord-Brabant,VBO,5.748191,51.742561
Veldweg,15,,,5364RH,Escharen,Grave,Noord-Brabant,VBO,5.748306,51.742461
Veldweg,17,,,5364RH,Escharen,Grave,Noord-Brabant,VBO,5.748465,51.742398
Veldweg,19,,,5364RH,Escharen,Grave,Noord-Brabant,VBO,5.748609,51.742317
Veldweg,21,,,5364RH,Escharen,Grave,Noord-Brabant,VBO,5.748739,51.742226
Veldweg,23,,,5364RH,Escharen,Grave,Noord-Brabant,VBO,5.748883,51.742136
Veldweg,25,,,5364RH,Escharen,Grave,Noord-Brabant,VBO,5.749041,51.742019
Veldweg,8,,,5364RJ,Escharen,Grave,Noord-Brabant,VBO,5.747375,51.743777
Veldweg,10,,,5364RJ,Escharen,Grave,Noord-Brabant,VBO,5.747433,51.743687
Veldweg,12,,,5364RJ,Escharen,Grave,Noord-Brabant,VBO,5.747476,51.743632
Veldweg,14,,,5364RJ,Escharen,Grave,Noord-Brabant,VBO,5.747533,51.743533
Veldweg,16,,,5364RJ,Escharen,Grave,Noord-Brabant,VBO,5.747561,51.743479
Veldweg,18,,,5364RJ,Escharen,Grave,Noord-Brabant,VBO,5.747647,51.743380
Veldweg,20,,,5364RJ,Escharen,Grave,Noord-Brabant,VBO,5.747690,51.743326
Veldweg,22,,,5364RJ,Escharen,Grave,Noord-Brabant,VBO,5.747805,51.743227
Veldweg,24,,,5364RJ,Escharen,Grave,Noord-Brabant,VBO,5.747863,51.743182
Veldweg,26,,,5364RJ,Escharen,Grave,Noord-Brabant,VBO,5.747978,51.743101
Veldweg,28,,,5364RJ,Escharen,Grave,Noord-Brabant,VBO,5.748036,51.743064
Veldweg,30,,,5364RJ,Escharen,Grave,Noord-Brabant,VBO,5.748151,51.742983
Veldweg,32,,,5364RJ,Escharen,Grave,Noord-Brabant,VBO,5.748223,51.742938
Veldweg,34,,,5364RJ,Escharen,Grave,Noord-Brabant,VBO,5.748338,51.742866
Veldweg,36,,,5364RJ,Escharen,Grave,Noord-Brabant,VBO,5.748410,51.742812
Veldweg,38,,,5364RJ,Escharen,Grave,Noord-Brabant,VBO,5.748583,51.742703
Veldweg,46,,,5364RJ,Escharen,Grave,Noord-Brabant,VBO,5.749333,51.742296
Drieslag,1,,,5364RK,Escharen,Grave,Noord-Brabant,VBO,5.748886,51.742540
Drieslag,3,,,5364RK,Escharen,Grave,Noord-Brabant,VBO,5.749061,51.742648
Drieslag,5,,,5364RK,Escharen,Grave,Noord-Brabant,VBO,5.749293,51.742782
Drieslag,7,,,5364RK,Escharen,Grave,Noord-Brabant,VBO,5.749453,51.742880
Lindelaan,1,,,5364RN,Escharen,Grave,Noord-Brabant,VBO,5.745231,51.743594
Lindelaan,2,,,5364RN,Escharen,Grave,Noord-Brabant,VBO,5.745361,51.743594
Lindelaan,3,,,5364RN,Escharen,Grave,Noord-Brabant,VBO,5.745492,51.743612
Lindelaan,4,,,5364RN,Escharen,Grave,Noord-Brabant,VBO,5.745608,51.743620
Lindelaan,5,,,5364RN,Escharen,Grave,Noord-Brabant,VBO,5.745753,51.743620
Lindelaan,6,,,5364RN,Escharen,Grave,Noord-Brabant,VBO,5.745840,51.743682
Lindelaan,7,,,5364RN,Escharen,Grave,Noord-Brabant,VBO,5.745812,51.743763
Lindelaan,8,,,5364RN,Escharen,Grave,Noord-Brabant,VBO,5.745812,51.743835
Lindelaan,9,,,5364RN,Escharen,Grave,Noord-Brabant,VBO,5.745813,51.743925
Lindelaan,10,,,5364RN,Escharen,Grave,Noord-Brabant,VBO,5.745799,51.743988
Rondom de Kerk,1,,,5364RP,Escharen,Grave,Noord-Brabant,VBO,5.745722,51.743368
Rondom de Kerk,2,,,5364RP,Escharen,Grave,Noord-Brabant,VBO,5.745809,51.743377
Rondom de Kerk,3,,,5364RP,Escharen,Grave,Noord-Brabant,VBO,5.745866,51.743377
Rondom de Kerk,4,,,5364RP,Escharen,Grave,Noord-Brabant,VBO,5.745953,51.743376
Rondom de Kerk,5,,,5364RP,Escharen,Grave,Noord-Brabant,VBO,5.746026,51.743376
Rondom de Kerk,6,,,5364RP,Escharen,Grave,Noord-Brabant,VBO,5.746113,51.743385
Vegetasscheweg,1,,,5364SB,Escharen,Grave,Noord-Brabant,VBO,5.757615,51.751151
Vegetasscheweg,2,a,,5364SB,Escharen,Grave,Noord-Brabant,VBO,5.759077,51.751129
Vegetasscheweg,2,,,5364SB,Escharen,Grave,Noord-Brabant,VBO,5.758875,51.751201
Vegetasscheweg,3,,,5364SB,Escharen,Grave,Noord-Brabant,VBO,5.760872,51.749208
Vegetasscheweg,4,,,5364SB,Escharen,Grave,Noord-Brabant,VBO,5.768216,51.749445
Vegetasscheweg,5,,,5364SB,Escharen,Grave,Noord-Brabant,VBO,5.766840,51.746052
Vegetasscheweg,7,,,5364SB,Escharen,Grave,Noord-Brabant,VBO,5.766911,51.745809
Wijnruimerweg,1,,,5364SC,Escharen,Grave,Noord-Brabant,VBO,5.758676,51.735768
Driesenweg,4,,,5364SE,Escharen,Grave,Noord-Brabant,VBO,5.767342,51.750644
Reekschebergpad,1,a,,5364TZ,Escharen,Grave,Noord-Brabant,VBO,5.718429,51.729644
Reekschebergpad,1,,,5364TZ,Escharen,Grave,Noord-Brabant,VBO,5.715834,51.729065
