openbareruimtenaam,huisnummer,huisletter,huisnummertoevoeging,postcode,woonplaatsnaam,gemeentenaam,provincienaam,typeadresseerbaarobject,longitude,latitude
Molenweg,1,A,,5396NA,Lithoijen,Oss,Noord-Brabant,VBO,5.456578,51.803332
Molenweg,1,B,,5396NA,Lithoijen,Oss,Noord-Brabant,VBO,5.458110,51.802175
Molenweg,1,,,5396NA,Lithoijen,Oss,Noord-Brabant,VBO,5.455882,51.803805
Molenweg,3,A,,5396NA,Lithoijen,Oss,Noord-Brabant,VBO,5.458053,51.801549
Molenweg,3,B,,5396NA,Lithoijen,Oss,Noord-Brabant,VBO,5.458117,51.801260
Molenweg,3,,,5396NA,Lithoijen,Oss,Noord-Brabant,VBO,5.458113,51.801767
Molenweg,4,,,5396NA,Lithoijen,Oss,Noord-Brabant,VBO,5.457430,51.803365
Molenweg,5,,,5396NA,Lithoijen,Oss,Noord-Brabant,VBO,5.458260,51.800931
Molenweg,6,,,5396NA,Lithoijen,Oss,Noord-Brabant,VBO,5.457759,51.803121
Molenweg,7,,,5396NA,Lithoijen,Oss,Noord-Brabant,VBO,5.458817,51.800298
Molenweg,8,,,5396NA,Lithoijen,Oss,Noord-Brabant,VBO,5.457939,51.803036
Molenweg,10,,,5396NA,Lithoijen,Oss,Noord-Brabant,VBO,5.458169,51.802971
Molenweg,12,,,5396NA,Lithoijen,Oss,Noord-Brabant,VBO,5.458785,51.802332
Molenweg,14,,,5396NA,Lithoijen,Oss,Noord-Brabant,VBO,5.458785,51.802148
Molenweg,16,,BY,5396NA,Lithoijen,Oss,Noord-Brabant,VBO,5.458769,51.800965
Molenweg,16,,,5396NA,Lithoijen,Oss,Noord-Brabant,VBO,5.458867,51.800868
Molenweg,18,,,5396NA,Lithoijen,Oss,Noord-Brabant,VBO,5.459353,51.800590
Molenweg,20,,,5396NA,Lithoijen,Oss,Noord-Brabant,VBO,5.459754,51.800432
Molenweg,22,,,5396NA,Lithoijen,Oss,Noord-Brabant,VBO,5.461755,51.799717
Molenweg,24,A,,5396NA,Lithoijen,Oss,Noord-Brabant,VBO,5.462640,51.799501
Molenweg,24,,,5396NA,Lithoijen,Oss,Noord-Brabant,VBO,5.462334,51.799696
Molenweg,26,,,5396NA,Lithoijen,Oss,Noord-Brabant,VBO,5.463052,51.799520
Molenweg,28,,,5396NA,Lithoijen,Oss,Noord-Brabant,VBO,5.463407,51.799508
Molenweg,30,,,5396NA,Lithoijen,Oss,Noord-Brabant,VBO,5.463778,51.799567
Sluisstraat,1,,,5396NB,Lithoijen,Oss,Noord-Brabant,VBO,5.454021,51.806289
Sluisstraat,2,,,5396NB,Lithoijen,Oss,Noord-Brabant,VBO,5.454480,51.807133
Sluisstraat,3,,,5396NB,Lithoijen,Oss,Noord-Brabant,VBO,5.452904,51.806681
Sluisstraat,4,,,5396NB,Lithoijen,Oss,Noord-Brabant,VBO,5.454467,51.806833
Lithoijense Dijk,11,,,5396NC,Lithoijen,Oss,Noord-Brabant,VBO,5.461380,51.806564
Lithoijense Dijk,13,,,5396NC,Lithoijen,Oss,Noord-Brabant,VBO,5.463894,51.806062
Lithoijense Dijk,15,,,5396NC,Lithoijen,Oss,Noord-Brabant,VBO,5.465205,51.805766
Lithoijense Dijk,17,,,5396NC,Lithoijen,Oss,Noord-Brabant,VBO,5.465618,51.804584
Lithoijense Dijk,19,A,,5396NC,Lithoijen,Oss,Noord-Brabant,VBO,5.466324,51.802563
Lithoijense Dijk,19,,,5396NC,Lithoijen,Oss,Noord-Brabant,VBO,5.466368,51.802657
Lithoijense Dijk,21,,BEDR,5396NC,Lithoijen,Oss,Noord-Brabant,VBO,5.466119,51.802501
Lithoijense Dijk,21,,,5396NC,Lithoijen,Oss,Noord-Brabant,VBO,5.465842,51.802253
Lithoijense Dijk,23,,,5396NC,Lithoijen,Oss,Noord-Brabant,VBO,5.465512,51.801721
Lithoijense Dijk,25,A,KTR,5396NC,Lithoijen,Oss,Noord-Brabant,VBO,5.465123,51.800584
Lithoijense Dijk,25,A,,5396NC,Lithoijen,Oss,Noord-Brabant,VBO,5.465123,51.800316
Lithoijense Dijk,25,,,5396NC,Lithoijen,Oss,Noord-Brabant,VBO,5.465555,51.801121
Lithoijense Dijk,29,,,5396ND,Lithoijen,Oss,Noord-Brabant,VBO,5.478534,51.797173
Lithoijense Dijk,33,,,5396ND,Lithoijen,Oss,Noord-Brabant,VBO,5.486263,51.802788
Lithoijense Dijk,35,,,5396ND,Lithoijen,Oss,Noord-Brabant,VBO,5.486754,51.804434
Lithoijense Dijk,2,,,5396NE,Lithoijen,Oss,Noord-Brabant,VBO,5.455541,51.807422
Lithoijense Dijk,4,A,,5396NE,Lithoijen,Oss,Noord-Brabant,VBO,5.455888,51.807385
Lithoijense Dijk,4,,,5396NE,Lithoijen,Oss,Noord-Brabant,VBO,5.455727,51.807368
Lithoijense Dijk,6,,,5396NE,Lithoijen,Oss,Noord-Brabant,VBO,5.456333,51.807380
Lithoijense Dijk,8,,,5396NE,Lithoijen,Oss,Noord-Brabant,VBO,5.456460,51.807382
Lithoijense Dijk,10,,,5396NE,Lithoijen,Oss,Noord-Brabant,VBO,5.456544,51.807366
Lithoijense Dijk,12,,,5396NE,Lithoijen,Oss,Noord-Brabant,VBO,5.456725,51.807354
Lithoijense Dijk,14,A,,5396NE,Lithoijen,Oss,Noord-Brabant,VBO,5.465333,51.806585
Lithoijense Dijk,16,A,,5396NE,Lithoijen,Oss,Noord-Brabant,VBO,5.467027,51.803499
Lithoijense Dijk,16,,,5396NE,Lithoijen,Oss,Noord-Brabant,VBO,5.466560,51.804566
Lithoijense Dijk,18,,,5396NE,Lithoijen,Oss,Noord-Brabant,VBO,5.466385,51.803223
Lithoijense Dijk,20,,,5396NE,Lithoijen,Oss,Noord-Brabant,VBO,5.466424,51.802317
Lithoijense Dijk,22,,,5396NE,Lithoijen,Oss,Noord-Brabant,VBO,5.466240,51.802040
Lithoijense Dijk,24,A,,5396NE,Lithoijen,Oss,Noord-Brabant,VBO,5.465971,51.801736
Lithoijense Dijk,24,,,5396NE,Lithoijen,Oss,Noord-Brabant,VBO,5.466103,51.801912
Lithoijense Dijk,26,,,5396NE,Lithoijen,Oss,Noord-Brabant,VBO,5.465882,51.801497
Lithoijense Dijk,28,,,5396NE,Lithoijen,Oss,Noord-Brabant,VBO,5.465903,51.801310
Lithoijense Dijk,30,,,5396NE,Lithoijen,Oss,Noord-Brabant,VBO,5.465999,51.801076
Lithoijense Dijk,32,,,5396NE,Lithoijen,Oss,Noord-Brabant,VBO,5.466129,51.800848
Lithoijense Dijk,34,,,5396NE,Lithoijen,Oss,Noord-Brabant,VBO,5.466019,51.800371
Lithoijense Dijk,34,,,5396NE,Lithoijen,Oss,Noord-Brabant,VBO,5.466034,51.800352
Lithoijense Dijk,46,,BEDR,5396NG,Lithoijen,Oss,Noord-Brabant,VBO,5.479041,51.797027
Lithoijense Dijk,46,,,5396NG,Lithoijen,Oss,Noord-Brabant,VBO,5.477023,51.797398
Lithoijense Dijk,48,A,,5396NG,Lithoijen,Oss,Noord-Brabant,VBO,5.481324,51.798426
Lithoijense Dijk,48,,,5396NG,Lithoijen,Oss,Noord-Brabant,VBO,5.477524,51.797238
Lithoijense Dijk,50,,,5396NG,Lithoijen,Oss,Noord-Brabant,VBO,5.486353,51.803983
Lithoijense Dijk,52,,,5396NG,Lithoijen,Oss,Noord-Brabant,VBO,5.486389,51.804094
Groenewoud,1,,,5396NH,Lithoijen,Oss,Noord-Brabant,VBO,5.457431,51.806567
Groenewoud,2,,,5396NH,Lithoijen,Oss,Noord-Brabant,VBO,5.459467,51.806476
Groenewoud,4,,GAR1,5396NH,Lithoijen,Oss,Noord-Brabant,VBO,5.458723,51.806362
Groenewoud,4,,,5396NH,Lithoijen,Oss,Noord-Brabant,VBO,5.459127,51.806383
Groenewoud,8,,,5396NH,Lithoijen,Oss,Noord-Brabant,VBO,5.458001,51.806387
Groenewoud,10,,BY,5396NH,Lithoijen,Oss,Noord-Brabant,VBO,5.457288,51.805980
Groenewoud,10,,,5396NH,Lithoijen,Oss,Noord-Brabant,VBO,5.457784,51.806238
Olijfstraat,1,,,5396NJ,Lithoijen,Oss,Noord-Brabant,VBO,5.455981,51.802970
Valkseweg,34,,,5396NK,Lithoijen,Oss,Noord-Brabant,VBO,5.453211,51.799983
Valkseweg,36,,,5396NK,Lithoijen,Oss,Noord-Brabant,VBO,5.454221,51.799717
Weisestraat,1,,,5396NL,Lithoijen,Oss,Noord-Brabant,VBO,5.460081,51.799311
Weisestraat,3,,,5396NL,Lithoijen,Oss,Noord-Brabant,VBO,5.460269,51.798560
Weisestraat,5,,,5396NL,Lithoijen,Oss,Noord-Brabant,VBO,5.459812,51.797773
Weisestraat,7,,,5396NL,Lithoijen,Oss,Noord-Brabant,VBO,5.459766,51.797364
Weisestraat,9,,,5396NL,Lithoijen,Oss,Noord-Brabant,VBO,5.459484,51.796947
Weisestraat,11,,,5396NL,Lithoijen,Oss,Noord-Brabant,VBO,5.459324,51.796582
Weisestraat,13,,,5396NL,Lithoijen,Oss,Noord-Brabant,VBO,5.459081,51.795724
Weisestraat,15,,BY,5396NL,Lithoijen,Oss,Noord-Brabant,VBO,5.458070,51.794846
Weisestraat,15,,,5396NL,Lithoijen,Oss,Noord-Brabant,VBO,5.457884,51.794951
Weisestraat,17,,,5396NL,Lithoijen,Oss,Noord-Brabant,VBO,5.457315,51.793027
Weisestraat,19,,,5396NL,Lithoijen,Oss,Noord-Brabant,VBO,5.453249,51.787232
Weisestraat,21,,,5396NL,Lithoijen,Oss,Noord-Brabant,VBO,5.451594,51.784484
Weisestraat,23,,,5396NL,Lithoijen,Oss,Noord-Brabant,VBO,5.450416,51.782558
Weisestraat,25,,,5396NL,Lithoijen,Oss,Noord-Brabant,VBO,5.447473,51.779136
Weisestraat,29,,,5396NL,Lithoijen,Oss,Noord-Brabant,VBO,5.444123,51.773872
Weisestraat,33,,,5396NL,Lithoijen,Oss,Noord-Brabant,VBO,5.440625,51.769636
Weisestraat,35,,,5396NL,Lithoijen,Oss,Noord-Brabant,VBO,5.438632,51.766972
Weisestraat,2,,,5396NM,Lithoijen,Oss,Noord-Brabant,VBO,5.460852,51.799566
Weisestraat,4,,,5396NM,Lithoijen,Oss,Noord-Brabant,VBO,5.459853,51.795704
Weisestraat,6,,,5396NM,Lithoijen,Oss,Noord-Brabant,VBO,5.459625,51.795215
Weisestraat,8,,,5396NM,Lithoijen,Oss,Noord-Brabant,VBO,5.459316,51.794917
Weisestraat,10,,,5396NM,Lithoijen,Oss,Noord-Brabant,VBO,5.459207,51.794487
Weisestraat,14,,,5396NM,Lithoijen,Oss,Noord-Brabant,VBO,5.458614,51.793818
Weisestraat,16,,,5396NM,Lithoijen,Oss,Noord-Brabant,VBO,5.458498,51.793564
Weisestraat,18,,,5396NM,Lithoijen,Oss,Noord-Brabant,VBO,5.455378,51.789433
Weisestraat,20,,,5396NM,Lithoijen,Oss,Noord-Brabant,VBO,5.453207,51.785859
Weisestraat,22,,,5396NM,Lithoijen,Oss,Noord-Brabant,VBO,5.451370,51.782571
Weisestraat,24,,,5396NM,Lithoijen,Oss,Noord-Brabant,VBO,5.449459,51.779737
Weisestraat,26,,,5396NM,Lithoijen,Oss,Noord-Brabant,VBO,5.440492,51.767079
Steegeindstraat,1,,,5396NN,Lithoijen,Oss,Noord-Brabant,VBO,5.464511,51.798507
Steegeindstraat,2,A,,5396NN,Lithoijen,Oss,Noord-Brabant,VBO,5.463028,51.798361
Steegeindstraat,2,,,5396NN,Lithoijen,Oss,Noord-Brabant,VBO,5.463209,51.798287
Steegeindstraat,4,,,5396NN,Lithoijen,Oss,Noord-Brabant,VBO,5.461671,51.797877
Steegeindstraat,6,,,5396NN,Lithoijen,Oss,Noord-Brabant,VBO,5.461438,51.797592
Steegeindstraat,8,A,,5396NN,Lithoijen,Oss,Noord-Brabant,VBO,5.461412,51.797497
Steegeindstraat,8,,,5396NN,Lithoijen,Oss,Noord-Brabant,VBO,5.461216,51.797444
Steegeindstraat,10,,BY,5396NN,Lithoijen,Oss,Noord-Brabant,VBO,5.461268,51.797277
Steegeindstraat,10,,,5396NN,Lithoijen,Oss,Noord-Brabant,VBO,5.461113,51.797318
Steegeindstraat,12,,,5396NN,Lithoijen,Oss,Noord-Brabant,VBO,5.461095,51.796997
Steegeindstraat,14,,,5396NN,Lithoijen,Oss,Noord-Brabant,VBO,5.460737,51.796475
Steegeindstraat,16,,,5396NN,Lithoijen,Oss,Noord-Brabant,VBO,5.460717,51.796288
Steegeindstraat,18,,,5396NN,Lithoijen,Oss,Noord-Brabant,VBO,5.460517,51.796067
Tiendweg,2,,,5396NR,Lithoijen,Oss,Noord-Brabant,VBO,5.464850,51.789211
Tiendweg,5,,BEDR,5396NR,Lithoijen,Oss,Noord-Brabant,VBO,5.469114,51.787773
Tiendweg,5,,,5396NR,Lithoijen,Oss,Noord-Brabant,VBO,5.469221,51.788299
Tiendweg,16,,,5396NR,Lith,Oss,Noord-Brabant,VBO,5.447854,51.790602
Tiendweg,21,,,5396NR,Lithoijen,Oss,Noord-Brabant,VBO,5.451633,51.789939
Leijgraafstraat,3,,BY,5396NS,Lithoijen,Oss,Noord-Brabant,VBO,5.488363,51.791804
Leijgraafstraat,3,,,5396NS,Lithoijen,Oss,Noord-Brabant,VBO,5.483497,51.788408
Leijgraafstraat,7,,,5396NS,Lithoijen,Oss,Noord-Brabant,VBO,5.478160,51.782602
Batterijstraat,1,E,,5396NT,Lithoijen,Oss,Noord-Brabant,VBO,5.464929,51.797962
Batterijstraat,1,,,5396NT,Lithoijen,Oss,Noord-Brabant,VBO,5.464714,51.798370
Batterijstraat,3,,,5396NT,Lithoijen,Oss,Noord-Brabant,VBO,5.465690,51.797863
Batterijstraat,5,,,5396NT,Lithoijen,Oss,Noord-Brabant,VBO,5.466012,51.797751
Batterijstraat,7,,,5396NT,Lithoijen,Oss,Noord-Brabant,VBO,5.467058,51.797715
Batterijstraat,9,,,5396NT,Lithoijen,Oss,Noord-Brabant,VBO,5.468113,51.797805
Batterijstraat,11,A,,5396NT,Lithoijen,Oss,Noord-Brabant,VBO,5.471712,51.797719
Batterijstraat,11,,,5396NT,Lithoijen,Oss,Noord-Brabant,VBO,5.469053,51.797833
Batterijstraat,13,,,5396NT,Lithoijen,Oss,Noord-Brabant,VBO,5.472191,51.797636
Batterijstraat,15,,,5396NT,Lithoijen,Oss,Noord-Brabant,VBO,5.472578,51.797366
Batterijstraat,17,,,5396NT,Lithoijen,Oss,Noord-Brabant,VBO,5.472818,51.797272
Batterijstraat,19,,,5396NT,Lithoijen,Oss,Noord-Brabant,VBO,5.473082,51.797227
Batterijstraat,21,,,5396NT,Lithoijen,Oss,Noord-Brabant,VBO,5.473270,51.797128
Batterijstraat,23,A,,5396NT,Lithoijen,Oss,Noord-Brabant,VBO,5.475208,51.796316
Batterijstraat,23,B,,5396NT,Lithoijen,Oss,Noord-Brabant,VBO,5.473907,51.796712
Batterijstraat,23,,,5396NT,Lithoijen,Oss,Noord-Brabant,VBO,5.473952,51.796825
Batterijstraat,25,,,5396NT,Lithoijen,Oss,Noord-Brabant,VBO,5.476151,51.796937
Batterijstraat,27,A,,5396NT,Lithoijen,Oss,Noord-Brabant,VBO,5.476982,51.796839
Batterijstraat,27,,,5396NT,Lithoijen,Oss,Noord-Brabant,VBO,5.476603,51.796932
Batterijstraat,29,,,5396NT,Lithoijen,Oss,Noord-Brabant,VBO,5.477360,51.796655
Batterijstraat,31,,,5396NT,Lithoijen,Oss,Noord-Brabant,VBO,5.478817,51.795977
Valkseweg,25,,,5396NV,Lith,Oss,Noord-Brabant,VBO,5.448298,51.799212
Valkseweg,27,,,5396NV,Lithoijen,Oss,Noord-Brabant,VBO,5.450704,51.799229
Valkseweg,29,,,5396NV,Lithoijen,Oss,Noord-Brabant,VBO,5.454418,51.799254
Valkseweg,31,,,5396NV,Lithoijen,Oss,Noord-Brabant,VBO,5.458860,51.799584
Valkseweg,33,,,5396NV,Lithoijen,Oss,Noord-Brabant,VBO,5.459454,51.799266
Osseweg,1,,,5396PA,Lithoijen,Oss,Noord-Brabant,VBO,5.479050,51.797172
Osseweg,2,,,5396PA,Lithoijen,Oss,Noord-Brabant,VBO,5.479421,51.797322
Osseweg,4,,BEDR,5396PA,Lithoijen,Oss,Noord-Brabant,VBO,5.479535,51.797040
Osseweg,4,,,5396PA,Lithoijen,Oss,Noord-Brabant,VBO,5.479410,51.797254
Osseweg,6,,,5396PA,Lithoijen,Oss,Noord-Brabant,VBO,5.480080,51.796987
Lutterstraat,1,,BEDR,5396PB,Lithoijen,Oss,Noord-Brabant,VBO,5.478348,51.795018
Lutterstraat,1,,,5396PB,Lithoijen,Oss,Noord-Brabant,VBO,5.478780,51.794794
Lutterstraat,2,A,B1,5396PB,Lithoijen,Oss,Noord-Brabant,VBO,5.479773,51.794654
Lutterstraat,2,A,B2,5396PB,Lithoijen,Oss,Noord-Brabant,VBO,5.480118,51.794577
Lutterstraat,2,A,B3,5396PB,Lithoijen,Oss,Noord-Brabant,VBO,5.479980,51.794608
Lutterstraat,2,A,GAR,5396PB,Lithoijen,Oss,Noord-Brabant,VBO,5.480039,51.794703
Lutterstraat,2,A,,5396PB,Lithoijen,Oss,Noord-Brabant,VBO,5.479476,51.794893
Lutterstraat,2,,LDS1,5396PB,Lithoijen,Oss,Noord-Brabant,VBO,5.479722,51.795605
Lutterstraat,2,,LDS2,5396PB,Lithoijen,Oss,Noord-Brabant,VBO,5.480061,51.795526
Lutterstraat,2,,,5396PB,Lithoijen,Oss,Noord-Brabant,VBO,5.479594,51.796080
Lutterstraat,4,,,5396PB,Lithoijen,Oss,Noord-Brabant,VBO,5.478758,51.792343
Lutterstraat,6,,,5396PB,Lithoijen,Oss,Noord-Brabant,VBO,5.477756,51.790039
Lutterstraat,8,,,5396PB,Lithoijen,Oss,Noord-Brabant,VBO,5.476647,51.787600
Lutterstraat,13,,BEDR,5396PB,Lithoijen,Oss,Noord-Brabant,VBO,5.471983,51.783017
Lutterstraat,13,,,5396PB,Lithoijen,Oss,Noord-Brabant,VBO,5.472509,51.783002
Lutterstraat,15,,,5396PB,Lithoijen,Oss,Noord-Brabant,VBO,5.476680,51.781898
Beatrixweg,6,,,5396PC,Lithoijen,Oss,Noord-Brabant,VBO,5.485456,51.799820
Beatrixweg,9,,BEDR,5396PC,Lithoijen,Oss,Noord-Brabant,VBO,5.490113,51.801271
Beatrixweg,9,,,5396PC,Lithoijen,Oss,Noord-Brabant,VBO,5.489975,51.801494
Beatrixweg,11,,,5396PC,Lithoijen,Oss,Noord-Brabant,VBO,5.488971,51.801084
Dorpspad,1,,,5396PD,Lithoijen,Oss,Noord-Brabant,VBO,5.460363,51.800291
Dorpspad,2,,,5396PD,Lithoijen,Oss,Noord-Brabant,VBO,5.460231,51.800903
Dorpspad,3,,,5396PD,Lithoijen,Oss,Noord-Brabant,VBO,5.460453,51.800579
Dorpspad,4,,,5396PD,Lithoijen,Oss,Noord-Brabant,VBO,5.459362,51.801009
Dorpspad,5,,,5396PD,Lithoijen,Oss,Noord-Brabant,VBO,5.459862,51.800667
Dorpspad,6,,,5396PD,Lithoijen,Oss,Noord-Brabant,VBO,5.458772,51.801295
Schutstraat,1,,,5396PE,Lithoijen,Oss,Noord-Brabant,VBO,5.460496,51.800076
Schutstraat,2,,,5396PE,Lithoijen,Oss,Noord-Brabant,VBO,5.461552,51.799835
Schutstraat,3,,,5396PE,Lithoijen,Oss,Noord-Brabant,VBO,5.460932,51.800097
Schutstraat,5,,,5396PE,Lithoijen,Oss,Noord-Brabant,VBO,5.461200,51.800138
Schutstraat,7,,,5396PE,Lithoijen,Oss,Noord-Brabant,VBO,5.461566,51.800204
Schutstraat,9,,,5396PE,Lithoijen,Oss,Noord-Brabant,VBO,5.461786,51.800176
Dorpsstraat,1,,,5396PG,Lithoijen,Oss,Noord-Brabant,VBO,5.462136,51.802345
Dorpsstraat,2,,,5396PG,Lithoijen,Oss,Noord-Brabant,VBO,5.463793,51.801764
Dorpsstraat,3,,,5396PG,Lithoijen,Oss,Noord-Brabant,VBO,5.462349,51.802198
Dorpsstraat,4,,,5396PG,Lithoijen,Oss,Noord-Brabant,VBO,5.463685,51.801696
Dorpsstraat,5,,,5396PG,Lithoijen,Oss,Noord-Brabant,VBO,5.462537,51.802069
Dorpsstraat,6,,,5396PG,Lithoijen,Oss,Noord-Brabant,VBO,5.463168,51.800748
Dorpsstraat,7,,,5396PG,Lithoijen,Oss,Noord-Brabant,VBO,5.462681,51.801887
Dorpsstraat,8,,,5396PG,Lithoijen,Oss,Noord-Brabant,VBO,5.463028,51.800442
Dorpsstraat,9,,,5396PG,Lithoijen,Oss,Noord-Brabant,VBO,5.462750,51.801719
Dorpsstraat,10,,,5396PG,Lithoijen,Oss,Noord-Brabant,VBO,5.462727,51.800134
Dorpsstraat,11,A,,5396PG,Lithoijen,Oss,Noord-Brabant,VBO,5.462864,51.801327
Dorpsstraat,11,,,5396PG,Lithoijen,Oss,Noord-Brabant,VBO,5.462838,51.801542
Dorpsstraat,12,,,5396PG,Lithoijen,Oss,Noord-Brabant,VBO,5.462620,51.799850
Dorpsstraat,13,A,,5396PG,Lithoijen,Oss,Noord-Brabant,VBO,5.462214,51.800847
Dorpsstraat,13,,,5396PG,Lithoijen,Oss,Noord-Brabant,VBO,5.462849,51.801023
Dorpsstraat,15,,GED,5396PG,Lithoijen,Oss,Noord-Brabant,VBO,5.462055,51.800657
Dorpsstraat,15,,,5396PG,Lithoijen,Oss,Noord-Brabant,VBO,5.462445,51.800623
Dorpsstraat,17,,,5396PG,Lithoijen,Oss,Noord-Brabant,VBO,5.462150,51.800259
Dorpsstraat,19,,,5396PG,Lithoijen,Oss,Noord-Brabant,VBO,5.462082,51.799851
Dorpsstraat,21,,,5396PG,Lithoijen,Oss,Noord-Brabant,VBO,5.462051,51.799802
Dorpsstraat,23,,,5396PG,Lithoijen,Oss,Noord-Brabant,VBO,5.461970,51.799684
Dorpsstraat,25,,,5396PG,Lithoijen,Oss,Noord-Brabant,VBO,5.461945,51.799634
Prelaat van de Bergplein,1,,,5396PH,Lithoijen,Oss,Noord-Brabant,VBO,5.463468,51.801014
Prelaat van de Bergplein,2,,,5396PH,Lithoijen,Oss,Noord-Brabant,VBO,5.463204,51.801221
Prelaat van de Bergplein,3,,,5396PH,Lithoijen,Oss,Noord-Brabant,VBO,5.463835,51.801036
Prelaat van de Bergplein,4,,,5396PH,Lithoijen,Oss,Noord-Brabant,VBO,5.463204,51.801221
Prelaat van de Bergplein,5,,,5396PH,Lithoijen,Oss,Noord-Brabant,VBO,5.464231,51.800894
Prelaat van de Bergplein,7,A,,5396PH,Lithoijen,Oss,Noord-Brabant,VBO,5.464710,51.801135
Prelaat van de Bergplein,7,B,,5396PH,Lithoijen,Oss,Noord-Brabant,VBO,5.464808,51.801126
Prelaat van de Bergplein,7,C,,5396PH,Lithoijen,Oss,Noord-Brabant,VBO,5.464901,51.801138
Prelaat van de Bergplein,7,,,5396PH,Lithoijen,Oss,Noord-Brabant,VBO,5.464617,51.801123
Prelaat van de Bergplein,8,,,5396PH,Lithoijen,Oss,Noord-Brabant,VBO,5.464113,51.801561
Prelaat van de Bergplein,10,,,5396PH,Lithoijen,Oss,Noord-Brabant,VBO,5.465420,51.801639
Prelaat van de Bergplein,11,,,5396PH,Lithoijen,Oss,Noord-Brabant,VBO,5.465487,51.801292
Gemeintje,1,,,5396PJ,Lithoijen,Oss,Noord-Brabant,VBO,5.463861,51.799893
Gemeintje,3,,,5396PJ,Lithoijen,Oss,Noord-Brabant,VBO,5.463757,51.800076
Gemeintje,5,,,5396PJ,Lithoijen,Oss,Noord-Brabant,VBO,5.463718,51.800276
Gemeintje,7,,,5396PJ,Lithoijen,Oss,Noord-Brabant,VBO,5.463641,51.800453
Gemeintje,9,,,5396PJ,Lithoijen,Oss,Noord-Brabant,VBO,5.463592,51.800665
Stuwstraat,1,A,,5396PK,Lithoijen,Oss,Noord-Brabant,VBO,5.462345,51.803108
Stuwstraat,1,B,,5396PK,Lithoijen,Oss,Noord-Brabant,VBO,5.462279,51.803307
Stuwstraat,1,C,,5396PK,Lithoijen,Oss,Noord-Brabant,VBO,5.462238,51.803493
Stuwstraat,1,,,5396PK,Lithoijen,Oss,Noord-Brabant,VBO,5.462347,51.802803
Stuwstraat,2,,,5396PK,Lithoijen,Oss,Noord-Brabant,VBO,5.461944,51.802923
Stuwstraat,3,,,5396PK,Lithoijen,Oss,Noord-Brabant,VBO,5.462163,51.803624
Stuwstraat,4,A,,5396PK,Lithoijen,Oss,Noord-Brabant,VBO,5.461797,51.803323
Stuwstraat,4,,,5396PK,Lithoijen,Oss,Noord-Brabant,VBO,5.461839,51.803251
Stuwstraat,5,,,5396PK,Lithoijen,Oss,Noord-Brabant,VBO,5.462152,51.803797
Stuwstraat,6,,BY,5396PK,Lithoijen,Oss,Noord-Brabant,VBO,5.461802,51.803713
Stuwstraat,6,,,5396PK,Lithoijen,Oss,Noord-Brabant,VBO,5.461844,51.803629
Stuwstraat,7,,,5396PK,Lithoijen,Oss,Noord-Brabant,VBO,5.462120,51.803959
Stuwstraat,8,,,5396PK,Lithoijen,Oss,Noord-Brabant,VBO,5.461694,51.804083
Stuwstraat,9,,,5396PK,Lithoijen,Oss,Noord-Brabant,VBO,5.462071,51.804126
Stuwstraat,10,,,5396PK,Lithoijen,Oss,Noord-Brabant,VBO,5.461610,51.804236
Stuwstraat,11,,,5396PK,Lithoijen,Oss,Noord-Brabant,VBO,5.461866,51.805219
Stuwstraat,12,,,5396PK,Lithoijen,Oss,Noord-Brabant,VBO,5.461581,51.804402
Nieuwstraat,1,,,5396PL,Lithoijen,Oss,Noord-Brabant,VBO,5.463201,51.803258
Nieuwstraat,2,A,,5396PL,Lithoijen,Oss,Noord-Brabant,VBO,5.462793,51.803096
Nieuwstraat,2,B,,5396PL,Lithoijen,Oss,Noord-Brabant,VBO,5.462697,51.803297
Nieuwstraat,2,C,,5396PL,Lithoijen,Oss,Noord-Brabant,VBO,5.462752,51.803458
Nieuwstraat,2,,,5396PL,Lithoijen,Oss,Noord-Brabant,VBO,5.462884,51.802928
Nieuwstraat,3,,,5396PL,Lithoijen,Oss,Noord-Brabant,VBO,5.463171,51.803469
Nieuwstraat,4,,,5396PL,Lithoijen,Oss,Noord-Brabant,VBO,5.462718,51.803662
Nieuwstraat,5,,,5396PL,Lithoijen,Oss,Noord-Brabant,VBO,5.463163,51.803652
Nieuwstraat,6,,,5396PL,Lithoijen,Oss,Noord-Brabant,VBO,5.462704,51.803838
Nieuwstraat,7,,,5396PL,Lithoijen,Oss,Noord-Brabant,VBO,5.463124,51.803796
Nieuwstraat,8,,,5396PL,Lithoijen,Oss,Noord-Brabant,VBO,5.462696,51.803896
Nieuwstraat,9,,,5396PL,Lithoijen,Oss,Noord-Brabant,VBO,5.463094,51.804050
Nieuwstraat,10,,,5396PL,Lithoijen,Oss,Noord-Brabant,VBO,5.462688,51.804073
Margrietstraat,1,A,,5396PM,Lithoijen,Oss,Noord-Brabant,VBO,5.465133,51.801867
Margrietstraat,1,,,5396PM,Lithoijen,Oss,Noord-Brabant,VBO,5.465156,51.801706
Margrietstraat,2,,,5396PM,Lithoijen,Oss,Noord-Brabant,VBO,5.464629,51.801727
Margrietstraat,3,,,5396PM,Lithoijen,Oss,Noord-Brabant,VBO,5.465112,51.802048
Margrietstraat,4,,,5396PM,Lithoijen,Oss,Noord-Brabant,VBO,5.464637,51.801870
Margrietstraat,6,,,5396PM,Lithoijen,Oss,Noord-Brabant,VBO,5.464513,51.802053
Margrietstraat,15,,,5396PM,Lithoijen,Oss,Noord-Brabant,VBO,5.464469,51.803137
Margrietstraat,16,,,5396PM,Lithoijen,Oss,Noord-Brabant,VBO,5.463706,51.803563
Margrietstraat,17,,,5396PM,Lithoijen,Oss,Noord-Brabant,VBO,5.464332,51.803283
Margrietstraat,18,,,5396PM,Lithoijen,Oss,Noord-Brabant,VBO,5.463719,51.803619
Margrietstraat,19,,,5396PM,Lithoijen,Oss,Noord-Brabant,VBO,5.464086,51.803654
Margrietstraat,20,,,5396PM,Lithoijen,Oss,Noord-Brabant,VBO,5.463708,51.803768
Margrietstraat,21,,,5396PM,Lithoijen,Oss,Noord-Brabant,VBO,5.464063,51.803785
Margrietstraat,22,,,5396PM,Lithoijen,Oss,Noord-Brabant,VBO,5.463700,51.803831
Margrietstraat,23,,,5396PM,Lithoijen,Oss,Noord-Brabant,VBO,5.464055,51.803848
Margrietstraat,24,,,5396PM,Lithoijen,Oss,Noord-Brabant,VBO,5.463674,51.803978
Margrietstraat,26,,,5396PM,Lithoijen,Oss,Noord-Brabant,VBO,5.463666,51.804033
Langwijkstraat,1,,,5396PN,Lithoijen,Oss,Noord-Brabant,VBO,5.466144,51.802885
Langwijkstraat,3,,,5396PN,Lithoijen,Oss,Noord-Brabant,VBO,5.465790,51.802899
Langwijkstraat,5,,,5396PN,Lithoijen,Oss,Noord-Brabant,VBO,5.465583,51.803260
Langwijkstraat,7,,,5396PN,Lithoijen,Oss,Noord-Brabant,VBO,5.465206,51.802839
Langwijkstraat,9,,,5396PN,Lithoijen,Oss,Noord-Brabant,VBO,5.464792,51.802890
Langwijkstraat,11,,,5396PN,Lithoijen,Oss,Noord-Brabant,VBO,5.464777,51.802892
Langwijkstraat,13,,,5396PN,Lithoijen,Oss,Noord-Brabant,VBO,5.464055,51.802888
Langwijkstraat,17,A,,5396PN,Lithoijen,Oss,Noord-Brabant,VBO,5.462922,51.802846
Langwijkstraat,17,,,5396PN,Lithoijen,Oss,Noord-Brabant,VBO,5.463332,51.802867
Langwijkstraat,19,,,5396PN,Lithoijen,Oss,Noord-Brabant,VBO,5.461644,51.802815
Langwijkstraat,21,,,5396PN,Lithoijen,Oss,Noord-Brabant,VBO,5.461175,51.802805
Langwijkstraat,23,,,5396PN,Lithoijen,Oss,Noord-Brabant,VBO,5.460896,51.802800
Langwijkstraat,25,,,5396PN,Lithoijen,Oss,Noord-Brabant,VBO,5.460577,51.802856
Langwijkstraat,29,,,5396PN,Lithoijen,Oss,Noord-Brabant,VBO,5.459594,51.802839
Langwijkstraat,33,,,5396PN,Lithoijen,Oss,Noord-Brabant,VBO,5.459077,51.802999
Langwijkstraat,35,A,,5396PN,Lithoijen,Oss,Noord-Brabant,VBO,5.458637,51.803294
Langwijkstraat,35,,,5396PN,Lithoijen,Oss,Noord-Brabant,VBO,5.458842,51.802926
Langwijkstraat,37,,,5396PN,Lithoijen,Oss,Noord-Brabant,VBO,5.458399,51.802843
Langwijkstraat,2,,,5396PP,Lithoijen,Oss,Noord-Brabant,VBO,5.465370,51.802529
Langwijkstraat,4,,,5396PP,Lithoijen,Oss,Noord-Brabant,VBO,5.464927,51.802514
Langwijkstraat,6,,BY,5396PP,Lithoijen,Oss,Noord-Brabant,VBO,5.463862,51.802263
Langwijkstraat,6,,NST,5396PP,Lithoijen,Oss,Noord-Brabant,VBO,5.463699,51.802243
Langwijkstraat,6,,,5396PP,Lithoijen,Oss,Noord-Brabant,VBO,5.464127,51.802386
Langwijkstraat,8,,,5396PP,Lithoijen,Oss,Noord-Brabant,VBO,5.463260,51.802667
Langwijkstraat,10,,,5396PP,Lithoijen,Oss,Noord-Brabant,VBO,5.462829,51.802602
Langwijkstraat,12,,,5396PP,Lithoijen,Oss,Noord-Brabant,VBO,5.461758,51.802381
Langwijkstraat,14,,,5396PP,Lithoijen,Oss,Noord-Brabant,VBO,5.461364,51.802413
Langwijkstraat,16,,,5396PP,Lithoijen,Oss,Noord-Brabant,VBO,5.460949,51.802420
Langwijkstraat,18,,,5396PP,Lithoijen,Oss,Noord-Brabant,VBO,5.460550,51.802379
Langwijkstraat,22,,,5396PP,Lithoijen,Oss,Noord-Brabant,VBO,5.460108,51.802421
Langwijkstraat,24,,,5396PP,Lithoijen,Oss,Noord-Brabant,VBO,5.459758,51.802413
Langwijkstraat,26,,,5396PP,Lithoijen,Oss,Noord-Brabant,VBO,5.459578,51.802308
Langwijkstraat,28,,,5396PP,Lithoijen,Oss,Noord-Brabant,VBO,5.459449,51.802444
Langwijkstraat,30,,,5396PP,Lithoijen,Oss,Noord-Brabant,VBO,5.459257,51.802402
Engstraat,1,,,5396PR,Lithoijen,Oss,Noord-Brabant,VBO,5.464319,51.804434
Engstraat,2,,,5396PR,Lithoijen,Oss,Noord-Brabant,VBO,5.464113,51.804164
Engstraat,3,,,5396PR,Lithoijen,Oss,Noord-Brabant,VBO,5.464016,51.804408
Engstraat,5,,,5396PR,Lithoijen,Oss,Noord-Brabant,VBO,5.463706,51.804385
Engstraat,7,,,5396PR,Lithoijen,Oss,Noord-Brabant,VBO,5.463380,51.804390
Engstraat,8,,,5396PR,Lithoijen,Oss,Noord-Brabant,VBO,5.463421,51.804091
Engstraat,9,,,5396PR,Lithoijen,Oss,Noord-Brabant,VBO,5.463135,51.804388
Engstraat,10,,,5396PR,Lithoijen,Oss,Noord-Brabant,VBO,5.463316,51.804089
Engstraat,11,,,5396PR,Lithoijen,Oss,Noord-Brabant,VBO,5.462872,51.804414
Engstraat,12,,,5396PR,Lithoijen,Oss,Noord-Brabant,VBO,5.462379,51.804129
Engstraat,13,,,5396PR,Lithoijen,Oss,Noord-Brabant,VBO,5.462602,51.804436
Engstraat,15,,,5396PR,Lithoijen,Oss,Noord-Brabant,VBO,5.462339,51.804453
Engstraat,17,,,5396PR,Lithoijen,Oss,Noord-Brabant,VBO,5.462083,51.804485
Engstraat,19,,,5396PR,Lithoijen,Oss,Noord-Brabant,VBO,5.461950,51.804481
Gemeintje,2,A,,5396PS,Lithoijen,Oss,Noord-Brabant,VBO,5.464353,51.799464
Gemeintje,2,,GED,5396PS,Lithoijen,Oss,Noord-Brabant,VBO,5.464583,51.799485
Gemeintje,2,,,5396PS,Lithoijen,Oss,Noord-Brabant,VBO,5.464494,51.799247
Gemeintje,4,,,5396PS,Lithoijen,Oss,Noord-Brabant,VBO,5.464381,51.799804
Gemeintje,6,,,5396PS,Lithoijen,Oss,Noord-Brabant,VBO,5.464315,51.799983
Gemeintje,8,,,5396PS,Lithoijen,Oss,Noord-Brabant,VBO,5.464284,51.800162
Gemeintje,10,,,5396PS,Lithoijen,Oss,Noord-Brabant,VBO,5.464181,51.800352
Gemeintje,12,,,5396PS,Lithoijen,Oss,Noord-Brabant,VBO,5.464105,51.800500
Gewandeweg,5,,,5396PV,Lithoijen,Oss,Noord-Brabant,VBO,5.452075,51.771450
Gewandeweg,6,,BEDR,5396PV,Lithoijen,Oss,Noord-Brabant,VBO,5.443973,51.772264
Gewandeweg,6,,,5396PV,Lithoijen,Oss,Noord-Brabant,VBO,5.444346,51.772149
Gewandeweg,8,,,5396PV,Lithoijen,Oss,Noord-Brabant,VBO,5.447572,51.772255
Gewandeweg,10,,,5396PV,Lithoijen,Oss,Noord-Brabant,VBO,5.451096,51.772012
Gewandeweg,12,,BY,5396PV,Lithoijen,Oss,Noord-Brabant,VBO,5.453261,51.772048
Gewandeweg,12,,,5396PV,Lithoijen,Oss,Noord-Brabant,VBO,5.453824,51.771915
Kleine Eng,1,,,5396PX,Lithoijen,Oss,Noord-Brabant,VBO,5.461925,51.804858
Kleine Eng,2,,,5396PX,Lithoijen,Oss,Noord-Brabant,VBO,5.461919,51.805062
Kleine Eng,3,,,5396PX,Lithoijen,Oss,Noord-Brabant,VBO,5.462009,51.804859
Kleine Eng,4,,,5396PX,Lithoijen,Oss,Noord-Brabant,VBO,5.462024,51.805082
Kleine Eng,5,,,5396PX,Lithoijen,Oss,Noord-Brabant,VBO,5.462171,51.804861
Kleine Eng,6,,,5396PX,Lithoijen,Oss,Noord-Brabant,VBO,5.462254,51.805061
Kleine Eng,7,,,5396PX,Lithoijen,Oss,Noord-Brabant,VBO,5.462273,51.804849
Kleine Eng,8,,,5396PX,Lithoijen,Oss,Noord-Brabant,VBO,5.462240,51.805146
Kleine Eng,9,,,5396PX,Lithoijen,Oss,Noord-Brabant,VBO,5.462405,51.804839
Kleine Eng,10,,,5396PX,Lithoijen,Oss,Noord-Brabant,VBO,5.462262,51.805430
Kleine Eng,11,,,5396PX,Lithoijen,Oss,Noord-Brabant,VBO,5.462514,51.804842
Kleine Eng,12,,,5396PX,Lithoijen,Oss,Noord-Brabant,VBO,5.461939,51.805410
Kleine Eng,13,,,5396PX,Lithoijen,Oss,Noord-Brabant,VBO,5.462647,51.804847
Kleine Eng,14,,,5396PX,Lithoijen,Oss,Noord-Brabant,VBO,5.462023,51.805612
Kleine Eng,15,,,5396PX,Lithoijen,Oss,Noord-Brabant,VBO,5.462762,51.804848
Kleine Eng,16,,,5396PX,Lithoijen,Oss,Noord-Brabant,VBO,5.462024,51.805724
Kleine Eng,17,,,5396PX,Lithoijen,Oss,Noord-Brabant,VBO,5.462664,51.805105
Kleine Eng,18,,,5396PX,Lithoijen,Oss,Noord-Brabant,VBO,5.461922,51.805921
Kleine Eng,19,,,5396PX,Lithoijen,Oss,Noord-Brabant,VBO,5.462667,51.805174
Kleine Eng,20,,,5396PX,Lithoijen,Oss,Noord-Brabant,VBO,5.462132,51.805897
Kleine Eng,21,,,5396PX,Lithoijen,Oss,Noord-Brabant,VBO,5.462656,51.805430
Kleine Eng,23,,,5396PX,Lithoijen,Oss,Noord-Brabant,VBO,5.462627,51.805603
Kleine Eng,25,,,5396PX,Lithoijen,Oss,Noord-Brabant,VBO,5.462645,51.805815
Kleine Eng,27,,,5396PX,Lithoijen,Oss,Noord-Brabant,VBO,5.462450,51.805874
