openbareruimtenaam,huisnummer,huisletter,huisnummertoevoeging,postcode,woonplaatsnaam,gemeentenaam,provincienaam,typeadresseerbaarobject,longitude,latitude
Kesselse Dijk,1,,,5398CA,Maren-Kessel,Oss,Noord-Brabant,VBO,5.410799,51.806264
Kesselse Dijk,3,,,5398CA,Maren-Kessel,Oss,Noord-Brabant,VBO,5.410217,51.805784
Kesselse Dijk,4,,,5398CA,Maren-Kessel,Oss,Noord-Brabant,VBO,5.409612,51.805328
Kesselse Dijk,5,,,5398CA,Maren-Kessel,Oss,Noord-Brabant,VBO,5.407946,51.805519
Kesselse Dijk,6,,,5398CA,Maren-Kessel,Oss,Noord-Brabant,VBO,5.407520,51.804853
Kesselse Dijk,7,,,5398CA,Maren-Kessel,Oss,Noord-Brabant,VBO,5.407133,51.804618
Kesselse Dijk,8,,,5398CA,Maren-Kessel,Oss,Noord-Brabant,VBO,5.406859,51.804630
Kesselse Dijk,9,,,5398CA,Maren-Kessel,Oss,Noord-Brabant,VBO,5.406190,51.804619
Kesselse Dijk,10,,,5398CA,Maren-Kessel,Oss,Noord-Brabant,VBO,5.404900,51.804331
Kesselse Dijk,11,A,,5398CA,Maren-Kessel,Oss,Noord-Brabant,VBO,5.403407,51.804564
Kesselse Dijk,11,,,5398CA,Maren-Kessel,Oss,Noord-Brabant,VBO,5.403777,51.804476
Kesselse Dijk,13,,,5398CA,Maren-Kessel,Oss,Noord-Brabant,VBO,5.403242,51.804604
Kesselse Dijk,14,,,5398CA,Maren-Kessel,Oss,Noord-Brabant,VBO,5.403056,51.804602
Kesselse Dijk,15,A,,5398CA,Maren-Kessel,Oss,Noord-Brabant,VBO,5.402437,51.804600
Kesselse Dijk,15,,,5398CA,Maren-Kessel,Oss,Noord-Brabant,VBO,5.402616,51.804738
Kesselse Dijk,16,,,5398CA,Maren-Kessel,Oss,Noord-Brabant,VBO,5.401836,51.804759
Kesselse Dijk,17,,,5398CA,Maren-Kessel,Oss,Noord-Brabant,VBO,5.401333,51.804835
Kesselse Dijk,18,,,5398CA,Maren-Kessel,Oss,Noord-Brabant,VBO,5.400649,51.804684
Kesselse Dijk,19,,,5398CA,Maren-Kessel,Oss,Noord-Brabant,VBO,5.400446,51.804687
Kesselse Dijk,20,,,5398CA,Maren-Kessel,Oss,Noord-Brabant,VBO,5.400153,51.804839
Kesselse Dijk,21,,,5398CA,Maren-Kessel,Oss,Noord-Brabant,VBO,5.399852,51.805061
Kesselse Dijk,22,A,,5398CA,Maren-Kessel,Oss,Noord-Brabant,VBO,5.397824,51.805178
Kesselse Dijk,22,B,,5398CA,Maren-Kessel,Oss,Noord-Brabant,VBO,5.397171,51.804947
Kesselse Dijk,22,,,5398CA,Maren-Kessel,Oss,Noord-Brabant,VBO,5.399182,51.805024
Kesselse Dijk,23,A,,5398CA,Maren-Kessel,Oss,Noord-Brabant,VBO,5.397317,51.805255
Kesselse Dijk,23,,,5398CA,Maren-Kessel,Oss,Noord-Brabant,VBO,5.397426,51.805298
Kesselse Dijk,24,,,5398CB,Maren-Kessel,Oss,Noord-Brabant,VBO,5.396571,51.804531
Kesselse Dijk,26,,,5398CB,Maren-Kessel,Oss,Noord-Brabant,VBO,5.396273,51.804322
Kesselse Dijk,27,,,5398CB,Maren-Kessel,Oss,Noord-Brabant,VBO,5.395275,51.803608
Kesselse Dijk,28,,BEDR,5398CB,Maren-Kessel,Oss,Noord-Brabant,VBO,5.394533,51.802393
Kesselse Dijk,28,,,5398CB,Maren-Kessel,Oss,Noord-Brabant,VBO,5.393826,51.802679
Kesselse Dijk,29,A,,5398CB,Maren-Kessel,Oss,Noord-Brabant,VBO,5.393105,51.801661
Kesselse Dijk,29,,,5398CB,Maren-Kessel,Oss,Noord-Brabant,VBO,5.392909,51.801788
Kesselse Dijk,30,,,5398CB,Maren-Kessel,Oss,Noord-Brabant,VBO,5.392879,51.801512
Kesselse Dijk,34,,,5398CB,Maren-Kessel,Oss,Noord-Brabant,VBO,5.390895,51.797983
Kerkpad,1,,,5398CC,Maren-Kessel,Oss,Noord-Brabant,VBO,5.397783,51.805007
Kerkpad,2,,,5398CC,Maren-Kessel,Oss,Noord-Brabant,VBO,5.397123,51.804785
Kerkpad,3,,,5398CC,Maren-Kessel,Oss,Noord-Brabant,VBO,5.397570,51.804238
Wielstraat,1,,,5398CD,Maren-Kessel,Oss,Noord-Brabant,VBO,5.409614,51.803295
Wielstraat,2,,,5398CD,Maren-Kessel,Oss,Noord-Brabant,VBO,5.408512,51.804563
Wielstraat,3,,,5398CD,Maren-Kessel,Oss,Noord-Brabant,VBO,5.407960,51.804872
Achterstraat,1,,,5398CE,Maren-Kessel,Oss,Noord-Brabant,VBO,5.398503,51.803774
Achterstraat,2,,,5398CE,Maren-Kessel,Oss,Noord-Brabant,VBO,5.398948,51.803748
Achterstraat,3,,,5398CE,Maren-Kessel,Oss,Noord-Brabant,VBO,5.406774,51.803896
Meester van Coothstraat,54,A,,5398CG,Maren-Kessel,Oss,Noord-Brabant,VBO,5.408056,51.802226
Meester van Coothstraat,54,B,,5398CG,Maren-Kessel,Oss,Noord-Brabant,VBO,5.409067,51.801998
Meester van Coothstraat,54,C,,5398CG,Maren-Kessel,Oss,Noord-Brabant,VBO,5.410964,51.802939
Meester van Coothstraat,54,,,5398CG,Maren-Kessel,Oss,Noord-Brabant,VBO,5.410767,51.802937
Meester van Coothstraat,56,,,5398CG,Maren-Kessel,Oss,Noord-Brabant,VBO,5.402577,51.800787
Meester van Coothstraat,63,,,5398CG,Maren-Kessel,Oss,Noord-Brabant,VBO,5.411737,51.803801
Meester van Coothstraat,65,,,5398CG,Maren-Kessel,Oss,Noord-Brabant,VBO,5.411231,51.803701
Meester van Coothstraat,67,,,5398CG,Maren-Kessel,Oss,Noord-Brabant,VBO,5.410163,51.803489
Meester van Coothstraat,71,,,5398CG,Maren-Kessel,Oss,Noord-Brabant,VBO,5.399275,51.800429
Kesselsegraaf,1,,,5398CH,Maren-Kessel,Oss,Noord-Brabant,VBO,5.410902,51.805872
Kesselsegraaf,2,,GED,5398CH,Maren-Kessel,Oss,Noord-Brabant,VBO,5.410381,51.805428
Kesselsegraaf,2,,,5398CH,Maren-Kessel,Oss,Noord-Brabant,VBO,5.410477,51.805444
Kesselsegraaf,3,,,5398CH,Maren-Kessel,Oss,Noord-Brabant,VBO,5.410888,51.805587
Kesselsegraaf,5,A,,5398CH,Maren-Kessel,Oss,Noord-Brabant,VBO,5.411932,51.803243
Kesselsegraaf,5,,,5398CH,Maren-Kessel,Oss,Noord-Brabant,VBO,5.411774,51.803493
Kesselsegraaf,6,,,5398CH,Maren-Kessel,Oss,Noord-Brabant,VBO,5.414434,51.797841
Hoevenweg,1,,,5398CJ,Maren-Kessel,Oss,Noord-Brabant,VBO,5.415461,51.792304
Vorstweg,1,,,5398CK,Maren-Kessel,Oss,Noord-Brabant,VBO,5.415365,51.787376
Vorstweg,5,,,5398CK,Maren-Kessel,Oss,Noord-Brabant,VBO,5.400083,51.786315
Vorstweg,7,,,5398CK,Maren-Kessel,Oss,Noord-Brabant,VBO,5.394300,51.785964
Vorstweg,9,,,5398CK,Maren-Kessel,Oss,Noord-Brabant,VBO,5.391546,51.785569
Lankerweg,1,,,5398CM,Maren-Kessel,Oss,Noord-Brabant,VBO,5.407806,51.797138
Pastoor Coxstraat,2,,,5398GA,Maren-Kessel,Oss,Noord-Brabant,VBO,5.390376,51.794724
Pastoor Coxstraat,4,,,5398GA,Maren-Kessel,Oss,Noord-Brabant,VBO,5.390502,51.794619
Pastoor Coxstraat,6,,UNIT,5398GA,Maren-Kessel,Oss,Noord-Brabant,VBO,5.390841,51.794540
Pastoor Coxstraat,6,,,5398GA,Maren-Kessel,Oss,Noord-Brabant,VBO,5.390551,51.794470
Pastoor Coxstraat,10,,,5398GA,Maren-Kessel,Oss,Noord-Brabant,VBO,5.390802,51.794208
Pastoor Coxstraat,12,,,5398GA,Maren-Kessel,Oss,Noord-Brabant,VBO,5.390956,51.793985
Pastoor Coxstraat,14,,,5398GA,Maren-Kessel,Oss,Noord-Brabant,VBO,5.390952,51.793831
Pastoor Coxstraat,16,,,5398GA,Maren-Kessel,Oss,Noord-Brabant,VBO,5.391169,51.793724
Boerenzwaluw,2,,,5398GH,Maren-Kessel,Oss,Noord-Brabant,VBO,5.391266,51.793444
Boerenzwaluw,4,,,5398GH,Maren-Kessel,Oss,Noord-Brabant,VBO,5.391296,51.793398
Boerenzwaluw,6,,,5398GH,Maren-Kessel,Oss,Noord-Brabant,VBO,5.391325,51.793353
Boerenzwaluw,8,,,5398GH,Maren-Kessel,Oss,Noord-Brabant,VBO,5.391355,51.793308
Boerenzwaluw,10,,,5398GH,Maren-Kessel,Oss,Noord-Brabant,VBO,5.391384,51.793264
Boerenzwaluw,12,,,5398GH,Maren-Kessel,Oss,Noord-Brabant,VBO,5.391414,51.793219
Boerenzwaluw,14,,,5398GH,Maren-Kessel,Oss,Noord-Brabant,VBO,5.391444,51.793173
Veldleeuwerik,1,,,5398GJ,Maren-Kessel,Oss,Noord-Brabant,VBO,5.392541,51.793358
Veldleeuwerik,2,,,5398GJ,Maren-Kessel,Oss,Noord-Brabant,VBO,5.393038,51.793260
Veldleeuwerik,3,,,5398GJ,Maren-Kessel,Oss,Noord-Brabant,VBO,5.392457,51.793334
Veldleeuwerik,4,,,5398GJ,Maren-Kessel,Oss,Noord-Brabant,VBO,5.392953,51.793240
Veldleeuwerik,5,,,5398GJ,Maren-Kessel,Oss,Noord-Brabant,VBO,5.392257,51.793305
Veldleeuwerik,6,,,5398GJ,Maren-Kessel,Oss,Noord-Brabant,VBO,5.392718,51.793179
Veldleeuwerik,7,,,5398GJ,Maren-Kessel,Oss,Noord-Brabant,VBO,5.392165,51.793287
Veldleeuwerik,8,,,5398GJ,Maren-Kessel,Oss,Noord-Brabant,VBO,5.392626,51.793163
Veldleeuwerik,9,,,5398GJ,Maren-Kessel,Oss,Noord-Brabant,VBO,5.391985,51.793245
Veldleeuwerik,10,,,5398GJ,Maren-Kessel,Oss,Noord-Brabant,VBO,5.392387,51.793105
Veldleeuwerik,11,,,5398GJ,Maren-Kessel,Oss,Noord-Brabant,VBO,5.391910,51.793227
Veldleeuwerik,12,,,5398GJ,Maren-Kessel,Oss,Noord-Brabant,VBO,5.392300,51.793086
Veldleeuwerik,13,,,5398GJ,Maren-Kessel,Oss,Noord-Brabant,VBO,5.391822,51.793203
Veldleeuwerik,14,,,5398GJ,Maren-Kessel,Oss,Noord-Brabant,VBO,5.392063,51.793025
Veldleeuwerik,16,,,5398GJ,Maren-Kessel,Oss,Noord-Brabant,VBO,5.391980,51.793006
Velmerweg,1,,,5398HA,Maren-Kessel,Oss,Noord-Brabant,VBO,5.396730,51.803875
Velmerweg,2,,,5398HA,Maren-Kessel,Oss,Noord-Brabant,VBO,5.396672,51.802079
Velmerweg,3,,,5398HA,Maren-Kessel,Oss,Noord-Brabant,VBO,5.397313,51.803702
Velmerweg,4,,,5398HA,Maren-Kessel,Oss,Noord-Brabant,VBO,5.397287,51.803188
Velmerweg,5,,,5398HA,Maren-Kessel,Oss,Noord-Brabant,VBO,5.397734,51.799294
Frankenstraat,1,,,5398HB,Maren-Kessel,Oss,Noord-Brabant,VBO,5.395933,51.803019
Frankenstraat,5,,,5398HB,Maren-Kessel,Oss,Noord-Brabant,VBO,5.395490,51.802888
Kesselseweg,1,A,,5398HC,Maren-Kessel,Oss,Noord-Brabant,VBO,5.397470,51.798180
Kesselseweg,1,,,5398HC,Maren-Kessel,Oss,Noord-Brabant,VBO,5.402295,51.790825
Kesselseweg,3,,BEDR,5398HC,Maren-Kessel,Oss,Noord-Brabant,VBO,5.402866,51.787958
Kesselseweg,3,,,5398HC,Maren-Kessel,Oss,Noord-Brabant,VBO,5.403772,51.787360
Kesselseweg,6,,,5398HC,Maren-Kessel,Oss,Noord-Brabant,VBO,5.404020,51.790923
Kesselseweg,7,,,5398HC,Maren-Kessel,Oss,Noord-Brabant,VBO,5.405062,51.784134
Kesselseweg,9,A,,5398HC,Maren-Kessel,Oss,Noord-Brabant,VBO,5.407424,51.777663
Kesselseweg,9,,,5398HC,Maren-Kessel,Oss,Noord-Brabant,VBO,5.404228,51.782403
Kesselseweg,11,,,5398HC,Maren-Kessel,Oss,Noord-Brabant,VBO,5.407193,51.777163
Kesselseweg,12,,,5398HC,Maren-Kessel,Oss,Noord-Brabant,VBO,5.407849,51.778939
Kesselseweg,14,,,5398HC,Maren-Kessel,Oss,Noord-Brabant,VBO,5.408361,51.777520
Kesselseweg,15,,BEDR,5398HC,Maren-Kessel,Oss,Noord-Brabant,VBO,5.410243,51.765537
Kesselseweg,15,,,5398HC,Maren-Kessel,Oss,Noord-Brabant,VBO,5.410615,51.765156
Kesselseweg,16,,,5398HC,Maren-Kessel,Oss,Noord-Brabant,VBO,5.411946,51.764498
Nolderweg,1,E,,5398HD,Maren-Kessel,Oss,Noord-Brabant,VBO,5.396708,51.794404
Nolderweg,1,,,5398HD,Maren-Kessel,Oss,Noord-Brabant,VBO,5.397800,51.794625
Nolderweg,3,,,5398HD,Maren-Kessel,Oss,Noord-Brabant,VBO,5.398241,51.794777
Groenstraat,1,A,,5398HE,Maren-Kessel,Oss,Noord-Brabant,VBO,5.395308,51.797162
Groenstraat,1,B,,5398HE,Maren-Kessel,Oss,Noord-Brabant,VBO,5.395214,51.797126
Groenstraat,1,,,5398HE,Maren-Kessel,Oss,Noord-Brabant,VBO,5.395389,51.797214
Groenstraat,3,A,,5398HE,Maren-Kessel,Oss,Noord-Brabant,VBO,5.395220,51.796999
Groenstraat,3,,,5398HE,Maren-Kessel,Oss,Noord-Brabant,VBO,5.395172,51.797050
Groenstraat,5,A,,5398HE,Maren-Kessel,Oss,Noord-Brabant,VBO,5.395445,51.797024
Groenstraat,5,B,,5398HE,Maren-Kessel,Oss,Noord-Brabant,VBO,5.395558,51.797040
Groenstraat,5,,,5398HE,Maren-Kessel,Oss,Noord-Brabant,VBO,5.395349,51.796990
Groenstraat,7,,,5398HE,Maren-Kessel,Oss,Noord-Brabant,VBO,5.395686,51.796863
Groenstraat,9,,,5398HE,Maren-Kessel,Oss,Noord-Brabant,VBO,5.395731,51.796718
Groenstraat,11,,,5398HE,Maren-Kessel,Oss,Noord-Brabant,VBO,5.395839,51.796645
Groenstraat,13,,,5398HE,Maren-Kessel,Oss,Noord-Brabant,VBO,5.396000,51.796577
Groenstraat,15,,,5398HE,Maren-Kessel,Oss,Noord-Brabant,VBO,5.396020,51.796494
Groenstraat,17,,,5398HE,Maren-Kessel,Oss,Noord-Brabant,VBO,5.396974,51.795542
Groenstraat,19,A,,5398HE,Maren-Kessel,Oss,Noord-Brabant,VBO,5.397072,51.795396
Groenstraat,19,,,5398HE,Maren-Kessel,Oss,Noord-Brabant,VBO,5.397051,51.795472
Groenstraat,21,,,5398HE,Maren-Kessel,Oss,Noord-Brabant,VBO,5.397230,51.795333
Groenstraat,23,,,5398HE,Maren-Kessel,Oss,Noord-Brabant,VBO,5.397266,51.795279
Groenstraat,25,,,5398HE,Maren-Kessel,Oss,Noord-Brabant,VBO,5.397335,51.795187
Groenstraat,27,,,5398HE,Maren-Kessel,Oss,Noord-Brabant,VBO,5.397369,51.795137
Groenstraat,29,,,5398HE,Maren-Kessel,Oss,Noord-Brabant,VBO,5.397384,51.795083
Groenstraat,31,,,5398HE,Maren-Kessel,Oss,Noord-Brabant,VBO,5.397418,51.795034
Groenstraat,2,,,5398HG,Maren-Kessel,Oss,Noord-Brabant,VBO,5.395935,51.797256
Groenstraat,4,,,5398HG,Maren-Kessel,Oss,Noord-Brabant,VBO,5.396151,51.797020
Groenstraat,6,A,,5398HG,Maren-Kessel,Oss,Noord-Brabant,VBO,5.396348,51.796876
Groenstraat,6,,,5398HG,Maren-Kessel,Oss,Noord-Brabant,VBO,5.396336,51.796933
Groenstraat,8,,,5398HG,Maren-Kessel,Oss,Noord-Brabant,VBO,5.396443,51.796733
Groenstraat,10,,,5398HG,Maren-Kessel,Oss,Noord-Brabant,VBO,5.396655,51.796628
Groenstraat,12,,,5398HG,Maren-Kessel,Oss,Noord-Brabant,VBO,5.396778,51.796467
Groenstraat,14,,,5398HG,Maren-Kessel,Oss,Noord-Brabant,VBO,5.396885,51.796429
Groenstraat,16,,,5398HG,Maren-Kessel,Oss,Noord-Brabant,VBO,5.396908,51.796308
Groenstraat,18,,,5398HG,Maren-Kessel,Oss,Noord-Brabant,VBO,5.396954,51.796262
Groenstraat,20,,,5398HG,Maren-Kessel,Oss,Noord-Brabant,VBO,5.397058,51.796154
Groenstraat,22,,,5398HG,Maren-Kessel,Oss,Noord-Brabant,VBO,5.397190,51.796130
Groenstraat,24,,,5398HG,Maren-Kessel,Oss,Noord-Brabant,VBO,5.397205,51.795999
Groenstraat,26,,,5398HG,Maren-Kessel,Oss,Noord-Brabant,VBO,5.397277,51.795961
Groenstraat,28,,,5398HG,Maren-Kessel,Oss,Noord-Brabant,VBO,5.397361,51.795847
Groenstraat,30,,,5398HG,Maren-Kessel,Oss,Noord-Brabant,VBO,5.397420,51.795806
Groenstraat,32,,,5398HG,Maren-Kessel,Oss,Noord-Brabant,VBO,5.397532,51.795700
Groenstraat,34,,,5398HG,Maren-Kessel,Oss,Noord-Brabant,VBO,5.397637,51.795662
Groenstraat,36,,,5398HG,Maren-Kessel,Oss,Noord-Brabant,VBO,5.397694,51.795518
Groenstraat,38,,,5398HG,Maren-Kessel,Oss,Noord-Brabant,VBO,5.397863,51.795371
Groenstraat,40,,,5398HG,Maren-Kessel,Oss,Noord-Brabant,VBO,5.398021,51.795221
Kerkhofstraat,1,,,5398HH,Maren-Kessel,Oss,Noord-Brabant,VBO,5.394774,51.795468
Kerkhofstraat,2,,,5398HH,Maren-Kessel,Oss,Noord-Brabant,VBO,5.394087,51.795662
Kerkhofstraat,3,,,5398HH,Maren-Kessel,Oss,Noord-Brabant,VBO,5.394977,51.795525
Kerkhofstraat,4,,,5398HH,Maren-Kessel,Oss,Noord-Brabant,VBO,5.394189,51.795688
Kerkhofstraat,6,,,5398HH,Maren-Kessel,Oss,Noord-Brabant,VBO,5.394379,51.795736
Kerkhofstraat,8,,,5398HH,Maren-Kessel,Oss,Noord-Brabant,VBO,5.394481,51.795762
Kerkhofstraat,12,,,5398HH,Maren-Kessel,Oss,Noord-Brabant,VBO,5.395318,51.796013
Kerkhofstraat,14,,,5398HH,Maren-Kessel,Oss,Noord-Brabant,VBO,5.395659,51.796109
Kerkhofstraat,16,,,5398HH,Maren-Kessel,Oss,Noord-Brabant,VBO,5.395979,51.796296
Kerkhofstraat,18,A,,5398HH,Maren-Kessel,Oss,Noord-Brabant,VBO,5.396184,51.796246
Kerkhofstraat,18,,,5398HH,Maren-Kessel,Oss,Noord-Brabant,VBO,5.396173,51.796322
Kerkweg,1,A,,5398HJ,Maren-Kessel,Oss,Noord-Brabant,VBO,5.394207,51.796145
Kerkweg,1,,,5398HJ,Maren-Kessel,Oss,Noord-Brabant,VBO,5.394072,51.796367
Kerkweg,2,,,5398HJ,Maren-Kessel,Oss,Noord-Brabant,VBO,5.394088,51.796946
Kerkweg,3,,,5398HJ,Maren-Kessel,Oss,Noord-Brabant,VBO,5.394250,51.796082
Kerkweg,4,,,5398HJ,Maren-Kessel,Oss,Noord-Brabant,VBO,5.394370,51.796895
Kerkweg,5,,,5398HJ,Maren-Kessel,Oss,Noord-Brabant,VBO,5.394329,51.795964
Kerkweg,6,,,5398HJ,Maren-Kessel,Oss,Noord-Brabant,VBO,5.394430,51.796705
Kerkweg,7,,,5398HJ,Maren-Kessel,Oss,Noord-Brabant,VBO,5.394372,51.795901
Kerkweg,8,,,5398HJ,Maren-Kessel,Oss,Noord-Brabant,VBO,5.394568,51.796565
Kerkweg,10,,,5398HJ,Maren-Kessel,Oss,Noord-Brabant,VBO,5.394612,51.796421
Kerkweg,12,,,5398HJ,Maren-Kessel,Oss,Noord-Brabant,VBO,5.394651,51.796268
Kerkweg,14,,,5398HJ,Maren-Kessel,Oss,Noord-Brabant,VBO,5.394823,51.796128
Kerkweg,16,,,5398HJ,Maren-Kessel,Oss,Noord-Brabant,VBO,5.394902,51.795919
Christinastraat,1,,,5398HK,Maren-Kessel,Oss,Noord-Brabant,VBO,5.395582,51.795658
Christinastraat,3,,,5398HK,Maren-Kessel,Oss,Noord-Brabant,VBO,5.395623,51.795435
Dr. Willemsstraat,1,,,5398HL,Maren-Kessel,Oss,Noord-Brabant,VBO,5.394670,51.794825
Dr. Willemsstraat,3,,,5398HL,Maren-Kessel,Oss,Noord-Brabant,VBO,5.394873,51.794874
Dr. Willemsstraat,5,,,5398HL,Maren-Kessel,Oss,Noord-Brabant,VBO,5.395236,51.794976
Dr. Willemsstraat,7,,,5398HL,Maren-Kessel,Oss,Noord-Brabant,VBO,5.395317,51.794996
Dr. Willemsstraat,9,,,5398HL,Maren-Kessel,Oss,Noord-Brabant,VBO,5.395396,51.795017
Dr. Willemsstraat,11,,,5398HL,Maren-Kessel,Oss,Noord-Brabant,VBO,5.395477,51.795037
Dr. Willemsstraat,13,,,5398HL,Maren-Kessel,Oss,Noord-Brabant,VBO,5.395645,51.795077
Dr. Willemsstraat,15,,,5398HL,Maren-Kessel,Oss,Noord-Brabant,VBO,5.395737,51.795101
Dr. Willemsstraat,17,,,5398HL,Maren-Kessel,Oss,Noord-Brabant,VBO,5.396437,51.795238
Dr. Willemsstraat,19,,,5398HL,Maren-Kessel,Oss,Noord-Brabant,VBO,5.396473,51.795185
Dr. Willemsstraat,21,,,5398HL,Maren-Kessel,Oss,Noord-Brabant,VBO,5.396500,51.795126
Dr. Willemsstraat,23,,,5398HL,Maren-Kessel,Oss,Noord-Brabant,VBO,5.396582,51.795028
Dr. Willemsstraat,25,,,5398HL,Maren-Kessel,Oss,Noord-Brabant,VBO,5.396600,51.794967
Dr. Willemsstraat,27,,,5398HL,Maren-Kessel,Oss,Noord-Brabant,VBO,5.396691,51.794894
Dr. Willemsstraat,29,,,5398HL,Maren-Kessel,Oss,Noord-Brabant,VBO,5.396764,51.794815
Dr. Willemsstraat,2,,,5398HM,Maren-Kessel,Oss,Noord-Brabant,VBO,5.395096,51.795229
Dr. Willemsstraat,4,,,5398HM,Maren-Kessel,Oss,Noord-Brabant,VBO,5.396694,51.795445
Dr. Willemsstraat,6,,,5398HM,Maren-Kessel,Oss,Noord-Brabant,VBO,5.396721,51.795386
Dr. Willemsstraat,8,,,5398HM,Maren-Kessel,Oss,Noord-Brabant,VBO,5.396836,51.795306
Dr. Willemsstraat,10,,,5398HM,Maren-Kessel,Oss,Noord-Brabant,VBO,5.396857,51.795237
Dr. Willemsstraat,12,,,5398HM,Maren-Kessel,Oss,Noord-Brabant,VBO,5.396922,51.795132
Dr. Willemsstraat,14,,,5398HM,Maren-Kessel,Oss,Noord-Brabant,VBO,5.396984,51.795084
Dr. Willemsstraat,16,,,5398HM,Maren-Kessel,Oss,Noord-Brabant,VBO,5.397070,51.794996
Dr. Willemsstraat,18,,,5398HM,Maren-Kessel,Oss,Noord-Brabant,VBO,5.397068,51.794921
Burgemeester N Pompenstraat,1,,,5398HN,Maren-Kessel,Oss,Noord-Brabant,VBO,5.394966,51.794676
Burgemeester N Pompenstraat,3,,,5398HN,Maren-Kessel,Oss,Noord-Brabant,VBO,5.394987,51.794613
Burgemeester N Pompenstraat,5,,,5398HN,Maren-Kessel,Oss,Noord-Brabant,VBO,5.395097,51.794531
Burgemeester N Pompenstraat,7,,,5398HN,Maren-Kessel,Oss,Noord-Brabant,VBO,5.395130,51.794481
Burgemeester N Pompenstraat,9,,,5398HN,Maren-Kessel,Oss,Noord-Brabant,VBO,5.395163,51.794431
Burgemeester N Pompenstraat,11,,,5398HN,Maren-Kessel,Oss,Noord-Brabant,VBO,5.395196,51.794381
Burgemeester N Pompenstraat,13,,,5398HN,Maren-Kessel,Oss,Noord-Brabant,VBO,5.396330,51.794700
Burgemeester N Pompenstraat,15,,,5398HN,Maren-Kessel,Oss,Noord-Brabant,VBO,5.396303,51.794757
Burgemeester N Pompenstraat,17,,,5398HN,Maren-Kessel,Oss,Noord-Brabant,VBO,5.396271,51.794815
Burgemeester N Pompenstraat,19,,,5398HN,Maren-Kessel,Oss,Noord-Brabant,VBO,5.396201,51.794914
Burgemeester N Pompenstraat,21,,,5398HN,Maren-Kessel,Oss,Noord-Brabant,VBO,5.396177,51.794968
Burgemeester N Pompenstraat,23,,,5398HN,Maren-Kessel,Oss,Noord-Brabant,VBO,5.396133,51.795027
Burgemeester N Pompenstraat,25,,,5398HN,Maren-Kessel,Oss,Noord-Brabant,VBO,5.396069,51.795125
Burgemeester N Pompenstraat,27,,,5398HN,Maren-Kessel,Oss,Noord-Brabant,VBO,5.396081,51.795192
Burgemeester N Pompenstraat,2,,,5398HP,Maren-Kessel,Oss,Noord-Brabant,VBO,5.395493,51.794905
Burgemeester N Pompenstraat,4,,,5398HP,Maren-Kessel,Oss,Noord-Brabant,VBO,5.395437,51.794789
Burgemeester N Pompenstraat,6,,,5398HP,Maren-Kessel,Oss,Noord-Brabant,VBO,5.395421,51.794727
Burgemeester N Pompenstraat,8,,,5398HP,Maren-Kessel,Oss,Noord-Brabant,VBO,5.395586,51.794625
Burgemeester N Pompenstraat,10,,,5398HP,Maren-Kessel,Oss,Noord-Brabant,VBO,5.395783,51.794667
Burgemeester N Pompenstraat,12,,,5398HP,Maren-Kessel,Oss,Noord-Brabant,VBO,5.395887,51.794689
Burgemeester N Pompenstraat,14,,,5398HP,Maren-Kessel,Oss,Noord-Brabant,VBO,5.395830,51.794811
Burgemeester N Pompenstraat,16,,,5398HP,Maren-Kessel,Oss,Noord-Brabant,VBO,5.395814,51.794886
Burgemeester N Pompenstraat,18,,,5398HP,Maren-Kessel,Oss,Noord-Brabant,VBO,5.395778,51.794939
Pastoor Roesweg,1,A,,5398HR,Maren-Kessel,Oss,Noord-Brabant,VBO,5.392780,51.796280
Pastoor Roesweg,1,,,5398HR,Maren-Kessel,Oss,Noord-Brabant,VBO,5.392489,51.796388
Pastoor Roesweg,2,A,,5398HR,Maren-Kessel,Oss,Noord-Brabant,VBO,5.393477,51.795989
Pastoor Roesweg,2,,,5398HR,Maren-Kessel,Oss,Noord-Brabant,VBO,5.393620,51.796242
Pastoor Roesweg,3,,,5398HR,Maren-Kessel,Oss,Noord-Brabant,VBO,5.392740,51.796185
Pastoor Roesweg,4,A,,5398HR,Maren-Kessel,Oss,Noord-Brabant,VBO,5.393767,51.795670
Pastoor Roesweg,4,B,,5398HR,Maren-Kessel,Oss,Noord-Brabant,VBO,5.393767,51.795670
Pastoor Roesweg,4,C,,5398HR,Maren-Kessel,Oss,Noord-Brabant,VBO,5.393767,51.795670
Pastoor Roesweg,4,D,,5398HR,Maren-Kessel,Oss,Noord-Brabant,VBO,5.393767,51.795670
Pastoor Roesweg,4,E,,5398HR,Maren-Kessel,Oss,Noord-Brabant,VBO,5.393767,51.795670
Pastoor Roesweg,4,F,,5398HR,Maren-Kessel,Oss,Noord-Brabant,VBO,5.393767,51.795670
Pastoor Roesweg,4,G,,5398HR,Maren-Kessel,Oss,Noord-Brabant,VBO,5.393767,51.795670
Pastoor Roesweg,4,H,,5398HR,Maren-Kessel,Oss,Noord-Brabant,VBO,5.393767,51.795670
Pastoor Roesweg,4,I,,5398HR,Maren-Kessel,Oss,Noord-Brabant,VBO,5.393767,51.795670
Pastoor Roesweg,4,J,,5398HR,Maren-Kessel,Oss,Noord-Brabant,VBO,5.393767,51.795670
Pastoor Roesweg,4,K,,5398HR,Maren-Kessel,Oss,Noord-Brabant,VBO,5.393767,51.795670
Pastoor Roesweg,4,,,5398HR,Maren-Kessel,Oss,Noord-Brabant,VBO,5.393767,51.795670
Pastoor Roesweg,5,,,5398HR,Maren-Kessel,Oss,Noord-Brabant,VBO,5.392845,51.796007
Pastoor Roesweg,6,A,,5398HR,Maren-Kessel,Oss,Noord-Brabant,VBO,5.394233,51.794747
Pastoor Roesweg,6,,,5398HR,Maren-Kessel,Oss,Noord-Brabant,VBO,5.394288,51.795269
Pastoor Roesweg,7,,,5398HR,Maren-Kessel,Oss,Noord-Brabant,VBO,5.392948,51.795816
Pastoor Roesweg,8,,,5398HR,Maren-Kessel,Oss,Noord-Brabant,VBO,5.394256,51.794700
Pastoor Roesweg,9,,,5398HR,Maren-Kessel,Oss,Noord-Brabant,VBO,5.393001,51.795612
Pastoor Roesweg,10,,,5398HR,Maren-Kessel,Oss,Noord-Brabant,VBO,5.394336,51.794592
Pastoor Roesweg,11,,,5398HR,Maren-Kessel,Oss,Noord-Brabant,VBO,5.393137,51.795519
Pastoor Roesweg,12,,,5398HR,Maren-Kessel,Oss,Noord-Brabant,VBO,5.394403,51.794558
Pastoor Roesweg,13,,,5398HR,Maren-Kessel,Oss,Noord-Brabant,VBO,5.393565,51.794993
Pastoor Roesweg,14,,,5398HR,Maren-Kessel,Oss,Noord-Brabant,VBO,5.394447,51.794497
Pastoor Roesweg,15,,,5398HR,Maren-Kessel,Oss,Noord-Brabant,VBO,5.393595,51.794942
Pastoor Roesweg,16,,,5398HR,Maren-Kessel,Oss,Noord-Brabant,VBO,5.394475,51.794394
Pastoor Roesweg,18,,,5398HR,Maren-Kessel,Oss,Noord-Brabant,VBO,5.394503,51.794338
Pastoor Roesweg,20,,,5398HR,Maren-Kessel,Oss,Noord-Brabant,VBO,5.394541,51.794269
Pastoor Roesweg,22,,,5398HR,Maren-Kessel,Oss,Noord-Brabant,VBO,5.394599,51.794228
Pastoor Roesweg,24,A,,5398HR,Maren-Kessel,Oss,Noord-Brabant,VBO,5.395449,51.792951
Pastoor Roesweg,24,B,,5398HR,Maren-Kessel,Oss,Noord-Brabant,VBO,5.396665,51.792961
Pastoor Roesweg,24,,,5398HR,Maren-Kessel,Oss,Noord-Brabant,VBO,5.395365,51.793091
Pastoor Roesweg,26,,,5398HR,Maren-Kessel,Oss,Noord-Brabant,VBO,5.395765,51.792627
Pastoor Roesweg,28,,,5398HR,Maren-Kessel,Oss,Noord-Brabant,VBO,5.396063,51.792212
Pastoor Roesweg,30,,,5398HR,Maren-Kessel,Oss,Noord-Brabant,VBO,5.396694,51.791119
Schoolstraat,1,A,,5398HS,Maren-Kessel,Oss,Noord-Brabant,VBO,5.391350,51.795800
Schoolstraat,1,,,5398HS,Maren-Kessel,Oss,Noord-Brabant,VBO,5.391409,51.795949
Schoolstraat,2,,,5398HS,Maren-Kessel,Oss,Noord-Brabant,VBO,5.391966,51.796029
Schoolstraat,3,,,5398HS,Maren-Kessel,Oss,Noord-Brabant,VBO,5.391483,51.795603
Schoolstraat,4,,,5398HS,Maren-Kessel,Oss,Noord-Brabant,VBO,5.392051,51.795818
Schoolstraat,5,,,5398HS,Maren-Kessel,Oss,Noord-Brabant,VBO,5.391545,51.795466
Schoolstraat,6,,,5398HS,Maren-Kessel,Oss,Noord-Brabant,VBO,5.392175,51.795643
Schoolstraat,7,,,5398HS,Maren-Kessel,Oss,Noord-Brabant,VBO,5.391649,51.795331
Schoolstraat,8,,,5398HS,Maren-Kessel,Oss,Noord-Brabant,VBO,5.392319,51.795504
Schoolstraat,9,,,5398HS,Maren-Kessel,Oss,Noord-Brabant,VBO,5.391695,51.794964
Schoolstraat,10,,,5398HS,Maren-Kessel,Oss,Noord-Brabant,VBO,5.392400,51.795275
Schoolstraat,11,,,5398HS,Maren-Kessel,Oss,Noord-Brabant,VBO,5.392375,51.795005
Schoolstraat,13,,,5398HS,Maren-Kessel,Oss,Noord-Brabant,VBO,5.392412,51.794950
Schoolstraat,15,,,5398HS,Maren-Kessel,Oss,Noord-Brabant,VBO,5.392448,51.794894
Achtmorgenstraat,1,,,5398HT,Maren-Kessel,Oss,Noord-Brabant,VBO,5.390567,51.795430
Achtmorgenstraat,2,,,5398HT,Maren-Kessel,Oss,Noord-Brabant,VBO,5.390298,51.795977
Achtmorgenstraat,3,,,5398HT,Maren-Kessel,Oss,Noord-Brabant,VBO,5.390657,51.795332
Achtmorgenstraat,4,,,5398HT,Maren-Kessel,Oss,Noord-Brabant,VBO,5.390414,51.795813
Achtmorgenstraat,5,,,5398HT,Maren-Kessel,Oss,Noord-Brabant,VBO,5.390653,51.795211
Achtmorgenstraat,6,,,5398HT,Maren-Kessel,Oss,Noord-Brabant,VBO,5.390475,51.795689
Achtmorgenstraat,7,,,5398HT,Maren-Kessel,Oss,Noord-Brabant,VBO,5.390774,51.795104
Achtmorgenstraat,8,,,5398HT,Maren-Kessel,Oss,Noord-Brabant,VBO,5.390936,51.795692
Achtmorgenstraat,10,,,5398HT,Maren-Kessel,Oss,Noord-Brabant,VBO,5.390999,51.795562
Achtmorgenstraat,12,,,5398HT,Maren-Kessel,Oss,Noord-Brabant,VBO,5.391086,51.795441
Achtmorgenstraat,14,,,5398HT,Maren-Kessel,Oss,Noord-Brabant,VBO,5.391162,51.795311
Hille Kampkes,1,,,5398HV,Maren-Kessel,Oss,Noord-Brabant,VBO,5.393404,51.795217
Hille Kampkes,3,,,5398HV,Maren-Kessel,Oss,Noord-Brabant,VBO,5.393276,51.795179
Hille Kampkes,5,,,5398HV,Maren-Kessel,Oss,Noord-Brabant,VBO,5.393108,51.795136
Hille Kampkes,7,,,5398HV,Maren-Kessel,Oss,Noord-Brabant,VBO,5.393004,51.795109
Hille Kampkes,9,,,5398HV,Maren-Kessel,Oss,Noord-Brabant,VBO,5.392834,51.795041
Hille Kampkes,11,,,5398HV,Maren-Kessel,Oss,Noord-Brabant,VBO,5.392729,51.795015
Hille Kampkes,13,,,5398HV,Maren-Kessel,Oss,Noord-Brabant,VBO,5.392534,51.794804
Hille Kampkes,15,,,5398HV,Maren-Kessel,Oss,Noord-Brabant,VBO,5.392570,51.794750
Hille Kampkes,17,,,5398HV,Maren-Kessel,Oss,Noord-Brabant,VBO,5.392638,51.794644
Hille Kampkes,19,A,,5398HV,Maren-Kessel,Oss,Noord-Brabant,VBO,5.392872,51.794297
Hille Kampkes,19,,,5398HV,Maren-Kessel,Oss,Noord-Brabant,VBO,5.392770,51.794465
Hille Kampkes,21,A,,5398HV,Maren-Kessel,Oss,Noord-Brabant,VBO,5.393043,51.793894
Hille Kampkes,21,,,5398HV,Maren-Kessel,Oss,Noord-Brabant,VBO,5.392966,51.793870
Hille Kampkes,23,A,,5398HV,Maren-Kessel,Oss,Noord-Brabant,VBO,5.393306,51.793947
Hille Kampkes,23,,,5398HV,Maren-Kessel,Oss,Noord-Brabant,VBO,5.393203,51.793924
Hille Kampkes,25,,,5398HV,Maren-Kessel,Oss,Noord-Brabant,VBO,5.393439,51.793992
Hille Kampkes,27,,,5398HV,Maren-Kessel,Oss,Noord-Brabant,VBO,5.393539,51.794008
Hille Kampkes,29,,,5398HV,Maren-Kessel,Oss,Noord-Brabant,VBO,5.393694,51.794057
Hille Kampkes,31,,,5398HV,Maren-Kessel,Oss,Noord-Brabant,VBO,5.393795,51.794078
Hille Kampkes,33,,,5398HV,Maren-Kessel,Oss,Noord-Brabant,VBO,5.394045,51.794144
Hille Kampkes,2,,,5398HW,Maren-Kessel,Oss,Noord-Brabant,VBO,5.393330,51.794822
Hille Kampkes,4,,,5398HW,Maren-Kessel,Oss,Noord-Brabant,VBO,5.393242,51.794816
Hille Kampkes,6,,,5398HW,Maren-Kessel,Oss,Noord-Brabant,VBO,5.393098,51.794720
Hille Kampkes,8,,,5398HW,Maren-Kessel,Oss,Noord-Brabant,VBO,5.393028,51.794691
Hille Kampkes,10,,,5398HW,Maren-Kessel,Oss,Noord-Brabant,VBO,5.393242,51.794563
Hille Kampkes,12,,,5398HW,Maren-Kessel,Oss,Noord-Brabant,VBO,5.393260,51.794508
Hille Kampkes,14,,,5398HW,Maren-Kessel,Oss,Noord-Brabant,VBO,5.393338,51.794457
Hille Kampkes,16,,,5398HW,Maren-Kessel,Oss,Noord-Brabant,VBO,5.393371,51.794406
Hille Kampkes,18,,,5398HW,Maren-Kessel,Oss,Noord-Brabant,VBO,5.393436,51.794312
Hille Kampkes,20,,,5398HW,Maren-Kessel,Oss,Noord-Brabant,VBO,5.393478,51.794270
Van Irhovenstraat,1,,,5398HX,Maren-Kessel,Oss,Noord-Brabant,VBO,5.390932,51.794876
Van Irhovenstraat,2,,MZ,5398HX,Maren-Kessel,Oss,Noord-Brabant,VBO,5.391406,51.795073
Van Irhovenstraat,2,,,5398HX,Maren-Kessel,Oss,Noord-Brabant,VBO,5.391360,51.794953
Van Irhovenstraat,3,,,5398HX,Maren-Kessel,Oss,Noord-Brabant,VBO,5.390990,51.794745
Van Irhovenstraat,4,,,5398HX,Maren-Kessel,Oss,Noord-Brabant,VBO,5.391478,51.794815
Van Irhovenstraat,5,,,5398HX,Maren-Kessel,Oss,Noord-Brabant,VBO,5.391051,51.794607
Van Irhovenstraat,6,,,5398HX,Maren-Kessel,Oss,Noord-Brabant,VBO,5.391558,51.794641
Van Irhovenstraat,7,,,5398HX,Maren-Kessel,Oss,Noord-Brabant,VBO,5.391181,51.794493
Van Irhovenstraat,8,A,,5398HX,Maren-Kessel,Oss,Noord-Brabant,VBO,5.391813,51.794522
Van Irhovenstraat,8,,,5398HX,Maren-Kessel,Oss,Noord-Brabant,VBO,5.391660,51.794489
Van Irhovenstraat,9,,,5398HX,Maren-Kessel,Oss,Noord-Brabant,VBO,5.391249,51.794371
Van Irhovenstraat,10,,,5398HX,Maren-Kessel,Oss,Noord-Brabant,VBO,5.392028,51.794592
Van Irhovenstraat,11,,,5398HX,Maren-Kessel,Oss,Noord-Brabant,VBO,5.391425,51.794071
Van Irhovenstraat,12,,,5398HX,Maren-Kessel,Oss,Noord-Brabant,VBO,5.392222,51.794276
Van Irhovenstraat,13,,,5398HX,Maren-Kessel,Oss,Noord-Brabant,VBO,5.391526,51.793942
Van Irhovenstraat,14,,,5398HX,Maren-Kessel,Oss,Noord-Brabant,VBO,5.392038,51.794222
Van Irhovenstraat,15,,,5398HX,Maren-Kessel,Oss,Noord-Brabant,VBO,5.391576,51.793819
Van Irhovenstraat,16,,,5398HX,Maren-Kessel,Oss,Noord-Brabant,VBO,5.391867,51.794164
Van Irhovenstraat,17,,,5398HX,Maren-Kessel,Oss,Noord-Brabant,VBO,5.391613,51.793550
Van Irhovenstraat,18,,,5398HX,Maren-Kessel,Oss,Noord-Brabant,VBO,5.392019,51.793935
Van Irhovenstraat,19,,,5398HX,Maren-Kessel,Oss,Noord-Brabant,VBO,5.391689,51.793572
Van Irhovenstraat,20,,,5398HX,Maren-Kessel,Oss,Noord-Brabant,VBO,5.392201,51.793975
Van Irhovenstraat,21,,,5398HX,Maren-Kessel,Oss,Noord-Brabant,VBO,5.391760,51.793589
Van Irhovenstraat,22,,,5398HX,Maren-Kessel,Oss,Noord-Brabant,VBO,5.392390,51.794029
Van Irhovenstraat,23,,,5398HX,Maren-Kessel,Oss,Noord-Brabant,VBO,5.391834,51.793607
Van Irhovenstraat,25,,,5398HX,Maren-Kessel,Oss,Noord-Brabant,VBO,5.391905,51.793627
Van Irhovenstraat,27,,,5398HX,Maren-Kessel,Oss,Noord-Brabant,VBO,5.391980,51.793646
Van Irhovenstraat,29,,,5398HX,Maren-Kessel,Oss,Noord-Brabant,VBO,5.392309,51.793704
Pastoor Roesweg,17,,,5398HZ,Maren-Kessel,Oss,Noord-Brabant,VBO,5.393624,51.794897
Pastoor Roesweg,19,,,5398HZ,Maren-Kessel,Oss,Noord-Brabant,VBO,5.393653,51.794851
Pastoor Roesweg,21,,,5398HZ,Maren-Kessel,Oss,Noord-Brabant,VBO,5.393683,51.794806
Pastoor Roesweg,23,,,5398HZ,Maren-Kessel,Oss,Noord-Brabant,VBO,5.393662,51.794694
Pastoor Roesweg,25,,,5398HZ,Maren-Kessel,Oss,Noord-Brabant,VBO,5.393735,51.794647
Pastoor Roesweg,27,,,5398HZ,Maren-Kessel,Oss,Noord-Brabant,VBO,5.393795,51.794545
Pastoor Roesweg,29,,,5398HZ,Maren-Kessel,Oss,Noord-Brabant,VBO,5.393845,51.794503
Pastoor Roesweg,31,,,5398HZ,Maren-Kessel,Oss,Noord-Brabant,VBO,5.393932,51.794390
Pastoor Roesweg,39,,,5398HZ,Maren-Kessel,Oss,Noord-Brabant,VBO,5.394420,51.793566
Pastoor Roesweg,41,,,5398HZ,Maren-Kessel,Oss,Noord-Brabant,VBO,5.394306,51.793536
Pastoor Roesweg,43,,KLEE,5398HZ,Maren-Kessel,Oss,Noord-Brabant,VBO,5.394855,51.791866
Pastoor Roesweg,43,,,5398HZ,Maren-Kessel,Oss,Noord-Brabant,VBO,5.394763,51.791818
Pastoor Roesweg,45,,,5398HZ,Maren-Kessel,Oss,Noord-Brabant,VBO,5.394686,51.790603
Pastoor Roesweg,47,,,5398HZ,Maren-Kessel,Oss,Noord-Brabant,VBO,5.396271,51.790750
Liesdaalweg,1,,,5398JA,Maren-Kessel,Oss,Noord-Brabant,VBO,5.393197,51.792803
Liesdaalweg,5,,,5398JA,Maren-Kessel,Oss,Noord-Brabant,VBO,5.392177,51.792621
Liesdaalweg,6,,,5398JA,Maren-Kessel,Oss,Noord-Brabant,VBO,5.392815,51.792269
Liesdaalweg,8,,,5398JA,Maren-Kessel,Oss,Noord-Brabant,VBO,5.391160,51.791866
Wijlseweg,1,,,5398JB,Maren-Kessel,Oss,Noord-Brabant,VBO,5.385535,51.794176
Wijlseweg,3,,,5398JB,Maren-Kessel,Oss,Noord-Brabant,VBO,5.385750,51.793921
Wijlseweg,5,,,5398JB,Maren-Kessel,Oss,Noord-Brabant,VBO,5.385848,51.793737
Wijlseweg,11,A,,5398JB,Maren-Kessel,Oss,Noord-Brabant,VBO,5.385546,51.792124
Wijlseweg,11,,,5398JB,Maren-Kessel,Oss,Noord-Brabant,VBO,5.386186,51.792608
Wijlseweg,13,,BEDR,5398JB,Maren-Kessel,Oss,Noord-Brabant,VBO,5.387800,51.789022
Wijlseweg,13,,,5398JB,Maren-Kessel,Oss,Noord-Brabant,VBO,5.388381,51.789264
Koeltjesweg,1,,BY,5398JC,Maren-Kessel,Oss,Noord-Brabant,VBO,5.389034,51.785505
Koeltjesweg,1,,,5398JC,Maren-Kessel,Oss,Noord-Brabant,VBO,5.388927,51.785513
Koeltjesweg,2,,,5398JC,Maren-Kessel,Oss,Noord-Brabant,VBO,5.389876,51.785674
Marenseweg,1,,,5398JD,Maren-Kessel,Oss,Noord-Brabant,VBO,5.380383,51.791438
Marenseweg,11,,,5398JD,Maren-Kessel,Oss,Noord-Brabant,VBO,5.389329,51.768136
Marenseweg,2,,,5398JE,Maren-Kessel,Oss,Noord-Brabant,VBO,5.381101,51.792380
Marenseweg,8,,BY,5398JE,Maren-Kessel,Oss,Noord-Brabant,VBO,5.390050,51.769485
Marenseweg,8,,,5398JE,Maren-Kessel,Oss,Noord-Brabant,VBO,5.389440,51.769452
Marenseweg,10,,,5398JE,Maren-Kessel,Oss,Noord-Brabant,VBO,5.389846,51.768747
Marenseweg,12,,,5398JE,Maren-Kessel,Oss,Noord-Brabant,VBO,5.392881,51.765014
Deelenweg,1,,,5398JG,Maren-Kessel,Oss,Noord-Brabant,VBO,5.392384,51.764492
Deelenweg,8,,,5398JG,Maren-Kessel,Oss,Noord-Brabant,VBO,5.376499,51.760396
Deelenweg,9,,BEDR,5398JG,Maren-Kessel,Oss,Noord-Brabant,VBO,5.379891,51.760753
Deelenweg,9,,,5398JG,Maren-Kessel,Oss,Noord-Brabant,VBO,5.379328,51.760902
Provincialeweg,1,,,5398JH,Maren-Kessel,Oss,Noord-Brabant,VBO,5.395690,51.798317
Provincialeweg,3,,,5398JH,Maren-Kessel,Oss,Noord-Brabant,VBO,5.395440,51.798173
Provincialeweg,5,,,5398JH,Maren-Kessel,Oss,Noord-Brabant,VBO,5.395124,51.798028
Provincialeweg,7,,,5398JH,Maren-Kessel,Oss,Noord-Brabant,VBO,5.394860,51.797868
Provincialeweg,9,,,5398JH,Maren-Kessel,Oss,Noord-Brabant,VBO,5.394464,51.797789
Provincialeweg,13,,,5398JH,Maren-Kessel,Oss,Noord-Brabant,VBO,5.394095,51.797731
Provincialeweg,15,,,5398JH,Maren-Kessel,Oss,Noord-Brabant,VBO,5.394014,51.797492
Provincialeweg,17,,,5398JH,Maren-Kessel,Oss,Noord-Brabant,VBO,5.393884,51.797440
Provincialeweg,19,,,5398JH,Maren-Kessel,Oss,Noord-Brabant,VBO,5.393787,51.797347
Provincialeweg,21,,,5398JH,Maren-Kessel,Oss,Noord-Brabant,VBO,5.393651,51.797346
Provincialeweg,23,,,5398JH,Maren-Kessel,Oss,Noord-Brabant,VBO,5.393454,51.797201
Provincialeweg,25,,,5398JH,Maren-Kessel,Oss,Noord-Brabant,VBO,5.393142,51.797090
Provincialeweg,27,,,5398JH,Maren-Kessel,Oss,Noord-Brabant,VBO,5.392961,51.797038
Provincialeweg,29,,,5398JH,Maren-Kessel,Oss,Noord-Brabant,VBO,5.392690,51.796931
Provincialeweg,31,,,5398JH,Maren-Kessel,Oss,Noord-Brabant,VBO,5.392481,51.796906
Provincialeweg,33,,,5398JH,Maren-Kessel,Oss,Noord-Brabant,VBO,5.392235,51.796888
Provincialeweg,35,,,5398JH,Maren-Kessel,Oss,Noord-Brabant,VBO,5.392060,51.796786
Provincialeweg,37,,,5398JH,Maren-Kessel,Oss,Noord-Brabant,VBO,5.391984,51.796846
Provincialeweg,39,,,5398JH,Maren-Kessel,Oss,Noord-Brabant,VBO,5.391788,51.796779
Provincialeweg,41,,,5398JH,Maren-Kessel,Oss,Noord-Brabant,VBO,5.391632,51.796700
Provincialeweg,43,,,5398JH,Maren-Kessel,Oss,Noord-Brabant,VBO,5.391426,51.796685
Provincialeweg,45,,,5398JH,Maren-Kessel,Oss,Noord-Brabant,VBO,5.391212,51.796652
Provincialeweg,47,,,5398JJ,Maren-Kessel,Oss,Noord-Brabant,VBO,5.391102,51.796596
Provincialeweg,51,,,5398JJ,Maren-Kessel,Oss,Noord-Brabant,VBO,5.390539,51.796667
Provincialeweg,55,,,5398JJ,Maren-Kessel,Oss,Noord-Brabant,VBO,5.386546,51.795276
Provincialeweg,57,,,5398JJ,Maren-Kessel,Oss,Noord-Brabant,VBO,5.386224,51.795126
Provincialeweg,61,,,5398JJ,Maren-Kessel,Oss,Noord-Brabant,VBO,5.385194,51.794914
Provincialeweg,63,,,5398JJ,Maren-Kessel,Oss,Noord-Brabant,VBO,5.385016,51.794760
Provincialeweg,65,,,5398JJ,Maren-Kessel,Oss,Noord-Brabant,VBO,5.384645,51.794710
Provincialeweg,67,,,5398JJ,Maren-Kessel,Oss,Noord-Brabant,VBO,5.383754,51.794048
Provincialeweg,69,,,5398JJ,Maren-Kessel,Oss,Noord-Brabant,VBO,5.383175,51.794130
Provincialeweg,71,,,5398JJ,Maren-Kessel,Oss,Noord-Brabant,VBO,5.382824,51.793930
Provincialeweg,73,,,5398JJ,Maren-Kessel,Oss,Noord-Brabant,VBO,5.382523,51.793689
Provincialeweg,75,,,5398JJ,Maren-Kessel,Oss,Noord-Brabant,VBO,5.382266,51.793637
Provincialeweg,77,,,5398JK,Maren-Kessel,Oss,Noord-Brabant,VBO,5.381824,51.793490
Provincialeweg,81,,,5398JK,Maren-Kessel,Oss,Noord-Brabant,VBO,5.381060,51.793337
Provincialeweg,83,,,5398JK,Maren-Kessel,Oss,Noord-Brabant,VBO,5.380569,51.793174
Provincialeweg,85,,,5398JK,Maren-Kessel,Oss,Noord-Brabant,VBO,5.380502,51.792618
Provincialeweg,87,,,5398JK,Maren-Kessel,Oss,Noord-Brabant,VBO,5.379870,51.792190
Provincialeweg,89,,,5398JK,Maren-Kessel,Oss,Noord-Brabant,VBO,5.379537,51.791872
Provincialeweg,93,A,,5398JK,Maren-Kessel,Oss,Noord-Brabant,VBO,5.378498,51.791439
Provincialeweg,93,,,5398JK,Maren-Kessel,Oss,Noord-Brabant,VBO,5.378748,51.791642
Provincialeweg,95,A,,5398JK,Maren-Kessel,Oss,Noord-Brabant,VBO,5.377968,51.791268
Provincialeweg,95,,,5398JK,Maren-Kessel,Oss,Noord-Brabant,VBO,5.378229,51.791346
Provincialeweg,97,,,5398JK,Maren-Kessel,Oss,Noord-Brabant,VBO,5.377681,51.791103
Provincialeweg,99,A,,5398JK,Maren-Kessel,Oss,Noord-Brabant,VBO,5.377074,51.790994
Provincialeweg,99,,,5398JK,Maren-Kessel,Oss,Noord-Brabant,VBO,5.377389,51.791029
Provincialeweg,101,,,5398JK,Maren-Kessel,Oss,Noord-Brabant,VBO,5.376305,51.790847
Provincialeweg,103,,,5398JK,Maren-Kessel,Oss,Noord-Brabant,VBO,5.375528,51.790598
Provincialeweg,2,,,5398JL,Maren-Kessel,Oss,Noord-Brabant,VBO,5.396290,51.797760
Provincialeweg,4,,,5398JL,Maren-Kessel,Oss,Noord-Brabant,VBO,5.395794,51.797634
Provincialeweg,6,,,5398JL,Maren-Kessel,Oss,Noord-Brabant,VBO,5.394984,51.797296
Provincialeweg,8,,,5398JL,Maren-Kessel,Oss,Noord-Brabant,VBO,5.394704,51.797152
Provincialeweg,10,,,5398JL,Maren-Kessel,Oss,Noord-Brabant,VBO,5.394419,51.797066
Provincialeweg,12,,,5398JL,Maren-Kessel,Oss,Noord-Brabant,VBO,5.392009,51.796367
Provincialeweg,14,,,5398JL,Maren-Kessel,Oss,Noord-Brabant,VBO,5.391798,51.796248
Provincialeweg,16,,,5398JL,Maren-Kessel,Oss,Noord-Brabant,VBO,5.391231,51.796173
Provincialeweg,18,A,,5398JL,Maren-Kessel,Oss,Noord-Brabant,VBO,5.390851,51.796028
Provincialeweg,18,,,5398JL,Maren-Kessel,Oss,Noord-Brabant,VBO,5.390851,51.796028
Provincialeweg,20,A,,5398JL,Maren-Kessel,Oss,Noord-Brabant,VBO,5.390851,51.796028
Provincialeweg,20,,,5398JL,Maren-Kessel,Oss,Noord-Brabant,VBO,5.390851,51.796028
Provincialeweg,22,A,,5398JL,Maren-Kessel,Oss,Noord-Brabant,VBO,5.390851,51.796028
Provincialeweg,22,,,5398JL,Maren-Kessel,Oss,Noord-Brabant,VBO,5.390851,51.796028
Provincialeweg,24,A,,5398JL,Maren-Kessel,Oss,Noord-Brabant,VBO,5.390851,51.796028
Provincialeweg,24,B,,5398JL,Maren-Kessel,Oss,Noord-Brabant,VBO,5.390851,51.796028
Provincialeweg,24,D,,5398JL,Maren-Kessel,Oss,Noord-Brabant,VBO,5.390851,51.796028
Provincialeweg,24,,,5398JL,Maren-Kessel,Oss,Noord-Brabant,VBO,5.390851,51.796028
Provincialeweg,26,,,5398JL,Maren-Kessel,Oss,Noord-Brabant,VBO,5.389973,51.795571
Provincialeweg,28,,,5398JM,Maren-Kessel,Oss,Noord-Brabant,VBO,5.389184,51.795382
Provincialeweg,30,A,,5398JM,Maren-Kessel,Oss,Noord-Brabant,VBO,5.388453,51.795101
Provincialeweg,30,,,5398JM,Maren-Kessel,Oss,Noord-Brabant,VBO,5.388714,51.795258
Provincialeweg,32,,,5398JM,Maren-Kessel,Oss,Noord-Brabant,VBO,5.388057,51.794935
Provincialeweg,34,,,5398JM,Maren-Kessel,Oss,Noord-Brabant,VBO,5.387593,51.794820
Provincialeweg,36,,,5398JM,Maren-Kessel,Oss,Noord-Brabant,VBO,5.387243,51.794700
Provincialeweg,38,,,5398JM,Maren-Kessel,Oss,Noord-Brabant,VBO,5.386996,51.794592
Provincialeweg,40,,,5398JM,Maren-Kessel,Oss,Noord-Brabant,VBO,5.386782,51.794468
Provincialeweg,42,,,5398JM,Maren-Kessel,Oss,Noord-Brabant,VBO,5.386478,51.794353
Provincialeweg,44,A,,5398JM,Maren-Kessel,Oss,Noord-Brabant,VBO,5.385238,51.794027
Provincialeweg,44,B,,5398JM,Maren-Kessel,Oss,Noord-Brabant,VBO,5.384786,51.793881
Provincialeweg,44,C,,5398JM,Maren-Kessel,Oss,Noord-Brabant,VBO,5.384506,51.793768
Provincialeweg,44,D,,5398JM,Maren-Kessel,Oss,Noord-Brabant,VBO,5.384188,51.793605
Provincialeweg,44,E,,5398JM,Maren-Kessel,Oss,Noord-Brabant,VBO,5.383790,51.793473
Provincialeweg,44,,,5398JM,Maren-Kessel,Oss,Noord-Brabant,VBO,5.386259,51.794196
Provincialeweg,46,,,5398JM,Maren-Kessel,Oss,Noord-Brabant,VBO,5.383421,51.793357
Provincialeweg,48,,,5398JM,Maren-Kessel,Oss,Noord-Brabant,VBO,5.383135,51.793308
Provincialeweg,50,,,5398JM,Maren-Kessel,Oss,Noord-Brabant,VBO,5.382836,51.793183
Provincialeweg,52,,,5398JM,Maren-Kessel,Oss,Noord-Brabant,VBO,5.382567,51.792924
Provincialeweg,54,,,5398JM,Maren-Kessel,Oss,Noord-Brabant,VBO,5.382240,51.793133
Provincialeweg,56,,,5398JM,Maren-Kessel,Oss,Noord-Brabant,VBO,5.381939,51.793027
Provincialeweg,58,,,5398JM,Maren-Kessel,Oss,Noord-Brabant,VBO,5.381384,51.792902
Provincialeweg,60,A,,5398JM,Maren-Kessel,Oss,Noord-Brabant,VBO,5.379884,51.791517
Provincialeweg,60,,,5398JM,Maren-Kessel,Oss,Noord-Brabant,VBO,5.381499,51.792782
Provincialeweg,62,,BEDR,5398JM,Maren-Kessel,Oss,Noord-Brabant,VBO,5.379307,51.790850
Provincialeweg,62,,,5398JM,Maren-Kessel,Oss,Noord-Brabant,VBO,5.378139,51.790739
Provincialeweg,64,,BEDR,5398JM,Maren-Kessel,Oss,Noord-Brabant,VBO,5.377133,51.790255
Provincialeweg,64,,,5398JM,Maren-Kessel,Oss,Noord-Brabant,VBO,5.376734,51.790285
Provincialeweg,66,,BEDR,5398JM,Maren-Kessel,Oss,Noord-Brabant,VBO,5.375658,51.790157
Provincialeweg,66,,,5398JM,Maren-Kessel,Oss,Noord-Brabant,VBO,5.376466,51.790202
Provincialeweg,68,,,5398JM,Maren-Kessel,Oss,Noord-Brabant,VBO,5.374436,51.789950
Dijkstraat,1,,,5398JP,Maren-Kessel,Oss,Noord-Brabant,VBO,5.384202,51.794513
Dijkstraat,2,A,,5398JP,Maren-Kessel,Oss,Noord-Brabant,VBO,5.383864,51.794294
Dijkstraat,2,,,5398JP,Maren-Kessel,Oss,Noord-Brabant,VBO,5.383479,51.794267
Dijkstraat,6,,,5398JP,Maren-Kessel,Oss,Noord-Brabant,VBO,5.383450,51.794613
Oude Pastoriestraat,1,A,,5398JR,Maren-Kessel,Oss,Noord-Brabant,VBO,5.379635,51.792905
Oude Pastoriestraat,1,,,5398JR,Maren-Kessel,Oss,Noord-Brabant,VBO,5.379998,51.793106
Oude Pastoriestraat,2,,,5398JR,Maren-Kessel,Oss,Noord-Brabant,VBO,5.379864,51.792303
Oude Pastoriestraat,3,,,5398JR,Maren-Kessel,Oss,Noord-Brabant,VBO,5.378790,51.792754
Oude Pastoriestraat,4,,,5398JR,Maren-Kessel,Oss,Noord-Brabant,VBO,5.378092,51.792540
Oude Pastoriestraat,5,,,5398JR,Maren-Kessel,Oss,Noord-Brabant,VBO,5.378115,51.791949
Oude Kerkstraat,1,,,5398JS,Maren-Kessel,Oss,Noord-Brabant,VBO,5.377209,51.792779
Oude Kerkstraat,2,,,5398JS,Maren-Kessel,Oss,Noord-Brabant,VBO,5.376540,51.792494
Oude Kerkstraat,4,,,5398JS,Maren-Kessel,Oss,Noord-Brabant,VBO,5.376733,51.792242
Oude Kerkstraat,6,,,5398JS,Maren-Kessel,Oss,Noord-Brabant,VBO,5.376866,51.792046
Oude Kerkstraat,7,,,5398JS,Maren-Kessel,Oss,Noord-Brabant,VBO,5.377116,51.791376
Oude Kerkstraat,8,,,5398JS,Maren-Kessel,Oss,Noord-Brabant,VBO,5.376620,51.791835
Hogeweg,1,,,5398JT,Maren-Kessel,Oss,Noord-Brabant,VBO,5.374596,51.781807
Hogeweg,2,,,5398JT,Maren-Kessel,Oss,Noord-Brabant,VBO,5.374124,51.787097
Hogeweg,4,,,5398JT,Maren-Kessel,Oss,Noord-Brabant,VBO,5.374182,51.786533
Burgemeester Smitsweg,1,,,5398JV,Maren-Kessel,Oss,Noord-Brabant,VBO,5.368819,51.780352
Burgemeester Smitsweg,2,,,5398JV,Maren-Kessel,Oss,Noord-Brabant,VBO,5.368876,51.780220
Burgemeester Smitsweg,3,,,5398JV,Maren-Kessel,Oss,Noord-Brabant,VBO,5.368827,51.779680
Burgemeester Smitsweg,4,A,,5398JV,Maren-Kessel,Oss,Noord-Brabant,VBO,5.369268,51.779489
Burgemeester Smitsweg,4,,,5398JV,Maren-Kessel,Oss,Noord-Brabant,VBO,5.369211,51.779057
Burgemeester Smitsweg,6,,,5398JV,Maren-Kessel,Oss,Noord-Brabant,VBO,5.371598,51.776690
Burgemeester Smitsweg,7,,,5398JV,Maren-Kessel,Oss,Noord-Brabant,VBO,5.377054,51.773556
Burgemeester Smitsweg,10,,,5398JV,Maren-Kessel,Oss,Noord-Brabant,VBO,5.382692,51.771740
Gortenweg,1,,BEDR,5398JZ,Maren-Kessel,Oss,Noord-Brabant,VBO,5.376527,51.778729
Gortenweg,1,,,5398JZ,Maren-Kessel,Oss,Noord-Brabant,VBO,5.375939,51.778826
Wildseweg,1,A,,5398KA,Maren-Kessel,Oss,Noord-Brabant,VBO,5.368994,51.766295
Wildseweg,1,,BEDR,5398KA,Maren-Kessel,Oss,Noord-Brabant,VBO,5.368483,51.766194
Wildseweg,1,,BY,5398KA,Maren-Kessel,Oss,Noord-Brabant,VBO,5.368745,51.766062
Wildseweg,1,,,5398KA,Maren-Kessel,Oss,Noord-Brabant,VBO,5.368665,51.766031
Wildseweg,2,,,5398KA,Maren-Kessel,Oss,Noord-Brabant,VBO,5.369192,51.765230
Wildseweg,3,,,5398KA,Maren-Kessel,Oss,Noord-Brabant,VBO,5.371566,51.768565
Wildseweg,4,,,5398KA,Maren-Kessel,Oss,Noord-Brabant,VBO,5.368061,51.764539
Paalderweg,1,A,,5398KB,Maren-Kessel,Oss,Noord-Brabant,VBO,5.367147,51.766059
Paalderweg,1,,,5398KB,Maren-Kessel,Oss,Noord-Brabant,VBO,5.364572,51.768731
Paalderweg,5,,,5398KB,Maren-Kessel,Oss,Noord-Brabant,VBO,5.366335,51.773047
Leeuwkesgraaf,1,,,5398KC,Maren-Kessel,Oss,Noord-Brabant,VBO,5.366093,51.765350
Leeuwkesgraaf,2,,,5398KC,Maren-Kessel,Oss,Noord-Brabant,VBO,5.366399,51.765653
Leeuwkesgraaf,3,A,,5398KC,Maren-Kessel,Oss,Noord-Brabant,VBO,5.366559,51.765275
Leeuwkesgraaf,3,,,5398KC,Maren-Kessel,Oss,Noord-Brabant,VBO,5.366318,51.765314
Leeuwkesgraaf,4,,,5398KC,Maren-Kessel,Oss,Noord-Brabant,VBO,5.367519,51.765643
Leeuwkesgraaf,5,,,5398KC,Maren-Kessel,Oss,Noord-Brabant,VBO,5.368659,51.764246
Leeuwkesgraaf,6,,,5398KC,Maren-Kessel,Oss,Noord-Brabant,VBO,5.367539,51.765503
Leeuwkesgraaf,10,A,,5398KC,Maren-Kessel,Oss,Noord-Brabant,VBO,5.369727,51.763839
Leeuwkesgraaf,10,,,5398KC,Maren-Kessel,Oss,Noord-Brabant,VBO,5.369494,51.764142
Leeuwkesgraaf,12,,,5398KC,Maren-Kessel,Oss,Noord-Brabant,VBO,5.369974,51.763475
Leeuwkesgraaf,13,A,,5398KC,Maren-Kessel,Oss,Noord-Brabant,VBO,5.370518,51.762048
Leeuwkesgraaf,13,,,5398KC,Maren-Kessel,Oss,Noord-Brabant,VBO,5.370644,51.762117
Leeuwkesgraaf,15,,,5398KC,Maren-Kessel,Oss,Noord-Brabant,VBO,5.370346,51.761953
Leeuwkesgraaf,16,,,5398KC,Maren-Kessel,Oss,Noord-Brabant,VBO,5.370639,51.762740
Leeuwkesgraaf,18,,,5398KC,Maren-Kessel,Oss,Noord-Brabant,VBO,5.371125,51.762429
Zandenweg,1,A,,5398KD,Maren-Kessel,Oss,Noord-Brabant,VBO,5.365066,51.762942
Zandenweg,1,B,,5398KD,Maren-Kessel,Oss,Noord-Brabant,VBO,5.365232,51.762962
Zandenweg,1,C,,5398KD,Maren-Kessel,Oss,Noord-Brabant,VBO,5.365397,51.762982
Zandenweg,1,D,,5398KD,Maren-Kessel,Oss,Noord-Brabant,VBO,5.365563,51.763002
Zandenweg,1,E,,5398KD,Maren-Kessel,Oss,Noord-Brabant,VBO,5.365728,51.763024
Zandenweg,1,F,,5398KD,Maren-Kessel,Oss,Noord-Brabant,VBO,5.365894,51.763045
Zandenweg,1,,,5398KD,Maren-Kessel,Oss,Noord-Brabant,VBO,5.364590,51.762794
Zandenweg,2,A,,5398KD,Maren-Kessel,Oss,Noord-Brabant,VBO,5.365630,51.762510
Zandenweg,2,,,5398KD,Maren-Kessel,Oss,Noord-Brabant,VBO,5.364958,51.762409
Zandenweg,3,A,,5398KD,Maren-Kessel,Oss,Noord-Brabant,VBO,5.368454,51.762615
Zandenweg,3,,,5398KD,Maren-Kessel,Oss,Noord-Brabant,VBO,5.366022,51.762531
Zandenweg,4,,,5398KD,Maren-Kessel,Oss,Noord-Brabant,VBO,5.368640,51.762613
Nieuwe Provincialeweg,1,A,,5398KG,Maren-Kessel,Oss,Noord-Brabant,VBO,5.365197,51.766700
Nieuwe Provincialeweg,1,,,5398KG,Maren-Kessel,Oss,Noord-Brabant,VBO,5.364543,51.767158
Nieuwe Provincialeweg,3,A,,5398KG,Maren-Kessel,Oss,Noord-Brabant,VBO,5.366713,51.764935
Nieuwe Provincialeweg,3,B,,5398KG,Maren-Kessel,Oss,Noord-Brabant,VBO,5.366731,51.764782
Nieuwe Provincialeweg,3,,,5398KG,Maren-Kessel,Oss,Noord-Brabant,VBO,5.366704,51.765089
Nieuwe Provincialeweg,5,,,5398KG,Maren-Kessel,Oss,Noord-Brabant,VBO,5.366711,51.764625
Nieuwe Provincialeweg,7,,,5398KG,Maren-Kessel,Oss,Noord-Brabant,VBO,5.366676,51.764463
Nieuwe Provincialeweg,9,,,5398KG,Maren-Kessel,Oss,Noord-Brabant,VBO,5.366651,51.764344
Nieuwe Provincialeweg,11,,,5398KG,Maren-Kessel,Oss,Noord-Brabant,VBO,5.366652,51.764215
Nieuwe Provincialeweg,15,,,5398KG,Maren-Kessel,Oss,Noord-Brabant,VBO,5.366643,51.764072
Nieuwe Provincialeweg,19,,,5398KG,Maren-Kessel,Oss,Noord-Brabant,VBO,5.366527,51.763512
Nieuwe Provincialeweg,21,,,5398KG,Maren-Kessel,Oss,Noord-Brabant,VBO,5.366558,51.763390
Nieuwe Provincialeweg,23,A,,5398KG,Maren-Kessel,Oss,Noord-Brabant,VBO,5.366504,51.763105
Nieuwe Provincialeweg,23,,,5398KG,Maren-Kessel,Oss,Noord-Brabant,VBO,5.366611,51.763236
Nieuwe Provincialeweg,25,,,5398KG,Maren-Kessel,Oss,Noord-Brabant,VBO,5.366414,51.762964
Krommenhoek,1,,,5398KH,Maren-Kessel,Oss,Noord-Brabant,VBO,5.364013,51.760383
Krommenhoek,2,,,5398KH,Maren-Kessel,Oss,Noord-Brabant,VBO,5.363854,51.759906
Krommenhoek,3,,,5398KH,Maren-Kessel,Oss,Noord-Brabant,VBO,5.364705,51.758682
Krommenhoek,4,A,,5398KH,Maren-Kessel,Oss,Noord-Brabant,VBO,5.366438,51.756970
Krommenhoek,4,,,5398KH,Maren-Kessel,Oss,Noord-Brabant,VBO,5.365539,51.757664
Krommenhoek,5,,,5398KH,Maren-Kessel,Oss,Noord-Brabant,VBO,5.363260,51.758323
Krommenhoek,6,,,5398KH,Maren-Kessel,Oss,Noord-Brabant,VBO,5.362951,51.757716
Krommenhoek,7,A,,5398KH,Maren-Kessel,Oss,Noord-Brabant,VBO,5.362698,51.756651
Krommenhoek,7,,,5398KH,Maren-Kessel,Oss,Noord-Brabant,VBO,5.362137,51.756565
Krommenhoek,8,A,,5398KH,Maren-Kessel,Oss,Noord-Brabant,VBO,5.355501,51.753986
Krommenhoek,8,,,5398KH,Maren-Kessel,Oss,Noord-Brabant,VBO,5.357458,51.754878
Nieuweweg,1,A,,5398KJ,Maren-Kessel,Oss,Noord-Brabant,VBO,5.365849,51.764361
Nieuweweg,1,,,5398KJ,Maren-Kessel,Oss,Noord-Brabant,VBO,5.365888,51.764488
Nieuweweg,2,,,5398KJ,Maren-Kessel,Oss,Noord-Brabant,VBO,5.365947,51.764711
Nieuweweg,3,,,5398KJ,Maren-Kessel,Oss,Noord-Brabant,VBO,5.366259,51.763769
Nieuweweg,4,,,5398KJ,Maren-Kessel,Oss,Noord-Brabant,VBO,5.366262,51.764057
Marense Dijk,3,,,5398KL,Maren-Kessel,Oss,Noord-Brabant,VBO,5.383577,51.795239
Marense Dijk,5,,,5398KL,Maren-Kessel,Oss,Noord-Brabant,VBO,5.382172,51.794620
Marense Dijk,7,,,5398KL,Maren-Kessel,Oss,Noord-Brabant,VBO,5.381560,51.794412
Marense Dijk,11,,,5398KL,Maren-Kessel,Oss,Noord-Brabant,VBO,5.379606,51.793784
Marense Dijk,21,,,5398KL,Maren-Kessel,Oss,Noord-Brabant,VBO,5.375510,51.792258
Marense Dijk,23,,,5398KL,Maren-Kessel,Oss,Noord-Brabant,VBO,5.374821,51.791500
Marense Dijk,25,,,5398KL,Maren-Kessel,Oss,Noord-Brabant,VBO,5.374524,51.791096
Marense Dijk,4,A,,5398KM,Maren-Kessel,Oss,Noord-Brabant,VBO,5.382996,51.794722
Marense Dijk,4,,,5398KM,Maren-Kessel,Oss,Noord-Brabant,VBO,5.383670,51.795016
Marense Dijk,6,,,5398KM,Maren-Kessel,Oss,Noord-Brabant,VBO,5.381878,51.794485
Marense Dijk,8,,,5398KM,Maren-Kessel,Oss,Noord-Brabant,VBO,5.380989,51.794284
Marense Dijk,10,,,5398KM,Maren-Kessel,Oss,Noord-Brabant,VBO,5.379793,51.793938
Marense Dijk,12,,,5398KM,Maren-Kessel,Oss,Noord-Brabant,VBO,5.379242,51.793657
Marense Dijk,14,,,5398KM,Maren-Kessel,Oss,Noord-Brabant,VBO,5.378799,51.793494
Marense Dijk,16,,,5398KM,Maren-Kessel,Oss,Noord-Brabant,VBO,5.378034,51.793013
Marense Dijk,18,,,5398KM,Maren-Kessel,Oss,Noord-Brabant,VBO,5.376275,51.792551
Marense Dijk,20,,,5398KM,Maren-Kessel,Oss,Noord-Brabant,VBO,5.375941,51.792601
Marense Dijk,22,A,,5398KM,Maren-Kessel,Oss,Noord-Brabant,VBO,5.375218,51.792019
Marense Dijk,22,,,5398KM,Maren-Kessel,Oss,Noord-Brabant,VBO,5.375494,51.791942
Marense Dijk,24,,,5398KM,Maren-Kessel,Oss,Noord-Brabant,VBO,5.374771,51.791399
Hustenweg,99,,UNIT,5398KN,Maren-Kessel,Oss,Noord-Brabant,VBO,5.358675,51.752451
