openbareruimtenaam,huisnummer,huisletter,huisnummertoevoeging,postcode,woonplaatsnaam,gemeentenaam,provincienaam,typeadresseerbaarobject,longitude,latitude
Kievitweg,7,,,5425PA,De Mortel,Gemert-Bakel,Noord-Brabant,VBO,5.721433,51.528145
Hemelsbleekweg,10,,,5425PB,De Mortel,Gemert-Bakel,Noord-Brabant,VBO,5.703467,51.527417
Hemelsbleekweg,14,,,5425PB,De Mortel,Gemert-Bakel,Noord-Brabant,VBO,5.703890,51.526680
Hemelsbleekweg,15,,,5425PB,De Mortel,Gemert-Bakel,Noord-Brabant,VBO,5.704136,51.526329
Hemelsbleekweg,16,,,5425PB,De Mortel,Gemert-Bakel,Noord-Brabant,VBO,5.705521,51.527158
Hemelsbleekweg,20,,,5425PB,De Mortel,Gemert-Bakel,Noord-Brabant,VBO,5.707393,51.527190
Hemelsbleekweg,24,,,5425PB,De Mortel,Gemert-Bakel,Noord-Brabant,VBO,5.707787,51.528261
Hemelsbleekweg,28,,,5425PB,De Mortel,Gemert-Bakel,Noord-Brabant,VBO,5.710030,51.527501
Hemelsbleekweg,33,,,5425PB,De Mortel,Gemert-Bakel,Noord-Brabant,VBO,5.710952,51.527102
Bakelseweg,11,,,5425PC,De Mortel,Gemert-Bakel,Noord-Brabant,VBO,5.710787,51.535967
Bakelseweg,30,,,5425PC,De Mortel,Gemert-Bakel,Noord-Brabant,VBO,5.714420,51.534544
Bakelseweg,32,,,5425PC,De Mortel,Gemert-Bakel,Noord-Brabant,VBO,5.712465,51.533816
Bakelseweg,59,,,5425PC,De Mortel,Gemert-Bakel,Noord-Brabant,VBO,5.711899,51.527683
Bakelseweg,63,,,5425PC,De Mortel,Gemert-Bakel,Noord-Brabant,VBO,5.712570,51.526363
Lagen-Aarleseweg,3,,,5425PD,De Mortel,Gemert-Bakel,Noord-Brabant,VBO,5.713231,51.527820
Lagen-Aarleseweg,5,,,5425PD,De Mortel,Gemert-Bakel,Noord-Brabant,VBO,5.713177,51.528057
Lagen-Aarleseweg,6,,,5425PD,De Mortel,Gemert-Bakel,Noord-Brabant,VBO,5.713054,51.528483
Lagen-Aarleseweg,7,,,5425PD,De Mortel,Gemert-Bakel,Noord-Brabant,VBO,5.713098,51.527982
Lagen-Aarleseweg,13,,,5425PD,De Mortel,Gemert-Bakel,Noord-Brabant,VBO,5.716342,51.527923
Lagen-Aarleseweg,29,,,5425PD,De Mortel,Gemert-Bakel,Noord-Brabant,VBO,5.720783,51.528593
Renseweg,22,b,,5425PE,De Mortel,Gemert-Bakel,Noord-Brabant,VBO,5.707117,51.538571
Renseweg,22,,,5425PE,De Mortel,Gemert-Bakel,Noord-Brabant,VBO,5.707454,51.539228
Renseweg,24,,,5425PE,De Mortel,Gemert-Bakel,Noord-Brabant,VBO,5.707170,51.538452
Renseweg,26,,,5425PE,De Mortel,Gemert-Bakel,Noord-Brabant,VBO,5.707114,51.538369
Renseweg,39,,,5425PE,De Mortel,Gemert-Bakel,Noord-Brabant,VBO,5.705784,51.536874
Renseweg,41,,,5425PE,De Mortel,Gemert-Bakel,Noord-Brabant,VBO,5.705540,51.537023
Renseweg,47,,,5425PE,De Mortel,Gemert-Bakel,Noord-Brabant,VBO,5.704754,51.536298
Renseweg,50,,,5425PE,De Mortel,Gemert-Bakel,Noord-Brabant,VBO,5.704655,51.535809
Renseweg,51,,,5425PE,De Mortel,Gemert-Bakel,Noord-Brabant,VBO,5.703722,51.535956
Renseweg,52,,,5425PE,De Mortel,Gemert-Bakel,Noord-Brabant,VBO,5.703374,51.535442
Kranebrakenseweg,7,,,5425PG,De Mortel,Gemert-Bakel,Noord-Brabant,VBO,5.703728,51.537093
Kranebrakenseweg,10,,,5425PG,De Mortel,Gemert-Bakel,Noord-Brabant,VBO,5.703277,51.537507
Milschot,19,,,5425PH,De Mortel,Gemert-Bakel,Noord-Brabant,VBO,5.700613,51.532614
Milschot,20,,,5425PH,De Mortel,Gemert-Bakel,Noord-Brabant,VBO,5.702059,51.532587
Milschot,25,,,5425PH,De Mortel,Gemert-Bakel,Noord-Brabant,VBO,5.700888,51.531513
Milschot,27,,,5425PH,De Mortel,Gemert-Bakel,Noord-Brabant,VBO,5.700719,51.531381
Milschot,29,,,5425PH,De Mortel,Gemert-Bakel,Noord-Brabant,VBO,5.700512,51.531044
Milschot,33,,,5425PH,De Mortel,Gemert-Bakel,Noord-Brabant,VBO,5.699923,51.530417
Milschot,35,,,5425PH,De Mortel,Gemert-Bakel,Noord-Brabant,VBO,5.699265,51.529918
Milschot,36,,,5425PH,De Mortel,Gemert-Bakel,Noord-Brabant,VBO,5.699766,51.529157
Milschot,41,,,5425PH,De Mortel,Gemert-Bakel,Noord-Brabant,VBO,5.698027,51.528321
Milschot,43,,,5425PH,De Mortel,Gemert-Bakel,Noord-Brabant,VBO,5.697237,51.528141
Milschot,50,,,5425PH,De Mortel,Gemert-Bakel,Noord-Brabant,VBO,5.695910,51.526344
Milschot,53,,,5425PH,De Mortel,Gemert-Bakel,Noord-Brabant,VBO,5.693197,51.526410
Tereyken,3,,,5425PJ,De Mortel,Gemert-Bakel,Noord-Brabant,VBO,5.691739,51.527096
Tereyken,4,,,5425PJ,De Mortel,Gemert-Bakel,Noord-Brabant,VBO,5.692315,51.525820
Tereyken,6,,,5425PJ,De Mortel,Gemert-Bakel,Noord-Brabant,VBO,5.691559,51.525950
Tereyken,10,,,5425PJ,De Mortel,Gemert-Bakel,Noord-Brabant,VBO,5.690129,51.526126
Tereyken,21,,,5425PJ,De Mortel,Gemert-Bakel,Noord-Brabant,VBO,5.686217,51.528356
Tereyken,25,,,5425PJ,De Mortel,Gemert-Bakel,Noord-Brabant,VBO,5.685212,51.528631
Tereyken,28,,,5425PJ,De Mortel,Gemert-Bakel,Noord-Brabant,VBO,5.684713,51.527995
Tereyken,29,,,5425PJ,De Mortel,Gemert-Bakel,Noord-Brabant,VBO,5.684283,51.528795
Tereyken,30,,,5425PJ,De Mortel,Gemert-Bakel,Noord-Brabant,VBO,5.684117,51.528166
Tereyken,34,,,5425PJ,De Mortel,Gemert-Bakel,Noord-Brabant,VBO,5.683063,51.528324
Meester Derksstraat,2,,,5425PK,De Mortel,Gemert-Bakel,Noord-Brabant,VBO,5.708201,51.540125
Meester Derksstraat,6,,,5425PK,De Mortel,Gemert-Bakel,Noord-Brabant,VBO,5.707862,51.540177
Meester Derksstraat,8,,,5425PK,De Mortel,Gemert-Bakel,Noord-Brabant,VBO,5.707616,51.540215
Meester Derksstraat,10,,,5425PK,De Mortel,Gemert-Bakel,Noord-Brabant,VBO,5.707541,51.540231
Meester Derksstraat,12,,,5425PK,De Mortel,Gemert-Bakel,Noord-Brabant,VBO,5.707350,51.540311
Meester Derksstraat,13,,,5425PK,De Mortel,Gemert-Bakel,Noord-Brabant,VBO,5.707972,51.540405
Meester Derksstraat,14,,,5425PK,De Mortel,Gemert-Bakel,Noord-Brabant,VBO,5.707274,51.540329
Meester Derksstraat,15,,,5425PK,De Mortel,Gemert-Bakel,Noord-Brabant,VBO,5.707899,51.540456
Meester Derksstraat,16,,,5425PK,De Mortel,Gemert-Bakel,Noord-Brabant,VBO,5.707201,51.540347
Meester Derksstraat,17,,,5425PK,De Mortel,Gemert-Bakel,Noord-Brabant,VBO,5.707814,51.540499
Meester Derksstraat,18,,,5425PK,De Mortel,Gemert-Bakel,Noord-Brabant,VBO,5.707125,51.540366
Meester Derksstraat,19,,,5425PK,De Mortel,Gemert-Bakel,Noord-Brabant,VBO,5.707720,51.540532
Meester Derksstraat,20,,,5425PK,De Mortel,Gemert-Bakel,Noord-Brabant,VBO,5.707055,51.540393
Meester Derksstraat,21,,,5425PK,De Mortel,Gemert-Bakel,Noord-Brabant,VBO,5.707614,51.540556
Meester Derksstraat,22,,,5425PK,De Mortel,Gemert-Bakel,Noord-Brabant,VBO,5.706980,51.540411
Meester Derksstraat,23,,,5425PK,De Mortel,Gemert-Bakel,Noord-Brabant,VBO,5.707509,51.540567
Meester Derksstraat,25,,,5425PK,De Mortel,Gemert-Bakel,Noord-Brabant,VBO,5.707315,51.540587
Meester Derksstraat,27,,,5425PK,De Mortel,Gemert-Bakel,Noord-Brabant,VBO,5.707232,51.540603
Meester Derksstraat,29,,,5425PK,De Mortel,Gemert-Bakel,Noord-Brabant,VBO,5.707026,51.540659
Welpenheuvel,1,,,5425PL,De Mortel,Gemert-Bakel,Noord-Brabant,VBO,5.706951,51.537964
Welpenheuvel,2,a,,5425PL,De Mortel,Gemert-Bakel,Noord-Brabant,VBO,5.707141,51.538139
Welpenheuvel,2,,,5425PL,De Mortel,Gemert-Bakel,Noord-Brabant,VBO,5.707031,51.538149
Welpenheuvel,3,,,5425PL,De Mortel,Gemert-Bakel,Noord-Brabant,VBO,5.707110,51.537943
Welpenheuvel,4,,,5425PL,De Mortel,Gemert-Bakel,Noord-Brabant,VBO,5.707335,51.538120
Welpenheuvel,5,,,5425PL,De Mortel,Gemert-Bakel,Noord-Brabant,VBO,5.707263,51.537919
Welpenheuvel,6,,,5425PL,De Mortel,Gemert-Bakel,Noord-Brabant,VBO,5.707450,51.538130
Welpenheuvel,7,,,5425PL,De Mortel,Gemert-Bakel,Noord-Brabant,VBO,5.707462,51.537795
Welpenheuvel,8,,,5425PL,De Mortel,Gemert-Bakel,Noord-Brabant,VBO,5.707648,51.538208
Welpenheuvel,9,,,5425PL,De Mortel,Gemert-Bakel,Noord-Brabant,VBO,5.707669,51.537334
Welpenheuvel,10,,,5425PL,De Mortel,Gemert-Bakel,Noord-Brabant,VBO,5.707768,51.538047
Welpenheuvel,11,,,5425PL,De Mortel,Gemert-Bakel,Noord-Brabant,VBO,5.707869,51.537102
Welpenheuvel,12,,,5425PL,De Mortel,Gemert-Bakel,Noord-Brabant,VBO,5.707851,51.538005
Welpenheuvel,13,,,5425PL,De Mortel,Gemert-Bakel,Noord-Brabant,VBO,5.707756,51.537086
Welpenheuvel,14,,,5425PL,De Mortel,Gemert-Bakel,Noord-Brabant,VBO,5.707815,51.537850
Welpenheuvel,16,,,5425PL,De Mortel,Gemert-Bakel,Noord-Brabant,VBO,5.707850,51.537806
Welpenheuvel,18,,,5425PL,De Mortel,Gemert-Bakel,Noord-Brabant,VBO,5.707931,51.537663
Welpenheuvel,20,,,5425PL,De Mortel,Gemert-Bakel,Noord-Brabant,VBO,5.707965,51.537593
Welpenheuvel,22,,,5425PL,De Mortel,Gemert-Bakel,Noord-Brabant,VBO,5.707934,51.537507
Welpenheuvel,24,,,5425PL,De Mortel,Gemert-Bakel,Noord-Brabant,VBO,5.708121,51.537411
Welpenheuvel,26,,,5425PL,De Mortel,Gemert-Bakel,Noord-Brabant,VBO,5.708146,51.537275
Welpenheuvel,28,,,5425PL,De Mortel,Gemert-Bakel,Noord-Brabant,VBO,5.708253,51.537213
Haardseweg,41,,,5425RA,De Mortel,Gemert-Bakel,Noord-Brabant,VBO,5.742582,51.557773
Haardseweg,51,,,5425RA,De Mortel,Gemert-Bakel,Noord-Brabant,VBO,5.744781,51.558329
Haardseweg,55,,,5425RA,De Mortel,Gemert-Bakel,Noord-Brabant,VBO,5.747695,51.559154
Hanekamseweg,15,,,5425RC,De Mortel,Gemert-Bakel,Noord-Brabant,VBO,5.728126,51.550293
Hanekamseweg,19,,,5425RC,De Mortel,Gemert-Bakel,Noord-Brabant,VBO,5.727993,51.551375
Breemhorstsedijk,36,,,5425RD,De Mortel,Gemert-Bakel,Noord-Brabant,VBO,5.729933,51.551145
Breemhorstsedijk,42,,,5425RD,De Mortel,Gemert-Bakel,Noord-Brabant,VBO,5.731572,51.551463
Breemhorstsedijk,60,,,5425RD,De Mortel,Gemert-Bakel,Noord-Brabant,VBO,5.738471,51.553822
Breemhorstsedijk,65,a,,5425RD,De Mortel,Gemert-Bakel,Noord-Brabant,VBO,5.745301,51.555129
Breemhorstsedijk,65,,,5425RD,De Mortel,Gemert-Bakel,Noord-Brabant,VBO,5.744325,51.554886
Reijseweg,35,,,5425RE,De Mortel,Gemert-Bakel,Noord-Brabant,VBO,5.740644,51.557300
Reijseweg,41,,,5425RE,De Mortel,Gemert-Bakel,Noord-Brabant,VBO,5.743367,51.555272
Renseweg,2,,,5425RG,De Mortel,Gemert-Bakel,Noord-Brabant,VBO,5.708627,51.540029
Renseweg,4,,,5425RG,De Mortel,Gemert-Bakel,Noord-Brabant,VBO,5.708389,51.539904
Renseweg,8,,,5425RG,De Mortel,Gemert-Bakel,Noord-Brabant,VBO,5.708115,51.539797
Renseweg,11,,,5425RG,De Mortel,Gemert-Bakel,Noord-Brabant,VBO,5.707872,51.540037
Renseweg,12,,,5425RG,De Mortel,Gemert-Bakel,Noord-Brabant,VBO,5.707946,51.539723
Renseweg,13,,,5425RG,De Mortel,Gemert-Bakel,Noord-Brabant,VBO,5.707657,51.539946
Renseweg,14,,,5425RG,De Mortel,Gemert-Bakel,Noord-Brabant,VBO,5.707587,51.539622
Renseweg,15,,,5425RG,De Mortel,Gemert-Bakel,Noord-Brabant,VBO,5.707524,51.539846
Renseweg,17,,,5425RG,De Mortel,Gemert-Bakel,Noord-Brabant,VBO,5.707110,51.539787
Renseweg,19,,,5425RG,De Mortel,Gemert-Bakel,Noord-Brabant,VBO,5.707000,51.539645
Renseweg,20,,,5425RG,De Mortel,Gemert-Bakel,Noord-Brabant,VBO,5.707469,51.539379
Renseweg,23,,,5425RG,De Mortel,Gemert-Bakel,Noord-Brabant,VBO,5.707070,51.539439
Renseweg,25,,,5425RG,De Mortel,Gemert-Bakel,Noord-Brabant,VBO,5.707071,51.539295
Renseweg,31,,,5425RG,De Mortel,Gemert-Bakel,Noord-Brabant,VBO,5.707029,51.538986
Koolhof,2,,,5425RH,De Mortel,Gemert-Bakel,Noord-Brabant,VBO,5.706677,51.542065
Koolhof,4,,,5425RH,De Mortel,Gemert-Bakel,Noord-Brabant,VBO,5.706458,51.542071
Koolhof,6,,,5425RH,De Mortel,Gemert-Bakel,Noord-Brabant,VBO,5.706230,51.542017
Koolhof,8,,,5425RH,De Mortel,Gemert-Bakel,Noord-Brabant,VBO,5.706337,51.541823
Koolhof,10,,,5425RH,De Mortel,Gemert-Bakel,Noord-Brabant,VBO,5.706425,51.541711
Koolhof,12,,,5425RH,De Mortel,Gemert-Bakel,Noord-Brabant,VBO,5.706492,51.541591
Koolhof,14,,,5425RH,De Mortel,Gemert-Bakel,Noord-Brabant,VBO,5.707160,51.541217
Koolhof,16,,,5425RH,De Mortel,Gemert-Bakel,Noord-Brabant,VBO,5.706961,51.541117
Koolhof,18,,,5425RH,De Mortel,Gemert-Bakel,Noord-Brabant,VBO,5.706673,51.541070
Koolhof,20,,,5425RH,De Mortel,Gemert-Bakel,Noord-Brabant,VBO,5.706630,51.540844
Koolhof,21,,,5425RH,De Mortel,Gemert-Bakel,Noord-Brabant,VBO,5.705875,51.541982
Koolhof,22,,,5425RH,De Mortel,Gemert-Bakel,Noord-Brabant,VBO,5.706637,51.540710
Koolhof,23,,,5425RH,De Mortel,Gemert-Bakel,Noord-Brabant,VBO,5.705968,51.541827
Koolhof,24,,,5425RH,De Mortel,Gemert-Bakel,Noord-Brabant,VBO,5.706619,51.540451
Koolhof,25,,,5425RH,De Mortel,Gemert-Bakel,Noord-Brabant,VBO,5.706080,51.541685
Koolhof,26,,,5425RH,De Mortel,Gemert-Bakel,Noord-Brabant,VBO,5.706616,51.540401
Koolhof,27,,,5425RH,De Mortel,Gemert-Bakel,Noord-Brabant,VBO,5.706155,51.541548
Koolhof,28,,,5425RH,De Mortel,Gemert-Bakel,Noord-Brabant,VBO,5.706605,51.540289
Koolhof,29,,,5425RH,De Mortel,Gemert-Bakel,Noord-Brabant,VBO,5.706228,51.541397
Koolhof,30,,,5425RH,De Mortel,Gemert-Bakel,Noord-Brabant,VBO,5.706597,51.540239
Koolhof,31,,,5425RH,De Mortel,Gemert-Bakel,Noord-Brabant,VBO,5.706300,51.541264
Koolhof,32,,,5425RH,De Mortel,Gemert-Bakel,Noord-Brabant,VBO,5.706568,51.540130
Koolhof,33,,,5425RH,De Mortel,Gemert-Bakel,Noord-Brabant,VBO,5.706324,51.541110
Koolhof,34,,,5425RH,De Mortel,Gemert-Bakel,Noord-Brabant,VBO,5.706549,51.540079
Koolhof,40,,,5425RH,De Mortel,Gemert-Bakel,Noord-Brabant,VBO,5.707161,51.540066
Koolhof,46,,,5425RH,De Mortel,Gemert-Bakel,Noord-Brabant,VBO,5.706507,51.539754
Koolhof,35,,,5425RJ,De Mortel,Gemert-Bakel,Noord-Brabant,VBO,5.706326,51.540863
Koolhof,37,,,5425RJ,De Mortel,Gemert-Bakel,Noord-Brabant,VBO,5.706102,51.540897
Koolhof,39,,,5425RJ,De Mortel,Gemert-Bakel,Noord-Brabant,VBO,5.705872,51.540980
Koolhof,41,,,5425RJ,De Mortel,Gemert-Bakel,Noord-Brabant,VBO,5.705771,51.540844
Koolhof,43,,,5425RJ,De Mortel,Gemert-Bakel,Noord-Brabant,VBO,5.705736,51.540690
Koolhof,45,,,5425RJ,De Mortel,Gemert-Bakel,Noord-Brabant,VBO,5.705906,51.540644
Koolhof,51,,,5425RJ,De Mortel,Gemert-Bakel,Noord-Brabant,VBO,5.706265,51.540624
Koolhof,53,,,5425RJ,De Mortel,Gemert-Bakel,Noord-Brabant,VBO,5.706262,51.540566
Koolhof,55,,,5425RJ,De Mortel,Gemert-Bakel,Noord-Brabant,VBO,5.706255,51.540450
Koolhof,57,,,5425RJ,De Mortel,Gemert-Bakel,Noord-Brabant,VBO,5.706252,51.540402
Koolhof,59,,,5425RJ,De Mortel,Gemert-Bakel,Noord-Brabant,VBO,5.706249,51.540354
Koolhof,61,,,5425RJ,De Mortel,Gemert-Bakel,Noord-Brabant,VBO,5.705893,51.540381
Koolhof,63,,,5425RJ,De Mortel,Gemert-Bakel,Noord-Brabant,VBO,5.705823,51.540391
Koolhof,65,,,5425RJ,De Mortel,Gemert-Bakel,Noord-Brabant,VBO,5.705622,51.540472
Koolhof,67,,,5425RJ,De Mortel,Gemert-Bakel,Noord-Brabant,VBO,5.705437,51.540240
Koolhof,69,,,5425RJ,De Mortel,Gemert-Bakel,Noord-Brabant,VBO,5.705649,51.540214
Koolhof,71,,,5425RJ,De Mortel,Gemert-Bakel,Noord-Brabant,VBO,5.705853,51.540185
Koolhof,73,,,5425RJ,De Mortel,Gemert-Bakel,Noord-Brabant,VBO,5.706128,51.540148
Koolhof,75,,,5425RJ,De Mortel,Gemert-Bakel,Noord-Brabant,VBO,5.706119,51.540055
Koolhof,77,,,5425RJ,De Mortel,Gemert-Bakel,Noord-Brabant,VBO,5.706033,51.539889
Koolhof,81,,,5425RJ,De Mortel,Gemert-Bakel,Noord-Brabant,VBO,5.705912,51.539699
Koolhof,83,,,5425RJ,De Mortel,Gemert-Bakel,Noord-Brabant,VBO,5.705912,51.539699
Koolhof,85,,,5425RJ,De Mortel,Gemert-Bakel,Noord-Brabant,VBO,5.705912,51.539699
Koolhof,87,,,5425RJ,De Mortel,Gemert-Bakel,Noord-Brabant,VBO,5.705912,51.539699
Koolhof,89,,,5425RJ,De Mortel,Gemert-Bakel,Noord-Brabant,VBO,5.705912,51.539699
Koolhof,91,,,5425RJ,De Mortel,Gemert-Bakel,Noord-Brabant,VBO,5.705912,51.539699
Koolhof,93,,,5425RJ,De Mortel,Gemert-Bakel,Noord-Brabant,VBO,5.706041,51.539546
Koolhof,95,,,5425RJ,De Mortel,Gemert-Bakel,Noord-Brabant,VBO,5.706122,51.539528
Koolhof,97,,,5425RJ,De Mortel,Gemert-Bakel,Noord-Brabant,VBO,5.706293,51.539503
Koolhof,99,,,5425RJ,De Mortel,Gemert-Bakel,Noord-Brabant,VBO,5.706361,51.539488
Koolhof,101,,,5425RJ,De Mortel,Gemert-Bakel,Noord-Brabant,VBO,5.706426,51.539473
Koolhof,103,,,5425RJ,De Mortel,Gemert-Bakel,Noord-Brabant,VBO,5.706493,51.539458
Koolhof,105,,,5425RJ,De Mortel,Gemert-Bakel,Noord-Brabant,VBO,5.706560,51.539442
Dr. de Quayweg,45,,,5425RK,De Mortel,Gemert-Bakel,Noord-Brabant,VBO,5.736118,51.547682
Dr. de Quayweg,57,,,5425RK,De Mortel,Gemert-Bakel,Noord-Brabant,VBO,5.739584,51.548172
Dr. de Quayweg,75,,,5425RK,De Mortel,Gemert-Bakel,Noord-Brabant,VBO,5.749836,51.550845
Dr. de Quayweg,79,,,5425RK,De Mortel,Gemert-Bakel,Noord-Brabant,VBO,5.751419,51.549094
Dr. de Quayweg,44,,,5425RL,De Mortel,Gemert-Bakel,Noord-Brabant,VBO,5.735706,51.548115
Dr. de Quayweg,54,,,5425RL,De Mortel,Gemert-Bakel,Noord-Brabant,VBO,5.738400,51.548408
Dr. de Quayweg,62,,,5425RL,De Mortel,Gemert-Bakel,Noord-Brabant,VBO,5.741867,51.549229
Dr. de Quayweg,66,,,5425RL,De Mortel,Gemert-Bakel,Noord-Brabant,VBO,5.743255,51.549646
Dr. de Quayweg,70,,,5425RL,De Mortel,Gemert-Bakel,Noord-Brabant,VBO,5.744526,51.550030
Dr. de Quayweg,76,,,5425RL,De Mortel,Gemert-Bakel,Noord-Brabant,VBO,5.748754,51.551121
Dr. de Quayweg,80,,,5425RL,De Mortel,Gemert-Bakel,Noord-Brabant,VBO,5.750376,51.553319
Dr. de Quayweg,84,,,5425RL,De Mortel,Gemert-Bakel,Noord-Brabant,VBO,5.750034,51.554781
Zwarte-Waterweg,3,,,5425RM,De Mortel,Gemert-Bakel,Noord-Brabant,VBO,5.746926,51.545526
Zwarte-Waterweg,5,,,5425RM,De Mortel,Gemert-Bakel,Noord-Brabant,VBO,5.747296,51.545582
Zwarte-Waterweg,9,,,5425RM,De Mortel,Gemert-Bakel,Noord-Brabant,VBO,5.750371,51.546156
Zwarte-Waterweg,15,,,5425RM,De Mortel,Gemert-Bakel,Noord-Brabant,VBO,5.754355,51.546930
Zwarte-Waterweg,21,,,5425RM,De Mortel,Gemert-Bakel,Noord-Brabant,VBO,5.757576,51.547480
Patrijsweg,4,,,5425RN,De Mortel,Gemert-Bakel,Noord-Brabant,VBO,5.739878,51.544045
Venraysedijk,37,,,5425RP,De Mortel,Gemert-Bakel,Noord-Brabant,VBO,5.742627,51.541779
Venraysedijk,38,,,5425RP,De Mortel,Gemert-Bakel,Noord-Brabant,VBO,5.743465,51.542754
Venraysedijk,42,,,5425RP,De Mortel,Gemert-Bakel,Noord-Brabant,VBO,5.744747,51.542436
Venraysedijk,50,a,,5425RP,De Mortel,Gemert-Bakel,Noord-Brabant,VBO,5.750494,51.541312
Venraysedijk,50,,,5425RP,De Mortel,Gemert-Bakel,Noord-Brabant,VBO,5.750371,51.541302
Venraysedijk,52,,,5425RP,De Mortel,Gemert-Bakel,Noord-Brabant,VBO,5.752402,51.540816
Venraysedijk,53,,,5425RP,De Mortel,Gemert-Bakel,Noord-Brabant,VBO,5.751686,51.539889
Ontginningsweg,42,,,5425RR,De Mortel,Gemert-Bakel,Noord-Brabant,VBO,5.748516,51.541792
Stippelbergseweg,55,,,5425RR,De Mortel,Gemert-Bakel,Noord-Brabant,VBO,5.748886,51.536823
Hertenbosscheweg,38,,,5425RS,De Mortel,Gemert-Bakel,Noord-Brabant,VBO,5.736345,51.535448
Nachtegaallaan,28,,,5425RT,De Mortel,Gemert-Bakel,Noord-Brabant,VBO,5.725100,51.536624
Nachtegaallaan,29,,,5425RT,De Mortel,Gemert-Bakel,Noord-Brabant,VBO,5.724630,51.535856
Nachtegaallaan,31,,,5425RT,De Mortel,Gemert-Bakel,Noord-Brabant,VBO,5.725606,51.535767
Nachtegaallaan,37,,,5425RT,De Mortel,Gemert-Bakel,Noord-Brabant,VBO,5.728652,51.536714
Nachtegaallaan,40,,,5425RT,De Mortel,Gemert-Bakel,Noord-Brabant,VBO,5.730467,51.537686
Nachtegaallaan,57,,,5425RT,De Mortel,Gemert-Bakel,Noord-Brabant,VBO,5.738373,51.539209
Nachtegaallaan,60,,,5425RT,De Mortel,Gemert-Bakel,Noord-Brabant,VBO,5.738630,51.540518
Nachtegaallaan,62,,,5425RT,De Mortel,Gemert-Bakel,Noord-Brabant,VBO,5.740451,51.540571
Nachtegaallaan,63,,,5425RT,De Mortel,Gemert-Bakel,Noord-Brabant,VBO,5.740366,51.539621
Nachtegaallaan,66,,,5425RT,De Mortel,Gemert-Bakel,Noord-Brabant,VBO,5.741210,51.540310
Nachtegaallaan,73,,,5425RT,De Mortel,Gemert-Bakel,Noord-Brabant,VBO,5.746794,51.541257
Leeuwerikweg,3,,,5425RW,De Mortel,Gemert-Bakel,Noord-Brabant,VBO,5.711852,51.535442
Leeuwerikweg,14,,,5425RW,De Mortel,Gemert-Bakel,Noord-Brabant,VBO,5.713365,51.536448
Leeuwerikweg,15,,,5425RW,De Mortel,Gemert-Bakel,Noord-Brabant,VBO,5.714630,51.536229
Leeuwerikweg,16,,,5425RW,De Mortel,Gemert-Bakel,Noord-Brabant,VBO,5.713200,51.536733
Leeuwerikweg,18,,,5425RW,De Mortel,Gemert-Bakel,Noord-Brabant,VBO,5.714531,51.536689
Leeuwerikweg,31,,,5425RW,De Mortel,Gemert-Bakel,Noord-Brabant,VBO,5.716887,51.537099
Leeuwerikweg,33,,,5425RW,De Mortel,Gemert-Bakel,Noord-Brabant,VBO,5.717649,51.537401
De Bleek,1,,,5425RX,De Mortel,Gemert-Bakel,Noord-Brabant,VBO,5.715826,51.539016
De Bleek,5,,,5425RX,De Mortel,Gemert-Bakel,Noord-Brabant,VBO,5.716279,51.538648
De Bleek,6,,,5425RX,De Mortel,Gemert-Bakel,Noord-Brabant,VBO,5.717108,51.538688
De Bleek,8,,,5425RX,De Mortel,Gemert-Bakel,Noord-Brabant,VBO,5.718006,51.537961
De Bleek,11,,,5425RX,De Mortel,Gemert-Bakel,Noord-Brabant,VBO,5.718106,51.537176
De Bleek,12,,,5425RX,De Mortel,Gemert-Bakel,Noord-Brabant,VBO,5.718966,51.537177
De Bleek,16,,,5425RX,De Mortel,Gemert-Bakel,Noord-Brabant,VBO,5.719782,51.536317
De Bleek,18,,,5425RX,De Mortel,Gemert-Bakel,Noord-Brabant,VBO,5.719997,51.536405
De Bleek,22,,,5425RX,De Mortel,Gemert-Bakel,Noord-Brabant,VBO,5.721535,51.535155
De Bleek,25,,,5425RX,De Mortel,Gemert-Bakel,Noord-Brabant,VBO,5.721693,51.534265
De Bleek,32,,,5425RX,De Mortel,Gemert-Bakel,Noord-Brabant,VBO,5.723368,51.533318
De Bleek,34,,,5425RX,De Mortel,Gemert-Bakel,Noord-Brabant,VBO,5.723775,51.532972
De Bleek,38,,,5425RX,De Mortel,Gemert-Bakel,Noord-Brabant,VBO,5.724379,51.532425
Koekoekweg,4,,,5425RZ,De Mortel,Gemert-Bakel,Noord-Brabant,VBO,5.718949,51.530186
Koekoekweg,6,,,5425RZ,De Mortel,Gemert-Bakel,Noord-Brabant,VBO,5.718897,51.530267
Koekoekweg,13,,,5425RZ,De Mortel,Gemert-Bakel,Noord-Brabant,VBO,5.719521,51.531283
Koekoekweg,20,,,5425RZ,De Mortel,Gemert-Bakel,Noord-Brabant,VBO,5.719588,51.532307
Koekoekweg,26,,,5425RZ,De Mortel,Gemert-Bakel,Noord-Brabant,VBO,5.720653,51.532588
Zandstraat,27,,,5425VA,De Mortel,Gemert-Bakel,Noord-Brabant,VBO,5.699913,51.544786
Zandstraat,29,,,5425VA,De Mortel,Gemert-Bakel,Noord-Brabant,VBO,5.700328,51.544795
Zandstraat,33,,,5425VA,De Mortel,Gemert-Bakel,Noord-Brabant,VBO,5.700956,51.544957
Zandstraat,30,,,5425VB,De Mortel,Gemert-Bakel,Noord-Brabant,VBO,5.700575,51.545359
Zandstraat,32,,,5425VB,De Mortel,Gemert-Bakel,Noord-Brabant,VBO,5.700541,51.545827
Zandstraat,34,,,5425VB,De Mortel,Gemert-Bakel,Noord-Brabant,VBO,5.700953,51.545301
Zandstraat,36,,,5425VB,De Mortel,Gemert-Bakel,Noord-Brabant,VBO,5.701374,51.545327
Zandstraat,38,,,5425VB,De Mortel,Gemert-Bakel,Noord-Brabant,VBO,5.701605,51.545326
De Stap,1,,,5425VC,De Mortel,Gemert-Bakel,Noord-Brabant,VBO,5.701376,51.544940
De Stap,3,,,5425VC,De Mortel,Gemert-Bakel,Noord-Brabant,VBO,5.701729,51.544943
De Stap,4,,,5425VC,De Mortel,Gemert-Bakel,Noord-Brabant,VBO,5.702348,51.545317
De Stap,6,,,5425VC,De Mortel,Gemert-Bakel,Noord-Brabant,VBO,5.702628,51.545254
De Stap,7,,,5425VC,De Mortel,Gemert-Bakel,Noord-Brabant,VBO,5.702681,51.544662
De Stap,12,,,5425VC,De Mortel,Gemert-Bakel,Noord-Brabant,VBO,5.704367,51.544811
St.-Antoniusstraat,1,,,5425VD,De Mortel,Gemert-Bakel,Noord-Brabant,VBO,5.704352,51.544444
St.-Antoniusstraat,2,,,5425VD,De Mortel,Gemert-Bakel,Noord-Brabant,VBO,5.704928,51.544500
St.-Antoniusstraat,6,,,5425VD,De Mortel,Gemert-Bakel,Noord-Brabant,VBO,5.705614,51.544042
St.-Antoniusstraat,9,,,5425VD,De Mortel,Gemert-Bakel,Noord-Brabant,VBO,5.705433,51.543313
St.-Antoniusstraat,16,,,5425VD,De Mortel,Gemert-Bakel,Noord-Brabant,VBO,5.706757,51.542876
St.-Antoniusstraat,17,,,5425VD,De Mortel,Gemert-Bakel,Noord-Brabant,VBO,5.706700,51.542420
St.-Antoniusstraat,18,,,5425VD,De Mortel,Gemert-Bakel,Noord-Brabant,VBO,5.706944,51.542710
St.-Antoniusstraat,20,,,5425VD,De Mortel,Gemert-Bakel,Noord-Brabant,VBO,5.707199,51.542469
St.-Antoniusstraat,21,,,5425VD,De Mortel,Gemert-Bakel,Noord-Brabant,VBO,5.707138,51.541992
St.-Antoniusstraat,22,,,5425VD,De Mortel,Gemert-Bakel,Noord-Brabant,VBO,5.707598,51.542021
St.-Antoniusstraat,24,,,5425VD,De Mortel,Gemert-Bakel,Noord-Brabant,VBO,5.707719,51.541936
St.-Antoniusstraat,27,,,5425VD,De Mortel,Gemert-Bakel,Noord-Brabant,VBO,5.707271,51.541697
St.-Antoniusstraat,29,,,5425VD,De Mortel,Gemert-Bakel,Noord-Brabant,VBO,5.707667,51.541618
St.-Antoniusstraat,31,,,5425VD,De Mortel,Gemert-Bakel,Noord-Brabant,VBO,5.707718,51.541559
St.-Antoniusstraat,30,,,5425VE,De Mortel,Gemert-Bakel,Noord-Brabant,VBO,5.708381,51.541354
St.-Antoniusstraat,32,,,5425VE,De Mortel,Gemert-Bakel,Noord-Brabant,VBO,5.708601,51.541031
St.-Antoniusstraat,34,,,5425VE,De Mortel,Gemert-Bakel,Noord-Brabant,VBO,5.708697,51.540778
St.-Antoniusstraat,35,,,5425VE,De Mortel,Gemert-Bakel,Noord-Brabant,VBO,5.707752,51.541308
St.-Antoniusstraat,39,,,5425VE,De Mortel,Gemert-Bakel,Noord-Brabant,VBO,5.707974,51.541190
St.-Antoniusstraat,41,,,5425VE,De Mortel,Gemert-Bakel,Noord-Brabant,VBO,5.708024,51.541123
St.-Antoniusstraat,43,,,5425VE,De Mortel,Gemert-Bakel,Noord-Brabant,VBO,5.708083,51.541039
St.-Antoniusstraat,45,,,5425VE,De Mortel,Gemert-Bakel,Noord-Brabant,VBO,5.708125,51.540983
St.-Antoniusstraat,47,,,5425VE,De Mortel,Gemert-Bakel,Noord-Brabant,VBO,5.708178,51.540910
St.-Antoniusstraat,49,a,,5425VE,De Mortel,Gemert-Bakel,Noord-Brabant,VBO,5.707965,51.540821
St.-Antoniusstraat,49,b,,5425VE,De Mortel,Gemert-Bakel,Noord-Brabant,VBO,5.707696,51.540784
St.-Antoniusstraat,49,,,5425VE,De Mortel,Gemert-Bakel,Noord-Brabant,VBO,5.708227,51.540843
St.-Antoniusstraat,51,,,5425VE,De Mortel,Gemert-Bakel,Noord-Brabant,VBO,5.708335,51.540685
St.-Antoniusstraat,53,,,5425VE,De Mortel,Gemert-Bakel,Noord-Brabant,VBO,5.708398,51.540592
St.-Antoniusstraat,55,,,5425VE,De Mortel,Gemert-Bakel,Noord-Brabant,VBO,5.708486,51.540458
St.-Antoniusstraat,57,,,5425VE,De Mortel,Gemert-Bakel,Noord-Brabant,VBO,5.708549,51.540367
St.-Antoniusstraat,59,,,5425VE,De Mortel,Gemert-Bakel,Noord-Brabant,VBO,5.708612,51.540276
Vraant,1,,,5425VG,De Mortel,Gemert-Bakel,Noord-Brabant,VBO,5.710407,51.536943
Vraant,3,,,5425VG,De Mortel,Gemert-Bakel,Noord-Brabant,VBO,5.710166,51.536872
Vraant,5,,,5425VG,De Mortel,Gemert-Bakel,Noord-Brabant,VBO,5.710082,51.536860
Vraant,7,,,5425VG,De Mortel,Gemert-Bakel,Noord-Brabant,VBO,5.709916,51.536790
Vraant,9,,,5425VG,De Mortel,Gemert-Bakel,Noord-Brabant,VBO,5.709805,51.536769
Vraant,11,,,5425VG,De Mortel,Gemert-Bakel,Noord-Brabant,VBO,5.709488,51.536674
Vraant,13,,,5425VG,De Mortel,Gemert-Bakel,Noord-Brabant,VBO,5.709433,51.536767
Vraant,15,,,5425VG,De Mortel,Gemert-Bakel,Noord-Brabant,VBO,5.709381,51.536853
Kastanjelaan,2,,,5425VH,De Mortel,Gemert-Bakel,Noord-Brabant,VBO,5.708190,51.541778
Kastanjelaan,4,,,5425VH,De Mortel,Gemert-Bakel,Noord-Brabant,VBO,5.708277,51.541748
Kastanjelaan,6,,,5425VH,De Mortel,Gemert-Bakel,Noord-Brabant,VBO,5.708576,51.541648
Kastanjelaan,8,,,5425VH,De Mortel,Gemert-Bakel,Noord-Brabant,VBO,5.708652,51.541623
Kastanjelaan,10,,,5425VH,De Mortel,Gemert-Bakel,Noord-Brabant,VBO,5.708903,51.541538
Kastanjelaan,12,,,5425VH,De Mortel,Gemert-Bakel,Noord-Brabant,VBO,5.708996,51.541507
Kastanjelaan,14,,,5425VH,De Mortel,Gemert-Bakel,Noord-Brabant,VBO,5.709551,51.541475
Kastanjelaan,22,,,5425VH,De Mortel,Gemert-Bakel,Noord-Brabant,VBO,5.709685,51.541277
Kastanjelaan,24,,,5425VH,De Mortel,Gemert-Bakel,Noord-Brabant,VBO,5.709916,51.541200
Kastanjelaan,26,,,5425VH,De Mortel,Gemert-Bakel,Noord-Brabant,VBO,5.710009,51.541169
St.-Luciastraat,1,,,5425VJ,De Mortel,Gemert-Bakel,Noord-Brabant,VBO,5.709001,51.539196
St.-Luciastraat,3,,,5425VJ,De Mortel,Gemert-Bakel,Noord-Brabant,VBO,5.708884,51.539142
St.-Luciastraat,4,,,5425VJ,De Mortel,Gemert-Bakel,Noord-Brabant,VBO,5.709182,51.539010
St.-Luciastraat,5,,,5425VJ,De Mortel,Gemert-Bakel,Noord-Brabant,VBO,5.708776,51.539092
St.-Luciastraat,7,,,5425VJ,De Mortel,Gemert-Bakel,Noord-Brabant,VBO,5.708685,51.539021
St.-Luciastraat,8,,,5425VJ,De Mortel,Gemert-Bakel,Noord-Brabant,VBO,5.708963,51.538896
St.-Luciastraat,9,,,5425VJ,De Mortel,Gemert-Bakel,Noord-Brabant,VBO,5.708607,51.538985
St.-Luciastraat,11,,,5425VJ,De Mortel,Gemert-Bakel,Noord-Brabant,VBO,5.708531,51.538950
St.-Luciastraat,12,,,5425VJ,De Mortel,Gemert-Bakel,Noord-Brabant,VBO,5.708743,51.538794
St.-Luciastraat,13,,,5425VJ,De Mortel,Gemert-Bakel,Noord-Brabant,VBO,5.708454,51.538914
St.-Luciastraat,15,,,5425VJ,De Mortel,Gemert-Bakel,Noord-Brabant,VBO,5.708377,51.538879
Vossenheuvel,3,,,5425VK,De Mortel,Gemert-Bakel,Noord-Brabant,VBO,5.707370,51.538834
Vossenheuvel,5,,,5425VK,De Mortel,Gemert-Bakel,Noord-Brabant,VBO,5.707461,51.538801
Vossenheuvel,7,,,5425VK,De Mortel,Gemert-Bakel,Noord-Brabant,VBO,5.707633,51.538733
Vossenheuvel,9,,,5425VK,De Mortel,Gemert-Bakel,Noord-Brabant,VBO,5.707798,51.538653
Vossenheuvel,11,,,5425VK,De Mortel,Gemert-Bakel,Noord-Brabant,VBO,5.707951,51.538567
Vossenheuvel,13,,,5425VK,De Mortel,Gemert-Bakel,Noord-Brabant,VBO,5.708084,51.538467
Vossenheuvel,17,,,5425VK,De Mortel,Gemert-Bakel,Noord-Brabant,VBO,5.708207,51.538367
Vossenheuvel,19,,,5425VK,De Mortel,Gemert-Bakel,Noord-Brabant,VBO,5.708342,51.538252
Vossenheuvel,21,,,5425VK,De Mortel,Gemert-Bakel,Noord-Brabant,VBO,5.708461,51.538150
Vossenheuvel,23,,,5425VK,De Mortel,Gemert-Bakel,Noord-Brabant,VBO,5.708597,51.538036
Vossenheuvel,25,,,5425VK,De Mortel,Gemert-Bakel,Noord-Brabant,VBO,5.708653,51.537988
Vossenheuvel,27,,,5425VK,De Mortel,Gemert-Bakel,Noord-Brabant,VBO,5.708766,51.537879
Vossenheuvel,29,,,5425VK,De Mortel,Gemert-Bakel,Noord-Brabant,VBO,5.708810,51.537833
Vossenheuvel,31,,,5425VK,De Mortel,Gemert-Bakel,Noord-Brabant,VBO,5.708907,51.537735
Vossenheuvel,33,,,5425VK,De Mortel,Gemert-Bakel,Noord-Brabant,VBO,5.708950,51.537689
Vossenheuvel,35,,,5425VK,De Mortel,Gemert-Bakel,Noord-Brabant,VBO,5.709054,51.537573
Vossenheuvel,37,,,5425VK,De Mortel,Gemert-Bakel,Noord-Brabant,VBO,5.709096,51.537517
Vossenheuvel,2,,,5425VL,De Mortel,Gemert-Bakel,Noord-Brabant,VBO,5.707445,51.539087
Vossenheuvel,6,,,5425VL,De Mortel,Gemert-Bakel,Noord-Brabant,VBO,5.707744,51.538986
Vossenheuvel,10,,,5425VL,De Mortel,Gemert-Bakel,Noord-Brabant,VBO,5.708057,51.538870
Vossenheuvel,14,,,5425VL,De Mortel,Gemert-Bakel,Noord-Brabant,VBO,5.708434,51.538644
Vossenheuvel,16,,,5425VL,De Mortel,Gemert-Bakel,Noord-Brabant,VBO,5.708584,51.538518
Vossenheuvel,18,,,5425VL,De Mortel,Gemert-Bakel,Noord-Brabant,VBO,5.708643,51.538469
Vossenheuvel,20,,,5425VL,De Mortel,Gemert-Bakel,Noord-Brabant,VBO,5.708750,51.538375
Vossenheuvel,24,,,5425VL,De Mortel,Gemert-Bakel,Noord-Brabant,VBO,5.708843,51.538275
Vossenheuvel,26,,,5425VL,De Mortel,Gemert-Bakel,Noord-Brabant,VBO,5.708965,51.538168
Vossenheuvel,30,,,5425VL,De Mortel,Gemert-Bakel,Noord-Brabant,VBO,5.709097,51.538053
Vossenheuvel,32,,,5425VL,De Mortel,Gemert-Bakel,Noord-Brabant,VBO,5.709247,51.537908
Vossenheuvel,34,,,5425VL,De Mortel,Gemert-Bakel,Noord-Brabant,VBO,5.709297,51.537859
Rector de Vethstraat,3,,,5425VM,De Mortel,Gemert-Bakel,Noord-Brabant,VBO,5.710024,51.537743
Rector de Vethstraat,4,,,5425VM,De Mortel,Gemert-Bakel,Noord-Brabant,VBO,5.710457,51.537510
Rector de Vethstraat,5,,,5425VM,De Mortel,Gemert-Bakel,Noord-Brabant,VBO,5.709941,51.537731
Rector de Vethstraat,6,,,5425VM,De Mortel,Gemert-Bakel,Noord-Brabant,VBO,5.710257,51.537482
Rector de Vethstraat,7,,,5425VM,De Mortel,Gemert-Bakel,Noord-Brabant,VBO,5.709771,51.537708
Rector de Vethstraat,8,,,5425VM,De Mortel,Gemert-Bakel,Noord-Brabant,VBO,5.710154,51.537467
Rector de Vethstraat,9,,,5425VM,De Mortel,Gemert-Bakel,Noord-Brabant,VBO,5.709686,51.537696
Rector de Vethstraat,10,,,5425VM,De Mortel,Gemert-Bakel,Noord-Brabant,VBO,5.709938,51.537438
Rector de Vethstraat,11,,,5425VM,De Mortel,Gemert-Bakel,Noord-Brabant,VBO,5.709479,51.537668
Rector de Vethstraat,12,,,5425VM,De Mortel,Gemert-Bakel,Noord-Brabant,VBO,5.709852,51.537426
Rector de Vethstraat,14,,,5425VM,De Mortel,Gemert-Bakel,Noord-Brabant,VBO,5.709625,51.537395
Rector de Vethstraat,16,,,5425VM,De Mortel,Gemert-Bakel,Noord-Brabant,VBO,5.709542,51.537384
Rector de Vethstraat,18,,,5425VM,De Mortel,Gemert-Bakel,Noord-Brabant,VBO,5.709335,51.537328
Abtshof,1,,,5425VN,De Mortel,Gemert-Bakel,Noord-Brabant,VBO,5.712536,51.540329
Abtshof,2,,,5425VN,De Mortel,Gemert-Bakel,Noord-Brabant,VBO,5.712873,51.540453
Abtshof,3,,,5425VN,De Mortel,Gemert-Bakel,Noord-Brabant,VBO,5.712693,51.540208
Abtshof,4,,,5425VN,De Mortel,Gemert-Bakel,Noord-Brabant,VBO,5.713131,51.540572
Abtshof,5,,,5425VN,De Mortel,Gemert-Bakel,Noord-Brabant,VBO,5.712863,51.540077
Abtshof,6,,,5425VN,De Mortel,Gemert-Bakel,Noord-Brabant,VBO,5.713369,51.540650
Abtshof,7,,,5425VN,De Mortel,Gemert-Bakel,Noord-Brabant,VBO,5.713034,51.539945
Abtshof,8,,,5425VN,De Mortel,Gemert-Bakel,Noord-Brabant,VBO,5.713087,51.540261
Abtshof,9,,,5425VN,De Mortel,Gemert-Bakel,Noord-Brabant,VBO,5.713183,51.539830
Abtshof,10,,,5425VN,De Mortel,Gemert-Bakel,Noord-Brabant,VBO,5.713259,51.540132
Abtshof,11,,,5425VN,De Mortel,Gemert-Bakel,Noord-Brabant,VBO,5.713344,51.539706
Abtshof,12,,,5425VN,De Mortel,Gemert-Bakel,Noord-Brabant,VBO,5.713399,51.540203
Abtshof,13,,,5425VN,De Mortel,Gemert-Bakel,Noord-Brabant,VBO,5.713487,51.539594
Abtshof,14,,,5425VN,De Mortel,Gemert-Bakel,Noord-Brabant,VBO,5.713474,51.540333
Abtshof,15,,,5425VN,De Mortel,Gemert-Bakel,Noord-Brabant,VBO,5.713628,51.539502
Abtshof,16,,,5425VN,De Mortel,Gemert-Bakel,Noord-Brabant,VBO,5.713664,51.540412
Abtshof,17,,,5425VN,De Mortel,Gemert-Bakel,Noord-Brabant,VBO,5.713763,51.539426
Abtshof,18,,,5425VN,De Mortel,Gemert-Bakel,Noord-Brabant,VBO,5.713961,51.540272
Abtshof,19,,,5425VN,De Mortel,Gemert-Bakel,Noord-Brabant,VBO,5.713820,51.539385
Abtshof,20,,,5425VN,De Mortel,Gemert-Bakel,Noord-Brabant,VBO,5.713746,51.540128
Abtshof,22,,,5425VN,De Mortel,Gemert-Bakel,Noord-Brabant,VBO,5.713523,51.540025
Abtshof,24,,,5425VN,De Mortel,Gemert-Bakel,Noord-Brabant,VBO,5.713622,51.539849
Abtshof,26,,,5425VN,De Mortel,Gemert-Bakel,Noord-Brabant,VBO,5.713761,51.539746
Abtshof,28,,,5425VN,De Mortel,Gemert-Bakel,Noord-Brabant,VBO,5.714050,51.539901
Abtshof,30,,,5425VN,De Mortel,Gemert-Bakel,Noord-Brabant,VBO,5.714247,51.540045
Abtshof,32,,,5425VN,De Mortel,Gemert-Bakel,Noord-Brabant,VBO,5.714897,51.539713
Abtshof,34,,,5425VN,De Mortel,Gemert-Bakel,Noord-Brabant,VBO,5.714723,51.539647
Abtshof,36,,,5425VN,De Mortel,Gemert-Bakel,Noord-Brabant,VBO,5.714575,51.539569
Abtshof,38,,,5425VN,De Mortel,Gemert-Bakel,Noord-Brabant,VBO,5.714443,51.539473
Abtshof,40,,,5425VN,De Mortel,Gemert-Bakel,Noord-Brabant,VBO,5.714372,51.539431
Abtshof,42,,,5425VN,De Mortel,Gemert-Bakel,Noord-Brabant,VBO,5.714260,51.539361
Abtshof,44,,,5425VN,De Mortel,Gemert-Bakel,Noord-Brabant,VBO,5.714195,51.539315
Abtshof,46,,,5425VN,De Mortel,Gemert-Bakel,Noord-Brabant,VBO,5.714080,51.539246
Abtshof,48,,,5425VN,De Mortel,Gemert-Bakel,Noord-Brabant,VBO,5.714006,51.539203
Abtshof,50,,,5425VN,De Mortel,Gemert-Bakel,Noord-Brabant,VBO,5.713883,51.539140
Abtshof,52,,,5425VN,De Mortel,Gemert-Bakel,Noord-Brabant,VBO,5.713808,51.539095
Abtshof,54,,,5425VN,De Mortel,Gemert-Bakel,Noord-Brabant,VBO,5.713685,51.539021
Abtshof,56,,,5425VN,De Mortel,Gemert-Bakel,Noord-Brabant,VBO,5.713624,51.538995
Abtshof,58,,,5425VN,De Mortel,Gemert-Bakel,Noord-Brabant,VBO,5.713563,51.538968
Oude-Molenweg,7,,,5425VP,De Mortel,Gemert-Bakel,Noord-Brabant,VBO,5.708841,51.539903
Oude-Molenweg,9,,,5425VP,De Mortel,Gemert-Bakel,Noord-Brabant,VBO,5.708778,51.539715
Oude-Molenweg,11,,,5425VP,De Mortel,Gemert-Bakel,Noord-Brabant,VBO,5.708593,51.539610
Oude-Molenweg,13,,,5425VP,De Mortel,Gemert-Bakel,Noord-Brabant,VBO,5.708626,51.539516
Oude-Molenweg,15,a,,5425VP,De Mortel,Gemert-Bakel,Noord-Brabant,VBO,5.709160,51.539402
Oude-Molenweg,15,b,,5425VP,De Mortel,Gemert-Bakel,Noord-Brabant,VBO,5.709160,51.539402
Oude-Molenweg,15,c,,5425VP,De Mortel,Gemert-Bakel,Noord-Brabant,VBO,5.709160,51.539402
Oude-Molenweg,15,,,5425VP,De Mortel,Gemert-Bakel,Noord-Brabant,VBO,5.709208,51.539338
Oude-Molenweg,17,a,,5425VP,De Mortel,Gemert-Bakel,Noord-Brabant,VBO,5.709125,51.539390
Oude-Molenweg,17,b,,5425VP,De Mortel,Gemert-Bakel,Noord-Brabant,VBO,5.709125,51.539390
Oude-Molenweg,17,c,,5425VP,De Mortel,Gemert-Bakel,Noord-Brabant,VBO,5.709125,51.539390
Oude-Molenweg,17,,,5425VP,De Mortel,Gemert-Bakel,Noord-Brabant,VBO,5.709173,51.539325
Oude-Molenweg,19,a,,5425VP,De Mortel,Gemert-Bakel,Noord-Brabant,VBO,5.709084,51.539377
Oude-Molenweg,19,b,,5425VP,De Mortel,Gemert-Bakel,Noord-Brabant,VBO,5.709084,51.539377
Oude-Molenweg,19,,,5425VP,De Mortel,Gemert-Bakel,Noord-Brabant,VBO,5.709132,51.539312
Oude-Molenweg,21,a,,5425VP,De Mortel,Gemert-Bakel,Noord-Brabant,VBO,5.709459,51.539043
Oude-Molenweg,21,,,5425VP,De Mortel,Gemert-Bakel,Noord-Brabant,VBO,5.709390,51.539127
Oude-Molenweg,23,,,5425VP,De Mortel,Gemert-Bakel,Noord-Brabant,VBO,5.709525,51.538933
Oude-Molenweg,29,,,5425VP,De Mortel,Gemert-Bakel,Noord-Brabant,VBO,5.709666,51.538790
Oude-Molenweg,31,,,5425VP,De Mortel,Gemert-Bakel,Noord-Brabant,VBO,5.709778,51.538664
Oude-Molenweg,35,,,5425VP,De Mortel,Gemert-Bakel,Noord-Brabant,VBO,5.709926,51.538544
Oude-Molenweg,37,,,5425VP,De Mortel,Gemert-Bakel,Noord-Brabant,VBO,5.710001,51.538459
Oude-Molenweg,43,a,,5425VP,De Mortel,Gemert-Bakel,Noord-Brabant,VBO,5.709912,51.538102
Oude-Molenweg,43,,,5425VP,De Mortel,Gemert-Bakel,Noord-Brabant,VBO,5.709986,51.538113
Oude-Molenweg,45,,,5425VP,De Mortel,Gemert-Bakel,Noord-Brabant,VBO,5.710207,51.538231
Oude-Molenweg,51,,,5425VP,De Mortel,Gemert-Bakel,Noord-Brabant,VBO,5.710347,51.538093
Oude-Molenweg,55,,,5425VP,De Mortel,Gemert-Bakel,Noord-Brabant,VBO,5.710427,51.537838
Oude-Molenweg,4,,,5425VR,De Mortel,Gemert-Bakel,Noord-Brabant,VBO,5.709241,51.540197
Oude-Molenweg,10,,,5425VR,De Mortel,Gemert-Bakel,Noord-Brabant,VBO,5.710076,51.539973
Oude-Molenweg,12,,,5425VR,De Mortel,Gemert-Bakel,Noord-Brabant,VBO,5.709642,51.539774
Oude-Molenweg,14,,,5425VR,De Mortel,Gemert-Bakel,Noord-Brabant,VBO,5.709793,51.539611
Oude-Molenweg,22,a,,5425VR,De Mortel,Gemert-Bakel,Noord-Brabant,VBO,5.709814,51.539314
Oude-Molenweg,22,b,,5425VR,De Mortel,Gemert-Bakel,Noord-Brabant,VBO,5.709847,51.539269
Oude-Molenweg,22,,,5425VR,De Mortel,Gemert-Bakel,Noord-Brabant,VBO,5.709720,51.539261
Oude-Molenweg,24,,,5425VR,De Mortel,Gemert-Bakel,Noord-Brabant,VBO,5.709862,51.539103
Oude-Molenweg,28,,,5425VR,De Mortel,Gemert-Bakel,Noord-Brabant,VBO,5.710096,51.538995
Oude-Molenweg,30,,,5425VR,De Mortel,Gemert-Bakel,Noord-Brabant,VBO,5.710024,51.538920
Oude-Molenweg,32,,,5425VR,De Mortel,Gemert-Bakel,Noord-Brabant,VBO,5.710451,51.539030
Oude-Molenweg,40,,,5425VR,De Mortel,Gemert-Bakel,Noord-Brabant,VBO,5.710312,51.538560
Oude-Molenweg,44,,,5425VR,De Mortel,Gemert-Bakel,Noord-Brabant,VBO,5.710448,51.538405
Oude-Molenweg,46,,,5425VR,De Mortel,Gemert-Bakel,Noord-Brabant,VBO,5.710498,51.538353
Oude-Molenweg,52,,,5425VR,De Mortel,Gemert-Bakel,Noord-Brabant,VBO,5.710761,51.538176
Oude-Molenweg,54,,,5425VR,De Mortel,Gemert-Bakel,Noord-Brabant,VBO,5.710771,51.538015
Oude-Molenweg,56,,,5425VR,De Mortel,Gemert-Bakel,Noord-Brabant,VBO,5.710798,51.537952
Oude-Molenweg,58,,,5425VR,De Mortel,Gemert-Bakel,Noord-Brabant,VBO,5.710855,51.537817
De Smagt,3,,,5425VS,De Mortel,Gemert-Bakel,Noord-Brabant,VBO,5.711286,51.537650
De Smagt,5,,,5425VS,De Mortel,Gemert-Bakel,Noord-Brabant,VBO,5.711497,51.537693
De Smagt,6,,,5425VS,De Mortel,Gemert-Bakel,Noord-Brabant,VBO,5.711276,51.537917
De Smagt,7,,,5425VS,De Mortel,Gemert-Bakel,Noord-Brabant,VBO,5.711648,51.537759
De Smagt,8,,,5425VS,De Mortel,Gemert-Bakel,Noord-Brabant,VBO,5.711475,51.537978
De Smagt,9,,,5425VS,De Mortel,Gemert-Bakel,Noord-Brabant,VBO,5.711820,51.537809
De Smagt,10,,,5425VS,De Mortel,Gemert-Bakel,Noord-Brabant,VBO,5.711694,51.538044
De Smagt,11,,,5425VS,De Mortel,Gemert-Bakel,Noord-Brabant,VBO,5.712030,51.537871
De Smagt,12,,,5425VS,De Mortel,Gemert-Bakel,Noord-Brabant,VBO,5.711876,51.538091
De Smagt,13,,,5425VS,De Mortel,Gemert-Bakel,Noord-Brabant,VBO,5.712195,51.537919
De Smagt,15,,,5425VS,De Mortel,Gemert-Bakel,Noord-Brabant,VBO,5.712288,51.537946
De Smagt,16,,,5425VS,De Mortel,Gemert-Bakel,Noord-Brabant,VBO,5.712248,51.538199
De Smagt,17,,,5425VS,De Mortel,Gemert-Bakel,Noord-Brabant,VBO,5.712470,51.537999
De Smagt,18,,,5425VS,De Mortel,Gemert-Bakel,Noord-Brabant,VBO,5.712413,51.538247
De Smagt,19,,,5425VS,De Mortel,Gemert-Bakel,Noord-Brabant,VBO,5.712563,51.538026
De Smagt,20,,,5425VS,De Mortel,Gemert-Bakel,Noord-Brabant,VBO,5.712616,51.538307
De Smagt,21,,,5425VS,De Mortel,Gemert-Bakel,Noord-Brabant,VBO,5.712752,51.538081
De Smagt,23,,,5425VS,De Mortel,Gemert-Bakel,Noord-Brabant,VBO,5.712953,51.538130
De Smagt,25,a,,5425VS,De Mortel,Gemert-Bakel,Noord-Brabant,VBO,5.712709,51.537675
De Smagt,25,b,,5425VS,De Mortel,Gemert-Bakel,Noord-Brabant,VBO,5.714807,51.537871
De Smagt,25,,,5425VS,De Mortel,Gemert-Bakel,Noord-Brabant,VBO,5.713045,51.538157
De Smagt,27,z,,5425VS,De Mortel,Gemert-Bakel,Noord-Brabant,VBO,5.713440,51.538108
De Smagt,27,,,5425VS,De Mortel,Gemert-Bakel,Noord-Brabant,VBO,5.713398,51.538270
De Smagt,28,,,5425VS,De Mortel,Gemert-Bakel,Noord-Brabant,VBO,5.713552,51.538547
De Smagt,29,,,5425VS,De Mortel,Gemert-Bakel,Noord-Brabant,VBO,5.713593,51.538327
De Smagt,30,,,5425VS,De Mortel,Gemert-Bakel,Noord-Brabant,VBO,5.713600,51.538566
De Smagt,31,,,5425VS,De Mortel,Gemert-Bakel,Noord-Brabant,VBO,5.713808,51.538390
De Smagt,32,,,5425VS,De Mortel,Gemert-Bakel,Noord-Brabant,VBO,5.713647,51.538585
De Smagt,34,,,5425VS,De Mortel,Gemert-Bakel,Noord-Brabant,VBO,5.713695,51.538604
De Smagt,35,,,5425VS,De Mortel,Gemert-Bakel,Noord-Brabant,VBO,5.714183,51.538298
De Smagt,36,,,5425VS,De Mortel,Gemert-Bakel,Noord-Brabant,VBO,5.713893,51.538660
De Smagt,38,,,5425VS,De Mortel,Gemert-Bakel,Noord-Brabant,VBO,5.713976,51.538685
De Smagt,39,,,5425VS,De Mortel,Gemert-Bakel,Noord-Brabant,VBO,5.714482,51.538352
De Smagt,40,,,5425VS,De Mortel,Gemert-Bakel,Noord-Brabant,VBO,5.714206,51.538778
De Smagt,41,a,,5425VS,De Mortel,Gemert-Bakel,Noord-Brabant,VBO,5.714771,51.538653
De Smagt,41,,,5425VS,De Mortel,Gemert-Bakel,Noord-Brabant,VBO,5.714641,51.538390
De Smagt,43,,,5425VS,De Mortel,Gemert-Bakel,Noord-Brabant,VBO,5.714948,51.538707
De Smagt,44,,,5425VS,De Mortel,Gemert-Bakel,Noord-Brabant,VBO,5.714416,51.539001
De Smagt,45,,,5425VS,De Mortel,Gemert-Bakel,Noord-Brabant,VBO,5.715145,51.538520
De Smagt,46,,,5425VS,De Mortel,Gemert-Bakel,Noord-Brabant,VBO,5.714653,51.538924
De Smagt,48,,,5425VS,De Mortel,Gemert-Bakel,Noord-Brabant,VBO,5.715045,51.539083
De Smagt,49,,,5425VS,De Mortel,Gemert-Bakel,Noord-Brabant,VBO,5.715457,51.538788
De Smagt,52,,,5425VS,De Mortel,Gemert-Bakel,Noord-Brabant,VBO,5.715336,51.539218
De Smagt,54,,,5425VS,De Mortel,Gemert-Bakel,Noord-Brabant,VBO,5.715029,51.539438
Hemelstraat,2,a,,5425VT,De Mortel,Gemert-Bakel,Noord-Brabant,VBO,5.711143,51.539496
Hemelstraat,2,,,5425VT,De Mortel,Gemert-Bakel,Noord-Brabant,VBO,5.711051,51.539575
Hemelstraat,4,,,5425VT,De Mortel,Gemert-Bakel,Noord-Brabant,VBO,5.711180,51.539458
Hemelstraat,5,,,5425VT,De Mortel,Gemert-Bakel,Noord-Brabant,VBO,5.710878,51.539260
Hemelstraat,6,,,5425VT,De Mortel,Gemert-Bakel,Noord-Brabant,VBO,5.711217,51.539422
Hemelstraat,7,,,5425VT,De Mortel,Gemert-Bakel,Noord-Brabant,VBO,5.710994,51.539143
Hemelstraat,8,,,5425VT,De Mortel,Gemert-Bakel,Noord-Brabant,VBO,5.711254,51.539384
Hemelstraat,9,,,5425VT,De Mortel,Gemert-Bakel,Noord-Brabant,VBO,5.711117,51.539019
Hemelstraat,10,,,5425VT,De Mortel,Gemert-Bakel,Noord-Brabant,VBO,5.711292,51.539346
Hemelstraat,12,,,5425VT,De Mortel,Gemert-Bakel,Noord-Brabant,VBO,5.711378,51.539277
Hemelstraat,13,,,5425VT,De Mortel,Gemert-Bakel,Noord-Brabant,VBO,5.711415,51.538690
Hemelstraat,14,,,5425VT,De Mortel,Gemert-Bakel,Noord-Brabant,VBO,5.711423,51.539232
Hemelstraat,15,,,5425VT,De Mortel,Gemert-Bakel,Noord-Brabant,VBO,5.711527,51.538576
Hemelstraat,16,a,,5425VT,De Mortel,Gemert-Bakel,Noord-Brabant,VBO,5.711693,51.538900
Hemelstraat,16,,,5425VT,De Mortel,Gemert-Bakel,Noord-Brabant,VBO,5.711473,51.539122
Hemelstraat,18,,,5425VT,De Mortel,Gemert-Bakel,Noord-Brabant,VBO,5.711968,51.538614
Hemelstraat,20,,,5425VT,De Mortel,Gemert-Bakel,Noord-Brabant,VBO,5.712098,51.538444
Sprenkstraat,2,,,5425VV,De Mortel,Gemert-Bakel,Noord-Brabant,VBO,5.709794,51.539675
Sprenkstraat,3,,,5425VV,De Mortel,Gemert-Bakel,Noord-Brabant,VBO,5.710123,51.539421
Sprenkstraat,5,,,5425VV,De Mortel,Gemert-Bakel,Noord-Brabant,VBO,5.710333,51.539500
Sprenkstraat,6,,,5425VV,De Mortel,Gemert-Bakel,Noord-Brabant,VBO,5.710156,51.539817
Sprenkstraat,7,,,5425VV,De Mortel,Gemert-Bakel,Noord-Brabant,VBO,5.710578,51.539534
Sprenkstraat,15,,,5425VV,De Mortel,Gemert-Bakel,Noord-Brabant,VBO,5.710898,51.539726
Sprenkstraat,17,,,5425VV,De Mortel,Gemert-Bakel,Noord-Brabant,VBO,5.711089,51.539803
Sprenkstraat,21,,,5425VV,De Mortel,Gemert-Bakel,Noord-Brabant,VBO,5.711274,51.539877
Sprenkstraat,25,,,5425VV,De Mortel,Gemert-Bakel,Noord-Brabant,VBO,5.711454,51.539949
Sprenkstraat,27,,,5425VV,De Mortel,Gemert-Bakel,Noord-Brabant,VBO,5.711551,51.539987
Pastoor v.d. Eindestraat,9,,,5425VW,De Mortel,Gemert-Bakel,Noord-Brabant,VBO,5.711875,51.539687
Pastoor v.d. Eindestraat,11,,,5425VW,De Mortel,Gemert-Bakel,Noord-Brabant,VBO,5.711998,51.539571
Pastoor v.d. Eindestraat,13,,,5425VW,De Mortel,Gemert-Bakel,Noord-Brabant,VBO,5.712090,51.539481
Pastoor v.d. Eindestraat,15,,,5425VW,De Mortel,Gemert-Bakel,Noord-Brabant,VBO,5.712182,51.539389
Pastoor v.d. Eindestraat,17,,,5425VW,De Mortel,Gemert-Bakel,Noord-Brabant,VBO,5.712276,51.539296
Pastoor v.d. Eindestraat,19,,,5425VW,De Mortel,Gemert-Bakel,Noord-Brabant,VBO,5.712369,51.539202
Pastoor v.d. Eindestraat,21,,,5425VW,De Mortel,Gemert-Bakel,Noord-Brabant,VBO,5.712446,51.539110
Pastoor v.d. Eindestraat,23,,,5425VW,De Mortel,Gemert-Bakel,Noord-Brabant,VBO,5.712547,51.538981
Pastoor v.d. Eindestraat,25,,,5425VW,De Mortel,Gemert-Bakel,Noord-Brabant,VBO,5.712619,51.538871
Pastoor v.d. Eindestraat,27,,,5425VW,De Mortel,Gemert-Bakel,Noord-Brabant,VBO,5.712653,51.538820
Pastoor v.d. Eindestraat,29,,,5425VW,De Mortel,Gemert-Bakel,Noord-Brabant,VBO,5.712727,51.538706
Pastoor v.d. Eindestraat,33,,,5425VW,De Mortel,Gemert-Bakel,Noord-Brabant,VBO,5.712760,51.538586
Pastoor v.d. Eindestraat,35,,,5425VW,De Mortel,Gemert-Bakel,Noord-Brabant,VBO,5.712876,51.538407
Pastoor v.d. Eindestraat,2,a,,5425VX,De Mortel,Gemert-Bakel,Noord-Brabant,VBO,5.710948,51.540897
Pastoor v.d. Eindestraat,2,,,5425VX,De Mortel,Gemert-Bakel,Noord-Brabant,VBO,5.710860,51.540942
Pastoor v.d. Eindestraat,4,,,5425VX,De Mortel,Gemert-Bakel,Noord-Brabant,VBO,5.711156,51.540779
Pastoor v.d. Eindestraat,6,,,5425VX,De Mortel,Gemert-Bakel,Noord-Brabant,VBO,5.711332,51.540670
Pastoor v.d. Eindestraat,8,,,5425VX,De Mortel,Gemert-Bakel,Noord-Brabant,VBO,5.711498,51.540555
Pastoor v.d. Eindestraat,10,,,5425VX,De Mortel,Gemert-Bakel,Noord-Brabant,VBO,5.711647,51.540410
Pastoor v.d. Eindestraat,14,,,5425VX,De Mortel,Gemert-Bakel,Noord-Brabant,VBO,5.711835,51.540095
Pastoor v.d. Eindestraat,16,,,5425VX,De Mortel,Gemert-Bakel,Noord-Brabant,VBO,5.711897,51.540036
Pastoor v.d. Eindestraat,18,,,5425VX,De Mortel,Gemert-Bakel,Noord-Brabant,VBO,5.712003,51.539934
Pastoor v.d. Eindestraat,20,,,5425VX,De Mortel,Gemert-Bakel,Noord-Brabant,VBO,5.712110,51.539833
Pastoor v.d. Eindestraat,22,,,5425VX,De Mortel,Gemert-Bakel,Noord-Brabant,VBO,5.712164,51.539781
Pastoor v.d. Eindestraat,24,,,5425VX,De Mortel,Gemert-Bakel,Noord-Brabant,VBO,5.712253,51.539698
Pastoor v.d. Eindestraat,26,,,5425VX,De Mortel,Gemert-Bakel,Noord-Brabant,VBO,5.712305,51.539649
Pastoor v.d. Eindestraat,28,,,5425VX,De Mortel,Gemert-Bakel,Noord-Brabant,VBO,5.712440,51.539585
Pastoor v.d. Eindestraat,30,,,5425VX,De Mortel,Gemert-Bakel,Noord-Brabant,VBO,5.712484,51.539476
Pastoor v.d. Eindestraat,32,,,5425VX,De Mortel,Gemert-Bakel,Noord-Brabant,VBO,5.712532,51.539430
Pastoor v.d. Eindestraat,34,,,5425VX,De Mortel,Gemert-Bakel,Noord-Brabant,VBO,5.712616,51.539350
Pastoor v.d. Eindestraat,36,,,5425VX,De Mortel,Gemert-Bakel,Noord-Brabant,VBO,5.712664,51.539304
Pastoor v.d. Eindestraat,38,,,5425VX,De Mortel,Gemert-Bakel,Noord-Brabant,VBO,5.712793,51.539209
Pastoor v.d. Eindestraat,40,,,5425VX,De Mortel,Gemert-Bakel,Noord-Brabant,VBO,5.712825,51.539161
Pastoor v.d. Eindestraat,42,,,5425VX,De Mortel,Gemert-Bakel,Noord-Brabant,VBO,5.712882,51.539075
Pastoor v.d. Eindestraat,44,,,5425VX,De Mortel,Gemert-Bakel,Noord-Brabant,VBO,5.712915,51.539026
Pastoor v.d. Eindestraat,52,,,5425VX,De Mortel,Gemert-Bakel,Noord-Brabant,VBO,5.713237,51.538855
Pastoor v.d. Eindestraat,54,,,5425VX,De Mortel,Gemert-Bakel,Noord-Brabant,VBO,5.713277,51.538816
Pastoor v.d. Eindestraat,56,,,5425VX,De Mortel,Gemert-Bakel,Noord-Brabant,VBO,5.713333,51.538785
Pastoor v.d. Eindestraat,58,,,5425VX,De Mortel,Gemert-Bakel,Noord-Brabant,VBO,5.713373,51.538747
Pastoor v.d. Eindestraat,60,,,5425VX,De Mortel,Gemert-Bakel,Noord-Brabant,VBO,5.713393,51.538701
Pastoor v.d. Eindestraat,62,,,5425VX,De Mortel,Gemert-Bakel,Noord-Brabant,VBO,5.713433,51.538662
Pastoor v.d. Eindestraat,64,,,5425VX,De Mortel,Gemert-Bakel,Noord-Brabant,VBO,5.713472,51.538623
Lochterweg,1,,,5425VZ,De Mortel,Gemert-Bakel,Noord-Brabant,VBO,5.709303,51.540269
Lochterweg,3,,,5425VZ,De Mortel,Gemert-Bakel,Noord-Brabant,VBO,5.709628,51.540427
Lochterweg,5,,,5425VZ,De Mortel,Gemert-Bakel,Noord-Brabant,VBO,5.709895,51.540273
Lochterweg,7,,,5425VZ,De Mortel,Gemert-Bakel,Noord-Brabant,VBO,5.709909,51.540520
Lochterweg,20,,,5425VZ,De Mortel,Gemert-Bakel,Noord-Brabant,VBO,5.710550,51.541325
Lochterweg,22,,,5425VZ,De Mortel,Gemert-Bakel,Noord-Brabant,VBO,5.710837,51.541530
Lochterweg,26,,,5425VZ,De Mortel,Gemert-Bakel,Noord-Brabant,VBO,5.711161,51.541715
Lochterweg,31,,,5425VZ,De Mortel,Gemert-Bakel,Noord-Brabant,VBO,5.713399,51.542175
Lochterweg,32,,,5425VZ,De Mortel,Gemert-Bakel,Noord-Brabant,VBO,5.712069,51.542056
Lochterweg,36,,,5425VZ,De Mortel,Gemert-Bakel,Noord-Brabant,VBO,5.712833,51.542440
Lochterweg,38,,,5425VZ,De Mortel,Gemert-Bakel,Noord-Brabant,VBO,5.713209,51.542921
Lochterweg,44,,,5425VZ,De Mortel,Gemert-Bakel,Noord-Brabant,VBO,5.714819,51.543486
Bakelseweg,2,,,5425WB,De Mortel,Gemert-Bakel,Noord-Brabant,VBO,5.711065,51.537544
Bakelseweg,9,,,5425WB,De Mortel,Gemert-Bakel,Noord-Brabant,VBO,5.710746,51.536439
Oude-Bakelsedijk,51,,,5425WC,De Mortel,Gemert-Bakel,Noord-Brabant,VBO,5.707242,51.532508
Den Hoek,12,,,5425XK,De Mortel,Gemert-Bakel,Noord-Brabant,VBO,5.719909,51.555363
Den Hoek,17,,,5425XK,De Mortel,Gemert-Bakel,Noord-Brabant,VBO,5.725989,51.556384
Den Hoek,23,,,5425XK,De Mortel,Gemert-Bakel,Noord-Brabant,VBO,5.729097,51.557984
Den Hoek,25,,,5425XK,De Mortel,Gemert-Bakel,Noord-Brabant,VBO,5.729252,51.558022
Den Hoek,31,a,,5425XK,De Mortel,Gemert-Bakel,Noord-Brabant,VBO,5.732507,51.557239
Den Hoek,31,,,5425XK,De Mortel,Gemert-Bakel,Noord-Brabant,VBO,5.734572,51.556880
Reebos,6,,,5425XL,De Mortel,Gemert-Bakel,Noord-Brabant,VBO,5.729312,51.545850
Reebos,9,a,,5425XL,De Mortel,Gemert-Bakel,Noord-Brabant,VBO,5.730469,51.543691
Reebos,9,,,5425XL,De Mortel,Gemert-Bakel,Noord-Brabant,VBO,5.730509,51.543621
Paashoefsedijk,6,,,5425XM,De Mortel,Gemert-Bakel,Noord-Brabant,VBO,5.704689,51.546074
Paashoefsedijk,14,,,5425XM,De Mortel,Gemert-Bakel,Noord-Brabant,VBO,5.704613,51.547583
Paashoefsedijk,18,,,5425XM,De Mortel,Gemert-Bakel,Noord-Brabant,VBO,5.704343,51.548362
Paashoefsedijk,20,,,5425XM,De Mortel,Gemert-Bakel,Noord-Brabant,VBO,5.704297,51.548475
Paashoefsedijk,24,,,5425XM,De Mortel,Gemert-Bakel,Noord-Brabant,VBO,5.704193,51.549781
Paashoefsedijk,11,,,5425XN,De Mortel,Gemert-Bakel,Noord-Brabant,VBO,5.705164,51.546984
Paashoefsedijk,13,,,5425XN,De Mortel,Gemert-Bakel,Noord-Brabant,VBO,5.705255,51.547045
Paashoefsedijk,17,,,5425XN,De Mortel,Gemert-Bakel,Noord-Brabant,VBO,5.705239,51.547872
Paashoefsedijk,21,,,5425XN,De Mortel,Gemert-Bakel,Noord-Brabant,VBO,5.704856,51.548577
Paashoefsedijk,33,,,5425XN,De Mortel,Gemert-Bakel,Noord-Brabant,VBO,5.704870,51.550326
Paashoefsedijk,35,,,5425XN,De Mortel,Gemert-Bakel,Noord-Brabant,VBO,5.705391,51.550651
Paashoefsedijk,45,,,5425XN,De Mortel,Gemert-Bakel,Noord-Brabant,VBO,5.708144,51.552054
Leemskuilenweg,9,,,5425XP,De Mortel,Gemert-Bakel,Noord-Brabant,VBO,5.718383,51.547175
Leemskuilenweg,11,,,5425XP,De Mortel,Gemert-Bakel,Noord-Brabant,VBO,5.717864,51.547181
Leemskuilenweg,13,,,5425XP,De Mortel,Gemert-Bakel,Noord-Brabant,VBO,5.717584,51.548805
Leemskuilenweg,15,,,5425XP,De Mortel,Gemert-Bakel,Noord-Brabant,VBO,5.717781,51.548827
Leemskuilenweg,19,,,5425XP,De Mortel,Gemert-Bakel,Noord-Brabant,VBO,5.716969,51.549613
Leemskuilenweg,20,,,5425XP,De Mortel,Gemert-Bakel,Noord-Brabant,VBO,5.716461,51.549257
Leemskuilenweg,29,,,5425XP,De Mortel,Gemert-Bakel,Noord-Brabant,VBO,5.717148,51.552579
Leemskuilenweg,30,,,5425XP,De Mortel,Gemert-Bakel,Noord-Brabant,VBO,5.715280,51.552132
Leemskuilenweg,32,,,5425XP,De Mortel,Gemert-Bakel,Noord-Brabant,VBO,5.715351,51.552725
Leemskuilenweg,33,,,5425XP,De Mortel,Gemert-Bakel,Noord-Brabant,VBO,5.715618,51.553727
Breemhorstsedijk,4,a,,5425XR,De Mortel,Gemert-Bakel,Noord-Brabant,VBO,5.717224,51.549874
Breemhorstsedijk,4,,,5425XR,De Mortel,Gemert-Bakel,Noord-Brabant,VBO,5.717211,51.549644
Breemhorstsedijk,8,,,5425XR,De Mortel,Gemert-Bakel,Noord-Brabant,VBO,5.718161,51.549870
Breemhorstsedijk,15,,,5425XR,De Mortel,Gemert-Bakel,Noord-Brabant,VBO,5.720833,51.549736
Breemhorstsedijk,18,,,5425XR,De Mortel,Gemert-Bakel,Noord-Brabant,VBO,5.721258,51.550454
Breemhorstsedijk,20,,,5425XR,De Mortel,Gemert-Bakel,Noord-Brabant,VBO,5.721382,51.550282
Breemhorstsedijk,27,,,5425XR,De Mortel,Gemert-Bakel,Noord-Brabant,VBO,5.724575,51.550196
Breewater,6,,,5425XS,De Mortel,Gemert-Bakel,Noord-Brabant,VBO,5.725177,51.547809
Breewater,11,,,5425XS,De Mortel,Gemert-Bakel,Noord-Brabant,VBO,5.725491,51.548737
Breewater,16,,,5425XS,De Mortel,Gemert-Bakel,Noord-Brabant,VBO,5.722618,51.555357
Dr. de Quayweg,4,,,5425XT,De Mortel,Gemert-Bakel,Noord-Brabant,VBO,5.718321,51.545285
Dr. de Quayweg,8,,,5425XT,De Mortel,Gemert-Bakel,Noord-Brabant,VBO,5.719910,51.545776
Dr. de Quayweg,12,,,5425XT,De Mortel,Gemert-Bakel,Noord-Brabant,VBO,5.721196,51.546087
Dr. de Quayweg,16,,,5425XT,De Mortel,Gemert-Bakel,Noord-Brabant,VBO,5.723122,51.546352
Citadelweg,9,z,,5425XV,De Mortel,Gemert-Bakel,Noord-Brabant,VBO,5.725592,51.544888
Citadelweg,9,,,5425XV,De Mortel,Gemert-Bakel,Noord-Brabant,VBO,5.725627,51.545059
Heikampseweg,4,,,5425XX,De Mortel,Gemert-Bakel,Noord-Brabant,VBO,5.715867,51.539488
Heikampseweg,9,,,5425XX,De Mortel,Gemert-Bakel,Noord-Brabant,VBO,5.717379,51.539637
Heikampseweg,10,,,5425XX,De Mortel,Gemert-Bakel,Noord-Brabant,VBO,5.716819,51.539851
Heikampseweg,15,,,5425XX,De Mortel,Gemert-Bakel,Noord-Brabant,VBO,5.717660,51.539724
Heikampseweg,21,,,5425XX,De Mortel,Gemert-Bakel,Noord-Brabant,VBO,5.720965,51.540955
Heikampseweg,23,,,5425XX,De Mortel,Gemert-Bakel,Noord-Brabant,VBO,5.721228,51.541018
Heikampseweg,28,,,5425XX,De Mortel,Gemert-Bakel,Noord-Brabant,VBO,5.722571,51.541549
Heikampseweg,41,,,5425XX,De Mortel,Gemert-Bakel,Noord-Brabant,VBO,5.727579,51.542171
Heikampseweg,45,,,5425XX,De Mortel,Gemert-Bakel,Noord-Brabant,VBO,5.728786,51.542348
Heikampseweg,50,,,5425XX,De Mortel,Gemert-Bakel,Noord-Brabant,VBO,5.729936,51.542961
Heikampseweg,59,,,5425XX,De Mortel,Gemert-Bakel,Noord-Brabant,VBO,5.732584,51.543062
Heikampseweg,65,,,5425XX,De Mortel,Gemert-Bakel,Noord-Brabant,VBO,5.737235,51.543711
Lijsterlaan,28,,,5425XZ,De Mortel,Gemert-Bakel,Noord-Brabant,VBO,5.726931,51.539060
