openbareruimtenaam,huisnummer,huisletter,huisnummertoevoeging,postcode,woonplaatsnaam,gemeentenaam,provincienaam,typeadresseerbaarobject,longitude,latitude
Molenstraat,1,,,5441AA,Oeffelt,Boxmeer,Noord-Brabant,VBO,5.930531,51.698433
Molenstraat,3,,,5441AA,Oeffelt,Boxmeer,Noord-Brabant,VBO,5.930818,51.698261
Molenstraat,5,,,5441AA,Oeffelt,Boxmeer,Noord-Brabant,VBO,5.930991,51.698170
Molenstraat,7,,,5441AA,Oeffelt,Boxmeer,Noord-Brabant,VBO,5.931336,51.698025
Molenstraat,9,,,5441AA,Oeffelt,Boxmeer,Noord-Brabant,VBO,5.931537,51.697889
Molenstraat,11,,,5441AA,Oeffelt,Boxmeer,Noord-Brabant,VBO,5.931710,51.697789
Molenstraat,15,,,5441AA,Oeffelt,Boxmeer,Noord-Brabant,VBO,5.931983,51.697662
Molenstraat,17,a,,5441AA,Oeffelt,Boxmeer,Noord-Brabant,VBO,5.932213,51.697517
Molenstraat,17,,,5441AA,Oeffelt,Boxmeer,Noord-Brabant,VBO,5.932141,51.697562
Molenstraat,21,,,5441AA,Oeffelt,Boxmeer,Noord-Brabant,VBO,5.932313,51.697427
Molenstraat,23,,,5441AA,Oeffelt,Boxmeer,Noord-Brabant,VBO,5.932413,51.697363
Molenstraat,27,,,5441AA,Oeffelt,Boxmeer,Noord-Brabant,VBO,5.932644,51.697308
Molenstraat,29,,,5441AA,Oeffelt,Boxmeer,Noord-Brabant,VBO,5.932744,51.697164
Molenstraat,31,,,5441AA,Oeffelt,Boxmeer,Noord-Brabant,VBO,5.932829,51.697065
Molenstraat,33,,,5441AA,Oeffelt,Boxmeer,Noord-Brabant,VBO,5.933059,51.696956
Molenstraat,35,,,5441AA,Oeffelt,Boxmeer,Noord-Brabant,VBO,5.933246,51.696820
Molenstraat,37,,,5441AA,Oeffelt,Boxmeer,Noord-Brabant,VBO,5.933404,51.696721
Molenstraat,4,,,5441AB,Oeffelt,Boxmeer,Noord-Brabant,VBO,5.930076,51.697842
Molenstraat,8,,,5441AB,Oeffelt,Boxmeer,Noord-Brabant,VBO,5.930829,51.697928
Molenstraat,10,,,5441AB,Oeffelt,Boxmeer,Noord-Brabant,VBO,5.930928,51.697739
Molenstraat,12,,,5441AB,Oeffelt,Boxmeer,Noord-Brabant,VBO,5.931228,51.697441
Molenstraat,18,,,5441AB,Oeffelt,Boxmeer,Noord-Brabant,VBO,5.931934,51.697240
Molenstraat,20,,,5441AB,Oeffelt,Boxmeer,Noord-Brabant,VBO,5.932134,51.697005
Molenstraat,22,,,5441AB,Oeffelt,Boxmeer,Noord-Brabant,VBO,5.932377,51.696733
Molenstraat,24,,,5441AB,Oeffelt,Boxmeer,Noord-Brabant,VBO,5.932708,51.696616
Molenstraat,26,,,5441AB,Oeffelt,Boxmeer,Noord-Brabant,VBO,5.932894,51.696444
Molenstraat,28,,,5441AB,Oeffelt,Boxmeer,Noord-Brabant,VBO,5.932994,51.696381
Dorpsstraat,2,,,5441AC,Oeffelt,Boxmeer,Noord-Brabant,VBO,5.938422,51.694252
Dorpsstraat,4,a,,5441AC,Oeffelt,Boxmeer,Noord-Brabant,VBO,5.937877,51.694704
Dorpsstraat,4,b,b,5441AC,Oeffelt,Boxmeer,Noord-Brabant,VBO,5.937489,51.694868
Dorpsstraat,4,b,,5441AC,Oeffelt,Boxmeer,Noord-Brabant,VBO,5.937690,51.694777
Dorpsstraat,4,c,,5441AC,Oeffelt,Boxmeer,Noord-Brabant,VBO,5.937389,51.694976
Dorpsstraat,4,d,,5441AC,Oeffelt,Boxmeer,Noord-Brabant,VBO,5.936999,51.695032
Dorpsstraat,4,e,,5441AC,Oeffelt,Boxmeer,Noord-Brabant,VBO,5.936567,51.695169
Dorpsstraat,4,,,5441AC,Oeffelt,Boxmeer,Noord-Brabant,VBO,5.938134,51.694397
Dorpsstraat,5,a,,5441AC,Oeffelt,Boxmeer,Noord-Brabant,VBO,5.936710,51.693923
Dorpsstraat,6,a,,5441AC,Oeffelt,Boxmeer,Noord-Brabant,VBO,5.936063,51.695396
Dorpsstraat,6,,,5441AC,Oeffelt,Boxmeer,Noord-Brabant,VBO,5.936207,51.695305
Dorpsstraat,7,a,,5441AC,Oeffelt,Boxmeer,Noord-Brabant,VBO,5.937362,51.693930
Dorpsstraat,7,,,5441AC,Oeffelt,Boxmeer,Noord-Brabant,VBO,5.937078,51.694357
Dorpsstraat,8,,,5441AC,Oeffelt,Boxmeer,Noord-Brabant,VBO,5.935833,51.695442
Dorpsstraat,9,,,5441AC,Oeffelt,Boxmeer,Noord-Brabant,VBO,5.936904,51.694385
Dorpsstraat,10,a,,5441AC,Oeffelt,Boxmeer,Noord-Brabant,VBO,5.935523,51.695521
Dorpsstraat,10,,,5441AC,Oeffelt,Boxmeer,Noord-Brabant,VBO,5.935416,51.695582
Dorpsstraat,12,a,,5441AC,Oeffelt,Boxmeer,Noord-Brabant,VBO,5.935315,51.695696
Dorpsstraat,12,b,,5441AC,Oeffelt,Boxmeer,Noord-Brabant,VBO,5.935243,51.695732
Dorpsstraat,12,,,5441AC,Oeffelt,Boxmeer,Noord-Brabant,VBO,5.935358,51.695669
Dorpsstraat,13,,,5441AC,Oeffelt,Boxmeer,Noord-Brabant,VBO,5.935087,51.694798
Dorpsstraat,14,a,,5441AC,Oeffelt,Boxmeer,Noord-Brabant,VBO,5.935099,51.695805
Dorpsstraat,14,b,,5441AC,Oeffelt,Boxmeer,Noord-Brabant,VBO,5.935027,51.695850
Dorpsstraat,14,,,5441AC,Oeffelt,Boxmeer,Noord-Brabant,VBO,5.935157,51.695769
Dorpsstraat,15,,,5441AC,Oeffelt,Boxmeer,Noord-Brabant,VBO,5.935768,51.694894
Dorpsstraat,16,a,,5441AC,Oeffelt,Boxmeer,Noord-Brabant,VBO,5.935030,51.696039
Dorpsstraat,16,,,5441AC,Oeffelt,Boxmeer,Noord-Brabant,VBO,5.934869,51.695923
Dorpsstraat,17,,,5441AC,Oeffelt,Boxmeer,Noord-Brabant,VBO,5.935003,51.695041
Dorpsstraat,18,a,,5441AC,Oeffelt,Boxmeer,Noord-Brabant,VBO,5.935019,51.696362
Dorpsstraat,18,,,5441AC,Oeffelt,Boxmeer,Noord-Brabant,VBO,5.934845,51.696273
Dorpsstraat,19,,,5441AC,Oeffelt,Boxmeer,Noord-Brabant,VBO,5.933528,51.696217
Dorpsstraat,20,,,5441AC,Oeffelt,Boxmeer,Noord-Brabant,VBO,5.934252,51.696285
Dorpsstraat,24,,,5441AC,Oeffelt,Boxmeer,Noord-Brabant,VBO,5.933921,51.696484
Beugenseweg,1,,,5441AD,Oeffelt,Boxmeer,Noord-Brabant,VBO,5.939849,51.690371
Beugenseweg,3,,,5441AD,Oeffelt,Boxmeer,Noord-Brabant,VBO,5.939859,51.691126
Beugenseweg,5,,,5441AD,Oeffelt,Boxmeer,Noord-Brabant,VBO,5.939618,51.691514
Beugenseweg,9,,,5441AD,Oeffelt,Boxmeer,Noord-Brabant,VBO,5.939403,51.691695
Beugenseweg,11,,,5441AD,Oeffelt,Boxmeer,Noord-Brabant,VBO,5.939361,51.691848
Beugenseweg,13,,,5441AD,Oeffelt,Boxmeer,Noord-Brabant,VBO,5.939235,51.692181
Beugenseweg,15,,,5441AD,Oeffelt,Boxmeer,Noord-Brabant,VBO,5.939253,51.692486
Beugenseweg,17,,,5441AD,Oeffelt,Boxmeer,Noord-Brabant,VBO,5.939139,51.692631
Beugenseweg,19,,,5441AD,Oeffelt,Boxmeer,Noord-Brabant,VBO,5.939098,51.692820
Beugenseweg,21,,,5441AD,Oeffelt,Boxmeer,Noord-Brabant,VBO,5.939085,51.692910
Beugenseweg,25,,,5441AD,Oeffelt,Boxmeer,Noord-Brabant,VBO,5.938511,51.693263
Beugenseweg,27,,,5441AD,Oeffelt,Boxmeer,Noord-Brabant,VBO,5.937915,51.693050
Beugenseweg,2,,,5441AE,Oeffelt,Boxmeer,Noord-Brabant,VBO,5.940714,51.690133
Beugenseweg,4,,,5441AE,Oeffelt,Boxmeer,Noord-Brabant,VBO,5.940557,51.690260
Beugenseweg,6,,,5441AE,Oeffelt,Boxmeer,Noord-Brabant,VBO,5.940602,51.690377
Beugenseweg,8,,,5441AE,Oeffelt,Boxmeer,Noord-Brabant,VBO,5.940602,51.690440
Beugenseweg,10,,,5441AE,Oeffelt,Boxmeer,Noord-Brabant,VBO,5.940545,51.690521
Beugenseweg,12,,,5441AE,Oeffelt,Boxmeer,Noord-Brabant,VBO,5.940518,51.690638
Beugenseweg,14,,,5441AE,Oeffelt,Boxmeer,Noord-Brabant,VBO,5.940490,51.690737
Beugenseweg,16,,,5441AE,Oeffelt,Boxmeer,Noord-Brabant,VBO,5.940477,51.690800
Beugenseweg,18,,,5441AE,Oeffelt,Boxmeer,Noord-Brabant,VBO,5.940449,51.690917
Beugenseweg,20,a,,5441AE,Oeffelt,Boxmeer,Noord-Brabant,VBO,5.940426,51.691357
Beugenseweg,20,,,5441AE,Oeffelt,Boxmeer,Noord-Brabant,VBO,5.940336,51.691160
Beugenseweg,22,,,5441AE,Oeffelt,Boxmeer,Noord-Brabant,VBO,5.940341,51.691502
Beugenseweg,24,a,,5441AE,Oeffelt,Boxmeer,Noord-Brabant,VBO,5.940018,51.691823
Beugenseweg,24,,,5441AE,Oeffelt,Boxmeer,Noord-Brabant,VBO,5.940168,51.691601
Beugenseweg,26,,,5441AE,Oeffelt,Boxmeer,Noord-Brabant,VBO,5.939869,51.691980
Beugenseweg,28,,,5441AE,Oeffelt,Boxmeer,Noord-Brabant,VBO,5.939870,51.692079
Beugenseweg,30,,,5441AE,Oeffelt,Boxmeer,Noord-Brabant,VBO,5.939830,51.692322
Beugenseweg,32,,,5441AE,Oeffelt,Boxmeer,Noord-Brabant,VBO,5.939816,51.692403
Beugenseweg,34,,,5441AE,Oeffelt,Boxmeer,Noord-Brabant,VBO,5.939746,51.692547
Stationsweg,1,,,5441AG,Oeffelt,Boxmeer,Noord-Brabant,VBO,5.937286,51.692539
Stationsweg,2,,,5441AG,Oeffelt,Boxmeer,Noord-Brabant,VBO,5.936827,51.691581
Stationsweg,3,,,5441AG,Oeffelt,Boxmeer,Noord-Brabant,VBO,5.938526,51.692130
Stationsweg,4,,,5441AG,Oeffelt,Boxmeer,Noord-Brabant,VBO,5.937117,51.691616
Stationsweg,6,,,5441AG,Oeffelt,Boxmeer,Noord-Brabant,VBO,5.937754,51.691658
Stationsweg,8,,,5441AG,Oeffelt,Boxmeer,Noord-Brabant,VBO,5.938130,51.691701
Stationsweg,10,,,5441AG,Oeffelt,Boxmeer,Noord-Brabant,VBO,5.938362,51.691745
Stationsweg,12,,,5441AG,Oeffelt,Boxmeer,Noord-Brabant,VBO,5.938594,51.691779
Stationsweg,14,,,5441AG,Oeffelt,Boxmeer,Noord-Brabant,VBO,5.938855,51.691805
Hoogveld,1,,,5441AH,Oeffelt,Boxmeer,Noord-Brabant,VBO,5.939166,51.691291
Hoogveld,3,,,5441AH,Oeffelt,Boxmeer,Noord-Brabant,VBO,5.938818,51.691194
Hoogveld,5,,,5441AH,Oeffelt,Boxmeer,Noord-Brabant,VBO,5.938469,51.691043
Kerkstraat-zuid,1,a,,5441AJ,Oeffelt,Boxmeer,Noord-Brabant,VBO,5.937964,51.694668
Kerkstraat-zuid,1,,,5441AJ,Oeffelt,Boxmeer,Noord-Brabant,VBO,5.938226,51.694801
Kerkstraat-zuid,3,,,5441AJ,Oeffelt,Boxmeer,Noord-Brabant,VBO,5.938257,51.694954
Kerkstraat-zuid,5,,,5441AJ,Oeffelt,Boxmeer,Noord-Brabant,VBO,5.938229,51.695035
Kerkstraat-zuid,7,,,5441AJ,Oeffelt,Boxmeer,Noord-Brabant,VBO,5.938186,51.695134
Kerkstraat-zuid,9,,,5441AJ,Oeffelt,Boxmeer,Noord-Brabant,VBO,5.938158,51.695206
Kerkstraat-zuid,11,,,5441AJ,Oeffelt,Boxmeer,Noord-Brabant,VBO,5.938005,51.695638
Kerkstraat-zuid,13,,,5441AJ,Oeffelt,Boxmeer,Noord-Brabant,VBO,5.937936,51.695962
Kerkstraat-zuid,15,,,5441AJ,Oeffelt,Boxmeer,Noord-Brabant,VBO,5.937852,51.696178
Kerkstraat-zuid,17,,,5441AJ,Oeffelt,Boxmeer,Noord-Brabant,VBO,5.937780,51.696224
Kerkstraat-zuid,19,,,5441AJ,Oeffelt,Boxmeer,Noord-Brabant,VBO,5.937753,51.696332
Kerkstraat-zuid,21,,,5441AJ,Oeffelt,Boxmeer,Noord-Brabant,VBO,5.937740,51.696458
Kerkstraat-zuid,23,,,5441AJ,Oeffelt,Boxmeer,Noord-Brabant,VBO,5.937698,51.696611
Kerkstraat-zuid,25,,,5441AJ,Oeffelt,Boxmeer,Noord-Brabant,VBO,5.937671,51.696719
Kerkstraat-zuid,27,,,5441AJ,Oeffelt,Boxmeer,Noord-Brabant,VBO,5.937600,51.696881
Kerkstraat-zuid,29,,,5441AJ,Oeffelt,Boxmeer,Noord-Brabant,VBO,5.937544,51.697007
Kerkstraat-zuid,31,,,5441AJ,Oeffelt,Boxmeer,Noord-Brabant,VBO,5.937503,51.697250
Kerkstraat-zuid,33,,,5441AJ,Oeffelt,Boxmeer,Noord-Brabant,VBO,5.937476,51.697358
Kerkstraat-zuid,35,,,5441AJ,Oeffelt,Boxmeer,Noord-Brabant,VBO,5.937448,51.697466
Kerkstraat-zuid,37,,,5441AJ,Oeffelt,Boxmeer,Noord-Brabant,VBO,5.937406,51.697583
Kerkstraat-zuid,39,,,5441AJ,Oeffelt,Boxmeer,Noord-Brabant,VBO,5.937294,51.697880
Kerkstraat-zuid,43,,,5441AJ,Oeffelt,Boxmeer,Noord-Brabant,VBO,5.937240,51.698168
Kerkstraat-zuid,45,,,5441AJ,Oeffelt,Boxmeer,Noord-Brabant,VBO,5.937212,51.698249
Kerkstraat-zuid,4,,,5441AK,Oeffelt,Boxmeer,Noord-Brabant,VBO,5.938633,51.694988
Kerkstraat-zuid,6,,,5441AK,Oeffelt,Boxmeer,Noord-Brabant,VBO,5.938605,51.695060
Kerkstraat-zuid,8,,,5441AK,Oeffelt,Boxmeer,Noord-Brabant,VBO,5.938520,51.695195
Kerkstraat-zuid,10,,,5441AK,Oeffelt,Boxmeer,Noord-Brabant,VBO,5.938492,51.695276
Kerkstraat-zuid,12,,,5441AK,Oeffelt,Boxmeer,Noord-Brabant,VBO,5.938365,51.695556
Kerkstraat-zuid,14,,,5441AK,Oeffelt,Boxmeer,Noord-Brabant,VBO,5.938324,51.695727
Kerkstraat-zuid,18,,,5441AK,Oeffelt,Boxmeer,Noord-Brabant,VBO,5.938170,51.696159
Kerkstraat-zuid,20,,,5441AK,Oeffelt,Boxmeer,Noord-Brabant,VBO,5.938057,51.696375
Kerkstraat-zuid,22,,,5441AK,Oeffelt,Boxmeer,Noord-Brabant,VBO,5.938075,51.696654
Kerkstraat-zuid,24,a,,5441AK,Oeffelt,Boxmeer,Noord-Brabant,VBO,5.938075,51.697849
Kerkstraat-zuid,24,,,5441AK,Oeffelt,Boxmeer,Noord-Brabant,VBO,5.938013,51.697508
Schoolstraat,1,c,,5441AL,Oeffelt,Boxmeer,Noord-Brabant,VBO,5.935589,51.696836
Schoolstraat,3,,,5441AL,Oeffelt,Boxmeer,Noord-Brabant,VBO,5.935934,51.696619
Schoolstraat,5,,,5441AL,Oeffelt,Boxmeer,Noord-Brabant,VBO,5.936077,51.696519
Schoolstraat,7,,,5441AL,Oeffelt,Boxmeer,Noord-Brabant,VBO,5.936235,51.696402
Schoolstraat,9,,,5441AL,Oeffelt,Boxmeer,Noord-Brabant,VBO,5.936349,51.696320
Schoolstraat,11,,,5441AL,Oeffelt,Boxmeer,Noord-Brabant,VBO,5.936464,51.696266
Schoolstraat,13,,,5441AL,Oeffelt,Boxmeer,Noord-Brabant,VBO,5.936594,51.696202
Schoolstraat,15,,,5441AL,Oeffelt,Boxmeer,Noord-Brabant,VBO,5.936723,51.696148
Schoolstraat,17,,,5441AL,Oeffelt,Boxmeer,Noord-Brabant,VBO,5.936867,51.696066
Schoolstraat,19,,,5441AL,Oeffelt,Boxmeer,Noord-Brabant,VBO,5.937054,51.696002
Schoolstraat,21,,,5441AL,Oeffelt,Boxmeer,Noord-Brabant,VBO,5.937141,51.695966
Schoolstraat,23,,,5441AL,Oeffelt,Boxmeer,Noord-Brabant,VBO,5.937299,51.695902
Schoolstraat,25,,,5441AL,Oeffelt,Boxmeer,Noord-Brabant,VBO,5.937371,51.695866
Schoolstraat,27,,,5441AL,Oeffelt,Boxmeer,Noord-Brabant,VBO,5.937472,51.695830
Schoolstraat,29,,,5441AL,Oeffelt,Boxmeer,Noord-Brabant,VBO,5.937630,51.695757
Schoolstraat,2,a,,5441AM,Oeffelt,Boxmeer,Noord-Brabant,VBO,5.935183,51.696784
Schoolstraat,2,,,5441AM,Oeffelt,Boxmeer,Noord-Brabant,VBO,5.935098,51.696901
Schoolstraat,4,a,,5441AM,Oeffelt,Boxmeer,Noord-Brabant,VBO,5.935642,51.696449
Schoolstraat,4,c,,5441AM,Oeffelt,Boxmeer,Noord-Brabant,VBO,5.935395,51.696316
Schoolstraat,4,d,,5441AM,Oeffelt,Boxmeer,Noord-Brabant,VBO,5.935599,51.696432
Schoolstraat,4,e,,5441AM,Oeffelt,Boxmeer,Noord-Brabant,VBO,5.935482,51.696369
Schoolstraat,4,,,5441AM,Oeffelt,Boxmeer,Noord-Brabant,VBO,5.935482,51.696369
Schoolstraat,10,,,5441AM,Oeffelt,Boxmeer,Noord-Brabant,VBO,5.936187,51.696087
Schoolstraat,12,,,5441AM,Oeffelt,Boxmeer,Noord-Brabant,VBO,5.936317,51.696024
Schoolstraat,14,,,5441AM,Oeffelt,Boxmeer,Noord-Brabant,VBO,5.936561,51.695906
Schoolstraat,16,,,5441AM,Oeffelt,Boxmeer,Noord-Brabant,VBO,5.936792,51.695833
Schoolstraat,18,,,5441AM,Oeffelt,Boxmeer,Noord-Brabant,VBO,5.936893,51.695787
Schoolstraat,20,,,5441AM,Oeffelt,Boxmeer,Noord-Brabant,VBO,5.937094,51.695697
Schoolstraat,22,,,5441AM,Oeffelt,Boxmeer,Noord-Brabant,VBO,5.937267,51.695633
Schoolstraat,24,,,5441AM,Oeffelt,Boxmeer,Noord-Brabant,VBO,5.937353,51.695596
Schoolstraat,26,,,5441AM,Oeffelt,Boxmeer,Noord-Brabant,VBO,5.937497,51.695533
Schoolstraat,28,,,5441AM,Oeffelt,Boxmeer,Noord-Brabant,VBO,5.937612,51.695487
Schoolstraat,30,,,5441AM,Oeffelt,Boxmeer,Noord-Brabant,VBO,5.937756,51.695424
Schoolstraat,32,,,5441AM,Oeffelt,Boxmeer,Noord-Brabant,VBO,5.937929,51.695351
Schoolstraat,34,,,5441AM,Oeffelt,Boxmeer,Noord-Brabant,VBO,5.938029,51.695297
Julianastraat,1,,,5441AN,Oeffelt,Boxmeer,Noord-Brabant,VBO,5.935848,51.696709
Julianastraat,2,,,5441AN,Oeffelt,Boxmeer,Noord-Brabant,VBO,5.935822,51.696970
Julianastraat,3,,,5441AN,Oeffelt,Boxmeer,Noord-Brabant,VBO,5.936241,51.696887
Julianastraat,4,,,5441AN,Oeffelt,Boxmeer,Noord-Brabant,VBO,5.935953,51.697041
Julianastraat,6,,,5441AN,Oeffelt,Boxmeer,Noord-Brabant,VBO,5.936113,51.697112
Nieuwstraat,1,,,5441AP,Oeffelt,Boxmeer,Noord-Brabant,VBO,5.936049,51.697778
Nieuwstraat,2,,,5441AP,Oeffelt,Boxmeer,Noord-Brabant,VBO,5.936118,51.697508
Nieuwstraat,3,,,5441AP,Oeffelt,Boxmeer,Noord-Brabant,VBO,5.936293,51.697615
Nieuwstraat,4,,,5441AP,Oeffelt,Boxmeer,Noord-Brabant,VBO,5.936247,51.697417
Nieuwstraat,5,,,5441AP,Oeffelt,Boxmeer,Noord-Brabant,VBO,5.936422,51.697524
Nieuwstraat,6,,,5441AP,Oeffelt,Boxmeer,Noord-Brabant,VBO,5.936362,51.697336
Nieuwstraat,7,,,5441AP,Oeffelt,Boxmeer,Noord-Brabant,VBO,5.936551,51.697443
Nieuwstraat,8,,,5441AP,Oeffelt,Boxmeer,Noord-Brabant,VBO,5.936491,51.697254
Nieuwstraat,9,,,5441AP,Oeffelt,Boxmeer,Noord-Brabant,VBO,5.936666,51.697361
Nieuwstraat,11,,,5441AP,Oeffelt,Boxmeer,Noord-Brabant,VBO,5.936839,51.697298
Nieuwstraat,12,,,5441AP,Oeffelt,Boxmeer,Noord-Brabant,VBO,5.936588,51.696939
Nieuwstraat,13,,,5441AP,Oeffelt,Boxmeer,Noord-Brabant,VBO,5.936967,51.697180
Nieuwstraat,14,,,5441AP,Oeffelt,Boxmeer,Noord-Brabant,VBO,5.936674,51.696858
Nieuwstraat,15,,,5441AP,Oeffelt,Boxmeer,Noord-Brabant,VBO,5.937067,51.697081
Nieuwstraat,16,,,5441AP,Oeffelt,Boxmeer,Noord-Brabant,VBO,5.936746,51.696795
Nieuwstraat,17,,,5441AP,Oeffelt,Boxmeer,Noord-Brabant,VBO,5.937253,51.696837
Nieuwstraat,18,,,5441AP,Oeffelt,Boxmeer,Noord-Brabant,VBO,5.936846,51.696713
Nieuwstraat,19,,,5441AP,Oeffelt,Boxmeer,Noord-Brabant,VBO,5.937310,51.696774
Nieuwstraat,20,,,5441AP,Oeffelt,Boxmeer,Noord-Brabant,VBO,5.936903,51.696668
Nieuwstraat,22,,,5441AP,Oeffelt,Boxmeer,Noord-Brabant,VBO,5.936989,51.696596
Nieuwstraat,23,,,5441AP,Oeffelt,Boxmeer,Noord-Brabant,VBO,5.937336,51.696603
Nieuwstraat,24,,,5441AP,Oeffelt,Boxmeer,Noord-Brabant,VBO,5.937220,51.696559
Lietingsestraat,1,a,,5441AR,Oeffelt,Boxmeer,Noord-Brabant,VBO,5.934085,51.696870
Lietingsestraat,1,,,5441AR,Oeffelt,Boxmeer,Noord-Brabant,VBO,5.933618,51.696639
Lietingsestraat,3,,,5441AR,Oeffelt,Boxmeer,Noord-Brabant,VBO,5.934391,51.697067
Lietingsestraat,5,,,5441AR,Oeffelt,Boxmeer,Noord-Brabant,VBO,5.934581,51.697182
Lietingsestraat,7,,,5441AR,Oeffelt,Boxmeer,Noord-Brabant,VBO,5.934770,51.697298
Lietingsestraat,9,,,5441AR,Oeffelt,Boxmeer,Noord-Brabant,VBO,5.934997,51.697458
Lietingsestraat,11,a,,5441AR,Oeffelt,Boxmeer,Noord-Brabant,VBO,5.935368,51.697691
Lietingsestraat,11,b,,5441AR,Oeffelt,Boxmeer,Noord-Brabant,VBO,5.935631,51.697870
Lietingsestraat,11,c,,5441AR,Oeffelt,Boxmeer,Noord-Brabant,VBO,5.935776,51.697941
Lietingsestraat,11,,,5441AR,Oeffelt,Boxmeer,Noord-Brabant,VBO,5.935178,51.697548
Lietingsestraat,13,,,5441AR,Oeffelt,Boxmeer,Noord-Brabant,VBO,5.935980,51.698039
Lietingsestraat,15,a,,5441AR,Oeffelt,Boxmeer,Noord-Brabant,VBO,5.936088,51.698587
Lietingsestraat,15,,,5441AR,Oeffelt,Boxmeer,Noord-Brabant,VBO,5.936227,51.698190
Lietingsestraat,17,,,5441AR,Oeffelt,Boxmeer,Noord-Brabant,VBO,5.936534,51.698414
Lietingsestraat,19,,,5441AR,Oeffelt,Boxmeer,Noord-Brabant,VBO,5.936679,51.698485
Lietingsestraat,21,,,5441AR,Oeffelt,Boxmeer,Noord-Brabant,VBO,5.936767,51.698521
Lietingsestraat,23,,,5441AR,Oeffelt,Boxmeer,Noord-Brabant,VBO,5.936855,51.698646
Lietingsestraat,4,a,,5441AS,Oeffelt,Boxmeer,Noord-Brabant,VBO,5.934403,51.696815
Lietingsestraat,4,b,,5441AS,Oeffelt,Boxmeer,Noord-Brabant,VBO,5.934505,51.696877
Lietingsestraat,4,c,,5441AS,Oeffelt,Boxmeer,Noord-Brabant,VBO,5.934636,51.696957
Lietingsestraat,4,,,5441AS,Oeffelt,Boxmeer,Noord-Brabant,VBO,5.934170,51.696726
Lietingsestraat,6,,,5441AS,Oeffelt,Boxmeer,Noord-Brabant,VBO,5.934869,51.697091
Lietingsestraat,8,a,,5441AS,Oeffelt,Boxmeer,Noord-Brabant,VBO,5.935743,51.697608
Lietingsestraat,8,b,,5441AS,Oeffelt,Boxmeer,Noord-Brabant,VBO,5.935845,51.697662
Lietingsestraat,8,c,,5441AS,Oeffelt,Boxmeer,Noord-Brabant,VBO,5.936227,51.697877
Lietingsestraat,8,d,,5441AS,Oeffelt,Boxmeer,Noord-Brabant,VBO,5.936289,51.697831
Lietingsestraat,8,e,,5441AS,Oeffelt,Boxmeer,Noord-Brabant,VBO,5.936349,51.697891
Lietingsestraat,8,f,,5441AS,Oeffelt,Boxmeer,Noord-Brabant,VBO,5.936388,51.697937
Lietingsestraat,10,,,5441AS,Oeffelt,Boxmeer,Noord-Brabant,VBO,5.936544,51.698090
Lietingsestraat,12,,,5441AS,Oeffelt,Boxmeer,Noord-Brabant,VBO,5.936676,51.698170
Lietingsestraat,14,,,5441AS,Oeffelt,Boxmeer,Noord-Brabant,VBO,5.936792,51.698242
Lietingsestraat,16,,,5441AS,Oeffelt,Boxmeer,Noord-Brabant,VBO,5.936880,51.698304
Lietingsestraat,18,,,5441AS,Oeffelt,Boxmeer,Noord-Brabant,VBO,5.937113,51.698411
Willem-Alexanderstraat,1,,,5441AT,Oeffelt,Boxmeer,Noord-Brabant,VBO,5.933770,51.697105
Willem-Alexanderstraat,3,,,5441AT,Oeffelt,Boxmeer,Noord-Brabant,VBO,5.933698,51.697160
Willem-Alexanderstraat,5,,,5441AT,Oeffelt,Boxmeer,Noord-Brabant,VBO,5.933626,51.697187
Willem-Alexanderstraat,7,,,5441AT,Oeffelt,Boxmeer,Noord-Brabant,VBO,5.933583,51.697241
Willem-Alexanderstraat,9,,,5441AT,Oeffelt,Boxmeer,Noord-Brabant,VBO,5.933512,51.697286
Willem-Alexanderstraat,11,,,5441AT,Oeffelt,Boxmeer,Noord-Brabant,VBO,5.933440,51.697332
Willem-Alexanderstraat,13,,,5441AT,Oeffelt,Boxmeer,Noord-Brabant,VBO,5.933382,51.697368
Willem-Alexanderstraat,15,,,5441AT,Oeffelt,Boxmeer,Noord-Brabant,VBO,5.933325,51.697413
Willem-Alexanderstraat,17,,,5441AT,Oeffelt,Boxmeer,Noord-Brabant,VBO,5.933253,51.697458
Willem-Alexanderstraat,19,,,5441AT,Oeffelt,Boxmeer,Noord-Brabant,VBO,5.933138,51.697531
Willem-Alexanderstraat,21,,,5441AT,Oeffelt,Boxmeer,Noord-Brabant,VBO,5.933052,51.697585
Willem-Alexanderstraat,23,,,5441AT,Oeffelt,Boxmeer,Noord-Brabant,VBO,5.932908,51.697640
Willem-Alexanderstraat,25,,,5441AT,Oeffelt,Boxmeer,Noord-Brabant,VBO,5.932822,51.697694
Willem-Alexanderstraat,27,,,5441AT,Oeffelt,Boxmeer,Noord-Brabant,VBO,5.932779,51.697748
Willem-Alexanderstraat,29,,,5441AV,Oeffelt,Boxmeer,Noord-Brabant,VBO,5.932708,51.697784
Willem-Alexanderstraat,31,,,5441AV,Oeffelt,Boxmeer,Noord-Brabant,VBO,5.932650,51.697830
Willem-Alexanderstraat,33,,,5441AV,Oeffelt,Boxmeer,Noord-Brabant,VBO,5.932578,51.697866
Willem-Alexanderstraat,35,,,5441AV,Oeffelt,Boxmeer,Noord-Brabant,VBO,5.932493,51.697947
Willem-Alexanderstraat,37,,,5441AV,Oeffelt,Boxmeer,Noord-Brabant,VBO,5.932421,51.697993
Willem-Alexanderstraat,39,,,5441AV,Oeffelt,Boxmeer,Noord-Brabant,VBO,5.932363,51.698038
Willem-Alexanderstraat,41,,,5441AV,Oeffelt,Boxmeer,Noord-Brabant,VBO,5.932292,51.698083
Willem-Alexanderstraat,43,,,5441AV,Oeffelt,Boxmeer,Noord-Brabant,VBO,5.932234,51.698128
Willem-Alexanderstraat,45,,,5441AV,Oeffelt,Boxmeer,Noord-Brabant,VBO,5.932177,51.698155
Willem-Alexanderstraat,47,,,5441AV,Oeffelt,Boxmeer,Noord-Brabant,VBO,5.932048,51.698228
Willem-Alexanderstraat,49,,,5441AV,Oeffelt,Boxmeer,Noord-Brabant,VBO,5.931990,51.698264
Willem-Alexanderstraat,51,,,5441AV,Oeffelt,Boxmeer,Noord-Brabant,VBO,5.931933,51.698300
Willem-Alexanderstraat,53,,,5441AV,Oeffelt,Boxmeer,Noord-Brabant,VBO,5.931861,51.698346
Willem-Alexanderstraat,55,,,5441AV,Oeffelt,Boxmeer,Noord-Brabant,VBO,5.931804,51.698382
Willem-Alexanderplein,1,,,5441AW,Oeffelt,Boxmeer,Noord-Brabant,VBO,5.932726,51.698126
Willem-Alexanderplein,2,,,5441AW,Oeffelt,Boxmeer,Noord-Brabant,VBO,5.932799,51.698180
Willem-Alexanderplein,3,,,5441AW,Oeffelt,Boxmeer,Noord-Brabant,VBO,5.932886,51.698224
Willem-Alexanderplein,4,,,5441AW,Oeffelt,Boxmeer,Noord-Brabant,VBO,5.932959,51.698269
Willem-Alexanderplein,5,,,5441AW,Oeffelt,Boxmeer,Noord-Brabant,VBO,5.933033,51.698385
Willem-Alexanderplein,6,,,5441AW,Oeffelt,Boxmeer,Noord-Brabant,VBO,5.932961,51.698430
Willem-Alexanderplein,7,,,5441AW,Oeffelt,Boxmeer,Noord-Brabant,VBO,5.932890,51.698485
Willem-Alexanderplein,8,,,5441AW,Oeffelt,Boxmeer,Noord-Brabant,VBO,5.932818,51.698539
Willem-Alexanderplein,9,,,5441AW,Oeffelt,Boxmeer,Noord-Brabant,VBO,5.932615,51.698504
Willem-Alexanderplein,10,,,5441AW,Oeffelt,Boxmeer,Noord-Brabant,VBO,5.932557,51.698468
Willem-Alexanderplein,11,,,5441AW,Oeffelt,Boxmeer,Noord-Brabant,VBO,5.932455,51.698415
Willem-Alexanderplein,12,,,5441AW,Oeffelt,Boxmeer,Noord-Brabant,VBO,5.932396,51.698370
Beatrixstraat,1,,,5441AX,Oeffelt,Boxmeer,Noord-Brabant,VBO,5.933745,51.697465
Beatrixstraat,3,,,5441AX,Oeffelt,Boxmeer,Noord-Brabant,VBO,5.933847,51.697518
Beatrixstraat,5,,,5441AX,Oeffelt,Boxmeer,Noord-Brabant,VBO,5.933920,51.697554
Beatrixstraat,7,,,5441AX,Oeffelt,Boxmeer,Noord-Brabant,VBO,5.933978,51.697590
Beatrixstraat,9,,,5441AX,Oeffelt,Boxmeer,Noord-Brabant,VBO,5.934051,51.697634
Beatrixstraat,11,,,5441AX,Oeffelt,Boxmeer,Noord-Brabant,VBO,5.934109,51.697661
Beatrixstraat,13,,,5441AX,Oeffelt,Boxmeer,Noord-Brabant,VBO,5.934168,51.697724
Beatrixstraat,15,,,5441AX,Oeffelt,Boxmeer,Noord-Brabant,VBO,5.934313,51.697786
Beatrixstraat,17,,,5441AX,Oeffelt,Boxmeer,Noord-Brabant,VBO,5.934386,51.697831
Beatrixstraat,19,,,5441AX,Oeffelt,Boxmeer,Noord-Brabant,VBO,5.934444,51.697866
Beatrixstraat,21,,,5441AX,Oeffelt,Boxmeer,Noord-Brabant,VBO,5.934517,51.697911
Beatrixstraat,23,,,5441AX,Oeffelt,Boxmeer,Noord-Brabant,VBO,5.934576,51.697965
Beatrixstraat,25,,,5441AX,Oeffelt,Boxmeer,Noord-Brabant,VBO,5.934663,51.697982
Beatrixstraat,27,,,5441AX,Oeffelt,Boxmeer,Noord-Brabant,VBO,5.934721,51.698027
Beatrixstraat,29,,,5441AX,Oeffelt,Boxmeer,Noord-Brabant,VBO,5.934912,51.698287
Beatrixstraat,31,,,5441AX,Oeffelt,Boxmeer,Noord-Brabant,VBO,5.935073,51.698376
Beatrixstraat,33,,,5441AX,Oeffelt,Boxmeer,Noord-Brabant,VBO,5.935204,51.698474
Beatrixstraat,2,,,5441AZ,Oeffelt,Boxmeer,Noord-Brabant,VBO,5.934018,51.697293
Beatrixstraat,4,,,5441AZ,Oeffelt,Boxmeer,Noord-Brabant,VBO,5.934105,51.697337
Beatrixstraat,6,,,5441AZ,Oeffelt,Boxmeer,Noord-Brabant,VBO,5.934207,51.697400
Beatrixstraat,8,,,5441AZ,Oeffelt,Boxmeer,Noord-Brabant,VBO,5.934295,51.697453
Beatrixstraat,10,,,5441AZ,Oeffelt,Boxmeer,Noord-Brabant,VBO,5.934397,51.697516
Beatrixstraat,12,,,5441AZ,Oeffelt,Boxmeer,Noord-Brabant,VBO,5.934484,51.697569
Beatrixstraat,14,,,5441AZ,Oeffelt,Boxmeer,Noord-Brabant,VBO,5.934586,51.697632
Beatrixstraat,16,,,5441AZ,Oeffelt,Boxmeer,Noord-Brabant,VBO,5.934674,51.697685
Beatrixstraat,18,,,5441AZ,Oeffelt,Boxmeer,Noord-Brabant,VBO,5.934790,51.697748
Beatrixstraat,20,,,5441AZ,Oeffelt,Boxmeer,Noord-Brabant,VBO,5.934878,51.697801
Beatrixstraat,22,,,5441AZ,Oeffelt,Boxmeer,Noord-Brabant,VBO,5.935009,51.697873
Beatrixstraat,24,,,5441AZ,Oeffelt,Boxmeer,Noord-Brabant,VBO,5.935244,51.698177
Beatrixstraat,26,,,5441AZ,Oeffelt,Boxmeer,Noord-Brabant,VBO,5.935331,51.698222
Beatrixstraat,28,,,5441AZ,Oeffelt,Boxmeer,Noord-Brabant,VBO,5.935535,51.698338
Oranje Nassaustraat,1,,,5441BA,Oeffelt,Boxmeer,Noord-Brabant,VBO,5.935091,51.698726
Oranje Nassaustraat,2,,,5441BA,Oeffelt,Boxmeer,Noord-Brabant,VBO,5.934026,51.699154
Oranje Nassaustraat,3,,,5441BA,Oeffelt,Boxmeer,Noord-Brabant,VBO,5.934961,51.698700
Oranje Nassaustraat,4,,,5441BA,Oeffelt,Boxmeer,Noord-Brabant,VBO,5.933666,51.699272
Oranje Nassaustraat,5,,,5441BA,Oeffelt,Boxmeer,Noord-Brabant,VBO,5.934816,51.698682
Oranje Nassaustraat,7,,,5441BA,Oeffelt,Boxmeer,Noord-Brabant,VBO,5.934685,51.698665
Oranje Nassaustraat,9,,,5441BA,Oeffelt,Boxmeer,Noord-Brabant,VBO,5.934527,51.698702
Oranje Nassaustraat,11,,,5441BA,Oeffelt,Boxmeer,Noord-Brabant,VBO,5.934412,51.698738
Oranje Nassaustraat,13,,,5441BA,Oeffelt,Boxmeer,Noord-Brabant,VBO,5.934253,51.698793
Oranje Nassaustraat,15,,,5441BA,Oeffelt,Boxmeer,Noord-Brabant,VBO,5.934152,51.698820
Oranje Nassaustraat,17,,,5441BA,Oeffelt,Boxmeer,Noord-Brabant,VBO,5.933950,51.698884
Oranje Nassaustraat,19,,,5441BA,Oeffelt,Boxmeer,Noord-Brabant,VBO,5.933676,51.698939
Oranje Nassaustraat,21,,,5441BA,Oeffelt,Boxmeer,Noord-Brabant,VBO,5.933516,51.698841
Tiendplein,1,,,5441BB,Oeffelt,Boxmeer,Noord-Brabant,VBO,5.935393,51.698974
Tiendplein,2,,,5441BB,Oeffelt,Boxmeer,Noord-Brabant,VBO,5.935488,51.698988
Tiendplein,3,,,5441BB,Oeffelt,Boxmeer,Noord-Brabant,VBO,5.935573,51.699008
Tiendplein,4,,,5441BB,Oeffelt,Boxmeer,Noord-Brabant,VBO,5.935661,51.699024
Tiendplein,5,,,5441BB,Oeffelt,Boxmeer,Noord-Brabant,VBO,5.935757,51.699041
Tiendplein,6,,,5441BB,Oeffelt,Boxmeer,Noord-Brabant,VBO,5.935841,51.699054
Tiendplein,7,,,5441BB,Oeffelt,Boxmeer,Noord-Brabant,VBO,5.935936,51.699067
Tiendplein,8,,,5441BB,Oeffelt,Boxmeer,Noord-Brabant,VBO,5.936035,51.699077
Tiendplein,9,,,5441BB,Oeffelt,Boxmeer,Noord-Brabant,VBO,5.936208,51.699052
Tiendplein,10,,,5441BB,Oeffelt,Boxmeer,Noord-Brabant,VBO,5.936250,51.698999
Tiendplein,11,,,5441BB,Oeffelt,Boxmeer,Noord-Brabant,VBO,5.936299,51.698942
Tiendplein,12,,,5441BB,Oeffelt,Boxmeer,Noord-Brabant,VBO,5.936186,51.698856
Tiendplein,13,,,5441BB,Oeffelt,Boxmeer,Noord-Brabant,VBO,5.936095,51.698830
Tiendplein,14,,,5441BB,Oeffelt,Boxmeer,Noord-Brabant,VBO,5.936012,51.698806
Tiendplein,15,,,5441BB,Oeffelt,Boxmeer,Noord-Brabant,VBO,5.935930,51.698783
Tiendplein,16,,,5441BB,Oeffelt,Boxmeer,Noord-Brabant,VBO,5.935838,51.698759
Tiendplein,17,,,5441BB,Oeffelt,Boxmeer,Noord-Brabant,VBO,5.935752,51.698735
Tiendplein,18,,,5441BB,Oeffelt,Boxmeer,Noord-Brabant,VBO,5.935669,51.698714
Tiendplein,19,,,5441BB,Oeffelt,Boxmeer,Noord-Brabant,VBO,5.935581,51.698687
Eurostraat,1,,,5441BC,Oeffelt,Boxmeer,Noord-Brabant,VBO,5.934552,51.698378
Eurostraat,3,,,5441BC,Oeffelt,Boxmeer,Noord-Brabant,VBO,5.934249,51.698469
Eurostraat,5,,,5441BC,Oeffelt,Boxmeer,Noord-Brabant,VBO,5.934206,51.698488
Eurostraat,7,,,5441BC,Oeffelt,Boxmeer,Noord-Brabant,VBO,5.934033,51.698542
Eurostraat,9,,,5441BC,Oeffelt,Boxmeer,Noord-Brabant,VBO,5.933918,51.698579
Eurostraat,11,,,5441BC,Oeffelt,Boxmeer,Noord-Brabant,VBO,5.933789,51.698660
Eurostraat,13,,,5441BC,Oeffelt,Boxmeer,Noord-Brabant,VBO,5.933645,51.698751
Eurostraat,15,,,5441BC,Oeffelt,Boxmeer,Noord-Brabant,VBO,5.933200,51.699041
Brakelstraat,1,,,5441BD,Oeffelt,Boxmeer,Noord-Brabant,VBO,5.932081,51.698569
Brakelstraat,2,,,5441BD,Oeffelt,Boxmeer,Noord-Brabant,VBO,5.931196,51.698376
Brakelstraat,3,,,5441BD,Oeffelt,Boxmeer,Noord-Brabant,VBO,5.932168,51.698596
Brakelstraat,4,,,5441BD,Oeffelt,Boxmeer,Noord-Brabant,VBO,5.931283,51.698429
Brakelstraat,5,,,5441BD,Oeffelt,Boxmeer,Noord-Brabant,VBO,5.932212,51.698650
Brakelstraat,6,,,5441BD,Oeffelt,Boxmeer,Noord-Brabant,VBO,5.931371,51.698501
Brakelstraat,7,,,5441BD,Oeffelt,Boxmeer,Noord-Brabant,VBO,5.932285,51.698685
Brakelstraat,8,,,5441BD,Oeffelt,Boxmeer,Noord-Brabant,VBO,5.931458,51.698554
Brakelstraat,9,,,5441BD,Oeffelt,Boxmeer,Noord-Brabant,VBO,5.932416,51.698757
Brakelstraat,10,,,5441BD,Oeffelt,Boxmeer,Noord-Brabant,VBO,5.931560,51.698617
Brakelstraat,11,,,5441BD,Oeffelt,Boxmeer,Noord-Brabant,VBO,5.932474,51.698801
Brakelstraat,12,,,5441BD,Oeffelt,Boxmeer,Noord-Brabant,VBO,5.931619,51.698652
Brakelstraat,13,,,5441BD,Oeffelt,Boxmeer,Noord-Brabant,VBO,5.932547,51.698828
Brakelstraat,14,,,5441BD,Oeffelt,Boxmeer,Noord-Brabant,VBO,5.931692,51.698697
Brakelstraat,16,,,5441BD,Oeffelt,Boxmeer,Noord-Brabant,VBO,5.931764,51.698742
Brakelstraat,18,,,5441BD,Oeffelt,Boxmeer,Noord-Brabant,VBO,5.931895,51.698786
Brakelstraat,20,,,5441BD,Oeffelt,Boxmeer,Noord-Brabant,VBO,5.931968,51.698822
Brakelstraat,22,,,5441BD,Oeffelt,Boxmeer,Noord-Brabant,VBO,5.932055,51.698875
Brakelstraat,24,,,5441BD,Oeffelt,Boxmeer,Noord-Brabant,VBO,5.932128,51.698911
Kerkplein,1,,,5441BE,Oeffelt,Boxmeer,Noord-Brabant,VBO,5.937660,51.699285
Kerkplein,2,,,5441BE,Oeffelt,Boxmeer,Noord-Brabant,VBO,5.937522,51.698760
Kerkplein,3,,,5441BE,Oeffelt,Boxmeer,Noord-Brabant,VBO,5.937175,51.698815
Kerkplein,4,,,5441BE,Oeffelt,Boxmeer,Noord-Brabant,VBO,5.936804,51.699195
Kerkplein,5,,,5441BE,Oeffelt,Boxmeer,Noord-Brabant,VBO,5.937226,51.699408
Kerkstraat-noord,1,,,5441BG,Oeffelt,Boxmeer,Noord-Brabant,VBO,5.930534,51.698675
Kerkstraat-noord,3,,,5441BG,Oeffelt,Boxmeer,Noord-Brabant,VBO,5.930636,51.698747
Kerkstraat-noord,5,,,5441BG,Oeffelt,Boxmeer,Noord-Brabant,VBO,5.930796,51.698836
Kerkstraat-noord,7,,,5441BG,Oeffelt,Boxmeer,Noord-Brabant,VBO,5.931116,51.698951
Kerkstraat-noord,9,,,5441BG,Oeffelt,Boxmeer,Noord-Brabant,VBO,5.931465,51.699085
Kerkstraat-noord,11,,,5441BG,Oeffelt,Boxmeer,Noord-Brabant,VBO,5.931653,51.699129
Kerkstraat-noord,13,a,,5441BG,Oeffelt,Boxmeer,Noord-Brabant,VBO,5.932059,51.699181
Kerkstraat-noord,13,,,5441BG,Oeffelt,Boxmeer,Noord-Brabant,VBO,5.931871,51.699164
Kerkstraat-noord,15,,,5441BG,Oeffelt,Boxmeer,Noord-Brabant,VBO,5.932479,51.699233
Kerkstraat-noord,17,,,5441BG,Oeffelt,Boxmeer,Noord-Brabant,VBO,5.932929,51.699320
Kerkstraat-noord,19,,,5441BG,Oeffelt,Boxmeer,Noord-Brabant,VBO,5.933161,51.699418
Kerkstraat-noord,21,a,,5441BG,Oeffelt,Boxmeer,Noord-Brabant,VBO,5.933452,51.699498
Kerkstraat-noord,21,,,5441BG,Oeffelt,Boxmeer,Noord-Brabant,VBO,5.933278,51.699472
Kerkstraat-noord,23,,,5441BG,Oeffelt,Boxmeer,Noord-Brabant,VBO,5.933742,51.699577
Kerkstraat-noord,25,,,5441BG,Oeffelt,Boxmeer,Noord-Brabant,VBO,5.933957,51.699442
Kerkstraat-noord,27,,,5441BG,Oeffelt,Boxmeer,Noord-Brabant,VBO,5.934245,51.699359
Kerkstraat-noord,29,,,5441BG,Oeffelt,Boxmeer,Noord-Brabant,VBO,5.934678,51.699240
Kerkstraat-noord,31,,,5441BG,Oeffelt,Boxmeer,Noord-Brabant,VBO,5.935300,51.699255
Kerkstraat-noord,33,,,5441BG,Oeffelt,Boxmeer,Noord-Brabant,VBO,5.935532,51.699272
Kerkstraat-noord,35,,,5441BG,Oeffelt,Boxmeer,Noord-Brabant,VBO,5.935778,51.699316
Kerkstraat-noord,37,,,5441BG,Oeffelt,Boxmeer,Noord-Brabant,VBO,5.936112,51.699378
Kerkstraat-noord,39,,,5441BG,Oeffelt,Boxmeer,Noord-Brabant,VBO,5.936344,51.699430
Kerkstraat-noord,2,,,5441BH,Oeffelt,Boxmeer,Noord-Brabant,VBO,5.930232,51.698785
Kerkstraat-noord,4,,,5441BH,Oeffelt,Boxmeer,Noord-Brabant,VBO,5.930377,51.698856
Kerkstraat-noord,6,,,5441BH,Oeffelt,Boxmeer,Noord-Brabant,VBO,5.930450,51.698901
Kerkstraat-noord,8,,,5441BH,Oeffelt,Boxmeer,Noord-Brabant,VBO,5.930523,51.698936
Kerkstraat-noord,10,,,5441BH,Oeffelt,Boxmeer,Noord-Brabant,VBO,5.930625,51.698999
Kerkstraat-noord,12,,,5441BH,Oeffelt,Boxmeer,Noord-Brabant,VBO,5.930712,51.699061
Kerkstraat-noord,14,,,5441BH,Oeffelt,Boxmeer,Noord-Brabant,VBO,5.930814,51.699106
Kerkstraat-noord,16,a,,5441BH,Oeffelt,Boxmeer,Noord-Brabant,VBO,5.931019,51.699266
Kerkstraat-noord,16,b,,5441BH,Oeffelt,Boxmeer,Noord-Brabant,VBO,5.931121,51.699383
Kerkstraat-noord,16,c,,5441BH,Oeffelt,Boxmeer,Noord-Brabant,VBO,5.931209,51.699499
Kerkstraat-noord,16,d,,5441BH,Oeffelt,Boxmeer,Noord-Brabant,VBO,5.932270,51.699573
Kerkstraat-noord,16,,,5441BH,Oeffelt,Boxmeer,Noord-Brabant,VBO,5.930901,51.699150
Kerkstraat-noord,18,a,,5441BH,Oeffelt,Boxmeer,Noord-Brabant,VBO,5.932517,51.699745
Kerkstraat-noord,18,,,5441BH,Oeffelt,Boxmeer,Noord-Brabant,VBO,5.932525,51.699430
Kerkstraat-noord,20,,,5441BH,Oeffelt,Boxmeer,Noord-Brabant,VBO,5.932975,51.699563
Kerkstraat-noord,24,,,5441BH,Oeffelt,Boxmeer,Noord-Brabant,VBO,5.933267,51.699750
Kerkstraat-noord,26,,,5441BJ,Oeffelt,Boxmeer,Noord-Brabant,VBO,5.933484,51.699794
Kerkstraat-noord,28,,,5441BJ,Oeffelt,Boxmeer,Noord-Brabant,VBO,5.934018,51.699702
Kerkstraat-noord,30,,,5441BJ,Oeffelt,Boxmeer,Noord-Brabant,VBO,5.934105,51.699675
Kerkstraat-noord,32,,,5441BJ,Oeffelt,Boxmeer,Noord-Brabant,VBO,5.934422,51.699565
Kerkstraat-noord,34,,,5441BJ,Oeffelt,Boxmeer,Noord-Brabant,VBO,5.934797,51.699519
Kerkstraat-noord,36,a,,5441BJ,Oeffelt,Boxmeer,Noord-Brabant,VBO,5.935434,51.699516
Kerkstraat-noord,36,,,5441BJ,Oeffelt,Boxmeer,Noord-Brabant,VBO,5.935201,51.699445
Kerkstraat-noord,38,a,,5441BJ,Oeffelt,Boxmeer,Noord-Brabant,VBO,5.935781,51.699559
Kerkstraat-noord,38,,,5441BJ,Oeffelt,Boxmeer,Noord-Brabant,VBO,5.935593,51.699542
Kerkstraat-noord,40,,,5441BJ,Oeffelt,Boxmeer,Noord-Brabant,VBO,5.936041,51.699549
Kerkstraat-noord,42,,,5441BJ,Oeffelt,Boxmeer,Noord-Brabant,VBO,5.936172,51.699593
Kerkstraat-noord,44,a,,5441BJ,Oeffelt,Boxmeer,Noord-Brabant,VBO,5.936506,51.699663
Kerkstraat-noord,44,,,5441BJ,Oeffelt,Boxmeer,Noord-Brabant,VBO,5.936303,51.699619
Kerkstraat-noord,46,,,5441BJ,Oeffelt,Boxmeer,Noord-Brabant,VBO,5.936651,51.699708
Europlein,2,,,5441BK,Oeffelt,Boxmeer,Noord-Brabant,VBO,5.934128,51.698030
Europlein,3,,,5441BK,Oeffelt,Boxmeer,Noord-Brabant,VBO,5.933953,51.697931
Europlein,4,,,5441BK,Oeffelt,Boxmeer,Noord-Brabant,VBO,5.933318,51.698033
Europlein,5,,,5441BK,Oeffelt,Boxmeer,Noord-Brabant,VBO,5.933351,51.698357
Europlein,6,,,5441BK,Oeffelt,Boxmeer,Noord-Brabant,VBO,5.933526,51.698473
Eurostraat,2,,,5441BL,Oeffelt,Boxmeer,Noord-Brabant,VBO,5.934376,51.698163
Eurostraat,4,,,5441BL,Oeffelt,Boxmeer,Noord-Brabant,VBO,5.933368,51.698599
Eurostraat,6,,,5441BL,Oeffelt,Boxmeer,Noord-Brabant,VBO,5.933297,51.698654
Eurostraat,8,,,5441BL,Oeffelt,Boxmeer,Noord-Brabant,VBO,5.933239,51.698690
Eurostraat,10,,,5441BL,Oeffelt,Boxmeer,Noord-Brabant,VBO,5.933167,51.698735
Eurostraat,12,,,5441BL,Oeffelt,Boxmeer,Noord-Brabant,VBO,5.933096,51.698780
Eurostraat,14,,,5441BL,Oeffelt,Boxmeer,Noord-Brabant,VBO,5.932981,51.698862
Eurostraat,16,,,5441BL,Oeffelt,Boxmeer,Noord-Brabant,VBO,5.932924,51.698898
Eurostraat,18,,,5441BL,Oeffelt,Boxmeer,Noord-Brabant,VBO,5.932852,51.698943
Eurostraat,20,,,5441BL,Oeffelt,Boxmeer,Noord-Brabant,VBO,5.932780,51.698980
Brouwersstraat,1,,,5441BM,Oeffelt,Boxmeer,Noord-Brabant,VBO,5.936481,51.700005
Brouwersstraat,3,,,5441BM,Oeffelt,Boxmeer,Noord-Brabant,VBO,5.936078,51.700205
Brouwersstraat,5,,,5441BM,Oeffelt,Boxmeer,Noord-Brabant,VBO,5.935271,51.700442
Brouwersstraat,7,,,5441BM,Oeffelt,Boxmeer,Noord-Brabant,VBO,5.935098,51.700515
Brouwersstraat,9,,,5441BM,Oeffelt,Boxmeer,Noord-Brabant,VBO,5.934303,51.700528
Brouwersstraat,11,,,5441BM,Oeffelt,Boxmeer,Noord-Brabant,VBO,5.934044,51.700619
Brouwersstraat,15,,,5441BM,Oeffelt,Boxmeer,Noord-Brabant,VBO,5.933513,51.700954
Brouwersstraat,17,,,5441BM,Oeffelt,Boxmeer,Noord-Brabant,VBO,5.933268,51.701045
Brouwersstraat,19,,,5441BM,Oeffelt,Boxmeer,Noord-Brabant,VBO,5.933095,51.701117
Brouwersstraat,2,a,,5441BN,Oeffelt,Boxmeer,Noord-Brabant,VBO,5.937001,51.699931
Brouwersstraat,2,,,5441BN,Oeffelt,Boxmeer,Noord-Brabant,VBO,5.937013,51.699760
Brouwersstraat,4,,,5441BN,Oeffelt,Boxmeer,Noord-Brabant,VBO,5.936658,51.700292
Brouwersstraat,6,,,5441BN,Oeffelt,Boxmeer,Noord-Brabant,VBO,5.936470,51.700329
Brouwersstraat,8,,,5441BN,Oeffelt,Boxmeer,Noord-Brabant,VBO,5.936355,51.700374
Brouwersstraat,10,,,5441BN,Oeffelt,Boxmeer,Noord-Brabant,VBO,5.936212,51.700474
Brouwersstraat,12,,,5441BN,Oeffelt,Boxmeer,Noord-Brabant,VBO,5.935303,51.700685
Brouwersstraat,14,,,5441BN,Oeffelt,Boxmeer,Noord-Brabant,VBO,5.935058,51.700767
Brouwersstraat,16,,,5441BN,Oeffelt,Boxmeer,Noord-Brabant,VBO,5.934842,51.700822
Brouwersstraat,18,,,5441BN,Oeffelt,Boxmeer,Noord-Brabant,VBO,5.934438,51.700904
Brouwersstraat,20,,,5441BN,Oeffelt,Boxmeer,Noord-Brabant,VBO,5.934337,51.700932
Brouwersstraat,22,,,5441BN,Oeffelt,Boxmeer,Noord-Brabant,VBO,5.934135,51.700978
Brouwersstraat,24,,,5441BN,Oeffelt,Boxmeer,Noord-Brabant,VBO,5.934048,51.701014
Brouwersstraat,26,,,5441BN,Oeffelt,Boxmeer,Noord-Brabant,VBO,5.933847,51.701087
Raamhof,1,,,5441BP,Oeffelt,Boxmeer,Noord-Brabant,VBO,5.939155,51.695121
Raamhof,3,,,5441BP,Oeffelt,Boxmeer,Noord-Brabant,VBO,5.939214,51.695147
Raamhof,5,,,5441BP,Oeffelt,Boxmeer,Noord-Brabant,VBO,5.939301,51.695165
Raamhof,7,,,5441BP,Oeffelt,Boxmeer,Noord-Brabant,VBO,5.939274,51.695345
Raamhof,9,,,5441BP,Oeffelt,Boxmeer,Noord-Brabant,VBO,5.939274,51.695399
Raamhof,11,,,5441BP,Oeffelt,Boxmeer,Noord-Brabant,VBO,5.939275,51.695435
Raamhof,13,,,5441BP,Oeffelt,Boxmeer,Noord-Brabant,VBO,5.939232,51.695507
Raamhof,15,,,5441BP,Oeffelt,Boxmeer,Noord-Brabant,VBO,5.939233,51.695552
Raamhof,17,,,5441BP,Oeffelt,Boxmeer,Noord-Brabant,VBO,5.939233,51.695597
Raamhof,19,,,5441BP,Oeffelt,Boxmeer,Noord-Brabant,VBO,5.939177,51.695705
Raamhof,21,,,5441BP,Oeffelt,Boxmeer,Noord-Brabant,VBO,5.939120,51.695741
Raamhof,23,,,5441BP,Oeffelt,Boxmeer,Noord-Brabant,VBO,5.939077,51.695777
Raamhof,25,,,5441BP,Oeffelt,Boxmeer,Noord-Brabant,VBO,5.938919,51.695886
Raamhof,27,,,5441BP,Oeffelt,Boxmeer,Noord-Brabant,VBO,5.938803,51.695841
Raamhof,29,,,5441BP,Oeffelt,Boxmeer,Noord-Brabant,VBO,5.938672,51.695833
Raamhof,2,,,5441BR,Oeffelt,Boxmeer,Noord-Brabant,VBO,5.939661,51.695109
Raamhof,4,,,5441BR,Oeffelt,Boxmeer,Noord-Brabant,VBO,5.939634,51.695271
Raamhof,6,,,5441BR,Oeffelt,Boxmeer,Noord-Brabant,VBO,5.939621,51.695316
Raamhof,8,,,5441BR,Oeffelt,Boxmeer,Noord-Brabant,VBO,5.939607,51.695370
Raamhof,10,,,5441BR,Oeffelt,Boxmeer,Noord-Brabant,VBO,5.939608,51.695487
Raamhof,12,,,5441BR,Oeffelt,Boxmeer,Noord-Brabant,VBO,5.939580,51.695532
Raamhof,14,,,5441BR,Oeffelt,Boxmeer,Noord-Brabant,VBO,5.939580,51.695577
Raamhof,16,,,5441BR,Oeffelt,Boxmeer,Noord-Brabant,VBO,5.939625,51.695694
Raamhof,18,,,5441BR,Oeffelt,Boxmeer,Noord-Brabant,VBO,5.939626,51.695748
Raamhof,20,,,5441BR,Oeffelt,Boxmeer,Noord-Brabant,VBO,5.939598,51.695874
Raamhof,22,,,5441BR,Oeffelt,Boxmeer,Noord-Brabant,VBO,5.939382,51.695955
Raamhof,24,,,5441BR,Oeffelt,Boxmeer,Noord-Brabant,VBO,5.939253,51.696010
Raamhof,26,,,5441BR,Oeffelt,Boxmeer,Noord-Brabant,VBO,5.939138,51.696055
Raamhof,28,,,5441BR,Oeffelt,Boxmeer,Noord-Brabant,VBO,5.938950,51.696083
Raamhof,30,,,5441BR,Oeffelt,Boxmeer,Noord-Brabant,VBO,5.938834,51.696066
Raamhof,34,,,5441BR,Oeffelt,Boxmeer,Noord-Brabant,VBO,5.938602,51.695995
Raamhof,36,,,5441BR,Oeffelt,Boxmeer,Noord-Brabant,VBO,5.938515,51.695978
Raamhof,38,,,5441BR,Oeffelt,Boxmeer,Noord-Brabant,VBO,5.938326,51.695942
Passage,1,,,5441BS,Oeffelt,Boxmeer,Noord-Brabant,VBO,5.933472,51.697637
Passage,2,,,5441BS,Oeffelt,Boxmeer,Noord-Brabant,VBO,5.933502,51.697655
Passage,3,,,5441BS,Oeffelt,Boxmeer,Noord-Brabant,VBO,5.933531,51.697673
Passage,4,,,5441BS,Oeffelt,Boxmeer,Noord-Brabant,VBO,5.933574,51.697691
Passage,5,,,5441BS,Oeffelt,Boxmeer,Noord-Brabant,VBO,5.933604,51.697708
Passage,6,,,5441BS,Oeffelt,Boxmeer,Noord-Brabant,VBO,5.933633,51.697726
Passage,7,,,5441BS,Oeffelt,Boxmeer,Noord-Brabant,VBO,5.933676,51.697744
Passage,8,,,5441BS,Oeffelt,Boxmeer,Noord-Brabant,VBO,5.933705,51.697762
Passage,9,,,5441BS,Oeffelt,Boxmeer,Noord-Brabant,VBO,5.933735,51.697789
Passage,10,,,5441BS,Oeffelt,Boxmeer,Noord-Brabant,VBO,5.933764,51.697807
Passage,11,,,5441BS,Oeffelt,Boxmeer,Noord-Brabant,VBO,5.933807,51.697824
Passage,12,,,5441BS,Oeffelt,Boxmeer,Noord-Brabant,VBO,5.933822,51.697842
Passage,13,a,,5441BS,Oeffelt,Boxmeer,Noord-Brabant,VBO,5.933416,51.697888
Passage,13,,,5441BS,Oeffelt,Boxmeer,Noord-Brabant,VBO,5.933548,51.697917
Lietingplein,1,,,5441BT,Oeffelt,Boxmeer,Noord-Brabant,VBO,5.935317,51.697134
Lietingplein,2,,,5441BT,Oeffelt,Boxmeer,Noord-Brabant,VBO,5.935361,51.697116
Lietingplein,3,,,5441BT,Oeffelt,Boxmeer,Noord-Brabant,VBO,5.935405,51.697143
Lietingplein,4,,,5441BT,Oeffelt,Boxmeer,Noord-Brabant,VBO,5.935448,51.697160
Lietingplein,5,,,5441BT,Oeffelt,Boxmeer,Noord-Brabant,VBO,5.935478,51.697187
Lietingplein,6,,,5441BT,Oeffelt,Boxmeer,Noord-Brabant,VBO,5.935521,51.697205
Lietingplein,7,,,5441BT,Oeffelt,Boxmeer,Noord-Brabant,VBO,5.935565,51.697232
Lietingplein,8,,,5441BT,Oeffelt,Boxmeer,Noord-Brabant,VBO,5.935609,51.697259
Lietingplein,9,,,5441BT,Oeffelt,Boxmeer,Noord-Brabant,VBO,5.935652,51.697285
Beenhouwersplein,1,,,5441BV,Oeffelt,Boxmeer,Noord-Brabant,VBO,5.933649,51.699960
Beenhouwersplein,2,,,5441BV,Oeffelt,Boxmeer,Noord-Brabant,VBO,5.933651,51.700005
Beenhouwersplein,3,,,5441BV,Oeffelt,Boxmeer,Noord-Brabant,VBO,5.933652,51.700051
Beenhouwersplein,4,,,5441BV,Oeffelt,Boxmeer,Noord-Brabant,VBO,5.933651,51.700102
Beenhouwersplein,5,,,5441BV,Oeffelt,Boxmeer,Noord-Brabant,VBO,5.933735,51.700227
Beenhouwersplein,6,,,5441BV,Oeffelt,Boxmeer,Noord-Brabant,VBO,5.933807,51.700226
't Hofke,1,,,5441BZ,Oeffelt,Boxmeer,Noord-Brabant,VBO,5.935943,51.696232
't Hofke,2,,,5441BZ,Oeffelt,Boxmeer,Noord-Brabant,VBO,5.935871,51.696197
't Hofke,3,,,5441BZ,Oeffelt,Boxmeer,Noord-Brabant,VBO,5.935812,51.696161
't Hofke,4,,,5441BZ,Oeffelt,Boxmeer,Noord-Brabant,VBO,5.935754,51.696107
't Hofke,5,,,5441BZ,Oeffelt,Boxmeer,Noord-Brabant,VBO,5.935710,51.696036
't Hofke,6,,,5441BZ,Oeffelt,Boxmeer,Noord-Brabant,VBO,5.935637,51.695982
't Hofke,7,,,5441BZ,Oeffelt,Boxmeer,Noord-Brabant,VBO,5.935478,51.696010
't Hofke,8,,,5441BZ,Oeffelt,Boxmeer,Noord-Brabant,VBO,5.935392,51.696055
't Hofke,9,,,5441BZ,Oeffelt,Boxmeer,Noord-Brabant,VBO,5.935320,51.696100
Hapseweg,1,a,,5441PA,Oeffelt,Boxmeer,Noord-Brabant,VBO,5.907609,51.695067
Hapseweg,2,,,5441PA,Oeffelt,Boxmeer,Noord-Brabant,VBO,5.907454,51.692938
Hapseweg,3,,,5441PA,Oeffelt,Boxmeer,Noord-Brabant,VBO,5.913052,51.694207
Hapseweg,4,a,,5441PA,Oeffelt,Boxmeer,Noord-Brabant,VBO,5.910917,51.692239
Hapseweg,4,,,5441PA,Oeffelt,Boxmeer,Noord-Brabant,VBO,5.910685,51.692141
Hapseweg,5,a,,5441PA,Oeffelt,Boxmeer,Noord-Brabant,VBO,5.917019,51.695782
Hapseweg,5,,,5441PA,Oeffelt,Boxmeer,Noord-Brabant,VBO,5.915829,51.694195
Hapseweg,6,,,5441PA,Oeffelt,Boxmeer,Noord-Brabant,VBO,5.910680,51.692950
Hapseweg,7,,,5441PA,Oeffelt,Boxmeer,Noord-Brabant,VBO,5.918055,51.694131
Hapseweg,8,,,5441PA,Oeffelt,Boxmeer,Noord-Brabant,VBO,5.920459,51.693185
Hapseweg,9,a,,5441PA,Oeffelt,Boxmeer,Noord-Brabant,VBO,5.923347,51.693954
Hapseweg,9,b,,5441PA,Oeffelt,Boxmeer,Noord-Brabant,VBO,5.921323,51.694044
Hapseweg,9,c,,5441PA,Oeffelt,Boxmeer,Noord-Brabant,VBO,5.920958,51.693758
Hapseweg,9,,,5441PA,Oeffelt,Boxmeer,Noord-Brabant,VBO,5.919239,51.693900
Hapseweg,10,,,5441PA,Oeffelt,Boxmeer,Noord-Brabant,VBO,5.922995,51.693551
Hapseweg,11,a,,5441PA,Oeffelt,Boxmeer,Noord-Brabant,VBO,5.932497,51.695934
Hapseweg,11,,,5441PA,Oeffelt,Boxmeer,Noord-Brabant,VBO,5.932149,51.695872
Hapseweg,12,,,5441PA,Oeffelt,Boxmeer,Noord-Brabant,VBO,5.923111,51.693568
Hapseweg,13,,,5441PA,Oeffelt,Boxmeer,Noord-Brabant,VBO,5.932938,51.695960
Hapseweg,14,,,5441PA,Oeffelt,Boxmeer,Noord-Brabant,VBO,5.933503,51.695408
Hapseweg,15,,,5441PA,Oeffelt,Boxmeer,Noord-Brabant,VBO,5.933079,51.696031
Kruispunt,1,a,,5441PB,Oeffelt,Boxmeer,Noord-Brabant,VBO,5.905470,51.690187
Kruispunt,1,b,,5441PB,Oeffelt,Boxmeer,Noord-Brabant,VBO,5.905502,51.690421
Kruispunt,1,,,5441PB,Oeffelt,Boxmeer,Noord-Brabant,VBO,5.905006,51.692634
Kruispunt,2,a,,5441PB,Oeffelt,Boxmeer,Noord-Brabant,VBO,5.906661,51.690586
Kruispunt,2,,,5441PB,Oeffelt,Boxmeer,Noord-Brabant,VBO,5.906020,51.691488
Kruispunt,3,,,5441PB,Oeffelt,Boxmeer,Noord-Brabant,VBO,5.905495,51.689881
Kruispunt,4,,,5441PB,Oeffelt,Boxmeer,Noord-Brabant,VBO,5.909759,51.689674
Kruispunt,5,,,5441PB,Oeffelt,Boxmeer,Noord-Brabant,VBO,5.902580,51.689157
Kruispunt,6,,,5441PB,Oeffelt,Boxmeer,Noord-Brabant,VBO,5.909831,51.689646
Kruispunt,8,,,5441PB,Oeffelt,Boxmeer,Noord-Brabant,VBO,5.910565,51.689328
Kruispunt,12,,,5441PB,Oeffelt,Boxmeer,Noord-Brabant,VBO,5.905843,51.689907
Kruispunt,13,,,5441PB,Oeffelt,Boxmeer,Noord-Brabant,VBO,5.904662,51.687844
Kruispunt,14,,,5441PB,Oeffelt,Boxmeer,Noord-Brabant,VBO,5.905813,51.689844
Kruispunt,15,,,5441PB,Oeffelt,Boxmeer,Noord-Brabant,VBO,5.904633,51.687791
Kruispunt,16,,,5441PB,Oeffelt,Boxmeer,Noord-Brabant,VBO,5.905753,51.689610
Kruispunt,18,,,5441PB,Oeffelt,Boxmeer,Noord-Brabant,VBO,5.905723,51.689557
Kruispunt,20,,,5441PB,Oeffelt,Boxmeer,Noord-Brabant,VBO,5.905441,51.688893
Kruispunt,22,,,5441PB,Oeffelt,Boxmeer,Noord-Brabant,VBO,5.907548,51.688497
Kruispunt,26,,,5441PB,Oeffelt,Boxmeer,Noord-Brabant,VBO,5.911542,51.688889
Kruispunt,28,,,5441PB,Oeffelt,Boxmeer,Noord-Brabant,VBO,5.910921,51.688850
Viltseweg,1,,,5441PC,Oeffelt,Boxmeer,Noord-Brabant,VBO,5.906551,51.686101
Viltseweg,2,a,a,5441PC,Oeffelt,Boxmeer,Noord-Brabant,VBO,5.907967,51.685947
Viltseweg,2,a,,5441PC,Oeffelt,Boxmeer,Noord-Brabant,VBO,5.909539,51.685585
Viltseweg,2,b,,5441PC,Oeffelt,Boxmeer,Noord-Brabant,VBO,5.912491,51.685787
Viltseweg,2,,,5441PC,Oeffelt,Boxmeer,Noord-Brabant,VBO,5.908054,51.685996
Viltseweg,3,,,5441PC,Oeffelt,Boxmeer,Noord-Brabant,VBO,5.911060,51.685830
Viltseweg,4,,,5441PC,Oeffelt,Boxmeer,Noord-Brabant,VBO,5.914640,51.686515
Viltseweg,5,a,,5441PC,Oeffelt,Boxmeer,Noord-Brabant,VBO,5.916048,51.686967
Viltseweg,5,,,5441PC,Oeffelt,Boxmeer,Noord-Brabant,VBO,5.916154,51.686166
Viltseweg,6,,,5441PC,Oeffelt,Boxmeer,Noord-Brabant,VBO,5.917079,51.687348
Krolhoek,1,,,5441PD,Oeffelt,Boxmeer,Noord-Brabant,VBO,5.923153,51.692238
Krolhoek,2,a,,5441PD,Oeffelt,Boxmeer,Noord-Brabant,VBO,5.922487,51.690937
Krolhoek,2,,,5441PD,Oeffelt,Boxmeer,Noord-Brabant,VBO,5.922849,51.691026
Krolhoek,3,,,5441PD,Oeffelt,Boxmeer,Noord-Brabant,VBO,5.924338,51.690965
Krolhoek,4,,,5441PD,Oeffelt,Boxmeer,Noord-Brabant,VBO,5.922008,51.690841
Werveld,1,,,5441PE,Oeffelt,Boxmeer,Noord-Brabant,VBO,5.927143,51.689685
Werveld,2,,,5441PE,Oeffelt,Boxmeer,Noord-Brabant,VBO,5.928529,51.689435
Werveld,3,,,5441PE,Oeffelt,Boxmeer,Noord-Brabant,VBO,5.929827,51.689178
Houwsestraat,1,,,5441PG,Oeffelt,Boxmeer,Noord-Brabant,VBO,5.932516,51.692680
Houwsestraat,2,,,5441PG,Oeffelt,Boxmeer,Noord-Brabant,VBO,5.933423,51.692379
Houwsestraat,3,,,5441PG,Oeffelt,Boxmeer,Noord-Brabant,VBO,5.932299,51.692672
Scharmolen,3,a,,5441PH,Oeffelt,Boxmeer,Noord-Brabant,VBO,5.935070,51.692005
Scharmolen,3,,,5441PH,Oeffelt,Boxmeer,Noord-Brabant,VBO,5.934534,51.692086
Scharmolen,4,,,5441PH,Oeffelt,Boxmeer,Noord-Brabant,VBO,5.934689,51.691753
Scharmolen,5,,,5441PH,Oeffelt,Boxmeer,Noord-Brabant,VBO,5.934500,51.691682
Scharmolen,6,,,5441PH,Oeffelt,Boxmeer,Noord-Brabant,VBO,5.935744,51.691739
Hoogeind,1,a,,5441PJ,Oeffelt,Boxmeer,Noord-Brabant,VBO,5.943029,51.688990
Hoogeind,1,b,,5441PJ,Oeffelt,Boxmeer,Noord-Brabant,VBO,5.942571,51.690574
Hoogeind,1,,,5441PJ,Oeffelt,Boxmeer,Noord-Brabant,VBO,5.942323,51.691627
Hoogeind,2,,,5441PJ,Oeffelt,Boxmeer,Noord-Brabant,VBO,5.942123,51.691772
Hoogeind,3,,,5441PJ,Oeffelt,Boxmeer,Noord-Brabant,VBO,5.944250,51.691870
Hoogeind,4,,,5441PJ,Oeffelt,Boxmeer,Noord-Brabant,VBO,5.942418,51.692337
Hoogeind,5,,,5441PJ,Oeffelt,Boxmeer,Noord-Brabant,VBO,5.942422,51.692570
Hoogeind,6,,,5441PJ,Oeffelt,Boxmeer,Noord-Brabant,VBO,5.941941,51.692258
Oeffeltseweg,6,b,,5441PJ,Haps,Cuijk,Noord-Brabant,VBO,5.873701,51.691366
Hazewinkel,1,,,5441PK,Oeffelt,Boxmeer,Noord-Brabant,VBO,5.938016,51.685868
Hazewinkel,3,,,5441PK,Oeffelt,Boxmeer,Noord-Brabant,VBO,5.937933,51.686219
Veerweg,1,,,5441PL,Oeffelt,Boxmeer,Noord-Brabant,VBO,5.940993,51.692811
Veerweg,2,,,5441PL,Oeffelt,Boxmeer,Noord-Brabant,VBO,5.954953,51.697679
Veerweg,3,,,5441PL,Oeffelt,Boxmeer,Noord-Brabant,VBO,5.939908,51.692780
Veerweg,4,,,5441PL,Oeffelt,Boxmeer,Noord-Brabant,VBO,5.954733,51.697446
Veerweg,6,,,5441PL,Oeffelt,Boxmeer,Noord-Brabant,VBO,5.954578,51.697743
Veerweg,8,,,5441PL,Oeffelt,Boxmeer,Noord-Brabant,VBO,5.953663,51.699779
Veerweg,14,,,5441PL,Oeffelt,Boxmeer,Noord-Brabant,VBO,5.941223,51.693852
Melder,1,,,5441PM,Oeffelt,Boxmeer,Noord-Brabant,VBO,5.922015,51.698769
Melder,3,,,5441PM,Oeffelt,Boxmeer,Noord-Brabant,VBO,5.922590,51.698442
Melder,4,a,,5441PM,Oeffelt,Boxmeer,Noord-Brabant,VBO,5.924680,51.695404
Melder,4,,,5441PM,Oeffelt,Boxmeer,Noord-Brabant,VBO,5.922604,51.697220
Melder,5,,,5441PM,Oeffelt,Boxmeer,Noord-Brabant,VBO,5.921518,51.697063
Melder,6,,,5441PM,Oeffelt,Boxmeer,Noord-Brabant,VBO,5.918919,51.697515
Melder,7,,,5441PM,Oeffelt,Boxmeer,Noord-Brabant,VBO,5.918223,51.697294
Melder,8,,,5441PM,Oeffelt,Boxmeer,Noord-Brabant,VBO,5.915486,51.698259
Scheperstraat,1,,,5441PN,Oeffelt,Boxmeer,Noord-Brabant,VBO,5.913360,51.695842
Scheperstraat,2,a,,5441PN,Oeffelt,Boxmeer,Noord-Brabant,VBO,5.910273,51.695325
Scheperstraat,2,b,,5441PN,Oeffelt,Boxmeer,Noord-Brabant,VBO,5.911022,51.695016
Scheperstraat,2,,,5441PN,Oeffelt,Boxmeer,Noord-Brabant,VBO,5.912852,51.695682
Scheperstraat,3,,,5441PN,Oeffelt,Boxmeer,Noord-Brabant,VBO,5.911151,51.696229
Scheperstraat,4,,,5441PN,Oeffelt,Boxmeer,Noord-Brabant,VBO,5.912779,51.696860
Scheperstraat,5,a,,5441PN,Oeffelt,Boxmeer,Noord-Brabant,VBO,5.914106,51.697771
Scheperstraat,5,,,5441PN,Oeffelt,Boxmeer,Noord-Brabant,VBO,5.912738,51.697058
Scheperstraat,6,a,,5441PN,Oeffelt,Boxmeer,Noord-Brabant,VBO,5.910899,51.699421
Scheperstraat,6,,,5441PN,Oeffelt,Boxmeer,Noord-Brabant,VBO,5.911754,51.699516
Scheperstraat,7,,,5441PN,Oeffelt,Boxmeer,Noord-Brabant,VBO,5.911482,51.699769
Scheperstraat,8,,,5441PN,Oeffelt,Boxmeer,Noord-Brabant,VBO,5.912562,51.700582
Scheperstraat,9,a,,5441PN,Oeffelt,Boxmeer,Noord-Brabant,VBO,5.910895,51.700221
Scheperstraat,9,,,5441PN,Oeffelt,Boxmeer,Noord-Brabant,VBO,5.911154,51.700229
Katsven,1,,,5441PP,Oeffelt,Boxmeer,Noord-Brabant,VBO,5.911724,51.698213
Katsven,2,,,5441PP,Oeffelt,Boxmeer,Noord-Brabant,VBO,5.911110,51.697667
Katsven,3,,,5441PP,Oeffelt,Boxmeer,Noord-Brabant,VBO,5.910218,51.698049
Heide,1,,,5441PR,Oeffelt,Boxmeer,Noord-Brabant,VBO,5.923843,51.700423
Heide,2,,,5441PR,Oeffelt,Boxmeer,Noord-Brabant,VBO,5.923984,51.700090
Heide,3,,,5441PR,Oeffelt,Boxmeer,Noord-Brabant,VBO,5.921489,51.699535
Heide,4,,,5441PR,Oeffelt,Boxmeer,Noord-Brabant,VBO,5.919898,51.699578
Heide,5,a,,5441PR,Oeffelt,Boxmeer,Noord-Brabant,VBO,5.920215,51.698211
Heide,5,,,5441PR,Oeffelt,Boxmeer,Noord-Brabant,VBO,5.919623,51.699571
Heide,6,a,,5441PR,Oeffelt,Boxmeer,Noord-Brabant,VBO,5.918928,51.699351
Heide,6,,,5441PR,Oeffelt,Boxmeer,Noord-Brabant,VBO,5.918494,51.699504
Heide,7,,,5441PR,Oeffelt,Boxmeer,Noord-Brabant,VBO,5.918350,51.699495
Heide,8,,,5441PR,Oeffelt,Boxmeer,Noord-Brabant,VBO,5.917744,51.699642
Heide,9,,,5441PR,Oeffelt,Boxmeer,Noord-Brabant,VBO,5.915377,51.700102
Heide,10,a,,5441PR,Oeffelt,Boxmeer,Noord-Brabant,VBO,5.915468,51.698894
Heide,10,,,5441PR,Oeffelt,Boxmeer,Noord-Brabant,VBO,5.915508,51.698915
Heide,10,,,5441PR,Oeffelt,Boxmeer,Noord-Brabant,VBO,5.915644,51.698927
Heide,11,,,5441PR,Oeffelt,Boxmeer,Noord-Brabant,VBO,5.914378,51.698821
Heide,12,,,5441PR,Oeffelt,Boxmeer,Noord-Brabant,VBO,5.913896,51.698419
Heide,13,,,5441PR,Oeffelt,Boxmeer,Noord-Brabant,VBO,5.913029,51.698450
Vossekuil,1,a,,5441PS,Oeffelt,Boxmeer,Noord-Brabant,VBO,5.919673,51.702546
Vossekuil,1,b,,5441PS,Oeffelt,Boxmeer,Noord-Brabant,VBO,5.921202,51.702179
Vossekuil,1,,,5441PS,Oeffelt,Boxmeer,Noord-Brabant,VBO,5.919861,51.702509
Vossekuil,2,,,5441PS,Oeffelt,Boxmeer,Noord-Brabant,VBO,5.917068,51.702467
Vossekuil,3,,,5441PS,Oeffelt,Boxmeer,Noord-Brabant,VBO,5.917602,51.702321
Vossekuil,4,,,5441PS,Oeffelt,Boxmeer,Noord-Brabant,VBO,5.917687,51.702186
Vossekuil,5,,,5441PS,Oeffelt,Boxmeer,Noord-Brabant,VBO,5.917897,51.701601
Vossekuil,6,,,5441PS,Oeffelt,Boxmeer,Noord-Brabant,VBO,5.918582,51.700789
Heerstraat,2,a,,5441PT,Oeffelt,Boxmeer,Noord-Brabant,VBO,5.918037,51.703677
Heerstraat,2,,,5441PT,Oeffelt,Boxmeer,Noord-Brabant,VBO,5.918225,51.703622
Kerkenhuisweg,1,a,,5441PW,Oeffelt,Boxmeer,Noord-Brabant,VBO,5.910711,51.700707
Kerkenhuisweg,1,b,,5441PW,Oeffelt,Boxmeer,Noord-Brabant,VBO,5.910232,51.700485
Kerkenhuisweg,1,,,5441PW,Oeffelt,Boxmeer,Noord-Brabant,VBO,5.916534,51.703818
Kerkenhuisweg,2,,,5441PW,Oeffelt,Boxmeer,Noord-Brabant,VBO,5.909185,51.700031
Kerkenhuisweg,3,a,,5441PW,Oeffelt,Boxmeer,Noord-Brabant,VBO,5.908510,51.699243
Kerkenhuisweg,3,,,5441PW,Oeffelt,Boxmeer,Noord-Brabant,VBO,5.908718,51.699692
Kerkenhuisweg,4,,,5441PW,Oeffelt,Boxmeer,Noord-Brabant,VBO,5.905037,51.696571
Kerkenhuisweg,5,,,5441PW,Oeffelt,Boxmeer,Noord-Brabant,VBO,5.903553,51.694537
Kerkenhuisweg,6,,,5441PW,Oeffelt,Boxmeer,Noord-Brabant,VBO,5.904673,51.693813
Cuijkseweg,1,a,,5441XA,Oeffelt,Boxmeer,Noord-Brabant,VBO,5.922854,51.704859
Cuijkseweg,1,,,5441XA,Oeffelt,Boxmeer,Noord-Brabant,VBO,5.922742,51.705201
Cuijkseweg,2,,,5441XA,Oeffelt,Boxmeer,Noord-Brabant,VBO,5.921319,51.705927
Cuijkseweg,3,,,5441XA,Oeffelt,Boxmeer,Noord-Brabant,VBO,5.924623,51.703979
Cuijkseweg,4,,,5441XA,Oeffelt,Boxmeer,Noord-Brabant,VBO,5.926286,51.700250
Cuijkseweg,5,,,5441XA,Oeffelt,Boxmeer,Noord-Brabant,VBO,5.924080,51.703325
Cuijkseweg,6,,,5441XA,Oeffelt,Boxmeer,Noord-Brabant,VBO,5.927592,51.699163
Cuijkseweg,7,,,5441XA,Oeffelt,Boxmeer,Noord-Brabant,VBO,5.924595,51.702865
Cuijkseweg,9,a,,5441XA,Oeffelt,Boxmeer,Noord-Brabant,VBO,5.926669,51.700860
Cuijkseweg,9,b,,5441XA,Oeffelt,Boxmeer,Noord-Brabant,VBO,5.926536,51.700644
Cuijkseweg,9,c,,5441XA,Oeffelt,Boxmeer,Noord-Brabant,VBO,5.928014,51.699900
Cuijkseweg,9,,,5441XA,Oeffelt,Boxmeer,Noord-Brabant,VBO,5.924982,51.702503
Cuijkseweg,11,,,5441XA,Oeffelt,Boxmeer,Noord-Brabant,VBO,5.928187,51.699603
Cuijkseweg,13,,,5441XA,Oeffelt,Boxmeer,Noord-Brabant,VBO,5.928902,51.699299
Cuijkseweg,15,,,5441XA,Oeffelt,Boxmeer,Noord-Brabant,VBO,5.928999,51.699204
Cuijkseweg,17,a,,5441XA,Oeffelt,Boxmeer,Noord-Brabant,VBO,5.929425,51.699067
Cuijkseweg,17,,,5441XA,Oeffelt,Boxmeer,Noord-Brabant,VBO,5.929261,51.699138
Cuijkseweg,19,a,,5441XA,Oeffelt,Boxmeer,Noord-Brabant,VBO,5.930266,51.699234
Cuijkseweg,19,,,5441XA,Oeffelt,Boxmeer,Noord-Brabant,VBO,5.929757,51.699003
Looi,1,a,,5441XB,Oeffelt,Boxmeer,Noord-Brabant,VBO,5.926946,51.701038
Looi,1,b,,5441XB,Oeffelt,Boxmeer,Noord-Brabant,VBO,5.927555,51.701179
Looi,1,c,,5441XB,Oeffelt,Boxmeer,Noord-Brabant,VBO,5.927938,51.700957
Looi,1,d,d,5441XB,Oeffelt,Boxmeer,Noord-Brabant,VBO,5.927491,51.700674
Looi,1,d,,5441XB,Oeffelt,Boxmeer,Noord-Brabant,VBO,5.927085,51.700543
Looi,1,e,,5441XB,Oeffelt,Boxmeer,Noord-Brabant,VBO,5.927747,51.700234
Looi,1,f,,5441XB,Oeffelt,Boxmeer,Noord-Brabant,VBO,5.928114,51.700691
Looi,1,,,5441XB,Oeffelt,Boxmeer,Noord-Brabant,VBO,5.927277,51.704551
Looi,2,a,,5441XB,Oeffelt,Boxmeer,Noord-Brabant,VBO,5.927763,51.701601
Looi,2,b,,5441XB,Oeffelt,Boxmeer,Noord-Brabant,VBO,5.927305,51.701989
Looi,2,,,5441XB,Oeffelt,Boxmeer,Noord-Brabant,VBO,5.927376,51.701899
Looi,3,a,,5441XB,Oeffelt,Boxmeer,Noord-Brabant,VBO,5.928614,51.700497
Looi,3,,,5441XB,Oeffelt,Boxmeer,Noord-Brabant,VBO,5.928805,51.700409
Looi,4,a,,5441XB,Oeffelt,Boxmeer,Noord-Brabant,VBO,5.928516,51.701009
Looi,4,,,5441XB,Oeffelt,Boxmeer,Noord-Brabant,VBO,5.928150,51.701302
Looi,5,a,,5441XB,Oeffelt,Boxmeer,Noord-Brabant,VBO,5.929290,51.699895
Looi,5,b,,5441XB,Oeffelt,Boxmeer,Noord-Brabant,VBO,5.929936,51.699469
Looi,5,,,5441XB,Oeffelt,Boxmeer,Noord-Brabant,VBO,5.929063,51.700237
Looi,6,,,5441XB,Oeffelt,Boxmeer,Noord-Brabant,VBO,5.928709,51.700895
Looi,7,,,5441XB,Oeffelt,Boxmeer,Noord-Brabant,VBO,5.930690,51.699646
Looi,8,,,5441XB,Oeffelt,Boxmeer,Noord-Brabant,VBO,5.928853,51.700814
Looi,10,,,5441XB,Oeffelt,Boxmeer,Noord-Brabant,VBO,5.928968,51.700750
Looi,12,a,,5441XB,Oeffelt,Boxmeer,Noord-Brabant,VBO,5.929154,51.700614
Looi,12,b,,5441XB,Oeffelt,Boxmeer,Noord-Brabant,VBO,5.929485,51.700424
Looi,12,c,,5441XB,Oeffelt,Boxmeer,Noord-Brabant,VBO,5.929714,51.700288
Looi,12,d,,5441XB,Oeffelt,Boxmeer,Noord-Brabant,VBO,5.929887,51.700207
Looi,12,,,5441XB,Oeffelt,Boxmeer,Noord-Brabant,VBO,5.929054,51.700687
Looi,14,,,5441XB,Oeffelt,Boxmeer,Noord-Brabant,VBO,5.930477,51.699952
Looi,16,,,5441XB,Oeffelt,Boxmeer,Noord-Brabant,VBO,5.930621,51.699906
Looi,18,,,5441XB,Oeffelt,Boxmeer,Noord-Brabant,VBO,5.930838,51.699861
Looi,20,,,5441XB,Oeffelt,Boxmeer,Noord-Brabant,VBO,5.930939,51.699842
Looi,22,,,5441XB,Oeffelt,Boxmeer,Noord-Brabant,VBO,5.931169,51.699787
Looi,24,,,5441XB,Oeffelt,Boxmeer,Noord-Brabant,VBO,5.931328,51.699750
Katsestraat,1,,,5441XC,Oeffelt,Boxmeer,Noord-Brabant,VBO,5.931539,51.699943
Katsestraat,2,a,,5441XC,Oeffelt,Boxmeer,Noord-Brabant,VBO,5.931981,51.699891
Katsestraat,2,,,5441XC,Oeffelt,Boxmeer,Noord-Brabant,VBO,5.931921,51.699748
Katsestraat,3,,,5441XC,Oeffelt,Boxmeer,Noord-Brabant,VBO,5.931738,51.700162
Katsestraat,4,,,5441XC,Oeffelt,Boxmeer,Noord-Brabant,VBO,5.932098,51.700043
Katsestraat,5,,,5441XC,Oeffelt,Boxmeer,Noord-Brabant,VBO,5.931914,51.700350
Katsestraat,6,,,5441XC,Oeffelt,Boxmeer,Noord-Brabant,VBO,5.932260,51.700213
Katsestraat,7,a,,5441XC,Oeffelt,Boxmeer,Noord-Brabant,VBO,5.932456,51.700941
Katsestraat,7,,,5441XC,Oeffelt,Boxmeer,Noord-Brabant,VBO,5.932310,51.700780
Katsestraat,8,,,5441XC,Oeffelt,Boxmeer,Noord-Brabant,VBO,5.932421,51.700410
Katsestraat,9,,,5441XC,Oeffelt,Boxmeer,Noord-Brabant,VBO,5.932502,51.701102
Katsestraat,10,,,5441XC,Oeffelt,Boxmeer,Noord-Brabant,VBO,5.932641,51.700634
Katsestraat,11,,,5441XC,Oeffelt,Boxmeer,Noord-Brabant,VBO,5.932633,51.701165
Katsestraat,12,,,5441XC,Oeffelt,Boxmeer,Noord-Brabant,VBO,5.932744,51.700769
Katsestraat,13,,,5441XC,Oeffelt,Boxmeer,Noord-Brabant,VBO,5.932692,51.701254
Katsestraat,14,,,5441XC,Oeffelt,Boxmeer,Noord-Brabant,VBO,5.932876,51.700912
Katsestraat,15,,,5441XC,Oeffelt,Boxmeer,Noord-Brabant,VBO,5.932722,51.701344
Katsestraat,17,,,5441XC,Oeffelt,Boxmeer,Noord-Brabant,VBO,5.932679,51.701443
Katsestraat,18,a,,5441XC,Oeffelt,Boxmeer,Noord-Brabant,VBO,5.933832,51.701631
Katsestraat,18,,,5441XC,Oeffelt,Boxmeer,Noord-Brabant,VBO,5.933648,51.701421
Katsestraat,19,,,5441XC,Oeffelt,Boxmeer,Noord-Brabant,VBO,5.932623,51.701524
Katsestraat,20,,,5441XC,Oeffelt,Boxmeer,Noord-Brabant,VBO,5.934016,51.701931
Katsestraat,21,,,5441XC,Oeffelt,Boxmeer,Noord-Brabant,VBO,5.932741,51.701766
Katsestraat,22,,,5441XC,Oeffelt,Boxmeer,Noord-Brabant,VBO,5.934177,51.702083
Katsestraat,23,,,5441XC,Oeffelt,Boxmeer,Noord-Brabant,VBO,5.932785,51.701811
Katsestraat,24,,,5441XC,Oeffelt,Boxmeer,Noord-Brabant,VBO,5.934323,51.702208
Katsestraat,25,,,5441XC,Oeffelt,Boxmeer,Noord-Brabant,VBO,5.932887,51.701900
Katsestraat,26,,,5441XC,Oeffelt,Boxmeer,Noord-Brabant,VBO,5.934469,51.702325
Katsestraat,27,,,5441XC,Oeffelt,Boxmeer,Noord-Brabant,VBO,5.932917,51.701936
Katsestraat,28,,,5441XC,Oeffelt,Boxmeer,Noord-Brabant,VBO,5.934601,51.702441
Katsestraat,29,,,5441XC,Oeffelt,Boxmeer,Noord-Brabant,VBO,5.933019,51.702035
Katsestraat,30,,,5441XC,Oeffelt,Boxmeer,Noord-Brabant,VBO,5.934718,51.702548
Katsestraat,31,,,5441XC,Oeffelt,Boxmeer,Noord-Brabant,VBO,5.933063,51.702070
Katsestraat,32,,,5441XC,Oeffelt,Boxmeer,Noord-Brabant,VBO,5.934762,51.702602
Katsestraat,34,,,5441XC,Oeffelt,Boxmeer,Noord-Brabant,VBO,5.934820,51.702637
Katsestraat,35,,,5441XC,Oeffelt,Boxmeer,Noord-Brabant,VBO,5.933426,51.702186
Katsestraat,37,,,5441XC,Oeffelt,Boxmeer,Noord-Brabant,VBO,5.933571,51.702203
Katsestraat,39,,,5441XC,Oeffelt,Boxmeer,Noord-Brabant,VBO,5.933731,51.702238
Katsestraat,41,,,5441XC,Oeffelt,Boxmeer,Noord-Brabant,VBO,5.933833,51.702301
Katsestraat,43,,,5441XC,Oeffelt,Boxmeer,Noord-Brabant,VBO,5.934007,51.702399
Katsestraat,45,,,5441XC,Oeffelt,Boxmeer,Noord-Brabant,VBO,5.934110,51.702479
Katsestraat,47,,,5441XC,Oeffelt,Boxmeer,Noord-Brabant,VBO,5.934266,51.702639
Katsestraat,49,,,5441XC,Oeffelt,Boxmeer,Noord-Brabant,VBO,5.934431,51.702765
Katsestraat,51,,,5441XC,Oeffelt,Boxmeer,Noord-Brabant,VBO,5.934664,51.702899
Hogehoek,1,,,5441XD,Oeffelt,Boxmeer,Noord-Brabant,VBO,5.935425,51.703560
Hogehoek,3,,,5441XD,Oeffelt,Boxmeer,Noord-Brabant,VBO,5.935513,51.703677
Hogehoek,5,a,,5441XD,Oeffelt,Boxmeer,Noord-Brabant,VBO,5.933747,51.703613
Hogehoek,5,b,,5441XD,Oeffelt,Boxmeer,Noord-Brabant,VBO,5.934285,51.704529
Hogehoek,5,,,5441XD,Oeffelt,Boxmeer,Noord-Brabant,VBO,5.934739,51.704319
Hogehoek,7,,,5441XD,Oeffelt,Boxmeer,Noord-Brabant,VBO,5.935279,51.703471
Hogehoek,9,a,,5441XD,Oeffelt,Boxmeer,Noord-Brabant,VBO,5.935140,51.702789
Hogehoek,9,b,,5441XD,Oeffelt,Boxmeer,Noord-Brabant,VBO,5.935083,51.702807
Hogehoek,9,,,5441XD,Oeffelt,Boxmeer,Noord-Brabant,VBO,5.935212,51.702752
Hogehoek,11,a,,5441XD,Oeffelt,Boxmeer,Noord-Brabant,VBO,5.935766,51.702475
Hogehoek,11,,,5441XD,Oeffelt,Boxmeer,Noord-Brabant,VBO,5.935399,51.702608
Hogehoek,13,a,,5441XD,Oeffelt,Boxmeer,Noord-Brabant,VBO,5.936241,51.702342
Hogehoek,13,,,5441XD,Oeffelt,Boxmeer,Noord-Brabant,VBO,5.935931,51.702381
Hogehoek,15,a,,5441XD,Oeffelt,Boxmeer,Noord-Brabant,VBO,5.937126,51.701926
Hogehoek,15,,,5441XD,Oeffelt,Boxmeer,Noord-Brabant,VBO,5.936638,51.702233
Hogehoek,17,a,,5441XD,Oeffelt,Boxmeer,Noord-Brabant,VBO,5.937746,51.701457
Hogehoek,17,,,5441XD,Oeffelt,Boxmeer,Noord-Brabant,VBO,5.937499,51.701596
Hogehoek,19,,,5441XD,Oeffelt,Boxmeer,Noord-Brabant,VBO,5.937963,51.701300
Hogehoek,25,a,,5441XD,Oeffelt,Boxmeer,Noord-Brabant,VBO,5.937373,51.700774
Hogehoek,25,,,5441XD,Oeffelt,Boxmeer,Noord-Brabant,VBO,5.937272,51.700846
Hogehoek,2,a,,5441XE,Oeffelt,Boxmeer,Noord-Brabant,VBO,5.935677,51.702903
Hogehoek,2,b,,5441XE,Oeffelt,Boxmeer,Noord-Brabant,VBO,5.936123,51.702667
Hogehoek,2,d,,5441XE,Oeffelt,Boxmeer,Noord-Brabant,VBO,5.935331,51.703022
Hogehoek,2,,,5441XE,Oeffelt,Boxmeer,Noord-Brabant,VBO,5.935600,51.703441
Hogehoek,4,,,5441XE,Oeffelt,Boxmeer,Noord-Brabant,VBO,5.936626,51.702395
Hogehoek,6,,,5441XE,Oeffelt,Boxmeer,Noord-Brabant,VBO,5.936872,51.702403
Hogehoek,8,,,5441XE,Oeffelt,Boxmeer,Noord-Brabant,VBO,5.937059,51.702321
Hogehoek,10,a,,5441XE,Oeffelt,Boxmeer,Noord-Brabant,VBO,5.937581,51.702409
Hogehoek,10,,,5441XE,Oeffelt,Boxmeer,Noord-Brabant,VBO,5.937434,51.702221
Hogehoek,12,a,,5441XE,Oeffelt,Boxmeer,Noord-Brabant,VBO,5.939854,51.704978
Hogehoek,12,,,5441XE,Oeffelt,Boxmeer,Noord-Brabant,VBO,5.937916,51.702614
Hogehoek,14,a,,5441XE,Oeffelt,Boxmeer,Noord-Brabant,VBO,5.938136,51.701696
Hogehoek,14,,,5441XE,Oeffelt,Boxmeer,Noord-Brabant,VBO,5.937633,51.701941
Hogehoek,16,,,5441XE,Oeffelt,Boxmeer,Noord-Brabant,VBO,5.938479,51.701371
Hogehoek,18,a,,5441XE,Oeffelt,Boxmeer,Noord-Brabant,VBO,5.938119,51.700922
Hogehoek,18,b,,5441XE,Oeffelt,Boxmeer,Noord-Brabant,VBO,5.937895,51.700759
Hogehoek,18,c,,5441XE,Oeffelt,Boxmeer,Noord-Brabant,VBO,5.937646,51.700597
Hogehoek,18,,,5441XE,Oeffelt,Boxmeer,Noord-Brabant,VBO,5.938360,51.701048
Hogehoek,20,,,5441XE,Oeffelt,Boxmeer,Noord-Brabant,VBO,5.938157,51.699844
Hogehoek,22,,,5441XE,Oeffelt,Boxmeer,Noord-Brabant,VBO,5.937106,51.700236
Hogehoek,24,,,5441XE,Oeffelt,Boxmeer,Noord-Brabant,VBO,5.936916,51.700120
Rijtjes,1,,,5441XG,Oeffelt,Boxmeer,Noord-Brabant,VBO,5.932916,51.705487
Rijtjes,2,,,5441XG,Oeffelt,Boxmeer,Noord-Brabant,VBO,5.928773,51.707439
Rijtjes,3,,,5441XG,Oeffelt,Boxmeer,Noord-Brabant,VBO,5.928184,51.707756
Rijtjes,5,a,,5441XG,Oeffelt,Boxmeer,Noord-Brabant,VBO,5.929113,51.709217
Rijtjes,5,,,5441XG,Oeffelt,Boxmeer,Noord-Brabant,VBO,5.928291,51.709499
Rijtjes,6,,,5441XG,Oeffelt,Boxmeer,Noord-Brabant,VBO,5.930468,51.708842
Rijtjes,7,,,5441XG,Oeffelt,Boxmeer,Noord-Brabant,VBO,5.931261,51.708614
Rijtjes,8,,,5441XG,Oeffelt,Boxmeer,Noord-Brabant,VBO,5.932124,51.708187
Rijtjes,9,,,5441XG,Oeffelt,Boxmeer,Noord-Brabant,VBO,5.933639,51.707793
Rijtjes,10,,,5441XG,Oeffelt,Boxmeer,Noord-Brabant,VBO,5.935121,51.707139
Rijtjes,11,,,5441XG,Oeffelt,Boxmeer,Noord-Brabant,VBO,5.935726,51.706957
Rijtjes,12,,,5441XG,Oeffelt,Boxmeer,Noord-Brabant,VBO,5.937591,51.705600
Rijtjes,13,,,5441XG,Oeffelt,Boxmeer,Noord-Brabant,VBO,5.936511,51.704868
Rijtjes,14,,,5441XG,Oeffelt,Boxmeer,Noord-Brabant,VBO,5.938828,51.706268
Rijtjes,15,,,5441XG,Oeffelt,Boxmeer,Noord-Brabant,VBO,5.938444,51.705551
Broekstraat,1,,,5441XH,Oeffelt,Boxmeer,Noord-Brabant,VBO,5.939030,51.702627
Broekstraat,3,,,5441XH,Oeffelt,Boxmeer,Noord-Brabant,VBO,5.938762,51.701905
Urlingsestraat,1,,,5441XJ,Oeffelt,Boxmeer,Noord-Brabant,VBO,5.943222,51.698841
Urlingsestraat,2,,,5441XJ,Oeffelt,Boxmeer,Noord-Brabant,VBO,5.943646,51.701589
Urlingsestraat,3,,,5441XJ,Oeffelt,Boxmeer,Noord-Brabant,VBO,5.943072,51.698419
Urlingsestraat,4,,,5441XJ,Oeffelt,Boxmeer,Noord-Brabant,VBO,5.942642,51.698691
Urlingsestraat,5,a,,5441XJ,Oeffelt,Boxmeer,Noord-Brabant,VBO,5.944588,51.698205
Urlingsestraat,5,,,5441XJ,Oeffelt,Boxmeer,Noord-Brabant,VBO,5.943085,51.698248
Urlingsestraat,6,a,,5441XJ,Oeffelt,Boxmeer,Noord-Brabant,VBO,5.942747,51.697872
Urlingsestraat,6,b,,5441XJ,Oeffelt,Boxmeer,Noord-Brabant,VBO,5.942474,51.697963
Urlingsestraat,6,,,5441XJ,Oeffelt,Boxmeer,Noord-Brabant,VBO,5.942779,51.698061
Urlingsestraat,7,,,5441XJ,Oeffelt,Boxmeer,Noord-Brabant,VBO,5.943502,51.698075
Urlingsestraat,8,,,5441XJ,Oeffelt,Boxmeer,Noord-Brabant,VBO,5.942745,51.697692
Urlingsestraat,9,,,5441XJ,Oeffelt,Boxmeer,Noord-Brabant,VBO,5.943050,51.697781
Urlingsestraat,10,,,5441XJ,Oeffelt,Boxmeer,Noord-Brabant,VBO,5.942433,51.695860
Urlingsestraat,11,a,,5441XJ,Oeffelt,Boxmeer,Noord-Brabant,VBO,5.943020,51.696522
Urlingsestraat,11,b,,5441XJ,Oeffelt,Boxmeer,Noord-Brabant,VBO,5.943041,51.695875
Urlingsestraat,11,c,,5441XJ,Oeffelt,Boxmeer,Noord-Brabant,VBO,5.943013,51.696958
Urlingsestraat,11,d,,5441XJ,Oeffelt,Boxmeer,Noord-Brabant,VBO,5.943040,51.696779
Urlingsestraat,11,,,5441XJ,Oeffelt,Boxmeer,Noord-Brabant,VBO,5.943233,51.697357
Urlingsestraat,12,,,5441XJ,Oeffelt,Boxmeer,Noord-Brabant,VBO,5.942828,51.695031
Urlingsestraat,13,,,5441XJ,Oeffelt,Boxmeer,Noord-Brabant,VBO,5.943021,51.695417
Urlingsestraat,14,,,5441XJ,Oeffelt,Boxmeer,Noord-Brabant,VBO,5.942754,51.694906
Urlingsestraat,16,,,5441XJ,Oeffelt,Boxmeer,Noord-Brabant,VBO,5.942679,51.694690
Urlingsestraat,17,,,5441XJ,Oeffelt,Boxmeer,Noord-Brabant,VBO,5.943113,51.694643
Urlingsestraat,18,,,5441XJ,Oeffelt,Boxmeer,Noord-Brabant,VBO,5.942705,51.694403
Urlingsestraat,19,,,5441XJ,Oeffelt,Boxmeer,Noord-Brabant,VBO,5.943009,51.694428
Urlingsestraat,21,,,5441XJ,Oeffelt,Boxmeer,Noord-Brabant,VBO,5.942743,51.693971
Urlingsestraat,23,,,5441XJ,Oeffelt,Boxmeer,Noord-Brabant,VBO,5.942621,51.693513
Urlingsestraat,25,,,5441XJ,Oeffelt,Boxmeer,Noord-Brabant,VBO,5.942618,51.693409
Kuipersstraat,1,,,5441XK,Oeffelt,Boxmeer,Noord-Brabant,VBO,5.935002,51.699688
Kuipersstraat,3,,,5441XK,Oeffelt,Boxmeer,Noord-Brabant,VBO,5.935105,51.699823
Kuipersstraat,5,,,5441XK,Oeffelt,Boxmeer,Noord-Brabant,VBO,5.935178,51.699894
Kuipersstraat,7,,,5441XK,Oeffelt,Boxmeer,Noord-Brabant,VBO,5.935251,51.699984
Kuipersstraat,9,,,5441XK,Oeffelt,Boxmeer,Noord-Brabant,VBO,5.935310,51.700028
Kuipersstraat,11,,,5441XK,Oeffelt,Boxmeer,Noord-Brabant,VBO,5.935411,51.700082
Kuipersstraat,13,,,5441XK,Oeffelt,Boxmeer,Noord-Brabant,VBO,5.935485,51.700153
Kuipersstraat,15,,,5441XK,Oeffelt,Boxmeer,Noord-Brabant,VBO,5.935631,51.700261
Kuipersstraat,17,,,5441XK,Oeffelt,Boxmeer,Noord-Brabant,VBO,5.935866,51.700547
Kuipersstraat,19,,,5441XK,Oeffelt,Boxmeer,Noord-Brabant,VBO,5.935924,51.700619
Kuipersstraat,21,,,5441XK,Oeffelt,Boxmeer,Noord-Brabant,VBO,5.935983,51.700708
Kuipersstraat,23,,,5441XK,Oeffelt,Boxmeer,Noord-Brabant,VBO,5.936027,51.700771
Kuipersstraat,25,,,5441XK,Oeffelt,Boxmeer,Noord-Brabant,VBO,5.936116,51.700888
Kuipersstraat,27,,,5441XK,Oeffelt,Boxmeer,Noord-Brabant,VBO,5.936189,51.700968
Kuipersstraat,29,,,5441XK,Oeffelt,Boxmeer,Noord-Brabant,VBO,5.936306,51.701102
Kuipersstraat,31,,,5441XK,Oeffelt,Boxmeer,Noord-Brabant,VBO,5.936393,51.701138
Kuipersstraat,33,,,5441XK,Oeffelt,Boxmeer,Noord-Brabant,VBO,5.936496,51.701218
Kuipersstraat,35,,,5441XK,Oeffelt,Boxmeer,Noord-Brabant,VBO,5.936569,51.701281
Kuipersstraat,37,,,5441XK,Oeffelt,Boxmeer,Noord-Brabant,VBO,5.936671,51.701352
Kuipersstraat,39,,,5441XK,Oeffelt,Boxmeer,Noord-Brabant,VBO,5.936861,51.701495
Kuipersstraat,2,,,5441XL,Oeffelt,Boxmeer,Noord-Brabant,VBO,5.935553,51.699803
Kuipersstraat,4,,,5441XL,Oeffelt,Boxmeer,Noord-Brabant,VBO,5.935626,51.699865
Kuipersstraat,6,,,5441XL,Oeffelt,Boxmeer,Noord-Brabant,VBO,5.935772,51.700017
Kuipersstraat,10,,,5441XL,Oeffelt,Boxmeer,Noord-Brabant,VBO,5.936407,51.700716
Kuipersstraat,12,,,5441XL,Oeffelt,Boxmeer,Noord-Brabant,VBO,5.936571,51.700820
Kuipersstraat,14,,,5441XL,Oeffelt,Boxmeer,Noord-Brabant,VBO,5.936745,51.700902
Kuipersstraat,16,,,5441XL,Oeffelt,Boxmeer,Noord-Brabant,VBO,5.936799,51.700947
Kuipersstraat,18,,,5441XL,Oeffelt,Boxmeer,Noord-Brabant,VBO,5.936922,51.701019
Kuipersstraat,20,,,5441XL,Oeffelt,Boxmeer,Noord-Brabant,VBO,5.936983,51.701061
Kuipersstraat,24,,,5441XL,Oeffelt,Boxmeer,Noord-Brabant,VBO,5.937071,51.701230
Kuipersstraat,26,,,5441XL,Oeffelt,Boxmeer,Noord-Brabant,VBO,5.937003,51.701266
Looiersstraat,2,,,5441XM,Oeffelt,Boxmeer,Noord-Brabant,VBO,5.933410,51.700810
Looiersstraat,3,,,5441XM,Oeffelt,Boxmeer,Noord-Brabant,VBO,5.933785,51.700773
Looiersstraat,4,,,5441XM,Oeffelt,Boxmeer,Noord-Brabant,VBO,5.933351,51.700766
Looiersstraat,5,,,5441XM,Oeffelt,Boxmeer,Noord-Brabant,VBO,5.933682,51.700647
Looiersstraat,6,,,5441XM,Oeffelt,Boxmeer,Noord-Brabant,VBO,5.933263,51.700676
Looiersstraat,7,,,5441XM,Oeffelt,Boxmeer,Noord-Brabant,VBO,5.933595,51.700585
Looiersstraat,8,,,5441XM,Oeffelt,Boxmeer,Noord-Brabant,VBO,5.933147,51.700632
Looiersstraat,9,,,5441XM,Oeffelt,Boxmeer,Noord-Brabant,VBO,5.933536,51.700495
Looiersstraat,10,,,5441XM,Oeffelt,Boxmeer,Noord-Brabant,VBO,5.933088,51.700551
Looiersstraat,11,,,5441XM,Oeffelt,Boxmeer,Noord-Brabant,VBO,5.933448,51.700442
Looiersstraat,12,,,5441XM,Oeffelt,Boxmeer,Noord-Brabant,VBO,5.933073,51.700488
Looiersstraat,13,,,5441XM,Oeffelt,Boxmeer,Noord-Brabant,VBO,5.933361,51.700361
Looiersstraat,15,,,5441XM,Oeffelt,Boxmeer,Noord-Brabant,VBO,5.933302,51.700290
Looiersstraat,17,,,5441XM,Oeffelt,Boxmeer,Noord-Brabant,VBO,5.933113,51.700183
Looiersstraat,19,,,5441XM,Oeffelt,Boxmeer,Noord-Brabant,VBO,5.932882,51.700274
Looiersstraat,21,,,5441XM,Oeffelt,Boxmeer,Noord-Brabant,VBO,5.932652,51.700355
Radmakersstraat,1,,,5441XP,Oeffelt,Boxmeer,Noord-Brabant,VBO,5.934569,51.699798
Radmakersstraat,3,,,5441XP,Oeffelt,Boxmeer,Noord-Brabant,VBO,5.934730,51.699932
Radmakersstraat,5,,,5441XP,Oeffelt,Boxmeer,Noord-Brabant,VBO,5.934774,51.699995
Radmakersstraat,7,,,5441XP,Oeffelt,Boxmeer,Noord-Brabant,VBO,5.934804,51.700103
Radmakersstraat,9,,,5441XP,Oeffelt,Boxmeer,Noord-Brabant,VBO,5.934848,51.700156
Radmakersstraat,11,,,5441XP,Oeffelt,Boxmeer,Noord-Brabant,VBO,5.934893,51.700255
Radmakersstraat,13,,,5441XP,Oeffelt,Boxmeer,Noord-Brabant,VBO,5.934966,51.700327
Radmakersstraat,2,,,5441XR,Oeffelt,Boxmeer,Noord-Brabant,VBO,5.934208,51.699890
Radmakersstraat,4,,,5441XR,Oeffelt,Boxmeer,Noord-Brabant,VBO,5.934267,51.699943
Radmakersstraat,6,,,5441XR,Oeffelt,Boxmeer,Noord-Brabant,VBO,5.934312,51.700051
Radmakersstraat,8,,,5441XR,Oeffelt,Boxmeer,Noord-Brabant,VBO,5.934370,51.700114
Radmakersstraat,10,,,5441XR,Oeffelt,Boxmeer,Noord-Brabant,VBO,5.934429,51.700212
Radmakersstraat,12,,,5441XR,Oeffelt,Boxmeer,Noord-Brabant,VBO,5.934473,51.700266
Radmakersstraat,14,,,5441XR,Oeffelt,Boxmeer,Noord-Brabant,VBO,5.934577,51.700454
Brakels Eng,1,,,5441XS,Oeffelt,Boxmeer,Noord-Brabant,VBO,5.932142,51.701239
Brakels Eng,2,,,5441XS,Oeffelt,Boxmeer,Noord-Brabant,VBO,5.931828,51.701636
Brakels Eng,3,,,5441XS,Oeffelt,Boxmeer,Noord-Brabant,VBO,5.932172,51.701355
Brakels Eng,4,,,5441XS,Oeffelt,Boxmeer,Noord-Brabant,VBO,5.931872,51.701680
Brakels Eng,5,,,5441XS,Oeffelt,Boxmeer,Noord-Brabant,VBO,5.932102,51.701527
Brakels Eng,6,,,5441XS,Oeffelt,Boxmeer,Noord-Brabant,VBO,5.931975,51.701770
Brakels Eng,7,,,5441XS,Oeffelt,Boxmeer,Noord-Brabant,VBO,5.932146,51.701571
Brakels Eng,8,,,5441XS,Oeffelt,Boxmeer,Noord-Brabant,VBO,5.932033,51.701824
Brakels Eng,9,,,5441XS,Oeffelt,Boxmeer,Noord-Brabant,VBO,5.932248,51.701670
Brakels Eng,10,,,5441XS,Oeffelt,Boxmeer,Noord-Brabant,VBO,5.932092,51.701940
Brakels Eng,11,,,5441XS,Oeffelt,Boxmeer,Noord-Brabant,VBO,5.932307,51.701714
Brakels Eng,13,,,5441XS,Oeffelt,Boxmeer,Noord-Brabant,VBO,5.932454,51.701974
Brakels Eng,15,,,5441XS,Oeffelt,Boxmeer,Noord-Brabant,VBO,5.932353,51.701993
Brakels Eng,17,,,5441XS,Oeffelt,Boxmeer,Noord-Brabant,VBO,5.932224,51.702056
Brakels Eng,19,,,5441XS,Oeffelt,Boxmeer,Noord-Brabant,VBO,5.932138,51.702093
Scheerdersstraat,1,,,5441XV,Oeffelt,Boxmeer,Noord-Brabant,VBO,5.934271,51.701507
Scheerdersstraat,2,,,5441XV,Oeffelt,Boxmeer,Noord-Brabant,VBO,5.934246,51.701813
Scheerdersstraat,3,,,5441XV,Oeffelt,Boxmeer,Noord-Brabant,VBO,5.934533,51.701632
Scheerdersstraat,4,,,5441XV,Oeffelt,Boxmeer,Noord-Brabant,VBO,5.934522,51.701884
Scheerdersstraat,5,,,5441XV,Oeffelt,Boxmeer,Noord-Brabant,VBO,5.934752,51.701730
Scheerdersstraat,6,,,5441XV,Oeffelt,Boxmeer,Noord-Brabant,VBO,5.934697,51.701964
Scheerdersstraat,7,,,5441XV,Oeffelt,Boxmeer,Noord-Brabant,VBO,5.935028,51.701863
Scheerdersstraat,8,,,5441XV,Oeffelt,Boxmeer,Noord-Brabant,VBO,5.934872,51.702080
Scheerdersstraat,9,,,5441XV,Oeffelt,Boxmeer,Noord-Brabant,VBO,5.935215,51.701782
Scheerdersstraat,10,,,5441XV,Oeffelt,Boxmeer,Noord-Brabant,VBO,5.935089,51.702124
Scheerdersstraat,11,,,5441XV,Oeffelt,Boxmeer,Noord-Brabant,VBO,5.935097,51.701593
Scheerdersstraat,12,,,5441XV,Oeffelt,Boxmeer,Noord-Brabant,VBO,5.935261,51.702006
Scheerdersstraat,13,,,5441XV,Oeffelt,Boxmeer,Noord-Brabant,VBO,5.934907,51.701433
Scheerdersstraat,14,,,5441XV,Oeffelt,Boxmeer,Noord-Brabant,VBO,5.935477,51.701915
Scheerdersstraat,15,,,5441XV,Oeffelt,Boxmeer,Noord-Brabant,VBO,5.934746,51.701290
Scheerdersstraat,16,,,5441XV,Oeffelt,Boxmeer,Noord-Brabant,VBO,5.935561,51.701708
Scheerdersstraat,17,,,5441XV,Oeffelt,Boxmeer,Noord-Brabant,VBO,5.934657,51.701128
Scheerdersstraat,18,,,5441XV,Oeffelt,Boxmeer,Noord-Brabant,VBO,5.935444,51.701547
Scheerdersstraat,20,,,5441XV,Oeffelt,Boxmeer,Noord-Brabant,VBO,5.935700,51.701222
Scheerdersstraat,22,,,5441XV,Oeffelt,Boxmeer,Noord-Brabant,VBO,5.935597,51.701052
Scheerdersstraat,24,,,5441XV,Oeffelt,Boxmeer,Noord-Brabant,VBO,5.935365,51.701008
Scheerdersstraat,26,,,5441XV,Oeffelt,Boxmeer,Noord-Brabant,VBO,5.935249,51.701035
Scheerdersstraat,28,,,5441XV,Oeffelt,Boxmeer,Noord-Brabant,VBO,5.935019,51.701082
Ganzenpoel,1,,,5441XW,Oeffelt,Boxmeer,Noord-Brabant,VBO,5.930770,51.700211
Ganzenpoel,2,,,5441XW,Oeffelt,Boxmeer,Noord-Brabant,VBO,5.930233,51.700097
Ganzenpoel,3,,,5441XW,Oeffelt,Boxmeer,Noord-Brabant,VBO,5.930887,51.700328
Ganzenpoel,4,,,5441XW,Oeffelt,Boxmeer,Noord-Brabant,VBO,5.930379,51.700231
Ganzenpoel,5,,,5441XW,Oeffelt,Boxmeer,Noord-Brabant,VBO,5.931090,51.700435
Ganzenpoel,6,,,5441XW,Oeffelt,Boxmeer,Noord-Brabant,VBO,5.930496,51.700339
Ganzenpoel,7,,,5441XW,Oeffelt,Boxmeer,Noord-Brabant,VBO,5.931107,51.700578
Ganzenpoel,8,,,5441XW,Oeffelt,Boxmeer,Noord-Brabant,VBO,5.930526,51.700401
Ganzenpoel,9,,,5441XW,Oeffelt,Boxmeer,Noord-Brabant,VBO,5.931065,51.700713
Ganzenpoel,10,,,5441XW,Oeffelt,Boxmeer,Noord-Brabant,VBO,5.930599,51.700482
Ganzenpoel,11,,,5441XW,Oeffelt,Boxmeer,Noord-Brabant,VBO,5.931053,51.700884
Ganzenpoel,12,,,5441XW,Oeffelt,Boxmeer,Noord-Brabant,VBO,5.930644,51.700563
Ganzenpoel,14,,,5441XW,Oeffelt,Boxmeer,Noord-Brabant,VBO,5.930702,51.700643
Ganzenpoel,16,,,5441XW,Oeffelt,Boxmeer,Noord-Brabant,VBO,5.930704,51.700742
Ganzenpoel,18,,,5441XW,Oeffelt,Boxmeer,Noord-Brabant,VBO,5.930676,51.700814
Ganzenpoel,20,,,5441XW,Oeffelt,Boxmeer,Noord-Brabant,VBO,5.930677,51.700913
Ganzenpoel,22,,,5441XW,Oeffelt,Boxmeer,Noord-Brabant,VBO,5.930679,51.701093
Velgert,1,a,,5441XX,Oeffelt,Boxmeer,Noord-Brabant,VBO,5.929952,51.700808
Velgert,1,,,5441XX,Oeffelt,Boxmeer,Noord-Brabant,VBO,5.929776,51.700621
Velgert,3,,,5441XX,Oeffelt,Boxmeer,Noord-Brabant,VBO,5.930085,51.700988
Velgert,5,,,5441XX,Oeffelt,Boxmeer,Noord-Brabant,VBO,5.930216,51.701122
Velgert,7,,,5441XX,Oeffelt,Boxmeer,Noord-Brabant,VBO,5.930506,51.701165
Velgert,11,,,5441XX,Oeffelt,Boxmeer,Noord-Brabant,VBO,5.930969,51.701154
Velgert,13,,,5441XX,Oeffelt,Boxmeer,Noord-Brabant,VBO,5.931186,51.701135
Velgert,15,,,5441XX,Oeffelt,Boxmeer,Noord-Brabant,VBO,5.931388,51.701107
Velgert,17,,,5441XX,Oeffelt,Boxmeer,Noord-Brabant,VBO,5.931446,51.701107
Velgert,19,,,5441XX,Oeffelt,Boxmeer,Noord-Brabant,VBO,5.931504,51.701098
Velgert,21,,,5441XX,Oeffelt,Boxmeer,Noord-Brabant,VBO,5.931576,51.701098
Velgert,23,,,5441XX,Oeffelt,Boxmeer,Noord-Brabant,VBO,5.931619,51.701097
Velgert,25,,,5441XX,Oeffelt,Boxmeer,Noord-Brabant,VBO,5.931692,51.701115
Velgert,27,,,5441XX,Oeffelt,Boxmeer,Noord-Brabant,VBO,5.931516,51.700909
Velgert,29,,,5441XX,Oeffelt,Boxmeer,Noord-Brabant,VBO,5.931602,51.700828
Velgert,31,,,5441XX,Oeffelt,Boxmeer,Noord-Brabant,VBO,5.931745,51.700737
Velgert,33,,,5441XX,Oeffelt,Boxmeer,Noord-Brabant,VBO,5.931803,51.700719
Velgert,35,,,5441XX,Oeffelt,Boxmeer,Noord-Brabant,VBO,5.931875,51.700683
Velgert,37,,,5441XX,Oeffelt,Boxmeer,Noord-Brabant,VBO,5.931947,51.700646
Velgert,39,,,5441XX,Oeffelt,Boxmeer,Noord-Brabant,VBO,5.932076,51.700574
Velgert,2,,,5441XZ,Oeffelt,Boxmeer,Noord-Brabant,VBO,5.929475,51.700856
Velgert,4,,,5441XZ,Oeffelt,Boxmeer,Noord-Brabant,VBO,5.929519,51.700900
Velgert,6,,,5441XZ,Oeffelt,Boxmeer,Noord-Brabant,VBO,5.929578,51.700945
Velgert,8,,,5441XZ,Oeffelt,Boxmeer,Noord-Brabant,VBO,5.929637,51.701035
Velgert,10,,,5441XZ,Oeffelt,Boxmeer,Noord-Brabant,VBO,5.929652,51.701086
Velgert,12,,,5441XZ,Oeffelt,Boxmeer,Noord-Brabant,VBO,5.929695,51.701088
Velgert,18,,,5441XZ,Oeffelt,Boxmeer,Noord-Brabant,VBO,5.930191,51.701392
Velgert,20,,,5441XZ,Oeffelt,Boxmeer,Noord-Brabant,VBO,5.930451,51.701399
Velgert,22,,,5441XZ,Oeffelt,Boxmeer,Noord-Brabant,VBO,5.930552,51.701381
Velgert,24,,,5441XZ,Oeffelt,Boxmeer,Noord-Brabant,VBO,5.930711,51.701380
Velgert,26,,,5441XZ,Oeffelt,Boxmeer,Noord-Brabant,VBO,5.930798,51.701380
Velgert,28,,,5441XZ,Oeffelt,Boxmeer,Noord-Brabant,VBO,5.930972,51.701370
Velgert,30,,,5441XZ,Oeffelt,Boxmeer,Noord-Brabant,VBO,5.930972,51.701433
Velgert,32,,,5441XZ,Oeffelt,Boxmeer,Noord-Brabant,VBO,5.931029,51.701370
Velgert,34,,,5441XZ,Oeffelt,Boxmeer,Noord-Brabant,VBO,5.931045,51.701424
Velgert,36,,,5441XZ,Oeffelt,Boxmeer,Noord-Brabant,VBO,5.931160,51.701387
Velgert,38,,,5441XZ,Oeffelt,Boxmeer,Noord-Brabant,VBO,5.931132,51.701441
Velgert,40,,,5441XZ,Oeffelt,Boxmeer,Noord-Brabant,VBO,5.931247,51.701450
Velgert,42,a,,5441XZ,Oeffelt,Boxmeer,Noord-Brabant,VBO,5.931292,51.701539
Velgert,42,b,,5441XZ,Oeffelt,Boxmeer,Noord-Brabant,VBO,5.931379,51.701602
Velgert,42,,,5441XZ,Oeffelt,Boxmeer,Noord-Brabant,VBO,5.931161,51.701486
Velgert,44,,,5441XZ,Oeffelt,Boxmeer,Noord-Brabant,VBO,5.932039,51.701095
Velgert,46,,,5441XZ,Oeffelt,Boxmeer,Noord-Brabant,VBO,5.932008,51.700907
