openbareruimtenaam,huisnummer,huisletter,huisnummertoevoeging,postcode,woonplaatsnaam,gemeentenaam,provincienaam,typeadresseerbaarobject,longitude,latitude
Logtenburg,1,,,5465LA,Veghel,Veghel,Noord-Brabant,VBO,5.503389,51.588277
Logtenburg,2,,,5465LA,Veghel,Veghel,Noord-Brabant,VBO,5.506835,51.587294
Logtenburg,3,,,5465LA,Veghel,Veghel,Noord-Brabant,VBO,5.505885,51.588032
Logtenburg,4,,,5465LA,Veghel,Veghel,Noord-Brabant,VBO,5.510990,51.586984
Logtenburg,12,,,5465LA,Veghel,Veghel,Noord-Brabant,VBO,5.519469,51.585159
Logtenburg,16,,,5465LA,Veghel,Veghel,Noord-Brabant,VBO,5.524473,51.584191
Logtenburg,18,,,5465LA,Veghel,Veghel,Noord-Brabant,VBO,5.526835,51.582894
Logtenburg,20,,,5465LA,Veghel,Veghel,Noord-Brabant,VBO,5.526950,51.582858
Laarsweg,1,,,5465LB,Veghel,Veghel,Noord-Brabant,VBO,5.522782,51.588193
Laarsweg,2,,,5465LB,Veghel,Veghel,Noord-Brabant,VBO,5.522580,51.588103
Laarsweg,3,A,,5465LB,Veghel,Veghel,Noord-Brabant,VBO,5.521338,51.587790
Laarsweg,3,,,5465LB,Veghel,Veghel,Noord-Brabant,VBO,5.521468,51.587871
Laarsweg,4,,,5465LB,Veghel,Veghel,Noord-Brabant,VBO,5.520354,51.586839
Laarsweg,5,,,5465LB,Veghel,Veghel,Noord-Brabant,VBO,5.520108,51.586695
Laarsweg,6,,,5465LB,Veghel,Veghel,Noord-Brabant,VBO,5.519618,51.586786
Laarsweg,7,,,5465LB,Veghel,Veghel,Noord-Brabant,VBO,5.519531,51.586732
Biezendijk,13,,,5465LC,Veghel,Veghel,Noord-Brabant,VBO,5.526266,51.595110
Biezendijk,14,,,5465LC,Veghel,Veghel,Noord-Brabant,VBO,5.526048,51.594391
Biezendijk,15,,,5465LD,Veghel,Veghel,Noord-Brabant,VBO,5.525351,51.593161
Biezendijk,16,,,5465LD,Veghel,Veghel,Noord-Brabant,VBO,5.524337,51.591850
Biezendijk,17,,,5465LD,Veghel,Veghel,Noord-Brabant,VBO,5.524178,51.591607
Biezendijk,18,B,,5465LD,Veghel,Veghel,Noord-Brabant,VBO,5.521345,51.590028
Biezendijk,18,,,5465LD,Veghel,Veghel,Noord-Brabant,VBO,5.523093,51.590835
Biezendijk,19,,,5465LD,Veghel,Veghel,Noord-Brabant,VBO,5.523654,51.590349
Biezendijk,20,,,5465LD,Veghel,Veghel,Noord-Brabant,VBO,5.524273,51.589594
Biezendijk,21,,,5465LD,Veghel,Veghel,Noord-Brabant,VBO,5.523521,51.589226
Biezendijk,22,,,5465LD,Veghel,Veghel,Noord-Brabant,VBO,5.524328,51.588937
Biezendijk,23,,,5465LD,Veghel,Veghel,Noord-Brabant,VBO,5.524933,51.588523
Biezendijk,24,A,,5465LD,Veghel,Veghel,Noord-Brabant,VBO,5.525783,51.587884
Biezendijk,24,,,5465LD,Veghel,Veghel,Noord-Brabant,VBO,5.524946,51.588002
Biezendijk,25,A,,5465LD,Veghel,Veghel,Noord-Brabant,VBO,5.526214,51.587452
Biezendijk,25,,,5465LD,Veghel,Veghel,Noord-Brabant,VBO,5.525852,51.586913
Biezendijk,26,,,5465LD,Veghel,Veghel,Noord-Brabant,VBO,5.526904,51.586400
Biezendijk,27,,,5465LD,Veghel,Veghel,Noord-Brabant,VBO,5.527161,51.585806
Biezendijk,29,,,5465LD,Veghel,Veghel,Noord-Brabant,VBO,5.527692,51.584844
Biezendijk,30,,,5465LD,Veghel,Veghel,Noord-Brabant,VBO,5.527560,51.584143
Biezendijk,31,A,,5465LD,Veghel,Veghel,Noord-Brabant,VBO,5.527993,51.584259
Biezendijk,31,,,5465LD,Veghel,Veghel,Noord-Brabant,VBO,5.528008,51.584133
Biezendijk,32,,,5465LD,Veghel,Veghel,Noord-Brabant,VBO,5.528078,51.583639
Biezendijk,33,,,5465LD,Veghel,Veghel,Noord-Brabant,VBO,5.528363,51.582018
Biezendijk,34,,,5465LD,Veghel,Veghel,Noord-Brabant,VBO,5.527726,51.581698
Het Helligt,1,,,5465NA,Veghel,Veghel,Noord-Brabant,VBO,5.510006,51.591353
Het Helligt,5,,,5465NA,Veghel,Veghel,Noord-Brabant,VBO,5.517987,51.586500
De Kempkens,2,,,5465NB,Veghel,Veghel,Noord-Brabant,VBO,5.514706,51.595061
De Kempkens,3,,,5465NB,Veghel,Veghel,Noord-Brabant,VBO,5.514933,51.593379
De Kempkens,5,A,,5465NB,Veghel,Veghel,Noord-Brabant,VBO,5.518551,51.592099
De Kempkens,5,,,5465NB,Veghel,Veghel,Noord-Brabant,VBO,5.515136,51.593748
De Kempkens,6,A,,5465NB,Veghel,Veghel,Noord-Brabant,VBO,5.517211,51.592667
De Kempkens,8,,,5465NB,Veghel,Veghel,Noord-Brabant,VBO,5.517300,51.593575
De Kempkens,9,,,5465NB,Veghel,Veghel,Noord-Brabant,VBO,5.517822,51.594617
De Kempkens,10,,,5465NB,Veghel,Veghel,Noord-Brabant,VBO,5.521111,51.593912
De Kempkens,11,,,5465NB,Veghel,Veghel,Noord-Brabant,VBO,5.524288,51.594546
Erpsesteeg,6,,,5465NX,Veghel,Veghel,Noord-Brabant,VBO,5.543142,51.584490
Heisteeg,8,,,5465NZ,Veghel,Veghel,Noord-Brabant,VBO,5.542415,51.580417
Heisteeg,9,,,5465NZ,Veghel,Veghel,Noord-Brabant,VBO,5.541071,51.580458
Het Gerecht,1,,,5465PA,Veghel,Veghel,Noord-Brabant,VBO,5.560895,51.570552
Het Gerecht,2,,,5465PA,Veghel,Veghel,Noord-Brabant,VBO,5.562519,51.569620
Het Gerecht,3,,,5465PA,Veghel,Veghel,Noord-Brabant,VBO,5.574278,51.566459
Jekschot,1,,,5465PB,Veghel,Veghel,Noord-Brabant,VBO,5.551588,51.565460
Jekschot,2,,,5465PB,Veghel,Veghel,Noord-Brabant,VBO,5.551443,51.565217
De Heihoef,2,A,,5465PC,Veghel,Veghel,Noord-Brabant,VBO,5.553111,51.559993
De Heihoef,2,,,5465PC,Veghel,Veghel,Noord-Brabant,VBO,5.553038,51.559831
De Heihoef,3,,,5465PC,Veghel,Veghel,Noord-Brabant,VBO,5.551310,51.560391
De Heihoef,4,,,5465PC,Veghel,Veghel,Noord-Brabant,VBO,5.551352,51.560139
Korenmolenweg,1,,,5465PD,Veghel,Veghel,Noord-Brabant,VBO,5.542814,51.589272
Korenmolenweg,2,,,5465PD,Veghel,Veghel,Noord-Brabant,VBO,5.542390,51.589131
Korenmolenweg,3,,,5465PD,Veghel,Veghel,Noord-Brabant,VBO,5.542106,51.589086
Jekschotstraat,1,A,,5465PE,Veghel,Veghel,Noord-Brabant,VBO,5.556530,51.575655
Jekschotstraat,1,,,5465PE,Veghel,Veghel,Noord-Brabant,VBO,5.556361,51.576842
Jekschotstraat,3,A,,5465PE,Veghel,Veghel,Noord-Brabant,VBO,5.556758,51.574998
Jekschotstraat,3,,,5465PE,Veghel,Veghel,Noord-Brabant,VBO,5.556572,51.575502
Jekschotstraat,5,A,,5465PE,Veghel,Veghel,Noord-Brabant,VBO,5.555747,51.574703
Jekschotstraat,5,B,,5465PE,Veghel,Veghel,Noord-Brabant,VBO,5.557145,51.574243
Jekschotstraat,5,,,5465PE,Veghel,Veghel,Noord-Brabant,VBO,5.556786,51.574900
Jekschotstraat,7,A,,5465PE,Veghel,Veghel,Noord-Brabant,VBO,5.557008,51.572526
Jekschotstraat,7,,,5465PE,Veghel,Veghel,Noord-Brabant,VBO,5.556830,51.573629
Jekschotstraat,9,,,5465PE,Veghel,Veghel,Noord-Brabant,VBO,5.556542,51.571215
Jekschotstraat,11,A,,5465PE,Veghel,Veghel,Noord-Brabant,VBO,5.556076,51.570002
Jekschotstraat,11,,,5465PE,Veghel,Veghel,Noord-Brabant,VBO,5.556336,51.570181
Jekschotstraat,13,A,,5465PE,Veghel,Veghel,Noord-Brabant,VBO,5.555530,51.562973
Jekschotstraat,13,,,5465PE,Veghel,Veghel,Noord-Brabant,VBO,5.556219,51.569759
Jekschotstraat,15,,,5465PE,Veghel,Veghel,Noord-Brabant,VBO,5.555353,51.561850
Jekschotstraat,23,,,5465PE,Veghel,Veghel,Noord-Brabant,VBO,5.554779,51.560855
Jekschotstraat,2,A,,5465PG,Veghel,Veghel,Noord-Brabant,VBO,5.557138,51.576247
Jekschotstraat,2,,,5465PG,Veghel,Veghel,Noord-Brabant,VBO,5.557197,51.576796
Jekschotstraat,4,,,5465PG,Veghel,Veghel,Noord-Brabant,VBO,5.557524,51.575456
Jekschotstraat,6,,,5465PG,Veghel,Veghel,Noord-Brabant,VBO,5.557650,51.574512
Jekschotstraat,8,A,,5465PG,Veghel,Veghel,Noord-Brabant,VBO,5.557425,51.572049
Jekschotstraat,8,,,5465PG,Veghel,Veghel,Noord-Brabant,VBO,5.557440,51.572202
Jekschotstraat,10,,,5465PG,Veghel,Veghel,Noord-Brabant,VBO,5.557580,51.571231
Jekschotstraat,12,A,,5465PG,Veghel,Veghel,Noord-Brabant,VBO,5.556967,51.569093
Jekschotstraat,12,,,5465PG,Veghel,Veghel,Noord-Brabant,VBO,5.557112,51.569533
Jekschotstraat,14,A,,5465PG,Veghel,Veghel,Noord-Brabant,VBO,5.556786,51.567043
Jekschotstraat,14,B,,5465PG,Veghel,Veghel,Noord-Brabant,VBO,5.556197,51.563871
Jekschotstraat,14,C,,5465PG,Veghel,Veghel,Noord-Brabant,VBO,5.556490,51.565192
Jekschotstraat,14,,,5465PG,Veghel,Veghel,Noord-Brabant,VBO,5.556978,51.568418
Jekschotstraat,16,,,5465PG,Veghel,Veghel,Noord-Brabant,VBO,5.556182,51.563790
Jekschotstraat,20,,,5465PG,Veghel,Veghel,Noord-Brabant,VBO,5.555741,51.561562
Jekschotstraat,22,,,5465PG,Veghel,Veghel,Noord-Brabant,VBO,5.555711,51.561068
Jekschotstraat,24,,,5465PG,Veghel,Veghel,Noord-Brabant,VBO,5.555620,51.560052
Zondveldstraat,1,A,,5465PH,Veghel,Veghel,Noord-Brabant,VBO,5.547672,51.583694
Zondveldstraat,1,B,,5465PH,Veghel,Veghel,Noord-Brabant,VBO,5.545488,51.586412
Zondveldstraat,1,,,5465PH,Veghel,Veghel,Noord-Brabant,VBO,5.547586,51.583811
Zondveldstraat,3,A,,5465PH,Veghel,Veghel,Noord-Brabant,VBO,5.548404,51.582606
Zondveldstraat,3,B,,5465PH,Veghel,Veghel,Noord-Brabant,VBO,5.547024,51.583097
Zondveldstraat,3,,,5465PH,Veghel,Veghel,Noord-Brabant,VBO,5.546992,51.583138
Zondveldstraat,5,A,,5465PH,Veghel,Veghel,Noord-Brabant,VBO,5.550111,51.579979
Zondveldstraat,5,,,5465PH,Veghel,Veghel,Noord-Brabant,VBO,5.549235,51.581005
Zondveldstraat,7,A,,5465PH,Veghel,Veghel,Noord-Brabant,VBO,5.550471,51.579690
Zondveldstraat,7,,,5465PH,Veghel,Veghel,Noord-Brabant,VBO,5.550372,51.579866
Zondveldstraat,9,,,5465PH,Veghel,Veghel,Noord-Brabant,VBO,5.552732,51.578636
Zondveldstraat,11,A,,5465PH,Veghel,Veghel,Noord-Brabant,VBO,5.553366,51.578383
Zondveldstraat,13,,,5465PH,Veghel,Veghel,Noord-Brabant,VBO,5.553553,51.578383
Zondveldstraat,15,,,5465PH,Veghel,Veghel,Noord-Brabant,VBO,5.554952,51.578030
Zondveldstraat,17,,,5465PH,Veghel,Veghel,Noord-Brabant,VBO,5.555858,51.577526
Past. Clercxstraat,80,,,5465PJ,Veghel,Veghel,Noord-Brabant,VBO,5.544037,51.589855
Zondveldstraat,2,A,,5465PJ,Veghel,Veghel,Noord-Brabant,VBO,5.545752,51.587697
Zondveldstraat,2,,,5465PJ,Veghel,Veghel,Noord-Brabant,VBO,5.546397,51.586312
Zondveldstraat,4,,,5465PJ,Veghel,Veghel,Noord-Brabant,VBO,5.547244,51.585097
Zondveldstraat,6,A,,5465PJ,Veghel,Veghel,Noord-Brabant,VBO,5.547904,51.584179
Zondveldstraat,6,B,,5465PJ,Veghel,Veghel,Noord-Brabant,VBO,5.548120,51.583900
Zondveldstraat,6,,,5465PJ,Veghel,Veghel,Noord-Brabant,VBO,5.547416,51.584728
Zondveldstraat,8,A,,5465PJ,Veghel,Veghel,Noord-Brabant,VBO,5.548593,51.583055
Zondveldstraat,8,,,5465PJ,Veghel,Veghel,Noord-Brabant,VBO,5.548565,51.583253
Zondveldstraat,10,A,,5465PJ,Veghel,Veghel,Noord-Brabant,VBO,5.549685,51.581696
Zondveldstraat,10,,,5465PJ,Veghel,Veghel,Noord-Brabant,VBO,5.549182,51.582371
Zondveldstraat,12,,,5465PJ,Veghel,Veghel,Noord-Brabant,VBO,5.550273,51.580868
Zondveldstraat,14,A,,5465PJ,Veghel,Veghel,Noord-Brabant,VBO,5.550596,51.580207
Zondveldstraat,14,,,5465PJ,Veghel,Veghel,Noord-Brabant,VBO,5.550516,51.580311
Zondveldstraat,16,A,,5465PJ,Veghel,Veghel,Noord-Brabant,VBO,5.552287,51.579212
Zondveldstraat,16,,,5465PJ,Veghel,Veghel,Noord-Brabant,VBO,5.550746,51.579996
Zondveldstraat,18,,,5465PJ,Veghel,Veghel,Noord-Brabant,VBO,5.553700,51.579012
Zondveldstraat,20,A,,5465PJ,Veghel,Veghel,Noord-Brabant,VBO,5.553929,51.578607
Zondveldstraat,20,,,5465PJ,Veghel,Veghel,Noord-Brabant,VBO,5.553814,51.578634
Zondveldstraat,22,,,5465PJ,Veghel,Veghel,Noord-Brabant,VBO,5.554261,51.578553
Zondveldstraat,24,A,,5465PJ,Veghel,Veghel,Noord-Brabant,VBO,5.555863,51.578074
Zondveldstraat,24,,,5465PJ,Veghel,Veghel,Noord-Brabant,VBO,5.554564,51.578462
Zondveldstraat,26,A,,5465PJ,Veghel,Veghel,Noord-Brabant,VBO,5.556584,51.578522
Zondveldstraat,26,,,5465PJ,Veghel,Veghel,Noord-Brabant,VBO,5.556525,51.578235
Zondveldstraat,40,,,5465PJ,Veghel,Veghel,Noord-Brabant,VBO,5.556067,51.581778
Spierbos,1,,,5465PK,Veghel,Veghel,Noord-Brabant,VBO,5.551044,51.582458
Krijtenburg,1,,,5465PL,Veghel,Veghel,Noord-Brabant,VBO,5.528555,51.581943
Krijtenburg,2,,,5465PL,Veghel,Veghel,Noord-Brabant,VBO,5.529442,51.581345
Krijtenburg,3,,,5465PL,Veghel,Veghel,Noord-Brabant,VBO,5.530220,51.581101
Krijtenburg,4,A,,5465PL,Veghel,Veghel,Noord-Brabant,VBO,5.530855,51.581199
Krijtenburg,4,,,5465PL,Veghel,Veghel,Noord-Brabant,VBO,5.530451,51.581308
Krijtenburg,5,,,5465PL,Veghel,Veghel,Noord-Brabant,VBO,5.531330,51.580785
Krijtenburg,6,A,,5465PL,Veghel,Veghel,Noord-Brabant,VBO,5.532628,51.580793
Krijtenburg,6,,,5465PL,Veghel,Veghel,Noord-Brabant,VBO,5.532744,51.580909
Krijtenburg,7,,,5465PL,Veghel,Veghel,Noord-Brabant,VBO,5.532179,51.580272
Krijtenburg,8,A,,5465PL,Veghel,Veghel,Noord-Brabant,VBO,5.533303,51.579848
Krijtenburg,8,,,5465PL,Veghel,Veghel,Noord-Brabant,VBO,5.533073,51.580019
Krijtenburg,9,,,5465PL,Veghel,Veghel,Noord-Brabant,VBO,5.535628,51.580330
Krijtenburg,10,,,5465PL,Veghel,Veghel,Noord-Brabant,VBO,5.534758,51.578992
Krijtenburg,11,,,5465PL,Veghel,Veghel,Noord-Brabant,VBO,5.535274,51.578138
Krijtenburg,12,,,5465PL,Veghel,Veghel,Noord-Brabant,VBO,5.537783,51.577631
Krijtenburg,13,A,,5465PL,Veghel,Veghel,Noord-Brabant,VBO,5.540004,51.577547
Krijtenburg,13,,,5465PL,Veghel,Veghel,Noord-Brabant,VBO,5.539759,51.577548
Krijtenburg,14,,,5465PL,Veghel,Veghel,Noord-Brabant,VBO,5.540840,51.577322
Krijtenburg,15,A,,5465PM,Veghel,Veghel,Noord-Brabant,VBO,5.542486,51.577568
Krijtenburg,15,,,5465PM,Veghel,Veghel,Noord-Brabant,VBO,5.541648,51.577231
Krijtenburg,16,,,5465PM,Veghel,Veghel,Noord-Brabant,VBO,5.542657,51.577112
Krijtenburg,17,A,,5465PM,Veghel,Veghel,Noord-Brabant,VBO,5.543840,51.577003
Krijtenburg,17,,,5465PM,Veghel,Veghel,Noord-Brabant,VBO,5.543580,51.576958
Krijtenburg,18,,,5465PM,Veghel,Veghel,Noord-Brabant,VBO,5.544807,51.577343
Krijtenburg,19,,,5465PM,Veghel,Veghel,Noord-Brabant,VBO,5.545572,51.577504
Krijtenburg,21,,,5465PM,Veghel,Veghel,Noord-Brabant,VBO,5.547463,51.577627
Krijtenburg,22,,,5465PM,Veghel,Veghel,Noord-Brabant,VBO,5.549297,51.578281
Krijtenburg,23,,,5465PM,Veghel,Veghel,Noord-Brabant,VBO,5.550106,51.578504
Krijtenburg,24,A,,5465PM,Veghel,Veghel,Noord-Brabant,VBO,5.551417,51.578499
Krijtenburg,24,,,5465PM,Veghel,Veghel,Noord-Brabant,VBO,5.551269,51.578503
Krijtenburg,25,,,5465PM,Veghel,Veghel,Noord-Brabant,VBO,5.551074,51.578944
Krijtenburg,26,,,5465PM,Veghel,Veghel,Noord-Brabant,VBO,5.551780,51.578556
Reibroekstraat,1,,,5465PN,Veghel,Veghel,Noord-Brabant,VBO,5.542243,51.590991
Reibroekstraat,2,,,5465PN,Veghel,Veghel,Noord-Brabant,VBO,5.538747,51.589764
Reibroekstraat,3,,,5465PN,Veghel,Veghel,Noord-Brabant,VBO,5.542026,51.590938
Reibroekstraat,5,,,5465PN,Veghel,Veghel,Noord-Brabant,VBO,5.541838,51.590884
Reibroekstraat,7,,,5465PN,Veghel,Veghel,Noord-Brabant,VBO,5.541665,51.590839
Reibroekstraat,9,,,5465PN,Veghel,Veghel,Noord-Brabant,VBO,5.541564,51.590812
Reibroekstraat,11,,,5465PN,Veghel,Veghel,Noord-Brabant,VBO,5.541376,51.590768
Reibroekstraat,13,,,5465PN,Veghel,Veghel,Noord-Brabant,VBO,5.541189,51.590714
Reibroekstraat,17,,,5465PN,Veghel,Veghel,Noord-Brabant,VBO,5.540235,51.590455
Reibroekstraat,19,,,5465PN,Veghel,Veghel,Noord-Brabant,VBO,5.540149,51.590437
Reibroekstraat,21,,,5465PN,Veghel,Veghel,Noord-Brabant,VBO,5.539412,51.590294
Reibroekstraat,23,,,5465PN,Veghel,Veghel,Noord-Brabant,VBO,5.538926,51.590168
Reibroekstraat,25,,,5465PN,Veghel,Veghel,Noord-Brabant,VBO,5.538603,51.590070
Reibroekstraat,27,,,5465PN,Veghel,Veghel,Noord-Brabant,VBO,5.538387,51.590017
Reibroekstraat,29,,,5465PN,Veghel,Veghel,Noord-Brabant,VBO,5.538184,51.589963
Hoge Biezen,1,,,5465PP,Veghel,Veghel,Noord-Brabant,VBO,5.537945,51.588355
Hoge Biezen,3,,,5465PP,Veghel,Veghel,Noord-Brabant,VBO,5.536742,51.584794
Hoge Biezen,4,,,5465PP,Veghel,Veghel,Noord-Brabant,VBO,5.537519,51.584966
Hoge Biezen,5,,,5465PP,Veghel,Veghel,Noord-Brabant,VBO,5.538152,51.584417
Corsica,2,,,5465PS,Veghel,Veghel,Noord-Brabant,VBO,5.523299,51.596956
Corsica,6,,,5465PS,Veghel,Veghel,Noord-Brabant,VBO,5.529301,51.594872
Corsica,7,A,,5465PS,Veghel,Veghel,Noord-Brabant,VBO,5.529958,51.594063
Corsica,7,B,,5465PS,Veghel,Veghel,Noord-Brabant,VBO,5.529396,51.594315
Corsica,7,,,5465PS,Veghel,Veghel,Noord-Brabant,VBO,5.530507,51.594233
Corsica,8,A,,5465PS,Veghel,Veghel,Noord-Brabant,VBO,5.531831,51.593180
Corsica,8,,,5465PS,Veghel,Veghel,Noord-Brabant,VBO,5.531992,51.593755
Corsica,9,A,,5465PS,Veghel,Veghel,Noord-Brabant,VBO,5.533689,51.592117
Corsica,9,,,5465PS,Veghel,Veghel,Noord-Brabant,VBO,5.532506,51.592298
Corsica,10,A,,5465PS,Veghel,Veghel,Noord-Brabant,VBO,5.533240,51.591668
Corsica,10,,,5465PS,Veghel,Veghel,Noord-Brabant,VBO,5.533341,51.591596
Corsica,11,A,,5465PS,Veghel,Veghel,Noord-Brabant,VBO,5.535043,51.591946
Corsica,11,,,5465PS,Veghel,Veghel,Noord-Brabant,VBO,5.534756,51.591855
Corsica,12,,,5465PS,Veghel,Veghel,Noord-Brabant,VBO,5.534191,51.591065
Corsica,13,A,,5465PS,Veghel,Veghel,Noord-Brabant,VBO,5.535819,51.590272
Corsica,14,A,,5465PS,Veghel,Veghel,Noord-Brabant,VBO,5.535358,51.590542
Corsica,14,,,5465PS,Veghel,Veghel,Noord-Brabant,VBO,5.535271,51.590506
Corsica,15,,,5465PS,Veghel,Veghel,Noord-Brabant,VBO,5.536683,51.589740
Corsica,17,A,,5465PS,Veghel,Veghel,Noord-Brabant,VBO,5.536400,51.591152
Corsica,17,,,5465PS,Veghel,Veghel,Noord-Brabant,VBO,5.536837,51.591381
Lage Biezen,1,,,5465PT,Veghel,Veghel,Noord-Brabant,VBO,5.530101,51.593694
Lage Biezen,2,,,5465PT,Veghel,Veghel,Noord-Brabant,VBO,5.526763,51.592242
Lage Biezen,3,,,5465PT,Veghel,Veghel,Noord-Brabant,VBO,5.525115,51.591363
Lage Biezen,4,,,5465PT,Veghel,Veghel,Noord-Brabant,VBO,5.524524,51.591463
De Bresser,7,A,,5465PW,Veghel,Veghel,Noord-Brabant,VBO,5.538462,51.595040
De Bresser,7,,,5465PW,Veghel,Veghel,Noord-Brabant,VBO,5.538495,51.595278
De Bresser,8,,,5465PW,Veghel,Veghel,Noord-Brabant,VBO,5.538762,51.594259
De Bresser,10,,,5465PW,Veghel,Veghel,Noord-Brabant,VBO,5.538732,51.594124
De Bresser,11,,,5465PW,Veghel,Veghel,Noord-Brabant,VBO,5.538343,51.594277
De Bresser,12,,,5465PW,Veghel,Veghel,Noord-Brabant,VBO,5.538689,51.593998
De Bresser,13,,,5465PW,Veghel,Veghel,Noord-Brabant,VBO,5.538372,51.594151
De Bresser,14,,,5465PW,Veghel,Veghel,Noord-Brabant,VBO,5.538674,51.593953
De Bresser,15,,,5465PW,Veghel,Veghel,Noord-Brabant,VBO,5.538357,51.594017
De Bresser,16,,,5465PW,Veghel,Veghel,Noord-Brabant,VBO,5.538659,51.593827
De Bresser,17,,,5465PW,Veghel,Veghel,Noord-Brabant,VBO,5.538299,51.593882
De Bresser,18,,,5465PW,Veghel,Veghel,Noord-Brabant,VBO,5.538645,51.593765
De Bresser,19,,,5465PW,Veghel,Veghel,Noord-Brabant,VBO,5.538284,51.593765
De Bresser,20,,,5465PW,Veghel,Veghel,Noord-Brabant,VBO,5.538627,51.593593
De Bresser,21,,,5465PW,Veghel,Veghel,Noord-Brabant,VBO,5.538269,51.593702
De Bresser,23,,,5465PW,Veghel,Veghel,Noord-Brabant,VBO,5.538254,51.593549
De Bresser,25,,,5465PW,Veghel,Veghel,Noord-Brabant,VBO,5.538225,51.593370
De Bresser,26,,,5465PW,Veghel,Veghel,Noord-Brabant,VBO,5.538263,51.591832
De Bresser,27,,,5465PW,Veghel,Veghel,Noord-Brabant,VBO,5.537024,51.592499
De Bresser,29,,,5465PW,Veghel,Veghel,Noord-Brabant,VBO,5.537212,51.592472
Grootveld,5,,,5465PX,Veghel,Veghel,Noord-Brabant,VBO,5.538850,51.590573
Grootveld,7,,,5465PX,Veghel,Veghel,Noord-Brabant,VBO,5.538619,51.590502
Grootveld,9,,,5465PX,Veghel,Veghel,Noord-Brabant,VBO,5.538345,51.590529
Grootveld,11,,,5465PX,Veghel,Veghel,Noord-Brabant,VBO,5.538216,51.590682
Grootveld,13,,,5465PX,Veghel,Veghel,Noord-Brabant,VBO,5.538158,51.590826
Grootveld,15,,,5465PX,Veghel,Veghel,Noord-Brabant,VBO,5.538202,51.590979
Grootveld,17,,,5465PX,Veghel,Veghel,Noord-Brabant,VBO,5.538217,51.591033
Grootveld,19,,,5465PX,Veghel,Veghel,Noord-Brabant,VBO,5.538246,51.591167
Grootveld,21,,,5465PX,Veghel,Veghel,Noord-Brabant,VBO,5.538262,51.591428
Grootveld,23,,,5465PX,Veghel,Veghel,Noord-Brabant,VBO,5.538189,51.591419
Grootveld,35,,,5465PX,Veghel,Veghel,Noord-Brabant,VBO,5.539546,51.591408
Grootveld,37,,,5465PX,Veghel,Veghel,Noord-Brabant,VBO,5.539546,51.591336
Grootveld,39,,,5465PX,Veghel,Veghel,Noord-Brabant,VBO,5.539574,51.591202
Grootveld,41,,,5465PX,Veghel,Veghel,Noord-Brabant,VBO,5.539588,51.591067
Grootveld,43,,,5465PX,Veghel,Veghel,Noord-Brabant,VBO,5.539616,51.590914
Grootveld,2,,,5465PZ,Veghel,Veghel,Noord-Brabant,VBO,5.539198,51.590896
Grootveld,4,,,5465PZ,Veghel,Veghel,Noord-Brabant,VBO,5.539053,51.590861
Grootveld,6,,,5465PZ,Veghel,Veghel,Noord-Brabant,VBO,5.538822,51.590798
Grootveld,8,,,5465PZ,Veghel,Veghel,Noord-Brabant,VBO,5.538577,51.590735
Grootveld,16,,,5465PZ,Veghel,Veghel,Noord-Brabant,VBO,5.538578,51.591113
Grootveld,18,,,5465PZ,Veghel,Veghel,Noord-Brabant,VBO,5.538607,51.591221
Grootveld,20,,,5465PZ,Veghel,Veghel,Noord-Brabant,VBO,5.538636,51.591356
Grootveld,22,,,5465PZ,Veghel,Veghel,Noord-Brabant,VBO,5.538651,51.591490
Grootveld,24,,,5465PZ,Veghel,Veghel,Noord-Brabant,VBO,5.538969,51.591535
Grootveld,26,,,5465PZ,Veghel,Veghel,Noord-Brabant,VBO,5.539171,51.591562
Grootveld,28,,,5465PZ,Veghel,Veghel,Noord-Brabant,VBO,5.539228,51.591310
Grootveld,30,,,5465PZ,Veghel,Veghel,Noord-Brabant,VBO,5.539233,51.591263
Grootveld,32,,,5465PZ,Veghel,Veghel,Noord-Brabant,VBO,5.539227,51.591130
De Hemel,1,A,,5465RB,Veghel,Veghel,Noord-Brabant,VBO,5.536927,51.602552
De Hemel,1,B,,5465RB,Veghel,Veghel,Noord-Brabant,VBO,5.537867,51.602988
De Hemel,1,,,5465RB,Veghel,Veghel,Noord-Brabant,VBO,5.537071,51.602441
De Hemel,2,,,5465RB,Veghel,Veghel,Noord-Brabant,VBO,5.536752,51.601992
De Hemel,3,,,5465RB,Veghel,Veghel,Noord-Brabant,VBO,5.536347,51.601543
De Hemel,4,,,5465RB,Veghel,Veghel,Noord-Brabant,VBO,5.536260,51.601435
De Hemel,4,,,5465RB,Veghel,Veghel,Noord-Brabant,VBO,5.536111,51.601359
De Hemel,5,,,5465RB,Veghel,Veghel,Noord-Brabant,VBO,5.535869,51.601067
De Hemel,6,,,5465RB,Veghel,Veghel,Noord-Brabant,VBO,5.535925,51.600635
De Hemel,8,,,5465RB,Veghel,Veghel,Noord-Brabant,VBO,5.535058,51.598873
De Hemel,10,,,5465RB,Veghel,Veghel,Noord-Brabant,VBO,5.533876,51.596422
De Hemel,12,,,5465RB,Veghel,Veghel,Noord-Brabant,VBO,5.532063,51.594955
Doornhoek,1,A,,5465RC,Veghel,Veghel,Noord-Brabant,VBO,5.538541,51.604047
Doornhoek,1,,,5465RC,Veghel,Veghel,Noord-Brabant,VBO,5.538746,51.604072
Doornhoek,2,A,,5465RC,Veghel,Veghel,Noord-Brabant,VBO,5.538113,51.603032
Doornhoek,2,,,5465RC,Veghel,Veghel,Noord-Brabant,VBO,5.538041,51.603140
Doornhoek,3,A,,5465RC,Veghel,Veghel,Noord-Brabant,VBO,5.539423,51.602168
Doornhoek,3,B,,5465RC,Veghel,Veghel,Noord-Brabant,VBO,5.539917,51.601979
Doornhoek,3,,,5465RC,Veghel,Veghel,Noord-Brabant,VBO,5.538661,51.603059
Doornhoek,4,,,5465RC,Veghel,Veghel,Noord-Brabant,VBO,5.540043,51.601942
Doornhoek,5,,,5465RC,Veghel,Veghel,Noord-Brabant,VBO,5.539258,51.600164
Doornhoek,6,,,5465RC,Veghel,Veghel,Noord-Brabant,VBO,5.538424,51.601243
Past. Clercxstraat,1,A,,5465RD,Veghel,Veghel,Noord-Brabant,VBO,5.540417,51.601663
Past. Clercxstraat,1,B,,5465RD,Veghel,Veghel,Noord-Brabant,VBO,5.541071,51.601973
Past. Clercxstraat,1,C,,5465RD,Veghel,Veghel,Noord-Brabant,VBO,5.541154,51.602063
Past. Clercxstraat,1,D,,5465RD,Veghel,Veghel,Noord-Brabant,VBO,5.541393,51.602239
Past. Clercxstraat,1,E,,5465RD,Veghel,Veghel,Noord-Brabant,VBO,5.541496,51.602332
Past. Clercxstraat,1,,,5465RD,Veghel,Veghel,Noord-Brabant,VBO,5.540605,51.601672
Past. Clercxstraat,3,,,5465RD,Veghel,Veghel,Noord-Brabant,VBO,5.539095,51.598905
Past. Clercxstraat,5,A,,5465RD,Veghel,Veghel,Noord-Brabant,VBO,5.539679,51.596765
Past. Clercxstraat,5,B,,5465RD,Veghel,Veghel,Noord-Brabant,VBO,5.539737,51.596639
Past. Clercxstraat,5,C,,5465RD,Veghel,Veghel,Noord-Brabant,VBO,5.539823,51.596487
Past. Clercxstraat,5,,,5465RD,Veghel,Veghel,Noord-Brabant,VBO,5.539594,51.597098
Past. Clercxstraat,7,,,5465RD,Veghel,Veghel,Noord-Brabant,VBO,5.539909,51.596343
Past. Clercxstraat,9,,,5465RD,Veghel,Veghel,Noord-Brabant,VBO,5.540024,51.596190
Past. Clercxstraat,11,,,5465RD,Veghel,Veghel,Noord-Brabant,VBO,5.540096,51.596091
Past. Clercxstraat,13,,,5465RD,Veghel,Veghel,Noord-Brabant,VBO,5.540182,51.595965
Past. Clercxstraat,15,,,5465RD,Veghel,Veghel,Noord-Brabant,VBO,5.540348,51.595815
Past. Clercxstraat,17,,,5465RD,Veghel,Veghel,Noord-Brabant,VBO,5.540512,51.595470
Past. Clercxstraat,19,,,5465RD,Veghel,Veghel,Noord-Brabant,VBO,5.540555,51.595299
Past. Clercxstraat,21,,,5465RD,Veghel,Veghel,Noord-Brabant,VBO,5.540569,51.595146
Past. Clercxstraat,23,,,5465RD,Veghel,Veghel,Noord-Brabant,VBO,5.540582,51.594949
Past. Clercxstraat,25,,,5465RD,Veghel,Veghel,Noord-Brabant,VBO,5.540538,51.594643
Past. Clercxstraat,31,,,5465RD,Veghel,Veghel,Noord-Brabant,VBO,5.540683,51.594335
Past. Clercxstraat,35,,,5465RE,Veghel,Veghel,Noord-Brabant,VBO,5.540739,51.594229
Past. Clercxstraat,37,,,5465RE,Veghel,Veghel,Noord-Brabant,VBO,5.540767,51.594148
Past. Clercxstraat,39,,,5465RE,Veghel,Veghel,Noord-Brabant,VBO,5.540810,51.594031
Past. Clercxstraat,41,,,5465RE,Veghel,Veghel,Noord-Brabant,VBO,5.540839,51.593959
Past. Clercxstraat,43,,,5465RE,Veghel,Veghel,Noord-Brabant,VBO,5.540882,51.593861
Past. Clercxstraat,45,A,,5465RE,Veghel,Veghel,Noord-Brabant,VBO,5.540678,51.593723
Past. Clercxstraat,45,,,5465RE,Veghel,Veghel,Noord-Brabant,VBO,5.540910,51.593762
Past. Clercxstraat,47,,,5465RE,Veghel,Veghel,Noord-Brabant,VBO,5.540953,51.593663
Past. Clercxstraat,49,,,5465RE,Veghel,Veghel,Noord-Brabant,VBO,5.540982,51.593609
Past. Clercxstraat,51,,,5465RE,Veghel,Veghel,Noord-Brabant,VBO,5.540996,51.593564
Past. Clercxstraat,53,,,5465RE,Veghel,Veghel,Noord-Brabant,VBO,5.541025,51.593492
Past. Clercxstraat,55,,,5465RE,Veghel,Veghel,Noord-Brabant,VBO,5.541053,51.593429
Past. Clercxstraat,57,,,5465RE,Veghel,Veghel,Noord-Brabant,VBO,5.541081,51.593132
Past. Clercxstraat,59,,,5465RE,Veghel,Veghel,Noord-Brabant,VBO,5.541095,51.593024
Past. Clercxstraat,61,,,5465RE,Veghel,Veghel,Noord-Brabant,VBO,5.541109,51.592916
Past. Clercxstraat,63,,,5465RE,Veghel,Veghel,Noord-Brabant,VBO,5.541138,51.592809
Past. Clercxstraat,65,,,5465RE,Veghel,Veghel,Noord-Brabant,VBO,5.541152,51.592692
Past. Clercxstraat,67,,,5465RE,Veghel,Veghel,Noord-Brabant,VBO,5.541166,51.592575
Past. Clercxstraat,69,,,5465RE,Veghel,Veghel,Noord-Brabant,VBO,5.541612,51.592278
Past. Clercxstraat,71,,,5465RG,Veghel,Veghel,Noord-Brabant,VBO,5.541799,51.592107
Past. Clercxstraat,75,A,,5465RG,Veghel,Veghel,Noord-Brabant,VBO,5.541953,51.591619
Past. Clercxstraat,75,B,,5465RG,Veghel,Veghel,Noord-Brabant,VBO,5.542014,51.591555
Past. Clercxstraat,75,C,,5465RG,Veghel,Veghel,Noord-Brabant,VBO,5.542095,51.591462
Past. Clercxstraat,75,D,,5465RG,Veghel,Veghel,Noord-Brabant,VBO,5.541953,51.591619
Past. Clercxstraat,75,E,,5465RG,Veghel,Veghel,Noord-Brabant,VBO,5.542014,51.591555
Past. Clercxstraat,75,F,,5465RG,Veghel,Veghel,Noord-Brabant,VBO,5.542095,51.591462
Past. Clercxstraat,75,G,,5465RG,Veghel,Veghel,Noord-Brabant,VBO,5.542002,51.591551
Past. Clercxstraat,75,H,,5465RG,Veghel,Veghel,Noord-Brabant,VBO,5.542095,51.591462
Past. Clercxstraat,79,,,5465RG,Veghel,Veghel,Noord-Brabant,VBO,5.542302,51.591351
Past. Clercxstraat,81,,,5465RG,Veghel,Veghel,Noord-Brabant,VBO,5.542388,51.591234
Past. Clercxstraat,83,,,5465RG,Veghel,Veghel,Noord-Brabant,VBO,5.542489,51.591099
Past. Clercxstraat,85,,,5465RG,Veghel,Veghel,Noord-Brabant,VBO,5.542721,51.590692
Past. Clercxstraat,95,,,5465RG,Veghel,Veghel,Noord-Brabant,VBO,5.543565,51.589467
Past. Clercxstraat,97,,,5465RG,Veghel,Veghel,Noord-Brabant,VBO,5.543781,51.589165
Past. Clercxstraat,99,,,5465RG,Veghel,Veghel,Noord-Brabant,VBO,5.543982,51.588841
Past. Clercxstraat,103,,,5465RG,Veghel,Veghel,Noord-Brabant,VBO,5.544398,51.588310
Past. Clercxstraat,105,,,5465RG,Veghel,Veghel,Noord-Brabant,VBO,5.544484,51.588193
Past. Clercxstraat,109,,,5465RG,Veghel,Veghel,Noord-Brabant,VBO,5.543862,51.587735
Past. Clercxstraat,2,,,5465RH,Veghel,Veghel,Noord-Brabant,VBO,5.541992,51.602182
Past. Clercxstraat,4,,,5465RH,Veghel,Veghel,Noord-Brabant,VBO,5.541963,51.602120
Past. Clercxstraat,6,,,5465RH,Veghel,Veghel,Noord-Brabant,VBO,5.541905,51.602012
Past. Clercxstraat,8,,,5465RH,Veghel,Veghel,Noord-Brabant,VBO,5.540951,51.601384
Past. Clercxstraat,10,,,5465RH,Veghel,Veghel,Noord-Brabant,VBO,5.540849,51.601258
Past. Clercxstraat,12,,,5465RH,Veghel,Veghel,Noord-Brabant,VBO,5.539921,51.600073
Past. Clercxstraat,14,A,,5465RH,Veghel,Veghel,Noord-Brabant,VBO,5.539689,51.599534
Past. Clercxstraat,14,,,5465RH,Veghel,Veghel,Noord-Brabant,VBO,5.539703,51.599642
Past. Clercxstraat,16,,,5465RH,Veghel,Veghel,Noord-Brabant,VBO,5.539687,51.598932
Past. Clercxstraat,18,,,5465RH,Veghel,Veghel,Noord-Brabant,VBO,5.539768,51.597484
Past. Clercxstraat,20,A,,5465RH,Veghel,Veghel,Noord-Brabant,VBO,5.540773,51.595766
Past. Clercxstraat,20,,,5465RH,Veghel,Veghel,Noord-Brabant,VBO,5.540500,51.596162
Past. Clercxstraat,22,,,5465RH,Veghel,Veghel,Noord-Brabant,VBO,5.540830,51.595649
Past. Clercxstraat,24,A,,5465RH,Veghel,Veghel,Noord-Brabant,VBO,5.540871,51.595149
Past. Clercxstraat,24,,,5465RH,Veghel,Veghel,Noord-Brabant,VBO,5.540858,51.595326
Past. Clercxstraat,26,A,,5465RH,Veghel,Veghel,Noord-Brabant,VBO,5.540929,51.594921
Past. Clercxstraat,26,,,5465RH,Veghel,Veghel,Noord-Brabant,VBO,5.540871,51.595101
Past. Clercxstraat,28,,,5465RH,Veghel,Veghel,Noord-Brabant,VBO,5.540943,51.594777
Past. Clercxstraat,30,,,5465RH,Veghel,Veghel,Noord-Brabant,VBO,5.540957,51.594651
Past. Clercxstraat,34,,,5465RH,Veghel,Veghel,Noord-Brabant,VBO,5.540971,51.594526
Past. Clercxstraat,38,,,5465RH,Veghel,Veghel,Noord-Brabant,VBO,5.541041,51.594139
Past. Clercxstraat,40,A,,5465RJ,Veghel,Veghel,Noord-Brabant,VBO,5.541262,51.593901
Past. Clercxstraat,40,,,5465RJ,Veghel,Veghel,Noord-Brabant,VBO,5.541113,51.593968
Past. Clercxstraat,42,,,5465RJ,Veghel,Veghel,Noord-Brabant,VBO,5.541166,51.593861
Past. Clercxstraat,44,,,5465RJ,Veghel,Veghel,Noord-Brabant,VBO,5.541213,51.593788
Past. Clercxstraat,46,,,5465RJ,Veghel,Veghel,Noord-Brabant,VBO,5.541271,51.593662
Past. Clercxstraat,48,A,,5465RJ,Veghel,Veghel,Noord-Brabant,VBO,5.541497,51.593305
Past. Clercxstraat,48,,,5465RJ,Veghel,Veghel,Noord-Brabant,VBO,5.541342,51.593527
Past. Clercxstraat,50,A,,5465RJ,Veghel,Veghel,Noord-Brabant,VBO,5.541757,51.593045
Past. Clercxstraat,50,B,,5465RJ,Veghel,Veghel,Noord-Brabant,VBO,5.541778,51.592960
Past. Clercxstraat,50,C,,5465RJ,Veghel,Veghel,Noord-Brabant,VBO,5.541695,51.593008
Past. Clercxstraat,50,D,,5465RJ,Veghel,Veghel,Noord-Brabant,VBO,5.541743,51.592989
Past. Clercxstraat,50,E,,5465RJ,Veghel,Veghel,Noord-Brabant,VBO,5.541914,51.593052
Past. Clercxstraat,50,,,5465RJ,Veghel,Veghel,Noord-Brabant,VBO,5.542292,51.593130
Past. Clercxstraat,52,A,,5465RJ,Veghel,Veghel,Noord-Brabant,VBO,5.542610,51.592883
Past. Clercxstraat,52,B,,5465RJ,Veghel,Veghel,Noord-Brabant,VBO,5.542561,51.593067
Past. Clercxstraat,52,,,5465RJ,Veghel,Veghel,Noord-Brabant,VBO,5.542298,51.592895
Past. Clercxstraat,54,,,5465RJ,Veghel,Veghel,Noord-Brabant,VBO,5.541801,51.592628
Past. Clercxstraat,56,,,5465RJ,Veghel,Veghel,Noord-Brabant,VBO,5.541830,51.592583
Past. Clercxstraat,58,,,5465RJ,Veghel,Veghel,Noord-Brabant,VBO,5.541859,51.592529
Past. Clercxstraat,60,,,5465RJ,Veghel,Veghel,Noord-Brabant,VBO,5.541902,51.592475
Past. Clercxstraat,62,,,5465RJ,Veghel,Veghel,Noord-Brabant,VBO,5.542017,51.592376
Past. Clercxstraat,68,,,5465RJ,Veghel,Veghel,Noord-Brabant,VBO,5.542821,51.591188
Past. Clercxstraat,76,,,5465RJ,Veghel,Veghel,Noord-Brabant,VBO,5.543697,51.590144
Past. Clercxstraat,78,,,5465RJ,Veghel,Veghel,Noord-Brabant,VBO,5.543746,51.590084
Past. Clercxstraat,84,,,5465RJ,Veghel,Veghel,Noord-Brabant,VBO,5.544286,51.589128
Past. Clercxstraat,88,,,5465RJ,Veghel,Veghel,Noord-Brabant,VBO,5.544750,51.588666
De Voortstraat,1,A,,5465RK,Veghel,Veghel,Noord-Brabant,VBO,5.540503,51.593393
De Voortstraat,1,,,5465RK,Veghel,Veghel,Noord-Brabant,VBO,5.538932,51.593324
De Voortstraat,2,,,5465RK,Veghel,Veghel,Noord-Brabant,VBO,5.541038,51.593267
De Voortstraat,3,,,5465RK,Veghel,Veghel,Noord-Brabant,VBO,5.538672,51.593324
De Voortstraat,4,,,5465RK,Veghel,Veghel,Noord-Brabant,VBO,5.540591,51.593214
De Voortstraat,5,,,5465RK,Veghel,Veghel,Noord-Brabant,VBO,5.538600,51.593270
De Voortstraat,6,,,5465RK,Veghel,Veghel,Noord-Brabant,VBO,5.540374,51.593205
De Voortstraat,8,,,5465RK,Veghel,Veghel,Noord-Brabant,VBO,5.540071,51.593178
De Voortstraat,10,,,5465RK,Veghel,Veghel,Noord-Brabant,VBO,5.539624,51.593143
De Voortstraat,12,,,5465RK,Veghel,Veghel,Noord-Brabant,VBO,5.539147,51.593108
De Voortstraat,14,,,5465RK,Veghel,Veghel,Noord-Brabant,VBO,5.538945,51.593090
Keslaerstraat,1,A,,5465RL,Veghel,Veghel,Noord-Brabant,VBO,5.539512,51.594213
Keslaerstraat,1,B,,5465RL,Veghel,Veghel,Noord-Brabant,VBO,5.539526,51.594069
Keslaerstraat,1,C,,5465RL,Veghel,Veghel,Noord-Brabant,VBO,5.539583,51.593943
Keslaerstraat,1,,,5465RL,Veghel,Veghel,Noord-Brabant,VBO,5.539583,51.593889
Keslaerstraat,3,,,5465RL,Veghel,Veghel,Noord-Brabant,VBO,5.539597,51.593772
Keslaerstraat,5,,,5465RL,Veghel,Veghel,Noord-Brabant,VBO,5.539597,51.593709
Keslaerstraat,7,,,5465RL,Veghel,Veghel,Noord-Brabant,VBO,5.539568,51.593584
Keslaerstraat,9,,,5465RL,Veghel,Veghel,Noord-Brabant,VBO,5.539582,51.593521
Keslaerstraat,11,,,5465RL,Veghel,Veghel,Noord-Brabant,VBO,5.539596,51.593404
Keslaerstraat,13,,,5465RL,Veghel,Veghel,Noord-Brabant,VBO,5.539596,51.593341
Keslaerstraat,15,,,5465RL,Veghel,Veghel,Noord-Brabant,VBO,5.539652,51.593062
Keslaerstraat,17,,,5465RL,Veghel,Veghel,Noord-Brabant,VBO,5.539666,51.592936
Keslaerstraat,19,,,5465RL,Veghel,Veghel,Noord-Brabant,VBO,5.539681,51.592873
Keslaerstraat,21,,,5465RL,Veghel,Veghel,Noord-Brabant,VBO,5.539695,51.592765
Keslaerstraat,23,,,5465RL,Veghel,Veghel,Noord-Brabant,VBO,5.539738,51.592693
Keslaerstraat,25,,,5465RL,Veghel,Veghel,Noord-Brabant,VBO,5.539723,51.592586
Keslaerstraat,27,,,5465RL,Veghel,Veghel,Noord-Brabant,VBO,5.539737,51.592496
Keslaerstraat,29,,,5465RL,Veghel,Veghel,Noord-Brabant,VBO,5.539751,51.592397
Keslaerstraat,31,,,5465RL,Veghel,Veghel,Noord-Brabant,VBO,5.539751,51.592316
Keslaerstraat,33,,,5465RL,Veghel,Veghel,Noord-Brabant,VBO,5.539837,51.592208
Keslaerstraat,35,,,5465RL,Veghel,Veghel,Noord-Brabant,VBO,5.539866,51.592145
Keslaerstraat,37,,,5465RM,Veghel,Veghel,Noord-Brabant,VBO,5.539909,51.592037
Keslaerstraat,39,,,5465RM,Veghel,Veghel,Noord-Brabant,VBO,5.539937,51.591974
Keslaerstraat,41,,,5465RM,Veghel,Veghel,Noord-Brabant,VBO,5.539966,51.591857
Keslaerstraat,43,,,5465RM,Veghel,Veghel,Noord-Brabant,VBO,5.539980,51.591794
Keslaerstraat,45,,,5465RM,Veghel,Veghel,Noord-Brabant,VBO,5.540037,51.591686
Keslaerstraat,47,,,5465RM,Veghel,Veghel,Noord-Brabant,VBO,5.540066,51.591623
Keslaerstraat,49,,,5465RM,Veghel,Veghel,Noord-Brabant,VBO,5.540109,51.591507
Keslaerstraat,51,,,5465RM,Veghel,Veghel,Noord-Brabant,VBO,5.540138,51.591453
Keslaerstraat,53,,,5465RM,Veghel,Veghel,Noord-Brabant,VBO,5.540224,51.591336
Keslaerstraat,55,,,5465RM,Veghel,Veghel,Noord-Brabant,VBO,5.540252,51.591273
Keslaerstraat,57,,,5465RM,Veghel,Veghel,Noord-Brabant,VBO,5.540310,51.591156
Keslaerstraat,59,,,5465RM,Veghel,Veghel,Noord-Brabant,VBO,5.540338,51.591102
Keslaerstraat,61,,,5465RM,Veghel,Veghel,Noord-Brabant,VBO,5.540381,51.590976
Keslaerstraat,63,,,5465RM,Veghel,Veghel,Noord-Brabant,VBO,5.540424,51.590922
Keslaerstraat,65,,,5465RM,Veghel,Veghel,Noord-Brabant,VBO,5.540453,51.590796
Keslaerstraat,67,,,5465RM,Veghel,Veghel,Noord-Brabant,VBO,5.540481,51.590733
Keslaerstraat,69,,,5465RM,Veghel,Veghel,Noord-Brabant,VBO,5.540568,51.590607
Keslaerstraat,71,,,5465RM,Veghel,Veghel,Noord-Brabant,VBO,5.540582,51.590580
Keslaerstraat,2,,,5465RN,Veghel,Veghel,Noord-Brabant,VBO,5.539931,51.594266
Keslaerstraat,4,,,5465RN,Veghel,Veghel,Noord-Brabant,VBO,5.539930,51.594212
Keslaerstraat,6,,,5465RN,Veghel,Veghel,Noord-Brabant,VBO,5.539944,51.594104
Keslaerstraat,8,,,5465RN,Veghel,Veghel,Noord-Brabant,VBO,5.539944,51.594050
Keslaerstraat,10,,,5465RN,Veghel,Veghel,Noord-Brabant,VBO,5.539958,51.593952
Keslaerstraat,12,,,5465RN,Veghel,Veghel,Noord-Brabant,VBO,5.539973,51.593889
Keslaerstraat,14,,,5465RN,Veghel,Veghel,Noord-Brabant,VBO,5.539972,51.593790
Keslaerstraat,16,,,5465RN,Veghel,Veghel,Noord-Brabant,VBO,5.539987,51.593727
Keslaerstraat,18,,,5465RN,Veghel,Veghel,Noord-Brabant,VBO,5.540001,51.593628
Keslaerstraat,20,,,5465RN,Veghel,Veghel,Noord-Brabant,VBO,5.540000,51.593574
Keslaerstraat,22,,,5465RN,Veghel,Veghel,Noord-Brabant,VBO,5.540014,51.593466
Keslaerstraat,24,,,5465RN,Veghel,Veghel,Noord-Brabant,VBO,5.540014,51.593412
Keslaerstraat,26,,,5465RP,Veghel,Veghel,Noord-Brabant,VBO,5.540071,51.593035
Keslaerstraat,28,,,5465RP,Veghel,Veghel,Noord-Brabant,VBO,5.540099,51.592873
Keslaerstraat,30,,,5465RP,Veghel,Veghel,Noord-Brabant,VBO,5.540156,51.592729
Keslaerstraat,32,,,5465RP,Veghel,Veghel,Noord-Brabant,VBO,5.540185,51.592576
Keslaerstraat,34,,,5465RP,Veghel,Veghel,Noord-Brabant,VBO,5.540199,51.592441
Keslaerstraat,46,,,5465RP,Veghel,Veghel,Noord-Brabant,VBO,5.540542,51.591524
Keslaerstraat,48,,,5465RP,Veghel,Veghel,Noord-Brabant,VBO,5.540571,51.591461
Keslaerstraat,50,,,5465RP,Veghel,Veghel,Noord-Brabant,VBO,5.540628,51.591344
Keslaerstraat,52,,,5465RP,Veghel,Veghel,Noord-Brabant,VBO,5.540642,51.591290
Keslaerstraat,54,,,5465RP,Veghel,Veghel,Noord-Brabant,VBO,5.540699,51.591173
Keslaerstraat,56,,,5465RP,Veghel,Veghel,Noord-Brabant,VBO,5.540728,51.591119
Keslaerstraat,58,,,5465RP,Veghel,Veghel,Noord-Brabant,VBO,5.540785,51.591002
Keslaerstraat,60,,,5465RP,Veghel,Veghel,Noord-Brabant,VBO,5.540814,51.590948
Keslaerstraat,62,,,5465RP,Veghel,Veghel,Noord-Brabant,VBO,5.540972,51.590678
Past. Kampstraat,1,,,5465RR,Veghel,Veghel,Noord-Brabant,VBO,5.541062,51.591613
Past. Kampstraat,2,,,5465RR,Veghel,Veghel,Noord-Brabant,VBO,5.540483,51.591725
Past. Kampstraat,3,,,5465RR,Veghel,Veghel,Noord-Brabant,VBO,5.541090,51.591559
Past. Kampstraat,4,,,5465RR,Veghel,Veghel,Noord-Brabant,VBO,5.540584,51.591751
Past. Kampstraat,5,,,5465RR,Veghel,Veghel,Noord-Brabant,VBO,5.541148,51.591451
Past. Kampstraat,6,,,5465RR,Veghel,Veghel,Noord-Brabant,VBO,5.540613,51.591760
Past. Kampstraat,7,,,5465RR,Veghel,Veghel,Noord-Brabant,VBO,5.541176,51.591397
Past. Kampstraat,8,,,5465RR,Veghel,Veghel,Noord-Brabant,VBO,5.540714,51.591778
Past. Kampstraat,9,,,5465RR,Veghel,Veghel,Noord-Brabant,VBO,5.541248,51.591280
Past. Kampstraat,10,,,5465RR,Veghel,Veghel,Noord-Brabant,VBO,5.540758,51.591805
Past. Kampstraat,11,,,5465RR,Veghel,Veghel,Noord-Brabant,VBO,5.541277,51.591226
Past. Kampstraat,12,,,5465RR,Veghel,Veghel,Noord-Brabant,VBO,5.540859,51.591823
Past. Kampstraat,13,,,5465RR,Veghel,Veghel,Noord-Brabant,VBO,5.541334,51.591109
Past. Kampstraat,14,,,5465RR,Veghel,Veghel,Noord-Brabant,VBO,5.540902,51.591832
Past. Kampstraat,15,,,5465RR,Veghel,Veghel,Noord-Brabant,VBO,5.541363,51.591055
Past. Kampstraat,16,,,5465RR,Veghel,Veghel,Noord-Brabant,VBO,5.540989,51.591850
Past. Kampstraat,18,,,5465RR,Veghel,Veghel,Noord-Brabant,VBO,5.541032,51.591859
Past. Kampstraat,20,,,5465RR,Veghel,Veghel,Noord-Brabant,VBO,5.541336,51.591784
Past. Kampstraat,22,,,5465RR,Veghel,Veghel,Noord-Brabant,VBO,5.541351,51.591739
Past. Kampstraat,24,,,5465RR,Veghel,Veghel,Noord-Brabant,VBO,5.541408,51.591631
Past. Kampstraat,26,,,5465RR,Veghel,Veghel,Noord-Brabant,VBO,5.541437,51.591586
Past. Kampstraat,28,,,5465RR,Veghel,Veghel,Noord-Brabant,VBO,5.541564,51.591451
Past. Kampstraat,30,,,5465RR,Veghel,Veghel,Noord-Brabant,VBO,5.541609,51.591371
Past. Kampstraat,32,,,5465RR,Veghel,Veghel,Noord-Brabant,VBO,5.541636,51.591303
Meester van de Venstraat,1,,,5465RS,Veghel,Veghel,Noord-Brabant,VBO,5.541479,51.593353
Meester van de Venstraat,1,,,5465RS,Veghel,Veghel,Noord-Brabant,VBO,5.541516,51.593346
Meester van de Venstraat,3,,,5465RS,Veghel,Veghel,Noord-Brabant,VBO,5.541604,51.593364
Meester van de Venstraat,3,,,5465RS,Veghel,Veghel,Noord-Brabant,VBO,5.541712,51.593311
Meester van de Venstraat,4,,,5465RS,Veghel,Veghel,Noord-Brabant,VBO,5.541790,51.593644
Meester van de Venstraat,5,,,5465RS,Veghel,Veghel,Noord-Brabant,VBO,5.541704,51.593383
Meester van de Venstraat,5,,,5465RS,Veghel,Veghel,Noord-Brabant,VBO,5.541823,51.593350
Meester van de Venstraat,6,,,5465RS,Veghel,Veghel,Noord-Brabant,VBO,5.541935,51.593688
Meester van de Venstraat,7,,,5465RS,Veghel,Veghel,Noord-Brabant,VBO,5.541788,51.593400
Meester van de Venstraat,7,,,5465RS,Veghel,Veghel,Noord-Brabant,VBO,5.541682,51.593394
Meester van de Venstraat,8,,,5465RS,Veghel,Veghel,Noord-Brabant,VBO,5.542224,51.593787
Meester van de Venstraat,9,,,5465RS,Veghel,Veghel,Noord-Brabant,VBO,5.541735,51.593414
Meester van de Venstraat,9,,,5465RS,Veghel,Veghel,Noord-Brabant,VBO,5.541934,51.593460
Meester van de Venstraat,11,,,5465RS,Veghel,Veghel,Noord-Brabant,VBO,5.541697,51.593378
Meester van de Venstraat,11,,,5465RS,Veghel,Veghel,Noord-Brabant,VBO,5.542028,51.593478
Meester van de Venstraat,13,,,5465RS,Veghel,Veghel,Noord-Brabant,VBO,5.542128,51.593495
Meester van de Venstraat,13,,,5465RS,Veghel,Veghel,Noord-Brabant,VBO,5.541752,51.593396
Meester van de Venstraat,15,,,5465RS,Veghel,Veghel,Noord-Brabant,VBO,5.541943,51.593483
Meester van de Venstraat,15,,,5465RS,Veghel,Veghel,Noord-Brabant,VBO,5.542216,51.593511
Meester van de Venstraat,17,,,5465RS,Veghel,Veghel,Noord-Brabant,VBO,5.542169,51.593506
Meester van de Venstraat,17,,,5465RS,Veghel,Veghel,Noord-Brabant,VBO,5.541530,51.593318
Meester van de Venstraat,19,,,5465RS,Veghel,Veghel,Noord-Brabant,VBO,5.541616,51.593334
Meester van de Venstraat,19,,,5465RS,Veghel,Veghel,Noord-Brabant,VBO,5.542194,51.593517
Meester van de Venstraat,21,,,5465RS,Veghel,Veghel,Noord-Brabant,VBO,5.542236,51.593423
Meester van de Venstraat,21,,,5465RS,Veghel,Veghel,Noord-Brabant,VBO,5.541720,51.593351
Meester van de Venstraat,23,,,5465RS,Veghel,Veghel,Noord-Brabant,VBO,5.541804,51.593370
Meester van de Venstraat,23,,,5465RS,Veghel,Veghel,Noord-Brabant,VBO,5.542252,51.593404
Meester van de Venstraat,25,,,5465RS,Veghel,Veghel,Noord-Brabant,VBO,5.542260,51.593432
Meester van de Venstraat,25,,,5465RS,Veghel,Veghel,Noord-Brabant,VBO,5.541946,51.593435
Meester van de Venstraat,27,,,5465RS,Veghel,Veghel,Noord-Brabant,VBO,5.542042,51.593452
Meester van de Venstraat,27,,,5465RS,Veghel,Veghel,Noord-Brabant,VBO,5.542274,51.593413
Meester van de Venstraat,29,,,5465RS,Veghel,Veghel,Noord-Brabant,VBO,5.542139,51.593472
Meester van de Venstraat,31,,,5465RS,Veghel,Veghel,Noord-Brabant,VBO,5.542222,51.593487
Pater Vervoortstraat,2,,,5465RT,Veghel,Veghel,Noord-Brabant,VBO,5.541605,51.594273
Pater Vervoortstraat,3,,,5465RT,Veghel,Veghel,Noord-Brabant,VBO,5.542146,51.593920
Pater Vervoortstraat,4,,,5465RT,Veghel,Veghel,Noord-Brabant,VBO,5.541821,51.594228
Pater Vervoortstraat,6,,,5465RT,Veghel,Veghel,Noord-Brabant,VBO,5.541994,51.594192
Pater Vervoortstraat,8,,,5465RT,Veghel,Veghel,Noord-Brabant,VBO,5.542239,51.594146
Pater Vervoortstraat,10,,,5465RT,Veghel,Veghel,Noord-Brabant,VBO,5.542441,51.594110
Pater Vervoortstraat,12,,,5465RT,Veghel,Veghel,Noord-Brabant,VBO,5.542643,51.594083
Pater Vervoortstraat,18,,,5465RT,Veghel,Veghel,Noord-Brabant,VBO,5.543379,51.594019
Pater Vervoortstraat,22,,,5465RT,Veghel,Veghel,Noord-Brabant,VBO,5.543970,51.593919
Pater Vervoortstraat,24,,,5465RT,Veghel,Veghel,Noord-Brabant,VBO,5.544836,51.593828
Pater Vervoortstraat,26,,,5465RT,Veghel,Veghel,Noord-Brabant,VBO,5.545713,51.594020
Pater Vervoortstraat,29,,,5465RT,Veghel,Veghel,Noord-Brabant,VBO,5.544085,51.593580
Pater Vervoortstraat,35,,,5465RT,Veghel,Veghel,Noord-Brabant,VBO,5.544985,51.593655
Pater Vervoortstraat,37,,,5465RT,Veghel,Veghel,Noord-Brabant,VBO,5.545216,51.593699
Pater Vervoortstraat,39,,,5465RT,Veghel,Veghel,Noord-Brabant,VBO,5.545606,51.593701
Pater Vervoortstraat,41,,,5465RT,Veghel,Veghel,Noord-Brabant,VBO,5.545882,51.593666
Pater Vervoortstraat,43,,,5465RT,Veghel,Veghel,Noord-Brabant,VBO,5.546145,51.593652
Pater Vervoortstraat,45,,,5465RT,Veghel,Veghel,Noord-Brabant,VBO,5.546734,51.593552
Pater Vervoortstraat,47,,,5465RT,Veghel,Veghel,Noord-Brabant,VBO,5.546797,51.593547
Leinserondweg,5,,,5465RV,Veghel,Veghel,Noord-Brabant,VBO,5.547240,51.592297
Leinserondweg,6,,,5465RV,Veghel,Veghel,Noord-Brabant,VBO,5.547904,51.592314
Leinserondweg,7,,,5465RV,Veghel,Veghel,Noord-Brabant,VBO,5.547371,51.593371
Leinserondweg,8,,,5465RV,Veghel,Veghel,Noord-Brabant,VBO,5.547811,51.594561
Leinserondweg,9,,,5465RV,Veghel,Veghel,Noord-Brabant,VBO,5.547971,51.594750
Leinserondweg,10,,,5465RV,Veghel,Veghel,Noord-Brabant,VBO,5.547801,51.595703
Leinserondweg,11,,,5465RV,Veghel,Veghel,Noord-Brabant,VBO,5.549879,51.595781
Leinserondweg,12,,,5465RV,Veghel,Veghel,Noord-Brabant,VBO,5.550745,51.595600
Leinserondweg,13,,,5465RV,Veghel,Veghel,Noord-Brabant,VBO,5.549516,51.595062
Leinserondweg,14,,,5465RV,Veghel,Veghel,Noord-Brabant,VBO,5.550397,51.595322
Leinserondweg,16,,,5465RV,Veghel,Veghel,Noord-Brabant,VBO,5.551981,51.594385
Leinserondweg,17,,,5465RV,Veghel,Veghel,Noord-Brabant,VBO,5.553051,51.594716
Leinserondweg,18,A,,5465RV,Veghel,Veghel,Noord-Brabant,VBO,5.553333,51.592999
Leinserondweg,18,,,5465RV,Veghel,Veghel,Noord-Brabant,VBO,5.553998,51.593366
Leinserondweg,19,,,5465RV,Veghel,Veghel,Noord-Brabant,VBO,5.553014,51.592693
Leinserondweg,20,,,5465RV,Veghel,Veghel,Noord-Brabant,VBO,5.554052,51.592431
Leinserondweg,21,A,,5465RV,Veghel,Veghel,Noord-Brabant,VBO,5.550880,51.591437
Leinserondweg,21,,,5465RV,Veghel,Veghel,Noord-Brabant,VBO,5.551398,51.591566
Leinserondweg,23,,,5465RV,Veghel,Veghel,Noord-Brabant,VBO,5.554785,51.591612
Leinserondweg,24,A,,5465RV,Veghel,Veghel,Noord-Brabant,VBO,5.553499,51.590985
Leinserondweg,24,,,5465RV,Veghel,Veghel,Noord-Brabant,VBO,5.553470,51.591120
Leinserondweg,26,,,5465RV,Veghel,Veghel,Noord-Brabant,VBO,5.554303,51.589842
Leinserondweg,30,,,5465RV,Veghel,Veghel,Noord-Brabant,VBO,5.554743,51.587918
Leinserondweg,36,,,5465RV,Veghel,Veghel,Noord-Brabant,VBO,5.555267,51.585346
Hoolstraat,1,A,,5465RW,Veghel,Veghel,Noord-Brabant,VBO,5.548302,51.586345
Hoolstraat,1,,,5465RW,Veghel,Veghel,Noord-Brabant,VBO,5.550466,51.586505
Hoolstraat,2,,,5465RW,Veghel,Veghel,Noord-Brabant,VBO,5.549776,51.587062
Hoolstraat,3,,,5465RW,Veghel,Veghel,Noord-Brabant,VBO,5.551478,51.586781
Hoolstraat,4,A,,5465RW,Veghel,Veghel,Noord-Brabant,VBO,5.552477,51.587885
Hoolstraat,4,,,5465RW,Veghel,Veghel,Noord-Brabant,VBO,5.552965,51.587219
Hoolstraat,5,,,5465RW,Veghel,Veghel,Noord-Brabant,VBO,5.554842,51.587567
Hoolstraat,6,,,5465RW,Veghel,Veghel,Noord-Brabant,VBO,5.555836,51.587089
Hoolstraat,7,,,5465RW,Veghel,Veghel,Noord-Brabant,VBO,5.555966,51.587071
Boskamp,1,,,5465RX,Veghel,Veghel,Noord-Brabant,VBO,5.538613,51.593054
Boskamp,2,,,5465RX,Veghel,Veghel,Noord-Brabant,VBO,5.538959,51.592856
Boskamp,3,,,5465RX,Veghel,Veghel,Noord-Brabant,VBO,5.538641,51.592830
Boskamp,4,,,5465RX,Veghel,Veghel,Noord-Brabant,VBO,5.538973,51.592793
Boskamp,5,,,5465RX,Veghel,Veghel,Noord-Brabant,VBO,5.538698,51.592641
Boskamp,6,,,5465RX,Veghel,Veghel,Noord-Brabant,VBO,5.538987,51.592676
Boskamp,7,,,5465RX,Veghel,Veghel,Noord-Brabant,VBO,5.538727,51.592497
Boskamp,8,,,5465RX,Veghel,Veghel,Noord-Brabant,VBO,5.539001,51.592605
Boskamp,10,,,5465RX,Veghel,Veghel,Noord-Brabant,VBO,5.539073,51.592461
Boskamp,12,A,,5465RX,Veghel,Veghel,Noord-Brabant,VBO,5.539056,51.592307
Boskamp,12,,,5465RX,Veghel,Veghel,Noord-Brabant,VBO,5.539145,51.592353
Boskamp,14,,,5465RX,Veghel,Veghel,Noord-Brabant,VBO,5.538885,51.592335
Boskamp,16,,,5465RX,Veghel,Veghel,Noord-Brabant,VBO,5.538669,51.592317
Boskamp,18,,,5465RX,Veghel,Veghel,Noord-Brabant,VBO,5.538567,51.592308
Boskamp,20,,,5465RX,Veghel,Veghel,Noord-Brabant,VBO,5.538365,51.592291
Ceciliastraat,1,,,5465RZ,Veghel,Veghel,Noord-Brabant,VBO,5.543875,51.591528
Ceciliastraat,4,,,5465RZ,Veghel,Veghel,Noord-Brabant,VBO,5.543761,51.591933
Ceciliastraat,6,,,5465RZ,Veghel,Veghel,Noord-Brabant,VBO,5.543733,51.591960
Ceciliastraat,8,,,5465RZ,Veghel,Veghel,Noord-Brabant,VBO,5.543675,51.592095
Ceciliastraat,9,A,,5465RZ,Veghel,Veghel,Noord-Brabant,VBO,5.543307,51.592093
Ceciliastraat,9,B,,5465RZ,Veghel,Veghel,Noord-Brabant,VBO,5.543265,51.592147
Ceciliastraat,9,,,5465RZ,Veghel,Veghel,Noord-Brabant,VBO,5.543345,51.592036
Ceciliastraat,10,,,5465RZ,Veghel,Veghel,Noord-Brabant,VBO,5.543589,51.592221
Ceciliastraat,11,,,5465RZ,Veghel,Veghel,Noord-Brabant,VBO,5.543344,51.592365
Ceciliastraat,12,,,5465RZ,Veghel,Veghel,Noord-Brabant,VBO,5.543979,51.592328
Ceciliastraat,13,,,5465RZ,Veghel,Veghel,Noord-Brabant,VBO,5.543526,51.592410
Ceciliastraat,14,,,5465RZ,Veghel,Veghel,Noord-Brabant,VBO,5.544558,51.592822
Ceciliastraat,15,,,5465RZ,Veghel,Veghel,Noord-Brabant,VBO,5.543626,51.592436
Ceciliastraat,16,,,5465RZ,Veghel,Veghel,Noord-Brabant,VBO,5.544587,51.592876
Ceciliastraat,18,,,5465RZ,Veghel,Veghel,Noord-Brabant,VBO,5.544602,51.592993
Ceciliastraat,20,,,5465RZ,Veghel,Veghel,Noord-Brabant,VBO,5.544614,51.593034
Ceciliastraat,22,,,5465RZ,Veghel,Veghel,Noord-Brabant,VBO,5.544627,51.593151
Ceciliastraat,23,,,5465RZ,Veghel,Veghel,Noord-Brabant,VBO,5.544190,51.592647
Ceciliastraat,24,,,5465RZ,Veghel,Veghel,Noord-Brabant,VBO,5.544643,51.593238
Ceciliastraat,25,,,5465RZ,Veghel,Veghel,Noord-Brabant,VBO,5.544243,51.592780
Ceciliastraat,26,,,5465RZ,Veghel,Veghel,Noord-Brabant,VBO,5.544661,51.593326
Ceciliastraat,27,,,5465RZ,Veghel,Veghel,Noord-Brabant,VBO,5.544290,51.592906
Ceciliastraat,28,,,5465RZ,Veghel,Veghel,Noord-Brabant,VBO,5.544684,51.593415
Ceciliastraat,29,,,5465RZ,Veghel,Veghel,Noord-Brabant,VBO,5.544323,51.593039
Ceciliastraat,31,,,5465RZ,Veghel,Veghel,Noord-Brabant,VBO,5.544347,51.593163
Pastoor van de Bultstraat,1,,,5465SB,Veghel,Veghel,Noord-Brabant,VBO,5.544614,51.592238
Pastoor van de Bultstraat,2,,,5465SB,Veghel,Veghel,Noord-Brabant,VBO,5.544196,51.592328
Pastoor van de Bultstraat,3,,,5465SB,Veghel,Veghel,Noord-Brabant,VBO,5.544686,51.592121
Pastoor van de Bultstraat,4,,,5465SB,Veghel,Veghel,Noord-Brabant,VBO,5.544339,51.592139
Pastoor van de Bultstraat,5,,,5465SB,Veghel,Veghel,Noord-Brabant,VBO,5.544729,51.592058
Pastoor van de Bultstraat,6,,,5465SB,Veghel,Veghel,Noord-Brabant,VBO,5.544397,51.592067
Pastoor van de Bultstraat,7,,,5465SB,Veghel,Veghel,Noord-Brabant,VBO,5.544829,51.591941
Pater Thijssenstraat,1,,,5465SC,Veghel,Veghel,Noord-Brabant,VBO,5.542978,51.591149
Pater Thijssenstraat,7,,,5465SC,Veghel,Veghel,Noord-Brabant,VBO,5.543328,51.591215
Pater Thijssenstraat,11,,,5465SC,Veghel,Veghel,Noord-Brabant,VBO,5.543977,51.591726
Pater Thijssenstraat,13,,,5465SC,Veghel,Veghel,Noord-Brabant,VBO,5.544136,51.591753
Pater Thijssenstraat,15,,,5465SC,Veghel,Veghel,Noord-Brabant,VBO,5.544309,51.591807
Pater Thijssenstraat,17,,,5465SC,Veghel,Veghel,Noord-Brabant,VBO,5.544511,51.591851
Pater Thijssenstraat,19,,,5465SC,Veghel,Veghel,Noord-Brabant,VBO,5.545190,51.592075
Pater Thijssenstraat,23,,,5465SC,Veghel,Veghel,Noord-Brabant,VBO,5.545378,51.592066
Pater Thijssenstraat,25,,,5465SC,Veghel,Veghel,Noord-Brabant,VBO,5.545465,51.592066
Pater Thijssenstraat,27,,,5465SC,Veghel,Veghel,Noord-Brabant,VBO,5.545566,51.592066
Pater Thijssenstraat,29,,,5465SC,Veghel,Veghel,Noord-Brabant,VBO,5.545638,51.592056
Pater Thijssenstraat,31,,,5465SC,Veghel,Veghel,Noord-Brabant,VBO,5.545739,51.592245
Pater Thijssenstraat,33,,,5465SC,Veghel,Veghel,Noord-Brabant,VBO,5.545769,51.592371
Pater Thijssenstraat,35,,,5465SC,Veghel,Veghel,Noord-Brabant,VBO,5.545812,51.592497
Pater Thijssenstraat,37,,,5465SC,Veghel,Veghel,Noord-Brabant,VBO,5.545899,51.592613
Pater Thijssenstraat,39,,,5465SC,Veghel,Veghel,Noord-Brabant,VBO,5.546033,51.592739
Pater Thijssenstraat,41,,,5465SC,Veghel,Veghel,Noord-Brabant,VBO,5.546006,51.592896
Pater Thijssenstraat,43,,,5465SC,Veghel,Veghel,Noord-Brabant,VBO,5.546016,51.593038
Pater Thijssenstraat,45,,,5465SC,Veghel,Veghel,Noord-Brabant,VBO,5.546037,51.593148
Pater Thijssenstraat,47,,,5465SC,Veghel,Veghel,Noord-Brabant,VBO,5.546060,51.593239
Pater Thijssenstraat,49,,,5465SC,Veghel,Veghel,Noord-Brabant,VBO,5.546081,51.593331
Pater Thijssenstraat,51,,,5465SC,Veghel,Veghel,Noord-Brabant,VBO,5.546094,51.593416
Pater de Koningstraat,1,,,5465SE,Veghel,Veghel,Noord-Brabant,VBO,5.545063,51.592722
Pater de Koningstraat,2,,,5465SE,Veghel,Veghel,Noord-Brabant,VBO,5.544615,51.592507
Pater de Koningstraat,3,,,5465SE,Veghel,Veghel,Noord-Brabant,VBO,5.545150,51.592875
Pater de Koningstraat,4,,,5465SE,Veghel,Veghel,Noord-Brabant,VBO,5.544802,51.592489
Pater de Koningstraat,5,,,5465SE,Veghel,Veghel,Noord-Brabant,VBO,5.545156,51.593024
Pater de Koningstraat,6,,,5465SE,Veghel,Veghel,Noord-Brabant,VBO,5.545019,51.592498
Pater de Koningstraat,8,,,5465SE,Veghel,Veghel,Noord-Brabant,VBO,5.545221,51.592551
Pater de Koningstraat,9,,,5465SE,Veghel,Veghel,Noord-Brabant,VBO,5.545187,51.593223
Pater de Koningstraat,10,,,5465SE,Veghel,Veghel,Noord-Brabant,VBO,5.545366,51.592659
Pater de Koningstraat,11,,,5465SE,Veghel,Veghel,Noord-Brabant,VBO,5.545196,51.593282
Pater de Koningstraat,12,,,5465SE,Veghel,Veghel,Noord-Brabant,VBO,5.545438,51.592803
Pater de Koningstraat,13,,,5465SE,Veghel,Veghel,Noord-Brabant,VBO,5.545204,51.593341
Pater de Koningstraat,14,,,5465SE,Veghel,Veghel,Noord-Brabant,VBO,5.545456,51.592912
Pater de Koningstraat,15,,,5465SE,Veghel,Veghel,Noord-Brabant,VBO,5.545208,51.593404
Pater de Koningstraat,16,,,5465SE,Veghel,Veghel,Noord-Brabant,VBO,5.545456,51.593053
Pater de Koningstraat,17,,,5465SE,Veghel,Veghel,Noord-Brabant,VBO,5.545221,51.593460
Pater de Koningstraat,18,,,5465SE,Veghel,Veghel,Noord-Brabant,VBO,5.545477,51.593169
Pater de Koningstraat,20,,,5465SE,Veghel,Veghel,Noord-Brabant,VBO,5.545482,51.593264
Pater de Koningstraat,22,,,5465SE,Veghel,Veghel,Noord-Brabant,VBO,5.545508,51.593376
Pater de Koningstraat,24,,,5465SE,Veghel,Veghel,Noord-Brabant,VBO,5.545516,51.593455
Pater Thijssenstraat,12,,,5465SG,Veghel,Veghel,Noord-Brabant,VBO,5.544308,51.591546
Pater Thijssenstraat,14,,,5465SG,Veghel,Veghel,Noord-Brabant,VBO,5.544453,51.591645
Pater Thijssenstraat,16,,,5465SG,Veghel,Veghel,Noord-Brabant,VBO,5.544670,51.591689
Pater Thijssenstraat,18,,,5465SG,Veghel,Veghel,Noord-Brabant,VBO,5.544713,51.591698
Pater Thijssenstraat,20,,,5465SG,Veghel,Veghel,Noord-Brabant,VBO,5.544944,51.591761
Pater Thijssenstraat,22,,,5465SG,Veghel,Veghel,Noord-Brabant,VBO,5.544987,51.591770
Pater Thijssenstraat,24,,,5465SG,Veghel,Veghel,Noord-Brabant,VBO,5.545190,51.591823
Pater Thijssenstraat,26,,,5465SG,Veghel,Veghel,Noord-Brabant,VBO,5.545421,51.591850
Pater Thijssenstraat,28,,,5465SG,Veghel,Veghel,Noord-Brabant,VBO,5.545666,51.591859
Pater Thijssenstraat,30,,,5465SG,Veghel,Veghel,Noord-Brabant,VBO,5.546042,51.592119
Pater Thijssenstraat,32,,,5465SG,Veghel,Veghel,Noord-Brabant,VBO,5.546100,51.592290
Pater Thijssenstraat,34,,,5465SG,Veghel,Veghel,Noord-Brabant,VBO,5.546217,51.592496
Pater Thijssenstraat,36,,,5465SG,Veghel,Veghel,Noord-Brabant,VBO,5.546434,51.592658
Pater Thijssenstraat,50,,,5465SG,Veghel,Veghel,Noord-Brabant,VBO,5.546572,51.592970
Pater Thijssenstraat,52,,,5465SG,Veghel,Veghel,Noord-Brabant,VBO,5.546493,51.592979
Pater Thijssenstraat,54,,,5465SG,Veghel,Veghel,Noord-Brabant,VBO,5.546408,51.592984
Pater Thijssenstraat,56,,,5465SG,Veghel,Veghel,Noord-Brabant,VBO,5.546324,51.592990
Edith Stein plein,4,,,5465SH,Veghel,Veghel,Noord-Brabant,VBO,5.542757,51.591981
Edith Stein plein,6,,,5465SH,Veghel,Veghel,Noord-Brabant,VBO,5.542842,51.592004
Edith Stein plein,8,,,5465SH,Veghel,Veghel,Noord-Brabant,VBO,5.542937,51.592025
Edith Stein plein,11,,,5465SH,Veghel,Veghel,Noord-Brabant,VBO,5.542851,51.592207
Edith Stein plein,13,,,5465SH,Veghel,Veghel,Noord-Brabant,VBO,5.542937,51.592233
Edith Stein plein,15,,,5465SH,Veghel,Veghel,Noord-Brabant,VBO,5.543028,51.592257
Edith Stein plein,17,,,5465SH,Veghel,Veghel,Noord-Brabant,VBO,5.543118,51.592280
Edith Stein plein,19,,,5465SH,Veghel,Veghel,Noord-Brabant,VBO,5.542704,51.592462
Doornhoek,3700,,,5465TA,Veghel,Veghel,Noord-Brabant,VBO,5.527959,51.604371
Doornhoek,3715,,,5465TA,Veghel,Veghel,Noord-Brabant,VBO,5.529485,51.604187
Doornhoek,3720,,,5465TA,Veghel,Veghel,Noord-Brabant,VBO,5.529865,51.605320
Doornhoek,3724,,,5465TA,Veghel,Veghel,Noord-Brabant,VBO,5.530203,51.605608
Doornhoek,3725,,,5465TA,Veghel,Veghel,Noord-Brabant,VBO,5.530666,51.604692
Doornhoek,3736,,,5465TA,Veghel,Veghel,Noord-Brabant,VBO,5.531738,51.606396
Doornhoek,3738,,,5465TA,Veghel,Veghel,Noord-Brabant,VBO,5.531996,51.607061
Doornhoek,3740,,,5465TA,Veghel,Veghel,Noord-Brabant,VBO,5.532245,51.606886
Doornhoek,3742,,,5465TA,Veghel,Veghel,Noord-Brabant,VBO,5.532814,51.606859
Doornhoek,3745,B,,5465TA,Veghel,Veghel,Noord-Brabant,VBO,5.532533,51.606145
Doornhoek,3745,,,5465TA,Veghel,Veghel,Noord-Brabant,VBO,5.532714,51.606275
Doornhoek,3746,,,5465TA,Veghel,Veghel,Noord-Brabant,VBO,5.533438,51.606446
Doornhoek,3748,,,5465TA,Veghel,Veghel,Noord-Brabant,VBO,5.533904,51.606122
Doornhoek,3749,,,5465TA,Veghel,Veghel,Noord-Brabant,VBO,5.532369,51.606030
Doornhoek,3750,,,5465TA,Veghel,Veghel,Noord-Brabant,VBO,5.534274,51.605889
Doornhoek,3752,,,5465TA,Veghel,Veghel,Noord-Brabant,VBO,5.534339,51.605854
Doornhoek,3755,,,5465TA,Veghel,Veghel,Noord-Brabant,VBO,5.534042,51.605601
Doornhoek,3756,,,5465TA,Veghel,Veghel,Noord-Brabant,VBO,5.534663,51.605749
Doornhoek,3760,,,5465TA,Veghel,Veghel,Noord-Brabant,VBO,5.535256,51.605409
Doornhoek,3765,,,5465TA,Veghel,Veghel,Noord-Brabant,VBO,5.534824,51.605143
Doornhoek,3766,,,5465TA,Veghel,Veghel,Noord-Brabant,VBO,5.535675,51.605223
Doornhoek,3770,,,5465TA,Veghel,Veghel,Noord-Brabant,VBO,5.536128,51.604982
Doornhoek,3775,,,5465TA,Veghel,Veghel,Noord-Brabant,VBO,5.535884,51.604524
Doornhoek,3776,,,5465TA,Veghel,Veghel,Noord-Brabant,VBO,5.536551,51.604659
Doornhoek,3780,,,5465TA,Veghel,Veghel,Noord-Brabant,VBO,5.537028,51.604510
Doornhoek,3785,,,5465TA,Veghel,Veghel,Noord-Brabant,VBO,5.536221,51.604191
Doornhoek,3840,,,5465TB,Veghel,Veghel,Noord-Brabant,VBO,5.532711,51.604573
Doornhoek,3842,,,5465TB,Veghel,Veghel,Noord-Brabant,VBO,5.533244,51.604277
Doornhoek,3850,,,5465TB,Veghel,Veghel,Noord-Brabant,VBO,5.533783,51.604014
Doornhoek,3860,,,5465TB,Veghel,Veghel,Noord-Brabant,VBO,5.534842,51.603422
Doornhoek,3865,,,5465TB,Veghel,Veghel,Noord-Brabant,VBO,5.533899,51.602590
Doornhoek,3870,,,5465TB,Veghel,Veghel,Noord-Brabant,VBO,5.535694,51.602961
Doornhoek,3905,,,5465TC,Veghel,Veghel,Noord-Brabant,VBO,5.526345,51.604031
Doornhoek,3910,,,5465TC,Veghel,Veghel,Noord-Brabant,VBO,5.527318,51.603500
Doornhoek,3915,,,5465TC,Veghel,Veghel,Noord-Brabant,VBO,5.526651,51.603193
Doornhoek,3930,,,5465TC,Veghel,Veghel,Noord-Brabant,VBO,5.528451,51.603436
Doornhoek,3945,,,5465TC,Veghel,Veghel,Noord-Brabant,VBO,5.525637,51.602403
Doornhoek,3950,,,5465TC,Veghel,Veghel,Noord-Brabant,VBO,5.527365,51.602665
Doornhoek,3960,,,5465TC,Veghel,Veghel,Noord-Brabant,VBO,5.526957,51.602393
Doornhoek,4005,,,5465TD,Veghel,Veghel,Noord-Brabant,VBO,5.524389,51.601554
Doornhoek,4025,,,5465TD,Veghel,Veghel,Noord-Brabant,VBO,5.523153,51.601075
Doornhoek,4040,,,5465TD,Veghel,Veghel,Noord-Brabant,VBO,5.525374,51.600702
Doornhoek,4041,,,5465TD,Veghel,Veghel,Noord-Brabant,VBO,5.521886,51.600299
Doornhoek,4045,A,,5465TD,Veghel,Veghel,Noord-Brabant,VBO,5.521331,51.599348
Doornhoek,4045,,,5465TD,Veghel,Veghel,Noord-Brabant,VBO,5.520651,51.598963
Doornhoek,4050,,,5465TD,Veghel,Veghel,Noord-Brabant,VBO,5.523841,51.599544
Doornhoek,4200,,,5465TE,Veghel,Veghel,Noord-Brabant,VBO,5.527943,51.600709
Doornhoek,4205,,,5465TG,Veghel,Veghel,Noord-Brabant,VBO,5.528266,51.597172
