openbareruimtenaam,huisnummer,huisletter,huisnummertoevoeging,postcode,woonplaatsnaam,gemeentenaam,provincienaam,typeadresseerbaarobject,longitude,latitude
Grootakker,1,,,5512AA,Vessem,Eersel,Noord-Brabant,VBO,5.290138,51.407783
Katerstraat,1,,,5512AB,Vessem,Eersel,Noord-Brabant,VBO,5.290717,51.415596
Katerstraat,2,A,,5512AB,Vessem,Eersel,Noord-Brabant,VBO,5.293998,51.417262
Katerstraat,2,,,5512AB,Vessem,Eersel,Noord-Brabant,VBO,5.293577,51.417113
Katerstraat,4,,,5512AB,Vessem,Eersel,Noord-Brabant,VBO,5.292988,51.416955
Katerstraat,6,,,5512AB,Vessem,Eersel,Noord-Brabant,VBO,5.292278,51.417124
Katerstraat,8,,,5512AB,Vessem,Eersel,Noord-Brabant,VBO,5.292030,51.416933
Den Hofpad,1,k,5001,5512AC,Vessem,Eersel,Noord-Brabant,VBO,5.292990,51.418073
Den Hofpad,1,k,5002,5512AC,Vessem,Eersel,Noord-Brabant,VBO,5.292917,51.418121
Den Hofpad,1,k,5003,5512AC,Vessem,Eersel,Noord-Brabant,VBO,5.293046,51.418179
Den Hofpad,1,k,5004,5512AC,Vessem,Eersel,Noord-Brabant,VBO,5.293116,51.418125
Den Hofpad,1,k,5005,5512AC,Vessem,Eersel,Noord-Brabant,VBO,5.293264,51.418003
Den Hofpad,1,k,5006,5512AC,Vessem,Eersel,Noord-Brabant,VBO,5.293327,51.417952
Den Hofpad,1,k,5007,5512AC,Vessem,Eersel,Noord-Brabant,VBO,5.293387,51.417896
Den Hofpad,1,k,5008,5512AC,Vessem,Eersel,Noord-Brabant,VBO,5.293442,51.417850
Den Hofpad,1,k,5009,5512AC,Vessem,Eersel,Noord-Brabant,VBO,5.293320,51.417790
Den Hofpad,1,k,5010,5512AC,Vessem,Eersel,Noord-Brabant,VBO,5.293274,51.417844
Den Hofpad,1,k,5011,5512AC,Vessem,Eersel,Noord-Brabant,VBO,5.293210,51.417892
Den Hofpad,1,k,5012,5512AC,Vessem,Eersel,Noord-Brabant,VBO,5.293145,51.417946
Den Hofpad,1,k,5101,5512AC,Vessem,Eersel,Noord-Brabant,VBO,5.293027,51.418097
Den Hofpad,1,k,5102,5512AC,Vessem,Eersel,Noord-Brabant,VBO,5.292945,51.418152
Den Hofpad,1,k,5103,5512AC,Vessem,Eersel,Noord-Brabant,VBO,5.293015,51.418148
Den Hofpad,1,k,5104,5512AC,Vessem,Eersel,Noord-Brabant,VBO,5.293096,51.418094
Den Hofpad,1,k,5105,5512AC,Vessem,Eersel,Noord-Brabant,VBO,5.293183,51.418064
Den Hofpad,1,k,5106,5512AC,Vessem,Eersel,Noord-Brabant,VBO,5.293233,51.417964
Den Hofpad,1,k,5107,5512AC,Vessem,Eersel,Noord-Brabant,VBO,5.293308,51.417914
Den Hofpad,1,k,5108,5512AC,Vessem,Eersel,Noord-Brabant,VBO,5.293370,51.417863
Den Hofpad,1,k,5109,5512AC,Vessem,Eersel,Noord-Brabant,VBO,5.293435,51.417812
Den Hofpad,1,k,5110,5512AC,Vessem,Eersel,Noord-Brabant,VBO,5.293341,51.417823
Den Hofpad,1,k,5111,5512AC,Vessem,Eersel,Noord-Brabant,VBO,5.293289,51.417878
Den Hofpad,1,k,5112,5512AC,Vessem,Eersel,Noord-Brabant,VBO,5.293219,51.417928
Den Hofpad,1,k,5113,5512AC,Vessem,Eersel,Noord-Brabant,VBO,5.293169,51.417980
Den Hofpad,1,k,5114,5512AC,Vessem,Eersel,Noord-Brabant,VBO,5.293068,51.418008
Den Hofpad,1,,,5512AC,Vessem,Eersel,Noord-Brabant,VBO,5.292904,51.417960
Den Hofpad,2,,,5512AC,Vessem,Eersel,Noord-Brabant,VBO,5.292639,51.417887
Den Hofpad,3,,,5512AC,Vessem,Eersel,Noord-Brabant,VBO,5.292586,51.417859
Den Hofpad,4,,,5512AC,Vessem,Eersel,Noord-Brabant,VBO,5.292695,51.417770
Den Hofpad,5,,,5512AC,Vessem,Eersel,Noord-Brabant,VBO,5.292798,51.417644
Den Hofpad,6,,,5512AC,Vessem,Eersel,Noord-Brabant,VBO,5.292835,51.417541
Den Hofpad,7,,,5512AC,Vessem,Eersel,Noord-Brabant,VBO,5.292801,51.417437
Den Hofpad,8,,,5512AC,Vessem,Eersel,Noord-Brabant,VBO,5.292891,51.417449
Den Hofpad,9,,,5512AC,Vessem,Eersel,Noord-Brabant,VBO,5.292901,51.417550
Den Hofpad,10,,,5512AC,Vessem,Eersel,Noord-Brabant,VBO,5.292861,51.417661
Den Hofpad,11,,,5512AC,Vessem,Eersel,Noord-Brabant,VBO,5.292741,51.417804
Den Hofpad,12,,,5512AC,Vessem,Eersel,Noord-Brabant,VBO,5.293234,51.417523
Den Hofpad,13,,,5512AC,Vessem,Eersel,Noord-Brabant,VBO,5.293341,51.417574
Den Hofpad,14,,,5512AC,Vessem,Eersel,Noord-Brabant,VBO,5.293474,51.417638
Den Hofpad,15,,,5512AC,Vessem,Eersel,Noord-Brabant,VBO,5.293615,51.417706
Den Hofpad,16,,,5512AC,Vessem,Eersel,Noord-Brabant,VBO,5.293193,51.417553
Den Hofpad,17,,,5512AC,Vessem,Eersel,Noord-Brabant,VBO,5.293300,51.417605
Den Hofpad,18,,,5512AC,Vessem,Eersel,Noord-Brabant,VBO,5.293380,51.417644
Den Hofpad,19,,,5512AC,Vessem,Eersel,Noord-Brabant,VBO,5.293473,51.417689
Den Hofpad,20,,,5512AC,Vessem,Eersel,Noord-Brabant,VBO,5.293572,51.417737
Den Hofpad,21,,,5512AC,Vessem,Eersel,Noord-Brabant,VBO,5.293522,51.417713
Kerkberg,2,a,,5512AD,Vessem,Eersel,Noord-Brabant,VBO,5.286107,51.416214
Kerkberg,2,,,5512AD,Vessem,Eersel,Noord-Brabant,VBO,5.285915,51.416382
Kerkberg,3,,,5512AD,Vessem,Eersel,Noord-Brabant,VBO,5.286799,51.415971
Kerkberg,4,,,5512AD,Vessem,Eersel,Noord-Brabant,VBO,5.286198,51.416026
Kerkberg,6,,,5512AD,Vessem,Eersel,Noord-Brabant,VBO,5.286372,51.415716
Kerkberg,8,,,5512AD,Vessem,Eersel,Noord-Brabant,VBO,5.286642,51.415631
Kerkberg,10,,,5512AD,Vessem,Eersel,Noord-Brabant,VBO,5.287376,51.415200
Leeuwerik,1,,,5512AE,Vessem,Eersel,Noord-Brabant,VBO,5.287746,51.418321
Leeuwerik,2,,,5512AE,Vessem,Eersel,Noord-Brabant,VBO,5.287409,51.418355
Leeuwerik,3,,,5512AE,Vessem,Eersel,Noord-Brabant,VBO,5.287714,51.418161
Leeuwerik,4,,,5512AE,Vessem,Eersel,Noord-Brabant,VBO,5.287410,51.418251
Leeuwerik,5,,,5512AE,Vessem,Eersel,Noord-Brabant,VBO,5.287801,51.418016
Leeuwerik,6,,,5512AE,Vessem,Eersel,Noord-Brabant,VBO,5.287421,51.418115
Leeuwerik,7,,,5512AE,Vessem,Eersel,Noord-Brabant,VBO,5.287889,51.417858
Leeuwerik,8,,,5512AE,Vessem,Eersel,Noord-Brabant,VBO,5.287499,51.417980
Leeuwerik,9,,,5512AE,Vessem,Eersel,Noord-Brabant,VBO,5.287968,51.417740
Leeuwerik,10,,,5512AE,Vessem,Eersel,Noord-Brabant,VBO,5.287577,51.417860
Leeuwerik,12,,,5512AE,Vessem,Eersel,Noord-Brabant,VBO,5.287660,51.417728
Leeuwerik,14,a,,5512AE,Vessem,Eersel,Noord-Brabant,VBO,5.287724,51.417596
Leeuwerik,14,,,5512AE,Vessem,Eersel,Noord-Brabant,VBO,5.287746,51.417529
Leeuwerik,16,,,5512AE,Vessem,Eersel,Noord-Brabant,VBO,5.288075,51.417472
Leeuwerik,18,,,5512AE,Vessem,Eersel,Noord-Brabant,VBO,5.288258,51.417418
Merel,6,,,5512AH,Vessem,Eersel,Noord-Brabant,VBO,5.288599,51.416183
Merel,8,,,5512AH,Vessem,Eersel,Noord-Brabant,VBO,5.289140,51.416256
Servatiusstraat,2,,,5512AJ,Vessem,Eersel,Noord-Brabant,VBO,5.288861,51.418830
Servatiusstraat,4,a,,5512AJ,Vessem,Eersel,Noord-Brabant,VBO,5.288234,51.418362
Servatiusstraat,4,,,5512AJ,Vessem,Eersel,Noord-Brabant,VBO,5.288674,51.418203
Servatiusstraat,6,A,,5512AJ,Vessem,Eersel,Noord-Brabant,VBO,5.289154,51.417471
Servatiusstraat,6,B,,5512AJ,Vessem,Eersel,Noord-Brabant,VBO,5.289002,51.417430
Servatiusstraat,6,,,5512AJ,Vessem,Eersel,Noord-Brabant,VBO,5.289065,51.417721
Servatiusstraat,8,,,5512AJ,Vessem,Eersel,Noord-Brabant,VBO,5.289675,51.417304
Servatiusstraat,9,,,5512AJ,Vessem,Eersel,Noord-Brabant,VBO,5.289455,51.418060
Servatiusstraat,10,,,5512AJ,Vessem,Eersel,Noord-Brabant,VBO,5.289808,51.416474
Servatiusstraat,11,,,5512AJ,Vessem,Eersel,Noord-Brabant,VBO,5.289586,51.417792
Servatiusstraat,12,,,5512AJ,Vessem,Eersel,Noord-Brabant,VBO,5.289519,51.416105
Servatiusstraat,13,,,5512AJ,Vessem,Eersel,Noord-Brabant,VBO,5.290783,51.417035
Servatiusstraat,14,,,5512AJ,Vessem,Eersel,Noord-Brabant,VBO,5.290089,51.416045
Servatiusstraat,15,,,5512AJ,Vessem,Eersel,Noord-Brabant,VBO,5.291375,51.417031
Servatiusstraat,16,,,5512AJ,Vessem,Eersel,Noord-Brabant,VBO,5.290583,51.416399
Servatiusstraat,17,,,5512AJ,Vessem,Eersel,Noord-Brabant,VBO,5.292113,51.416582
Groenewoud,1,A,,5512AK,Vessem,Eersel,Noord-Brabant,VBO,5.290832,51.417713
Groenewoud,1,B,,5512AK,Vessem,Eersel,Noord-Brabant,VBO,5.290915,51.417732
Groenewoud,1,C,,5512AK,Vessem,Eersel,Noord-Brabant,VBO,5.291000,51.417741
Groenewoud,1,D,,5512AK,Vessem,Eersel,Noord-Brabant,VBO,5.291665,51.417873
Groenewoud,1,,,5512AK,Vessem,Eersel,Noord-Brabant,VBO,5.290756,51.417706
Groenewoud,3,,,5512AK,Vessem,Eersel,Noord-Brabant,VBO,5.291760,51.417900
Groenewoud,5,,,5512AK,Vessem,Eersel,Noord-Brabant,VBO,5.291932,51.417952
Groenewoud,7,,,5512AK,Vessem,Eersel,Noord-Brabant,VBO,5.292038,51.417983
Groenewoud,9,,,5512AK,Vessem,Eersel,Noord-Brabant,VBO,5.292209,51.418034
Groenewoud,11,,,5512AK,Vessem,Eersel,Noord-Brabant,VBO,5.292295,51.418059
Groenewoud,13,,,5512AK,Vessem,Eersel,Noord-Brabant,VBO,5.292330,51.418287
Groenewoud,15,,,5512AK,Vessem,Eersel,Noord-Brabant,VBO,5.292226,51.418395
Groenewoud,17,,,5512AK,Vessem,Eersel,Noord-Brabant,VBO,5.291947,51.418265
Groenewoud,19,,,5512AK,Vessem,Eersel,Noord-Brabant,VBO,5.291716,51.418247
Groenewoud,21,,,5512AK,Vessem,Eersel,Noord-Brabant,VBO,5.291550,51.418346
Groenewoud,23,,,5512AK,Vessem,Eersel,Noord-Brabant,VBO,5.291589,51.418515
Groenewoud,25,,,5512AK,Vessem,Eersel,Noord-Brabant,VBO,5.291660,51.418557
Groenewoud,27,,,5512AK,Vessem,Eersel,Noord-Brabant,VBO,5.291931,51.418710
Groenewoud,29,,,5512AK,Vessem,Eersel,Noord-Brabant,VBO,5.291864,51.418754
Groenewoud,31,,,5512AK,Vessem,Eersel,Noord-Brabant,VBO,5.291722,51.418850
Groenewoud,33,,,5512AK,Vessem,Eersel,Noord-Brabant,VBO,5.291658,51.418892
Groenewoud,35,,,5512AK,Vessem,Eersel,Noord-Brabant,VBO,5.291519,51.418984
Groenewoud,37,,,5512AK,Vessem,Eersel,Noord-Brabant,VBO,5.291452,51.419029
Groenewoud,39,,,5512AK,Vessem,Eersel,Noord-Brabant,VBO,5.291133,51.418959
Groenewoud,41,,,5512AK,Vessem,Eersel,Noord-Brabant,VBO,5.291038,51.418929
Groenewoud,43,,,5512AK,Vessem,Eersel,Noord-Brabant,VBO,5.290852,51.418869
Groenewoud,45,,,5512AK,Vessem,Eersel,Noord-Brabant,VBO,5.290760,51.418840
Groenewoud,47,,,5512AK,Vessem,Eersel,Noord-Brabant,VBO,5.290569,51.418779
Groenewoud,49,,,5512AK,Vessem,Eersel,Noord-Brabant,VBO,5.290479,51.418751
Groenewoud,51,,,5512AK,Vessem,Eersel,Noord-Brabant,VBO,5.290213,51.418676
Groenewoud,53,,,5512AK,Vessem,Eersel,Noord-Brabant,VBO,5.290049,51.418624
Groenewoud,55,,,5512AK,Vessem,Eersel,Noord-Brabant,VBO,5.289883,51.418581
Groenewoud,57,,,5512AK,Vessem,Eersel,Noord-Brabant,VBO,5.289781,51.418549
Groenewoud,59,,,5512AK,Vessem,Eersel,Noord-Brabant,VBO,5.289589,51.418502
Groenewoud,2,,,5512AL,Vessem,Eersel,Noord-Brabant,VBO,5.290761,51.417459
Groenewoud,4,,,5512AL,Vessem,Eersel,Noord-Brabant,VBO,5.291019,51.417484
Groenewoud,6,,,5512AL,Vessem,Eersel,Noord-Brabant,VBO,5.291216,51.417504
Groenewoud,8,,,5512AL,Vessem,Eersel,Noord-Brabant,VBO,5.291501,51.417525
Groenewoud,10,,,5512AL,Vessem,Eersel,Noord-Brabant,VBO,5.291692,51.417594
Groenewoud,12,,,5512AL,Vessem,Eersel,Noord-Brabant,VBO,5.291839,51.417637
Groenewoud,14,,,5512AL,Vessem,Eersel,Noord-Brabant,VBO,5.292016,51.417689
Groenewoud,16,,,5512AL,Vessem,Eersel,Noord-Brabant,VBO,5.293487,51.418198
Groenewoud,18,,,5512AL,Vessem,Eersel,Noord-Brabant,VBO,5.293583,51.418333
Groenewoud,20,,,5512AL,Vessem,Eersel,Noord-Brabant,VBO,5.293569,51.418558
Groenewoud,22,,,5512AL,Vessem,Eersel,Noord-Brabant,VBO,5.293512,51.418783
Groenewoud,24,,,5512AL,Vessem,Eersel,Noord-Brabant,VBO,5.293430,51.418747
Groenewoud,26,,,5512AL,Vessem,Eersel,Noord-Brabant,VBO,5.293277,51.418680
Groenewoud,28,,,5512AL,Vessem,Eersel,Noord-Brabant,VBO,5.293195,51.418644
Groenewoud,30,,,5512AL,Vessem,Eersel,Noord-Brabant,VBO,5.293042,51.418577
Groenewoud,32,,,5512AL,Vessem,Eersel,Noord-Brabant,VBO,5.292960,51.418541
Groenewoud,34,,,5512AL,Vessem,Eersel,Noord-Brabant,VBO,5.292660,51.418446
Groenewoud,36,,,5512AL,Vessem,Eersel,Noord-Brabant,VBO,5.292610,51.418499
Groenewoud,38,,,5512AM,Vessem,Eersel,Noord-Brabant,VBO,5.292514,51.418597
Groenewoud,40,,,5512AM,Vessem,Eersel,Noord-Brabant,VBO,5.292464,51.418649
Groenewoud,42,,,5512AM,Vessem,Eersel,Noord-Brabant,VBO,5.292163,51.418910
Groenewoud,44,,,5512AM,Vessem,Eersel,Noord-Brabant,VBO,5.292096,51.418955
Groenewoud,46,,,5512AM,Vessem,Eersel,Noord-Brabant,VBO,5.291957,51.419047
Groenewoud,48,,,5512AM,Vessem,Eersel,Noord-Brabant,VBO,5.291890,51.419091
Groenewoud,50,,,5512AM,Vessem,Eersel,Noord-Brabant,VBO,5.291750,51.419184
Groenewoud,52,,,5512AM,Vessem,Eersel,Noord-Brabant,VBO,5.291683,51.419229
Groenewoud,54,,,5512AM,Vessem,Eersel,Noord-Brabant,VBO,5.291536,51.419326
Groenewoud,56,,,5512AM,Vessem,Eersel,Noord-Brabant,VBO,5.291314,51.419299
Groenewoud,58,,,5512AM,Vessem,Eersel,Noord-Brabant,VBO,5.291133,51.419241
Groenewoud,60,,,5512AM,Vessem,Eersel,Noord-Brabant,VBO,5.291046,51.419214
Groenewoud,62,,,5512AM,Vessem,Eersel,Noord-Brabant,VBO,5.290890,51.419164
Groenewoud,64,,,5512AM,Vessem,Eersel,Noord-Brabant,VBO,5.290804,51.419136
Groenewoud,66,,,5512AM,Vessem,Eersel,Noord-Brabant,VBO,5.290636,51.419103
Groenewoud,68,,,5512AM,Vessem,Eersel,Noord-Brabant,VBO,5.290549,51.419075
Groenewoud,70,,,5512AM,Vessem,Eersel,Noord-Brabant,VBO,5.290393,51.419025
Groenewoud,72,,,5512AM,Vessem,Eersel,Noord-Brabant,VBO,5.290307,51.418997
Groenewoud,74,,,5512AM,Vessem,Eersel,Noord-Brabant,VBO,5.289900,51.419110
Mezenhof,1,,,5512AN,Vessem,Eersel,Noord-Brabant,VBO,5.291346,51.417866
Mezenhof,2,,,5512AN,Vessem,Eersel,Noord-Brabant,VBO,5.291297,51.417928
Mezenhof,3,,,5512AN,Vessem,Eersel,Noord-Brabant,VBO,5.291276,51.417995
Mezenhof,4,,,5512AN,Vessem,Eersel,Noord-Brabant,VBO,5.291230,51.418053
Mezenhof,5,,,5512AN,Vessem,Eersel,Noord-Brabant,VBO,5.291139,51.418128
Mezenhof,6,,,5512AN,Vessem,Eersel,Noord-Brabant,VBO,5.291092,51.418187
Mezenhof,7,,,5512AN,Vessem,Eersel,Noord-Brabant,VBO,5.291045,51.418246
Mezenhof,8,,,5512AN,Vessem,Eersel,Noord-Brabant,VBO,5.291087,51.418379
Mezenhof,9,,,5512AN,Vessem,Eersel,Noord-Brabant,VBO,5.291041,51.418439
Mezenhof,10,,,5512AN,Vessem,Eersel,Noord-Brabant,VBO,5.291031,51.418544
Mezenhof,11,,,5512AN,Vessem,Eersel,Noord-Brabant,VBO,5.290940,51.418516
Mezenhof,12,,,5512AN,Vessem,Eersel,Noord-Brabant,VBO,5.290829,51.418501
Mezenhof,13,,,5512AN,Vessem,Eersel,Noord-Brabant,VBO,5.290736,51.418472
Mezenhof,14,,,5512AN,Vessem,Eersel,Noord-Brabant,VBO,5.290866,51.418024
Mezenhof,15,,,5512AN,Vessem,Eersel,Noord-Brabant,VBO,5.290906,51.417975
Mezenhof,16,,,5512AN,Vessem,Eersel,Noord-Brabant,VBO,5.290945,51.417926
Nachtegaallaan,1,,,5512AP,Vessem,Eersel,Noord-Brabant,VBO,5.293237,51.419183
Nachtegaallaan,2,,,5512AP,Vessem,Eersel,Noord-Brabant,VBO,5.292954,51.419350
Nachtegaallaan,3,,,5512AP,Vessem,Eersel,Noord-Brabant,VBO,5.293163,51.419139
Nachtegaallaan,4,,,5512AP,Vessem,Eersel,Noord-Brabant,VBO,5.292881,51.419307
Nachtegaallaan,5,,,5512AP,Vessem,Eersel,Noord-Brabant,VBO,5.293026,51.419059
Nachtegaallaan,6,,,5512AP,Vessem,Eersel,Noord-Brabant,VBO,5.292743,51.419224
Nachtegaallaan,7,,,5512AP,Vessem,Eersel,Noord-Brabant,VBO,5.292890,51.418978
Nachtegaallaan,8,,,5512AP,Vessem,Eersel,Noord-Brabant,VBO,5.292665,51.419178
Nachtegaallaan,9,,,5512AP,Vessem,Eersel,Noord-Brabant,VBO,5.292750,51.418894
Nachtegaallaan,10,,,5512AP,Vessem,Eersel,Noord-Brabant,VBO,5.292521,51.419092
Nachtegaallaan,11,,,5512AP,Vessem,Eersel,Noord-Brabant,VBO,5.292682,51.418854
Nachtegaallaan,12,,,5512AP,Vessem,Eersel,Noord-Brabant,VBO,5.292448,51.419049
Mr de la Courtstraat,1,A,,5512AR,Vessem,Eersel,Noord-Brabant,VBO,5.292775,51.420141
Mr de la Courtstraat,1,B,,5512AR,Vessem,Eersel,Noord-Brabant,VBO,5.292997,51.420112
Mr de la Courtstraat,1,,,5512AR,Vessem,Eersel,Noord-Brabant,VBO,5.292685,51.420187
Mr de la Courtstraat,3,,,5512AR,Vessem,Eersel,Noord-Brabant,VBO,5.293248,51.420002
Mr de la Courtstraat,5,,,5512AR,Vessem,Eersel,Noord-Brabant,VBO,5.295001,51.419149
Mr de la Courtstraat,7,,,5512AR,Vessem,Eersel,Noord-Brabant,VBO,5.294804,51.418640
Mr de la Courtstraat,9,,,5512AR,Vessem,Eersel,Noord-Brabant,VBO,5.295100,51.418315
Mr de la Courtstraat,11,,,5512AR,Vessem,Eersel,Noord-Brabant,VBO,5.295161,51.418053
Mr de la Courtstraat,13,a,traf,5512AR,Vessem,Eersel,Noord-Brabant,VBO,5.298090,51.416136
Mr de la Courtstraat,13,,,5512AR,Vessem,Eersel,Noord-Brabant,VBO,5.295368,51.417798
Mr de la Courtstraat,15,a,,5512AR,Vessem,Eersel,Noord-Brabant,VBO,5.296348,51.416940
Mr de la Courtstraat,15,b,,5512AR,Vessem,Eersel,Noord-Brabant,VBO,5.296247,51.417120
Mr de la Courtstraat,15,,,5512AR,Vessem,Eersel,Noord-Brabant,VBO,5.295906,51.417101
Mr de la Courtstraat,17,,,5512AR,Vessem,Eersel,Noord-Brabant,VBO,5.298849,51.416061
Mr de la Courtstraat,23,,,5512AR,Vessem,Eersel,Noord-Brabant,VBO,5.310145,51.410587
Mr de la Courtstraat,2,a,,5512AS,Vessem,Eersel,Noord-Brabant,VBO,5.292346,51.419994
Mr de la Courtstraat,2,,,5512AS,Vessem,Eersel,Noord-Brabant,VBO,5.292036,51.419827
Mr de la Courtstraat,4,,,5512AS,Vessem,Eersel,Noord-Brabant,VBO,5.292674,51.419837
Mr de la Courtstraat,6,A,,5512AS,Vessem,Eersel,Noord-Brabant,VBO,5.293157,51.419519
Mr de la Courtstraat,6,,,5512AS,Vessem,Eersel,Noord-Brabant,VBO,5.292947,51.419683
Mr de la Courtstraat,8,,,5512AS,Vessem,Eersel,Noord-Brabant,VBO,5.293554,51.419340
Mr de la Courtstraat,10,,,5512AS,Vessem,Eersel,Noord-Brabant,VBO,5.293753,51.419175
Mr de la Courtstraat,12,,,5512AS,Vessem,Eersel,Noord-Brabant,VBO,5.293886,51.419053
Mr de la Courtstraat,14,,,5512AS,Vessem,Eersel,Noord-Brabant,VBO,5.294108,51.418727
Mr de la Courtstraat,16,,,5512AS,Vessem,Eersel,Noord-Brabant,VBO,5.294278,51.418529
Mr de la Courtstraat,18,,,5512AS,Vessem,Eersel,Noord-Brabant,VBO,5.294389,51.418319
Mr de la Courtstraat,20,,,5512AS,Vessem,Eersel,Noord-Brabant,VBO,5.294503,51.418156
Mr de la Courtstraat,22,A,,5512AS,Vessem,Eersel,Noord-Brabant,VBO,5.294782,51.417393
Mr de la Courtstraat,22,B,,5512AS,Vessem,Eersel,Noord-Brabant,VBO,5.295372,51.416952
Mr de la Courtstraat,22,,,5512AS,Vessem,Eersel,Noord-Brabant,VBO,5.294478,51.417717
Mr de la Courtstraat,24,A,,5512AS,Vessem,Eersel,Noord-Brabant,VBO,5.296026,51.416585
Mr de la Courtstraat,24,,,5512AS,Vessem,Eersel,Noord-Brabant,VBO,5.295910,51.416637
Mr de la Courtstraat,26,,,5512AS,Vessem,Eersel,Noord-Brabant,VBO,5.297052,51.416157
Mr de la Courtstraat,28,,,5512AS,Vessem,Eersel,Noord-Brabant,VBO,5.297259,51.416067
Mr de la Courtstraat,30,A,,5512AS,Vessem,Eersel,Noord-Brabant,VBO,5.300886,51.415273
Mr de la Courtstraat,30,,,5512AS,Vessem,Eersel,Noord-Brabant,VBO,5.300762,51.415302
Mr de la Courtstraat,32,a,,5512AS,Vessem,Eersel,Noord-Brabant,VBO,5.302101,51.414911
Mr de la Courtstraat,32,,,5512AS,Vessem,Eersel,Noord-Brabant,VBO,5.301988,51.414944
Mr de la Courtstraat,34,,,5512AS,Vessem,Eersel,Noord-Brabant,VBO,5.307560,51.411671
Mr de la Courtstraat,36,,,5512AS,Vessem,Eersel,Noord-Brabant,VBO,5.310201,51.409532
Postels Huufke,1,A,,5512AT,Vessem,Eersel,Noord-Brabant,VBO,5.296185,51.418269
Postels Huufke,1,,,5512AT,Vessem,Eersel,Noord-Brabant,VBO,5.295954,51.418088
Postels Huufke,3,,,5512AT,Vessem,Eersel,Noord-Brabant,VBO,5.296403,51.418514
Postels Huufke,5,,,5512AT,Vessem,Eersel,Noord-Brabant,VBO,5.296762,51.418850
Postels Huufke,7,,,5512AT,Vessem,Eersel,Noord-Brabant,VBO,5.297055,51.419159
Postels Huufke,9,,,5512AT,Vessem,Eersel,Noord-Brabant,VBO,5.297493,51.419612
Postels Huufke,11,,,5512AT,Vessem,Eersel,Noord-Brabant,VBO,5.297266,51.419931
Postels Huufke,13,,,5512AT,Vessem,Eersel,Noord-Brabant,VBO,5.296762,51.420422
Postels Huufke,15,,,5512AT,Vessem,Eersel,Noord-Brabant,VBO,5.296268,51.420297
Postels Huufke,17,,,5512AT,Vessem,Eersel,Noord-Brabant,VBO,5.295785,51.420097
Postels Huufke,19,,,5512AT,Vessem,Eersel,Noord-Brabant,VBO,5.295289,51.419834
Postels Huufke,21,,,5512AT,Vessem,Eersel,Noord-Brabant,VBO,5.296260,51.419401
Postels Huufke,23,,,5512AT,Vessem,Eersel,Noord-Brabant,VBO,5.295951,51.419017
Postels Huufke,25,,,5512AT,Vessem,Eersel,Noord-Brabant,VBO,5.294503,51.419554
Postels Huufke,2,,,5512AV,Vessem,Eersel,Noord-Brabant,VBO,5.296113,51.417541
Postels Huufke,6,,,5512AV,Vessem,Eersel,Noord-Brabant,VBO,5.298040,51.419791
Postels Huufke,8,,,5512AV,Vessem,Eersel,Noord-Brabant,VBO,5.297794,51.420080
Postels Huufke,10,,,5512AV,Vessem,Eersel,Noord-Brabant,VBO,5.297492,51.420451
Postels Huufke,12,,,5512AV,Vessem,Eersel,Noord-Brabant,VBO,5.297263,51.420819
Postels Huufke,14,,,5512AV,Vessem,Eersel,Noord-Brabant,VBO,5.296855,51.421297
Postels Huufke,16,,,5512AV,Vessem,Eersel,Noord-Brabant,VBO,5.296659,51.420935
Postels Huufke,18,,,5512AV,Vessem,Eersel,Noord-Brabant,VBO,5.296240,51.420690
Postels Huufke,20,,,5512AV,Vessem,Eersel,Noord-Brabant,VBO,5.295739,51.420508
Postels Huufke,22,,,5512AV,Vessem,Eersel,Noord-Brabant,VBO,5.295162,51.420243
Postels Huufke,24,,,5512AV,Vessem,Eersel,Noord-Brabant,VBO,5.293887,51.419705
Jan Smuldersstraat,1,a,,5512AW,Vessem,Eersel,Noord-Brabant,VBO,5.284830,51.417422
Jan Smuldersstraat,1,b,,5512AW,Vessem,Eersel,Noord-Brabant,VBO,5.282792,51.417172
Jan Smuldersstraat,1,c,,5512AW,Vessem,Eersel,Noord-Brabant,VBO,5.283295,51.417100
Jan Smuldersstraat,1,d,,5512AW,Vessem,Eersel,Noord-Brabant,VBO,5.283798,51.417217
Jan Smuldersstraat,1,e,,5512AW,Vessem,Eersel,Noord-Brabant,VBO,5.283985,51.417334
Jan Smuldersstraat,1,f,,5512AW,Vessem,Eersel,Noord-Brabant,VBO,5.283489,51.417111
Jan Smuldersstraat,1,,,5512AW,Vessem,Eersel,Noord-Brabant,VBO,5.282701,51.416926
Jan Smuldersstraat,3,A,,5512AW,Vessem,Eersel,Noord-Brabant,VBO,5.285656,51.418206
Jan Smuldersstraat,3,,,5512AW,Vessem,Eersel,Noord-Brabant,VBO,5.285605,51.417956
Jan Smuldersstraat,5,A,,5512AW,Vessem,Eersel,Noord-Brabant,VBO,5.286110,51.418480
Jan Smuldersstraat,5,b,,5512AW,Vessem,Eersel,Noord-Brabant,VBO,5.286066,51.418522
Jan Smuldersstraat,5,C,,5512AW,Vessem,Eersel,Noord-Brabant,VBO,5.286188,51.418527
Jan Smuldersstraat,5,D,,5512AW,Vessem,Eersel,Noord-Brabant,VBO,5.286132,51.418562
Jan Smuldersstraat,5,E,,5512AW,Vessem,Eersel,Noord-Brabant,VBO,5.286295,51.418661
Jan Smuldersstraat,5,G,,5512AW,Vessem,Eersel,Noord-Brabant,VBO,5.286437,51.418677
Jan Smuldersstraat,5,H,,5512AW,Vessem,Eersel,Noord-Brabant,VBO,5.286377,51.418707
Jan Smuldersstraat,5,,,5512AW,Vessem,Eersel,Noord-Brabant,VBO,5.285968,51.418393
Jan Smuldersstraat,7,A,,5512AW,Vessem,Eersel,Noord-Brabant,VBO,5.286562,51.418962
Jan Smuldersstraat,7,B,,5512AW,Vessem,Eersel,Noord-Brabant,VBO,5.286646,51.418755
Jan Smuldersstraat,9,,,5512AW,Vessem,Eersel,Noord-Brabant,VBO,5.287079,51.418995
Jan Smuldersstraat,13,,,5512AW,Vessem,Eersel,Noord-Brabant,VBO,5.287787,51.419254
Jan Smuldersstraat,15,,,5512AW,Vessem,Eersel,Noord-Brabant,VBO,5.288339,51.419490
Jan Smuldersstraat,17,a,,5512AW,Vessem,Eersel,Noord-Brabant,VBO,5.288724,51.419751
Jan Smuldersstraat,17,,,5512AW,Vessem,Eersel,Noord-Brabant,VBO,5.288583,51.419540
Jan Smuldersstraat,19,,,5512AW,Vessem,Eersel,Noord-Brabant,VBO,5.289028,51.419645
Jan Smuldersstraat,21,A,,5512AW,Vessem,Eersel,Noord-Brabant,VBO,5.289344,51.419694
Jan Smuldersstraat,21,,,5512AW,Vessem,Eersel,Noord-Brabant,VBO,5.289271,51.419678
Jan Smuldersstraat,23,,,5512AW,Vessem,Eersel,Noord-Brabant,VBO,5.289987,51.419850
Jan Smuldersstraat,25,A,,5512AW,Vessem,Eersel,Noord-Brabant,VBO,5.290314,51.420083
Jan Smuldersstraat,25,,,5512AW,Vessem,Eersel,Noord-Brabant,VBO,5.290068,51.419868
Jan Smuldersstraat,27,A,,5512AW,Vessem,Eersel,Noord-Brabant,VBO,5.290855,51.420097
Jan Smuldersstraat,27,B,,5512AW,Vessem,Eersel,Noord-Brabant,VBO,5.291093,51.420171
Jan Smuldersstraat,27,C,,5512AW,Vessem,Eersel,Noord-Brabant,VBO,5.291366,51.420213
Jan Smuldersstraat,27,,,5512AW,Vessem,Eersel,Noord-Brabant,VBO,5.290556,51.420130
Jan Smuldersstraat,29,,,5512AW,Vessem,Eersel,Noord-Brabant,VBO,5.291723,51.420305
Jan Smuldersstraat,31,a,,5512AW,Vessem,Eersel,Noord-Brabant,VBO,5.292224,51.420471
Jan Smuldersstraat,31,b,,5512AW,Vessem,Eersel,Noord-Brabant,VBO,5.292313,51.420504
Jan Smuldersstraat,31,,,5512AW,Vessem,Eersel,Noord-Brabant,VBO,5.292084,51.420506
Jan Smuldersstraat,33,,,5512AW,Vessem,Eersel,Noord-Brabant,VBO,5.292715,51.420675
Jan Smuldersstraat,35,,,5512AW,Vessem,Eersel,Noord-Brabant,VBO,5.292916,51.420851
Jan Smuldersstraat,37,A,,5512AW,Vessem,Eersel,Noord-Brabant,VBO,5.293490,51.421099
Jan Smuldersstraat,37,,,5512AW,Vessem,Eersel,Noord-Brabant,VBO,5.293169,51.420964
Jan Smuldersstraat,39,,,5512AW,Vessem,Eersel,Noord-Brabant,VBO,5.294230,51.421409
Jan Smuldersstraat,41,a,,5512AW,Vessem,Eersel,Noord-Brabant,VBO,5.295259,51.422458
Jan Smuldersstraat,41,,,5512AW,Vessem,Eersel,Noord-Brabant,VBO,5.295282,51.421925
Jan Smuldersstraat,43,A,,5512AW,Vessem,Eersel,Noord-Brabant,VBO,5.295936,51.422154
Jan Smuldersstraat,43,,,5512AW,Vessem,Eersel,Noord-Brabant,VBO,5.295787,51.422077
Jan Smuldersstraat,45,,,5512AW,Vessem,Eersel,Noord-Brabant,STA,5.301037,51.427152
Jan Smuldersstraat,47,,,5512AW,Vessem,Eersel,Noord-Brabant,VBO,5.300827,51.427213
Jan Smuldersstraat,55,,,5512AW,Vessem,Eersel,Noord-Brabant,VBO,5.302821,51.427855
Jan Smuldersstraat,2,A,,5512AZ,Vessem,Eersel,Noord-Brabant,VBO,5.283802,51.416871
Jan Smuldersstraat,2,b,,5512AZ,Vessem,Eersel,Noord-Brabant,VBO,5.283704,51.416848
Jan Smuldersstraat,2,,,5512AZ,Vessem,Eersel,Noord-Brabant,VBO,5.283326,51.416753
Jan Smuldersstraat,4,a,,5512AZ,Vessem,Eersel,Noord-Brabant,VBO,5.284709,51.417073
Jan Smuldersstraat,4,b,,5512AZ,Vessem,Eersel,Noord-Brabant,VBO,5.285380,51.416949
Jan Smuldersstraat,4,c,,5512AZ,Vessem,Eersel,Noord-Brabant,VBO,5.284977,51.417048
Jan Smuldersstraat,4,,,5512AZ,Vessem,Eersel,Noord-Brabant,VBO,5.285026,51.417235
Jan Smuldersstraat,6,,,5512AZ,Vessem,Eersel,Noord-Brabant,VBO,5.285985,51.417407
Jan Smuldersstraat,10,,,5512AZ,Vessem,Eersel,Noord-Brabant,VBO,5.285994,51.418106
Jan Smuldersstraat,14,a,,5512AZ,Vessem,Eersel,Noord-Brabant,VBO,5.286182,51.418073
Jan Smuldersstraat,14,,,5512AZ,Vessem,Eersel,Noord-Brabant,VBO,5.286081,51.417818
Jan Smuldersstraat,16,,,5512AZ,Vessem,Eersel,Noord-Brabant,VBO,5.286529,51.418337
Jan Smuldersstraat,18,,,5512AZ,Vessem,Eersel,Noord-Brabant,VBO,5.286833,51.418492
Jan Smuldersstraat,20,A,,5512AZ,Vessem,Eersel,Noord-Brabant,VBO,5.287036,51.418557
Jan Smuldersstraat,20,,,5512AZ,Vessem,Eersel,Noord-Brabant,VBO,5.287157,51.418635
Jan Smuldersstraat,22,,,5512AZ,Vessem,Eersel,Noord-Brabant,VBO,5.287639,51.418927
Jan Smuldersstraat,24,a,,5512AZ,Vessem,Eersel,Noord-Brabant,VBO,5.289300,51.419470
Jan Smuldersstraat,24,,,5512AZ,Vessem,Eersel,Noord-Brabant,VBO,5.288965,51.419323
Jan Smuldersstraat,26,a,,5512AZ,Vessem,Eersel,Noord-Brabant,VBO,5.289597,51.419358
Jan Smuldersstraat,26,,,5512AZ,Vessem,Eersel,Noord-Brabant,VBO,5.289458,51.419548
Jan Smuldersstraat,28,,,5512AZ,Vessem,Eersel,Noord-Brabant,VBO,5.289929,51.419574
Jan Smuldersstraat,30,,,5512AZ,Vessem,Eersel,Noord-Brabant,VBO,5.290108,51.419608
Jan Smuldersstraat,32,A,,5512AZ,Vessem,Eersel,Noord-Brabant,VBO,5.290447,51.419674
Jan Smuldersstraat,32,,,5512AZ,Vessem,Eersel,Noord-Brabant,VBO,5.290241,51.419633
Jan Smuldersstraat,34,,,5512AZ,Vessem,Eersel,Noord-Brabant,VBO,5.290617,51.419757
Jan Smuldersstraat,36,C,,5512AZ,Vessem,Eersel,Noord-Brabant,VBO,5.290850,51.419737
Jan Smuldersstraat,36,D,,5512AZ,Vessem,Eersel,Noord-Brabant,VBO,5.290932,51.419757
Jan Smuldersstraat,36,E,,5512AZ,Vessem,Eersel,Noord-Brabant,VBO,5.291013,51.419778
Jan Smuldersstraat,36,,,5512AZ,Vessem,Eersel,Noord-Brabant,VBO,5.290891,51.419802
Jan Smuldersstraat,38,,,5512AZ,Vessem,Eersel,Noord-Brabant,VBO,5.291181,51.419863
Jan Smuldersstraat,40,a,,5512AZ,Vessem,Eersel,Noord-Brabant,VBO,5.291706,51.419994
Jan Smuldersstraat,40,b,,5512AZ,Vessem,Eersel,Noord-Brabant,VBO,5.292017,51.419668
Jan Smuldersstraat,40,,,5512AZ,Vessem,Eersel,Noord-Brabant,VBO,5.291526,51.419939
Jan Smuldersstraat,42,A,,5512AZ,Vessem,Eersel,Noord-Brabant,VBO,5.293354,51.420502
Jan Smuldersstraat,42,,,5512AZ,Vessem,Eersel,Noord-Brabant,VBO,5.292005,51.420119
Jan Smuldersstraat,44,,,5512AZ,Vessem,Eersel,Noord-Brabant,VBO,5.294052,51.420630
Jan Smuldersstraat,46,,,5512AZ,Vessem,Eersel,Noord-Brabant,VBO,5.294613,51.420969
Jan Smuldersstraat,48,,,5512AZ,Vessem,Eersel,Noord-Brabant,VBO,5.295060,51.421191
Jan Smuldersstraat,50,,,5512AZ,Vessem,Eersel,Noord-Brabant,VBO,5.295472,51.421384
Jan Smuldersstraat,52,a,,5512AZ,Vessem,Eersel,Noord-Brabant,VBO,5.297513,51.422557
Jan Smuldersstraat,52,B,,5512AZ,Vessem,Eersel,Noord-Brabant,VBO,5.303663,51.427227
Jan Smuldersstraat,52,,,5512AZ,Vessem,Eersel,Noord-Brabant,VBO,5.295935,51.421719
Jan Smuldersstraat,54,,,5512AZ,Vessem,Eersel,Noord-Brabant,VBO,5.304809,51.427656
Jan Smuldersstraat,56,,,5512AZ,Vessem,Eersel,Noord-Brabant,VBO,5.307402,51.425479
Maaskant,1,A,,5512BA,Vessem,Eersel,Noord-Brabant,VBO,5.299497,51.419697
Maaskant,1,,,5512BA,Vessem,Eersel,Noord-Brabant,VBO,5.299583,51.419571
Maaskant,2,a,,5512BA,Vessem,Eersel,Noord-Brabant,VBO,5.299937,51.418178
Maaskant,2,,,5512BA,Vessem,Eersel,Noord-Brabant,VBO,5.299868,51.418324
Maaskant,3,a,,5512BA,Vessem,Eersel,Noord-Brabant,VBO,5.300070,51.418722
Maaskant,3,,,5512BA,Vessem,Eersel,Noord-Brabant,VBO,5.300113,51.418620
Maaskant,3,,,5512BA,Vessem,Eersel,Noord-Brabant,VBO,5.300214,51.418531
Maaskant,4,,,5512BA,Vessem,Eersel,Noord-Brabant,VBO,5.299951,51.417821
Maaskant,5,,,5512BA,Vessem,Eersel,Noord-Brabant,VBO,5.301084,51.418615
Maaskant,7,,,5512BA,Vessem,Eersel,Noord-Brabant,VBO,5.300681,51.418327
Maaskant,9,,,5512BA,Vessem,Eersel,Noord-Brabant,VBO,5.303475,51.418289
Maaskant,11,,,5512BA,Vessem,Eersel,Noord-Brabant,VBO,5.300474,51.418141
Maaskant,13,,,5512BA,Vessem,Eersel,Noord-Brabant,VBO,5.303511,51.416341
Buterswal,2,,,5512BB,Vessem,Eersel,Noord-Brabant,VBO,5.289758,51.421848
Buterswal,4,,,5512BB,Vessem,Eersel,Noord-Brabant,VBO,5.289837,51.421836
Buterswal,6,,,5512BB,Vessem,Eersel,Noord-Brabant,VBO,5.289919,51.421823
Buterswal,8,,,5512BB,Vessem,Eersel,Noord-Brabant,VBO,5.289997,51.421812
Flinkert,1,A,,5512BB,Vessem,Eersel,Noord-Brabant,VBO,5.291279,51.420586
Flinkert,1,B,,5512BB,Vessem,Eersel,Noord-Brabant,VBO,5.291047,51.420684
Flinkert,1,,traf,5512BB,Vessem,Eersel,Noord-Brabant,VBO,5.291427,51.420520
Flinkert,3,a,,5512BB,Vessem,Eersel,Noord-Brabant,VBO,5.289762,51.421239
Flinkert,3,b,,5512BB,Vessem,Eersel,Noord-Brabant,VBO,5.289701,51.421278
Flinkert,3,c,,5512BB,Vessem,Eersel,Noord-Brabant,VBO,5.289651,51.421322
Flinkert,3,d,,5512BB,Vessem,Eersel,Noord-Brabant,VBO,5.289577,51.421411
Flinkert,3,e,,5512BB,Vessem,Eersel,Noord-Brabant,VBO,5.289533,51.421458
Flinkert,3,,,5512BB,Vessem,Eersel,Noord-Brabant,VBO,5.289813,51.421196
Flinkert,5,,,5512BB,Vessem,Eersel,Noord-Brabant,VBO,5.289296,51.421634
Flinkert,7,,,5512BB,Vessem,Eersel,Noord-Brabant,VBO,5.289248,51.421688
Flinkert,9,,,5512BB,Vessem,Eersel,Noord-Brabant,VBO,5.289145,51.421805
Flinkert,11,,,5512BB,Vessem,Eersel,Noord-Brabant,VBO,5.289100,51.421856
Flinkert,13,,,5512BB,Vessem,Eersel,Noord-Brabant,VBO,5.288978,51.421996
Flinkert,15,,,5512BB,Vessem,Eersel,Noord-Brabant,VBO,5.288928,51.422053
Flinkert,17,,,5512BB,Vessem,Eersel,Noord-Brabant,VBO,5.288836,51.422158
Flinkert,19,,,5512BB,Vessem,Eersel,Noord-Brabant,VBO,5.288749,51.422259
Flinkert,21,,,5512BB,Vessem,Eersel,Noord-Brabant,VBO,5.287721,51.423538
Flinkert,23,,,5512BB,Vessem,Eersel,Noord-Brabant,VBO,5.287428,51.423819
Flinkert,25,,,5512BB,Vessem,Eersel,Noord-Brabant,VBO,5.286672,51.423580
Flinkert,27,,,5512BB,Vessem,Eersel,Noord-Brabant,VBO,5.286566,51.423608
Flinkert,29,,,5512BB,Vessem,Eersel,Noord-Brabant,VBO,5.286446,51.423646
Flinkert,31,,,5512BB,Vessem,Eersel,Noord-Brabant,VBO,5.286339,51.423673
Buterswal,1,,,5512BC,Vessem,Eersel,Noord-Brabant,VBO,5.289762,51.422300
Buterswal,3,,,5512BC,Vessem,Eersel,Noord-Brabant,VBO,5.289902,51.422281
Buterswal,5,,,5512BC,Vessem,Eersel,Noord-Brabant,VBO,5.290240,51.422225
Buterswal,7,,,5512BC,Vessem,Eersel,Noord-Brabant,VBO,5.290354,51.422169
Buterswal,9,,,5512BC,Vessem,Eersel,Noord-Brabant,VBO,5.290467,51.422042
Buterswal,11,,,5512BC,Vessem,Eersel,Noord-Brabant,VBO,5.290510,51.421995
Buterswal,13,,,5512BC,Vessem,Eersel,Noord-Brabant,VBO,5.290551,51.421950
Buterswal,15,,,5512BC,Vessem,Eersel,Noord-Brabant,VBO,5.290595,51.421901
Flinkert,2,a,,5512BC,Vessem,Eersel,Noord-Brabant,VBO,5.292030,51.420559
Flinkert,2,b,,5512BC,Vessem,Eersel,Noord-Brabant,VBO,5.291884,51.420667
Flinkert,2,c,,5512BC,Vessem,Eersel,Noord-Brabant,VBO,5.291982,51.420713
Flinkert,2,d,,5512BC,Vessem,Eersel,Noord-Brabant,VBO,5.292087,51.420754
Flinkert,2,e,,5512BC,Vessem,Eersel,Noord-Brabant,VBO,5.292180,51.420801
Flinkert,2,f,,5512BC,Vessem,Eersel,Noord-Brabant,VBO,5.292269,51.420695
Flinkert,2,g,,5512BC,Vessem,Eersel,Noord-Brabant,VBO,5.292329,51.420638
Flinkert,2,,,5512BC,Vessem,Eersel,Noord-Brabant,VBO,5.291566,51.420758
Flinkert,6,,,5512BC,Vessem,Eersel,Noord-Brabant,VBO,5.291355,51.420850
Flinkert,8,,,5512BC,Vessem,Eersel,Noord-Brabant,VBO,5.291141,51.420965
Flinkert,10,,,5512BC,Vessem,Eersel,Noord-Brabant,VBO,5.290789,51.421115
Flinkert,12,,,5512BC,Vessem,Eersel,Noord-Brabant,VBO,5.289989,51.421392
Flinkert,14,a,,5512BC,Vessem,Eersel,Noord-Brabant,VBO,5.289526,51.421811
Flinkert,14,b,,5512BC,Vessem,Eersel,Noord-Brabant,VBO,5.289481,51.421862
Flinkert,14,c,,5512BC,Vessem,Eersel,Noord-Brabant,VBO,5.289324,51.422046
Flinkert,14,d,,5512BC,Vessem,Eersel,Noord-Brabant,VBO,5.289285,51.422092
Flinkert,14,e,,5512BC,Vessem,Eersel,Noord-Brabant,VBO,5.289246,51.422137
Flinkert,14,f,,5512BC,Vessem,Eersel,Noord-Brabant,VBO,5.289208,51.422182
Flinkert,14,g,,5512BC,Vessem,Eersel,Noord-Brabant,VBO,5.289168,51.422228
Flinkert,14,,,5512BC,Vessem,Eersel,Noord-Brabant,VBO,5.289853,51.421538
Flinkert,16,,,5512BC,Vessem,Eersel,Noord-Brabant,VBO,5.288922,51.422570
Flinkert,18,,,5512BC,Vessem,Eersel,Noord-Brabant,VBO,5.288760,51.422754
Flinkert,20,,,5512BC,Vessem,Eersel,Noord-Brabant,VBO,5.287968,51.423396
Flinkert,22,,,5512BC,Vessem,Eersel,Noord-Brabant,VBO,5.288284,51.423679
Flinkert,24,,,5512BC,Vessem,Eersel,Noord-Brabant,VBO,5.287881,51.423947
Flinkert,26,,,5512BC,Vessem,Eersel,Noord-Brabant,VBO,5.287571,51.424003
Oude Schoolstraat,1,,,5512BD,Vessem,Eersel,Noord-Brabant,VBO,5.286627,51.422547
Oude Schoolstraat,2,,,5512BD,Vessem,Eersel,Noord-Brabant,VBO,5.286711,51.422283
Oude Schoolstraat,3,,,5512BD,Vessem,Eersel,Noord-Brabant,VBO,5.286917,51.422590
Oude Schoolstraat,4,,,5512BD,Vessem,Eersel,Noord-Brabant,VBO,5.286812,51.422307
Oude Schoolstraat,5,,,5512BD,Vessem,Eersel,Noord-Brabant,VBO,5.287094,51.422639
Oude Schoolstraat,6,,,5512BD,Vessem,Eersel,Noord-Brabant,VBO,5.286994,51.422350
Oude Schoolstraat,7,,,5512BD,Vessem,Eersel,Noord-Brabant,VBO,5.287204,51.422838
Oude Schoolstraat,8,,,5512BD,Vessem,Eersel,Noord-Brabant,VBO,5.287096,51.422373
Oude Schoolstraat,10,,,5512BD,Vessem,Eersel,Noord-Brabant,VBO,5.287285,51.422418
Oude Schoolstraat,12,,,5512BD,Vessem,Eersel,Noord-Brabant,VBO,5.287387,51.422442
Oude Schoolstraat,14,,,5512BD,Vessem,Eersel,Noord-Brabant,VBO,5.287964,51.422578
Oude Schoolstraat,16,,,5512BD,Vessem,Eersel,Noord-Brabant,VBO,5.288058,51.422599
Oude Schoolstraat,18,,,5512BD,Vessem,Eersel,Noord-Brabant,VBO,5.288282,51.422633
Oude Schoolstraat,20,,,5512BD,Vessem,Eersel,Noord-Brabant,VBO,5.288386,51.422657
Molenberg,1,,,5512BE,Vessem,Eersel,Noord-Brabant,VBO,5.288212,51.422359
Molenberg,2,,,5512BE,Vessem,Eersel,Noord-Brabant,VBO,5.287709,51.422142
Molenberg,3,,,5512BE,Vessem,Eersel,Noord-Brabant,VBO,5.288255,51.422237
Molenberg,4,,,5512BE,Vessem,Eersel,Noord-Brabant,VBO,5.287528,51.422081
Molenberg,5,,,5512BE,Vessem,Eersel,Noord-Brabant,VBO,5.288110,51.422017
Molenberg,6,,,5512BE,Vessem,Eersel,Noord-Brabant,VBO,5.287440,51.422052
Molenberg,7,,,5512BE,Vessem,Eersel,Noord-Brabant,VBO,5.287964,51.421934
Molenberg,8,,,5512BE,Vessem,Eersel,Noord-Brabant,VBO,5.287249,51.421988
Molenberg,9,,,5512BE,Vessem,Eersel,Noord-Brabant,VBO,5.287795,51.421854
Molenberg,10,,,5512BE,Vessem,Eersel,Noord-Brabant,VBO,5.287154,51.421956
Molenberg,11,,,5512BE,Vessem,Eersel,Noord-Brabant,VBO,5.287720,51.421829
Molenberg,12,,,5512BE,Vessem,Eersel,Noord-Brabant,VBO,5.286956,51.421901
Molenberg,13,,,5512BE,Vessem,Eersel,Noord-Brabant,VBO,5.287803,51.421626
Molenberg,14,,,5512BE,Vessem,Eersel,Noord-Brabant,VBO,5.286869,51.421871
Molenberg,15,,,5512BE,Vessem,Eersel,Noord-Brabant,VBO,5.287895,51.421540
Molenberg,16,,,5512BE,Vessem,Eersel,Noord-Brabant,VBO,5.287310,51.421724
Molenberg,17,,,5512BE,Vessem,Eersel,Noord-Brabant,VBO,5.288055,51.421436
Molenberg,18,,,5512BE,Vessem,Eersel,Noord-Brabant,VBO,5.287357,51.421669
Molenberg,19,,,5512BE,Vessem,Eersel,Noord-Brabant,VBO,5.288097,51.421388
Molenberg,20,,,5512BE,Vessem,Eersel,Noord-Brabant,VBO,5.287568,51.421256
Molenberg,21,,,5512BE,Vessem,Eersel,Noord-Brabant,VBO,5.288204,51.421265
Molenberg,22,,,5512BE,Vessem,Eersel,Noord-Brabant,VBO,5.287621,51.421197
Molenberg,24,,,5512BE,Vessem,Eersel,Noord-Brabant,VBO,5.287792,51.421131
Molenberg,26,,,5512BE,Vessem,Eersel,Noord-Brabant,VBO,5.287934,51.421068
Molenberg,28,,,5512BE,Vessem,Eersel,Noord-Brabant,VBO,5.288286,51.420982
Molenberg,30,,,5512BE,Vessem,Eersel,Noord-Brabant,VBO,5.288419,51.420879
Molenkap,1,,,5512BG,Vessem,Eersel,Noord-Brabant,VBO,5.288449,51.421363
Molenkap,2,,,5512BG,Vessem,Eersel,Noord-Brabant,VBO,5.288698,51.421183
Molenkap,3,,,5512BG,Vessem,Eersel,Noord-Brabant,VBO,5.288632,51.421425
Molenkap,4,,,5512BG,Vessem,Eersel,Noord-Brabant,VBO,5.288909,51.421259
Molenkap,5,,,5512BG,Vessem,Eersel,Noord-Brabant,VBO,5.288734,51.421459
Molenkap,6,,,5512BG,Vessem,Eersel,Noord-Brabant,VBO,5.289065,51.421320
Molenkap,8,,,5512BG,Vessem,Eersel,Noord-Brabant,VBO,5.289141,51.421344
Molenkap,10,,,5512BG,Vessem,Eersel,Noord-Brabant,VBO,5.289219,51.421374
Molenwiek,1,,,5512BH,Vessem,Eersel,Noord-Brabant,VBO,5.287256,51.421396
Molenwiek,2,,,5512BH,Vessem,Eersel,Noord-Brabant,VBO,5.286982,51.421559
Molenwiek,3,,,5512BH,Vessem,Eersel,Noord-Brabant,VBO,5.287095,51.421350
Molenwiek,4,,,5512BH,Vessem,Eersel,Noord-Brabant,VBO,5.286807,51.421502
Molenwiek,5,,,5512BH,Vessem,Eersel,Noord-Brabant,VBO,5.286907,51.421312
Molenwiek,7,,,5512BH,Vessem,Eersel,Noord-Brabant,VBO,5.286678,51.421221
Wilhelminalaan,1,a,,5512BJ,Vessem,Eersel,Noord-Brabant,VBO,5.287747,51.419405
Wilhelminalaan,1,,,5512BJ,Vessem,Eersel,Noord-Brabant,VBO,5.287879,51.419425
Wilhelminalaan,3,,,5512BJ,Vessem,Eersel,Noord-Brabant,VBO,5.287568,51.419689
Wilhelminalaan,5,A,,5512BJ,Vessem,Eersel,Noord-Brabant,VBO,5.287276,51.419960
Wilhelminalaan,5,b,,5512BJ,Vessem,Eersel,Noord-Brabant,VBO,5.287214,51.419809
Wilhelminalaan,5,,,5512BJ,Vessem,Eersel,Noord-Brabant,VBO,5.287329,51.419899
Wilhelminalaan,7,a,,5512BJ,Vessem,Eersel,Noord-Brabant,VBO,5.287084,51.420079
Wilhelminalaan,7,,,5512BJ,Vessem,Eersel,Noord-Brabant,VBO,5.287156,51.420043
Wilhelminalaan,9,,,5512BJ,Vessem,Eersel,Noord-Brabant,VBO,5.287009,51.420188
Wilhelminalaan,11,,,5512BJ,Vessem,Eersel,Noord-Brabant,VBO,5.286919,51.420268
Wilhelminalaan,13,,,5512BJ,Vessem,Eersel,Noord-Brabant,VBO,5.286862,51.420346
Wilhelminalaan,15,,,5512BJ,Vessem,Eersel,Noord-Brabant,VBO,5.286796,51.420393
Wilhelminalaan,19,A,,5512BJ,Vessem,Eersel,Noord-Brabant,VBO,5.286012,51.421145
Wilhelminalaan,21,,,5512BJ,Vessem,Eersel,Noord-Brabant,VBO,5.286040,51.421279
Wilhelminalaan,23,A,,5512BJ,Vessem,Eersel,Noord-Brabant,VBO,5.285983,51.421468
Wilhelminalaan,23,b,,5512BJ,Vessem,Eersel,Noord-Brabant,VBO,5.285988,51.421408
Wilhelminalaan,23,c,,5512BJ,Vessem,Eersel,Noord-Brabant,VBO,5.285527,51.421686
Wilhelminalaan,23,,,5512BJ,Vessem,Eersel,Noord-Brabant,VBO,5.285799,51.421387
Wilhelminalaan,25,A,,5512BJ,Vessem,Eersel,Noord-Brabant,VBO,5.285715,51.422006
Wilhelminalaan,25,B,,5512BJ,Vessem,Eersel,Noord-Brabant,VBO,5.285676,51.422225
Wilhelminalaan,25,,,5512BJ,Vessem,Eersel,Noord-Brabant,VBO,5.285785,51.421816
Wilhelminalaan,27,,,5512BJ,Vessem,Eersel,Noord-Brabant,VBO,5.285683,51.422444
Wilhelminalaan,29,,,5512BJ,Vessem,Eersel,Noord-Brabant,VBO,5.285308,51.422855
Wilhelminalaan,33,,,5512BJ,Vessem,Eersel,Noord-Brabant,VBO,5.285208,51.423391
Wilhelminalaan,35,,,5512BJ,Vessem,Eersel,Noord-Brabant,VBO,5.285094,51.423521
Wilhelminalaan,37,,,5512BJ,Vessem,Eersel,Noord-Brabant,VBO,5.284801,51.423669
Wilhelminalaan,2,,traf,5512BK,Vessem,Eersel,Noord-Brabant,VBO,5.288136,51.419588
Wilhelminalaan,4,,,5512BK,Vessem,Eersel,Noord-Brabant,VBO,5.288232,51.419655
Wilhelminalaan,6,a,,5512BK,Vessem,Eersel,Noord-Brabant,VBO,5.287949,51.419831
Wilhelminalaan,6,,,5512BK,Vessem,Eersel,Noord-Brabant,VBO,5.287994,51.419790
Wilhelminalaan,8,,,5512BK,Vessem,Eersel,Noord-Brabant,VBO,5.287869,51.419904
Wilhelminalaan,10,,,5512BK,Vessem,Eersel,Noord-Brabant,VBO,5.287762,51.420002
Wilhelminalaan,12,,,5512BK,Vessem,Eersel,Noord-Brabant,VBO,5.287618,51.420133
Wilhelminalaan,14,,,5512BK,Vessem,Eersel,Noord-Brabant,VBO,5.287475,51.420261
Wilhelminalaan,16,,,5512BK,Vessem,Eersel,Noord-Brabant,VBO,5.287343,51.420383
Wilhelminalaan,18,,,5512BK,Vessem,Eersel,Noord-Brabant,VBO,5.287607,51.420689
Wilhelminalaan,20,A,,5512BK,Vessem,Eersel,Noord-Brabant,VBO,5.286797,51.420857
Wilhelminalaan,20,,,5512BK,Vessem,Eersel,Noord-Brabant,VBO,5.286903,51.420745
Wilhelminalaan,22,,,5512BK,Vessem,Eersel,Noord-Brabant,VBO,5.286654,51.420982
Wilhelminalaan,28,,,5512BK,Vessem,Eersel,Noord-Brabant,VBO,5.286442,51.421548
Wilhelminalaan,30,,,5512BK,Vessem,Eersel,Noord-Brabant,VBO,5.286254,51.421705
Wilhelminalaan,32,,,5512BK,Vessem,Eersel,Noord-Brabant,VBO,5.286304,51.421912
Wilhelminalaan,34,,,5512BK,Vessem,Eersel,Noord-Brabant,VBO,5.286279,51.422050
Wilhelminalaan,36,,,5512BK,Vessem,Eersel,Noord-Brabant,VBO,5.286235,51.422172
Wilhelminalaan,38,,,5512BK,Vessem,Eersel,Noord-Brabant,VBO,5.286138,51.422426
Wilhelminalaan,40,,,5512BK,Vessem,Eersel,Noord-Brabant,VBO,5.286096,51.422539
Wilhelminalaan,42,,,5512BK,Vessem,Eersel,Noord-Brabant,VBO,5.285992,51.422700
Wilhelminalaan,44,,,5512BK,Vessem,Eersel,Noord-Brabant,VBO,5.285856,51.423010
Wilhelminalaan,46,,,5512BK,Vessem,Eersel,Noord-Brabant,VBO,5.285713,51.423247
Wilhelminalaan,48,,,5512BK,Vessem,Eersel,Noord-Brabant,VBO,5.285619,51.423394
Wilhelminalaan,50,,,5512BK,Vessem,Eersel,Noord-Brabant,VBO,5.285548,51.423498
Wilhelminalaan,52,,,5512BK,Vessem,Eersel,Noord-Brabant,VBO,5.285452,51.423632
Wilhelminalaan,54,,,5512BK,Vessem,Eersel,Noord-Brabant,VBO,5.285364,51.423756
Wilhelminalaan,56,,,5512BK,Vessem,Eersel,Noord-Brabant,VBO,5.285265,51.423896
Wilhelminalaan,58,,,5512BK,Vessem,Eersel,Noord-Brabant,VBO,5.285422,51.423978
Putterstraat,1,,,5512BL,Vessem,Eersel,Noord-Brabant,VBO,5.286444,51.419639
Putterstraat,3,,,5512BL,Vessem,Eersel,Noord-Brabant,VBO,5.286558,51.419424
Putterstraat,11,,,5512BL,Vessem,Eersel,Noord-Brabant,VBO,5.286402,51.419274
Putterstraat,13,,,5512BL,Vessem,Eersel,Noord-Brabant,VBO,5.286315,51.419263
Putterstraat,15,,,5512BL,Vessem,Eersel,Noord-Brabant,VBO,5.286220,51.419238
Putterstraat,17,,,5512BL,Vessem,Eersel,Noord-Brabant,VBO,5.286089,51.419133
Putterstraat,19,,,5512BL,Vessem,Eersel,Noord-Brabant,VBO,5.286044,51.419093
Putterstraat,21,,,5512BL,Vessem,Eersel,Noord-Brabant,VBO,5.285999,51.419052
Putterstraat,23,,,5512BL,Vessem,Eersel,Noord-Brabant,VBO,5.285956,51.419013
Putterstraat,25,,,5512BL,Vessem,Eersel,Noord-Brabant,VBO,5.285839,51.418907
Putterstraat,27,,,5512BL,Vessem,Eersel,Noord-Brabant,VBO,5.285793,51.418866
Putterstraat,29,,,5512BL,Vessem,Eersel,Noord-Brabant,VBO,5.285688,51.418790
Putterstraat,31,,,5512BL,Vessem,Eersel,Noord-Brabant,VBO,5.285639,51.418746
Putterstraat,33,,,5512BL,Vessem,Eersel,Noord-Brabant,VBO,5.285595,51.418707
Putterstraat,35,,,5512BL,Vessem,Eersel,Noord-Brabant,VBO,5.285549,51.418665
Putterstraat,41,,,5512BL,Vessem,Eersel,Noord-Brabant,VBO,5.285283,51.418465
Putterstraat,43,,,5512BL,Vessem,Eersel,Noord-Brabant,VBO,5.285223,51.418428
Putterstraat,45,,,5512BL,Vessem,Eersel,Noord-Brabant,VBO,5.285064,51.418366
Putterstraat,47,,,5512BL,Vessem,Eersel,Noord-Brabant,VBO,5.284998,51.418340
Putterstraat,49,,,5512BL,Vessem,Eersel,Noord-Brabant,VBO,5.284932,51.418315
Putterstraat,51,A,,5512BL,Vessem,Eersel,Noord-Brabant,VBO,5.284803,51.418266
Putterstraat,51,,,5512BL,Vessem,Eersel,Noord-Brabant,VBO,5.284862,51.418288
Putterstraat,53,,,5512BL,Vessem,Eersel,Noord-Brabant,VBO,5.284544,51.418145
Putterstraat,55,,,5512BL,Vessem,Eersel,Noord-Brabant,VBO,5.284591,51.418091
Putterstraat,57,,,5512BL,Vessem,Eersel,Noord-Brabant,VBO,5.284564,51.417949
Putterstraat,59,,,5512BL,Vessem,Eersel,Noord-Brabant,VBO,5.284560,51.417896
Putterstraat,61,,,5512BL,Vessem,Eersel,Noord-Brabant,VBO,5.284645,51.417648
Putterstraat,2,,,5512BM,Vessem,Eersel,Noord-Brabant,VBO,5.285991,51.420867
Putterstraat,4,a,,5512BM,Vessem,Eersel,Noord-Brabant,VBO,5.285530,51.420617
Putterstraat,4,,,5512BM,Vessem,Eersel,Noord-Brabant,VBO,5.285992,51.420719
Putterstraat,8,A,,5512BM,Vessem,Eersel,Noord-Brabant,VBO,5.285837,51.420410
Putterstraat,8,,,5512BM,Vessem,Eersel,Noord-Brabant,VBO,5.286075,51.420410
Putterstraat,10,A,,5512BM,Vessem,Eersel,Noord-Brabant,VBO,5.286093,51.420152
Putterstraat,10,b,,5512BM,Vessem,Eersel,Noord-Brabant,VBO,5.285704,51.420086
Putterstraat,10,,,5512BM,Vessem,Eersel,Noord-Brabant,VBO,5.286141,51.420269
Putterstraat,12,,,5512BM,Vessem,Eersel,Noord-Brabant,VBO,5.286027,51.419954
Putterstraat,14,a,,5512BM,Vessem,Eersel,Noord-Brabant,VBO,5.285973,51.419847
Putterstraat,14,,,5512BM,Vessem,Eersel,Noord-Brabant,VBO,5.285791,51.419709
Putterstraat,16,A,,5512BM,Vessem,Eersel,Noord-Brabant,VBO,5.285960,51.419503
Putterstraat,16,,,5512BM,Vessem,Eersel,Noord-Brabant,VBO,5.285999,51.419595
Putterstraat,18,A,,5512BM,Vessem,Eersel,Noord-Brabant,VBO,5.285863,51.419336
Putterstraat,18,,,5512BM,Vessem,Eersel,Noord-Brabant,VBO,5.285923,51.419455
Putterstraat,20,,,5512BM,Vessem,Eersel,Noord-Brabant,VBO,5.285304,51.418810
Putterstraat,22,,,5512BM,Vessem,Eersel,Noord-Brabant,VBO,5.285259,51.418769
Putterstraat,24,,,5512BM,Vessem,Eersel,Noord-Brabant,VBO,5.285214,51.418729
Putterstraat,26,,,5512BM,Vessem,Eersel,Noord-Brabant,VBO,5.285078,51.418637
Putterstraat,28,,,5512BM,Vessem,Eersel,Noord-Brabant,VBO,5.285012,51.418610
Putterstraat,30,,,5512BM,Vessem,Eersel,Noord-Brabant,VBO,5.284946,51.418584
Putterstraat,32,,,5512BM,Vessem,Eersel,Noord-Brabant,VBO,5.284796,51.418523
Putterstraat,34,,,5512BM,Vessem,Eersel,Noord-Brabant,VBO,5.284735,51.418485
Putterstraat,36,,,5512BM,Vessem,Eersel,Noord-Brabant,VBO,5.284610,51.418438
Putterstraat,38,,,5512BM,Vessem,Eersel,Noord-Brabant,VBO,5.284553,51.418416
Putterstraat,40,,,5512BM,Vessem,Eersel,Noord-Brabant,VBO,5.284495,51.418394
Putterstraat,42,,,5512BM,Vessem,Eersel,Noord-Brabant,VBO,5.284438,51.418372
Putterstraat,44,,,5512BM,Vessem,Eersel,Noord-Brabant,VBO,5.284380,51.418350
Putterstraat,46,,,5512BM,Vessem,Eersel,Noord-Brabant,VBO,5.284217,51.418064
Putterstraat,48,,,5512BM,Vessem,Eersel,Noord-Brabant,VBO,5.284213,51.417953
Putterstraat,50,,,5512BM,Vessem,Eersel,Noord-Brabant,VBO,5.284218,51.417897
Putterstraat,52,,,5512BM,Vessem,Eersel,Noord-Brabant,VBO,5.284227,51.417800
Putterstraat,54,,,5512BM,Vessem,Eersel,Noord-Brabant,VBO,5.284280,51.417685
Putterstraat,58,,,5512BM,Vessem,Eersel,Noord-Brabant,VBO,5.284424,51.417297
Molenberg,23,,,5512BN,Vessem,Eersel,Noord-Brabant,VBO,5.288741,51.420995
Molenberg,25,,,5512BN,Vessem,Eersel,Noord-Brabant,VBO,5.288930,51.420902
Molenberg,27,,,5512BN,Vessem,Eersel,Noord-Brabant,VBO,5.289237,51.420806
Molenberg,29,,,5512BN,Vessem,Eersel,Noord-Brabant,VBO,5.289147,51.420769
Molenberg,32,,,5512BN,Vessem,Eersel,Noord-Brabant,VBO,5.288468,51.420774
Molenberg,34,,,5512BN,Vessem,Eersel,Noord-Brabant,VBO,5.288364,51.420644
Molenberg,36,,,5512BN,Vessem,Eersel,Noord-Brabant,VBO,5.288436,51.420520
Molenberg,38,,,5512BN,Vessem,Eersel,Noord-Brabant,VBO,5.288484,51.420475
Molenberg,40,,,5512BN,Vessem,Eersel,Noord-Brabant,VBO,5.288595,51.420268
Molenberg,42,,,5512BN,Vessem,Eersel,Noord-Brabant,VBO,5.288780,51.420296
Molenberg,44,,,5512BN,Vessem,Eersel,Noord-Brabant,VBO,5.288996,51.420388
Molenberg,46,,,5512BN,Vessem,Eersel,Noord-Brabant,VBO,5.289049,51.420439
Pastorij,3,,,5512BP,Vessem,Eersel,Noord-Brabant,VBO,5.285154,51.422532
Pastorij,4,,,5512BP,Vessem,Eersel,Noord-Brabant,VBO,5.283889,51.422749
Pastorij,5,,,5512BP,Vessem,Eersel,Noord-Brabant,VBO,5.284956,51.422515
Pastorij,6,,,5512BP,Vessem,Eersel,Noord-Brabant,VBO,5.283890,51.422781
Pastorij,7,,,5512BP,Vessem,Eersel,Noord-Brabant,VBO,5.284726,51.422490
Pastorij,8,,,5512BP,Vessem,Eersel,Noord-Brabant,VBO,5.283797,51.422765
Pastorij,9,,,5512BP,Vessem,Eersel,Noord-Brabant,VBO,5.284636,51.422492
Pastorij,10,,,5512BP,Vessem,Eersel,Noord-Brabant,VBO,5.283633,51.422754
Pastorij,11,,,5512BP,Vessem,Eersel,Noord-Brabant,VBO,5.284277,51.422533
Pastorij,12,,,5512BP,Vessem,Eersel,Noord-Brabant,VBO,5.283547,51.422756
Pastorij,13,,,5512BP,Vessem,Eersel,Noord-Brabant,VBO,5.284278,51.422511
Pastorij,15,,,5512BP,Vessem,Eersel,Noord-Brabant,VBO,5.284196,51.422535
Pastorij,17,,,5512BP,Vessem,Eersel,Noord-Brabant,VBO,5.284107,51.422537
Pastorij,19,,,5512BP,Vessem,Eersel,Noord-Brabant,VBO,5.283907,51.422507
Pastorij,21,,,5512BP,Vessem,Eersel,Noord-Brabant,VBO,5.283824,51.422487
Pastorij,23,,,5512BP,Vessem,Eersel,Noord-Brabant,VBO,5.283641,51.422443
Pastorij,25,,,5512BP,Vessem,Eersel,Noord-Brabant,VBO,5.283561,51.422424
Domineeshof,1,,,5512BR,Vessem,Eersel,Noord-Brabant,VBO,5.284614,51.422231
Domineeshof,2,a,traf,5512BR,Vessem,Eersel,Noord-Brabant,VBO,5.284325,51.422431
Domineeshof,2,,,5512BR,Vessem,Eersel,Noord-Brabant,VBO,5.284252,51.422259
Domineeshof,3,,,5512BR,Vessem,Eersel,Noord-Brabant,VBO,5.284522,51.422119
Domineeshof,4,,,5512BR,Vessem,Eersel,Noord-Brabant,VBO,5.284177,51.422221
Domineeshof,5,,,5512BR,Vessem,Eersel,Noord-Brabant,VBO,5.284314,51.422055
Domineeshof,6,,,5512BR,Vessem,Eersel,Noord-Brabant,VBO,5.284160,51.422241
Domineeshof,7,,,5512BR,Vessem,Eersel,Noord-Brabant,VBO,5.284239,51.422030
Domineeshof,8,,,5512BR,Vessem,Eersel,Noord-Brabant,VBO,5.283981,51.422183
Domineeshof,9,,,5512BR,Vessem,Eersel,Noord-Brabant,VBO,5.283969,51.421973
Domineeshof,10,,,5512BR,Vessem,Eersel,Noord-Brabant,VBO,5.283889,51.422182
Domineeshof,11,,,5512BR,Vessem,Eersel,Noord-Brabant,VBO,5.283888,51.421972
Domineeshof,13,,,5512BR,Vessem,Eersel,Noord-Brabant,VBO,5.283691,51.421951
Domineeshof,15,,,5512BR,Vessem,Eersel,Noord-Brabant,VBO,5.283624,51.421948
Garshof,1,a,traf,5512BS,Vessem,Eersel,Noord-Brabant,VBO,5.284625,51.417796
Garshof,1,,,5512BS,Vessem,Eersel,Noord-Brabant,VBO,5.285001,51.417937
Garshof,3,,,5512BS,Vessem,Eersel,Noord-Brabant,VBO,5.285054,51.417989
Garshof,5,,,5512BS,Vessem,Eersel,Noord-Brabant,VBO,5.285222,51.418022
Garshof,7,,,5512BS,Vessem,Eersel,Noord-Brabant,VBO,5.285298,51.418051
Garshof,9,,,5512BS,Vessem,Eersel,Noord-Brabant,VBO,5.285501,51.418138
Hooge akker,1,,,5512BT,Vessem,Eersel,Noord-Brabant,VBO,5.285526,51.418985
Hooge akker,3,,,5512BT,Vessem,Eersel,Noord-Brabant,VBO,5.285465,51.419012
Hooge akker,5,,,5512BT,Vessem,Eersel,Noord-Brabant,VBO,5.285401,51.419041
Hooge akker,7,,,5512BT,Vessem,Eersel,Noord-Brabant,VBO,5.285181,51.419049
Hooge akker,9,,,5512BT,Vessem,Eersel,Noord-Brabant,VBO,5.285099,51.419038
Hooge akker,11,,,5512BT,Vessem,Eersel,Noord-Brabant,VBO,5.285023,51.419029
Hooge akker,13,,,5512BT,Vessem,Eersel,Noord-Brabant,VBO,5.284821,51.419003
Hooge akker,15,,,5512BT,Vessem,Eersel,Noord-Brabant,VBO,5.284734,51.418992
Hooge akker,17,,,5512BT,Vessem,Eersel,Noord-Brabant,VBO,5.284398,51.418941
Hooge akker,19,,,5512BT,Vessem,Eersel,Noord-Brabant,VBO,5.284459,51.418949
Hooge akker,21,,,5512BT,Vessem,Eersel,Noord-Brabant,VBO,5.284411,51.418890
Hooge akker,23,,,5512BT,Vessem,Eersel,Noord-Brabant,VBO,5.284467,51.418897
Hooge akker,25,,,5512BT,Vessem,Eersel,Noord-Brabant,VBO,5.284429,51.418840
Hooge akker,27,,,5512BT,Vessem,Eersel,Noord-Brabant,VBO,5.284332,51.418712
Hooge akker,29,,,5512BT,Vessem,Eersel,Noord-Brabant,VBO,5.284253,51.418691
Hooge akker,31,,,5512BT,Vessem,Eersel,Noord-Brabant,VBO,5.284172,51.418670
Hooge akker,2,,,5512BV,Vessem,Eersel,Noord-Brabant,VBO,5.285597,51.419300
Hooge akker,4,,,5512BV,Vessem,Eersel,Noord-Brabant,VBO,5.285503,51.419288
Hooge akker,6,,,5512BV,Vessem,Eersel,Noord-Brabant,VBO,5.285488,51.419337
Hooge akker,8,,,5512BV,Vessem,Eersel,Noord-Brabant,VBO,5.285413,51.419277
Hooge akker,10,,,5512BV,Vessem,Eersel,Noord-Brabant,VBO,5.285204,51.419250
Hooge akker,12,,,5512BV,Vessem,Eersel,Noord-Brabant,VBO,5.285120,51.419240
Hooge akker,14,,,5512BV,Vessem,Eersel,Noord-Brabant,VBO,5.284921,51.419215
Hooge akker,16,,,5512BV,Vessem,Eersel,Noord-Brabant,VBO,5.284838,51.419204
Hooge akker,18,,,5512BV,Vessem,Eersel,Noord-Brabant,VBO,5.284682,51.419185
Hooge akker,20,,,5512BV,Vessem,Eersel,Noord-Brabant,VBO,5.284595,51.419174
Hooge akker,22,,,5512BV,Vessem,Eersel,Noord-Brabant,VBO,5.284430,51.419153
Hooge akker,24,,,5512BV,Vessem,Eersel,Noord-Brabant,VBO,5.284108,51.419082
Hooge akker,26,,,5512BV,Vessem,Eersel,Noord-Brabant,VBO,5.283902,51.418970
Hooge akker,28,,,5512BV,Vessem,Eersel,Noord-Brabant,VBO,5.283783,51.418885
Hooge akker,40,,,5512BV,Vessem,Eersel,Noord-Brabant,VBO,5.283809,51.418699
Hooge akker,42,,,5512BV,Vessem,Eersel,Noord-Brabant,VBO,5.283865,51.418582
Hooge akker,44,,,5512BV,Vessem,Eersel,Noord-Brabant,VBO,5.283924,51.418485
Hooge akker,46,,,5512BV,Vessem,Eersel,Noord-Brabant,VBO,5.283960,51.418426
Hooge akker,52,,,5512BV,Vessem,Eersel,Noord-Brabant,VBO,5.284088,51.418237
Predikant,1,,,5512BW,Vessem,Eersel,Noord-Brabant,VBO,5.283301,51.421844
Predikant,2,,,5512BW,Vessem,Eersel,Noord-Brabant,VBO,5.283558,51.422186
Predikant,3,,,5512BW,Vessem,Eersel,Noord-Brabant,VBO,5.283261,51.422050
Predikant,4,,,5512BW,Vessem,Eersel,Noord-Brabant,VBO,5.283352,51.422896
Predikant,5,,,5512BW,Vessem,Eersel,Noord-Brabant,VBO,5.283206,51.422162
Predikant,6,,,5512BW,Vessem,Eersel,Noord-Brabant,VBO,5.283307,51.422942
Predikant,7,,,5512BW,Vessem,Eersel,Noord-Brabant,VBO,5.283140,51.422298
Predikant,8,,,5512BW,Vessem,Eersel,Noord-Brabant,VBO,5.283217,51.423034
Predikant,9,,,5512BW,Vessem,Eersel,Noord-Brabant,VBO,5.283147,51.422617
Predikant,10,,,5512BW,Vessem,Eersel,Noord-Brabant,VBO,5.283105,51.423169
Predikant,11,,,5512BW,Vessem,Eersel,Noord-Brabant,VBO,5.283080,51.422760
Predikant,12,,,5512BW,Vessem,Eersel,Noord-Brabant,VBO,5.283040,51.423304
Predikant,13,,,5512BW,Vessem,Eersel,Noord-Brabant,VBO,5.282984,51.422859
Predikant,14,,,5512BW,Vessem,Eersel,Noord-Brabant,VBO,5.282942,51.423459
Predikant,15,,,5512BW,Vessem,Eersel,Noord-Brabant,VBO,5.282883,51.422963
Predikant,16,,,5512BW,Vessem,Eersel,Noord-Brabant,VBO,5.282798,51.423725
Predikant,17,,,5512BW,Vessem,Eersel,Noord-Brabant,VBO,5.282798,51.423067
Predikant,18,,,5512BW,Vessem,Eersel,Noord-Brabant,VBO,5.282893,51.423757
Predikant,19,,,5512BW,Vessem,Eersel,Noord-Brabant,VBO,5.282716,51.423177
Predikant,20,,,5512BW,Vessem,Eersel,Noord-Brabant,VBO,5.283050,51.423795
Predikant,21,,,5512BW,Vessem,Eersel,Noord-Brabant,VBO,5.282640,51.423326
Predikant,22,,,5512BW,Vessem,Eersel,Noord-Brabant,VBO,5.283127,51.423813
Predikant,23,,,5512BW,Vessem,Eersel,Noord-Brabant,VBO,5.282473,51.423842
Predikant,24,,,5512BW,Vessem,Eersel,Noord-Brabant,VBO,5.283204,51.423832
Predikant,25,,,5512BW,Vessem,Eersel,Noord-Brabant,VBO,5.282619,51.423927
Predikant,26,,,5512BW,Vessem,Eersel,Noord-Brabant,VBO,5.283277,51.423850
Predikant,27,,,5512BW,Vessem,Eersel,Noord-Brabant,VBO,5.282774,51.424017
Predikant,28,,,5512BW,Vessem,Eersel,Noord-Brabant,VBO,5.283303,51.423833
Predikant,31,,,5512BW,Vessem,Eersel,Noord-Brabant,VBO,5.283219,51.424237
Predikant,32,,,5512BW,Vessem,Eersel,Noord-Brabant,VBO,5.283768,51.424240
Predikant,33,,,5512BW,Vessem,Eersel,Noord-Brabant,VBO,5.283387,51.424325
Predikant,35,,,5512BW,Vessem,Eersel,Noord-Brabant,VBO,5.283517,51.424403
Costerij,2,,,5512BX,Vessem,Eersel,Noord-Brabant,VBO,5.284234,51.423055
Costerij,3,,,5512BX,Vessem,Eersel,Noord-Brabant,VBO,5.283914,51.423004
Costerij,4,,,5512BX,Vessem,Eersel,Noord-Brabant,VBO,5.284208,51.423106
Costerij,5,,,5512BX,Vessem,Eersel,Noord-Brabant,VBO,5.283889,51.423052
Costerij,6,,,5512BX,Vessem,Eersel,Noord-Brabant,VBO,5.284153,51.423211
Costerij,7,,,5512BX,Vessem,Eersel,Noord-Brabant,VBO,5.283823,51.423150
Costerij,8,,,5512BX,Vessem,Eersel,Noord-Brabant,VBO,5.284107,51.423336
Costerij,9,,,5512BX,Vessem,Eersel,Noord-Brabant,VBO,5.283797,51.423200
Costerij,10,,,5512BX,Vessem,Eersel,Noord-Brabant,VBO,5.284030,51.423456
Costerij,11,,,5512BX,Vessem,Eersel,Noord-Brabant,VBO,5.283739,51.423304
Costerij,12,,,5512BX,Vessem,Eersel,Noord-Brabant,VBO,5.283934,51.423626
Costerij,13,,,5512BX,Vessem,Eersel,Noord-Brabant,VBO,5.283710,51.423351
Costerij,14,,,5512BX,Vessem,Eersel,Noord-Brabant,VBO,5.283776,51.423823
Costerij,15,,,5512BX,Vessem,Eersel,Noord-Brabant,VBO,5.283658,51.423459
Costerij,16,,,5512BX,Vessem,Eersel,Noord-Brabant,VBO,5.283719,51.423864
Costerij,17,,,5512BX,Vessem,Eersel,Noord-Brabant,VBO,5.283578,51.423588
Costerij,18,,,5512BX,Vessem,Eersel,Noord-Brabant,VBO,5.283584,51.423933
Costerij,20,,,5512BX,Vessem,Eersel,Noord-Brabant,VBO,5.283525,51.423976
Costerij,22,,,5512BX,Vessem,Eersel,Noord-Brabant,VBO,5.283376,51.424082
Hemelrijk,1,a,,5512BZ,Vessem,Eersel,Noord-Brabant,VBO,5.282373,51.424191
Hemelrijk,1,,,5512BZ,Vessem,Eersel,Noord-Brabant,VBO,5.282455,51.424268
Hemelrijk,2,,,5512BZ,Vessem,Eersel,Noord-Brabant,VBO,5.282664,51.424469
Hemelrijk,3,,,5512BZ,Vessem,Eersel,Noord-Brabant,VBO,5.282318,51.424378
Hemelrijk,4,,,5512BZ,Vessem,Eersel,Noord-Brabant,VBO,5.282648,51.424518
Hemelrijk,5,,,5512BZ,Vessem,Eersel,Noord-Brabant,VBO,5.282173,51.424487
Hemelrijk,6,,,5512BZ,Vessem,Eersel,Noord-Brabant,VBO,5.282619,51.424563
Hemelrijk,7,,,5512BZ,Vessem,Eersel,Noord-Brabant,VBO,5.282053,51.424592
Hemelrijk,8,,,5512BZ,Vessem,Eersel,Noord-Brabant,VBO,5.282575,51.424605
Hemelrijk,9,,,5512BZ,Vessem,Eersel,Noord-Brabant,VBO,5.281576,51.424865
Hemelrijk,10,,,5512BZ,Vessem,Eersel,Noord-Brabant,VBO,5.282469,51.424730
Hemelrijk,11,,,5512BZ,Vessem,Eersel,Noord-Brabant,VBO,5.281665,51.424886
Hemelrijk,12,,,5512BZ,Vessem,Eersel,Noord-Brabant,VBO,5.282486,51.424814
Hemelrijk,13,,,5512BZ,Vessem,Eersel,Noord-Brabant,VBO,5.281852,51.424932
Hemelrijk,14,,,5512BZ,Vessem,Eersel,Noord-Brabant,VBO,5.282536,51.424731
Hemelrijk,15,,,5512BZ,Vessem,Eersel,Noord-Brabant,VBO,5.281946,51.424955
Hemelrijk,16,,,5512BZ,Vessem,Eersel,Noord-Brabant,VBO,5.282543,51.424798
Hemelrijk,17,,,5512BZ,Vessem,Eersel,Noord-Brabant,VBO,5.282148,51.424971
Hemelrijk,19,,,5512BZ,Vessem,Eersel,Noord-Brabant,VBO,5.282235,51.425010
Hemelrijk,20,,,5512BZ,Vessem,Eersel,Noord-Brabant,VBO,5.282670,51.424944
Hemelrijk,21,,,5512BZ,Vessem,Eersel,Noord-Brabant,VBO,5.282288,51.425047
Hemelrijk,22,,,5512BZ,Vessem,Eersel,Noord-Brabant,VBO,5.282715,51.424990
Kuilenhurk,1,a,,5512CA,Vessem,Eersel,Noord-Brabant,VBO,5.289499,51.420216
Kuilenhurk,1,,,5512CA,Vessem,Eersel,Noord-Brabant,VBO,5.289685,51.420252
Kuilenhurk,3,,,5512CA,Vessem,Eersel,Noord-Brabant,VBO,5.289832,51.420441
Kuilenhurk,5,,,5512CA,Vessem,Eersel,Noord-Brabant,VBO,5.289891,51.420528
Kuilenhurk,7,,,5512CA,Vessem,Eersel,Noord-Brabant,VBO,5.289953,51.420757
Kuilenhurk,9,,,5512CA,Vessem,Eersel,Noord-Brabant,VBO,5.290121,51.420976
Kuilenhurk,11,,,5512CA,Vessem,Eersel,Noord-Brabant,VBO,5.290291,51.421225
Kuilenhurk,13,,,5512CA,Vessem,Eersel,Noord-Brabant,VBO,5.290435,51.421377
Kuilenhurk,15,,,5512CA,Vessem,Eersel,Noord-Brabant,VBO,5.290545,51.421491
Kuilenhurk,17,,,5512CA,Vessem,Eersel,Noord-Brabant,VBO,5.290601,51.421549
Kuilenhurk,19,,,5512CA,Vessem,Eersel,Noord-Brabant,VBO,5.290725,51.421677
Kuilenhurk,21,,,5512CA,Vessem,Eersel,Noord-Brabant,VBO,5.291010,51.422077
Kuilenhurk,23,,,5512CA,Vessem,Eersel,Noord-Brabant,VBO,5.291112,51.422182
Kuilenhurk,25,A,,5512CA,Vessem,Eersel,Noord-Brabant,VBO,5.291673,51.422766
Kuilenhurk,25,,,5512CA,Vessem,Eersel,Noord-Brabant,VBO,5.291476,51.422564
Kuilenhurk,27,A,,5512CA,Vessem,Eersel,Noord-Brabant,VBO,5.291876,51.423498
Kuilenhurk,27,B,,5512CA,Vessem,Eersel,Noord-Brabant,VBO,5.291876,51.423207
Kuilenhurk,27,,,5512CA,Vessem,Eersel,Noord-Brabant,VBO,5.291810,51.422914
Kuilenhurk,29,,,5512CA,Vessem,Eersel,Noord-Brabant,VBO,5.291866,51.423612
Kuilenhurk,31,a,,5512CA,Vessem,Eersel,Noord-Brabant,VBO,5.291654,51.424410
Kuilenhurk,31,,,5512CA,Vessem,Eersel,Noord-Brabant,VBO,5.291766,51.424121
Kuilenhurk,33,A,,5512CA,Vessem,Eersel,Noord-Brabant,VBO,5.291538,51.424806
Kuilenhurk,33,,,5512CA,Vessem,Eersel,Noord-Brabant,VBO,5.291614,51.424505
Kuilenhurk,35,A,,5512CA,Vessem,Eersel,Noord-Brabant,VBO,5.290817,51.424934
Kuilenhurk,35,b,,5512CA,Vessem,Eersel,Noord-Brabant,VBO,5.291248,51.425322
Kuilenhurk,35,,,5512CA,Vessem,Eersel,Noord-Brabant,VBO,5.291564,51.425097
Kuilenhurk,37,A,,5512CA,Vessem,Eersel,Noord-Brabant,VBO,5.291353,51.425544
Kuilenhurk,37,B,,5512CA,Vessem,Eersel,Noord-Brabant,VBO,5.291093,51.426050
Kuilenhurk,37,c,,5512CA,Vessem,Eersel,Noord-Brabant,VBO,5.290815,51.426183
Kuilenhurk,37,,,5512CA,Vessem,Eersel,Noord-Brabant,VBO,5.291382,51.425462
Kuilenhurk,39,,,5512CA,Vessem,Eersel,Noord-Brabant,VBO,5.290132,51.427556
Kuilenhurk,41,,,5512CA,Vessem,Eersel,Noord-Brabant,VBO,5.289774,51.427852
Kuilenhurk,4,A,,5512CB,Vessem,Eersel,Noord-Brabant,VBO,5.290277,51.420620
Kuilenhurk,4,b,,5512CB,Vessem,Eersel,Noord-Brabant,VBO,5.290343,51.420726
Kuilenhurk,4,,,5512CB,Vessem,Eersel,Noord-Brabant,VBO,5.290238,51.420566
Kuilenhurk,6,A,,5512CB,Vessem,Eersel,Noord-Brabant,VBO,5.291123,51.421552
Kuilenhurk,6,B,,5512CB,Vessem,Eersel,Noord-Brabant,VBO,5.291428,51.421684
Kuilenhurk,6,,,5512CB,Vessem,Eersel,Noord-Brabant,VBO,5.290536,51.420854
Kuilenhurk,8,A,,5512CB,Vessem,Eersel,Noord-Brabant,VBO,5.291807,51.422123
Kuilenhurk,8,B,,5512CB,Vessem,Eersel,Noord-Brabant,VBO,5.291935,51.422298
Kuilenhurk,8,C,,5512CB,Vessem,Eersel,Noord-Brabant,VBO,5.291973,51.422414
Kuilenhurk,8,,,5512CB,Vessem,Eersel,Noord-Brabant,VBO,5.291569,51.421763
Kuilenhurk,10,A,,5512CB,Vessem,Eersel,Noord-Brabant,VBO,5.292087,51.422723
Kuilenhurk,10,,,5512CB,Vessem,Eersel,Noord-Brabant,VBO,5.291979,51.422625
Kuilenhurk,12,a,,5512CB,Vessem,Eersel,Noord-Brabant,VBO,5.292138,51.423040
Kuilenhurk,12,b,,5512CB,Vessem,Eersel,Noord-Brabant,VBO,5.292526,51.423139
Kuilenhurk,12,,,5512CB,Vessem,Eersel,Noord-Brabant,VBO,5.292521,51.423031
Kuilenhurk,14,,,5512CB,Vessem,Eersel,Noord-Brabant,VBO,5.293835,51.422896
Kuilenhurk,16,a,,5512CB,Vessem,Eersel,Noord-Brabant,VBO,5.292366,51.423817
Kuilenhurk,16,,,5512CB,Vessem,Eersel,Noord-Brabant,VBO,5.293506,51.423011
Kuilenhurk,20,,,5512CB,Vessem,Eersel,Noord-Brabant,VBO,5.292231,51.424106
Kuilenhurk,22,a,,5512CB,Vessem,Eersel,Noord-Brabant,VBO,5.292655,51.424785
Kuilenhurk,22,b,,5512CB,Vessem,Eersel,Noord-Brabant,VBO,5.292123,51.424675
Kuilenhurk,22,B,,5512CB,Vessem,Eersel,Noord-Brabant,VBO,5.292111,51.424694
Kuilenhurk,22,,,5512CB,Vessem,Eersel,Noord-Brabant,VBO,5.292203,51.424298
Kuilenhurk,24,,,5512CB,Vessem,Eersel,Noord-Brabant,VBO,5.292038,51.425021
Kuilenhurk,26,A,,5512CB,Vessem,Eersel,Noord-Brabant,VBO,5.291795,51.425804
Kuilenhurk,26,B,,5512CB,Vessem,Eersel,Noord-Brabant,VBO,5.292060,51.425976
Kuilenhurk,26,C,,5512CB,Vessem,Eersel,Noord-Brabant,VBO,5.292458,51.425902
Kuilenhurk,26,,,5512CB,Vessem,Eersel,Noord-Brabant,VBO,5.291829,51.425625
Kuilenhurk,28,,,5512CB,Vessem,Eersel,Noord-Brabant,VBO,5.290672,51.427587
Kuilenhurk,30,A,,5512CB,Vessem,Eersel,Noord-Brabant,VBO,5.290571,51.427970
Kuilenhurk,30,,,5512CB,Vessem,Eersel,Noord-Brabant,VBO,5.290275,51.427934
Kuilenhurk,32,a,,5512CB,Vessem,Eersel,Noord-Brabant,VBO,5.287292,51.432623
Braak,1,,,5512CC,Vessem,Eersel,Noord-Brabant,VBO,5.285986,51.424423
Braak,2,,,5512CC,Vessem,Eersel,Noord-Brabant,VBO,5.286734,51.424181
Braak,3,b,,5512CC,Vessem,Eersel,Noord-Brabant,VBO,5.286656,51.424959
Braak,3,c,,5512CC,Vessem,Eersel,Noord-Brabant,VBO,5.286498,51.425103
Braak,3,d,,5512CC,Vessem,Eersel,Noord-Brabant,VBO,5.286411,51.425220
Braak,3,,,5512CC,Vessem,Eersel,Noord-Brabant,VBO,5.286557,51.424662
Braak,4,,,5512CC,Vessem,Eersel,Noord-Brabant,VBO,5.287710,51.424627
Braak,7,a,,5512CC,Vessem,Eersel,Noord-Brabant,VBO,5.289269,51.425523
Braak,7,b,,5512CC,Vessem,Eersel,Noord-Brabant,VBO,5.289099,51.425716
Braak,7,,,5512CC,Vessem,Eersel,Noord-Brabant,VBO,5.289173,51.425492
Braak,8,,,5512CC,Vessem,Eersel,Noord-Brabant,VBO,5.289015,51.425034
Braak,9,,,5512CC,Vessem,Eersel,Noord-Brabant,VBO,5.290121,51.425821
Braak,11,,,5512CC,Vessem,Eersel,Noord-Brabant,VBO,5.290223,51.425925
Rietven,1,,,5512CE,Vessem,Eersel,Noord-Brabant,VBO,5.294733,51.429746
Rietven,3,,,5512CE,Vessem,Eersel,Noord-Brabant,VBO,5.295244,51.429712
De Hoefse Weg,1,a,,5512CH,Vessem,Eersel,Noord-Brabant,VBO,5.292452,51.424110
De Hoefse Weg,1,,,5512CH,Vessem,Eersel,Noord-Brabant,VBO,5.293976,51.424314
De Hoefse Weg,2,,,5512CH,Vessem,Eersel,Noord-Brabant,VBO,5.295652,51.424987
De Hoefse Weg,3,,,5512CH,Vessem,Eersel,Noord-Brabant,VBO,5.294881,51.424395
De Hoefse Weg,4,,,5512CH,Vessem,Eersel,Noord-Brabant,VBO,5.295512,51.425488
De Hoefse Weg,5,,,5512CH,Vessem,Eersel,Noord-Brabant,VBO,5.295426,51.424480
De Hoefse Weg,6,,,5512CH,Vessem,Eersel,Noord-Brabant,VBO,5.295512,51.425578
De Hoefse Weg,7,a,,5512CH,Vessem,Eersel,Noord-Brabant,VBO,5.294794,51.425038
De Hoefse Weg,7,,,5512CH,Vessem,Eersel,Noord-Brabant,VBO,5.295047,51.425103
De Hoefse Weg,8,,,5512CH,Vessem,Eersel,Noord-Brabant,VBO,5.295271,51.425965
De Hoefse Weg,9,a,,5512CH,Vessem,Eersel,Noord-Brabant,VBO,5.294894,51.425487
De Hoefse Weg,9,,,5512CH,Vessem,Eersel,Noord-Brabant,VBO,5.294922,51.425415
De Hoefse Weg,10,,,5512CH,Vessem,Eersel,Noord-Brabant,VBO,5.294935,51.426285
De Hoefse Weg,11,,,5512CH,Vessem,Eersel,Noord-Brabant,VBO,5.294678,51.425478
De Hoefse Weg,12,,,5512CH,Vessem,Eersel,Noord-Brabant,VBO,5.293411,51.426034
De Hoefse Weg,13,,,5512CH,Vessem,Eersel,Noord-Brabant,VBO,5.294876,51.425841
De Hoefse Weg,14,,,5512CH,Vessem,Eersel,Noord-Brabant,VBO,5.293398,51.425819
De Hoefse Weg,15,,,5512CH,Vessem,Eersel,Noord-Brabant,VBO,5.294691,51.426089
De Hoefse Weg,16,,,5512CH,Vessem,Eersel,Noord-Brabant,VBO,5.293413,51.425748
De Hoefse Weg,17,a,,5512CH,Vessem,Eersel,Noord-Brabant,VBO,5.294354,51.426139
De Hoefse Weg,17,,,5512CH,Vessem,Eersel,Noord-Brabant,VBO,5.294477,51.426195
De Hoefse Weg,18,,,5512CH,Vessem,Eersel,Noord-Brabant,VBO,5.293513,51.425668
De Hoefse Weg,19,,,5512CH,Vessem,Eersel,Noord-Brabant,VBO,5.294186,51.426138
De Hoefse Weg,20,,,5512CH,Vessem,Eersel,Noord-Brabant,VBO,5.293878,51.425388
De Hoefse Weg,21,,,5512CH,Vessem,Eersel,Noord-Brabant,VBO,5.293785,51.426107
De Hoefse Weg,22,,,5512CH,Vessem,Eersel,Noord-Brabant,VBO,5.294013,51.425414
De Hoefse Weg,23,,,5512CH,Vessem,Eersel,Noord-Brabant,VBO,5.293836,51.425810
De Hoefse Weg,25,,,5512CH,Vessem,Eersel,Noord-Brabant,VBO,5.293970,51.425628
De Hoefse Weg,27,,,5512CH,Vessem,Eersel,Noord-Brabant,VBO,5.294375,51.425712
D'n Grote Aard,1,,,5512CK,Vessem,Eersel,Noord-Brabant,VBO,5.292661,51.422741
D'n Grote Aard,2,,,5512CK,Vessem,Eersel,Noord-Brabant,VBO,5.292546,51.423573
D'n Grote Aard,3,,,5512CK,Vessem,Eersel,Noord-Brabant,VBO,5.292855,51.422659
D'n Grote Aard,4,,,5512CK,Vessem,Eersel,Noord-Brabant,VBO,5.292703,51.423376
D'n Grote Aard,5,,,5512CK,Vessem,Eersel,Noord-Brabant,VBO,5.293013,51.422525
D'n Grote Aard,7,,,5512CK,Vessem,Eersel,Noord-Brabant,VBO,5.293121,51.422399
D'n Grote Aard,9,,,5512CK,Vessem,Eersel,Noord-Brabant,VBO,5.293290,51.422205
D'n Grote Aard,11,,,5512CK,Vessem,Eersel,Noord-Brabant,VBO,5.293037,51.421990
D'n Grote Aard,13,,,5512CK,Vessem,Eersel,Noord-Brabant,VBO,5.292788,51.421799
D'n Grote Aard,15,,,5512CK,Vessem,Eersel,Noord-Brabant,VBO,5.292554,51.421746
D'n Grote Aard,17,,,5512CK,Vessem,Eersel,Noord-Brabant,VBO,5.292351,51.421569
D'n Grote Aard,19,,,5512CK,Vessem,Eersel,Noord-Brabant,VBO,5.292457,51.421395
D'n Grote Aard,21,,,5512CK,Vessem,Eersel,Noord-Brabant,VBO,5.292689,51.421429
D'n Grote Aard,23,,,5512CK,Vessem,Eersel,Noord-Brabant,VBO,5.292922,51.421517
D'n Grote Aard,25,,,5512CK,Vessem,Eersel,Noord-Brabant,VBO,5.293140,51.421626
D'n Grote Aard,27,,,5512CK,Vessem,Eersel,Noord-Brabant,VBO,5.293321,51.421690
De Mister,1,,,5512CZ,Vessem,Eersel,Noord-Brabant,VBO,5.281915,51.423089
Driehuizen,1,a,,5512NA,Vessem,Eersel,Noord-Brabant,VBO,5.298318,51.415554
Driehuizen,1,,,5512NA,Vessem,Eersel,Noord-Brabant,VBO,5.298359,51.415666
Driehuizen,2,a,,5512NA,Vessem,Eersel,Noord-Brabant,VBO,5.297474,51.414811
Driehuizen,2,,,5512NA,Vessem,Eersel,Noord-Brabant,VBO,5.297400,51.414720
Driehuizen,3,a,,5512NA,Vessem,Eersel,Noord-Brabant,VBO,5.297389,51.413840
Driehuizen,3,,,5512NA,Vessem,Eersel,Noord-Brabant,VBO,5.297554,51.413817
Driehuizen,4,,,5512NA,Vessem,Eersel,Noord-Brabant,VBO,5.296632,51.413908
Driehuizen,5,A,,5512NA,Vessem,Eersel,Noord-Brabant,VBO,5.297767,51.413271
Driehuizen,5,,,5512NA,Vessem,Eersel,Noord-Brabant,VBO,5.297790,51.413449
Driehuizen,7,,,5512NA,Vessem,Eersel,Noord-Brabant,VBO,5.300642,51.412566
Lille,2,,,5512NB,Vessem,Eersel,Noord-Brabant,VBO,5.302164,51.420828
Lille,4,,,5512NB,Vessem,Eersel,Noord-Brabant,VBO,5.302440,51.420935
Lille,6,,,5512NB,Vessem,Eersel,Noord-Brabant,VBO,5.302763,51.420961
Lille,8,,,5512NB,Vessem,Eersel,Noord-Brabant,VBO,5.309126,51.422284
Hoogeloonseweg,2,,,5512NC,Vessem,Eersel,Noord-Brabant,VBO,5.281710,51.416526
Hoogeloonseweg,4,,traf,5512NC,Vessem,Eersel,Noord-Brabant,VBO,5.281615,51.415909
Hoogeloonseweg,6,,,5512NC,Vessem,Eersel,Noord-Brabant,VBO,5.281232,51.415007
Hoogeloonseweg,8,A,,5512NC,Vessem,Eersel,Noord-Brabant,VBO,5.280753,51.414207
Hoogeloonseweg,8,,,5512NC,Vessem,Eersel,Noord-Brabant,VBO,5.280878,51.414329
Vondereind,1,,,5512ND,Vessem,Eersel,Noord-Brabant,VBO,5.281313,51.416685
Vondereind,2,,,5512ND,Vessem,Eersel,Noord-Brabant,VBO,5.281182,51.416994
Vondereind,3,,,5512ND,Vessem,Eersel,Noord-Brabant,VBO,5.276710,51.416100
Vondereind,4,A,,5512ND,Vessem,Eersel,Noord-Brabant,VBO,5.277690,51.416823
Vondereind,4,b,,5512ND,Vessem,Eersel,Noord-Brabant,VBO,5.278914,51.416764
Vondereind,4,,,5512ND,Vessem,Eersel,Noord-Brabant,VBO,5.279088,51.416798
Vondereind,5,,,5512ND,Vessem,Eersel,Noord-Brabant,VBO,5.275993,51.416200
Vondereind,6,,,5512ND,Vessem,Eersel,Noord-Brabant,VBO,5.276206,51.416553
Vondereind,7,,,5512ND,Vessem,Eersel,Noord-Brabant,VBO,5.275002,51.415812
Vondereind,8,,,5512ND,Vessem,Eersel,Noord-Brabant,VBO,5.274556,51.415881
Vondereind,9,,,5512ND,Vessem,Eersel,Noord-Brabant,VBO,5.274571,51.414832
Vondereind,10,,,5512ND,Vessem,Eersel,Noord-Brabant,VBO,5.273984,51.415071
Vondereind,11,,,5512ND,Vessem,Eersel,Noord-Brabant,VBO,5.275145,51.414352
Ellenbroek,1,a,,5512NE,Vessem,Eersel,Noord-Brabant,VBO,5.276805,51.418939
Ellenbroek,1,,,5512NE,Vessem,Eersel,Noord-Brabant,VBO,5.277079,51.418134
Ellenbroek,2,,,5512NE,Vessem,Eersel,Noord-Brabant,VBO,5.273250,51.426550
Ellenbroek,3,,,5512NE,Vessem,Eersel,Noord-Brabant,VBO,5.276137,51.418455
Ellenbroek,4,,,5512NE,Vessem,Eersel,Noord-Brabant,VBO,5.273884,51.426594
Ellenbroek,5,,,5512NE,Vessem,Eersel,Noord-Brabant,VBO,5.276654,51.420421
Ellenbroek,7,,,5512NE,Vessem,Eersel,Noord-Brabant,VBO,5.272093,51.426815
Ellenbroek,9,A,,5512NE,Vessem,Eersel,Noord-Brabant,VBO,5.272448,51.428496
Lantie,1,A,,5512NG,Vessem,Eersel,Noord-Brabant,VBO,5.269917,51.418745
Lantie,1,,,5512NG,Vessem,Eersel,Noord-Brabant,VBO,5.270235,51.418586
Lantie,2,A,,5512NG,Vessem,Eersel,Noord-Brabant,VBO,5.275707,51.417806
Lantie,2,,,5512NG,Vessem,Eersel,Noord-Brabant,VBO,5.273615,51.417823
Lantie,3,,,5512NG,Vessem,Eersel,Noord-Brabant,VBO,5.269299,51.419353
Lantie,4,,,5512NG,Vessem,Eersel,Noord-Brabant,VBO,5.271279,51.418577
Lantie,5,,,5512NG,Vessem,Eersel,Noord-Brabant,VBO,5.265580,51.420676
Lantie,6,,,5512NG,Vessem,Eersel,Noord-Brabant,VBO,5.269743,51.419536
Lantie,7,a,,5512NG,Vessem,Eersel,Noord-Brabant,VBO,5.264908,51.420864
Lantie,7,b,1,5512NG,Vessem,Eersel,Noord-Brabant,VBO,5.265717,51.421214
Lantie,7,b,10,5512NG,Vessem,Eersel,Noord-Brabant,VBO,5.264781,51.421151
Lantie,7,b,11,5512NG,Vessem,Eersel,Noord-Brabant,VBO,5.264714,51.421262
Lantie,7,b,13,5512NG,Vessem,Eersel,Noord-Brabant,VBO,5.264639,51.421514
Lantie,7,b,14,5512NG,Vessem,Eersel,Noord-Brabant,VBO,5.264485,51.421457
Lantie,7,b,15,5512NG,Vessem,Eersel,Noord-Brabant,VBO,5.264304,51.421385
Lantie,7,b,18,5512NG,Vessem,Eersel,Noord-Brabant,VBO,5.263812,51.421203
Lantie,7,b,19,5512NG,Vessem,Eersel,Noord-Brabant,VBO,5.263573,51.421076
Lantie,7,b,2,5512NG,Vessem,Eersel,Noord-Brabant,VBO,5.265566,51.421349
Lantie,7,b,20,5512NG,Vessem,Eersel,Noord-Brabant,VBO,5.263949,51.421040
Lantie,7,b,21,5512NG,Vessem,Eersel,Noord-Brabant,VBO,5.264090,51.421201
Lantie,7,b,22,5512NG,Vessem,Eersel,Noord-Brabant,VBO,5.264155,51.421079
Lantie,7,b,23,5512NG,Vessem,Eersel,Noord-Brabant,VBO,5.264291,51.420987
Lantie,7,b,24,5512NG,Vessem,Eersel,Noord-Brabant,VBO,5.264388,51.420916
Lantie,7,b,25,5512NG,Vessem,Eersel,Noord-Brabant,VBO,5.263773,51.420815
Lantie,7,b,26,5512NG,Vessem,Eersel,Noord-Brabant,VBO,5.264019,51.420664
Lantie,7,b,27,5512NG,Vessem,Eersel,Noord-Brabant,VBO,5.264190,51.420563
Lantie,7,b,28,5512NG,Vessem,Eersel,Noord-Brabant,VBO,5.264403,51.420468
Lantie,7,b,29,5512NG,Vessem,Eersel,Noord-Brabant,VBO,5.264577,51.420298
Lantie,7,b,3,5512NG,Vessem,Eersel,Noord-Brabant,VBO,5.265527,51.421473
Lantie,7,b,30,5512NG,Vessem,Eersel,Noord-Brabant,VBO,5.264704,51.420210
Lantie,7,b,31,5512NG,Vessem,Eersel,Noord-Brabant,VBO,5.264808,51.420122
Lantie,7,b,32,5512NG,Vessem,Eersel,Noord-Brabant,VBO,5.264926,51.420008
Lantie,7,b,34,5512NG,Vessem,Eersel,Noord-Brabant,VBO,5.265112,51.419912
Lantie,7,b,35,5512NG,Vessem,Eersel,Noord-Brabant,VBO,5.265251,51.420040
Lantie,7,b,36,5512NG,Vessem,Eersel,Noord-Brabant,VBO,5.265350,51.420110
Lantie,7,b,37,5512NG,Vessem,Eersel,Noord-Brabant,VBO,5.265494,51.420214
Lantie,7,b,38,5512NG,Vessem,Eersel,Noord-Brabant,VBO,5.265272,51.420282
Lantie,7,b,4,5512NG,Vessem,Eersel,Noord-Brabant,VBO,5.265377,51.421647
Lantie,7,b,40,5512NG,Vessem,Eersel,Noord-Brabant,VBO,5.264922,51.420427
Lantie,7,b,42,5512NG,Vessem,Eersel,Noord-Brabant,VBO,5.264683,51.420629
Lantie,7,b,43,5512NG,Vessem,Eersel,Noord-Brabant,VBO,5.264640,51.420729
Lantie,7,b,44,5512NG,Vessem,Eersel,Noord-Brabant,VBO,5.264494,51.420761
Lantie,7,b,45,5512NG,Vessem,Eersel,Noord-Brabant,VBO,5.264445,51.420658
Lantie,7,b,46,5512NG,Vessem,Eersel,Noord-Brabant,VBO,5.264508,51.420511
Lantie,7,b,47,5512NG,Vessem,Eersel,Noord-Brabant,VBO,5.264640,51.420419
Lantie,7,b,48,5512NG,Vessem,Eersel,Noord-Brabant,VBO,5.264786,51.420362
Lantie,7,b,49,5512NG,Vessem,Eersel,Noord-Brabant,VBO,5.264929,51.420288
Lantie,7,b,5,5512NG,Vessem,Eersel,Noord-Brabant,VBO,5.265131,51.421636
Lantie,7,b,50,5512NG,Vessem,Eersel,Noord-Brabant,VBO,5.265115,51.420176
Lantie,7,b,52,5512NG,Vessem,Eersel,Noord-Brabant,VBO,5.263831,51.420586
Lantie,7,b,53,5512NG,Vessem,Eersel,Noord-Brabant,VBO,5.262848,51.420813
Lantie,7,b,54,5512NG,Vessem,Eersel,Noord-Brabant,VBO,5.263033,51.420957
Lantie,7,b,55,5512NG,Vessem,Eersel,Noord-Brabant,VBO,5.263375,51.420339
Lantie,7,b,57,5512NG,Vessem,Eersel,Noord-Brabant,VBO,5.263588,51.421335
Lantie,7,b,58,5512NG,Vessem,Eersel,Noord-Brabant,VBO,5.263020,51.420604
Lantie,7,b,59,5512NG,Vessem,Eersel,Noord-Brabant,VBO,5.263509,51.420392
Lantie,7,b,6,5512NG,Vessem,Eersel,Noord-Brabant,VBO,5.264928,51.421586
Lantie,7,b,60,5512NG,Vessem,Eersel,Noord-Brabant,VBO,5.263407,51.420712
Lantie,7,b,61,5512NG,Vessem,Eersel,Noord-Brabant,VBO,5.264070,51.420937
Lantie,7,b,62,5512NG,Vessem,Eersel,Noord-Brabant,VBO,5.263183,51.420297
Lantie,7,b,63,5512NG,Vessem,Eersel,Noord-Brabant,VBO,5.263559,51.420824
Lantie,7,b,64,5512NG,Vessem,Eersel,Noord-Brabant,VBO,5.263215,51.421115
Lantie,7,b,65,5512NG,Vessem,Eersel,Noord-Brabant,VBO,5.263684,51.420501
Lantie,7,b,66,5512NG,Vessem,Eersel,Noord-Brabant,VBO,5.263658,51.420729
Lantie,7,b,67,5512NG,Vessem,Eersel,Noord-Brabant,VBO,5.263341,51.420924
Lantie,7,b,68,5512NG,Vessem,Eersel,Noord-Brabant,VBO,5.263167,51.420732
Lantie,7,b,69,5512NG,Vessem,Eersel,Noord-Brabant,VBO,5.262986,51.420373
Lantie,7,b,7,5512NG,Vessem,Eersel,Noord-Brabant,VBO,5.264972,51.421484
Lantie,7,b,8,5512NG,Vessem,Eersel,Noord-Brabant,VBO,5.265008,51.421332
Lantie,7,b,9,5512NG,Vessem,Eersel,Noord-Brabant,VBO,5.265033,51.421212
Lantie,7,,,5512NG,Vessem,Eersel,Noord-Brabant,VBO,5.265161,51.420951
Lantie,8,,,5512NG,Vessem,Eersel,Noord-Brabant,VBO,5.269144,51.419838
Lantie,9,A,,5512NG,Vessem,Eersel,Noord-Brabant,VBO,5.267177,51.419188
Lantie,9,B,,5512NG,Vessem,Eersel,Noord-Brabant,VBO,5.267736,51.419036
Lantie,9,,,5512NG,Vessem,Eersel,Noord-Brabant,VBO,5.268919,51.419818
Lantie,10,,,5512NG,Vessem,Eersel,Noord-Brabant,VBO,5.269013,51.420010
Lantie,12,,,5512NG,Vessem,Eersel,Noord-Brabant,VBO,5.268916,51.420231
Lantie,13,,,5512NG,Vessem,Eersel,Noord-Brabant,VBO,5.266160,51.421826
Lantie,15,,,5512NG,Vessem,Eersel,Noord-Brabant,VBO,5.264840,51.421929
Vogelenzang,2,,,5512NH,Vessem,Eersel,Noord-Brabant,VBO,5.273708,51.422471
Vogelenzang,4,,,5512NH,Vessem,Eersel,Noord-Brabant,VBO,5.272345,51.421386
Heike,1,,,5512NJ,Vessem,Eersel,Noord-Brabant,VBO,5.284510,51.424063
Heike,2,,,5512NJ,Vessem,Eersel,Noord-Brabant,VBO,5.285173,51.424312
Heike,3,,,5512NJ,Vessem,Eersel,Noord-Brabant,VBO,5.284295,51.424298
Heike,4,A,,5512NJ,Vessem,Eersel,Noord-Brabant,VBO,5.284887,51.424457
Heike,4,B,,5512NJ,Vessem,Eersel,Noord-Brabant,VBO,5.284771,51.424545
Heike,4,,,5512NJ,Vessem,Eersel,Noord-Brabant,VBO,5.284995,51.424405
Heike,5,A,,5512NJ,Vessem,Eersel,Noord-Brabant,VBO,5.283677,51.424807
Heike,5,,,5512NJ,Vessem,Eersel,Noord-Brabant,VBO,5.283799,51.424729
Heike,6,,,5512NJ,Vessem,Eersel,Noord-Brabant,VBO,5.284525,51.424679
Heike,7,A,,5512NJ,Vessem,Eersel,Noord-Brabant,VBO,5.283470,51.424938
Heike,7,b,traf,5512NJ,Vessem,Eersel,Noord-Brabant,VBO,5.283284,51.425067
Heike,7,d,,5512NJ,Vessem,Eersel,Noord-Brabant,VBO,5.283120,51.425135
Heike,7,e,,5512NJ,Vessem,Eersel,Noord-Brabant,VBO,5.282997,51.425168
Heike,7,f,,5512NJ,Vessem,Eersel,Noord-Brabant,VBO,5.282874,51.425201
Heike,7,g,,5512NJ,Vessem,Eersel,Noord-Brabant,VBO,5.282682,51.425317
Heike,7,h,,5512NJ,Vessem,Eersel,Noord-Brabant,VBO,5.282468,51.425382
Heike,7,,,5512NJ,Vessem,Eersel,Noord-Brabant,VBO,5.283555,51.424883
Heike,8,,,5512NJ,Vessem,Eersel,Noord-Brabant,VBO,5.284330,51.424858
Heike,9,,,5512NJ,Vessem,Eersel,Noord-Brabant,VBO,5.282120,51.425454
Heike,10,,,5512NJ,Vessem,Eersel,Noord-Brabant,VBO,5.283880,51.425105
Heike,12,,,5512NJ,Vessem,Eersel,Noord-Brabant,VBO,5.283523,51.425344
Heike,14,a,,5512NJ,Vessem,Eersel,Noord-Brabant,VBO,5.283421,51.425428
Heike,14,,,5512NJ,Vessem,Eersel,Noord-Brabant,VBO,5.283343,51.425496
Heike,15,A,,5512NJ,Vessem,Eersel,Noord-Brabant,VBO,5.273440,51.428472
Heike,15,,,5512NJ,Vessem,Eersel,Noord-Brabant,VBO,5.273523,51.428397
Heike,16,A,,5512NJ,Vessem,Eersel,Noord-Brabant,VBO,5.280484,51.426127
Heike,16,,,5512NJ,Vessem,Eersel,Noord-Brabant,VBO,5.280352,51.426152
Heike,18,,,5512NJ,Vessem,Eersel,Noord-Brabant,VBO,5.278363,51.426755
Heike,20,,,5512NJ,Vessem,Eersel,Noord-Brabant,VBO,5.277880,51.426957
Donk,2,,,5512NK,Vessem,Eersel,Noord-Brabant,VBO,5.270854,51.432054
Donk,4,,,5512NK,Vessem,Eersel,Noord-Brabant,VBO,5.270179,51.432575
Donk,5,,,5512NK,Vessem,Eersel,Noord-Brabant,VBO,5.273338,51.429450
Donk,7,A,,5512NK,Vessem,Eersel,Noord-Brabant,VBO,5.273550,51.430512
Donk,7,,,5512NK,Vessem,Eersel,Noord-Brabant,VBO,5.273570,51.430453
Donk,9,,,5512NK,Vessem,Eersel,Noord-Brabant,VBO,5.272478,51.431377
Donk,11,,,5512NK,Vessem,Eersel,Noord-Brabant,VBO,5.272076,51.431539
Donk,13,,,5512NK,Vessem,Eersel,Noord-Brabant,VBO,5.271320,51.431805
Donk,15,,,5512NK,Vessem,Eersel,Noord-Brabant,VBO,5.269518,51.432212
Donk,17,A,,5512NK,Vessem,Eersel,Noord-Brabant,VBO,5.268469,51.432640
Donk,17,,,5512NK,Vessem,Eersel,Noord-Brabant,VBO,5.268323,51.432583
Donk,19,A,,5512NK,Vessem,Eersel,Noord-Brabant,VBO,5.269026,51.432397
Donk,19,B,,5512NK,Vessem,Eersel,Noord-Brabant,VBO,5.268368,51.432369
Donk,19,,,5512NK,Vessem,Eersel,Noord-Brabant,VBO,5.269168,51.432440
Donk,21,,traf,5512NK,Vessem,Eersel,Noord-Brabant,VBO,5.269434,51.432533
Stroomkesberg,2,,,5512NL,Vessem,Eersel,Noord-Brabant,VBO,5.261384,51.440462
Stroomkesberg,5,A,,5512NL,Vessem,Eersel,Noord-Brabant,VBO,5.260445,51.444818
Stroomkesberg,5,,,5512NL,Vessem,Eersel,Noord-Brabant,VBO,5.260458,51.444757
Mr van Hasseltweg,3,,,5512NM,Vessem,Eersel,Noord-Brabant,VBO,5.256124,51.426486
Mr van Hasseltweg,4,A,,5512NM,Vessem,Eersel,Noord-Brabant,VBO,5.256475,51.427436
Mr van Hasseltweg,6,,,5512NM,Vessem,Eersel,Noord-Brabant,VBO,5.252568,51.425074
Mr van Hasseltweg,8,,,5512NM,Vessem,Eersel,Noord-Brabant,VBO,5.251006,51.424146
Ir van Meelweg,1,,,5512NN,Vessem,Eersel,Noord-Brabant,VBO,5.258007,51.435070
Ir van Meelweg,2,A,,5512NN,Vessem,Eersel,Noord-Brabant,VBO,5.250449,51.433775
Ir van Meelweg,2,,,5512NN,Vessem,Eersel,Noord-Brabant,VBO,5.255950,51.435161
Ir van Meelweg,3,,,5512NN,Vessem,Eersel,Noord-Brabant,VBO,5.255719,51.434601
Ir van Meelweg,4,,,5512NN,Vessem,Eersel,Noord-Brabant,VBO,5.247671,51.432972
Ir van Meelweg,5,A,,5512NN,Vessem,Eersel,Noord-Brabant,VBO,5.250550,51.433290
Ir van Meelweg,5,,,5512NN,Vessem,Eersel,Noord-Brabant,VBO,5.250750,51.433435
Ir van Meelweg,6,,,5512NN,Vessem,Eersel,Noord-Brabant,VBO,5.241251,51.431441
Ir van Meelweg,7,,,5512NN,Vessem,Eersel,Noord-Brabant,VBO,5.245682,51.431751
Ir van Meelweg,9,A,,5512NN,Vessem,Eersel,Noord-Brabant,VBO,5.240562,51.430856
Ir van Meelweg,9,,,5512NN,Vessem,Eersel,Noord-Brabant,VBO,5.240408,51.430831
Ir van Meelweg,11,,,5512NN,Vessem,Eersel,Noord-Brabant,VBO,5.239335,51.430785
Keijenhurkseweg,1,a,,5512NP,Vessem,Eersel,Noord-Brabant,VBO,5.258719,51.441675
Keijenhurkseweg,1,,,5512NP,Vessem,Eersel,Noord-Brabant,VBO,5.258355,51.441696
Keijenhurkseweg,2,,,5512NP,Vessem,Eersel,Noord-Brabant,VBO,5.258337,51.442227
Keijenhurkseweg,4,,,5512NP,Vessem,Eersel,Noord-Brabant,VBO,5.256091,51.441394
Meerven,1,,,5512NR,Vessem,Eersel,Noord-Brabant,VBO,5.267923,51.435399
Meerven,2,A,,5512NR,Vessem,Eersel,Noord-Brabant,VBO,5.267338,51.436904
Meerven,2,b,,5512NR,Vessem,Eersel,Noord-Brabant,VBO,5.270510,51.435111
Meerven,2,,,5512NR,Vessem,Eersel,Noord-Brabant,VBO,5.268521,51.435545
Meerven,3,,,5512NR,Vessem,Eersel,Noord-Brabant,VBO,5.264569,51.439604
Meerven,4,a,,5512NR,Vessem,Eersel,Noord-Brabant,VBO,5.265522,51.440507
Meerven,4,,,5512NR,Vessem,Eersel,Noord-Brabant,VBO,5.266956,51.437255
Meerven,6,A,,5512NR,Vessem,Eersel,Noord-Brabant,VBO,5.267391,51.440086
Meerven,6,,,5512NR,Vessem,Eersel,Noord-Brabant,VBO,5.267289,51.440190
Meerven,8,,,5512NR,Vessem,Eersel,Noord-Brabant,VBO,5.266689,51.440111
Meerven,10,,,5512NR,Vessem,Eersel,Noord-Brabant,VBO,5.266049,51.439998
Meerven,12,a,,5512NR,Vessem,Eersel,Noord-Brabant,VBO,5.265008,51.439716
Meerven,12,,,5512NR,Vessem,Eersel,Noord-Brabant,VBO,5.265387,51.439801
Breemhoeve,3,,,5512NS,Vessem,Eersel,Noord-Brabant,VBO,5.308736,51.417434
Breemhoeve,4,,,5512NS,Vessem,Eersel,Noord-Brabant,VBO,5.309619,51.417462
Busvelden,5,,,5512NT,Vessem,Eersel,Noord-Brabant,VBO,5.298431,51.410766
De Achterste Donk,1,,,5512NV,Vessem,Eersel,Noord-Brabant,VBO,5.269428,51.431619
De Achterste Donk,2,,,5512NV,Vessem,Eersel,Noord-Brabant,VBO,5.269070,51.431885
De Achterste Donk,4,,,5512NV,Vessem,Eersel,Noord-Brabant,VBO,5.267911,51.432072
Zwembadweg,1,a,,5512NW,Vessem,Eersel,Noord-Brabant,VBO,5.273598,51.413493
Zwembadweg,1,h,1,5512NW,Vessem,Eersel,Noord-Brabant,VBO,5.272646,51.415113
Zwembadweg,1,h,2,5512NW,Vessem,Eersel,Noord-Brabant,VBO,5.272948,51.415359
Zwembadweg,1,h,3,5512NW,Vessem,Eersel,Noord-Brabant,VBO,5.273358,51.415415
Zwembadweg,1,h,4,5512NW,Vessem,Eersel,Noord-Brabant,VBO,5.273478,51.415676
Zwembadweg,1,h,5,5512NW,Vessem,Eersel,Noord-Brabant,VBO,5.273963,51.415652
Zwembadweg,1,h,6,5512NW,Vessem,Eersel,Noord-Brabant,VBO,5.274074,51.415911
Zwembadweg,1,h,7,5512NW,Vessem,Eersel,Noord-Brabant,VBO,5.273713,51.416051
Zwembadweg,1,h,8,5512NW,Vessem,Eersel,Noord-Brabant,VBO,5.275187,51.416220
Zwembadweg,1,h,9,5512NW,Vessem,Eersel,Noord-Brabant,VBO,5.275360,51.416281
Zwembadweg,1,,,5512NW,Vessem,Eersel,Noord-Brabant,VBO,5.273403,51.413420
Zwembadweg,2,b,,5512NW,Vessem,Eersel,Noord-Brabant,VBO,5.274345,51.413902
Zwembadweg,2,,,5512NW,Vessem,Eersel,Noord-Brabant,VBO,5.273902,51.413806
Zwembadweg,3,,,5512NW,Vessem,Eersel,Noord-Brabant,VBO,5.272876,51.413819
Heikesestraat,1,,,5512PA,Vessem,Eersel,Noord-Brabant,VBO,5.282389,51.425854
Heikesestraat,2,A,,5512PA,Vessem,Eersel,Noord-Brabant,VBO,5.282988,51.425845
Heikesestraat,2,,,5512PA,Vessem,Eersel,Noord-Brabant,VBO,5.283139,51.425705
Heikesestraat,3,,,5512PA,Vessem,Eersel,Noord-Brabant,VBO,5.281948,51.427016
Heikesestraat,4,A,,5512PA,Vessem,Eersel,Noord-Brabant,VBO,5.282560,51.426635
Heikesestraat,4,b,,5512PA,Vessem,Eersel,Noord-Brabant,VBO,5.283053,51.426306
Heikesestraat,4,,,5512PA,Vessem,Eersel,Noord-Brabant,VBO,5.282633,51.426502
Heikesestraat,5,,,5512PA,Vessem,Eersel,Noord-Brabant,VBO,5.281903,51.427276
Heikesestraat,6,a,,5512PA,Vessem,Eersel,Noord-Brabant,VBO,5.280813,51.437686
Heikesestraat,6,,,5512PA,Vessem,Eersel,Noord-Brabant,VBO,5.281341,51.437277
Heikesestraat,7,,,5512PA,Vessem,Eersel,Noord-Brabant,VBO,5.281629,51.427655
Heikesestraat,8,A,,5512PA,Vessem,Eersel,Noord-Brabant,VBO,5.278992,51.440448
Heikesestraat,8,,,5512PA,Vessem,Eersel,Noord-Brabant,VBO,5.279686,51.438513
Heikesestraat,10,,,5512PA,Vessem,Eersel,Noord-Brabant,VBO,5.278924,51.441185
Heikesestraat,12,,,5512PA,Vessem,Eersel,Noord-Brabant,VBO,5.276408,51.446889
Buikheide,1,,traf,5512PB,Vessem,Eersel,Noord-Brabant,VBO,5.279165,51.449792
Buikheide,2,,,5512PB,Vessem,Eersel,Noord-Brabant,VBO,5.284901,51.438267
Buikheide,4,,,5512PB,Vessem,Eersel,Noord-Brabant,VBO,5.284475,51.439138
Buikheide,6,,,5512PB,Vessem,Eersel,Noord-Brabant,VBO,5.283263,51.441912
Buikheide,8,,,5512PB,Vessem,Eersel,Noord-Brabant,VBO,5.281259,51.446665
Buikheide,10,A,,5512PB,Vessem,Eersel,Noord-Brabant,VBO,5.280554,51.448291
Buikheide,10,,,5512PB,Vessem,Eersel,Noord-Brabant,VBO,5.280608,51.448134
Buikheide,12,a,,5512PB,Vessem,Eersel,Noord-Brabant,VBO,5.280622,51.449459
Buikheide,12,,,5512PB,Vessem,Eersel,Noord-Brabant,VBO,5.280147,51.449240
Buikheide,14,,,5512PB,Vessem,Eersel,Noord-Brabant,VBO,5.279729,51.450169
Hoogeloonsedijk,48,,,5512RA,Vessem,Eersel,Noord-Brabant,VBO,5.316606,51.408819
Hoogcasteren,31,,,5512RB,Vessem,Eersel,Noord-Brabant,VBO,5.311860,51.407991
