openbareruimtenaam,huisnummer,huisletter,huisnummertoevoeging,postcode,woonplaatsnaam,gemeentenaam,provincienaam,typeadresseerbaarobject,longitude,latitude
Dommelsedijk,1,,,5563AA,Westerhoven,Bergeijk,Noord-Brabant,VBO,5.416209,51.341406
Dommelsedijk,2,,,5563AA,Westerhoven,Bergeijk,Noord-Brabant,VBO,5.417495,51.342480
Braambos,1,a,,5563AB,Westerhoven,Bergeijk,Noord-Brabant,VBO,5.413682,51.342397
Braambos,1,,,5563AB,Westerhoven,Bergeijk,Noord-Brabant,VBO,5.414246,51.342248
Braambos,2,,,5563AB,Westerhoven,Bergeijk,Noord-Brabant,VBO,5.414906,51.342154
Braambos,3,,,5563AB,Westerhoven,Bergeijk,Noord-Brabant,VBO,5.414002,51.342561
Braambos,4,,,5563AB,Westerhoven,Bergeijk,Noord-Brabant,VBO,5.414719,51.342319
Braambos,5,,,5563AB,Westerhoven,Bergeijk,Noord-Brabant,VBO,5.413315,51.342719
Braambos,6,,,5563AB,Westerhoven,Bergeijk,Noord-Brabant,VBO,5.414622,51.342439
Braambos,7,,,5563AB,Westerhoven,Bergeijk,Noord-Brabant,VBO,5.412837,51.343098
Braambos,9,,,5563AB,Westerhoven,Bergeijk,Noord-Brabant,VBO,5.413009,51.343403
Braambos,10,,,5563AB,Westerhoven,Bergeijk,Noord-Brabant,VBO,5.413384,51.343372
Braambos,11,,,5563AB,Westerhoven,Bergeijk,Noord-Brabant,VBO,5.412875,51.343358
Braambos,13,,,5563AB,Westerhoven,Bergeijk,Noord-Brabant,VBO,5.412669,51.343804
Braambos,14,,,5563AB,Westerhoven,Bergeijk,Noord-Brabant,VBO,5.412943,51.344043
Braambos,16,a,,5563AB,Westerhoven,Bergeijk,Noord-Brabant,VBO,5.413357,51.344384
Braambos,16,,,5563AB,Westerhoven,Bergeijk,Noord-Brabant,VBO,5.412904,51.344155
Braambos,17,a,,5563AB,Westerhoven,Bergeijk,Noord-Brabant,VBO,5.412333,51.344257
Braambos,17,,,5563AB,Westerhoven,Bergeijk,Noord-Brabant,VBO,5.412229,51.344448
Braambos,18,a,,5563AB,Westerhoven,Bergeijk,Noord-Brabant,VBO,5.412442,51.344952
Braambos,18,b,,5563AB,Westerhoven,Bergeijk,Noord-Brabant,VBO,5.413071,51.344773
Braambos,18,,,5563AB,Westerhoven,Bergeijk,Noord-Brabant,VBO,5.412754,51.344600
Braambos,20,,,5563AB,Westerhoven,Bergeijk,Noord-Brabant,VBO,5.412400,51.345059
Braambos,21,a,,5563AB,Westerhoven,Bergeijk,Noord-Brabant,VBO,5.411862,51.345045
Braambos,21,,,5563AB,Westerhoven,Bergeijk,Noord-Brabant,VBO,5.411963,51.344863
Braambos,22,,,5563AB,Westerhoven,Bergeijk,Noord-Brabant,VBO,5.412614,51.345450
Braambos,23,a,,5563AB,Westerhoven,Bergeijk,Noord-Brabant,VBO,5.414580,51.347983
Braambos,23,,,5563AB,Westerhoven,Bergeijk,Noord-Brabant,VBO,5.414921,51.348109
Braambos,26,a,,5563AB,Westerhoven,Bergeijk,Noord-Brabant,VBO,5.413504,51.346157
Braambos,26,,,5563AB,Westerhoven,Bergeijk,Noord-Brabant,VBO,5.413492,51.346088
Loveren,1,a,,5563AC,Westerhoven,Bergeijk,Noord-Brabant,VBO,5.415796,51.340799
Loveren,1,,,5563AC,Westerhoven,Bergeijk,Noord-Brabant,VBO,5.414220,51.341192
Loveren,3,,,5563AC,Westerhoven,Bergeijk,Noord-Brabant,VBO,5.413476,51.340332
Loveren,5,,,5563AC,Westerhoven,Bergeijk,Noord-Brabant,VBO,5.413385,51.340194
Loveren,9,,,5563AC,Westerhoven,Bergeijk,Noord-Brabant,VBO,5.412113,51.338268
Loveren,11,,,5563AC,Westerhoven,Bergeijk,Noord-Brabant,VBO,5.411543,51.337719
Loveren,13,,,5563AC,Westerhoven,Bergeijk,Noord-Brabant,VBO,5.411488,51.337664
Loveren,15,,,5563AC,Westerhoven,Bergeijk,Noord-Brabant,VBO,5.411275,51.337438
Loveren,17,,,5563AC,Westerhoven,Bergeijk,Noord-Brabant,VBO,5.410782,51.337159
Loveren,19,,,5563AC,Westerhoven,Bergeijk,Noord-Brabant,VBO,5.410700,51.337097
Loveren,21,,,5563AC,Westerhoven,Bergeijk,Noord-Brabant,VBO,5.410447,51.336751
Loveren,2,a,,5563AD,Westerhoven,Bergeijk,Noord-Brabant,VBO,5.413256,51.340980
Loveren,2,b,,5563AD,Westerhoven,Bergeijk,Noord-Brabant,VBO,5.413244,51.341105
Loveren,2,c,,5563AD,Westerhoven,Bergeijk,Noord-Brabant,VBO,5.413191,51.341125
Loveren,2,d,,5563AD,Westerhoven,Bergeijk,Noord-Brabant,VBO,5.413139,51.341144
Loveren,2,e,,5563AD,Westerhoven,Bergeijk,Noord-Brabant,VBO,5.413089,51.341162
Loveren,2,f,,5563AD,Westerhoven,Bergeijk,Noord-Brabant,VBO,5.413033,51.341180
Loveren,2,,,5563AD,Westerhoven,Bergeijk,Noord-Brabant,VBO,5.413470,51.341144
Loveren,4,a,,5563AD,Westerhoven,Bergeijk,Noord-Brabant,VBO,5.412727,51.340493
Loveren,4,,,5563AD,Westerhoven,Bergeijk,Noord-Brabant,VBO,5.412816,51.340633
Loveren,6,,,5563AD,Westerhoven,Bergeijk,Noord-Brabant,VBO,5.412393,51.339960
Loveren,8,,,5563AD,Westerhoven,Bergeijk,Noord-Brabant,VBO,5.412286,51.339799
Loveren,10,a,,5563AD,Westerhoven,Bergeijk,Noord-Brabant,VBO,5.411965,51.339274
Loveren,10,,,5563AD,Westerhoven,Bergeijk,Noord-Brabant,VBO,5.412215,51.339445
Loveren,12,a,,5563AD,Westerhoven,Bergeijk,Noord-Brabant,VBO,5.411519,51.338908
Loveren,12,,,5563AD,Westerhoven,Bergeijk,Noord-Brabant,VBO,5.411775,51.338849
Loveren,14,a,,5563AD,Westerhoven,Bergeijk,Noord-Brabant,VBO,5.411390,51.338515
Loveren,14,,,5563AD,Westerhoven,Bergeijk,Noord-Brabant,VBO,5.411497,51.338665
Loveren,16,,,5563AD,Westerhoven,Bergeijk,Noord-Brabant,VBO,5.411307,51.338418
Loveren,18,,,5563AD,Westerhoven,Bergeijk,Noord-Brabant,VBO,5.411179,51.338269
Loveren,20,a,,5563AD,Westerhoven,Bergeijk,Noord-Brabant,VBO,5.410813,51.337650
Loveren,20,,,5563AD,Westerhoven,Bergeijk,Noord-Brabant,VBO,5.411023,51.338142
Loveren,22,,,5563AD,Westerhoven,Bergeijk,Noord-Brabant,VBO,5.410737,51.337577
Loveren,24,a,,5563AD,Westerhoven,Bergeijk,Noord-Brabant,VBO,5.409677,51.337651
Loveren,24,,,5563AD,Westerhoven,Bergeijk,Noord-Brabant,VBO,5.410432,51.337346
Loveren,26,,,5563AD,Westerhoven,Bergeijk,Noord-Brabant,VBO,5.410261,51.337225
Loveren,28,,,5563AD,Westerhoven,Bergeijk,Noord-Brabant,VBO,5.410047,51.337074
Zandstraat,1,,,5563AE,Westerhoven,Bergeijk,Noord-Brabant,VBO,5.408025,51.336744
Zandstraat,2,,,5563AE,Westerhoven,Bergeijk,Noord-Brabant,VBO,5.408458,51.336873
Zandstraat,3,,,5563AE,Westerhoven,Bergeijk,Noord-Brabant,VBO,5.407609,51.336822
Zandstraat,4,,,5563AE,Westerhoven,Bergeijk,Noord-Brabant,VBO,5.408383,51.336916
Zandstraat,5,a,,5563AE,Westerhoven,Bergeijk,Noord-Brabant,VBO,5.406957,51.337386
Zandstraat,5,,,5563AE,Westerhoven,Bergeijk,Noord-Brabant,VBO,5.407219,51.337219
Zandstraat,6,,,5563AE,Westerhoven,Bergeijk,Noord-Brabant,VBO,5.408175,51.337015
Zandstraat,7,,,5563AE,Westerhoven,Bergeijk,Noord-Brabant,VBO,5.406815,51.337488
Zandstraat,8,,,5563AE,Westerhoven,Bergeijk,Noord-Brabant,VBO,5.407836,51.337089
Zandstraat,9,,,5563AE,Westerhoven,Bergeijk,Noord-Brabant,VBO,5.406752,51.337540
Zandstraat,10,,,5563AE,Westerhoven,Bergeijk,Noord-Brabant,VBO,5.407710,51.337258
Zandstraat,11,,,5563AE,Westerhoven,Bergeijk,Noord-Brabant,VBO,5.406603,51.337682
Zandstraat,12,,,5563AE,Westerhoven,Bergeijk,Noord-Brabant,VBO,5.407437,51.337443
Zandstraat,13,,,5563AE,Westerhoven,Bergeijk,Noord-Brabant,VBO,5.405967,51.338317
Provincialeweg,1,,,5563AG,Westerhoven,Bergeijk,Noord-Brabant,VBO,5.405638,51.333547
Provincialeweg,3,,,5563AG,Westerhoven,Bergeijk,Noord-Brabant,VBO,5.405423,51.333435
Provincialeweg,5,,,5563AG,Westerhoven,Bergeijk,Noord-Brabant,VBO,5.404442,51.332892
Provincialeweg,7,,,5563AG,Westerhoven,Bergeijk,Noord-Brabant,VBO,5.404206,51.332728
Provincialeweg,9,,,5563AG,Westerhoven,Bergeijk,Noord-Brabant,VBO,5.403569,51.332322
Provincialeweg,11,,,5563AG,Westerhoven,Bergeijk,Noord-Brabant,VBO,5.402927,51.332080
Provincialeweg,13,,,5563AG,Westerhoven,Bergeijk,Noord-Brabant,VBO,5.402660,51.331937
Provincialeweg,15,,,5563AG,Westerhoven,Bergeijk,Noord-Brabant,VBO,5.402331,51.332027
Provincialeweg,17,,,5563AG,Westerhoven,Bergeijk,Noord-Brabant,VBO,5.402144,51.331885
Provincialeweg,21,,,5563AG,Westerhoven,Bergeijk,Noord-Brabant,VBO,5.401687,51.331705
Provincialeweg,23,,,5563AG,Westerhoven,Bergeijk,Noord-Brabant,VBO,5.401295,51.331572
Provincialeweg,25,,,5563AG,Westerhoven,Bergeijk,Noord-Brabant,VBO,5.401313,51.331491
Provincialeweg,31,,,5563AG,Westerhoven,Bergeijk,Noord-Brabant,VBO,5.400801,51.331134
Provincialeweg,33,a,,5563AG,Westerhoven,Bergeijk,Noord-Brabant,VBO,5.399955,51.331095
Provincialeweg,33,,,5563AG,Westerhoven,Bergeijk,Noord-Brabant,VBO,5.400137,51.331127
Provincialeweg,35,,,5563AG,Westerhoven,Bergeijk,Noord-Brabant,VBO,5.398684,51.330742
Provincialeweg,37,,,5563AG,Westerhoven,Bergeijk,Noord-Brabant,VBO,5.398000,51.330765
Provincialeweg,39,,,5563AG,Westerhoven,Bergeijk,Noord-Brabant,VBO,5.397920,51.330745
Provincialeweg,41,,,5563AG,Westerhoven,Bergeijk,Noord-Brabant,VBO,5.397743,51.330626
Provincialeweg,43,,,5563AG,Westerhoven,Bergeijk,Noord-Brabant,VBO,5.397491,51.330611
Provincialeweg,45,a,,5563AG,Westerhoven,Bergeijk,Noord-Brabant,VBO,5.395702,51.329735
Provincialeweg,45,b,,5563AG,Westerhoven,Bergeijk,Noord-Brabant,VBO,5.395412,51.329689
Provincialeweg,45,,,5563AG,Westerhoven,Bergeijk,Noord-Brabant,VBO,5.395972,51.329817
Provincialeweg,47,a,,5563AG,Westerhoven,Bergeijk,Noord-Brabant,VBO,5.396010,51.329380
Provincialeweg,47,,,5563AG,Westerhoven,Bergeijk,Noord-Brabant,VBO,5.394925,51.329582
Provincialeweg,2,a,,5563AH,Westerhoven,Bergeijk,Noord-Brabant,VBO,5.402604,51.332425
Provincialeweg,2,b,,5563AH,Westerhoven,Bergeijk,Noord-Brabant,VBO,5.402221,51.332310
Provincialeweg,2,c,,5563AH,Westerhoven,Bergeijk,Noord-Brabant,VBO,5.402529,51.332938
Provincialeweg,2,d,,5563AH,Westerhoven,Bergeijk,Noord-Brabant,VBO,5.402554,51.332454
Provincialeweg,2,e,,5563AH,Westerhoven,Bergeijk,Noord-Brabant,VBO,5.402358,51.333082
Provincialeweg,2,f,,5563AH,Westerhoven,Bergeijk,Noord-Brabant,VBO,5.402726,51.333098
Provincialeweg,2,,,5563AH,Westerhoven,Bergeijk,Noord-Brabant,VBO,5.402783,51.332670
Provincialeweg,4,,,5563AH,Westerhoven,Bergeijk,Noord-Brabant,VBO,5.401830,51.332109
Provincialeweg,6,,,5563AH,Westerhoven,Bergeijk,Noord-Brabant,VBO,5.401697,51.332078
Provincialeweg,8,,,5563AH,Westerhoven,Bergeijk,Noord-Brabant,VBO,5.396997,51.330840
Provincialeweg,10,,,5563AH,Westerhoven,Bergeijk,Noord-Brabant,VBO,5.396645,51.330721
Provincialeweg,16,,,5563AH,Westerhoven,Bergeijk,Noord-Brabant,VBO,5.395734,51.330290
Provincialeweg,18,,,5563AH,Westerhoven,Bergeijk,Noord-Brabant,VBO,5.395250,51.330097
Provincialeweg,20,,,5563AH,Westerhoven,Bergeijk,Noord-Brabant,VBO,5.394989,51.330126
Provincialeweg,22,,,5563AH,Westerhoven,Bergeijk,Noord-Brabant,VBO,5.394993,51.330208
Provincialeweg,24,,,5563AH,Westerhoven,Bergeijk,Noord-Brabant,VBO,5.394795,51.330157
Provincialeweg,28,,,5563AH,Westerhoven,Bergeijk,Noord-Brabant,VBO,5.394998,51.330035
Provincialeweg,30,,,5563AH,Westerhoven,Bergeijk,Noord-Brabant,VBO,5.394834,51.329992
Provincialeweg,32,,,5563AH,Westerhoven,Bergeijk,Noord-Brabant,VBO,5.394656,51.330106
Provincialeweg,34,,,5563AH,Westerhoven,Bergeijk,Noord-Brabant,VBO,5.394681,51.330007
Hoeverstraat,1,,,5563AJ,Westerhoven,Bergeijk,Noord-Brabant,VBO,5.409460,51.336624
Hoeverstraat,2,,,5563AJ,Westerhoven,Bergeijk,Noord-Brabant,VBO,5.409849,51.336967
Hoeverstraat,3,,,5563AJ,Westerhoven,Bergeijk,Noord-Brabant,VBO,5.409281,51.336558
Hoeverstraat,4,a,,5563AJ,Westerhoven,Bergeijk,Noord-Brabant,VBO,5.409464,51.336879
Hoeverstraat,4,,,5563AJ,Westerhoven,Bergeijk,Noord-Brabant,VBO,5.409570,51.336908
Hoeverstraat,5,,,5563AJ,Westerhoven,Bergeijk,Noord-Brabant,VBO,5.409110,51.336494
Hoeverstraat,6,a,,5563AJ,Westerhoven,Bergeijk,Noord-Brabant,VBO,5.409016,51.336775
Hoeverstraat,6,,,5563AJ,Westerhoven,Bergeijk,Noord-Brabant,VBO,5.409125,51.336800
Hoeverstraat,7,,,5563AJ,Westerhoven,Bergeijk,Noord-Brabant,VBO,5.408926,51.336363
Hoeverstraat,8,a,,5563AJ,Westerhoven,Bergeijk,Noord-Brabant,VBO,5.408442,51.336493
Hoeverstraat,8,,,5563AJ,Westerhoven,Bergeijk,Noord-Brabant,VBO,5.408778,51.336685
Hoeverstraat,9,,,5563AJ,Westerhoven,Bergeijk,Noord-Brabant,VBO,5.408566,51.336250
Hoeverstraat,10,,,5563AJ,Westerhoven,Bergeijk,Noord-Brabant,VBO,5.408244,51.336402
Hoeverstraat,11,,,5563AJ,Westerhoven,Bergeijk,Noord-Brabant,VBO,5.408282,51.336068
Hoeverstraat,12,,,5563AJ,Westerhoven,Bergeijk,Noord-Brabant,VBO,5.408147,51.336327
Hoeverstraat,13,,,5563AJ,Westerhoven,Bergeijk,Noord-Brabant,VBO,5.408206,51.336031
Hoeverstraat,14,,,5563AJ,Westerhoven,Bergeijk,Noord-Brabant,VBO,5.408077,51.336294
Hoeverstraat,15,,,5563AJ,Westerhoven,Bergeijk,Noord-Brabant,VBO,5.408030,51.335987
Hoeverstraat,16,a,,5563AJ,Westerhoven,Bergeijk,Noord-Brabant,VBO,5.407806,51.336169
Hoeverstraat,16,,,5563AJ,Westerhoven,Bergeijk,Noord-Brabant,VBO,5.408007,51.336261
Hoeverstraat,17,,,5563AJ,Westerhoven,Bergeijk,Noord-Brabant,VBO,5.407914,51.335933
Hoeverstraat,18,,,5563AJ,Westerhoven,Bergeijk,Noord-Brabant,VBO,5.407538,51.336219
Hoeverstraat,19,a,,5563AJ,Westerhoven,Bergeijk,Noord-Brabant,VBO,5.407655,51.335775
Hoeverstraat,19,,,5563AJ,Westerhoven,Bergeijk,Noord-Brabant,VBO,5.407738,51.335820
Hoeverstraat,21,a,,5563AJ,Westerhoven,Bergeijk,Noord-Brabant,VBO,5.407174,51.335390
Hoeverstraat,21,,,5563AJ,Westerhoven,Bergeijk,Noord-Brabant,VBO,5.407233,51.335441
Hoeverstraat,23,,,5563AJ,Westerhoven,Bergeijk,Noord-Brabant,VBO,5.407093,51.335193
Hoeverstraat,24,,,5563AJ,Westerhoven,Bergeijk,Noord-Brabant,VBO,5.407180,51.335908
Hoeverstraat,25,,,5563AJ,Westerhoven,Bergeijk,Noord-Brabant,VBO,5.407052,51.335068
Hoeverstraat,26,a,,5563AJ,Westerhoven,Bergeijk,Noord-Brabant,VBO,5.406755,51.335626
Hoeverstraat,26,,,5563AJ,Westerhoven,Bergeijk,Noord-Brabant,VBO,5.406828,51.335684
Hoeverstraat,28,,,5563AJ,Westerhoven,Bergeijk,Noord-Brabant,VBO,5.406614,51.335383
Hoeverstraat,30,,,5563AJ,Westerhoven,Bergeijk,Noord-Brabant,VBO,5.406522,51.335118
Hoeverstraat,32,,,5563AJ,Westerhoven,Bergeijk,Noord-Brabant,VBO,5.406480,51.334994
Hoeverstraat,34,,,5563AJ,Westerhoven,Bergeijk,Noord-Brabant,VBO,5.406403,51.334768
Hoeverstraat,36,a,,5563AJ,Westerhoven,Bergeijk,Noord-Brabant,VBO,5.406186,51.334431
Hoeverstraat,36,,,5563AJ,Westerhoven,Bergeijk,Noord-Brabant,VBO,5.406291,51.334573
Hoeverstraat,38,,,5563AJ,Westerhoven,Bergeijk,Noord-Brabant,VBO,5.406050,51.334351
Hoeverstraat,40,,,5563AJ,Westerhoven,Bergeijk,Noord-Brabant,VBO,5.405760,51.334254
Hoeverstraat,42,,,5563AJ,Westerhoven,Bergeijk,Noord-Brabant,VBO,5.405538,51.334204
Hoeverstraat,44,,,5563AJ,Westerhoven,Bergeijk,Noord-Brabant,VBO,5.405291,51.334128
Hoeverstraat,46,a,,5563AJ,Westerhoven,Bergeijk,Noord-Brabant,VBO,5.404697,51.333918
Hoeverstraat,46,,,5563AJ,Westerhoven,Bergeijk,Noord-Brabant,VBO,5.404806,51.333944
Hoeverstraat,46,,,5563AJ,Westerhoven,Bergeijk,Noord-Brabant,VBO,5.404913,51.333999
Hoeverstraat,48,,,5563AJ,Westerhoven,Bergeijk,Noord-Brabant,VBO,5.404378,51.333805
Hoeverstraat,50,,,5563AJ,Westerhoven,Bergeijk,Noord-Brabant,VBO,5.404222,51.333726
Hoeverstraat,52,,,5563AJ,Westerhoven,Bergeijk,Noord-Brabant,VBO,5.404097,51.333649
Hoeverstraat,54,,,5563AJ,Westerhoven,Bergeijk,Noord-Brabant,VBO,5.403824,51.333470
Hoeverstraat,56,,,5563AJ,Westerhoven,Bergeijk,Noord-Brabant,VBO,5.403671,51.333197
Hoeverstraat,58,,,5563AJ,Westerhoven,Bergeijk,Noord-Brabant,VBO,5.403363,51.333057
Hoeverstraat,60,,,5563AJ,Westerhoven,Bergeijk,Noord-Brabant,VBO,5.403160,51.332833
de Bucht,2,,,5563AK,Westerhoven,Bergeijk,Noord-Brabant,VBO,5.403962,51.336349
Hoefzicht,1,,,5563AL,Westerhoven,Bergeijk,Noord-Brabant,VBO,5.400960,51.332995
Hoefzicht,2,,,5563AL,Westerhoven,Bergeijk,Noord-Brabant,VBO,5.401058,51.333013
Hoefzicht,3,,,5563AL,Westerhoven,Bergeijk,Noord-Brabant,VBO,5.401171,51.333035
Hoefzicht,4,,,5563AL,Westerhoven,Bergeijk,Noord-Brabant,VBO,5.401279,51.333056
Hoefzicht,5,,,5563AL,Westerhoven,Bergeijk,Noord-Brabant,VBO,5.401312,51.333139
Hoefzicht,6,,,5563AL,Westerhoven,Bergeijk,Noord-Brabant,VBO,5.401291,51.333183
Hoefzicht,7,,,5563AL,Westerhoven,Bergeijk,Noord-Brabant,VBO,5.401205,51.333308
Hoefzicht,8,,,5563AL,Westerhoven,Bergeijk,Noord-Brabant,VBO,5.401162,51.333362
Hoefzicht,9,,,5563AL,Westerhoven,Bergeijk,Noord-Brabant,VBO,5.401061,51.333475
Hoefzicht,10,,,5563AL,Westerhoven,Bergeijk,Noord-Brabant,VBO,5.400933,51.333541
Hoefzicht,11,,,5563AL,Westerhoven,Bergeijk,Noord-Brabant,VBO,5.400850,51.333509
Hoefzicht,12,,,5563AL,Westerhoven,Bergeijk,Noord-Brabant,VBO,5.400771,51.333478
Hoefzicht,13,,,5563AL,Westerhoven,Bergeijk,Noord-Brabant,VBO,5.400670,51.333438
Borkelsedijk,1,,,5563AM,Westerhoven,Bergeijk,Noord-Brabant,VBO,5.400834,51.330799
Borkelsedijk,3,,,5563AM,Westerhoven,Bergeijk,Noord-Brabant,VBO,5.406008,51.325291
Heuvel,7,,,5563AN,Westerhoven,Bergeijk,Noord-Brabant,VBO,5.400746,51.332107
Heuvel,9,,,5563AN,Westerhoven,Bergeijk,Noord-Brabant,VBO,5.400683,51.332323
Heuvel,11,,,5563AN,Westerhoven,Bergeijk,Noord-Brabant,VBO,5.400632,51.332541
Heuvel,13,a,,5563AN,Westerhoven,Bergeijk,Noord-Brabant,VBO,5.400450,51.332939
Heuvel,13,,,5563AN,Westerhoven,Bergeijk,Noord-Brabant,VBO,5.400469,51.332782
Heuvel,15,a,,5563AN,Westerhoven,Bergeijk,Noord-Brabant,VBO,5.400158,51.333240
Heuvel,15,b,,5563AN,Westerhoven,Bergeijk,Noord-Brabant,VBO,5.400039,51.333347
Heuvel,15,c,,5563AN,Westerhoven,Bergeijk,Noord-Brabant,VBO,5.399915,51.333498
Heuvel,15,,,5563AN,Westerhoven,Bergeijk,Noord-Brabant,VBO,5.400295,51.333088
Heuvel,17,a,,5563AN,Westerhoven,Bergeijk,Noord-Brabant,VBO,5.399719,51.333692
Heuvel,17,,,5563AN,Westerhoven,Bergeijk,Noord-Brabant,VBO,5.399766,51.333645
Heuvel,19,,,5563AN,Westerhoven,Bergeijk,Noord-Brabant,VBO,5.399603,51.333808
Heuvel,21,a,,5563AN,Westerhoven,Bergeijk,Noord-Brabant,VBO,5.399377,51.334036
Heuvel,21,,,5563AN,Westerhoven,Bergeijk,Noord-Brabant,VBO,5.399479,51.333931
Heuvel,25,,,5563AN,Westerhoven,Bergeijk,Noord-Brabant,VBO,5.398995,51.334518
Heuvel,27,,,5563AN,Westerhoven,Bergeijk,Noord-Brabant,VBO,5.398750,51.334733
Heuvel,33,,,5563AN,Westerhoven,Bergeijk,Noord-Brabant,VBO,5.398643,51.335143
Heuvel,39,,,5563AN,Westerhoven,Bergeijk,Noord-Brabant,VBO,5.392772,51.341002
Heuvel,2,,,5563AP,Westerhoven,Bergeijk,Noord-Brabant,VBO,5.401152,51.332154
Heuvel,4,a,,5563AP,Westerhoven,Bergeijk,Noord-Brabant,VBO,5.401120,51.332215
Heuvel,4,b,,5563AP,Westerhoven,Bergeijk,Noord-Brabant,VBO,5.401281,51.332321
Heuvel,4,c,,5563AP,Westerhoven,Bergeijk,Noord-Brabant,VBO,5.401132,51.332292
Heuvel,4,,,5563AP,Westerhoven,Bergeijk,Noord-Brabant,VBO,5.401088,51.332279
Heuvel,6,,,5563AP,Westerhoven,Bergeijk,Noord-Brabant,VBO,5.401078,51.332412
Heuvel,8,a,,5563AP,Westerhoven,Bergeijk,Noord-Brabant,VBO,5.401092,51.332590
Heuvel,8,b,,5563AP,Westerhoven,Bergeijk,Noord-Brabant,VBO,5.401210,51.332633
Heuvel,8,c,,5563AP,Westerhoven,Bergeijk,Noord-Brabant,VBO,5.401314,51.332596
Heuvel,8,,,5563AP,Westerhoven,Bergeijk,Noord-Brabant,VBO,5.401094,51.332545
Heuvel,10,,,5563AP,Westerhoven,Bergeijk,Noord-Brabant,VBO,5.401072,51.332744
Heuvel,14,,,5563AP,Westerhoven,Bergeijk,Noord-Brabant,VBO,5.400219,51.333747
Heuvel,16,a,,5563AP,Westerhoven,Bergeijk,Noord-Brabant,VBO,5.400081,51.333884
Heuvel,16,,,5563AP,Westerhoven,Bergeijk,Noord-Brabant,VBO,5.400125,51.333839
Heuvel,18,,,5563AP,Westerhoven,Bergeijk,Noord-Brabant,VBO,5.399935,51.334043
Heuvel,20,,,5563AP,Westerhoven,Bergeijk,Noord-Brabant,VBO,5.399681,51.334249
Heuvel,22,,,5563AP,Westerhoven,Bergeijk,Noord-Brabant,VBO,5.399864,51.334327
Heuvel,24,,,5563AP,Westerhoven,Bergeijk,Noord-Brabant,VBO,5.399414,51.334679
Heuvel,26,,,5563AP,Westerhoven,Bergeijk,Noord-Brabant,VBO,5.399249,51.334793
Heuvel,28,,,5563AP,Westerhoven,Bergeijk,Noord-Brabant,VBO,5.399120,51.334999
Heuvel,30,,,5563AP,Westerhoven,Bergeijk,Noord-Brabant,VBO,5.398937,51.335636
Heuvel,32,,,5563AP,Westerhoven,Bergeijk,Noord-Brabant,VBO,5.398603,51.336257
Heuvel,34,,,5563AP,Westerhoven,Bergeijk,Noord-Brabant,VBO,5.398028,51.336898
Heuvel,36,,,5563AP,Westerhoven,Bergeijk,Noord-Brabant,VBO,5.397648,51.337190
Heuvel,38,,,5563AP,Westerhoven,Bergeijk,Noord-Brabant,VBO,5.397418,51.337548
Heuvel,44,,,5563AP,Westerhoven,Bergeijk,Noord-Brabant,VBO,5.394351,51.340491
Aan de Heerstraat,1,,,5563AR,Westerhoven,Bergeijk,Noord-Brabant,VBO,5.402932,51.334532
Aan de Heerstraat,2,,,5563AR,Westerhoven,Bergeijk,Noord-Brabant,VBO,5.402461,51.334591
Aan de Heerstraat,3,,,5563AR,Westerhoven,Bergeijk,Noord-Brabant,VBO,5.402861,51.334507
Aan de Heerstraat,4,,,5563AR,Westerhoven,Bergeijk,Noord-Brabant,VBO,5.402399,51.334570
Aan de Heerstraat,5,,,5563AR,Westerhoven,Bergeijk,Noord-Brabant,VBO,5.402577,51.334396
Aan de Heerstraat,6,,,5563AR,Westerhoven,Bergeijk,Noord-Brabant,VBO,5.402318,51.334556
Aan de Heerstraat,7,,,5563AR,Westerhoven,Bergeijk,Noord-Brabant,VBO,5.402352,51.334332
Aan de Heerstraat,8,,,5563AR,Westerhoven,Bergeijk,Noord-Brabant,VBO,5.402181,51.334524
Aan de Heerstraat,9,,,5563AR,Westerhoven,Bergeijk,Noord-Brabant,VBO,5.402066,51.334220
Aan de Heerstraat,10,,,5563AR,Westerhoven,Bergeijk,Noord-Brabant,VBO,5.402151,51.334551
Aan de Heerstraat,11,,,5563AR,Westerhoven,Bergeijk,Noord-Brabant,VBO,5.402022,51.334173
Aan de Heerstraat,12,,,5563AR,Westerhoven,Bergeijk,Noord-Brabant,VBO,5.402093,51.334495
Aan de Heerstraat,13,,,5563AR,Westerhoven,Bergeijk,Noord-Brabant,VBO,5.402005,51.334193
Aan de Heerstraat,14,,,5563AR,Westerhoven,Bergeijk,Noord-Brabant,VBO,5.402072,51.334524
Aan de Heerstraat,15,,,5563AR,Westerhoven,Bergeijk,Noord-Brabant,VBO,5.401949,51.334153
Aan de Heerstraat,16,,,5563AR,Westerhoven,Bergeijk,Noord-Brabant,VBO,5.401978,51.334444
Aan de Heerstraat,17,,,5563AR,Westerhoven,Bergeijk,Noord-Brabant,VBO,5.401871,51.334120
Aan de Heerstraat,18,,,5563AR,Westerhoven,Bergeijk,Noord-Brabant,VBO,5.401914,51.334416
Aan de Heerstraat,19,,,5563AR,Westerhoven,Bergeijk,Noord-Brabant,VBO,5.401854,51.334139
Aan de Heerstraat,20,,,5563AR,Westerhoven,Bergeijk,Noord-Brabant,VBO,5.401842,51.334393
Aan de Heerstraat,21,,,5563AR,Westerhoven,Bergeijk,Noord-Brabant,VBO,5.401766,51.334112
Aan de Heerstraat,22,,,5563AR,Westerhoven,Bergeijk,Noord-Brabant,VBO,5.401560,51.334295
Aan de Heerstraat,23,,,5563AR,Westerhoven,Bergeijk,Noord-Brabant,VBO,5.401407,51.333983
Aan de Heerstraat,24,,,5563AR,Westerhoven,Bergeijk,Noord-Brabant,VBO,5.401488,51.334269
Aan de Heerstraat,25,,,5563AR,Westerhoven,Bergeijk,Noord-Brabant,VBO,5.401326,51.333950
Aan de Heerstraat,26,,,5563AR,Westerhoven,Bergeijk,Noord-Brabant,VBO,5.401343,51.334217
Aan de Heerstraat,27,,,5563AR,Westerhoven,Bergeijk,Noord-Brabant,VBO,5.401348,51.333933
Aan de Heerstraat,28,,,5563AR,Westerhoven,Bergeijk,Noord-Brabant,VBO,5.401057,51.334105
Aan de Heerstraat,29,,,5563AR,Westerhoven,Bergeijk,Noord-Brabant,VBO,5.401272,51.333905
Aan de Heerstraat,30,,,5563AR,Westerhoven,Bergeijk,Noord-Brabant,VBO,5.400951,51.334061
Aan de Heerstraat,31,,,5563AR,Westerhoven,Bergeijk,Noord-Brabant,VBO,5.401184,51.333898
Aan de Heerstraat,32,,,5563AR,Westerhoven,Bergeijk,Noord-Brabant,VBO,5.400881,51.334032
Aan de Heerstraat,33,,,5563AR,Westerhoven,Bergeijk,Noord-Brabant,VBO,5.401201,51.333881
Aan de Heerstraat,34,,,5563AR,Westerhoven,Bergeijk,Noord-Brabant,VBO,5.400746,51.333976
Aan de Heerstraat,35,,,5563AR,Westerhoven,Bergeijk,Noord-Brabant,VBO,5.401110,51.333876
Aan de Heerstraat,36,,,5563AR,Westerhoven,Bergeijk,Noord-Brabant,VBO,5.400676,51.333947
Beukenlaan,1,,,5563AS,Westerhoven,Bergeijk,Noord-Brabant,VBO,5.399095,51.334111
Beukenlaan,5,,,5563AS,Westerhoven,Bergeijk,Noord-Brabant,VBO,5.398723,51.333952
Beukenlaan,7,,,5563AS,Westerhoven,Bergeijk,Noord-Brabant,VBO,5.398641,51.333915
Beukenlaan,9,,,5563AS,Westerhoven,Bergeijk,Noord-Brabant,VBO,5.398339,51.333786
Beukenlaan,11,,,5563AS,Westerhoven,Bergeijk,Noord-Brabant,VBO,5.398268,51.333756
Beukenlaan,13,,,5563AS,Westerhoven,Bergeijk,Noord-Brabant,VBO,5.398139,51.333699
Beukenlaan,15,,,5563AS,Westerhoven,Bergeijk,Noord-Brabant,VBO,5.398064,51.333667
Beukenlaan,17,a,,5563AS,Westerhoven,Bergeijk,Noord-Brabant,VBO,5.397843,51.333571
Beukenlaan,17,b,,5563AS,Westerhoven,Bergeijk,Noord-Brabant,VBO,5.397510,51.333423
Beukenlaan,17,,,5563AS,Westerhoven,Bergeijk,Noord-Brabant,VBO,5.397936,51.333611
Beukenlaan,19,,,5563AS,Westerhoven,Bergeijk,Noord-Brabant,VBO,5.397324,51.333342
Beukenlaan,21,,,5563AS,Westerhoven,Bergeijk,Noord-Brabant,VBO,5.397150,51.333268
Beukenlaan,23,,,5563AS,Westerhoven,Bergeijk,Noord-Brabant,VBO,5.396954,51.333184
Beukenlaan,25,,,5563AS,Westerhoven,Bergeijk,Noord-Brabant,VBO,5.396879,51.333152
Beukenlaan,27,,,5563AS,Westerhoven,Bergeijk,Noord-Brabant,VBO,5.396743,51.333083
Beukenlaan,29,,,5563AS,Westerhoven,Bergeijk,Noord-Brabant,VBO,5.396666,51.333056
Beukenlaan,31,,,5563AS,Westerhoven,Bergeijk,Noord-Brabant,VBO,5.396349,51.332890
Beukenlaan,33,,,5563AS,Westerhoven,Bergeijk,Noord-Brabant,VBO,5.396107,51.332803
Beukenlaan,35,,,5563AS,Westerhoven,Bergeijk,Noord-Brabant,VBO,5.396027,51.332774
Beukenlaan,37,,,5563AS,Westerhoven,Bergeijk,Noord-Brabant,VBO,5.395874,51.332719
Beukenlaan,39,,,5563AS,Westerhoven,Bergeijk,Noord-Brabant,VBO,5.395682,51.332650
Beukenlaan,41,,,5563AS,Westerhoven,Bergeijk,Noord-Brabant,VBO,5.395274,51.332504
Beukenlaan,43,,,5563AS,Westerhoven,Bergeijk,Noord-Brabant,VBO,5.395206,51.332470
Beukenlaan,45,,,5563AS,Westerhoven,Bergeijk,Noord-Brabant,VBO,5.395078,51.332408
Beukenlaan,47,,,5563AS,Westerhoven,Bergeijk,Noord-Brabant,VBO,5.395007,51.332373
Beukenlaan,49,,,5563AS,Westerhoven,Bergeijk,Noord-Brabant,VBO,5.394862,51.332301
Beukenlaan,51,,,5563AS,Westerhoven,Bergeijk,Noord-Brabant,VBO,5.394704,51.332218
Beukenlaan,53,,,5563AS,Westerhoven,Bergeijk,Noord-Brabant,VBO,5.394570,51.332148
Beukenlaan,55,,,5563AS,Westerhoven,Bergeijk,Noord-Brabant,VBO,5.394435,51.332077
Beukenlaan,2,a,,5563AT,Westerhoven,Bergeijk,Noord-Brabant,VBO,5.398707,51.334295
Beukenlaan,2,,,5563AT,Westerhoven,Bergeijk,Noord-Brabant,VBO,5.398858,51.334361
Beukenlaan,4,,,5563AT,Westerhoven,Bergeijk,Noord-Brabant,VBO,5.398571,51.334235
Beukenlaan,6,a,,5563AT,Westerhoven,Bergeijk,Noord-Brabant,VBO,5.398199,51.334118
Beukenlaan,6,,,5563AT,Westerhoven,Bergeijk,Noord-Brabant,VBO,5.398431,51.334174
Beukenlaan,8,,,5563AT,Westerhoven,Bergeijk,Noord-Brabant,VBO,5.397803,51.333876
Beukenlaan,10,a,,5563AT,Westerhoven,Bergeijk,Noord-Brabant,VBO,5.397263,51.333647
Beukenlaan,10,,,5563AT,Westerhoven,Bergeijk,Noord-Brabant,VBO,5.397364,51.333690
Beukenlaan,12,a,,5563AT,Westerhoven,Bergeijk,Noord-Brabant,VBO,5.396762,51.333434
Beukenlaan,12,,,5563AT,Westerhoven,Bergeijk,Noord-Brabant,VBO,5.396863,51.333476
Beukenlaan,14,,,5563AT,Westerhoven,Bergeijk,Noord-Brabant,VBO,5.396603,51.333365
Beukenlaan,16,,,5563AT,Westerhoven,Bergeijk,Noord-Brabant,VBO,5.396356,51.333258
Beukenlaan,18,,,5563AT,Westerhoven,Bergeijk,Noord-Brabant,VBO,5.396274,51.333221
Beukenlaan,20,,,5563AT,Westerhoven,Bergeijk,Noord-Brabant,VBO,5.396106,51.333129
Beukenlaan,22,,,5563AT,Westerhoven,Bergeijk,Noord-Brabant,VBO,5.396021,51.333097
Beukenlaan,24,,,5563AT,Westerhoven,Bergeijk,Noord-Brabant,VBO,5.395836,51.333029
Beukenlaan,26,,,5563AT,Westerhoven,Bergeijk,Noord-Brabant,VBO,5.395725,51.332988
Beukenlaan,28,,,5563AT,Westerhoven,Bergeijk,Noord-Brabant,VBO,5.395568,51.332931
Beukenlaan,30,,,5563AT,Westerhoven,Bergeijk,Noord-Brabant,VBO,5.395457,51.332891
Beukenlaan,32,,,5563AT,Westerhoven,Bergeijk,Noord-Brabant,VBO,5.395300,51.332833
Beukenlaan,34,,,5563AT,Westerhoven,Bergeijk,Noord-Brabant,VBO,5.395117,51.332778
Beukenlaan,36,,,5563AT,Westerhoven,Bergeijk,Noord-Brabant,VBO,5.395046,51.332743
Beukenlaan,38,,,5563AT,Westerhoven,Bergeijk,Noord-Brabant,VBO,5.394904,51.332670
Beukenlaan,42,,,5563AT,Westerhoven,Bergeijk,Noord-Brabant,VBO,5.394751,51.332591
Beukenlaan,44,,,5563AT,Westerhoven,Bergeijk,Noord-Brabant,VBO,5.394598,51.332510
Beukenlaan,46,,,5563AT,Westerhoven,Bergeijk,Noord-Brabant,VBO,5.394450,51.332432
Beukenlaan,48,,,5563AT,Westerhoven,Bergeijk,Noord-Brabant,VBO,5.394252,51.332371
Beukenlaan,50,,,5563AT,Westerhoven,Bergeijk,Noord-Brabant,VBO,5.394175,51.332330
Koolakkers,2,,,5563AV,Westerhoven,Bergeijk,Noord-Brabant,VBO,5.397037,51.335912
Koolakkers,4,,,5563AV,Westerhoven,Bergeijk,Noord-Brabant,VBO,5.396684,51.336062
Koolakkers,5,,,5563AV,Westerhoven,Bergeijk,Noord-Brabant,VBO,5.395940,51.336041
Koolakkers,6,,,5563AV,Westerhoven,Bergeijk,Noord-Brabant,VBO,5.396588,51.336102
Koolakkers,7,,,5563AV,Westerhoven,Bergeijk,Noord-Brabant,VBO,5.395831,51.336370
Kerkstraat,1,,,5563AW,Westerhoven,Bergeijk,Noord-Brabant,VBO,5.397847,51.332611
Kerkstraat,3,,,5563AW,Westerhoven,Bergeijk,Noord-Brabant,VBO,5.397824,51.332663
Kerkstraat,5,,,5563AW,Westerhoven,Bergeijk,Noord-Brabant,VBO,5.397800,51.332717
Kerkstraat,6,,,5563AW,Westerhoven,Bergeijk,Noord-Brabant,VBO,5.398738,51.332050
Kerkstraat,7,,,5563AW,Westerhoven,Bergeijk,Noord-Brabant,VBO,5.397776,51.332772
Kerkstraat,8,,,5563AW,Westerhoven,Bergeijk,Noord-Brabant,VBO,5.398695,51.332114
Kerkstraat,9,,,5563AW,Westerhoven,Bergeijk,Noord-Brabant,VBO,5.397732,51.332869
Kerkstraat,11,,,5563AW,Westerhoven,Bergeijk,Noord-Brabant,VBO,5.397708,51.332921
Kerkstraat,12,,,5563AW,Westerhoven,Bergeijk,Noord-Brabant,VBO,5.398205,51.332474
Kerkstraat,13,,,5563AW,Westerhoven,Bergeijk,Noord-Brabant,VBO,5.397685,51.332973
Kerkstraat,14,,,5563AW,Westerhoven,Bergeijk,Noord-Brabant,VBO,5.398134,51.332608
Kerkstraat,15,,,5563AW,Westerhoven,Bergeijk,Noord-Brabant,VBO,5.397610,51.333128
Kerkstraat,18,,,5563AW,Westerhoven,Bergeijk,Noord-Brabant,VBO,5.398179,51.332869
Kerkstraat,20,,,5563AW,Westerhoven,Bergeijk,Noord-Brabant,VBO,5.398084,51.333018
Kerkstraat,22,,,5563AW,Westerhoven,Bergeijk,Noord-Brabant,VBO,5.397984,51.333231
Kerkstraat,24,,,5563AW,Westerhoven,Bergeijk,Noord-Brabant,VBO,5.397934,51.333291
Meidoornstraat,1,,,5563AX,Westerhoven,Bergeijk,Noord-Brabant,VBO,5.398692,51.332986
Meidoornstraat,2,a,,5563AX,Westerhoven,Bergeijk,Noord-Brabant,VBO,5.398689,51.333475
Meidoornstraat,2,,,5563AX,Westerhoven,Bergeijk,Noord-Brabant,VBO,5.398942,51.333544
Meidoornstraat,3,,,5563AX,Westerhoven,Bergeijk,Noord-Brabant,VBO,5.398771,51.333010
Meidoornstraat,4,,,5563AX,Westerhoven,Bergeijk,Noord-Brabant,VBO,5.398590,51.333442
Meidoornstraat,5,,,5563AX,Westerhoven,Bergeijk,Noord-Brabant,VBO,5.398960,51.333087
Meidoornstraat,6,,,5563AX,Westerhoven,Bergeijk,Noord-Brabant,VBO,5.398497,51.333411
Meidoornstraat,7,,,5563AX,Westerhoven,Bergeijk,Noord-Brabant,VBO,5.398803,51.333328
Meidoornstraat,8,,,5563AX,Westerhoven,Bergeijk,Noord-Brabant,VBO,5.398347,51.333362
Meidoornstraat,9,,,5563AX,Westerhoven,Bergeijk,Noord-Brabant,VBO,5.398709,51.333298
Meidoornstraat,10,,,5563AX,Westerhoven,Bergeijk,Noord-Brabant,VBO,5.398246,51.333329
Meidoornstraat,11,,,5563AX,Westerhoven,Bergeijk,Noord-Brabant,VBO,5.398619,51.333269
Meidoornstraat,13,,,5563AX,Westerhoven,Bergeijk,Noord-Brabant,VBO,5.398530,51.333240
Meidoornstraat,14,a,,5563AX,Westerhoven,Bergeijk,Noord-Brabant,VBO,5.399117,51.332880
Meidoornstraat,14,,,5563AX,Westerhoven,Bergeijk,Noord-Brabant,VBO,5.399052,51.332859
Meidoornstraat,16,a,,5563AX,Westerhoven,Bergeijk,Noord-Brabant,VBO,5.399252,51.332929
Meidoornstraat,16,,,5563AX,Westerhoven,Bergeijk,Noord-Brabant,VBO,5.399186,51.332902
Meidoornstraat,18,,,5563AX,Westerhoven,Bergeijk,Noord-Brabant,VBO,5.399332,51.332942
Meidoornstraat,20,,,5563AX,Westerhoven,Bergeijk,Noord-Brabant,VBO,5.399625,51.333068
Meidoornstraat,22,,,5563AX,Westerhoven,Bergeijk,Noord-Brabant,VBO,5.399437,51.333167
Meidoornstraat,24,,,5563AX,Westerhoven,Bergeijk,Noord-Brabant,VBO,5.399314,51.333304
Berkenstraat,1,,,5563AZ,Westerhoven,Bergeijk,Noord-Brabant,VBO,5.396568,51.332575
Berkenstraat,2,,,5563AZ,Westerhoven,Bergeijk,Noord-Brabant,VBO,5.397001,51.332449
Berkenstraat,3,,,5563AZ,Westerhoven,Bergeijk,Noord-Brabant,VBO,5.396538,51.332621
Berkenstraat,4,,,5563AZ,Westerhoven,Bergeijk,Noord-Brabant,VBO,5.396903,51.332591
Berkenstraat,5,,,5563AZ,Westerhoven,Bergeijk,Noord-Brabant,VBO,5.396479,51.332711
Berkenstraat,6,,,5563AZ,Westerhoven,Bergeijk,Noord-Brabant,VBO,5.396844,51.332731
Berkenstraat,7,,,5563AZ,Westerhoven,Bergeijk,Noord-Brabant,VBO,5.396448,51.332759
Berkenstraat,8,,,5563AZ,Westerhoven,Bergeijk,Noord-Brabant,VBO,5.396808,51.332790
Lindenstraat,1,,,5563BA,Westerhoven,Bergeijk,Noord-Brabant,VBO,5.397569,51.332557
Lindenstraat,2,,,5563BA,Westerhoven,Bergeijk,Noord-Brabant,VBO,5.397951,51.332372
Lindenstraat,3,,,5563BA,Westerhoven,Bergeijk,Noord-Brabant,VBO,5.397464,51.332539
Lindenstraat,4,,,5563BA,Westerhoven,Bergeijk,Noord-Brabant,VBO,5.397863,51.332359
Lindenstraat,5,,,5563BA,Westerhoven,Bergeijk,Noord-Brabant,VBO,5.396673,51.332384
Lindenstraat,6,,,5563BA,Westerhoven,Bergeijk,Noord-Brabant,VBO,5.397775,51.332345
Lindenstraat,7,,,5563BA,Westerhoven,Bergeijk,Noord-Brabant,VBO,5.396594,51.332368
Lindenstraat,8,,,5563BA,Westerhoven,Bergeijk,Noord-Brabant,VBO,5.397623,51.332312
Lindenstraat,9,,,5563BA,Westerhoven,Bergeijk,Noord-Brabant,VBO,5.396385,51.332325
Lindenstraat,10,,,5563BA,Westerhoven,Bergeijk,Noord-Brabant,VBO,5.397406,51.332258
Lindenstraat,11,,,5563BA,Westerhoven,Bergeijk,Noord-Brabant,VBO,5.396302,51.332308
Lindenstraat,12,,,5563BA,Westerhoven,Bergeijk,Noord-Brabant,VBO,5.397173,51.332200
Lindenstraat,14,,,5563BA,Westerhoven,Bergeijk,Noord-Brabant,VBO,5.396950,51.332141
Lindenstraat,16,,,5563BA,Westerhoven,Bergeijk,Noord-Brabant,VBO,5.396872,51.332122
Lindenstraat,18,,,5563BA,Westerhoven,Bergeijk,Noord-Brabant,VBO,5.396650,51.332166
Lindenstraat,20,,,5563BA,Westerhoven,Bergeijk,Noord-Brabant,VBO,5.396574,51.332150
Lindenstraat,22,,,5563BA,Westerhoven,Bergeijk,Noord-Brabant,VBO,5.396427,51.332121
Lindenstraat,24,,,5563BA,Westerhoven,Bergeijk,Noord-Brabant,VBO,5.396348,51.332104
Lindenstraat,26,,,5563BA,Westerhoven,Bergeijk,Noord-Brabant,VBO,5.396200,51.332074
Lindenstraat,28,,,5563BA,Westerhoven,Bergeijk,Noord-Brabant,VBO,5.396120,51.332058
Plataanstraat,1,,,5563BB,Westerhoven,Bergeijk,Noord-Brabant,VBO,5.395443,51.332353
Plataanstraat,3,,,5563BB,Westerhoven,Bergeijk,Noord-Brabant,VBO,5.395485,51.332300
Plataanstraat,4,,,5563BB,Westerhoven,Bergeijk,Noord-Brabant,VBO,5.395818,51.332425
Plataanstraat,5,,,5563BB,Westerhoven,Bergeijk,Noord-Brabant,VBO,5.395526,51.332250
Plataanstraat,6,,,5563BB,Westerhoven,Bergeijk,Noord-Brabant,VBO,5.395855,51.332378
Plataanstraat,7,,,5563BB,Westerhoven,Bergeijk,Noord-Brabant,VBO,5.395566,51.332199
Plataanstraat,8,,,5563BB,Westerhoven,Bergeijk,Noord-Brabant,VBO,5.395918,51.332295
Plataanstraat,9,,,5563BB,Westerhoven,Bergeijk,Noord-Brabant,VBO,5.395642,51.332104
Plataanstraat,10,,,5563BB,Westerhoven,Bergeijk,Noord-Brabant,VBO,5.395950,51.332252
Plataanstraat,11,,,5563BB,Westerhoven,Bergeijk,Noord-Brabant,VBO,5.395684,51.332052
Plataanstraat,13,,,5563BB,Westerhoven,Bergeijk,Noord-Brabant,VBO,5.395727,51.331999
Plataanstraat,15,,,5563BB,Westerhoven,Bergeijk,Noord-Brabant,VBO,5.395768,51.331948
Dorpstraat,1,,,5563BC,Westerhoven,Bergeijk,Noord-Brabant,VBO,5.399674,51.331454
Dorpstraat,3,,,5563BC,Westerhoven,Bergeijk,Noord-Brabant,VBO,5.399576,51.331449
Dorpstraat,5,,,5563BC,Westerhoven,Bergeijk,Noord-Brabant,VBO,5.399407,51.331438
Dorpstraat,7,a,,5563BC,Westerhoven,Bergeijk,Noord-Brabant,VBO,5.399074,51.331426
Dorpstraat,7,,,5563BC,Westerhoven,Bergeijk,Noord-Brabant,VBO,5.399195,51.331433
Dorpstraat,9,,,5563BC,Westerhoven,Bergeijk,Noord-Brabant,VBO,5.398859,51.331415
Dorpstraat,11,,,5563BC,Westerhoven,Bergeijk,Noord-Brabant,VBO,5.398482,51.331276
Dorpstraat,15,,,5563BC,Westerhoven,Bergeijk,Noord-Brabant,VBO,5.396568,51.331407
Dorpstraat,17,,,5563BC,Westerhoven,Bergeijk,Noord-Brabant,VBO,5.396020,51.331433
Dorpstraat,19,a,,5563BC,Westerhoven,Bergeijk,Noord-Brabant,VBO,5.395435,51.331278
Dorpstraat,19,,,5563BC,Westerhoven,Bergeijk,Noord-Brabant,VBO,5.395713,51.331409
Dorpstraat,25,,,5563BC,Westerhoven,Bergeijk,Noord-Brabant,VBO,5.394782,51.330614
Dorpstraat,27,,,5563BC,Westerhoven,Bergeijk,Noord-Brabant,VBO,5.394641,51.330460
Dorpstraat,33,,,5563BC,Westerhoven,Bergeijk,Noord-Brabant,VBO,5.394416,51.330144
Dorpstraat,35,,,5563BC,Westerhoven,Bergeijk,Noord-Brabant,VBO,5.394154,51.329948
Dorpstraat,2,,,5563BD,Westerhoven,Bergeijk,Noord-Brabant,VBO,5.400861,51.331742
Dorpstraat,4,,,5563BD,Westerhoven,Bergeijk,Noord-Brabant,VBO,5.400687,51.331723
Dorpstraat,6,,,5563BD,Westerhoven,Bergeijk,Noord-Brabant,VBO,5.400434,51.331772
Dorpstraat,8,,,5563BD,Westerhoven,Bergeijk,Noord-Brabant,VBO,5.400087,51.331751
Dorpstraat,10,,,5563BD,Westerhoven,Bergeijk,Noord-Brabant,VBO,5.399846,51.331746
Dorpstraat,12,,,5563BD,Westerhoven,Bergeijk,Noord-Brabant,VBO,5.399762,51.331659
Dorpstraat,14,,,5563BD,Westerhoven,Bergeijk,Noord-Brabant,VBO,5.399544,51.331631
Dorpstraat,16,,,5563BD,Westerhoven,Bergeijk,Noord-Brabant,VBO,5.399314,51.331673
Dorpstraat,18,,,5563BD,Westerhoven,Bergeijk,Noord-Brabant,VBO,5.399079,51.331597
Dorpstraat,20,,,5563BD,Westerhoven,Bergeijk,Noord-Brabant,VBO,5.398891,51.331578
Dorpstraat,22,,,5563BD,Westerhoven,Bergeijk,Noord-Brabant,VBO,5.398484,51.331680
Dorpstraat,24,,,5563BD,Westerhoven,Bergeijk,Noord-Brabant,VBO,5.398088,51.331588
Dorpstraat,26,,,5563BD,Westerhoven,Bergeijk,Noord-Brabant,VBO,5.397650,51.331621
Dorpstraat,30,,,5563BD,Westerhoven,Bergeijk,Noord-Brabant,VBO,5.397274,51.331581
Dorpstraat,34,,,5563BD,Westerhoven,Bergeijk,Noord-Brabant,VBO,5.396889,51.331647
Dorpstraat,36,,,5563BD,Westerhoven,Bergeijk,Noord-Brabant,VBO,5.396608,51.331673
Dorpstraat,38,a,,5563BD,Westerhoven,Bergeijk,Noord-Brabant,VBO,5.396241,51.331681
Dorpstraat,38,,,5563BD,Westerhoven,Bergeijk,Noord-Brabant,VBO,5.396464,51.331678
Dorpstraat,40,,,5563BE,Westerhoven,Bergeijk,Noord-Brabant,VBO,5.395929,51.331668
Dorpstraat,42,,,5563BE,Westerhoven,Bergeijk,Noord-Brabant,VBO,5.395526,51.331584
Dorpstraat,44,,,5563BE,Westerhoven,Bergeijk,Noord-Brabant,VBO,5.395394,51.331556
Dorpstraat,48,a,,5563BE,Westerhoven,Bergeijk,Noord-Brabant,VBO,5.394560,51.331002
Dorpstraat,48,,,5563BE,Westerhoven,Bergeijk,Noord-Brabant,VBO,5.394625,51.331150
Dorpstraat,50,,,5563BE,Westerhoven,Bergeijk,Noord-Brabant,VBO,5.394481,51.330914
Dorpstraat,52,,,5563BE,Westerhoven,Bergeijk,Noord-Brabant,VBO,5.394336,51.330700
Dorpstraat,54,,,5563BE,Westerhoven,Bergeijk,Noord-Brabant,VBO,5.394245,51.330601
Dorpstraat,56,,,5563BE,Westerhoven,Bergeijk,Noord-Brabant,VBO,5.394145,51.330486
Dorpstraat,58,,,5563BE,Westerhoven,Bergeijk,Noord-Brabant,VBO,5.394028,51.330351
Loverensedijk,1,,,5563BG,Westerhoven,Bergeijk,Noord-Brabant,VBO,5.410762,51.336605
Loverensedijk,5,,,5563BG,Westerhoven,Bergeijk,Noord-Brabant,VBO,5.411671,51.336388
Mgr. Biermansplein,2,,,5563BH,Westerhoven,Bergeijk,Noord-Brabant,VBO,5.397526,51.331306
Mgr. Biermansplein,8,,,5563BH,Westerhoven,Bergeijk,Noord-Brabant,VBO,5.397527,51.331041
Aarperstraat,1,a,,5563BJ,Westerhoven,Bergeijk,Noord-Brabant,VBO,5.394882,51.331560
Aarperstraat,1,,,5563BJ,Westerhoven,Bergeijk,Noord-Brabant,VBO,5.395017,51.331483
Aarperstraat,3,a,,5563BJ,Westerhoven,Bergeijk,Noord-Brabant,VBO,5.394489,51.331707
Aarperstraat,3,,,5563BJ,Westerhoven,Bergeijk,Noord-Brabant,VBO,5.394639,51.331637
Aarperstraat,5,,,5563BJ,Westerhoven,Bergeijk,Noord-Brabant,VBO,5.394279,51.331815
Aarperstraat,7,,,5563BJ,Westerhoven,Bergeijk,Noord-Brabant,VBO,5.394039,51.331918
Aarperstraat,9,,,5563BJ,Westerhoven,Bergeijk,Noord-Brabant,VBO,5.393966,51.331954
Aarperstraat,11,,,5563BJ,Westerhoven,Bergeijk,Noord-Brabant,VBO,5.393623,51.332094
Aarperstraat,15,,,5563BJ,Westerhoven,Bergeijk,Noord-Brabant,VBO,5.393242,51.332321
Aarperstraat,17,,,5563BJ,Westerhoven,Bergeijk,Noord-Brabant,VBO,5.393134,51.332379
Aarperstraat,19,,,5563BJ,Westerhoven,Bergeijk,Noord-Brabant,VBO,5.392832,51.332567
Aarperstraat,23,,,5563BJ,Westerhoven,Bergeijk,Noord-Brabant,VBO,5.392594,51.332733
Aarperstraat,27,,,5563BJ,Westerhoven,Bergeijk,Noord-Brabant,VBO,5.392439,51.332911
Aarperstraat,29,,,5563BJ,Westerhoven,Bergeijk,Noord-Brabant,VBO,5.392316,51.333102
Aarperstraat,35,,,5563BJ,Westerhoven,Bergeijk,Noord-Brabant,VBO,5.392092,51.333481
Aarperstraat,37,,,5563BJ,Westerhoven,Bergeijk,Noord-Brabant,VBO,5.391886,51.333747
Aarperstraat,39,,,5563BJ,Westerhoven,Bergeijk,Noord-Brabant,VBO,5.391504,51.333884
Aarperstraat,41,,,5563BJ,Westerhoven,Bergeijk,Noord-Brabant,VBO,5.391737,51.334024
Aarperstraat,43,,,5563BJ,Westerhoven,Bergeijk,Noord-Brabant,VBO,5.391406,51.334147
Aarperstraat,45,,,5563BJ,Westerhoven,Bergeijk,Noord-Brabant,VBO,5.391329,51.334200
Aarperstraat,47,,,5563BJ,Westerhoven,Bergeijk,Noord-Brabant,VBO,5.390931,51.334297
Aarperstraat,49,,,5563BJ,Westerhoven,Bergeijk,Noord-Brabant,VBO,5.389262,51.335784
Aarperstraat,2,,,5563BK,Westerhoven,Bergeijk,Noord-Brabant,VBO,5.395053,51.331716
Aarperstraat,4,,,5563BK,Westerhoven,Bergeijk,Noord-Brabant,VBO,5.394906,51.331789
Aarperstraat,6,,,5563BK,Westerhoven,Bergeijk,Noord-Brabant,VBO,5.394828,51.331828
Aarperstraat,8,,,5563BK,Westerhoven,Bergeijk,Noord-Brabant,VBO,5.394647,51.331919
Aarperstraat,10,,,5563BK,Westerhoven,Bergeijk,Noord-Brabant,VBO,5.393873,51.332243
Aarperstraat,12,,,5563BK,Westerhoven,Bergeijk,Noord-Brabant,VBO,5.393503,51.332394
Aarperstraat,14,,,5563BK,Westerhoven,Bergeijk,Noord-Brabant,VBO,5.393291,51.332530
Aarperstraat,16,,,5563BK,Westerhoven,Bergeijk,Noord-Brabant,VBO,5.393014,51.332700
Aarperstraat,18,a,,5563BK,Westerhoven,Bergeijk,Noord-Brabant,VBO,5.392921,51.332986
Aarperstraat,18,,,5563BK,Westerhoven,Bergeijk,Noord-Brabant,VBO,5.392997,51.332881
Aarperstraat,20,,,5563BK,Westerhoven,Bergeijk,Noord-Brabant,VBO,5.392774,51.333139
Aarperstraat,26,,,5563BK,Westerhoven,Bergeijk,Noord-Brabant,VBO,5.392541,51.333374
Aarperstraat,30,,,5563BK,Westerhoven,Bergeijk,Noord-Brabant,VBO,5.392465,51.333636
Aarperstraat,32,,,5563BK,Westerhoven,Bergeijk,Noord-Brabant,VBO,5.392360,51.333780
Aarperstraat,34,,,5563BK,Westerhoven,Bergeijk,Noord-Brabant,VBO,5.392273,51.333911
Aarperstraat,36,,,5563BK,Westerhoven,Bergeijk,Noord-Brabant,VBO,5.392099,51.334047
Aarperstraat,38,,,5563BK,Westerhoven,Bergeijk,Noord-Brabant,VBO,5.391972,51.334159
Aarperstraat,40,,,5563BK,Westerhoven,Bergeijk,Noord-Brabant,VBO,5.391909,51.334204
Aarperstraat,42,,,5563BK,Westerhoven,Bergeijk,Noord-Brabant,VBO,5.391728,51.334388
Aarperstraat,44,a,,5563BK,Westerhoven,Bergeijk,Noord-Brabant,VBO,5.390671,51.335223
Aarperstraat,44,,,5563BK,Westerhoven,Bergeijk,Noord-Brabant,VBO,5.391011,51.334950
Meanderstraat,1,,,5563BL,Westerhoven,Bergeijk,Noord-Brabant,VBO,5.393732,51.331838
Meanderstraat,2,,,5563BL,Westerhoven,Bergeijk,Noord-Brabant,VBO,5.393460,51.331980
Meanderstraat,3,,,5563BL,Westerhoven,Bergeijk,Noord-Brabant,VBO,5.393670,51.331799
Meanderstraat,4,,,5563BL,Westerhoven,Bergeijk,Noord-Brabant,VBO,5.393389,51.331936
Meanderstraat,5,,,5563BL,Westerhoven,Bergeijk,Noord-Brabant,VBO,5.393559,51.331729
Meanderstraat,6,,,5563BL,Westerhoven,Bergeijk,Noord-Brabant,VBO,5.393242,51.331864
Meanderstraat,7,,,5563BL,Westerhoven,Bergeijk,Noord-Brabant,VBO,5.393494,51.331687
Meanderstraat,8,,,5563BL,Westerhoven,Bergeijk,Noord-Brabant,VBO,5.393171,51.331820
Meanderstraat,9,,,5563BL,Westerhoven,Bergeijk,Noord-Brabant,VBO,5.393217,51.331573
Meanderstraat,10,,,5563BL,Westerhoven,Bergeijk,Noord-Brabant,VBO,5.392959,51.331787
Meanderstraat,11,,,5563BL,Westerhoven,Bergeijk,Noord-Brabant,VBO,5.392946,51.331524
Meanderstraat,12,,,5563BL,Westerhoven,Bergeijk,Noord-Brabant,VBO,5.392873,51.331754
Meanderstraat,13,,,5563BL,Westerhoven,Bergeijk,Noord-Brabant,VBO,5.392728,51.331443
Meanderstraat,14,,,5563BL,Westerhoven,Bergeijk,Noord-Brabant,VBO,5.392699,51.331710
Meanderstraat,15,,,5563BL,Westerhoven,Bergeijk,Noord-Brabant,VBO,5.392847,51.331217
Meanderstraat,16,,,5563BL,Westerhoven,Bergeijk,Noord-Brabant,VBO,5.392610,51.331677
Meanderstraat,17,,,5563BL,Westerhoven,Bergeijk,Noord-Brabant,VBO,5.392984,51.331081
Meanderstraat,18,,,5563BL,Westerhoven,Bergeijk,Noord-Brabant,VBO,5.392437,51.331634
Meanderstraat,19,,,5563BL,Westerhoven,Bergeijk,Noord-Brabant,VBO,5.393134,51.330958
Meanderstraat,20,a,,5563BL,Westerhoven,Bergeijk,Noord-Brabant,VBO,5.391983,51.331649
Meanderstraat,20,,,5563BL,Westerhoven,Bergeijk,Noord-Brabant,VBO,5.392347,51.331600
Meanderstraat,21,,,5563BL,Westerhoven,Bergeijk,Noord-Brabant,VBO,5.393441,51.331019
Meanderstraat,22,,,5563BL,Westerhoven,Bergeijk,Noord-Brabant,VBO,5.392124,51.331517
Meanderstraat,23,,,5563BL,Westerhoven,Bergeijk,Noord-Brabant,VBO,5.393618,51.331139
Meanderstraat,24,,,5563BL,Westerhoven,Bergeijk,Noord-Brabant,VBO,5.392173,51.331469
Meanderstraat,25,,,5563BL,Westerhoven,Bergeijk,Noord-Brabant,VBO,5.393866,51.331240
Meanderstraat,26,,,5563BL,Westerhoven,Bergeijk,Noord-Brabant,VBO,5.392221,51.331420
Meanderstraat,27,,,5563BL,Westerhoven,Bergeijk,Noord-Brabant,VBO,5.394159,51.331099
Meanderstraat,28,,,5563BL,Westerhoven,Bergeijk,Noord-Brabant,VBO,5.392270,51.331371
Meanderstraat,30,,,5563BL,Westerhoven,Bergeijk,Noord-Brabant,VBO,5.392366,51.331250
Meanderstraat,32,,,5563BL,Westerhoven,Bergeijk,Noord-Brabant,VBO,5.392416,51.331201
Meanderstraat,34,,,5563BL,Westerhoven,Bergeijk,Noord-Brabant,VBO,5.392556,51.331062
Meanderstraat,38,,,5563BL,Westerhoven,Bergeijk,Noord-Brabant,VBO,5.392678,51.330941
Meanderstraat,40,,,5563BL,Westerhoven,Bergeijk,Noord-Brabant,VBO,5.392849,51.330773
Meanderstraat,46,,,5563BL,Westerhoven,Bergeijk,Noord-Brabant,VBO,5.393008,51.330659
Meanderstraat,48,,,5563BL,Westerhoven,Bergeijk,Noord-Brabant,VBO,5.393178,51.330512
Meanderstraat,50,,,5563BL,Westerhoven,Bergeijk,Noord-Brabant,VBO,5.393504,51.330532
Meanderstraat,52,,,5563BL,Westerhoven,Bergeijk,Noord-Brabant,VBO,5.393531,51.330770
Meanderstraat,54,,,5563BL,Westerhoven,Bergeijk,Noord-Brabant,VBO,5.393717,51.330885
Meanderstraat,56,,,5563BL,Westerhoven,Bergeijk,Noord-Brabant,VBO,5.393804,51.330933
Heijerstraat,1,,,5563BM,Westerhoven,Bergeijk,Noord-Brabant,VBO,5.393562,51.329504
Heijerstraat,3,,,5563BM,Westerhoven,Bergeijk,Noord-Brabant,VBO,5.393431,51.329481
Heijerstraat,5,,,5563BM,Westerhoven,Bergeijk,Noord-Brabant,VBO,5.393186,51.329436
Heijerstraat,7,,,5563BM,Westerhoven,Bergeijk,Noord-Brabant,VBO,5.393174,51.328807
Heijerstraat,9,,,5563BM,Westerhoven,Bergeijk,Noord-Brabant,VBO,5.391635,51.329247
Heijerstraat,11,,,5563BM,Westerhoven,Bergeijk,Noord-Brabant,VBO,5.391261,51.329140
Heijerstraat,15,,,5563BM,Westerhoven,Bergeijk,Noord-Brabant,VBO,5.390518,51.328979
Heijerstraat,17,,,5563BM,Westerhoven,Bergeijk,Noord-Brabant,VBO,5.390179,51.328960
Heijerstraat,19,a,,5563BM,Westerhoven,Bergeijk,Noord-Brabant,VBO,5.389816,51.328888
Heijerstraat,21,a,,5563BM,Westerhoven,Bergeijk,Noord-Brabant,VBO,5.389275,51.328701
Heijerstraat,21,b,,5563BM,Westerhoven,Bergeijk,Noord-Brabant,VBO,5.389185,51.328664
Heijerstraat,21,,,5563BM,Westerhoven,Bergeijk,Noord-Brabant,VBO,5.389467,51.328805
Heijerstraat,23,,,5563BM,Westerhoven,Bergeijk,Noord-Brabant,VBO,5.389049,51.328608
Heijerstraat,25,,,5563BM,Westerhoven,Bergeijk,Noord-Brabant,VBO,5.388434,51.328347
Heijerstraat,29,,,5563BM,Westerhoven,Bergeijk,Noord-Brabant,VBO,5.388058,51.328037
Heijerstraat,35,a,,5563BM,Westerhoven,Bergeijk,Noord-Brabant,VBO,5.385567,51.327226
Heijerstraat,35,b,,5563BM,Westerhoven,Bergeijk,Noord-Brabant,VBO,5.385643,51.326963
Heijerstraat,35,,,5563BM,Westerhoven,Bergeijk,Noord-Brabant,VBO,5.385754,51.327272
Heijerstraat,37,,,5563BM,Westerhoven,Bergeijk,Noord-Brabant,VBO,5.384748,51.326787
Heijerstraat,2,a,,5563BN,Westerhoven,Bergeijk,Noord-Brabant,VBO,5.393495,51.329782
Heijerstraat,2,,,5563BN,Westerhoven,Bergeijk,Noord-Brabant,VBO,5.393632,51.329819
Heijerstraat,4,,,5563BN,Westerhoven,Bergeijk,Noord-Brabant,VBO,5.393258,51.329741
Heijerstraat,6,,,5563BN,Westerhoven,Bergeijk,Noord-Brabant,VBO,5.393011,51.329700
Heijerstraat,8,,,5563BN,Westerhoven,Bergeijk,Noord-Brabant,VBO,5.392788,51.329721
Heijerstraat,10,,,5563BN,Westerhoven,Bergeijk,Noord-Brabant,VBO,5.392448,51.329662
Heijerstraat,12,a,,5563BN,Westerhoven,Bergeijk,Noord-Brabant,VBO,5.391788,51.330681
Heijerstraat,12,,,5563BN,Westerhoven,Bergeijk,Noord-Brabant,VBO,5.392479,51.330026
Heijerstraat,14,,,5563BN,Westerhoven,Bergeijk,Noord-Brabant,VBO,5.391265,51.329412
Heijerstraat,16,a,,5563BN,Westerhoven,Bergeijk,Noord-Brabant,VBO,5.390334,51.329249
Heijerstraat,16,b,,5563BN,Westerhoven,Bergeijk,Noord-Brabant,VBO,5.390615,51.329416
Heijerstraat,16,,,5563BN,Westerhoven,Bergeijk,Noord-Brabant,VBO,5.390834,51.329380
Heijerstraat,18,,,5563BN,Westerhoven,Bergeijk,Noord-Brabant,VBO,5.390195,51.329219
Heijerstraat,20,a,,5563BN,Westerhoven,Bergeijk,Noord-Brabant,VBO,5.389697,51.329085
Heijerstraat,20,,,5563BN,Westerhoven,Bergeijk,Noord-Brabant,VBO,5.389858,51.329132
Heijerstraat,22,,,5563BN,Westerhoven,Bergeijk,Noord-Brabant,VBO,5.389415,51.329013
Heijerstraat,24,,,5563BN,Westerhoven,Bergeijk,Noord-Brabant,VBO,5.389038,51.328887
Heijerstraat,26,a,,5563BN,Westerhoven,Bergeijk,Noord-Brabant,VBO,5.388627,51.328769
Heijerstraat,26,,,5563BN,Westerhoven,Bergeijk,Noord-Brabant,VBO,5.388787,51.328809
Heijerstraat,28,,,5563BN,Westerhoven,Bergeijk,Noord-Brabant,VBO,5.387138,51.328039
Heijerstraat,30,,,5563BN,Westerhoven,Bergeijk,Noord-Brabant,VBO,5.386507,51.327833
Heijerstraat,32,,,5563BN,Westerhoven,Bergeijk,Noord-Brabant,VBO,5.386344,51.327790
Heijerstraat,36,,,5563BN,Westerhoven,Bergeijk,Noord-Brabant,VBO,5.386190,51.327674
Heijerstraat,38,,,5563BN,Westerhoven,Bergeijk,Noord-Brabant,VBO,5.385978,51.327635
Heijerstraat,40,a,,5563BN,Westerhoven,Bergeijk,Noord-Brabant,VBO,5.385634,51.328045
Heijerstraat,40,,,5563BN,Westerhoven,Bergeijk,Noord-Brabant,VBO,5.385760,51.327592
Heijerstraat,42,a,,5563BN,Westerhoven,Bergeijk,Noord-Brabant,VBO,5.384985,51.327707
Heijerstraat,42,,,5563BN,Westerhoven,Bergeijk,Noord-Brabant,VBO,5.385149,51.327508
Heijerstraat,44,,,5563BN,Westerhoven,Bergeijk,Noord-Brabant,VBO,5.384714,51.327409
Heijerdijk,1,a,,5563BP,Westerhoven,Bergeijk,Noord-Brabant,VBO,5.387731,51.326755
Heijerdijk,1,,,5563BP,Westerhoven,Bergeijk,Noord-Brabant,VBO,5.387567,51.327222
Ekkerweg,1,,,5563BR,Westerhoven,Bergeijk,Noord-Brabant,VBO,5.387624,51.328385
Ekkerweg,2,,,5563BR,Westerhoven,Bergeijk,Noord-Brabant,VBO,5.388099,51.328686
Ekkerweg,3,,,5563BR,Westerhoven,Bergeijk,Noord-Brabant,VBO,5.386550,51.328515
Ekkerweg,4,,,5563BR,Westerhoven,Bergeijk,Noord-Brabant,VBO,5.387543,51.328716
Ekkerweg,5,,,5563BR,Westerhoven,Bergeijk,Noord-Brabant,VBO,5.386226,51.328934
Ekkerweg,6,,,5563BR,Westerhoven,Bergeijk,Noord-Brabant,VBO,5.387293,51.328704
Ekkerweg,7,,,5563BR,Westerhoven,Bergeijk,Noord-Brabant,VBO,5.386089,51.329067
Ekkerweg,8,,,5563BR,Westerhoven,Bergeijk,Noord-Brabant,VBO,5.387038,51.328701
Ekkerweg,9,,,5563BR,Westerhoven,Bergeijk,Noord-Brabant,VBO,5.385940,51.329199
Ekkerweg,10,,,5563BR,Westerhoven,Bergeijk,Noord-Brabant,VBO,5.386921,51.328701
Ekkerweg,12,,,5563BR,Westerhoven,Bergeijk,Noord-Brabant,VBO,5.386701,51.328941
Ekkerweg,13,,,5563BR,Westerhoven,Bergeijk,Noord-Brabant,VBO,5.385850,51.329346
Ekkerweg,14,,,5563BR,Westerhoven,Bergeijk,Noord-Brabant,VBO,5.386599,51.329054
Ekkerweg,16,,,5563BR,Westerhoven,Bergeijk,Noord-Brabant,VBO,5.386476,51.329178
Ekkerweg,18,,,5563BR,Westerhoven,Bergeijk,Noord-Brabant,VBO,5.386345,51.329298
Ekkerweg,20,,,5563BR,Westerhoven,Bergeijk,Noord-Brabant,VBO,5.386232,51.329427
Ekkerweg,22,,,5563BR,Westerhoven,Bergeijk,Noord-Brabant,VBO,5.386033,51.329625
Keulsepad,1,,,5563BS,Westerhoven,Bergeijk,Noord-Brabant,VBO,5.386427,51.328587
Keulsepad,2,,,5563BS,Westerhoven,Bergeijk,Noord-Brabant,VBO,5.386070,51.328721
Keulsepad,4,,,5563BS,Westerhoven,Bergeijk,Noord-Brabant,VBO,5.383465,51.328177
Keulsepad,6,,,5563BS,Westerhoven,Bergeijk,Noord-Brabant,VBO,5.381808,51.327832
Lange Akkers,1,a,,5563BT,Westerhoven,Bergeijk,Noord-Brabant,VBO,5.397182,51.335351
Lange Akkers,1,,,5563BT,Westerhoven,Bergeijk,Noord-Brabant,VBO,5.397470,51.335428
Lange Akkers,2,,,5563BT,Westerhoven,Bergeijk,Noord-Brabant,VBO,5.396702,51.335506
Lange Akkers,3,,,5563BT,Westerhoven,Bergeijk,Noord-Brabant,VBO,5.396851,51.335145
Lange Akkers,4,,,5563BT,Westerhoven,Bergeijk,Noord-Brabant,VBO,5.396047,51.335303
Lange Akkers,5,,,5563BT,Westerhoven,Bergeijk,Noord-Brabant,VBO,5.395041,51.335036
Lange Akkers,6,,,5563BT,Westerhoven,Bergeijk,Noord-Brabant,VBO,5.395566,51.335044
Lange Akkers,7,,,5563BT,Westerhoven,Bergeijk,Noord-Brabant,VBO,5.394657,51.335112
Lange Akkers,8,,,5563BT,Westerhoven,Bergeijk,Noord-Brabant,VBO,5.395389,51.335157
Lange Akkers,9,,,5563BT,Westerhoven,Bergeijk,Noord-Brabant,VBO,5.394419,51.335085
Lange Akkers,10,,,5563BT,Westerhoven,Bergeijk,Noord-Brabant,VBO,5.395213,51.335266
Lange Akkers,11,,,5563BT,Westerhoven,Bergeijk,Noord-Brabant,VBO,5.394329,51.335062
Lange Akkers,12,,,5563BT,Westerhoven,Bergeijk,Noord-Brabant,VBO,5.395133,51.335311
Lange Akkers,13,,,5563BT,Westerhoven,Bergeijk,Noord-Brabant,VBO,5.394114,51.334959
Lange Akkers,14,,,5563BT,Westerhoven,Bergeijk,Noord-Brabant,VBO,5.394876,51.335368
Lange Akkers,15,,,5563BT,Westerhoven,Bergeijk,Noord-Brabant,VBO,5.393963,51.334870
Lange Akkers,16,,,5563BT,Westerhoven,Bergeijk,Noord-Brabant,VBO,5.394378,51.335331
Lange Akkers,17,,,5563BT,Westerhoven,Bergeijk,Noord-Brabant,VBO,5.393887,51.334843
Lange Akkers,18,,,5563BT,Westerhoven,Bergeijk,Noord-Brabant,VBO,5.394304,51.335301
Lange Akkers,19,,,5563BT,Westerhoven,Bergeijk,Noord-Brabant,VBO,5.393672,51.334756
Lange Akkers,20,,,5563BT,Westerhoven,Bergeijk,Noord-Brabant,VBO,5.394114,51.335252
Lange Akkers,21,,,5563BT,Westerhoven,Bergeijk,Noord-Brabant,VBO,5.393501,51.334679
Lange Akkers,22,,,5563BT,Westerhoven,Bergeijk,Noord-Brabant,VBO,5.394036,51.335224
Lange Akkers,23,,,5563BT,Westerhoven,Bergeijk,Noord-Brabant,VBO,5.393428,51.334653
Lange Akkers,24,,,5563BV,Westerhoven,Bergeijk,Noord-Brabant,VBO,5.393865,51.335140
Lange Akkers,25,,,5563BV,Westerhoven,Bergeijk,Noord-Brabant,VBO,5.393254,51.334585
Lange Akkers,26,,,5563BV,Westerhoven,Bergeijk,Noord-Brabant,VBO,5.393640,51.335035
Lange Akkers,27,,,5563BV,Westerhoven,Bergeijk,Noord-Brabant,VBO,5.393149,51.334582
Lange Akkers,28,,,5563BV,Westerhoven,Bergeijk,Noord-Brabant,VBO,5.393571,51.335001
Lange Akkers,29,,,5563BV,Westerhoven,Bergeijk,Noord-Brabant,VBO,5.392943,51.334592
Lange Akkers,30,,,5563BV,Westerhoven,Bergeijk,Noord-Brabant,VBO,5.393365,51.334905
Lange Akkers,31,,,5563BV,Westerhoven,Bergeijk,Noord-Brabant,VBO,5.392845,51.334620
Lange Akkers,32,,,5563BV,Westerhoven,Bergeijk,Noord-Brabant,VBO,5.393085,51.334857
Lange Akkers,33,,,5563BV,Westerhoven,Bergeijk,Noord-Brabant,VBO,5.391901,51.334543
Lange Akkers,34,,,5563BV,Westerhoven,Bergeijk,Noord-Brabant,VBO,5.392996,51.334855
Lange Akkers,36,,,5563BV,Westerhoven,Bergeijk,Noord-Brabant,VBO,5.391780,51.334779
Lange Akkers,38,a,,5563BV,Westerhoven,Bergeijk,Noord-Brabant,VBO,5.391548,51.334693
Lange Akkers,38,,,5563BV,Westerhoven,Bergeijk,Noord-Brabant,VBO,5.391513,51.334593
Lente Akkers,1,,,5563BW,Westerhoven,Bergeijk,Noord-Brabant,VBO,5.390893,51.334001
Lente Akkers,2,,,5563BW,Westerhoven,Bergeijk,Noord-Brabant,VBO,5.390615,51.334198
Lente Akkers,8,,,5563BW,Westerhoven,Bergeijk,Noord-Brabant,VBO,5.390055,51.333651
Hoge Bochten,1,,,5563BX,Westerhoven,Bergeijk,Noord-Brabant,VBO,5.384223,51.329640
Eikewal,1,,,5563BZ,Westerhoven,Bergeijk,Noord-Brabant,VBO,5.396680,51.333653
Eikewal,2,,,5563BZ,Westerhoven,Bergeijk,Noord-Brabant,VBO,5.397036,51.333760
Eikewal,3,,,5563BZ,Westerhoven,Bergeijk,Noord-Brabant,VBO,5.396606,51.333690
Eikewal,4,,,5563BZ,Westerhoven,Bergeijk,Noord-Brabant,VBO,5.396945,51.333721
Eikewal,5,,,5563BZ,Westerhoven,Bergeijk,Noord-Brabant,VBO,5.396429,51.333776
Eikewal,6,,,5563BZ,Westerhoven,Bergeijk,Noord-Brabant,VBO,5.396744,51.333846
Eikewal,7,,,5563BZ,Westerhoven,Bergeijk,Noord-Brabant,VBO,5.396355,51.333813
Eikewal,8,,,5563BZ,Westerhoven,Bergeijk,Noord-Brabant,VBO,5.396677,51.333879
Eikewal,9,,,5563BZ,Westerhoven,Bergeijk,Noord-Brabant,VBO,5.395635,51.334348
Eikewal,11,,,5563BZ,Westerhoven,Bergeijk,Noord-Brabant,VBO,5.395480,51.334471
Eikewal,13,,,5563BZ,Westerhoven,Bergeijk,Noord-Brabant,VBO,5.395155,51.333687
Steenovens,1,,,5563CA,Westerhoven,Bergeijk,Noord-Brabant,VBO,5.399971,51.335298
Steenovens,3,,,5563CA,Westerhoven,Bergeijk,Noord-Brabant,VBO,5.400010,51.335261
Steenovens,5,,,5563CA,Westerhoven,Bergeijk,Noord-Brabant,VBO,5.400053,51.335331
Steenovens,7,,,5563CA,Westerhoven,Bergeijk,Noord-Brabant,VBO,5.400094,51.335291
Steenovens,9,,,5563CA,Westerhoven,Bergeijk,Noord-Brabant,VBO,5.400343,51.335374
Steenovens,11,,,5563CA,Westerhoven,Bergeijk,Noord-Brabant,VBO,5.400637,51.335420
Steenovens,2,,,5563CB,Westerhoven,Bergeijk,Noord-Brabant,VBO,5.399354,51.335268
Steenovens,4,,,5563CB,Westerhoven,Bergeijk,Noord-Brabant,VBO,5.399414,51.335235
Steenovens,6,,,5563CB,Westerhoven,Bergeijk,Noord-Brabant,VBO,5.399473,51.335202
Steenovens,8,,,5563CB,Westerhoven,Bergeijk,Noord-Brabant,VBO,5.399584,51.335136
Steenovens,10,,,5563CB,Westerhoven,Bergeijk,Noord-Brabant,VBO,5.399663,51.335101
Steenovens,12,,,5563CB,Westerhoven,Bergeijk,Noord-Brabant,VBO,5.399790,51.335052
Steenovens,14,,,5563CB,Westerhoven,Bergeijk,Noord-Brabant,VBO,5.399831,51.335035
Steenovens,16,,,5563CB,Westerhoven,Bergeijk,Noord-Brabant,VBO,5.399951,51.334952
Steenovens,18,,,5563CB,Westerhoven,Bergeijk,Noord-Brabant,VBO,5.400125,51.335013
Steenovens,20,,,5563CB,Westerhoven,Bergeijk,Noord-Brabant,VBO,5.400200,51.335042
Steenovens,22,,,5563CB,Westerhoven,Bergeijk,Noord-Brabant,VBO,5.400337,51.335125
Steenovens,24,,,5563CB,Westerhoven,Bergeijk,Noord-Brabant,VBO,5.400713,51.335204
Steenovens,26,,,5563CB,Westerhoven,Bergeijk,Noord-Brabant,VBO,5.401002,51.335286
Steenovens,28,a,,5563CB,Westerhoven,Bergeijk,Noord-Brabant,VBO,5.401324,51.335374
Steenovens,28,,,5563CB,Westerhoven,Bergeijk,Noord-Brabant,VBO,5.401413,51.335272
Steenovens,30,a,,5563CB,Westerhoven,Bergeijk,Noord-Brabant,VBO,5.401146,51.335520
Steenovens,30,,,5563CB,Westerhoven,Bergeijk,Noord-Brabant,VBO,5.401220,51.335475
Steenovens,32,a,,5563CB,Westerhoven,Bergeijk,Noord-Brabant,VBO,5.400987,51.335639
Steenovens,32,,,5563CB,Westerhoven,Bergeijk,Noord-Brabant,VBO,5.401049,51.335589
Steenovens,34,a,,5563CB,Westerhoven,Bergeijk,Noord-Brabant,VBO,5.400839,51.335749
Steenovens,34,,,5563CB,Westerhoven,Bergeijk,Noord-Brabant,VBO,5.400901,51.335699
Steenovens,36,,,5563CB,Westerhoven,Bergeijk,Noord-Brabant,VBO,5.400636,51.335932
Steenovens,38,,,5563CB,Westerhoven,Bergeijk,Noord-Brabant,VBO,5.400700,51.335962
Steenovens,40,,,5563CB,Westerhoven,Bergeijk,Noord-Brabant,VBO,5.400819,51.336030
Steenovens,42,,,5563CB,Westerhoven,Bergeijk,Noord-Brabant,VBO,5.400890,51.336064
Steenovens,44,,,5563CB,Westerhoven,Bergeijk,Noord-Brabant,VBO,5.400978,51.336106
Steenovens,46,,,5563CB,Westerhoven,Bergeijk,Noord-Brabant,VBO,5.401049,51.336140
Steenovens,82,,,5563CC,Westerhoven,Bergeijk,Noord-Brabant,VBO,5.401284,51.335918
Steenovens,84,,,5563CC,Westerhoven,Bergeijk,Noord-Brabant,VBO,5.401331,51.335879
Steenovens,86,,,5563CC,Westerhoven,Bergeijk,Noord-Brabant,VBO,5.401422,51.335805
Steenovens,88,,,5563CC,Westerhoven,Bergeijk,Noord-Brabant,VBO,5.401469,51.335766
Steenovens,90,,,5563CC,Westerhoven,Bergeijk,Noord-Brabant,VBO,5.401590,51.335701
Steenovens,92,,,5563CC,Westerhoven,Bergeijk,Noord-Brabant,VBO,5.401637,51.335663
Steenovens,94,,,5563CC,Westerhoven,Bergeijk,Noord-Brabant,VBO,5.401772,51.335558
Steenovens,96,,,5563CC,Westerhoven,Bergeijk,Noord-Brabant,VBO,5.402057,51.335577
Steenovens,98,,,5563CC,Westerhoven,Bergeijk,Noord-Brabant,VBO,5.402291,51.335638
Steenovens,100,,,5563CC,Westerhoven,Bergeijk,Noord-Brabant,VBO,5.402538,51.335745
Steenovens,102,,,5563CC,Westerhoven,Bergeijk,Noord-Brabant,VBO,5.402757,51.335865
Steenovens,104,,,5563CC,Westerhoven,Bergeijk,Noord-Brabant,VBO,5.402642,51.336015
Steenovens,106,,,5563CC,Westerhoven,Bergeijk,Noord-Brabant,VBO,5.402528,51.336128
Steenovens,108,,,5563CC,Westerhoven,Bergeijk,Noord-Brabant,VBO,5.402364,51.336291
Steenovens,110,,,5563CC,Westerhoven,Bergeijk,Noord-Brabant,VBO,5.402313,51.336330
Steenovens,112,,,5563CC,Westerhoven,Bergeijk,Noord-Brabant,VBO,5.402197,51.336406
Steenovens,114,,,5563CC,Westerhoven,Bergeijk,Noord-Brabant,VBO,5.402148,51.336443
Steenovens,116,,,5563CC,Westerhoven,Bergeijk,Noord-Brabant,VBO,5.402050,51.336529
Steenovens,118,,,5563CC,Westerhoven,Bergeijk,Noord-Brabant,VBO,5.401996,51.336570
Steenovens,120,,,5563CC,Westerhoven,Bergeijk,Noord-Brabant,VBO,5.401723,51.336804
Steenovens,122,,,5563CC,Westerhoven,Bergeijk,Noord-Brabant,VBO,5.401594,51.336903
Steenovens,124,,,5563CC,Westerhoven,Bergeijk,Noord-Brabant,STA,5.401541,51.337027
Steenovens,126,,,5563CC,Westerhoven,Bergeijk,Noord-Brabant,VBO,5.401526,51.337122
Steenovens,52,,,5563CD,Westerhoven,Bergeijk,Noord-Brabant,VBO,5.399787,51.335484
Steenovens,54,,,5563CD,Westerhoven,Bergeijk,Noord-Brabant,VBO,5.399817,51.335527
Steenovens,56,,,5563CD,Westerhoven,Bergeijk,Noord-Brabant,VBO,5.399846,51.335571
Steenovens,58,,,5563CD,Westerhoven,Bergeijk,Noord-Brabant,VBO,5.399922,51.335686
Steenovens,60,,,5563CD,Westerhoven,Bergeijk,Noord-Brabant,VBO,5.400019,51.335785
Steenovens,62,,,5563CD,Westerhoven,Bergeijk,Noord-Brabant,VBO,5.400050,51.335831
Steenovens,64,,,5563CD,Westerhoven,Bergeijk,Noord-Brabant,VBO,5.400084,51.335930
Steenovens,66,,,5563CD,Westerhoven,Bergeijk,Noord-Brabant,VBO,5.400115,51.335977
Steenovens,51,,,5563CE,Westerhoven,Bergeijk,Noord-Brabant,VBO,5.399427,51.335498
Steenovens,53,,,5563CE,Westerhoven,Bergeijk,Noord-Brabant,VBO,5.399482,51.335609
Steenovens,55,,,5563CE,Westerhoven,Bergeijk,Noord-Brabant,VBO,5.399507,51.335647
Steenovens,57,,,5563CE,Westerhoven,Bergeijk,Noord-Brabant,VBO,5.399533,51.335684
Steenovens,59,,,5563CE,Westerhoven,Bergeijk,Noord-Brabant,VBO,5.399608,51.335775
Steenovens,61,,,5563CE,Westerhoven,Bergeijk,Noord-Brabant,VBO,5.399735,51.335918
Steenovens,63,,,5563CE,Westerhoven,Bergeijk,Noord-Brabant,VBO,5.399815,51.336090
Steenovens,65,,,5563CE,Westerhoven,Bergeijk,Noord-Brabant,VBO,5.399859,51.336290
Steenovens,67,,,5563CE,Westerhoven,Bergeijk,Noord-Brabant,VBO,5.399903,51.336463
Steenovens,69,,,5563CE,Westerhoven,Bergeijk,Noord-Brabant,VBO,5.400144,51.336310
Steenovens,71,,,5563CE,Westerhoven,Bergeijk,Noord-Brabant,VBO,5.400288,51.336175
Steenovens,73,,,5563CE,Westerhoven,Bergeijk,Noord-Brabant,VBO,5.400552,51.336113
Steenovens,75,,,5563CE,Westerhoven,Bergeijk,Noord-Brabant,VBO,5.400823,51.336255
Steenovens,79,,,5563CE,Westerhoven,Bergeijk,Noord-Brabant,VBO,5.400743,51.336428
Steenovens,81,,,5563CE,Westerhoven,Bergeijk,Noord-Brabant,VBO,5.400970,51.336521
Steenovens,83,,,5563CE,Westerhoven,Bergeijk,Noord-Brabant,VBO,5.401025,51.336550
Steenovens,85,,,5563CE,Westerhoven,Bergeijk,Noord-Brabant,VBO,5.401148,51.336625
Steenovens,87,,,5563CE,Westerhoven,Bergeijk,Noord-Brabant,VBO,5.401210,51.336657
Steenovens,89,,,5563CE,Westerhoven,Bergeijk,Noord-Brabant,VBO,5.401184,51.336350
Steenovens,91,,,5563CE,Westerhoven,Bergeijk,Noord-Brabant,VBO,5.401225,51.336306
Steenovens,93,,,5563CE,Westerhoven,Bergeijk,Noord-Brabant,VBO,5.401305,51.336245
Steenovens,95,,,5563CG,Westerhoven,Bergeijk,Noord-Brabant,VBO,5.401402,51.336160
Steenovens,97,,,5563CG,Westerhoven,Bergeijk,Noord-Brabant,VBO,5.401451,51.336122
Steenovens,99,,,5563CG,Westerhoven,Bergeijk,Noord-Brabant,VBO,5.401562,51.336049
Steenovens,101,,,5563CG,Westerhoven,Bergeijk,Noord-Brabant,VBO,5.401616,51.336008
Steenovens,103,a,,5563CG,Westerhoven,Bergeijk,Noord-Brabant,VBO,5.401936,51.335821
Steenovens,103,,,5563CG,Westerhoven,Bergeijk,Noord-Brabant,VBO,5.401767,51.335906
Steenovens,105,,,5563CG,Westerhoven,Bergeijk,Noord-Brabant,VBO,5.402314,51.335960
Steenovens,107,,,5563CG,Westerhoven,Bergeijk,Noord-Brabant,VBO,5.402228,51.336068
Steenovens,109,,,5563CG,Westerhoven,Bergeijk,Noord-Brabant,VBO,5.402126,51.336156
Steenovens,111,,,5563CG,Westerhoven,Bergeijk,Noord-Brabant,VBO,5.402072,51.336197
Steenovens,113,,,5563CG,Westerhoven,Bergeijk,Noord-Brabant,VBO,5.401990,51.336260
Steenovens,115,,,5563CG,Westerhoven,Bergeijk,Noord-Brabant,VBO,5.401941,51.336297
Steenovens,117,,,5563CG,Westerhoven,Bergeijk,Noord-Brabant,VBO,5.401825,51.336374
Steenovens,119,,,5563CG,Westerhoven,Bergeijk,Noord-Brabant,VBO,5.401771,51.336415
Hoefakkers,4,a,,5563CH,Westerhoven,Bergeijk,Noord-Brabant,VBO,5.401671,51.334604
Hoefakkers,4,,,5563CH,Westerhoven,Bergeijk,Noord-Brabant,VBO,5.401636,51.334590
Hoefakkers,6,a,,5563CH,Westerhoven,Bergeijk,Noord-Brabant,VBO,5.401625,51.334659
Hoefakkers,6,,,5563CH,Westerhoven,Bergeijk,Noord-Brabant,VBO,5.401590,51.334646
Hoefakkers,8,,,5563CH,Westerhoven,Bergeijk,Noord-Brabant,VBO,5.401872,51.334752
Hoefakkers,10,,,5563CH,Westerhoven,Bergeijk,Noord-Brabant,VBO,5.401947,51.334777
Hoefakkers,12,,,5563CH,Westerhoven,Bergeijk,Noord-Brabant,VBO,5.402066,51.334816
Hoefakkers,14,,,5563CH,Westerhoven,Bergeijk,Noord-Brabant,VBO,5.402135,51.334838
Hoefakkers,16,,,5563CH,Westerhoven,Bergeijk,Noord-Brabant,VBO,5.402260,51.334880
Hoefakkers,18,,,5563CH,Westerhoven,Bergeijk,Noord-Brabant,VBO,5.402344,51.334906
Hoefakkers,19,,,5563CH,Westerhoven,Bergeijk,Noord-Brabant,VBO,5.401185,51.334841
Hoefakkers,20,,,5563CH,Westerhoven,Bergeijk,Noord-Brabant,VBO,5.402531,51.334969
Hoefakkers,21,,,5563CH,Westerhoven,Bergeijk,Noord-Brabant,VBO,5.401641,51.334953
Hoefakkers,22,,,5563CH,Westerhoven,Bergeijk,Noord-Brabant,VBO,5.402732,51.334762
Hoefakkers,23,,,5563CH,Westerhoven,Bergeijk,Noord-Brabant,VBO,5.401919,51.335023
Hoefakkers,24,,,5563CH,Westerhoven,Bergeijk,Noord-Brabant,VBO,5.402779,51.334707
Hoefakkers,25,,,5563CH,Westerhoven,Bergeijk,Noord-Brabant,VBO,5.402244,51.335104
Hoefakkers,27,,,5563CH,Westerhoven,Bergeijk,Noord-Brabant,VBO,5.402540,51.335181
Hoefakkers,29,,,5563CH,Westerhoven,Bergeijk,Noord-Brabant,VBO,5.402823,51.335147
Hoefakkers,31,,,5563CH,Westerhoven,Bergeijk,Noord-Brabant,VBO,5.402914,51.334998
Hoefakkers,33,,,5563CH,Westerhoven,Bergeijk,Noord-Brabant,VBO,5.403018,51.334889
Hoefakkers,35,,,5563CH,Westerhoven,Bergeijk,Noord-Brabant,VBO,5.403122,51.334770
Hoefakkers,37,,,5563CH,Westerhoven,Bergeijk,Noord-Brabant,VBO,5.403178,51.334718
Hoefakkers,39,,,5563CH,Westerhoven,Bergeijk,Noord-Brabant,VBO,5.403314,51.334598
Hoefakkers,41,,,5563CH,Westerhoven,Bergeijk,Noord-Brabant,VBO,5.403444,51.334480
Hoefakkers,43,,,5563CH,Westerhoven,Bergeijk,Noord-Brabant,VBO,5.403483,51.334443
Hoefakkers,45,,,5563CH,Westerhoven,Bergeijk,Noord-Brabant,VBO,5.403592,51.334355
Leemskuilen,1,a,,5563CK,Westerhoven,Bergeijk,Noord-Brabant,VBO,5.405351,51.337565
Leemskuilen,1,b,,5563CK,Westerhoven,Bergeijk,Noord-Brabant,VBO,5.405632,51.337712
Leemskuilen,1,c,,5563CK,Westerhoven,Bergeijk,Noord-Brabant,VBO,5.405727,51.337748
Leemskuilen,1,d,,5563CK,Westerhoven,Bergeijk,Noord-Brabant,VBO,5.405941,51.337577
Leemskuilen,1,e,,5563CK,Westerhoven,Bergeijk,Noord-Brabant,VBO,5.405867,51.337543
Leemskuilen,1,f,,5563CK,Westerhoven,Bergeijk,Noord-Brabant,VBO,5.405742,51.337486
Leemskuilen,1,g,,5563CK,Westerhoven,Bergeijk,Noord-Brabant,VBO,5.405810,51.337439
Leemskuilen,1,h,,5563CK,Westerhoven,Bergeijk,Noord-Brabant,VBO,5.405873,51.337385
Leemskuilen,1,j,,5563CK,Westerhoven,Bergeijk,Noord-Brabant,VBO,5.405988,51.337377
Leemskuilen,1,k,,5563CK,Westerhoven,Bergeijk,Noord-Brabant,VBO,5.406051,51.337406
Leemskuilen,1,m,,5563CK,Westerhoven,Bergeijk,Noord-Brabant,VBO,5.406115,51.337435
Leemskuilen,1,n,,5563CK,Westerhoven,Bergeijk,Noord-Brabant,VBO,5.406178,51.337464
Leemskuilen,2,a,,5563CK,Westerhoven,Bergeijk,Noord-Brabant,VBO,5.404674,51.337228
Leemskuilen,2,,,5563CK,Westerhoven,Bergeijk,Noord-Brabant,VBO,5.404729,51.337197
Leemskuilen,3,b,,5563CK,Westerhoven,Bergeijk,Noord-Brabant,VBO,5.405508,51.337094
Leemskuilen,3,d,,5563CK,Westerhoven,Bergeijk,Noord-Brabant,VBO,5.405111,51.337243
Leemskuilen,3,e,,5563CK,Westerhoven,Bergeijk,Noord-Brabant,VBO,5.405047,51.337300
Leemskuilen,3,f,,5563CK,Westerhoven,Bergeijk,Noord-Brabant,VBO,5.404994,51.337363
Leemskuilen,3,g,,5563CK,Westerhoven,Bergeijk,Noord-Brabant,VBO,5.405091,51.337454
Leemskuilen,3,h,,5563CK,Westerhoven,Bergeijk,Noord-Brabant,VBO,5.405150,51.337477
Leemskuilen,3,,,5563CK,Westerhoven,Bergeijk,Noord-Brabant,VBO,5.405246,51.337138
Leemskuilen,4,,,5563CK,Westerhoven,Bergeijk,Noord-Brabant,VBO,5.404980,51.336987
Leemskuilen,5,a,,5563CK,Westerhoven,Bergeijk,Noord-Brabant,VBO,5.406382,51.336936
Leemskuilen,5,b,,5563CK,Westerhoven,Bergeijk,Noord-Brabant,VBO,5.406215,51.336858
Leemskuilen,5,c,,5563CK,Westerhoven,Bergeijk,Noord-Brabant,VBO,5.406072,51.336786
Leemskuilen,5,d,,5563CK,Westerhoven,Bergeijk,Noord-Brabant,VBO,5.405827,51.336660
Leemskuilen,5,e,,5563CK,Westerhoven,Bergeijk,Noord-Brabant,VBO,5.406028,51.336511
Leemskuilen,5,f,,5563CK,Westerhoven,Bergeijk,Noord-Brabant,VBO,5.405902,51.337141
Leemskuilen,5,g,,5563CK,Westerhoven,Bergeijk,Noord-Brabant,VBO,5.405703,51.337029
Leemskuilen,5,,,5563CK,Westerhoven,Bergeijk,Noord-Brabant,VBO,5.405524,51.336928
Leemskuilen,6,a,,5563CK,Westerhoven,Bergeijk,Noord-Brabant,VBO,5.405382,51.336633
Leemskuilen,6,,,5563CK,Westerhoven,Bergeijk,Noord-Brabant,VBO,5.405258,51.336752
Leemskuilen,7,,,5563CK,Westerhoven,Bergeijk,Noord-Brabant,VBO,5.406311,51.336380
Leemskuilen,8,,,5563CK,Westerhoven,Bergeijk,Noord-Brabant,VBO,5.405676,51.336414
Leemskuilen,9,,,5563CK,Westerhoven,Bergeijk,Noord-Brabant,VBO,5.406528,51.336216
Leemskuilen,12,b,,5563CK,Westerhoven,Bergeijk,Noord-Brabant,VBO,5.406008,51.335773
Leemskuilen,12,,,5563CK,Westerhoven,Bergeijk,Noord-Brabant,VBO,5.405847,51.335996
Leemskuilen,15,,,5563CL,Westerhoven,Bergeijk,Noord-Brabant,VBO,5.410310,51.337962
Leemskuilen,17,,,5563CL,Westerhoven,Bergeijk,Noord-Brabant,VBO,5.410113,51.338070
Leemskuilen,19,,,5563CL,Westerhoven,Bergeijk,Noord-Brabant,VBO,5.409950,51.338160
Leemskuilen,20,,,5563CL,Westerhoven,Bergeijk,Noord-Brabant,VBO,5.410664,51.338277
Leemskuilen,21,a,,5563CL,Westerhoven,Bergeijk,Noord-Brabant,VBO,5.409458,51.338313
Leemskuilen,21,,,5563CL,Westerhoven,Bergeijk,Noord-Brabant,VBO,5.409758,51.338417
Leemskuilen,22,a,,5563CL,Westerhoven,Bergeijk,Noord-Brabant,VBO,5.410060,51.338617
Leemskuilen,22,,,5563CL,Westerhoven,Bergeijk,Noord-Brabant,VBO,5.410836,51.338558
Leemskuilen,23,,,5563CL,Westerhoven,Bergeijk,Noord-Brabant,VBO,5.409143,51.338516
Leemskuilen,24,a,,5563CL,Westerhoven,Bergeijk,Noord-Brabant,VBO,5.409229,51.339158
Leemskuilen,24,b,,5563CL,Westerhoven,Bergeijk,Noord-Brabant,VBO,5.408905,51.339622
Leemskuilen,24,c,,5563CL,Westerhoven,Bergeijk,Noord-Brabant,VBO,5.409041,51.339667
Leemskuilen,24,,,5563CL,Westerhoven,Bergeijk,Noord-Brabant,VBO,5.409412,51.339010
Leemskuilen,25,,,5563CL,Westerhoven,Bergeijk,Noord-Brabant,VBO,5.409017,51.338802
Leemskuilen,27,,,5563CL,Westerhoven,Bergeijk,Noord-Brabant,VBO,5.408892,51.338882
Leemskuilen,28,a,,5563CL,Westerhoven,Bergeijk,Noord-Brabant,VBO,5.410467,51.340041
Leemskuilen,28,,,5563CL,Westerhoven,Bergeijk,Noord-Brabant,VBO,5.409868,51.339775
Leemskuilen,29,,,5563CL,Westerhoven,Bergeijk,Noord-Brabant,VBO,5.408600,51.338780
Leemskuilen,31,,,5563CL,Westerhoven,Bergeijk,Noord-Brabant,VBO,5.408457,51.338683
Leemskuilen,32,,,5563CL,Westerhoven,Bergeijk,Noord-Brabant,VBO,5.411564,51.340354
Leemskuilen,33,,,5563CL,Westerhoven,Bergeijk,Noord-Brabant,VBO,5.408101,51.338751
Leemskuilen,34,,,5563CL,Westerhoven,Bergeijk,Noord-Brabant,VBO,5.410941,51.340593
Leemskuilen,35,,,5563CL,Westerhoven,Bergeijk,Noord-Brabant,VBO,5.408320,51.338602
Leemskuilen,38,a,,5563CL,Westerhoven,Bergeijk,Noord-Brabant,VBO,5.409050,51.340129
Leemskuilen,38,,,5563CL,Westerhoven,Bergeijk,Noord-Brabant,VBO,5.409472,51.340255
Leemskuilen,40,,,5563CL,Westerhoven,Bergeijk,Noord-Brabant,VBO,5.408578,51.339365
Leemskuilen,42,a,,5563CL,Westerhoven,Bergeijk,Noord-Brabant,VBO,5.408039,51.339265
Leemskuilen,42,b,,5563CL,Westerhoven,Bergeijk,Noord-Brabant,VBO,5.408053,51.339100
Leemskuilen,42,,,5563CL,Westerhoven,Bergeijk,Noord-Brabant,VBO,5.408103,51.339465
Leemskuilen,44,,,5563CL,Westerhoven,Bergeijk,Noord-Brabant,VBO,5.407799,51.339690
Hoefijzer,1,,,5563CM,Westerhoven,Bergeijk,Noord-Brabant,VBO,5.402402,51.334222
Hoefijzer,2,,,5563CM,Westerhoven,Bergeijk,Noord-Brabant,VBO,5.402353,51.333901
Hoefijzer,3,,,5563CM,Westerhoven,Bergeijk,Noord-Brabant,VBO,5.402611,51.334125
Hoefijzer,4,,,5563CM,Westerhoven,Bergeijk,Noord-Brabant,VBO,5.402701,51.333597
Hoefijzer,5,,,5563CM,Westerhoven,Bergeijk,Noord-Brabant,VBO,5.402674,51.334012
Hoefijzer,6,,,5563CM,Westerhoven,Bergeijk,Noord-Brabant,VBO,5.403077,51.333526
Hoefijzer,7,,,5563CM,Westerhoven,Bergeijk,Noord-Brabant,VBO,5.402843,51.333737
Hoefijzer,8,,,5563CM,Westerhoven,Bergeijk,Noord-Brabant,VBO,5.403264,51.333603
Hoefijzer,9,,,5563CM,Westerhoven,Bergeijk,Noord-Brabant,VBO,5.402941,51.333701
Hoefijzer,10,,,5563CM,Westerhoven,Bergeijk,Noord-Brabant,VBO,5.403370,51.333733
Hoefijzer,11,,,5563CM,Westerhoven,Bergeijk,Noord-Brabant,VBO,5.403095,51.333863
Hoefijzer,12,,,5563CM,Westerhoven,Bergeijk,Noord-Brabant,VBO,5.403380,51.333874
Hoefijzer,13,,,5563CM,Westerhoven,Bergeijk,Noord-Brabant,VBO,5.402997,51.333899
Hoefijzer,14,,,5563CM,Westerhoven,Bergeijk,Noord-Brabant,VBO,5.403265,51.334064
Hoefijzer,15,,,5563CM,Westerhoven,Bergeijk,Noord-Brabant,VBO,5.402899,51.334075
Hoefijzer,16,,,5563CM,Westerhoven,Bergeijk,Noord-Brabant,VBO,5.403472,51.334133
Hoefijzer,17,,,5563CM,Westerhoven,Bergeijk,Noord-Brabant,VBO,5.402840,51.334157
Hoefijzer,18,,,5563CM,Westerhoven,Bergeijk,Noord-Brabant,VBO,5.403614,51.334181
Hoefijzer,19,,,5563CM,Westerhoven,Bergeijk,Noord-Brabant,VBO,5.402677,51.334300
Hoefijzer,20,,,5563CM,Westerhoven,Bergeijk,Noord-Brabant,VBO,5.403742,51.334225
Hoefijzer,21,,,5563CM,Westerhoven,Bergeijk,Noord-Brabant,VBO,5.403109,51.334199
Hoefijzer,22,,,5563CM,Westerhoven,Bergeijk,Noord-Brabant,VBO,5.403862,51.334266
Hoefijzer,23,,,5563CM,Westerhoven,Bergeijk,Noord-Brabant,VBO,5.403273,51.334255
Hoefslag,1,,,5563CN,Westerhoven,Bergeijk,Noord-Brabant,VBO,5.401318,51.333610
Hoefslag,2,,,5563CN,Westerhoven,Bergeijk,Noord-Brabant,VBO,5.401621,51.333191
Hoefslag,3,,,5563CN,Westerhoven,Bergeijk,Noord-Brabant,VBO,5.401417,51.333624
Hoefslag,4,,,5563CN,Westerhoven,Bergeijk,Noord-Brabant,VBO,5.401730,51.333218
Hoefslag,5,,,5563CN,Westerhoven,Bergeijk,Noord-Brabant,VBO,5.401475,51.333638
Hoefslag,6,,,5563CN,Westerhoven,Bergeijk,Noord-Brabant,VBO,5.401828,51.333246
Hoefslag,7,,,5563CN,Westerhoven,Bergeijk,Noord-Brabant,VBO,5.401534,51.333656
Hoefslag,8,,,5563CN,Westerhoven,Bergeijk,Noord-Brabant,VBO,5.401928,51.333275
Hoefslag,9,,,5563CN,Westerhoven,Bergeijk,Noord-Brabant,VBO,5.401595,51.333672
Hoefslag,10,,,5563CN,Westerhoven,Bergeijk,Noord-Brabant,VBO,5.402032,51.333304
Hoefslag,11,,,5563CN,Westerhoven,Bergeijk,Noord-Brabant,VBO,5.401647,51.333687
Hoefslag,12,,,5563CN,Westerhoven,Bergeijk,Noord-Brabant,VBO,5.402131,51.333341
Hoefslag,13,,,5563CN,Westerhoven,Bergeijk,Noord-Brabant,VBO,5.401737,51.333725
Hoefslag,14,,,5563CN,Westerhoven,Bergeijk,Noord-Brabant,VBO,5.402219,51.333380
Hoefslag,16,,,5563CN,Westerhoven,Bergeijk,Noord-Brabant,VBO,5.402308,51.333420
Hoefslag,17,,,5563CN,Westerhoven,Bergeijk,Noord-Brabant,VBO,5.402088,51.333824
Hoefslag,18,,,5563CN,Westerhoven,Bergeijk,Noord-Brabant,VBO,5.402393,51.333463
Hoefslag,19,,,5563CN,Westerhoven,Bergeijk,Noord-Brabant,VBO,5.402182,51.333851
Hoefslag,20,,,5563CN,Westerhoven,Bergeijk,Noord-Brabant,VBO,5.401636,51.333146
Hoefslag,21,,,5563CN,Westerhoven,Bergeijk,Noord-Brabant,VBO,5.402248,51.333870
Hoefslag,22,,,5563CN,Westerhoven,Bergeijk,Noord-Brabant,VBO,5.401722,51.333173
Hoefslag,24,,,5563CN,Westerhoven,Bergeijk,Noord-Brabant,VBO,5.401837,51.333200
Hoefslag,26,,,5563CN,Westerhoven,Bergeijk,Noord-Brabant,VBO,5.401937,51.333227
Hoefslag,28,,,5563CN,Westerhoven,Bergeijk,Noord-Brabant,VBO,5.402023,51.333254
Hoefslag,30,,,5563CN,Westerhoven,Bergeijk,Noord-Brabant,VBO,5.402181,51.333299
Hoefslag,32,,,5563CN,Westerhoven,Bergeijk,Noord-Brabant,VBO,5.402267,51.333344
Hoefslag,34,,,5563CN,Westerhoven,Bergeijk,Noord-Brabant,VBO,5.402339,51.333388
Hoefslag,36,,,5563CN,Westerhoven,Bergeijk,Noord-Brabant,VBO,5.402439,51.333424
Hoefakkershof,1,,,5563CP,Westerhoven,Bergeijk,Noord-Brabant,VBO,5.401217,51.334550
Hoefakkershof,2,,,5563CP,Westerhoven,Bergeijk,Noord-Brabant,VBO,5.400887,51.334641
Hoefakkershof,3,,,5563CP,Westerhoven,Bergeijk,Noord-Brabant,VBO,5.401152,51.334528
Hoefakkershof,4,,,5563CP,Westerhoven,Bergeijk,Noord-Brabant,VBO,5.400781,51.334602
Hoefakkershof,5,,,5563CP,Westerhoven,Bergeijk,Noord-Brabant,VBO,5.401091,51.334499
Hoefakkershof,6,,,5563CP,Westerhoven,Bergeijk,Noord-Brabant,VBO,5.400499,51.334703
Hoefakkershof,7,,,5563CP,Westerhoven,Bergeijk,Noord-Brabant,VBO,5.401032,51.334471
Hoefakkershof,8,,,5563CP,Westerhoven,Bergeijk,Noord-Brabant,VBO,5.400427,51.334771
Hoefakkershof,9,,,5563CP,Westerhoven,Bergeijk,Noord-Brabant,VBO,5.400962,51.334442
Hoefakkershof,11,,,5563CP,Westerhoven,Bergeijk,Noord-Brabant,VBO,5.400773,51.334230
Hoefakkershof,13,,,5563CP,Westerhoven,Bergeijk,Noord-Brabant,VBO,5.400695,51.334309
Hoefakkershof,15,,,5563CP,Westerhoven,Bergeijk,Noord-Brabant,VBO,5.400604,51.334376
Hoefakkershof,17,,,5563CP,Westerhoven,Bergeijk,Noord-Brabant,VBO,5.400503,51.334434
Hoefakkershof,19,,,5563CP,Westerhoven,Bergeijk,Noord-Brabant,VBO,5.400391,51.334486
Hoefakkershof,21,,,5563CP,Westerhoven,Bergeijk,Noord-Brabant,VBO,5.400290,51.334531
Hoefakkershof,23,,,5563CP,Westerhoven,Bergeijk,Noord-Brabant,VBO,5.400170,51.334599
Hoefakkershof,25,,,5563CP,Westerhoven,Bergeijk,Noord-Brabant,VBO,5.400086,51.334634
Esdoornstraat,3,,,5563DA,Westerhoven,Bergeijk,Noord-Brabant,VBO,5.396951,51.334102
Esdoornstraat,4,,,5563DA,Westerhoven,Bergeijk,Noord-Brabant,VBO,5.397729,51.334363
Esdoornstraat,5,,,5563DA,Westerhoven,Bergeijk,Noord-Brabant,VBO,5.396862,51.334113
Esdoornstraat,6,,,5563DA,Westerhoven,Bergeijk,Noord-Brabant,VBO,5.397558,51.334287
Esdoornstraat,7,,,5563DA,Westerhoven,Bergeijk,Noord-Brabant,VBO,5.396559,51.334202
Esdoornstraat,8,,,5563DA,Westerhoven,Bergeijk,Noord-Brabant,VBO,5.397300,51.334247
Esdoornstraat,9,,,5563DA,Westerhoven,Bergeijk,Noord-Brabant,VBO,5.396504,51.334249
Esdoornstraat,10,,,5563DA,Westerhoven,Bergeijk,Noord-Brabant,VBO,5.397195,51.334260
Esdoornstraat,11,,,5563DA,Westerhoven,Bergeijk,Noord-Brabant,VBO,5.396401,51.334349
Esdoornstraat,12,,,5563DA,Westerhoven,Bergeijk,Noord-Brabant,VBO,5.396966,51.334287
Esdoornstraat,13,,,5563DA,Westerhoven,Bergeijk,Noord-Brabant,VBO,5.396345,51.334393
Esdoornstraat,14,,,5563DA,Westerhoven,Bergeijk,Noord-Brabant,VBO,5.396868,51.334299
Esdoornstraat,15,,,5563DA,Westerhoven,Bergeijk,Noord-Brabant,VBO,5.396243,51.334496
Esdoornstraat,16,,,5563DA,Westerhoven,Bergeijk,Noord-Brabant,VBO,5.396665,51.334406
Esdoornstraat,17,,,5563DA,Westerhoven,Bergeijk,Noord-Brabant,VBO,5.396184,51.334542
Esdoornstraat,18,,,5563DA,Westerhoven,Bergeijk,Noord-Brabant,VBO,5.396544,51.334501
Esdoornstraat,19,,,5563DA,Westerhoven,Bergeijk,Noord-Brabant,VBO,5.396060,51.334642
Esdoornstraat,20,,,5563DA,Westerhoven,Bergeijk,Noord-Brabant,VBO,5.396441,51.334607
Esdoornstraat,21,,,5563DA,Westerhoven,Bergeijk,Noord-Brabant,VBO,5.395961,51.334756
Esdoornstraat,22,,,5563DA,Westerhoven,Bergeijk,Noord-Brabant,VBO,5.396380,51.334651
Esdoornstraat,23,,,5563DA,Westerhoven,Bergeijk,Noord-Brabant,VBO,5.395902,51.334799
Esdoornstraat,24,,,5563DA,Westerhoven,Bergeijk,Noord-Brabant,VBO,5.396258,51.334763
Esdoornstraat,26,,,5563DA,Westerhoven,Bergeijk,Noord-Brabant,VBO,5.396158,51.334866
Esdoornstraat,28,,,5563DA,Westerhoven,Bergeijk,Noord-Brabant,VBO,5.396097,51.334912
Zoutweg,1,,,5563DC,Westerhoven,Bergeijk,Noord-Brabant,VBO,5.400266,51.338874
Zwembadweg,20,,,5563PL,Geldrop,Geldrop-Mierlo,Noord-Brabant,VBO,5.551099,51.408993
Borkelsedijk,2,a,,5563VA,Westerhoven,Bergeijk,Noord-Brabant,VBO,5.405295,51.325143
Borkelsedijk,2,,,5563VA,Westerhoven,Bergeijk,Noord-Brabant,VBO,5.406825,51.322377
Borkelsedijk,4,,,5563VA,Westerhoven,Bergeijk,Noord-Brabant,VBO,5.406805,51.320036
Borkelsedijk,6,,,5563VA,Westerhoven,Bergeijk,Noord-Brabant,VBO,5.406488,51.317762
Kempervennendreef,4,,,5563VB,Westerhoven,Bergeijk,Noord-Brabant,VBO,5.421902,51.332774
Kempervennendreef,8,,,5563VB,Westerhoven,Bergeijk,Noord-Brabant,VBO,5.428219,51.327674
Park de Kempervennen,1,,kv,5563VC,Westerhoven,Bergeijk,Noord-Brabant,VBO,5.424238,51.326719
Park de Kempervennen,1,,,5563VC,Westerhoven,Bergeijk,Noord-Brabant,VBO,5.424976,51.326471
Park de Kempervennen,2,,kv,5563VC,Westerhoven,Bergeijk,Noord-Brabant,VBO,5.423157,51.325747
Park de Kempervennen,2,,,5563VC,Westerhoven,Bergeijk,Noord-Brabant,VBO,5.424488,51.326318
Park de Kempervennen,3,,kv,5563VC,Westerhoven,Bergeijk,Noord-Brabant,VBO,5.419098,51.327702
Park de Kempervennen,3,,,5563VC,Westerhoven,Bergeijk,Noord-Brabant,VBO,5.424388,51.326193
Park de Kempervennen,4,,kv,5563VC,Westerhoven,Bergeijk,Noord-Brabant,VBO,5.418935,51.327859
Park de Kempervennen,4,,,5563VC,Westerhoven,Bergeijk,Noord-Brabant,VBO,5.425148,51.326516
Park de Kempervennen,5,,kv,5563VC,Westerhoven,Bergeijk,Noord-Brabant,VBO,5.419281,51.328052
Park de Kempervennen,5,,,5563VC,Westerhoven,Bergeijk,Noord-Brabant,VBO,5.425306,51.326435
Park de Kempervennen,6,,kv,5563VC,Westerhoven,Bergeijk,Noord-Brabant,VBO,5.419745,51.328113
Park de Kempervennen,6,,,5563VC,Westerhoven,Bergeijk,Noord-Brabant,VBO,5.425507,51.326399
Park de Kempervennen,7,,kv,5563VC,Westerhoven,Bergeijk,Noord-Brabant,VBO,5.420066,51.327335
Park de Kempervennen,7,,,5563VC,Westerhoven,Bergeijk,Noord-Brabant,VBO,5.425550,51.326201
Park de Kempervennen,8,,kv,5563VC,Westerhoven,Bergeijk,Noord-Brabant,VBO,5.419356,51.327441
Park de Kempervennen,8,,,5563VC,Westerhoven,Bergeijk,Noord-Brabant,VBO,5.425736,51.325994
Park de Kempervennen,9,,kv,5563VC,Westerhoven,Bergeijk,Noord-Brabant,VBO,5.418545,51.328025
Park de Kempervennen,9,,,5563VC,Westerhoven,Bergeijk,Noord-Brabant,VBO,5.425492,51.326111
Park de Kempervennen,10,,kv,5563VC,Westerhoven,Bergeijk,Noord-Brabant,VBO,5.416075,51.321697
Park de Kempervennen,10,,,5563VC,Westerhoven,Bergeijk,Noord-Brabant,VBO,5.425506,51.326030
Park de Kempervennen,11,,,5563VC,Westerhoven,Bergeijk,Noord-Brabant,VBO,5.425592,51.325976
Park de Kempervennen,12,,,5563VC,Westerhoven,Bergeijk,Noord-Brabant,VBO,5.426109,51.326399
Park de Kempervennen,13,,,5563VC,Westerhoven,Bergeijk,Noord-Brabant,VBO,5.426224,51.326417
Park de Kempervennen,14,,,5563VC,Westerhoven,Bergeijk,Noord-Brabant,VBO,5.426339,51.326237
Park de Kempervennen,15,,,5563VC,Westerhoven,Bergeijk,Noord-Brabant,VBO,5.426382,51.326327
Park de Kempervennen,16,,,5563VC,Westerhoven,Bergeijk,Noord-Brabant,VBO,5.426339,51.326390
Park de Kempervennen,17,,,5563VC,Westerhoven,Bergeijk,Noord-Brabant,VBO,5.426296,51.326165
Park de Kempervennen,18,,,5563VC,Westerhoven,Bergeijk,Noord-Brabant,VBO,5.425908,51.325823
Park de Kempervennen,19,,,5563VC,Westerhoven,Bergeijk,Noord-Brabant,VBO,5.425965,51.325698
Park de Kempervennen,20,,,5563VC,Westerhoven,Bergeijk,Noord-Brabant,VBO,5.426023,51.325581
Park de Kempervennen,21,,,5563VC,Westerhoven,Bergeijk,Noord-Brabant,VBO,5.426166,51.325500
Park de Kempervennen,22,,,5563VC,Westerhoven,Bergeijk,Noord-Brabant,VBO,5.426338,51.325527
Park de Kempervennen,23,,,5563VC,Westerhoven,Bergeijk,Noord-Brabant,VBO,5.426597,51.325922
Park de Kempervennen,24,,,5563VC,Westerhoven,Bergeijk,Noord-Brabant,VBO,5.426711,51.325922
Park de Kempervennen,25,,,5563VC,Westerhoven,Bergeijk,Noord-Brabant,VBO,5.426883,51.325706
Park de Kempervennen,26,,,5563VC,Westerhoven,Bergeijk,Noord-Brabant,VBO,5.426970,51.325778
Park de Kempervennen,27,,,5563VC,Westerhoven,Bergeijk,Noord-Brabant,VBO,5.426955,51.325859
Park de Kempervennen,28,,,5563VC,Westerhoven,Bergeijk,Noord-Brabant,VBO,5.426826,51.325913
Park de Kempervennen,29,,,5563VC,Westerhoven,Bergeijk,Noord-Brabant,VBO,5.426496,51.325446
Park de Kempervennen,30,,,5563VC,Westerhoven,Bergeijk,Noord-Brabant,VBO,5.426682,51.325410
Park de Kempervennen,31,,,5563VC,Westerhoven,Bergeijk,Noord-Brabant,VBO,5.426811,51.325311
Park de Kempervennen,32,,,5563VC,Westerhoven,Bergeijk,Noord-Brabant,VBO,5.427170,51.325481
Park de Kempervennen,33,,,5563VC,Westerhoven,Bergeijk,Noord-Brabant,VBO,5.427314,51.325508
Park de Kempervennen,34,,,5563VC,Westerhoven,Bergeijk,Noord-Brabant,VBO,5.427414,51.325472
Park de Kempervennen,35,,,5563VC,Westerhoven,Bergeijk,Noord-Brabant,VBO,5.427514,51.325373
Park de Kempervennen,36,,,5563VC,Westerhoven,Bergeijk,Noord-Brabant,VBO,5.427394,51.325305
Park de Kempervennen,37,,,5563VC,Westerhoven,Bergeijk,Noord-Brabant,VBO,5.427428,51.325239
Park de Kempervennen,38,,,5563VC,Westerhoven,Bergeijk,Noord-Brabant,VBO,5.426811,51.325185
Park de Kempervennen,39,,,5563VC,Westerhoven,Bergeijk,Noord-Brabant,VBO,5.426883,51.325077
Park de Kempervennen,40,,,5563VC,Westerhoven,Bergeijk,Noord-Brabant,VBO,5.426782,51.324978
Park de Kempervennen,41,,,5563VC,Westerhoven,Bergeijk,Noord-Brabant,VBO,5.427485,51.324924
Park de Kempervennen,42,,,5563VC,Westerhoven,Bergeijk,Noord-Brabant,VBO,5.427829,51.324645
Park de Kempervennen,43,,,5563VC,Westerhoven,Bergeijk,Noord-Brabant,VBO,5.427887,51.324727
Park de Kempervennen,44,,,5563VC,Westerhoven,Bergeijk,Noord-Brabant,VBO,5.427586,51.324924
Park de Kempervennen,45,,,5563VC,Westerhoven,Bergeijk,Noord-Brabant,VBO,5.427686,51.324924
Park de Kempervennen,46,,,5563VC,Westerhoven,Bergeijk,Noord-Brabant,VBO,5.427801,51.324924
Park de Kempervennen,47,,,5563VC,Westerhoven,Bergeijk,Noord-Brabant,VBO,5.427959,51.324870
Park de Kempervennen,48,,,5563VC,Westerhoven,Bergeijk,Noord-Brabant,VBO,5.427973,51.324798
Park de Kempervennen,49,,,5563VC,Westerhoven,Bergeijk,Noord-Brabant,VBO,5.427327,51.324556
Park de Kempervennen,50,,,5563VC,Westerhoven,Bergeijk,Noord-Brabant,VBO,5.427456,51.324645
Park de Kempervennen,51,,,5563VC,Westerhoven,Bergeijk,Noord-Brabant,VBO,5.426997,51.324376
Park de Kempervennen,52,,,5563VC,Westerhoven,Bergeijk,Noord-Brabant,VBO,5.427198,51.324421
Park de Kempervennen,53,,,5563VC,Westerhoven,Bergeijk,Noord-Brabant,VBO,5.426696,51.324754
Park de Kempervennen,54,,,5563VC,Westerhoven,Bergeijk,Noord-Brabant,VBO,5.426868,51.324457
Park de Kempervennen,55,,,5563VC,Westerhoven,Bergeijk,Noord-Brabant,VBO,5.426510,51.324745
Park de Kempervennen,56,,,5563VC,Westerhoven,Bergeijk,Noord-Brabant,VBO,5.426509,51.324430
Park de Kempervennen,57,,,5563VC,Westerhoven,Bergeijk,Noord-Brabant,VBO,5.426681,51.324421
Park de Kempervennen,58,,,5563VC,Westerhoven,Bergeijk,Noord-Brabant,VBO,5.426323,51.324709
Park de Kempervennen,59,,,5563VC,Westerhoven,Bergeijk,Noord-Brabant,VBO,5.425993,51.324745
Park de Kempervennen,60,,,5563VC,Westerhoven,Bergeijk,Noord-Brabant,VBO,5.426180,51.324790
Park de Kempervennen,61,,,5563VC,Westerhoven,Bergeijk,Noord-Brabant,VBO,5.426021,51.324196
Park de Kempervennen,62,,,5563VC,Westerhoven,Bergeijk,Noord-Brabant,VBO,5.426323,51.324286
Park de Kempervennen,63,,,5563VC,Westerhoven,Bergeijk,Noord-Brabant,VBO,5.426107,51.324143
Park de Kempervennen,64,,,5563VC,Westerhoven,Bergeijk,Noord-Brabant,VBO,5.426351,51.324223
Park de Kempervennen,65,,,5563VC,Westerhoven,Bergeijk,Noord-Brabant,VBO,5.426222,51.324151
Park de Kempervennen,66,,,5563VC,Westerhoven,Bergeijk,Noord-Brabant,VBO,5.425864,51.324637
Park de Kempervennen,67,,,5563VC,Westerhoven,Bergeijk,Noord-Brabant,VBO,5.425692,51.324502
Park de Kempervennen,101,,,5563VC,Westerhoven,Bergeijk,Noord-Brabant,VBO,5.424702,51.324449
Park de Kempervennen,102,,,5563VC,Westerhoven,Bergeijk,Noord-Brabant,VBO,5.424946,51.324844
Park de Kempervennen,103,,,5563VC,Westerhoven,Bergeijk,Noord-Brabant,VBO,5.425190,51.324682
Park de Kempervennen,104,,,5563VC,Westerhoven,Bergeijk,Noord-Brabant,VBO,5.425089,51.324862
Park de Kempervennen,105,,,5563VC,Westerhoven,Bergeijk,Noord-Brabant,VBO,5.425190,51.324835
Park de Kempervennen,106,,,5563VC,Westerhoven,Bergeijk,Noord-Brabant,VBO,5.425233,51.324754
Park de Kempervennen,107,,,5563VC,Westerhoven,Bergeijk,Noord-Brabant,VBO,5.424544,51.324485
Park de Kempervennen,108,,,5563VC,Westerhoven,Bergeijk,Noord-Brabant,VBO,5.424343,51.324575
Park de Kempervennen,109,,,5563VC,Westerhoven,Bergeijk,Noord-Brabant,VBO,5.424185,51.324521
Park de Kempervennen,110,,,5563VC,Westerhoven,Bergeijk,Noord-Brabant,VBO,5.424573,51.325051
Park de Kempervennen,111,,,5563VC,Westerhoven,Bergeijk,Noord-Brabant,VBO,5.424745,51.324970
Park de Kempervennen,112,,,5563VC,Westerhoven,Bergeijk,Noord-Brabant,VBO,5.423956,51.324727
Park de Kempervennen,113,,,5563VC,Westerhoven,Bergeijk,Noord-Brabant,VBO,5.424013,51.324602
Park de Kempervennen,114,,,5563VC,Westerhoven,Bergeijk,Noord-Brabant,VBO,5.423899,51.324853
Park de Kempervennen,115,,,5563VC,Westerhoven,Bergeijk,Noord-Brabant,VBO,5.424372,51.325123
Park de Kempervennen,116,,,5563VC,Westerhoven,Bergeijk,Noord-Brabant,VBO,5.424573,51.325392
Park de Kempervennen,117,,,5563VC,Westerhoven,Bergeijk,Noord-Brabant,VBO,5.424530,51.325500
Park de Kempervennen,118,,,5563VC,Westerhoven,Bergeijk,Noord-Brabant,VBO,5.424674,51.325608
Park de Kempervennen,119,,,5563VC,Westerhoven,Bergeijk,Noord-Brabant,VBO,5.424731,51.325725
Park de Kempervennen,120,,,5563VC,Westerhoven,Bergeijk,Noord-Brabant,VBO,5.424645,51.325824
Park de Kempervennen,121,,,5563VC,Westerhoven,Bergeijk,Noord-Brabant,VBO,5.424359,51.326004
Park de Kempervennen,122,,,5563VC,Westerhoven,Bergeijk,Noord-Brabant,VBO,5.424287,51.326085
Park de Kempervennen,123,,,5563VC,Westerhoven,Bergeijk,Noord-Brabant,VBO,5.425577,51.324161
Park de Kempervennen,124,,,5563VC,Westerhoven,Bergeijk,Noord-Brabant,VBO,5.425275,51.324071
Park de Kempervennen,125,,,5563VC,Westerhoven,Bergeijk,Noord-Brabant,VBO,5.425376,51.324035
Park de Kempervennen,126,,,5563VC,Westerhoven,Bergeijk,Noord-Brabant,VBO,5.425591,51.324098
Park de Kempervennen,127,,,5563VC,Westerhoven,Bergeijk,Noord-Brabant,VBO,5.425476,51.324026
Park de Kempervennen,128,,,5563VC,Westerhoven,Bergeijk,Noord-Brabant,VBO,5.424716,51.324233
Park de Kempervennen,129,,,5563VC,Westerhoven,Bergeijk,Noord-Brabant,VBO,5.424788,51.324143
Park de Kempervennen,130,,,5563VC,Westerhoven,Bergeijk,Noord-Brabant,VBO,5.424630,51.324017
Park de Kempervennen,131,,,5563VC,Westerhoven,Bergeijk,Noord-Brabant,VBO,5.424558,51.323891
Park de Kempervennen,132,,,5563VC,Westerhoven,Bergeijk,Noord-Brabant,VBO,5.424371,51.323766
Park de Kempervennen,133,,,5563VC,Westerhoven,Bergeijk,Noord-Brabant,VBO,5.424256,51.323667
Park de Kempervennen,134,,,5563VC,Westerhoven,Bergeijk,Noord-Brabant,VBO,5.424127,51.323550
Park de Kempervennen,135,,,5563VC,Westerhoven,Bergeijk,Noord-Brabant,VBO,5.423897,51.323163
Park de Kempervennen,136,,,5563VC,Westerhoven,Bergeijk,Noord-Brabant,VBO,5.423826,51.323110
Park de Kempervennen,201,,,5563VC,Westerhoven,Bergeijk,Noord-Brabant,VBO,5.421246,51.326607
Park de Kempervennen,202,,,5563VC,Westerhoven,Bergeijk,Noord-Brabant,VBO,5.420241,51.326454
Park de Kempervennen,203,,,5563VC,Westerhoven,Bergeijk,Noord-Brabant,VBO,5.420098,51.326481
Park de Kempervennen,204,,,5563VC,Westerhoven,Bergeijk,Noord-Brabant,VBO,5.419969,51.326508
Park de Kempervennen,205,,,5563VC,Westerhoven,Bergeijk,Noord-Brabant,VBO,5.419854,51.326464
Park de Kempervennen,206,,,5563VC,Westerhoven,Bergeijk,Noord-Brabant,VBO,5.419682,51.326535
Park de Kempervennen,207,,,5563VC,Westerhoven,Bergeijk,Noord-Brabant,VBO,5.419567,51.326607
Park de Kempervennen,208,,,5563VC,Westerhoven,Bergeijk,Noord-Brabant,VBO,5.418908,51.326994
Park de Kempervennen,209,,,5563VC,Westerhoven,Bergeijk,Noord-Brabant,VBO,5.418850,51.326931
Park de Kempervennen,210,,,5563VC,Westerhoven,Bergeijk,Noord-Brabant,VBO,5.418821,51.326886
Park de Kempervennen,211,,,5563VC,Westerhoven,Bergeijk,Noord-Brabant,VBO,5.418778,51.326841
Park de Kempervennen,212,,,5563VC,Westerhoven,Bergeijk,Noord-Brabant,VBO,5.419194,51.326590
Park de Kempervennen,213,,,5563VC,Westerhoven,Bergeijk,Noord-Brabant,VBO,5.419223,51.326491
Park de Kempervennen,214,,,5563VC,Westerhoven,Bergeijk,Noord-Brabant,VBO,5.419151,51.326428
Park de Kempervennen,215,,,5563VC,Westerhoven,Bergeijk,Noord-Brabant,VBO,5.418520,51.326698
Park de Kempervennen,216,,,5563VC,Westerhoven,Bergeijk,Noord-Brabant,VBO,5.418477,51.326644
Park de Kempervennen,217,,,5563VC,Westerhoven,Bergeijk,Noord-Brabant,VBO,5.418434,51.326617
Park de Kempervennen,218,,,5563VC,Westerhoven,Bergeijk,Noord-Brabant,VBO,5.418348,51.326608
Park de Kempervennen,219,,,5563VC,Westerhoven,Bergeijk,Noord-Brabant,VBO,5.418305,51.326554
Park de Kempervennen,220,,,5563VC,Westerhoven,Bergeijk,Noord-Brabant,VBO,5.418247,51.326491
Park de Kempervennen,221,,,5563VC,Westerhoven,Bergeijk,Noord-Brabant,VBO,5.418964,51.326293
Park de Kempervennen,222,,,5563VC,Westerhoven,Bergeijk,Noord-Brabant,VBO,5.418821,51.326248
Park de Kempervennen,223,,,5563VC,Westerhoven,Bergeijk,Noord-Brabant,VBO,5.418634,51.326221
Park de Kempervennen,224,,,5563VC,Westerhoven,Bergeijk,Noord-Brabant,VBO,5.418620,51.326131
Park de Kempervennen,225,,,5563VC,Westerhoven,Bergeijk,Noord-Brabant,VBO,5.418548,51.326050
Park de Kempervennen,226,,,5563VC,Westerhoven,Bergeijk,Noord-Brabant,VBO,5.418219,51.326446
Park de Kempervennen,227,,,5563VC,Westerhoven,Bergeijk,Noord-Brabant,VBO,5.418175,51.326392
Park de Kempervennen,228,,,5563VC,Westerhoven,Bergeijk,Noord-Brabant,VBO,5.417759,51.326302
Park de Kempervennen,229,,,5563VC,Westerhoven,Bergeijk,Noord-Brabant,VBO,5.417860,51.326311
Park de Kempervennen,230,,,5563VC,Westerhoven,Bergeijk,Noord-Brabant,VBO,5.417587,51.326078
Park de Kempervennen,231,,,5563VC,Westerhoven,Bergeijk,Noord-Brabant,VBO,5.417472,51.326186
Park de Kempervennen,232,,,5563VC,Westerhoven,Bergeijk,Noord-Brabant,VBO,5.417501,51.326105
Park de Kempervennen,233,,,5563VC,Westerhoven,Bergeijk,Noord-Brabant,VBO,5.417515,51.326239
Park de Kempervennen,234,,,5563VC,Westerhoven,Bergeijk,Noord-Brabant,VBO,5.417688,51.326311
Park de Kempervennen,235,,,5563VC,Westerhoven,Bergeijk,Noord-Brabant,VBO,5.417573,51.326284
Park de Kempervennen,236,,,5563VC,Westerhoven,Bergeijk,Noord-Brabant,VBO,5.418390,51.325880
Park de Kempervennen,237,,,5563VC,Westerhoven,Bergeijk,Noord-Brabant,VBO,5.418462,51.325970
Park de Kempervennen,238,,,5563VC,Westerhoven,Bergeijk,Noord-Brabant,VBO,5.418548,51.325880
Park de Kempervennen,239,,,5563VC,Westerhoven,Bergeijk,Noord-Brabant,VBO,5.418261,51.325880
Park de Kempervennen,240,,,5563VC,Westerhoven,Bergeijk,Noord-Brabant,VBO,5.418203,51.324954
Park de Kempervennen,241,,,5563VC,Westerhoven,Bergeijk,Noord-Brabant,VBO,5.418060,51.324918
Park de Kempervennen,242,,,5563VC,Westerhoven,Bergeijk,Noord-Brabant,VBO,5.417916,51.324981
Park de Kempervennen,243,,,5563VC,Westerhoven,Bergeijk,Noord-Brabant,VBO,5.417845,51.325044
Park de Kempervennen,244,,,5563VC,Westerhoven,Bergeijk,Noord-Brabant,VBO,5.417959,51.325089
Park de Kempervennen,245,,,5563VC,Westerhoven,Bergeijk,Noord-Brabant,VBO,5.418347,51.324918
Park de Kempervennen,246,,,5563VC,Westerhoven,Bergeijk,Noord-Brabant,VBO,5.418476,51.324900
Park de Kempervennen,247,,,5563VC,Westerhoven,Bergeijk,Noord-Brabant,VBO,5.418619,51.324918
Park de Kempervennen,248,,,5563VC,Westerhoven,Bergeijk,Noord-Brabant,VBO,5.418576,51.325026
Park de Kempervennen,249,,,5563VC,Westerhoven,Bergeijk,Noord-Brabant,VBO,5.418662,51.325098
Park de Kempervennen,250,,,5563VC,Westerhoven,Bergeijk,Noord-Brabant,VBO,5.419136,51.325214
Park de Kempervennen,251,,,5563VC,Westerhoven,Bergeijk,Noord-Brabant,VBO,5.419251,51.325304
Park de Kempervennen,252,,,5563VC,Westerhoven,Bergeijk,Noord-Brabant,VBO,5.419122,51.325655
Park de Kempervennen,253,,,5563VC,Westerhoven,Bergeijk,Noord-Brabant,VBO,5.419394,51.325304
Park de Kempervennen,254,,,5563VC,Westerhoven,Bergeijk,Noord-Brabant,VBO,5.419538,51.325313
Park de Kempervennen,255,,,5563VC,Westerhoven,Bergeijk,Noord-Brabant,VBO,5.419695,51.325322
Park de Kempervennen,256,,,5563VC,Westerhoven,Bergeijk,Noord-Brabant,VBO,5.419810,51.325241
Park de Kempervennen,257,,,5563VC,Westerhoven,Bergeijk,Noord-Brabant,VBO,5.419868,51.325331
Park de Kempervennen,258,,,5563VC,Westerhoven,Bergeijk,Noord-Brabant,VBO,5.419925,51.325430
Park de Kempervennen,259,,,5563VC,Westerhoven,Bergeijk,Noord-Brabant,VBO,5.419925,51.325493
Park de Kempervennen,260,,,5563VC,Westerhoven,Bergeijk,Noord-Brabant,VBO,5.419237,51.325763
Park de Kempervennen,261,,,5563VC,Westerhoven,Bergeijk,Noord-Brabant,VBO,5.419366,51.325691
Park de Kempervennen,262,,,5563VC,Westerhoven,Bergeijk,Noord-Brabant,VBO,5.419509,51.325727
Park de Kempervennen,263,,,5563VC,Westerhoven,Bergeijk,Noord-Brabant,VBO,5.419710,51.325762
Park de Kempervennen,264,,,5563VC,Westerhoven,Bergeijk,Noord-Brabant,VBO,5.419725,51.325852
Park de Kempervennen,265,,,5563VC,Westerhoven,Bergeijk,Noord-Brabant,VBO,5.419768,51.325924
Park de Kempervennen,266,,,5563VC,Westerhoven,Bergeijk,Noord-Brabant,VBO,5.420141,51.325915
Park de Kempervennen,267,,,5563VC,Westerhoven,Bergeijk,Noord-Brabant,VBO,5.420226,51.325466
Park de Kempervennen,268,,,5563VC,Westerhoven,Bergeijk,Noord-Brabant,VBO,5.420399,51.325511
Park de Kempervennen,269,,,5563VC,Westerhoven,Bergeijk,Noord-Brabant,VBO,5.420298,51.325861
Park de Kempervennen,270,,,5563VC,Westerhoven,Bergeijk,Noord-Brabant,VBO,5.420428,51.325906
Park de Kempervennen,271,,,5563VC,Westerhoven,Bergeijk,Noord-Brabant,VBO,5.420628,51.325933
Park de Kempervennen,272,,,5563VC,Westerhoven,Bergeijk,Noord-Brabant,VBO,5.420714,51.325609
Park de Kempervennen,273,,,5563VC,Westerhoven,Bergeijk,Noord-Brabant,VBO,5.420858,51.325717
Park de Kempervennen,274,,,5563VC,Westerhoven,Bergeijk,Noord-Brabant,VBO,5.420643,51.326032
Park de Kempervennen,275,,,5563VC,Westerhoven,Bergeijk,Noord-Brabant,VBO,5.420729,51.326104
Park de Kempervennen,276,,,5563VC,Westerhoven,Bergeijk,Noord-Brabant,VBO,5.420786,51.326176
Park de Kempervennen,277,,,5563VC,Westerhoven,Bergeijk,Noord-Brabant,VBO,5.420987,51.325690
Park de Kempervennen,278,,,5563VC,Westerhoven,Bergeijk,Noord-Brabant,VBO,5.421145,51.325708
Park de Kempervennen,279,,,5563VC,Westerhoven,Bergeijk,Noord-Brabant,VBO,5.421274,51.325708
Park de Kempervennen,280,,,5563VC,Westerhoven,Bergeijk,Noord-Brabant,VBO,5.421417,51.325645
Park de Kempervennen,281,,,5563VC,Westerhoven,Bergeijk,Noord-Brabant,VBO,5.421489,51.325726
Park de Kempervennen,282,,,5563VC,Westerhoven,Bergeijk,Noord-Brabant,VBO,5.421518,51.325825
Park de Kempervennen,283,,,5563VC,Westerhoven,Bergeijk,Noord-Brabant,VBO,5.421532,51.325906
Park de Kempervennen,284,,,5563VC,Westerhoven,Bergeijk,Noord-Brabant,VBO,5.421633,51.325969
Park de Kempervennen,301,,,5563VC,Westerhoven,Bergeijk,Noord-Brabant,LIG,5.424993,51.329430
Park de Kempervennen,302,,,5563VC,Westerhoven,Bergeijk,Noord-Brabant,LIG,5.424829,51.329336
Park de Kempervennen,303,,,5563VC,Westerhoven,Bergeijk,Noord-Brabant,LIG,5.424157,51.329618
Park de Kempervennen,304,,,5563VC,Westerhoven,Bergeijk,Noord-Brabant,LIG,5.424164,51.329756
Park de Kempervennen,305,,,5563VC,Westerhoven,Bergeijk,Noord-Brabant,LIG,5.423623,51.329395
Park de Kempervennen,306,,,5563VC,Westerhoven,Bergeijk,Noord-Brabant,LIG,5.423772,51.329498
Park de Kempervennen,307,,,5563VC,Westerhoven,Bergeijk,Noord-Brabant,LIG,5.424540,51.329209
Park de Kempervennen,308,,,5563VC,Westerhoven,Bergeijk,Noord-Brabant,LIG,5.424553,51.329060
Park de Kempervennen,309,,,5563VC,Westerhoven,Bergeijk,Noord-Brabant,LIG,5.424726,51.328906
Park de Kempervennen,310,,,5563VC,Westerhoven,Bergeijk,Noord-Brabant,LIG,5.424629,51.328785
Park de Kempervennen,320,,,5563VC,Westerhoven,Bergeijk,Noord-Brabant,VBO,5.423631,51.331199
Park de Kempervennen,321,,,5563VC,Westerhoven,Bergeijk,Noord-Brabant,VBO,5.423459,51.331262
Park de Kempervennen,322,,,5563VC,Westerhoven,Bergeijk,Noord-Brabant,VBO,5.423430,51.331406
Park de Kempervennen,323,,,5563VC,Westerhoven,Bergeijk,Noord-Brabant,VBO,5.423373,51.331523
Park de Kempervennen,324,,,5563VC,Westerhoven,Bergeijk,Noord-Brabant,VBO,5.423158,51.331883
Park de Kempervennen,325,,,5563VC,Westerhoven,Bergeijk,Noord-Brabant,VBO,5.423086,51.331766
Park de Kempervennen,326,,,5563VC,Westerhoven,Bergeijk,Noord-Brabant,VBO,5.422900,51.332081
Park de Kempervennen,327,,,5563VC,Westerhoven,Bergeijk,Noord-Brabant,VBO,5.422685,51.332215
Park de Kempervennen,328,,,5563VC,Westerhoven,Bergeijk,Noord-Brabant,VBO,5.422728,51.332108
Park de Kempervennen,329,,,5563VC,Westerhoven,Bergeijk,Noord-Brabant,VBO,5.422800,51.332305
Park de Kempervennen,330,,,5563VC,Westerhoven,Bergeijk,Noord-Brabant,VBO,5.422556,51.332512
Park de Kempervennen,331,,,5563VC,Westerhoven,Bergeijk,Noord-Brabant,VBO,5.422427,51.332503
Park de Kempervennen,332,,,5563VC,Westerhoven,Bergeijk,Noord-Brabant,VBO,5.422039,51.332530
Park de Kempervennen,333,,,5563VC,Westerhoven,Bergeijk,Noord-Brabant,VBO,5.422226,51.332494
Park de Kempervennen,334,,,5563VC,Westerhoven,Bergeijk,Noord-Brabant,VBO,5.421867,51.332494
Park de Kempervennen,335,,,5563VC,Westerhoven,Bergeijk,Noord-Brabant,VBO,5.421408,51.332324
Park de Kempervennen,336,,,5563VC,Westerhoven,Bergeijk,Noord-Brabant,VBO,5.421609,51.332306
Park de Kempervennen,337,,,5563VC,Westerhoven,Bergeijk,Noord-Brabant,VBO,5.421308,51.332351
Park de Kempervennen,338,,,5563VC,Westerhoven,Bergeijk,Noord-Brabant,VBO,5.420977,51.332198
Park de Kempervennen,339,,,5563VC,Westerhoven,Bergeijk,Noord-Brabant,VBO,5.421164,51.332180
Park de Kempervennen,340,,,5563VC,Westerhoven,Bergeijk,Noord-Brabant,VBO,5.420848,51.332225
Park de Kempervennen,341,,,5563VC,Westerhoven,Bergeijk,Noord-Brabant,VBO,5.420533,51.332126
Park de Kempervennen,342,,,5563VC,Westerhoven,Bergeijk,Noord-Brabant,VBO,5.420016,51.331767
Park de Kempervennen,343,,,5563VC,Westerhoven,Bergeijk,Noord-Brabant,VBO,5.419973,51.331686
Park de Kempervennen,344,,,5563VC,Westerhoven,Bergeijk,Noord-Brabant,VBO,5.420661,51.331821
Park de Kempervennen,345,,,5563VC,Westerhoven,Bergeijk,Noord-Brabant,VBO,5.420647,51.331704
Park de Kempervennen,346,,,5563VC,Westerhoven,Bergeijk,Noord-Brabant,VBO,5.420116,51.331407
Park de Kempervennen,347,,,5563VC,Westerhoven,Bergeijk,Noord-Brabant,VBO,5.420130,51.331335
Park de Kempervennen,348,,,5563VC,Westerhoven,Bergeijk,Noord-Brabant,VBO,5.420001,51.331228
Park de Kempervennen,349,,,5563VC,Westerhoven,Bergeijk,Noord-Brabant,VBO,5.420144,51.331192
Park de Kempervennen,350,,,5563VC,Westerhoven,Bergeijk,Noord-Brabant,VBO,5.420690,51.331434
Park de Kempervennen,351,,,5563VC,Westerhoven,Bergeijk,Noord-Brabant,VBO,5.420905,51.331407
Park de Kempervennen,352,,,5563VC,Westerhoven,Bergeijk,Noord-Brabant,VBO,5.420503,51.331093
Park de Kempervennen,353,,,5563VC,Westerhoven,Bergeijk,Noord-Brabant,VBO,5.420403,51.330994
Park de Kempervennen,354,,,5563VC,Westerhoven,Bergeijk,Noord-Brabant,VBO,5.420546,51.330958
Park de Kempervennen,355,,,5563VC,Westerhoven,Bergeijk,Noord-Brabant,VBO,5.420589,51.330778
Park de Kempervennen,356,,,5563VC,Westerhoven,Bergeijk,Noord-Brabant,VBO,5.420532,51.330706
Park de Kempervennen,357,,,5563VC,Westerhoven,Bergeijk,Noord-Brabant,VBO,5.420460,51.330634
Park de Kempervennen,358,,,5563VC,Westerhoven,Bergeijk,Noord-Brabant,VBO,5.420445,51.330535
Park de Kempervennen,359,,,5563VC,Westerhoven,Bergeijk,Noord-Brabant,VBO,5.420273,51.330490
Park de Kempervennen,360,,,5563VC,Westerhoven,Bergeijk,Noord-Brabant,VBO,5.420115,51.330463
Park de Kempervennen,361,,,5563VC,Westerhoven,Bergeijk,Noord-Brabant,VBO,5.421077,51.331245
Park de Kempervennen,362,,,5563VC,Westerhoven,Bergeijk,Noord-Brabant,VBO,5.421264,51.331236
Park de Kempervennen,363,,,5563VC,Westerhoven,Bergeijk,Noord-Brabant,VBO,5.421436,51.331227
Park de Kempervennen,364,,,5563VC,Westerhoven,Bergeijk,Noord-Brabant,VBO,5.421608,51.331272
Park de Kempervennen,365,,,5563VC,Westerhoven,Bergeijk,Noord-Brabant,VBO,5.421967,51.330912
Park de Kempervennen,366,,,5563VC,Westerhoven,Bergeijk,Noord-Brabant,VBO,5.422081,51.330894
Park de Kempervennen,367,,,5563VC,Westerhoven,Bergeijk,Noord-Brabant,VBO,5.422268,51.330858
Park de Kempervennen,368,,,5563VC,Westerhoven,Bergeijk,Noord-Brabant,VBO,5.422483,51.330858
Park de Kempervennen,369,,,5563VC,Westerhoven,Bergeijk,Noord-Brabant,VBO,5.422627,51.331074
Park de Kempervennen,370,,,5563VC,Westerhoven,Bergeijk,Noord-Brabant,VBO,5.422684,51.331209
Park de Kempervennen,371,,,5563VC,Westerhoven,Bergeijk,Noord-Brabant,VBO,5.422670,51.331326
Park de Kempervennen,372,,,5563VC,Westerhoven,Bergeijk,Noord-Brabant,VBO,5.422670,51.331398
Park de Kempervennen,373,,,5563VC,Westerhoven,Bergeijk,Noord-Brabant,VBO,5.422412,51.331622
Park de Kempervennen,374,,,5563VC,Westerhoven,Bergeijk,Noord-Brabant,VBO,5.422369,51.331730
Park de Kempervennen,375,,,5563VC,Westerhoven,Bergeijk,Noord-Brabant,VBO,5.422154,51.331766
Park de Kempervennen,376,,,5563VC,Westerhoven,Bergeijk,Noord-Brabant,VBO,5.421982,51.331838
Park de Kempervennen,377,,,5563VC,Westerhoven,Bergeijk,Noord-Brabant,VBO,5.421680,51.331497
Park de Kempervennen,378,,,5563VC,Westerhoven,Bergeijk,Noord-Brabant,VBO,5.421680,51.331569
Park de Kempervennen,379,,,5563VC,Westerhoven,Bergeijk,Noord-Brabant,VBO,5.421666,51.331659
Park de Kempervennen,380,,,5563VC,Westerhoven,Bergeijk,Noord-Brabant,VBO,5.421652,51.331784
Park de Kempervennen,381,,,5563VC,Westerhoven,Bergeijk,Noord-Brabant,VBO,5.419743,51.331911
Park de Kempervennen,382,,,5563VC,Westerhoven,Bergeijk,Noord-Brabant,VBO,5.419872,51.331839
Park de Kempervennen,383,,,5563VC,Westerhoven,Bergeijk,Noord-Brabant,VBO,5.419227,51.331803
Park de Kempervennen,384,,,5563VC,Westerhoven,Bergeijk,Noord-Brabant,VBO,5.419155,51.331722
Park de Kempervennen,385,,,5563VC,Westerhoven,Bergeijk,Noord-Brabant,VBO,5.418968,51.331749
Park de Kempervennen,386,,,5563VC,Westerhoven,Bergeijk,Noord-Brabant,VBO,5.418810,51.331515
Park de Kempervennen,387,,,5563VC,Westerhoven,Bergeijk,Noord-Brabant,VBO,5.418681,51.331507
Park de Kempervennen,388,,,5563VC,Westerhoven,Bergeijk,Noord-Brabant,VBO,5.418638,51.331408
Park de Kempervennen,389,,,5563VC,Westerhoven,Bergeijk,Noord-Brabant,VBO,5.418581,51.331336
Park de Kempervennen,390,,,5563VC,Westerhoven,Bergeijk,Noord-Brabant,VBO,5.418337,51.331111
Park de Kempervennen,391,,,5563VC,Westerhoven,Bergeijk,Noord-Brabant,VBO,5.418451,51.331237
Park de Kempervennen,392,,,5563VC,Westerhoven,Bergeijk,Noord-Brabant,VBO,5.418509,51.331138
Park de Kempervennen,393,,,5563VC,Westerhoven,Bergeijk,Noord-Brabant,VBO,5.418222,51.331147
Park de Kempervennen,394,,,5563VC,Westerhoven,Bergeijk,Noord-Brabant,VBO,5.418107,51.331156
Park de Kempervennen,395,,,5563VC,Westerhoven,Bergeijk,Noord-Brabant,VBO,5.417949,51.331129
Park de Kempervennen,396,,,5563VC,Westerhoven,Bergeijk,Noord-Brabant,VBO,5.417648,51.330950
Park de Kempervennen,397,,,5563VC,Westerhoven,Bergeijk,Noord-Brabant,VBO,5.417547,51.330878
Park de Kempervennen,398,,,5563VC,Westerhoven,Bergeijk,Noord-Brabant,VBO,5.417533,51.330788
Park de Kempervennen,399,,,5563VC,Westerhoven,Bergeijk,Noord-Brabant,VBO,5.417518,51.330698
Park de Kempervennen,401,,,5563VC,Westerhoven,Bergeijk,Noord-Brabant,VBO,5.417791,51.330455
Park de Kempervennen,402,,,5563VC,Westerhoven,Bergeijk,Noord-Brabant,VBO,5.417934,51.330518
Park de Kempervennen,403,,,5563VC,Westerhoven,Bergeijk,Noord-Brabant,VBO,5.418078,51.330446
Park de Kempervennen,404,,,5563VC,Westerhoven,Bergeijk,Noord-Brabant,VBO,5.417346,51.329880
Park de Kempervennen,405,,,5563VC,Westerhoven,Bergeijk,Noord-Brabant,VBO,5.417460,51.329817
Park de Kempervennen,406,,,5563VC,Westerhoven,Bergeijk,Noord-Brabant,VBO,5.417589,51.329754
Park de Kempervennen,407,,,5563VC,Westerhoven,Bergeijk,Noord-Brabant,VBO,5.418249,51.329610
Park de Kempervennen,408,,,5563VC,Westerhoven,Bergeijk,Noord-Brabant,VBO,5.418264,51.329520
Park de Kempervennen,409,,,5563VC,Westerhoven,Bergeijk,Noord-Brabant,VBO,5.418235,51.329691
Park de Kempervennen,410,,,5563VC,Westerhoven,Bergeijk,Noord-Brabant,VBO,5.418164,51.330212
Park de Kempervennen,411,,,5563VC,Westerhoven,Bergeijk,Noord-Brabant,VBO,5.418336,51.330230
Park de Kempervennen,412,,,5563VC,Westerhoven,Bergeijk,Noord-Brabant,VBO,5.418479,51.330257
Park de Kempervennen,413,,,5563VC,Westerhoven,Bergeijk,Noord-Brabant,VBO,5.418694,51.329916
Park de Kempervennen,414,,,5563VC,Westerhoven,Bergeijk,Noord-Brabant,VBO,5.418809,51.330005
Park de Kempervennen,415,,,5563VC,Westerhoven,Bergeijk,Noord-Brabant,VBO,5.418910,51.330077
Park de Kempervennen,416,,,5563VC,Westerhoven,Bergeijk,Noord-Brabant,VBO,5.418594,51.330212
Park de Kempervennen,417,,,5563VC,Westerhoven,Bergeijk,Noord-Brabant,VBO,5.419039,51.330050
Park de Kempervennen,418,,,5563VC,Westerhoven,Bergeijk,Noord-Brabant,VBO,5.419197,51.330077
Park de Kempervennen,419,,,5563VC,Westerhoven,Bergeijk,Noord-Brabant,VBO,5.418723,51.330311
Park de Kempervennen,420,,,5563VC,Westerhoven,Bergeijk,Noord-Brabant,VBO,5.418824,51.330383
Park de Kempervennen,421,,,5563VC,Westerhoven,Bergeijk,Noord-Brabant,VBO,5.419570,51.330419
Park de Kempervennen,422,,,5563VC,Westerhoven,Bergeijk,Noord-Brabant,VBO,5.419513,51.330527
Park de Kempervennen,423,,,5563VC,Westerhoven,Bergeijk,Noord-Brabant,VBO,5.419470,51.330634
Park de Kempervennen,424,,,5563VC,Westerhoven,Bergeijk,Noord-Brabant,VBO,5.418953,51.330724
Park de Kempervennen,425,,,5563VC,Westerhoven,Bergeijk,Noord-Brabant,VBO,5.418925,51.330814
Park de Kempervennen,426,,,5563VC,Westerhoven,Bergeijk,Noord-Brabant,VBO,5.419025,51.330904
Park de Kempervennen,427,,,5563VC,Westerhoven,Bergeijk,Noord-Brabant,VBO,5.419126,51.330976
Park de Kempervennen,428,,,5563VC,Westerhoven,Bergeijk,Noord-Brabant,VBO,5.419226,51.330895
Park de Kempervennen,429,,,5563VC,Westerhoven,Bergeijk,Noord-Brabant,VBO,5.419326,51.330931
Park de Kempervennen,430,,,5563VC,Westerhoven,Bergeijk,Noord-Brabant,VBO,5.419456,51.330859
Park de Kempervennen,431,,,5563VC,Westerhoven,Bergeijk,Noord-Brabant,VBO,5.418810,51.330491
Park de Kempervennen,432,,,5563VC,Westerhoven,Bergeijk,Noord-Brabant,VBO,5.419728,51.330410
Park de Kempervennen,433,,,5563VC,Westerhoven,Bergeijk,Noord-Brabant,VBO,5.419828,51.330356
Park de Kempervennen,434,,,5563VC,Westerhoven,Bergeijk,Noord-Brabant,VBO,5.419541,51.330095
Park de Kempervennen,435,,,5563VC,Westerhoven,Bergeijk,Noord-Brabant,VBO,5.419469,51.330014
Park de Kempervennen,436,,,5563VC,Westerhoven,Bergeijk,Noord-Brabant,VBO,5.419326,51.330077
Park de Kempervennen,437,,,5563VC,Westerhoven,Bergeijk,Noord-Brabant,VBO,5.420818,51.330328
Park de Kempervennen,438,,,5563VC,Westerhoven,Bergeijk,Noord-Brabant,VBO,5.420919,51.330508
Park de Kempervennen,439,,,5563VC,Westerhoven,Bergeijk,Noord-Brabant,VBO,5.417546,51.329664
Park de Kempervennen,440,,,5563VC,Westerhoven,Bergeijk,Noord-Brabant,VBO,5.417589,51.329574
Park de Kempervennen,441,,,5563VC,Westerhoven,Bergeijk,Noord-Brabant,VBO,5.417589,51.329484
Park de Kempervennen,442,,,5563VC,Westerhoven,Bergeijk,Noord-Brabant,VBO,5.417690,51.329305
Park de Kempervennen,443,,,5563VC,Westerhoven,Bergeijk,Noord-Brabant,VBO,5.417603,51.329224
Park de Kempervennen,444,,,5563VC,Westerhoven,Bergeijk,Noord-Brabant,VBO,5.417589,51.329143
Park de Kempervennen,445,,,5563VC,Westerhoven,Bergeijk,Noord-Brabant,VBO,5.417431,51.329116
Park de Kempervennen,446,,,5563VC,Westerhoven,Bergeijk,Noord-Brabant,VBO,5.417273,51.329071
Park de Kempervennen,447,,,5563VC,Westerhoven,Bergeijk,Noord-Brabant,VBO,5.417130,51.329125
Park de Kempervennen,448,,,5563VC,Westerhoven,Bergeijk,Noord-Brabant,VBO,5.418221,51.329430
Park de Kempervennen,449,,,5563VC,Westerhoven,Bergeijk,Noord-Brabant,VBO,5.418393,51.329367
Park de Kempervennen,450,,,5563VC,Westerhoven,Bergeijk,Noord-Brabant,VBO,5.418479,51.329277
Park de Kempervennen,451,,,5563VC,Westerhoven,Bergeijk,Noord-Brabant,VBO,5.417761,51.328828
Park de Kempervennen,452,,,5563VC,Westerhoven,Bergeijk,Noord-Brabant,VBO,5.417589,51.328837
Park de Kempervennen,453,,,5563VC,Westerhoven,Bergeijk,Noord-Brabant,VBO,5.417488,51.328891
Park de Kempervennen,454,,,5563VC,Westerhoven,Bergeijk,Noord-Brabant,VBO,5.418493,51.328756
Park de Kempervennen,455,,,5563VC,Westerhoven,Bergeijk,Noord-Brabant,VBO,5.418507,51.328846
Park de Kempervennen,456,,,5563VC,Westerhoven,Bergeijk,Noord-Brabant,VBO,5.418679,51.328882
Park de Kempervennen,457,,,5563VC,Westerhoven,Bergeijk,Noord-Brabant,VBO,5.418966,51.328936
Park de Kempervennen,458,,,5563VC,Westerhoven,Bergeijk,Noord-Brabant,VBO,5.418966,51.329017
Park de Kempervennen,459,,,5563VC,Westerhoven,Bergeijk,Noord-Brabant,VBO,5.419067,51.329088
Park de Kempervennen,460,,,5563VC,Westerhoven,Bergeijk,Noord-Brabant,VBO,5.418995,51.329187
Park de Kempervennen,461,,,5563VC,Westerhoven,Bergeijk,Noord-Brabant,VBO,5.418837,51.329223
Park de Kempervennen,462,,,5563VC,Westerhoven,Bergeijk,Noord-Brabant,VBO,5.418952,51.329277
Park de Kempervennen,463,,,5563VC,Westerhoven,Bergeijk,Noord-Brabant,VBO,5.417804,51.328729
Park de Kempervennen,464,,,5563VC,Westerhoven,Bergeijk,Noord-Brabant,VBO,5.417861,51.328630
Park de Kempervennen,465,,,5563VC,Westerhoven,Bergeijk,Noord-Brabant,VBO,5.418320,51.328594
Park de Kempervennen,466,,,5563VC,Westerhoven,Bergeijk,Noord-Brabant,VBO,5.418407,51.328675
Park de Kempervennen,501,,,5563VC,Westerhoven,Bergeijk,Noord-Brabant,VBO,5.417589,51.328442
Park de Kempervennen,502,,,5563VC,Westerhoven,Bergeijk,Noord-Brabant,VBO,5.417502,51.328370
Park de Kempervennen,503,,,5563VC,Westerhoven,Bergeijk,Noord-Brabant,VBO,5.417517,51.328271
Park de Kempervennen,504,,,5563VC,Westerhoven,Bergeijk,Noord-Brabant,VBO,5.417244,51.328163
Park de Kempervennen,505,,,5563VC,Westerhoven,Bergeijk,Noord-Brabant,VBO,5.417158,51.328100
Park de Kempervennen,506,,,5563VC,Westerhoven,Bergeijk,Noord-Brabant,VBO,5.417029,51.328028
Park de Kempervennen,507,,,5563VC,Westerhoven,Bergeijk,Noord-Brabant,VBO,5.417086,51.327911
Park de Kempervennen,508,,,5563VC,Westerhoven,Bergeijk,Noord-Brabant,VBO,5.417029,51.327813
Park de Kempervennen,509,,,5563VC,Westerhoven,Bergeijk,Noord-Brabant,VBO,5.417000,51.327741
Park de Kempervennen,510,,,5563VC,Westerhoven,Bergeijk,Noord-Brabant,VBO,5.417588,51.327678
Park de Kempervennen,511,,,5563VC,Westerhoven,Bergeijk,Noord-Brabant,VBO,5.417531,51.327624
Park de Kempervennen,512,,,5563VC,Westerhoven,Bergeijk,Noord-Brabant,VBO,5.417488,51.327588
Park de Kempervennen,513,,,5563VC,Westerhoven,Bergeijk,Noord-Brabant,VBO,5.417430,51.327516
Park de Kempervennen,514,,,5563VC,Westerhoven,Bergeijk,Noord-Brabant,VBO,5.417387,51.327471
Park de Kempervennen,515,,,5563VC,Westerhoven,Bergeijk,Noord-Brabant,VBO,5.417301,51.327453
Park de Kempervennen,516,,,5563VC,Westerhoven,Bergeijk,Noord-Brabant,VBO,5.417258,51.327417
Park de Kempervennen,517,,,5563VC,Westerhoven,Bergeijk,Noord-Brabant,VBO,5.417215,51.327372
Park de Kempervennen,518,,,5563VC,Westerhoven,Bergeijk,Noord-Brabant,VBO,5.416713,51.327534
Park de Kempervennen,519,,,5563VC,Westerhoven,Bergeijk,Noord-Brabant,VBO,5.416641,51.327453
Park de Kempervennen,520,,,5563VC,Westerhoven,Bergeijk,Noord-Brabant,VBO,5.416727,51.327049
Park de Kempervennen,521,,,5563VC,Westerhoven,Bergeijk,Noord-Brabant,VBO,5.416756,51.326977
Park de Kempervennen,522,,,5563VC,Westerhoven,Bergeijk,Noord-Brabant,VBO,5.417172,51.327138
Park de Kempervennen,523,,,5563VC,Westerhoven,Bergeijk,Noord-Brabant,VBO,5.417186,51.327067
Park de Kempervennen,524,,,5563VC,Westerhoven,Bergeijk,Noord-Brabant,VBO,5.417186,51.327022
Park de Kempervennen,525,,,5563VC,Westerhoven,Bergeijk,Noord-Brabant,VBO,5.417200,51.326959
Park de Kempervennen,526,,,5563VC,Westerhoven,Bergeijk,Noord-Brabant,VBO,5.416741,51.326932
Park de Kempervennen,527,,,5563VC,Westerhoven,Bergeijk,Noord-Brabant,VBO,5.416741,51.326869
Park de Kempervennen,528,,,5563VC,Westerhoven,Bergeijk,Noord-Brabant,VBO,5.416899,51.326743
Park de Kempervennen,529,,,5563VC,Westerhoven,Bergeijk,Noord-Brabant,VBO,5.417143,51.326779
Park de Kempervennen,530,,,5563VC,Westerhoven,Bergeijk,Noord-Brabant,VBO,5.416971,51.326707
Park de Kempervennen,531,,,5563VC,Westerhoven,Bergeijk,Noord-Brabant,VBO,5.417085,51.326734
Park de Kempervennen,532,,,5563VC,Westerhoven,Bergeijk,Noord-Brabant,VBO,5.416627,51.327372
Park de Kempervennen,533,,,5563VC,Westerhoven,Bergeijk,Noord-Brabant,VBO,5.416454,51.327336
Park de Kempervennen,534,,,5563VC,Westerhoven,Bergeijk,Noord-Brabant,VBO,5.416297,51.327300
Park de Kempervennen,535,,,5563VC,Westerhoven,Bergeijk,Noord-Brabant,VBO,5.416153,51.327363
Park de Kempervennen,536,,,5563VC,Westerhoven,Bergeijk,Noord-Brabant,VBO,5.416067,51.327265
Park de Kempervennen,537,,,5563VC,Westerhoven,Bergeijk,Noord-Brabant,VBO,5.415780,51.327085
Park de Kempervennen,538,,,5563VC,Westerhoven,Bergeijk,Noord-Brabant,VBO,5.415636,51.327067
Park de Kempervennen,539,,,5563VC,Westerhoven,Bergeijk,Noord-Brabant,VBO,5.415679,51.326959
Park de Kempervennen,540,,,5563VC,Westerhoven,Bergeijk,Noord-Brabant,VBO,5.415622,51.326887
Park de Kempervennen,541,,,5563VC,Westerhoven,Bergeijk,Noord-Brabant,VBO,5.415522,51.326806
Park de Kempervennen,542,,,5563VC,Westerhoven,Bergeijk,Noord-Brabant,VBO,5.415507,51.326725
Park de Kempervennen,543,,,5563VC,Westerhoven,Bergeijk,Noord-Brabant,VBO,5.415364,51.326698
Park de Kempervennen,544,,,5563VC,Westerhoven,Bergeijk,Noord-Brabant,VBO,5.415191,51.326654
Park de Kempervennen,545,,,5563VC,Westerhoven,Bergeijk,Noord-Brabant,VBO,5.415048,51.326707
Park de Kempervennen,546,,,5563VC,Westerhoven,Bergeijk,Noord-Brabant,VBO,5.414976,51.326627
Park de Kempervennen,547,,,5563VC,Westerhoven,Bergeijk,Noord-Brabant,VBO,5.414474,51.326483
Park de Kempervennen,548,,,5563VC,Westerhoven,Bergeijk,Noord-Brabant,VBO,5.414316,51.326438
Park de Kempervennen,549,,,5563VC,Westerhoven,Bergeijk,Noord-Brabant,VBO,5.414173,51.326465
Park de Kempervennen,550,,,5563VC,Westerhoven,Bergeijk,Noord-Brabant,VBO,5.414058,51.326492
Park de Kempervennen,551,,,5563VC,Westerhoven,Bergeijk,Noord-Brabant,VBO,5.413914,51.326483
Park de Kempervennen,552,,,5563VC,Westerhoven,Bergeijk,Noord-Brabant,VBO,5.413943,51.326375
Park de Kempervennen,553,,,5563VC,Westerhoven,Bergeijk,Noord-Brabant,VBO,5.413814,51.326231
Park de Kempervennen,554,,,5563VC,Westerhoven,Bergeijk,Noord-Brabant,VBO,5.413886,51.326294
Park de Kempervennen,555,,,5563VC,Westerhoven,Bergeijk,Noord-Brabant,VBO,5.413800,51.326141
Park de Kempervennen,556,,,5563VC,Westerhoven,Bergeijk,Noord-Brabant,VBO,5.413642,51.326106
Park de Kempervennen,557,,,5563VC,Westerhoven,Bergeijk,Noord-Brabant,VBO,5.413699,51.325809
Park de Kempervennen,558,,,5563VC,Westerhoven,Bergeijk,Noord-Brabant,VBO,5.413340,51.325953
Park de Kempervennen,559,,,5563VC,Westerhoven,Bergeijk,Noord-Brabant,VBO,5.413240,51.325881
Park de Kempervennen,560,,,5563VC,Westerhoven,Bergeijk,Noord-Brabant,VBO,5.413154,51.325800
Park de Kempervennen,561,,,5563VC,Westerhoven,Bergeijk,Noord-Brabant,VBO,5.413197,51.325701
Park de Kempervennen,562,,,5563VC,Westerhoven,Bergeijk,Noord-Brabant,VBO,5.413598,51.325728
Park de Kempervennen,563,,,5563VC,Westerhoven,Bergeijk,Noord-Brabant,VBO,5.413139,51.325611
Park de Kempervennen,564,,,5563VC,Westerhoven,Bergeijk,Noord-Brabant,VBO,5.413111,51.325521
Park de Kempervennen,565,,,5563VC,Westerhoven,Bergeijk,Noord-Brabant,VBO,5.413297,51.325485
Park de Kempervennen,566,,,5563VC,Westerhoven,Bergeijk,Noord-Brabant,VBO,5.413125,51.325432
Park de Kempervennen,567,,,5563VC,Westerhoven,Bergeijk,Noord-Brabant,VBO,5.413426,51.325422
Park de Kempervennen,568,,,5563VC,Westerhoven,Bergeijk,Noord-Brabant,VBO,5.413842,51.325791
Park de Kempervennen,569,,,5563VC,Westerhoven,Bergeijk,Noord-Brabant,VBO,5.413971,51.325809
Park de Kempervennen,570,,,5563VC,Westerhoven,Bergeijk,Noord-Brabant,VBO,5.414330,51.325827
Park de Kempervennen,571,,,5563VC,Westerhoven,Bergeijk,Noord-Brabant,VBO,5.414115,51.325818
Park de Kempervennen,572,,,5563VC,Westerhoven,Bergeijk,Noord-Brabant,VBO,5.414258,51.325737
Park de Kempervennen,573,,,5563VC,Westerhoven,Bergeijk,Noord-Brabant,VBO,5.414359,51.325917
Park de Kempervennen,574,,,5563VC,Westerhoven,Bergeijk,Noord-Brabant,VBO,5.414345,51.326016
Park de Kempervennen,575,,,5563VC,Westerhoven,Bergeijk,Noord-Brabant,VBO,5.414488,51.326078
Park de Kempervennen,576,,,5563VC,Westerhoven,Bergeijk,Noord-Brabant,VBO,5.418162,51.327920
Park de Kempervennen,577,,,5563VC,Westerhoven,Bergeijk,Noord-Brabant,VBO,5.418062,51.327911
Park de Kempervennen,578,,,5563VC,Westerhoven,Bergeijk,Noord-Brabant,VBO,5.417990,51.327848
Park de Kempervennen,579,,,5563VC,Westerhoven,Bergeijk,Noord-Brabant,VBO,5.418004,51.327785
Park de Kempervennen,580,,,5563VC,Westerhoven,Bergeijk,Noord-Brabant,VBO,5.418062,51.327740
Park de Kempervennen,581,,,5563VC,Westerhoven,Bergeijk,Noord-Brabant,VBO,5.418076,51.327678
Park de Kempervennen,582,,,5563VC,Westerhoven,Bergeijk,Noord-Brabant,VBO,5.418076,51.327624
Park de Kempervennen,583,,,5563VC,Westerhoven,Bergeijk,Noord-Brabant,VBO,5.418105,51.327561
Park de Kempervennen,584,,,5563VC,Westerhoven,Bergeijk,Noord-Brabant,VBO,5.418470,51.327344
Park de Kempervennen,585,,,5563VC,Westerhoven,Bergeijk,Noord-Brabant,VBO,5.418377,51.327381
Park de Kempervennen,586,,,5563VC,Westerhoven,Bergeijk,Noord-Brabant,VBO,5.418305,51.327399
Park de Kempervennen,587,,,5563VC,Westerhoven,Bergeijk,Noord-Brabant,VBO,5.418219,51.327426
Park de Kempervennen,588,,,5563VC,Westerhoven,Bergeijk,Noord-Brabant,VBO,5.418635,51.327282
Park de Kempervennen,589,,,5563VC,Westerhoven,Bergeijk,Noord-Brabant,VBO,5.418578,51.327300
Park de Kempervennen,590,,,5563VC,Westerhoven,Bergeijk,Noord-Brabant,VBO,5.418664,51.327237
Park de Kempervennen,591,,,5563VC,Westerhoven,Bergeijk,Noord-Brabant,VBO,5.418693,51.327183
Park de Kempervennen,601,,,5563VC,Westerhoven,Bergeijk,Noord-Brabant,VBO,5.416987,51.330410
Park de Kempervennen,602,,,5563VC,Westerhoven,Bergeijk,Noord-Brabant,VBO,5.416844,51.330383
Park de Kempervennen,603,,,5563VC,Westerhoven,Bergeijk,Noord-Brabant,VBO,5.416643,51.330186
Park de Kempervennen,604,,,5563VC,Westerhoven,Bergeijk,Noord-Brabant,VBO,5.416700,51.330096
Park de Kempervennen,605,,,5563VC,Westerhoven,Bergeijk,Noord-Brabant,VBO,5.416757,51.330006
Park de Kempervennen,606,,,5563VC,Westerhoven,Bergeijk,Noord-Brabant,VBO,5.416657,51.329916
Park de Kempervennen,607,,,5563VC,Westerhoven,Bergeijk,Noord-Brabant,VBO,5.416643,51.329826
Park de Kempervennen,608,,,5563VC,Westerhoven,Bergeijk,Noord-Brabant,VBO,5.416614,51.329736
Park de Kempervennen,609,,,5563VC,Westerhoven,Bergeijk,Noord-Brabant,VBO,5.416542,51.329646
Park de Kempervennen,610,,,5563VC,Westerhoven,Bergeijk,Noord-Brabant,VBO,5.416355,51.329548
Park de Kempervennen,611,,,5563VC,Westerhoven,Bergeijk,Noord-Brabant,VBO,5.416212,51.329521
Park de Kempervennen,612,,,5563VC,Westerhoven,Bergeijk,Noord-Brabant,VBO,5.416083,51.329548
Park de Kempervennen,613,,,5563VC,Westerhoven,Bergeijk,Noord-Brabant,VBO,5.415982,51.329476
Park de Kempervennen,614,,,5563VC,Westerhoven,Bergeijk,Noord-Brabant,VBO,5.415853,51.329386
Park de Kempervennen,615,,,5563VC,Westerhoven,Bergeijk,Noord-Brabant,VBO,5.415867,51.329269
Park de Kempervennen,616,,,5563VC,Westerhoven,Bergeijk,Noord-Brabant,VBO,5.415710,51.329278
Park de Kempervennen,617,,,5563VC,Westerhoven,Bergeijk,Noord-Brabant,VBO,5.416929,51.328738
Park de Kempervennen,618,,,5563VC,Westerhoven,Bergeijk,Noord-Brabant,VBO,5.416757,51.328694
Park de Kempervennen,619,,,5563VC,Westerhoven,Bergeijk,Noord-Brabant,VBO,5.416599,51.328667
Park de Kempervennen,620,,,5563VC,Westerhoven,Bergeijk,Noord-Brabant,VBO,5.416627,51.328586
Park de Kempervennen,621,,,5563VC,Westerhoven,Bergeijk,Noord-Brabant,VBO,5.416527,51.328505
Park de Kempervennen,622,,,5563VC,Westerhoven,Bergeijk,Noord-Brabant,VBO,5.416441,51.328415
Park de Kempervennen,623,,,5563VC,Westerhoven,Bergeijk,Noord-Brabant,VBO,5.416512,51.328307
Park de Kempervennen,624,,,5563VC,Westerhoven,Bergeijk,Noord-Brabant,VBO,5.416355,51.328298
Park de Kempervennen,625,,,5563VC,Westerhoven,Bergeijk,Noord-Brabant,VBO,5.416197,51.328325
Park de Kempervennen,626,,,5563VC,Westerhoven,Bergeijk,Noord-Brabant,VBO,5.416082,51.328352
Park de Kempervennen,627,,,5563VC,Westerhoven,Bergeijk,Noord-Brabant,VBO,5.415996,51.328083
Park de Kempervennen,628,,,5563VC,Westerhoven,Bergeijk,Noord-Brabant,VBO,5.415924,51.327993
Park de Kempervennen,629,,,5563VC,Westerhoven,Bergeijk,Noord-Brabant,VBO,5.415795,51.328056
Park de Kempervennen,630,,,5563VC,Westerhoven,Bergeijk,Noord-Brabant,VBO,5.415637,51.328020
Park de Kempervennen,631,,,5563VC,Westerhoven,Bergeijk,Noord-Brabant,VBO,5.415479,51.327975
Park de Kempervennen,632,,,5563VC,Westerhoven,Bergeijk,Noord-Brabant,VBO,5.415479,51.327894
Park de Kempervennen,633,,,5563VC,Westerhoven,Bergeijk,Noord-Brabant,VBO,5.415364,51.327813
Park de Kempervennen,634,,,5563VC,Westerhoven,Bergeijk,Noord-Brabant,VBO,5.415092,51.327588
Park de Kempervennen,635,,,5563VC,Westerhoven,Bergeijk,Noord-Brabant,VBO,5.415005,51.327507
Park de Kempervennen,636,,,5563VC,Westerhoven,Bergeijk,Noord-Brabant,VBO,5.414876,51.327570
Park de Kempervennen,637,,,5563VC,Westerhoven,Bergeijk,Noord-Brabant,VBO,5.414704,51.327526
Park de Kempervennen,638,,,5563VC,Westerhoven,Bergeijk,Noord-Brabant,VBO,5.414561,51.327490
Park de Kempervennen,639,,,5563VC,Westerhoven,Bergeijk,Noord-Brabant,VBO,5.414532,51.327409
Park de Kempervennen,640,,,5563VC,Westerhoven,Bergeijk,Noord-Brabant,VBO,5.414460,51.327328
Park de Kempervennen,641,,,5563VC,Westerhoven,Bergeijk,Noord-Brabant,VBO,5.414388,51.327247
Park de Kempervennen,642,,,5563VC,Westerhoven,Bergeijk,Noord-Brabant,VBO,5.414202,51.326914
Park de Kempervennen,643,,,5563VC,Westerhoven,Bergeijk,Noord-Brabant,VBO,5.414058,51.326932
Park de Kempervennen,644,,,5563VC,Westerhoven,Bergeijk,Noord-Brabant,VBO,5.413929,51.326959
Park de Kempervennen,645,,,5563VC,Westerhoven,Bergeijk,Noord-Brabant,VBO,5.413786,51.326933
Park de Kempervennen,646,,,5563VC,Westerhoven,Bergeijk,Noord-Brabant,VBO,5.413484,51.327031
Park de Kempervennen,647,,,5563VC,Westerhoven,Bergeijk,Noord-Brabant,VBO,5.413370,51.327094
Park de Kempervennen,648,,,5563VC,Westerhoven,Bergeijk,Noord-Brabant,VBO,5.413212,51.327067
Park de Kempervennen,649,,,5563VC,Westerhoven,Bergeijk,Noord-Brabant,VBO,5.413040,51.327023
Park de Kempervennen,650,,,5563VC,Westerhoven,Bergeijk,Noord-Brabant,VBO,5.413025,51.326933
Park de Kempervennen,651,,,5563VC,Westerhoven,Bergeijk,Noord-Brabant,VBO,5.412953,51.326861
Park de Kempervennen,652,,,5563VC,Westerhoven,Bergeijk,Noord-Brabant,VBO,5.413097,51.326501
Park de Kempervennen,653,,,5563VC,Westerhoven,Bergeijk,Noord-Brabant,VBO,5.412939,51.326465
Park de Kempervennen,654,,,5563VC,Westerhoven,Bergeijk,Noord-Brabant,VBO,5.412767,51.326447
Park de Kempervennen,655,,,5563VC,Westerhoven,Bergeijk,Noord-Brabant,VBO,5.412767,51.326339
Park de Kempervennen,656,,,5563VC,Westerhoven,Bergeijk,Noord-Brabant,VBO,5.412681,51.326277
Park de Kempervennen,657,,,5563VC,Westerhoven,Bergeijk,Noord-Brabant,VBO,5.412623,51.326196
Park de Kempervennen,658,,,5563VC,Westerhoven,Bergeijk,Noord-Brabant,VBO,5.412680,51.326088
Park de Kempervennen,659,,,5563VC,Westerhoven,Bergeijk,Noord-Brabant,VBO,5.412523,51.326079
Park de Kempervennen,660,,,5563VC,Westerhoven,Bergeijk,Noord-Brabant,VBO,5.412394,51.326106
Park de Kempervennen,661,,,5563VC,Westerhoven,Bergeijk,Noord-Brabant,VBO,5.412236,51.326115
Park de Kempervennen,662,,,5563VC,Westerhoven,Bergeijk,Noord-Brabant,VBO,5.411834,51.326133
Park de Kempervennen,663,,,5563VC,Westerhoven,Bergeijk,Noord-Brabant,VBO,5.411691,51.326151
Park de Kempervennen,664,,,5563VC,Westerhoven,Bergeijk,Noord-Brabant,VBO,5.411561,51.326070
Park de Kempervennen,665,,,5563VC,Westerhoven,Bergeijk,Noord-Brabant,VBO,5.411475,51.325989
Park de Kempervennen,666,,,5563VC,Westerhoven,Bergeijk,Noord-Brabant,VBO,5.411504,51.325890
Park de Kempervennen,667,,,5563VC,Westerhoven,Bergeijk,Noord-Brabant,VBO,5.411332,51.325863
Park de Kempervennen,701,,,5563VC,Westerhoven,Bergeijk,Noord-Brabant,VBO,5.410930,51.325863
Park de Kempervennen,702,,,5563VC,Westerhoven,Bergeijk,Noord-Brabant,VBO,5.410930,51.325783
Park de Kempervennen,703,,,5563VC,Westerhoven,Bergeijk,Noord-Brabant,VBO,5.410987,51.325684
Park de Kempervennen,704,,,5563VC,Westerhoven,Bergeijk,Noord-Brabant,VBO,5.410916,51.325603
Park de Kempervennen,705,,,5563VC,Westerhoven,Bergeijk,Noord-Brabant,VBO,5.410786,51.325207
Park de Kempervennen,706,,,5563VC,Westerhoven,Bergeijk,Noord-Brabant,VBO,5.410571,51.325091
Park de Kempervennen,707,,,5563VC,Westerhoven,Bergeijk,Noord-Brabant,VBO,5.410298,51.325225
Park de Kempervennen,708,,,5563VC,Westerhoven,Bergeijk,Noord-Brabant,VBO,5.410069,51.325216
Park de Kempervennen,709,,,5563VC,Westerhoven,Bergeijk,Noord-Brabant,VBO,5.409974,51.325282
Park de Kempervennen,710,,,5563VC,Westerhoven,Bergeijk,Noord-Brabant,VBO,5.411059,51.325522
Park de Kempervennen,711,,,5563VC,Westerhoven,Bergeijk,Noord-Brabant,VBO,5.411202,51.325450
Park de Kempervennen,712,,,5563VC,Westerhoven,Bergeijk,Noord-Brabant,VBO,5.411332,51.325486
Park de Kempervennen,713,,,5563VC,Westerhoven,Bergeijk,Noord-Brabant,VBO,5.411748,51.325378
Park de Kempervennen,714,,,5563VC,Westerhoven,Bergeijk,Noord-Brabant,VBO,5.411891,51.325369
Park de Kempervennen,715,,,5563VC,Westerhoven,Bergeijk,Noord-Brabant,VBO,5.412006,51.325378
Park de Kempervennen,716,,,5563VC,Westerhoven,Bergeijk,Noord-Brabant,VBO,5.412164,51.325315
Park de Kempervennen,717,,,5563VC,Westerhoven,Bergeijk,Noord-Brabant,VBO,5.412034,51.325243
Park de Kempervennen,718,,,5563VC,Westerhoven,Bergeijk,Noord-Brabant,VBO,5.411188,51.324722
Park de Kempervennen,719,,,5563VC,Westerhoven,Bergeijk,Noord-Brabant,VBO,5.411058,51.324650
Park de Kempervennen,720,,,5563VC,Westerhoven,Bergeijk,Noord-Brabant,VBO,5.410843,51.324614
Park de Kempervennen,721,,,5563VC,Westerhoven,Bergeijk,Noord-Brabant,VBO,5.410657,51.324587
Park de Kempervennen,722,,,5563VC,Westerhoven,Bergeijk,Noord-Brabant,VBO,5.410485,51.324560
Park de Kempervennen,723,,,5563VC,Westerhoven,Bergeijk,Noord-Brabant,VBO,5.410255,51.324542
Park de Kempervennen,724,,,5563VC,Westerhoven,Bergeijk,Noord-Brabant,VBO,5.410155,51.324623
Park de Kempervennen,725,,,5563VC,Westerhoven,Bergeijk,Noord-Brabant,VBO,5.412049,51.325153
Park de Kempervennen,726,,,5563VC,Westerhoven,Bergeijk,Noord-Brabant,VBO,5.412077,51.325063
Park de Kempervennen,727,,,5563VC,Westerhoven,Bergeijk,Noord-Brabant,VBO,5.412049,51.324973
Park de Kempervennen,728,,,5563VC,Westerhoven,Bergeijk,Noord-Brabant,VBO,5.412192,51.324901
Park de Kempervennen,729,,,5563VC,Westerhoven,Bergeijk,Noord-Brabant,VBO,5.412321,51.324829
Park de Kempervennen,730,,,5563VC,Westerhoven,Bergeijk,Noord-Brabant,VBO,5.411661,51.324299
Park de Kempervennen,731,,,5563VC,Westerhoven,Bergeijk,Noord-Brabant,VBO,5.411575,51.324200
Park de Kempervennen,732,,,5563VC,Westerhoven,Bergeijk,Noord-Brabant,VBO,5.411460,51.324093
Park de Kempervennen,733,,,5563VC,Westerhoven,Bergeijk,Noord-Brabant,VBO,5.411345,51.324039
Park de Kempervennen,734,,,5563VC,Westerhoven,Bergeijk,Noord-Brabant,VBO,5.411144,51.324012
Park de Kempervennen,735,,,5563VC,Westerhoven,Bergeijk,Noord-Brabant,VBO,5.410958,51.323985
Park de Kempervennen,736,,,5563VC,Westerhoven,Bergeijk,Noord-Brabant,VBO,5.410814,51.323949
Park de Kempervennen,737,,,5563VC,Westerhoven,Bergeijk,Noord-Brabant,VBO,5.410441,51.323922
Park de Kempervennen,738,,,5563VC,Westerhoven,Bergeijk,Noord-Brabant,VBO,5.410355,51.323994
Park de Kempervennen,739,,,5563VC,Westerhoven,Bergeijk,Noord-Brabant,VBO,5.410327,51.324147
Park de Kempervennen,740,,,5563VC,Westerhoven,Bergeijk,Noord-Brabant,VBO,5.412321,51.324605
Park de Kempervennen,741,,,5563VC,Westerhoven,Bergeijk,Noord-Brabant,VBO,5.412450,51.324569
Park de Kempervennen,742,,,5563VC,Westerhoven,Bergeijk,Noord-Brabant,VBO,5.412335,51.324497
Park de Kempervennen,743,,,5563VC,Westerhoven,Bergeijk,Noord-Brabant,VBO,5.412350,51.324407
Park de Kempervennen,744,,,5563VC,Westerhoven,Bergeijk,Noord-Brabant,VBO,5.412393,51.324299
Park de Kempervennen,745,,,5563VC,Westerhoven,Bergeijk,Noord-Brabant,VBO,5.412335,51.324227
Park de Kempervennen,746,,,5563VC,Westerhoven,Bergeijk,Noord-Brabant,VBO,5.412177,51.323688
Park de Kempervennen,747,,,5563VC,Westerhoven,Bergeijk,Noord-Brabant,VBO,5.412091,51.323607
Park de Kempervennen,748,,,5563VC,Westerhoven,Bergeijk,Noord-Brabant,VBO,5.412005,51.323490
Park de Kempervennen,749,,,5563VC,Westerhoven,Bergeijk,Noord-Brabant,VBO,5.411861,51.323427
Park de Kempervennen,750,,,5563VC,Westerhoven,Bergeijk,Noord-Brabant,VBO,5.411660,51.323409
Park de Kempervennen,751,,,5563VC,Westerhoven,Bergeijk,Noord-Brabant,VBO,5.411488,51.323373
Park de Kempervennen,752,,,5563VC,Westerhoven,Bergeijk,Noord-Brabant,VBO,5.411302,51.323338
Park de Kempervennen,753,,,5563VC,Westerhoven,Bergeijk,Noord-Brabant,VBO,5.411101,51.323338
Park de Kempervennen,754,,,5563VC,Westerhoven,Bergeijk,Noord-Brabant,VBO,5.410986,51.323401
Park de Kempervennen,755,,,5563VC,Westerhoven,Bergeijk,Noord-Brabant,VBO,5.410943,51.323553
Park de Kempervennen,756,,,5563VC,Westerhoven,Bergeijk,Noord-Brabant,VBO,5.412479,51.324155
Park de Kempervennen,757,,,5563VC,Westerhoven,Bergeijk,Noord-Brabant,VBO,5.412593,51.324092
Park de Kempervennen,758,,,5563VC,Westerhoven,Bergeijk,Noord-Brabant,VBO,5.412765,51.324110
Park de Kempervennen,759,,,5563VC,Westerhoven,Bergeijk,Noord-Brabant,VBO,5.412794,51.324002
Park de Kempervennen,760,,,5563VC,Westerhoven,Bergeijk,Noord-Brabant,VBO,5.413052,51.323859
Park de Kempervennen,761,,,5563VC,Westerhoven,Bergeijk,Noord-Brabant,VBO,5.413181,51.323805
Park de Kempervennen,762,,,5563VC,Westerhoven,Bergeijk,Noord-Brabant,VBO,5.413095,51.323724
Park de Kempervennen,763,,,5563VC,Westerhoven,Bergeijk,Noord-Brabant,VBO,5.412837,51.323193
Park de Kempervennen,764,,,5563VC,Westerhoven,Bergeijk,Noord-Brabant,VBO,5.412736,51.323068
Park de Kempervennen,765,,,5563VC,Westerhoven,Bergeijk,Noord-Brabant,VBO,5.412621,51.323005
Park de Kempervennen,766,,,5563VC,Westerhoven,Bergeijk,Noord-Brabant,VBO,5.412291,51.322879
Park de Kempervennen,767,,,5563VC,Westerhoven,Bergeijk,Noord-Brabant,VBO,5.412191,51.322762
Park de Kempervennen,768,,,5563VC,Westerhoven,Bergeijk,Noord-Brabant,VBO,5.412090,51.322726
Park de Kempervennen,769,,,5563VC,Westerhoven,Bergeijk,Noord-Brabant,VBO,5.411660,51.322780
Park de Kempervennen,770,,,5563VC,Westerhoven,Bergeijk,Noord-Brabant,VBO,5.411560,51.322753
Park de Kempervennen,771,,,5563VC,Westerhoven,Bergeijk,Noord-Brabant,VBO,5.411344,51.322726
Park de Kempervennen,772,,,5563VC,Westerhoven,Bergeijk,Noord-Brabant,VBO,5.411158,51.322699
Park de Kempervennen,773,,,5563VC,Westerhoven,Bergeijk,Noord-Brabant,VBO,5.410986,51.322672
Park de Kempervennen,774,,,5563VC,Westerhoven,Bergeijk,Noord-Brabant,VBO,5.410771,51.322664
Park de Kempervennen,775,,,5563VC,Westerhoven,Bergeijk,Noord-Brabant,VBO,5.410656,51.322717
Park de Kempervennen,776,,,5563VC,Westerhoven,Bergeijk,Noord-Brabant,VBO,5.410642,51.322870
Park de Kempervennen,777,,,5563VC,Westerhoven,Bergeijk,Noord-Brabant,VBO,5.413152,51.323616
Park de Kempervennen,778,,,5563VC,Westerhoven,Bergeijk,Noord-Brabant,VBO,5.413210,51.323499
Park de Kempervennen,779,,,5563VC,Westerhoven,Bergeijk,Noord-Brabant,VBO,5.413368,51.323490
Park de Kempervennen,780,,,5563VC,Westerhoven,Bergeijk,Noord-Brabant,VBO,5.413497,51.323445
Park de Kempervennen,801,,,5563VC,Westerhoven,Bergeijk,Noord-Brabant,VBO,5.413252,51.322816
Park de Kempervennen,802,,,5563VC,Westerhoven,Bergeijk,Noord-Brabant,VBO,5.413181,51.322717
Park de Kempervennen,803,,,5563VC,Westerhoven,Bergeijk,Noord-Brabant,VBO,5.413037,51.322654
Park de Kempervennen,804,,,5563VC,Westerhoven,Bergeijk,Noord-Brabant,VBO,5.412836,51.322636
Park de Kempervennen,805,,,5563VC,Westerhoven,Bergeijk,Noord-Brabant,VBO,5.412678,51.322447
Park de Kempervennen,806,,,5563VC,Westerhoven,Bergeijk,Noord-Brabant,VBO,5.412578,51.322331
Park de Kempervennen,807,,,5563VC,Westerhoven,Bergeijk,Noord-Brabant,VBO,5.412449,51.322268
Park de Kempervennen,808,,,5563VC,Westerhoven,Bergeijk,Noord-Brabant,VBO,5.412234,51.322250
Park de Kempervennen,809,,,5563VC,Westerhoven,Bergeijk,Noord-Brabant,VBO,5.411889,51.322178
Park de Kempervennen,810,,,5563VC,Westerhoven,Bergeijk,Noord-Brabant,VBO,5.411760,51.322142
Park de Kempervennen,811,,,5563VC,Westerhoven,Bergeijk,Noord-Brabant,VBO,5.411545,51.322115
Park de Kempervennen,812,,,5563VC,Westerhoven,Bergeijk,Noord-Brabant,VBO,5.411358,51.322088
Park de Kempervennen,813,,,5563VC,Westerhoven,Bergeijk,Noord-Brabant,VBO,5.411186,51.322061
Park de Kempervennen,814,,,5563VC,Westerhoven,Bergeijk,Noord-Brabant,VBO,5.410985,51.322052
Park de Kempervennen,815,,,5563VC,Westerhoven,Bergeijk,Noord-Brabant,VBO,5.410856,51.322106
Park de Kempervennen,816,,,5563VC,Westerhoven,Bergeijk,Noord-Brabant,VBO,5.410856,51.322250
Park de Kempervennen,817,,,5563VC,Westerhoven,Bergeijk,Noord-Brabant,VBO,5.413668,51.322510
Park de Kempervennen,818,,,5563VC,Westerhoven,Bergeijk,Noord-Brabant,VBO,5.414601,51.322887
Park de Kempervennen,819,,,5563VC,Westerhoven,Bergeijk,Noord-Brabant,VBO,5.414486,51.322789
Park de Kempervennen,820,,,5563VC,Westerhoven,Bergeijk,Noord-Brabant,VBO,5.414543,51.322699
Park de Kempervennen,821,,,5563VC,Westerhoven,Bergeijk,Noord-Brabant,VBO,5.414601,51.322582
Park de Kempervennen,822,,,5563VC,Westerhoven,Bergeijk,Noord-Brabant,VBO,5.414730,51.322582
Park de Kempervennen,823,,,5563VC,Westerhoven,Bergeijk,Noord-Brabant,VBO,5.414873,51.322519
Park de Kempervennen,824,,,5563VC,Westerhoven,Bergeijk,Noord-Brabant,VBO,5.412061,51.321594
Park de Kempervennen,825,,,5563VC,Westerhoven,Bergeijk,Noord-Brabant,VBO,5.411975,51.321477
Park de Kempervennen,826,,,5563VC,Westerhoven,Bergeijk,Noord-Brabant,VBO,5.411846,51.321414
Park de Kempervennen,827,,,5563VC,Westerhoven,Bergeijk,Noord-Brabant,VBO,5.411631,51.321387
Park de Kempervennen,828,,,5563VC,Westerhoven,Bergeijk,Noord-Brabant,VBO,5.411415,51.321369
Park de Kempervennen,829,,,5563VC,Westerhoven,Bergeijk,Noord-Brabant,VBO,5.411186,51.321369
Park de Kempervennen,830,,,5563VC,Westerhoven,Bergeijk,Noord-Brabant,VBO,5.411071,51.321423
Park de Kempervennen,831,,,5563VC,Westerhoven,Bergeijk,Noord-Brabant,VBO,5.411043,51.321576
Park de Kempervennen,832,,,5563VC,Westerhoven,Bergeijk,Noord-Brabant,VBO,5.412463,51.321198
Park de Kempervennen,833,,,5563VC,Westerhoven,Bergeijk,Noord-Brabant,VBO,5.412319,51.321135
Park de Kempervennen,834,,,5563VC,Westerhoven,Bergeijk,Noord-Brabant,VBO,5.412175,51.320937
Park de Kempervennen,835,,,5563VC,Westerhoven,Bergeijk,Noord-Brabant,VBO,5.412089,51.320821
Park de Kempervennen,836,,,5563VC,Westerhoven,Bergeijk,Noord-Brabant,VBO,5.411946,51.320749
Park de Kempervennen,837,,,5563VC,Westerhoven,Bergeijk,Noord-Brabant,VBO,5.411745,51.320731
Park de Kempervennen,838,,,5563VC,Westerhoven,Bergeijk,Noord-Brabant,VBO,5.411544,51.320713
Park de Kempervennen,839,,,5563VC,Westerhoven,Bergeijk,Noord-Brabant,VBO,5.411300,51.320704
Park de Kempervennen,840,,,5563VC,Westerhoven,Bergeijk,Noord-Brabant,VBO,5.411229,51.320758
Park de Kempervennen,841,,,5563VC,Westerhoven,Bergeijk,Noord-Brabant,VBO,5.411157,51.320965
Park de Kempervennen,842,,,5563VC,Westerhoven,Bergeijk,Noord-Brabant,VBO,5.414988,51.322492
Park de Kempervennen,843,,,5563VC,Westerhoven,Bergeijk,Noord-Brabant,VBO,5.415160,51.322519
Park de Kempervennen,844,,,5563VC,Westerhoven,Bergeijk,Noord-Brabant,VBO,5.415160,51.322429
Park de Kempervennen,845,,,5563VC,Westerhoven,Bergeijk,Noord-Brabant,VBO,5.415131,51.322339
Park de Kempervennen,846,,,5563VC,Westerhoven,Bergeijk,Noord-Brabant,VBO,5.415347,51.322177
Park de Kempervennen,847,,,5563VC,Westerhoven,Bergeijk,Noord-Brabant,VBO,5.415433,51.322114
Park de Kempervennen,848,,,5563VC,Westerhoven,Bergeijk,Noord-Brabant,VBO,5.415576,51.322114
Park de Kempervennen,849,,,5563VC,Westerhoven,Bergeijk,Noord-Brabant,VBO,5.415748,51.322087
Park de Kempervennen,850,,,5563VC,Westerhoven,Bergeijk,Noord-Brabant,VBO,5.415863,51.322042
Park de Kempervennen,882,,,5563VC,Westerhoven,Bergeijk,Noord-Brabant,VBO,5.413597,51.323418
Park de Kempervennen,883,,,5563VC,Westerhoven,Bergeijk,Noord-Brabant,VBO,5.414429,51.323265
Park de Kempervennen,884,,,5563VC,Westerhoven,Bergeijk,Noord-Brabant,VBO,5.414372,51.323373
Park de Kempervennen,885,,,5563VC,Westerhoven,Bergeijk,Noord-Brabant,VBO,5.414357,51.323472
Park de Kempervennen,886,,,5563VC,Westerhoven,Bergeijk,Noord-Brabant,VBO,5.414372,51.323193
Park de Kempervennen,887,,,5563VC,Westerhoven,Bergeijk,Noord-Brabant,VBO,5.414529,51.323112
Park de Kempervennen,888,,,5563VC,Westerhoven,Bergeijk,Noord-Brabant,VBO,5.413827,51.323768
Park de Kempervennen,889,,,5563VC,Westerhoven,Bergeijk,Noord-Brabant,VBO,5.413985,51.323804
Park de Kempervennen,890,,,5563VC,Westerhoven,Bergeijk,Noord-Brabant,VBO,5.414171,51.323840
Park de Kempervennen,891,,,5563VC,Westerhoven,Bergeijk,Noord-Brabant,VBO,5.414171,51.323939
Park de Kempervennen,892,,,5563VC,Westerhoven,Bergeijk,Noord-Brabant,VBO,5.414257,51.324002
Park de Kempervennen,893,,,5563VC,Westerhoven,Bergeijk,Noord-Brabant,VBO,5.414329,51.324092
Park de Kempervennen,894,,,5563VC,Westerhoven,Bergeijk,Noord-Brabant,VBO,5.414845,51.323840
Park de Kempervennen,895,,,5563VC,Westerhoven,Bergeijk,Noord-Brabant,VBO,5.414745,51.323750
Park de Kempervennen,896,,,5563VC,Westerhoven,Bergeijk,Noord-Brabant,VBO,5.414831,51.323651
Park de Kempervennen,897,,,5563VC,Westerhoven,Bergeijk,Noord-Brabant,VBO,5.414673,51.323651
Park de Kempervennen,898,,,5563VC,Westerhoven,Bergeijk,Noord-Brabant,VBO,5.414917,51.323912
Park de Kempervennen,899,,,5563VC,Westerhoven,Bergeijk,Noord-Brabant,VBO,5.414932,51.324002
Park de Kempervennen,901,,,5563VC,Westerhoven,Bergeijk,Noord-Brabant,VBO,5.414975,51.324487
Park de Kempervennen,902,,,5563VC,Westerhoven,Bergeijk,Noord-Brabant,VBO,5.414846,51.324568
Park de Kempervennen,903,,,5563VC,Westerhoven,Bergeijk,Noord-Brabant,VBO,5.414415,51.324263
Park de Kempervennen,904,,,5563VC,Westerhoven,Bergeijk,Noord-Brabant,VBO,5.414358,51.324371
Park de Kempervennen,905,,,5563VC,Westerhoven,Bergeijk,Noord-Brabant,VBO,5.414702,51.324640
Park de Kempervennen,906,,,5563VC,Westerhoven,Bergeijk,Noord-Brabant,VBO,5.414315,51.324469
Park de Kempervennen,907,,,5563VC,Westerhoven,Bergeijk,Noord-Brabant,VBO,5.414157,51.324478
Park de Kempervennen,908,,,5563VC,Westerhoven,Bergeijk,Noord-Brabant,VBO,5.414014,51.324532
Park de Kempervennen,909,,,5563VC,Westerhoven,Bergeijk,Noord-Brabant,VBO,5.414746,51.324730
Park de Kempervennen,910,,,5563VC,Westerhoven,Bergeijk,Noord-Brabant,VBO,5.414717,51.324811
Park de Kempervennen,911,,,5563VC,Westerhoven,Bergeijk,Noord-Brabant,VBO,5.414703,51.324901
Park de Kempervennen,912,,,5563VC,Westerhoven,Bergeijk,Noord-Brabant,VBO,5.414846,51.324973
Park de Kempervennen,913,,,5563VC,Westerhoven,Bergeijk,Noord-Brabant,VBO,5.414774,51.325153
Park de Kempervennen,914,,,5563VC,Westerhoven,Bergeijk,Noord-Brabant,VBO,5.414688,51.325224
Park de Kempervennen,915,,,5563VC,Westerhoven,Bergeijk,Noord-Brabant,VBO,5.414545,51.325287
Park de Kempervennen,916,,,5563VC,Westerhoven,Bergeijk,Noord-Brabant,VBO,5.414402,51.325251
Park de Kempervennen,917,,,5563VC,Westerhoven,Bergeijk,Noord-Brabant,VBO,5.413957,51.325099
Park de Kempervennen,918,,,5563VC,Westerhoven,Bergeijk,Noord-Brabant,VBO,5.414129,51.325314
Park de Kempervennen,919,,,5563VC,Westerhoven,Bergeijk,Noord-Brabant,VBO,5.413957,51.325288
Park de Kempervennen,920,,,5563VC,Westerhoven,Bergeijk,Noord-Brabant,VBO,5.414014,51.325189
Park de Kempervennen,921,,,5563VC,Westerhoven,Bergeijk,Noord-Brabant,VBO,5.414244,51.325278
Park de Kempervennen,922,,,5563VC,Westerhoven,Bergeijk,Noord-Brabant,VBO,5.413928,51.324568
Park de Kempervennen,923,,,5563VC,Westerhoven,Bergeijk,Noord-Brabant,VBO,5.413766,51.324557
Park de Kempervennen,924,,,5563VC,Westerhoven,Bergeijk,Noord-Brabant,VBO,5.413871,51.325020
Park de Kempervennen,925,,,5563VC,Westerhoven,Bergeijk,Noord-Brabant,VBO,5.413770,51.324712
Park de Kempervennen,926,,,5563VC,Westerhoven,Bergeijk,Noord-Brabant,VBO,5.413727,51.324631
Park de Kempervennen,927,,,5563VC,Westerhoven,Bergeijk,Noord-Brabant,VBO,5.413799,51.324802
Park de Kempervennen,928,,,5563VC,Westerhoven,Bergeijk,Noord-Brabant,VBO,5.415104,51.324047
Park de Kempervennen,929,,,5563VC,Westerhoven,Bergeijk,Noord-Brabant,VBO,5.415262,51.324083
Park de Kempervennen,930,,,5563VC,Westerhoven,Bergeijk,Noord-Brabant,VBO,5.415391,51.324011
Park de Kempervennen,931,,,5563VC,Westerhoven,Bergeijk,Noord-Brabant,VBO,5.415477,51.324110
Park de Kempervennen,932,,,5563VC,Westerhoven,Bergeijk,Noord-Brabant,VBO,5.415362,51.324586
Park de Kempervennen,933,,,5563VC,Westerhoven,Bergeijk,Noord-Brabant,VBO,5.415477,51.324667
Park de Kempervennen,934,,,5563VC,Westerhoven,Bergeijk,Noord-Brabant,VBO,5.415613,51.324795
Park de Kempervennen,935,,,5563VC,Westerhoven,Bergeijk,Noord-Brabant,VBO,5.415443,51.324766
Park de Kempervennen,936,,,5563VC,Westerhoven,Bergeijk,Noord-Brabant,VBO,5.416008,51.324433
Park de Kempervennen,937,,,5563VC,Westerhoven,Bergeijk,Noord-Brabant,VBO,5.416022,51.324514
Park de Kempervennen,938,,,5563VC,Westerhoven,Bergeijk,Noord-Brabant,VBO,5.415922,51.324343
Park de Kempervennen,939,,,5563VC,Westerhoven,Bergeijk,Noord-Brabant,VBO,5.415850,51.324280
Park de Kempervennen,940,,,5563VC,Westerhoven,Bergeijk,Noord-Brabant,VBO,5.415922,51.324793
Park de Kempervennen,941,,,5563VC,Westerhoven,Bergeijk,Noord-Brabant,VBO,5.415965,51.324838
Park de Kempervennen,942,,,5563VC,Westerhoven,Bergeijk,Noord-Brabant,VBO,5.415979,51.324883
Park de Kempervennen,943,,,5563VC,Westerhoven,Bergeijk,Noord-Brabant,VBO,5.416051,51.324945
Park de Kempervennen,944,,,5563VC,Westerhoven,Bergeijk,Noord-Brabant,VBO,5.416151,51.324550
Park de Kempervennen,945,,,5563VC,Westerhoven,Bergeijk,Noord-Brabant,VBO,5.416338,51.324595
Park de Kempervennen,946,,,5563VC,Westerhoven,Bergeijk,Noord-Brabant,VBO,5.416481,51.324532
Park de Kempervennen,947,,,5563VC,Westerhoven,Bergeijk,Noord-Brabant,VBO,5.416582,51.324622
Park de Kempervennen,948,,,5563VC,Westerhoven,Bergeijk,Noord-Brabant,VBO,5.416926,51.324631
Park de Kempervennen,949,,,5563VC,Westerhoven,Bergeijk,Noord-Brabant,VBO,5.417027,51.324703
Park de Kempervennen,950,,,5563VC,Westerhoven,Bergeijk,Noord-Brabant,VBO,5.417127,51.324774
Park de Kempervennen,951,,,5563VC,Westerhoven,Bergeijk,Noord-Brabant,VBO,5.417070,51.324873
Park de Kempervennen,952,,,5563VC,Westerhoven,Bergeijk,Noord-Brabant,VBO,5.417113,51.324963
Park de Kempervennen,953,,,5563VC,Westerhoven,Bergeijk,Noord-Brabant,VBO,5.417142,51.325044
Park de Kempervennen,954,,,5563VC,Westerhoven,Bergeijk,Noord-Brabant,VBO,5.417127,51.325143
Park de Kempervennen,955,,,5563VC,Westerhoven,Bergeijk,Noord-Brabant,VBO,5.416066,51.325107
Park de Kempervennen,956,,,5563VC,Westerhoven,Bergeijk,Noord-Brabant,VBO,5.416066,51.325161
Park de Kempervennen,957,,,5563VC,Westerhoven,Bergeijk,Noord-Brabant,VBO,5.416051,51.325206
Park de Kempervennen,958,,,5563VC,Westerhoven,Bergeijk,Noord-Brabant,VBO,5.415980,51.325233
Park de Kempervennen,959,,,5563VC,Westerhoven,Bergeijk,Noord-Brabant,VBO,5.415922,51.325467
Park de Kempervennen,960,,,5563VC,Westerhoven,Bergeijk,Noord-Brabant,VBO,5.415951,51.325413
Park de Kempervennen,961,,,5563VC,Westerhoven,Bergeijk,Noord-Brabant,VBO,5.415937,51.325368
Park de Kempervennen,962,,,5563VC,Westerhoven,Bergeijk,Noord-Brabant,VBO,5.415965,51.325287
Park de Kempervennen,963,,,5563VC,Westerhoven,Bergeijk,Noord-Brabant,VBO,5.416296,51.325772
Park de Kempervennen,964,,,5563VC,Westerhoven,Bergeijk,Noord-Brabant,VBO,5.416353,51.325727
Park de Kempervennen,965,,,5563VC,Westerhoven,Bergeijk,Noord-Brabant,VBO,5.416568,51.325736
Park de Kempervennen,966,,,5563VC,Westerhoven,Bergeijk,Noord-Brabant,VBO,5.416583,51.325682
Park de Kempervennen,967,,,5563VC,Westerhoven,Bergeijk,Noord-Brabant,VBO,5.415923,51.325665
Park de Kempervennen,968,,,5563VC,Westerhoven,Bergeijk,Noord-Brabant,VBO,5.415836,51.325701
Park de Kempervennen,969,,,5563VC,Westerhoven,Bergeijk,Noord-Brabant,VBO,5.416238,51.325799
Park de Kempervennen,970,,,5563VC,Westerhoven,Bergeijk,Noord-Brabant,VBO,5.416224,51.325853
Park de Kempervennen,971,,,5563VC,Westerhoven,Bergeijk,Noord-Brabant,VBO,5.415779,51.325728
Park de Kempervennen,972,,,5563VC,Westerhoven,Bergeijk,Noord-Brabant,VBO,5.415664,51.325755
Park de Kempervennen,973,,,5563VC,Westerhoven,Bergeijk,Noord-Brabant,VBO,5.415621,51.325997
Park de Kempervennen,974,,,5563VC,Westerhoven,Bergeijk,Noord-Brabant,VBO,5.415521,51.325988
Park de Kempervennen,975,,,5563VC,Westerhoven,Bergeijk,Noord-Brabant,VBO,5.415464,51.325988
Park de Kempervennen,976,,,5563VC,Westerhoven,Bergeijk,Noord-Brabant,VBO,5.415335,51.325979
Park de Kempervennen,977,,,5563VC,Westerhoven,Bergeijk,Noord-Brabant,VBO,5.415306,51.325934
Park de Kempervennen,978,,,5563VC,Westerhoven,Bergeijk,Noord-Brabant,VBO,5.415349,51.325764
Park de Kempervennen,979,,,5563VC,Westerhoven,Bergeijk,Noord-Brabant,VBO,5.415234,51.325863
Park de Kempervennen,980,,,5563VC,Westerhoven,Bergeijk,Noord-Brabant,VBO,5.415263,51.325800
Park de Kempervennen,981,,,5563VC,Westerhoven,Bergeijk,Noord-Brabant,VBO,5.416009,51.326213
Park de Kempervennen,982,,,5563VC,Westerhoven,Bergeijk,Noord-Brabant,VBO,5.416353,51.326096
Park de Kempervennen,983,,,5563VC,Westerhoven,Bergeijk,Noord-Brabant,VBO,5.416353,51.326024
Park de Kempervennen,984,,,5563VC,Westerhoven,Bergeijk,Noord-Brabant,VBO,5.416368,51.326150
Park de Kempervennen,985,,,5563VC,Westerhoven,Bergeijk,Noord-Brabant,VBO,5.416339,51.326213
Park de Kempervennen,986,,,5563VC,Westerhoven,Bergeijk,Noord-Brabant,VBO,5.416239,51.326240
Park de Kempervennen,987,,,5563VC,Westerhoven,Bergeijk,Noord-Brabant,VBO,5.416181,51.326276
Park de Kempervennen,988,,,5563VC,Westerhoven,Bergeijk,Noord-Brabant,VBO,5.416081,51.326258
Park de Kempervennen,989,,,5563VC,Westerhoven,Bergeijk,Noord-Brabant,VBO,5.416726,51.325628
Park de Kempervennen,990,,,5563VC,Westerhoven,Bergeijk,Noord-Brabant,VBO,5.416640,51.325655
Park de Kempervennen,991,,,5563VC,Westerhoven,Bergeijk,Noord-Brabant,VBO,5.416955,51.325565
Park de Kempervennen,992,,,5563VC,Westerhoven,Bergeijk,Noord-Brabant,VBO,5.417042,51.325574
Park de Kempervennen,993,,,5563VC,Westerhoven,Bergeijk,Noord-Brabant,VBO,5.417113,51.325574
Park de Kempervennen,994,,,5563VC,Westerhoven,Bergeijk,Noord-Brabant,VBO,5.417156,51.325628
Park de Kempervennen,1001,,,5563VC,Westerhoven,Bergeijk,Noord-Brabant,VBO,5.415404,51.321539
Park de Kempervennen,1004,,,5563VC,Westerhoven,Bergeijk,Noord-Brabant,VBO,5.415575,51.320901
Park de Kempervennen,1005,,,5563VC,Westerhoven,Bergeijk,Noord-Brabant,VBO,5.415991,51.320981
Park de Kempervennen,1006,,,5563VC,Westerhoven,Bergeijk,Noord-Brabant,VBO,5.416364,51.320954
Park de Kempervennen,1007,,,5563VC,Westerhoven,Bergeijk,Noord-Brabant,VBO,5.416623,51.321017
Park de Kempervennen,1008,,,5563VC,Westerhoven,Bergeijk,Noord-Brabant,VBO,5.416838,51.321098
Park de Kempervennen,1009,,,5563VC,Westerhoven,Bergeijk,Noord-Brabant,VBO,5.417139,51.321170
Park de Kempervennen,1010,,,5563VC,Westerhoven,Bergeijk,Noord-Brabant,VBO,5.417211,51.321332
Park de Kempervennen,1011,,,5563VC,Westerhoven,Bergeijk,Noord-Brabant,VBO,5.416967,51.321503
Park de Kempervennen,1012,,,5563VC,Westerhoven,Bergeijk,Noord-Brabant,VBO,5.416795,51.321700
Park de Kempervennen,1013,,,5563VC,Westerhoven,Bergeijk,Noord-Brabant,VBO,5.416566,51.321862
Park de Kempervennen,1014,,,5563VC,Westerhoven,Bergeijk,Noord-Brabant,VBO,5.416408,51.322087
Park de Kempervennen,1015,,,5563VC,Westerhoven,Bergeijk,Noord-Brabant,VBO,5.415346,51.321071
Park de Kempervennen,1016,,,5563VC,Westerhoven,Bergeijk,Noord-Brabant,VBO,5.415030,51.320973
Park de Kempervennen,1017,,,5563VC,Westerhoven,Bergeijk,Noord-Brabant,VBO,5.414786,51.320874
Park de Kempervennen,1018,,,5563VC,Westerhoven,Bergeijk,Noord-Brabant,VBO,5.414471,51.320847
Park de Kempervennen,1101,,,5563VC,Westerhoven,Bergeijk,Noord-Brabant,VBO,5.414557,51.320631
Park de Kempervennen,1102,,,5563VC,Westerhoven,Bergeijk,Noord-Brabant,VBO,5.414513,51.320344
Park de Kempervennen,1103,,,5563VC,Westerhoven,Bergeijk,Noord-Brabant,VBO,5.414843,51.320137
Park de Kempervennen,1104,,,5563VC,Westerhoven,Bergeijk,Noord-Brabant,VBO,5.414858,51.320451
Park de Kempervennen,1105,,,5563VC,Westerhoven,Bergeijk,Noord-Brabant,VBO,5.415173,51.320272
Park de Kempervennen,1106,,,5563VC,Westerhoven,Bergeijk,Noord-Brabant,VBO,5.415145,51.320559
Park de Kempervennen,1107,,,5563VC,Westerhoven,Bergeijk,Noord-Brabant,VBO,5.415475,51.320379
Park de Kempervennen,1108,,,5563VC,Westerhoven,Bergeijk,Noord-Brabant,VBO,5.415489,51.320631
Park de Kempervennen,1109,,,5563VC,Westerhoven,Bergeijk,Noord-Brabant,VBO,5.415776,51.320748
Park de Kempervennen,1110,,,5563VC,Westerhoven,Bergeijk,Noord-Brabant,VBO,5.415675,51.320173
Park de Kempervennen,1111,,,5563VC,Westerhoven,Bergeijk,Noord-Brabant,VBO,5.415790,51.319948
Park de Kempervennen,1112,,,5563VC,Westerhoven,Bergeijk,Noord-Brabant,VBO,5.415991,51.319741
Park de Kempervennen,1113,,,5563VC,Westerhoven,Bergeijk,Noord-Brabant,VBO,5.415919,51.319507
Park de Kempervennen,1114,,,5563VC,Westerhoven,Bergeijk,Noord-Brabant,VBO,5.415503,51.319534
Park de Kempervennen,1115,,,5563VC,Westerhoven,Bergeijk,Noord-Brabant,VBO,5.415431,51.319292
Park de Kempervennen,1116,,,5563VC,Westerhoven,Bergeijk,Noord-Brabant,VBO,5.415130,51.319624
Park de Kempervennen,1117,,,5563VC,Westerhoven,Bergeijk,Noord-Brabant,VBO,5.414800,51.319759
Park de Kempervennen,1118,,,5563VC,Westerhoven,Bergeijk,Noord-Brabant,VBO,5.414441,51.319849
Park de Kempervennen,1119,,,5563VC,Westerhoven,Bergeijk,Noord-Brabant,VBO,5.414470,51.320083
Park de Kempervennen,1201,,,5563VC,Westerhoven,Bergeijk,Noord-Brabant,VBO,5.427682,51.327128
Park de Kempervennen,1202,,,5563VC,Westerhoven,Bergeijk,Noord-Brabant,VBO,5.425687,51.326638
Beeken,3,,,5563VE,Westerhoven,Bergeijk,Noord-Brabant,VBO,5.394270,51.322090
Beeken,4,,,5563VE,Westerhoven,Bergeijk,Noord-Brabant,VBO,5.395347,51.320344
Beeken,6,,,5563VE,Westerhoven,Bergeijk,Noord-Brabant,VBO,5.399289,51.319637
Beeken,8,,,5563VE,Westerhoven,Bergeijk,Noord-Brabant,VBO,5.400812,51.318818
Beeken,10,,,5563VE,Westerhoven,Bergeijk,Noord-Brabant,VBO,5.403287,51.319008
Beeken,12,,,5563VE,Westerhoven,Bergeijk,Noord-Brabant,VBO,5.407450,51.318366
Weerderdijk,2,,,5563VG,Westerhoven,Bergeijk,Noord-Brabant,VBO,5.407621,51.329166
Weerderdijk,3,,,5563VG,Westerhoven,Bergeijk,Noord-Brabant,VBO,5.417248,51.332392
Weerderdijk,5,,,5563VG,Westerhoven,Bergeijk,Noord-Brabant,VBO,5.420877,51.335019
Oude Weerderdijk,1,,,5563VH,Westerhoven,Bergeijk,Noord-Brabant,VBO,5.402516,51.331304
Eeuwselsedijk,1,,,5563VJ,Westerhoven,Bergeijk,Noord-Brabant,VBO,5.390286,51.321435
