openbareruimtenaam,huisnummer,huisletter,huisnummertoevoeging,postcode,woonplaatsnaam,gemeentenaam,provincienaam,typeadresseerbaarobject,longitude,latitude
Ekkersrijt,1002,,,5692AA,Son en Breugel,Son en Breugel,Noord-Brabant,VBO,5.491299,51.501270
Ekkersrijt,1006,,,5692AA,Son en Breugel,Son en Breugel,Noord-Brabant,VBO,5.492641,51.500106
Ekkersrijt,1008,,,5692AA,Son en Breugel,Son en Breugel,Noord-Brabant,VBO,5.492518,51.499093
Ekkersrijt,1010,,,5692AA,Son en Breugel,Son en Breugel,Noord-Brabant,VBO,5.493051,51.499084
Ekkersrijt,1012,,,5692AA,Son en Breugel,Son en Breugel,Noord-Brabant,VBO,5.493094,51.498877
Ekkersrijt,1014,,,5692AA,Son en Breugel,Son en Breugel,Noord-Brabant,VBO,5.492970,51.498868
Ekkersrijt,1001,,,5692AB,Son en Breugel,Son en Breugel,Noord-Brabant,VBO,5.492063,51.501521
Ekkersrijt,1003,,,5692AB,Son en Breugel,Son en Breugel,Noord-Brabant,VBO,5.491803,51.501341
Ekkersrijt,1005,,Traf,5692AB,Son en Breugel,Son en Breugel,Noord-Brabant,VBO,5.492179,51.500881
Ekkersrijt,1005,,,5692AB,Son en Breugel,Son en Breugel,Noord-Brabant,VBO,5.492781,51.500756
Ekkersrijt,1007,,,5692AB,Son en Breugel,Son en Breugel,Noord-Brabant,VBO,5.492982,51.500351
Ekkersrijt,1009,,,5692AB,Son en Breugel,Son en Breugel,Noord-Brabant,VBO,5.493268,51.500014
Ekkersrijt,1013,,,5692AB,Son en Breugel,Son en Breugel,Noord-Brabant,VBO,5.493829,51.499164
Ekkersrijt,1015,,,5692AB,Son en Breugel,Son en Breugel,Noord-Brabant,VBO,5.493597,51.498893
Ekkersrijt,1102,,,5692AC,Son en Breugel,Son en Breugel,Noord-Brabant,VBO,5.490865,51.500763
Ekkersrijt,1104,a,,5692AC,Son en Breugel,Son en Breugel,Noord-Brabant,VBO,5.490289,51.500569
Ekkersrijt,1104,,,5692AC,Son en Breugel,Son en Breugel,Noord-Brabant,VBO,5.490505,51.500596
Ekkersrijt,1106,,,5692AC,Son en Breugel,Son en Breugel,Noord-Brabant,VBO,5.489951,51.500539
Ekkersrijt,1112,,,5692AC,Son en Breugel,Son en Breugel,Noord-Brabant,VBO,5.488258,51.500239
Ekkersrijt,1114,,,5692AC,Son en Breugel,Son en Breugel,Noord-Brabant,VBO,5.487985,51.500280
Ekkersrijt,1116,,,5692AC,Son en Breugel,Son en Breugel,Noord-Brabant,VBO,5.487221,51.500186
Ekkersrijt,1113,,,5692AD,Son en Breugel,Son en Breugel,Noord-Brabant,VBO,5.488473,51.499960
Ekkersrijt,1115,,,5692AD,Son en Breugel,Son en Breugel,Noord-Brabant,VBO,5.488292,51.499921
Ekkersrijt,1117,,,5692AD,Son en Breugel,Son en Breugel,Noord-Brabant,VBO,5.488012,51.499939
Ekkersrijt,1119,,,5692AD,Son en Breugel,Son en Breugel,Noord-Brabant,VBO,5.487629,51.499913
Ekkersrijt,1121,,,5692AD,Son en Breugel,Son en Breugel,Noord-Brabant,VBO,5.487292,51.499853
Ekkersrijt,1202,,,5692AE,Son en Breugel,Son en Breugel,Noord-Brabant,VBO,5.493036,51.498625
Ekkersrijt,1204,,,5692AE,Son en Breugel,Son en Breugel,Noord-Brabant,VBO,5.492877,51.498581
Ekkersrijt,1206,,,5692AE,Son en Breugel,Son en Breugel,Noord-Brabant,VBO,5.492704,51.498563
Ekkersrijt,1208,,,5692AE,Son en Breugel,Son en Breugel,Noord-Brabant,VBO,5.492517,51.498563
Ekkersrijt,1210,,,5692AE,Son en Breugel,Son en Breugel,Noord-Brabant,VBO,5.492272,51.498536
Ekkersrijt,1212,,,5692AE,Son en Breugel,Son en Breugel,Noord-Brabant,VBO,5.491725,51.498600
Ekkersrijt,1214,,,5692AE,Son en Breugel,Son en Breugel,Noord-Brabant,VBO,5.491048,51.498492
Ekkersrijt,1216,,,5692AE,Son en Breugel,Son en Breugel,Noord-Brabant,VBO,5.490708,51.498526
Ekkersrijt,1218,,,5692AE,Son en Breugel,Son en Breugel,Noord-Brabant,VBO,5.490412,51.498473
Ekkersrijt,1201,,,5692AG,Son en Breugel,Son en Breugel,Noord-Brabant,VBO,5.493078,51.498302
Ekkersrijt,1203,,,5692AG,Son en Breugel,Son en Breugel,Noord-Brabant,VBO,5.492716,51.498218
Ekkersrijt,1205,,,5692AG,Son en Breugel,Son en Breugel,Noord-Brabant,VBO,5.492588,51.498257
Ekkersrijt,1209,,,5692AG,Son en Breugel,Son en Breugel,Noord-Brabant,VBO,5.492058,51.498135
Ekkersrijt,1211,,,5692AG,Son en Breugel,Son en Breugel,Noord-Brabant,VBO,5.491632,51.498202
Ekkersrijt,1213,,,5692AG,Son en Breugel,Son en Breugel,Noord-Brabant,VBO,5.491477,51.498195
Ekkersrijt,1217,,,5692AG,Son en Breugel,Son en Breugel,Noord-Brabant,VBO,5.490212,51.498098
Ekkersrijt,1219,,,5692AG,Son en Breugel,Son en Breugel,Noord-Brabant,VBO,5.489290,51.498053
Ekkersrijt,1221,,Traf,5692AG,Son en Breugel,Son en Breugel,Noord-Brabant,VBO,5.488046,51.497970
Ekkersrijt,1221,,,5692AG,Son en Breugel,Son en Breugel,Noord-Brabant,VBO,5.488301,51.497979
Ekkersrijt,1223,,,5692AG,Son en Breugel,Son en Breugel,Noord-Brabant,VBO,5.487489,51.497794
Ekkersrijt,1302,,,5692AH,Son en Breugel,Son en Breugel,Noord-Brabant,VBO,5.493254,51.498106
Ekkersrijt,1304,,,5692AH,Son en Breugel,Son en Breugel,Noord-Brabant,VBO,5.493283,51.497937
Ekkersrijt,1306,,,5692AH,Son en Breugel,Son en Breugel,Noord-Brabant,VBO,5.493235,51.497798
Ekkersrijt,1308,,,5692AH,Son en Breugel,Son en Breugel,Noord-Brabant,VBO,5.492152,51.497479
Ekkersrijt,1310,,,5692AH,Son en Breugel,Son en Breugel,Noord-Brabant,VBO,5.491714,51.497502
Ekkersrijt,1314,,,5692AH,Son en Breugel,Son en Breugel,Noord-Brabant,VBO,5.491527,51.497951
Ekkersrijt,1301,,Traf,5692AJ,Son en Breugel,Son en Breugel,Noord-Brabant,VBO,5.493724,51.498105
Ekkersrijt,1301,,,5692AJ,Son en Breugel,Son en Breugel,Noord-Brabant,VBO,5.494749,51.498471
Ekkersrijt,1303,,,5692AJ,Son en Breugel,Son en Breugel,Noord-Brabant,VBO,5.493783,51.497915
Ekkersrijt,1305,,,5692AJ,Son en Breugel,Son en Breugel,Noord-Brabant,VBO,5.494448,51.497907
Ekkersrijt,1307,,,5692AJ,Son en Breugel,Son en Breugel,Noord-Brabant,VBO,5.494704,51.497941
Ekkersrijt,1309,,,5692AJ,Son en Breugel,Son en Breugel,Noord-Brabant,VBO,5.495137,51.497958
Ekkersrijt,1311,,,5692AJ,Son en Breugel,Son en Breugel,Noord-Brabant,VBO,5.493825,51.497654
Ekkersrijt,1313,,,5692AJ,Son en Breugel,Son en Breugel,Noord-Brabant,VBO,5.493911,51.497510
Ekkersrijt,1315,,,5692AJ,Son en Breugel,Son en Breugel,Noord-Brabant,VBO,5.494401,51.497519
Ekkersrijt,1317,,,5692AJ,Son en Breugel,Son en Breugel,Noord-Brabant,VBO,5.494545,51.497680
Ekkersrijt,1319,,,5692AJ,Son en Breugel,Son en Breugel,Noord-Brabant,VBO,5.494811,51.497522
Ekkersrijt,1321,,,5692AJ,Son en Breugel,Son en Breugel,Noord-Brabant,VBO,5.495092,51.497702
Ekkersrijt,1323,,,5692AJ,Son en Breugel,Son en Breugel,Noord-Brabant,VBO,5.491046,51.497443
Ekkersrijt,1325,,,5692AJ,Son en Breugel,Son en Breugel,Noord-Brabant,VBO,5.491031,51.497534
Ekkersrijt,1327,,,5692AJ,Son en Breugel,Son en Breugel,Noord-Brabant,VBO,5.491016,51.497622
Ekkersrijt,1329,,,5692AJ,Son en Breugel,Son en Breugel,Noord-Brabant,VBO,5.491001,51.497711
Ekkersrijt,1331,,,5692AJ,Son en Breugel,Son en Breugel,Noord-Brabant,VBO,5.490974,51.497812
Ekkersrijt,1333,,,5692AJ,Son en Breugel,Son en Breugel,Noord-Brabant,VBO,5.490970,51.497891
Ekkersrijt,1335,,,5692AJ,Son en Breugel,Son en Breugel,Noord-Brabant,VBO,5.490974,51.497990
Ekkersrijt,1337,,,5692AJ,Son en Breugel,Son en Breugel,Noord-Brabant,VBO,5.490903,51.498124
Ekkersrijt,1402,,,5692AK,Son en Breugel,Son en Breugel,Noord-Brabant,VBO,5.486416,51.500941
Ekkersrijt,1404,,,5692AK,Son en Breugel,Son en Breugel,Noord-Brabant,VBO,5.486444,51.500779
Ekkersrijt,1406,,,5692AK,Son en Breugel,Son en Breugel,Noord-Brabant,VBO,5.486530,51.500573
Ekkersrijt,1408,,,5692AK,Son en Breugel,Son en Breugel,Noord-Brabant,VBO,5.486569,51.500359
Ekkersrijt,1410,,,5692AK,Son en Breugel,Son en Breugel,Noord-Brabant,VBO,5.486582,51.500290
Ekkersrijt,1412,,,5692AK,Son en Breugel,Son en Breugel,Noord-Brabant,VBO,5.486492,51.500055
Ekkersrijt,1414,,,5692AK,Son en Breugel,Son en Breugel,Noord-Brabant,VBO,5.486568,51.499875
Ekkersrijt,1416,,,5692AK,Son en Breugel,Son en Breugel,Noord-Brabant,VBO,5.486606,51.499700
Ekkersrijt,1418,,,5692AK,Son en Breugel,Son en Breugel,Noord-Brabant,VBO,5.486687,51.499575
Ekkersrijt,1420,b,,5692AK,Son en Breugel,Son en Breugel,Noord-Brabant,VBO,5.486317,51.499487
Ekkersrijt,1420,,,5692AK,Son en Breugel,Son en Breugel,Noord-Brabant,VBO,5.486490,51.499463
Ekkersrijt,1424,,,5692AK,Son en Breugel,Son en Breugel,Noord-Brabant,VBO,5.486104,51.499437
Ekkersrijt,1426,a,,5692AK,Son en Breugel,Son en Breugel,Noord-Brabant,VBO,5.485798,51.499285
Ekkersrijt,1426,,,5692AK,Son en Breugel,Son en Breugel,Noord-Brabant,VBO,5.486024,51.499432
Ekkersrijt,1428,,,5692AK,Son en Breugel,Son en Breugel,Noord-Brabant,VBO,5.486137,51.498613
Ekkersrijt,1401,,,5692AL,Son en Breugel,Son en Breugel,Noord-Brabant,VBO,5.486949,51.500932
Ekkersrijt,1403,,,5692AL,Son en Breugel,Son en Breugel,Noord-Brabant,VBO,5.486983,51.500734
Ekkersrijt,1405,,,5692AL,Son en Breugel,Son en Breugel,Noord-Brabant,VBO,5.487116,51.500464
Ekkersrijt,1407,,,5692AL,Son en Breugel,Son en Breugel,Noord-Brabant,VBO,5.487177,51.499608
Ekkersrijt,1411,,,5692AL,Son en Breugel,Son en Breugel,Noord-Brabant,VBO,5.487491,51.498486
Ekkersrijt,1502,,,5692AM,Son en Breugel,Son en Breugel,Noord-Brabant,VBO,5.483544,51.497906
Ekkersrijt,1501,a,,5692AN,Son en Breugel,Son en Breugel,Noord-Brabant,VBO,5.484562,51.500843
Ekkersrijt,1501,,,5692AN,Son en Breugel,Son en Breugel,Noord-Brabant,VBO,5.484593,51.500457
Ekkersrijt,1509,,,5692AN,Son en Breugel,Son en Breugel,Noord-Brabant,VBO,5.484799,51.499244
Ekkersrijt,1511,,,5692AN,Son en Breugel,Son en Breugel,Noord-Brabant,VBO,5.485143,51.498452
Ekkersrijt,1513,,,5692AN,Son en Breugel,Son en Breugel,Noord-Brabant,VBO,5.484031,51.496830
Ekkersrijt,2004,,,5692BA,Son en Breugel,Son en Breugel,Noord-Brabant,VBO,5.492151,51.502137
Ekkersrijt,2006,,,5692BA,Son en Breugel,Son en Breugel,Noord-Brabant,VBO,5.492122,51.502196
Ekkersrijt,2008,,,5692BA,Son en Breugel,Son en Breugel,Noord-Brabant,VBO,5.491560,51.502069
Ekkersrijt,2010,,,5692BA,Son en Breugel,Son en Breugel,Noord-Brabant,VBO,5.490812,51.501955
Ekkersrijt,2012,,,5692BA,Son en Breugel,Son en Breugel,Noord-Brabant,VBO,5.490091,51.501954
Ekkersrijt,2020,,,5692BA,Son en Breugel,Son en Breugel,Noord-Brabant,VBO,5.488996,51.501766
Ekkersrijt,2038,,,5692BA,Son en Breugel,Son en Breugel,Noord-Brabant,VBO,5.488072,51.502004
Ekkersrijt,2042,,,5692BA,Son en Breugel,Son en Breugel,Noord-Brabant,VBO,5.488388,51.501681
Ekkersrijt,2046,,,5692BA,Son en Breugel,Son en Breugel,Noord-Brabant,VBO,5.488239,51.501706
Ekkersrijt,2048,,,5692BA,Son en Breugel,Son en Breugel,Noord-Brabant,VBO,5.488251,51.501668
Ekkersrijt,2052,,,5692BA,Son en Breugel,Son en Breugel,Noord-Brabant,VBO,5.487775,51.501631
Ekkersrijt,2054,,,5692BA,Son en Breugel,Son en Breugel,Noord-Brabant,VBO,5.487317,51.501627
Ekkersrijt,2056,,,5692BA,Son en Breugel,Son en Breugel,Noord-Brabant,VBO,5.486806,51.501507
Ekkersrijt,2058,,,5692BA,Son en Breugel,Son en Breugel,Noord-Brabant,VBO,5.485927,51.501454
Ekkersrijt,2060,a,,5692BA,Son en Breugel,Son en Breugel,Noord-Brabant,VBO,5.483084,51.503938
Ekkersrijt,2060,b,,5692BA,Son en Breugel,Son en Breugel,Noord-Brabant,VBO,5.483213,51.503136
Ekkersrijt,2060,c,,5692BA,Son en Breugel,Son en Breugel,Noord-Brabant,VBO,5.483282,51.502561
Ekkersrijt,2060,d,,5692BA,Son en Breugel,Son en Breugel,Noord-Brabant,VBO,5.483427,51.501924
Ekkersrijt,2070,,,5692BA,Son en Breugel,Son en Breugel,Noord-Brabant,VBO,5.476103,51.501895
Ekkersrijt,2001,,,5692BB,Son en Breugel,Son en Breugel,Noord-Brabant,VBO,5.490958,51.501485
Ekkersrijt,2005,b,,5692BB,Son en Breugel,Son en Breugel,Noord-Brabant,VBO,5.490520,51.501378
Ekkersrijt,2005,,,5692BB,Son en Breugel,Son en Breugel,Noord-Brabant,VBO,5.490169,51.501431
Ekkersrijt,2011,,,5692BB,Son en Breugel,Son en Breugel,Noord-Brabant,VBO,5.488015,51.501147
Ekkersrijt,2013,,,5692BB,Son en Breugel,Son en Breugel,Noord-Brabant,VBO,5.487482,51.501093
Ekkersrijt,2015,,,5692BB,Son en Breugel,Son en Breugel,Noord-Brabant,VBO,5.487628,51.500801
Ekkersrijt,2017,,,5692BB,Son en Breugel,Son en Breugel,Noord-Brabant,VBO,5.487082,51.501042
Ekkersrijt,2019,,,5692BB,Son en Breugel,Son en Breugel,Noord-Brabant,VBO,5.487012,51.501067
Ekkersrijt,2021,,,5692BB,Son en Breugel,Son en Breugel,Noord-Brabant,VBO,5.486200,51.500995
Ekkersrijt,2023,,Traf,5692BB,Son en Breugel,Son en Breugel,Noord-Brabant,VBO,5.486075,51.501036
Ekkersrijt,2023,,,5692BB,Son en Breugel,Son en Breugel,Noord-Brabant,VBO,5.485710,51.501014
Ekkersrijt,2027,,,5692BB,Son en Breugel,Son en Breugel,Noord-Brabant,VBO,5.485021,51.501002
Ekkersrijt,2029,,,5692BB,Son en Breugel,Son en Breugel,Noord-Brabant,VBO,5.484573,51.500970
Ekkersrijt,2031,,,5692BB,Son en Breugel,Son en Breugel,Noord-Brabant,VBO,5.483593,51.500926
Ekkersrijt,2033,,,5692BB,Son en Breugel,Son en Breugel,Noord-Brabant,VBO,5.483089,51.500746
Ekkersrijt,2037,,Traf,5692BB,Son en Breugel,Son en Breugel,Noord-Brabant,VBO,5.476366,51.500975
Ekkersrijt,2037,,,5692BB,Son en Breugel,Son en Breugel,Noord-Brabant,VBO,5.479511,51.500777
Ekkersrijt,3002,,,5692CA,Son en Breugel,Son en Breugel,Noord-Brabant,VBO,5.491302,51.502636
Ekkersrijt,3004,,,5692CA,Son en Breugel,Son en Breugel,Noord-Brabant,VBO,5.491634,51.502860
Ekkersrijt,3006,,,5692CA,Son en Breugel,Son en Breugel,Noord-Brabant,VBO,5.491218,51.503040
Ekkersrijt,3008,,,5692CA,Son en Breugel,Son en Breugel,Noord-Brabant,VBO,5.491332,51.503112
Ekkersrijt,3010,,,5692CA,Son en Breugel,Son en Breugel,Noord-Brabant,VBO,5.491275,51.503274
Ekkersrijt,3012,,,5692CA,Son en Breugel,Son en Breugel,Noord-Brabant,VBO,5.491146,51.503634
Ekkersrijt,3014,,,5692CA,Son en Breugel,Son en Breugel,Noord-Brabant,VBO,5.491248,51.503930
Ekkersrijt,3016,a,,5692CA,Son en Breugel,Son en Breugel,Noord-Brabant,VBO,5.491281,51.504070
Ekkersrijt,3016,,,5692CA,Son en Breugel,Son en Breugel,Noord-Brabant,VBO,5.491176,51.504303
Ekkersrijt,3018,,,5692CA,Son en Breugel,Son en Breugel,Noord-Brabant,VBO,5.491378,51.504398
Ekkersrijt,3020,,Traf,5692CA,Son en Breugel,Son en Breugel,Noord-Brabant,VBO,5.491302,51.504770
Ekkersrijt,3020,,,5692CA,Son en Breugel,Son en Breugel,Noord-Brabant,VBO,5.491263,51.504568
Ekkersrijt,3102,,,5692CC,Son en Breugel,Son en Breugel,Noord-Brabant,VBO,5.489245,51.503608
Ekkersrijt,3104,a,,5692CC,Son en Breugel,Son en Breugel,Noord-Brabant,VBO,5.487215,51.503853
Ekkersrijt,3104,,,5692CC,Son en Breugel,Son en Breugel,Noord-Brabant,VBO,5.487229,51.503700
Ekkersrijt,3106,,,5692CC,Son en Breugel,Son en Breugel,Noord-Brabant,VBO,5.487084,51.503538
Ekkersrijt,3108,,,5692CC,Son en Breugel,Son en Breugel,Noord-Brabant,VBO,5.486658,51.503706
Ekkersrijt,3101,,,5692CD,Son en Breugel,Son en Breugel,Noord-Brabant,VBO,5.490315,51.503011
Ekkersrijt,3107,,,5692CD,Son en Breugel,Son en Breugel,Noord-Brabant,VBO,5.489445,51.503141
Ekkersrijt,3109,,,5692CD,Son en Breugel,Son en Breugel,Noord-Brabant,VBO,5.489460,51.503051
Ekkersrijt,3111,,,5692CD,Son en Breugel,Son en Breugel,Noord-Brabant,VBO,5.489114,51.502988
Ekkersrijt,3125,,,5692CD,Son en Breugel,Son en Breugel,Noord-Brabant,VBO,5.488450,51.502495
Ekkersrijt,3127,,,5692CD,Son en Breugel,Son en Breugel,Noord-Brabant,VBO,5.488380,51.503124
Ekkersrijt,3129,,,5692CD,Son en Breugel,Son en Breugel,Noord-Brabant,VBO,5.488188,51.502788
Ekkersrijt,3131,,,5692CD,Son en Breugel,Son en Breugel,Noord-Brabant,VBO,5.487356,51.502630
Ekkersrijt,3133,,,5692CD,Son en Breugel,Son en Breugel,Noord-Brabant,VBO,5.485628,51.503000
Ekkersrijt,3205,a,,5692CG,Son en Breugel,Son en Breugel,Noord-Brabant,VBO,5.487359,51.504239
Ekkersrijt,3205,,,5692CG,Son en Breugel,Son en Breugel,Noord-Brabant,VBO,5.487288,51.504337
Ekkersrijt,3207,,Traf,5692CG,Son en Breugel,Son en Breugel,Noord-Brabant,VBO,5.487326,51.504107
Ekkersrijt,3207,,,5692CG,Son en Breugel,Son en Breugel,Noord-Brabant,VBO,5.487273,51.504131
Ekkersrijt,3209,,,5692CG,Son en Breugel,Son en Breugel,Noord-Brabant,VBO,5.487273,51.504033
Ekkersrijt,3213,,,5692CG,Son en Breugel,Son en Breugel,Noord-Brabant,VBO,5.486770,51.504626
Ekkersrijt,3301,,Gasr,5692CG,Son en Breugel,Son en Breugel,Noord-Brabant,VBO,5.485261,51.503396
Ekkersrijt,3304,,,5692CH,Son en Breugel,Son en Breugel,Noord-Brabant,VBO,5.486164,51.504267
Ekkersrijt,3301,,Traf,5692CJ,Son en Breugel,Son en Breugel,Noord-Brabant,VBO,5.477756,51.501257
Ekkersrijt,3301,,,5692CJ,Son en Breugel,Son en Breugel,Noord-Brabant,VBO,5.485631,51.504396
Ekkersrijt,3402,,,5692CK,Son en Breugel,Son en Breugel,Noord-Brabant,VBO,5.481085,51.501695
Ekkersrijt,4002,,,5692DA,Son en Breugel,Son en Breugel,Noord-Brabant,VBO,5.472061,51.501200
Ekkersrijt,4004,,,5692DA,Son en Breugel,Son en Breugel,Noord-Brabant,VBO,5.472364,51.501079
Ekkersrijt,4006,,,5692DA,Son en Breugel,Son en Breugel,Noord-Brabant,VBO,5.472187,51.501223
Ekkersrijt,4008,,,5692DA,Son en Breugel,Son en Breugel,Noord-Brabant,VBO,5.472272,51.501001
Ekkersrijt,4010,,,5692DA,Son en Breugel,Son en Breugel,Noord-Brabant,VBO,5.472100,51.501258
Ekkersrijt,4012,,,5692DA,Son en Breugel,Son en Breugel,Noord-Brabant,VBO,5.472233,51.501014
Ekkersrijt,4014,,Traf,5692DA,Son en Breugel,Son en Breugel,Noord-Brabant,VBO,5.472195,51.500887
Ekkersrijt,4014,,,5692DA,Son en Breugel,Son en Breugel,Noord-Brabant,VBO,5.471740,51.500647
Ekkersrijt,4016,,,5692DA,Son en Breugel,Son en Breugel,Noord-Brabant,VBO,5.471554,51.500078
Ekkersrijt,4018,,Traf,5692DA,Son en Breugel,Son en Breugel,Noord-Brabant,VBO,5.470144,51.500318
Ekkersrijt,4018,,,5692DA,Son en Breugel,Son en Breugel,Noord-Brabant,VBO,5.469887,51.500146
Ekkersrijt,4020,,,5692DA,Son en Breugel,Son en Breugel,Noord-Brabant,VBO,5.470716,51.499794
Ekkersrijt,4022,,,5692DA,Son en Breugel,Son en Breugel,Noord-Brabant,VBO,5.470413,51.499668
Ekkersrijt,4024,,,5692DA,Son en Breugel,Son en Breugel,Noord-Brabant,VBO,5.469923,51.499417
Ekkersrijt,4026,,Traf,5692DA,Son en Breugel,Son en Breugel,Noord-Brabant,VBO,5.468452,51.499063
Ekkersrijt,4026,,,5692DA,Son en Breugel,Son en Breugel,Noord-Brabant,VBO,5.469131,51.499391
Ekkersrijt,4030,,,5692DA,Son en Breugel,Son en Breugel,Noord-Brabant,VBO,5.469578,51.499876
Ekkersrijt,4032,,,5692DA,Son en Breugel,Son en Breugel,Noord-Brabant,VBO,5.468486,51.499916
Ekkersrijt,4034,,,5692DA,Son en Breugel,Son en Breugel,Noord-Brabant,VBO,5.468233,51.499956
Ekkersrijt,4036,,,5692DA,Son en Breugel,Son en Breugel,Noord-Brabant,VBO,5.467960,51.499991
Ekkersrijt,4038,,,5692DA,Son en Breugel,Son en Breugel,Noord-Brabant,VBO,5.467692,51.500001
Ekkersrijt,4040,,,5692DA,Son en Breugel,Son en Breugel,Noord-Brabant,VBO,5.468037,51.499553
Ekkersrijt,4084,,,5692DA,Son en Breugel,Son en Breugel,Noord-Brabant,VBO,5.467000,51.499491
Ekkersrijt,4086,,,5692DA,Son en Breugel,Son en Breugel,Noord-Brabant,VBO,5.465985,51.499450
Ekkersrijt,4088,,,5692DA,Son en Breugel,Son en Breugel,Noord-Brabant,VBO,5.464490,51.499401
Ekkersrijt,4090,,,5692DA,Son en Breugel,Son en Breugel,Noord-Brabant,VBO,5.464147,51.499342
Ekkersrijt,4001,,,5692DB,Son en Breugel,Son en Breugel,Noord-Brabant,VBO,5.473402,51.500918
Ekkersrijt,4005,,,5692DB,Son en Breugel,Son en Breugel,Noord-Brabant,VBO,5.473273,51.500741
Ekkersrijt,4007,,,5692DB,Son en Breugel,Son en Breugel,Noord-Brabant,VBO,5.473209,51.500652
Ekkersrijt,4011,,,5692DB,Son en Breugel,Son en Breugel,Noord-Brabant,VBO,5.473081,51.500476
Ekkersrijt,4015,,,5692DB,Son en Breugel,Son en Breugel,Noord-Brabant,VBO,5.472920,51.500269
Ekkersrijt,4019,,,5692DB,Son en Breugel,Son en Breugel,Noord-Brabant,VBO,5.472747,51.500017
Ekkersrijt,4089,,,5692DB,Son en Breugel,Son en Breugel,Noord-Brabant,VBO,5.470818,51.498854
Ekkersrijt,4091,,,5692DB,Son en Breugel,Son en Breugel,Noord-Brabant,VBO,5.466077,51.498692
Ekkersrijt,4093,,,5692DB,Son en Breugel,Son en Breugel,Noord-Brabant,VBO,5.464234,51.498909
Ekkersrijt,4095,,,5692DB,Son en Breugel,Son en Breugel,Noord-Brabant,VBO,5.464133,51.498774
Ekkersrijt,4097,,,5692DB,Son en Breugel,Son en Breugel,Noord-Brabant,VBO,5.464132,51.498585
Ekkersrijt,4102,a,,5692DC,Son en Breugel,Son en Breugel,Noord-Brabant,VBO,5.467081,51.498376
Ekkersrijt,4102,b,,5692DC,Son en Breugel,Son en Breugel,Noord-Brabant,VBO,5.467145,51.498511
Ekkersrijt,4102,,,5692DC,Son en Breugel,Son en Breugel,Noord-Brabant,VBO,5.467125,51.498881
Ekkersrijt,4104,,,5692DC,Son en Breugel,Son en Breugel,Noord-Brabant,VBO,5.466963,51.497862
Ekkersrijt,4108,,,5692DC,Son en Breugel,Son en Breugel,Noord-Brabant,VBO,5.467008,51.497473
Ekkersrijt,4110,,,5692DC,Son en Breugel,Son en Breugel,Noord-Brabant,VBO,5.466848,51.497341
Ekkersrijt,4112,,,5692DC,Son en Breugel,Son en Breugel,Noord-Brabant,VBO,5.466539,51.497342
Ekkersrijt,4120,,,5692DC,Son en Breugel,Son en Breugel,Noord-Brabant,VBO,5.465520,51.497313
Ekkersrijt,4126,,,5692DC,Son en Breugel,Son en Breugel,Noord-Brabant,VBO,5.465037,51.497308
Ekkersrijt,4128,,,5692DC,Son en Breugel,Son en Breugel,Noord-Brabant,VBO,5.464866,51.497315
Ekkersrijt,4130,,,5692DC,Son en Breugel,Son en Breugel,Noord-Brabant,VBO,5.464247,51.497200
Ekkersrijt,4134,,,5692DC,Son en Breugel,Son en Breugel,Noord-Brabant,VBO,5.464217,51.497641
Ekkersrijt,4101,,,5692DD,Son en Breugel,Son en Breugel,Noord-Brabant,VBO,5.467861,51.498774
Ekkersrijt,4103,,,5692DD,Son en Breugel,Son en Breugel,Noord-Brabant,VBO,5.468685,51.498486
Ekkersrijt,4103,,,5692DD,Son en Breugel,Son en Breugel,Noord-Brabant,VBO,5.469129,51.498797
Ekkersrijt,4105,,,5692DD,Son en Breugel,Son en Breugel,Noord-Brabant,VBO,5.469712,51.498603
Ekkersrijt,4107,,,5692DD,Son en Breugel,Son en Breugel,Noord-Brabant,VBO,5.469640,51.498547
Ekkersrijt,4109,a,,5692DD,Son en Breugel,Son en Breugel,Noord-Brabant,VBO,5.469512,51.498457
Ekkersrijt,4109,b,,5692DD,Son en Breugel,Son en Breugel,Noord-Brabant,VBO,5.469503,51.498497
Ekkersrijt,4109,,,5692DD,Son en Breugel,Son en Breugel,Noord-Brabant,VBO,5.469256,51.498534
Ekkersrijt,4109,,,5692DD,Son en Breugel,Son en Breugel,Noord-Brabant,VBO,5.469686,51.498499
Ekkersrijt,4111,,,5692DD,Son en Breugel,Son en Breugel,Noord-Brabant,VBO,5.469695,51.498635
Ekkersrijt,4113,,,5692DD,Son en Breugel,Son en Breugel,Noord-Brabant,VBO,5.469964,51.498213
Ekkersrijt,4115,,,5692DD,Son en Breugel,Son en Breugel,Noord-Brabant,VBO,5.469876,51.497359
Ekkersrijt,4119,,,5692DD,Son en Breugel,Son en Breugel,Noord-Brabant,VBO,5.468522,51.497333
Ekkersrijt,4121,,,5692DD,Son en Breugel,Son en Breugel,Noord-Brabant,VBO,5.467933,51.497836
Ekkersrijt,4123,,,5692DD,Son en Breugel,Son en Breugel,Noord-Brabant,VBO,5.468567,51.498267
Ekkersrijt,4125,,,5692DD,Son en Breugel,Son en Breugel,Noord-Brabant,VBO,5.467948,51.498169
Ekkersrijt,4127,,,5692DD,Son en Breugel,Son en Breugel,Noord-Brabant,VBO,5.469076,51.498320
Ekkersrijt,4129,,,5692DD,Son en Breugel,Son en Breugel,Noord-Brabant,VBO,5.468531,51.498383
Ekkersrijt,4133,,,5692DD,Son en Breugel,Son en Breugel,Noord-Brabant,VBO,5.467948,51.498432
Ekkersrijt,4135,,,5692DD,Son en Breugel,Son en Breugel,Noord-Brabant,VBO,5.467916,51.498669
Ekkersrijt,4139,,,5692DD,Son en Breugel,Son en Breugel,Noord-Brabant,VBO,5.467930,51.498875
Ekkersrijt,4141,,,5692DD,Son en Breugel,Son en Breugel,Noord-Brabant,VBO,5.468608,51.498812
Ekkersrijt,4143,,,5692DD,Son en Breugel,Son en Breugel,Noord-Brabant,VBO,5.469264,51.498112
Ekkersrijt,4145,,,5692DD,Son en Breugel,Son en Breugel,Noord-Brabant,VBO,5.469304,51.497927
Ekkersrijt,4147,,,5692DD,Son en Breugel,Son en Breugel,Noord-Brabant,VBO,5.469026,51.497898
Ekkersrijt,4149,,,5692DD,Son en Breugel,Son en Breugel,Noord-Brabant,VBO,5.469022,51.498108
Ekkersrijt,4151,,,5692DD,Son en Breugel,Son en Breugel,Noord-Brabant,VBO,5.469234,51.498073
Ekkersrijt,4153,,,5692DD,Son en Breugel,Son en Breugel,Noord-Brabant,VBO,5.469021,51.497946
Ekkersrijt,4155,,,5692DD,Son en Breugel,Son en Breugel,Noord-Brabant,VBO,5.469127,51.498027
Ekkersrijt,4202,,,5692DE,Son en Breugel,Son en Breugel,Noord-Brabant,VBO,5.471178,51.500630
Ekkersrijt,4204,,,5692DE,Son en Breugel,Son en Breugel,Noord-Brabant,VBO,5.471147,51.500779
Ekkersrijt,4206,,,5692DE,Son en Breugel,Son en Breugel,Noord-Brabant,VBO,5.471164,51.500944
Ekkersrijt,4302,,,5692DH,Son en Breugel,Son en Breugel,Noord-Brabant,VBO,5.469332,51.501282
Ekkersrijt,4304,,,5692DH,Son en Breugel,Son en Breugel,Noord-Brabant,VBO,5.469515,51.500610
Ekkersrijt,4301,,,5692DJ,Son en Breugel,Son en Breugel,Noord-Brabant,VBO,5.470248,51.501497
Ekkersrijt,4303,,,5692DJ,Son en Breugel,Son en Breugel,Noord-Brabant,VBO,5.470416,51.501241
Ekkersrijt,4305,,,5692DJ,Son en Breugel,Son en Breugel,Noord-Brabant,VBO,5.470916,51.501482
Ekkersrijt,4307,,,5692DJ,Son en Breugel,Son en Breugel,Noord-Brabant,VBO,5.471160,51.501467
Ekkersrijt,4309,a,,5692DJ,Son en Breugel,Son en Breugel,Noord-Brabant,VBO,5.471424,51.501425
Ekkersrijt,4309,,,5692DJ,Son en Breugel,Son en Breugel,Noord-Brabant,VBO,5.471372,51.501471
Ekkersrijt,4311,,,5692DJ,Son en Breugel,Son en Breugel,Noord-Brabant,VBO,5.470199,51.500864
Ekkersrijt,4313,,,5692DJ,Son en Breugel,Son en Breugel,Noord-Brabant,VBO,5.470213,51.500639
Ekkersrijt,4404,,,5692DK,Son en Breugel,Son en Breugel,Noord-Brabant,VBO,5.467052,51.500757
Ekkersrijt,4406,,,5692DK,Son en Breugel,Son en Breugel,Noord-Brabant,VBO,5.467108,51.500214
Ekkersrijt,4401,,,5692DL,Son en Breugel,Son en Breugel,Noord-Brabant,VBO,5.467590,51.501509
Ekkersrijt,4403,,,5692DL,Son en Breugel,Son en Breugel,Noord-Brabant,VBO,5.467694,51.501010
Ekkersrijt,4405,,,5692DL,Son en Breugel,Son en Breugel,Noord-Brabant,VBO,5.467679,51.500947
Ekkersrijt,4407,,,5692DL,Son en Breugel,Son en Breugel,Noord-Brabant,VBO,5.467679,51.500884
Ekkersrijt,4409,,,5692DL,Son en Breugel,Son en Breugel,Noord-Brabant,VBO,5.467708,51.500812
Ekkersrijt,4411,,,5692DL,Son en Breugel,Son en Breugel,Noord-Brabant,VBO,5.467693,51.500749
Ekkersrijt,4413,,,5692DL,Son en Breugel,Son en Breugel,Noord-Brabant,VBO,5.467722,51.500677
Ekkersrijt,4415,,,5692DL,Son en Breugel,Son en Breugel,Noord-Brabant,VBO,5.467837,51.500704
Ekkersrijt,4417,,,5692DL,Son en Breugel,Son en Breugel,Noord-Brabant,VBO,5.467909,51.500722
Ekkersrijt,4419,,,5692DL,Son en Breugel,Son en Breugel,Noord-Brabant,VBO,5.467938,51.500767
Ekkersrijt,4421,,,5692DL,Son en Breugel,Son en Breugel,Noord-Brabant,VBO,5.467924,51.500821
Ekkersrijt,4423,,,5692DL,Son en Breugel,Son en Breugel,Noord-Brabant,VBO,5.467909,51.500893
Ekkersrijt,4425,,,5692DL,Son en Breugel,Son en Breugel,Noord-Brabant,VBO,5.467910,51.500956
Ekkersrijt,4427,,,5692DL,Son en Breugel,Son en Breugel,Noord-Brabant,VBO,5.467895,51.501009
Ekkersrijt,4429,,,5692DL,Son en Breugel,Son en Breugel,Noord-Brabant,VBO,5.467794,51.501010
Ekkersrijt,4502,a,,5692DM,Son en Breugel,Son en Breugel,Noord-Brabant,VBO,5.466368,51.500759
Ekkersrijt,4502,,Traf,5692DM,Son en Breugel,Son en Breugel,Noord-Brabant,VBO,5.466439,51.500667
Ekkersrijt,4502,,,5692DM,Son en Breugel,Son en Breugel,Noord-Brabant,VBO,5.466037,51.500669
Ekkersrijt,4504,,,5692DM,Son en Breugel,Son en Breugel,Noord-Brabant,VBO,5.465194,51.500657
Ekkersrijt,4508,,,5692DM,Son en Breugel,Son en Breugel,Noord-Brabant,VBO,5.464479,51.500578
Ekkersrijt,4501,a,,5692DN,Son en Breugel,Son en Breugel,Noord-Brabant,VBO,5.466162,51.500213
Ekkersrijt,4501,,,5692DN,Son en Breugel,Son en Breugel,Noord-Brabant,VBO,5.466418,51.500257
Ekkersrijt,4503,a,,5692DN,Son en Breugel,Son en Breugel,Noord-Brabant,VBO,5.465719,51.500220
Ekkersrijt,4503,,,5692DN,Son en Breugel,Son en Breugel,Noord-Brabant,VBO,5.465878,51.500229
Ekkersrijt,4505,,,5692DN,Son en Breugel,Son en Breugel,Noord-Brabant,VBO,5.465446,51.500220
Ekkersrijt,4509,,,5692DN,Son en Breugel,Son en Breugel,Noord-Brabant,VBO,5.465018,51.500190
Ekkersrijt,4601,,,5692DR,Son en Breugel,Son en Breugel,Noord-Brabant,VBO,5.463843,51.501394
Ekkersrijt,4603,,,5692DR,Son en Breugel,Son en Breugel,Noord-Brabant,VBO,5.463846,51.501240
Ekkersrijt,4605,,,5692DR,Son en Breugel,Son en Breugel,Noord-Brabant,VBO,5.463863,51.501012
Ekkersrijt,4607,,,5692DR,Son en Breugel,Son en Breugel,Noord-Brabant,VBO,5.463902,51.500907
Ekkersrijt,4609,,,5692DR,Son en Breugel,Son en Breugel,Noord-Brabant,VBO,5.463920,51.500572
Ekkersrijt,4611,,,5692DR,Son en Breugel,Son en Breugel,Noord-Brabant,VBO,5.464279,51.500113
Science Park Eindhoven,5004,,,5692EA,Son en Breugel,Son en Breugel,Noord-Brabant,VBO,5.461297,51.499522
Science Park Eindhoven,5006,,,5692EA,Son en Breugel,Son en Breugel,Noord-Brabant,VBO,5.459841,51.498750
Science Park Eindhoven,5008,a,,5692EA,Son en Breugel,Son en Breugel,Noord-Brabant,VBO,5.459214,51.498305
Science Park Eindhoven,5008,b,,5692EA,Son en Breugel,Son en Breugel,Noord-Brabant,VBO,5.459179,51.498324
Science Park Eindhoven,5008,c,,5692EA,Son en Breugel,Son en Breugel,Noord-Brabant,VBO,5.459145,51.498343
Science Park Eindhoven,5008,d,,5692EA,Son en Breugel,Son en Breugel,Noord-Brabant,VBO,5.459303,51.498573
Science Park Eindhoven,5008,e,,5692EA,Son en Breugel,Son en Breugel,Noord-Brabant,VBO,5.459272,51.498551
Science Park Eindhoven,5010,,,5692EA,Son en Breugel,Son en Breugel,Noord-Brabant,VBO,5.458295,51.497378
Science Park Eindhoven,5080,,,5692EA,Son en Breugel,Son en Breugel,Noord-Brabant,VBO,5.452811,51.498184
Science Park Eindhoven,5001,,,5692EB,Son en Breugel,Son en Breugel,Noord-Brabant,VBO,5.462707,51.498856
Science Park Eindhoven,5003,,,5692EB,Son en Breugel,Son en Breugel,Noord-Brabant,VBO,5.461497,51.498650
Science Park Eindhoven,5025,,,5692EB,Son en Breugel,Son en Breugel,Noord-Brabant,VBO,5.460931,51.498492
Science Park Eindhoven,5029,,,5692EB,Son en Breugel,Son en Breugel,Noord-Brabant,VBO,5.459506,51.496881
Science Park Eindhoven,5031,,,5692EB,Son en Breugel,Son en Breugel,Noord-Brabant,VBO,5.459460,51.496905
Science Park Eindhoven,5033,,,5692EB,Son en Breugel,Son en Breugel,Noord-Brabant,VBO,5.459861,51.497180
Science Park Eindhoven,5041,,,5692EB,Son en Breugel,Son en Breugel,Noord-Brabant,VBO,5.459552,51.496857
Science Park Eindhoven,5045,,Traf,5692EB,Son en Breugel,Son en Breugel,Noord-Brabant,VBO,5.458939,51.496973
Science Park Eindhoven,5047,,Traf,5692EB,Son en Breugel,Son en Breugel,Noord-Brabant,VBO,5.458813,51.496936
Science Park Eindhoven,5047,,,5692EB,Son en Breugel,Son en Breugel,Noord-Brabant,VBO,5.458686,51.496800
Science Park Eindhoven,5049,,,5692EB,Son en Breugel,Son en Breugel,Noord-Brabant,VBO,5.457476,51.496783
Science Park Eindhoven,5051,,,5692EB,Son en Breugel,Son en Breugel,Noord-Brabant,VBO,5.455720,51.497017
Science Park Eindhoven,5053,,Traf,5692EB,Son en Breugel,Son en Breugel,Noord-Brabant,VBO,5.454367,51.497430
Science Park Eindhoven,5053,,,5692EB,Son en Breugel,Son en Breugel,Noord-Brabant,VBO,5.453877,51.497324
Science Park Eindhoven,5055,,,5692EB,Son en Breugel,Son en Breugel,Noord-Brabant,VBO,5.452912,51.497477
Science Park Eindhoven,5057,,,5692EB,Son en Breugel,Son en Breugel,Noord-Brabant,VBO,5.452565,51.496426
Science Park Eindhoven,5108,,,5692EC,Son en Breugel,Son en Breugel,Noord-Brabant,VBO,5.461428,51.497788
Science Park Eindhoven,5110,,Traf,5692EC,Son en Breugel,Son en Breugel,Noord-Brabant,VBO,5.461783,51.498054
Science Park Eindhoven,5110,,,5692EC,Son en Breugel,Son en Breugel,Noord-Brabant,VBO,5.462331,51.497885
Science Park Eindhoven,5125,,,5692ED,Son en Breugel,Son en Breugel,Noord-Brabant,VBO,5.462272,51.497382
Science Park Eindhoven,5127,,,5692ED,Son en Breugel,Son en Breugel,Noord-Brabant,VBO,5.460990,51.497005
Science Park Eindhoven,5202,,,5692EG,Son en Breugel,Son en Breugel,Noord-Brabant,VBO,5.462283,51.499531
Science Park Eindhoven,5204,a,,5692EG,Son en Breugel,Son en Breugel,Noord-Brabant,VBO,5.462948,51.500225
Science Park Eindhoven,5204,b,,5692EG,Son en Breugel,Son en Breugel,Noord-Brabant,VBO,5.462411,51.500285
Science Park Eindhoven,5206,,,5692EG,Son en Breugel,Son en Breugel,Noord-Brabant,VBO,5.463004,51.500969
Science Park Eindhoven,5208,,,5692EG,Son en Breugel,Son en Breugel,Noord-Brabant,VBO,5.461472,51.501068
Science Park Eindhoven,5210,,,5692EG,Son en Breugel,Son en Breugel,Noord-Brabant,VBO,5.460533,51.500800
Science Park Eindhoven,5212,,,5692EG,Son en Breugel,Son en Breugel,Noord-Brabant,VBO,5.460530,51.500831
Science Park Eindhoven,5214,a,,5692EG,Son en Breugel,Son en Breugel,Noord-Brabant,VBO,5.460535,51.500894
Science Park Eindhoven,5214,,,5692EG,Son en Breugel,Son en Breugel,Noord-Brabant,VBO,5.460525,51.500863
Science Park Eindhoven,5216,,,5692EG,Son en Breugel,Son en Breugel,Noord-Brabant,VBO,5.460432,51.501267
Science Park Eindhoven,5218,,,5692EG,Son en Breugel,Son en Breugel,Noord-Brabant,VBO,5.460498,51.501271
Science Park Eindhoven,5220,,,5692EG,Son en Breugel,Son en Breugel,Noord-Brabant,VBO,5.460564,51.501274
Science Park Eindhoven,5222,,,5692EG,Son en Breugel,Son en Breugel,Noord-Brabant,VBO,5.459844,51.501281
Science Park Eindhoven,5224,,,5692EG,Son en Breugel,Son en Breugel,Noord-Brabant,VBO,5.459911,51.501232
Science Park Eindhoven,5226,,,5692EG,Son en Breugel,Son en Breugel,Noord-Brabant,VBO,5.459907,51.501276
Science Park Eindhoven,5228,,,5692EG,Son en Breugel,Son en Breugel,Noord-Brabant,VBO,5.459988,51.500853
Science Park Eindhoven,5234,,,5692EG,Son en Breugel,Son en Breugel,Noord-Brabant,VBO,5.459560,51.500852
Science Park Eindhoven,5238,,,5692EG,Son en Breugel,Son en Breugel,Noord-Brabant,VBO,5.459366,51.500817
Science Park Eindhoven,5240,,,5692EG,Son en Breugel,Son en Breugel,Noord-Brabant,VBO,5.459364,51.500858
Science Park Eindhoven,5242,,,5692EG,Son en Breugel,Son en Breugel,Noord-Brabant,VBO,5.459196,51.500817
Science Park Eindhoven,5502,,,5692EL,Son en Breugel,Son en Breugel,Noord-Brabant,VBO,5.458313,51.500534
Science Park Eindhoven,5528,,,5692EL,Son en Breugel,Son en Breugel,Noord-Brabant,VBO,5.458199,51.499655
Science Park Eindhoven,5530,,,5692EL,Son en Breugel,Son en Breugel,Noord-Brabant,VBO,5.458155,51.499869
Science Park Eindhoven,5532,,,5692EL,Son en Breugel,Son en Breugel,Noord-Brabant,VBO,5.458166,51.499655
Science Park Eindhoven,5534,,,5692EL,Son en Breugel,Son en Breugel,Noord-Brabant,VBO,5.458155,51.499833
Science Park Eindhoven,5536,,,5692EL,Son en Breugel,Son en Breugel,Noord-Brabant,VBO,5.458131,51.499654
Science Park Eindhoven,5538,,,5692EL,Son en Breugel,Son en Breugel,Noord-Brabant,VBO,5.458112,51.499811
Science Park Eindhoven,5540,,,5692EL,Son en Breugel,Son en Breugel,Noord-Brabant,VBO,5.458086,51.499657
Science Park Eindhoven,5542,,,5692EL,Son en Breugel,Son en Breugel,Noord-Brabant,VBO,5.458076,51.499809
Science Park Eindhoven,5544,,,5692EL,Son en Breugel,Son en Breugel,Noord-Brabant,VBO,5.458058,51.499652
Science Park Eindhoven,5546,,,5692EL,Son en Breugel,Son en Breugel,Noord-Brabant,VBO,5.458023,51.499832
Science Park Eindhoven,5550,,,5692EL,Son en Breugel,Son en Breugel,Noord-Brabant,VBO,5.458099,51.499308
Science Park Eindhoven,5501,,,5692EM,Son en Breugel,Son en Breugel,Noord-Brabant,VBO,5.459331,51.500224
Science Park Eindhoven,5525,,Traf,5692EM,Son en Breugel,Son en Breugel,Noord-Brabant,VBO,5.458866,51.498856
Science Park Eindhoven,5525,,,5692EM,Son en Breugel,Son en Breugel,Noord-Brabant,VBO,5.458156,51.498643
Science Park Eindhoven,5602,,,5692EN,Son en Breugel,Son en Breugel,Noord-Brabant,VBO,5.455178,51.500622
Science Park Eindhoven,5630,,,5692EN,Son en Breugel,Son en Breugel,Noord-Brabant,VBO,5.455758,51.499608
Science Park Eindhoven,5640,,,5692EN,Son en Breugel,Son en Breugel,Noord-Brabant,VBO,5.456169,51.499255
Science Park Eindhoven,5644,,,5692EN,Son en Breugel,Son en Breugel,Noord-Brabant,VBO,5.456946,51.498608
Science Park Eindhoven,5707,,,5692EP,Son en Breugel,Son en Breugel,Noord-Brabant,VBO,5.454614,51.499854
Science Park Eindhoven,5709,,,5692EP,Son en Breugel,Son en Breugel,Noord-Brabant,VBO,5.454542,51.499256
Science Park Eindhoven,5711,,Tele,5692EP,Son en Breugel,Son en Breugel,Noord-Brabant,VBO,5.455919,51.498313
Science Park Eindhoven,5711,,,5692EP,Son en Breugel,Son en Breugel,Noord-Brabant,VBO,5.454244,51.498424
Science Park Eindhoven,5706,,,5692ER,Son en Breugel,Son en Breugel,Noord-Brabant,VBO,5.453549,51.499751
Science Park Eindhoven,5708,,,5692ER,Son en Breugel,Son en Breugel,Noord-Brabant,VBO,5.453649,51.499185
Science Park Eindhoven,5710,,,5692ER,Son en Breugel,Son en Breugel,Noord-Brabant,VBO,5.453266,51.498589
Ekkersrijt,6030,,,5692GA,Son en Breugel,Son en Breugel,Noord-Brabant,VBO,5.465984,51.501530
Ekkersrijt,6034,,,5692GA,Son en Breugel,Son en Breugel,Noord-Brabant,VBO,5.465246,51.501497
Ekkersrijt,6036,,,5692GA,Son en Breugel,Son en Breugel,Noord-Brabant,VBO,5.464607,51.501456
Ekkersrijt,6040,,,5692GA,Son en Breugel,Son en Breugel,Noord-Brabant,VBO,5.459264,51.501201
Ekkersrijt,6050,,,5692GA,Son en Breugel,Son en Breugel,Noord-Brabant,VBO,5.453671,51.500879
Ekkersrijt,7001,,,5692HB,Son en Breugel,Son en Breugel,Noord-Brabant,VBO,5.472663,51.502457
Ekkersrijt,7005,,,5692HB,Son en Breugel,Son en Breugel,Noord-Brabant,VBO,5.471155,51.503349
Ekkersrijt,7007,,,5692HB,Son en Breugel,Son en Breugel,Noord-Brabant,VBO,5.471085,51.503328
Ekkersrijt,7009,,,5692HB,Son en Breugel,Son en Breugel,Noord-Brabant,VBO,5.471128,51.503287
Ekkersrijt,7011,,,5692HB,Son en Breugel,Son en Breugel,Noord-Brabant,VBO,5.471050,51.503273
Ekkersrijt,7013,,,5692HB,Son en Breugel,Son en Breugel,Noord-Brabant,VBO,5.471105,51.503251
Ekkersrijt,7015,,,5692HB,Son en Breugel,Son en Breugel,Noord-Brabant,VBO,5.471052,51.503224
Ekkersrijt,7017,,,5692HB,Son en Breugel,Son en Breugel,Noord-Brabant,VBO,5.470966,51.503203
Ekkersrijt,7019,,,5692HB,Son en Breugel,Son en Breugel,Noord-Brabant,VBO,5.471028,51.503163
Ekkersrijt,7021,,,5692HB,Son en Breugel,Son en Breugel,Noord-Brabant,VBO,5.470941,51.503138
Ekkersrijt,7023,,,5692HB,Son en Breugel,Son en Breugel,Noord-Brabant,VBO,5.470980,51.503101
Ekkersrijt,7025,,,5692HB,Son en Breugel,Son en Breugel,Noord-Brabant,VBO,5.471194,51.502992
Ekkersrijt,7027,,,5692HB,Son en Breugel,Son en Breugel,Noord-Brabant,VBO,5.471232,51.503024
Ekkersrijt,7029,,,5692HB,Son en Breugel,Son en Breugel,Noord-Brabant,VBO,5.471258,51.503053
Ekkersrijt,7031,,,5692HB,Son en Breugel,Son en Breugel,Noord-Brabant,VBO,5.471284,51.503072
Ekkersrijt,7033,,,5692HB,Son en Breugel,Son en Breugel,Noord-Brabant,VBO,5.471291,51.502951
Ekkersrijt,7035,,,5692HB,Son en Breugel,Son en Breugel,Noord-Brabant,VBO,5.471323,51.502987
Ekkersrijt,7037,,,5692HB,Son en Breugel,Son en Breugel,Noord-Brabant,VBO,5.471343,51.503009
Ekkersrijt,7039,,,5692HB,Son en Breugel,Son en Breugel,Noord-Brabant,VBO,5.471372,51.503033
Ekkersrijt,7041,,,5692HB,Son en Breugel,Son en Breugel,Noord-Brabant,VBO,5.471399,51.502914
Ekkersrijt,7043,,,5692HB,Son en Breugel,Son en Breugel,Noord-Brabant,VBO,5.471424,51.502940
Ekkersrijt,7045,,,5692HB,Son en Breugel,Son en Breugel,Noord-Brabant,VBO,5.471468,51.502982
Ekkersrijt,7047,,,5692HB,Son en Breugel,Son en Breugel,Noord-Brabant,VBO,5.471516,51.502883
Ekkersrijt,7049,,,5692HB,Son en Breugel,Son en Breugel,Noord-Brabant,VBO,5.471549,51.502918
Ekkersrijt,7051,,,5692HB,Son en Breugel,Son en Breugel,Noord-Brabant,VBO,5.471555,51.503675
Ekkersrijt,7053,,,5692HB,Son en Breugel,Son en Breugel,Noord-Brabant,VBO,5.471762,51.503596
Ekkersrijt,7055,,,5692HB,Son en Breugel,Son en Breugel,Noord-Brabant,VBO,5.471954,51.503524
Ekkersrijt,7057,,,5692HB,Son en Breugel,Son en Breugel,Noord-Brabant,VBO,5.472091,51.503469
Ekkersrijt,7102,,,5692HC,Son en Breugel,Son en Breugel,Noord-Brabant,VBO,5.470204,51.503480
Ekkersrijt,7108,,,5692HC,Son en Breugel,Son en Breugel,Noord-Brabant,VBO,5.468563,51.503733
Ekkersrijt,7110,,,5692HC,Son en Breugel,Son en Breugel,Noord-Brabant,VBO,5.468177,51.503566
Ekkersrijt,7101,,Traf,5692HD,Son en Breugel,Son en Breugel,Noord-Brabant,VBO,5.469638,51.503074
Ekkersrijt,7101,,,5692HD,Son en Breugel,Son en Breugel,Noord-Brabant,VBO,5.468906,51.502402
Ekkersrijt,7202,,,5692HE,Son en Breugel,Son en Breugel,Noord-Brabant,VBO,5.467438,51.502183
Ekkersrijt,7204,,,5692HE,Son en Breugel,Son en Breugel,Noord-Brabant,VBO,5.466876,51.502682
Ekkersrijt,7206,,,5692HE,Son en Breugel,Son en Breugel,Noord-Brabant,VBO,5.466862,51.502961
Ekkersrijt,7208,,Traf,5692HE,Son en Breugel,Son en Breugel,Noord-Brabant,VBO,5.466739,51.503416
Ekkersrijt,7208,,,5692HE,Son en Breugel,Son en Breugel,Noord-Brabant,VBO,5.466833,51.503248
Ekkersrijt,7302,,,5692HH,Son en Breugel,Son en Breugel,Noord-Brabant,VBO,5.466076,51.502222
Ekkersrijt,7304,,,5692HH,Son en Breugel,Son en Breugel,Noord-Brabant,VBO,5.464772,51.502243
Ekkersrijt,7306,,,5692HH,Son en Breugel,Son en Breugel,Noord-Brabant,VBO,5.464412,51.502207
Ekkersrijt,7308,,,5692HH,Son en Breugel,Son en Breugel,Noord-Brabant,VBO,5.464087,51.502255
Ekkersrijt,7310,,,5692HH,Son en Breugel,Son en Breugel,Noord-Brabant,VBO,5.463901,51.502252
Ekkersrijt,7312,,,5692HH,Son en Breugel,Son en Breugel,Noord-Brabant,VBO,5.463716,51.502245
Ekkersrijt,7314,,,5692HH,Son en Breugel,Son en Breugel,Noord-Brabant,VBO,5.463531,51.502238
Ekkersrijt,7316,,,5692HH,Son en Breugel,Son en Breugel,Noord-Brabant,VBO,5.463169,51.502155
Ekkersrijt,7318,,,5692HH,Son en Breugel,Son en Breugel,Noord-Brabant,VBO,5.462957,51.502148
Ekkersrijt,7320,,,5692HH,Son en Breugel,Son en Breugel,Noord-Brabant,VBO,5.462424,51.502116
Ekkersrijt,7322,,,5692HH,Son en Breugel,Son en Breugel,Noord-Brabant,VBO,5.462603,51.502182
Ekkersrijt,7402,,,5692HK,Son en Breugel,Son en Breugel,Noord-Brabant,VBO,5.466114,51.503554
Ekkersrijt,7404,,,5692HK,Son en Breugel,Son en Breugel,Noord-Brabant,VBO,5.465624,51.503672
Ekkersrijt,7406,,,5692HK,Son en Breugel,Son en Breugel,Noord-Brabant,VBO,5.465516,51.503511
Ekkersrijt,7408,,,5692HK,Son en Breugel,Son en Breugel,Noord-Brabant,VBO,5.464918,51.503483
Ekkersrijt,7410,,,5692HK,Son en Breugel,Son en Breugel,Noord-Brabant,VBO,5.464180,51.503473
Ekkersrijt,7412,,,5692HK,Son en Breugel,Son en Breugel,Noord-Brabant,VBO,5.463593,51.503493
Ekkersrijt,7416,,,5692HK,Son en Breugel,Son en Breugel,Noord-Brabant,VBO,5.462815,51.503449
Ekkersrijt,7418,,,5692HK,Son en Breugel,Son en Breugel,Noord-Brabant,VBO,5.462167,51.503404
Ekkersrijt,7401,,,5692HL,Son en Breugel,Son en Breugel,Noord-Brabant,VBO,5.465912,51.503231
Ekkersrijt,7403,,,5692HL,Son en Breugel,Son en Breugel,Noord-Brabant,VBO,5.465609,51.503213
Ekkersrijt,7405,,,5692HL,Son en Breugel,Son en Breugel,Noord-Brabant,VBO,5.465313,51.503210
Ekkersrijt,7407,,,5692HL,Son en Breugel,Son en Breugel,Noord-Brabant,VBO,5.464886,51.502896
Ekkersrijt,7409,,,5692HL,Son en Breugel,Son en Breugel,Noord-Brabant,VBO,5.464601,51.502874
Ekkersrijt,7411,,,5692HL,Son en Breugel,Son en Breugel,Noord-Brabant,VBO,5.464097,51.503133
Ekkersrijt,7413,,,5692HL,Son en Breugel,Son en Breugel,Noord-Brabant,VBO,5.463943,51.503122
Ekkersrijt,7419,,,5692HL,Son en Breugel,Son en Breugel,Noord-Brabant,VBO,5.462927,51.502937
Ekkersrijt,7421,,,5692HL,Son en Breugel,Son en Breugel,Noord-Brabant,VBO,5.462347,51.502920
Ekkersrijt,7501,,,5692HN,Son en Breugel,Son en Breugel,Noord-Brabant,VBO,5.461647,51.502191
Ekkersrijt,7602,,,5692HP,Son en Breugel,Son en Breugel,Noord-Brabant,VBO,5.459342,51.501968
Ekkersrijt,7604,,,5692HP,Son en Breugel,Son en Breugel,Noord-Brabant,VBO,5.459188,51.503311
Ekkersrijt,7601,,,5692HR,Son en Breugel,Son en Breugel,Noord-Brabant,VBO,5.457765,51.502425
Ekkersrijt,8817,,,5692JW,Son en Breugel,Son en Breugel,Noord-Brabant,VBO,5.454748,51.502818
Ekkersrijt,8901,,,5692JZ,Son en Breugel,Son en Breugel,Noord-Brabant,VBO,5.453141,51.502079
Ekkersrijt,8800,,Traf,5692KA,Son en Breugel,Son en Breugel,Noord-Brabant,VBO,5.455540,51.501552
Bijenlaan,35,,,5692VA,Son en Breugel,Son en Breugel,Noord-Brabant,VBO,5.477509,51.529079
Bijenlaan,37,,,5692VA,Son en Breugel,Son en Breugel,Noord-Brabant,VBO,5.472042,51.526829
Bijenlaan,2,,,5692VB,Son en Breugel,Son en Breugel,Noord-Brabant,VBO,5.488798,51.530711
Bijenlaan,22,,,5692VB,Son en Breugel,Son en Breugel,Noord-Brabant,VBO,5.484544,51.530363
Bijenlaan,24,,,5692VB,Son en Breugel,Son en Breugel,Noord-Brabant,VBO,5.483514,51.531059
Bijenlaan,26,,,5692VB,Son en Breugel,Son en Breugel,Noord-Brabant,VBO,5.482888,51.530892
Bijenlaan,28,,,5692VC,Son en Breugel,Son en Breugel,Noord-Brabant,VBO,5.482186,51.530024
Bijenlaan,30,,,5692VC,Son en Breugel,Son en Breugel,Noord-Brabant,VBO,5.482054,51.530012
Bijenlaan,32,,,5692VC,Son en Breugel,Son en Breugel,Noord-Brabant,VBO,5.481938,51.529999
Bijenlaan,34,,,5692VC,Son en Breugel,Son en Breugel,Noord-Brabant,VBO,5.481806,51.529986
Bijenlaan,36,,,5692VC,Son en Breugel,Son en Breugel,Noord-Brabant,VBO,5.481639,51.529950
Bijenlaan,38,,,5692VC,Son en Breugel,Son en Breugel,Noord-Brabant,VBO,5.481522,51.529938
Bijenlaan,40,,,5692VC,Son en Breugel,Son en Breugel,Noord-Brabant,VBO,5.481390,51.529925
Bijenlaan,42,,,5692VC,Son en Breugel,Son en Breugel,Noord-Brabant,VBO,5.481275,51.529912
Bijenlaan,44,,,5692VC,Son en Breugel,Son en Breugel,Noord-Brabant,VBO,5.481145,51.529900
Bijenlaan,46,,,5692VC,Son en Breugel,Son en Breugel,Noord-Brabant,VBO,5.481029,51.529886
Bijenlaan,48,,,5692VC,Son en Breugel,Son en Breugel,Noord-Brabant,VBO,5.479952,51.529780
Bijenlaan,58,,,5692VC,Son en Breugel,Son en Breugel,Noord-Brabant,VBO,5.477866,51.529556
Bijenlaan,60,,,5692VC,Son en Breugel,Son en Breugel,Noord-Brabant,VBO,5.477018,51.529609
Zebrakever,1,,,5692VG,Son en Breugel,Son en Breugel,Noord-Brabant,VBO,5.487402,51.531275
Zebrakever,3,,,5692VG,Son en Breugel,Son en Breugel,Noord-Brabant,VBO,5.487366,51.531320
Zebrakever,5,,,5692VG,Son en Breugel,Son en Breugel,Noord-Brabant,VBO,5.487349,51.531366
Zebrakever,7,,,5692VG,Son en Breugel,Son en Breugel,Noord-Brabant,VBO,5.487330,51.531417
Zebrakever,9,,,5692VG,Son en Breugel,Son en Breugel,Noord-Brabant,VBO,5.487309,51.531463
Zebrakever,11,,,5692VG,Son en Breugel,Son en Breugel,Noord-Brabant,VBO,5.487294,51.531540
Zebrakever,13,,,5692VG,Son en Breugel,Son en Breugel,Noord-Brabant,VBO,5.487265,51.531581
Zebrakever,15,,,5692VG,Son en Breugel,Son en Breugel,Noord-Brabant,VBO,5.487252,51.531631
Zebrakever,17,,,5692VG,Son en Breugel,Son en Breugel,Noord-Brabant,VBO,5.487222,51.531679
Zebrakever,19,,,5692VG,Son en Breugel,Son en Breugel,Noord-Brabant,VBO,5.487184,51.531725
Zebrakever,21,,,5692VG,Son en Breugel,Son en Breugel,Noord-Brabant,VBO,5.487101,51.531899
Zebrakever,23,,,5692VG,Son en Breugel,Son en Breugel,Noord-Brabant,VBO,5.487092,51.531950
Zebrakever,25,,,5692VG,Son en Breugel,Son en Breugel,Noord-Brabant,VBO,5.487061,51.531994
Zebrakever,27,,,5692VG,Son en Breugel,Son en Breugel,Noord-Brabant,VBO,5.487050,51.532044
Zebrakever,29,,,5692VG,Son en Breugel,Son en Breugel,Noord-Brabant,VBO,5.487019,51.532093
Zebrakever,31,,,5692VG,Son en Breugel,Son en Breugel,Noord-Brabant,VBO,5.486968,51.532155
Zebrakever,33,,,5692VG,Son en Breugel,Son en Breugel,Noord-Brabant,VBO,5.486937,51.532202
Zebrakever,35,,,5692VG,Son en Breugel,Son en Breugel,Noord-Brabant,VBO,5.486932,51.532257
Zebrakever,37,,,5692VG,Son en Breugel,Son en Breugel,Noord-Brabant,VBO,5.486880,51.532296
Zebrakever,39,,,5692VG,Son en Breugel,Son en Breugel,Noord-Brabant,VBO,5.486863,51.532347
Zebrakever,41,,,5692VH,Son en Breugel,Son en Breugel,Noord-Brabant,VBO,5.487208,51.532745
Zebrakever,43,,,5692VH,Son en Breugel,Son en Breugel,Noord-Brabant,VBO,5.487178,51.532789
Zebrakever,45,,,5692VH,Son en Breugel,Son en Breugel,Noord-Brabant,VBO,5.487166,51.532835
Zebrakever,47,,,5692VH,Son en Breugel,Son en Breugel,Noord-Brabant,VBO,5.487145,51.532885
Zebrakever,51,,,5692VH,Son en Breugel,Son en Breugel,Noord-Brabant,VBO,5.487098,51.533006
Zebrakever,53,,,5692VH,Son en Breugel,Son en Breugel,Noord-Brabant,VBO,5.487077,51.533052
Zebrakever,55,,,5692VH,Son en Breugel,Son en Breugel,Noord-Brabant,VBO,5.487060,51.533097
Zebrakever,57,,,5692VH,Son en Breugel,Son en Breugel,Noord-Brabant,VBO,5.487032,51.533147
Zebrakever,59,,,5692VH,Son en Breugel,Son en Breugel,Noord-Brabant,VBO,5.487009,51.533190
Zebrakever,61,,,5692VH,Son en Breugel,Son en Breugel,Noord-Brabant,VBO,5.486921,51.533367
Zebrakever,63,,,5692VH,Son en Breugel,Son en Breugel,Noord-Brabant,VBO,5.486899,51.533414
Zebrakever,65,,,5692VH,Son en Breugel,Son en Breugel,Noord-Brabant,VBO,5.486871,51.533463
Zebrakever,67,,,5692VH,Son en Breugel,Son en Breugel,Noord-Brabant,VBO,5.486866,51.533507
Zebrakever,69,,,5692VH,Son en Breugel,Son en Breugel,Noord-Brabant,VBO,5.486832,51.533555
Zebrakever,71,,,5692VH,Son en Breugel,Son en Breugel,Noord-Brabant,VBO,5.486790,51.533626
Zebrakever,73,,,5692VH,Son en Breugel,Son en Breugel,Noord-Brabant,VBO,5.486766,51.533670
Zebrakever,75,,,5692VH,Son en Breugel,Son en Breugel,Noord-Brabant,VBO,5.486741,51.533718
Zebrakever,77,,,5692VH,Son en Breugel,Son en Breugel,Noord-Brabant,VBO,5.486716,51.533768
Zebrakever,79,,,5692VH,Son en Breugel,Son en Breugel,Noord-Brabant,VBO,5.486694,51.533811
Spiegelkever,2,,,5692VK,Son en Breugel,Son en Breugel,Noord-Brabant,VBO,5.487079,51.531255
Spiegelkever,4,,,5692VK,Son en Breugel,Son en Breugel,Noord-Brabant,VBO,5.486997,51.531244
Spiegelkever,6,,,5692VK,Son en Breugel,Son en Breugel,Noord-Brabant,VBO,5.486920,51.531237
Spiegelkever,8,,,5692VK,Son en Breugel,Son en Breugel,Noord-Brabant,VBO,5.486854,51.531221
Spiegelkever,10,,,5692VK,Son en Breugel,Son en Breugel,Noord-Brabant,VBO,5.486737,51.531187
Spiegelkever,12,,,5692VK,Son en Breugel,Son en Breugel,Noord-Brabant,VBO,5.486646,51.531176
Spiegelkever,14,,,5692VK,Son en Breugel,Son en Breugel,Noord-Brabant,VBO,5.486575,51.531160
Spiegelkever,16,,,5692VK,Son en Breugel,Son en Breugel,Noord-Brabant,VBO,5.486488,51.531151
Spiegelkever,18,,,5692VK,Son en Breugel,Son en Breugel,Noord-Brabant,VBO,5.486184,51.531097
Spiegelkever,20,,,5692VK,Son en Breugel,Son en Breugel,Noord-Brabant,VBO,5.486110,51.531075
Spiegelkever,22,,,5692VK,Son en Breugel,Son en Breugel,Noord-Brabant,VBO,5.486034,51.531061
Spiegelkever,24,,,5692VK,Son en Breugel,Son en Breugel,Noord-Brabant,VBO,5.485963,51.531036
Spiegelkever,26,,,5692VK,Son en Breugel,Son en Breugel,Noord-Brabant,VBO,5.485885,51.531033
Spiegelkever,28,,,5692VK,Son en Breugel,Son en Breugel,Noord-Brabant,VBO,5.485755,51.531018
Spiegelkever,30,,,5692VK,Son en Breugel,Son en Breugel,Noord-Brabant,VBO,5.485685,51.531006
Spiegelkever,32,,,5692VK,Son en Breugel,Son en Breugel,Noord-Brabant,VBO,5.485622,51.530982
Spiegelkever,34,,,5692VK,Son en Breugel,Son en Breugel,Noord-Brabant,VBO,5.485536,51.530977
Zandloopkever,1,,,5692VL,Son en Breugel,Son en Breugel,Noord-Brabant,VBO,5.486909,51.531584
Zandloopkever,5,,,5692VL,Son en Breugel,Son en Breugel,Noord-Brabant,VBO,5.486772,51.531526
Zandloopkever,7,,,5692VL,Son en Breugel,Son en Breugel,Noord-Brabant,VBO,5.486699,51.531511
Zandloopkever,9,,,5692VL,Son en Breugel,Son en Breugel,Noord-Brabant,VBO,5.486583,51.531493
Zandloopkever,13,,,5692VL,Son en Breugel,Son en Breugel,Noord-Brabant,VBO,5.486427,51.531472
Zandloopkever,15,,,5692VL,Son en Breugel,Son en Breugel,Noord-Brabant,VBO,5.486354,51.531453
Zandloopkever,17,,,5692VL,Son en Breugel,Son en Breugel,Noord-Brabant,VBO,5.486045,51.531380
Zandloopkever,19,,,5692VL,Son en Breugel,Son en Breugel,Noord-Brabant,VBO,5.485969,51.531366
Zandloopkever,21,,,5692VL,Son en Breugel,Son en Breugel,Noord-Brabant,VBO,5.485902,51.531348
Zandloopkever,23,,,5692VL,Son en Breugel,Son en Breugel,Noord-Brabant,VBO,5.485822,51.531335
Zandloopkever,25,,,5692VL,Son en Breugel,Son en Breugel,Noord-Brabant,VBO,5.485702,51.531321
Zandloopkever,27,,,5692VL,Son en Breugel,Son en Breugel,Noord-Brabant,VBO,5.485627,51.531307
Zandloopkever,29,,,5692VL,Son en Breugel,Son en Breugel,Noord-Brabant,VBO,5.485547,51.531296
Zandloopkever,31,,,5692VL,Son en Breugel,Son en Breugel,Noord-Brabant,VBO,5.485475,51.531278
Zandloopkever,33,,,5692VL,Son en Breugel,Son en Breugel,Noord-Brabant,VBO,5.485399,51.531269
Zandloopkever,2,,,5692VM,Son en Breugel,Son en Breugel,Noord-Brabant,VBO,5.486752,51.531918
Zandloopkever,4,,,5692VM,Son en Breugel,Son en Breugel,Noord-Brabant,VBO,5.486664,51.531911
Zandloopkever,6,,,5692VM,Son en Breugel,Son en Breugel,Noord-Brabant,VBO,5.486591,51.531897
Zandloopkever,8,,,5692VM,Son en Breugel,Son en Breugel,Noord-Brabant,VBO,5.486517,51.531882
Zandloopkever,10,,,5692VM,Son en Breugel,Son en Breugel,Noord-Brabant,VBO,5.486397,51.531869
Zandloopkever,12,,,5692VM,Son en Breugel,Son en Breugel,Noord-Brabant,VBO,5.486325,51.531861
Zandloopkever,14,,,5692VM,Son en Breugel,Son en Breugel,Noord-Brabant,VBO,5.486249,51.531844
Zandloopkever,16,,,5692VM,Son en Breugel,Son en Breugel,Noord-Brabant,VBO,5.486180,51.531827
Zandloopkever,18,,,5692VM,Son en Breugel,Son en Breugel,Noord-Brabant,VBO,5.485869,51.531748
Zandloopkever,20,,,5692VM,Son en Breugel,Son en Breugel,Noord-Brabant,VBO,5.485789,51.531735
Zandloopkever,22,,,5692VM,Son en Breugel,Son en Breugel,Noord-Brabant,VBO,5.485714,51.531721
Zandloopkever,24,,,5692VM,Son en Breugel,Son en Breugel,Noord-Brabant,VBO,5.485646,51.531705
Zandloopkever,26,,,5692VM,Son en Breugel,Son en Breugel,Noord-Brabant,VBO,5.485528,51.531699
Zandloopkever,28,,,5692VM,Son en Breugel,Son en Breugel,Noord-Brabant,VBO,5.485448,51.531680
Zandloopkever,30,,,5692VM,Son en Breugel,Son en Breugel,Noord-Brabant,VBO,5.485375,51.531668
Zandloopkever,32,,,5692VM,Son en Breugel,Son en Breugel,Noord-Brabant,VBO,5.485301,51.531653
Zandloopkever,34,,,5692VM,Son en Breugel,Son en Breugel,Noord-Brabant,VBO,5.485228,51.531618
Penseelkever,11,,,5692VN,Son en Breugel,Son en Breugel,Noord-Brabant,VBO,5.486562,51.532265
Penseelkever,13,,,5692VN,Son en Breugel,Son en Breugel,Noord-Brabant,VBO,5.486465,51.532252
Penseelkever,15,,,5692VN,Son en Breugel,Son en Breugel,Noord-Brabant,VBO,5.486328,51.532224
Penseelkever,17,,,5692VN,Son en Breugel,Son en Breugel,Noord-Brabant,VBO,5.486231,51.532208
Penseelkever,19,,,5692VN,Son en Breugel,Son en Breugel,Noord-Brabant,VBO,5.486088,51.532179
Penseelkever,21,,,5692VN,Son en Breugel,Son en Breugel,Noord-Brabant,VBO,5.485994,51.532162
Penseelkever,23,,,5692VN,Son en Breugel,Son en Breugel,Noord-Brabant,VBO,5.485658,51.532104
Penseelkever,25,,,5692VN,Son en Breugel,Son en Breugel,Noord-Brabant,VBO,5.485568,51.532079
Penseelkever,27,,,5692VN,Son en Breugel,Son en Breugel,Noord-Brabant,VBO,5.485421,51.532048
Penseelkever,29,,,5692VN,Son en Breugel,Son en Breugel,Noord-Brabant,VBO,5.485323,51.532029
Penseelkever,31,,,5692VN,Son en Breugel,Son en Breugel,Noord-Brabant,VBO,5.485193,51.532006
Penseelkever,33,,,5692VN,Son en Breugel,Son en Breugel,Noord-Brabant,VBO,5.485086,51.531985
Penseelkever,14,,,5692VP,Son en Breugel,Son en Breugel,Noord-Brabant,VBO,5.486872,51.532700
Penseelkever,16,,,5692VP,Son en Breugel,Son en Breugel,Noord-Brabant,VBO,5.486810,51.532662
Penseelkever,18,,,5692VP,Son en Breugel,Son en Breugel,Noord-Brabant,VBO,5.486731,51.532651
Penseelkever,20,,,5692VP,Son en Breugel,Son en Breugel,Noord-Brabant,VBO,5.486649,51.532639
Penseelkever,22,,,5692VP,Son en Breugel,Son en Breugel,Noord-Brabant,VBO,5.486577,51.532626
Penseelkever,24,,,5692VP,Son en Breugel,Son en Breugel,Noord-Brabant,VBO,5.486466,51.532612
Penseelkever,26,,,5692VP,Son en Breugel,Son en Breugel,Noord-Brabant,VBO,5.486388,51.532600
Penseelkever,28,,,5692VP,Son en Breugel,Son en Breugel,Noord-Brabant,VBO,5.486306,51.532576
Penseelkever,30,,,5692VP,Son en Breugel,Son en Breugel,Noord-Brabant,VBO,5.486230,51.532568
Penseelkever,32,,,5692VP,Son en Breugel,Son en Breugel,Noord-Brabant,VBO,5.486150,51.532554
Penseelkever,34,,,5692VP,Son en Breugel,Son en Breugel,Noord-Brabant,VBO,5.486045,51.532535
Penseelkever,36,,,5692VP,Son en Breugel,Son en Breugel,Noord-Brabant,VBO,5.485963,51.532522
Penseelkever,38,,,5692VP,Son en Breugel,Son en Breugel,Noord-Brabant,VBO,5.485892,51.532509
Penseelkever,40,,,5692VP,Son en Breugel,Son en Breugel,Noord-Brabant,VBO,5.485820,51.532491
Penseelkever,42,,,5692VP,Son en Breugel,Son en Breugel,Noord-Brabant,VBO,5.485543,51.532430
Penseelkever,44,,,5692VP,Son en Breugel,Son en Breugel,Noord-Brabant,VBO,5.485457,51.532419
Penseelkever,46,,,5692VP,Son en Breugel,Son en Breugel,Noord-Brabant,VBO,5.485387,51.532404
Penseelkever,48,,,5692VP,Son en Breugel,Son en Breugel,Noord-Brabant,VBO,5.485314,51.532389
Penseelkever,50,,,5692VP,Son en Breugel,Son en Breugel,Noord-Brabant,VBO,5.485232,51.532374
Penseelkever,52,,,5692VP,Son en Breugel,Son en Breugel,Noord-Brabant,VBO,5.485116,51.532361
Penseelkever,54,,,5692VP,Son en Breugel,Son en Breugel,Noord-Brabant,VBO,5.485038,51.532344
Penseelkever,56,,,5692VP,Son en Breugel,Son en Breugel,Noord-Brabant,VBO,5.484969,51.532332
Penseelkever,58,,,5692VP,Son en Breugel,Son en Breugel,Noord-Brabant,VBO,5.484891,51.532316
Meikever,1,,,5692VR,Son en Breugel,Son en Breugel,Noord-Brabant,VBO,5.486705,51.533056
Meikever,3,,,5692VR,Son en Breugel,Son en Breugel,Noord-Brabant,VBO,5.486642,51.532996
Meikever,5,,,5692VR,Son en Breugel,Son en Breugel,Noord-Brabant,VBO,5.486560,51.532983
Meikever,7,,,5692VR,Son en Breugel,Son en Breugel,Noord-Brabant,VBO,5.486489,51.532963
Meikever,9,,,5692VR,Son en Breugel,Son en Breugel,Noord-Brabant,VBO,5.486417,51.532950
Meikever,11,,,5692VR,Son en Breugel,Son en Breugel,Noord-Brabant,VBO,5.486340,51.532935
Meikever,13,,,5692VR,Son en Breugel,Son en Breugel,Noord-Brabant,VBO,5.486230,51.532905
Meikever,15,,,5692VR,Son en Breugel,Son en Breugel,Noord-Brabant,VBO,5.486155,51.532903
Meikever,17,,,5692VR,Son en Breugel,Son en Breugel,Noord-Brabant,VBO,5.486085,51.532868
Meikever,19,,,5692VR,Son en Breugel,Son en Breugel,Noord-Brabant,VBO,5.486008,51.532862
Meikever,21,,,5692VR,Son en Breugel,Son en Breugel,Noord-Brabant,VBO,5.485881,51.532860
Meikever,23,,,5692VR,Son en Breugel,Son en Breugel,Noord-Brabant,VBO,5.485801,51.532842
Meikever,25,,,5692VR,Son en Breugel,Son en Breugel,Noord-Brabant,VBO,5.485732,51.532825
Meikever,27,,,5692VR,Son en Breugel,Son en Breugel,Noord-Brabant,VBO,5.485661,51.532808
Meikever,29,,,5692VR,Son en Breugel,Son en Breugel,Noord-Brabant,VBO,5.485383,51.532757
Meikever,31,,,5692VR,Son en Breugel,Son en Breugel,Noord-Brabant,VBO,5.485308,51.532743
Meikever,33,,,5692VR,Son en Breugel,Son en Breugel,Noord-Brabant,VBO,5.485225,51.532731
Meikever,35,,,5692VR,Son en Breugel,Son en Breugel,Noord-Brabant,VBO,5.485150,51.532713
Meikever,37,,,5692VR,Son en Breugel,Son en Breugel,Noord-Brabant,VBO,5.485032,51.532697
Meikever,39,,,5692VR,Son en Breugel,Son en Breugel,Noord-Brabant,VBO,5.484954,51.532686
Meikever,41,,,5692VR,Son en Breugel,Son en Breugel,Noord-Brabant,VBO,5.484868,51.532674
Meikever,43,,,5692VR,Son en Breugel,Son en Breugel,Noord-Brabant,VBO,5.484809,51.532664
Meikever,45,,,5692VR,Son en Breugel,Son en Breugel,Noord-Brabant,VBO,5.484719,51.532674
Meikever,2,,,5692VS,Son en Breugel,Son en Breugel,Noord-Brabant,VBO,5.486521,51.533397
Meikever,4,,,5692VS,Son en Breugel,Son en Breugel,Noord-Brabant,VBO,5.486446,51.533392
Meikever,6,,,5692VS,Son en Breugel,Son en Breugel,Noord-Brabant,VBO,5.486372,51.533378
Meikever,8,,,5692VS,Son en Breugel,Son en Breugel,Noord-Brabant,VBO,5.486292,51.533365
Meikever,10,,,5692VS,Son en Breugel,Son en Breugel,Noord-Brabant,VBO,5.486217,51.533354
Meikever,12,,,5692VS,Son en Breugel,Son en Breugel,Noord-Brabant,VBO,5.486111,51.533324
Meikever,14,,,5692VS,Son en Breugel,Son en Breugel,Noord-Brabant,VBO,5.486034,51.533314
Meikever,16,,,5692VS,Son en Breugel,Son en Breugel,Noord-Brabant,VBO,5.485964,51.533292
Meikever,18,,,5692VS,Son en Breugel,Son en Breugel,Noord-Brabant,VBO,5.485891,51.533286
Meikever,20,,,5692VS,Son en Breugel,Son en Breugel,Noord-Brabant,VBO,5.485758,51.533288
Meikever,22,,,5692VS,Son en Breugel,Son en Breugel,Noord-Brabant,VBO,5.485681,51.533268
Meikever,24,,,5692VS,Son en Breugel,Son en Breugel,Noord-Brabant,VBO,5.485599,51.533252
Meikever,26,,,5692VS,Son en Breugel,Son en Breugel,Noord-Brabant,VBO,5.485527,51.533248
Meikever,28,,,5692VS,Son en Breugel,Son en Breugel,Noord-Brabant,VBO,5.485460,51.533228
Meikever,30,,,5692VS,Son en Breugel,Son en Breugel,Noord-Brabant,VBO,5.485178,51.533171
Meikever,32,,,5692VS,Son en Breugel,Son en Breugel,Noord-Brabant,VBO,5.485107,51.533160
Meikever,34,,,5692VS,Son en Breugel,Son en Breugel,Noord-Brabant,VBO,5.485033,51.533134
Meikever,36,,,5692VS,Son en Breugel,Son en Breugel,Noord-Brabant,VBO,5.484955,51.533125
Meikever,38,,,5692VS,Son en Breugel,Son en Breugel,Noord-Brabant,VBO,5.484829,51.533099
Meikever,40,,,5692VS,Son en Breugel,Son en Breugel,Noord-Brabant,VBO,5.484762,51.533089
Meikever,42,,,5692VS,Son en Breugel,Son en Breugel,Noord-Brabant,VBO,5.484686,51.533076
Meikever,44,,,5692VS,Son en Breugel,Son en Breugel,Noord-Brabant,VBO,5.484604,51.533059
Meikever,46,,,5692VS,Son en Breugel,Son en Breugel,Noord-Brabant,VBO,5.484567,51.532998
Keverlaan,6,,,5692VT,Son en Breugel,Son en Breugel,Noord-Brabant,VBO,5.485290,51.530876
Keverlaan,8,,,5692VT,Son en Breugel,Son en Breugel,Noord-Brabant,VBO,5.485246,51.530924
Keverlaan,10,,,5692VT,Son en Breugel,Son en Breugel,Noord-Brabant,VBO,5.485220,51.530965
Keverlaan,12,,,5692VT,Son en Breugel,Son en Breugel,Noord-Brabant,VBO,5.485193,51.531014
Keverlaan,14,,,5692VT,Son en Breugel,Son en Breugel,Noord-Brabant,VBO,5.485168,51.531060
Keverlaan,16,,,5692VT,Son en Breugel,Son en Breugel,Noord-Brabant,VBO,5.485136,51.531128
Keverlaan,18,,,5692VT,Son en Breugel,Son en Breugel,Noord-Brabant,VBO,5.485123,51.531181
Keverlaan,20,,,5692VT,Son en Breugel,Son en Breugel,Noord-Brabant,VBO,5.485092,51.531230
Keverlaan,22,,,5692VT,Son en Breugel,Son en Breugel,Noord-Brabant,VBO,5.485066,51.531271
Keverlaan,24,,,5692VT,Son en Breugel,Son en Breugel,Noord-Brabant,VBO,5.485079,51.531327
Keverlaan,26,,,5692VT,Son en Breugel,Son en Breugel,Noord-Brabant,VBO,5.484971,51.531496
Keverlaan,28,,,5692VT,Son en Breugel,Son en Breugel,Noord-Brabant,VBO,5.484922,51.531539
Keverlaan,30,,,5692VT,Son en Breugel,Son en Breugel,Noord-Brabant,VBO,5.484889,51.531580
Keverlaan,32,,,5692VT,Son en Breugel,Son en Breugel,Noord-Brabant,VBO,5.484863,51.531625
Keverlaan,34,,,5692VT,Son en Breugel,Son en Breugel,Noord-Brabant,VBO,5.484838,51.531675
Keverlaan,36,,,5692VT,Son en Breugel,Son en Breugel,Noord-Brabant,VBO,5.484824,51.531751
Keverlaan,38,,,5692VT,Son en Breugel,Son en Breugel,Noord-Brabant,VBO,5.484793,51.531794
Keverlaan,40,,,5692VT,Son en Breugel,Son en Breugel,Noord-Brabant,VBO,5.484767,51.531841
Keverlaan,42,,,5692VT,Son en Breugel,Son en Breugel,Noord-Brabant,VBO,5.484738,51.531886
Keverlaan,44,,,5692VT,Son en Breugel,Son en Breugel,Noord-Brabant,VBO,5.484744,51.531937
Keverlaan,46,,,5692VV,Son en Breugel,Son en Breugel,Noord-Brabant,VBO,5.484583,51.532244
Keverlaan,48,,,5692VV,Son en Breugel,Son en Breugel,Noord-Brabant,VBO,5.484522,51.532288
Keverlaan,50,,,5692VV,Son en Breugel,Son en Breugel,Noord-Brabant,VBO,5.484495,51.532336
Keverlaan,52,,,5692VV,Son en Breugel,Son en Breugel,Noord-Brabant,VBO,5.484482,51.532380
Keverlaan,54,,,5692VV,Son en Breugel,Son en Breugel,Noord-Brabant,VBO,5.484471,51.532427
Keverlaan,56,,,5692VV,Son en Breugel,Son en Breugel,Noord-Brabant,VBO,5.484429,51.532500
Keverlaan,58,,,5692VV,Son en Breugel,Son en Breugel,Noord-Brabant,VBO,5.484404,51.532545
Keverlaan,60,,,5692VV,Son en Breugel,Son en Breugel,Noord-Brabant,VBO,5.484368,51.532593
Keverlaan,62,,,5692VV,Son en Breugel,Son en Breugel,Noord-Brabant,VBO,5.484345,51.532638
Keverlaan,64,,,5692VV,Son en Breugel,Son en Breugel,Noord-Brabant,VBO,5.484363,51.532690
Keverlaan,66,,,5692VV,Son en Breugel,Son en Breugel,Noord-Brabant,VBO,5.484281,51.532870
Keverlaan,68,,,5692VV,Son en Breugel,Son en Breugel,Noord-Brabant,VBO,5.484213,51.532910
Keverlaan,70,,,5692VV,Son en Breugel,Son en Breugel,Noord-Brabant,VBO,5.484186,51.532955
Keverlaan,72,,,5692VV,Son en Breugel,Son en Breugel,Noord-Brabant,VBO,5.484167,51.532999
Keverlaan,74,,,5692VV,Son en Breugel,Son en Breugel,Noord-Brabant,VBO,5.484158,51.533052
Keverlaan,76,,,5692VV,Son en Breugel,Son en Breugel,Noord-Brabant,VBO,5.484122,51.533125
Keverlaan,78,,,5692VV,Son en Breugel,Son en Breugel,Noord-Brabant,VBO,5.484089,51.533170
Keverlaan,80,,,5692VV,Son en Breugel,Son en Breugel,Noord-Brabant,VBO,5.484067,51.533213
Keverlaan,82,,,5692VV,Son en Breugel,Son en Breugel,Noord-Brabant,VBO,5.484046,51.533262
Keverlaan,84,,,5692VV,Son en Breugel,Son en Breugel,Noord-Brabant,VBO,5.484065,51.533317
Libellenlaan,1,,,5692WB,Son en Breugel,Son en Breugel,Noord-Brabant,VBO,5.482504,51.530025
Libellenlaan,3,,,5692WB,Son en Breugel,Son en Breugel,Noord-Brabant,VBO,5.482481,51.530106
Libellenlaan,5,,,5692WB,Son en Breugel,Son en Breugel,Noord-Brabant,VBO,5.482450,51.530197
Libellenlaan,7,,,5692WB,Son en Breugel,Son en Breugel,Noord-Brabant,VBO,5.482415,51.530278
Libellenlaan,9,,,5692WB,Son en Breugel,Son en Breugel,Noord-Brabant,VBO,5.482378,51.530364
Libellenlaan,11,,,5692WB,Son en Breugel,Son en Breugel,Noord-Brabant,VBO,5.482344,51.530441
Libellenlaan,2,,,5692WD,Son en Breugel,Son en Breugel,Noord-Brabant,VBO,5.484389,51.533356
Libellenlaan,4,,,5692WD,Son en Breugel,Son en Breugel,Noord-Brabant,VBO,5.484465,51.533370
Libellenlaan,6,,,5692WD,Son en Breugel,Son en Breugel,Noord-Brabant,VBO,5.484538,51.533383
Libellenlaan,8,,,5692WD,Son en Breugel,Son en Breugel,Noord-Brabant,VBO,5.484614,51.533398
Libellenlaan,10,,,5692WD,Son en Breugel,Son en Breugel,Noord-Brabant,VBO,5.484721,51.533442
Libellenlaan,12,,,5692WD,Son en Breugel,Son en Breugel,Noord-Brabant,VBO,5.484797,51.533455
Libellenlaan,14,,,5692WD,Son en Breugel,Son en Breugel,Noord-Brabant,VBO,5.484864,51.533475
Libellenlaan,16,,,5692WD,Son en Breugel,Son en Breugel,Noord-Brabant,VBO,5.484944,51.533488
Libellenlaan,18,,,5692WD,Son en Breugel,Son en Breugel,Noord-Brabant,VBO,5.485017,51.533502
Libellenlaan,20,,,5692WD,Son en Breugel,Son en Breugel,Noord-Brabant,VBO,5.485299,51.533556
Libellenlaan,22,,,5692WD,Son en Breugel,Son en Breugel,Noord-Brabant,VBO,5.485375,51.533568
Libellenlaan,24,,,5692WD,Son en Breugel,Son en Breugel,Noord-Brabant,VBO,5.485454,51.533578
Libellenlaan,26,,,5692WD,Son en Breugel,Son en Breugel,Noord-Brabant,VBO,5.485526,51.533596
Libellenlaan,28,,,5692WD,Son en Breugel,Son en Breugel,Noord-Brabant,VBO,5.485667,51.533577
Libellenlaan,30,,,5692WD,Son en Breugel,Son en Breugel,Noord-Brabant,VBO,5.485740,51.533587
Libellenlaan,32,,,5692WD,Son en Breugel,Son en Breugel,Noord-Brabant,VBO,5.485810,51.533605
Libellenlaan,34,,,5692WD,Son en Breugel,Son en Breugel,Noord-Brabant,VBO,5.485890,51.533622
Libellenlaan,36,,,5692WD,Son en Breugel,Son en Breugel,Noord-Brabant,VBO,5.485957,51.533635
Libellenlaan,38,,,5692WD,Son en Breugel,Son en Breugel,Noord-Brabant,VBO,5.486058,51.533699
Libellenlaan,40,,,5692WD,Son en Breugel,Son en Breugel,Noord-Brabant,VBO,5.486135,51.533712
Libellenlaan,42,,,5692WD,Son en Breugel,Son en Breugel,Noord-Brabant,VBO,5.486211,51.533731
Libellenlaan,44,,,5692WD,Son en Breugel,Son en Breugel,Noord-Brabant,VBO,5.486283,51.533742
Libellenlaan,46,,,5692WD,Son en Breugel,Son en Breugel,Noord-Brabant,VBO,5.486354,51.533752
Viervleklibel,15,,,5692WG,Son en Breugel,Son en Breugel,Noord-Brabant,VBO,5.480879,51.530211
Keizerlibel,1,,,5692WJ,Son en Breugel,Son en Breugel,Noord-Brabant,VBO,5.481822,51.531785
Keizerlibel,5,,,5692WJ,Son en Breugel,Son en Breugel,Noord-Brabant,VBO,5.481311,51.531898
Keizerlibel,7,,,5692WJ,Son en Breugel,Son en Breugel,Noord-Brabant,VBO,5.481105,51.531959
Vuurlibel,11,,,5692WL,Son en Breugel,Son en Breugel,Noord-Brabant,VBO,5.482649,51.534169
Vuurlibel,13,,,5692WL,Son en Breugel,Son en Breugel,Noord-Brabant,VBO,5.482628,51.534220
Snuitlibel,2,,,5692WS,Son en Breugel,Son en Breugel,Noord-Brabant,VBO,5.487281,51.535187
Snuitlibel,4,,,5692WS,Son en Breugel,Son en Breugel,Noord-Brabant,VBO,5.487150,51.535260
Snuitlibel,6,,,5692WS,Son en Breugel,Son en Breugel,Noord-Brabant,VBO,5.487186,51.535401
Snuitlibel,8,,,5692WS,Son en Breugel,Son en Breugel,Noord-Brabant,VBO,5.486982,51.535361
Snuitlibel,10,,,5692WS,Son en Breugel,Son en Breugel,Noord-Brabant,VBO,5.487016,51.535217
Snuitlibel,12,,,5692WS,Son en Breugel,Son en Breugel,Noord-Brabant,VBO,5.487047,51.535137
Snuitlibel,14,,,5692WS,Son en Breugel,Son en Breugel,Noord-Brabant,VBO,5.487251,51.535181
Snuitlibel,16,,,5692WS,Son en Breugel,Son en Breugel,Noord-Brabant,VBO,5.487207,51.535294
Snuitlibel,18,,,5692WS,Son en Breugel,Son en Breugel,Noord-Brabant,VBO,5.487179,51.535386
Snuitlibel,20,,,5692WS,Son en Breugel,Son en Breugel,Noord-Brabant,VBO,5.487005,51.535347
Snuitlibel,22,,,5692WS,Son en Breugel,Son en Breugel,Noord-Brabant,VBO,5.487054,51.535225
Snuitlibel,24,,,5692WS,Son en Breugel,Son en Breugel,Noord-Brabant,VBO,5.487085,51.535148
Snuitlibel,26,,,5692WS,Son en Breugel,Son en Breugel,Noord-Brabant,VBO,5.487213,51.535186
Snuitlibel,28,,,5692WS,Son en Breugel,Son en Breugel,Noord-Brabant,VBO,5.487200,51.535318
Snuitlibel,30,,,5692WS,Son en Breugel,Son en Breugel,Noord-Brabant,VBO,5.487158,51.535368
Snuitlibel,32,,,5692WS,Son en Breugel,Son en Breugel,Noord-Brabant,VBO,5.487024,51.535330
Snuitlibel,34,,,5692WS,Son en Breugel,Son en Breugel,Noord-Brabant,VBO,5.487075,51.535206
Snuitlibel,36,,,5692WS,Son en Breugel,Son en Breugel,Noord-Brabant,VBO,5.487062,51.535169
Snuitlibel,38,,,5692WS,Son en Breugel,Son en Breugel,Noord-Brabant,VBO,5.487209,51.535211
Snuitlibel,40,,,5692WS,Son en Breugel,Son en Breugel,Noord-Brabant,VBO,5.487165,51.535330
Snuitlibel,42,,,5692WS,Son en Breugel,Son en Breugel,Noord-Brabant,VBO,5.487184,51.535361
Snuitlibel,44,,,5692WS,Son en Breugel,Son en Breugel,Noord-Brabant,VBO,5.487032,51.535306
Beekjuffer,2,,,5692WT,Son en Breugel,Son en Breugel,Noord-Brabant,VBO,5.480653,51.529850
Beekjuffer,4,,,5692WT,Son en Breugel,Son en Breugel,Noord-Brabant,VBO,5.480608,51.529973
Beekjuffer,6,,,5692WT,Son en Breugel,Son en Breugel,Noord-Brabant,VBO,5.480580,51.530096
Beekjuffer,8,,,5692WT,Son en Breugel,Son en Breugel,Noord-Brabant,VBO,5.480500,51.530219
Waterjuffer,3,,,5692WV,Son en Breugel,Son en Breugel,Noord-Brabant,VBO,5.478552,51.530012
Waterjuffer,9,,,5692WV,Son en Breugel,Son en Breugel,Noord-Brabant,VBO,5.478379,51.530324
Waterjuffer,11,,,5692WV,Son en Breugel,Son en Breugel,Noord-Brabant,VBO,5.478345,51.530446
Waterjuffer,13,,,5692WV,Son en Breugel,Son en Breugel,Noord-Brabant,VBO,5.478334,51.530578
Jufferlaan,4,,,5692WZ,Son en Breugel,Son en Breugel,Noord-Brabant,VBO,5.477814,51.529927
Jufferlaan,6,,,5692WZ,Son en Breugel,Son en Breugel,Noord-Brabant,VBO,5.477810,51.530053
Jufferlaan,8,,,5692WZ,Son en Breugel,Son en Breugel,Noord-Brabant,VBO,5.477728,51.530167
Jufferlaan,12,,,5692WZ,Son en Breugel,Son en Breugel,Noord-Brabant,VBO,5.477617,51.530418
Jufferlaan,16,,,5692WZ,Son en Breugel,Son en Breugel,Noord-Brabant,VBO,5.477413,51.530796
Jufferlaan,22,,,5692WZ,Son en Breugel,Son en Breugel,Noord-Brabant,VBO,5.478054,51.530975
Jufferlaan,36,,,5692WZ,Son en Breugel,Son en Breugel,Noord-Brabant,VBO,5.479942,51.531811
Jufferlaan,38,,,5692WZ,Son en Breugel,Son en Breugel,Noord-Brabant,VBO,5.479988,51.531863
Jufferlaan,40,,,5692WZ,Son en Breugel,Son en Breugel,Noord-Brabant,VBO,5.480114,51.531955
Jufferlaan,42,,,5692WZ,Son en Breugel,Son en Breugel,Noord-Brabant,VBO,5.480149,51.532017
Jufferlaan,44,,,5692WZ,Son en Breugel,Son en Breugel,Noord-Brabant,VBO,5.480302,51.532125
Jufferlaan,86,,,5692WZ,Son en Breugel,Son en Breugel,Noord-Brabant,VBO,5.481823,51.533796
Jufferlaan,88,,,5692WZ,Son en Breugel,Son en Breugel,Noord-Brabant,VBO,5.481863,51.533917
Jufferlaan,90,,,5692WZ,Son en Breugel,Son en Breugel,Noord-Brabant,VBO,5.481863,51.533971
Jufferlaan,96,,,5692WZ,Son en Breugel,Son en Breugel,Noord-Brabant,VBO,5.482207,51.534365
Jufferlaan,98,,,5692WZ,Son en Breugel,Son en Breugel,Noord-Brabant,VBO,5.482316,51.534389
Jufferlaan,100,,,5692WZ,Son en Breugel,Son en Breugel,Noord-Brabant,VBO,5.482521,51.534389
