openbareruimtenaam,huisnummer,huisletter,huisnummertoevoeging,postcode,woonplaatsnaam,gemeentenaam,provincienaam,typeadresseerbaarobject,longitude,latitude
Vlierdenseweg,5,,,5753AA,Deurne,Deurne,Noord-Brabant,VBO,5.783698,51.455896
Vlierdenseweg,7,,,5753AA,Deurne,Deurne,Noord-Brabant,VBO,5.783611,51.455852
Vlierdenseweg,9,,,5753AA,Deurne,Deurne,Noord-Brabant,VBO,5.783510,51.455771
Vlierdenseweg,13,,,5753AA,Deurne,Deurne,Noord-Brabant,VBO,5.783264,51.455592
Vlierdenseweg,15,,,5753AA,Deurne,Deurne,Noord-Brabant,VBO,5.783133,51.455485
Vlierdenseweg,17,,,5753AA,Deurne,Deurne,Noord-Brabant,VBO,5.783075,51.455440
Vlierdenseweg,19,,,5753AA,Deurne,Deurne,Noord-Brabant,VBO,5.782960,51.455351
Vlierdenseweg,21,,,5753AA,Deurne,Deurne,Noord-Brabant,VBO,5.782844,51.455261
Vlierdenseweg,23,,,5753AA,Deurne,Deurne,Noord-Brabant,VBO,5.782742,51.455181
Vlierdenseweg,25,,,5753AA,Deurne,Deurne,Noord-Brabant,VBO,5.782655,51.455127
Vlierdenseweg,31,,,5753AB,Deurne,Deurne,Noord-Brabant,VBO,5.781815,51.454492
Vlierdenseweg,35,,,5753AB,Deurne,Deurne,Noord-Brabant,VBO,5.781699,51.454393
Vlierdenseweg,37,,,5753AB,Deurne,Deurne,Noord-Brabant,VBO,5.781569,51.454304
Vlierdenseweg,39,,,5753AB,Deurne,Deurne,Noord-Brabant,VBO,5.781497,51.454259
Vlierdenseweg,43,a,,5753AB,Deurne,Deurne,Noord-Brabant,VBO,5.781351,51.454035
Vlierdenseweg,43,,,5753AB,Deurne,Deurne,Noord-Brabant,VBO,5.781338,51.454134
Vlierdenseweg,47,,,5753AB,Deurne,Deurne,Noord-Brabant,VBO,5.781178,51.453999
Vlierdenseweg,49,,,5753AB,Deurne,Deurne,Noord-Brabant,VBO,5.781091,51.453937
Vlierdenseweg,51,,,5753AB,Deurne,Deurne,Noord-Brabant,VBO,5.780961,51.453838
Vlierdenseweg,55,,,5753AB,Deurne,Deurne,Noord-Brabant,VBO,5.780773,51.453704
Vlierdenseweg,57,,,5753AB,Deurne,Deurne,Noord-Brabant,VBO,5.780686,51.453632
Vlierdenseweg,59,,,5753AB,Deurne,Deurne,Noord-Brabant,VBO,5.780599,51.453561
Vlierdenseweg,63,,,5753AB,Deurne,Deurne,Noord-Brabant,VBO,5.780482,51.453355
Vlierdenseweg,65,,,5753AB,Deurne,Deurne,Noord-Brabant,VBO,5.780280,51.453328
Vlierdenseweg,69,,,5753AB,Deurne,Deurne,Noord-Brabant,VBO,5.780120,51.453086
Vlierdenseweg,71,,,5753AB,Deurne,Deurne,Noord-Brabant,VBO,5.780004,51.452988
Vlierdenseweg,73,,,5753AB,Deurne,Deurne,Noord-Brabant,VBO,5.779830,51.452871
Vlierdenseweg,75,,,5753AB,Deurne,Deurne,Noord-Brabant,VBO,5.779715,51.452782
Vlierdenseweg,81,,,5753AB,Deurne,Deurne,Noord-Brabant,VBO,5.779106,51.452334
Vlierdenseweg,89,,,5753AC,Deurne,Deurne,Noord-Brabant,VBO,5.778802,51.452111
Vlierdenseweg,91,,,5753AC,Deurne,Deurne,Noord-Brabant,VBO,5.778426,51.451788
Vlierdenseweg,93,a,,5753AC,Deurne,Deurne,Noord-Brabant,VBO,5.778064,51.451574
Vlierdenseweg,93,,,5753AC,Deurne,Deurne,Noord-Brabant,VBO,5.778194,51.451654
Vlierdenseweg,95,,,5753AC,Deurne,Deurne,Noord-Brabant,VBO,5.777891,51.451494
Vlierdenseweg,97,a,,5753AC,Deurne,Deurne,Noord-Brabant,VBO,5.777630,51.451234
Vlierdenseweg,97,b,,5753AC,Deurne,Deurne,Noord-Brabant,VBO,5.777248,51.450951
Vlierdenseweg,99,,,5753AC,Deurne,Deurne,Noord-Brabant,VBO,5.777094,51.450795
Vlierdenseweg,101,,,5753AC,Deurne,Deurne,Noord-Brabant,VBO,5.776876,51.450634
Vlierdenseweg,103,,,5753AC,Deurne,Deurne,Noord-Brabant,VBO,5.776760,51.450437
Vlierdenseweg,105,,,5753AC,Deurne,Deurne,Noord-Brabant,VBO,5.776557,51.450285
Vlierdenseweg,107,,,5753AC,Deurne,Deurne,Noord-Brabant,VBO,5.777516,51.449724
Vlierdenseweg,109,a,,5753AC,Deurne,Deurne,Noord-Brabant,VBO,5.777900,51.449183
Vlierdenseweg,109,,,5753AC,Deurne,Deurne,Noord-Brabant,VBO,5.777196,51.449062
Vlierdenseweg,113,,,5753AC,Deurne,Deurne,Noord-Brabant,VBO,5.774371,51.448701
Vlierdenseweg,115,,,5753AC,Deurne,Deurne,Noord-Brabant,VBO,5.774299,51.448647
Vlierdenseweg,119,a,,5753AC,Deurne,Deurne,Noord-Brabant,VBO,5.772394,51.446693
Vlierdenseweg,119,b,,5753AC,Deurne,Deurne,Noord-Brabant,VBO,5.772530,51.446618
Vlierdenseweg,119,,,5753AC,Deurne,Deurne,Noord-Brabant,VBO,5.771913,51.446988
Vlierdenseweg,123,,,5753AC,Deurne,Deurne,Noord-Brabant,VBO,5.770110,51.446603
Vlierdenseweg,4,,,5753AD,Deurne,Deurne,Noord-Brabant,VBO,5.782982,51.456452
Vlierdenseweg,6,,,5753AD,Deurne,Deurne,Noord-Brabant,VBO,5.783455,51.456095
Vlierdenseweg,8,,,5753AD,Deurne,Deurne,Noord-Brabant,VBO,5.783249,51.455924
Vlierdenseweg,10,a,,5753AD,Deurne,Deurne,Noord-Brabant,VBO,5.783194,51.455889
Vlierdenseweg,10,,,5753AD,Deurne,Deurne,Noord-Brabant,VBO,5.783035,51.455746
Vlierdenseweg,12,,,5753AD,Deurne,Deurne,Noord-Brabant,VBO,5.782948,51.455683
Vlierdenseweg,14,,,5753AD,Deurne,Deurne,Noord-Brabant,VBO,5.782803,51.455576
Vlierdenseweg,16,,,5753AD,Deurne,Deurne,Noord-Brabant,VBO,5.782760,51.455540
Vlierdenseweg,18,,,5753AD,Deurne,Deurne,Noord-Brabant,VBO,5.782687,51.455495
Vlierdenseweg,20,,,5753AD,Deurne,Deurne,Noord-Brabant,VBO,5.782629,51.455442
Vlierdenseweg,22,,,5753AD,Deurne,Deurne,Noord-Brabant,VBO,5.782557,51.455388
Vlierdenseweg,24,,,5753AD,Deurne,Deurne,Noord-Brabant,VBO,5.782456,51.455307
Vlierdenseweg,26,,,5753AD,Deurne,Deurne,Noord-Brabant,VBO,5.782368,51.455200
Vlierdenseweg,28,,,5753AE,Deurne,Deurne,Noord-Brabant,VBO,5.781833,51.454833
Vlierdenseweg,30,,,5753AE,Deurne,Deurne,Noord-Brabant,VBO,5.781775,51.454788
Vlierdenseweg,32,,,5753AE,Deurne,Deurne,Noord-Brabant,VBO,5.781573,51.454753
Vlierdenseweg,34,,,5753AE,Deurne,Deurne,Noord-Brabant,VBO,5.781472,51.454655
Vlierdenseweg,36,,,5753AE,Deurne,Deurne,Noord-Brabant,VBO,5.781341,51.454565
Vlierdenseweg,38,,,5753AE,Deurne,Deurne,Noord-Brabant,VBO,5.781225,51.454467
Vlierdenseweg,40,,,5753AE,Deurne,Deurne,Noord-Brabant,VBO,5.781095,51.454368
Vlierdenseweg,42,,,5753AE,Deurne,Deurne,Noord-Brabant,VBO,5.781037,51.454323
Vlierdenseweg,44,,,5753AE,Deurne,Deurne,Noord-Brabant,VBO,5.780892,51.454216
Vlierdenseweg,46,,,5753AE,Deurne,Deurne,Noord-Brabant,VBO,5.780820,51.454162
Vlierdenseweg,48,,,5753AE,Deurne,Deurne,Noord-Brabant,VBO,5.780689,51.454055
Vlierdenseweg,50,,,5753AE,Deurne,Deurne,Noord-Brabant,VBO,5.780328,51.453894
Vlierdenseweg,52,,,5753AE,Deurne,Deurne,Noord-Brabant,VBO,5.780198,51.453796
Vlierdenseweg,54,,,5753AE,Deurne,Deurne,Noord-Brabant,VBO,5.780068,51.453697
Vlierdenseweg,56,,,5753AE,Deurne,Deurne,Noord-Brabant,VBO,5.779952,51.453608
Vlierdenseweg,58,,,5753AE,Deurne,Deurne,Noord-Brabant,VBO,5.779822,51.453510
Vlierdenseweg,60,,,5753AE,Deurne,Deurne,Noord-Brabant,VBO,5.779691,51.453411
Vlierdenseweg,62,,,5753AE,Deurne,Deurne,Noord-Brabant,VBO,5.779575,51.453322
Vlierdenseweg,64,,,5753AE,Deurne,Deurne,Noord-Brabant,VBO,5.779445,51.453232
Vlierdenseweg,66,,,5753AE,Deurne,Deurne,Noord-Brabant,VBO,5.779315,51.453125
Vlierdenseweg,68,,,5753AE,Deurne,Deurne,Noord-Brabant,VBO,5.779184,51.453026
Vlierdenseweg,70,,,5753AE,Deurne,Deurne,Noord-Brabant,VBO,5.779068,51.452937
Vlierdenseweg,72,,,5753AE,Deurne,Deurne,Noord-Brabant,VBO,5.778924,51.452829
Vlierdenseweg,84,,,5753AG,Deurne,Deurne,Noord-Brabant,VBO,5.777796,51.451986
Vlierdenseweg,86,,,5753AG,Deurne,Deurne,Noord-Brabant,VBO,5.777605,51.451764
Vlierdenseweg,88,,,5753AG,Deurne,Deurne,Noord-Brabant,VBO,5.777562,51.451728
Vlierdenseweg,90,,,5753AG,Deurne,Deurne,Noord-Brabant,VBO,5.777244,51.451557
Vlierdenseweg,92,a,,5753AG,Deurne,Deurne,Noord-Brabant,VBO,5.776680,51.451174
Vlierdenseweg,92,c,,5753AG,Deurne,Deurne,Noord-Brabant,VBO,5.776332,51.450888
Vlierdenseweg,92,,,5753AG,Deurne,Deurne,Noord-Brabant,VBO,5.776853,51.451272
Vlierdenseweg,94,,,5753AG,Deurne,Deurne,Noord-Brabant,VBO,5.776012,51.450547
Vlierdenseweg,96,,,5753AG,Deurne,Deurne,Noord-Brabant,VBO,5.775954,51.450502
Vlierdenseweg,98,,,5753AG,Deurne,Deurne,Noord-Brabant,VBO,5.775795,51.450386
Vlierdenseweg,100,z,,5753AG,Deurne,Deurne,Noord-Brabant,VBO,5.775482,51.450416
Vlierdenseweg,100,,,5753AG,Deurne,Deurne,Noord-Brabant,VBO,5.775723,51.450332
Vlierdenseweg,104,,,5753AG,Deurne,Deurne,Noord-Brabant,VBO,5.774464,51.449474
Vlierdenseweg,106,,,5753AG,Deurne,Deurne,Noord-Brabant,VBO,5.773641,51.449144
Vlierdenseweg,114,,,5753AG,Deurne,Deurne,Noord-Brabant,VBO,5.772597,51.448158
Vlierdenseweg,116,,,5753AG,Deurne,Deurne,Noord-Brabant,VBO,5.771931,51.447630
Vlierdenseweg,122,,,5753AG,Deurne,Deurne,Noord-Brabant,VBO,5.768398,51.446626
Fabriekstraat,2,a,,5753AH,Deurne,Deurne,Noord-Brabant,VBO,5.784072,51.455841
Fabriekstraat,2,,,5753AH,Deurne,Deurne,Noord-Brabant,VBO,5.784014,51.455841
Fabriekstraat,4,,,5753AH,Deurne,Deurne,Noord-Brabant,VBO,5.784230,51.455832
Fabriekstraat,6,a,,5753AH,Deurne,Deurne,Noord-Brabant,VBO,5.784731,51.455868
Fabriekstraat,6,b,,5753AH,Deurne,Deurne,Noord-Brabant,VBO,5.784803,51.455862
Fabriekstraat,6,c,,5753AH,Deurne,Deurne,Noord-Brabant,VBO,5.784875,51.455858
Fabriekstraat,6,d,,5753AH,Deurne,Deurne,Noord-Brabant,VBO,5.784948,51.455855
Fabriekstraat,6,e,,5753AH,Deurne,Deurne,Noord-Brabant,VBO,5.785022,51.455850
Fabriekstraat,6,f,,5753AH,Deurne,Deurne,Noord-Brabant,VBO,5.785098,51.455847
Fabriekstraat,6,g,,5753AH,Deurne,Deurne,Noord-Brabant,VBO,5.785167,51.455839
Fabriekstraat,6,h,,5753AH,Deurne,Deurne,Noord-Brabant,VBO,5.785240,51.455834
Fabriekstraat,6,j,,5753AH,Deurne,Deurne,Noord-Brabant,VBO,5.785313,51.455830
Fabriekstraat,6,k,,5753AH,Deurne,Deurne,Noord-Brabant,VBO,5.785391,51.455825
Fabriekstraat,6,,,5753AH,Deurne,Deurne,Noord-Brabant,VBO,5.784656,51.455870
Fabriekstraat,8,a,,5753AH,Deurne,Deurne,Noord-Brabant,VBO,5.785710,51.455791
Fabriekstraat,8,b,,5753AH,Deurne,Deurne,Noord-Brabant,VBO,5.785781,51.455787
Fabriekstraat,8,c,,5753AH,Deurne,Deurne,Noord-Brabant,VBO,5.785856,51.455783
Fabriekstraat,8,d,,5753AH,Deurne,Deurne,Noord-Brabant,VBO,5.785932,51.455779
Fabriekstraat,8,e,,5753AH,Deurne,Deurne,Noord-Brabant,VBO,5.786003,51.455768
Fabriekstraat,8,f,,5753AH,Deurne,Deurne,Noord-Brabant,VBO,5.786074,51.455759
Fabriekstraat,8,g,,5753AH,Deurne,Deurne,Noord-Brabant,VBO,5.786147,51.455760
Fabriekstraat,8,h,,5753AH,Deurne,Deurne,Noord-Brabant,VBO,5.786221,51.455752
Fabriekstraat,8,j,,5753AH,Deurne,Deurne,Noord-Brabant,VBO,5.786301,51.455749
Fabriekstraat,8,k,,5753AH,Deurne,Deurne,Noord-Brabant,VBO,5.786367,51.455744
Fabriekstraat,8,,,5753AH,Deurne,Deurne,Noord-Brabant,VBO,5.785635,51.455800
Fabriekstraat,10,a,,5753AH,Deurne,Deurne,Noord-Brabant,VBO,5.786553,51.455746
Fabriekstraat,10,b,,5753AH,Deurne,Deurne,Noord-Brabant,VBO,5.786624,51.455742
Fabriekstraat,10,c,,5753AH,Deurne,Deurne,Noord-Brabant,VBO,5.786694,51.455737
Fabriekstraat,10,d,,5753AH,Deurne,Deurne,Noord-Brabant,VBO,5.786769,51.455732
Fabriekstraat,10,e,,5753AH,Deurne,Deurne,Noord-Brabant,VBO,5.786841,51.455728
Fabriekstraat,10,f,,5753AH,Deurne,Deurne,Noord-Brabant,VBO,5.786915,51.455723
Fabriekstraat,10,g,,5753AH,Deurne,Deurne,Noord-Brabant,VBO,5.786990,51.455719
Fabriekstraat,10,h,,5753AH,Deurne,Deurne,Noord-Brabant,VBO,5.787062,51.455713
Fabriekstraat,10,j,,5753AH,Deurne,Deurne,Noord-Brabant,VBO,5.787135,51.455708
Fabriekstraat,10,k,,5753AH,Deurne,Deurne,Noord-Brabant,VBO,5.787211,51.455708
Fabriekstraat,10,,,5753AH,Deurne,Deurne,Noord-Brabant,VBO,5.786473,51.455747
Fabriekstraat,22,a,,5753AH,Deurne,Deurne,Noord-Brabant,VBO,5.790814,51.455171
Fabriekstraat,22,,,5753AH,Deurne,Deurne,Noord-Brabant,VBO,5.789291,51.455419
Fabriekstraat,24,b,,5753AH,Deurne,Deurne,Noord-Brabant,VBO,5.792077,51.454834
Fabriekstraat,24,,,5753AH,Deurne,Deurne,Noord-Brabant,VBO,5.792650,51.454956
Fabriekstraat,25,,,5753AH,Deurne,Deurne,Noord-Brabant,VBO,5.795669,51.454300
Fabriekstraat,27,a,,5753AH,Deurne,Deurne,Noord-Brabant,VBO,5.795511,51.454408
Fabriekstraat,27,,,5753AH,Deurne,Deurne,Noord-Brabant,VBO,5.795368,51.454454
Fabriekstraat,28,a,,5753AH,Deurne,Deurne,Noord-Brabant,VBO,5.793300,51.454848
Fabriekstraat,29,,,5753AH,Deurne,Deurne,Noord-Brabant,VBO,5.794876,51.454624
Fabriekstraat,30,a,,5753AH,Deurne,Deurne,Noord-Brabant,VBO,5.794262,51.454683
Fabriekstraat,30,,,5753AH,Deurne,Deurne,Noord-Brabant,VBO,5.793975,51.454773
Fabriekstraat,31,,,5753AH,Deurne,Deurne,Noord-Brabant,VBO,5.794850,51.454429
Fabriekstraat,32,a,,5753AH,Deurne,Deurne,Noord-Brabant,VBO,5.793770,51.454379
Fabriekstraat,32,,,5753AH,Deurne,Deurne,Noord-Brabant,VBO,5.794405,51.454529
Fabriekstraat,33,a,,5753AH,Deurne,Deurne,Noord-Brabant,VBO,5.795250,51.454095
Fabriekstraat,33,,,5753AH,Deurne,Deurne,Noord-Brabant,VBO,5.795250,51.454095
Fabriekstraat,34,a,,5753AH,Deurne,Deurne,Noord-Brabant,VBO,5.794216,51.454332
Fabriekstraat,34,,,5753AH,Deurne,Deurne,Noord-Brabant,VBO,5.794518,51.454277
Fabriekstraat,35,,,5753AH,Deurne,Deurne,Noord-Brabant,VBO,5.795220,51.453960
Fabriekstraat,36,,,5753AH,Deurne,Deurne,Noord-Brabant,VBO,5.794602,51.454097
Fabriekstraat,38,,,5753AH,Deurne,Deurne,Noord-Brabant,VBO,5.795213,51.453250
Fabriekstraat,39,,,5753AH,Deurne,Deurne,Noord-Brabant,VBO,5.796195,51.453669
Fabriekstraat,40,a,,5753AH,Deurne,Deurne,Noord-Brabant,VBO,5.795733,51.453337
Fabriekstraat,40,,,5753AH,Deurne,Deurne,Noord-Brabant,VBO,5.795588,51.453321
Fabriekstraat,41,,,5753AH,Deurne,Deurne,Noord-Brabant,VBO,5.796440,51.453713
Fabriekstraat,42,,,5753AH,Deurne,Deurne,Noord-Brabant,VBO,5.795866,51.453354
Steenovenweg,1,,,5753AJ,Deurne,Deurne,Noord-Brabant,VBO,5.782781,51.454641
Steenovenweg,3,,,5753AJ,Deurne,Deurne,Noord-Brabant,VBO,5.782882,51.454668
Steenovenweg,5,,,5753AJ,Deurne,Deurne,Noord-Brabant,VBO,5.783112,51.454730
Steenovenweg,7,,,5753AJ,Deurne,Deurne,Noord-Brabant,VBO,5.783228,51.454756
Steenovenweg,9,,,5753AJ,Deurne,Deurne,Noord-Brabant,VBO,5.783458,51.454810
Steenovenweg,11,,,5753AJ,Deurne,Deurne,Noord-Brabant,VBO,5.783531,51.454836
Steenovenweg,13,,,5753AJ,Deurne,Deurne,Noord-Brabant,VBO,5.783776,51.454898
Steenovenweg,15,,,5753AJ,Deurne,Deurne,Noord-Brabant,VBO,5.783891,51.454943
Steenovenweg,17,a,,5753AJ,Deurne,Deurne,Noord-Brabant,VBO,5.784909,51.454926
Steenovenweg,17,,,5753AJ,Deurne,Deurne,Noord-Brabant,VBO,5.784826,51.454930
Steenovenweg,19,a,,5753AJ,Deurne,Deurne,Noord-Brabant,VBO,5.785152,51.454904
Steenovenweg,19,,,5753AJ,Deurne,Deurne,Noord-Brabant,VBO,5.785070,51.454912
Steenovenweg,2,,,5753AK,Deurne,Deurne,Noord-Brabant,VBO,5.782937,51.454416
Steenovenweg,4,,,5753AK,Deurne,Deurne,Noord-Brabant,VBO,5.783052,51.454433
Steenovenweg,6,,,5753AK,Deurne,Deurne,Noord-Brabant,VBO,5.783269,51.454496
Steenovenweg,8,,,5753AK,Deurne,Deurne,Noord-Brabant,VBO,5.783384,51.454522
Steenovenweg,10,,,5753AK,Deurne,Deurne,Noord-Brabant,VBO,5.783629,51.454575
Steenovenweg,12,,,5753AK,Deurne,Deurne,Noord-Brabant,VBO,5.783701,51.454593
Steenovenweg,14,,,5753AK,Deurne,Deurne,Noord-Brabant,VBO,5.785169,51.454678
Steenovenweg,16,,,5753AK,Deurne,Deurne,Noord-Brabant,VBO,5.785364,51.454677
Steenovenweg,18,,,5753AK,Deurne,Deurne,Noord-Brabant,VBO,5.785472,51.454672
Steenovenweg,20,,,5753AK,Deurne,Deurne,Noord-Brabant,VBO,5.786205,51.454647
Steenovenweg,22,,,5753AK,Deurne,Deurne,Noord-Brabant,VBO,5.786334,51.454638
Steenovenweg,24,,,5753AK,Deurne,Deurne,Noord-Brabant,VBO,5.786478,51.454575
Steenovenweg,42,,,5753AL,Deurne,Deurne,Noord-Brabant,VBO,5.788089,51.454560
Steenovenweg,44,,,5753AL,Deurne,Deurne,Noord-Brabant,VBO,5.788319,51.454550
Steenovenweg,46,,,5753AL,Deurne,Deurne,Noord-Brabant,VBO,5.788563,51.454505
Steenovenweg,48,,,5753AL,Deurne,Deurne,Noord-Brabant,VBO,5.788650,51.454504
Steenovenweg,54,,,5753AL,Deurne,Deurne,Noord-Brabant,VBO,5.789773,51.454626
Steenovenweg,56,,,5753AL,Deurne,Deurne,Noord-Brabant,VBO,5.789874,51.454635
Steenovenweg,60,,,5753AL,Deurne,Deurne,Noord-Brabant,VBO,5.790463,51.454624
Steenovenweg,62,,,5753AL,Deurne,Deurne,Noord-Brabant,VBO,5.790593,51.454641
Laurens Costerstraat,1,,,5753AM,Deurne,Deurne,Noord-Brabant,VBO,5.789140,51.455282
Laurens Costerstraat,2,,,5753AM,Deurne,Deurne,Noord-Brabant,VBO,5.788687,51.455430
Laurens Costerstraat,4,,,5753AM,Deurne,Deurne,Noord-Brabant,VBO,5.788743,51.455322
Laurens Costerstraat,6,,,5753AM,Deurne,Deurne,Noord-Brabant,VBO,5.788584,51.455188
Jan van Goijenstraat,1,a,,5753AN,Deurne,Deurne,Noord-Brabant,VBO,5.789562,51.453602
Jan van Goijenstraat,1,,,5753AN,Deurne,Deurne,Noord-Brabant,VBO,5.789831,51.453017
Jan van Goijenstraat,2,,,5753AN,Deurne,Deurne,Noord-Brabant,VBO,5.790263,51.453114
Jan van Goijenstraat,3,a,,5753AN,Deurne,Deurne,Noord-Brabant,VBO,5.789464,51.453881
Jan van Goijenstraat,3,,,5753AN,Deurne,Deurne,Noord-Brabant,VBO,5.789506,51.453746
Jan van Goijenstraat,4,,,5753AN,Deurne,Deurne,Noord-Brabant,VBO,5.790193,51.453294
Jan van Goijenstraat,5,a,,5753AN,Deurne,Deurne,Noord-Brabant,VBO,5.789337,51.454178
Jan van Goijenstraat,5,,,5753AN,Deurne,Deurne,Noord-Brabant,VBO,5.789394,51.454034
Jan van Goijenstraat,6,,,5753AN,Deurne,Deurne,Noord-Brabant,VBO,5.790136,51.453411
Jan van Goijenstraat,7,,,5753AN,Deurne,Deurne,Noord-Brabant,VBO,5.789151,51.454314
Jan van Goijenstraat,8,,,5753AN,Deurne,Deurne,Noord-Brabant,VBO,5.790080,51.453537
Jan van Goijenstraat,9,,,5753AN,Deurne,Deurne,Noord-Brabant,VBO,5.789226,51.454565
Jan van Goijenstraat,10,,,5753AN,Deurne,Deurne,Noord-Brabant,VBO,5.790023,51.453664
Jan van Goijenstraat,12,,,5753AN,Deurne,Deurne,Noord-Brabant,VBO,5.790024,51.453726
Jan van Goijenstraat,14,,,5753AN,Deurne,Deurne,Noord-Brabant,VBO,5.789939,51.453853
Jan van Goijenstraat,16,,,5753AN,Deurne,Deurne,Noord-Brabant,VBO,5.789882,51.453988
Jan van Goijenstraat,18,,,5753AN,Deurne,Deurne,Noord-Brabant,VBO,5.789840,51.454096
Jan van Goijenstraat,22,,,5753AN,Deurne,Deurne,Noord-Brabant,VBO,5.789740,51.454177
Jan van Goijenstraat,24,,,5753AN,Deurne,Deurne,Noord-Brabant,VBO,5.789655,51.454366
Steenhof,1,,,5753AP,Deurne,Deurne,Noord-Brabant,VBO,5.783786,51.454395
Steenhof,2,,,5753AP,Deurne,Deurne,Noord-Brabant,VBO,5.783871,51.454278
Steenhof,3,,,5753AP,Deurne,Deurne,Noord-Brabant,VBO,5.784070,51.454052
Steenhof,4,,,5753AP,Deurne,Deurne,Noord-Brabant,VBO,5.784157,51.454079
Steenhof,5,,,5753AP,Deurne,Deurne,Noord-Brabant,VBO,5.784360,51.454213
Steenhof,6,,,5753AP,Deurne,Deurne,Noord-Brabant,VBO,5.784274,51.454339
Steenhof,7,,,5753AP,Deurne,Deurne,Noord-Brabant,VBO,5.784204,51.454474
Steenhof,8,,,5753AP,Deurne,Deurne,Noord-Brabant,VBO,5.784104,51.454619
Sint Jozefstraat,1,,,5753AR,Deurne,Deurne,Noord-Brabant,VBO,5.782480,51.454858
Sint Jozefstraat,11,,,5753AR,Deurne,Deurne,Noord-Brabant,VBO,5.783135,51.454065
Sint Jozefstraat,13,,,5753AR,Deurne,Deurne,Noord-Brabant,VBO,5.783235,51.453956
Sint Jozefstraat,15,,,5753AR,Deurne,Deurne,Noord-Brabant,VBO,5.783349,51.453839
Sint Jozefstraat,17,,,5753AR,Deurne,Deurne,Noord-Brabant,VBO,5.783449,51.453749
Sint Jozefstraat,19,,,5753AR,Deurne,Deurne,Noord-Brabant,VBO,5.783478,51.453704
Sint Jozefstraat,27,,,5753AR,Deurne,Deurne,Noord-Brabant,VBO,5.783948,51.453199
Sint Jozefstraat,29,,,5753AR,Deurne,Deurne,Noord-Brabant,VBO,5.784279,51.453180
Sint Jozefstraat,31,a,,5753AR,Deurne,Deurne,Noord-Brabant,VBO,5.784220,51.453000
Sint Jozefstraat,31,,,5753AR,Deurne,Deurne,Noord-Brabant,VBO,5.784248,51.452964
Sint Jozefstraat,33,,,5753AR,Deurne,Deurne,Noord-Brabant,VBO,5.784376,51.452820
Sint Jozefstraat,35,,,5753AR,Deurne,Deurne,Noord-Brabant,VBO,5.785004,51.452207
Sint Jozefstraat,37,,,5753AR,Deurne,Deurne,Noord-Brabant,VBO,5.785232,51.451990
Sint Jozefstraat,39,,,5753AS,Deurne,Deurne,Noord-Brabant,VBO,5.785431,51.451666
Sint Jozefstraat,41,a,,5753AS,Deurne,Deurne,Noord-Brabant,VBO,5.785602,51.451485
Sint Jozefstraat,41,,,5753AS,Deurne,Deurne,Noord-Brabant,VBO,5.785516,51.451567
Sint Jozefstraat,43,,,5753AS,Deurne,Deurne,Noord-Brabant,VBO,5.785673,51.451395
Sint Jozefstraat,45,,,5753AS,Deurne,Deurne,Noord-Brabant,VBO,5.785759,51.451314
Sint Jozefstraat,47,a,,5753AS,Deurne,Deurne,Noord-Brabant,VBO,5.785887,51.451170
Sint Jozefstraat,47,b,,5753AS,Deurne,Deurne,Noord-Brabant,VBO,5.785915,51.451152
Sint Jozefstraat,47,,,5753AS,Deurne,Deurne,Noord-Brabant,VBO,5.785844,51.451242
Sint Jozefstraat,49,,,5753AS,Deurne,Deurne,Noord-Brabant,VBO,5.786001,51.451062
Sint Jozefstraat,53,,,5753AS,Deurne,Deurne,Noord-Brabant,VBO,5.786200,51.450836
Sint Jozefstraat,55,,,5753AS,Deurne,Deurne,Noord-Brabant,VBO,5.786300,51.450728
Sint Jozefstraat,57,,,5753AS,Deurne,Deurne,Noord-Brabant,VBO,5.786386,51.450638
Sint Jozefstraat,59,,,5753AS,Deurne,Deurne,Noord-Brabant,VBO,5.786457,51.450548
Sint Jozefstraat,61,,,5753AS,Deurne,Deurne,Noord-Brabant,VBO,5.786528,51.450476
Sint Jozefstraat,63,,,5753AS,Deurne,Deurne,Noord-Brabant,VBO,5.786599,51.450403
Sint Jozefstraat,69,,,5753AS,Deurne,Deurne,Noord-Brabant,VBO,5.787056,51.449943
Sint Jozefstraat,71,,,5753AS,Deurne,Deurne,Noord-Brabant,VBO,5.787170,51.449835
Sint Jozefstraat,73,,,5753AS,Deurne,Deurne,Noord-Brabant,VBO,5.787269,51.449718
Sint Jozefstraat,75,a,,5753AS,Deurne,Deurne,Noord-Brabant,VBO,5.787527,51.449519
Sint Jozefstraat,75,b,,5753AS,Deurne,Deurne,Noord-Brabant,VBO,5.787944,51.449491
Sint Jozefstraat,75,,,5753AS,Deurne,Deurne,Noord-Brabant,VBO,5.787441,51.449618
Sint Jozefstraat,77,a,,5753AS,Deurne,Deurne,Noord-Brabant,VBO,5.788026,51.449086
Sint Jozefstraat,77,b,,5753AS,Deurne,Deurne,Noord-Brabant,VBO,5.788139,51.448861
Sint Jozefstraat,77,,,5753AS,Deurne,Deurne,Noord-Brabant,VBO,5.787683,51.449348
Sint Jozefstraat,79,,,5753AS,Deurne,Deurne,Noord-Brabant,VBO,5.789008,51.447869
Ringoven,2,,,5753AT,Deurne,Deurne,Noord-Brabant,VBO,5.784185,51.455670
Ringoven,3,,,5753AT,Deurne,Deurne,Noord-Brabant,VBO,5.784500,51.455435
Ringoven,4,,,5753AT,Deurne,Deurne,Noord-Brabant,VBO,5.784156,51.455634
Ringoven,5,,,5753AT,Deurne,Deurne,Noord-Brabant,VBO,5.784541,51.455255
Ringoven,6,,,5753AT,Deurne,Deurne,Noord-Brabant,VBO,5.784141,51.455562
Ringoven,7,,,5753AT,Deurne,Deurne,Noord-Brabant,VBO,5.784528,51.455058
Ringoven,8,,,5753AT,Deurne,Deurne,Noord-Brabant,VBO,5.784112,51.455517
Ringoven,10,,,5753AT,Deurne,Deurne,Noord-Brabant,VBO,5.784097,51.455455
Ringoven,12,,,5753AT,Deurne,Deurne,Noord-Brabant,VBO,5.784053,51.455329
Ringoven,14,,,5753AT,Deurne,Deurne,Noord-Brabant,VBO,5.784038,51.455293
Ringoven,16,,,5753AT,Deurne,Deurne,Noord-Brabant,VBO,5.784009,51.455248
Ringoven,18,,,5753AT,Deurne,Deurne,Noord-Brabant,VBO,5.783994,51.455185
Ringoven,20,,,5753AT,Deurne,Deurne,Noord-Brabant,VBO,5.783979,51.455122
Sint Jozefstraat,2,,,5753AV,Deurne,Deurne,Noord-Brabant,VBO,5.782151,51.454544
Sint Jozefstraat,4,,,5753AV,Deurne,Deurne,Noord-Brabant,VBO,5.782218,51.454508
Sint Jozefstraat,6,a,,5753AV,Deurne,Deurne,Noord-Brabant,VBO,5.782404,51.454337
Sint Jozefstraat,6,,,5753AV,Deurne,Deurne,Noord-Brabant,VBO,5.782361,51.454373
Sint Jozefstraat,8,,,5753AV,Deurne,Deurne,Noord-Brabant,VBO,5.782475,51.454265
Sint Jozefstraat,10,,,5753AV,Deurne,Deurne,Noord-Brabant,VBO,5.782633,51.454147
Sint Jozefstraat,16,,,5753AV,Deurne,Deurne,Noord-Brabant,VBO,5.782690,51.454084
Sint Jozefstraat,18,a,,5753AV,Deurne,Deurne,Noord-Brabant,VBO,5.782830,51.453634
Sint Jozefstraat,18,b,,5753AV,Deurne,Deurne,Noord-Brabant,VBO,5.783434,51.453310
Sint Jozefstraat,18,,,5753AV,Deurne,Deurne,Noord-Brabant,VBO,5.782789,51.453976
Sint Jozefstraat,20,,,5753AV,Deurne,Deurne,Noord-Brabant,VBO,5.783193,51.453279
Sint Jozefstraat,24,a,,5753AV,Deurne,Deurne,Noord-Brabant,VBO,5.783957,51.452624
Sint Jozefstraat,24,b,,5753AV,Deurne,Deurne,Noord-Brabant,VBO,5.784086,51.452560
Sint Jozefstraat,24,c,,5753AV,Deurne,Deurne,Noord-Brabant,VBO,5.784129,51.452488
Sint Jozefstraat,24,,,5753AV,Deurne,Deurne,Noord-Brabant,VBO,5.784015,51.452614
Sint Jozefstraat,26,a,,5753AV,Deurne,Deurne,Noord-Brabant,VBO,5.784243,51.452353
Sint Jozefstraat,26,b,,5753AV,Deurne,Deurne,Noord-Brabant,VBO,5.784262,51.452375
Sint Jozefstraat,26,c,,5753AV,Deurne,Deurne,Noord-Brabant,VBO,5.784128,51.452380
Sint Jozefstraat,26,d,,5753AV,Deurne,Deurne,Noord-Brabant,VBO,5.784142,51.452353
Sint Jozefstraat,26,e,,5753AV,Deurne,Deurne,Noord-Brabant,VBO,5.784170,51.452326
Sint Jozefstraat,26,f,,5753AV,Deurne,Deurne,Noord-Brabant,VBO,5.784323,51.452308
Sint Jozefstraat,26,g,,5753AV,Deurne,Deurne,Noord-Brabant,VBO,5.783954,51.452282
Sint Jozefstraat,26,,,5753AV,Deurne,Deurne,Noord-Brabant,VBO,5.784229,51.452380
Sint Jozefstraat,28,,,5753AV,Deurne,Deurne,Noord-Brabant,VBO,5.783795,51.452166
Sint Jozefstraat,30,,,5753AV,Deurne,Deurne,Noord-Brabant,VBO,5.783647,51.451663
Sint Jozefstraat,34,a,,5753AV,Deurne,Deurne,Noord-Brabant,VBO,5.784952,51.451254
Sint Jozefstraat,34,b,,5753AV,Deurne,Deurne,Noord-Brabant,VBO,5.784981,51.451209
Sint Jozefstraat,34,c,,5753AV,Deurne,Deurne,Noord-Brabant,VBO,5.785009,51.451155
Sint Jozefstraat,34,d,,5753AV,Deurne,Deurne,Noord-Brabant,VBO,5.785052,51.451110
Sint Jozefstraat,36,,,5753AV,Deurne,Deurne,Noord-Brabant,VBO,5.785283,51.451226
Sint Jozefstraat,38,,,5753AV,Deurne,Deurne,Noord-Brabant,VBO,5.785397,51.451118
Sint Jozefstraat,40,,,5753AV,Deurne,Deurne,Noord-Brabant,VBO,5.785453,51.450965
Sint Jozefstraat,42,,,5753AV,Deurne,Deurne,Noord-Brabant,VBO,5.785525,51.450892
Sint Jozefstraat,44,,,5753AW,Deurne,Deurne,Noord-Brabant,VBO,5.785739,51.450685
Sint Jozefstraat,46,,,5753AW,Deurne,Deurne,Noord-Brabant,VBO,5.785796,51.450631
Sint Jozefstraat,48,a,,5753AW,Deurne,Deurne,Noord-Brabant,VBO,5.785966,51.450415
Sint Jozefstraat,48,,,5753AW,Deurne,Deurne,Noord-Brabant,VBO,5.785909,51.450469
Sint Jozefstraat,50,,,5753AW,Deurne,Deurne,Noord-Brabant,VBO,5.786095,51.450306
Sint Jozefstraat,52,,,5753AW,Deurne,Deurne,Noord-Brabant,VBO,5.786166,51.450234
Sint Jozefstraat,54,,,5753AW,Deurne,Deurne,Noord-Brabant,VBO,5.786366,51.450009
Sint Jozefstraat,56,,,5753AW,Deurne,Deurne,Noord-Brabant,VBO,5.786423,51.449946
Sint Jozefstraat,58,,,5753AW,Deurne,Deurne,Noord-Brabant,VBO,5.786494,51.449846
Sint Jozefstraat,60,,,5753AW,Deurne,Deurne,Noord-Brabant,VBO,5.786551,51.449801
Sint Jozefstraat,62,a,,5753AW,Deurne,Deurne,Noord-Brabant,VBO,5.786708,51.449657
Sint Jozefstraat,62,,,5753AW,Deurne,Deurne,Noord-Brabant,VBO,5.786665,51.449693
Sint Jozefstraat,64,a,,5753AW,Deurne,Deurne,Noord-Brabant,VBO,5.786845,51.449491
Sint Jozefstraat,64,,,5753AW,Deurne,Deurne,Noord-Brabant,VBO,5.786793,51.449549
Sint Jozefstraat,66,a,,5753AW,Deurne,Deurne,Noord-Brabant,VBO,5.786997,51.449334
Sint Jozefstraat,66,,,5753AW,Deurne,Deurne,Noord-Brabant,VBO,5.786936,51.449395
Sint Jozefstraat,68,,,5753AW,Deurne,Deurne,Noord-Brabant,VBO,5.787064,51.449233
Katoenstraat,1,a,,5753AX,Deurne,Deurne,Noord-Brabant,VBO,5.782419,51.456036
Katoenstraat,1,b,,5753AX,Deurne,Deurne,Noord-Brabant,VBO,5.782332,51.456045
Katoenstraat,1,,,5753AX,Deurne,Deurne,Noord-Brabant,VBO,5.782562,51.456008
Katoenstraat,2,a,,5753AX,Deurne,Deurne,Noord-Brabant,VBO,5.782176,51.456306
Katoenstraat,2,,,5753AX,Deurne,Deurne,Noord-Brabant,VBO,5.782306,51.456279
Katoenstraat,3,,,5753AX,Deurne,Deurne,Noord-Brabant,VBO,5.782146,51.456063
Katoenstraat,4,,,5753AX,Deurne,Deurne,Noord-Brabant,VBO,5.782033,51.456325
Katoenstraat,5,,,5753AX,Deurne,Deurne,Noord-Brabant,VBO,5.782027,51.456072
Katoenstraat,7,,,5753AX,Deurne,Deurne,Noord-Brabant,VBO,5.781928,51.455849
Katoenstraat,9,,,5753AX,Deurne,Deurne,Noord-Brabant,VBO,5.781827,51.455858
Katoenstraat,11,,,5753AX,Deurne,Deurne,Noord-Brabant,VBO,5.781699,51.456029
Katoenstraat,13,,,5753AX,Deurne,Deurne,Noord-Brabant,VBO,5.781599,51.456029
Katoenstraat,15,,,5753AX,Deurne,Deurne,Noord-Brabant,VBO,5.781527,51.456039
Katoenstraat,17,,,5753AX,Deurne,Deurne,Noord-Brabant,VBO,5.781455,51.456057
Katoenstraat,19,,,5753AX,Deurne,Deurne,Noord-Brabant,VBO,5.781369,51.456075
Katoenstraat,21,,,5753AX,Deurne,Deurne,Noord-Brabant,VBO,5.781282,51.456075
Katoenstraat,23,,,5753AX,Deurne,Deurne,Noord-Brabant,VBO,5.781214,51.456099
Katoenstraat,25,,,5753AX,Deurne,Deurne,Noord-Brabant,VBO,5.781139,51.456112
Katoenstraat,27,,,5753AX,Deurne,Deurne,Noord-Brabant,VBO,5.780967,51.456193
Katoenstraat,29,,,5753AX,Deurne,Deurne,Noord-Brabant,VBO,5.780895,51.456194
Katoenstraat,31,,,5753AX,Deurne,Deurne,Noord-Brabant,VBO,5.780823,51.456203
Katoenstraat,33,,,5753AX,Deurne,Deurne,Noord-Brabant,VBO,5.780737,51.456212
Katoenstraat,35,,,5753AX,Deurne,Deurne,Noord-Brabant,VBO,5.780651,51.456221
Katoenstraat,37,,,5753AX,Deurne,Deurne,Noord-Brabant,VBO,5.780579,51.456240
Katoenstraat,39,,,5753AX,Deurne,Deurne,Noord-Brabant,VBO,5.780493,51.456258
Katoenstraat,41,,,5753AX,Deurne,Deurne,Noord-Brabant,VBO,5.780435,51.456267
Katoenstraat,47,,,5753AX,Deurne,Deurne,Noord-Brabant,VBO,5.779889,51.456359
Jan van Eijckstraat,2,a,,5753AZ,Deurne,Deurne,Noord-Brabant,VBO,5.783663,51.453506
Jan van Eijckstraat,2,b,,5753AZ,Deurne,Deurne,Noord-Brabant,VBO,5.783780,51.453408
Jan van Eijckstraat,2,c,,5753AZ,Deurne,Deurne,Noord-Brabant,VBO,5.783816,51.453366
Jan van Eijckstraat,2,,,5753AZ,Deurne,Deurne,Noord-Brabant,VBO,5.783620,51.453515
Jan van Eijckstraat,4,a,,5753AZ,Deurne,Deurne,Noord-Brabant,VBO,5.783663,51.453524
Jan van Eijckstraat,4,b,,5753AZ,Deurne,Deurne,Noord-Brabant,VBO,5.783663,51.453515
Jan van Eijckstraat,4,c,,5753AZ,Deurne,Deurne,Noord-Brabant,VBO,5.783663,51.453506
Jan van Eijckstraat,4,,,5753AZ,Deurne,Deurne,Noord-Brabant,VBO,5.783663,51.453533
Jan van Eijckstraat,6,,,5753AZ,Deurne,Deurne,Noord-Brabant,VBO,5.783822,51.453577
Jan van Eijckstraat,8,,,5753AZ,Deurne,Deurne,Noord-Brabant,VBO,5.783865,51.453586
Jan van Eijckstraat,10,a,,5753AZ,Deurne,Deurne,Noord-Brabant,VBO,5.783908,51.453586
Jan van Eijckstraat,10,b,,5753AZ,Deurne,Deurne,Noord-Brabant,VBO,5.783908,51.453577
Jan van Eijckstraat,10,,,5753AZ,Deurne,Deurne,Noord-Brabant,VBO,5.783908,51.453595
Jan van Eijckstraat,12,,,5753AZ,Deurne,Deurne,Noord-Brabant,VBO,5.784124,51.453639
Jan van Eijckstraat,14,,,5753AZ,Deurne,Deurne,Noord-Brabant,VBO,5.784759,51.453798
Jan van Eijckstraat,16,,,5753AZ,Deurne,Deurne,Noord-Brabant,VBO,5.784889,51.453843
Jan van Eijckstraat,19,,,5753AZ,Deurne,Deurne,Noord-Brabant,VBO,5.783896,51.453837
Jan van Eijckstraat,21,,,5753AZ,Deurne,Deurne,Noord-Brabant,VBO,5.784501,51.453988
Jan van Eijckstraat,23,,,5753AZ,Deurne,Deurne,Noord-Brabant,VBO,5.784602,51.454015
Jan van Eijckstraat,25,,,5753AZ,Deurne,Deurne,Noord-Brabant,VBO,5.784833,51.454068
Jan van Eijckstraat,27,,,5753AZ,Deurne,Deurne,Noord-Brabant,VBO,5.784948,51.454094
Rogier van der Weijdenstraat,1,,,5753BA,Deurne,Deurne,Noord-Brabant,VBO,5.785601,51.453067
Rogier van der Weijdenstraat,2,,,5753BA,Deurne,Deurne,Noord-Brabant,VBO,5.786005,51.453129
Rogier van der Weijdenstraat,3,,,5753BA,Deurne,Deurne,Noord-Brabant,VBO,5.785559,51.453149
Rogier van der Weijdenstraat,4,,,5753BA,Deurne,Deurne,Noord-Brabant,VBO,5.785891,51.453273
Rogier van der Weijdenstraat,5,,,5753BA,Deurne,Deurne,Noord-Brabant,VBO,5.785302,51.453347
Rogier van der Weijdenstraat,6,,,5753BA,Deurne,Deurne,Noord-Brabant,VBO,5.785820,51.453381
Rogier van der Weijdenstraat,7,,,5753BA,Deurne,Deurne,Noord-Brabant,VBO,5.785445,51.453338
Rogier van der Weijdenstraat,8,a,,5753BA,Deurne,Deurne,Noord-Brabant,VBO,5.785797,51.453641
Rogier van der Weijdenstraat,8,,,5753BA,Deurne,Deurne,Noord-Brabant,VBO,5.785735,51.453498
Rogier van der Weijdenstraat,9,,,5753BA,Deurne,Deurne,Noord-Brabant,VBO,5.785188,51.453518
Rogier van der Weijdenstraat,10,,,5753BA,Deurne,Deurne,Noord-Brabant,VBO,5.785436,51.453949
Rogier van der Weijdenstraat,11,,,5753BA,Deurne,Deurne,Noord-Brabant,VBO,5.785332,51.453527
Rogier van der Weijdenstraat,12,,,5753BA,Deurne,Deurne,Noord-Brabant,VBO,5.785366,51.454084
Rogier van der Weijdenstraat,13,,,5753BA,Deurne,Deurne,Noord-Brabant,VBO,5.785175,51.453734
Rogier van der Weijdenstraat,14,,,5753BA,Deurne,Deurne,Noord-Brabant,VBO,5.785295,51.454183
Rogier van der Weijdenstraat,15,,,5753BA,Deurne,Deurne,Noord-Brabant,VBO,5.785118,51.453797
Rogier van der Weijdenstraat,16,,,5753BA,Deurne,Deurne,Noord-Brabant,VBO,5.785224,51.454309
Rogier van der Weijdenstraat,18,,,5753BA,Deurne,Deurne,Noord-Brabant,VBO,5.785153,51.454426
Rogier van der Weijdenstraat,19,,,5753BA,Deurne,Deurne,Noord-Brabant,VBO,5.784821,51.454329
Rogier van der Weijdenstraat,21,,,5753BA,Deurne,Deurne,Noord-Brabant,VBO,5.784750,51.454464
Rogier van der Weijdenstraat,23,,,5753BA,Deurne,Deurne,Noord-Brabant,VBO,5.784679,51.454581
Rogier van der Weijdenstraat,25,,,5753BA,Deurne,Deurne,Noord-Brabant,VBO,5.784580,51.454698
Jeroen Boschstraat,2,a,,5753BB,Deurne,Deurne,Noord-Brabant,VBO,5.785837,51.453714
Jeroen Boschstraat,2,,,5753BB,Deurne,Deurne,Noord-Brabant,VBO,5.785635,51.453688
Jeroen Boschstraat,3,,,5753BB,Deurne,Deurne,Noord-Brabant,VBO,5.786214,51.453991
Jeroen Boschstraat,4,,,5753BB,Deurne,Deurne,Noord-Brabant,VBO,5.786082,51.453758
Jeroen Boschstraat,5,,,5753BB,Deurne,Deurne,Noord-Brabant,VBO,5.786185,51.454036
Jeroen Boschstraat,6,,,5753BB,Deurne,Deurne,Noord-Brabant,VBO,5.786154,51.453776
Jeroen Boschstraat,7,,,5753BB,Deurne,Deurne,Noord-Brabant,VBO,5.786157,51.454081
Jeroen Boschstraat,9,,,5753BB,Deurne,Deurne,Noord-Brabant,VBO,5.785985,51.454163
Jeroen Boschstraat,10,,,5753BB,Deurne,Deurne,Noord-Brabant,VBO,5.786832,51.454016
Jeroen Boschstraat,11,,,5753BB,Deurne,Deurne,Noord-Brabant,VBO,5.785956,51.454199
Jeroen Boschstraat,12,,,5753BB,Deurne,Deurne,Noord-Brabant,VBO,5.786846,51.454066
Jeroen Boschstraat,13,,,5753BB,Deurne,Deurne,Noord-Brabant,VBO,5.785899,51.454244
Jeroen Boschstraat,14,,,5753BB,Deurne,Deurne,Noord-Brabant,VBO,5.786790,51.454115
Jeroen Boschstraat,15,,,5753BB,Deurne,Deurne,Noord-Brabant,VBO,5.785871,51.454280
Jeroen Boschstraat,16,,,5753BB,Deurne,Deurne,Noord-Brabant,VBO,5.786836,51.454177
Jeroen Boschstraat,17,,,5753BB,Deurne,Deurne,Noord-Brabant,VBO,5.785886,51.454325
Jeroen Boschstraat,18,,,5753BB,Deurne,Deurne,Noord-Brabant,VBO,5.786762,51.454205
Jeroen Boschstraat,19,,,5753BB,Deurne,Deurne,Noord-Brabant,VBO,5.785857,51.454370
Jeroen Boschstraat,20,,,5753BB,Deurne,Deurne,Noord-Brabant,VBO,5.786777,51.454241
Jeroen Boschstraat,21,,,5753BB,Deurne,Deurne,Noord-Brabant,VBO,5.785858,51.454415
Jeroen Boschstraat,22,,,5753BB,Deurne,Deurne,Noord-Brabant,VBO,5.786533,51.454350
Jeroen Boschstraat,23,,,5753BB,Deurne,Deurne,Noord-Brabant,VBO,5.785801,51.454541
Jeroen Boschstraat,24,,,5753BB,Deurne,Deurne,Noord-Brabant,VBO,5.786477,51.454365
Jeroen Boschstraat,25,,,5753BB,Deurne,Deurne,Noord-Brabant,VBO,5.785773,51.454586
Jeroen Boschstraat,26,,,5753BB,Deurne,Deurne,Noord-Brabant,VBO,5.786418,51.454359
Jeroen Boschstraat,27,,,5753BB,Deurne,Deurne,Noord-Brabant,VBO,5.785831,51.454640
Jeroen Boschstraat,28,,,5753BB,Deurne,Deurne,Noord-Brabant,VBO,5.786332,51.454314
Jeroen Boschstraat,29,,,5753BB,Deurne,Deurne,Noord-Brabant,VBO,5.785846,51.454676
Jeroen Boschstraat,30,,,5753BB,Deurne,Deurne,Noord-Brabant,VBO,5.786260,51.454306
Paul Rubensstraat,4,a,,5753BC,Deurne,Deurne,Noord-Brabant,VBO,5.786321,51.453101
Paul Rubensstraat,4,,,5753BC,Deurne,Deurne,Noord-Brabant,VBO,5.786522,51.453118
Dirk Boutsstraat,1,,,5753BD,Deurne,Deurne,Noord-Brabant,VBO,5.785045,51.453591
Dirk Boutsstraat,2,,,5753BD,Deurne,Deurne,Noord-Brabant,VBO,5.784427,51.453746
Dirk Boutsstraat,3,,,5753BD,Deurne,Deurne,Noord-Brabant,VBO,5.784915,51.453564
Dirk Boutsstraat,4,,,5753BD,Deurne,Deurne,Noord-Brabant,VBO,5.784456,51.453701
Dirk Boutsstraat,5,,,5753BD,Deurne,Deurne,Noord-Brabant,VBO,5.785286,51.453185
Dirk Boutsstraat,6,,,5753BD,Deurne,Deurne,Noord-Brabant,VBO,5.784499,51.453647
Dirk Boutsstraat,7,,,5753BD,Deurne,Deurne,Noord-Brabant,VBO,5.785156,51.453159
Dirk Boutsstraat,8,,,5753BD,Deurne,Deurne,Noord-Brabant,VBO,5.784527,51.453592
Dirk Boutsstraat,9,,,5753BD,Deurne,Deurne,Noord-Brabant,VBO,5.785442,51.452933
Dirk Boutsstraat,10,,,5753BD,Deurne,Deurne,Noord-Brabant,VBO,5.784555,51.453547
Dirk Boutsstraat,11,,,5753BD,Deurne,Deurne,Noord-Brabant,VBO,5.785341,51.452907
Dirk Boutsstraat,12,,,5753BD,Deurne,Deurne,Noord-Brabant,VBO,5.784526,51.453494
Dirk Boutsstraat,14,,,5753BD,Deurne,Deurne,Noord-Brabant,VBO,5.784594,51.453438
Dirk Boutsstraat,16,,,5753BD,Deurne,Deurne,Noord-Brabant,VBO,5.784640,51.453367
Dirk Boutsstraat,18,,,5753BD,Deurne,Deurne,Noord-Brabant,VBO,5.784668,51.453322
Dirk Boutsstraat,20,,,5753BD,Deurne,Deurne,Noord-Brabant,VBO,5.784725,51.453259
Dirk Boutsstraat,22,,,5753BD,Deurne,Deurne,Noord-Brabant,VBO,5.784739,51.453223
Dirk Boutsstraat,24,,,5753BD,Deurne,Deurne,Noord-Brabant,VBO,5.784753,51.453187
Dirk Boutsstraat,26,,,5753BD,Deurne,Deurne,Noord-Brabant,VBO,5.784782,51.453142
Dirk Boutsstraat,28,,,5753BD,Deurne,Deurne,Noord-Brabant,VBO,5.784821,51.453084
Rembrandt van Rijnstraat,5,b,,5753BE,Deurne,Deurne,Noord-Brabant,VBO,5.787106,51.452645
Rembrandt van Rijnstraat,5,,,5753BE,Deurne,Deurne,Noord-Brabant,VBO,5.787438,51.452477
Rembrandt van Rijnstraat,13,,,5753BE,Deurne,Deurne,Noord-Brabant,VBO,5.788447,51.452689
Rembrandt van Rijnstraat,15,,,5753BE,Deurne,Deurne,Noord-Brabant,VBO,5.788677,51.452715
Rembrandt van Rijnstraat,17,,,5753BE,Deurne,Deurne,Noord-Brabant,VBO,5.788879,51.452760
Rembrandt van Rijnstraat,19,,,5753BE,Deurne,Deurne,Noord-Brabant,VBO,5.789066,51.452804
Rembrandt van Rijnstraat,21,,,5753BE,Deurne,Deurne,Noord-Brabant,VBO,5.789254,51.452848
Rembrandt van Rijnstraat,23,,,5753BE,Deurne,Deurne,Noord-Brabant,VBO,5.789455,51.452892
Rembrandt van Rijnstraat,25,,,5753BE,Deurne,Deurne,Noord-Brabant,VBO,5.789643,51.452928
Rembrandt van Rijnstraat,27,,,5753BE,Deurne,Deurne,Noord-Brabant,VBO,5.790782,51.453176
Rembrandt van Rijnstraat,29,,,5753BE,Deurne,Deurne,Noord-Brabant,VBO,5.790998,51.453229
Rembrandt van Rijnstraat,31,,,5753BE,Deurne,Deurne,Noord-Brabant,VBO,5.791200,51.453300
Rembrandt van Rijnstraat,6,,,5753BG,Deurne,Deurne,Noord-Brabant,VBO,5.786037,51.451844
Rembrandt van Rijnstraat,8,,,5753BG,Deurne,Deurne,Noord-Brabant,VBO,5.786281,51.451888
Rembrandt van Rijnstraat,10,,,5753BG,Deurne,Deurne,Noord-Brabant,VBO,5.786469,51.451932
Rembrandt van Rijnstraat,12,,,5753BG,Deurne,Deurne,Noord-Brabant,VBO,5.786584,51.451958
Rembrandt van Rijnstraat,20,,,5753BG,Deurne,Deurne,Noord-Brabant,VBO,5.787420,51.452135
Rembrandt van Rijnstraat,22,,,5753BG,Deurne,Deurne,Noord-Brabant,VBO,5.787579,51.452180
Rembrandt van Rijnstraat,24,,,5753BG,Deurne,Deurne,Noord-Brabant,VBO,5.787766,51.452215
Rembrandt van Rijnstraat,26,,,5753BG,Deurne,Deurne,Noord-Brabant,VBO,5.787939,51.452259
Rembrandt van Rijnstraat,28,,,5753BG,Deurne,Deurne,Noord-Brabant,VBO,5.788170,51.452313
Rembrandt van Rijnstraat,30,,,5753BG,Deurne,Deurne,Noord-Brabant,VBO,5.788256,51.452330
Rembrandt van Rijnstraat,32,,,5753BG,Deurne,Deurne,Noord-Brabant,VBO,5.788700,51.452104
Rembrandt van Rijnstraat,34,,,5753BG,Deurne,Deurne,Noord-Brabant,VBO,5.788674,51.452428
Rembrandt van Rijnstraat,36,,,5753BG,Deurne,Deurne,Noord-Brabant,VBO,5.789120,51.452426
Rembrandt van Rijnstraat,38,,,5753BG,Deurne,Deurne,Noord-Brabant,VBO,5.789380,51.452551
Rembrandt van Rijnstraat,40,,,5753BG,Deurne,Deurne,Noord-Brabant,VBO,5.789496,51.452623
Rembrandt van Rijnstraat,42,,,5753BH,Deurne,Deurne,Noord-Brabant,VBO,5.789727,51.452649
Rembrandt van Rijnstraat,44,,,5753BH,Deurne,Deurne,Noord-Brabant,VBO,5.789914,51.452702
Rembrandt van Rijnstraat,46,,,5753BH,Deurne,Deurne,Noord-Brabant,VBO,5.790102,51.452746
Rembrandt van Rijnstraat,48,,,5753BH,Deurne,Deurne,Noord-Brabant,VBO,5.790174,51.452764
Rembrandt van Rijnstraat,50,,,5753BH,Deurne,Deurne,Noord-Brabant,VBO,5.790404,51.452826
Rembrandt van Rijnstraat,52,,,5753BH,Deurne,Deurne,Noord-Brabant,VBO,5.790476,51.452835
Rembrandt van Rijnstraat,54,,,5753BH,Deurne,Deurne,Noord-Brabant,VBO,5.791255,51.453030
Ferdinand Bolstraat,5,,,5753BJ,Deurne,Deurne,Noord-Brabant,VBO,5.787133,51.450527
Ferdinand Bolstraat,7,,,5753BJ,Deurne,Deurne,Noord-Brabant,VBO,5.787205,51.450554
Ferdinand Bolstraat,9,a,,5753BJ,Deurne,Deurne,Noord-Brabant,VBO,5.787292,51.450680
Ferdinand Bolstraat,9,,,5753BJ,Deurne,Deurne,Noord-Brabant,VBO,5.787392,51.450607
Ferdinand Bolstraat,11,,,5753BJ,Deurne,Deurne,Noord-Brabant,VBO,5.787580,51.450643
Ferdinand Bolstraat,13,,,5753BJ,Deurne,Deurne,Noord-Brabant,VBO,5.787782,51.450705
Ferdinand Bolstraat,15,,,5753BJ,Deurne,Deurne,Noord-Brabant,VBO,5.787983,51.450749
Ferdinand Bolstraat,25,a,,5753BJ,Deurne,Deurne,Noord-Brabant,VBO,5.789094,51.451060
Ferdinand Bolstraat,25,,,5753BJ,Deurne,Deurne,Noord-Brabant,VBO,5.788892,51.451007
Ferdinand Bolstraat,27,,,5753BJ,Deurne,Deurne,Noord-Brabant,VBO,5.789354,51.451131
Ferdinand Bolstraat,31,,,5753BJ,Deurne,Deurne,Noord-Brabant,VBO,5.789527,51.451184
Ferdinand Bolstraat,33,,,5753BJ,Deurne,Deurne,Noord-Brabant,VBO,5.789714,51.451229
Ferdinand Bolstraat,35,,,5753BJ,Deurne,Deurne,Noord-Brabant,VBO,5.789916,51.451282
Ferdinand Bolstraat,37,,,5753BJ,Deurne,Deurne,Noord-Brabant,VBO,5.790118,51.451335
Ferdinand Bolstraat,39,,,5753BJ,Deurne,Deurne,Noord-Brabant,VBO,5.790348,51.451388
Ferdinand Bolstraat,41,,,5753BJ,Deurne,Deurne,Noord-Brabant,VBO,5.790449,51.451424
Ferdinand Bolstraat,43,,,5753BJ,Deurne,Deurne,Noord-Brabant,VBO,5.790651,51.451468
Ferdinand Bolstraat,45,,,5753BJ,Deurne,Deurne,Noord-Brabant,VBO,5.790738,51.451495
Ferdinand Bolstraat,47,,,5753BJ,Deurne,Deurne,Noord-Brabant,VBO,5.791531,51.451663
Ferdinand Bolstraat,49,,,5753BJ,Deurne,Deurne,Noord-Brabant,VBO,5.791588,51.451681
Ferdinand Bolstraat,51,,,5753BK,Deurne,Deurne,Noord-Brabant,VBO,5.791660,51.451698
Ferdinand Bolstraat,53,,,5753BK,Deurne,Deurne,Noord-Brabant,VBO,5.791718,51.451734
Ferdinand Bolstraat,55,,,5753BK,Deurne,Deurne,Noord-Brabant,VBO,5.791790,51.451752
Ferdinand Bolstraat,57,,,5753BK,Deurne,Deurne,Noord-Brabant,VBO,5.792122,51.451832
Ferdinand Bolstraat,2,,,5753BL,Deurne,Deurne,Noord-Brabant,VBO,5.786886,51.450232
Ferdinand Bolstraat,4,,,5753BL,Deurne,Deurne,Noord-Brabant,VBO,5.787174,51.450303
Ferdinand Bolstraat,6,,,5753BL,Deurne,Deurne,Noord-Brabant,VBO,5.787376,51.450356
Ferdinand Bolstraat,8,,,5753BL,Deurne,Deurne,Noord-Brabant,VBO,5.787650,51.450436
Ferdinand Bolstraat,10,,,5753BL,Deurne,Deurne,Noord-Brabant,VBO,5.787866,51.450480
Ferdinand Bolstraat,12,,,5753BL,Deurne,Deurne,Noord-Brabant,VBO,5.788039,51.450524
Ferdinand Bolstraat,14,,,5753BL,Deurne,Deurne,Noord-Brabant,VBO,5.788298,51.450559
Ferdinand Bolstraat,16,,,5753BL,Deurne,Deurne,Noord-Brabant,VBO,5.788515,51.450613
Ferdinand Bolstraat,18,,,5753BL,Deurne,Deurne,Noord-Brabant,VBO,5.788702,51.450693
Ferdinand Bolstraat,20,,,5753BL,Deurne,Deurne,Noord-Brabant,VBO,5.788933,51.450746
Ferdinand Bolstraat,22,,,5753BL,Deurne,Deurne,Noord-Brabant,VBO,5.789179,51.450799
Ferdinand Bolstraat,22,,,5753BL,Deurne,Deurne,Noord-Brabant,VBO,5.789220,51.450691
Ferdinand Bolstraat,24,a,,5753BL,Deurne,Deurne,Noord-Brabant,VBO,5.789738,51.450649
Ferdinand Bolstraat,24,,,5753BL,Deurne,Deurne,Noord-Brabant,VBO,5.789524,51.450879
Ferdinand Bolstraat,26,,,5753BL,Deurne,Deurne,Noord-Brabant,VBO,5.789812,51.450950
Ferdinand Bolstraat,28,,,5753BL,Deurne,Deurne,Noord-Brabant,VBO,5.789870,51.450967
Ferdinand Bolstraat,30,,,5753BL,Deurne,Deurne,Noord-Brabant,VBO,5.790072,51.451003
Ferdinand Bolstraat,32,,,5753BL,Deurne,Deurne,Noord-Brabant,VBO,5.790158,51.451029
Ferdinand Bolstraat,34,,,5753BL,Deurne,Deurne,Noord-Brabant,VBO,5.790331,51.451074
Ferdinand Bolstraat,36,,,5753BL,Deurne,Deurne,Noord-Brabant,VBO,5.790432,51.451100
Ferdinand Bolstraat,38,,,5753BL,Deurne,Deurne,Noord-Brabant,VBO,5.790603,51.451122
Ferdinand Bolstraat,40,,,5753BL,Deurne,Deurne,Noord-Brabant,VBO,5.790684,51.451145
Ferdinand Bolstraat,42,,,5753BL,Deurne,Deurne,Noord-Brabant,VBO,5.790850,51.451207
Ferdinand Bolstraat,44,,,5753BL,Deurne,Deurne,Noord-Brabant,VBO,5.791038,51.451260
Ferdinand Bolstraat,48,,,5753BL,Deurne,Deurne,Noord-Brabant,VBO,5.791701,51.451429
Ferdinand Bolstraat,54,,,5753BL,Deurne,Deurne,Noord-Brabant,VBO,5.792148,51.451557
Ferdinand Bolstraat,58,,,5753BL,Deurne,Deurne,Noord-Brabant,VBO,5.792393,51.451606
Jan Vermeerstraat,5,,,5753BM,Deurne,Deurne,Noord-Brabant,VBO,5.788924,51.449712
Jan Vermeerstraat,7,,,5753BM,Deurne,Deurne,Noord-Brabant,VBO,5.789155,51.449774
Jan Vermeerstraat,9,a,,5753BM,Deurne,Deurne,Noord-Brabant,VBO,5.789789,51.449952
Jan Vermeerstraat,9,,,5753BM,Deurne,Deurne,Noord-Brabant,VBO,5.789472,51.449863
Jan Vermeerstraat,11,,,5753BM,Deurne,Deurne,Noord-Brabant,VBO,5.790049,51.450023
Jan Vermeerstraat,13,,,5753BM,Deurne,Deurne,Noord-Brabant,VBO,5.790293,51.450040
Jan Vermeerstraat,15,,,5753BM,Deurne,Deurne,Noord-Brabant,VBO,5.790380,51.450067
Jan Vermeerstraat,17,,,5753BM,Deurne,Deurne,Noord-Brabant,VBO,5.790553,51.450111
Jan Vermeerstraat,19,a,,5753BM,Deurne,Deurne,Noord-Brabant,VBO,5.790856,51.450191
Jan Vermeerstraat,19,,,5753BM,Deurne,Deurne,Noord-Brabant,VBO,5.790640,51.450138
Jan Vermeerstraat,21,,,5753BM,Deurne,Deurne,Noord-Brabant,VBO,5.791086,51.450253
Jan Vermeerstraat,23,,,5753BM,Deurne,Deurne,Noord-Brabant,VBO,5.791303,51.450315
Jan Vermeerstraat,25,,,5753BM,Deurne,Deurne,Noord-Brabant,VBO,5.791418,51.450351
Jan Vermeerstraat,27,,,5753BM,Deurne,Deurne,Noord-Brabant,VBO,5.791577,51.450386
Jan Vermeerstraat,29,,,5753BM,Deurne,Deurne,Noord-Brabant,VBO,5.792557,51.450644
Jan Vermeerstraat,2,,,5753BP,Deurne,Deurne,Noord-Brabant,VBO,5.788402,51.449283
Jan Vermeerstraat,4,,,5753BP,Deurne,Deurne,Noord-Brabant,VBO,5.788575,51.449363
Jan Vermeerstraat,6,,,5753BP,Deurne,Deurne,Noord-Brabant,VBO,5.788806,51.449416
Jan Vermeerstraat,8,,,5753BP,Deurne,Deurne,Noord-Brabant,VBO,5.789008,51.449469
Jan Vermeerstraat,10,,,5753BP,Deurne,Deurne,Noord-Brabant,VBO,5.789080,51.449487
Jan Vermeerstraat,12,,,5753BP,Deurne,Deurne,Noord-Brabant,VBO,5.789267,51.449531
Jan Vermeerstraat,14,,,5753BP,Deurne,Deurne,Noord-Brabant,VBO,5.789354,51.449558
Jan Vermeerstraat,16,,,5753BP,Deurne,Deurne,Noord-Brabant,VBO,5.789513,51.449593
Jan Vermeerstraat,18,,,5753BP,Deurne,Deurne,Noord-Brabant,VBO,5.789614,51.449629
Jan Vermeerstraat,20,a,,5753BP,Deurne,Deurne,Noord-Brabant,VBO,5.789830,51.449682
Jan Vermeerstraat,20,,,5753BP,Deurne,Deurne,Noord-Brabant,VBO,5.789772,51.449664
Jan Vermeerstraat,22,a,,5753BP,Deurne,Deurne,Noord-Brabant,VBO,5.790075,51.449744
Jan Vermeerstraat,22,,,5753BP,Deurne,Deurne,Noord-Brabant,VBO,5.790017,51.449735
Jan Vermeerstraat,24,,,5753BP,Deurne,Deurne,Noord-Brabant,VBO,5.790378,51.449824
Jan Vermeerstraat,26,,,5753BP,Deurne,Deurne,Noord-Brabant,VBO,5.790795,51.449877
Jan Vermeerstraat,28,,,5753BP,Deurne,Deurne,Noord-Brabant,VBO,5.791012,51.449939
Jan Vermeerstraat,30,,,5753BP,Deurne,Deurne,Noord-Brabant,VBO,5.791243,51.450010
Jan Vermeerstraat,32,,,5753BP,Deurne,Deurne,Noord-Brabant,VBO,5.791502,51.450072
Jan Vermeerstraat,34,a,,5753BP,Deurne,Deurne,Noord-Brabant,VBO,5.791935,51.450205
Jan Vermeerstraat,34,,,5753BP,Deurne,Deurne,Noord-Brabant,VBO,5.791733,51.450134
Jan Vermeerstraat,36,,,5753BP,Deurne,Deurne,Noord-Brabant,VBO,5.792209,51.450276
Jan Vermeerstraat,38,,,5753BP,Deurne,Deurne,Noord-Brabant,VBO,5.792439,51.450329
Jan Vermeerstraat,40,,,5753BP,Deurne,Deurne,Noord-Brabant,VBO,5.792656,51.450391
Jan Vermeerstraat,42,,,5753BP,Deurne,Deurne,Noord-Brabant,VBO,5.792843,51.450445
Jan Vermeerstraat,44,,,5753BP,Deurne,Deurne,Noord-Brabant,VBO,5.793031,51.450489
Paulus Potterstraat,2,,,5753BS,Deurne,Deurne,Noord-Brabant,VBO,5.786794,51.454591
Paulus Potterstraat,4,,,5753BS,Deurne,Deurne,Noord-Brabant,VBO,5.786908,51.454456
Paulus Potterstraat,6,,,5753BS,Deurne,Deurne,Noord-Brabant,VBO,5.786922,51.454411
Paulus Potterstraat,10,,,5753BS,Deurne,Deurne,Noord-Brabant,VBO,5.787162,51.453907
Paulus Potterstraat,12,,,5753BS,Deurne,Deurne,Noord-Brabant,VBO,5.787105,51.453889
Paulus Potterstraat,14,,,5753BS,Deurne,Deurne,Noord-Brabant,VBO,5.786989,51.453863
Paulus Potterstraat,16,,,5753BS,Deurne,Deurne,Noord-Brabant,VBO,5.786903,51.453845
Paulus Potterstraat,18,,,5753BS,Deurne,Deurne,Noord-Brabant,VBO,5.786572,51.453792
Paulus Potterstraat,20,,,5753BS,Deurne,Deurne,Noord-Brabant,VBO,5.786600,51.453765
Paulus Potterstraat,22,,,5753BS,Deurne,Deurne,Noord-Brabant,VBO,5.786643,51.453702
Paulus Potterstraat,24,,,5753BS,Deurne,Deurne,Noord-Brabant,VBO,5.786671,51.453657
Paulus Potterstraat,26,,,5753BS,Deurne,Deurne,Noord-Brabant,VBO,5.786685,51.453603
Paulus Potterstraat,28,,,5753BS,Deurne,Deurne,Noord-Brabant,VBO,5.787304,51.453646
Paulus Potterstraat,30,,,5753BS,Deurne,Deurne,Noord-Brabant,VBO,5.787332,51.453610
Paulus Potterstraat,32,,,5753BS,Deurne,Deurne,Noord-Brabant,VBO,5.787389,51.453538
Paulus Potterstraat,34,,,5753BS,Deurne,Deurne,Noord-Brabant,VBO,5.787404,51.453511
Paulus Potterstraat,36,,,5753BS,Deurne,Deurne,Noord-Brabant,VBO,5.787186,51.453296
Paulus Potterstraat,38,,,5753BS,Deurne,Deurne,Noord-Brabant,VBO,5.787258,51.453305
Paulus Potterstraat,40,,,5753BS,Deurne,Deurne,Noord-Brabant,VBO,5.787330,51.453322
Paulus Potterstraat,42,,,5753BS,Deurne,Deurne,Noord-Brabant,VBO,5.787431,51.453340
Paulus Potterstraat,44,,,5753BS,Deurne,Deurne,Noord-Brabant,VBO,5.787488,51.453349
Paulus Potterstraat,1,,,5753BT,Deurne,Deurne,Noord-Brabant,VBO,5.787211,51.454545
Paulus Potterstraat,3,,,5753BT,Deurne,Deurne,Noord-Brabant,VBO,5.787296,51.454401
Paulus Potterstraat,5,,,5753BT,Deurne,Deurne,Noord-Brabant,VBO,5.787352,51.454248
Paulus Potterstraat,7,,,5753BT,Deurne,Deurne,Noord-Brabant,VBO,5.787437,51.454050
Paulus Potterstraat,9,,,5753BT,Deurne,Deurne,Noord-Brabant,VBO,5.787551,51.453879
Paulus Potterstraat,11,,,5753BT,Deurne,Deurne,Noord-Brabant,VBO,5.788021,51.453365
Paulus Potterstraat,13,,,5753BT,Deurne,Deurne,Noord-Brabant,VBO,5.788049,51.453320
Paulus Potterstraat,15,,,5753BT,Deurne,Deurne,Noord-Brabant,VBO,5.788077,51.453194
Paulus Potterstraat,17,,,5753BT,Deurne,Deurne,Noord-Brabant,VBO,5.788105,51.453140
Paulus Potterstraat,19,,,5753BT,Deurne,Deurne,Noord-Brabant,VBO,5.788176,51.453032
Paulus Potterstraat,21,,,5753BT,Deurne,Deurne,Noord-Brabant,VBO,5.788205,51.452987
Binderendreef,2,,,5753BZ,Deurne,Deurne,Noord-Brabant,VBO,5.772749,51.459331
Binderendreef,4,,,5753BZ,Deurne,Deurne,Noord-Brabant,VBO,5.773170,51.458062
Tunneloven,1,,,5753CA,Deurne,Deurne,Noord-Brabant,VBO,5.785237,51.455071
Tunneloven,2,,,5753CA,Deurne,Deurne,Noord-Brabant,VBO,5.785535,51.455097
Tunneloven,3,,,5753CA,Deurne,Deurne,Noord-Brabant,VBO,5.785248,51.455124
Tunneloven,4,,,5753CA,Deurne,Deurne,Noord-Brabant,VBO,5.785551,51.455205
Tunneloven,5,,,5753CA,Deurne,Deurne,Noord-Brabant,VBO,5.785253,51.455232
Tunneloven,6,,,5753CA,Deurne,Deurne,Noord-Brabant,VBO,5.785560,51.455255
Tunneloven,7,,,5753CA,Deurne,Deurne,Noord-Brabant,VBO,5.785264,51.455284
Tunneloven,8,,,5753CA,Deurne,Deurne,Noord-Brabant,VBO,5.785570,51.455359
Tunneloven,10,,,5753CA,Deurne,Deurne,Noord-Brabant,VBO,5.785581,51.455410
Tunneloven,12,,,5753CA,Deurne,Deurne,Noord-Brabant,VBO,5.785599,51.455518
Tunneloven,14,,,5753CA,Deurne,Deurne,Noord-Brabant,VBO,5.785606,51.455568
Vlamoven,1,,,5753CB,Deurne,Deurne,Noord-Brabant,VBO,5.786094,51.455068
Vlamoven,2,,,5753CB,Deurne,Deurne,Noord-Brabant,VBO,5.786441,51.455194
Vlamoven,3,,,5753CB,Deurne,Deurne,Noord-Brabant,VBO,5.786103,51.455117
Vlamoven,4,,,5753CB,Deurne,Deurne,Noord-Brabant,VBO,5.786514,51.455186
Vlamoven,5,,,5753CB,Deurne,Deurne,Noord-Brabant,VBO,5.786105,51.455161
Vlamoven,6,,,5753CB,Deurne,Deurne,Noord-Brabant,VBO,5.786587,51.455181
Vlamoven,7,,,5753CB,Deurne,Deurne,Noord-Brabant,VBO,5.786121,51.455210
Vlamoven,9,,,5753CB,Deurne,Deurne,Noord-Brabant,VBO,5.786130,51.455256
Vlamoven,11,,,5753CB,Deurne,Deurne,Noord-Brabant,VBO,5.786135,51.455301
Vlamoven,13,,,5753CB,Deurne,Deurne,Noord-Brabant,VBO,5.786137,51.455346
Vlamoven,15,,,5753CB,Deurne,Deurne,Noord-Brabant,VBO,5.786151,51.455391
Vlamoven,17,,,5753CB,Deurne,Deurne,Noord-Brabant,VBO,5.786155,51.455436
Vlamoven,19,,,5753CB,Deurne,Deurne,Noord-Brabant,VBO,5.786169,51.455480
Vlamoven,21,,,5753CB,Deurne,Deurne,Noord-Brabant,VBO,5.786174,51.455532
Vlamoven,23,,,5753CB,Deurne,Deurne,Noord-Brabant,VBO,5.786507,51.455384
Vlamoven,25,,,5753CB,Deurne,Deurne,Noord-Brabant,VBO,5.786584,51.455378
Vlamoven,27,,,5753CB,Deurne,Deurne,Noord-Brabant,VBO,5.786658,51.455373
Vlamoven,29,,,5753CB,Deurne,Deurne,Noord-Brabant,VBO,5.786728,51.455368
Vlamoven,31,,,5753CB,Deurne,Deurne,Noord-Brabant,VBO,5.786804,51.455362
Frans Halsstraat,1,a,,5753CN,Deurne,Deurne,Noord-Brabant,VBO,5.791450,51.450665
Frans Halsstraat,1,,,5753CN,Deurne,Deurne,Noord-Brabant,VBO,5.791494,51.450809
Frans Halsstraat,2,,,5753CN,Deurne,Deurne,Noord-Brabant,VBO,5.792038,51.450519
Frans Halsstraat,3,,,5753CN,Deurne,Deurne,Noord-Brabant,VBO,5.791524,51.450926
Frans Halsstraat,4,,,5753CN,Deurne,Deurne,Noord-Brabant,VBO,5.791996,51.450574
Frans Halsstraat,5,,,5753CN,Deurne,Deurne,Noord-Brabant,VBO,5.791569,51.451096
Frans Halsstraat,6,,,5753CN,Deurne,Deurne,Noord-Brabant,VBO,5.791939,51.450673
Frans Halsstraat,7,,,5753CN,Deurne,Deurne,Noord-Brabant,VBO,5.791484,51.451258
Frans Halsstraat,8,,,5753CN,Deurne,Deurne,Noord-Brabant,VBO,5.791911,51.450736
Frans Halsstraat,9,,,5753CN,Deurne,Deurne,Noord-Brabant,VBO,5.791399,51.451376
Frans Halsstraat,10,,,5753CN,Deurne,Deurne,Noord-Brabant,VBO,5.791898,51.450942
Adriaen van Ostadehof,1,,,5753CP,Deurne,Deurne,Noord-Brabant,VBO,5.789647,51.453377
Adriaen van Ostadehof,3,,,5753CP,Deurne,Deurne,Noord-Brabant,VBO,5.789431,51.453360
Adriaen van Ostadehof,5,,,5753CP,Deurne,Deurne,Noord-Brabant,VBO,5.789229,51.453334
Adriaen van Ostadehof,7,,,5753CP,Deurne,Deurne,Noord-Brabant,VBO,5.788883,51.453245
Adriaen van Ostadehof,8,,,5753CP,Deurne,Deurne,Noord-Brabant,VBO,5.788886,51.453542
Adriaen van Ostadehof,9,,,5753CP,Deurne,Deurne,Noord-Brabant,VBO,5.788552,51.453255
Adriaen van Ostadehof,10,,,5753CP,Deurne,Deurne,Noord-Brabant,VBO,5.788858,51.453632
Adriaen van Ostadehof,12,,,5753CP,Deurne,Deurne,Noord-Brabant,VBO,5.788815,51.453713
Adriaen van Ostadehof,13,z,,5753CP,Deurne,Deurne,Noord-Brabant,VBO,5.788390,51.453349
Adriaen van Ostadehof,13,,,5753CP,Deurne,Deurne,Noord-Brabant,VBO,5.788553,51.453372
Adriaen van Ostadehof,14,,,5753CP,Deurne,Deurne,Noord-Brabant,VBO,5.788773,51.453794
Adriaen van Ostadehof,15,,,5753CP,Deurne,Deurne,Noord-Brabant,VBO,5.788511,51.453489
Adriaen van Ostadehof,16,,,5753CP,Deurne,Deurne,Noord-Brabant,VBO,5.788730,51.453875
Adriaen van Ostadehof,17,,,5753CP,Deurne,Deurne,Noord-Brabant,VBO,5.787735,51.453555
Adriaen van Ostadehof,18,,,5753CP,Deurne,Deurne,Noord-Brabant,VBO,5.788688,51.453965
Adriaen van Ostadehof,19,,,5753CP,Deurne,Deurne,Noord-Brabant,VBO,5.787807,51.453572
Adriaen van Ostadehof,20,,,5753CP,Deurne,Deurne,Noord-Brabant,VBO,5.788632,51.454100
Adriaen van Ostadehof,21,,,5753CP,Deurne,Deurne,Noord-Brabant,VBO,5.788008,51.453590
Adriaen van Ostadehof,22,,,5753CP,Deurne,Deurne,Noord-Brabant,VBO,5.788589,51.454217
Adriaen van Ostadehof,23,,,5753CP,Deurne,Deurne,Noord-Brabant,VBO,5.788095,51.453607
Adriaen van Ostadehof,24,,,5753CP,Deurne,Deurne,Noord-Brabant,VBO,5.788360,51.454298
Adriaen van Ostadehof,25,,,5753CP,Deurne,Deurne,Noord-Brabant,VBO,5.788498,51.453687
Adriaen van Ostadehof,26,,,5753CP,Deurne,Deurne,Noord-Brabant,VBO,5.788144,51.454254
Adriaen van Ostadehof,27,,,5753CP,Deurne,Deurne,Noord-Brabant,VBO,5.788470,51.453741
Adriaen van Ostadehof,29,,,5753CP,Deurne,Deurne,Noord-Brabant,VBO,5.788428,51.453858
Adriaen van Ostadehof,31,,,5753CP,Deurne,Deurne,Noord-Brabant,VBO,5.788400,51.453912
Adriaen van Ostadehof,33,,,5753CP,Deurne,Deurne,Noord-Brabant,VBO,5.788286,51.454074
Adriaen van Ostadehof,35,,,5753CP,Deurne,Deurne,Noord-Brabant,VBO,5.788171,51.454047
Adriaen van Ostadehof,37,,,5753CP,Deurne,Deurne,Noord-Brabant,VBO,5.787969,51.454039
Adriaen van Ostadehof,39,,,5753CP,Deurne,Deurne,Noord-Brabant,VBO,5.787855,51.454102
Adriaen van Ostadehof,41,,,5753CP,Deurne,Deurne,Noord-Brabant,VBO,5.787813,51.454210
Adriaen van Ostadehof,43,,,5753CP,Deurne,Deurne,Noord-Brabant,VBO,5.787813,51.454282
Adriaen van Ostadehof,45,,,5753CP,Deurne,Deurne,Noord-Brabant,VBO,5.787728,51.454391
Adriaen van Ostadehof,47,,,5753CP,Deurne,Deurne,Noord-Brabant,VBO,5.787771,51.454444
Adriaen van Ostadehof,49,,,5753CP,Deurne,Deurne,Noord-Brabant,VBO,5.787744,51.454570
Govert Flinckstraat,1,,,5753CS,Deurne,Deurne,Noord-Brabant,VBO,5.787233,51.452073
Govert Flinckstraat,2,,,5753CS,Deurne,Deurne,Noord-Brabant,VBO,5.786916,51.452038
Govert Flinckstraat,3,,,5753CS,Deurne,Deurne,Noord-Brabant,VBO,5.787432,51.451794
Govert Flinckstraat,4,,,5753CS,Deurne,Deurne,Noord-Brabant,VBO,5.787030,51.451903
Govert Flinckstraat,5,,,5753CS,Deurne,Deurne,Noord-Brabant,VBO,5.787489,51.451731
Govert Flinckstraat,6,,,5753CS,Deurne,Deurne,Noord-Brabant,VBO,5.787086,51.451786
Govert Flinckstraat,7,,,5753CS,Deurne,Deurne,Noord-Brabant,VBO,5.787545,51.451650
Govert Flinckstraat,8,,,5753CS,Deurne,Deurne,Noord-Brabant,VBO,5.787143,51.451687
Govert Flinckstraat,9,,,5753CS,Deurne,Deurne,Noord-Brabant,VBO,5.787644,51.451434
Govert Flinckstraat,10,,,5753CS,Deurne,Deurne,Noord-Brabant,VBO,5.787228,51.451597
Govert Flinckstraat,11,,,5753CS,Deurne,Deurne,Noord-Brabant,VBO,5.787687,51.451379
Govert Flinckstraat,12,,,5753CS,Deurne,Deurne,Noord-Brabant,VBO,5.787285,51.451525
Govert Flinckstraat,13,,,5753CS,Deurne,Deurne,Noord-Brabant,VBO,5.788017,51.451342
Govert Flinckstraat,14,,,5753CS,Deurne,Deurne,Noord-Brabant,VBO,5.787328,51.451444
Govert Flinckstraat,15,,,5753CS,Deurne,Deurne,Noord-Brabant,VBO,5.788132,51.451234
Govert Flinckstraat,16,,,5753CS,Deurne,Deurne,Noord-Brabant,VBO,5.787356,51.451372
Govert Flinckstraat,17,,,5753CS,Deurne,Deurne,Noord-Brabant,VBO,5.788174,51.451180
Govert Flinckstraat,18,,,5753CS,Deurne,Deurne,Noord-Brabant,VBO,5.787441,51.451245
Govert Flinckstraat,19,,,5753CS,Deurne,Deurne,Noord-Brabant,VBO,5.788202,51.451081
Govert Flinckstraat,20,,,5753CS,Deurne,Deurne,Noord-Brabant,VBO,5.787527,51.451137
Govert Flinckstraat,21,,,5753CS,Deurne,Deurne,Noord-Brabant,VBO,5.788245,51.451027
Govert Flinckstraat,22,,,5753CS,Deurne,Deurne,Noord-Brabant,VBO,5.787727,51.451056
Govert Flinckstraat,23,,,5753CS,Deurne,Deurne,Noord-Brabant,VBO,5.788330,51.450937
Govert Flinckstraat,25,,,5753CS,Deurne,Deurne,Noord-Brabant,VBO,5.788373,51.450874
Vincent van Goghstraat,1,,,5753CT,Deurne,Deurne,Noord-Brabant,VBO,5.790109,51.451910
Vincent van Goghstraat,2,,,5753CT,Deurne,Deurne,Noord-Brabant,VBO,5.789880,51.452046
Vincent van Goghstraat,3,,,5753CT,Deurne,Deurne,Noord-Brabant,VBO,5.790008,51.451884
Vincent van Goghstraat,4,,,5753CT,Deurne,Deurne,Noord-Brabant,VBO,5.789721,51.452038
Vincent van Goghstraat,5,,,5753CT,Deurne,Deurne,Noord-Brabant,VBO,5.789950,51.451866
Vincent van Goghstraat,6,,,5753CT,Deurne,Deurne,Noord-Brabant,VBO,5.789606,51.451993
Vincent van Goghstraat,7,,,5753CT,Deurne,Deurne,Noord-Brabant,VBO,5.789763,51.451831
Vincent van Goghstraat,8,,,5753CT,Deurne,Deurne,Noord-Brabant,VBO,5.789462,51.451967
Vincent van Goghstraat,9,,,5753CT,Deurne,Deurne,Noord-Brabant,VBO,5.789690,51.451813
Vincent van Goghstraat,10,,,5753CT,Deurne,Deurne,Noord-Brabant,VBO,5.789346,51.451904
Vincent van Goghstraat,11,,,5753CT,Deurne,Deurne,Noord-Brabant,VBO,5.789517,51.451751
Vincent van Goghstraat,12,,,5753CT,Deurne,Deurne,Noord-Brabant,VBO,5.789029,51.451878
Vincent van Goghstraat,13,,,5753CT,Deurne,Deurne,Noord-Brabant,VBO,5.789431,51.451724
Vincent van Goghstraat,14,,,5753CT,Deurne,Deurne,Noord-Brabant,VBO,5.788987,51.451959
Vincent van Goghstraat,15,,,5753CT,Deurne,Deurne,Noord-Brabant,VBO,5.789243,51.451698
Vincent van Goghstraat,17,a,,5753CT,Deurne,Deurne,Noord-Brabant,VBO,5.789111,51.451410
Vincent van Goghstraat,17,,,5753CT,Deurne,Deurne,Noord-Brabant,VBO,5.789157,51.451671
Vincent van Goghstraat,18,,,5753CT,Deurne,Deurne,Noord-Brabant,VBO,5.788555,51.451889
Vincent van Goghstraat,19,,,5753CT,Deurne,Deurne,Noord-Brabant,VBO,5.788824,51.451456
Vincent van Goghstraat,20,,,5753CT,Deurne,Deurne,Noord-Brabant,VBO,5.788454,51.451871
Vincent van Goghstraat,21,,,5753CT,Deurne,Deurne,Noord-Brabant,VBO,5.788753,51.451547
Vincent van Goghstraat,22,,,5753CT,Deurne,Deurne,Noord-Brabant,VBO,5.788281,51.451827
Vincent van Goghstraat,23,,,5753CT,Deurne,Deurne,Noord-Brabant,VBO,5.788654,51.451691
Vincent van Goghstraat,24,,,5753CT,Deurne,Deurne,Noord-Brabant,VBO,5.788194,51.451809
Vincent van Goghstraat,26,,,5753CT,Deurne,Deurne,Noord-Brabant,VBO,5.788007,51.451747
Vincent van Goghstraat,27,,,5753CT,Deurne,Deurne,Noord-Brabant,VBO,5.788279,51.451647
Vincent van Goghstraat,28,,,5753CT,Deurne,Deurne,Noord-Brabant,VBO,5.787920,51.451729
Vincent van Goghstraat,29,,,5753CT,Deurne,Deurne,Noord-Brabant,VBO,5.788221,51.451629
Vincent van Goghstraat,31,,,5753CT,Deurne,Deurne,Noord-Brabant,VBO,5.788048,51.451594
Vincent van Goghstraat,33,,,5753CT,Deurne,Deurne,Noord-Brabant,VBO,5.787976,51.451567
Leembaan,2,,,5753CV,Deurne,Deurne,Noord-Brabant,VBO,5.791058,51.455152
Leembaan,26,,,5753CV,Deurne,Deurne,Noord-Brabant,VBO,5.791982,51.452246
Leembaan,28,,,5753CV,Deurne,Deurne,Noord-Brabant,VBO,5.792067,51.452110
Leembaan,32,,,5753CV,Deurne,Deurne,Noord-Brabant,VBO,5.792549,51.451363
Leembaan,34,,,5753CV,Deurne,Deurne,Noord-Brabant,VBO,5.792592,51.451300
Leembaan,36,a,,5753CV,Deurne,Deurne,Noord-Brabant,VBO,5.792733,51.451029
Leembaan,36,,,5753CV,Deurne,Deurne,Noord-Brabant,VBO,5.792677,51.451164
Leembaan,38,,,5753CV,Deurne,Deurne,Noord-Brabant,VBO,5.792847,51.450858
Leembaan,52,,,5753CV,Deurne,Deurne,Noord-Brabant,VBO,5.794476,51.449585
Leembaan,54,,,5753CV,Deurne,Deurne,Noord-Brabant,VBO,5.794821,51.449593
Leembaan,56,,,5753CV,Deurne,Deurne,Noord-Brabant,VBO,5.795069,51.449612
Leembaan,60,,,5753CV,Deurne,Deurne,Noord-Brabant,VBO,5.795987,51.449643
Leembaan,62,,,5753CV,Deurne,Deurne,Noord-Brabant,VBO,5.796647,51.449488
Leembaan,64,,,5753CV,Deurne,Deurne,Noord-Brabant,VBO,5.797151,51.449549
Leembaan,66,,,5753CV,Deurne,Deurne,Noord-Brabant,VBO,5.797339,51.449683
Leembaan,68,,,5753CV,Deurne,Deurne,Noord-Brabant,VBO,5.797699,51.449682
Leembaan,1,,,5753CW,Deurne,Deurne,Noord-Brabant,VBO,5.791543,51.454701
Leembaan,5,,,5753CW,Deurne,Deurne,Noord-Brabant,VBO,5.791395,51.454162
Leembaan,9,,,5753CW,Deurne,Deurne,Noord-Brabant,VBO,5.791874,51.453064
Leembaan,11,,,5753CW,Deurne,Deurne,Noord-Brabant,VBO,5.792045,51.452848
Leembaan,13,a,,5753CW,Deurne,Deurne,Noord-Brabant,VBO,5.792245,51.452766
Leembaan,13,,,5753CW,Deurne,Deurne,Noord-Brabant,VBO,5.792144,51.452640
Leembaan,15,a,,5753CW,Deurne,Deurne,Noord-Brabant,VBO,5.792546,51.452648
Leembaan,15,,,5753CW,Deurne,Deurne,Noord-Brabant,VBO,5.792617,51.452531
Leembaan,17,a,,5753CW,Deurne,Deurne,Noord-Brabant,VBO,5.792630,51.452351
Leembaan,17,,,5753CW,Deurne,Deurne,Noord-Brabant,VBO,5.792328,51.452298
Leembaan,19,a,,5753CW,Deurne,Deurne,Noord-Brabant,VBO,5.792961,51.452195
Leembaan,19,,,5753CW,Deurne,Deurne,Noord-Brabant,VBO,5.792541,51.452019
Leembaan,21,a,,5753CW,Deurne,Deurne,Noord-Brabant,VBO,5.793192,51.452001
Leembaan,21,,,5753CW,Deurne,Deurne,Noord-Brabant,VBO,5.792726,51.451820
Leembaan,23,a,,5753CW,Deurne,Deurne,Noord-Brabant,VBO,5.793135,51.451730
Leembaan,23,,,5753CW,Deurne,Deurne,Noord-Brabant,VBO,5.792854,51.451595
Leembaan,25,a,,5753CW,Deurne,Deurne,Noord-Brabant,VBO,5.793270,51.451540
Leembaan,25,b,,5753CW,Deurne,Deurne,Noord-Brabant,VBO,5.793341,51.451450
Leembaan,25,,,5753CW,Deurne,Deurne,Noord-Brabant,VBO,5.793082,51.451397
Leembaan,27,a,,5753CW,Deurne,Deurne,Noord-Brabant,VBO,5.793453,51.451054
Leembaan,27,,,5753CW,Deurne,Deurne,Noord-Brabant,VBO,5.793237,51.451019
Leembaan,29,,,5753CW,Deurne,Deurne,Noord-Brabant,VBO,5.793308,51.450902
Leembaan,31,,,5753CW,Deurne,Deurne,Noord-Brabant,VBO,5.793666,51.450730
Leembaan,33,,,5753CW,Deurne,Deurne,Noord-Brabant,VBO,5.793606,51.450442
Leembaan,35,,,5753CW,Deurne,Deurne,Noord-Brabant,VBO,5.793691,51.450298
Leembaan,37,,,5753CW,Deurne,Deurne,Noord-Brabant,VBO,5.793826,51.450133
Leembaan,39,,,5753CW,Deurne,Deurne,Noord-Brabant,VBO,5.794206,51.449964
Leembaan,41,,,5753CW,Deurne,Deurne,Noord-Brabant,VBO,5.794608,51.449881
Leembaan,45,,,5753CW,Deurne,Deurne,Noord-Brabant,VBO,5.795716,51.449931
Leembaan,49,a,,5753CW,Deurne,Deurne,Noord-Brabant,VBO,5.796969,51.450071
Leembaan,49,,,5753CW,Deurne,Deurne,Noord-Brabant,VBO,5.796680,51.449991
Leembaan,51,,,5753CW,Deurne,Deurne,Noord-Brabant,VBO,5.797257,51.450151
Leembaan,53,,,5753CW,Deurne,Deurne,Noord-Brabant,VBO,5.797774,51.450023
Leembaan,55,,,5753CW,Deurne,Deurne,Noord-Brabant,VBO,5.798322,51.450156
Jozef Israëlsstraat,1,,,5753CX,Deurne,Deurne,Noord-Brabant,VBO,5.790808,51.452942
Jozef Israëlsstraat,2,,,5753CX,Deurne,Deurne,Noord-Brabant,VBO,5.790818,51.452411
Jozef Israëlsstraat,3,,,5753CX,Deurne,Deurne,Noord-Brabant,VBO,5.790851,51.452879
Jozef Israëlsstraat,4,,,5753CX,Deurne,Deurne,Noord-Brabant,VBO,5.790731,51.452394
Jozef Israëlsstraat,5,,,5753CX,Deurne,Deurne,Noord-Brabant,VBO,5.790936,51.452753
Jozef Israëlsstraat,6,,,5753CX,Deurne,Deurne,Noord-Brabant,VBO,5.790659,51.452376
Jozef Israëlsstraat,7,,,5753CX,Deurne,Deurne,Noord-Brabant,VBO,5.790979,51.452680
Jozef Israëlsstraat,8,,,5753CX,Deurne,Deurne,Noord-Brabant,VBO,5.790587,51.452349
Jozef Israëlsstraat,9,,,5753CX,Deurne,Deurne,Noord-Brabant,VBO,5.791107,51.452572
Jozef Israëlsstraat,10,,,5753CX,Deurne,Deurne,Noord-Brabant,VBO,5.790529,51.452331
Jozef Israëlsstraat,11,,,5753CX,Deurne,Deurne,Noord-Brabant,VBO,5.791135,51.452527
Jozef Israëlsstraat,12,,,5753CX,Deurne,Deurne,Noord-Brabant,VBO,5.790056,51.452468
Jozef Israëlsstraat,13,,,5753CX,Deurne,Deurne,Noord-Brabant,VBO,5.791235,51.452383
Jozef Israëlsstraat,14,,,5753CX,Deurne,Deurne,Noord-Brabant,VBO,5.790099,51.452423
Jozef Israëlsstraat,15,,,5753CX,Deurne,Deurne,Noord-Brabant,VBO,5.791263,51.452338
Jozef Israëlsstraat,16,,,5753CX,Deurne,Deurne,Noord-Brabant,VBO,5.790127,51.452378
Jozef Israëlsstraat,17,,,5753CX,Deurne,Deurne,Noord-Brabant,VBO,5.791578,51.452139
Jozef Israëlsstraat,18,,,5753CX,Deurne,Deurne,Noord-Brabant,VBO,5.790155,51.452333
Jozef Israëlsstraat,19,,,5753CX,Deurne,Deurne,Noord-Brabant,VBO,5.791477,51.452112
Jozef Israëlsstraat,20,,,5753CX,Deurne,Deurne,Noord-Brabant,VBO,5.790184,51.452297
Jozef Israëlsstraat,21,,,5753CX,Deurne,Deurne,Noord-Brabant,VBO,5.791405,51.452095
Jozef Israëlsstraat,22,,,5753CX,Deurne,Deurne,Noord-Brabant,VBO,5.790212,51.452252
Jozef Israëlsstraat,23,,,5753CX,Deurne,Deurne,Noord-Brabant,VBO,5.791333,51.452077
Jozef Israëlsstraat,24,,,5753CX,Deurne,Deurne,Noord-Brabant,VBO,5.790440,51.451990
Jozef Israëlsstraat,25,,,5753CX,Deurne,Deurne,Noord-Brabant,VBO,5.791275,51.452059
Jozef Israëlsstraat,26,,,5753CX,Deurne,Deurne,Noord-Brabant,VBO,5.790469,51.451963
Jozef Israëlsstraat,27,,,5753CX,Deurne,Deurne,Noord-Brabant,VBO,5.791088,51.451997
Jozef Israëlsstraat,28,,,5753CX,Deurne,Deurne,Noord-Brabant,VBO,5.790497,51.451918
Jozef Israëlsstraat,29,,,5753CX,Deurne,Deurne,Noord-Brabant,VBO,5.791001,51.451970
Jozef Israëlsstraat,31,,,5753CX,Deurne,Deurne,Noord-Brabant,VBO,5.790929,51.451953
Jozef Israëlsstraat,33,,,5753CX,Deurne,Deurne,Noord-Brabant,VBO,5.790871,51.451944
Jozef Israëlsstraat,35,,,5753CX,Deurne,Deurne,Noord-Brabant,VBO,5.790999,51.451701
Jozef Israëlsstraat,37,,,5753CX,Deurne,Deurne,Noord-Brabant,VBO,5.791013,51.451665
Jozef Israëlsstraat,39,,,5753CX,Deurne,Deurne,Noord-Brabant,VBO,5.791055,51.451611
Hendrik Mesdagstraat,1,a,,5753DA,Deurne,Deurne,Noord-Brabant,VBO,5.798064,51.450741
Hendrik Mesdagstraat,1,,,5753DA,Deurne,Deurne,Noord-Brabant,VBO,5.797349,51.451258
Hendrik Mesdagstraat,2,,,5753DA,Deurne,Deurne,Noord-Brabant,VBO,5.796651,51.451564
Hendrik Mesdagstraat,5,a,,5753DA,Deurne,Deurne,Noord-Brabant,VBO,5.794646,51.450924
Hendrik Mesdagstraat,5,,,5753DA,Deurne,Deurne,Noord-Brabant,VBO,5.794555,51.451380
Hendrik Mesdagstraat,6,,,5753DA,Deurne,Deurne,Noord-Brabant,VBO,5.795659,51.451577
Hendrik Mesdagstraat,7,,,5753DA,Deurne,Deurne,Noord-Brabant,VBO,5.794117,51.451339
Hendrik Mesdagstraat,8,a,,5753DA,Deurne,Deurne,Noord-Brabant,VBO,5.794739,51.451697
Hendrik Mesdagstraat,8,,,5753DA,Deurne,Deurne,Noord-Brabant,VBO,5.795041,51.451642
Hendrik Mesdagstraat,10,,,5753DA,Deurne,Deurne,Noord-Brabant,VBO,5.794279,51.451680
Hendrik Mesdagstraat,12,,,5753DA,Deurne,Deurne,Noord-Brabant,VBO,5.793868,51.451587
Hendrik Mesdagstraat,14,,,5753DA,Deurne,Deurne,Noord-Brabant,VBO,5.793644,51.451512
Jacob Marisstraat,2,,,5753DB,Deurne,Deurne,Noord-Brabant,VBO,5.796042,51.450964
Jacob Marisstraat,6,a,,5753DB,Deurne,Deurne,Noord-Brabant,VBO,5.795505,51.450507
Jacob Marisstraat,6,,,5753DB,Deurne,Deurne,Noord-Brabant,VBO,5.795980,51.450497
Jacob Marisstraat,1,a,,5753DC,Deurne,Deurne,Noord-Brabant,VBO,5.797313,51.450762
Jacob Marisstraat,1,,,5753DC,Deurne,Deurne,Noord-Brabant,VBO,5.796691,51.450748
Jacob Marisstraat,3,,,5753DC,Deurne,Deurne,Noord-Brabant,VBO,5.796659,51.450627
Jacob Marisstraat,5,,,5753DC,Deurne,Deurne,Noord-Brabant,VBO,5.796526,51.450405
Gerard Bildersstraat,1,a,,5753DE,Deurne,Deurne,Noord-Brabant,VBO,5.791586,51.453625
Gerard Bildersstraat,1,,,5753DE,Deurne,Deurne,Noord-Brabant,VBO,5.791775,51.453475
Gerard Bildersstraat,2,,,5753DE,Deurne,Deurne,Noord-Brabant,VBO,5.792221,51.453215
Gerard Bildersstraat,3,a,,5753DE,Deurne,Deurne,Noord-Brabant,VBO,5.792485,51.453626
Gerard Bildersstraat,3,,,5753DE,Deurne,Deurne,Noord-Brabant,VBO,5.792123,51.453548
Gerard Bildersstraat,4,,,5753DE,Deurne,Deurne,Noord-Brabant,VBO,5.792638,51.453268
Gerard Bildersstraat,5,,,5753DE,Deurne,Deurne,Noord-Brabant,VBO,5.792699,51.453618
Gerard Bildersstraat,6,,,5753DE,Deurne,Deurne,Noord-Brabant,VBO,5.793349,51.453408
Gerard Bildersstraat,7,a,,5753DE,Deurne,Deurne,Noord-Brabant,VBO,5.793376,51.453697
Gerard Bildersstraat,7,,,5753DE,Deurne,Deurne,Noord-Brabant,VBO,5.793086,51.453684
Gerard Bildersstraat,8,a,,5753DE,Deurne,Deurne,Noord-Brabant,VBO,5.793934,51.453353
Gerard Bildersstraat,8,b,,5753DE,Deurne,Deurne,Noord-Brabant,VBO,5.793991,51.453362
Gerard Bildersstraat,8,c,,5753DE,Deurne,Deurne,Noord-Brabant,VBO,5.794049,51.453380
Gerard Bildersstraat,8,d,,5753DE,Deurne,Deurne,Noord-Brabant,VBO,5.794164,51.453370
Gerard Bildersstraat,8,,,5753DE,Deurne,Deurne,Noord-Brabant,VBO,5.793891,51.453335
Gerard Bildersstraat,9,a,,5753DE,Deurne,Deurne,Noord-Brabant,VBO,5.793674,51.453950
Gerard Bildersstraat,9,,,5753DE,Deurne,Deurne,Noord-Brabant,VBO,5.793808,51.453731
Gerard Bildersstraat,11,,,5753DE,Deurne,Deurne,Noord-Brabant,VBO,5.794614,51.453764
Paul Gabriëlstraat,1,b,,5753DG,Deurne,Deurne,Noord-Brabant,VBO,5.794279,51.453388
Paul Gabriëlstraat,3,,,5753DG,Deurne,Deurne,Noord-Brabant,VBO,5.794620,51.452892
Paul Gabriëlstraat,4,a,,5753DG,Deurne,Deurne,Noord-Brabant,VBO,5.792976,51.452972
Paul Gabriëlstraat,4,,,5753DG,Deurne,Deurne,Noord-Brabant,VBO,5.793615,51.453085
Paul Gabriëlstraat,5,,,5753DG,Deurne,Deurne,Noord-Brabant,VBO,5.794273,51.452696
Paul Gabriëlstraat,6,a,,5753DG,Deurne,Deurne,Noord-Brabant,VBO,5.793186,51.452829
Paul Gabriëlstraat,6,,,5753DG,Deurne,Deurne,Noord-Brabant,VBO,5.793643,51.452986
Paul Gabriëlstraat,8,,,5753DG,Deurne,Deurne,Noord-Brabant,VBO,5.793814,51.452778
Paul Gabriëlstraat,9,,,5753DG,Deurne,Deurne,Noord-Brabant,VBO,5.794530,51.452461
Paul Gabriëlstraat,10,a,,5753DG,Deurne,Deurne,Noord-Brabant,VBO,5.793508,51.452411
Paul Gabriëlstraat,10,,,5753DG,Deurne,Deurne,Noord-Brabant,VBO,5.793884,51.452643
Paul Gabriëlstraat,12,a,,5753DG,Deurne,Deurne,Noord-Brabant,VBO,5.793865,51.452104
Paul Gabriëlstraat,12,,,5753DG,Deurne,Deurne,Noord-Brabant,VBO,5.794054,51.452337
Paul Gabriëlstraat,14,,,5753DG,Deurne,Deurne,Noord-Brabant,VBO,5.794267,51.452022
Paul Gabriëlstraat,19,,,5753DG,Deurne,Deurne,Noord-Brabant,VBO,5.795708,51.452259
Piet Mondriaanstraat,1,,,5753DJ,Deurne,Deurne,Noord-Brabant,VBO,5.798532,51.449580
Piet Mondriaanstraat,2,a,,5753DJ,Deurne,Deurne,Noord-Brabant,VBO,5.797810,51.449289
Piet Mondriaanstraat,2,,,5753DJ,Deurne,Deurne,Noord-Brabant,VBO,5.797926,51.449375
Piet Mondriaanstraat,3,b,,5753DJ,Deurne,Deurne,Noord-Brabant,VBO,5.799074,51.449003
Piet Mondriaanstraat,4,,,5753DJ,Deurne,Deurne,Noord-Brabant,VBO,5.798068,51.449105
Piet Mondriaanstraat,5,,,5753DJ,Deurne,Deurne,Noord-Brabant,VBO,5.798799,51.448641
Piet Mondriaanstraat,6,a,,5753DJ,Deurne,Deurne,Noord-Brabant,VBO,5.798195,51.448880
Piet Mondriaanstraat,6,,,5753DJ,Deurne,Deurne,Noord-Brabant,VBO,5.797792,51.448863
Piet Mondriaanstraat,8,,,5753DJ,Deurne,Deurne,Noord-Brabant,VBO,5.798268,51.448578
Piet Mondriaanstraat,9,,,5753DJ,Deurne,Deurne,Noord-Brabant,VBO,5.799151,51.448041
Piet Mondriaanstraat,10,,,5753DJ,Deurne,Deurne,Noord-Brabant,VBO,5.798397,51.448435
Piet Mondriaanstraat,11,,,5753DJ,Deurne,Deurne,Noord-Brabant,VBO,5.799725,51.447787
Piet Mondriaanstraat,13,,,5753DJ,Deurne,Deurne,Noord-Brabant,VBO,5.799934,51.447085
Piet Mondriaanstraat,14,a,,5753DJ,Deurne,Deurne,Noord-Brabant,VBO,5.798748,51.447952
Piet Mondriaanstraat,14,,,5753DJ,Deurne,Deurne,Noord-Brabant,VBO,5.798534,51.448142
Piet Mondriaanstraat,16,,,5753DJ,Deurne,Deurne,Noord-Brabant,VBO,5.798630,51.447611
Piet Mondriaanstraat,18,,,5753DJ,Deurne,Deurne,Noord-Brabant,VBO,5.798943,51.447250
Jan Tooropstraat,1,,,5753DK,Deurne,Deurne,Noord-Brabant,VBO,5.795983,51.449220
Jan Tooropstraat,2,,,5753DK,Deurne,Deurne,Noord-Brabant,VBO,5.795559,51.449318
Jan Tooropstraat,3,a,,5753DK,Deurne,Deurne,Noord-Brabant,VBO,5.796292,51.448437
Jan Tooropstraat,3,,,5753DK,Deurne,Deurne,Noord-Brabant,VBO,5.795995,51.449014
Jan Tooropstraat,4,,,5753DK,Deurne,Deurne,Noord-Brabant,VBO,5.795577,51.448898
Jan Tooropstraat,6,a,,5753DK,Deurne,Deurne,Noord-Brabant,VBO,5.795655,51.448598
Jan Tooropstraat,6,,,5753DK,Deurne,Deurne,Noord-Brabant,VBO,5.795287,51.448659
Jan Tooropstraat,8,,,5753DK,Deurne,Deurne,Noord-Brabant,VBO,5.795713,51.448426
Jan Tooropstraat,10,,,5753DK,Deurne,Deurne,Noord-Brabant,VBO,5.795441,51.448189
Jan Tooropstraat,12,,,5753DK,Deurne,Deurne,Noord-Brabant,VBO,5.795958,51.448052
Jan Tooropstraat,16,,,5753DK,Deurne,Deurne,Noord-Brabant,VBO,5.796383,51.447295
Theo van Doesburgstraat,8,,,5753DL,Deurne,Deurne,Noord-Brabant,VBO,5.796860,51.447536
Beukenstraat,1,a,,5753GA,Deurne,Deurne,Noord-Brabant,VBO,5.783190,51.452087
Beukenstraat,1,b,,5753GA,Deurne,Deurne,Noord-Brabant,VBO,5.783031,51.451971
Beukenstraat,1,,,5753GA,Deurne,Deurne,Noord-Brabant,VBO,5.783315,51.452191
Beukenstraat,7,,,5753GA,Deurne,Deurne,Noord-Brabant,VBO,5.782350,51.451416
Beukenstraat,9,,,5753GA,Deurne,Deurne,Noord-Brabant,VBO,5.782292,51.451371
Beukenstraat,11,,,5753GA,Deurne,Deurne,Noord-Brabant,VBO,5.782378,51.451389
Beukenstraat,13,,,5753GA,Deurne,Deurne,Noord-Brabant,VBO,5.782306,51.451344
Beukenstraat,15,,,5753GA,Deurne,Deurne,Noord-Brabant,VBO,5.782219,51.451272
Beukenstraat,17,,,5753GA,Deurne,Deurne,Noord-Brabant,VBO,5.782132,51.451210
Beukenstraat,19,,,5753GA,Deurne,Deurne,Noord-Brabant,VBO,5.782045,51.451147
Beukenstraat,21,,,5753GA,Deurne,Deurne,Noord-Brabant,VBO,5.781973,51.451075
Beukenstraat,23,,,5753GA,Deurne,Deurne,Noord-Brabant,VBO,5.781886,51.451022
Beukenstraat,25,,,5753GA,Deurne,Deurne,Noord-Brabant,VBO,5.782030,51.450994
Beukenstraat,27,,,5753GA,Deurne,Deurne,Noord-Brabant,VBO,5.782407,51.451379
Beukenstraat,29,,,5753GA,Deurne,Deurne,Noord-Brabant,VBO,5.782320,51.451326
Beukenstraat,31,,,5753GA,Deurne,Deurne,Noord-Brabant,VBO,5.782248,51.451254
Beukenstraat,33,,,5753GA,Deurne,Deurne,Noord-Brabant,VBO,5.782161,51.451201
Beukenstraat,35,,,5753GA,Deurne,Deurne,Noord-Brabant,VBO,5.782074,51.451138
Beukenstraat,37,,,5753GA,Deurne,Deurne,Noord-Brabant,VBO,5.781987,51.451066
Beukenstraat,39,,,5753GA,Deurne,Deurne,Noord-Brabant,VBO,5.781901,51.451040
Beukenstraat,41,,,5753GA,Deurne,Deurne,Noord-Brabant,VBO,5.782073,51.451003
Beukenstraat,43,,,5753GA,Deurne,Deurne,Noord-Brabant,VBO,5.782407,51.451353
Beukenstraat,45,,,5753GA,Deurne,Deurne,Noord-Brabant,VBO,5.782306,51.451281
Beukenstraat,47,,,5753GA,Deurne,Deurne,Noord-Brabant,VBO,5.782204,51.451200
Beukenstraat,49,,,5753GA,Deurne,Deurne,Noord-Brabant,VBO,5.782088,51.451120
Beukenstraat,51,,,5753GA,Deurne,Deurne,Noord-Brabant,VBO,5.781929,51.451031
Beukenstraat,53,,,5753GA,Deurne,Deurne,Noord-Brabant,VBO,5.782102,51.451012
Beukenstraat,2,,,5753GB,Deurne,Deurne,Noord-Brabant,VBO,5.783672,51.452939
Beukenstraat,4,z,,5753GB,Deurne,Deurne,Noord-Brabant,VBO,5.783430,51.452783
Beukenstraat,4,,,5753GB,Deurne,Deurne,Noord-Brabant,VBO,5.783672,51.452894
Beukenstraat,6,,,5753GB,Deurne,Deurne,Noord-Brabant,VBO,5.783397,51.452679
Beukenstraat,8,,,5753GB,Deurne,Deurne,Noord-Brabant,VBO,5.783295,51.452608
Beukenstraat,10,,,5753GB,Deurne,Deurne,Noord-Brabant,VBO,5.783151,51.452501
Beukenstraat,12,,,5753GB,Deurne,Deurne,Noord-Brabant,VBO,5.783035,51.452429
Beukenstraat,14,,,5753GB,Deurne,Deurne,Noord-Brabant,VBO,5.782919,51.452313
Beukenstraat,16,,,5753GB,Deurne,Deurne,Noord-Brabant,VBO,5.782861,51.452268
Beukenstraat,18,,,5753GB,Deurne,Deurne,Noord-Brabant,VBO,5.782687,51.452161
Beukenstraat,20,,,5753GB,Deurne,Deurne,Noord-Brabant,VBO,5.782600,51.452098
Beukenstraat,22,,,5753GB,Deurne,Deurne,Noord-Brabant,VBO,5.782441,51.451982
Beukenstraat,24,,,5753GB,Deurne,Deurne,Noord-Brabant,VBO,5.782354,51.451919
Beukenstraat,26,,,5753GB,Deurne,Deurne,Noord-Brabant,VBO,5.782209,51.451776
Beukenstraat,28,,,5753GB,Deurne,Deurne,Noord-Brabant,VBO,5.782180,51.451749
Beukenstraat,30,,,5753GB,Deurne,Deurne,Noord-Brabant,VBO,5.781949,51.451624
Beukenstraat,32,,,5753GB,Deurne,Deurne,Noord-Brabant,VBO,5.781876,51.451570
Beukenstraat,34,,,5753GB,Deurne,Deurne,Noord-Brabant,VBO,5.781659,51.451427
Beukenstraat,36,,,5753GB,Deurne,Deurne,Noord-Brabant,VBO,5.781572,51.451355
Beukenstraat,38,,,5753GB,Deurne,Deurne,Noord-Brabant,VBO,5.781384,51.451203
Beukenstraat,40,,,5753GB,Deurne,Deurne,Noord-Brabant,VBO,5.781298,51.451185
Beukenstraat,42,,,5753GC,Deurne,Deurne,Noord-Brabant,VBO,5.781191,51.450530
Beukenstraat,44,,,5753GC,Deurne,Deurne,Noord-Brabant,VBO,5.781176,51.450422
Beukenstraat,46,a,,5753GC,Deurne,Deurne,Noord-Brabant,VBO,5.781261,51.450233
Beukenstraat,46,,,5753GC,Deurne,Deurne,Noord-Brabant,VBO,5.781260,51.450215
Beukenstraat,48,,,5753GC,Deurne,Deurne,Noord-Brabant,VBO,5.781202,51.450107
Beukenstraat,50,,,5753GC,Deurne,Deurne,Noord-Brabant,VBO,5.781215,51.449990
Beukenstraat,52,,,5753GC,Deurne,Deurne,Noord-Brabant,VBO,5.781215,51.449927
Beukenstraat,54,,,5753GC,Deurne,Deurne,Noord-Brabant,VBO,5.781257,51.449828
Beukenstraat,56,,,5753GC,Deurne,Deurne,Noord-Brabant,VBO,5.781257,51.449774
Beukenstraat,58,,,5753GC,Deurne,Deurne,Noord-Brabant,VBO,5.781256,51.449667
Beukenstraat,60,,,5753GC,Deurne,Deurne,Noord-Brabant,VBO,5.781255,51.449622
Beukenstraat,62,,,5753GC,Deurne,Deurne,Noord-Brabant,VBO,5.781254,51.449451
Beukenstraat,121,a,,5753GC,Deurne,Deurne,Noord-Brabant,VBO,5.781841,51.450127
Beukenstraat,121,,,5753GC,Deurne,Deurne,Noord-Brabant,VBO,5.781734,51.450105
Beukenstraat,123,,,5753GC,Deurne,Deurne,Noord-Brabant,VBO,5.781892,51.450024
Beukenstraat,125,,,5753GC,Deurne,Deurne,Noord-Brabant,VBO,5.781734,51.450024
Beukenstraat,127,,,5753GC,Deurne,Deurne,Noord-Brabant,VBO,5.781763,51.450123
Beukenstraat,129,,,5753GC,Deurne,Deurne,Noord-Brabant,VBO,5.781935,51.450042
Beukenstraat,131,,,5753GC,Deurne,Deurne,Noord-Brabant,VBO,5.781763,51.450042
Beukenstraat,133,,,5753GC,Deurne,Deurne,Noord-Brabant,VBO,5.781777,51.450105
Beukenstraat,135,,,5753GC,Deurne,Deurne,Noord-Brabant,VBO,5.781949,51.450024
Beukenstraat,137,,,5753GC,Deurne,Deurne,Noord-Brabant,VBO,5.781777,51.450024
Beukenstraat,151,,,5753GC,Deurne,Deurne,Noord-Brabant,VBO,5.781732,51.449881
Beukenstraat,153,,,5753GC,Deurne,Deurne,Noord-Brabant,VBO,5.781904,51.449799
Beukenstraat,155,,,5753GC,Deurne,Deurne,Noord-Brabant,VBO,5.781732,51.449800
Beukenstraat,157,,,5753GC,Deurne,Deurne,Noord-Brabant,VBO,5.781761,51.449899
Beukenstraat,159,,,5753GC,Deurne,Deurne,Noord-Brabant,VBO,5.781933,51.449817
Beukenstraat,161,,,5753GC,Deurne,Deurne,Noord-Brabant,VBO,5.781775,51.449818
Beukenstraat,163,,,5753GC,Deurne,Deurne,Noord-Brabant,VBO,5.781775,51.449880
Beukenstraat,165,,,5753GC,Deurne,Deurne,Noord-Brabant,VBO,5.781947,51.449799
Beukenstraat,167,,,5753GC,Deurne,Deurne,Noord-Brabant,VBO,5.781789,51.449800
Beukenstraat,66,,,5753GD,Deurne,Deurne,Noord-Brabant,VBO,5.781732,51.448164
Beukenstraat,68,,,5753GD,Deurne,Deurne,Noord-Brabant,VBO,5.781789,51.448074
Beukenstraat,70,,,5753GD,Deurne,Deurne,Noord-Brabant,VBO,5.781845,51.447975
Beukenstraat,72,,,5753GD,Deurne,Deurne,Noord-Brabant,VBO,5.781902,51.447894
Beukenstraat,74,,,5753GD,Deurne,Deurne,Noord-Brabant,VBO,5.781973,51.447767
Beukenstraat,76,,,5753GD,Deurne,Deurne,Noord-Brabant,VBO,5.782001,51.447713
Beukenstraat,80,,,5753GD,Deurne,Deurne,Noord-Brabant,VBO,5.782031,51.447328
Beukenstraat,90,,,5753GD,Deurne,Deurne,Noord-Brabant,VBO,5.782455,51.446975
Beukenstraat,92,,,5753GD,Deurne,Deurne,Noord-Brabant,VBO,5.782439,51.446786
Beukenstraat,94,,,5753GD,Deurne,Deurne,Noord-Brabant,VBO,5.782624,51.446552
Beukenstraat,96,,,5753GD,Deurne,Deurne,Noord-Brabant,VBO,5.782638,51.446480
Beukenstraat,100,,,5753GD,Deurne,Deurne,Noord-Brabant,VBO,5.782703,51.445734
Beukenstraat,102,,,5753GD,Deurne,Deurne,Noord-Brabant,VBO,5.782660,51.445662
Eikelstraat,11,,,5753GE,Deurne,Deurne,Noord-Brabant,VBO,5.780005,51.451459
Eikelstraat,13,,,5753GE,Deurne,Deurne,Noord-Brabant,VBO,5.780120,51.451432
Eikelstraat,15,,,5753GE,Deurne,Deurne,Noord-Brabant,VBO,5.780350,51.451386
Eikelstraat,17,,,5753GE,Deurne,Deurne,Noord-Brabant,VBO,5.780465,51.451350
Eikelstraat,19,,,5753GE,Deurne,Deurne,Noord-Brabant,VBO,5.780694,51.451304
Eikelstraat,21,,,5753GE,Deurne,Deurne,Noord-Brabant,VBO,5.780838,51.451268
Eikelstraat,2,,,5753GG,Deurne,Deurne,Noord-Brabant,VBO,5.778655,51.451743
Eikelstraat,4,,,5753GG,Deurne,Deurne,Noord-Brabant,VBO,5.778827,51.451652
Eikelstraat,8,,,5753GG,Deurne,Deurne,Noord-Brabant,VBO,5.779071,51.451508
Eikelstraat,10,,,5753GG,Deurne,Deurne,Noord-Brabant,VBO,5.779214,51.451426
Eikelstraat,12,,,5753GG,Deurne,Deurne,Noord-Brabant,VBO,5.779300,51.451381
Eikelstraat,14,a,,5753GG,Deurne,Deurne,Noord-Brabant,VBO,5.779529,51.451272
Eikelstraat,14,,,5753GG,Deurne,Deurne,Noord-Brabant,VBO,5.779270,51.451246
Eikelstraat,16,,,5753GG,Deurne,Deurne,Noord-Brabant,VBO,5.779701,51.451200
Eikelstraat,18,,,5753GG,Deurne,Deurne,Noord-Brabant,VBO,5.779787,51.451182
Eikelstraat,20,,,5753GG,Deurne,Deurne,Noord-Brabant,VBO,5.779974,51.451136
Eikelstraat,22,,,5753GG,Deurne,Deurne,Noord-Brabant,VBO,5.780146,51.451090
Eikelstraat,24,,,5753GG,Deurne,Deurne,Noord-Brabant,VBO,5.780275,51.451054
Eikelstraat,26,,,5753GG,Deurne,Deurne,Noord-Brabant,VBO,5.780462,51.451018
Eikelstraat,28,,,5753GG,Deurne,Deurne,Noord-Brabant,VBO,5.780605,51.450981
Eikelstraat,30,,,5753GG,Deurne,Deurne,Noord-Brabant,VBO,5.780778,51.450927
Eikelstraat,32,,,5753GG,Deurne,Deurne,Noord-Brabant,VBO,5.781122,51.450871
Eikelstraat,34,,,5753GG,Deurne,Deurne,Noord-Brabant,VBO,5.781180,51.450835
Wilgenhof,1,,,5753GH,Deurne,Deurne,Noord-Brabant,VBO,5.780618,51.445732
Wilgenhof,2,,,5753GH,Deurne,Deurne,Noord-Brabant,VBO,5.782735,51.446102
Wilgenhof,3,,,5753GH,Deurne,Deurne,Noord-Brabant,VBO,5.780762,51.445767
Wilgenhof,4,,,5753GH,Deurne,Deurne,Noord-Brabant,VBO,5.782649,51.446093
Wilgenhof,5,,,5753GH,Deurne,Deurne,Noord-Brabant,VBO,5.780892,51.445821
Wilgenhof,6,,,5753GH,Deurne,Deurne,Noord-Brabant,VBO,5.782562,51.446076
Wilgenhof,7,,,5753GH,Deurne,Deurne,Noord-Brabant,VBO,5.781064,51.445829
Wilgenhof,8,,,5753GH,Deurne,Deurne,Noord-Brabant,VBO,5.782476,51.446058
Wilgenhof,9,,,5753GH,Deurne,Deurne,Noord-Brabant,VBO,5.781353,51.445909
Wilgenhof,10,,,5753GH,Deurne,Deurne,Noord-Brabant,VBO,5.782404,51.446058
Wilgenhof,11,,,5753GH,Deurne,Deurne,Noord-Brabant,VBO,5.781497,51.445935
Wilgenhof,12,,,5753GH,Deurne,Deurne,Noord-Brabant,VBO,5.782303,51.446040
Wilgenhof,13,,,5753GH,Deurne,Deurne,Noord-Brabant,VBO,5.781612,51.445953
Wilgenhof,14,,,5753GH,Deurne,Deurne,Noord-Brabant,VBO,5.782231,51.446041
Wilgenhof,15,,,5753GH,Deurne,Deurne,Noord-Brabant,VBO,5.781713,51.445971
Wilgenhof,16,,,5753GH,Deurne,Deurne,Noord-Brabant,VBO,5.782099,51.446206
Wilgenhof,17,,,5753GH,Deurne,Deurne,Noord-Brabant,VBO,5.781804,51.445971
Wilgenhof,18,,,5753GH,Deurne,Deurne,Noord-Brabant,VBO,5.782060,51.446239
Wilgenhof,19,,,5753GH,Deurne,Deurne,Noord-Brabant,VBO,5.781375,51.445908
Wilgenhof,20,,,5753GH,Deurne,Deurne,Noord-Brabant,VBO,5.782046,51.446284
Wilgenhof,21,,,5753GH,Deurne,Deurne,Noord-Brabant,VBO,5.781488,51.445913
Wilgenhof,22,,,5753GH,Deurne,Deurne,Noord-Brabant,VBO,5.782018,51.446329
Wilgenhof,23,,,5753GH,Deurne,Deurne,Noord-Brabant,VBO,5.781660,51.445946
Wilgenhof,24,,,5753GH,Deurne,Deurne,Noord-Brabant,VBO,5.781990,51.446392
Wilgenhof,25,,,5753GH,Deurne,Deurne,Noord-Brabant,VBO,5.781766,51.445964
Wilgenhof,26,,,5753GH,Deurne,Deurne,Noord-Brabant,VBO,5.781946,51.446435
Wilgenhof,27,,,5753GH,Deurne,Deurne,Noord-Brabant,VBO,5.781796,51.445989
Wilgenhof,28,,,5753GH,Deurne,Deurne,Noord-Brabant,VBO,5.781915,51.446481
Wilgenhof,29,,,5753GH,Deurne,Deurne,Noord-Brabant,VBO,5.781366,51.445896
Wilgenhof,30,,,5753GH,Deurne,Deurne,Noord-Brabant,VBO,5.781885,51.446530
Wilgenhof,31,,,5753GH,Deurne,Deurne,Noord-Brabant,VBO,5.781469,51.445922
Wilgenhof,32,a,,5753GH,Deurne,Deurne,Noord-Brabant,VBO,5.781848,51.446626
Wilgenhof,32,,,5753GH,Deurne,Deurne,Noord-Brabant,VBO,5.781876,51.446572
Wilgenhof,33,,,5753GH,Deurne,Deurne,Noord-Brabant,VBO,5.781600,51.445939
Wilgenhof,34,,,5753GH,Deurne,Deurne,Noord-Brabant,VBO,5.781791,51.446707
Wilgenhof,35,,,5753GH,Deurne,Deurne,Noord-Brabant,VBO,5.781737,51.445985
Wilgenhof,36,,,5753GH,Deurne,Deurne,Noord-Brabant,VBO,5.781705,51.446690
Wilgenhof,37,,,5753GH,Deurne,Deurne,Noord-Brabant,VBO,5.781785,51.446003
Wilgenhof,38,,,5753GH,Deurne,Deurne,Noord-Brabant,VBO,5.781611,51.446690
Wilgenhof,40,,,5753GH,Deurne,Deurne,Noord-Brabant,VBO,5.781546,51.446673
Wilgenhof,42,,,5753GH,Deurne,Deurne,Noord-Brabant,VBO,5.781463,51.446662
Wilgenhof,44,,,5753GH,Deurne,Deurne,Noord-Brabant,VBO,5.781363,51.446554
Wilgenhof,46,,,5753GH,Deurne,Deurne,Noord-Brabant,VBO,5.781252,51.446543
Wilgenhof,48,,,5753GH,Deurne,Deurne,Noord-Brabant,VBO,5.781128,51.446485
Wilgenhof,50,,,5753GH,Deurne,Deurne,Noord-Brabant,VBO,5.780998,51.446458
Wilgenhof,52,,,5753GH,Deurne,Deurne,Noord-Brabant,VBO,5.780854,51.446423
Wilgenhof,54,,,5753GH,Deurne,Deurne,Noord-Brabant,VBO,5.780724,51.446387
Wilgenhof,56,,,5753GH,Deurne,Deurne,Noord-Brabant,VBO,5.780623,51.446343
Wilgenhof,58,,,5753GH,Deurne,Deurne,Noord-Brabant,VBO,5.780479,51.446325
Wilgenhof,60,,,5753GH,Deurne,Deurne,Noord-Brabant,VBO,5.780351,51.446326
Wilgenhof,62,,,5753GH,Deurne,Deurne,Noord-Brabant,VBO,5.780215,51.446293
Wilgenhof,64,,,5753GH,Deurne,Deurne,Noord-Brabant,VBO,5.779923,51.446295
Wilgenhof,66,,,5753GH,Deurne,Deurne,Noord-Brabant,VBO,5.779974,51.446111
Wilgenhof,68,,,5753GH,Deurne,Deurne,Noord-Brabant,VBO,5.780059,51.445994
Wilgenhof,70,,,5753GH,Deurne,Deurne,Noord-Brabant,VBO,5.780134,51.445860
Wilgenhof,72,,,5753GH,Deurne,Deurne,Noord-Brabant,VBO,5.780215,51.445715
Wilgenhof,74,,,5753GH,Deurne,Deurne,Noord-Brabant,VBO,5.780271,51.445589
Wilgenhof,88,,,5753GH,Deurne,Deurne,Noord-Brabant,VBO,5.780385,51.445330
Wilgenhof,90,,,5753GH,Deurne,Deurne,Noord-Brabant,VBO,5.780588,51.445407
Wilgenhof,92,,,5753GH,Deurne,Deurne,Noord-Brabant,VBO,5.780774,51.445497
Wilgenhof,94,,,5753GH,Deurne,Deurne,Noord-Brabant,VBO,5.781019,51.445559
Wilgenhof,96,,,5753GH,Deurne,Deurne,Noord-Brabant,VBO,5.781206,51.445604
Wilgenhof,98,,,5753GH,Deurne,Deurne,Noord-Brabant,VBO,5.781422,51.445657
Wilgenhof,100,,,5753GH,Deurne,Deurne,Noord-Brabant,VBO,5.781682,51.445692
Berkenstraat,3,,,5753GJ,Deurne,Deurne,Noord-Brabant,VBO,5.778096,51.450978
Berkenstraat,5,,,5753GJ,Deurne,Deurne,Noord-Brabant,VBO,5.778159,51.450946
Berkenstraat,7,,,5753GJ,Deurne,Deurne,Noord-Brabant,VBO,5.778304,51.450868
Berkenstraat,9,,,5753GJ,Deurne,Deurne,Noord-Brabant,VBO,5.778372,51.450836
Berkenstraat,11,,,5753GJ,Deurne,Deurne,Noord-Brabant,VBO,5.778507,51.450753
Berkenstraat,13,,,5753GJ,Deurne,Deurne,Noord-Brabant,VBO,5.778579,51.450721
Berkenstraat,15,,,5753GJ,Deurne,Deurne,Noord-Brabant,VBO,5.778718,51.450646
Berkenstraat,17,,,5753GJ,Deurne,Deurne,Noord-Brabant,VBO,5.778918,51.450546
Berkenstraat,19,,,5753GJ,Deurne,Deurne,Noord-Brabant,VBO,5.779004,51.450501
Berkenstraat,21,,,5753GJ,Deurne,Deurne,Noord-Brabant,VBO,5.779148,51.450438
Berkenstraat,23,,,5753GJ,Deurne,Deurne,Noord-Brabant,VBO,5.779291,51.450365
Berkenstraat,25,,,5753GJ,Deurne,Deurne,Noord-Brabant,VBO,5.779448,51.450284
Berkenstraat,27,,,5753GJ,Deurne,Deurne,Noord-Brabant,VBO,5.779606,51.450202
Berkenstraat,29,,,5753GJ,Deurne,Deurne,Noord-Brabant,VBO,5.779764,51.450121
Berkenstraat,31,,,5753GJ,Deurne,Deurne,Noord-Brabant,VBO,5.779921,51.450049
Berkenstraat,35,,,5753GJ,Deurne,Deurne,Noord-Brabant,VBO,5.780122,51.449976
Berkenstraat,37,,,5753GJ,Deurne,Deurne,Noord-Brabant,VBO,5.780280,51.449904
Berkenstraat,39,,,5753GJ,Deurne,Deurne,Noord-Brabant,VBO,5.780351,51.449858
Berkenstraat,41,,,5753GJ,Deurne,Deurne,Noord-Brabant,VBO,5.780569,51.450136
Berkenstraat,43,,,5753GJ,Deurne,Deurne,Noord-Brabant,VBO,5.780465,51.449777
Berkenstraat,45,,,5753GJ,Deurne,Deurne,Noord-Brabant,VBO,5.780537,51.449741
Berkenstraat,47,,,5753GJ,Deurne,Deurne,Noord-Brabant,VBO,5.780680,51.449686
Berkenstraat,49,,,5753GJ,Deurne,Deurne,Noord-Brabant,VBO,5.780766,51.449650
Berkenstraat,51,,,5753GJ,Deurne,Deurne,Noord-Brabant,VBO,5.780867,51.449578
Berkenstraat,53,,,5753GJ,Deurne,Deurne,Noord-Brabant,VBO,5.780953,51.449542
Berkenstraat,55,,,5753GJ,Deurne,Deurne,Noord-Brabant,VBO,5.781153,51.449433
Berkenstraat,2,,,5753GK,Deurne,Deurne,Noord-Brabant,VBO,5.777541,51.450919
Berkenstraat,4,,,5753GK,Deurne,Deurne,Noord-Brabant,VBO,5.777770,51.450784
Berkenstraat,6,,,5753GK,Deurne,Deurne,Noord-Brabant,VBO,5.777870,51.450730
Berkenstraat,8,,,5753GK,Deurne,Deurne,Noord-Brabant,VBO,5.778070,51.450630
Berkenstraat,10,a,,5753GK,Deurne,Deurne,Noord-Brabant,VBO,5.778328,51.450503
Berkenstraat,10,,,5753GK,Deurne,Deurne,Noord-Brabant,VBO,5.778199,51.450540
Berkenstraat,12,a,,5753GK,Deurne,Deurne,Noord-Brabant,VBO,5.778629,51.450350
Berkenstraat,12,,,5753GK,Deurne,Deurne,Noord-Brabant,VBO,5.778471,51.450422
Berkenstraat,14,a,,5753GK,Deurne,Deurne,Noord-Brabant,VBO,5.778959,51.450276
Berkenstraat,14,,,5753GK,Deurne,Deurne,Noord-Brabant,VBO,5.778816,51.450295
Berkenstraat,16,,,5753GK,Deurne,Deurne,Noord-Brabant,VBO,5.779088,51.450150
Berkenstraat,18,,,5753GK,Deurne,Deurne,Noord-Brabant,VBO,5.779231,51.450078
Berkenstraat,20,,,5753GK,Deurne,Deurne,Noord-Brabant,VBO,5.779302,51.450042
Berkenstraat,22,a,,5753GK,Deurne,Deurne,Noord-Brabant,VBO,5.779517,51.449879
Berkenstraat,22,,,5753GK,Deurne,Deurne,Noord-Brabant,VBO,5.779451,51.449963
Berkenstraat,24,,,5753GK,Deurne,Deurne,Noord-Brabant,VBO,5.779675,51.449870
Berkenstraat,26,,,5753GK,Deurne,Deurne,Noord-Brabant,VBO,5.779861,51.449761
Berkenstraat,28,,,5753GK,Deurne,Deurne,Noord-Brabant,VBO,5.780119,51.449643
Berkenstraat,30,,,5753GK,Deurne,Deurne,Noord-Brabant,VBO,5.780276,51.449463
Berkenstraat,32,a,,5753GK,Deurne,Deurne,Noord-Brabant,VBO,5.780635,51.449381
Berkenstraat,32,,,5753GK,Deurne,Deurne,Noord-Brabant,VBO,5.780434,51.449481
Berkenstraat,34,,,5753GK,Deurne,Deurne,Noord-Brabant,VBO,5.780792,51.449300
Berkenstraat,36,,,5753GK,Deurne,Deurne,Noord-Brabant,VBO,5.780850,51.449272
Berkenstraat,38,,,5753GK,Deurne,Deurne,Noord-Brabant,VBO,5.780936,51.449245
Berkenstraat,40,,,5753GK,Deurne,Deurne,Noord-Brabant,VBO,5.781007,51.449200
Sint Jozefplein,1,,,5753GL,Deurne,Deurne,Noord-Brabant,VBO,5.781005,51.448930
Sint Jozefplein,2,,,5753GL,Deurne,Deurne,Noord-Brabant,VBO,5.780933,51.448886
Sint Jozefplein,3,,,5753GL,Deurne,Deurne,Noord-Brabant,VBO,5.780817,51.448787
Sint Jozefplein,4,,,5753GL,Deurne,Deurne,Noord-Brabant,VBO,5.780759,51.448742
Sint Jozefplein,5,,,5753GL,Deurne,Deurne,Noord-Brabant,VBO,5.780686,51.448680
Sint Jozefplein,6,,,5753GL,Deurne,Deurne,Noord-Brabant,VBO,5.780599,51.448617
Sint Jozefplein,7,,,5753GL,Deurne,Deurne,Noord-Brabant,VBO,5.780599,51.448512
Sint Jozefplein,8,,,5753GL,Deurne,Deurne,Noord-Brabant,VBO,5.780668,51.448483
Sint Jozefplein,9,,,5753GL,Deurne,Deurne,Noord-Brabant,VBO,5.780756,51.448446
Sint Jozefplein,10,,,5753GL,Deurne,Deurne,Noord-Brabant,VBO,5.780842,51.448409
Sint Jozefplein,11,,,5753GL,Deurne,Deurne,Noord-Brabant,VBO,5.780899,51.448373
Sint Jozefplein,12,,,5753GL,Deurne,Deurne,Noord-Brabant,VBO,5.780985,51.448337
Sint Jozefplein,13,,,5753GL,Deurne,Deurne,Noord-Brabant,VBO,5.781065,51.448282
Sint Jozefplein,14,,,5753GL,Deurne,Deurne,Noord-Brabant,VBO,5.781141,51.448255
Sint Jozefplein,15,,,5753GL,Deurne,Deurne,Noord-Brabant,VBO,5.781330,51.448300
Sint Jozefplein,17,,,5753GL,Deurne,Deurne,Noord-Brabant,VBO,5.781518,51.448443
Sint Jozefplein,18,,,5753GL,Deurne,Deurne,Noord-Brabant,VBO,5.781590,51.448425
Keltenstraat,1,,,5753GM,Deurne,Deurne,Noord-Brabant,VBO,5.785363,51.450542
Keltenstraat,3,,,5753GM,Deurne,Deurne,Noord-Brabant,VBO,5.785234,51.450498
Keltenstraat,5,,,5753GM,Deurne,Deurne,Noord-Brabant,VBO,5.785075,51.450427
Keltenstraat,7,,,5753GM,Deurne,Deurne,Noord-Brabant,VBO,5.784930,51.450373
Keltenstraat,9,,,5753GM,Deurne,Deurne,Noord-Brabant,VBO,5.784786,51.450320
Keltenstraat,11,,,5753GM,Deurne,Deurne,Noord-Brabant,VBO,5.784642,51.450257
Keltenstraat,13,,,5753GM,Deurne,Deurne,Noord-Brabant,VBO,5.784468,51.450195
Keltenstraat,15,,,5753GM,Deurne,Deurne,Noord-Brabant,VBO,5.784353,51.450150
Keltenstraat,17,,,5753GM,Deurne,Deurne,Noord-Brabant,VBO,5.783978,51.449999
Keltenstraat,19,,,5753GM,Deurne,Deurne,Noord-Brabant,VBO,5.783011,51.449652
Keltenstraat,21,,,5753GM,Deurne,Deurne,Noord-Brabant,VBO,5.782924,51.449598
Keltenstraat,23,,,5753GM,Deurne,Deurne,Noord-Brabant,VBO,5.782736,51.449527
Keltenstraat,25,,,5753GM,Deurne,Deurne,Noord-Brabant,VBO,5.782635,51.449482
Keltenstraat,27,,,5753GM,Deurne,Deurne,Noord-Brabant,VBO,5.782448,51.449411
Keltenstraat,29,,,5753GM,Deurne,Deurne,Noord-Brabant,VBO,5.782318,51.449366
Keltenstraat,31,,,5753GM,Deurne,Deurne,Noord-Brabant,VBO,5.782130,51.449286
Keltenstraat,33,,,5753GM,Deurne,Deurne,Noord-Brabant,VBO,5.782029,51.449250
Keltenstraat,2,,,5753GN,Deurne,Deurne,Noord-Brabant,VBO,5.785077,51.450714
Keltenstraat,4,,,5753GN,Deurne,Deurne,Noord-Brabant,VBO,5.785019,51.450687
Keltenstraat,6,,,5753GN,Deurne,Deurne,Noord-Brabant,VBO,5.784817,51.450625
Keltenstraat,8,,,5753GN,Deurne,Deurne,Noord-Brabant,VBO,5.784760,51.450598
Keltenstraat,10,,,5753GN,Deurne,Deurne,Noord-Brabant,VBO,5.784586,51.450527
Keltenstraat,12,,,5753GN,Deurne,Deurne,Noord-Brabant,VBO,5.784514,51.450482
Keltenstraat,14,,,5753GN,Deurne,Deurne,Noord-Brabant,VBO,5.784197,51.450376
Keltenstraat,16,,,5753GN,Deurne,Deurne,Noord-Brabant,VBO,5.782638,51.449779
Keltenstraat,18,,,5753GN,Deurne,Deurne,Noord-Brabant,VBO,5.782248,51.449627
Keltenstraat,20,,,5753GN,Deurne,Deurne,Noord-Brabant,VBO,5.782321,51.449780
Keltenstraat,22,,,5753GN,Deurne,Deurne,Noord-Brabant,VBO,5.782422,51.449824
Keltenstraat,24,,,5753GN,Deurne,Deurne,Noord-Brabant,VBO,5.782307,51.449807
Keltenstraat,26,,,5753GN,Deurne,Deurne,Noord-Brabant,VBO,5.782423,51.449851
Keltenstraat,28,,,5753GN,Deurne,Deurne,Noord-Brabant,VBO,5.782523,51.449842
Keltenstraat,30,,,5753GN,Deurne,Deurne,Noord-Brabant,VBO,5.782625,51.449932
Keltenstraat,32,,,5753GN,Deurne,Deurne,Noord-Brabant,VBO,5.782740,51.449967
Keltenstraat,34,,,5753GN,Deurne,Deurne,Noord-Brabant,VBO,5.782841,51.450012
Keltenstraat,36,,,5753GN,Deurne,Deurne,Noord-Brabant,VBO,5.782942,51.450056
Keltenstraat,38,,,5753GN,Deurne,Deurne,Noord-Brabant,VBO,5.781760,51.449657
Keltenstraat,40,,,5753GN,Deurne,Deurne,Noord-Brabant,VBO,5.781808,51.449660
Keltenstraat,44,,,5753GN,Deurne,Deurne,Noord-Brabant,VBO,5.781891,51.449664
Keltenstraat,50,,,5753GN,Deurne,Deurne,Noord-Brabant,VBO,5.781752,51.449606
Keltenstraat,52,,,5753GN,Deurne,Deurne,Noord-Brabant,VBO,5.781792,51.449608
Keltenstraat,56,,,5753GN,Deurne,Deurne,Noord-Brabant,VBO,5.781899,51.449607
Keltenstraat,58,,,5753GN,Deurne,Deurne,Noord-Brabant,VBO,5.781962,51.449602
Keltenstraat,60,,,5753GN,Deurne,Deurne,Noord-Brabant,VBO,5.782015,51.449602
Keltenstraat,62,,,5753GN,Deurne,Deurne,Noord-Brabant,VBO,5.781749,51.449541
Keltenstraat,64,,,5753GN,Deurne,Deurne,Noord-Brabant,VBO,5.781789,51.449544
Keltenstraat,66,,,5753GN,Deurne,Deurne,Noord-Brabant,VBO,5.781842,51.449538
Keltenstraat,68,,,5753GN,Deurne,Deurne,Noord-Brabant,VBO,5.781905,51.449533
Keltenstraat,70,,,5753GN,Deurne,Deurne,Noord-Brabant,VBO,5.781956,51.449537
Keltenstraat,72,,,5753GN,Deurne,Deurne,Noord-Brabant,VBO,5.782012,51.449542
Kloosterstraat,1,,,5753GP,Deurne,Deurne,Noord-Brabant,VBO,5.784927,51.451587
Kloosterstraat,2,,,5753GP,Deurne,Deurne,Noord-Brabant,VBO,5.783548,51.451323
Kloosterstraat,3,,,5753GP,Deurne,Deurne,Noord-Brabant,VBO,5.784508,51.451435
Kloosterstraat,4,,,5753GP,Deurne,Deurne,Noord-Brabant,VBO,5.783473,51.451271
Kloosterstraat,5,,,5753GP,Deurne,Deurne,Noord-Brabant,VBO,5.784335,51.451364
Kloosterstraat,6,,,5753GP,Deurne,Deurne,Noord-Brabant,VBO,5.783500,51.451350
Kloosterstraat,7,,,5753GP,Deurne,Deurne,Noord-Brabant,VBO,5.784262,51.451292
Kloosterstraat,8,,,5753GP,Deurne,Deurne,Noord-Brabant,VBO,5.783425,51.451305
Kloosterstraat,9,,,5753GP,Deurne,Deurne,Noord-Brabant,VBO,5.784146,51.451212
Kloosterstraat,10,,,5753GP,Deurne,Deurne,Noord-Brabant,VBO,5.783613,51.451469
Kloosterstraat,11,,,5753GP,Deurne,Deurne,Noord-Brabant,VBO,5.784074,51.451131
Kloosterstraat,12,,,5753GP,Deurne,Deurne,Noord-Brabant,VBO,5.783533,51.451420
Kloosterstraat,13,,,5753GP,Deurne,Deurne,Noord-Brabant,VBO,5.783987,51.451051
Kloosterstraat,14,,,5753GP,Deurne,Deurne,Noord-Brabant,VBO,5.783461,51.451380
Kloosterstraat,15,,,5753GP,Deurne,Deurne,Noord-Brabant,VBO,5.783909,51.450999
Kloosterstraat,16,,,5753GP,Deurne,Deurne,Noord-Brabant,VBO,5.783383,51.451335
Kloosterstraat,17,,,5753GP,Deurne,Deurne,Noord-Brabant,VBO,5.783755,51.450836
Kloosterstraat,18,,,5753GP,Deurne,Deurne,Noord-Brabant,VBO,5.783305,51.451284
Kloosterstraat,20,,,5753GP,Deurne,Deurne,Noord-Brabant,VBO,5.783227,51.451240
Kloosterstraat,44,,,5753GP,Deurne,Deurne,Noord-Brabant,VBO,5.782708,51.451190
Kloosterstraat,46,,,5753GP,Deurne,Deurne,Noord-Brabant,VBO,5.782866,51.451162
Kloosterstraat,48,,,5753GP,Deurne,Deurne,Noord-Brabant,VBO,5.782994,51.451018
Kloosterstraat,50,,,5753GP,Deurne,Deurne,Noord-Brabant,VBO,5.782964,51.450919
Kloosterstraat,52,,,5753GP,Deurne,Deurne,Noord-Brabant,VBO,5.782820,51.450866
Kloosterstraat,54,,,5753GP,Deurne,Deurne,Noord-Brabant,VBO,5.782662,51.450857
Kloosterstraat,56,,,5753GP,Deurne,Deurne,Noord-Brabant,VBO,5.782722,51.451163
Kloosterstraat,58,,,5753GP,Deurne,Deurne,Noord-Brabant,VBO,5.782837,51.451144
Kloosterstraat,60,,,5753GP,Deurne,Deurne,Noord-Brabant,VBO,5.782951,51.451018
Kloosterstraat,62,,,5753GP,Deurne,Deurne,Noord-Brabant,VBO,5.782921,51.450937
Kloosterstraat,64,,,5753GP,Deurne,Deurne,Noord-Brabant,VBO,5.782806,51.450884
Kloosterstraat,66,,,5753GP,Deurne,Deurne,Noord-Brabant,VBO,5.782662,51.450875
Kloosterstraat,68,,,5753GP,Deurne,Deurne,Noord-Brabant,VBO,5.782532,51.450903
Kloosterstraat,70,,,5753GP,Deurne,Deurne,Noord-Brabant,VBO,5.782374,51.450930
Kloosterstraat,72,,,5753GP,Deurne,Deurne,Noord-Brabant,VBO,5.782231,51.450967
Kloosterstraat,74,,,5753GP,Deurne,Deurne,Noord-Brabant,VBO,5.782722,51.451145
Kloosterstraat,76,,,5753GP,Deurne,Deurne,Noord-Brabant,VBO,5.782822,51.451126
Kloosterstraat,78,,,5753GP,Deurne,Deurne,Noord-Brabant,VBO,5.782922,51.451018
Kloosterstraat,80,,,5753GP,Deurne,Deurne,Noord-Brabant,VBO,5.782907,51.450946
Kloosterstraat,82,,,5753GP,Deurne,Deurne,Noord-Brabant,VBO,5.782791,51.450902
Kloosterstraat,84,,,5753GP,Deurne,Deurne,Noord-Brabant,VBO,5.782676,51.450893
Kloosterstraat,86,,,5753GP,Deurne,Deurne,Noord-Brabant,VBO,5.782547,51.450921
Kloosterstraat,88,,,5753GP,Deurne,Deurne,Noord-Brabant,VBO,5.782389,51.450957
Kloosterstraat,90,,,5753GP,Deurne,Deurne,Noord-Brabant,VBO,5.782245,51.450985
Kloosterstraat,92,,,5753GP,Deurne,Deurne,Noord-Brabant,VBO,5.782721,51.451127
Kloosterstraat,94,,,5753GP,Deurne,Deurne,Noord-Brabant,VBO,5.782808,51.451108
Kloosterstraat,96,,,5753GP,Deurne,Deurne,Noord-Brabant,VBO,5.782879,51.451018
Kloosterstraat,98,,,5753GP,Deurne,Deurne,Noord-Brabant,VBO,5.782878,51.450964
Kloosterstraat,100,,,5753GP,Deurne,Deurne,Noord-Brabant,VBO,5.782777,51.450920
Kloosterstraat,102,,,5753GP,Deurne,Deurne,Noord-Brabant,VBO,5.782691,51.450911
Kloosterstraat,104,,,5753GP,Deurne,Deurne,Noord-Brabant,VBO,5.782562,51.450938
Kloosterstraat,106,,,5753GP,Deurne,Deurne,Noord-Brabant,VBO,5.782404,51.450975
Kloosterstraat,108,,,5753GP,Deurne,Deurne,Noord-Brabant,VBO,5.782260,51.451002
Esdoornstraat,1,,,5753GR,Deurne,Deurne,Noord-Brabant,VBO,5.783783,51.450773
Esdoornstraat,2,,,5753GR,Deurne,Deurne,Noord-Brabant,VBO,5.783335,51.450495
Esdoornstraat,3,,,5753GR,Deurne,Deurne,Noord-Brabant,VBO,5.783925,51.450619
Esdoornstraat,4,,,5753GR,Deurne,Deurne,Noord-Brabant,VBO,5.783501,51.450544
Esdoornstraat,5,,,5753GR,Deurne,Deurne,Noord-Brabant,VBO,5.783954,51.450574
Esdoornstraat,6,,,5753GR,Deurne,Deurne,Noord-Brabant,VBO,5.783392,51.450459
Esdoornstraat,7,,,5753GR,Deurne,Deurne,Noord-Brabant,VBO,5.784111,51.450430
Esdoornstraat,8,,,5753GR,Deurne,Deurne,Noord-Brabant,VBO,5.783593,51.450486
Esdoornstraat,9,,,5753GR,Deurne,Deurne,Noord-Brabant,VBO,5.783977,51.449918
Esdoornstraat,10,,,5753GR,Deurne,Deurne,Noord-Brabant,VBO,5.783420,51.450405
Esdoornstraat,11,,,5753GR,Deurne,Deurne,Noord-Brabant,VBO,5.784061,51.449711
Esdoornstraat,12,,,5753GR,Deurne,Deurne,Noord-Brabant,VBO,5.783622,51.450441
Esdoornstraat,13,,,5753GR,Deurne,Deurne,Noord-Brabant,VBO,5.784119,51.449675
Esdoornstraat,14,,,5753GR,Deurne,Deurne,Noord-Brabant,VBO,5.783617,51.450300
Esdoornstraat,15,,,5753GR,Deurne,Deurne,Noord-Brabant,VBO,5.784218,51.449477
Esdoornstraat,16,,,5753GR,Deurne,Deurne,Noord-Brabant,VBO,5.783696,51.450337
Esdoornstraat,17,,,5753GR,Deurne,Deurne,Noord-Brabant,VBO,5.784416,51.449161
Esdoornstraat,18,,,5753GR,Deurne,Deurne,Noord-Brabant,VBO,5.783563,51.450261
Esdoornstraat,19,,,5753GR,Deurne,Deurne,Noord-Brabant,VBO,5.784430,51.449098
Esdoornstraat,20,,,5753GR,Deurne,Deurne,Noord-Brabant,VBO,5.783735,51.450306
Esdoornstraat,21,,,5753GR,Deurne,Deurne,Noord-Brabant,VBO,5.784501,51.449008
Esdoornstraat,22,,,5753GR,Deurne,Deurne,Noord-Brabant,VBO,5.783620,51.450198
Esdoornstraat,23,,,5753GR,Deurne,Deurne,Noord-Brabant,VBO,5.784529,51.448918
Esdoornstraat,24,,,5753GR,Deurne,Deurne,Noord-Brabant,VBO,5.783763,51.450262
Esdoornstraat,25,,,5753GR,Deurne,Deurne,Noord-Brabant,VBO,5.784586,51.448819
Esdoornstraat,27,,,5753GR,Deurne,Deurne,Noord-Brabant,VBO,5.784614,51.448765
Esdoornstraat,29,,,5753GR,Deurne,Deurne,Noord-Brabant,VBO,5.784685,51.448648
Esdoornstraat,31,,,5753GR,Deurne,Deurne,Noord-Brabant,VBO,5.784728,51.448603
Beukenstraat,207,,,5753GS,Deurne,Deurne,Noord-Brabant,VBO,5.781726,51.449108
Beukenstraat,209,,,5753GS,Deurne,Deurne,Noord-Brabant,VBO,5.781739,51.449036
Beukenstraat,211,,,5753GS,Deurne,Deurne,Noord-Brabant,VBO,5.781810,51.448847
Beukenstraat,213,,,5753GS,Deurne,Deurne,Noord-Brabant,VBO,5.781824,51.448811
Beukenstraat,215,,,5753GS,Deurne,Deurne,Noord-Brabant,VBO,5.781980,51.448531
Beukenstraat,217,,,5753GS,Deurne,Deurne,Noord-Brabant,VBO,5.782022,51.448468
Beukenstraat,219,,,5753GS,Deurne,Deurne,Noord-Brabant,VBO,5.782108,51.448369
Beukenstraat,221,,,5753GS,Deurne,Deurne,Noord-Brabant,VBO,5.782107,51.448297
Beukenstraat,223,,,5753GS,Deurne,Deurne,Noord-Brabant,VBO,5.782178,51.448189
Beukenstraat,225,,,5753GS,Deurne,Deurne,Noord-Brabant,VBO,5.782235,51.448135
Beukenstraat,227,,,5753GS,Deurne,Deurne,Noord-Brabant,VBO,5.782292,51.448027
Beukenstraat,229,,,5753GS,Deurne,Deurne,Noord-Brabant,VBO,5.782334,51.447955
Beukenstraat,235,,,5753GS,Deurne,Deurne,Noord-Brabant,VBO,5.782760,51.447234
Beukenstraat,237,,,5753GS,Deurne,Deurne,Noord-Brabant,VBO,5.782816,51.447153
Beukenstraat,239,,,5753GS,Deurne,Deurne,Noord-Brabant,VBO,5.782990,51.446892
Beukenstraat,241,,,5753GS,Deurne,Deurne,Noord-Brabant,VBO,5.783086,51.446703
Beukenstraat,243,,,5753GS,Deurne,Deurne,Noord-Brabant,VBO,5.783142,51.446532
Beukenstraat,247,,,5753GS,Deurne,Deurne,Noord-Brabant,VBO,5.783195,51.446055
Beukenstraat,249,,,5753GS,Deurne,Deurne,Noord-Brabant,VBO,5.783194,51.445975
Beukenstraat,251,,,5753GS,Deurne,Deurne,Noord-Brabant,VBO,5.783400,51.444742
Ouwerlingstraat,14,,,5753GT,Deurne,Deurne,Noord-Brabant,VBO,5.783356,51.449695
Ouwerlingstraat,16,,,5753GT,Deurne,Deurne,Noord-Brabant,VBO,5.783370,51.449650
Ouwerlingstraat,18,,,5753GT,Deurne,Deurne,Noord-Brabant,VBO,5.783456,51.449524
Ouwerlingstraat,20,,,5753GT,Deurne,Deurne,Noord-Brabant,VBO,5.783498,51.449452
Ouwerlingstraat,22,,,5753GT,Deurne,Deurne,Noord-Brabant,VBO,5.783569,51.449308
Ouwerlingstraat,24,,,5753GT,Deurne,Deurne,Noord-Brabant,VBO,5.783597,51.449245
Ouwerlingstraat,26,,,5753GT,Deurne,Deurne,Noord-Brabant,VBO,5.783781,51.448957
Ouwerlingstraat,28,,,5753GT,Deurne,Deurne,Noord-Brabant,VBO,5.783810,51.448903
Ouwerlingstraat,30,,,5753GT,Deurne,Deurne,Noord-Brabant,VBO,5.783866,51.448786
Ouwerlingstraat,32,,,5753GT,Deurne,Deurne,Noord-Brabant,VBO,5.783895,51.448759
Ouwerlingstraat,34,,,5753GT,Deurne,Deurne,Noord-Brabant,VBO,5.783966,51.448633
Ouwerlingstraat,36,,,5753GT,Deurne,Deurne,Noord-Brabant,VBO,5.783980,51.448597
Ouwerlingstraat,38,,,5753GT,Deurne,Deurne,Noord-Brabant,VBO,5.784065,51.448461
Ouwerlingstraat,40,,,5753GT,Deurne,Deurne,Noord-Brabant,VBO,5.784107,51.448389
Potbosstraat,1,,,5753GV,Deurne,Deurne,Noord-Brabant,VBO,5.786019,51.449875
Potbosstraat,3,,,5753GV,Deurne,Deurne,Noord-Brabant,VBO,5.785933,51.449839
Potbosstraat,5,,,5753GV,Deurne,Deurne,Noord-Brabant,VBO,5.785774,51.449777
Potbosstraat,7,,,5753GV,Deurne,Deurne,Noord-Brabant,VBO,5.785687,51.449732
Potbosstraat,9,,,5753GV,Deurne,Deurne,Noord-Brabant,VBO,5.785543,51.449670
Potbosstraat,11,,,5753GV,Deurne,Deurne,Noord-Brabant,VBO,5.785471,51.449634
Potbosstraat,13,,,5753GV,Deurne,Deurne,Noord-Brabant,VBO,5.785326,51.449572
Potbosstraat,15,,,5753GV,Deurne,Deurne,Noord-Brabant,VBO,5.785254,51.449509
Potbosstraat,17,,,5753GV,Deurne,Deurne,Noord-Brabant,VBO,5.785081,51.449465
Potbosstraat,19,,,5753GV,Deurne,Deurne,Noord-Brabant,VBO,5.784994,51.449438
Potbosstraat,21,,,5753GV,Deurne,Deurne,Noord-Brabant,VBO,5.784835,51.449367
Potbosstraat,23,,,5753GV,Deurne,Deurne,Noord-Brabant,VBO,5.784763,51.449331
Potbosstraat,25,,,5753GV,Deurne,Deurne,Noord-Brabant,VBO,5.783306,51.448878
Potbosstraat,27,,,5753GV,Deurne,Deurne,Noord-Brabant,VBO,5.783220,51.448869
Potbosstraat,29,,,5753GV,Deurne,Deurne,Noord-Brabant,VBO,5.783075,51.448824
Potbosstraat,31,,,5753GV,Deurne,Deurne,Noord-Brabant,VBO,5.782989,51.448789
Potbosstraat,33,,,5753GV,Deurne,Deurne,Noord-Brabant,VBO,5.782816,51.448744
Potbosstraat,35,,,5753GV,Deurne,Deurne,Noord-Brabant,VBO,5.782686,51.448718
Potbosstraat,37,,,5753GV,Deurne,Deurne,Noord-Brabant,VBO,5.782542,51.448682
Potbosstraat,39,,,5753GV,Deurne,Deurne,Noord-Brabant,VBO,5.782427,51.448656
Potbosstraat,2,,,5753GW,Deurne,Deurne,Noord-Brabant,VBO,5.785747,51.450047
Potbosstraat,4,,,5753GW,Deurne,Deurne,Noord-Brabant,VBO,5.785675,51.450020
Potbosstraat,6,,,5753GW,Deurne,Deurne,Noord-Brabant,VBO,5.785517,51.449958
Potbosstraat,8,,,5753GW,Deurne,Deurne,Noord-Brabant,VBO,5.785430,51.449922
Potbosstraat,10,,,5753GW,Deurne,Deurne,Noord-Brabant,VBO,5.785271,51.449842
Potbosstraat,12,,,5753GW,Deurne,Deurne,Noord-Brabant,VBO,5.785199,51.449815
Potbosstraat,14,,,5753GW,Deurne,Deurne,Noord-Brabant,VBO,5.785011,51.449771
Potbosstraat,16,,,5753GW,Deurne,Deurne,Noord-Brabant,VBO,5.784882,51.449744
Potbosstraat,18,,,5753GW,Deurne,Deurne,Noord-Brabant,VBO,5.784780,51.449628
Potbosstraat,20,,,5753GW,Deurne,Deurne,Noord-Brabant,VBO,5.784708,51.449610
Potbosstraat,22,,,5753GW,Deurne,Deurne,Noord-Brabant,VBO,5.784275,51.449432
Potbosstraat,24,,,5753GW,Deurne,Deurne,Noord-Brabant,VBO,5.783236,51.449120
Potbosstraat,26,,,5753GW,Deurne,Deurne,Noord-Brabant,VBO,5.783135,51.449103
Potbosstraat,28,,,5753GW,Deurne,Deurne,Noord-Brabant,VBO,5.782919,51.449050
Potbosstraat,30,,,5753GW,Deurne,Deurne,Noord-Brabant,VBO,5.782833,51.449023
Potbosstraat,32,,,5753GW,Deurne,Deurne,Noord-Brabant,VBO,5.782645,51.448970
Potbosstraat,34,,,5753GW,Deurne,Deurne,Noord-Brabant,VBO,5.782544,51.448946
Potbosstraat,36,,,5753GW,Deurne,Deurne,Noord-Brabant,VBO,5.782342,51.448890
Potbosstraat,38,,,5753GW,Deurne,Deurne,Noord-Brabant,VBO,5.782256,51.448872
Burgemeester Roefslaan,5,,,5753GX,Deurne,Deurne,Noord-Brabant,VBO,5.786464,51.448139
Burgemeester Roefslaan,7,,,5753GX,Deurne,Deurne,Noord-Brabant,VBO,5.785899,51.447686
Burgemeester Roefslaan,9,,,5753GX,Deurne,Deurne,Noord-Brabant,VBO,5.785066,51.447757
Burgemeester Roefslaan,11,,,5753GX,Deurne,Deurne,Noord-Brabant,VBO,5.784907,51.447695
Burgemeester Roefslaan,13,,,5753GX,Deurne,Deurne,Noord-Brabant,VBO,5.784474,51.447561
Burgemeester Roefslaan,2,,,5753GZ,Deurne,Deurne,Noord-Brabant,VBO,5.786732,51.449100
Burgemeester Roefslaan,4,,,5753GZ,Deurne,Deurne,Noord-Brabant,VBO,5.786645,51.449082
Burgemeester Roefslaan,6,,,5753GZ,Deurne,Deurne,Noord-Brabant,VBO,5.786573,51.449055
Burgemeester Roefslaan,8,,,5753GZ,Deurne,Deurne,Noord-Brabant,VBO,5.786487,51.449037
Burgemeester Roefslaan,10,z,,5753GZ,Deurne,Deurne,Noord-Brabant,VBO,5.786109,51.449252
Burgemeester Roefslaan,10,,,5753GZ,Deurne,Deurne,Noord-Brabant,VBO,5.786327,51.449000
Burgemeester Roefslaan,12,,,5753GZ,Deurne,Deurne,Noord-Brabant,VBO,5.786098,51.448994
Burgemeester Roefslaan,14,,,5753GZ,Deurne,Deurne,Noord-Brabant,VBO,5.785983,51.448967
Burgemeester Roefslaan,16,,,5753GZ,Deurne,Deurne,Noord-Brabant,VBO,5.785925,51.448950
Burgemeester Roefslaan,18,,,5753GZ,Deurne,Deurne,Noord-Brabant,VBO,5.785838,51.448923
Burgemeester Roefslaan,20,,,5753GZ,Deurne,Deurne,Noord-Brabant,VBO,5.785694,51.448878
Burgemeester Roefslaan,22,,,5753GZ,Deurne,Deurne,Noord-Brabant,VBO,5.785520,51.448753
Burgemeester Roefslaan,24,,,5753GZ,Deurne,Deurne,Noord-Brabant,VBO,5.785448,51.448726
Burgemeester Roefslaan,26,,,5753GZ,Deurne,Deurne,Noord-Brabant,VBO,5.785362,51.448718
Burgemeester Roefslaan,28,,,5753GZ,Deurne,Deurne,Noord-Brabant,VBO,5.785246,51.448682
Burgemeester Roefslaan,30,,,5753GZ,Deurne,Deurne,Noord-Brabant,VBO,5.785117,51.448647
Burgemeester Roefslaan,32,,,5753GZ,Deurne,Deurne,Noord-Brabant,VBO,5.783732,51.448267
Burgemeester Roefslaan,34,,,5753GZ,Deurne,Deurne,Noord-Brabant,VBO,5.783631,51.448211
Burgemeester Roefslaan,36,,,5753GZ,Deurne,Deurne,Noord-Brabant,VBO,5.783530,51.448185
Burgemeester Roefslaan,38,,,5753GZ,Deurne,Deurne,Noord-Brabant,VBO,5.783415,51.448158
Burgemeester Roefslaan,40,,,5753GZ,Deurne,Deurne,Noord-Brabant,VBO,5.783314,51.448113
Burgemeester Roefslaan,42,,,5753GZ,Deurne,Deurne,Noord-Brabant,VBO,5.783170,51.448078
Burgemeester Roefslaan,44,,,5753GZ,Deurne,Deurne,Noord-Brabant,VBO,5.783083,51.448060
Burgemeester Roefslaan,46,,,5753GZ,Deurne,Deurne,Noord-Brabant,VBO,5.783011,51.448034
Burgemeester Roefslaan,48,,,5753GZ,Deurne,Deurne,Noord-Brabant,VBO,5.782896,51.448007
Burgemeester Roefslaan,50,,,5753GZ,Deurne,Deurne,Noord-Brabant,VBO,5.782795,51.447971
Burgemeester Roefslaan,52,,,5753GZ,Deurne,Deurne,Noord-Brabant,VBO,5.782661,51.447913
Burgemeester Roefslaan,54,,,5753GZ,Deurne,Deurne,Noord-Brabant,VBO,5.782621,51.447901
Burgemeester Roefslaan,56,,,5753GZ,Deurne,Deurne,Noord-Brabant,VBO,5.782581,51.447889
Burgemeester Roefslaan,58,,,5753GZ,Deurne,Deurne,Noord-Brabant,VBO,5.782542,51.447878
Burgemeester Roefslaan,60,,,5753GZ,Deurne,Deurne,Noord-Brabant,VBO,5.782502,51.447866
Burgemeester Roefslaan,62,,,5753GZ,Deurne,Deurne,Noord-Brabant,VBO,5.782461,51.447854
Sint Jozefpark,1,,,5753HA,Deurne,Deurne,Noord-Brabant,VBO,5.781953,51.450993
Sint Jozefpark,3,,,5753HA,Deurne,Deurne,Noord-Brabant,VBO,5.782072,51.450962
Sint Jozefpark,5,,,5753HA,Deurne,Deurne,Noord-Brabant,VBO,5.782134,51.450952
Sint Jozefpark,7,,,5753HA,Deurne,Deurne,Noord-Brabant,VBO,5.782204,51.450930
Sint Jozefpark,9,,,5753HA,Deurne,Deurne,Noord-Brabant,VBO,5.782262,51.450916
Sint Jozefpark,11,,,5753HA,Deurne,Deurne,Noord-Brabant,VBO,5.782329,51.450906
Sint Jozefpark,13,,,5753HA,Deurne,Deurne,Noord-Brabant,VBO,5.782454,51.450879
Sint Jozefpark,15,,,5753HA,Deurne,Deurne,Noord-Brabant,VBO,5.782569,51.450856
Sint Jozefpark,17,,,5753HA,Deurne,Deurne,Noord-Brabant,VBO,5.782741,51.450831
Sint Jozefpark,19,,,5753HA,Deurne,Deurne,Noord-Brabant,VBO,5.782917,51.450866
Willem Wijnenlaan,1,a,,5753HB,Deurne,Deurne,Noord-Brabant,VBO,5.782472,51.451456
Willem Wijnenlaan,1,,,5753HB,Deurne,Deurne,Noord-Brabant,VBO,5.783230,51.451727
Willem Wijnenlaan,3,,,5753HB,Deurne,Deurne,Noord-Brabant,VBO,5.783144,51.451692
Willem Wijnenlaan,5,,,5753HB,Deurne,Deurne,Noord-Brabant,VBO,5.783028,51.451656
Willem Wijnenlaan,7,,,5753HB,Deurne,Deurne,Noord-Brabant,VBO,5.782927,51.451620
Willem Wijnenlaan,9,,,5753HB,Deurne,Deurne,Noord-Brabant,VBO,5.782826,51.451576
Willem Wijnenlaan,11,,,5753HB,Deurne,Deurne,Noord-Brabant,VBO,5.782725,51.451540
Willem Wijnenlaan,13,,,5753HB,Deurne,Deurne,Noord-Brabant,VBO,5.782610,51.451505
Willem Wijnenlaan,15,,,5753HB,Deurne,Deurne,Noord-Brabant,VBO,5.783273,51.451691
Willem Wijnenlaan,17,,,5753HB,Deurne,Deurne,Noord-Brabant,VBO,5.783172,51.451656
Willem Wijnenlaan,19,,,5753HB,Deurne,Deurne,Noord-Brabant,VBO,5.783057,51.451620
Willem Wijnenlaan,21,,,5753HB,Deurne,Deurne,Noord-Brabant,VBO,5.782956,51.451584
Willem Wijnenlaan,23,,,5753HB,Deurne,Deurne,Noord-Brabant,VBO,5.782855,51.451549
Willem Wijnenlaan,25,,,5753HB,Deurne,Deurne,Noord-Brabant,VBO,5.782754,51.451513
Willem Wijnenlaan,27,,,5753HB,Deurne,Deurne,Noord-Brabant,VBO,5.782638,51.451469
Willem Wijnenlaan,29,,,5753HB,Deurne,Deurne,Noord-Brabant,VBO,5.783301,51.451655
Willem Wijnenlaan,31,,,5753HB,Deurne,Deurne,Noord-Brabant,VBO,5.783200,51.451619
Willem Wijnenlaan,33,,,5753HB,Deurne,Deurne,Noord-Brabant,VBO,5.783085,51.451584
Willem Wijnenlaan,35,,,5753HB,Deurne,Deurne,Noord-Brabant,VBO,5.782998,51.451548
Willem Wijnenlaan,37,,,5753HB,Deurne,Deurne,Noord-Brabant,VBO,5.782883,51.451513
Willem Wijnenlaan,39,,,5753HB,Deurne,Deurne,Noord-Brabant,VBO,5.782796,51.451477
Willem Wijnenlaan,41,,,5753HB,Deurne,Deurne,Noord-Brabant,VBO,5.782681,51.451432
Beukelsdijk,1,,,5753PA,Deurne,Deurne,Noord-Brabant,VBO,5.770237,51.457013
Beukelsdijk,2,,,5753PA,Deurne,Deurne,Noord-Brabant,VBO,5.772374,51.457552
Beukelsdijk,9,,,5753PA,Deurne,Deurne,Noord-Brabant,VBO,5.767008,51.457615
Beukelsdijk,11,a,,5753PA,Deurne,Deurne,Noord-Brabant,VBO,5.765957,51.457492
Beukelsdijk,11,,,5753PA,Deurne,Deurne,Noord-Brabant,VBO,5.766289,51.457707
Beukelsdijk,13,,,5753PA,Deurne,Deurne,Noord-Brabant,VBO,5.765211,51.457809
Industrieweg,5,,,5753PB,Deurne,Deurne,Noord-Brabant,VBO,5.774741,51.457304
Industrieweg,15,,,5753PB,Deurne,Deurne,Noord-Brabant,VBO,5.775941,51.457772
Industrieweg,17,,,5753PB,Deurne,Deurne,Noord-Brabant,VBO,5.776604,51.457420
Industrieweg,19,a,,5753PB,Deurne,Deurne,Noord-Brabant,VBO,5.778065,51.456942
Industrieweg,19,b,,5753PB,Deurne,Deurne,Noord-Brabant,VBO,5.778472,51.457470
Industrieweg,19,c,,5753PB,Deurne,Deurne,Noord-Brabant,VBO,5.778123,51.457316
Industrieweg,19,d,,5753PB,Deurne,Deurne,Noord-Brabant,VBO,5.777758,51.457100
Industrieweg,19,e,,5753PB,Deurne,Deurne,Noord-Brabant,VBO,5.778869,51.457250
Industrieweg,19,,,5753PB,Deurne,Deurne,Noord-Brabant,VBO,5.778527,51.456913
Industrieweg,21,,,5753PB,Deurne,Deurne,Noord-Brabant,VBO,5.779170,51.456406
Industrieweg,23,a,,5753PB,Deurne,Deurne,Noord-Brabant,VBO,5.779758,51.456152
Industrieweg,23,,,5753PB,Deurne,Deurne,Noord-Brabant,VBO,5.779514,51.456198
Industrieweg,25,,,5753PB,Deurne,Deurne,Noord-Brabant,VBO,5.779901,51.456098
Industrieweg,29,a,,5753PB,Deurne,Deurne,Noord-Brabant,VBO,5.780274,51.455971
Industrieweg,29,,,5753PB,Deurne,Deurne,Noord-Brabant,VBO,5.780160,51.455998
Industrieweg,31,a,,5753PB,Deurne,Deurne,Noord-Brabant,VBO,5.780518,51.455898
Industrieweg,31,,,5753PB,Deurne,Deurne,Noord-Brabant,VBO,5.780418,51.455926
Industrieweg,33,a,,5753PB,Deurne,Deurne,Noord-Brabant,VBO,5.780748,51.455808
Industrieweg,33,,,5753PB,Deurne,Deurne,Noord-Brabant,VBO,5.780662,51.455844
Industrieweg,35,a,,5753PB,Deurne,Deurne,Noord-Brabant,VBO,5.781006,51.455708
Industrieweg,35,,,5753PB,Deurne,Deurne,Noord-Brabant,VBO,5.780906,51.455753
Industrieweg,37,,,5753PB,Deurne,Deurne,Noord-Brabant,VBO,5.781163,51.455599
Industrieweg,39,,,5753PB,Deurne,Deurne,Noord-Brabant,VBO,5.781221,51.455572
Industrieweg,41,,,5753PB,Deurne,Deurne,Noord-Brabant,VBO,5.781364,51.455518
Industrieweg,43,,,5753PB,Deurne,Deurne,Noord-Brabant,VBO,5.781536,51.455454
Industrieweg,45,,,5753PB,Deurne,Deurne,Noord-Brabant,VBO,5.781636,51.455418
Industrieweg,47,,,5753PB,Deurne,Deurne,Noord-Brabant,VBO,5.781866,51.455345
Industrieweg,49,,,5753PB,Deurne,Deurne,Noord-Brabant,VBO,5.781923,51.455318
Industrieweg,51,,,5753PB,Deurne,Deurne,Noord-Brabant,VBO,5.782095,51.455255
Industrieweg,10,a,,5753PC,Deurne,Deurne,Noord-Brabant,VBO,5.774836,51.456452
Industrieweg,10,,,5753PC,Deurne,Deurne,Noord-Brabant,VBO,5.774598,51.456811
Industrieweg,12,a,,5753PC,Deurne,Deurne,Noord-Brabant,VBO,5.775384,51.456775
Industrieweg,12,b,,5753PC,Deurne,Deurne,Noord-Brabant,VBO,5.775275,51.456774
Industrieweg,12,c,,5753PC,Deurne,Deurne,Noord-Brabant,VBO,5.775333,51.456710
Industrieweg,12,d,,5753PC,Deurne,Deurne,Noord-Brabant,VBO,5.775335,51.456643
Industrieweg,12,e,,5753PC,Deurne,Deurne,Noord-Brabant,VBO,5.775332,51.456579
Industrieweg,12,f,,5753PC,Deurne,Deurne,Noord-Brabant,VBO,5.775336,51.456512
Industrieweg,12,g,,5753PC,Deurne,Deurne,Noord-Brabant,VBO,5.775335,51.456447
Industrieweg,12,h,,5753PC,Deurne,Deurne,Noord-Brabant,VBO,5.775339,51.456379
Industrieweg,12,j,,5753PC,Deurne,Deurne,Noord-Brabant,VBO,5.775559,51.456381
Industrieweg,12,k,,5753PC,Deurne,Deurne,Noord-Brabant,VBO,5.775558,51.456446
Industrieweg,12,l,,5753PC,Deurne,Deurne,Noord-Brabant,VBO,5.775557,51.456514
Industrieweg,12,m,,5753PC,Deurne,Deurne,Noord-Brabant,VBO,5.775554,51.456580
Industrieweg,12,n,,5753PC,Deurne,Deurne,Noord-Brabant,VBO,5.775557,51.456677
Industrieweg,12,r,,5753PC,Deurne,Deurne,Noord-Brabant,VBO,5.775624,51.456777
Industrieweg,12,s,,5753PC,Deurne,Deurne,Noord-Brabant,VBO,5.775525,51.456777
Industrieweg,14,a,,5753PC,Deurne,Deurne,Noord-Brabant,VBO,5.776090,51.456607
Industrieweg,14,b,,5753PC,Deurne,Deurne,Noord-Brabant,VBO,5.776097,51.456525
Industrieweg,14,c,,5753PC,Deurne,Deurne,Noord-Brabant,VBO,5.776096,51.456353
Industrieweg,14,d,,5753PC,Deurne,Deurne,Noord-Brabant,VBO,5.776087,51.456173
Industrieweg,14,e,,5753PC,Deurne,Deurne,Noord-Brabant,VBO,5.775777,51.456085
Industrieweg,14,f,,5753PC,Deurne,Deurne,Noord-Brabant,VBO,5.775757,51.456150
Industrieweg,14,g,,5753PC,Deurne,Deurne,Noord-Brabant,VBO,5.775740,51.456208
Industrieweg,14,h,,5753PC,Deurne,Deurne,Noord-Brabant,VBO,5.775428,51.456164
Industrieweg,14,j,,5753PC,Deurne,Deurne,Noord-Brabant,VBO,5.775072,51.456141
Industrieweg,14,k,,5753PC,Deurne,Deurne,Noord-Brabant,VBO,5.775029,51.456085
Industrieweg,14,l,,5753PC,Deurne,Deurne,Noord-Brabant,VBO,5.775034,51.456026
Industrieweg,14,,,5753PC,Deurne,Deurne,Noord-Brabant,VBO,5.776082,51.456697
Industrieweg,18,a,,5753PC,Deurne,Deurne,Noord-Brabant,VBO,5.778391,51.456295
Industrieweg,18,b,,5753PC,Deurne,Deurne,Noord-Brabant,VBO,5.778593,51.456226
Industrieweg,18,,,5753PC,Deurne,Deurne,Noord-Brabant,VBO,5.778119,51.456398
Industrieweg,20,,,5753PC,Deurne,Deurne,Noord-Brabant,VBO,5.779238,51.455974
Industrieweg,22,,,5753PC,Deurne,Deurne,Noord-Brabant,VBO,5.779695,51.455893
Industrieweg,24,a,,5753PC,Deurne,Deurne,Noord-Brabant,VBO,5.779814,51.455579
Industrieweg,24,,,5753PC,Deurne,Deurne,Noord-Brabant,VBO,5.780071,51.455774
Industrieweg,26,z,,5753PC,Deurne,Deurne,Noord-Brabant,VBO,5.780011,51.455362
Industrieweg,26,,,5753PC,Deurne,Deurne,Noord-Brabant,VBO,5.780229,51.455656
Industrieweg,30,,,5753PC,Deurne,Deurne,Noord-Brabant,VBO,5.780516,51.455602
Industrieweg,32,,,5753PC,Deurne,Deurne,Noord-Brabant,VBO,5.780587,51.455574
Industrieweg,38,a,,5753PC,Deurne,Deurne,Noord-Brabant,VBO,5.781473,51.455255
Industrieweg,38,,,5753PC,Deurne,Deurne,Noord-Brabant,VBO,5.781391,51.455284
Industrieweg,40,,,5753PC,Deurne,Deurne,Noord-Brabant,VBO,5.781892,51.455067
Grote Bottel,2,,,5753PE,Deurne,Deurne,Noord-Brabant,VBO,5.778339,51.456059
Grote Bottel,3,,,5753PE,Deurne,Deurne,Noord-Brabant,VBO,5.778647,51.455815
Grote Bottel,4,,,5753PE,Deurne,Deurne,Noord-Brabant,VBO,5.777958,51.455925
Grote Bottel,5,,,5753PE,Deurne,Deurne,Noord-Brabant,VBO,5.778442,51.455375
Grote Bottel,6,,,5753PE,Deurne,Deurne,Noord-Brabant,VBO,5.777696,51.455656
Grote Bottel,7,a,,5753PE,Deurne,Deurne,Noord-Brabant,VBO,5.775622,51.454696
Grote Bottel,7,b,,5753PE,Deurne,Deurne,Noord-Brabant,VBO,5.777674,51.454943
Grote Bottel,7,,,5753PE,Deurne,Deurne,Noord-Brabant,VBO,5.777799,51.454208
Grote Bottel,8,a,,5753PE,Deurne,Deurne,Noord-Brabant,VBO,5.776879,51.456036
Grote Bottel,8,,,5753PE,Deurne,Deurne,Noord-Brabant,VBO,5.776646,51.455704
Grote Bottel,9,a,,5753PE,Deurne,Deurne,Noord-Brabant,VBO,5.777997,51.455466
Grote Bottel,9,,,5753PE,Deurne,Deurne,Noord-Brabant,VBO,5.777651,51.455378
Grote Bottel,10,,,5753PE,Deurne,Deurne,Noord-Brabant,VBO,5.776099,51.455625
Botermanweg,3,,,5753PG,Deurne,Deurne,Noord-Brabant,VBO,5.771563,51.450094
Botermanweg,5,,,5753PG,Deurne,Deurne,Noord-Brabant,VBO,5.771695,51.450301
Esdonk,4,,,5753PH,Deurne,Deurne,Noord-Brabant,VBO,5.770135,51.447924
Esdonk,5,,,5753PH,Deurne,Deurne,Noord-Brabant,VBO,5.769273,51.448088
Esdonk,6,a,,5753PH,Deurne,Deurne,Noord-Brabant,VBO,5.770714,51.448353
Esdonk,6,,,5753PH,Deurne,Deurne,Noord-Brabant,VBO,5.770655,51.448583
Esdonk,13,,,5753PH,Deurne,Deurne,Noord-Brabant,VBO,5.754711,51.454688
Esdonk,14,,,5753PH,Deurne,Deurne,Noord-Brabant,VBO,5.753807,51.458574
Esdonk,15,,,5753PH,Deurne,Deurne,Noord-Brabant,VBO,5.756534,51.457380
Esdonk,16,,,5753PH,Deurne,Deurne,Noord-Brabant,VBO,5.747932,51.459770
Karnweg,1,,,5753PJ,Deurne,Deurne,Noord-Brabant,VBO,5.767863,51.447994
Karnweg,2,a,,5753PJ,Deurne,Deurne,Noord-Brabant,VBO,5.768243,51.448766
Karnweg,2,z,,5753PJ,Deurne,Deurne,Noord-Brabant,VBO,5.767923,51.448412
Karnweg,2,,,5753PJ,Deurne,Deurne,Noord-Brabant,VBO,5.768006,51.448492
Vloeiweg,2,,,5753PK,Deurne,Deurne,Noord-Brabant,VBO,5.770206,51.446126
Vloeieindseweg,5,,,5753PL,Deurne,Deurne,Noord-Brabant,VBO,5.769323,51.443702
Vloeieindseweg,6,a,,5753PL,Deurne,Deurne,Noord-Brabant,VBO,5.769846,51.443649
Vloeieindseweg,6,,,5753PL,Deurne,Deurne,Noord-Brabant,VBO,5.769665,51.443538
Vloeieindseweg,8,a,,5753PL,Deurne,Deurne,Noord-Brabant,VBO,5.770708,51.444174
Vloeieindseweg,8,,,5753PL,Deurne,Deurne,Noord-Brabant,VBO,5.770607,51.444111
Vloeieindseweg,9,,,5753PL,Deurne,Deurne,Noord-Brabant,VBO,5.771503,51.444665
Vloeieindseweg,10,,,5753PL,Deurne,Deurne,Noord-Brabant,VBO,5.771963,51.444598
Vloeieindseweg,15,,,5753PL,Deurne,Deurne,Noord-Brabant,VBO,5.782248,51.445557
Doctor Huub van Doorneweg,1,a,,5753PM,Deurne,Deurne,Noord-Brabant,VBO,5.797340,51.454290
Doctor Huub van Doorneweg,1,b,,5753PM,Deurne,Deurne,Noord-Brabant,VBO,5.797295,51.454258
Doctor Huub van Doorneweg,1,c,,5753PM,Deurne,Deurne,Noord-Brabant,VBO,5.797302,51.454236
Doctor Huub van Doorneweg,1,,,5753PM,Deurne,Deurne,Noord-Brabant,VBO,5.797289,51.454279
Doctor Huub van Doorneweg,2,a,,5753PM,Deurne,Deurne,Noord-Brabant,VBO,5.797752,51.453094
Doctor Huub van Doorneweg,2,,,5753PM,Deurne,Deurne,Noord-Brabant,VBO,5.797661,51.453502
Doctor Huub van Doorneweg,3,,,5753PM,Deurne,Deurne,Noord-Brabant,VBO,5.797383,51.453956
Doctor Huub van Doorneweg,4,a,,5753PM,Deurne,Deurne,Noord-Brabant,VBO,5.798410,51.453580
Doctor Huub van Doorneweg,4,,,5753PM,Deurne,Deurne,Noord-Brabant,VBO,5.798209,51.453572
Doctor Huub van Doorneweg,5,,,5753PM,Deurne,Deurne,Noord-Brabant,VBO,5.797841,51.454003
Doctor Huub van Doorneweg,6,,,5753PM,Deurne,Deurne,Noord-Brabant,VBO,5.798813,51.453588
Doctor Huub van Doorneweg,7,a,,5753PM,Deurne,Deurne,Noord-Brabant,VBO,5.797350,51.454199
Doctor Huub van Doorneweg,7,,,5753PM,Deurne,Deurne,Noord-Brabant,VBO,5.798233,51.454001
Doctor Huub van Doorneweg,8,a,,5753PM,Deurne,Deurne,Noord-Brabant,VBO,5.798159,51.452790
Doctor Huub van Doorneweg,8,b,,5753PM,Deurne,Deurne,Noord-Brabant,VBO,5.797939,51.452422
Doctor Huub van Doorneweg,8,,,5753PM,Deurne,Deurne,Noord-Brabant,VBO,5.797771,51.452899
Doctor Huub van Doorneweg,9,a,,5753PM,Deurne,Deurne,Noord-Brabant,VBO,5.798511,51.454094
Doctor Huub van Doorneweg,9,,,5753PM,Deurne,Deurne,Noord-Brabant,VBO,5.798519,51.454012
Doctor Huub van Doorneweg,12,,,5753PM,Deurne,Deurne,Noord-Brabant,VBO,5.799611,51.453488
Doctor Huub van Doorneweg,14,,,5753PM,Deurne,Deurne,Noord-Brabant,VBO,5.800182,51.453435
Doctor Huub van Doorneweg,16,,,5753PM,Deurne,Deurne,Noord-Brabant,VBO,5.800840,51.453347
Doctor Huub van Doorneweg,18,,,5753PM,Deurne,Deurne,Noord-Brabant,VBO,5.801586,51.453165
Doctor Huub van Doorneweg,20,,,5753PM,Deurne,Deurne,Noord-Brabant,VBO,5.802291,51.453162
Doctor Huub van Doorneweg,22,,,5753PM,Deurne,Deurne,Noord-Brabant,VBO,5.802759,51.453071
Doctor Huub van Doorneweg,26,a,,5753PM,Deurne,Deurne,Noord-Brabant,VBO,5.804933,51.452475
Doctor Huub van Doorneweg,26,,,5753PM,Deurne,Deurne,Noord-Brabant,VBO,5.803811,51.452581
Doctor Huub van Doorneweg,28,,,5753PM,Deurne,Deurne,Noord-Brabant,VBO,5.805899,51.452808
Doctor Huub van Doorneweg,32,,,5753PM,Deurne,Deurne,Noord-Brabant,VBO,5.808902,51.452419
Doctor Huub van Doorneweg,34,,,5753PM,Deurne,Deurne,Noord-Brabant,VBO,5.811015,51.452214
Doctor Huub van Doorneweg,36,a,,5753PM,Deurne,Deurne,Noord-Brabant,VBO,5.811849,51.452112
Doctor Huub van Doorneweg,36,b,,5753PM,Deurne,Deurne,Noord-Brabant,VBO,5.811804,51.451986
Doctor Huub van Doorneweg,36,c,,5753PM,Deurne,Deurne,Noord-Brabant,VBO,5.811774,51.451807
Doctor Huub van Doorneweg,36,d,,5753PM,Deurne,Deurne,Noord-Brabant,VBO,5.811729,51.451681
Doctor Huub van Doorneweg,36,e,,5753PM,Deurne,Deurne,Noord-Brabant,VBO,5.811685,51.451537
Doctor Huub van Doorneweg,36,f,,5753PM,Deurne,Deurne,Noord-Brabant,VBO,5.811655,51.451412
Doctor Huub van Doorneweg,38,,,5753PM,Deurne,Deurne,Noord-Brabant,VBO,5.812812,51.452063
Doctor Huub van Doorneweg,40,a,,5753PM,Deurne,Deurne,Noord-Brabant,VBO,5.812275,51.451526
Doctor Huub van Doorneweg,40,b,,5753PM,Deurne,Deurne,Noord-Brabant,VBO,5.812476,51.451507
Doctor Huub van Doorneweg,40,c,,5753PM,Deurne,Deurne,Noord-Brabant,VBO,5.812735,51.451488
Doctor Huub van Doorneweg,40,d,,5753PM,Deurne,Deurne,Noord-Brabant,VBO,5.812922,51.451479
Doctor Huub van Doorneweg,40,e,,5753PM,Deurne,Deurne,Noord-Brabant,VBO,5.813180,51.451451
Doctor Huub van Doorneweg,40,f,,5753PM,Deurne,Deurne,Noord-Brabant,VBO,5.813381,51.451423
Doctor Huub van Doorneweg,40,g,,5753PM,Deurne,Deurne,Noord-Brabant,VBO,5.813669,51.451395
Doctor Huub van Doorneweg,40,h,,5753PM,Deurne,Deurne,Noord-Brabant,VBO,5.813841,51.451377
Doctor Huub van Doorneweg,44,,,5753PM,Deurne,Deurne,Noord-Brabant,VBO,5.813444,51.451998
Doctor Huub van Doorneweg,46,b,,5753PM,Deurne,Deurne,Noord-Brabant,VBO,5.814890,51.451878
Doctor Huub van Doorneweg,46,d,,5753PM,Deurne,Deurne,Noord-Brabant,VBO,5.815139,51.451722
Doctor Huub van Doorneweg,48,,,5753PM,Deurne,Deurne,Noord-Brabant,VBO,5.815357,51.451901
Doctor Huub van Doorneweg,50,,,5753PM,Deurne,Deurne,Noord-Brabant,VBO,5.815731,51.451909
Liesselseweg,141,,,5753PN,Deurne,Deurne,Noord-Brabant,VBO,5.798841,51.451984
Liesselseweg,173,,,5753PN,Deurne,Deurne,Noord-Brabant,VBO,5.801909,51.445927
Liesselseweg,175,,,5753PN,Deurne,Deurne,Noord-Brabant,VBO,5.802537,51.445476
Liesselseweg,177,,,5753PN,Deurne,Deurne,Noord-Brabant,VBO,5.802231,51.445045
Liesselseweg,179,,,5753PN,Deurne,Deurne,Noord-Brabant,VBO,5.802487,51.444721
Liesselseweg,181,a,,5753PN,Deurne,Deurne,Noord-Brabant,VBO,5.802827,51.444569
Liesselseweg,181,,,5753PN,Deurne,Deurne,Noord-Brabant,VBO,5.802516,51.444658
Liesselseweg,183,,,5753PN,Deurne,Deurne,Noord-Brabant,VBO,5.802854,51.443902
Liesselseweg,197,,,5753PN,Deurne,Deurne,Noord-Brabant,VBO,5.803472,51.442335
Liesselseweg,199,,,5753PN,Deurne,Deurne,Noord-Brabant,VBO,5.803700,51.442020
Liesselseweg,201,,,5753PN,Deurne,Deurne,Noord-Brabant,VBO,5.803709,51.441454
Liesselseweg,203,,,5753PN,Deurne,Deurne,Noord-Brabant,VBO,5.803766,51.441355
Liesselseweg,205,,,5753PN,Deurne,Deurne,Noord-Brabant,VBO,5.805087,51.441107
Liesselseweg,213,,,5753PN,Deurne,Deurne,Noord-Brabant,VBO,5.804326,51.439771
Liesselseweg,215,,,5753PN,Deurne,Deurne,Noord-Brabant,VBO,5.804696,51.439483
Liesselseweg,221,,,5753PN,Deurne,Deurne,Noord-Brabant,VBO,5.805382,51.438877
Liesselseweg,231,,,5753PN,Deurne,Deurne,Noord-Brabant,VBO,5.806946,51.436946
Liesselseweg,237,,,5753PN,Deurne,Deurne,Noord-Brabant,VBO,5.808832,51.433966
Liesselseweg,239,,,5753PN,Deurne,Deurne,Noord-Brabant,VBO,5.809259,51.433497
Liesselseweg,106,,,5753PP,Deurne,Deurne,Noord-Brabant,VBO,5.796358,51.454154
Liesselseweg,112,,,5753PP,Deurne,Deurne,Noord-Brabant,VBO,5.796453,51.453955
Liesselseweg,114,,,5753PP,Deurne,Deurne,Noord-Brabant,VBO,5.796442,51.453929
Liesselseweg,116,a,,5753PP,Deurne,Deurne,Noord-Brabant,VBO,5.796737,51.453137
Liesselseweg,116,c,,5753PP,Deurne,Deurne,Noord-Brabant,VBO,5.796520,51.453230
Liesselseweg,118,,,5753PP,Deurne,Deurne,Noord-Brabant,VBO,5.796746,51.453051
Liesselseweg,120,a,,5753PP,Deurne,Deurne,Noord-Brabant,VBO,5.796486,51.453307
Liesselseweg,120,,,5753PP,Deurne,Deurne,Noord-Brabant,VBO,5.796769,51.452978
Liesselseweg,124,,,5753PP,Deurne,Deurne,Noord-Brabant,VBO,5.796821,51.452885
Liesselseweg,128,a,,5753PP,Deurne,Deurne,Noord-Brabant,VBO,5.795817,51.452870
Liesselseweg,128,c,,5753PP,Deurne,Deurne,Noord-Brabant,VBO,5.796045,51.452902
Liesselseweg,130,a,,5753PP,Deurne,Deurne,Noord-Brabant,VBO,5.796375,51.452458
Liesselseweg,130,b,,5753PP,Deurne,Deurne,Noord-Brabant,VBO,5.796321,51.452593
Liesselseweg,130,c,,5753PP,Deurne,Deurne,Noord-Brabant,VBO,5.796140,51.452618
Liesselseweg,130,d,,5753PP,Deurne,Deurne,Noord-Brabant,VBO,5.795948,51.452589
Liesselseweg,130,,,5753PP,Deurne,Deurne,Noord-Brabant,VBO,5.796308,51.452642
Liesselseweg,132,,,5753PP,Deurne,Deurne,Noord-Brabant,VBO,5.796889,51.452453
Liesselseweg,140,,,5753PP,Deurne,Deurne,Noord-Brabant,VBO,5.796786,51.452175
Liesselseweg,142,,,5753PP,Deurne,Deurne,Noord-Brabant,VBO,5.796842,51.451986
Liesselseweg,144,,,5753PP,Deurne,Deurne,Noord-Brabant,VBO,5.796955,51.451707
Liesselseweg,186,,,5753PP,Deurne,Deurne,Noord-Brabant,VBO,5.801671,51.443546
Liesselseweg,188,,,5753PP,Deurne,Deurne,Noord-Brabant,VBO,5.802428,51.442923
Liesselseweg,190,a,,5753PP,Deurne,Deurne,Noord-Brabant,VBO,5.802683,51.442464
Liesselseweg,190,,,5753PP,Deurne,Deurne,Noord-Brabant,VBO,5.802712,51.442554
Liesselseweg,194,a,,5753PP,Deurne,Deurne,Noord-Brabant,VBO,5.802659,51.441466
Liesselseweg,194,,,5753PP,Deurne,Deurne,Noord-Brabant,VBO,5.802867,51.441917
Liesselseweg,202,,,5753PP,Deurne,Deurne,Noord-Brabant,VBO,5.803129,51.440988
Liesselseweg,206,,,5753PP,Deurne,Deurne,Noord-Brabant,VBO,5.803635,51.439656
Liesselseweg,214,a,,5753PP,Deurne,Deurne,Noord-Brabant,VBO,5.804800,51.438088
Liesselseweg,214,,,5753PP,Deurne,Deurne,Noord-Brabant,VBO,5.804913,51.437926
Oude Stappad,8,,,5753PR,Deurne,Deurne,Noord-Brabant,VBO,5.797255,51.446744
Oude Stappad,10,,,5753PR,Deurne,Deurne,Noord-Brabant,VBO,5.797138,51.446448
Oude Stappad,12,,,5753PR,Deurne,Deurne,Noord-Brabant,VBO,5.797610,51.446221
Oude Stappad,17,,,5753PR,Deurne,Deurne,Noord-Brabant,VBO,5.798259,51.446417
Oude Stappad,19,,,5753PR,Deurne,Deurne,Noord-Brabant,VBO,5.798171,51.446219
Vestingweg,3,a,,5753PS,Deurne,Deurne,Noord-Brabant,VBO,5.802332,51.439299
Vestingweg,3,,,5753PS,Deurne,Deurne,Noord-Brabant,VBO,5.803106,51.438825
Vestingweg,4,,,5753PS,Deurne,Deurne,Noord-Brabant,VBO,5.801738,51.439789
Vestingweg,6,,,5753PS,Deurne,Deurne,Noord-Brabant,VBO,5.799454,51.440165
Vestingweg,8,,,5753PS,Deurne,Deurne,Noord-Brabant,VBO,5.798781,51.440518
Donschotseweg,6,,,5753PT,Deurne,Deurne,Noord-Brabant,VBO,5.793218,51.435999
Donschotseweg,8,,,5753PT,Deurne,Deurne,Noord-Brabant,VBO,5.792510,51.436048
Donschotseweg,10,,,5753PT,Deurne,Deurne,Noord-Brabant,VBO,5.792344,51.435991
Donschotseweg,11,,,5753PT,Deurne,Deurne,Noord-Brabant,VBO,5.790657,51.435220
Donschotseweg,12,a,,5753PT,Deurne,Deurne,Noord-Brabant,VBO,5.789777,51.435561
Donschotseweg,12,,,5753PT,Deurne,Deurne,Noord-Brabant,VBO,5.789387,51.435383
Donschotseweg,13,,,5753PT,Deurne,Deurne,Noord-Brabant,VBO,5.787250,51.434365
Oude Vreewijkseweg,1,,,5753PV,Deurne,Deurne,Noord-Brabant,VBO,5.798174,51.444988
Oude Vreewijkseweg,2,a,,5753PV,Deurne,Deurne,Noord-Brabant,VBO,5.797611,51.444702
Oude Vreewijkseweg,2,,,5753PV,Deurne,Deurne,Noord-Brabant,VBO,5.797482,51.444784
Oude Vreewijkseweg,3,a,,5753PV,Deurne,Deurne,Noord-Brabant,VBO,5.798192,51.443462
Oude Vreewijkseweg,3,b,,5753PV,Deurne,Deurne,Noord-Brabant,VBO,5.798255,51.442794
Oude Vreewijkseweg,3,z,,5753PV,Deurne,Deurne,Noord-Brabant,VBO,5.798320,51.443231
Oude Vreewijkseweg,3,,,5753PV,Deurne,Deurne,Noord-Brabant,VBO,5.798211,51.443575
Oude Vreewijkseweg,4,,,5753PV,Deurne,Deurne,Noord-Brabant,VBO,5.797794,51.444288
Oude Vreewijkseweg,5,,,5753PV,Deurne,Deurne,Noord-Brabant,VBO,5.797934,51.442220
Oude Vreewijkseweg,6,a,,5753PV,Deurne,Deurne,Noord-Brabant,VBO,5.797622,51.442707
Oude Vreewijkseweg,6,b,,5753PV,Deurne,Deurne,Noord-Brabant,VBO,5.796919,51.442907
Oude Vreewijkseweg,6,,,5753PV,Deurne,Deurne,Noord-Brabant,VBO,5.797509,51.443022
Oude Vreewijkseweg,7,,,5753PV,Deurne,Deurne,Noord-Brabant,VBO,5.798192,51.442201
Oude Vreewijkseweg,8,,,5753PV,Deurne,Deurne,Noord-Brabant,VBO,5.797605,51.442482
Oude Vreewijkseweg,9,z,,5753PV,Deurne,Deurne,Noord-Brabant,VBO,5.797273,51.440074
Oude Vreewijkseweg,9,,,5753PV,Deurne,Deurne,Noord-Brabant,VBO,5.797369,51.440236
Heimolenweg,1,,,5753PW,Deurne,Deurne,Noord-Brabant,VBO,5.796321,51.440383
Heimolenweg,2,,,5753PW,Deurne,Deurne,Noord-Brabant,VBO,5.797032,51.441145
Heimolenweg,3,,,5753PW,Deurne,Deurne,Noord-Brabant,VBO,5.795756,51.440008
Heimolenweg,4,,,5753PW,Deurne,Deurne,Noord-Brabant,VBO,5.796124,51.440941
Heimolenweg,5,a,,5753PW,Deurne,Deurne,Noord-Brabant,VBO,5.793237,51.438075
Heimolenweg,5,,,5753PW,Deurne,Deurne,Noord-Brabant,VBO,5.792706,51.438292
Heimolenweg,6,,,5753PW,Deurne,Deurne,Noord-Brabant,VBO,5.795890,51.440475
Heimolenweg,11,a,,5753PW,Deurne,Deurne,Noord-Brabant,VBO,5.789517,51.437054
Heimolenweg,11,,,5753PW,Deurne,Deurne,Noord-Brabant,VBO,5.788872,51.437263
Heimolenweg,12,,,5753PW,Deurne,Deurne,Noord-Brabant,VBO,5.793245,51.439055
Heimolenweg,14,,,5753PW,Deurne,Deurne,Noord-Brabant,VBO,5.790804,51.437823
Heimolenweg,16,a,,5753PW,Deurne,Deurne,Noord-Brabant,VBO,5.787723,51.437456
Heimolenweg,16,,,5753PW,Deurne,Deurne,Noord-Brabant,VBO,5.788034,51.437503
Heimolenweg,18,,,5753PW,Deurne,Deurne,Noord-Brabant,VBO,5.787176,51.437467
Molenweijerweg,10,,,5753PX,Deurne,Deurne,Noord-Brabant,VBO,5.788125,51.440654
Molenweijerweg,12,a,,5753PX,Deurne,Deurne,Noord-Brabant,VBO,5.788795,51.438634
Molenweijerweg,12,,,5753PX,Deurne,Deurne,Noord-Brabant,VBO,5.788690,51.438848
Molenweijerweg,15,,,5753PX,Deurne,Deurne,Noord-Brabant,VBO,5.790927,51.437112
Heieindseweg,3,,,5753PZ,Deurne,Deurne,Noord-Brabant,VBO,5.776542,51.443453
Heieindseweg,5,a,,5753PZ,Deurne,Deurne,Noord-Brabant,VBO,5.777167,51.442561
Heieindseweg,5,,,5753PZ,Deurne,Deurne,Noord-Brabant,VBO,5.776826,51.443129
Heieindseweg,6,,,5753PZ,Deurne,Deurne,Noord-Brabant,VBO,5.778411,51.441775
Heieindseweg,7,,,5753PZ,Deurne,Deurne,Noord-Brabant,VBO,5.777295,51.442453
Heieindseweg,8,a,,5753PZ,Deurne,Deurne,Noord-Brabant,VBO,5.780856,51.441713
Heieindseweg,8,,,5753PZ,Deurne,Deurne,Noord-Brabant,VBO,5.780656,51.441866
Heieindseweg,10,,,5753PZ,Deurne,Deurne,Noord-Brabant,VBO,5.781779,51.441696
Heieindseweg,11,,,5753PZ,Deurne,Deurne,Noord-Brabant,VBO,5.779004,51.442088
Heieindseweg,12,,,5753PZ,Deurne,Deurne,Noord-Brabant,VBO,5.782404,51.441689
Heieindseweg,15,,,5753PZ,Deurne,Deurne,Noord-Brabant,VBO,5.780701,51.442064
Heieindseweg,16,,,5753PZ,Deurne,Deurne,Noord-Brabant,VBO,5.783318,51.441974
Heieindseweg,20,,,5753PZ,Deurne,Deurne,Noord-Brabant,VBO,5.784760,51.442374
Dolstraat,17,,,5753RA,Deurne,Deurne,Noord-Brabant,VBO,5.777993,51.441660
Dolstraat,19,a,,5753RA,Deurne,Deurne,Noord-Brabant,VBO,5.777513,51.441607
Dolstraat,19,,,5753RA,Deurne,Deurne,Noord-Brabant,VBO,5.777495,51.441557
Dolstraat,21,,,5753RA,Deurne,Deurne,Noord-Brabant,VBO,5.776797,51.440337
Clarinetweg,10,,,5753RB,Deurne,Deurne,Noord-Brabant,STA,5.820973,51.451324
Clarinetweg,12,,,5753RB,Deurne,Deurne,Noord-Brabant,STA,5.821116,51.451310
Clarinetweg,14,,,5753RB,Deurne,Deurne,Noord-Brabant,STA,5.821259,51.451296
Clarinetweg,16,,,5753RB,Deurne,Deurne,Noord-Brabant,STA,5.821401,51.451282
Clarinetweg,18,,,5753RB,Deurne,Deurne,Noord-Brabant,STA,5.821544,51.451269
Clarinetweg,20,,,5753RB,Deurne,Deurne,Noord-Brabant,STA,5.821686,51.451255
Clarinetweg,30,,,5753RB,Deurne,Deurne,Noord-Brabant,VBO,5.825863,51.450959
Clarinetweg,32,,,5753RB,Deurne,Deurne,Noord-Brabant,VBO,5.826396,51.450872
Clarinetweg,34,,,5753RB,Deurne,Deurne,Noord-Brabant,VBO,5.828616,51.450383
Clarinetweg,36,,,5753RB,Deurne,Deurne,Noord-Brabant,VBO,5.828825,51.450638
Clarinetweg,38,,,5753RB,Deurne,Deurne,Noord-Brabant,VBO,5.829917,51.450526
Clarinetweg,40,,,5753RB,Deurne,Deurne,Noord-Brabant,VBO,5.830434,51.450470
Hanenbergweg,3,,,5753RC,Deurne,Deurne,Noord-Brabant,VBO,5.819944,51.450186
Hanenbergweg,4,,,5753RC,Deurne,Deurne,Noord-Brabant,VBO,5.817221,51.451220
Hanenbergweg,7,,,5753RC,Deurne,Deurne,Noord-Brabant,VBO,5.821708,51.449541
Hanenbergweg,8,,,5753RC,Deurne,Deurne,Noord-Brabant,VBO,5.817464,51.451076
Hanenbergweg,9,,,5753RC,Deurne,Deurne,Noord-Brabant,VBO,5.823022,51.448619
Hanenbergweg,11,,,5753RC,Deurne,Deurne,Noord-Brabant,VBO,5.823118,51.448061
Hanenbergweg,14,,,5753RC,Deurne,Deurne,Noord-Brabant,VBO,5.819023,51.450072
Hanenbergweg,16,,,5753RC,Deurne,Deurne,Noord-Brabant,VBO,5.819280,51.449918
Hanenbergweg,18,a,,5753RC,Deurne,Deurne,Noord-Brabant,VBO,5.819595,51.449809
Hanenbergweg,18,,,5753RC,Deurne,Deurne,Noord-Brabant,VBO,5.818298,51.449473
Hanenbergweg,20,,,5753RC,Deurne,Deurne,Noord-Brabant,VBO,5.820729,51.449508
Hanenbergweg,22,,,5753RC,Deurne,Deurne,Noord-Brabant,VBO,5.821640,51.449023
Hanenbergweg,26,a,,5753RC,Deurne,Deurne,Noord-Brabant,VBO,5.822978,51.446947
Hanenbergweg,26,,,5753RC,Deurne,Deurne,Noord-Brabant,VBO,5.823136,51.446947
Hanenbergweg,28,,,5753RC,Deurne,Deurne,Noord-Brabant,VBO,5.823278,51.446621
Hanenbergweg,30,,,5753RC,Deurne,Deurne,Noord-Brabant,VBO,5.823715,51.445821
Hanenbergweg,35,a,,5753RC,Deurne,Deurne,Noord-Brabant,VBO,5.825993,51.444156
Hanenbergweg,35,,,5753RC,Deurne,Deurne,Noord-Brabant,VBO,5.825367,51.444071
Hanenbergweg,36,,,5753RC,Deurne,Deurne,Noord-Brabant,VBO,5.826434,51.439860
Plaggenweg,3,,,5753RD,Deurne,Deurne,Noord-Brabant,VBO,5.826523,51.447608
Hoekske,1,,,5753RE,Deurne,Deurne,Noord-Brabant,VBO,5.816324,51.446154
Hoekske,3,,,5753RE,Deurne,Deurne,Noord-Brabant,VBO,5.816899,51.446071
Hoekske,4,,,5753RE,Deurne,Deurne,Noord-Brabant,VBO,5.817015,51.445602
Hoekske,5,,,5753RE,Deurne,Deurne,Noord-Brabant,VBO,5.817331,51.446132
Kranenmortelweg,1,a,,5753RG,Deurne,Deurne,Noord-Brabant,VBO,5.816543,51.451061
Kranenmortelweg,1,,,5753RG,Deurne,Deurne,Noord-Brabant,VBO,5.816557,51.451025
Kranenmortelweg,2,a,,5753RG,Deurne,Deurne,Noord-Brabant,VBO,5.815812,51.451575
Kranenmortelweg,2,b,,5753RG,Deurne,Deurne,Noord-Brabant,VBO,5.815987,51.451593
Kranenmortelweg,2,,,5753RG,Deurne,Deurne,Noord-Brabant,VBO,5.815898,51.451351
Kranenmortelweg,4,a,,5753RG,Deurne,Deurne,Noord-Brabant,VBO,5.814453,51.451134
Kranenmortelweg,4,b,,5753RG,Deurne,Deurne,Noord-Brabant,VBO,5.814350,51.450962
Kranenmortelweg,4,c,,5753RG,Deurne,Deurne,Noord-Brabant,VBO,5.814304,51.450779
Kranenmortelweg,4,d,,5753RG,Deurne,Deurne,Noord-Brabant,VBO,5.813876,51.450635
Kranenmortelweg,4,,,5753RG,Deurne,Deurne,Noord-Brabant,VBO,5.815305,51.451008
Kranenmortelweg,5,,,5753RG,Deurne,Deurne,Noord-Brabant,VBO,5.815916,51.450209
Kranenmortelweg,6,a,,5753RG,Deurne,Deurne,Noord-Brabant,VBO,5.815529,51.450310
Kranenmortelweg,6,b,,5753RG,Deurne,Deurne,Noord-Brabant,VBO,5.813724,51.448082
Kranenmortelweg,6,,,5753RG,Deurne,Deurne,Noord-Brabant,VBO,5.815072,51.450716
Kranenmortelweg,7,,,5753RG,Deurne,Deurne,Noord-Brabant,VBO,5.815841,51.449877
Kranenmortelweg,8,,,5753RG,Deurne,Deurne,Noord-Brabant,VBO,5.814946,51.448011
Kranenmortelweg,9,,,5753RG,Deurne,Deurne,Noord-Brabant,VBO,5.815678,51.449356
Kranenmortelweg,10,,,5753RG,Deurne,Deurne,Noord-Brabant,VBO,5.814975,51.447966
Kranenmortelweg,11,,,5753RG,Deurne,Deurne,Noord-Brabant,VBO,5.815654,51.448269
Kranenmortelweg,12,,,5753RG,Deurne,Deurne,Noord-Brabant,VBO,5.815113,51.447354
Kranenmortelweg,13,,,5753RG,Deurne,Deurne,Noord-Brabant,VBO,5.815773,51.447235
Kranenmortelweg,14,,,5753RG,Deurne,Deurne,Noord-Brabant,VBO,5.815340,51.446994
Kranenmortelweg,15,,,5753RG,Deurne,Deurne,Noord-Brabant,VBO,5.816125,51.446433
Kranenmortelweg,16,,,5753RG,Deurne,Deurne,Noord-Brabant,VBO,5.815361,51.446202
Kranenmortelweg,17,,,5753RG,Deurne,Deurne,Noord-Brabant,VBO,5.816724,51.445324
Kranenmortelweg,18,,,5753RG,Deurne,Deurne,Noord-Brabant,VBO,5.815530,51.445797
Breemortelweg,6,,,5753RH,Deurne,Deurne,Noord-Brabant,VBO,5.809064,51.443457
Breemortelweg,9,,,5753RH,Deurne,Deurne,Noord-Brabant,VBO,5.810873,51.443309
Breemortelweg,10,a,,5753RH,Deurne,Deurne,Noord-Brabant,VBO,5.811820,51.442854
Breemortelweg,10,,,5753RH,Deurne,Deurne,Noord-Brabant,VBO,5.810253,51.442985
Breemortelweg,12,a,,5753RH,Deurne,Deurne,Noord-Brabant,VBO,5.811954,51.443177
Breemortelweg,12,b,,5753RH,Deurne,Deurne,Noord-Brabant,VBO,5.812224,51.443041
Breemortelweg,12,c,,5753RH,Deurne,Deurne,Noord-Brabant,VBO,5.812296,51.443291
Breemortelweg,12,d,,5753RH,Deurne,Deurne,Noord-Brabant,VBO,5.812246,51.442866
Breemortelweg,12,e,,5753RH,Deurne,Deurne,Noord-Brabant,VBO,5.812456,51.442984
Breemortelweg,12,,,5753RH,Deurne,Deurne,Noord-Brabant,VBO,5.812039,51.443257
Breemortelweg,15,,,5753RH,Deurne,Deurne,Noord-Brabant,VBO,5.811094,51.443656
Breemortelweg,17,a,,5753RH,Deurne,Deurne,Noord-Brabant,VBO,5.812045,51.443833
Breemortelweg,17,b,,5753RH,Deurne,Deurne,Noord-Brabant,VBO,5.811638,51.444339
Breemortelweg,17,c,,5753RH,Deurne,Deurne,Noord-Brabant,VBO,5.811457,51.444023
Breemortelweg,17,,,5753RH,Deurne,Deurne,Noord-Brabant,VBO,5.811900,51.443770
Breemortelweg,19,a,,5753RH,Deurne,Deurne,Noord-Brabant,VBO,5.813315,51.444286
Breemortelweg,19,,,5753RH,Deurne,Deurne,Noord-Brabant,VBO,5.812550,51.444073
Breemortelweg,20,,,5753RH,Deurne,Deurne,Noord-Brabant,VBO,5.816967,51.444313
Breemortelweg,21,,,5753RH,Deurne,Deurne,Noord-Brabant,VBO,5.814071,51.444361
Breemortelweg,22,,,5753RH,Deurne,Deurne,Noord-Brabant,VBO,5.818105,51.444323
Breemortelweg,25,,,5753RH,Deurne,Deurne,Noord-Brabant,VBO,5.815949,51.444537
Breemortelweg,33,,,5753RH,Deurne,Deurne,Noord-Brabant,VBO,5.820943,51.445453
Breemortelweg,34,,,5753RH,Deurne,Deurne,Noord-Brabant,VBO,5.823853,51.443780
Indumastraat,3,,,5753RJ,Deurne,Deurne,Noord-Brabant,VBO,5.804962,51.448943
Indumastraat,5,a,,5753RJ,Deurne,Deurne,Noord-Brabant,VBO,5.805206,51.449439
Indumastraat,5,,,5753RJ,Deurne,Deurne,Noord-Brabant,VBO,5.805161,51.449278
Indumastraat,7,,,5753RJ,Deurne,Deurne,Noord-Brabant,VBO,5.805273,51.450410
Indumastraat,8,,,5753RJ,Deurne,Deurne,Noord-Brabant,VBO,5.805665,51.449330
Indumastraat,9,,,5753RJ,Deurne,Deurne,Noord-Brabant,VBO,5.805728,51.451388
Indumastraat,10,,,5753RJ,Deurne,Deurne,Noord-Brabant,VBO,5.806305,51.450613
Indumastraat,13,,,5753RJ,Deurne,Deurne,Noord-Brabant,VBO,5.805218,51.451910
Indumastraat,14,,,5753RJ,Deurne,Deurne,Noord-Brabant,VBO,5.806506,51.451529
Indumastraat,15,a,,5753RJ,Deurne,Deurne,Noord-Brabant,VBO,5.805907,51.452115
Indumastraat,15,,,5753RJ,Deurne,Deurne,Noord-Brabant,VBO,5.805863,51.451999
Indumastraat,16,a,,5753RJ,Deurne,Deurne,Noord-Brabant,VBO,5.806384,51.452329
Indumastraat,18,,,5753RJ,Deurne,Deurne,Noord-Brabant,VBO,5.806412,51.452239
Wattstraat,1,,,5753RK,Deurne,Deurne,Noord-Brabant,VBO,5.804012,51.451017
Wattstraat,2,,,5753RK,Deurne,Deurne,Noord-Brabant,VBO,5.803493,51.450839
Wattstraat,3,e,,5753RK,Deurne,Deurne,Noord-Brabant,VBO,5.804325,51.450520
Wattstraat,3,f,,5753RK,Deurne,Deurne,Noord-Brabant,VBO,5.804343,51.450283
Wattstraat,3,g,,5753RK,Deurne,Deurne,Noord-Brabant,VBO,5.804303,51.450127
Wattstraat,3,,,5753RK,Deurne,Deurne,Noord-Brabant,VBO,5.804022,51.450513
Voltstraat,1,,,5753RL,Deurne,Deurne,Noord-Brabant,VBO,5.799619,51.450466
Voltstraat,2,a,,5753RL,Deurne,Deurne,Noord-Brabant,VBO,5.800719,51.449866
Voltstraat,2,b,,5753RL,Deurne,Deurne,Noord-Brabant,VBO,5.800298,51.449859
Voltstraat,2,c,,5753RL,Deurne,Deurne,Noord-Brabant,VBO,5.800165,51.449874
Voltstraat,2,d,,5753RL,Deurne,Deurne,Noord-Brabant,VBO,5.799938,51.449625
Voltstraat,2,e,,5753RL,Deurne,Deurne,Noord-Brabant,VBO,5.800047,51.449219
Voltstraat,2,f,,5753RL,Deurne,Deurne,Noord-Brabant,VBO,5.800034,51.449109
Voltstraat,2,,,5753RL,Deurne,Deurne,Noord-Brabant,VBO,5.799914,51.449972
Voltstraat,3,a,,5753RL,Deurne,Deurne,Noord-Brabant,VBO,5.800181,51.450518
Voltstraat,3,,,5753RL,Deurne,Deurne,Noord-Brabant,VBO,5.800168,51.450698
Voltstraat,5,a,,5753RL,Deurne,Deurne,Noord-Brabant,VBO,5.800959,51.450330
Voltstraat,5,b,,5753RL,Deurne,Deurne,Noord-Brabant,VBO,5.801042,51.450308
Voltstraat,5,,,5753RL,Deurne,Deurne,Noord-Brabant,VBO,5.800855,51.450336
Voltstraat,6,,,5753RL,Deurne,Deurne,Noord-Brabant,VBO,5.801569,51.449686
Voltstraat,11,a,,5753RL,Deurne,Deurne,Noord-Brabant,VBO,5.803739,51.449970
Voltstraat,11,b,,5753RL,Deurne,Deurne,Noord-Brabant,VBO,5.804002,51.449956
Voltstraat,11,c,,5753RL,Deurne,Deurne,Noord-Brabant,VBO,5.804251,51.449937
Voltstraat,11,d,,5753RL,Deurne,Deurne,Noord-Brabant,VBO,5.804406,51.449923
Voltstraat,13,a,,5753RL,Deurne,Deurne,Noord-Brabant,VBO,5.804678,51.449873
Voltstraat,13,b,,5753RL,Deurne,Deurne,Noord-Brabant,VBO,5.804455,51.450108
Voltstraat,13,c,,5753RL,Deurne,Deurne,Noord-Brabant,VBO,5.804499,51.450271
Voltstraat,15,,,5753RL,Deurne,Deurne,Noord-Brabant,VBO,5.805128,51.449857
Voltstraat,19,,,5753RL,Deurne,Deurne,Noord-Brabant,VBO,5.806244,51.449705
Voltstraat,20,,,5753RL,Deurne,Deurne,Noord-Brabant,VBO,5.805034,51.449577
Voltstraat,22,,,5753RL,Deurne,Deurne,Noord-Brabant,VBO,5.806486,51.449426
Voltstraat,24,,,5753RL,Deurne,Deurne,Noord-Brabant,VBO,5.807607,51.449287
Energiestraat,1,,,5753RN,Deurne,Deurne,Noord-Brabant,VBO,5.809845,51.451652
Energiestraat,2,a,,5753RN,Deurne,Deurne,Noord-Brabant,VBO,5.809040,51.451736
Energiestraat,2,b,,5753RN,Deurne,Deurne,Noord-Brabant,VBO,5.809025,51.451664
Energiestraat,2,c,,5753RN,Deurne,Deurne,Noord-Brabant,VBO,5.809010,51.451592
Energiestraat,2,d,,5753RN,Deurne,Deurne,Noord-Brabant,VBO,5.808995,51.451529
Energiestraat,2,e,,5753RN,Deurne,Deurne,Noord-Brabant,VBO,5.808750,51.451530
Energiestraat,2,f,,5753RN,Deurne,Deurne,Noord-Brabant,VBO,5.808649,51.451539
Energiestraat,2,g,,5753RN,Deurne,Deurne,Noord-Brabant,VBO,5.808534,51.451549
Energiestraat,2,h,,5753RN,Deurne,Deurne,Noord-Brabant,VBO,5.808419,51.451567
Energiestraat,2,k,,5753RN,Deurne,Deurne,Noord-Brabant,VBO,5.808493,51.451792
Energiestraat,2,l,,5753RN,Deurne,Deurne,Noord-Brabant,VBO,5.808594,51.451782
Energiestraat,2,m,,5753RN,Deurne,Deurne,Noord-Brabant,VBO,5.808709,51.451764
Energiestraat,2,n,,5753RN,Deurne,Deurne,Noord-Brabant,VBO,5.808810,51.451754
Energiestraat,2,,,5753RN,Deurne,Deurne,Noord-Brabant,VBO,5.809186,51.452023
Energiestraat,4,a,,5753RN,Deurne,Deurne,Noord-Brabant,VBO,5.809050,51.451340
Energiestraat,4,,,5753RN,Deurne,Deurne,Noord-Brabant,VBO,5.808913,51.450982
Energiestraat,4,,,5753RN,Deurne,Deurne,Noord-Brabant,VBO,5.808960,51.450967
Energiestraat,6,,,5753RN,Deurne,Deurne,Noord-Brabant,VBO,5.808735,51.450229
Energiestraat,7,,,5753RN,Deurne,Deurne,Noord-Brabant,VBO,5.810659,51.450256
Energiestraat,8,,,5753RN,Deurne,Deurne,Noord-Brabant,VBO,5.808777,51.449813
Energiestraat,9,,,5753RN,Deurne,Deurne,Noord-Brabant,VBO,5.813116,51.449195
Energiestraat,12,,,5753RN,Deurne,Deurne,Noord-Brabant,VBO,5.808498,51.449176
Energiestraat,17,a,,5753RN,Deurne,Deurne,Noord-Brabant,VBO,5.806499,51.447709
Energiestraat,17,,,5753RN,Deurne,Deurne,Noord-Brabant,VBO,5.807507,51.447831
Energiestraat,19,,,5753RN,Deurne,Deurne,Noord-Brabant,VBO,5.806226,51.447701
Energiestraat,20,,,5753RN,Deurne,Deurne,Noord-Brabant,VBO,5.805813,51.448161
Energiestraat,21,,,5753RN,Deurne,Deurne,Noord-Brabant,VBO,5.804986,51.447400
Energiestraat,22,,,5753RN,Deurne,Deurne,Noord-Brabant,VBO,5.804833,51.447957
Geijzerstraat,1,,,5753RP,Deurne,Deurne,Noord-Brabant,VBO,5.803656,51.451422
Geijzerstraat,2,,,5753RP,Deurne,Deurne,Noord-Brabant,VBO,5.805292,51.450949
Geijzerstraat,3,,,5753RP,Deurne,Deurne,Noord-Brabant,VBO,5.806674,51.451106
Geijzerstraat,9,,,5753RP,Deurne,Deurne,Noord-Brabant,VBO,5.808489,51.450974
Geijzerstraat,11,,,5753RP,Deurne,Deurne,Noord-Brabant,VBO,5.808631,51.450956
Geijzerstraat,12,a,,5753RP,Deurne,Deurne,Noord-Brabant,VBO,5.808727,51.450631
Geijzerstraat,12,,,5753RP,Deurne,Deurne,Noord-Brabant,VBO,5.808395,51.450489
Meester de Jonghlaan,2,,,5753RR,Deurne,Deurne,Noord-Brabant,VBO,5.805908,51.436547
Meester de Jonghlaan,4,a,,5753RR,Deurne,Deurne,Noord-Brabant,VBO,5.802025,51.436570
Meester de Jonghlaan,4,,GA02,5753RR,Deurne,Deurne,Noord-Brabant,VBO,5.800125,51.435618
Meester de Jonghlaan,4,,GA03,5753RR,Deurne,Deurne,Noord-Brabant,VBO,5.800429,51.434990
Meester de Jonghlaan,4,,GA04,5753RR,Deurne,Deurne,Noord-Brabant,VBO,5.800835,51.435830
Meester de Jonghlaan,4,,GA05,5753RR,Deurne,Deurne,Noord-Brabant,VBO,5.801287,51.435234
Meester de Jonghlaan,4,,GA06,5753RR,Deurne,Deurne,Noord-Brabant,VBO,5.801841,51.435723
Meester de Jonghlaan,4,,GA07,5753RR,Deurne,Deurne,Noord-Brabant,VBO,5.801386,51.436134
Meester de Jonghlaan,4,,GA09,5753RR,Deurne,Deurne,Noord-Brabant,VBO,5.801959,51.436259
Meester de Jonghlaan,4,,GA10,5753RR,Deurne,Deurne,Noord-Brabant,VBO,5.802501,51.436428
Meester de Jonghlaan,4,,GA15,5753RR,Deurne,Deurne,Noord-Brabant,VBO,5.801072,51.436581
Meester de Jonghlaan,4,,GA17,5753RR,Deurne,Deurne,Noord-Brabant,VBO,5.802499,51.436120
Meester de Jonghlaan,4,,,5753RR,Deurne,Deurne,Noord-Brabant,VBO,5.802665,51.435746
Snoertsebaan,17,a,,5753RS,Deurne,Deurne,Noord-Brabant,VBO,5.828664,51.442215
Snoertsebaan,17,b,,5753RS,Deurne,Deurne,Noord-Brabant,VBO,5.829340,51.442968
Snoertsebaan,17,,,5753RS,Deurne,Deurne,Noord-Brabant,VBO,5.828773,51.441110
Snoertsebaan,19,a,,5753RS,Deurne,Deurne,Noord-Brabant,VBO,5.829626,51.444280
Snoertsebaan,19,b,,5753RS,Deurne,Deurne,Noord-Brabant,VBO,5.829998,51.445194
Snoertsebaan,19,,,5753RS,Deurne,Deurne,Noord-Brabant,VBO,5.829229,51.443355
Snoertsebaan,21,,,5753RS,Deurne,Deurne,Noord-Brabant,VBO,5.831150,51.449838
Snoertsebaan,25,,,5753RS,Deurne,Deurne,Noord-Brabant,VBO,5.831178,51.450026
Snoertsebaan,27,,,5753RS,Deurne,Deurne,Noord-Brabant,VBO,5.831280,51.450143
Snoertsebaan,29,,,5753RS,Deurne,Deurne,Noord-Brabant,VBO,5.831353,51.450215
Snoertsebaan,31,,,5753RS,Deurne,Deurne,Noord-Brabant,VBO,5.831455,51.450331
Snoertsebaan,34,,,5753RS,Deurne,Deurne,Noord-Brabant,VBO,5.829768,51.439623
Snoertsebaan,36,,,5753RS,Deurne,Deurne,Noord-Brabant,VBO,5.830694,51.441660
Snoertsebaan,40,,,5753RS,Deurne,Deurne,Noord-Brabant,VBO,5.831238,51.447258
Snoertsebaan,44,,,5753RS,Deurne,Deurne,Noord-Brabant,VBO,5.831715,51.449045
Pannenschop,2,,,5753RV,Deurne,Deurne,Noord-Brabant,VBO,5.831648,51.446546
Pannenschop,4,,,5753RV,Deurne,Deurne,Noord-Brabant,VBO,5.831719,51.446510
Pannenschop,5,,,5753RV,Deurne,Deurne,Noord-Brabant,VBO,5.832967,51.446101
Pannenschop,6,,,5753RV,Deurne,Deurne,Noord-Brabant,VBO,5.832903,51.445481
Pannenschop,7,,,5753RV,Deurne,Deurne,Noord-Brabant,VBO,5.833009,51.446046
Pannenschop,8,,,5753RV,Deurne,Deurne,Noord-Brabant,VBO,5.832975,51.445426
Pannenschop,9,,,5753RV,Deurne,Deurne,Noord-Brabant,VBO,5.834399,51.445448
Pannenschop,11,,,5753RV,Deurne,Deurne,Noord-Brabant,VBO,5.834528,51.445429
Veghelsedijk,4,,,5753RW,Deurne,Deurne,Noord-Brabant,VBO,5.831806,51.443588
Veghelsedijk,5,,,5753RW,Deurne,Deurne,Noord-Brabant,VBO,5.831293,51.444102
Veghelsedijk,6,a,,5753RW,Deurne,Deurne,Noord-Brabant,VBO,5.833707,51.443448
Veghelsedijk,6,,,5753RW,Deurne,Deurne,Noord-Brabant,VBO,5.833028,51.443485
Veghelsedijk,8,,,5753RW,Deurne,Deurne,Noord-Brabant,VBO,5.834882,51.443406
Veghelsedijk,9,,,5753RW,Deurne,Deurne,Noord-Brabant,VBO,5.834614,51.443865
Veghelsedijk,14,,,5753RW,Deurne,Deurne,Noord-Brabant,VBO,5.848197,51.442913
Zonnewende,3,,,5753RX,Deurne,Deurne,Noord-Brabant,VBO,5.819301,51.438467
Zonnewende,4,,,5753RX,Deurne,Deurne,Noord-Brabant,VBO,5.812391,51.437782
Zonnewende,5,a,,5753RX,Deurne,Deurne,Noord-Brabant,VBO,5.822320,51.438338
Zonnewende,5,,,5753RX,Deurne,Deurne,Noord-Brabant,VBO,5.821016,51.440330
Zonnewende,6,,,5753RX,Deurne,Deurne,Noord-Brabant,VBO,5.812836,51.437735
Zonnewende,7,,,5753RX,Deurne,Deurne,Noord-Brabant,VBO,5.822810,51.438427
Zonnewende,8,,,5753RX,Deurne,Deurne,Noord-Brabant,VBO,5.819641,51.437944
Zonnewende,10,,,5753RX,Deurne,Deurne,Noord-Brabant,VBO,5.826873,51.437746
Zonnewende,12,,,5753RX,Deurne,Deurne,Noord-Brabant,VBO,5.830468,51.437688
Zonnewende,15,,,5753RX,Deurne,Deurne,Noord-Brabant,VBO,5.835274,51.437820
Zonnewende,18,,,5753RX,Deurne,Deurne,Noord-Brabant,VBO,5.838406,51.437567
Zonnewende,20,,,5753RX,Deurne,Deurne,Noord-Brabant,VBO,5.839989,51.437615
Zonnewende,21,,,5753RX,Deurne,Deurne,Noord-Brabant,VBO,5.841186,51.438024
Zonnewende,22,,,5753RX,Deurne,Deurne,Noord-Brabant,VBO,5.843181,51.437612
Zonnewende,24,,,5753RX,Deurne,Deurne,Noord-Brabant,VBO,5.847498,51.437801
Berktweg,10,,,5753RZ,Deurne,Deurne,Noord-Brabant,VBO,5.816373,51.443664
Griendtsveenseweg,30,a,,5753SB,Deurne,Deurne,Noord-Brabant,VBO,5.833090,51.449857
Griendtsveenseweg,30,,,5753SB,Deurne,Deurne,Noord-Brabant,VBO,5.832675,51.450057
Griendtsveenseweg,44,a,,5753SB,Deurne,Deurne,Noord-Brabant,VBO,5.834859,51.449797
Griendtsveenseweg,44,,,5753SB,Deurne,Deurne,Noord-Brabant,VBO,5.834443,51.449897
Griendtsveenseweg,46,,,5753SB,Deurne,Deurne,Noord-Brabant,VBO,5.835305,51.449858
Griendtsveenseweg,52,,,5753SB,Deurne,Deurne,Noord-Brabant,VBO,5.836887,51.449726
Griendtsveenseweg,54,,,5753SB,Deurne,Deurne,Noord-Brabant,VBO,5.837002,51.449717
Griendtsveenseweg,56,,,5753SB,Deurne,Deurne,Noord-Brabant,VBO,5.837736,51.449627
Griendtsveenseweg,58,,,5753SB,Deurne,Deurne,Noord-Brabant,VBO,5.838008,51.449650
Griendtsveenseweg,62,,,5753SB,Deurne,Deurne,Noord-Brabant,VBO,5.841978,51.448196
Griendtsveenseweg,66,,,5753SB,Deurne,Deurne,Noord-Brabant,VBO,5.848424,51.448351
Griendtsveenseweg,68,,,5753SB,Deurne,Deurne,Noord-Brabant,VBO,5.849373,51.448230
Griendtsveenseweg,72,,,5753SB,Deurne,Deurne,Noord-Brabant,VBO,5.857498,51.446579
Griendtsveenseweg,76,,,5753SB,Deurne,Deurne,Noord-Brabant,VBO,5.870828,51.446094
Griendtsveenseweg,78,,,5753SB,Deurne,Deurne,Noord-Brabant,VBO,5.870943,51.446084
Griendtsveenseweg,80,,,5753SB,Deurne,Deurne,Noord-Brabant,VBO,5.872377,51.445719
Griendtsveenseweg,88,,,5753SB,Deurne,Deurne,Noord-Brabant,VBO,5.876198,51.444107
Lupinenweg,1,,,5753SC,Deurne,Deurne,Noord-Brabant,VBO,5.838542,51.448371
Lupinenweg,2,,,5753SC,Deurne,Deurne,Noord-Brabant,VBO,5.838218,51.449047
Lupinenweg,3,,,5753SC,Deurne,Deurne,Noord-Brabant,VBO,5.838229,51.441792
Lupinenweg,4,,,5753SC,Deurne,Deurne,Noord-Brabant,VBO,5.838231,51.448903
Lupinenweg,6,,,5753SC,Deurne,Deurne,Noord-Brabant,VBO,5.838886,51.439516
Lupinenweg,8,a,,5753SC,Deurne,Deurne,Noord-Brabant,VBO,5.839033,51.438455
Lupinenweg,8,,,5753SC,Deurne,Deurne,Noord-Brabant,VBO,5.839296,51.438831
Lupinenweg,10,,,5753SC,Deurne,Deurne,Noord-Brabant,VBO,5.839689,51.438183
Klaverweg,1,,,5753SE,Deurne,Deurne,Noord-Brabant,VBO,5.849067,51.447836
Klaverweg,4,a,,5753SE,Deurne,Deurne,Noord-Brabant,VBO,5.847431,51.445460
Klaverweg,4,,,5753SE,Deurne,Deurne,Noord-Brabant,VBO,5.847906,51.445422
Klaverweg,8,z,,5753SE,Deurne,Deurne,Noord-Brabant,VBO,5.846996,51.442826
Klaverweg,8,,,5753SE,Deurne,Deurne,Noord-Brabant,VBO,5.847379,51.443069
Leegveld,1,,,5753SG,Deurne,Deurne,Noord-Brabant,VBO,5.864775,51.446397
Leegveld,3,,,5753SG,Deurne,Deurne,Noord-Brabant,VBO,5.863774,51.445574
Leegveld,5,,,5753SG,Deurne,Deurne,Noord-Brabant,VBO,5.861207,51.443589
Leegveld,6,,,5753SG,Deurne,Deurne,Noord-Brabant,VBO,5.859818,51.442867
Leegveld,7,,,5753SG,Deurne,Deurne,Noord-Brabant,VBO,5.860811,51.441514
Leegveld,8,a,,5753SG,Deurne,Deurne,Noord-Brabant,VBO,5.859834,51.440188
Leegveld,8,c,,5753SG,Deurne,Deurne,Noord-Brabant,VBO,5.859456,51.439852
Leegveld,8,,,5753SG,Deurne,Deurne,Noord-Brabant,VBO,5.860064,51.440542
Leegveld,12,a,,5753SG,Deurne,Deurne,Noord-Brabant,VBO,5.858739,51.435887
Leegveld,12,,,5753SG,Deurne,Deurne,Noord-Brabant,VBO,5.858650,51.435600
Halte,4,,,5753SH,Deurne,Deurne,Noord-Brabant,VBO,5.873332,51.443557
Halte,6,,,5753SH,Deurne,Deurne,Noord-Brabant,VBO,5.872996,51.443064
Halte,10,,,5753SH,Deurne,Deurne,Noord-Brabant,VBO,5.872030,51.441459
Sint Jozefstraat,83,,,5753SJ,Deurne,Deurne,Noord-Brabant,VBO,5.790034,51.446736
Sint Jozefstraat,91,,,5753SJ,Deurne,Deurne,Noord-Brabant,VBO,5.795799,51.446318
Sint Jozefstraat,93,,,5753SJ,Deurne,Deurne,Noord-Brabant,VBO,5.796115,51.446352
Sint Jozefstraat,99,,,5753SJ,Deurne,Deurne,Noord-Brabant,VBO,5.796789,51.446116
Sint Jozefstraat,103,,,5753SJ,Deurne,Deurne,Noord-Brabant,VBO,5.799277,51.446000
Sint Jozefstraat,105,,,5753SJ,Deurne,Deurne,Noord-Brabant,VBO,5.799692,51.445756
Sint Jozefstraat,107,,,5753SJ,Deurne,Deurne,Noord-Brabant,VBO,5.800183,51.446015
Sint Jozefstraat,109,,,5753SJ,Deurne,Deurne,Noord-Brabant,VBO,5.800599,51.445860
Sint Jozefstraat,70,,,5753SK,Deurne,Deurne,Noord-Brabant,VBO,5.786421,51.447691
Sint Jozefstraat,76,,,5753SK,Deurne,Deurne,Noord-Brabant,VBO,5.792337,51.446082
Sint Jozefstraat,78,,,5753SK,Deurne,Deurne,Noord-Brabant,VBO,5.792633,51.446194
Sint Jozefstraat,80,a,,5753SK,Deurne,Deurne,Noord-Brabant,VBO,5.795247,51.445789
Sint Jozefstraat,80,,,5753SK,Deurne,Deurne,Noord-Brabant,VBO,5.794352,51.442143
Sint Jozefstraat,82,a,,5753SK,Deurne,Deurne,Noord-Brabant,VBO,5.798182,51.445779
Sint Jozefstraat,82,,,5753SK,Deurne,Deurne,Noord-Brabant,VBO,5.797995,51.445780
Sint Jozefstraat,84,,,5753SK,Deurne,Deurne,Noord-Brabant,VBO,5.799116,51.445668
Sint Jozefstraat,92,,,5753SK,Deurne,Deurne,Noord-Brabant,VBO,5.800597,51.445689
Leembaan,10,,,5753SL,Deurne,Deurne,Noord-Brabant,VBO,5.790921,51.454335
Leembaan,12,a,,5753SL,Deurne,Deurne,Noord-Brabant,VBO,5.790655,51.453736
Leembaan,12,,,5753SL,Deurne,Deurne,Noord-Brabant,VBO,5.790947,51.453966
Leembaan,14,,,5753SL,Deurne,Deurne,Noord-Brabant,VBO,5.791073,51.453597
Leembaan,18,,,5753SL,Deurne,Deurne,Noord-Brabant,VBO,5.791390,51.452904
Leembaan,20,,,5753SL,Deurne,Deurne,Noord-Brabant,VBO,5.791598,51.452750
Leembaan,22,,,5753SL,Deurne,Deurne,Noord-Brabant,VBO,5.791754,51.452552
Leembaan,24,,,5753SL,Deurne,Deurne,Noord-Brabant,VBO,5.791864,51.452341
Vloeieindsedreef,1,,,5753SM,Deurne,Deurne,Noord-Brabant,VBO,5.788785,51.446728
Vloeieindsedreef,2,,,5753SM,Deurne,Deurne,Noord-Brabant,VBO,5.783778,51.445253
Vloeieindsedreef,4,,,5753SM,Deurne,Deurne,Noord-Brabant,VBO,5.783879,51.445244
Vloeieindsedreef,5,,,5753SM,Deurne,Deurne,Noord-Brabant,VBO,5.783958,51.445795
Vloeieindsedreef,6,,,5753SM,Deurne,Deurne,Noord-Brabant,VBO,5.785735,51.445310
Vloeieindsedreef,8,,,5753SM,Deurne,Deurne,Noord-Brabant,VBO,5.785864,51.445309
Vloeieindsedreef,10,,,5753SM,Deurne,Deurne,Noord-Brabant,VBO,5.787448,51.445520
Vloeieindsedreef,12,,,5753SM,Deurne,Deurne,Noord-Brabant,VBO,5.787549,51.445519
Vloeieindsedreef,13,,,5753SM,Deurne,Deurne,Noord-Brabant,VBO,5.787654,51.446022
Vloeieindsedreef,14,,,5753SM,Deurne,Deurne,Noord-Brabant,VBO,5.788701,51.445632
Vloeieindsedreef,15,,,5753SM,Deurne,Deurne,Noord-Brabant,VBO,5.787729,51.446355
Beukenstraat,110,,,5753SP,Deurne,Deurne,Noord-Brabant,STA,5.782879,51.443186
Beukenstraat,112,,,5753SP,Deurne,Deurne,Noord-Brabant,STA,5.783331,51.442858
Beukenstraat,114,,,5753SP,Deurne,Deurne,Noord-Brabant,STA,5.782771,51.443126
Beukenstraat,116,,,5753SP,Deurne,Deurne,Noord-Brabant,STA,5.783223,51.442799
Beukenstraat,118,,,5753SP,Deurne,Deurne,Noord-Brabant,STA,5.782661,51.443066
Beukenstraat,120,,,5753SP,Deurne,Deurne,Noord-Brabant,STA,5.783114,51.442740
Beukenstraat,122,,,5753SP,Deurne,Deurne,Noord-Brabant,STA,5.782551,51.443005
Beukenstraat,124,,,5753SP,Deurne,Deurne,Noord-Brabant,STA,5.783006,51.442681
Beukenstraat,126,,,5753SP,Deurne,Deurne,Noord-Brabant,STA,5.782444,51.442946
Beukenstraat,128,,,5753SP,Deurne,Deurne,Noord-Brabant,STA,5.782898,51.442622
Beukenstraat,130,,,5753SP,Deurne,Deurne,Noord-Brabant,STA,5.782335,51.442888
Beukenstraat,132,,,5753SP,Deurne,Deurne,Noord-Brabant,STA,5.782789,51.442564
Beukenstraat,134,,,5753SP,Deurne,Deurne,Noord-Brabant,STA,5.782227,51.442830
Beukenstraat,136,,,5753SP,Deurne,Deurne,Noord-Brabant,STA,5.782680,51.442504
Beukenstraat,138,,,5753SP,Deurne,Deurne,Noord-Brabant,STA,5.782118,51.442771
Beukenstraat,140,,,5753SP,Deurne,Deurne,Noord-Brabant,STA,5.782128,51.442391
Beukenstraat,142,,,5753SP,Deurne,Deurne,Noord-Brabant,STA,5.781752,51.442616
Beukenstraat,144,,,5753SP,Deurne,Deurne,Noord-Brabant,STA,5.782024,51.442330
Beukenstraat,146,,,5753SP,Deurne,Deurne,Noord-Brabant,STA,5.781597,51.442533
Beukenstraat,148,,,5753SP,Deurne,Deurne,Noord-Brabant,STA,5.781914,51.442272
Ampèrestraat,1,a,,5753ST,Deurne,Deurne,Noord-Brabant,VBO,5.801383,51.449839
Ampèrestraat,1,,,5753ST,Deurne,Deurne,Noord-Brabant,VBO,5.801353,51.449714
Ampèrestraat,2,a,,5753ST,Deurne,Deurne,Noord-Brabant,VBO,5.801397,51.448221
Ampèrestraat,2,b,,5753ST,Deurne,Deurne,Noord-Brabant,VBO,5.800638,51.448846
Ampèrestraat,2,c,,5753ST,Deurne,Deurne,Noord-Brabant,VBO,5.800631,51.449000
Ampèrestraat,2,d,,5753ST,Deurne,Deurne,Noord-Brabant,VBO,5.800621,51.449192
Ampèrestraat,2,,,5753ST,Deurne,Deurne,Noord-Brabant,VBO,5.801382,51.448087
Ampèrestraat,3,,,5753ST,Deurne,Deurne,Noord-Brabant,VBO,5.801732,51.448652
Ampèrestraat,4,a,,5753ST,Deurne,Deurne,Noord-Brabant,VBO,5.801621,51.447545
Ampèrestraat,4,,,5753ST,Deurne,Deurne,Noord-Brabant,VBO,5.802035,51.447150
Ampèrestraat,7,,,5753ST,Deurne,Deurne,Noord-Brabant,VBO,5.802226,51.447589
Vuurijzer,1,,,5753SV,Deurne,Deurne,Noord-Brabant,VBO,5.770422,51.455659
Vuurijzer,5,,,5753SV,Deurne,Deurne,Noord-Brabant,VBO,5.768955,51.455858
Vuurijzer,9,,,5753SV,Deurne,Deurne,Noord-Brabant,VBO,5.767952,51.455783
Vuurijzer,11,,,5753SV,Deurne,Deurne,Noord-Brabant,VBO,5.767280,51.455258
Vuurijzer,13,,,5753SV,Deurne,Deurne,Noord-Brabant,VBO,5.767234,51.455533
Vuurijzer,15,,,5753SV,Deurne,Deurne,Noord-Brabant,VBO,5.767379,51.455833
Vuurijzer,18,,,5753SV,Deurne,Deurne,Noord-Brabant,VBO,5.768399,51.456509
Vuurijzer,23,,,5753SV,Deurne,Deurne,Noord-Brabant,VBO,5.765811,51.455042
Vuurijzer,35,,,5753SV,Deurne,Deurne,Noord-Brabant,VBO,5.770816,51.455074
Hoevenseweg,3,,,5753SW,Deurne,Deurne,Noord-Brabant,VBO,5.800954,51.437472
As,2,,,5753SX,Deurne,Deurne,Noord-Brabant,VBO,5.771061,51.457035
As,6,,,5753SX,Deurne,Deurne,Noord-Brabant,VBO,5.770998,51.456771
As,8,,,5753SX,Deurne,Deurne,Noord-Brabant,VBO,5.771011,51.456253
As,20,,,5753SX,Deurne,Deurne,Noord-Brabant,VBO,5.772147,51.456846
Daalder,1,,,5753SZ,Deurne,Deurne,Noord-Brabant,VBO,5.771130,51.458383
Daalder,3,,,5753SZ,Deurne,Deurne,Noord-Brabant,VBO,5.771255,51.457916
Daalder,5,,,5753SZ,Deurne,Deurne,Noord-Brabant,VBO,5.770153,51.458548
Daalder,7,a,,5753SZ,Deurne,Deurne,Noord-Brabant,VBO,5.768455,51.458072
Daalder,7,,,5753SZ,Deurne,Deurne,Noord-Brabant,VBO,5.768886,51.458472
Daalder,9,,,5753SZ,Deurne,Deurne,Noord-Brabant,VBO,5.767738,51.458817
Daalder,11,,,5753SZ,Deurne,Deurne,Noord-Brabant,VBO,5.768788,51.458796
Daalder,13,,,5753SZ,Deurne,Deurne,Noord-Brabant,VBO,5.768990,51.458831
Daalder,15,,,5753SZ,Deurne,Deurne,Noord-Brabant,VBO,5.769393,51.458892
Binnenweg,2,,,5753TZ,Deurne,Deurne,Noord-Brabant,VBO,5.820599,51.437400
