openbareruimtenaam,huisnummer,huisletter,huisnummertoevoeging,postcode,woonplaatsnaam,gemeentenaam,provincienaam,typeadresseerbaarobject,longitude,latitude
Griendtsveenseweg,1,,,5754AA,Deurne,Deurne,Noord-Brabant,VBO,5.821950,51.455356
Griendtsveenseweg,3,,,5754AA,Deurne,Deurne,Noord-Brabant,VBO,5.822266,51.455247
Griendtsveenseweg,5,,,5754AA,Deurne,Deurne,Noord-Brabant,VBO,5.823343,51.455081
Griendtsveenseweg,9,,,5754AA,Deurne,Deurne,Noord-Brabant,VBO,5.824248,51.454871
Griendtsveenseweg,11,,,5754AA,Deurne,Deurne,Noord-Brabant,VBO,5.824579,51.454878
Griendtsveenseweg,17,,,5754AA,Deurne,Deurne,Noord-Brabant,VBO,5.825945,51.454837
Griendtsveenseweg,21,,,5754AA,Deurne,Deurne,Noord-Brabant,VBO,5.827066,51.454734
Griendtsveenseweg,23,,,5754AA,Deurne,Deurne,Noord-Brabant,VBO,5.827406,51.454745
Griendtsveenseweg,25,,,5754AA,Deurne,Deurne,Noord-Brabant,VBO,5.828245,51.454649
Griendtsveenseweg,27,,,5754AA,Deurne,Deurne,Noord-Brabant,VBO,5.828403,51.454648
Griendtsveenseweg,29,,,5754AA,Deurne,Deurne,Noord-Brabant,VBO,5.830695,51.453624
Griendtsveenseweg,31,,,5754AA,Deurne,Deurne,Noord-Brabant,VBO,5.831452,51.453001
Griendtsveenseweg,33,a,,5754AA,Deurne,Deurne,Noord-Brabant,VBO,5.832536,51.452098
Griendtsveenseweg,33,,,5754AA,Deurne,Deurne,Noord-Brabant,VBO,5.832012,51.452696
Griendtsveenseweg,35,,,5754AA,Deurne,Deurne,Noord-Brabant,VBO,5.832548,51.451819
Griendtsveenseweg,37,,,5754AA,Deurne,Deurne,Noord-Brabant,VBO,5.832313,51.451308
Griendtsveenseweg,41,,,5754AA,Deurne,Deurne,Noord-Brabant,VBO,5.839131,51.449789
Griendtsveenseweg,4,,,5754AB,Deurne,Deurne,Noord-Brabant,VBO,5.825661,51.454408
Griendtsveenseweg,6,,,5754AB,Deurne,Deurne,Noord-Brabant,VBO,5.826459,51.454386
Griendtsveenseweg,8,,,5754AB,Deurne,Deurne,Noord-Brabant,VBO,5.827480,51.454346
Griendtsveenseweg,10,a,,5754AB,Deurne,Deurne,Noord-Brabant,VBO,5.829261,51.454079
Griendtsveenseweg,10,,,5754AB,Deurne,Deurne,Noord-Brabant,VBO,5.827912,51.454362
Griendtsveenseweg,12,,,5754AB,Deurne,Deurne,Noord-Brabant,VBO,5.829562,51.453988
Griendtsveenseweg,14,,,5754AB,Deurne,Deurne,Noord-Brabant,VBO,5.830105,51.453581
Griendtsveenseweg,18,a,,5754AB,Deurne,Deurne,Noord-Brabant,VBO,5.831133,51.452750
Griendtsveenseweg,20,a,,5754AB,Deurne,Deurne,Noord-Brabant,VBO,5.831463,51.452677
Griendtsveenseweg,20,,,5754AB,Deurne,Deurne,Noord-Brabant,VBO,5.831392,51.452722
Griendtsveenseweg,22,a,,5754AB,Deurne,Deurne,Noord-Brabant,VBO,5.831801,51.452370
Griendtsveenseweg,22,b,,5754AB,Deurne,Deurne,Noord-Brabant,VBO,5.831746,51.452137
Griendtsveenseweg,22,,,5754AB,Deurne,Deurne,Noord-Brabant,VBO,5.831706,51.452451
Griendtsveenseweg,24,,,5754AB,Deurne,Deurne,Noord-Brabant,VBO,5.831798,51.451606
Griendtsveenseweg,26,a,,5754AB,Deurne,Deurne,Noord-Brabant,VBO,5.831247,51.451213
Griendtsveenseweg,26,,,5754AB,Deurne,Deurne,Noord-Brabant,VBO,5.831650,51.451175
Korteweg,2,,,5754AC,Deurne,Deurne,Noord-Brabant,VBO,5.828769,51.455222
Korteweg,3,,,5754AC,Deurne,Deurne,Noord-Brabant,VBO,5.828122,51.455314
Korteweg,4,,,5754AC,Deurne,Deurne,Noord-Brabant,VBO,5.828526,51.455439
Beatrixstraat,3,a,,5754AD,Deurne,Deurne,Noord-Brabant,VBO,5.822216,51.454609
Beatrixstraat,3,b,,5754AD,Deurne,Deurne,Noord-Brabant,VBO,5.821965,51.454466
Beatrixstraat,3,,,5754AD,Deurne,Deurne,Noord-Brabant,VBO,5.822103,51.454780
Beatrixstraat,5,,,5754AD,Deurne,Deurne,Noord-Brabant,VBO,5.822053,51.454052
Beatrixstraat,7,a,,5754AD,Deurne,Deurne,Noord-Brabant,VBO,5.821642,51.453693
Beatrixstraat,7,,,5754AD,Deurne,Deurne,Noord-Brabant,VBO,5.822038,51.453998
Beatrixstraat,9,,,5754AD,Deurne,Deurne,Noord-Brabant,VBO,5.821630,51.453460
Beatrixstraat,11,,,5754AD,Deurne,Deurne,Noord-Brabant,VBO,5.821511,51.453074
Beatrixstraat,2,,,5754AE,Deurne,Deurne,Noord-Brabant,VBO,5.821499,51.454854
Beatrixstraat,4,,,5754AE,Deurne,Deurne,Noord-Brabant,VBO,5.821498,51.454710
Beatrixstraat,6,,,5754AE,Deurne,Deurne,Noord-Brabant,VBO,5.821468,51.454566
Beatrixstraat,8,,,5754AE,Deurne,Deurne,Noord-Brabant,VBO,5.821424,51.454522
Beatrixstraat,10,,,5754AE,Deurne,Deurne,Noord-Brabant,VBO,5.821348,51.454099
Beatrixstraat,12,,,5754AE,Deurne,Deurne,Noord-Brabant,VBO,5.821304,51.453965
Beatrixstraat,14,,,5754AE,Deurne,Deurne,Noord-Brabant,VBO,5.821259,51.453830
Beatrixstraat,16,,,5754AE,Deurne,Deurne,Noord-Brabant,VBO,5.821186,51.453696
Beatrixstraat,18,,,5754AE,Deurne,Deurne,Noord-Brabant,VBO,5.821142,51.453552
Beatrixstraat,20,,,5754AE,Deurne,Deurne,Noord-Brabant,VBO,5.821112,51.453417
Beatrixstraat,22,,,5754AE,Deurne,Deurne,Noord-Brabant,VBO,5.821067,51.453283
Beatrixstraat,24,,,5754AE,Deurne,Deurne,Noord-Brabant,VBO,5.821023,51.453148
Beatrixstraat,26,,,5754AE,Deurne,Deurne,Noord-Brabant,VBO,5.820993,51.453013
Beatrixstraat,28,,,5754AE,Deurne,Deurne,Noord-Brabant,VBO,5.820963,51.452869
Beatrixstraat,30,,,5754AE,Deurne,Deurne,Noord-Brabant,VBO,5.820918,51.452735
Beatrixstraat,32,,,5754AE,Deurne,Deurne,Noord-Brabant,VBO,5.820902,51.452600
Beatrixstraat,34,,,5754AE,Deurne,Deurne,Noord-Brabant,VBO,5.820916,51.452492
Beatrixstraat,36,,,5754AE,Deurne,Deurne,Noord-Brabant,VBO,5.820886,51.452420
Beatrixstraat,38,,,5754AE,Deurne,Deurne,Noord-Brabant,VBO,5.820872,51.452384
Beatrixstraat,40,,,5754AE,Deurne,Deurne,Noord-Brabant,VBO,5.820857,51.452339
Beatrixstraat,42,,,5754AE,Deurne,Deurne,Noord-Brabant,VBO,5.820871,51.452285
Margrietstraat,1,,,5754AG,Deurne,Deurne,Noord-Brabant,VBO,5.819542,51.454816
Margrietstraat,3,,,5754AG,Deurne,Deurne,Noord-Brabant,VBO,5.819526,51.454646
Margrietstraat,5,,,5754AG,Deurne,Deurne,Noord-Brabant,VBO,5.819467,51.454484
Margrietstraat,7,,,5754AG,Deurne,Deurne,Noord-Brabant,VBO,5.819452,51.454439
Margrietstraat,9,,,5754AG,Deurne,Deurne,Noord-Brabant,VBO,5.819546,51.453639
Margrietstraat,11,,,5754AG,Deurne,Deurne,Noord-Brabant,VBO,5.819559,51.453531
Margrietstraat,13,,,5754AG,Deurne,Deurne,Noord-Brabant,VBO,5.819572,51.453423
Margrietstraat,15,,,5754AG,Deurne,Deurne,Noord-Brabant,VBO,5.819586,51.453351
Margrietstraat,17,,,5754AG,Deurne,Deurne,Noord-Brabant,VBO,5.819613,51.453198
Margrietstraat,19,,,5754AG,Deurne,Deurne,Noord-Brabant,VBO,5.819627,51.453117
Margrietstraat,21,,,5754AG,Deurne,Deurne,Noord-Brabant,VBO,5.819640,51.453009
Margrietstraat,23,,,5754AG,Deurne,Deurne,Noord-Brabant,VBO,5.819639,51.452910
Margrietstraat,25,,,5754AG,Deurne,Deurne,Noord-Brabant,VBO,5.819638,51.452793
Margrietstraat,27,,,5754AG,Deurne,Deurne,Noord-Brabant,VBO,5.819652,51.452703
Margrietstraat,29,,,5754AG,Deurne,Deurne,Noord-Brabant,VBO,5.819651,51.452596
Margrietstraat,31,,,5754AG,Deurne,Deurne,Noord-Brabant,VBO,5.819650,51.452506
Margrietstraat,33,,,5754AG,Deurne,Deurne,Noord-Brabant,VBO,5.819649,51.452389
Margrietstraat,35,,,5754AG,Deurne,Deurne,Noord-Brabant,VBO,5.819634,51.452299
Margrietstraat,37,,,5754AG,Deurne,Deurne,Noord-Brabant,VBO,5.819618,51.452173
Margrietstraat,2,,,5754AH,Deurne,Deurne,Noord-Brabant,VBO,5.818935,51.454495
Margrietstraat,8,,,5754AH,Deurne,Deurne,Noord-Brabant,VBO,5.819087,51.453856
Margrietstraat,10,,,5754AH,Deurne,Deurne,Noord-Brabant,VBO,5.819101,51.453811
Margrietstraat,12,,,5754AH,Deurne,Deurne,Noord-Brabant,VBO,5.819129,51.453694
Margrietstraat,14,,,5754AH,Deurne,Deurne,Noord-Brabant,VBO,5.819143,51.453640
Margrietstraat,16,,,5754AH,Deurne,Deurne,Noord-Brabant,VBO,5.819156,51.453541
Margrietstraat,18,,,5754AH,Deurne,Deurne,Noord-Brabant,VBO,5.819170,51.453478
Margrietstraat,20,,,5754AH,Deurne,Deurne,Noord-Brabant,VBO,5.819183,51.453361
Margrietstraat,22,,,5754AH,Deurne,Deurne,Noord-Brabant,VBO,5.819197,51.453316
Margrietstraat,24,,,5754AH,Deurne,Deurne,Noord-Brabant,VBO,5.819211,51.453200
Margrietstraat,26,,,5754AH,Deurne,Deurne,Noord-Brabant,VBO,5.819210,51.453146
Margrietstraat,28,,,5754AH,Deurne,Deurne,Noord-Brabant,VBO,5.819223,51.453038
Margrietstraat,30,,,5754AH,Deurne,Deurne,Noord-Brabant,VBO,5.819237,51.452930
Margrietstraat,32,,,5754AH,Deurne,Deurne,Noord-Brabant,VBO,5.819250,51.452813
Margrietstraat,34,,,5754AH,Deurne,Deurne,Noord-Brabant,VBO,5.819235,51.452732
Margrietstraat,36,,,5754AH,Deurne,Deurne,Noord-Brabant,VBO,5.819248,51.452615
Margrietstraat,38,,,5754AH,Deurne,Deurne,Noord-Brabant,VBO,5.819247,51.452525
Margrietstraat,40,,,5754AH,Deurne,Deurne,Noord-Brabant,VBO,5.819246,51.452408
Margrietstraat,42,,,5754AH,Deurne,Deurne,Noord-Brabant,VBO,5.819260,51.452318
Margrietstraat,44,,,5754AH,Deurne,Deurne,Noord-Brabant,VBO,5.819216,51.452220
Irenestraat,1,,,5754AJ,Deurne,Deurne,Noord-Brabant,VBO,5.820557,51.454066
Irenestraat,3,,,5754AJ,Deurne,Deurne,Noord-Brabant,VBO,5.820398,51.454049
Irenestraat,5,,,5754AJ,Deurne,Deurne,Noord-Brabant,VBO,5.820110,51.454023
Irenestraat,7,,,5754AJ,Deurne,Deurne,Noord-Brabant,VBO,5.819952,51.453997
Irenestraat,9,,,5754AJ,Deurne,Deurne,Noord-Brabant,VBO,5.819664,51.453980
Irenestraat,11,,,5754AJ,Deurne,Deurne,Noord-Brabant,VBO,5.819505,51.453953
Irenestraat,13,,,5754AJ,Deurne,Deurne,Noord-Brabant,VBO,5.818655,51.453795
Irenestraat,15,,,5754AJ,Deurne,Deurne,Noord-Brabant,VBO,5.818540,51.453768
Irenestraat,17,,,5754AJ,Deurne,Deurne,Noord-Brabant,VBO,5.818381,51.453742
Irenestraat,19,,,5754AJ,Deurne,Deurne,Noord-Brabant,VBO,5.818280,51.453724
Irenestraat,21,,,5754AJ,Deurne,Deurne,Noord-Brabant,VBO,5.818093,51.453689
Irenestraat,23,,,5754AJ,Deurne,Deurne,Noord-Brabant,VBO,5.818006,51.453671
Irenestraat,25,,,5754AJ,Deurne,Deurne,Noord-Brabant,VBO,5.817834,51.453645
Irenestraat,27,,,5754AJ,Deurne,Deurne,Noord-Brabant,VBO,5.817733,51.453618
Irenestraat,29,,,5754AJ,Deurne,Deurne,Noord-Brabant,VBO,5.817560,51.453583
Irenestraat,31,,,5754AJ,Deurne,Deurne,Noord-Brabant,VBO,5.817430,51.453566
Irenestraat,33,,,5754AJ,Deurne,Deurne,Noord-Brabant,VBO,5.817271,51.453530
Irenestraat,35,,,5754AJ,Deurne,Deurne,Noord-Brabant,VBO,5.817156,51.453513
Irenestraat,2,,,5754AK,Deurne,Deurne,Noord-Brabant,VBO,5.821294,51.454423
Irenestraat,4,,,5754AK,Deurne,Deurne,Noord-Brabant,VBO,5.821207,51.454388
Irenestraat,6,,,5754AK,Deurne,Deurne,Noord-Brabant,VBO,5.821034,51.454343
Irenestraat,8,,,5754AK,Deurne,Deurne,Noord-Brabant,VBO,5.820919,51.454326
Irenestraat,10,,,5754AK,Deurne,Deurne,Noord-Brabant,VBO,5.820760,51.454308
Irenestraat,12,,,5754AK,Deurne,Deurne,Noord-Brabant,VBO,5.820645,51.454300
Irenestraat,14,,,5754AK,Deurne,Deurne,Noord-Brabant,VBO,5.820458,51.454274
Irenestraat,16,,,5754AK,Deurne,Deurne,Noord-Brabant,VBO,5.820372,51.454265
Irenestraat,18,,,5754AK,Deurne,Deurne,Noord-Brabant,VBO,5.820199,51.454248
Irenestraat,20,,,5754AK,Deurne,Deurne,Noord-Brabant,VBO,5.820084,51.454239
Irenestraat,22,,,5754AK,Deurne,Deurne,Noord-Brabant,VBO,5.819896,51.454213
Irenestraat,24,,,5754AK,Deurne,Deurne,Noord-Brabant,VBO,5.819810,51.454204
Irenestraat,26,,,5754AK,Deurne,Deurne,Noord-Brabant,VBO,5.819608,51.454187
Irenestraat,28,,,5754AK,Deurne,Deurne,Noord-Brabant,VBO,5.819522,51.454178
Parallelweg,121,,,5754AL,Deurne,Deurne,Noord-Brabant,VBO,5.816341,51.452509
Parallelweg,122,,,5754AL,Deurne,Deurne,Noord-Brabant,VBO,5.816456,51.452491
Parallelweg,123,,,5754AL,Deurne,Deurne,Noord-Brabant,VBO,5.816628,51.452472
Parallelweg,124,,,5754AL,Deurne,Deurne,Noord-Brabant,VBO,5.816715,51.452463
Parallelweg,125,,,5754AL,Deurne,Deurne,Noord-Brabant,VBO,5.816930,51.452435
Parallelweg,126,,,5754AL,Deurne,Deurne,Noord-Brabant,VBO,5.817016,51.452435
Parallelweg,127,,,5754AL,Deurne,Deurne,Noord-Brabant,VBO,5.817520,51.452406
Parallelweg,128,,,5754AL,Deurne,Deurne,Noord-Brabant,VBO,5.817620,51.452396
Parallelweg,129,,,5754AL,Deurne,Deurne,Noord-Brabant,VBO,5.817729,51.452408
Parallelweg,130,,,5754AL,Deurne,Deurne,Noord-Brabant,VBO,5.817821,51.452351
Parallelweg,131,,,5754AL,Deurne,Deurne,Noord-Brabant,VBO,5.817912,51.452361
Parallelweg,132,,,5754AL,Deurne,Deurne,Noord-Brabant,VBO,5.817992,51.452358
Parallelweg,133,,,5754AL,Deurne,Deurne,Noord-Brabant,VBO,5.818086,51.452342
Parallelweg,134,,,5754AL,Deurne,Deurne,Noord-Brabant,VBO,5.818195,51.452304
Parallelweg,135,,,5754AL,Deurne,Deurne,Noord-Brabant,VBO,5.818281,51.452295
Parallelweg,136,,,5754AL,Deurne,Deurne,Noord-Brabant,VBO,5.818367,51.452286
Parallelweg,137,,,5754AL,Deurne,Deurne,Noord-Brabant,VBO,5.818454,51.452276
Parallelweg,138,,,5754AL,Deurne,Deurne,Noord-Brabant,VBO,5.818540,51.452276
Parallelweg,139,,,5754AL,Deurne,Deurne,Noord-Brabant,VBO,5.818626,51.452267
Parallelweg,140,,,5754AL,Deurne,Deurne,Noord-Brabant,VBO,5.818698,51.452274
Parallelweg,141,,,5754AL,Deurne,Deurne,Noord-Brabant,VBO,5.818784,51.452248
Parallelweg,142,,,5754AM,Deurne,Deurne,Noord-Brabant,VBO,5.820006,51.452127
Parallelweg,143,,,5754AM,Deurne,Deurne,Noord-Brabant,VBO,5.820099,51.452113
Parallelweg,144,,,5754AM,Deurne,Deurne,Noord-Brabant,VBO,5.820189,51.452108
Parallelweg,145,,,5754AM,Deurne,Deurne,Noord-Brabant,VBO,5.820294,51.452171
Parallelweg,146,a,,5754AM,Deurne,Deurne,Noord-Brabant,VBO,5.820417,51.452593
Parallelweg,146,,,5754AM,Deurne,Deurne,Noord-Brabant,VBO,5.820412,51.452565
Parallelweg,148,,,5754AM,Deurne,Deurne,Noord-Brabant,VBO,5.820466,51.452107
Parallelweg,149,,,5754AM,Deurne,Deurne,Noord-Brabant,VBO,5.820552,51.452098
Parallelweg,150,,,5754AM,Deurne,Deurne,Noord-Brabant,VBO,5.820639,51.452089
Parallelweg,151,,,5754AM,Deurne,Deurne,Noord-Brabant,VBO,5.820725,51.452088
Parallelweg,152,,,5754AM,Deurne,Deurne,Noord-Brabant,VBO,5.820797,51.452070
Parallelweg,155,z,,5754AM,Deurne,Deurne,Noord-Brabant,VBO,5.822725,51.452319
Parallelweg,155,,,5754AM,Deurne,Deurne,Noord-Brabant,VBO,5.822411,51.452227
Mariastraat,1,,,5754AN,Deurne,Deurne,Noord-Brabant,VBO,5.815766,51.454075
Mariastraat,3,,,5754AN,Deurne,Deurne,Noord-Brabant,VBO,5.815852,51.454102
Mariastraat,5,,,5754AN,Deurne,Deurne,Noord-Brabant,VBO,5.815939,51.454119
Mariastraat,7,,,5754AN,Deurne,Deurne,Noord-Brabant,VBO,5.816026,51.454146
Mariastraat,11,,,5754AN,Deurne,Deurne,Noord-Brabant,VBO,5.817255,51.453279
Mariastraat,13,,,5754AN,Deurne,Deurne,Noord-Brabant,VBO,5.817283,51.453216
Mariastraat,15,,,5754AN,Deurne,Deurne,Noord-Brabant,VBO,5.817339,51.453117
Mariastraat,17,,,5754AN,Deurne,Deurne,Noord-Brabant,VBO,5.817367,51.453027
Mariastraat,19,,,5754AN,Deurne,Deurne,Noord-Brabant,VBO,5.817424,51.452936
Mariastraat,21,,,5754AN,Deurne,Deurne,Noord-Brabant,VBO,5.817423,51.452856
Mariastraat,23,,,5754AN,Deurne,Deurne,Noord-Brabant,VBO,5.817466,51.452775
Mariastraat,25,,,5754AN,Deurne,Deurne,Noord-Brabant,VBO,5.817465,51.452712
Mariastraat,27,,,5754AN,Deurne,Deurne,Noord-Brabant,VBO,5.817465,51.452658
Mariastraat,29,,,5754AN,Deurne,Deurne,Noord-Brabant,VBO,5.817463,51.452451
Mariastraat,2,a,,5754AP,Deurne,Deurne,Noord-Brabant,VBO,5.815894,51.453922
Mariastraat,2,,,5754AP,Deurne,Deurne,Noord-Brabant,VBO,5.815894,51.453922
Mariastraat,4,,,5754AP,Deurne,Deurne,Noord-Brabant,VBO,5.815894,51.453922
Mariastraat,6,,,5754AP,Deurne,Deurne,Noord-Brabant,VBO,5.815894,51.453922
Mariastraat,8,,,5754AP,Deurne,Deurne,Noord-Brabant,VBO,5.815894,51.453922
Mariastraat,10,,,5754AP,Deurne,Deurne,Noord-Brabant,VBO,5.815894,51.453922
Mariastraat,12,,,5754AP,Deurne,Deurne,Noord-Brabant,VBO,5.815894,51.453922
Mariastraat,14,,,5754AP,Deurne,Deurne,Noord-Brabant,VBO,5.815894,51.453922
Mariastraat,16,,,5754AP,Deurne,Deurne,Noord-Brabant,VBO,5.815894,51.453922
Mariastraat,18,a,,5754AP,Deurne,Deurne,Noord-Brabant,VBO,5.816499,51.453983
Mariastraat,18,,,5754AP,Deurne,Deurne,Noord-Brabant,VBO,5.815894,51.453922
Mariastraat,20,,,5754AP,Deurne,Deurne,Noord-Brabant,VBO,5.816626,51.453748
Mariastraat,22,,,5754AP,Deurne,Deurne,Noord-Brabant,VBO,5.816669,51.453676
Mariastraat,24,,,5754AP,Deurne,Deurne,Noord-Brabant,VBO,5.816710,51.453541
Mariastraat,26,,,5754AP,Deurne,Deurne,Noord-Brabant,VBO,5.816739,51.453487
Mariastraat,28,,,5754AP,Deurne,Deurne,Noord-Brabant,VBO,5.816781,51.453388
Mariastraat,30,,,5754AP,Deurne,Deurne,Noord-Brabant,VBO,5.816809,51.453316
Mariastraat,34,,,5754AP,Deurne,Deurne,Noord-Brabant,VBO,5.816865,51.453154
Mariastraat,36,,,5754AP,Deurne,Deurne,Noord-Brabant,VBO,5.816907,51.453055
Mariastraat,40,,,5754AP,Deurne,Deurne,Noord-Brabant,VBO,5.817007,51.452920
Mariastraat,42,,,5754AP,Deurne,Deurne,Noord-Brabant,VBO,5.817049,51.452785
Mariastraat,44,,,5754AP,Deurne,Deurne,Noord-Brabant,VBO,5.817105,51.452623
Christinaplantsoen,1,,,5754AR,Deurne,Deurne,Noord-Brabant,VBO,5.817984,51.452800
Christinaplantsoen,2,,,5754AR,Deurne,Deurne,Noord-Brabant,VBO,5.818675,51.452833
Christinaplantsoen,3,,,5754AR,Deurne,Deurne,Noord-Brabant,VBO,5.818128,51.452826
Christinaplantsoen,4,,,5754AR,Deurne,Deurne,Noord-Brabant,VBO,5.818818,51.452814
Christinaplantsoen,5,,,5754AR,Deurne,Deurne,Noord-Brabant,VBO,5.817914,51.453034
Christinaplantsoen,6,,,5754AR,Deurne,Deurne,Noord-Brabant,VBO,5.818633,51.453031
Christinaplantsoen,7,,,5754AR,Deurne,Deurne,Noord-Brabant,VBO,5.818073,51.453060
Christinaplantsoen,8,,,5754AR,Deurne,Deurne,Noord-Brabant,VBO,5.818806,51.453012
Christinaplantsoen,9,,,5754AR,Deurne,Deurne,Noord-Brabant,VBO,5.817830,51.453303
Christinaplantsoen,10,,,5754AR,Deurne,Deurne,Noord-Brabant,VBO,5.818621,51.453211
Christinaplantsoen,11,,,5754AR,Deurne,Deurne,Noord-Brabant,VBO,5.817974,51.453330
Christinaplantsoen,12,,,5754AR,Deurne,Deurne,Noord-Brabant,VBO,5.818779,51.453201
Christinaplantsoen,13,,,5754AR,Deurne,Deurne,Noord-Brabant,VBO,5.818133,51.453356
Christinaplantsoen,14,,,5754AR,Deurne,Deurne,Noord-Brabant,VBO,5.818579,51.453409
Christinaplantsoen,15,,,5754AR,Deurne,Deurne,Noord-Brabant,VBO,5.818277,51.453383
Christinaplantsoen,16,,,5754AR,Deurne,Deurne,Noord-Brabant,VBO,5.818738,51.453390
Blasiusstraat,1,a,,5754AS,Deurne,Deurne,Noord-Brabant,VBO,5.815026,51.454959
Blasiusstraat,1,,,5754AS,Deurne,Deurne,Noord-Brabant,VBO,5.815184,51.454958
Blasiusstraat,3,,,5754AS,Deurne,Deurne,Noord-Brabant,VBO,5.815329,51.455030
Blasiusstraat,5,,,5754AS,Deurne,Deurne,Noord-Brabant,VBO,5.815458,51.455011
Blasiusstraat,7,,,5754AS,Deurne,Deurne,Noord-Brabant,VBO,5.815646,51.455046
Blasiusstraat,9,,,5754AS,Deurne,Deurne,Noord-Brabant,VBO,5.815847,51.455091
Blasiusstraat,11,,,5754AS,Deurne,Deurne,Noord-Brabant,VBO,5.816107,51.455144
Blasiusstraat,15,a,,5754AS,Deurne,Deurne,Noord-Brabant,VBO,5.816439,51.455250
Blasiusstraat,15,,,5754AS,Deurne,Deurne,Noord-Brabant,VBO,5.816323,51.455233
Blasiusstraat,19,,,5754AS,Deurne,Deurne,Noord-Brabant,VBO,5.816712,51.455267
Blasiusstraat,21,,,5754AS,Deurne,Deurne,Noord-Brabant,VBO,5.816900,51.455311
Blasiusstraat,23,a,,5754AS,Deurne,Deurne,Noord-Brabant,VBO,5.817332,51.455400
Blasiusstraat,23,,,5754AS,Deurne,Deurne,Noord-Brabant,VBO,5.817145,51.455364
Blasiusstraat,25,a,,5754AS,Deurne,Deurne,Noord-Brabant,VBO,5.817577,51.455435
Blasiusstraat,25,,,5754AS,Deurne,Deurne,Noord-Brabant,VBO,5.817505,51.455417
Blasiusstraat,27,,,5754AS,Deurne,Deurne,Noord-Brabant,VBO,5.817750,51.455461
Blasiusstraat,29,,,5754AS,Deurne,Deurne,Noord-Brabant,VBO,5.817966,51.455487
Blasiusstraat,31,,,5754AS,Deurne,Deurne,Noord-Brabant,VBO,5.818153,51.455496
Blasiusstraat,33,,,5754AT,Deurne,Deurne,Noord-Brabant,VBO,5.818728,51.455527
Blasiusstraat,39,,,5754AT,Deurne,Deurne,Noord-Brabant,VBO,5.819405,51.455482
Blasiusstraat,41,,,5754AT,Deurne,Deurne,Noord-Brabant,VBO,5.819606,51.455472
Blasiusstraat,43,,,5754AT,Deurne,Deurne,Noord-Brabant,VBO,5.819678,51.455463
Blasiusstraat,45,a,,5754AT,Deurne,Deurne,Noord-Brabant,VBO,5.819980,51.455453
Blasiusstraat,45,b,,5754AT,Deurne,Deurne,Noord-Brabant,VBO,5.820254,51.455533
Blasiusstraat,45,,,5754AT,Deurne,Deurne,Noord-Brabant,VBO,5.819879,51.455453
Blasiusstraat,47,,,5754AT,Deurne,Deurne,Noord-Brabant,VBO,5.820900,51.455395
Blasiusstraat,49,,,5754AT,Deurne,Deurne,Noord-Brabant,VBO,5.821015,51.455395
Blasiusstraat,2,,,5754AV,Deurne,Deurne,Noord-Brabant,VBO,5.815383,51.454652
Blasiusstraat,4,,,5754AV,Deurne,Deurne,Noord-Brabant,VBO,5.817920,51.455182
Blasiusstraat,8,,,5754AV,Deurne,Deurne,Noord-Brabant,VBO,5.818697,51.455152
Blasiusstraat,10,a,,5754AV,Deurne,Deurne,Noord-Brabant,VBO,5.819862,51.455130
Blasiusstraat,10,b,,5754AV,Deurne,Deurne,Noord-Brabant,VBO,5.819574,51.455140
Blasiusstraat,10,,,5754AV,Deurne,Deurne,Noord-Brabant,VBO,5.819459,51.455140
Blasiusstraat,12,,,5754AV,Deurne,Deurne,Noord-Brabant,VBO,5.820106,51.455111
Blasiusstraat,14,,,5754AV,Deurne,Deurne,Noord-Brabant,VBO,5.820528,51.455122
Blasiusstraat,16,,,5754AV,Deurne,Deurne,Noord-Brabant,VBO,5.820797,51.455153
Blasiusstraat,18,,,5754AV,Deurne,Deurne,Noord-Brabant,VBO,5.821242,51.455062
Merlenbergseweg,1,,,5754AW,Deurne,Deurne,Noord-Brabant,VBO,5.821391,51.455582
Merlenbergseweg,3,,,5754AW,Deurne,Deurne,Noord-Brabant,VBO,5.821438,51.455969
Merlenbergseweg,5,,,5754AW,Deurne,Deurne,Noord-Brabant,VBO,5.821828,51.456120
Merlenbergseweg,7,z,,5754AW,Deurne,Deurne,Noord-Brabant,VBO,5.822167,51.456286
Merlenbergseweg,7,,,5754AW,Deurne,Deurne,Noord-Brabant,VBO,5.822082,51.456246
Merlenbergseweg,15,,,5754AW,Deurne,Deurne,Noord-Brabant,VBO,5.823788,51.457965
Merlenbergseweg,19,,,5754AW,Deurne,Deurne,Noord-Brabant,VBO,5.824368,51.458412
Merlenbergseweg,21,,,5754AW,Deurne,Deurne,Noord-Brabant,VBO,5.824673,51.458698
Merlenbergseweg,23,,,5754AW,Deurne,Deurne,Noord-Brabant,VBO,5.824661,51.458923
Merlenbergseweg,25,,,5754AW,Deurne,Deurne,Noord-Brabant,VBO,5.824922,51.459210
Merlenbergseweg,27,,,5754AW,Deurne,Deurne,Noord-Brabant,VBO,5.824735,51.459210
Merlenbergseweg,29,,,5754AW,Deurne,Deurne,Noord-Brabant,VBO,5.823961,51.459465
Merlenbergseweg,31,,,5754AW,Deurne,Deurne,Noord-Brabant,VBO,5.824926,51.459596
Merlenbergseweg,6,a,,5754AX,Deurne,Deurne,Noord-Brabant,VBO,5.823781,51.457218
Merlenbergseweg,6,,,5754AX,Deurne,Deurne,Noord-Brabant,VBO,5.823415,51.456600
Merlenbergseweg,10,a,,5754AX,Deurne,Deurne,Noord-Brabant,VBO,5.824856,51.458284
Merlenbergseweg,10,,,5754AX,Deurne,Deurne,Noord-Brabant,VBO,5.824725,51.458150
Merlenbergseweg,12,,,5754AX,Deurne,Deurne,Noord-Brabant,VBO,5.825189,51.458791
Merlenbergseweg,14,,,5754AX,Deurne,Deurne,Noord-Brabant,VBO,5.825526,51.459180
Merlenbergseweg,16,,,5754AX,Deurne,Deurne,Noord-Brabant,VBO,5.825503,51.459747
Merlenbergseweg,18,a,,5754AX,Deurne,Deurne,Noord-Brabant,VBO,5.827253,51.460612
Merlenbergseweg,18,,,5754AX,Deurne,Deurne,Noord-Brabant,VBO,5.826836,51.460668
Merlenbergseweg,22,,,5754AX,Deurne,Deurne,Noord-Brabant,VBO,5.826594,51.462502
Merlenbergseweg,24,,,5754AX,Deurne,Deurne,Noord-Brabant,VBO,5.826636,51.463770
Kerkplein,2,,,5754AZ,Deurne,Deurne,Noord-Brabant,VBO,5.816285,51.454235
Kerkplein,3,,,5754AZ,Deurne,Deurne,Noord-Brabant,VBO,5.816608,51.454836
Kerkplein,4,,,5754AZ,Deurne,Deurne,Noord-Brabant,VBO,5.816257,51.454289
Kerkplein,5,,,5754AZ,Deurne,Deurne,Noord-Brabant,VBO,5.816748,51.454530
Kerkplein,6,,,5754AZ,Deurne,Deurne,Noord-Brabant,VBO,5.816229,51.454343
Kerkplein,8,,,5754AZ,Deurne,Deurne,Noord-Brabant,VBO,5.816215,51.454397
Kerkplein,10,,,5754AZ,Deurne,Deurne,Noord-Brabant,VBO,5.815956,51.454362
Kerkplein,12,,,5754AZ,Deurne,Deurne,Noord-Brabant,VBO,5.815869,51.454344
Kerkplein,14,,,5754AZ,Deurne,Deurne,Noord-Brabant,VBO,5.815783,51.454336
Jagerweg,1,,,5754BA,Deurne,Deurne,Noord-Brabant,VBO,5.817884,51.455883
Jagerweg,2,,,5754BA,Deurne,Deurne,Noord-Brabant,VBO,5.818473,51.455743
Jagerweg,4,,,5754BA,Deurne,Deurne,Noord-Brabant,VBO,5.818277,51.455998
Jagerweg,6,,,5754BA,Deurne,Deurne,Noord-Brabant,VBO,5.818637,51.456166
Jagerweg,9,,,5754BA,Deurne,Deurne,Noord-Brabant,VBO,5.817685,51.456243
Jagerweg,11,,,5754BA,Deurne,Deurne,Noord-Brabant,VBO,5.817600,51.456361
Jagerweg,13,,,5754BA,Deurne,Deurne,Noord-Brabant,VBO,5.817515,51.456469
Jagerweg,15,,,5754BA,Deurne,Deurne,Noord-Brabant,VBO,5.817444,51.456586
Jagerweg,19,,,5754BA,Deurne,Deurne,Noord-Brabant,VBO,5.816947,51.457226
Jagerweg,21,,,5754BA,Deurne,Deurne,Noord-Brabant,VBO,5.816876,51.457334
Legerweg,1,,,5754BC,Deurne,Deurne,Noord-Brabant,VBO,5.814015,51.457569
Legerweg,3,,,5754BC,Deurne,Deurne,Noord-Brabant,VBO,5.814128,51.457371
Legerweg,5,,,5754BC,Deurne,Deurne,Noord-Brabant,VBO,5.814460,51.457460
Legerweg,7,a,,5754BC,Deurne,Deurne,Noord-Brabant,VBO,5.814738,51.457522
Legerweg,7,b,,5754BC,Deurne,Deurne,Noord-Brabant,VBO,5.814950,51.457548
Legerweg,7,,,5754BC,Deurne,Deurne,Noord-Brabant,VBO,5.814647,51.457495
Legerweg,9,,,5754BC,Deurne,Deurne,Noord-Brabant,VBO,5.815368,51.457636
Legerweg,11,,,5754BC,Deurne,Deurne,Noord-Brabant,VBO,5.815642,51.457680
Legerweg,13,,,5754BC,Deurne,Deurne,Noord-Brabant,VBO,5.815901,51.457724
Legerweg,2,,,5754BD,Deurne,Deurne,Noord-Brabant,VBO,5.814644,51.457198
Legerweg,4,,,5754BD,Deurne,Deurne,Noord-Brabant,VBO,5.814759,51.457216
Legerweg,6,,,5754BD,Deurne,Deurne,Noord-Brabant,VBO,5.815004,51.457260
Legerweg,8,,,5754BD,Deurne,Deurne,Noord-Brabant,VBO,5.815293,51.457322
Legerweg,12,,,5754BD,Deurne,Deurne,Noord-Brabant,VBO,5.815985,51.457454
Legerweg,14,,,5754BD,Deurne,Deurne,Noord-Brabant,VBO,5.816086,51.457481
Legerweg,16,,,5754BD,Deurne,Deurne,Noord-Brabant,VBO,5.816302,51.457516
Legerweg,18,,,5754BD,Deurne,Deurne,Noord-Brabant,VBO,5.816619,51.457578
Pottenbakker,3,,,5754BE,Deurne,Deurne,Noord-Brabant,VBO,5.816153,51.457040
Pottenbakker,5,,,5754BE,Deurne,Deurne,Noord-Brabant,VBO,5.816177,51.456519
Pottenbakker,7,,,5754BE,Deurne,Deurne,Noord-Brabant,VBO,5.816091,51.456537
Pottenbakker,9,,,5754BE,Deurne,Deurne,Noord-Brabant,VBO,5.815860,51.456484
Pottenbakker,11,,,5754BE,Deurne,Deurne,Noord-Brabant,VBO,5.815788,51.456466
Pottenbakker,13,,,5754BE,Deurne,Deurne,Noord-Brabant,VBO,5.815630,51.456431
Pottenbakker,15,,,5754BE,Deurne,Deurne,Noord-Brabant,VBO,5.815543,51.456413
Pottenbakker,17,,,5754BE,Deurne,Deurne,Noord-Brabant,VBO,5.815642,51.456224
Pottenbakker,19,,,5754BE,Deurne,Deurne,Noord-Brabant,VBO,5.815685,51.456170
Pottenbakker,21,,,5754BE,Deurne,Deurne,Noord-Brabant,VBO,5.815727,51.456071
Pottenbakker,23,,,5754BE,Deurne,Deurne,Noord-Brabant,VBO,5.815755,51.456017
Pottenbakker,25,,,5754BE,Deurne,Deurne,Noord-Brabant,VBO,5.815812,51.455918
Pottenbakker,27,,,5754BE,Deurne,Deurne,Noord-Brabant,VBO,5.815826,51.455873
Pottenbakker,29,,,5754BE,Deurne,Deurne,Noord-Brabant,VBO,5.816143,51.455907
Pottenbakker,31,,,5754BE,Deurne,Deurne,Noord-Brabant,VBO,5.816244,51.455925
Pottenbakker,33,,,5754BE,Deurne,Deurne,Noord-Brabant,VBO,5.817224,51.456119
Pottenbakker,35,,,5754BE,Deurne,Deurne,Noord-Brabant,VBO,5.817325,51.456137
Turfsteker,1,,,5754BG,Deurne,Deurne,Noord-Brabant,VBO,5.816711,51.456633
Turfsteker,2,,,5754BG,Deurne,Deurne,Noord-Brabant,VBO,5.816190,51.456330
Turfsteker,3,,,5754BG,Deurne,Deurne,Noord-Brabant,VBO,5.816782,51.456588
Turfsteker,4,,,5754BG,Deurne,Deurne,Noord-Brabant,VBO,5.816204,51.456276
Turfsteker,5,,,5754BG,Deurne,Deurne,Noord-Brabant,VBO,5.816882,51.456471
Turfsteker,6,,,5754BG,Deurne,Deurne,Noord-Brabant,VBO,5.816232,51.456222
Turfsteker,7,,,5754BG,Deurne,Deurne,Noord-Brabant,VBO,5.816910,51.456417
Turfsteker,8,,,5754BG,Deurne,Deurne,Noord-Brabant,VBO,5.816275,51.456168
Turfsteker,9,,,5754BG,Deurne,Deurne,Noord-Brabant,VBO,5.816939,51.456372
Turfsteker,10,,,5754BG,Deurne,Deurne,Noord-Brabant,VBO,5.816303,51.456105
Turfsteker,11,,,5754BG,Deurne,Deurne,Noord-Brabant,VBO,5.816967,51.456300
Turfsteker,12,,,5754BG,Deurne,Deurne,Noord-Brabant,VBO,5.816331,51.456060
Turfsteker,13,,,5754BG,Deurne,Deurne,Noord-Brabant,VBO,5.816995,51.456255
Turfsteker,14,,,5754BG,Deurne,Deurne,Noord-Brabant,VBO,5.816345,51.456015
Turfsteker,15,,,5754BG,Deurne,Deurne,Noord-Brabant,VBO,5.817038,51.456201
Turfsteker,16,,,5754BG,Deurne,Deurne,Noord-Brabant,VBO,5.816374,51.455970
Turfsteker,17,,,5754BG,Deurne,Deurne,Noord-Brabant,VBO,5.817052,51.456147
Turfsteker,19,,,5754BG,Deurne,Deurne,Noord-Brabant,VBO,5.817066,51.456111
Plaveistoker,1,,,5754BH,Deurne,Deurne,Noord-Brabant,VBO,5.816323,51.456734
Plaveistoker,2,,,5754BH,Deurne,Deurne,Noord-Brabant,VBO,5.817086,51.456758
Plaveistoker,3,,,5754BH,Deurne,Deurne,Noord-Brabant,VBO,5.816540,51.456814
Plaveistoker,4,,,5754BH,Deurne,Deurne,Noord-Brabant,VBO,5.817259,51.456793
Plaveistoker,5,,,5754BH,Deurne,Deurne,Noord-Brabant,VBO,5.816713,51.456903
Plaveistoker,7,,,5754BH,Deurne,Deurne,Noord-Brabant,VBO,5.816901,51.456938
Plaveistoker,9,,,5754BH,Deurne,Deurne,Noord-Brabant,VBO,5.817117,51.456983
Pottenbakker,6,,,5754BJ,Deurne,Deurne,Noord-Brabant,VBO,5.815893,51.456870
Pottenbakker,8,,,5754BJ,Deurne,Deurne,Noord-Brabant,VBO,5.815963,51.456699
Pottenbakker,10,,,5754BJ,Deurne,Deurne,Noord-Brabant,VBO,5.815560,51.456620
Pottenbakker,12,,,5754BJ,Deurne,Deurne,Noord-Brabant,VBO,5.815358,51.456611
Pottenbakker,14,,,5754BJ,Deurne,Deurne,Noord-Brabant,VBO,5.815170,51.456531
Pottenbakker,16,,,5754BJ,Deurne,Deurne,Noord-Brabant,VBO,5.815198,51.456405
Pottenbakker,18,,,5754BJ,Deurne,Deurne,Noord-Brabant,VBO,5.815283,51.456315
Pottenbakker,20,,,5754BJ,Deurne,Deurne,Noord-Brabant,VBO,5.815312,51.456252
Pottenbakker,22,,,5754BJ,Deurne,Deurne,Noord-Brabant,VBO,5.815368,51.456153
Pottenbakker,24,,,5754BJ,Deurne,Deurne,Noord-Brabant,VBO,5.815396,51.456099
Pottenbakker,26,,,5754BJ,Deurne,Deurne,Noord-Brabant,VBO,5.815439,51.456000
Pottenbakker,28,,,5754BJ,Deurne,Deurne,Noord-Brabant,VBO,5.815467,51.455937
Pottenbakker,30,,,5754BJ,Deurne,Deurne,Noord-Brabant,VBO,5.815524,51.455847
Pottenbakker,32,,,5754BJ,Deurne,Deurne,Noord-Brabant,VBO,5.815552,51.455793
Pottenbakker,34,a,,5754BJ,Deurne,Deurne,Noord-Brabant,VBO,5.816155,51.455683
Pottenbakker,34,,,5754BJ,Deurne,Deurne,Noord-Brabant,VBO,5.815939,51.455648
Pottenbakker,36,,,5754BJ,Deurne,Deurne,Noord-Brabant,VBO,5.816270,51.455709
Pottenbakker,38,,,5754BJ,Deurne,Deurne,Noord-Brabant,VBO,5.816414,51.455727
Pottenbakker,40,,,5754BJ,Deurne,Deurne,Noord-Brabant,VBO,5.816558,51.455708
Pottenbakker,42,,,5754BJ,Deurne,Deurne,Noord-Brabant,VBO,5.816702,51.455717
Pottenbakker,44,,,5754BJ,Deurne,Deurne,Noord-Brabant,VBO,5.816831,51.455680
Pottenbakker,46,,,5754BJ,Deurne,Deurne,Noord-Brabant,VBO,5.816904,51.455752
Pottenbakker,48,,,5754BJ,Deurne,Deurne,Noord-Brabant,VBO,5.817076,51.455724
Pottenbakker,50,,,5754BJ,Deurne,Deurne,Noord-Brabant,VBO,5.817149,51.455832
Pottenbakker,52,,,5754BJ,Deurne,Deurne,Noord-Brabant,VBO,5.817293,51.455858
Pottenbakker,54,,,5754BJ,Deurne,Deurne,Noord-Brabant,VBO,5.817453,51.455975
Pottenbakker,56,,,5754BJ,Deurne,Deurne,Noord-Brabant,VBO,5.817798,51.456018
Kulertseweg,1,,,5754BK,Deurne,Deurne,Noord-Brabant,VBO,5.812043,51.459104
Kulertseweg,4,,,5754BK,Deurne,Deurne,Noord-Brabant,VBO,5.812228,51.458843
Kulertseweg,5,,,5754BK,Deurne,Deurne,Noord-Brabant,VBO,5.812798,51.459550
Kulertseweg,6,,,5754BK,Deurne,Deurne,Noord-Brabant,VBO,5.812329,51.458915
Kulertseweg,7,a,,5754BK,Deurne,Deurne,Noord-Brabant,VBO,5.812951,51.459837
Kulertseweg,7,,,5754BK,Deurne,Deurne,Noord-Brabant,VBO,5.812998,51.459676
Kulertseweg,8,,,5754BK,Deurne,Deurne,Noord-Brabant,VBO,5.812431,51.458968
Kulertseweg,9,,,5754BK,Deurne,Deurne,Noord-Brabant,VBO,5.813375,51.459936
Kulertseweg,11,,,5754BK,Deurne,Deurne,Noord-Brabant,VBO,5.813666,51.460249
Kulertseweg,12,,,5754BK,Deurne,Deurne,Noord-Brabant,VBO,5.813212,51.459424
Kulertseweg,13,,,5754BK,Deurne,Deurne,Noord-Brabant,VBO,5.814091,51.461066
Kulertseweg,14,a,,5754BK,Deurne,Deurne,Noord-Brabant,VBO,5.813894,51.459910
Kulertseweg,14,z,,5754BK,Deurne,Deurne,Noord-Brabant,VBO,5.813561,51.459611
Kulertseweg,14,,,5754BK,Deurne,Deurne,Noord-Brabant,VBO,5.813762,51.459803
Kulertseweg,14,,,5754BK,Deurne,Deurne,Noord-Brabant,VBO,5.813804,51.459673
Kulertseweg,15,,,5754BK,Deurne,Deurne,Noord-Brabant,VBO,5.814366,51.461280
Kulertseweg,16,,,5754BK,Deurne,Deurne,Noord-Brabant,VBO,5.814077,51.460080
Kulertseweg,17,,,5754BK,Deurne,Deurne,Noord-Brabant,VBO,5.814816,51.461710
Kulertseweg,18,a,,5754BK,Deurne,Deurne,Noord-Brabant,VBO,5.814995,51.460503
Kulertseweg,18,,,5754BK,Deurne,Deurne,Noord-Brabant,VBO,5.814228,51.460480
Kulertseweg,19,,,5754BK,Deurne,Deurne,Noord-Brabant,VBO,5.815308,51.462005
Kulertseweg,20,a,,5754BK,Deurne,Deurne,Noord-Brabant,VBO,5.814854,51.460983
Kulertseweg,20,,,5754BK,Deurne,Deurne,Noord-Brabant,VBO,5.814570,51.460850
Kulertseweg,21,a,,5754BK,Deurne,Deurne,Noord-Brabant,VBO,5.815657,51.462345
Kulertseweg,21,b,,5754BK,Deurne,Deurne,Noord-Brabant,VBO,5.815687,51.462489
Kulertseweg,21,,,5754BK,Deurne,Deurne,Noord-Brabant,VBO,5.815530,51.462260
Kulertseweg,23,,,5754BK,Deurne,Deurne,Noord-Brabant,VBO,5.815948,51.462722
Kulertseweg,24,,,5754BK,Deurne,Deurne,Noord-Brabant,VBO,5.816070,51.461930
Kulertseweg,25,,,5754BK,Deurne,Deurne,Noord-Brabant,VBO,5.816137,51.462901
Kulertseweg,26,,,5754BK,Deurne,Deurne,Noord-Brabant,VBO,5.816282,51.462233
Kulertseweg,27,,,5754BK,Deurne,Deurne,Noord-Brabant,VBO,5.816307,51.463043
Kulertseweg,28,,,5754BK,Deurne,Deurne,Noord-Brabant,VBO,5.816437,51.462543
Kulertseweg,29,,,5754BK,Deurne,Deurne,Noord-Brabant,VBO,5.816413,51.463169
Kulertseweg,30,,,5754BK,Deurne,Deurne,Noord-Brabant,VBO,5.816610,51.462737
Kulertseweg,31,,,5754BK,Deurne,Deurne,Noord-Brabant,VBO,5.816592,51.463411
Kulertseweg,32,,,5754BK,Deurne,Deurne,Noord-Brabant,VBO,5.817139,51.463442
Kulertseweg,33,,,5754BK,Deurne,Deurne,Noord-Brabant,VBO,5.816474,51.463574
De Eeuwsels,1,,,5754BL,Deurne,Deurne,Noord-Brabant,VBO,5.820204,51.460809
De Eeuwsels,2,,,5754BL,Deurne,Deurne,Noord-Brabant,VBO,5.820084,51.461046
De Eeuwsels,3,,,5754BL,Deurne,Deurne,Noord-Brabant,VBO,5.820187,51.460540
De Eeuwsels,4,,,5754BL,Deurne,Deurne,Noord-Brabant,VBO,5.819747,51.461155
De Eeuwsels,5,,,5754BL,Deurne,Deurne,Noord-Brabant,VBO,5.819933,51.460485
De Eeuwsels,6,,,5754BL,Deurne,Deurne,Noord-Brabant,VBO,5.819447,51.461003
De Eeuwsels,7,,,5754BL,Deurne,Deurne,Noord-Brabant,VBO,5.819553,51.460704
De Eeuwsels,8,,,5754BL,Deurne,Deurne,Noord-Brabant,VBO,5.819197,51.460849
De Eeuwsels,9,,,5754BL,Deurne,Deurne,Noord-Brabant,VBO,5.819312,51.460596
De Eeuwsels,10,,,5754BL,Deurne,Deurne,Noord-Brabant,VBO,5.818823,51.460886
De Eeuwsels,11,,,5754BL,Deurne,Deurne,Noord-Brabant,VBO,5.818921,51.460699
De Eeuwsels,12,,,5754BL,Deurne,Deurne,Noord-Brabant,VBO,5.817921,51.460876
De Eeuwsels,13,,,5754BL,Deurne,Deurne,Noord-Brabant,VBO,5.818087,51.460682
De Eeuwsels,14,,,5754BL,Deurne,Deurne,Noord-Brabant,VBO,5.817543,51.460846
De Eeuwsels,15,,,5754BL,Deurne,Deurne,Noord-Brabant,VBO,5.817712,51.460576
De Eeuwsels,16,,,5754BL,Deurne,Deurne,Noord-Brabant,VBO,5.817228,51.460939
De Eeuwsels,17,,,5754BL,Deurne,Deurne,Noord-Brabant,VBO,5.817292,51.460565
De Eeuwsels,18,,,5754BL,Deurne,Deurne,Noord-Brabant,VBO,5.817037,51.460748
De Eeuwsels,20,,,5754BL,Deurne,Deurne,Noord-Brabant,VBO,5.816860,51.460554
De Eeuwsels,22,,,5754BL,Deurne,Deurne,Noord-Brabant,VBO,5.816792,51.460360
Diepenbroek,1,,,5754BM,Deurne,Deurne,Noord-Brabant,VBO,5.820328,51.461780
Diepenbroek,2,,,5754BM,Deurne,Deurne,Noord-Brabant,VBO,5.820360,51.462094
Diepenbroek,3,,,5754BM,Deurne,Deurne,Noord-Brabant,VBO,5.819997,51.461817
Diepenbroek,4,,,5754BM,Deurne,Deurne,Noord-Brabant,VBO,5.820029,51.462167
Diepenbroek,5,,,5754BM,Deurne,Deurne,Noord-Brabant,VBO,5.819681,51.461863
Diepenbroek,6,,,5754BM,Deurne,Deurne,Noord-Brabant,VBO,5.819759,51.462170
Diepenbroek,7,,,5754BM,Deurne,Deurne,Noord-Brabant,VBO,5.819407,51.461738
Diepenbroek,8,,,5754BM,Deurne,Deurne,Noord-Brabant,VBO,5.819397,51.462251
Diepenbroek,9,,,5754BM,Deurne,Deurne,Noord-Brabant,VBO,5.819080,51.461842
Diepenbroek,10,,,5754BM,Deurne,Deurne,Noord-Brabant,VBO,5.819095,51.462207
Diepenbroek,11,,,5754BM,Deurne,Deurne,Noord-Brabant,VBO,5.819006,51.462000
Mariapad,1,,,5754BX,Deurne,Deurne,Noord-Brabant,VBO,5.805475,51.470509
Haageind,56,,,5754BZ,Deurne,Deurne,Noord-Brabant,VBO,5.803314,51.469024
Haageind,58,a,,5754BZ,Deurne,Deurne,Noord-Brabant,VBO,5.804003,51.468841
Haageind,58,,,5754BZ,Deurne,Deurne,Noord-Brabant,VBO,5.803716,51.468914
Haageind,60,a,,5754BZ,Deurne,Deurne,Noord-Brabant,VBO,5.804795,51.470571
Haageind,60,,,5754BZ,Deurne,Deurne,Noord-Brabant,VBO,5.804191,51.470486
Haageind,62,,,5754BZ,Deurne,Deurne,Noord-Brabant,VBO,5.804353,51.470935
Fitissingel,2,,,5754CA,Deurne,Deurne,Noord-Brabant,VBO,5.802389,51.465485
Fitissingel,4,,,5754CA,Deurne,Deurne,Noord-Brabant,VBO,5.802533,51.465494
Fitissingel,6,,,5754CA,Deurne,Deurne,Noord-Brabant,VBO,5.802677,51.465511
Fitissingel,8,,,5754CA,Deurne,Deurne,Noord-Brabant,VBO,5.802821,51.465529
Fitissingel,10,,,5754CA,Deurne,Deurne,Noord-Brabant,VBO,5.802532,51.465368
Fitissingel,12,,,5754CA,Deurne,Deurne,Noord-Brabant,VBO,5.802560,51.465269
Fitissingel,14,,,5754CA,Deurne,Deurne,Noord-Brabant,VBO,5.802804,51.465277
Fitissingel,16,,,5754CA,Deurne,Deurne,Noord-Brabant,VBO,5.803006,51.465312
Fitissingel,18,,,5754CA,Deurne,Deurne,Noord-Brabant,VBO,5.803122,51.465393
Fitissingel,20,,,5754CA,Deurne,Deurne,Noord-Brabant,VBO,5.803095,51.465528
Fitissingel,22,,,5754CA,Deurne,Deurne,Noord-Brabant,VBO,5.803052,51.465582
Fitissingel,24,,,5754CA,Deurne,Deurne,Noord-Brabant,VBO,5.803513,51.465598
Fitissingel,26,,,5754CA,Deurne,Deurne,Noord-Brabant,VBO,5.803483,51.465544
Fitissingel,28,,,5754CA,Deurne,Deurne,Noord-Brabant,VBO,5.803540,51.465418
Fitissingel,30,,,5754CA,Deurne,Deurne,Noord-Brabant,VBO,5.803828,51.465426
Fitissingel,40,,,5754CB,Deurne,Deurne,Noord-Brabant,VBO,5.803872,51.465588
Fitissingel,42,,,5754CB,Deurne,Deurne,Noord-Brabant,VBO,5.803973,51.465606
Fitissingel,44,,,5754CB,Deurne,Deurne,Noord-Brabant,VBO,5.804045,51.465605
Fitissingel,46,,,5754CB,Deurne,Deurne,Noord-Brabant,VBO,5.804146,51.465596
Fitissingel,48,,,5754CB,Deurne,Deurne,Noord-Brabant,VBO,5.804218,51.465623
Fitissingel,50,,,5754CB,Deurne,Deurne,Noord-Brabant,VBO,5.804261,51.465631
Fitissingel,52,,,5754CB,Deurne,Deurne,Noord-Brabant,VBO,5.804290,51.465622
Fitissingel,54,,,5754CB,Deurne,Deurne,Noord-Brabant,VBO,5.804304,51.465604
Fitissingel,56,,,5754CB,Deurne,Deurne,Noord-Brabant,VBO,5.804362,51.465604
Fitissingel,58,,,5754CB,Deurne,Deurne,Noord-Brabant,VBO,5.804362,51.465604
Fitissingel,60,,,5754CB,Deurne,Deurne,Noord-Brabant,VBO,5.804376,51.465604
Fitissingel,62,,,5754CB,Deurne,Deurne,Noord-Brabant,VBO,5.804419,51.465604
Fitissingel,64,,,5754CB,Deurne,Deurne,Noord-Brabant,VBO,5.804434,51.465604
Fitissingel,66,,,5754CB,Deurne,Deurne,Noord-Brabant,VBO,5.804491,51.465604
Fitissingel,68,,,5754CB,Deurne,Deurne,Noord-Brabant,VBO,5.804578,51.465603
Fitissingel,70,,,5754CB,Deurne,Deurne,Noord-Brabant,VBO,5.804649,51.465603
Fitissingel,72,,,5754CB,Deurne,Deurne,Noord-Brabant,VBO,5.804822,51.465629
Fitissingel,74,,,5754CB,Deurne,Deurne,Noord-Brabant,VBO,5.804894,51.465611
Fitissingel,76,,,5754CB,Deurne,Deurne,Noord-Brabant,VBO,5.804981,51.465611
Fitissingel,78,,,5754CB,Deurne,Deurne,Noord-Brabant,VBO,5.805067,51.465602
Fitissingel,80,,,5754CB,Deurne,Deurne,Noord-Brabant,VBO,5.805470,51.465627
Fitissingel,82,,,5754CB,Deurne,Deurne,Noord-Brabant,VBO,5.805542,51.465636
Fitissingel,84,,,5754CB,Deurne,Deurne,Noord-Brabant,VBO,5.805715,51.465635
Fitissingel,86,,,5754CB,Deurne,Deurne,Noord-Brabant,VBO,5.805801,51.465644
Fitissingel,88,,,5754CB,Deurne,Deurne,Noord-Brabant,VBO,5.805988,51.465643
Fitissingel,90,,,5754CB,Deurne,Deurne,Noord-Brabant,VBO,5.806089,51.465634
Fitissingel,100,,,5754CC,Deurne,Deurne,Noord-Brabant,VBO,5.806566,51.465884
Fitissingel,102,,,5754CC,Deurne,Deurne,Noord-Brabant,VBO,5.806553,51.465983
Fitissingel,104,,,5754CC,Deurne,Deurne,Noord-Brabant,VBO,5.806553,51.466055
Fitissingel,106,,,5754CC,Deurne,Deurne,Noord-Brabant,VBO,5.806511,51.466136
Fitissingel,108,,,5754CC,Deurne,Deurne,Noord-Brabant,VBO,5.806511,51.466190
Fitissingel,110,,,5754CC,Deurne,Deurne,Noord-Brabant,VBO,5.806512,51.466244
Fitissingel,112,,,5754CC,Deurne,Deurne,Noord-Brabant,VBO,5.806541,51.466297
Fitissingel,114,,,5754CC,Deurne,Deurne,Noord-Brabant,VBO,5.806614,51.466441
Fitissingel,116,,,5754CC,Deurne,Deurne,Noord-Brabant,VBO,5.806643,51.466466
Fitissingel,118,,,5754CC,Deurne,Deurne,Noord-Brabant,VBO,5.806658,51.466540
Fitissingel,120,,,5754CC,Deurne,Deurne,Noord-Brabant,VBO,5.806659,51.466585
Fitissingel,122,,,5754CC,Deurne,Deurne,Noord-Brabant,VBO,5.806702,51.466620
Fitissingel,124,,,5754CD,Deurne,Deurne,Noord-Brabant,VBO,5.806790,51.466746
Fitissingel,126,,,5754CD,Deurne,Deurne,Noord-Brabant,VBO,5.806819,51.466791
Fitissingel,128,,,5754CD,Deurne,Deurne,Noord-Brabant,VBO,5.806848,51.466836
Fitissingel,130,,,5754CD,Deurne,Deurne,Noord-Brabant,VBO,5.806964,51.466916
Fitissingel,132,,,5754CD,Deurne,Deurne,Noord-Brabant,VBO,5.806993,51.466952
Fitissingel,134,,,5754CD,Deurne,Deurne,Noord-Brabant,VBO,5.807031,51.467006
Fitissingel,136,,,5754CD,Deurne,Deurne,Noord-Brabant,VBO,5.807052,51.467042
Fitissingel,138,,,5754CD,Deurne,Deurne,Noord-Brabant,VBO,5.807081,51.467131
Fitissingel,140,,,5754CD,Deurne,Deurne,Noord-Brabant,VBO,5.807098,51.467183
Fitissingel,142,,,5754CD,Deurne,Deurne,Noord-Brabant,VBO,5.807145,51.467229
Fitissingel,144,,,5754CD,Deurne,Deurne,Noord-Brabant,VBO,5.807179,51.467278
Fitissingel,146,,,5754CD,Deurne,Deurne,Noord-Brabant,VBO,5.807198,51.467347
Fitissingel,148,,,5754CD,Deurne,Deurne,Noord-Brabant,VBO,5.807242,51.467383
Fitissingel,150,,,5754CD,Deurne,Deurne,Noord-Brabant,VBO,5.807041,51.467464
Fitissingel,152,,,5754CD,Deurne,Deurne,Noord-Brabant,VBO,5.806984,51.467473
Fitissingel,154,,,5754CD,Deurne,Deurne,Noord-Brabant,VBO,5.806926,51.467501
Fitissingel,156,,,5754CD,Deurne,Deurne,Noord-Brabant,VBO,5.806836,51.467537
Fitissingel,158,,,5754CD,Deurne,Deurne,Noord-Brabant,VBO,5.806768,51.467546
Fitissingel,160,,,5754CD,Deurne,Deurne,Noord-Brabant,VBO,5.806653,51.467555
Fitissingel,162,,,5754CD,Deurne,Deurne,Noord-Brabant,VBO,5.806496,51.467619
Fitissingel,164,,,5754CD,Deurne,Deurne,Noord-Brabant,VBO,5.806424,51.467628
Fitissingel,166,,,5754CD,Deurne,Deurne,Noord-Brabant,VBO,5.806352,51.467655
Fitissingel,168,,,5754CD,Deurne,Deurne,Noord-Brabant,VBO,5.806295,51.467674
Fitissingel,170,,,5754CE,Deurne,Deurne,Noord-Brabant,VBO,5.806052,51.467917
Fitissingel,172,,,5754CE,Deurne,Deurne,Noord-Brabant,VBO,5.806009,51.467872
Fitissingel,174,,,5754CE,Deurne,Deurne,Noord-Brabant,VBO,5.805994,51.467827
Fitissingel,176,,,5754CE,Deurne,Deurne,Noord-Brabant,VBO,5.805936,51.467774
Fitissingel,178,,,5754CE,Deurne,Deurne,Noord-Brabant,VBO,5.805519,51.467865
Fitissingel,180,,,5754CE,Deurne,Deurne,Noord-Brabant,VBO,5.805476,51.467883
Fitissingel,182,,,5754CE,Deurne,Deurne,Noord-Brabant,VBO,5.805379,51.467938
Fitissingel,184,,,5754CE,Deurne,Deurne,Noord-Brabant,VBO,5.805314,51.467979
Fitissingel,186,,,5754CE,Deurne,Deurne,Noord-Brabant,VBO,5.805237,51.467997
Fitissingel,188,,,5754CE,Deurne,Deurne,Noord-Brabant,VBO,5.805152,51.468019
Fitissingel,190,,,5754CE,Deurne,Deurne,Noord-Brabant,VBO,5.805073,51.468036
Fitissingel,192,,,5754CE,Deurne,Deurne,Noord-Brabant,VBO,5.804677,51.468614
Fitissingel,194,,,5754CE,Deurne,Deurne,Noord-Brabant,VBO,5.804648,51.468569
Fitissingel,196,,,5754CE,Deurne,Deurne,Noord-Brabant,VBO,5.804676,51.468452
Fitissingel,198,,,5754CE,Deurne,Deurne,Noord-Brabant,VBO,5.804718,51.468380
Fitissingel,200,,,5754CE,Deurne,Deurne,Noord-Brabant,VBO,5.804715,51.468075
Fitissingel,202,,,5754CE,Deurne,Deurne,Noord-Brabant,VBO,5.804629,51.468075
Fitissingel,204,,,5754CE,Deurne,Deurne,Noord-Brabant,VBO,5.804485,51.468031
Fitissingel,206,,,5754CE,Deurne,Deurne,Noord-Brabant,VBO,5.804432,51.468028
Fitissingel,208,,,5754CE,Deurne,Deurne,Noord-Brabant,VBO,5.804268,51.467986
Fitissingel,210,,,5754CE,Deurne,Deurne,Noord-Brabant,VBO,5.804196,51.467978
Fitissingel,212,,,5754CE,Deurne,Deurne,Noord-Brabant,VBO,5.804052,51.467960
Fitissingel,214,,,5754CE,Deurne,Deurne,Noord-Brabant,VBO,5.803980,51.467952
Fitissingel,216,,,5754CE,Deurne,Deurne,Noord-Brabant,VBO,5.803822,51.467961
Fitissingel,218,,,5754CE,Deurne,Deurne,Noord-Brabant,VBO,5.803750,51.467952
Fitissingel,220,,,5754CE,Deurne,Deurne,Noord-Brabant,VBO,5.803591,51.467926
Fitissingel,222,,,5754CE,Deurne,Deurne,Noord-Brabant,VBO,5.803519,51.467917
Fitissingel,224,,,5754CE,Deurne,Deurne,Noord-Brabant,VBO,5.803375,51.467882
Fitissingel,226,,,5754CE,Deurne,Deurne,Noord-Brabant,VBO,5.803303,51.467873
Fitissingel,228,,,5754CE,Deurne,Deurne,Noord-Brabant,VBO,5.803145,51.467856
Fitissingel,230,,,5754CE,Deurne,Deurne,Noord-Brabant,VBO,5.803073,51.467838
Fitissingel,232,,,5754CE,Deurne,Deurne,Noord-Brabant,VBO,5.802928,51.467820
Fitissingel,234,,,5754CE,Deurne,Deurne,Noord-Brabant,VBO,5.802655,51.467857
Fitissingel,236,,,5754CE,Deurne,Deurne,Noord-Brabant,VBO,5.802598,51.467885
Fitissingel,240,,,5754CE,Deurne,Deurne,Noord-Brabant,VBO,5.802157,51.468434
Fitissingel,1,a,,5754CG,Deurne,Deurne,Noord-Brabant,VBO,5.802478,51.465719
Fitissingel,1,,,5754CG,Deurne,Deurne,Noord-Brabant,VBO,5.802380,51.465754
Fitissingel,3,a,,5754CG,Deurne,Deurne,Noord-Brabant,VBO,5.802506,51.465728
Fitissingel,3,,,5754CG,Deurne,Deurne,Noord-Brabant,VBO,5.802506,51.465719
Fitissingel,5,a,,5754CG,Deurne,Deurne,Noord-Brabant,VBO,5.802564,51.465727
Fitissingel,5,,,5754CG,Deurne,Deurne,Noord-Brabant,VBO,5.802564,51.465727
Fitissingel,7,a,,5754CG,Deurne,Deurne,Noord-Brabant,VBO,5.802636,51.465736
Fitissingel,7,,,5754CG,Deurne,Deurne,Noord-Brabant,VBO,5.802646,51.465767
Fitissingel,9,a,,5754CG,Deurne,Deurne,Noord-Brabant,VBO,5.802708,51.465745
Fitissingel,9,,,5754CG,Deurne,Deurne,Noord-Brabant,VBO,5.802710,51.465774
Fitissingel,11,a,,5754CG,Deurne,Deurne,Noord-Brabant,VBO,5.802766,51.465763
Fitissingel,11,,,5754CG,Deurne,Deurne,Noord-Brabant,VBO,5.802798,51.465789
Fitissingel,13,,,5754CG,Deurne,Deurne,Noord-Brabant,VBO,5.802867,51.465771
Fitissingel,15,,,5754CG,Deurne,Deurne,Noord-Brabant,VBO,5.803227,51.465806
Fitissingel,17,,,5754CG,Deurne,Deurne,Noord-Brabant,VBO,5.803299,51.465806
Fitissingel,19,,,5754CG,Deurne,Deurne,Noord-Brabant,VBO,5.803371,51.465805
Fitissingel,21,,,5754CG,Deurne,Deurne,Noord-Brabant,VBO,5.803457,51.465814
Fitissingel,23,,,5754CG,Deurne,Deurne,Noord-Brabant,VBO,5.803529,51.465814
Fitissingel,25,,,5754CG,Deurne,Deurne,Noord-Brabant,VBO,5.803615,51.465814
Fitissingel,27,,,5754CG,Deurne,Deurne,Noord-Brabant,VBO,5.803716,51.465813
Fitissingel,29,,,5754CG,Deurne,Deurne,Noord-Brabant,VBO,5.804364,51.465883
Fitissingel,31,,,5754CG,Deurne,Deurne,Noord-Brabant,VBO,5.804465,51.465882
Fitissingel,33,,,5754CG,Deurne,Deurne,Noord-Brabant,VBO,5.804523,51.465882
Fitissingel,35,,,5754CG,Deurne,Deurne,Noord-Brabant,VBO,5.804609,51.465873
Fitissingel,37,,,5754CG,Deurne,Deurne,Noord-Brabant,VBO,5.804724,51.465881
Fitissingel,39,,,5754CG,Deurne,Deurne,Noord-Brabant,VBO,5.804825,51.465872
Fitissingel,41,,,5754CG,Deurne,Deurne,Noord-Brabant,VBO,5.804911,51.465872
Fitissingel,43,,,5754CG,Deurne,Deurne,Noord-Brabant,VBO,5.804983,51.465872
Fitissingel,45,,,5754CG,Deurne,Deurne,Noord-Brabant,VBO,5.805069,51.465871
Fitissingel,47,,,5754CH,Deurne,Deurne,Noord-Brabant,VBO,5.805415,51.465870
Fitissingel,49,,,5754CH,Deurne,Deurne,Noord-Brabant,VBO,5.805487,51.465870
Fitissingel,51,,,5754CH,Deurne,Deurne,Noord-Brabant,VBO,5.805559,51.465870
Fitissingel,53,,,5754CH,Deurne,Deurne,Noord-Brabant,VBO,5.805659,51.465878
Fitissingel,55,,,5754CH,Deurne,Deurne,Noord-Brabant,VBO,5.805760,51.465878
Fitissingel,57,,,5754CH,Deurne,Deurne,Noord-Brabant,VBO,5.805847,51.465895
Fitissingel,59,,,5754CH,Deurne,Deurne,Noord-Brabant,VBO,5.805933,51.465904
Fitissingel,61,,,5754CH,Deurne,Deurne,Noord-Brabant,VBO,5.806005,51.465904
Fitissingel,63,,,5754CH,Deurne,Deurne,Noord-Brabant,VBO,5.806106,51.465904
Fitissingel,65,,,5754CH,Deurne,Deurne,Noord-Brabant,VBO,5.806094,51.466173
Fitissingel,67,,,5754CH,Deurne,Deurne,Noord-Brabant,VBO,5.806123,51.466191
Fitissingel,69,,,5754CH,Deurne,Deurne,Noord-Brabant,VBO,5.806095,51.466263
Fitissingel,71,,,5754CH,Deurne,Deurne,Noord-Brabant,VBO,5.806138,51.466290
Fitissingel,73,,,5754CH,Deurne,Deurne,Noord-Brabant,VBO,5.806110,51.466380
Fitissingel,75,,,5754CH,Deurne,Deurne,Noord-Brabant,VBO,5.806182,51.466416
Fitissingel,77,,,5754CH,Deurne,Deurne,Noord-Brabant,VBO,5.806197,51.466460
Fitissingel,79,,,5754CH,Deurne,Deurne,Noord-Brabant,VBO,5.806226,51.466505
Fitissingel,81,,,5754CH,Deurne,Deurne,Noord-Brabant,VBO,5.806256,51.466559
Fitissingel,83,,,5754CH,Deurne,Deurne,Noord-Brabant,VBO,5.806271,51.466613
Fitissingel,85,,,5754CH,Deurne,Deurne,Noord-Brabant,VBO,5.806314,51.466667
Fitissingel,87,,,5754CJ,Deurne,Deurne,Noord-Brabant,VBO,5.806548,51.467026
Fitissingel,89,,,5754CJ,Deurne,Deurne,Noord-Brabant,VBO,5.806577,51.467070
Fitissingel,91,,,5754CJ,Deurne,Deurne,Noord-Brabant,VBO,5.806606,51.467142
Fitissingel,93,,,5754CJ,Deurne,Deurne,Noord-Brabant,VBO,5.806621,51.467205
Fitissingel,95,,,5754CJ,Deurne,Deurne,Noord-Brabant,VBO,5.806564,51.467268
Fitissingel,97,,,5754CJ,Deurne,Deurne,Noord-Brabant,VBO,5.806522,51.467331
Fitissingel,99,,,5754CJ,Deurne,Deurne,Noord-Brabant,VBO,5.806479,51.467340
Fitissingel,101,,,5754CJ,Deurne,Deurne,Noord-Brabant,VBO,5.806436,51.467367
Fitissingel,103,,,5754CJ,Deurne,Deurne,Noord-Brabant,VBO,5.806364,51.467386
Fitissingel,105,,,5754CJ,Deurne,Deurne,Noord-Brabant,VBO,5.806335,51.467395
Fitissingel,107,,,5754CJ,Deurne,Deurne,Noord-Brabant,VBO,5.806307,51.467404
Fitissingel,109,,,5754CJ,Deurne,Deurne,Noord-Brabant,VBO,5.806292,51.467404
Fitissingel,111,,,5754CJ,Deurne,Deurne,Noord-Brabant,VBO,5.806278,51.467413
Fitissingel,113,,,5754CJ,Deurne,Deurne,Noord-Brabant,VBO,5.806264,51.467413
Fitissingel,115,,,5754CJ,Deurne,Deurne,Noord-Brabant,VBO,5.806249,51.467413
Fitissingel,117,,,5754CJ,Deurne,Deurne,Noord-Brabant,VBO,5.806192,51.467422
Fitissingel,119,,,5754CJ,Deurne,Deurne,Noord-Brabant,VBO,5.805962,51.467468
Fitissingel,121,,,5754CJ,Deurne,Deurne,Noord-Brabant,VBO,5.805919,51.467459
Fitissingel,123,,,5754CJ,Deurne,Deurne,Noord-Brabant,VBO,5.805792,51.467462
Fitissingel,125,,,5754CJ,Deurne,Deurne,Noord-Brabant,VBO,5.805711,51.467490
Fitissingel,127,,,5754CJ,Deurne,Deurne,Noord-Brabant,VBO,5.805633,51.467511
Fitissingel,129,,,5754CJ,Deurne,Deurne,Noord-Brabant,VBO,5.805552,51.467524
Fitissingel,131,,,5754CJ,Deurne,Deurne,Noord-Brabant,VBO,5.805502,51.467551
Fitissingel,133,,,5754CK,Deurne,Deurne,Noord-Brabant,VBO,5.805359,51.467623
Fitissingel,135,,,5754CK,Deurne,Deurne,Noord-Brabant,VBO,5.805301,51.467632
Fitissingel,137,,,5754CK,Deurne,Deurne,Noord-Brabant,VBO,5.805230,51.467659
Fitissingel,139,,,5754CK,Deurne,Deurne,Noord-Brabant,VBO,5.805112,51.467698
Fitissingel,141,,,5754CK,Deurne,Deurne,Noord-Brabant,VBO,5.805036,51.467712
Fitissingel,143,,,5754CK,Deurne,Deurne,Noord-Brabant,VBO,5.804958,51.467744
Fitissingel,145,,,5754CK,Deurne,Deurne,Noord-Brabant,VBO,5.804914,51.467786
Fitissingel,147,,,5754CK,Deurne,Deurne,Noord-Brabant,VBO,5.804655,51.467823
Fitissingel,149,,,5754CK,Deurne,Deurne,Noord-Brabant,VBO,5.804598,51.467788
Fitissingel,151,,,5754CK,Deurne,Deurne,Noord-Brabant,VBO,5.804489,51.467764
Fitissingel,153,,,5754CK,Deurne,Deurne,Noord-Brabant,VBO,5.804397,51.467753
Fitissingel,155,,,5754CK,Deurne,Deurne,Noord-Brabant,VBO,5.804309,51.467735
Fitissingel,169,,,5754CK,Deurne,Deurne,Noord-Brabant,VBO,5.802638,51.467543
Fitissingel,171,,,5754CK,Deurne,Deurne,Noord-Brabant,VBO,5.802495,51.467606
Fitissingel,173,,,5754CK,Deurne,Deurne,Noord-Brabant,VBO,5.802308,51.467661
Fitissingel,175,,,5754CK,Deurne,Deurne,Noord-Brabant,VBO,5.802120,51.467554
Fitissingel,177,,,5754CK,Deurne,Deurne,Noord-Brabant,VBO,5.801889,51.467456
Fitissingel,183,,,5754CK,Deurne,Deurne,Noord-Brabant,VBO,5.801689,51.467627
Fitissingel,185,,,5754CK,Deurne,Deurne,Noord-Brabant,VBO,5.801891,51.467707
Fitissingel,187,,,5754CK,Deurne,Deurne,Noord-Brabant,VBO,5.802093,51.467779
Appeldijk,2,,,5754CL,Deurne,Deurne,Noord-Brabant,VBO,5.805006,51.468433
Appeldijk,4,,,5754CL,Deurne,Deurne,Noord-Brabant,VBO,5.805107,51.468460
Appeldijk,6,,,5754CL,Deurne,Deurne,Noord-Brabant,VBO,5.805194,51.468460
Appeldijk,8,,,5754CL,Deurne,Deurne,Noord-Brabant,VBO,5.805395,51.468423
Appeldijk,10,,,5754CL,Deurne,Deurne,Noord-Brabant,VBO,5.805481,51.468405
Appeldijk,12,,,5754CL,Deurne,Deurne,Noord-Brabant,VBO,5.805553,51.468377
Appeldijk,14,,,5754CL,Deurne,Deurne,Noord-Brabant,VBO,5.805639,51.468359
Appeldijk,16,,,5754CL,Deurne,Deurne,Noord-Brabant,VBO,5.805711,51.468341
Appeldijk,18,,,5754CL,Deurne,Deurne,Noord-Brabant,VBO,5.805854,51.468268
Appeldijk,20,,,5754CL,Deurne,Deurne,Noord-Brabant,VBO,5.805940,51.468250
Appeldijk,22,,,5754CL,Deurne,Deurne,Noord-Brabant,VBO,5.805998,51.468232
Appeldijk,24,,,5754CL,Deurne,Deurne,Noord-Brabant,VBO,5.806084,51.468205
Appeldijk,26,,,5754CL,Deurne,Deurne,Noord-Brabant,VBO,5.806170,51.468186
Appeldijk,28,,,5754CL,Deurne,Deurne,Noord-Brabant,VBO,5.806242,51.468159
Appeldijk,30,,,5754CL,Deurne,Deurne,Noord-Brabant,VBO,5.806528,51.468041
Appeldijk,32,,,5754CL,Deurne,Deurne,Noord-Brabant,VBO,5.806615,51.468023
Appeldijk,34,,,5754CL,Deurne,Deurne,Noord-Brabant,VBO,5.806701,51.468014
Appeldijk,36,,,5754CL,Deurne,Deurne,Noord-Brabant,VBO,5.806773,51.467986
Appeldijk,38,,,5754CL,Deurne,Deurne,Noord-Brabant,VBO,5.806902,51.467950
Appeldijk,40,,,5754CL,Deurne,Deurne,Noord-Brabant,VBO,5.806988,51.467932
Appeldijk,42,,,5754CL,Deurne,Deurne,Noord-Brabant,VBO,5.807060,51.467905
Appeldijk,44,,,5754CL,Deurne,Deurne,Noord-Brabant,VBO,5.807131,51.467895
Rode Wouw,1,,,5754CM,Deurne,Deurne,Noord-Brabant,VBO,5.802805,51.468459
Rode Wouw,2,,,5754CM,Deurne,Deurne,Noord-Brabant,VBO,5.802413,51.468110
Rode Wouw,3,,,5754CM,Deurne,Deurne,Noord-Brabant,VBO,5.803205,51.468491
Rode Wouw,4,,,5754CM,Deurne,Deurne,Noord-Brabant,VBO,5.802788,51.468208
Rode Wouw,5,,,5754CM,Deurne,Deurne,Noord-Brabant,VBO,5.803467,51.468538
Rode Wouw,6,,,5754CM,Deurne,Deurne,Noord-Brabant,VBO,5.803163,51.468260
Rode Wouw,7,,,5754CM,Deurne,Deurne,Noord-Brabant,VBO,5.804216,51.468544
Rode Wouw,8,,,5754CM,Deurne,Deurne,Noord-Brabant,VBO,5.803523,51.468277
Rode Wouw,10,,,5754CM,Deurne,Deurne,Noord-Brabant,VBO,5.803840,51.468330
Rode Wouw,12,,,5754CM,Deurne,Deurne,Noord-Brabant,VBO,5.804228,51.468319
Kokmeeuw,2,,,5754CN,Deurne,Deurne,Noord-Brabant,VBO,5.803187,51.466139
Kokmeeuw,4,,,5754CN,Deurne,Deurne,Noord-Brabant,VBO,5.803187,51.466193
Kokmeeuw,6,,,5754CN,Deurne,Deurne,Noord-Brabant,VBO,5.803216,51.466246
Kokmeeuw,8,,,5754CN,Deurne,Deurne,Noord-Brabant,VBO,5.803593,51.466560
Kokmeeuw,10,,,5754CN,Deurne,Deurne,Noord-Brabant,VBO,5.803608,51.466614
Kokmeeuw,12,,,5754CN,Deurne,Deurne,Noord-Brabant,VBO,5.803637,51.466649
Kokmeeuw,14,,,5754CN,Deurne,Deurne,Noord-Brabant,VBO,5.803667,51.466703
Kokmeeuw,16,,,5754CN,Deurne,Deurne,Noord-Brabant,VBO,5.803696,51.466757
Kokmeeuw,18,,,5754CN,Deurne,Deurne,Noord-Brabant,VBO,5.803739,51.466802
Kokmeeuw,20,,,5754CN,Deurne,Deurne,Noord-Brabant,VBO,5.803769,51.466874
Kokmeeuw,22,,,5754CN,Deurne,Deurne,Noord-Brabant,VBO,5.803568,51.466919
Kokmeeuw,24,,,5754CN,Deurne,Deurne,Noord-Brabant,VBO,5.803467,51.466929
Kokmeeuw,26,,,5754CN,Deurne,Deurne,Noord-Brabant,VBO,5.803395,51.466947
Kokmeeuw,28,,,5754CN,Deurne,Deurne,Noord-Brabant,VBO,5.803324,51.466956
Kokmeeuw,30,,,5754CN,Deurne,Deurne,Noord-Brabant,VBO,5.803237,51.466956
Kokmeeuw,32,,,5754CN,Deurne,Deurne,Noord-Brabant,VBO,5.803151,51.466984
Kokmeeuw,34,,,5754CN,Deurne,Deurne,Noord-Brabant,VBO,5.803022,51.467002
Kokmeeuw,36,,,5754CN,Deurne,Deurne,Noord-Brabant,VBO,5.802950,51.467011
Kokmeeuw,38,,,5754CN,Deurne,Deurne,Noord-Brabant,VBO,5.802864,51.467030
Kokmeeuw,40,,,5754CN,Deurne,Deurne,Noord-Brabant,VBO,5.802806,51.467066
Kokmeeuw,42,,,5754CN,Deurne,Deurne,Noord-Brabant,VBO,5.802820,51.467091
Kokmeeuw,44,,,5754CN,Deurne,Deurne,Noord-Brabant,VBO,5.802793,51.467138
Kokmeeuw,46,,,5754CN,Deurne,Deurne,Noord-Brabant,VBO,5.802822,51.467183
Kokmeeuw,48,,,5754CN,Deurne,Deurne,Noord-Brabant,VBO,5.802851,51.467219
Kokmeeuw,1,,,5754CP,Deurne,Deurne,Noord-Brabant,VBO,5.802825,51.465969
Kokmeeuw,3,,,5754CP,Deurne,Deurne,Noord-Brabant,VBO,5.802811,51.466041
Kokmeeuw,5,,,5754CP,Deurne,Deurne,Noord-Brabant,VBO,5.802841,51.466149
Kokmeeuw,7,,,5754CP,Deurne,Deurne,Noord-Brabant,VBO,5.802856,51.466203
Kokmeeuw,9,,,5754CP,Deurne,Deurne,Noord-Brabant,VBO,5.802871,51.466257
Kokmeeuw,11,,,5754CP,Deurne,Deurne,Noord-Brabant,VBO,5.802901,51.466355
Kokmeeuw,13,,,5754CP,Deurne,Deurne,Noord-Brabant,VBO,5.802944,51.466409
Kokmeeuw,15,,,5754CP,Deurne,Deurne,Noord-Brabant,VBO,5.802930,51.466463
Kokmeeuw,17,,,5754CP,Deurne,Deurne,Noord-Brabant,VBO,5.802960,51.466508
Kokmeeuw,19,,,5754CP,Deurne,Deurne,Noord-Brabant,VBO,5.802974,51.466553
Kokmeeuw,21,,,5754CP,Deurne,Deurne,Noord-Brabant,VBO,5.803047,51.466661
Kokmeeuw,23,,,5754CP,Deurne,Deurne,Noord-Brabant,VBO,5.803063,51.466750
Kokmeeuw,25,,,5754CP,Deurne,Deurne,Noord-Brabant,VBO,5.802948,51.466796
Kokmeeuw,27,,,5754CP,Deurne,Deurne,Noord-Brabant,VBO,5.802905,51.466814
Kokmeeuw,29,,,5754CP,Deurne,Deurne,Noord-Brabant,VBO,5.802862,51.466823
Kokmeeuw,31,,,5754CP,Deurne,Deurne,Noord-Brabant,VBO,5.802819,51.466823
Kokmeeuw,33,,,5754CP,Deurne,Deurne,Noord-Brabant,VBO,5.802804,51.466832
Kokmeeuw,35,,,5754CP,Deurne,Deurne,Noord-Brabant,VBO,5.802761,51.466832
Kokmeeuw,37,,,5754CP,Deurne,Deurne,Noord-Brabant,VBO,5.802718,51.466850
Kokmeeuw,39,,,5754CP,Deurne,Deurne,Noord-Brabant,VBO,5.802675,51.466860
Kokmeeuw,41,,,5754CP,Deurne,Deurne,Noord-Brabant,VBO,5.802632,51.466869
Kokmeeuw,43,,,5754CP,Deurne,Deurne,Noord-Brabant,VBO,5.802603,51.466887
Kokmeeuw,45,,,5754CP,Deurne,Deurne,Noord-Brabant,VBO,5.802575,51.466914
Kokmeeuw,47,,,5754CP,Deurne,Deurne,Noord-Brabant,VBO,5.802532,51.466995
Kokmeeuw,49,,,5754CP,Deurne,Deurne,Noord-Brabant,VBO,5.802518,51.467013
Kokmeeuw,51,,,5754CP,Deurne,Deurne,Noord-Brabant,VBO,5.802504,51.467049
Kokmeeuw,53,,,5754CP,Deurne,Deurne,Noord-Brabant,VBO,5.802453,51.467047
Kokmeeuw,55,,,5754CP,Deurne,Deurne,Noord-Brabant,VBO,5.802493,51.467089
Kokmeeuw,57,,,5754CP,Deurne,Deurne,Noord-Brabant,VBO,5.802518,51.467141
Kokmeeuw,59,,,5754CP,Deurne,Deurne,Noord-Brabant,VBO,5.802563,51.467193
Kokmeeuw,61,,,5754CP,Deurne,Deurne,Noord-Brabant,VBO,5.802563,51.467238
Kokmeeuw,63,,,5754CP,Deurne,Deurne,Noord-Brabant,VBO,5.802593,51.467309
Kokmeeuw,65,,,5754CP,Deurne,Deurne,Noord-Brabant,VBO,5.802622,51.467363
Wintertaling,1,,,5754CR,Deurne,Deurne,Noord-Brabant,VBO,5.803663,51.466308
Wintertaling,2,,,5754CR,Deurne,Deurne,Noord-Brabant,VBO,5.804082,51.466531
Wintertaling,3,,,5754CR,Deurne,Deurne,Noord-Brabant,VBO,5.803620,51.466317
Wintertaling,4,,,5754CR,Deurne,Deurne,Noord-Brabant,VBO,5.804053,51.466513
Wintertaling,5,,,5754CR,Deurne,Deurne,Noord-Brabant,VBO,5.803577,51.466317
Wintertaling,6,,,5754CR,Deurne,Deurne,Noord-Brabant,VBO,5.804024,51.466495
Wintertaling,7,,,5754CR,Deurne,Deurne,Noord-Brabant,VBO,5.803519,51.466326
Wintertaling,8,,,5754CR,Deurne,Deurne,Noord-Brabant,VBO,5.804010,51.466495
Wintertaling,9,,,5754CR,Deurne,Deurne,Noord-Brabant,VBO,5.803476,51.466326
Wintertaling,10,,,5754CR,Deurne,Deurne,Noord-Brabant,VBO,5.803909,51.466487
Wintertaling,11,,,5754CR,Deurne,Deurne,Noord-Brabant,VBO,5.803433,51.466327
Wintertaling,13,,,5754CR,Deurne,Deurne,Noord-Brabant,VBO,5.803390,51.466336
Wintertaling,15,,,5754CR,Deurne,Deurne,Noord-Brabant,VBO,5.803361,51.466336
Kolgans,1,,,5754CS,Deurne,Deurne,Noord-Brabant,VBO,5.803990,51.465848
Kolgans,2,,,5754CS,Deurne,Deurne,Noord-Brabant,VBO,5.804396,51.466161
Kolgans,3,,,5754CS,Deurne,Deurne,Noord-Brabant,VBO,5.803990,51.465902
Kolgans,4,,,5754CS,Deurne,Deurne,Noord-Brabant,VBO,5.804382,51.466233
Kolgans,5,,,5754CS,Deurne,Deurne,Noord-Brabant,VBO,5.803976,51.465956
Kolgans,6,,,5754CS,Deurne,Deurne,Noord-Brabant,VBO,5.804382,51.466269
Kolgans,7,,,5754CS,Deurne,Deurne,Noord-Brabant,VBO,5.804006,51.466001
Kolgans,8,,,5754CS,Deurne,Deurne,Noord-Brabant,VBO,5.804383,51.466332
Kolgans,9,,,5754CS,Deurne,Deurne,Noord-Brabant,VBO,5.804006,51.466064
Kolgans,10,,,5754CS,Deurne,Deurne,Noord-Brabant,VBO,5.804470,51.466431
Kolgans,11,,,5754CS,Deurne,Deurne,Noord-Brabant,VBO,5.804007,51.466118
Kolgans,12,,,5754CS,Deurne,Deurne,Noord-Brabant,VBO,5.804456,51.466476
Kolgans,13,,,5754CS,Deurne,Deurne,Noord-Brabant,VBO,5.804036,51.466136
Kolgans,14,,,5754CS,Deurne,Deurne,Noord-Brabant,VBO,5.804457,51.466530
Kolgans,15,,,5754CS,Deurne,Deurne,Noord-Brabant,VBO,5.804021,51.466163
Kolgans,16,,,5754CS,Deurne,Deurne,Noord-Brabant,VBO,5.804471,51.466593
Kolgans,17,,,5754CS,Deurne,Deurne,Noord-Brabant,VBO,5.804022,51.466190
Kolgans,18,,,5754CS,Deurne,Deurne,Noord-Brabant,VBO,5.804501,51.466646
Kolgans,19,,,5754CS,Deurne,Deurne,Noord-Brabant,VBO,5.804007,51.466199
Kolgans,21,,,5754CS,Deurne,Deurne,Noord-Brabant,VBO,5.804022,51.466226
Kolgans,23,,,5754CS,Deurne,Deurne,Noord-Brabant,VBO,5.804037,51.466252
Kolgans,25,,,5754CS,Deurne,Deurne,Noord-Brabant,VBO,5.803994,51.466289
Kolgans,27,,,5754CS,Deurne,Deurne,Noord-Brabant,VBO,5.804112,51.466594
Kolgans,29,,,5754CS,Deurne,Deurne,Noord-Brabant,VBO,5.804112,51.466648
Kolgans,31,,,5754CS,Deurne,Deurne,Noord-Brabant,VBO,5.804142,51.466729
Kolgans,33,,,5754CS,Deurne,Deurne,Noord-Brabant,VBO,5.804171,51.466791
Kolgans,35,,,5754CS,Deurne,Deurne,Noord-Brabant,VBO,5.804200,51.466845
Kolgans,37,,,5754CS,Deurne,Deurne,Noord-Brabant,VBO,5.804215,51.466881
Kolgans,39,,,5754CS,Deurne,Deurne,Noord-Brabant,VBO,5.804231,51.466998
Kolgans,41,,,5754CS,Deurne,Deurne,Noord-Brabant,VBO,5.804260,51.467034
Kolgans,43,,,5754CS,Deurne,Deurne,Noord-Brabant,VBO,5.804289,51.467070
Kolgans,45,,,5754CS,Deurne,Deurne,Noord-Brabant,VBO,5.804318,51.467105
Kolgans,47,,,5754CS,Deurne,Deurne,Noord-Brabant,VBO,5.804369,51.467183
Kolgans,49,,,5754CS,Deurne,Deurne,Noord-Brabant,VBO,5.804434,51.467213
Rietgors,2,,,5754CT,Deurne,Deurne,Noord-Brabant,VBO,5.802997,51.467479
Rietgors,4,,,5754CT,Deurne,Deurne,Noord-Brabant,VBO,5.803055,51.467460
Rietgors,6,,,5754CT,Deurne,Deurne,Noord-Brabant,VBO,5.803155,51.467442
Rietgors,8,,,5754CT,Deurne,Deurne,Noord-Brabant,VBO,5.803227,51.467424
Rietgors,10,,,5754CT,Deurne,Deurne,Noord-Brabant,VBO,5.803299,51.467415
Rietgors,12,,,5754CT,Deurne,Deurne,Noord-Brabant,VBO,5.803385,51.467396
Rietgors,14,,,5754CT,Deurne,Deurne,Noord-Brabant,VBO,5.803515,51.467396
Rietgors,16,,,5754CT,Deurne,Deurne,Noord-Brabant,VBO,5.803572,51.467387
Rietgors,18,,,5754CT,Deurne,Deurne,Noord-Brabant,VBO,5.803644,51.467368
Rietgors,20,,,5754CT,Deurne,Deurne,Noord-Brabant,VBO,5.803744,51.467350
Rietgors,22,,,5754CT,Deurne,Deurne,Noord-Brabant,VBO,5.803816,51.467341
Rietgors,24,,,5754CT,Deurne,Deurne,Noord-Brabant,VBO,5.803888,51.467323
Rietgors,26,,,5754CT,Deurne,Deurne,Noord-Brabant,VBO,5.803989,51.467304
Rietgors,28,,,5754CT,Deurne,Deurne,Noord-Brabant,VBO,5.804604,51.466925
Rietgors,30,,,5754CT,Deurne,Deurne,Noord-Brabant,VBO,5.804633,51.466916
Rietgors,32,,,5754CT,Deurne,Deurne,Noord-Brabant,VBO,5.804729,51.466870
Rietgors,34,,,5754CT,Deurne,Deurne,Noord-Brabant,VBO,5.804801,51.466855
Rietgors,36,,,5754CT,Deurne,Deurne,Noord-Brabant,VBO,5.804881,51.466832
Rietgors,38,,,5754CT,Deurne,Deurne,Noord-Brabant,VBO,5.804949,51.466833
Rietgors,40,,,5754CT,Deurne,Deurne,Noord-Brabant,VBO,5.805078,51.466815
Rietgors,42,,,5754CT,Deurne,Deurne,Noord-Brabant,VBO,5.805150,51.466797
Rietgors,44,,,5754CT,Deurne,Deurne,Noord-Brabant,VBO,5.805236,51.466779
Rietgors,46,,,5754CT,Deurne,Deurne,Noord-Brabant,VBO,5.805308,51.466751
Rietgors,1,,,5754CV,Deurne,Deurne,Noord-Brabant,VBO,5.804050,51.467736
Rietgors,3,,,5754CV,Deurne,Deurne,Noord-Brabant,VBO,5.804036,51.467718
Rietgors,5,,,5754CV,Deurne,Deurne,Noord-Brabant,VBO,5.804050,51.467691
Rietgors,7,,,5754CV,Deurne,Deurne,Noord-Brabant,VBO,5.804064,51.467664
Rietgors,9,,,5754CV,Deurne,Deurne,Noord-Brabant,VBO,5.804021,51.467646
Rietgors,11,,,5754CV,Deurne,Deurne,Noord-Brabant,VBO,5.804039,51.467620
Rietgors,13,,,5754CV,Deurne,Deurne,Noord-Brabant,VBO,5.804049,51.467610
Rietgors,15,,,5754CV,Deurne,Deurne,Noord-Brabant,VBO,5.804049,51.467592
Rietgors,17,,,5754CV,Deurne,Deurne,Noord-Brabant,VBO,5.804063,51.467583
Rietgors,19,,,5754CV,Deurne,Deurne,Noord-Brabant,VBO,5.804092,51.467583
Rietgors,21,,,5754CV,Deurne,Deurne,Noord-Brabant,VBO,5.804106,51.467556
Rietgors,23,a,,5754CV,Deurne,Deurne,Noord-Brabant,VBO,5.804250,51.467528
Rietgors,23,,,5754CV,Deurne,Deurne,Noord-Brabant,VBO,5.804135,51.467511
Rietgors,25,,,5754CV,Deurne,Deurne,Noord-Brabant,VBO,5.804536,51.467401
Rietgors,27,,,5754CV,Deurne,Deurne,Noord-Brabant,VBO,5.804651,51.467393
Rietgors,29,,,5754CV,Deurne,Deurne,Noord-Brabant,VBO,5.804738,51.467396
Rietgors,31,,,5754CV,Deurne,Deurne,Noord-Brabant,VBO,5.804823,51.467373
Rietgors,33,,,5754CV,Deurne,Deurne,Noord-Brabant,VBO,5.804903,51.467358
Rietgors,35,,,5754CV,Deurne,Deurne,Noord-Brabant,VBO,5.804975,51.467326
Rietgors,37,,,5754CV,Deurne,Deurne,Noord-Brabant,VBO,5.805050,51.467306
Rietgors,39,,,5754CV,Deurne,Deurne,Noord-Brabant,VBO,5.805119,51.467269
Rietgors,41,,,5754CV,Deurne,Deurne,Noord-Brabant,VBO,5.805201,51.467240
Rietgors,43,,,5754CV,Deurne,Deurne,Noord-Brabant,VBO,5.805254,51.467201
Rietgors,45,,,5754CV,Deurne,Deurne,Noord-Brabant,VBO,5.805296,51.467048
Rietgors,47,,,5754CV,Deurne,Deurne,Noord-Brabant,VBO,5.805368,51.467039
Rietgors,49,,,5754CV,Deurne,Deurne,Noord-Brabant,VBO,5.805425,51.467012
Rietgors,51,,,5754CV,Deurne,Deurne,Noord-Brabant,VBO,5.805526,51.466984
Kraanvogel,1,,,5754CW,Deurne,Deurne,Noord-Brabant,VBO,5.805029,51.466168
Kraanvogel,2,,,5754CW,Deurne,Deurne,Noord-Brabant,VBO,5.805417,51.466176
Kraanvogel,3,,,5754CW,Deurne,Deurne,Noord-Brabant,VBO,5.805029,51.466213
Kraanvogel,4,,,5754CW,Deurne,Deurne,Noord-Brabant,VBO,5.805404,51.466230
Kraanvogel,5,,,5754CW,Deurne,Deurne,Noord-Brabant,VBO,5.805015,51.466267
Kraanvogel,6,,,5754CW,Deurne,Deurne,Noord-Brabant,VBO,5.805418,51.466275
Kraanvogel,7,,,5754CW,Deurne,Deurne,Noord-Brabant,VBO,5.805016,51.466312
Kraanvogel,8,,,5754CW,Deurne,Deurne,Noord-Brabant,VBO,5.805491,51.466373
Kraanvogel,9,,,5754CW,Deurne,Deurne,Noord-Brabant,VBO,5.805103,51.466437
Kraanvogel,10,,,5754CW,Deurne,Deurne,Noord-Brabant,VBO,5.805492,51.466427
Kraanvogel,11,,,5754CW,Deurne,Deurne,Noord-Brabant,VBO,5.805118,51.466482
Kraanvogel,12,,,5754CW,Deurne,Deurne,Noord-Brabant,VBO,5.805492,51.466481
Kraanvogel,13,,,5754CW,Deurne,Deurne,Noord-Brabant,VBO,5.805133,51.466536
Kraanvogel,14,,,5754CW,Deurne,Deurne,Noord-Brabant,VBO,5.805493,51.466544
Kraanvogel,15,,,5754CW,Deurne,Deurne,Noord-Brabant,VBO,5.805715,51.467181
Kraanvogel,16,,,5754CW,Deurne,Deurne,Noord-Brabant,VBO,5.805522,51.466589
Kraanvogel,17,,,5754CW,Deurne,Deurne,Noord-Brabant,VBO,5.805758,51.467226
Kraanvogel,18,,,5754CW,Deurne,Deurne,Noord-Brabant,VBO,5.805566,51.466669
Kraanvogel,19,,,5754CW,Deurne,Deurne,Noord-Brabant,VBO,5.805787,51.467280
Kraanvogel,20,,,5754CW,Deurne,Deurne,Noord-Brabant,VBO,5.805581,51.466723
Kraanvogel,21,,,5754CW,Deurne,Deurne,Noord-Brabant,VBO,5.806230,51.466892
Kraanvogel,22,,,5754CW,Deurne,Deurne,Noord-Brabant,VBO,5.805624,51.466768
Kraanvogel,23,,,5754CW,Deurne,Deurne,Noord-Brabant,VBO,5.806287,51.466874
Kraanvogel,24,,,5754CW,Deurne,Deurne,Noord-Brabant,VBO,5.805668,51.466831
Kraanvogel,25,,,5754CW,Deurne,Deurne,Noord-Brabant,VBO,5.806374,51.466855
Kraanvogel,26,,,5754CW,Deurne,Deurne,Noord-Brabant,VBO,5.805697,51.466867
Kraanvogel,27,,,5754CW,Deurne,Deurne,Noord-Brabant,VBO,5.806445,51.466837
Blauwborst,2,,,5754CX,Deurne,Deurne,Noord-Brabant,VBO,5.805021,51.465341
Blauwborst,4,,,5754CX,Deurne,Deurne,Noord-Brabant,VBO,5.805035,51.465278
Blauwborst,6,,,5754CX,Deurne,Deurne,Noord-Brabant,VBO,5.805034,51.465170
Blauwborst,8,,,5754CX,Deurne,Deurne,Noord-Brabant,VBO,5.805048,51.465107
Blauwborst,10,,,5754CX,Deurne,Deurne,Noord-Brabant,VBO,5.805033,51.464999
Blauwborst,12,,,5754CX,Deurne,Deurne,Noord-Brabant,VBO,5.805061,51.464945
Blauwborst,14,,,5754CX,Deurne,Deurne,Noord-Brabant,VBO,5.805320,51.464989
Blauwborst,16,,,5754CX,Deurne,Deurne,Noord-Brabant,VBO,5.805407,51.464989
Blauwborst,18,,,5754CX,Deurne,Deurne,Noord-Brabant,VBO,5.805493,51.464998
Blauwborst,20,,,5754CX,Deurne,Deurne,Noord-Brabant,VBO,5.805594,51.464988
Blauwborst,22,,,5754CX,Deurne,Deurne,Noord-Brabant,VBO,5.805881,51.464951
Blauwborst,24,,,5754CX,Deurne,Deurne,Noord-Brabant,VBO,5.805895,51.464915
Blauwborst,26,,,5754CX,Deurne,Deurne,Noord-Brabant,VBO,5.805895,51.464871
Blauwborst,1,,,5754CZ,Deurne,Deurne,Noord-Brabant,VBO,5.805468,51.465420
Blauwborst,3,,,5754CZ,Deurne,Deurne,Noord-Brabant,VBO,5.805468,51.465375
Blauwborst,5,,,5754CZ,Deurne,Deurne,Noord-Brabant,VBO,5.805481,51.465259
Blauwborst,7,,,5754CZ,Deurne,Deurne,Noord-Brabant,VBO,5.805481,51.465205
Blauwborst,9,,,5754CZ,Deurne,Deurne,Noord-Brabant,VBO,5.805869,51.465194
Blauwborst,11,,,5754CZ,Deurne,Deurne,Noord-Brabant,VBO,5.805941,51.465194
Blauwborst,13,,,5754CZ,Deurne,Deurne,Noord-Brabant,VBO,5.806113,51.465166
Blauwborst,15,,,5754CZ,Deurne,Deurne,Noord-Brabant,VBO,5.806156,51.465130
Blauwborst,17,,,5754CZ,Deurne,Deurne,Noord-Brabant,VBO,5.806285,51.465067
Blauwborst,19,,,5754CZ,Deurne,Deurne,Noord-Brabant,VBO,5.806342,51.465031
Blauwborst,21,,,5754CZ,Deurne,Deurne,Noord-Brabant,VBO,5.806399,51.464923
Blauwborst,23,,,5754CZ,Deurne,Deurne,Noord-Brabant,VBO,5.806399,51.464878
Korhoender,2,,,5754DA,Deurne,Deurne,Noord-Brabant,VBO,5.807932,51.467344
Korhoender,4,,,5754DA,Deurne,Deurne,Noord-Brabant,VBO,5.807917,51.467290
Korhoender,6,,,5754DA,Deurne,Deurne,Noord-Brabant,VBO,5.807874,51.467254
Korhoender,8,,,5754DA,Deurne,Deurne,Noord-Brabant,VBO,5.807816,51.467201
Korhoender,10,,,5754DA,Deurne,Deurne,Noord-Brabant,VBO,5.807787,51.467156
Korhoender,12,,,5754DA,Deurne,Deurne,Noord-Brabant,VBO,5.807728,51.467039
Korhoender,14,,,5754DA,Deurne,Deurne,Noord-Brabant,VBO,5.807699,51.466994
Korhoender,16,,,5754DA,Deurne,Deurne,Noord-Brabant,VBO,5.807670,51.466941
Korhoender,18,,,5754DA,Deurne,Deurne,Noord-Brabant,VBO,5.807626,51.466896
Korhoender,20,,,5754DA,Deurne,Deurne,Noord-Brabant,VBO,5.807582,51.466851
Korhoender,22,,,5754DA,Deurne,Deurne,Noord-Brabant,VBO,5.807509,51.466734
Korhoender,24,,,5754DA,Deurne,Deurne,Noord-Brabant,VBO,5.807480,51.466681
Korhoender,26,,,5754DA,Deurne,Deurne,Noord-Brabant,VBO,5.807437,51.466645
Korhoender,28,a,,5754DA,Deurne,Deurne,Noord-Brabant,VBO,5.806935,51.466579
Korhoender,28,,,5754DA,Deurne,Deurne,Noord-Brabant,VBO,5.807393,51.466600
Korhoender,30,,,5754DA,Deurne,Deurne,Noord-Brabant,VBO,5.806989,51.466503
Korhoender,32,,,5754DA,Deurne,Deurne,Noord-Brabant,VBO,5.807104,51.466484
Korhoender,34,,,5754DA,Deurne,Deurne,Noord-Brabant,VBO,5.807204,51.466448
Korhoender,36,,,5754DA,Deurne,Deurne,Noord-Brabant,VBO,5.807146,51.466313
Korhoender,38,,,5754DA,Deurne,Deurne,Noord-Brabant,VBO,5.807145,51.466232
Korhoender,40,,,5754DA,Deurne,Deurne,Noord-Brabant,VBO,5.807086,51.466134
Korhoender,42,,,5754DA,Deurne,Deurne,Noord-Brabant,VBO,5.807129,51.466053
Korhoender,44,,,5754DA,Deurne,Deurne,Noord-Brabant,VBO,5.807186,51.465972
Korhoender,46,,,5754DA,Deurne,Deurne,Noord-Brabant,VBO,5.807257,51.465899
Korhoender,48,,,5754DA,Deurne,Deurne,Noord-Brabant,VBO,5.807400,51.465854
Korhoender,50,,,5754DA,Deurne,Deurne,Noord-Brabant,VBO,5.807472,51.465800
Slotgracht,2,,,5754DC,Deurne,Deurne,Noord-Brabant,VBO,5.810316,51.469825
Slotgracht,4,,,5754DC,Deurne,Deurne,Noord-Brabant,VBO,5.810315,51.469718
Slotgracht,6,,,5754DC,Deurne,Deurne,Noord-Brabant,VBO,5.810314,51.469628
Slotgracht,8,,,5754DC,Deurne,Deurne,Noord-Brabant,VBO,5.809968,51.469611
Slotgracht,10,,,5754DC,Deurne,Deurne,Noord-Brabant,VBO,5.809709,51.469612
Slotgracht,12,,,5754DC,Deurne,Deurne,Noord-Brabant,VBO,5.809464,51.469613
Slotgracht,14,,,5754DC,Deurne,Deurne,Noord-Brabant,VBO,5.809220,51.469659
Slotgracht,16,,,5754DC,Deurne,Deurne,Noord-Brabant,VBO,5.808976,51.469659
Slotgracht,18,,,5754DC,Deurne,Deurne,Noord-Brabant,VBO,5.808717,51.469660
Slotgracht,20,,,5754DC,Deurne,Deurne,Noord-Brabant,VBO,5.808315,51.469770
Slotgracht,22,,,5754DC,Deurne,Deurne,Noord-Brabant,VBO,5.808316,51.469914
Korhoender,1,,,5754DD,Deurne,Deurne,Noord-Brabant,VBO,5.807503,51.467561
Korhoender,3,,,5754DD,Deurne,Deurne,Noord-Brabant,VBO,5.807532,51.467606
Korhoender,5,,,5754DD,Deurne,Deurne,Noord-Brabant,VBO,5.807590,51.467651
Korhoender,7,,,5754DD,Deurne,Deurne,Noord-Brabant,VBO,5.807619,51.467696
Korhoender,9,,,5754DD,Deurne,Deurne,Noord-Brabant,VBO,5.807634,51.467741
Korhoender,11,,,5754DD,Deurne,Deurne,Noord-Brabant,VBO,5.807678,51.467803
Korhoender,13,,,5754DD,Deurne,Deurne,Noord-Brabant,VBO,5.808233,51.467190
Korhoender,15,,,5754DD,Deurne,Deurne,Noord-Brabant,VBO,5.808175,51.467145
Korhoender,17,,,5754DD,Deurne,Deurne,Noord-Brabant,VBO,5.808131,51.467092
Korhoender,19,,,5754DD,Deurne,Deurne,Noord-Brabant,VBO,5.808116,51.466984
Korhoender,21,,,5754DD,Deurne,Deurne,Noord-Brabant,VBO,5.808073,51.466948
Korhoender,23,,,5754DD,Deurne,Deurne,Noord-Brabant,VBO,5.808043,51.466903
Korhoender,25,,,5754DD,Deurne,Deurne,Noord-Brabant,VBO,5.807971,51.466823
Korhoender,27,,,5754DD,Deurne,Deurne,Noord-Brabant,VBO,5.807927,51.466769
Korhoender,29,,,5754DD,Deurne,Deurne,Noord-Brabant,VBO,5.807883,51.466724
Korhoender,31,,,5754DD,Deurne,Deurne,Noord-Brabant,VBO,5.807869,51.466679
Korhoender,33,,,5754DD,Deurne,Deurne,Noord-Brabant,VBO,5.807738,51.466509
Korhoender,35,,,5754DD,Deurne,Deurne,Noord-Brabant,VBO,5.807809,51.466473
Korhoender,37,,,5754DD,Deurne,Deurne,Noord-Brabant,VBO,5.807896,51.466481
Korhoender,39,,,5754DD,Deurne,Deurne,Noord-Brabant,VBO,5.807967,51.466436
Korhoender,41,,,5754DD,Deurne,Deurne,Noord-Brabant,VBO,5.808154,51.466382
Korhoender,43,,,5754DD,Deurne,Deurne,Noord-Brabant,VBO,5.808240,51.466354
Korhoender,45,,,5754DD,Deurne,Deurne,Noord-Brabant,VBO,5.808312,51.466336
Korhoender,47,,,5754DD,Deurne,Deurne,Noord-Brabant,VBO,5.808383,51.466318
Korhoender,49,,,5754DE,Deurne,Deurne,Noord-Brabant,VBO,5.808728,51.466191
Korhoender,51,,,5754DE,Deurne,Deurne,Noord-Brabant,VBO,5.808771,51.466235
Korhoender,53,,,5754DE,Deurne,Deurne,Noord-Brabant,VBO,5.808801,51.466298
Korhoender,55,,,5754DE,Deurne,Deurne,Noord-Brabant,VBO,5.808830,51.466352
Korhoender,57,,,5754DE,Deurne,Deurne,Noord-Brabant,VBO,5.808839,51.466382
Korhoender,59,,,5754DE,Deurne,Deurne,Noord-Brabant,VBO,5.808744,51.466415
Korhoender,61,,,5754DE,Deurne,Deurne,Noord-Brabant,VBO,5.808643,51.466434
Korhoender,63,,,5754DE,Deurne,Deurne,Noord-Brabant,VBO,5.808572,51.466443
Korhoender,65,,,5754DE,Deurne,Deurne,Noord-Brabant,VBO,5.808529,51.466542
Korhoender,67,,,5754DE,Deurne,Deurne,Noord-Brabant,VBO,5.808544,51.466578
Korhoender,69,,,5754DE,Deurne,Deurne,Noord-Brabant,VBO,5.808573,51.466623
Korhoender,71,,,5754DE,Deurne,Deurne,Noord-Brabant,VBO,5.808617,51.466685
Korhoender,73,,,5754DE,Deurne,Deurne,Noord-Brabant,VBO,5.808646,51.466730
Korhoender,75,,,5754DE,Deurne,Deurne,Noord-Brabant,VBO,5.808690,51.466766
Korhoender,77,,,5754DE,Deurne,Deurne,Noord-Brabant,VBO,5.808733,51.466820
Korhoender,79,,,5754DE,Deurne,Deurne,Noord-Brabant,VBO,5.808763,51.466856
Korhoender,81,,,5754DE,Deurne,Deurne,Noord-Brabant,VBO,5.808776,51.466923
Korhoender,83,,,5754DE,Deurne,Deurne,Noord-Brabant,VBO,5.808821,51.466945
Korhoender,85,,,5754DE,Deurne,Deurne,Noord-Brabant,VBO,5.808850,51.466999
Korhoender,87,,,5754DE,Deurne,Deurne,Noord-Brabant,VBO,5.808825,51.467049
Korhoender,89,,,5754DE,Deurne,Deurne,Noord-Brabant,VBO,5.808822,51.467089
Korhoender,91,,,5754DE,Deurne,Deurne,Noord-Brabant,VBO,5.808765,51.467134
Korhoender,93,,,5754DE,Deurne,Deurne,Noord-Brabant,VBO,5.808708,51.467139
Korhoender,95,,,5754DE,Deurne,Deurne,Noord-Brabant,VBO,5.808628,51.467156
Korhoender,97,,,5754DE,Deurne,Deurne,Noord-Brabant,VBO,5.808550,51.467173
Korhoender,99,,,5754DE,Deurne,Deurne,Noord-Brabant,VBO,5.808467,51.467188
Korhoender,101,,,5754DE,Deurne,Deurne,Noord-Brabant,VBO,5.808435,51.467225
Korhoender,103,,,5754DE,Deurne,Deurne,Noord-Brabant,VBO,5.808345,51.467217
Korhoender,105,,,5754DE,Deurne,Deurne,Noord-Brabant,VBO,5.808291,51.467208
Patrijs,2,,,5754DH,Deurne,Deurne,Noord-Brabant,VBO,5.806319,51.465579
Patrijs,4,,,5754DH,Deurne,Deurne,Noord-Brabant,VBO,5.806376,51.465552
Patrijs,6,,,5754DH,Deurne,Deurne,Noord-Brabant,VBO,5.806505,51.465480
Patrijs,8,,,5754DH,Deurne,Deurne,Noord-Brabant,VBO,5.806576,51.465443
Patrijs,10,,,5754DH,Deurne,Deurne,Noord-Brabant,VBO,5.806691,51.465380
Patrijs,12,,,5754DH,Deurne,Deurne,Noord-Brabant,VBO,5.806763,51.465344
Patrijs,14,,,5754DH,Deurne,Deurne,Noord-Brabant,VBO,5.806906,51.465280
Patrijs,16,,,5754DH,Deurne,Deurne,Noord-Brabant,VBO,5.806978,51.465244
Patrijs,18,,,5754DH,Deurne,Deurne,Noord-Brabant,VBO,5.807106,51.465145
Patrijs,20,,,5754DH,Deurne,Deurne,Noord-Brabant,VBO,5.807149,51.465091
Patrijs,22,,,5754DH,Deurne,Deurne,Noord-Brabant,VBO,5.807205,51.464956
Patrijs,24,,,5754DH,Deurne,Deurne,Noord-Brabant,VBO,5.807205,51.464911
Patrijs,1,,,5754DJ,Deurne,Deurne,Noord-Brabant,VBO,5.806594,51.465776
Patrijs,3,,,5754DJ,Deurne,Deurne,Noord-Brabant,VBO,5.806651,51.465713
Patrijs,5,,,5754DJ,Deurne,Deurne,Noord-Brabant,VBO,5.806809,51.465667
Patrijs,7,,,5754DJ,Deurne,Deurne,Noord-Brabant,VBO,5.806852,51.465631
Patrijs,9,,,5754DJ,Deurne,Deurne,Noord-Brabant,VBO,5.806980,51.465550
Patrijs,11,,,5754DJ,Deurne,Deurne,Noord-Brabant,VBO,5.807038,51.465532
Patrijs,13,,,5754DJ,Deurne,Deurne,Noord-Brabant,VBO,5.807138,51.465486
Patrijs,15,,,5754DJ,Deurne,Deurne,Noord-Brabant,VBO,5.807439,51.465377
Patrijs,17,,,5754DJ,Deurne,Deurne,Noord-Brabant,VBO,5.807454,51.465440
Patrijs,19,,,5754DJ,Deurne,Deurne,Noord-Brabant,VBO,5.807527,51.465512
Patrijs,21,,,5754DJ,Deurne,Deurne,Noord-Brabant,VBO,5.807571,51.465566
Patrijs,23,,,5754DJ,Deurne,Deurne,Noord-Brabant,VBO,5.807658,51.465646
Patrijs,25,,,5754DJ,Deurne,Deurne,Noord-Brabant,VBO,5.807716,51.465700
Patrijs,33,,,5754DJ,Deurne,Deurne,Noord-Brabant,VBO,5.807842,51.465313
Avondrood,1,,,5754DK,Deurne,Deurne,Noord-Brabant,VBO,5.810131,51.467022
Avondrood,2,,,5754DK,Deurne,Deurne,Noord-Brabant,VBO,5.810464,51.467173
Avondrood,3,,,5754DK,Deurne,Deurne,Noord-Brabant,VBO,5.810073,51.466941
Avondrood,4,,,5754DK,Deurne,Deurne,Noord-Brabant,VBO,5.810363,51.467192
Avondrood,5,,,5754DK,Deurne,Deurne,Noord-Brabant,VBO,5.810015,51.466860
Avondrood,6,,,5754DK,Deurne,Deurne,Noord-Brabant,VBO,5.810205,51.467237
Avondrood,7,,,5754DK,Deurne,Deurne,Noord-Brabant,VBO,5.809942,51.466780
Avondrood,8,,,5754DK,Deurne,Deurne,Noord-Brabant,VBO,5.810133,51.467255
Avondrood,9,,,5754DK,Deurne,Deurne,Noord-Brabant,VBO,5.809884,51.466699
Avondrood,10,,,5754DK,Deurne,Deurne,Noord-Brabant,VBO,5.809947,51.467283
Avondrood,12,,,5754DK,Deurne,Deurne,Noord-Brabant,VBO,5.809875,51.467310
Avondrood,14,,,5754DK,Deurne,Deurne,Noord-Brabant,VBO,5.809617,51.467437
Avondrood,16,,,5754DK,Deurne,Deurne,Noord-Brabant,VBO,5.809632,51.467500
Avondrood,18,,,5754DK,Deurne,Deurne,Noord-Brabant,VBO,5.809633,51.467590
Avondrood,20,,,5754DK,Deurne,Deurne,Noord-Brabant,VBO,5.809619,51.467635
Avondrood,22,,,5754DK,Deurne,Deurne,Noord-Brabant,VBO,5.809950,51.467624
Avondrood,24,,,5754DK,Deurne,Deurne,Noord-Brabant,VBO,5.810065,51.467606
Avondrood,26,,,5754DK,Deurne,Deurne,Noord-Brabant,VBO,5.810180,51.467606
Avondrood,28,,,5754DK,Deurne,Deurne,Noord-Brabant,VBO,5.810295,51.467578
Avondrood,30,,,5754DK,Deurne,Deurne,Noord-Brabant,VBO,5.810424,51.467560
Avondrood,32,,,5754DK,Deurne,Deurne,Noord-Brabant,VBO,5.810553,51.467550
Koninginnepage,1,,,5754DL,Deurne,Deurne,Noord-Brabant,VBO,5.811970,51.466646
Koninginnepage,2,,,5754DL,Deurne,Deurne,Noord-Brabant,VBO,5.811394,51.466577
Koninginnepage,3,,,5754DL,Deurne,Deurne,Noord-Brabant,VBO,5.812042,51.466619
Koninginnepage,4,,,5754DL,Deurne,Deurne,Noord-Brabant,VBO,5.811480,51.466558
Koninginnepage,5,,,5754DL,Deurne,Deurne,Noord-Brabant,VBO,5.812386,51.466537
Koninginnepage,6,,,5754DL,Deurne,Deurne,Noord-Brabant,VBO,5.811623,51.466522
Koninginnepage,7,,,5754DL,Deurne,Deurne,Noord-Brabant,VBO,5.812415,51.466591
Koninginnepage,8,,,5754DL,Deurne,Deurne,Noord-Brabant,VBO,5.811695,51.466504
Koninginnepage,9,,,5754DL,Deurne,Deurne,Noord-Brabant,VBO,5.812488,51.466689
Koninginnepage,10,,,5754DL,Deurne,Deurne,Noord-Brabant,VBO,5.811839,51.466458
Koninginnepage,11,,,5754DL,Deurne,Deurne,Noord-Brabant,VBO,5.812518,51.466734
Koninginnepage,12,,,5754DL,Deurne,Deurne,Noord-Brabant,VBO,5.811910,51.466440
Koninginnepage,13,,,5754DL,Deurne,Deurne,Noord-Brabant,VBO,5.812590,51.466833
Koninginnepage,15,,,5754DL,Deurne,Deurne,Noord-Brabant,VBO,5.812619,51.466860
Koninginnepage,16,,,5754DL,Deurne,Deurne,Noord-Brabant,VBO,5.812212,51.466358
Koninginnepage,17,,,5754DL,Deurne,Deurne,Noord-Brabant,VBO,5.812678,51.467003
Koninginnepage,18,,,5754DL,Deurne,Deurne,Noord-Brabant,VBO,5.812284,51.466349
Koninginnepage,19,,,5754DL,Deurne,Deurne,Noord-Brabant,VBO,5.812693,51.467057
Koninginnepage,20,,,5754DL,Deurne,Deurne,Noord-Brabant,VBO,5.812370,51.466321
Koninginnepage,22,,,5754DL,Deurne,Deurne,Noord-Brabant,VBO,5.812995,51.466984
Koninginnepage,24,,,5754DL,Deurne,Deurne,Noord-Brabant,VBO,5.813010,51.467029
Koninginnepage,26,,,5754DL,Deurne,Deurne,Noord-Brabant,VBO,5.813011,51.467182
Koninginnepage,28,,,5754DL,Deurne,Deurne,Noord-Brabant,VBO,5.813012,51.467236
Koninginnepage,30,,,5754DL,Deurne,Deurne,Noord-Brabant,VBO,5.812998,51.467353
Koninginnepage,32,,,5754DL,Deurne,Deurne,Noord-Brabant,VBO,5.812999,51.467407
Kleine Vos,1,,,5754DM,Deurne,Deurne,Noord-Brabant,VBO,5.811175,51.466272
Kleine Vos,2,a,,5754DM,Deurne,Deurne,Noord-Brabant,VBO,5.810725,51.466195
Kleine Vos,2,b,,5754DM,Deurne,Deurne,Noord-Brabant,VBO,5.810785,51.466165
Kleine Vos,2,,,5754DM,Deurne,Deurne,Noord-Brabant,VBO,5.810599,51.466229
Kleine Vos,3,,,5754DM,Deurne,Deurne,Noord-Brabant,VBO,5.811247,51.466253
Kleine Vos,4,,,5754DM,Deurne,Deurne,Noord-Brabant,VBO,5.810958,51.466129
Kleine Vos,5,,,5754DM,Deurne,Deurne,Noord-Brabant,VBO,5.811404,51.466208
Kleine Vos,6,,,5754DM,Deurne,Deurne,Noord-Brabant,VBO,5.811029,51.466101
Kleine Vos,7,,,5754DM,Deurne,Deurne,Noord-Brabant,VBO,5.811476,51.466190
Kleine Vos,8,,,5754DM,Deurne,Deurne,Noord-Brabant,VBO,5.811187,51.466056
Kleine Vos,9,,,5754DM,Deurne,Deurne,Noord-Brabant,VBO,5.811625,51.466148
Kleine Vos,10,,,5754DM,Deurne,Deurne,Noord-Brabant,VBO,5.811273,51.466038
Kleine Vos,11,,,5754DM,Deurne,Deurne,Noord-Brabant,VBO,5.811702,51.466125
Kleine Vos,12,,,5754DM,Deurne,Deurne,Noord-Brabant,VBO,5.811446,51.466019
Kleine Vos,14,,,5754DM,Deurne,Deurne,Noord-Brabant,VBO,5.811532,51.466001
Kleine Vos,22,,,5754DM,Deurne,Deurne,Noord-Brabant,VBO,5.811906,51.465945
Kleine Vos,24,,,5754DM,Deurne,Deurne,Noord-Brabant,VBO,5.811935,51.465990
Kleine Vos,26,,,5754DM,Deurne,Deurne,Noord-Brabant,VBO,5.812037,51.466098
Kleine Vos,28,,,5754DM,Deurne,Deurne,Noord-Brabant,VBO,5.812080,51.466161
Dagpauwoog,1,,,5754DN,Deurne,Deurne,Noord-Brabant,VBO,5.811625,51.466737
Dagpauwoog,3,,,5754DN,Deurne,Deurne,Noord-Brabant,VBO,5.811655,51.466791
Dagpauwoog,5,,,5754DN,Deurne,Deurne,Noord-Brabant,VBO,5.811684,51.466836
Dagpauwoog,7,,,5754DN,Deurne,Deurne,Noord-Brabant,VBO,5.811757,51.466944
Dagpauwoog,9,,,5754DN,Deurne,Deurne,Noord-Brabant,VBO,5.811800,51.466989
Dagpauwoog,11,,,5754DN,Deurne,Deurne,Noord-Brabant,VBO,5.811830,51.467051
Dagpauwoog,13,,,5754DN,Deurne,Deurne,Noord-Brabant,VBO,5.811874,51.467177
Dagpauwoog,15,,,5754DN,Deurne,Deurne,Noord-Brabant,VBO,5.811860,51.467222
Dagpauwoog,17,,,5754DN,Deurne,Deurne,Noord-Brabant,VBO,5.811861,51.467321
Dagpauwoog,19,,,5754DN,Deurne,Deurne,Noord-Brabant,VBO,5.811876,51.467384
Dagpauwoog,21,,,5754DN,Deurne,Deurne,Noord-Brabant,VBO,5.811934,51.467482
Dagpauwoog,23,,,5754DN,Deurne,Deurne,Noord-Brabant,VBO,5.811921,51.467536
Dagpauwoog,25,,,5754DN,Deurne,Deurne,Noord-Brabant,VBO,5.811936,51.467644
Dagpauwoog,27,,,5754DN,Deurne,Deurne,Noord-Brabant,VBO,5.811937,51.467707
Dagpauwoog,2,,,5754DP,Deurne,Deurne,Noord-Brabant,VBO,5.812058,51.466871
Dagpauwoog,4,,,5754DP,Deurne,Deurne,Noord-Brabant,VBO,5.812087,51.466916
Dagpauwoog,6,,,5754DP,Deurne,Deurne,Noord-Brabant,VBO,5.812160,51.467023
Dagpauwoog,8,,,5754DP,Deurne,Deurne,Noord-Brabant,VBO,5.812161,51.467068
Dagpauwoog,10,,,5754DP,Deurne,Deurne,Noord-Brabant,VBO,5.812163,51.467311
Dagpauwoog,12,,,5754DP,Deurne,Deurne,Noord-Brabant,VBO,5.812307,51.467310
Dagpauwoog,14,,,5754DP,Deurne,Deurne,Noord-Brabant,VBO,5.812537,51.467309
Dagpauwoog,16,,,5754DP,Deurne,Deurne,Noord-Brabant,VBO,5.812681,51.467309
Vliersingel,1,,,5754DR,Deurne,Deurne,Noord-Brabant,VBO,5.810066,51.466222
Vliersingel,3,,,5754DR,Deurne,Deurne,Noord-Brabant,VBO,5.810095,51.466258
Vliersingel,5,,,5754DR,Deurne,Deurne,Noord-Brabant,VBO,5.810183,51.466374
Vliersingel,7,,,5754DR,Deurne,Deurne,Noord-Brabant,VBO,5.810212,51.466428
Vliersingel,9,,,5754DR,Deurne,Deurne,Noord-Brabant,VBO,5.810401,51.466580
Vliersingel,11,,,5754DR,Deurne,Deurne,Noord-Brabant,VBO,5.810444,51.466625
Vliersingel,13,,,5754DR,Deurne,Deurne,Noord-Brabant,VBO,5.810531,51.466714
Vliersingel,15,,,5754DR,Deurne,Deurne,Noord-Brabant,VBO,5.810561,51.466759
Vliersingel,17,,,5754DR,Deurne,Deurne,Noord-Brabant,VBO,5.810633,51.466867
Vliersingel,19,,,5754DR,Deurne,Deurne,Noord-Brabant,VBO,5.810663,51.466912
Vliersingel,21,,,5754DR,Deurne,Deurne,Noord-Brabant,VBO,5.810779,51.467082
Vliersingel,23,,,5754DR,Deurne,Deurne,Noord-Brabant,VBO,5.810823,51.467127
Vliersingel,25,,,5754DR,Deurne,Deurne,Noord-Brabant,VBO,5.810882,51.467253
Vliersingel,27,,,5754DR,Deurne,Deurne,Noord-Brabant,VBO,5.810897,51.467297
Vliersingel,29,,,5754DR,Deurne,Deurne,Noord-Brabant,VBO,5.810884,51.467450
Vliersingel,31,,,5754DR,Deurne,Deurne,Noord-Brabant,VBO,5.810884,51.467495
Vliersingel,33,,,5754DR,Deurne,Deurne,Noord-Brabant,VBO,5.810885,51.467576
Vliersingel,35,,,5754DR,Deurne,Deurne,Noord-Brabant,VBO,5.810849,51.468053
Vliersingel,37,,,5754DR,Deurne,Deurne,Noord-Brabant,VBO,5.810855,51.468102
Vliersingel,39,,,5754DR,Deurne,Deurne,Noord-Brabant,VBO,5.810851,51.468143
Vliersingel,41,,,5754DR,Deurne,Deurne,Noord-Brabant,VBO,5.810896,51.468219
Vliersingel,43,,,5754DR,Deurne,Deurne,Noord-Brabant,VBO,5.810878,51.468277
Vliersingel,45,,,5754DR,Deurne,Deurne,Noord-Brabant,VBO,5.810821,51.468364
Vliersingel,47,,,5754DR,Deurne,Deurne,Noord-Brabant,VBO,5.810795,51.468343
Vliersingel,49,,,5754DR,Deurne,Deurne,Noord-Brabant,VBO,5.810703,51.468431
Vliersingel,51,,,5754DR,Deurne,Deurne,Noord-Brabant,VBO,5.810680,51.468414
Vliersingel,53,,,5754DR,Deurne,Deurne,Noord-Brabant,VBO,5.810624,51.468479
Vliersingel,55,,,5754DR,Deurne,Deurne,Noord-Brabant,VBO,5.810559,51.468484
Vliersingel,57,,,5754DR,Deurne,Deurne,Noord-Brabant,VBO,5.810524,51.468546
Vliersingel,59,,,5754DR,Deurne,Deurne,Noord-Brabant,VBO,5.810519,51.468604
Vliersingel,67,,,5754DR,Deurne,Deurne,Noord-Brabant,VBO,5.810551,51.468827
Vliersingel,69,,,5754DR,Deurne,Deurne,Noord-Brabant,VBO,5.810551,51.468881
Vliersingel,71,,,5754DR,Deurne,Deurne,Noord-Brabant,VBO,5.810567,51.468962
Vliersingel,73,,,5754DR,Deurne,Deurne,Noord-Brabant,VBO,5.810567,51.469024
Vliersingel,75,,,5754DR,Deurne,Deurne,Noord-Brabant,VBO,5.810554,51.469123
Vliersingel,77,,,5754DR,Deurne,Deurne,Noord-Brabant,VBO,5.810513,51.469187
Vliersingel,79,,,5754DR,Deurne,Deurne,Noord-Brabant,VBO,5.809885,51.469908
Vliersingel,81,,,5754DR,Deurne,Deurne,Noord-Brabant,VBO,5.809698,51.469909
Vliersingel,83,,,5754DR,Deurne,Deurne,Noord-Brabant,VBO,5.809525,51.469909
Vliersingel,85,,,5754DR,Deurne,Deurne,Noord-Brabant,VBO,5.809338,51.469910
Vliersingel,87,,,5754DR,Deurne,Deurne,Noord-Brabant,VBO,5.809151,51.469946
Vliersingel,89,,,5754DR,Deurne,Deurne,Noord-Brabant,VBO,5.808964,51.469947
Vliersingel,91,,,5754DR,Deurne,Deurne,Noord-Brabant,VBO,5.808777,51.469948
Vliersingel,93,,,5754DR,Deurne,Deurne,Noord-Brabant,VBO,5.808590,51.469948
Vliersingel,8,,,5754DS,Deurne,Deurne,Noord-Brabant,VBO,5.810424,51.466005
Vliersingel,10,,,5754DS,Deurne,Deurne,Noord-Brabant,VBO,5.810902,51.466363
Vliersingel,12,,,5754DS,Deurne,Deurne,Noord-Brabant,VBO,5.810917,51.466398
Vliersingel,14,,,5754DS,Deurne,Deurne,Noord-Brabant,VBO,5.810975,51.466488
Vliersingel,16,,,5754DS,Deurne,Deurne,Noord-Brabant,VBO,5.811004,51.466524
Vliersingel,18,,,5754DS,Deurne,Deurne,Noord-Brabant,VBO,5.811063,51.466605
Vliersingel,20,,,5754DS,Deurne,Deurne,Noord-Brabant,VBO,5.811092,51.466650
Vliersingel,22,,,5754DS,Deurne,Deurne,Noord-Brabant,VBO,5.811137,51.466874
Vliersingel,24,,,5754DS,Deurne,Deurne,Noord-Brabant,VBO,5.811166,51.466919
Vliersingel,26,,,5754DS,Deurne,Deurne,Noord-Brabant,VBO,5.811254,51.467017
Vliersingel,28,,,5754DS,Deurne,Deurne,Noord-Brabant,VBO,5.811283,51.467071
Vliersingel,30,,,5754DS,Deurne,Deurne,Noord-Brabant,VBO,5.811327,51.467170
Vliersingel,32,,,5754DS,Deurne,Deurne,Noord-Brabant,VBO,5.811328,51.467224
Vliersingel,34,,,5754DS,Deurne,Deurne,Noord-Brabant,VBO,5.811329,51.467350
Vliersingel,36,,,5754DS,Deurne,Deurne,Noord-Brabant,VBO,5.811329,51.467404
Vliersingel,38,,,5754DS,Deurne,Deurne,Noord-Brabant,VBO,5.811330,51.467512
Vliersingel,40,,,5754DS,Deurne,Deurne,Noord-Brabant,VBO,5.811331,51.467566
Vliersingel,42,,,5754DS,Deurne,Deurne,Noord-Brabant,VBO,5.811332,51.467673
Vliersingel,44,,,5754DS,Deurne,Deurne,Noord-Brabant,VBO,5.811332,51.467727
Vliersingel,46,,,5754DS,Deurne,Deurne,Noord-Brabant,VBO,5.811306,51.467952
Vliersingel,48,,,5754DS,Deurne,Deurne,Noord-Brabant,VBO,5.811306,51.468006
Vliersingel,50,,,5754DS,Deurne,Deurne,Noord-Brabant,VBO,5.811293,51.468114
Vliersingel,52,,,5754DS,Deurne,Deurne,Noord-Brabant,VBO,5.811308,51.468168
Vliersingel,54,,,5754DS,Deurne,Deurne,Noord-Brabant,VBO,5.811410,51.468383
Vliersingel,56,,,5754DS,Deurne,Deurne,Noord-Brabant,VBO,5.811411,51.468455
Vliersingel,58,,,5754DS,Deurne,Deurne,Noord-Brabant,VBO,5.811354,51.468522
Vliersingel,60,,,5754DS,Deurne,Deurne,Noord-Brabant,VBO,5.811252,51.468581
Vliersingel,62,,,5754DS,Deurne,Deurne,Noord-Brabant,VBO,5.811319,51.468581
Vliersingel,64,,,5754DS,Deurne,Deurne,Noord-Brabant,VBO,5.811136,51.468652
Vliersingel,66,,,5754DS,Deurne,Deurne,Noord-Brabant,VBO,5.811203,51.468649
Vliersingel,68,,,5754DS,Deurne,Deurne,Noord-Brabant,VBO,5.811058,51.468715
Vliersingel,70,,,5754DS,Deurne,Deurne,Noord-Brabant,VBO,5.811148,51.468704
Vliersingel,72,,,5754DS,Deurne,Deurne,Noord-Brabant,VBO,5.811069,51.468780
Vliersingel,74,,,5754DS,Deurne,Deurne,Noord-Brabant,VBO,5.811069,51.468843
Vliersingel,76,,,5754DS,Deurne,Deurne,Noord-Brabant,VBO,5.811070,51.468906
Vliersingel,80,,,5754DS,Deurne,Deurne,Noord-Brabant,VBO,5.810592,51.470148
Vliersingel,86,,,5754DS,Deurne,Deurne,Noord-Brabant,VBO,5.809629,51.470259
Vliersingel,90,,,5754DS,Deurne,Deurne,Noord-Brabant,VBO,5.808593,51.470281
Vliersingel,92,,,5754DS,Deurne,Deurne,Noord-Brabant,VBO,5.808247,51.470282
Vliersingel,94,,,5754DS,Deurne,Deurne,Noord-Brabant,VBO,5.807974,51.470283
Vliersingel,96,,,5754DS,Deurne,Deurne,Noord-Brabant,VBO,5.807760,51.470482
Vliersingel,100,,,5754DS,Deurne,Deurne,Noord-Brabant,VBO,5.807418,51.470852
Vliersingel,102,,,5754DS,Deurne,Deurne,Noord-Brabant,VBO,5.807290,51.470996
Zilveren Maan,1,,,5754DT,Deurne,Deurne,Noord-Brabant,VBO,5.813220,51.466426
Zilveren Maan,2,,,5754DT,Deurne,Deurne,Noord-Brabant,VBO,5.812499,51.466330
Zilveren Maan,3,,,5754DT,Deurne,Deurne,Noord-Brabant,VBO,5.813191,51.466390
Zilveren Maan,4,,,5754DT,Deurne,Deurne,Noord-Brabant,VBO,5.812571,51.466303
Zilveren Maan,5,,,5754DT,Deurne,Deurne,Noord-Brabant,VBO,5.813103,51.466283
Zilveren Maan,6,,,5754DT,Deurne,Deurne,Noord-Brabant,VBO,5.812657,51.466284
Zilveren Maan,7,,,5754DT,Deurne,Deurne,Noord-Brabant,VBO,5.813074,51.466238
Zilveren Maan,8,,,5754DT,Deurne,Deurne,Noord-Brabant,VBO,5.812743,51.466257
Zilveren Maan,9,a,,5754DT,Deurne,Deurne,Noord-Brabant,VBO,5.812957,51.466076
Zilveren Maan,9,,,5754DT,Deurne,Deurne,Noord-Brabant,VBO,5.813001,51.466121
Zilveren Maan,10,,,5754DT,Deurne,Deurne,Noord-Brabant,VBO,5.812583,51.466033
Zilveren Maan,11,,,5754DT,Deurne,Deurne,Noord-Brabant,VBO,5.812812,51.465861
Zilveren Maan,12,,,5754DT,Deurne,Deurne,Noord-Brabant,VBO,5.812568,51.465979
Zilveren Maan,13,,,5754DT,Deurne,Deurne,Noord-Brabant,VBO,5.813027,51.465798
Zilveren Maan,14,,,5754DT,Deurne,Deurne,Noord-Brabant,VBO,5.812524,51.465925
Zilveren Maan,15,,,5754DT,Deurne,Deurne,Noord-Brabant,VBO,5.813257,51.465806
Zilveren Maan,16,,,5754DT,Deurne,Deurne,Noord-Brabant,VBO,5.812481,51.465889
Zilveren Maan,17,,,5754DT,Deurne,Deurne,Noord-Brabant,VBO,5.813460,51.465904
Zilveren Maan,18,,,5754DT,Deurne,Deurne,Noord-Brabant,VBO,5.812437,51.465818
Zilveren Maan,19,,,5754DT,Deurne,Deurne,Noord-Brabant,VBO,5.813591,51.466065
Zilveren Maan,20,,,5754DT,Deurne,Deurne,Noord-Brabant,VBO,5.812408,51.465773
Zilveren Maan,22,,,5754DT,Deurne,Deurne,Noord-Brabant,VBO,5.812364,51.465719
Zilveren Maan,24,,,5754DT,Deurne,Deurne,Noord-Brabant,VBO,5.812335,51.465674
De Meent,1,,,5754DV,Deurne,Deurne,Noord-Brabant,VBO,5.809598,51.465423
De Meent,2,,,5754DV,Deurne,Deurne,Noord-Brabant,VBO,5.811903,51.465658
De Meent,3,,,5754DV,Deurne,Deurne,Noord-Brabant,VBO,5.809715,51.465639
De Meent,4,,,5754DV,Deurne,Deurne,Noord-Brabant,VBO,5.811875,51.465703
De Meent,5,,,5754DV,Deurne,Deurne,Noord-Brabant,VBO,5.809615,51.465657
De Meent,6,,,5754DV,Deurne,Deurne,Noord-Brabant,VBO,5.811847,51.465811
De Meent,7,,,5754DV,Deurne,Deurne,Noord-Brabant,VBO,5.809950,51.466141
De Meent,8,,,5754DV,Deurne,Deurne,Noord-Brabant,VBO,5.811616,51.465767
De Meent,10,,,5754DV,Deurne,Deurne,Noord-Brabant,VBO,5.811530,51.465740
De Meent,12,,,5754DV,Deurne,Deurne,Noord-Brabant,VBO,5.811371,51.465705
De Meent,14,,,5754DV,Deurne,Deurne,Noord-Brabant,VBO,5.811284,51.465687
De Meent,16,,,5754DV,Deurne,Deurne,Noord-Brabant,VBO,5.811040,51.465724
De Meent,18,,,5754DV,Deurne,Deurne,Noord-Brabant,VBO,5.810954,51.465751
De Meent,20,,,5754DV,Deurne,Deurne,Noord-Brabant,VBO,5.810782,51.465797
De Meent,22,,,5754DV,Deurne,Deurne,Noord-Brabant,VBO,5.810710,51.465815
De Meent,24,a,,5754DV,Deurne,Deurne,Noord-Brabant,VBO,5.810620,51.465854
De Meent,24,b,,5754DV,Deurne,Deurne,Noord-Brabant,VBO,5.810611,51.465915
De Meent,24,,,5754DV,Deurne,Deurne,Noord-Brabant,VBO,5.810531,51.465882
De Meent,26,,,5754DV,Deurne,Deurne,Noord-Brabant,VBO,5.810366,51.465969
Atalanta,1,,,5754DW,Deurne,Deurne,Noord-Brabant,VBO,5.812906,51.466751
Atalanta,2,,,5754DW,Deurne,Deurne,Noord-Brabant,VBO,5.813564,51.466335
Atalanta,3,,,5754DW,Deurne,Deurne,Noord-Brabant,VBO,5.812992,51.466724
Atalanta,4,,,5754DW,Deurne,Deurne,Noord-Brabant,VBO,5.813737,51.466289
Atalanta,5,,,5754DW,Deurne,Deurne,Noord-Brabant,VBO,5.813208,51.466669
Atalanta,6,,,5754DW,Deurne,Deurne,Noord-Brabant,VBO,5.814414,51.466422
Atalanta,7,,,5754DW,Deurne,Deurne,Noord-Brabant,VBO,5.813294,51.466642
Atalanta,8,,,5754DW,Deurne,Deurne,Noord-Brabant,VBO,5.814443,51.466467
Atalanta,9,,,5754DW,Deurne,Deurne,Noord-Brabant,VBO,5.813940,51.466459
Atalanta,10,,,5754DW,Deurne,Deurne,Noord-Brabant,VBO,5.814516,51.466565
Atalanta,11,,,5754DW,Deurne,Deurne,Noord-Brabant,VBO,5.813997,51.466432
Atalanta,12,,,5754DW,Deurne,Deurne,Noord-Brabant,VBO,5.814531,51.466610
Atalanta,13,,,5754DW,Deurne,Deurne,Noord-Brabant,VBO,5.814215,51.466611
Atalanta,14,,,5754DW,Deurne,Deurne,Noord-Brabant,VBO,5.814590,51.466718
Atalanta,15,,,5754DW,Deurne,Deurne,Noord-Brabant,VBO,5.814244,51.466656
Atalanta,16,,,5754DW,Deurne,Deurne,Noord-Brabant,VBO,5.814605,51.466763
Atalanta,17,,,5754DW,Deurne,Deurne,Noord-Brabant,VBO,5.814317,51.466782
Atalanta,18,,,5754DW,Deurne,Deurne,Noord-Brabant,VBO,5.814620,51.466879
Atalanta,19,,,5754DW,Deurne,Deurne,Noord-Brabant,VBO,5.814332,51.466826
Atalanta,20,,,5754DW,Deurne,Deurne,Noord-Brabant,VBO,5.814635,51.466924
Atalanta,21,,,5754DW,Deurne,Deurne,Noord-Brabant,VBO,5.814333,51.466979
Atalanta,22,,,5754DW,Deurne,Deurne,Noord-Brabant,VBO,5.814636,51.467032
Atalanta,23,,,5754DW,Deurne,Deurne,Noord-Brabant,VBO,5.814334,51.467024
Atalanta,24,,,5754DW,Deurne,Deurne,Noord-Brabant,VBO,5.814622,51.467095
Atalanta,25,,,5754DW,Deurne,Deurne,Noord-Brabant,VBO,5.814320,51.467141
Atalanta,26,,,5754DW,Deurne,Deurne,Noord-Brabant,VBO,5.814785,51.467580
Atalanta,27,,,5754DW,Deurne,Deurne,Noord-Brabant,VBO,5.814321,51.467186
Atalanta,28,,,5754DW,Deurne,Deurne,Noord-Brabant,VBO,5.814439,51.467563
Atalanta,29,,,5754DW,Deurne,Deurne,Noord-Brabant,VBO,5.814322,51.467303
Atalanta,30,,,5754DW,Deurne,Deurne,Noord-Brabant,VBO,5.814123,51.467591
Atalanta,31,,,5754DW,Deurne,Deurne,Noord-Brabant,VBO,5.814322,51.467339
Atalanta,32,,,5754DW,Deurne,Deurne,Noord-Brabant,VBO,5.813864,51.467592
Koningsmantel,1,,,5754DX,Deurne,Deurne,Noord-Brabant,VBO,5.813483,51.466848
Koningsmantel,2,,,5754DX,Deurne,Deurne,Noord-Brabant,VBO,5.813624,51.466568
Koningsmantel,3,,,5754DX,Deurne,Deurne,Noord-Brabant,VBO,5.813512,51.466892
Koningsmantel,4,,,5754DX,Deurne,Deurne,Noord-Brabant,VBO,5.813653,51.466613
Koningsmantel,5,,,5754DX,Deurne,Deurne,Noord-Brabant,VBO,5.813499,51.467018
Koningsmantel,6,,,5754DX,Deurne,Deurne,Noord-Brabant,VBO,5.813726,51.466703
Koningsmantel,7,,,5754DX,Deurne,Deurne,Noord-Brabant,VBO,5.813499,51.467072
Koningsmantel,8,,,5754DX,Deurne,Deurne,Noord-Brabant,VBO,5.813741,51.466739
Koningsmantel,9,,,5754DX,Deurne,Deurne,Noord-Brabant,VBO,5.813500,51.467180
Koningsmantel,10,,,5754DX,Deurne,Deurne,Noord-Brabant,VBO,5.813799,51.466837
Koningsmantel,11,,,5754DX,Deurne,Deurne,Noord-Brabant,VBO,5.813501,51.467234
Koningsmantel,12,,,5754DX,Deurne,Deurne,Noord-Brabant,VBO,5.813814,51.466882
Koningsmantel,13,,,5754DX,Deurne,Deurne,Noord-Brabant,VBO,5.813502,51.467351
Koningsmantel,14,,,5754DX,Deurne,Deurne,Noord-Brabant,VBO,5.813815,51.467017
Koningsmantel,15,,,5754DX,Deurne,Deurne,Noord-Brabant,VBO,5.813517,51.467405
Koningsmantel,16,,,5754DX,Deurne,Deurne,Noord-Brabant,VBO,5.813816,51.467062
Koningsmantel,17,,,5754DX,Deurne,Deurne,Noord-Brabant,VBO,5.813447,51.467603
Koningsmantel,18,,,5754DX,Deurne,Deurne,Noord-Brabant,VBO,5.813810,51.467143
Koningsmantel,19,,,5754DX,Deurne,Deurne,Noord-Brabant,VBO,5.813360,51.467603
Koningsmantel,20,,,5754DX,Deurne,Deurne,Noord-Brabant,VBO,5.813817,51.467206
Koningsmantel,21,,,5754DX,Deurne,Deurne,Noord-Brabant,VBO,5.813073,51.467604
Koningsmantel,22,,,5754DX,Deurne,Deurne,Noord-Brabant,VBO,5.813818,51.467314
Koningsmantel,23,,,5754DX,Deurne,Deurne,Noord-Brabant,VBO,5.812986,51.467604
Koningsmantel,24,,,5754DX,Deurne,Deurne,Noord-Brabant,VBO,5.813818,51.467350
Koningsmantel,26,,,5754DX,Deurne,Deurne,Noord-Brabant,VBO,5.813751,51.467790
Vlinderhof,1,,,5754DZ,Deurne,Deurne,Noord-Brabant,VBO,5.814672,51.466331
Vlinderhof,2,,,5754DZ,Deurne,Deurne,Noord-Brabant,VBO,5.814264,51.465793
Vlinderhof,3,,,5754DZ,Deurne,Deurne,Noord-Brabant,VBO,5.814744,51.466313
Vlinderhof,4,,,5754DZ,Deurne,Deurne,Noord-Brabant,VBO,5.814295,51.466018
Vlinderhof,5,,,5754DZ,Deurne,Deurne,Noord-Brabant,VBO,5.815003,51.466321
Vlinderhof,6,,,5754DZ,Deurne,Deurne,Noord-Brabant,VBO,5.814455,51.466215
Vlinderhof,7,,,5754DZ,Deurne,Deurne,Noord-Brabant,VBO,5.815090,51.466347
Vlinderhof,8,,,5754DZ,Deurne,Deurne,Noord-Brabant,VBO,5.814527,51.466188
Vlinderhof,10,,,5754DZ,Deurne,Deurne,Noord-Brabant,VBO,5.814671,51.466142
Vlinderhof,12,,,5754DZ,Deurne,Deurne,Noord-Brabant,VBO,5.814757,51.466124
Vlinderhof,14,,,5754DZ,Deurne,Deurne,Noord-Brabant,VBO,5.814856,51.466007
Vlinderhof,16,,,5754DZ,Deurne,Deurne,Noord-Brabant,VBO,5.814943,51.465979
Vlinderhof,18,,,5754DZ,Deurne,Deurne,Noord-Brabant,VBO,5.815143,51.465916
Vlinderhof,20,,,5754DZ,Deurne,Deurne,Noord-Brabant,VBO,5.815244,51.465924
Vlinderhof,22,,,5754DZ,Deurne,Deurne,Noord-Brabant,VBO,5.815447,51.466013
Vlinderhof,24,,,5754DZ,Deurne,Deurne,Noord-Brabant,VBO,5.815476,51.466067
Vlinderhof,26,,,5754DZ,Deurne,Deurne,Noord-Brabant,VBO,5.815477,51.466211
Vlinderhof,28,,,5754DZ,Deurne,Deurne,Noord-Brabant,VBO,5.815435,51.466319
Lavendelheide,1,,,5754EA,Deurne,Deurne,Noord-Brabant,VBO,5.805078,51.463651
Lavendelheide,3,,,5754EA,Deurne,Deurne,Noord-Brabant,VBO,5.805093,51.463732
Lavendelheide,5,,,5754EA,Deurne,Deurne,Noord-Brabant,VBO,5.804993,51.463831
Lavendelheide,7,,,5754EA,Deurne,Deurne,Noord-Brabant,VBO,5.805008,51.463912
Lavendelheide,9,,,5754EA,Deurne,Deurne,Noord-Brabant,VBO,5.804908,51.464011
Lavendelheide,11,,,5754EA,Deurne,Deurne,Noord-Brabant,VBO,5.804909,51.464074
Lavendelheide,21,,,5754EA,Deurne,Deurne,Noord-Brabant,VBO,5.806475,51.463826
Lavendelheide,23,,,5754EA,Deurne,Deurne,Noord-Brabant,VBO,5.806476,51.463871
Lavendelheide,25,,,5754EA,Deurne,Deurne,Noord-Brabant,VBO,5.806476,51.463916
Lavendelheide,27,,,5754EA,Deurne,Deurne,Noord-Brabant,VBO,5.806491,51.463979
Lavendelheide,29,,,5754EA,Deurne,Deurne,Noord-Brabant,VBO,5.806463,51.464015
Lavendelheide,31,,,5754EA,Deurne,Deurne,Noord-Brabant,VBO,5.806463,51.464060
Lavendelheide,33,,,5754EA,Deurne,Deurne,Noord-Brabant,VBO,5.806435,51.464158
Lavendelheide,35,,,5754EA,Deurne,Deurne,Noord-Brabant,VBO,5.806421,51.464203
Lavendelheide,37,,,5754EA,Deurne,Deurne,Noord-Brabant,VBO,5.806407,51.464231
Lavendelheide,39,,,5754EA,Deurne,Deurne,Noord-Brabant,VBO,5.806393,51.464267
Lavendelheide,41,,,5754EA,Deurne,Deurne,Noord-Brabant,VBO,5.806379,51.464294
Lavendelheide,43,,,5754EA,Deurne,Deurne,Noord-Brabant,VBO,5.806365,51.464330
Lavendelheide,2,,,5754EB,Deurne,Deurne,Noord-Brabant,VBO,5.805262,51.463363
Lavendelheide,4,,,5754EB,Deurne,Deurne,Noord-Brabant,VBO,5.805291,51.463408
Lavendelheide,6,,,5754EB,Deurne,Deurne,Noord-Brabant,VBO,5.805321,51.463461
Lavendelheide,8,,,5754EB,Deurne,Deurne,Noord-Brabant,VBO,5.805350,51.463506
Lavendelheide,10,,,5754EB,Deurne,Deurne,Noord-Brabant,VBO,5.805395,51.463686
Lavendelheide,12,,,5754EB,Deurne,Deurne,Noord-Brabant,VBO,5.805467,51.463686
Lavendelheide,14,,,5754EB,Deurne,Deurne,Noord-Brabant,VBO,5.805524,51.463685
Lavendelheide,16,,,5754EB,Deurne,Deurne,Noord-Brabant,VBO,5.805610,51.463685
Lavendelheide,18,,,5754EB,Deurne,Deurne,Noord-Brabant,VBO,5.805682,51.463658
Lavendelheide,20,,,5754EB,Deurne,Deurne,Noord-Brabant,VBO,5.805783,51.463657
Lavendelheide,22,,,5754EB,Deurne,Deurne,Noord-Brabant,VBO,5.805855,51.463648
Lavendelheide,24,,,5754EB,Deurne,Deurne,Noord-Brabant,VBO,5.806013,51.463648
Lavendelheide,26,,,5754EB,Deurne,Deurne,Noord-Brabant,VBO,5.806099,51.463638
Lavendelheide,28,,,5754EB,Deurne,Deurne,Noord-Brabant,VBO,5.806186,51.463638
Lavendelheide,30,a,,5754EB,Deurne,Deurne,Noord-Brabant,VBO,5.806821,51.463869
Lavendelheide,30,,,5754EB,Deurne,Deurne,Noord-Brabant,VBO,5.806257,51.463629
Lavendelheide,32,,,5754EB,Deurne,Deurne,Noord-Brabant,VBO,5.806821,51.463905
Lavendelheide,34,,,5754EB,Deurne,Deurne,Noord-Brabant,VBO,5.806822,51.463959
Lavendelheide,36,,,5754EB,Deurne,Deurne,Noord-Brabant,VBO,5.806808,51.464031
Lavendelheide,38,,,5754EB,Deurne,Deurne,Noord-Brabant,VBO,5.806794,51.464058
Lavendelheide,40,,,5754EB,Deurne,Deurne,Noord-Brabant,VBO,5.806780,51.464094
Lavendelheide,42,,,5754EB,Deurne,Deurne,Noord-Brabant,VBO,5.806766,51.464130
Struikheide,1,,,5754EC,Deurne,Deurne,Noord-Brabant,VBO,5.805312,51.464100
Struikheide,3,,,5754EC,Deurne,Deurne,Noord-Brabant,VBO,5.805398,51.464099
Struikheide,5,,,5754EC,Deurne,Deurne,Noord-Brabant,VBO,5.805470,51.464099
Struikheide,7,,,5754EC,Deurne,Deurne,Noord-Brabant,VBO,5.805542,51.464090
Struikheide,9,,,5754EC,Deurne,Deurne,Noord-Brabant,VBO,5.805544,51.464323
Struikheide,11,,,5754EC,Deurne,Deurne,Noord-Brabant,VBO,5.805530,51.464377
Struikheide,13,,,5754EC,Deurne,Deurne,Noord-Brabant,VBO,5.805387,51.464432
Struikheide,17,,,5754EC,Deurne,Deurne,Noord-Brabant,VBO,5.805618,51.464539
Struikheide,19,,,5754EC,Deurne,Deurne,Noord-Brabant,VBO,5.805705,51.464539
Struikheide,21,,,5754EC,Deurne,Deurne,Noord-Brabant,VBO,5.805863,51.464502
Struikheide,23,,,5754EC,Deurne,Deurne,Noord-Brabant,VBO,5.805920,51.464502
Struikheide,25,,,5754EC,Deurne,Deurne,Noord-Brabant,VBO,5.805992,51.464502
Struikheide,27,,,5754EC,Deurne,Deurne,Noord-Brabant,VBO,5.806093,51.464501
Struikheide,29,,,5754EC,Deurne,Deurne,Noord-Brabant,VBO,5.806395,51.464527
Struikheide,31,,,5754EC,Deurne,Deurne,Noord-Brabant,VBO,5.806453,51.464536
Struikheide,33,,,5754EC,Deurne,Deurne,Noord-Brabant,VBO,5.806539,51.464554
Struikheide,35,,,5754EC,Deurne,Deurne,Noord-Brabant,VBO,5.806712,51.464526
Struikheide,37,,,5754EC,Deurne,Deurne,Noord-Brabant,VBO,5.806798,51.464535
Struikheide,39,,,5754EC,Deurne,Deurne,Noord-Brabant,VBO,5.806957,51.464534
Struikheide,41,,,5754EC,Deurne,Deurne,Noord-Brabant,VBO,5.807014,51.464543
Struikheide,43,,,5754EC,Deurne,Deurne,Noord-Brabant,VBO,5.807086,51.464552
Struikheide,45,,,5754EC,Deurne,Deurne,Noord-Brabant,VBO,5.807561,51.464541
Struikheide,47,,,5754EC,Deurne,Deurne,Noord-Brabant,VBO,5.807575,51.464487
Struikheide,49,,,5754EC,Deurne,Deurne,Noord-Brabant,VBO,5.807632,51.464388
Struikheide,51,,,5754EC,Deurne,Deurne,Noord-Brabant,VBO,5.807660,51.464343
Struikheide,53,,,5754EC,Deurne,Deurne,Noord-Brabant,VBO,5.807702,51.464244
Struikheide,55,,,5754EC,Deurne,Deurne,Noord-Brabant,VBO,5.807730,51.464190
Struikheide,57,,,5754EC,Deurne,Deurne,Noord-Brabant,VBO,5.807801,51.463983
Struikheide,59,,,5754EC,Deurne,Deurne,Noord-Brabant,VBO,5.807814,51.463929
Struikheide,61,,,5754EC,Deurne,Deurne,Noord-Brabant,VBO,5.807828,51.463893
Struikheide,63,,,5754EC,Deurne,Deurne,Noord-Brabant,VBO,5.807842,51.463848
Struikheide,2,,,5754ED,Deurne,Deurne,Noord-Brabant,VBO,5.805900,51.463846
Struikheide,4,,,5754ED,Deurne,Deurne,Noord-Brabant,VBO,5.805915,51.463900
Struikheide,6,,,5754ED,Deurne,Deurne,Noord-Brabant,VBO,5.805915,51.463945
Struikheide,8,,,5754ED,Deurne,Deurne,Noord-Brabant,VBO,5.805930,51.463999
Struikheide,10,,,5754ED,Deurne,Deurne,Noord-Brabant,VBO,5.805901,51.464035
Struikheide,12,,,5754ED,Deurne,Deurne,Noord-Brabant,VBO,5.805902,51.464097
Struikheide,14,,,5754ED,Deurne,Deurne,Noord-Brabant,VBO,5.805917,51.464142
Struikheide,16,,,5754ED,Deurne,Deurne,Noord-Brabant,VBO,5.805890,51.464313
Struikheide,18,,,5754ED,Deurne,Deurne,Noord-Brabant,VBO,5.805976,51.464313
Struikheide,20,,,5754ED,Deurne,Deurne,Noord-Brabant,VBO,5.806048,51.464322
Struikheide,22,,,5754ED,Deurne,Deurne,Noord-Brabant,VBO,5.806134,51.464321
Struikheide,24,,,5754ED,Deurne,Deurne,Noord-Brabant,VBO,5.806724,51.464301
Struikheide,26,,,5754ED,Deurne,Deurne,Noord-Brabant,VBO,5.806796,51.464310
Struikheide,28,,,5754ED,Deurne,Deurne,Noord-Brabant,VBO,5.806883,51.464319
Struikheide,30,,,5754ED,Deurne,Deurne,Noord-Brabant,VBO,5.806940,51.464336
Struikheide,32,,,5754ED,Deurne,Deurne,Noord-Brabant,VBO,5.807027,51.464354
Struikheide,34,,,5754ED,Deurne,Deurne,Noord-Brabant,VBO,5.807128,51.464372
Struikheide,36,,,5754ED,Deurne,Deurne,Noord-Brabant,VBO,5.807200,51.464389
Struikheide,38,,,5754ED,Deurne,Deurne,Noord-Brabant,VBO,5.807257,51.464389
Struikheide,40,,,5754ED,Deurne,Deurne,Noord-Brabant,VBO,5.807301,51.464398
Struikheide,42,,,5754ED,Deurne,Deurne,Noord-Brabant,VBO,5.807357,51.464254
Struikheide,44,,,5754ED,Deurne,Deurne,Noord-Brabant,VBO,5.807371,51.464209
Struikheide,46,,,5754ED,Deurne,Deurne,Noord-Brabant,VBO,5.807399,51.464155
Struikheide,48,,,5754ED,Deurne,Deurne,Noord-Brabant,VBO,5.807413,51.464119
Struikheide,50,,,5754ED,Deurne,Deurne,Noord-Brabant,VBO,5.807427,51.464074
Struikheide,52,,,5754ED,Deurne,Deurne,Noord-Brabant,VBO,5.807456,51.464029
Struikheide,54,,,5754ED,Deurne,Deurne,Noord-Brabant,VBO,5.807484,51.463975
Struikheide,56,,,5754ED,Deurne,Deurne,Noord-Brabant,VBO,5.807526,51.463903
Struikheide,58,,,5754ED,Deurne,Deurne,Noord-Brabant,VBO,5.807526,51.463876
Struikheide,60,,,5754ED,Deurne,Deurne,Noord-Brabant,VBO,5.807540,51.463849
Struikheide,62,,,5754ED,Deurne,Deurne,Noord-Brabant,VBO,5.807554,51.463813
Dopheide,1,,,5754EE,Deurne,Deurne,Noord-Brabant,VBO,5.808235,51.464323
Dopheide,3,,,5754EE,Deurne,Deurne,Noord-Brabant,VBO,5.808165,51.464449
Dopheide,5,,,5754EE,Deurne,Deurne,Noord-Brabant,VBO,5.808123,51.464584
Dopheide,11,,,5754EE,Deurne,Deurne,Noord-Brabant,VBO,5.808425,51.464565
Dopheide,13,,,5754EE,Deurne,Deurne,Noord-Brabant,VBO,5.808511,51.464565
Dopheide,15,,,5754EE,Deurne,Deurne,Noord-Brabant,VBO,5.808712,51.464564
Dopheide,17,,,5754EE,Deurne,Deurne,Noord-Brabant,VBO,5.808799,51.464563
Dopheide,19,,,5754EE,Deurne,Deurne,Noord-Brabant,VBO,5.808986,51.464563
Dopheide,21,,,5754EE,Deurne,Deurne,Noord-Brabant,VBO,5.809087,51.464562
Dopheide,23,,,5754EE,Deurne,Deurne,Noord-Brabant,VBO,5.809245,51.464544
Dopheide,25,,,5754EE,Deurne,Deurne,Noord-Brabant,VBO,5.809302,51.464517
Dopheide,27,,,5754EE,Deurne,Deurne,Noord-Brabant,VBO,5.809401,51.464373
Dopheide,29,,,5754EE,Deurne,Deurne,Noord-Brabant,VBO,5.809415,51.464319
Dopheide,31,,,5754EE,Deurne,Deurne,Noord-Brabant,VBO,5.809515,51.464246
Dopheide,33,,,5754EE,Deurne,Deurne,Noord-Brabant,VBO,5.809515,51.464165
Dopheide,35,,,5754EE,Deurne,Deurne,Noord-Brabant,VBO,5.809586,51.464093
Dopheide,37,,,5754EE,Deurne,Deurne,Noord-Brabant,VBO,5.809600,51.464021
Dopheide,2,,,5754EG,Deurne,Deurne,Noord-Brabant,VBO,5.808075,51.464054
Dopheide,4,,,5754EG,Deurne,Deurne,Noord-Brabant,VBO,5.808147,51.464071
Dopheide,6,,,5754EG,Deurne,Deurne,Noord-Brabant,VBO,5.808233,51.464080
Dopheide,8,,,5754EG,Deurne,Deurne,Noord-Brabant,VBO,5.808291,51.464089
Dopheide,10,,,5754EG,Deurne,Deurne,Noord-Brabant,VBO,5.808478,51.464124
Dopheide,12,,,5754EG,Deurne,Deurne,Noord-Brabant,VBO,5.808550,51.464142
Dopheide,14,,,5754EG,Deurne,Deurne,Noord-Brabant,VBO,5.808622,51.464169
Dopheide,16,,,5754EG,Deurne,Deurne,Noord-Brabant,VBO,5.808709,51.464186
Dopheide,18,,,5754EG,Deurne,Deurne,Noord-Brabant,VBO,5.808781,51.464204
Dopheide,20,,,5754EG,Deurne,Deurne,Noord-Brabant,VBO,5.808882,51.464222
Dopheide,22,,,5754EG,Deurne,Deurne,Noord-Brabant,VBO,5.808954,51.464230
Dopheide,24,,,5754EG,Deurne,Deurne,Noord-Brabant,VBO,5.809069,51.464257
Dopheide,26,,,5754EG,Deurne,Deurne,Noord-Brabant,VBO,5.809156,51.464266
Dopheide,28,,,5754EG,Deurne,Deurne,Noord-Brabant,VBO,5.809212,51.464077
Dopheide,30,,,5754EG,Deurne,Deurne,Noord-Brabant,VBO,5.809226,51.464032
Dopheide,32,,,5754EG,Deurne,Deurne,Noord-Brabant,VBO,5.809254,51.463978
Dopheide,34,,,5754EG,Deurne,Deurne,Noord-Brabant,VBO,5.809282,51.463933
Dopheide,36,,,5754EG,Deurne,Deurne,Noord-Brabant,VBO,5.809268,51.463897
Hennegras,1,,,5754EH,Deurne,Deurne,Noord-Brabant,VBO,5.808417,51.463720
Hennegras,3,,,5754EH,Deurne,Deurne,Noord-Brabant,VBO,5.808503,51.463729
Hennegras,5,,,5754EH,Deurne,Deurne,Noord-Brabant,VBO,5.808575,51.463746
Hennegras,7,,,5754EH,Deurne,Deurne,Noord-Brabant,VBO,5.808648,51.463764
Hennegras,9,,,5754EH,Deurne,Deurne,Noord-Brabant,VBO,5.808734,51.463782
Hennegras,11,,,5754EH,Deurne,Deurne,Noord-Brabant,VBO,5.808792,51.463790
Hennegras,13,,,5754EH,Deurne,Deurne,Noord-Brabant,VBO,5.808849,51.463799
Hennegras,15,,,5754EH,Deurne,Deurne,Noord-Brabant,VBO,5.808936,51.463817
Hennegras,17,,,5754EH,Deurne,Deurne,Noord-Brabant,VBO,5.810061,51.464074
Hennegras,19,,,5754EH,Deurne,Deurne,Noord-Brabant,VBO,5.810219,51.464100
Hennegras,37,,,5754EH,Deurne,Deurne,Noord-Brabant,VBO,5.810144,51.463795
Hennegras,39,,,5754EH,Deurne,Deurne,Noord-Brabant,VBO,5.810158,51.463696
Hennegras,41,,,5754EH,Deurne,Deurne,Noord-Brabant,VBO,5.810214,51.463579
Hennegras,43,,,5754EH,Deurne,Deurne,Noord-Brabant,VBO,5.810271,51.463462
Hennegras,45,,,5754EH,Deurne,Deurne,Noord-Brabant,VBO,5.810342,51.463335
Hennegras,47,,,5754EH,Deurne,Deurne,Noord-Brabant,VBO,5.810168,51.463201
Hennegras,49,,,5754EH,Deurne,Deurne,Noord-Brabant,VBO,5.810067,51.463184
Hennegras,51,,,5754EH,Deurne,Deurne,Noord-Brabant,VBO,5.809879,51.463157
Hennegras,53,,,5754EH,Deurne,Deurne,Noord-Brabant,VBO,5.809822,51.463149
Hennegras,55,,,5754EH,Deurne,Deurne,Noord-Brabant,VBO,5.809649,51.463131
Hennegras,57,,,5754EH,Deurne,Deurne,Noord-Brabant,VBO,5.809577,51.463113
Hennegras,59,,,5754EH,Deurne,Deurne,Noord-Brabant,VBO,5.809390,51.463087
Hennegras,61,,,5754EH,Deurne,Deurne,Noord-Brabant,VBO,5.809303,51.463061
Hennegras,2,,,5754EJ,Deurne,Deurne,Noord-Brabant,VBO,5.808934,51.463619
Hennegras,4,,,5754EJ,Deurne,Deurne,Noord-Brabant,VBO,5.809006,51.463628
Hennegras,6,,,5754EJ,Deurne,Deurne,Noord-Brabant,VBO,5.809064,51.463646
Hennegras,8,,,5754EJ,Deurne,Deurne,Noord-Brabant,VBO,5.809150,51.463672
Hennegras,10,,,5754EJ,Deurne,Deurne,Noord-Brabant,VBO,5.809237,51.463681
Hennegras,12,,,5754EJ,Deurne,Deurne,Noord-Brabant,VBO,5.809309,51.463699
Hennegras,14,,,5754EJ,Deurne,Deurne,Noord-Brabant,VBO,5.809395,51.463707
Hennegras,16,,,5754EJ,Deurne,Deurne,Noord-Brabant,VBO,5.809482,51.463725
Hennegras,18,,,5754EJ,Deurne,Deurne,Noord-Brabant,VBO,5.809554,51.463743
Hennegras,20,,,5754EJ,Deurne,Deurne,Noord-Brabant,VBO,5.809640,51.463733
Hennegras,22,,,5754EJ,Deurne,Deurne,Noord-Brabant,VBO,5.809698,51.463751
Hennegras,24,,,5754EJ,Deurne,Deurne,Noord-Brabant,VBO,5.809784,51.463760
Hennegras,26,,,5754EJ,Deurne,Deurne,Noord-Brabant,VBO,5.809898,51.463562
Hennegras,28,,,5754EJ,Deurne,Deurne,Noord-Brabant,VBO,5.809912,51.463526
Hennegras,30,,,5754EJ,Deurne,Deurne,Noord-Brabant,VBO,5.809911,51.463472
Hennegras,32,,,5754EJ,Deurne,Deurne,Noord-Brabant,VBO,5.809940,51.463427
Hennegras,34,,,5754EJ,Deurne,Deurne,Noord-Brabant,VBO,5.809939,51.463382
Hennegras,36,,,5754EJ,Deurne,Deurne,Noord-Brabant,VBO,5.809680,51.463338
Hennegras,38,,,5754EJ,Deurne,Deurne,Noord-Brabant,VBO,5.809593,51.463320
Hennegras,40,,,5754EJ,Deurne,Deurne,Noord-Brabant,VBO,5.809521,51.463311
Hennegras,42,,,5754EJ,Deurne,Deurne,Noord-Brabant,VBO,5.809449,51.463303
Hennegras,44,,,5754EJ,Deurne,Deurne,Noord-Brabant,VBO,5.809391,51.463276
Hennegras,46,,,5754EJ,Deurne,Deurne,Noord-Brabant,VBO,5.809305,51.463267
Hennegras,48,,,5754EJ,Deurne,Deurne,Noord-Brabant,VBO,5.809132,51.463223
Hennegras,50,,,5754EJ,Deurne,Deurne,Noord-Brabant,VBO,5.809045,51.463205
Hennegras,52,,,5754EJ,Deurne,Deurne,Noord-Brabant,VBO,5.809002,51.463178
Hennegras,54,,,5754EJ,Deurne,Deurne,Noord-Brabant,VBO,5.808915,51.463161
Hennegras,56,,,5754EJ,Deurne,Deurne,Noord-Brabant,VBO,5.808858,51.463143
Hennegras,58,,,5754EJ,Deurne,Deurne,Noord-Brabant,VBO,5.808786,51.463134
Veenmossingel,1,,,5754EK,Deurne,Deurne,Noord-Brabant,VBO,5.804731,51.463472
Veenmossingel,3,,,5754EK,Deurne,Deurne,Noord-Brabant,VBO,5.804917,51.463436
Veenmossingel,9,,,5754EK,Deurne,Deurne,Noord-Brabant,VBO,5.805593,51.463299
Veenmossingel,11,,,5754EK,Deurne,Deurne,Noord-Brabant,VBO,5.805665,51.463307
Veenmossingel,13,,,5754EK,Deurne,Deurne,Noord-Brabant,VBO,5.805765,51.463298
Veenmossingel,15,,,5754EK,Deurne,Deurne,Noord-Brabant,VBO,5.805823,51.463298
Veenmossingel,17,,,5754EK,Deurne,Deurne,Noord-Brabant,VBO,5.805909,51.463288
Veenmossingel,19,,,5754EK,Deurne,Deurne,Noord-Brabant,VBO,5.805995,51.463288
Veenmossingel,21,,,5754EK,Deurne,Deurne,Noord-Brabant,VBO,5.806082,51.463288
Veenmossingel,23,,,5754EK,Deurne,Deurne,Noord-Brabant,VBO,5.806154,51.463288
Veenmossingel,25,,,5754EK,Deurne,Deurne,Noord-Brabant,VBO,5.806240,51.463278
Veenmossingel,27,,,5754EK,Deurne,Deurne,Noord-Brabant,VBO,5.806556,51.463268
Veenmossingel,29,,,5754EK,Deurne,Deurne,Noord-Brabant,VBO,5.806571,51.463322
Veenmossingel,31,,,5754EK,Deurne,Deurne,Noord-Brabant,VBO,5.806557,51.463367
Veenmossingel,33,,,5754EK,Deurne,Deurne,Noord-Brabant,VBO,5.806558,51.463421
Veenmossingel,35,,,5754EK,Deurne,Deurne,Noord-Brabant,VBO,5.806630,51.463457
Veenmossingel,37,,,5754EK,Deurne,Deurne,Noord-Brabant,VBO,5.806630,51.463502
Veenmossingel,39,,,5754EK,Deurne,Deurne,Noord-Brabant,VBO,5.806617,51.463565
Veenmossingel,41,,,5754EK,Deurne,Deurne,Noord-Brabant,VBO,5.806631,51.463609
Veenmossingel,43,,,5754EK,Deurne,Deurne,Noord-Brabant,VBO,5.806862,51.463627
Veenmossingel,45,,,5754EK,Deurne,Deurne,Noord-Brabant,VBO,5.806934,51.463635
Veenmossingel,47,,,5754EK,Deurne,Deurne,Noord-Brabant,VBO,5.807035,51.463626
Veenmossingel,49,,,5754EK,Deurne,Deurne,Noord-Brabant,VBO,5.807106,51.463626
Veenmossingel,51,,,5754EK,Deurne,Deurne,Noord-Brabant,VBO,5.807178,51.463616
Veenmossingel,53,,,5754EK,Deurne,Deurne,Noord-Brabant,VBO,5.807250,51.463616
Veenmossingel,55,,,5754EK,Deurne,Deurne,Noord-Brabant,VBO,5.807409,51.463607
Veenmossingel,57,,,5754EK,Deurne,Deurne,Noord-Brabant,VBO,5.807481,51.463624
Veenmossingel,59,,,5754EK,Deurne,Deurne,Noord-Brabant,VBO,5.807567,51.463633
Veenmossingel,61,,,5754EK,Deurne,Deurne,Noord-Brabant,VBO,5.807639,51.463633
Veenmossingel,2,,,5754EL,Deurne,Deurne,Noord-Brabant,VBO,5.805001,51.463175
Veenmossingel,4,,,5754EL,Deurne,Deurne,Noord-Brabant,VBO,5.805102,51.463148
Veenmossingel,6,,,5754EL,Deurne,Deurne,Noord-Brabant,VBO,5.805231,51.463120
Veenmossingel,8,,,5754EL,Deurne,Deurne,Noord-Brabant,VBO,5.805332,51.463102
Veenmossingel,10,,,5754EL,Deurne,Deurne,Noord-Brabant,VBO,5.806108,51.463036
Veenmossingel,12,,,5754EL,Deurne,Deurne,Noord-Brabant,VBO,5.806166,51.463036
Veenmossingel,14,,,5754EL,Deurne,Deurne,Noord-Brabant,VBO,5.806252,51.463036
Veenmossingel,16,,,5754EL,Deurne,Deurne,Noord-Brabant,VBO,5.806338,51.463035
Veenmossingel,18,,,5754EL,Deurne,Deurne,Noord-Brabant,VBO,5.806410,51.463035
Veenmossingel,20,,,5754EL,Deurne,Deurne,Noord-Brabant,VBO,5.806597,51.463043
Veenmossingel,22,,,5754EL,Deurne,Deurne,Noord-Brabant,VBO,5.806684,51.463052
Veenmossingel,24,,,5754EL,Deurne,Deurne,Noord-Brabant,VBO,5.806742,51.463070
Veenmossingel,26,,,5754EL,Deurne,Deurne,Noord-Brabant,VBO,5.806814,51.463078
Veenmossingel,28,,,5754EL,Deurne,Deurne,Noord-Brabant,VBO,5.806972,51.463132
Veenmossingel,30,,,5754EL,Deurne,Deurne,Noord-Brabant,VBO,5.807044,51.463141
Veenmossingel,32,,,5754EL,Deurne,Deurne,Noord-Brabant,VBO,5.807117,51.463158
Veenmossingel,34,,,5754EL,Deurne,Deurne,Noord-Brabant,VBO,5.807203,51.463176
Veenmossingel,36,,,5754EL,Deurne,Deurne,Noord-Brabant,VBO,5.807275,51.463185
Veenmossingel,38,,,5754EL,Deurne,Deurne,Noord-Brabant,VBO,5.807347,51.463202
Veenmossingel,40,,,5754EL,Deurne,Deurne,Noord-Brabant,VBO,5.807434,51.463220
Veenmossingel,42,,,5754EM,Deurne,Deurne,Noord-Brabant,VBO,5.808054,51.463398
Veenmossingel,44,,,5754EM,Deurne,Deurne,Noord-Brabant,VBO,5.808126,51.463415
Veenmossingel,46,,,5754EM,Deurne,Deurne,Noord-Brabant,VBO,5.808198,51.463424
Veenmossingel,48,,,5754EM,Deurne,Deurne,Noord-Brabant,VBO,5.808285,51.463433
Veenmossingel,50,,,5754EM,Deurne,Deurne,Noord-Brabant,VBO,5.808355,51.463235
Veenmossingel,52,,,5754EM,Deurne,Deurne,Noord-Brabant,VBO,5.808383,51.463199
Veenmossingel,54,,,5754EM,Deurne,Deurne,Noord-Brabant,VBO,5.808383,51.463154
Veenmossingel,56,,,5754EM,Deurne,Deurne,Noord-Brabant,VBO,5.808426,51.463100
Veenmossingel,58,,,5754EM,Deurne,Deurne,Noord-Brabant,VBO,5.808439,51.463046
Veenmossingel,60,,,5754EM,Deurne,Deurne,Noord-Brabant,VBO,5.808496,51.462947
Veenmossingel,62,,,5754EM,Deurne,Deurne,Noord-Brabant,VBO,5.808553,51.462910
Veenmossingel,64,,,5754EM,Deurne,Deurne,Noord-Brabant,VBO,5.808582,51.462874
Veenmossingel,66,,,5754EM,Deurne,Deurne,Noord-Brabant,VBO,5.808624,51.462829
Veenmossingel,68,,,5754EM,Deurne,Deurne,Noord-Brabant,VBO,5.808681,51.462712
Veenmossingel,70,,,5754EM,Deurne,Deurne,Noord-Brabant,VBO,5.808724,51.462685
Veenmossingel,72,,,5754EM,Deurne,Deurne,Noord-Brabant,VBO,5.808781,51.462640
Wollegras,1,,,5754EN,Deurne,Deurne,Noord-Brabant,VBO,5.805691,51.463083
Wollegras,3,,,5754EN,Deurne,Deurne,Noord-Brabant,VBO,5.805691,51.463020
Wollegras,5,,,5754EN,Deurne,Deurne,Noord-Brabant,VBO,5.805676,51.462966
Wollegras,7,,,5754EN,Deurne,Deurne,Noord-Brabant,VBO,5.805675,51.462921
Wollegras,9,,,5754EN,Deurne,Deurne,Noord-Brabant,VBO,5.805660,51.462867
Wollegras,11,,,5754EN,Deurne,Deurne,Noord-Brabant,VBO,5.805674,51.462813
Wollegras,13,,,5754EN,Deurne,Deurne,Noord-Brabant,VBO,5.805685,51.462772
Wollegras,15,,,5754EN,Deurne,Deurne,Noord-Brabant,VBO,5.805659,51.462723
Wollegras,17,,,5754EN,Deurne,Deurne,Noord-Brabant,VBO,5.806062,51.462686
Wollegras,19,,,5754EN,Deurne,Deurne,Noord-Brabant,VBO,5.806134,51.462685
Wollegras,21,,,5754EN,Deurne,Deurne,Noord-Brabant,VBO,5.806206,51.462685
Wollegras,23,,,5754EN,Deurne,Deurne,Noord-Brabant,VBO,5.806292,51.462685
Wollegras,25,,,5754EN,Deurne,Deurne,Noord-Brabant,VBO,5.806479,51.462702
Wollegras,27,,,5754EN,Deurne,Deurne,Noord-Brabant,VBO,5.806566,51.462711
Wollegras,29,,,5754EN,Deurne,Deurne,Noord-Brabant,VBO,5.806623,51.462729
Wollegras,31,,,5754EN,Deurne,Deurne,Noord-Brabant,VBO,5.806710,51.462737
Wollegras,33,,,5754EN,Deurne,Deurne,Noord-Brabant,VBO,5.806782,51.462755
Wollegras,35,,,5754EN,Deurne,Deurne,Noord-Brabant,VBO,5.806854,51.462764
Wollegras,37,,,5754EN,Deurne,Deurne,Noord-Brabant,VBO,5.807027,51.462772
Wollegras,39,,,5754EN,Deurne,Deurne,Noord-Brabant,VBO,5.807084,51.462790
Wollegras,41,,,5754EN,Deurne,Deurne,Noord-Brabant,VBO,5.807156,51.462799
Wollegras,43,,,5754EN,Deurne,Deurne,Noord-Brabant,VBO,5.807229,51.462816
Wollegras,45,,,5754EN,Deurne,Deurne,Noord-Brabant,VBO,5.807603,51.462842
Wollegras,47,,,5754EN,Deurne,Deurne,Noord-Brabant,VBO,5.807589,51.462896
Wollegras,49,,,5754EN,Deurne,Deurne,Noord-Brabant,VBO,5.807561,51.462941
Wollegras,51,,,5754EN,Deurne,Deurne,Noord-Brabant,VBO,5.807532,51.462986
Wollegras,2,,,5754EP,Deurne,Deurne,Noord-Brabant,VBO,5.805402,51.462922
Wollegras,4,,,5754EP,Deurne,Deurne,Noord-Brabant,VBO,5.805387,51.462850
Wollegras,6,,,5754EP,Deurne,Deurne,Noord-Brabant,VBO,5.805357,51.462769
Wollegras,8,,,5754EP,Deurne,Deurne,Noord-Brabant,VBO,5.805357,51.462706
Wollegras,10,,,5754EP,Deurne,Deurne,Noord-Brabant,VBO,5.805327,51.462607
Wollegras,12,,,5754EP,Deurne,Deurne,Noord-Brabant,VBO,5.805312,51.462554
Wollegras,14,,,5754EP,Deurne,Deurne,Noord-Brabant,VBO,5.805283,51.462464
Wollegras,16,,,5754EP,Deurne,Deurne,Noord-Brabant,VBO,5.805282,51.462410
Wollegras,18,,,5754EP,Deurne,Deurne,Noord-Brabant,VBO,5.805571,51.462508
Wollegras,20,,,5754EP,Deurne,Deurne,Noord-Brabant,VBO,5.805657,51.462507
Wollegras,22,,,5754EP,Deurne,Deurne,Noord-Brabant,VBO,5.805844,51.462498
Wollegras,24,,,5754EP,Deurne,Deurne,Noord-Brabant,VBO,5.805945,51.462488
Wollegras,30,,,5754EP,Deurne,Deurne,Noord-Brabant,VBO,5.806448,51.462478
Wollegras,32,,,5754EP,Deurne,Deurne,Noord-Brabant,VBO,5.806506,51.462477
Wollegras,34,,,5754EP,Deurne,Deurne,Noord-Brabant,VBO,5.806664,51.462468
Wollegras,36,,,5754EP,Deurne,Deurne,Noord-Brabant,VBO,5.806765,51.462458
Wollegras,38,,,5754EP,Deurne,Deurne,Noord-Brabant,VBO,5.806909,51.462458
Wollegras,40,,,5754EP,Deurne,Deurne,Noord-Brabant,VBO,5.807009,51.462449
Wollegras,42,,,5754EP,Deurne,Deurne,Noord-Brabant,VBO,5.807183,51.462547
Wollegras,44,,,5754EP,Deurne,Deurne,Noord-Brabant,VBO,5.807284,51.462573
Wollegras,46,a,,5754EP,Deurne,Deurne,Noord-Brabant,VBO,5.807543,51.462617
Wollegras,46,,,5754EP,Deurne,Deurne,Noord-Brabant,VBO,5.807457,51.462591
Wollegras,48,a,,5754EP,Deurne,Deurne,Noord-Brabant,VBO,5.807787,51.462572
Wollegras,48,b,,5754EP,Deurne,Deurne,Noord-Brabant,VBO,5.808262,51.462570
Wollegras,48,,,5754EP,Deurne,Deurne,Noord-Brabant,VBO,5.807731,51.462644
Wollegras,50,,,5754ER,Deurne,Deurne,Noord-Brabant,VBO,5.808205,51.462597
Wollegras,52,,,5754ER,Deurne,Deurne,Noord-Brabant,VBO,5.808162,51.462642
Wollegras,54,,,5754ER,Deurne,Deurne,Noord-Brabant,VBO,5.808120,51.462687
Wollegras,56,,,5754ER,Deurne,Deurne,Noord-Brabant,VBO,5.808062,51.462723
Wollegras,58,,,5754ER,Deurne,Deurne,Noord-Brabant,VBO,5.807991,51.462805
Wollegras,60,,,5754ER,Deurne,Deurne,Noord-Brabant,VBO,5.807963,51.462841
Wollegras,62,,,5754ER,Deurne,Deurne,Noord-Brabant,VBO,5.807934,51.462895
Wollegras,64,,,5754ER,Deurne,Deurne,Noord-Brabant,VBO,5.807920,51.462931
Wollegras,66,,,5754ER,Deurne,Deurne,Noord-Brabant,VBO,5.807906,51.462976
Wollegras,68,,,5754ER,Deurne,Deurne,Noord-Brabant,VBO,5.807849,51.463039
Wollegras,70,,,5754ER,Deurne,Deurne,Noord-Brabant,VBO,5.807835,51.463084
Wollegras,72,,,5754ER,Deurne,Deurne,Noord-Brabant,VBO,5.807793,51.463138
Wollegras,74,,,5754ER,Deurne,Deurne,Noord-Brabant,VBO,5.807793,51.463183
Wollegras,76,,,5754ER,Deurne,Deurne,Noord-Brabant,VBO,5.807794,51.463255
Wollegras,78,,,5754ER,Deurne,Deurne,Noord-Brabant,VBO,5.807766,51.463318
Wollegras,80,,,5754ER,Deurne,Deurne,Noord-Brabant,VBO,5.807752,51.463354
Veenmossingel,63,,,5754ES,Deurne,Deurne,Noord-Brabant,VBO,5.807956,51.463641
Veenmossingel,65,,,5754ES,Deurne,Deurne,Noord-Brabant,VBO,5.808028,51.463658
Veenmossingel,67,,,5754ES,Deurne,Deurne,Noord-Brabant,VBO,5.808100,51.463667
Veenmossingel,69,,,5754ES,Deurne,Deurne,Noord-Brabant,VBO,5.808157,51.463658
Veenmossingel,71,,,5754ES,Deurne,Deurne,Noord-Brabant,VBO,5.808244,51.463676
Veenmossingel,73,,,5754ES,Deurne,Deurne,Noord-Brabant,VBO,5.808330,51.463693
Veenmossingel,75,,,5754ES,Deurne,Deurne,Noord-Brabant,VBO,5.808617,51.463548
Veenmossingel,77,,,5754ES,Deurne,Deurne,Noord-Brabant,VBO,5.808631,51.463503
Veenmossingel,79,,,5754ES,Deurne,Deurne,Noord-Brabant,VBO,5.808645,51.463458
Veenmossingel,81,,,5754ES,Deurne,Deurne,Noord-Brabant,VBO,5.808644,51.463422
Veenmossingel,83,,,5754ES,Deurne,Deurne,Noord-Brabant,VBO,5.808658,51.463377
Veenmossingel,85,,,5754ES,Deurne,Deurne,Noord-Brabant,VBO,5.808687,51.463314
Veenmossingel,87,,,5754ES,Deurne,Deurne,Noord-Brabant,VBO,5.809014,51.462927
Veenmossingel,89,,,5754ES,Deurne,Deurne,Noord-Brabant,VBO,5.809071,51.462882
Veenmossingel,91,,,5754ES,Deurne,Deurne,Noord-Brabant,VBO,5.809157,51.462791
Veenmossingel,93,,,5754ES,Deurne,Deurne,Noord-Brabant,VBO,5.809170,51.462737
Veenmossingel,101,,,5754ES,Deurne,Deurne,Noord-Brabant,VBO,5.809312,51.462426
Veenmossingel,103,,,5754ES,Deurne,Deurne,Noord-Brabant,VBO,5.809282,51.462359
Veenmossingel,105,,,5754ES,Deurne,Deurne,Noord-Brabant,VBO,5.809339,51.462251
Veenmossingel,107,,,5754ES,Deurne,Deurne,Noord-Brabant,VBO,5.809353,51.462206
Veenmossingel,109,,,5754ES,Deurne,Deurne,Noord-Brabant,VBO,5.809380,51.462107
Veenmossingel,111,,,5754ES,Deurne,Deurne,Noord-Brabant,VBO,5.809380,51.462045
Veenmossingel,113,,,5754ES,Deurne,Deurne,Noord-Brabant,VBO,5.809436,51.461927
Veenmossingel,115,,,5754ES,Deurne,Deurne,Noord-Brabant,VBO,5.809493,51.461864
Veenmossingel,117,,,5754ES,Deurne,Deurne,Noord-Brabant,VBO,5.809564,51.461702
Veenmossingel,119,,,5754ES,Deurne,Deurne,Noord-Brabant,VBO,5.809636,51.461684
Veenmossingel,121,,,5754ES,Deurne,Deurne,Noord-Brabant,VBO,5.810009,51.461611
Veenmossingel,123,,,5754ES,Deurne,Deurne,Noord-Brabant,VBO,5.810081,51.461593
Veenmossingel,102,,,5754EV,Deurne,Deurne,Noord-Brabant,VBO,5.808963,51.462037
Veenmossingel,104,,,5754EV,Deurne,Deurne,Noord-Brabant,VBO,5.808991,51.461983
Veenmossingel,106,,,5754EV,Deurne,Deurne,Noord-Brabant,VBO,5.809005,51.461938
Veenmossingel,108,,,5754EV,Deurne,Deurne,Noord-Brabant,VBO,5.809047,51.461884
Veenmossingel,110,,,5754EV,Deurne,Deurne,Noord-Brabant,VBO,5.809061,51.461848
Veenmossingel,112,,,5754EV,Deurne,Deurne,Noord-Brabant,VBO,5.809075,51.461785
Veenmossingel,116,,,5754EV,Deurne,Deurne,Noord-Brabant,VBO,5.809475,51.461469
Veenmossingel,118,,,5754EV,Deurne,Deurne,Noord-Brabant,VBO,5.809619,51.461423
Veenmossingel,120,,,5754EV,Deurne,Deurne,Noord-Brabant,VBO,5.809691,51.461405
Veenmossingel,122,,,5754EV,Deurne,Deurne,Noord-Brabant,VBO,5.809873,51.461357
Veenmossingel,124,,,5754EV,Deurne,Deurne,Noord-Brabant,VBO,5.809934,51.461332
Peellandsingel,1,,,5754GA,Deurne,Deurne,Noord-Brabant,VBO,5.809391,51.460184
Peellandsingel,3,,,5754GA,Deurne,Deurne,Noord-Brabant,VBO,5.809478,51.460246
Peellandsingel,5,,,5754GA,Deurne,Deurne,Noord-Brabant,VBO,5.809537,51.460336
Peellandsingel,7,,,5754GA,Deurne,Deurne,Noord-Brabant,VBO,5.809638,51.460408
Peellandsingel,9,,,5754GA,Deurne,Deurne,Noord-Brabant,VBO,5.809754,51.460488
Peellandsingel,11,,,5754GA,Deurne,Deurne,Noord-Brabant,VBO,5.809812,51.460533
Peellandsingel,13,,,5754GA,Deurne,Deurne,Noord-Brabant,VBO,5.809957,51.460631
Peellandsingel,15,,,5754GA,Deurne,Deurne,Noord-Brabant,VBO,5.810015,51.460685
Peellandsingel,17,,,5754GA,Deurne,Deurne,Noord-Brabant,VBO,5.810102,51.460783
Peellandsingel,19,,,5754GA,Deurne,Deurne,Noord-Brabant,VBO,5.810146,51.460855
Peellandsingel,21,,,5754GA,Deurne,Deurne,Noord-Brabant,VBO,5.810162,51.461035
Peellandsingel,23,,,5754GA,Deurne,Deurne,Noord-Brabant,VBO,5.810134,51.461089
Peellandsingel,25,,,5754GA,Deurne,Deurne,Noord-Brabant,VBO,5.810077,51.461188
Peellandsingel,27,,,5754GA,Deurne,Deurne,Noord-Brabant,VBO,5.810049,51.461233
Peellandsingel,47,,,5754GA,Deurne,Deurne,Noord-Brabant,VBO,5.810454,51.461474
Peellandsingel,49,,,5754GA,Deurne,Deurne,Noord-Brabant,VBO,5.810469,51.461528
Peellandsingel,51,,,5754GA,Deurne,Deurne,Noord-Brabant,VBO,5.810556,51.461654
Peellandsingel,53,,,5754GA,Deurne,Deurne,Noord-Brabant,VBO,5.810686,51.461680
Peellandsingel,55,,,5754GA,Deurne,Deurne,Noord-Brabant,VBO,5.810917,51.461742
Peellandsingel,57,,,5754GA,Deurne,Deurne,Noord-Brabant,VBO,5.810975,51.461823
Peellandsingel,61,,,5754GB,Deurne,Deurne,Noord-Brabant,VBO,5.812258,51.462070
Peellandsingel,63,,,5754GB,Deurne,Deurne,Noord-Brabant,VBO,5.812345,51.462088
Peellandsingel,65,,,5754GB,Deurne,Deurne,Noord-Brabant,VBO,5.812503,51.462132
Peellandsingel,67,,,5754GB,Deurne,Deurne,Noord-Brabant,VBO,5.812590,51.462150
Peellandsingel,69,,,5754GB,Deurne,Deurne,Noord-Brabant,VBO,5.812748,51.462185
Peellandsingel,71,,,5754GB,Deurne,Deurne,Noord-Brabant,VBO,5.812840,51.462211
Peellandsingel,73,,,5754GB,Deurne,Deurne,Noord-Brabant,VBO,5.813008,51.462229
Peellandsingel,75,,,5754GB,Deurne,Deurne,Noord-Brabant,VBO,5.813094,51.462229
Peellandsingel,77,,,5754GB,Deurne,Deurne,Noord-Brabant,VBO,5.813267,51.462219
Peellandsingel,79,,,5754GB,Deurne,Deurne,Noord-Brabant,VBO,5.813353,51.462219
Peellandsingel,81,,,5754GB,Deurne,Deurne,Noord-Brabant,VBO,5.813627,51.462245
Peellandsingel,83,,,5754GB,Deurne,Deurne,Noord-Brabant,VBO,5.813714,51.462334
Peellandsingel,85,,,5754GB,Deurne,Deurne,Noord-Brabant,VBO,5.813830,51.462442
Peellandsingel,87,,,5754GB,Deurne,Deurne,Noord-Brabant,VBO,5.813830,51.462487
Peellandsingel,89,,,5754GB,Deurne,Deurne,Noord-Brabant,VBO,5.813846,51.462568
Peellandsingel,91,,,5754GB,Deurne,Deurne,Noord-Brabant,VBO,5.813845,51.462861
Peellandsingel,93,,,5754GB,Deurne,Deurne,Noord-Brabant,VBO,5.813788,51.462912
Peellandsingel,95,,,5754GB,Deurne,Deurne,Noord-Brabant,VBO,5.813761,51.462961
Peellandsingel,97,,,5754GB,Deurne,Deurne,Noord-Brabant,VBO,5.813735,51.463017
Peellandsingel,99,,,5754GB,Deurne,Deurne,Noord-Brabant,VBO,5.813710,51.463073
Peellandsingel,101,,,5754GB,Deurne,Deurne,Noord-Brabant,VBO,5.813682,51.463125
Peellandsingel,103,,,5754GB,Deurne,Deurne,Noord-Brabant,VBO,5.813654,51.463178
Peellandsingel,111,,,5754GB,Deurne,Deurne,Noord-Brabant,VBO,5.813451,51.463511
Peellandsingel,113,,,5754GB,Deurne,Deurne,Noord-Brabant,VBO,5.813409,51.463585
Peellandsingel,115,,,5754GB,Deurne,Deurne,Noord-Brabant,VBO,5.813367,51.463675
Peellandsingel,117,,,5754GB,Deurne,Deurne,Noord-Brabant,VBO,5.813324,51.463738
Peellandsingel,2,a,,5754GC,Deurne,Deurne,Noord-Brabant,VBO,5.810137,51.459902
Peellandsingel,2,,,5754GC,Deurne,Deurne,Noord-Brabant,VBO,5.810222,51.459740
Peellandsingel,4,,,5754GC,Deurne,Deurne,Noord-Brabant,VBO,5.810066,51.460029
Peellandsingel,6,a,,5754GC,Deurne,Deurne,Noord-Brabant,VBO,5.810155,51.460253
Peellandsingel,6,,,5754GC,Deurne,Deurne,Noord-Brabant,VBO,5.810068,51.460190
Peellandsingel,8,,,5754GC,Deurne,Deurne,Noord-Brabant,VBO,5.810401,51.460414
Peellandsingel,10,,,5754GC,Deurne,Deurne,Noord-Brabant,VBO,5.810416,51.460477
Peellandsingel,12,,,5754GC,Deurne,Deurne,Noord-Brabant,VBO,5.810488,51.460557
Peellandsingel,14,,,5754GC,Deurne,Deurne,Noord-Brabant,VBO,5.810532,51.460611
Peellandsingel,16,,,5754GC,Deurne,Deurne,Noord-Brabant,VBO,5.810605,51.460701
Peellandsingel,18,,,5754GC,Deurne,Deurne,Noord-Brabant,VBO,5.810663,51.460745
Peellandsingel,20,,,5754GC,Deurne,Deurne,Noord-Brabant,VBO,5.810722,51.460943
Peellandsingel,22,,,5754GC,Deurne,Deurne,Noord-Brabant,VBO,5.810766,51.460997
Peellandsingel,24,,,5754GC,Deurne,Deurne,Noord-Brabant,VBO,5.810810,51.461051
Peellandsingel,26,,,5754GC,Deurne,Deurne,Noord-Brabant,VBO,5.810839,51.461104
Peellandsingel,28,,,5754GC,Deurne,Deurne,Noord-Brabant,VBO,5.810897,51.461167
Peellandsingel,30,a,,5754GC,Deurne,Deurne,Noord-Brabant,VBO,5.810926,51.461203
Peellandsingel,30,b,,5754GC,Deurne,Deurne,Noord-Brabant,VBO,5.810955,51.461185
Peellandsingel,30,,,5754GC,Deurne,Deurne,Noord-Brabant,VBO,5.810955,51.461239
Peellandsingel,32,a,,5754GC,Deurne,Deurne,Noord-Brabant,VBO,5.810956,51.461284
Peellandsingel,32,b,,5754GC,Deurne,Deurne,Noord-Brabant,VBO,5.810984,51.461248
Peellandsingel,32,,,5754GC,Deurne,Deurne,Noord-Brabant,VBO,5.810999,51.461302
Peellandsingel,34,,,5754GC,Deurne,Deurne,Noord-Brabant,VBO,5.811043,51.461355
Peellandsingel,36,,,5754GC,Deurne,Deurne,Noord-Brabant,VBO,5.811095,51.461339
Peellandsingel,38,,,5754GC,Deurne,Deurne,Noord-Brabant,VBO,5.811131,51.461406
Peellandsingel,40,,,5754GC,Deurne,Deurne,Noord-Brabant,VBO,5.811173,51.461457
Peellandsingel,42,,,5754GC,Deurne,Deurne,Noord-Brabant,VBO,5.811203,51.461526
Peellandsingel,44,,,5754GC,Deurne,Deurne,Noord-Brabant,VBO,5.811217,51.461561
Peellandsingel,46,,,5754GC,Deurne,Deurne,Noord-Brabant,VBO,5.812328,51.461809
Peellandsingel,48,,,5754GD,Deurne,Deurne,Noord-Brabant,VBO,5.812414,51.461827
Peellandsingel,50,,,5754GD,Deurne,Deurne,Noord-Brabant,VBO,5.812573,51.461853
Peellandsingel,52,,,5754GD,Deurne,Deurne,Noord-Brabant,VBO,5.812645,51.461880
Peellandsingel,54,,,5754GD,Deurne,Deurne,Noord-Brabant,VBO,5.812803,51.461915
Peellandsingel,56,,,5754GD,Deurne,Deurne,Noord-Brabant,VBO,5.812890,51.461933
Peellandsingel,58,,,5754GD,Deurne,Deurne,Noord-Brabant,VBO,5.813106,51.461950
Peellandsingel,60,,,5754GD,Deurne,Deurne,Noord-Brabant,VBO,5.813192,51.461941
Peellandsingel,62,,,5754GD,Deurne,Deurne,Noord-Brabant,VBO,5.813350,51.461931
Peellandsingel,64,,,5754GD,Deurne,Deurne,Noord-Brabant,VBO,5.813422,51.461931
Peellandsingel,78,,,5754GD,Deurne,Deurne,Noord-Brabant,VBO,5.813927,51.462028
Peellandsingel,80,,,5754GD,Deurne,Deurne,Noord-Brabant,VBO,5.814129,51.462126
Peellandsingel,82,,,5754GD,Deurne,Deurne,Noord-Brabant,VBO,5.814317,51.462242
Peellandsingel,84,,,5754GD,Deurne,Deurne,Noord-Brabant,VBO,5.814276,51.462377
Peellandsingel,86,,,5754GD,Deurne,Deurne,Noord-Brabant,VBO,5.814291,51.462503
Peellandsingel,88,,,5754GD,Deurne,Deurne,Noord-Brabant,VBO,5.814292,51.462557
Peellandsingel,90,,,5754GD,Deurne,Deurne,Noord-Brabant,VBO,5.814307,51.462674
Peellandsingel,92,,,5754GD,Deurne,Deurne,Noord-Brabant,VBO,5.814322,51.462728
Peellandsingel,94,,,5754GD,Deurne,Deurne,Noord-Brabant,VBO,5.814168,51.463142
Peellandsingel,96,,,5754GD,Deurne,Deurne,Noord-Brabant,VBO,5.814154,51.463205
Peellandsingel,98,,,5754GD,Deurne,Deurne,Noord-Brabant,VBO,5.814097,51.463286
Peellandsingel,100,,,5754GD,Deurne,Deurne,Noord-Brabant,VBO,5.814052,51.463338
Peellandsingel,102,,,5754GD,Deurne,Deurne,Noord-Brabant,VBO,5.813899,51.463637
Peellandsingel,104,,,5754GD,Deurne,Deurne,Noord-Brabant,VBO,5.813885,51.463673
Peellandsingel,106,,,5754GD,Deurne,Deurne,Noord-Brabant,VBO,5.813828,51.463781
Peellandsingel,108,,,5754GD,Deurne,Deurne,Noord-Brabant,VBO,5.813800,51.463835
Peellandsingel,110,,,5754GE,Deurne,Deurne,Noord-Brabant,VBO,5.813458,51.464232
Peellandsingel,112,,,5754GE,Deurne,Deurne,Noord-Brabant,VBO,5.813427,51.464266
Peellandsingel,114,,,5754GE,Deurne,Deurne,Noord-Brabant,VBO,5.813387,51.464322
Peellandsingel,116,,,5754GE,Deurne,Deurne,Noord-Brabant,VBO,5.813373,51.464367
Peellandsingel,118,,,5754GE,Deurne,Deurne,Noord-Brabant,VBO,5.813317,51.464475
Peellandsingel,120,,,5754GE,Deurne,Deurne,Noord-Brabant,VBO,5.813274,51.464511
Peellandsingel,122,,,5754GE,Deurne,Deurne,Noord-Brabant,VBO,5.813245,51.464556
Peellandsingel,124,,,5754GE,Deurne,Deurne,Noord-Brabant,VBO,5.813246,51.464601
Peellandsingel,126,,,5754GE,Deurne,Deurne,Noord-Brabant,VBO,5.813088,51.464674
Peellandsingel,128,,,5754GE,Deurne,Deurne,Noord-Brabant,VBO,5.813088,51.464674
Peellandsingel,130,,,5754GE,Deurne,Deurne,Noord-Brabant,VBO,5.813088,51.464674
Peellandsingel,132,,,5754GE,Deurne,Deurne,Noord-Brabant,VBO,5.813088,51.464674
Peellandsingel,134,,,5754GE,Deurne,Deurne,Noord-Brabant,VBO,5.812887,51.464701
Peellandsingel,136,,,5754GE,Deurne,Deurne,Noord-Brabant,VBO,5.812800,51.464675
Peellandsingel,138,,,5754GE,Deurne,Deurne,Noord-Brabant,VBO,5.812728,51.464657
Peellandsingel,140,,,5754GE,Deurne,Deurne,Noord-Brabant,VBO,5.812570,51.464622
Peellandsingel,142,,,5754GE,Deurne,Deurne,Noord-Brabant,VBO,5.812560,51.464666
Peellandsingel,144,,,5754GE,Deurne,Deurne,Noord-Brabant,VBO,5.812544,51.464706
Peellandsingel,146,,,5754GE,Deurne,Deurne,Noord-Brabant,VBO,5.812501,51.464784
Peellandsingel,148,,,5754GE,Deurne,Deurne,Noord-Brabant,VBO,5.812473,51.464836
Peellandsingel,150,,,5754GE,Deurne,Deurne,Noord-Brabant,VBO,5.812452,51.464887
Peellandsingel,152,,,5754GE,Deurne,Deurne,Noord-Brabant,VBO,5.812415,51.464955
Peellandsingel,154,,,5754GE,Deurne,Deurne,Noord-Brabant,VBO,5.812386,51.464991
Peellandsingel,156,,,5754GE,Deurne,Deurne,Noord-Brabant,VBO,5.812058,51.465343
Peellandsingel,158,,,5754GE,Deurne,Deurne,Noord-Brabant,VBO,5.812030,51.465406
Peelrand,2,,,5754GG,Deurne,Deurne,Noord-Brabant,VBO,5.812276,51.459945
Peelrand,4,,,5754GG,Deurne,Deurne,Noord-Brabant,VBO,5.812399,51.460048
Peelrand,5,,,5754GG,Deurne,Deurne,Noord-Brabant,VBO,5.812083,51.459363
Peelrand,6,,,5754GG,Deurne,Deurne,Noord-Brabant,VBO,5.812458,51.460098
Peelrand,7,,,5754GG,Deurne,Deurne,Noord-Brabant,VBO,5.811964,51.459443
Peelrand,9,,,5754GG,Deurne,Deurne,Noord-Brabant,VBO,5.811918,51.459476
Peelrand,11,,,5754GG,Deurne,Deurne,Noord-Brabant,VBO,5.811866,51.459515
Peelrand,13,,,5754GG,Deurne,Deurne,Noord-Brabant,VBO,5.811741,51.459598
Peelrand,15,,,5754GG,Deurne,Deurne,Noord-Brabant,VBO,5.811686,51.459648
Peelrand,17,,,5754GG,Deurne,Deurne,Noord-Brabant,VBO,5.811642,51.459771
Peelrand,19,,,5754GG,Deurne,Deurne,Noord-Brabant,VBO,5.811705,51.459861
Peelrand,21,,,5754GG,Deurne,Deurne,Noord-Brabant,VBO,5.811742,51.459908
Peelrand,23,,,5754GG,Deurne,Deurne,Noord-Brabant,VBO,5.811833,51.460020
Peelrand,25,,,5754GG,Deurne,Deurne,Noord-Brabant,VBO,5.811869,51.460068
Peelrand,27,,,5754GG,Deurne,Deurne,Noord-Brabant,VBO,5.811907,51.460119
Peelrand,29,,,5754GG,Deurne,Deurne,Noord-Brabant,VBO,5.811946,51.460169
Peelrand,31,,,5754GG,Deurne,Deurne,Noord-Brabant,VBO,5.812202,51.460457
Peelrand,33,,,5754GG,Deurne,Deurne,Noord-Brabant,VBO,5.812243,51.460510
Zonnedauw,1,,,5754GH,Deurne,Deurne,Noord-Brabant,VBO,5.810831,51.460277
Zonnedauw,3,,,5754GH,Deurne,Deurne,Noord-Brabant,VBO,5.810875,51.460322
Zonnedauw,4,,,5754GH,Deurne,Deurne,Noord-Brabant,VBO,5.810600,51.460125
Zonnedauw,5,,,5754GH,Deurne,Deurne,Noord-Brabant,VBO,5.810976,51.460412
Zonnedauw,6,,,5754GH,Deurne,Deurne,Noord-Brabant,VBO,5.810945,51.460088
Zonnedauw,7,,,5754GH,Deurne,Deurne,Noord-Brabant,VBO,5.811006,51.460457
Zonnedauw,8,,,5754GH,Deurne,Deurne,Noord-Brabant,VBO,5.811219,51.460204
Zonnedauw,9,,,5754GH,Deurne,Deurne,Noord-Brabant,VBO,5.811093,51.460555
Zonnedauw,10,,,5754GH,Deurne,Deurne,Noord-Brabant,VBO,5.811263,51.460276
Zonnedauw,11,,,5754GH,Deurne,Deurne,Noord-Brabant,VBO,5.811122,51.460600
Zonnedauw,12,,,5754GH,Deurne,Deurne,Noord-Brabant,VBO,5.811336,51.460357
Zonnedauw,14,,,5754GH,Deurne,Deurne,Noord-Brabant,VBO,5.811394,51.460428
Zonnedauw,16,a,,5754GH,Deurne,Deurne,Noord-Brabant,VBO,5.811553,51.460562
Zonnedauw,16,,,5754GH,Deurne,Deurne,Noord-Brabant,VBO,5.811452,51.460509
Zonnedauw,18,a,,5754GH,Deurne,Deurne,Noord-Brabant,VBO,5.811684,51.460706
Zonnedauw,18,b,,5754GH,Deurne,Deurne,Noord-Brabant,VBO,5.811936,51.460808
Zonnedauw,18,,,5754GH,Deurne,Deurne,Noord-Brabant,VBO,5.811612,51.460643
Zonnedauw,20,,,5754GH,Deurne,Deurne,Noord-Brabant,VBO,5.811557,51.460976
Zonnedauw,22,,,5754GH,Deurne,Deurne,Noord-Brabant,VBO,5.811528,51.460940
Zonnedauw,24,,,5754GH,Deurne,Deurne,Noord-Brabant,VBO,5.811311,51.460761
Zonnedauw,26,,,5754GH,Deurne,Deurne,Noord-Brabant,VBO,5.811224,51.460779
Zonnedauw,28,,,5754GH,Deurne,Deurne,Noord-Brabant,VBO,5.811067,51.460834
Zonnedauw,30,,,5754GH,Deurne,Deurne,Noord-Brabant,VBO,5.810995,51.460861
Korstmos,1,,,5754GJ,Deurne,Deurne,Noord-Brabant,STA,5.808406,51.461939
Korstmos,3,,,5754GJ,Deurne,Deurne,Noord-Brabant,STA,5.808440,51.461852
Korstmos,5,,,5754GJ,Deurne,Deurne,Noord-Brabant,STA,5.808474,51.461764
Korstmos,7,,,5754GJ,Deurne,Deurne,Noord-Brabant,STA,5.808568,51.461695
Korstmos,9,,,5754GJ,Deurne,Deurne,Noord-Brabant,VBO,5.808275,51.460799
Korstmos,11,,,5754GJ,Deurne,Deurne,Noord-Brabant,VBO,5.808346,51.460772
Korstmos,13,,,5754GJ,Deurne,Deurne,Noord-Brabant,VBO,5.808461,51.460700
Korstmos,15,,,5754GJ,Deurne,Deurne,Noord-Brabant,VBO,5.808561,51.460672
Korstmos,17,,,5754GJ,Deurne,Deurne,Noord-Brabant,VBO,5.808690,51.460618
Korstmos,19,,,5754GJ,Deurne,Deurne,Noord-Brabant,VBO,5.808747,51.460573
Korstmos,21,,,5754GJ,Deurne,Deurne,Noord-Brabant,VBO,5.809081,51.460841
Korstmos,23,,,5754GJ,Deurne,Deurne,Noord-Brabant,VBO,5.809024,51.460877
Korstmos,25,,,5754GJ,Deurne,Deurne,Noord-Brabant,VBO,5.808866,51.460932
Korstmos,27,,,5754GJ,Deurne,Deurne,Noord-Brabant,VBO,5.808823,51.460959
Korstmos,29,,,5754GJ,Deurne,Deurne,Noord-Brabant,VBO,5.808694,51.461022
Korstmos,31,,,5754GJ,Deurne,Deurne,Noord-Brabant,VBO,5.808594,51.461068
Korstmos,33,,,5754GJ,Deurne,Deurne,Noord-Brabant,VBO,5.808540,51.461436
Korstmos,35,,,5754GJ,Deurne,Deurne,Noord-Brabant,VBO,5.808640,51.461445
Korstmos,37,,,5754GJ,Deurne,Deurne,Noord-Brabant,VBO,5.808727,51.461463
Korstmos,39,,,5754GJ,Deurne,Deurne,Noord-Brabant,VBO,5.808813,51.461480
Korstmos,41,,,5754GJ,Deurne,Deurne,Noord-Brabant,VBO,5.808943,51.461516
Korstmos,43,,,5754GJ,Deurne,Deurne,Noord-Brabant,VBO,5.809030,51.461542
Korstmos,45,,,5754GJ,Deurne,Deurne,Noord-Brabant,VBO,5.809073,51.461578
Korstmos,47,,,5754GJ,Deurne,Deurne,Noord-Brabant,VBO,5.809146,51.461614
Korstmos,2,,,5754GK,Deurne,Deurne,Noord-Brabant,STA,5.808532,51.462243
Korstmos,4,,,5754GK,Deurne,Deurne,Noord-Brabant,STA,5.808390,51.462220
Korstmos,6,,,5754GK,Deurne,Deurne,Noord-Brabant,STA,5.808247,51.462200
Korstmos,8,,,5754GK,Deurne,Deurne,Noord-Brabant,STA,5.807787,51.462220
Korstmos,10,,,5754GK,Deurne,Deurne,Noord-Brabant,STA,5.807822,51.462126
Korstmos,12,,,5754GK,Deurne,Deurne,Noord-Brabant,STA,5.807858,51.462038
Korstmos,14,,,5754GK,Deurne,Deurne,Noord-Brabant,STA,5.807880,51.461948
Korstmos,16,,,5754GK,Deurne,Deurne,Noord-Brabant,STA,5.807914,51.461860
Korstmos,18,,,5754GK,Deurne,Deurne,Noord-Brabant,STA,5.807950,51.461772
Korstmos,20,,,5754GK,Deurne,Deurne,Noord-Brabant,STA,5.807983,51.461685
Korstmos,22,,,5754GK,Deurne,Deurne,Noord-Brabant,STA,5.808017,51.461598
Korstmos,24,,,5754GK,Deurne,Deurne,Noord-Brabant,VBO,5.808108,51.461483
Korstmos,26,,,5754GK,Deurne,Deurne,Noord-Brabant,VBO,5.808122,51.461438
Korstmos,28,,,5754GK,Deurne,Deurne,Noord-Brabant,VBO,5.808151,51.461375
Korstmos,30,,,5754GK,Deurne,Deurne,Noord-Brabant,VBO,5.808150,51.461312
Korstmos,32,,,5754GK,Deurne,Deurne,Noord-Brabant,VBO,5.808250,51.461204
Korstmos,34,,,5754GK,Deurne,Deurne,Noord-Brabant,VBO,5.808321,51.461185
Korstmos,36,,,5754GK,Deurne,Deurne,Noord-Brabant,VBO,5.808123,51.460969
Korstmos,42,,,5754GK,Deurne,Deurne,Noord-Brabant,VBO,5.809223,51.460607
Korstmos,44,,,5754GK,Deurne,Deurne,Noord-Brabant,VBO,5.809281,51.460652
Korstmos,46,,,5754GK,Deurne,Deurne,Noord-Brabant,VBO,5.809440,51.460741
Korstmos,48,,,5754GK,Deurne,Deurne,Noord-Brabant,VBO,5.809483,51.460786
Korstmos,50,,,5754GK,Deurne,Deurne,Noord-Brabant,VBO,5.809542,51.460893
Korstmos,52,,,5754GK,Deurne,Deurne,Noord-Brabant,VBO,5.809514,51.460956
Korstmos,54,,,5754GK,Deurne,Deurne,Noord-Brabant,VBO,5.809370,51.461002
Korstmos,56,,,5754GK,Deurne,Deurne,Noord-Brabant,VBO,5.809112,51.461111
Korstmos,58,,,5754GK,Deurne,Deurne,Noord-Brabant,VBO,5.809141,51.461155
Korstmos,60,,,5754GK,Deurne,Deurne,Noord-Brabant,VBO,5.809229,51.461254
Korstmos,62,,,5754GK,Deurne,Deurne,Noord-Brabant,VBO,5.809272,51.461299
Korstmos,64,,,5754GK,Deurne,Deurne,Noord-Brabant,VBO,5.809418,51.461460
Wolfsklauw,2,,,5754GL,Deurne,Deurne,Noord-Brabant,VBO,5.810212,51.461799
Wolfsklauw,3,,,5754GL,Deurne,Deurne,Noord-Brabant,VBO,5.809940,51.461890
Wolfsklauw,4,,,5754GL,Deurne,Deurne,Noord-Brabant,VBO,5.810241,51.461844
Wolfsklauw,5,,,5754GL,Deurne,Deurne,Noord-Brabant,VBO,5.809927,51.462052
Wolfsklauw,6,,,5754GL,Deurne,Deurne,Noord-Brabant,VBO,5.810300,51.461969
Wolfsklauw,7,,,5754GL,Deurne,Deurne,Noord-Brabant,VBO,5.809913,51.462088
Wolfsklauw,8,,,5754GL,Deurne,Deurne,Noord-Brabant,VBO,5.810301,51.462014
Wolfsklauw,9,,,5754GL,Deurne,Deurne,Noord-Brabant,VBO,5.809871,51.462214
Wolfsklauw,10,,,5754GL,Deurne,Deurne,Noord-Brabant,VBO,5.810230,51.462140
Wolfsklauw,11,,,5754GL,Deurne,Deurne,Noord-Brabant,VBO,5.809842,51.462259
Wolfsklauw,12,,,5754GL,Deurne,Deurne,Noord-Brabant,VBO,5.810187,51.462203
Wolfsklauw,13,,,5754GL,Deurne,Deurne,Noord-Brabant,VBO,5.809700,51.462457
Wolfsklauw,14,,,5754GL,Deurne,Deurne,Noord-Brabant,VBO,5.810159,51.462302
Wolfsklauw,15,,,5754GL,Deurne,Deurne,Noord-Brabant,VBO,5.809643,51.462448
Wolfsklauw,16,,,5754GL,Deurne,Deurne,Noord-Brabant,VBO,5.810118,51.462491
Wolfsklauw,18,,,5754GL,Deurne,Deurne,Noord-Brabant,VBO,5.810219,51.462518
Wolfsklauw,20,,,5754GL,Deurne,Deurne,Noord-Brabant,VBO,5.810608,51.462579
Wolfsklauw,22,,,5754GL,Deurne,Deurne,Noord-Brabant,VBO,5.810693,51.462471
Wolfsklauw,24,,,5754GL,Deurne,Deurne,Noord-Brabant,VBO,5.810706,51.462336
Wolfsklauw,26,,,5754GL,Deurne,Deurne,Noord-Brabant,VBO,5.810792,51.462210
Wolfsklauw,28,,,5754GL,Deurne,Deurne,Noord-Brabant,VBO,5.810862,51.462066
Wolfsklauw,30,,,5754GL,Deurne,Deurne,Noord-Brabant,VBO,5.810905,51.461985
Peellandsingel,119,,,5754GM,Deurne,Deurne,Noord-Brabant,VBO,5.813239,51.463909
Peellandsingel,121,,,5754GM,Deurne,Deurne,Noord-Brabant,VBO,5.813225,51.463954
Peellandsingel,123,,,5754GM,Deurne,Deurne,Noord-Brabant,VBO,5.813183,51.463999
Peellandsingel,125,,,5754GM,Deurne,Deurne,Noord-Brabant,VBO,5.813154,51.464044
Peellandsingel,127,,,5754GM,Deurne,Deurne,Noord-Brabant,VBO,5.813111,51.464080
Peellandsingel,129,,,5754GM,Deurne,Deurne,Noord-Brabant,VBO,5.813069,51.464125
Peelschol,1,,,5754GP,Deurne,Deurne,Noord-Brabant,VBO,5.811913,51.462071
Peelschol,2,,,5754GP,Deurne,Deurne,Noord-Brabant,VBO,5.812117,51.462376
Peelschol,3,,,5754GP,Deurne,Deurne,Noord-Brabant,VBO,5.811842,51.462206
Peelschol,4,,,5754GP,Deurne,Deurne,Noord-Brabant,VBO,5.812247,51.462412
Peelschol,5,,,5754GP,Deurne,Deurne,Noord-Brabant,VBO,5.811771,51.462323
Peelschol,6,,,5754GP,Deurne,Deurne,Noord-Brabant,VBO,5.812391,51.462438
Peelschol,7,,,5754GP,Deurne,Deurne,Noord-Brabant,VBO,5.811700,51.462459
Peelschol,8,,,5754GP,Deurne,Deurne,Noord-Brabant,VBO,5.812478,51.462456
Peelschol,9,,,5754GP,Deurne,Deurne,Noord-Brabant,VBO,5.812523,51.462707
Peelschol,10,,,5754GP,Deurne,Deurne,Noord-Brabant,VBO,5.812607,51.462482
Peelschol,11,,,5754GP,Deurne,Deurne,Noord-Brabant,VBO,5.812595,51.462725
Peelschol,12,a,,5754GP,Deurne,Deurne,Noord-Brabant,VBO,5.812838,51.462526
Peelschol,12,,,5754GP,Deurne,Deurne,Noord-Brabant,VBO,5.812708,51.462509
Peelschol,14,,,5754GP,Deurne,Deurne,Noord-Brabant,VBO,5.813026,51.462598
Peelschol,15,,,5754GP,Deurne,Deurne,Noord-Brabant,VBO,5.813502,51.462758
Peelschol,16,,,5754GP,Deurne,Deurne,Noord-Brabant,VBO,5.813141,51.462597
Peelschol,18,,,5754GP,Deurne,Deurne,Noord-Brabant,VBO,5.813342,51.462587
Peelschol,20,,,5754GP,Deurne,Deurne,Noord-Brabant,VBO,5.813428,51.462587
Peelhorst,1,,,5754GR,Deurne,Deurne,Noord-Brabant,VBO,5.814513,51.463194
Peelhorst,2,,,5754GR,Deurne,Deurne,Noord-Brabant,VBO,5.814281,51.462926
Peelhorst,3,,,5754GR,Deurne,Deurne,Noord-Brabant,VBO,5.814614,51.463221
Peelhorst,4,,,5754GR,Deurne,Deurne,Noord-Brabant,VBO,5.814411,51.462961
Peelhorst,5,,,5754GR,Deurne,Deurne,Noord-Brabant,VBO,5.814816,51.463265
Peelhorst,6,,,5754GR,Deurne,Deurne,Noord-Brabant,VBO,5.814814,51.463049
Peelhorst,7,,,5754GR,Deurne,Deurne,Noord-Brabant,VBO,5.814903,51.463283
Peelhorst,8,,,5754GR,Deurne,Deurne,Noord-Brabant,VBO,5.814843,51.462995
Peelhorst,9,,,5754GR,Deurne,Deurne,Noord-Brabant,VBO,5.815119,51.463318
Peelhorst,10,,,5754GR,Deurne,Deurne,Noord-Brabant,VBO,5.814885,51.462869
Peelhorst,11,,,5754GR,Deurne,Deurne,Noord-Brabant,VBO,5.815191,51.463372
Peelhorst,12,,,5754GR,Deurne,Deurne,Noord-Brabant,VBO,5.814870,51.462816
Peelhorst,13,,,5754GR,Deurne,Deurne,Noord-Brabant,VBO,5.815393,51.463344
Peelhorst,14,,,5754GR,Deurne,Deurne,Noord-Brabant,VBO,5.814854,51.462708
Peelhorst,15,,,5754GR,Deurne,Deurne,Noord-Brabant,VBO,5.815479,51.463353
Peelhorst,16,,,5754GR,Deurne,Deurne,Noord-Brabant,VBO,5.814753,51.462654
Peelhorst,18,,,5754GR,Deurne,Deurne,Noord-Brabant,VBO,5.814838,51.462555
Peelhorst,20,,,5754GR,Deurne,Deurne,Noord-Brabant,VBO,5.814823,51.462492
Peelhorst,22,,,5754GR,Deurne,Deurne,Noord-Brabant,VBO,5.814952,51.462402
Peelhorst,24,,,5754GR,Deurne,Deurne,Noord-Brabant,VBO,5.815112,51.462554
Peelhorst,26,,,5754GR,Deurne,Deurne,Noord-Brabant,VBO,5.815156,51.462653
Peelhorst,28,,,5754GR,Deurne,Deurne,Noord-Brabant,VBO,5.815214,51.462706
Peelhorst,30,,,5754GR,Deurne,Deurne,Noord-Brabant,VBO,5.815374,51.462841
Peelhorst,32,,,5754GR,Deurne,Deurne,Noord-Brabant,VBO,5.815432,51.462894
Peelhorst,34,,,5754GR,Deurne,Deurne,Noord-Brabant,VBO,5.815519,51.462975
Peelhorst,36,,,5754GR,Deurne,Deurne,Noord-Brabant,VBO,5.815562,51.463020
Peelhorst,38,,,5754GR,Deurne,Deurne,Noord-Brabant,VBO,5.815649,51.463100
Peelhorst,40,,,5754GR,Deurne,Deurne,Noord-Brabant,VBO,5.815693,51.463136
Peelhorst,42,,,5754GR,Deurne,Deurne,Noord-Brabant,VBO,5.815780,51.463226
Peelhorst,44,,,5754GR,Deurne,Deurne,Noord-Brabant,VBO,5.815838,51.463270
Peelhorst,46,,,5754GR,Deurne,Deurne,Noord-Brabant,VBO,5.815897,51.463405
Peelhorst,48,,,5754GR,Deurne,Deurne,Noord-Brabant,VBO,5.815895,51.463559
Peelrug,1,,,5754GS,Deurne,Deurne,Noord-Brabant,VBO,5.812893,51.462794
Peelrug,2,,,5754GS,Deurne,Deurne,Noord-Brabant,VBO,5.813287,51.462794
Peelrug,3,,,5754GS,Deurne,Deurne,Noord-Brabant,VBO,5.812884,51.462877
Peelrug,4,,,5754GS,Deurne,Deurne,Noord-Brabant,VBO,5.813244,51.462839
Peelrug,5,,,5754GS,Deurne,Deurne,Noord-Brabant,VBO,5.812842,51.462976
Peelrug,6,,,5754GS,Deurne,Deurne,Noord-Brabant,VBO,5.813215,51.462884
Peelrug,7,,,5754GS,Deurne,Deurne,Noord-Brabant,VBO,5.812814,51.463030
Peelrug,8,,,5754GS,Deurne,Deurne,Noord-Brabant,VBO,5.813187,51.462948
Peelrug,9,,,5754GS,Deurne,Deurne,Noord-Brabant,VBO,5.812771,51.463111
Peelrug,10,,,5754GS,Deurne,Deurne,Noord-Brabant,VBO,5.813146,51.463109
Peelrug,12,,,5754GS,Deurne,Deurne,Noord-Brabant,VBO,5.813246,51.463127
Peelrug,14,,,5754GS,Deurne,Deurne,Noord-Brabant,VBO,5.813319,51.463145
Peelslenk,1,,,5754GT,Deurne,Deurne,Noord-Brabant,VBO,5.812440,51.461548
Peelslenk,3,,,5754GT,Deurne,Deurne,Noord-Brabant,VBO,5.812526,51.461521
Peelslenk,5,,,5754GT,Deurne,Deurne,Noord-Brabant,VBO,5.812670,51.461484
Peelslenk,7,,,5754GT,Deurne,Deurne,Noord-Brabant,VBO,5.812742,51.461457
Peelslenk,9,,,5754GT,Deurne,Deurne,Noord-Brabant,VBO,5.812899,51.461411
Peelslenk,11,,,5754GT,Deurne,Deurne,Noord-Brabant,VBO,5.812971,51.461393
Peelslenk,13,,,5754GT,Deurne,Deurne,Noord-Brabant,VBO,5.813201,51.461347
Peelslenk,14,,,5754GT,Deurne,Deurne,Noord-Brabant,VBO,5.813558,51.461232
Peelslenk,15,,,5754GT,Deurne,Deurne,Noord-Brabant,VBO,5.813273,51.461365
Peelslenk,16,,,5754GT,Deurne,Deurne,Noord-Brabant,VBO,5.813705,51.461364
Peelslenk,17,,,5754GT,Deurne,Deurne,Noord-Brabant,VBO,5.813432,51.461472
Peelslenk,18,,,5754GT,Deurne,Deurne,Noord-Brabant,VBO,5.813792,51.461489
Peelslenk,19,,,5754GT,Deurne,Deurne,Noord-Brabant,VBO,5.813462,51.461535
Peelslenk,20,,,5754GT,Deurne,Deurne,Noord-Brabant,VBO,5.813865,51.461615
Peelslenk,21,,,5754GT,Deurne,Deurne,Noord-Brabant,VBO,5.813521,51.461661
Peelslenk,23,,,5754GT,Deurne,Deurne,Noord-Brabant,VBO,5.813535,51.461715
Peelslenk,24,,,5754GT,Deurne,Deurne,Noord-Brabant,VBO,5.813910,51.461776
Torteltuin,1,,,5754HA,Deurne,Deurne,Noord-Brabant,VBO,5.812955,51.464270
Torteltuin,2,a,,5754HA,Deurne,Deurne,Noord-Brabant,VBO,5.812270,51.463310
Torteltuin,2,,,5754HA,Deurne,Deurne,Noord-Brabant,VBO,5.811733,51.464409
Torteltuin,3,,,5754HA,Deurne,Deurne,Noord-Brabant,VBO,5.812869,51.464270
Torteltuin,4,,,5754HA,Deurne,Deurne,Noord-Brabant,VBO,5.812260,51.463796
Torteltuin,5,,,5754HA,Deurne,Deurne,Noord-Brabant,VBO,5.812796,51.464243
Torteltuin,6,,,5754HA,Deurne,Deurne,Noord-Brabant,VBO,5.812246,51.463850
Torteltuin,7,,,5754HA,Deurne,Deurne,Noord-Brabant,VBO,5.812724,51.464235
Torteltuin,8,,,5754HA,Deurne,Deurne,Noord-Brabant,VBO,5.812218,51.463895
Torteltuin,9,,,5754HA,Deurne,Deurne,Noord-Brabant,VBO,5.812595,51.464235
Torteltuin,10,,,5754HA,Deurne,Deurne,Noord-Brabant,VBO,5.812204,51.463949
Torteltuin,11,,,5754HA,Deurne,Deurne,Noord-Brabant,VBO,5.812494,51.464226
Torteltuin,13,,,5754HA,Deurne,Deurne,Noord-Brabant,VBO,5.812422,51.464209
Torteltuin,15,,,5754HA,Deurne,Deurne,Noord-Brabant,VBO,5.812364,51.464200
Torteltuin,17,,,5754HA,Deurne,Deurne,Noord-Brabant,VBO,5.812235,51.464209
Torteltuin,19,,,5754HA,Deurne,Deurne,Noord-Brabant,VBO,5.812148,51.464192
Torteltuin,21,,,5754HA,Deurne,Deurne,Noord-Brabant,VBO,5.812076,51.464174
Torteltuin,23,,,5754HA,Deurne,Deurne,Noord-Brabant,VBO,5.811788,51.464112
Torteltuin,25,,,5754HA,Deurne,Deurne,Noord-Brabant,VBO,5.811687,51.464095
Torteltuin,27,,,5754HA,Deurne,Deurne,Noord-Brabant,VBO,5.811528,51.464059
Torteltuin,29,,,5754HA,Deurne,Deurne,Noord-Brabant,VBO,5.811442,51.464042
Torteltuin,31,,,5754HA,Deurne,Deurne,Noord-Brabant,VBO,5.811298,51.464006
Torteltuin,33,,,5754HA,Deurne,Deurne,Noord-Brabant,VBO,5.811211,51.463988
Torteltuin,35,,,5754HA,Deurne,Deurne,Noord-Brabant,VBO,5.811321,51.463798
Torteltuin,37,,,5754HA,Deurne,Deurne,Noord-Brabant,VBO,5.811366,51.463673
Torteltuin,39,,,5754HA,Deurne,Deurne,Noord-Brabant,VBO,5.811351,51.463521
Torteltuin,41,,,5754HA,Deurne,Deurne,Noord-Brabant,VBO,5.811205,51.463386
Torteltuin,43,,,5754HA,Deurne,Deurne,Noord-Brabant,VBO,5.811347,51.463152
Torteltuin,45,,,5754HA,Deurne,Deurne,Noord-Brabant,VBO,5.811448,51.463179
Torteltuin,47,,,5754HA,Deurne,Deurne,Noord-Brabant,VBO,5.811607,51.463214
Torteltuin,49,,,5754HA,Deurne,Deurne,Noord-Brabant,VBO,5.811693,51.463223
Torteltuin,51,,,5754HA,Deurne,Deurne,Noord-Brabant,VBO,5.811910,51.463321
Torteltuin,53,,,5754HA,Deurne,Deurne,Noord-Brabant,VBO,5.811939,51.463366
Torteltuin,55,,,5754HA,Deurne,Deurne,Noord-Brabant,VBO,5.811984,51.463554
Torteltuin,57,,,5754HA,Deurne,Deurne,Noord-Brabant,VBO,5.811970,51.463599
Torteltuin,59,,,5754HA,Deurne,Deurne,Noord-Brabant,VBO,5.811942,51.463707
Torteltuin,61,,,5754HA,Deurne,Deurne,Noord-Brabant,VBO,5.811929,51.463761
Torteltuin,63,,,5754HA,Deurne,Deurne,Noord-Brabant,VBO,5.811901,51.463869
Torteltuin,65,,,5754HA,Deurne,Deurne,Noord-Brabant,VBO,5.811887,51.463923
Batspade,3,,,5754HB,Deurne,Deurne,Noord-Brabant,VBO,5.814653,51.464308
Batspade,4,,,5754HB,Deurne,Deurne,Noord-Brabant,VBO,5.814305,51.463932
Batspade,5,,,5754HB,Deurne,Deurne,Noord-Brabant,VBO,5.814580,51.464174
Batspade,6,,,5754HB,Deurne,Deurne,Noord-Brabant,VBO,5.814318,51.463869
Batspade,7,,,5754HB,Deurne,Deurne,Noord-Brabant,VBO,5.814608,51.464111
Batspade,8,,,5754HB,Deurne,Deurne,Noord-Brabant,VBO,5.814360,51.463761
Batspade,9,,,5754HB,Deurne,Deurne,Noord-Brabant,VBO,5.814636,51.464003
Batspade,10,,,5754HB,Deurne,Deurne,Noord-Brabant,VBO,5.814375,51.463725
Batspade,11,,,5754HB,Deurne,Deurne,Noord-Brabant,VBO,5.814621,51.463967
Batspade,12,,,5754HB,Deurne,Deurne,Noord-Brabant,VBO,5.816499,51.464724
Batspade,13,a,,5754HB,Deurne,Deurne,Noord-Brabant,VBO,5.814692,51.463787
Batspade,13,,,5754HB,Deurne,Deurne,Noord-Brabant,VBO,5.814678,51.463823
Batspade,14,,,5754HB,Deurne,Deurne,Noord-Brabant,VBO,5.816269,51.464716
Batspade,15,,,5754HB,Deurne,Deurne,Noord-Brabant,VBO,5.815051,51.463777
Batspade,16,,,5754HB,Deurne,Deurne,Noord-Brabant,VBO,5.815894,51.464672
Batspade,17,,,5754HB,Deurne,Deurne,Noord-Brabant,VBO,5.815267,51.463803
Batspade,18,,,5754HB,Deurne,Deurne,Noord-Brabant,VBO,5.815866,51.464717
Batspade,19,,,5754HB,Deurne,Deurne,Noord-Brabant,VBO,5.815469,51.463820
Batspade,20,,,5754HB,Deurne,Deurne,Noord-Brabant,VBO,5.815853,51.464834
Batspade,21,,,5754HB,Deurne,Deurne,Noord-Brabant,VBO,5.815700,51.463900
Batspade,22,,,5754HB,Deurne,Deurne,Noord-Brabant,VBO,5.815853,51.464879
Batspade,23,,,5754HB,Deurne,Deurne,Noord-Brabant,VBO,5.815887,51.463935
Batspade,24,,,5754HB,Deurne,Deurne,Noord-Brabant,VBO,5.815840,51.464996
Batspade,25,,,5754HB,Deurne,Deurne,Noord-Brabant,VBO,5.816118,51.463962
Batspade,26,,,5754HB,Deurne,Deurne,Noord-Brabant,VBO,5.815826,51.465041
Batspade,27,,,5754HB,Deurne,Deurne,Noord-Brabant,VBO,5.816320,51.463979
Batspade,28,,,5754HB,Deurne,Deurne,Noord-Brabant,VBO,5.815813,51.465149
Batspade,29,,,5754HB,Deurne,Deurne,Noord-Brabant,VBO,5.816580,51.464113
Batspade,30,,,5754HB,Deurne,Deurne,Noord-Brabant,VBO,5.815813,51.465203
Batspade,31,,,5754HB,Deurne,Deurne,Noord-Brabant,VBO,5.816712,51.464346
Batspade,32,,,5754HB,Deurne,Deurne,Noord-Brabant,VBO,5.815483,51.465258
Batspade,33,,,5754HB,Deurne,Deurne,Noord-Brabant,VBO,5.816612,51.464508
Batspade,34,,,5754HB,Deurne,Deurne,Noord-Brabant,VBO,5.815396,51.465259
Batspade,35,,,5754HB,Deurne,Deurne,Noord-Brabant,VBO,5.816209,51.464474
Batspade,36,,,5754HB,Deurne,Deurne,Noord-Brabant,VBO,5.815224,51.465250
Batspade,37,,,5754HB,Deurne,Deurne,Noord-Brabant,VBO,5.815979,51.464456
Batspade,38,,,5754HB,Deurne,Deurne,Noord-Brabant,VBO,5.815137,51.465242
Batspade,40,,,5754HB,Deurne,Deurne,Noord-Brabant,VBO,5.814964,51.465233
Batspade,42,,,5754HB,Deurne,Deurne,Noord-Brabant,VBO,5.814878,51.465224
Batspade,44,,,5754HB,Deurne,Deurne,Noord-Brabant,VBO,5.814720,51.465225
Batspade,45,,,5754HB,Deurne,Deurne,Noord-Brabant,VBO,5.815495,51.465024
Batspade,46,,,5754HB,Deurne,Deurne,Noord-Brabant,VBO,5.814619,51.465216
Batspade,47,,,5754HB,Deurne,Deurne,Noord-Brabant,VBO,5.815337,51.465070
Batspade,49,,,5754HB,Deurne,Deurne,Noord-Brabant,VBO,5.815121,51.465044
Batspade,51,,,5754HB,Deurne,Deurne,Noord-Brabant,VBO,5.815034,51.465044
Batspade,53,,,5754HB,Deurne,Deurne,Noord-Brabant,VBO,5.814847,51.465036
Batspade,55,,,5754HB,Deurne,Deurne,Noord-Brabant,VBO,5.814775,51.465027
Batspade,57,,,5754HB,Deurne,Deurne,Noord-Brabant,VBO,5.814588,51.465019
Batspade,59,,,5754HB,Deurne,Deurne,Noord-Brabant,VBO,5.814516,51.465019
Batspade,61,,,5754HB,Deurne,Deurne,Noord-Brabant,VBO,5.814242,51.464984
Batspade,63,,,5754HB,Deurne,Deurne,Noord-Brabant,VBO,5.814185,51.464948
Oplegger,1,,,5754HC,Deurne,Deurne,Noord-Brabant,VBO,5.813804,51.464258
Oplegger,2,,,5754HC,Deurne,Deurne,Noord-Brabant,VBO,5.813658,51.464015
Oplegger,3,,,5754HC,Deurne,Deurne,Noord-Brabant,VBO,5.813890,51.464275
Oplegger,4,,,5754HC,Deurne,Deurne,Noord-Brabant,VBO,5.813730,51.464033
Oplegger,5,,,5754HC,Deurne,Deurne,Noord-Brabant,VBO,5.813922,51.464527
Oplegger,6,,,5754HC,Deurne,Deurne,Noord-Brabant,VBO,5.813903,51.464069
Oplegger,7,,,5754HC,Deurne,Deurne,Noord-Brabant,VBO,5.813893,51.464572
Oplegger,8,,,5754HC,Deurne,Deurne,Noord-Brabant,VBO,5.813975,51.464086
Oplegger,9,,,5754HC,Deurne,Deurne,Noord-Brabant,VBO,5.813824,51.464842
Oplegger,10,,,5754HC,Deurne,Deurne,Noord-Brabant,VBO,5.814148,51.464113
Oplegger,11,,,5754HC,Deurne,Deurne,Noord-Brabant,VBO,5.813608,51.464843
Oplegger,12,,,5754HC,Deurne,Deurne,Noord-Brabant,VBO,5.814249,51.464121
Oplegger,13,,,5754HC,Deurne,Deurne,Noord-Brabant,VBO,5.813364,51.464897
Oplegger,14,,,5754HC,Deurne,Deurne,Noord-Brabant,VBO,5.814222,51.464337
Oplegger,15,,,5754HC,Deurne,Deurne,Noord-Brabant,VBO,5.813365,51.465041
Oplegger,16,,,5754HC,Deurne,Deurne,Noord-Brabant,VBO,5.814208,51.464427
Oplegger,17,,,5754HC,Deurne,Deurne,Noord-Brabant,VBO,5.813338,51.465203
Oplegger,18,,,5754HC,Deurne,Deurne,Noord-Brabant,VBO,5.814195,51.464499
Oplegger,19,,,5754HC,Deurne,Deurne,Noord-Brabant,VBO,5.812935,51.465169
Oplegger,20,,,5754HC,Deurne,Deurne,Noord-Brabant,VBO,5.814197,51.464724
Oplegger,21,,,5754HC,Deurne,Deurne,Noord-Brabant,VBO,5.812819,51.465169
Oplegger,22,,,5754HC,Deurne,Deurne,Noord-Brabant,VBO,5.814183,51.464778
Oplegger,23,,,5754HC,Deurne,Deurne,Noord-Brabant,VBO,5.812388,51.465087
Oplegger,25,,,5754HC,Deurne,Deurne,Noord-Brabant,VBO,5.812315,51.465081
Oplegger,26,,,5754HC,Deurne,Deurne,Noord-Brabant,VBO,5.813441,51.465436
Oplegger,27,,,5754HC,Deurne,Deurne,Noord-Brabant,VBO,5.812262,51.465064
Oplegger,28,,,5754HC,Deurne,Deurne,Noord-Brabant,VBO,5.813325,51.465401
Oplegger,30,,,5754HC,Deurne,Deurne,Noord-Brabant,VBO,5.813239,51.465392
Oplegger,32,,,5754HC,Deurne,Deurne,Noord-Brabant,VBO,5.813066,51.465384
Oplegger,34,,,5754HC,Deurne,Deurne,Noord-Brabant,VBO,5.812980,51.465375
Oplegger,36,,,5754HC,Deurne,Deurne,Noord-Brabant,VBO,5.812807,51.465367
Oplegger,38,,,5754HC,Deurne,Deurne,Noord-Brabant,VBO,5.812735,51.465367
Oplegger,40,,,5754HC,Deurne,Deurne,Noord-Brabant,VBO,5.812548,51.465359
Oplegger,42,,,5754HC,Deurne,Deurne,Noord-Brabant,VBO,5.812490,51.465359
Oplegger,44,,,5754HC,Deurne,Deurne,Noord-Brabant,VBO,5.812268,51.465307
Oplegger,46,,,5754HC,Deurne,Deurne,Noord-Brabant,VBO,5.812202,51.465279
Oplegger,48,,,5754HC,Deurne,Deurne,Noord-Brabant,VBO,5.812158,51.465261
Krullevaar,1,,,5754HD,Deurne,Deurne,Noord-Brabant,VBO,5.811669,51.465236
Krullevaar,2,,,5754HD,Deurne,Deurne,Noord-Brabant,VBO,5.810314,51.465025
Krullevaar,3,,,5754HD,Deurne,Deurne,Noord-Brabant,VBO,5.811568,51.465273
Krullevaar,4,,,5754HD,Deurne,Deurne,Noord-Brabant,VBO,5.810386,51.465034
Krullevaar,5,,,5754HD,Deurne,Deurne,Noord-Brabant,VBO,5.811294,51.465211
Krullevaar,6,,,5754HD,Deurne,Deurne,Noord-Brabant,VBO,5.810530,51.465061
Krullevaar,7,,,5754HD,Deurne,Deurne,Noord-Brabant,VBO,5.811208,51.465193
Krullevaar,8,,,5754HD,Deurne,Deurne,Noord-Brabant,VBO,5.810672,51.464853
Krullevaar,9,,,5754HD,Deurne,Deurne,Noord-Brabant,VBO,5.811049,51.465158
Krullevaar,10,,,5754HD,Deurne,Deurne,Noord-Brabant,VBO,5.810686,51.464807
Krullevaar,11,,,5754HD,Deurne,Deurne,Noord-Brabant,VBO,5.810963,51.465140
Krullevaar,13,,,5754HD,Deurne,Deurne,Noord-Brabant,VBO,5.810833,51.465113
Krullevaar,15,,,5754HD,Deurne,Deurne,Noord-Brabant,VBO,5.811003,51.464816
Krullevaar,17,,,5754HD,Deurne,Deurne,Noord-Brabant,VBO,5.811133,51.464834
Krullevaar,19,,,5754HD,Deurne,Deurne,Noord-Brabant,VBO,5.811219,51.464851
Krullevaar,21,,,5754HD,Deurne,Deurne,Noord-Brabant,VBO,5.811378,51.464887
Krullevaar,23,,,5754HD,Deurne,Deurne,Noord-Brabant,VBO,5.811464,51.464904
Krullevaar,25,,,5754HD,Deurne,Deurne,Noord-Brabant,VBO,5.811738,51.464975
Krullevaar,27,,,5754HD,Deurne,Deurne,Noord-Brabant,VBO,5.811782,51.465029
de Hork,1,,,5754HH,Deurne,Deurne,Noord-Brabant,VBO,5.812562,51.463804
de Hork,2,,,5754HH,Deurne,Deurne,Noord-Brabant,VBO,5.812300,51.463526
de Hork,3,,,5754HH,Deurne,Deurne,Noord-Brabant,VBO,5.812634,51.463803
de Hork,4,,,5754HH,Deurne,Deurne,Noord-Brabant,VBO,5.812473,51.463543
de Hork,5,,,5754HH,Deurne,Deurne,Noord-Brabant,VBO,5.812720,51.463803
de Hork,6,,,5754HH,Deurne,Deurne,Noord-Brabant,VBO,5.812603,51.463552
de Hork,7,,,5754HH,Deurne,Deurne,Noord-Brabant,VBO,5.812807,51.463812
de Hork,8,,,5754HH,Deurne,Deurne,Noord-Brabant,VBO,5.812747,51.463569
de Hork,10,,,5754HH,Deurne,Deurne,Noord-Brabant,VBO,5.812891,51.463596
de Hork,12,,,5754HH,Deurne,Deurne,Noord-Brabant,VBO,5.813021,51.463613
Bonkspade,1,,,5754HJ,Deurne,Deurne,Noord-Brabant,VBO,5.814499,51.464731
Bonkspade,3,,,5754HJ,Deurne,Deurne,Noord-Brabant,VBO,5.814571,51.464722
Bonkspade,5,,,5754HJ,Deurne,Deurne,Noord-Brabant,VBO,5.814729,51.464731
Bonkspade,7,,,5754HJ,Deurne,Deurne,Noord-Brabant,VBO,5.814816,51.464739
Bonkspade,9,,,5754HJ,Deurne,Deurne,Noord-Brabant,VBO,5.814988,51.464739
Bonkspade,11,,,5754HJ,Deurne,Deurne,Noord-Brabant,VBO,5.815046,51.464747
Bonkspade,13,,,5754HJ,Deurne,Deurne,Noord-Brabant,VBO,5.815219,51.464756
Bonkspade,15,,,5754HJ,Deurne,Deurne,Noord-Brabant,VBO,5.815276,51.464747
Bonkspade,17,,,5754HJ,Deurne,Deurne,Noord-Brabant,VBO,5.815435,51.464755
Bonkspade,19,,,5754HJ,Deurne,Deurne,Noord-Brabant,VBO,5.815521,51.464773
Bonkspade,2,,,5754HK,Deurne,Deurne,Noord-Brabant,VBO,5.814684,51.464524
Bonkspade,4,,,5754HK,Deurne,Deurne,Noord-Brabant,VBO,5.814698,51.464443
Bonkspade,6,,,5754HK,Deurne,Deurne,Noord-Brabant,VBO,5.814711,51.464362
Bonkspade,8,,,5754HK,Deurne,Deurne,Noord-Brabant,VBO,5.814927,51.464325
Bonkspade,10,,,5754HK,Deurne,Deurne,Noord-Brabant,VBO,5.815013,51.464334
Bonkspade,12,,,5754HK,Deurne,Deurne,Noord-Brabant,VBO,5.815143,51.464370
Bonkspade,14,,,5754HK,Deurne,Deurne,Noord-Brabant,VBO,5.815273,51.464378
Bonkspade,16,,,5754HK,Deurne,Deurne,Noord-Brabant,VBO,5.815388,51.464387
Bonkspade,18,,,5754HK,Deurne,Deurne,Noord-Brabant,VBO,5.815518,51.464395
Bonkspade,20,,,5754HK,Deurne,Deurne,Noord-Brabant,VBO,5.815647,51.464404
Bonkspade,22,,,5754HK,Deurne,Deurne,Noord-Brabant,VBO,5.815791,51.464421
Stikker,1,,,5754HL,Deurne,Deurne,Noord-Brabant,VBO,5.815442,51.465537
Stikker,2,,,5754HL,Deurne,Deurne,Noord-Brabant,VBO,5.815843,51.465311
Stikker,3,,,5754HL,Deurne,Deurne,Noord-Brabant,VBO,5.815370,51.465528
Stikker,4,,,5754HL,Deurne,Deurne,Noord-Brabant,VBO,5.815815,51.465446
Stikker,5,,,5754HL,Deurne,Deurne,Noord-Brabant,VBO,5.815183,51.465529
Stikker,6,,,5754HL,Deurne,Deurne,Noord-Brabant,VBO,5.815802,51.465608
Stikker,7,,,5754HL,Deurne,Deurne,Noord-Brabant,VBO,5.815097,51.465520
Stikker,9,,,5754HL,Deurne,Deurne,Noord-Brabant,VBO,5.814924,51.465503
Stikker,11,,,5754HL,Deurne,Deurne,Noord-Brabant,VBO,5.814837,51.465503
Stikker,13,,,5754HL,Deurne,Deurne,Noord-Brabant,VBO,5.814665,51.465495
Stikker,15,,,5754HL,Deurne,Deurne,Noord-Brabant,VBO,5.814578,51.465486
Stikker,17,,,5754HL,Deurne,Deurne,Noord-Brabant,VBO,5.814261,51.465451
Stikker,19,,,5754HL,Deurne,Deurne,Noord-Brabant,VBO,5.814275,51.465415
Stikker,21,,,5754HL,Deurne,Deurne,Noord-Brabant,VBO,5.814289,51.465308
Stikker,23,,,5754HL,Deurne,Deurne,Noord-Brabant,VBO,5.814288,51.465254
Het Oude Slot,2,,,5754HV,Deurne,Deurne,Noord-Brabant,VBO,5.806940,51.470539
Het Oude Slot,4,,,5754HV,Deurne,Deurne,Noord-Brabant,VBO,5.806639,51.470639
Het Oude Slot,6,,,5754HV,Deurne,Deurne,Noord-Brabant,VBO,5.806366,51.470756
Het Oude Slot,8,,,5754HV,Deurne,Deurne,Noord-Brabant,VBO,5.806094,51.470856
Het Oude Slot,10,,,5754HV,Deurne,Deurne,Noord-Brabant,VBO,5.805963,51.470704
Het Oude Slot,12,,,5754HV,Deurne,Deurne,Noord-Brabant,VBO,5.806206,51.470577
Het Oude Slot,14,,,5754HV,Deurne,Deurne,Noord-Brabant,VBO,5.806407,51.470478
Het Oude Slot,16,,,5754HV,Deurne,Deurne,Noord-Brabant,VBO,5.806665,51.470387
Het Oude Slot,18,,,5754HV,Deurne,Deurne,Noord-Brabant,VBO,5.806938,51.470278
Het Oude Slot,20,,,5754HV,Deurne,Deurne,Noord-Brabant,VBO,5.807183,51.470340
Kasteelhoeve,1,,,5754HW,Deurne,Deurne,Noord-Brabant,VBO,5.811023,51.470057
Kasteelhoeve,3,,,5754HW,Deurne,Deurne,Noord-Brabant,VBO,5.811125,51.470209
Kasteelhoeve,4,,,5754HW,Deurne,Deurne,Noord-Brabant,VBO,5.811470,51.470100
Kasteelhoeve,5,,,5754HW,Deurne,Deurne,Noord-Brabant,VBO,5.811414,51.470334
Kasteelhoeve,6,,,5754HW,Deurne,Deurne,Noord-Brabant,VBO,5.811685,51.470027
Kasteelhoeve,7,,,5754HW,Deurne,Deurne,Noord-Brabant,VBO,5.811658,51.470297
Kasteelhoeve,8,,,5754HW,Deurne,Deurne,Noord-Brabant,VBO,5.811972,51.469990
Kasteelhoeve,9,,,5754HW,Deurne,Deurne,Noord-Brabant,VBO,5.812018,51.470215
Kasteelhoeve,10,,,5754HW,Deurne,Deurne,Noord-Brabant,VBO,5.812231,51.469989
Kasteelhoeve,11,,,5754HW,Deurne,Deurne,Noord-Brabant,VBO,5.812969,51.470373
Kasteelhoeve,12,,,5754HW,Deurne,Deurne,Noord-Brabant,VBO,5.812490,51.469988
Kasteelhoeve,13,,,5754HW,Deurne,Deurne,Noord-Brabant,VBO,5.813082,51.470112
Kasteelhoeve,14,,,5754HW,Deurne,Deurne,Noord-Brabant,VBO,5.812706,51.469987
Kasteelhoeve,15,,,5754HW,Deurne,Deurne,Noord-Brabant,VBO,5.813166,51.469941
Kasteelhoeve,16,,,5754HW,Deurne,Deurne,Noord-Brabant,VBO,5.812861,51.469618
Kasteelhoeve,17,,,5754HW,Deurne,Deurne,Noord-Brabant,VBO,5.813280,51.469788
Kasteelhoeve,18,,,5754HW,Deurne,Deurne,Noord-Brabant,VBO,5.812674,51.469619
Kasteelhoeve,19,,,5754HW,Deurne,Deurne,Noord-Brabant,VBO,5.813336,51.469563
Kasteelhoeve,20,,,5754HW,Deurne,Deurne,Noord-Brabant,VBO,5.812357,51.469620
Kasteelhoeve,22,,,5754HW,Deurne,Deurne,Noord-Brabant,VBO,5.812070,51.469621
Kasteelhoeve,24,,,5754HW,Deurne,Deurne,Noord-Brabant,VBO,5.811767,51.469622
Kasteelhoeve,26,,,5754HW,Deurne,Deurne,Noord-Brabant,VBO,5.811480,51.469659
Kasteelhoeve,28,,,5754HW,Deurne,Deurne,Noord-Brabant,VBO,5.811207,51.469732
Hofstede,2,,,5754HX,Deurne,Deurne,Noord-Brabant,VBO,5.807574,51.470662
Hofstede,3,,,5754HX,Deurne,Deurne,Noord-Brabant,VBO,5.807779,51.470958
Hofstede,4,,,5754HX,Deurne,Deurne,Noord-Brabant,VBO,5.808022,51.470786
Hofstede,5,,,5754HX,Deurne,Deurne,Noord-Brabant,VBO,5.807939,51.471191
Hofstede,6,,,5754HX,Deurne,Deurne,Noord-Brabant,VBO,5.808197,51.471020
Hofstede,7,,,5754HX,Deurne,Deurne,Noord-Brabant,VBO,5.807839,51.471210
Hofstede,8,,,5754HX,Deurne,Deurne,Noord-Brabant,VBO,5.808328,51.471199
Hofstede,9,,,5754HX,Deurne,Deurne,Noord-Brabant,VBO,5.807652,51.471264
Hofstede,10,,,5754HX,Deurne,Deurne,Noord-Brabant,VBO,5.808430,51.471396
Hofstede,11,,,5754HX,Deurne,Deurne,Noord-Brabant,VBO,5.807566,51.471292
Hofstede,12,,,5754HX,Deurne,Deurne,Noord-Brabant,VBO,5.808847,51.471269
Hofstede,13,,,5754HX,Deurne,Deurne,Noord-Brabant,VBO,5.807408,51.471373
Hofstede,14,,,5754HX,Deurne,Deurne,Noord-Brabant,VBO,5.809105,51.471187
Hofstede,15,,,5754HX,Deurne,Deurne,Noord-Brabant,VBO,5.807380,51.471436
Hofstede,16,,,5754HX,Deurne,Deurne,Noord-Brabant,VBO,5.809335,51.471141
Hofstede,17,,,5754HX,Deurne,Deurne,Noord-Brabant,VBO,5.807353,51.471571
Hofstede,18,,,5754HX,Deurne,Deurne,Noord-Brabant,VBO,5.809593,51.471077
Hofstede,19,,,5754HX,Deurne,Deurne,Noord-Brabant,VBO,5.807396,51.471634
Hofstede,21,,,5754HX,Deurne,Deurne,Noord-Brabant,VBO,5.807556,51.471741
Hofstede,23,,,5754HX,Deurne,Deurne,Noord-Brabant,VBO,5.807628,51.471759
Hofstede,25,,,5754HX,Deurne,Deurne,Noord-Brabant,VBO,5.807815,51.471776
Hofstede,27,,,5754HX,Deurne,Deurne,Noord-Brabant,VBO,5.807959,51.471749
Hofstede,29,,,5754HX,Deurne,Deurne,Noord-Brabant,VBO,5.808145,51.471694
Hofstede,31,,,5754HX,Deurne,Deurne,Noord-Brabant,VBO,5.808231,51.471658
Hofstede,33,,,5754HX,Deurne,Deurne,Noord-Brabant,VBO,5.808432,51.471612
Hofstede,35,,,5754HX,Deurne,Deurne,Noord-Brabant,VBO,5.808691,51.471539
Hofstede,37,,,5754HX,Deurne,Deurne,Noord-Brabant,VBO,5.808949,51.471484
Hofstede,39,,,5754HX,Deurne,Deurne,Noord-Brabant,VBO,5.809179,51.471412
De Burcht,1,,,5754HZ,Deurne,Deurne,Noord-Brabant,VBO,5.808967,51.470280
De Burcht,2,,,5754HZ,Deurne,Deurne,Noord-Brabant,VBO,5.809327,51.470332
De Burcht,3,,,5754HZ,Deurne,Deurne,Noord-Brabant,VBO,5.809013,51.470558
De Burcht,4,,,5754HZ,Deurne,Deurne,Noord-Brabant,VBO,5.809430,51.470593
De Burcht,5,,,5754HZ,Deurne,Deurne,Noord-Brabant,VBO,5.808611,51.470677
De Burcht,6,,,5754HZ,Deurne,Deurne,Noord-Brabant,VBO,5.809619,51.470736
De Burcht,7,,,5754HZ,Deurne,Deurne,Noord-Brabant,VBO,5.808338,51.470722
De Burcht,8,,,5754HZ,Deurne,Deurne,Noord-Brabant,VBO,5.809836,51.470861
De Burcht,10,,,5754HZ,Deurne,Deurne,Noord-Brabant,VBO,5.809952,51.471013
De Burcht,11,,,5754HZ,Deurne,Deurne,Noord-Brabant,VBO,5.808627,51.470883
De Burcht,12,,,5754HZ,Deurne,Deurne,Noord-Brabant,VBO,5.810183,51.471075
De Burcht,13,,,5754HZ,Deurne,Deurne,Noord-Brabant,VBO,5.808929,51.470810
De Burcht,14,,,5754HZ,Deurne,Deurne,Noord-Brabant,VBO,5.810486,51.471128
De Burcht,15,,,5754HZ,Deurne,Deurne,Noord-Brabant,VBO,5.809202,51.470755
De Burcht,16,,,5754HZ,Deurne,Deurne,Noord-Brabant,VBO,5.810888,51.471028
De Burcht,18,,,5754HZ,Deurne,Deurne,Noord-Brabant,VBO,5.810691,51.470817
De Burcht,20,,,5754HZ,Deurne,Deurne,Noord-Brabant,VBO,5.810453,51.470715
De Burcht,22,,,5754HZ,Deurne,Deurne,Noord-Brabant,VBO,5.810222,51.470626
De Burcht,24,,,5754HZ,Deurne,Deurne,Noord-Brabant,VBO,5.810076,51.470411
De Burcht,26,,,5754HZ,Deurne,Deurne,Noord-Brabant,VBO,5.809974,51.470240
De Burcht,28,,,5754HZ,Deurne,Deurne,Noord-Brabant,VBO,5.810262,51.470230
De Burcht,30,,,5754HZ,Deurne,Deurne,Noord-Brabant,VBO,5.810480,51.470499
De Burcht,32,,,5754HZ,Deurne,Deurne,Noord-Brabant,VBO,5.810899,51.470623
De Burcht,34,,,5754HZ,Deurne,Deurne,Noord-Brabant,VBO,5.811116,51.470757
De Burcht,36,,,5754HZ,Deurne,Deurne,Noord-Brabant,VBO,5.811232,51.470919
Langstraat,2,,,5754PA,Deurne,Deurne,Noord-Brabant,VBO,5.804290,51.471317
Langstraat,4,,,5754PA,Deurne,Deurne,Noord-Brabant,VBO,5.804421,51.471397
Langstraat,50,,,5754PA,Deurne,Deurne,Noord-Brabant,VBO,5.807776,51.472271
Langstraat,56,,,5754PA,Deurne,Deurne,Noord-Brabant,VBO,5.808107,51.472215
Langstraat,58,,,5754PA,Deurne,Deurne,Noord-Brabant,VBO,5.808222,51.472233
Langstraat,60,,,5754PA,Deurne,Deurne,Noord-Brabant,VBO,5.808467,51.472277
Langstraat,64,,,5754PA,Deurne,Deurne,Noord-Brabant,VBO,5.808742,51.472402
Langstraat,68,,,5754PA,Deurne,Deurne,Noord-Brabant,VBO,5.809015,51.472383
Langstraat,74,,,5754PA,Deurne,Deurne,Noord-Brabant,VBO,5.809203,51.472418
Langstraat,76,,,5754PA,Deurne,Deurne,Noord-Brabant,VBO,5.809448,51.472462
Langstraat,78,,,5754PA,Deurne,Deurne,Noord-Brabant,VBO,5.809707,51.472515
Langstraat,80,,,5754PA,Deurne,Deurne,Noord-Brabant,VBO,5.809952,51.472523
Langstraat,82,,,5754PA,Deurne,Deurne,Noord-Brabant,VBO,5.810284,51.472585
Langstraat,84,a,,5754PA,Deurne,Deurne,Noord-Brabant,VBO,5.810846,51.472691
Langstraat,84,,,5754PA,Deurne,Deurne,Noord-Brabant,VBO,5.810601,51.472638
Langstraat,86,,,5754PA,Deurne,Deurne,Noord-Brabant,VBO,5.811149,51.472753
Langstraat,88,a,,5754PA,Deurne,Deurne,Noord-Brabant,VBO,5.811553,51.472832
Langstraat,88,,,5754PA,Deurne,Deurne,Noord-Brabant,VBO,5.811379,51.472788
Langstraat,90,,,5754PA,Deurne,Deurne,Noord-Brabant,VBO,5.811741,51.472975
Langstraat,92,,,5754PA,Deurne,Deurne,Noord-Brabant,VBO,5.812057,51.472929
Langstraat,94,a,,5754PA,Deurne,Deurne,Noord-Brabant,VBO,5.812562,51.473026
Langstraat,94,,,5754PA,Deurne,Deurne,Noord-Brabant,VBO,5.812317,51.472982
Langstraat,96,,,5754PA,Deurne,Deurne,Noord-Brabant,VBO,5.812865,51.473061
Langstraat,100,,,5754PB,Deurne,Deurne,Noord-Brabant,VBO,5.813153,51.473141
Langstraat,104,a,,5754PB,Deurne,Deurne,Noord-Brabant,VBO,5.813337,51.472839
Langstraat,104,,,5754PB,Deurne,Deurne,Noord-Brabant,VBO,5.813470,51.473212
Langstraat,122,,,5754PB,Deurne,Deurne,Noord-Brabant,VBO,5.815593,51.473941
Langstraat,128,a,,5754PB,Deurne,Deurne,Noord-Brabant,VBO,5.821644,51.476049
Langstraat,128,,,5754PB,Deurne,Deurne,Noord-Brabant,VBO,5.819345,51.474970
Langstraat,130,a,,5754PB,Deurne,Deurne,Noord-Brabant,VBO,5.822626,51.476333
Langstraat,130,b,,5754PB,Deurne,Deurne,Noord-Brabant,VBO,5.822725,51.476144
Langstraat,130,,,5754PB,Deurne,Deurne,Noord-Brabant,VBO,5.822222,51.476271
Langstraat,132,,,5754PB,Deurne,Deurne,Noord-Brabant,VBO,5.823061,51.476682
Langstraat,134,a,,5754PB,Deurne,Deurne,Noord-Brabant,VBO,5.824343,51.476758
Langstraat,134,,,5754PB,Deurne,Deurne,Noord-Brabant,VBO,5.824776,51.476873
Langstraat,138,,,5754PB,Deurne,Deurne,Noord-Brabant,VBO,5.825555,51.477140
Langstraat,140,a,,5754PB,Deurne,Deurne,Noord-Brabant,VBO,5.826061,51.477384
Langstraat,140,,,5754PB,Deurne,Deurne,Noord-Brabant,VBO,5.825716,51.477328
Langstraat,142,a,,5754PB,Deurne,Deurne,Noord-Brabant,VBO,5.826321,51.477380
Langstraat,142,b,,5754PB,Deurne,Deurne,Noord-Brabant,VBO,5.826573,51.477119
Langstraat,142,c,,5754PB,Deurne,Deurne,Noord-Brabant,VBO,5.827099,51.477449
Langstraat,142,,,5754PB,Deurne,Deurne,Noord-Brabant,VBO,5.826147,51.477264
Langstraat,144,,,5754PB,Deurne,Deurne,Noord-Brabant,VBO,5.827261,51.477808
Langstraat,146,,,5754PB,Deurne,Deurne,Noord-Brabant,VBO,5.827867,51.478030
Langstraat,150,,,5754PB,Deurne,Deurne,Noord-Brabant,VBO,5.833520,51.480507
Langstraat,152,,,5754PB,Deurne,Deurne,Noord-Brabant,VBO,5.833693,51.480579
Langstraat,156,,,5754PB,Deurne,Deurne,Noord-Brabant,VBO,5.844651,51.485094
Langstraat,158,,,5754PB,Deurne,Deurne,Noord-Brabant,VBO,5.854713,51.489153
Langstraat,164,,,5754PB,Deurne,Deurne,Noord-Brabant,VBO,5.859901,51.491001
Maasveld,4,,,5754PC,Deurne,Deurne,Noord-Brabant,VBO,5.819931,51.474123
Maasveld,7,,,5754PC,Deurne,Deurne,Noord-Brabant,VBO,5.822337,51.471750
Oude Graaf,1,,,5754PD,Deurne,Deurne,Noord-Brabant,VBO,5.824264,51.476066
Oude Graaf,3,,,5754PD,Deurne,Deurne,Noord-Brabant,VBO,5.824960,51.475093
Oude Graaf,6,,,5754PD,Deurne,Deurne,Noord-Brabant,VBO,5.827445,51.470113
Oude Graaf,7,,,5754PD,Deurne,Deurne,Noord-Brabant,VBO,5.825157,51.474669
Oude Graaf,8,a,,5754PD,Deurne,Deurne,Noord-Brabant,VBO,5.828138,51.468798
Oude Graaf,8,,,5754PD,Deurne,Deurne,Noord-Brabant,VBO,5.828068,51.469085
Oude Graaf,10,,,5754PD,Deurne,Deurne,Noord-Brabant,VBO,5.828620,51.468095
Oude Graaf,12,,,5754PD,Deurne,Deurne,Noord-Brabant,VBO,5.828447,51.468050
Schuttersveld,2,a,,5754PE,Deurne,Deurne,Noord-Brabant,VBO,5.829299,51.470519
Schuttersveld,2,,,5754PE,Deurne,Deurne,Noord-Brabant,VBO,5.829925,51.470661
Schuttersveld,15,,,5754PE,Deurne,Deurne,Noord-Brabant,VBO,5.831473,51.471338
Schuttersveld,17,,,5754PE,Deurne,Deurne,Noord-Brabant,VBO,5.832050,51.471470
Riet,1,,,5754PG,Deurne,Deurne,Noord-Brabant,VBO,5.828843,51.477730
Riet,3,,,5754PG,Deurne,Deurne,Noord-Brabant,VBO,5.831555,51.476830
Riet,4,,,5754PG,Deurne,Deurne,Noord-Brabant,VBO,5.830040,51.475029
Riet,5,,,5754PG,Deurne,Deurne,Noord-Brabant,VBO,5.830812,51.474432
Riet,6,a,,5754PG,Deurne,Deurne,Noord-Brabant,VBO,5.829830,51.474190
Riet,6,,,5754PG,Deurne,Deurne,Noord-Brabant,VBO,5.830465,51.474263
Riet,8,a,,5754PG,Deurne,Deurne,Noord-Brabant,VBO,5.830571,51.473346
Riet,8,,,5754PG,Deurne,Deurne,Noord-Brabant,VBO,5.830993,51.473272
Riet,10,,,5754PG,Deurne,Deurne,Noord-Brabant,VBO,5.831479,51.472039
Riet,12,,,5754PG,Deurne,Deurne,Noord-Brabant,VBO,5.832985,51.469993
Riet,14,,,5754PG,Deurne,Deurne,Noord-Brabant,VBO,5.833355,51.469524
Bandert,5,,,5754PH,Deurne,Deurne,Noord-Brabant,VBO,5.833151,51.479601
Bandert,6,,,5754PH,Deurne,Deurne,Noord-Brabant,VBO,5.836389,51.473638
Bandert,8,a,,5754PH,Deurne,Deurne,Noord-Brabant,VBO,5.836773,51.472638
Bandert,8,,,5754PH,Deurne,Deurne,Noord-Brabant,VBO,5.836926,51.472665
Bandert,11,,,5754PH,Deurne,Deurne,Noord-Brabant,VBO,5.837248,51.473176
Bandert,12,,,5754PH,Deurne,Deurne,Noord-Brabant,VBO,5.837052,51.472287
Bandert,14,,,5754PH,Deurne,Deurne,Noord-Brabant,VBO,5.837760,51.471143
Trienenbergweg,4,,,5754PJ,Deurne,Deurne,Noord-Brabant,VBO,5.837831,51.478325
Trienenbergweg,6,,,5754PJ,Deurne,Deurne,Noord-Brabant,VBO,5.838073,51.478054
Trienenbergweg,7,,,5754PJ,Deurne,Deurne,Noord-Brabant,VBO,5.849636,51.467105
Trienenbergweg,9,,,5754PJ,Deurne,Deurne,Noord-Brabant,VBO,5.849953,51.467053
Nachtegaalweg,13,,,5754PL,Deurne,Deurne,Noord-Brabant,VBO,5.856746,51.473684
Nachtegaalweg,15,,,5754PL,Deurne,Deurne,Noord-Brabant,VBO,5.857755,51.472889
Kanveldweg,1,,,5754PM,Deurne,Deurne,Noord-Brabant,VBO,5.856671,51.487787
Kanveldweg,3,,,5754PM,Deurne,Deurne,Noord-Brabant,VBO,5.857431,51.486764
Kanveldweg,5,,,5754PM,Deurne,Deurne,Noord-Brabant,VBO,5.860928,51.480381
Kanveldweg,8,,,5754PM,Deurne,Deurne,Noord-Brabant,VBO,5.859635,51.482059
Onderdijk,6,,,5754PN,Deurne,Deurne,Noord-Brabant,VBO,5.857341,51.485735
Wittedijk,1,,,5754PP,Deurne,Deurne,Noord-Brabant,VBO,5.817831,51.464045
Wittedijk,2,a,,5754PP,Deurne,Deurne,Noord-Brabant,VBO,5.818948,51.463394
Wittedijk,2,b,,5754PP,Deurne,Deurne,Noord-Brabant,VBO,5.819394,51.463419
Wittedijk,2,,,5754PP,Deurne,Deurne,Noord-Brabant,VBO,5.818316,51.463522
Wittedijk,3,,,5754PP,Deurne,Deurne,Noord-Brabant,VBO,5.818676,51.464023
Wittedijk,4,,,5754PP,Deurne,Deurne,Noord-Brabant,VBO,5.823167,51.463774
Wittedijk,5,,,5754PP,Deurne,Deurne,Noord-Brabant,VBO,5.821296,51.463673
Wittedijk,6,,,5754PP,Deurne,Deurne,Noord-Brabant,VBO,5.826614,51.464525
Wittedijk,7,,,5754PP,Deurne,Deurne,Noord-Brabant,VBO,5.830484,51.467612
Wittedijk,8,a,,5754PP,Deurne,Deurne,Noord-Brabant,VBO,5.832919,51.466110
Wittedijk,8,,,5754PP,Deurne,Deurne,Noord-Brabant,VBO,5.833274,51.465917
Wittedijk,9,,,5754PP,Deurne,Deurne,Noord-Brabant,VBO,5.831248,51.467509
Wittedijk,10,a,,5754PP,Deurne,Deurne,Noord-Brabant,VBO,5.833751,51.468893
Wittedijk,10,b,,5754PP,Deurne,Deurne,Noord-Brabant,VBO,5.834109,51.469160
Wittedijk,10,,,5754PP,Deurne,Deurne,Noord-Brabant,VBO,5.833127,51.468347
Wittedijk,11,,,5754PP,Deurne,Deurne,Noord-Brabant,VBO,5.837811,51.470460
Wittedijk,12,a,,5754PP,Deurne,Deurne,Noord-Brabant,VBO,5.840200,51.470783
Wittedijk,12,,,5754PP,Deurne,Deurne,Noord-Brabant,VBO,5.838862,51.470518
Wittedijk,14,,,5754PP,Deurne,Deurne,Noord-Brabant,VBO,5.842413,51.471565
Wittedijk,18,,,5754PP,Deurne,Deurne,Noord-Brabant,VBO,5.847249,51.472993
Wittedijk,20,,,5754PP,Deurne,Deurne,Noord-Brabant,VBO,5.847841,51.473180
Wittedijk,24,,,5754PP,Deurne,Deurne,Noord-Brabant,VBO,5.852736,51.474644
Vlierdijk,3,a,,5754PR,Deurne,Deurne,Noord-Brabant,VBO,5.835059,51.467243
Vlierdijk,3,,,5754PR,Deurne,Deurne,Noord-Brabant,VBO,5.834527,51.467236
Vlierdijk,5,z,,5754PR,Deurne,Deurne,Noord-Brabant,VBO,5.836639,51.466072
Vlierdijk,5,,,5754PR,Deurne,Deurne,Noord-Brabant,VBO,5.836858,51.465926
Vlierdijk,7,a,,5754PR,Deurne,Deurne,Noord-Brabant,VBO,5.837062,51.465381
Hornveld,3,,,5754PS,Deurne,Deurne,Noord-Brabant,VBO,5.818148,51.472294
Hornveld,4,,,5754PS,Deurne,Deurne,Noord-Brabant,VBO,5.817107,51.472677
Hornveld,30,a,,5754PS,Deurne,Deurne,Noord-Brabant,VBO,5.821337,51.465222
Hornveld,30,,,5754PS,Deurne,Deurne,Noord-Brabant,VBO,5.821541,51.465227
Ommezwanksedijk,3,,,5754PT,Deurne,Deurne,Noord-Brabant,VBO,5.827793,51.459909
Ommezwanksedijk,5,,,5754PT,Deurne,Deurne,Noord-Brabant,VBO,5.828099,51.460090
Ommezwanksedijk,6,,,5754PT,Deurne,Deurne,Noord-Brabant,VBO,5.835461,51.462535
Ommezwanksedijk,7,,,5754PT,Deurne,Deurne,Noord-Brabant,VBO,5.828894,51.460705
Ommezwanksedijk,8,,,5754PT,Deurne,Deurne,Noord-Brabant,VBO,5.837610,51.463206
Ommezwanksedijk,10,,,5754PT,Deurne,Deurne,Noord-Brabant,VBO,5.839674,51.463704
Ommezwanksedijk,11,z,,5754PT,Deurne,Deurne,Noord-Brabant,VBO,5.843063,51.465023
Ommezwanksedijk,11,,,5754PT,Deurne,Deurne,Noord-Brabant,VBO,5.842937,51.464956
Ommezwanksedijk,13,,,5754PT,Deurne,Deurne,Noord-Brabant,VBO,5.845361,51.465522
Ommezwanksedijk,18,,,5754PT,Deurne,Deurne,Noord-Brabant,VBO,5.855169,51.467686
Ommezwanksedijk,20,,,5754PT,Deurne,Deurne,Noord-Brabant,VBO,5.856179,51.467933
Ommezwanksedijk,21,a,,5754PT,Deurne,Deurne,Noord-Brabant,VBO,5.848568,51.466759
Ommezwanksedijk,21,,,5754PT,Deurne,Deurne,Noord-Brabant,VBO,5.849343,51.466576
Ommezwanksedijk,22,,,5754PT,Deurne,Deurne,Noord-Brabant,VBO,5.856486,51.468016
Ommezwanksedijk,23,,,5754PT,Deurne,Deurne,Noord-Brabant,VBO,5.852950,51.467488
Bosweg,3,,,5754PV,Deurne,Deurne,Noord-Brabant,VBO,5.829695,51.461736
Bosweg,4,,,5754PV,Deurne,Deurne,Noord-Brabant,VBO,5.827586,51.462337
Bosweg,5,,,5754PV,Deurne,Deurne,Noord-Brabant,VBO,5.829789,51.462264
Bosweg,7,a,,5754PV,Deurne,Deurne,Noord-Brabant,VBO,5.832068,51.460126
Bosweg,7,,,5754PV,Deurne,Deurne,Noord-Brabant,VBO,5.832411,51.459820
Bosweg,8,,,5754PV,Deurne,Deurne,Noord-Brabant,VBO,5.831867,51.459649
Beuzen,6,,,5754PW,Deurne,Deurne,Noord-Brabant,VBO,5.840216,51.466234
Beuzen,7,,,5754PW,Deurne,Deurne,Noord-Brabant,VBO,5.840986,51.466112
Beuzen,8,a,,5754PW,Deurne,Deurne,Noord-Brabant,VBO,5.839633,51.465536
Beuzen,8,,,5754PW,Deurne,Deurne,Noord-Brabant,VBO,5.840914,51.465585
Bosrandweg,1,,,5754PX,Deurne,Deurne,Noord-Brabant,VBO,5.850794,51.466355
Bosrandweg,3,,,5754PX,Deurne,Deurne,Noord-Brabant,VBO,5.851979,51.461199
Bosrandweg,5,,,5754PX,Deurne,Deurne,Noord-Brabant,VBO,5.852876,51.458823
Paardekopweg,2,,,5754PZ,Deurne,Deurne,Noord-Brabant,VBO,5.866894,51.448177
Paardekopweg,6,a,,5754PZ,Deurne,Deurne,Noord-Brabant,VBO,5.865523,51.453985
Paardekopweg,6,,,5754PZ,Deurne,Deurne,Noord-Brabant,VBO,5.865336,51.453969
Paardekopweg,7,,,5754PZ,Deurne,Deurne,Noord-Brabant,VBO,5.864511,51.452753
Paardekopweg,9,,,5754PZ,Deurne,Deurne,Noord-Brabant,VBO,5.863248,51.457253
Paardekopweg,10,a,,5754PZ,Deurne,Deurne,Noord-Brabant,VBO,5.865200,51.455393
Paardekopweg,10,,,5754PZ,Deurne,Deurne,Noord-Brabant,VBO,5.864702,51.455872
Paardekopweg,11,,,5754PZ,Deurne,Deurne,Noord-Brabant,VBO,5.863206,51.457361
Paardekopweg,14,,,5754PZ,Deurne,Deurne,Noord-Brabant,VBO,5.863381,51.460255
Paardekopweg,16,,,5754PZ,Deurne,Deurne,Noord-Brabant,VBO,5.862620,51.463260
Paardekopweg,18,,,5754PZ,Deurne,Deurne,Noord-Brabant,VBO,5.862162,51.464817
Paardekopweg,20,a,,5754PZ,Deurne,Deurne,Noord-Brabant,VBO,5.862179,51.466426
Paardekopweg,20,,,5754PZ,Deurne,Deurne,Noord-Brabant,VBO,5.861776,51.466418
Klamp,4,a,,5754RA,Deurne,Deurne,Noord-Brabant,VBO,5.856266,51.463888
Klamp,4,,,5754RA,Deurne,Deurne,Noord-Brabant,VBO,5.856742,51.463913
Halvemaanweg,7,,,5754RB,Deurne,Deurne,Noord-Brabant,VBO,5.831079,51.457559
Halvemaanweg,11,,,5754RB,Deurne,Deurne,Noord-Brabant,VBO,5.832885,51.458308
Halvemaanweg,13,,,5754RB,Deurne,Deurne,Noord-Brabant,VBO,5.833506,51.458548
Halvemaanweg,15,,,5754RB,Deurne,Deurne,Noord-Brabant,VBO,5.835239,51.459180
Halvemaanweg,17,,,5754RB,Deurne,Deurne,Noord-Brabant,VBO,5.835600,51.459340
Halvemaanweg,19,,,5754RB,Deurne,Deurne,Noord-Brabant,VBO,5.836019,51.459464
Halvemaanweg,21,,,5754RB,Deurne,Deurne,Noord-Brabant,VBO,5.839709,51.458731
Halvemaanweg,23,,,5754RB,Deurne,Deurne,Noord-Brabant,VBO,5.841663,51.458409
Halvemaanweg,29,,,5754RB,Deurne,Deurne,Noord-Brabant,VBO,5.847806,51.458277
Halvemaanweg,31,,,5754RB,Deurne,Deurne,Noord-Brabant,VBO,5.848912,51.458146
Halvemaanweg,35,,,5754RB,Deurne,Deurne,Noord-Brabant,VBO,5.853962,51.458036
Halvemaanweg,4,a,,5754RC,Deurne,Deurne,Noord-Brabant,VBO,5.824542,51.456123
Halvemaanweg,4,,,5754RC,Deurne,Deurne,Noord-Brabant,VBO,5.823742,51.456149
Halvemaanweg,12,,,5754RC,Deurne,Deurne,Noord-Brabant,VBO,5.827798,51.455940
Halvemaanweg,16,,,5754RC,Deurne,Deurne,Noord-Brabant,VBO,5.830844,51.457075
Halvemaanweg,18,,,5754RC,Deurne,Deurne,Noord-Brabant,VBO,5.831465,51.457306
Halvemaanweg,20,a,,5754RC,Deurne,Deurne,Noord-Brabant,VBO,5.833988,51.458306
Halvemaanweg,20,b,,5754RC,Deurne,Deurne,Noord-Brabant,VBO,5.834368,51.458455
Halvemaanweg,20,,,5754RC,Deurne,Deurne,Noord-Brabant,VBO,5.831898,51.457475
Halvemaanweg,22,,,5754RC,Deurne,Deurne,Noord-Brabant,VBO,5.834571,51.458562
Halvemaanweg,24,a,,5754RC,Deurne,Deurne,Noord-Brabant,VBO,5.835942,51.458934
Halvemaanweg,24,,,5754RC,Deurne,Deurne,Noord-Brabant,VBO,5.835278,51.458811
Halvemaanweg,26,a,,5754RC,Deurne,Deurne,Noord-Brabant,VBO,5.838248,51.457874
Halvemaanweg,26,,,5754RC,Deurne,Deurne,Noord-Brabant,VBO,5.838496,51.458223
Halvemaanweg,28,,,5754RC,Deurne,Deurne,Noord-Brabant,VBO,5.841200,51.458150
Halvemaanweg,30,,,5754RC,Deurne,Deurne,Noord-Brabant,VBO,5.843138,51.457723
Halvemaanweg,32,,,5754RC,Deurne,Deurne,Noord-Brabant,VBO,5.844358,51.457391
Halvemaanweg,36,,,5754RC,Deurne,Deurne,Noord-Brabant,VBO,5.851270,51.457912
Halvemaanweg,40,a,,5754RC,Deurne,Deurne,Noord-Brabant,VBO,5.860453,51.456921
Halvemaanweg,40,,,5754RC,Deurne,Deurne,Noord-Brabant,VBO,5.859692,51.457128
Randweg,5,,,5754RC,Deurne,Deurne,Noord-Brabant,VBO,5.812056,51.471212
Randweg,13,z,,5754RC,Deurne,Deurne,Noord-Brabant,VBO,5.815486,51.467732
Randweg,13,,,5754RC,Deurne,Deurne,Noord-Brabant,VBO,5.815576,51.467532
Randweg,15,,,5754RC,Deurne,Deurne,Noord-Brabant,VBO,5.816019,51.467171
Daal,1,b,,5754RD,Deurne,Deurne,Noord-Brabant,VBO,5.855420,51.456004
Daal,1,,,5754RD,Deurne,Deurne,Noord-Brabant,VBO,5.855008,51.456234
Daal,3,z,,5754RD,Deurne,Deurne,Noord-Brabant,VBO,5.855361,51.454832
Daal,3,,,5754RD,Deurne,Deurne,Noord-Brabant,VBO,5.855434,51.454345
Pothuis,2,,,5754RE,Deurne,Deurne,Noord-Brabant,VBO,5.848094,51.456569
Pothuis,5,,,5754RE,Deurne,Deurne,Noord-Brabant,VBO,5.850159,51.452798
Pothuis,8,a,,5754RE,Deurne,Deurne,Noord-Brabant,VBO,5.848944,51.449966
Pothuis,8,,,5754RE,Deurne,Deurne,Noord-Brabant,VBO,5.849039,51.450357
Veendijk,1,,,5754RG,Deurne,Deurne,Noord-Brabant,VBO,5.830530,51.454380
Veendijk,3,,,5754RG,Deurne,Deurne,Noord-Brabant,VBO,5.830163,51.455073
Veendijk,4,,,5754RG,Deurne,Deurne,Noord-Brabant,VBO,5.831665,51.454195
Veendijk,5,,,5754RG,Deurne,Deurne,Noord-Brabant,VBO,5.835055,51.455108
Veendijk,7,a,,5754RG,Deurne,Deurne,Noord-Brabant,VBO,5.837125,51.455609
Veendijk,7,,,5754RG,Deurne,Deurne,Noord-Brabant,VBO,5.836856,51.455335
Veendijk,8,a,,5754RG,Deurne,Deurne,Noord-Brabant,VBO,5.835469,51.454819
Veendijk,8,,,5754RG,Deurne,Deurne,Noord-Brabant,VBO,5.832808,51.454379
Veendijk,8,,,5754RG,Deurne,Deurne,Noord-Brabant,VBO,5.833078,51.454496
Veendijk,9,,,5754RG,Deurne,Deurne,Noord-Brabant,VBO,5.837626,51.456105
Veendijk,10,,,5754RG,Deurne,Deurne,Noord-Brabant,VBO,5.837760,51.455143
Veendijk,12,a,,5754RG,Deurne,Deurne,Noord-Brabant,VBO,5.840614,51.455584
Veendijk,12,,,5754RG,Deurne,Deurne,Noord-Brabant,VBO,5.840283,51.455663
Veendijk,14,,,5754RG,Deurne,Deurne,Noord-Brabant,VBO,5.844668,51.456195
Veendijk,15,,,5754RG,Deurne,Deurne,Noord-Brabant,VBO,5.840468,51.456030
Veendijk,16,,,5754RG,Deurne,Deurne,Noord-Brabant,VBO,5.845140,51.456435
Veendijk,17,z,,5754RG,Deurne,Deurne,Noord-Brabant,VBO,5.841877,51.456267
Veendijk,17,,,5754RG,Deurne,Deurne,Noord-Brabant,VBO,5.842168,51.456379
Voorpeelweg,3,,,5754RH,Deurne,Deurne,Noord-Brabant,VBO,5.832244,51.453115
Voorpeelweg,5,,,5754RH,Deurne,Deurne,Noord-Brabant,VBO,5.832417,51.453150
Voorpeelweg,7,a,,5754RH,Deurne,Deurne,Noord-Brabant,VBO,5.833097,51.453516
Voorpeelweg,7,,,5754RH,Deurne,Deurne,Noord-Brabant,VBO,5.833038,51.453318
Voorpeelweg,9,a,,5754RH,Deurne,Deurne,Noord-Brabant,VBO,5.838144,51.453191
Voorpeelweg,9,,,5754RH,Deurne,Deurne,Noord-Brabant,VBO,5.834436,51.453583
Voorpeelweg,11,,,5754RH,Deurne,Deurne,Noord-Brabant,VBO,5.838820,51.453161
Voorpeelweg,13,,,5754RH,Deurne,Deurne,Noord-Brabant,VBO,5.839523,51.452961
Voorpeelweg,17,z,,5754RH,Deurne,Deurne,Noord-Brabant,VBO,5.841283,51.452857
Voorpeelweg,17,,,5754RH,Deurne,Deurne,Noord-Brabant,VBO,5.841836,51.452709
Voorpeelweg,19,,,5754RH,Deurne,Deurne,Noord-Brabant,VBO,5.844683,51.452536
Voorpeelweg,21,,,5754RH,Deurne,Deurne,Noord-Brabant,VBO,5.845013,51.452463
Voorpeelweg,23,,,5754RH,Deurne,Deurne,Noord-Brabant,VBO,5.850408,51.452006
Voorpeelweg,25,a,,5754RH,Deurne,Deurne,Noord-Brabant,VBO,5.852722,51.451810
Voorpeelweg,25,,,5754RH,Deurne,Deurne,Noord-Brabant,VBO,5.853245,51.451761
Voorpeelweg,27,a,,5754RH,Deurne,Deurne,Noord-Brabant,VBO,5.860205,51.451018
Voorpeelweg,29,,,5754RH,Deurne,Deurne,Noord-Brabant,VBO,5.860838,51.450970
Voorpeelweg,33,,,5754RH,Deurne,Deurne,Noord-Brabant,VBO,5.864933,51.450468
Voorpeelweg,4,,,5754RJ,Deurne,Deurne,Noord-Brabant,VBO,5.833048,51.452923
Voorpeelweg,10,,,5754RJ,Deurne,Deurne,Noord-Brabant,VBO,5.835092,51.452978
Voorpeelweg,12,,,5754RJ,Deurne,Deurne,Noord-Brabant,VBO,5.836875,51.452881
Voorpeelweg,18,,,5754RJ,Deurne,Deurne,Noord-Brabant,VBO,5.842833,51.452356
Voorpeelweg,22,a,,5754RJ,Deurne,Deurne,Noord-Brabant,VBO,5.846214,51.451735
Voorpeelweg,22,,,5754RJ,Deurne,Deurne,Noord-Brabant,VBO,5.846691,51.451935
Voorpeelweg,28,,,5754RJ,Deurne,Deurne,Noord-Brabant,VBO,5.851893,51.451366
Voorpeelweg,40,,,5754RJ,Deurne,Deurne,Noord-Brabant,VBO,5.865417,51.450062
Nastreek,3,,,5754RK,Deurne,Deurne,Noord-Brabant,VBO,5.834009,51.463262
Nastreek,4,a,,5754RK,Deurne,Deurne,Noord-Brabant,VBO,5.835098,51.461327
Nastreek,4,z,,5754RK,Deurne,Deurne,Noord-Brabant,VBO,5.835422,51.461310
Nastreek,4,,,5754RK,Deurne,Deurne,Noord-Brabant,VBO,5.835305,51.461516
Nastreek,5,,,5754RK,Deurne,Deurne,Noord-Brabant,VBO,5.837381,51.460475
Nastreek,7,,,5754RK,Deurne,Deurne,Noord-Brabant,VBO,5.837991,51.460015
Nastreek,10,,,5754RK,Deurne,Deurne,Noord-Brabant,VBO,5.835877,51.461155
Nastreek,12,,,5754RK,Deurne,Deurne,Noord-Brabant,VBO,5.837117,51.459900
Nastreek,16,z,,5754RK,Deurne,Deurne,Noord-Brabant,VBO,5.836389,51.460027
Nastreek,16,,,5754RK,Deurne,Deurne,Noord-Brabant,VBO,5.836958,51.459838
Nastreek,24,a,,5754RK,Deurne,Deurne,Noord-Brabant,VBO,5.839543,51.457388
Nastreek,28,,,5754RK,Deurne,Deurne,Noord-Brabant,VBO,5.840351,51.456697
Nastreek,29,,,5754RK,Deurne,Deurne,Noord-Brabant,VBO,5.841316,51.456323
Nastreek,36,,,5754RK,Deurne,Deurne,Noord-Brabant,VBO,5.841500,51.450751
Randweg,2,,,5754RL,Deurne,Deurne,Noord-Brabant,VBO,5.806932,51.471195
Randweg,4,,,5754RL,Deurne,Deurne,Noord-Brabant,VBO,5.807033,51.471284
Randweg,6,,,5754RL,Deurne,Deurne,Noord-Brabant,VBO,5.811735,51.470818
Randweg,8,,,5754RL,Deurne,Deurne,Noord-Brabant,VBO,5.812565,51.470626
Randweg,10,,,5754RL,Deurne,Deurne,Noord-Brabant,VBO,5.812769,51.470554
Randweg,12,,,5754RL,Deurne,Deurne,Noord-Brabant,VBO,5.815055,51.467228
Randweg,14,,,5754RL,Deurne,Deurne,Noord-Brabant,VBO,5.815211,51.466967
Randweg,16,,,5754RL,Deurne,Deurne,Noord-Brabant,VBO,5.815239,51.466922
Randweg,18,,,5754RL,Deurne,Deurne,Noord-Brabant,VBO,5.815310,51.466796
Randweg,20,,,5754RL,Deurne,Deurne,Noord-Brabant,VBO,5.815395,51.466670
Randweg,22,,,5754RL,Deurne,Deurne,Noord-Brabant,VBO,5.815466,51.466544
Randweg,24,,,5754RL,Deurne,Deurne,Noord-Brabant,VBO,5.816288,51.465192
Randweg,26,,,5754RL,Deurne,Deurne,Noord-Brabant,VBO,5.816387,51.465030
Teunisbloem,1,,,5754SB,Deurne,Deurne,Noord-Brabant,VBO,5.810011,51.468065
Teunisbloem,2,,,5754SB,Deurne,Deurne,Noord-Brabant,VBO,5.810386,51.468072
Teunisbloem,3,,,5754SB,Deurne,Deurne,Noord-Brabant,VBO,5.809753,51.468102
Teunisbloem,4,,,5754SB,Deurne,Deurne,Noord-Brabant,VBO,5.810357,51.468117
Teunisbloem,5,,,5754SB,Deurne,Deurne,Noord-Brabant,VBO,5.809551,51.468102
Teunisbloem,6,,,5754SB,Deurne,Deurne,Noord-Brabant,VBO,5.810243,51.468235
Teunisbloem,7,,,5754SB,Deurne,Deurne,Noord-Brabant,VBO,5.809307,51.468103
Teunisbloem,8,,,5754SB,Deurne,Deurne,Noord-Brabant,VBO,5.810200,51.468262
Teunisbloem,10,,,5754SB,Deurne,Deurne,Noord-Brabant,VBO,5.809985,51.468290
Teunisbloem,12,,,5754SB,Deurne,Deurne,Noord-Brabant,VBO,5.809913,51.468290
Teunisbloem,14,,,5754SB,Deurne,Deurne,Noord-Brabant,VBO,5.809740,51.468290
Teunisbloem,16,,,5754SB,Deurne,Deurne,Noord-Brabant,VBO,5.809654,51.468291
Teunisbloem,18,,,5754SB,Deurne,Deurne,Noord-Brabant,VBO,5.809481,51.468291
Teunisbloem,20,,,5754SB,Deurne,Deurne,Noord-Brabant,VBO,5.809395,51.468292
Teunisbloem,22,,,5754SB,Deurne,Deurne,Noord-Brabant,VBO,5.809006,51.468329
Teunisbloem,24,,,5754SB,Deurne,Deurne,Noord-Brabant,VBO,5.809008,51.468455
Teunisbloem,26,,,5754SB,Deurne,Deurne,Noord-Brabant,VBO,5.809009,51.468581
Sleutelbloem,1,,,5754SC,Deurne,Deurne,Noord-Brabant,VBO,5.809805,51.469072
Sleutelbloem,2,,,5754SC,Deurne,Deurne,Noord-Brabant,VBO,5.810076,51.468820
Sleutelbloem,3,,,5754SC,Deurne,Deurne,Noord-Brabant,VBO,5.809690,51.469064
Sleutelbloem,4,,,5754SC,Deurne,Deurne,Noord-Brabant,VBO,5.810076,51.468864
Sleutelbloem,5,,,5754SC,Deurne,Deurne,Noord-Brabant,VBO,5.809531,51.469064
Sleutelbloem,6,,,5754SC,Deurne,Deurne,Noord-Brabant,VBO,5.810077,51.468972
Sleutelbloem,7,,,5754SC,Deurne,Deurne,Noord-Brabant,VBO,5.809431,51.469065
Sleutelbloem,8,,,5754SC,Deurne,Deurne,Noord-Brabant,VBO,5.810078,51.469026
Sleutelbloem,9,,,5754SC,Deurne,Deurne,Noord-Brabant,VBO,5.809287,51.469065
Sleutelbloem,10,,,5754SC,Deurne,Deurne,Noord-Brabant,VBO,5.810079,51.469134
Sleutelbloem,11,,,5754SC,Deurne,Deurne,Noord-Brabant,VBO,5.809172,51.469065
Sleutelbloem,12,,,5754SC,Deurne,Deurne,Noord-Brabant,VBO,5.810079,51.469197
Sleutelbloem,13,,,5754SC,Deurne,Deurne,Noord-Brabant,VBO,5.808783,51.469067
Sleutelbloem,14,,,5754SC,Deurne,Deurne,Noord-Brabant,VBO,5.809397,51.468588
Sleutelbloem,15,,,5754SC,Deurne,Deurne,Noord-Brabant,VBO,5.808767,51.468932
Sleutelbloem,16,,,5754SC,Deurne,Deurne,Noord-Brabant,VBO,5.809455,51.468588
Sleutelbloem,17,,,5754SC,Deurne,Deurne,Noord-Brabant,VBO,5.808780,51.468797
Sleutelbloem,18,,,5754SC,Deurne,Deurne,Noord-Brabant,VBO,5.809662,51.468596
Sleutelbloem,19,,,5754SC,Deurne,Deurne,Noord-Brabant,VBO,5.809183,51.468760
Sleutelbloem,20,,,5754SC,Deurne,Deurne,Noord-Brabant,VBO,5.809714,51.468587
Sleutelbloem,21,,,5754SC,Deurne,Deurne,Noord-Brabant,VBO,5.809269,51.468760
Sleutelbloem,22,,,5754SC,Deurne,Deurne,Noord-Brabant,VBO,5.809887,51.468586
Sleutelbloem,23,,,5754SC,Deurne,Deurne,Noord-Brabant,VBO,5.809428,51.468759
Sleutelbloem,24,,,5754SC,Deurne,Deurne,Noord-Brabant,VBO,5.809973,51.468595
Sleutelbloem,25,,,5754SC,Deurne,Deurne,Noord-Brabant,VBO,5.809514,51.468759
Sleutelbloem,26,,,5754SC,Deurne,Deurne,Noord-Brabant,VBO,5.810132,51.468613
Sleutelbloem,27,,,5754SC,Deurne,Deurne,Noord-Brabant,VBO,5.809687,51.468758
Sleutelbloem,28,,,5754SC,Deurne,Deurne,Noord-Brabant,VBO,5.810232,51.468621
Sleutelbloem,29,,,5754SC,Deurne,Deurne,Noord-Brabant,VBO,5.809788,51.468767
Paardebloem,1,,,5754SE,Deurne,Deurne,Noord-Brabant,VBO,5.811014,51.469104
Paardebloem,3,,,5754SE,Deurne,Deurne,Noord-Brabant,VBO,5.811086,51.469103
Paardebloem,5,,,5754SE,Deurne,Deurne,Noord-Brabant,VBO,5.811273,51.469112
Paardebloem,7,,,5754SE,Deurne,Deurne,Noord-Brabant,VBO,5.811331,51.469112
Paardebloem,9,,,5754SE,Deurne,Deurne,Noord-Brabant,VBO,5.811518,51.469111
Paardebloem,11,,,5754SE,Deurne,Deurne,Noord-Brabant,VBO,5.811575,51.469111
Paardebloem,13,,,5754SE,Deurne,Deurne,Noord-Brabant,VBO,5.812970,51.468926
Paardebloem,15,,,5754SE,Deurne,Deurne,Noord-Brabant,VBO,5.812969,51.468872
Paardebloem,17,,,5754SE,Deurne,Deurne,Noord-Brabant,VBO,5.812954,51.468773
Paardebloem,19,,,5754SE,Deurne,Deurne,Noord-Brabant,VBO,5.812953,51.468719
Paardebloem,21,,,5754SE,Deurne,Deurne,Noord-Brabant,VBO,5.812967,51.468611
Paardebloem,23,,,5754SE,Deurne,Deurne,Noord-Brabant,VBO,5.812966,51.468566
Paardebloem,25,,,5754SE,Deurne,Deurne,Noord-Brabant,VBO,5.812679,51.468648
Paardebloem,27,,,5754SE,Deurne,Deurne,Noord-Brabant,VBO,5.812593,51.468640
Paardebloem,29,,,5754SE,Deurne,Deurne,Noord-Brabant,VBO,5.812420,51.468640
Paardebloem,31,,,5754SE,Deurne,Deurne,Noord-Brabant,VBO,5.812334,51.468641
Paardebloem,33,,,5754SE,Deurne,Deurne,Noord-Brabant,VBO,5.812176,51.468641
Paardebloem,35,,,5754SE,Deurne,Deurne,Noord-Brabant,VBO,5.812118,51.468641
Paardebloem,2,,,5754SG,Deurne,Deurne,Noord-Brabant,VBO,5.811300,51.468932
Paardebloem,4,,,5754SG,Deurne,Deurne,Noord-Brabant,VBO,5.811358,51.468932
Paardebloem,6,,,5754SG,Deurne,Deurne,Noord-Brabant,VBO,5.811516,51.468931
Paardebloem,8,,,5754SG,Deurne,Deurne,Noord-Brabant,VBO,5.811588,51.468931
Paardebloem,10,,,5754SG,Deurne,Deurne,Noord-Brabant,VBO,5.811732,51.468930
Paardebloem,12,,,5754SG,Deurne,Deurne,Noord-Brabant,VBO,5.811804,51.468939
Paardebloem,14,,,5754SG,Deurne,Deurne,Noord-Brabant,VBO,5.811964,51.469136
Paardebloem,16,,,5754SG,Deurne,Deurne,Noord-Brabant,VBO,5.812050,51.469109
Paardebloem,18,,,5754SG,Deurne,Deurne,Noord-Brabant,VBO,5.812180,51.469108
Paardebloem,20,,,5754SG,Deurne,Deurne,Noord-Brabant,VBO,5.812309,51.469108
Paardebloem,22,,,5754SG,Deurne,Deurne,Noord-Brabant,VBO,5.812439,51.469108
Paardebloem,24,,,5754SG,Deurne,Deurne,Noord-Brabant,VBO,5.812540,51.469134
Paardebloem,26,,,5754SG,Deurne,Deurne,Noord-Brabant,VBO,5.812551,51.468820
Paardebloem,28,,,5754SG,Deurne,Deurne,Noord-Brabant,VBO,5.812479,51.468820
Paardebloem,30,,,5754SG,Deurne,Deurne,Noord-Brabant,VBO,5.812292,51.468820
Paardebloem,32,,,5754SG,Deurne,Deurne,Noord-Brabant,VBO,5.812225,51.468845
Paardebloem,34,,,5754SG,Deurne,Deurne,Noord-Brabant,VBO,5.812048,51.468812
Paardebloem,36,,,5754SG,Deurne,Deurne,Noord-Brabant,VBO,5.811990,51.468822
Paardebloem,38,,,5754SG,Deurne,Deurne,Noord-Brabant,VBO,5.811860,51.468723
Paardebloem,40,,,5754SG,Deurne,Deurne,Noord-Brabant,VBO,5.811845,51.468678
Paardebloem,42,,,5754SG,Deurne,Deurne,Noord-Brabant,VBO,5.811815,51.468606
Paardebloem,44,,,5754SG,Deurne,Deurne,Noord-Brabant,VBO,5.811858,51.468543
Korenbloem,1,,,5754SH,Deurne,Deurne,Noord-Brabant,VBO,5.812949,51.468288
Korenbloem,3,,,5754SH,Deurne,Deurne,Noord-Brabant,VBO,5.813036,51.468278
Korenbloem,5,,,5754SH,Deurne,Deurne,Noord-Brabant,VBO,5.813194,51.468278
Korenbloem,7,,,5754SH,Deurne,Deurne,Noord-Brabant,VBO,5.813295,51.468286
Korenbloem,9,,,5754SH,Deurne,Deurne,Noord-Brabant,VBO,5.813771,51.468393
Korenbloem,11,,,5754SH,Deurne,Deurne,Noord-Brabant,VBO,5.813728,51.468447
Korenbloem,13,,,5754SH,Deurne,Deurne,Noord-Brabant,VBO,5.813657,51.468546
Korenbloem,15,,,5754SH,Deurne,Deurne,Noord-Brabant,VBO,5.813629,51.468600
Korenbloem,17,,,5754SH,Deurne,Deurne,Noord-Brabant,VBO,5.813586,51.468699
Korenbloem,19,,,5754SH,Deurne,Deurne,Noord-Brabant,VBO,5.813558,51.468762
Korenbloem,21,,,5754SH,Deurne,Deurne,Noord-Brabant,VBO,5.813387,51.468933
Korenbloem,23,,,5754SH,Deurne,Deurne,Noord-Brabant,VBO,5.813286,51.468934
Korenbloem,2,,,5754SJ,Deurne,Deurne,Noord-Brabant,VBO,5.813394,51.468088
Korenbloem,4,,,5754SJ,Deurne,Deurne,Noord-Brabant,VBO,5.813466,51.468097
Korenbloem,6,,,5754SJ,Deurne,Deurne,Noord-Brabant,VBO,5.813697,51.468159
Korenbloem,8,,,5754SJ,Deurne,Deurne,Noord-Brabant,VBO,5.813769,51.468177
Korenbloem,10,,,5754SJ,Deurne,Deurne,Noord-Brabant,VBO,5.813927,51.468203
Korenbloem,12,,,5754SJ,Deurne,Deurne,Noord-Brabant,VBO,5.814057,51.468230
Korenbloem,14,,,5754SJ,Deurne,Deurne,Noord-Brabant,VBO,5.814159,51.468373
Korenbloem,16,,,5754SJ,Deurne,Deurne,Noord-Brabant,VBO,5.814042,51.468508
Korenbloem,18,,,5754SJ,Deurne,Deurne,Noord-Brabant,VBO,5.813955,51.468642
Korenbloem,20,,,5754SJ,Deurne,Deurne,Noord-Brabant,VBO,5.813847,51.468815
Korenbloem,22,,,5754SJ,Deurne,Deurne,Noord-Brabant,VBO,5.813747,51.468977
Korenbloem,24,,,5754SJ,Deurne,Deurne,Noord-Brabant,VBO,5.813619,51.469103
Korenbloem,26,,,5754SJ,Deurne,Deurne,Noord-Brabant,VBO,5.813374,51.469113
Pinksterbloem,1,,,5754SK,Deurne,Deurne,Noord-Brabant,VBO,5.811698,51.468364
Pinksterbloem,2,,,5754SK,Deurne,Deurne,Noord-Brabant,VBO,5.811783,51.468166
Pinksterbloem,3,,,5754SK,Deurne,Deurne,Noord-Brabant,VBO,5.811784,51.468364
Pinksterbloem,4,,,5754SK,Deurne,Deurne,Noord-Brabant,VBO,5.811782,51.468103
Pinksterbloem,5,,,5754SK,Deurne,Deurne,Noord-Brabant,VBO,5.812143,51.468291
Pinksterbloem,6,,,5754SK,Deurne,Deurne,Noord-Brabant,VBO,5.811781,51.467995
Pinksterbloem,7,,,5754SK,Deurne,Deurne,Noord-Brabant,VBO,5.812201,51.468281
Pinksterbloem,8,,,5754SK,Deurne,Deurne,Noord-Brabant,VBO,5.811781,51.467950
Pinksterbloem,9,,,5754SK,Deurne,Deurne,Noord-Brabant,VBO,5.812374,51.468290
Pinksterbloem,11,,,5754SK,Deurne,Deurne,Noord-Brabant,VBO,5.812446,51.468290
Pinksterbloem,13,,,5754SK,Deurne,Deurne,Noord-Brabant,VBO,5.812618,51.468289
Pinksterbloem,15,,,5754SK,Deurne,Deurne,Noord-Brabant,VBO,5.812719,51.468289
Pinksterbloem,17,,,5754SK,Deurne,Deurne,Noord-Brabant,VBO,5.812962,51.468081
Pinksterbloem,19,,,5754SK,Deurne,Deurne,Noord-Brabant,VBO,5.812961,51.467964
