openbareruimtenaam,huisnummer,huisletter,huisnummertoevoeging,postcode,woonplaatsnaam,gemeentenaam,provincienaam,typeadresseerbaarobject,longitude,latitude
Turfaak,2,,,5759NA,Helenaveen,Deurne,Noord-Brabant,VBO,5.918952,51.387263
Turfaak,4,,,5759NA,Helenaveen,Deurne,Noord-Brabant,VBO,5.919025,51.387279
Turfaak,6,,,5759NA,Helenaveen,Deurne,Noord-Brabant,VBO,5.919094,51.387297
Turfaak,8,,,5759NA,Helenaveen,Deurne,Noord-Brabant,VBO,5.919166,51.387319
Turfaak,10,,,5759NA,Helenaveen,Deurne,Noord-Brabant,VBO,5.919240,51.387338
Turfaak,12,,,5759NA,Helenaveen,Deurne,Noord-Brabant,VBO,5.919310,51.387356
Turfaak,14,,,5759NA,Helenaveen,Deurne,Noord-Brabant,VBO,5.919379,51.387378
Turfaak,16,,,5759NA,Helenaveen,Deurne,Noord-Brabant,VBO,5.919454,51.387398
Turfaak,18,,,5759NA,Helenaveen,Deurne,Noord-Brabant,VBO,5.919584,51.387198
Turfaak,20,,,5759NA,Helenaveen,Deurne,Noord-Brabant,VBO,5.919624,51.387141
Maatschappijstraat,2,,,5759NB,Helenaveen,Deurne,Noord-Brabant,VBO,5.918622,51.386838
Maatschappijstraat,4,,,5759NB,Helenaveen,Deurne,Noord-Brabant,VBO,5.918587,51.386894
Maatschappijstraat,6,,,5759NB,Helenaveen,Deurne,Noord-Brabant,VBO,5.918550,51.386945
Maatschappijstraat,27,,,5759NB,Helenaveen,Deurne,Noord-Brabant,VBO,5.918439,51.387523
Maatschappijstraat,29,,,5759NB,Helenaveen,Deurne,Noord-Brabant,VBO,5.918482,51.387465
Maatschappijstraat,31,,,5759NB,Helenaveen,Deurne,Noord-Brabant,VBO,5.919108,51.387057
Maatschappijstraat,33,,,5759NB,Helenaveen,Deurne,Noord-Brabant,VBO,5.919149,51.386999
Turfveldje,1,,,5759NC,Helenaveen,Deurne,Noord-Brabant,VBO,5.918371,51.387130
Turfveldje,3,,,5759NC,Helenaveen,Deurne,Noord-Brabant,VBO,5.918214,51.387088
Turfveldje,5,,,5759NC,Helenaveen,Deurne,Noord-Brabant,VBO,5.918132,51.387068
Helmhof,1,,,5759ND,Helenaveen,Deurne,Noord-Brabant,VBO,5.918181,51.387649
Helmhof,2,,,5759ND,Helenaveen,Deurne,Noord-Brabant,VBO,5.918606,51.387501
Helmhof,3,,,5759ND,Helenaveen,Deurne,Noord-Brabant,VBO,5.918147,51.387703
Helmhof,4,,,5759ND,Helenaveen,Deurne,Noord-Brabant,VBO,5.918563,51.387559
Helmhof,5,,,5759ND,Helenaveen,Deurne,Noord-Brabant,VBO,5.918099,51.387765
Helmhof,6,,,5759ND,Helenaveen,Deurne,Noord-Brabant,VBO,5.918899,51.387609
Helmhof,8,,,5759ND,Helenaveen,Deurne,Noord-Brabant,VBO,5.918857,51.387667
Helmhof,10,,,5759ND,Helenaveen,Deurne,Noord-Brabant,VBO,5.918814,51.387724
Helmhof,12,,,5759ND,Helenaveen,Deurne,Noord-Brabant,VBO,5.918772,51.387781
Helmhof,14,,,5759ND,Helenaveen,Deurne,Noord-Brabant,VBO,5.918730,51.387838
Helmhof,16,,,5759ND,Helenaveen,Deurne,Noord-Brabant,VBO,5.918687,51.387896
Oude Peelstraat,1,,,5759PA,Helenaveen,Deurne,Noord-Brabant,VBO,5.918876,51.388464
Oude Peelstraat,3,,,5759PA,Helenaveen,Deurne,Noord-Brabant,VBO,5.918412,51.388043
Oude Peelstraat,5,,,5759PA,Helenaveen,Deurne,Noord-Brabant,VBO,5.918011,51.388171
Oude Peelstraat,7,,,5759PA,Helenaveen,Deurne,Noord-Brabant,VBO,5.917809,51.388145
Oude Peelstraat,9,,,5759PA,Helenaveen,Deurne,Noord-Brabant,VBO,5.917578,51.388029
Oude Peelstraat,11,a,,5759PA,Helenaveen,Deurne,Noord-Brabant,VBO,5.917678,51.387784
Oude Peelstraat,11,,,5759PA,Helenaveen,Deurne,Noord-Brabant,VBO,5.917376,51.387976
Oude Peelstraat,13,,,5759PA,Helenaveen,Deurne,Noord-Brabant,VBO,5.917175,51.387914
Oude Peelstraat,15,,,5759PA,Helenaveen,Deurne,Noord-Brabant,VBO,5.917088,51.387896
Oude Peelstraat,17,,,5759PA,Helenaveen,Deurne,Noord-Brabant,VBO,5.916901,51.387843
Oude Peelstraat,19,,,5759PA,Helenaveen,Deurne,Noord-Brabant,VBO,5.916699,51.387781
Oude Peelstraat,21,,,5759PA,Helenaveen,Deurne,Noord-Brabant,VBO,5.916497,51.387728
Oude Peelstraat,23,,,5759PA,Helenaveen,Deurne,Noord-Brabant,VBO,5.916310,51.387675
Oude Peelstraat,25,a,,5759PA,Helenaveen,Deurne,Noord-Brabant,VBO,5.915387,51.387489
Oude Peelstraat,25,,,5759PA,Helenaveen,Deurne,Noord-Brabant,VBO,5.916036,51.387605
Oude Peelstraat,31,,,5759PA,Helenaveen,Deurne,Noord-Brabant,VBO,5.912346,51.387819
Oude Peelstraat,37,,,5759PB,Helenaveen,Deurne,Noord-Brabant,VBO,5.911615,51.387957
Oude Peelstraat,39,,,5759PB,Helenaveen,Deurne,Noord-Brabant,VBO,5.911029,51.388185
Oude Peelstraat,41,,,5759PB,Helenaveen,Deurne,Noord-Brabant,VBO,5.910614,51.388312
Oude Peelstraat,43,,,5759PB,Helenaveen,Deurne,Noord-Brabant,VBO,5.910399,51.388385
Oude Peelstraat,47,,,5759PB,Helenaveen,Deurne,Noord-Brabant,VBO,5.909898,51.388531
Oude Peelstraat,51,,,5759PB,Helenaveen,Deurne,Noord-Brabant,VBO,5.909425,51.388677
Oude Peelstraat,53,,,5759PB,Helenaveen,Deurne,Noord-Brabant,VBO,5.909053,51.388778
Oude Peelstraat,57,,,5759PB,Helenaveen,Deurne,Noord-Brabant,VBO,5.908400,51.388780
Oude Peelstraat,59,,,5759PB,Helenaveen,Deurne,Noord-Brabant,VBO,5.908323,51.388979
Oude Peelstraat,63,,,5759PB,Helenaveen,Deurne,Noord-Brabant,VBO,5.907564,51.389234
Oude Peelstraat,67,a,,5759PB,Helenaveen,Deurne,Noord-Brabant,VBO,5.906905,51.389425
Oude Peelstraat,67,,,5759PB,Helenaveen,Deurne,Noord-Brabant,VBO,5.907170,51.389304
Oude Peelstraat,75,,,5759PB,Helenaveen,Deurne,Noord-Brabant,VBO,5.905544,51.389755
Oude Peelstraat,79,a,,5759PB,Helenaveen,Deurne,Noord-Brabant,VBO,5.902322,51.390188
Oude Peelstraat,79,,,5759PB,Helenaveen,Deurne,Noord-Brabant,VBO,5.902578,51.390406
Oude Peelstraat,85,a,,5759PB,Helenaveen,Deurne,Noord-Brabant,VBO,5.892965,51.391644
Oude Peelstraat,85,,,5759PB,Helenaveen,Deurne,Noord-Brabant,VBO,5.892824,51.391825
Oude Peelstraat,87,,,5759PB,Helenaveen,Deurne,Noord-Brabant,VBO,5.891915,51.391532
Oude Peelstraat,91,,,5759PB,Helenaveen,Deurne,Noord-Brabant,VBO,5.891000,51.391877
Oude Peelstraat,93,,,5759PB,Helenaveen,Deurne,Noord-Brabant,VBO,5.890899,51.391860
Oude Peelstraat,95,a,,5759PB,Helenaveen,Deurne,Noord-Brabant,VBO,5.888668,51.392580
Oude Peelstraat,95,,,5759PB,Helenaveen,Deurne,Noord-Brabant,VBO,5.889252,51.392325
Oude Peelstraat,97,,,5759PB,Helenaveen,Deurne,Noord-Brabant,VBO,5.885162,51.392783
Oude Peelstraat,2,a,,5759PC,Helenaveen,Deurne,Noord-Brabant,VBO,5.918880,51.388796
Oude Peelstraat,2,,,5759PC,Helenaveen,Deurne,Noord-Brabant,VBO,5.919384,51.388920
Oude Peelstraat,4,,,5759PC,Helenaveen,Deurne,Noord-Brabant,VBO,5.918649,51.388707
Oude Peelstraat,6,,,5759PC,Helenaveen,Deurne,Noord-Brabant,VBO,5.918548,51.388690
Oude Peelstraat,8,a,,5759PC,Helenaveen,Deurne,Noord-Brabant,VBO,5.918145,51.388566
Oude Peelstraat,8,b,,5759PC,Helenaveen,Deurne,Noord-Brabant,VBO,5.918131,51.388593
Oude Peelstraat,8,c,,5759PC,Helenaveen,Deurne,Noord-Brabant,VBO,5.918217,51.388583
Oude Peelstraat,8,d,,5759PC,Helenaveen,Deurne,Noord-Brabant,VBO,5.918203,51.388610
Oude Peelstraat,8,e,,5759PC,Helenaveen,Deurne,Noord-Brabant,VBO,5.918274,51.388601
Oude Peelstraat,8,f,,5759PC,Helenaveen,Deurne,Noord-Brabant,VBO,5.918275,51.388628
Oude Peelstraat,8,g,,5759PC,Helenaveen,Deurne,Noord-Brabant,VBO,5.918318,51.388637
Oude Peelstraat,10,,,5759PC,Helenaveen,Deurne,Noord-Brabant,VBO,5.917427,51.388650
Oude Peelstraat,12,,,5759PC,Helenaveen,Deurne,Noord-Brabant,VBO,5.917050,51.388301
Oude Peelstraat,14,,,5759PC,Helenaveen,Deurne,Noord-Brabant,VBO,5.916934,51.388266
Oude Peelstraat,16,,,5759PC,Helenaveen,Deurne,Noord-Brabant,VBO,5.916747,51.388213
Oude Peelstraat,18,,,5759PC,Helenaveen,Deurne,Noord-Brabant,VBO,5.916632,51.388186
Oude Peelstraat,20,,,5759PC,Helenaveen,Deurne,Noord-Brabant,VBO,5.916444,51.388133
Oude Peelstraat,22,,,5759PC,Helenaveen,Deurne,Noord-Brabant,VBO,5.916344,51.388107
Oude Peelstraat,24,a,,5759PC,Helenaveen,Deurne,Noord-Brabant,VBO,5.916055,51.388027
Oude Peelstraat,24,,,5759PC,Helenaveen,Deurne,Noord-Brabant,VBO,5.916156,51.388044
Oude Peelstraat,26,a,,5759PC,Helenaveen,Deurne,Noord-Brabant,VBO,5.915796,51.387956
Oude Peelstraat,26,,,5759PC,Helenaveen,Deurne,Noord-Brabant,VBO,5.915897,51.387983
Oude Peelstraat,28,a,,5759PC,Helenaveen,Deurne,Noord-Brabant,VBO,5.914819,51.387997
Oude Peelstraat,28,,,5759PC,Helenaveen,Deurne,Noord-Brabant,VBO,5.915465,51.387886
Oude Peelstraat,30,a,,5759PC,Helenaveen,Deurne,Noord-Brabant,VBO,5.911152,51.388632
Oude Peelstraat,30,b,,5759PC,Helenaveen,Deurne,Noord-Brabant,VBO,5.912384,51.388583
Oude Peelstraat,30,,,5759PC,Helenaveen,Deurne,Noord-Brabant,VBO,5.912308,51.388188
Oude Peelstraat,32,,,5759PC,Helenaveen,Deurne,Noord-Brabant,VBO,5.910633,51.388735
Oude Peelstraat,34,,,5759PC,Helenaveen,Deurne,Noord-Brabant,VBO,5.910461,51.388744
Oude Peelstraat,42,,,5759PC,Helenaveen,Deurne,Noord-Brabant,VBO,5.906712,51.390118
Oude Peelstraat,44,,,5759PC,Helenaveen,Deurne,Noord-Brabant,VBO,5.905881,51.390266
Oude Peelstraat,60,,,5759PC,Helenaveen,Deurne,Noord-Brabant,VBO,5.884769,51.393693
Zinkskesweg,1,,,5759PD,Helenaveen,Deurne,Noord-Brabant,VBO,5.908573,51.379476
Aardbeiweg,1,,,5759PE,Helenaveen,Deurne,Noord-Brabant,VBO,5.914098,51.386499
Einderweg,5,a,,5759PG,Helenaveen,Deurne,Noord-Brabant,VBO,5.886195,51.397912
Einderweg,5,,,5759PG,Helenaveen,Deurne,Noord-Brabant,VBO,5.886024,51.398029
Centurioweg,2,,,5759PH,Helenaveen,Deurne,Noord-Brabant,VBO,5.904764,51.390604
Centurioweg,5,,,5759PH,Helenaveen,Deurne,Noord-Brabant,VBO,5.900924,51.394117
Centurioweg,7,,,5759PH,Helenaveen,Deurne,Noord-Brabant,VBO,5.896934,51.398350
Centurioweg,8,,,5759PH,Helenaveen,Deurne,Noord-Brabant,VBO,5.902494,51.393148
Centurioweg,10,,,5759PH,Helenaveen,Deurne,Noord-Brabant,VBO,5.901529,51.394249
Centurioweg,14,,,5759PH,Helenaveen,Deurne,Noord-Brabant,VBO,5.901075,51.394782
Zinkskeslaan,2,,,5759PJ,Helenaveen,Deurne,Noord-Brabant,VBO,5.905413,51.384360
Zinkskeslaan,4,,,5759PJ,Helenaveen,Deurne,Noord-Brabant,VBO,5.904619,51.384141
Zinkskeslaan,6,,,5759PJ,Helenaveen,Deurne,Noord-Brabant,VBO,5.903815,51.384253
Zinkskeslaan,8,a,,5759PJ,Helenaveen,Deurne,Noord-Brabant,VBO,5.900991,51.384706
Zinkskeslaan,8,b,,5759PJ,Helenaveen,Deurne,Noord-Brabant,VBO,5.901108,51.384903
Zinkskeslaan,8,,,5759PJ,Helenaveen,Deurne,Noord-Brabant,VBO,5.902525,51.384465
Zinkskeslaan,10,,,5759PJ,Helenaveen,Deurne,Noord-Brabant,VBO,5.900546,51.384770
Zinkskeslaan,11,,,5759PJ,Helenaveen,Deurne,Noord-Brabant,VBO,5.897616,51.384828
Zinkskeslaan,13,,,5759PJ,Helenaveen,Deurne,Noord-Brabant,VBO,5.896168,51.385050
Zinkskeslaan,16,,,5759PJ,Helenaveen,Deurne,Noord-Brabant,VBO,5.897821,51.385178
Zinkskeslaan,19,,,5759PJ,Helenaveen,Deurne,Noord-Brabant,VBO,5.894733,51.385254
Zinkskeslaan,20,,,5759PJ,Helenaveen,Deurne,Noord-Brabant,VBO,5.894524,51.385795
Zinkskeslaan,21,,,5759PJ,Helenaveen,Deurne,Noord-Brabant,VBO,5.893554,51.385143
Zinkskeslaan,22,,,5759PJ,Helenaveen,Deurne,Noord-Brabant,VBO,5.894644,51.386244
Zinkskeslaan,23,a,,5759PJ,Helenaveen,Deurne,Noord-Brabant,VBO,5.893466,51.386224
Zinkskeslaan,23,,,5759PJ,Helenaveen,Deurne,Noord-Brabant,VBO,5.893899,51.386228
Zinkskeslaan,26,,,5759PJ,Helenaveen,Deurne,Noord-Brabant,VBO,5.895129,51.387284
Zinkskeslaan,30,,,5759PJ,Helenaveen,Deurne,Noord-Brabant,VBO,5.895381,51.387975
Lagebrugweg,1,a,,5759PK,Helenaveen,Deurne,Noord-Brabant,VBO,5.913572,51.386933
Lagebrugweg,1,,,5759PK,Helenaveen,Deurne,Noord-Brabant,VBO,5.914509,51.387270
Lagebrugweg,2,,,5759PK,Helenaveen,Deurne,Noord-Brabant,VBO,5.912150,51.387020
Lagebrugweg,3,a,,5759PK,Helenaveen,Deurne,Noord-Brabant,VBO,5.910649,51.385885
Lagebrugweg,3,,,5759PK,Helenaveen,Deurne,Noord-Brabant,VBO,5.910168,51.385779
Lagebrugweg,4,,,5759PK,Helenaveen,Deurne,Noord-Brabant,VBO,5.911127,51.387293
Lagebrugweg,5,,,5759PK,Helenaveen,Deurne,Noord-Brabant,VBO,5.908793,51.384887
Lagebrugweg,6,,,5759PK,Helenaveen,Deurne,Noord-Brabant,VBO,5.911069,51.386665
Lagebrugweg,7,,,5759PK,Helenaveen,Deurne,Noord-Brabant,VBO,5.908084,51.384476
Lagebrugweg,8,,,5759PK,Helenaveen,Deurne,Noord-Brabant,VBO,5.910752,51.386568
Lagebrugweg,9,a,,5759PK,Helenaveen,Deurne,Noord-Brabant,VBO,5.906926,51.383690
Lagebrugweg,9,,,5759PK,Helenaveen,Deurne,Noord-Brabant,VBO,5.906624,51.383647
Lagebrugweg,10,,,5759PK,Helenaveen,Deurne,Noord-Brabant,VBO,5.910402,51.386446
Lagebrugweg,11,a,,5759PK,Helenaveen,Deurne,Noord-Brabant,VBO,5.905413,51.382444
Lagebrugweg,11,,,5759PK,Helenaveen,Deurne,Noord-Brabant,VBO,5.905784,51.383075
Lagebrugweg,15,a,,5759PK,Helenaveen,Deurne,Noord-Brabant,VBO,5.904898,51.382135
Lagebrugweg,15,,,5759PK,Helenaveen,Deurne,Noord-Brabant,VBO,5.904396,51.382255
Lagebrugweg,16,,,5759PK,Helenaveen,Deurne,Noord-Brabant,VBO,5.905502,51.383535
Lagebrugweg,17,,,5759PK,Helenaveen,Deurne,Noord-Brabant,VBO,5.893438,51.375957
Lagebrugweg,20,,,5759PK,Helenaveen,Deurne,Noord-Brabant,VBO,5.903796,51.382509
Lagebrugweg,30,,,5759PK,Helenaveen,Deurne,Noord-Brabant,VBO,5.898433,51.379521
Imkerweg,6,,,5759PL,Helenaveen,Deurne,Noord-Brabant,VBO,5.892073,51.378524
Imkerweg,8,,,5759PL,Helenaveen,Deurne,Noord-Brabant,VBO,5.891240,51.379858
Helenastraat,2,,,5759PM,Helenaveen,Deurne,Noord-Brabant,VBO,5.919908,51.388225
Helenastraat,4,,,5759PM,Helenaveen,Deurne,Noord-Brabant,VBO,5.920161,51.387939
Helenastraat,6,,,5759PM,Helenaveen,Deurne,Noord-Brabant,VBO,5.920248,51.387783
Helenastraat,12,,,5759PM,Helenaveen,Deurne,Noord-Brabant,VBO,5.921778,51.385978
Helenastraat,16,,,5759PM,Helenaveen,Deurne,Noord-Brabant,VBO,5.921985,51.385258
Helenastraat,18,,,5759PM,Helenaveen,Deurne,Noord-Brabant,VBO,5.922000,51.384108
Helenastraat,20,a,,5759PM,Helenaveen,Deurne,Noord-Brabant,VBO,5.921925,51.383820
Helenastraat,20,,,5759PM,Helenaveen,Deurne,Noord-Brabant,VBO,5.921955,51.383919
Helenastraat,22,,,5759PM,Helenaveen,Deurne,Noord-Brabant,VBO,5.921876,51.383720
Helenastraat,24,,,5759PM,Helenaveen,Deurne,Noord-Brabant,VBO,5.921866,51.383686
Helenastraat,26,,,5759PM,Helenaveen,Deurne,Noord-Brabant,VBO,5.921850,51.383524
Helenastraat,28,,,5759PM,Helenaveen,Deurne,Noord-Brabant,VBO,5.921307,51.382153
Helenastraat,30,,,5759PM,Helenaveen,Deurne,Noord-Brabant,VBO,5.921211,51.381702
Helenastraat,32,,,5759PM,Helenaveen,Deurne,Noord-Brabant,VBO,5.921166,51.381541
Helenastraat,34,,,5759PM,Helenaveen,Deurne,Noord-Brabant,VBO,5.919926,51.379973
Kervelweg,1,,,5759PN,Helenaveen,Deurne,Noord-Brabant,VBO,5.921716,51.385592
Kervelweg,2,a,,5759PN,Helenaveen,Deurne,Noord-Brabant,VBO,5.921255,51.385631
Kervelweg,3,,,5759PN,Helenaveen,Deurne,Noord-Brabant,VBO,5.921298,51.385468
Kervelweg,4,a,,5759PN,Helenaveen,Deurne,Noord-Brabant,VBO,5.919900,51.385341
Kervelweg,4,,,5759PN,Helenaveen,Deurne,Noord-Brabant,VBO,5.920595,51.385525
Kervelweg,5,,,5759PN,Helenaveen,Deurne,Noord-Brabant,VBO,5.921841,51.385223
Kervelweg,6,a,,5759PN,Helenaveen,Deurne,Noord-Brabant,VBO,5.918636,51.385130
Kervelweg,6,,,5759PN,Helenaveen,Deurne,Noord-Brabant,VBO,5.919197,51.385127
Kervelweg,7,,,5759PN,Helenaveen,Deurne,Noord-Brabant,VBO,5.920343,51.384941
Kervelweg,8,,,5759PN,Helenaveen,Deurne,Noord-Brabant,VBO,5.916717,51.384366
Kervelweg,9,,,5759PN,Helenaveen,Deurne,Noord-Brabant,VBO,5.918385,51.384484
Kanaaldijk Noord,2,,,5759PP,Helenaveen,Deurne,Noord-Brabant,VBO,5.911216,51.376966
Fruitweg,2,,,5759PR,Helenaveen,Deurne,Noord-Brabant,VBO,5.922089,51.381896
Fruitweg,4,,,5759PR,Helenaveen,Deurne,Noord-Brabant,VBO,5.922386,51.382740
Geldersestraat,2,,,5759PS,Helenaveen,Deurne,Noord-Brabant,VBO,5.923231,51.384550
Geldersestraat,3,,,5759PS,Helenaveen,Deurne,Noord-Brabant,VBO,5.924723,51.385992
Geldersestraat,4,,,5759PS,Helenaveen,Deurne,Noord-Brabant,VBO,5.925800,51.385933
Geldersestraat,5,,,5759PS,Helenaveen,Deurne,Noord-Brabant,VBO,5.925112,51.386080
Geldersestraat,6,,,5759PS,Helenaveen,Deurne,Noord-Brabant,VBO,5.926160,51.386012
Geldersestraat,9,,,5759PS,Helenaveen,Deurne,Noord-Brabant,VBO,5.927302,51.386609
Geldersestraat,10,,,5759PS,Helenaveen,Deurne,Noord-Brabant,VBO,5.928047,51.386462
Geldersestraat,12,a,,5759PS,Helenaveen,Deurne,Noord-Brabant,VBO,5.928982,51.386556
Geldersestraat,12,,,5759PS,Helenaveen,Deurne,Noord-Brabant,VBO,5.928407,51.386541
Jan Deckersstraat,3,,,5759PT,Helenaveen,Deurne,Noord-Brabant,VBO,5.921085,51.388157
Jan Deckersstraat,7,,,5759PT,Helenaveen,Deurne,Noord-Brabant,VBO,5.921849,51.387170
Jan Deckersstraat,9,,,5759PT,Helenaveen,Deurne,Noord-Brabant,VBO,5.922401,51.386470
Grashoekseweg,5,,,5759PV,Helenaveen,Deurne,Noord-Brabant,VBO,5.925710,51.381969
Grashoekseweg,6,,,5759PV,Helenaveen,Deurne,Noord-Brabant,VBO,5.925503,51.382746
Grashoekseweg,7,,,5759PV,Helenaveen,Deurne,Noord-Brabant,VBO,5.926852,51.382584
Koolweg,5,a,,5759PW,Helenaveen,Deurne,Noord-Brabant,VBO,5.925420,51.389009
Koolweg,5,,,5759PW,Helenaveen,Deurne,Noord-Brabant,VBO,5.925294,51.389315
Koolweg,7,,,5759PW,Helenaveen,Deurne,Noord-Brabant,VBO,5.924103,51.390705
Koolweg,6,,,5759PX,Helenaveen,Deurne,Noord-Brabant,VBO,5.922497,51.393427
Koolweg,8,a,,5759PX,Helenaveen,Deurne,Noord-Brabant,VBO,5.921842,51.394330
Koolweg,8,,,5759PX,Helenaveen,Deurne,Noord-Brabant,VBO,5.921830,51.394248
Koolweg,10,,,5759PX,Helenaveen,Deurne,Noord-Brabant,VBO,5.921051,51.395096
Koolweg,12,,,5759PX,Helenaveen,Deurne,Noord-Brabant,VBO,5.920952,51.395196
Koolweg,20,,,5759PX,Helenaveen,Deurne,Noord-Brabant,VBO,5.919137,51.397307
Koolweg,22,,,5759PX,Helenaveen,Deurne,Noord-Brabant,VBO,5.918656,51.397903
Koolweg,24,,,5759PX,Helenaveen,Deurne,Noord-Brabant,VBO,5.917976,51.398715
Koolweg,26,,,5759PX,Helenaveen,Deurne,Noord-Brabant,VBO,5.917876,51.398832
Koolweg,30,,,5759PX,Helenaveen,Deurne,Noord-Brabant,VBO,5.916771,51.400195
Koolweg,32,,,5759PX,Helenaveen,Deurne,Noord-Brabant,VBO,5.916289,51.400781
Koolweg,34,,,5759PX,Helenaveen,Deurne,Noord-Brabant,VBO,5.915496,51.401729
Koolweg,36,b,,5759PX,Helenaveen,Deurne,Noord-Brabant,VBO,5.913991,51.402962
Koolweg,36,,,5759PX,Helenaveen,Deurne,Noord-Brabant,VBO,5.914913,51.402306
Koolweg,38,,,5759PX,Helenaveen,Deurne,Noord-Brabant,VBO,5.912374,51.403981
Koolweg,40,,,5759PZ,Helenaveen,Deurne,Noord-Brabant,VBO,5.912884,51.405794
Koolweg,42,,,5759PZ,Helenaveen,Deurne,Noord-Brabant,VBO,5.910839,51.405435
Koolweg,48,a,,5759PZ,Helenaveen,Deurne,Noord-Brabant,VBO,5.907704,51.408942
Koolweg,48,b,,5759PZ,Helenaveen,Deurne,Noord-Brabant,VBO,5.907817,51.408970
Koolweg,48,,,5759PZ,Helenaveen,Deurne,Noord-Brabant,VBO,5.907332,51.409208
Koolweg,50,,,5759PZ,Helenaveen,Deurne,Noord-Brabant,VBO,5.906963,51.409596
Koolweg,52,,,5759PZ,Helenaveen,Deurne,Noord-Brabant,VBO,5.906608,51.409984
Koolweg,54,,,5759PZ,Helenaveen,Deurne,Noord-Brabant,VBO,5.906224,51.410382
Koolweg,60,,,5759PZ,Helenaveen,Deurne,Noord-Brabant,VBO,5.904037,51.412701
Koolweg,62,,,5759PZ,Helenaveen,Deurne,Noord-Brabant,VBO,5.903967,51.412819
Koolweg,64,,,5759PZ,Helenaveen,Deurne,Noord-Brabant,VBO,5.903072,51.413748
Kruisbesweg,4,,,5759RA,Helenaveen,Deurne,Noord-Brabant,VBO,5.923466,51.387822
Kruisbesweg,8,,,5759RA,Helenaveen,Deurne,Noord-Brabant,VBO,5.925705,51.388410
Soemeersingel,1,,,5759RB,Helenaveen,Deurne,Noord-Brabant,VBO,5.919230,51.389253
Soemeersingel,2,,,5759RB,Helenaveen,Deurne,Noord-Brabant,VBO,5.919783,51.389790
Soemeersingel,3,,,5759RB,Helenaveen,Deurne,Noord-Brabant,VBO,5.919146,51.389388
Soemeersingel,4,,,5759RB,Helenaveen,Deurne,Noord-Brabant,VBO,5.918934,51.390962
Soemeersingel,5,,,5759RB,Helenaveen,Deurne,Noord-Brabant,VBO,5.918989,51.389505
Soemeersingel,9,,,5759RB,Helenaveen,Deurne,Noord-Brabant,VBO,5.918777,51.389848
Soemeersingel,11,,,5759RB,Helenaveen,Deurne,Noord-Brabant,VBO,5.918523,51.390164
Soemeersingel,13,,,5759RB,Helenaveen,Deurne,Noord-Brabant,VBO,5.918410,51.390344
Soemeersingel,15,a,,5759RB,Helenaveen,Deurne,Noord-Brabant,VBO,5.918156,51.390723
Soemeersingel,15,,,5759RB,Helenaveen,Deurne,Noord-Brabant,VBO,5.918240,51.390579
Soemeersingel,17,a,,5759RB,Helenaveen,Deurne,Noord-Brabant,VBO,5.917943,51.390994
Soemeersingel,17,,,5759RB,Helenaveen,Deurne,Noord-Brabant,VBO,5.918042,51.390867
Soemeersingel,19,,,5759RB,Helenaveen,Deurne,Noord-Brabant,VBO,5.916486,51.390934
Soemeersingel,21,,,5759RB,Helenaveen,Deurne,Noord-Brabant,VBO,5.917420,51.391688
Soemeersingel,25,a,,5759RB,Helenaveen,Deurne,Noord-Brabant,VBO,5.917195,51.392580
Soemeersingel,25,,,5759RB,Helenaveen,Deurne,Noord-Brabant,VBO,5.917400,51.392497
Soemeersingel,27,,,5759RB,Helenaveen,Deurne,Noord-Brabant,VBO,5.917478,51.392714
Soemeersingel,29,,,5759RB,Helenaveen,Deurne,Noord-Brabant,VBO,5.917717,51.392586
Soemeersingel,31,,,5759RB,Helenaveen,Deurne,Noord-Brabant,VBO,5.917878,51.392819
Soemeersingel,33,,,5759RB,Helenaveen,Deurne,Noord-Brabant,VBO,5.918556,51.393049
Soemeersingel,39,,,5759RB,Helenaveen,Deurne,Noord-Brabant,VBO,5.919970,51.393397
Soemeersingel,47,a,,5759RB,Helenaveen,Deurne,Noord-Brabant,VBO,5.920393,51.394500
Soemeersingel,47,,,5759RB,Helenaveen,Deurne,Noord-Brabant,VBO,5.920578,51.394569
Soemeersingel,51,,,5759RB,Helenaveen,Deurne,Noord-Brabant,VBO,5.919990,51.395263
Soemeersingel,55,,,5759RC,Helenaveen,Deurne,Noord-Brabant,VBO,5.918842,51.396608
Soemeersingel,57,,,5759RC,Helenaveen,Deurne,Noord-Brabant,VBO,5.918204,51.397330
Soemeersingel,61,,,5759RC,Helenaveen,Deurne,Noord-Brabant,VBO,5.916928,51.398819
Soemeersingel,67,a,,5759RC,Helenaveen,Deurne,Noord-Brabant,VBO,5.915411,51.400596
Soemeersingel,67,,,5759RC,Helenaveen,Deurne,Noord-Brabant,VBO,5.915453,51.400524
Soemeersingel,69,,,5759RC,Helenaveen,Deurne,Noord-Brabant,VBO,5.915354,51.400633
Soemeersingel,75,,,5759RC,Helenaveen,Deurne,Noord-Brabant,VBO,5.913622,51.402465
Soemeersingel,77,,,5759RC,Helenaveen,Deurne,Noord-Brabant,VBO,5.912522,51.403108
Soemeersingel,79,a,,5759RC,Helenaveen,Deurne,Noord-Brabant,VBO,5.911623,51.403661
Soemeersingel,79,,,5759RC,Helenaveen,Deurne,Noord-Brabant,VBO,5.911637,51.403634
Soemeersingel,81,,,5759RC,Helenaveen,Deurne,Noord-Brabant,VBO,5.911141,51.404157
Soemeersingel,87,,,5759RC,Helenaveen,Deurne,Noord-Brabant,VBO,5.910229,51.404880
Soemeersingel,91,a,,5759RC,Helenaveen,Deurne,Noord-Brabant,VBO,5.908322,51.406686
Soemeersingel,91,,,5759RC,Helenaveen,Deurne,Noord-Brabant,VBO,5.908568,51.406677
Soemeersingel,93,,,5759RC,Helenaveen,Deurne,Noord-Brabant,VBO,5.907143,51.408315
Soemeersingel,97,,,5759RC,Helenaveen,Deurne,Noord-Brabant,VBO,5.906508,51.408762
Soemeersingel,99,,,5759RC,Helenaveen,Deurne,Noord-Brabant,VBO,5.905941,51.409511
Soemeersingel,101,,,5759RD,Helenaveen,Deurne,Noord-Brabant,VBO,5.905842,51.409601
Soemeersingel,107,,,5759RD,Helenaveen,Deurne,Noord-Brabant,VBO,5.901320,51.411346
Soemeersingel,109,,,5759RD,Helenaveen,Deurne,Noord-Brabant,VBO,5.902760,51.412905
Soemeersingel,113,,,5759RD,Helenaveen,Deurne,Noord-Brabant,VBO,5.901780,51.413979
Soemeersingel,119,,,5759RD,Helenaveen,Deurne,Noord-Brabant,VBO,5.899238,51.416696
Soemeersingel,123,,,5759RD,Helenaveen,Deurne,Noord-Brabant,VBO,5.897988,51.418031
Soemeersingel,127,a,,5759RD,Helenaveen,Deurne,Noord-Brabant,VBO,5.894338,51.419504
Soemeersingel,127,,,5759RD,Helenaveen,Deurne,Noord-Brabant,VBO,5.894541,51.419647
Soemeersingel,135,,,5759RD,Helenaveen,Deurne,Noord-Brabant,VBO,5.893570,51.422788
Soemeersingel,137,,,5759RD,Helenaveen,Deurne,Noord-Brabant,VBO,5.892760,51.423654
Soemeersingel,141,,,5759RD,Helenaveen,Deurne,Noord-Brabant,VBO,5.891382,51.425143
Soemeersingel,145,,,5759RD,Helenaveen,Deurne,Noord-Brabant,VBO,5.890316,51.426290
Soemeersingel,149,,,5759RD,Helenaveen,Deurne,Noord-Brabant,VBO,5.889265,51.427445
Spruitweg,2,a,,5759RE,Helenaveen,Deurne,Noord-Brabant,VBO,5.918302,51.392170
Spruitweg,4,,,5759RE,Helenaveen,Deurne,Noord-Brabant,VBO,5.919989,51.392692
Spruitweg,8,,,5759RE,Helenaveen,Deurne,Noord-Brabant,VBO,5.921491,51.393360
Rector Nuijtsstraat,4,,,5759RG,Helenaveen,Deurne,Noord-Brabant,VBO,5.917160,51.392840
Rector Nuijtsstraat,5,,,5759RG,Helenaveen,Deurne,Noord-Brabant,VBO,5.916019,51.393546
Rector Nuijtsstraat,6,a,,5759RG,Helenaveen,Deurne,Noord-Brabant,VBO,5.916289,51.394570
Rector Nuijtsstraat,6,,,5759RG,Helenaveen,Deurne,Noord-Brabant,VBO,5.915844,51.394572
Rector Nuijtsstraat,7,,,5759RG,Helenaveen,Deurne,Noord-Brabant,VBO,5.915636,51.394033
Rector Nuijtsstraat,8,,,5759RG,Helenaveen,Deurne,Noord-Brabant,VBO,5.916392,51.394749
Rector Nuijtsstraat,9,,,5759RG,Helenaveen,Deurne,Noord-Brabant,VBO,5.914706,51.395539
Rector Nuijtsstraat,10,,,5759RG,Helenaveen,Deurne,Noord-Brabant,VBO,5.916911,51.394891
Rector Nuijtsstraat,11,,,5759RG,Helenaveen,Deurne,Noord-Brabant,VBO,5.915780,51.395219
Rector Nuijtsstraat,12,,,5759RG,Helenaveen,Deurne,Noord-Brabant,VBO,5.917776,51.395120
Rector Nuijtsstraat,13,a,,5759RG,Helenaveen,Deurne,Noord-Brabant,VBO,5.917133,51.395420
Rector Nuijtsstraat,13,,,5759RG,Helenaveen,Deurne,Noord-Brabant,VBO,5.916743,51.395296
Pastoor Kerssemakersstraat,1,,,5759RH,Helenaveen,Deurne,Noord-Brabant,VBO,5.917746,51.390123
Pastoor Kerssemakersstraat,2,,,5759RH,Helenaveen,Deurne,Noord-Brabant,VBO,5.917764,51.390410
Pastoor Kerssemakersstraat,3,,,5759RH,Helenaveen,Deurne,Noord-Brabant,VBO,5.915296,51.389433
Pastoor Kerssemakersstraat,4,,,5759RH,Helenaveen,Deurne,Noord-Brabant,VBO,5.917663,51.390393
Pastoor Kerssemakersstraat,5,,,5759RH,Helenaveen,Deurne,Noord-Brabant,VBO,5.915022,51.389353
Pastoor Kerssemakersstraat,6,,,5759RH,Helenaveen,Deurne,Noord-Brabant,VBO,5.917577,51.390366
Pastoor Kerssemakersstraat,7,,,5759RH,Helenaveen,Deurne,Noord-Brabant,VBO,5.914805,51.389264
Pastoor Kerssemakersstraat,8,,,5759RH,Helenaveen,Deurne,Noord-Brabant,VBO,5.917519,51.390330
Pastoor Kerssemakersstraat,9,,,5759RH,Helenaveen,Deurne,Noord-Brabant,VBO,5.914560,51.389193
Pastoor Kerssemakersstraat,10,,,5759RH,Helenaveen,Deurne,Noord-Brabant,VBO,5.917303,51.390313
Pastoor Kerssemakersstraat,12,,,5759RH,Helenaveen,Deurne,Noord-Brabant,VBO,5.916986,51.390243
Pastoor Kerssemakersstraat,14,,,5759RH,Helenaveen,Deurne,Noord-Brabant,VBO,5.916669,51.390164
Pastoor Kerssemakersstraat,16,,,5759RH,Helenaveen,Deurne,Noord-Brabant,VBO,5.916583,51.390137
Pastoor Kerssemakersstraat,18,,,5759RH,Helenaveen,Deurne,Noord-Brabant,VBO,5.916424,51.390102
Pastoor Kerssemakersstraat,20,,,5759RH,Helenaveen,Deurne,Noord-Brabant,VBO,5.916352,51.390084
Pastoor Kerssemakersstraat,22,,,5759RH,Helenaveen,Deurne,Noord-Brabant,VBO,5.916194,51.390040
Pastoor Kerssemakersstraat,24,,,5759RH,Helenaveen,Deurne,Noord-Brabant,VBO,5.916107,51.390013
Pastoor Kerssemakersstraat,26,,,5759RH,Helenaveen,Deurne,Noord-Brabant,VBO,5.915977,51.389960
Pastoor Kerssemakersstraat,28,,,5759RH,Helenaveen,Deurne,Noord-Brabant,VBO,5.915876,51.389924
Pastoor Kerssemakersstraat,30,,,5759RH,Helenaveen,Deurne,Noord-Brabant,VBO,5.915747,51.389889
Pastoor Kerssemakersstraat,32,,,5759RH,Helenaveen,Deurne,Noord-Brabant,VBO,5.915660,51.389862
Pastoor Kerssemakersstraat,34,,,5759RH,Helenaveen,Deurne,Noord-Brabant,VBO,5.915502,51.389827
Pastoor Kerssemakersstraat,36,,,5759RH,Helenaveen,Deurne,Noord-Brabant,VBO,5.915401,51.389801
Pastoor Kerssemakersstraat,38,,,5759RH,Helenaveen,Deurne,Noord-Brabant,VBO,5.915228,51.389784
Pastoor Kerssemakersstraat,40,,,5759RH,Helenaveen,Deurne,Noord-Brabant,VBO,5.915156,51.389784
Pastoor Kerssemakersstraat,42,,,5759RH,Helenaveen,Deurne,Noord-Brabant,VBO,5.915084,51.389784
Pastoor Kerssemakersstraat,44,,,5759RH,Helenaveen,Deurne,Noord-Brabant,VBO,5.914897,51.389758
Pastoor Kerssemakersstraat,46,,,5759RH,Helenaveen,Deurne,Noord-Brabant,VBO,5.914825,51.389731
Pastoor Kerssemakersstraat,48,,,5759RH,Helenaveen,Deurne,Noord-Brabant,VBO,5.914768,51.389714
Pastoor Bijnenstraat,1,,,5759RJ,Helenaveen,Deurne,Noord-Brabant,VBO,5.917754,51.389547
Pastoor Bijnenstraat,2,,,5759RJ,Helenaveen,Deurne,Noord-Brabant,VBO,5.918029,51.389753
Pastoor Bijnenstraat,3,,,5759RJ,Helenaveen,Deurne,Noord-Brabant,VBO,5.917639,51.389521
Pastoor Bijnenstraat,4,,,5759RJ,Helenaveen,Deurne,Noord-Brabant,VBO,5.917930,51.389888
Pastoor Bijnenstraat,5,,,5759RJ,Helenaveen,Deurne,Noord-Brabant,VBO,5.917552,51.389494
Pastoor Bijnenstraat,6,,,5759RJ,Helenaveen,Deurne,Noord-Brabant,VBO,5.917831,51.389996
Pastoor Bijnenstraat,7,,,5759RJ,Helenaveen,Deurne,Noord-Brabant,VBO,5.917570,51.389782
Pastoor Bijnenstraat,9,,,5759RJ,Helenaveen,Deurne,Noord-Brabant,VBO,5.917469,51.389746
Pastoor Bijnenstraat,11,,,5759RJ,Helenaveen,Deurne,Noord-Brabant,VBO,5.917368,51.389720
Pastoor Bijnenstraat,13,,,5759RJ,Helenaveen,Deurne,Noord-Brabant,VBO,5.917386,51.390007
Pastoor Bijnenstraat,15,,,5759RJ,Helenaveen,Deurne,Noord-Brabant,VBO,5.917285,51.389981
Pastoor Bijnenstraat,17,,,5759RJ,Helenaveen,Deurne,Noord-Brabant,VBO,5.917184,51.389954
Rectorspad,2,,,5759RK,Helenaveen,Deurne,Noord-Brabant,VBO,5.917934,51.388935
Rectorspad,4,,,5759RK,Helenaveen,Deurne,Noord-Brabant,VBO,5.917905,51.388980
Rectorspad,6,,,5759RK,Helenaveen,Deurne,Noord-Brabant,VBO,5.917863,51.389026
Rectorspad,7,,,5759RK,Helenaveen,Deurne,Noord-Brabant,VBO,5.917561,51.389036
Rectorspad,8,,,5759RK,Helenaveen,Deurne,Noord-Brabant,VBO,5.917834,51.389062
Rectorspad,10,,,5759RK,Helenaveen,Deurne,Noord-Brabant,VBO,5.917806,51.389107
Dominee Swaluestraat,1,a,,5759RL,Helenaveen,Deurne,Noord-Brabant,VBO,5.918739,51.389563
Dominee Swaluestraat,1,,,5759RL,Helenaveen,Deurne,Noord-Brabant,VBO,5.918908,51.389617
Dominee Swaluestraat,3,,,5759RL,Helenaveen,Deurne,Noord-Brabant,VBO,5.918529,51.389454
Dominee Swaluestraat,4,,,5759RL,Helenaveen,Deurne,Noord-Brabant,VBO,5.918186,51.389617
Dominee Swaluestraat,5,,,5759RL,Helenaveen,Deurne,Noord-Brabant,VBO,5.918442,51.389436
Dominee Swaluestraat,7,,,5759RL,Helenaveen,Deurne,Noord-Brabant,VBO,5.918384,51.389410
Dominee Swaluestraat,9,,,5759RL,Helenaveen,Deurne,Noord-Brabant,VBO,5.918312,51.389392
Dominee Swaluestraat,11,,,5759RL,Helenaveen,Deurne,Noord-Brabant,VBO,5.918255,51.389374
Dominee Swaluestraat,13,,,5759RL,Helenaveen,Deurne,Noord-Brabant,VBO,5.918183,51.389357
Sevenumseweg,2,,,5759RM,Helenaveen,Deurne,Noord-Brabant,VBO,5.920619,51.388869
Sevenumseweg,3,,,5759RM,Helenaveen,Deurne,Noord-Brabant,VBO,5.921912,51.390032
Kaasweg,2,,,5759RN,Helenaveen,Deurne,Noord-Brabant,VBO,5.897293,51.420201
Kaasweg,6,,,5759RN,Helenaveen,Deurne,Noord-Brabant,VBO,5.895046,51.422377
Kaasweg,10,,,5759RN,Helenaveen,Deurne,Noord-Brabant,VBO,5.891152,51.426448
Heldenseweg,2,,,5759RP,Helenaveen,Deurne,Noord-Brabant,VBO,5.926588,51.385803
Heldenseweg,3,,,5759RP,Helenaveen,Deurne,Noord-Brabant,VBO,5.927827,51.384845
Heldenseweg,5,,,5759RP,Helenaveen,Deurne,Noord-Brabant,VBO,5.930285,51.385004
Heldenseweg,6,,,5759RP,Helenaveen,Deurne,Noord-Brabant,VBO,5.927563,51.384397
Meester Theelenstraat,2,,,5759RR,Helenaveen,Deurne,Noord-Brabant,VBO,5.914479,51.389643
Meester Theelenstraat,4,,,5759RR,Helenaveen,Deurne,Noord-Brabant,VBO,5.914408,51.389697
Meester Theelenstraat,6,,,5759RR,Helenaveen,Deurne,Noord-Brabant,VBO,5.914337,51.389788
Meester Theelenstraat,8,,,5759RR,Helenaveen,Deurne,Noord-Brabant,VBO,5.914295,51.389833
Meester Theelenstraat,10,,,5759RR,Helenaveen,Deurne,Noord-Brabant,VBO,5.914224,51.389968
Meester Theelenstraat,12,,,5759RR,Helenaveen,Deurne,Noord-Brabant,VBO,5.914182,51.390022
Meester Theelenstraat,14,,,5759RR,Helenaveen,Deurne,Noord-Brabant,VBO,5.914556,51.390074
Meester Theelenstraat,16,,,5759RR,Helenaveen,Deurne,Noord-Brabant,VBO,5.914628,51.390101
Meester Theelenstraat,18,,,5759RR,Helenaveen,Deurne,Noord-Brabant,VBO,5.914772,51.390127
Meester Theelenstraat,20,,,5759RR,Helenaveen,Deurne,Noord-Brabant,VBO,5.914859,51.390145
Meester Theelenstraat,22,,,5759RR,Helenaveen,Deurne,Noord-Brabant,VBO,5.915046,51.390189
Meester Theelenstraat,24,,,5759RR,Helenaveen,Deurne,Noord-Brabant,VBO,5.915118,51.390180
Meester Theelenstraat,26,,,5759RR,Helenaveen,Deurne,Noord-Brabant,VBO,5.915319,51.390179
Meester Theelenstraat,28,,,5759RR,Helenaveen,Deurne,Noord-Brabant,VBO,5.915419,51.390178
Meester Theelenstraat,30,,,5759RR,Helenaveen,Deurne,Noord-Brabant,VBO,5.915635,51.390213
Meester Theelenstraat,32,,,5759RR,Helenaveen,Deurne,Noord-Brabant,VBO,5.915736,51.390249
Meester Theelenstraat,34,,,5759RR,Helenaveen,Deurne,Noord-Brabant,VBO,5.915808,51.390275
Meester Theelenstraat,36,,,5759RR,Helenaveen,Deurne,Noord-Brabant,VBO,5.915967,51.390320
Meester Theelenstraat,38,,,5759RR,Helenaveen,Deurne,Noord-Brabant,VBO,5.916039,51.390337
Meester Theelenstraat,40,,,5759RR,Helenaveen,Deurne,Noord-Brabant,VBO,5.916183,51.390390
Meester Theelenstraat,42,,,5759RR,Helenaveen,Deurne,Noord-Brabant,VBO,5.916284,51.390417
Meester Theelenstraat,44,,,5759RR,Helenaveen,Deurne,Noord-Brabant,VBO,5.916356,51.390444
Meester Theelenstraat,46,,,5759RR,Helenaveen,Deurne,Noord-Brabant,VBO,5.916443,51.390470
Meester Theelenstraat,1,,,5759RS,Helenaveen,Deurne,Noord-Brabant,VBO,5.914290,51.389428
Meester Theelenstraat,3,,,5759RS,Helenaveen,Deurne,Noord-Brabant,VBO,5.914191,51.389546
Meester Theelenstraat,5,,,5759RS,Helenaveen,Deurne,Noord-Brabant,VBO,5.914148,51.389591
Meester Theelenstraat,7,,,5759RS,Helenaveen,Deurne,Noord-Brabant,VBO,5.914063,51.389690
Meester Theelenstraat,9,,,5759RS,Helenaveen,Deurne,Noord-Brabant,VBO,5.914035,51.389735
Meester Theelenstraat,11,,,5759RS,Helenaveen,Deurne,Noord-Brabant,VBO,5.913922,51.389861
Meester Theelenstraat,13,,,5759RS,Helenaveen,Deurne,Noord-Brabant,VBO,5.913893,51.389906
Meester Theelenstraat,15,,,5759RS,Helenaveen,Deurne,Noord-Brabant,VBO,5.913765,51.390006
Meester Theelenstraat,17,,,5759RS,Helenaveen,Deurne,Noord-Brabant,VBO,5.913666,51.390105
Meester Theelenstraat,21,,,5759RS,Helenaveen,Deurne,Noord-Brabant,VBO,5.913911,51.390167
Meester Theelenstraat,23,,,5759RS,Helenaveen,Deurne,Noord-Brabant,VBO,5.914083,51.390193
Meester Theelenstraat,25,,,5759RS,Helenaveen,Deurne,Noord-Brabant,VBO,5.914170,51.390238
Meester Theelenstraat,27,,,5759RS,Helenaveen,Deurne,Noord-Brabant,VBO,5.914343,51.390255
Meester Theelenstraat,29,,,5759RS,Helenaveen,Deurne,Noord-Brabant,VBO,5.914415,51.390264
Meester Theelenstraat,31,,,5759RS,Helenaveen,Deurne,Noord-Brabant,VBO,5.914573,51.390326
Meester Theelenstraat,33,,,5759RS,Helenaveen,Deurne,Noord-Brabant,VBO,5.914789,51.390370
Meester Theelenstraat,35,,,5759RS,Helenaveen,Deurne,Noord-Brabant,VBO,5.915005,51.390405
Meester Theelenstraat,37,,,5759RS,Helenaveen,Deurne,Noord-Brabant,VBO,5.915527,51.390807
Meester Theelenstraat,39,,,5759RS,Helenaveen,Deurne,Noord-Brabant,VBO,5.915641,51.390663
Meester Theelenstraat,41,,,5759RS,Helenaveen,Deurne,Noord-Brabant,VBO,5.915811,51.390482
Meester Theelenstraat,43,,,5759RS,Helenaveen,Deurne,Noord-Brabant,VBO,5.916287,51.390633
Meester Theelenstraat,45,,,5759RS,Helenaveen,Deurne,Noord-Brabant,VBO,5.916202,51.390786
Meester Theelenstraat,47,,,5759RS,Helenaveen,Deurne,Noord-Brabant,VBO,5.916103,51.390903
Meester Theelenstraat,49,,,5759RS,Helenaveen,Deurne,Noord-Brabant,VBO,5.916004,51.391038
Pastoor van Haarenstraat,2,,,5759RT,Helenaveen,Deurne,Noord-Brabant,VBO,5.915471,51.388461
Pastoor van Haarenstraat,4,,,5759RT,Helenaveen,Deurne,Noord-Brabant,VBO,5.915543,51.388479
Pastoor van Haarenstraat,6,,,5759RT,Helenaveen,Deurne,Noord-Brabant,VBO,5.915717,51.388559
Pastoor van Haarenstraat,8,,,5759RT,Helenaveen,Deurne,Noord-Brabant,VBO,5.915789,51.388577
Pastoor van Haarenstraat,10,,,5759RT,Helenaveen,Deurne,Noord-Brabant,VBO,5.916220,51.388628
Pastoor van Haarenstraat,12,,,5759RT,Helenaveen,Deurne,Noord-Brabant,VBO,5.916263,51.388574
Pastoor van Haarenstraat,14,,,5759RT,Helenaveen,Deurne,Noord-Brabant,VBO,5.916305,51.388529
Pastoor van Haarenstraat,16,,,5759RT,Helenaveen,Deurne,Noord-Brabant,VBO,5.916622,51.388600
Pastoor van Haarenstraat,18,,,5759RT,Helenaveen,Deurne,Noord-Brabant,VBO,5.916580,51.388636
Pastoor van Haarenstraat,20,,,5759RT,Helenaveen,Deurne,Noord-Brabant,VBO,5.916566,51.388690
Pastoor van Haarenstraat,22,,,5759RT,Helenaveen,Deurne,Noord-Brabant,VBO,5.916423,51.388798
Pastoor van Haarenstraat,24,,,5759RT,Helenaveen,Deurne,Noord-Brabant,VBO,5.916381,51.388852
Pastoor van Haarenstraat,26,,,5759RT,Helenaveen,Deurne,Noord-Brabant,VBO,5.916353,51.388898
Pastoor van Haarenstraat,28,,,5759RT,Helenaveen,Deurne,Noord-Brabant,VBO,5.915821,51.388873
Pastoor van Haarenstraat,30,,,5759RT,Helenaveen,Deurne,Noord-Brabant,VBO,5.915763,51.388855
Pastoor van Haarenstraat,32,,,5759RT,Helenaveen,Deurne,Noord-Brabant,VBO,5.915590,51.388775
Pastoor van Haarenstraat,34,,,5759RT,Helenaveen,Deurne,Noord-Brabant,VBO,5.915504,51.388758
Pastoor van Haarenstraat,36,,,5759RT,Helenaveen,Deurne,Noord-Brabant,VBO,5.915129,51.388660
Pastoor van Haarenstraat,38,,,5759RT,Helenaveen,Deurne,Noord-Brabant,VBO,5.915072,51.388706
Pastoor van Haarenstraat,40,,,5759RT,Helenaveen,Deurne,Noord-Brabant,VBO,5.914958,51.388796
Pastoor van Haarenstraat,42,,,5759RT,Helenaveen,Deurne,Noord-Brabant,VBO,5.914915,51.388841
Koning Willem III-plein,3,,,5759RV,Helenaveen,Deurne,Noord-Brabant,VBO,5.917989,51.388737
Koning Willem III-plein,5,,,5759RV,Helenaveen,Deurne,Noord-Brabant,VBO,5.917961,51.388782
Hannes Joostenplein,2,,,5759RW,Helenaveen,Deurne,Noord-Brabant,VBO,5.919173,51.388076
Hannes Joostenplein,4,,,5759RW,Helenaveen,Deurne,Noord-Brabant,VBO,5.919187,51.388013
Hannes Joostenplein,6,,,5759RW,Helenaveen,Deurne,Noord-Brabant,VBO,5.919258,51.387940
Hannes Joostenplein,8,,,5759RW,Helenaveen,Deurne,Noord-Brabant,VBO,5.919315,51.387868
Hannes Joostenplein,10,,,5759RW,Helenaveen,Deurne,Noord-Brabant,VBO,5.919429,51.387814
Hannes Joostenplein,12,,,5759RW,Helenaveen,Deurne,Noord-Brabant,VBO,5.919586,51.387759
