openbareruimtenaam,huisnummer,huisletter,huisnummertoevoeging,postcode,woonplaatsnaam,gemeentenaam,provincienaam,typeadresseerbaarobject,longitude,latitude
Stippelberg,1,,,5764PA,De Rips,Gemert-Bakel,Noord-Brabant,VBO,5.797966,51.526359
Stippelberg,3,,,5764PA,De Rips,Gemert-Bakel,Noord-Brabant,VBO,5.798348,51.526589
Ledeboerlaan,1,,,5764PB,De Rips,Gemert-Bakel,Noord-Brabant,VBO,5.805434,51.523212
Kruisberglaan,1,,,5764PC,De Rips,Gemert-Bakel,Noord-Brabant,VBO,5.806945,51.548558
Kruisberglaan,5,,,5764PC,De Rips,Gemert-Bakel,Noord-Brabant,VBO,5.806785,51.548268
Kruisberglaan,7,,,5764PC,De Rips,Gemert-Bakel,Noord-Brabant,VBO,5.806687,51.548125
Kruisberglaan,9,,,5764PC,De Rips,Gemert-Bakel,Noord-Brabant,VBO,5.806598,51.547996
Kruisberglaan,11,a,,5764PC,De Rips,Gemert-Bakel,Noord-Brabant,VBO,5.806763,51.546364
Kruisberglaan,11,,,5764PC,De Rips,Gemert-Bakel,Noord-Brabant,VBO,5.806409,51.547560
Kruisberglaan,13,,,5764PC,De Rips,Gemert-Bakel,Noord-Brabant,VBO,5.804758,51.544285
Kruisberglaan,17,,,5764PC,De Rips,Gemert-Bakel,Noord-Brabant,VBO,5.802376,51.541700
Burgemeester Wijtvlietlaan,1,,,5764PD,De Rips,Gemert-Bakel,Noord-Brabant,VBO,5.806530,51.549771
Burgemeester Wijtvlietlaan,2,,,5764PD,De Rips,Gemert-Bakel,Noord-Brabant,VBO,5.806455,51.549734
Burgemeester Wijtvlietlaan,4,,,5764PD,De Rips,Gemert-Bakel,Noord-Brabant,VBO,5.790972,51.554171
Burgemeester Wijtvlietlaan,6,,,5764PD,De Rips,Gemert-Bakel,Noord-Brabant,VBO,5.787404,51.555145
Burgemeester Wijtvlietlaan,7,,,5764PD,De Rips,Gemert-Bakel,Noord-Brabant,VBO,5.795100,51.552412
Burgemeester Wijtvlietlaan,8,,,5764PD,De Rips,Gemert-Bakel,Noord-Brabant,VBO,5.784524,51.555947
Ripsestraat,5,,,5764PE,De Rips,Gemert-Bakel,Noord-Brabant,VBO,5.807072,51.549825
Ripsestraat,7,,,5764PE,De Rips,Gemert-Bakel,Noord-Brabant,VBO,5.807110,51.550099
Ripsestraat,9,,,5764PE,De Rips,Gemert-Bakel,Noord-Brabant,VBO,5.807297,51.550372
Ripsestraat,11,,,5764PE,De Rips,Gemert-Bakel,Noord-Brabant,VBO,5.807507,51.550566
Ripsestraat,13,,,5764PE,De Rips,Gemert-Bakel,Noord-Brabant,VBO,5.807690,51.550832
Ripsestraat,15,,,5764PE,De Rips,Gemert-Bakel,Noord-Brabant,VBO,5.807864,51.551054
Ripsestraat,17,,,5764PE,De Rips,Gemert-Bakel,Noord-Brabant,VBO,5.807985,51.551275
Ripsestraat,19,,,5764PE,De Rips,Gemert-Bakel,Noord-Brabant,VBO,5.808195,51.551585
Ripsestraat,21,,,5764PE,De Rips,Gemert-Bakel,Noord-Brabant,VBO,5.808358,51.551820
Ripsestraat,23,a,,5764PE,De Rips,Gemert-Bakel,Noord-Brabant,VBO,5.808669,51.552264
Ripsestraat,23,,,5764PE,De Rips,Gemert-Bakel,Noord-Brabant,VBO,5.808486,51.552004
Ripsestraat,25,,,5764PE,De Rips,Gemert-Bakel,Noord-Brabant,VBO,5.808949,51.552490
Ripsestraat,27,,,5764PE,De Rips,Gemert-Bakel,Noord-Brabant,VBO,5.809071,51.552744
Ripsestraat,29,,,5764PE,De Rips,Gemert-Bakel,Noord-Brabant,VBO,5.809393,51.553217
Ripsestraat,2,,,5764PG,De Rips,Gemert-Bakel,Noord-Brabant,VBO,5.807509,51.549365
Ripsestraat,4,,,5764PG,De Rips,Gemert-Bakel,Noord-Brabant,VBO,5.807539,51.549410
Ripsestraat,6,,,5764PG,De Rips,Gemert-Bakel,Noord-Brabant,VBO,5.807682,51.549619
Ripsestraat,8,,,5764PG,De Rips,Gemert-Bakel,Noord-Brabant,VBO,5.807767,51.549791
Ripsestraat,10,,,5764PG,De Rips,Gemert-Bakel,Noord-Brabant,VBO,5.807791,51.549827
Ripsestraat,12,,,5764PG,De Rips,Gemert-Bakel,Noord-Brabant,VBO,5.807931,51.550021
Ripsestraat,14,,,5764PG,De Rips,Gemert-Bakel,Noord-Brabant,VBO,5.808075,51.550198
Ripsestraat,16,,,5764PG,De Rips,Gemert-Bakel,Noord-Brabant,VBO,5.808099,51.550235
Ripsestraat,18,,,5764PG,De Rips,Gemert-Bakel,Noord-Brabant,VBO,5.808198,51.550381
Ripsestraat,20,a,,5764PG,De Rips,Gemert-Bakel,Noord-Brabant,VBO,5.808727,51.550816
Ripsestraat,20,,,5764PG,De Rips,Gemert-Bakel,Noord-Brabant,VBO,5.808512,51.550596
Ripsestraat,22,a,,5764PG,De Rips,Gemert-Bakel,Noord-Brabant,VBO,5.809134,51.551360
Ripsestraat,22,b,,5764PG,De Rips,Gemert-Bakel,Noord-Brabant,VBO,5.809210,51.551467
Ripsestraat,22,,,5764PG,De Rips,Gemert-Bakel,Noord-Brabant,VBO,5.809183,51.551109
Ripsestraat,24,,,5764PG,De Rips,Gemert-Bakel,Noord-Brabant,VBO,5.809323,51.551621
Ripsestraat,26,,,5764PG,De Rips,Gemert-Bakel,Noord-Brabant,VBO,5.809374,51.551796
Ripsestraat,28,a,,5764PG,De Rips,Gemert-Bakel,Noord-Brabant,VBO,5.809596,51.552110
Ripsestraat,28,,,5764PG,De Rips,Gemert-Bakel,Noord-Brabant,VBO,5.809486,51.551953
Ripsestraat,30,,,5764PG,De Rips,Gemert-Bakel,Noord-Brabant,VBO,5.809651,51.552328
Ripsestraat,32,,,5764PG,De Rips,Gemert-Bakel,Noord-Brabant,VBO,5.809851,51.552626
Ripsestraat,34,,,5764PG,De Rips,Gemert-Bakel,Noord-Brabant,VBO,5.810021,51.552874
Ripsestraat,38,,,5764PG,De Rips,Gemert-Bakel,Noord-Brabant,VBO,5.810046,51.553167
Oude Rips,1,,,5764PH,De Rips,Gemert-Bakel,Noord-Brabant,VBO,5.808848,51.553419
Oude Rips,2,a,,5764PH,De Rips,Gemert-Bakel,Noord-Brabant,VBO,5.808299,51.554138
Oude Rips,2,b,,5764PH,De Rips,Gemert-Bakel,Noord-Brabant,VBO,5.809209,51.553812
Oude Rips,2,,,5764PH,De Rips,Gemert-Bakel,Noord-Brabant,VBO,5.808933,51.553924
Oude Rips,4,,,5764PH,De Rips,Gemert-Bakel,Noord-Brabant,VBO,5.808473,51.554396
Oude Rips,6,,,5764PH,De Rips,Gemert-Bakel,Noord-Brabant,VBO,5.808617,51.554611
Oude Rips,17,,,5764PH,De Rips,Gemert-Bakel,Noord-Brabant,VBO,5.805452,51.554434
Oude Rips,19,,,5764PH,De Rips,Gemert-Bakel,Noord-Brabant,VBO,5.805369,51.554483
Oploseweg,1,a,,5764PJ,De Rips,Gemert-Bakel,Noord-Brabant,VBO,5.809805,51.553829
Oploseweg,1,,,5764PJ,De Rips,Gemert-Bakel,Noord-Brabant,VBO,5.809713,51.553681
Oploseweg,2,,,5764PJ,De Rips,Gemert-Bakel,Noord-Brabant,VBO,5.811824,51.555208
Oploseweg,3,,,5764PJ,De Rips,Gemert-Bakel,Noord-Brabant,VBO,5.809876,51.553923
Oploseweg,9,,,5764PJ,De Rips,Gemert-Bakel,Noord-Brabant,VBO,5.806561,51.559465
Jan Berendweg,1,a,,5764PK,De Rips,Gemert-Bakel,Noord-Brabant,VBO,5.812480,51.565407
Jan Berendweg,1,,,5764PK,De Rips,Gemert-Bakel,Noord-Brabant,VBO,5.813983,51.567480
Jan Berendweg,2,,,5764PK,De Rips,Gemert-Bakel,Noord-Brabant,VBO,5.812638,51.571844
Jan Berendweg,3,,,5764PK,De Rips,Gemert-Bakel,Noord-Brabant,VBO,5.812448,51.570859
Jan Berendweg,4,,,5764PK,De Rips,Gemert-Bakel,Noord-Brabant,VBO,5.812601,51.571920
Jan Berendweg,5,,,5764PK,De Rips,Gemert-Bakel,Noord-Brabant,VBO,5.811436,51.572841
Jan Berendweg,6,,,5764PK,De Rips,Gemert-Bakel,Noord-Brabant,VBO,5.812400,51.572325
Jan Berendweg,7,,,5764PK,De Rips,Gemert-Bakel,Noord-Brabant,VBO,5.811410,51.572893
Vredepaaldreef,1,,,5764PL,De Rips,Gemert-Bakel,Noord-Brabant,VBO,5.817583,51.563234
Vredepaaldreef,2,,,5764PL,De Rips,Gemert-Bakel,Noord-Brabant,VBO,5.827602,51.561843
Vredepaaldreef,4,,,5764PL,De Rips,Gemert-Bakel,Noord-Brabant,VBO,5.830210,51.563049
Vredepaaldreef,7,,,5764PL,De Rips,Gemert-Bakel,Noord-Brabant,VBO,5.832700,51.557212
Vredepaaldreef,8,,,5764PL,De Rips,Gemert-Bakel,Noord-Brabant,VBO,5.822396,51.561524
Vinkepeel,2,,,5764PM,De Rips,Gemert-Bakel,Noord-Brabant,VBO,5.816731,51.560851
Vinkepeel,4,b,,5764PM,De Rips,Gemert-Bakel,Noord-Brabant,VBO,5.817545,51.562961
Vinkepeel,4,,,5764PM,De Rips,Gemert-Bakel,Noord-Brabant,VBO,5.818577,51.562726
Roelvinklaan,1,,,5764PN,De Rips,Gemert-Bakel,Noord-Brabant,VBO,5.824470,51.555195
Roelvinklaan,2,,,5764PN,De Rips,Gemert-Bakel,Noord-Brabant,VBO,5.835910,51.555814
Roelvinklaan,4,,,5764PN,De Rips,Gemert-Bakel,Noord-Brabant,VBO,5.826402,51.554996
Blaarpeelweg,1,,,5764PP,De Rips,Gemert-Bakel,Noord-Brabant,VBO,5.810482,51.553448
Blaarpeelweg,2,,,5764PP,De Rips,Gemert-Bakel,Noord-Brabant,VBO,5.810546,51.553034
Blaarpeelweg,4,,,5764PP,De Rips,Gemert-Bakel,Noord-Brabant,VBO,5.810750,51.552978
Blaarpeelweg,5,a,,5764PP,De Rips,Gemert-Bakel,Noord-Brabant,VBO,5.824454,51.549422
Blaarpeelweg,5,,,5764PP,De Rips,Gemert-Bakel,Noord-Brabant,VBO,5.815885,51.551835
Blaarpeelweg,6,a,,5764PP,De Rips,Gemert-Bakel,Noord-Brabant,VBO,5.811403,51.552739
Blaarpeelweg,6,,,5764PP,De Rips,Gemert-Bakel,Noord-Brabant,VBO,5.811061,51.552860
Blaarpeelweg,7,,,5764PP,De Rips,Gemert-Bakel,Noord-Brabant,VBO,5.832438,51.546973
Blaarpeelweg,8,a,,5764PP,De Rips,Gemert-Bakel,Noord-Brabant,VBO,5.812126,51.552522
Blaarpeelweg,8,b,,5764PP,De Rips,Gemert-Bakel,Noord-Brabant,VBO,5.812991,51.552297
Blaarpeelweg,8,c,,5764PP,De Rips,Gemert-Bakel,Noord-Brabant,VBO,5.813215,51.552232
Blaarpeelweg,8,d,,5764PP,De Rips,Gemert-Bakel,Noord-Brabant,VBO,5.813397,51.552179
Blaarpeelweg,8,,,5764PP,De Rips,Gemert-Bakel,Noord-Brabant,VBO,5.811819,51.552641
Blaarpeelweg,9,,,5764PP,De Rips,Gemert-Bakel,Noord-Brabant,VBO,5.835317,51.546178
Blaarpeelweg,10,a,,5764PP,De Rips,Gemert-Bakel,Noord-Brabant,VBO,5.814081,51.551886
Blaarpeelweg,10,b,,5764PP,De Rips,Gemert-Bakel,Noord-Brabant,VBO,5.814445,51.551838
Blaarpeelweg,10,,,5764PP,De Rips,Gemert-Bakel,Noord-Brabant,VBO,5.813810,51.551961
Blaarpeelweg,12,,,5764PP,De Rips,Gemert-Bakel,Noord-Brabant,VBO,5.815569,51.551521
Blaarpeelweg,17,,,5764PP,De Rips,Gemert-Bakel,Noord-Brabant,VBO,5.839573,51.545376
Blaarpeelweg,18,a,,5764PP,De Rips,Gemert-Bakel,Noord-Brabant,VBO,5.817552,51.550711
Blaarpeelweg,18,b,,5764PP,De Rips,Gemert-Bakel,Noord-Brabant,VBO,5.817081,51.550021
Blaarpeelweg,18,f,,5764PP,De Rips,Gemert-Bakel,Noord-Brabant,VBO,5.829007,51.547229
Blaarpeelweg,18,,,5764PP,De Rips,Gemert-Bakel,Noord-Brabant,VBO,5.817266,51.550938
Blaarpeelweg,20,,,5764PP,De Rips,Gemert-Bakel,Noord-Brabant,VBO,5.842713,51.543608
Meester Hertsigstraat,1,b,,5764PR,De Rips,Gemert-Bakel,Noord-Brabant,VBO,5.809821,51.550261
Meester Hertsigstraat,1,,,5764PR,De Rips,Gemert-Bakel,Noord-Brabant,VBO,5.809935,51.550555
Meester Hertsigstraat,5,a,,5764PR,De Rips,Gemert-Bakel,Noord-Brabant,VBO,5.810637,51.551343
Meester Hertsigstraat,5,,,5764PR,De Rips,Gemert-Bakel,Noord-Brabant,VBO,5.810565,51.551240
Meester Hertsigstraat,7,a,,5764PR,De Rips,Gemert-Bakel,Noord-Brabant,VBO,5.810502,51.551639
Meester Hertsigstraat,7,,,5764PR,De Rips,Gemert-Bakel,Noord-Brabant,VBO,5.810577,51.551535
Meester Hertsigstraat,9,,,5764PR,De Rips,Gemert-Bakel,Noord-Brabant,VBO,5.810994,51.551917
Meester Hertsigstraat,11,,,5764PR,De Rips,Gemert-Bakel,Noord-Brabant,VBO,5.811233,51.551781
Meester Hertsigstraat,13,,,5764PR,De Rips,Gemert-Bakel,Noord-Brabant,VBO,5.811303,51.551760
Meester Hertsigstraat,15,,,5764PR,De Rips,Gemert-Bakel,Noord-Brabant,VBO,5.811433,51.551701
Meester Hertsigstraat,17,,,5764PR,De Rips,Gemert-Bakel,Noord-Brabant,VBO,5.811517,51.551676
Meester Hertsigstraat,19,,,5764PR,De Rips,Gemert-Bakel,Noord-Brabant,VBO,5.811644,51.551645
Meester Hertsigstraat,21,,,5764PR,De Rips,Gemert-Bakel,Noord-Brabant,VBO,5.812072,51.552300
Meester Hertsigstraat,2,,,5764PS,De Rips,Gemert-Bakel,Noord-Brabant,VBO,5.810738,51.549508
Meester Hertsigstraat,4,,,5764PS,De Rips,Gemert-Bakel,Noord-Brabant,VBO,5.810796,51.549659
Meester Hertsigstraat,6,,,5764PS,De Rips,Gemert-Bakel,Noord-Brabant,VBO,5.810831,51.549711
Meester Hertsigstraat,8,,,5764PS,De Rips,Gemert-Bakel,Noord-Brabant,VBO,5.810902,51.549814
Meester Hertsigstraat,10,a,,5764PS,De Rips,Gemert-Bakel,Noord-Brabant,VBO,5.811011,51.549971
Meester Hertsigstraat,10,b,,5764PS,De Rips,Gemert-Bakel,Noord-Brabant,VBO,5.811045,51.550020
Meester Hertsigstraat,10,,,5764PS,De Rips,Gemert-Bakel,Noord-Brabant,VBO,5.810937,51.549864
Meester Hertsigstraat,12,,,5764PS,De Rips,Gemert-Bakel,Noord-Brabant,VBO,5.811319,51.550523
Meester Hertsigstraat,14,,,5764PS,De Rips,Gemert-Bakel,Noord-Brabant,VBO,5.811319,51.550523
Meester Hertsigstraat,16,,,5764PS,De Rips,Gemert-Bakel,Noord-Brabant,VBO,5.811319,51.550523
Meester Hertsigstraat,18,,,5764PS,De Rips,Gemert-Bakel,Noord-Brabant,VBO,5.811319,51.550523
Meester Hertsigstraat,20,,,5764PS,De Rips,Gemert-Bakel,Noord-Brabant,VBO,5.811319,51.550523
Meester Hertsigstraat,22,,,5764PS,De Rips,Gemert-Bakel,Noord-Brabant,VBO,5.811319,51.550523
Meester Hertsigstraat,24,,,5764PS,De Rips,Gemert-Bakel,Noord-Brabant,VBO,5.811319,51.550523
Meester Hertsigstraat,26,,,5764PS,De Rips,Gemert-Bakel,Noord-Brabant,VBO,5.811319,51.550523
Meester Hertsigstraat,28,,,5764PS,De Rips,Gemert-Bakel,Noord-Brabant,VBO,5.811319,51.550523
Meester Hertsigstraat,30,,,5764PT,De Rips,Gemert-Bakel,Noord-Brabant,VBO,5.811319,51.550523
Meester Hertsigstraat,32,,,5764PT,De Rips,Gemert-Bakel,Noord-Brabant,VBO,5.811319,51.550523
Meester Hertsigstraat,34,,,5764PT,De Rips,Gemert-Bakel,Noord-Brabant,VBO,5.811319,51.550523
Meester Hertsigstraat,36,,,5764PT,De Rips,Gemert-Bakel,Noord-Brabant,VBO,5.811319,51.550523
Meester Hertsigstraat,38,,,5764PT,De Rips,Gemert-Bakel,Noord-Brabant,VBO,5.811319,51.550523
Meester Hertsigstraat,40,,,5764PT,De Rips,Gemert-Bakel,Noord-Brabant,VBO,5.811532,51.550834
Meester Hertsigstraat,42,,,5764PT,De Rips,Gemert-Bakel,Noord-Brabant,VBO,5.811566,51.550884
Meester Hertsigstraat,44,,,5764PT,De Rips,Gemert-Bakel,Noord-Brabant,VBO,5.811642,51.550993
Meester Hertsigstraat,46,,,5764PT,De Rips,Gemert-Bakel,Noord-Brabant,VBO,5.811678,51.551047
Meester Hertsigstraat,48,,,5764PT,De Rips,Gemert-Bakel,Noord-Brabant,VBO,5.811750,51.551153
Meester Hertsigstraat,50,,,5764PT,De Rips,Gemert-Bakel,Noord-Brabant,VBO,5.811787,51.551205
Meester Hertsigstraat,52,,,5764PT,De Rips,Gemert-Bakel,Noord-Brabant,VBO,5.811929,51.551413
Meester Hertsigstraat,54,,,5764PT,De Rips,Gemert-Bakel,Noord-Brabant,VBO,5.811964,51.551465
Meester Hertsigstraat,56,,,5764PT,De Rips,Gemert-Bakel,Noord-Brabant,VBO,5.812040,51.551575
Meester Hertsigstraat,58,,,5764PT,De Rips,Gemert-Bakel,Noord-Brabant,VBO,5.812076,51.551626
Meester Hertsigstraat,60,,,5764PT,De Rips,Gemert-Bakel,Noord-Brabant,VBO,5.812151,51.551735
Meester Hertsigstraat,62,,,5764PT,De Rips,Gemert-Bakel,Noord-Brabant,VBO,5.812186,51.551786
Meester Hertsigstraat,64,,,5764PT,De Rips,Gemert-Bakel,Noord-Brabant,VBO,5.812345,51.552018
Meester Hertsigstraat,66,,,5764PT,De Rips,Gemert-Bakel,Noord-Brabant,VBO,5.812381,51.552071
Meester Hertsigstraat,68,,,5764PT,De Rips,Gemert-Bakel,Noord-Brabant,VBO,5.812454,51.552179
Meester Hertsigstraat,70,,,5764PT,De Rips,Gemert-Bakel,Noord-Brabant,VBO,5.812490,51.552230
Meester Hertsigstraat,72,,,5764PT,De Rips,Gemert-Bakel,Noord-Brabant,VBO,5.812563,51.552339
Meester Hertsigstraat,74,,,5764PT,De Rips,Gemert-Bakel,Noord-Brabant,VBO,5.812597,51.552391
Paterslaan,1,,,5764PV,De Rips,Gemert-Bakel,Noord-Brabant,VBO,5.812876,51.547719
Paterslaan,2,a,,5764PV,De Rips,Gemert-Bakel,Noord-Brabant,VBO,5.813496,51.547727
Paterslaan,2,,,5764PV,De Rips,Gemert-Bakel,Noord-Brabant,VBO,5.813405,51.547599
Paterslaan,3,,,5764PV,De Rips,Gemert-Bakel,Noord-Brabant,VBO,5.813008,51.547836
Paterslaan,4,,,5764PV,De Rips,Gemert-Bakel,Noord-Brabant,VBO,5.813573,51.547837
Paterslaan,5,,,5764PV,De Rips,Gemert-Bakel,Noord-Brabant,VBO,5.813034,51.547873
Paterslaan,6,,,5764PV,De Rips,Gemert-Bakel,Noord-Brabant,VBO,5.813599,51.547874
Paterslaan,7,,,5764PV,De Rips,Gemert-Bakel,Noord-Brabant,VBO,5.813126,51.548009
Paterslaan,8,,,5764PV,De Rips,Gemert-Bakel,Noord-Brabant,VBO,5.813692,51.548007
Paterslaan,9,,,5764PV,De Rips,Gemert-Bakel,Noord-Brabant,VBO,5.813243,51.548175
Paterslaan,10,,,5764PV,De Rips,Gemert-Bakel,Noord-Brabant,VBO,5.813728,51.548058
Paterslaan,11,,,5764PV,De Rips,Gemert-Bakel,Noord-Brabant,VBO,5.813365,51.548338
Paterslaan,12,,,5764PV,De Rips,Gemert-Bakel,Noord-Brabant,VBO,5.813807,51.548171
Paterslaan,13,,,5764PV,De Rips,Gemert-Bakel,Noord-Brabant,VBO,5.813393,51.548375
Paterslaan,15,,,5764PV,De Rips,Gemert-Bakel,Noord-Brabant,VBO,5.813622,51.548616
Paterslaan,17,,,5764PV,De Rips,Gemert-Bakel,Noord-Brabant,VBO,5.813659,51.548667
Paterslaan,23,,,5764PV,De Rips,Gemert-Bakel,Noord-Brabant,VBO,5.814367,51.549661
Paterslaan,31,,,5764PV,De Rips,Gemert-Bakel,Noord-Brabant,VBO,5.814705,51.550118
Paterslaan,33,,,5764PV,De Rips,Gemert-Bakel,Noord-Brabant,VBO,5.814796,51.550246
Lambertweg,1,,,5764PW,De Rips,Gemert-Bakel,Noord-Brabant,VBO,5.808995,51.550051
Lambertweg,3,,,5764PW,De Rips,Gemert-Bakel,Noord-Brabant,VBO,5.809277,51.549979
Lambertweg,5,,,5764PW,De Rips,Gemert-Bakel,Noord-Brabant,VBO,5.809548,51.549912
Lambertweg,9,,,5764PW,De Rips,Gemert-Bakel,Noord-Brabant,VBO,5.811053,51.549387
Lambertweg,11,,,5764PW,De Rips,Gemert-Bakel,Noord-Brabant,VBO,5.811224,51.549326
Lambertweg,13,,,5764PW,De Rips,Gemert-Bakel,Noord-Brabant,VBO,5.811426,51.549261
Lambertweg,15,,,5764PW,De Rips,Gemert-Bakel,Noord-Brabant,VBO,5.811598,51.549199
Lambertweg,17,,,5764PW,De Rips,Gemert-Bakel,Noord-Brabant,VBO,5.811779,51.549137
Lambertweg,19,,,5764PW,De Rips,Gemert-Bakel,Noord-Brabant,VBO,5.811953,51.549087
Lambertweg,21,,,5764PW,De Rips,Gemert-Bakel,Noord-Brabant,VBO,5.812138,51.549034
Lambertweg,23,,,5764PW,De Rips,Gemert-Bakel,Noord-Brabant,VBO,5.812458,51.548943
Lambertweg,25,,,5764PW,De Rips,Gemert-Bakel,Noord-Brabant,VBO,5.812646,51.548890
Lambertweg,27,,,5764PW,De Rips,Gemert-Bakel,Noord-Brabant,VBO,5.812825,51.548838
Lambertweg,29,,,5764PW,De Rips,Gemert-Bakel,Noord-Brabant,VBO,5.813011,51.548785
Lambertweg,31,,,5764PW,De Rips,Gemert-Bakel,Noord-Brabant,VBO,5.813194,51.548732
Lambertweg,33,,,5764PW,De Rips,Gemert-Bakel,Noord-Brabant,VBO,5.813367,51.548682
Lambertweg,2,,,5764PX,De Rips,Gemert-Bakel,Noord-Brabant,VBO,5.808571,51.549869
Lambertweg,4,,,5764PX,De Rips,Gemert-Bakel,Noord-Brabant,VBO,5.808823,51.549803
Lambertweg,6,,,5764PX,De Rips,Gemert-Bakel,Noord-Brabant,VBO,5.809976,51.549450
Lambertweg,8,,,5764PX,De Rips,Gemert-Bakel,Noord-Brabant,VBO,5.810201,51.549373
Lambertweg,10,,,5764PX,De Rips,Gemert-Bakel,Noord-Brabant,VBO,5.810368,51.549314
Lambertweg,12,,,5764PX,De Rips,Gemert-Bakel,Noord-Brabant,VBO,5.810447,51.549287
Lambertweg,14,,,5764PX,De Rips,Gemert-Bakel,Noord-Brabant,VBO,5.810615,51.549228
Lambertweg,16,,,5764PX,De Rips,Gemert-Bakel,Noord-Brabant,VBO,5.810694,51.549200
Lambertweg,18,,,5764PX,De Rips,Gemert-Bakel,Noord-Brabant,VBO,5.810887,51.549132
Lambertweg,20,,,5764PX,De Rips,Gemert-Bakel,Noord-Brabant,VBO,5.810966,51.549104
Lambertweg,22,,,5764PX,De Rips,Gemert-Bakel,Noord-Brabant,VBO,5.811153,51.549038
Lambertweg,24,,,5764PX,De Rips,Gemert-Bakel,Noord-Brabant,VBO,5.811354,51.548969
Lambertweg,26,,,5764PX,De Rips,Gemert-Bakel,Noord-Brabant,VBO,5.812007,51.548778
Lambertweg,28,,,5764PX,De Rips,Gemert-Bakel,Noord-Brabant,VBO,5.812197,51.548723
Lambertweg,30,,,5764PX,De Rips,Gemert-Bakel,Noord-Brabant,VBO,5.812372,51.548673
Lambertweg,32,,,5764PX,De Rips,Gemert-Bakel,Noord-Brabant,VBO,5.812549,51.548623
Lambertweg,34,,,5764PX,De Rips,Gemert-Bakel,Noord-Brabant,VBO,5.812732,51.548570
Dr. Houtzagerslaan,1,,,5764PZ,De Rips,Gemert-Bakel,Noord-Brabant,VBO,5.808898,51.549070
Dr. Houtzagerslaan,3,,,5764PZ,De Rips,Gemert-Bakel,Noord-Brabant,VBO,5.809044,51.549162
Dr. Houtzagerslaan,4,,,5764PZ,De Rips,Gemert-Bakel,Noord-Brabant,VBO,5.809400,51.549140
Dr. Houtzagerslaan,5,,,5764PZ,De Rips,Gemert-Bakel,Noord-Brabant,VBO,5.809130,51.549286
Dr. Houtzagerslaan,6,,,5764PZ,De Rips,Gemert-Bakel,Noord-Brabant,VBO,5.809486,51.549264
Dr. Houtzagerslaan,7,,,5764PZ,De Rips,Gemert-Bakel,Noord-Brabant,VBO,5.809217,51.549409
Dr. Houtzagerslaan,8,,,5764PZ,De Rips,Gemert-Bakel,Noord-Brabant,VBO,5.809571,51.549388
Dr. Houtzagerslaan,9,,,5764PZ,De Rips,Gemert-Bakel,Noord-Brabant,VBO,5.809305,51.549534
Dr. Houtzagerslaan,10,,,5764PZ,De Rips,Gemert-Bakel,Noord-Brabant,VBO,5.809657,51.549510
Dr. Houtzagerslaan,11,,,5764PZ,De Rips,Gemert-Bakel,Noord-Brabant,VBO,5.809393,51.549657
Pastoor Trinesstraat,3,,,5764RA,De Rips,Gemert-Bakel,Noord-Brabant,VBO,5.811103,51.548631
Pastoor Trinesstraat,4,,,5764RA,De Rips,Gemert-Bakel,Noord-Brabant,VBO,5.811524,51.548597
Pastoor Trinesstraat,5,,,5764RA,De Rips,Gemert-Bakel,Noord-Brabant,VBO,5.811196,51.548753
Pastoor Trinesstraat,6,,,5764RA,De Rips,Gemert-Bakel,Noord-Brabant,VBO,5.811610,51.548711
Pastoor Trinesstraat,8,,,5764RA,De Rips,Gemert-Bakel,Noord-Brabant,VBO,5.811696,51.548824
Burgemeester v.d. Wildenberglaan,1,a,,5764RB,De Rips,Gemert-Bakel,Noord-Brabant,VBO,5.808001,51.549221
Burgemeester v.d. Wildenberglaan,1,,,5764RB,De Rips,Gemert-Bakel,Noord-Brabant,VBO,5.807947,51.549127
Burgemeester v.d. Wildenberglaan,5,,,5764RB,De Rips,Gemert-Bakel,Noord-Brabant,VBO,5.808770,51.548924
Burgemeester v.d. Wildenberglaan,7,,,5764RB,De Rips,Gemert-Bakel,Noord-Brabant,VBO,5.809280,51.548740
Burgemeester v.d. Wildenberglaan,9,,,5764RB,De Rips,Gemert-Bakel,Noord-Brabant,VBO,5.809337,51.548723
Burgemeester v.d. Wildenberglaan,11,,,5764RB,De Rips,Gemert-Bakel,Noord-Brabant,VBO,5.809641,51.548654
Burgemeester v.d. Wildenberglaan,15,,,5764RB,De Rips,Gemert-Bakel,Noord-Brabant,VBO,5.809947,51.548565
Burgemeester v.d. Wildenberglaan,17,,,5764RB,De Rips,Gemert-Bakel,Noord-Brabant,VBO,5.810006,51.548548
Burgemeester v.d. Wildenberglaan,19,,,5764RB,De Rips,Gemert-Bakel,Noord-Brabant,VBO,5.810264,51.548474
Burgemeester v.d. Wildenberglaan,21,,,5764RB,De Rips,Gemert-Bakel,Noord-Brabant,VBO,5.810432,51.548540
Burgemeester v.d. Wildenberglaan,23,,,5764RB,De Rips,Gemert-Bakel,Noord-Brabant,VBO,5.810592,51.548357
Burgemeester v.d. Wildenberglaan,25,,,5764RB,De Rips,Gemert-Bakel,Noord-Brabant,VBO,5.810651,51.548342
Burgemeester v.d. Wildenberglaan,27,,,5764RB,De Rips,Gemert-Bakel,Noord-Brabant,VBO,5.810858,51.548301
Burgemeester v.d. Wildenberglaan,31,,,5764RC,De Rips,Gemert-Bakel,Noord-Brabant,VBO,5.811264,51.548185
Burgemeester v.d. Wildenberglaan,33,,,5764RC,De Rips,Gemert-Bakel,Noord-Brabant,VBO,5.811322,51.548168
Burgemeester v.d. Wildenberglaan,35,,,5764RC,De Rips,Gemert-Bakel,Noord-Brabant,VBO,5.811538,51.548098
Burgemeester v.d. Wildenberglaan,37,,,5764RC,De Rips,Gemert-Bakel,Noord-Brabant,VBO,5.811715,51.548045
Burgemeester v.d. Wildenberglaan,39,,,5764RC,De Rips,Gemert-Bakel,Noord-Brabant,VBO,5.811894,51.547989
Burgemeester v.d. Wildenberglaan,41,,,5764RC,De Rips,Gemert-Bakel,Noord-Brabant,VBO,5.812103,51.547926
Burgemeester v.d. Wildenberglaan,43,,,5764RC,De Rips,Gemert-Bakel,Noord-Brabant,VBO,5.812346,51.547852
Burgemeester v.d. Wildenberglaan,45,a,,5764RC,De Rips,Gemert-Bakel,Noord-Brabant,VBO,5.813641,51.547518
Burgemeester v.d. Wildenberglaan,45,,,5764RC,De Rips,Gemert-Bakel,Noord-Brabant,VBO,5.813933,51.547469
Burgemeester v.d. Wildenberglaan,47,,,5764RC,De Rips,Gemert-Bakel,Noord-Brabant,VBO,5.814827,51.547132
Burgemeester v.d. Wildenberglaan,49,,,5764RC,De Rips,Gemert-Bakel,Noord-Brabant,VBO,5.814885,51.547116
Burgemeester v.d. Wildenberglaan,55,,,5764RC,De Rips,Gemert-Bakel,Noord-Brabant,VBO,5.815922,51.546816
Burgemeester v.d. Wildenberglaan,57,,,5764RC,De Rips,Gemert-Bakel,Noord-Brabant,VBO,5.815980,51.546800
Burgemeester v.d. Wildenberglaan,59,,,5764RC,De Rips,Gemert-Bakel,Noord-Brabant,VBO,5.816573,51.546802
Burgemeester v.d. Wildenberglaan,63,,,5764RC,De Rips,Gemert-Bakel,Noord-Brabant,VBO,5.817717,51.546301
Burgemeester v.d. Wildenberglaan,65,,,5764RC,De Rips,Gemert-Bakel,Noord-Brabant,VBO,5.819899,51.545690
Burgemeester v.d. Wildenberglaan,4,,,5764RD,De Rips,Gemert-Bakel,Noord-Brabant,VBO,5.808062,51.548630
Burgemeester v.d. Wildenberglaan,6,a,,5764RD,De Rips,Gemert-Bakel,Noord-Brabant,VBO,5.808154,51.548432
Burgemeester v.d. Wildenberglaan,6,,,5764RD,De Rips,Gemert-Bakel,Noord-Brabant,VBO,5.808338,51.548618
Burgemeester v.d. Wildenberglaan,8,,,5764RD,De Rips,Gemert-Bakel,Noord-Brabant,VBO,5.808708,51.548455
Burgemeester v.d. Wildenberglaan,10,,,5764RD,De Rips,Gemert-Bakel,Noord-Brabant,VBO,5.808961,51.548439
Burgemeester v.d. Wildenberglaan,12,,,5764RD,De Rips,Gemert-Bakel,Noord-Brabant,VBO,5.809285,51.548344
Burgemeester v.d. Wildenberglaan,14,,,5764RD,De Rips,Gemert-Bakel,Noord-Brabant,VBO,5.809374,51.548319
Burgemeester v.d. Wildenberglaan,16,,,5764RD,De Rips,Gemert-Bakel,Noord-Brabant,VBO,5.809811,51.548193
Burgemeester v.d. Wildenberglaan,18,,,5764RD,De Rips,Gemert-Bakel,Noord-Brabant,VBO,5.809899,51.548167
Burgemeester v.d. Wildenberglaan,22,,,5764RD,De Rips,Gemert-Bakel,Noord-Brabant,VBO,5.810337,51.548041
Burgemeester v.d. Wildenberglaan,24,,,5764RD,De Rips,Gemert-Bakel,Noord-Brabant,VBO,5.810429,51.548014
Burgemeester v.d. Wildenberglaan,28,,,5764RD,De Rips,Gemert-Bakel,Noord-Brabant,VBO,5.810677,51.547944
Burgemeester v.d. Wildenberglaan,30,,,5764RE,De Rips,Gemert-Bakel,Noord-Brabant,VBO,5.810765,51.547918
Burgemeester v.d. Wildenberglaan,32,,,5764RE,De Rips,Gemert-Bakel,Noord-Brabant,VBO,5.811084,51.547799
Burgemeester v.d. Wildenberglaan,34,,,5764RE,De Rips,Gemert-Bakel,Noord-Brabant,VBO,5.811286,51.547741
Burgemeester v.d. Wildenberglaan,36,,,5764RE,De Rips,Gemert-Bakel,Noord-Brabant,VBO,5.811544,51.547668
Burgemeester v.d. Wildenberglaan,40,,,5764RE,De Rips,Gemert-Bakel,Noord-Brabant,VBO,5.811919,51.547535
Burgemeester v.d. Wildenberglaan,42,,,5764RE,De Rips,Gemert-Bakel,Noord-Brabant,VBO,5.812274,51.547424
Burgemeester v.d. Wildenberglaan,44,,,5764RE,De Rips,Gemert-Bakel,Noord-Brabant,VBO,5.812436,51.547372
Burgemeester v.d. Wildenberglaan,46,a,,5764RE,De Rips,Gemert-Bakel,Noord-Brabant,VBO,5.813058,51.546696
Burgemeester v.d. Wildenberglaan,46,c,,5764RE,De Rips,Gemert-Bakel,Noord-Brabant,VBO,5.814425,51.546647
Burgemeester v.d. Wildenberglaan,46,,,5764RE,De Rips,Gemert-Bakel,Noord-Brabant,VBO,5.813095,51.547040
Burgemeester v.d. Wildenberglaan,48,,,5764RE,De Rips,Gemert-Bakel,Noord-Brabant,VBO,5.816622,51.546012
Burgemeester v.d. Wildenberglaan,50,,,5764RE,De Rips,Gemert-Bakel,Noord-Brabant,VBO,5.819179,51.545273
Burgemeester Nooijenlaan,1,,,5764RG,De Rips,Gemert-Bakel,Noord-Brabant,VBO,5.824761,51.544330
Burgemeester Nooijenlaan,2,a,,5764RG,De Rips,Gemert-Bakel,Noord-Brabant,VBO,5.828095,51.542613
Burgemeester Nooijenlaan,2,,,5764RG,De Rips,Gemert-Bakel,Noord-Brabant,VBO,5.827362,51.542944
Burgemeester Nooijenlaan,3,,,5764RG,De Rips,Gemert-Bakel,Noord-Brabant,VBO,5.828596,51.543225
Burgemeester Nooijenlaan,4,,,5764RG,De Rips,Gemert-Bakel,Noord-Brabant,VBO,5.830954,51.541997
Burgemeester Nooijenlaan,6,,,5764RG,De Rips,Gemert-Bakel,Noord-Brabant,VBO,5.833295,51.541219
Burgemeester Nooijenlaan,7,,,5764RG,De Rips,Gemert-Bakel,Noord-Brabant,VBO,5.830615,51.545066
Burgemeester Nooijenlaan,8,a,,5764RG,De Rips,Gemert-Bakel,Noord-Brabant,VBO,5.836552,51.540481
Burgemeester Nooijenlaan,8,,,5764RG,De Rips,Gemert-Bakel,Noord-Brabant,VBO,5.835992,51.540558
Burgemeester Nooijenlaan,9,,,5764RG,De Rips,Gemert-Bakel,Noord-Brabant,VBO,5.829659,51.542966
Burgemeester Nooijenlaan,10,,,5764RG,De Rips,Gemert-Bakel,Noord-Brabant,VBO,5.837467,51.540210
Burgemeester Nooijenlaan,11,,,5764RG,De Rips,Gemert-Bakel,Noord-Brabant,VBO,5.837913,51.542998
Burgemeester Nooijenlaan,12,,,5764RG,De Rips,Gemert-Bakel,Noord-Brabant,VBO,5.841195,51.539139
Burgemeester Nooijenlaan,13,,,5764RG,De Rips,Gemert-Bakel,Noord-Brabant,VBO,5.837964,51.540481
Burgemeester Nooijenlaan,15,,,5764RG,De Rips,Gemert-Bakel,Noord-Brabant,VBO,5.841786,51.539361
Eiermijndreef,1,a,,5764RH,De Rips,Gemert-Bakel,Noord-Brabant,VBO,5.820562,51.539366
Eiermijndreef,1,,,5764RH,De Rips,Gemert-Bakel,Noord-Brabant,VBO,5.823281,51.543627
Eiermijndreef,3,,,5764RH,De Rips,Gemert-Bakel,Noord-Brabant,VBO,5.818849,51.536975
Eiermijndreef,5,,,5764RH,De Rips,Gemert-Bakel,Noord-Brabant,VBO,5.817841,51.535464
Eiermijndreef,6,,,5764RH,De Rips,Gemert-Bakel,Noord-Brabant,VBO,5.818910,51.538058
Eiermijndreef,7,,,5764RH,De Rips,Gemert-Bakel,Noord-Brabant,VBO,5.816547,51.533441
Minister Rommedreef,1,a,,5764RJ,De Rips,Gemert-Bakel,Noord-Brabant,VBO,5.815796,51.541789
Minister Rommedreef,1,,,5764RJ,De Rips,Gemert-Bakel,Noord-Brabant,VBO,5.817278,51.541386
Minister Rommedreef,2,a,,5764RJ,De Rips,Gemert-Bakel,Noord-Brabant,VBO,5.810917,51.542688
Minister Rommedreef,2,,,5764RJ,De Rips,Gemert-Bakel,Noord-Brabant,VBO,5.810761,51.542722
Minister Rommedreef,3,,,5764RJ,De Rips,Gemert-Bakel,Noord-Brabant,VBO,5.820519,51.540519
Minister Rommedreef,6,,,5764RJ,De Rips,Gemert-Bakel,Noord-Brabant,VBO,5.813447,51.541963
Klotterpeellaan,1,a,,5764RK,De Rips,Gemert-Bakel,Noord-Brabant,VBO,5.804157,51.539752
Klotterpeellaan,1,,,5764RK,De Rips,Gemert-Bakel,Noord-Brabant,VBO,5.804662,51.539571
Klotterpeellaan,2,a,,5764RK,De Rips,Gemert-Bakel,Noord-Brabant,VBO,5.808310,51.538108
Klotterpeellaan,2,,,5764RK,De Rips,Gemert-Bakel,Noord-Brabant,VBO,5.810550,51.537541
Klotterpeellaan,3,,,5764RK,De Rips,Gemert-Bakel,Noord-Brabant,VBO,5.816071,51.536696
Klotterpeellaan,4,,,5764RK,De Rips,Gemert-Bakel,Noord-Brabant,VBO,5.813646,51.536848
Jodenpeeldreef,1,a,,5764RL,De Rips,Gemert-Bakel,Noord-Brabant,VBO,5.823024,51.539678
Jodenpeeldreef,2,a,,5764RL,De Rips,Gemert-Bakel,Noord-Brabant,VBO,5.821550,51.539461
Jodenpeeldreef,2,,,5764RL,De Rips,Gemert-Bakel,Noord-Brabant,VBO,5.824029,51.538024
Jodenpeeldreef,3,a,,5764RL,De Rips,Gemert-Bakel,Noord-Brabant,VBO,5.826208,51.537158
Jodenpeeldreef,3,,,5764RL,De Rips,Gemert-Bakel,Noord-Brabant,VBO,5.827036,51.536314
Jodenpeeldreef,4,a,,5764RL,De Rips,Gemert-Bakel,Noord-Brabant,VBO,5.828146,51.534986
Jodenpeeldreef,4,b,,5764RL,De Rips,Gemert-Bakel,Noord-Brabant,VBO,5.827017,51.535504
Jodenpeeldreef,4,,,5764RL,De Rips,Gemert-Bakel,Noord-Brabant,VBO,5.827465,51.535343
Jodenpeeldreef,6,,,5764RL,De Rips,Gemert-Bakel,Noord-Brabant,VBO,5.829805,51.534635
Jodenpeeldreef,7,,,5764RL,De Rips,Gemert-Bakel,Noord-Brabant,VBO,5.835730,51.533591
Jodenpeeldreef,8,,,5764RL,De Rips,Gemert-Bakel,Noord-Brabant,VBO,5.833293,51.533845
Jodenpeeldreef,9,,,5764RL,De Rips,Gemert-Bakel,Noord-Brabant,VBO,5.838114,51.532933
Middenweg,3,a,,5764RM,De Rips,Gemert-Bakel,Noord-Brabant,VBO,5.826089,51.533968
Middenweg,3,,,5764RM,De Rips,Gemert-Bakel,Noord-Brabant,VBO,5.825039,51.531758
Landmeter van Beurdenweg,1,,,5764RN,De Rips,Gemert-Bakel,Noord-Brabant,VBO,5.842629,51.535138
Landmeter van Beurdenweg,2,b,,5764RN,De Rips,Gemert-Bakel,Noord-Brabant,VBO,5.843176,51.538248
Landmeter van Beurdenweg,2,,,5764RN,De Rips,Gemert-Bakel,Noord-Brabant,VBO,5.842857,51.537242
Landmeter van Beurdenweg,3,,,5764RN,De Rips,Gemert-Bakel,Noord-Brabant,VBO,5.841857,51.532666
Landmeter van Beurdenweg,5,,,5764RN,De Rips,Gemert-Bakel,Noord-Brabant,VBO,5.840669,51.529929
Hazenhutsedijk,1,,,5764RP,De Rips,Gemert-Bakel,Noord-Brabant,VBO,5.821231,51.530743
Hazenhutsedijk,5,,,5764RP,De Rips,Gemert-Bakel,Noord-Brabant,VBO,5.826380,51.529571
Hazenhutsedijk,7,,,5764RP,De Rips,Gemert-Bakel,Noord-Brabant,VBO,5.829296,51.529031
Hazenhutsedijk,9,a,,5764RP,De Rips,Gemert-Bakel,Noord-Brabant,VBO,5.832448,51.528320
Hazenhutsedijk,9,,,5764RP,De Rips,Gemert-Bakel,Noord-Brabant,VBO,5.832888,51.528182
Hazenhutsedijk,11,a,,5764RP,De Rips,Gemert-Bakel,Noord-Brabant,VBO,5.835123,51.528047
Hazenhutsedijk,11,,,5764RP,De Rips,Gemert-Bakel,Noord-Brabant,VBO,5.834561,51.527892
Hazenhutsedijk,13,,,5764RP,De Rips,Gemert-Bakel,Noord-Brabant,VBO,5.837954,51.527225
Hazenhutsedijk,15,,,5764RP,De Rips,Gemert-Bakel,Noord-Brabant,VBO,5.842957,51.526202
Fazantstraat,1,,,5764RR,De Rips,Gemert-Bakel,Noord-Brabant,VBO,5.811828,51.550734
Fazantstraat,3,,,5764RR,De Rips,Gemert-Bakel,Noord-Brabant,VBO,5.811928,51.550715
Fazantstraat,4,,,5764RR,De Rips,Gemert-Bakel,Noord-Brabant,VBO,5.811739,51.550557
Fazantstraat,5,,,5764RR,De Rips,Gemert-Bakel,Noord-Brabant,VBO,5.812024,51.550689
Fazantstraat,6,,,5764RR,De Rips,Gemert-Bakel,Noord-Brabant,VBO,5.811830,51.550532
Fazantstraat,7,,,5764RR,De Rips,Gemert-Bakel,Noord-Brabant,VBO,5.812151,51.550655
Fazantstraat,8,,,5764RR,De Rips,Gemert-Bakel,Noord-Brabant,VBO,5.812014,51.550474
Fazantstraat,9,,,5764RR,De Rips,Gemert-Bakel,Noord-Brabant,VBO,5.812219,51.550637
Fazantstraat,10,,,5764RR,De Rips,Gemert-Bakel,Noord-Brabant,VBO,5.812084,51.550446
Patrijsstraat,1,,,5764RS,De Rips,Gemert-Bakel,Noord-Brabant,VBO,5.812645,51.551917
Patrijsstraat,2,,,5764RS,De Rips,Gemert-Bakel,Noord-Brabant,VBO,5.812534,51.551715
Patrijsstraat,3,,,5764RS,De Rips,Gemert-Bakel,Noord-Brabant,VBO,5.812717,51.551898
Patrijsstraat,4,,,5764RS,De Rips,Gemert-Bakel,Noord-Brabant,VBO,5.812620,51.551692
Patrijsstraat,5,,,5764RS,De Rips,Gemert-Bakel,Noord-Brabant,VBO,5.812871,51.551857
Patrijsstraat,6,,,5764RS,De Rips,Gemert-Bakel,Noord-Brabant,VBO,5.812800,51.551644
Patrijsstraat,7,,,5764RS,De Rips,Gemert-Bakel,Noord-Brabant,VBO,5.812943,51.551838
Patrijsstraat,8,,,5764RS,De Rips,Gemert-Bakel,Noord-Brabant,VBO,5.812885,51.551621
Patrijsstraat,9,,,5764RS,De Rips,Gemert-Bakel,Noord-Brabant,VBO,5.813096,51.551797
Patrijsstraat,10,,,5764RS,De Rips,Gemert-Bakel,Noord-Brabant,VBO,5.811811,51.550065
Patrijsstraat,11,,,5764RS,De Rips,Gemert-Bakel,Noord-Brabant,VBO,5.813169,51.551777
Patrijsstraat,12,,,5764RS,De Rips,Gemert-Bakel,Noord-Brabant,VBO,5.811738,51.550084
Patrijsstraat,13,,,5764RS,De Rips,Gemert-Bakel,Noord-Brabant,VBO,5.813389,51.551659
Patrijsstraat,14,,,5764RS,De Rips,Gemert-Bakel,Noord-Brabant,VBO,5.811571,51.550126
Patrijsstraat,15,,,5764RS,De Rips,Gemert-Bakel,Noord-Brabant,VBO,5.813281,51.551507
Patrijsstraat,16,,,5764RS,De Rips,Gemert-Bakel,Noord-Brabant,VBO,5.811497,51.550144
Patrijsstraat,17,,,5764RS,De Rips,Gemert-Bakel,Noord-Brabant,VBO,5.813196,51.551389
Patrijsstraat,19,,,5764RS,De Rips,Gemert-Bakel,Noord-Brabant,VBO,5.813106,51.551264
Patrijsstraat,21,,,5764RS,De Rips,Gemert-Bakel,Noord-Brabant,VBO,5.813007,51.551124
Patrijsstraat,23,,,5764RS,De Rips,Gemert-Bakel,Noord-Brabant,VBO,5.812862,51.550943
Patrijsstraat,25,,,5764RS,De Rips,Gemert-Bakel,Noord-Brabant,VBO,5.812780,51.550827
Patrijsstraat,27,,,5764RS,De Rips,Gemert-Bakel,Noord-Brabant,VBO,5.812676,51.550681
Patrijsstraat,29,,,5764RS,De Rips,Gemert-Bakel,Noord-Brabant,VBO,5.812602,51.550575
Patrijsstraat,31,,,5764RS,De Rips,Gemert-Bakel,Noord-Brabant,VBO,5.812508,51.550443
Patrijsstraat,33,,,5764RS,De Rips,Gemert-Bakel,Noord-Brabant,VBO,5.812424,51.550307
Patrijsstraat,35,,,5764RS,De Rips,Gemert-Bakel,Noord-Brabant,VBO,5.812338,51.550204
Bijenstraat,2,,,5764RT,De Rips,Gemert-Bakel,Noord-Brabant,VBO,5.812106,51.551100
Bijenstraat,4,,,5764RT,De Rips,Gemert-Bakel,Noord-Brabant,VBO,5.812194,51.551076
Bijenstraat,6,,,5764RT,De Rips,Gemert-Bakel,Noord-Brabant,VBO,5.812370,51.551030
Bijenstraat,8,,,5764RT,De Rips,Gemert-Bakel,Noord-Brabant,VBO,5.812459,51.551006
Bijenstraat,1,,,5764RV,De Rips,Gemert-Bakel,Noord-Brabant,VBO,5.812278,51.551341
Bijenstraat,3,,,5764RV,De Rips,Gemert-Bakel,Noord-Brabant,VBO,5.812372,51.551342
Bijenstraat,5,,,5764RV,De Rips,Gemert-Bakel,Noord-Brabant,VBO,5.812566,51.551291
Bijenstraat,7,,,5764RV,De Rips,Gemert-Bakel,Noord-Brabant,VBO,5.812612,51.551252
Leeuwerikstraat,2,,,5764RW,De Rips,Gemert-Bakel,Noord-Brabant,VBO,5.811470,51.549928
Leeuwerikstraat,4,,,5764RW,De Rips,Gemert-Bakel,Noord-Brabant,VBO,5.811420,51.549941
Leeuwerikstraat,6,,,5764RW,De Rips,Gemert-Bakel,Noord-Brabant,VBO,5.811427,51.549865
Leeuwerikstraat,8,,,5764RW,De Rips,Gemert-Bakel,Noord-Brabant,VBO,5.811377,51.549879
Leeuwerikstraat,10,,,5764RW,De Rips,Gemert-Bakel,Noord-Brabant,VBO,5.811355,51.549761
Leeuwerikstraat,12,,,5764RW,De Rips,Gemert-Bakel,Noord-Brabant,VBO,5.811306,51.549774
Leeuwerikstraat,14,,,5764RW,De Rips,Gemert-Bakel,Noord-Brabant,VBO,5.811317,51.549705
Leeuwerikstraat,16,,,5764RW,De Rips,Gemert-Bakel,Noord-Brabant,VBO,5.811268,51.549718
Leeuwerikstraat,18,,,5764RW,De Rips,Gemert-Bakel,Noord-Brabant,VBO,5.811280,51.549588
Leeuwerikstraat,20,,,5764RW,De Rips,Gemert-Bakel,Noord-Brabant,VBO,5.811246,51.549541
Leeuwerikstraat,22,a,,5764RW,De Rips,Gemert-Bakel,Noord-Brabant,VBO,5.811617,51.549576
Leeuwerikstraat,22,,,5764RW,De Rips,Gemert-Bakel,Noord-Brabant,VBO,5.811621,51.549595
Leeuwerikstraat,24,,,5764RW,De Rips,Gemert-Bakel,Noord-Brabant,VBO,5.811701,51.549572
Leeuwerikstraat,26,,,5764RW,De Rips,Gemert-Bakel,Noord-Brabant,VBO,5.811781,51.549548
Leeuwerikstraat,28,,,5764RW,De Rips,Gemert-Bakel,Noord-Brabant,VBO,5.811966,51.549507
Leeuwerikstraat,30,,,5764RW,De Rips,Gemert-Bakel,Noord-Brabant,VBO,5.812040,51.549486
Leeuwerikstraat,32,,,5764RW,De Rips,Gemert-Bakel,Noord-Brabant,VBO,5.812114,51.549464
Leeuwerikstraat,34,,,5764RW,De Rips,Gemert-Bakel,Noord-Brabant,VBO,5.812188,51.549443
Leeuwerikstraat,36,,,5764RW,De Rips,Gemert-Bakel,Noord-Brabant,VBO,5.812366,51.549388
Leeuwerikstraat,38,,,5764RW,De Rips,Gemert-Bakel,Noord-Brabant,VBO,5.812432,51.549364
Leeuwerikstraat,40,,,5764RW,De Rips,Gemert-Bakel,Noord-Brabant,VBO,5.812666,51.549177
Leeuwerikstraat,42,,,5764RW,De Rips,Gemert-Bakel,Noord-Brabant,VBO,5.812775,51.549275
Leeuwerikstraat,44,,,5764RW,De Rips,Gemert-Bakel,Noord-Brabant,VBO,5.812905,51.549362
Leeuwerikstraat,48,,,5764RW,De Rips,Gemert-Bakel,Noord-Brabant,VBO,5.813160,51.549160
Leeuwerikstraat,50,,,5764RW,De Rips,Gemert-Bakel,Noord-Brabant,VBO,5.813413,51.549070
Leeuwerikstraat,52,,,5764RW,De Rips,Gemert-Bakel,Noord-Brabant,VBO,5.813596,51.549019
Leeuwerikstraat,54,,,5764RW,De Rips,Gemert-Bakel,Noord-Brabant,VBO,5.813843,51.548950
Bellemakersstraat,2,,,5764RX,De Rips,Gemert-Bakel,Noord-Brabant,VBO,5.811927,51.552058
Bellemakersstraat,4,,,5764RX,De Rips,Gemert-Bakel,Noord-Brabant,VBO,5.811874,51.552074
Bellemakersstraat,6,,,5764RX,De Rips,Gemert-Bakel,Noord-Brabant,VBO,5.811817,51.552090
Bellemakersstraat,8,,,5764RX,De Rips,Gemert-Bakel,Noord-Brabant,VBO,5.811756,51.552108
Bellemakersstraat,10,,,5764RX,De Rips,Gemert-Bakel,Noord-Brabant,VBO,5.811704,51.552135
Bellemakersstraat,12,,,5764RX,De Rips,Gemert-Bakel,Noord-Brabant,VBO,5.811564,51.552164
Bellemakersstraat,14,,,5764RX,De Rips,Gemert-Bakel,Noord-Brabant,VBO,5.811486,51.552187
Bellemakersstraat,16,,,5764RX,De Rips,Gemert-Bakel,Noord-Brabant,VBO,5.811332,51.552232
Bellemakersstraat,18,,,5764RX,De Rips,Gemert-Bakel,Noord-Brabant,VBO,5.811259,51.552253
Bellemakersstraat,20,,,5764RX,De Rips,Gemert-Bakel,Noord-Brabant,VBO,5.811115,51.552315
Bellemakersstraat,22,,,5764RX,De Rips,Gemert-Bakel,Noord-Brabant,VBO,5.811040,51.552337
Bellemakersstraat,24,a,,5764RX,De Rips,Gemert-Bakel,Noord-Brabant,VBO,5.810769,51.552417
Bellemakersstraat,24,,,5764RX,De Rips,Gemert-Bakel,Noord-Brabant,VBO,5.810843,51.552395
Bellemakersstraat,26,,,5764RX,De Rips,Gemert-Bakel,Noord-Brabant,VBO,5.810351,51.552395
Bellemakersstraat,1,a,,5764RZ,De Rips,Gemert-Bakel,Noord-Brabant,VBO,5.811813,51.551861
Bellemakersstraat,1,,,5764RZ,De Rips,Gemert-Bakel,Noord-Brabant,VBO,5.811830,51.551887
Bellemakersstraat,3,,,5764RZ,De Rips,Gemert-Bakel,Noord-Brabant,VBO,5.811758,51.551907
Bellemakersstraat,5,,,5764RZ,De Rips,Gemert-Bakel,Noord-Brabant,VBO,5.811687,51.551928
Bellemakersstraat,7,,,5764RZ,De Rips,Gemert-Bakel,Noord-Brabant,VBO,5.811557,51.551967
Bellemakersstraat,9,,,5764RZ,De Rips,Gemert-Bakel,Noord-Brabant,VBO,5.811482,51.551988
Bellemakersstraat,11,,,5764RZ,De Rips,Gemert-Bakel,Noord-Brabant,VBO,5.811405,51.552011
Bellemakersstraat,13,,,5764RZ,De Rips,Gemert-Bakel,Noord-Brabant,VBO,5.810964,51.552139
Bellemakersstraat,15,,,5764RZ,De Rips,Gemert-Bakel,Noord-Brabant,VBO,5.810890,51.552161
Bellemakersstraat,17,,,5764RZ,De Rips,Gemert-Bakel,Noord-Brabant,VBO,5.810670,51.552207
Bellemakersstraat,19,,,5764RZ,De Rips,Gemert-Bakel,Noord-Brabant,VBO,5.810670,51.552207
Bellemakersstraat,21,,,5764RZ,De Rips,Gemert-Bakel,Noord-Brabant,VBO,5.810670,51.552207
Bellemakersstraat,23,,,5764RZ,De Rips,Gemert-Bakel,Noord-Brabant,VBO,5.810670,51.552207
Leeuwerikstraat,1,,,5764SB,De Rips,Gemert-Bakel,Noord-Brabant,VBO,5.812168,51.549976
Leeuwerikstraat,3,,,5764SB,De Rips,Gemert-Bakel,Noord-Brabant,VBO,5.812240,51.549958
Leeuwerikstraat,5,,,5764SB,De Rips,Gemert-Bakel,Noord-Brabant,VBO,5.812423,51.549912
Leeuwerikstraat,7,,,5764SB,De Rips,Gemert-Bakel,Noord-Brabant,VBO,5.812493,51.549894
Leeuwerikstraat,9,,,5764SB,De Rips,Gemert-Bakel,Noord-Brabant,VBO,5.812676,51.549847
Leeuwerikstraat,11,,,5764SB,De Rips,Gemert-Bakel,Noord-Brabant,VBO,5.812751,51.549831
Leeuwerikstraat,19,,,5764SB,De Rips,Gemert-Bakel,Noord-Brabant,VBO,5.812994,51.549625
Leeuwerikstraat,21,,,5764SB,De Rips,Gemert-Bakel,Noord-Brabant,VBO,5.813231,51.549470
Leeuwerikstraat,23,,,5764SB,De Rips,Gemert-Bakel,Noord-Brabant,VBO,5.813403,51.549360
Leeuwerikstraat,25,,,5764SB,De Rips,Gemert-Bakel,Noord-Brabant,VBO,5.813607,51.549287
Leeuwerikstraat,27,,,5764SB,De Rips,Gemert-Bakel,Noord-Brabant,VBO,5.813810,51.549231
Leeuwerikstraat,29,,,5764SB,De Rips,Gemert-Bakel,Noord-Brabant,VBO,5.814010,51.549175
Korhoenstraat,1,,,5764SC,De Rips,Gemert-Bakel,Noord-Brabant,VBO,5.814844,51.550906
Korhoenstraat,3,,,5764SC,De Rips,Gemert-Bakel,Noord-Brabant,VBO,5.814501,51.550711
Korhoenstraat,4,,,5764SC,De Rips,Gemert-Bakel,Noord-Brabant,VBO,5.814686,51.551577
Korhoenstraat,5,,,5764SC,De Rips,Gemert-Bakel,Noord-Brabant,VBO,5.814801,51.550492
Korhoenstraat,7,,,5764SC,De Rips,Gemert-Bakel,Noord-Brabant,VBO,5.814398,51.550351
Korhoenstraat,8,,,5764SC,De Rips,Gemert-Bakel,Noord-Brabant,VBO,5.814477,51.551389
Korhoenstraat,9,,,5764SC,De Rips,Gemert-Bakel,Noord-Brabant,VBO,5.814199,51.550404
Korhoenstraat,11,,,5764SC,De Rips,Gemert-Bakel,Noord-Brabant,VBO,5.814121,51.550426
Korhoenstraat,12,,,5764SC,De Rips,Gemert-Bakel,Noord-Brabant,VBO,5.814303,51.551121
Korhoenstraat,15,,,5764SC,De Rips,Gemert-Bakel,Noord-Brabant,VBO,5.813788,51.550474
Korhoenstraat,17,,,5764SC,De Rips,Gemert-Bakel,Noord-Brabant,VBO,5.813689,51.550355
Korhoenstraat,19,,,5764SC,De Rips,Gemert-Bakel,Noord-Brabant,VBO,5.813629,51.550299
Korhoenstraat,21,,,5764SC,De Rips,Gemert-Bakel,Noord-Brabant,VBO,5.813526,51.550187
Korhoenstraat,22,,,5764SC,De Rips,Gemert-Bakel,Noord-Brabant,VBO,5.814173,51.550983
Korhoenstraat,23,,,5764SC,De Rips,Gemert-Bakel,Noord-Brabant,VBO,5.813439,51.550061
Korhoenstraat,24,,,5764SC,De Rips,Gemert-Bakel,Noord-Brabant,VBO,5.813967,51.550690
Korhoenstraat,25,,,5764SC,De Rips,Gemert-Bakel,Noord-Brabant,VBO,5.813361,51.549925
Korhoenstraat,26,,,5764SC,De Rips,Gemert-Bakel,Noord-Brabant,VBO,5.813889,51.550713
Korhoenstraat,27,,,5764SC,De Rips,Gemert-Bakel,Noord-Brabant,VBO,5.813208,51.549810
Korhoenstraat,28,,,5764SC,De Rips,Gemert-Bakel,Noord-Brabant,VBO,5.813710,51.550790
Korhoenstraat,30,,,5764SC,De Rips,Gemert-Bakel,Noord-Brabant,VBO,5.813541,51.550617
Korhoenstraat,32,,,5764SC,De Rips,Gemert-Bakel,Noord-Brabant,VBO,5.813410,51.550549
Korhoenstraat,34,,,5764SC,De Rips,Gemert-Bakel,Noord-Brabant,VBO,5.813349,51.550498
Korhoenstraat,36,,,5764SC,De Rips,Gemert-Bakel,Noord-Brabant,VBO,5.813232,51.550396
Korhoenstraat,38,,,5764SC,De Rips,Gemert-Bakel,Noord-Brabant,VBO,5.813161,51.550262
Korhoenstraat,40,,,5764SC,De Rips,Gemert-Bakel,Noord-Brabant,VBO,5.813065,51.550129
Korhoenstraat,42,,,5764SC,De Rips,Gemert-Bakel,Noord-Brabant,VBO,5.812979,51.550009
De Pionier,1,,,5764SE,De Rips,Gemert-Bakel,Noord-Brabant,VBO,5.810051,51.551100
De Pionier,2,,,5764SE,De Rips,Gemert-Bakel,Noord-Brabant,VBO,5.810051,51.551100
De Pionier,3,,,5764SE,De Rips,Gemert-Bakel,Noord-Brabant,VBO,5.810051,51.551100
De Pionier,4,,,5764SE,De Rips,Gemert-Bakel,Noord-Brabant,VBO,5.810051,51.551100
De Pionier,5,,,5764SE,De Rips,Gemert-Bakel,Noord-Brabant,VBO,5.810051,51.551100
De Pionier,6,,,5764SE,De Rips,Gemert-Bakel,Noord-Brabant,VBO,5.810051,51.551100
De Pionier,7,,,5764SE,De Rips,Gemert-Bakel,Noord-Brabant,VBO,5.810051,51.551100
De Pionier,8,,,5764SE,De Rips,Gemert-Bakel,Noord-Brabant,VBO,5.810051,51.551100
De Pionier,9,,,5764SE,De Rips,Gemert-Bakel,Noord-Brabant,VBO,5.810051,51.551100
De Pionier,10,,,5764SE,De Rips,Gemert-Bakel,Noord-Brabant,VBO,5.810051,51.551100
De Pionier,11,,,5764SE,De Rips,Gemert-Bakel,Noord-Brabant,VBO,5.810051,51.551100
De Pionier,12,,,5764SE,De Rips,Gemert-Bakel,Noord-Brabant,VBO,5.810051,51.551100
De Pionier,13,,,5764SE,De Rips,Gemert-Bakel,Noord-Brabant,VBO,5.810051,51.551100
De Pionier,14,,,5764SE,De Rips,Gemert-Bakel,Noord-Brabant,VBO,5.810051,51.551100
Kwartelhof,2,,,5764SG,De Rips,Gemert-Bakel,Noord-Brabant,VBO,5.814565,51.549900
Kwartelhof,3,,,5764SG,De Rips,Gemert-Bakel,Noord-Brabant,VBO,5.814380,51.549971
Kwartelhof,4,,,5764SG,De Rips,Gemert-Bakel,Noord-Brabant,VBO,5.814145,51.550143
Kwartelhof,5,,,5764SG,De Rips,Gemert-Bakel,Noord-Brabant,VBO,5.814108,51.550101
Kwartelhof,8,,,5764SG,De Rips,Gemert-Bakel,Noord-Brabant,VBO,5.813837,51.549854
Kwartelhof,9,,,5764SG,De Rips,Gemert-Bakel,Noord-Brabant,VBO,5.813774,51.549760
Kwartelhof,10,,,5764SG,De Rips,Gemert-Bakel,Noord-Brabant,VBO,5.813666,51.549602
Van Deursenplein,1,,,5764SH,De Rips,Gemert-Bakel,Noord-Brabant,VBO,5.808402,51.549374
Van Deursenplein,2,,,5764SH,De Rips,Gemert-Bakel,Noord-Brabant,VBO,5.808370,51.549100
Van Deursenplein,3,,,5764SH,De Rips,Gemert-Bakel,Noord-Brabant,VBO,5.808402,51.549374
Van Deursenplein,4,,,5764SH,De Rips,Gemert-Bakel,Noord-Brabant,VBO,5.808370,51.549100
Van Deursenplein,5,,,5764SH,De Rips,Gemert-Bakel,Noord-Brabant,VBO,5.808402,51.549374
Van Deursenplein,6,,,5764SH,De Rips,Gemert-Bakel,Noord-Brabant,VBO,5.808370,51.549100
Van Deursenplein,7,,,5764SH,De Rips,Gemert-Bakel,Noord-Brabant,VBO,5.808402,51.549374
Van Deursenplein,8,,,5764SH,De Rips,Gemert-Bakel,Noord-Brabant,VBO,5.808370,51.549100
Van Deursenplein,9,,,5764SH,De Rips,Gemert-Bakel,Noord-Brabant,VBO,5.808402,51.549374
Van Deursenplein,10,,,5764SH,De Rips,Gemert-Bakel,Noord-Brabant,VBO,5.808370,51.549100
Van Deursenplein,11,,,5764SH,De Rips,Gemert-Bakel,Noord-Brabant,VBO,5.808402,51.549374
Van Deursenplein,12,,,5764SH,De Rips,Gemert-Bakel,Noord-Brabant,VBO,5.808370,51.549100
Van Deursenplein,13,,,5764SH,De Rips,Gemert-Bakel,Noord-Brabant,VBO,5.808402,51.549374
Van Deursenplein,14,,,5764SH,De Rips,Gemert-Bakel,Noord-Brabant,VBO,5.808370,51.549100
Van Deursenplein,15,,,5764SH,De Rips,Gemert-Bakel,Noord-Brabant,VBO,5.808402,51.549374
Van Deursenplein,16,,,5764SH,De Rips,Gemert-Bakel,Noord-Brabant,VBO,5.808370,51.549100
