openbareruimtenaam,huisnummer,huisletter,huisnummertoevoeging,postcode,woonplaatsnaam,gemeentenaam,provincienaam,typeadresseerbaarobject,longitude,latitude
Molenstraat,1,,,5866AA,Swolgen,Horst aan de Maas,Limburg,VBO,6.116008,51.492182
Molenstraat,3,,,5866AA,Swolgen,Horst aan de Maas,Limburg,VBO,6.115764,51.492202
Molenstraat,5,,,5866AA,Swolgen,Horst aan de Maas,Limburg,VBO,6.115634,51.492211
Molenstraat,7,,,5866AA,Swolgen,Horst aan de Maas,Limburg,VBO,6.115332,51.492231
Molenstraat,9,,,5866AA,Swolgen,Horst aan de Maas,Limburg,VBO,6.115059,51.492242
Molenstraat,11,,,5866AA,Swolgen,Horst aan de Maas,Limburg,VBO,6.114872,51.492243
Molenstraat,13,,,5866AA,Swolgen,Horst aan de Maas,Limburg,VBO,6.114742,51.492262
Molenstraat,15,,,5866AA,Swolgen,Horst aan de Maas,Limburg,VBO,6.114599,51.492272
Molenstraat,17,,,5866AA,Swolgen,Horst aan de Maas,Limburg,VBO,6.114454,51.492264
Molenstraat,19,,,5866AA,Swolgen,Horst aan de Maas,Limburg,VBO,6.113937,51.492312
Molenstraat,21,,,5866AA,Swolgen,Horst aan de Maas,Limburg,VBO,6.113592,51.492368
Molenstraat,23,,,5866AA,Swolgen,Horst aan de Maas,Limburg,VBO,6.112958,51.492336
Molenstraat,25,,,5866AA,Swolgen,Horst aan de Maas,Limburg,VBO,6.112625,51.492194
Molenstraat,29,,,5866AA,Swolgen,Horst aan de Maas,Limburg,VBO,6.111836,51.492406
Molenstraat,31,,,5866AA,Swolgen,Horst aan de Maas,Limburg,VBO,6.111649,51.492416
Molenstraat,37,,,5866AA,Swolgen,Horst aan de Maas,Limburg,VBO,6.106811,51.492553
Molenstraat,2,a,,5866AB,Swolgen,Horst aan de Maas,Limburg,VBO,6.115969,51.492398
Molenstraat,2,,,5866AB,Swolgen,Horst aan de Maas,Limburg,VBO,6.116084,51.492388
Molenstraat,4,,,5866AB,Swolgen,Horst aan de Maas,Limburg,VBO,6.115753,51.492417
Molenstraat,6,,,5866AB,Swolgen,Horst aan de Maas,Limburg,VBO,6.115307,51.492447
Molenstraat,8,,,5866AB,Swolgen,Horst aan de Maas,Limburg,VBO,6.115019,51.492476
Molenstraat,10,,,5866AB,Swolgen,Horst aan de Maas,Limburg,VBO,6.114559,51.492497
Molenstraat,12,,,5866AB,Swolgen,Horst aan de Maas,Limburg,VBO,6.114286,51.492507
Molenstraat,14,,,5866AB,Swolgen,Horst aan de Maas,Limburg,VBO,6.113969,51.492527
Molenstraat,16,a,,5866AB,Swolgen,Horst aan de Maas,Limburg,VBO,6.112911,51.493019
Molenstraat,16,,,5866AB,Swolgen,Horst aan de Maas,Limburg,VBO,6.112978,51.492704
Molenstraat,18,,,5866AB,Swolgen,Horst aan de Maas,Limburg,VBO,6.112519,51.492779
Molenstraat,20,,,5866AB,Swolgen,Horst aan de Maas,Limburg,VBO,6.111856,51.492783
Molenstraat,22,a,,5866AB,Swolgen,Horst aan de Maas,Limburg,VBO,6.110493,51.492799
Molenstraat,22,,,5866AB,Swolgen,Horst aan de Maas,Limburg,VBO,6.110991,51.492708
Molenstraat,24,,,5866AB,Swolgen,Horst aan de Maas,Limburg,VBO,6.109454,51.492915
Molenstraat,26,,,5866AB,Swolgen,Horst aan de Maas,Limburg,VBO,6.108059,51.493022
Molenstraat,28,,,5866AB,Swolgen,Horst aan de Maas,Limburg,VBO,6.106973,51.493586
Molenstraat,32,,,5866AB,Swolgen,Horst aan de Maas,Limburg,VBO,6.105290,51.493705
Molenstraat,36,,,5866AB,Swolgen,Horst aan de Maas,Limburg,VBO,6.104142,51.493936
Bosweg,2,a,,5866AC,Swolgen,Horst aan de Maas,Limburg,VBO,6.115743,51.491806
Bosweg,2,,,5866AC,Swolgen,Horst aan de Maas,Limburg,VBO,6.115495,51.491601
Bosweg,4,,,5866AC,Swolgen,Horst aan de Maas,Limburg,VBO,6.115420,51.491404
Bosweg,5,,,5866AC,Swolgen,Horst aan de Maas,Limburg,VBO,6.115884,51.491608
Bosweg,6,,,5866AC,Swolgen,Horst aan de Maas,Limburg,VBO,6.115390,51.491332
Bosweg,7,,,5866AC,Swolgen,Horst aan de Maas,Limburg,VBO,6.115467,51.490720
Bosweg,8,,,5866AC,Swolgen,Horst aan de Maas,Limburg,VBO,6.115343,51.491099
Bosweg,9,,,5866AC,Swolgen,Horst aan de Maas,Limburg,VBO,6.115450,51.490559
Bosweg,10,,,5866AC,Swolgen,Horst aan de Maas,Limburg,VBO,6.115179,51.490722
Bosweg,12,,,5866AC,Swolgen,Horst aan de Maas,Limburg,VBO,6.115149,51.490659
Bosweg,14,,,5866AC,Swolgen,Horst aan de Maas,Limburg,VBO,6.115060,51.490498
Bosweg,16,,,5866AC,Swolgen,Horst aan de Maas,Limburg,VBO,6.115030,51.490435
Bosweg,20,,,5866AC,Swolgen,Horst aan de Maas,Limburg,VBO,6.114883,51.490265
Bosweg,22,,,5866AC,Swolgen,Horst aan de Maas,Limburg,VBO,6.114416,51.489873
Bosweg,24,,,5866AC,Swolgen,Horst aan de Maas,Limburg,VBO,6.113947,51.489354
Bosweg,26,,,5866AC,Swolgen,Horst aan de Maas,Limburg,VBO,6.113579,51.488853
Parkweg,1,,,5866AD,Swolgen,Horst aan de Maas,Limburg,VBO,6.113791,51.490389
Parkweg,3,,,5866AD,Swolgen,Horst aan de Maas,Limburg,VBO,6.113112,51.490223
Parkweg,25,,,5866AD,Swolgen,Horst aan de Maas,Limburg,VBO,6.112098,51.490211
Parkweg,27,,,5866AD,Swolgen,Horst aan de Maas,Limburg,VBO,6.111381,51.490036
Parkweg,31,,,5866AD,Swolgen,Horst aan de Maas,Limburg,VBO,6.110284,51.489881
Parkweg,35,,,5866AD,Swolgen,Horst aan de Maas,Limburg,VBO,6.109724,51.489974
Merellaan,8,,,5866AE,Swolgen,Horst aan de Maas,Limburg,VBO,6.112609,51.490006
Merellaan,9,,,5866AE,Swolgen,Horst aan de Maas,Limburg,VBO,6.113072,51.489531
Merellaan,10,,,5866AE,Swolgen,Horst aan de Maas,Limburg,VBO,6.112540,51.489624
Merellaan,12,,,5866AE,Swolgen,Horst aan de Maas,Limburg,VBO,6.112579,51.489327
Tortellaan,4,,,5866AG,Swolgen,Horst aan de Maas,Limburg,VBO,6.113108,51.489980
Tortellaan,5,,,5866AG,Swolgen,Horst aan de Maas,Limburg,VBO,6.113496,51.489941
Tortellaan,6,,,5866AG,Swolgen,Horst aan de Maas,Limburg,VBO,6.113564,51.489716
Tortellaan,7,,,5866AG,Swolgen,Horst aan de Maas,Limburg,VBO,6.113119,51.489800
Vinkenlaan,9,,,5866AH,Swolgen,Horst aan de Maas,Limburg,VBO,6.112149,51.489951
Vinkenlaan,11,,,5866AH,Swolgen,Horst aan de Maas,Limburg,VBO,6.112066,51.489645
Vinkenlaan,23,,,5866AH,Swolgen,Horst aan de Maas,Limburg,VBO,6.111688,51.489431
Vinkenlaan,25,,,5866AH,Swolgen,Horst aan de Maas,Limburg,VBO,6.111709,51.489836
Lijsterlaan,24,,,5866AJ,Swolgen,Horst aan de Maas,Limburg,VBO,6.111344,51.489514
Lijsterlaan,26,,,5866AJ,Swolgen,Horst aan de Maas,Limburg,VBO,6.111146,51.489785
Lijsterlaan,29,,,5866AJ,Swolgen,Horst aan de Maas,Limburg,VBO,6.110826,51.489563
Lijsterlaan,30,,,5866AJ,Swolgen,Horst aan de Maas,Limburg,VBO,6.110759,51.489887
Mezenlaan,19,,,5866AK,Swolgen,Horst aan de Maas,Limburg,VBO,6.111029,51.488770
Mezenlaan,20,,,5866AK,Swolgen,Horst aan de Maas,Limburg,VBO,6.110500,51.488962
Mezenlaan,21,,,5866AK,Swolgen,Horst aan de Maas,Limburg,VBO,6.110806,51.489239
Mezenlaan,32,,,5866AK,Swolgen,Horst aan de Maas,Limburg,VBO,6.110134,51.489531
Mezenlaan,33,,,5866AK,Swolgen,Horst aan de Maas,Limburg,VBO,6.110521,51.489403
Mezenlaan,34,,,5866AK,Swolgen,Horst aan de Maas,Limburg,VBO,6.110157,51.489144
Nachtegaallaan,8,,,5866AL,Swolgen,Horst aan de Maas,Limburg,VBO,6.113415,51.489412
Nachtegaallaan,13,,,5866AL,Swolgen,Horst aan de Maas,Limburg,VBO,6.112204,51.489320
Nachtegaallaan,15,,,5866AL,Swolgen,Horst aan de Maas,Limburg,VBO,6.112213,51.488988
Nachtegaallaan,17,,,5866AL,Swolgen,Horst aan de Maas,Limburg,VBO,6.111388,51.488687
Nachtegaallaan,18,,,5866AL,Swolgen,Horst aan de Maas,Limburg,VBO,6.111622,51.488946
Nachtegaallaan,22,,,5866AL,Swolgen,Horst aan de Maas,Limburg,VBO,6.111699,51.489225
Lambertusstraat,13,,,5866AM,Swolgen,Horst aan de Maas,Limburg,VBO,6.116910,51.490927
Lambertusstraat,15,a,,5866AM,Swolgen,Horst aan de Maas,Limburg,VBO,6.116892,51.490738
Lambertusstraat,15,,,5866AM,Swolgen,Horst aan de Maas,Limburg,VBO,6.117209,51.490700
Lambertusstraat,19,,,5866AM,Swolgen,Horst aan de Maas,Limburg,VBO,6.117409,51.490636
Lambertusstraat,21,,,5866AM,Swolgen,Horst aan de Maas,Limburg,VBO,6.117596,51.490608
Lambertusstraat,23,,,5866AM,Swolgen,Horst aan de Maas,Limburg,VBO,6.117769,51.490607
Lambertusstraat,25,,,5866AM,Swolgen,Horst aan de Maas,Limburg,VBO,6.117870,51.490615
Lambertusstraat,27,,,5866AM,Swolgen,Horst aan de Maas,Limburg,VBO,6.118057,51.490641
Lambertusstraat,29,,,5866AM,Swolgen,Horst aan de Maas,Limburg,VBO,6.118144,51.490659
Lambertusstraat,31,,,5866AM,Swolgen,Horst aan de Maas,Limburg,VBO,6.118317,51.490702
Lambertusstraat,33,,,5866AM,Swolgen,Horst aan de Maas,Limburg,VBO,6.118390,51.490720
Lambertusstraat,35,,,5866AM,Swolgen,Horst aan de Maas,Limburg,VBO,6.118549,51.490764
Lambertusstraat,37,,,5866AM,Swolgen,Horst aan de Maas,Limburg,VBO,6.118635,51.490781
Lambertusstraat,6,,,5866AN,Swolgen,Horst aan de Maas,Limburg,VBO,6.116041,51.490654
Lambertusstraat,8,,,5866AN,Swolgen,Horst aan de Maas,Limburg,VBO,6.116128,51.490644
Lambertusstraat,10,,,5866AN,Swolgen,Horst aan de Maas,Limburg,VBO,6.116803,51.490541
Lambertusstraat,12,,,5866AN,Swolgen,Horst aan de Maas,Limburg,VBO,6.117162,51.490467
Lambertusstraat,14,,,5866AN,Swolgen,Horst aan de Maas,Limburg,VBO,6.117477,51.490402
Lambertusstraat,16,,,5866AN,Swolgen,Horst aan de Maas,Limburg,VBO,6.118010,51.490399
Lambertusstraat,18,,,5866AN,Swolgen,Horst aan de Maas,Limburg,VBO,6.118400,51.490477
Lambertusstraat,20,,,5866AN,Swolgen,Horst aan de Maas,Limburg,VBO,6.118617,51.490530
Lambertusstraat,22,,,5866AN,Swolgen,Horst aan de Maas,Limburg,VBO,6.118892,51.490609
Lambertusstraat,24,,,5866AN,Swolgen,Horst aan de Maas,Limburg,VBO,6.119181,51.490661
Boabelweg,10,,,5866AP,Swolgen,Horst aan de Maas,Limburg,VBO,6.116885,51.487619
Boabelweg,12,,,5866AP,Swolgen,Horst aan de Maas,Limburg,VBO,6.116790,51.487038
Jan Ligeriusstraat,1,,,5866AR,Swolgen,Horst aan de Maas,Limburg,VBO,6.123287,51.493476
Jan Ligeriusstraat,3,,,5866AR,Swolgen,Horst aan de Maas,Limburg,VBO,6.123303,51.493601
Jan Ligeriusstraat,5,,,5866AR,Swolgen,Horst aan de Maas,Limburg,VBO,6.123306,51.493754
Jan Ligeriusstraat,7,,,5866AR,Swolgen,Horst aan de Maas,Limburg,VBO,6.123308,51.493925
Jan Ligeriusstraat,9,,,5866AR,Swolgen,Horst aan de Maas,Limburg,VBO,6.123325,51.494051
Jan van Swolgenstraat,1,,,5866AS,Swolgen,Horst aan de Maas,Limburg,VBO,6.124303,51.493973
Jan van Swolgenstraat,3,a,,5866AS,Swolgen,Horst aan de Maas,Limburg,VBO,6.123393,51.492945
Jan van Swolgenstraat,3,b,,5866AS,Swolgen,Horst aan de Maas,Limburg,VBO,6.123305,51.492846
Jan van Swolgenstraat,3,c,,5866AS,Swolgen,Horst aan de Maas,Limburg,VBO,6.123233,51.492802
Jan van Swolgenstraat,3,e,,5866AS,Swolgen,Horst aan de Maas,Limburg,VBO,6.122853,51.492454
Jan van Swolgenstraat,3,f,,5866AS,Swolgen,Horst aan de Maas,Limburg,VBO,6.122733,51.492176
Jan van Swolgenstraat,3,h,,5866AS,Swolgen,Horst aan de Maas,Limburg,VBO,6.122471,51.491989
Jan van Swolgenstraat,3,k,,5866AS,Swolgen,Horst aan de Maas,Limburg,VBO,6.122397,51.491863
Jan van Swolgenstraat,3,,,5866AS,Swolgen,Horst aan de Maas,Limburg,VBO,6.123437,51.492989
Jan van Swolgenstraat,5,,,5866AS,Swolgen,Horst aan de Maas,Limburg,VBO,6.121594,51.491203
Jan van Swolgenstraat,7,,,5866AS,Swolgen,Horst aan de Maas,Limburg,VBO,6.121491,51.491069
Jan van Swolgenstraat,9,,,5866AS,Swolgen,Horst aan de Maas,Limburg,VBO,6.121345,51.490935
Jan van Swolgenstraat,11,,,5866AS,Swolgen,Horst aan de Maas,Limburg,VBO,6.121214,51.490828
Jan van Swolgenstraat,13,a,,5866AS,Swolgen,Horst aan de Maas,Limburg,VBO,6.121640,51.490457
Jan van Swolgenstraat,13,,,5866AS,Swolgen,Horst aan de Maas,Limburg,VBO,6.121082,51.490721
Jan van Swolgenstraat,15,,,5866AS,Swolgen,Horst aan de Maas,Limburg,VBO,6.120834,51.490480
Jan van Swolgenstraat,17,a,,5866AS,Swolgen,Horst aan de Maas,Limburg,VBO,6.120567,51.490005
Jan van Swolgenstraat,17,,,5866AS,Swolgen,Horst aan de Maas,Limburg,VBO,6.120483,51.490158
Jan van Swolgenstraat,19,,,5866AS,Swolgen,Horst aan de Maas,Limburg,VBO,6.120234,51.489926
Jan van Swolgenstraat,25,,,5866AS,Swolgen,Horst aan de Maas,Limburg,VBO,6.119108,51.487920
Jan van Swolgenstraat,27,,,5866AS,Swolgen,Horst aan de Maas,Limburg,VBO,6.119172,51.487470
Jan van Swolgenstraat,29,,,5866AS,Swolgen,Horst aan de Maas,Limburg,VBO,6.118693,51.487212
Jan van Swolgenstraat,31,,,5866AS,Swolgen,Horst aan de Maas,Limburg,VBO,6.118588,51.486925
Jan van Swolgenstraat,2,a,,5866AT,Swolgen,Horst aan de Maas,Limburg,VBO,6.123167,51.493171
Jan van Swolgenstraat,2,,,5866AT,Swolgen,Horst aan de Maas,Limburg,VBO,6.123298,51.493296
Jan van Swolgenstraat,4,,,5866AT,Swolgen,Horst aan de Maas,Limburg,VBO,6.123035,51.493055
Jan van Swolgenstraat,6,,,5866AT,Swolgen,Horst aan de Maas,Limburg,VBO,6.122903,51.492930
Jan van Swolgenstraat,8,,,5866AT,Swolgen,Horst aan de Maas,Limburg,VBO,6.122713,51.492742
Jan van Swolgenstraat,10,,,5866AT,Swolgen,Horst aan de Maas,Limburg,VBO,6.122538,51.492591
Jan van Swolgenstraat,12,,,5866AV,Swolgen,Horst aan de Maas,Limburg,VBO,6.122362,51.492403
Jan van Swolgenstraat,14,,,5866AV,Swolgen,Horst aan de Maas,Limburg,VBO,6.122216,51.492269
Jan van Swolgenstraat,16,,,5866AV,Swolgen,Horst aan de Maas,Limburg,VBO,6.122040,51.492090
Jan van Swolgenstraat,18,,,5866AV,Swolgen,Horst aan de Maas,Limburg,VBO,6.121705,51.491850
Jan van Swolgenstraat,20,,,5866AV,Swolgen,Horst aan de Maas,Limburg,VBO,6.121031,51.491099
Jan van Swolgenstraat,22,,,5866AV,Swolgen,Horst aan de Maas,Limburg,VBO,6.120972,51.491045
Jan van Swolgenstraat,24,,,5866AV,Swolgen,Horst aan de Maas,Limburg,VBO,6.120928,51.491001
Jan van Swolgenstraat,26,,,5866AV,Swolgen,Horst aan de Maas,Limburg,VBO,6.120826,51.490911
Jan van Swolgenstraat,28,,,5866AV,Swolgen,Horst aan de Maas,Limburg,VBO,6.120680,51.490777
Jan van Swolgenstraat,30,,,5866AV,Swolgen,Horst aan de Maas,Limburg,VBO,6.120578,51.490688
Jan van Swolgenstraat,32,,,5866AV,Swolgen,Horst aan de Maas,Limburg,VBO,6.120490,51.490590
Jan van Swolgenstraat,34,,,5866AV,Swolgen,Horst aan de Maas,Limburg,VBO,6.120431,51.490545
Jan van Swolgenstraat,36,,,5866AV,Swolgen,Horst aan de Maas,Limburg,VBO,6.120388,51.490501
Jan van Swolgenstraat,38,,,5866AV,Swolgen,Horst aan de Maas,Limburg,VBO,6.120285,51.490411
Jan van Swolgenstraat,40,,,5866AV,Swolgen,Horst aan de Maas,Limburg,VBO,6.120241,51.490367
Jan van Swolgenstraat,42,,,5866AV,Swolgen,Horst aan de Maas,Limburg,VBO,6.120096,51.490260
Jan van Swolgenstraat,44,,,5866AV,Swolgen,Horst aan de Maas,Limburg,VBO,6.119211,51.489879
Jan van Swolgenstraat,46,,,5866AV,Swolgen,Horst aan de Maas,Limburg,VBO,6.119521,51.489436
Jan van Swolgenstraat,48,,,5866AV,Swolgen,Horst aan de Maas,Limburg,VBO,6.119462,51.489329
Jan van Swolgenstraat,50,,,5866AV,Swolgen,Horst aan de Maas,Limburg,VBO,6.118913,51.488353
Jan van Swolgenstraat,52,a,,5866AV,Swolgen,Horst aan de Maas,Limburg,VBO,6.118336,51.487358
Jan van Swolgenstraat,52,,,5866AV,Swolgen,Horst aan de Maas,Limburg,VBO,6.118232,51.487161
Schoolstraat,1,,,5866AW,Swolgen,Horst aan de Maas,Limburg,VBO,6.118566,51.491815
Schoolstraat,3,,,5866AW,Swolgen,Horst aan de Maas,Limburg,VBO,6.119292,51.491299
Schoolstraat,5,,,5866AW,Swolgen,Horst aan de Maas,Limburg,VBO,6.119276,51.491254
Schoolstraat,7,,,5866AW,Swolgen,Horst aan de Maas,Limburg,VBO,6.119404,51.491109
Schoolstraat,9,,,5866AW,Swolgen,Horst aan de Maas,Limburg,VBO,6.119502,51.490956
Schoolstraat,11,,,5866AW,Swolgen,Horst aan de Maas,Limburg,VBO,6.119600,51.490802
Schoolstraat,13,,,5866AW,Swolgen,Horst aan de Maas,Limburg,VBO,6.119741,51.490613
Schoolstraat,15,,,5866AW,Swolgen,Horst aan de Maas,Limburg,VBO,6.119840,51.490468
Schoolstraat,17,,,5866AW,Swolgen,Horst aan de Maas,Limburg,VBO,6.119995,51.490287
Schoolstraat,19,a,,5866AW,Swolgen,Horst aan de Maas,Limburg,VBO,6.120594,51.488289
Schoolstraat,19,b,,5866AW,Swolgen,Horst aan de Maas,Limburg,VBO,6.120175,51.488012
Schoolstraat,19,,,5866AW,Swolgen,Horst aan de Maas,Limburg,VBO,6.120726,51.489186
Schoolstraat,21,,,5866AW,Swolgen,Horst aan de Maas,Limburg,VBO,6.120024,51.487626
Schoolstraat,23,,,5866AW,Swolgen,Horst aan de Maas,Limburg,VBO,6.119700,51.487161
Schoolstraat,25,,,5866AW,Swolgen,Horst aan de Maas,Limburg,VBO,6.119478,51.486803
Schoolstraat,2,,,5866AX,Swolgen,Horst aan de Maas,Limburg,VBO,6.117616,51.491848
Schoolstraat,6,,,5866AX,Swolgen,Horst aan de Maas,Limburg,VBO,6.117987,51.491684
Schoolstraat,8,,,5866AX,Swolgen,Horst aan de Maas,Limburg,VBO,6.118304,51.491655
Schoolstraat,10,,,5866AX,Swolgen,Horst aan de Maas,Limburg,VBO,6.118618,51.491510
Schoolstraat,14,,,5866AX,Swolgen,Horst aan de Maas,Limburg,VBO,6.118857,51.491157
Schoolstraat,16,,,5866AX,Swolgen,Horst aan de Maas,Limburg,VBO,6.119014,51.491031
Schoolstraat,18,,,5866AX,Swolgen,Horst aan de Maas,Limburg,VBO,6.119394,51.490516
Schoolstraat,20,,,5866AX,Swolgen,Horst aan de Maas,Limburg,VBO,6.119422,51.490462
Schoolstraat,22,,,5866AX,Swolgen,Horst aan de Maas,Limburg,VBO,6.119507,51.490353
Schoolstraat,24,,,5866AX,Swolgen,Horst aan de Maas,Limburg,VBO,6.119535,51.490299
Schoolstraat,26,,,5866AX,Swolgen,Horst aan de Maas,Limburg,VBO,6.119605,51.490191
Schoolstraat,28,,,5866AX,Swolgen,Horst aan de Maas,Limburg,VBO,6.119636,51.490153
Schoolstraat,30,,,5866AX,Swolgen,Horst aan de Maas,Limburg,VBO,6.119703,51.489993
Schoolstraat,32,,,5866AX,Swolgen,Horst aan de Maas,Limburg,VBO,6.119601,51.489939
Schoolstraat,34,,,5866AX,Swolgen,Horst aan de Maas,Limburg,VBO,6.119134,51.486877
Vlasweg,3,,,5866AZ,Swolgen,Horst aan de Maas,Limburg,VBO,6.121547,51.488264
Broekhuizerweg,1,,,5866BA,Swolgen,Horst aan de Maas,Limburg,VBO,6.119024,51.491678
Broekhuizerweg,2,,,5866BA,Swolgen,Horst aan de Maas,Limburg,VBO,6.119352,51.491460
Broekhuizerweg,3,a,,5866BA,Swolgen,Horst aan de Maas,Limburg,VBO,6.119744,51.491673
Broekhuizerweg,3,,,5866BA,Swolgen,Horst aan de Maas,Limburg,VBO,6.119413,51.491657
Broekhuizerweg,4,,,5866BA,Swolgen,Horst aan de Maas,Limburg,VBO,6.119453,51.491468
Broekhuizerweg,5,,,5866BA,Swolgen,Horst aan de Maas,Limburg,VBO,6.120234,51.491670
Broekhuizerweg,6,,,5866BA,Swolgen,Horst aan de Maas,Limburg,VBO,6.119626,51.491476
Broekhuizerweg,7,a,,5866BA,Swolgen,Horst aan de Maas,Limburg,VBO,6.120723,51.491631
Broekhuizerweg,7,b,,5866BA,Swolgen,Horst aan de Maas,Limburg,VBO,6.120823,51.491613
Broekhuizerweg,7,,,5866BA,Swolgen,Horst aan de Maas,Limburg,VBO,6.120521,51.491650
Broekhuizerweg,8,,,5866BA,Swolgen,Horst aan de Maas,Limburg,VBO,6.119698,51.491476
Broekhuizerweg,9,,,5866BA,Swolgen,Horst aan de Maas,Limburg,VBO,6.121010,51.491593
Broekhuizerweg,10,,,5866BA,Swolgen,Horst aan de Maas,Limburg,VBO,6.119784,51.491475
Broekhuizerweg,11,a,,5866BA,Swolgen,Horst aan de Maas,Limburg,VBO,6.122822,51.491429
Broekhuizerweg,11,,,5866BA,Swolgen,Horst aan de Maas,Limburg,VBO,6.121427,51.491564
Broekhuizerweg,12,,,5866BA,Swolgen,Horst aan de Maas,Limburg,VBO,6.119943,51.491483
Broekhuizerweg,13,,,5866BA,Swolgen,Horst aan de Maas,Limburg,VBO,6.123196,51.491454
Broekhuizerweg,14,,,5866BA,Swolgen,Horst aan de Maas,Limburg,VBO,6.120029,51.491483
Broekhuizerweg,15,,,5866BA,Swolgen,Horst aan de Maas,Limburg,VBO,6.124678,51.491373
Broekhuizerweg,16,,,5866BA,Swolgen,Horst aan de Maas,Limburg,VBO,6.120258,51.491409
Broekhuizerweg,17,,,5866BA,Swolgen,Horst aan de Maas,Limburg,VBO,6.125135,51.491618
Broekhuizerweg,18,,,5866BA,Swolgen,Horst aan de Maas,Limburg,VBO,6.120560,51.491380
Broekhuizerweg,20,,,5866BA,Swolgen,Horst aan de Maas,Limburg,VBO,6.120805,51.491370
Broekhuizerweg,22,,,5866BA,Swolgen,Horst aan de Maas,Limburg,VBO,6.121020,51.491315
Broekhuizerweg,24,a,,5866BA,Swolgen,Horst aan de Maas,Limburg,VBO,6.122345,51.491186
Broekhuizerweg,24,,,5866BA,Swolgen,Horst aan de Maas,Limburg,VBO,6.121106,51.491296
Broekhuizerweg,26,,,5866BA,Swolgen,Horst aan de Maas,Limburg,VBO,6.123492,51.491029
Broekhuizerweg,28,,,5866BA,Swolgen,Horst aan de Maas,Limburg,VBO,6.123954,51.491134
Broekhuizerweg,30,,,5866BA,Swolgen,Horst aan de Maas,Limburg,VBO,6.124775,51.491129
Broekhuizerweg,32,,,5866BA,Swolgen,Horst aan de Maas,Limburg,VBO,6.125375,51.490856
Broekhuizerweg,34,,,5866BA,Swolgen,Horst aan de Maas,Limburg,VBO,6.137124,51.489019
Broekhuizerweg,36,,,5866BA,Swolgen,Horst aan de Maas,Limburg,VBO,6.137238,51.488991
Beurskensweide,1,,,5866BB,Swolgen,Horst aan de Maas,Limburg,VBO,6.116102,51.492755
Beurskensweide,2,,,5866BB,Swolgen,Horst aan de Maas,Limburg,VBO,6.116739,51.492821
Beurskensweide,3,,,5866BB,Swolgen,Horst aan de Maas,Limburg,VBO,6.116116,51.492811
Beurskensweide,4,,,5866BB,Swolgen,Horst aan de Maas,Limburg,VBO,6.116640,51.492831
Beurskensweide,5,,,5866BB,Swolgen,Horst aan de Maas,Limburg,VBO,6.116125,51.492909
Beurskensweide,6,,,5866BB,Swolgen,Horst aan de Maas,Limburg,VBO,6.116486,51.492837
Beurskensweide,7,,,5866BB,Swolgen,Horst aan de Maas,Limburg,VBO,6.116134,51.492997
Beurskensweide,8,,,5866BB,Swolgen,Horst aan de Maas,Limburg,VBO,6.116395,51.492843
Beurskensweide,9,,,5866BB,Swolgen,Horst aan de Maas,Limburg,VBO,6.116149,51.493086
Beurskensweide,10,,,5866BB,Swolgen,Horst aan de Maas,Limburg,VBO,6.116388,51.493020
Beurskensweide,11,,,5866BB,Swolgen,Horst aan de Maas,Limburg,VBO,6.116162,51.493177
Beurskensweide,12,,,5866BB,Swolgen,Horst aan de Maas,Limburg,VBO,6.116403,51.493119
Beurskensweide,13,,,5866BB,Swolgen,Horst aan de Maas,Limburg,VBO,6.116170,51.493300
Beurskensweide,14,,,5866BB,Swolgen,Horst aan de Maas,Limburg,VBO,6.116414,51.493178
Beurskensweide,16,,,5866BB,Swolgen,Horst aan de Maas,Limburg,VBO,6.116427,51.493264
Kanakker,2,a,,5866BC,Swolgen,Horst aan de Maas,Limburg,VBO,6.120324,51.491930
Kanakker,2,,,5866BC,Swolgen,Horst aan de Maas,Limburg,VBO,6.120294,51.491868
Kanakker,4,,,5866BC,Swolgen,Horst aan de Maas,Limburg,VBO,6.120369,51.492038
Kanakker,6,,,5866BC,Swolgen,Horst aan de Maas,Limburg,VBO,6.120428,51.492109
Kanakker,8,,,5866BC,Swolgen,Horst aan de Maas,Limburg,VBO,6.120501,51.492199
Kanakker,10,,,5866BC,Swolgen,Horst aan de Maas,Limburg,VBO,6.120588,51.492243
Kanakker,12,,,5866BC,Swolgen,Horst aan de Maas,Limburg,VBO,6.120676,51.492315
Kanakker,14,,,5866BC,Swolgen,Horst aan de Maas,Limburg,VBO,6.120734,51.492350
Kanakker,16,,,5866BC,Swolgen,Horst aan de Maas,Limburg,VBO,6.120836,51.492430
Kanakker,18,,,5866BC,Swolgen,Horst aan de Maas,Limburg,VBO,6.120909,51.492475
Kanakker,20,,,5866BC,Swolgen,Horst aan de Maas,Limburg,VBO,6.121011,51.492546
Kanakker,22,,,5866BC,Swolgen,Horst aan de Maas,Limburg,VBO,6.121098,51.492600
Kanakker,24,,,5866BC,Swolgen,Horst aan de Maas,Limburg,VBO,6.121215,51.492689
Kanakker,26,,,5866BC,Swolgen,Horst aan de Maas,Limburg,VBO,6.121287,51.492724
Kanakker,28,,,5866BC,Swolgen,Horst aan de Maas,Limburg,VBO,6.121389,51.492805
Kanakker,30,,,5866BC,Swolgen,Horst aan de Maas,Limburg,VBO,6.121448,51.492840
Kanakker,32,,,5866BC,Swolgen,Horst aan de Maas,Limburg,VBO,6.121550,51.492911
Kanakker,34,,,5866BC,Swolgen,Horst aan de Maas,Limburg,VBO,6.121608,51.492956
Kanakker,36,,,5866BC,Swolgen,Horst aan de Maas,Limburg,VBO,6.121724,51.493027
Kanakker,38,,,5866BC,Swolgen,Horst aan de Maas,Limburg,VBO,6.121826,51.493062
Kanakker,40,,,5866BC,Swolgen,Horst aan de Maas,Limburg,VBO,6.122055,51.493016
Kanakker,42,,,5866BC,Swolgen,Horst aan de Maas,Limburg,VBO,6.122270,51.492952
Kanakker,1,,,5866BD,Swolgen,Horst aan de Maas,Limburg,VBO,6.120008,51.491941
Kanakker,3,,,5866BD,Swolgen,Horst aan de Maas,Limburg,VBO,6.119754,51.492320
Kanakker,5,,,5866BD,Swolgen,Horst aan de Maas,Limburg,VBO,6.119855,51.492302
Kanakker,7,,,5866BD,Swolgen,Horst aan de Maas,Limburg,VBO,6.119955,51.492274
Kanakker,9,,,5866BD,Swolgen,Horst aan de Maas,Limburg,VBO,6.120071,51.492291
Kanakker,11,,,5866BD,Swolgen,Horst aan de Maas,Limburg,VBO,6.120157,51.492282
Kanakker,13,,,5866BD,Swolgen,Horst aan de Maas,Limburg,VBO,6.120361,51.492433
Kanakker,15,,,5866BD,Swolgen,Horst aan de Maas,Limburg,VBO,6.120405,51.492478
Kanakker,17,,,5866BD,Swolgen,Horst aan de Maas,Limburg,VBO,6.120449,51.492514
Kanakker,19,,,5866BD,Swolgen,Horst aan de Maas,Limburg,VBO,6.120507,51.492549
Kanakker,21,a,,5866BD,Swolgen,Horst aan de Maas,Limburg,VBO,6.120697,51.492701
Kanakker,21,,,5866BD,Swolgen,Horst aan de Maas,Limburg,VBO,6.120667,51.492665
Kanakker,23,,,5866BD,Swolgen,Horst aan de Maas,Limburg,VBO,6.120828,51.492808
Kanakker,25,,,5866BD,Swolgen,Horst aan de Maas,Limburg,VBO,6.120886,51.492844
Kanakker,27,,,5866BD,Swolgen,Horst aan de Maas,Limburg,VBO,6.121003,51.492924
Kanakker,29,,,5866BD,Swolgen,Horst aan de Maas,Limburg,VBO,6.121061,51.492959
Kanakker,31,,,5866BD,Swolgen,Horst aan de Maas,Limburg,VBO,6.121163,51.493031
Kanakker,33,,,5866BD,Swolgen,Horst aan de Maas,Limburg,VBO,6.121236,51.493084
Kanakker,35,,,5866BD,Swolgen,Horst aan de Maas,Limburg,VBO,6.121395,51.493128
Kanakker,37,,,5866BD,Swolgen,Horst aan de Maas,Limburg,VBO,6.121453,51.493173
Kanakker,39,,,5866BD,Swolgen,Horst aan de Maas,Limburg,VBO,6.121584,51.493253
Kanakker,41,,,5866BD,Swolgen,Horst aan de Maas,Limburg,VBO,6.121628,51.493288
Kanakker,43,,,5866BD,Swolgen,Horst aan de Maas,Limburg,VBO,6.121789,51.493449
Kanakker,45,,,5866BD,Swolgen,Horst aan de Maas,Limburg,VBO,6.121860,51.493422
Kanakker,47,,,5866BD,Swolgen,Horst aan de Maas,Limburg,VBO,6.122032,51.493358
Kanakker,49,,,5866BD,Swolgen,Horst aan de Maas,Limburg,VBO,6.122104,51.493330
Kanakker,51,,,5866BD,Swolgen,Horst aan de Maas,Limburg,VBO,6.122232,51.493276
Kanakker,53,,,5866BD,Swolgen,Horst aan de Maas,Limburg,VBO,6.122333,51.493248
Kanakker,55,,,5866BD,Swolgen,Horst aan de Maas,Limburg,VBO,6.122432,51.493149
Kanakker,57,,,5866BD,Swolgen,Horst aan de Maas,Limburg,VBO,6.122503,51.493121
Mgr Aertsstraat,1,,,5866BE,Swolgen,Horst aan de Maas,Limburg,VBO,6.116300,51.492387
Mgr Aertsstraat,3,a,,5866BE,Swolgen,Horst aan de Maas,Limburg,VBO,6.117061,51.492256
Mgr Aertsstraat,3,,,5866BE,Swolgen,Horst aan de Maas,Limburg,VBO,6.116400,51.492377
Mgr Aertsstraat,5,,,5866BE,Swolgen,Horst aan de Maas,Limburg,VBO,6.117606,51.492136
Mgr Aertsstraat,7,,,5866BE,Swolgen,Horst aan de Maas,Limburg,VBO,6.118153,51.492151
Mgr Aertsstraat,9,,,5866BE,Swolgen,Horst aan de Maas,Limburg,VBO,6.118472,51.492239
Mgr Aertsstraat,11,,,5866BE,Swolgen,Horst aan de Maas,Limburg,VBO,6.118762,51.492417
Mgr Aertsstraat,13,,,5866BE,Swolgen,Horst aan de Maas,Limburg,VBO,6.118881,51.492605
Mgr Aertsstraat,15,,,5866BE,Swolgen,Horst aan de Maas,Limburg,VBO,6.119013,51.492757
Mgr Aertsstraat,17,,,5866BE,Swolgen,Horst aan de Maas,Limburg,VBO,6.119217,51.492953
Mgr Aertsstraat,19,,,5866BG,Swolgen,Horst aan de Maas,Limburg,VBO,6.119321,51.493096
Mgr Aertsstraat,21,,,5866BG,Swolgen,Horst aan de Maas,Limburg,VBO,6.119480,51.493185
Mgr Aertsstraat,23,,,5866BG,Swolgen,Horst aan de Maas,Limburg,VBO,6.119669,51.493292
Mgr Aertsstraat,25,,,5866BG,Swolgen,Horst aan de Maas,Limburg,VBO,6.119859,51.493425
Mgr Aertsstraat,27,,,5866BG,Swolgen,Horst aan de Maas,Limburg,VBO,6.120077,51.493541
Mgr Aertsstraat,29,,,5866BG,Swolgen,Horst aan de Maas,Limburg,VBO,6.120498,51.493754
Mgr Aertsstraat,31,,,5866BG,Swolgen,Horst aan de Maas,Limburg,VBO,6.120759,51.493887
Mgr Aertsstraat,33,,,5866BG,Swolgen,Horst aan de Maas,Limburg,VBO,6.121109,51.494146
Mgr Aertsstraat,35,,,5866BG,Swolgen,Horst aan de Maas,Limburg,VBO,6.121499,51.494233
Mgr Aertsstraat,37,,,5866BG,Swolgen,Horst aan de Maas,Limburg,VBO,6.122583,51.494505
Mgr Aertsstraat,39,,,5866BG,Swolgen,Horst aan de Maas,Limburg,VBO,6.122829,51.494575
Mgr Aertsstraat,41,,,5866BG,Swolgen,Horst aan de Maas,Limburg,VBO,6.123723,51.494624
Mgr Aertsstraat,43,a,,5866BG,Swolgen,Horst aan de Maas,Limburg,VBO,6.126103,51.494860
Mgr Aertsstraat,43,,,5866BG,Swolgen,Horst aan de Maas,Limburg,VBO,6.124844,51.494518
Mgr Aertsstraat,45,,,5866BG,Swolgen,Horst aan de Maas,Limburg,VBO,6.127217,51.495168
Mgr Aertsstraat,49,,,5866BG,Swolgen,Horst aan de Maas,Limburg,VBO,6.131776,51.495687
Mgr Aertsstraat,51,a,,5866BG,Swolgen,Horst aan de Maas,Limburg,VBO,6.136207,51.496315
Mgr Aertsstraat,51,,,5866BG,Swolgen,Horst aan de Maas,Limburg,VBO,6.136063,51.496307
Mgr Aertsstraat,67,,,5866BG,Swolgen,Horst aan de Maas,Limburg,VBO,6.142117,51.494893
Mgr Aertsstraat,2,,,5866BH,Swolgen,Horst aan de Maas,Limburg,VBO,6.116556,51.492188
Mgr Aertsstraat,4,,,5866BH,Swolgen,Horst aan de Maas,Limburg,VBO,6.116515,51.491478
Mgr Aertsstraat,6,a,,5866BH,Swolgen,Horst aan de Maas,Limburg,VBO,6.118698,51.491976
Mgr Aertsstraat,6,,,5866BH,Swolgen,Horst aan de Maas,Limburg,VBO,6.116983,51.491906
Mgr Aertsstraat,8,,,5866BH,Swolgen,Horst aan de Maas,Limburg,VBO,6.118916,51.492101
Mgr Aertsstraat,14,,,5866BH,Swolgen,Horst aan de Maas,Limburg,VBO,6.119196,51.492531
Mgr Aertsstraat,16,,,5866BH,Swolgen,Horst aan de Maas,Limburg,VBO,6.119358,51.492754
Mgr Aertsstraat,18,,,5866BH,Swolgen,Horst aan de Maas,Limburg,VBO,6.119549,51.492951
Mgr Aertsstraat,22,,,5866BH,Swolgen,Horst aan de Maas,Limburg,VBO,6.119998,51.493164
Mgr Aertsstraat,26,,,5866BH,Swolgen,Horst aan de Maas,Limburg,VBO,6.120319,51.493387
Mgr Aertsstraat,28,,,5866BH,Swolgen,Horst aan de Maas,Limburg,VBO,6.120609,51.493547
Mgr Aertsstraat,30,,,5866BJ,Swolgen,Horst aan de Maas,Limburg,VBO,6.120813,51.493662
Mgr Aertsstraat,32,,,5866BJ,Swolgen,Horst aan de Maas,Limburg,VBO,6.121204,51.493794
Mgr Aertsstraat,34,,,5866BJ,Swolgen,Horst aan de Maas,Limburg,VBO,6.121450,51.493883
Mgr Aertsstraat,36,a,,5866BJ,Swolgen,Horst aan de Maas,Limburg,VBO,6.121942,51.494024
Mgr Aertsstraat,36,,,5866BJ,Swolgen,Horst aan de Maas,Limburg,VBO,6.121624,51.493954
Mgr Aertsstraat,38,,,5866BJ,Swolgen,Horst aan de Maas,Limburg,VBO,6.122145,51.494085
Mgr Aertsstraat,40,,,5866BJ,Swolgen,Horst aan de Maas,Limburg,VBO,6.122449,51.494200
Mgr Aertsstraat,42,,,5866BJ,Swolgen,Horst aan de Maas,Limburg,VBO,6.122825,51.494288
Mgr Aertsstraat,44,,,5866BJ,Swolgen,Horst aan de Maas,Limburg,VBO,6.123286,51.494303
Mgr Aertsstraat,46,,,5866BJ,Swolgen,Horst aan de Maas,Limburg,VBO,6.124552,51.494250
Mgr Aertsstraat,52,,,5866BJ,Swolgen,Horst aan de Maas,Limburg,VBO,6.126515,51.493644
Mgr Aertsstraat,54,,,5866BJ,Swolgen,Horst aan de Maas,Limburg,VBO,6.134203,51.495294
Mgr Aertsstraat,56,,,5866BJ,Swolgen,Horst aan de Maas,Limburg,VBO,6.134290,51.495286
Mgr Aertsstraat,62,,,5866BJ,Swolgen,Horst aan de Maas,Limburg,VBO,6.136934,51.495007
Mgr Aertsstraat,66,,,5866BJ,Swolgen,Horst aan de Maas,Limburg,VBO,6.140312,51.494608
Mgr Aertsstraat,70,,,5866BJ,Swolgen,Horst aan de Maas,Limburg,VBO,6.142149,51.494236
Hubertusstraat,3,,,5866BK,Swolgen,Horst aan de Maas,Limburg,VBO,6.118570,51.491186
Hubertusstraat,4,,,5866BK,Swolgen,Horst aan de Maas,Limburg,VBO,6.118025,51.491324
Hubertusstraat,5,,,5866BK,Swolgen,Horst aan de Maas,Limburg,VBO,6.118425,51.491151
Hubertusstraat,6,,,5866BK,Swolgen,Horst aan de Maas,Limburg,VBO,6.117838,51.491326
Hubertusstraat,7,,,5866BK,Swolgen,Horst aan de Maas,Limburg,VBO,6.118295,51.491098
Hubertusstraat,8,,,5866BK,Swolgen,Horst aan de Maas,Limburg,VBO,6.117578,51.491318
Hubertusstraat,9,,,5866BK,Swolgen,Horst aan de Maas,Limburg,VBO,6.118165,51.491054
Hubertusstraat,10,,,5866BK,Swolgen,Horst aan de Maas,Limburg,VBO,6.117577,51.491237
Hubertusstraat,11,,,5866BK,Swolgen,Horst aan de Maas,Limburg,VBO,6.117991,51.491037
Hubertusstraat,12,,,5866BK,Swolgen,Horst aan de Maas,Limburg,VBO,6.117246,51.491248
Hubertusstraat,13,,,5866BK,Swolgen,Horst aan de Maas,Limburg,VBO,6.117847,51.491029
Hubertusstraat,14,,,5866BK,Swolgen,Horst aan de Maas,Limburg,VBO,6.117131,51.491249
Hubertusstraat,15,,,5866BK,Swolgen,Horst aan de Maas,Limburg,VBO,6.117689,51.491048
Hubertusstraat,16,,,5866BK,Swolgen,Horst aan de Maas,Limburg,VBO,6.116930,51.491268
Hubertusstraat,17,,,5866BK,Swolgen,Horst aan de Maas,Limburg,VBO,6.117545,51.491049
Hubertusstraat,18,,,5866BK,Swolgen,Horst aan de Maas,Limburg,VBO,6.116829,51.491269
Hubertusstraat,19,,,5866BK,Swolgen,Horst aan de Maas,Limburg,VBO,6.117387,51.491068
Hubertusstraat,21,,,5866BK,Swolgen,Horst aan de Maas,Limburg,VBO,6.117243,51.491078
Hubertusstraat,25,,,5866BK,Swolgen,Horst aan de Maas,Limburg,VBO,6.116768,51.491081
Van Weedtstraat,1,,,5866BL,Swolgen,Horst aan de Maas,Limburg,VBO,6.117955,51.493267
Van Weedtstraat,3,,,5866BL,Swolgen,Horst aan de Maas,Limburg,VBO,6.118257,51.493220
Van Weedtstraat,4,,,5866BL,Swolgen,Horst aan de Maas,Limburg,VBO,6.118110,51.493032
Van Weedtstraat,5,,,5866BL,Swolgen,Horst aan de Maas,Limburg,VBO,6.118760,51.493145
Van Weedtstraat,6,,,5866BL,Swolgen,Horst aan de Maas,Limburg,VBO,6.118383,51.493012
Van Weedtstraat,7,,,5866BL,Swolgen,Horst aan de Maas,Limburg,VBO,6.119148,51.493133
Van Weedtstraat,8,,,5866BL,Swolgen,Horst aan de Maas,Limburg,VBO,6.118570,51.493002
Van Weedtstraat,12,,,5866BL,Swolgen,Horst aan de Maas,Limburg,VBO,6.118944,51.492964
Generaal Dempsystraat,3,,,5866BM,Swolgen,Horst aan de Maas,Limburg,VBO,6.117151,51.492499
Generaal Dempsystraat,5,,,5866BM,Swolgen,Horst aan de Maas,Limburg,VBO,6.117182,51.492615
Generaal Dempsystraat,7,,,5866BM,Swolgen,Horst aan de Maas,Limburg,VBO,6.117212,51.492732
Generaal Dempsystraat,9,,,5866BM,Swolgen,Horst aan de Maas,Limburg,VBO,6.117243,51.492840
Generaal Dempsystraat,11,,,5866BM,Swolgen,Horst aan de Maas,Limburg,VBO,6.117331,51.492956
Generaal Dempsystraat,13,a,,5866BM,Swolgen,Horst aan de Maas,Limburg,VBO,6.117511,51.493448
Generaal Dempsystraat,13,,,5866BM,Swolgen,Horst aan de Maas,Limburg,VBO,6.117377,51.493117
Generaal Dempsystraat,15,,,5866BM,Swolgen,Horst aan de Maas,Limburg,VBO,6.117542,51.493548
Generaal Dempsystraat,17,,,5866BM,Swolgen,Horst aan de Maas,Limburg,VBO,6.117559,51.493727
Generaal Dempsystraat,19,,,5866BM,Swolgen,Horst aan de Maas,Limburg,VBO,6.117578,51.493952
Generaal Dempsystraat,21,,,5866BM,Swolgen,Horst aan de Maas,Limburg,VBO,6.117809,51.494041
Generaal Dempsystraat,23,,,5866BM,Swolgen,Horst aan de Maas,Limburg,VBO,6.117911,51.494085
Generaal Dempsystraat,25,,,5866BM,Swolgen,Horst aan de Maas,Limburg,VBO,6.118085,51.494156
Generaal Dempsystraat,27,,,5866BM,Swolgen,Horst aan de Maas,Limburg,VBO,6.118230,51.494218
Generaal Dempsystraat,29,a,,5866BM,Swolgen,Horst aan de Maas,Limburg,VBO,6.118474,51.495070
Generaal Dempsystraat,29,,,5866BM,Swolgen,Horst aan de Maas,Limburg,VBO,6.118774,51.494942
Generaal Dempsystraat,31,,,5866BM,Swolgen,Horst aan de Maas,Limburg,VBO,6.118736,51.495230
Generaal Dempsystraat,33,a,,5866BM,Swolgen,Horst aan de Maas,Limburg,VBO,6.118764,51.496093
Generaal Dempsystraat,33,b,,5866BM,Swolgen,Horst aan de Maas,Limburg,VBO,6.118217,51.496132
Generaal Dempsystraat,33,,,5866BM,Swolgen,Horst aan de Maas,Limburg,VBO,6.118653,51.495437
Generaal Dempsystraat,35,,,5866BM,Swolgen,Horst aan de Maas,Limburg,VBO,6.118644,51.496669
Generaal Dempsystraat,2,,,5866BN,Swolgen,Horst aan de Maas,Limburg,VBO,6.117378,51.492299
Generaal Dempsystraat,4,,,5866BN,Swolgen,Horst aan de Maas,Limburg,VBO,6.117523,51.492379
Generaal Dempsystraat,6,,,5866BN,Swolgen,Horst aan de Maas,Limburg,VBO,6.117526,51.492532
Generaal Dempsystraat,8,,,5866BN,Swolgen,Horst aan de Maas,Limburg,VBO,6.117486,51.492712
Generaal Dempsystraat,10,,,5866BN,Swolgen,Horst aan de Maas,Limburg,VBO,6.117676,51.492936
Generaal Dempsystraat,12,,,5866BN,Swolgen,Horst aan de Maas,Limburg,VBO,6.117901,51.493483
Generaal Dempsystraat,14,,,5866BN,Swolgen,Horst aan de Maas,Limburg,VBO,6.117947,51.493617
Generaal Dempsystraat,16,,,5866BN,Swolgen,Horst aan de Maas,Limburg,VBO,6.118036,51.493796
Generaal Dempsystraat,18,a,,5866BN,Swolgen,Horst aan de Maas,Limburg,VBO,6.118428,51.494010
Generaal Dempsystraat,18,,,5866BN,Swolgen,Horst aan de Maas,Limburg,VBO,6.118225,51.493912
Generaal Dempsystraat,20,a,,5866BN,Swolgen,Horst aan de Maas,Limburg,VBO,6.119021,51.494168
Generaal Dempsystraat,20,,,5866BN,Swolgen,Horst aan de Maas,Limburg,VBO,6.118659,51.494062
Generaal Dempsystraat,22,,,5866BN,Swolgen,Horst aan de Maas,Limburg,VBO,6.119087,51.494671
Generaal Dempsystraat,24,,,5866BN,Swolgen,Horst aan de Maas,Limburg,VBO,6.119187,51.495551
Generaal Dempsystraat,28,,,5866BN,Swolgen,Horst aan de Maas,Limburg,VBO,6.119024,51.496154
Generaal Dempsystraat,30,,,5866BN,Swolgen,Horst aan de Maas,Limburg,VBO,6.119075,51.496612
Generaal Dempsystraat,34,,,5866BN,Swolgen,Horst aan de Maas,Limburg,VBO,6.118610,51.497272
Generaal Dempsystraat,36,,,5866BN,Swolgen,Horst aan de Maas,Limburg,VBO,6.118291,51.498029
Kruisstraat,4,,,5866BP,Swolgen,Horst aan de Maas,Limburg,VBO,6.120020,51.497182
Donkstraat,1,,,5866BR,Swolgen,Horst aan de Maas,Limburg,VBO,6.116964,51.493426
Donkstraat,2,a,,5866BR,Swolgen,Horst aan de Maas,Limburg,VBO,6.117043,51.493821
Donkstraat,2,,,5866BR,Swolgen,Horst aan de Maas,Limburg,VBO,6.116814,51.493930
Donkstraat,3,,,5866BR,Swolgen,Horst aan de Maas,Limburg,VBO,6.116895,51.493606
Donkstraat,4,,,5866BR,Swolgen,Horst aan de Maas,Limburg,VBO,6.116502,51.494255
Donkstraat,7,,,5866BR,Swolgen,Horst aan de Maas,Limburg,VBO,6.114763,51.494419
Donkstraat,9,,,5866BR,Swolgen,Horst aan de Maas,Limburg,VBO,6.113733,51.494893
Donkstraat,11,,,5866BR,Swolgen,Horst aan de Maas,Limburg,VBO,6.110721,51.495649
Donkstraat,12,,,5866BR,Swolgen,Horst aan de Maas,Limburg,VBO,6.111698,51.496398
Donkstraat,14,,,5866BR,Swolgen,Horst aan de Maas,Limburg,VBO,6.108549,51.498241
Donkstraat,15,a,,5866BR,Swolgen,Horst aan de Maas,Limburg,VBO,6.108004,51.497531
Donkstraat,15,,,5866BR,Swolgen,Horst aan de Maas,Limburg,VBO,6.108210,51.497147
Donkstraat,17,,,5866BR,Swolgen,Horst aan de Maas,Limburg,VBO,6.107435,51.498195
Donkstraat,19,,,5866BR,Swolgen,Horst aan de Maas,Limburg,VBO,6.107143,51.498889
Donkstraat,21,,,5866BR,Swolgen,Horst aan de Maas,Limburg,VBO,6.106862,51.499313
Molenzijweg,1,,,5866BS,Swolgen,Horst aan de Maas,Limburg,VBO,6.115169,51.492852
Molenzijweg,3,,,5866BS,Swolgen,Horst aan de Maas,Limburg,VBO,6.114912,51.492944
Molenzijweg,4,,,5866BS,Swolgen,Horst aan de Maas,Limburg,VBO,6.115736,51.493173
Molenzijweg,5,,,5866BS,Swolgen,Horst aan de Maas,Limburg,VBO,6.114311,51.493199
Molenzijweg,7,,,5866BS,Swolgen,Horst aan de Maas,Limburg,VBO,6.114000,51.493552
Molenzijweg,8,,,5866BS,Swolgen,Horst aan de Maas,Limburg,VBO,6.114690,51.493314
Molenzijweg,9,,,5866BS,Swolgen,Horst aan de Maas,Limburg,VBO,6.113981,51.494145
Molenzijweg,10,,,5866BS,Swolgen,Horst aan de Maas,Limburg,VBO,6.114366,51.493936
Molenweg,1,,,5866BT,Swolgen,Horst aan de Maas,Limburg,VBO,6.114406,51.492821
Pastoorswal,1,,,5866BV,Swolgen,Horst aan de Maas,Limburg,VBO,6.116393,51.491056
Pastoorswal,3,,,5866BV,Swolgen,Horst aan de Maas,Limburg,VBO,6.116293,51.491066
Pastoorswal,5,,,5866BV,Swolgen,Horst aan de Maas,Limburg,VBO,6.116120,51.491067
Pastoorswal,7,,,5866BV,Swolgen,Horst aan de Maas,Limburg,VBO,6.116019,51.491067
Pastoorswal,9,,,5866BV,Swolgen,Horst aan de Maas,Limburg,VBO,6.115847,51.491095
Pastoorswal,11,,,5866BV,Swolgen,Horst aan de Maas,Limburg,VBO,6.115775,51.491105
Kerkveld,1,,,5866BW,Swolgen,Horst aan de Maas,Limburg,VBO,6.114436,51.492039
Kerkveld,2,,,5866BW,Swolgen,Horst aan de Maas,Limburg,VBO,6.114092,51.492131
Kerkveld,3,,,5866BW,Swolgen,Horst aan de Maas,Limburg,VBO,6.114407,51.491976
Kerkveld,4,,,5866BW,Swolgen,Horst aan de Maas,Limburg,VBO,6.114047,51.492023
Kerkveld,5,,,5866BW,Swolgen,Horst aan de Maas,Limburg,VBO,6.114391,51.491922
Kerkveld,6,,,5866BW,Swolgen,Horst aan de Maas,Limburg,VBO,6.113915,51.491845
Kerkveld,7,,,5866BW,Swolgen,Horst aan de Maas,Limburg,VBO,6.114376,51.491869
Kerkveld,8,,,5866BW,Swolgen,Horst aan de Maas,Limburg,VBO,6.113827,51.491728
Kerkveld,9,,,5866BW,Swolgen,Horst aan de Maas,Limburg,VBO,6.114361,51.491815
Kerkveld,10,,,5866BW,Swolgen,Horst aan de Maas,Limburg,VBO,6.113853,51.491566
Kerkveld,11,,,5866BW,Swolgen,Horst aan de Maas,Limburg,VBO,6.114360,51.491761
Kerkveld,12,,,5866BW,Swolgen,Horst aan de Maas,Limburg,VBO,6.113909,51.491440
Kerkveld,13,,,5866BW,Swolgen,Horst aan de Maas,Limburg,VBO,6.114676,51.491705
Kerkveld,14,,,5866BW,Swolgen,Horst aan de Maas,Limburg,VBO,6.113978,51.491296
Kerkveld,15,,,5866BW,Swolgen,Horst aan de Maas,Limburg,VBO,6.114762,51.491695
Kerkveld,16,,,5866BW,Swolgen,Horst aan de Maas,Limburg,VBO,6.113990,51.491161
Kerkveld,17,,,5866BW,Swolgen,Horst aan de Maas,Limburg,VBO,6.114964,51.491694
Kerkveld,18,,,5866BW,Swolgen,Horst aan de Maas,Limburg,VBO,6.114003,51.491026
Kerkveld,19,,,5866BW,Swolgen,Horst aan de Maas,Limburg,VBO,6.114357,51.491563
Kerkveld,20,,,5866BW,Swolgen,Horst aan de Maas,Limburg,VBO,6.114015,51.490891
Kerkveld,21,,,5866BW,Swolgen,Horst aan de Maas,Limburg,VBO,6.114341,51.491473
Kerkveld,22,,,5866BW,Swolgen,Horst aan de Maas,Limburg,VBO,6.114027,51.490765
Kerkveld,23,,,5866BW,Swolgen,Horst aan de Maas,Limburg,VBO,6.114340,51.491392
Kerkveld,24,,,5866BW,Swolgen,Horst aan de Maas,Limburg,VBO,6.113996,51.490631
Kerkveld,25,,,5866BW,Swolgen,Horst aan de Maas,Limburg,VBO,6.114338,51.491312
Kerkveld,26,,,5866BW,Swolgen,Horst aan de Maas,Limburg,VBO,6.114283,51.490521
Kerkveld,27,,,5866BW,Swolgen,Horst aan de Maas,Limburg,VBO,6.114337,51.491231
Kerkveld,28,,,5866BW,Swolgen,Horst aan de Maas,Limburg,VBO,6.114443,51.490637
Kerkveld,29,,,5866BW,Swolgen,Horst aan de Maas,Limburg,VBO,6.114336,51.491150
Kerkveld,31,,,5866BW,Swolgen,Horst aan de Maas,Limburg,VBO,6.114349,51.491069
Kerkveld,33,,,5866BW,Swolgen,Horst aan de Maas,Limburg,VBO,6.114348,51.490988
Kerkveld,35,,,5866BW,Swolgen,Horst aan de Maas,Limburg,VBO,6.114346,51.490907
Kerkveld,37,,,5866BW,Swolgen,Horst aan de Maas,Limburg,VBO,6.114359,51.490826
Donkerhoek,2,,,5866CA,Swolgen,Horst aan de Maas,Limburg,VBO,6.114520,51.495463
Donkerhoek,3,,,5866CA,Swolgen,Horst aan de Maas,Limburg,VBO,6.114276,51.495528
Donkerhoek,4,,,5866CA,Swolgen,Horst aan de Maas,Limburg,VBO,6.115135,51.496098
Donkerhoek,5,,,5866CA,Swolgen,Horst aan de Maas,Limburg,VBO,6.114291,51.496463
Gun,5,,,5866CB,Swolgen,Horst aan de Maas,Limburg,VBO,6.117161,51.503860
Gun,9,,,5866CB,Swolgen,Horst aan de Maas,Limburg,VBO,6.117334,51.504794
Gun,11,a,,5866CB,Swolgen,Horst aan de Maas,Limburg,VBO,6.116115,51.505863
Gun,11,,,5866CB,Swolgen,Horst aan de Maas,Limburg,VBO,6.117149,51.505847
Gun,13,,,5866CB,Swolgen,Horst aan de Maas,Limburg,VBO,6.113745,51.505545
Gun,15,,,5866CB,Swolgen,Horst aan de Maas,Limburg,VBO,6.114808,51.506266
Gun,4,,,5866CC,Swolgen,Horst aan de Maas,Limburg,VBO,6.117351,51.502250
Gun,6,,,5866CC,Swolgen,Horst aan de Maas,Limburg,VBO,6.117537,51.504002
Gun,8,,,5866CC,Swolgen,Horst aan de Maas,Limburg,VBO,6.117617,51.504487
Gun,10,,,5866CC,Swolgen,Horst aan de Maas,Limburg,VBO,6.117664,51.504738
Gun,12,,,5866CC,Swolgen,Horst aan de Maas,Limburg,VBO,6.117746,51.505322
Gun,14,,,5866CC,Swolgen,Horst aan de Maas,Limburg,VBO,6.116383,51.506167
Gun,16,,,5866CC,Swolgen,Horst aan de Maas,Limburg,VBO,6.115932,51.506286
Gun,18,,,5866CC,Swolgen,Horst aan de Maas,Limburg,VBO,6.115055,51.506418
Gun,20,,,5866CC,Swolgen,Horst aan de Maas,Limburg,VBO,6.114428,51.506808
Gun,24,,,5866CC,Swolgen,Horst aan de Maas,Limburg,VBO,6.112698,51.507601
Gun,26,a,,5866CC,Swolgen,Horst aan de Maas,Limburg,VBO,6.112083,51.507910
Gun,26,,,5866CC,Swolgen,Horst aan de Maas,Limburg,VBO,6.112440,51.507719
Gun,28,a,,5866CC,Swolgen,Horst aan de Maas,Limburg,VBO,6.111512,51.507903
Gun,28,b,,5866CC,Swolgen,Horst aan de Maas,Limburg,VBO,6.111822,51.507926
Gun,28,c,,5866CC,Swolgen,Horst aan de Maas,Limburg,VBO,6.111993,51.508337
Gun,28,d,,5866CC,Swolgen,Horst aan de Maas,Limburg,VBO,6.112040,51.508389
Gun,28,,,5866CC,Swolgen,Horst aan de Maas,Limburg,VBO,6.111684,51.507867
Flemingweg,2,,,5866CD,Swolgen,Horst aan de Maas,Limburg,VBO,6.117375,51.506484
Flemingweg,3,,,5866CD,Swolgen,Horst aan de Maas,Limburg,VBO,6.118451,51.507996
Flemingweg,4,,,5866CD,Swolgen,Horst aan de Maas,Limburg,VBO,6.117815,51.506949
Flemingweg,5,,,5866CD,Swolgen,Horst aan de Maas,Limburg,VBO,6.118282,51.508195
Kasteelweg,5,,,5866CE,Swolgen,Horst aan de Maas,Limburg,VBO,6.121086,51.507917
Legert,1,,,5866CG,Swolgen,Horst aan de Maas,Limburg,VBO,6.123134,51.495346
Legert,3,,,5866CG,Swolgen,Horst aan de Maas,Limburg,VBO,6.123346,51.496280
Legert,4,a,,5866CG,Swolgen,Horst aan de Maas,Limburg,VBO,6.124377,51.495869
Legert,4,,,5866CG,Swolgen,Horst aan de Maas,Limburg,VBO,6.123681,51.495604
Legert,5,,,5866CG,Swolgen,Horst aan de Maas,Limburg,VBO,6.124570,51.496245
Legert,6,,,5866CG,Swolgen,Horst aan de Maas,Limburg,VBO,6.127596,51.497260
Legert,8,,,5866CG,Swolgen,Horst aan de Maas,Limburg,VBO,6.131001,51.500267
Legert,10,,,5866CG,Swolgen,Horst aan de Maas,Limburg,VBO,6.131077,51.500537
Legert,11,,,5866CG,Swolgen,Horst aan de Maas,Limburg,VBO,6.129218,51.498661
Legert,13,,,5866CG,Swolgen,Horst aan de Maas,Limburg,VBO,6.130080,51.499401
Legert,14,,,5866CG,Swolgen,Horst aan de Maas,Limburg,VBO,6.131944,51.501574
Legert,15,,,5866CG,Swolgen,Horst aan de Maas,Limburg,VBO,6.130610,51.500135
Legert,16,,,5866CG,Swolgen,Horst aan de Maas,Limburg,VBO,6.132921,51.501424
Legert,19,,,5866CG,Swolgen,Horst aan de Maas,Limburg,VBO,6.131570,51.501576
Legert,21,,,5866CG,Swolgen,Horst aan de Maas,Limburg,VBO,6.130384,51.502177
Legert,23,,,5866CG,Swolgen,Horst aan de Maas,Limburg,VBO,6.131965,51.501951
Legert,25,,,5866CG,Swolgen,Horst aan de Maas,Limburg,VBO,6.132141,51.502148
Legert,29,,,5866CG,Swolgen,Horst aan de Maas,Limburg,VBO,6.136720,51.503862
Osterbos,1,,,5866CH,Swolgen,Horst aan de Maas,Limburg,VBO,6.142806,51.495661
Osterbos,2,a,,5866CH,Swolgen,Horst aan de Maas,Limburg,VBO,6.143437,51.495504
Osterbos,2,,,5866CH,Swolgen,Horst aan de Maas,Limburg,VBO,6.142811,51.495940
Osterbos,3,,,5866CH,Swolgen,Horst aan de Maas,Limburg,VBO,6.141593,51.496289
Osterbos,4,,,5866CH,Swolgen,Horst aan de Maas,Limburg,VBO,6.141501,51.496811
Osterbos,7,,,5866CH,Swolgen,Horst aan de Maas,Limburg,VBO,6.139259,51.498012
Osterbos,8,,,5866CH,Swolgen,Horst aan de Maas,Limburg,VBO,6.139335,51.498236
Osterbos,9,,,5866CH,Swolgen,Horst aan de Maas,Limburg,VBO,6.138704,51.498402
Hogeweg,4,,,5866CJ,Swolgen,Horst aan de Maas,Limburg,VBO,6.139287,51.496223
Hogeweg,8,,,5866CJ,Swolgen,Horst aan de Maas,Limburg,VBO,6.138340,51.497299
Groenweg,2,,,5866CK,Swolgen,Horst aan de Maas,Limburg,VBO,6.138447,51.490691
Groenweg,4,a,,5866CK,Swolgen,Horst aan de Maas,Limburg,VBO,6.138198,51.490432
Groenweg,4,,,5866CK,Swolgen,Horst aan de Maas,Limburg,VBO,6.137978,51.490155
Groenweg,6,,,5866CK,Swolgen,Horst aan de Maas,Limburg,VBO,6.137815,51.489922
Groenweg,8,,,5866CK,Swolgen,Horst aan de Maas,Limburg,VBO,6.137230,51.489342
Hulsweg,2,a,,5866CL,Swolgen,Horst aan de Maas,Limburg,VBO,6.123770,51.493113
Hulsweg,2,b,,5866CL,Swolgen,Horst aan de Maas,Limburg,VBO,6.123928,51.493040
Hulsweg,2,c,,5866CL,Swolgen,Horst aan de Maas,Limburg,VBO,6.123916,51.492900
Hulsweg,2,d,,5866CL,Swolgen,Horst aan de Maas,Limburg,VBO,6.124114,51.492895
Hulsweg,2,e,,5866CL,Swolgen,Horst aan de Maas,Limburg,VBO,6.124379,51.492911
Hulsweg,2,,,5866CL,Swolgen,Horst aan de Maas,Limburg,VBO,6.123685,51.493150
Hulsweg,3,,,5866CL,Swolgen,Horst aan de Maas,Limburg,VBO,6.126706,51.492987
Hulsweg,4,,,5866CL,Swolgen,Horst aan de Maas,Limburg,VBO,6.124499,51.492785
Hulsweg,6,,,5866CL,Swolgen,Horst aan de Maas,Limburg,VBO,6.125203,51.492637
Hulsweg,7,,,5866CL,Swolgen,Horst aan de Maas,Limburg,VBO,6.130891,51.493517
Hulsweg,9,,,5866CL,Swolgen,Horst aan de Maas,Limburg,VBO,6.131106,51.493489
Hulsweg,10,,,5866CL,Swolgen,Horst aan de Maas,Limburg,VBO,6.136312,51.492179
Hulsweg,12,,,5866CL,Swolgen,Horst aan de Maas,Limburg,VBO,6.138975,51.491281
Akkerweg,1,,,5866CM,Swolgen,Horst aan de Maas,Limburg,VBO,6.129059,51.492450
Akkerweg,4,,,5866CM,Swolgen,Horst aan de Maas,Limburg,VBO,6.128451,51.491394
Hoekweg,3,,,5866CN,Swolgen,Horst aan de Maas,Limburg,VBO,6.117742,51.488054
Krienestraat,1,,,5866CP,Swolgen,Horst aan de Maas,Limburg,VBO,6.140070,51.501746
Krienestraat,3,,,5866CP,Swolgen,Horst aan de Maas,Limburg,VBO,6.140449,51.501124
