openbareruimtenaam,huisnummer,huisletter,huisnummertoevoeging,postcode,woonplaatsnaam,gemeentenaam,provincienaam,typeadresseerbaarobject,longitude,latitude
Sleutelbospad,7,,,5928KZ,Venlo,Venlo,Limburg,VBO,6.123860,51.401124
Columbusweg,5,,,5928LA,Venlo,Venlo,Limburg,VBO,6.113715,51.391097
Columbusweg,9,,,5928LA,Venlo,Venlo,Limburg,VBO,6.112082,51.391925
Columbusweg,11,,,5928LA,Venlo,Venlo,Limburg,VBO,6.110221,51.392783
Columbusweg,13,,,5928LA,Venlo,Venlo,Limburg,VBO,6.109788,51.392794
Columbusweg,25,,,5928LA,Venlo,Venlo,Limburg,VBO,6.106346,51.394717
Columbusweg,27,,,5928LA,Venlo,Venlo,Limburg,VBO,6.105158,51.395148
Columbusweg,29,,,5928LA,Venlo,Venlo,Limburg,VBO,6.104595,51.395351
Columbusweg,33,A,,5928LA,Venlo,Venlo,Limburg,VBO,6.096106,51.395541
Columbusweg,33,,,5928LA,Venlo,Venlo,Limburg,VBO,6.100743,51.395254
Columbusweg,35,B,,5928LA,Venlo,Venlo,Limburg,VBO,6.093412,51.395709
Columbusweg,35,,,5928LA,Venlo,Venlo,Limburg,VBO,6.092329,51.395760
Columbusweg,45,,,5928LA,Venlo,Venlo,Limburg,VBO,6.090529,51.395265
Columbusweg,47,,,5928LA,Venlo,Venlo,Limburg,VBO,6.090213,51.395788
Columbusweg,49,,,5928LA,Venlo,Venlo,Limburg,VBO,6.090014,51.396545
Columbusweg,51,,,5928LA,Venlo,Venlo,Limburg,VBO,6.088229,51.397138
Columbusweg,53,,,5928LA,Venlo,Venlo,Limburg,VBO,6.088934,51.396396
Columbusweg,55,,,5928LA,Venlo,Venlo,Limburg,VBO,6.088135,51.396279
Columbusweg,57,,,5928LA,Venlo,Venlo,Limburg,VBO,6.085062,51.396112
Piri Reisweg,15,,,5928LB,Venlo,Venlo,Limburg,VBO,6.075622,51.406311
Piri Reisweg,17,,,5928LB,Venlo,Venlo,Limburg,VBO,6.076366,51.406885
Columbusweg,2,,,5928LC,Venlo,Venlo,Limburg,VBO,6.115659,51.389648
Columbusweg,6,,,5928LC,Venlo,Venlo,Limburg,VBO,6.102223,51.395720
Columbusweg,8,B,,5928LC,Venlo,Venlo,Limburg,VBO,6.101687,51.396266
Columbusweg,8,,,5928LC,Venlo,Venlo,Limburg,VBO,6.101505,51.395934
Columbusweg,10,,,5928LC,Venlo,Venlo,Limburg,VBO,6.098018,51.396811
Columbusweg,12,,,5928LC,Venlo,Venlo,Limburg,VBO,6.098878,51.398316
Columbusweg,14,,,5928LC,Venlo,Venlo,Limburg,VBO,6.097144,51.398162
Columbusweg,16,,,5928LC,Venlo,Venlo,Limburg,VBO,6.096199,51.399553
Columbusweg,20,A,,5928LC,Venlo,Venlo,Limburg,VBO,6.096277,51.397232
Columbusweg,20,,,5928LC,Venlo,Venlo,Limburg,VBO,6.095801,51.396557
Columbusweg,22,,,5928LC,Venlo,Venlo,Limburg,VBO,6.094473,51.396560
Columbusweg,24,A,,5928LC,Venlo,Venlo,Limburg,VBO,6.094244,51.397840
Columbusweg,24,,,5928LC,Venlo,Venlo,Limburg,VBO,6.092538,51.396678
Vasco da Gamaweg,1,,,5928LD,Venlo,Venlo,Limburg,VBO,6.077917,51.398155
Vasco da Gamaweg,2,,,5928LD,Venlo,Venlo,Limburg,VBO,6.077199,51.398439
Vasco da Gamaweg,4,A,,5928LD,Venlo,Venlo,Limburg,VBO,6.076706,51.397781
Vasco da Gamaweg,4,B,,5928LD,Venlo,Venlo,Limburg,VBO,6.076431,51.397836
Vasco da Gamaweg,4,C,,5928LD,Venlo,Venlo,Limburg,VBO,6.076499,51.397923
Vasco da Gamaweg,4,,,5928LD,Venlo,Venlo,Limburg,VBO,6.076800,51.397912
Vasco da Gamaweg,5,,,5928LD,Venlo,Venlo,Limburg,VBO,6.077340,51.397543
Vasco da Gamaweg,6,,,5928LD,Venlo,Venlo,Limburg,VBO,6.076426,51.397494
Vasco da Gamaweg,8,,,5928LD,Venlo,Venlo,Limburg,VBO,6.075373,51.396227
Vasco da Gamaweg,10,,,5928LD,Venlo,Venlo,Limburg,VBO,6.074422,51.395919
Vasco da Gamaweg,15,,,5928LD,Venlo,Venlo,Limburg,VBO,6.075240,51.395669
Vasco da Gamaweg,17,,,5928LD,Venlo,Venlo,Limburg,VBO,6.074828,51.395549
Vasco da Gamaweg,19,,,5928LD,Venlo,Venlo,Limburg,VBO,6.074280,51.395397
Marco Poloweg,3,,,5928LE,Venlo,Venlo,Limburg,VBO,6.086393,51.398885
Marco Poloweg,5,,,5928LE,Venlo,Venlo,Limburg,VBO,6.084900,51.399236
Marco Poloweg,6,,,5928LE,Venlo,Venlo,Limburg,VBO,6.085631,51.399844
Marco Poloweg,7,,,5928LE,Venlo,Venlo,Limburg,VBO,6.083085,51.400249
Marco Poloweg,10,,,5928LE,Venlo,Venlo,Limburg,VBO,6.083921,51.400561
Marco Poloweg,14,,,5928LE,Venlo,Venlo,Limburg,VBO,6.082262,51.401250
Marco Poloweg,19,A,,5928LE,Venlo,Venlo,Limburg,VBO,6.077214,51.401983
Marco Poloweg,19,,,5928LE,Venlo,Venlo,Limburg,VBO,6.076498,51.402288
Marco Poloweg,22,,,5928LE,Venlo,Venlo,Limburg,VBO,6.078132,51.402525
Marco Poloweg,24,,,5928LE,Venlo,Venlo,Limburg,VBO,6.077039,51.402834
Marco Poloweg,26,,,5928LE,Venlo,Venlo,Limburg,VBO,6.074722,51.403557
Marco Poloweg,28,,,5928LE,Venlo,Venlo,Limburg,VBO,6.074449,51.403565
Jan van Riebeeckweg,5,,,5928LG,Venlo,Venlo,Limburg,VBO,6.081114,51.396781
Jan van Riebeeckweg,11,,,5928LG,Venlo,Venlo,Limburg,VBO,6.079303,51.398097
Jan van Riebeeckweg,13,A,,5928LG,Venlo,Venlo,Limburg,VBO,6.078730,51.398216
Jan van Riebeeckweg,13,B,,5928LG,Venlo,Venlo,Limburg,VBO,6.078730,51.398216
Jan van Riebeeckweg,13,C,,5928LG,Venlo,Venlo,Limburg,VBO,6.078730,51.398216
Jan van Riebeeckweg,13,D,,5928LG,Venlo,Venlo,Limburg,VBO,6.078730,51.398216
Jan van Riebeeckweg,13,E,,5928LG,Venlo,Venlo,Limburg,VBO,6.078730,51.398216
Jan van Riebeeckweg,13,F,,5928LG,Venlo,Venlo,Limburg,VBO,6.078709,51.398223
Jan van Riebeeckweg,13,G,,5928LG,Venlo,Venlo,Limburg,VBO,6.078680,51.398231
Jan van Riebeeckweg,13,,,5928LG,Venlo,Venlo,Limburg,VBO,6.078730,51.398216
Jan van Riebeeckweg,15,,,5928LG,Venlo,Venlo,Limburg,VBO,6.076471,51.398890
Jan van Riebeeckweg,17,A,,5928LG,Venlo,Venlo,Limburg,VBO,6.075687,51.399093
Jan van Riebeeckweg,17,,,5928LG,Venlo,Venlo,Limburg,VBO,6.075928,51.399034
Jan van Riebeeckweg,19,,,5928LG,Venlo,Venlo,Limburg,VBO,6.075256,51.399214
Jan van Riebeeckweg,21,,,5928LG,Venlo,Venlo,Limburg,VBO,6.074276,51.399295
Jan van Riebeeckweg,31,,,5928LG,Venlo,Venlo,Limburg,VBO,6.072410,51.400024
Tasmanweg,1,,,5928LH,Venlo,Venlo,Limburg,VBO,6.088935,51.400211
Tasmanweg,2,,,5928LH,Venlo,Venlo,Limburg,VBO,6.090703,51.398827
Tasmanweg,6,,,5928LH,Venlo,Venlo,Limburg,VBO,6.088375,51.398497
Tasmanweg,8,,,5928LH,Venlo,Venlo,Limburg,VBO,6.089613,51.399826
Tasmanweg,9,,,5928LH,Venlo,Venlo,Limburg,VBO,6.091240,51.401696
Tasmanweg,10,,,5928LH,Venlo,Venlo,Limburg,VBO,6.090203,51.400216
Tasmanweg,12,,,5928LH,Venlo,Venlo,Limburg,VBO,6.090541,51.400576
Tasmanweg,14,,,5928LH,Venlo,Venlo,Limburg,VBO,6.091740,51.400919
James Cookweg,3,,,5928LJ,Venlo,Venlo,Limburg,VBO,6.113001,51.390444
James Cookweg,7,,,5928LJ,Venlo,Venlo,Limburg,VBO,6.107782,51.390638
James Cookweg,31,,,5928LJ,Venlo,Venlo,Limburg,VBO,6.102144,51.390603
James Cookweg,33,,,5928LJ,Venlo,Venlo,Limburg,VBO,6.101272,51.390932
James Cookweg,37,,,5928LJ,Venlo,Venlo,Limburg,VBO,6.098816,51.390955
James Cookweg,41,,,5928LJ,Venlo,Venlo,Limburg,VBO,6.097225,51.390983
James Cookweg,8,A,,5928LK,Venlo,Venlo,Limburg,VBO,6.107390,51.391260
James Cookweg,8,B,,5928LK,Venlo,Venlo,Limburg,VBO,6.104307,51.391469
James Cookweg,8,C,,5928LK,Venlo,Venlo,Limburg,VBO,6.104002,51.392003
James Cookweg,8,D,,5928LK,Venlo,Venlo,Limburg,VBO,6.104002,51.392026
James Cookweg,8,,,5928LK,Venlo,Venlo,Limburg,VBO,6.109692,51.391201
James Cookweg,10,,,5928LK,Venlo,Venlo,Limburg,VBO,6.104680,51.392432
James Cookweg,30,,,5928LK,Venlo,Venlo,Limburg,VBO,6.099880,51.391725
van Heemskerckweg,1,A,,5928LL,Venlo,Venlo,Limburg,VBO,6.087926,51.392660
van Heemskerckweg,1,B,,5928LL,Venlo,Venlo,Limburg,VBO,6.088086,51.392655
van Heemskerckweg,1,,,5928LL,Venlo,Venlo,Limburg,VBO,6.088019,51.392657
van Heemskerckweg,2,,,5928LL,Venlo,Venlo,Limburg,VBO,6.085649,51.392998
van Heemskerckweg,3,,,5928LL,Venlo,Venlo,Limburg,VBO,6.088326,51.392240
van Heemskerckweg,4,,,5928LL,Venlo,Venlo,Limburg,VBO,6.086121,51.392915
van Heemskerckweg,5,,,5928LL,Venlo,Venlo,Limburg,VBO,6.088762,51.392089
van Heemskerckweg,6,,,5928LL,Venlo,Venlo,Limburg,VBO,6.086969,51.392457
van Heemskerckweg,7,,,5928LL,Venlo,Venlo,Limburg,VBO,6.089308,51.392130
van Heemskerckweg,8,,,5928LL,Venlo,Venlo,Limburg,VBO,6.087463,51.392098
van Heemskerckweg,9,,,5928LL,Venlo,Venlo,Limburg,VBO,6.090108,51.392099
van Heemskerckweg,10,,,5928LL,Venlo,Venlo,Limburg,VBO,6.088202,51.391661
van Heemskerckweg,18,,,5928LL,Venlo,Venlo,Limburg,VBO,6.090270,51.391490
van Heemskerckweg,22,,,5928LL,Venlo,Venlo,Limburg,VBO,6.091569,51.391401
van Heemskerckweg,26,,,5928LL,Venlo,Venlo,Limburg,VBO,6.092374,51.391324
van Heemskerckweg,30,,,5928LL,Venlo,Venlo,Limburg,VBO,6.093664,51.389840
Willem Barentszweg,2,A,,5928LM,Venlo,Venlo,Limburg,VBO,6.087319,51.391859
Willem Barentszweg,2,,,5928LM,Venlo,Venlo,Limburg,VBO,6.086925,51.391674
Willem Barentszweg,4,A,,5928LM,Venlo,Venlo,Limburg,VBO,6.086431,51.392013
Willem Barentszweg,4,B,,5928LM,Venlo,Venlo,Limburg,VBO,6.086590,51.391905
Willem Barentszweg,4,C,,5928LM,Venlo,Venlo,Limburg,VBO,6.086754,51.391783
Willem Barentszweg,4,,,5928LM,Venlo,Venlo,Limburg,VBO,6.086253,51.392142
Willem Barentszweg,6,A,,5928LM,Venlo,Venlo,Limburg,VBO,6.085564,51.391628
Willem Barentszweg,6,B,,5928LM,Venlo,Venlo,Limburg,VBO,6.085751,51.391627
Willem Barentszweg,6,C,,5928LM,Venlo,Venlo,Limburg,VBO,6.085945,51.391478
Willem Barentszweg,6,D,,5928LM,Venlo,Venlo,Limburg,VBO,6.085834,51.391884
Willem Barentszweg,6,E,,5928LM,Venlo,Venlo,Limburg,VBO,6.086112,51.391570
Willem Barentszweg,6,,,5928LM,Venlo,Venlo,Limburg,VBO,6.085464,51.391686
Willem Barentszweg,7,,,5928LM,Venlo,Venlo,Limburg,VBO,6.088967,51.390592
Willem Barentszweg,8,A,,5928LM,Venlo,Venlo,Limburg,VBO,6.086564,51.390969
Willem Barentszweg,8,,,5928LM,Venlo,Venlo,Limburg,VBO,6.086231,51.391285
Willem Barentszweg,9,,,5928LM,Venlo,Venlo,Limburg,VBO,6.089183,51.391189
Willem Barentszweg,10,,,5928LM,Venlo,Venlo,Limburg,VBO,6.087097,51.390551
Willem Barentszweg,14,,,5928LM,Venlo,Venlo,Limburg,VBO,6.087952,51.390420
Willem Barentszweg,16,,,5928LM,Venlo,Venlo,Limburg,VBO,6.087723,51.390222
Willem Barentszweg,18,A,,5928LM,Venlo,Venlo,Limburg,VBO,6.088754,51.390132
Willem Barentszweg,18,,,5928LM,Venlo,Venlo,Limburg,VBO,6.088427,51.390223
Willem Barentszweg,20,,,5928LM,Venlo,Venlo,Limburg,VBO,6.089392,51.390133
Willem Barentszweg,22,,,5928LM,Venlo,Venlo,Limburg,VBO,6.090194,51.390174
Willem Barentszweg,26,,,5928LM,Venlo,Venlo,Limburg,VBO,6.089901,51.390562
Willem Barentszweg,30,A,,5928LM,Venlo,Venlo,Limburg,VBO,6.089782,51.391091
Willem Barentszweg,30,,,5928LM,Venlo,Venlo,Limburg,VBO,6.089776,51.391026
Willem Barentszweg,32,,,5928LM,Venlo,Venlo,Limburg,VBO,6.089835,51.391140
Magalhaesweg,1,,,5928LN,Venlo,Venlo,Limburg,VBO,6.087343,51.393486
Magalhaesweg,2,,,5928LN,Venlo,Venlo,Limburg,VBO,6.087972,51.393190
Magalhaesweg,4,,,5928LN,Venlo,Venlo,Limburg,VBO,6.088205,51.393451
Magalhaesweg,6,,,5928LN,Venlo,Venlo,Limburg,VBO,6.090380,51.393474
Magalhaesweg,8,A,,5928LN,Venlo,Venlo,Limburg,VBO,6.091680,51.393450
Magalhaesweg,8,B,,5928LN,Venlo,Venlo,Limburg,VBO,6.091678,51.393427
Magalhaesweg,8,C,,5928LN,Venlo,Venlo,Limburg,VBO,6.091678,51.393405
Magalhaesweg,8,D,,5928LN,Venlo,Venlo,Limburg,VBO,6.091607,51.393336
Magalhaesweg,8,,,5928LN,Venlo,Venlo,Limburg,VBO,6.091670,51.393472
Magalhaesweg,10,,,5928LN,Venlo,Venlo,Limburg,VBO,6.094059,51.393312
Magalhaesweg,16,,,5928LN,Venlo,Venlo,Limburg,VBO,6.094309,51.391952
Livingstoneweg,4,,,5928LP,Venlo,Venlo,Limburg,VBO,6.097790,51.392216
Livingstoneweg,6,,,5928LP,Venlo,Venlo,Limburg,VBO,6.098096,51.392357
Livingstoneweg,10,,,5928LP,Venlo,Venlo,Limburg,VBO,6.098662,51.392556
Stanleyweg,1,,,5928LR,Venlo,Venlo,Limburg,VBO,6.083327,51.401165
Stanleyweg,4,,,5928LR,Venlo,Venlo,Limburg,VBO,6.085737,51.402340
Stanleyweg,6,,,5928LR,Venlo,Venlo,Limburg,VBO,6.086276,51.402824
Stanleyweg,8,,,5928LR,Venlo,Venlo,Limburg,VBO,6.087061,51.403743
Jacob Roggeveenweg,2,,,5928LS,Venlo,Venlo,Limburg,VBO,6.079898,51.400374
Jacob Roggeveenweg,8,,,5928LS,Venlo,Venlo,Limburg,VBO,6.080840,51.401844
Jacob Roggeveenweg,10,,,5928LS,Venlo,Venlo,Limburg,VBO,6.081280,51.402451
Jacob Roggeveenweg,11,,,5928LS,Venlo,Venlo,Limburg,VBO,6.079470,51.401912
Jacob Roggeveenweg,13,,,5928LS,Venlo,Venlo,Limburg,VBO,6.079758,51.402312
Amundsenweg,2,,,5928LT,Venlo,Venlo,Limburg,VBO,6.074481,51.401004
Amundsenweg,4,,,5928LT,Venlo,Venlo,Limburg,VBO,6.075625,51.402449
Dirk Hartogweg,8,,,5928LV,Venlo,Venlo,Limburg,VBO,6.079884,51.399444
Dirk Hartogweg,14,,,5928LV,Venlo,Venlo,Limburg,VBO,6.077252,51.399908
Dirk Hartogweg,16,,,5928LV,Venlo,Venlo,Limburg,VBO,6.075039,51.400534
Hudsonweg,1,,,5928LW,Venlo,Venlo,Limburg,VBO,6.078452,51.396288
Hudsonweg,2,,,5928LW,Venlo,Venlo,Limburg,VBO,6.079188,51.396629
Hudsonweg,3,A,,5928LW,Venlo,Venlo,Limburg,VBO,6.077058,51.396656
Hudsonweg,3,B,,5928LW,Venlo,Venlo,Limburg,VBO,6.077059,51.396463
Hudsonweg,3,,,5928LW,Venlo,Venlo,Limburg,VBO,6.076868,51.396787
Hudsonweg,5,,,5928LW,Venlo,Venlo,Limburg,VBO,6.074740,51.397205
Hudsonweg,6,,,5928LW,Venlo,Venlo,Limburg,VBO,6.075442,51.397822
Hudsonweg,7,,,5928LW,Venlo,Venlo,Limburg,VBO,6.073381,51.397545
Hudsonweg,8,,,5928LW,Venlo,Venlo,Limburg,VBO,6.074191,51.398066
Hudsonweg,10,,,5928LW,Venlo,Venlo,Limburg,VBO,6.073346,51.398134
Olivier van Noortweg,4,,,5928LX,Venlo,Venlo,Limburg,VBO,6.077962,51.395334
Olivier van Noortweg,6,,,5928LX,Venlo,Venlo,Limburg,VBO,6.076747,51.394772
Olivier van Noortweg,8,A,,5928LX,Venlo,Venlo,Limburg,VBO,6.075329,51.394516
Olivier van Noortweg,8,,,5928LX,Venlo,Venlo,Limburg,VBO,6.075916,51.394576
Olivier van Noortweg,10,,,5928LX,Venlo,Venlo,Limburg,VBO,6.074962,51.394377
Ubroekweg Noord,2,,,5928MT,Venlo,Venlo,Limburg,VBO,6.155389,51.375863
Ubroekweg Noord,3,,,5928MT,Venlo,Venlo,Limburg,VBO,6.155096,51.376318
Ubroekweg Noord,4,,,5928MT,Venlo,Venlo,Limburg,VBO,6.155562,51.375991
Ubroekweg Noord,5,,,5928MT,Venlo,Venlo,Limburg,VBO,6.155502,51.376518
Ubroekweg Noord,7,,,5928MT,Venlo,Venlo,Limburg,VBO,6.155607,51.376787
Ubroekweg Noord,9,,,5928MT,Venlo,Venlo,Limburg,VBO,6.155612,51.376850
Ubroekweg Noord,10,,,5928MT,Venlo,Venlo,Limburg,VBO,6.156119,51.377174
Ubroekweg Noord,11,A,,5928MT,Venlo,Venlo,Limburg,VBO,6.155392,51.377071
Ubroekweg Noord,11,,,5928MT,Venlo,Venlo,Limburg,VBO,6.155564,51.376995
Ubroekweg Noord,14,,,5928MT,Venlo,Venlo,Limburg,VBO,6.156218,51.377447
Ubroekweg Noord,15,,,5928MT,Venlo,Venlo,Limburg,VBO,6.155443,51.377684
Eike Reisweg,1,,,5928MV,Venlo,Venlo,Limburg,VBO,6.147631,51.393851
Raaieind,2,,,5928MX,Venlo,Venlo,Limburg,VBO,6.139619,51.397316
Raaieind,6,,,5928MX,Venlo,Venlo,Limburg,VBO,6.140167,51.395015
Raaieind,10,,,5928MX,Venlo,Venlo,Limburg,VBO,6.141058,51.392287
Raaieind,20,,,5928MX,Venlo,Venlo,Limburg,VBO,6.140976,51.390845
Garnizoenweg,1,A,,5928NA,Venlo,Venlo,Limburg,VBO,6.158649,51.371028
Garnizoenweg,1,B,,5928NA,Venlo,Venlo,Limburg,VBO,6.159153,51.371572
Garnizoenweg,1,C,,5928NA,Venlo,Venlo,Limburg,VBO,6.158919,51.371737
Garnizoenweg,1,F,,5928NA,Venlo,Venlo,Limburg,VBO,6.158405,51.371780
Garnizoenweg,3,B,,5928NA,Venlo,Venlo,Limburg,VBO,6.160265,51.371791
Garnizoenweg,3,,,5928NA,Venlo,Venlo,Limburg,VBO,6.160460,51.372013
Garnizoenweg,5,,,5928NA,Venlo,Venlo,Limburg,VBO,6.159358,51.372153
Garnizoenweg,7,,,5928NA,Venlo,Venlo,Limburg,VBO,6.158614,51.372470
Garnizoenweg,9,A,,5928NA,Venlo,Venlo,Limburg,VBO,6.157853,51.372939
Garnizoenweg,11,,,5928NA,Venlo,Venlo,Limburg,VBO,6.158294,51.373274
Garnizoenweg,12,,,5928NA,Venlo,Venlo,Limburg,VBO,6.161760,51.372683
Garnizoenweg,13,,,5928NA,Venlo,Venlo,Limburg,VBO,6.158805,51.373775
Garnizoenweg,15,A,,5928NA,Venlo,Venlo,Limburg,VBO,6.157639,51.373557
Garnizoenweg,15,B,,5928NA,Venlo,Venlo,Limburg,VBO,6.157762,51.373638
Garnizoenweg,17,A,,5928NA,Venlo,Venlo,Limburg,VBO,6.158147,51.374048
Garnizoenweg,17,B,,5928NA,Venlo,Venlo,Limburg,VBO,6.158248,51.374425
Garnizoenweg,17,C,,5928NA,Venlo,Venlo,Limburg,VBO,6.159622,51.374292
Garnizoenweg,17,,,5928NA,Venlo,Venlo,Limburg,VBO,6.157689,51.373886
Garnizoenweg,19,A,,5928NA,Venlo,Venlo,Limburg,VBO,6.160615,51.374256
Garnizoenweg,21,,,5928NA,Venlo,Venlo,Limburg,VBO,6.160722,51.373544
Garnizoenweg,23,,,5928NA,Venlo,Venlo,Limburg,VBO,6.161027,51.372645
Horsterweg,7,,,5928NB,Venlo,Venlo,Limburg,VBO,6.159578,51.374819
Horsterweg,15,,,5928NB,Venlo,Venlo,Limburg,VBO,6.155811,51.374933
Horsterweg,17,,,5928NB,Venlo,Venlo,Limburg,VBO,6.155728,51.374950
Horsterweg,19,,,5928NB,Venlo,Venlo,Limburg,VBO,6.155643,51.374967
Horsterweg,21,,,5928NB,Venlo,Venlo,Limburg,VBO,6.155503,51.374995
Horsterweg,23,,,5928NB,Venlo,Venlo,Limburg,VBO,6.155420,51.375012
Horsterweg,25,,,5928NB,Venlo,Venlo,Limburg,VBO,6.155337,51.375029
Horsterweg,27,,,5928NB,Venlo,Venlo,Limburg,VBO,6.155250,51.375047
Horsterweg,29,,,5928NB,Venlo,Venlo,Limburg,VBO,6.154784,51.375081
Horsterweg,29,,,5928NB,Venlo,Venlo,Limburg,VBO,6.154854,51.375078
Horsterweg,31,,,5928NB,Venlo,Venlo,Limburg,VBO,6.153463,51.375342
Horsterweg,35,,,5928NB,Venlo,Venlo,Limburg,VBO,6.152885,51.374779
Horsterweg,37,,,5928NB,Venlo,Venlo,Limburg,VBO,6.152868,51.375336
Horsterweg,39,A,,5928NB,Venlo,Venlo,Limburg,VBO,6.152782,51.375400
Horsterweg,39,,,5928NB,Venlo,Venlo,Limburg,VBO,6.152861,51.375523
Horsterweg,41,,,5928NB,Venlo,Venlo,Limburg,VBO,6.152958,51.375640
Horsterweg,47,,,5928NB,Venlo,Venlo,Limburg,VBO,6.152671,51.375745
Horsterweg,49,,,5928NB,Venlo,Venlo,Limburg,VBO,6.152609,51.375775
Horsterweg,51,,,5928NB,Venlo,Venlo,Limburg,VBO,6.152468,51.375825
Horsterweg,53,,,5928NB,Venlo,Venlo,Limburg,VBO,6.152383,51.375858
Horsterweg,55,,,5928NB,Venlo,Venlo,Limburg,VBO,6.152230,51.375928
Horsterweg,57,,,5928NB,Venlo,Venlo,Limburg,VBO,6.152143,51.375969
Horsterweg,61,,,5928NB,Venlo,Venlo,Limburg,VBO,6.151898,51.376108
Horsterweg,63,,,5928NB,Venlo,Venlo,Limburg,VBO,6.151807,51.376151
Horsterweg,65,,,5928NB,Venlo,Venlo,Limburg,VBO,6.151657,51.376214
Horsterweg,69,,,5928NB,Venlo,Venlo,Limburg,VBO,6.151452,51.376308
Horsterweg,71,,,5928NB,Venlo,Venlo,Limburg,VBO,6.151339,51.376368
Horsterweg,73,,,5928NB,Venlo,Venlo,Limburg,VBO,6.151156,51.376395
Horsterweg,75,,,5928NB,Venlo,Venlo,Limburg,VBO,6.151084,51.376428
Horsterweg,77,,,5928NB,Venlo,Venlo,Limburg,VBO,6.151013,51.376461
Horsterweg,79,,,5928NB,Venlo,Venlo,Limburg,VBO,6.150943,51.376494
Horsterweg,81,,,5928NC,Venlo,Venlo,Limburg,VBO,6.150871,51.376527
Horsterweg,83,,,5928NC,Venlo,Venlo,Limburg,VBO,6.150758,51.376637
Horsterweg,89,,,5928NC,Venlo,Venlo,Limburg,VBO,6.150419,51.376737
Horsterweg,121,,,5928NC,Venlo,Venlo,Limburg,VBO,6.148698,51.377808
Horsterweg,123,A,,5928NC,Venlo,Venlo,Limburg,VBO,6.148466,51.377978
Horsterweg,123,,,5928NC,Venlo,Venlo,Limburg,VBO,6.148638,51.377863
Horsterweg,125,,,5928NC,Venlo,Venlo,Limburg,VBO,6.148281,51.378081
Horsterweg,137,,,5928NC,Venlo,Venlo,Limburg,VBO,6.148150,51.378304
Horsterweg,139,,,5928NC,Venlo,Venlo,Limburg,VBO,6.147947,51.378489
Horsterweg,141,,,5928NC,Venlo,Venlo,Limburg,VBO,6.147888,51.378542
Horsterweg,147,,,5928NC,Venlo,Venlo,Limburg,VBO,6.147636,51.378768
Horsterweg,149,,,5928NC,Venlo,Venlo,Limburg,VBO,6.147576,51.378823
Horsterweg,151,,,5928NC,Venlo,Venlo,Limburg,VBO,6.147449,51.378838
Horsterweg,153,,,5928NC,Venlo,Venlo,Limburg,VBO,6.147356,51.378923
Horsterweg,155,,,5928NC,Venlo,Venlo,Limburg,VBO,6.147308,51.378966
Horsterweg,159,,,5928NC,Venlo,Venlo,Limburg,VBO,6.147254,51.379114
Horsterweg,161,,,5928NC,Venlo,Venlo,Limburg,VBO,6.147208,51.379156
Horsterweg,163,,,5928NC,Venlo,Venlo,Limburg,VBO,6.147086,51.379218
Horsterweg,165,,,5928NC,Venlo,Venlo,Limburg,VBO,6.146953,51.379290
Horsterweg,167,,,5928NC,Venlo,Venlo,Limburg,VBO,6.146853,51.379381
Horsterweg,169,,,5928NC,Venlo,Venlo,Limburg,VBO,6.146796,51.379432
Horsterweg,171,,,5928ND,Venlo,Venlo,Limburg,VBO,6.146690,51.379528
Horsterweg,173,,,5928ND,Venlo,Venlo,Limburg,VBO,6.146634,51.379579
Horsterweg,179,,,5928ND,Venlo,Venlo,Limburg,VBO,6.146510,51.379820
Horsterweg,181,,,5928ND,Venlo,Venlo,Limburg,VBO,6.146457,51.379891
Horsterweg,183,,,5928ND,Venlo,Venlo,Limburg,VBO,6.146430,51.379905
Horsterweg,185,,,5928ND,Venlo,Venlo,Limburg,VBO,6.145986,51.379876
Horsterweg,193,,,5928ND,Venlo,Venlo,Limburg,VBO,6.146090,51.380345
Horsterweg,195,,,5928ND,Venlo,Venlo,Limburg,VBO,6.146001,51.380639
Horsterweg,197,,,5928ND,Venlo,Venlo,Limburg,VBO,6.146010,51.380712
Horsterweg,199,,,5928ND,Venlo,Venlo,Limburg,VBO,6.146019,51.380788
Horsterweg,201,,,5928ND,Venlo,Venlo,Limburg,VBO,6.146010,51.380880
Horsterweg,203,,,5928ND,Venlo,Venlo,Limburg,VBO,6.145787,51.381001
Horsterweg,209,,,5928ND,Venlo,Venlo,Limburg,VBO,6.144571,51.382416
Horsterweg,213,B,,5928ND,Venlo,Venlo,Limburg,VBO,6.145560,51.382177
Horsterweg,213,,,5928ND,Venlo,Venlo,Limburg,VBO,6.145104,51.382242
Horsterweg,215,A,,5928ND,Venlo,Venlo,Limburg,VBO,6.145973,51.382317
Horsterweg,215,B,,5928ND,Venlo,Venlo,Limburg,VBO,6.145992,51.382457
Horsterweg,215,D,,5928ND,Venlo,Venlo,Limburg,VBO,6.145954,51.382894
Horsterweg,215,,,5928ND,Venlo,Venlo,Limburg,VBO,6.145959,51.382206
Horsterweg,217,,,5928ND,Venlo,Venlo,Limburg,VBO,6.146014,51.383376
Horsterweg,219,,,5928ND,Venlo,Venlo,Limburg,VBO,6.146037,51.383554
Horsterweg,221,,,5928ND,Venlo,Venlo,Limburg,VBO,6.146058,51.383724
Horsterweg,223,,,5928ND,Venlo,Venlo,Limburg,VBO,6.145820,51.384419
Horsterweg,225,,,5928ND,Venlo,Venlo,Limburg,VBO,6.145202,51.384656
Horsterweg,70,,,5928NE,Venlo,Venlo,Limburg,VBO,6.162423,51.373907
Horsterweg,74,,,5928NE,Venlo,Venlo,Limburg,VBO,6.161882,51.373941
Horsterweg,80,,,5928NE,Venlo,Venlo,Limburg,VBO,6.161484,51.374137
Horsterweg,132,,,5928NE,Venlo,Venlo,Limburg,VBO,6.158606,51.375612
Horsterweg,142,,,5928NE,Venlo,Venlo,Limburg,VBO,6.157674,51.375127
Horsterweg,144,,,5928NE,Venlo,Venlo,Limburg,VBO,6.157592,51.375127
Horsterweg,146,,,5928NE,Venlo,Venlo,Limburg,VBO,6.157395,51.375092
Horsterweg,148,,,5928NE,Venlo,Venlo,Limburg,VBO,6.157311,51.375094
Horsterweg,150,,,5928NE,Venlo,Venlo,Limburg,VBO,6.157137,51.375149
Horsterweg,152,,,5928NE,Venlo,Venlo,Limburg,VBO,6.156939,51.375167
Horsterweg,170,,,5928NE,Venlo,Venlo,Limburg,VBO,6.156008,51.375222
Horsterweg,172,,,5928NE,Venlo,Venlo,Limburg,VBO,6.155821,51.375260
Horsterweg,174,,,5928NE,Venlo,Venlo,Limburg,VBO,6.155735,51.375277
Horsterweg,180,A,,5928NE,Venlo,Venlo,Limburg,VBO,6.155310,51.375470
Horsterweg,180,B,,5928NE,Venlo,Venlo,Limburg,VBO,6.155327,51.375499
Horsterweg,180,,,5928NE,Venlo,Venlo,Limburg,VBO,6.155131,51.375489
Horsterweg,182,A,,5928NG,Venlo,Venlo,Limburg,VBO,6.154901,51.375754
Horsterweg,182,,,5928NG,Venlo,Venlo,Limburg,VBO,6.154895,51.375731
Horsterweg,200,,,5928NG,Venlo,Venlo,Limburg,VBO,6.153707,51.375697
Horsterweg,202,A,,5928NG,Venlo,Venlo,Limburg,VBO,6.153122,51.375831
Horsterweg,202,,,5928NG,Venlo,Venlo,Limburg,VBO,6.153219,51.375809
Horsterweg,204,A,,5928NG,Venlo,Venlo,Limburg,VBO,6.152810,51.375948
Horsterweg,204,,,5928NG,Venlo,Venlo,Limburg,VBO,6.152877,51.375920
Horsterweg,206,,,5928NG,Venlo,Venlo,Limburg,VBO,6.152724,51.375990
Horsterweg,208,,,5928NG,Venlo,Venlo,Limburg,VBO,6.152660,51.376019
Horsterweg,210,,,5928NG,Venlo,Venlo,Limburg,VBO,6.152578,51.376056
Horsterweg,212,,,5928NG,Venlo,Venlo,Limburg,VBO,6.152478,51.376102
Horsterweg,214,,,5928NG,Venlo,Venlo,Limburg,VBO,6.152355,51.376158
Horsterweg,216,,,5928NG,Venlo,Venlo,Limburg,VBO,6.152238,51.376211
Horsterweg,220,,,5928NG,Venlo,Venlo,Limburg,VBO,6.152076,51.376370
Horsterweg,222,,,5928NG,Venlo,Venlo,Limburg,VBO,6.152006,51.376404
Horsterweg,224,,,5928NG,Venlo,Venlo,Limburg,VBO,6.151858,51.376473
Horsterweg,226,,,5928NG,Venlo,Venlo,Limburg,VBO,6.151788,51.376506
Horsterweg,228,,,5928NG,Venlo,Venlo,Limburg,VBO,6.151621,51.376583
Horsterweg,230,,,5928NG,Venlo,Venlo,Limburg,VBO,6.151545,51.376618
Horsterweg,232,,,5928NG,Venlo,Venlo,Limburg,VBO,6.151346,51.376670
Horsterweg,236,,,5928NG,Venlo,Venlo,Limburg,VBO,6.151126,51.376712
Horsterweg,240,,,5928NH,Venlo,Venlo,Limburg,VBO,6.150956,51.376858
Horsterweg,242,,,5928NH,Venlo,Venlo,Limburg,VBO,6.150846,51.376895
Horsterweg,244,,,5928NH,Venlo,Venlo,Limburg,VBO,6.150774,51.376929
Horsterweg,246,,,5928NH,Venlo,Venlo,Limburg,VBO,6.150664,51.376980
Horsterweg,248,,,5928NH,Venlo,Venlo,Limburg,VBO,6.150592,51.377014
Horsterweg,250,,,5928NH,Venlo,Venlo,Limburg,VBO,6.150482,51.377065
Horsterweg,252,,,5928NH,Venlo,Venlo,Limburg,VBO,6.150410,51.377098
Horsterweg,254,,,5928NH,Venlo,Venlo,Limburg,VBO,6.150299,51.377150
Horsterweg,256,,,5928NH,Venlo,Venlo,Limburg,VBO,6.150228,51.377184
Horsterweg,258,,,5928NH,Venlo,Venlo,Limburg,VBO,6.150118,51.377235
Horsterweg,260,,,5928NH,Venlo,Venlo,Limburg,VBO,6.150047,51.377268
Horsterweg,262,,,5928NH,Venlo,Venlo,Limburg,VBO,6.149940,51.377320
Horsterweg,264,,,5928NH,Venlo,Venlo,Limburg,VBO,6.149873,51.377354
Horsterweg,266,,,5928NH,Venlo,Venlo,Limburg,VBO,6.149599,51.377467
Horsterweg,272,,,5928NH,Venlo,Venlo,Limburg,VBO,6.149300,51.377705
Horsterweg,274,,,5928NH,Venlo,Venlo,Limburg,VBO,6.149208,51.377821
Horsterweg,276,,,5928NH,Venlo,Venlo,Limburg,VBO,6.149158,51.377867
Horsterweg,278,,,5928NH,Venlo,Venlo,Limburg,VBO,6.149108,51.377913
Horsterweg,280,,,5928NH,Venlo,Venlo,Limburg,VBO,6.149057,51.377959
Horsterweg,282,,,5928NH,Venlo,Venlo,Limburg,VBO,6.149007,51.378004
Horsterweg,284,,,5928NH,Venlo,Venlo,Limburg,VBO,6.148892,51.378110
Horsterweg,286,,,5928NH,Venlo,Venlo,Limburg,VBO,6.148841,51.378156
Horsterweg,288,,,5928NH,Venlo,Venlo,Limburg,VBO,6.148791,51.378202
Horsterweg,290,,,5928NH,Venlo,Venlo,Limburg,VBO,6.148741,51.378247
Horsterweg,292,,,5928NH,Venlo,Venlo,Limburg,VBO,6.148692,51.378293
Horsterweg,294,,,5928NH,Venlo,Venlo,Limburg,VBO,6.148575,51.378399
Horsterweg,296,,,5928NH,Venlo,Venlo,Limburg,VBO,6.148525,51.378444
Horsterweg,298,,,5928NH,Venlo,Venlo,Limburg,VBO,6.148475,51.378490
Horsterweg,300,,,5928NJ,Venlo,Venlo,Limburg,VBO,6.148425,51.378536
Horsterweg,302,,,5928NJ,Venlo,Venlo,Limburg,VBO,6.148376,51.378581
Horsterweg,304,A,,5928NJ,Venlo,Venlo,Limburg,VBO,6.148198,51.378743
Horsterweg,304,,,5928NJ,Venlo,Venlo,Limburg,VBO,6.148325,51.378627
Horsterweg,306,,,5928NJ,Venlo,Venlo,Limburg,VBO,6.147731,51.379072
Horsterweg,308,,,5928NJ,Venlo,Venlo,Limburg,VBO,6.147672,51.379125
Horsterweg,310,,,5928NJ,Venlo,Venlo,Limburg,VBO,6.147615,51.379176
Horsterweg,312,,,5928NJ,Venlo,Venlo,Limburg,VBO,6.147589,51.379283
Horsterweg,314,,,5928NJ,Venlo,Venlo,Limburg,VBO,6.147535,51.379332
Horsterweg,320,,,5928NJ,Venlo,Venlo,Limburg,VBO,6.147260,51.379498
Horsterweg,328,,,5928NJ,Venlo,Venlo,Limburg,VBO,6.147162,51.379674
Horsterweg,330,,,5928NJ,Venlo,Venlo,Limburg,VBO,6.146962,51.379770
Horsterweg,332,,,5928NJ,Venlo,Venlo,Limburg,VBO,6.146913,51.379816
Horsterweg,342,,,5928NJ,Venlo,Venlo,Limburg,VBO,6.146646,51.380102
Horsterweg,344,,,5928NJ,Venlo,Venlo,Limburg,VBO,6.146603,51.380151
Horsterweg,356,,,5928NJ,Venlo,Venlo,Limburg,VBO,6.146385,51.380527
Horsterweg,358,,,5928NJ,Venlo,Venlo,Limburg,STA,6.146510,51.380685
Horsterweg,360,,,5928NJ,Venlo,Venlo,Limburg,STA,6.146532,51.380799
Horsterweg,362,,,5928NJ,Venlo,Venlo,Limburg,VBO,6.146421,51.380876
Horsterweg,380,,,5928NJ,Venlo,Venlo,Limburg,VBO,6.146615,51.381227
Horsterweg,404,,,5928NJ,Venlo,Venlo,Limburg,VBO,6.146977,51.382423
Horsterweg,406,,,5928NJ,Venlo,Venlo,Limburg,VBO,6.146634,51.382457
Horsterweg,408,,,5928NJ,Venlo,Venlo,Limburg,VBO,6.146642,51.382518
Horsterweg,412,,,5928NJ,Venlo,Venlo,Limburg,VBO,6.146684,51.382866
Horsterweg,414,,,5928NJ,Venlo,Venlo,Limburg,VBO,6.146705,51.383047
Horsterweg,416,,,5928NJ,Venlo,Venlo,Limburg,VBO,6.146726,51.383232
Horsterweg,418,A,,5928NJ,Venlo,Venlo,Limburg,VBO,6.146695,51.383419
Horsterweg,418,,,5928NJ,Venlo,Venlo,Limburg,VBO,6.146743,51.383340
Horsterweg,420,,,5928NJ,Venlo,Venlo,Limburg,VBO,6.146754,51.383541
Daelweg,4,A,,5928NK,Venlo,Venlo,Limburg,VBO,6.160360,51.375814
Daelweg,4,,,5928NK,Venlo,Venlo,Limburg,VBO,6.159550,51.375930
Daelweg,5,,,5928NK,Venlo,Venlo,Limburg,VBO,6.159257,51.376164
Daelweg,6,A,,5928NK,Venlo,Venlo,Limburg,VBO,6.160677,51.375765
Daelweg,6,B,,5928NK,Venlo,Venlo,Limburg,VBO,6.160902,51.375750
Daelweg,6,,,5928NK,Venlo,Venlo,Limburg,VBO,6.160996,51.375932
Daelweg,7,,,5928NK,Venlo,Venlo,Limburg,VBO,6.159277,51.376219
Daelweg,10,,,5928NK,Venlo,Venlo,Limburg,VBO,6.159841,51.376541
Daelweg,11,,,5928NK,Venlo,Venlo,Limburg,VBO,6.159308,51.376305
Daelweg,13,,,5928NK,Venlo,Venlo,Limburg,VBO,6.159329,51.376361
Kazernestraat,1,,,5928NL,Venlo,Venlo,Limburg,VBO,6.154955,51.373042
Kazernestraat,2,,,5928NL,Venlo,Venlo,Limburg,VBO,6.154066,51.371375
Kazernestraat,3,,,5928NL,Venlo,Venlo,Limburg,VBO,6.155446,51.373405
Kazernestraat,4,,,5928NL,Venlo,Venlo,Limburg,VBO,6.154093,51.371429
Kazernestraat,5,,,5928NL,Venlo,Venlo,Limburg,VBO,6.155458,51.373469
Kazernestraat,6,,,5928NL,Venlo,Venlo,Limburg,VBO,6.154145,51.371565
Kazernestraat,7,,,5928NL,Venlo,Venlo,Limburg,VBO,6.155482,51.373533
Kazernestraat,9,,,5928NL,Venlo,Venlo,Limburg,VBO,6.155503,51.373588
Kazernestraat,10,,,5928NL,Venlo,Venlo,Limburg,VBO,6.156547,51.374229
Kazernestraat,11,,,5928NL,Venlo,Venlo,Limburg,VBO,6.155521,51.373635
Kazernestraat,12,,,5928NL,Venlo,Venlo,Limburg,VBO,6.156585,51.374382
Kazernestraat,13,,,5928NL,Venlo,Venlo,Limburg,VBO,6.155542,51.373690
Kazernestraat,15,A,,5928NL,Venlo,Venlo,Limburg,VBO,6.155556,51.373977
Kazernestraat,15,,,5928NL,Venlo,Venlo,Limburg,VBO,6.155508,51.373870
Kazernestraat,17,,,5928NL,Venlo,Venlo,Limburg,VBO,6.155600,51.374046
Kazernestraat,19,,,5928NL,Venlo,Venlo,Limburg,VBO,6.155067,51.374272
Kazernestraat,20,,,5928NL,Venlo,Venlo,Limburg,VBO,6.157600,51.376772
Kazernestraat,21,,,5928NL,Venlo,Venlo,Limburg,VBO,6.155677,51.374313
Kazernestraat,23,,,5928NL,Venlo,Venlo,Limburg,VBO,6.154882,51.374780
Kazernestraat,25,,,5928NL,Venlo,Venlo,Limburg,VBO,6.155925,51.374699
Kazernestraat,27,,,5928NL,Venlo,Venlo,Limburg,VBO,6.155893,51.374791
Kazernestraat,29,,,5928NL,Venlo,Venlo,Limburg,VBO,6.155871,51.374895
Kazernestraat,41,,,5928NL,Venlo,Venlo,Limburg,VBO,6.155862,51.376440
Kazernestraat,43,,,5928NL,Venlo,Venlo,Limburg,VBO,6.156365,51.376476
Ubroekweg,20,,,5928NM,Venlo,Venlo,Limburg,VBO,6.156795,51.378982
Ubroekweg,21,,,5928NM,Venlo,Venlo,Limburg,VBO,6.156138,51.378489
Ubroekweg,25,,,5928NM,Venlo,Venlo,Limburg,VBO,6.155737,51.378772
Ubroekweg,26,,,5928NM,Venlo,Venlo,Limburg,VBO,6.157182,51.379340
Ubroekweg,27,,,5928NM,Venlo,Venlo,Limburg,VBO,6.156518,51.379191
Ubroekweg,28,,,5928NM,Venlo,Venlo,Limburg,VBO,6.156893,51.379669
Ubroekweg,29,,,5928NM,Venlo,Venlo,Limburg,VBO,6.156549,51.379280
Ubroekweg,35,,,5928NM,Venlo,Venlo,Limburg,VBO,6.156230,51.379584
Ubroekweg,38,A,,5928NM,Venlo,Venlo,Limburg,VBO,6.160164,51.381552
Ubroekweg,38,B,,5928NM,Venlo,Venlo,Limburg,VBO,6.159457,51.382336
Ubroekweg,38,C,,5928NM,Venlo,Venlo,Limburg,VBO,6.159113,51.382207
Ubroekweg,38,D,,5928NM,Venlo,Venlo,Limburg,VBO,6.157967,51.381747
Ubroekweg,38,E,,5928NM,Venlo,Venlo,Limburg,VBO,6.157833,51.381975
Ubroekweg,38,F,,5928NM,Venlo,Venlo,Limburg,VBO,6.156681,51.381252
Ubroekweg,38,G,,5928NM,Venlo,Venlo,Limburg,VBO,6.156387,51.380960
Ubroekweg,38,H,,5928NM,Venlo,Venlo,Limburg,VBO,6.156176,51.381069
Ubroekweg,38,J,,5928NM,Venlo,Venlo,Limburg,VBO,6.155795,51.381805
Ubroekweg,38,K,,5928NM,Venlo,Venlo,Limburg,VBO,6.155703,51.382056
Ubroekweg,38,L,,5928NM,Venlo,Venlo,Limburg,VBO,6.156243,51.382188
Ubroekweg,38,M,,5928NM,Venlo,Venlo,Limburg,VBO,6.155696,51.382464
Ubroekweg,38,N,,5928NM,Venlo,Venlo,Limburg,VBO,6.155525,51.382654
Ubroekweg,38,,,5928NM,Venlo,Venlo,Limburg,VBO,6.157297,51.380834
Ubroekweg,39,,,5928NM,Venlo,Venlo,Limburg,VBO,6.156627,51.379706
Ubroekweg,41,,,5928NM,Venlo,Venlo,Limburg,VBO,6.156653,51.379782
Ubroekweg,45,,,5928NM,Venlo,Venlo,Limburg,VBO,6.156699,51.379971
Ubroekweg,47,,,5928NM,Venlo,Venlo,Limburg,VBO,6.156752,51.380077
Ubroekweg,49,,,5928NM,Venlo,Venlo,Limburg,VBO,6.156793,51.380199
Ubroekweg,51,,,5928NM,Venlo,Venlo,Limburg,VBO,6.156814,51.380263
Ubroekweg,53,,,5928NM,Venlo,Venlo,Limburg,VBO,6.156882,51.380404
Nagelkampweg,1,,,5928NN,Venlo,Venlo,Limburg,VBO,6.148176,51.379116
Nagelkampweg,2,,,5928NN,Venlo,Venlo,Limburg,VBO,6.147981,51.378871
Nagelkampweg,3,,,5928NN,Venlo,Venlo,Limburg,VBO,6.148501,51.379149
Nagelkampweg,4,,,5928NN,Venlo,Venlo,Limburg,VBO,6.148559,51.379001
Nagelkampweg,6,,,5928NN,Venlo,Venlo,Limburg,VBO,6.148802,51.379039
Nagelkampweg,8,,,5928NN,Venlo,Venlo,Limburg,VBO,6.149065,51.379044
Sint Annaweg,41,,,5928NP,Venlo,Venlo,Limburg,VBO,6.145393,51.380374
Sint Annaweg,43,,,5928NP,Venlo,Venlo,Limburg,VBO,6.145486,51.380399
Sint Annaweg,45,,,5928NP,Venlo,Venlo,Limburg,VBO,6.145563,51.380419
Sint Annaweg,46,,,5928NP,Venlo,Venlo,Limburg,VBO,6.145552,51.380214
Sint Annaweg,47,,,5928NP,Venlo,Venlo,Limburg,VBO,6.145640,51.380440
Sint Annaweg,49,,,5928NP,Venlo,Venlo,Limburg,VBO,6.145717,51.380460
Baasdonkweg,1,A,,5928NR,Venlo,Venlo,Limburg,VBO,6.143405,51.378441
Baasdonkweg,1,B,,5928NR,Venlo,Venlo,Limburg,VBO,6.143629,51.378379
Baasdonkweg,1,C,,5928NR,Venlo,Venlo,Limburg,VBO,6.143541,51.378416
Baasdonkweg,1,D,,5928NR,Venlo,Venlo,Limburg,VBO,6.143581,51.378425
Baasdonkweg,1,,,5928NR,Venlo,Venlo,Limburg,VBO,6.143567,51.378384
Baasdonkweg,10,,,5928NR,Venlo,Venlo,Limburg,VBO,6.142739,51.380478
Baasdonkweg,11,,,5928NR,Venlo,Venlo,Limburg,VBO,6.143172,51.379121
Baasdonkweg,13,,,5928NR,Venlo,Venlo,Limburg,VBO,6.143089,51.379240
Baasdonkweg,25,,,5928NR,Venlo,Venlo,Limburg,VBO,6.142311,51.380244
Groot Bollerweg,2,A,,5928NS,Venlo,Venlo,Limburg,VBO,6.158008,51.384792
Groot Bollerweg,2,,,5928NS,Venlo,Venlo,Limburg,VBO,6.158458,51.384516
Groot Bollerweg,4,,,5928NS,Venlo,Venlo,Limburg,VBO,6.158077,51.383992
Groot Bollerweg,6,,,5928NS,Venlo,Venlo,Limburg,VBO,6.156137,51.383279
Groot Bollerweg,8,,,5928NS,Venlo,Venlo,Limburg,VBO,6.155584,51.383283
Groot Bollerweg,10,A,,5928NS,Venlo,Venlo,Limburg,VBO,6.154773,51.382964
Groot Bollerweg,10,B,,5928NS,Venlo,Venlo,Limburg,VBO,6.154784,51.382892
Groot Bollerweg,10,,,5928NS,Venlo,Venlo,Limburg,VBO,6.155257,51.383089
Groot Bollerweg,12,A,,5928NS,Venlo,Venlo,Limburg,VBO,6.152801,51.382488
Groot Bollerweg,12,,,5928NS,Venlo,Venlo,Limburg,VBO,6.153724,51.382651
Groot Bollerweg,14,,,5928NS,Venlo,Venlo,Limburg,VBO,6.151741,51.382284
Groot Bollerweg,24,,,5928NS,Venlo,Venlo,Limburg,VBO,6.147377,51.382076
Groot Bollerweg,25,,,5928NS,Venlo,Venlo,Limburg,VBO,6.150279,51.381711
Jachthavenweg,2,,,5928NT,Venlo,Venlo,Limburg,VBO,6.143128,51.389151
Jachthavenweg,3,,,5928NT,Venlo,Venlo,Limburg,VBO,6.144132,51.389542
Jachthavenweg,5,,,5928NT,Venlo,Venlo,Limburg,VBO,6.144766,51.389579
Jachthavenweg,9,,,5928NT,Venlo,Venlo,Limburg,VBO,6.145416,51.389643
Jachthavenweg,10,,,5928NT,Venlo,Venlo,Limburg,VBO,6.145000,51.389305
Jachthavenweg,11,,,5928NT,Venlo,Venlo,Limburg,VBO,6.145902,51.389721
Jachthavenweg,12,,,5928NT,Venlo,Venlo,Limburg,VBO,6.145731,51.389372
Jachthavenweg,14,,,5928NT,Venlo,Venlo,Limburg,VBO,6.146166,51.389398
Jachthavenweg,46,,,5928NT,Venlo,Venlo,Limburg,VBO,6.149337,51.390936
Jachthavenweg,48,,,5928NT,Venlo,Venlo,Limburg,VBO,6.148983,51.391419
Jachthavenweg,50,A,,5928NT,Venlo,Venlo,Limburg,VBO,6.148952,51.391736
Jachthavenweg,50,,,5928NT,Venlo,Venlo,Limburg,VBO,6.148992,51.391667
Jachthavenweg,52,,,5928NT,Venlo,Venlo,Limburg,VBO,6.148921,51.391788
Parlevinkerweg,1,,,5928NV,Venlo,Venlo,Limburg,VBO,6.150510,51.382429
Parlevinkerweg,2,A,,5928NV,Venlo,Venlo,Limburg,VBO,6.151537,51.383113
Parlevinkerweg,2,B,,5928NV,Venlo,Venlo,Limburg,VBO,6.151489,51.383186
Parlevinkerweg,2,,,5928NV,Venlo,Venlo,Limburg,VBO,6.151116,51.382794
Parlevinkerweg,5,,,5928NV,Venlo,Venlo,Limburg,VBO,6.149686,51.382367
Parlevinkerweg,8,,,5928NV,Venlo,Venlo,Limburg,VBO,6.148990,51.383063
Parlevinkerweg,15,,,5928NV,Venlo,Venlo,Limburg,VBO,6.143428,51.388517
Parlevinkerweg,20,,,5928NV,Venlo,Venlo,Limburg,VBO,6.148242,51.383916
Parlevinkerweg,24,,,5928NV,Venlo,Venlo,Limburg,VBO,6.148711,51.384652
Parlevinkerweg,26,,,5928NV,Venlo,Venlo,Limburg,VBO,6.148305,51.384500
Parlevinkerweg,30,,,5928NV,Venlo,Venlo,Limburg,VBO,6.148084,51.385690
Parlevinkerweg,32,,,5928NV,Venlo,Venlo,Limburg,VBO,6.146889,51.384950
Parlevinkerweg,34,,,5928NV,Venlo,Venlo,Limburg,VBO,6.146384,51.385637
Parlevinkerweg,38,,,5928NV,Venlo,Venlo,Limburg,VBO,6.145911,51.385943
Parlevinkerweg,40,,,5928NV,Venlo,Venlo,Limburg,VBO,6.146843,51.386465
Parlevinkerweg,42,,,5928NV,Venlo,Venlo,Limburg,VBO,6.145465,51.386670
Parlevinkerweg,44,,,5928NV,Venlo,Venlo,Limburg,VBO,6.145033,51.386992
Parlevinkerweg,54,,,5928NV,Venlo,Venlo,Limburg,VBO,6.144155,51.388034
Parlevinkerweg,56,,,5928NV,Venlo,Venlo,Limburg,VBO,6.144067,51.388798
Doctor Lelyweg,3,,,5928NW,Venlo,Venlo,Limburg,VBO,6.143088,51.391030
Doctor Lelyweg,4,,,5928NW,Venlo,Venlo,Limburg,VBO,6.143815,51.390284
Doctor Lelyweg,7,,,5928NW,Venlo,Venlo,Limburg,VBO,6.144691,51.390405
Doctor Lelyweg,8,,,5928NW,Venlo,Venlo,Limburg,VBO,6.145112,51.390440
Doctor Lelyweg,9,,,5928NW,Venlo,Venlo,Limburg,VBO,6.145065,51.390687
Doctor Lelyweg,11,,,5928NW,Venlo,Venlo,Limburg,VBO,6.145381,51.391218
Doctor Lelyweg,12,,,5928NW,Venlo,Venlo,Limburg,VBO,6.145747,51.390501
Grubbenvorsterweg,2,,,5928NX,Venlo,Venlo,Limburg,VBO,6.143119,51.389843
Grubbenvorsterweg,6,,,5928NX,Venlo,Venlo,Limburg,VBO,6.142552,51.390178
Grubbenvorsterweg,10,,,5928NX,Venlo,Venlo,Limburg,VBO,6.142770,51.392661
Grubbenvorsterweg,12,,,5928NX,Venlo,Venlo,Limburg,VBO,6.145094,51.392868
Venrayseweg,26,,,5928NZ,Venlo,Venlo,Limburg,VBO,6.161309,51.376639
Venrayseweg,28,,,5928NZ,Venlo,Venlo,Limburg,VBO,6.159660,51.377241
Venrayseweg,30,,,5928NZ,Venlo,Venlo,Limburg,VBO,6.158456,51.377551
Venrayseweg,32,,,5928NZ,Venlo,Venlo,Limburg,VBO,6.157310,51.377917
Venrayseweg,40,,,5928NZ,Venlo,Venlo,Limburg,VBO,6.155149,51.378909
Venrayseweg,42,,,5928NZ,Venlo,Venlo,Limburg,VBO,6.155063,51.379123
Venrayseweg,44,A,,5928NZ,Venlo,Venlo,Limburg,VBO,6.153811,51.379479
Venrayseweg,44,,,5928NZ,Venlo,Venlo,Limburg,VBO,6.154092,51.379359
Groot Egtenrayseweg,13,,,5928PA,Venlo,Venlo,Limburg,VBO,6.143453,51.381988
Groot Egtenrayseweg,21,,,5928PA,Venlo,Venlo,Limburg,VBO,6.140169,51.385833
Groot Egtenrayseweg,23,,,5928PA,Venlo,Venlo,Limburg,VBO,6.139920,51.386134
Groot Egtenrayseweg,36,A,,5928PA,Venlo,Venlo,Limburg,VBO,6.142566,51.383989
Groot Egtenrayseweg,36,B,,5928PA,Venlo,Venlo,Limburg,VBO,6.142654,51.383883
Groot Egtenrayseweg,36,,,5928PA,Venlo,Venlo,Limburg,VBO,6.142588,51.383877
Groot Egtenrayseweg,38,,,5928PA,Venlo,Venlo,Limburg,VBO,6.142408,51.384156
Groot Egtenrayseweg,40,,,5928PA,Venlo,Venlo,Limburg,VBO,6.142219,51.384300
Groot Egtenrayseweg,42,,,5928PA,Venlo,Venlo,Limburg,VBO,6.142114,51.384538
Groot Egtenrayseweg,44,,,5928PA,Venlo,Venlo,Limburg,VBO,6.141780,51.384804
Groot Egtenrayseweg,52,,,5928PA,Venlo,Venlo,Limburg,VBO,6.141065,51.385780
Groot Egtenrayseweg,56,,,5928PA,Venlo,Venlo,Limburg,VBO,6.142166,51.385764
Groot Egtenrayseweg,58,,,5928PA,Venlo,Venlo,Limburg,VBO,6.140711,51.385981
Groot Egtenrayseweg,60,,,5928PA,Venlo,Venlo,Limburg,VBO,6.140473,51.386457
Groot Egtenrayseweg,62,,,5928PA,Venlo,Venlo,Limburg,VBO,6.141097,51.387187
Groot Egtenrayseweg,64,,,5928PA,Venlo,Venlo,Limburg,VBO,6.139861,51.386760
Groot Egtenrayseweg,70,,,5928PA,Venlo,Venlo,Limburg,VBO,6.139760,51.386865
Groot Egtenrayseweg,72,,,5928PA,Venlo,Venlo,Limburg,VBO,6.139645,51.386987
Groot Egtenrayseweg,76,,,5928PA,Venlo,Venlo,Limburg,VBO,6.139540,51.387096
Groot Egtenrayseweg,78,,,5928PA,Venlo,Venlo,Limburg,VBO,6.139204,51.387448
Groot Egtenrayseweg,80,,,5928PA,Venlo,Venlo,Limburg,VBO,6.139035,51.387625
Wattstraat,3,,,5928PB,Venlo,Venlo,Limburg,VBO,6.140368,51.381766
Wattstraat,6,,,5928PB,Venlo,Venlo,Limburg,VBO,6.139639,51.383250
Wattstraat,7,,,5928PB,Venlo,Venlo,Limburg,VBO,6.139888,51.382507
Wattstraat,9,A,,5928PB,Venlo,Venlo,Limburg,VBO,6.139229,51.382713
Wattstraat,9,B,,5928PB,Venlo,Venlo,Limburg,VBO,6.139110,51.382818
Wattstraat,9,C,,5928PB,Venlo,Venlo,Limburg,VBO,6.139004,51.382921
Wattstraat,9,,,5928PB,Venlo,Venlo,Limburg,VBO,6.139633,51.382802
Voltastraat,3,,,5928PC,Venlo,Venlo,Limburg,VBO,6.138356,51.382548
Voltastraat,5,,,5928PC,Venlo,Venlo,Limburg,VBO,6.138060,51.382272
Voltastraat,7,A,,5928PC,Venlo,Venlo,Limburg,VBO,6.137437,51.382445
Voltastraat,7,B,,5928PC,Venlo,Venlo,Limburg,VBO,6.137522,51.382358
Voltastraat,7,C,,5928PC,Venlo,Venlo,Limburg,VBO,6.137624,51.382252
Voltastraat,7,D,,5928PC,Venlo,Venlo,Limburg,VBO,6.137722,51.382159
Voltastraat,7,E,,5928PC,Venlo,Venlo,Limburg,VBO,6.137856,51.382029
Voltastraat,7,F,,5928PC,Venlo,Venlo,Limburg,VBO,6.137937,51.381942
Voltastraat,9,A,,5928PC,Venlo,Venlo,Limburg,VBO,6.137672,51.381830
Voltastraat,9,B,,5928PC,Venlo,Venlo,Limburg,VBO,6.137571,51.381919
Voltastraat,9,,,5928PC,Venlo,Venlo,Limburg,VBO,6.137439,51.382147
Voltastraat,11,,,5928PC,Venlo,Venlo,Limburg,VBO,6.137296,51.382063
Voltastraat,13,,,5928PC,Venlo,Venlo,Limburg,VBO,6.136908,51.382240
Voltastraat,15,,,5928PC,Venlo,Venlo,Limburg,VBO,6.136745,51.382178
Voltastraat,17,,,5928PC,Venlo,Venlo,Limburg,VBO,6.136545,51.382090
Voltastraat,19,,,5928PC,Venlo,Venlo,Limburg,VBO,6.136154,51.381934
Voltastraat,21,A,,5928PC,Venlo,Venlo,Limburg,VBO,6.135794,51.381787
Voltastraat,21,,,5928PC,Venlo,Venlo,Limburg,VBO,6.135883,51.381824
Voltastraat,23,,,5928PC,Venlo,Venlo,Limburg,VBO,6.136303,51.381554
Voltastraat,25,,,5928PC,Venlo,Venlo,Limburg,VBO,6.136551,51.381413
Voltastraat,27,,,5928PC,Venlo,Venlo,Limburg,VBO,6.136954,51.381256
Voltastraat,2,,,5928PD,Venlo,Venlo,Limburg,VBO,6.139080,51.383449
Voltastraat,4,A,,5928PD,Venlo,Venlo,Limburg,VBO,6.138805,51.383319
Voltastraat,4,,,5928PD,Venlo,Venlo,Limburg,VBO,6.138961,51.383369
Voltastraat,6,,,5928PD,Venlo,Venlo,Limburg,VBO,6.138731,51.383201
Voltastraat,8,,,5928PD,Venlo,Venlo,Limburg,VBO,6.138165,51.382972
Voltastraat,10,A,,5928PD,Venlo,Venlo,Limburg,VBO,6.137691,51.382896
Voltastraat,10,B,,5928PD,Venlo,Venlo,Limburg,VBO,6.137518,51.382861
Voltastraat,10,,,5928PD,Venlo,Venlo,Limburg,VBO,6.138027,51.382915
Voltastraat,12,A,,5928PD,Venlo,Venlo,Limburg,VBO,6.137161,51.382714
Voltastraat,12,B,,5928PD,Venlo,Venlo,Limburg,VBO,6.137014,51.382653
Voltastraat,12,,,5928PD,Venlo,Venlo,Limburg,VBO,6.137350,51.382792
Voltastraat,14,A,,5928PD,Venlo,Venlo,Limburg,VBO,6.136617,51.382498
Voltastraat,14,,,5928PD,Venlo,Venlo,Limburg,VBO,6.136808,51.382575
Voltastraat,16,,,5928PD,Venlo,Venlo,Limburg,VBO,6.136560,51.382328
Voltastraat,20,,,5928PD,Venlo,Venlo,Limburg,VBO,6.135971,51.382147
Voltastraat,22,,,5928PD,Venlo,Venlo,Limburg,VBO,6.135879,51.382109
Voltastraat,24,,,5928PD,Venlo,Venlo,Limburg,VBO,6.135551,51.382030
Voltastraat,28,,,5928PD,Venlo,Venlo,Limburg,VBO,6.135144,51.381892
Ampèrestraat,7,,,5928PE,Venlo,Venlo,Limburg,VBO,6.138128,51.384542
Ampèrestraat,9,,,5928PE,Venlo,Venlo,Limburg,VBO,6.137563,51.385215
Ampèrestraat,10,,,5928PE,Venlo,Venlo,Limburg,VBO,6.136272,51.387218
Ampèrestraat,17,,,5928PE,Venlo,Venlo,Limburg,VBO,6.136077,51.386519
Edisonstraat,1,,,5928PG,Venlo,Venlo,Limburg,VBO,6.134944,51.386088
Edisonstraat,4,,,5928PG,Venlo,Venlo,Limburg,VBO,6.134803,51.386639
Edisonstraat,8,,,5928PG,Venlo,Venlo,Limburg,VBO,6.132962,51.385941
Edisonstraat,9,,,5928PG,Venlo,Venlo,Limburg,VBO,6.134304,51.384844
Edisonstraat,10,,,5928PG,Venlo,Venlo,Limburg,VBO,6.132642,51.385783
Edisonstraat,12,,,5928PG,Venlo,Venlo,Limburg,VBO,6.131791,51.386548
Egtenrayseweg,9,,,5928PH,Venlo,Venlo,Limburg,VBO,6.138846,51.389341
Egtenrayseweg,20,,,5928PH,Venlo,Venlo,Limburg,VBO,6.139268,51.388084
Egtenrayseweg,22,,,5928PH,Venlo,Venlo,Limburg,VBO,6.139657,51.388062
Egtenrayseweg,26,,,5928PH,Venlo,Venlo,Limburg,VBO,6.140308,51.388343
Egtenrayseweg,28,,,5928PH,Venlo,Venlo,Limburg,VBO,6.141704,51.387632
Egtenrayseweg,30,,,5928PH,Venlo,Venlo,Limburg,VBO,6.141070,51.388694
Egtenrayseweg,35,,,5928PH,Venlo,Venlo,Limburg,VBO,6.137131,51.387933
Marconistraat,7,,,5928PJ,Venlo,Venlo,Limburg,VBO,6.144490,51.378369
Marconistraat,11,,,5928PJ,Venlo,Venlo,Limburg,VBO,6.146095,51.378203
Marconistraat,12,,,5928PJ,Venlo,Venlo,Limburg,VBO,6.144112,51.378718
Marconistraat,14,,,5928PJ,Venlo,Venlo,Limburg,VBO,6.144087,51.378653
Marconistraat,15,,,5928PJ,Venlo,Venlo,Limburg,VBO,6.146491,51.377483
Marconistraat,16,,,5928PJ,Venlo,Venlo,Limburg,VBO,6.144067,51.378598
Marconistraat,18,,,5928PJ,Venlo,Venlo,Limburg,VBO,6.144046,51.378541
Marconistraat,20,,,5928PJ,Venlo,Venlo,Limburg,VBO,6.144018,51.378468
Ankerkade,5,,,5928PL,Venlo,Venlo,Limburg,VBO,6.152816,51.389276
Ankerkade,6,,,5928PL,Venlo,Venlo,Limburg,VBO,6.154115,51.387473
Ankerkade,7,,,5928PL,Venlo,Venlo,Limburg,VBO,6.152918,51.389089
Ankerkade,8,,,5928PL,Venlo,Venlo,Limburg,VBO,6.154067,51.388097
Ankerkade,10,,,5928PL,Venlo,Venlo,Limburg,VBO,6.154158,51.388421
Ankerkade,12,,,5928PL,Venlo,Venlo,Limburg,VBO,6.153755,51.388566
Ankerkade,14,,,5928PL,Venlo,Venlo,Limburg,VBO,6.153630,51.388870
Ankerkade,16,,,5928PL,Venlo,Venlo,Limburg,VBO,6.153570,51.388962
Ankerkade,18,,,5928PL,Venlo,Venlo,Limburg,VBO,6.153313,51.389235
Ankerkade,20,A,,5928PL,Venlo,Venlo,Limburg,VBO,6.153146,51.389670
Ankerkade,20,,,5928PL,Venlo,Venlo,Limburg,VBO,6.153467,51.390134
Greyenstraat,1,,,5928PM,Venlo,Venlo,Limburg,VBO,6.153353,51.375999
Greyenstraat,2,,,5928PM,Venlo,Venlo,Limburg,VBO,6.153815,51.375845
Greyenstraat,3,,,5928PM,Venlo,Venlo,Limburg,VBO,6.153358,51.376052
Greyenstraat,4,,,5928PM,Venlo,Venlo,Limburg,VBO,6.153883,51.376109
Greyenstraat,6,,,5928PM,Venlo,Venlo,Limburg,VBO,6.153782,51.376287
Greyenstraat,11,,,5928PM,Venlo,Venlo,Limburg,VBO,6.153233,51.376622
Greyenstraat,13,,,5928PM,Venlo,Venlo,Limburg,VBO,6.153240,51.376705
Greyenstraat,15,,,5928PM,Venlo,Venlo,Limburg,VBO,6.153247,51.376787
Greyenstraat,17,,,5928PM,Venlo,Venlo,Limburg,VBO,6.153253,51.376871
Greyenstraat,19,,,5928PM,Venlo,Venlo,Limburg,VBO,6.152899,51.376946
Greyenstraat,21,,,5928PM,Venlo,Venlo,Limburg,VBO,6.152573,51.376989
Greyenstraat,23,,,5928PM,Venlo,Venlo,Limburg,VBO,6.152283,51.377014
Greyenstraat,25,,,5928PM,Venlo,Venlo,Limburg,VBO,6.151955,51.377068
Greyenstraat,27,,,5928PM,Venlo,Venlo,Limburg,VBO,6.151710,51.377138
Greyenstraat,29,,,5928PM,Venlo,Venlo,Limburg,VBO,6.151559,51.377297
Greyenstraat,31,,,5928PM,Venlo,Venlo,Limburg,VBO,6.151392,51.377422
Greyenstraat,33,,,5928PM,Venlo,Venlo,Limburg,VBO,6.151308,51.377486
Greyenstraat,35,,,5928PM,Venlo,Venlo,Limburg,VBO,6.151136,51.377553
Greyenstraat,37,,,5928PM,Venlo,Venlo,Limburg,VBO,6.151060,51.377600
Greyenstraat,39,,,5928PM,Venlo,Venlo,Limburg,VBO,6.150909,51.377660
Greyenstraat,41,,,5928PM,Venlo,Venlo,Limburg,VBO,6.150823,51.377707
Greyenstraat,49,,,5928PM,Venlo,Venlo,Limburg,VBO,6.150484,51.377784
Greyenstraat,51,,,5928PM,Venlo,Venlo,Limburg,VBO,6.150300,51.377795
Greyenstraat,53,,,5928PM,Venlo,Venlo,Limburg,VBO,6.150043,51.377864
Greyenstraat,55,A,,5928PM,Venlo,Venlo,Limburg,VBO,6.149882,51.377964
Greyenstraat,55,,,5928PM,Venlo,Venlo,Limburg,VBO,6.149946,51.377933
Greyenstraat,57,,,5928PM,Venlo,Venlo,Limburg,VBO,6.149743,51.378064
Greyenstraat,59,,,5928PM,Venlo,Venlo,Limburg,VBO,6.149604,51.378180
Greyenstraat,61,,,5928PM,Venlo,Venlo,Limburg,VBO,6.149463,51.378382
Greyenstraat,63,,,5928PM,Venlo,Venlo,Limburg,VBO,6.149392,51.378354
Greyenstraat,65,,,5928PM,Venlo,Venlo,Limburg,VBO,6.149268,51.378331
Greyenstraat,67,,,5928PM,Venlo,Venlo,Limburg,VBO,6.149093,51.378342
Greyenstraat,69,,,5928PM,Venlo,Venlo,Limburg,VBO,6.148960,51.378490
Greyenstraat,71,,,5928PM,Venlo,Venlo,Limburg,VBO,6.149055,51.378576
Greyenstraat,73,,,5928PM,Venlo,Venlo,Limburg,VBO,6.149214,51.378604
Greyenstraat,75,,,5928PM,Venlo,Venlo,Limburg,VBO,6.149327,51.378624
Greyenstraat,77,,,5928PM,Venlo,Venlo,Limburg,VBO,6.149505,51.378548
Greyenstraat,79,,,5928PM,Venlo,Venlo,Limburg,VBO,6.149517,51.378673
Newtonweg,9,,,5928PN,Venlo,Venlo,Limburg,VBO,6.123838,51.387297
Newtonweg,10,,,5928PN,Venlo,Venlo,Limburg,VBO,6.130069,51.386017
Newtonweg,12,,,5928PN,Venlo,Venlo,Limburg,VBO,6.130799,51.386297
Newtonweg,13,,,5928PN,Venlo,Venlo,Limburg,VBO,6.129079,51.386292
Newtonweg,15,,,5928PN,Venlo,Venlo,Limburg,VBO,6.130861,51.387911
Newtonweg,20,,,5928PN,Venlo,Venlo,Limburg,VBO,6.131881,51.387459
Newtonweg,23,A,,5928PN,Venlo,Venlo,Limburg,VBO,6.132135,51.388646
Newtonweg,23,,,5928PN,Venlo,Venlo,Limburg,VBO,6.131991,51.388549
Newtonweg,25,,,5928PN,Venlo,Venlo,Limburg,VBO,6.133370,51.389561
Archimedesweg,2,A,,5928PP,Venlo,Venlo,Limburg,VBO,6.138354,51.390386
Archimedesweg,2,,,5928PP,Venlo,Venlo,Limburg,VBO,6.138609,51.390454
Archimedesweg,12,,,5928PP,Venlo,Venlo,Limburg,VBO,6.137456,51.390027
Archimedesweg,19,,,5928PP,Venlo,Venlo,Limburg,VBO,6.135513,51.389027
Celsiusweg,4,,,5928PR,Venlo,Venlo,Limburg,VBO,6.140153,51.393134
Celsiusweg,5,,,5928PR,Venlo,Venlo,Limburg,VBO,6.140029,51.392099
Celsiusweg,7,,,5928PR,Venlo,Venlo,Limburg,VBO,6.138814,51.391883
Celsiusweg,8,,,5928PR,Venlo,Venlo,Limburg,VBO,6.138339,51.392968
Celsiusweg,9,,,5928PR,Venlo,Venlo,Limburg,VBO,6.137802,51.391928
Celsiusweg,15,,,5928PR,Venlo,Venlo,Limburg,VBO,6.136276,51.391732
Celsiusweg,16,,,5928PR,Venlo,Venlo,Limburg,VBO,6.136851,51.392231
Celsiusweg,18,,,5928PR,Venlo,Venlo,Limburg,VBO,6.136259,51.392323
Celsiusweg,20,B,,5928PR,Venlo,Venlo,Limburg,VBO,6.135604,51.392121
Celsiusweg,20,,,5928PR,Venlo,Venlo,Limburg,VBO,6.134627,51.392202
Celsiusweg,23,,,5928PR,Venlo,Venlo,Limburg,VBO,6.135355,51.391568
Celsiusweg,25,A,,5928PR,Venlo,Venlo,Limburg,VBO,6.135931,51.390661
Celsiusweg,25,,,5928PR,Venlo,Venlo,Limburg,VBO,6.135585,51.390943
Celsiusweg,30,,,5928PR,Venlo,Venlo,Limburg,VBO,6.133379,51.391442
Celsiusweg,32,,,5928PR,Venlo,Venlo,Limburg,VBO,6.134092,51.391383
Celsiusweg,34,,,5928PR,Venlo,Venlo,Limburg,VBO,6.134068,51.391418
Celsiusweg,35,A,,5928PR,Venlo,Venlo,Limburg,VBO,6.135423,51.389814
Celsiusweg,35,B,,5928PR,Venlo,Venlo,Limburg,VBO,6.135555,51.389880
Celsiusweg,35,,,5928PR,Venlo,Venlo,Limburg,VBO,6.135253,51.389658
Celsiusweg,38,,,5928PR,Venlo,Venlo,Limburg,VBO,6.134068,51.391418
Celsiusweg,46,,,5928PR,Venlo,Venlo,Limburg,VBO,6.134092,51.391383
Celsiusweg,48,,,5928PR,Venlo,Venlo,Limburg,VBO,6.134092,51.391383
Celsiusweg,52,,,5928PR,Venlo,Venlo,Limburg,VBO,6.134092,51.391383
Celsiusweg,58,,,5928PR,Venlo,Venlo,Limburg,VBO,6.134068,51.391418
Celsiusweg,60,,,5928PR,Venlo,Venlo,Limburg,VBO,6.134574,51.390207
Celsiusweg,66,A,,5928PR,Venlo,Venlo,Limburg,VBO,6.134344,51.389186
Celsiusweg,66,,,5928PR,Venlo,Venlo,Limburg,VBO,6.134486,51.389055
Celsiusweg,68,,,5928PR,Venlo,Venlo,Limburg,VBO,6.134864,51.387833
Celsiusweg,70,,,5928PR,Venlo,Venlo,Limburg,VBO,6.135260,51.387364
Celsiusweg,72,,,5928PR,Venlo,Venlo,Limburg,VBO,6.135423,51.387208
Celsiusweg,74,,,5928PR,Venlo,Venlo,Limburg,VBO,6.135733,51.386907
Kelvinweg,1,A,,5928PS,Venlo,Venlo,Limburg,VBO,6.141020,51.386554
Kelvinweg,1,,,5928PS,Venlo,Venlo,Limburg,VBO,6.140932,51.386522
Kelvinweg,3,,,5928PS,Venlo,Venlo,Limburg,VBO,6.141103,51.386585
Kelvinweg,5,,,5928PS,Venlo,Venlo,Limburg,VBO,6.141264,51.386646
Kelvinweg,8,,,5928PS,Venlo,Venlo,Limburg,VBO,6.141926,51.386483
Kelvinweg,10,,,5928PS,Venlo,Venlo,Limburg,VBO,6.142087,51.386777
Rijnaakkade,3,,,5928PT,Venlo,Venlo,Limburg,VBO,6.155326,51.385775
Rijnaakkade,5,,,5928PT,Venlo,Venlo,Limburg,VBO,6.156196,51.386040
Rijnaakkade,6,,,5928PT,Venlo,Venlo,Limburg,VBO,6.157781,51.385623
Rijnaakkade,7,,,5928PT,Venlo,Venlo,Limburg,VBO,6.155887,51.386599
Rijnaakkade,10,,,5928PT,Venlo,Venlo,Limburg,VBO,6.156541,51.386406
Rijnaakkade,11,,,5928PT,Venlo,Venlo,Limburg,VBO,6.155642,51.386985
Rijnaakkade,15,,,5928PT,Venlo,Venlo,Limburg,VBO,6.154948,51.387612
Rijnaakkade,16,,,5928PT,Venlo,Venlo,Limburg,VBO,6.156064,51.387326
Rijnaakkade,20,,,5928PT,Venlo,Venlo,Limburg,VBO,6.155759,51.388117
Alerbeemdweg,3,,,5928PV,Venlo,Venlo,Limburg,VBO,6.157535,51.378069
Alerbeemdweg,5,,,5928PV,Venlo,Venlo,Limburg,VBO,6.158160,51.378566
Alerbeemdweg,7,,,5928PV,Venlo,Venlo,Limburg,VBO,6.158175,51.378657
Alerbeemdweg,25,,,5928PV,Venlo,Venlo,Limburg,VBO,6.158269,51.379289
Alerbeemdweg,29,A,,5928PV,Venlo,Venlo,Limburg,VBO,6.158223,51.379814
Alerbeemdweg,29,B,,5928PV,Venlo,Venlo,Limburg,VBO,6.158236,51.379861
Alerbeemdweg,29,C,,5928PV,Venlo,Venlo,Limburg,VBO,6.158254,51.379903
Alerbeemdweg,29,,,5928PV,Venlo,Venlo,Limburg,VBO,6.158352,51.379768
Marinus Dammeweg,2,,,5928PW,Venlo,Venlo,Limburg,VBO,6.156672,51.378406
Marinus Dammeweg,3,,,5928PW,Venlo,Venlo,Limburg,VBO,6.157258,51.378610
Marinus Dammeweg,4,,,5928PW,Venlo,Venlo,Limburg,VBO,6.156875,51.378382
Marinus Dammeweg,5,,,5928PW,Venlo,Venlo,Limburg,VBO,6.157410,51.378592
Marinus Dammeweg,7,,,5928PW,Venlo,Venlo,Limburg,VBO,6.157798,51.378545
Marinus Dammeweg,8,,,5928PW,Venlo,Venlo,Limburg,VBO,6.157174,51.378331
Marinus Dammeweg,17,,,5928PW,Venlo,Venlo,Limburg,VBO,6.158655,51.378348
Marinus Dammeweg,19,,,5928PW,Venlo,Venlo,Limburg,VBO,6.158863,51.378397
Marinus Dammeweg,25,,,5928PW,Venlo,Venlo,Limburg,VBO,6.159162,51.378217
Marinus Dammeweg,30,,,5928PW,Venlo,Venlo,Limburg,VBO,6.160599,51.378718
Marinus Dammeweg,31,,,5928PW,Venlo,Venlo,Limburg,VBO,6.159535,51.378105
Marinus Dammeweg,34,A,,5928PW,Venlo,Venlo,Limburg,VBO,6.161371,51.379159
Marinus Dammeweg,34,,,5928PW,Venlo,Venlo,Limburg,VBO,6.161454,51.379028
Marinus Dammeweg,35,,,5928PW,Venlo,Venlo,Limburg,VBO,6.159851,51.379003
Marinus Dammeweg,36,A,,5928PW,Venlo,Venlo,Limburg,VBO,6.161123,51.379325
Marinus Dammeweg,36,,,5928PW,Venlo,Venlo,Limburg,VBO,6.161186,51.379226
Marinus Dammeweg,38,,,5928PW,Venlo,Venlo,Limburg,VBO,6.161036,51.379462
Marinus Dammeweg,42,,,5928PW,Venlo,Venlo,Limburg,VBO,6.160539,51.380323
Marinus Dammeweg,55,,,5928PW,Venlo,Venlo,Limburg,VBO,6.159126,51.380095
Marinus Dammeweg,56,,,5928PW,Venlo,Venlo,Limburg,VBO,6.159069,51.380330
Marinus Dammeweg,59,,,5928PW,Venlo,Venlo,Limburg,VBO,6.157906,51.380132
Marinus Dammeweg,61,,,5928PW,Venlo,Venlo,Limburg,VBO,6.157321,51.380169
Marinus Dammeweg,66,,,5928PW,Venlo,Venlo,Limburg,VBO,6.158095,51.380355
Marinus Dammeweg,67,,,5928PW,Venlo,Venlo,Limburg,VBO,6.156108,51.380275
Deltakade,1,A,,5928PX,Venlo,Venlo,Limburg,VBO,6.155989,51.383688
Deltakade,1,,,5928PX,Venlo,Venlo,Limburg,VBO,6.155788,51.383887
Deltakade,2,,,5928PX,Venlo,Venlo,Limburg,VBO,6.156551,51.383651
Deltakade,3,,,5928PX,Venlo,Venlo,Limburg,VBO,6.155519,51.384413
Deltakade,5,,,5928PX,Venlo,Venlo,Limburg,VBO,6.154805,51.384472
Deltakade,7,,,5928PX,Venlo,Venlo,Limburg,VBO,6.154782,51.385274
Deltakade,8,,,5928PX,Venlo,Venlo,Limburg,VBO,6.155665,51.385373
Deltakade,9,A,,5928PX,Venlo,Venlo,Limburg,VBO,6.154363,51.385164
Deltakade,9,,,5928PX,Venlo,Venlo,Limburg,VBO,6.154429,51.385179
Deltakade,11,,,5928PX,Venlo,Venlo,Limburg,VBO,6.154289,51.385146
Deltakade,13,,,5928PX,Venlo,Venlo,Limburg,VBO,6.154440,51.384863
Tjalkkade,2,,,5928PZ,Venlo,Venlo,Limburg,VBO,6.154285,51.383433
Tjalkkade,4,,,5928PZ,Venlo,Venlo,Limburg,VBO,6.154045,51.383792
Tjalkkade,6,,,5928PZ,Venlo,Venlo,Limburg,VBO,6.153691,51.384265
Tjalkkade,8,,,5928PZ,Venlo,Venlo,Limburg,VBO,6.153475,51.384464
Tjalkkade,9,,,5928PZ,Venlo,Venlo,Limburg,VBO,6.153264,51.384106
Tjalkkade,10,,,5928PZ,Venlo,Venlo,Limburg,VBO,6.153519,51.384713
Tjalkkade,12,A,,5928PZ,Venlo,Venlo,Limburg,VBO,6.152637,51.386404
Tjalkkade,12,,,5928PZ,Venlo,Venlo,Limburg,VBO,6.152943,51.385950
Tjalkkade,13,,,5928PZ,Venlo,Venlo,Limburg,VBO,6.152020,51.385458
Tjalkkade,14,,,5928PZ,Venlo,Venlo,Limburg,VBO,6.151463,51.387846
Tjalkkade,15,A,,5928PZ,Venlo,Venlo,Limburg,VBO,6.151486,51.385953
Tjalkkade,15,,,5928PZ,Venlo,Venlo,Limburg,VBO,6.151204,51.385472
Tjalkkade,16,,,5928PZ,Venlo,Venlo,Limburg,VBO,6.151179,51.388062
Tjalkkade,17,,,5928PZ,Venlo,Venlo,Limburg,VBO,6.151581,51.386506
Tjalkkade,19,,,5928PZ,Venlo,Venlo,Limburg,VBO,6.151178,51.386464
Tjalkkade,21,,,5928PZ,Venlo,Venlo,Limburg,VBO,6.151129,51.387295
Tjalkkade,23,,,5928PZ,Venlo,Venlo,Limburg,VBO,6.150080,51.387856
Tjalkkade,25,,,5928PZ,Venlo,Venlo,Limburg,VBO,6.149991,51.389124
Rudolf Dieselweg,2,,,5928RA,Venlo,Venlo,Limburg,VBO,6.161234,51.376711
Rudolf Dieselweg,3,,,5928RA,Venlo,Venlo,Limburg,VBO,6.161613,51.377445
Rudolf Dieselweg,4,,,5928RA,Venlo,Venlo,Limburg,VBO,6.161428,51.376891
Rudolf Dieselweg,5,,,5928RA,Venlo,Venlo,Limburg,VBO,6.161516,51.377926
Rudolf Dieselweg,6,,,5928RA,Venlo,Venlo,Limburg,VBO,6.161847,51.376993
Rudolf Dieselweg,8,,,5928RA,Venlo,Venlo,Limburg,VBO,6.162267,51.376582
Rudolf Dieselweg,10,,,5928RA,Venlo,Venlo,Limburg,VBO,6.162015,51.376466
Rudolf Dieselweg,12,,,5928RA,Venlo,Venlo,Limburg,VBO,6.162359,51.376150
Rudolf Dieselweg,14,,,5928RA,Venlo,Venlo,Limburg,VBO,6.162549,51.375989
Rudolf Dieselweg,20,,,5928RA,Venlo,Venlo,Limburg,VBO,6.163221,51.375578
Rudolf Dieselweg,22,,,5928RA,Venlo,Venlo,Limburg,VBO,6.163143,51.375945
Rudolf Dieselweg,24,,,5928RA,Venlo,Venlo,Limburg,VBO,6.162931,51.376632
Rudolf Dieselweg,26,A,,5928RA,Venlo,Venlo,Limburg,VBO,6.162758,51.376851
Rudolf Dieselweg,26,,,5928RA,Venlo,Venlo,Limburg,VBO,6.163314,51.377177
Rudolf Dieselweg,28,A,,5928RA,Venlo,Venlo,Limburg,VBO,6.163266,51.377408
Rudolf Dieselweg,28,,,5928RA,Venlo,Venlo,Limburg,VBO,6.162520,51.377647
Rudolf Dieselweg,32,,,5928RA,Venlo,Venlo,Limburg,VBO,6.162379,51.378086
Rudolf Dieselweg,34,A,,5928RA,Venlo,Venlo,Limburg,VBO,6.162379,51.378086
Rudolf Dieselweg,34,B,,5928RA,Venlo,Venlo,Limburg,VBO,6.162379,51.378086
Rudolf Dieselweg,34,C,,5928RA,Venlo,Venlo,Limburg,VBO,6.162379,51.378086
Rudolf Dieselweg,34,D,,5928RA,Venlo,Venlo,Limburg,VBO,6.162379,51.378086
Rudolf Dieselweg,34,E,,5928RA,Venlo,Venlo,Limburg,VBO,6.162379,51.378086
Rudolf Dieselweg,34,F,,5928RA,Venlo,Venlo,Limburg,VBO,6.162379,51.378086
Rudolf Dieselweg,34,,,5928RA,Venlo,Venlo,Limburg,VBO,6.162379,51.378086
Rudolf Dieselweg,36,A,,5928RA,Venlo,Venlo,Limburg,VBO,6.162765,51.378654
Rudolf Dieselweg,36,B,,5928RA,Venlo,Venlo,Limburg,VBO,6.162776,51.378639
Rudolf Dieselweg,36,C,,5928RA,Venlo,Venlo,Limburg,VBO,6.162776,51.378639
Rudolf Dieselweg,36,D,,5928RA,Venlo,Venlo,Limburg,VBO,6.162776,51.378639
Rudolf Dieselweg,36,E,,5928RA,Venlo,Venlo,Limburg,VBO,6.162776,51.378639
Rudolf Dieselweg,36,F,,5928RA,Venlo,Venlo,Limburg,VBO,6.162776,51.378639
Rudolf Dieselweg,36,G,,5928RA,Venlo,Venlo,Limburg,VBO,6.162776,51.378639
Rudolf Dieselweg,36,,,5928RA,Venlo,Venlo,Limburg,VBO,6.162776,51.378639
Rudolf Dieselweg,38,A,,5928RA,Venlo,Venlo,Limburg,VBO,6.161840,51.378554
Rudolf Dieselweg,38,,,5928RA,Venlo,Venlo,Limburg,VBO,6.161960,51.378367
Rudolf Dieselweg,40,,,5928RA,Venlo,Venlo,Limburg,VBO,6.161712,51.378744
Rudolf Dieselweg,42,,,5928RA,Venlo,Venlo,Limburg,VBO,6.161624,51.378879
Floralaan,2,,,5928RB,Venlo,Venlo,Limburg,VBO,6.135423,51.397381
Floralaan,20,,,5928RB,Venlo,Venlo,Limburg,VBO,6.133949,51.397598
Floralaan,26,,,5928RB,Venlo,Venlo,Limburg,VBO,6.132828,51.398293
Floralaan,28,,,5928RB,Venlo,Venlo,Limburg,VBO,6.132282,51.398756
Floralaan,30,,,5928RB,Venlo,Venlo,Limburg,VBO,6.131948,51.398942
Floralaan,80,,,5928RB,Venlo,Venlo,Limburg,VBO,6.131473,51.399205
Floralaan,82,,,5928RB,Venlo,Venlo,Limburg,VBO,6.131473,51.399205
Floralaan,84,,,5928RB,Venlo,Venlo,Limburg,VBO,6.131473,51.399205
Floralaan,86,,,5928RB,Venlo,Venlo,Limburg,VBO,6.131473,51.399205
Floralaan,88,,,5928RB,Venlo,Venlo,Limburg,VBO,6.131473,51.399205
Floralaan,90,,,5928RB,Venlo,Venlo,Limburg,VBO,6.131473,51.399205
Floralaan,92,,,5928RB,Venlo,Venlo,Limburg,VBO,6.131473,51.399205
Floriadelaan,10,,,5928RB,Venlo,Venlo,Limburg,VBO,6.113801,51.406507
Sint Jansweg,6,,,5928RC,Venlo,Venlo,Limburg,VBO,6.118591,51.400620
Sint Jansweg,15,,,5928RC,Venlo,Venlo,Limburg,VBO,6.125021,51.403383
Sint Jansweg,17,,,5928RC,Venlo,Venlo,Limburg,VBO,6.125196,51.403036
Sint Jansweg,19,,,5928RC,Venlo,Venlo,Limburg,VBO,6.123799,51.402707
Sint Jansweg,20,,,5928RC,Venlo,Venlo,Limburg,VBO,6.122692,51.406684
Sint Jansweg,22,,,5928RC,Venlo,Venlo,Limburg,VBO,6.120761,51.406151
Sint Jansweg,27,,,5928RC,Venlo,Venlo,Limburg,VBO,6.120877,51.401450
Floralaan,1,,,5928RD,Venlo,Venlo,Limburg,VBO,6.136895,51.396980
Floralaan,3,,,5928RD,Venlo,Venlo,Limburg,VBO,6.135999,51.396657
Floralaan,7,,,5928RD,Venlo,Venlo,Limburg,VBO,6.135308,51.395902
Floralaan,9,,,5928RD,Venlo,Venlo,Limburg,VBO,6.134273,51.396295
Floralaan,11,,,5928RD,Venlo,Venlo,Limburg,VBO,6.133240,51.396843
Floralaan,13,,,5928RD,Venlo,Venlo,Limburg,VBO,6.132497,51.397298
Floralaan,15,,,5928RD,Venlo,Venlo,Limburg,VBO,6.131876,51.397718
Floralaan,17,A,,5928RD,Venlo,Venlo,Limburg,VBO,6.130889,51.398303
Floralaan,19,,,5928RD,Venlo,Venlo,Limburg,VBO,6.130674,51.398429
Floralaan,25,,,5928RD,Venlo,Venlo,Limburg,VBO,6.129646,51.399007
Floralaan,31,,,5928RD,Venlo,Venlo,Limburg,VBO,6.131441,51.401048
De Zaar,2,,,5928RE,Venlo,Venlo,Limburg,VBO,6.126379,51.398297
De Zaar,3,,,5928RE,Venlo,Venlo,Limburg,VBO,6.121019,51.397754
De Zaar,4,,,5928RE,Venlo,Venlo,Limburg,VBO,6.120911,51.397838
Venrayseweg,105,A,,5928RG,Venlo,Venlo,Limburg,VBO,6.116663,51.412593
Venrayseweg,107,,,5928RG,Venlo,Venlo,Limburg,VBO,6.116002,51.413067
Venrayseweg,109,A,,5928RG,Venlo,Venlo,Limburg,VBO,6.111982,51.415653
Venrayseweg,109,,,5928RG,Venlo,Venlo,Limburg,VBO,6.112518,51.415737
Venrayseweg,111,,,5928RG,Venlo,Venlo,Limburg,VBO,6.111060,51.416839
Venrayseweg,115,,,5928RG,Venlo,Venlo,Limburg,VBO,6.110087,51.418101
Venrayseweg,117,,,5928RG,Venlo,Venlo,Limburg,VBO,6.109698,51.418513
Venrayseweg,121,,,5928RG,Venlo,Venlo,Limburg,VBO,6.107515,51.420173
Venrayseweg,102,A,,5928RH,Venlo,Venlo,Limburg,VBO,6.132714,51.403595
Venrayseweg,102,B,,5928RH,Venlo,Venlo,Limburg,VBO,6.132307,51.403406
Venrayseweg,102,C,,5928RH,Venlo,Venlo,Limburg,VBO,6.132142,51.403313
Venrayseweg,102,D,,5928RH,Venlo,Venlo,Limburg,VBO,6.132538,51.403508
Venrayseweg,102,E,,5928RH,Venlo,Venlo,Limburg,VBO,6.133080,51.403589
Venrayseweg,102,F,,5928RH,Venlo,Venlo,Limburg,VBO,6.131986,51.402615
Venrayseweg,102,,,5928RH,Venlo,Venlo,Limburg,VBO,6.132896,51.403689
Venrayseweg,104,,,5928RH,Venlo,Venlo,Limburg,VBO,6.132890,51.402266
Venrayseweg,106,A,,5928RH,Venlo,Venlo,Limburg,VBO,6.133991,51.404484
Venrayseweg,106,B,,5928RH,Venlo,Venlo,Limburg,VBO,6.134411,51.404164
Venrayseweg,106,C,,5928RH,Venlo,Venlo,Limburg,VBO,6.134302,51.404234
Venrayseweg,106,,,5928RH,Venlo,Venlo,Limburg,VBO,6.133655,51.404764
Venrayseweg,108,A,,5928RH,Venlo,Venlo,Limburg,VBO,6.137358,51.403990
Venrayseweg,108,B,,5928RH,Venlo,Venlo,Limburg,VBO,6.134961,51.404727
Venrayseweg,108,,,5928RH,Venlo,Venlo,Limburg,VBO,6.136565,51.403377
Venrayseweg,110,A,,5928RH,Venlo,Venlo,Limburg,VBO,6.133874,51.405797
Venrayseweg,110,B,,5928RH,Venlo,Venlo,Limburg,VBO,6.134206,51.405584
Venrayseweg,110,C,,5928RH,Venlo,Venlo,Limburg,VBO,6.134527,51.405368
Venrayseweg,112,A,,5928RH,Venlo,Venlo,Limburg,VBO,6.130590,51.404370
Venrayseweg,112,B,,5928RH,Venlo,Venlo,Limburg,VBO,6.130819,51.404489
Venrayseweg,114,A,,5928RH,Venlo,Venlo,Limburg,VBO,6.130027,51.404809
Venrayseweg,114,B,,5928RH,Venlo,Venlo,Limburg,VBO,6.130227,51.405008
Venrayseweg,114,C,,5928RH,Venlo,Venlo,Limburg,VBO,6.130369,51.405061
Venrayseweg,114,D,,5928RH,Venlo,Venlo,Limburg,VBO,6.130502,51.405106
Venrayseweg,114,F,,5928RH,Venlo,Venlo,Limburg,VBO,6.130965,51.405342
Venrayseweg,114,G,,5928RH,Venlo,Venlo,Limburg,VBO,6.131143,51.405450
Venrayseweg,114,H,,5928RH,Venlo,Venlo,Limburg,VBO,6.131300,51.405525
Venrayseweg,114,,,5928RH,Venlo,Venlo,Limburg,VBO,6.130487,51.405317
Venrayseweg,116,A,,5928RH,Venlo,Venlo,Limburg,VBO,6.129333,51.405325
Venrayseweg,116,D,,5928RH,Venlo,Venlo,Limburg,VBO,6.129975,51.405715
Venrayseweg,116,E,,5928RH,Venlo,Venlo,Limburg,VBO,6.130566,51.406111
Venrayseweg,118,A,,5928RH,Venlo,Venlo,Limburg,VBO,6.128557,51.405914
Venrayseweg,118,C,,5928RH,Venlo,Venlo,Limburg,VBO,6.129938,51.406623
Venrayseweg,118,E,,5928RH,Venlo,Venlo,Limburg,VBO,6.129361,51.406188
Venrayseweg,120,A,,5928RH,Venlo,Venlo,Limburg,VBO,6.128534,51.406604
Venrayseweg,120,B,,5928RH,Venlo,Venlo,Limburg,VBO,6.129068,51.407058
Venrayseweg,122,A,,5928RH,Venlo,Venlo,Limburg,VBO,6.130226,51.407512
Venrayseweg,122,D,,5928RH,Venlo,Venlo,Limburg,VBO,6.131217,51.406726
Venrayseweg,124,,,5928RH,Venlo,Venlo,Limburg,VBO,6.132276,51.405883
Venrayseweg,126,A,,5928RH,Venlo,Venlo,Limburg,VBO,6.133619,51.406879
Venrayseweg,126,B,,5928RH,Venlo,Venlo,Limburg,VBO,6.133209,51.406721
Venrayseweg,126,C,,5928RH,Venlo,Venlo,Limburg,VBO,6.132862,51.406989
Venrayseweg,126,D,,5928RH,Venlo,Venlo,Limburg,VBO,6.133199,51.407140
Venrayseweg,126,E,,5928RH,Venlo,Venlo,Limburg,VBO,6.133621,51.407305
Venrayseweg,126,F,,5928RH,Venlo,Venlo,Limburg,VBO,6.134008,51.407065
Venrayseweg,126,,,5928RH,Venlo,Venlo,Limburg,VBO,6.134111,51.406876
Venrayseweg,126,,,5928RH,Venlo,Venlo,Limburg,VBO,6.134198,51.406802
Venrayseweg,128,B,,5928RH,Venlo,Venlo,Limburg,VBO,6.135851,51.406789
Venrayseweg,128,C,,5928RH,Venlo,Venlo,Limburg,VBO,6.136958,51.407524
Venrayseweg,128,D,,5928RH,Venlo,Venlo,Limburg,VBO,6.136313,51.406968
Venrayseweg,130,A,,5928RH,Venlo,Venlo,Limburg,VBO,6.134739,51.406215
Venrayseweg,130,B,,5928RH,Venlo,Venlo,Limburg,VBO,6.135018,51.406041
Venrayseweg,130,C,,5928RH,Venlo,Venlo,Limburg,VBO,6.135350,51.405813
Venrayseweg,132,A,,5928RH,Venlo,Venlo,Limburg,VBO,6.135347,51.407451
Venrayseweg,132,B,,5928RH,Venlo,Venlo,Limburg,VBO,6.135655,51.407608
Venrayseweg,132,C,,5928RH,Venlo,Venlo,Limburg,VBO,6.135975,51.407788
Venrayseweg,134,A,,5928RH,Venlo,Venlo,Limburg,VBO,6.137057,51.408124
Venrayseweg,134,B,,5928RH,Venlo,Venlo,Limburg,VBO,6.136347,51.408559
Venrayseweg,136,A,,5928RH,Venlo,Venlo,Limburg,VBO,6.128192,51.409033
Venrayseweg,136,B,,5928RH,Venlo,Venlo,Limburg,VBO,6.129430,51.409321
Venrayseweg,138,A,,5928RH,Venlo,Venlo,Limburg,VBO,6.135003,51.409739
Venrayseweg,138,B,,5928RH,Venlo,Venlo,Limburg,VBO,6.135350,51.409794
Venrayseweg,138,C,,5928RH,Venlo,Venlo,Limburg,VBO,6.136141,51.409838
Venrayseweg,140,,,5928RH,Venlo,Venlo,Limburg,VBO,6.131245,51.409249
Venrayseweg,142,,,5928RH,Venlo,Venlo,Limburg,VBO,6.133875,51.411757
Venrayseweg,144,,,5928RH,Venlo,Venlo,Limburg,VBO,6.132723,51.409532
Venrayseweg,146,A,,5928RH,Venlo,Venlo,Limburg,VBO,6.132473,51.410157
Venrayseweg,146,D,,5928RH,Venlo,Venlo,Limburg,VBO,6.132330,51.410545
Venrayseweg,146,E,,5928RH,Venlo,Venlo,Limburg,VBO,6.133351,51.410303
Venrayseweg,146,G,,5928RH,Venlo,Venlo,Limburg,VBO,6.133271,51.410581
Venrayseweg,148,,,5928RH,Venlo,Venlo,Limburg,VBO,6.132604,51.411625
Venrayseweg,150,,,5928RH,Venlo,Venlo,Limburg,VBO,6.133028,51.413023
Venrayseweg,152,,,5928RH,Venlo,Venlo,Limburg,VBO,6.130750,51.410511
Venrayseweg,154,,,5928RH,Venlo,Venlo,Limburg,VBO,6.131417,51.414166
Venrayseweg,180,,,5928RH,Venlo,Venlo,Limburg,VBO,6.127556,51.407031
Venrayseweg,182,,,5928RH,Venlo,Venlo,Limburg,VBO,6.127555,51.407403
Venrayseweg,188,,,5928RH,Venlo,Venlo,Limburg,VBO,6.128129,51.407489
Venrayseweg,190,A,,5928RH,Venlo,Venlo,Limburg,VBO,6.129249,51.407911
Venrayseweg,190,B,,5928RH,Venlo,Venlo,Limburg,VBO,6.129142,51.408001
Venrayseweg,190,C,,5928RH,Venlo,Venlo,Limburg,VBO,6.129009,51.408049
Venrayseweg,190,D,,5928RH,Venlo,Venlo,Limburg,VBO,6.128881,51.407987
Venrayseweg,190,E,,5928RH,Venlo,Venlo,Limburg,VBO,6.128731,51.407919
Venrayseweg,190,F,,5928RH,Venlo,Venlo,Limburg,VBO,6.128560,51.407831
Venrayseweg,190,G,,5928RH,Venlo,Venlo,Limburg,VBO,6.128411,51.407760
Venrayseweg,192,,,5928RH,Venlo,Venlo,Limburg,VBO,6.126820,51.413814
Venrayseweg,194,,,5928RH,Venlo,Venlo,Limburg,VBO,6.126809,51.412554
Venrayseweg,198,,,5928RH,Venlo,Venlo,Limburg,VBO,6.127497,51.410324
Venrayseweg,200,,,5928RJ,Venlo,Venlo,Limburg,VBO,6.135882,51.400930
Venrayseweg,214,,,5928RJ,Venlo,Venlo,Limburg,VBO,6.134279,51.400744
Floriadelaan,3,,,5928RK,Venlo,Venlo,Limburg,VBO,6.113713,51.408277
Floriadelaan,55,,,5928RK,Venlo,Venlo,Limburg,VBO,6.119442,51.404099
Venrayseweg,334,,,5928RL,Venlo,Venlo,Limburg,VBO,6.117128,51.413751
Venrayseweg,336,,,5928RL,Venlo,Venlo,Limburg,VBO,6.116368,51.413827
Venrayseweg,340,,,5928RL,Venlo,Venlo,Limburg,VBO,6.115563,51.414577
Venrayseweg,342,,,5928RL,Venlo,Venlo,Limburg,VBO,6.115206,51.414908
Venrayseweg,346,A,,5928RL,Venlo,Venlo,Limburg,VBO,6.113217,51.417176
Venrayseweg,346,B,,5928RL,Venlo,Venlo,Limburg,VBO,6.113020,51.417104
Venrayseweg,346,,,5928RL,Venlo,Venlo,Limburg,VBO,6.113021,51.416951
Venrayseweg,354,,,5928RL,Venlo,Venlo,Limburg,VBO,6.111980,51.418339
Venrayseweg,356,,,5928RL,Venlo,Venlo,Limburg,VBO,6.110763,51.418395
Heierkerkweg,1,,,5928RM,Venlo,Venlo,Limburg,VBO,6.119554,51.409951
Heierkerkweg,3,,,5928RM,Venlo,Venlo,Limburg,VBO,6.116767,51.409417
Heierkerkweg,5,A,,5928RM,Venlo,Venlo,Limburg,VBO,6.107521,51.407020
Heierkerkweg,5,B,,5928RM,Venlo,Venlo,Limburg,VBO,6.107281,51.406972
Heierkerkweg,5,,,5928RM,Venlo,Venlo,Limburg,VBO,6.109670,51.407124
Heierkerkweg,7,A,,5928RM,Venlo,Venlo,Limburg,VBO,6.106542,51.406798
Heierkerkweg,7,,,5928RM,Venlo,Venlo,Limburg,VBO,6.107704,51.405660
Heierkerkweg,8,A,,5928RM,Venlo,Venlo,Limburg,VBO,6.109524,51.408106
Heierkerkweg,8,B,,5928RM,Venlo,Venlo,Limburg,VBO,6.108588,51.408133
Heierkerkweg,8,D,,5928RM,Venlo,Venlo,Limburg,VBO,6.105649,51.406858
Heierkerkweg,8,,,5928RM,Venlo,Venlo,Limburg,VBO,6.111260,51.408477
Heierkerkweg,9,,,5928RM,Venlo,Venlo,Limburg,VBO,6.105945,51.406681
Heierkerkweg,10,,,5928RM,Venlo,Venlo,Limburg,VBO,6.101121,51.404569
Heierkerkweg,11,,,5928RM,Venlo,Venlo,Limburg,VBO,6.105505,51.406528
Heierkerkweg,12,,,5928RM,Venlo,Venlo,Limburg,VBO,6.099871,51.404001
Heierkerkweg,13,,,5928RM,Venlo,Venlo,Limburg,VBO,6.105412,51.406488
Heierkerkweg,14,,,5928RM,Venlo,Venlo,Limburg,VBO,6.098218,51.403904
Heierkerkweg,15,,,5928RM,Venlo,Venlo,Limburg,VBO,6.101820,51.404776
Heierkerkweg,16,,,5928RM,Venlo,Venlo,Limburg,VBO,6.097987,51.404311
Heierhoevenweg,1,,,5928RN,Venlo,Venlo,Limburg,VBO,6.113271,51.414346
Heierhoevenweg,2,A,,5928RN,Venlo,Venlo,Limburg,VBO,6.109200,51.411886
Heierhoevenweg,2,,,5928RN,Venlo,Venlo,Limburg,VBO,6.110178,51.413001
Heierhoevenweg,5,A,,5928RN,Venlo,Venlo,Limburg,VBO,6.111060,51.410333
Heierhoevenweg,5,,,5928RN,Venlo,Venlo,Limburg,VBO,6.109650,51.411653
Heierhoevenweg,8,,,5928RN,Venlo,Venlo,Limburg,VBO,6.107176,51.409155
Heierhoevenweg,10,A,,5928RN,Venlo,Venlo,Limburg,VBO,6.092447,51.406070
Heierhoevenweg,10,,,5928RN,Venlo,Venlo,Limburg,VBO,6.094355,51.406063
Heierhoevenweg,12,,,5928RN,Venlo,Venlo,Limburg,VBO,6.089605,51.405860
Heierhoevenweg,15,,,5928RN,Venlo,Venlo,Limburg,VBO,6.094170,51.405143
Heierhoevenweg,17,,,5928RN,Venlo,Venlo,Limburg,VBO,6.090216,51.404769
Heierhoevenweg,42,,,5928RN,Venlo,Venlo,Limburg,VBO,6.078366,51.409796
Heierhoevenweg,44,,,5928RN,Venlo,Venlo,Limburg,VBO,6.077996,51.409734
Berkter Hei,1,A,,5928RR,Venlo,Venlo,Limburg,VBO,6.108755,51.413637
Berkter Hei,1,B,,5928RR,Venlo,Venlo,Limburg,VBO,6.108637,51.413366
Berkter Hei,1,C,,5928RR,Venlo,Venlo,Limburg,VBO,6.107910,51.413916
Berkter Hei,1,,,5928RR,Venlo,Venlo,Limburg,VBO,6.109692,51.413447
Berkter Hei,2,,,5928RR,Venlo,Venlo,Limburg,VBO,6.106592,51.414089
Berkter Hei,3,,,5928RR,Venlo,Venlo,Limburg,VBO,6.104819,51.417329
Sevenumseweg,1,,,5928RS,Venlo,Venlo,Limburg,VBO,6.107243,51.419794
Sevenumseweg,3,,,5928RS,Venlo,Venlo,Limburg,VBO,6.106539,51.419997
Sevenumseweg,11,,,5928RS,Venlo,Venlo,Limburg,VBO,6.100946,51.419461
Sevenumseweg,15,,,5928RS,Venlo,Venlo,Limburg,VBO,6.098992,51.419606
Sevenumseweg,27,,,5928RS,Venlo,Venlo,Limburg,VBO,6.085216,51.420308
Sevenumseweg,29,,,5928RS,Venlo,Venlo,Limburg,VBO,6.084665,51.420335
Sevenumseweg,33,,,5928RS,Venlo,Venlo,Limburg,VBO,6.081837,51.420479
Sevenumseweg,35,,,5928RS,Venlo,Venlo,Limburg,VBO,6.081612,51.420468
Sevenumseweg,41,,,5928RS,Venlo,Venlo,Limburg,VBO,6.078215,51.420115
De Gruisdonk,1,A,,5928RT,Venlo,Venlo,Limburg,VBO,6.150949,51.379125
De Gruisdonk,1,B,,5928RT,Venlo,Venlo,Limburg,VBO,6.150923,51.379107
De Gruisdonk,1,C,,5928RT,Venlo,Venlo,Limburg,VBO,6.150900,51.379091
De Gruisdonk,1,D,,5928RT,Venlo,Venlo,Limburg,VBO,6.150881,51.379078
De Gruisdonk,1,E,,5928RT,Venlo,Venlo,Limburg,VBO,6.150860,51.379060
De Gruisdonk,1,F,,5928RT,Venlo,Venlo,Limburg,VBO,6.150835,51.379044
De Gruisdonk,1,G,,5928RT,Venlo,Venlo,Limburg,VBO,6.150814,51.379030
De Gruisdonk,1,,,5928RT,Venlo,Venlo,Limburg,VBO,6.151115,51.379279
De Gruisdonk,2,,,5928RT,Venlo,Venlo,Limburg,VBO,6.151907,51.379864
De Gruisdonk,3,,,5928RT,Venlo,Venlo,Limburg,VBO,6.150696,51.379546
De Gruisdonk,5,A,,5928RT,Venlo,Venlo,Limburg,VBO,6.150187,51.379825
De Gruisdonk,5,,,5928RT,Venlo,Venlo,Limburg,VBO,6.150358,51.379720
De Gruisdonk,7,,,5928RT,Venlo,Venlo,Limburg,VBO,6.149983,51.379927
De Gruisdonk,8,A,,5928RT,Venlo,Venlo,Limburg,VBO,6.150275,51.380725
De Gruisdonk,8,,,5928RT,Venlo,Venlo,Limburg,VBO,6.149841,51.380960
De Gruisdonk,9,A,,5928RT,Venlo,Venlo,Limburg,VBO,6.149779,51.380043
De Gruisdonk,9,B,,5928RT,Venlo,Venlo,Limburg,VBO,6.149558,51.380158
De Gruisdonk,9,F,,5928RT,Venlo,Venlo,Limburg,VBO,6.149358,51.380253
De Gruisdonk,9,G,,5928RT,Venlo,Venlo,Limburg,VBO,6.149321,51.380275
De Gruisdonk,9,H,,5928RT,Venlo,Venlo,Limburg,VBO,6.149273,51.380301
De Gruisdonk,9,J,,5928RT,Venlo,Venlo,Limburg,VBO,6.149225,51.380326
De Gruisdonk,9,K,,5928RT,Venlo,Venlo,Limburg,VBO,6.149175,51.380350
De Gruisdonk,9,L,,5928RT,Venlo,Venlo,Limburg,VBO,6.149128,51.380374
De Gruisdonk,9,M,,5928RT,Venlo,Venlo,Limburg,VBO,6.149070,51.380400
De Gruisdonk,10,,,5928RT,Venlo,Venlo,Limburg,VBO,6.149322,51.381297
De Gruisdonk,11,,,5928RT,Venlo,Venlo,Limburg,VBO,6.148884,51.380554
De Gruisdonk,13,,,5928RT,Venlo,Venlo,Limburg,VBO,6.148351,51.380428
De Gruisdonk,15,A,,5928RT,Venlo,Venlo,Limburg,VBO,6.148654,51.380060
De Gruisdonk,15,B,,5928RT,Venlo,Venlo,Limburg,VBO,6.148854,51.379860
De Gruisdonk,15,,,5928RT,Venlo,Venlo,Limburg,VBO,6.148488,51.380274
De Gruisdonk,17,,,5928RT,Venlo,Venlo,Limburg,VBO,6.149100,51.379659
De Gruisdonk,19,,,5928RT,Venlo,Venlo,Limburg,VBO,6.149551,51.379504
De Gruisdonk,21,,,5928RT,Venlo,Venlo,Limburg,VBO,6.149855,51.378995
De Gruisdonk,23,,,5928RT,Venlo,Venlo,Limburg,VBO,6.150168,51.378813
De Gruisdonk,25,,,5928RT,Venlo,Venlo,Limburg,VBO,6.150432,51.378657
De Gruisdonk,27,,,5928RT,Venlo,Venlo,Limburg,VBO,6.150556,51.378616
De Gruisdonk,29,,,5928RT,Venlo,Venlo,Limburg,VBO,6.150699,51.378725
De Gruisdonk,31,,,5928RT,Venlo,Venlo,Limburg,VBO,6.150834,51.378882
De Gruisdonk,33,,,5928RT,Venlo,Venlo,Limburg,VBO,6.150865,51.378903
De Gruisdonk,35,,,5928RT,Venlo,Venlo,Limburg,VBO,6.150901,51.378922
De Gruisdonk,37,,,5928RT,Venlo,Venlo,Limburg,VBO,6.150925,51.378939
De Gruisdonk,39,,,5928RT,Venlo,Venlo,Limburg,VBO,6.150953,51.378958
De Gruisdonk,41,,,5928RT,Venlo,Venlo,Limburg,VBO,6.150980,51.378979
De Gruisdonk,43,,,5928RT,Venlo,Venlo,Limburg,VBO,6.150999,51.378996
De Gruisdonk,45,,,5928RT,Venlo,Venlo,Limburg,VBO,6.151025,51.379016
De Sondert,1,,,5928RV,Venlo,Venlo,Limburg,VBO,6.152953,51.379254
De Sondert,2,,,5928RV,Venlo,Venlo,Limburg,VBO,6.151718,51.378585
De Sondert,5,,,5928RV,Venlo,Venlo,Limburg,VBO,6.154786,51.378218
De Sondert,6,,,5928RV,Venlo,Venlo,Limburg,VBO,6.152974,51.378078
De Sondert,8,,,5928RV,Venlo,Venlo,Limburg,VBO,6.153206,51.378130
De Sondert,10,A,,5928RV,Venlo,Venlo,Limburg,VBO,6.153735,51.377842
De Sondert,10,B,,5928RV,Venlo,Venlo,Limburg,VBO,6.153577,51.377598
De Sondert,10,,,5928RV,Venlo,Venlo,Limburg,VBO,6.153636,51.377888
De Sondert,11,,,5928RV,Venlo,Venlo,Limburg,VBO,6.154386,51.377389
De Sondert,12,,,5928RV,Venlo,Venlo,Limburg,VBO,6.153162,51.377454
De Sondert,13,,,5928RV,Venlo,Venlo,Limburg,VBO,6.153933,51.377226
De Sondert,14,,,5928RV,Venlo,Venlo,Limburg,VBO,6.152818,51.377742
De Sondert,22,,,5928RV,Venlo,Venlo,Limburg,VBO,6.152430,51.377871
De Sondert,24,,,5928RV,Venlo,Venlo,Limburg,VBO,6.151963,51.378020
Egtenrayerhof,1,,,5928RW,Venlo,Venlo,Limburg,VBO,6.148083,51.379491
Egtenrayerhof,3,,,5928RW,Venlo,Venlo,Limburg,VBO,6.147973,51.379594
Egtenrayerhof,5,,,5928RW,Venlo,Venlo,Limburg,VBO,6.147835,51.379724
Egtenrayerhof,7,,,5928RW,Venlo,Venlo,Limburg,VBO,6.147799,51.379758
Egtenrayerhof,9,,,5928RW,Venlo,Venlo,Limburg,VBO,6.147661,51.379888
Egtenrayerhof,11,,,5928RW,Venlo,Venlo,Limburg,VBO,6.147556,51.379986
Egtenrayerhof,13,,,5928RW,Venlo,Venlo,Limburg,VBO,6.147419,51.380115
Egtenrayerhof,15,,,5928RW,Venlo,Venlo,Limburg,VBO,6.147382,51.380149
Egtenrayerhof,17,,,5928RW,Venlo,Venlo,Limburg,VBO,6.147238,51.380306
Egtenrayerhof,19,,,5928RW,Venlo,Venlo,Limburg,VBO,6.147204,51.380418
Egtenrayerhof,21,,,5928RW,Venlo,Venlo,Limburg,VBO,6.147242,51.380531
Egtenrayerhof,23,,,5928RW,Venlo,Venlo,Limburg,VBO,6.147347,51.380625
Egtenrayerhof,25,,,5928RW,Venlo,Venlo,Limburg,VBO,6.147486,51.380689
Egtenrayerhof,27,,,5928RW,Venlo,Venlo,Limburg,VBO,6.147659,51.380687
Egtenrayerhof,29,,,5928RW,Venlo,Venlo,Limburg,VBO,6.147838,51.380677
Egtenrayerhof,31,,,5928RW,Venlo,Venlo,Limburg,VBO,6.148002,51.380613
Hollandlaan,19,,,5928RX,Venlo,Venlo,Limburg,VBO,6.135373,51.398240
Hollandlaan,23,,,5928RX,Venlo,Venlo,Limburg,VBO,6.133950,51.398979
Hollandlaan,25,,,5928RX,Venlo,Venlo,Limburg,VBO,6.133540,51.399259
Hollandlaan,31,,,5928RX,Venlo,Venlo,Limburg,VBO,6.132963,51.399588
Faunalaan,30,,,5928RZ,Venlo,Venlo,Limburg,VBO,6.132870,51.395336
Faunalaan,32,,,5928RZ,Venlo,Venlo,Limburg,VBO,6.132412,51.395553
Faunalaan,38,,,5928RZ,Venlo,Venlo,Limburg,VBO,6.131508,51.395998
Faunalaan,50,,,5928RZ,Venlo,Venlo,Limburg,VBO,6.130096,51.397428
Frans Maasweg,2,,,5928SB,Venlo,Venlo,Limburg,VBO,6.096884,51.406610
Popeweg,13,,,5928SC,Venlo,Venlo,Limburg,VBO,6.100797,51.406312
Popeweg,42,,,5928SC,Venlo,Venlo,Limburg,VBO,6.089846,51.408687
Popeweg,48,,,5928SC,Venlo,Venlo,Limburg,VBO,6.090481,51.406239
Popeweg,50,,,5928SC,Venlo,Venlo,Limburg,VBO,6.092087,51.408581
Popeweg,52,,,5928SC,Venlo,Venlo,Limburg,VBO,6.092054,51.407781
Popeweg,54,,,5928SC,Venlo,Venlo,Limburg,VBO,6.092051,51.406906
Popeweg,58,,,5928SC,Venlo,Venlo,Limburg,VBO,6.094944,51.408642
Popeweg,60,,,5928SC,Venlo,Venlo,Limburg,VBO,6.094942,51.407747
Popeweg,62,,,5928SC,Venlo,Venlo,Limburg,VBO,6.094945,51.406912
Popeweg,66,,,5928SC,Venlo,Venlo,Limburg,VBO,6.099453,51.408915
Logistiekweg,1,,,5928SG,Venlo,Venlo,Limburg,VBO,6.098217,51.410810
Logistiekweg,2,,,5928SG,Venlo,Venlo,Limburg,VBO,6.094164,51.410943
Logistiekweg,3,,,5928SG,Venlo,Venlo,Limburg,VBO,6.099953,51.410977
John Hicksstraat,1,,,5928SJ,Venlo,Venlo,Limburg,VBO,6.095093,51.414402
John Hicksstraat,2,,,5928SJ,Venlo,Venlo,Limburg,VBO,6.098686,51.414583
John Hicksstraat,3,,,5928SJ,Venlo,Venlo,Limburg,VBO,6.092977,51.414828
John Hicksstraat,4,,,5928SJ,Venlo,Venlo,Limburg,VBO,6.098717,51.415520
John Hicksstraat,5,,,5928SJ,Venlo,Venlo,Limburg,VBO,6.091499,51.414886
John Hicksstraat,6,,,5928SJ,Venlo,Venlo,Limburg,VBO,6.098722,51.416521
John Hicksstraat,7,,,5928SJ,Venlo,Venlo,Limburg,VBO,6.090100,51.414924
John Hicksstraat,8,,,5928SJ,Venlo,Venlo,Limburg,VBO,6.098714,51.417757
John Hicksstraat,9,,,5928SJ,Venlo,Venlo,Limburg,VBO,6.090153,51.416271
John Hicksstraat,11,,,5928SJ,Venlo,Venlo,Limburg,VBO,6.091551,51.416214
John Hicksstraat,13,,,5928SJ,Venlo,Venlo,Limburg,VBO,6.093029,51.416195
John Hicksstraat,15,,,5928SJ,Venlo,Venlo,Limburg,VBO,6.093973,51.416189
John Hicksstraat,18,,,5928SJ,Venlo,Venlo,Limburg,VBO,6.100452,51.417780
John Hicksstraat,20,,,5928SJ,Venlo,Venlo,Limburg,VBO,6.100552,51.416510
John Hicksstraat,21,,,5928SJ,Venlo,Venlo,Limburg,VBO,6.093956,51.418437
John Hicksstraat,22,,,5928SJ,Venlo,Venlo,Limburg,VBO,6.100421,51.415509
John Hicksstraat,23,,,5928SJ,Venlo,Venlo,Limburg,VBO,6.090851,51.418532
John Hicksstraat,24,,,5928SJ,Venlo,Venlo,Limburg,VBO,6.100455,51.414622
John Hicksstraat,26,,,5928SJ,Venlo,Venlo,Limburg,VBO,6.101895,51.413642
Mary Kingsleystraat,1,,,5928SK,Venlo,Venlo,Limburg,VBO,6.084807,51.408146
Mary Kingsleystraat,3,,,5928SK,Venlo,Venlo,Limburg,VBO,6.084731,51.409122
Mary Kingsleystraat,5,,,5928SK,Venlo,Venlo,Limburg,VBO,6.084706,51.410169
Mary Kingsleystraat,7,,,5928SK,Venlo,Venlo,Limburg,VBO,6.084629,51.411839
Mary Kingsleystraat,9,,,5928SK,Venlo,Venlo,Limburg,VBO,6.086392,51.411916
Mary Kingsleystraat,11,,,5928SK,Venlo,Venlo,Limburg,VBO,6.086258,51.410216
Mary Kingsleystraat,13,,,5928SK,Venlo,Venlo,Limburg,VBO,6.086312,51.409094
Mary Kingsleystraat,15,,,5928SK,Venlo,Venlo,Limburg,VBO,6.086368,51.408162
Mary Kingsleystraat,17,,,5928SK,Venlo,Venlo,Limburg,VBO,6.086415,51.407255
James Tobinstraat,2,,,5928SL,Venlo,Venlo,Limburg,VBO,6.084464,51.414977
James Tobinstraat,4,A,,5928SL,Venlo,Venlo,Limburg,VBO,6.084551,51.417960
James Tobinstraat,4,B,,5928SL,Venlo,Venlo,Limburg,VBO,6.086255,51.417981
James Tobinstraat,4,,,5928SL,Venlo,Venlo,Limburg,VBO,6.084458,51.416232
James Tobinstraat,6,,,5928SL,Venlo,Venlo,Limburg,VBO,6.086344,51.416259
James Tobinstraat,8,,,5928SL,Venlo,Venlo,Limburg,VBO,6.086471,51.414993
Daelweg,2,,,5928WK,Venlo,Venlo,Limburg,VBO,6.159615,51.375812
