openbareruimtenaam,huisnummer,huisletter,huisnummertoevoeging,postcode,woonplaatsnaam,gemeentenaam,provincienaam,typeadresseerbaarobject,longitude,latitude
Tichlouwstraat,3,,,5932AA,Tegelen,Venlo,Limburg,VBO,6.142553,51.334055
Tichlouwstraat,5,,,5932AA,Tegelen,Venlo,Limburg,VBO,6.142305,51.334315
Tichlouwstraat,7,A,,5932AA,Tegelen,Venlo,Limburg,VBO,6.142061,51.334841
Tichlouwstraat,7,,,5932AA,Tegelen,Venlo,Limburg,VBO,6.142114,51.334764
Tichlouwstraat,45,,,5932AA,Tegelen,Venlo,Limburg,VBO,6.140479,51.336980
Aan de Zwarte Hond,1,,,5932AB,Tegelen,Venlo,Limburg,VBO,6.141300,51.335779
Aan de Zwarte Hond,3,,,5932AB,Tegelen,Venlo,Limburg,VBO,6.140507,51.335564
Aan de Zwarte Hond,5,,,5932AB,Tegelen,Venlo,Limburg,VBO,6.139921,51.335408
Aan de Zwarte Hond,9,,,5932AB,Tegelen,Venlo,Limburg,VBO,6.138574,51.334377
Steenweg,1,,,5932AC,Tegelen,Venlo,Limburg,VBO,6.135495,51.333363
Steenweg,3,,,5932AC,Tegelen,Venlo,Limburg,VBO,6.135554,51.333483
Steenweg,5,A,,5932AC,Tegelen,Venlo,Limburg,VBO,6.136214,51.333828
Steenweg,5,,,5932AC,Tegelen,Venlo,Limburg,VBO,6.135921,51.333554
Steenweg,7,A,,5932AC,Tegelen,Venlo,Limburg,VBO,6.136397,51.334209
Steenweg,7,,,5932AC,Tegelen,Venlo,Limburg,VBO,6.136402,51.333976
Steenweg,9,A,,5932AC,Tegelen,Venlo,Limburg,VBO,6.136743,51.334522
Steenweg,9,,,5932AC,Tegelen,Venlo,Limburg,VBO,6.136552,51.334350
Steenweg,11,A,,5932AC,Tegelen,Venlo,Limburg,VBO,6.137401,51.335040
Steenweg,11,B,,5932AC,Tegelen,Venlo,Limburg,VBO,6.137557,51.334586
Steenweg,11,,,5932AC,Tegelen,Venlo,Limburg,VBO,6.136965,51.334724
Steenweg,19,,,5932AC,Tegelen,Venlo,Limburg,VBO,6.138731,51.335925
Steenweg,27,,,5932AC,Tegelen,Venlo,Limburg,VBO,6.140472,51.337348
Steenweg,29,,,5932AC,Tegelen,Venlo,Limburg,VBO,6.141530,51.337331
Steenweg,37,,,5932AC,Tegelen,Venlo,Limburg,VBO,6.142059,51.338304
Steenweg,39,,,5932AC,Tegelen,Venlo,Limburg,VBO,6.142117,51.338334
Steenweg,49,,,5932AC,Tegelen,Venlo,Limburg,VBO,6.142652,51.338611
Steenweg,51,,,5932AC,Tegelen,Venlo,Limburg,VBO,6.142707,51.338639
Steenweg,53,,,5932AC,Tegelen,Venlo,Limburg,VBO,6.142967,51.338771
Vijverlaan,11,A,,5932AD,Tegelen,Venlo,Limburg,VBO,6.135022,51.332381
Vijverlaan,11,B,,5932AD,Tegelen,Venlo,Limburg,VBO,6.135057,51.332647
Vijverlaan,11,,,5932AD,Tegelen,Venlo,Limburg,VBO,6.135104,51.332390
Vijverlaan,13,,,5932AD,Tegelen,Venlo,Limburg,VBO,6.135003,51.332645
Kasteellaan,1,A,,5932AE,Tegelen,Venlo,Limburg,VBO,6.133436,51.331497
Kasteellaan,1,,,5932AE,Tegelen,Venlo,Limburg,VBO,6.133742,51.331588
Kasteellaan,3,,,5932AE,Tegelen,Venlo,Limburg,VBO,6.134064,51.331700
Kasteellaan,31,,,5932AE,Tegelen,Venlo,Limburg,VBO,6.139270,51.332195
Kasteellaan,33,,,5932AE,Tegelen,Venlo,Limburg,VBO,6.139901,51.332372
Kasteellaan,35,,,5932AE,Tegelen,Venlo,Limburg,VBO,6.140407,51.332466
Kasteellaan,37,,,5932AE,Tegelen,Venlo,Limburg,VBO,6.140479,51.332506
Kasteellaan,39,,,5932AE,Tegelen,Venlo,Limburg,VBO,6.140628,51.332568
Kasteellaan,41,,,5932AE,Tegelen,Venlo,Limburg,VBO,6.140698,51.332610
Kasteellaan,43,,,5932AE,Tegelen,Venlo,Limburg,VBO,6.140830,51.332686
Kasteellaan,45,,,5932AE,Tegelen,Venlo,Limburg,VBO,6.140900,51.332725
Kasteellaan,47,,,5932AE,Tegelen,Venlo,Limburg,VBO,6.141050,51.332786
Kasteellaan,49,,,5932AE,Tegelen,Venlo,Limburg,VBO,6.141120,51.332825
Kasteellaan,51,,,5932AE,Tegelen,Venlo,Limburg,VBO,6.141251,51.332903
Kasteellaan,53,,,5932AE,Tegelen,Venlo,Limburg,VBO,6.141319,51.332942
Kasteellaan,55,,,5932AE,Tegelen,Venlo,Limburg,VBO,6.141430,51.333031
Kasteellaan,57,,,5932AE,Tegelen,Venlo,Limburg,VBO,6.141500,51.333072
Kasteellaan,59,,,5932AE,Tegelen,Venlo,Limburg,VBO,6.141737,51.333113
Kasteellaan,61,,,5932AE,Tegelen,Venlo,Limburg,VBO,6.141876,51.333193
Kasteellaan,63,,,5932AE,Tegelen,Venlo,Limburg,VBO,6.142072,51.333317
Kasteellaan,65,,,5932AE,Tegelen,Venlo,Limburg,VBO,6.142279,51.333435
Kasteellaan,67,,,5932AE,Tegelen,Venlo,Limburg,VBO,6.142453,51.333534
Kasteellaan,69,,,5932AE,Tegelen,Venlo,Limburg,VBO,6.142656,51.333667
Kasteellaan,4,,,5932AG,Tegelen,Venlo,Limburg,VBO,6.135225,51.331062
Kasteellaan,6,,,5932AG,Tegelen,Venlo,Limburg,VBO,6.137499,51.331717
Kasteellaan,8,B,,5932AG,Tegelen,Venlo,Limburg,VBO,6.136467,51.331620
Kasteellaan,8,,,5932AG,Tegelen,Venlo,Limburg,VBO,6.136843,51.331711
Kasteellaan,10,,,5932AG,Tegelen,Venlo,Limburg,VBO,6.136357,51.331008
Kasteellaan,14,,,5932AG,Tegelen,Venlo,Limburg,VBO,6.137072,51.330810
Kasteellaan,16,,,5932AG,Tegelen,Venlo,Limburg,VBO,6.137092,51.330868
Kasteellaan,18,,,5932AG,Tegelen,Venlo,Limburg,VBO,6.136929,51.329396
Kasteellaan,20,A,,5932AG,Tegelen,Venlo,Limburg,VBO,6.139505,51.331780
Kasteellaan,20,,,5932AG,Tegelen,Venlo,Limburg,VBO,6.138708,51.331778
Kasteellaan,22,,,5932AG,Tegelen,Venlo,Limburg,VBO,6.140786,51.332132
Kasteellaan,24,,,5932AG,Tegelen,Venlo,Limburg,VBO,6.140993,51.332288
Kasteellaan,26,,,5932AG,Tegelen,Venlo,Limburg,VBO,6.141610,51.332632
Kasteellaan,28,,,5932AG,Tegelen,Venlo,Limburg,VBO,6.141817,51.332751
Kasteellaan,30,,,5932AG,Tegelen,Venlo,Limburg,VBO,6.141888,51.332792
Kasteellaan,32,,,5932AG,Tegelen,Venlo,Limburg,VBO,6.142017,51.332867
Kasteellaan,34,,,5932AG,Tegelen,Venlo,Limburg,VBO,6.142088,51.332908
Kasteellaan,36,,,5932AG,Tegelen,Venlo,Limburg,VBO,6.142218,51.332983
Kasteellaan,38,,,5932AG,Tegelen,Venlo,Limburg,VBO,6.142289,51.333024
Kasteellaan,40,A,,5932AG,Tegelen,Venlo,Limburg,VBO,6.142499,51.333145
Kasteellaan,40,,,5932AG,Tegelen,Venlo,Limburg,VBO,6.142419,51.333098
Kasteellaan,42,A,,5932AG,Tegelen,Venlo,Limburg,VBO,6.142700,51.333261
Kasteellaan,42,,,5932AG,Tegelen,Venlo,Limburg,VBO,6.142619,51.333215
Kasteellaan,44,,,5932AG,Tegelen,Venlo,Limburg,VBO,6.142847,51.333346
Bakenbosweg,3,,,5932AH,Tegelen,Venlo,Limburg,VBO,6.138135,51.325924
Bakenbosweg,4,,,5932AH,Tegelen,Venlo,Limburg,VBO,6.133123,51.328194
Bakenbosweg,5,,,5932AH,Tegelen,Venlo,Limburg,VBO,6.138039,51.325883
Bakenbosweg,6,,,5932AH,Tegelen,Venlo,Limburg,VBO,6.133499,51.328030
Bakenbosweg,7,,,5932AH,Tegelen,Venlo,Limburg,VBO,6.137989,51.325862
Bakenbosweg,9,,,5932AH,Tegelen,Venlo,Limburg,VBO,6.137924,51.325835
Bakenbosweg,10,,,5932AH,Tegelen,Venlo,Limburg,VBO,6.138176,51.326876
Bakenbosweg,11,,,5932AH,Tegelen,Venlo,Limburg,VBO,6.137868,51.325811
Bakenbosweg,12,,,5932AH,Tegelen,Venlo,Limburg,VBO,6.137094,51.325971
Bakenbosweg,13,,,5932AH,Tegelen,Venlo,Limburg,VBO,6.137801,51.325785
Bakenbosweg,15,,,5932AH,Tegelen,Venlo,Limburg,VBO,6.137735,51.325757
Bakenbosweg,17,,,5932AH,Tegelen,Venlo,Limburg,VBO,6.137670,51.325727
Bakenbosweg,19,,,5932AH,Tegelen,Venlo,Limburg,VBO,6.137606,51.325700
Bakenbosweg,21,,,5932AH,Tegelen,Venlo,Limburg,VBO,6.137541,51.325672
Bakenbosweg,23,,,5932AH,Tegelen,Venlo,Limburg,VBO,6.137469,51.325632
Bakenbosweg,25,,,5932AH,Tegelen,Venlo,Limburg,VBO,6.137393,51.325609
Leemhorst,7,,,5932AJ,Tegelen,Venlo,Limburg,VBO,6.138261,51.324564
Windhond,9,,,5932AL,Tegelen,Venlo,Limburg,VBO,6.143332,51.333353
Windhond,11,A,,5932AL,Tegelen,Venlo,Limburg,VBO,6.143497,51.333152
Windhond,11,,,5932AL,Tegelen,Venlo,Limburg,VBO,6.143408,51.333259
Windhond,13,,,5932AL,Tegelen,Venlo,Limburg,VBO,6.143551,51.333085
Windhond,15,,,5932AL,Tegelen,Venlo,Limburg,VBO,6.143571,51.332963
Windhond,17,,,5932AL,Tegelen,Venlo,Limburg,VBO,6.143611,51.332914
Windhond,19,,,5932AL,Tegelen,Venlo,Limburg,VBO,6.143793,51.332787
Windhond,21,,,5932AM,Tegelen,Venlo,Limburg,VBO,6.144585,51.332074
Windhond,23,,,5932AM,Tegelen,Venlo,Limburg,VBO,6.144585,51.332074
Windhond,25,,,5932AM,Tegelen,Venlo,Limburg,VBO,6.144585,51.332074
Windhond,27,,,5932AM,Tegelen,Venlo,Limburg,VBO,6.144585,51.332074
Windhond,29,,,5932AM,Tegelen,Venlo,Limburg,VBO,6.144585,51.332074
Windhond,31,,,5932AM,Tegelen,Venlo,Limburg,VBO,6.144585,51.332074
Windhond,33,,,5932AM,Tegelen,Venlo,Limburg,VBO,6.144585,51.332074
Windhond,35,,,5932AM,Tegelen,Venlo,Limburg,VBO,6.144585,51.332074
Windhond,37,,,5932AM,Tegelen,Venlo,Limburg,VBO,6.144585,51.332074
Windhond,39,,,5932AM,Tegelen,Venlo,Limburg,VBO,6.144585,51.332074
Windhond,41,,,5932AM,Tegelen,Venlo,Limburg,VBO,6.144585,51.332074
Windhond,43,,,5932AM,Tegelen,Venlo,Limburg,VBO,6.144585,51.332074
Windhond,45,,,5932AM,Tegelen,Venlo,Limburg,VBO,6.144585,51.332074
Windhond,47,,,5932AM,Tegelen,Venlo,Limburg,VBO,6.144585,51.332074
Windhond,49,,,5932AM,Tegelen,Venlo,Limburg,VBO,6.144585,51.332074
Windhond,51,,,5932AM,Tegelen,Venlo,Limburg,VBO,6.144585,51.332074
Windhond,53,,,5932AM,Tegelen,Venlo,Limburg,VBO,6.144585,51.332074
Windhond,55,,,5932AM,Tegelen,Venlo,Limburg,VBO,6.144585,51.332074
Windhond,57,,,5932AM,Tegelen,Venlo,Limburg,VBO,6.144585,51.332074
Windhond,59,,,5932AM,Tegelen,Venlo,Limburg,VBO,6.144585,51.332074
Windhond,61,,,5932AM,Tegelen,Venlo,Limburg,VBO,6.144585,51.332074
Windhond,63,,,5932AM,Tegelen,Venlo,Limburg,VBO,6.144585,51.332074
Windhond,65,,,5932AM,Tegelen,Venlo,Limburg,VBO,6.144585,51.332074
Windhond,67,,,5932AM,Tegelen,Venlo,Limburg,VBO,6.144585,51.332074
Windhond,69,,,5932AM,Tegelen,Venlo,Limburg,VBO,6.144585,51.332074
Windhond,71,,,5932AM,Tegelen,Venlo,Limburg,VBO,6.144585,51.332074
Windhond,73,,,5932AM,Tegelen,Venlo,Limburg,VBO,6.144585,51.332074
Windhond,75,,,5932AM,Tegelen,Venlo,Limburg,VBO,6.144585,51.332074
Windhond,77,,,5932AM,Tegelen,Venlo,Limburg,VBO,6.144585,51.332074
Windhond,79,,,5932AM,Tegelen,Venlo,Limburg,VBO,6.144585,51.332074
Windhond,81,,,5932AM,Tegelen,Venlo,Limburg,VBO,6.144585,51.332074
Windhond,83,,,5932AM,Tegelen,Venlo,Limburg,VBO,6.144585,51.332074
Windhond,85,,,5932AM,Tegelen,Venlo,Limburg,VBO,6.144585,51.332074
Windhond,87,,,5932AM,Tegelen,Venlo,Limburg,VBO,6.144585,51.332074
Windhond,89,,,5932AM,Tegelen,Venlo,Limburg,VBO,6.144585,51.332074
Windhond,91,,,5932AM,Tegelen,Venlo,Limburg,VBO,6.144585,51.332074
Windhond,93,,,5932AM,Tegelen,Venlo,Limburg,VBO,6.144585,51.332074
Windhond,95,,,5932AM,Tegelen,Venlo,Limburg,VBO,6.144585,51.332074
Windhond,97,,,5932AM,Tegelen,Venlo,Limburg,VBO,6.144585,51.332074
Windhond,99,,,5932AM,Tegelen,Venlo,Limburg,VBO,6.144585,51.332074
Windhond,101,,,5932AM,Tegelen,Venlo,Limburg,VBO,6.144585,51.332074
Windhond,103,,,5932AM,Tegelen,Venlo,Limburg,VBO,6.144585,51.332074
Windhond,105,,,5932AM,Tegelen,Venlo,Limburg,VBO,6.144585,51.332074
Windhond,107,,,5932AM,Tegelen,Venlo,Limburg,VBO,6.144585,51.332074
Windhond,109,,,5932AM,Tegelen,Venlo,Limburg,VBO,6.144585,51.332074
Windhond,111,,,5932AM,Tegelen,Venlo,Limburg,VBO,6.144585,51.332074
Windhond,113,,,5932AM,Tegelen,Venlo,Limburg,VBO,6.144585,51.332074
Windhond,115,,,5932AM,Tegelen,Venlo,Limburg,VBO,6.144585,51.332074
Windhond,117,,,5932AM,Tegelen,Venlo,Limburg,VBO,6.144585,51.332074
Windhond,119,,,5932AM,Tegelen,Venlo,Limburg,VBO,6.144585,51.332074
Windhond,121,,,5932AM,Tegelen,Venlo,Limburg,VBO,6.144585,51.332074
Windhond,123,,,5932AM,Tegelen,Venlo,Limburg,VBO,6.144585,51.332074
Windhond,125,,,5932AM,Tegelen,Venlo,Limburg,VBO,6.144585,51.332074
Windhond,127,,,5932AM,Tegelen,Venlo,Limburg,VBO,6.144585,51.332074
Windhond,129,,,5932AM,Tegelen,Venlo,Limburg,VBO,6.144585,51.332074
Windhond,131,,,5932AM,Tegelen,Venlo,Limburg,VBO,6.144585,51.332074
Windhond,133,,,5932AM,Tegelen,Venlo,Limburg,VBO,6.144585,51.332074
Windhond,135,,,5932AM,Tegelen,Venlo,Limburg,VBO,6.144585,51.332074
Windhond,8,,,5932AN,Tegelen,Venlo,Limburg,VBO,6.143514,51.332629
Windhond,237,,,5932AN,Tegelen,Venlo,Limburg,VBO,6.142846,51.328848
Windhond,247,,,5932AN,Tegelen,Venlo,Limburg,VBO,6.141322,51.327730
Windhond,249,,,5932AN,Tegelen,Venlo,Limburg,VBO,6.141025,51.327432
Windhond,251,,,5932AN,Tegelen,Venlo,Limburg,VBO,6.140524,51.326948
Windhond,253,,,5932AN,Tegelen,Venlo,Limburg,VBO,6.140850,51.326373
Metternichstraat,1,,,5932AW,Tegelen,Venlo,Limburg,VBO,6.143635,51.331939
Metternichstraat,3,,,5932AW,Tegelen,Venlo,Limburg,VBO,6.143440,51.331953
Metternichstraat,4,,,5932AW,Tegelen,Venlo,Limburg,VBO,6.141887,51.332290
Metternichstraat,5,,,5932AW,Tegelen,Venlo,Limburg,VBO,6.143290,51.331960
Metternichstraat,6,,,5932AW,Tegelen,Venlo,Limburg,VBO,6.141791,51.332296
Metternichstraat,7,,,5932AW,Tegelen,Venlo,Limburg,VBO,6.143117,51.331970
Metternichstraat,8,,,5932AW,Tegelen,Venlo,Limburg,VBO,6.141614,51.332307
Metternichstraat,9,,,5932AW,Tegelen,Venlo,Limburg,VBO,6.142796,51.331991
Metternichstraat,10,,,5932AW,Tegelen,Venlo,Limburg,VBO,6.141507,51.332314
Metternichstraat,11,,,5932AW,Tegelen,Venlo,Limburg,VBO,6.142634,51.332000
Metternichstraat,13,,,5932AW,Tegelen,Venlo,Limburg,VBO,6.142439,51.332013
Metternichstraat,15,,,5932AW,Tegelen,Venlo,Limburg,VBO,6.142289,51.332021
Metternichstraat,17,A,,5932AW,Tegelen,Venlo,Limburg,VBO,6.141973,51.332018
Metternichstraat,17,,,5932AW,Tegelen,Venlo,Limburg,VBO,6.141968,51.332041
Metternichstraat,19,,,5932AW,Tegelen,Venlo,Limburg,VBO,6.141795,51.332051
Metternichstraat,21,,,5932AW,Tegelen,Venlo,Limburg,VBO,6.141622,51.332062
Metternichstraat,23,,,5932AW,Tegelen,Venlo,Limburg,VBO,6.141450,51.332072
Godartstraat,1,,,5932AX,Tegelen,Venlo,Limburg,VBO,6.143261,51.332890
Godartstraat,2,,,5932AX,Tegelen,Venlo,Limburg,VBO,6.143096,51.333076
Godartstraat,3,,,5932AX,Tegelen,Venlo,Limburg,VBO,6.143187,51.332847
Godartstraat,4,,,5932AX,Tegelen,Venlo,Limburg,VBO,6.143025,51.333035
Godartstraat,5,,,5932AX,Tegelen,Venlo,Limburg,VBO,6.143050,51.332767
Godartstraat,6,,,5932AX,Tegelen,Venlo,Limburg,VBO,6.142896,51.332960
Godartstraat,7,,,5932AX,Tegelen,Venlo,Limburg,VBO,6.142975,51.332724
Godartstraat,8,,,5932AX,Tegelen,Venlo,Limburg,VBO,6.142825,51.332919
Godartstraat,9,,,5932AX,Tegelen,Venlo,Limburg,VBO,6.142837,51.332643
Godartstraat,10,,,5932AX,Tegelen,Venlo,Limburg,VBO,6.142688,51.332840
Godartstraat,11,,,5932AX,Tegelen,Venlo,Limburg,VBO,6.142770,51.332604
Godartstraat,12,,,5932AX,Tegelen,Venlo,Limburg,VBO,6.142617,51.332799
Godartstraat,13,,,5932AX,Tegelen,Venlo,Limburg,VBO,6.142634,51.332524
Godartstraat,14,,,5932AX,Tegelen,Venlo,Limburg,VBO,6.142487,51.332724
Godartstraat,15,,,5932AX,Tegelen,Venlo,Limburg,VBO,6.142559,51.332481
Godartstraat,16,,,5932AX,Tegelen,Venlo,Limburg,VBO,6.142417,51.332683
Godartstraat,17,,,5932AX,Tegelen,Venlo,Limburg,VBO,6.142347,51.332348
Godartstraat,18,,,5932AX,Tegelen,Venlo,Limburg,VBO,6.142246,51.332609
Godartstraat,19,,,5932AX,Tegelen,Venlo,Limburg,VBO,6.142335,51.332285
Ottostraat,2,,,5932AZ,Tegelen,Venlo,Limburg,VBO,6.143395,51.332488
Ottostraat,4,,,5932AZ,Tegelen,Venlo,Limburg,VBO,6.143248,51.332404
Ottostraat,6,,,5932AZ,Tegelen,Venlo,Limburg,VBO,6.143097,51.332318
Ottostraat,8,,,5932AZ,Tegelen,Venlo,Limburg,VBO,6.142839,51.332224
Holtmühlestraat,1,,,5932BA,Tegelen,Venlo,Limburg,VBO,6.144087,51.332816
Holtmühlestraat,3,,,5932BA,Tegelen,Venlo,Limburg,VBO,6.144140,51.332861
Holtmühlestraat,5,,,5932BA,Tegelen,Venlo,Limburg,VBO,6.144193,51.332906
Holtmühlestraat,7,,,5932BA,Tegelen,Venlo,Limburg,VBO,6.144246,51.332952
Holtmühlestraat,9,,,5932BA,Tegelen,Venlo,Limburg,VBO,6.144300,51.332998
Holtmühlestraat,11,,,5932BA,Tegelen,Venlo,Limburg,VBO,6.144383,51.333491
Holtmühlestraat,13,,,5932BA,Tegelen,Venlo,Limburg,VBO,6.144403,51.333508
Holtmühlestraat,15,,,5932BA,Tegelen,Venlo,Limburg,VBO,6.144434,51.333535
Holtmühlestraat,17,,,5932BA,Tegelen,Venlo,Limburg,VBO,6.144466,51.333558
Holtmühlestraat,19,,,5932BA,Tegelen,Venlo,Limburg,VBO,6.144500,51.333585
Holtmühlestraat,21,,,5932BA,Tegelen,Venlo,Limburg,VBO,6.144540,51.333619
Holtmühlestraat,23,,,5932BA,Tegelen,Venlo,Limburg,VBO,6.144581,51.333650
Holtmühlestraat,25,,,5932BA,Tegelen,Venlo,Limburg,VBO,6.144621,51.333681
Holtmühlestraat,27,,,5932BA,Tegelen,Venlo,Limburg,VBO,6.144668,51.333719
Holtmühlestraat,29,,,5932BA,Tegelen,Venlo,Limburg,VBO,6.144752,51.333786
Holtmühlestraat,31,,,5932BA,Tegelen,Venlo,Limburg,VBO,6.144799,51.333810
Holtmühlestraat,33,,,5932BA,Tegelen,Venlo,Limburg,VBO,6.144827,51.333846
Holtmühlestraat,35,,,5932BA,Tegelen,Venlo,Limburg,VBO,6.144859,51.333871
Holtmühlestraat,37,,,5932BA,Tegelen,Venlo,Limburg,VBO,6.144907,51.333896
Holtmühlestraat,39,,,5932BA,Tegelen,Venlo,Limburg,VBO,6.144934,51.333930
Holtmühlestraat,41,,,5932BA,Tegelen,Venlo,Limburg,VBO,6.144966,51.333956
Holtmühlestraat,43,,,5932BA,Tegelen,Venlo,Limburg,VBO,6.145013,51.333981
Holtmühlestraat,45,,,5932BA,Tegelen,Venlo,Limburg,VBO,6.145041,51.334016
Holtmühlestraat,47,,,5932BB,Tegelen,Venlo,Limburg,VBO,6.145553,51.334079
Holtmühlestraat,49,,,5932BB,Tegelen,Venlo,Limburg,VBO,6.145698,51.334229
Holtmühlestraat,51,,,5932BB,Tegelen,Venlo,Limburg,VBO,6.145748,51.334274
Holtmühlestraat,53,,,5932BB,Tegelen,Venlo,Limburg,VBO,6.145798,51.334318
Holtmühlestraat,55,,,5932BB,Tegelen,Venlo,Limburg,VBO,6.145847,51.334361
Holtmühlestraat,57,,,5932BB,Tegelen,Venlo,Limburg,VBO,6.145896,51.334406
Holtmühlestraat,59,,,5932BB,Tegelen,Venlo,Limburg,VBO,6.145946,51.334451
Holtmühlestraat,61,,,5932BB,Tegelen,Venlo,Limburg,VBO,6.145996,51.334495
Holtmühlestraat,63,,,5932BB,Tegelen,Venlo,Limburg,VBO,6.146045,51.334539
Holtmühlestraat,65,,,5932BB,Tegelen,Venlo,Limburg,VBO,6.146128,51.334613
Holtmühlestraat,67,,,5932BB,Tegelen,Venlo,Limburg,VBO,6.146178,51.334657
Holtmühlestraat,69,,,5932BB,Tegelen,Venlo,Limburg,VBO,6.146227,51.334702
Holtmühlestraat,71,,,5932BB,Tegelen,Venlo,Limburg,VBO,6.146277,51.334746
Holtmühlestraat,73,,,5932BB,Tegelen,Venlo,Limburg,VBO,6.146327,51.334791
Holtmühlestraat,75,,,5932BB,Tegelen,Venlo,Limburg,VBO,6.146376,51.334835
Holtmühlestraat,77,,,5932BB,Tegelen,Venlo,Limburg,VBO,6.146425,51.334879
Holtmühlestraat,79,,,5932BB,Tegelen,Venlo,Limburg,VBO,6.146475,51.334924
Holtmühlestraat,6,,,5932BC,Tegelen,Venlo,Limburg,VBO,6.144037,51.332517
Holtmühlestraat,8,,,5932BC,Tegelen,Venlo,Limburg,VBO,6.144119,51.332543
Holtmühlestraat,10,,,5932BC,Tegelen,Venlo,Limburg,VBO,6.144340,51.332638
Holtmühlestraat,12,,,5932BC,Tegelen,Venlo,Limburg,VBO,6.144396,51.332685
Holtmühlestraat,14,,,5932BC,Tegelen,Venlo,Limburg,VBO,6.144453,51.332733
Holtmühlestraat,16,,,5932BC,Tegelen,Venlo,Limburg,VBO,6.144510,51.332780
Holtmühlestraat,18,,,5932BC,Tegelen,Venlo,Limburg,VBO,6.144566,51.332828
Holtmühlestraat,20,,,5932BC,Tegelen,Venlo,Limburg,VBO,6.144623,51.332875
Holtmühlestraat,22,,,5932BC,Tegelen,Venlo,Limburg,VBO,6.145030,51.333235
Holtmühlestraat,24,,,5932BC,Tegelen,Venlo,Limburg,VBO,6.145081,51.333282
Holtmühlestraat,26,,,5932BC,Tegelen,Venlo,Limburg,VBO,6.145133,51.333328
Holtmühlestraat,28,,,5932BC,Tegelen,Venlo,Limburg,VBO,6.145184,51.333374
Holtmühlestraat,30,,,5932BC,Tegelen,Venlo,Limburg,VBO,6.145236,51.333420
Holtmühlestraat,32,,,5932BC,Tegelen,Venlo,Limburg,VBO,6.145287,51.333467
Holtmühlestraat,34,,,5932BC,Tegelen,Venlo,Limburg,VBO,6.145376,51.333546
Holtmühlestraat,36,,,5932BC,Tegelen,Venlo,Limburg,VBO,6.145427,51.333592
Holtmühlestraat,38,,,5932BC,Tegelen,Venlo,Limburg,VBO,6.145479,51.333639
Holtmühlestraat,40,,,5932BC,Tegelen,Venlo,Limburg,VBO,6.145531,51.333685
Holtmühlestraat,42,,,5932BC,Tegelen,Venlo,Limburg,VBO,6.145582,51.333731
Holtmühlestraat,44,,,5932BC,Tegelen,Venlo,Limburg,VBO,6.145634,51.333777
Holtmühlestraat,46,,,5932BD,Tegelen,Venlo,Limburg,VBO,6.146037,51.334141
Holtmühlestraat,48,,,5932BD,Tegelen,Venlo,Limburg,VBO,6.146087,51.334186
Holtmühlestraat,50,,,5932BD,Tegelen,Venlo,Limburg,VBO,6.146136,51.334230
Holtmühlestraat,52,,,5932BD,Tegelen,Venlo,Limburg,VBO,6.146186,51.334275
Holtmühlestraat,54,,,5932BD,Tegelen,Venlo,Limburg,VBO,6.146236,51.334319
Holtmühlestraat,56,,,5932BD,Tegelen,Venlo,Limburg,VBO,6.146285,51.334364
Holtmühlestraat,58,,,5932BD,Tegelen,Venlo,Limburg,VBO,6.146335,51.334408
Holtmühlestraat,60,,,5932BD,Tegelen,Venlo,Limburg,VBO,6.146384,51.334453
Holtmühlestraat,62,,,5932BD,Tegelen,Venlo,Limburg,VBO,6.146467,51.334527
Holtmühlestraat,64,,,5932BD,Tegelen,Venlo,Limburg,VBO,6.146518,51.334572
Holtmühlestraat,66,,,5932BD,Tegelen,Venlo,Limburg,VBO,6.146568,51.334617
Holtmühlestraat,68,,,5932BD,Tegelen,Venlo,Limburg,VBO,6.146616,51.334661
Holtmühlestraat,70,,,5932BD,Tegelen,Venlo,Limburg,VBO,6.146666,51.334705
Holtmühlestraat,72,,,5932BD,Tegelen,Venlo,Limburg,VBO,6.146715,51.334749
Holtmühlestraat,74,,,5932BD,Tegelen,Venlo,Limburg,VBO,6.146765,51.334794
Holtmühlestraat,76,,,5932BD,Tegelen,Venlo,Limburg,VBO,6.146814,51.334838
van Kleefstraat,2,,,5932BE,Tegelen,Venlo,Limburg,VBO,6.143714,51.333570
van Kleefstraat,3,,,5932BE,Tegelen,Venlo,Limburg,VBO,6.143911,51.333760
van Kleefstraat,4,,,5932BE,Tegelen,Venlo,Limburg,VBO,6.143777,51.333535
van Kleefstraat,5,,,5932BE,Tegelen,Venlo,Limburg,VBO,6.143979,51.333722
van Kleefstraat,6,,,5932BE,Tegelen,Venlo,Limburg,VBO,6.143839,51.333500
van Kleefstraat,7,,,5932BE,Tegelen,Venlo,Limburg,VBO,6.144047,51.333685
van Kleefstraat,8,,,5932BE,Tegelen,Venlo,Limburg,VBO,6.143902,51.333466
van Kleefstraat,9,,,5932BE,Tegelen,Venlo,Limburg,VBO,6.144115,51.333647
van Kleefstraat,10,,,5932BE,Tegelen,Venlo,Limburg,VBO,6.143972,51.333426
van Kleefstraat,12,,,5932BE,Tegelen,Venlo,Limburg,VBO,6.144036,51.333391
van Kleefstraat,14,,,5932BE,Tegelen,Venlo,Limburg,VBO,6.144154,51.333334
van Kleefstraat,16,,,5932BE,Tegelen,Venlo,Limburg,VBO,6.144226,51.333300
van Kleefstraat,18,,,5932BE,Tegelen,Venlo,Limburg,VBO,6.144297,51.333266
van Kleefstraat,20,,,5932BE,Tegelen,Venlo,Limburg,VBO,6.144369,51.333232
van Kleefstraat,22,,,5932BE,Tegelen,Venlo,Limburg,VBO,6.144441,51.333198
van Kleefstraat,24,,,5932BE,Tegelen,Venlo,Limburg,VBO,6.144513,51.333164
van Kleefstraat,26,,,5932BE,Tegelen,Venlo,Limburg,VBO,6.144851,51.333018
van Kleefstraat,28,,,5932BE,Tegelen,Venlo,Limburg,VBO,6.144930,51.332985
van Kleefstraat,30,,,5932BE,Tegelen,Venlo,Limburg,VBO,6.145009,51.332953
van Kleefstraat,32,,,5932BE,Tegelen,Venlo,Limburg,VBO,6.145088,51.332921
van Kleefstraat,34,,,5932BE,Tegelen,Venlo,Limburg,VBO,6.145167,51.332889
van Kleefstraat,36,,,5932BE,Tegelen,Venlo,Limburg,VBO,6.145247,51.332856
van Kleefstraat,38,,,5932BE,Tegelen,Venlo,Limburg,VBO,6.145326,51.332824
van Kleefstraat,40,,,5932BE,Tegelen,Venlo,Limburg,VBO,6.145405,51.332792
von Hundtstraat,5,,,5932BG,Tegelen,Venlo,Limburg,VBO,6.144973,51.334379
von Hundtstraat,7,,,5932BG,Tegelen,Venlo,Limburg,VBO,6.145047,51.334347
von Hundtstraat,9,,,5932BG,Tegelen,Venlo,Limburg,VBO,6.145108,51.334309
von Hundtstraat,11,,,5932BG,Tegelen,Venlo,Limburg,VBO,6.145163,51.334276
von Hundtstraat,13,,,5932BG,Tegelen,Venlo,Limburg,VBO,6.145225,51.334237
von Hundtstraat,15,,,5932BG,Tegelen,Venlo,Limburg,VBO,6.145353,51.334156
von Hundtstraat,17,,,5932BG,Tegelen,Venlo,Limburg,VBO,6.145444,51.334119
von Hundtstraat,19,,,5932BG,Tegelen,Venlo,Limburg,VBO,6.145865,51.333950
von Hundtstraat,21,,,5932BG,Tegelen,Venlo,Limburg,VBO,6.145944,51.333918
von Hundtstraat,23,,,5932BG,Tegelen,Venlo,Limburg,VBO,6.146024,51.333886
von Hundtstraat,25,,,5932BG,Tegelen,Venlo,Limburg,VBO,6.146103,51.333854
von Hundtstraat,27,,,5932BG,Tegelen,Venlo,Limburg,VBO,6.146182,51.333821
von Hundtstraat,29,,,5932BG,Tegelen,Venlo,Limburg,VBO,6.146262,51.333789
von Hundtstraat,31,,,5932BG,Tegelen,Venlo,Limburg,VBO,6.146341,51.333757
Sporenkampweg,1,,,5932BH,Tegelen,Venlo,Limburg,VBO,6.144892,51.332318
Sporenkampweg,3,,,5932BH,Tegelen,Venlo,Limburg,VBO,6.144901,51.332351
Sporenkampweg,5,,,5932BH,Tegelen,Venlo,Limburg,VBO,6.144960,51.332346
Sporenkampweg,7,,,5932BH,Tegelen,Venlo,Limburg,VBO,6.145021,51.332396
Sporenkampweg,9,,,5932BH,Tegelen,Venlo,Limburg,VBO,6.145000,51.332441
Sporenkampweg,11,,,5932BH,Tegelen,Venlo,Limburg,VBO,6.145030,51.332470
Sporenkampweg,13,,,5932BH,Tegelen,Venlo,Limburg,VBO,6.145079,51.332507
Sporenkampweg,15,,,5932BH,Tegelen,Venlo,Limburg,VBO,6.145094,51.332552
Sporenkampweg,17,,,5932BH,Tegelen,Venlo,Limburg,VBO,6.145173,51.332552
Sporenkampweg,19,,,5932BH,Tegelen,Venlo,Limburg,VBO,6.145201,51.332583
Sporenkampweg,21,,,5932BH,Tegelen,Venlo,Limburg,VBO,6.145178,51.332630
Sporenkampweg,23,,,5932BH,Tegelen,Venlo,Limburg,VBO,6.145223,51.332662
Sporenkampweg,25,,,5932BJ,Tegelen,Venlo,Limburg,VBO,6.145567,51.332949
Sporenkampweg,27,,,5932BJ,Tegelen,Venlo,Limburg,VBO,6.145602,51.332984
Sporenkampweg,29,,,5932BJ,Tegelen,Venlo,Limburg,VBO,6.145632,51.333013
Sporenkampweg,31,,,5932BJ,Tegelen,Venlo,Limburg,VBO,6.145661,51.333041
Sporenkampweg,33,,,5932BJ,Tegelen,Venlo,Limburg,VBO,6.145691,51.333073
Sporenkampweg,35,,,5932BJ,Tegelen,Venlo,Limburg,VBO,6.145720,51.333102
Sporenkampweg,37,,,5932BJ,Tegelen,Venlo,Limburg,VBO,6.145769,51.333137
Sporenkampweg,39,,,5932BJ,Tegelen,Venlo,Limburg,VBO,6.145781,51.333161
Sporenkampweg,41,,,5932BJ,Tegelen,Venlo,Limburg,VBO,6.145809,51.333188
Sporenkampweg,43,,,5932BJ,Tegelen,Venlo,Limburg,VBO,6.145860,51.333227
Sporenkampweg,45,,,5932BJ,Tegelen,Venlo,Limburg,VBO,6.145869,51.333247
Sporenkampweg,47,,,5932BJ,Tegelen,Venlo,Limburg,VBO,6.145904,51.333283
Sporenkampweg,49,,,5932BJ,Tegelen,Venlo,Limburg,VBO,6.145951,51.333317
Sporenkampweg,51,,,5932BJ,Tegelen,Venlo,Limburg,VBO,6.145960,51.333339
Sporenkampweg,53,,,5932BJ,Tegelen,Venlo,Limburg,VBO,6.145987,51.333365
Sporenkampweg,55,,,5932BJ,Tegelen,Venlo,Limburg,VBO,6.146036,51.333414
Sporenkampweg,57,,,5932BJ,Tegelen,Venlo,Limburg,VBO,6.146059,51.333431
Sporenkampweg,59,,,5932BJ,Tegelen,Venlo,Limburg,VBO,6.146073,51.333452
Sporenkampweg,61,,,5932BJ,Tegelen,Venlo,Limburg,VBO,6.146126,51.333507
Sporenkampweg,63,,,5932BJ,Tegelen,Venlo,Limburg,VBO,6.146149,51.333526
Sporenkampweg,65,,,5932BJ,Tegelen,Venlo,Limburg,VBO,6.146188,51.333565
Sporenkampweg,67,,,5932BK,Tegelen,Venlo,Limburg,VBO,6.146526,51.333902
Sporenkampweg,69,,,5932BK,Tegelen,Venlo,Limburg,VBO,6.146561,51.333936
Sporenkampweg,71,,,5932BK,Tegelen,Venlo,Limburg,VBO,6.146591,51.333966
Sporenkampweg,73,,,5932BK,Tegelen,Venlo,Limburg,VBO,6.146620,51.333995
Sporenkampweg,75,,,5932BK,Tegelen,Venlo,Limburg,VBO,6.146652,51.334028
Sporenkampweg,77,,,5932BK,Tegelen,Venlo,Limburg,VBO,6.146684,51.334059
Sporenkampweg,79,,,5932BK,Tegelen,Venlo,Limburg,VBO,6.146715,51.334090
Sporenkampweg,81,,,5932BK,Tegelen,Venlo,Limburg,VBO,6.146746,51.334121
Sporenkampweg,83,,,5932BK,Tegelen,Venlo,Limburg,VBO,6.146774,51.334149
Sporenkampweg,85,,,5932BK,Tegelen,Venlo,Limburg,VBO,6.146809,51.334188
Sporenkampweg,87,,,5932BK,Tegelen,Venlo,Limburg,VBO,6.146835,51.334210
Sporenkampweg,89,,,5932BK,Tegelen,Venlo,Limburg,VBO,6.146868,51.334242
Sporenkampweg,91,,,5932BK,Tegelen,Venlo,Limburg,VBO,6.146960,51.334333
Sporenkampweg,93,,,5932BK,Tegelen,Venlo,Limburg,VBO,6.146987,51.334360
Sporenkampweg,95,,,5932BK,Tegelen,Venlo,Limburg,VBO,6.147016,51.334389
Sporenkampweg,97,,,5932BK,Tegelen,Venlo,Limburg,VBO,6.147058,51.334429
Sporenkampweg,99,,,5932BK,Tegelen,Venlo,Limburg,VBO,6.147076,51.334448
Sporenkampweg,101,,,5932BK,Tegelen,Venlo,Limburg,VBO,6.147099,51.334470
Sporenkampweg,103,,,5932BK,Tegelen,Venlo,Limburg,VBO,6.147150,51.334523
Sporenkampweg,105,,,5932BK,Tegelen,Venlo,Limburg,VBO,6.147167,51.334538
Sporenkampweg,107,,,5932BK,Tegelen,Venlo,Limburg,VBO,6.147200,51.334571
Sporenkampweg,109,,,5932BK,Tegelen,Venlo,Limburg,VBO,6.147243,51.334614
Sporenkampweg,111,,,5932BK,Tegelen,Venlo,Limburg,VBO,6.147266,51.334638
Sporenkampweg,113,,,5932BK,Tegelen,Venlo,Limburg,VBO,6.147294,51.334666
Sint Vincentiusstraat,2,,,5932BN,Tegelen,Venlo,Limburg,VBO,6.147767,51.335883
Sint Vincentiusstraat,4,,,5932BN,Tegelen,Venlo,Limburg,VBO,6.148148,51.335769
Sint Vincentiusstraat,5,,,5932BN,Tegelen,Venlo,Limburg,VBO,6.148397,51.335991
Sint Vincentiusstraat,6,,,5932BN,Tegelen,Venlo,Limburg,VBO,6.148115,51.335702
Sint Vincentiusstraat,8,,,5932BN,Tegelen,Venlo,Limburg,VBO,6.148074,51.335648
Sint Vincentiusstraat,10,,,5932BN,Tegelen,Venlo,Limburg,VBO,6.148009,51.335561
Sint Vincentiusstraat,12,,,5932BN,Tegelen,Venlo,Limburg,VBO,6.147967,51.335505
Sint Vincentiusstraat,14,,,5932BN,Tegelen,Venlo,Limburg,VBO,6.147902,51.335418
Sint Vincentiusstraat,16,,,5932BN,Tegelen,Venlo,Limburg,VBO,6.147861,51.335365
Sint Vincentiusstraat,18,,,5932BN,Tegelen,Venlo,Limburg,VBO,6.147772,51.335282
Sint Vincentiusstraat,20,,,5932BN,Tegelen,Venlo,Limburg,VBO,6.147747,51.335247
Sint Vincentiusstraat,22,,,5932BN,Tegelen,Venlo,Limburg,VBO,6.147726,51.335188
Sint Vincentiusstraat,24,,,5932BN,Tegelen,Venlo,Limburg,VBO,6.147276,51.335306
Sint Aloysiusstraat,1,,,5932BP,Tegelen,Venlo,Limburg,VBO,6.148964,51.337017
Sint Aloysiusstraat,2,A,,5932BP,Tegelen,Venlo,Limburg,VBO,6.147598,51.337069
Sint Aloysiusstraat,2,,,5932BP,Tegelen,Venlo,Limburg,VBO,6.147441,51.337137
Sint Aloysiusstraat,3,,,5932BP,Tegelen,Venlo,Limburg,VBO,6.149071,51.336980
Sint Aloysiusstraat,4,,,5932BP,Tegelen,Venlo,Limburg,VBO,6.147848,51.337019
Sint Aloysiusstraat,5,,,5932BP,Tegelen,Venlo,Limburg,VBO,6.149176,51.336943
Sint Aloysiusstraat,6,,,5932BP,Tegelen,Venlo,Limburg,VBO,6.148050,51.336966
Sint Aloysiusstraat,7,,,5932BP,Tegelen,Venlo,Limburg,VBO,6.149356,51.337221
Sint Aloysiusstraat,9,,,5932BP,Tegelen,Venlo,Limburg,VBO,6.149356,51.337221
Sint Aloysiusstraat,11,,,5932BP,Tegelen,Venlo,Limburg,VBO,6.149356,51.337221
Sint Aloysiusstraat,13,,,5932BP,Tegelen,Venlo,Limburg,VBO,6.149356,51.337221
Sint Aloysiusstraat,15,,,5932BP,Tegelen,Venlo,Limburg,VBO,6.149356,51.337221
Sint Aloysiusstraat,17,,,5932BP,Tegelen,Venlo,Limburg,VBO,6.149356,51.337221
Sint Aloysiusstraat,19,,,5932BP,Tegelen,Venlo,Limburg,VBO,6.149356,51.337221
Sint Aloysiusstraat,21,,,5932BP,Tegelen,Venlo,Limburg,VBO,6.149356,51.337221
Sint Aloysiusstraat,23,,,5932BP,Tegelen,Venlo,Limburg,VBO,6.149356,51.337221
Sint Aloysiusstraat,25,,,5932BP,Tegelen,Venlo,Limburg,VBO,6.149356,51.337221
Sint Aloysiusstraat,27,,,5932BP,Tegelen,Venlo,Limburg,VBO,6.149614,51.337515
Sint Aloysiusstraat,29,,,5932BP,Tegelen,Venlo,Limburg,VBO,6.149654,51.337578
Sint Aloysiusstraat,31,,,5932BP,Tegelen,Venlo,Limburg,VBO,6.149699,51.337628
Sint Aloysiusstraat,33,,,5932BP,Tegelen,Venlo,Limburg,VBO,6.149745,51.337664
Sint Aloysiusstraat,35,,,5932BP,Tegelen,Venlo,Limburg,VBO,6.149809,51.337762
Sint Aloysiusstraat,37,,,5932BP,Tegelen,Venlo,Limburg,VBO,6.149856,51.337806
Sint Aloysiusstraat,39,,,5932BP,Tegelen,Venlo,Limburg,VBO,6.149899,51.337860
Sint Aloysiusstraat,41,,,5932BP,Tegelen,Venlo,Limburg,VBO,6.149950,51.337894
Sint Aloysiusstraat,43,,,5932BP,Tegelen,Venlo,Limburg,VBO,6.150016,51.337983
Sint Aloysiusstraat,45,,,5932BP,Tegelen,Venlo,Limburg,VBO,6.150040,51.338035
Sint Aloysiusstraat,47,,,5932BP,Tegelen,Venlo,Limburg,VBO,6.150107,51.338070
Sint Aloysiusstraat,49,,,5932BP,Tegelen,Venlo,Limburg,VBO,6.150162,51.338132
Sint Aloysiusstraat,51,,,5932BP,Tegelen,Venlo,Limburg,VBO,6.150223,51.338199
Sint Aloysiusstraat,53,,,5932BP,Tegelen,Venlo,Limburg,VBO,6.150268,51.338250
Sint Aloysiusstraat,55,,,5932BP,Tegelen,Venlo,Limburg,VBO,6.150314,51.338301
Sint Aloysiusstraat,57,,,5932BP,Tegelen,Venlo,Limburg,VBO,6.150347,51.338366
Sint Aloysiusstraat,59,,,5932BP,Tegelen,Venlo,Limburg,VBO,6.150396,51.338446
Sint Aloysiusstraat,61,,,5932BP,Tegelen,Venlo,Limburg,VBO,6.150423,51.338513
Sint Aloysiusstraat,63,,,5932BP,Tegelen,Venlo,Limburg,VBO,6.150469,51.338565
Sint Aloysiusstraat,65,,,5932BP,Tegelen,Venlo,Limburg,VBO,6.150476,51.338618
Mariastraat,1,A,,5932BR,Tegelen,Venlo,Limburg,VBO,6.148070,51.337878
Mariastraat,1,,,5932BR,Tegelen,Venlo,Limburg,VBO,6.148015,51.337893
Mariastraat,3,,,5932BR,Tegelen,Venlo,Limburg,VBO,6.148106,51.337867
Mariastraat,5,,,5932BR,Tegelen,Venlo,Limburg,VBO,6.148164,51.337850
Mariastraat,7,A,,5932BR,Tegelen,Venlo,Limburg,VBO,6.148269,51.337819
Mariastraat,7,,,5932BR,Tegelen,Venlo,Limburg,VBO,6.148219,51.337833
Mariastraat,9,,,5932BR,Tegelen,Venlo,Limburg,VBO,6.148349,51.337795
Salvatorstraat,1,,,5932BS,Tegelen,Venlo,Limburg,VBO,6.148553,51.338448
Salvatorstraat,3,,,5932BS,Tegelen,Venlo,Limburg,VBO,6.148612,51.338437
Salvatorstraat,5,,,5932BS,Tegelen,Venlo,Limburg,VBO,6.148762,51.338405
Salvatorstraat,7,,,5932BS,Tegelen,Venlo,Limburg,VBO,6.148835,51.338390
Salvatorstraat,8,,,5932BS,Tegelen,Venlo,Limburg,VBO,6.148717,51.338171
Salvatorstraat,9,,,5932BS,Tegelen,Venlo,Limburg,VBO,6.148977,51.338361
Salvatorstraat,10,,,5932BS,Tegelen,Venlo,Limburg,VBO,6.148836,51.338137
Salvatorstraat,11,,,5932BS,Tegelen,Venlo,Limburg,VBO,6.149040,51.338348
Salvatorstraat,12,,,5932BS,Tegelen,Venlo,Limburg,VBO,6.148976,51.338066
Salvatorstraat,13,,,5932BS,Tegelen,Venlo,Limburg,VBO,6.149189,51.338317
Salvatorstraat,15,,,5932BS,Tegelen,Venlo,Limburg,VBO,6.149247,51.338305
Sint Annastraat,5,,,5932BT,Tegelen,Venlo,Limburg,VBO,6.150045,51.338796
Sint Annastraat,9,,,5932BT,Tegelen,Venlo,Limburg,VBO,6.149917,51.338651
Sint Annastraat,11,,,5932BT,Tegelen,Venlo,Limburg,VBO,6.149841,51.338566
Sint Annastraat,13,,,5932BT,Tegelen,Venlo,Limburg,VBO,6.149810,51.338532
Sint Annastraat,15,,,5932BT,Tegelen,Venlo,Limburg,VBO,6.149746,51.338459
Sint Annastraat,17,,,5932BT,Tegelen,Venlo,Limburg,VBO,6.149709,51.338417
Sint Annastraat,19,,,5932BT,Tegelen,Venlo,Limburg,VBO,6.149647,51.338347
Sint Annastraat,21,,,5932BT,Tegelen,Venlo,Limburg,VBO,6.149610,51.338305
Sint Annastraat,23,,,5932BT,Tegelen,Venlo,Limburg,VBO,6.149545,51.338232
Sint Annastraat,25,,,5932BT,Tegelen,Venlo,Limburg,VBO,6.149515,51.338198
Sint Annastraat,27,,,5932BT,Tegelen,Venlo,Limburg,VBO,6.149434,51.338106
Sint Annastraat,31,,,5932BT,Tegelen,Venlo,Limburg,VBO,6.149210,51.337986
Sint Annastraat,33,,,5932BT,Tegelen,Venlo,Limburg,VBO,6.149143,51.337898
Sint Annastraat,35,,,5932BT,Tegelen,Venlo,Limburg,VBO,6.149104,51.337846
Sint Annastraat,37,,,5932BT,Tegelen,Venlo,Limburg,VBO,6.149068,51.337766
Sint Annastraat,39,,,5932BT,Tegelen,Venlo,Limburg,VBO,6.149030,51.337715
Sint Annastraat,41,,,5932BT,Tegelen,Venlo,Limburg,VBO,6.148991,51.337663
Sint Annastraat,43,,,5932BT,Tegelen,Venlo,Limburg,VBO,6.148924,51.337601
Sint Annastraat,45,,,5932BT,Tegelen,Venlo,Limburg,VBO,6.148898,51.337565
Sint Annastraat,47,A,,5932BT,Tegelen,Venlo,Limburg,VBO,6.148898,51.337518
Sint Annastraat,47,,,5932BT,Tegelen,Venlo,Limburg,VBO,6.148858,51.337519
Sint Annastraat,49,,,5932BT,Tegelen,Venlo,Limburg,VBO,6.148815,51.337461
Sint Annastraat,51,,,5932BV,Tegelen,Venlo,Limburg,VBO,6.148773,51.337406
Sint Annastraat,53,,,5932BV,Tegelen,Venlo,Limburg,VBO,6.148736,51.337356
Sint Annastraat,55,,,5932BV,Tegelen,Venlo,Limburg,VBO,6.148701,51.337310
Sint Annastraat,57,,,5932BV,Tegelen,Venlo,Limburg,VBO,6.148656,51.337249
Sint Annastraat,59,,,5932BV,Tegelen,Venlo,Limburg,VBO,6.148620,51.337144
Sint Annastraat,71,,,5932BV,Tegelen,Venlo,Limburg,VBO,6.148342,51.336771
Sint Annastraat,81,,,5932BV,Tegelen,Venlo,Limburg,VBO,6.148181,51.336623
Sint Annastraat,83,,,5932BV,Tegelen,Venlo,Limburg,VBO,6.147850,51.336117
Sint Annastraat,85,,,5932BV,Tegelen,Venlo,Limburg,VBO,6.147676,51.335851
Sint Annastraat,87,,,5932BV,Tegelen,Venlo,Limburg,VBO,6.147636,51.335798
Sint Annastraat,89,,,5932BV,Tegelen,Venlo,Limburg,VBO,6.147572,51.335712
Sint Annastraat,91,,,5932BV,Tegelen,Venlo,Limburg,VBO,6.147532,51.335659
Sint Annastraat,93,,,5932BV,Tegelen,Venlo,Limburg,VBO,6.147467,51.335573
Sint Annastraat,95,,,5932BV,Tegelen,Venlo,Limburg,VBO,6.147427,51.335520
Sint Annastraat,97,,,5932BV,Tegelen,Venlo,Limburg,VBO,6.147362,51.335433
Sint Annastraat,99,,,5932BV,Tegelen,Venlo,Limburg,VBO,6.147322,51.335380
Sint Annastraat,2,A,,5932BW,Tegelen,Venlo,Limburg,VBO,6.149761,51.338921
Sint Annastraat,2,B,,5932BW,Tegelen,Venlo,Limburg,VBO,6.149681,51.338831
Sint Annastraat,2,,,5932BW,Tegelen,Venlo,Limburg,VBO,6.149825,51.339026
Sint Annastraat,4,,,5932BW,Tegelen,Venlo,Limburg,VBO,6.149646,51.338792
Sint Annastraat,6,,,5932BW,Tegelen,Venlo,Limburg,VBO,6.149606,51.338747
Sint Annastraat,8,,,5932BW,Tegelen,Venlo,Limburg,VBO,6.149565,51.338701
Sint Annastraat,10,,,5932BW,Tegelen,Venlo,Limburg,VBO,6.149519,51.338649
Sint Annastraat,12,,,5932BW,Tegelen,Venlo,Limburg,VBO,6.149479,51.338604
Sint Annastraat,14,,,5932BW,Tegelen,Venlo,Limburg,VBO,6.149438,51.338558
Sint Annastraat,16,,,5932BW,Tegelen,Venlo,Limburg,VBO,6.149398,51.338513
Sint Annastraat,38,,,5932BW,Tegelen,Venlo,Limburg,VBO,6.148102,51.336917
Sint Annastraat,40,,,5932BW,Tegelen,Venlo,Limburg,VBO,6.147953,51.336727
Sint Annastraat,42,,,5932BW,Tegelen,Venlo,Limburg,VBO,6.147885,51.336637
Sint Annastraat,46,,,5932BW,Tegelen,Venlo,Limburg,VBO,6.147831,51.336566
Sint Annastraat,50,,,5932BX,Tegelen,Venlo,Limburg,VBO,6.147802,51.336454
Sint Annastraat,52,,,5932BX,Tegelen,Venlo,Limburg,VBO,6.147761,51.336400
Sint Annastraat,54,,,5932BX,Tegelen,Venlo,Limburg,VBO,6.147726,51.336353
Sint Annastraat,56,,,5932BX,Tegelen,Venlo,Limburg,VBO,6.147687,51.336303
Sint Annastraat,58,,,5932BX,Tegelen,Venlo,Limburg,VBO,6.147625,51.336261
Sint Annastraat,60,,,5932BX,Tegelen,Venlo,Limburg,VBO,6.147588,51.336214
Sint Annastraat,62,,,5932BX,Tegelen,Venlo,Limburg,VBO,6.147546,51.336157
Sint Annastraat,64,,,5932BX,Tegelen,Venlo,Limburg,VBO,6.147427,51.335997
Sint Annastraat,66,,,5932BX,Tegelen,Venlo,Limburg,VBO,6.147390,51.335947
Sint Annastraat,68,,,5932BX,Tegelen,Venlo,Limburg,VBO,6.147352,51.335897
Sint Annastraat,70,,,5932BX,Tegelen,Venlo,Limburg,VBO,6.147340,51.335838
Sint Annastraat,72,,,5932BX,Tegelen,Venlo,Limburg,VBO,6.147264,51.335736
Sint Annastraat,74,,,5932BX,Tegelen,Venlo,Limburg,VBO,6.147226,51.335685
Sint Annastraat,76,,,5932BX,Tegelen,Venlo,Limburg,VBO,6.147150,51.335584
Sint Annastraat,78,,,5932BX,Tegelen,Venlo,Limburg,VBO,6.147112,51.335533
Sint Annastraat,80,,,5932BX,Tegelen,Venlo,Limburg,VBO,6.147036,51.335432
Sint Annastraat,82,,,5932BX,Tegelen,Venlo,Limburg,VBO,6.146998,51.335381
Nachtegaalstraat,1,,,5932CA,Tegelen,Venlo,Limburg,VBO,6.148797,51.339191
Nachtegaalstraat,3,,,5932CA,Tegelen,Venlo,Limburg,VBO,6.148764,51.339146
Nachtegaalstraat,5,,,5932CA,Tegelen,Venlo,Limburg,VBO,6.148735,51.339107
Nachtegaalstraat,7,,,5932CA,Tegelen,Venlo,Limburg,VBO,6.148704,51.339066
Nachtegaalstraat,9,,,5932CA,Tegelen,Venlo,Limburg,VBO,6.148659,51.339006
Nachtegaalstraat,11,,,5932CA,Tegelen,Venlo,Limburg,VBO,6.148630,51.338967
Nachtegaalstraat,13,,,5932CA,Tegelen,Venlo,Limburg,VBO,6.148598,51.338923
Nachtegaalstraat,15,,,5932CA,Tegelen,Venlo,Limburg,VBO,6.148564,51.338879
Nachtegaalstraat,17,,,5932CA,Tegelen,Venlo,Limburg,VBO,6.148517,51.338816
Nachtegaalstraat,19,,,5932CA,Tegelen,Venlo,Limburg,VBO,6.148481,51.338768
Nachtegaalstraat,21,,,5932CA,Tegelen,Venlo,Limburg,VBO,6.148428,51.338697
Nachtegaalstraat,23,,,5932CA,Tegelen,Venlo,Limburg,VBO,6.148392,51.338650
Nachtegaalstraat,25,,,5932CA,Tegelen,Venlo,Limburg,VBO,6.148338,51.338576
Nachtegaalstraat,27,,,5932CA,Tegelen,Venlo,Limburg,VBO,6.148304,51.338528
Nachtegaalstraat,33,,,5932CA,Tegelen,Venlo,Limburg,VBO,6.148103,51.338260
Nachtegaalstraat,35,A,,5932CA,Tegelen,Venlo,Limburg,VBO,6.148061,51.338050
Nachtegaalstraat,35,,,5932CA,Tegelen,Venlo,Limburg,VBO,6.148062,51.338206
Nachtegaalstraat,37,,,5932CA,Tegelen,Venlo,Limburg,VBO,6.148061,51.338050
Nachtegaalstraat,39,,,5932CA,Tegelen,Venlo,Limburg,VBO,6.148061,51.338050
Nachtegaalstraat,41,,,5932CA,Tegelen,Venlo,Limburg,VBO,6.148061,51.338050
Nachtegaalstraat,43,,,5932CA,Tegelen,Venlo,Limburg,VBO,6.148061,51.338050
Nachtegaalstraat,45,A,,5932CA,Tegelen,Venlo,Limburg,VBO,6.147904,51.337997
Nachtegaalstraat,45,,,5932CA,Tegelen,Venlo,Limburg,VBO,6.148061,51.338050
Nachtegaalstraat,47,,,5932CA,Tegelen,Venlo,Limburg,VBO,6.147872,51.337954
Nachtegaalstraat,49,,,5932CA,Tegelen,Venlo,Limburg,VBO,6.147574,51.337472
Nachtegaalstraat,51,,,5932CA,Tegelen,Venlo,Limburg,VBO,6.147537,51.337422
Nachtegaalstraat,53,,,5932CB,Tegelen,Venlo,Limburg,VBO,6.147251,51.336977
Nachtegaalstraat,55,,,5932CB,Tegelen,Venlo,Limburg,VBO,6.147213,51.336926
Nachtegaalstraat,57,,,5932CB,Tegelen,Venlo,Limburg,VBO,6.147174,51.336875
Nachtegaalstraat,59,,,5932CB,Tegelen,Venlo,Limburg,VBO,6.147136,51.336823
Nachtegaalstraat,61,,,5932CB,Tegelen,Venlo,Limburg,VBO,6.147097,51.336772
Nachtegaalstraat,63,,,5932CB,Tegelen,Venlo,Limburg,VBO,6.147059,51.336721
Nachtegaalstraat,105,,,5932CB,Tegelen,Venlo,Limburg,VBO,6.147121,51.336564
Nachtegaalstraat,107,,,5932CB,Tegelen,Venlo,Limburg,VBO,6.146875,51.336478
Nachtegaalstraat,109,,,5932CB,Tegelen,Venlo,Limburg,VBO,6.146713,51.336218
Nachtegaalstraat,111,,,5932CB,Tegelen,Venlo,Limburg,VBO,6.146679,51.336172
Nachtegaalstraat,113,,,5932CB,Tegelen,Venlo,Limburg,VBO,6.146589,51.336053
Nachtegaalstraat,115,,,5932CB,Tegelen,Venlo,Limburg,VBO,6.146555,51.336008
Nachtegaalstraat,117,,,5932CB,Tegelen,Venlo,Limburg,VBO,6.146464,51.335888
Nachtegaalstraat,119,,,5932CB,Tegelen,Venlo,Limburg,VBO,6.146430,51.335842
Nachtegaalstraat,121,,,5932CB,Tegelen,Venlo,Limburg,VBO,6.146340,51.335722
Nachtegaalstraat,123,,,5932CB,Tegelen,Venlo,Limburg,VBO,6.146306,51.335677
Nachtegaalstraat,129,,,5932CB,Tegelen,Venlo,Limburg,VBO,6.145734,51.335200
Nachtegaalstraat,131,,,5932CB,Tegelen,Venlo,Limburg,VBO,6.145682,51.335155
Nachtegaalstraat,133,,,5932CB,Tegelen,Venlo,Limburg,VBO,6.145585,51.335071
Nachtegaalstraat,135,,,5932CC,Tegelen,Venlo,Limburg,VBO,6.145530,51.335024
Nachtegaalstraat,139,,,5932CC,Tegelen,Venlo,Limburg,VBO,6.145375,51.334951
Nachtegaalstraat,141,,,5932CC,Tegelen,Venlo,Limburg,VBO,6.145321,51.334907
Nachtegaalstraat,143,,,5932CC,Tegelen,Venlo,Limburg,VBO,6.145176,51.334810
Nachtegaalstraat,145,,,5932CC,Tegelen,Venlo,Limburg,VBO,6.145133,51.334767
Nachtegaalstraat,147,,,5932CC,Tegelen,Venlo,Limburg,VBO,6.145057,51.334696
Nachtegaalstraat,149,,,5932CC,Tegelen,Venlo,Limburg,VBO,6.144995,51.334659
Nachtegaalstraat,151,A,,5932CC,Tegelen,Venlo,Limburg,VBO,6.144809,51.334550
Nachtegaalstraat,151,,,5932CC,Tegelen,Venlo,Limburg,VBO,6.144892,51.334598
Nachtegaalstraat,153,,,5932CC,Tegelen,Venlo,Limburg,VBO,6.144383,51.334319
Nachtegaalstraat,155,,,5932CC,Tegelen,Venlo,Limburg,VBO,6.144322,51.334284
Nachtegaalstraat,157,,,5932CC,Tegelen,Venlo,Limburg,VBO,6.144148,51.334172
Nachtegaalstraat,161,,,5932CC,Tegelen,Venlo,Limburg,VBO,6.143981,51.334075
Nachtegaalstraat,163,,,5932CC,Tegelen,Venlo,Limburg,VBO,6.143907,51.334033
Nachtegaalstraat,165,,,5932CC,Tegelen,Venlo,Limburg,VBO,6.143773,51.333956
Nachtegaalstraat,167,,,5932CC,Tegelen,Venlo,Limburg,VBO,6.143704,51.333917
Nachtegaalstraat,171,,,5932CC,Tegelen,Venlo,Limburg,VBO,6.143508,51.333719
Nachtegaalstraat,173,,,5932CC,Tegelen,Venlo,Limburg,VBO,6.143446,51.333683
Nachtegaalstraat,175,,,5932CC,Tegelen,Venlo,Limburg,VBO,6.143384,51.333648
Nachtegaalstraat,177,,,5932CC,Tegelen,Venlo,Limburg,VBO,6.143321,51.333612
Nachtegaalstraat,179,,,5932CC,Tegelen,Venlo,Limburg,VBO,6.143260,51.333577
Nachtegaalstraat,181,,,5932CC,Tegelen,Venlo,Limburg,VBO,6.143197,51.333541
Nachtegaalstraat,12,,,5932CD,Tegelen,Venlo,Limburg,VBO,6.148361,51.338989
Nachtegaalstraat,14,,,5932CD,Tegelen,Venlo,Limburg,VBO,6.148328,51.338946
Nachtegaalstraat,16,,,5932CD,Tegelen,Venlo,Limburg,VBO,6.148298,51.338905
Nachtegaalstraat,18,,,5932CD,Tegelen,Venlo,Limburg,VBO,6.148266,51.338862
Nachtegaalstraat,20,,,5932CD,Tegelen,Venlo,Limburg,VBO,6.148230,51.338814
Nachtegaalstraat,22,,,5932CD,Tegelen,Venlo,Limburg,VBO,6.148114,51.338660
Nachtegaalstraat,24,,,5932CD,Tegelen,Venlo,Limburg,VBO,6.148079,51.338612
Nachtegaalstraat,26,,,5932CD,Tegelen,Venlo,Limburg,VBO,6.148047,51.338570
Nachtegaalstraat,28,,,5932CD,Tegelen,Venlo,Limburg,VBO,6.148015,51.338527
Nachtegaalstraat,30,,,5932CD,Tegelen,Venlo,Limburg,VBO,6.147956,51.338447
Nachtegaalstraat,32,,,5932CD,Tegelen,Venlo,Limburg,VBO,6.147917,51.338395
Nachtegaalstraat,34,,,5932CD,Tegelen,Venlo,Limburg,VBO,6.147856,51.338313
Nachtegaalstraat,36,,,5932CD,Tegelen,Venlo,Limburg,VBO,6.147823,51.338269
Nachtegaalstraat,38,,,5932CD,Tegelen,Venlo,Limburg,VBO,6.147787,51.338222
Nachtegaalstraat,40,,,5932CD,Tegelen,Venlo,Limburg,VBO,6.147722,51.338135
Nachtegaalstraat,42,,,5932CD,Tegelen,Venlo,Limburg,VBO,6.147683,51.338083
Nachtegaalstraat,52,,,5932CD,Tegelen,Venlo,Limburg,VBO,6.147625,51.338004
Nachtegaalstraat,54,,,5932CD,Tegelen,Venlo,Limburg,VBO,6.147446,51.337957
Nachtegaalstraat,56,,,5932CD,Tegelen,Venlo,Limburg,VBO,6.147412,51.337910
Nachtegaalstraat,58,,,5932CE,Tegelen,Venlo,Limburg,VBO,6.147380,51.337868
Nachtegaalstraat,66,,,5932CE,Tegelen,Venlo,Limburg,VBO,6.147097,51.337500
Nachtegaalstraat,68,,,5932CE,Tegelen,Venlo,Limburg,VBO,6.147045,51.337430
Nachtegaalstraat,78,,,5932CE,Tegelen,Venlo,Limburg,VBO,6.147065,51.337260
Nachtegaalstraat,80,,,5932CE,Tegelen,Venlo,Limburg,VBO,6.146989,51.337203
Nachtegaalstraat,82,,,5932CE,Tegelen,Venlo,Limburg,VBO,6.146947,51.337146
Nachtegaalstraat,84,,,5932CE,Tegelen,Venlo,Limburg,VBO,6.146905,51.337090
Nachtegaalstraat,86,,,5932CE,Tegelen,Venlo,Limburg,VBO,6.146862,51.337032
Nachtegaalstraat,88,,,5932CE,Tegelen,Venlo,Limburg,VBO,6.146819,51.336975
Nachtegaalstraat,90,,,5932CE,Tegelen,Venlo,Limburg,VBO,6.146684,51.336886
Nachtegaalstraat,92,,,5932CE,Tegelen,Venlo,Limburg,VBO,6.146635,51.336821
Nachtegaalstraat,94,,,5932CE,Tegelen,Venlo,Limburg,VBO,6.146554,51.336709
Nachtegaalstraat,96,,,5932CE,Tegelen,Venlo,Limburg,VBO,6.146508,51.336649
Nachtegaalstraat,98,,,5932CE,Tegelen,Venlo,Limburg,VBO,6.146422,51.336533
Nachtegaalstraat,100,,,5932CE,Tegelen,Venlo,Limburg,VBO,6.146328,51.336406
Nachtegaalstraat,102,,,5932CE,Tegelen,Venlo,Limburg,VBO,6.146279,51.336342
Nachtegaalstraat,104,,,5932CE,Tegelen,Venlo,Limburg,VBO,6.146198,51.336236
Nachtegaalstraat,106,,,5932CE,Tegelen,Venlo,Limburg,VBO,6.146150,51.336174
Nachtegaalstraat,108,,,5932CE,Tegelen,Venlo,Limburg,VBO,6.146067,51.336065
Nachtegaalstraat,110,,,5932CE,Tegelen,Venlo,Limburg,VBO,6.145983,51.335955
Nachtegaalstraat,112,,,5932CE,Tegelen,Venlo,Limburg,VBO,6.145940,51.335897
Nachtegaalstraat,114,,,5932CG,Tegelen,Venlo,Limburg,VBO,6.145751,51.335719
Nachtegaalstraat,172,,,5932CG,Tegelen,Venlo,Limburg,VBO,6.145212,51.335184
Nachtegaalstraat,174,,,5932CG,Tegelen,Venlo,Limburg,VBO,6.145106,51.335085
Nachtegaalstraat,176,A,,5932CG,Tegelen,Venlo,Limburg,VBO,6.145019,51.335050
Nachtegaalstraat,176,,,5932CG,Tegelen,Venlo,Limburg,VBO,6.145051,51.335044
Nachtegaalstraat,178,A,,5932CG,Tegelen,Venlo,Limburg,VBO,6.144965,51.335009
Nachtegaalstraat,178,,,5932CG,Tegelen,Venlo,Limburg,VBO,6.144993,51.335003
Nachtegaalstraat,180,A,,5932CG,Tegelen,Venlo,Limburg,VBO,6.144910,51.334965
Nachtegaalstraat,180,,,5932CG,Tegelen,Venlo,Limburg,VBO,6.144938,51.334963
Nachtegaalstraat,182,A,,5932CG,Tegelen,Venlo,Limburg,VBO,6.144852,51.334927
Nachtegaalstraat,182,,,5932CG,Tegelen,Venlo,Limburg,VBO,6.144881,51.334921
Nachtegaalstraat,184,A,,5932CG,Tegelen,Venlo,Limburg,VBO,6.144796,51.334886
Nachtegaalstraat,184,,,5932CG,Tegelen,Venlo,Limburg,VBO,6.144827,51.334880
Nachtegaalstraat,186,A,,5932CG,Tegelen,Venlo,Limburg,VBO,6.144740,51.334845
Nachtegaalstraat,186,,,5932CG,Tegelen,Venlo,Limburg,VBO,6.144769,51.334839
Nachtegaalstraat,188,,,5932CG,Tegelen,Venlo,Limburg,VBO,6.144714,51.334799
Nachtegaalstraat,190,,,5932CH,Tegelen,Venlo,Limburg,VBO,6.144605,51.334733
Nachtegaalstraat,192,A,,5932CH,Tegelen,Venlo,Limburg,VBO,6.144510,51.334706
Nachtegaalstraat,192,,,5932CH,Tegelen,Venlo,Limburg,VBO,6.144542,51.334697
Nachtegaalstraat,194,A,,5932CH,Tegelen,Venlo,Limburg,VBO,6.144447,51.334670
Nachtegaalstraat,194,,,5932CH,Tegelen,Venlo,Limburg,VBO,6.144478,51.334660
Nachtegaalstraat,196,A,,5932CH,Tegelen,Venlo,Limburg,VBO,6.144382,51.334632
Nachtegaalstraat,196,,,5932CH,Tegelen,Venlo,Limburg,VBO,6.144413,51.334624
Nachtegaalstraat,198,A,,5932CH,Tegelen,Venlo,Limburg,VBO,6.144319,51.334597
Nachtegaalstraat,198,,,5932CH,Tegelen,Venlo,Limburg,VBO,6.144350,51.334587
Nachtegaalstraat,200,,,5932CH,Tegelen,Venlo,Limburg,VBO,6.144287,51.334551
Nachtegaalstraat,202,,,5932CH,Tegelen,Venlo,Limburg,VBO,6.144205,51.334473
Nachtegaalstraat,204,,,5932CH,Tegelen,Venlo,Limburg,VBO,6.144135,51.334433
Nachtegaalstraat,206,,,5932CH,Tegelen,Venlo,Limburg,VBO,6.144065,51.334393
Nachtegaalstraat,208,,,5932CH,Tegelen,Venlo,Limburg,VBO,6.144000,51.334355
Nachtegaalstraat,210,,,5932CH,Tegelen,Venlo,Limburg,VBO,6.143931,51.334315
Nachtegaalstraat,212,,,5932CH,Tegelen,Venlo,Limburg,VBO,6.143858,51.334274
Nachtegaalstraat,214,,,5932CH,Tegelen,Venlo,Limburg,VBO,6.143788,51.334233
Nachtegaalstraat,216,,,5932CH,Tegelen,Venlo,Limburg,VBO,6.143718,51.334193
Nachtegaalstraat,218,,,5932CH,Tegelen,Venlo,Limburg,VBO,6.143649,51.334153
Nachtegaalstraat,220,,,5932CH,Tegelen,Venlo,Limburg,VBO,6.143580,51.334113
Nachtegaalstraat,222,,,5932CH,Tegelen,Venlo,Limburg,VBO,6.143487,51.334060
Nachtegaalstraat,224,,,5932CH,Tegelen,Venlo,Limburg,VBO,6.143417,51.334020
Nachtegaalstraat,226,,,5932CH,Tegelen,Venlo,Limburg,VBO,6.143353,51.333983
Nachtegaalstraat,228,,,5932CH,Tegelen,Venlo,Limburg,VBO,6.143282,51.333943
Nachtegaalstraat,230,,,5932CH,Tegelen,Venlo,Limburg,VBO,6.143205,51.333898
Nachtegaalstraat,232,,,5932CH,Tegelen,Venlo,Limburg,VBO,6.143141,51.333849
Calvariestraat,3,,,5932CJ,Tegelen,Venlo,Limburg,VBO,6.144883,51.335792
Calvariestraat,5,,,5932CJ,Tegelen,Venlo,Limburg,VBO,6.144883,51.335792
Calvariestraat,7,,,5932CJ,Tegelen,Venlo,Limburg,VBO,6.144883,51.335792
Calvariestraat,9,,,5932CJ,Tegelen,Venlo,Limburg,VBO,6.144883,51.335792
Calvariestraat,11,,,5932CJ,Tegelen,Venlo,Limburg,VBO,6.144883,51.335792
Calvariestraat,13,,,5932CJ,Tegelen,Venlo,Limburg,VBO,6.144883,51.335792
Calvariestraat,15,,,5932CJ,Tegelen,Venlo,Limburg,VBO,6.144883,51.335792
Calvariestraat,17,,,5932CJ,Tegelen,Venlo,Limburg,VBO,6.144883,51.335792
Calvariestraat,19,,,5932CJ,Tegelen,Venlo,Limburg,VBO,6.144883,51.335792
Calvariestraat,21,,,5932CJ,Tegelen,Venlo,Limburg,VBO,6.144883,51.335792
Calvariestraat,23,,,5932CJ,Tegelen,Venlo,Limburg,VBO,6.144883,51.335792
Calvariestraat,25,,,5932CJ,Tegelen,Venlo,Limburg,VBO,6.144883,51.335792
Calvariestraat,27,,,5932CJ,Tegelen,Venlo,Limburg,VBO,6.144560,51.335937
Calvariestraat,29,,,5932CJ,Tegelen,Venlo,Limburg,VBO,6.144559,51.335993
Calvariestraat,31,,,5932CJ,Tegelen,Venlo,Limburg,VBO,6.144558,51.336049
Calvariestraat,33,,,5932CJ,Tegelen,Venlo,Limburg,VBO,6.144557,51.336105
Calvariestraat,35,,,5932CJ,Tegelen,Venlo,Limburg,VBO,6.144556,51.336161
Calvariestraat,37,,,5932CJ,Tegelen,Venlo,Limburg,VBO,6.144555,51.336217
Calvariestraat,39,,,5932CJ,Tegelen,Venlo,Limburg,VBO,6.144554,51.336273
Calvariestraat,41,,,5932CJ,Tegelen,Venlo,Limburg,VBO,6.144553,51.336329
Calvariestraat,43,,,5932CJ,Tegelen,Venlo,Limburg,VBO,6.144402,51.336535
Calvariestraat,45,,,5932CJ,Tegelen,Venlo,Limburg,VBO,6.144402,51.336535
Calvariestraat,47,,,5932CJ,Tegelen,Venlo,Limburg,VBO,6.144402,51.336535
Calvariestraat,49,,,5932CJ,Tegelen,Venlo,Limburg,VBO,6.144402,51.336535
Calvariestraat,51,,,5932CK,Tegelen,Venlo,Limburg,VBO,6.144402,51.336535
Calvariestraat,53,,,5932CK,Tegelen,Venlo,Limburg,VBO,6.144402,51.336535
Calvariestraat,55,,,5932CK,Tegelen,Venlo,Limburg,VBO,6.144402,51.336535
Calvariestraat,57,,,5932CK,Tegelen,Venlo,Limburg,VBO,6.144402,51.336535
Calvariestraat,59,,,5932CK,Tegelen,Venlo,Limburg,VBO,6.144146,51.336673
Calvariestraat,61,,,5932CK,Tegelen,Venlo,Limburg,VBO,6.144145,51.336729
Calvariestraat,63,,,5932CK,Tegelen,Venlo,Limburg,VBO,6.144144,51.336785
Calvariestraat,65,,,5932CK,Tegelen,Venlo,Limburg,VBO,6.144143,51.336841
Calvariestraat,67,,,5932CK,Tegelen,Venlo,Limburg,VBO,6.144142,51.336897
Calvariestraat,69,,,5932CK,Tegelen,Venlo,Limburg,VBO,6.144142,51.336953
Calvariestraat,71,,,5932CK,Tegelen,Venlo,Limburg,VBO,6.144141,51.337009
Calvariestraat,73,,,5932CK,Tegelen,Venlo,Limburg,VBO,6.144140,51.337065
Calvariestraat,75,,,5932CK,Tegelen,Venlo,Limburg,VBO,6.143954,51.337280
Calvariestraat,77,,,5932CK,Tegelen,Venlo,Limburg,VBO,6.143954,51.337280
Calvariestraat,79,,,5932CK,Tegelen,Venlo,Limburg,VBO,6.143954,51.337280
Calvariestraat,81,,,5932CK,Tegelen,Venlo,Limburg,VBO,6.143954,51.337280
Calvariestraat,83,,,5932CK,Tegelen,Venlo,Limburg,VBO,6.143954,51.337280
Calvariestraat,85,,,5932CK,Tegelen,Venlo,Limburg,VBO,6.143954,51.337280
Calvariestraat,87,,,5932CK,Tegelen,Venlo,Limburg,VBO,6.143954,51.337280
Calvariestraat,89,,,5932CK,Tegelen,Venlo,Limburg,VBO,6.143954,51.337280
Calvariestraat,91,,,5932CK,Tegelen,Venlo,Limburg,VBO,6.143729,51.337409
Calvariestraat,93,,,5932CK,Tegelen,Venlo,Limburg,VBO,6.143728,51.337465
Calvariestraat,95,,,5932CK,Tegelen,Venlo,Limburg,VBO,6.143727,51.337522
Calvariestraat,97,,,5932CK,Tegelen,Venlo,Limburg,VBO,6.143727,51.337578
Calvariestraat,99,,,5932CK,Tegelen,Venlo,Limburg,VBO,6.143726,51.337634
Calvariestraat,101,,,5932CL,Tegelen,Venlo,Limburg,VBO,6.143725,51.337683
Calvariestraat,103,,,5932CL,Tegelen,Venlo,Limburg,VBO,6.143724,51.337739
Calvariestraat,105,,,5932CL,Tegelen,Venlo,Limburg,VBO,6.143723,51.337795
Calvariestraat,107,,,5932CL,Tegelen,Venlo,Limburg,VBO,6.143566,51.338006
Calvariestraat,109,,,5932CL,Tegelen,Venlo,Limburg,VBO,6.143566,51.338006
Calvariestraat,111,,,5932CL,Tegelen,Venlo,Limburg,VBO,6.143566,51.338006
Calvariestraat,113,,,5932CL,Tegelen,Venlo,Limburg,VBO,6.143566,51.338006
Calvariestraat,115,,,5932CL,Tegelen,Venlo,Limburg,VBO,6.143566,51.338006
Calvariestraat,117,,,5932CL,Tegelen,Venlo,Limburg,VBO,6.143566,51.338006
Calvariestraat,119,,,5932CL,Tegelen,Venlo,Limburg,VBO,6.143566,51.338006
Calvariestraat,121,,,5932CL,Tegelen,Venlo,Limburg,VBO,6.143566,51.338006
Calvariestraat,123,,,5932CL,Tegelen,Venlo,Limburg,VBO,6.143314,51.338140
Calvariestraat,125,,,5932CL,Tegelen,Venlo,Limburg,VBO,6.143313,51.338196
Calvariestraat,127,,,5932CL,Tegelen,Venlo,Limburg,VBO,6.143312,51.338252
Calvariestraat,129,,,5932CL,Tegelen,Venlo,Limburg,VBO,6.143312,51.338308
Calvariestraat,131,,,5932CL,Tegelen,Venlo,Limburg,VBO,6.143311,51.338364
Calvariestraat,133,,,5932CL,Tegelen,Venlo,Limburg,VBO,6.143310,51.338420
Calvariestraat,135,,,5932CL,Tegelen,Venlo,Limburg,VBO,6.143309,51.338476
Calvariestraat,137,,,5932CL,Tegelen,Venlo,Limburg,VBO,6.143308,51.338532
Calvariestraat,139,,,5932CL,Tegelen,Venlo,Limburg,VBO,6.143126,51.338752
Calvariestraat,141,,,5932CL,Tegelen,Venlo,Limburg,VBO,6.143126,51.338752
Calvariestraat,143,,,5932CL,Tegelen,Venlo,Limburg,VBO,6.143126,51.338752
Calvariestraat,145,,,5932CL,Tegelen,Venlo,Limburg,VBO,6.143126,51.338752
Calvariestraat,147,,,5932CL,Tegelen,Venlo,Limburg,VBO,6.143126,51.338752
Calvariestraat,149,,,5932CL,Tegelen,Venlo,Limburg,VBO,6.143126,51.338752
Calvariestraat,151,,,5932CL,Tegelen,Venlo,Limburg,VBO,6.143126,51.338752
Haandertstraat,4,,,5932CN,Tegelen,Venlo,Limburg,VBO,6.144233,51.338307
Haandertstraat,5,,,5932CN,Tegelen,Venlo,Limburg,VBO,6.146005,51.339532
Haandertstraat,6,,,5932CN,Tegelen,Venlo,Limburg,VBO,6.145379,51.339119
Haandertstraat,8,,,5932CN,Tegelen,Venlo,Limburg,VBO,6.145300,51.339053
Haandertstraat,10,,,5932CN,Tegelen,Venlo,Limburg,VBO,6.145471,51.339314
Haandertstraat,12,,,5932CN,Tegelen,Venlo,Limburg,VBO,6.145539,51.339837
Haandertstraat,14,,,5932CN,Tegelen,Venlo,Limburg,VBO,6.145470,51.339826
Haandertstraat,16,,,5932CN,Tegelen,Venlo,Limburg,VBO,6.145289,51.339494
de Drink,2,,,5932CP,Tegelen,Venlo,Limburg,VBO,6.143507,51.339250
de Drink,7,,,5932CP,Tegelen,Venlo,Limburg,VBO,6.146543,51.338205
de Drink,9,,,5932CP,Tegelen,Venlo,Limburg,VBO,6.147294,51.337844
de Drink,60,,,5932CP,Tegelen,Venlo,Limburg,VBO,6.145565,51.336659
de Drink,80,,,5932CP,Tegelen,Venlo,Limburg,VBO,6.147048,51.337682
de Drink,82,,,5932CP,Tegelen,Venlo,Limburg,VBO,6.147048,51.337682
de Drink,84,,,5932CP,Tegelen,Venlo,Limburg,VBO,6.147048,51.337682
de Drink,86,,,5932CP,Tegelen,Venlo,Limburg,VBO,6.147048,51.337682
de Drink,88,,,5932CP,Tegelen,Venlo,Limburg,VBO,6.147048,51.337682
de Drink,90,,,5932CP,Tegelen,Venlo,Limburg,VBO,6.147048,51.337682
Doolhofstraat,1,,,5932CR,Tegelen,Venlo,Limburg,VBO,6.147846,51.338774
Doolhofstraat,3,,,5932CR,Tegelen,Venlo,Limburg,VBO,6.147779,51.338794
Doolhofstraat,5,,,5932CR,Tegelen,Venlo,Limburg,VBO,6.147713,51.338813
Doolhofstraat,6,,,5932CR,Tegelen,Venlo,Limburg,VBO,6.147843,51.338924
Doolhofstraat,7,,,5932CR,Tegelen,Venlo,Limburg,VBO,6.147646,51.338833
Doolhofstraat,8,,,5932CR,Tegelen,Venlo,Limburg,VBO,6.147775,51.338944
Doolhofstraat,9,,,5932CR,Tegelen,Venlo,Limburg,VBO,6.147579,51.338853
Doolhofstraat,10,,,5932CR,Tegelen,Venlo,Limburg,VBO,6.147700,51.338966
Doolhofstraat,11,,,5932CR,Tegelen,Venlo,Limburg,VBO,6.147520,51.338870
Doolhofstraat,12,,,5932CR,Tegelen,Venlo,Limburg,VBO,6.147634,51.338985
Doolhofstraat,13,,,5932CR,Tegelen,Venlo,Limburg,VBO,6.147365,51.338915
Doolhofstraat,14,,,5932CR,Tegelen,Venlo,Limburg,VBO,6.147567,51.339005
Doolhofstraat,15,,,5932CR,Tegelen,Venlo,Limburg,VBO,6.147283,51.338939
Doolhofstraat,16,,,5932CR,Tegelen,Venlo,Limburg,VBO,6.147498,51.339025
Doolhofstraat,17,,,5932CR,Tegelen,Venlo,Limburg,VBO,6.147129,51.338983
Doolhofstraat,18,,,5932CR,Tegelen,Venlo,Limburg,VBO,6.147349,51.339069
Doolhofstraat,19,,,5932CR,Tegelen,Venlo,Limburg,VBO,6.147045,51.339004
Doolhofstraat,20,,,5932CR,Tegelen,Venlo,Limburg,VBO,6.147267,51.339093
Doolhofstraat,21,,,5932CR,Tegelen,Venlo,Limburg,VBO,6.146892,51.339028
Doolhofstraat,22,,,5932CR,Tegelen,Venlo,Limburg,VBO,6.147112,51.339130
Doolhofstraat,23,,,5932CR,Tegelen,Venlo,Limburg,VBO,6.146801,51.339030
Doolhofstraat,24,,,5932CR,Tegelen,Venlo,Limburg,VBO,6.147026,51.339148
Doolhofstraat,26,,,5932CR,Tegelen,Venlo,Limburg,VBO,6.146858,51.339164
Doolhofstraat,28,,,5932CR,Tegelen,Venlo,Limburg,VBO,6.146768,51.339166
Doolhofstraat,30,A,,5932CR,Tegelen,Venlo,Limburg,VBO,6.146549,51.339238
Doolhofstraat,30,B,,5932CR,Tegelen,Venlo,Limburg,VBO,6.146548,51.339261
Doolhofstraat,30,,,5932CR,Tegelen,Venlo,Limburg,VBO,6.146548,51.339207
Doolhofstraat,32,A,,5932CR,Tegelen,Venlo,Limburg,VBO,6.146391,51.339232
Doolhofstraat,32,B,,5932CR,Tegelen,Venlo,Limburg,VBO,6.146398,51.339254
Doolhofstraat,32,,,5932CR,Tegelen,Venlo,Limburg,VBO,6.146411,51.339203
Doolhofstraat,34,,,5932CR,Tegelen,Venlo,Limburg,VBO,6.146213,51.339195
Doolhofstraat,36,,,5932CR,Tegelen,Venlo,Limburg,VBO,6.146112,51.339192
Kaldenkerkerweg,1,A,,5932CS,Tegelen,Venlo,Limburg,VBO,6.146418,51.340121
Kaldenkerkerweg,1,,,5932CS,Tegelen,Venlo,Limburg,VBO,6.146424,51.340088
Kaldenkerkerweg,3,A,,5932CS,Tegelen,Venlo,Limburg,VBO,6.146642,51.340106
Kaldenkerkerweg,3,,,5932CS,Tegelen,Venlo,Limburg,VBO,6.146606,51.340074
Kaldenkerkerweg,5,A,,5932CS,Tegelen,Venlo,Limburg,VBO,6.147451,51.340042
Kaldenkerkerweg,5,,,5932CS,Tegelen,Venlo,Limburg,VBO,6.147131,51.339995
Kaldenkerkerweg,7,A,,5932CS,Tegelen,Venlo,Limburg,VBO,6.148068,51.339892
Kaldenkerkerweg,7,,,5932CS,Tegelen,Venlo,Limburg,VBO,6.147824,51.339951
Kaldenkerkerweg,11,,,5932CS,Tegelen,Venlo,Limburg,VBO,6.148220,51.339855
Kaldenkerkerweg,17,,,5932CS,Tegelen,Venlo,Limburg,VBO,6.149746,51.339487
Kaldenkerkerweg,19,,,5932CS,Tegelen,Venlo,Limburg,VBO,6.150346,51.339197
Kaldenkerkerweg,33,A,,5932CT,Tegelen,Venlo,Limburg,VBO,6.153984,51.337711
Kaldenkerkerweg,33,B,,5932CT,Tegelen,Venlo,Limburg,VBO,6.154540,51.337440
Kaldenkerkerweg,33,C,,5932CT,Tegelen,Venlo,Limburg,VBO,6.154914,51.337222
Kaldenkerkerweg,33,E,,5932CT,Tegelen,Venlo,Limburg,VBO,6.155134,51.337088
Kaldenkerkerweg,33,F,,5932CT,Tegelen,Venlo,Limburg,VBO,6.155466,51.336916
Kaldenkerkerweg,33,,,5932CT,Tegelen,Venlo,Limburg,VBO,6.153239,51.338087
Kaldenkerkerweg,35,,,5932CT,Tegelen,Venlo,Limburg,VBO,6.155868,51.336624
Kaldenkerkerweg,37,,,5932CT,Tegelen,Venlo,Limburg,VBO,6.155939,51.336579
Kaldenkerkerweg,39,,,5932CT,Tegelen,Venlo,Limburg,VBO,6.156068,51.336497
Kaldenkerkerweg,41,,,5932CT,Tegelen,Venlo,Limburg,VBO,6.156261,51.336507
Kaldenkerkerweg,43,,,5932CT,Tegelen,Venlo,Limburg,VBO,6.156304,51.336347
Kaldenkerkerweg,65,,,5932CT,Tegelen,Venlo,Limburg,VBO,6.157522,51.335874
Kaldenkerkerweg,67,,,5932CT,Tegelen,Venlo,Limburg,VBO,6.157653,51.335666
Kaldenkerkerweg,69,,,5932CT,Tegelen,Venlo,Limburg,VBO,6.157868,51.335381
Kaldenkerkerweg,71,,,5932CT,Tegelen,Venlo,Limburg,VBO,6.157969,51.335319
Kaldenkerkerweg,73,,,5932CT,Tegelen,Venlo,Limburg,VBO,6.158490,51.335202
Kaldenkerkerweg,75,,,5932CT,Tegelen,Venlo,Limburg,VBO,6.158567,51.335160
Kaldenkerkerweg,2,,,5932CV,Tegelen,Venlo,Limburg,VBO,6.145184,51.339747
Kaldenkerkerweg,6,,,5932CV,Tegelen,Venlo,Limburg,VBO,6.146056,51.339842
Kaldenkerkerweg,8,A,,5932CV,Tegelen,Venlo,Limburg,VBO,6.146268,51.339813
Kaldenkerkerweg,8,,,5932CV,Tegelen,Venlo,Limburg,VBO,6.146268,51.339813
Kaldenkerkerweg,10,A,,5932CV,Tegelen,Venlo,Limburg,VBO,6.146268,51.339813
Kaldenkerkerweg,10,B,,5932CV,Tegelen,Venlo,Limburg,VBO,6.146268,51.339813
Kaldenkerkerweg,10,C,,5932CV,Tegelen,Venlo,Limburg,VBO,6.146268,51.339813
Kaldenkerkerweg,10,D,,5932CV,Tegelen,Venlo,Limburg,VBO,6.146268,51.339813
Kaldenkerkerweg,10,E,,5932CV,Tegelen,Venlo,Limburg,VBO,6.146268,51.339813
Kaldenkerkerweg,10,F,,5932CV,Tegelen,Venlo,Limburg,VBO,6.146268,51.339813
Kaldenkerkerweg,10,G,,5932CV,Tegelen,Venlo,Limburg,VBO,6.146268,51.339813
Kaldenkerkerweg,10,H,,5932CV,Tegelen,Venlo,Limburg,VBO,6.146268,51.339813
Kaldenkerkerweg,10,,,5932CV,Tegelen,Venlo,Limburg,VBO,6.146268,51.339813
Kaldenkerkerweg,12,A,,5932CV,Tegelen,Venlo,Limburg,VBO,6.146434,51.339681
Kaldenkerkerweg,12,B,,5932CV,Tegelen,Venlo,Limburg,VBO,6.146434,51.339681
Kaldenkerkerweg,12,C,,5932CV,Tegelen,Venlo,Limburg,VBO,6.146434,51.339681
Kaldenkerkerweg,12,D,,5932CV,Tegelen,Venlo,Limburg,VBO,6.146434,51.339681
Kaldenkerkerweg,12,E,,5932CV,Tegelen,Venlo,Limburg,VBO,6.146434,51.339681
Kaldenkerkerweg,12,F,,5932CV,Tegelen,Venlo,Limburg,VBO,6.146434,51.339681
Kaldenkerkerweg,12,G,,5932CV,Tegelen,Venlo,Limburg,VBO,6.146434,51.339681
Kaldenkerkerweg,12,H,,5932CV,Tegelen,Venlo,Limburg,VBO,6.146434,51.339681
Kaldenkerkerweg,12,I,,5932CV,Tegelen,Venlo,Limburg,VBO,6.146434,51.339681
Kaldenkerkerweg,14,,,5932CV,Tegelen,Venlo,Limburg,VBO,6.146905,51.339732
Kaldenkerkerweg,16,,,5932CV,Tegelen,Venlo,Limburg,VBO,6.147126,51.339748
Kaldenkerkerweg,18,A,,5932CV,Tegelen,Venlo,Limburg,VBO,6.147208,51.339712
Kaldenkerkerweg,18,,,5932CV,Tegelen,Venlo,Limburg,VBO,6.147207,51.339736
Kaldenkerkerweg,20,A,,5932CV,Tegelen,Venlo,Limburg,VBO,6.147368,51.339680
Kaldenkerkerweg,20,,,5932CV,Tegelen,Venlo,Limburg,VBO,6.147366,51.339704
Kaldenkerkerweg,22,,,5932CV,Tegelen,Venlo,Limburg,VBO,6.147477,51.339679
Kaldenkerkerweg,24,A,,5932CV,Tegelen,Venlo,Limburg,VBO,6.147549,51.339517
Kaldenkerkerweg,24,,,5932CV,Tegelen,Venlo,Limburg,VBO,6.147555,51.339662
Kaldenkerkerweg,26,A,,5932CV,Tegelen,Venlo,Limburg,VBO,6.147656,51.339430
Kaldenkerkerweg,26,,,5932CV,Tegelen,Venlo,Limburg,VBO,6.147791,51.339605
Kaldenkerkerweg,28,,,5932CV,Tegelen,Venlo,Limburg,VBO,6.147878,51.339583
Kaldenkerkerweg,30,,,5932CV,Tegelen,Venlo,Limburg,VBO,6.147968,51.339561
Kaldenkerkerweg,32,,,5932CV,Tegelen,Venlo,Limburg,VBO,6.148063,51.339538
Kaldenkerkerweg,34,,,5932CV,Tegelen,Venlo,Limburg,VBO,6.148168,51.339513
Kaldenkerkerweg,36,,,5932CV,Tegelen,Venlo,Limburg,VBO,6.148283,51.339484
Kaldenkerkerweg,38,,,5932CV,Tegelen,Venlo,Limburg,VBO,6.148476,51.339438
Kaldenkerkerweg,40,,,5932CV,Tegelen,Venlo,Limburg,VBO,6.148579,51.339413
Kaldenkerkerweg,42,,,5932CV,Tegelen,Venlo,Limburg,VBO,6.148670,51.339391
Kaldenkerkerweg,44,,,5932CV,Tegelen,Venlo,Limburg,VBO,6.148730,51.339376
Kaldenkerkerweg,46,,,5932CW,Tegelen,Venlo,Limburg,VBO,6.148945,51.339325
Kaldenkerkerweg,48,,,5932CW,Tegelen,Venlo,Limburg,VBO,6.149015,51.339309
Kaldenkerkerweg,50,,,5932CW,Tegelen,Venlo,Limburg,VBO,6.149079,51.339293
Kaldenkerkerweg,52,,,5932CW,Tegelen,Venlo,Limburg,VBO,6.149144,51.339278
Kaldenkerkerweg,54,,,5932CW,Tegelen,Venlo,Limburg,VBO,6.149208,51.339262
Kaldenkerkerweg,56,,,5932CW,Tegelen,Venlo,Limburg,VBO,6.149274,51.339246
Kaldenkerkerweg,58,,,5932CW,Tegelen,Venlo,Limburg,VBO,6.149398,51.339177
Kaldenkerkerweg,60,,,5932CW,Tegelen,Venlo,Limburg,VBO,6.149488,51.339156
Kaldenkerkerweg,64,A,,5932CW,Tegelen,Venlo,Limburg,VBO,6.150316,51.338967
Kaldenkerkerweg,64,B,,5932CW,Tegelen,Venlo,Limburg,VBO,6.150502,51.338954
Kaldenkerkerweg,64,,,5932CW,Tegelen,Venlo,Limburg,VBO,6.150239,51.339019
Kaldenkerkerweg,72,A,,5932CW,Tegelen,Venlo,Limburg,VBO,6.153282,51.337801
Kaldenkerkerweg,74,,,5932CW,Tegelen,Venlo,Limburg,VBO,6.153333,51.337776
Kaldenkerkerweg,76,,,5932CW,Tegelen,Venlo,Limburg,VBO,6.153384,51.337750
Kaldenkerkerweg,78,,,5932CW,Tegelen,Venlo,Limburg,VBO,6.153449,51.337721
Kaldenkerkerweg,80,,,5932CW,Tegelen,Venlo,Limburg,VBO,6.153509,51.337692
Kaldenkerkerweg,86,,,5932CW,Tegelen,Venlo,Limburg,VBO,6.153780,51.337562
Kaldenkerkerweg,88,,,5932CW,Tegelen,Venlo,Limburg,VBO,6.153837,51.337534
Kaldenkerkerweg,90,,,5932CX,Tegelen,Venlo,Limburg,VBO,6.153896,51.337505
Kaldenkerkerweg,92,A,,5932CX,Tegelen,Venlo,Limburg,VBO,6.154033,51.337441
Kaldenkerkerweg,92,,,5932CX,Tegelen,Venlo,Limburg,VBO,6.153954,51.337478
Kaldenkerkerweg,96,A,,5932CX,Tegelen,Venlo,Limburg,VBO,6.154853,51.336748
Kaldenkerkerweg,96,,,5932CX,Tegelen,Venlo,Limburg,VBO,6.154369,51.336938
Kaldenkerkerweg,98,,,5932CX,Tegelen,Venlo,Limburg,VBO,6.155194,51.336747
Kaldenkerkerweg,100,,,5932CX,Tegelen,Venlo,Limburg,VBO,6.155311,51.336688
Kaldenkerkerweg,102,,,5932CX,Tegelen,Venlo,Limburg,VBO,6.155367,51.336653
Kaldenkerkerweg,104,,,5932CX,Tegelen,Venlo,Limburg,VBO,6.155424,51.336618
Kaldenkerkerweg,106,,,5932CX,Tegelen,Venlo,Limburg,VBO,6.155481,51.336583
Kaldenkerkerweg,108,,,5932CX,Tegelen,Venlo,Limburg,VBO,6.155543,51.336545
Kaldenkerkerweg,110,,,5932CX,Tegelen,Venlo,Limburg,VBO,6.155607,51.336506
Kaldenkerkerweg,112,,,5932CX,Tegelen,Venlo,Limburg,VBO,6.155667,51.336469
Kaldenkerkerweg,118,,,5932CX,Tegelen,Venlo,Limburg,VBO,6.155827,51.336378
Kaldenkerkerweg,120,,,5932CX,Tegelen,Venlo,Limburg,VBO,6.155897,51.336328
Kaldenkerkerweg,122,,,5932CX,Tegelen,Venlo,Limburg,VBO,6.155950,51.336295
Kaldenkerkerweg,124,,,5932CX,Tegelen,Venlo,Limburg,VBO,6.156003,51.336263
Kaldenkerkerweg,126,,,5932CX,Tegelen,Venlo,Limburg,VBO,6.156055,51.336231
Kaldenkerkerweg,128,,,5932CZ,Tegelen,Venlo,Limburg,VBO,6.156106,51.336199
Kaldenkerkerweg,130,,,5932CZ,Tegelen,Venlo,Limburg,VBO,6.156191,51.336167
Kaldenkerkerweg,132,,,5932CZ,Tegelen,Venlo,Limburg,VBO,6.156280,51.336114
Kaldenkerkerweg,134,A,,5932CZ,Tegelen,Venlo,Limburg,VBO,6.156094,51.335960
Kaldenkerkerweg,134,B,,5932CZ,Tegelen,Venlo,Limburg,VBO,6.156105,51.335861
Kaldenkerkerweg,158,,,5932CZ,Tegelen,Venlo,Limburg,VBO,6.168307,51.330383
Kaldenkerkerweg,160,,,5932CZ,Tegelen,Venlo,Limburg,VBO,6.168380,51.330365
Kaldenkerkerweg,164,,,5932CZ,Tegelen,Venlo,Limburg,VBO,6.168623,51.330305
Kaldenkerkerweg,250,,,5932CZ,Tegelen,Venlo,Limburg,VBO,6.163043,51.324547
Kaldenkerkerweg,95,A,,5932DA,Tegelen,Venlo,Limburg,VBO,6.159254,51.334768
Kaldenkerkerweg,95,B,,5932DA,Tegelen,Venlo,Limburg,VBO,6.159376,51.334697
Kaldenkerkerweg,95,,,5932DA,Tegelen,Venlo,Limburg,VBO,6.159136,51.334839
Kaldenkerkerweg,97,,,5932DA,Tegelen,Venlo,Limburg,VBO,6.159564,51.334486
Kaldenkerkerweg,99,A,,5932DA,Tegelen,Venlo,Limburg,VBO,6.160110,51.334596
Kaldenkerkerweg,99,,,5932DA,Tegelen,Venlo,Limburg,VBO,6.160181,51.334557
Kaldenkerkerweg,105,,,5932DA,Tegelen,Venlo,Limburg,VBO,6.159821,51.334331
Kaldenkerkerweg,107,A,,5932DA,Tegelen,Venlo,Limburg,VBO,6.161627,51.334930
Kaldenkerkerweg,107,,,5932DA,Tegelen,Venlo,Limburg,VBO,6.161143,51.334798
Kaldenkerkerweg,109,,,5932DA,Tegelen,Venlo,Limburg,VBO,6.160260,51.334155
Kaldenkerkerweg,111,,,5932DA,Tegelen,Venlo,Limburg,VBO,6.160327,51.333950
Kaldenkerkerweg,113,,,5932DA,Tegelen,Venlo,Limburg,VBO,6.160593,51.334059
Kaldenkerkerweg,115,,,5932DA,Tegelen,Venlo,Limburg,VBO,6.160884,51.333935
Kaldenkerkerweg,121,,,5932DA,Tegelen,Venlo,Limburg,VBO,6.160914,51.333655
Kaldenkerkerweg,123,,,5932DA,Tegelen,Venlo,Limburg,VBO,6.160973,51.333462
Kaldenkerkerweg,125,,,5932DA,Tegelen,Venlo,Limburg,VBO,6.161042,51.333421
Kaldenkerkerweg,127,,,5932DA,Tegelen,Venlo,Limburg,VBO,6.161718,51.334294
Kaldenkerkerweg,129,A,,5932DA,Tegelen,Venlo,Limburg,VBO,6.161897,51.334212
Kaldenkerkerweg,129,,,5932DA,Tegelen,Venlo,Limburg,VBO,6.161811,51.334251
Kaldenkerkerweg,131,,,5932DA,Tegelen,Venlo,Limburg,VBO,6.161554,51.333259
Kaldenkerkerweg,133,A,,5932DA,Tegelen,Venlo,Limburg,VBO,6.162751,51.334701
Kaldenkerkerweg,133,B,,5932DA,Tegelen,Venlo,Limburg,VBO,6.162815,51.334667
Kaldenkerkerweg,133,C,,5932DA,Tegelen,Venlo,Limburg,VBO,6.162878,51.334637
Kaldenkerkerweg,133,D,,5932DA,Tegelen,Venlo,Limburg,VBO,6.162957,51.334602
Kaldenkerkerweg,133,E,,5932DA,Tegelen,Venlo,Limburg,VBO,6.163012,51.334565
Kaldenkerkerweg,133,,,5932DA,Tegelen,Venlo,Limburg,VBO,6.162902,51.334572
Kaldenkerkerweg,137,,,5932DA,Tegelen,Venlo,Limburg,VBO,6.163836,51.334432
Kaldenkerkerweg,139,,,5932DA,Tegelen,Venlo,Limburg,VBO,6.163046,51.333702
Kaldenkerkerweg,143,,,5932DA,Tegelen,Venlo,Limburg,VBO,6.162199,51.332868
Kaldenkerkerweg,165,,,5932DB,Tegelen,Venlo,Limburg,VBO,6.164779,51.331809
Kaldenkerkerweg,197,,,5932DB,Tegelen,Venlo,Limburg,VBO,6.166822,51.331376
Kaldenkerkerweg,199,,,5932DB,Tegelen,Venlo,Limburg,VBO,6.166865,51.330988
Kaldenkerkerweg,201,,,5932DB,Tegelen,Venlo,Limburg,VBO,6.167465,51.331243
Kaldenkerkerweg,205,,,5932DB,Tegelen,Venlo,Limburg,VBO,6.168393,51.330606
Nassaustraat,1,,,5932EA,Tegelen,Venlo,Limburg,VBO,6.150453,51.339454
Nassaustraat,3,,,5932EA,Tegelen,Venlo,Limburg,VBO,6.150487,51.339508
Nassaustraat,5,,,5932EA,Tegelen,Venlo,Limburg,VBO,6.150514,51.339969
Nassaustraat,7,,,5932EA,Tegelen,Venlo,Limburg,VBO,6.150505,51.340021
Nassaustraat,9,,,5932EA,Tegelen,Venlo,Limburg,VBO,6.150497,51.340071
Nassaustraat,11,,,5932EA,Tegelen,Venlo,Limburg,VBO,6.150490,51.340115
Nassaustraat,43,,,5932EA,Tegelen,Venlo,Limburg,VBO,6.150168,51.341832
Nassaustraat,45,,,5932EA,Tegelen,Venlo,Limburg,VBO,6.150210,51.341884
Nassaustraat,47,,,5932EA,Tegelen,Venlo,Limburg,VBO,6.150193,51.341990
Nassaustraat,16,,,5932EB,Tegelen,Venlo,Limburg,VBO,6.151035,51.340367
Nassaustraat,18,,,5932EB,Tegelen,Venlo,Limburg,VBO,6.150923,51.340795
Nassaustraat,20,,,5932EB,Tegelen,Venlo,Limburg,VBO,6.150778,51.341026
Nassaustraat,30,,,5932EB,Tegelen,Venlo,Limburg,VBO,6.150626,51.341934
Nassaustraat,32,,,5932EB,Tegelen,Venlo,Limburg,VBO,6.150387,51.342167
Emmaplein,3,A,,5932ED,Tegelen,Venlo,Limburg,VBO,6.150964,51.341343
Emmaplein,3,,,5932ED,Tegelen,Venlo,Limburg,VBO,6.150872,51.341337
Emmaplein,5,,,5932ED,Tegelen,Venlo,Limburg,VBO,6.151170,51.341357
Julianastraat,1,,,5932EH,Tegelen,Venlo,Limburg,VBO,6.151403,51.341847
Julianastraat,2,,,5932EH,Tegelen,Venlo,Limburg,VBO,6.150891,51.341659
Julianastraat,3,,,5932EH,Tegelen,Venlo,Limburg,VBO,6.151729,51.341923
Julianastraat,5,,,5932EH,Tegelen,Venlo,Limburg,VBO,6.152581,51.341333
Julianastraat,7,,,5932EH,Tegelen,Venlo,Limburg,VBO,6.152915,51.341037
Julianastraat,10,A,,5932EH,Tegelen,Venlo,Limburg,VBO,6.151862,51.341600
Julianastraat,10,,,5932EH,Tegelen,Venlo,Limburg,VBO,6.152018,51.341458
Broekveldweg,1,,,5932EK,Tegelen,Venlo,Limburg,STA,6.150868,51.342100
Broekveldweg,3,A,,5932EK,Tegelen,Venlo,Limburg,STA,6.151281,51.342319
Broekveldweg,3,,,5932EK,Tegelen,Venlo,Limburg,STA,6.151059,51.342241
Broekveldweg,6,,,5932EK,Tegelen,Venlo,Limburg,VBO,6.152307,51.342079
Broekveldweg,7,,,5932EK,Tegelen,Venlo,Limburg,STA,6.151499,51.342388
Broekveldweg,9,,,5932EK,Tegelen,Venlo,Limburg,STA,6.151696,51.342450
Postiljonhof,2,,,5932GA,Tegelen,Venlo,Limburg,VBO,6.156140,51.329645
Postiljonhof,4,,,5932GA,Tegelen,Venlo,Limburg,VBO,6.156204,51.329709
Postiljonhof,6,,,5932GA,Tegelen,Venlo,Limburg,VBO,6.156225,51.329752
Postiljonhof,8,,,5932GA,Tegelen,Venlo,Limburg,VBO,6.156249,51.329797
Postiljonhof,10,,,5932GA,Tegelen,Venlo,Limburg,VBO,6.156274,51.329847
Postiljonhof,12,,,5932GA,Tegelen,Venlo,Limburg,VBO,6.156298,51.329891
Postiljonhof,14,,,5932GA,Tegelen,Venlo,Limburg,VBO,6.156320,51.329936
Postiljonhof,16,,,5932GA,Tegelen,Venlo,Limburg,VBO,6.156342,51.329980
Postiljonhof,18,,,5932GA,Tegelen,Venlo,Limburg,VBO,6.156363,51.330022
Postiljonhof,20,,,5932GA,Tegelen,Venlo,Limburg,VBO,6.156390,51.330077
Postiljonhof,22,,,5932GA,Tegelen,Venlo,Limburg,VBO,6.156218,51.330154
Postiljonhof,24,,,5932GA,Tegelen,Venlo,Limburg,VBO,6.156146,51.330168
Postiljonhof,26,,,5932GA,Tegelen,Venlo,Limburg,VBO,6.156077,51.330183
Postiljonhof,28,,,5932GA,Tegelen,Venlo,Limburg,VBO,6.156006,51.330196
Postiljonhof,30,,,5932GA,Tegelen,Venlo,Limburg,VBO,6.155938,51.330210
Postiljonhof,32,,,5932GA,Tegelen,Venlo,Limburg,VBO,6.155852,51.330197
Postiljonhof,34,,,5932GA,Tegelen,Venlo,Limburg,VBO,6.155783,51.330213
Postiljonhof,36,,,5932GA,Tegelen,Venlo,Limburg,VBO,6.155712,51.330225
Postiljonhof,38,,,5932GA,Tegelen,Venlo,Limburg,VBO,6.155642,51.330241
Postiljonhof,40,,,5932GA,Tegelen,Venlo,Limburg,VBO,6.155594,51.330437
Postiljonhof,1,,,5932GB,Tegelen,Venlo,Limburg,VBO,6.155707,51.329513
Postiljonhof,3,,,5932GB,Tegelen,Venlo,Limburg,VBO,6.155700,51.329558
Postiljonhof,5,,,5932GB,Tegelen,Venlo,Limburg,VBO,6.155693,51.329604
Postiljonhof,7,,,5932GB,Tegelen,Venlo,Limburg,VBO,6.155686,51.329650
Postiljonhof,9,,,5932GB,Tegelen,Venlo,Limburg,VBO,6.155678,51.329695
Postiljonhof,11,,,5932GB,Tegelen,Venlo,Limburg,VBO,6.155715,51.329738
Postiljonhof,13,,,5932GB,Tegelen,Venlo,Limburg,VBO,6.155707,51.329785
Postiljonhof,15,,,5932GB,Tegelen,Venlo,Limburg,VBO,6.155700,51.329830
Postiljonhof,17,,,5932GB,Tegelen,Venlo,Limburg,VBO,6.155694,51.329875
Postiljonhof,19,,,5932GB,Tegelen,Venlo,Limburg,VBO,6.155687,51.329921
Postiljonhof,21,A,,5932GB,Tegelen,Venlo,Limburg,VBO,6.155360,51.330092
Postiljonhof,21,,,5932GB,Tegelen,Venlo,Limburg,VBO,6.155681,51.329967
Postiljonhof,23,,,5932GB,Tegelen,Venlo,Limburg,VBO,6.155123,51.330170
Postiljonhof,25,,,5932GB,Tegelen,Venlo,Limburg,VBO,6.155145,51.330214
Postiljonhof,27,,,5932GB,Tegelen,Venlo,Limburg,VBO,6.155169,51.330258
Postiljonhof,29,,,5932GB,Tegelen,Venlo,Limburg,VBO,6.155190,51.330303
Postiljonhof,31,,,5932GB,Tegelen,Venlo,Limburg,VBO,6.155212,51.330345
Postiljonhof,33,,,5932GB,Tegelen,Venlo,Limburg,VBO,6.155233,51.330388
Postiljonhof,35,,,5932GB,Tegelen,Venlo,Limburg,VBO,6.155257,51.330432
Wambacherhof,2,,,5932GC,Tegelen,Venlo,Limburg,VBO,6.156776,51.329361
Wambacherhof,4,,,5932GC,Tegelen,Venlo,Limburg,VBO,6.156697,51.329376
Wambacherhof,6,,,5932GC,Tegelen,Venlo,Limburg,VBO,6.156683,51.329337
Wambacherhof,8,,,5932GC,Tegelen,Venlo,Limburg,VBO,6.156629,51.329388
Wambacherhof,10,,,5932GC,Tegelen,Venlo,Limburg,VBO,6.156549,51.329403
Wambacherhof,12,,,5932GC,Tegelen,Venlo,Limburg,VBO,6.156533,51.329367
Wambacherhof,14,,,5932GC,Tegelen,Venlo,Limburg,VBO,6.156466,51.329409
Wambacherhof,16,,,5932GC,Tegelen,Venlo,Limburg,VBO,6.156390,51.329424
Wambacherhof,18,,,5932GC,Tegelen,Venlo,Limburg,VBO,6.156374,51.329375
Wambacherhof,20,,,5932GC,Tegelen,Venlo,Limburg,VBO,6.156160,51.329353
Wambacherhof,22,,,5932GC,Tegelen,Venlo,Limburg,VBO,6.156129,51.329315
Wambacherhof,24,,,5932GC,Tegelen,Venlo,Limburg,VBO,6.156081,51.329265
Wambacherhof,26,,,5932GC,Tegelen,Venlo,Limburg,VBO,6.156050,51.329205
Wambacherhof,28,,,5932GC,Tegelen,Venlo,Limburg,VBO,6.156066,51.329168
Wambacherhof,30,,,5932GC,Tegelen,Venlo,Limburg,VBO,6.156034,51.329106
Wambacherhof,32,,,5932GC,Tegelen,Venlo,Limburg,VBO,6.156050,51.329069
Wambacherhof,34,,,5932GC,Tegelen,Venlo,Limburg,VBO,6.156018,51.329007
Wambacherhof,36,,,5932GD,Tegelen,Venlo,Limburg,VBO,6.156328,51.329060
Wambacherhof,38,,,5932GD,Tegelen,Venlo,Limburg,VBO,6.156427,51.329040
Wambacherhof,40,,,5932GD,Tegelen,Venlo,Limburg,VBO,6.156489,51.329028
Wambacherhof,42,,,5932GD,Tegelen,Venlo,Limburg,VBO,6.156562,51.329013
Wambacherhof,44,,,5932GD,Tegelen,Venlo,Limburg,VBO,6.156651,51.328961
Wambacherhof,46,,,5932GD,Tegelen,Venlo,Limburg,VBO,6.156733,51.328947
Wambacherhof,48,,,5932GD,Tegelen,Venlo,Limburg,VBO,6.156752,51.328995
Wambacherhof,50,,,5932GD,Tegelen,Venlo,Limburg,VBO,6.156802,51.328931
Wambacherhof,52,,,5932GD,Tegelen,Venlo,Limburg,VBO,6.156882,51.328919
Wambacherhof,54,,,5932GD,Tegelen,Venlo,Limburg,VBO,6.156899,51.328964
Wambacherhof,56,,,5932GD,Tegelen,Venlo,Limburg,VBO,6.156966,51.328926
Wambacherhof,58,,,5932GD,Tegelen,Venlo,Limburg,VBO,6.157040,51.328912
Wambacherhof,60,,,5932GD,Tegelen,Venlo,Limburg,VBO,6.157059,51.328955
Wambacherhof,62,,,5932GD,Tegelen,Venlo,Limburg,VBO,6.157105,51.328897
Wambacherhof,64,,,5932GD,Tegelen,Venlo,Limburg,VBO,6.157183,51.328883
Wambacherhof,66,,,5932GD,Tegelen,Venlo,Limburg,VBO,6.157205,51.328924
Wambacherhof,68,,,5932GD,Tegelen,Venlo,Limburg,VBO,6.157250,51.328849
Wambacherhof,70,,,5932GD,Tegelen,Venlo,Limburg,VBO,6.157322,51.328834
Wambacherhof,72,,,5932GD,Tegelen,Venlo,Limburg,VBO,6.157343,51.328876
Wambacherhof,74,,,5932GD,Tegelen,Venlo,Limburg,VBO,6.157423,51.328832
Wambacherhof,76,,,5932GD,Tegelen,Venlo,Limburg,VBO,6.157494,51.328817
Wambacherhof,78,,,5932GD,Tegelen,Venlo,Limburg,VBO,6.157568,51.328802
Wambacherhof,80,,,5932GD,Tegelen,Venlo,Limburg,VBO,6.157643,51.328787
Wambacherhof,1,,,5932GE,Tegelen,Venlo,Limburg,VBO,6.156931,51.329721
Wambacherhof,3,,,5932GE,Tegelen,Venlo,Limburg,VBO,6.156983,51.329682
Wambacherhof,5,,,5932GE,Tegelen,Venlo,Limburg,VBO,6.157030,51.329645
Wambacherhof,7,,,5932GE,Tegelen,Venlo,Limburg,VBO,6.157077,51.329606
Wambacherhof,9,,,5932GE,Tegelen,Venlo,Limburg,VBO,6.157197,51.329506
Wambacherhof,11,,,5932GE,Tegelen,Venlo,Limburg,VBO,6.157177,51.329465
Wambacherhof,13,,,5932GE,Tegelen,Venlo,Limburg,VBO,6.157122,51.329426
Wambacherhof,15,,,5932GE,Tegelen,Venlo,Limburg,VBO,6.157098,51.329379
Wambacherhof,17,,,5932GE,Tegelen,Venlo,Limburg,VBO,6.156965,51.329221
Wambacherhof,19,,,5932GE,Tegelen,Venlo,Limburg,VBO,6.157039,51.329208
Wambacherhof,21,,,5932GE,Tegelen,Venlo,Limburg,VBO,6.157114,51.329192
Wambacherhof,23,,,5932GE,Tegelen,Venlo,Limburg,VBO,6.157189,51.329178
Wambacherhof,25,,,5932GE,Tegelen,Venlo,Limburg,VBO,6.157354,51.329267
Wambacherhof,27,,,5932GE,Tegelen,Venlo,Limburg,VBO,6.157359,51.329312
Wambacherhof,29,,,5932GE,Tegelen,Venlo,Limburg,VBO,6.157436,51.329300
Wambacherhof,31,,,5932GE,Tegelen,Venlo,Limburg,VBO,6.157503,51.329238
Wambacherhof,33,,,5932GE,Tegelen,Venlo,Limburg,VBO,6.157519,51.329287
Wambacherhof,35,,,5932GE,Tegelen,Venlo,Limburg,VBO,6.157593,51.329272
Wambacherhof,37,,,5932GE,Tegelen,Venlo,Limburg,VBO,6.157652,51.329209
Wambacherhof,39,,,5932GE,Tegelen,Venlo,Limburg,VBO,6.157676,51.329257
Wambacherhof,41,,,5932GE,Tegelen,Venlo,Limburg,VBO,6.157757,51.329240
Wambacherhof,43,,,5932GG,Tegelen,Venlo,Limburg,VBO,6.157811,51.329124
Wambacherhof,45,,,5932GG,Tegelen,Venlo,Limburg,VBO,6.157886,51.329109
Wambacherhof,47,,,5932GG,Tegelen,Venlo,Limburg,VBO,6.157959,51.329094
Wambacherhof,49,A,,5932GG,Tegelen,Venlo,Limburg,VBO,6.158070,51.328940
Wambacherhof,49,,,5932GG,Tegelen,Venlo,Limburg,VBO,6.158034,51.329079
Wambacherhof,51,,,5932GG,Tegelen,Venlo,Limburg,VBO,6.157976,51.328915
Wambacherhof,53,,,5932GG,Tegelen,Venlo,Limburg,VBO,6.158033,51.328904
Wambacherhof,55,,,5932GG,Tegelen,Venlo,Limburg,VBO,6.158005,51.328849
Wambacherhof,57,,,5932GG,Tegelen,Venlo,Limburg,VBO,6.157952,51.328827
Wambacherhof,59,,,5932GG,Tegelen,Venlo,Limburg,VBO,6.157994,51.328816
Wambacherhof,61,,,5932GG,Tegelen,Venlo,Limburg,VBO,6.157963,51.328756
Wambacherhof,63,,,5932GG,Tegelen,Venlo,Limburg,VBO,6.157887,51.328731
Wambacherhof,65,,,5932GG,Tegelen,Venlo,Limburg,VBO,6.157945,51.328723
Wambacherhof,67,,,5932GG,Tegelen,Venlo,Limburg,VBO,6.157915,51.328659
Tiglienstraat,2,,,5932GH,Tegelen,Venlo,Limburg,VBO,6.155277,51.329228
Tiglienstraat,4,,,5932GH,Tegelen,Venlo,Limburg,VBO,6.155351,51.329233
Tiglienstraat,6,,,5932GH,Tegelen,Venlo,Limburg,VBO,6.155425,51.329238
Tiglienstraat,8,,,5932GH,Tegelen,Venlo,Limburg,VBO,6.155498,51.329242
Tiglienstraat,10,,,5932GH,Tegelen,Venlo,Limburg,VBO,6.155566,51.329247
Tiglienstraat,12,,,5932GH,Tegelen,Venlo,Limburg,VBO,6.155640,51.329251
Tiglienstraat,14,,,5932GH,Tegelen,Venlo,Limburg,VBO,6.155713,51.329256
Tiglienstraat,16,,,5932GH,Tegelen,Venlo,Limburg,VBO,6.155813,51.329262
Tiglienstraat,18,,,5932GH,Tegelen,Venlo,Limburg,VBO,6.157444,51.329871
Tiglienstraat,20,,,5932GH,Tegelen,Venlo,Limburg,VBO,6.157503,51.329932
Tiglienstraat,22,,,5932GH,Tegelen,Venlo,Limburg,VBO,6.157573,51.329989
Tiglienstraat,24,,,5932GH,Tegelen,Venlo,Limburg,VBO,6.157623,51.330037
Tiglienstraat,26,,,5932GH,Tegelen,Venlo,Limburg,VBO,6.157674,51.330071
Tiglienstraat,28,,,5932GH,Tegelen,Venlo,Limburg,VBO,6.158376,51.330600
Tiglienstraat,30,,,5932GH,Tegelen,Venlo,Limburg,VBO,6.158330,51.330645
Tiglienstraat,32,,,5932GH,Tegelen,Venlo,Limburg,VBO,6.158343,51.330699
Tiglienstraat,34,,,5932GH,Tegelen,Venlo,Limburg,VBO,6.158323,51.330745
Tiglienstraat,36,,,5932GH,Tegelen,Venlo,Limburg,VBO,6.158303,51.330792
Tiglienstraat,38,,,5932GH,Tegelen,Venlo,Limburg,VBO,6.158260,51.330893
Tiglienstraat,40,,,5932GH,Tegelen,Venlo,Limburg,VBO,6.158240,51.330941
Tiglienstraat,42,,,5932GH,Tegelen,Venlo,Limburg,VBO,6.158219,51.330988
Tiglienstraat,44,,,5932GH,Tegelen,Venlo,Limburg,VBO,6.158188,51.331049
Tiglienstraat,46,,,5932GH,Tegelen,Venlo,Limburg,VBO,6.158015,51.331514
Tiglienstraat,48,,,5932GH,Tegelen,Venlo,Limburg,VBO,6.158000,51.331577
Tiglienstraat,50,,,5932GH,Tegelen,Venlo,Limburg,VBO,6.157873,51.331697
Tiglienstraat,52,,,5932GH,Tegelen,Venlo,Limburg,VBO,6.157804,51.331733
Tiglienstraat,54,,,5932GH,Tegelen,Venlo,Limburg,VBO,6.157619,51.331811
Tiglienstraat,56,,,5932GH,Tegelen,Venlo,Limburg,VBO,6.157549,51.331836
Tiglienstraat,58,,,5932GH,Tegelen,Venlo,Limburg,VBO,6.157406,51.331885
Tiglienstraat,60,,,5932GH,Tegelen,Venlo,Limburg,VBO,6.157336,51.331910
Tiglienstraat,62,,,5932GH,Tegelen,Venlo,Limburg,VBO,6.157193,51.331959
Tiglienstraat,64,,,5932GH,Tegelen,Venlo,Limburg,VBO,6.157122,51.331983
Tiglienstraat,1,,,5932GJ,Tegelen,Venlo,Limburg,VBO,6.155180,51.329535
Tiglienstraat,3,,,5932GJ,Tegelen,Venlo,Limburg,VBO,6.155250,51.329539
Tiglienstraat,5,,,5932GJ,Tegelen,Venlo,Limburg,VBO,6.155324,51.329543
Tiglienstraat,7,,,5932GJ,Tegelen,Venlo,Limburg,VBO,6.155397,51.329548
Tiglienstraat,9,,,5932GJ,Tegelen,Venlo,Limburg,VBO,6.157183,51.330167
Tiglienstraat,11,,,5932GJ,Tegelen,Venlo,Limburg,VBO,6.157261,51.330185
Tiglienstraat,13,,,5932GJ,Tegelen,Venlo,Limburg,VBO,6.157364,51.330260
Tiglienstraat,15,,,5932GJ,Tegelen,Venlo,Limburg,VBO,6.157426,51.330318
Tiglienstraat,17,,,5932GJ,Tegelen,Venlo,Limburg,VBO,6.157521,51.330385
Tiglienstraat,19,,,5932GJ,Tegelen,Venlo,Limburg,VBO,6.157584,51.330439
Tiglienstraat,21,,,5932GJ,Tegelen,Venlo,Limburg,VBO,6.157662,51.330497
Tiglienstraat,23,,,5932GJ,Tegelen,Venlo,Limburg,VBO,6.157755,51.330549
Tiglienstraat,25,,,5932GJ,Tegelen,Venlo,Limburg,VBO,6.157851,51.330629
Tiglienstraat,27,,,5932GJ,Tegelen,Venlo,Limburg,VBO,6.157887,51.330702
Tiglienstraat,29,,,5932GJ,Tegelen,Venlo,Limburg,VBO,6.157829,51.330811
Tiglienstraat,31,,,5932GJ,Tegelen,Venlo,Limburg,VBO,6.157771,51.330862
Tiglienstraat,33,,,5932GJ,Tegelen,Venlo,Limburg,VBO,6.157736,51.330961
Tiglienstraat,35,,,5932GJ,Tegelen,Venlo,Limburg,VBO,6.157715,51.331010
Tiglienstraat,37,,,5932GJ,Tegelen,Venlo,Limburg,VBO,6.157654,51.331092
Tiglienstraat,39,,,5932GJ,Tegelen,Venlo,Limburg,VBO,6.157622,51.331155
Tiglienstraat,41,,,5932GJ,Tegelen,Venlo,Limburg,VBO,6.157583,51.331231
Tiglienstraat,43,,,5932GJ,Tegelen,Venlo,Limburg,VBO,6.157558,51.331298
Tiglienstraat,45,,,5932GJ,Tegelen,Venlo,Limburg,VBO,6.157515,51.331378
Tiglienstraat,47,,,5932GJ,Tegelen,Venlo,Limburg,VBO,6.157539,51.331452
Tiglienstraat,49,,,5932GJ,Tegelen,Venlo,Limburg,VBO,6.157295,51.331591
Tiglienstraat,51,,,5932GJ,Tegelen,Venlo,Limburg,VBO,6.157239,51.331644
Tiglienstraat,53,,,5932GJ,Tegelen,Venlo,Limburg,VBO,6.157098,51.331692
Tiglienstraat,55,,,5932GJ,Tegelen,Venlo,Limburg,VBO,6.157033,51.331721
Tiglienstraat,65,,,5932GJ,Tegelen,Venlo,Limburg,VBO,6.156412,51.331873
Tiglienstraat,67,,,5932GJ,Tegelen,Venlo,Limburg,VBO,6.156365,51.331922
Tiglienstraat,69,,,5932GJ,Tegelen,Venlo,Limburg,VBO,6.156252,51.331975
Tiglienstraat,71,,,5932GJ,Tegelen,Venlo,Limburg,VBO,6.156167,51.332016
Patrijzenpad,2,,,5932GK,Tegelen,Venlo,Limburg,VBO,6.155385,51.331718
Patrijzenpad,4,,,5932GK,Tegelen,Venlo,Limburg,VBO,6.155469,51.331620
Patrijzenpad,6,,,5932GK,Tegelen,Venlo,Limburg,VBO,6.155550,51.331558
Patrijzenpad,8,,,5932GK,Tegelen,Venlo,Limburg,VBO,6.155650,51.331508
Patrijzenpad,9,,,5932GK,Tegelen,Venlo,Limburg,VBO,6.155908,51.331912
Patrijzenpad,10,,,5932GK,Tegelen,Venlo,Limburg,VBO,6.155756,51.331453
Patrijzenpad,11,,,5932GK,Tegelen,Venlo,Limburg,VBO,6.155820,51.331854
Patrijzenpad,12,,,5932GK,Tegelen,Venlo,Limburg,VBO,6.155855,51.331403
Patrijzenpad,13,,,5932GK,Tegelen,Venlo,Limburg,VBO,6.155724,51.331790
Patrijzenpad,14,,,5932GK,Tegelen,Venlo,Limburg,VBO,6.155936,51.331341
Patrijzenpad,15,,,5932GK,Tegelen,Venlo,Limburg,VBO,6.155974,51.331623
Patrijzenpad,16,,,5932GK,Tegelen,Venlo,Limburg,VBO,6.156062,51.331066
Patrijzenpad,17,,,5932GK,Tegelen,Venlo,Limburg,VBO,6.156078,51.331545
Patrijzenpad,18,,,5932GK,Tegelen,Venlo,Limburg,VBO,6.156122,51.330999
Patrijzenpad,20,,,5932GK,Tegelen,Venlo,Limburg,VBO,6.156150,51.330920
Patrijzenpad,21,,,5932GK,Tegelen,Venlo,Limburg,VBO,6.156245,51.331428
Patrijzenpad,22,,,5932GK,Tegelen,Venlo,Limburg,VBO,6.156210,51.330854
Patrijzenpad,23,,,5932GK,Tegelen,Venlo,Limburg,VBO,6.156251,51.331372
Patrijzenpad,24,,,5932GK,Tegelen,Venlo,Limburg,VBO,6.156270,51.330786
Patrijzenpad,25,,,5932GK,Tegelen,Venlo,Limburg,VBO,6.156318,51.331275
Patrijzenpad,26,,,5932GK,Tegelen,Venlo,Limburg,VBO,6.156329,51.330722
Patrijzenpad,27,,,5932GK,Tegelen,Venlo,Limburg,VBO,6.156341,51.331228
Patrijzenpad,28,,,5932GK,Tegelen,Venlo,Limburg,VBO,6.156423,51.330664
Patrijzenpad,29,,,5932GK,Tegelen,Venlo,Limburg,VBO,6.156369,51.331087
Patrijzenpad,30,,,5932GK,Tegelen,Venlo,Limburg,VBO,6.156483,51.330597
Patrijzenpad,31,,,5932GK,Tegelen,Venlo,Limburg,VBO,6.156392,51.331040
Patrijzenpad,32,,,5932GK,Tegelen,Venlo,Limburg,VBO,6.156603,51.330551
Patrijzenpad,33,,,5932GK,Tegelen,Venlo,Limburg,VBO,6.156481,51.330912
Patrijzenpad,34,,,5932GK,Tegelen,Venlo,Limburg,VBO,6.156681,51.330465
Patrijzenpad,35,,,5932GK,Tegelen,Venlo,Limburg,VBO,6.156530,51.330873
Patrijzenpad,36,,,5932GK,Tegelen,Venlo,Limburg,VBO,6.156733,51.330364
Patrijzenpad,38,,,5932GK,Tegelen,Venlo,Limburg,VBO,6.156767,51.330266
Patrijzenpad,40,,,5932GK,Tegelen,Venlo,Limburg,VBO,6.156818,51.330178
Patrijzenpad,42,,,5932GK,Tegelen,Venlo,Limburg,VBO,6.156878,51.330094
Patrijzenpad,44,,,5932GK,Tegelen,Venlo,Limburg,VBO,6.156970,51.330029
Hertenkamp,2,,,5932GL,Tegelen,Venlo,Limburg,VBO,6.158074,51.329856
Hertenkamp,4,,,5932GL,Tegelen,Venlo,Limburg,VBO,6.158031,51.329820
Hertenkamp,6,,,5932GL,Tegelen,Venlo,Limburg,VBO,6.157984,51.329783
Hertenkamp,8,,,5932GL,Tegelen,Venlo,Limburg,VBO,6.157927,51.329667
Hertenkamp,10,,,5932GL,Tegelen,Venlo,Limburg,VBO,6.157938,51.329614
Hertenkamp,12,,,5932GL,Tegelen,Venlo,Limburg,VBO,6.158051,51.329526
Hertenkamp,14,,,5932GL,Tegelen,Venlo,Limburg,VBO,6.158108,51.329497
Hertenkamp,16,,,5932GL,Tegelen,Venlo,Limburg,VBO,6.158169,51.329470
Hertenkamp,18,,,5932GL,Tegelen,Venlo,Limburg,VBO,6.158389,51.329463
Hertenkamp,20,,,5932GL,Tegelen,Venlo,Limburg,VBO,6.158460,51.329483
Hertenkamp,22,,,5932GL,Tegelen,Venlo,Limburg,VBO,6.158566,51.329571
Hertenkamp,24,,,5932GL,Tegelen,Venlo,Limburg,VBO,6.158612,51.329609
Hertenkamp,26,,,5932GL,Tegelen,Venlo,Limburg,VBO,6.158689,51.329693
Hertenkamp,28,,,5932GL,Tegelen,Venlo,Limburg,VBO,6.158736,51.329731
Hertenkamp,30,,,5932GL,Tegelen,Venlo,Limburg,VBO,6.158817,51.329813
Hertenkamp,32,,,5932GL,Tegelen,Venlo,Limburg,VBO,6.158863,51.329850
Hertenkamp,34,,,5932GL,Tegelen,Venlo,Limburg,VBO,6.158957,51.329927
Hertenkamp,36,,,5932GL,Tegelen,Venlo,Limburg,VBO,6.159004,51.329965
Hertenkamp,38,,,5932GL,Tegelen,Venlo,Limburg,VBO,6.159087,51.330018
Hertenkamp,40,,,5932GL,Tegelen,Venlo,Limburg,VBO,6.159156,51.330074
Hertenkamp,42,,,5932GL,Tegelen,Venlo,Limburg,VBO,6.159250,51.330148
Hertenkamp,44,,,5932GL,Tegelen,Venlo,Limburg,VBO,6.159295,51.330188
Hertenkamp,46,,,5932GL,Tegelen,Venlo,Limburg,VBO,6.159372,51.330272
Hertenkamp,48,,,5932GL,Tegelen,Venlo,Limburg,VBO,6.159418,51.330310
Hertenkamp,1,,,5932GM,Tegelen,Venlo,Limburg,VBO,6.157835,51.330223
Hertenkamp,3,,,5932GM,Tegelen,Venlo,Limburg,VBO,6.157896,51.330194
Hertenkamp,5,,,5932GM,Tegelen,Venlo,Limburg,VBO,6.158018,51.330135
Hertenkamp,7,,,5932GM,Tegelen,Venlo,Limburg,VBO,6.158075,51.330107
Hertenkamp,9,,,5932GM,Tegelen,Venlo,Limburg,VBO,6.158185,51.330033
Hertenkamp,11,,,5932GM,Tegelen,Venlo,Limburg,VBO,6.158235,51.330007
Hertenkamp,13,,,5932GM,Tegelen,Venlo,Limburg,VBO,6.158360,51.329948
Hertenkamp,15,,,5932GM,Tegelen,Venlo,Limburg,VBO,6.158420,51.329919
Hertenkamp,17,,,5932GM,Tegelen,Venlo,Limburg,VBO,6.158480,51.329891
Hertenkamp,19,,,5932GM,Tegelen,Venlo,Limburg,VBO,6.158699,51.330032
Hertenkamp,21,,,5932GM,Tegelen,Venlo,Limburg,VBO,6.158746,51.330070
Hertenkamp,23,,,5932GM,Tegelen,Venlo,Limburg,VBO,6.158841,51.330148
Hertenkamp,25,,,5932GM,Tegelen,Venlo,Limburg,VBO,6.158887,51.330184
Hertenkamp,27,,,5932GM,Tegelen,Venlo,Limburg,VBO,6.158954,51.330302
Hertenkamp,29,A,,5932GM,Tegelen,Venlo,Limburg,VBO,6.158894,51.330426
Hertenkamp,29,,,5932GM,Tegelen,Venlo,Limburg,VBO,6.158946,51.330349
Hertenkamp,31,,,5932GM,Tegelen,Venlo,Limburg,VBO,6.158702,51.330364
Hertenkamp,33,,,5932GM,Tegelen,Venlo,Limburg,VBO,6.158591,51.330359
Hertenkamp,35,,,5932GM,Tegelen,Venlo,Limburg,VBO,6.158417,51.330340
Hertenkamp,37,,,5932GM,Tegelen,Venlo,Limburg,VBO,6.158344,51.330354
Hertenkamp,39,,,5932GM,Tegelen,Venlo,Limburg,VBO,6.158160,51.330390
Hertenkamp,41,,,5932GM,Tegelen,Venlo,Limburg,VBO,6.158096,51.330415
Hertenkamp,50,,,5932GN,Tegelen,Venlo,Limburg,VBO,6.159369,51.330445
Hertenkamp,52,,,5932GN,Tegelen,Venlo,Limburg,VBO,6.159330,51.330487
Hertenkamp,54,,,5932GN,Tegelen,Venlo,Limburg,VBO,6.159261,51.330520
Hertenkamp,56,,,5932GN,Tegelen,Venlo,Limburg,VBO,6.159222,51.330563
Hertenkamp,58,,,5932GN,Tegelen,Venlo,Limburg,VBO,6.159186,51.330710
Hertenkamp,60,,,5932GN,Tegelen,Venlo,Limburg,VBO,6.159207,51.330759
Hertenkamp,62,,,5932GN,Tegelen,Venlo,Limburg,VBO,6.159273,51.330868
Hertenkamp,64,,,5932GN,Tegelen,Venlo,Limburg,VBO,6.159294,51.330916
Hertenkamp,66,,,5932GN,Tegelen,Venlo,Limburg,VBO,6.159348,51.330958
Hertenkamp,68,,,5932GN,Tegelen,Venlo,Limburg,VBO,6.159368,51.331005
Hertenkamp,70,,,5932GN,Tegelen,Venlo,Limburg,VBO,6.159449,51.331113
Hertenkamp,72,,,5932GN,Tegelen,Venlo,Limburg,VBO,6.159490,51.331157
Hertenkamp,74,,,5932GN,Tegelen,Venlo,Limburg,VBO,6.159193,51.331178
Hertenkamp,76,,,5932GN,Tegelen,Venlo,Limburg,VBO,6.159124,51.331202
Hertenkamp,78,,,5932GN,Tegelen,Venlo,Limburg,VBO,6.159056,51.331227
Hertenkamp,80,,,5932GN,Tegelen,Venlo,Limburg,VBO,6.158904,51.331259
Hertenkamp,82,,,5932GN,Tegelen,Venlo,Limburg,VBO,6.158826,51.331273
Hertenkamp,84,,,5932GN,Tegelen,Venlo,Limburg,VBO,6.158671,51.331294
Hertenkamp,86,,,5932GN,Tegelen,Venlo,Limburg,VBO,6.158593,51.331300
Hertenkamp,88,,,5932GN,Tegelen,Venlo,Limburg,VBO,6.158516,51.331305
Hertenkamp,90,,,5932GN,Tegelen,Venlo,Limburg,VBO,6.158437,51.331310
Hertenkamp,92,,,5932GN,Tegelen,Venlo,Limburg,VBO,6.158242,51.331295
Hertenkamp,94,,,5932GN,Tegelen,Venlo,Limburg,VBO,6.158165,51.331282
Hertenkamp,96,,,5932GN,Tegelen,Venlo,Limburg,VBO,6.158090,51.331270
Hertenkamp,98,,,5932GN,Tegelen,Venlo,Limburg,VBO,6.158014,51.331257
Hertenkamp,43,,,5932GP,Tegelen,Venlo,Limburg,VBO,6.158750,51.330578
Hertenkamp,45,,,5932GP,Tegelen,Venlo,Limburg,VBO,6.158771,51.330625
Hertenkamp,47,,,5932GP,Tegelen,Venlo,Limburg,VBO,6.158791,51.330671
Hertenkamp,49,,,5932GP,Tegelen,Venlo,Limburg,VBO,6.158845,51.330712
Hertenkamp,51,,,5932GP,Tegelen,Venlo,Limburg,VBO,6.158866,51.330760
Hertenkamp,53,,,5932GP,Tegelen,Venlo,Limburg,VBO,6.158888,51.330808
Hertenkamp,55,,,5932GP,Tegelen,Venlo,Limburg,VBO,6.158978,51.331017
Hertenkamp,57,,,5932GP,Tegelen,Venlo,Limburg,VBO,6.158901,51.331030
Hertenkamp,59,,,5932GP,Tegelen,Venlo,Limburg,VBO,6.158741,51.331058
Hertenkamp,61,,,5932GP,Tegelen,Venlo,Limburg,VBO,6.158666,51.331070
Hertenkamp,63,,,5932GP,Tegelen,Venlo,Limburg,VBO,6.158601,51.331104
Hertenkamp,65,,,5932GP,Tegelen,Venlo,Limburg,VBO,6.158523,51.331117
Ulingsheide,1,A,,5932NA,Tegelen,Venlo,Limburg,VBO,6.177384,51.334862
Ulingsheide,1,,,5932NA,Tegelen,Venlo,Limburg,VBO,6.177286,51.334567
Ulingsheide,3,A,,5932NA,Tegelen,Venlo,Limburg,VBO,6.176413,51.335610
Ulingsheide,3,,,5932NA,Tegelen,Venlo,Limburg,VBO,6.176828,51.335249
Ulingsheide,7,A,,5932NA,Tegelen,Venlo,Limburg,VBO,6.178005,51.336599
Ulingsheide,7,,,5932NA,Tegelen,Venlo,Limburg,VBO,6.178157,51.335804
Trappistenweg,1,,,5932NB,Tegelen,Venlo,Limburg,VBO,6.156932,51.336307
Trappistenweg,2,,,5932NB,Tegelen,Venlo,Limburg,VBO,6.157596,51.336133
Trappistenweg,4,,,5932NB,Tegelen,Venlo,Limburg,VBO,6.157807,51.336196
Trappistenweg,6,,,5932NB,Tegelen,Venlo,Limburg,VBO,6.158175,51.336515
Trappistenweg,7,,,5932NB,Tegelen,Venlo,Limburg,VBO,6.157484,51.336448
Trappistenweg,8,,,5932NB,Tegelen,Venlo,Limburg,VBO,6.158621,51.336874
Trappistenweg,10,,,5932NB,Tegelen,Venlo,Limburg,VBO,6.159288,51.337291
Trappistenweg,12,,,5932NB,Tegelen,Venlo,Limburg,VBO,6.159603,51.337527
Egypte,1,A,,5932NC,Tegelen,Venlo,Limburg,VBO,6.161992,51.343387
Egypte,2,,,5932NC,Tegelen,Venlo,Limburg,VBO,6.162368,51.343287
Egypte,3,,,5932NC,Tegelen,Venlo,Limburg,VBO,6.162414,51.343227
Egypte,3,,,5932NC,Tegelen,Venlo,Limburg,VBO,6.162459,51.343232
Egypte,4,,,5932NC,Tegelen,Venlo,Limburg,VBO,6.162508,51.342752
Egypte,5,,,5932NC,Tegelen,Venlo,Limburg,VBO,6.162452,51.342724
Egypte,6,,,5932NC,Tegelen,Venlo,Limburg,VBO,6.162659,51.342797
Egypte,7,,,5932NC,Tegelen,Venlo,Limburg,VBO,6.163713,51.342618
Egypte,8,,,5932NC,Tegelen,Venlo,Limburg,VBO,6.166247,51.342277
Egypte,9,,,5932NC,Tegelen,Venlo,Limburg,VBO,6.166325,51.342280
Egypte,28,,,5932NC,Tegelen,Venlo,Limburg,VBO,6.155812,51.340023
Egypte,37,,,5932NC,Tegelen,Venlo,Limburg,VBO,6.159216,51.339532
Trappistenweg,47,,,5932ND,Tegelen,Venlo,Limburg,VBO,6.164017,51.337540
Trappistenweg,51,,,5932ND,Tegelen,Venlo,Limburg,VBO,6.165798,51.337862
Verlengde Trappistenweg,35,A,,5932ND,Tegelen,Venlo,Limburg,VBO,6.162416,51.338193
Verlengde Trappistenweg,35,B,,5932ND,Tegelen,Venlo,Limburg,VBO,6.163715,51.338230
Verlengde Trappistenweg,35,C,,5932ND,Tegelen,Venlo,Limburg,VBO,6.163487,51.338420
Verlengde Trappistenweg,35,,,5932ND,Tegelen,Venlo,Limburg,VBO,6.163769,51.338815
Verlengde Trappistenweg,50,,,5932ND,Tegelen,Venlo,Limburg,VBO,6.165309,51.337132
Haammakerspad,1,,,5932RA,Tegelen,Venlo,Limburg,VBO,6.155567,51.336200
Haammakerspad,2,,,5932RA,Tegelen,Venlo,Limburg,VBO,6.155275,51.336330
Haammakerspad,3,,,5932RA,Tegelen,Venlo,Limburg,VBO,6.155529,51.336177
Haammakerspad,4,,,5932RA,Tegelen,Venlo,Limburg,VBO,6.155215,51.336296
Haammakerspad,5,,,5932RA,Tegelen,Venlo,Limburg,VBO,6.155453,51.336142
Haammakerspad,6,,,5932RA,Tegelen,Venlo,Limburg,VBO,6.155160,51.336262
Haammakerspad,7,,,5932RA,Tegelen,Venlo,Limburg,VBO,6.155459,51.336093
Haammakerspad,8,,,5932RA,Tegelen,Venlo,Limburg,VBO,6.154765,51.335995
Haammakerspad,9,,,5932RA,Tegelen,Venlo,Limburg,VBO,6.155426,51.336116
Haammakerspad,10,,,5932RA,Tegelen,Venlo,Limburg,VBO,6.154731,51.336021
Haammakerspad,11,,,5932RA,Tegelen,Venlo,Limburg,VBO,6.155384,51.336047
Haammakerspad,12,,,5932RA,Tegelen,Venlo,Limburg,VBO,6.154725,51.335961
Haammakerspad,13,,,5932RA,Tegelen,Venlo,Limburg,VBO,6.155348,51.336071
Haammakerspad,14,,,5932RA,Tegelen,Venlo,Limburg,VBO,6.154690,51.335978
Haammakerspad,15,,,5932RA,Tegelen,Venlo,Limburg,VBO,6.155017,51.335871
Haammakerspad,16,,,5932RA,Tegelen,Venlo,Limburg,VBO,6.154664,51.335928
Haammakerspad,17,,,5932RA,Tegelen,Venlo,Limburg,VBO,6.154960,51.335837
Haammakerspad,18,,,5932RA,Tegelen,Venlo,Limburg,VBO,6.154590,51.335897
Haammakerspad,19,,,5932RA,Tegelen,Venlo,Limburg,VBO,6.154903,51.335803
Haammakerspad,20,A,,5932RA,Tegelen,Venlo,Limburg,VBO,6.154557,51.335830
Haammakerspad,20,,,5932RA,Tegelen,Venlo,Limburg,VBO,6.154551,51.335874
Haammakerspad,21,,,5932RA,Tegelen,Venlo,Limburg,VBO,6.154846,51.335770
Haammakerspad,23,,,5932RA,Tegelen,Venlo,Limburg,VBO,6.154790,51.335736
Haammakerspad,25,,,5932RA,Tegelen,Venlo,Limburg,VBO,6.154733,51.335702
Haammakerspad,27,,,5932RA,Tegelen,Venlo,Limburg,VBO,6.154676,51.335668
Haammakerspad,29,,,5932RA,Tegelen,Venlo,Limburg,VBO,6.154643,51.335619
Haammakerspad,31,,,5932RA,Tegelen,Venlo,Limburg,VBO,6.154587,51.335585
Haammakerspad,33,,,5932RA,Tegelen,Venlo,Limburg,VBO,6.154530,51.335552
Haammakerspad,35,,,5932RA,Tegelen,Venlo,Limburg,VBO,6.154474,51.335518
Haammakerspad,37,,,5932RA,Tegelen,Venlo,Limburg,VBO,6.154417,51.335485
Sigarenmakerspad,1,,,5932RB,Tegelen,Venlo,Limburg,VBO,6.154670,51.336116
Sigarenmakerspad,2,,,5932RB,Tegelen,Venlo,Limburg,VBO,6.155029,51.336214
Sigarenmakerspad,3,,,5932RB,Tegelen,Venlo,Limburg,VBO,6.154608,51.336157
Sigarenmakerspad,4,,,5932RB,Tegelen,Venlo,Limburg,VBO,6.154993,51.336193
Sigarenmakerspad,5,,,5932RB,Tegelen,Venlo,Limburg,VBO,6.154555,51.336192
Sigarenmakerspad,6,,,5932RB,Tegelen,Venlo,Limburg,VBO,6.154970,51.336247
Sigarenmakerspad,7,,,5932RB,Tegelen,Venlo,Limburg,VBO,6.154498,51.336229
Sigarenmakerspad,8,,,5932RB,Tegelen,Venlo,Limburg,VBO,6.154938,51.336226
Sigarenmakerspad,10,,,5932RB,Tegelen,Venlo,Limburg,VBO,6.154893,51.336259
Sigarenmakerspad,12,,,5932RB,Tegelen,Venlo,Limburg,VBO,6.154840,51.336294
Sigarenmakerspad,14,,,5932RB,Tegelen,Venlo,Limburg,VBO,6.154790,51.336329
Sigarenmakerspad,16,,,5932RB,Tegelen,Venlo,Limburg,VBO,6.154722,51.336372
Tinnegieterspad,1,,,5932RC,Tegelen,Venlo,Limburg,VBO,6.155420,51.335944
Tinnegieterspad,2,,,5932RC,Tegelen,Venlo,Limburg,VBO,6.155223,51.335755
Tinnegieterspad,3,,,5932RC,Tegelen,Venlo,Limburg,VBO,6.155477,51.335909
Tinnegieterspad,4,,,5932RC,Tegelen,Venlo,Limburg,VBO,6.155277,51.335719
Tinnegieterspad,5,,,5932RC,Tegelen,Venlo,Limburg,VBO,6.155528,51.335873
Tinnegieterspad,6,,,5932RC,Tegelen,Venlo,Limburg,VBO,6.155330,51.335684
Tinnegieterspad,7,,,5932RC,Tegelen,Venlo,Limburg,VBO,6.155583,51.335838
Tinnegieterspad,8,,,5932RC,Tegelen,Venlo,Limburg,VBO,6.155386,51.335648
Tinnegieterspad,9,,,5932RC,Tegelen,Venlo,Limburg,VBO,6.155634,51.335803
Tinnegieterspad,10,,,5932RC,Tegelen,Venlo,Limburg,VBO,6.155634,51.335232
Tinnegieterspad,11,,,5932RC,Tegelen,Venlo,Limburg,VBO,6.155680,51.335773
Tinnegieterspad,12,,,5932RC,Tegelen,Venlo,Limburg,VBO,6.155689,51.335195
Tinnegieterspad,13,,,5932RC,Tegelen,Venlo,Limburg,VBO,6.155734,51.335737
Tinnegieterspad,14,,,5932RC,Tegelen,Venlo,Limburg,VBO,6.155745,51.335161
Tinnegieterspad,15,,,5932RC,Tegelen,Venlo,Limburg,VBO,6.155793,51.335702
Tinnegieterspad,16,,,5932RC,Tegelen,Venlo,Limburg,VBO,6.155795,51.335125
Tinnegieterspad,17,,,5932RC,Tegelen,Venlo,Limburg,VBO,6.155862,51.335680
Tinnegieterspad,18,,,5932RC,Tegelen,Venlo,Limburg,VBO,6.155850,51.335089
Tinnegieterspad,19,,,5932RC,Tegelen,Venlo,Limburg,VBO,6.155918,51.335644
Tinnegieterspad,21,,,5932RC,Tegelen,Venlo,Limburg,VBO,6.155973,51.335610
Tinnegieterspad,23,,,5932RC,Tegelen,Venlo,Limburg,VBO,6.156024,51.335575
Tinnegieterspad,25,,,5932RC,Tegelen,Venlo,Limburg,VBO,6.156079,51.335539
Tinnegieterspad,27,,,5932RC,Tegelen,Venlo,Limburg,VBO,6.156166,51.335156
Tinnegieterspad,29,,,5932RC,Tegelen,Venlo,Limburg,VBO,6.156193,51.335177
Tinnegieterspad,31,,,5932RC,Tegelen,Venlo,Limburg,VBO,6.156238,51.335124
Tinnegieterspad,33,,,5932RC,Tegelen,Venlo,Limburg,VBO,6.156262,51.335145
Tinnegieterspad,35,,,5932RC,Tegelen,Venlo,Limburg,VBO,6.156313,51.335074
Tinnegieterspad,37,,,5932RC,Tegelen,Venlo,Limburg,VBO,6.156352,51.335051
Ijzergieterspad,2,,,5932RD,Tegelen,Venlo,Limburg,VBO,6.155523,51.335510
Ijzergieterspad,4,,,5932RD,Tegelen,Venlo,Limburg,VBO,6.155466,51.335476
Ijzergieterspad,6,,,5932RD,Tegelen,Venlo,Limburg,VBO,6.155409,51.335442
Ijzergieterspad,8,,,5932RD,Tegelen,Venlo,Limburg,VBO,6.155352,51.335408
Ijzergieterspad,10,,,5932RD,Tegelen,Venlo,Limburg,VBO,6.155287,51.335370
Ijzergieterspad,12,,,5932RD,Tegelen,Venlo,Limburg,VBO,6.155230,51.335336
Radmakerspad,1,,,5932RE,Tegelen,Venlo,Limburg,VBO,6.156272,51.335457
Radmakerspad,2,,,5932RE,Tegelen,Venlo,Limburg,VBO,6.156335,51.335252
Radmakerspad,3,,,5932RE,Tegelen,Venlo,Limburg,VBO,6.156239,51.335476
Radmakerspad,4,,,5932RE,Tegelen,Venlo,Limburg,VBO,6.156390,51.335288
Radmakerspad,5,,,5932RE,Tegelen,Venlo,Limburg,VBO,6.156311,51.335519
Radmakerspad,6,,,5932RE,Tegelen,Venlo,Limburg,VBO,6.156445,51.335325
Radmakerspad,7,,,5932RE,Tegelen,Venlo,Limburg,VBO,6.156334,51.335500
Radmakerspad,8,,,5932RE,Tegelen,Venlo,Limburg,VBO,6.156536,51.335343
Radmakerspad,9,,,5932RE,Tegelen,Venlo,Limburg,VBO,6.156413,51.335559
Radmakerspad,10,,,5932RE,Tegelen,Venlo,Limburg,VBO,6.156602,51.335387
Radmakerspad,11,,,5932RE,Tegelen,Venlo,Limburg,VBO,6.156449,51.335580
Radmakerspad,12,,,5932RE,Tegelen,Venlo,Limburg,VBO,6.156661,51.335426
Radmakerspad,13,,,5932RE,Tegelen,Venlo,Limburg,VBO,6.156560,51.335738
Radmakerspad,14,,,5932RE,Tegelen,Venlo,Limburg,VBO,6.156720,51.335465
Radmakerspad,15,,,5932RE,Tegelen,Venlo,Limburg,VBO,6.156624,51.335701
Radmakerspad,17,,,5932RE,Tegelen,Venlo,Limburg,VBO,6.156688,51.335664
Radmakerspad,19,,,5932RE,Tegelen,Venlo,Limburg,VBO,6.156751,51.335626
Radmakerspad,21,,,5932RE,Tegelen,Venlo,Limburg,VBO,6.156815,51.335589
Radmakerspad,23,,,5932RE,Tegelen,Venlo,Limburg,VBO,6.156878,51.335552
Korfvlechterspad,2,,,5932RG,Tegelen,Venlo,Limburg,VBO,6.155993,51.334964
Korfvlechterspad,4,,,5932RG,Tegelen,Venlo,Limburg,VBO,6.155936,51.334931
Korfvlechterspad,6,,,5932RG,Tegelen,Venlo,Limburg,VBO,6.155881,51.334898
Korfvlechterspad,8,,,5932RG,Tegelen,Venlo,Limburg,VBO,6.155841,51.334851
Korfvlechterspad,10,,,5932RG,Tegelen,Venlo,Limburg,VBO,6.155776,51.334813
Korfvlechterspad,12,,,5932RG,Tegelen,Venlo,Limburg,VBO,6.155719,51.334779
Korfvlechterspad,14,,,5932RG,Tegelen,Venlo,Limburg,VBO,6.155662,51.334746
Korfvlechterspad,16,,,5932RG,Tegelen,Venlo,Limburg,VBO,6.155587,51.334723
Korfvlechterspad,18,,,5932RG,Tegelen,Venlo,Limburg,VBO,6.155531,51.334690
Donkesven,2,,,5932SE,Tegelen,Venlo,Limburg,VBO,6.149190,51.331429
Donkesven,4,A,,5932SE,Tegelen,Venlo,Limburg,VBO,6.149204,51.331457
Donkesven,4,,,5932SE,Tegelen,Venlo,Limburg,VBO,6.149132,51.331354
Donkesven,6,,,5932SE,Tegelen,Venlo,Limburg,VBO,6.149122,51.331295
Donkesven,8,,,5932SE,Tegelen,Venlo,Limburg,VBO,6.149099,51.331247
Donkesven,10,,,5932SE,Tegelen,Venlo,Limburg,VBO,6.149055,51.331184
Donkesven,12,,,5932SE,Tegelen,Venlo,Limburg,VBO,6.149027,51.331108
Donkesven,14,,,5932SE,Tegelen,Venlo,Limburg,VBO,6.149357,51.331000
Donkesven,16,,,5932SE,Tegelen,Venlo,Limburg,VBO,6.149331,51.330961
Donkesven,18,,,5932SE,Tegelen,Venlo,Limburg,VBO,6.149310,51.330880
Donkesven,20,,,5932SE,Tegelen,Venlo,Limburg,VBO,6.149286,51.330832
Donkesven,22,,,5932SE,Tegelen,Venlo,Limburg,VBO,6.149240,51.330742
Donkesven,24,,,5932SE,Tegelen,Venlo,Limburg,VBO,6.148953,51.330792
Donkesven,26,,,5932SE,Tegelen,Venlo,Limburg,VBO,6.148889,51.330811
Donkesven,28,,,5932SE,Tegelen,Venlo,Limburg,VBO,6.148783,51.330832
Donkesven,30,,,5932SE,Tegelen,Venlo,Limburg,VBO,6.148698,51.330634
Donkesven,32,,,5932SE,Tegelen,Venlo,Limburg,VBO,6.148842,51.330605
Donkesven,34,,,5932SE,Tegelen,Venlo,Limburg,VBO,6.148917,51.330590
Donkesven,36,,,5932SE,Tegelen,Venlo,Limburg,VBO,6.149060,51.330561
Donkesven,38,,,5932SE,Tegelen,Venlo,Limburg,VBO,6.149135,51.330546
Donkesven,40,,,5932SE,Tegelen,Venlo,Limburg,VBO,6.149278,51.330518
Donkesven,42,,,5932SE,Tegelen,Venlo,Limburg,VBO,6.149353,51.330503
Donkesven,44,,,5932SE,Tegelen,Venlo,Limburg,VBO,6.149497,51.330474
Donkesven,46,,,5932SE,Tegelen,Venlo,Limburg,VBO,6.149573,51.330459
Donkesven,48,,,5932SE,Tegelen,Venlo,Limburg,VBO,6.149716,51.330431
Donkesven,50,,,5932SE,Tegelen,Venlo,Limburg,VBO,6.149791,51.330416
Donkesven,52,,,5932SE,Tegelen,Venlo,Limburg,VBO,6.149934,51.330387
Donkesven,54,,,5932SE,Tegelen,Venlo,Limburg,VBO,6.150009,51.330372
Donkesven,56,,,5932SE,Tegelen,Venlo,Limburg,VBO,6.150155,51.330343
Donkesven,58,,,5932SE,Tegelen,Venlo,Limburg,VBO,6.150230,51.330328
Donkesven,60,,,5932SE,Tegelen,Venlo,Limburg,VBO,6.150373,51.330299
Donkesven,62,,,5932SE,Tegelen,Venlo,Limburg,VBO,6.150448,51.330284
Donkesven,64,,,5932SE,Tegelen,Venlo,Limburg,VBO,6.150591,51.330256
Donkesven,66,,,5932SE,Tegelen,Venlo,Limburg,VBO,6.150787,51.330111
Donkesven,68,,,5932SE,Tegelen,Venlo,Limburg,VBO,6.150789,51.330162
Donkesven,70,,,5932SE,Tegelen,Venlo,Limburg,VBO,6.150812,51.330209
Donkesven,72,,,5932SE,Tegelen,Venlo,Limburg,VBO,6.150836,51.330256
Donkesven,74,,,5932SE,Tegelen,Venlo,Limburg,VBO,6.150860,51.330303
Donkesven,76,,,5932SE,Tegelen,Venlo,Limburg,VBO,6.150883,51.330349
Donkesven,78,,,5932SE,Tegelen,Venlo,Limburg,VBO,6.150888,51.330399
Donkesven,80,,,5932SE,Tegelen,Venlo,Limburg,VBO,6.150910,51.330447
Donkesven,82,,,5932SE,Tegelen,Venlo,Limburg,VBO,6.150935,51.330493
Donkesven,84,,,5932SE,Tegelen,Venlo,Limburg,VBO,6.150958,51.330541
Donkesven,86,,,5932SE,Tegelen,Venlo,Limburg,VBO,6.150981,51.330588
Donkesven,88,,,5932SE,Tegelen,Venlo,Limburg,VBO,6.151026,51.330630
Donkesven,1,,,5932SG,Tegelen,Venlo,Limburg,VBO,6.149723,51.330990
Donkesven,3,,,5932SG,Tegelen,Venlo,Limburg,VBO,6.149712,51.330932
Donkesven,5,,,5932SG,Tegelen,Venlo,Limburg,VBO,6.149655,51.330858
Donkesven,7,,,5932SG,Tegelen,Venlo,Limburg,VBO,6.149630,51.330811
Donkesven,9,,,5932SG,Tegelen,Venlo,Limburg,VBO,6.149614,51.330740
Donkesven,11,,,5932SG,Tegelen,Venlo,Limburg,VBO,6.149576,51.330704
Donkesven,13,,,5932SG,Tegelen,Venlo,Limburg,VBO,6.149825,51.330631
Donkesven,15,,,5932SG,Tegelen,Venlo,Limburg,VBO,6.149952,51.330606
Donkesven,17,,,5932SG,Tegelen,Venlo,Limburg,VBO,6.150037,51.330589
Donkesven,19,,,5932SG,Tegelen,Venlo,Limburg,VBO,6.150321,51.330525
Donkesven,21,,,5932SG,Tegelen,Venlo,Limburg,VBO,6.150339,51.330617
Donkesven,23,,,5932SG,Tegelen,Venlo,Limburg,VBO,6.150355,51.330668
Donkesven,25,,,5932SG,Tegelen,Venlo,Limburg,VBO,6.150421,51.330721
Donkesven,27,,,5932SG,Tegelen,Venlo,Limburg,VBO,6.150192,51.330843
Donkesven,29,,,5932SG,Tegelen,Venlo,Limburg,VBO,6.150209,51.330928
Donkesven,31,,,5932SG,Tegelen,Venlo,Limburg,VBO,6.150227,51.330984
Donkesven,33,,,5932SG,Tegelen,Venlo,Limburg,VBO,6.150256,51.331029
Donkesven,35,,,5932SG,Tegelen,Venlo,Limburg,VBO,6.150276,51.331082
Donkesven,37,,,5932SG,Tegelen,Venlo,Limburg,VBO,6.150298,51.331119
Donkesven,39,,,5932SG,Tegelen,Venlo,Limburg,VBO,6.150054,51.331168
Donkesven,41,,,5932SG,Tegelen,Venlo,Limburg,VBO,6.149910,51.331180
Donkesven,43,,,5932SG,Tegelen,Venlo,Limburg,VBO,6.149826,51.331189
Donkesven,45,,,5932SG,Tegelen,Venlo,Limburg,VBO,6.149756,51.331211
Donkesven,47,,,5932SG,Tegelen,Venlo,Limburg,VBO,6.149694,51.331263
Donkesven,49,,,5932SG,Tegelen,Venlo,Limburg,VBO,6.149613,51.331286
Donkesven,51,,,5932SG,Tegelen,Venlo,Limburg,VBO,6.149538,51.331295
Donkesven,53,,,5932SG,Tegelen,Venlo,Limburg,VBO,6.149454,51.331317
Ringovenstraat,1,,,5932SH,Tegelen,Venlo,Limburg,VBO,6.152012,51.330768
Ringovenstraat,3,,,5932SH,Tegelen,Venlo,Limburg,VBO,6.151925,51.330786
Ringovenstraat,5,,,5932SH,Tegelen,Venlo,Limburg,VBO,6.151839,51.330802
Ringovenstraat,7,,,5932SH,Tegelen,Venlo,Limburg,VBO,6.151753,51.330819
Ringovenstraat,9,,,5932SH,Tegelen,Venlo,Limburg,VBO,6.151568,51.330833
Ringovenstraat,11,,,5932SH,Tegelen,Venlo,Limburg,VBO,6.151489,51.330849
Ringovenstraat,13,,,5932SH,Tegelen,Venlo,Limburg,VBO,6.151405,51.330865
Ringovenstraat,15,,,5932SH,Tegelen,Venlo,Limburg,VBO,6.151317,51.330882
Ringovenstraat,17,,,5932SH,Tegelen,Venlo,Limburg,VBO,6.151231,51.330900
Ringovenstraat,19,,,5932SH,Tegelen,Venlo,Limburg,VBO,6.151142,51.330917
Ringovenstraat,21,,,5932SH,Tegelen,Venlo,Limburg,VBO,6.150984,51.330973
Ringovenstraat,23,,,5932SH,Tegelen,Venlo,Limburg,VBO,6.150897,51.330991
Ringovenstraat,25,,,5932SH,Tegelen,Venlo,Limburg,VBO,6.150811,51.331008
Ringovenstraat,27,,,5932SH,Tegelen,Venlo,Limburg,VBO,6.150720,51.331025
Ringovenstraat,29,,,5932SH,Tegelen,Venlo,Limburg,VBO,6.150595,51.331099
Vossenpad,1,,,5932SJ,Tegelen,Venlo,Limburg,VBO,6.153931,51.330793
Vossenpad,2,,,5932SJ,Tegelen,Venlo,Limburg,VBO,6.153544,51.330806
Vossenpad,3,,,5932SJ,Tegelen,Venlo,Limburg,VBO,6.153839,51.330613
Vossenpad,4,,,5932SJ,Tegelen,Venlo,Limburg,VBO,6.153521,51.330758
Vossenpad,5,,,5932SJ,Tegelen,Venlo,Limburg,VBO,6.153813,51.330560
Vossenpad,6,,,5932SJ,Tegelen,Venlo,Limburg,VBO,6.153495,51.330706
Vossenpad,7,,,5932SJ,Tegelen,Venlo,Limburg,VBO,6.153786,51.330508
Vossenpad,8,,,5932SJ,Tegelen,Venlo,Limburg,VBO,6.153468,51.330654
Vossenpad,9,,,5932SJ,Tegelen,Venlo,Limburg,VBO,6.153759,51.330456
Vossenpad,10,,,5932SJ,Tegelen,Venlo,Limburg,VBO,6.153439,51.330596
Vossenpad,11,,,5932SJ,Tegelen,Venlo,Limburg,VBO,6.153736,51.330410
Vossenpad,12,,,5932SJ,Tegelen,Venlo,Limburg,VBO,6.153353,51.330427
Wambachsingel,1,,,5932SK,Tegelen,Venlo,Limburg,VBO,6.161825,51.332572
Wambachsingel,3,,,5932SK,Tegelen,Venlo,Limburg,VBO,6.161745,51.332513
Wambachsingel,5,,,5932SK,Tegelen,Venlo,Limburg,VBO,6.161572,51.332386
Wambachsingel,7,,,5932SK,Tegelen,Venlo,Limburg,VBO,6.161492,51.332327
Wambachsingel,9,,,5932SK,Tegelen,Venlo,Limburg,VBO,6.161293,51.332214
Wambachsingel,11,,,5932SK,Tegelen,Venlo,Limburg,VBO,6.161220,51.332160
Wambachsingel,13,,,5932SK,Tegelen,Venlo,Limburg,VBO,6.161046,51.332033
Wambachsingel,15,,,5932SK,Tegelen,Venlo,Limburg,VBO,6.160966,51.331974
Wambachsingel,17,,,5932SK,Tegelen,Venlo,Limburg,VBO,6.160793,51.331847
Wambachsingel,19,,,5932SK,Tegelen,Venlo,Limburg,VBO,6.160713,51.331789
Wambachsingel,21,,,5932SK,Tegelen,Venlo,Limburg,VBO,6.160513,51.331675
Wambachsingel,23,,,5932SK,Tegelen,Venlo,Limburg,VBO,6.160434,51.331616
Wambachsingel,25,,,5932SK,Tegelen,Venlo,Limburg,VBO,6.160261,51.331489
Wambachsingel,27,,,5932SK,Tegelen,Venlo,Limburg,VBO,6.160182,51.331430
Molenbeek,2,,,5932SL,Tegelen,Venlo,Limburg,VBO,6.151433,51.330486
Molenbeek,4,,,5932SL,Tegelen,Venlo,Limburg,VBO,6.151408,51.330440
Molenbeek,6,,,5932SL,Tegelen,Venlo,Limburg,VBO,6.151355,51.330404
Molenbeek,8,,,5932SL,Tegelen,Venlo,Limburg,VBO,6.151330,51.330355
Molenbeek,10,,,5932SL,Tegelen,Venlo,Limburg,VBO,6.151384,51.330343
Molenbeek,12,,,5932SL,Tegelen,Venlo,Limburg,VBO,6.151299,51.330311
Molenbeek,14,,,5932SL,Tegelen,Venlo,Limburg,VBO,6.151285,51.330261
Molenbeek,16,,,5932SL,Tegelen,Venlo,Limburg,VBO,6.151336,51.330248
Molenbeek,18,,,5932SL,Tegelen,Venlo,Limburg,VBO,6.151266,51.330212
Molenbeek,20,,,5932SL,Tegelen,Venlo,Limburg,VBO,6.151248,51.330167
Molenbeek,22,,,5932SL,Tegelen,Venlo,Limburg,VBO,6.151323,51.330149
Molenbeek,24,,,5932SL,Tegelen,Venlo,Limburg,VBO,6.151274,51.330099
Molenbeek,26,,,5932SL,Tegelen,Venlo,Limburg,VBO,6.151250,51.330054
Molenbeek,28,,,5932SL,Tegelen,Venlo,Limburg,VBO,6.151226,51.330006
Molenbeek,30,,,5932SL,Tegelen,Venlo,Limburg,VBO,6.151182,51.329963
Molenbeek,32,,,5932SL,Tegelen,Venlo,Limburg,VBO,6.151558,51.329930
Molenbeek,34,,,5932SL,Tegelen,Venlo,Limburg,VBO,6.151558,51.329982
Molenbeek,36,,,5932SL,Tegelen,Venlo,Limburg,VBO,6.151584,51.330028
Molenbeek,38,,,5932SL,Tegelen,Venlo,Limburg,VBO,6.151607,51.330077
Molenbeek,40,,,5932SL,Tegelen,Venlo,Limburg,VBO,6.151631,51.330122
Molenbeek,42,,,5932SL,Tegelen,Venlo,Limburg,VBO,6.151655,51.330170
Molenbeek,44,,,5932SL,Tegelen,Venlo,Limburg,VBO,6.151741,51.330203
Molenbeek,46,,,5932SL,Tegelen,Venlo,Limburg,VBO,6.151764,51.330252
Molenbeek,48,,,5932SL,Tegelen,Venlo,Limburg,VBO,6.151871,51.330370
Molenbeek,50,,,5932SL,Tegelen,Venlo,Limburg,VBO,6.151941,51.330357
Molenbeek,52,,,5932SL,Tegelen,Venlo,Limburg,VBO,6.151966,51.330398
Molenbeek,54,,,5932SL,Tegelen,Venlo,Limburg,VBO,6.152019,51.330345
Molenbeek,56,,,5932SL,Tegelen,Venlo,Limburg,VBO,6.152096,51.330326
Molenbeek,58,,,5932SL,Tegelen,Venlo,Limburg,VBO,6.152115,51.330366
Molenbeek,60,,,5932SL,Tegelen,Venlo,Limburg,VBO,6.152174,51.330325
Molenbeek,62,,,5932SL,Tegelen,Venlo,Limburg,VBO,6.152252,51.330309
Molenbeek,64,,,5932SL,Tegelen,Venlo,Limburg,VBO,6.152271,51.330354
Molenbeek,66,,,5932SL,Tegelen,Venlo,Limburg,VBO,6.152321,51.330294
Molenbeek,68,,,5932SL,Tegelen,Venlo,Limburg,VBO,6.152401,51.330277
Molenbeek,70,,,5932SL,Tegelen,Venlo,Limburg,VBO,6.152420,51.330326
Molenbeek,72,,,5932SL,Tegelen,Venlo,Limburg,VBO,6.152486,51.330288
Molenbeek,74,,,5932SL,Tegelen,Venlo,Limburg,VBO,6.152572,51.330263
Molenbeek,76,,,5932SL,Tegelen,Venlo,Limburg,VBO,6.152648,51.330249
Molenbeek,78,,,5932SL,Tegelen,Venlo,Limburg,VBO,6.152723,51.330233
Molenbeek,80,,,5932SL,Tegelen,Venlo,Limburg,VBO,6.152502,51.330014
Molenbeek,82,,,5932SL,Tegelen,Venlo,Limburg,VBO,6.152475,51.329962
Molenbeek,84,,,5932SL,Tegelen,Venlo,Limburg,VBO,6.152454,51.329919
Molenbeek,86,,,5932SL,Tegelen,Venlo,Limburg,VBO,6.152426,51.329868
Molenbeek,88,,,5932SL,Tegelen,Venlo,Limburg,VBO,6.152404,51.329824
Molenbeek,90,,,5932SL,Tegelen,Venlo,Limburg,VBO,6.152360,51.329781
Molenbeek,92,,,5932SL,Tegelen,Venlo,Limburg,VBO,6.154083,51.329458
Molenbeek,94,,,5932SL,Tegelen,Venlo,Limburg,VBO,6.154127,51.329500
Molenbeek,96,,,5932SL,Tegelen,Venlo,Limburg,VBO,6.154233,51.329576
Molenbeek,98,,,5932SL,Tegelen,Venlo,Limburg,VBO,6.154277,51.329618
Molenbeek,100,,,5932SL,Tegelen,Venlo,Limburg,VBO,6.154353,51.329713
Molenbeek,102,,,5932SL,Tegelen,Venlo,Limburg,VBO,6.154397,51.329755
Molenbeek,104,,,5932SL,Tegelen,Venlo,Limburg,VBO,6.154556,51.329903
Molenbeek,106,,,5932SL,Tegelen,Venlo,Limburg,VBO,6.154634,51.329891
Molenbeek,108,,,5932SL,Tegelen,Venlo,Limburg,VBO,6.154780,51.329851
Molenbeek,110,,,5932SL,Tegelen,Venlo,Limburg,VBO,6.154858,51.329839
Molenbeek,112,,,5932SL,Tegelen,Venlo,Limburg,VBO,6.154836,51.329614
Molenbeek,114,,,5932SL,Tegelen,Venlo,Limburg,VBO,6.154844,51.329564
Molenbeek,116,,,5932SL,Tegelen,Venlo,Limburg,VBO,6.154839,51.329463
Molenbeek,118,,,5932SL,Tegelen,Venlo,Limburg,VBO,6.154847,51.329413
Molenbeek,120,,,5932SL,Tegelen,Venlo,Limburg,VBO,6.154883,51.329317
Molenbeek,122,,,5932SL,Tegelen,Venlo,Limburg,VBO,6.154896,51.329232
Wambachsingel,2,,,5932SM,Tegelen,Venlo,Limburg,VBO,6.161465,51.332824
Wambachsingel,4,,,5932SM,Tegelen,Venlo,Limburg,VBO,6.161404,51.332786
Wambachsingel,6,,,5932SM,Tegelen,Venlo,Limburg,VBO,6.161344,51.332748
Wambachsingel,8,,,5932SM,Tegelen,Venlo,Limburg,VBO,6.161282,51.332709
Wambachsingel,10,,,5932SM,Tegelen,Venlo,Limburg,VBO,6.160985,51.332512
Wambachsingel,12,,,5932SM,Tegelen,Venlo,Limburg,VBO,6.160925,51.332471
Wambachsingel,14,,,5932SM,Tegelen,Venlo,Limburg,VBO,6.160865,51.332431
Wambachsingel,16,,,5932SM,Tegelen,Venlo,Limburg,VBO,6.160803,51.332390
Wambachsingel,18,,,5932SM,Tegelen,Venlo,Limburg,VBO,6.160742,51.332348
Wambachsingel,20,,,5932SM,Tegelen,Venlo,Limburg,VBO,6.160681,51.332307
Wambachsingel,22,,,5932SM,Tegelen,Venlo,Limburg,VBO,6.160562,51.332226
Wambachsingel,24,,,5932SM,Tegelen,Venlo,Limburg,VBO,6.160501,51.332185
Wambachsingel,26,,,5932SM,Tegelen,Venlo,Limburg,VBO,6.160440,51.332144
Wambachsingel,28,,,5932SM,Tegelen,Venlo,Limburg,VBO,6.160380,51.332103
Wambachsingel,30,,,5932SM,Tegelen,Venlo,Limburg,VBO,6.160319,51.332062
Wambachsingel,32,,,5932SM,Tegelen,Venlo,Limburg,VBO,6.160257,51.332021
Molenbeek,1,,,5932SN,Tegelen,Venlo,Limburg,VBO,6.152433,51.330593
Molenbeek,3,,,5932SN,Tegelen,Venlo,Limburg,VBO,6.152746,51.330531
Molenbeek,5,,,5932SN,Tegelen,Venlo,Limburg,VBO,6.152830,51.330514
Molenbeek,7,,,5932SN,Tegelen,Venlo,Limburg,VBO,6.152912,51.330498
Molenbeek,9,,,5932SN,Tegelen,Venlo,Limburg,VBO,6.152995,51.330481
Molenbeek,11,,,5932SN,Tegelen,Venlo,Limburg,VBO,6.153067,51.330467
Molenbeek,13,,,5932SN,Tegelen,Venlo,Limburg,VBO,6.153150,51.330450
Molenbeek,15,,,5932SN,Tegelen,Venlo,Limburg,VBO,6.153234,51.330434
Molenbeek,17,,,5932SN,Tegelen,Venlo,Limburg,VBO,6.153708,51.330339
Molenbeek,19,,,5932SN,Tegelen,Venlo,Limburg,VBO,6.154021,51.330277
Molenbeek,21,,,5932SN,Tegelen,Venlo,Limburg,VBO,6.154105,51.330260
Molenbeek,23,,,5932SN,Tegelen,Venlo,Limburg,VBO,6.154188,51.330243
Molenbeek,25,,,5932SN,Tegelen,Venlo,Limburg,VBO,6.154270,51.330226
Molenbeek,27,,,5932SN,Tegelen,Venlo,Limburg,VBO,6.154353,51.330209
Molenbeek,29,,,5932SN,Tegelen,Venlo,Limburg,VBO,6.154435,51.330193
Molenbeek,31,,,5932SN,Tegelen,Venlo,Limburg,VBO,6.154518,51.330176
Molenbeek,33,,,5932SN,Tegelen,Venlo,Limburg,VBO,6.153786,51.330058
Molenbeek,35,,,5932SN,Tegelen,Venlo,Limburg,VBO,6.153708,51.330075
Molenbeek,37,,,5932SN,Tegelen,Venlo,Limburg,VBO,6.153621,51.330076
Molenbeek,39,,,5932SN,Tegelen,Venlo,Limburg,VBO,6.153543,51.330093
Molenbeek,41,,,5932SN,Tegelen,Venlo,Limburg,VBO,6.153463,51.330108
Molenbeek,43,,,5932SN,Tegelen,Venlo,Limburg,VBO,6.153384,51.330125
Molenbeek,45,,,5932SN,Tegelen,Venlo,Limburg,VBO,6.153081,51.330191
Molenbeek,47,,,5932SN,Tegelen,Venlo,Limburg,VBO,6.153024,51.330140
Molenbeek,49,,,5932SN,Tegelen,Venlo,Limburg,VBO,6.153096,51.330125
Molenbeek,51,,,5932SN,Tegelen,Venlo,Limburg,VBO,6.153068,51.330076
Molenbeek,53,,,5932SN,Tegelen,Venlo,Limburg,VBO,6.152977,51.330050
Molenbeek,55,,,5932SN,Tegelen,Venlo,Limburg,VBO,6.153053,51.330035
Molenbeek,57,,,5932SN,Tegelen,Venlo,Limburg,VBO,6.153024,51.329980
Molenbeek,59,,,5932SN,Tegelen,Venlo,Limburg,VBO,6.152812,51.329780
Molenbeek,61,,,5932SN,Tegelen,Venlo,Limburg,VBO,6.152840,51.329829
Molenbeek,63,,,5932SN,Tegelen,Venlo,Limburg,VBO,6.152909,51.329815
Molenbeek,65,,,5932SN,Tegelen,Venlo,Limburg,VBO,6.152958,51.329753
Molenbeek,67,,,5932SN,Tegelen,Venlo,Limburg,VBO,6.152988,51.329799
Molenbeek,69,,,5932SN,Tegelen,Venlo,Limburg,VBO,6.153062,51.329785
Molenbeek,71,,,5932SN,Tegelen,Venlo,Limburg,VBO,6.153108,51.329723
Molenbeek,73,,,5932SN,Tegelen,Venlo,Limburg,VBO,6.153132,51.329770
Molenbeek,75,,,5932SN,Tegelen,Venlo,Limburg,VBO,6.153214,51.329753
Molenbeek,77,,,5932SN,Tegelen,Venlo,Limburg,VBO,6.153261,51.329694
Molenbeek,79,,,5932SN,Tegelen,Venlo,Limburg,VBO,6.153289,51.329738
Molenbeek,81,,,5932SN,Tegelen,Venlo,Limburg,VBO,6.153367,51.329722
Molenbeek,83,,,5932SN,Tegelen,Venlo,Limburg,VBO,6.153802,51.329561
Molenbeek,85,,,5932SN,Tegelen,Venlo,Limburg,VBO,6.153826,51.329611
Molenbeek,87,,,5932SN,Tegelen,Venlo,Limburg,VBO,6.153850,51.329658
Molenbeek,89,,,5932SN,Tegelen,Venlo,Limburg,VBO,6.153917,51.329699
Molenbeek,91,,,5932SN,Tegelen,Venlo,Limburg,VBO,6.153944,51.329750
Molenbeek,93,,,5932SN,Tegelen,Venlo,Limburg,VBO,6.154007,51.329791
Molenbeek,95,,,5932SN,Tegelen,Venlo,Limburg,VBO,6.154033,51.329841
Molenbeek,97,,,5932SN,Tegelen,Venlo,Limburg,VBO,6.154057,51.329891
Molenbeek,99,,,5932SN,Tegelen,Venlo,Limburg,VBO,6.154083,51.329940
Molenbeek,101,,,5932SN,Tegelen,Venlo,Limburg,VBO,6.154104,51.329984
Molenbeek,103,,,5932SN,Tegelen,Venlo,Limburg,VBO,6.154856,51.330067
Molenbeek,105,,,5932SN,Tegelen,Venlo,Limburg,VBO,6.154928,51.330053
Molenbeek,107,,,5932SN,Tegelen,Venlo,Limburg,VBO,6.155047,51.330026
Molenbeek,109,,,5932SN,Tegelen,Venlo,Limburg,VBO,6.155104,51.329995
Molenbeek,111,,,5932SN,Tegelen,Venlo,Limburg,VBO,6.155172,51.329926
Molenbeek,113,,,5932SN,Tegelen,Venlo,Limburg,VBO,6.155180,51.329880
Molenbeek,115,,,5932SN,Tegelen,Venlo,Limburg,VBO,6.155188,51.329835
Molenbeek,117,,,5932SN,Tegelen,Venlo,Limburg,VBO,6.155195,51.329789
Molenbeek,119,,,5932SN,Tegelen,Venlo,Limburg,VBO,6.155168,51.329742
Molenbeek,121,,,5932SN,Tegelen,Venlo,Limburg,VBO,6.155175,51.329695
Kleibergstraat,2,,,5932SR,Tegelen,Venlo,Limburg,VBO,6.153648,51.332437
Kleibergstraat,3,,,5932SR,Tegelen,Venlo,Limburg,VBO,6.153477,51.331747
Kleibergstraat,4,,,5932SR,Tegelen,Venlo,Limburg,VBO,6.153625,51.332399
Kleibergstraat,6,,,5932SR,Tegelen,Venlo,Limburg,VBO,6.153601,51.332361
Kleibergstraat,8,,,5932SR,Tegelen,Venlo,Limburg,VBO,6.153578,51.332323
Kleibergstraat,10,,,5932SR,Tegelen,Venlo,Limburg,VBO,6.153551,51.332279
Kleibergstraat,12,,,5932SR,Tegelen,Venlo,Limburg,VBO,6.153528,51.332241
Kleibergstraat,14,,,5932SR,Tegelen,Venlo,Limburg,VBO,6.153505,51.332204
Kleibergstraat,16,,,5932SR,Tegelen,Venlo,Limburg,VBO,6.153482,51.332166
Kleibergstraat,18,,,5932SR,Tegelen,Venlo,Limburg,VBO,6.153459,51.332128
Kleibergstraat,20,,,5932SR,Tegelen,Venlo,Limburg,VBO,6.153435,51.332089
Kleibergstraat,22,,,5932SR,Tegelen,Venlo,Limburg,VBO,6.153354,51.331957
Kleibergstraat,24,,,5932SR,Tegelen,Venlo,Limburg,VBO,6.153331,51.331918
Kleibergstraat,26,,,5932SR,Tegelen,Venlo,Limburg,VBO,6.153308,51.331881
Kleibergstraat,28,,,5932SR,Tegelen,Venlo,Limburg,VBO,6.153285,51.331843
Kleibergstraat,30,,,5932SR,Tegelen,Venlo,Limburg,VBO,6.153262,51.331805
Kleibergstraat,32,,,5932SR,Tegelen,Venlo,Limburg,VBO,6.153239,51.331767
Kleibergstraat,34,,,5932SR,Tegelen,Venlo,Limburg,VBO,6.153215,51.331729
Kleibergstraat,36,,,5932ST,Tegelen,Venlo,Limburg,VBO,6.153133,51.331596
Kleibergstraat,38,,,5932ST,Tegelen,Venlo,Limburg,VBO,6.153109,51.331557
Kleibergstraat,40,,,5932ST,Tegelen,Venlo,Limburg,VBO,6.153086,51.331519
Kleibergstraat,42,,,5932ST,Tegelen,Venlo,Limburg,VBO,6.153063,51.331482
Kleibergstraat,44,,,5932ST,Tegelen,Venlo,Limburg,VBO,6.153040,51.331444
Kleibergstraat,46,,,5932ST,Tegelen,Venlo,Limburg,VBO,6.153017,51.331406
Kleibergstraat,48,,,5932ST,Tegelen,Venlo,Limburg,VBO,6.152994,51.331368
Kleibergstraat,50,,,5932ST,Tegelen,Venlo,Limburg,VBO,6.152971,51.331331
Kleibergstraat,52,,,5932ST,Tegelen,Venlo,Limburg,VBO,6.152948,51.331293
Kleibergstraat,54,,,5932ST,Tegelen,Venlo,Limburg,VBO,6.152924,51.331254
Galgenvenstraat,2,,,5932SV,Tegelen,Venlo,Limburg,VBO,6.152752,51.331040
Galgenvenstraat,4,,,5932SV,Tegelen,Venlo,Limburg,VBO,6.152835,51.331023
Galgenvenstraat,6,,,5932SV,Tegelen,Venlo,Limburg,VBO,6.152918,51.331007
Galgenvenstraat,8,,,5932SV,Tegelen,Venlo,Limburg,VBO,6.153001,51.330990
Galgenvenstraat,10,,,5932SV,Tegelen,Venlo,Limburg,VBO,6.153093,51.330972
Galgenvenstraat,12,,,5932SV,Tegelen,Venlo,Limburg,VBO,6.153176,51.330955
Galgenvenstraat,14,,,5932SV,Tegelen,Venlo,Limburg,VBO,6.153261,51.330938
Galgenvenstraat,16,,,5932SV,Tegelen,Venlo,Limburg,VBO,6.153573,51.330876
Galgenvenstraat,18,,,5932SV,Tegelen,Venlo,Limburg,VBO,6.154048,51.330781
Galgenvenstraat,20,,,5932SV,Tegelen,Venlo,Limburg,VBO,6.154131,51.330765
Galgenvenstraat,22,,,5932SV,Tegelen,Venlo,Limburg,VBO,6.154214,51.330748
Galgenvenstraat,24,,,5932SV,Tegelen,Venlo,Limburg,VBO,6.154297,51.330732
Galgenvenstraat,26,,,5932SV,Tegelen,Venlo,Limburg,VBO,6.154379,51.330715
Galgenvenstraat,28,,,5932SV,Tegelen,Venlo,Limburg,VBO,6.154462,51.330698
Galgenvenstraat,30,,,5932SV,Tegelen,Venlo,Limburg,VBO,6.154546,51.330682
Galgenvenstraat,32,,,5932SV,Tegelen,Venlo,Limburg,VBO,6.154858,51.330619
Galgenvenstraat,34,,,5932SV,Tegelen,Venlo,Limburg,VBO,6.155618,51.330502
Galgenvenstraat,36,,,5932SV,Tegelen,Venlo,Limburg,VBO,6.155683,51.330541
Galgenvenstraat,38,,,5932SV,Tegelen,Venlo,Limburg,VBO,6.155706,51.330587
Galgenvenstraat,40,,,5932SV,Tegelen,Venlo,Limburg,VBO,6.155729,51.330633
Galgenvenstraat,42,,,5932SV,Tegelen,Venlo,Limburg,VBO,6.155753,51.330680
Galgenvenstraat,44,,,5932SV,Tegelen,Venlo,Limburg,VBO,6.155627,51.330740
Galgenvenstraat,46,,,5932SV,Tegelen,Venlo,Limburg,VBO,6.155551,51.330755
Galgenvenstraat,48,,,5932SV,Tegelen,Venlo,Limburg,VBO,6.155477,51.330770
Galgenvenstraat,50,,,5932SV,Tegelen,Venlo,Limburg,VBO,6.155402,51.330785
Galgenvenstraat,52,,,5932SV,Tegelen,Venlo,Limburg,VBO,6.155341,51.330825
Galgenvenstraat,54,,,5932SV,Tegelen,Venlo,Limburg,VBO,6.155268,51.330840
Galgenvenstraat,56,,,5932SV,Tegelen,Venlo,Limburg,VBO,6.155194,51.330855
Galgenvenstraat,58,,,5932SV,Tegelen,Venlo,Limburg,VBO,6.155122,51.330869
Galgenvenstraat,60,,,5932SV,Tegelen,Venlo,Limburg,VBO,6.155034,51.330858
Galgenvenstraat,62,,,5932SV,Tegelen,Venlo,Limburg,VBO,6.154957,51.330873
Galgenvenstraat,64,,,5932SV,Tegelen,Venlo,Limburg,VBO,6.154827,51.330885
Galgenvenstraat,250,,,5932SW,Tegelen,Venlo,Limburg,VBO,6.153567,51.331196
Fazantenpad,2,,,5932SX,Tegelen,Venlo,Limburg,VBO,6.154833,51.330555
Fazantenpad,4,,,5932SX,Tegelen,Venlo,Limburg,VBO,6.154807,51.330502
Fazantenpad,6,,,5932SX,Tegelen,Venlo,Limburg,VBO,6.154780,51.330450
Fazantenpad,8,,,5932SX,Tegelen,Venlo,Limburg,VBO,6.154754,51.330398
Fazantenpad,10,,,5932SX,Tegelen,Venlo,Limburg,VBO,6.154724,51.330339
Fazantenpad,12,,,5932SX,Tegelen,Venlo,Limburg,VBO,6.154632,51.330158
Kerspelstraat,1,,,5932TA,Tegelen,Venlo,Limburg,VBO,6.152639,51.331036
Kerspelstraat,3,,,5932TA,Tegelen,Venlo,Limburg,VBO,6.152554,51.330868
Kerspelstraat,5,,,5932TA,Tegelen,Venlo,Limburg,VBO,6.152528,51.330816
Kerspelstraat,7,,,5932TA,Tegelen,Venlo,Limburg,VBO,6.152502,51.330765
Kerspelstraat,9,,,5932TA,Tegelen,Venlo,Limburg,VBO,6.152475,51.330714
Kerspelstraat,11,,,5932TA,Tegelen,Venlo,Limburg,VBO,6.152452,51.330668
Kerspelstraat,2,,,5932TB,Tegelen,Venlo,Limburg,VBO,6.153099,51.332539
Kerspelstraat,4,,,5932TB,Tegelen,Venlo,Limburg,VBO,6.153075,51.332501
Kerspelstraat,6,,,5932TB,Tegelen,Venlo,Limburg,VBO,6.153052,51.332463
Kerspelstraat,8,,,5932TB,Tegelen,Venlo,Limburg,VBO,6.153029,51.332425
Kerspelstraat,10,,,5932TB,Tegelen,Venlo,Limburg,VBO,6.153002,51.332381
Kerspelstraat,12,,,5932TB,Tegelen,Venlo,Limburg,VBO,6.152979,51.332343
Kerspelstraat,14,,,5932TB,Tegelen,Venlo,Limburg,VBO,6.152956,51.332306
Kerspelstraat,16,,,5932TB,Tegelen,Venlo,Limburg,VBO,6.152932,51.332267
Kerspelstraat,18,,,5932TB,Tegelen,Venlo,Limburg,VBO,6.152869,51.332238
Kerspelstraat,20,,,5932TB,Tegelen,Venlo,Limburg,VBO,6.152845,51.332200
Kerspelstraat,22,,,5932TB,Tegelen,Venlo,Limburg,VBO,6.152822,51.332162
Kerspelstraat,24,,,5932TB,Tegelen,Venlo,Limburg,VBO,6.152799,51.332125
Kerspelstraat,26,,,5932TB,Tegelen,Venlo,Limburg,VBO,6.152776,51.332087
Kerspelstraat,28,,,5932TB,Tegelen,Venlo,Limburg,VBO,6.152752,51.332048
Kerspelstraat,30,,,5932TC,Tegelen,Venlo,Limburg,VBO,6.152717,51.331915
Kerspelstraat,32,,,5932TC,Tegelen,Venlo,Limburg,VBO,6.152693,51.331876
Kerspelstraat,34,,,5932TC,Tegelen,Venlo,Limburg,VBO,6.152670,51.331838
Kerspelstraat,36,,,5932TC,Tegelen,Venlo,Limburg,VBO,6.152647,51.331801
Kerspelstraat,38,,,5932TC,Tegelen,Venlo,Limburg,VBO,6.152624,51.331763
Kerspelstraat,40,,,5932TC,Tegelen,Venlo,Limburg,VBO,6.152601,51.331725
Kerspelstraat,42,,,5932TC,Tegelen,Venlo,Limburg,VBO,6.152578,51.331687
Kerspelstraat,44,,,5932TC,Tegelen,Venlo,Limburg,VBO,6.152555,51.331650
Kerspelstraat,46,,,5932TC,Tegelen,Venlo,Limburg,VBO,6.152531,51.331611
Kerspelstraat,48,,,5932TC,Tegelen,Venlo,Limburg,VBO,6.152440,51.331538
Kerspelstraat,50,,,5932TC,Tegelen,Venlo,Limburg,VBO,6.152417,51.331499
Kerspelstraat,52,,,5932TC,Tegelen,Venlo,Limburg,VBO,6.152393,51.331461
Kerspelstraat,54,,,5932TC,Tegelen,Venlo,Limburg,VBO,6.152370,51.331423
Kerspelstraat,56,,,5932TC,Tegelen,Venlo,Limburg,VBO,6.152347,51.331385
Kerspelstraat,58,,,5932TC,Tegelen,Venlo,Limburg,VBO,6.152324,51.331347
Kerspelstraat,60,,,5932TC,Tegelen,Venlo,Limburg,VBO,6.152341,51.331300
Kerspelstraat,62,,,5932TC,Tegelen,Venlo,Limburg,VBO,6.152317,51.331262
Kerspelstraat,64,,,5932TC,Tegelen,Venlo,Limburg,VBO,6.152294,51.331224
Kerspelstraat,66,,,5932TC,Tegelen,Venlo,Limburg,VBO,6.152271,51.331186
Kerspelstraat,68,,,5932TC,Tegelen,Venlo,Limburg,VBO,6.152248,51.331148
Kerspelstraat,70,,,5932TC,Tegelen,Venlo,Limburg,VBO,6.152224,51.331110
Kerspelstraat,72,,,5932TC,Tegelen,Venlo,Limburg,VBO,6.152201,51.331072
Kerspelstraat,74,,,5932TC,Tegelen,Venlo,Limburg,VBO,6.152177,51.331033
Hondsdijk,2,,,5932TD,Tegelen,Venlo,Limburg,VBO,6.152700,51.332667
Hondsdijk,4,,,5932TD,Tegelen,Venlo,Limburg,VBO,6.152677,51.332628
Hondsdijk,6,,,5932TD,Tegelen,Venlo,Limburg,VBO,6.152654,51.332590
Hondsdijk,8,,,5932TD,Tegelen,Venlo,Limburg,VBO,6.152630,51.332552
Hondsdijk,10,,,5932TD,Tegelen,Venlo,Limburg,VBO,6.152604,51.332508
Hondsdijk,12,,,5932TD,Tegelen,Venlo,Limburg,VBO,6.152581,51.332471
Hondsdijk,14,,,5932TD,Tegelen,Venlo,Limburg,VBO,6.152558,51.332433
Hondsdijk,16,,,5932TD,Tegelen,Venlo,Limburg,VBO,6.152534,51.332394
Hondsdijk,18,,,5932TD,Tegelen,Venlo,Limburg,VBO,6.152305,51.332018
Hondsdijk,20,,,5932TD,Tegelen,Venlo,Limburg,VBO,6.152281,51.331980
Hondsdijk,22,,,5932TD,Tegelen,Venlo,Limburg,VBO,6.152258,51.331942
Hondsdijk,24,,,5932TD,Tegelen,Venlo,Limburg,VBO,6.152235,51.331904
Hondsdijk,26,,,5932TD,Tegelen,Venlo,Limburg,VBO,6.152211,51.331867
Hondsdijk,28,,,5932TD,Tegelen,Venlo,Limburg,VBO,6.152188,51.331829
Hondsdijk,30,,,5932TD,Tegelen,Venlo,Limburg,VBO,6.152164,51.331790
Hondsdijk,32,,,5932TE,Tegelen,Venlo,Limburg,VBO,6.151562,51.331560
Hondsdijk,34,,,5932TE,Tegelen,Venlo,Limburg,VBO,6.151500,51.331575
Hondsdijk,36,,,5932TE,Tegelen,Venlo,Limburg,VBO,6.151440,51.331589
Hondsdijk,38,,,5932TE,Tegelen,Venlo,Limburg,VBO,6.151379,51.331604
Hondsdijk,40,,,5932TE,Tegelen,Venlo,Limburg,VBO,6.151319,51.331618
Hondsdijk,42,,,5932TE,Tegelen,Venlo,Limburg,VBO,6.151259,51.331633
Hondsdijk,44,,,5932TE,Tegelen,Venlo,Limburg,VBO,6.151198,51.331647
Hondsdijk,46,,,5932TE,Tegelen,Venlo,Limburg,VBO,6.151138,51.331662
Hondsdijk,48,,,5932TE,Tegelen,Venlo,Limburg,VBO,6.151078,51.331676
Hondsdijk,50,,,5932TE,Tegelen,Venlo,Limburg,VBO,6.151018,51.331691
Hondsdijk,52,,,5932TE,Tegelen,Venlo,Limburg,VBO,6.150956,51.331706
Hondsdijk,54,,,5932TG,Tegelen,Venlo,Limburg,VBO,6.151787,51.331195
Hondsdijk,56,,,5932TG,Tegelen,Venlo,Limburg,VBO,6.151725,51.331210
Hondsdijk,58,,,5932TG,Tegelen,Venlo,Limburg,VBO,6.151664,51.331224
Hondsdijk,60,,,5932TG,Tegelen,Venlo,Limburg,VBO,6.151604,51.331239
Hondsdijk,62,,,5932TG,Tegelen,Venlo,Limburg,VBO,6.151544,51.331253
Hondsdijk,64,,,5932TG,Tegelen,Venlo,Limburg,VBO,6.151483,51.331268
Hondsdijk,66,,,5932TG,Tegelen,Venlo,Limburg,VBO,6.151423,51.331282
Hondsdijk,68,,,5932TG,Tegelen,Venlo,Limburg,VBO,6.151362,51.331297
Hondsdijk,70,,,5932TG,Tegelen,Venlo,Limburg,VBO,6.151302,51.331311
Hondsdijk,72,,,5932TG,Tegelen,Venlo,Limburg,VBO,6.151240,51.331326
Hondsdijk,74,,,5932TG,Tegelen,Venlo,Limburg,VBO,6.151045,51.331344
Hondsdijk,76,,,5932TG,Tegelen,Venlo,Limburg,VBO,6.150983,51.331359
Hondsdijk,78,,,5932TG,Tegelen,Venlo,Limburg,VBO,6.150923,51.331373
Hondsdijk,80,,,5932TG,Tegelen,Venlo,Limburg,VBO,6.150862,51.331387
Hondsdijk,82,,,5932TG,Tegelen,Venlo,Limburg,VBO,6.150802,51.331402
Hondsdijk,84,,,5932TG,Tegelen,Venlo,Limburg,VBO,6.150742,51.331416
Hondsdijk,86,,,5932TG,Tegelen,Venlo,Limburg,VBO,6.150682,51.331431
Hondsdijk,88,,,5932TG,Tegelen,Venlo,Limburg,VBO,6.150621,51.331445
Hondsdijk,90,,,5932TG,Tegelen,Venlo,Limburg,VBO,6.150561,51.331459
Hondsdijk,92,,,5932TG,Tegelen,Venlo,Limburg,VBO,6.150499,51.331474
Potkuilenstraat,1,,,5932TH,Tegelen,Venlo,Limburg,VBO,6.152267,51.332425
Potkuilenstraat,3,,,5932TH,Tegelen,Venlo,Limburg,VBO,6.152205,51.332440
Potkuilenstraat,5,,,5932TH,Tegelen,Venlo,Limburg,VBO,6.152145,51.332455
Potkuilenstraat,7,,,5932TH,Tegelen,Venlo,Limburg,VBO,6.152085,51.332469
Potkuilenstraat,9,,,5932TH,Tegelen,Venlo,Limburg,VBO,6.152025,51.332484
Potkuilenstraat,11,,,5932TH,Tegelen,Venlo,Limburg,VBO,6.151974,51.332496
Potkuilenstraat,13,,,5932TH,Tegelen,Venlo,Limburg,VBO,6.151914,51.332510
Potkuilenstraat,15,,,5932TH,Tegelen,Venlo,Limburg,VBO,6.151854,51.332525
Potkuilenstraat,17,,,5932TH,Tegelen,Venlo,Limburg,VBO,6.151794,51.332539
Potkuilenstraat,19,,,5932TH,Tegelen,Venlo,Limburg,VBO,6.151734,51.332554
Potkuilenstraat,21,,,5932TH,Tegelen,Venlo,Limburg,VBO,6.151672,51.332569
Potkuilenstraat,23,,,5932TH,Tegelen,Venlo,Limburg,VBO,6.151295,51.332675
Potkuilenstraat,25,,,5932TH,Tegelen,Venlo,Limburg,VBO,6.151271,51.332636
Potkuilenstraat,27,,,5932TH,Tegelen,Venlo,Limburg,VBO,6.151248,51.332598
Potkuilenstraat,29,,,5932TH,Tegelen,Venlo,Limburg,VBO,6.151225,51.332561
Potkuilenstraat,31,,,5932TH,Tegelen,Venlo,Limburg,VBO,6.151202,51.332523
Potkuilenstraat,33,,,5932TH,Tegelen,Venlo,Limburg,VBO,6.151179,51.332485
Potkuilenstraat,35,,,5932TH,Tegelen,Venlo,Limburg,VBO,6.151156,51.332446
Potkuilenstraat,37,,,5932TH,Tegelen,Venlo,Limburg,VBO,6.151914,51.332135
Potkuilenstraat,39,,,5932TH,Tegelen,Venlo,Limburg,VBO,6.151852,51.332150
Potkuilenstraat,41,,,5932TH,Tegelen,Venlo,Limburg,VBO,6.151792,51.332164
Potkuilenstraat,43,,,5932TH,Tegelen,Venlo,Limburg,VBO,6.151731,51.332179
Potkuilenstraat,45,,,5932TJ,Tegelen,Venlo,Limburg,VBO,6.151671,51.332193
Potkuilenstraat,47,,,5932TJ,Tegelen,Venlo,Limburg,VBO,6.151611,51.332208
Potkuilenstraat,49,,,5932TJ,Tegelen,Venlo,Limburg,VBO,6.151551,51.332222
Potkuilenstraat,51,,,5932TJ,Tegelen,Venlo,Limburg,VBO,6.151490,51.332237
Potkuilenstraat,53,,,5932TJ,Tegelen,Venlo,Limburg,VBO,6.151430,51.332251
Potkuilenstraat,55,,,5932TJ,Tegelen,Venlo,Limburg,VBO,6.151370,51.332266
Potkuilenstraat,57,,,5932TJ,Tegelen,Venlo,Limburg,VBO,6.151308,51.332281
Potkuilenstraat,59,,,5932TJ,Tegelen,Venlo,Limburg,VBO,6.151908,51.331819
Potkuilenstraat,61,,,5932TJ,Tegelen,Venlo,Limburg,VBO,6.151846,51.331834
Potkuilenstraat,63,,,5932TJ,Tegelen,Venlo,Limburg,VBO,6.151786,51.331848
Potkuilenstraat,65,,,5932TJ,Tegelen,Venlo,Limburg,VBO,6.151726,51.331863
Potkuilenstraat,67,,,5932TJ,Tegelen,Venlo,Limburg,VBO,6.151665,51.331877
Potkuilenstraat,69,,,5932TJ,Tegelen,Venlo,Limburg,VBO,6.151605,51.331891
Potkuilenstraat,71,,,5932TJ,Tegelen,Venlo,Limburg,VBO,6.151545,51.331906
Potkuilenstraat,73,,,5932TJ,Tegelen,Venlo,Limburg,VBO,6.151484,51.331920
Potkuilenstraat,75,,,5932TJ,Tegelen,Venlo,Limburg,VBO,6.151424,51.331935
Potkuilenstraat,77,,,5932TJ,Tegelen,Venlo,Limburg,VBO,6.151364,51.331949
Potkuilenstraat,79,,,5932TJ,Tegelen,Venlo,Limburg,VBO,6.151302,51.331964
Potkuilenstraat,81,,,5932TJ,Tegelen,Venlo,Limburg,VBO,6.150944,51.332099
Potkuilenstraat,83,,,5932TJ,Tegelen,Venlo,Limburg,VBO,6.150920,51.332061
Potkuilenstraat,85,,,5932TJ,Tegelen,Venlo,Limburg,VBO,6.150897,51.332023
Potkuilenstraat,87,,,5932TJ,Tegelen,Venlo,Limburg,VBO,6.150874,51.331985
Potkuilenstraat,89,,,5932TJ,Tegelen,Venlo,Limburg,VBO,6.150851,51.331947
Potkuilenstraat,91,,,5932TJ,Tegelen,Venlo,Limburg,VBO,6.150828,51.331910
Potkuilenstraat,93,,,5932TJ,Tegelen,Venlo,Limburg,VBO,6.150804,51.331871
Potkuilenstraat,2,,,5932TK,Tegelen,Venlo,Limburg,VBO,6.151043,51.333158
Potkuilenstraat,4,,,5932TK,Tegelen,Venlo,Limburg,VBO,6.151019,51.333119
Potkuilenstraat,6,,,5932TK,Tegelen,Venlo,Limburg,VBO,6.150995,51.333081
Potkuilenstraat,8,,,5932TK,Tegelen,Venlo,Limburg,VBO,6.150972,51.333043
Potkuilenstraat,10,,,5932TK,Tegelen,Venlo,Limburg,VBO,6.150945,51.333000
Potkuilenstraat,12,,,5932TK,Tegelen,Venlo,Limburg,VBO,6.150921,51.332962
Potkuilenstraat,14,,,5932TK,Tegelen,Venlo,Limburg,VBO,6.150897,51.332923
Potkuilenstraat,16,,,5932TK,Tegelen,Venlo,Limburg,VBO,6.150789,51.332837
Potkuilenstraat,18,,,5932TK,Tegelen,Venlo,Limburg,VBO,6.150765,51.332798
Potkuilenstraat,20,,,5932TK,Tegelen,Venlo,Limburg,VBO,6.150742,51.332760
Potkuilenstraat,22,,,5932TK,Tegelen,Venlo,Limburg,VBO,6.150719,51.332722
Potkuilenstraat,24,,,5932TK,Tegelen,Venlo,Limburg,VBO,6.150696,51.332684
Potkuilenstraat,26,,,5932TK,Tegelen,Venlo,Limburg,VBO,6.150673,51.332647
Potkuilenstraat,28,,,5932TK,Tegelen,Venlo,Limburg,VBO,6.150650,51.332609
Potkuilenstraat,30,,,5932TK,Tegelen,Venlo,Limburg,VBO,6.150626,51.332571
Potkuilenstraat,32,,,5932TK,Tegelen,Venlo,Limburg,VBO,6.150603,51.332532
Potkuilenstraat,34,,,5932TK,Tegelen,Venlo,Limburg,VBO,6.150575,51.332396
Potkuilenstraat,36,,,5932TK,Tegelen,Venlo,Limburg,VBO,6.150551,51.332358
Potkuilenstraat,38,,,5932TK,Tegelen,Venlo,Limburg,VBO,6.150528,51.332320
Potkuilenstraat,40,,,5932TL,Tegelen,Venlo,Limburg,VBO,6.150505,51.332282
Potkuilenstraat,42,,,5932TL,Tegelen,Venlo,Limburg,VBO,6.150481,51.332244
Potkuilenstraat,44,,,5932TL,Tegelen,Venlo,Limburg,VBO,6.150458,51.332207
Potkuilenstraat,46,,,5932TL,Tegelen,Venlo,Limburg,VBO,6.150435,51.332168
Potkuilenstraat,48,,,5932TL,Tegelen,Venlo,Limburg,VBO,6.150326,51.332081
Potkuilenstraat,50,,,5932TL,Tegelen,Venlo,Limburg,VBO,6.150303,51.332043
Potkuilenstraat,52,,,5932TL,Tegelen,Venlo,Limburg,VBO,6.150280,51.332005
Potkuilenstraat,54,,,5932TL,Tegelen,Venlo,Limburg,VBO,6.150256,51.331967
Potkuilenstraat,56,,,5932TL,Tegelen,Venlo,Limburg,VBO,6.150233,51.331930
Potkuilenstraat,58,,,5932TL,Tegelen,Venlo,Limburg,VBO,6.150210,51.331892
Potkuilenstraat,60,,,5932TL,Tegelen,Venlo,Limburg,VBO,6.150187,51.331854
Potkuilenstraat,62,,,5932TL,Tegelen,Venlo,Limburg,VBO,6.150164,51.331816
Potkuilenstraat,64,,,5932TL,Tegelen,Venlo,Limburg,VBO,6.150140,51.331778
Potkuilenstraat,66,,,5932TL,Tegelen,Venlo,Limburg,VBO,6.150128,51.331668
Potkuilenstraat,68,,,5932TL,Tegelen,Venlo,Limburg,VBO,6.150104,51.331629
Potkuilenstraat,70,,,5932TL,Tegelen,Venlo,Limburg,VBO,6.150081,51.331591
Potkuilenstraat,72,,,5932TL,Tegelen,Venlo,Limburg,VBO,6.150058,51.331553
Potkuilenstraat,74,,,5932TL,Tegelen,Venlo,Limburg,VBO,6.150035,51.331515
Potkuilenstraat,76,,,5932TL,Tegelen,Venlo,Limburg,VBO,6.150012,51.331477
Potkuilenstraat,78,,,5932TL,Tegelen,Venlo,Limburg,VBO,6.149989,51.331438
Hazenpad,2,,,5932TN,Tegelen,Venlo,Limburg,VBO,6.154814,51.332033
Hazenpad,4,,,5932TN,Tegelen,Venlo,Limburg,VBO,6.154858,51.332005
Hazenpad,6,,,5932TN,Tegelen,Venlo,Limburg,VBO,6.154903,51.331978
Hazenpad,8,,,5932TN,Tegelen,Venlo,Limburg,VBO,6.154926,51.331938
Hazenpad,10,,,5932TN,Tegelen,Venlo,Limburg,VBO,6.154977,51.331886
Hazenpad,12,,,5932TN,Tegelen,Venlo,Limburg,VBO,6.154977,51.331886
Hazenpad,14,,,5932TN,Tegelen,Venlo,Limburg,VBO,6.154977,51.331886
Hazenpad,16,,,5932TN,Tegelen,Venlo,Limburg,VBO,6.154977,51.331886
Hazenpad,18,,,5932TN,Tegelen,Venlo,Limburg,VBO,6.155083,51.331944
Hazenpad,20,,,5932TN,Tegelen,Venlo,Limburg,VBO,6.155125,51.331971
Hazenpad,22,,,5932TN,Tegelen,Venlo,Limburg,VBO,6.155167,51.331997
Hazenpad,24,,,5932TN,Tegelen,Venlo,Limburg,VBO,6.155209,51.332024
Hazenpad,26,,,5932TN,Tegelen,Venlo,Limburg,VBO,6.155251,51.332051
Hazenpad,28,,,5932TN,Tegelen,Venlo,Limburg,VBO,6.155294,51.332078
Hazenpad,30,,,5932TN,Tegelen,Venlo,Limburg,VBO,6.155336,51.332105
Hazenpad,32,,,5932TN,Tegelen,Venlo,Limburg,VBO,6.155348,51.332151
Hazenpad,34,,,5932TN,Tegelen,Venlo,Limburg,VBO,6.155391,51.332179
Hazenpad,36,,,5932TN,Tegelen,Venlo,Limburg,VBO,6.155433,51.332205
Hazenpad,38,,,5932TN,Tegelen,Venlo,Limburg,VBO,6.155476,51.332232
Hazenpad,40,,,5932TN,Tegelen,Venlo,Limburg,VBO,6.155518,51.332259
Hazenpad,42,,,5932TN,Tegelen,Venlo,Limburg,VBO,6.155561,51.332286
Hazenpad,44,,,5932TN,Tegelen,Venlo,Limburg,VBO,6.155604,51.332314
Hazenpad,46,,,5932TN,Tegelen,Venlo,Limburg,VBO,6.155879,51.332222
Hazenpad,48,,,5932TN,Tegelen,Venlo,Limburg,VBO,6.155923,51.332249
Hazenpad,50,,,5932TN,Tegelen,Venlo,Limburg,VBO,6.155965,51.332276
Hazenpad,52,,,5932TN,Tegelen,Venlo,Limburg,VBO,6.156007,51.332303
Hazenpad,54,,,5932TN,Tegelen,Venlo,Limburg,VBO,6.156050,51.332330
Hazenpad,56,,,5932TN,Tegelen,Venlo,Limburg,VBO,6.156092,51.332356
Hazenpad,58,,,5932TN,Tegelen,Venlo,Limburg,VBO,6.156062,51.332414
Hazenpad,60,,,5932TN,Tegelen,Venlo,Limburg,VBO,6.155992,51.332419
Hazenpad,62,,,5932TN,Tegelen,Venlo,Limburg,VBO,6.155948,51.332446
Hazenpad,64,,,5932TN,Tegelen,Venlo,Limburg,VBO,6.155903,51.332474
Hazenpad,66,,,5932TN,Tegelen,Venlo,Limburg,VBO,6.155860,51.332500
Hazenpad,68,,,5932TN,Tegelen,Venlo,Limburg,VBO,6.155816,51.332527
Mulgouwsingel,9,,,5932TP,Tegelen,Venlo,Limburg,VBO,6.154283,51.331834
Mulgouwsingel,11,,,5932TP,Tegelen,Venlo,Limburg,VBO,6.154383,51.332161
Mulgouwsingel,13,,,5932TP,Tegelen,Venlo,Limburg,VBO,6.154263,51.332196
Mulgouwsingel,15,,,5932TP,Tegelen,Venlo,Limburg,VBO,6.154219,51.332208
Mulgouwsingel,17,,,5932TP,Tegelen,Venlo,Limburg,VBO,6.154098,51.332243
Mulgouwsingel,19,,,5932TP,Tegelen,Venlo,Limburg,VBO,6.154054,51.332256
Mulgouwsingel,21,A,,5932TP,Tegelen,Venlo,Limburg,VBO,6.152414,51.332753
Mulgouwsingel,21,,,5932TP,Tegelen,Venlo,Limburg,VBO,6.153933,51.332290
Mulgouwsingel,23,,,5932TP,Tegelen,Venlo,Limburg,VBO,6.152213,51.332785
Mulgouwsingel,25,,,5932TP,Tegelen,Venlo,Limburg,VBO,6.152088,51.332815
Mulgouwsingel,27,,,5932TP,Tegelen,Venlo,Limburg,VBO,6.152042,51.332826
Mulgouwsingel,29,,,5932TP,Tegelen,Venlo,Limburg,VBO,6.151919,51.332856
Mulgouwsingel,31,,,5932TP,Tegelen,Venlo,Limburg,VBO,6.151874,51.332866
Mulgouwsingel,33,,,5932TP,Tegelen,Venlo,Limburg,VBO,6.151750,51.332896
Mulgouwsingel,35,,,5932TP,Tegelen,Venlo,Limburg,VBO,6.151704,51.332907
Mulgouwsingel,37,,,5932TP,Tegelen,Venlo,Limburg,VBO,6.151582,51.332936
Mulgouwsingel,39,,,5932TP,Tegelen,Venlo,Limburg,VBO,6.151536,51.332947
Mulgouwsingel,41,,,5932TP,Tegelen,Venlo,Limburg,VBO,6.151410,51.332977
Mulgouwsingel,2,,,5932TR,Tegelen,Venlo,Limburg,VBO,6.152561,51.333097
Mulgouwsingel,4,,,5932TR,Tegelen,Venlo,Limburg,VBO,6.152501,51.333114
Mulgouwsingel,6,,,5932TR,Tegelen,Venlo,Limburg,VBO,6.152442,51.333131
Mulgouwsingel,8,,,5932TR,Tegelen,Venlo,Limburg,VBO,6.152383,51.333148
Mulgouwsingel,10,,,5932TR,Tegelen,Venlo,Limburg,VBO,6.152334,51.333162
Mulgouwsingel,12,,,5932TR,Tegelen,Venlo,Limburg,VBO,6.152275,51.333179
Mulgouwsingel,14,,,5932TR,Tegelen,Venlo,Limburg,VBO,6.152215,51.333197
Mulgouwsingel,16,,,5932TR,Tegelen,Venlo,Limburg,VBO,6.152138,51.333189
Mulgouwsingel,18,,,5932TR,Tegelen,Venlo,Limburg,VBO,6.152080,51.333206
Mulgouwsingel,20,,,5932TR,Tegelen,Venlo,Limburg,VBO,6.152021,51.333223
Mulgouwsingel,22,,,5932TR,Tegelen,Venlo,Limburg,VBO,6.151962,51.333240
Mulgouwsingel,24,,,5932TR,Tegelen,Venlo,Limburg,VBO,6.151904,51.333256
Mulgouwsingel,26,,,5932TR,Tegelen,Venlo,Limburg,VBO,6.151845,51.333273
Mulgouwsingel,28,,,5932TR,Tegelen,Venlo,Limburg,VBO,6.151786,51.333290
Mulgouwsingel,30,,,5932TR,Tegelen,Venlo,Limburg,VBO,6.151727,51.333307
Mulgouwsingel,32,,,5932TR,Tegelen,Venlo,Limburg,VBO,6.151667,51.333324
Mulgouwsingel,34,,,5932TR,Tegelen,Venlo,Limburg,VBO,6.151336,51.333448
Mulgouwsingel,36,,,5932TR,Tegelen,Venlo,Limburg,VBO,6.151275,51.333464
Mulgouwsingel,38,,,5932TR,Tegelen,Venlo,Limburg,VBO,6.151216,51.333481
Mulgouwsingel,40,,,5932TS,Tegelen,Venlo,Limburg,VBO,6.151157,51.333497
Mulgouwsingel,42,,,5932TS,Tegelen,Venlo,Limburg,VBO,6.151098,51.333514
Mulgouwsingel,44,,,5932TS,Tegelen,Venlo,Limburg,VBO,6.151039,51.333530
Mulgouwsingel,46,,,5932TS,Tegelen,Venlo,Limburg,VBO,6.150978,51.333547
Mulgouwsingel,48,,,5932TS,Tegelen,Venlo,Limburg,VBO,6.150560,51.333598
Mulgouwsingel,50,,,5932TS,Tegelen,Venlo,Limburg,VBO,6.150511,51.333519
Mulgouwsingel,52,,,5932TS,Tegelen,Venlo,Limburg,VBO,6.150494,51.333490
Mulgouwsingel,54,,,5932TS,Tegelen,Venlo,Limburg,VBO,6.150447,51.333414
Mulgouwsingel,56,,,5932TS,Tegelen,Venlo,Limburg,VBO,6.150496,51.333368
Mulgouwsingel,58,,,5932TS,Tegelen,Venlo,Limburg,VBO,6.150448,51.333289
Mulgouwsingel,60,,,5932TS,Tegelen,Venlo,Limburg,VBO,6.150430,51.333261
Mulgouwsingel,62,,,5932TS,Tegelen,Venlo,Limburg,VBO,6.150383,51.333185
Mulgouwsingel,64,,,5932TS,Tegelen,Venlo,Limburg,VBO,6.150366,51.333156
Mulgouwsingel,66,,,5932TS,Tegelen,Venlo,Limburg,VBO,6.150319,51.333079
Mulgouwsingel,68,,,5932TS,Tegelen,Venlo,Limburg,VBO,6.150301,51.333050
Mulgouwsingel,70,,,5932TS,Tegelen,Venlo,Limburg,VBO,6.150253,51.332972
Mulgouwsingel,72,,,5932TS,Tegelen,Venlo,Limburg,VBO,6.149913,51.332831
Mulgouwsingel,74,,,5932TS,Tegelen,Venlo,Limburg,VBO,6.150038,51.332801
Mulgouwsingel,76,,,5932TS,Tegelen,Venlo,Limburg,VBO,6.150084,51.332789
Mulgouwsingel,78,,,5932TS,Tegelen,Venlo,Limburg,VBO,6.150208,51.332759
Mulgouwsingel,80,,,5932TT,Tegelen,Venlo,Limburg,VBO,6.149968,51.332505
Mulgouwsingel,82,,,5932TT,Tegelen,Venlo,Limburg,VBO,6.149919,51.332426
Mulgouwsingel,84,,,5932TT,Tegelen,Venlo,Limburg,VBO,6.149902,51.332398
Mulgouwsingel,86,,,5932TT,Tegelen,Venlo,Limburg,VBO,6.149855,51.332322
Mulgouwsingel,88,,,5932TT,Tegelen,Venlo,Limburg,VBO,6.149838,51.332293
Mulgouwsingel,90,,,5932TT,Tegelen,Venlo,Limburg,VBO,6.149790,51.332215
Mulgouwsingel,92,,,5932TT,Tegelen,Venlo,Limburg,VBO,6.149738,51.332131
Mulgouwsingel,94,,,5932TT,Tegelen,Venlo,Limburg,VBO,6.149690,51.332053
Mulgouwsingel,96,,,5932TT,Tegelen,Venlo,Limburg,VBO,6.149673,51.332024
Mulgouwsingel,98,,,5932TT,Tegelen,Venlo,Limburg,VBO,6.149626,51.331947
Mulgouwsingel,100,,,5932TT,Tegelen,Venlo,Limburg,VBO,6.149598,51.331900
Mulgouwsingel,102,,,5932TT,Tegelen,Venlo,Limburg,VBO,6.149564,51.331846
Mulgouwsingel,104,,,5932TT,Tegelen,Venlo,Limburg,VBO,6.149253,51.331698
Mulgouwsingel,106,,,5932TT,Tegelen,Venlo,Limburg,VBO,6.149339,51.331676
Mulgouwsingel,108,,,5932TT,Tegelen,Venlo,Limburg,VBO,6.149425,51.331657
Mulgouwsingel,110,,,5932TT,Tegelen,Venlo,Limburg,VBO,6.149510,51.331635
Glazenapstraat,13,A,,5932TV,Tegelen,Venlo,Limburg,VBO,6.155139,51.333093
Glazenapstraat,13,,,5932TV,Tegelen,Venlo,Limburg,VBO,6.155139,51.333093
Glazenapstraat,17,,,5932TV,Tegelen,Venlo,Limburg,VBO,6.155139,51.333093
Glazenapstraat,21,,,5932TV,Tegelen,Venlo,Limburg,VBO,6.155139,51.333093
Glazenapstraat,25,,,5932TV,Tegelen,Venlo,Limburg,VBO,6.155525,51.333184
Glazenapstraat,27,,,5932TV,Tegelen,Venlo,Limburg,VBO,6.155596,51.333229
Glazenapstraat,29,,,5932TV,Tegelen,Venlo,Limburg,VBO,6.155726,51.333311
Glazenapstraat,31,,,5932TV,Tegelen,Venlo,Limburg,VBO,6.155797,51.333356
Glazenapstraat,33,,,5932TV,Tegelen,Venlo,Limburg,VBO,6.155929,51.333440
Glazenapstraat,35,,,5932TV,Tegelen,Venlo,Limburg,VBO,6.156000,51.333485
Glazenapstraat,37,,,5932TV,Tegelen,Venlo,Limburg,VBO,6.156130,51.333568
Glazenapstraat,39,,,5932TV,Tegelen,Venlo,Limburg,VBO,6.156202,51.333613
Glazenapstraat,41,,,5932TV,Tegelen,Venlo,Limburg,VBO,6.156331,51.333696
Glazenapstraat,43,,,5932TV,Tegelen,Venlo,Limburg,VBO,6.156402,51.333741
Glazenapstraat,2,,,5932TW,Tegelen,Venlo,Limburg,VBO,6.147523,51.332884
Glazenapstraat,6,,,5932TW,Tegelen,Venlo,Limburg,VBO,6.152808,51.333059
Glazenapstraat,8,,,5932TW,Tegelen,Venlo,Limburg,VBO,6.152846,51.333048
Glazenapstraat,10,,,5932TW,Tegelen,Venlo,Limburg,VBO,6.152957,51.333014
Glazenapstraat,12,,,5932TW,Tegelen,Venlo,Limburg,VBO,6.153004,51.333002
Glazenapstraat,14,,,5932TW,Tegelen,Venlo,Limburg,VBO,6.153123,51.332966
Glazenapstraat,16,,,5932TW,Tegelen,Venlo,Limburg,VBO,6.153172,51.332955
Glazenapstraat,18,,,5932TW,Tegelen,Venlo,Limburg,VBO,6.153310,51.332915
Glazenapstraat,20,,,5932TW,Tegelen,Venlo,Limburg,VBO,6.153340,51.332906
Glazenapstraat,22,,,5932TW,Tegelen,Venlo,Limburg,VBO,6.153754,51.332788
Glazenapstraat,24,,,5932TW,Tegelen,Venlo,Limburg,VBO,6.153799,51.332775
Glazenapstraat,26,,,5932TW,Tegelen,Venlo,Limburg,VBO,6.153940,51.332735
Glazenapstraat,28,,,5932TW,Tegelen,Venlo,Limburg,VBO,6.153968,51.332728
Glazenapstraat,30,,,5932TW,Tegelen,Venlo,Limburg,VBO,6.154082,51.332694
Glazenapstraat,32,,,5932TW,Tegelen,Venlo,Limburg,VBO,6.154128,51.332680
Glazenapstraat,34,,,5932TW,Tegelen,Venlo,Limburg,VBO,6.154249,51.332645
Glazenapstraat,36,,,5932TW,Tegelen,Venlo,Limburg,VBO,6.154296,51.332632
Glazenapplein,2,,,5932TX,Tegelen,Venlo,Limburg,VBO,6.154874,51.332493
Glazenapplein,4,,,5932TX,Tegelen,Venlo,Limburg,VBO,6.154874,51.332493
Glazenapplein,6,,,5932TX,Tegelen,Venlo,Limburg,VBO,6.154874,51.332493
Glazenapplein,8,,,5932TX,Tegelen,Venlo,Limburg,VBO,6.154874,51.332493
Glazenapplein,10,,,5932TX,Tegelen,Venlo,Limburg,VBO,6.154874,51.332493
Glazenapplein,12,,,5932TX,Tegelen,Venlo,Limburg,VBO,6.154874,51.332493
Glazenapplein,14,,,5932TX,Tegelen,Venlo,Limburg,VBO,6.154874,51.332493
Glazenapplein,16,,,5932TX,Tegelen,Venlo,Limburg,VBO,6.154874,51.332493
Glazenapplein,18,,,5932TX,Tegelen,Venlo,Limburg,VBO,6.154874,51.332493
Glazenapplein,20,,,5932TX,Tegelen,Venlo,Limburg,VBO,6.154874,51.332493
Glazenapplein,22,,,5932TX,Tegelen,Venlo,Limburg,VBO,6.154874,51.332493
Glazenapplein,24,,,5932TX,Tegelen,Venlo,Limburg,VBO,6.154874,51.332493
Glazenapplein,26,,,5932TX,Tegelen,Venlo,Limburg,VBO,6.154874,51.332493
Glazenapplein,28,,,5932TX,Tegelen,Venlo,Limburg,VBO,6.155436,51.332537
Glazenapplein,30,,,5932TX,Tegelen,Venlo,Limburg,VBO,6.155436,51.332537
Glazenapplein,32,,,5932TX,Tegelen,Venlo,Limburg,VBO,6.155436,51.332537
Glazenapplein,34,,,5932TX,Tegelen,Venlo,Limburg,VBO,6.155436,51.332537
Glazenapplein,36,,,5932TX,Tegelen,Venlo,Limburg,VBO,6.155436,51.332537
Glazenapplein,38,,,5932TX,Tegelen,Venlo,Limburg,VBO,6.155436,51.332537
Glazenapplein,40,,,5932TX,Tegelen,Venlo,Limburg,VBO,6.155436,51.332537
Glazenapplein,42,,,5932TX,Tegelen,Venlo,Limburg,VBO,6.155436,51.332537
Glazenapplein,44,,,5932TX,Tegelen,Venlo,Limburg,VBO,6.155436,51.332537
Glazenapplein,46,,,5932TX,Tegelen,Venlo,Limburg,VBO,6.155436,51.332537
Glazenapplein,48,,,5932TX,Tegelen,Venlo,Limburg,VBO,6.155436,51.332537
Glazenapplein,50,,,5932TX,Tegelen,Venlo,Limburg,VBO,6.155436,51.332537
Glazenapplein,52,,,5932TX,Tegelen,Venlo,Limburg,VBO,6.155436,51.332537
Glazenapplein,54,,,5932TX,Tegelen,Venlo,Limburg,VBO,6.155436,51.332537
Glazenapplein,56,,,5932TX,Tegelen,Venlo,Limburg,VBO,6.155436,51.332537
Glazenapplein,58,,,5932TX,Tegelen,Venlo,Limburg,VBO,6.155436,51.332537
Glazenapplein,60,,,5932TX,Tegelen,Venlo,Limburg,VBO,6.155436,51.332537
Glazenapplein,62,,,5932TX,Tegelen,Venlo,Limburg,VBO,6.155436,51.332537
Glazenapplein,64,,,5932TX,Tegelen,Venlo,Limburg,VBO,6.155436,51.332537
Glazenapplein,66,,,5932TX,Tegelen,Venlo,Limburg,VBO,6.155436,51.332537
Glazenapplein,68,,,5932TX,Tegelen,Venlo,Limburg,VBO,6.155436,51.332537
Glazenapplein,70,,,5932TX,Tegelen,Venlo,Limburg,VBO,6.155436,51.332537
Glazenapplein,72,,,5932TX,Tegelen,Venlo,Limburg,VBO,6.155436,51.332537
Glazenapplein,74,,,5932TX,Tegelen,Venlo,Limburg,VBO,6.155436,51.332537
Glazenapplein,76,,,5932TX,Tegelen,Venlo,Limburg,VBO,6.155436,51.332537
Glazenapplein,78,,,5932TX,Tegelen,Venlo,Limburg,VBO,6.155436,51.332537
Glazenapstraat,144,,,5932TZ,Tegelen,Venlo,Limburg,VBO,6.156022,51.333013
Glazenapstraat,146,,,5932TZ,Tegelen,Venlo,Limburg,VBO,6.156093,51.333058
Glazenapstraat,148,,,5932TZ,Tegelen,Venlo,Limburg,VBO,6.156223,51.333140
Glazenapstraat,150,,,5932TZ,Tegelen,Venlo,Limburg,VBO,6.156294,51.333185
Glazenapstraat,152,,,5932TZ,Tegelen,Venlo,Limburg,VBO,6.156424,51.333268
Glazenapstraat,154,,,5932TZ,Tegelen,Venlo,Limburg,VBO,6.156495,51.333313
Glazenapstraat,156,,,5932TZ,Tegelen,Venlo,Limburg,VBO,6.156625,51.333396
Glazenapstraat,158,,,5932TZ,Tegelen,Venlo,Limburg,VBO,6.156697,51.333441
Spechtstraat,1,,,5932VC,Tegelen,Venlo,Limburg,VBO,6.151142,51.334588
Spechtstraat,3,,,5932VC,Tegelen,Venlo,Limburg,VBO,6.151872,51.334395
Spechtstraat,5,,,5932VC,Tegelen,Venlo,Limburg,VBO,6.153410,51.333893
Spechtstraat,7,,,5932VC,Tegelen,Venlo,Limburg,VBO,6.153465,51.333860
Spechtstraat,9,,,5932VC,Tegelen,Venlo,Limburg,VBO,6.153529,51.333839
Spechtstraat,11,,,5932VC,Tegelen,Venlo,Limburg,VBO,6.153585,51.333820
Spechtstraat,13,,,5932VC,Tegelen,Venlo,Limburg,VBO,6.153651,51.333799
Spechtstraat,15,,,5932VC,Tegelen,Venlo,Limburg,VBO,6.153725,51.333790
Spechtstraat,17,,,5932VC,Tegelen,Venlo,Limburg,VBO,6.153789,51.333769
Spechtstraat,19,A,,5932VC,Tegelen,Venlo,Limburg,VBO,6.153905,51.333730
Spechtstraat,19,,,5932VC,Tegelen,Venlo,Limburg,VBO,6.153853,51.333748
Spechtstraat,189,,,5932VH,Tegelen,Venlo,Limburg,VBO,6.156581,51.334903
Spechtstraat,191,,,5932VH,Tegelen,Venlo,Limburg,VBO,6.156640,51.334943
Spechtstraat,193,,,5932VH,Tegelen,Venlo,Limburg,VBO,6.156698,51.334983
Spechtstraat,195,,,5932VH,Tegelen,Venlo,Limburg,VBO,6.156758,51.335024
Spechtstraat,197,,,5932VH,Tegelen,Venlo,Limburg,VBO,6.156798,51.335076
Spechtstraat,199,,,5932VH,Tegelen,Venlo,Limburg,VBO,6.156857,51.335116
Spechtstraat,201,,,5932VH,Tegelen,Venlo,Limburg,VBO,6.156915,51.335156
Spechtstraat,203,,,5932VH,Tegelen,Venlo,Limburg,VBO,6.156975,51.335196
Spechtstraat,205,,,5932VH,Tegelen,Venlo,Limburg,VBO,6.157013,51.335248
Spechtstraat,207,,,5932VH,Tegelen,Venlo,Limburg,VBO,6.157072,51.335288
Spechtstraat,209,,,5932VH,Tegelen,Venlo,Limburg,VBO,6.157131,51.335328
Spechtstraat,211,,,5932VH,Tegelen,Venlo,Limburg,VBO,6.157190,51.335367
Spechtstraat,2,,,5932VJ,Tegelen,Venlo,Limburg,VBO,6.151352,51.334285
Spechtstraat,4,,,5932VJ,Tegelen,Venlo,Limburg,VBO,6.151327,51.334230
Spechtstraat,6,,,5932VJ,Tegelen,Venlo,Limburg,VBO,6.151305,51.334182
Spechtstraat,8,,,5932VJ,Tegelen,Venlo,Limburg,VBO,6.151280,51.334128
Spechtstraat,10,,,5932VJ,Tegelen,Venlo,Limburg,VBO,6.151252,51.334068
Spechtstraat,12,,,5932VJ,Tegelen,Venlo,Limburg,VBO,6.151227,51.334013
Spechtstraat,14,,,5932VJ,Tegelen,Venlo,Limburg,VBO,6.151737,51.334204
Spechtstraat,16,,,5932VJ,Tegelen,Venlo,Limburg,VBO,6.151694,51.334155
Spechtstraat,18,,,5932VJ,Tegelen,Venlo,Limburg,VBO,6.151651,51.334107
Spechtstraat,20,,,5932VJ,Tegelen,Venlo,Limburg,VBO,6.151608,51.334059
Spechtstraat,22,,,5932VJ,Tegelen,Venlo,Limburg,VBO,6.151566,51.334011
Spechtstraat,24,,,5932VJ,Tegelen,Venlo,Limburg,VBO,6.151523,51.333963
Spechtstraat,26,,,5932VJ,Tegelen,Venlo,Limburg,VBO,6.152043,51.334075
Spechtstraat,28,,,5932VJ,Tegelen,Venlo,Limburg,VBO,6.152018,51.334021
Spechtstraat,30,,,5932VJ,Tegelen,Venlo,Limburg,VBO,6.151994,51.333968
Spechtstraat,32,,,5932VJ,Tegelen,Venlo,Limburg,VBO,6.151969,51.333914
Spechtstraat,34,,,5932VJ,Tegelen,Venlo,Limburg,VBO,6.151944,51.333860
Spechtstraat,36,,,5932VJ,Tegelen,Venlo,Limburg,VBO,6.151919,51.333806
Spechtstraat,38,,,5932VJ,Tegelen,Venlo,Limburg,VBO,6.152380,51.333887
Spechtstraat,40,,,5932VJ,Tegelen,Venlo,Limburg,VBO,6.152330,51.333841
Spechtstraat,42,,,5932VK,Tegelen,Venlo,Limburg,VBO,6.152280,51.333796
Spechtstraat,44,,,5932VK,Tegelen,Venlo,Limburg,VBO,6.152229,51.333750
Spechtstraat,46,,,5932VK,Tegelen,Venlo,Limburg,VBO,6.152776,51.333738
Spechtstraat,48,,,5932VK,Tegelen,Venlo,Limburg,VBO,6.152745,51.333685
Spechtstraat,50,,,5932VK,Tegelen,Venlo,Limburg,VBO,6.152715,51.333632
Spechtstraat,52,,,5932VK,Tegelen,Venlo,Limburg,VBO,6.152683,51.333579
Spechtstraat,54,,,5932VK,Tegelen,Venlo,Limburg,VBO,6.153359,51.333515
Spechtstraat,56,,,5932VK,Tegelen,Venlo,Limburg,VBO,6.153702,51.333497
Spechtstraat,58,,,5932VK,Tegelen,Venlo,Limburg,VBO,6.154318,51.333315
Spechtstraat,66,,,5932VK,Tegelen,Venlo,Limburg,VBO,6.155132,51.333444
Spechtstraat,68,,,5932VK,Tegelen,Venlo,Limburg,VBO,6.155218,51.333500
Spechtstraat,70,,,5932VK,Tegelen,Venlo,Limburg,VBO,6.155348,51.333583
Spechtstraat,72,,,5932VK,Tegelen,Venlo,Limburg,VBO,6.155419,51.333628
Spechtstraat,74,,,5932VK,Tegelen,Venlo,Limburg,VBO,6.155550,51.333711
Spechtstraat,76,,,5932VK,Tegelen,Venlo,Limburg,VBO,6.155621,51.333756
Spechtstraat,78,,,5932VK,Tegelen,Venlo,Limburg,VBO,6.155680,51.333883
Spechtstraat,80,,,5932VK,Tegelen,Venlo,Limburg,VBO,6.155751,51.333928
Spechtstraat,82,,,5932VK,Tegelen,Venlo,Limburg,VBO,6.155882,51.334011
Spechtstraat,84,,,5932VK,Tegelen,Venlo,Limburg,VBO,6.155952,51.334056
Spechtstraat,86,,,5932VL,Tegelen,Venlo,Limburg,VBO,6.156225,51.334260
Spechtstraat,88,,,5932VL,Tegelen,Venlo,Limburg,VBO,6.156286,51.334301
Spechtstraat,90,,,5932VL,Tegelen,Venlo,Limburg,VBO,6.156347,51.334343
Spechtstraat,92,,,5932VL,Tegelen,Venlo,Limburg,VBO,6.156408,51.334384
Spechtstraat,94,,,5932VL,Tegelen,Venlo,Limburg,VBO,6.156469,51.334425
Spechtstraat,96,,,5932VL,Tegelen,Venlo,Limburg,VBO,6.156530,51.334466
Spechtstraat,98,,,5932VL,Tegelen,Venlo,Limburg,VBO,6.156650,51.334547
Spechtstraat,100,,,5932VL,Tegelen,Venlo,Limburg,VBO,6.156719,51.334594
Spechtstraat,102,,,5932VL,Tegelen,Venlo,Limburg,VBO,6.156780,51.334634
Spechtstraat,104,,,5932VL,Tegelen,Venlo,Limburg,VBO,6.156840,51.334675
Spechtstraat,106,,,5932VL,Tegelen,Venlo,Limburg,VBO,6.156901,51.334716
Spechtstraat,108,,,5932VL,Tegelen,Venlo,Limburg,VBO,6.156962,51.334757
Spechtstraat,110,,,5932VL,Tegelen,Venlo,Limburg,VBO,6.157479,51.335097
Spechtstraat,112,A,,5932VL,Tegelen,Venlo,Limburg,VBO,6.157446,51.335014
Spechtstraat,112,,,5932VL,Tegelen,Venlo,Limburg,VBO,6.157540,51.335136
Spechtstraat,114,A,,5932VL,Tegelen,Venlo,Limburg,VBO,6.157475,51.334993
Spechtstraat,114,,,5932VL,Tegelen,Venlo,Limburg,VBO,6.157601,51.335174
Spechtstraat,116,A,,5932VL,Tegelen,Venlo,Limburg,VBO,6.157500,51.334977
Spechtstraat,116,,,5932VL,Tegelen,Venlo,Limburg,VBO,6.157662,51.335213
Kievitstraat,1,,,5932VM,Tegelen,Venlo,Limburg,VBO,6.153154,51.335129
Kievitstraat,3,,,5932VM,Tegelen,Venlo,Limburg,VBO,6.153123,51.335083
Kievitstraat,5,,,5932VM,Tegelen,Venlo,Limburg,VBO,6.153091,51.335036
Kievitstraat,7,,,5932VM,Tegelen,Venlo,Limburg,VBO,6.153059,51.334988
Kievitstraat,9,,,5932VM,Tegelen,Venlo,Limburg,VBO,6.153027,51.334941
Kievitstraat,11,,,5932VM,Tegelen,Venlo,Limburg,VBO,6.152999,51.334900
Kievitstraat,13,,,5932VM,Tegelen,Venlo,Limburg,VBO,6.152939,51.334812
Kievitstraat,15,,,5932VM,Tegelen,Venlo,Limburg,VBO,6.152907,51.334765
Kievitstraat,17,,,5932VM,Tegelen,Venlo,Limburg,VBO,6.152875,51.334717
Kievitstraat,19,,,5932VM,Tegelen,Venlo,Limburg,VBO,6.152843,51.334671
Kievitstraat,21,,,5932VM,Tegelen,Venlo,Limburg,VBO,6.152812,51.334624
Kievitstraat,23,,,5932VM,Tegelen,Venlo,Limburg,VBO,6.152780,51.334577
Kievitstraat,25,,,5932VM,Tegelen,Venlo,Limburg,VBO,6.152747,51.334529
Kievitstraat,27,,,5932VM,Tegelen,Venlo,Limburg,VBO,6.152715,51.334481
Kievitstraat,29,,,5932VM,Tegelen,Venlo,Limburg,VBO,6.152676,51.334388
Kievitstraat,31,,,5932VM,Tegelen,Venlo,Limburg,VBO,6.152648,51.334340
Kievitstraat,33,,,5932VM,Tegelen,Venlo,Limburg,VBO,6.152621,51.334291
Kievitstraat,35,,,5932VM,Tegelen,Venlo,Limburg,VBO,6.152593,51.334243
Kievitstraat,37,,,5932VM,Tegelen,Venlo,Limburg,VBO,6.152566,51.334195
Kievitstraat,39,,,5932VM,Tegelen,Venlo,Limburg,VBO,6.152539,51.334147
Kievitstraat,2,,,5932VN,Tegelen,Venlo,Limburg,VBO,6.152912,51.335243
Kievitstraat,4,,,5932VN,Tegelen,Venlo,Limburg,VBO,6.152794,51.335071
Kievitstraat,6,,,5932VN,Tegelen,Venlo,Limburg,VBO,6.152760,51.335019
Kievitstraat,8,,,5932VN,Tegelen,Venlo,Limburg,VBO,6.152725,51.334968
Kievitstraat,10,,,5932VN,Tegelen,Venlo,Limburg,VBO,6.152686,51.334910
Kievitstraat,12,,,5932VN,Tegelen,Venlo,Limburg,VBO,6.152629,51.334826
Kievitstraat,14,,,5932VN,Tegelen,Venlo,Limburg,VBO,6.152588,51.334765
Kievitstraat,16,,,5932VN,Tegelen,Venlo,Limburg,VBO,6.152546,51.334703
Kievitstraat,18,,,5932VN,Tegelen,Venlo,Limburg,VBO,6.152505,51.334642
Kievitstraat,20,,,5932VN,Tegelen,Venlo,Limburg,VBO,6.152464,51.334582
Kievitstraat,22,,,5932VN,Tegelen,Venlo,Limburg,VBO,6.152423,51.334521
Kievitstraat,24,,,5932VN,Tegelen,Venlo,Limburg,VBO,6.152342,51.334441
Kievitstraat,26,,,5932VN,Tegelen,Venlo,Limburg,VBO,6.152304,51.334393
Kievitstraat,28,,,5932VN,Tegelen,Venlo,Limburg,VBO,6.152264,51.334342
Kievitstraat,30,,,5932VN,Tegelen,Venlo,Limburg,VBO,6.152222,51.334290
Merelstraat,1,,,5932VP,Tegelen,Venlo,Limburg,VBO,6.152573,51.335443
Merelstraat,3,,,5932VP,Tegelen,Venlo,Limburg,VBO,6.152430,51.335285
Merelstraat,5,,,5932VP,Tegelen,Venlo,Limburg,VBO,6.152395,51.335234
Merelstraat,7,,,5932VP,Tegelen,Venlo,Limburg,VBO,6.152360,51.335183
Merelstraat,9,,,5932VP,Tegelen,Venlo,Limburg,VBO,6.152326,51.335131
Merelstraat,11,,,5932VP,Tegelen,Venlo,Limburg,VBO,6.152272,51.335053
Merelstraat,13,,,5932VP,Tegelen,Venlo,Limburg,VBO,6.152237,51.335001
Merelstraat,15,,,5932VP,Tegelen,Venlo,Limburg,VBO,6.152203,51.334951
Merelstraat,17,,,5932VP,Tegelen,Venlo,Limburg,VBO,6.152168,51.334900
Merelstraat,19,,,5932VP,Tegelen,Venlo,Limburg,VBO,6.152111,51.334815
Merelstraat,21,,,5932VP,Tegelen,Venlo,Limburg,VBO,6.152076,51.334764
Merelstraat,23,,,5932VP,Tegelen,Venlo,Limburg,VBO,6.152041,51.334714
Merelstraat,25,,,5932VP,Tegelen,Venlo,Limburg,VBO,6.152007,51.334663
Merelstraat,27,,,5932VP,Tegelen,Venlo,Limburg,VBO,6.151972,51.334574
Merelstraat,29,,,5932VP,Tegelen,Venlo,Limburg,VBO,6.151941,51.334521
Merelstraat,31,,,5932VP,Tegelen,Venlo,Limburg,VBO,6.151910,51.334468
Merelstraat,2,,,5932VR,Tegelen,Venlo,Limburg,VBO,6.152304,51.335573
Merelstraat,4,,,5932VR,Tegelen,Venlo,Limburg,VBO,6.152196,51.335412
Merelstraat,6,,,5932VR,Tegelen,Venlo,Limburg,VBO,6.152155,51.335351
Merelstraat,8,,,5932VR,Tegelen,Venlo,Limburg,VBO,6.152113,51.335290
Merelstraat,10,,,5932VR,Tegelen,Venlo,Limburg,VBO,6.152068,51.335223
Merelstraat,12,,,5932VR,Tegelen,Venlo,Limburg,VBO,6.152027,51.335162
Merelstraat,14,,,5932VR,Tegelen,Venlo,Limburg,VBO,6.151985,51.335101
Merelstraat,16,,,5932VR,Tegelen,Venlo,Limburg,VBO,6.151923,51.335010
Merelstraat,18,,,5932VR,Tegelen,Venlo,Limburg,VBO,6.151883,51.334950
Merelstraat,20,,,5932VR,Tegelen,Venlo,Limburg,VBO,6.151842,51.334890
Merelstraat,22,,,5932VR,Tegelen,Venlo,Limburg,VBO,6.151800,51.334830
Merelstraat,24,,,5932VR,Tegelen,Venlo,Limburg,VBO,6.151759,51.334768
Merelstraat,26,,,5932VR,Tegelen,Venlo,Limburg,VBO,6.151717,51.334707
Merelstraat,28,,,5932VR,Tegelen,Venlo,Limburg,VBO,6.151624,51.334620
Merelstraat,30,,,5932VR,Tegelen,Venlo,Limburg,VBO,6.151584,51.334570
Merelstraat,32,,,5932VR,Tegelen,Venlo,Limburg,VBO,6.151557,51.334537
Merelstraat,34,,,5932VR,Tegelen,Venlo,Limburg,VBO,6.151510,51.334479
Lijsterlaan,3,,,5932VS,Tegelen,Venlo,Limburg,VBO,6.152543,51.336486
Lijsterlaan,5,,,5932VS,Tegelen,Venlo,Limburg,VBO,6.152331,51.336347
Lijsterlaan,7,,,5932VS,Tegelen,Venlo,Limburg,VBO,6.152286,51.336280
Lijsterlaan,9,,,5932VS,Tegelen,Venlo,Limburg,VBO,6.152217,51.336179
Lijsterlaan,11,,,5932VS,Tegelen,Venlo,Limburg,VBO,6.152193,51.336108
Lijsterlaan,13,,,5932VS,Tegelen,Venlo,Limburg,VBO,6.152164,51.336031
Lijsterlaan,17,,,5932VS,Tegelen,Venlo,Limburg,VBO,6.151946,51.335761
Lijsterlaan,19,,,5932VS,Tegelen,Venlo,Limburg,VBO,6.151831,51.335571
Lijsterlaan,21,,,5932VS,Tegelen,Venlo,Limburg,VBO,6.151796,51.335520
Lijsterlaan,23,,,5932VS,Tegelen,Venlo,Limburg,VBO,6.151762,51.335469
Lijsterlaan,25,,,5932VS,Tegelen,Venlo,Limburg,VBO,6.151727,51.335418
Lijsterlaan,27,,,5932VS,Tegelen,Venlo,Limburg,VBO,6.151670,51.335334
Lijsterlaan,29,,,5932VS,Tegelen,Venlo,Limburg,VBO,6.151636,51.335283
Lijsterlaan,31,,,5932VS,Tegelen,Venlo,Limburg,VBO,6.151601,51.335232
Lijsterlaan,33,,,5932VS,Tegelen,Venlo,Limburg,VBO,6.151567,51.335182
Lijsterlaan,35,,,5932VS,Tegelen,Venlo,Limburg,VBO,6.151533,51.335131
Lijsterlaan,37,,,5932VS,Tegelen,Venlo,Limburg,VBO,6.151498,51.335079
Lijsterlaan,39,,,5932VS,Tegelen,Venlo,Limburg,VBO,6.151440,51.334994
Lijsterlaan,41,,,5932VT,Tegelen,Venlo,Limburg,VBO,6.151405,51.334943
Lijsterlaan,43,,,5932VT,Tegelen,Venlo,Limburg,VBO,6.151370,51.334892
Lijsterlaan,45,,,5932VT,Tegelen,Venlo,Limburg,VBO,6.151336,51.334841
Lijsterlaan,47,,,5932VT,Tegelen,Venlo,Limburg,VBO,6.151255,51.334761
Lijsterlaan,49,,,5932VT,Tegelen,Venlo,Limburg,VBO,6.151219,51.334708
Lijsterlaan,51,,,5932VT,Tegelen,Venlo,Limburg,VBO,6.151185,51.334657
Lijsterlaan,53,,,5932VT,Tegelen,Venlo,Limburg,VBO,6.151002,51.334412
Lijsterlaan,55,,,5932VT,Tegelen,Venlo,Limburg,VBO,6.150957,51.334361
Lijsterlaan,57,,,5932VT,Tegelen,Venlo,Limburg,VBO,6.150913,51.334311
Lijsterlaan,59,,,5932VT,Tegelen,Venlo,Limburg,VBO,6.150868,51.334260
Lijsterlaan,61,,,5932VT,Tegelen,Venlo,Limburg,VBO,6.150823,51.334210
Lijsterlaan,63,,,5932VT,Tegelen,Venlo,Limburg,VBO,6.150778,51.334159
Reigerstraat,3,,,5932VX,Tegelen,Venlo,Limburg,VBO,6.152326,51.335884
Reigerstraat,5,,,5932VX,Tegelen,Venlo,Limburg,VBO,6.152394,51.335847
Reigerstraat,7,,,5932VX,Tegelen,Venlo,Limburg,VBO,6.152525,51.335800
Reigerstraat,9,,,5932VX,Tegelen,Venlo,Limburg,VBO,6.152593,51.335764
Reigerstraat,11,,,5932VX,Tegelen,Venlo,Limburg,VBO,6.152651,51.335732
Reigerstraat,13,,,5932VX,Tegelen,Venlo,Limburg,VBO,6.152718,51.335695
Reigerstraat,15,,,5932VX,Tegelen,Venlo,Limburg,VBO,6.152834,51.335633
Reigerstraat,17,,,5932VX,Tegelen,Venlo,Limburg,VBO,6.152901,51.335596
Reigerstraat,19,,,5932VX,Tegelen,Venlo,Limburg,VBO,6.152969,51.335560
Reigerstraat,21,,,5932VX,Tegelen,Venlo,Limburg,VBO,6.153036,51.335524
Reigerstraat,23,,,5932VX,Tegelen,Venlo,Limburg,VBO,6.153152,51.335461
Reigerstraat,25,,,5932VX,Tegelen,Venlo,Limburg,VBO,6.153219,51.335425
Reigerstraat,27,,,5932VX,Tegelen,Venlo,Limburg,VBO,6.153287,51.335388
Reigerstraat,29,,,5932VX,Tegelen,Venlo,Limburg,VBO,6.153354,51.335352
Reigerstraat,31,,,5932VX,Tegelen,Venlo,Limburg,VBO,6.153447,51.335280
Reigerstraat,33,,,5932VX,Tegelen,Venlo,Limburg,VBO,6.153522,51.335249
Reigerstraat,35,,,5932VX,Tegelen,Venlo,Limburg,VBO,6.153658,51.335209
Reigerstraat,37,,,5932VX,Tegelen,Venlo,Limburg,VBO,6.153742,51.335174
Reigerstraat,39,,,5932VX,Tegelen,Venlo,Limburg,VBO,6.153825,51.335140
Reigerstraat,41,,,5932VX,Tegelen,Venlo,Limburg,VBO,6.153908,51.335106
Reigerstraat,2,,,5932VZ,Tegelen,Venlo,Limburg,VBO,6.152045,51.335737
Reigerstraat,4,,,5932VZ,Tegelen,Venlo,Limburg,VBO,6.152103,51.335699
Reigerstraat,6,,,5932VZ,Tegelen,Venlo,Limburg,VBO,6.152175,51.335660
Reigerstraat,8,,,5932VZ,Tegelen,Venlo,Limburg,VBO,6.152247,51.335620
Reigerstraat,10,,,5932VZ,Tegelen,Venlo,Limburg,VBO,6.152663,51.335395
Reigerstraat,12,,,5932VZ,Tegelen,Venlo,Limburg,VBO,6.152731,51.335359
Reigerstraat,14,,,5932VZ,Tegelen,Venlo,Limburg,VBO,6.152798,51.335322
Reigerstraat,16,,,5932VZ,Tegelen,Venlo,Limburg,VBO,6.152866,51.335286
Reigerstraat,18,,,5932VZ,Tegelen,Venlo,Limburg,VBO,6.153434,51.335012
Reigerstraat,20,,,5932VZ,Tegelen,Venlo,Limburg,VBO,6.153434,51.335012
Reigerstraat,22,,,5932VZ,Tegelen,Venlo,Limburg,VBO,6.153692,51.334872
Reigerstraat,24,,,5932VZ,Tegelen,Venlo,Limburg,VBO,6.153716,51.334903
Reigerstraat,26,,,5932VZ,Tegelen,Venlo,Limburg,VBO,6.153434,51.335012
Reigerstraat,28,,,5932VZ,Tegelen,Venlo,Limburg,VBO,6.153434,51.335012
Reigerstraat,30,,,5932VZ,Tegelen,Venlo,Limburg,VBO,6.153664,51.334917
Reigerstraat,32,,,5932VZ,Tegelen,Venlo,Limburg,VBO,6.153644,51.334875
Heideweg,3,,,5932XB,Tegelen,Venlo,Limburg,VBO,6.153904,51.334655
Heideweg,9,,,5932XB,Tegelen,Venlo,Limburg,VBO,6.153795,51.334496
Heideweg,11,,,5932XB,Tegelen,Venlo,Limburg,VBO,6.153768,51.334457
Heideweg,13,,,5932XB,Tegelen,Venlo,Limburg,VBO,6.153699,51.334358
Heideweg,15,,,5932XB,Tegelen,Venlo,Limburg,VBO,6.153668,51.334312
Heideweg,17,,,5932XB,Tegelen,Venlo,Limburg,VBO,6.153599,51.334212
Heideweg,19,,,5932XB,Tegelen,Venlo,Limburg,VBO,6.153568,51.334167
Heideweg,62,,,5932XC,Tegelen,Venlo,Limburg,VBO,6.153609,51.334807
Heideweg,64,,,5932XC,Tegelen,Venlo,Limburg,VBO,6.153660,51.334791
Heideweg,66,,,5932XC,Tegelen,Venlo,Limburg,VBO,6.153409,51.334736
Heideweg,68,,,5932XC,Tegelen,Venlo,Limburg,VBO,6.153328,51.334755
Heideweg,70,,,5932XC,Tegelen,Venlo,Limburg,VBO,6.153254,51.334760
Heideweg,72,,,5932XC,Tegelen,Venlo,Limburg,VBO,6.153613,51.334655
Heideweg,74,,,5932XC,Tegelen,Venlo,Limburg,VBO,6.153570,51.334605
Heideweg,76,,,5932XC,Tegelen,Venlo,Limburg,VBO,6.153634,51.334755
Heideweg,78,,,5932XC,Tegelen,Venlo,Limburg,VBO,6.153622,51.334723
Heideweg,80,,,5932XC,Tegelen,Venlo,Limburg,VBO,6.153411,51.334718
Heideweg,82,,,5932XC,Tegelen,Venlo,Limburg,VBO,6.153295,51.334737
Heideweg,84,,,5932XC,Tegelen,Venlo,Limburg,VBO,6.153231,51.334732
Heideweg,86,,,5932XC,Tegelen,Venlo,Limburg,VBO,6.153560,51.334667
Heideweg,88,,,5932XC,Tegelen,Venlo,Limburg,VBO,6.153531,51.334626
Heideweg,90,,,5932XC,Tegelen,Venlo,Limburg,VBO,6.153594,51.334778
Heideweg,92,,,5932XC,Tegelen,Venlo,Limburg,VBO,6.153576,51.334749
Heideweg,94,,,5932XC,Tegelen,Venlo,Limburg,VBO,6.153324,51.334719
Heideweg,96,,,5932XC,Tegelen,Venlo,Limburg,VBO,6.153376,51.334698
Heideweg,98,,,5932XC,Tegelen,Venlo,Limburg,VBO,6.153488,51.334496
Heideweg,100,,,5932XC,Tegelen,Venlo,Limburg,VBO,6.153413,51.334385
Heideweg,104,,,5932XC,Tegelen,Venlo,Limburg,VBO,6.153334,51.334269
Heideweg,106,,,5932XC,Tegelen,Venlo,Limburg,VBO,6.153303,51.334224
Heideweg,108,,,5932XC,Tegelen,Venlo,Limburg,VBO,6.153218,51.334098
Heideweg,110,,,5932XC,Tegelen,Venlo,Limburg,VBO,6.153187,51.334051
Heideweg,112,,,5932XC,Tegelen,Venlo,Limburg,VBO,6.153108,51.333934
Heideweg,114,,,5932XC,Tegelen,Venlo,Limburg,VBO,6.153077,51.333888
Landweer,2,,,5932XD,Tegelen,Venlo,Limburg,VBO,6.154366,51.334358
Landweer,4,,,5932XD,Tegelen,Venlo,Limburg,VBO,6.154331,51.334318
Landweer,6,,,5932XD,Tegelen,Venlo,Limburg,VBO,6.154298,51.334278
Landweer,8,,,5932XD,Tegelen,Venlo,Limburg,VBO,6.154265,51.334239
Landweer,10,,,5932XD,Tegelen,Venlo,Limburg,VBO,6.154226,51.334193
Landweer,12,,,5932XD,Tegelen,Venlo,Limburg,VBO,6.154224,51.334142
Landweer,14,,,5932XD,Tegelen,Venlo,Limburg,VBO,6.154190,51.334101
Landweer,16,,,5932XD,Tegelen,Venlo,Limburg,VBO,6.154156,51.334061
Landweer,18,,,5932XD,Tegelen,Venlo,Limburg,VBO,6.154123,51.334021
Landweer,20,,,5932XD,Tegelen,Venlo,Limburg,VBO,6.154120,51.333940
Landweer,22,,,5932XD,Tegelen,Venlo,Limburg,VBO,6.154085,51.333899
Brachterweg,1,,,5932XE,Tegelen,Venlo,Limburg,VBO,6.152859,51.337466
Brachterweg,3,,,5932XE,Tegelen,Venlo,Limburg,VBO,6.153131,51.337164
Brachterweg,5,,,5932XE,Tegelen,Venlo,Limburg,VBO,6.153127,51.336766
Brachterweg,7,A,,5932XE,Tegelen,Venlo,Limburg,VBO,6.153828,51.336817
Brachterweg,7,,,5932XE,Tegelen,Venlo,Limburg,VBO,6.153488,51.336779
Brachterweg,9,,,5932XE,Tegelen,Venlo,Limburg,VBO,6.153221,51.336434
Brachterweg,11,A,,5932XE,Tegelen,Venlo,Limburg,VBO,6.153399,51.336320
Brachterweg,11,,,5932XE,Tegelen,Venlo,Limburg,VBO,6.153263,51.336400
Brachterweg,13,,,5932XE,Tegelen,Venlo,Limburg,VBO,6.153556,51.336239
Brachterweg,15,,,5932XE,Tegelen,Venlo,Limburg,VBO,6.153587,51.336131
Brachterweg,17,,,5932XE,Tegelen,Venlo,Limburg,VBO,6.153668,51.336065
Brachterweg,19,,,5932XE,Tegelen,Venlo,Limburg,VBO,6.153723,51.336019
Brachterweg,21,,,5932XE,Tegelen,Venlo,Limburg,VBO,6.153821,51.335939
Brachterweg,23,,,5932XE,Tegelen,Venlo,Limburg,VBO,6.153877,51.335892
Brachterweg,25,,,5932XE,Tegelen,Venlo,Limburg,VBO,6.153993,51.335795
Brachterweg,27,,,5932XE,Tegelen,Venlo,Limburg,VBO,6.154074,51.335733
Brachterweg,33,,,5932XE,Tegelen,Venlo,Limburg,VBO,6.154163,51.335655
Brachterweg,35,,,5932XE,Tegelen,Venlo,Limburg,VBO,6.154577,51.335334
Brachterweg,37,,,5932XE,Tegelen,Venlo,Limburg,VBO,6.154630,51.335297
Brachterweg,39,,,5932XE,Tegelen,Venlo,Limburg,VBO,6.154685,51.335262
Brachterweg,41,,,5932XE,Tegelen,Venlo,Limburg,VBO,6.154738,51.335226
Brachterweg,43,,,5932XE,Tegelen,Venlo,Limburg,VBO,6.154811,51.335203
Brachterweg,45,,,5932XE,Tegelen,Venlo,Limburg,VBO,6.154864,51.335168
Brachterweg,47,,,5932XE,Tegelen,Venlo,Limburg,VBO,6.154916,51.335133
Brachterweg,49,,,5932XG,Tegelen,Venlo,Limburg,VBO,6.154970,51.335096
Brachterweg,51,,,5932XG,Tegelen,Venlo,Limburg,VBO,6.155059,51.335062
Brachterweg,53,,,5932XG,Tegelen,Venlo,Limburg,VBO,6.155113,51.335027
Brachterweg,55,,,5932XG,Tegelen,Venlo,Limburg,VBO,6.155166,51.334991
Brachterweg,57,,,5932XG,Tegelen,Venlo,Limburg,VBO,6.155218,51.334956
Brachterweg,59,,,5932XG,Tegelen,Venlo,Limburg,VBO,6.155255,51.334909
Brachterweg,61,,,5932XG,Tegelen,Venlo,Limburg,VBO,6.155307,51.334873
Brachterweg,63,,,5932XG,Tegelen,Venlo,Limburg,VBO,6.155363,51.334838
Brachterweg,77,,,5932XH,Tegelen,Venlo,Limburg,VBO,6.155646,51.334596
Brachterweg,81,,,5932XH,Tegelen,Venlo,Limburg,VBO,6.155842,51.334482
Brachterweg,85,,,5932XH,Tegelen,Venlo,Limburg,VBO,6.156439,51.334109
Brachterweg,87,,,5932XH,Tegelen,Venlo,Limburg,VBO,6.156505,51.334071
Brachterweg,89,,,5932XH,Tegelen,Venlo,Limburg,VBO,6.156571,51.334033
Brachterweg,91,,,5932XH,Tegelen,Venlo,Limburg,VBO,6.156637,51.333995
Brachterweg,93,,,5932XH,Tegelen,Venlo,Limburg,VBO,6.156702,51.333957
Brachterweg,95,,,5932XH,Tegelen,Venlo,Limburg,VBO,6.156768,51.333918
Brachterweg,97,,,5932XH,Tegelen,Venlo,Limburg,VBO,6.157253,51.333615
Brachterweg,99,,,5932XH,Tegelen,Venlo,Limburg,VBO,6.157319,51.333577
Brachterweg,101,,,5932XH,Tegelen,Venlo,Limburg,VBO,6.157376,51.333543
Brachterweg,103,,,5932XH,Tegelen,Venlo,Limburg,VBO,6.157442,51.333505
Brachterweg,105,,,5932XH,Tegelen,Venlo,Limburg,VBO,6.157507,51.333467
Brachterweg,107,,,5932XH,Tegelen,Venlo,Limburg,VBO,6.157573,51.333429
Brachterweg,109,,,5932XH,Tegelen,Venlo,Limburg,VBO,6.158066,51.333104
Brachterweg,111,,,5932XH,Tegelen,Venlo,Limburg,VBO,6.158131,51.333066
Brachterweg,113,,,5932XH,Tegelen,Venlo,Limburg,VBO,6.158197,51.333028
Brachterweg,115,,,5932XH,Tegelen,Venlo,Limburg,VBO,6.158263,51.332990
Brachterweg,117,,,5932XH,Tegelen,Venlo,Limburg,VBO,6.158329,51.332952
Brachterweg,119,,,5932XH,Tegelen,Venlo,Limburg,VBO,6.158395,51.332914
Brachterweg,121,,,5932XH,Tegelen,Venlo,Limburg,VBO,6.158880,51.332610
Brachterweg,123,,,5932XH,Tegelen,Venlo,Limburg,VBO,6.158945,51.332572
Brachterweg,125,,,5932XH,Tegelen,Venlo,Limburg,VBO,6.159011,51.332533
Brachterweg,127,,,5932XH,Tegelen,Venlo,Limburg,VBO,6.159076,51.332496
Brachterweg,129,,,5932XH,Tegelen,Venlo,Limburg,VBO,6.159142,51.332457
Brachterweg,131,,,5932XH,Tegelen,Venlo,Limburg,VBO,6.159208,51.332419
Brachterweg,133,,,5932XH,Tegelen,Venlo,Limburg,VBO,6.159699,51.332095
Brachterweg,135,,,5932XH,Tegelen,Venlo,Limburg,VBO,6.159765,51.332057
Brachterweg,137,,,5932XH,Tegelen,Venlo,Limburg,VBO,6.159830,51.332019
Brachterweg,139,,,5932XH,Tegelen,Venlo,Limburg,VBO,6.159896,51.331981
Brachterweg,141,,,5932XH,Tegelen,Venlo,Limburg,VBO,6.159962,51.331942
Brachterweg,143,,,5932XH,Tegelen,Venlo,Limburg,VBO,6.160028,51.331904
Brachterweg,2,,,5932XJ,Tegelen,Venlo,Limburg,VBO,6.152680,51.336538
Brachterweg,6,,,5932XJ,Tegelen,Venlo,Limburg,VBO,6.152915,51.336337
Brachterweg,10,,,5932XJ,Tegelen,Venlo,Limburg,VBO,6.153069,51.336212
Brachterweg,12,,,5932XJ,Tegelen,Venlo,Limburg,VBO,6.153166,51.336133
Brachterweg,14,,,5932XJ,Tegelen,Venlo,Limburg,VBO,6.153217,51.336091
Brachterweg,16,,,5932XJ,Tegelen,Venlo,Limburg,VBO,6.153293,51.335993
Brachterweg,24,,,5932XJ,Tegelen,Venlo,Limburg,VBO,6.153528,51.335838
Brachterweg,26,,,5932XJ,Tegelen,Venlo,Limburg,VBO,6.153631,51.335754
Brachterweg,28,,,5932XJ,Tegelen,Venlo,Limburg,VBO,6.153684,51.335710
Brachterweg,30,,,5932XJ,Tegelen,Venlo,Limburg,VBO,6.153770,51.335641
Brachterweg,32,,,5932XJ,Tegelen,Venlo,Limburg,VBO,6.153869,51.335531
Brachterweg,38,,,5932XJ,Tegelen,Venlo,Limburg,VBO,6.153984,51.335468
Brachterweg,40,,,5932XK,Tegelen,Venlo,Limburg,VBO,6.154684,51.334812
Brachterweg,42,,,5932XK,Tegelen,Venlo,Limburg,VBO,6.154640,51.334748
Brachterweg,44,,,5932XK,Tegelen,Venlo,Limburg,VBO,6.154581,51.334683
Brachterweg,46,,,5932XK,Tegelen,Venlo,Limburg,VBO,6.154639,51.334851
Brachterweg,48,,,5932XK,Tegelen,Venlo,Limburg,VBO,6.154604,51.334799
Brachterweg,50,,,5932XK,Tegelen,Venlo,Limburg,VBO,6.154576,51.334757
Brachterweg,52,,,5932XK,Tegelen,Venlo,Limburg,VBO,6.154538,51.334716
Brachterweg,54,,,5932XK,Tegelen,Venlo,Limburg,VBO,6.154504,51.334676
Brachterweg,56,,,5932XK,Tegelen,Venlo,Limburg,VBO,6.154578,51.334876
Brachterweg,58,,,5932XK,Tegelen,Venlo,Limburg,VBO,6.154540,51.334824
Brachterweg,60,,,5932XK,Tegelen,Venlo,Limburg,VBO,6.154514,51.334778
Brachterweg,62,,,5932XK,Tegelen,Venlo,Limburg,VBO,6.154486,51.334744
Brachterweg,64,,,5932XK,Tegelen,Venlo,Limburg,VBO,6.154455,51.334700
Brachterweg,66,,,5932XK,Tegelen,Venlo,Limburg,VBO,6.154516,51.334892
Brachterweg,68,,,5932XK,Tegelen,Venlo,Limburg,VBO,6.154488,51.334846
Brachterweg,70,,,5932XK,Tegelen,Venlo,Limburg,VBO,6.154456,51.334802
Brachterweg,72,,,5932XK,Tegelen,Venlo,Limburg,VBO,6.154431,51.334761
Brachterweg,74,,,5932XK,Tegelen,Venlo,Limburg,VBO,6.154403,51.334719
Brachterhof,2,,,5932XM,Tegelen,Venlo,Limburg,VBO,6.159583,51.331648
Brachterhof,4,,,5932XM,Tegelen,Venlo,Limburg,VBO,6.159416,51.331815
Brachterhof,6,,,5932XM,Tegelen,Venlo,Limburg,VBO,6.159119,51.331858
Brachterhof,8,,,5932XM,Tegelen,Venlo,Limburg,VBO,6.159246,51.331939
Brachterhof,10,,,5932XM,Tegelen,Venlo,Limburg,VBO,6.158868,51.332041
Brachterhof,12,,,5932XM,Tegelen,Venlo,Limburg,VBO,6.158996,51.332122
Brachterhof,14,,,5932XM,Tegelen,Venlo,Limburg,VBO,6.158535,51.332052
Brachterhof,16,,,5932XM,Tegelen,Venlo,Limburg,VBO,6.158663,51.332133
Brachterhof,18,,,5932XM,Tegelen,Venlo,Limburg,VBO,6.158788,51.332213
Brachterhof,20,,,5932XM,Tegelen,Venlo,Limburg,VBO,6.158292,51.332240
Brachterhof,22,,,5932XM,Tegelen,Venlo,Limburg,VBO,6.158420,51.332321
Brachterhof,24,,,5932XM,Tegelen,Venlo,Limburg,VBO,6.158545,51.332401
Brachterhof,26,,,5932XM,Tegelen,Venlo,Limburg,VBO,6.158086,51.332330
Brachterhof,28,,,5932XM,Tegelen,Venlo,Limburg,VBO,6.158214,51.332411
Brachterhof,30,,,5932XM,Tegelen,Venlo,Limburg,VBO,6.158339,51.332491
Brachterhof,32,,,5932XM,Tegelen,Venlo,Limburg,VBO,6.157843,51.332517
Brachterhof,34,,,5932XM,Tegelen,Venlo,Limburg,VBO,6.157970,51.332598
Brachterhof,36,,,5932XM,Tegelen,Venlo,Limburg,VBO,6.158095,51.332678
Brachterhof,38,,,5932XM,Tegelen,Venlo,Limburg,VBO,6.157636,51.332607
Brachterhof,40,,,5932XN,Tegelen,Venlo,Limburg,VBO,6.157764,51.332688
Brachterhof,42,,,5932XN,Tegelen,Venlo,Limburg,VBO,6.157890,51.332768
Brachterhof,44,,,5932XN,Tegelen,Venlo,Limburg,VBO,6.157394,51.332795
Brachterhof,46,,,5932XN,Tegelen,Venlo,Limburg,VBO,6.157521,51.332876
Brachterhof,48,,,5932XN,Tegelen,Venlo,Limburg,VBO,6.157647,51.332956
Brachterhof,50,,,5932XN,Tegelen,Venlo,Limburg,VBO,6.156915,51.332713
Brachterhof,52,,,5932XN,Tegelen,Venlo,Limburg,VBO,6.157042,51.332794
Brachterhof,54,,,5932XN,Tegelen,Venlo,Limburg,VBO,6.157168,51.332874
Brachterhof,56,,,5932XN,Tegelen,Venlo,Limburg,VBO,6.157294,51.332954
Brachterhof,58,,,5932XN,Tegelen,Venlo,Limburg,VBO,6.157420,51.333034
Brachterhof,60,,,5932XN,Tegelen,Venlo,Limburg,VBO,6.156672,51.332901
Brachterhof,62,,,5932XN,Tegelen,Venlo,Limburg,VBO,6.156799,51.332982
Brachterhof,64,,,5932XN,Tegelen,Venlo,Limburg,VBO,6.156925,51.333062
Brachterhof,66,,,5932XN,Tegelen,Venlo,Limburg,VBO,6.157051,51.333142
Brachterhof,68,,,5932XN,Tegelen,Venlo,Limburg,VBO,6.157177,51.333221
Branderspad,1,,,5932XP,Tegelen,Venlo,Limburg,VBO,6.157760,51.334254
Branderspad,2,,,5932XP,Tegelen,Venlo,Limburg,VBO,6.157726,51.334536
Branderspad,3,,,5932XP,Tegelen,Venlo,Limburg,VBO,6.157699,51.334213
Branderspad,4,,,5932XP,Tegelen,Venlo,Limburg,VBO,6.157665,51.334495
Branderspad,5,,,5932XP,Tegelen,Venlo,Limburg,VBO,6.157638,51.334172
Branderspad,6,,,5932XP,Tegelen,Venlo,Limburg,VBO,6.157604,51.334454
Branderspad,7,,,5932XP,Tegelen,Venlo,Limburg,VBO,6.157577,51.334130
Branderspad,8,,,5932XP,Tegelen,Venlo,Limburg,VBO,6.157545,51.334414
Branderspad,9,,,5932XP,Tegelen,Venlo,Limburg,VBO,6.157517,51.334089
Branderspad,10,,,5932XP,Tegelen,Venlo,Limburg,VBO,6.157477,51.334368
Branderspad,11,,,5932XP,Tegelen,Venlo,Limburg,VBO,6.157464,51.334053
Branderspad,12,,,5932XP,Tegelen,Venlo,Limburg,VBO,6.157415,51.334326
Branderspad,13,,,5932XP,Tegelen,Venlo,Limburg,VBO,6.157344,51.333972
Branderspad,14,,,5932XP,Tegelen,Venlo,Limburg,VBO,6.157295,51.334245
Branderspad,15,,,5932XP,Tegelen,Venlo,Limburg,VBO,6.157283,51.333931
Branderspad,16,,,5932XP,Tegelen,Venlo,Limburg,VBO,6.157234,51.334204
Branderspad,17,,,5932XP,Tegelen,Venlo,Limburg,VBO,6.157223,51.333890
Branderspad,18,,,5932XP,Tegelen,Venlo,Limburg,VBO,6.157172,51.334162
Branderspad,19,,,5932XP,Tegelen,Venlo,Limburg,VBO,6.157161,51.333848
Branderspad,20,,,5932XP,Tegelen,Venlo,Limburg,VBO,6.157111,51.334121
Branderspad,21,,,5932XP,Tegelen,Venlo,Limburg,VBO,6.157100,51.333807
Branderspad,22,,,5932XP,Tegelen,Venlo,Limburg,VBO,6.157050,51.334080
Branderspad,23,,,5932XP,Tegelen,Venlo,Limburg,VBO,6.157039,51.333766
Branderspad,24,,,5932XP,Tegelen,Venlo,Limburg,VBO,6.156989,51.334039
Touwslagerspad,1,,,5932XR,Tegelen,Venlo,Limburg,VBO,6.158582,51.333738
Touwslagerspad,2,,,5932XR,Tegelen,Venlo,Limburg,VBO,6.158538,51.334041
Touwslagerspad,3,,,5932XR,Tegelen,Venlo,Limburg,VBO,6.158520,51.333696
Touwslagerspad,4,,,5932XR,Tegelen,Venlo,Limburg,VBO,6.158478,51.334000
Touwslagerspad,5,,,5932XR,Tegelen,Venlo,Limburg,VBO,6.158458,51.333654
Touwslagerspad,6,,,5932XR,Tegelen,Venlo,Limburg,VBO,6.158417,51.333959
Touwslagerspad,7,,,5932XR,Tegelen,Venlo,Limburg,VBO,6.158398,51.333614
Touwslagerspad,8,,,5932XR,Tegelen,Venlo,Limburg,VBO,6.158356,51.333918
Touwslagerspad,9,,,5932XR,Tegelen,Venlo,Limburg,VBO,6.158339,51.333574
Touwslagerspad,10,,,5932XR,Tegelen,Venlo,Limburg,VBO,6.158289,51.333872
Touwslagerspad,11,,,5932XR,Tegelen,Venlo,Limburg,VBO,6.158285,51.333538
Touwslagerspad,12,,,5932XR,Tegelen,Venlo,Limburg,VBO,6.158227,51.333831
Touwslagerspad,13,,,5932XR,Tegelen,Venlo,Limburg,VBO,6.158164,51.333456
Touwslagerspad,14,,,5932XR,Tegelen,Venlo,Limburg,VBO,6.158106,51.333749
Touwslagerspad,15,,,5932XR,Tegelen,Venlo,Limburg,VBO,6.158103,51.333415
Touwslagerspad,16,,,5932XR,Tegelen,Venlo,Limburg,VBO,6.158046,51.333708
Touwslagerspad,17,,,5932XR,Tegelen,Venlo,Limburg,VBO,6.158042,51.333374
Touwslagerspad,18,,,5932XR,Tegelen,Venlo,Limburg,VBO,6.157984,51.333667
Touwslagerspad,19,,,5932XR,Tegelen,Venlo,Limburg,VBO,6.157982,51.333333
Touwslagerspad,20,,,5932XR,Tegelen,Venlo,Limburg,VBO,6.157923,51.333625
Touwslagerspad,21,,,5932XR,Tegelen,Venlo,Limburg,VBO,6.157922,51.333292
Touwslagerspad,22,,,5932XR,Tegelen,Venlo,Limburg,VBO,6.157861,51.333584
Touwslagerspad,23,,,5932XR,Tegelen,Venlo,Limburg,VBO,6.157860,51.333251
Touwslagerspad,24,,,5932XR,Tegelen,Venlo,Limburg,VBO,6.157801,51.333543
Linnenweverspad,1,,,5932XS,Tegelen,Venlo,Limburg,VBO,6.159396,51.333245
Linnenweverspad,2,,,5932XS,Tegelen,Venlo,Limburg,VBO,6.159359,51.333527
Linnenweverspad,3,,,5932XS,Tegelen,Venlo,Limburg,VBO,6.159336,51.333205
Linnenweverspad,4,,,5932XS,Tegelen,Venlo,Limburg,VBO,6.159299,51.333486
Linnenweverspad,5,,,5932XS,Tegelen,Venlo,Limburg,VBO,6.159274,51.333163
Linnenweverspad,6,,,5932XS,Tegelen,Venlo,Limburg,VBO,6.159239,51.333445
Linnenweverspad,7,,,5932XS,Tegelen,Venlo,Limburg,VBO,6.159213,51.333121
Linnenweverspad,8,,,5932XS,Tegelen,Venlo,Limburg,VBO,6.159178,51.333404
Linnenweverspad,9,,,5932XS,Tegelen,Venlo,Limburg,VBO,6.159152,51.333080
Linnenweverspad,10,,,5932XS,Tegelen,Venlo,Limburg,VBO,6.159110,51.333358
Linnenweverspad,11,,,5932XS,Tegelen,Venlo,Limburg,VBO,6.159098,51.333044
Linnenweverspad,12,,,5932XS,Tegelen,Venlo,Limburg,VBO,6.159048,51.333317
Linnenweverspad,13,,,5932XS,Tegelen,Venlo,Limburg,VBO,6.158977,51.332962
Linnenweverspad,14,,,5932XS,Tegelen,Venlo,Limburg,VBO,6.158927,51.333235
Linnenweverspad,15,,,5932XS,Tegelen,Venlo,Limburg,VBO,6.158916,51.332921
Linnenweverspad,16,,,5932XS,Tegelen,Venlo,Limburg,VBO,6.158867,51.333194
Linnenweverspad,17,,,5932XS,Tegelen,Venlo,Limburg,VBO,6.158855,51.332880
Linnenweverspad,18,,,5932XS,Tegelen,Venlo,Limburg,VBO,6.158806,51.333153
Linnenweverspad,19,,,5932XS,Tegelen,Venlo,Limburg,VBO,6.158794,51.332839
Linnenweverspad,20,,,5932XS,Tegelen,Venlo,Limburg,VBO,6.158744,51.333111
Linnenweverspad,21,,,5932XS,Tegelen,Venlo,Limburg,VBO,6.158734,51.332798
Linnenweverspad,22,,,5932XS,Tegelen,Venlo,Limburg,VBO,6.158684,51.333070
Linnenweverspad,23,,,5932XS,Tegelen,Venlo,Limburg,VBO,6.158673,51.332756
Linnenweverspad,24,,,5932XS,Tegelen,Venlo,Limburg,VBO,6.158623,51.333029
Zalmvisserspad,1,,,5932XT,Tegelen,Venlo,Limburg,VBO,6.160216,51.332730
Zalmvisserspad,2,,,5932XT,Tegelen,Venlo,Limburg,VBO,6.160171,51.333033
Zalmvisserspad,3,,,5932XT,Tegelen,Venlo,Limburg,VBO,6.160154,51.332689
Zalmvisserspad,4,,,5932XT,Tegelen,Venlo,Limburg,VBO,6.160110,51.332991
Zalmvisserspad,5,,,5932XT,Tegelen,Venlo,Limburg,VBO,6.160093,51.332648
Zalmvisserspad,6,,,5932XT,Tegelen,Venlo,Limburg,VBO,6.160050,51.332950
Zalmvisserspad,7,,,5932XT,Tegelen,Venlo,Limburg,VBO,6.160033,51.332607
Zalmvisserspad,8,,,5932XT,Tegelen,Venlo,Limburg,VBO,6.159989,51.332909
Zalmvisserspad,9,,,5932XT,Tegelen,Venlo,Limburg,VBO,6.159972,51.332566
Zalmvisserspad,10,,,5932XT,Tegelen,Venlo,Limburg,VBO,6.159921,51.332863
Zalmvisserspad,11,,,5932XT,Tegelen,Venlo,Limburg,VBO,6.159918,51.332529
Zalmvisserspad,12,,,5932XT,Tegelen,Venlo,Limburg,VBO,6.159860,51.332821
Zalmvisserspad,13,,,5932XT,Tegelen,Venlo,Limburg,VBO,6.159798,51.332448
Zalmvisserspad,14,,,5932XT,Tegelen,Venlo,Limburg,VBO,6.159741,51.332740
Zalmvisserspad,15,,,5932XT,Tegelen,Venlo,Limburg,VBO,6.159738,51.332407
Zalmvisserspad,16,,,5932XT,Tegelen,Venlo,Limburg,VBO,6.159680,51.332699
Zalmvisserspad,17,,,5932XT,Tegelen,Venlo,Limburg,VBO,6.159678,51.332366
Zalmvisserspad,18,,,5932XT,Tegelen,Venlo,Limburg,VBO,6.159619,51.332658
Zalmvisserspad,19,,,5932XT,Tegelen,Venlo,Limburg,VBO,6.159616,51.332325
Zalmvisserspad,20,,,5932XT,Tegelen,Venlo,Limburg,VBO,6.159558,51.332617
Zalmvisserspad,21,,,5932XT,Tegelen,Venlo,Limburg,VBO,6.159554,51.332283
Zalmvisserspad,22,,,5932XT,Tegelen,Venlo,Limburg,VBO,6.159497,51.332576
Zalmvisserspad,23,,,5932XT,Tegelen,Venlo,Limburg,VBO,6.159493,51.332242
Zalmvisserspad,24,,,5932XT,Tegelen,Venlo,Limburg,VBO,6.159436,51.332534
Heidenendstraat,1,,,5932XV,Tegelen,Venlo,Limburg,VBO,6.157984,51.334995
Heidenendstraat,3,,,5932XV,Tegelen,Venlo,Limburg,VBO,6.157923,51.334956
Heidenendstraat,5,,,5932XV,Tegelen,Venlo,Limburg,VBO,6.157863,51.334918
Heidenendstraat,7,C,,5932XV,Tegelen,Venlo,Limburg,VBO,6.157784,51.334805
Heidenendstraat,7,D,,5932XV,Tegelen,Venlo,Limburg,VBO,6.157816,51.334786
Heidenendstraat,7,E,,5932XV,Tegelen,Venlo,Limburg,VBO,6.157848,51.334767
Heidenendstraat,7,,,5932XV,Tegelen,Venlo,Limburg,VBO,6.157806,51.334883
Heidenendstraat,9,,,5932XV,Tegelen,Venlo,Limburg,VBO,6.158321,51.334786
Heidenendstraat,11,,,5932XV,Tegelen,Venlo,Limburg,VBO,6.158268,51.334753
Heidenendstraat,13,,,5932XV,Tegelen,Venlo,Limburg,VBO,6.158208,51.334715
Heidenendstraat,15,A,,5932XV,Tegelen,Venlo,Limburg,VBO,6.158090,51.334615
Heidenendstraat,15,B,,5932XV,Tegelen,Venlo,Limburg,VBO,6.158121,51.334596
Heidenendstraat,15,D,,5932XV,Tegelen,Venlo,Limburg,VBO,6.158184,51.334559
Heidenendstraat,15,,,5932XV,Tegelen,Venlo,Limburg,VBO,6.158146,51.334676
Heidenendstraat,17,,,5932XV,Tegelen,Venlo,Limburg,VBO,6.158665,51.334583
Heidenendstraat,19,,,5932XV,Tegelen,Venlo,Limburg,VBO,6.158605,51.334545
Heidenendstraat,21,,,5932XV,Tegelen,Venlo,Limburg,VBO,6.158544,51.334507
Heidenendstraat,23,B,,5932XV,Tegelen,Venlo,Limburg,VBO,6.158459,51.334388
Heidenendstraat,23,C,,5932XV,Tegelen,Venlo,Limburg,VBO,6.158490,51.334369
Heidenendstraat,23,D,,5932XV,Tegelen,Venlo,Limburg,VBO,6.158520,51.334349
Heidenendstraat,23,,,5932XV,Tegelen,Venlo,Limburg,VBO,6.158482,51.334467
Heidenendstraat,25,,,5932XV,Tegelen,Venlo,Limburg,VBO,6.159003,51.334375
Heidenendstraat,27,,,5932XV,Tegelen,Venlo,Limburg,VBO,6.158942,51.334337
Heidenendstraat,29,,,5932XV,Tegelen,Venlo,Limburg,VBO,6.158882,51.334299
Heidenendstraat,31,B,,5932XV,Tegelen,Venlo,Limburg,VBO,6.158796,51.334179
Heidenendstraat,31,C,,5932XV,Tegelen,Venlo,Limburg,VBO,6.158826,51.334161
Heidenendstraat,31,D,,5932XV,Tegelen,Venlo,Limburg,VBO,6.158858,51.334142
Heidenendstraat,31,,,5932XV,Tegelen,Venlo,Limburg,VBO,6.158820,51.334259
Heidenendstraat,33,,,5932XV,Tegelen,Venlo,Limburg,VBO,6.159340,51.334167
Heidenendstraat,35,,,5932XV,Tegelen,Venlo,Limburg,VBO,6.159279,51.334128
Heidenendstraat,37,,,5932XV,Tegelen,Venlo,Limburg,VBO,6.159218,51.334090
Heidenendstraat,39,C,,5932XV,Tegelen,Venlo,Limburg,VBO,6.159133,51.333971
Heidenendstraat,39,D,,5932XV,Tegelen,Venlo,Limburg,VBO,6.159164,51.333953
Heidenendstraat,39,E,,5932XV,Tegelen,Venlo,Limburg,VBO,6.159195,51.333934
Heidenendstraat,39,,,5932XV,Tegelen,Venlo,Limburg,VBO,6.159162,51.334054
Heidenendstraat,41,C,,5932XW,Tegelen,Venlo,Limburg,VBO,6.159470,51.333762
Heidenendstraat,41,D,,5932XW,Tegelen,Venlo,Limburg,VBO,6.159501,51.333744
Heidenendstraat,41,E,,5932XW,Tegelen,Venlo,Limburg,VBO,6.159532,51.333725
Heidenendstraat,41,,,5932XW,Tegelen,Venlo,Limburg,VBO,6.159498,51.333845
Heidenendstraat,43,,,5932XW,Tegelen,Venlo,Limburg,VBO,6.159554,51.333880
Heidenendstraat,45,,,5932XW,Tegelen,Venlo,Limburg,VBO,6.159615,51.333919
Heidenendstraat,47,,,5932XW,Tegelen,Venlo,Limburg,VBO,6.159677,51.333957
Heidenendstraat,49,C,,5932XW,Tegelen,Venlo,Limburg,VBO,6.159780,51.333572
Heidenendstraat,49,D,,5932XW,Tegelen,Venlo,Limburg,VBO,6.159810,51.333554
Heidenendstraat,49,E,,5932XW,Tegelen,Venlo,Limburg,VBO,6.159841,51.333535
Heidenendstraat,49,,,5932XW,Tegelen,Venlo,Limburg,VBO,6.159802,51.333651
Heidenendstraat,51,,,5932XW,Tegelen,Venlo,Limburg,VBO,6.159863,51.333690
Heidenendstraat,53,,,5932XW,Tegelen,Venlo,Limburg,VBO,6.159923,51.333728
Heidenendstraat,55,A,,5932XW,Tegelen,Venlo,Limburg,VBO,6.160095,51.333377
Heidenendstraat,55,B,,5932XW,Tegelen,Venlo,Limburg,VBO,6.160126,51.333358
Heidenendstraat,55,C,,5932XW,Tegelen,Venlo,Limburg,VBO,6.160156,51.333339
Heidenendstraat,55,,,5932XW,Tegelen,Venlo,Limburg,VBO,6.159985,51.333767
Heidenendstraat,57,,,5932XW,Tegelen,Venlo,Limburg,VBO,6.160252,51.333336
Heidenendstraat,59,,,5932XW,Tegelen,Venlo,Limburg,VBO,6.160313,51.333375
Heidenendstraat,61,,,5932XW,Tegelen,Venlo,Limburg,VBO,6.160373,51.333414
Heidenendstraat,63,A,,5932XW,Tegelen,Venlo,Limburg,VBO,6.160432,51.333169
Heidenendstraat,63,B,,5932XW,Tegelen,Venlo,Limburg,VBO,6.160463,51.333150
Heidenendstraat,63,C,,5932XW,Tegelen,Venlo,Limburg,VBO,6.160493,51.333131
Heidenendstraat,63,,,5932XW,Tegelen,Venlo,Limburg,VBO,6.160434,51.333453
Heidenendstraat,65,,,5932XW,Tegelen,Venlo,Limburg,VBO,6.160592,51.333130
Heidenendstraat,67,,,5932XW,Tegelen,Venlo,Limburg,VBO,6.160649,51.333167
Heidenendstraat,69,,,5932XW,Tegelen,Venlo,Limburg,VBO,6.160711,51.333206
Heidenendstraat,71,A,,5932XW,Tegelen,Venlo,Limburg,VBO,6.160769,51.332960
Heidenendstraat,71,B,,5932XW,Tegelen,Venlo,Limburg,VBO,6.160799,51.332942
Heidenendstraat,71,C,,5932XW,Tegelen,Venlo,Limburg,VBO,6.160829,51.332922
Heidenendstraat,71,,,5932XW,Tegelen,Venlo,Limburg,VBO,6.160772,51.333245
Heidenendstraat,73,,,5932XW,Tegelen,Venlo,Limburg,VBO,6.160927,51.332920
Heidenendstraat,75,,,5932XW,Tegelen,Venlo,Limburg,VBO,6.160987,51.332958
Heidenendstraat,77,,,5932XW,Tegelen,Venlo,Limburg,VBO,6.161047,51.332996
Heidenendstraat,79,A,,5932XW,Tegelen,Venlo,Limburg,VBO,6.161115,51.332746
Heidenendstraat,79,B,,5932XW,Tegelen,Venlo,Limburg,VBO,6.161146,51.332727
Heidenendstraat,79,C,,5932XW,Tegelen,Venlo,Limburg,VBO,6.161176,51.332707
Heidenendstraat,79,,,5932XW,Tegelen,Venlo,Limburg,VBO,6.161109,51.333035
Heidenendstraat,2,,,5932XX,Tegelen,Venlo,Limburg,VBO,6.157169,51.334877
Heidenendstraat,4,,,5932XX,Tegelen,Venlo,Limburg,VBO,6.157234,51.334839
Heidenendstraat,6,,,5932XX,Tegelen,Venlo,Limburg,VBO,6.157300,51.334801
Heidenendstraat,8,,,5932XX,Tegelen,Venlo,Limburg,VBO,6.157366,51.334763
Heidenendstraat,10,,,5932XX,Tegelen,Venlo,Limburg,VBO,6.157439,51.334720
Heidenendstraat,12,,,5932XX,Tegelen,Venlo,Limburg,VBO,6.157505,51.334682
Heidenendstraat,14,,,5932XX,Tegelen,Venlo,Limburg,VBO,6.157990,51.334378
Heidenendstraat,16,,,5932XX,Tegelen,Venlo,Limburg,VBO,6.158056,51.334340
Heidenendstraat,18,,,5932XX,Tegelen,Venlo,Limburg,VBO,6.158121,51.334301
Heidenendstraat,20,,,5932XX,Tegelen,Venlo,Limburg,VBO,6.158187,51.334263
Heidenendstraat,22,,,5932XX,Tegelen,Venlo,Limburg,VBO,6.158251,51.334226
Heidenendstraat,24,,,5932XX,Tegelen,Venlo,Limburg,VBO,6.158316,51.334188
Heidenendstraat,26,,,5932XX,Tegelen,Venlo,Limburg,VBO,6.158812,51.333863
Heidenendstraat,28,,,5932XX,Tegelen,Venlo,Limburg,VBO,6.158878,51.333824
Heidenendstraat,30,,,5932XX,Tegelen,Venlo,Limburg,VBO,6.158944,51.333786
Heidenendstraat,32,,,5932XX,Tegelen,Venlo,Limburg,VBO,6.159010,51.333747
Heidenendstraat,34,,,5932XX,Tegelen,Venlo,Limburg,VBO,6.159074,51.333710
Heidenendstraat,36,,,5932XX,Tegelen,Venlo,Limburg,VBO,6.159139,51.333672
Heidenendstraat,38,,,5932XZ,Tegelen,Venlo,Limburg,VBO,6.159623,51.333369
Heidenendstraat,40,,,5932XZ,Tegelen,Venlo,Limburg,VBO,6.159689,51.333330
Heidenendstraat,42,,,5932XZ,Tegelen,Venlo,Limburg,VBO,6.159755,51.333292
Heidenendstraat,44,,,5932XZ,Tegelen,Venlo,Limburg,VBO,6.159821,51.333254
Heidenendstraat,46,,,5932XZ,Tegelen,Venlo,Limburg,VBO,6.159886,51.333216
Heidenendstraat,48,,,5932XZ,Tegelen,Venlo,Limburg,VBO,6.159951,51.333178
Heidenendstraat,50,,,5932XZ,Tegelen,Venlo,Limburg,VBO,6.160444,51.332854
Heidenendstraat,52,,,5932XZ,Tegelen,Venlo,Limburg,VBO,6.160511,51.332815
Heidenendstraat,54,,,5932XZ,Tegelen,Venlo,Limburg,VBO,6.160576,51.332777
Heidenendstraat,56,,,5932XZ,Tegelen,Venlo,Limburg,VBO,6.160642,51.332739
Heidenendstraat,58,,,5932XZ,Tegelen,Venlo,Limburg,VBO,6.160707,51.332701
Heidenendstraat,60,,,5932XZ,Tegelen,Venlo,Limburg,VBO,6.160772,51.332663
