openbareruimtenaam,huisnummer,huisletter,huisnummertoevoeging,postcode,woonplaatsnaam,gemeentenaam,provincienaam,typeadresseerbaarobject,longitude,latitude
Blaktdijk,13,,,5976NA,Kronenberg,Horst aan de Maas,Limburg,VBO,5.995309,51.419875
Blaktdijk,15,,,5976NA,Kronenberg,Horst aan de Maas,Limburg,VBO,5.995814,51.420007
Blaktdijk,19,,,5976NA,Kronenberg,Horst aan de Maas,Limburg,VBO,5.997343,51.420367
Blaktdijk,23,,,5976NA,Kronenberg,Horst aan de Maas,Limburg,VBO,5.998338,51.420614
Blaktdijk,27,,,5976NA,Kronenberg,Horst aan de Maas,Limburg,VBO,5.999262,51.420843
Blaktdijk,35,,,5976NA,Kronenberg,Horst aan de Maas,Limburg,VBO,6.003156,51.421793
Blaktdijk,37,,,5976NA,Kronenberg,Horst aan de Maas,Limburg,VBO,6.003603,51.421854
Blaktdijk,39,,,5976NA,Kronenberg,Horst aan de Maas,Limburg,VBO,6.003718,51.421889
Blaktdijk,41,,,5976NA,Kronenberg,Horst aan de Maas,Limburg,VBO,6.003819,51.421924
Blaktdijk,43,,,5976NA,Kronenberg,Horst aan de Maas,Limburg,VBO,6.004844,51.422180
Blaktdijk,45,,,5976NA,Kronenberg,Horst aan de Maas,Limburg,VBO,6.005420,51.422302
Blaktdijk,47,,,5976NA,Kronenberg,Horst aan de Maas,Limburg,VBO,6.006246,51.422765
Blaktdijk,55,,,5976NA,Kronenberg,Horst aan de Maas,Limburg,VBO,6.009284,51.424151
Blaktdijk,57,,,5976NA,Kronenberg,Horst aan de Maas,Limburg,VBO,6.009457,51.424160
Blaktdijk,59,,,5976NA,Kronenberg,Horst aan de Maas,Limburg,VBO,6.010091,51.424291
Blaktdijk,4,,,5976NB,Kronenberg,Horst aan de Maas,Limburg,VBO,5.991320,51.417199
Blaktdijk,8,,,5976NB,Kronenberg,Horst aan de Maas,Limburg,VBO,5.992909,51.418844
Blaktdijk,34,,,5976NB,Kronenberg,Horst aan de Maas,Limburg,VBO,6.002070,51.421178
Blaktdijk,44,b,,5976NB,Kronenberg,Horst aan de Maas,Limburg,VBO,6.005888,51.422002
Blaktdijk,44,,,5976NB,Kronenberg,Horst aan de Maas,Limburg,VBO,6.005070,51.421936
Blaktdijk,48,,,5976NB,Kronenberg,Horst aan de Maas,Limburg,VBO,6.005995,51.422263
Blaktdijk,50,,,5976NB,Kronenberg,Horst aan de Maas,Limburg,VBO,6.006328,51.422441
Blaktdijk,52,,,5976NB,Kronenberg,Horst aan de Maas,Limburg,VBO,6.006878,51.422735
Blaktdijk,56,,,5976NB,Kronenberg,Horst aan de Maas,Limburg,VBO,6.008211,51.423429
Blaktdijk,62,,,5976NB,Kronenberg,Horst aan de Maas,Limburg,VBO,6.011586,51.424238
Gruttoweg,4,,,5976NC,Kronenberg,Horst aan de Maas,Limburg,VBO,5.989213,51.420877
Gruttoweg,6,,,5976NC,Kronenberg,Horst aan de Maas,Limburg,VBO,5.990194,51.421205
Gruttoweg,8,,,5976NC,Kronenberg,Horst aan de Maas,Limburg,VBO,5.990570,51.421310
Gruttoweg,14,,,5976NC,Kronenberg,Horst aan de Maas,Limburg,VBO,5.997437,51.423090
Americaanseweg,1,a,,5976ND,Kronenberg,Horst aan de Maas,Limburg,VBO,6.000617,51.415766
Americaanseweg,1,b,,5976ND,Kronenberg,Horst aan de Maas,Limburg,VBO,6.000660,51.415820
Americaanseweg,1,,,5976ND,Kronenberg,Horst aan de Maas,Limburg,VBO,6.000748,51.415936
Americaanseweg,3,,,5976ND,Kronenberg,Horst aan de Maas,Limburg,VBO,6.000778,51.415999
Americaanseweg,5,,,5976ND,Kronenberg,Horst aan de Maas,Limburg,VBO,6.000866,51.416169
Americaanseweg,7,,,5976ND,Kronenberg,Horst aan de Maas,Limburg,VBO,6.000925,51.416268
Americaanseweg,9,,,5976ND,Kronenberg,Horst aan de Maas,Limburg,VBO,6.000940,51.416321
Americaanseweg,11,,,5976ND,Kronenberg,Horst aan de Maas,Limburg,VBO,6.000999,51.416420
Americaanseweg,13,,,5976ND,Kronenberg,Horst aan de Maas,Limburg,VBO,6.001029,51.416474
Americaanseweg,15,,,5976ND,Kronenberg,Horst aan de Maas,Limburg,VBO,6.001189,51.416671
Americaanseweg,17,,,5976ND,Kronenberg,Horst aan de Maas,Limburg,VBO,6.001350,51.416886
Americaanseweg,29,,,5976ND,Kronenberg,Horst aan de Maas,Limburg,VBO,6.001809,51.418906
Americaanseweg,35,,,5976ND,Kronenberg,Horst aan de Maas,Limburg,VBO,6.001091,51.420069
Americaanseweg,37,,,5976ND,Kronenberg,Horst aan de Maas,Limburg,VBO,6.000709,51.420467
Americaanseweg,39,,,5976ND,Kronenberg,Horst aan de Maas,Limburg,VBO,6.000539,51.420656
Americaanseweg,43,a,,5976ND,Kronenberg,Horst aan de Maas,Limburg,VBO,5.999662,51.421730
Americaanseweg,43,,,5976ND,Kronenberg,Horst aan de Maas,Limburg,VBO,5.999888,51.421478
Americaanseweg,4,,,5976NE,Kronenberg,Horst aan de Maas,Limburg,VBO,6.001151,51.415952
Americaanseweg,6,,,5976NE,Kronenberg,Horst aan de Maas,Limburg,VBO,6.001254,51.416158
Americaanseweg,8,,,5976NE,Kronenberg,Horst aan de Maas,Limburg,VBO,6.001314,51.416284
Americaanseweg,10,,,5976NE,Kronenberg,Horst aan de Maas,Limburg,VBO,6.001358,51.416364
Americaanseweg,12,,,5976NE,Kronenberg,Horst aan de Maas,Limburg,VBO,6.001402,51.416454
Americaanseweg,16,,,5976NE,Kronenberg,Horst aan de Maas,Limburg,VBO,6.001968,51.416819
Americaanseweg,18,,,5976NE,Kronenberg,Horst aan de Maas,Limburg,VBO,6.002040,51.416855
Americaanseweg,20,a,,5976NE,Kronenberg,Horst aan de Maas,Limburg,VBO,6.002197,51.416993
Americaanseweg,20,,,5976NE,Kronenberg,Horst aan de Maas,Limburg,VBO,6.002316,51.417060
Americaanseweg,22,,,5976NE,Kronenberg,Horst aan de Maas,Limburg,VBO,6.002648,51.417139
Americaanseweg,30,,,5976NE,Kronenberg,Horst aan de Maas,Limburg,VBO,6.002400,51.419055
Americaanseweg,36,,,5976NE,Kronenberg,Horst aan de Maas,Limburg,VBO,6.001253,51.420338
Americaanseweg,40,,,5976NE,Kronenberg,Horst aan de Maas,Limburg,VBO,6.000972,51.420789
Americaanseweg,42,,,5976NE,Kronenberg,Horst aan de Maas,Limburg,VBO,6.000547,51.421303
Americaanseweg,44,a,,5976NE,Kronenberg,Horst aan de Maas,Limburg,VBO,6.000043,51.422034
Americaanseweg,44,,,5976NE,Kronenberg,Horst aan de Maas,Limburg,VBO,6.000123,51.421854
Americaanseweg,46,a,,5976NE,Kronenberg,Horst aan de Maas,Limburg,VBO,5.999688,51.422352
Americaanseweg,46,,,5976NE,Kronenberg,Horst aan de Maas,Limburg,VBO,5.999631,51.422420
Americaanseweg,50,,,5976NE,Kronenberg,Horst aan de Maas,Limburg,VBO,5.999359,51.422721
Americaanseweg,54,,,5976NE,Kronenberg,Horst aan de Maas,Limburg,VBO,5.998736,51.423470
Americaanseweg,64,,,5976NE,Kronenberg,Horst aan de Maas,Limburg,VBO,5.990960,51.424733
Heuvelsestraat,2,,,5976NG,Kronenberg,Horst aan de Maas,Limburg,VBO,6.005874,51.415581
Heuvelsestraat,5,,,5976NG,Kronenberg,Horst aan de Maas,Limburg,VBO,6.004234,51.416457
Heuvelsestraat,12,,,5976NG,Kronenberg,Horst aan de Maas,Limburg,VBO,6.003560,51.417629
Heuvelsestraat,14,,,5976NG,Kronenberg,Horst aan de Maas,Limburg,VBO,6.003625,51.418253
Heuvelsestraat,16,,,5976NG,Kronenberg,Horst aan de Maas,Limburg,VBO,6.003124,51.418021
De Hees,39,,,5976NH,Kronenberg,Horst aan de Maas,Limburg,VBO,6.015559,51.414131
De Hees,41,,,5976NH,Kronenberg,Horst aan de Maas,Limburg,VBO,6.014639,51.414172
De Hees,45,,,5976NH,Kronenberg,Horst aan de Maas,Limburg,VBO,6.013074,51.414270
De Hees,55,,,5976NH,Kronenberg,Horst aan de Maas,Limburg,VBO,6.009813,51.414405
De Hees,59,,,5976NH,Kronenberg,Horst aan de Maas,Limburg,VBO,6.009183,51.414588
De Hees,63,a,,5976NH,Kronenberg,Horst aan de Maas,Limburg,VBO,6.006735,51.413859
De Hees,63,,,5976NH,Kronenberg,Horst aan de Maas,Limburg,VBO,6.007702,51.413544
De Hees,65,,,5976NH,Kronenberg,Horst aan de Maas,Limburg,VBO,6.006752,51.414493
De Hees,67,,,5976NH,Kronenberg,Horst aan de Maas,Limburg,VBO,6.006144,51.414173
De Hees,69,,,5976NH,Kronenberg,Horst aan de Maas,Limburg,VBO,6.004656,51.414729
De Hees,71,,,5976NH,Kronenberg,Horst aan de Maas,Limburg,VBO,6.004011,51.414813
De Hees,73,a,,5976NH,Kronenberg,Horst aan de Maas,Limburg,VBO,6.003105,51.414827
De Hees,73,,,5976NH,Kronenberg,Horst aan de Maas,Limburg,VBO,6.003365,51.414879
De Hees,75,,,5976NH,Kronenberg,Horst aan de Maas,Limburg,VBO,6.002628,51.414614
De Hees,42,,,5976NJ,Kronenberg,Horst aan de Maas,Limburg,VBO,6.014758,51.414432
De Hees,44,a,,5976NJ,Kronenberg,Horst aan de Maas,Limburg,VBO,6.013868,51.414563
De Hees,44,,,5976NJ,Kronenberg,Horst aan de Maas,Limburg,VBO,6.014112,51.414534
De Hees,46,,,5976NJ,Kronenberg,Horst aan de Maas,Limburg,VBO,6.013122,51.414621
De Hees,50,a,,5976NJ,Kronenberg,Horst aan de Maas,Limburg,VBO,6.011428,51.414828
De Hees,50,,,5976NJ,Kronenberg,Horst aan de Maas,Limburg,VBO,6.011558,51.414827
De Hees,54,,,5976NJ,Kronenberg,Horst aan de Maas,Limburg,VBO,6.010334,51.414681
De Hees,56,a,,5976NJ,Kronenberg,Horst aan de Maas,Limburg,VBO,6.010221,51.414861
De Hees,56,,,5976NJ,Kronenberg,Horst aan de Maas,Limburg,VBO,6.010204,51.414681
De Hees,60,,,5976NJ,Kronenberg,Horst aan de Maas,Limburg,VBO,6.007866,51.414990
De Hees,62,,,5976NJ,Kronenberg,Horst aan de Maas,Limburg,VBO,6.007665,51.415018
De Hees,64,,,5976NJ,Kronenberg,Horst aan de Maas,Limburg,VBO,6.006204,51.415355
De Hees,66,,,5976NJ,Kronenberg,Horst aan de Maas,Limburg,VBO,6.004791,51.415142
De Hees,70,a,,5976NJ,Kronenberg,Horst aan de Maas,Limburg,VBO,6.003943,51.415110
De Hees,70,b,,5976NJ,Kronenberg,Horst aan de Maas,Limburg,VBO,6.004162,51.415388
De Hees,70,,,5976NJ,Kronenberg,Horst aan de Maas,Limburg,VBO,6.004029,51.415119
De Hees,72,,,5976NJ,Kronenberg,Horst aan de Maas,Limburg,VBO,6.003698,51.415111
De Hees,74,,,5976NJ,Kronenberg,Horst aan de Maas,Limburg,VBO,6.003468,51.415095
De Hees,92,,,5976NJ,Kronenberg,Horst aan de Maas,Limburg,VBO,6.002807,51.415071
De Hees,94,,,5976NJ,Kronenberg,Horst aan de Maas,Limburg,VBO,6.002476,51.415091
De Hees,96,,,5976NJ,Kronenberg,Horst aan de Maas,Limburg,VBO,6.002218,51.415146
De Hees,98,,,5976NJ,Kronenberg,Horst aan de Maas,Limburg,VBO,6.002018,51.415210
De Hees,100,,,5976NJ,Kronenberg,Horst aan de Maas,Limburg,VBO,6.001774,51.415256
De Hees,102,,,5976NJ,Kronenberg,Horst aan de Maas,Limburg,VBO,6.001516,51.415321
De Hees,104,,,5976NJ,Kronenberg,Horst aan de Maas,Limburg,VBO,6.001258,51.415367
De Hees,106,,,5976NJ,Kronenberg,Horst aan de Maas,Limburg,VBO,6.001086,51.415413
De Hees,108,,,5976NJ,Kronenberg,Horst aan de Maas,Limburg,VBO,6.000828,51.415432
Peelstraat,5,,,5976NK,Kronenberg,Horst aan de Maas,Limburg,VBO,5.999135,51.415720
Peelstraat,7,,,5976NK,Kronenberg,Horst aan de Maas,Limburg,VBO,5.999049,51.415747
Peelstraat,9,,,5976NK,Kronenberg,Horst aan de Maas,Limburg,VBO,5.998863,51.415802
Peelstraat,11,,,5976NK,Kronenberg,Horst aan de Maas,Limburg,VBO,5.998792,51.415829
Peelstraat,13,,,5976NK,Kronenberg,Horst aan de Maas,Limburg,VBO,5.998692,51.415875
Peelstraat,27,,,5976NK,Kronenberg,Horst aan de Maas,Limburg,VBO,5.997575,51.416186
Peelstraat,29,,,5976NK,Kronenberg,Horst aan de Maas,Limburg,VBO,5.997302,51.416251
Peelstraat,33,,,5976NK,Kronenberg,Horst aan de Maas,Limburg,VBO,5.991622,51.416136
Peelstraat,35,,,5976NK,Kronenberg,Horst aan de Maas,Limburg,VBO,5.991607,51.416065
Peelstraat,37,,,5976NK,Kronenberg,Horst aan de Maas,Limburg,VBO,5.990585,51.415917
Peelstraat,41,,,5976NK,Kronenberg,Horst aan de Maas,Limburg,VBO,5.989030,51.415736
Peelstraat,45,,,5976NK,Kronenberg,Horst aan de Maas,Limburg,VBO,5.986594,51.415272
Peelstraat,49,,,5976NK,Kronenberg,Horst aan de Maas,Limburg,VBO,5.983755,51.414721
Peelstraat,51,,,5976NK,Kronenberg,Horst aan de Maas,Limburg,VBO,5.982450,51.414038
Peelstraat,53,,,5976NK,Kronenberg,Horst aan de Maas,Limburg,VBO,5.981978,51.414083
Peelstraat,2,a,,5976NL,Kronenberg,Horst aan de Maas,Limburg,VBO,6.000256,51.415696
Peelstraat,2,b,,5976NL,Kronenberg,Horst aan de Maas,Limburg,VBO,6.000414,51.415677
Peelstraat,2,,,5976NL,Kronenberg,Horst aan de Maas,Limburg,VBO,6.000399,51.415632
Peelstraat,4,a,,5976NL,Kronenberg,Horst aan de Maas,Limburg,VBO,6.000013,51.415769
Peelstraat,4,,,5976NL,Kronenberg,Horst aan de Maas,Limburg,VBO,6.000113,51.415741
Peelstraat,6,,,5976NL,Kronenberg,Horst aan de Maas,Limburg,VBO,5.999870,51.415815
Peelstraat,8,,,5976NL,Kronenberg,Horst aan de Maas,Limburg,VBO,5.999784,51.415842
Peelstraat,10,,,5976NL,Kronenberg,Horst aan de Maas,Limburg,VBO,5.999455,51.415952
Peelstraat,12,,,5976NL,Kronenberg,Horst aan de Maas,Limburg,VBO,5.999369,51.415970
Peelstraat,14,,,5976NL,Kronenberg,Horst aan de Maas,Limburg,VBO,5.999211,51.416025
Peelstraat,16,,,5976NL,Kronenberg,Horst aan de Maas,Limburg,VBO,5.999140,51.416052
Peelstraat,18,,,5976NL,Kronenberg,Horst aan de Maas,Limburg,VBO,5.998982,51.416098
Peelstraat,20,,,5976NL,Kronenberg,Horst aan de Maas,Limburg,VBO,5.998896,51.416125
Peelstraat,22,,,5976NL,Kronenberg,Horst aan de Maas,Limburg,VBO,5.998739,51.416171
Peelstraat,24,,,5976NL,Kronenberg,Horst aan de Maas,Limburg,VBO,5.998653,51.416199
Peelstraat,26,,,5976NL,Kronenberg,Horst aan de Maas,Limburg,VBO,5.998108,51.416309
Peelstraat,28,,,5976NL,Kronenberg,Horst aan de Maas,Limburg,VBO,5.997636,51.416456
Peelstraat,30,,,5976NL,Kronenberg,Horst aan de Maas,Limburg,VBO,5.996618,51.416677
Peelstraat,40,,,5976NL,Kronenberg,Horst aan de Maas,Limburg,VBO,5.994795,51.416884
Peelstraat,48,,,5976NL,Kronenberg,Horst aan de Maas,Limburg,VBO,5.984107,51.415258
Peelstraat,50,,,5976NL,Kronenberg,Horst aan de Maas,Limburg,VBO,5.982431,51.414620
Peelstraat,52,,,5976NL,Kronenberg,Horst aan de Maas,Limburg,VBO,5.981853,51.414407
Peelstraat,54,,,5976NL,Kronenberg,Horst aan de Maas,Limburg,VBO,5.981637,51.414327
Peelstraat,56,,,5976NL,Kronenberg,Horst aan de Maas,Limburg,VBO,5.981261,51.414185
Peelstraat,58,,,5976NL,Kronenberg,Horst aan de Maas,Limburg,VBO,5.981001,51.414088
Snipweg,3,,,5976NM,Kronenberg,Horst aan de Maas,Limburg,VBO,5.998850,51.424440
Heesbeemd,1,,,5976NN,Kronenberg,Horst aan de Maas,Limburg,VBO,6.012282,51.415263
Heesbeemd,4,,,5976NN,Kronenberg,Horst aan de Maas,Limburg,VBO,6.012351,51.416036
Heesbeemd,5,,,5976NN,Kronenberg,Horst aan de Maas,Limburg,VBO,6.013637,51.418138
Heesbeemd,8,,,5976NN,Kronenberg,Horst aan de Maas,Limburg,VBO,6.012644,51.417509
Heesbeemd,10,,,5976NN,Kronenberg,Horst aan de Maas,Limburg,VBO,6.014298,51.417554
Heesbeemd,12,,,5976NN,Kronenberg,Horst aan de Maas,Limburg,VBO,6.014471,51.417580
Pastoor Kesselsstraat,1,,,5976NP,Kronenberg,Horst aan de Maas,Limburg,VBO,5.999615,51.416113
Pastoor Kesselsstraat,2,,,5976NP,Kronenberg,Horst aan de Maas,Limburg,VBO,5.999930,51.416021
Pastoor Kesselsstraat,3,,,5976NP,Kronenberg,Horst aan de Maas,Limburg,VBO,5.999659,51.416166
Pastoor Kesselsstraat,4,,,5976NP,Kronenberg,Horst aan de Maas,Limburg,VBO,5.999974,51.416084
Pastoor Kesselsstraat,5,,,5976NP,Kronenberg,Horst aan de Maas,Limburg,VBO,5.999732,51.416265
Pastoor Kesselsstraat,6,,,5976NP,Kronenberg,Horst aan de Maas,Limburg,VBO,6.000062,51.416182
Pastoor Kesselsstraat,7,,,5976NP,Kronenberg,Horst aan de Maas,Limburg,VBO,5.999776,51.416319
Pastoor Kesselsstraat,8,,,5976NP,Kronenberg,Horst aan de Maas,Limburg,VBO,6.000105,51.416236
Pastoor Kesselsstraat,9,,,5976NP,Kronenberg,Horst aan de Maas,Limburg,VBO,5.999849,51.416417
Pastoor Kesselsstraat,10,,,5976NP,Kronenberg,Horst aan de Maas,Limburg,VBO,6.000193,51.416343
Pastoor Kesselsstraat,11,,,5976NP,Kronenberg,Horst aan de Maas,Limburg,VBO,5.999893,51.416471
Pastoor Kesselsstraat,12,,,5976NP,Kronenberg,Horst aan de Maas,Limburg,VBO,6.000223,51.416397
Pastoor Kesselsstraat,13,,,5976NP,Kronenberg,Horst aan de Maas,Limburg,VBO,5.999937,51.416515
Pastoor Kesselsstraat,14,,,5976NP,Kronenberg,Horst aan de Maas,Limburg,VBO,6.000266,51.416442
Pastoor Kesselsstraat,15,,,5976NP,Kronenberg,Horst aan de Maas,Limburg,VBO,5.999966,51.416569
Pastoor Kesselsstraat,16,,,5976NP,Kronenberg,Horst aan de Maas,Limburg,VBO,6.000310,51.416487
Torrestraat,1,,,5976NR,Kronenberg,Horst aan de Maas,Limburg,VBO,6.000685,51.416592
Torrestraat,3,,,5976NR,Kronenberg,Horst aan de Maas,Limburg,VBO,6.000614,51.416620
Torrestraat,5,,,5976NR,Kronenberg,Horst aan de Maas,Limburg,VBO,6.000542,51.416638
Torrestraat,7,,,5976NR,Kronenberg,Horst aan de Maas,Limburg,VBO,6.000471,51.416665
Torrestraat,9,,,5976NR,Kronenberg,Horst aan de Maas,Limburg,VBO,6.000127,51.416766
Torrestraat,11,,,5976NR,Kronenberg,Horst aan de Maas,Limburg,VBO,6.000041,51.416794
Torrestraat,13,,,5976NR,Kronenberg,Horst aan de Maas,Limburg,VBO,5.999955,51.416821
Torrestraat,15,,,5976NR,Kronenberg,Horst aan de Maas,Limburg,VBO,5.999855,51.416857
Torrestraat,17,,,5976NR,Kronenberg,Horst aan de Maas,Limburg,VBO,5.999493,51.416680
Torrestraat,19,,,5976NR,Kronenberg,Horst aan de Maas,Limburg,VBO,5.999449,51.416617
Torrestraat,21,,,5976NR,Kronenberg,Horst aan de Maas,Limburg,VBO,5.999233,51.416546
Torrestraat,23,,,5976NR,Kronenberg,Horst aan de Maas,Limburg,VBO,5.999189,51.416483
Torrestraat,24,,,5976NR,Kronenberg,Horst aan de Maas,Limburg,VBO,5.999916,51.417145
Torrestraat,25,,,5976NR,Kronenberg,Horst aan de Maas,Limburg,VBO,5.998972,51.416404
Torrestraat,26,,,5976NR,Kronenberg,Horst aan de Maas,Limburg,VBO,5.998871,51.417429
Torrestraat,27,,,5976NR,Kronenberg,Horst aan de Maas,Limburg,VBO,5.998928,51.416350
Meerweg,1,,,5976NS,Kronenberg,Horst aan de Maas,Limburg,VBO,6.001124,51.414999
Meerweg,3,,,5976NS,Kronenberg,Horst aan de Maas,Limburg,VBO,6.000821,51.414938
Meerweg,5,,,5976NS,Kronenberg,Horst aan de Maas,Limburg,VBO,6.000720,51.414920
Meerweg,9,a,,5976NS,Kronenberg,Horst aan de Maas,Limburg,VBO,5.999739,51.414694
Meerweg,9,,,5976NS,Kronenberg,Horst aan de Maas,Limburg,VBO,5.999896,51.414561
Meerweg,11,,,5976NS,Kronenberg,Horst aan de Maas,Limburg,VBO,5.999523,51.414585
Meerweg,15,,,5976NS,Kronenberg,Horst aan de Maas,Limburg,VBO,5.998614,51.414374
Meerweg,17,,,5976NS,Kronenberg,Horst aan de Maas,Limburg,VBO,5.998527,51.414348
Meerweg,19,,,5976NS,Kronenberg,Horst aan de Maas,Limburg,VBO,5.998369,51.414303
Meerweg,21,,,5976NS,Kronenberg,Horst aan de Maas,Limburg,VBO,5.998282,51.414286
Meerweg,23,,,5976NS,Kronenberg,Horst aan de Maas,Limburg,VBO,5.998124,51.414242
Meerweg,25,,,5976NS,Kronenberg,Horst aan de Maas,Limburg,VBO,5.998051,51.414215
Meerweg,27,,,5976NS,Kronenberg,Horst aan de Maas,Limburg,VBO,5.997301,51.414003
Meerweg,29,,,5976NS,Kronenberg,Horst aan de Maas,Limburg,VBO,5.997243,51.413968
Meerweg,31,,,5976NS,Kronenberg,Horst aan de Maas,Limburg,VBO,5.997055,51.413906
Meerweg,33,,,5976NS,Kronenberg,Horst aan de Maas,Limburg,VBO,5.996983,51.413870
Meerweg,35,,,5976NS,Kronenberg,Horst aan de Maas,Limburg,VBO,5.996810,51.413835
Meerweg,37,,,5976NS,Kronenberg,Horst aan de Maas,Limburg,VBO,5.996752,51.413800
Meerweg,39,,,5976NS,Kronenberg,Horst aan de Maas,Limburg,VBO,5.996608,51.413746
Meerweg,41,,,5976NS,Kronenberg,Horst aan de Maas,Limburg,VBO,5.996550,51.413720
Meerweg,63,,,5976NS,Kronenberg,Horst aan de Maas,Limburg,VBO,5.992932,51.411896
Meerweg,65,,,5976NS,Kronenberg,Horst aan de Maas,Limburg,VBO,5.992643,51.411816
Meerweg,69,,,5976NS,Kronenberg,Horst aan de Maas,Limburg,VBO,5.991373,51.411445
Meerweg,71,,,5976NS,Kronenberg,Horst aan de Maas,Limburg,VBO,5.991492,51.410627
Meerweg,73,,,5976NS,Kronenberg,Horst aan de Maas,Limburg,VBO,5.992861,51.410898
Meerweg,6,,,5976NT,Kronenberg,Horst aan de Maas,Limburg,VBO,6.000280,51.415300
Meerweg,8,,,5976NT,Kronenberg,Horst aan de Maas,Limburg,VBO,6.000032,51.415041
Meerweg,10,,,5976NT,Kronenberg,Horst aan de Maas,Limburg,VBO,5.999498,51.414900
Meerweg,12,,,5976NT,Kronenberg,Horst aan de Maas,Limburg,VBO,5.999296,51.414847
Meerweg,14,,,5976NT,Kronenberg,Horst aan de Maas,Limburg,VBO,5.999123,51.414803
Meerweg,16,,,5976NT,Kronenberg,Horst aan de Maas,Limburg,VBO,5.998950,51.414750
Meerweg,20,,,5976NT,Kronenberg,Horst aan de Maas,Limburg,VBO,5.998301,51.414573
Meerweg,22,,,5976NT,Kronenberg,Horst aan de Maas,Limburg,VBO,5.998113,51.414521
Meerweg,24,,,5976NT,Kronenberg,Horst aan de Maas,Limburg,VBO,5.997940,51.414476
Meerweg,26,a,,5976NT,Kronenberg,Horst aan de Maas,Limburg,VBO,5.997506,51.414281
Meerweg,26,,,5976NT,Kronenberg,Horst aan de Maas,Limburg,VBO,5.997737,51.414343
Meerweg,28,,,5976NT,Kronenberg,Horst aan de Maas,Limburg,VBO,5.997232,51.414237
Meerweg,30,a,,5976NT,Kronenberg,Horst aan de Maas,Limburg,VBO,5.995766,51.413731
Meerweg,30,,,5976NT,Kronenberg,Horst aan de Maas,Limburg,VBO,5.996756,51.414123
Meerweg,32,,,5976NT,Kronenberg,Horst aan de Maas,Limburg,VBO,5.995309,51.413394
Meerweg,34,,,5976NT,Kronenberg,Horst aan de Maas,Limburg,VBO,5.994613,51.412966
Meerweg,36,,,5976NT,Kronenberg,Horst aan de Maas,Limburg,VBO,5.994352,51.412742
Meerweg,46,,,5976NT,Kronenberg,Horst aan de Maas,Limburg,VBO,5.989387,51.411231
Kronenbergweg,2,,,5976NV,Kronenberg,Horst aan de Maas,Limburg,VBO,5.993623,51.412009
Kronenbergweg,8,,,5976NV,Kronenberg,Horst aan de Maas,Limburg,VBO,5.994858,51.410789
Kronenbergweg,10,,,5976NV,Kronenberg,Horst aan de Maas,Limburg,VBO,5.994928,51.410717
Kronenbergweg,11,,,5976NV,Kronenberg,Horst aan de Maas,Limburg,VBO,5.996084,51.410046
Kronenbergweg,12,,,5976NV,Kronenberg,Horst aan de Maas,Limburg,VBO,5.996062,51.409497
Kronenbergweg,17,,,5976NV,Kronenberg,Horst aan de Maas,Limburg,VBO,5.998532,51.408244
Kronenbergweg,19,,,5976NV,Kronenberg,Horst aan de Maas,Limburg,VBO,5.998730,51.408027
Kronenbergweg,20,,,5976NV,Kronenberg,Horst aan de Maas,Limburg,VBO,5.999380,51.407152
Kronenbergweg,23,,,5976NV,Kronenberg,Horst aan de Maas,Limburg,VBO,6.000235,51.406626
Kronenbergweg,25,,,5976NV,Kronenberg,Horst aan de Maas,Limburg,VBO,6.000623,51.406642
Kronenbergweg,27,,,5976NV,Kronenberg,Horst aan de Maas,Limburg,VBO,6.002046,51.406662
Simonsstraat,1,,,5976NW,Kronenberg,Horst aan de Maas,Limburg,VBO,6.000818,51.414695
Simonsstraat,3,,,5976NW,Kronenberg,Horst aan de Maas,Limburg,VBO,6.000846,51.414641
Simonsstraat,7,,,5976NW,Kronenberg,Horst aan de Maas,Limburg,VBO,6.001296,51.413921
Simonsstraat,9,,,5976NW,Kronenberg,Horst aan de Maas,Limburg,VBO,6.001817,51.413144
Simonsstraat,11,,,5976NW,Kronenberg,Horst aan de Maas,Limburg,VBO,6.002411,51.412377
Simonsstraat,13,,,5976NW,Kronenberg,Horst aan de Maas,Limburg,VBO,6.001418,51.413398
Simonsstraat,15,,,5976NW,Kronenberg,Horst aan de Maas,Limburg,VBO,6.001036,51.413813
Simonsstraat,17,a,,5976NW,Kronenberg,Horst aan de Maas,Limburg,VBO,6.000464,51.414014
Simonsstraat,17,,,5976NW,Kronenberg,Horst aan de Maas,Limburg,VBO,6.000767,51.414102
Simonsstraat,19,,,5976NW,Kronenberg,Horst aan de Maas,Limburg,VBO,6.000146,51.413899
Simonsstraat,23,,,5976NW,Kronenberg,Horst aan de Maas,Limburg,VBO,6.001125,51.411880
Simonsstraat,25,,,5976NW,Kronenberg,Horst aan de Maas,Limburg,VBO,6.000125,51.412335
Simonsstraat,27,,,5976NW,Kronenberg,Horst aan de Maas,Limburg,VBO,5.999780,51.412354
Simonsstraat,29,,,5976NW,Kronenberg,Horst aan de Maas,Limburg,VBO,5.998871,51.413186
Simonsstraat,33,a,,5976NW,Kronenberg,Horst aan de Maas,Limburg,VBO,5.997464,51.412205
Simonsstraat,33,,,5976NW,Kronenberg,Horst aan de Maas,Limburg,VBO,5.997269,51.412691
Simonsstraat,35,a,,5976NW,Kronenberg,Horst aan de Maas,Limburg,VBO,5.997103,51.412099
Simonsstraat,35,,,5976NW,Kronenberg,Horst aan de Maas,Limburg,VBO,5.996618,51.412344
Simonsstraat,37,,,5976NW,Kronenberg,Horst aan de Maas,Limburg,VBO,5.996008,51.411943
Simonsstraat,39,,,5976NW,Kronenberg,Horst aan de Maas,Limburg,VBO,5.995764,51.411872
Simonsstraat,2,,,5976NX,Kronenberg,Horst aan de Maas,Limburg,VBO,6.000470,51.414508
Simonsstraat,4,,,5976NX,Kronenberg,Horst aan de Maas,Limburg,VBO,6.000496,51.414301
Simonsstraat,6,,,5976NX,Kronenberg,Horst aan de Maas,Limburg,VBO,6.000395,51.414275
Simonsstraat,8,,,5976NX,Kronenberg,Horst aan de Maas,Limburg,VBO,6.000222,51.414231
Simonsstraat,10,,,5976NX,Kronenberg,Horst aan de Maas,Limburg,VBO,6.000121,51.414204
Simonsstraat,16,,,5976NX,Kronenberg,Horst aan de Maas,Limburg,VBO,5.999052,51.413832
Simonsstraat,18,,,5976NX,Kronenberg,Horst aan de Maas,Limburg,VBO,5.998980,51.413806
Simonsstraat,20,,,5976NX,Kronenberg,Horst aan de Maas,Limburg,VBO,5.998836,51.413744
Simonsstraat,22,,,5976NX,Kronenberg,Horst aan de Maas,Limburg,VBO,5.998763,51.413708
Simonsstraat,24,,,5976NX,Kronenberg,Horst aan de Maas,Limburg,VBO,5.998619,51.413646
Simonsstraat,26,,,5976NX,Kronenberg,Horst aan de Maas,Limburg,VBO,5.998546,51.413619
Simonsstraat,28,,,5976NX,Kronenberg,Horst aan de Maas,Limburg,VBO,5.998286,51.413495
Simonsstraat,34,,,5976NX,Kronenberg,Horst aan de Maas,Limburg,VBO,5.996819,51.412712
In de Kamp,1,,,5976NZ,Kronenberg,Horst aan de Maas,Limburg,VBO,5.998045,51.413748
In de Kamp,2,,,5976NZ,Kronenberg,Horst aan de Maas,Limburg,VBO,5.998348,51.413836
In de Kamp,3,,,5976NZ,Kronenberg,Horst aan de Maas,Limburg,VBO,5.997875,51.413902
In de Kamp,4,,,5976NZ,Kronenberg,Horst aan de Maas,Limburg,VBO,5.998306,51.413890
In de Kamp,5,,,5976NZ,Kronenberg,Horst aan de Maas,Limburg,VBO,5.997748,51.414073
In de Kamp,6,,,5976NZ,Kronenberg,Horst aan de Maas,Limburg,VBO,5.998263,51.413935
In de Kamp,8,,,5976NZ,Kronenberg,Horst aan de Maas,Limburg,VBO,5.998221,51.413981
Kievitweg,2,,,5976PA,Kronenberg,Horst aan de Maas,Limburg,VBO,5.992122,51.419091
Kievitweg,4,,,5976PA,Kronenberg,Horst aan de Maas,Limburg,VBO,5.991473,51.418969
Kievitweg,11,,,5976PA,Kronenberg,Horst aan de Maas,Limburg,VBO,5.985206,51.420170
Venweg,3,,,5976PB,Kronenberg,Horst aan de Maas,Limburg,VBO,6.001699,51.418196
Venweg,8,,,5976PB,Kronenberg,Horst aan de Maas,Limburg,VBO,5.999466,51.418954
Venweg,10,,,5976PB,Kronenberg,Horst aan de Maas,Limburg,VBO,5.999337,51.419000
Venweg,11,a,,5976PB,Kronenberg,Horst aan de Maas,Limburg,VBO,5.997892,51.419127
Venweg,11,,,5976PB,Kronenberg,Horst aan de Maas,Limburg,VBO,5.998002,51.419096
Venweg,12,,,5976PB,Kronenberg,Horst aan de Maas,Limburg,VBO,5.997647,51.419467
Venweg,15,,,5976PB,Kronenberg,Horst aan de Maas,Limburg,VBO,5.996009,51.419529
Venweg,17,,,5976PB,Kronenberg,Horst aan de Maas,Limburg,VBO,5.994867,51.420138
Venweg,18,,,5976PB,Kronenberg,Horst aan de Maas,Limburg,VBO,5.994444,51.420769
Kulbergweg,6,,,5976PC,Kronenberg,Horst aan de Maas,Limburg,VBO,5.963401,51.419496
Kulbergweg,8,,,5976PC,Kronenberg,Horst aan de Maas,Limburg,VBO,5.965971,51.420258
Kempkesstraat,1,,,5976PD,Kronenberg,Horst aan de Maas,Limburg,VBO,5.998433,51.415912
Kempkesstraat,3,,,5976PD,Kronenberg,Horst aan de Maas,Limburg,VBO,5.998404,51.415858
Kempkesstraat,5,,,5976PD,Kronenberg,Horst aan de Maas,Limburg,VBO,5.998316,51.415751
Kempkesstraat,7,,,5976PD,Kronenberg,Horst aan de Maas,Limburg,VBO,5.998272,51.415697
Kempkesstraat,9,,,5976PD,Kronenberg,Horst aan de Maas,Limburg,VBO,5.998112,51.415500
Kempkesstraat,11,,,5976PD,Kronenberg,Horst aan de Maas,Limburg,VBO,5.998183,51.415473
Kempkesstraat,13,,,5976PD,Kronenberg,Horst aan de Maas,Limburg,VBO,5.998255,51.415446
Kempkesstraat,15,,,5976PD,Kronenberg,Horst aan de Maas,Limburg,VBO,5.998326,51.415427
Kempkesstraat,17,,,5976PD,Kronenberg,Horst aan de Maas,Limburg,VBO,5.998412,51.415400
Kempkesstraat,19,,,5976PD,Kronenberg,Horst aan de Maas,Limburg,VBO,5.998484,51.415373
Kempkesstraat,21,,,5976PD,Kronenberg,Horst aan de Maas,Limburg,VBO,5.998685,51.415380
Kempkesstraat,23,,,5976PD,Kronenberg,Horst aan de Maas,Limburg,VBO,5.998771,51.415353
Kempkesstraat,25,,,5976PD,Kronenberg,Horst aan de Maas,Limburg,VBO,5.998914,51.415271
Kempkesstraat,27,,,5976PD,Kronenberg,Horst aan de Maas,Limburg,VBO,5.998956,51.415217
Kempkesstraat,29,,,5976PD,Kronenberg,Horst aan de Maas,Limburg,VBO,5.998767,51.415029
Kempkesstraat,31,,,5976PD,Kronenberg,Horst aan de Maas,Limburg,VBO,5.998809,51.414975
Kempkesstraat,2,,,5976PE,Kronenberg,Horst aan de Maas,Limburg,VBO,5.998119,51.416013
Kempkesstraat,4,,,5976PE,Kronenberg,Horst aan de Maas,Limburg,VBO,5.998031,51.415896
Kempkesstraat,6,,,5976PE,Kronenberg,Horst aan de Maas,Limburg,VBO,5.998002,51.415869
Kempkesstraat,8,,,5976PE,Kronenberg,Horst aan de Maas,Limburg,VBO,5.997899,51.415744
Kempkesstraat,10,,,5976PE,Kronenberg,Horst aan de Maas,Limburg,VBO,5.997870,51.415708
Kempkesstraat,12,,,5976PE,Kronenberg,Horst aan de Maas,Limburg,VBO,5.997721,51.415314
Kempkesstraat,14,,,5976PE,Kronenberg,Horst aan de Maas,Limburg,VBO,5.997821,51.415277
Kempkesstraat,16,,,5976PE,Kronenberg,Horst aan de Maas,Limburg,VBO,5.998165,51.415167
Kempkesstraat,18,,,5976PE,Kronenberg,Horst aan de Maas,Limburg,VBO,5.998336,51.415068
Kempkesstraat,20,,,5976PE,Kronenberg,Horst aan de Maas,Limburg,VBO,5.998364,51.415014
Kempkesstraat,22,,,5976PE,Kronenberg,Horst aan de Maas,Limburg,VBO,5.998434,51.414905
Kempkesstraat,24,,,5976PE,Kronenberg,Horst aan de Maas,Limburg,VBO,5.998477,51.414860
Kempkesstraat,26,,,5976PE,Kronenberg,Horst aan de Maas,Limburg,VBO,5.998519,51.414797
Kempkesstraat,28,,,5976PE,Kronenberg,Horst aan de Maas,Limburg,VBO,5.998547,51.414752
Kempkesstraat,30,,,5976PE,Kronenberg,Horst aan de Maas,Limburg,VBO,5.998575,51.414707
Kempkesstraat,32,,,5976PE,Kronenberg,Horst aan de Maas,Limburg,VBO,5.998604,51.414662
De Es,1,,,5976PG,Kronenberg,Horst aan de Maas,Limburg,VBO,5.997617,51.415080
De Es,2,,,5976PG,Kronenberg,Horst aan de Maas,Limburg,VBO,5.997559,51.415018
De Es,4,,,5976PG,Kronenberg,Horst aan de Maas,Limburg,VBO,5.997786,51.414828
De Es,5,,,5976PG,Kronenberg,Horst aan de Maas,Limburg,VBO,5.997960,51.414899
De Es,6,,,5976PG,Kronenberg,Horst aan de Maas,Limburg,VBO,5.998004,51.414953
De Wilg,1,,,5976PH,Kronenberg,Horst aan de Maas,Limburg,VBO,5.997667,51.415548
De Wilg,2,,,5976PH,Kronenberg,Horst aan de Maas,Limburg,VBO,5.997609,51.415566
De Wilg,3,,,5976PH,Kronenberg,Horst aan de Maas,Limburg,VBO,5.997482,51.415728
De Wilg,4,,,5976PH,Kronenberg,Horst aan de Maas,Limburg,VBO,5.997425,51.415738
De Wilg,5,,,5976PH,Kronenberg,Horst aan de Maas,Limburg,VBO,5.997165,51.415676
De Wilg,6,,,5976PH,Kronenberg,Horst aan de Maas,Limburg,VBO,5.997078,51.415569
De Wilg,7,,,5976PH,Kronenberg,Horst aan de Maas,Limburg,VBO,5.997191,51.415451
De Wilg,8,,,5976PH,Kronenberg,Horst aan de Maas,Limburg,VBO,5.997277,51.415424
De Wilg,9,,,5976PH,Kronenberg,Horst aan de Maas,Limburg,VBO,5.997449,51.415369
De Wilg,10,,,5976PH,Kronenberg,Horst aan de Maas,Limburg,VBO,5.997549,51.415341
Schorfvenweg,3,,,5976PJ,Kronenberg,Horst aan de Maas,Limburg,VBO,5.970131,51.408282
Schorfvenweg,6,,,5976PJ,Kronenberg,Horst aan de Maas,Limburg,VBO,5.970171,51.406915
Schorfvenweg,10,,,5976PJ,Kronenberg,Horst aan de Maas,Limburg,VBO,5.974179,51.401151
Reindonckweg,1,,,5976PK,Kronenberg,Horst aan de Maas,Limburg,VBO,6.003001,51.418845
Reindonckweg,3,a,,5976PK,Kronenberg,Horst aan de Maas,Limburg,VBO,6.003384,51.419146
Reindonckweg,3,,,5976PK,Kronenberg,Horst aan de Maas,Limburg,VBO,6.003460,51.419219
Reindonckweg,4,,,5976PK,Kronenberg,Horst aan de Maas,Limburg,VBO,6.004172,51.419298
Reindonckweg,7,,,5976PK,Kronenberg,Horst aan de Maas,Limburg,VBO,6.004309,51.419881
Reindonckweg,8,,,5976PK,Kronenberg,Horst aan de Maas,Limburg,VBO,6.004964,51.420435
Reindonckweg,10,,,5976PK,Kronenberg,Horst aan de Maas,Limburg,VBO,6.004922,51.420543
Reindonckweg,11,,,5976PK,Kronenberg,Horst aan de Maas,Limburg,VBO,6.004468,51.421022
Reindonckweg,12,,,5976PK,Kronenberg,Horst aan de Maas,Limburg,VBO,6.004841,51.420930
Reindonckweg,13,,,5976PK,Kronenberg,Horst aan de Maas,Limburg,VBO,6.004441,51.421094
Reindonckweg,15,,,5976PK,Kronenberg,Horst aan de Maas,Limburg,VBO,6.004399,51.421166
Reindonckweg,16,,,5976PK,Kronenberg,Horst aan de Maas,Limburg,VBO,6.003539,51.422447
Reindonckweg,19,,,5976PK,Kronenberg,Horst aan de Maas,Limburg,VBO,6.002410,51.422956
Reindonckweg,20,,,5976PK,Kronenberg,Horst aan de Maas,Limburg,VBO,6.002575,51.423441
Reindonckweg,21,,,5976PK,Kronenberg,Horst aan de Maas,Limburg,VBO,6.002168,51.423147
Travers,5,,,5976PL,Kronenberg,Horst aan de Maas,Limburg,VBO,5.972338,51.413487
Den Bunder,2,,,5976PM,Kronenberg,Horst aan de Maas,Limburg,VBO,5.996786,51.413143
Den Bunder,4,,,5976PM,Kronenberg,Horst aan de Maas,Limburg,VBO,5.996859,51.413179
Den Bunder,6,,,5976PM,Kronenberg,Horst aan de Maas,Limburg,VBO,5.996931,51.413214
Den Bunder,8,,,5976PM,Kronenberg,Horst aan de Maas,Limburg,VBO,5.997003,51.413250
Den Bunder,10,,,5976PM,Kronenberg,Horst aan de Maas,Limburg,VBO,5.997028,51.412962
Den Bunder,12,,,5976PM,Kronenberg,Horst aan de Maas,Limburg,VBO,5.997101,51.412998
Den Bunder,14,,,5976PM,Kronenberg,Horst aan de Maas,Limburg,VBO,5.997173,51.413033
Den Bunder,16,,,5976PM,Kronenberg,Horst aan de Maas,Limburg,VBO,5.997245,51.413069
Den Bunder,18,,,5976PM,Kronenberg,Horst aan de Maas,Limburg,VBO,5.997193,51.413447
Den Bunder,20,,,5976PM,Kronenberg,Horst aan de Maas,Limburg,VBO,5.997250,51.413401
Den Bunder,22,,,5976PM,Kronenberg,Horst aan de Maas,Limburg,VBO,5.997307,51.413356
Den Bunder,24,,,5976PM,Kronenberg,Horst aan de Maas,Limburg,VBO,5.997364,51.413320
Den Bunder,26,,,5976PM,Kronenberg,Horst aan de Maas,Limburg,VBO,5.997449,51.413221
Den Bunder,28,,,5976PM,Kronenberg,Horst aan de Maas,Limburg,VBO,5.997491,51.413175
Den Bunder,30,,,5976PM,Kronenberg,Horst aan de Maas,Limburg,VBO,5.997548,51.413139
Den Bunder,1,,,5976PN,Kronenberg,Horst aan de Maas,Limburg,VBO,5.996460,51.413495
Den Bunder,7,,,5976PN,Kronenberg,Horst aan de Maas,Limburg,VBO,5.996835,51.413529
Den Bunder,9,,,5976PN,Kronenberg,Horst aan de Maas,Limburg,VBO,5.996979,51.413592
Den Bunder,11,,,5976PN,Kronenberg,Horst aan de Maas,Limburg,VBO,5.997037,51.413627
Den Bunder,13,,,5976PN,Kronenberg,Horst aan de Maas,Limburg,VBO,5.997411,51.413643
Den Bunder,15,,,5976PN,Kronenberg,Horst aan de Maas,Limburg,VBO,5.997468,51.413598
Den Bunder,17,,,5976PN,Kronenberg,Horst aan de Maas,Limburg,VBO,5.997525,51.413553
Den Bunder,19,,,5976PN,Kronenberg,Horst aan de Maas,Limburg,VBO,5.997568,51.413517
Den Bunder,21,,,5976PN,Kronenberg,Horst aan de Maas,Limburg,VBO,5.997653,51.413417
Den Bunder,23,,,5976PN,Kronenberg,Horst aan de Maas,Limburg,VBO,5.997710,51.413381
Den Bunder,25,,,5976PN,Kronenberg,Horst aan de Maas,Limburg,VBO,5.997752,51.413336
Den Bunder,27,,,5976PN,Kronenberg,Horst aan de Maas,Limburg,VBO,5.997809,51.413291
De Beuk,10,,,5976PP,Kronenberg,Horst aan de Maas,Limburg,VBO,5.996317,51.414575
De Beuk,12,,,5976PP,Kronenberg,Horst aan de Maas,Limburg,VBO,5.996663,51.414699
De Beuk,14,,,5976PP,Kronenberg,Horst aan de Maas,Limburg,VBO,5.996721,51.414726
De Beuk,16,,,5976PP,Kronenberg,Horst aan de Maas,Limburg,VBO,5.996866,51.414770
De Beuk,18,,,5976PP,Kronenberg,Horst aan de Maas,Limburg,VBO,5.996938,51.414796
De Beuk,20,,,5976PP,Kronenberg,Horst aan de Maas,Limburg,VBO,5.997151,51.414615
De Beuk,22,,,5976PP,Kronenberg,Horst aan de Maas,Limburg,VBO,5.997194,51.414570
De Beuk,26,,,5976PP,Kronenberg,Horst aan de Maas,Limburg,VBO,5.997384,51.414821
De Beuk,28,,,5976PP,Kronenberg,Horst aan de Maas,Limburg,VBO,5.997312,51.414848
De Beuk,30,,,5976PP,Kronenberg,Horst aan de Maas,Limburg,VBO,5.997026,51.414958
De Beuk,32,,,5976PP,Kronenberg,Horst aan de Maas,Limburg,VBO,5.996927,51.415057
De Beuk,38,,,5976PP,Kronenberg,Horst aan de Maas,Limburg,VBO,5.996785,51.415211
De Beuk,40,,,5976PP,Kronenberg,Horst aan de Maas,Limburg,VBO,5.996743,51.415256
De Beuk,42,,,5976PP,Kronenberg,Horst aan de Maas,Limburg,VBO,5.996601,51.415409
De Beuk,1,,,5976PR,Kronenberg,Horst aan de Maas,Limburg,VBO,5.996438,51.413963
De Beuk,3,,,5976PR,Kronenberg,Horst aan de Maas,Limburg,VBO,5.996395,51.414008
De Beuk,5,,,5976PR,Kronenberg,Horst aan de Maas,Limburg,VBO,5.996311,51.414107
De Beuk,7,,,5976PR,Kronenberg,Horst aan de Maas,Limburg,VBO,5.996268,51.414162
De Beuk,9,,,5976PR,Kronenberg,Horst aan de Maas,Limburg,VBO,5.996183,51.414252
De Beuk,11,,,5976PR,Kronenberg,Horst aan de Maas,Limburg,VBO,5.996141,51.414297
De Beuk,13,,,5976PR,Kronenberg,Horst aan de Maas,Limburg,VBO,5.996056,51.414387
De Beuk,15,,,5976PR,Kronenberg,Horst aan de Maas,Limburg,VBO,5.996013,51.414433
De Beuk,17,,,5976PR,Kronenberg,Horst aan de Maas,Limburg,VBO,5.995914,51.414532
De Beuk,19,,,5976PR,Kronenberg,Horst aan de Maas,Limburg,VBO,5.995829,51.414622
De Beuk,31,,,5976PR,Kronenberg,Horst aan de Maas,Limburg,VBO,5.996161,51.414737
De Beuk,33,,,5976PR,Kronenberg,Horst aan de Maas,Limburg,VBO,5.996233,51.414764
De Beuk,35,,,5976PR,Kronenberg,Horst aan de Maas,Limburg,VBO,5.996305,51.414782
De Beuk,37,,,5976PR,Kronenberg,Horst aan de Maas,Limburg,VBO,5.996363,51.414808
De Beuk,39,,,5976PR,Kronenberg,Horst aan de Maas,Limburg,VBO,5.996665,51.414919
De Beuk,41,,,5976PR,Kronenberg,Horst aan de Maas,Limburg,VBO,5.996588,51.414953
De Beuk,43,,,5976PR,Kronenberg,Horst aan de Maas,Limburg,VBO,5.996621,51.414968
De Beuk,45,,,5976PR,Kronenberg,Horst aan de Maas,Limburg,VBO,5.996573,51.415016
De Beuk,47,,,5976PR,Kronenberg,Horst aan de Maas,Limburg,VBO,5.996538,51.415008
De Beuk,49,,,5976PR,Kronenberg,Horst aan de Maas,Limburg,VBO,5.996529,51.415063
Steijvershorst,3,,,5976PS,Kronenberg,Horst aan de Maas,Limburg,VBO,6.002925,51.415322
Steijvershorst,9,,,5976PS,Kronenberg,Horst aan de Maas,Limburg,VBO,6.002779,51.416222
Steijvershorst,11,,,5976PS,Kronenberg,Horst aan de Maas,Limburg,VBO,6.002607,51.416295
Steijvershorst,13,,,5976PS,Kronenberg,Horst aan de Maas,Limburg,VBO,6.002493,51.416313
Steijvershorst,15,,,5976PS,Kronenberg,Horst aan de Maas,Limburg,VBO,6.002364,51.416332
Steijvershorst,17,,,5976PS,Kronenberg,Horst aan de Maas,Limburg,VBO,6.002220,51.416351
Steijvershorst,19,,,5976PS,Kronenberg,Horst aan de Maas,Limburg,VBO,6.002091,51.416369
Steijvershorst,21,,,5976PS,Kronenberg,Horst aan de Maas,Limburg,VBO,6.001976,51.416379
Steijvershorst,23,,,5976PS,Kronenberg,Horst aan de Maas,Limburg,VBO,6.001847,51.416398
Steijvershorst,4,,,5976PT,Kronenberg,Horst aan de Maas,Limburg,VBO,6.003226,51.415276
Steijvershorst,6,,,5976PT,Kronenberg,Horst aan de Maas,Limburg,VBO,6.003257,51.415428
Steijvershorst,8,,,5976PT,Kronenberg,Horst aan de Maas,Limburg,VBO,6.003216,51.415572
Steijvershorst,10,,,5976PT,Kronenberg,Horst aan de Maas,Limburg,VBO,6.003146,51.415708
Steijvershorst,12,,,5976PT,Kronenberg,Horst aan de Maas,Limburg,VBO,6.003121,51.416022
Steijvershorst,14,,,5976PT,Kronenberg,Horst aan de Maas,Limburg,VBO,6.003138,51.416184
Steijvershorst,16,,,5976PT,Kronenberg,Horst aan de Maas,Limburg,VBO,6.003054,51.416328
Steijvershorst,18,,,5976PT,Kronenberg,Horst aan de Maas,Limburg,VBO,6.002882,51.416419
Steijvershorst,20,,,5976PT,Kronenberg,Horst aan de Maas,Limburg,VBO,6.002668,51.416483
Steijvershorst,22,,,5976PT,Kronenberg,Horst aan de Maas,Limburg,VBO,6.002481,51.416511
Steijvershorst,24,,,5976PT,Kronenberg,Horst aan de Maas,Limburg,VBO,6.002223,51.416539
Steijvershorst,26,,,5976PT,Kronenberg,Horst aan de Maas,Limburg,VBO,6.002122,51.416549
Steijvershorst,28,,,5976PT,Kronenberg,Horst aan de Maas,Limburg,VBO,6.001964,51.416577
Steijvershorst,30,,,5976PT,Kronenberg,Horst aan de Maas,Limburg,VBO,6.001821,51.416586
Den Spittheuvel,1,,,5976PV,Kronenberg,Horst aan de Maas,Limburg,VBO,6.002857,51.415646
Den Spittheuvel,2,,,5976PV,Kronenberg,Horst aan de Maas,Limburg,VBO,6.002685,51.415629
Den Spittheuvel,3,,,5976PV,Kronenberg,Horst aan de Maas,Limburg,VBO,6.002599,51.415630
Den Spittheuvel,4,,,5976PV,Kronenberg,Horst aan de Maas,Limburg,VBO,6.002426,51.415621
Den Spittheuvel,5,,,5976PV,Kronenberg,Horst aan de Maas,Limburg,VBO,6.002325,51.415622
Den Spittheuvel,6,,,5976PV,Kronenberg,Horst aan de Maas,Limburg,VBO,6.002153,51.415605
Den Spittheuvel,7,,,5976PV,Kronenberg,Horst aan de Maas,Limburg,VBO,6.002052,51.415596
Den Spittheuvel,8,,,5976PV,Kronenberg,Horst aan de Maas,Limburg,VBO,6.001882,51.415786
Den Spittheuvel,9,,,5976PV,Kronenberg,Horst aan de Maas,Limburg,VBO,6.001940,51.415840
Den Spittheuvel,10,,,5976PV,Kronenberg,Horst aan de Maas,Limburg,VBO,6.002071,51.415920
Den Spittheuvel,11,,,5976PV,Kronenberg,Horst aan de Maas,Limburg,VBO,6.002172,51.415955
Den Spittheuvel,12,,,5976PV,Kronenberg,Horst aan de Maas,Limburg,VBO,6.002359,51.416008
Den Spittheuvel,13,,,5976PV,Kronenberg,Horst aan de Maas,Limburg,VBO,6.002460,51.416017
Den Spittheuvel,14,,,5976PV,Kronenberg,Horst aan de Maas,Limburg,VBO,6.002661,51.416016
Den Spittheuvel,15,,,5976PV,Kronenberg,Horst aan de Maas,Limburg,VBO,6.002762,51.415997
