openbareruimtenaam,huisnummer,huisletter,huisnummertoevoeging,postcode,woonplaatsnaam,gemeentenaam,provincienaam,typeadresseerbaarobject,longitude,latitude
Maaseikerweg,23,,,6005AA,Weert,Weert,Limburg,VBO,5.715212,51.247764
Maaseikerweg,25,,,6005AA,Weert,Weert,Limburg,VBO,5.715373,51.247551
Maaseikerweg,27,,,6005AA,Weert,Weert,Limburg,VBO,5.715552,51.247305
Maaseikerweg,29,,,6005AA,Weert,Weert,Limburg,VBO,5.715749,51.246979
Maaseikerweg,33,,,6005AA,Weert,Weert,Limburg,VBO,5.715748,51.246416
Maaseikerweg,35,,,6005AA,Weert,Weert,Limburg,VBO,5.715823,51.246321
Maaseikerweg,37,,,6005AA,Weert,Weert,Limburg,VBO,5.715858,51.246260
Maaseikerweg,39,,,6005AA,Weert,Weert,Limburg,VBO,5.715957,51.246075
Maaseikerweg,41,,,6005AA,Weert,Weert,Limburg,VBO,5.716029,51.245954
Maaseikerweg,43,,,6005AA,Weert,Weert,Limburg,VBO,5.716063,51.245900
Maaseikerweg,45,,,6005AA,Weert,Weert,Limburg,VBO,5.716120,51.245810
Maaseikerweg,47,,,6005AA,Weert,Weert,Limburg,VBO,5.716166,51.245739
Maaseikerweg,49,,,6005AA,Weert,Weert,Limburg,VBO,5.716258,51.245598
Maaseikerweg,51,,,6005AA,Weert,Weert,Limburg,VBO,5.716293,51.245542
Maaseikerweg,53,,,6005AA,Weert,Weert,Limburg,VBO,5.716369,51.245422
Maaseikerweg,55,,,6005AA,Weert,Weert,Limburg,VBO,5.716471,51.245292
Maaseikerweg,57,,,6005AB,Weert,Weert,Limburg,VBO,5.716506,51.245237
Maaseikerweg,59,,,6005AB,Weert,Weert,Limburg,VBO,5.716567,51.245107
Maaseikerweg,61,,,6005AB,Weert,Weert,Limburg,VBO,5.716654,51.245006
Maaseikerweg,63,,,6005AB,Weert,Weert,Limburg,VBO,5.716723,51.244898
Maaseikerweg,65,,,6005AB,Weert,Weert,Limburg,VBO,5.716802,51.244779
Maaseikerweg,67,,,6005AB,Weert,Weert,Limburg,VBO,5.716919,51.244601
Maaseikerweg,69,,,6005AB,Weert,Weert,Limburg,VBO,5.716978,51.244447
Maaseikerweg,71,,,6005AB,Weert,Weert,Limburg,VBO,5.717162,51.244234
Maaseikerweg,73,,,6005AB,Weert,Weert,Limburg,VBO,5.717201,51.244174
Maaseikerweg,75,,,6005AB,Weert,Weert,Limburg,VBO,5.717288,51.244037
Maaseikerweg,77,,,6005AB,Weert,Weert,Limburg,VBO,5.717387,51.243874
Maaseikerweg,79,,,6005AB,Weert,Weert,Limburg,VBO,5.717499,51.243714
Maaseikerweg,81,,,6005AB,Weert,Weert,Limburg,VBO,5.717640,51.243363
Maaseikerweg,83,,,6005AB,Weert,Weert,Limburg,VBO,5.717666,51.243286
Maaseikerweg,85,,,6005AB,Weert,Weert,Limburg,VBO,5.717706,51.243155
Maaseikerweg,87,,,6005AB,Weert,Weert,Limburg,VBO,5.717738,51.243035
Maaseikerweg,89,,,6005AB,Weert,Weert,Limburg,VBO,5.717749,51.242972
Maaseikerweg,91,,,6005AB,Weert,Weert,Limburg,VBO,5.717754,51.242820
Maaseikerweg,93,,,6005AB,Weert,Weert,Limburg,VBO,5.717750,51.242685
Maaseikerweg,95,,,6005AB,Weert,Weert,Limburg,VBO,5.717749,51.242621
Maaseikerweg,97,,,6005AB,Weert,Weert,Limburg,VBO,5.717746,51.242503
Maaseikerweg,99,,,6005AB,Weert,Weert,Limburg,VBO,5.717744,51.242439
Maaseikerweg,101,,,6005AB,Weert,Weert,Limburg,VBO,5.717742,51.242312
Maaseikerweg,103,,,6005AC,Weert,Weert,Limburg,VBO,5.717738,51.242186
Maaseikerweg,107,,,6005AC,Weert,Weert,Limburg,VBO,5.717619,51.241842
Maaseikerweg,109,A,,6005AC,Weert,Weert,Limburg,VBO,5.717739,51.241641
Maaseikerweg,109,,,6005AC,Weert,Weert,Limburg,VBO,5.717726,51.241678
Maaseikerweg,111,,,6005AC,Weert,Weert,Limburg,VBO,5.717724,51.241531
Maaseikerweg,113,,,6005AC,Weert,Weert,Limburg,VBO,5.717730,51.241217
Maaseikerweg,115,,,6005AC,Weert,Weert,Limburg,VBO,5.717740,51.241084
Maaseikerweg,117,,,6005AC,Weert,Weert,Limburg,VBO,5.717750,51.240950
Maaseikerweg,119,,,6005AC,Weert,Weert,Limburg,VBO,5.717762,51.240801
Maaseikerweg,121,,,6005AC,Weert,Weert,Limburg,VBO,5.717771,51.240668
Maaseikerweg,123,,,6005AC,Weert,Weert,Limburg,VBO,5.717780,51.240527
Maaseikerweg,125,,,6005AC,Weert,Weert,Limburg,VBO,5.717792,51.240377
Maaseikerweg,127,,,6005AC,Weert,Weert,Limburg,VBO,5.717800,51.240195
Maaseikerweg,129,,,6005AC,Weert,Weert,Limburg,VBO,5.717807,51.240057
Maaseikerweg,131,,,6005AC,Weert,Weert,Limburg,VBO,5.717814,51.239915
Maaseikerweg,133,,,6005AC,Weert,Weert,Limburg,VBO,5.717823,51.239773
Maaseikerweg,135,,,6005AC,Weert,Weert,Limburg,VBO,5.717933,51.239598
Maaseikerweg,143,,,6005AC,Weert,Weert,Limburg,VBO,5.717992,51.239305
Maaseikerweg,153,,,6005AD,Weert,Weert,Limburg,VBO,5.718445,51.238136
Maaseikerweg,155,,,6005AD,Weert,Weert,Limburg,VBO,5.718788,51.238079
Maaseikerweg,161,,,6005AD,Weert,Weert,Limburg,VBO,5.718812,51.237103
Maaseikerweg,163,,,6005AD,Weert,Weert,Limburg,VBO,5.719065,51.236979
Maaseikerweg,165,A,,6005AD,Weert,Weert,Limburg,VBO,5.720050,51.237021
Maaseikerweg,165,,,6005AD,Weert,Weert,Limburg,VBO,5.719115,51.236874
Maaseikerweg,167,,,6005AD,Weert,Weert,Limburg,VBO,5.719460,51.236376
Maaseikerweg,169,A,,6005AD,Weert,Weert,Limburg,VBO,5.720020,51.235675
Maaseikerweg,169,,,6005AD,Weert,Weert,Limburg,VBO,5.719808,51.236104
Maaseikerweg,171,,,6005AD,Weert,Weert,Limburg,VBO,5.720063,51.235591
Maaseikerweg,173,,,6005AD,Weert,Weert,Limburg,VBO,5.720279,51.235323
Maaseikerweg,175,,,6005AD,Weert,Weert,Limburg,VBO,5.720977,51.234499
Maaseikerweg,177,,,6005AD,Weert,Weert,Limburg,VBO,5.721835,51.234006
Maaseikerweg,189,,,6005AD,Weert,Weert,Limburg,VBO,5.721179,51.229101
Maaseikerweg,191,,,6005AD,Weert,Weert,Limburg,VBO,5.720765,51.228585
Maaseikerweg,207,,,6005AD,Weert,Weert,Limburg,VBO,5.720808,51.222806
Pimpelmeeshof,1,,,6005JK,Weert,Weert,Limburg,VBO,5.720487,51.246524
Pimpelmeeshof,2,,,6005JK,Weert,Weert,Limburg,VBO,5.720466,51.246564
Pimpelmeeshof,3,,,6005JK,Weert,Weert,Limburg,VBO,5.720441,51.246610
Pimpelmeeshof,4,,,6005JK,Weert,Weert,Limburg,VBO,5.720416,51.246649
Pimpelmeeshof,5,,,6005JK,Weert,Weert,Limburg,VBO,5.720414,51.246699
Pimpelmeeshof,6,,,6005JK,Weert,Weert,Limburg,VBO,5.720447,51.246736
Pimpelmeeshof,7,,,6005JK,Weert,Weert,Limburg,VBO,5.720482,51.246781
Pimpelmeeshof,8,,,6005JK,Weert,Weert,Limburg,VBO,5.720509,51.246820
Pimpelmeeshof,9,,,6005JK,Weert,Weert,Limburg,VBO,5.720563,51.246855
Pimpelmeeshof,10,,,6005JK,Weert,Weert,Limburg,VBO,5.720621,51.246866
Pimpelmeeshof,11,,,6005JK,Weert,Weert,Limburg,VBO,5.720699,51.246883
Pimpelmeeshof,12,,,6005JK,Weert,Weert,Limburg,VBO,5.720769,51.246898
Pimpelmeeshof,13,,,6005JK,Weert,Weert,Limburg,VBO,5.720843,51.246914
Pimpelmeeshof,14,,,6005JK,Weert,Weert,Limburg,VBO,5.720906,51.246929
Pimpelmeeshof,15,,,6005JK,Weert,Weert,Limburg,VBO,5.720984,51.246934
Pimpelmeeshof,16,,,6005JK,Weert,Weert,Limburg,VBO,5.721044,51.246913
Pimpelmeeshof,17,,,6005JK,Weert,Weert,Limburg,VBO,5.721116,51.246892
Pimpelmeeshof,18,,,6005JK,Weert,Weert,Limburg,VBO,5.721178,51.246875
Pimpelmeeshof,19,,,6005JK,Weert,Weert,Limburg,VBO,5.721239,51.246842
Pimpelmeeshof,20,,,6005JK,Weert,Weert,Limburg,VBO,5.721256,51.246804
Pimpelmeeshof,21,,,6005JK,Weert,Weert,Limburg,VBO,5.721284,51.246754
Pimpelmeeshof,22,,,6005JK,Weert,Weert,Limburg,VBO,5.721308,51.246717
Pimpelmeeshof,23,,,6005JK,Weert,Weert,Limburg,VBO,5.721318,51.246667
Pimpelmeeshof,24,,,6005JK,Weert,Weert,Limburg,VBO,5.721285,51.246630
Pimpelmeeshof,25,,,6005JK,Weert,Weert,Limburg,VBO,5.721250,51.246585
Geelgorshof,1,,,6005JL,Weert,Weert,Limburg,VBO,5.718820,51.246659
Geelgorshof,2,,,6005JL,Weert,Weert,Limburg,VBO,5.718745,51.246715
Geelgorshof,3,,,6005JL,Weert,Weert,Limburg,VBO,5.718719,51.246762
Geelgorshof,4,,,6005JL,Weert,Weert,Limburg,VBO,5.718694,51.246801
Geelgorshof,5,,,6005JL,Weert,Weert,Limburg,VBO,5.718693,51.246851
Geelgorshof,6,,,6005JL,Weert,Weert,Limburg,VBO,5.718726,51.246888
Geelgorshof,7,,,6005JL,Weert,Weert,Limburg,VBO,5.718761,51.246933
Geelgorshof,8,,,6005JL,Weert,Weert,Limburg,VBO,5.718787,51.246972
Geelgorshof,9,,,6005JL,Weert,Weert,Limburg,VBO,5.718842,51.247007
Geelgorshof,10,,,6005JL,Weert,Weert,Limburg,VBO,5.718899,51.247018
Geelgorshof,11,,,6005JL,Weert,Weert,Limburg,VBO,5.718977,51.247034
Geelgorshof,12,,,6005JL,Weert,Weert,Limburg,VBO,5.719048,51.247050
Geelgorshof,13,,,6005JL,Weert,Weert,Limburg,VBO,5.719122,51.247066
Geelgorshof,14,,,6005JL,Weert,Weert,Limburg,VBO,5.719185,51.247081
Geelgorshof,15,,,6005JL,Weert,Weert,Limburg,VBO,5.719263,51.247086
Geelgorshof,16,,,6005JL,Weert,Weert,Limburg,VBO,5.719322,51.247065
Geelgorshof,17,,,6005JL,Weert,Weert,Limburg,VBO,5.719393,51.247044
Geelgorshof,18,,,6005JL,Weert,Weert,Limburg,VBO,5.719463,51.247022
Geelgorshof,19,,,6005JL,Weert,Weert,Limburg,VBO,5.719534,51.247001
Geelgorshof,20,,,6005JL,Weert,Weert,Limburg,VBO,5.719592,51.246985
Geelgorshof,21,,,6005JL,Weert,Weert,Limburg,VBO,5.719656,51.246951
Geelgorshof,22,,,6005JL,Weert,Weert,Limburg,VBO,5.719652,51.246906
Geelgorshof,23,,,6005JL,Weert,Weert,Limburg,VBO,5.719698,51.246869
Geelgorshof,24,,,6005JL,Weert,Weert,Limburg,VBO,5.719726,51.246823
Geelgorshof,25,,,6005JL,Weert,Weert,Limburg,VBO,5.719738,51.246780
Geelgorshof,26,,,6005JL,Weert,Weert,Limburg,VBO,5.719702,51.246740
Geelgorshof,27,,,6005JL,Weert,Weert,Limburg,VBO,5.719668,51.246695
Geelgorshof,28,,,6005JL,Weert,Weert,Limburg,VBO,5.719582,51.246639
Karekiethof,9,,,6005JM,Weert,Weert,Limburg,VBO,5.716899,51.246997
Karekiethof,10,,,6005JM,Weert,Weert,Limburg,VBO,5.716958,51.247073
Karekiethof,11,,,6005JM,Weert,Weert,Limburg,VBO,5.717018,51.247115
Karekiethof,12,,,6005JM,Weert,Weert,Limburg,VBO,5.717163,51.247146
Karekiethof,13,,,6005JM,Weert,Weert,Limburg,VBO,5.717238,51.247162
Karekiethof,14,,,6005JM,Weert,Weert,Limburg,VBO,5.717388,51.247194
Karekiethof,15,,,6005JM,Weert,Weert,Limburg,VBO,5.717465,51.247201
Karekiethof,16,,,6005JM,Weert,Weert,Limburg,VBO,5.717536,51.247179
Karekiethof,17,,,6005JM,Weert,Weert,Limburg,VBO,5.717606,51.247157
Karekiethof,18,,,6005JM,Weert,Weert,Limburg,VBO,5.717675,51.247136
Karekiethof,19,,,6005JM,Weert,Weert,Limburg,VBO,5.717744,51.247115
Karekiethof,20,,,6005JM,Weert,Weert,Limburg,VBO,5.717804,51.247099
Karekiethof,21,,,6005JM,Weert,Weert,Limburg,VBO,5.717868,51.247066
Karekiethof,22,,,6005JM,Weert,Weert,Limburg,VBO,5.717886,51.247027
Karekiethof,23,,,6005JM,Weert,Weert,Limburg,VBO,5.717912,51.246980
Karekiethof,24,,,6005JM,Weert,Weert,Limburg,VBO,5.717940,51.246936
Karekiethof,25,,,6005JM,Weert,Weert,Limburg,VBO,5.717950,51.246893
Karekiethof,26,,,6005JM,Weert,Weert,Limburg,VBO,5.717915,51.246853
Karekiethof,27,,,6005JM,Weert,Weert,Limburg,VBO,5.717880,51.246808
Patrijshof,1,,,6005JN,Weert,Weert,Limburg,VBO,5.718019,51.246120
Patrijshof,2,,,6005JN,Weert,Weert,Limburg,VBO,5.717947,51.246142
Patrijshof,3,,,6005JN,Weert,Weert,Limburg,VBO,5.717792,51.246189
Patrijshof,4,,,6005JN,Weert,Weert,Limburg,VBO,5.717716,51.246212
Patrijshof,5,,,6005JN,Weert,Weert,Limburg,VBO,5.717473,51.246187
Patrijshof,6,,,6005JN,Weert,Weert,Limburg,VBO,5.717393,51.246169
Patrijshof,7,,,6005JN,Weert,Weert,Limburg,VBO,5.717218,51.246106
Patrijshof,8,,,6005JN,Weert,Weert,Limburg,VBO,5.717142,51.246129
Patrijshof,9,,,6005JN,Weert,Weert,Limburg,VBO,5.717105,51.246250
Patrijshof,10,,,6005JN,Weert,Weert,Limburg,VBO,5.717080,51.246296
Patrijshof,11,,,6005JN,Weert,Weert,Limburg,VBO,5.716975,51.246408
Patrijshof,12,,,6005JN,Weert,Weert,Limburg,VBO,5.717011,51.246453
Patrijshof,13,,,6005JN,Weert,Weert,Limburg,VBO,5.717198,51.246479
Patrijshof,14,,,6005JN,Weert,Weert,Limburg,VBO,5.717279,51.246496
Patrijshof,15,,,6005JN,Weert,Weert,Limburg,VBO,5.717621,51.246491
Patrijshof,16,,,6005JN,Weert,Weert,Limburg,VBO,5.717692,51.246470
Patrijshof,17,,,6005JN,Weert,Weert,Limburg,VBO,5.717852,51.246421
Patrijshof,18,,,6005JN,Weert,Weert,Limburg,VBO,5.717924,51.246399
Patrijshof,19,,,6005JN,Weert,Weert,Limburg,VBO,5.718084,51.246350
Patrijshof,20,,,6005JN,Weert,Weert,Limburg,VBO,5.718152,51.246329
Meerkoethof,1,,,6005JP,Weert,Weert,Limburg,VBO,5.717929,51.245477
Meerkoethof,2,,,6005JP,Weert,Weert,Limburg,VBO,5.717704,51.245428
Meerkoethof,3,,,6005JP,Weert,Weert,Limburg,VBO,5.717444,51.245357
Meerkoethof,4,,,6005JP,Weert,Weert,Limburg,VBO,5.717315,51.245509
Meerkoethof,5,,,6005JP,Weert,Weert,Limburg,VBO,5.717242,51.245642
Meerkoethof,6,,,6005JP,Weert,Weert,Limburg,VBO,5.717158,51.245784
Meerkoethof,7,,,6005JP,Weert,Weert,Limburg,VBO,5.717457,51.245851
Meerkoethof,8,,,6005JP,Weert,Weert,Limburg,VBO,5.717734,51.245836
Merelhof,1,,,6005JR,Weert,Weert,Limburg,VBO,5.718981,51.244944
Merelhof,2,,,6005JR,Weert,Weert,Limburg,VBO,5.718807,51.244907
Merelhof,3,,,6005JR,Weert,Weert,Limburg,VBO,5.718726,51.244889
Merelhof,4,,,6005JR,Weert,Weert,Limburg,VBO,5.718569,51.244855
Merelhof,5,,,6005JR,Weert,Weert,Limburg,VBO,5.718487,51.244838
Merelhof,6,,,6005JR,Weert,Weert,Limburg,VBO,5.718198,51.244775
Merelhof,7,,,6005JR,Weert,Weert,Limburg,VBO,5.718036,51.244740
Merelhof,8,,,6005JR,Weert,Weert,Limburg,VBO,5.717967,51.244725
Merelhof,9,,,6005JR,Weert,Weert,Limburg,VBO,5.717856,51.244677
Merelhof,10,,,6005JR,Weert,Weert,Limburg,VBO,5.717617,51.244719
Merelhof,11,,,6005JR,Weert,Weert,Limburg,VBO,5.717589,51.244770
Merelhof,12,,,6005JR,Weert,Weert,Limburg,VBO,5.717533,51.244917
Merelhof,13,,,6005JR,Weert,Weert,Limburg,VBO,5.717501,51.244977
Merelhof,14,,,6005JR,Weert,Weert,Limburg,VBO,5.717653,51.245066
Merelhof,15,,,6005JR,Weert,Weert,Limburg,VBO,5.717734,51.245083
Merelhof,16,,,6005JR,Weert,Weert,Limburg,VBO,5.717898,51.245118
Merelhof,17,,,6005JR,Weert,Weert,Limburg,VBO,5.717974,51.245135
Merelhof,18,,,6005JR,Weert,Weert,Limburg,VBO,5.718324,51.245100
Merelhof,19,,,6005JR,Weert,Weert,Limburg,VBO,5.718460,51.245232
Leeuwerikhof,1,,,6005JS,Weert,Weert,Limburg,VBO,5.720471,51.245398
Leeuwerikhof,2,,,6005JS,Weert,Weert,Limburg,VBO,5.720444,51.245448
Leeuwerikhof,3,,,6005JS,Weert,Weert,Limburg,VBO,5.720386,51.245553
Leeuwerikhof,4,,,6005JS,Weert,Weert,Limburg,VBO,5.720360,51.245600
Leeuwerikhof,5,,,6005JS,Weert,Weert,Limburg,VBO,5.720216,51.245704
Leeuwerikhof,6,,,6005JS,Weert,Weert,Limburg,VBO,5.720144,51.245726
Leeuwerikhof,7,,,6005JS,Weert,Weert,Limburg,VBO,5.719985,51.245776
Leeuwerikhof,8,,,6005JS,Weert,Weert,Limburg,VBO,5.719913,51.245798
Leeuwerikhof,9,,,6005JS,Weert,Weert,Limburg,VBO,5.719752,51.245848
Leeuwerikhof,10,,,6005JS,Weert,Weert,Limburg,VBO,5.719782,51.245597
Leeuwerikhof,11,,,6005JS,Weert,Weert,Limburg,VBO,5.719746,51.245551
Leeuwerikhof,12,,,6005JS,Weert,Weert,Limburg,VBO,5.719684,51.245442
Leeuwerikhof,13,,,6005JS,Weert,Weert,Limburg,VBO,5.719673,51.245389
Leeuwerikhof,14,,,6005JS,Weert,Weert,Limburg,VBO,5.719717,51.245277
Leeuwerikhof,15,,,6005JS,Weert,Weert,Limburg,VBO,5.719745,51.245226
Leeuwerikhof,16,,,6005JS,Weert,Weert,Limburg,VBO,5.719734,51.245109
Leeuwerikhof,17,,,6005JS,Weert,Weert,Limburg,VBO,5.719837,51.245090
Leeuwerikhof,18,,,6005JS,Weert,Weert,Limburg,VBO,5.719975,51.245149
Leeuwerikhof,19,,,6005JS,Weert,Weert,Limburg,VBO,5.720056,51.245166
Leeuwerikhof,20,,,6005JS,Weert,Weert,Limburg,VBO,5.720225,51.245202
Koolmeeshof,1,,,6005JT,Weert,Weert,Limburg,VBO,5.721276,51.246060
Koolmeeshof,2,,,6005JT,Weert,Weert,Limburg,VBO,5.721242,51.246017
Koolmeeshof,3,,,6005JT,Weert,Weert,Limburg,VBO,5.721179,51.245889
Koolmeeshof,4,,,6005JT,Weert,Weert,Limburg,VBO,5.721106,51.245873
Koolmeeshof,5,,,6005JT,Weert,Weert,Limburg,VBO,5.720944,51.245942
Koolmeeshof,6,,,6005JT,Weert,Weert,Limburg,VBO,5.720870,51.245965
Koolmeeshof,7,,,6005JT,Weert,Weert,Limburg,VBO,5.720675,51.245997
Koolmeeshof,8,,,6005JT,Weert,Weert,Limburg,VBO,5.720649,51.246043
Koolmeeshof,9,,,6005JT,Weert,Weert,Limburg,VBO,5.720759,51.246153
Koolmeeshof,10,,,6005JT,Weert,Weert,Limburg,VBO,5.720791,51.246194
Koolmeeshof,11,,,6005JT,Weert,Weert,Limburg,VBO,5.720783,51.246288
Kievitlaan,2,,,6005JV,Weert,Weert,Limburg,VBO,5.722439,51.245842
Kievitlaan,4,,,6005JV,Weert,Weert,Limburg,VBO,5.722363,51.245983
Kievitlaan,6,,,6005JV,Weert,Weert,Limburg,VBO,5.722291,51.246113
Kievitlaan,8,,,6005JV,Weert,Weert,Limburg,VBO,5.722220,51.246242
Kievitlaan,10,,,6005JV,Weert,Weert,Limburg,VBO,5.722146,51.246378
Kievitlaan,12,,,6005JV,Weert,Weert,Limburg,VBO,5.722064,51.246528
Kievitlaan,1,,,6005JW,Weert,Weert,Limburg,VBO,5.721951,51.245986
Kievitlaan,3,,,6005JW,Weert,Weert,Limburg,VBO,5.721924,51.246036
Kievitlaan,5,,,6005JW,Weert,Weert,Limburg,VBO,5.721761,51.246162
Kievitlaan,7,,,6005JW,Weert,Weert,Limburg,VBO,5.721683,51.246186
Kievitlaan,9,,,6005JW,Weert,Weert,Limburg,VBO,5.721526,51.246234
Kievitlaan,11,,,6005JW,Weert,Weert,Limburg,VBO,5.721450,51.246257
Kievitlaan,13,,,6005JW,Weert,Weert,Limburg,VBO,5.720051,51.246257
Kievitlaan,15,,,6005JW,Weert,Weert,Limburg,VBO,5.719978,51.246279
Kievitlaan,17,,,6005JW,Weert,Weert,Limburg,VBO,5.719820,51.246328
Kievitlaan,19,,,6005JW,Weert,Weert,Limburg,VBO,5.719746,51.246350
Kievitlaan,21,,,6005JW,Weert,Weert,Limburg,VBO,5.719588,51.246398
Kievitlaan,23,,,6005JW,Weert,Weert,Limburg,VBO,5.719518,51.246420
Kievitlaan,25,,,6005JW,Weert,Weert,Limburg,VBO,5.719360,51.246468
Kievitlaan,27,,,6005JW,Weert,Weert,Limburg,VBO,5.719287,51.246491
Kievitlaan,29,,,6005JW,Weert,Weert,Limburg,VBO,5.718634,51.246331
Kievitlaan,31,,,6005JW,Weert,Weert,Limburg,VBO,5.718598,51.246285
Kievitlaan,33,,,6005JW,Weert,Weert,Limburg,VBO,5.718528,51.246196
Kievitlaan,35,,,6005JW,Weert,Weert,Limburg,VBO,5.718494,51.246153
Kievitlaan,37,,,6005JW,Weert,Weert,Limburg,VBO,5.718423,51.246062
Kievitlaan,39,,,6005JW,Weert,Weert,Limburg,VBO,5.718389,51.246018
Kievitlaan,41,,,6005JW,Weert,Weert,Limburg,VBO,5.718317,51.245925
Kievitlaan,43,,,6005JW,Weert,Weert,Limburg,VBO,5.718285,51.245884
Kievitlaan,45,,,6005JW,Weert,Weert,Limburg,VBO,5.718324,51.245590
Kievitlaan,47,,,6005JW,Weert,Weert,Limburg,VBO,5.718489,51.245525
Kievitlaan,49,,,6005JW,Weert,Weert,Limburg,VBO,5.718663,51.245471
Kievitlaan,51,,,6005JW,Weert,Weert,Limburg,VBO,5.718850,51.245429
Kievitlaan,53,,,6005JW,Weert,Weert,Limburg,VBO,5.719019,51.245377
Kievitlaan,55,,,6005JW,Weert,Weert,Limburg,VBO,5.719184,51.245204
Kievitlaan,57,,,6005JW,Weert,Weert,Limburg,VBO,5.719211,51.245154
Kievitlaan,59,,,6005JW,Weert,Weert,Limburg,VBO,5.719267,51.245053
Kievitlaan,61,,,6005JW,Weert,Weert,Limburg,VBO,5.719295,51.245000
Kievitlaan,63,,,6005JW,Weert,Weert,Limburg,VBO,5.719349,51.244902
Kievitlaan,65,,,6005JW,Weert,Weert,Limburg,VBO,5.719377,51.244852
Kievitlaan,67,,,6005JW,Weert,Weert,Limburg,VBO,5.719432,51.244751
Kievitlaan,69,,,6005JW,Weert,Weert,Limburg,VBO,5.719459,51.244701
Fuutstraat,4,,,6005JZ,Weert,Weert,Limburg,VBO,5.723132,51.246186
Fuutstraat,6,,,6005JZ,Weert,Weert,Limburg,VBO,5.722914,51.246243
Fuutstraat,10,,,6005JZ,Weert,Weert,Limburg,VBO,5.722391,51.246884
Graswinkellaan,6,,,6005KA,Weert,Weert,Limburg,VBO,5.718464,51.243457
Graswinkellaan,8,,,6005KA,Weert,Weert,Limburg,VBO,5.718466,51.243402
Graswinkellaan,10,,,6005KA,Weert,Weert,Limburg,VBO,5.718471,51.243288
Graswinkellaan,12,,,6005KA,Weert,Weert,Limburg,VBO,5.718473,51.243233
Graswinkellaan,14,,,6005KA,Weert,Weert,Limburg,VBO,5.718478,51.243124
Graswinkellaan,16,,,6005KA,Weert,Weert,Limburg,VBO,5.718480,51.243069
Graswinkellaan,18,,,6005KA,Weert,Weert,Limburg,VBO,5.718485,51.242959
Graswinkellaan,20,,,6005KA,Weert,Weert,Limburg,VBO,5.718487,51.242902
Graswinkellaan,22,,,6005KA,Weert,Weert,Limburg,VBO,5.718492,51.242793
Graswinkellaan,24,,,6005KA,Weert,Weert,Limburg,VBO,5.718494,51.242737
Graswinkellaan,26,,,6005KA,Weert,Weert,Limburg,VBO,5.718498,51.242628
Graswinkellaan,28,,,6005KA,Weert,Weert,Limburg,VBO,5.718500,51.242573
Graswinkellaan,30,,,6005KA,Weert,Weert,Limburg,VBO,5.718528,51.242455
Graswinkellaan,32,,,6005KA,Weert,Weert,Limburg,VBO,5.718587,51.242414
Graswinkellaan,34,,,6005KA,Weert,Weert,Limburg,VBO,5.718785,51.242397
Graswinkellaan,36,,,6005KA,Weert,Weert,Limburg,VBO,5.718872,51.242389
Graswinkellaan,38,,,6005KA,Weert,Weert,Limburg,VBO,5.719045,51.242375
Graswinkellaan,40,,,6005KA,Weert,Weert,Limburg,VBO,5.719132,51.242367
Graswinkellaan,42,,,6005KA,Weert,Weert,Limburg,VBO,5.719923,51.242310
Graswinkellaan,44,,,6005KA,Weert,Weert,Limburg,VBO,5.720006,51.242304
Graswinkellaan,46,,,6005KA,Weert,Weert,Limburg,VBO,5.720174,51.242289
Graswinkellaan,48,,,6005KA,Weert,Weert,Limburg,VBO,5.720258,51.242283
Graswinkellaan,50,,,6005KA,Weert,Weert,Limburg,VBO,5.720425,51.242268
Graswinkellaan,52,,,6005KA,Weert,Weert,Limburg,VBO,5.720508,51.242262
Graswinkellaan,54,,,6005KA,Weert,Weert,Limburg,VBO,5.720677,51.242247
Graswinkellaan,56,,,6005KA,Weert,Weert,Limburg,VBO,5.720760,51.242241
Graswinkellaan,58,,,6005KA,Weert,Weert,Limburg,VBO,5.720960,51.242261
Graswinkellaan,60,,,6005KA,Weert,Weert,Limburg,VBO,5.721025,51.242294
Graswinkellaan,62,,,6005KA,Weert,Weert,Limburg,VBO,5.721089,51.242433
Graswinkellaan,64,,,6005KA,Weert,Weert,Limburg,VBO,5.721100,51.242485
Graswinkellaan,66,,,6005KA,Weert,Weert,Limburg,VBO,5.721121,51.242581
Graswinkellaan,68,,,6005KA,Weert,Weert,Limburg,VBO,5.721132,51.242633
Graswinkellaan,70,,,6005KA,Weert,Weert,Limburg,VBO,5.721143,51.242684
Graswinkellaan,72,,,6005KA,Weert,Weert,Limburg,VBO,5.721154,51.242736
Graswinkellaan,74,,,6005KA,Weert,Weert,Limburg,VBO,5.721165,51.242787
Graswinkellaan,76,,,6005KA,Weert,Weert,Limburg,VBO,5.721177,51.242839
Graswinkellaan,78,,,6005KA,Weert,Weert,Limburg,VBO,5.721204,51.242970
Graswinkellaan,80,,,6005KA,Weert,Weert,Limburg,VBO,5.721215,51.243021
Graswinkellaan,82,,,6005KA,Weert,Weert,Limburg,VBO,5.721226,51.243073
Graswinkellaan,84,,,6005KA,Weert,Weert,Limburg,VBO,5.721237,51.243124
Graswinkellaan,86,,,6005KA,Weert,Weert,Limburg,VBO,5.721233,51.243204
Graswinkellaan,88,,,6005KA,Weert,Weert,Limburg,VBO,5.721316,51.243323
Graswinkellaan,90,,,6005KA,Weert,Weert,Limburg,VBO,5.721394,51.243340
Graswinkellaan,92,,,6005KA,Weert,Weert,Limburg,VBO,5.721473,51.243357
Graswinkellaan,94,,,6005KA,Weert,Weert,Limburg,VBO,5.721551,51.243374
Graswinkellaan,96,,,6005KA,Weert,Weert,Limburg,VBO,5.721630,51.243390
Graswinkellaan,98,,,6005KB,Weert,Weert,Limburg,VBO,5.722050,51.243481
Graswinkellaan,100,,,6005KB,Weert,Weert,Limburg,VBO,5.722345,51.243545
Graswinkellaan,102,,,6005KB,Weert,Weert,Limburg,VBO,5.722440,51.243565
Graswinkellaan,104,,,6005KB,Weert,Weert,Limburg,VBO,5.722541,51.243572
Graswinkellaan,106,,,6005KB,Weert,Weert,Limburg,VBO,5.722636,51.243592
Graswinkellaan,108,,,6005KB,Weert,Weert,Limburg,VBO,5.722730,51.243612
Graswinkellaan,110,,,6005KB,Weert,Weert,Limburg,VBO,5.722927,51.243670
Graswinkellaan,112,,,6005KB,Weert,Weert,Limburg,VBO,5.723006,51.243687
Graswinkellaan,114,,,6005KB,Weert,Weert,Limburg,VBO,5.723085,51.243704
Graswinkellaan,116,,,6005KB,Weert,Weert,Limburg,VBO,5.723397,51.243771
Graswinkellaan,118,,,6005KB,Weert,Weert,Limburg,VBO,5.723475,51.243788
Graswinkellaan,120,,,6005KB,Weert,Weert,Limburg,VBO,5.723654,51.243808
Graswinkellaan,122,,,6005KB,Weert,Weert,Limburg,VBO,5.723732,51.243824
Graswinkellaan,124,,,6005KB,Weert,Weert,Limburg,VBO,5.723889,51.243881
Graswinkellaan,126,,,6005KB,Weert,Weert,Limburg,VBO,5.723936,51.243921
Graswinkellaan,128,,,6005KB,Weert,Weert,Limburg,VBO,5.723854,51.244041
Graswinkellaan,130,,,6005KB,Weert,Weert,Limburg,VBO,5.723855,51.244091
Graswinkellaan,132,,,6005KB,Weert,Weert,Limburg,VBO,5.722024,51.245743
Graswinkellaan,134,,,6005KB,Weert,Weert,Limburg,VBO,5.721945,51.245726
Graswinkellaan,136,,,6005KB,Weert,Weert,Limburg,VBO,5.721784,51.245691
Graswinkellaan,138,,,6005KB,Weert,Weert,Limburg,VBO,5.721704,51.245674
Graswinkellaan,140,,,6005KB,Weert,Weert,Limburg,VBO,5.721543,51.245640
Graswinkellaan,142,,,6005KB,Weert,Weert,Limburg,VBO,5.721463,51.245623
Graswinkellaan,144,,,6005KB,Weert,Weert,Limburg,VBO,5.721302,51.245588
Graswinkellaan,146,,,6005KB,Weert,Weert,Limburg,VBO,5.721223,51.245571
Graswinkellaan,148,,,6005KB,Weert,Weert,Limburg,VBO,5.721063,51.245534
Graswinkellaan,150,,,6005KB,Weert,Weert,Limburg,VBO,5.720983,51.245517
Graswinkellaan,152,,,6005KB,Weert,Weert,Limburg,VBO,5.720355,51.244869
Graswinkellaan,154,,,6005KB,Weert,Weert,Limburg,VBO,5.720272,51.244851
Graswinkellaan,156,,,6005KB,Weert,Weert,Limburg,VBO,5.720114,51.244817
Graswinkellaan,158,,,6005KB,Weert,Weert,Limburg,VBO,5.720031,51.244799
Graswinkellaan,160,,,6005KB,Weert,Weert,Limburg,VBO,5.719873,51.244765
Graswinkellaan,162,,,6005KB,Weert,Weert,Limburg,VBO,5.719790,51.244748
Graswinkellaan,164,,,6005KB,Weert,Weert,Limburg,VBO,5.719115,51.244602
Graswinkellaan,166,,,6005KB,Weert,Weert,Limburg,VBO,5.718956,51.244568
Graswinkellaan,168,,,6005KB,Weert,Weert,Limburg,VBO,5.718873,51.244550
Graswinkellaan,170,,,6005KB,Weert,Weert,Limburg,VBO,5.718714,51.244516
Graswinkellaan,172,,,6005KB,Weert,Weert,Limburg,VBO,5.718632,51.244498
Graswinkellaan,174,,,6005KB,Weert,Weert,Limburg,VBO,5.718339,51.244454
Graswinkellaan,176,,,6005KB,Weert,Weert,Limburg,VBO,5.718257,51.244436
Graswinkellaan,178,,,6005KB,Weert,Weert,Limburg,VBO,5.718063,51.244394
Graswinkellaan,180,,,6005KB,Weert,Weert,Limburg,VBO,5.717983,51.244377
Graswinkellaan,182,,,6005KB,Weert,Weert,Limburg,VBO,5.717961,51.244319
Graswinkellaan,184,,,6005KB,Weert,Weert,Limburg,VBO,5.718018,51.244213
Graswinkellaan,186,,,6005KB,Weert,Weert,Limburg,VBO,5.718067,51.244166
Graswinkellaan,188,,,6005KB,Weert,Weert,Limburg,VBO,5.718164,51.244076
Graswinkellaan,190,,,6005KB,Weert,Weert,Limburg,VBO,5.718213,51.244028
Graswinkellaan,192,,,6005KB,Weert,Weert,Limburg,VBO,5.718268,51.243927
Graswinkellaan,194,,,6005KB,Weert,Weert,Limburg,VBO,5.718276,51.243872
Graswinkellaan,196,,,6005KB,Weert,Weert,Limburg,VBO,5.718331,51.243772
Graswinkellaan,198,,,6005KB,Weert,Weert,Limburg,VBO,5.718339,51.243716
Zilvermeeuw,100,,,6005KC,Weert,Weert,Limburg,VBO,5.719972,51.244098
Zilvermeeuw,101,,,6005KC,Weert,Weert,Limburg,VBO,5.719925,51.244128
Zilvermeeuw,102,,,6005KC,Weert,Weert,Limburg,VBO,5.719874,51.244145
Zilvermeeuw,103,,,6005KC,Weert,Weert,Limburg,VBO,5.719908,51.244102
Zilvermeeuw,104,,,6005KC,Weert,Weert,Limburg,VBO,5.719845,51.244088
Zilvermeeuw,105,,,6005KC,Weert,Weert,Limburg,VBO,5.719672,51.244203
Zilvermeeuw,106,,,6005KC,Weert,Weert,Limburg,VBO,5.719628,51.244189
Zilvermeeuw,107,,,6005KC,Weert,Weert,Limburg,VBO,5.719707,51.244189
Zilvermeeuw,108,,,6005KC,Weert,Weert,Limburg,VBO,5.719724,51.244159
Zilvermeeuw,109,,,6005KC,Weert,Weert,Limburg,VBO,5.719759,51.244182
Zilvermeeuw,110,,,6005KC,Weert,Weert,Limburg,VBO,5.719747,51.244124
Zilvermeeuw,112,,,6005KC,Weert,Weert,Limburg,VBO,5.719798,51.244118
Zilvermeeuw,200,,,6005KC,Weert,Weert,Limburg,VBO,5.719838,51.244170
Zilvermeeuw,201,,,6005KC,Weert,Weert,Limburg,VBO,5.719838,51.244170
Zilvermeeuw,202,,,6005KC,Weert,Weert,Limburg,VBO,5.719838,51.244170
Zilvermeeuw,203,,,6005KC,Weert,Weert,Limburg,VBO,5.719838,51.244170
Zilvermeeuw,204,,,6005KC,Weert,Weert,Limburg,VBO,5.719838,51.244170
Zilvermeeuw,205,,,6005KC,Weert,Weert,Limburg,VBO,5.719838,51.244170
Zilvermeeuw,206,,,6005KC,Weert,Weert,Limburg,VBO,5.719838,51.244170
Zilvermeeuw,207,,,6005KC,Weert,Weert,Limburg,VBO,5.719838,51.244170
Zilvermeeuw,208,,,6005KC,Weert,Weert,Limburg,VBO,5.719838,51.244170
Zilvermeeuw,209,,,6005KC,Weert,Weert,Limburg,VBO,5.719838,51.244170
Zilvermeeuw,210,,,6005KC,Weert,Weert,Limburg,VBO,5.719838,51.244170
Zilvermeeuw,212,,,6005KC,Weert,Weert,Limburg,VBO,5.719838,51.244170
Zilvermeeuw,300,,,6005KC,Weert,Weert,Limburg,VBO,5.720246,51.244196
Zilvermeeuw,301,,,6005KC,Weert,Weert,Limburg,VBO,5.720246,51.244196
Zilvermeeuw,302,,,6005KC,Weert,Weert,Limburg,VBO,5.720246,51.244196
Zilvermeeuw,303,,,6005KC,Weert,Weert,Limburg,VBO,5.720246,51.244196
Zilvermeeuw,304,,,6005KC,Weert,Weert,Limburg,VBO,5.720246,51.244196
Zilvermeeuw,305,,,6005KC,Weert,Weert,Limburg,VBO,5.720246,51.244196
Zilvermeeuw,306,,,6005KC,Weert,Weert,Limburg,VBO,5.720246,51.244196
Zilvermeeuw,307,,,6005KC,Weert,Weert,Limburg,VBO,5.720246,51.244196
Zilvermeeuw,308,,,6005KC,Weert,Weert,Limburg,VBO,5.720246,51.244196
Zilvermeeuw,309,,,6005KC,Weert,Weert,Limburg,VBO,5.720246,51.244196
Zilvermeeuw,310,,,6005KC,Weert,Weert,Limburg,VBO,5.720246,51.244196
Zilvermeeuw,312,,,6005KC,Weert,Weert,Limburg,VBO,5.720246,51.244196
Zilvermeeuw,400,,,6005KC,Weert,Weert,Limburg,VBO,5.719852,51.244119
Zilvermeeuw,401,,,6005KC,Weert,Weert,Limburg,VBO,5.719771,51.244153
Zilvermeeuw,500,,,6005KC,Weert,Weert,Limburg,VBO,5.720268,51.244158
Zilvermeeuw,501,,,6005KC,Weert,Weert,Limburg,VBO,5.720268,51.244158
Zilvermeeuw,600,,,6005KC,Weert,Weert,Limburg,VBO,5.721292,51.244495
Zilvermeeuw,602,,,6005KC,Weert,Weert,Limburg,VBO,5.720658,51.244313
Zilvermeeuw,604,,,6005KC,Weert,Weert,Limburg,VBO,5.720658,51.244313
Zilvermeeuw,606,,,6005KC,Weert,Weert,Limburg,VBO,5.720658,51.244313
Zilvermeeuw,608,,,6005KC,Weert,Weert,Limburg,VBO,5.720658,51.244313
Zilvermeeuw,610,,,6005KC,Weert,Weert,Limburg,VBO,5.720658,51.244313
Zilvermeeuw,612,,,6005KC,Weert,Weert,Limburg,VBO,5.720857,51.244353
Zilvermeeuw,700,,,6005KC,Weert,Weert,Limburg,VBO,5.720618,51.244301
Zilvermeeuw,702,,,6005KC,Weert,Weert,Limburg,VBO,5.720633,51.244273
Zilvermeeuw,704,,,6005KC,Weert,Weert,Limburg,VBO,5.720652,51.244241
Zilvermeeuw,706,,,6005KC,Weert,Weert,Limburg,VBO,5.720710,51.244326
Zilvermeeuw,708,,,6005KC,Weert,Weert,Limburg,VBO,5.720687,51.244283
Zilvermeeuw,710,,,6005KC,Weert,Weert,Limburg,VBO,5.720698,51.244252
Zilvermeeuw,712,,,6005KC,Weert,Weert,Limburg,VBO,5.720726,51.244294
Zilvermeeuw,714,,,6005KC,Weert,Weert,Limburg,VBO,5.720745,51.244264
Zilvermeeuw,716,,,6005KC,Weert,Weert,Limburg,VBO,5.720586,51.244285
Zilvermeeuw,800,,,6005KC,Weert,Weert,Limburg,VBO,5.720569,51.244310
Zilvermeeuw,802,,,6005KC,Weert,Weert,Limburg,VBO,5.720526,51.244316
Zilvermeeuw,804,,,6005KC,Weert,Weert,Limburg,VBO,5.720541,51.244287
Zilvermeeuw,806,,,6005KC,Weert,Weert,Limburg,VBO,5.720762,51.244316
Zilvermeeuw,808,,,6005KC,Weert,Weert,Limburg,VBO,5.720777,51.244287
Zilvermeeuw,810,,,6005KC,Weert,Weert,Limburg,VBO,5.720794,51.244260
Zilvermeeuw,812,,,6005KC,Weert,Weert,Limburg,VBO,5.720789,51.244341
Zilvermeeuw,814,,,6005KC,Weert,Weert,Limburg,VBO,5.720810,51.244309
Zilvermeeuw,816,,,6005KC,Weert,Weert,Limburg,VBO,5.720832,51.244279
Kokmeeuw,2,,,6005KD,Weert,Weert,Limburg,VBO,5.721167,51.245234
Kokmeeuw,4,,,6005KD,Weert,Weert,Limburg,VBO,5.721194,51.245186
Kokmeeuw,6,,,6005KD,Weert,Weert,Limburg,VBO,5.721220,51.245137
Kokmeeuw,8,,,6005KD,Weert,Weert,Limburg,VBO,5.721247,51.245089
Kokmeeuw,10,,,6005KD,Weert,Weert,Limburg,VBO,5.721276,51.245036
Kokmeeuw,12,,,6005KD,Weert,Weert,Limburg,VBO,5.721369,51.244989
Kokmeeuw,14,,,6005KD,Weert,Weert,Limburg,VBO,5.721456,51.244991
Kokmeeuw,16,,,6005KD,Weert,Weert,Limburg,VBO,5.721540,51.244998
Kokmeeuw,18,,,6005KD,Weert,Weert,Limburg,VBO,5.721623,51.245011
Kokmeeuw,20,,,6005KD,Weert,Weert,Limburg,VBO,5.721707,51.245029
Kokmeeuw,22,,,6005KD,Weert,Weert,Limburg,VBO,5.721895,51.245070
Kokmeeuw,24,,,6005KD,Weert,Weert,Limburg,VBO,5.721973,51.245089
Kokmeeuw,26,,,6005KD,Weert,Weert,Limburg,VBO,5.722049,51.245112
Kokmeeuw,28,,,6005KD,Weert,Weert,Limburg,VBO,5.722122,51.245141
Kokmeeuw,30,,,6005KD,Weert,Weert,Limburg,VBO,5.722189,51.245175
Kokmeeuw,32,,,6005KD,Weert,Weert,Limburg,VBO,5.722178,51.245254
Kokmeeuw,34,,,6005KD,Weert,Weert,Limburg,VBO,5.722152,51.245302
Kokmeeuw,36,,,6005KD,Weert,Weert,Limburg,VBO,5.722125,51.245351
Kokmeeuw,38,,,6005KD,Weert,Weert,Limburg,VBO,5.722099,51.245399
Kokmeeuw,40,,,6005KD,Weert,Weert,Limburg,VBO,5.722072,51.245448
Graswinkellaan,7,,,6005KE,Weert,Weert,Limburg,VBO,5.719844,51.242732
Graswinkellaan,9,,,6005KE,Weert,Weert,Limburg,VBO,5.720366,51.242833
Graswinkellaan,101,,,6005KE,Weert,Weert,Limburg,VBO,5.723308,51.244024
Graswinkellaan,103,,,6005KE,Weert,Weert,Limburg,VBO,5.723278,51.244071
Graswinkellaan,105,,,6005KE,Weert,Weert,Limburg,VBO,5.723255,51.244123
Graswinkellaan,107,,,6005KE,Weert,Weert,Limburg,VBO,5.723268,51.244017
Graswinkellaan,109,,,6005KE,Weert,Weert,Limburg,VBO,5.723236,51.244064
Graswinkellaan,111,,,6005KE,Weert,Weert,Limburg,VBO,5.723212,51.244113
Graswinkellaan,113,,,6005KE,Weert,Weert,Limburg,VBO,5.723228,51.244011
Graswinkellaan,115,,,6005KE,Weert,Weert,Limburg,VBO,5.723206,51.244057
Graswinkellaan,117,,,6005KE,Weert,Weert,Limburg,VBO,5.723172,51.244109
Graswinkellaan,119,,,6005KE,Weert,Weert,Limburg,VBO,5.723188,51.244004
Graswinkellaan,121,,,6005KE,Weert,Weert,Limburg,VBO,5.723164,51.244045
Graswinkellaan,123,,,6005KE,Weert,Weert,Limburg,VBO,5.723128,51.244104
Graswinkellaan,125,,,6005KE,Weert,Weert,Limburg,VBO,5.723199,51.244223
Graswinkellaan,127,,,6005KE,Weert,Weert,Limburg,VBO,5.723168,51.244275
Graswinkellaan,129,,,6005KE,Weert,Weert,Limburg,VBO,5.723136,51.244329
Graswinkellaan,131,,,6005KE,Weert,Weert,Limburg,VBO,5.723166,51.244214
Graswinkellaan,133,,,6005KE,Weert,Weert,Limburg,VBO,5.723134,51.244269
Graswinkellaan,135,,,6005KE,Weert,Weert,Limburg,VBO,5.723098,51.244322
Graswinkellaan,137,,,6005KE,Weert,Weert,Limburg,VBO,5.723125,51.244207
Graswinkellaan,139,,,6005KE,Weert,Weert,Limburg,VBO,5.723094,51.244261
Graswinkellaan,141,,,6005KE,Weert,Weert,Limburg,VBO,5.723064,51.244317
Graswinkellaan,143,,,6005KE,Weert,Weert,Limburg,VBO,5.723083,51.244199
Graswinkellaan,145,,,6005KE,Weert,Weert,Limburg,VBO,5.723050,51.244248
Graswinkellaan,147,,,6005KE,Weert,Weert,Limburg,VBO,5.723025,51.244306
Graswinkellaan,151,,,6005KE,Weert,Weert,Limburg,VBO,5.722799,51.245142
Graswinkellaan,153,,,6005KE,Weert,Weert,Limburg,VBO,5.722773,51.245189
Graswinkellaan,155,,,6005KE,Weert,Weert,Limburg,VBO,5.722747,51.245237
Graswinkellaan,157,,,6005KE,Weert,Weert,Limburg,VBO,5.722720,51.245286
Graswinkellaan,159,,,6005KE,Weert,Weert,Limburg,VBO,5.722693,51.245335
Graswinkellaan,161,,,6005KE,Weert,Weert,Limburg,VBO,5.722665,51.245386
Graswinkellaan,163,,,6005KE,Weert,Weert,Limburg,VBO,5.722640,51.245433
Graswinkellaan,165,,,6005KE,Weert,Weert,Limburg,VBO,5.722613,51.245481
Graswinkellaan,167,,,6005KE,Weert,Weert,Limburg,VBO,5.722586,51.245530
Graswinkellaan,169,,,6005KE,Weert,Weert,Limburg,VBO,5.722518,51.245591
Graswinkellaan,171,,,6005KE,Weert,Weert,Limburg,VBO,5.722061,51.245492
Graswinkellaan,173,,,6005KE,Weert,Weert,Limburg,VBO,5.721173,51.245301
Graswinkellaan,175,,,6005KE,Weert,Weert,Limburg,VBO,5.720716,51.245203
Graswinkellaan,177,,,6005KE,Weert,Weert,Limburg,VBO,5.720652,51.245150
Graswinkellaan,179,,,6005KE,Weert,Weert,Limburg,VBO,5.720679,51.245101
Graswinkellaan,181,,,6005KE,Weert,Weert,Limburg,VBO,5.720707,51.245050
Graswinkellaan,183,,,6005KE,Weert,Weert,Limburg,VBO,5.720732,51.245004
Graswinkellaan,185,,,6005KE,Weert,Weert,Limburg,VBO,5.720759,51.244955
Graswinkellaan,187,,,6005KE,Weert,Weert,Limburg,VBO,5.720786,51.244906
Graswinkellaan,189,,,6005KE,Weert,Weert,Limburg,VBO,5.720812,51.244857
Graswinkellaan,191,,,6005KE,Weert,Weert,Limburg,VBO,5.720840,51.244806
Graswinkellaan,193,,,6005KE,Weert,Weert,Limburg,VBO,5.720866,51.244760
Fazantstraat,2,,,6005KG,Weert,Weert,Limburg,VBO,5.724088,51.243430
Fazantstraat,4,,,6005KG,Weert,Weert,Limburg,VBO,5.724006,51.243437
Fazantstraat,6,,,6005KG,Weert,Weert,Limburg,VBO,5.723923,51.243444
Fazantstraat,8,,,6005KG,Weert,Weert,Limburg,VBO,5.723841,51.243451
Fazantstraat,10,,,6005KG,Weert,Weert,Limburg,VBO,5.723735,51.243482
Fazantstraat,12,,,6005KG,Weert,Weert,Limburg,VBO,5.723653,51.243489
Fazantstraat,14,,,6005KG,Weert,Weert,Limburg,VBO,5.723571,51.243496
Fazantstraat,16,,,6005KG,Weert,Weert,Limburg,VBO,5.723489,51.243503
Fazantstraat,18,,,6005KG,Weert,Weert,Limburg,VBO,5.723404,51.243316
Fazantstraat,20,,,6005KG,Weert,Weert,Limburg,VBO,5.723393,51.243262
Fazantstraat,22,,,6005KG,Weert,Weert,Limburg,VBO,5.723382,51.243211
Fazantstraat,24,,,6005KG,Weert,Weert,Limburg,VBO,5.723371,51.243160
Watersnip,1,,,6005KH,Weert,Weert,Limburg,STA,5.725314,51.243441
Watersnip,2,,,6005KH,Weert,Weert,Limburg,STA,5.725712,51.243325
Watersnip,3,,,6005KH,Weert,Weert,Limburg,STA,5.725330,51.243521
Watersnip,4,,,6005KH,Weert,Weert,Limburg,STA,5.725729,51.243405
Watersnip,5,,,6005KH,Weert,Weert,Limburg,STA,5.725347,51.243601
Watersnip,6,,,6005KH,Weert,Weert,Limburg,STA,5.725746,51.243485
Watersnip,7,,,6005KH,Weert,Weert,Limburg,STA,5.725363,51.243681
Watersnip,8,,,6005KH,Weert,Weert,Limburg,STA,5.725791,51.243695
Watersnip,9,,,6005KH,Weert,Weert,Limburg,VBO,5.725062,51.243716
Watersnip,10,,,6005KH,Weert,Weert,Limburg,STA,5.725773,51.243615
Watersnip,11,,,6005KH,Weert,Weert,Limburg,VBO,5.724984,51.243722
Watersnip,12,,,6005KH,Weert,Weert,Limburg,STA,5.725807,51.243774
Watersnip,13,,,6005KH,Weert,Weert,Limburg,VBO,5.724906,51.243729
Watersnip,15,,,6005KH,Weert,Weert,Limburg,VBO,5.724824,51.243736
Rietzanger,1,,,6005KJ,Weert,Weert,Limburg,VBO,5.724393,51.243405
Rietzanger,2,,,6005KJ,Weert,Weert,Limburg,VBO,5.724728,51.243385
Rietzanger,3,,,6005KJ,Weert,Weert,Limburg,VBO,5.724403,51.243454
Rietzanger,4,,,6005KJ,Weert,Weert,Limburg,VBO,5.724739,51.243437
Rietzanger,5,,,6005KJ,Weert,Weert,Limburg,VBO,5.724414,51.243505
Rietzanger,6,,,6005KJ,Weert,Weert,Limburg,VBO,5.724750,51.243488
Rietzanger,7,,,6005KJ,Weert,Weert,Limburg,VBO,5.724425,51.243556
Rietzanger,8,,,6005KJ,Weert,Weert,Limburg,VBO,5.724761,51.243540
Rietzanger,9,,,6005KJ,Weert,Weert,Limburg,VBO,5.724436,51.243607
Rietzanger,11,,,6005KJ,Weert,Weert,Limburg,VBO,5.724446,51.243656
Rietzanger,13,,,6005KJ,Weert,Weert,Limburg,VBO,5.724456,51.243705
Rietzanger,15,,,6005KJ,Weert,Weert,Limburg,VBO,5.724482,51.243847
Rietzanger,17,,,6005KJ,Weert,Weert,Limburg,VBO,5.724475,51.243897
Rietzanger,19,,,6005KJ,Weert,Weert,Limburg,VBO,5.724458,51.244008
Rietzanger,21,,,6005KJ,Weert,Weert,Limburg,VBO,5.724451,51.244057
Rietzanger,23,,,6005KJ,Weert,Weert,Limburg,VBO,5.724339,51.244280
Rietzanger,25,,,6005KJ,Weert,Weert,Limburg,VBO,5.724260,51.244280
Rietzanger,27,,,6005KJ,Weert,Weert,Limburg,VBO,5.724030,51.244281
Rietzanger,29,,,6005KJ,Weert,Weert,Limburg,VBO,5.723950,51.244281
Houtduif,1,,,6005KK,Weert,Weert,Limburg,VBO,5.724370,51.242789
Houtduif,2,,,6005KK,Weert,Weert,Limburg,VBO,5.724338,51.242583
Houtduif,3,,,6005KK,Weert,Weert,Limburg,VBO,5.724446,51.242782
Houtduif,4,,,6005KK,Weert,Weert,Limburg,VBO,5.724418,51.242576
Houtduif,5,,,6005KK,Weert,Weert,Limburg,VBO,5.724526,51.242776
Houtduif,6,,,6005KK,Weert,Weert,Limburg,VBO,5.724498,51.242569
Houtduif,7,,,6005KK,Weert,Weert,Limburg,VBO,5.724606,51.242769
Houtduif,8,,,6005KK,Weert,Weert,Limburg,VBO,5.724578,51.242563
Houtduif,9,,,6005KK,Weert,Weert,Limburg,VBO,5.724687,51.242762
Houtduif,10,,,6005KK,Weert,Weert,Limburg,VBO,5.724666,51.242555
Houtduif,11,,,6005KK,Weert,Weert,Limburg,VBO,5.724763,51.242756
Houtduif,12,,,6005KK,Weert,Weert,Limburg,VBO,5.724747,51.242549
Houtsnip,2,,,6005KL,Weert,Weert,Limburg,VBO,5.723337,51.242015
Houtsnip,4,,,6005KL,Weert,Weert,Limburg,VBO,5.723514,51.242030
Houtsnip,6,,,6005KL,Weert,Weert,Limburg,VBO,5.723599,51.242022
Houtsnip,8,,,6005KL,Weert,Weert,Limburg,VBO,5.723770,51.242008
Houtsnip,10,,,6005KL,Weert,Weert,Limburg,VBO,5.723863,51.242000
Houtsnip,12,,,6005KL,Weert,Weert,Limburg,VBO,5.724033,51.241986
Houtsnip,14,,,6005KL,Weert,Weert,Limburg,VBO,5.724118,51.241979
Houtsnip,16,,,6005KL,Weert,Weert,Limburg,VBO,5.724291,51.241965
Houtsnip,18,,,6005KL,Weert,Weert,Limburg,VBO,5.724376,51.241957
Houtsnip,20,,,6005KL,Weert,Weert,Limburg,VBO,5.724555,51.241942
Houtsnip,22,,,6005KL,Weert,Weert,Limburg,VBO,5.724641,51.241935
Houtsnip,24,,,6005KL,Weert,Weert,Limburg,VBO,5.724816,51.241921
Houtsnip,26,,,6005KL,Weert,Weert,Limburg,VBO,5.724901,51.241914
Houtsnip,28,,,6005KL,Weert,Weert,Limburg,VBO,5.725074,51.241899
Houtsnip,30,,,6005KL,Weert,Weert,Limburg,VBO,5.725151,51.241868
Houtsnip,32,,,6005KL,Weert,Weert,Limburg,VBO,5.725336,51.241827
Houtsnip,34,,,6005KL,Weert,Weert,Limburg,VBO,5.725399,51.241887
Houtsnip,36,,,6005KL,Weert,Weert,Limburg,VBO,5.725413,51.242011
Houtsnip,38,,,6005KL,Weert,Weert,Limburg,VBO,5.725385,51.242066
Houtsnip,40,,,6005KL,Weert,Weert,Limburg,VBO,5.725446,51.242169
Houtsnip,42,,,6005KL,Weert,Weert,Limburg,VBO,5.725419,51.242224
Houtsnip,44,,,6005KL,Weert,Weert,Limburg,VBO,5.725480,51.242327
Houtsnip,46,,,6005KL,Weert,Weert,Limburg,VBO,5.725453,51.242386
Houtsnip,56,,,6005KL,Weert,Weert,Limburg,VBO,5.725526,51.242797
Houtsnip,58,,,6005KL,Weert,Weert,Limburg,VBO,5.725537,51.242849
Houtsnip,60,,,6005KL,Weert,Weert,Limburg,VBO,5.725548,51.242900
Houtsnip,62,,,6005KL,Weert,Weert,Limburg,VBO,5.725559,51.242952
Houtsnip,64,,,6005KL,Weert,Weert,Limburg,VBO,5.725573,51.243017
Houtsnip,66,,,6005KL,Weert,Weert,Limburg,VBO,5.725583,51.243068
Houtsnip,68,,,6005KL,Weert,Weert,Limburg,VBO,5.725594,51.243120
Houtsnip,70,,,6005KL,Weert,Weert,Limburg,VBO,5.725605,51.243171
Houtsnip,72,,,6005KL,Weert,Weert,Limburg,VBO,5.723596,51.242776
Houtsnip,74,,,6005KL,Weert,Weert,Limburg,VBO,5.723532,51.242475
Stormmeeuw,2,,,6005KM,Weert,Weert,Limburg,VBO,5.722520,51.244730
Stormmeeuw,4,,,6005KM,Weert,Weert,Limburg,VBO,5.722411,51.244721
Stormmeeuw,6,,,6005KM,Weert,Weert,Limburg,VBO,5.722338,51.244712
Stormmeeuw,8,,,6005KM,Weert,Weert,Limburg,VBO,5.722259,51.244702
Stormmeeuw,10,,,6005KM,Weert,Weert,Limburg,VBO,5.722168,51.244691
Stormmeeuw,12,,,6005KM,Weert,Weert,Limburg,VBO,5.722079,51.244674
Stormmeeuw,14,,,6005KM,Weert,Weert,Limburg,VBO,5.721879,51.244631
Stormmeeuw,16,,,6005KM,Weert,Weert,Limburg,VBO,5.721788,51.244608
Stormmeeuw,18,,,6005KM,Weert,Weert,Limburg,VBO,5.721717,51.244587
Stormmeeuw,20,,,6005KM,Weert,Weert,Limburg,VBO,5.721632,51.244559
Stormmeeuw,22,,,6005KM,Weert,Weert,Limburg,VBO,5.721565,51.244535
Stormmeeuw,24,,,6005KM,Weert,Weert,Limburg,VBO,5.721488,51.244503
Houtsnip,1,,,6005KN,Weert,Weert,Limburg,VBO,5.723930,51.242616
Houtsnip,3,,,6005KN,Weert,Weert,Limburg,VBO,5.723920,51.242569
Houtsnip,5,,,6005KN,Weert,Weert,Limburg,VBO,5.723909,51.242519
Houtsnip,7,,,6005KN,Weert,Weert,Limburg,VBO,5.723899,51.242469
Houtsnip,9,,,6005KN,Weert,Weert,Limburg,VBO,5.723881,51.242386
Houtsnip,11,,,6005KN,Weert,Weert,Limburg,VBO,5.723871,51.242339
Houtsnip,13,,,6005KN,Weert,Weert,Limburg,VBO,5.723861,51.242291
Houtsnip,15,,,6005KN,Weert,Weert,Limburg,VBO,5.723850,51.242241
Houtsnip,17,,,6005KN,Weert,Weert,Limburg,VBO,5.724208,51.242198
Houtsnip,19,,,6005KN,Weert,Weert,Limburg,VBO,5.724289,51.242191
Houtsnip,21,,,6005KN,Weert,Weert,Limburg,VBO,5.724369,51.242184
Houtsnip,23,,,6005KN,Weert,Weert,Limburg,VBO,5.724445,51.242178
Houtsnip,25,,,6005KN,Weert,Weert,Limburg,VBO,5.724525,51.242171
Houtsnip,27,,,6005KN,Weert,Weert,Limburg,VBO,5.724605,51.242165
Houtsnip,29,,,6005KN,Weert,Weert,Limburg,VBO,5.725035,51.242119
Houtsnip,31,,,6005KN,Weert,Weert,Limburg,VBO,5.725046,51.242172
Houtsnip,33,,,6005KN,Weert,Weert,Limburg,VBO,5.725056,51.242220
Houtsnip,35,,,6005KN,Weert,Weert,Limburg,VBO,5.725067,51.242270
Houtsnip,37,,,6005KN,Weert,Weert,Limburg,VBO,5.725084,51.242352
Houtsnip,39,,,6005KN,Weert,Weert,Limburg,VBO,5.725095,51.242402
Houtsnip,41,,,6005KN,Weert,Weert,Limburg,VBO,5.725106,51.242455
Houtsnip,43,,,6005KN,Weert,Weert,Limburg,VBO,5.725116,51.242502
Houtsnip,45,,,6005KP,Weert,Weert,Limburg,VBO,5.725125,51.242730
Houtsnip,47,,,6005KP,Weert,Weert,Limburg,VBO,5.725136,51.242780
Houtsnip,49,,,6005KP,Weert,Weert,Limburg,VBO,5.725183,51.242829
Houtsnip,51,,,6005KP,Weert,Weert,Limburg,VBO,5.725194,51.242882
Houtsnip,53,,,6005KP,Weert,Weert,Limburg,VBO,5.725204,51.242929
Houtsnip,55,,,6005KP,Weert,Weert,Limburg,VBO,5.725215,51.242979
Houtsnip,57,,,6005KP,Weert,Weert,Limburg,VBO,5.725190,51.243035
Houtsnip,59,,,6005KP,Weert,Weert,Limburg,VBO,5.725201,51.243084
Houtsnip,61,,,6005KP,Weert,Weert,Limburg,VBO,5.724849,51.243144
Houtsnip,63,,,6005KP,Weert,Weert,Limburg,VBO,5.724773,51.243150
Houtsnip,65,,,6005KP,Weert,Weert,Limburg,VBO,5.724693,51.243157
Houtsnip,67,,,6005KP,Weert,Weert,Limburg,VBO,5.724613,51.243164
Houtsnip,69,,,6005KP,Weert,Weert,Limburg,VBO,5.724533,51.243170
Houtsnip,71,,,6005KP,Weert,Weert,Limburg,VBO,5.724449,51.243177
Houtsnip,73,,,6005KP,Weert,Weert,Limburg,VBO,5.724058,51.243220
Houtsnip,75,,,6005KP,Weert,Weert,Limburg,VBO,5.724048,51.243170
Houtsnip,77,,,6005KP,Weert,Weert,Limburg,VBO,5.724037,51.243120
Houtsnip,79,,,6005KP,Weert,Weert,Limburg,VBO,5.724026,51.243069
Houtsnip,81,,,6005KP,Weert,Weert,Limburg,VBO,5.724008,51.242985
Houtsnip,83,,,6005KP,Weert,Weert,Limburg,VBO,5.723998,51.242937
Houtsnip,85,,,6005KP,Weert,Weert,Limburg,VBO,5.723988,51.242887
Houtsnip,87,,,6005KP,Weert,Weert,Limburg,VBO,5.723977,51.242837
Mantelmeeuw,2,,,6005KR,Weert,Weert,Limburg,VBO,5.722819,51.244929
Mantelmeeuw,4,,,6005KR,Weert,Weert,Limburg,VBO,5.722819,51.244929
Mantelmeeuw,6,,,6005KR,Weert,Weert,Limburg,VBO,5.722819,51.244929
Mantelmeeuw,8,,,6005KR,Weert,Weert,Limburg,VBO,5.722819,51.244929
Mantelmeeuw,10,,,6005KR,Weert,Weert,Limburg,VBO,5.722819,51.244929
Mantelmeeuw,12,,,6005KR,Weert,Weert,Limburg,VBO,5.722819,51.244929
Mantelmeeuw,14,,,6005KR,Weert,Weert,Limburg,VBO,5.722819,51.244929
Mantelmeeuw,16,,,6005KR,Weert,Weert,Limburg,VBO,5.722819,51.244929
Mantelmeeuw,20,,,6005KR,Weert,Weert,Limburg,VBO,5.722819,51.244929
Mantelmeeuw,22,,,6005KR,Weert,Weert,Limburg,VBO,5.722819,51.244929
Mantelmeeuw,24,,,6005KR,Weert,Weert,Limburg,VBO,5.722819,51.244929
Mantelmeeuw,26,,,6005KR,Weert,Weert,Limburg,VBO,5.722819,51.244929
Mantelmeeuw,30,,,6005KR,Weert,Weert,Limburg,VBO,5.722819,51.244929
Mantelmeeuw,32,,,6005KR,Weert,Weert,Limburg,VBO,5.722819,51.244929
Mantelmeeuw,34,,,6005KR,Weert,Weert,Limburg,VBO,5.722819,51.244929
Mantelmeeuw,40,,,6005KR,Weert,Weert,Limburg,VBO,5.722819,51.244929
Kwartelstraat,1,,,6005KS,Weert,Weert,Limburg,VBO,5.722043,51.243423
Kwartelstraat,2,,,6005KS,Weert,Weert,Limburg,VBO,5.721770,51.243216
Kwartelstraat,3,,,6005KS,Weert,Weert,Limburg,VBO,5.722068,51.243375
Kwartelstraat,4,,,6005KS,Weert,Weert,Limburg,VBO,5.721796,51.243167
Kwartelstraat,5,,,6005KS,Weert,Weert,Limburg,VBO,5.722202,51.243211
Kwartelstraat,6,,,6005KS,Weert,Weert,Limburg,VBO,5.721823,51.243118
Kwartelstraat,7,,,6005KS,Weert,Weert,Limburg,VBO,5.722284,51.243204
Kwartelstraat,8,,,6005KS,Weert,Weert,Limburg,VBO,5.721884,51.243048
Kwartelstraat,9,,,6005KS,Weert,Weert,Limburg,VBO,5.722365,51.243197
Kwartelstraat,10,,,6005KS,Weert,Weert,Limburg,VBO,5.722772,51.242914
Kwartelstraat,11,,,6005KS,Weert,Weert,Limburg,VBO,5.722443,51.243191
Kwartelstraat,12,,,6005KS,Weert,Weert,Limburg,VBO,5.723047,51.242892
Kwartelstraat,13,,,6005KS,Weert,Weert,Limburg,VBO,5.722521,51.243184
Kwartelstraat,14,,,6005KS,Weert,Weert,Limburg,VBO,5.723132,51.242885
Kwartelstraat,15,,,6005KS,Weert,Weert,Limburg,VBO,5.722603,51.243178
Kwartelstraat,16,,,6005KS,Weert,Weert,Limburg,VBO,5.723212,51.242864
Kwartelstraat,17,,,6005KS,Weert,Weert,Limburg,VBO,5.722701,51.243147
Kwartelstraat,18,,,6005KS,Weert,Weert,Limburg,VBO,5.723291,51.242858
Kwartelstraat,19,,,6005KS,Weert,Weert,Limburg,VBO,5.722783,51.243141
Kwartelstraat,20,,,6005KS,Weert,Weert,Limburg,VBO,5.723374,51.242851
Kwartelstraat,21,,,6005KS,Weert,Weert,Limburg,VBO,5.722864,51.243134
Kwartelstraat,22,,,6005KS,Weert,Weert,Limburg,VBO,5.723454,51.242844
Kwartelstraat,23,,,6005KS,Weert,Weert,Limburg,VBO,5.722941,51.243127
Kwartelstraat,24,,,6005KS,Weert,Weert,Limburg,VBO,5.723539,51.242850
Kwartelstraat,25,,,6005KS,Weert,Weert,Limburg,VBO,5.723024,51.243121
Kwartelstraat,27,,,6005KS,Weert,Weert,Limburg,VBO,5.723316,51.243120
Roerdomp,1,,,6005KT,Weert,Weert,Limburg,VBO,5.722017,51.242650
Roerdomp,2,,,6005KT,Weert,Weert,Limburg,VBO,5.722662,51.242613
Roerdomp,3,,,6005KT,Weert,Weert,Limburg,VBO,5.722008,51.242711
Roerdomp,4,,,6005KT,Weert,Weert,Limburg,VBO,5.722696,51.242662
Roerdomp,5,,,6005KT,Weert,Weert,Limburg,VBO,5.722017,51.242754
Roerdomp,6,,,6005KT,Weert,Weert,Limburg,VBO,5.722706,51.242712
Roerdomp,7,,,6005KT,Weert,Weert,Limburg,VBO,5.722027,51.242797
Roerdomp,8,,,6005KT,Weert,Weert,Limburg,VBO,5.722716,51.242761
Roerdomp,9,,,6005KT,Weert,Weert,Limburg,VBO,5.722036,51.242841
Roerdomp,10,,,6005KT,Weert,Weert,Limburg,VBO,5.722707,51.242819
Roerdomp,11,,,6005KT,Weert,Weert,Limburg,VBO,5.722070,51.242898
Roerdomp,12,,,6005KT,Weert,Weert,Limburg,VBO,5.722718,51.242872
Roerdomp,13,,,6005KT,Weert,Weert,Limburg,VBO,5.722081,51.242949
Kwikstaart,2,,,6005KV,Weert,Weert,Limburg,VBO,5.723147,51.242290
Kwikstaart,4,,,6005KV,Weert,Weert,Limburg,VBO,5.723136,51.242237
Kwikstaart,6,,,6005KV,Weert,Weert,Limburg,VBO,5.723125,51.242185
Kwikstaart,8,,,6005KV,Weert,Weert,Limburg,VBO,5.723114,51.242133
Kwikstaart,10,,,6005KV,Weert,Weert,Limburg,VBO,5.723066,51.242080
Kwikstaart,12,,,6005KV,Weert,Weert,Limburg,VBO,5.723055,51.242030
Nachtegaal,2,,,6005KW,Weert,Weert,Limburg,VBO,5.721976,51.241858
Nachtegaal,4,,,6005KW,Weert,Weert,Limburg,VBO,5.721982,51.242008
Nachtegaal,6,,,6005KW,Weert,Weert,Limburg,VBO,5.721999,51.242087
Nachtegaal,8,,,6005KW,Weert,Weert,Limburg,VBO,5.722010,51.242141
Nachtegaal,10,,,6005KW,Weert,Weert,Limburg,VBO,5.722084,51.242387
Nachtegaal,12,,,6005KW,Weert,Weert,Limburg,VBO,5.722164,51.242381
Nachtegaal,14,,,6005KW,Weert,Weert,Limburg,VBO,5.722249,51.242387
Nachtegaal,16,,,6005KW,Weert,Weert,Limburg,VBO,5.722333,51.242380
Nachtegaal,18,,,6005KW,Weert,Weert,Limburg,VBO,5.722417,51.242373
Nachtegaal,20,,,6005KW,Weert,Weert,Limburg,VBO,5.722495,51.242330
Nachtegaal,22,,,6005KW,Weert,Weert,Limburg,VBO,5.722577,51.242323
Nachtegaal,24,,,6005KW,Weert,Weert,Limburg,VBO,5.722658,51.242316
Nachtegaal,26,,,6005KW,Weert,Weert,Limburg,VBO,5.722739,51.242309
Nachtegaal,28,,,6005KW,Weert,Weert,Limburg,VBO,5.722820,51.242303
Nachtegaal,3,,,6005KX,Weert,Weert,Limburg,VBO,5.721619,51.242027
Nachtegaal,5,,,6005KX,Weert,Weert,Limburg,VBO,5.721630,51.242081
Nachtegaal,7,,,6005KX,Weert,Weert,Limburg,VBO,5.721652,51.242187
Nachtegaal,9,,,6005KX,Weert,Weert,Limburg,VBO,5.721664,51.242240
Nachtegaal,11,,,6005KX,Weert,Weert,Limburg,VBO,5.721683,51.242342
Nachtegaal,13,,,6005KX,Weert,Weert,Limburg,VBO,5.721687,51.242394
Nachtegaal,15,,,6005KX,Weert,Weert,Limburg,VBO,5.721719,51.242501
Nachtegaal,17,,,6005KX,Weert,Weert,Limburg,VBO,5.721901,51.242604
Nachtegaal,19,,,6005KX,Weert,Weert,Limburg,VBO,5.722723,51.242545
Nachtegaal,21,,,6005KX,Weert,Weert,Limburg,VBO,5.722939,51.242540
Nachtegaal,23,,,6005KX,Weert,Weert,Limburg,VBO,5.723015,51.242534
Nachtegaal,25,,,6005KX,Weert,Weert,Limburg,VBO,5.723096,51.242527
Nachtegaal,27,,,6005KX,Weert,Weert,Limburg,VBO,5.723175,51.242507
Nachtegaal,29,,,6005KX,Weert,Weert,Limburg,VBO,5.723258,51.242500
Nachtegaal,31,,,6005KX,Weert,Weert,Limburg,VBO,5.723345,51.242492
Nachtegaal,33,,,6005KX,Weert,Weert,Limburg,VBO,5.723424,51.242486
De Wielewaal,1,,,6005KZ,Weert,Weert,Limburg,VBO,5.719410,51.241798
De Wielewaal,2,,,6005KZ,Weert,Weert,Limburg,VBO,5.719736,51.241869
De Wielewaal,3,,,6005KZ,Weert,Weert,Limburg,VBO,5.719430,51.242026
De Wielewaal,4,,,6005KZ,Weert,Weert,Limburg,VBO,5.719758,51.242008
De Wielewaal,5,,,6005KZ,Weert,Weert,Limburg,VBO,5.719423,51.242094
De Wielewaal,6,,,6005KZ,Weert,Weert,Limburg,VBO,5.719793,51.242072
De Wielewaal,7,,,6005KZ,Weert,Weert,Limburg,VBO,5.719451,51.242221
De Wielewaal,9,,,6005KZ,Weert,Weert,Limburg,VBO,5.719487,51.242285
Veldbeemd,1,,,6005LA,Weert,Weert,Limburg,VBO,5.720845,51.240987
Veldbeemd,2,A,,6005LA,Weert,Weert,Limburg,VBO,5.721401,51.241166
Veldbeemd,2,,,6005LA,Weert,Weert,Limburg,VBO,5.721382,51.241068
Veldbeemd,3,,,6005LA,Weert,Weert,Limburg,VBO,5.720962,51.241156
Veldbeemd,4,,,6005LA,Weert,Weert,Limburg,VBO,5.721296,51.241366
Veldbeemd,5,,,6005LA,Weert,Weert,Limburg,VBO,5.720952,51.241339
Tinnegietersweg,12,,,6005LB,Weert,Weert,Limburg,VBO,5.720176,51.241509
Tinnegietersweg,14,,,6005LB,Weert,Weert,Limburg,VBO,5.720584,51.241524
Tinnegietersweg,16,,,6005LB,Weert,Weert,Limburg,VBO,5.720903,51.241557
Tinnegietersweg,18,,,6005LB,Weert,Weert,Limburg,VBO,5.721414,51.241570
Tinnegietersweg,20,,,6005LB,Weert,Weert,Limburg,VBO,5.721688,51.241541
Tinnegietersweg,22,,,6005LB,Weert,Weert,Limburg,VBO,5.721855,51.241523
Tinnegietersweg,26,,,6005LB,Weert,Weert,Limburg,VBO,5.722155,51.241545
Tinnegietersweg,28,,,6005LB,Weert,Weert,Limburg,VBO,5.722637,51.241505
Tinnegietersweg,30,,,6005LB,Weert,Weert,Limburg,VBO,5.722990,51.241351
Tinnegietersweg,32,,,6005LB,Weert,Weert,Limburg,VBO,5.723247,51.241366
Tinnegietersweg,34,,,6005LB,Weert,Weert,Limburg,VBO,5.723419,51.241336
Tinnegietersweg,36,,,6005LB,Weert,Weert,Limburg,VBO,5.723591,51.241306
Tinnegietersweg,38,,,6005LB,Weert,Weert,Limburg,VBO,5.723764,51.241275
Tinnegietersweg,40,,,6005LB,Weert,Weert,Limburg,VBO,5.723945,51.241221
Tinnegietersweg,42,,,6005LB,Weert,Weert,Limburg,VBO,5.724141,51.241187
Tinnegietersweg,56,,,6005LB,Weert,Weert,Limburg,VBO,5.724837,51.240953
Tinnegietersweg,1,,,6005LC,Weert,Weert,Limburg,VBO,5.718051,51.241886
Tinnegietersweg,7,,,6005LC,Weert,Weert,Limburg,VBO,5.718515,51.241791
Tinnegietersweg,13,,,6005LC,Weert,Weert,Limburg,VBO,5.718928,51.241650
Tinnegietersweg,15,,,6005LC,Weert,Weert,Limburg,VBO,5.719274,51.241767
Tinnegietersweg,17,,,6005LC,Weert,Weert,Limburg,VBO,5.719794,51.241788
Tinnegietersweg,19,,,6005LC,Weert,Weert,Limburg,VBO,5.720138,51.241786
Tinnegietersweg,31,,,6005LC,Weert,Weert,Limburg,VBO,5.720371,51.241799
Tinnegietersweg,33,,,6005LC,Weert,Weert,Limburg,VBO,5.720524,51.241803
Tinnegietersweg,35,,,6005LC,Weert,Weert,Limburg,VBO,5.720722,51.241786
Tinnegietersweg,37,,,6005LC,Weert,Weert,Limburg,VBO,5.720918,51.241790
Tinnegietersweg,39,,,6005LC,Weert,Weert,Limburg,VBO,5.721120,51.241794
Tinnegietersweg,41,,,6005LC,Weert,Weert,Limburg,VBO,5.721318,51.241798
Tinnegietersweg,43,,,6005LC,Weert,Weert,Limburg,VBO,5.721522,51.241801
Tinnegietersweg,47,,,6005LC,Weert,Weert,Limburg,VBO,5.722331,51.241839
Tinnegietersweg,49,,,6005LC,Weert,Weert,Limburg,VBO,5.722606,51.241760
Tinnegietersweg,53,A,,6005LC,Weert,Weert,Limburg,VBO,5.723291,51.241638
Tinnegietersweg,53,,,6005LC,Weert,Weert,Limburg,VBO,5.722919,51.241702
Tinnegietersweg,55,,,6005LC,Weert,Weert,Limburg,VBO,5.723393,51.241600
Tinnegietersweg,57,,,6005LC,Weert,Weert,Limburg,VBO,5.723628,51.241559
Tinnegietersweg,59,,,6005LC,Weert,Weert,Limburg,VBO,5.723905,51.241515
Tinnegietersweg,63,,,6005LC,Weert,Weert,Limburg,VBO,5.724240,51.241453
Tinnegietersweg,65,,,6005LC,Weert,Weert,Limburg,VBO,5.724545,51.241382
Tinnegietersweg,67,,,6005LC,Weert,Weert,Limburg,VBO,5.724708,51.241491
Tinnegietersweg,69,,,6005LC,Weert,Weert,Limburg,VBO,5.724909,51.241551
Tinnegietersweg,71,,,6005LC,Weert,Weert,Limburg,VBO,5.725134,51.241494
Tinnegietersweg,73,,,6005LC,Weert,Weert,Limburg,VBO,5.725242,51.241372
Tinnegietersweg,75,,,6005LC,Weert,Weert,Limburg,VBO,5.725207,51.241228
Tinnegietersweg,77,,,6005LC,Weert,Weert,Limburg,VBO,5.725092,51.241113
Mussenberg,2,,,6005LD,Weert,Weert,Limburg,VBO,5.718922,51.241221
Mussenberg,4,,,6005LD,Weert,Weert,Limburg,VBO,5.718904,51.241167
Mussenberg,6,,,6005LD,Weert,Weert,Limburg,VBO,5.718867,51.241061
Mussenberg,8,,,6005LD,Weert,Weert,Limburg,VBO,5.718849,51.241007
Mussenberg,10,,,6005LD,Weert,Weert,Limburg,VBO,5.718811,51.240896
Mussenberg,12,,,6005LD,Weert,Weert,Limburg,VBO,5.718793,51.240843
Mussenberg,14,,,6005LD,Weert,Weert,Limburg,VBO,5.718763,51.240734
Mussenberg,16,,,6005LD,Weert,Weert,Limburg,VBO,5.718752,51.240681
Mussenberg,18,,,6005LD,Weert,Weert,Limburg,VBO,5.718728,51.240574
Mussenberg,20,,,6005LD,Weert,Weert,Limburg,VBO,5.718716,51.240518
Mussenberg,22,,,6005LD,Weert,Weert,Limburg,VBO,5.718693,51.240411
Mussenberg,24,,,6005LD,Weert,Weert,Limburg,VBO,5.718682,51.240358
Mussenberg,26,,,6005LD,Weert,Weert,Limburg,VBO,5.718659,51.240231
Mussenberg,28,,,6005LD,Weert,Weert,Limburg,VBO,5.718657,51.240178
Mussenberg,30,,,6005LD,Weert,Weert,Limburg,VBO,5.718653,51.240067
Mussenberg,32,,,6005LD,Weert,Weert,Limburg,VBO,5.718651,51.240014
Mussenberg,34,,,6005LD,Weert,Weert,Limburg,VBO,5.718641,51.239905
Mussenberg,36,,,6005LD,Weert,Weert,Limburg,VBO,5.718640,51.239851
Mussenberg,38,,,6005LD,Weert,Weert,Limburg,VBO,5.718636,51.239738
Mussenberg,40,,,6005LD,Weert,Weert,Limburg,VBO,5.718613,51.239684
Mussenberg,42,,,6005LD,Weert,Weert,Limburg,VBO,5.718610,51.239573
Mussenberg,1,,,6005LE,Weert,Weert,Limburg,VBO,5.719239,51.240976
Mussenberg,3,,,6005LE,Weert,Weert,Limburg,VBO,5.719224,51.240930
Mussenberg,5,,,6005LE,Weert,Weert,Limburg,VBO,5.719191,51.240830
Mussenberg,7,,,6005LE,Weert,Weert,Limburg,VBO,5.719175,51.240781
Mussenberg,9,A,,6005LE,Weert,Weert,Limburg,VBO,5.719056,51.239946
Mussenberg,9,,,6005LE,Weert,Weert,Limburg,VBO,5.719055,51.239991
Mussenberg,11,A,,6005LE,Weert,Weert,Limburg,VBO,5.719051,51.239772
Mussenberg,11,,,6005LE,Weert,Weert,Limburg,VBO,5.719054,51.239818
Mussenberg,13,,,6005LE,Weert,Weert,Limburg,VBO,5.719054,51.239665
Mussenberg,15,,,6005LE,Weert,Weert,Limburg,VBO,5.719399,51.239693
Mussenberg,17,,,6005LE,Weert,Weert,Limburg,VBO,5.719475,51.239691
Mussenberg,23,,,6005LE,Weert,Weert,Limburg,VBO,5.720546,51.239749
Mussenberg,25,,,6005LE,Weert,Weert,Limburg,VBO,5.720634,51.239754
Mussenberg,27,,,6005LE,Weert,Weert,Limburg,VBO,5.720810,51.239762
Mussenberg,29,,,6005LE,Weert,Weert,Limburg,VBO,5.720898,51.239766
Mussenberg,31,,,6005LE,Weert,Weert,Limburg,VBO,5.721078,51.239775
Mussenberg,33,,,6005LE,Weert,Weert,Limburg,VBO,5.721163,51.239779
Mussenberg,35,,,6005LE,Weert,Weert,Limburg,VBO,5.721336,51.239805
Mussenberg,37,,,6005LE,Weert,Weert,Limburg,VBO,5.721425,51.239809
Mussenberg,39,,,6005LE,Weert,Weert,Limburg,VBO,5.721600,51.239818
Mussenberg,41,,,6005LE,Weert,Weert,Limburg,VBO,5.721692,51.239822
Mussenberg,43,,,6005LE,Weert,Weert,Limburg,VBO,5.721864,51.239830
Mussenberg,45,,,6005LE,Weert,Weert,Limburg,VBO,5.721953,51.239835
Mussenberg,47,,,6005LE,Weert,Weert,Limburg,VBO,5.722131,51.239843
Mussenberg,49,,,6005LE,Weert,Weert,Limburg,VBO,5.722334,51.239879
Mussenberg,52,,,6005LG,Weert,Weert,Limburg,VBO,5.719343,51.239401
Mussenberg,54,,,6005LG,Weert,Weert,Limburg,VBO,5.719571,51.239416
Mussenberg,56,,,6005LG,Weert,Weert,Limburg,VBO,5.719680,51.239425
Mussenberg,58,,,6005LG,Weert,Weert,Limburg,VBO,5.719844,51.239439
Mussenberg,60,,,6005LG,Weert,Weert,Limburg,VBO,5.719953,51.239442
Mussenberg,62,,,6005LG,Weert,Weert,Limburg,VBO,5.720120,51.239463
Mussenberg,64,,,6005LG,Weert,Weert,Limburg,VBO,5.720229,51.239471
Mussenberg,66,,,6005LG,Weert,Weert,Limburg,VBO,5.720389,51.239490
Mussenberg,68,,,6005LG,Weert,Weert,Limburg,VBO,5.720572,51.239486
Mussenberg,70,,,6005LG,Weert,Weert,Limburg,VBO,5.720737,51.239494
Mussenberg,72,,,6005LG,Weert,Weert,Limburg,VBO,5.720912,51.239515
Mussenberg,74,,,6005LG,Weert,Weert,Limburg,VBO,5.720999,51.239506
Mussenberg,76,,,6005LG,Weert,Weert,Limburg,VBO,5.721170,51.239513
Mussenberg,78,,,6005LG,Weert,Weert,Limburg,VBO,5.721255,51.239518
Mussenberg,80,,,6005LG,Weert,Weert,Limburg,VBO,5.721426,51.239526
Mussenberg,82,,,6005LG,Weert,Weert,Limburg,VBO,5.721509,51.239543
Mussenberg,84,,,6005LG,Weert,Weert,Limburg,VBO,5.721688,51.239552
Mussenberg,86,,,6005LG,Weert,Weert,Limburg,VBO,5.721905,51.239562
Mussenberg,88,,,6005LG,Weert,Weert,Limburg,VBO,5.721994,51.239567
Mussenberg,90,,,6005LG,Weert,Weert,Limburg,VBO,5.722172,51.239580
Mussenberg,92,,,6005LG,Weert,Weert,Limburg,VBO,5.722256,51.239591
Mussenberg,94,,,6005LG,Weert,Weert,Limburg,VBO,5.722437,51.239625
Mussenberg,96,,,6005LG,Weert,Weert,Limburg,VBO,5.722670,51.239688
Mussenberg,98,,,6005LG,Weert,Weert,Limburg,VBO,5.722859,51.239767
Peelbeemd,1,,,6005LH,Weert,Weert,Limburg,VBO,5.720281,51.240870
Peelbeemd,2,,,6005LH,Weert,Weert,Limburg,VBO,5.719807,51.240800
Peelbeemd,3,,,6005LH,Weert,Weert,Limburg,VBO,5.720216,51.240830
Peelbeemd,4,,,6005LH,Weert,Weert,Limburg,VBO,5.719776,51.240754
Peelbeemd,5,,,6005LH,Weert,Weert,Limburg,VBO,5.720118,51.240730
Peelbeemd,6,,,6005LH,Weert,Weert,Limburg,VBO,5.719790,51.240318
Peelbeemd,7,,,6005LH,Weert,Weert,Limburg,VBO,5.720089,51.240675
Peelbeemd,8,,,6005LH,Weert,Weert,Limburg,VBO,5.719798,51.240263
Peelbeemd,9,,,6005LH,Weert,Weert,Limburg,VBO,5.720066,51.240526
Peelbeemd,10,,,6005LH,Weert,Weert,Limburg,VBO,5.719808,51.240203
Peelbeemd,11,,,6005LH,Weert,Weert,Limburg,VBO,5.720096,51.240473
Peelbeemd,12,,,6005LH,Weert,Weert,Limburg,VBO,5.719825,51.240095
Peelbeemd,13,,,6005LH,Weert,Weert,Limburg,VBO,5.720180,51.239886
Peelbeemd,14,,,6005LH,Weert,Weert,Limburg,VBO,5.719834,51.240040
Peelbeemd,15,,,6005LH,Weert,Weert,Limburg,VBO,5.720189,51.239831
Peelbeemd,16,,,6005LH,Weert,Weert,Limburg,VBO,5.719851,51.239932
Peelbeemd,17,,,6005LH,Weert,Weert,Limburg,VBO,5.720198,51.239777
Peelbeemd,18,,,6005LH,Weert,Weert,Limburg,VBO,5.719860,51.239876
Peelbeemd,20,,,6005LH,Weert,Weert,Limburg,VBO,5.719878,51.239765
Peelbeemd,22,,,6005LH,Weert,Weert,Limburg,VBO,5.719886,51.239710
Rietzwenk,1,,,6005LJ,Weert,Weert,Limburg,VBO,5.719136,51.240515
Rietzwenk,2,,,6005LJ,Weert,Weert,Limburg,VBO,5.719124,51.240287
Rietzwenk,3,,,6005LJ,Weert,Weert,Limburg,VBO,5.719210,51.240509
Rietzwenk,4,,,6005LJ,Weert,Weert,Limburg,VBO,5.719328,51.240299
Rietzwenk,5,,,6005LJ,Weert,Weert,Limburg,VBO,5.719366,51.240524
Rietzwenk,6,,,6005LJ,Weert,Weert,Limburg,VBO,5.719416,51.240305
Rietzwenk,7,,,6005LJ,Weert,Weert,Limburg,VBO,5.719444,51.240518
Rietzwenk,9,,,6005LJ,Weert,Weert,Limburg,VBO,5.719599,51.240532
Rietzwenk,11,,,6005LJ,Weert,Weert,Limburg,VBO,5.719674,51.240526
Bosbeemd,1,,,6005LK,Weert,Weert,Limburg,VBO,5.721299,51.240475
Bosbeemd,2,,,6005LK,Weert,Weert,Limburg,VBO,5.720738,51.240361
Bosbeemd,3,,,6005LK,Weert,Weert,Limburg,VBO,5.721255,51.240429
Bosbeemd,4,,,6005LK,Weert,Weert,Limburg,VBO,5.720650,51.240355
Bosbeemd,5,,,6005LK,Weert,Weert,Limburg,VBO,5.721163,51.240335
Bosbeemd,6,,,6005LK,Weert,Weert,Limburg,VBO,5.720474,51.240344
Bosbeemd,7,,,6005LK,Weert,Weert,Limburg,VBO,5.721117,51.240287
Bosbeemd,8,,,6005LK,Weert,Weert,Limburg,VBO,5.720386,51.240338
Bosbeemd,9,,,6005LK,Weert,Weert,Limburg,VBO,5.721038,51.240180
Bosbeemd,11,,,6005LK,Weert,Weert,Limburg,VBO,5.720966,51.240152
Bosbeemd,13,,,6005LK,Weert,Weert,Limburg,VBO,5.720785,51.240146
Bosbeemd,15,,,6005LK,Weert,Weert,Limburg,VBO,5.720697,51.240140
Bosbeemd,17,,,6005LK,Weert,Weert,Limburg,VBO,5.720521,51.240129
Bosbeemd,19,,,6005LK,Weert,Weert,Limburg,VBO,5.720433,51.240124
Bosbeemd,21,,,6005LK,Weert,Weert,Limburg,VBO,5.720258,51.240113
Bosbeemd,23,,,6005LK,Weert,Weert,Limburg,VBO,5.720173,51.240107
De Graspieper,1,,,6005LL,Weert,Weert,Limburg,VBO,5.720780,51.243055
De Graspieper,3,,,6005LL,Weert,Weert,Limburg,VBO,5.720774,51.243025
De Graspieper,5,,,6005LL,Weert,Weert,Limburg,VBO,5.720766,51.242993
De Graspieper,7,,,6005LL,Weert,Weert,Limburg,VBO,5.720719,51.243049
De Graspieper,9,,,6005LL,Weert,Weert,Limburg,VBO,5.720713,51.243020
De Graspieper,11,,,6005LL,Weert,Weert,Limburg,VBO,5.720709,51.242993
De Graspieper,13,,,6005LL,Weert,Weert,Limburg,VBO,5.720661,51.243055
De Graspieper,15,,,6005LL,Weert,Weert,Limburg,VBO,5.720653,51.243023
De Graspieper,17,,,6005LL,Weert,Weert,Limburg,VBO,5.720649,51.242990
De Graspieper,19,,,6005LL,Weert,Weert,Limburg,VBO,5.720386,51.243088
De Graspieper,21,,,6005LL,Weert,Weert,Limburg,VBO,5.720380,51.243056
De Graspieper,23,,,6005LL,Weert,Weert,Limburg,VBO,5.720374,51.243022
De Graspieper,25,,,6005LL,Weert,Weert,Limburg,VBO,5.720464,51.243067
De Graspieper,27,,,6005LL,Weert,Weert,Limburg,VBO,5.720458,51.243035
De Graspieper,29,,,6005LL,Weert,Weert,Limburg,VBO,5.720452,51.243002
De Graspieper,31,,,6005LL,Weert,Weert,Limburg,VBO,5.720537,51.243053
De Graspieper,33,,,6005LL,Weert,Weert,Limburg,VBO,5.720532,51.243021
De Graspieper,35,,,6005LL,Weert,Weert,Limburg,VBO,5.720520,51.242988
De Graspieper,37,,,6005LM,Weert,Weert,Limburg,VBO,5.719913,51.243101
De Graspieper,39,,,6005LM,Weert,Weert,Limburg,VBO,5.719864,51.243090
De Graspieper,41,,,6005LM,Weert,Weert,Limburg,VBO,5.719816,51.243079
De Graspieper,43,,,6005LM,Weert,Weert,Limburg,VBO,5.719900,51.243135
De Graspieper,45,,,6005LM,Weert,Weert,Limburg,VBO,5.719847,51.243121
De Graspieper,47,,,6005LM,Weert,Weert,Limburg,VBO,5.719798,51.243110
De Graspieper,49,,,6005LM,Weert,Weert,Limburg,VBO,5.719883,51.243168
De Graspieper,51,,,6005LM,Weert,Weert,Limburg,VBO,5.719830,51.243155
De Graspieper,53,,,6005LM,Weert,Weert,Limburg,VBO,5.719779,51.243145
De Graspieper,55,,,6005LM,Weert,Weert,Limburg,VBO,5.719857,51.243236
De Graspieper,57,,,6005LM,Weert,Weert,Limburg,VBO,5.719804,51.243225
De Graspieper,59,,,6005LM,Weert,Weert,Limburg,VBO,5.719751,51.243217
De Graspieper,61,,,6005LM,Weert,Weert,Limburg,VBO,5.719837,51.243267
De Graspieper,63,,,6005LM,Weert,Weert,Limburg,VBO,5.719784,51.243257
De Graspieper,65,,,6005LM,Weert,Weert,Limburg,VBO,5.719731,51.243247
De Graspieper,67,,,6005LM,Weert,Weert,Limburg,VBO,5.719814,51.243301
De Graspieper,69,,,6005LM,Weert,Weert,Limburg,VBO,5.719761,51.243288
De Graspieper,71,,,6005LM,Weert,Weert,Limburg,VBO,5.719712,51.243278
De Graspieper,73,,,6005LM,Weert,Weert,Limburg,VBO,5.719738,51.243465
De Graspieper,75,,,6005LM,Weert,Weert,Limburg,VBO,5.719681,51.243453
De Graspieper,77,,,6005LM,Weert,Weert,Limburg,VBO,5.719628,51.243434
De Graspieper,79,,,6005LM,Weert,Weert,Limburg,VBO,5.719751,51.243428
De Graspieper,81,,,6005LM,Weert,Weert,Limburg,VBO,5.719692,51.243419
De Graspieper,83,,,6005LM,Weert,Weert,Limburg,VBO,5.719641,51.243402
De Graspieper,85,,,6005LM,Weert,Weert,Limburg,VBO,5.719758,51.243390
De Graspieper,87,,,6005LM,Weert,Weert,Limburg,VBO,5.719703,51.243380
De Graspieper,89,,,6005LM,Weert,Weert,Limburg,VBO,5.719654,51.243365
Gruttolaan,2,,,6005LN,Weert,Weert,Limburg,VBO,5.720014,51.243649
Gruttolaan,4,,,6005LN,Weert,Weert,Limburg,VBO,5.720162,51.243677
Gruttolaan,6,,,6005LN,Weert,Weert,Limburg,VBO,5.720038,51.243611
Gruttolaan,8,,,6005LN,Weert,Weert,Limburg,VBO,5.720178,51.243642
Gruttolaan,10,,,6005LN,Weert,Weert,Limburg,VBO,5.720050,51.243592
Gruttolaan,12,,,6005LN,Weert,Weert,Limburg,VBO,5.720190,51.243622
Gruttolaan,14,,,6005LN,Weert,Weert,Limburg,VBO,5.720063,51.243570
Gruttolaan,16,,,6005LN,Weert,Weert,Limburg,VBO,5.720136,51.243587
Gruttolaan,18,,,6005LN,Weert,Weert,Limburg,VBO,5.720200,51.243600
Gruttolaan,20,,,6005LN,Weert,Weert,Limburg,VBO,5.720243,51.243692
Gruttolaan,22,,,6005LN,Weert,Weert,Limburg,VBO,5.720387,51.243724
Gruttolaan,24,,,6005LN,Weert,Weert,Limburg,VBO,5.720256,51.243668
Gruttolaan,26,,,6005LN,Weert,Weert,Limburg,VBO,5.720399,51.243705
Gruttolaan,28,,,6005LN,Weert,Weert,Limburg,VBO,5.720270,51.243646
Gruttolaan,30,,,6005LN,Weert,Weert,Limburg,VBO,5.720412,51.243681
Gruttolaan,32,,,6005LN,Weert,Weert,Limburg,VBO,5.720282,51.243624
Gruttolaan,34,,,6005LN,Weert,Weert,Limburg,VBO,5.720362,51.243623
Gruttolaan,36,,,6005LN,Weert,Weert,Limburg,VBO,5.720426,51.243655
Gruttolaan,38,,,6005LN,Weert,Weert,Limburg,VBO,5.720447,51.243737
Gruttolaan,40,,,6005LN,Weert,Weert,Limburg,VBO,5.720593,51.243769
Gruttolaan,42,,,6005LN,Weert,Weert,Limburg,VBO,5.720455,51.243716
Gruttolaan,44,,,6005LN,Weert,Weert,Limburg,VBO,5.720607,51.243746
Gruttolaan,46,,,6005LN,Weert,Weert,Limburg,VBO,5.720469,51.243694
Gruttolaan,48,,,6005LN,Weert,Weert,Limburg,VBO,5.720617,51.243725
Gruttolaan,50,,,6005LN,Weert,Weert,Limburg,VBO,5.720484,51.243669
Gruttolaan,52,,,6005LN,Weert,Weert,Limburg,VBO,5.720564,51.243687
Gruttolaan,54,,,6005LN,Weert,Weert,Limburg,VBO,5.720631,51.243697
Gruttolaan,56,,,6005LP,Weert,Weert,Limburg,VBO,5.720845,51.243870
Gruttolaan,58,,,6005LP,Weert,Weert,Limburg,VBO,5.720976,51.243901
Gruttolaan,60,,,6005LP,Weert,Weert,Limburg,VBO,5.720858,51.243844
Gruttolaan,62,,,6005LP,Weert,Weert,Limburg,VBO,5.720986,51.243879
Gruttolaan,64,,,6005LP,Weert,Weert,Limburg,VBO,5.720869,51.243824
Gruttolaan,66,,,6005LP,Weert,Weert,Limburg,VBO,5.720999,51.243855
Gruttolaan,68,,,6005LP,Weert,Weert,Limburg,VBO,5.720881,51.243799
Gruttolaan,70,,,6005LP,Weert,Weert,Limburg,VBO,5.720963,51.243806
Gruttolaan,72,,,6005LP,Weert,Weert,Limburg,VBO,5.721017,51.243827
Gruttolaan,74,,,6005LP,Weert,Weert,Limburg,VBO,5.721082,51.243909
Gruttolaan,76,,,6005LP,Weert,Weert,Limburg,VBO,5.721099,51.243885
Gruttolaan,78,,,6005LP,Weert,Weert,Limburg,VBO,5.721117,51.243859
Gruttolaan,80,,,6005LP,Weert,Weert,Limburg,VBO,5.721122,51.243847
Gruttolaan,82,,,6005LP,Weert,Weert,Limburg,VBO,5.721133,51.243920
Gruttolaan,84,,,6005LP,Weert,Weert,Limburg,VBO,5.721146,51.243899
Gruttolaan,86,,,6005LP,Weert,Weert,Limburg,VBO,5.721163,51.243873
Gruttolaan,88,,,6005LP,Weert,Weert,Limburg,VBO,5.721180,51.243848
Gruttolaan,90,,,6005LP,Weert,Weert,Limburg,VBO,5.721186,51.243921
Gruttolaan,92,,,6005LP,Weert,Weert,Limburg,VBO,5.721306,51.243956
Gruttolaan,94,,,6005LP,Weert,Weert,Limburg,VBO,5.721435,51.244002
Gruttolaan,96,,,6005LP,Weert,Weert,Limburg,VBO,5.721308,51.243936
Gruttolaan,98,,,6005LP,Weert,Weert,Limburg,VBO,5.721445,51.243982
Gruttolaan,100,,,6005LP,Weert,Weert,Limburg,VBO,5.721319,51.243911
Gruttolaan,102,,,6005LP,Weert,Weert,Limburg,VBO,5.721457,51.243955
Gruttolaan,104,,,6005LP,Weert,Weert,Limburg,VBO,5.721331,51.243890
Gruttolaan,106,,,6005LP,Weert,Weert,Limburg,VBO,5.721402,51.243893
Gruttolaan,108,,,6005LP,Weert,Weert,Limburg,VBO,5.721469,51.243927
De Groenling,2,,,6005LS,Weert,Weert,Limburg,VBO,5.722265,51.243941
De Groenling,4,,,6005LS,Weert,Weert,Limburg,VBO,5.722280,51.243911
De Groenling,6,,,6005LS,Weert,Weert,Limburg,VBO,5.722297,51.243881
De Groenling,8,,,6005LS,Weert,Weert,Limburg,VBO,5.722303,51.243952
De Groenling,10,,,6005LS,Weert,Weert,Limburg,VBO,5.722326,51.243924
De Groenling,12,,,6005LS,Weert,Weert,Limburg,VBO,5.722341,51.243893
De Groenling,14,,,6005LS,Weert,Weert,Limburg,VBO,5.722341,51.243964
De Groenling,16,,,6005LS,Weert,Weert,Limburg,VBO,5.722360,51.243937
De Groenling,18,,,6005LS,Weert,Weert,Limburg,VBO,5.722379,51.243906
De Groenling,20,,,6005LS,Weert,Weert,Limburg,VBO,5.722379,51.243971
De Groenling,22,,,6005LS,Weert,Weert,Limburg,VBO,5.722400,51.243949
De Groenling,24,,,6005LS,Weert,Weert,Limburg,VBO,5.722424,51.243915
De Groenling,26,,,6005LS,Weert,Weert,Limburg,VBO,5.722734,51.244038
De Groenling,28,,,6005LS,Weert,Weert,Limburg,VBO,5.722753,51.244007
De Groenling,30,,,6005LS,Weert,Weert,Limburg,VBO,5.722772,51.243977
De Groenling,32,,,6005LS,Weert,Weert,Limburg,VBO,5.722687,51.244027
De Groenling,34,,,6005LS,Weert,Weert,Limburg,VBO,5.722704,51.243999
De Groenling,36,,,6005LS,Weert,Weert,Limburg,VBO,5.722722,51.243967
De Groenling,38,,,6005LS,Weert,Weert,Limburg,VBO,5.722643,51.244017
De Groenling,40,,,6005LS,Weert,Weert,Limburg,VBO,5.722664,51.243988
De Groenling,42,,,6005LS,Weert,Weert,Limburg,VBO,5.722681,51.243960
De Groenling,44,,,6005LS,Weert,Weert,Limburg,VBO,5.722599,51.244010
De Groenling,46,,,6005LS,Weert,Weert,Limburg,VBO,5.722614,51.243979
De Groenling,48,,,6005LS,Weert,Weert,Limburg,VBO,5.722633,51.243948
De Groenling,1,,,6005LT,Weert,Weert,Limburg,VBO,5.721864,51.243723
De Groenling,3,,,6005LT,Weert,Weert,Limburg,VBO,5.721826,51.243805
De Groenling,5,,,6005LT,Weert,Weert,Limburg,VBO,5.721833,51.243717
De Groenling,7,,,6005LT,Weert,Weert,Limburg,VBO,5.721793,51.243799
De Groenling,9,,,6005LT,Weert,Weert,Limburg,VBO,5.721800,51.243710
De Groenling,11,,,6005LT,Weert,Weert,Limburg,VBO,5.721757,51.243793
De Groenling,13,,,6005LT,Weert,Weert,Limburg,VBO,5.721760,51.243701
De Groenling,15,,,6005LT,Weert,Weert,Limburg,VBO,5.721717,51.243735
De Groenling,17,,,6005LT,Weert,Weert,Limburg,VBO,5.721713,51.243787
De Groenling,19,,,6005LT,Weert,Weert,Limburg,VBO,5.721802,51.243859
De Groenling,21,,,6005LT,Weert,Weert,Limburg,VBO,5.721750,51.243947
De Groenling,23,,,6005LT,Weert,Weert,Limburg,VBO,5.721765,51.243850
De Groenling,25,,,6005LT,Weert,Weert,Limburg,VBO,5.721713,51.243942
De Groenling,27,,,6005LT,Weert,Weert,Limburg,VBO,5.721725,51.243841
De Groenling,29,,,6005LT,Weert,Weert,Limburg,VBO,5.721681,51.243933
De Groenling,31,,,6005LT,Weert,Weert,Limburg,VBO,5.721686,51.243832
De Groenling,33,,,6005LT,Weert,Weert,Limburg,VBO,5.721650,51.243873
De Groenling,35,,,6005LT,Weert,Weert,Limburg,VBO,5.721636,51.243925
Vensteeg,2,,,6005MA,Weert,Weert,Limburg,VBO,5.727458,51.240693
Vensteeg,4,,,6005MA,Weert,Weert,Limburg,VBO,5.727662,51.241229
Moeselpeelweg,5,,,6005MC,Weert,Weert,Limburg,VBO,5.727443,51.239042
Moeselpeelweg,6,,,6005MC,Weert,Weert,Limburg,VBO,5.727136,51.238859
Moeselpeelweg,8,,,6005MC,Weert,Weert,Limburg,VBO,5.727079,51.238562
Moeselschansweg,2,,,6005NA,Weert,Weert,Limburg,VBO,5.718220,51.241247
Moeselschansweg,3,,,6005NA,Weert,Weert,Limburg,VBO,5.718199,51.241496
Moeselschansweg,4,,,6005NA,Weert,Weert,Limburg,VBO,5.718463,51.241266
Moeselschansweg,6,,,6005NA,Weert,Weert,Limburg,VBO,5.719475,51.241211
Moeselschansweg,8,,,6005NA,Weert,Weert,Limburg,VBO,5.719546,51.241184
Moeselschansweg,10,,,6005NA,Weert,Weert,Limburg,VBO,5.719689,51.241128
Moeselschansweg,11,,,6005NA,Weert,Weert,Limburg,VBO,5.720221,51.241219
Moeselschansweg,12,,,6005NA,Weert,Weert,Limburg,VBO,5.719760,51.241101
Moeselschansweg,13,,,6005NA,Weert,Weert,Limburg,VBO,5.720428,51.241133
Moeselschansweg,14,,,6005NA,Weert,Weert,Limburg,VBO,5.719896,51.241048
Moeselschansweg,15,,,6005NA,Weert,Weert,Limburg,VBO,5.721187,51.240838
Moeselschansweg,16,,,6005NA,Weert,Weert,Limburg,VBO,5.719967,51.241020
Moeselschansweg,18,,,6005NA,Weert,Weert,Limburg,VBO,5.720668,51.240755
Moeselschansweg,20,,,6005NA,Weert,Weert,Limburg,VBO,5.720852,51.240684
Moeselschansweg,21,,,6005NA,Weert,Weert,Limburg,VBO,5.721473,51.240730
Moeselschansweg,22,,,6005NA,Weert,Weert,Limburg,VBO,5.721025,51.240617
Moeselschansweg,23,,,6005NA,Weert,Weert,Limburg,VBO,5.721640,51.240667
Moeselschansweg,25,,,6005NA,Weert,Weert,Limburg,VBO,5.721835,51.240594
Moeselschansweg,26,,,6005NA,Weert,Weert,Limburg,VBO,5.721662,51.240363
Moeselschansweg,27,,,6005NA,Weert,Weert,Limburg,VBO,5.722045,51.240531
Moeselschansweg,28,,,6005NA,Weert,Weert,Limburg,VBO,5.721730,51.240337
Moeselschansweg,30,,,6005NA,Weert,Weert,Limburg,VBO,5.721895,51.240284
Moeselschansweg,32,,,6005NA,Weert,Weert,Limburg,VBO,5.721968,51.240263
Moeselschansweg,33,,,6005NA,Weert,Weert,Limburg,VBO,5.722750,51.240310
Moeselschansweg,34,,,6005NA,Weert,Weert,Limburg,VBO,5.722118,51.240221
Moeselschansweg,35,,,6005NA,Weert,Weert,Limburg,VBO,5.722920,51.240253
Moeselschansweg,36,,,6005NA,Weert,Weert,Limburg,VBO,5.722316,51.240160
Moeselschansweg,37,,,6005NA,Weert,Weert,Limburg,VBO,5.723130,51.240203
Moeselschansweg,38,,,6005NA,Weert,Weert,Limburg,VBO,5.722398,51.240136
Moeselschansweg,40,,,6005NA,Weert,Weert,Limburg,VBO,5.722653,51.240069
Moeselschansweg,41,,,6005NA,Weert,Weert,Limburg,VBO,5.723680,51.240107
Moeselschansweg,42,,,6005NA,Weert,Weert,Limburg,VBO,5.723115,51.239938
Moeselschansweg,43,,,6005NA,Weert,Weert,Limburg,VBO,5.723689,51.240232
Moeselschansweg,44,,,6005NA,Weert,Weert,Limburg,VBO,5.723501,51.239828
Moeselschansweg,45,,,6005NA,Weert,Weert,Limburg,VBO,5.723700,51.240535
Moeselschansweg,46,,,6005NA,Weert,Weert,Limburg,VBO,5.723587,51.239794
Moeselschansweg,47,,,6005NA,Weert,Weert,Limburg,VBO,5.723900,51.240544
Moeselschansweg,48,,,6005NA,Weert,Weert,Limburg,VBO,5.723912,51.239787
Moeselschansweg,49,,,6005NA,Weert,Weert,Limburg,VBO,5.723979,51.240763
Moeselschansweg,51,,,6005NA,Weert,Weert,Limburg,VBO,5.724023,51.240888
Moeselschansweg,64,,,6005NA,Weert,Weert,Limburg,VBO,5.724050,51.240034
Moeselschansweg,66,,,6005NA,Weert,Weert,Limburg,VBO,5.724106,51.240164
Moeselschansweg,68,,,6005NA,Weert,Weert,Limburg,VBO,5.724171,51.240315
Moeselschansweg,70,,,6005NA,Weert,Weert,Limburg,VBO,5.724537,51.240336
Moeselschansweg,72,,,6005NA,Weert,Weert,Limburg,VBO,5.724602,51.240486
Moeselschansweg,74,,,6005NA,Weert,Weert,Limburg,VBO,5.724550,51.240603
Moeselschansweg,76,,,6005NA,Weert,Weert,Limburg,VBO,5.724327,51.240672
Moeselschansweg,78,,,6005NA,Weert,Weert,Limburg,VBO,5.724456,51.241032
Koekoekszijweg,10,,,6005NB,Weert,Weert,Limburg,VBO,5.737143,51.244511
Mellenakkerweg,1,,,6005NC,Weert,Weert,Limburg,VBO,5.722267,51.240742
Mellenakkerweg,2,,,6005NC,Weert,Weert,Limburg,VBO,5.722444,51.240423
Mellenakkerweg,3,,,6005NC,Weert,Weert,Limburg,VBO,5.722340,51.240854
Mellenakkerweg,4,,,6005NC,Weert,Weert,Limburg,VBO,5.722528,51.240585
Mellenakkerweg,5,,,6005NC,Weert,Weert,Limburg,VBO,5.722430,51.241008
Mellenakkerweg,6,,,6005NC,Weert,Weert,Limburg,VBO,5.722666,51.240763
Mellenakkerweg,8,,,6005NC,Weert,Weert,Limburg,VBO,5.722769,51.240934
Mellenakkerweg,10,,,6005NC,Weert,Weert,Limburg,VBO,5.722823,51.241035
Mellenakkerweg,12,,,6005NC,Weert,Weert,Limburg,VBO,5.722875,51.241151
Gebleektesteeg,5,,,6005ND,Weert,Weert,Limburg,VBO,5.728896,51.240953
Gebleektesteeg,8,,,6005ND,Weert,Weert,Limburg,VBO,5.726503,51.240436
Gebleektesteeg,10,,,6005ND,Weert,Weert,Limburg,VBO,5.727080,51.240285
Gebleektesteeg,15,,,6005ND,Weert,Weert,Limburg,VBO,5.737125,51.240404
Gebleektesteeg,17,,,6005ND,Weert,Weert,Limburg,VBO,5.737114,51.240950
Gebleektesteeg,19,,,6005ND,Weert,Weert,Limburg,VBO,5.738707,51.241850
Breijbaan,1,,,6005NE,Weert,Weert,Limburg,VBO,5.739053,51.244612
Breijbaan,4,,,6005NE,Weert,Weert,Limburg,VBO,5.737376,51.245956
Breijbaan,5,,,6005NE,Weert,Weert,Limburg,VBO,5.739836,51.242889
Breijbaan,6,,,6005NE,Weert,Weert,Limburg,VBO,5.738696,51.245606
Breijbaan,8,,,6005NE,Weert,Weert,Limburg,VBO,5.738623,51.245186
Breijbaan,11,,,6005NE,Weert,Weert,Limburg,VBO,5.750893,51.239067
Breijbaan,12,A,,6005NE,Weert,Weert,Limburg,VBO,5.739196,51.242756
Breijbaan,12,,,6005NE,Weert,Weert,Limburg,VBO,5.739328,51.242760
Breijbaan,13,A,,6005NE,Weert,Weert,Limburg,VBO,5.753530,51.238521
Breijbaan,13,B,,6005NE,Weert,Weert,Limburg,VBO,5.753444,51.238555
Breijbaan,13,C,,6005NE,Weert,Weert,Limburg,VBO,5.753570,51.238559
Breijbaan,13,D,,6005NE,Weert,Weert,Limburg,VBO,5.753484,51.238591
Breijbaan,13,E,,6005NE,Weert,Weert,Limburg,VBO,5.753606,51.238604
Breijbaan,13,,,6005NE,Weert,Weert,Limburg,VBO,5.753515,51.238644
Breijbaan,17,,,6005NE,Weert,Weert,Limburg,VBO,5.757531,51.237279
Breijbaan,18,,,6005NE,Weert,Weert,Limburg,VBO,5.740068,51.241512
Breijbaan,30,,,6005NE,Weert,Weert,Limburg,VBO,5.747254,51.238904
Breijbaan,34,A,,6005NE,Weert,Weert,Limburg,VBO,5.749490,51.238631
Breijbaan,34,,,6005NE,Weert,Weert,Limburg,VBO,5.749347,51.238644
Breijbaan,36,,,6005NE,Weert,Weert,Limburg,VBO,5.751777,51.238476
Breijbaan,38,,,6005NE,Weert,Weert,Limburg,VBO,5.753340,51.238271
Breijbaan,40,,,6005NE,Weert,Weert,Limburg,VBO,5.754715,51.237852
Breijbaan,46,,,6005NE,Weert,Weert,Limburg,VBO,5.760065,51.236464
Breijbaan,52,,,6005NE,Weert,Weert,Limburg,VBO,5.761805,51.236068
Breijbaan,56,,,6005NE,Weert,Weert,Limburg,VBO,5.763318,51.235113
Breijbaan,58,,,6005NE,Weert,Weert,Limburg,VBO,5.764570,51.235305
Breijbaan,60,,,6005NE,Weert,Weert,Limburg,VBO,5.765592,51.234640
Breijbaan,66,A,,6005NE,Weert,Weert,Limburg,VBO,5.767606,51.233514
Breijbaan,66,,,6005NE,Weert,Weert,Limburg,VBO,5.768417,51.233661
Koekoeksweg,4,A,,6005NG,Weert,Weert,Limburg,VBO,5.730659,51.245472
Koekoeksweg,4,,,6005NG,Weert,Weert,Limburg,VBO,5.729867,51.245468
Koekoeksweg,5,,,6005NG,Weert,Weert,Limburg,VBO,5.730552,51.245776
Koekoeksweg,6,A,,6005NG,Weert,Weert,Limburg,VBO,5.731807,51.244978
Koekoeksweg,6,,,6005NG,Weert,Weert,Limburg,VBO,5.730847,51.245410
Koekoeksweg,7,A,,6005NG,Weert,Weert,Limburg,VBO,5.734089,51.245039
Koekoeksweg,7,,,6005NG,Weert,Weert,Limburg,VBO,5.732574,51.245144
Koekoeksweg,8,A,,6005NG,Weert,Weert,Limburg,VBO,5.733844,51.244853
Koekoeksweg,8,,,6005NG,Weert,Weert,Limburg,VBO,5.733652,51.244855
Koekoeksweg,9,,,6005NG,Weert,Weert,Limburg,VBO,5.734474,51.245039
Koekoeksweg,14,,,6005NG,Weert,Weert,Limburg,VBO,5.738329,51.244762
Koekoeksweg,15,,,6005NG,Weert,Weert,Limburg,VBO,5.738603,51.245078
Koekoeksweg,16,,,6005NG,Weert,Weert,Limburg,VBO,5.740342,51.244971
Koekoeksweg,18,,,6005NG,Weert,Weert,Limburg,VBO,5.740903,51.244788
Koekoeksweg,19,,,6005NG,Weert,Weert,Limburg,VBO,5.739407,51.245060
Koekoeksweg,20,A,,6005NG,Weert,Weert,Limburg,VBO,5.741558,51.245411
Koekoeksweg,20,,,6005NG,Weert,Weert,Limburg,VBO,5.741352,51.245298
Koekoeksweg,23,,,6005NG,Weert,Weert,Limburg,VBO,5.740442,51.245305
Koekoeksweg,24,,,6005NG,Weert,Weert,Limburg,VBO,5.742182,51.245897
Koekoeksweg,25,,,6005NG,Weert,Weert,Limburg,VBO,5.740675,51.245458
Koekoeksweg,29,,,6005NG,Weert,Weert,Limburg,VBO,5.741126,51.245771
Koekoeksweg,31,,,6005NG,Weert,Weert,Limburg,VBO,5.741287,51.245893
Haanheuvelweg,5,,,6005NH,Weert,Weert,Limburg,VBO,5.740291,51.239870
Roermondseweg,155,,,6005NJ,Weert,Weert,Limburg,VBO,5.752964,51.244664
Roermondseweg,156,,,6005NJ,Weert,Weert,Limburg,VBO,5.753180,51.244197
Roermondseweg,157,,,6005NJ,Weert,Weert,Limburg,VBO,5.753395,51.244914
Roermondseweg,158,A,,6005NJ,Weert,Weert,Limburg,VBO,5.764211,51.240549
Roermondseweg,158,,,6005NJ,Weert,Weert,Limburg,VBO,5.764129,51.240612
Roermondseweg,160,,,6005NJ,Weert,Weert,Limburg,VBO,5.766359,51.240638
Roermondseweg,162,,,6005NJ,Weert,Weert,Limburg,VBO,5.767082,51.239907
Roermondseweg,163,,,6005NJ,Weert,Weert,Limburg,VBO,5.757586,51.243362
Roermondseweg,164,,,6005NJ,Weert,Weert,Limburg,VBO,5.771113,51.239477
Roermondseweg,165,,,6005NJ,Weert,Weert,Limburg,VBO,5.758450,51.243149
Roermondseweg,167,,,6005NJ,Weert,Weert,Limburg,VBO,5.759333,51.243071
Roermondseweg,169,,,6005NJ,Weert,Weert,Limburg,VBO,5.759719,51.243073
Roermondseweg,170,,,6005NJ,Weert,Weert,Limburg,VBO,5.779655,51.237217
Roermondseweg,172,,,6005NJ,Weert,Weert,Limburg,VBO,5.785516,51.235484
Roermondseweg,173,,,6005NJ,Weert,Weert,Limburg,VBO,5.761235,51.242227
Roermondseweg,175,A,,6005NJ,Weert,Weert,Limburg,VBO,5.763337,51.241710
Roermondseweg,175,,,6005NJ,Weert,Weert,Limburg,VBO,5.763023,51.242025
Roermondseweg,181,,,6005NJ,Weert,Weert,Limburg,VBO,5.767811,51.241115
Roermondseweg,189,,,6005NJ,Weert,Weert,Limburg,VBO,5.776812,51.238702
Roermondseweg,191,,,6005NJ,Weert,Weert,Limburg,VBO,5.777348,51.238954
Roermondseweg,193,,,6005NJ,Weert,Weert,Limburg,VBO,5.781721,51.236976
Roermondseweg,199,,,6005NJ,Weert,Weert,Limburg,VBO,5.785784,51.236189
Roermondseweg,203,,,6005NJ,Weert,Weert,Limburg,VBO,5.789470,51.236073
Molenbrugweg,1,,,6005NK,Weert,Weert,Limburg,VBO,5.780764,51.233533
Molenbrugweg,3,,,6005NK,Weert,Weert,Limburg,VBO,5.781293,51.234643
Molenbrugweg,4,,,6005NK,Weert,Weert,Limburg,VBO,5.781221,51.233768
Molenbrugweg,8,,,6005NK,Weert,Weert,Limburg,VBO,5.781464,51.234240
Molenbrugweg,14,,,6005NK,Weert,Weert,Limburg,VBO,5.781993,51.235568
Uilenspiegelweg,2,,,6005NL,Weert,Weert,Limburg,VBO,5.773312,51.241040
Uilenspiegelweg,4,,,6005NL,Weert,Weert,Limburg,VBO,5.773596,51.241041
Heikempweg,1,,,6005NM,Weert,Weert,Limburg,VBO,5.767400,51.237067
Heikempweg,2,,,6005NM,Weert,Weert,Limburg,VBO,5.767890,51.236872
Heikempweg,10,,,6005NM,Weert,Weert,Limburg,VBO,5.767809,51.237138
Heikempweg,11,,,6005NM,Weert,Weert,Limburg,VBO,5.767219,51.238037
Heikempweg,15,,,6005NM,Weert,Weert,Limburg,VBO,5.767884,51.239190
Ittervoorterweg,11,,,6005NP,Weert,Weert,Limburg,VBO,5.759641,51.240008
Ittervoorterweg,15,,,6005NP,Weert,Weert,Limburg,VBO,5.761203,51.239086
Ittervoorterweg,19,,,6005NP,Weert,Weert,Limburg,VBO,5.762064,51.238581
Ittervoorterweg,23,,,6005NP,Weert,Weert,Limburg,VBO,5.763027,51.239219
Ittervoorterweg,27,,,6005NP,Weert,Weert,Limburg,VBO,5.764392,51.238976
Ittervoorterweg,29,,,6005NP,Weert,Weert,Limburg,VBO,5.764294,51.238550
Ittervoorterweg,31,,,6005NP,Weert,Weert,Limburg,VBO,5.763247,51.238092
Ittervoorterweg,33,,,6005NP,Weert,Weert,Limburg,VBO,5.763842,51.237699
Ittervoorterweg,37,,,6005NP,Weert,Weert,Limburg,VBO,5.764137,51.237536
Ittervoorterweg,45,,,6005NP,Weert,Weert,Limburg,VBO,5.765645,51.236712
Ittervoorterweg,63,,,6005NP,Weert,Weert,Limburg,VBO,5.768632,51.234708
Ittervoorterweg,71,,,6005NP,Weert,Weert,Limburg,VBO,5.770273,51.232850
Ittervoorterweg,73,,,6005NP,Weert,Weert,Limburg,VBO,5.770286,51.232639
Ittervoorterweg,75,A,,6005NP,Weert,Weert,Limburg,VBO,5.770329,51.232387
Ittervoorterweg,75,,,6005NP,Weert,Weert,Limburg,VBO,5.770318,51.232502
Ittervoorterweg,77,,,6005NP,Weert,Weert,Limburg,VBO,5.770366,51.232198
Ittervoorterweg,79,,,6005NP,Weert,Weert,Limburg,VBO,5.770393,51.232076
Ittervoorterweg,81,,,6005NP,Weert,Weert,Limburg,VBO,5.770422,51.231944
Ittervoorterweg,83,,,6005NP,Weert,Weert,Limburg,VBO,5.770493,51.231755
Ittervoorterweg,85,,,6005NP,Weert,Weert,Limburg,VBO,5.770658,51.231463
Ittervoorterweg,87,,,6005NP,Weert,Weert,Limburg,VBO,5.770843,51.231204
Ittervoorterweg,89,,,6005NP,Weert,Weert,Limburg,VBO,5.771075,51.231015
Ittervoorterweg,91,,,6005NP,Weert,Weert,Limburg,VBO,5.771381,51.230804
Ittervoorterweg,93,,,6005NP,Weert,Weert,Limburg,VBO,5.771555,51.230630
Ittervoorterweg,95,,,6005NP,Weert,Weert,Limburg,VBO,5.771843,51.230354
Ittervoorterweg,97,A,,6005NP,Weert,Weert,Limburg,VBO,5.772027,51.230244
Ittervoorterweg,97,B,,6005NP,Weert,Weert,Limburg,VBO,5.772118,51.230267
Ittervoorterweg,97,C,,6005NP,Weert,Weert,Limburg,VBO,5.772232,51.230299
Ittervoorterweg,97,,,6005NP,Weert,Weert,Limburg,VBO,5.771962,51.230185
Ittervoorterweg,99,A,,6005NP,Weert,Weert,Limburg,VBO,5.772090,51.229982
Ittervoorterweg,99,B,,6005NP,Weert,Weert,Limburg,VBO,5.772121,51.230017
Ittervoorterweg,99,C,,6005NP,Weert,Weert,Limburg,VBO,5.772032,51.229989
Ittervoorterweg,99,D,,6005NP,Weert,Weert,Limburg,VBO,5.772155,51.229967
Ittervoorterweg,99,E,,6005NP,Weert,Weert,Limburg,VBO,5.772103,51.229942
Ittervoorterweg,99,F,,6005NP,Weert,Weert,Limburg,VBO,5.772052,51.229952
Ittervoorterweg,99,G,,6005NP,Weert,Weert,Limburg,VBO,5.772174,51.230001
Ittervoorterweg,99,H,,6005NP,Weert,Weert,Limburg,VBO,5.772162,51.229931
Ittervoorterweg,99,J,,6005NP,Weert,Weert,Limburg,VBO,5.772063,51.229916
Ittervoorterweg,99,K,,6005NP,Weert,Weert,Limburg,VBO,5.772210,51.229974
Ittervoorterweg,99,,,6005NP,Weert,Weert,Limburg,VBO,5.772061,51.230021
Ittervoorterweg,101,A,,6005NP,Weert,Weert,Limburg,VBO,5.772210,51.229838
Ittervoorterweg,101,,,6005NP,Weert,Weert,Limburg,VBO,5.772006,51.230018
Ittervoorterweg,103,,,6005NP,Weert,Weert,Limburg,VBO,5.772516,51.229434
Ittervoorterweg,105,,,6005NP,Weert,Weert,Limburg,VBO,5.772599,51.229322
Ittervoorterweg,107,,,6005NP,Weert,Weert,Limburg,VBO,5.772682,51.229209
Ittervoorterweg,109,,,6005NP,Weert,Weert,Limburg,VBO,5.773012,51.228824
Ittervoorterweg,111,,,6005NP,Weert,Weert,Limburg,VBO,5.773135,51.228722
Ittervoorterweg,123,,,6005NP,Weert,Weert,Limburg,VBO,5.775085,51.227300
Ittervoorterweg,133,,,6005NP,Weert,Weert,Limburg,VBO,5.777066,51.225898
Ittervoorterweg,2,,,6005NR,Weert,Weert,Limburg,VBO,5.755795,51.241949
Ittervoorterweg,6,,,6005NR,Weert,Weert,Limburg,VBO,5.756136,51.241061
Ittervoorterweg,8,,,6005NR,Weert,Weert,Limburg,VBO,5.756016,51.240495
Ittervoorterweg,10,,,6005NR,Weert,Weert,Limburg,VBO,5.757778,51.239922
Ittervoorterweg,12,,,6005NR,Weert,Weert,Limburg,VBO,5.758349,51.239486
Ittervoorterweg,14,,,6005NR,Weert,Weert,Limburg,VBO,5.759702,51.239381
Ittervoorterweg,18,A,,6005NR,Weert,Weert,Limburg,VBO,5.761293,51.238413
Ittervoorterweg,18,,,6005NR,Weert,Weert,Limburg,VBO,5.761460,51.238366
Ittervoorterweg,24,,,6005NR,Weert,Weert,Limburg,VBO,5.763024,51.237608
Ittervoorterweg,36,,,6005NR,Weert,Weert,Limburg,VBO,5.767759,51.234764
Ittervoorterweg,40,,,6005NR,Weert,Weert,Limburg,VBO,5.768372,51.234433
Ittervoorterweg,42,,,6005NR,Weert,Weert,Limburg,VBO,5.768517,51.234316
Ittervoorterweg,54,,,6005NR,Weert,Weert,Limburg,VBO,5.769797,51.232323
Ittervoorterweg,56,,,6005NR,Weert,Weert,Limburg,VBO,5.769841,51.232112
Ittervoorterweg,58,A,,6005NR,Weert,Weert,Limburg,VBO,5.769892,51.231781
Ittervoorterweg,58,,,6005NR,Weert,Weert,Limburg,VBO,5.769861,51.231976
Ittervoorterweg,60,,,6005NR,Weert,Weert,Limburg,VBO,5.770505,51.231126
Ittervoorterweg,62,,,6005NR,Weert,Weert,Limburg,VBO,5.770752,51.230890
Ittervoorterweg,64,,,6005NR,Weert,Weert,Limburg,VBO,5.770831,51.230754
Ittervoorterweg,66,,,6005NR,Weert,Weert,Limburg,VBO,5.771035,51.230594
Ittervoorterweg,68,,,6005NR,Weert,Weert,Limburg,VBO,5.771778,51.229656
Ittervoorterweg,70,A,,6005NR,Weert,Weert,Limburg,VBO,5.772133,51.229269
Ittervoorterweg,70,B,,6005NR,Weert,Weert,Limburg,VBO,5.772075,51.229235
Ittervoorterweg,70,C,,6005NR,Weert,Weert,Limburg,VBO,5.771956,51.229253
Ittervoorterweg,70,D,,6005NR,Weert,Weert,Limburg,VBO,5.771928,51.229298
Ittervoorterweg,70,E,,6005NR,Weert,Weert,Limburg,VBO,5.771900,51.229342
Ittervoorterweg,70,F,,6005NR,Weert,Weert,Limburg,VBO,5.772018,51.229222
Ittervoorterweg,70,G,,6005NR,Weert,Weert,Limburg,VBO,5.771958,51.229205
Ittervoorterweg,70,H,,6005NR,Weert,Weert,Limburg,VBO,5.771733,51.229207
Ittervoorterweg,72,,,6005NR,Weert,Weert,Limburg,VBO,5.772228,51.229115
Ittervoorterweg,74,,,6005NR,Weert,Weert,Limburg,VBO,5.772756,51.228695
Ittervoorterweg,82,,,6005NR,Weert,Weert,Limburg,VBO,5.773852,51.227801
Ittervoorterweg,100,,,6005NR,Weert,Weert,Limburg,VBO,5.775380,51.225879
Ittervoorterweg,104,,,6005NR,Weert,Weert,Limburg,VBO,5.775596,51.225211
Wolfsvenweg,1,,,6005NS,Weert,Weert,Limburg,VBO,5.762826,51.237530
Wolfsvenweg,2,,,6005NS,Weert,Weert,Limburg,VBO,5.762626,51.237895
Kremersweg,2,,,6005NT,Weert,Weert,Limburg,VBO,5.770368,51.233727
Kremersweg,4,,,6005NT,Weert,Weert,Limburg,VBO,5.770489,51.234182
Kremersweg,14,,,6005NT,Weert,Weert,Limburg,VBO,5.771436,51.235235
Kremersweg,25,,,6005NT,Weert,Weert,Limburg,VBO,5.775086,51.238001
Kremersweg,27,,,6005NT,Weert,Weert,Limburg,VBO,5.775665,51.238194
Spikstraat,1,,,6005NV,Weert,Weert,Limburg,VBO,5.770721,51.234658
Spikstraat,3,,,6005NV,Weert,Weert,Limburg,VBO,5.776127,51.235644
Ringstraat,1,,,6005NW,Weert,Weert,Limburg,VBO,5.768484,51.231072
Ringstraat,2,,,6005NW,Weert,Weert,Limburg,VBO,5.768992,51.230464
Ringstraat,3,,,6005NW,Weert,Weert,Limburg,VBO,5.769473,51.231396
Ringstraat,4,,,6005NW,Weert,Weert,Limburg,VBO,5.768839,51.230597
Ringstraat,5,,,6005NW,Weert,Weert,Limburg,VBO,5.769756,51.231495
Ringstraat,6,,,6005NW,Weert,Weert,Limburg,VBO,5.768149,51.230743
Ringstraat,8,,,6005NW,Weert,Weert,Limburg,VBO,5.767170,51.230951
Ringstraat,10,,,6005NW,Weert,Weert,Limburg,VBO,5.768763,51.231460
Ringstraat,12,,,6005NW,Weert,Weert,Limburg,VBO,5.769140,51.231561
Ringstraat,14,,,6005NW,Weert,Weert,Limburg,VBO,5.769358,51.231630
Ringstraat,16,,,6005NW,Weert,Weert,Limburg,VBO,5.769541,51.231688
Coolenstraat,1,,,6005NX,Weert,Weert,Limburg,VBO,5.772000,51.230964
Coolenstraat,3,,,6005NX,Weert,Weert,Limburg,VBO,5.772425,51.230878
Coolenstraat,5,,,6005NX,Weert,Weert,Limburg,VBO,5.772795,51.231025
Coolenstraat,7,,,6005NX,Weert,Weert,Limburg,VBO,5.773378,51.231047
Coolenstraat,9,B,,6005NX,Weert,Weert,Limburg,VBO,5.774413,51.231309
Coolenstraat,9,,,6005NX,Weert,Weert,Limburg,VBO,5.773875,51.231244
Coolenstraat,11,A,,6005NX,Weert,Weert,Limburg,VBO,5.774827,51.231609
Coolenstraat,11,,,6005NX,Weert,Weert,Limburg,VBO,5.774563,51.231506
Coolenstraat,13,A,,6005NX,Weert,Weert,Limburg,VBO,5.775297,51.231800
Coolenstraat,13,B,,6005NX,Weert,Weert,Limburg,VBO,5.775489,51.231875
Coolenstraat,13,C,,6005NX,Weert,Weert,Limburg,VBO,5.775659,51.231963
Coolenstraat,13,D,,6005NX,Weert,Weert,Limburg,VBO,5.775838,51.232020
Coolenstraat,13,E,,6005NX,Weert,Weert,Limburg,VBO,5.776119,51.232068
Coolenstraat,13,,,6005NX,Weert,Weert,Limburg,VBO,5.775128,51.231735
Coolenstraat,15,A,,6005NX,Weert,Weert,Limburg,VBO,5.776692,51.232264
Coolenstraat,15,,,6005NX,Weert,Weert,Limburg,VBO,5.776205,51.232094
Coolenstraat,17,,,6005NX,Weert,Weert,Limburg,VBO,5.777291,51.232465
Coolenstraat,19,,,6005NX,Weert,Weert,Limburg,VBO,5.778295,51.232556
Coolenstraat,21,,,6005NX,Weert,Weert,Limburg,VBO,5.778780,51.232586
Coolenstraat,25,,,6005NX,Weert,Weert,Limburg,VBO,5.782139,51.233486
Coolenstraat,27,,,6005NX,Weert,Weert,Limburg,VBO,5.782703,51.233615
Coolenstraat,2,A,,6005NZ,Weert,Weert,Limburg,VBO,5.772311,51.230562
Coolenstraat,2,,,6005NZ,Weert,Weert,Limburg,VBO,5.772238,51.230541
Coolenstraat,4,A,,6005NZ,Weert,Weert,Limburg,VBO,5.772576,51.230627
Coolenstraat,4,,,6005NZ,Weert,Weert,Limburg,VBO,5.772505,51.230606
Coolenstraat,6,,,6005NZ,Weert,Weert,Limburg,VBO,5.772851,51.230683
Coolenstraat,8,,,6005NZ,Weert,Weert,Limburg,VBO,5.773248,51.230790
Coolenstraat,10,,,6005NZ,Weert,Weert,Limburg,VBO,5.773475,51.230836
Coolenstraat,12,,,6005NZ,Weert,Weert,Limburg,VBO,5.773691,51.230880
Coolenstraat,14,,,6005NZ,Weert,Weert,Limburg,VBO,5.773998,51.230940
Coolenstraat,16,,,6005NZ,Weert,Weert,Limburg,VBO,5.774401,51.231058
Coolenstraat,18,,,6005NZ,Weert,Weert,Limburg,VBO,5.774705,51.231161
Coolenstraat,20,,,6005NZ,Weert,Weert,Limburg,VBO,5.774878,51.231275
Coolenstraat,22,A,,6005NZ,Weert,Weert,Limburg,VBO,5.774971,51.231336
Coolenstraat,22,,,6005NZ,Weert,Weert,Limburg,VBO,5.774944,51.231303
Coolenstraat,24,A,,6005NZ,Weert,Weert,Limburg,VBO,5.776047,51.231817
Coolenstraat,24,B,,6005NZ,Weert,Weert,Limburg,VBO,5.776206,51.231631
Coolenstraat,24,C,,6005NZ,Weert,Weert,Limburg,VBO,5.775746,51.231525
Coolenstraat,24,,,6005NZ,Weert,Weert,Limburg,VBO,5.775529,51.231634
Coolenstraat,26,,,6005NZ,Weert,Weert,Limburg,VBO,5.776312,51.231950
Coolenstraat,30,,,6005NZ,Weert,Weert,Limburg,VBO,5.777304,51.232055
Coolenstraat,32,A,,6005NZ,Weert,Weert,Limburg,VBO,5.778133,51.232238
Coolenstraat,32,,,6005NZ,Weert,Weert,Limburg,VBO,5.777660,51.232134
Coolenstraat,34,,,6005NZ,Weert,Weert,Limburg,VBO,5.778561,51.232352
Coolenstraat,42,,,6005NZ,Weert,Weert,Limburg,VBO,5.780291,51.232759
Coolenstraat,44,,,6005NZ,Weert,Weert,Limburg,VBO,5.781172,51.233040
Coolenstraat,46,,,6005NZ,Weert,Weert,Limburg,VBO,5.782248,51.233176
Bertiliastraat,1,,,6005PA,Weert,Weert,Limburg,VBO,5.772391,51.229822
Bertiliastraat,3,,,6005PA,Weert,Weert,Limburg,VBO,5.772487,51.229849
Bertiliastraat,7,,,6005PA,Weert,Weert,Limburg,VBO,5.772741,51.229918
Bertiliastraat,9,,,6005PA,Weert,Weert,Limburg,VBO,5.772943,51.229976
Bertiliastraat,11,,,6005PA,Weert,Weert,Limburg,VBO,5.773134,51.230031
Bertiliastraat,13,,,6005PA,Weert,Weert,Limburg,VBO,5.773319,51.230084
Bertiliastraat,15,,,6005PA,Weert,Weert,Limburg,VBO,5.773572,51.230156
Bertiliastraat,17,,,6005PA,Weert,Weert,Limburg,VBO,5.773656,51.230181
Bertiliastraat,19,,,6005PA,Weert,Weert,Limburg,VBO,5.773820,51.230228
Bertiliastraat,21,,,6005PA,Weert,Weert,Limburg,VBO,5.773899,51.230251
Bertiliastraat,23,,,6005PA,Weert,Weert,Limburg,VBO,5.774062,51.230297
Bertiliastraat,2,A,,6005PB,Weert,Weert,Limburg,VBO,5.772770,51.229670
Bertiliastraat,2,,,6005PB,Weert,Weert,Limburg,VBO,5.772462,51.229551
Bertiliastraat,4,,,6005PB,Weert,Weert,Limburg,VBO,5.772920,51.229712
Bertiliastraat,6,,,6005PB,Weert,Weert,Limburg,VBO,5.773008,51.229737
Bertiliastraat,8,,,6005PB,Weert,Weert,Limburg,VBO,5.773154,51.229779
Bertiliastraat,10,,,6005PB,Weert,Weert,Limburg,VBO,5.773250,51.229806
Bertiliastraat,12,,,6005PB,Weert,Weert,Limburg,VBO,5.773395,51.229848
Bertiliastraat,14,,,6005PB,Weert,Weert,Limburg,VBO,5.773483,51.229874
Bertiliastraat,16,,,6005PB,Weert,Weert,Limburg,VBO,5.773640,51.229919
Bertiliastraat,18,,,6005PB,Weert,Weert,Limburg,VBO,5.773724,51.229943
Bertiliastraat,20,,,6005PB,Weert,Weert,Limburg,VBO,5.773895,51.229993
Bertiliastraat,22,,,6005PB,Weert,Weert,Limburg,VBO,5.773980,51.230017
Bertiliastraat,24,,,6005PB,Weert,Weert,Limburg,VBO,5.774159,51.230068
Bertiliastraat,26,,,6005PB,Weert,Weert,Limburg,VBO,5.774248,51.230094
Bertiliastraat,28,,,6005PB,Weert,Weert,Limburg,VBO,5.774442,51.230149
Bertiliastraat,30,,,6005PB,Weert,Weert,Limburg,VBO,5.774530,51.230174
Genovevastraat,1,,,6005PC,Weert,Weert,Limburg,VBO,5.774545,51.230777
Genovevastraat,3,,,6005PC,Weert,Weert,Limburg,VBO,5.774578,51.230727
Genovevastraat,4,,,6005PC,Weert,Weert,Limburg,VBO,5.774136,51.230780
Genovevastraat,5,,,6005PC,Weert,Weert,Limburg,VBO,5.774647,51.230621
Genovevastraat,6,,,6005PC,Weert,Weert,Limburg,VBO,5.774216,51.230656
Genovevastraat,7,,,6005PC,Weert,Weert,Limburg,VBO,5.774681,51.230568
Genovevastraat,8,,,6005PC,Weert,Weert,Limburg,VBO,5.774299,51.230528
Genovevastraat,9,,,6005PC,Weert,Weert,Limburg,VBO,5.774750,51.230463
Genovevastraat,10,,,6005PC,Weert,Weert,Limburg,VBO,5.774385,51.230395
Genovevastraat,11,,,6005PC,Weert,Weert,Limburg,VBO,5.774783,51.230412
Genovevastraat,12,,,6005PC,Weert,Weert,Limburg,VBO,5.774710,51.229898
Genovevastraat,14,,,6005PC,Weert,Weert,Limburg,VBO,5.774745,51.229844
Genovevastraat,16,,,6005PC,Weert,Weert,Limburg,VBO,5.774809,51.229739
Genovevastraat,18,,,6005PC,Weert,Weert,Limburg,VBO,5.774844,51.229686
Sint Cornelisplein,2,,,6005PD,Weert,Weert,Limburg,VBO,5.771073,51.230438
Sint Cornelisplein,4,,,6005PD,Weert,Weert,Limburg,VBO,5.771198,51.230262
Sint Cornelisplein,6,,,6005PD,Weert,Weert,Limburg,VBO,5.771268,51.230162
Sint Cornelisplein,8,,,6005PD,Weert,Weert,Limburg,VBO,5.771332,51.230070
Eutropiastraat,1,,,6005PE,Weert,Weert,Limburg,VBO,5.776108,51.231482
Eutropiastraat,3,,,6005PE,Weert,Weert,Limburg,VBO,5.776013,51.231300
Eutropiastraat,4,,,6005PE,Weert,Weert,Limburg,VBO,5.775162,51.231120
Eutropiastraat,6,,,6005PE,Weert,Weert,Limburg,VBO,5.775197,51.231068
Eutropiastraat,7,,,6005PE,Weert,Weert,Limburg,VBO,5.775828,51.230318
Eutropiastraat,8,,,6005PE,Weert,Weert,Limburg,VBO,5.775310,51.230923
Eutropiastraat,9,,,6005PE,Weert,Weert,Limburg,VBO,5.775734,51.230294
Eutropiastraat,10,,,6005PE,Weert,Weert,Limburg,VBO,5.775396,51.230797
Eutropiastraat,11,,,6005PE,Weert,Weert,Limburg,VBO,5.775654,51.230245
Eutropiastraat,12,,,6005PE,Weert,Weert,Limburg,VBO,5.775476,51.230679
Eutropiastraat,13,,,6005PE,Weert,Weert,Limburg,VBO,5.775563,51.230221
Eutropiastraat,14,,,6005PE,Weert,Weert,Limburg,VBO,5.775560,51.230508
Eutropiastraat,15,,,6005PE,Weert,Weert,Limburg,VBO,5.775446,51.230220
Eutropiastraat,16,,,6005PE,Weert,Weert,Limburg,VBO,5.775327,51.230420
Eutropiastraat,17,,,6005PE,Weert,Weert,Limburg,VBO,5.775353,51.230197
Eutropiastraat,18,A,,6005PE,Weert,Weert,Limburg,VBO,5.775186,51.230386
Eutropiastraat,18,,,6005PE,Weert,Weert,Limburg,VBO,5.775276,51.230407
Eutropiastraat,19,,,6005PE,Weert,Weert,Limburg,VBO,5.775159,51.229975
Eutropiastraat,20,,,6005PE,Weert,Weert,Limburg,VBO,5.774893,51.230283
Eutropiastraat,21,,,6005PE,Weert,Weert,Limburg,VBO,5.775117,51.230039
Eutropiastraat,23,,,6005PE,Weert,Weert,Limburg,VBO,5.775142,51.230121
Rectorijstraat,1,,,6005PG,Weert,Weert,Limburg,VBO,5.772846,51.229089
Rectorijstraat,3,,,6005PG,Weert,Weert,Limburg,VBO,5.773107,51.229173
Rectorijstraat,5,,,6005PG,Weert,Weert,Limburg,VBO,5.773191,51.229197
Rectorijstraat,7,,,6005PG,Weert,Weert,Limburg,VBO,5.773354,51.229244
Rectorijstraat,9,,,6005PG,Weert,Weert,Limburg,VBO,5.773437,51.229268
Rectorijstraat,11,,,6005PG,Weert,Weert,Limburg,VBO,5.773597,51.229313
Rectorijstraat,13,,,6005PG,Weert,Weert,Limburg,VBO,5.773676,51.229335
Rectorijstraat,15,,,6005PG,Weert,Weert,Limburg,VBO,5.773839,51.229382
Rectorijstraat,16,,,6005PG,Weert,Weert,Limburg,VBO,5.774896,51.229402
Rectorijstraat,17,,,6005PG,Weert,Weert,Limburg,VBO,5.773922,51.229406
Rectorijstraat,18,,,6005PG,Weert,Weert,Limburg,VBO,5.774968,51.229422
Rectorijstraat,19,,,6005PG,Weert,Weert,Limburg,VBO,5.774085,51.229452
Rectorijstraat,20,,,6005PG,Weert,Weert,Limburg,VBO,5.775043,51.229443
Rectorijstraat,21,,,6005PG,Weert,Weert,Limburg,VBO,5.774169,51.229476
Rectorijstraat,22,,,6005PG,Weert,Weert,Limburg,VBO,5.775212,51.229492
Rectorijstraat,23,,,6005PG,Weert,Weert,Limburg,VBO,5.774329,51.229521
Rectorijstraat,24,,,6005PG,Weert,Weert,Limburg,VBO,5.775283,51.229512
Rectorijstraat,25,,,6005PG,Weert,Weert,Limburg,VBO,5.774412,51.229545
Rectorijstraat,26,,,6005PG,Weert,Weert,Limburg,VBO,5.775355,51.229532
Rectorijstraat,27,,,6005PG,Weert,Weert,Limburg,VBO,5.775287,51.229777
Rectorijstraat,28,,,6005PG,Weert,Weert,Limburg,VBO,5.775572,51.229427
Rectorijstraat,29,,,6005PG,Weert,Weert,Limburg,VBO,5.775243,51.229846
Rectorijstraat,30,,,6005PG,Weert,Weert,Limburg,VBO,5.775654,51.229413
Rectorijstraat,31,,,6005PG,Weert,Weert,Limburg,VBO,5.775531,51.229883
Rectorijstraat,32,,,6005PG,Weert,Weert,Limburg,VBO,5.775826,51.229428
Rectorijstraat,33,,,6005PG,Weert,Weert,Limburg,VBO,5.775624,51.229909
Rectorijstraat,34,,,6005PG,Weert,Weert,Limburg,VBO,5.775906,51.229449
Rectorijstraat,35,,,6005PG,Weert,Weert,Limburg,VBO,5.775737,51.229912
Rectorijstraat,36,,,6005PG,Weert,Weert,Limburg,VBO,5.776030,51.229527
Rectorijstraat,37,,,6005PG,Weert,Weert,Limburg,VBO,5.775830,51.229939
Rectorijstraat,38,,,6005PG,Weert,Weert,Limburg,VBO,5.776073,51.229573
Rectorijstraat,39,,,6005PG,Weert,Weert,Limburg,VBO,5.775910,51.229992
Rectorijstraat,40,,,6005PG,Weert,Weert,Limburg,VBO,5.776098,51.229683
Rectorijstraat,41,,,6005PG,Weert,Weert,Limburg,VBO,5.776015,51.230022
Rectorijstraat,42,,,6005PG,Weert,Weert,Limburg,VBO,5.776089,51.229732
Rectorijstraat,44,,,6005PG,Weert,Weert,Limburg,VBO,5.776081,51.229781
Rectorijstraat,46,,,6005PG,Weert,Weert,Limburg,VBO,5.776073,51.229830
Hennenstraatje,1,,,6005PH,Weert,Weert,Limburg,VBO,5.777925,51.229405
Hennenstraatje,3,,,6005PH,Weert,Weert,Limburg,VBO,5.776298,51.227942
Hennenstraatje,5,,,6005PH,Weert,Weert,Limburg,VBO,5.775811,51.227003
Hennenstraatje,8,,,6005PH,Weert,Weert,Limburg,VBO,5.776789,51.229596
Hennenstraatje,11,,,6005PH,Weert,Weert,Limburg,VBO,5.775210,51.225318
Hennenstraatje,12,,,6005PH,Weert,Weert,Limburg,VBO,5.776091,51.228053
Hennenstraatje,16,,,6005PH,Weert,Weert,Limburg,VBO,5.774132,51.225773
Hennenstraatje,18,,,6005PH,Weert,Weert,Limburg,VBO,5.773901,51.225743
Venboordstraat,1,,,6005PJ,Weert,Weert,Limburg,VBO,5.773014,51.226438
Venboordstraat,3,,,6005PJ,Weert,Weert,Limburg,VBO,5.773106,51.224584
Venboordstraat,5,,,6005PJ,Weert,Weert,Limburg,VBO,5.773384,51.224614
Venboordstraat,6,,,6005PJ,Weert,Weert,Limburg,VBO,5.770829,51.227021
Venboordstraat,20,,,6005PJ,Weert,Weert,Limburg,VBO,5.771712,51.225601
Venboordstraat,22,A,,6005PJ,Weert,Weert,Limburg,VBO,5.772470,51.225292
Venboordstraat,22,,,6005PJ,Weert,Weert,Limburg,VBO,5.772527,51.225180
Venboordstraat,24,,,6005PJ,Weert,Weert,Limburg,VBO,5.772833,51.224888
Pelmersheideweg,2,,,6005PK,Weert,Weert,Limburg,VBO,5.772256,51.228966
Pelmersheideweg,3,,,6005PK,Weert,Weert,Limburg,VBO,5.772428,51.228555
Pelmersheideweg,4,,,6005PK,Weert,Weert,Limburg,VBO,5.771747,51.228474
Pelmersheideweg,6,,,6005PK,Weert,Weert,Limburg,VBO,5.771352,51.228225
Pelmersheideweg,7,,,6005PK,Weert,Weert,Limburg,VBO,5.772172,51.228336
Pelmersheideweg,8,,,6005PK,Weert,Weert,Limburg,VBO,5.767737,51.227154
Pelmersheideweg,9,,,6005PK,Weert,Weert,Limburg,VBO,5.771914,51.228111
Pelmersheideweg,10,A,,6005PK,Weert,Weert,Limburg,VBO,5.755558,51.220223
Pelmersheideweg,10,,,6005PK,Weert,Weert,Limburg,VBO,5.755373,51.220504
Pelmersheideweg,11,,,6005PK,Weert,Weert,Limburg,VBO,5.771790,51.228008
Pelmersheideweg,12,,,6005PK,Weert,Weert,Limburg,VBO,5.754684,51.219017
Pelmersheideweg,13,,,6005PK,Weert,Weert,Limburg,VBO,5.771564,51.227826
Pelmersheideweg,14,,,6005PK,Weert,Weert,Limburg,VBO,5.754362,51.217892
Pelmersheideweg,15,A,,6005PK,Weert,Weert,Limburg,VBO,5.770716,51.227480
Pelmersheideweg,15,,,6005PK,Weert,Weert,Limburg,VBO,5.771396,51.227677
Pelmersheideweg,16,,,6005PK,Weert,Weert,Limburg,VBO,5.754588,51.216721
Pelmersheideweg,17,,,6005PK,Weert,Weert,Limburg,VBO,5.770371,51.227272
Pelmersheideweg,18,,,6005PK,Weert,Weert,Limburg,VBO,5.753806,51.215670
Pelmersheideweg,20,,,6005PK,Weert,Weert,Limburg,VBO,5.752336,51.214726
Pelmersheideweg,22,,,6005PK,Weert,Weert,Limburg,VBO,5.751768,51.214254
Pelmersheideweg,45,,,6005PK,Weert,Weert,Limburg,VBO,5.757156,51.221163
Hulsweg,1,,,6005PL,Weert,Weert,Limburg,VBO,5.755596,51.216646
Hulsweg,2,,,6005PL,Weert,Weert,Limburg,VBO,5.763013,51.216831
Hulsweg,4,,,6005PL,Weert,Weert,Limburg,VBO,5.775669,51.220381
Castertweg,2,,,6005PM,Weert,Weert,Limburg,VBO,5.722938,51.232645
Castertweg,4,,,6005PM,Weert,Weert,Limburg,VBO,5.722919,51.232423
Castertweg,5,,,6005PM,Weert,Weert,Limburg,VBO,5.723192,51.232778
Castertweg,9,A,,6005PM,Weert,Weert,Limburg,VBO,5.724296,51.232046
Castertweg,9,,,6005PM,Weert,Weert,Limburg,VBO,5.723963,51.232280
Castertweg,10,,,6005PM,Weert,Weert,Limburg,VBO,5.727934,51.229907
Castertweg,11,,,6005PM,Weert,Weert,Limburg,VBO,5.724717,51.231786
Castertweg,12,A,,6005PM,Weert,Weert,Limburg,VBO,5.728784,51.229084
Castertweg,12,,,6005PM,Weert,Weert,Limburg,VBO,5.728415,51.229547
Castertweg,16,,,6005PM,Weert,Weert,Limburg,VBO,5.729984,51.227838
Castertweg,18,,,6005PM,Weert,Weert,Limburg,VBO,5.733628,51.224397
Castertweg,20,A,,6005PM,Weert,Weert,Limburg,VBO,5.733929,51.224086
Castertweg,20,B,,6005PM,Weert,Weert,Limburg,VBO,5.734036,51.223999
Castertweg,20,C,,6005PM,Weert,Weert,Limburg,VBO,5.733819,51.224012
Castertweg,20,D,,6005PM,Weert,Weert,Limburg,VBO,5.733897,51.223959
Castertweg,20,,,6005PM,Weert,Weert,Limburg,VBO,5.733687,51.223930
Castertweg,23,,,6005PM,Weert,Weert,Limburg,VBO,5.730076,51.229095
Castertweg,29,,,6005PM,Weert,Weert,Limburg,VBO,5.732624,51.226082
Castertweg,31,,,6005PM,Weert,Weert,Limburg,VBO,5.732931,51.225958
Castertweg,33,,,6005PM,Weert,Weert,Limburg,VBO,5.733783,51.225532
Castertweg,34,,,6005PM,Weert,Weert,Limburg,VBO,5.737851,51.219692
Castertweg,35,,,6005PM,Weert,Weert,Limburg,VBO,5.733486,51.225351
Castertweg,38,,,6005PM,Weert,Weert,Limburg,VBO,5.739136,51.218679
Spechtebaan,2,,,6005PN,Weert,Weert,Limburg,VBO,5.740734,51.237367
Spechtebaan,4,,,6005PN,Weert,Weert,Limburg,VBO,5.741141,51.237177
Spechtebaan,5,,,6005PN,Weert,Weert,Limburg,VBO,5.741992,51.236736
Dupesweg,1,,,6005PP,Weert,Weert,Limburg,VBO,5.753999,51.216682
Vliegertstraat,2,,,6005PR,Weert,Weert,Limburg,VBO,5.722822,51.231573
Vliegertstraat,4,,,6005PR,Weert,Weert,Limburg,VBO,5.733211,51.231295
Kleinehegsteeg,6,,,6005PS,Weert,Weert,Limburg,VBO,5.725544,51.228733
Tungelerschans,1,,,6005PT,Weert,Weert,Limburg,VBO,5.732069,51.211837
Tungelerschans,2,,,6005PT,Weert,Weert,Limburg,VBO,5.732684,51.211642
Tungelerschans,3,,,6005PT,Weert,Weert,Limburg,VBO,5.732145,51.211837
Tungelerschans,5,,,6005PT,Weert,Weert,Limburg,VBO,5.732223,51.211858
Tungelerschans,7,,,6005PT,Weert,Weert,Limburg,VBO,5.732301,51.211857
Tungelerschans,9,,,6005PT,Weert,Weert,Limburg,VBO,5.732485,51.211856
Tungelerschans,10,,,6005PT,Weert,Weert,Limburg,VBO,5.733351,51.211799
Tungelerschans,11,,,6005PT,Weert,Weert,Limburg,VBO,5.732559,51.211834
Tungelerschans,12,,,6005PT,Weert,Weert,Limburg,VBO,5.733418,51.211826
Tungelerschans,13,,,6005PT,Weert,Weert,Limburg,VBO,5.732634,51.211833
Tungelerschans,14,,,6005PT,Weert,Weert,Limburg,VBO,5.733539,51.211906
Tungelerschans,15,,,6005PT,Weert,Weert,Limburg,VBO,5.732831,51.211855
Tungelerschans,16,,,6005PT,Weert,Weert,Limburg,VBO,5.733583,51.211948
Tungelerschans,17,,,6005PT,Weert,Weert,Limburg,VBO,5.732903,51.211876
Tungelerschans,18,,,6005PT,Weert,Weert,Limburg,VBO,5.733627,51.212057
Tungelerschans,19,,,6005PT,Weert,Weert,Limburg,VBO,5.733065,51.211957
Tungelerschans,20,,,6005PT,Weert,Weert,Limburg,VBO,5.733628,51.212109
Tungelerschans,21,,,6005PT,Weert,Weert,Limburg,VBO,5.733108,51.211998
Tungelerschans,22,,,6005PT,Weert,Weert,Limburg,VBO,5.733629,51.212158
Tungelerschans,23,,,6005PT,Weert,Weert,Limburg,VBO,5.733184,51.212125
Tungelerschans,25,,,6005PT,Weert,Weert,Limburg,VBO,5.733186,51.212255
Roekes,10,,,6005PV,Weert,Weert,Limburg,VBO,5.743328,51.227702
Roekes,12,,,6005PV,Weert,Weert,Limburg,VBO,5.743450,51.227495
Grotehegsteeg,31,,,6005PW,Weert,Weert,Limburg,VBO,5.727903,51.225149
Grotehegsteeg,33,,,6005PW,Weert,Weert,Limburg,VBO,5.728552,51.225366
Grotehegsteeg,35,,,6005PW,Weert,Weert,Limburg,VBO,5.729169,51.225252
Schoordijk,1,A,,6005PX,Weert,Weert,Limburg,VBO,5.779722,51.240785
Schoordijk,1,,,6005PX,Weert,Weert,Limburg,VBO,5.779275,51.241978
Schoordijk,2,A,,6005PX,Weert,Weert,Limburg,VBO,5.779499,51.240045
Schoordijk,2,,,6005PX,Weert,Weert,Limburg,VBO,5.778224,51.239133
Schoordijk,3,,,6005PX,Weert,Weert,Limburg,VBO,5.780565,51.239159
Schoordijk,4,A,,6005PX,Weert,Weert,Limburg,VBO,5.780145,51.238936
Schoordijk,4,,,6005PX,Weert,Weert,Limburg,VBO,5.780144,51.239024
Schoordijk,6,,,6005PX,Weert,Weert,Limburg,VBO,5.779992,51.238026
Watermolenweg,1,,,6005PZ,Weert,Weert,Limburg,VBO,5.786777,51.240854
Watermolenweg,3,,,6005PZ,Weert,Weert,Limburg,VBO,5.784059,51.239229
Maaseikerweg,221,,,6005RA,Weert,Weert,Limburg,VBO,5.719766,51.219777
Maaseikerweg,249,,,6005RA,Weert,Weert,Limburg,VBO,5.722379,51.213594
Maaseikerweg,251,,,6005RA,Weert,Weert,Limburg,VBO,5.722416,51.213449
Maaseikerweg,253,,,6005RA,Weert,Weert,Limburg,VBO,5.722447,51.213324
Maaseikerweg,257,,,6005RA,Weert,Weert,Limburg,VBO,5.722614,51.213056
Maaseikerweg,259,,,6005RA,Weert,Weert,Limburg,VBO,5.722202,51.212575
Maaseikerweg,275,,,6005RA,Weert,Weert,Limburg,VBO,5.720977,51.208461
Peelheideweg,2,,,6005RB,Weert,Weert,Limburg,VBO,5.720796,51.219958
Peelheideweg,4,,,6005RB,Weert,Weert,Limburg,VBO,5.722148,51.220034
Peelheideweg,6,,,6005RB,Weert,Weert,Limburg,VBO,5.723898,51.220023
Peelheideweg,8,,,6005RB,Weert,Weert,Limburg,VBO,5.726773,51.220884
Kemperveldweg,3,,,6005RC,Weert,Weert,Limburg,VBO,5.720612,51.219425
Kemperveldweg,5,,,6005RC,Weert,Weert,Limburg,VBO,5.721194,51.218818
Kemperveldweg,9,,,6005RC,Weert,Weert,Limburg,VBO,5.721853,51.217746
Kemperveldweg,15,,,6005RC,Weert,Weert,Limburg,VBO,5.723662,51.215880
Kemperveldweg,29,,,6005RC,Weert,Weert,Limburg,VBO,5.726710,51.214018
Kemperveldweg,31,,,6005RC,Weert,Weert,Limburg,VBO,5.727270,51.213943
Kemperveldweg,43,,,6005RC,Weert,Weert,Limburg,VBO,5.728514,51.213510
Kemperveldweg,45,,,6005RC,Weert,Weert,Limburg,VBO,5.728759,51.213447
Kemperveldweg,47,,,6005RC,Weert,Weert,Limburg,VBO,5.728992,51.213387
Kemperveldweg,49,,,6005RC,Weert,Weert,Limburg,VBO,5.729190,51.213337
Kemperveldweg,51,,,6005RC,Weert,Weert,Limburg,VBO,5.729384,51.213286
Kemperveldweg,53,,,6005RC,Weert,Weert,Limburg,VBO,5.729586,51.213234
Kemperveldweg,55,,,6005RC,Weert,Weert,Limburg,VBO,5.729800,51.213180
Kemperveldweg,57,,,6005RC,Weert,Weert,Limburg,VBO,5.730019,51.213122
Kemperveldweg,59,,,6005RC,Weert,Weert,Limburg,VBO,5.730253,51.213061
Kemperveldweg,4,,,6005RD,Weert,Weert,Limburg,VBO,5.720308,51.219072
Kemperveldweg,8,,,6005RD,Weert,Weert,Limburg,VBO,5.721132,51.217736
Kemperveldweg,22,,,6005RD,Weert,Weert,Limburg,VBO,5.725478,51.213931
Kemperveldweg,30,,,6005RD,Weert,Weert,Limburg,VBO,5.726712,51.213693
Kemperveldweg,32,,,6005RD,Weert,Weert,Limburg,VBO,5.727170,51.213572
Kemperveldweg,34,,,6005RD,Weert,Weert,Limburg,VBO,5.727455,51.213500
Kemperveldweg,36,,,6005RD,Weert,Weert,Limburg,VBO,5.727687,51.213439
Kemperveldweg,38,,,6005RD,Weert,Weert,Limburg,VBO,5.727891,51.213387
Kemperveldweg,40,,,6005RD,Weert,Weert,Limburg,VBO,5.728269,51.213289
Kemperveldweg,42,,,6005RD,Weert,Weert,Limburg,VBO,5.728447,51.213244
Kemperveldweg,44,,,6005RD,Weert,Weert,Limburg,VBO,5.728623,51.213199
Kemperveldweg,46,,,6005RD,Weert,Weert,Limburg,VBO,5.728803,51.213152
Kemperveldweg,48,,,6005RD,Weert,Weert,Limburg,VBO,5.729079,51.213081
Kemperveldweg,50,,,6005RD,Weert,Weert,Limburg,VBO,5.729245,51.213031
Kemperveldweg,52,,,6005RD,Weert,Weert,Limburg,VBO,5.729475,51.212976
Kemperveldweg,54,,,6005RD,Weert,Weert,Limburg,VBO,5.729673,51.212924
Meussenstraat,1,B,,6005RE,Weert,Weert,Limburg,VBO,5.724212,51.216314
Meussenstraat,1,C,,6005RE,Weert,Weert,Limburg,VBO,5.724520,51.216374
Meussenstraat,3,,,6005RE,Weert,Weert,Limburg,VBO,5.725304,51.216424
Meussenstraat,5,,,6005RE,Weert,Weert,Limburg,VBO,5.733488,51.216875
Tungeler Dorpsstraat,9,,,6005RG,Weert,Weert,Limburg,VBO,5.725026,51.211706
Tungeler Dorpsstraat,13,,,6005RG,Weert,Weert,Limburg,VBO,5.725430,51.211634
Tungeler Dorpsstraat,17,,,6005RG,Weert,Weert,Limburg,VBO,5.725987,51.211549
Tungeler Dorpsstraat,19,,,6005RG,Weert,Weert,Limburg,VBO,5.726437,51.211516
Tungeler Dorpsstraat,21,,,6005RG,Weert,Weert,Limburg,VBO,5.726520,51.211530
Tungeler Dorpsstraat,23,A,,6005RG,Weert,Weert,Limburg,VBO,5.726868,51.211591
Tungeler Dorpsstraat,23,,,6005RG,Weert,Weert,Limburg,VBO,5.726708,51.211564
Tungeler Dorpsstraat,27,,,6005RG,Weert,Weert,Limburg,VBO,5.727309,51.211704
Tungeler Dorpsstraat,29,,,6005RG,Weert,Weert,Limburg,VBO,5.727652,51.211762
Tungeler Dorpsstraat,31,,,6005RG,Weert,Weert,Limburg,VBO,5.728090,51.211875
Tungeler Dorpsstraat,33,,,6005RG,Weert,Weert,Limburg,VBO,5.728532,51.211960
Tungeler Dorpsstraat,37,,,6005RG,Weert,Weert,Limburg,VBO,5.728815,51.212006
Tungeler Dorpsstraat,39,,,6005RG,Weert,Weert,Limburg,VBO,5.728918,51.212052
Tungeler Dorpsstraat,41,,,6005RH,Weert,Weert,Limburg,VBO,5.729118,51.212141
Tungeler Dorpsstraat,43,,,6005RH,Weert,Weert,Limburg,VBO,5.729286,51.212223
Tungeler Dorpsstraat,47,,,6005RH,Weert,Weert,Limburg,VBO,5.729555,51.212337
Tungeler Dorpsstraat,49,,,6005RH,Weert,Weert,Limburg,VBO,5.729797,51.212456
Tungeler Dorpsstraat,51,,,6005RH,Weert,Weert,Limburg,VBO,5.730000,51.212534
Tungeler Dorpsstraat,53,A,,6005RH,Weert,Weert,Limburg,VBO,5.730249,51.212654
Tungeler Dorpsstraat,53,,,6005RH,Weert,Weert,Limburg,VBO,5.730139,51.212608
Tungeler Dorpsstraat,59,,,6005RH,Weert,Weert,Limburg,VBO,5.731281,51.212810
Tungeler Dorpsstraat,61,,,6005RH,Weert,Weert,Limburg,VBO,5.731507,51.212809
Tungeler Dorpsstraat,63,,,6005RH,Weert,Weert,Limburg,VBO,5.731716,51.212809
Tungeler Dorpsstraat,65,,,6005RH,Weert,Weert,Limburg,VBO,5.731997,51.212840
Tungeler Dorpsstraat,67,,,6005RH,Weert,Weert,Limburg,VBO,5.732258,51.212783
Tungeler Dorpsstraat,69,,,6005RH,Weert,Weert,Limburg,VBO,5.732474,51.212801
Tungeler Dorpsstraat,73,,,6005RH,Weert,Weert,Limburg,VBO,5.732760,51.212863
Tungeler Dorpsstraat,75,A,,6005RH,Weert,Weert,Limburg,VBO,5.733346,51.213186
Tungeler Dorpsstraat,75,,,6005RH,Weert,Weert,Limburg,VBO,5.733453,51.212773
Tungeler Dorpsstraat,77,,,6005RH,Weert,Weert,Limburg,VBO,5.733752,51.212766
Tungeler Dorpsstraat,79,,,6005RH,Weert,Weert,Limburg,VBO,5.733904,51.212764
Tungeler Dorpsstraat,81,,,6005RH,Weert,Weert,Limburg,VBO,5.734134,51.212761
Tungeler Dorpsstraat,85,,,6005RH,Weert,Weert,Limburg,VBO,5.734645,51.212811
Tungeler Dorpsstraat,89,,,6005RH,Weert,Weert,Limburg,VBO,5.735327,51.212883
Tungeler Dorpsstraat,91,,,6005RH,Weert,Weert,Limburg,VBO,5.735567,51.212903
Tungeler Dorpsstraat,93,,,6005RH,Weert,Weert,Limburg,VBO,5.735854,51.213012
Tungeler Dorpsstraat,97,,,6005RH,Weert,Weert,Limburg,VBO,5.736684,51.212985
Tungeler Dorpsstraat,99,,,6005RH,Weert,Weert,Limburg,VBO,5.736959,51.213040
Tungeler Dorpsstraat,101,,,6005RH,Weert,Weert,Limburg,VBO,5.737248,51.213084
Tungeler Dorpsstraat,103,,,6005RH,Weert,Weert,Limburg,VBO,5.737517,51.213126
Tungeler Dorpsstraat,105,,,6005RH,Weert,Weert,Limburg,VBO,5.737800,51.213169
Tungeler Dorpsstraat,107,,,6005RH,Weert,Weert,Limburg,VBO,5.738278,51.213392
Tungeler Dorpsstraat,111,,,6005RH,Weert,Weert,Limburg,VBO,5.739157,51.213378
Tungeler Dorpsstraat,113,,,6005RH,Weert,Weert,Limburg,VBO,5.739521,51.213448
Tungeler Dorpsstraat,115,,,6005RH,Weert,Weert,Limburg,VBO,5.739873,51.213537
Tungeler Dorpsstraat,117,,,6005RH,Weert,Weert,Limburg,VBO,5.740251,51.213632
Tungeler Dorpsstraat,119,,,6005RH,Weert,Weert,Limburg,VBO,5.740808,51.213767
Tungeler Dorpsstraat,127,,,6005RH,Weert,Weert,Limburg,VBO,5.742645,51.214053
Tungeler Dorpsstraat,129,,,6005RH,Weert,Weert,Limburg,VBO,5.742705,51.214164
Tungeler Dorpsstraat,141,,,6005RH,Weert,Weert,Limburg,VBO,5.747968,51.214556
Tungeler Dorpsstraat,8,,,6005RJ,Weert,Weert,Limburg,VBO,5.723467,51.211881
Tungeler Dorpsstraat,12,,,6005RJ,Weert,Weert,Limburg,VBO,5.723930,51.211651
Tungeler Dorpsstraat,14,,,6005RJ,Weert,Weert,Limburg,VBO,5.724175,51.211572
Tungeler Dorpsstraat,20,,,6005RJ,Weert,Weert,Limburg,VBO,5.725008,51.211439
Tungeler Dorpsstraat,24,,,6005RJ,Weert,Weert,Limburg,VBO,5.725526,51.211351
Tungeler Dorpsstraat,26,,,6005RJ,Weert,Weert,Limburg,VBO,5.725888,51.211253
Tungeler Dorpsstraat,28,,,6005RJ,Weert,Weert,Limburg,VBO,5.726457,51.211307
Tungeler Dorpsstraat,30,,,6005RJ,Weert,Weert,Limburg,VBO,5.726659,51.211339
Tungeler Dorpsstraat,32,,,6005RJ,Weert,Weert,Limburg,VBO,5.726880,51.211376
Tungeler Dorpsstraat,34,,,6005RJ,Weert,Weert,Limburg,VBO,5.727093,51.211411
Tungeler Dorpsstraat,36,,,6005RJ,Weert,Weert,Limburg,VBO,5.727310,51.211443
Tungeler Dorpsstraat,38,,,6005RK,Weert,Weert,Limburg,VBO,5.727520,51.211481
Tungeler Dorpsstraat,40,,,6005RK,Weert,Weert,Limburg,VBO,5.728226,51.211625
Tungeler Dorpsstraat,42,,,6005RK,Weert,Weert,Limburg,VBO,5.728596,51.211657
Tungeler Dorpsstraat,44,,,6005RK,Weert,Weert,Limburg,VBO,5.728761,51.211733
Tungeler Dorpsstraat,46,,,6005RK,Weert,Weert,Limburg,VBO,5.728962,51.211775
Tungeler Dorpsstraat,48,,,6005RK,Weert,Weert,Limburg,VBO,5.729140,51.211841
Tungeler Dorpsstraat,50,,,6005RK,Weert,Weert,Limburg,VBO,5.729271,51.211872
Tungeler Dorpsstraat,52,,,6005RK,Weert,Weert,Limburg,VBO,5.729366,51.211914
Tungeler Dorpsstraat,54,,,6005RK,Weert,Weert,Limburg,VBO,5.729461,51.211956
Tungeler Dorpsstraat,56,,,6005RK,Weert,Weert,Limburg,VBO,5.729556,51.211997
Tungeler Dorpsstraat,58,,,6005RK,Weert,Weert,Limburg,VBO,5.729647,51.212063
Tungeler Dorpsstraat,60,,,6005RK,Weert,Weert,Limburg,VBO,5.729847,51.212152
Tungeler Dorpsstraat,64,,,6005RK,Weert,Weert,Limburg,VBO,5.730229,51.212322
Tungeler Dorpsstraat,66,,,6005RK,Weert,Weert,Limburg,VBO,5.730621,51.212559
Tungeler Dorpsstraat,68,A,,6005RK,Weert,Weert,Limburg,VBO,5.731925,51.212582
Tungeler Dorpsstraat,68,B,,6005RK,Weert,Weert,Limburg,VBO,5.732160,51.212573
Tungeler Dorpsstraat,68,C,,6005RK,Weert,Weert,Limburg,VBO,5.732527,51.212569
Tungeler Dorpsstraat,68,D,,6005RK,Weert,Weert,Limburg,VBO,5.732684,51.212575
Tungeler Dorpsstraat,68,,,6005RK,Weert,Weert,Limburg,VBO,5.731585,51.212574
Tungeler Dorpsstraat,70,,,6005RK,Weert,Weert,Limburg,VBO,5.732924,51.212532
Tungeler Dorpsstraat,72,,,6005RK,Weert,Weert,Limburg,VBO,5.733156,51.212531
Tungeler Dorpsstraat,74,,,6005RK,Weert,Weert,Limburg,VBO,5.733799,51.212520
Tungeler Dorpsstraat,76,,,6005RK,Weert,Weert,Limburg,VBO,5.734284,51.212553
Tungeler Dorpsstraat,78,,,6005RK,Weert,Weert,Limburg,VBO,5.734545,51.212551
Tungeler Dorpsstraat,80,,,6005RK,Weert,Weert,Limburg,VBO,5.734784,51.212555
Tungeler Dorpsstraat,82,,,6005RK,Weert,Weert,Limburg,VBO,5.735265,51.212580
Tungeler Dorpsstraat,84,A,,6005RK,Weert,Weert,Limburg,VBO,5.735738,51.212591
Tungeler Dorpsstraat,84,,,6005RK,Weert,Weert,Limburg,VBO,5.735548,51.212602
Tungeler Dorpsstraat,86,,,6005RK,Weert,Weert,Limburg,VBO,5.735915,51.212632
Tungeler Dorpsstraat,88,,,6005RK,Weert,Weert,Limburg,VBO,5.736168,51.212652
Tungeler Dorpsstraat,90,,,6005RK,Weert,Weert,Limburg,VBO,5.736570,51.212686
Tungeler Dorpsstraat,92,,,6005RK,Weert,Weert,Limburg,VBO,5.736705,51.212765
Tungeler Dorpsstraat,110,,,6005RK,Weert,Weert,Limburg,VBO,5.740070,51.213229
Tungeler Dorpsstraat,114,,,6005RK,Weert,Weert,Limburg,VBO,5.740637,51.213405
Tungeler Dorpsstraat,118,,,6005RK,Weert,Weert,Limburg,VBO,5.742357,51.213738
Tungeler Dorpsstraat,128,,,6005RK,Weert,Weert,Limburg,VBO,5.745924,51.213967
Tungeler Dorpsstraat,140,,,6005RK,Weert,Weert,Limburg,VBO,5.748200,51.214164
Kievitspeelweg,1,,,6005RL,Weert,Weert,Limburg,VBO,5.739667,51.217377
Kievitspeelweg,3,,,6005RL,Weert,Weert,Limburg,VBO,5.739411,51.216986
Kievitspeelweg,5,,,6005RL,Weert,Weert,Limburg,VBO,5.739386,51.216598
Kievitspeelweg,7,,,6005RL,Weert,Weert,Limburg,VBO,5.739305,51.216513
Kievitspeelweg,17,,,6005RL,Weert,Weert,Limburg,VBO,5.738654,51.214862
Kievitspeelweg,20,,,6005RL,Weert,Weert,Limburg,VBO,5.737742,51.214234
Kievitspeelweg,22,,,6005RL,Weert,Weert,Limburg,VBO,5.736817,51.213776
Kievitspeelweg,23,,,6005RL,Weert,Weert,Limburg,VBO,5.737449,51.213695
Kievitspeelweg,26,,,6005RL,Weert,Weert,Limburg,VBO,5.736077,51.211909
Kievitspeelweg,27,,,6005RL,Weert,Weert,Limburg,VBO,5.736507,51.211850
Kievitspeelweg,28,,,6005RL,Weert,Weert,Limburg,VBO,5.736003,51.211725
Kievitspeelweg,30,,,6005RL,Weert,Weert,Limburg,VBO,5.735868,51.211552
Kievitspeelweg,32,,,6005RL,Weert,Weert,Limburg,VBO,5.735651,51.211336
Kievitspeelweg,33,,,6005RL,Weert,Weert,Limburg,VBO,5.734387,51.209098
Kievitspeelweg,34,,,6005RL,Weert,Weert,Limburg,VBO,5.735334,51.211023
Kievitspeelweg,36,,,6005RL,Weert,Weert,Limburg,VBO,5.735116,51.210774
Kievitspeelweg,38,A,,6005RL,Weert,Weert,Limburg,VBO,5.734608,51.210121
Kievitspeelweg,38,B,,6005RL,Weert,Weert,Limburg,VBO,5.734452,51.209933
Kievitspeelweg,38,,,6005RL,Weert,Weert,Limburg,VBO,5.734940,51.210467
Kievitspeelweg,39,,,6005RL,Weert,Weert,Limburg,VBO,5.734086,51.207202
Kievitspeelweg,40,,,6005RL,Weert,Weert,Limburg,VBO,5.733026,51.206889
Jean Amentstraat,1,A,,6005RM,Weert,Weert,Limburg,VBO,5.731576,51.212274
Jean Amentstraat,1,B,,6005RM,Weert,Weert,Limburg,VBO,5.731566,51.212103
Jean Amentstraat,1,C,,6005RM,Weert,Weert,Limburg,VBO,5.731586,51.212049
Jean Amentstraat,1,,,6005RM,Weert,Weert,Limburg,VBO,5.731546,51.212385
Jean Amentstraat,3,,,6005RM,Weert,Weert,Limburg,VBO,5.731685,51.211926
Jean Amentstraat,5,,,6005RM,Weert,Weert,Limburg,VBO,5.731709,51.211874
Jean Amentstraat,7,,,6005RM,Weert,Weert,Limburg,VBO,5.731736,51.211814
Jean Amentstraat,8,,,6005RM,Weert,Weert,Limburg,VBO,5.731286,51.211994
Jean Amentstraat,10,,,6005RM,Weert,Weert,Limburg,VBO,5.731346,51.211862
Jean Amentstraat,12,,,6005RM,Weert,Weert,Limburg,VBO,5.731401,51.211745
Jean Amentstraat,14,,,6005RM,Weert,Weert,Limburg,VBO,5.731427,51.211689
Jean Amentstraat,15,A,,6005RM,Weert,Weert,Limburg,VBO,5.732399,51.211128
Jean Amentstraat,15,,,6005RM,Weert,Weert,Limburg,VBO,5.732520,51.211259
Jean Amentstraat,16,,,6005RM,Weert,Weert,Limburg,VBO,5.731517,51.211403
Jean Amentstraat,18,,,6005RM,Weert,Weert,Limburg,VBO,5.731521,51.211234
Jean Amentstraat,26,,,6005RM,Weert,Weert,Limburg,VBO,5.731469,51.210795
Jean Amentstraat,28,,,6005RM,Weert,Weert,Limburg,VBO,5.731506,51.210731
Jean Amentstraat,30,,,6005RM,Weert,Weert,Limburg,VBO,5.731502,51.210658
Jean Amentstraat,32,,,6005RM,Weert,Weert,Limburg,VBO,5.731482,51.210534
Jean Amentstraat,34,,,6005RM,Weert,Weert,Limburg,VBO,5.731424,51.210447
Jean Amentstraat,36,,,6005RM,Weert,Weert,Limburg,VBO,5.731461,51.210385
Truppertstraat,1,,W1,6005RN,Weert,Weert,Limburg,VBO,5.728398,51.211594
Truppertstraat,1,,,6005RN,Weert,Weert,Limburg,VBO,5.728415,51.211393
Truppertstraat,2,,,6005RN,Weert,Weert,Limburg,VBO,5.727904,51.211524
Truppertstraat,3,,,6005RN,Weert,Weert,Limburg,VBO,5.728574,51.211320
Truppertstraat,4,,,6005RN,Weert,Weert,Limburg,VBO,5.728014,51.211410
Truppertstraat,5,,,6005RN,Weert,Weert,Limburg,VBO,5.728723,51.211240
Truppertstraat,6,,,6005RN,Weert,Weert,Limburg,VBO,5.728430,51.211056
Truppertstraat,7,,,6005RN,Weert,Weert,Limburg,VBO,5.728882,51.211157
Truppertstraat,8,,,6005RN,Weert,Weert,Limburg,VBO,5.728511,51.211014
Truppertstraat,9,,,6005RN,Weert,Weert,Limburg,VBO,5.729544,51.210876
Truppertstraat,10,,,6005RN,Weert,Weert,Limburg,VBO,5.728590,51.210971
Truppertstraat,11,,,6005RN,Weert,Weert,Limburg,VBO,5.729659,51.210778
Truppertstraat,12,,,6005RN,Weert,Weert,Limburg,VBO,5.728671,51.210927
Truppertstraat,13,,,6005RN,Weert,Weert,Limburg,VBO,5.729832,51.210702
Truppertstraat,14,,,6005RN,Weert,Weert,Limburg,VBO,5.729165,51.210631
Truppertstraat,16,,,6005RN,Weert,Weert,Limburg,VBO,5.729368,51.210588
Truppertstraat,17,,,6005RN,Weert,Weert,Limburg,VBO,5.730400,51.210543
Truppertstraat,18,,,6005RN,Weert,Weert,Limburg,VBO,5.729487,51.210556
Truppertstraat,19,,,6005RN,Weert,Weert,Limburg,VBO,5.730436,51.210479
Truppertstraat,20,,,6005RN,Weert,Weert,Limburg,VBO,5.729661,51.210486
Truppertstraat,21,,,6005RN,Weert,Weert,Limburg,VBO,5.730563,51.210436
Truppertstraat,23,,,6005RN,Weert,Weert,Limburg,VBO,5.730876,51.210382
Truppertstraat,25,,,6005RN,Weert,Weert,Limburg,VBO,5.730913,51.210318
Truppertstraat,27,,,6005RN,Weert,Weert,Limburg,VBO,5.731040,51.210276
Truppertstraat,30,,,6005RN,Weert,Weert,Limburg,VBO,5.730077,51.210160
Truppertstraat,34,,,6005RN,Weert,Weert,Limburg,VBO,5.731185,51.209697
Truppertstraat,35,,,6005RN,Weert,Weert,Limburg,VBO,5.733665,51.209496
Truppertstraat,40,,,6005RN,Weert,Weert,Limburg,VBO,5.732862,51.209363
Bisschop Moorsstraat,1,,,6005RP,Weert,Weert,Limburg,VBO,5.729154,51.211033
Bisschop Moorsstraat,3,,,6005RP,Weert,Weert,Limburg,VBO,5.729273,51.211125
Bisschop Moorsstraat,5,,,6005RP,Weert,Weert,Limburg,VBO,5.729455,51.211220
Bisschop Moorsstraat,7,,,6005RP,Weert,Weert,Limburg,VBO,5.729384,51.211341
Bisschop Moorsstraat,9,,,6005RP,Weert,Weert,Limburg,VBO,5.729801,51.211287
Bisschop Moorsstraat,11,,,6005RP,Weert,Weert,Limburg,VBO,5.729725,51.211416
Bisschop Moorsstraat,13,,,6005RP,Weert,Weert,Limburg,VBO,5.729868,51.211512
Bisschop Moorsstraat,15,,,6005RP,Weert,Weert,Limburg,VBO,5.729955,51.211363
Bisschop Moorsstraat,17,,,6005RP,Weert,Weert,Limburg,VBO,5.730302,51.211426
Bisschop Moorsstraat,19,,,6005RP,Weert,Weert,Limburg,VBO,5.730236,51.211538
Bisschop Moorsstraat,21,,,6005RP,Weert,Weert,Limburg,VBO,5.730307,51.211752
Bisschop Moorsstraat,23,,,6005RP,Weert,Weert,Limburg,VBO,5.730384,51.211622
Bisschop Moorsstraat,25,,,6005RP,Weert,Weert,Limburg,VBO,5.730450,51.211510
Bisschop Moorsstraat,27,,,6005RP,Weert,Weert,Limburg,VBO,5.730807,51.211550
Bisschop Moorsstraat,29,,,6005RP,Weert,Weert,Limburg,VBO,5.730734,51.211677
Bisschop Moorsstraat,31,,,6005RP,Weert,Weert,Limburg,VBO,5.730653,51.211816
Bisschop Moorsstraat,33,,,6005RP,Weert,Weert,Limburg,VBO,5.730842,51.211830
Bisschop Moorsstraat,35,,,6005RP,Weert,Weert,Limburg,VBO,5.730908,51.211717
Bisschop Moorsstraat,37,,,6005RP,Weert,Weert,Limburg,VBO,5.730974,51.211604
Bisschop Moorsstraat,2,,,6005RR,Weert,Weert,Limburg,VBO,5.729806,51.211050
Bisschop Moorsstraat,4,,,6005RR,Weert,Weert,Limburg,VBO,5.729892,51.211070
Bisschop Moorsstraat,6,,,6005RR,Weert,Weert,Limburg,VBO,5.730058,51.211108
Bisschop Moorsstraat,8,,,6005RR,Weert,Weert,Limburg,VBO,5.730144,51.211128
Bisschop Moorsstraat,10,,,6005RR,Weert,Weert,Limburg,VBO,5.730318,51.211168
Bisschop Moorsstraat,12,,,6005RR,Weert,Weert,Limburg,VBO,5.730404,51.211188
Bisschop Moorsstraat,14,,,6005RR,Weert,Weert,Limburg,VBO,5.730570,51.211226
Bisschop Moorsstraat,16,,,6005RR,Weert,Weert,Limburg,VBO,5.730656,51.211246
Bisschop Moorsstraat,18,,,6005RR,Weert,Weert,Limburg,VBO,5.730825,51.211285
Bisschop Moorsstraat,20,,,6005RR,Weert,Weert,Limburg,VBO,5.730918,51.211306
Bisschop Moorsstraat,22,,,6005RR,Weert,Weert,Limburg,VBO,5.731082,51.211343
Bisschop Moorsstraat,24,,,6005RR,Weert,Weert,Limburg,VBO,5.731168,51.211363
Halfersstraat,1,,,6005RS,Weert,Weert,Limburg,VBO,5.730075,51.210633
Halfersstraat,2,,,6005RS,Weert,Weert,Limburg,VBO,5.730831,51.210674
Halfersstraat,3,,,6005RS,Weert,Weert,Limburg,VBO,5.730345,51.210797
Halfersstraat,4,,,6005RS,Weert,Weert,Limburg,VBO,5.730933,51.210697
Halfersstraat,5,,,6005RS,Weert,Weert,Limburg,VBO,5.730435,51.210817
Halfersstraat,6,,,6005RS,Weert,Weert,Limburg,VBO,5.731034,51.210720
Halfersstraat,7,,,6005RS,Weert,Weert,Limburg,VBO,5.730600,51.210855
Halfersstraat,8,,,6005RS,Weert,Weert,Limburg,VBO,5.731157,51.210705
Halfersstraat,9,,,6005RS,Weert,Weert,Limburg,VBO,5.730689,51.210875
Halfersstraat,11,,,6005RS,Weert,Weert,Limburg,VBO,5.730850,51.210912
Halfersstraat,13,,,6005RS,Weert,Weert,Limburg,VBO,5.730936,51.210932
Halfersstraat,15,,,6005RS,Weert,Weert,Limburg,VBO,5.731101,51.210970
Halfersstraat,17,,,6005RS,Weert,Weert,Limburg,VBO,5.731190,51.210991
Halfersstraat,19,,,6005RS,Weert,Weert,Limburg,VBO,5.731453,51.211060
Stapershofpad,1,,,6005RT,Weert,Weert,Limburg,VBO,5.726753,51.210979
Stapershofpad,2,,,6005RT,Weert,Weert,Limburg,VBO,5.726178,51.211104
Stapershofpad,4,,,6005RT,Weert,Weert,Limburg,VBO,5.726403,51.210937
Stapershofpad,6,,,6005RT,Weert,Weert,Limburg,VBO,5.726539,51.210836
Stapershofpad,8,,,6005RT,Weert,Weert,Limburg,VBO,5.726680,51.210730
Stapershofpad,10,,,6005RT,Weert,Weert,Limburg,VBO,5.726827,51.210621
Kerkveldweg,1,A,,6005RV,Weert,Weert,Limburg,VBO,5.728240,51.211138
Kerkveldweg,1,,,6005RV,Weert,Weert,Limburg,VBO,5.728221,51.211228
Kerkveldweg,2,,,6005RV,Weert,Weert,Limburg,VBO,5.727734,51.211218
Kerkveldweg,3,A,,6005RV,Weert,Weert,Limburg,VBO,5.728075,51.211015
Kerkveldweg,3,,,6005RV,Weert,Weert,Limburg,VBO,5.728109,51.211067
Kerkveldweg,4,,,6005RV,Weert,Weert,Limburg,VBO,5.727665,51.211173
Kerkveldweg,5,,,6005RV,Weert,Weert,Limburg,VBO,5.727964,51.210941
Kerkveldweg,6,,,6005RV,Weert,Weert,Limburg,VBO,5.727529,51.211083
Kerkveldweg,7,,,6005RV,Weert,Weert,Limburg,VBO,5.727842,51.210941
Kerkveldweg,8,,,6005RV,Weert,Weert,Limburg,VBO,5.727373,51.210979
Kerkveldweg,9,,,6005RV,Weert,Weert,Limburg,VBO,5.727852,51.210851
Kerkveldweg,10,,,6005RV,Weert,Weert,Limburg,VBO,5.727200,51.210865
Kerkveldweg,11,,,6005RV,Weert,Weert,Limburg,VBO,5.727721,51.210857
Kerkveldweg,12,,,6005RV,Weert,Weert,Limburg,VBO,5.727050,51.210763
Kerkveldweg,13,,,6005RV,Weert,Weert,Limburg,VBO,5.727471,51.210673
Kerkveldweg,15,,,6005RV,Weert,Weert,Limburg,VBO,5.727414,51.210636
Kerkveldweg,17,,,6005RV,Weert,Weert,Limburg,VBO,5.727042,51.210404
Kerkveldweg,19,,,6005RV,Weert,Weert,Limburg,VBO,5.726740,51.210181
Goorstraat,2,,,6005RW,Weert,Weert,Limburg,VBO,5.742920,51.207347
Thewenveldweg,1,,,6005RX,Weert,Weert,Limburg,VBO,5.746282,51.211985
Thewenveldweg,3,,,6005RX,Weert,Weert,Limburg,VBO,5.745250,51.210268
Pleunenweg,1,,,6005RZ,Weert,Weert,Limburg,VBO,5.749299,51.210372
Pleunenweg,2,A,,6005RZ,Weert,Weert,Limburg,VBO,5.749658,51.211273
Pleunenweg,2,,,6005RZ,Weert,Weert,Limburg,VBO,5.749564,51.211170
Pleunenweg,3,,,6005RZ,Weert,Weert,Limburg,VBO,5.749027,51.210354
Pleunenweg,4,,,6005RZ,Weert,Weert,Limburg,VBO,5.743895,51.207350
Konenhofstraat,1,,,6005SB,Weert,Weert,Limburg,VBO,5.735096,51.212339
Konenhofstraat,3,,,6005SB,Weert,Weert,Limburg,VBO,5.734978,51.212211
Konenhofstraat,4,,,6005SB,Weert,Weert,Limburg,VBO,5.734346,51.212102
Konenhofstraat,6,,,6005SB,Weert,Weert,Limburg,VBO,5.734329,51.212046
Konenhofstraat,7,,,6005SB,Weert,Weert,Limburg,VBO,5.734552,51.211663
Konenhofstraat,8,,,6005SB,Weert,Weert,Limburg,VBO,5.734298,51.211918
Konenhofstraat,9,,,6005SB,Weert,Weert,Limburg,VBO,5.734507,51.211624
Konenhofstraat,10,,,6005SB,Weert,Weert,Limburg,VBO,5.734281,51.211866
Konenhofstraat,11,,,6005SB,Weert,Weert,Limburg,VBO,5.734406,51.211533
Konenhofstraat,12,,,6005SB,Weert,Weert,Limburg,VBO,5.734183,51.211733
Konenhofstraat,13,,,6005SB,Weert,Weert,Limburg,VBO,5.734367,51.211494
Konenhofstraat,14,,,6005SB,Weert,Weert,Limburg,VBO,5.734139,51.211694
Konenhofstraat,15,,,6005SB,Weert,Weert,Limburg,VBO,5.734256,51.211401
Konenhofstraat,16,,,6005SB,Weert,Weert,Limburg,VBO,5.734042,51.211591
Konenhofstraat,17,,,6005SB,Weert,Weert,Limburg,VBO,5.734211,51.211361
Konenhofstraat,18,,,6005SB,Weert,Weert,Limburg,VBO,5.733980,51.211536
Konenhofstraat,20,,,6005SB,Weert,Weert,Limburg,VBO,5.733915,51.211479
Smeetjeshofstraat,1,,,6005SC,Weert,Weert,Limburg,VBO,5.733604,51.211601
Smeetjeshofstraat,2,,,6005SC,Weert,Weert,Limburg,VBO,5.733029,51.211655
Smeetjeshofstraat,3,,,6005SC,Weert,Weert,Limburg,VBO,5.733670,51.211572
Smeetjeshofstraat,4,,,6005SC,Weert,Weert,Limburg,VBO,5.733079,51.211606
Smeetjeshofstraat,5,,,6005SC,Weert,Weert,Limburg,VBO,5.734547,51.211228
Smeetjeshofstraat,6,,,6005SC,Weert,Weert,Limburg,VBO,5.733196,51.211523
Smeetjeshofstraat,7,,,6005SC,Weert,Weert,Limburg,VBO,5.734620,51.211208
Smeetjeshofstraat,8,,,6005SC,Weert,Weert,Limburg,VBO,5.733292,51.211476
Smeetjeshofstraat,9,,,6005SC,Weert,Weert,Limburg,VBO,5.734787,51.211160
Smeetjeshofstraat,10,,,6005SC,Weert,Weert,Limburg,VBO,5.733437,51.211409
Smeetjeshofstraat,11,,,6005SC,Weert,Weert,Limburg,VBO,5.734857,51.211140
Smeetjeshofstraat,12,,,6005SC,Weert,Weert,Limburg,VBO,5.733506,51.211378
Smeetjeshofstraat,13,,,6005SC,Weert,Weert,Limburg,VBO,5.735045,51.211107
Smeetjeshofstraat,14,,,6005SC,Weert,Weert,Limburg,VBO,5.733651,51.211314
Smeetjeshofstraat,16,,,6005SC,Weert,Weert,Limburg,VBO,5.733730,51.211277
Smeetjeshofstraat,18,,,6005SC,Weert,Weert,Limburg,VBO,5.733893,51.211206
Smeetjeshofstraat,20,,,6005SC,Weert,Weert,Limburg,VBO,5.733961,51.211176
Smeetjeshofstraat,22,,,6005SC,Weert,Weert,Limburg,VBO,5.734118,51.211123
Smeetjeshofstraat,24,,,6005SC,Weert,Weert,Limburg,VBO,5.734184,51.211094
Smeetjeshofstraat,26,,,6005SC,Weert,Weert,Limburg,VBO,5.734361,51.211052
Smeetjeshofstraat,28,,,6005SC,Weert,Weert,Limburg,VBO,5.734556,51.210985
Smeetjeshofstraat,30,,,6005SC,Weert,Weert,Limburg,VBO,5.734735,51.210934
Smeetjeshofstraat,32,,,6005SC,Weert,Weert,Limburg,VBO,5.734959,51.210889
Pastoor Pontstraat,1,,,6005SE,Weert,Weert,Limburg,VBO,5.734792,51.211997
Pastoor Pontstraat,2,,,6005SE,Weert,Weert,Limburg,VBO,5.735014,51.211669
Pastoor Pontstraat,3,,,6005SE,Weert,Weert,Limburg,VBO,5.734971,51.211941
Pastoor Pontstraat,4,,,6005SE,Weert,Weert,Limburg,VBO,5.735213,51.211586
Pastoor Pontstraat,5,,,6005SE,Weert,Weert,Limburg,VBO,5.735156,51.211883
Pastoor Pontstraat,6,,,6005SE,Weert,Weert,Limburg,VBO,5.735401,51.211476
Pastoor Pontstraat,7,,,6005SE,Weert,Weert,Limburg,VBO,5.735337,51.211794
Pastoor Pontstraat,9,,,6005SE,Weert,Weert,Limburg,VBO,5.735553,51.211706
Deken Moonenhof,1,,,6005SG,Weert,Weert,Limburg,VBO,5.732469,51.212392
Deken Moonenhof,2,,,6005SG,Weert,Weert,Limburg,VBO,5.732468,51.212333
Deken Moonenhof,3,,,6005SG,Weert,Weert,Limburg,VBO,5.732524,51.212238
Deken Moonenhof,4,,,6005SG,Weert,Weert,Limburg,VBO,5.732522,51.212176
Deken Moonenhof,5,,,6005SG,Weert,Weert,Limburg,VBO,5.732424,51.212087
Deken Moonenhof,6,,,6005SG,Weert,Weert,Limburg,VBO,5.732178,51.212089
Deken Moonenhof,7,,,6005SG,Weert,Weert,Limburg,VBO,5.732067,51.212170
Deken Moonenhof,8,,,6005SG,Weert,Weert,Limburg,VBO,5.732068,51.212232
Deken Moonenhof,9,,,6005SG,Weert,Weert,Limburg,VBO,5.732126,51.212326
Deken Moonenhof,10,,,6005SG,Weert,Weert,Limburg,VBO,5.732127,51.212383
Molensteeg,6,,,6005SK,Weert,Weert,Limburg,VBO,5.720933,51.207345
Kumpehof,2,,,6005SL,Weert,Weert,Limburg,VBO,5.727961,51.210431
Kumpehof,4,,,6005SL,Weert,Weert,Limburg,VBO,5.727905,51.210388
Kumpehof,6,,,6005SL,Weert,Weert,Limburg,VBO,5.727852,51.210348
Kumpehof,8,,,6005SL,Weert,Weert,Limburg,VBO,5.727732,51.210267
Kumpehof,10,,,6005SL,Weert,Weert,Limburg,VBO,5.727683,51.210225
Kumpehof,12,,,6005SL,Weert,Weert,Limburg,VBO,5.727624,51.210183
Kumpehof,14,,,6005SL,Weert,Weert,Limburg,VBO,5.727519,51.210101
Kumpehof,18,,,6005SL,Weert,Weert,Limburg,VBO,5.727586,51.209910
Kumpehof,20,,,6005SL,Weert,Weert,Limburg,VBO,5.727838,51.209798
Kumpehof,22,,,6005SL,Weert,Weert,Limburg,VBO,5.728082,51.209722
Kumpehof,24,,,6005SL,Weert,Weert,Limburg,VBO,5.728372,51.209627
Kumpehof,30,,,6005SL,Weert,Weert,Limburg,VBO,5.728873,51.209867
Kumpehof,32,,,6005SL,Weert,Weert,Limburg,VBO,5.729025,51.209998
Kumpehof,34,,,6005SL,Weert,Weert,Limburg,VBO,5.729188,51.210137
Kumpehof,36,,,6005SL,Weert,Weert,Limburg,VBO,5.729354,51.210271
Kumpehof,38,,,6005SL,Weert,Weert,Limburg,VBO,5.729131,51.210403
Kumpehof,40,,,6005SL,Weert,Weert,Limburg,VBO,5.728993,51.210522
Hansehof,1,,,6005SM,Weert,Weert,Limburg,VBO,5.728027,51.210753
Hansehof,3,,,6005SM,Weert,Weert,Limburg,VBO,5.728108,51.210713
Hansehof,5,,,6005SM,Weert,Weert,Limburg,VBO,5.728189,51.210671
Hansehof,7,,,6005SM,Weert,Weert,Limburg,VBO,5.728269,51.210632
Hansehof,9,,,6005SM,Weert,Weert,Limburg,VBO,5.728438,51.210496
Hansehof,11,,,6005SM,Weert,Weert,Limburg,VBO,5.728550,51.210607
Hansehof,13,,,6005SM,Weert,Weert,Limburg,VBO,5.728767,51.210764
Hansehof,15,,,6005SM,Weert,Weert,Limburg,VBO,5.728864,51.210828
Bij Polderte,2,,,6005SP,Weert,Weert,Limburg,VBO,5.770862,51.232652
Bij Polderte,4,,,6005SP,Weert,Weert,Limburg,VBO,5.770887,51.232604
Bij Polderte,6,,,6005SP,Weert,Weert,Limburg,VBO,5.770928,51.232495
Bij Polderte,8,,,6005SP,Weert,Weert,Limburg,VBO,5.770942,51.232449
Bij Polderte,10,,,6005SP,Weert,Weert,Limburg,VBO,5.770955,51.232344
Bij Polderte,12,,,6005SP,Weert,Weert,Limburg,VBO,5.771268,51.232457
Bij Polderte,14,,,6005SP,Weert,Weert,Limburg,VBO,5.771627,51.232403
Bij Polderte,16,,,6005SP,Weert,Weert,Limburg,VBO,5.771746,51.232529
Sint Barbaraplein,2,,,6005SR,Weert,Weert,Limburg,VBO,5.731039,51.213101
Bokkenrijdersstraat,1,,,6005ST,Weert,Weert,Limburg,VBO,5.731052,51.213411
Bokkenrijdersstraat,2,,,6005ST,Weert,Weert,Limburg,VBO,5.731851,51.213310
Bokkenrijdersstraat,4,,,6005ST,Weert,Weert,Limburg,VBO,5.731876,51.213363
Bokkenrijdersstraat,6,,,6005ST,Weert,Weert,Limburg,VBO,5.731926,51.213468
Bokkenrijdersstraat,8,,,6005ST,Weert,Weert,Limburg,VBO,5.731951,51.213521
Bokkenrijdersstraat,10,,,6005ST,Weert,Weert,Limburg,VBO,5.732008,51.213641
Bokkenrijdersstraat,12,,,6005ST,Weert,Weert,Limburg,VBO,5.732033,51.213694
Zwartewaterweg,1,,,6005SV,Weert,Weert,Limburg,VBO,5.755898,51.244606
Weystraat,2,,,6005SW,Weert,Weert,Limburg,VBO,5.773798,51.231668
Weystraat,4,,,6005SW,Weert,Weert,Limburg,VBO,5.773680,51.231784
Weystraat,6,,,6005SW,Weert,Weert,Limburg,VBO,5.773474,51.231943
Weystraat,8,,,6005SW,Weert,Weert,Limburg,VBO,5.773199,51.232007
Weystraat,9,,,6005SW,Weert,Weert,Limburg,VBO,5.772409,51.231884
Weystraat,10,,,6005SW,Weert,Weert,Limburg,VBO,5.772888,51.232046
Weystraat,11,,,6005SW,Weert,Weert,Limburg,VBO,5.772200,51.231911
Weystraat,12,,,6005SW,Weert,Weert,Limburg,VBO,5.772635,51.232093
Weystraat,13,,,6005SW,Weert,Weert,Limburg,VBO,5.771973,51.231940
Weystraat,14,,,6005SW,Weert,Weert,Limburg,VBO,5.772310,51.232121
Weystraat,15,,,6005SW,Weert,Weert,Limburg,VBO,5.771783,51.231637
Weystraat,16,,,6005SW,Weert,Weert,Limburg,VBO,5.772073,51.232151
Weystraat,18,,,6005SW,Weert,Weert,Limburg,VBO,5.771777,51.232165
Weystraat,20,,,6005SW,Weert,Weert,Limburg,VBO,5.771600,51.232074
Weystraat,22,,,6005SW,Weert,Weert,Limburg,VBO,5.771500,51.231864
Weystraat,24,,,6005SW,Weert,Weert,Limburg,VBO,5.771444,51.231720
Kapellestraat,1,,,6005SZ,Weert,Weert,Limburg,VBO,5.770979,51.231561
Kapellestraat,2,,,6005SZ,Weert,Weert,Limburg,VBO,5.771250,51.231383
Kapellestraat,4,,,6005SZ,Weert,Weert,Limburg,VBO,5.771500,51.231407
Kapellestraat,6,,,6005SZ,Weert,Weert,Limburg,VBO,5.771751,51.231386
Kapellestraat,8,,,6005SZ,Weert,Weert,Limburg,VBO,5.772092,51.231342
Kapellestraat,9,,,6005SZ,Weert,Weert,Limburg,VBO,5.772011,51.231577
Kapellestraat,10,,,6005SZ,Weert,Weert,Limburg,VBO,5.772189,51.231330
Kapellestraat,11,,,6005SZ,Weert,Weert,Limburg,VBO,5.772281,51.231562
Kapellestraat,12,,,6005SZ,Weert,Weert,Limburg,VBO,5.772430,51.231337
Kapellestraat,13,,,6005SZ,Weert,Weert,Limburg,VBO,5.772782,51.231653
Kapellestraat,14,,,6005SZ,Weert,Weert,Limburg,VBO,5.772517,51.231355
Kapellestraat,15,,,6005SZ,Weert,Weert,Limburg,VBO,5.772823,51.231776
Kapellestraat,16,,,6005SZ,Weert,Weert,Limburg,VBO,5.772730,51.231397
Kapellestraat,18,,,6005SZ,Weert,Weert,Limburg,VBO,5.772802,51.231414
