openbareruimtenaam,huisnummer,huisletter,huisnummertoevoeging,postcode,woonplaatsnaam,gemeentenaam,provincienaam,typeadresseerbaarobject,longitude,latitude
Hoofdstraat,1,,3,6024AA,Budel-Dorplein,Cranendonck,Noord-Brabant,VBO,5.599418,51.237204
Hoofdstraat,1,,,6024AA,Budel-Dorplein,Cranendonck,Noord-Brabant,VBO,5.598257,51.236456
Hoofdstraat,59,,,6024AA,Budel-Dorplein,Cranendonck,Noord-Brabant,VBO,5.597419,51.235909
Hoofdstraat,61,,,6024AA,Budel-Dorplein,Cranendonck,Noord-Brabant,VBO,5.597382,51.236027
Hoofdstraat,65,,,6024AA,Budel-Dorplein,Cranendonck,Noord-Brabant,VBO,5.596565,51.236118
Hoofdstraat,66,,,6024AA,Budel-Dorplein,Cranendonck,Noord-Brabant,VBO,5.595904,51.236159
Hoofdstraat,68,,,6024AA,Budel-Dorplein,Cranendonck,Noord-Brabant,VBO,5.595759,51.236171
Hoofdstraat,69,,,6024AA,Budel-Dorplein,Cranendonck,Noord-Brabant,VBO,5.595555,51.236172
Hoofdstraat,71,,,6024AA,Budel-Dorplein,Cranendonck,Noord-Brabant,VBO,5.595268,51.236178
Hoofdstraat,72,,,6024AA,Budel-Dorplein,Cranendonck,Noord-Brabant,VBO,5.595056,51.236210
Hoofdstraat,74,,,6024AA,Budel-Dorplein,Cranendonck,Noord-Brabant,VBO,5.594605,51.236193
Hoofdstraat,75,,,6024AA,Budel-Dorplein,Cranendonck,Noord-Brabant,VBO,5.594358,51.236216
Hoofdstraat,76,,,6024AA,Budel-Dorplein,Cranendonck,Noord-Brabant,VBO,5.593741,51.236239
Hoofdstraat,77,,,6024AA,Budel-Dorplein,Cranendonck,Noord-Brabant,VBO,5.593599,51.236270
Hoofdstraat,78,a,,6024AA,Budel-Dorplein,Cranendonck,Noord-Brabant,VBO,5.590257,51.235693
Hoofdstraat,78,,,6024AA,Budel-Dorplein,Cranendonck,Noord-Brabant,VBO,5.593080,51.236338
Hoofdstraat,80,,,6024AA,Budel-Dorplein,Cranendonck,Noord-Brabant,VBO,5.591400,51.236395
Hoofdstraat,100,,,6024AA,Budel-Dorplein,Cranendonck,Noord-Brabant,VBO,5.589109,51.236532
Hoofdstraat,101,,,6024AA,Budel-Dorplein,Cranendonck,Noord-Brabant,VBO,5.589021,51.236537
Hoofdstraat,102,,,6024AA,Budel-Dorplein,Cranendonck,Noord-Brabant,VBO,5.588872,51.236541
Hoofdstraat,104,,,6024AA,Budel-Dorplein,Cranendonck,Noord-Brabant,VBO,5.588291,51.236307
Hoofdstraat,106,,,6024AA,Budel-Dorplein,Cranendonck,Noord-Brabant,VBO,5.587732,51.236455
Hoofdstraat,108,,,6024AB,Budel-Dorplein,Cranendonck,Noord-Brabant,VBO,5.584128,51.236735
Hoofdstraat,109,,,6024AB,Budel-Dorplein,Cranendonck,Noord-Brabant,VBO,5.583272,51.236610
Hoofdstraat,110,,,6024AB,Budel-Dorplein,Cranendonck,Noord-Brabant,VBO,5.582280,51.236647
Hoofdstraat,201,,,6024AB,Budel-Dorplein,Cranendonck,Noord-Brabant,VBO,5.588374,51.237154
Hoofdstraat,202,b,,6024AB,Budel-Dorplein,Cranendonck,Noord-Brabant,VBO,5.587075,51.237028
Hoofdstraat,202,,,6024AB,Budel-Dorplein,Cranendonck,Noord-Brabant,VBO,5.587459,51.237010
Hoofdstraat,203,,,6024AB,Budel-Dorplein,Cranendonck,Noord-Brabant,VBO,5.592507,51.236799
Hoofdstraat,212,t,,6024AB,Budel-Dorplein,Cranendonck,Noord-Brabant,VBO,5.580906,51.237689
Hoofdstraat,212,,,6024AB,Budel-Dorplein,Cranendonck,Noord-Brabant,VBO,5.581330,51.237612
Marialaan,46,,,6024AC,Budel-Dorplein,Cranendonck,Noord-Brabant,VBO,5.592125,51.235384
Marialaan,48,,,6024AC,Budel-Dorplein,Cranendonck,Noord-Brabant,VBO,5.592275,51.235611
Marialaan,49,,,6024AC,Budel-Dorplein,Cranendonck,Noord-Brabant,VBO,5.592975,51.235800
Marialaan,50,,,6024AC,Budel-Dorplein,Cranendonck,Noord-Brabant,VBO,5.593238,51.235523
Marialaan,51,,,6024AC,Budel-Dorplein,Cranendonck,Noord-Brabant,VBO,5.593639,51.235775
Marialaan,52,,,6024AC,Budel-Dorplein,Cranendonck,Noord-Brabant,VBO,5.593382,51.235517
Marialaan,53,,,6024AC,Budel-Dorplein,Cranendonck,Noord-Brabant,VBO,5.593756,51.235771
Marialaan,54,,,6024AC,Budel-Dorplein,Cranendonck,Noord-Brabant,VBO,5.594001,51.235496
Marialaan,55,,,6024AC,Budel-Dorplein,Cranendonck,Noord-Brabant,VBO,5.594320,51.235750
Marialaan,56,,,6024AC,Budel-Dorplein,Cranendonck,Noord-Brabant,VBO,5.594100,51.235476
Marialaan,57,,,6024AC,Budel-Dorplein,Cranendonck,Noord-Brabant,VBO,5.594463,51.235744
Marialaan,59,,,6024AC,Budel-Dorplein,Cranendonck,Noord-Brabant,VBO,5.595074,51.235722
Marialaan,61,,,6024AC,Budel-Dorplein,Cranendonck,Noord-Brabant,VBO,5.595193,51.235717
Marialaan,62,,,6024AC,Budel-Dorplein,Cranendonck,Noord-Brabant,VBO,5.594698,51.235470
Gebrs. Looijmanslaan,38,,,6024AD,Budel-Dorplein,Cranendonck,Noord-Brabant,VBO,5.592018,51.234572
Gebrs. Looijmanslaan,39,,,6024AD,Budel-Dorplein,Cranendonck,Noord-Brabant,VBO,5.591868,51.234505
Gebrs. Looijmanslaan,40,,,6024AD,Budel-Dorplein,Cranendonck,Noord-Brabant,VBO,5.592228,51.235195
Gebrs. Looijmanslaan,41,,,6024AD,Budel-Dorplein,Cranendonck,Noord-Brabant,VBO,5.592734,51.234716
Gebrs. Looijmanslaan,42,,,6024AD,Budel-Dorplein,Cranendonck,Noord-Brabant,VBO,5.592401,51.235322
Gebrs. Looijmanslaan,43,,,6024AD,Budel-Dorplein,Cranendonck,Noord-Brabant,VBO,5.592407,51.235385
Gebrs. Looijmanslaan,44,,,6024AD,Budel-Dorplein,Cranendonck,Noord-Brabant,VBO,5.592414,51.235449
Lindenlaan,121,,,6024AE,Budel-Dorplein,Cranendonck,Noord-Brabant,VBO,5.588193,51.234353
Parkdreef,111,,,6024AG,Budel-Dorplein,Cranendonck,Noord-Brabant,VBO,5.586915,51.236423
Parkdreef,112,,,6024AG,Budel-Dorplein,Cranendonck,Noord-Brabant,VBO,5.586481,51.236465
Parkdreef,113,,,6024AG,Budel-Dorplein,Cranendonck,Noord-Brabant,VBO,5.586908,51.235789
Parkdreef,116,,,6024AG,Budel-Dorplein,Cranendonck,Noord-Brabant,VBO,5.586327,51.235399
Parkdreef,117,,,6024AG,Budel-Dorplein,Cranendonck,Noord-Brabant,VBO,5.586256,51.235056
Maj. Greenhallweg,112,a,,6024AH,Budel-Dorplein,Cranendonck,Noord-Brabant,VBO,5.585805,51.236470
Maj. Greenhallweg,112,b,,6024AH,Budel-Dorplein,Cranendonck,Noord-Brabant,VBO,5.585954,51.236299
Maj. Greenhallweg,114,,,6024AH,Budel-Dorplein,Cranendonck,Noord-Brabant,VBO,5.586187,51.235963
Maj. Greenhallweg,115,,,6024AH,Budel-Dorplein,Cranendonck,Noord-Brabant,VBO,5.586293,51.235666
Sint Josephstraat,125,,,6024AJ,Budel-Dorplein,Cranendonck,Noord-Brabant,VBO,5.585139,51.236556
Sint Josephstraat,126,,,6024AJ,Budel-Dorplein,Cranendonck,Noord-Brabant,VBO,5.585064,51.235900
Sint Josephstraat,127,,,6024AJ,Budel-Dorplein,Cranendonck,Noord-Brabant,VBO,5.585041,51.235704
Sint Josephstraat,128,,,6024AJ,Budel-Dorplein,Cranendonck,Noord-Brabant,VBO,5.584970,51.234994
Sint Josephstraat,129,,,6024AJ,Budel-Dorplein,Cranendonck,Noord-Brabant,VBO,5.584945,51.234837
Sint Josephstraat,130,,,6024AJ,Budel-Dorplein,Cranendonck,Noord-Brabant,VBO,5.584884,51.234144
Sint Josephstraat,131,,,6024AJ,Budel-Dorplein,Cranendonck,Noord-Brabant,VBO,5.584871,51.234017
Sint Josephstraat,132,,,6024AJ,Budel-Dorplein,Cranendonck,Noord-Brabant,VBO,5.584823,51.233367
Sint Josephstraat,133,,,6024AJ,Budel-Dorplein,Cranendonck,Noord-Brabant,VBO,5.584781,51.233122
Sint Josephstraat,134,,,6024AJ,Budel-Dorplein,Cranendonck,Noord-Brabant,VBO,5.584729,51.232594
Sint Josephstraat,135,b,,6024AJ,Budel-Dorplein,Cranendonck,Noord-Brabant,VBO,5.585141,51.229599
Sint Josephstraat,135,c,,6024AJ,Budel-Dorplein,Cranendonck,Noord-Brabant,VBO,5.586895,51.229180
Sint Josephstraat,135,,,6024AJ,Budel-Dorplein,Cranendonck,Noord-Brabant,VBO,5.584707,51.232385
Liedekerkestraat,136,,,6024AK,Budel-Dorplein,Cranendonck,Noord-Brabant,VBO,5.584637,51.232388
Liedekerkestraat,137,,,6024AK,Budel-Dorplein,Cranendonck,Noord-Brabant,VBO,5.584681,51.232592
Liedekerkestraat,138,,,6024AK,Budel-Dorplein,Cranendonck,Noord-Brabant,VBO,5.584708,51.233124
Liedekerkestraat,139,,,6024AK,Budel-Dorplein,Cranendonck,Noord-Brabant,VBO,5.584731,51.233420
Liedekerkestraat,140,,,6024AK,Budel-Dorplein,Cranendonck,Noord-Brabant,VBO,5.584803,51.234016
Liedekerkestraat,141,,,6024AK,Budel-Dorplein,Cranendonck,Noord-Brabant,VBO,5.584814,51.234143
Liedekerkestraat,142,,,6024AK,Budel-Dorplein,Cranendonck,Noord-Brabant,VBO,5.584885,51.234848
Liedekerkestraat,143,,,6024AK,Budel-Dorplein,Cranendonck,Noord-Brabant,VBO,5.584899,51.234994
Liedekerkestraat,144,,,6024AK,Budel-Dorplein,Cranendonck,Noord-Brabant,VBO,5.584975,51.235664
Liedekerkestraat,145,,,6024AK,Budel-Dorplein,Cranendonck,Noord-Brabant,VBO,5.585000,51.235838
Liedekerkestraat,152,,,6024AK,Budel-Dorplein,Cranendonck,Noord-Brabant,VBO,5.584128,51.235940
Liedekerkestraat,153,,,6024AK,Budel-Dorplein,Cranendonck,Noord-Brabant,VBO,5.584112,51.235742
Liedekerkestraat,154,,,6024AK,Budel-Dorplein,Cranendonck,Noord-Brabant,VBO,5.584043,51.235062
Liedekerkestraat,155,,,6024AK,Budel-Dorplein,Cranendonck,Noord-Brabant,VBO,5.584032,51.234953
Liedekerkestraat,156,,,6024AK,Budel-Dorplein,Cranendonck,Noord-Brabant,VBO,5.583959,51.234251
Liedekerkestraat,157,,,6024AK,Budel-Dorplein,Cranendonck,Noord-Brabant,VBO,5.583941,51.234050
Liedekerkestraat,158,,,6024AK,Budel-Dorplein,Cranendonck,Noord-Brabant,VBO,5.583873,51.233362
Liedekerkestraat,159,a,,6024AK,Budel-Dorplein,Cranendonck,Noord-Brabant,VBO,5.583845,51.233056
Liedekerkestraat,159,,,6024AK,Budel-Dorplein,Cranendonck,Noord-Brabant,VBO,5.583865,51.233251
Liedekerkestraat,160,,,6024AK,Budel-Dorplein,Cranendonck,Noord-Brabant,VBO,5.583802,51.232742
Liedekerkestraat,161,,,6024AK,Budel-Dorplein,Cranendonck,Noord-Brabant,VBO,5.583774,51.232387
Sepulchrestraat,162,,,6024AL,Budel-Dorplein,Cranendonck,Noord-Brabant,VBO,5.583730,51.232388
Sepulchrestraat,163,,,6024AL,Budel-Dorplein,Cranendonck,Noord-Brabant,VBO,5.583746,51.232742
Sepulchrestraat,164,,,6024AL,Budel-Dorplein,Cranendonck,Noord-Brabant,VBO,5.583798,51.233255
Sepulchrestraat,165,,,6024AL,Budel-Dorplein,Cranendonck,Noord-Brabant,VBO,5.583802,51.233360
Sepulchrestraat,166,,,6024AL,Budel-Dorplein,Cranendonck,Noord-Brabant,VBO,5.583870,51.234051
Sepulchrestraat,167,a,,6024AL,Budel-Dorplein,Cranendonck,Noord-Brabant,VBO,5.583908,51.234363
Sepulchrestraat,167,,,6024AL,Budel-Dorplein,Cranendonck,Noord-Brabant,VBO,5.583890,51.234174
Sepulchrestraat,168,,,6024AL,Budel-Dorplein,Cranendonck,Noord-Brabant,VBO,5.583965,51.234957
Sepulchrestraat,169,,,6024AL,Budel-Dorplein,Cranendonck,Noord-Brabant,VBO,5.583977,51.235063
Sepulchrestraat,170,,,6024AL,Budel-Dorplein,Cranendonck,Noord-Brabant,VBO,5.584044,51.235742
Sepulchrestraat,171,,,6024AL,Budel-Dorplein,Cranendonck,Noord-Brabant,VBO,5.584054,51.235954
Sepulchrestraat,172,,,6024AL,Budel-Dorplein,Cranendonck,Noord-Brabant,VBO,5.583965,51.236308
Sepulchrestraat,173,,,6024AL,Budel-Dorplein,Cranendonck,Noord-Brabant,VBO,5.583891,51.236493
Sepulchrestraat,174,,,6024AL,Budel-Dorplein,Cranendonck,Noord-Brabant,VBO,5.583899,51.236585
Sepulchrestraat,175,,,6024AL,Budel-Dorplein,Cranendonck,Noord-Brabant,VBO,5.583906,51.236656
Sepulchrestraat,176,,,6024AL,Budel-Dorplein,Cranendonck,Noord-Brabant,VBO,5.583913,51.236729
Rect. Van Nestestraat,179,,,6024AM,Budel-Dorplein,Cranendonck,Noord-Brabant,VBO,5.583400,51.236011
Rect. Van Nestestraat,180,,,6024AM,Budel-Dorplein,Cranendonck,Noord-Brabant,VBO,5.583303,51.236014
Rect. Van Nestestraat,181,,,6024AM,Budel-Dorplein,Cranendonck,Noord-Brabant,VBO,5.583085,51.236023
Rect. Van Nestestraat,182,,,6024AM,Budel-Dorplein,Cranendonck,Noord-Brabant,VBO,5.582984,51.236026
Rect. Van Nestestraat,183,,,6024AM,Budel-Dorplein,Cranendonck,Noord-Brabant,VBO,5.582754,51.236035
Rect. Van Nestestraat,184,,,6024AM,Budel-Dorplein,Cranendonck,Noord-Brabant,VBO,5.582667,51.236039
Rect. Van Nestestraat,185,,,6024AM,Budel-Dorplein,Cranendonck,Noord-Brabant,VBO,5.582441,51.236047
Rect. Van Nestestraat,186,,,6024AM,Budel-Dorplein,Cranendonck,Noord-Brabant,VBO,5.582364,51.236050
Rect. Van Nestestraat,187,,,6024AM,Budel-Dorplein,Cranendonck,Noord-Brabant,VBO,5.582125,51.236059
Rect. Van Nestestraat,188,,,6024AM,Budel-Dorplein,Cranendonck,Noord-Brabant,VBO,5.582048,51.236062
Rect. Van Nestestraat,189,,,6024AM,Budel-Dorplein,Cranendonck,Noord-Brabant,VBO,5.582009,51.235683
Rect. Van Nestestraat,190,,,6024AM,Budel-Dorplein,Cranendonck,Noord-Brabant,VBO,5.582084,51.235680
Rect. Van Nestestraat,191,,,6024AM,Budel-Dorplein,Cranendonck,Noord-Brabant,VBO,5.582323,51.235671
Rect. Van Nestestraat,192,,,6024AM,Budel-Dorplein,Cranendonck,Noord-Brabant,VBO,5.582400,51.235668
Rect. Van Nestestraat,193,,,6024AM,Budel-Dorplein,Cranendonck,Noord-Brabant,VBO,5.582639,51.235659
Rect. Van Nestestraat,194,,,6024AM,Budel-Dorplein,Cranendonck,Noord-Brabant,VBO,5.582715,51.235656
Rect. Van Nestestraat,195,,,6024AM,Budel-Dorplein,Cranendonck,Noord-Brabant,VBO,5.582949,51.235647
Rect. Van Nestestraat,196,,,6024AM,Budel-Dorplein,Cranendonck,Noord-Brabant,VBO,5.583036,51.235644
Rect. Van Nestestraat,197,,,6024AM,Budel-Dorplein,Cranendonck,Noord-Brabant,VBO,5.583270,51.235635
Rect. Van Nestestraat,198,,,6024AM,Budel-Dorplein,Cranendonck,Noord-Brabant,VBO,5.583346,51.235632
Eikenlaan,204,a,,6024AN,Budel-Dorplein,Cranendonck,Noord-Brabant,VBO,5.587731,51.238121
Eikenlaan,204,b,,6024AN,Budel-Dorplein,Cranendonck,Noord-Brabant,VBO,5.587661,51.238096
Eikenlaan,204,,,6024AN,Budel-Dorplein,Cranendonck,Noord-Brabant,VBO,5.587814,51.238153
Eikenlaan,205,a,,6024AN,Budel-Dorplein,Cranendonck,Noord-Brabant,VBO,5.586773,51.238404
Eikenlaan,205,,,6024AN,Budel-Dorplein,Cranendonck,Noord-Brabant,VBO,5.587208,51.238310
Eikenlaan,207,,,6024AN,Budel-Dorplein,Cranendonck,Noord-Brabant,VBO,5.586087,51.238736
Eikenlaan,209,,,6024AN,Budel-Dorplein,Cranendonck,Noord-Brabant,VBO,5.585558,51.238993
Eikenlaan,211,,,6024AN,Budel-Dorplein,Cranendonck,Noord-Brabant,VBO,5.584987,51.239180
Boszicht,213,,,6024AP,Budel-Dorplein,Cranendonck,Noord-Brabant,VBO,5.584013,51.239349
Boszicht,215,,,6024AP,Budel-Dorplein,Cranendonck,Noord-Brabant,VBO,5.583790,51.239363
Boszicht,216,a,,6024AP,Budel-Dorplein,Cranendonck,Noord-Brabant,VBO,5.584106,51.237864
Boszicht,216,b,,6024AP,Budel-Dorplein,Cranendonck,Noord-Brabant,VBO,5.582249,51.240111
Boszicht,216,,,6024AP,Budel-Dorplein,Cranendonck,Noord-Brabant,VBO,5.582499,51.240135
Boszicht,217,,,6024AP,Budel-Dorplein,Cranendonck,Noord-Brabant,VBO,5.583512,51.239441
Boszicht,218,,,6024AP,Budel-Dorplein,Cranendonck,Noord-Brabant,VBO,5.583489,51.239202
Boszicht,220,,,6024AP,Budel-Dorplein,Cranendonck,Noord-Brabant,VBO,5.583762,51.239234
Boszicht,222,,,6024AP,Budel-Dorplein,Cranendonck,Noord-Brabant,VBO,5.583880,51.239204
Boszicht,224,,,6024AP,Budel-Dorplein,Cranendonck,Noord-Brabant,VBO,5.584016,51.239249
Boszicht,228,,,6024AP,Budel-Dorplein,Cranendonck,Noord-Brabant,VBO,5.584209,51.240556
Boszicht,230,,,6024AP,Budel-Dorplein,Cranendonck,Noord-Brabant,VBO,5.585189,51.241413
Sint Barbaraweg,1,,,6024AR,Budel-Dorplein,Cranendonck,Noord-Brabant,VBO,5.578898,51.237057
Sint Barbaraweg,53,,,6024AR,Budel-Dorplein,Cranendonck,Noord-Brabant,VBO,5.572897,51.237143
Sint Barbaraweg,55,,,6024AR,Budel-Dorplein,Cranendonck,Noord-Brabant,VBO,5.572808,51.237147
Sint Barbaraweg,57,,,6024AR,Budel-Dorplein,Cranendonck,Noord-Brabant,VBO,5.572570,51.237156
Sint Barbaraweg,59,,,6024AR,Budel-Dorplein,Cranendonck,Noord-Brabant,VBO,5.572481,51.237159
Sint Barbaraweg,61,,,6024AR,Budel-Dorplein,Cranendonck,Noord-Brabant,VBO,5.572248,51.237168
Sint Barbaraweg,63,,,6024AR,Budel-Dorplein,Cranendonck,Noord-Brabant,VBO,5.572155,51.237172
Sint Barbaraweg,65,,,6024AR,Budel-Dorplein,Cranendonck,Noord-Brabant,VBO,5.571917,51.237181
Sint Barbaraweg,67,,,6024AR,Budel-Dorplein,Cranendonck,Noord-Brabant,VBO,5.571828,51.237184
Sint Barbaraweg,69,,,6024AR,Budel-Dorplein,Cranendonck,Noord-Brabant,VBO,5.571591,51.237193
Sint Barbaraweg,71,,,6024AR,Budel-Dorplein,Cranendonck,Noord-Brabant,VBO,5.571505,51.237196
Sint Barbaraweg,73,,,6024AR,Budel-Dorplein,Cranendonck,Noord-Brabant,VBO,5.571263,51.237205
Sint Barbaraweg,75,,,6024AR,Budel-Dorplein,Cranendonck,Noord-Brabant,VBO,5.571174,51.237209
Sint Barbaraweg,77,,,6024AR,Budel-Dorplein,Cranendonck,Noord-Brabant,VBO,5.570936,51.237217
Sint Barbaraweg,79,,,6024AR,Budel-Dorplein,Cranendonck,Noord-Brabant,VBO,5.570848,51.237220
Sint Barbaraweg,81,,,6024AR,Budel-Dorplein,Cranendonck,Noord-Brabant,VBO,5.570103,51.237248
Sint Barbaraweg,83,,,6024AR,Budel-Dorplein,Cranendonck,Noord-Brabant,VBO,5.570011,51.237252
Sint Barbaraweg,85,,,6024AR,Budel-Dorplein,Cranendonck,Noord-Brabant,VBO,5.569773,51.237261
Sint Barbaraweg,87,,,6024AR,Budel-Dorplein,Cranendonck,Noord-Brabant,VBO,5.569684,51.237264
Sint Barbaraweg,89,,,6024AR,Budel-Dorplein,Cranendonck,Noord-Brabant,VBO,5.569446,51.237273
Sint Barbaraweg,91,,,6024AS,Budel-Dorplein,Cranendonck,Noord-Brabant,VBO,5.569362,51.237277
Sint Barbaraweg,93,,,6024AS,Budel-Dorplein,Cranendonck,Noord-Brabant,VBO,5.569120,51.237286
Sint Barbaraweg,95,,,6024AS,Budel-Dorplein,Cranendonck,Noord-Brabant,VBO,5.569030,51.237289
Sint Barbaraweg,97,,,6024AS,Budel-Dorplein,Cranendonck,Noord-Brabant,VBO,5.568788,51.237298
Sint Barbaraweg,99,,,6024AS,Budel-Dorplein,Cranendonck,Noord-Brabant,VBO,5.568704,51.237302
Sint Barbaraweg,101,,,6024AS,Budel-Dorplein,Cranendonck,Noord-Brabant,VBO,5.568538,51.237308
Sint Barbaraweg,103,,,6024AS,Budel-Dorplein,Cranendonck,Noord-Brabant,VBO,5.568449,51.237311
Sint Barbaraweg,105,,,6024AS,Budel-Dorplein,Cranendonck,Noord-Brabant,VBO,5.568278,51.237318
Sint Barbaraweg,107,,,6024AS,Budel-Dorplein,Cranendonck,Noord-Brabant,VBO,5.568192,51.237321
Sint Barbaraweg,109,,,6024AS,Budel-Dorplein,Cranendonck,Noord-Brabant,VBO,5.568022,51.237328
Sint Barbaraweg,111,,,6024AS,Budel-Dorplein,Cranendonck,Noord-Brabant,VBO,5.567943,51.237331
Sint Barbaraweg,113,,,6024AS,Budel-Dorplein,Cranendonck,Noord-Brabant,VBO,5.567769,51.237338
Sint Barbaraweg,115,,,6024AS,Budel-Dorplein,Cranendonck,Noord-Brabant,VBO,5.567684,51.237341
Sint Barbaraweg,121,,,6024AS,Budel-Dorplein,Cranendonck,Noord-Brabant,VBO,5.559923,51.237511
Sint Barbaraweg,2,,,6024AT,Budel-Dorplein,Cranendonck,Noord-Brabant,VBO,5.577970,51.237473
Sint Barbaraweg,4,,,6024AT,Budel-Dorplein,Cranendonck,Noord-Brabant,VBO,5.577914,51.237399
Sint Barbaraweg,6,,,6024AT,Budel-Dorplein,Cranendonck,Noord-Brabant,VBO,5.577845,51.237319
Sint Barbaraweg,8,,,6024AT,Budel-Dorplein,Cranendonck,Noord-Brabant,VBO,5.577757,51.237241
Sint Barbaraweg,10,,,6024AT,Budel-Dorplein,Cranendonck,Noord-Brabant,VBO,5.577256,51.237256
Sint Barbaraweg,12,a,,6024AT,Budel-Dorplein,Cranendonck,Noord-Brabant,VBO,5.576792,51.237242
Sint Barbaraweg,12,,,6024AT,Budel-Dorplein,Cranendonck,Noord-Brabant,VBO,5.576925,51.237236
Sint Barbaraweg,14,a,,6024AT,Budel-Dorplein,Cranendonck,Noord-Brabant,VBO,5.576457,51.237290
Sint Barbaraweg,14,,,6024AT,Budel-Dorplein,Cranendonck,Noord-Brabant,VBO,5.576578,51.237284
Sint Barbaraweg,16,,,6024AT,Budel-Dorplein,Cranendonck,Noord-Brabant,VBO,5.576233,51.237344
Sint Barbaraweg,22,,,6024AT,Budel-Dorplein,Cranendonck,Noord-Brabant,VBO,5.575291,51.237376
Sint Barbaraweg,24,,,6024AT,Budel-Dorplein,Cranendonck,Noord-Brabant,VBO,5.575027,51.237394
Sint Barbaraweg,26,,,6024AT,Budel-Dorplein,Cranendonck,Noord-Brabant,VBO,5.574795,51.237410
Sint Barbaraweg,28,,,6024AT,Budel-Dorplein,Cranendonck,Noord-Brabant,VBO,5.574584,51.237410
Sint Barbaraweg,30,,,6024AT,Budel-Dorplein,Cranendonck,Noord-Brabant,VBO,5.574496,51.237413
Sint Barbaraweg,32,,,6024AT,Budel-Dorplein,Cranendonck,Noord-Brabant,VBO,5.574331,51.237419
Sint Barbaraweg,34,,,6024AT,Budel-Dorplein,Cranendonck,Noord-Brabant,VBO,5.574244,51.237422
Sint Barbaraweg,36,,,6024AT,Budel-Dorplein,Cranendonck,Noord-Brabant,VBO,5.574077,51.237429
Sint Barbaraweg,38,,,6024AT,Budel-Dorplein,Cranendonck,Noord-Brabant,VBO,5.573990,51.237432
Sint Barbaraweg,40,,,6024AT,Budel-Dorplein,Cranendonck,Noord-Brabant,VBO,5.573825,51.237438
Sint Barbaraweg,42,,,6024AT,Budel-Dorplein,Cranendonck,Noord-Brabant,VBO,5.573738,51.237441
Sint Barbaraweg,44,,,6024AT,Budel-Dorplein,Cranendonck,Noord-Brabant,VBO,5.573573,51.237447
Sint Barbaraweg,46,,,6024AT,Budel-Dorplein,Cranendonck,Noord-Brabant,VBO,5.573483,51.237450
Sint Barbaraweg,48,,,6024AT,Budel-Dorplein,Cranendonck,Noord-Brabant,VBO,5.572529,51.237486
Sint Barbaraweg,50,,,6024AT,Budel-Dorplein,Cranendonck,Noord-Brabant,VBO,5.572440,51.237489
Sint Barbaraweg,52,,,6024AT,Budel-Dorplein,Cranendonck,Noord-Brabant,VBO,5.572352,51.237493
Sint Barbaraweg,54,,,6024AT,Budel-Dorplein,Cranendonck,Noord-Brabant,VBO,5.572264,51.237496
Sint Barbaraweg,56,,,6024AT,Budel-Dorplein,Cranendonck,Noord-Brabant,VBO,5.572085,51.237503
Sint Barbaraweg,58,,,6024AT,Budel-Dorplein,Cranendonck,Noord-Brabant,VBO,5.571997,51.237506
Sint Barbaraweg,60,,,6024AT,Budel-Dorplein,Cranendonck,Noord-Brabant,VBO,5.571908,51.237509
Sint Barbaraweg,62,,,6024AT,Budel-Dorplein,Cranendonck,Noord-Brabant,VBO,5.571820,51.237512
Sint Barbaraweg,64,,,6024AT,Budel-Dorplein,Cranendonck,Noord-Brabant,VBO,5.571641,51.237519
Sint Barbaraweg,66,,,6024AT,Budel-Dorplein,Cranendonck,Noord-Brabant,VBO,5.571552,51.237522
Sint Barbaraweg,68,,,6024AT,Budel-Dorplein,Cranendonck,Noord-Brabant,VBO,5.571464,51.237526
Sint Barbaraweg,70,,,6024AV,Budel-Dorplein,Cranendonck,Noord-Brabant,VBO,5.571377,51.237529
Sint Barbaraweg,72,,,6024AV,Budel-Dorplein,Cranendonck,Noord-Brabant,VBO,5.571140,51.237538
Sint Barbaraweg,74,,,6024AV,Budel-Dorplein,Cranendonck,Noord-Brabant,VBO,5.571051,51.237541
Sint Barbaraweg,76,,,6024AV,Budel-Dorplein,Cranendonck,Noord-Brabant,VBO,5.570104,51.237577
Sint Barbaraweg,78,,,6024AV,Budel-Dorplein,Cranendonck,Noord-Brabant,VBO,5.570016,51.237580
Sint Barbaraweg,80,,,6024AV,Budel-Dorplein,Cranendonck,Noord-Brabant,VBO,5.569778,51.237589
Sint Barbaraweg,82,,,6024AV,Budel-Dorplein,Cranendonck,Noord-Brabant,VBO,5.569689,51.237592
Sint Barbaraweg,84,,,6024AV,Budel-Dorplein,Cranendonck,Noord-Brabant,VBO,5.569487,51.237600
Sint Barbaraweg,86,,,6024AV,Budel-Dorplein,Cranendonck,Noord-Brabant,VBO,5.569401,51.237603
Sint Barbaraweg,88,,,6024AV,Budel-Dorplein,Cranendonck,Noord-Brabant,VBO,5.569316,51.237606
Sint Barbaraweg,90,,,6024AV,Budel-Dorplein,Cranendonck,Noord-Brabant,VBO,5.569121,51.237614
Sint Barbaraweg,92,,,6024AV,Budel-Dorplein,Cranendonck,Noord-Brabant,VBO,5.569036,51.237617
Sint Barbaraweg,94,,,6024AV,Budel-Dorplein,Cranendonck,Noord-Brabant,VBO,5.568951,51.237621
Sint Barbaraweg,96,,,6024AV,Budel-Dorplein,Cranendonck,Noord-Brabant,VBO,5.568755,51.237628
Sint Barbaraweg,98,,,6024AV,Budel-Dorplein,Cranendonck,Noord-Brabant,VBO,5.568670,51.237631
Sint Barbaraweg,100,,,6024AV,Budel-Dorplein,Cranendonck,Noord-Brabant,VBO,5.568583,51.237635
Koningin Julianastraat,2,,,6024AW,Budel-Dorplein,Cranendonck,Noord-Brabant,VBO,5.573467,51.238385
Koningin Julianastraat,4,,,6024AW,Budel-Dorplein,Cranendonck,Noord-Brabant,VBO,5.573083,51.237872
Koningin Julianastraat,6,,,6024AW,Budel-Dorplein,Cranendonck,Noord-Brabant,VBO,5.573077,51.237814
Koningin Julianastraat,8,,,6024AW,Budel-Dorplein,Cranendonck,Noord-Brabant,VBO,5.573058,51.237638
Koningin Julianastraat,10,,,6024AW,Budel-Dorplein,Cranendonck,Noord-Brabant,VBO,5.573052,51.237581
Prinses Christinaplantsoen,1,,,6024AX,Budel-Dorplein,Cranendonck,Noord-Brabant,VBO,5.573839,51.238281
Prinses Christinaplantsoen,2,,,6024AX,Budel-Dorplein,Cranendonck,Noord-Brabant,VBO,5.573935,51.238260
Prinses Christinaplantsoen,3,,,6024AX,Budel-Dorplein,Cranendonck,Noord-Brabant,VBO,5.574083,51.238227
Prinses Christinaplantsoen,4,,,6024AX,Budel-Dorplein,Cranendonck,Noord-Brabant,VBO,5.574176,51.238208
Prinses Christinaplantsoen,5,,,6024AX,Budel-Dorplein,Cranendonck,Noord-Brabant,VBO,5.574320,51.238177
Prinses Christinaplantsoen,6,,,6024AX,Budel-Dorplein,Cranendonck,Noord-Brabant,VBO,5.574419,51.238156
Prinses Christinaplantsoen,7,,,6024AX,Budel-Dorplein,Cranendonck,Noord-Brabant,VBO,5.574559,51.238126
Prinses Christinaplantsoen,8,,,6024AX,Budel-Dorplein,Cranendonck,Noord-Brabant,VBO,5.574662,51.238118
Prinses Christinaplantsoen,9,,,6024AX,Budel-Dorplein,Cranendonck,Noord-Brabant,VBO,5.574809,51.238089
Prinses Christinaplantsoen,10,,,6024AX,Budel-Dorplein,Cranendonck,Noord-Brabant,VBO,5.574902,51.238051
Prinses Christinaplantsoen,11,,,6024AX,Budel-Dorplein,Cranendonck,Noord-Brabant,VBO,5.575085,51.237897
Prinses Christinaplantsoen,14,,,6024AX,Budel-Dorplein,Cranendonck,Noord-Brabant,VBO,5.574729,51.237688
Prinses Christinaplantsoen,15,,,6024AX,Budel-Dorplein,Cranendonck,Noord-Brabant,VBO,5.574412,51.237690
Prinses Christinaplantsoen,16,,,6024AX,Budel-Dorplein,Cranendonck,Noord-Brabant,VBO,5.574303,51.237694
Prinses Christinaplantsoen,17,,,6024AX,Budel-Dorplein,Cranendonck,Noord-Brabant,VBO,5.574145,51.237700
Prinses Christinaplantsoen,18,,,6024AX,Budel-Dorplein,Cranendonck,Noord-Brabant,VBO,5.574035,51.237704
Prinses Christinaplantsoen,19,,,6024AX,Budel-Dorplein,Cranendonck,Noord-Brabant,VBO,5.573877,51.237710
Prinses Christinaplantsoen,20,,,6024AX,Budel-Dorplein,Cranendonck,Noord-Brabant,VBO,5.573768,51.237714
Prinses Christinaplantsoen,21,,,6024AX,Budel-Dorplein,Cranendonck,Noord-Brabant,VBO,5.573604,51.237720
Prinses Christinaplantsoen,22,,,6024AX,Budel-Dorplein,Cranendonck,Noord-Brabant,VBO,5.573512,51.237723
Prinses Margrietstraat,1,,,6024AZ,Budel-Dorplein,Cranendonck,Noord-Brabant,VBO,5.571797,51.238724
Prinses Margrietstraat,2,,,6024AZ,Budel-Dorplein,Cranendonck,Noord-Brabant,VBO,5.570839,51.238656
Prinses Margrietstraat,3,,,6024AZ,Budel-Dorplein,Cranendonck,Noord-Brabant,VBO,5.571887,51.238705
Prinses Margrietstraat,4,,,6024AZ,Budel-Dorplein,Cranendonck,Noord-Brabant,VBO,5.570925,51.238637
Prinses Margrietstraat,5,,,6024AZ,Budel-Dorplein,Cranendonck,Noord-Brabant,VBO,5.572134,51.238651
Prinses Margrietstraat,6,,,6024AZ,Budel-Dorplein,Cranendonck,Noord-Brabant,VBO,5.571213,51.238574
Prinses Margrietstraat,7,,,6024AZ,Budel-Dorplein,Cranendonck,Noord-Brabant,VBO,5.572220,51.238632
Prinses Margrietstraat,8,,,6024AZ,Budel-Dorplein,Cranendonck,Noord-Brabant,VBO,5.571299,51.238555
Prinses Margrietstraat,9,,,6024AZ,Budel-Dorplein,Cranendonck,Noord-Brabant,VBO,5.572465,51.238578
Prinses Margrietstraat,10,,,6024AZ,Budel-Dorplein,Cranendonck,Noord-Brabant,VBO,5.572251,51.238346
Prinses Margrietstraat,11,,,6024AZ,Budel-Dorplein,Cranendonck,Noord-Brabant,VBO,5.572547,51.238561
Prinses Margrietstraat,12,,,6024AZ,Budel-Dorplein,Cranendonck,Noord-Brabant,VBO,5.572337,51.238327
Prinses Margrietstraat,13,,,6024AZ,Budel-Dorplein,Cranendonck,Noord-Brabant,VBO,5.572797,51.238506
Prinses Margrietstraat,14,,,6024AZ,Budel-Dorplein,Cranendonck,Noord-Brabant,VBO,5.572608,51.238268
Prinses Margrietstraat,15,,,6024AZ,Budel-Dorplein,Cranendonck,Noord-Brabant,VBO,5.572884,51.238487
Prinses Margrietstraat,16,,,6024AZ,Budel-Dorplein,Cranendonck,Noord-Brabant,VBO,5.572696,51.238248
Prinses Margrietstraat,17,,,6024AZ,Budel-Dorplein,Cranendonck,Noord-Brabant,VBO,5.573119,51.238435
Prinses Margrietstraat,18,,,6024AZ,Budel-Dorplein,Cranendonck,Noord-Brabant,VBO,5.573022,51.238177
Prinses Margrietstraat,19,,,6024AZ,Budel-Dorplein,Cranendonck,Noord-Brabant,VBO,5.573231,51.238411
Prinses Margrietstraat,20,,,6024AZ,Budel-Dorplein,Cranendonck,Noord-Brabant,VBO,5.573104,51.238158
Prins Bernhardplantsoen,1,,,6024BA,Budel-Dorplein,Cranendonck,Noord-Brabant,VBO,5.571299,51.238299
Prins Bernhardplantsoen,2,,,6024BA,Budel-Dorplein,Cranendonck,Noord-Brabant,VBO,5.571295,51.238244
Prins Bernhardplantsoen,3,,,6024BA,Budel-Dorplein,Cranendonck,Noord-Brabant,VBO,5.571280,51.238065
Prins Bernhardplantsoen,4,,,6024BA,Budel-Dorplein,Cranendonck,Noord-Brabant,VBO,5.571275,51.238008
Prins Bernhardplantsoen,5,,,6024BA,Budel-Dorplein,Cranendonck,Noord-Brabant,VBO,5.571452,51.237830
Prins Bernhardplantsoen,6,,,6024BA,Budel-Dorplein,Cranendonck,Noord-Brabant,VBO,5.571541,51.237827
Prins Bernhardplantsoen,7,,,6024BA,Budel-Dorplein,Cranendonck,Noord-Brabant,VBO,5.571629,51.237824
Prins Bernhardplantsoen,8,,,6024BA,Budel-Dorplein,Cranendonck,Noord-Brabant,VBO,5.571717,51.237821
Prins Bernhardplantsoen,9,,,6024BA,Budel-Dorplein,Cranendonck,Noord-Brabant,VBO,5.572004,51.237904
Prins Bernhardplantsoen,10,,,6024BA,Budel-Dorplein,Cranendonck,Noord-Brabant,VBO,5.572034,51.237958
Prins Bernhardplantsoen,11,,,6024BA,Budel-Dorplein,Cranendonck,Noord-Brabant,VBO,5.572064,51.238012
Prins Bernhardplantsoen,12,,,6024BA,Budel-Dorplein,Cranendonck,Noord-Brabant,VBO,5.572092,51.238063
Prinses Irenestraat,1,,,6024BB,Budel-Dorplein,Cranendonck,Noord-Brabant,VBO,5.571474,51.239460
Prinses Irenestraat,3,,,6024BB,Budel-Dorplein,Cranendonck,Noord-Brabant,VBO,5.571382,51.239250
Prinses Irenestraat,5,,,6024BB,Budel-Dorplein,Cranendonck,Noord-Brabant,VBO,5.571322,51.239110
Prinses Irenestraat,7,,,6024BB,Budel-Dorplein,Cranendonck,Noord-Brabant,VBO,5.571298,51.239054
Prinses Irenestraat,9,,,6024BB,Budel-Dorplein,Cranendonck,Noord-Brabant,VBO,5.571236,51.238906
Prinses Irenestraat,11,,,6024BB,Budel-Dorplein,Cranendonck,Noord-Brabant,VBO,5.571214,51.238853
Prinses Irenestraat,13,,,6024BB,Budel-Dorplein,Cranendonck,Noord-Brabant,VBO,5.570709,51.238431
Prinses Irenestraat,15,,,6024BB,Budel-Dorplein,Cranendonck,Noord-Brabant,VBO,5.570689,51.238375
Prinses Irenestraat,17,,,6024BB,Budel-Dorplein,Cranendonck,Noord-Brabant,VBO,5.570638,51.238209
Prinses Irenestraat,19,,,6024BB,Budel-Dorplein,Cranendonck,Noord-Brabant,VBO,5.570632,51.238153
Prinses Irenestraat,21,,,6024BB,Budel-Dorplein,Cranendonck,Noord-Brabant,VBO,5.570613,51.237979
Prinses Irenestraat,23,,,6024BB,Budel-Dorplein,Cranendonck,Noord-Brabant,VBO,5.570606,51.237920
Prinses Irenestraat,25,,,6024BB,Budel-Dorplein,Cranendonck,Noord-Brabant,VBO,5.570586,51.237743
Prinses Irenestraat,27,,,6024BB,Budel-Dorplein,Cranendonck,Noord-Brabant,VBO,5.570580,51.237687
Prinses Irenestraat,2,,,6024BC,Budel-Dorplein,Cranendonck,Noord-Brabant,VBO,5.570762,51.239667
Prinses Irenestraat,4,,,6024BC,Budel-Dorplein,Cranendonck,Noord-Brabant,VBO,5.570635,51.239478
Prinses Irenestraat,6,,,6024BC,Budel-Dorplein,Cranendonck,Noord-Brabant,VBO,5.570556,51.239300
Prinses Irenestraat,8,,,6024BC,Budel-Dorplein,Cranendonck,Noord-Brabant,VBO,5.570497,51.239049
Prinses Irenestraat,10,,,6024BC,Budel-Dorplein,Cranendonck,Noord-Brabant,VBO,5.570477,51.238992
Prinses Irenestraat,12,,,6024BC,Budel-Dorplein,Cranendonck,Noord-Brabant,VBO,5.570421,51.238847
Prinses Irenestraat,14,,,6024BC,Budel-Dorplein,Cranendonck,Noord-Brabant,VBO,5.570402,51.238792
Prinses Irenestraat,16,,,6024BC,Budel-Dorplein,Cranendonck,Noord-Brabant,VBO,5.570345,51.238621
Prinses Irenestraat,18,,,6024BC,Budel-Dorplein,Cranendonck,Noord-Brabant,VBO,5.570326,51.238565
Prinses Irenestraat,20,,,6024BC,Budel-Dorplein,Cranendonck,Noord-Brabant,VBO,5.570227,51.238284
Prinses Irenestraat,22,,,6024BC,Budel-Dorplein,Cranendonck,Noord-Brabant,VBO,5.570221,51.238227
Prinses Irenestraat,24,,,6024BC,Budel-Dorplein,Cranendonck,Noord-Brabant,VBO,5.570201,51.238054
Prinses Irenestraat,26,,,6024BC,Budel-Dorplein,Cranendonck,Noord-Brabant,VBO,5.570194,51.237996
Prins Hendrikstraat,1,,,6024BD,Budel-Dorplein,Cranendonck,Noord-Brabant,VBO,5.569692,51.238389
Prins Hendrikstraat,2,,,6024BD,Budel-Dorplein,Cranendonck,Noord-Brabant,VBO,5.569585,51.238656
Prins Hendrikstraat,3,,,6024BD,Budel-Dorplein,Cranendonck,Noord-Brabant,VBO,5.569612,51.238401
Prins Hendrikstraat,4,,,6024BD,Budel-Dorplein,Cranendonck,Noord-Brabant,VBO,5.569452,51.238676
Prins Hendrikstraat,5,,,6024BD,Budel-Dorplein,Cranendonck,Noord-Brabant,VBO,5.569293,51.238450
Prins Hendrikstraat,6,,,6024BD,Budel-Dorplein,Cranendonck,Noord-Brabant,VBO,5.569304,51.238698
Prins Hendrikstraat,7,,,6024BD,Budel-Dorplein,Cranendonck,Noord-Brabant,VBO,5.569216,51.238461
Prins Hendrikstraat,8,,,6024BD,Budel-Dorplein,Cranendonck,Noord-Brabant,VBO,5.569172,51.238718
Prins Hendrikstraat,9,,,6024BD,Budel-Dorplein,Cranendonck,Noord-Brabant,VBO,5.569140,51.238472
Prins Hendrikstraat,10,,,6024BD,Budel-Dorplein,Cranendonck,Noord-Brabant,VBO,5.568900,51.238835
Prins Hendrikstraat,11,,,6024BD,Budel-Dorplein,Cranendonck,Noord-Brabant,VBO,5.569069,51.238483
Koningin Emmastraat,1,,,6024BE,Budel-Dorplein,Cranendonck,Noord-Brabant,VBO,5.569540,51.238196
Koningin Emmastraat,2,,,6024BE,Budel-Dorplein,Cranendonck,Noord-Brabant,VBO,5.569191,51.238228
Koningin Emmastraat,3,,,6024BE,Budel-Dorplein,Cranendonck,Noord-Brabant,VBO,5.569520,51.238146
Koningin Emmastraat,4,,,6024BE,Budel-Dorplein,Cranendonck,Noord-Brabant,VBO,5.569173,51.238181
Koningin Emmastraat,5,,,6024BE,Budel-Dorplein,Cranendonck,Noord-Brabant,VBO,5.569501,51.238098
Koningin Emmastraat,6,,,6024BE,Budel-Dorplein,Cranendonck,Noord-Brabant,VBO,5.568800,51.238122
Koningin Emmastraat,7,,,6024BE,Budel-Dorplein,Cranendonck,Noord-Brabant,VBO,5.569482,51.238050
Koningin Emmastraat,8,,,6024BE,Budel-Dorplein,Cranendonck,Noord-Brabant,VBO,5.568722,51.238126
Koningin Emmastraat,9,,,6024BE,Budel-Dorplein,Cranendonck,Noord-Brabant,VBO,5.569211,51.237880
Koningin Emmastraat,10,,,6024BE,Budel-Dorplein,Cranendonck,Noord-Brabant,VBO,5.568643,51.238130
Koningin Emmastraat,11,,,6024BE,Budel-Dorplein,Cranendonck,Noord-Brabant,VBO,5.569137,51.237883
Koningin Emmastraat,13,,,6024BE,Budel-Dorplein,Cranendonck,Noord-Brabant,VBO,5.569056,51.237887
Koningin Emmastraat,15,,,6024BE,Budel-Dorplein,Cranendonck,Noord-Brabant,VBO,5.568854,51.237897
Koningin Emmastraat,17,,,6024BE,Budel-Dorplein,Cranendonck,Noord-Brabant,VBO,5.568776,51.237902
Koningin Emmastraat,19,,,6024BE,Budel-Dorplein,Cranendonck,Noord-Brabant,VBO,5.568698,51.237906
Koningin Emmastraat,21,,,6024BE,Budel-Dorplein,Cranendonck,Noord-Brabant,VBO,5.568619,51.237910
Koningin Wilhelminastraat,1,,,6024BG,Budel-Dorplein,Cranendonck,Noord-Brabant,VBO,5.569122,51.240461
Koningin Wilhelminastraat,3,,,6024BG,Budel-Dorplein,Cranendonck,Noord-Brabant,VBO,5.569235,51.240352
Koningin Wilhelminastraat,5,,,6024BG,Budel-Dorplein,Cranendonck,Noord-Brabant,VBO,5.569349,51.240242
Koningin Wilhelminastraat,7,,,6024BG,Budel-Dorplein,Cranendonck,Noord-Brabant,VBO,5.569350,51.240081
Koningin Wilhelminastraat,9,,,6024BG,Budel-Dorplein,Cranendonck,Noord-Brabant,VBO,5.569182,51.240014
Koningin Wilhelminastraat,11,,,6024BG,Budel-Dorplein,Cranendonck,Noord-Brabant,VBO,5.569102,51.239982
Koningin Wilhelminastraat,13,,,6024BG,Budel-Dorplein,Cranendonck,Noord-Brabant,VBO,5.569313,51.239772
Koningin Wilhelminastraat,15,,,6024BG,Budel-Dorplein,Cranendonck,Noord-Brabant,VBO,5.569386,51.239579
Koningin Wilhelminastraat,17,,,6024BG,Budel-Dorplein,Cranendonck,Noord-Brabant,VBO,5.569187,51.239489
Koningin Wilhelminastraat,19,,,6024BG,Budel-Dorplein,Cranendonck,Noord-Brabant,VBO,5.569026,51.239432
Koningin Wilhelminastraat,21,,,6024BG,Budel-Dorplein,Cranendonck,Noord-Brabant,VBO,5.568815,51.239347
Koningin Wilhelminastraat,23,,,6024BG,Budel-Dorplein,Cranendonck,Noord-Brabant,VBO,5.568778,51.238942
Koningin Wilhelminastraat,41,,,6024BG,Budel-Dorplein,Cranendonck,Noord-Brabant,VBO,5.568698,51.238429
Koningin Wilhelminastraat,43,,,6024BG,Budel-Dorplein,Cranendonck,Noord-Brabant,VBO,5.568691,51.238377
Koningin Wilhelminastraat,45,,,6024BG,Budel-Dorplein,Cranendonck,Noord-Brabant,VBO,5.568685,51.238328
Kerkplein,202,d,,6024BH,Budel-Dorplein,Cranendonck,Noord-Brabant,VBO,5.587596,51.237404
Kerkplein,204,,,6024BH,Budel-Dorplein,Cranendonck,Noord-Brabant,VBO,5.587637,51.237561
Kerkplein,206,,,6024BH,Budel-Dorplein,Cranendonck,Noord-Brabant,VBO,5.587803,51.238712
Koningin Wilhelminastraat,2,,,6024BJ,Budel-Dorplein,Cranendonck,Noord-Brabant,VBO,5.568513,51.240355
Koningin Wilhelminastraat,4,,,6024BJ,Budel-Dorplein,Cranendonck,Noord-Brabant,VBO,5.568498,51.240194
Koningin Wilhelminastraat,6,,,6024BJ,Budel-Dorplein,Cranendonck,Noord-Brabant,VBO,5.568488,51.240129
Koningin Wilhelminastraat,8,,,6024BJ,Budel-Dorplein,Cranendonck,Noord-Brabant,VBO,5.568481,51.239991
Koningin Wilhelminastraat,10,,,6024BJ,Budel-Dorplein,Cranendonck,Noord-Brabant,VBO,5.568455,51.239816
Koningin Wilhelminastraat,12,,,6024BJ,Budel-Dorplein,Cranendonck,Noord-Brabant,VBO,5.568447,51.239756
Koningin Wilhelminastraat,14,a,,6024BJ,Budel-Dorplein,Cranendonck,Noord-Brabant,VBO,5.568422,51.239578
Koningin Wilhelminastraat,14,,,6024BJ,Budel-Dorplein,Cranendonck,Noord-Brabant,VBO,5.568430,51.239635
Koningin Wilhelminastraat,16,,,6024BJ,Budel-Dorplein,Cranendonck,Noord-Brabant,VBO,5.568403,51.239442
Koningin Wilhelminastraat,18,,,6024BJ,Budel-Dorplein,Cranendonck,Noord-Brabant,VBO,5.568381,51.239284
Koningin Wilhelminastraat,20,,,6024BJ,Budel-Dorplein,Cranendonck,Noord-Brabant,VBO,5.568351,51.239067
Koningin Wilhelminastraat,36,,,6024BJ,Budel-Dorplein,Cranendonck,Noord-Brabant,VBO,5.568329,51.238907
Koningin Wilhelminastraat,38,,,6024BJ,Budel-Dorplein,Cranendonck,Noord-Brabant,VBO,5.568291,51.238632
Koningin Wilhelminastraat,40,,,6024BJ,Budel-Dorplein,Cranendonck,Noord-Brabant,VBO,5.568240,51.238493
Koningin Wilhelminastraat,42,,,6024BJ,Budel-Dorplein,Cranendonck,Noord-Brabant,VBO,5.568232,51.238437
Koningin Wilhelminastraat,44,,,6024BJ,Budel-Dorplein,Cranendonck,Noord-Brabant,VBO,5.568218,51.238332
Koningin Wilhelminastraat,46,,,6024BJ,Budel-Dorplein,Cranendonck,Noord-Brabant,VBO,5.568210,51.238275
Koningin Wilhelminastraat,48,,,6024BJ,Budel-Dorplein,Cranendonck,Noord-Brabant,VBO,5.568224,51.238168
Koningin Wilhelminastraat,50,,,6024BJ,Budel-Dorplein,Cranendonck,Noord-Brabant,VBO,5.568216,51.238111
Koningin Wilhelminastraat,52,,,6024BJ,Budel-Dorplein,Cranendonck,Noord-Brabant,VBO,5.568202,51.238005
Koningin Wilhelminastraat,54,,,6024BJ,Budel-Dorplein,Cranendonck,Noord-Brabant,VBO,5.568194,51.237950
Koningin Wilhelminastraat,56,,,6024BJ,Budel-Dorplein,Cranendonck,Noord-Brabant,VBO,5.568151,51.237844
Koningin Wilhelminastraat,58,,,6024BJ,Budel-Dorplein,Cranendonck,Noord-Brabant,VBO,5.568144,51.237789
Koningin Wilhelminastraat,60,,,6024BJ,Budel-Dorplein,Cranendonck,Noord-Brabant,VBO,5.568153,51.237655
Stationsweg,55,a,,6024BK,Budel-Dorplein,Cranendonck,Noord-Brabant,VBO,5.568693,51.242493
Stationsweg,57,,,6024BK,Budel-Dorplein,Cranendonck,Noord-Brabant,VBO,5.568703,51.242344
Stationsweg,59,,,6024BK,Budel-Dorplein,Cranendonck,Noord-Brabant,VBO,5.568756,51.242292
Stationsweg,61,,,6024BK,Budel-Dorplein,Cranendonck,Noord-Brabant,VBO,5.568997,51.242199
Stationsweg,63,,,6024BK,Budel-Dorplein,Cranendonck,Noord-Brabant,VBO,5.569098,51.242099
Stationsweg,65,,,6024BK,Budel-Dorplein,Cranendonck,Noord-Brabant,VBO,5.569243,51.241958
Stationsweg,67,,,6024BK,Budel-Dorplein,Cranendonck,Noord-Brabant,VBO,5.569298,51.241904
Stationsweg,69,,,6024BK,Budel-Dorplein,Cranendonck,Noord-Brabant,VBO,5.569398,51.241805
Stationsweg,71,,,6024BK,Budel-Dorplein,Cranendonck,Noord-Brabant,VBO,5.569451,51.241753
Stationsweg,73,,,6024BK,Budel-Dorplein,Cranendonck,Noord-Brabant,VBO,5.569554,51.241651
Stationsweg,75,,,6024BK,Budel-Dorplein,Cranendonck,Noord-Brabant,VBO,5.569609,51.241597
Stationsweg,77,,,6024BK,Budel-Dorplein,Cranendonck,Noord-Brabant,VBO,5.569711,51.241498
Stationsweg,79,,,6024BK,Budel-Dorplein,Cranendonck,Noord-Brabant,VBO,5.569765,51.241445
Stationsweg,81,,,6024BK,Budel-Dorplein,Cranendonck,Noord-Brabant,VBO,5.569864,51.241348
Stationsweg,83,,,6024BK,Budel-Dorplein,Cranendonck,Noord-Brabant,VBO,5.569920,51.241292
Stationsweg,85,,,6024BK,Budel-Dorplein,Cranendonck,Noord-Brabant,VBO,5.570016,51.241198
Stationsweg,91,,,6024BK,Budel-Dorplein,Cranendonck,Noord-Brabant,VBO,5.570264,51.240877
Stationsweg,97,,,6024BK,Budel-Dorplein,Cranendonck,Noord-Brabant,VBO,5.570683,51.240506
Stationsweg,99,,,6024BK,Budel-Dorplein,Cranendonck,Noord-Brabant,VBO,5.570743,51.240456
Stationsweg,101,,,6024BK,Budel-Dorplein,Cranendonck,Noord-Brabant,VBO,5.570878,51.240353
Stationsweg,103,,,6024BL,Budel-Dorplein,Cranendonck,Noord-Brabant,VBO,5.572047,51.239921
Stationsweg,105,,,6024BL,Budel-Dorplein,Cranendonck,Noord-Brabant,VBO,5.572391,51.239724
Stationsweg,107,,,6024BL,Budel-Dorplein,Cranendonck,Noord-Brabant,VBO,5.572849,51.239583
Stationsweg,109,,,6024BL,Budel-Dorplein,Cranendonck,Noord-Brabant,VBO,5.573099,51.239506
Stationsweg,111,,,6024BL,Budel-Dorplein,Cranendonck,Noord-Brabant,VBO,5.573174,51.239483
Stationsweg,113,,,6024BL,Budel-Dorplein,Cranendonck,Noord-Brabant,VBO,5.573437,51.239402
Stationsweg,115,,,6024BL,Budel-Dorplein,Cranendonck,Noord-Brabant,VBO,5.573517,51.239378
Stationsweg,117,,,6024BL,Budel-Dorplein,Cranendonck,Noord-Brabant,VBO,5.573691,51.239240
Stationsweg,119,,,6024BL,Budel-Dorplein,Cranendonck,Noord-Brabant,VBO,5.573768,51.239211
Stationsweg,121,,,6024BL,Budel-Dorplein,Cranendonck,Noord-Brabant,VBO,5.573984,51.239150
Stationsweg,123,,,6024BL,Budel-Dorplein,Cranendonck,Noord-Brabant,VBO,5.574068,51.239124
Stationsweg,125,,,6024BL,Budel-Dorplein,Cranendonck,Noord-Brabant,VBO,5.574283,51.239058
Stationsweg,127,,,6024BL,Budel-Dorplein,Cranendonck,Noord-Brabant,VBO,5.574363,51.239034
Stationsweg,129,,,6024BL,Budel-Dorplein,Cranendonck,Noord-Brabant,VBO,5.574580,51.238968
Stationsweg,131,,,6024BL,Budel-Dorplein,Cranendonck,Noord-Brabant,VBO,5.574657,51.238944
Stationsweg,165,,,6024BL,Budel-Dorplein,Cranendonck,Noord-Brabant,VBO,5.577511,51.238345
Stationsweg,167,,,6024BL,Budel-Dorplein,Cranendonck,Noord-Brabant,VBO,5.578038,51.238133
Stationsweg,169,,,6024BL,Budel-Dorplein,Cranendonck,Noord-Brabant,VBO,5.578296,51.237931
Stationsweg,171,,,6024BL,Budel-Dorplein,Cranendonck,Noord-Brabant,VBO,5.578511,51.237870
Stationsweg,173,,,6024BL,Budel-Dorplein,Cranendonck,Noord-Brabant,VBO,5.578834,51.237799
Stationsweg,175,,,6024BL,Budel-Dorplein,Cranendonck,Noord-Brabant,VBO,5.579166,51.237698
Stationsweg,177,,,6024BL,Budel-Dorplein,Cranendonck,Noord-Brabant,VBO,5.579436,51.237617
Stationsweg,42,,,6024BM,Budel-Dorplein,Cranendonck,Noord-Brabant,VBO,5.568386,51.242140
Stationsweg,44,,,6024BM,Budel-Dorplein,Cranendonck,Noord-Brabant,VBO,5.568431,51.242096
Stationsweg,46,,,6024BM,Budel-Dorplein,Cranendonck,Noord-Brabant,VBO,5.568580,51.241947
Stationsweg,48,,,6024BM,Budel-Dorplein,Cranendonck,Noord-Brabant,VBO,5.568631,51.241896
Stationsweg,50,,,6024BM,Budel-Dorplein,Cranendonck,Noord-Brabant,VBO,5.568762,51.241766
Stationsweg,52,,,6024BM,Budel-Dorplein,Cranendonck,Noord-Brabant,VBO,5.568813,51.241715
Stationsweg,58,,,6024BM,Budel-Dorplein,Cranendonck,Noord-Brabant,VBO,5.569191,51.241340
Stationsweg,60,,,6024BM,Budel-Dorplein,Cranendonck,Noord-Brabant,VBO,5.569244,51.241287
Stationsweg,62,a,,6024BM,Budel-Dorplein,Cranendonck,Noord-Brabant,VBO,5.569538,51.240958
Stationsweg,62,,,6024BM,Budel-Dorplein,Cranendonck,Noord-Brabant,VBO,5.569427,51.241151
Stationsweg,64,,,6024BM,Budel-Dorplein,Cranendonck,Noord-Brabant,VBO,5.570223,51.240417
Stationsweg,66,,,6024BM,Budel-Dorplein,Cranendonck,Noord-Brabant,VBO,5.570265,51.240376
Stationsweg,68,,,6024BM,Budel-Dorplein,Cranendonck,Noord-Brabant,VBO,5.570306,51.240336
Stationsweg,70,,,6024BM,Budel-Dorplein,Cranendonck,Noord-Brabant,VBO,5.570349,51.240211
Stationsweg,72,,,6024BM,Budel-Dorplein,Cranendonck,Noord-Brabant,VBO,5.570467,51.240097
Stationsweg,76,a,,6024BM,Budel-Dorplein,Cranendonck,Noord-Brabant,VBO,5.571583,51.239564
Stationsweg,76,,,6024BM,Budel-Dorplein,Cranendonck,Noord-Brabant,VBO,5.570651,51.239991
Stationsweg,78,,,6024BN,Budel-Dorplein,Cranendonck,Noord-Brabant,VBO,5.572083,51.239288
Stationsweg,80,a,,6024BN,Budel-Dorplein,Cranendonck,Noord-Brabant,VBO,5.572389,51.239194
Stationsweg,80,,,6024BN,Budel-Dorplein,Cranendonck,Noord-Brabant,VBO,5.572309,51.239218
Stationsweg,82,a,,6024BN,Budel-Dorplein,Cranendonck,Noord-Brabant,VBO,5.572683,51.239103
Stationsweg,82,,,6024BN,Budel-Dorplein,Cranendonck,Noord-Brabant,VBO,5.572604,51.239127
Stationsweg,84,a,,6024BN,Budel-Dorplein,Cranendonck,Noord-Brabant,VBO,5.572979,51.239011
Stationsweg,84,,,6024BN,Budel-Dorplein,Cranendonck,Noord-Brabant,VBO,5.572899,51.239036
Stationsweg,86,,,6024BN,Budel-Dorplein,Cranendonck,Noord-Brabant,VBO,5.573236,51.238931
Stationsweg,88,a,,6024BN,Budel-Dorplein,Cranendonck,Noord-Brabant,VBO,5.573547,51.238835
Stationsweg,88,,,6024BN,Budel-Dorplein,Cranendonck,Noord-Brabant,VBO,5.573466,51.238860
Stationsweg,90,,,6024BN,Budel-Dorplein,Cranendonck,Noord-Brabant,VBO,5.573783,51.238763
Stationsweg,92,,,6024BN,Budel-Dorplein,Cranendonck,Noord-Brabant,VBO,5.574295,51.238604
Stationsweg,94,,,6024BN,Budel-Dorplein,Cranendonck,Noord-Brabant,VBO,5.574629,51.238502
Stationsweg,96,,,6024BN,Budel-Dorplein,Cranendonck,Noord-Brabant,VBO,5.574921,51.238402
Stationsweg,98,,,6024BN,Budel-Dorplein,Cranendonck,Noord-Brabant,VBO,5.575292,51.238299
Stationsweg,100,,,6024BN,Budel-Dorplein,Cranendonck,Noord-Brabant,VBO,5.575569,51.238198
Stationsweg,102,,,6024BN,Budel-Dorplein,Cranendonck,Noord-Brabant,VBO,5.575905,51.238119
Stationsweg,104,,,6024BN,Budel-Dorplein,Cranendonck,Noord-Brabant,VBO,5.576154,51.238035
Stationsweg,106,,,6024BN,Budel-Dorplein,Cranendonck,Noord-Brabant,VBO,5.576572,51.237980
Stationsweg,108,,,6024BN,Budel-Dorplein,Cranendonck,Noord-Brabant,VBO,5.576975,51.237782
Stationsweg,110,,,6024BN,Budel-Dorplein,Cranendonck,Noord-Brabant,VBO,5.577312,51.237678
Stationsweg,112,,,6024BN,Budel-Dorplein,Cranendonck,Noord-Brabant,VBO,5.577607,51.237587
't Routje,1,,,6024BP,Budel-Dorplein,Cranendonck,Noord-Brabant,VBO,5.575106,51.238992
't Routje,2,a,,6024BP,Budel-Dorplein,Cranendonck,Noord-Brabant,VBO,5.576469,51.238728
't Routje,2,,,6024BP,Budel-Dorplein,Cranendonck,Noord-Brabant,VBO,5.576783,51.238596
't Routje,3,,,6024BP,Budel-Dorplein,Cranendonck,Noord-Brabant,VBO,5.574530,51.239360
't Routje,4,,,6024BP,Budel-Dorplein,Cranendonck,Noord-Brabant,VBO,5.576199,51.238909
't Routje,5,,,6024BP,Budel-Dorplein,Cranendonck,Noord-Brabant,VBO,5.574300,51.239510
't Routje,6,,,6024BP,Budel-Dorplein,Cranendonck,Noord-Brabant,VBO,5.575970,51.239057
't Routje,7,,,6024BP,Budel-Dorplein,Cranendonck,Noord-Brabant,VBO,5.574085,51.239650
't Routje,8,,,6024BP,Budel-Dorplein,Cranendonck,Noord-Brabant,VBO,5.575681,51.239184
't Routje,9,,,6024BP,Budel-Dorplein,Cranendonck,Noord-Brabant,VBO,5.573833,51.239849
't Routje,10,,,6024BP,Budel-Dorplein,Cranendonck,Noord-Brabant,VBO,5.575429,51.239339
't Routje,11,,,6024BP,Budel-Dorplein,Cranendonck,Noord-Brabant,VBO,5.573471,51.240133
't Routje,12,,,6024BP,Budel-Dorplein,Cranendonck,Noord-Brabant,VBO,5.575188,51.239495
't Routje,13,,,6024BP,Budel-Dorplein,Cranendonck,Noord-Brabant,VBO,5.573318,51.240420
't Routje,14,,,6024BP,Budel-Dorplein,Cranendonck,Noord-Brabant,VBO,5.574928,51.239689
't Routje,15,,,6024BP,Budel-Dorplein,Cranendonck,Noord-Brabant,VBO,5.573148,51.240616
't Routje,16,,,6024BP,Budel-Dorplein,Cranendonck,Noord-Brabant,VBO,5.574646,51.239851
't Routje,18,,,6024BP,Budel-Dorplein,Cranendonck,Noord-Brabant,VBO,5.574406,51.240049
't Routje,20,,,6024BP,Budel-Dorplein,Cranendonck,Noord-Brabant,VBO,5.574277,51.240209
't Routje,22,,,6024BP,Budel-Dorplein,Cranendonck,Noord-Brabant,VBO,5.574092,51.240378
't Routje,24,,,6024BP,Budel-Dorplein,Cranendonck,Noord-Brabant,VBO,5.573963,51.240604
't Routje,26,,,6024BP,Budel-Dorplein,Cranendonck,Noord-Brabant,VBO,5.573741,51.240791
Sint Eloystraat,1,,,6024BR,Budel-Dorplein,Cranendonck,Noord-Brabant,VBO,5.570949,51.240298
Sint Eloystraat,3,,,6024BR,Budel-Dorplein,Cranendonck,Noord-Brabant,VBO,5.571174,51.240502
Sint Eloystraat,5,,,6024BR,Budel-Dorplein,Cranendonck,Noord-Brabant,VBO,5.571229,51.240556
Sint Eloystraat,7,,,6024BR,Budel-Dorplein,Cranendonck,Noord-Brabant,VBO,5.571355,51.240679
Sint Eloystraat,9,,,6024BR,Budel-Dorplein,Cranendonck,Noord-Brabant,VBO,5.571410,51.240733
Sint Eloystraat,11,,,6024BR,Budel-Dorplein,Cranendonck,Noord-Brabant,VBO,5.571531,51.240851
Sint Eloystraat,13,,,6024BR,Budel-Dorplein,Cranendonck,Noord-Brabant,VBO,5.571588,51.240907
Sint Eloystraat,15,,,6024BR,Budel-Dorplein,Cranendonck,Noord-Brabant,VBO,5.571713,51.241029
Sint Eloystraat,17,,,6024BR,Budel-Dorplein,Cranendonck,Noord-Brabant,VBO,5.571768,51.241083
Sint Eloystraat,19,,,6024BR,Budel-Dorplein,Cranendonck,Noord-Brabant,VBO,5.571891,51.241203
Sint Eloystraat,21,,,6024BR,Budel-Dorplein,Cranendonck,Noord-Brabant,VBO,5.571945,51.241256
Sint Eloystraat,23,,,6024BR,Budel-Dorplein,Cranendonck,Noord-Brabant,VBO,5.571850,51.241446
Sint Eloystraat,2,a,,6024BS,Budel-Dorplein,Cranendonck,Noord-Brabant,VBO,5.571479,51.240298
Sint Eloystraat,4,,,6024BS,Budel-Dorplein,Cranendonck,Noord-Brabant,VBO,5.571532,51.240351
Sint Eloystraat,6,,,6024BS,Budel-Dorplein,Cranendonck,Noord-Brabant,VBO,5.571645,51.240465
Sint Eloystraat,8,,,6024BS,Budel-Dorplein,Cranendonck,Noord-Brabant,VBO,5.571698,51.240520
Sint Eloystraat,10,,,6024BS,Budel-Dorplein,Cranendonck,Noord-Brabant,VBO,5.571853,51.240636
Sint Eloystraat,12,,,6024BS,Budel-Dorplein,Cranendonck,Noord-Brabant,VBO,5.571927,51.240680
Sint Eloystraat,14,,,6024BS,Budel-Dorplein,Cranendonck,Noord-Brabant,VBO,5.572089,51.240777
Sint Eloystraat,16,,,6024BS,Budel-Dorplein,Cranendonck,Noord-Brabant,VBO,5.572164,51.240822
Sint Eloystraat,18,,,6024BS,Budel-Dorplein,Cranendonck,Noord-Brabant,VBO,5.572329,51.240920
Sint Eloystraat,20,,,6024BS,Budel-Dorplein,Cranendonck,Noord-Brabant,VBO,5.572399,51.240962
Sint Servaasstraat,3,,,6024BT,Budel-Dorplein,Cranendonck,Noord-Brabant,VBO,5.571261,51.241631
Sint Servaasstraat,5,,,6024BT,Budel-Dorplein,Cranendonck,Noord-Brabant,VBO,5.571132,51.241771
Sint Servaasstraat,7,,,6024BT,Budel-Dorplein,Cranendonck,Noord-Brabant,VBO,5.571086,51.241827
Sint Servaasstraat,9,,,6024BT,Budel-Dorplein,Cranendonck,Noord-Brabant,VBO,5.570967,51.241973
Sint Servaasstraat,11,,,6024BT,Budel-Dorplein,Cranendonck,Noord-Brabant,VBO,5.570923,51.242027
Sint Servaasstraat,13,,,6024BT,Budel-Dorplein,Cranendonck,Noord-Brabant,VBO,5.570801,51.242175
Sint Servaasstraat,15,,,6024BT,Budel-Dorplein,Cranendonck,Noord-Brabant,VBO,5.570755,51.242232
Sint Servaasstraat,17,,,6024BT,Budel-Dorplein,Cranendonck,Noord-Brabant,VBO,5.570635,51.242378
Sint Servaasstraat,19,,,6024BT,Budel-Dorplein,Cranendonck,Noord-Brabant,VBO,5.570589,51.242435
Sint Servaasstraat,14,,,6024BV,Budel-Dorplein,Cranendonck,Noord-Brabant,VBO,5.571884,51.241791
Sint Servaasstraat,16,,,6024BV,Budel-Dorplein,Cranendonck,Noord-Brabant,VBO,5.571803,51.241829
Sint Servaasstraat,18,,,6024BV,Budel-Dorplein,Cranendonck,Noord-Brabant,VBO,5.571594,51.241927
Sint Servaasstraat,20,,,6024BV,Budel-Dorplein,Cranendonck,Noord-Brabant,VBO,5.571518,51.241963
Sint Servaasstraat,22,,,6024BV,Budel-Dorplein,Cranendonck,Noord-Brabant,VBO,5.571372,51.242116
Sint Servaasstraat,24,,,6024BV,Budel-Dorplein,Cranendonck,Noord-Brabant,VBO,5.571327,51.242171
Sint Servaasstraat,26,,,6024BV,Budel-Dorplein,Cranendonck,Noord-Brabant,VBO,5.571205,51.242320
Sint Servaasstraat,28,,,6024BV,Budel-Dorplein,Cranendonck,Noord-Brabant,VBO,5.571159,51.242375
Sint Servaasstraat,30,,,6024BV,Budel-Dorplein,Cranendonck,Noord-Brabant,VBO,5.571079,51.242554
Sint Servaasstraat,32,,,6024BV,Budel-Dorplein,Cranendonck,Noord-Brabant,VBO,5.571044,51.242602
Sint Paulusstraat,1,,,6024BW,Budel-Dorplein,Cranendonck,Noord-Brabant,VBO,5.570074,51.241138
Sint Paulusstraat,2,,,6024BW,Budel-Dorplein,Cranendonck,Noord-Brabant,VBO,5.570779,51.241122
Sint Paulusstraat,3,,,6024BW,Budel-Dorplein,Cranendonck,Noord-Brabant,VBO,5.570523,51.241295
Sint Paulusstraat,4,,,6024BW,Budel-Dorplein,Cranendonck,Noord-Brabant,VBO,5.570865,51.241153
Sint Paulusstraat,5,,,6024BW,Budel-Dorplein,Cranendonck,Noord-Brabant,VBO,5.570611,51.241326
Sint Paulusstraat,6,,,6024BW,Budel-Dorplein,Cranendonck,Noord-Brabant,VBO,5.571032,51.241212
Sint Paulusstraat,7,,,6024BW,Budel-Dorplein,Cranendonck,Noord-Brabant,VBO,5.570777,51.241385
Sint Paulusstraat,8,,,6024BW,Budel-Dorplein,Cranendonck,Noord-Brabant,VBO,5.571118,51.241243
Sint Paulusstraat,9,,,6024BW,Budel-Dorplein,Cranendonck,Noord-Brabant,VBO,5.570863,51.241416
Sint Paulusstraat,10,,,6024BW,Budel-Dorplein,Cranendonck,Noord-Brabant,VBO,5.571285,51.241302
Sint Paulusstraat,11,,,6024BW,Budel-Dorplein,Cranendonck,Noord-Brabant,VBO,5.571302,51.241572
Sint Paulusstraat,12,,,6024BW,Budel-Dorplein,Cranendonck,Noord-Brabant,VBO,5.571372,51.241333
Sint Paulusstraat,14,,,6024BW,Budel-Dorplein,Cranendonck,Noord-Brabant,VBO,5.571769,51.241491
Peeldijk,3,,,6024BX,Budel-Dorplein,Cranendonck,Noord-Brabant,VBO,5.568222,51.241699
Peeldijk,7,,,6024BX,Budel-Dorplein,Cranendonck,Noord-Brabant,VBO,5.568226,51.241271
Peeldijk,9,,,6024BX,Budel-Dorplein,Cranendonck,Noord-Brabant,VBO,5.568165,51.241045
Peeldijk,11,,,6024BX,Budel-Dorplein,Cranendonck,Noord-Brabant,VBO,5.568081,51.240827
Peeldijk,13,,,6024BX,Budel-Dorplein,Cranendonck,Noord-Brabant,VBO,5.568074,51.240543
Peeldijk,19,,,6024BX,Budel-Dorplein,Cranendonck,Noord-Brabant,VBO,5.568002,51.240023
Peeldijk,21,,,6024BX,Budel-Dorplein,Cranendonck,Noord-Brabant,VBO,5.567978,51.239856
Peeldijk,23,,,6024BX,Budel-Dorplein,Cranendonck,Noord-Brabant,VBO,5.567952,51.239676
Peeldijk,25,,,6024BX,Budel-Dorplein,Cranendonck,Noord-Brabant,VBO,5.567982,51.239507
Peeldijk,27,,,6024BX,Budel-Dorplein,Cranendonck,Noord-Brabant,VBO,5.567926,51.239307
Peeldijk,29,,,6024BX,Budel-Dorplein,Cranendonck,Noord-Brabant,VBO,5.567901,51.239133
Peeldijk,31,,,6024BX,Budel-Dorplein,Cranendonck,Noord-Brabant,VBO,5.567884,51.238951
Peeldijk,33,,,6024BX,Budel-Dorplein,Cranendonck,Noord-Brabant,VBO,5.567780,51.238679
Peeldijk,35,,,6024BX,Budel-Dorplein,Cranendonck,Noord-Brabant,VBO,5.567759,51.238479
Peeldijk,37,,,6024BX,Budel-Dorplein,Cranendonck,Noord-Brabant,VBO,5.567723,51.238290
Peeldijk,39,,,6024BX,Budel-Dorplein,Cranendonck,Noord-Brabant,VBO,5.567695,51.238096
Peeldijk,41,,,6024BX,Budel-Dorplein,Cranendonck,Noord-Brabant,VBO,5.567667,51.237912
Peeldijk,43,a,,6024BX,Budel-Dorplein,Cranendonck,Noord-Brabant,VBO,5.567637,51.237710
Peeldijk,43,,,6024BX,Budel-Dorplein,Cranendonck,Noord-Brabant,VBO,5.567692,51.237783
Peeldijk,47,,,6024BX,Budel-Dorplein,Cranendonck,Noord-Brabant,VBO,5.567378,51.235609
Peeldijk,49,,,6024BX,Budel-Dorplein,Cranendonck,Noord-Brabant,VBO,5.567456,51.235109
Peeldijk,2,,,6024BZ,Budel-Dorplein,Cranendonck,Noord-Brabant,VBO,5.567960,51.242549
Peeldijk,4,,,6024BZ,Budel-Dorplein,Cranendonck,Noord-Brabant,VBO,5.567921,51.242353
Peeldijk,6,,,6024BZ,Budel-Dorplein,Cranendonck,Noord-Brabant,VBO,5.567897,51.242071
Peeldijk,12,,,6024BZ,Budel-Dorplein,Cranendonck,Noord-Brabant,VBO,5.567675,51.241293
Peeldijk,18,,,6024BZ,Budel-Dorplein,Cranendonck,Noord-Brabant,VBO,5.567621,51.241110
Peeldijk,20,,,6024BZ,Budel-Dorplein,Cranendonck,Noord-Brabant,VBO,5.567595,51.240936
Peeldijk,22,,,6024BZ,Budel-Dorplein,Cranendonck,Noord-Brabant,VBO,5.567593,51.240663
Peeldijk,24,,,6024BZ,Budel-Dorplein,Cranendonck,Noord-Brabant,VBO,5.567531,51.240400
Peeldijk,26,,,6024BZ,Budel-Dorplein,Cranendonck,Noord-Brabant,VBO,5.567511,51.240233
Peeldijk,28,,,6024BZ,Budel-Dorplein,Cranendonck,Noord-Brabant,VBO,5.567512,51.240028
Peeldijk,30,,,6024BZ,Budel-Dorplein,Cranendonck,Noord-Brabant,VBO,5.567476,51.239858
Peeldijk,32,,,6024BZ,Budel-Dorplein,Cranendonck,Noord-Brabant,VBO,5.567452,51.239672
Peeldijk,34,,,6024BZ,Budel-Dorplein,Cranendonck,Noord-Brabant,VBO,5.567427,51.239492
Peeldijk,36,,,6024BZ,Budel-Dorplein,Cranendonck,Noord-Brabant,VBO,5.567408,51.239304
Peeldijk,38,,,6024BZ,Budel-Dorplein,Cranendonck,Noord-Brabant,VBO,5.567401,51.239152
Peeldijk,40,,,6024BZ,Budel-Dorplein,Cranendonck,Noord-Brabant,VBO,5.567376,51.238977
Peeldijk,42,,,6024BZ,Budel-Dorplein,Cranendonck,Noord-Brabant,VBO,5.567328,51.238792
Peeldijk,44,,,6024BZ,Budel-Dorplein,Cranendonck,Noord-Brabant,VBO,5.567287,51.238512
Peeldijk,46,,,6024BZ,Budel-Dorplein,Cranendonck,Noord-Brabant,VBO,5.567263,51.238344
Peeldijk,50,,,6024BZ,Budel-Dorplein,Cranendonck,Noord-Brabant,VBO,5.567232,51.237986
Peeldijk,52,,,6024BZ,Budel-Dorplein,Cranendonck,Noord-Brabant,VBO,5.567206,51.237802
Peeldijk,60,,,6024BZ,Budel-Dorplein,Cranendonck,Noord-Brabant,VBO,5.565798,51.233718
Peeldijk,62,,,6024BZ,Budel-Dorplein,Cranendonck,Noord-Brabant,VBO,5.565409,51.233410
Bressele-dijk,2,,,6024CA,Budel-Dorplein,Cranendonck,Noord-Brabant,VBO,5.568598,51.242616
Bressele-dijk,4,,,6024CA,Budel-Dorplein,Cranendonck,Noord-Brabant,VBO,5.569092,51.242753
Bressele-dijk,21,,,6024CA,Budel-Dorplein,Cranendonck,Noord-Brabant,VBO,5.571755,51.245242
Oranjeplein,2,,,6024CB,Budel-Dorplein,Cranendonck,Noord-Brabant,VBO,5.569680,51.240482
Oranjeplein,4,,,6024CB,Budel-Dorplein,Cranendonck,Noord-Brabant,VBO,5.569722,51.240441
Oranjeplein,6,,,6024CB,Budel-Dorplein,Cranendonck,Noord-Brabant,VBO,5.569765,51.240399
Oranjeplein,8,,,6024CB,Budel-Dorplein,Cranendonck,Noord-Brabant,VBO,5.569806,51.240359
Oranjeplein,10,,,6024CB,Budel-Dorplein,Cranendonck,Noord-Brabant,VBO,5.569635,51.240149
Oranjeplein,12,,,6024CB,Budel-Dorplein,Cranendonck,Noord-Brabant,VBO,5.569699,51.240175
Oranjeplein,14,,,6024CB,Budel-Dorplein,Cranendonck,Noord-Brabant,VBO,5.569836,51.240231
Oranjeplein,16,,,6024CB,Budel-Dorplein,Cranendonck,Noord-Brabant,VBO,5.569902,51.240258
Oranjeplein,18,,,6024CB,Budel-Dorplein,Cranendonck,Noord-Brabant,VBO,5.569965,51.240284
Prinses Beatrixstraat,1,,,6024CC,Budel-Dorplein,Cranendonck,Noord-Brabant,VBO,5.569530,51.240628
Prinses Beatrixstraat,4,a,,6024CC,Budel-Dorplein,Cranendonck,Noord-Brabant,VBO,5.569163,51.240795
Prinses Beatrixstraat,4,,,6024CC,Budel-Dorplein,Cranendonck,Noord-Brabant,VBO,5.569207,51.240834
Prinses Beatrixstraat,6,a,,6024CC,Budel-Dorplein,Cranendonck,Noord-Brabant,VBO,5.568885,51.240758
Prinses Beatrixstraat,6,,,6024CC,Budel-Dorplein,Cranendonck,Noord-Brabant,VBO,5.568956,51.240747
Prinses Beatrixstraat,7,,,6024CC,Budel-Dorplein,Cranendonck,Noord-Brabant,VBO,5.568510,51.240519
Prinses Beatrixstraat,8,,,6024CC,Budel-Dorplein,Cranendonck,Noord-Brabant,VBO,5.568607,51.240779
Prinses Beatrixstraat,10,,,6024CC,Budel-Dorplein,Cranendonck,Noord-Brabant,VBO,5.568361,51.240791
Havenweg,3,,,6024RA,Budel-Dorplein,Cranendonck,Noord-Brabant,VBO,5.610617,51.228903
Theo Stevenslaan,9,,,6024RB,Budel-Dorplein,Cranendonck,Noord-Brabant,VBO,5.596916,51.235867
Theo Stevenslaan,11,,,6024RB,Budel-Dorplein,Cranendonck,Noord-Brabant,VBO,5.596817,51.235817
Theo Stevenslaan,13,,,6024RB,Budel-Dorplein,Cranendonck,Noord-Brabant,VBO,5.596334,51.235608
Theo Stevenslaan,15,,,6024RB,Budel-Dorplein,Cranendonck,Noord-Brabant,VBO,5.596271,51.235582
Theo Stevenslaan,17,,,6024RB,Budel-Dorplein,Cranendonck,Noord-Brabant,VBO,5.595726,51.235352
Theo Stevenslaan,19,,,6024RB,Budel-Dorplein,Cranendonck,Noord-Brabant,VBO,5.595665,51.235326
Theo Stevenslaan,21,,,6024RB,Budel-Dorplein,Cranendonck,Noord-Brabant,VBO,5.594984,51.235086
Theo Stevenslaan,23,,,6024RB,Budel-Dorplein,Cranendonck,Noord-Brabant,VBO,5.594890,51.235055
Theo Stevenslaan,25,,,6024RB,Budel-Dorplein,Cranendonck,Noord-Brabant,VBO,5.594185,51.234828
Theo Stevenslaan,27,,,6024RB,Budel-Dorplein,Cranendonck,Noord-Brabant,VBO,5.594052,51.234785
Theo Stevenslaan,29,,,6024RB,Budel-Dorplein,Cranendonck,Noord-Brabant,VBO,5.593450,51.234572
Theo Stevenslaan,31,,,6024RB,Budel-Dorplein,Cranendonck,Noord-Brabant,VBO,5.593283,51.234519
Theo Stevenslaan,33,,,6024RB,Budel-Dorplein,Cranendonck,Noord-Brabant,VBO,5.592647,51.234336
Theo Stevenslaan,35,,,6024RB,Budel-Dorplein,Cranendonck,Noord-Brabant,VBO,5.592561,51.234308
Theo Stevenslaan,37,a,,6024RB,Budel-Dorplein,Cranendonck,Noord-Brabant,VBO,5.590095,51.232875
Theo Stevenslaan,37,,,6024RB,Budel-Dorplein,Cranendonck,Noord-Brabant,VBO,5.590105,51.232899
Theo Stevenslaan,8,,,6024RC,Budel-Dorplein,Cranendonck,Noord-Brabant,VBO,5.597168,51.236062
Theo Stevenslaan,12,,,6024RC,Budel-Dorplein,Cranendonck,Noord-Brabant,VBO,5.595832,51.235772
Theo Stevenslaan,14,,,6024RC,Budel-Dorplein,Cranendonck,Noord-Brabant,VBO,5.595680,51.235669
Theo Stevenslaan,18,,,6024RC,Budel-Dorplein,Cranendonck,Noord-Brabant,VBO,5.594881,51.235460
Theo Stevenslaan,22,,,6024RC,Budel-Dorplein,Cranendonck,Noord-Brabant,VBO,5.594378,51.235197
Theo Stevenslaan,24,,,6024RC,Budel-Dorplein,Cranendonck,Noord-Brabant,VBO,5.594312,51.235176
Theo Stevenslaan,26,,,6024RC,Budel-Dorplein,Cranendonck,Noord-Brabant,VBO,5.593571,51.234935
Theo Stevenslaan,30,,,6024RC,Budel-Dorplein,Cranendonck,Noord-Brabant,VBO,5.592081,51.234449
Theo Stevenslaan,32,,,6024RC,Budel-Dorplein,Cranendonck,Noord-Brabant,VBO,5.591741,51.234454
Theo Stevenslaan,32,,,6024RC,Budel-Dorplein,Cranendonck,Noord-Brabant,VBO,5.592021,51.234385
Theo Stevenslaan,36,,,6024RC,Budel-Dorplein,Cranendonck,Noord-Brabant,VBO,5.587467,51.232287
Hoortweg,1,a,,6024RD,Budel-Dorplein,Cranendonck,Noord-Brabant,VBO,5.578765,51.235020
Hoortweg,1,,,6024RD,Budel-Dorplein,Cranendonck,Noord-Brabant,VBO,5.579137,51.229553
Hoortweg,2,,,6024RD,Budel-Dorplein,Cranendonck,Noord-Brabant,VBO,5.579746,51.228420
