openbareruimtenaam,huisnummer,huisletter,huisnummertoevoeging,postcode,woonplaatsnaam,gemeentenaam,provincienaam,typeadresseerbaarobject,longitude,latitude
Pandijk,2,,,6029PA,Sterksel,Heeze-Leende,Noord-Brabant,VBO,5.622579,51.349187
Pandijk,4,a,,6029PA,Sterksel,Heeze-Leende,Noord-Brabant,VBO,5.622487,51.347992
Pandijk,4,b,,6029PA,Sterksel,Heeze-Leende,Noord-Brabant,VBO,5.621789,51.348251
Pandijk,4,,,6029PA,Sterksel,Heeze-Leende,Noord-Brabant,VBO,5.621327,51.348588
Pandijk,6,a,,6029PA,Sterksel,Heeze-Leende,Noord-Brabant,VBO,5.623973,51.346865
Pandijk,6,,,6029PA,Sterksel,Heeze-Leende,Noord-Brabant,VBO,5.623975,51.347171
Pandijk,7,,,6029PA,Sterksel,Heeze-Leende,Noord-Brabant,VBO,5.625412,51.344813
Pandijk,8,,,6029PA,Sterksel,Heeze-Leende,Noord-Brabant,VBO,5.629666,51.345775
Pandijk,9,,,6029PA,Sterksel,Heeze-Leende,Noord-Brabant,VBO,5.629436,51.343007
Pandijk,10,,,6029PA,Sterksel,Heeze-Leende,Noord-Brabant,VBO,5.628595,51.344105
Pandijk,11,,,6029PA,Sterksel,Heeze-Leende,Noord-Brabant,VBO,5.630840,51.342546
Pandijk,12,A,1,6029PA,Sterksel,Heeze-Leende,Noord-Brabant,VBO,5.630045,51.343792
Pandijk,12,A,2,6029PA,Sterksel,Heeze-Leende,Noord-Brabant,VBO,5.629969,51.343830
Pandijk,12,A,3,6029PA,Sterksel,Heeze-Leende,Noord-Brabant,VBO,5.629908,51.343773
Pandijk,12,A,4,6029PA,Sterksel,Heeze-Leende,Noord-Brabant,VBO,5.629855,51.343728
Pandijk,12,B,1,6029PA,Sterksel,Heeze-Leende,Noord-Brabant,VBO,5.633016,51.344010
Pandijk,12,B,2,6029PA,Sterksel,Heeze-Leende,Noord-Brabant,VBO,5.633022,51.343710
Pandijk,12,B,3,6029PA,Sterksel,Heeze-Leende,Noord-Brabant,VBO,5.633105,51.343596
Pandijk,12,B,4,6029PA,Sterksel,Heeze-Leende,Noord-Brabant,VBO,5.632581,51.343630
Pandijk,12,B,5,6029PA,Sterksel,Heeze-Leende,Noord-Brabant,VBO,5.632838,51.343520
Pandijk,12,V,1,6029PA,Sterksel,Heeze-Leende,Noord-Brabant,VBO,5.630749,51.343434
Pandijk,12,V,2,6029PA,Sterksel,Heeze-Leende,Noord-Brabant,VBO,5.631166,51.343262
Pandijk,12,V,3,6029PA,Sterksel,Heeze-Leende,Noord-Brabant,VBO,5.631553,51.343085
Pandijk,12,V,4,6029PA,Sterksel,Heeze-Leende,Noord-Brabant,VBO,5.631598,51.343123
Pandijk,12,V,5,6029PA,Sterksel,Heeze-Leende,Noord-Brabant,VBO,5.631820,51.343327
Pandijk,12,V,6,6029PA,Sterksel,Heeze-Leende,Noord-Brabant,VBO,5.631403,51.343490
Pandijk,12,,,6029PA,Sterksel,Heeze-Leende,Noord-Brabant,VBO,5.629883,51.343392
Pandijk,14,,,6029PA,Sterksel,Heeze-Leende,Noord-Brabant,VBO,5.633250,51.342361
Pandijk,15,,,6029PA,Sterksel,Heeze-Leende,Noord-Brabant,VBO,5.634580,51.341405
Pandijk,16,a,,6029PA,Sterksel,Heeze-Leende,Noord-Brabant,VBO,5.637171,51.341212
Pandijk,16,,,6029PA,Sterksel,Heeze-Leende,Noord-Brabant,VBO,5.637003,51.341040
Pandijk,18,a,,6029PA,Sterksel,Heeze-Leende,Noord-Brabant,VBO,5.639982,51.339856
Pandijk,18,,,6029PA,Sterksel,Heeze-Leende,Noord-Brabant,VBO,5.639581,51.340010
Pandijk,20,,,6029PA,Sterksel,Heeze-Leende,Noord-Brabant,VBO,5.640255,51.339919
Holderden,2,a,,6029PB,Sterksel,Heeze-Leende,Noord-Brabant,VBO,5.625479,51.343770
Holderden,2,,,6029PB,Sterksel,Heeze-Leende,Noord-Brabant,VBO,5.624962,51.343672
Holderden,4,,,6029PB,Sterksel,Heeze-Leende,Noord-Brabant,VBO,5.627081,51.343863
Holderden,6,,,6029PB,Sterksel,Heeze-Leende,Noord-Brabant,VBO,5.627629,51.343298
Stoeiing,1,a,,6029PC,Sterksel,Heeze-Leende,Noord-Brabant,VBO,5.615315,51.348977
Stoeiing,1,b,,6029PC,Sterksel,Heeze-Leende,Noord-Brabant,VBO,5.615486,51.348752
Stoeiing,1,c,,6029PC,Sterksel,Heeze-Leende,Noord-Brabant,VBO,5.615089,51.349840
Stoeiing,1,d,,6029PC,Sterksel,Heeze-Leende,Noord-Brabant,VBO,5.615246,51.349678
Stoeiing,1,,,6029PC,Sterksel,Heeze-Leende,Noord-Brabant,VBO,5.617877,51.347597
Stoeiing,3,a,,6029PC,Sterksel,Heeze-Leende,Noord-Brabant,VBO,5.620223,51.346100
Stoeiing,3,b,,6029PC,Sterksel,Heeze-Leende,Noord-Brabant,VBO,5.620338,51.346010
Stoeiing,3,,,6029PC,Sterksel,Heeze-Leende,Noord-Brabant,VBO,5.619437,51.346632
Stoeiing,5,,,6029PC,Sterksel,Heeze-Leende,Noord-Brabant,VBO,5.623540,51.343612
Stoeiing,7,,,6029PC,Sterksel,Heeze-Leende,Noord-Brabant,VBO,5.631333,51.338185
Turfven,1,,,6029PD,Sterksel,Heeze-Leende,Noord-Brabant,VBO,5.621122,51.350547
Turfven,2,,,6029PD,Sterksel,Heeze-Leende,Noord-Brabant,VBO,5.619975,51.350864
Turfven,5,,,6029PD,Sterksel,Heeze-Leende,Noord-Brabant,VBO,5.624427,51.351287
Turfven,6,,,6029PD,Sterksel,Heeze-Leende,Noord-Brabant,VBO,5.620520,51.350863
Turfven,8,,,6029PD,Sterksel,Heeze-Leende,Noord-Brabant,VBO,5.620349,51.351034
Turfven,9,a,,6029PD,Sterksel,Heeze-Leende,Noord-Brabant,VBO,5.634329,51.353406
Turfven,9,,,6029PD,Sterksel,Heeze-Leende,Noord-Brabant,VBO,5.631469,51.352791
Turfven,11,,,6029PD,Sterksel,Heeze-Leende,Noord-Brabant,VBO,5.636249,51.353784
Turfven,12,,,6029PD,Sterksel,Heeze-Leende,Noord-Brabant,VBO,5.623725,51.351531
Ronde Bleek,2,a,,6029PE,Sterksel,Heeze-Leende,Noord-Brabant,VBO,5.636327,51.356565
Ronde Bleek,2,b,,6029PE,Sterksel,Heeze-Leende,Noord-Brabant,VBO,5.636458,51.356835
Ronde Bleek,2,,,6029PE,Sterksel,Heeze-Leende,Noord-Brabant,VBO,5.636384,51.356377
Ronde Bleek,4,a,,6029PE,Sterksel,Heeze-Leende,Noord-Brabant,VBO,5.638269,51.354638
Ronde Bleek,4,,,6029PE,Sterksel,Heeze-Leende,Noord-Brabant,VBO,5.639758,51.354915
Ronde Bleek,6,,,6029PE,Sterksel,Heeze-Leende,Noord-Brabant,VBO,5.639794,51.352657
Ronde Bleek,8,,,6029PE,Sterksel,Heeze-Leende,Noord-Brabant,VBO,5.641269,51.352678
Ronde Bleek,10,,,6029PE,Sterksel,Heeze-Leende,Noord-Brabant,VBO,5.640877,51.351171
Ronde Bleek,12,,,6029PE,Sterksel,Heeze-Leende,Noord-Brabant,VBO,5.642395,51.350593
Peelven,1,,,6029PG,Sterksel,Heeze-Leende,Noord-Brabant,VBO,5.626687,51.360943
Peelven,2,,,6029PG,Sterksel,Heeze-Leende,Noord-Brabant,VBO,5.628413,51.361328
Peelven,3,a,,6029PG,Sterksel,Heeze-Leende,Noord-Brabant,VBO,5.629090,51.358945
Peelven,3,,,6029PG,Sterksel,Heeze-Leende,Noord-Brabant,VBO,5.628788,51.358864
Peelven,4,,,6029PG,Sterksel,Heeze-Leende,Noord-Brabant,VBO,5.632060,51.358543
Peelven,5,,,6029PG,Sterksel,Heeze-Leende,Noord-Brabant,VBO,5.632821,51.358541
Peelven,6,a,,6029PG,Sterksel,Heeze-Leende,Noord-Brabant,VBO,5.644119,51.360944
Peelven,6,,,6029PG,Sterksel,Heeze-Leende,Noord-Brabant,VBO,5.644018,51.360845
Peelven,7,a,,6029PG,Sterksel,Heeze-Leende,Noord-Brabant,VBO,5.642918,51.361872
Peelven,7,,NE01,6029PG,Sterksel,Heeze-Leende,Noord-Brabant,VBO,5.642901,51.361495
Peelven,7,,,6029PG,Sterksel,Heeze-Leende,Noord-Brabant,VBO,5.643242,51.360874
Peelven,8,a,,6029PG,Sterksel,Heeze-Leende,Noord-Brabant,VBO,5.642053,51.363897
Peelven,8,,,6029PG,Sterksel,Heeze-Leende,Noord-Brabant,VBO,5.642396,51.363581
Peelven,9,a,,6029PG,Sterksel,Heeze-Leende,Noord-Brabant,VBO,5.641932,51.365335
Peelven,9,,,6029PG,Sterksel,Heeze-Leende,Noord-Brabant,VBO,5.642078,51.365659
Peelven,13,,,6029PG,Sterksel,Heeze-Leende,Noord-Brabant,VBO,5.628933,51.367206
Peelven,14,,,6029PG,Sterksel,Heeze-Leende,Noord-Brabant,VBO,5.630318,51.365792
Peelven,15,,,6029PG,Sterksel,Heeze-Leende,Noord-Brabant,VBO,5.630573,51.365162
ten Brakeweg,3,,,6029PH,Sterksel,Heeze-Leende,Noord-Brabant,VBO,5.616435,51.351941
ten Brakeweg,5,,,6029PH,Sterksel,Heeze-Leende,Noord-Brabant,VBO,5.616780,51.352156
ten Brakeweg,7,,,6029PH,Sterksel,Heeze-Leende,Noord-Brabant,VBO,5.617197,51.352299
ten Brakeweg,9,,,6029PH,Sterksel,Heeze-Leende,Noord-Brabant,VBO,5.617873,51.352514
ten Brakeweg,11,a,,6029PH,Sterksel,Heeze-Leende,Noord-Brabant,VBO,5.618636,51.352827
ten Brakeweg,11,,,6029PH,Sterksel,Heeze-Leende,Noord-Brabant,VBO,5.618190,51.352657
ten Brakeweg,13,,,6029PH,Sterksel,Heeze-Leende,Noord-Brabant,VBO,5.618938,51.352943
ten Brakeweg,4,,,6029PJ,Sterksel,Heeze-Leende,Noord-Brabant,VBO,5.615704,51.352158
ten Brakeweg,6,,,6029PJ,Sterksel,Heeze-Leende,Noord-Brabant,VBO,5.616265,51.352409
ten Brakeweg,8,a,,6029PJ,Sterksel,Heeze-Leende,Noord-Brabant,VBO,5.617117,51.353097
ten Brakeweg,8,,,6029PJ,Sterksel,Heeze-Leende,Noord-Brabant,VBO,5.616797,51.352597
ten Brakeweg,10,,,6029PJ,Sterksel,Heeze-Leende,Noord-Brabant,VBO,5.616441,51.353208
ten Brakeweg,12,,,6029PJ,Sterksel,Heeze-Leende,Noord-Brabant,VBO,5.616945,51.353414
ten Brakeweg,14,,,6029PJ,Sterksel,Heeze-Leende,Noord-Brabant,VBO,5.617477,51.353674
ten Brakeweg,16,,,6029PJ,Sterksel,Heeze-Leende,Noord-Brabant,VBO,5.617789,51.352981
ten Brakeweg,18,,,6029PJ,Sterksel,Heeze-Leende,Noord-Brabant,VBO,5.618235,51.353133
ten Brakeweg,20,,,6029PJ,Sterksel,Heeze-Leende,Noord-Brabant,VBO,5.618639,51.353447
ten Brakeweg,22,,,6029PJ,Sterksel,Heeze-Leende,Noord-Brabant,VBO,5.618927,51.353770
ten Brakeweg,24,,,6029PJ,Sterksel,Heeze-Leende,Noord-Brabant,VBO,5.618957,51.354004
ten Brakeweg,26,a,,6029PJ,Sterksel,Heeze-Leende,Noord-Brabant,VBO,5.618758,51.354345
ten Brakeweg,26,,,6029PJ,Sterksel,Heeze-Leende,Noord-Brabant,VBO,5.618916,51.354318
ten Brakeweg,28,,,6029PJ,Sterksel,Heeze-Leende,Noord-Brabant,VBO,5.619061,51.354713
ten Brakeweg,30,,,6029PJ,Sterksel,Heeze-Leende,Noord-Brabant,VBO,5.619093,51.355235
ten Brakeweg,32,,,6029PJ,Sterksel,Heeze-Leende,Noord-Brabant,VBO,5.619541,51.358120
Vlaamseweg,1,a,,6029PK,Sterksel,Heeze-Leende,Noord-Brabant,VBO,5.603443,51.357890
Vlaamseweg,1,b,,6029PK,Sterksel,Heeze-Leende,Noord-Brabant,VBO,5.603918,51.358086
Vlaamseweg,1,c,,6029PK,Sterksel,Heeze-Leende,Noord-Brabant,VBO,5.604262,51.358113
Vlaamseweg,1,d,,6029PK,Sterksel,Heeze-Leende,Noord-Brabant,VBO,5.601656,51.356554
Vlaamseweg,1,e,,6029PK,Sterksel,Heeze-Leende,Noord-Brabant,VBO,5.603985,51.357089
Vlaamseweg,1,,,6029PK,Sterksel,Heeze-Leende,Noord-Brabant,VBO,5.603285,51.357809
Vlaamseweg,3,a,,6029PK,Sterksel,Heeze-Leende,Noord-Brabant,VBO,5.605243,51.358974
Vlaamseweg,3,,,6029PK,Sterksel,Heeze-Leende,Noord-Brabant,VBO,5.605156,51.358920
Vlaamseweg,5,,,6029PK,Sterksel,Heeze-Leende,Noord-Brabant,VBO,5.606899,51.360112
Vlaamseweg,7,a,,6029PK,Sterksel,Heeze-Leende,Noord-Brabant,VBO,5.610544,51.362613
Vlaamseweg,7,b,,6029PK,Sterksel,Heeze-Leende,Noord-Brabant,VBO,5.613684,51.364657
Vlaamseweg,7,,,6029PK,Sterksel,Heeze-Leende,Noord-Brabant,VBO,5.609766,51.362075
Vlaamseweg,9,,,6029PK,Sterksel,Heeze-Leende,Noord-Brabant,VBO,5.615514,51.365956
Vlaamseweg,11,a,,6029PK,Sterksel,Heeze-Leende,Noord-Brabant,VBO,5.617171,51.367104
Vlaamseweg,11,,,6029PK,Sterksel,Heeze-Leende,Noord-Brabant,VBO,5.616163,51.366396
Vlaamseweg,13,a,,6029PK,Sterksel,Heeze-Leende,Noord-Brabant,VBO,5.621305,51.369585
Vlaamseweg,13,,,6029PK,Sterksel,Heeze-Leende,Noord-Brabant,VBO,5.618338,51.367829
Vlaamseweg,15,,,6029PK,Sterksel,Heeze-Leende,Noord-Brabant,VBO,5.622129,51.370536
Vlaamseweg,17,,,6029PK,Sterksel,Heeze-Leende,Noord-Brabant,VBO,5.623410,51.371028
Vlaamseweg,2,a,,6029PL,Sterksel,Heeze-Leende,Noord-Brabant,VBO,5.600293,51.356628
Vlaamseweg,2,,,6029PL,Sterksel,Heeze-Leende,Noord-Brabant,VBO,5.600135,51.356538
Vlaamseweg,4,,,6029PL,Sterksel,Heeze-Leende,Noord-Brabant,VBO,5.601653,51.357371
Vlaamseweg,6,,,6029PL,Sterksel,Heeze-Leende,Noord-Brabant,VBO,5.612002,51.364192
Vlaamseweg,8,a,,6029PL,Sterksel,Heeze-Leende,Noord-Brabant,VBO,5.613601,51.365241
Vlaamseweg,8,,,6029PL,Sterksel,Heeze-Leende,Noord-Brabant,VBO,5.612723,51.364766
Vlaamseweg,10,,,6029PL,Sterksel,Heeze-Leende,Noord-Brabant,VBO,5.614595,51.365895
Vlaamseweg,12,,,6029PL,Sterksel,Heeze-Leende,Noord-Brabant,VBO,5.616137,51.366908
Vlaamseweg,14,,NE01,6029PL,Sterksel,Heeze-Leende,Noord-Brabant,VBO,5.618846,51.368763
Vlaamseweg,14,,,6029PL,Sterksel,Heeze-Leende,Noord-Brabant,VBO,5.618024,51.368253
Vlaamseweg,16,,,6029PL,Sterksel,Heeze-Leende,Noord-Brabant,VBO,5.620099,51.369660
Vlaamseweg,18,a,,6029PL,Sterksel,Heeze-Leende,Noord-Brabant,VBO,5.621742,51.370789
Vlaamseweg,18,,,6029PL,Sterksel,Heeze-Leende,Noord-Brabant,VBO,5.621224,51.370448
Vlaamseweg,20,,,6029PL,Sterksel,Heeze-Leende,Noord-Brabant,VBO,5.622018,51.371247
Vlaamseweg,22,,,6029PL,Sterksel,Heeze-Leende,Noord-Brabant,VBO,5.623126,51.371757
Somerenseweg,10,,,6029PM,Sterksel,Heeze-Leende,Noord-Brabant,VBO,5.641004,51.381751
Somerenseweg,11,,,6029PM,Sterksel,Heeze-Leende,Noord-Brabant,VBO,5.641867,51.381893
Albertlaan,2,a,,6029PN,Sterksel,Heeze-Leende,Noord-Brabant,VBO,5.604503,51.354391
Albertlaan,2,,,6029PN,Sterksel,Heeze-Leende,Noord-Brabant,VBO,5.607435,51.355140
Albertlaan,3,,,6029PN,Sterksel,Heeze-Leende,Noord-Brabant,VBO,5.610309,51.355674
Albertlaan,4,,,6029PN,Sterksel,Heeze-Leende,Noord-Brabant,VBO,5.608776,51.356315
Albertlaan,5,,,6029PN,Sterksel,Heeze-Leende,Noord-Brabant,VBO,5.610640,51.355773
Albertlaan,6,,,6029PN,Sterksel,Heeze-Leende,Noord-Brabant,VBO,5.618075,51.358392
Albertlaan,7,,,6029PN,Sterksel,Heeze-Leende,Noord-Brabant,VBO,5.610898,51.355853
Albertlaan,8,,,6029PN,Sterksel,Heeze-Leende,Noord-Brabant,VBO,5.618263,51.358562
Albertlaan,9,,,6029PN,Sterksel,Heeze-Leende,Noord-Brabant,VBO,5.610999,51.355889
Albertlaan,10,,,6029PN,Sterksel,Heeze-Leende,Noord-Brabant,VBO,5.618507,51.358634
Albertlaan,11,,,6029PN,Sterksel,Heeze-Leende,Noord-Brabant,VBO,5.613759,51.356495
Albertlaan,12,,,6029PN,Sterksel,Heeze-Leende,Noord-Brabant,VBO,5.618766,51.358705
Albertlaan,13,a,,6029PN,Sterksel,Heeze-Leende,Noord-Brabant,VBO,5.617782,51.357224
Albertlaan,13,b,,6029PN,Sterksel,Heeze-Leende,Noord-Brabant,VBO,5.618772,51.357105
Albertlaan,13,,,6029PN,Sterksel,Heeze-Leende,Noord-Brabant,VBO,5.615530,51.356605
Albertlaan,14,,,6029PN,Sterksel,Heeze-Leende,Noord-Brabant,VBO,5.619887,51.359035
Albertlaan,15,,,6029PN,Sterksel,Heeze-Leende,Noord-Brabant,VBO,5.618906,51.358111
Albertlaan,16,R,100,6029PN,Sterksel,Heeze-Leende,Noord-Brabant,VBO,5.621428,51.359410
Albertlaan,16,R,123,6029PN,Sterksel,Heeze-Leende,Noord-Brabant,VBO,5.621818,51.360648
Albertlaan,16,R,219,6029PN,Sterksel,Heeze-Leende,Noord-Brabant,VBO,5.621189,51.361701
Albertlaan,16,R,312,6029PN,Sterksel,Heeze-Leende,Noord-Brabant,VBO,5.620427,51.361997
Albertlaan,16,R,511,6029PN,Sterksel,Heeze-Leende,Noord-Brabant,VBO,5.615686,51.362042
Albertlaan,16,R,601,6029PN,Sterksel,Heeze-Leende,Noord-Brabant,VBO,5.620617,51.359707
Albertlaan,16,R,706,6029PN,Sterksel,Heeze-Leende,Noord-Brabant,VBO,5.619035,51.360928
Albertlaan,16,R,901,6029PN,Sterksel,Heeze-Leende,Noord-Brabant,VBO,5.617577,51.360389
Albertlaan,16,R,904,6029PN,Sterksel,Heeze-Leende,Noord-Brabant,VBO,5.618259,51.360682
Albertlaan,16,R,905,6029PN,Sterksel,Heeze-Leende,Noord-Brabant,VBO,5.618051,51.360937
Albertlaan,16,R,909,6029PN,Sterksel,Heeze-Leende,Noord-Brabant,VBO,5.617101,51.360867
Albertlaan,16,R,916,6029PN,Sterksel,Heeze-Leende,Noord-Brabant,VBO,5.616889,51.361020
Albertlaan,16,R,924,6029PN,Sterksel,Heeze-Leende,Noord-Brabant,VBO,5.616587,51.361347
Albertlaan,16,,,6029PN,Sterksel,Heeze-Leende,Noord-Brabant,VBO,5.620980,51.359312
Albertlaan,17,,,6029PN,Sterksel,Heeze-Leende,Noord-Brabant,VBO,5.619410,51.358299
Albertlaan,19,,,6029PN,Sterksel,Heeze-Leende,Noord-Brabant,VBO,5.623777,51.358749
Heezerweg,1,a,,6029PP,Sterksel,Heeze-Leende,Noord-Brabant,VBO,5.611452,51.351708
Heezerweg,1,,,6029PP,Sterksel,Heeze-Leende,Noord-Brabant,VBO,5.611122,51.351628
Heezerweg,2,,,6029PP,Sterksel,Heeze-Leende,Noord-Brabant,VBO,5.610360,51.351378
Heezerweg,3,,,6029PP,Sterksel,Heeze-Leende,Noord-Brabant,VBO,5.610907,51.351628
Heezerweg,4,,,6029PP,Sterksel,Heeze-Leende,Noord-Brabant,VBO,5.610073,51.351459
Heezerweg,5,,,6029PP,Sterksel,Heeze-Leende,Noord-Brabant,VBO,5.610806,51.351628
Heezerweg,6,,,6029PP,Sterksel,Heeze-Leende,Noord-Brabant,VBO,5.609413,51.351595
Heezerweg,7,a,,6029PP,Sterksel,Heeze-Leende,Noord-Brabant,VBO,5.607329,51.353909
Heezerweg,7,,,6029PP,Sterksel,Heeze-Leende,Noord-Brabant,VBO,5.607370,51.353433
Heezerweg,8,,,6029PP,Sterksel,Heeze-Leende,Noord-Brabant,VBO,5.609198,51.351632
Heezerweg,10,,,6029PP,Sterksel,Heeze-Leende,Noord-Brabant,VBO,5.608997,51.351650
Heezerweg,11,,,6029PP,Sterksel,Heeze-Leende,Noord-Brabant,VBO,5.599649,51.357034
Heezerweg,12,,,6029PP,Sterksel,Heeze-Leende,Noord-Brabant,VBO,5.608797,51.351677
Heezerweg,14,,,6029PP,Sterksel,Heeze-Leende,Noord-Brabant,VBO,5.608596,51.351696
Heezerweg,16,,,6029PP,Sterksel,Heeze-Leende,Noord-Brabant,VBO,5.608381,51.351741
Heezerweg,18,a,NB01,6029PP,Sterksel,Heeze-Leende,Noord-Brabant,VBO,5.607637,51.351925
Heezerweg,18,,,6029PP,Sterksel,Heeze-Leende,Noord-Brabant,VBO,5.608094,51.351813
Heezerweg,20,a,,6029PP,Sterksel,Heeze-Leende,Noord-Brabant,VBO,5.606246,51.352680
Heezerweg,20,,,6029PP,Sterksel,Heeze-Leende,Noord-Brabant,VBO,5.606476,51.352706
Heezerweg,22,a,,6029PP,Sterksel,Heeze-Leende,Noord-Brabant,VBO,5.604900,51.353347
Heezerweg,22,b,,6029PP,Sterksel,Heeze-Leende,Noord-Brabant,VBO,5.604598,51.353222
Heezerweg,22,c,,6029PP,Sterksel,Heeze-Leende,Noord-Brabant,VBO,5.605344,51.353113
Heezerweg,22,,,6029PP,Sterksel,Heeze-Leende,Noord-Brabant,VBO,5.605358,51.353140
Heezerweg,24,,NE01,6029PP,Sterksel,Heeze-Leende,Noord-Brabant,VBO,5.604557,51.353591
Heezerweg,24,,NG01,6029PP,Sterksel,Heeze-Leende,Noord-Brabant,VBO,5.604456,51.353654
Heezerweg,24,,,6029PP,Sterksel,Heeze-Leende,Noord-Brabant,VBO,5.604700,51.353510
Heezerweg,26,,,6029PP,Sterksel,Heeze-Leende,Noord-Brabant,VBO,5.602423,51.354655
Kloosterlaan,1,,,6029PR,Sterksel,Heeze-Leende,Noord-Brabant,VBO,5.603554,51.353970
Korte Vlaamseweg,1,,,6029PS,Sterksel,Heeze-Leende,Noord-Brabant,VBO,5.599617,51.356413
Korte Vlaamseweg,3,,,6029PS,Sterksel,Heeze-Leende,Noord-Brabant,VBO,5.595103,51.351900
Oostrikkerweg,1,,,6029PT,Sterksel,Heeze-Leende,Noord-Brabant,VBO,5.594569,51.351173
Oostrikkerweg,2,a,,6029PT,Sterksel,Heeze-Leende,Noord-Brabant,VBO,5.592584,51.350458
Oostrikkerweg,2,,,6029PT,Sterksel,Heeze-Leende,Noord-Brabant,VBO,5.592570,51.350529
Biesputten,1,,,6029PV,Sterksel,Heeze-Leende,Noord-Brabant,VBO,5.613092,51.343632
Biesputten,3,,,6029PV,Sterksel,Heeze-Leende,Noord-Brabant,VBO,5.612863,51.343750
Biesputten,5,,,6029PV,Sterksel,Heeze-Leende,Noord-Brabant,VBO,5.612894,51.344299
Biesputten,7,,,6029PV,Sterksel,Heeze-Leende,Noord-Brabant,VBO,5.611443,51.343942
Vonderweg,1,,,6029PW,Sterksel,Heeze-Leende,Noord-Brabant,VBO,5.596529,51.349821
Vonderweg,5,,,6029PW,Sterksel,Heeze-Leende,Noord-Brabant,VBO,5.597199,51.349777
Beukenlaan,1,a,,6029PX,Sterksel,Heeze-Leende,Noord-Brabant,VBO,5.610352,51.351115
Beukenlaan,1,,,6029PX,Sterksel,Heeze-Leende,Noord-Brabant,VBO,5.610789,51.351098
Beukenlaan,3,,,6029PX,Sterksel,Heeze-Leende,Noord-Brabant,VBO,5.610028,51.351109
Beukenlaan,7,,,6029PX,Sterksel,Heeze-Leende,Noord-Brabant,VBO,5.609440,51.351110
Beukenlaan,11,,,6029PX,Sterksel,Heeze-Leende,Noord-Brabant,VBO,5.608980,51.351111
Beukenlaan,13,,,6029PX,Sterksel,Heeze-Leende,Noord-Brabant,VBO,5.608751,51.351147
Beukenlaan,15,,,6029PX,Sterksel,Heeze-Leende,Noord-Brabant,VBO,5.608550,51.351156
Beukenlaan,17,,,6029PX,Sterksel,Heeze-Leende,Noord-Brabant,VBO,5.608335,51.351148
Beukenlaan,19,,,6029PX,Sterksel,Heeze-Leende,Noord-Brabant,VBO,5.608148,51.351148
Beukenlaan,21,,,6029PX,Sterksel,Heeze-Leende,Noord-Brabant,VBO,5.607947,51.351149
Beukenlaan,23,,,6029PX,Sterksel,Heeze-Leende,Noord-Brabant,VBO,5.607403,51.351446
Beukenlaan,25,,,6029PX,Sterksel,Heeze-Leende,Noord-Brabant,VBO,5.603125,51.351310
Beukenlaan,27,,,6029PX,Sterksel,Heeze-Leende,Noord-Brabant,VBO,5.598014,51.351257
Beukenlaan,2,a,,6029PZ,Sterksel,Heeze-Leende,Noord-Brabant,VBO,5.610802,51.350801
Beukenlaan,2,,01,6029PZ,Sterksel,Heeze-Leende,Noord-Brabant,VBO,5.612121,51.350628
Beukenlaan,2,,02,6029PZ,Sterksel,Heeze-Leende,Noord-Brabant,VBO,5.612055,51.350682
Beukenlaan,2,,03,6029PZ,Sterksel,Heeze-Leende,Noord-Brabant,VBO,5.612006,51.350736
Beukenlaan,2,,04,6029PZ,Sterksel,Heeze-Leende,Noord-Brabant,VBO,5.611971,51.350796
Beukenlaan,2,,05,6029PZ,Sterksel,Heeze-Leende,Noord-Brabant,VBO,5.611881,51.350825
Beukenlaan,2,,06,6029PZ,Sterksel,Heeze-Leende,Noord-Brabant,VBO,5.611795,51.350809
Beukenlaan,2,,07,6029PZ,Sterksel,Heeze-Leende,Noord-Brabant,VBO,5.612028,51.350604
Beukenlaan,2,,08,6029PZ,Sterksel,Heeze-Leende,Noord-Brabant,VBO,5.611990,51.350668
Beukenlaan,2,,09,6029PZ,Sterksel,Heeze-Leende,Noord-Brabant,VBO,5.611933,51.350723
Beukenlaan,2,,10,6029PZ,Sterksel,Heeze-Leende,Noord-Brabant,VBO,5.611905,51.350781
Beukenlaan,2,,11,6029PZ,Sterksel,Heeze-Leende,Noord-Brabant,VBO,5.611811,51.350769
Beukenlaan,2,,,6029PZ,Sterksel,Heeze-Leende,Noord-Brabant,VBO,5.611175,51.350801
Beukenlaan,4,a,,6029PZ,Sterksel,Heeze-Leende,Noord-Brabant,VBO,5.609999,51.350893
Beukenlaan,4,b,,6029PZ,Sterksel,Heeze-Leende,Noord-Brabant,VBO,5.609912,51.350893
Beukenlaan,4,c,,6029PZ,Sterksel,Heeze-Leende,Noord-Brabant,VBO,5.609597,51.350876
Beukenlaan,4,d,,6029PZ,Sterksel,Heeze-Leende,Noord-Brabant,VBO,5.609596,51.350786
Beukenlaan,4,e,,6029PZ,Sterksel,Heeze-Leende,Noord-Brabant,VBO,5.609610,51.350705
Beukenlaan,4,f,,6029PZ,Sterksel,Heeze-Leende,Noord-Brabant,VBO,5.609596,51.350669
Beukenlaan,4,g,,6029PZ,Sterksel,Heeze-Leende,Noord-Brabant,VBO,5.609609,51.350534
Beukenlaan,4,h,,6029PZ,Sterksel,Heeze-Leende,Noord-Brabant,VBO,5.609595,51.350462
Beukenlaan,4,,,6029PZ,Sterksel,Heeze-Leende,Noord-Brabant,VBO,5.610328,51.350820
Beukenlaan,6,,,6029PZ,Sterksel,Heeze-Leende,Noord-Brabant,VBO,5.609610,51.350624
Beukenlaan,8,,,6029PZ,Sterksel,Heeze-Leende,Noord-Brabant,VBO,5.608936,51.350895
Beukenlaan,10,,,6029PZ,Sterksel,Heeze-Leende,Noord-Brabant,VBO,5.608577,51.350878
Beukenlaan,12,,,6029PZ,Sterksel,Heeze-Leende,Noord-Brabant,VBO,5.608204,51.350842
Beukenlaan,14,,,6029PZ,Sterksel,Heeze-Leende,Noord-Brabant,VBO,5.607817,51.350879
Beukenlaan,16,,,6029PZ,Sterksel,Heeze-Leende,Noord-Brabant,VBO,5.607558,51.350889
Beukenlaan,18,,,6029PZ,Sterksel,Heeze-Leende,Noord-Brabant,VBO,5.607458,51.350889
Beukenlaan,20,,,6029PZ,Sterksel,Heeze-Leende,Noord-Brabant,VBO,5.607343,51.350880
Beukenlaan,22,,,6029PZ,Sterksel,Heeze-Leende,Noord-Brabant,VBO,5.607242,51.350889
Beukenlaan,24,a,,6029PZ,Sterksel,Heeze-Leende,Noord-Brabant,VBO,5.605276,51.350839
Beukenlaan,24,,,6029PZ,Sterksel,Heeze-Leende,Noord-Brabant,VBO,5.606897,51.350782
Beukenlaan,26,,,6029PZ,Sterksel,Heeze-Leende,Noord-Brabant,VBO,5.601586,51.350819
Beukenlaan,28,a,,6029PZ,Sterksel,Heeze-Leende,Noord-Brabant,VBO,5.600082,51.350834
Beukenlaan,28,,,6029PZ,Sterksel,Heeze-Leende,Noord-Brabant,VBO,5.600278,51.350880
Beukenlaan,30,,,6029PZ,Sterksel,Heeze-Leende,Noord-Brabant,VBO,5.596763,51.350864
Beukenlaan,32,,,6029PZ,Sterksel,Heeze-Leende,Noord-Brabant,VBO,5.596261,51.350882
Jagerspad,1,,,6029RA,Sterksel,Heeze-Leende,Noord-Brabant,VBO,5.608034,51.351409
Jagerspad,3,,,6029RA,Sterksel,Heeze-Leende,Noord-Brabant,VBO,5.608049,51.351544
Churchillpark,1,,,6029RB,Sterksel,Heeze-Leende,Noord-Brabant,VBO,5.611241,51.352419
Churchillpark,2,,,6029RB,Sterksel,Heeze-Leende,Noord-Brabant,VBO,5.610566,51.352456
Churchillpark,3,,,6029RB,Sterksel,Heeze-Leende,Noord-Brabant,VBO,5.611558,51.352733
Churchillpark,4,,,6029RB,Sterksel,Heeze-Leende,Noord-Brabant,VBO,5.610711,51.352824
Churchillpark,5,,,6029RB,Sterksel,Heeze-Leende,Noord-Brabant,VBO,5.611648,51.353523
Churchillpark,6,,,6029RB,Sterksel,Heeze-Leende,Noord-Brabant,VBO,5.610656,51.353175
Churchillpark,7,,,6029RB,Sterksel,Heeze-Leende,Noord-Brabant,VBO,5.611561,51.353299
Churchillpark,8,,,6029RB,Sterksel,Heeze-Leende,Noord-Brabant,VBO,5.610629,51.353597
Churchillpark,9,,,6029RB,Sterksel,Heeze-Leende,Noord-Brabant,VBO,5.611602,51.353020
Churchillpark,10,,,6029RB,Sterksel,Heeze-Leende,Noord-Brabant,VBO,5.610502,51.353966
Churchillpark,11,,,6029RB,Sterksel,Heeze-Leende,Noord-Brabant,VBO,5.611785,51.352238
Churchillpark,12,a,,6029RB,Sterksel,Heeze-Leende,Noord-Brabant,VBO,5.611707,51.353910
Churchillpark,12,,,6029RB,Sterksel,Heeze-Leende,Noord-Brabant,VBO,5.611105,51.353974
Churchillpark,14,a,,6029RB,Sterksel,Heeze-Leende,Noord-Brabant,VBO,5.612207,51.353432
Churchillpark,14,,,6029RB,Sterksel,Heeze-Leende,Noord-Brabant,VBO,5.612209,51.353828
Churchillpark,15,,,6029RB,Sterksel,Heeze-Leende,Noord-Brabant,VBO,5.611955,51.351770
Churchillpark,16,,,6029RB,Sterksel,Heeze-Leende,Noord-Brabant,VBO,5.612192,51.353172
Churchillpark,18,,,6029RB,Sterksel,Heeze-Leende,Noord-Brabant,VBO,5.612233,51.352713
Churchillpark,20,,,6029RB,Sterksel,Heeze-Leende,Noord-Brabant,VBO,5.612388,51.352273
Dreef,1,,,6029RC,Sterksel,Heeze-Leende,Noord-Brabant,VBO,5.613317,51.351444
Dreef,2,a,,6029RC,Sterksel,Heeze-Leende,Noord-Brabant,VBO,5.614023,51.351829
Dreef,2,,,6029RC,Sterksel,Heeze-Leende,Noord-Brabant,VBO,5.613377,51.351848
Dreef,3,,,6029RC,Sterksel,Heeze-Leende,Noord-Brabant,VBO,5.613834,51.351461
Dreef,4,,,6029RC,Sterksel,Heeze-Leende,Noord-Brabant,VBO,5.614554,51.351909
Dreef,5,,,6029RC,Sterksel,Heeze-Leende,Noord-Brabant,VBO,5.614250,51.351487
Dreef,7,,,6029RC,Sterksel,Heeze-Leende,Noord-Brabant,VBO,5.614509,51.351504
Dreef,9,,,6029RC,Sterksel,Heeze-Leende,Noord-Brabant,VBO,5.615169,51.351521
Kennedylaan,1,,,6029RD,Sterksel,Heeze-Leende,Noord-Brabant,VBO,5.613033,51.352074
Kennedylaan,3,,,6029RD,Sterksel,Heeze-Leende,Noord-Brabant,VBO,5.613020,51.352361
Kennedylaan,5,,,6029RD,Sterksel,Heeze-Leende,Noord-Brabant,VBO,5.613051,51.352703
Kennedylaan,7,,,6029RD,Sterksel,Heeze-Leende,Noord-Brabant,VBO,5.613167,51.353017
Kennedylaan,9,,,6029RD,Sterksel,Heeze-Leende,Noord-Brabant,VBO,5.613612,51.352944
Kennedylaan,11,,,6029RD,Sterksel,Heeze-Leende,Noord-Brabant,VBO,5.613942,51.352890
Kennedylaan,13,,,6029RD,Sterksel,Heeze-Leende,Noord-Brabant,VBO,5.614374,51.353231
Kennedylaan,15,,,6029RD,Sterksel,Heeze-Leende,Noord-Brabant,VBO,5.614519,51.353500
Kennedylaan,17,,,6029RD,Sterksel,Heeze-Leende,Noord-Brabant,VBO,5.614790,51.353176
Kennedylaan,19,,,6029RD,Sterksel,Heeze-Leende,Noord-Brabant,VBO,5.614731,51.352843
Kennedylaan,21,,,6029RD,Sterksel,Heeze-Leende,Noord-Brabant,VBO,5.614730,51.352583
Kennedylaan,23,,,6029RD,Sterksel,Heeze-Leende,Noord-Brabant,VBO,5.614685,51.352232
Kennedylaan,2,,,6029RE,Sterksel,Heeze-Leende,Noord-Brabant,VBO,5.613172,51.353916
Kennedylaan,4,,,6029RE,Sterksel,Heeze-Leende,Noord-Brabant,VBO,5.613141,51.353458
Kennedylaan,6,,,6029RE,Sterksel,Heeze-Leende,Noord-Brabant,VBO,5.613859,51.353492
Kennedylaan,8,,,6029RE,Sterksel,Heeze-Leende,Noord-Brabant,VBO,5.614220,51.353923
Kennedylaan,10,,,6029RE,Sterksel,Heeze-Leende,Noord-Brabant,VBO,5.614679,51.353841
Kennedylaan,12,,,6029RE,Sterksel,Heeze-Leende,Noord-Brabant,VBO,5.615108,51.353661
Kennedylaan,14,,,6029RE,Sterksel,Heeze-Leende,Noord-Brabant,VBO,5.615380,51.353489
Kennedylaan,16,,,6029RE,Sterksel,Heeze-Leende,Noord-Brabant,VBO,5.615392,51.353067
Kennedylaan,18,,,6029RE,Sterksel,Heeze-Leende,Noord-Brabant,VBO,5.615406,51.352851
Kennedylaan,20,,,6029RE,Sterksel,Heeze-Leende,Noord-Brabant,VBO,5.615376,51.352608
Kennedylaan,22,,,6029RE,Sterksel,Heeze-Leende,Noord-Brabant,VBO,5.615316,51.352195
Kennedylaan,24,,,6029RE,Sterksel,Heeze-Leende,Noord-Brabant,VBO,5.615387,51.351961
Pompendreef,1,,,6029RG,Sterksel,Heeze-Leende,Noord-Brabant,VBO,5.610698,51.350074
Pompendreef,2,,,6029RG,Sterksel,Heeze-Leende,Noord-Brabant,VBO,5.610397,51.350281
Pompendreef,3,,,6029RG,Sterksel,Heeze-Leende,Noord-Brabant,VBO,5.610699,51.350208
Pompendreef,4,,,6029RG,Sterksel,Heeze-Leende,Noord-Brabant,VBO,5.610398,51.350344
Pompendreef,6,,,6029RG,Sterksel,Heeze-Leende,Noord-Brabant,VBO,5.610369,51.350416
Pompendreef,7,,,6029RG,Sterksel,Heeze-Leende,Noord-Brabant,VBO,5.610700,51.350460
Pompendreef,8,,,6029RG,Sterksel,Heeze-Leende,Noord-Brabant,VBO,5.610370,51.350479
Pompendreef,9,,,6029RG,Sterksel,Heeze-Leende,Noord-Brabant,VBO,5.610686,51.350523
Domein,1,,,6029RH,Sterksel,Heeze-Leende,Noord-Brabant,VBO,5.613772,51.350544
Domein,2,,,6029RH,Sterksel,Heeze-Leende,Noord-Brabant,VBO,5.614238,51.350602
Domein,3,,,6029RH,Sterksel,Heeze-Leende,Noord-Brabant,VBO,5.613758,51.350598
Domein,4,,,6029RH,Sterksel,Heeze-Leende,Noord-Brabant,VBO,5.614225,51.350661
Domein,5,,,6029RH,Sterksel,Heeze-Leende,Noord-Brabant,VBO,5.613758,51.350741
Domein,6,,,6029RH,Sterksel,Heeze-Leende,Noord-Brabant,VBO,5.614214,51.350777
Domein,7,,,6029RH,Sterksel,Heeze-Leende,Noord-Brabant,VBO,5.613747,51.350801
Domein,8,,,6029RH,Sterksel,Heeze-Leende,Noord-Brabant,VBO,5.614207,51.350832
Domein,9,,,6029RH,Sterksel,Heeze-Leende,Noord-Brabant,VBO,5.613796,51.351013
Domein,10,,,6029RH,Sterksel,Heeze-Leende,Noord-Brabant,VBO,5.614312,51.351030
Domein,11,,,6029RH,Sterksel,Heeze-Leende,Noord-Brabant,VBO,5.613693,51.351028
Domein,12,,,6029RH,Sterksel,Heeze-Leende,Noord-Brabant,VBO,5.614409,51.351035
Domein,13,,,6029RH,Sterksel,Heeze-Leende,Noord-Brabant,VBO,5.613505,51.351040
Domein,14,,,6029RH,Sterksel,Heeze-Leende,Noord-Brabant,VBO,5.614643,51.351088
Domein,15,,,6029RH,Sterksel,Heeze-Leende,Noord-Brabant,VBO,5.613426,51.351053
Domein,16,,,6029RH,Sterksel,Heeze-Leende,Noord-Brabant,VBO,5.614729,51.351092
Domein,18,,,6029RH,Sterksel,Heeze-Leende,Noord-Brabant,VBO,5.614814,51.351099
Domein,20,,,6029RH,Sterksel,Heeze-Leende,Noord-Brabant,VBO,5.614998,51.351108
Domein,22,,,6029RH,Sterksel,Heeze-Leende,Noord-Brabant,VBO,5.615084,51.351113
Valentijn,1,,,6029RJ,Sterksel,Heeze-Leende,Noord-Brabant,VBO,5.612090,51.350044
Valentijn,2,,,6029RJ,Sterksel,Heeze-Leende,Noord-Brabant,VBO,5.612261,51.349810
Valentijn,3,,,6029RJ,Sterksel,Heeze-Leende,Noord-Brabant,VBO,5.611673,51.349946
Valentijn,4,,,6029RJ,Sterksel,Heeze-Leende,Noord-Brabant,VBO,5.612103,51.349756
Valentijn,5,,,6029RJ,Sterksel,Heeze-Leende,Noord-Brabant,VBO,5.611429,51.349937
Valentijn,6,,,6029RJ,Sterksel,Heeze-Leende,Noord-Brabant,VBO,5.611916,51.349694
Valentijn,7,,,6029RJ,Sterksel,Heeze-Leende,Noord-Brabant,VBO,5.611129,51.350091
Valentijn,8,,,6029RJ,Sterksel,Heeze-Leende,Noord-Brabant,VBO,5.611384,51.349452
Valentijn,9,,,6029RJ,Sterksel,Heeze-Leende,Noord-Brabant,VBO,5.610382,51.350092
Valentijn,10,,,6029RJ,Sterksel,Heeze-Leende,Noord-Brabant,VBO,5.610826,51.349894
Valentijn,11,,,6029RJ,Sterksel,Heeze-Leende,Noord-Brabant,VBO,5.610296,51.350083
Valentijn,12,,,6029RJ,Sterksel,Heeze-Leende,Noord-Brabant,VBO,5.610668,51.349894
Valentijn,13,,,6029RJ,Sterksel,Heeze-Leende,Noord-Brabant,VBO,5.610181,51.350066
Valentijn,14,,,6029RJ,Sterksel,Heeze-Leende,Noord-Brabant,VBO,5.609591,51.349815
Valentijn,15,,,6029RJ,Sterksel,Heeze-Leende,Noord-Brabant,VBO,5.610023,51.350048
Valentijn,16,,,6029RJ,Sterksel,Heeze-Leende,Noord-Brabant,VBO,5.609510,51.349801
Valentijn,17,,,6029RJ,Sterksel,Heeze-Leende,Noord-Brabant,VBO,5.609966,51.350048
Valentijn,18,,,6029RJ,Sterksel,Heeze-Leende,Noord-Brabant,VBO,5.609376,51.349797
Valentijn,19,,,6029RJ,Sterksel,Heeze-Leende,Noord-Brabant,VBO,5.609880,51.350048
Valentijn,21,,,6029RJ,Sterksel,Heeze-Leende,Noord-Brabant,VBO,5.609808,51.350048
Valentijn,23,,,6029RJ,Sterksel,Heeze-Leende,Noord-Brabant,VBO,5.609650,51.350049
Valentijn,25,,,6029RJ,Sterksel,Heeze-Leende,Noord-Brabant,VBO,5.609564,51.350040
Valentijn,27,,,6029RJ,Sterksel,Heeze-Leende,Noord-Brabant,VBO,5.609478,51.350040
Valentijn,29,,,6029RJ,Sterksel,Heeze-Leende,Noord-Brabant,VBO,5.609233,51.349969
Valentijn,31,,,6029RJ,Sterksel,Heeze-Leende,Noord-Brabant,VBO,5.609161,51.349960
Valentijn,33,,,6029RJ,Sterksel,Heeze-Leende,Noord-Brabant,VBO,5.609090,51.349951
Valentijn,35,,,6029RJ,Sterksel,Heeze-Leende,Noord-Brabant,VBO,5.608932,51.349942
Valentijn,37,,,6029RJ,Sterksel,Heeze-Leende,Noord-Brabant,VBO,5.608802,51.349924
Valentijn,39,,,6029RJ,Sterksel,Heeze-Leende,Noord-Brabant,VBO,5.608716,51.349916
Valentijn,41,,,6029RJ,Sterksel,Heeze-Leende,Noord-Brabant,VBO,5.608530,51.349925
Valentijn,43,,,6029RJ,Sterksel,Heeze-Leende,Noord-Brabant,VBO,5.608472,51.349916
Valentijn,45,,,6029RJ,Sterksel,Heeze-Leende,Noord-Brabant,VBO,5.608286,51.349916
Valentijn,47,,,6029RJ,Sterksel,Heeze-Leende,Noord-Brabant,VBO,5.608199,51.349908
Valentijn,49,,,6029RJ,Sterksel,Heeze-Leende,Noord-Brabant,VBO,5.607809,51.349938
Valentijn,51,,,6029RJ,Sterksel,Heeze-Leende,Noord-Brabant,VBO,5.607511,51.349972
Valentijn,53,,,6029RJ,Sterksel,Heeze-Leende,Noord-Brabant,VBO,5.607180,51.349901
Averbodeweg,1,a,,6029RK,Sterksel,Heeze-Leende,Noord-Brabant,VBO,5.613310,51.349961
Averbodeweg,1,,,6029RK,Sterksel,Heeze-Leende,Noord-Brabant,VBO,5.613123,51.349952
Averbodeweg,2,a,,6029RK,Sterksel,Heeze-Leende,Noord-Brabant,VBO,5.613522,51.350289
Averbodeweg,2,b,,6029RK,Sterksel,Heeze-Leende,Noord-Brabant,VBO,5.613600,51.350289
Averbodeweg,2,c,,6029RK,Sterksel,Heeze-Leende,Noord-Brabant,VBO,5.613672,51.350296
Averbodeweg,2,d,,6029RK,Sterksel,Heeze-Leende,Noord-Brabant,VBO,5.613743,51.350296
Averbodeweg,2,e,,6029RK,Sterksel,Heeze-Leende,Noord-Brabant,VBO,5.613826,51.350303
Averbodeweg,2,,,6029RK,Sterksel,Heeze-Leende,Noord-Brabant,VBO,5.613450,51.350275
Averbodeweg,3,,,6029RK,Sterksel,Heeze-Leende,Noord-Brabant,VBO,5.613396,51.349970
Averbodeweg,4,a,,6029RK,Sterksel,Heeze-Leende,Noord-Brabant,VBO,5.614383,51.350387
Averbodeweg,4,b,,6029RK,Sterksel,Heeze-Leende,Noord-Brabant,VBO,5.614459,51.350414
Averbodeweg,4,c,,6029RK,Sterksel,Heeze-Leende,Noord-Brabant,VBO,5.614526,51.350423
Averbodeweg,4,d,,6029RK,Sterksel,Heeze-Leende,Noord-Brabant,VBO,5.614600,51.350430
Averbodeweg,4,e,,6029RK,Sterksel,Heeze-Leende,Noord-Brabant,VBO,5.614661,51.350462
Averbodeweg,4,f,,6029RK,Sterksel,Heeze-Leende,Noord-Brabant,VBO,5.614735,51.350463
Averbodeweg,4,,,6029RK,Sterksel,Heeze-Leende,Noord-Brabant,VBO,5.614311,51.350375
Averbodeweg,5,,,6029RK,Sterksel,Heeze-Leende,Noord-Brabant,VBO,5.613683,51.349978
Averbodeweg,6,a,,6029RK,Sterksel,Heeze-Leende,Noord-Brabant,VBO,5.615237,51.350694
Averbodeweg,6,,,6029RK,Sterksel,Heeze-Leende,Noord-Brabant,VBO,5.615510,51.350765
Averbodeweg,7,a,,6029RK,Sterksel,Heeze-Leende,Noord-Brabant,VBO,5.614858,51.350217
Averbodeweg,8,,,6029RK,Sterksel,Heeze-Leende,Noord-Brabant,VBO,5.616214,51.350863
Averbodeweg,9,,,6029RK,Sterksel,Heeze-Leende,Noord-Brabant,VBO,5.615264,51.350325
Averbodeweg,10,,,6029RK,Sterksel,Heeze-Leende,Noord-Brabant,VBO,5.616315,51.350908
Averbodeweg,11,,,6029RK,Sterksel,Heeze-Leende,Noord-Brabant,VBO,5.615761,51.350403
Averbodeweg,12,,,6029RK,Sterksel,Heeze-Leende,Noord-Brabant,VBO,5.617448,51.350833
Averbodeweg,14,,,6029RK,Sterksel,Heeze-Leende,Noord-Brabant,VBO,5.617233,51.350825
Averbodeweg,16,,,6029RK,Sterksel,Heeze-Leende,Noord-Brabant,VBO,5.618509,51.350508
Pastoor Thijssenlaan,1,a,,6029RL,Sterksel,Heeze-Leende,Noord-Brabant,VBO,5.612114,51.350710
Pastoor Thijssenlaan,1,,,6029RL,Sterksel,Heeze-Leende,Noord-Brabant,VBO,5.611948,51.350855
Pastoor Thijssenlaan,3,,,6029RL,Sterksel,Heeze-Leende,Noord-Brabant,VBO,5.612164,51.350556
Pastoor Thijssenlaan,5,,,6029RL,Sterksel,Heeze-Leende,Noord-Brabant,VBO,5.612307,51.350358
Pastoor Thijssenlaan,9,,NE01,6029RL,Sterksel,Heeze-Leende,Noord-Brabant,VBO,5.612177,51.350188
Pastoor Thijssenlaan,9,,,6029RL,Sterksel,Heeze-Leende,Noord-Brabant,VBO,5.612464,51.350169
Pastoor Thijssenlaan,11,,,6029RL,Sterksel,Heeze-Leende,Noord-Brabant,VBO,5.612577,51.349899
Pastoor Thijssenlaan,13,,,6029RL,Sterksel,Heeze-Leende,Noord-Brabant,VBO,5.612763,51.349611
Pastoor Thijssenlaan,15,,,6029RL,Sterksel,Heeze-Leende,Noord-Brabant,VBO,5.612848,51.349485
Pastoor Thijssenlaan,17,,,6029RL,Sterksel,Heeze-Leende,Noord-Brabant,VBO,5.612933,51.349305
Pastoor Thijssenlaan,21,,,6029RL,Sterksel,Heeze-Leende,Noord-Brabant,VBO,5.613048,51.349179
Pastoor Thijssenlaan,23,,,6029RL,Sterksel,Heeze-Leende,Noord-Brabant,VBO,5.613147,51.349017
Pastoor Thijssenlaan,25,,,6029RL,Sterksel,Heeze-Leende,Noord-Brabant,VBO,5.613290,51.348810
Pastoor Thijssenlaan,27,,,6029RL,Sterksel,Heeze-Leende,Noord-Brabant,VBO,5.613318,51.348765
Pastoor Thijssenlaan,29,,,6029RL,Sterksel,Heeze-Leende,Noord-Brabant,VBO,5.612900,51.348317
Pastoor Thijssenlaan,31,,,6029RL,Sterksel,Heeze-Leende,Noord-Brabant,VBO,5.614656,51.346506
Pastoor Thijssenlaan,33,,,6029RL,Sterksel,Heeze-Leende,Noord-Brabant,VBO,5.614813,51.346290
Pastoor Thijssenlaan,39,,,6029RL,Sterksel,Heeze-Leende,Noord-Brabant,VBO,5.612584,51.340574
Pastoor Thijssenlaan,41,,,6029RL,Sterksel,Heeze-Leende,Noord-Brabant,VBO,5.611966,51.339482
Pastoor Thijssenlaan,43,,,6029RL,Sterksel,Heeze-Leende,Noord-Brabant,VBO,5.610907,51.337039
Pastoor Thijssenlaan,45,,,6029RL,Sterksel,Heeze-Leende,Noord-Brabant,VBO,5.609559,51.334381
Pastoor Thijssenlaan,4,,,6029RM,Sterksel,Heeze-Leende,Noord-Brabant,VBO,5.612425,51.350978
Pastoor Thijssenlaan,6,,,6029RM,Sterksel,Heeze-Leende,Noord-Brabant,VBO,5.612596,51.350681
Pastoor Thijssenlaan,8,a,,6029RM,Sterksel,Heeze-Leende,Noord-Brabant,VBO,5.612781,51.350420
Pastoor Thijssenlaan,8,,,6029RM,Sterksel,Heeze-Leende,Noord-Brabant,VBO,5.612710,51.350555
Pastoor Thijssenlaan,10,,,6029RM,Sterksel,Heeze-Leende,Noord-Brabant,VBO,5.612881,51.350222
Pastoor Thijssenlaan,12,,,6029RM,Sterksel,Heeze-Leende,Noord-Brabant,VBO,5.613208,51.349664
Pastoor Thijssenlaan,14,,,6029RM,Sterksel,Heeze-Leende,Noord-Brabant,VBO,5.613251,51.349601
Pastoor Thijssenlaan,16,,,6029RM,Sterksel,Heeze-Leende,Noord-Brabant,VBO,5.613350,51.349466
Pastoor Thijssenlaan,18,,,6029RM,Sterksel,Heeze-Leende,Noord-Brabant,VBO,5.613422,51.349340
Pastoor Thijssenlaan,22,,,6029RM,Sterksel,Heeze-Leende,Noord-Brabant,VBO,5.613650,51.349106
Pastoor Thijssenlaan,24,,,6029RM,Sterksel,Heeze-Leende,Noord-Brabant,VBO,5.613836,51.348953
Pastoor Thijssenlaan,26,,,6029RM,Sterksel,Heeze-Leende,Noord-Brabant,VBO,5.613892,51.348737
Pastoor Thijssenlaan,28,,,6029RM,Sterksel,Heeze-Leende,Noord-Brabant,VBO,5.613920,51.348566
Pastoor Thijssenlaan,30,,,6029RM,Sterksel,Heeze-Leende,Noord-Brabant,VBO,5.614063,51.348368
Pastoor Thijssenlaan,34,,,6029RM,Sterksel,Heeze-Leende,Noord-Brabant,VBO,5.614319,51.347990
Pastoor Thijssenlaan,36,,,6029RM,Sterksel,Heeze-Leende,Noord-Brabant,VBO,5.614376,51.347855
Pastoor Thijssenlaan,38,,,6029RM,Sterksel,Heeze-Leende,Noord-Brabant,VBO,5.614419,51.347810
Pastoor Thijssenlaan,40,,,6029RN,Sterksel,Heeze-Leende,Noord-Brabant,VBO,5.614476,51.347711
Pastoor Thijssenlaan,42,,,6029RN,Sterksel,Heeze-Leende,Noord-Brabant,VBO,5.614519,51.347657
Pastoor Thijssenlaan,44,,,6029RN,Sterksel,Heeze-Leende,Noord-Brabant,VBO,5.614547,51.347603
Pastoor Thijssenlaan,46,,,6029RN,Sterksel,Heeze-Leende,Noord-Brabant,VBO,5.614590,51.347540
Pastoor Thijssenlaan,48,,,6029RN,Sterksel,Heeze-Leende,Noord-Brabant,VBO,5.614647,51.347450
Pastoor Thijssenlaan,50,,,6029RN,Sterksel,Heeze-Leende,Noord-Brabant,VBO,5.614675,51.347396
Pastoor Thijssenlaan,52,,,6029RN,Sterksel,Heeze-Leende,Noord-Brabant,VBO,5.614732,51.347342
Pastoor Thijssenlaan,54,,,6029RN,Sterksel,Heeze-Leende,Noord-Brabant,VBO,5.614761,51.347270
Pastoor Thijssenlaan,58,,,6029RN,Sterksel,Heeze-Leende,Noord-Brabant,VBO,5.615188,51.346550
Pastoor Thijssenlaan,62,a,,6029RN,Sterksel,Heeze-Leende,Noord-Brabant,VBO,5.615727,51.345426
Pastoor Thijssenlaan,62,,,6029RN,Sterksel,Heeze-Leende,Noord-Brabant,VBO,5.615771,51.345569
Pastoor Thijssenlaan,64,,,6029RN,Sterksel,Heeze-Leende,Noord-Brabant,VBO,5.615596,51.345021
Pastoor Thijssenlaan,68,,,6029RN,Sterksel,Heeze-Leende,Noord-Brabant,VBO,5.614263,51.342525
Pastoor Thijssenlaan,74,,NE01,6029RN,Sterksel,Heeze-Leende,Noord-Brabant,VBO,5.613001,51.339750
Pastoor Thijssenlaan,74,,,6029RN,Sterksel,Heeze-Leende,Noord-Brabant,VBO,5.613575,51.339740
Pastoor Thijssenlaan,76,,,6029RN,Sterksel,Heeze-Leende,Noord-Brabant,VBO,5.612737,51.338573
Pastoor Thijssenlaan,78,a,,6029RN,Sterksel,Heeze-Leende,Noord-Brabant,VBO,5.613261,51.337287
Pastoor Thijssenlaan,78,,,6029RN,Sterksel,Heeze-Leende,Noord-Brabant,VBO,5.612330,51.337522
Pastoor Thijssenlaan,80,,,6029RN,Sterksel,Heeze-Leende,Noord-Brabant,VBO,5.611653,51.336957
Pastoor Thijssenlaan,84,,,6029RN,Sterksel,Heeze-Leende,Noord-Brabant,VBO,5.610015,51.333733
Molhout,2,,,6029RP,Sterksel,Heeze-Leende,Noord-Brabant,VBO,5.616514,51.341936
Molhout,4,,,6029RP,Sterksel,Heeze-Leende,Noord-Brabant,VBO,5.616905,51.342718
Chijnsgoed,1,a,,6029RR,Sterksel,Heeze-Leende,Noord-Brabant,VBO,5.614845,51.338317
Chijnsgoed,1,,,6029RR,Sterksel,Heeze-Leende,Noord-Brabant,VBO,5.615690,51.338028
Chijnsgoed,2,a,,6029RR,Sterksel,Heeze-Leende,Noord-Brabant,VBO,5.617941,51.337637
Chijnsgoed,2,b,,6029RR,Sterksel,Heeze-Leende,Noord-Brabant,VBO,5.615350,51.338874
Chijnsgoed,2,,,6029RR,Sterksel,Heeze-Leende,Noord-Brabant,VBO,5.615350,51.338793
Chijnsgoed,3,a,,6029RR,Sterksel,Heeze-Leende,Noord-Brabant,VBO,5.629947,51.331177
Chijnsgoed,3,b,,6029RR,Sterksel,Heeze-Leende,Noord-Brabant,VBO,5.629088,51.331547
Chijnsgoed,3,c,,6029RR,Sterksel,Heeze-Leende,Noord-Brabant,VBO,5.625623,51.332947
Chijnsgoed,3,,,6029RR,Sterksel,Heeze-Leende,Noord-Brabant,VBO,5.623478,51.334273
Chijnsgoed,4,,,6029RR,Sterksel,Heeze-Leende,Noord-Brabant,VBO,5.620089,51.336608
Chijnsgoed,5,a,,6029RR,Sterksel,Heeze-Leende,Noord-Brabant,VBO,5.629653,51.329901
Chijnsgoed,5,,,6029RR,Sterksel,Heeze-Leende,Noord-Brabant,VBO,5.629754,51.329964
Chijnsgoed,6,a,,6029RR,Sterksel,Heeze-Leende,Noord-Brabant,VBO,5.624353,51.334352
Chijnsgoed,6,,,6029RR,Sterksel,Heeze-Leende,Noord-Brabant,VBO,5.622006,51.335463
Chijnsgoed,7,,,6029RR,Sterksel,Heeze-Leende,Noord-Brabant,VBO,5.628285,51.328834
Chijnsgoed,8,a,,6029RR,Sterksel,Heeze-Leende,Noord-Brabant,VBO,5.626972,51.333043
Chijnsgoed,8,,,6029RR,Sterksel,Heeze-Leende,Noord-Brabant,VBO,5.625570,51.333685
Chijnsgoed,10,a,,6029RR,Sterksel,Heeze-Leende,Noord-Brabant,VBO,5.628813,51.332493
Chijnsgoed,10,,,6029RR,Sterksel,Heeze-Leende,Noord-Brabant,VBO,5.628662,51.332294
Chijnsgoed,12,a,,6029RR,Sterksel,Heeze-Leende,Noord-Brabant,VBO,5.631983,51.330876
Chijnsgoed,12,,,6029RR,Sterksel,Heeze-Leende,Noord-Brabant,VBO,5.631639,51.330903
Kerkedijk,1,,,6029RS,Sterksel,Heeze-Leende,Noord-Brabant,VBO,5.617268,51.333757
Schoordijk,4,,,6029RT,Sterksel,Heeze-Leende,Noord-Brabant,VBO,5.592955,51.346592
Schoordijk,5,,,6029RT,Sterksel,Heeze-Leende,Noord-Brabant,VBO,5.592745,51.344731
Schutboei,1,,,6029RV,Sterksel,Heeze-Leende,Noord-Brabant,VBO,5.611526,51.349245
Schutboei,3,,,6029RV,Sterksel,Heeze-Leende,Noord-Brabant,VBO,5.611555,51.349182
Schutboei,5,,,6029RV,Sterksel,Heeze-Leende,Noord-Brabant,VBO,5.611612,51.349083
Schutboei,6,,,6029RV,Sterksel,Heeze-Leende,Noord-Brabant,VBO,5.611885,51.349226
Schutboei,7,,,6029RV,Sterksel,Heeze-Leende,Noord-Brabant,VBO,5.611654,51.349020
Schutboei,8,,,6029RV,Sterksel,Heeze-Leende,Noord-Brabant,VBO,5.611914,51.349181
Schutboei,9,,,6029RV,Sterksel,Heeze-Leende,Noord-Brabant,VBO,5.611711,51.348921
Schutboei,10,,,6029RV,Sterksel,Heeze-Leende,Noord-Brabant,VBO,5.611956,51.349073
Schutboei,11,,,6029RV,Sterksel,Heeze-Leende,Noord-Brabant,VBO,5.611725,51.348858
Schutboei,12,,,6029RV,Sterksel,Heeze-Leende,Noord-Brabant,VBO,5.611985,51.349019
Schutboei,13,,,6029RV,Sterksel,Heeze-Leende,Noord-Brabant,VBO,5.611782,51.348759
Schutboei,14,,,6029RV,Sterksel,Heeze-Leende,Noord-Brabant,VBO,5.612042,51.348911
Schutboei,15,,,6029RV,Sterksel,Heeze-Leende,Noord-Brabant,VBO,5.611811,51.348714
Schutboei,16,,,6029RV,Sterksel,Heeze-Leende,Noord-Brabant,VBO,5.612084,51.348848
Schutboei,17,,,6029RV,Sterksel,Heeze-Leende,Noord-Brabant,VBO,5.611868,51.348588
Schutboei,18,,,6029RV,Sterksel,Heeze-Leende,Noord-Brabant,VBO,5.612199,51.348749
Schutboei,19,,,6029RV,Sterksel,Heeze-Leende,Noord-Brabant,VBO,5.611882,51.348534
Schutboei,20,,,6029RV,Sterksel,Heeze-Leende,Noord-Brabant,VBO,5.612227,51.348695
Schutboei,21,,,6029RV,Sterksel,Heeze-Leende,Noord-Brabant,VBO,5.611939,51.348426
Schutboei,22,,,6029RV,Sterksel,Heeze-Leende,Noord-Brabant,VBO,5.612241,51.348578
Schutboei,24,,,6029RV,Sterksel,Heeze-Leende,Noord-Brabant,VBO,5.612269,51.348516
Lange Bleek,1,,,6029RW,Sterksel,Heeze-Leende,Noord-Brabant,VBO,5.634930,51.371660
Schillemanstraat,1,,,6029RX,Sterksel,Heeze-Leende,Noord-Brabant,VBO,5.609854,51.350668
Schillemanstraat,2,,,6029RX,Sterksel,Heeze-Leende,Noord-Brabant,VBO,5.609766,51.350327
Schillemanstraat,3,,,6029RX,Sterksel,Heeze-Leende,Noord-Brabant,VBO,5.609868,51.350561
Schillemanstraat,4,,,6029RX,Sterksel,Heeze-Leende,Noord-Brabant,VBO,5.609852,51.350327
Schillemanstraat,5,,,6029RX,Sterksel,Heeze-Leende,Noord-Brabant,VBO,5.609839,51.350507
Schillemanstraat,6,,,6029RX,Sterksel,Heeze-Leende,Noord-Brabant,VBO,5.609938,51.350327
Schillemanstraat,8,,,6029RX,Sterksel,Heeze-Leende,Noord-Brabant,VBO,5.610025,51.350327
Steenhoeve,1,,,6029SB,Sterksel,Heeze-Leende,Noord-Brabant,VBO,5.610507,51.349283
Steenhoeve,2,,,6029SB,Sterksel,Heeze-Leende,Noord-Brabant,VBO,5.610638,51.349552
Steenhoeve,3,,,6029SB,Sterksel,Heeze-Leende,Noord-Brabant,VBO,5.610694,51.349292
Steenhoeve,4,,,6029SB,Sterksel,Heeze-Leende,Noord-Brabant,VBO,5.610724,51.349552
Steenhoeve,5,,,6029SB,Sterksel,Heeze-Leende,Noord-Brabant,VBO,5.610752,51.349318
Steenhoeve,6,,,6029SB,Sterksel,Heeze-Leende,Noord-Brabant,VBO,5.610796,51.349570
Steenhoeve,7,,,6029SB,Sterksel,Heeze-Leende,Noord-Brabant,VBO,5.610838,51.349327
Steenhoeve,8,,,6029SB,Sterksel,Heeze-Leende,Noord-Brabant,VBO,5.610868,51.349579
Steenhoeve,9,,,6029SB,Sterksel,Heeze-Leende,Noord-Brabant,VBO,5.611053,51.349381
Kanhoeve,1,,,6029SC,Sterksel,Heeze-Leende,Noord-Brabant,VBO,5.609965,51.349841
Kanhoeve,2,,,6029SC,Sterksel,Heeze-Leende,Noord-Brabant,VBO,5.610309,51.349859
Kanhoeve,3,,,6029SC,Sterksel,Heeze-Leende,Noord-Brabant,VBO,5.609979,51.349778
Kanhoeve,4,,,6029SC,Sterksel,Heeze-Leende,Noord-Brabant,VBO,5.610280,51.349796
Kanhoeve,5,,,6029SC,Sterksel,Heeze-Leende,Noord-Brabant,VBO,5.609964,51.349662
Kanhoeve,6,,,6029SC,Sterksel,Heeze-Leende,Noord-Brabant,VBO,5.610294,51.349688
Kanhoeve,7,,,6029SC,Sterksel,Heeze-Leende,Noord-Brabant,VBO,5.609964,51.349617
Kanhoeve,8,,,6029SC,Sterksel,Heeze-Leende,Noord-Brabant,VBO,5.610322,51.349580
Kanhoeve,9,,,6029SC,Sterksel,Heeze-Leende,Noord-Brabant,VBO,5.609992,51.349563
Kanhoeve,10,,,6029SC,Sterksel,Heeze-Leende,Noord-Brabant,VBO,5.610322,51.349526
Kanhoeve,11,,,6029SC,Sterksel,Heeze-Leende,Noord-Brabant,VBO,5.610021,51.349527
Kanhoeve,12,,,6029SC,Sterksel,Heeze-Leende,Noord-Brabant,VBO,5.610305,51.349050
Kanhoeve,13,,,6029SC,Sterksel,Heeze-Leende,Noord-Brabant,VBO,5.610005,51.349320
Kanhoeve,14,,,6029SC,Sterksel,Heeze-Leende,Noord-Brabant,VBO,5.610262,51.349005
Kanhoeve,15,,,6029SC,Sterksel,Heeze-Leende,Noord-Brabant,VBO,5.609991,51.349257
Kanhoeve,16,,,6029SC,Sterksel,Heeze-Leende,Noord-Brabant,VBO,5.610147,51.348924
Kanhoeve,17,,,6029SC,Sterksel,Heeze-Leende,Noord-Brabant,VBO,5.609933,51.349149
Kanhoeve,18,,,6029SC,Sterksel,Heeze-Leende,Noord-Brabant,VBO,5.610089,51.348888
Kanhoeve,19,,,6029SC,Sterksel,Heeze-Leende,Noord-Brabant,VBO,5.609889,51.349104
Kanhoeve,20,,,6029SC,Sterksel,Heeze-Leende,Noord-Brabant,VBO,5.610046,51.348825
Kanhoeve,21,,,6029SC,Sterksel,Heeze-Leende,Noord-Brabant,VBO,5.609788,51.349006
Kanhoeve,22,,,6029SC,Sterksel,Heeze-Leende,Noord-Brabant,VBO,5.609468,51.348745
Kanhoeve,23,a,,6029SC,Sterksel,Heeze-Leende,Noord-Brabant,VBO,5.609530,51.348970
Kanhoeve,23,,,6029SC,Sterksel,Heeze-Leende,Noord-Brabant,VBO,5.609731,51.348970
Kanhoeve,24,,,6029SC,Sterksel,Heeze-Leende,Noord-Brabant,VBO,5.609488,51.348663
Kanhoeve,25,a,,6029SC,Sterksel,Heeze-Leende,Noord-Brabant,VBO,5.609314,51.348944
Kanhoeve,25,,,6029SC,Sterksel,Heeze-Leende,Noord-Brabant,VBO,5.609429,51.348961
Kanhoeve,26,,,6029SC,Sterksel,Heeze-Leende,Noord-Brabant,VBO,5.609500,51.348582
Kanhoeve,27,a,,6029SC,Sterksel,Heeze-Leende,Noord-Brabant,VBO,5.609142,51.348926
Kanhoeve,27,,,6029SC,Sterksel,Heeze-Leende,Noord-Brabant,VBO,5.609228,51.348935
Kanhoeve,28,,,6029SC,Sterksel,Heeze-Leende,Noord-Brabant,VBO,5.609330,51.348565
Kanhoeve,29,a,,6029SC,Sterksel,Heeze-Leende,Noord-Brabant,VBO,5.608970,51.348908
Kanhoeve,29,,,6029SC,Sterksel,Heeze-Leende,Noord-Brabant,VBO,5.609056,51.348917
Kanhoeve,30,,,6029SC,Sterksel,Heeze-Leende,Noord-Brabant,VBO,5.609306,51.348649
Kanhoeve,31,a,,6029SC,Sterksel,Heeze-Leende,Noord-Brabant,VBO,5.608754,51.348900
Kanhoeve,31,,,6029SC,Sterksel,Heeze-Leende,Noord-Brabant,VBO,5.608841,51.348918
Kanhoeve,32,,,6029SC,Sterksel,Heeze-Leende,Noord-Brabant,VBO,5.609291,51.348731
Kanhoeve,33,,,6029SC,Sterksel,Heeze-Leende,Noord-Brabant,VBO,5.608698,51.349206
Kanhoeve,35,,,6029SC,Sterksel,Heeze-Leende,Noord-Brabant,VBO,5.608785,51.349214
Kanhoeve,37,,,6029SC,Sterksel,Heeze-Leende,Noord-Brabant,VBO,5.608943,51.349223
Kanhoeve,39,,,6029SC,Sterksel,Heeze-Leende,Noord-Brabant,VBO,5.609043,51.349232
Kanhoeve,41,,,6029SC,Sterksel,Heeze-Leende,Noord-Brabant,VBO,5.609087,51.349474
Kanhoeve,43,,,6029SC,Sterksel,Heeze-Leende,Noord-Brabant,VBO,5.609088,51.349519
Kanhoeve,44,,,6029SC,Sterksel,Heeze-Leende,Noord-Brabant,VBO,5.608537,51.348568
Kanhoeve,45,,,6029SC,Sterksel,Heeze-Leende,Noord-Brabant,VBO,5.609074,51.349699
Kanhoeve,46,,,6029SC,Sterksel,Heeze-Leende,Noord-Brabant,VBO,5.608510,51.348738
Kanhoeve,48,,,6029SC,Sterksel,Heeze-Leende,Noord-Brabant,VBO,5.608482,51.348918
Kanhoeve,50,,,6029SC,Sterksel,Heeze-Leende,Noord-Brabant,VBO,5.608454,51.349098
Kanhoeve,52,,,6029SC,Sterksel,Heeze-Leende,Noord-Brabant,VBO,5.608397,51.349278
Kanhoeve,54,,,6029SC,Sterksel,Heeze-Leende,Noord-Brabant,VBO,5.608355,51.349467
Kanhoeve,56,,,6029SC,Sterksel,Heeze-Leende,Noord-Brabant,VBO,5.608270,51.349719
Brilhoeve,1,,,6029SE,Sterksel,Heeze-Leende,Noord-Brabant,VBO,5.609647,51.349455
Brilhoeve,2,,,6029SE,Sterksel,Heeze-Leende,Noord-Brabant,VBO,5.609431,51.349276
Brilhoeve,3,,,6029SE,Sterksel,Heeze-Leende,Noord-Brabant,VBO,5.609575,51.349456
Brilhoeve,4,,,6029SE,Sterksel,Heeze-Leende,Noord-Brabant,VBO,5.609287,51.349267
Brilhoeve,5,,,6029SE,Sterksel,Heeze-Leende,Noord-Brabant,VBO,5.609446,51.349447
Brilhoeve,6,,,6029SE,Sterksel,Heeze-Leende,Noord-Brabant,VBO,5.609215,51.349258
Poelhoeve,2,,,6029SG,Sterksel,Heeze-Leende,Noord-Brabant,VBO,5.609527,51.348386
Poelhoeve,4,,,6029SG,Sterksel,Heeze-Leende,Noord-Brabant,VBO,5.609597,51.347972
Poelhoeve,6,,,6029SG,Sterksel,Heeze-Leende,Noord-Brabant,VBO,5.609194,51.347874
Poelhoeve,8,,,6029SG,Sterksel,Heeze-Leende,Noord-Brabant,VBO,5.609096,51.348315
Poelhoeve,10,,,6029SG,Sterksel,Heeze-Leende,Noord-Brabant,VBO,5.608766,51.348235
Poelhoeve,12,,,6029SG,Sterksel,Heeze-Leende,Noord-Brabant,VBO,5.608663,51.347812
Poelhoeve,14,,,6029SG,Sterksel,Heeze-Leende,Noord-Brabant,VBO,5.608363,51.348190
Poelhoeve,16,,,6029SG,Sterksel,Heeze-Leende,Noord-Brabant,VBO,5.608218,51.347759
Poelhoeve,18,,,6029SG,Sterksel,Heeze-Leende,Noord-Brabant,VBO,5.607947,51.348155
Laathof,1,,,6029SJ,Sterksel,Heeze-Leende,Noord-Brabant,VBO,5.606554,51.350198
Laathof,2,,,6029SJ,Sterksel,Heeze-Leende,Noord-Brabant,VBO,5.606047,51.350725
Laathof,3,,,6029SJ,Sterksel,Heeze-Leende,Noord-Brabant,VBO,5.606710,51.349946
Laathof,4,,,6029SJ,Sterksel,Heeze-Leende,Noord-Brabant,VBO,5.606010,51.350485
Laathof,5,,,6029SJ,Sterksel,Heeze-Leende,Noord-Brabant,VBO,5.607439,51.349515
Laathof,6,,,6029SJ,Sterksel,Heeze-Leende,Noord-Brabant,VBO,5.606064,51.350257
Laathof,7,,,6029SJ,Sterksel,Heeze-Leende,Noord-Brabant,VBO,5.607529,51.349307
Laathof,8,,,6029SJ,Sterksel,Heeze-Leende,Noord-Brabant,VBO,5.606078,51.350024
Laathof,9,,,6029SJ,Sterksel,Heeze-Leende,Noord-Brabant,VBO,5.607517,51.349071
Laathof,10,,,6029SJ,Sterksel,Heeze-Leende,Noord-Brabant,VBO,5.606052,51.349805
Laathof,11,,,6029SJ,Sterksel,Heeze-Leende,Noord-Brabant,VBO,5.607628,51.348893
Laathof,13,,,6029SJ,Sterksel,Heeze-Leende,Noord-Brabant,VBO,5.607727,51.348695
Laathof,14,,,6029SJ,Sterksel,Heeze-Leende,Noord-Brabant,VBO,5.606921,51.349206
Laathof,15,,,6029SJ,Sterksel,Heeze-Leende,Noord-Brabant,VBO,5.607839,51.348498
Laathof,18,,,6029SJ,Sterksel,Heeze-Leende,Noord-Brabant,VBO,5.607222,51.348628
Laathof,20,,,6029SJ,Sterksel,Heeze-Leende,Noord-Brabant,VBO,5.607320,51.348370
Berkenlaan,3,,,6029TB,Sterksel,Heeze-Leende,Noord-Brabant,VBO,5.624379,51.357589
Berkenlaan,5,,,6029TB,Sterksel,Heeze-Leende,Noord-Brabant,VBO,5.624297,51.357547
Berkenlaan,7,,,6029TB,Sterksel,Heeze-Leende,Noord-Brabant,VBO,5.624088,51.357443
Berkenlaan,9,,,6029TB,Sterksel,Heeze-Leende,Noord-Brabant,VBO,5.623965,51.357384
Berkenlaan,11,,,6029TB,Sterksel,Heeze-Leende,Noord-Brabant,VBO,5.623741,51.357282
Berkenlaan,13,,,6029TB,Sterksel,Heeze-Leende,Noord-Brabant,VBO,5.623504,51.357165
Berkenlaan,15,,,6029TB,Sterksel,Heeze-Leende,Noord-Brabant,VBO,5.623712,51.357114
Berkenlaan,17,,,6029TB,Sterksel,Heeze-Leende,Noord-Brabant,VBO,5.624012,51.357086
Berkenlaan,19,,,6029TB,Sterksel,Heeze-Leende,Noord-Brabant,VBO,5.623747,51.356957
Sparrenlaan,2,,,6029TC,Sterksel,Heeze-Leende,Noord-Brabant,VBO,5.624219,51.356794
Sparrenlaan,4,,,6029TC,Sterksel,Heeze-Leende,Noord-Brabant,VBO,5.624144,51.356649
Sparrenlaan,6,,,6029TC,Sterksel,Heeze-Leende,Noord-Brabant,VBO,5.624443,51.356771
Koolmeesstraat,1,,,6029TP,Sterksel,Heeze-Leende,Noord-Brabant,VBO,5.627801,51.356889
Koolmeesstraat,3,,,6029TP,Sterksel,Heeze-Leende,Noord-Brabant,VBO,5.628130,51.357023
Pimpelmeesstraat,2,,,6029TR,Sterksel,Heeze-Leende,Noord-Brabant,VBO,5.627654,51.357057
Pimpelmeesstraat,4,,,6029TR,Sterksel,Heeze-Leende,Noord-Brabant,VBO,5.627939,51.357165
